13962KABI ABI20160201000010402/01/16 00:00:31  5-MIN KABI 010600Z 15003KT 10SM CLR 06/02 A2987 1840 79 1200 150/03 RMK AO2 T00560022
13962KABI ABI20160201000510402/01/16 00:05:31  5-MIN KABI 010605Z 15004KT 10SM CLR 06/02 A2986 1840 79 1200 150/04 RMK AO2 T00560022
13962KABI ABI20160201001010402/01/16 00:10:31  5-MIN KABI 010610Z 18006KT 10SM CLR 06/02 A2986 1840 79 1200 170/06 RMK AO2 T00560022
13962KABI ABI20160201001510402/01/16 00:15:31  5-MIN KABI 010615Z 17006KT 10SM CLR 05/02 A2986 1840 82 1100 160/06 RMK AO2 T00500022
13962KABI ABI20160201002010402/01/16 00:20:31  5-MIN KABI 010620Z 17005KT 10SM CLR 06/02 A2987 1840 79 1200 170/05 RMK AO2 T00560022
13962KABI ABI20160201002510402/01/16 00:25:31  5-MIN KABI 010625Z 18006KT 10SM CLR 06/02 A2987 1840 79 1200 170/06 RMK AO2 T00560022
13962KABI ABI20160201003010402/01/16 00:30:31  5-MIN KABI 010630Z 18004KT 10SM CLR 06/02 A2987 1840 79 1200 180/04 RMK AO2 T00560022
13962KABI ABI20160201003510402/01/16 00:35:31  5-MIN KABI 010635Z 00000KT 10SM CLR 05/02 A2987 1840 82 1100 000/00 RMK AO2 T00500022
13962KABI ABI20160201004010402/01/16 00:40:31  5-MIN KABI 010640Z 00000KT 10SM CLR 05/02 A2987 1840 82 1100 000/00 RMK AO2 T00500022
13962KABI ABI20160201004510402/01/16 00:45:31  5-MIN KABI 010645Z 26003KT 10SM CLR 06/02 A2987 1840 79 1200 250/03 RMK AO2 T00560022
13962KABI ABI20160201005011102/01/16 00:50:31  5-MIN KABI 010650Z 00000KT 10SM CLR 06/02 A2987 1840 79 1200 000/00 RMK AO2 SLP104 T00560022
13962KABI ABI20160201005510402/01/16 00:55:31  5-MIN KABI 010655Z 00000KT 10SM CLR 06/03 A2986 1850 79 1300 000/00 RMK AO2 T00610028
13962KABI ABI20160201010010402/01/16 01:00:31  5-MIN KABI 010700Z 00000KT 10SM CLR 07/03 A2986 1840 76 1300 000/00 RMK AO2 T00670028
13962KABI ABI20160201010510402/01/16 01:05:31  5-MIN KABI 010705Z 00000KT 10SM CLR 06/03 A2987 1840 79 1300 000/00 RMK AO2 T00610028
13962KABI ABI20160201011010402/01/16 01:10:31  5-MIN KABI 010710Z 00000KT 10SM CLR 07/03 A2986 1850 76 1300 000/00 RMK AO2 T00670028
13962KABI ABI20160201011510402/01/16 01:15:31  5-MIN KABI 010715Z 00000KT 10SM CLR 06/03 A2986 1850 79 1300 000/00 RMK AO2 T00610028
13962KABI ABI20160201012010402/01/16 01:20:31  5-MIN KABI 010720Z 00000KT 10SM CLR 06/03 A2986 1850 79 1300 000/00 RMK AO2 T00610028
13962KABI ABI20160201012510402/01/16 01:25:31  5-MIN KABI 010725Z 00000KT 10SM CLR 07/03 A2986 1850 76 1300 000/00 RMK AO2 T00670028
13962KABI ABI20160201013010402/01/16 01:30:31  5-MIN KABI 010730Z 16004KT 10SM CLR 07/03 A2986 1850 76 1300 160/04 RMK AO2 T00670028
13962KABI ABI20160201013510402/01/16 01:35:31  5-MIN KABI 010735Z 15005KT 10SM CLR 07/03 A2986 1850 76 1300 150/05 RMK AO2 T00670028
13962KABI ABI20160201014010402/01/16 01:40:31  5-MIN KABI 010740Z 14004KT 10SM CLR 06/02 A2986 1850 76 1300 130/04 RMK AO2 T00610022
13962KABI ABI20160201014510402/01/16 01:45:31  5-MIN KABI 010745Z 12003KT 10SM CLR 07/02 A2986 1850 73 1300 110/03 RMK AO2 T00670022
13962KABI ABI20160201015011102/01/16 01:50:31  5-MIN KABI 010750Z 13003KT 10SM CLR 07/03 A2986 1850 73 1400 120/03 RMK AO2 SLP101 T00720028
13962KABI ABI20160201015510402/01/16 01:55:31  5-MIN KABI 010755Z 12004KT 10SM CLR 07/03 A2986 1850 73 1400 120/04 RMK AO2 T00720028
13962KABI ABI20160201020010402/01/16 02:00:31  5-MIN KABI 010800Z 12004KT 10SM CLR 07/03 A2986 1850 73 1400 120/04 RMK AO2 T00720028
13962KABI ABI20160201020510402/01/16 02:05:31  5-MIN KABI 010805Z 13004KT 10SM CLR 07/03 A2986 1850 73 1400 130/04 RMK AO2 T00720028
13962KABI ABI20160201021010402/01/16 02:10:31  5-MIN KABI 010810Z 13003KT 10SM CLR 07/02 A2986 1850 73 1300 130/03 RMK AO2 T00670022
13962KABI ABI20160201021510402/01/16 02:15:31  5-MIN KABI 010815Z 13004KT 10SM CLR 07/02 A2985 1850 73 1300 130/04 RMK AO2 T00670022
13962KABI ABI20160201022010402/01/16 02:20:31  5-MIN KABI 010820Z 12005KT 10SM CLR 07/02 A2985 1860 73 1300 120/05 RMK AO2 T00670022
13962KABI ABI20160201022510402/01/16 02:25:31  5-MIN KABI 010825Z 11005KT 10SM CLR 06/02 A2985 1860 76 1300 110/05 RMK AO2 T00610022
13962KABI ABI20160201023010402/01/16 02:30:31  5-MIN KABI 010830Z 11005KT 10SM CLR 06/02 A2984 1870 76 1300 100/05 RMK AO2 T00610022
13962KABI ABI20160201023510402/01/16 02:35:31  5-MIN KABI 010835Z 10005KT 10SM CLR 06/02 A2984 1870 76 1300 090/05 RMK AO2 T00610022
13962KABI ABI20160201024010402/01/16 02:40:31  5-MIN KABI 010840Z 10005KT 10SM CLR 06/03 A2984 1870 79 1300 090/05 RMK AO2 T00610028
13962KABI ABI20160201024510402/01/16 02:45:31  5-MIN KABI 010845Z 10004KT 10SM CLR 06/02 A2984 1870 76 1300 090/04 RMK AO2 T00610022
13962KABI ABI20160201025011702/01/16 02:50:31  5-MIN KABI 010850Z 09004KT 10SM CLR 06/02 A2984 1860 76 1300 080/04 RMK AO2 SLP096 T00610022 58005
13962KABI ABI20160201025510402/01/16 02:55:31  5-MIN KABI 010855Z 06003KT 10SM CLR 06/02 A2984 1860 79 1200 060/03 RMK AO2 T00560022
13962KABI ABI20160201030010402/01/16 03:00:31  5-MIN KABI 010900Z 00000KT 10SM CLR 06/02 A2984 1860 79 1200 000/00 RMK AO2 T00560022
13962KABI ABI20160201030510402/01/16 03:05:31  5-MIN KABI 010905Z 08003KT 10SM CLR 06/02 A2984 1860 79 1200 080/03 RMK AO2 T00560022
13962KABI ABI20160201031010402/01/16 03:10:31  5-MIN KABI 010910Z 06003KT 10SM CLR 06/02 A2985 1860 79 1200 060/03 RMK AO2 T00560022
13962KABI ABI20160201031510402/01/16 03:15:31  5-MIN KABI 010915Z 08004KT 10SM CLR 06/02 A2985 1860 79 1200 080/04 RMK AO2 T00560022
13962KABI ABI20160201032010402/01/16 03:20:31  5-MIN KABI 010920Z 10004KT 10SM CLR 06/02 A2984 1860 79 1200 100/04 RMK AO2 T00560022
13962KABI ABI20160201032510402/01/16 03:25:31  5-MIN KABI 010925Z 12006KT 10SM CLR 04/02 A2984 1870 82 1100 110/06 RMK AO2 T00440017
13962KABI ABI20160201033010402/01/16 03:30:31  5-MIN KABI 010930Z 13009KT 10SM CLR 04/02 A2983 1880 85 1000 120/09 RMK AO2 T00390017
13962KABI ABI20160201033511102/01/16 03:35:31  5-MIN KABI 010935Z 12009KT 10SM CLR 03/01 A2982 1880 85 1000 120/09 RMK AO2 PRESFR T00330011
13962KABI ABI20160201034010402/01/16 03:40:31  5-MIN KABI 010940Z 13009KT 10SM CLR 03/01 A2982 1880 85 1000 120/09 RMK AO2 T00330011
13962KABI ABI20160201034510402/01/16 03:45:31  5-MIN KABI 010945Z 13009KT 10SM CLR 04/02 A2982 1890 85 1000 120/09 RMK AO2 T00390017
13962KABI ABI20160201035011102/01/16 03:50:31  5-MIN KABI 010950Z 13009KT 10SM CLR 04/02 A2982 1890 82 1100 130/09 RMK AO2 SLP088 T00440017
13962KABI ABI20160201035510402/01/16 03:55:31  5-MIN KABI 010955Z 15006KT 10SM CLR 04/02 A2982 1890 85 1100 140/06 RMK AO2 T00440022
13962KABI ABI20160201040010402/01/16 04:00:31  5-MIN KABI 011000Z 15004KT 10SM CLR 04/02 A2982 1890 85 1000 150/04 RMK AO2 T00390017
13962KABI ABI20160201040510402/01/16 04:05:31  5-MIN KABI 011005Z 00000KT 10SM CLR 04/02 A2982 1890 85 1000 000/00 RMK AO2 T00390017
13962KABI ABI20160201041010402/01/16 04:10:31  5-MIN KABI 011010Z 00000KT 10SM CLR 04/02 A2982 1890 85 1000 000/00 RMK AO2 T00390017
13962KABI ABI20160201041510302/01/16 04:15:31  5-MIN KABI 011015Z 00000KT 10SM CLR 03/01 A2981 1890 89 900 000/00 RMK AO2 T00280011
13962KABI ABI20160201042010302/01/16 04:20:31  5-MIN KABI 011020Z 00000KT 10SM CLR 02/01 A2981 1890 89 800 000/00 RMK AO2 T00220006
13962KABI ABI20160201042510302/01/16 04:25:31  5-MIN KABI 011025Z 18003KT 10SM CLR 02/01 A2981 1890 89 800 170/03 RMK AO2 T00220006
13962KABI ABI20160201043010402/01/16 04:30:31  5-MIN KABI 011030Z 17003KT 10SM CLR 03/01 A2981 1890 85 1000 160/03 RMK AO2 T00330011
13962KABI ABI20160201043510402/01/16 04:35:31  5-MIN KABI 011035Z 00000KT 10SM CLR 04/02 A2981 1890 85 1000 000/00 RMK AO2 T00390017
13962KABI ABI20160201044010402/01/16 04:40:31  5-MIN KABI 011040Z 00000KT 10SM CLR 03/01 A2981 1890 85 1000 000/00 RMK AO2 T00330011
13962KABI ABI20160201044510402/01/16 04:45:31  5-MIN KABI 011045Z 00000KT 10SM CLR 03/01 A2981 1890 85 1000 000/00 RMK AO2 T00330011
13962KABI ABI20160201045011102/01/16 04:50:31  5-MIN KABI 011050Z 00000KT 10SM CLR 04/02 A2981 1890 85 1000 000/00 RMK AO2 SLP088 T00390017
13962KABI ABI20160201045510402/01/16 04:55:31  5-MIN KABI 011055Z 00000KT 10SM CLR 04/02 A2982 1890 85 1000 000/00 RMK AO2 T00390017
13962KABI ABI20160201050010402/01/16 05:00:31  5-MIN KABI 011100Z 00000KT 10SM CLR 04/02 A2982 1890 85 1000 000/00 RMK AO2 T00390017
13962KABI ABI20160201050510402/01/16 05:05:31  5-MIN KABI 011105Z 00000KT 10SM CLR 04/02 A2981 1890 85 1000 000/00 RMK AO2 T00390017
13962KABI ABI20160201051010402/01/16 05:10:31  5-MIN KABI 011110Z 00000KT 10SM CLR 04/02 A2981 1890 82 1100 000/00 RMK AO2 T00440017
13962KABI ABI20160201051510402/01/16 05:15:31  5-MIN KABI 011115Z 00000KT 10SM CLR 04/02 A2981 1890 82 1100 000/00 RMK AO2 T00440017
13962KABI ABI20160201052010402/01/16 05:20:31  5-MIN KABI 011120Z 00000KT 10SM CLR 04/02 A2981 1890 82 1100 000/00 RMK AO2 T00440017
13962KABI ABI20160201052510402/01/16 05:25:31  5-MIN KABI 011125Z 13005KT 10SM CLR 05/02 A2981 1900 79 1200 120/05 RMK AO2 T00500017
13962KABI ABI20160201053010402/01/16 05:30:31  5-MIN KABI 011130Z 12007KT 10SM CLR 04/02 A2981 1900 82 1100 110/07 RMK AO2 T00440017
13962KABI ABI20160201053510402/01/16 05:35:31  5-MIN KABI 011135Z 11008KT 10SM CLR 04/02 A2981 1900 85 1100 110/08 RMK AO2 T00390017
13962KABI ABI20160201054010402/01/16 05:40:31  5-MIN KABI 011140Z 11009KT 10SM CLR 04/02 A2980 1900 82 1100 110/09 RMK AO2 T00440017
13962KABI ABI20160201054510402/01/16 05:45:31  5-MIN KABI 011145Z 11008KT 10SM CLR 04/02 A2980 1900 85 1100 100/08 RMK AO2 T00440022
13962KABI ABI20160201055012902/01/16 05:50:31  5-MIN KABI 011150Z 10008KT 10SM CLR 04/02 A2980 1910 82 1100 100/08 RMK AO2 SLP084 T00440017 10072 20022 58009
13962KABI ABI20160201055510402/01/16 05:55:31  5-MIN KABI 011155Z 10007KT 10SM CLR 05/02 A2980 1900 82 1200 100/07 RMK AO2 T00500022
13962KABI ABI20160201060010402/01/16 06:00:31  5-MIN KABI 011200Z 11008KT 10SM CLR 04/02 A2980 1910 85 1100 100/08 RMK AO2 T00440022
13962KABI ABI20160201060510402/01/16 06:05:31  5-MIN KABI 011205Z 12009KT 10SM CLR 04/02 A2980 1910 85 1100 110/09 RMK AO2 T00440022
13962KABI ABI20160201061010402/01/16 06:10:31  5-MIN KABI 011210Z 11008KT 10SM CLR 05/02 A2980 1910 82 1200 110/08 RMK AO2 T00500022
13962KABI ABI20160201061510402/01/16 06:15:31  5-MIN KABI 011215Z 12007KT 10SM CLR 04/02 A2980 1910 85 1100 110/07 RMK AO2 T00440022
13962KABI ABI20160201062010402/01/16 06:20:31  5-MIN KABI 011220Z 11006KT 10SM CLR 05/02 A2979 1910 82 1200 110/06 RMK AO2 T00500022
13962KABI ABI20160201062510402/01/16 06:25:31  5-MIN KABI 011225Z 11006KT 10SM CLR 05/02 A2979 1910 82 1200 100/06 RMK AO2 T00500022
13962KABI ABI20160201063010402/01/16 06:30:31  5-MIN KABI 011230Z 11005KT 10SM CLR 06/02 A2979 1910 79 1300 100/05 RMK AO2 T00560022
13962KABI ABI20160201063510402/01/16 06:35:31  5-MIN KABI 011235Z 09005KT 10SM CLR 06/02 A2979 1910 79 1300 080/05 RMK AO2 T00560022
13962KABI ABI20160201064010402/01/16 06:40:31  5-MIN KABI 011240Z 09007KT 10SM CLR 06/03 A2979 1910 82 1300 090/07 RMK AO2 T00560028
13962KABI ABI20160201064510402/01/16 06:45:31  5-MIN KABI 011245Z 10005KT 10SM CLR 06/03 A2979 1910 82 1300 100/05 RMK AO2 T00560028
13962KABI ABI20160201065011102/01/16 06:50:31  5-MIN KABI 011250Z 11007KT 10SM CLR 05/02 A2979 1910 82 1200 100/07 RMK AO2 SLP082 T00500022
13962KABI ABI20160201065510402/01/16 06:55:31  5-MIN KABI 011255Z 12007KT 10SM CLR 05/02 A2979 1910 82 1200 110/07 RMK AO2 T00500022
13962KABI ABI20160201070010402/01/16 07:00:31  5-MIN KABI 011300Z 12007KT 10SM CLR 05/03 A2979 1920 85 1200 110/07 RMK AO2 T00500028
13962KABI ABI20160201070510402/01/16 07:05:31  5-MIN KABI 011305Z 12006KT 10SM CLR 05/02 A2978 1920 82 1200 120/06 RMK AO2 T00500022
13962KABI ABI20160201071010402/01/16 07:10:31  5-MIN KABI 011310Z 13007KT 10SM CLR 05/02 A2979 1920 82 1200 120/07 RMK AO2 T00500022
13962KABI ABI20160201071510402/01/16 07:15:31  5-MIN KABI 011315Z 12007KT 10SM CLR 05/02 A2979 1920 82 1200 120/07 RMK AO2 T00500022
13962KABI ABI20160201072010402/01/16 07:20:31  5-MIN KABI 011320Z 12007KT 10SM CLR 05/03 A2978 1920 85 1200 110/07 RMK AO2 T00500028
13962KABI ABI20160201072510402/01/16 07:25:31  5-MIN KABI 011325Z 12007KT 10SM CLR 05/03 A2978 1920 85 1200 120/07 RMK AO2 T00500028
13962KABI ABI20160201073010402/01/16 07:30:31  5-MIN KABI 011330Z 12008KT 10SM CLR 05/02 A2978 1920 82 1200 120/08 RMK AO2 T00500022
13962KABI ABI20160201073510402/01/16 07:35:31  5-MIN KABI 011335Z 13008KT 10SM CLR 05/03 A2978 1920 85 1200 120/08 RMK AO2 T00500028
13962KABI ABI20160201074010402/01/16 07:40:31  5-MIN KABI 011340Z 13009KT 10SM CLR 05/03 A2978 1920 85 1200 120/09 RMK AO2 T00500028
13962KABI ABI20160201074510402/01/16 07:45:31  5-MIN KABI 011345Z 14008KT 10SM CLR 05/03 A2978 1920 85 1200 130/08 RMK AO2 T00500028
13962KABI ABI20160201075011102/01/16 07:50:31  5-MIN KABI 011350Z 14008KT 10SM CLR 05/03 A2978 1920 85 1200 130/08 RMK AO2 SLP080 T00500028
13962KABI ABI20160201075510402/01/16 07:55:31  5-MIN KABI 011355Z 14008KT 10SM CLR 06/03 A2978 1920 82 1300 140/08 RMK AO2 T00560028
13962KABI ABI20160201080010402/01/16 08:00:31  5-MIN KABI 011400Z 14007KT 10SM CLR 06/03 A2978 1920 82 1300 140/07 RMK AO2 T00560028
13962KABI ABI20160201080510402/01/16 08:05:31  5-MIN KABI 011405Z 14006KT 10SM CLR 06/03 A2978 1920 82 1300 130/06 RMK AO2 T00560028
13962KABI ABI20160201081010402/01/16 08:10:31  5-MIN KABI 011410Z 13006KT 10SM CLR 06/03 A2978 1920 82 1400 120/06 RMK AO2 T00610033
13962KABI ABI20160201081510402/01/16 08:15:31  5-MIN KABI 011415Z 13006KT 10SM CLR 06/03 A2978 1920 82 1400 120/06 RMK AO2 T00610033
13962KABI ABI20160201082010402/01/16 08:20:31  5-MIN KABI 011420Z 13006KT 10SM CLR 07/03 A2978 1920 79 1400 120/06 RMK AO2 T00670033
13962KABI ABI20160201082510402/01/16 08:25:31  5-MIN KABI 011425Z 12007KT 10SM CLR 07/03 A2978 1930 79 1400 120/07 RMK AO2 T00670033
13962KABI ABI20160201083010402/01/16 08:30:31  5-MIN KABI 011430Z 13006KT 10SM CLR 07/04 A2978 1930 82 1400 120/06 RMK AO2 T00670039
13962KABI ABI20160201083510402/01/16 08:35:31  5-MIN KABI 011435Z 12007KT 10SM CLR 07/04 A2978 1930 79 1500 120/07 RMK AO2 T00720039
13962KABI ABI20160201084010402/01/16 08:40:31  5-MIN KABI 011440Z 12008KT 10SM CLR 08/04 A2978 1930 76 1600 120/08 RMK AO2 T00780039
13962KABI ABI20160201084510402/01/16 08:45:31  5-MIN KABI 011445Z 12008KT 10SM CLR 08/04 A2977 1930 76 1600 110/08 RMK AO2 T00780039
13962KABI ABI20160201085011702/01/16 08:50:31  5-MIN KABI 011450Z 11007KT 10SM CLR 08/04 A2977 1930 73 1600 110/07 RMK AO2 SLP076 T00830039 56014
13962KABI ABI20160201085510402/01/16 08:55:31  5-MIN KABI 011455Z 11006KT 10SM CLR 09/04 A2977 1930 73 1700 110/06 RMK AO2 T00890044
13962KABI ABI20160201090010402/01/16 09:00:31  5-MIN KABI 011500Z 13006KT 10SM CLR 09/05 A2977 1930 74 1800 130/06 RMK AO2 T00940050
13962KABI ABI20160201090510402/01/16 09:05:31  5-MIN KABI 011505Z 15008KT 10SM CLR 10/06 A2977 1930 74 1800 140/08 RMK AO2 T01000056
13962KABI ABI20160201091010402/01/16 09:10:31  5-MIN KABI 011510Z 14008KT 10SM CLR 11/05 A2977 1930 68 1900 140/08 RMK AO2 T01060050
13962KABI ABI20160201091510402/01/16 09:15:31  5-MIN KABI 011515Z 14010KT 10SM CLR 11/05 A2977 1930 68 1900 140/10 RMK AO2 T01060050
13962KABI ABI20160201092010402/01/16 09:20:31  5-MIN KABI 011520Z 14009KT 10SM CLR 11/05 A2977 1930 66 2000 140/09 RMK AO2 T01110050
13962KABI ABI20160201092510402/01/16 09:25:31  5-MIN KABI 011525Z 13008KT 10SM CLR 12/05 A2977 1930 63 2000 130/08 RMK AO2 T01170050
13962KABI ABI20160201093010402/01/16 09:30:31  5-MIN KABI 011530Z 13008KT 10SM CLR 12/05 A2977 1930 63 2000 130/08 RMK AO2 T01170050
13962KABI ABI20160201093510402/01/16 09:35:31  5-MIN KABI 011535Z 13008KT 10SM CLR 12/05 A2977 1930 61 2100 120/08 RMK AO2 T01220050
13962KABI ABI20160201094010402/01/16 09:40:31  5-MIN KABI 011540Z 13008KT 10SM CLR 12/05 A2977 1940 61 2100 130/08 RMK AO2 T01220050
13962KABI ABI20160201094510402/01/16 09:45:31  5-MIN KABI 011545Z 14011KT 10SM CLR 13/05 A2976 1940 59 2200 140/11 RMK AO2 T01280050
13962KABI ABI20160201095011102/01/16 09:50:31  5-MIN KABI 011550Z 15011KT 10SM CLR 13/05 A2977 1940 59 2200 140/11 RMK AO2 SLP071 T01280050
13962KABI ABI20160201095510402/01/16 09:55:31  5-MIN KABI 011555Z 16013KT 10SM CLR 13/05 A2976 1940 57 2200 150/13 RMK AO2 T01330050
13962KABI ABI20160201100010402/01/16 10:00:31  5-MIN KABI 011600Z 16013KT 10SM CLR 13/05 A2976 1940 57 2200 150/13 RMK AO2 T01330050
13962KABI ABI20160201100510402/01/16 10:05:31  5-MIN KABI 011605Z 14015KT 10SM CLR 13/06 A2976 1940 59 2200 140/15 RMK AO2 T01330056
13962KABI ABI20160201101010402/01/16 10:10:31  5-MIN KABI 011610Z 15012KT 10SM CLR 13/06 A2976 1940 59 2200 150/12 RMK AO2 T01330056
13962KABI ABI20160201101510402/01/16 10:15:31  5-MIN KABI 011615Z 14012KT 10SM CLR 14/06 A2975 1950 57 2300 130/12 RMK AO2 T01390056
13962KABI ABI20160201102010402/01/16 10:20:31  5-MIN KABI 011620Z 14013KT 10SM CLR 14/06 A2975 1950 57 2300 140/13 RMK AO2 T01390056
13962KABI ABI20160201102510402/01/16 10:25:31  5-MIN KABI 011625Z 14012KT 10SM CLR 14/06 A2975 1950 57 2300 130/12 RMK AO2 T01390056
13962KABI ABI20160201103010402/01/16 10:30:31  5-MIN KABI 011630Z 15012KT 10SM CLR 14/06 A2974 1960 55 2400 140/12 RMK AO2 T01440056
13962KABI ABI20160201103510402/01/16 10:35:31  5-MIN KABI 011635Z 15011KT 10SM CLR 15/06 A2974 1960 53 2500 150/11 RMK AO2 T01500056
13962KABI ABI20160201104010402/01/16 10:40:31  5-MIN KABI 011640Z 15013KT 10SM CLR 16/06 A2973 1970 51 2500 140/13 RMK AO2 T01560056
13962KABI ABI20160201104510402/01/16 10:45:31  5-MIN KABI 011645Z 15013KT 10SM CLR 16/06 A2973 1970 49 2600 140/13 RMK AO2 T01610056
13962KABI ABI20160201105011102/01/16 10:50:31  5-MIN KABI 011650Z 15013KT 10SM CLR 16/06 A2972 1970 49 2600 150/13 RMK AO2 SLP056 T01610056
13962KABI ABI20160201105510402/01/16 10:55:31  5-MIN KABI 011655Z 15012KT 10SM CLR 17/06 A2972 1980 47 2700 140/12 RMK AO2 T01670056
13962KABI ABI20160201110010402/01/16 11:00:31  5-MIN KABI 011700Z 15013KT 10SM CLR 17/06 A2971 1980 46 2700 140/13 RMK AO2 T01720056
13962KABI ABI20160201110510402/01/16 11:05:31  5-MIN KABI 011705Z 15013KT 10SM CLR 17/06 A2971 1990 46 2700 140/13 RMK AO2 T01720056
13962KABI ABI20160201111011102/01/16 11:10:31  5-MIN KABI 011710Z 15013KT 10SM CLR 17/06 A2970 1990 46 2800 150/13 RMK AO2 PRESFR T01720056
13962KABI ABI20160201111510402/01/16 11:15:31  5-MIN KABI 011715Z 16014KT 10SM CLR 18/06 A2970 2000 42 2900 160/14 RMK AO2 T01830056
13962KABI ABI20160201112011102/01/16 11:20:31  5-MIN KABI 011720Z 17014KT 10SM CLR 18/05 A2969 2010 41 2900 170/14 RMK AO2 PRESFR T01830050
13962KABI ABI20160201112510402/01/16 11:25:31  5-MIN KABI 011725Z 17014KT 10SM CLR 19/05 A2969 2010 39 3000 160/14 RMK AO2 T01890050
13962KABI ABI20160201113011102/01/16 11:30:31  5-MIN KABI 011730Z 16015KT 10SM CLR 19/06 A2968 2020 41 3000 150/15 RMK AO2 PRESFR T01890056
13962KABI ABI20160201113511102/01/16 11:35:31  5-MIN KABI 011735Z 16016KT 10SM CLR 19/06 A2967 2030 40 3000 160/16 RMK AO2 PRESFR T01940056
13962KABI ABI20160201114011002/01/16 11:40:31  5-MIN KABI 011740Z 18019G24KT 10SM CLR 19/06 A2966 2030 40 3100 170/19G24 RMK AO2 T01940056
13962KABI ABI20160201114511002/01/16 11:45:31  5-MIN KABI 011745Z 16014G24KT 10SM CLR 21/05 A2966 2030 35 3200 160/14G24 RMK AO2 T02060050
13962KABI ABI20160201115013502/01/16 11:50:31  5-MIN KABI 011750Z 17017G22KT 10SM CLR 21/06 A2966 2040 37 3200 170/17G22 RMK AO2 SLP031 T02060056 10211 20044 56008
13962KABI ABI20160201115510402/01/16 11:55:31  5-MIN KABI 011755Z 17015KT 10SM CLR 21/05 A2965 2040 35 3200 170/15 RMK AO2 T02060050
13962KABI ABI20160201120010402/01/16 12:00:31  5-MIN KABI 011800Z 16013KT 10SM CLR 21/06 A2965 2040 36 3300 160/13 RMK AO2 T02110056
13962KABI ABI20160201120510402/01/16 12:05:31  5-MIN KABI 011805Z 16018KT 10SM CLR 21/06 A2965 2050 37 3300 160/18 RMK AO2 T02110061
13962KABI ABI20160201121010402/01/16 12:10:31  5-MIN KABI 011810Z 15016KT 10SM CLR 21/06 A2964 2050 37 3300 150/16 RMK AO2 T02110061
13962KABI ABI20160201121510402/01/16 12:15:31  5-MIN KABI 011815Z 16015KT 10SM CLR 21/06 A2964 2060 36 3300 150/15 RMK AO2 T02110056
13962KABI ABI20160201122011702/01/16 12:20:31  5-MIN KABI 011820Z 17016G23KT 10SM CLR 22/06 A2963 2060 33 3400 160/16G23 RMK AO2 PRESFR T02220056
13962KABI ABI20160201122511702/01/16 12:25:31  5-MIN KABI 011825Z 19016G24KT 10SM CLR 23/04 A2962 2070 30 3500 180/16G24 RMK AO2 PRESFR T02280044
13962KABI ABI20160201123013502/01/16 12:30:31  5-MIN KABI 011830Z 18017G28KT 10SM CLR 23/04 A2961 2080 30 3500 180/17G28 RMK AO2 PK WND 18028/1826 PRESFR T02280044
13962KABI ABI20160201123513502/01/16 12:35:31  5-MIN KABI 011835Z 18021G28KT 10SM CLR 23/04 A2961 2080 29 3500 180/21G28 RMK AO2 PK WND 18028/1826 PRESFR T02280039
13962KABI ABI20160201124012802/01/16 12:40:31  5-MIN KABI 011840Z 18019G27KT 10SM CLR 23/04 A2960 2090 28 3600 180/19G27 RMK AO2 PK WND 18028/1826 T02330039
13962KABI ABI20160201124512802/01/16 12:45:31  5-MIN KABI 011845Z 19017G26KT 10SM CLR 23/04 A2960 2090 28 3600 180/17G26 RMK AO2 PK WND 18028/1826 T02330039
13962KABI ABI20160201125014202/01/16 12:50:31  5-MIN KABI 011850Z 18016G24KT 10SM CLR 23/04 A2959 2100 28 3600 180/16G24 RMK AO2 PK WND 18028/1826 PRESFR SLP006 T02330039
13962KABI ABI20160201125513502/01/16 12:55:31  5-MIN KABI 011855Z 19017G27KT 10SM CLR 24/04 A2958 2110 28 3700 180/17G27 RMK AO2 PK WND 20027/1853 PRESFR T02390044
13962KABI ABI20160201130013502/01/16 13:00:31  5-MIN KABI 011900Z 18020G29KT 10SM CLR 24/04 A2957 2110 27 3700 170/20G29 RMK AO2 PK WND 18029/1900 PRESFR T02440044
13962KABI ABI20160201130512802/01/16 13:05:31  5-MIN KABI 011905Z 18016G29KT 10SM CLR 24/04 A2957 2120 27 3700 180/16G29 RMK AO2 PK WND 18029/1900 T02390039
13962KABI ABI20160201131012802/01/16 13:10:31  5-MIN KABI 011910Z 19017G26KT 10SM CLR 24/04 A2957 2120 26 3700 190/17G26 RMK AO2 PK WND 18029/1900 T02440039
13962KABI ABI20160201131512802/01/16 13:15:31  5-MIN KABI 011915Z 18019G26KT 10SM CLR 25/04 A2956 2130 25 3800 170/19G26 RMK AO2 PK WND 18029/1900 T02500039
13962KABI ABI20160201132012802/01/16 13:20:31  5-MIN KABI 011920Z 19017G26KT 10SM CLR 24/04 A2956 2130 26 3700 190/17G26 RMK AO2 PK WND 18029/1900 T02440039
13962KABI ABI20160201132513502/01/16 13:25:31  5-MIN KABI 011925Z 17021G27KT 10SM CLR 25/04 A2954 2140 26 3800 170/21G27 RMK AO2 PK WND 18029/1900 PRESFR T02500044
13962KABI ABI20160201133013502/01/16 13:30:31  5-MIN KABI 011930Z 18017G30KT 10SM CLR 25/04 A2954 2150 26 3800 170/17G30 RMK AO2 PK WND 18030/1928 PRESFR T02500044
13962KABI ABI20160201133513502/01/16 13:35:31  5-MIN KABI 011935Z 17019G30KT 10SM CLR 26/04 A2953 2160 25 3900 170/19G30 RMK AO2 PK WND 18030/1928 PRESFR T02560044
13962KABI ABI20160201134012802/01/16 13:40:31  5-MIN KABI 011940Z 18019G29KT 10SM CLR 26/04 A2953 2160 25 3900 180/19G29 RMK AO2 PK WND 18030/1928 T02560044
13962KABI ABI20160201134512802/01/16 13:45:31  5-MIN KABI 011945Z 19018G28KT 10SM CLR 26/04 A2952 2160 25 3900 180/18G28 RMK AO2 PK WND 18030/1928 T02560044
13962KABI ABI20160201135013502/01/16 13:50:31  5-MIN KABI 011950Z 18016G28KT 10SM CLR 26/05 A2952 2170 26 3900 170/16G28 RMK AO2 PK WND 18030/1928 SLP978 T02560050
13962KABI ABI20160201135511002/01/16 13:55:31  5-MIN KABI 011955Z 18017G25KT 10SM CLR 26/04 A2951 2170 25 3900 170/17G25 RMK AO2 T02560044
13962KABI ABI20160201140011002/01/16 14:00:31  5-MIN KABI 012000Z 18016G25KT 10SM CLR 26/04 A2951 2180 23 4000 180/16G25 RMK AO2 T02610039
13962KABI ABI20160201140512802/01/16 14:05:31  5-MIN KABI 012005Z 18021G28KT 10SM CLR 26/03 A2951 2170 21 4000 180/21G28 RMK AO2 PK WND 19028/2005 T02610028
13962KABI ABI20160201141012802/01/16 14:10:31  5-MIN KABI 012010Z 19018G28KT 10SM CLR 26/02 A2951 2170 21 4000 190/18G28 RMK AO2 PK WND 19028/2005 T02610022
13962KABI ABI20160201141512802/01/16 14:15:31  5-MIN KABI 012015Z 20017G27KT 10SM CLR 26/02 A2950 2180 21 4000 190/17G27 RMK AO2 PK WND 19028/2005 T02610022
13962KABI ABI20160201142012802/01/16 14:20:31  5-MIN KABI 012020Z 19021G27KT 10SM CLR 27/02 A2950 2190 19 4100 180/21G27 RMK AO2 PK WND 19028/2005 T02670017
13962KABI ABI20160201142512802/01/16 14:25:31  5-MIN KABI 012025Z 19021G27KT 10SM CLR 27/02 A2949 2190 20 4100 180/21G27 RMK AO2 PK WND 19028/2005 T02670022
13962KABI ABI20160201143012802/01/16 14:30:31  5-MIN KABI 012030Z 20021G27KT 10SM CLR 27/03 A2949 2190 21 4100 190/21G27 RMK AO2 PK WND 19028/2005 T02670028
13962KABI ABI20160201143512802/01/16 14:35:31  5-MIN KABI 012035Z 18019G27KT 10SM CLR 27/03 A2949 2200 22 4100 180/19G27 RMK AO2 PK WND 19028/2005 T02670033
13962KABI ABI20160201144012802/01/16 14:40:31  5-MIN KABI 012040Z 18016G26KT 10SM CLR 27/03 A2948 2200 22 4100 180/16G26 RMK AO2 PK WND 19028/2005 T02670033
13962KABI ABI20160201144512802/01/16 14:45:31  5-MIN KABI 012045Z 19020G25KT 10SM CLR 27/04 A2948 2210 22 4100 180/20G25 RMK AO2 PK WND 19028/2005 T02720039
13962KABI ABI20160201145014102/01/16 14:50:31  5-MIN KABI 012050Z 19023G29KT 10SM CLR 27/03 A2947 2210 20 4100 180/23G29 RMK AO2 PK WND 19029/2048 SLP963 T02720028 58038
13962KABI ABI20160201145513502/01/16 14:55:31  5-MIN KABI 012055Z 19020G29KT 10SM CLR 27/02 A2946 2220 19 4200 190/20G29 RMK AO2 PK WND 19028/2055 PRESFR T02720022
13962KABI ABI20160201150013502/01/16 15:00:31  5-MIN KABI 012100Z 20023G35KT 10SM CLR 28/01 A2945 2230 17 4200 200/23G35 RMK AO2 PK WND 20035/2059 PRESFR T02780006
13962KABI ABI20160201150512802/01/16 15:05:31  5-MIN KABI 012105Z 21024G35KT 9SM CLR 28/M02 A2945 2230 13 4200 200/24G35 RMK AO2 PK WND 20035/2059 T02781022
13962KABI ABI20160201151012902/01/16 15:10:31  5-MIN KABI 012110Z 22024G33KT 10SM CLR 28/M03 A2945 2230 13 4200 210/24G33 RMK AO2 PK WND 20035/2059 T02781028
13962KABI ABI20160201151512902/01/16 15:15:31  5-MIN KABI 012115Z 21025G31KT 10SM CLR 28/M03 A2945 2230 12 4200 210/25G31 RMK AO2 PK WND 20035/2059 T02781033
13962KABI ABI20160201152012902/01/16 15:20:31  5-MIN KABI 012120Z 22023G31KT 10SM CLR 28/M03 A2944 2240 12 4200 210/23G31 RMK AO2 PK WND 20035/2059 T02781033
13962KABI ABI20160201152512902/01/16 15:25:31  5-MIN KABI 012125Z 20024G33KT 10SM CLR 28/M03 A2944 2240 12 4200 200/24G33 RMK AO2 PK WND 20035/2059 T02781033
13962KABI ABI20160201153012902/01/16 15:30:31  5-MIN KABI 012130Z 22017G33KT 10SM CLR 28/M03 A2943 2240 12 4200 210/17G33 RMK AO2 PK WND 20035/2059 T02781033
13962KABI ABI20160201153512902/01/16 15:35:31  5-MIN KABI 012135Z 22020G31KT 10SM CLR 28/M04 A2943 2250 12 4300 210/20G31 RMK AO2 PK WND 20035/2059 T02781039
13962KABI ABI20160201154012902/01/16 15:40:31  5-MIN KABI 012140Z 21019G31KT 10SM CLR 28/M04 A2944 2240 12 4200 210/19G31 RMK AO2 PK WND 20035/2059 T02781039
13962KABI ABI20160201154512902/01/16 15:45:31  5-MIN KABI 012145Z 22025G32KT 10SM CLR 28/M04 A2944 2240 11 4200 210/25G32 RMK AO2 PK WND 20035/2059 T02781044
13962KABI ABI20160201155013602/01/16 15:50:31  5-MIN KABI 012150Z 21021G32KT 10SM CLR 28/M04 A2943 2250 12 4300 210/21G32 RMK AO2 PK WND 20035/2059 SLP951 T02781039
13962KABI ABI20160201155512902/01/16 15:55:31  5-MIN KABI 012155Z 22022G32KT 10SM CLR 28/M04 A2943 2250 11 4300 210/22G32 RMK AO2 PK WND 20032/2153 T02781044
13962KABI ABI20160201160012902/01/16 16:00:31  5-MIN KABI 012200Z 22022G32KT 10SM CLR 28/M06 A2943 2250 10 4300 220/22G32 RMK AO2 PK WND 20032/2153 T02781061
13962KABI ABI20160201160512902/01/16 16:05:31  5-MIN KABI 012205Z 21020G30KT 10SM CLR 28/M05 A2943 2250 11 4300 200/20G30 RMK AO2 PK WND 20032/2153 T02831050
13962KABI ABI20160201161012902/01/16 16:10:31  5-MIN KABI 012210Z 22021G30KT 10SM CLR 28/M06 A2943 2250 10 4300 210/21G30 RMK AO2 PK WND 20032/2153 T02781061
13962KABI ABI20160201161512902/01/16 16:15:31  5-MIN KABI 012215Z 21019G30KT 10SM CLR 28/M06 A2943 2250 10 4300 210/19G30 RMK AO2 PK WND 20032/2153 T02781061
13962KABI ABI20160201162012902/01/16 16:20:31  5-MIN KABI 012220Z 22020G28KT 10SM CLR 28/M06 A2942 2260 10 4300 210/20G28 RMK AO2 PK WND 20032/2153 T02831056
13962KABI ABI20160201162512902/01/16 16:25:31  5-MIN KABI 012225Z 22021G30KT 10SM CLR 28/M06 A2942 2260 11 4300 220/21G30 RMK AO2 PK WND 20032/2153 T02781056
13962KABI ABI20160201163012902/01/16 16:30:31  5-MIN KABI 012230Z 21018G30KT 10SM CLR 28/M05 A2942 2260 11 4300 210/18G30 RMK AO2 PK WND 20032/2153 T02781050
13962KABI ABI20160201163512902/01/16 16:35:31  5-MIN KABI 012235Z 21013G26KT 10SM CLR 28/M05 A2942 2260 11 4300 210/13G26 RMK AO2 PK WND 20032/2153 T02781050
13962KABI ABI20160201164012902/01/16 16:40:31  5-MIN KABI 012240Z 22016G23KT 10SM CLR 28/M04 A2942 2260 11 4300 210/16G23 RMK AO2 PK WND 20032/2153 T02781044
13962KABI ABI20160201164512902/01/16 16:45:31  5-MIN KABI 012245Z 22015G24KT 10SM CLR 28/M04 A2942 2260 11 4300 210/15G24 RMK AO2 PK WND 20032/2153 T02781044
13962KABI ABI20160201165013602/01/16 16:50:31  5-MIN KABI 012250Z 20014G24KT 10SM CLR 28/M03 A2941 2260 12 4300 200/14G24 RMK AO2 PK WND 20032/2153 SLP945 T02781033
13962KABI ABI20160201165511102/01/16 16:55:31  5-MIN KABI 012255Z 20017G23KT 10SM CLR 28/M02 A2941 2270 13 4300 200/17G23 RMK AO2 T02781022
13962KABI ABI20160201170011102/01/16 17:00:31  5-MIN KABI 012300Z 20014G25KT 10SM CLR 27/M01 A2941 2260 16 4200 190/14G25 RMK AO2 T02721006
13962KABI ABI20160201170511102/01/16 17:05:31  5-MIN KABI 012305Z 20016G25KT 10SM CLR 27/M01 A2941 2260 16 4200 190/16G25 RMK AO2 T02721006
13962KABI ABI20160201171011102/01/16 17:10:31  5-MIN KABI 012310Z 20017G25KT 10SM CLR 27/M01 A2941 2270 16 4200 190/17G25 RMK AO2 T02721006
13962KABI ABI20160201171511102/01/16 17:15:31  5-MIN KABI 012315Z 20015G25KT 10SM CLR 27/M01 A2941 2270 15 4200 200/15G25 RMK AO2 T02721011
13962KABI ABI20160201172011102/01/16 17:20:31  5-MIN KABI 012320Z 20014G24KT 10SM CLR 27/M01 A2941 2270 16 4200 200/14G24 RMK AO2 T02671011
13962KABI ABI20160201172510502/01/16 17:25:31  5-MIN KABI 012325Z 20014KT 10SM CLR 27/M01 A2941 2260 16 4200 190/14 RMK AO2 T02671011
13962KABI ABI20160201173010502/01/16 17:30:31  5-MIN KABI 012330Z 20014KT 10SM CLR 27/M01 A2942 2260 16 4100 200/14 RMK AO2 T02671011
13962KABI ABI20160201173511102/01/16 17:35:31  5-MIN KABI 012335Z 20012G20KT 10SM CLR 26/M01 A2942 2260 16 4100 200/12G20 RMK AO2 T02611011
13962KABI ABI20160201174010502/01/16 17:40:31  5-MIN KABI 012340Z 20011KT 10SM CLR 26/M01 A2942 2260 16 4100 200/11 RMK AO2 T02611011
13962KABI ABI20160201174510502/01/16 17:45:31  5-MIN KABI 012345Z 20012KT 10SM CLR 26/M01 A2942 2260 17 4000 200/12 RMK AO2 T02561006
13962KABI ABI20160201175013002/01/16 17:50:31  5-MIN KABI 012350Z 20012KT 10SM CLR 26/M01 A2942 2260 17 4000 200/12 RMK AO2 SLP948 T02561006 10283 20206 56061
13962KABI ABI20160201175510402/01/16 17:55:31  5-MIN KABI 012355Z 21010KT 10SM CLR 25/00 A2942 2260 19 4000 200/10 RMK AO2 T02500000
13962KABI ABI20160201180010402/01/16 18:00:31  5-MIN KABI 020000Z 21010KT 10SM CLR 24/00 A2943 2250 19 3900 200/10 RMK AO2 T02440000
13962KABI ABI20160201180510402/01/16 18:05:31  5-MIN KABI 020005Z 21008KT 10SM CLR 24/01 A2943 2250 21 3800 200/08 RMK AO2 T02390006
13962KABI ABI20160201181010402/01/16 18:10:31  5-MIN KABI 020010Z 20009KT 10SM CLR 23/01 A2943 2250 22 3800 190/09 RMK AO2 T02330006
13962KABI ABI20160201181510402/01/16 18:15:31  5-MIN KABI 020015Z 20010KT 10SM CLR 23/00 A2942 2250 21 3800 190/10 RMK AO2 T02330000
13962KABI ABI20160201182010402/01/16 18:20:31  5-MIN KABI 020020Z 20010KT 10SM CLR 23/00 A2943 2250 21 3800 190/10 RMK AO2 T02330000
13962KABI ABI20160201182510402/01/16 18:25:31  5-MIN KABI 020025Z 20009KT 10SM CLR 23/00 A2943 2250 21 3800 190/09 RMK AO2 T02330000
13962KABI ABI20160201183010402/01/16 18:30:31  5-MIN KABI 020030Z 20009KT 10SM CLR 23/00 A2943 2250 22 3700 200/09 RMK AO2 T02280000
13962KABI ABI20160201183510502/01/16 18:35:31  5-MIN KABI 020035Z 20009KT 10SM CLR 23/M01 A2943 2250 21 3700 200/09 RMK AO2 T02281006
13962KABI ABI20160201184010502/01/16 18:40:31  5-MIN KABI 020040Z 20009KT 10SM CLR 23/M01 A2943 2250 21 3700 200/09 RMK AO2 T02281006
13962KABI ABI20160201184510502/01/16 18:45:31  5-MIN KABI 020045Z 20009KT 10SM CLR 22/M01 A2943 2250 22 3600 190/09 RMK AO2 T02171006
13962KABI ABI20160201185011202/01/16 18:50:31  5-MIN KABI 020050Z 20008KT 10SM CLR 22/M01 A2943 2250 22 3600 190/08 RMK AO2 SLP954 T02171006
13962KABI ABI20160201185510402/01/16 18:55:31  5-MIN KABI 020055Z 20009KT 10SM CLR 21/00 A2943 2250 24 3500 190/09 RMK AO2 T02110000
13962KABI ABI20160201190010402/01/16 19:00:31  5-MIN KABI 020100Z 22010KT 10SM CLR 21/00 A2945 2230 24 3500 220/10 RMK AO2 T02110000
13962KABI ABI20160201190514002/01/16 19:05:31  5-MIN KABI 020105Z 29032G44KT 6SM HZ FEW031 21/01 A2949 2190 26 3400 290/32G44 RMK AO2 PK WND 29044/0104 PRESRR T02060006
13962KABI ABI20160201191014002/01/16 19:10:31  5-MIN KABI 020110Z 29031G44KT 4SM HZ SCT033 18/00 A2951 2170 29 3100 280/31G44 RMK AO2 PK WND 29044/0104 PRESRR T01830000
13962KABI ABI20160201191515102/01/16 19:15:31  5-MIN KABI 020115Z 29028G43KT 4SM HZ BKN035 18/00 A2952 2170 30 3000 280/28G43 RMK AO2 PK WND 29044/0104 WSHFT 0100 PRESRR T01780000
13962KABI ABI20160201192014402/01/16 19:20:31  5-MIN KABI 020120Z 29032G43KT 5SM HZ BKN039 17/00 A2953 2160 31 3000 280/32G43 RMK AO2 PK WND 29044/0104 WSHFT 0100 T01720000
13962KABI ABI20160201192514402/01/16 19:25:31  5-MIN KABI 020125Z 29032G43KT 6SM HZ BKN041 17/00 A2954 2150 31 2900 280/32G43 RMK AO2 PK WND 29044/0104 WSHFT 0100 T01720000
13962KABI ABI20160201193014102/01/16 19:30:31  5-MIN KABI 020130Z 29029G40KT 7SM OVC043 17/00 A2956 2130 31 2900 290/29G40 RMK AO2 PK WND 29044/0104 WSHFT 0100 T01720000
13962KABI ABI20160201193514102/01/16 19:35:31  5-MIN KABI 020135Z 30026G40KT 8SM OVC045 17/00 A2956 2130 32 2900 290/26G40 RMK AO2 PK WND 29044/0104 WSHFT 0100 T01670000
13962KABI ABI20160201194014902/01/16 19:40:31  5-MIN KABI 020140Z 29027G40KT 8SM BKN047 OVC100 17/M01 A2956 2130 31 2900 290/27G40 RMK AO2 PK WND 29044/0104 WSHFT 0100 T01671006
13962KABI ABI20160201194514902/01/16 19:45:31  5-MIN KABI 020145Z 30024G40KT 8SM BKN049 OVC100 17/M01 A2957 2120 31 2800 290/24G40 RMK AO2 PK WND 29044/0104 WSHFT 0100 T01671006
13962KABI ABI20160201195015602/01/16 19:50:31  5-MIN KABI 020150Z 30025G38KT 9SM BKN049 OVC100 17/M01 A2958 2110 31 2800 300/25G38 RMK AO2 PK WND 29044/0104 WSHFT 0100 SLP006 T01671006
13962KABI ABI20160201195513802/01/16 19:55:31  5-MIN KABI 020155Z 30023G38KT 9SM SCT050 OVC100 16/M01 A2957 2110 32 2800 290/23G38 RMK AO2 PK WND 30029/0153 T01611006
13962KABI ABI20160201200013902/01/16 20:00:31  5-MIN KABI 020200Z 30024G35KT 10SM FEW055 OVC100 16/M01 A2958 2110 32 2800 290/24G35 RMK AO2 PK WND 30035/0200 T01611006
13962KABI ABI20160201200513902/01/16 20:05:31  5-MIN KABI 020205Z 30019G35KT 10SM FEW060 OVC100 16/M01 A2959 2100 32 2800 290/19G35 RMK AO2 PK WND 30035/0200 T01611006
13962KABI ABI20160201201013202/01/16 20:10:31  5-MIN KABI 020210Z 30021G31KT 10SM OVC100 16/M01 A2960 2090 32 2700 290/21G31 RMK AO2 PK WND 30035/0200 T01611006
13962KABI ABI20160201201513202/01/16 20:15:31  5-MIN KABI 020215Z 29016G29KT 10SM OVC100 16/M01 A2960 2090 32 2700 290/16G29 RMK AO2 PK WND 30035/0200 T01611006
13962KABI ABI20160201202013202/01/16 20:20:31  5-MIN KABI 020220Z 29018G29KT 10SM OVC095 16/M01 A2961 2080 32 2700 290/18G29 RMK AO2 PK WND 30035/0200 T01611006
13962KABI ABI20160201202513202/01/16 20:25:31  5-MIN KABI 020225Z 29017G29KT 10SM OVC095 16/M01 A2961 2080 32 2700 290/17G29 RMK AO2 PK WND 30035/0200 T01611006
13962KABI ABI20160201203012602/01/16 20:30:31  5-MIN KABI 020230Z 30017KT 10SM OVC095 16/M01 A2961 2080 33 2700 290/17 RMK AO2 PK WND 30035/0200 T01561006
13962KABI ABI20160201203513202/01/16 20:35:31  5-MIN KABI 020235Z 29013G22KT 10SM OVC100 16/M01 A2962 2080 33 2700 280/13G22 RMK AO2 PK WND 30035/0200 T01561006
13962KABI ABI20160201204013202/01/16 20:40:31  5-MIN KABI 020240Z 30013G20KT 10SM OVC095 16/M01 A2962 2070 33 2700 290/13G20 RMK AO2 PK WND 30035/0200 T01561006
13962KABI ABI20160201204513102/01/16 20:45:31  5-MIN KABI 020245Z 28014G23KT 9SM OVC095 16/M01 A2963 2070 33 2600 280/14G23 RMK AO2 PK WND 30035/0200 T01561006
13962KABI ABI20160201205014402/01/16 20:50:31  5-MIN KABI 020250Z 28010G23KT 9SM OVC095 16/M01 A2963 2060 33 2600 280/10G23 RMK AO2 PK WND 30035/0200 SLP023 T01561006 55014
13962KABI ABI20160201205510702/01/16 20:55:31  5-MIN KABI 020255Z 28010KT 9SM OVC100 16/M01 A2963 2070 33 2600 280/10 RMK AO2 T01561006
13962KABI ABI20160201210010702/01/16 21:00:31  5-MIN KABI 020300Z 28011KT 8SM OVC100 16/M01 A2963 2070 31 2700 280/11 RMK AO2 T01561011
13962KABI ABI20160201210510702/01/16 21:05:31  5-MIN KABI 020305Z 28011KT 8SM OVC100 16/M01 A2963 2060 31 2600 270/11 RMK AO2 T01561011
13962KABI ABI20160201211010702/01/16 21:10:31  5-MIN KABI 020310Z 28010KT 8SM OVC100 16/M01 A2963 2060 31 2600 270/10 RMK AO2 T01561011
13962KABI ABI20160201211510702/01/16 21:15:31  5-MIN KABI 020315Z 27011KT 8SM OVC100 16/M01 A2964 2060 31 2600 270/11 RMK AO2 T01561011
13962KABI ABI20160201212010702/01/16 21:20:31  5-MIN KABI 020320Z 27011KT 8SM OVC100 15/M01 A2964 2050 33 2600 260/11 RMK AO2 T01501011
13962KABI ABI20160201212511302/01/16 21:25:31  5-MIN KABI 020325Z 28014G20KT 8SM OVC100 15/M02 A2963 2060 31 2600 270/14G20 RMK AO2 T01501017
13962KABI ABI20160201213011302/01/16 21:30:31  5-MIN KABI 020330Z 27015G21KT 7SM OVC100 15/M02 A2965 2050 30 2600 270/15G21 RMK AO2 T01501022
13962KABI ABI20160201213511302/01/16 21:35:31  5-MIN KABI 020335Z 28013G21KT 7SM OVC100 15/M02 A2965 2050 30 2600 270/13G21 RMK AO2 T01501022
13962KABI ABI20160201214010702/01/16 21:40:31  5-MIN KABI 020340Z 28012KT 7SM OVC100 15/M03 A2965 2040 29 2600 270/12 RMK AO2 T01501028
13962KABI ABI20160201214510702/01/16 21:45:31  5-MIN KABI 020345Z 27016KT 7SM OVC100 15/M03 A2965 2040 29 2600 270/16 RMK AO2 T01501028
13962KABI ABI20160201215011402/01/16 21:50:31  5-MIN KABI 020350Z 27013KT 8SM OVC100 15/M03 A2965 2040 28 2600 270/13 RMK AO2 SLP029 T01501033
13962KABI ABI20160201215511302/01/16 21:55:31  5-MIN KABI 020355Z 27015G22KT 8SM OVC100 14/M03 A2965 2040 29 2500 270/15G22 RMK AO2 T01441033
13962KABI ABI20160201220011302/01/16 22:00:31  5-MIN KABI 020400Z 28018G24KT 8SM OVC100 14/M04 A2965 2040 28 2500 280/18G24 RMK AO2 T01441039
13962KABI ABI20160201220511302/01/16 22:05:31  5-MIN KABI 020405Z 28015G24KT 8SM OVC100 14/M04 A2966 2040 28 2500 270/15G24 RMK AO2 T01441039
13962KABI ABI20160201221011302/01/16 22:10:31  5-MIN KABI 020410Z 28015G22KT 8SM OVC100 14/M04 A2965 2040 28 2500 270/15G22 RMK AO2 T01441039
13962KABI ABI20160201221510702/01/16 22:15:31  5-MIN KABI 020415Z 27015KT 9SM OVC100 14/M04 A2966 2030 28 2500 270/15 RMK AO2 T01441039
13962KABI ABI20160201222010702/01/16 22:20:31  5-MIN KABI 020420Z 28013KT 9SM OVC100 14/M04 A2967 2030 28 2500 270/13 RMK AO2 T01441039
13962KABI ABI20160201222510702/01/16 22:25:31  5-MIN KABI 020425Z 28014KT 9SM OVC100 14/M04 A2967 2030 29 2400 270/14 RMK AO2 T01391039
13962KABI ABI20160201223010802/01/16 22:30:31  5-MIN KABI 020430Z 27014KT 10SM OVC100 14/M04 A2967 2030 27 2400 270/14 RMK AO2 T01391044
13962KABI ABI20160201223513202/01/16 22:35:31  5-MIN KABI 020435Z 27021G26KT 10SM OVC100 14/M05 A2967 2020 25 2500 270/21G26 RMK AO2 PK WND 28026/0434 T01441050
13962KABI ABI20160201224013202/01/16 22:40:31  5-MIN KABI 020440Z 28018G27KT 10SM OVC100 14/M06 A2967 2030 24 2500 270/18G27 RMK AO2 PK WND 27027/0439 T01441056
13962KABI ABI20160201224513202/01/16 22:45:31  5-MIN KABI 020445Z 27015G27KT 10SM OVC100 14/M05 A2967 2020 26 2400 260/15G27 RMK AO2 PK WND 27027/0439 T01391050
13962KABI ABI20160201225013902/01/16 22:50:31  5-MIN KABI 020450Z 27015G23KT 10SM OVC100 14/M06 A2968 2020 25 2400 270/15G23 RMK AO2 PK WND 27027/0439 SLP037 T01391056
13962KABI ABI20160201225511402/01/16 22:55:31  5-MIN KABI 020455Z 27018G28KT 10SM OVC100 14/M06 A2968 2010 25 2400 260/18G28 RMK AO2 T01391056
13962KABI ABI20160201230013202/01/16 23:00:31  5-MIN KABI 020500Z 27017G28KT 10SM OVC100 14/M06 A2968 2010 25 2400 270/17G28 RMK AO2 PK WND 28026/0457 T01391056
13962KABI ABI20160201230513202/01/16 23:05:31  5-MIN KABI 020505Z 27015G26KT 10SM OVC100 14/M06 A2968 2010 25 2400 260/15G26 RMK AO2 PK WND 28026/0457 T01391056
13962KABI ABI20160201231013202/01/16 23:10:31  5-MIN KABI 020510Z 27019G25KT 10SM OVC100 13/M06 A2968 2010 25 2300 270/19G25 RMK AO2 PK WND 28026/0457 T01331061
13962KABI ABI20160201231513102/01/16 23:15:31  5-MIN KABI 020515Z 27021G29KT 9SM OVC100 13/M06 A2968 2010 25 2300 270/21G29 RMK AO2 PK WND 28029/0514 T01331061
13962KABI ABI20160201232013102/01/16 23:20:31  5-MIN KABI 020520Z 27018G29KT 9SM OVC100 13/M06 A2969 2010 25 2300 270/18G29 RMK AO2 PK WND 28029/0514 T01331061
13962KABI ABI20160201232513102/01/16 23:25:31  5-MIN KABI 020525Z 27019G26KT 8SM OVC100 13/M07 A2969 2010 25 2300 270/19G26 RMK AO2 PK WND 28029/0514 T01281067
13962KABI ABI20160201233013102/01/16 23:30:31  5-MIN KABI 020530Z 27018G25KT 8SM OVC100 13/M07 A2968 2010 24 2300 270/18G25 RMK AO2 PK WND 28029/0514 T01281072
13962KABI ABI20160201233513102/01/16 23:35:31  5-MIN KABI 020535Z 27018G25KT 8SM OVC100 13/M07 A2969 2010 24 2300 270/18G25 RMK AO2 PK WND 28029/0514 T01281072
13962KABI ABI20160201234013102/01/16 23:40:31  5-MIN KABI 020540Z 28013G23KT 8SM BKN100 13/M07 A2969 2010 24 2300 270/13G23 RMK AO2 PK WND 28029/0514 T01281072
13962KABI ABI20160201234513102/01/16 23:45:31  5-MIN KABI 020545Z 27013G25KT 8SM BKN100 12/M07 A2969 2010 25 2200 270/13G25 RMK AO2 PK WND 28029/0514 T01221072
13962KABI ABI20160201235016602/01/16 23:50:31  5-MIN KABI 020550Z 27015G25KT 8SM SCT100 12/M07 A2969 2010 25 2200 270/15G25 RMK AO2 PK WND 28029/0514 SLP037 T01221072 10256 20122 402830022 53066
13962KABI ABI20160201235511302/01/16 23:55:31  5-MIN KABI 020555Z 27016G25KT 9SM FEW100 12/M08 A2969 2010 25 2100 270/16G25 RMK AO2 T01171078
13962KABI ABI20160202000011302/02/16 00:00:31  5-MIN KABI 020600Z 27016G25KT 9SM FEW100 12/M08 A2969 2010 25 2100 260/16G25 RMK AO2 T01171078
13962KABI ABI20160202000511002/02/16 00:05:31  5-MIN KABI 020605Z 27015G22KT 9SM CLR 12/M08 A2969 2010 25 2100 270/15G22 RMK AO2 T01171078
13962KABI ABI20160202001011002/02/16 00:10:31  5-MIN KABI 020610Z 27014G21KT 9SM CLR 12/M07 A2969 2000 26 2100 270/14G21 RMK AO2 T01171072
13962KABI ABI20160202001511102/02/16 00:15:31  5-MIN KABI 020615Z 27016G22KT 10SM CLR 11/M08 A2969 2010 26 2100 260/16G22 RMK AO2 T01111078
13962KABI ABI20160202002011102/02/16 00:20:31  5-MIN KABI 020620Z 27016G22KT 10SM CLR 12/M08 A2969 2000 25 2100 270/16G22 RMK AO2 T01171078
13962KABI ABI20160202002510502/02/16 00:25:31  5-MIN KABI 020625Z 27015KT 10SM CLR 11/M08 A2969 2010 26 2100 270/15 RMK AO2 T01111078
13962KABI ABI20160202003010502/02/16 00:30:31  5-MIN KABI 020630Z 27013KT 10SM CLR 11/M08 A2969 2010 26 2100 270/13 RMK AO2 T01111078
13962KABI ABI20160202003510502/02/16 00:35:31  5-MIN KABI 020635Z 27012KT 10SM CLR 11/M07 A2969 2010 28 2000 260/12 RMK AO2 T01061072
13962KABI ABI20160202004010502/02/16 00:40:31  5-MIN KABI 020640Z 26013KT 10SM CLR 11/M07 A2969 2000 28 2000 250/13 RMK AO2 T01061072
13962KABI ABI20160202004510502/02/16 00:45:31  5-MIN KABI 020645Z 26012KT 10SM CLR 11/M07 A2969 2000 28 2000 250/12 RMK AO2 T01061072
13962KABI ABI20160202005011202/02/16 00:50:31  5-MIN KABI 020650Z 26013KT 10SM CLR 10/M07 A2969 2010 29 1900 250/13 RMK AO2 SLP037 T01001072
13962KABI ABI20160202005510402/02/16 00:55:31  5-MIN KABI 020655Z 26013KT 9SM CLR 10/M07 A2969 2010 29 1900 260/13 RMK AO2 T01001072
13962KABI ABI20160202010010402/02/16 01:00:31  5-MIN KABI 020700Z 26012KT 9SM CLR 10/M07 A2969 2010 29 1900 260/12 RMK AO2 T01001072
13962KABI ABI20160202010510402/02/16 01:05:31  5-MIN KABI 020705Z 26013KT 9SM CLR 10/M07 A2969 2000 29 1900 250/13 RMK AO2 T01001072
13962KABI ABI20160202011010402/02/16 01:10:31  5-MIN KABI 020710Z 26012KT 9SM CLR 10/M07 A2969 2000 29 1900 250/12 RMK AO2 T01001072
13962KABI ABI20160202011510402/02/16 01:15:31  5-MIN KABI 020715Z 26013KT 9SM CLR 10/M07 A2970 2000 30 1900 250/13 RMK AO2 T01001067
13962KABI ABI20160202012010402/02/16 01:20:31  5-MIN KABI 020720Z 26011KT 9SM CLR 09/M07 A2970 2000 31 1900 250/11 RMK AO2 T00941067
13962KABI ABI20160202012510402/02/16 01:25:31  5-MIN KABI 020725Z 26012KT 9SM CLR 09/M07 A2969 2000 31 1900 250/12 RMK AO2 T00941067
13962KABI ABI20160202013010502/02/16 01:30:31  5-MIN KABI 020730Z 26015KT 10SM CLR 10/M07 A2969 2010 30 1900 260/15 RMK AO2 T01001067
13962KABI ABI20160202013510502/02/16 01:35:31  5-MIN KABI 020735Z 26013KT 10SM CLR 09/M07 A2970 2000 31 1800 250/13 RMK AO2 T00941067
13962KABI ABI20160202014010502/02/16 01:40:31  5-MIN KABI 020740Z 25011KT 10SM CLR 09/M07 A2970 2000 31 1800 250/11 RMK AO2 T00941067
13962KABI ABI20160202014510502/02/16 01:45:31  5-MIN KABI 020745Z 26012KT 10SM CLR 09/M07 A2970 2000 31 1800 250/12 RMK AO2 T00941067
13962KABI ABI20160202015011202/02/16 01:50:31  5-MIN KABI 020750Z 25012KT 10SM CLR 09/M07 A2970 2000 31 1800 250/12 RMK AO2 SLP040 T00941067
13962KABI ABI20160202015510502/02/16 01:55:31  5-MIN KABI 020755Z 26011KT 10SM CLR 09/M07 A2970 2000 32 1800 250/11 RMK AO2 T00891067
13962KABI ABI20160202020010502/02/16 02:00:31  5-MIN KABI 020800Z 26012KT 10SM CLR 09/M07 A2970 2000 32 1800 250/12 RMK AO2 T00891067
13962KABI ABI20160202020510502/02/16 02:05:31  5-MIN KABI 020805Z 26012KT 10SM CLR 09/M07 A2970 2000 32 1800 250/12 RMK AO2 T00891067
13962KABI ABI20160202021010502/02/16 02:10:31  5-MIN KABI 020810Z 25011KT 10SM CLR 09/M07 A2970 2000 32 1800 250/11 RMK AO2 T00891067
13962KABI ABI20160202021510502/02/16 02:15:31  5-MIN KABI 020815Z 25011KT 10SM CLR 09/M07 A2970 2000 32 1800 250/11 RMK AO2 T00891067
13962KABI ABI20160202022010502/02/16 02:20:31  5-MIN KABI 020820Z 25012KT 10SM CLR 09/M07 A2970 2000 32 1800 250/12 RMK AO2 T00891067
13962KABI ABI20160202022510502/02/16 02:25:31  5-MIN KABI 020825Z 26013KT 10SM CLR 09/M07 A2970 2000 32 1800 250/13 RMK AO2 T00891067
13962KABI ABI20160202023010502/02/16 02:30:31  5-MIN KABI 020830Z 26012KT 10SM CLR 09/M06 A2970 2000 34 1800 260/12 RMK AO2 T00891061
13962KABI ABI20160202023510502/02/16 02:35:31  5-MIN KABI 020835Z 27013KT 10SM CLR 09/M06 A2969 2000 34 1800 260/13 RMK AO2 T00891061
13962KABI ABI20160202024011102/02/16 02:40:31  5-MIN KABI 020840Z 26014G19KT 10SM CLR 09/M06 A2969 2000 34 1800 260/14G19 RMK AO2 T00891061
13962KABI ABI20160202024511102/02/16 02:45:31  5-MIN KABI 020845Z 26014G19KT 10SM CLR 09/M06 A2970 2000 34 1800 260/14G19 RMK AO2 T00891061
13962KABI ABI20160202025011802/02/16 02:50:31  5-MIN KABI 020850Z 26013KT 10SM CLR 09/M06 A2970 2000 34 1800 260/13 RMK AO2 SLP038 T00891061 51019
13962KABI ABI20160202025510502/02/16 02:55:31  5-MIN KABI 020855Z 26012KT 10SM CLR 09/M06 A2970 2000 34 1800 260/12 RMK AO2 T00891061
13962KABI ABI20160202030010502/02/16 03:00:31  5-MIN KABI 020900Z 27012KT 10SM CLR 08/M06 A2970 2000 35 1700 260/12 RMK AO2 T00831061
13962KABI ABI20160202030510502/02/16 03:05:31  5-MIN KABI 020905Z 27012KT 10SM CLR 08/M06 A2969 2000 35 1700 260/12 RMK AO2 T00831061
13962KABI ABI20160202031010502/02/16 03:10:31  5-MIN KABI 020910Z 26013KT 10SM CLR 08/M06 A2969 2000 35 1700 260/13 RMK AO2 T00831061
13962KABI ABI20160202031510502/02/16 03:15:31  5-MIN KABI 020915Z 26012KT 10SM CLR 08/M06 A2969 2000 35 1700 260/12 RMK AO2 T00831061
13962KABI ABI20160202032010502/02/16 03:20:31  5-MIN KABI 020920Z 26012KT 10SM CLR 08/M06 A2970 2000 35 1700 260/12 RMK AO2 T00831061
13962KABI ABI20160202032510502/02/16 03:25:31  5-MIN KABI 020925Z 26011KT 10SM CLR 08/M06 A2970 2000 35 1700 260/11 RMK AO2 T00831061
13962KABI ABI20160202033010502/02/16 03:30:31  5-MIN KABI 020930Z 26012KT 10SM CLR 08/M06 A2970 2000 35 1700 250/12 RMK AO2 T00831061
13962KABI ABI20160202033510502/02/16 03:35:31  5-MIN KABI 020935Z 26012KT 10SM CLR 08/M06 A2970 2000 35 1700 250/12 RMK AO2 T00831061
13962KABI ABI20160202034010502/02/16 03:40:31  5-MIN KABI 020940Z 26014KT 10SM CLR 09/M06 A2969 2000 34 1800 250/14 RMK AO2 T00891061
13962KABI ABI20160202034511102/02/16 03:45:31  5-MIN KABI 020945Z 26016G24KT 10SM CLR 09/M06 A2969 2000 34 1800 260/16G24 RMK AO2 T00891061
13962KABI ABI20160202035011802/02/16 03:50:31  5-MIN KABI 020950Z 27016G24KT 10SM CLR 09/M06 A2969 2000 34 1800 260/16G24 RMK AO2 SLP037 T00891061
13962KABI ABI20160202035511102/02/16 03:55:31  5-MIN KABI 020955Z 26015G23KT 10SM CLR 09/M06 A2969 2000 34 1800 260/15G23 RMK AO2 T00891061
13962KABI ABI20160202040010502/02/16 04:00:31  5-MIN KABI 021000Z 26014KT 10SM CLR 08/M06 A2969 2000 35 1700 260/14 RMK AO2 T00831061
13962KABI ABI20160202040510502/02/16 04:05:31  5-MIN KABI 021005Z 27012KT 10SM CLR 08/M06 A2969 2000 35 1700 260/12 RMK AO2 T00831061
13962KABI ABI20160202041010502/02/16 04:10:31  5-MIN KABI 021010Z 26012KT 10SM CLR 08/M06 A2969 2000 35 1700 260/12 RMK AO2 T00831061
13962KABI ABI20160202041510502/02/16 04:15:31  5-MIN KABI 021015Z 26012KT 10SM CLR 08/M06 A2970 2000 36 1700 250/12 RMK AO2 T00781061
13962KABI ABI20160202042010502/02/16 04:20:31  5-MIN KABI 021020Z 25010KT 10SM CLR 08/M06 A2970 2000 36 1600 250/10 RMK AO2 T00781061
13962KABI ABI20160202042510502/02/16 04:25:31  5-MIN KABI 021025Z 25010KT 10SM CLR 08/M06 A2970 2000 36 1700 250/10 RMK AO2 T00781061
13962KABI ABI20160202043010502/02/16 04:30:31  5-MIN KABI 021030Z 26011KT 10SM CLR 08/M06 A2969 2000 36 1700 250/11 RMK AO2 T00781061
13962KABI ABI20160202043510502/02/16 04:35:31  5-MIN KABI 021035Z 26011KT 10SM CLR 08/M06 A2969 2010 36 1700 250/11 RMK AO2 T00781061
13962KABI ABI20160202044010502/02/16 04:40:31  5-MIN KABI 021040Z 25011KT 10SM CLR 08/M06 A2969 2010 36 1700 250/11 RMK AO2 T00781061
13962KABI ABI20160202044510502/02/16 04:45:31  5-MIN KABI 021045Z 25011KT 10SM CLR 08/M06 A2969 2000 36 1700 240/11 RMK AO2 T00781061
13962KABI ABI20160202045011202/02/16 04:50:31  5-MIN KABI 021050Z 25011KT 10SM CLR 08/M06 A2969 2000 38 1700 250/11 RMK AO2 SLP038 T00781056
13962KABI ABI20160202045510502/02/16 04:55:31  5-MIN KABI 021055Z 25012KT 10SM CLR 08/M06 A2969 2000 38 1700 250/12 RMK AO2 T00781056
13962KABI ABI20160202050010502/02/16 05:00:31  5-MIN KABI 021100Z 25011KT 10SM CLR 08/M06 A2970 2000 38 1700 250/11 RMK AO2 T00781056
13962KABI ABI20160202050510502/02/16 05:05:31  5-MIN KABI 021105Z 25011KT 10SM CLR 08/M06 A2969 2000 38 1700 250/11 RMK AO2 T00781056
13962KABI ABI20160202051010502/02/16 05:10:31  5-MIN KABI 021110Z 25011KT 10SM CLR 08/M06 A2969 2000 38 1700 250/11 RMK AO2 T00781056
13962KABI ABI20160202051510502/02/16 05:15:31  5-MIN KABI 021115Z 25011KT 10SM CLR 08/M06 A2969 2000 38 1700 240/11 RMK AO2 T00781056
13962KABI ABI20160202052010502/02/16 05:20:31  5-MIN KABI 021120Z 25013KT 10SM CLR 08/M06 A2969 2000 36 1700 240/13 RMK AO2 T00781061
13962KABI ABI20160202052510502/02/16 05:25:31  5-MIN KABI 021125Z 25012KT 10SM CLR 08/M06 A2969 2000 36 1700 240/12 RMK AO2 T00781061
13962KABI ABI20160202053010502/02/16 05:30:31  5-MIN KABI 021130Z 25013KT 10SM CLR 08/M06 A2969 2000 36 1700 240/13 RMK AO2 T00781061
13962KABI ABI20160202053510502/02/16 05:35:31  5-MIN KABI 021135Z 25011KT 10SM CLR 08/M06 A2969 2000 36 1700 240/11 RMK AO2 T00781061
13962KABI ABI20160202054010502/02/16 05:40:31  5-MIN KABI 021140Z 25011KT 10SM CLR 08/M06 A2970 2000 36 1700 240/11 RMK AO2 T00781061
13962KABI ABI20160202054510502/02/16 05:45:31  5-MIN KABI 021145Z 24009KT 10SM CLR 07/M06 A2970 2000 38 1600 240/09 RMK AO2 T00721061
13962KABI ABI20160202055013002/02/16 05:50:31  5-MIN KABI 021150Z 24011KT 10SM CLR 07/M06 A2970 2000 40 1600 230/11 RMK AO2 SLP040 T00721056 10117 20072 50003
13962KABI ABI20160202055510502/02/16 05:55:31  5-MIN KABI 021155Z 25011KT 10SM CLR 07/M06 A2970 2000 40 1600 240/11 RMK AO2 T00721056
13962KABI ABI20160202060010502/02/16 06:00:31  5-MIN KABI 021200Z 25011KT 10SM CLR 07/M06 A2970 2000 40 1600 240/11 RMK AO2 T00721056
13962KABI ABI20160202060510502/02/16 06:05:31  5-MIN KABI 021205Z 25012KT 10SM CLR 07/M06 A2970 2000 40 1600 240/12 RMK AO2 T00721056
13962KABI ABI20160202061010502/02/16 06:10:31  5-MIN KABI 021210Z 25012KT 10SM CLR 07/M06 A2970 2000 40 1600 250/12 RMK AO2 T00721056
13962KABI ABI20160202061510502/02/16 06:15:31  5-MIN KABI 021215Z 25014KT 10SM CLR 07/M06 A2970 2000 40 1600 240/14 RMK AO2 T00721056
13962KABI ABI20160202062010502/02/16 06:20:31  5-MIN KABI 021220Z 26012KT 10SM CLR 07/M06 A2970 1990 40 1600 250/12 RMK AO2 T00721056
13962KABI ABI20160202062510502/02/16 06:25:31  5-MIN KABI 021225Z 25011KT 10SM CLR 07/M06 A2970 2000 40 1600 250/11 RMK AO2 T00721056
13962KABI ABI20160202063010502/02/16 06:30:31  5-MIN KABI 021230Z 25011KT 10SM CLR 07/M06 A2971 1990 40 1600 240/11 RMK AO2 T00721056
13962KABI ABI20160202063510502/02/16 06:35:31  5-MIN KABI 021235Z 24013KT 10SM CLR 07/M06 A2971 1990 40 1600 240/13 RMK AO2 T00721056
13962KABI ABI20160202064010502/02/16 06:40:31  5-MIN KABI 021240Z 24011KT 10SM CLR 07/M06 A2972 1980 40 1600 240/11 RMK AO2 T00721056
13962KABI ABI20160202064510502/02/16 06:45:31  5-MIN KABI 021245Z 24012KT 10SM CLR 07/M06 A2972 1980 40 1600 240/12 RMK AO2 T00721056
13962KABI ABI20160202065011202/02/16 06:50:31  5-MIN KABI 021250Z 24014KT 10SM CLR 07/M06 A2972 1980 40 1600 240/14 RMK AO2 SLP051 T00721056
13962KABI ABI20160202065510502/02/16 06:55:31  5-MIN KABI 021255Z 25012KT 10SM CLR 07/M06 A2972 1970 40 1600 240/12 RMK AO2 T00721056
13962KABI ABI20160202070010502/02/16 07:00:31  5-MIN KABI 021300Z 25014KT 10SM CLR 07/M06 A2973 1970 41 1500 240/14 RMK AO2 T00671056
13962KABI ABI20160202070511102/02/16 07:05:31  5-MIN KABI 021305Z 25013G20KT 10SM CLR 07/M06 A2972 1970 41 1500 240/13G20 RMK AO2 T00671056
13962KABI ABI20160202071010502/02/16 07:10:31  5-MIN KABI 021310Z 25014KT 10SM CLR 07/M06 A2972 1970 41 1500 240/14 RMK AO2 T00671056
13962KABI ABI20160202071510502/02/16 07:15:31  5-MIN KABI 021315Z 25014KT 10SM CLR 07/M06 A2972 1970 41 1500 240/14 RMK AO2 T00671056
13962KABI ABI20160202072010502/02/16 07:20:31  5-MIN KABI 021320Z 24013KT 10SM CLR 07/M06 A2973 1970 41 1500 240/13 RMK AO2 T00671056
13962KABI ABI20160202072510502/02/16 07:25:31  5-MIN KABI 021325Z 24012KT 10SM CLR 07/M06 A2973 1970 41 1500 240/12 RMK AO2 T00671056
13962KABI ABI20160202073010502/02/16 07:30:31  5-MIN KABI 021330Z 24012KT 10SM CLR 07/M06 A2973 1970 41 1500 240/12 RMK AO2 T00671056
13962KABI ABI20160202073510502/02/16 07:35:31  5-MIN KABI 021335Z 25011KT 10SM CLR 07/M06 A2973 1970 41 1500 240/11 RMK AO2 T00671056
13962KABI ABI20160202074010502/02/16 07:40:31  5-MIN KABI 021340Z 25013KT 10SM CLR 07/M06 A2973 1970 41 1500 240/13 RMK AO2 T00671056
13962KABI ABI20160202074510502/02/16 07:45:31  5-MIN KABI 021345Z 24013KT 10SM CLR 07/M06 A2974 1960 41 1500 240/13 RMK AO2 T00671056
13962KABI ABI20160202075011802/02/16 07:50:31  5-MIN KABI 021350Z 24013G18KT 10SM CLR 07/M06 A2974 1960 41 1500 240/13G18 RMK AO2 SLP060 T00671056
13962KABI ABI20160202075511102/02/16 07:55:31  5-MIN KABI 021355Z 25013G18KT 10SM CLR 07/M06 A2974 1960 41 1500 240/13G18 RMK AO2 T00671056
13962KABI ABI20160202080011102/02/16 08:00:31  5-MIN KABI 021400Z 25014G21KT 10SM CLR 07/M06 A2974 1960 41 1500 250/14G21 RMK AO2 T00671056
13962KABI ABI20160202080511102/02/16 08:05:31  5-MIN KABI 021405Z 25016G23KT 10SM CLR 07/M06 A2973 1970 40 1500 250/16G23 RMK AO2 T00721056
13962KABI ABI20160202081011102/02/16 08:10:31  5-MIN KABI 021410Z 26013G23KT 10SM CLR 07/M06 A2974 1960 40 1500 250/13G23 RMK AO2 T00721056
13962KABI ABI20160202081510502/02/16 08:15:31  5-MIN KABI 021415Z 26015KT 10SM CLR 07/M06 A2974 1960 40 1500 260/15 RMK AO2 T00721056
13962KABI ABI20160202082010502/02/16 08:20:31  5-MIN KABI 021420Z 26013KT 10SM CLR 08/M06 A2974 1960 38 1600 260/13 RMK AO2 T00781056
13962KABI ABI20160202082510502/02/16 08:25:31  5-MIN KABI 021425Z 26014KT 10SM CLR 08/M06 A2974 1960 38 1600 260/14 RMK AO2 T00781056
13962KABI ABI20160202083010402/02/16 08:30:31  5-MIN KABI 021430Z 25013KT 9SM CLR 08/M06 A2974 1960 38 1600 250/13 RMK AO2 T00781056
13962KABI ABI20160202083511002/02/16 08:35:31  5-MIN KABI 021435Z 25016G23KT 9SM CLR 08/M06 A2974 1960 37 1700 250/16G23 RMK AO2 T00831056
13962KABI ABI20160202084011102/02/16 08:40:31  5-MIN KABI 021440Z 25014G23KT 10SM CLR 08/M06 A2974 1960 37 1700 250/14G23 RMK AO2 T00831056
13962KABI ABI20160202084511102/02/16 08:45:31  5-MIN KABI 021445Z 26014G22KT 10SM CLR 08/M06 A2974 1960 37 1700 260/14G22 RMK AO2 T00831056
13962KABI ABI20160202085012402/02/16 08:50:31  5-MIN KABI 021450Z 26017G22KT 10SM CLR 09/M06 A2974 1960 35 1700 260/17G22 RMK AO2 SLP060 T00891056 53000
13962KABI ABI20160202085511002/02/16 08:55:31  5-MIN KABI 021455Z 26019G23KT 9SM CLR 09/M06 A2974 1960 35 1700 250/19G23 RMK AO2 T00891056
13962KABI ABI20160202090011002/02/16 09:00:31  5-MIN KABI 021500Z 27018G25KT 9SM CLR 09/M06 A2974 1960 35 1700 260/18G25 RMK AO2 T00891056
13962KABI ABI20160202090511002/02/16 09:05:31  5-MIN KABI 021505Z 27019G25KT 9SM CLR 09/M06 A2974 1960 35 1700 260/19G25 RMK AO2 T00891056
13962KABI ABI20160202091012802/02/16 09:10:31  5-MIN KABI 021510Z 27015G26KT 9SM CLR 09/M06 A2974 1960 34 1800 260/15G26 RMK AO2 PK WND 27026/1507 T00941056
13962KABI ABI20160202091512902/02/16 09:15:31  5-MIN KABI 021515Z 26016G26KT 10SM CLR 09/M06 A2975 1950 34 1800 260/16G26 RMK AO2 PK WND 27026/1507 T00941056
13962KABI ABI20160202092012902/02/16 09:20:31  5-MIN KABI 021520Z 26017G27KT 10SM CLR 09/M06 A2975 1950 34 1800 260/17G27 RMK AO2 PK WND 25027/1516 T00941056
13962KABI ABI20160202092512902/02/16 09:25:31  5-MIN KABI 021525Z 26018G27KT 10SM CLR 10/M06 A2975 1950 33 1800 260/18G27 RMK AO2 PK WND 25027/1516 T01001056
13962KABI ABI20160202093012902/02/16 09:30:31  5-MIN KABI 021530Z 27017G24KT 10SM CLR 10/M06 A2976 1950 33 1800 270/17G24 RMK AO2 PK WND 25027/1516 T01001056
13962KABI ABI20160202093512902/02/16 09:35:31  5-MIN KABI 021535Z 26020G25KT 10SM CLR 10/M06 A2976 1940 33 1800 260/20G25 RMK AO2 PK WND 25027/1516 T01001056
13962KABI ABI20160202094012902/02/16 09:40:31  5-MIN KABI 021540Z 27019G27KT 10SM CLR 10/M06 A2976 1940 33 1800 270/19G27 RMK AO2 PK WND 27027/1540 T01001056
13962KABI ABI20160202094512902/02/16 09:45:31  5-MIN KABI 021545Z 27019G27KT 10SM CLR 11/M06 A2976 1940 31 1900 270/19G27 RMK AO2 PK WND 27027/1540 T01061056
13962KABI ABI20160202095013602/02/16 09:50:31  5-MIN KABI 021550Z 27016G27KT 10SM CLR 11/M06 A2977 1930 31 1900 270/16G27 RMK AO2 PK WND 27027/1540 SLP070 T01061056
13962KABI ABI20160202095511102/02/16 09:55:31  5-MIN KABI 021555Z 26016G27KT 10SM CLR 11/M06 A2977 1930 30 2000 260/16G27 RMK AO2 T01111056
13962KABI ABI20160202100012902/02/16 10:00:31  5-MIN KABI 021600Z 26019G26KT 10SM CLR 11/M06 A2977 1930 30 2000 260/19G26 RMK AO2 PK WND 26026/1556 T01111056
13962KABI ABI20160202100512902/02/16 10:05:31  5-MIN KABI 021605Z 27016G26KT 10SM CLR 11/M06 A2978 1920 30 2000 270/16G26 RMK AO2 PK WND 26026/1556 T01111056
13962KABI ABI20160202101012902/02/16 10:10:31  5-MIN KABI 021610Z 26019G28KT 10SM CLR 11/M06 A2978 1930 30 2000 260/19G28 RMK AO2 PK WND 28028/1606 T01111056
13962KABI ABI20160202101512902/02/16 10:15:31  5-MIN KABI 021615Z 26017G28KT 10SM CLR 11/M06 A2978 1930 30 2000 260/17G28 RMK AO2 PK WND 28028/1606 T01111056
13962KABI ABI20160202102012902/02/16 10:20:31  5-MIN KABI 021620Z 26014G23KT 10SM CLR 12/M05 A2978 1920 30 2000 260/14G23 RMK AO2 PK WND 28028/1606 T01171050
13962KABI ABI20160202102512902/02/16 10:25:31  5-MIN KABI 021625Z 27016G26KT 10SM CLR 12/M05 A2978 1920 29 2100 260/16G26 RMK AO2 PK WND 28028/1606 T01221050
13962KABI ABI20160202103012902/02/16 10:30:31  5-MIN KABI 021630Z 27016G26KT 10SM CLR 12/M06 A2978 1930 29 2000 270/16G26 RMK AO2 PK WND 28028/1606 T01171056
13962KABI ABI20160202103512302/02/16 10:35:31  5-MIN KABI 021635Z 27013KT 10SM CLR 12/M06 A2978 1930 28 2100 270/13 RMK AO2 PK WND 28028/1606 T01221056
13962KABI ABI20160202104012302/02/16 10:40:31  5-MIN KABI 021640Z 26017KT 10SM CLR 12/M06 A2978 1920 28 2100 250/17 RMK AO2 PK WND 28028/1606 T01221056
13962KABI ABI20160202104512302/02/16 10:45:31  5-MIN KABI 021645Z 26016KT 10SM CLR 13/M06 A2978 1930 27 2200 260/16 RMK AO2 PK WND 28028/1606 T01281056
13962KABI ABI20160202105013602/02/16 10:50:31  5-MIN KABI 021650Z 27019G25KT 10SM CLR 13/M06 A2978 1920 26 2100 270/19G25 RMK AO2 PK WND 28028/1606 SLP073 T01281061
13962KABI ABI20160202105511102/02/16 10:55:31  5-MIN KABI 021655Z 28018G27KT 10SM CLR 13/M06 A2978 1920 26 2200 270/18G27 RMK AO2 T01281061
13962KABI ABI20160202110012902/02/16 11:00:31  5-MIN KABI 021700Z 28018G27KT 10SM CLR 13/M06 A2978 1930 27 2200 270/18G27 RMK AO2 PK WND 27026/1700 T01281056
13962KABI ABI20160202110512902/02/16 11:05:31  5-MIN KABI 021705Z 28021G28KT 10SM CLR 13/M06 A2978 1930 26 2200 280/21G28 RMK AO2 PK WND 30028/1702 T01281061
13962KABI ABI20160202111012902/02/16 11:10:31  5-MIN KABI 021710Z 28016G28KT 10SM CLR 13/M06 A2978 1920 25 2200 280/16G28 RMK AO2 PK WND 30028/1702 T01331061
13962KABI ABI20160202111512902/02/16 11:15:31  5-MIN KABI 021715Z 27023G31KT 10SM CLR 13/M07 A2977 1930 25 2200 270/23G31 RMK AO2 PK WND 29031/1712 T01281067
13962KABI ABI20160202112012902/02/16 11:20:31  5-MIN KABI 021720Z 30024G32KT 10SM CLR 13/M07 A2978 1930 25 2200 290/24G32 RMK AO2 PK WND 31032/1720 T01281067
13962KABI ABI20160202112512902/02/16 11:25:31  5-MIN KABI 021725Z 29022G34KT 10SM CLR 13/M06 A2978 1920 25 2200 280/22G34 RMK AO2 PK WND 30034/1722 T01331061
13962KABI ABI20160202113012902/02/16 11:30:31  5-MIN KABI 021730Z 28022G34KT 10SM CLR 13/M06 A2978 1920 25 2200 270/22G34 RMK AO2 PK WND 30034/1722 T01331061
13962KABI ABI20160202113512902/02/16 11:35:31  5-MIN KABI 021735Z 28021G29KT 10SM CLR 13/M06 A2978 1920 25 2200 270/21G29 RMK AO2 PK WND 30034/1722 T01331061
13962KABI ABI20160202114012902/02/16 11:40:31  5-MIN KABI 021740Z 28018G26KT 10SM CLR 14/M06 A2978 1920 25 2300 280/18G26 RMK AO2 PK WND 30034/1722 T01391056
13962KABI ABI20160202114512902/02/16 11:45:31  5-MIN KABI 021745Z 28022G28KT 10SM CLR 14/M06 A2978 1930 25 2300 270/22G28 RMK AO2 PK WND 30034/1722 T01391056
13962KABI ABI20160202115015402/02/16 11:50:31  5-MIN KABI 021750Z 29018G28KT 10SM CLR 13/M06 A2978 1930 25 2200 280/18G28 RMK AO2 PK WND 30034/1722 SLP073 T01331061 10139 20061 51014
13962KABI ABI20160202115512902/02/16 11:55:31  5-MIN KABI 021755Z 28019G26KT 10SM CLR 13/M06 A2977 1930 25 2200 280/19G26 RMK AO2 PK WND 28026/1753 T01331061
13962KABI ABI20160202120012802/02/16 12:00:31  5-MIN KABI 021800Z 28022G30KT 9SM CLR 13/M06 A2977 1930 25 2200 270/22G30 RMK AO2 PK WND 27030/1759 T01331061
13962KABI ABI20160202120512802/02/16 12:05:31  5-MIN KABI 021805Z 28019G30KT 9SM CLR 13/M07 A2977 1930 24 2200 270/19G30 RMK AO2 PK WND 27030/1759 T01331067
13962KABI ABI20160202121012802/02/16 12:10:31  5-MIN KABI 021810Z 29016G28KT 9SM CLR 14/M06 A2977 1930 24 2300 280/16G28 RMK AO2 PK WND 27030/1759 T01391061
13962KABI ABI20160202121512802/02/16 12:15:31  5-MIN KABI 021815Z 27020G28KT 9SM CLR 14/M07 A2977 1930 23 2300 270/20G28 RMK AO2 PK WND 27030/1759 T01391067
13962KABI ABI20160202122012902/02/16 12:20:31  5-MIN KABI 021820Z 28018G26KT 10SM CLR 14/M07 A2977 1930 23 2300 270/18G26 RMK AO2 PK WND 27030/1759 T01391067
13962KABI ABI20160202122512902/02/16 12:25:31  5-MIN KABI 021825Z 29019G26KT 10SM CLR 14/M07 A2977 1940 23 2300 280/19G26 RMK AO2 PK WND 27030/1759 T01391067
13962KABI ABI20160202123012902/02/16 12:30:31  5-MIN KABI 021830Z 28018G29KT 10SM CLR 14/M07 A2976 1940 22 2400 270/18G29 RMK AO2 PK WND 27030/1759 T01441067
13962KABI ABI20160202123512902/02/16 12:35:31  5-MIN KABI 021835Z 27019G29KT 10SM CLR 14/M07 A2976 1940 22 2400 260/19G29 RMK AO2 PK WND 27030/1759 T01441067
13962KABI ABI20160202124012902/02/16 12:40:31  5-MIN KABI 021840Z 27022G29KT 10SM CLR 14/M07 A2976 1940 22 2400 270/22G29 RMK AO2 PK WND 27030/1759 T01441067
13962KABI ABI20160202124512902/02/16 12:45:31  5-MIN KABI 021845Z 28016G29KT 10SM CLR 14/M07 A2976 1940 22 2400 270/16G29 RMK AO2 PK WND 27030/1759 T01441067
13962KABI ABI20160202125013602/02/16 12:50:31  5-MIN KABI 021850Z 28020G26KT 10SM CLR 14/M07 A2975 1950 21 2400 280/20G26 RMK AO2 PK WND 27030/1759 SLP064 T01441072
13962KABI ABI20160202125511102/02/16 12:55:31  5-MIN KABI 021855Z 29018G26KT 10SM CLR 14/M07 A2975 1950 21 2400 290/18G26 RMK AO2 T01441072
13962KABI ABI20160202130012902/02/16 13:00:31  5-MIN KABI 021900Z 27018G26KT 10SM CLR 14/M07 A2975 1950 21 2400 270/18G26 RMK AO2 PK WND 29026/1857 T01441072
13962KABI ABI20160202130512902/02/16 13:05:31  5-MIN KABI 021905Z 28018G26KT 10SM CLR 15/M07 A2975 1950 21 2400 270/18G26 RMK AO2 PK WND 29026/1857 T01501072
13962KABI ABI20160202131012902/02/16 13:10:31  5-MIN KABI 021910Z 26020G27KT 10SM CLR 15/M07 A2974 1960 22 2500 260/20G27 RMK AO2 PK WND 26027/1910 T01501067
13962KABI ABI20160202131512902/02/16 13:15:31  5-MIN KABI 021915Z 28014G27KT 10SM CLR 15/M07 A2974 1960 22 2500 270/14G27 RMK AO2 PK WND 26027/1910 T01501067
13962KABI ABI20160202132012302/02/16 13:20:31  5-MIN KABI 021920Z 28015KT 10SM CLR 15/M07 A2974 1960 22 2500 270/15 RMK AO2 PK WND 26027/1910 T01501067
13962KABI ABI20160202132512902/02/16 13:25:31  5-MIN KABI 021925Z 27019G24KT 10SM CLR 16/M07 A2974 1960 21 2500 260/19G24 RMK AO2 PK WND 26027/1910 T01561067
13962KABI ABI20160202133012902/02/16 13:30:31  5-MIN KABI 021930Z 27017G25KT 10SM CLR 16/M07 A2974 1960 21 2500 260/17G25 RMK AO2 PK WND 26027/1910 T01561067
13962KABI ABI20160202133512802/02/16 13:35:31  5-MIN KABI 021935Z 28020G25KT 9SM CLR 15/M07 A2974 1960 22 2500 270/20G25 RMK AO2 PK WND 26027/1910 T01501067
13962KABI ABI20160202134012802/02/16 13:40:31  5-MIN KABI 021940Z 29013G25KT 9SM CLR 15/M07 A2974 1960 22 2500 290/13G25 RMK AO2 PK WND 26027/1910 T01501067
13962KABI ABI20160202134512902/02/16 13:45:31  5-MIN KABI 021945Z 27017G27KT 10SM CLR 15/M07 A2974 1960 22 2500 270/17G27 RMK AO2 PK WND 29027/1941 T01501067
13962KABI ABI20160202135013602/02/16 13:50:31  5-MIN KABI 021950Z 28017G27KT 10SM CLR 15/M07 A2974 1960 21 2500 280/17G27 RMK AO2 PK WND 29027/1941 SLP060 T01501072
13962KABI ABI20160202135512902/02/16 13:55:31  5-MIN KABI 021955Z 27016G26KT 10SM CLR 15/M07 A2974 1960 22 2500 260/16G26 RMK AO2 PK WND 26026/1953 T01501067
13962KABI ABI20160202140012902/02/16 14:00:31  5-MIN KABI 022000Z 27016G26KT 10SM CLR 15/M07 A2974 1960 22 2500 270/16G26 RMK AO2 PK WND 26026/1953 T01501067
13962KABI ABI20160202140512902/02/16 14:05:31  5-MIN KABI 022005Z 29019G24KT 10SM CLR 15/M07 A2973 1970 22 2500 290/19G24 RMK AO2 PK WND 26026/1953 T01501067
13962KABI ABI20160202141012902/02/16 14:10:31  5-MIN KABI 022010Z 28019G24KT 10SM CLR 15/M07 A2973 1970 22 2500 280/19G24 RMK AO2 PK WND 26026/1953 T01501067
13962KABI ABI20160202141512802/02/16 14:15:31  5-MIN KABI 022015Z 27016G23KT 9SM CLR 16/M07 A2973 1970 21 2500 260/16G23 RMK AO2 PK WND 26026/1953 T01561067
13962KABI ABI20160202142012802/02/16 14:20:31  5-MIN KABI 022020Z 26018G25KT 9SM CLR 15/M07 A2973 1970 22 2500 260/18G25 RMK AO2 PK WND 26026/1953 T01501067
13962KABI ABI20160202142512902/02/16 14:25:31  5-MIN KABI 022025Z 27013G25KT 10SM CLR 15/M06 A2973 1970 22 2500 260/13G25 RMK AO2 PK WND 26026/1953 T01501061
13962KABI ABI20160202143012902/02/16 14:30:31  5-MIN KABI 022030Z 28015G21KT 10SM CLR 15/M06 A2973 1970 22 2500 280/15G21 RMK AO2 PK WND 26026/1953 T01501061
13962KABI ABI20160202143512302/02/16 14:35:31  5-MIN KABI 022035Z 26017KT 10SM CLR 15/M07 A2974 1960 22 2500 250/17 RMK AO2 PK WND 26026/1953 T01501067
13962KABI ABI20160202144012302/02/16 14:40:31  5-MIN KABI 022040Z 27017KT 10SM CLR 15/M06 A2973 1970 22 2500 270/17 RMK AO2 PK WND 26026/1953 T01501061
13962KABI ABI20160202144512902/02/16 14:45:31  5-MIN KABI 022045Z 26015G25KT 10SM CLR 15/M06 A2973 1970 22 2500 260/15G25 RMK AO2 PK WND 26026/1953 T01501061
13962KABI ABI20160202145014202/02/16 14:50:31  5-MIN KABI 022050Z 30016G25KT 10SM CLR 15/M07 A2974 1960 22 2500 300/16G25 RMK AO2 PK WND 26026/1953 SLP059 T01501067 50011
13962KABI ABI20160202145511102/02/16 14:55:31  5-MIN KABI 022055Z 29018G25KT 10SM CLR 16/M07 A2973 1960 21 2500 280/18G25 RMK AO2 T01561067
13962KABI ABI20160202150011102/02/16 15:00:31  5-MIN KABI 022100Z 26017G25KT 10SM CLR 15/M07 A2974 1960 22 2500 260/17G25 RMK AO2 T01501067
13962KABI ABI20160202150511102/02/16 15:05:31  5-MIN KABI 022105Z 27013G24KT 10SM CLR 16/M07 A2974 1960 21 2500 260/13G24 RMK AO2 T01561067
13962KABI ABI20160202151011102/02/16 15:10:31  5-MIN KABI 022110Z 28017G25KT 10SM CLR 15/M07 A2974 1960 21 2500 280/17G25 RMK AO2 T01501072
13962KABI ABI20160202151511102/02/16 15:15:31  5-MIN KABI 022115Z 27017G25KT 10SM CLR 16/M06 A2974 1960 22 2500 270/17G25 RMK AO2 T01561061
13962KABI ABI20160202152011102/02/16 15:20:31  5-MIN KABI 022120Z 27010G23KT 10SM CLR 15/M07 A2974 1960 21 2500 270/10G23 RMK AO2 T01501072
13962KABI ABI20160202152511102/02/16 15:25:31  5-MIN KABI 022125Z 27016G21KT 10SM CLR 15/M07 A2974 1960 22 2500 270/16G21 RMK AO2 T01501067
13962KABI ABI20160202153012802/02/16 15:30:31  5-MIN KABI 022130Z 27014G27KT 9SM CLR 15/M08 A2974 1960 20 2500 270/14G27 RMK AO2 PK WND 26027/2127 T01501078
13962KABI ABI20160202153512802/02/16 15:35:31  5-MIN KABI 022135Z 29018G27KT 9SM CLR 15/M07 A2974 1960 21 2500 280/18G27 RMK AO2 PK WND 26027/2127 T01501072
13962KABI ABI20160202154012902/02/16 15:40:31  5-MIN KABI 022140Z 27014G24KT 10SM CLR 15/M07 A2975 1950 21 2400 270/14G24 RMK AO2 PK WND 26027/2127 T01501072
13962KABI ABI20160202154512302/02/16 15:45:31  5-MIN KABI 022145Z 29017KT 10SM CLR 15/M07 A2975 1950 21 2400 290/17 RMK AO2 PK WND 26027/2127 T01501072
13962KABI ABI20160202155013502/02/16 15:50:31  5-MIN KABI 022150Z 29020G26KT 9SM CLR 15/M07 A2975 1950 21 2400 290/20G26 RMK AO2 PK WND 26027/2127 SLP063 T01501072
13962KABI ABI20160202155511302/02/16 15:55:31  5-MIN KABI 022155Z 28017G26KT 9SM FEW095 15/M07 A2975 1950 21 2400 270/17G26 RMK AO2 T01501072
13962KABI ABI20160202160011002/02/16 16:00:31  5-MIN KABI 022200Z 30015G21KT 9SM CLR 15/M07 A2975 1950 21 2400 290/15G21 RMK AO2 T01501072
13962KABI ABI20160202160511102/02/16 16:05:31  5-MIN KABI 022205Z 28017G21KT 10SM CLR 15/M08 A2976 1940 20 2400 270/17G21 RMK AO2 T01501078
13962KABI ABI20160202161011002/02/16 16:10:31  5-MIN KABI 022210Z 29019G23KT 9SM CLR 15/M08 A2976 1940 20 2400 280/19G23 RMK AO2 T01501078
13962KABI ABI20160202161511002/02/16 16:15:31  5-MIN KABI 022215Z 29013G23KT 9SM CLR 15/M08 A2976 1940 20 2400 280/13G23 RMK AO2 T01501078
13962KABI ABI20160202162010502/02/16 16:20:31  5-MIN KABI 022220Z 29012KT 10SM CLR 15/M08 A2976 1940 20 2400 290/12 RMK AO2 T01501078
13962KABI ABI20160202162511102/02/16 16:25:31  5-MIN KABI 022225Z 27015G21KT 10SM CLR 15/M08 A2976 1940 20 2400 270/15G21 RMK AO2 T01501078
13962KABI ABI20160202163011102/02/16 16:30:31  5-MIN KABI 022230Z 26016G22KT 10SM CLR 15/M08 A2977 1930 20 2400 260/16G22 RMK AO2 T01501078
13962KABI ABI20160202163511102/02/16 16:35:31  5-MIN KABI 022235Z 28014G22KT 10SM CLR 14/M08 A2977 1930 20 2400 270/14G22 RMK AO2 T01441078
13962KABI ABI20160202164010502/02/16 16:40:31  5-MIN KABI 022240Z 28014KT 10SM CLR 14/M08 A2977 1930 20 2400 270/14 RMK AO2 T01441078
13962KABI ABI20160202164511102/02/16 16:45:31  5-MIN KABI 022245Z 29016G23KT 10SM CLR 14/M08 A2977 1930 20 2400 280/16G23 RMK AO2 T01441078
13962KABI ABI20160202165011802/02/16 16:50:31  5-MIN KABI 022250Z 28015G23KT 10SM CLR 14/M08 A2977 1930 20 2400 280/15G23 RMK AO2 SLP073 T01441083
13962KABI ABI20160202165511102/02/16 16:55:31  5-MIN KABI 022255Z 28017G22KT 10SM CLR 14/M08 A2978 1930 20 2300 280/17G22 RMK AO2 T01441078
13962KABI ABI20160202170011102/02/16 17:00:31  5-MIN KABI 022300Z 28014G22KT 10SM CLR 14/M08 A2978 1920 20 2300 280/14G22 RMK AO2 T01441083
13962KABI ABI20160202170511102/02/16 17:05:31  5-MIN KABI 022305Z 28016G25KT 10SM CLR 14/M08 A2978 1920 20 2300 280/16G25 RMK AO2 T01391083
13962KABI ABI20160202171011102/02/16 17:10:31  5-MIN KABI 022310Z 29014G25KT 10SM CLR 14/M08 A2978 1920 21 2300 290/14G25 RMK AO2 T01391078
13962KABI ABI20160202171510502/02/16 17:15:31  5-MIN KABI 022315Z 28016KT 10SM CLR 14/M08 A2979 1920 21 2300 270/16 RMK AO2 T01391078
13962KABI ABI20160202172010502/02/16 17:20:31  5-MIN KABI 022320Z 28013KT 10SM CLR 14/M09 A2979 1910 20 2300 280/13 RMK AO2 T01391089
13962KABI ABI20160202172510502/02/16 17:25:31  5-MIN KABI 022325Z 29015KT 10SM CLR 13/M09 A2979 1910 20 2200 290/15 RMK AO2 T01331089
13962KABI ABI20160202173010402/02/16 17:30:31  5-MIN KABI 022330Z 28015KT 9SM CLR 13/M09 A2980 1910 19 2200 280/15 RMK AO2 T01331094
13962KABI ABI20160202173510402/02/16 17:35:31  5-MIN KABI 022335Z 29015KT 9SM CLR 13/M09 A2980 1900 19 2200 280/15 RMK AO2 T01331094
13962KABI ABI20160202174010402/02/16 17:40:31  5-MIN KABI 022340Z 29011KT 9SM CLR 13/M10 A2981 1900 19 2200 280/11 RMK AO2 T01331100
13962KABI ABI20160202174510502/02/16 17:45:31  5-MIN KABI 022345Z 29013KT 10SM CLR 13/M09 A2981 1900 20 2100 290/13 RMK AO2 T01281094
13962KABI ABI20160202175013002/02/16 17:50:31  5-MIN KABI 022350Z 30012KT 10SM CLR 13/M10 A2981 1890 19 2100 290/12 RMK AO2 SLP087 T01281100 10156 20128 56013
13962KABI ABI20160202175510502/02/16 17:55:31  5-MIN KABI 022355Z 29010KT 10SM CLR 13/M10 A2982 1890 19 2100 280/10 RMK AO2 T01281100
13962KABI ABI20160202180010502/02/16 18:00:31  5-MIN KABI 030000Z 28011KT 10SM CLR 12/M09 A2982 1890 21 2000 280/11 RMK AO2 T01221094
13962KABI ABI20160202180510502/02/16 18:05:31  5-MIN KABI 030005Z 29008KT 10SM CLR 12/M09 A2982 1880 22 2000 280/08 RMK AO2 T01221089
13962KABI ABI20160202181010502/02/16 18:10:31  5-MIN KABI 030010Z 29008KT 10SM CLR 12/M09 A2983 1880 23 2000 290/08 RMK AO2 T01171089
13962KABI ABI20160202181510502/02/16 18:15:31  5-MIN KABI 030015Z 29007KT 10SM CLR 11/M08 A2983 1880 25 1900 280/07 RMK AO2 T01111083
13962KABI ABI20160202182010502/02/16 18:20:31  5-MIN KABI 030020Z 30008KT 10SM CLR 11/M08 A2983 1870 25 1800 300/08 RMK AO2 T01061083
13962KABI ABI20160202182510502/02/16 18:25:31  5-MIN KABI 030025Z 31007KT 10SM CLR 11/M08 A2983 1870 25 1800 300/07 RMK AO2 T01061083
13962KABI ABI20160202183010502/02/16 18:30:31  5-MIN KABI 030030Z 30008KT 10SM CLR 11/M08 A2984 1870 27 1800 300/08 RMK AO2 T01061078
13962KABI ABI20160202183510502/02/16 18:35:31  5-MIN KABI 030035Z 31008KT 10SM CLR 11/M08 A2984 1870 27 1800 300/08 RMK AO2 T01061078
13962KABI ABI20160202184010502/02/16 18:40:31  5-MIN KABI 030040Z 32010KT 10SM CLR 11/M07 A2985 1860 28 1800 320/10 RMK AO2 T01061072
13962KABI ABI20160202184510502/02/16 18:45:31  5-MIN KABI 030045Z 33009KT 10SM CLR 11/M07 A2985 1860 28 1800 320/09 RMK AO2 T01061072
13962KABI ABI20160202185011202/02/16 18:50:31  5-MIN KABI 030050Z 33010KT 10SM CLR 11/M07 A2985 1850 28 1800 330/10 RMK AO2 SLP104 T01061072
13962KABI ABI20160202185510502/02/16 18:55:31  5-MIN KABI 030055Z 33008KT 10SM CLR 10/M07 A2986 1850 29 1700 330/08 RMK AO2 T01001072
13962KABI ABI20160202190010502/02/16 19:00:31  5-MIN KABI 030100Z 34009KT 10SM CLR 10/M07 A2986 1850 30 1700 330/09 RMK AO2 T01001067
13962KABI ABI20160202190510502/02/16 19:05:31  5-MIN KABI 030105Z 34008KT 10SM CLR 09/M07 A2987 1840 31 1700 330/08 RMK AO2 T00941067
13962KABI ABI20160202191010502/02/16 19:10:31  5-MIN KABI 030110Z 34009KT 10SM CLR 09/M07 A2987 1840 32 1600 340/09 RMK AO2 T00891067
13962KABI ABI20160202191510502/02/16 19:15:31  5-MIN KABI 030115Z 34009KT 10SM CLR 09/M07 A2987 1840 32 1600 340/09 RMK AO2 T00891067
13962KABI ABI20160202192010502/02/16 19:20:31  5-MIN KABI 030120Z 34008KT 10SM CLR 08/M06 A2988 1830 35 1500 330/08 RMK AO2 T00831061
13962KABI ABI20160202192510502/02/16 19:25:31  5-MIN KABI 030125Z 34008KT 10SM CLR 08/M06 A2988 1830 35 1500 330/08 RMK AO2 T00831061
13962KABI ABI20160202193010502/02/16 19:30:31  5-MIN KABI 030130Z 34008KT 10SM CLR 08/M06 A2988 1830 35 1500 330/08 RMK AO2 T00831061
13962KABI ABI20160202193510502/02/16 19:35:31  5-MIN KABI 030135Z 33008KT 10SM CLR 08/M07 A2989 1820 34 1500 330/08 RMK AO2 T00831067
13962KABI ABI20160202194010502/02/16 19:40:31  5-MIN KABI 030140Z 33008KT 10SM CLR 08/M07 A2989 1820 34 1500 330/08 RMK AO2 T00831067
13962KABI ABI20160202194510502/02/16 19:45:31  5-MIN KABI 030145Z 34007KT 10SM CLR 08/M07 A2989 1820 34 1500 330/07 RMK AO2 T00831067
13962KABI ABI20160202195011202/02/16 19:50:31  5-MIN KABI 030150Z 34007KT 10SM CLR 08/M07 A2990 1820 35 1400 340/07 RMK AO2 SLP121 T00781067
13962KABI ABI20160202195510502/02/16 19:55:31  5-MIN KABI 030155Z 35007KT 10SM CLR 08/M07 A2990 1810 35 1400 340/07 RMK AO2 T00781067
13962KABI ABI20160202200010502/02/16 20:00:31  5-MIN KABI 030200Z 35007KT 10SM CLR 07/M07 A2990 1810 36 1300 350/07 RMK AO2 T00721067
13962KABI ABI20160202200510502/02/16 20:05:31  5-MIN KABI 030205Z 35007KT 10SM CLR 07/M07 A2990 1810 36 1300 350/07 RMK AO2 T00721067
13962KABI ABI20160202201010502/02/16 20:10:31  5-MIN KABI 030210Z 35009KT 10SM CLR 08/M07 A2991 1800 34 1500 350/09 RMK AO2 T00831067
13962KABI ABI20160202201511102/02/16 20:15:31  5-MIN KABI 030215Z 36014G17KT 10SM CLR 08/M07 A2991 1800 34 1500 360/14G17 RMK AO2 T00831067
13962KABI ABI20160202202011102/02/16 20:20:31  5-MIN KABI 030220Z 01014G20KT 10SM CLR 08/M06 A2992 1800 35 1500 010/14G20 RMK AO2 T00831061
13962KABI ABI20160202202510502/02/16 20:25:31  5-MIN KABI 030225Z 01015KT 10SM CLR 08/M06 A2992 1790 37 1500 360/15 RMK AO2 T00831056
13962KABI ABI20160202203010502/02/16 20:30:31  5-MIN KABI 030230Z 01013KT 10SM CLR 08/M06 A2992 1790 38 1400 360/13 RMK AO2 T00781056
13962KABI ABI20160202203510502/02/16 20:35:31  5-MIN KABI 030235Z 01013KT 10SM CLR 08/M05 A2993 1790 40 1400 360/13 RMK AO2 T00781050
13962KABI ABI20160202204010502/02/16 20:40:31  5-MIN KABI 030240Z 01011KT 10SM CLR 08/M05 A2993 1780 40 1400 010/11 RMK AO2 T00781050
13962KABI ABI20160202204510502/02/16 20:45:31  5-MIN KABI 030245Z 01011KT 10SM CLR 07/M05 A2993 1780 41 1300 010/11 RMK AO2 T00721050
13962KABI ABI20160202205011802/02/16 20:50:31  5-MIN KABI 030250Z 01009KT 10SM CLR 07/M05 A2993 1780 41 1300 010/09 RMK AO2 SLP133 T00721050 53025
13962KABI ABI20160202210010502/02/16 21:00:31  5-MIN KABI 030300Z 02008KT 10SM CLR 07/M04 A2993 1780 45 1200 010/08 RMK AO2 T00671044
13962KABI ABI20160202210510502/02/16 21:05:31  5-MIN KABI 030305Z 02010KT 10SM CLR 07/M04 A2994 1780 45 1200 010/10 RMK AO2 T00671044
13962KABI ABI20160202211010502/02/16 21:10:31  5-MIN KABI 030310Z 02009KT 10SM CLR 07/M04 A2994 1780 45 1200 010/09 RMK AO2 T00671044
13962KABI ABI20160202211510502/02/16 21:15:31  5-MIN KABI 030315Z 02009KT 10SM CLR 06/M04 A2994 1770 46 1200 010/09 RMK AO2 T00611044
13962KABI ABI20160202212010502/02/16 21:20:31  5-MIN KABI 030320Z 01009KT 10SM CLR 06/M05 A2994 1770 45 1200 010/09 RMK AO2 T00611050
13962KABI ABI20160202212510502/02/16 21:25:31  5-MIN KABI 030325Z 02009KT 10SM CLR 06/M04 A2994 1770 46 1200 010/09 RMK AO2 T00611044
13962KABI ABI20160202213010502/02/16 21:30:31  5-MIN KABI 030330Z 02009KT 10SM CLR 06/M05 A2995 1770 45 1200 010/09 RMK AO2 T00611050
13962KABI ABI20160202213510502/02/16 21:35:31  5-MIN KABI 030335Z 01009KT 10SM CLR 06/M05 A2994 1770 45 1200 010/09 RMK AO2 T00611050
13962KABI ABI20160202214010502/02/16 21:40:31  5-MIN KABI 030340Z 01009KT 10SM CLR 06/M05 A2995 1770 46 1100 010/09 RMK AO2 T00561050
13962KABI ABI20160202214510502/02/16 21:45:31  5-MIN KABI 030345Z 01009KT 10SM CLR 06/M05 A2995 1760 46 1100 360/09 RMK AO2 T00561050
13962KABI ABI20160202215011202/02/16 21:50:31  5-MIN KABI 030350Z 01007KT 10SM CLR 06/M05 A2996 1760 46 1100 010/07 RMK AO2 SLP140 T00561050
13962KABI ABI20160202215510502/02/16 21:55:31  5-MIN KABI 030355Z 01007KT 10SM CLR 06/M05 A2996 1760 46 1100 010/07 RMK AO2 T00561050
13962KABI ABI20160202220010502/02/16 22:00:31  5-MIN KABI 030400Z 01007KT 10SM CLR 06/M05 A2996 1750 46 1100 360/07 RMK AO2 T00561050
13962KABI ABI20160202220510502/02/16 22:05:31  5-MIN KABI 030405Z 36007KT 10SM CLR 05/M05 A2997 1750 48 1000 360/07 RMK AO2 T00501050
13962KABI ABI20160202221010502/02/16 22:10:31  5-MIN KABI 030410Z 36009KT 10SM CLR 05/M05 A2997 1750 48 1000 360/09 RMK AO2 T00501050
13962KABI ABI20160202221510502/02/16 22:15:31  5-MIN KABI 030415Z 36010KT 10SM CLR 05/M05 A2997 1750 48 1000 360/10 RMK AO2 T00501050
13962KABI ABI20160202222010502/02/16 22:20:31  5-MIN KABI 030420Z 01010KT 10SM CLR 05/M05 A2997 1750 48 1000 360/10 RMK AO2 T00501050
13962KABI ABI20160202222510502/02/16 22:25:31  5-MIN KABI 030425Z 01010KT 10SM CLR 05/M05 A2997 1750 48 1000 360/10 RMK AO2 T00501050
13962KABI ABI20160202223010502/02/16 22:30:31  5-MIN KABI 030430Z 01012KT 10SM CLR 05/M05 A2997 1740 48 1000 360/12 RMK AO2 T00501050
13962KABI ABI20160202223510502/02/16 22:35:31  5-MIN KABI 030435Z 01014KT 10SM CLR 05/M05 A2997 1740 48 1000 360/14 RMK AO2 T00501050
13962KABI ABI20160202224010502/02/16 22:40:31  5-MIN KABI 030440Z 01013KT 10SM CLR 05/M05 A2997 1740 48 1000 360/13 RMK AO2 T00501050
13962KABI ABI20160202224510502/02/16 22:45:31  5-MIN KABI 030445Z 01014KT 10SM CLR 05/M05 A2998 1740 48 1000 360/14 RMK AO2 T00501050
13962KABI ABI20160202225011102/02/16 22:50:31  5-MIN KABI 030450Z 01011KT 10SM CLR 04/M05 A2999 1730 50 900 010/11 RMK AO2 SLP150 T00441050
13962KABI ABI20160202225511102/02/16 22:55:31  5-MIN KABI 030455Z 01010KT 10SM CLR 04/M05 A2999 1720 50 900 010/10 RMK AO2 PRESRR T00441050
13962KABI ABI20160202230010402/02/16 23:00:31  5-MIN KABI 030500Z 01010KT 10SM CLR 04/M05 A3000 1720 50 900 010/10 RMK AO2 T00441050
13962KABI ABI20160202230510402/02/16 23:05:31  5-MIN KABI 030505Z 01012KT 10SM CLR 04/M05 A3001 1710 50 900 360/12 RMK AO2 T00441050
13962KABI ABI20160202231010402/02/16 23:10:31  5-MIN KABI 030510Z 01011KT 10SM CLR 04/M05 A3001 1710 52 800 360/11 RMK AO2 T00391050
13962KABI ABI20160202231510402/02/16 23:15:31  5-MIN KABI 030515Z 01013KT 10SM CLR 04/M05 A3001 1710 52 800 360/13 RMK AO2 T00391050
13962KABI ABI20160202232010402/02/16 23:20:31  5-MIN KABI 030520Z 36011KT 10SM CLR 04/M05 A3001 1710 52 800 360/11 RMK AO2 T00391050
13962KABI ABI20160202232510402/02/16 23:25:31  5-MIN KABI 030525Z 36013KT 10SM CLR 04/M05 A3001 1710 52 800 360/13 RMK AO2 T00391050
13962KABI ABI20160202233010402/02/16 23:30:31  5-MIN KABI 030530Z 36012KT 10SM CLR 04/M05 A3001 1710 52 800 360/12 RMK AO2 T00391050
13962KABI ABI20160202233510402/02/16 23:35:31  5-MIN KABI 030535Z 36012KT 10SM CLR 04/M05 A3001 1710 52 800 360/12 RMK AO2 T00391050
13962KABI ABI20160202234010402/02/16 23:40:31  5-MIN KABI 030540Z 36011KT 10SM CLR 04/M05 A3001 1710 52 800 350/11 RMK AO2 T00391050
13962KABI ABI20160202234510402/02/16 23:45:31  5-MIN KABI 030545Z 35010KT 10SM CLR 03/M05 A3002 1700 54 700 350/10 RMK AO2 T00331050
13962KABI ABI20160202235013902/02/16 23:50:31  5-MIN KABI 030550Z 35008KT 10SM CLR 03/M04 A3003 1690 57 700 350/08 RMK AO2 SLP165 T00331044 10128 20033 401560033 51039
13962KABI ABI20160202235510402/02/16 23:55:31  5-MIN KABI 030555Z 36009KT 10SM CLR 03/M04 A3003 1690 57 700 360/09 RMK AO2 T00331044
13962KABI ABI20160203000010402/03/16 00:00:31  5-MIN KABI 030600Z 36009KT 10SM CLR 03/M04 A3004 1680 57 700 350/09 RMK AO2 T00331044
13962KABI ABI20160203000510402/03/16 00:05:31  5-MIN KABI 030605Z 36008KT 10SM CLR 03/M04 A3004 1680 57 700 350/08 RMK AO2 T00331044
13962KABI ABI20160203001010402/03/16 00:10:31  5-MIN KABI 030610Z 36008KT 10SM CLR 03/M05 A3004 1680 56 600 350/08 RMK AO2 T00281050
13962KABI ABI20160203001510402/03/16 00:15:31  5-MIN KABI 030615Z 36008KT 10SM CLR 03/M04 A3004 1680 59 600 350/08 RMK AO2 T00281044
13962KABI ABI20160203002010402/03/16 00:20:31  5-MIN KABI 030620Z 36008KT 10SM CLR 03/M05 A3005 1680 56 600 360/08 RMK AO2 T00281050
13962KABI ABI20160203002510402/03/16 00:25:31  5-MIN KABI 030625Z 01007KT 10SM CLR 03/M05 A3005 1670 56 600 360/07 RMK AO2 T00281050
13962KABI ABI20160203003010402/03/16 00:30:31  5-MIN KABI 030630Z 01007KT 10SM CLR 03/M05 A3005 1670 56 600 360/07 RMK AO2 T00281050
13962KABI ABI20160203003510402/03/16 00:35:31  5-MIN KABI 030635Z 01008KT 10SM CLR 03/M05 A3005 1670 56 600 360/08 RMK AO2 T00281050
13962KABI ABI20160203004010402/03/16 00:40:31  5-MIN KABI 030640Z 01008KT 10SM CLR 03/M05 A3005 1670 56 600 360/08 RMK AO2 T00281050
13962KABI ABI20160203004510402/03/16 00:45:31  5-MIN KABI 030645Z 01008KT 10SM CLR 03/M05 A3006 1670 56 600 360/08 RMK AO2 T00281050
13962KABI ABI20160203005011102/03/16 00:50:31  5-MIN KABI 030650Z 36009KT 10SM CLR 03/M05 A3006 1670 56 600 360/09 RMK AO2 SLP173 T00281050
13962KABI ABI20160203005510402/03/16 00:55:31  5-MIN KABI 030655Z 01009KT 10SM CLR 03/M05 A3006 1670 56 600 360/09 RMK AO2 T00281050
13962KABI ABI20160203010010402/03/16 01:00:31  5-MIN KABI 030700Z 36008KT 10SM CLR 02/M05 A3006 1670 59 600 360/08 RMK AO2 T00221050
13962KABI ABI20160203010510402/03/16 01:05:31  5-MIN KABI 030705Z 36008KT 10SM CLR 02/M05 A3006 1660 59 600 360/08 RMK AO2 T00221050
13962KABI ABI20160203011010402/03/16 01:10:31  5-MIN KABI 030710Z 36007KT 10SM CLR 02/M05 A3006 1660 59 600 350/07 RMK AO2 T00221050
13962KABI ABI20160203011510402/03/16 01:15:31  5-MIN KABI 030715Z 35007KT 10SM CLR 02/M05 A3007 1660 61 500 350/07 RMK AO2 T00171050
13962KABI ABI20160203012010402/03/16 01:20:31  5-MIN KABI 030720Z 35007KT 10SM CLR 01/M05 A3007 1650 64 400 340/07 RMK AO2 T00111050
13962KABI ABI20160203012510402/03/16 01:25:31  5-MIN KABI 030725Z 35007KT 10SM CLR 01/M05 A3007 1650 64 400 340/07 RMK AO2 T00111050
13962KABI ABI20160203013010402/03/16 01:30:31  5-MIN KABI 030730Z 35007KT 10SM CLR 01/M05 A3008 1650 64 400 350/07 RMK AO2 T00111050
13962KABI ABI20160203013510402/03/16 01:35:31  5-MIN KABI 030735Z 35006KT 10SM CLR 01/M05 A3008 1650 64 400 350/06 RMK AO2 T00111050
13962KABI ABI20160203014010402/03/16 01:40:31  5-MIN KABI 030740Z 35007KT 10SM CLR 01/M05 A3008 1650 64 400 350/07 RMK AO2 T00111050
13962KABI ABI20160203014510402/03/16 01:45:31  5-MIN KABI 030745Z 35006KT 10SM CLR 01/M05 A3008 1640 64 400 350/06 RMK AO2 T00111050
13962KABI ABI20160203015011102/03/16 01:50:31  5-MIN KABI 030750Z 35007KT 10SM CLR 01/M05 A3008 1640 66 300 340/07 RMK AO2 SLP185 T00061050
13962KABI ABI20160203015510402/03/16 01:55:31  5-MIN KABI 030755Z 35007KT 10SM CLR 01/M05 A3008 1640 66 300 340/07 RMK AO2 T00061050
13962KABI ABI20160203020010402/03/16 02:00:31  5-MIN KABI 030800Z 35008KT 10SM CLR 01/M05 A3009 1640 66 300 350/08 RMK AO2 T00061050
13962KABI ABI20160203020510402/03/16 02:05:31  5-MIN KABI 030805Z 35007KT 10SM CLR 01/M05 A3009 1640 64 400 350/07 RMK AO2 T00111050
13962KABI ABI20160203021010402/03/16 02:10:31  5-MIN KABI 030810Z 35008KT 10SM CLR 01/M06 A3009 1640 61 400 340/08 RMK AO2 T00111056
13962KABI ABI20160203021510402/03/16 02:15:31  5-MIN KABI 030815Z 34007KT 10SM CLR 00/M06 A3009 1640 66 200 340/07 RMK AO2 T00001056
13962KABI ABI20160203022010402/03/16 02:20:31  5-MIN KABI 030820Z 34007KT 10SM CLR 00/M06 A3009 1640 66 200 340/07 RMK AO2 T00001056
13962KABI ABI20160203022510402/03/16 02:25:31  5-MIN KABI 030825Z 34007KT 10SM CLR 00/M06 A3009 1630 66 200 340/07 RMK AO2 T00001056
13962KABI ABI20160203023010402/03/16 02:30:31  5-MIN KABI 030830Z 34008KT 10SM CLR 00/M05 A3009 1630 69 200 340/08 RMK AO2 T00001050
13962KABI ABI20160203023510402/03/16 02:35:31  5-MIN KABI 030835Z 35008KT 10SM CLR 01/M05 A3009 1630 66 300 340/08 RMK AO2 T00061050
13962KABI ABI20160203024010702/03/16 02:40:31  5-MIN KABI 030840Z 35007KT 10SM SCT095 01/M05 A3009 1630 66 300 340/07 RMK AO2 T00061050
13962KABI ABI20160203024510702/03/16 02:45:31  5-MIN KABI 030845Z 34006KT 10SM SCT100 00/M05 A3009 1630 69 200 340/06 RMK AO2 T00001050
13962KABI ABI20160203025012102/03/16 02:50:31  5-MIN KABI 030850Z 33006KT 10SM SCT100 M01/M05 A3010 1630 72 200 330/06 RMK AO2 SLP189 T10061050 53030
13962KABI ABI20160203025510802/03/16 02:55:31  5-MIN KABI 030855Z 33007KT 10SM FEW100 M01/M06 A3010 1630 69 200 320/07 RMK AO2 T10061056
13962KABI ABI20160203030010702/03/16 03:00:31  5-MIN KABI 030900Z 33007KT 10SM SCT100 00/M06 A3010 1630 66 200 320/07 RMK AO2 T00001056
13962KABI ABI20160203030510702/03/16 03:05:31  5-MIN KABI 030905Z 33008KT 10SM SCT100 00/M06 A3010 1630 66 200 320/08 RMK AO2 T00001056
13962KABI ABI20160203031010702/03/16 03:10:31  5-MIN KABI 030910Z 33008KT 10SM FEW100 00/M06 A3010 1620 66 200 320/08 RMK AO2 T00001056
13962KABI ABI20160203031510702/03/16 03:15:31  5-MIN KABI 030915Z 33008KT 10SM FEW100 00/M06 A3010 1630 66 200 320/08 RMK AO2 T00001056
13962KABI ABI20160203032010402/03/16 03:20:31  5-MIN KABI 030920Z 33009KT 10SM CLR 00/M06 A3010 1630 66 200 320/09 RMK AO2 T00001056
13962KABI ABI20160203032510402/03/16 03:25:31  5-MIN KABI 030925Z 33009KT 10SM CLR 00/M06 A3010 1630 66 200 320/09 RMK AO2 T00001056
13962KABI ABI20160203033010402/03/16 03:30:31  5-MIN KABI 030930Z 33010KT 10SM CLR 00/M05 A3010 1630 69 200 330/10 RMK AO2 T00001050
13962KABI ABI20160203033510702/03/16 03:35:31  5-MIN KABI 030935Z 33010KT 10SM FEW100 01/M05 A3010 1630 66 300 320/10 RMK AO2 T00061050
13962KABI ABI20160203034010702/03/16 03:40:31  5-MIN KABI 030940Z 33011KT 10SM FEW100 01/M05 A3010 1630 66 300 330/11 RMK AO2 T00061050
13962KABI ABI20160203034510702/03/16 03:45:31  5-MIN KABI 030945Z 33011KT 10SM FEW100 01/M05 A3010 1630 66 300 330/11 RMK AO2 T00061050
13962KABI ABI20160203035011402/03/16 03:50:31  5-MIN KABI 030950Z 34011KT 10SM SCT095 01/M05 A3010 1630 66 300 330/11 RMK AO2 SLP190 T00061050
13962KABI ABI20160203035510702/03/16 03:55:31  5-MIN KABI 030955Z 34011KT 10SM BKN095 01/M05 A3010 1630 66 300 330/11 RMK AO2 T00061050
13962KABI ABI20160203040010702/03/16 04:00:31  5-MIN KABI 031000Z 34011KT 10SM BKN095 01/M05 A3010 1630 66 300 340/11 RMK AO2 T00061050
13962KABI ABI20160203040510702/03/16 04:05:31  5-MIN KABI 031005Z 35013KT 10SM BKN095 01/M05 A3010 1630 66 300 340/13 RMK AO2 T00061050
13962KABI ABI20160203041010702/03/16 04:10:31  5-MIN KABI 031010Z 35014KT 10SM BKN095 01/M05 A3010 1630 66 300 350/14 RMK AO2 T00061050
13962KABI ABI20160203041510702/03/16 04:15:31  5-MIN KABI 031015Z 35013KT 10SM OVC095 01/M05 A3010 1630 66 300 340/13 RMK AO2 T00061050
13962KABI ABI20160203042010702/03/16 04:20:31  5-MIN KABI 031020Z 35013KT 10SM OVC095 01/M05 A3010 1630 66 300 340/13 RMK AO2 T00061050
13962KABI ABI20160203042510702/03/16 04:25:31  5-MIN KABI 031025Z 35012KT 10SM OVC095 01/M05 A3010 1630 66 300 350/12 RMK AO2 T00061050
13962KABI ABI20160203043010702/03/16 04:30:31  5-MIN KABI 031030Z 35012KT 10SM BKN095 01/M05 A3010 1630 66 300 340/12 RMK AO2 T00061050
13962KABI ABI20160203043510702/03/16 04:35:31  5-MIN KABI 031035Z 35010KT 10SM BKN095 01/M05 A3010 1630 66 300 340/10 RMK AO2 T00061050
13962KABI ABI20160203044010702/03/16 04:40:31  5-MIN KABI 031040Z 35009KT 10SM OVC100 01/M05 A3010 1630 66 300 340/09 RMK AO2 T00061050
13962KABI ABI20160203044510702/03/16 04:45:31  5-MIN KABI 031045Z 35009KT 10SM OVC095 00/M05 A3010 1620 69 200 340/09 RMK AO2 T00001050
13962KABI ABI20160203045011402/03/16 04:50:31  5-MIN KABI 031050Z 34009KT 10SM OVC095 00/M05 A3011 1620 69 200 340/09 RMK AO2 SLP192 T00001050
13962KABI ABI20160203045510702/03/16 04:55:31  5-MIN KABI 031055Z 34009KT 10SM OVC095 00/M05 A3011 1620 69 200 340/09 RMK AO2 T00001050
13962KABI ABI20160203050010702/03/16 05:00:31  5-MIN KABI 031100Z 35010KT 10SM BKN095 00/M05 A3011 1620 69 200 340/10 RMK AO2 T00001050
13962KABI ABI20160203050510702/03/16 05:05:31  5-MIN KABI 031105Z 35010KT 10SM BKN095 00/M05 A3011 1610 69 200 340/10 RMK AO2 T00001050
13962KABI ABI20160203051010702/03/16 05:10:31  5-MIN KABI 031110Z 35010KT 10SM SCT095 00/M05 A3012 1610 69 200 340/10 RMK AO2 T00001050
13962KABI ABI20160203051510702/03/16 05:15:31  5-MIN KABI 031115Z 35009KT 10SM SCT095 00/M05 A3012 1610 69 200 340/09 RMK AO2 T00001050
13962KABI ABI20160203052010802/03/16 05:20:31  5-MIN KABI 031120Z 34008KT 10SM FEW090 M01/M06 A3013 1600 69 100 340/08 RMK AO2 T10061056
13962KABI ABI20160203052510502/03/16 05:25:31  5-MIN KABI 031125Z 34009KT 10SM CLR M01/M06 A3013 1600 69 100 340/09 RMK AO2 T10061056
13962KABI ABI20160203053010502/03/16 05:30:31  5-MIN KABI 031130Z 33007KT 10SM CLR M01/M06 A3013 1600 69 100 330/07 RMK AO2 T10061056
13962KABI ABI20160203053510502/03/16 05:35:31  5-MIN KABI 031135Z 34008KT 10SM CLR M01/M06 A3013 1600 72 100 330/08 RMK AO2 T10111056
13962KABI ABI20160203054010502/03/16 05:40:31  5-MIN KABI 031140Z 34011KT 10SM CLR M01/M06 A3013 1600 69 100 340/11 RMK AO2 T10061056
13962KABI ABI20160203054510502/03/16 05:45:31  5-MIN KABI 031145Z 35011KT 10SM CLR M01/M06 A3013 1600 69 100 340/11 RMK AO2 T10061056
13962KABI ABI20160203055012902/03/16 05:50:31  5-MIN KABI 031150Z 34011KT 10SM CLR 00/M06 A3014 1590 66 200 340/11 RMK AO2 SLP204 T00001056 10033 21011 51021
13962KABI ABI20160203055510402/03/16 05:55:31  5-MIN KABI 031155Z 34011KT 10SM CLR 00/M06 A3014 1590 66 200 340/11 RMK AO2 T00001056
13962KABI ABI20160203060010402/03/16 06:00:31  5-MIN KABI 031200Z 34011KT 10SM CLR 00/M06 A3015 1580 66 200 340/11 RMK AO2 T00001056
13962KABI ABI20160203060510502/03/16 06:05:31  5-MIN KABI 031205Z 35009KT 10SM CLR M01/M06 A3015 1580 69 100 340/09 RMK AO2 T10061056
13962KABI ABI20160203061010502/03/16 06:10:31  5-MIN KABI 031210Z 35008KT 10SM CLR M01/M06 A3015 1580 69 100 340/08 RMK AO2 T10061056
13962KABI ABI20160203061510502/03/16 06:15:31  5-MIN KABI 031215Z 35009KT 10SM CLR M01/M06 A3016 1570 69 100 340/09 RMK AO2 T10061056
13962KABI ABI20160203062010302/03/16 06:20:31  5-MIN KABI 031220Z 35008KT 10SM CLR M01/M06 A3016 1570 72 0 340/08 RMK AO2 T10111056
13962KABI ABI20160203062510502/03/16 06:25:31  5-MIN KABI 031225Z 35008KT 10SM CLR M01/M06 A3016 1570 69 100 350/08 RMK AO2 T10061056
13962KABI ABI20160203063010502/03/16 06:30:31  5-MIN KABI 031230Z 35010KT 10SM CLR M01/M06 A3017 1560 69 100 340/10 RMK AO2 T10061056
13962KABI ABI20160203063510502/03/16 06:35:31  5-MIN KABI 031235Z 35010KT 10SM CLR M01/M06 A3017 1560 69 100 340/10 RMK AO2 T10061056
13962KABI ABI20160203064010502/03/16 06:40:31  5-MIN KABI 031240Z 35010KT 10SM CLR M01/M06 A3017 1560 69 100 350/10 RMK AO2 T10061056
13962KABI ABI20160203064510502/03/16 06:45:31  5-MIN KABI 031245Z 36009KT 10SM CLR M01/M06 A3017 1560 69 100 350/09 RMK AO2 T10061056
13962KABI ABI20160203065011202/03/16 06:50:31  5-MIN KABI 031250Z 36010KT 10SM CLR M01/M06 A3017 1560 69 100 350/10 RMK AO2 SLP219 T10061056
13962KABI ABI20160203065510502/03/16 06:55:31  5-MIN KABI 031255Z 36009KT 10SM CLR M01/M06 A3018 1560 69 100 350/09 RMK AO2 T10061056
13962KABI ABI20160203070010502/03/16 07:00:31  5-MIN KABI 031300Z 36007KT 10SM CLR M01/M06 A3018 1550 69 100 350/07 RMK AO2 T10061056
13962KABI ABI20160203070510302/03/16 07:05:31  5-MIN KABI 031305Z 35008KT 10SM CLR M01/M06 A3019 1550 72 0 350/08 RMK AO2 T10111056
13962KABI ABI20160203071010302/03/16 07:10:31  5-MIN KABI 031310Z 35009KT 10SM CLR M01/M06 A3019 1540 69 0 340/09 RMK AO2 T10111061
13962KABI ABI20160203071510302/03/16 07:15:31  5-MIN KABI 031315Z 35010KT 10SM CLR M01/M06 A3019 1540 72 0 340/10 RMK AO2 T10111056
13962KABI ABI20160203072010302/03/16 07:20:31  5-MIN KABI 031320Z 35010KT 10SM CLR M01/M06 A3020 1540 72 0 340/10 RMK AO2 T10111056
13962KABI ABI20160203072510302/03/16 07:25:31  5-MIN KABI 031325Z 35009KT 10SM CLR M01/M06 A3020 1540 72 0 350/09 RMK AO2 T10111056
13962KABI ABI20160203073010302/03/16 07:30:31  5-MIN KABI 031330Z 35009KT 10SM CLR M01/M06 A3020 1530 69 0 350/09 RMK AO2 T10111061
13962KABI ABI20160203073510302/03/16 07:35:31  5-MIN KABI 031335Z 35010KT 10SM CLR M01/M06 A3020 1530 69 0 340/10 RMK AO2 T10111061
13962KABI ABI20160203074010302/03/16 07:40:31  5-MIN KABI 031340Z 35009KT 10SM CLR M01/M06 A3021 1530 72 0 340/09 RMK AO2 T10111056
13962KABI ABI20160203074510302/03/16 07:45:31  5-MIN KABI 031345Z 34008KT 10SM CLR M01/M06 A3021 1520 69 0 340/08 RMK AO2 T10111061
13962KABI ABI20160203075011002/03/16 07:50:31  5-MIN KABI 031350Z 34008KT 10SM CLR M01/M06 A3021 1520 69 0 340/08 RMK AO2 SLP235 T10111061
13962KABI ABI20160203075510302/03/16 07:55:31  5-MIN KABI 031355Z 34010KT 10SM CLR M01/M06 A3022 1520 69 0 340/10 RMK AO2 T10111061
13962KABI ABI20160203080010302/03/16 08:00:31  5-MIN KABI 031400Z 34008KT 10SM CLR M01/M06 A3022 1520 72 0 340/08 RMK AO2 T10111056
13962KABI ABI20160203080510302/03/16 08:05:31  5-MIN KABI 031405Z 34008KT 10SM CLR M01/M06 A3022 1510 69 0 330/08 RMK AO2 T10061056
13962KABI ABI20160203081010302/03/16 08:10:31  5-MIN KABI 031410Z 34009KT 10SM CLR M01/M06 A3022 1510 69 0 330/09 RMK AO2 T10061056
13962KABI ABI20160203081510302/03/16 08:15:31  5-MIN KABI 031415Z 33011KT 10SM CLR M01/M06 A3023 1510 69 0 330/11 RMK AO2 T10061056
13962KABI ABI20160203082010402/03/16 08:20:31  5-MIN KABI 031420Z 33011KT 10SM CLR 00/M06 A3023 1510 66 100 330/11 RMK AO2 T00001056
13962KABI ABI20160203082510402/03/16 08:25:31  5-MIN KABI 031425Z 34010KT 10SM CLR 00/M06 A3023 1510 66 100 340/10 RMK AO2 T00001056
13962KABI ABI20160203083010402/03/16 08:30:31  5-MIN KABI 031430Z 34013KT 10SM CLR 00/M06 A3024 1500 66 100 340/13 RMK AO2 T00001056
13962KABI ABI20160203083510402/03/16 08:35:31  5-MIN KABI 031435Z 34013KT 10SM CLR 00/M06 A3024 1500 66 100 340/13 RMK AO2 T00001056
13962KABI ABI20160203084010402/03/16 08:40:31  5-MIN KABI 031440Z 35012KT 10SM CLR 00/M06 A3024 1500 66 100 340/12 RMK AO2 T00001056
13962KABI ABI20160203084510402/03/16 08:45:31  5-MIN KABI 031445Z 35011KT 10SM CLR 01/M06 A3025 1490 63 100 340/11 RMK AO2 T00061056
13962KABI ABI20160203085011702/03/16 08:50:31  5-MIN KABI 031450Z 34014KT 10SM CLR 01/M06 A3025 1490 63 100 340/14 RMK AO2 SLP246 T00061056 53014
13962KABI ABI20160203085510402/03/16 08:55:31  5-MIN KABI 031455Z 35013KT 10SM CLR 01/M06 A3025 1490 61 100 340/13 RMK AO2 T00061061
13962KABI ABI20160203195011102/03/16 19:50:31  5-MIN KABI 040150Z 07005KT 10SM CLR 03/M08 A3029 1450 42 400 060/05 RMK AO2 SLP264 T00331083
13962KABI ABI20160203195510402/03/16 19:55:31  5-MIN KABI 040155Z 07006KT 10SM CLR 03/M08 A3029 1450 44 400 070/06 RMK AO2 T00331078
13962KABI ABI20160203200010402/03/16 20:00:31  5-MIN KABI 040200Z 08006KT 10SM CLR 03/M08 A3029 1450 46 400 070/06 RMK AO2 T00281078
13962KABI ABI20160203200510402/03/16 20:05:31  5-MIN KABI 040205Z 08004KT 10SM CLR 03/M08 A3030 1450 46 400 070/04 RMK AO2 T00281078
13962KABI ABI20160203201010402/03/16 20:10:31  5-MIN KABI 040210Z 07005KT 10SM CLR 03/M08 A3030 1440 46 400 070/05 RMK AO2 T00281078
13962KABI ABI20160203201510402/03/16 20:15:31  5-MIN KABI 040215Z 07005KT 10SM CLR 03/M08 A3030 1440 46 300 070/05 RMK AO2 T00281078
13962KABI ABI20160203202010402/03/16 20:20:31  5-MIN KABI 040220Z 08005KT 10SM CLR 03/M08 A3031 1440 46 300 070/05 RMK AO2 T00281078
13962KABI ABI20160203202510402/03/16 20:25:31  5-MIN KABI 040225Z 08005KT 10SM CLR 02/M08 A3031 1440 47 300 080/05 RMK AO2 T00221078
13962KABI ABI20160203203010402/03/16 20:30:31  5-MIN KABI 040230Z 07005KT 10SM CLR 02/M08 A3031 1440 47 300 070/05 RMK AO2 T00221078
13962KABI ABI20160203203510402/03/16 20:35:31  5-MIN KABI 040235Z 07005KT 10SM CLR 02/M08 A3031 1430 47 300 070/05 RMK AO2 T00221078
13962KABI ABI20160203204010402/03/16 20:40:31  5-MIN KABI 040240Z 08005KT 10SM CLR 02/M08 A3031 1430 47 300 070/05 RMK AO2 T00221078
13962KABI ABI20160203204508402/03/16 20:45:31  5-MIN KABI 040245Z AUTO 08006KT M M M 070/06 RMK AO2 TSNO RVRNO $
13962KABI ABI20160203205012002/03/16 20:50:31  5-MIN KABI 040250Z AUTO 08006KT 02/M08 A3032 1430 47 300 070/06 RMK AO2 SLP273 T00221078 TSNO RVRNO $
13962KABI ABI20160203205510202/03/16 20:55:31  5-MIN KABI 040255Z 07008KT 10SM 02/M08 A3032 1430 47 300 070/08 RMK AO2 T00221078 $
13962KABI ABI20160203210010202/03/16 21:00:31  5-MIN KABI 040300Z 07007KT 10SM 02/M08 A3032 1430 47 300 070/07 RMK AO2 T00221078 $
13962KABI ABI20160203210510202/03/16 21:05:31  5-MIN KABI 040305Z 07007KT 10SM 02/M08 A3032 1420 47 300 060/07 RMK AO2 T00221078 $
13962KABI ABI20160203211010202/03/16 21:10:31  5-MIN KABI 040310Z 07007KT 10SM 02/M08 A3032 1420 45 300 070/07 RMK AO2 T00221083 $
13962KABI ABI20160203211510602/03/16 21:15:31  5-MIN KABI 040315Z 07007KT 10SM CLR 02/M08 A3032 1420 45 300 060/07 RMK AO2 T00221083 $
13962KABI ABI20160203212010602/03/16 21:20:31  5-MIN KABI 040320Z 07007KT 10SM CLR 02/M08 A3032 1420 47 200 060/07 RMK AO2 T00171083 $
13962KABI ABI20160203212510602/03/16 21:25:31  5-MIN KABI 040325Z 07007KT 10SM CLR 02/M08 A3033 1420 49 200 060/07 RMK AO2 T00171078 $
13962KABI ABI20160203213010602/03/16 21:30:31  5-MIN KABI 040330Z 07007KT 10SM CLR 02/M08 A3033 1420 49 200 060/07 RMK AO2 T00171078 $
13962KABI ABI20160203213510602/03/16 21:35:31  5-MIN KABI 040335Z 07007KT 10SM CLR 02/M08 A3033 1420 49 200 070/07 RMK AO2 T00171078 $
13962KABI ABI20160203214010602/03/16 21:40:31  5-MIN KABI 040340Z 08006KT 10SM CLR 02/M08 A3033 1410 49 200 070/06 RMK AO2 T00171078 $
13962KABI ABI20160203214510602/03/16 21:45:31  5-MIN KABI 040345Z 09005KT 10SM CLR 02/M08 A3033 1410 49 200 080/05 RMK AO2 T00171078 $
13962KABI ABI20160203215011102/03/16 21:50:31  5-MIN KABI 040350Z 11003KT 10SM CLR 00/M08 A3033 1410 56 0 100/03 RMK AO2 SLP280 T00001078 $
13962KABI ABI20160203215510402/03/16 21:55:31  5-MIN KABI 040355Z 09005KT 10SM CLR 00/M08 A3034 1410 56 0 080/05 RMK AO2 T00001078 $
13962KABI ABI20160203220010402/03/16 22:00:31  5-MIN KABI 040400Z 10005KT 10SM CLR 00/M08 A3034 1410 56 0 100/05 RMK AO2 T00001078 $
13962KABI ABI20160203220510402/03/16 22:05:31  5-MIN KABI 040405Z 10005KT 10SM CLR 00/M08 A3034 1410 56 0 100/05 RMK AO2 T00001078 $
13962KABI ABI20160203221010402/03/16 22:10:31  5-MIN KABI 040410Z 10004KT 10SM CLR 00/M08 A3034 1400 56 0 100/04 RMK AO2 T00001078 $
13962KABI ABI20160203221510402/03/16 22:15:31  5-MIN KABI 040415Z 10005KT 10SM CLR 00/M08 A3034 1400 56 0 100/05 RMK AO2 T00001078 $
13962KABI ABI20160203222010402/03/16 22:20:31  5-MIN KABI 040420Z 10005KT 10SM CLR 01/M08 A3035 1400 54 0 090/05 RMK AO2 T00061078 $
13962KABI ABI20160203222510402/03/16 22:25:31  5-MIN KABI 040425Z 11005KT 10SM CLR 01/M08 A3035 1400 54 0 100/05 RMK AO2 T00061078 $
13962KABI ABI20160203223010402/03/16 22:30:31  5-MIN KABI 040430Z 11006KT 10SM CLR 00/M08 A3035 1400 56 0 100/06 RMK AO2 T00001078 $
13962KABI ABI20160203223510402/03/16 22:35:31  5-MIN KABI 040435Z 11007KT 10SM CLR 00/M08 A3035 1400 56 0 110/07 RMK AO2 T00001078 $
13962KABI ABI20160203224010402/03/16 22:40:31  5-MIN KABI 040440Z 11006KT 10SM CLR 00/M07 A3035 1400 58 0 110/06 RMK AO2 T00001072 $
13962KABI ABI20160203224510402/03/16 22:45:31  5-MIN KABI 040445Z 11005KT 10SM CLR 00/M07 A3035 1400 58 0 100/05 RMK AO2 T00001072 $
13962KABI ABI20160203225011102/03/16 22:50:31  5-MIN KABI 040450Z 11006KT 10SM CLR 00/M07 A3035 1400 58 0 100/06 RMK AO2 SLP284 T00001072 $
13962KABI ABI20160203225510402/03/16 22:55:31  5-MIN KABI 040455Z 11006KT 10SM CLR 00/M07 A3035 1400 58 0 110/06 RMK AO2 T00001072 $
13962KABI ABI20160203230010402/03/16 23:00:31  5-MIN KABI 040500Z 11006KT 10SM CLR 00/M07 A3035 1400 58 0 110/06 RMK AO2 T00001072 $
13962KABI ABI20160203230510802/03/16 23:05:31  5-MIN KABI 040505Z 11006KT 10SM CLR M01/M07 A3035 1400 61 -100 110/06 RMK AO2 T10061072 $
13962KABI ABI20160203231010402/03/16 23:10:31  5-MIN KABI 040510Z 11006KT 10SM CLR 00/M07 A3035 1390 58 0 110/06 RMK AO2 T00001072 $
13962KABI ABI20160203231510402/03/16 23:15:31  5-MIN KABI 040515Z 12007KT 10SM CLR 00/M07 A3035 1400 58 0 120/07 RMK AO2 T00001072 $
13962KABI ABI20160203232010802/03/16 23:20:31  5-MIN KABI 040520Z 13007KT 10SM CLR M01/M07 A3035 1390 61 -100 120/07 RMK AO2 T10061072 $
13962KABI ABI20160203232510802/03/16 23:25:31  5-MIN KABI 040525Z 14005KT 10SM CLR M01/M07 A3035 1390 63 -100 140/05 RMK AO2 T10111072 $
13962KABI ABI20160203233010802/03/16 23:30:31  5-MIN KABI 040530Z 13005KT 10SM CLR M01/M07 A3036 1390 63 -100 120/05 RMK AO2 T10111072 $
13962KABI ABI20160203233510802/03/16 23:35:31  5-MIN KABI 040535Z 11005KT 10SM CLR M01/M07 A3035 1390 61 -100 110/05 RMK AO2 T10061072 $
13962KABI ABI20160203234010402/03/16 23:40:31  5-MIN KABI 040540Z 11005KT 10SM CLR 00/M07 A3035 1390 58 0 110/05 RMK AO2 T00001072 $
13962KABI ABI20160203234510802/03/16 23:45:31  5-MIN KABI 040545Z 12005KT 10SM CLR M01/M07 A3036 1390 63 -100 110/05 RMK AO2 T10111072 $
13962KABI ABI20160203235013702/03/16 23:50:31  5-MIN KABI 040550Z 13005KT 10SM CLR M02/M07 A3036 1390 66 -200 120/05 RMK AO2 SLP286 T10171072 10067 21017 400891017 $
13962KABI ABI20160203235510802/03/16 23:55:31  5-MIN KABI 040555Z 13005KT 10SM CLR M01/M07 A3036 1390 63 -100 120/05 RMK AO2 T10111072 $
13962KABI ABI20160204000010802/04/16 00:00:31  5-MIN KABI 040600Z 12005KT 10SM CLR M01/M07 A3036 1390 61 -100 110/05 RMK AO2 T10061072 $
13962KABI ABI20160204000510402/04/16 00:05:31  5-MIN KABI 040605Z 12004KT 10SM CLR 00/M07 A3036 1390 58 0 110/04 RMK AO2 T00001072 $
13962KABI ABI20160204001010802/04/16 00:10:31  5-MIN KABI 040610Z 13004KT 10SM CLR M01/M07 A3036 1390 61 -100 120/04 RMK AO2 T10061072 $
13962KABI ABI20160204001510802/04/16 00:15:31  5-MIN KABI 040615Z 14004KT 10SM CLR M01/M07 A3036 1390 63 -200 130/04 RMK AO2 T10111072 $
13962KABI ABI20160204002010802/04/16 00:20:31  5-MIN KABI 040620Z 12006KT 10SM CLR M01/M07 A3036 1390 63 -200 120/06 RMK AO2 T10111072 $
13962KABI ABI20160204002510802/04/16 00:25:31  5-MIN KABI 040625Z 13006KT 10SM CLR M01/M07 A3036 1390 63 -100 120/06 RMK AO2 T10061067 $
13962KABI ABI20160204003010802/04/16 00:30:31  5-MIN KABI 040630Z 13007KT 10SM CLR M02/M07 A3035 1390 66 -200 120/07 RMK AO2 T10171072 $
13962KABI ABI20160204003510802/04/16 00:35:31  5-MIN KABI 040635Z 14006KT 10SM CLR M02/M07 A3036 1390 66 -200 140/06 RMK AO2 T10171072 $
13962KABI ABI20160204004010802/04/16 00:40:31  5-MIN KABI 040640Z 16005KT 10SM CLR M02/M07 A3036 1390 69 -300 160/05 RMK AO2 T10221072 $
13962KABI ABI20160204004510802/04/16 00:45:31  5-MIN KABI 040645Z 16005KT 10SM CLR M02/M07 A3036 1390 69 -300 150/05 RMK AO2 T10221072 $
13962KABI ABI20160204005011502/04/16 00:50:31  5-MIN KABI 040650Z 17005KT 10SM CLR M03/M07 A3036 1390 71 -400 170/05 RMK AO2 SLP288 T10281072 $
13962KABI ABI20160204005510802/04/16 00:55:31  5-MIN KABI 040655Z 16004KT 10SM CLR M03/M07 A3036 1380 71 -400 160/04 RMK AO2 T10281072 $
13962KABI ABI20160204010010802/04/16 01:00:31  5-MIN KABI 040700Z 15004KT 10SM CLR M02/M07 A3037 1380 69 -300 140/04 RMK AO2 T10221072 $
13962KABI ABI20160204010510802/04/16 01:05:31  5-MIN KABI 040705Z 16004KT 10SM CLR M02/M07 A3037 1380 69 -300 160/04 RMK AO2 T10221072 $
13962KABI ABI20160204011010802/04/16 01:10:31  5-MIN KABI 040710Z 17004KT 10SM CLR M02/M07 A3037 1380 69 -300 170/04 RMK AO2 T10221072 $
13962KABI ABI20160204011510802/04/16 01:15:31  5-MIN KABI 040715Z 17004KT 10SM CLR M02/M07 A3037 1380 69 -300 160/04 RMK AO2 T10221072 $
13962KABI ABI20160204012010802/04/16 01:20:31  5-MIN KABI 040720Z 16004KT 10SM CLR M02/M07 A3037 1380 66 -200 160/04 RMK AO2 T10171072 $
13962KABI ABI20160204012510802/04/16 01:25:31  5-MIN KABI 040725Z 18004KT 10SM CLR M02/M07 A3037 1380 66 -200 170/04 RMK AO2 T10171072 $
13962KABI ABI20160204013010802/04/16 01:30:31  5-MIN KABI 040730Z 17004KT 10SM CLR M02/M07 A3038 1370 69 -300 170/04 RMK AO2 T10221072 $
13962KABI ABI20160204013510802/04/16 01:35:31  5-MIN KABI 040735Z 16004KT 10SM CLR M02/M07 A3038 1370 66 -200 160/04 RMK AO2 T10171072 $
13962KABI ABI20160204014010802/04/16 01:40:31  5-MIN KABI 040740Z 15005KT 10SM CLR M02/M07 A3038 1370 69 -300 140/05 RMK AO2 T10221072 $
13962KABI ABI20160204014510802/04/16 01:45:31  5-MIN KABI 040745Z 14005KT 10SM CLR M02/M07 A3038 1370 69 -300 140/05 RMK AO2 T10221072 $
13962KABI ABI20160204015011502/04/16 01:50:31  5-MIN KABI 040750Z 14006KT 10SM CLR M02/M07 A3038 1370 69 -300 140/06 RMK AO2 SLP292 T10221072 $
13962KABI ABI20160204015510802/04/16 01:55:31  5-MIN KABI 040755Z 14005KT 10SM CLR M02/M07 A3038 1370 66 -200 140/05 RMK AO2 T10171072 $
13962KABI ABI20160204020011102/04/16 02:00:31  5-MIN KABI 040800Z 17004KT 10SM SCT100 M02/M07 A3038 1370 66 -200 170/04 RMK AO2 T10171072 $
13962KABI ABI20160204020511102/04/16 02:05:31  5-MIN KABI 040805Z 20004KT 10SM BKN100 M03/M07 A3038 1370 71 -400 190/04 RMK AO2 T10281072 $
13962KABI ABI20160204021011102/04/16 02:10:31  5-MIN KABI 040810Z 19004KT 10SM BKN100 M03/M07 A3038 1370 75 -400 190/04 RMK AO2 T10281067 $
13962KABI ABI20160204021511102/04/16 02:15:31  5-MIN KABI 040815Z 18004KT 10SM BKN100 M03/M07 A3038 1370 71 -400 170/04 RMK AO2 T10281072 $
13962KABI ABI20160204022011102/04/16 02:20:31  5-MIN KABI 040820Z 18005KT 10SM BKN100 M02/M07 A3038 1370 72 -300 170/05 RMK AO2 T10221067 $
13962KABI ABI20160204022511102/04/16 02:25:31  5-MIN KABI 040825Z 18005KT 10SM BKN100 M02/M07 A3038 1370 72 -300 170/05 RMK AO2 T10221067 $
13962KABI ABI20160204023011102/04/16 02:30:31  5-MIN KABI 040830Z 18005KT 10SM BKN100 M02/M07 A3038 1370 72 -300 170/05 RMK AO2 T10221067 $
13962KABI ABI20160204023511102/04/16 02:35:31  5-MIN KABI 040835Z 19005KT 10SM SCT100 M02/M07 A3038 1370 72 -300 190/05 RMK AO2 T10221067 $
13962KABI ABI20160204024011102/04/16 02:40:31  5-MIN KABI 040840Z 20005KT 10SM SCT095 M02/M07 A3038 1370 72 -300 200/05 RMK AO2 T10221067 $
13962KABI ABI20160204024511102/04/16 02:45:31  5-MIN KABI 040845Z 20004KT 10SM BKN095 M02/M07 A3038 1370 72 -300 200/04 RMK AO2 T10221067 $
13962KABI ABI20160204025012402/04/16 02:50:31  5-MIN KABI 040850Z 20004KT 10SM BKN095 M02/M07 A3038 1370 69 -200 200/04 RMK AO2 SLP293 T10171067 51013 $
13962KABI ABI20160204025511102/04/16 02:55:31  5-MIN KABI 040855Z 20004KT 10SM BKN095 M02/M07 A3038 1370 69 -300 200/04 RMK AO2 T10171067 $
13962KABI ABI20160204030011102/04/16 03:00:31  5-MIN KABI 040900Z 20004KT 10SM BKN100 M02/M07 A3039 1360 69 -300 200/04 RMK AO2 T10171067 $
13962KABI ABI20160204030511102/04/16 03:05:31  5-MIN KABI 040905Z 21006KT 10SM OVC100 M02/M06 A3039 1370 72 -300 210/06 RMK AO2 T10171061 $
13962KABI ABI20160204031011102/04/16 03:10:31  5-MIN KABI 040910Z 20006KT 10SM OVC100 M02/M06 A3038 1370 72 -200 190/06 RMK AO2 T10171061 $
13962KABI ABI20160204031511102/04/16 03:15:31  5-MIN KABI 040915Z 19006KT 10SM BKN100 M02/M06 A3038 1370 72 -200 190/06 RMK AO2 T10171061 $
13962KABI ABI20160204032011102/04/16 03:20:31  5-MIN KABI 040920Z 19005KT 10SM BKN100 M02/M06 A3038 1370 75 -300 190/05 RMK AO2 T10221061 $
13962KABI ABI20160204032511102/04/16 03:25:31  5-MIN KABI 040925Z 21005KT 10SM SCT100 M02/M06 A3039 1360 75 -300 210/05 RMK AO2 T10221061 $
13962KABI ABI20160204033011802/04/16 03:30:31  5-MIN KABI 040930Z 23003KT 10SM FEW080 SCT100 M02/M06 A3039 1360 75 -300 220/03 RMK AO2 T10221061 $
13962KABI ABI20160204033511802/04/16 03:35:31  5-MIN KABI 040935Z 23003KT 10SM SCT075 BKN100 M02/M06 A3039 1360 72 -300 230/03 RMK AO2 T10171061 $
13962KABI ABI20160204034011102/04/16 03:40:31  5-MIN KABI 040940Z 00000KT 10SM SCT075 M01/M06 A3039 1360 69 -200 000/00 RMK AO2 T10111061 $
13962KABI ABI20160204034511102/04/16 03:45:31  5-MIN KABI 040945Z 00000KT 10SM SCT075 M01/M06 A3039 1360 69 -200 000/00 RMK AO2 T10111061 $
13962KABI ABI20160204035011802/04/16 03:50:31  5-MIN KABI 040950Z 00000KT 10SM FEW075 M01/M06 A3039 1360 69 -200 000/00 RMK AO2 SLP294 T10111061 $
13962KABI ABI20160204035511102/04/16 03:55:31  5-MIN KABI 040955Z 00000KT 10SM FEW075 M01/M06 A3039 1360 69 -200 000/00 RMK AO2 T10111061 $
13962KABI ABI20160204040011102/04/16 04:00:31  5-MIN KABI 041000Z 00000KT 10SM FEW075 M01/M06 A3039 1360 69 -200 000/00 RMK AO2 T10111061 $
13962KABI ABI20160204040510802/04/16 04:05:31  5-MIN KABI 041005Z 00000KT 10SM CLR M01/M06 A3039 1360 69 -100 000/00 RMK AO2 T10061056 $
13962KABI ABI20160204041010802/04/16 04:10:31  5-MIN KABI 041010Z 00000KT 10SM CLR M01/M06 A3038 1370 66 -100 000/00 RMK AO2 T10061061 $
13962KABI ABI20160204041510802/04/16 04:15:31  5-MIN KABI 041015Z 14003KT 10SM CLR M02/M06 A3038 1370 75 -300 140/03 RMK AO2 T10221061 $
13962KABI ABI20160204042010802/04/16 04:20:31  5-MIN KABI 041020Z 00000KT 10SM CLR M03/M06 A3039 1370 78 -400 000/00 RMK AO2 T10281061 $
13962KABI ABI20160204042510802/04/16 04:25:31  5-MIN KABI 041025Z 00000KT 10SM CLR M02/M07 A3039 1360 72 -300 000/00 RMK AO2 T10221067 $
13962KABI ABI20160204043010802/04/16 04:30:31  5-MIN KABI 041030Z 00000KT 10SM CLR M02/M07 A3039 1360 69 -300 000/00 RMK AO2 T10171067 $
13962KABI ABI20160204043510802/04/16 04:35:31  5-MIN KABI 041035Z 00000KT 10SM CLR M02/M07 A3039 1360 69 -300 000/00 RMK AO2 T10171067 $
13962KABI ABI20160204044010802/04/16 04:40:31  5-MIN KABI 041040Z 00000KT 10SM CLR M02/M07 A3039 1360 69 -300 000/00 RMK AO2 T10171067 $
13962KABI ABI20160204044510802/04/16 04:45:31  5-MIN KABI 041045Z 00000KT 10SM CLR M02/M07 A3039 1360 69 -300 000/00 RMK AO2 T10171067 $
13962KABI ABI20160204045011502/04/16 04:50:31  5-MIN KABI 041050Z 00000KT 10SM CLR M02/M07 A3039 1360 69 -300 000/00 RMK AO2 SLP296 T10171067 $
13962KABI ABI20160204045510802/04/16 04:55:31  5-MIN KABI 041055Z 00000KT 10SM CLR M02/M07 A3039 1360 69 -300 000/00 RMK AO2 T10171067 $
13962KABI ABI20160204050010802/04/16 05:00:31  5-MIN KABI 041100Z 21003KT 10SM CLR M02/M07 A3039 1360 69 -300 200/03 RMK AO2 T10171067 $
13962KABI ABI20160204050510802/04/16 05:05:31  5-MIN KABI 041105Z 21003KT 10SM CLR M02/M07 A3040 1360 72 -300 200/03 RMK AO2 T10221067 $
13962KABI ABI20160204051010802/04/16 05:10:31  5-MIN KABI 041110Z 21003KT 10SM CLR M02/M07 A3040 1360 72 -300 200/03 RMK AO2 T10221067 $
13962KABI ABI20160204051510802/04/16 05:15:31  5-MIN KABI 041115Z 21004KT 10SM CLR M03/M07 A3040 1350 74 -500 200/04 RMK AO2 T10331072 $
13962KABI ABI20160204052010802/04/16 05:20:31  5-MIN KABI 041120Z 21005KT 10SM CLR M04/M07 A3040 1350 78 -500 200/05 RMK AO2 T10391072 $
13962KABI ABI20160204052510802/04/16 05:25:31  5-MIN KABI 041125Z 21005KT 10SM CLR M04/M07 A3040 1350 78 -600 200/05 RMK AO2 T10391072 $
13962KABI ABI20160204053010802/04/16 05:30:31  5-MIN KABI 041130Z 22004KT 10SM CLR M03/M07 A3040 1350 78 -500 210/04 RMK AO2 T10331067 $
13962KABI ABI20160204053510802/04/16 05:35:31  5-MIN KABI 041135Z 23004KT 10SM CLR M03/M07 A3041 1350 78 -500 220/04 RMK AO2 T10331067 $
13962KABI ABI20160204054010802/04/16 05:40:31  5-MIN KABI 041140Z 23005KT 10SM CLR M03/M07 A3041 1350 78 -500 220/05 RMK AO2 T10331067 $
13962KABI ABI20160204054510802/04/16 05:45:31  5-MIN KABI 041145Z 23005KT 10SM CLR M03/M07 A3041 1340 78 -500 220/05 RMK AO2 T10331067 $
13962KABI ABI20160204055013302/04/16 05:50:31  5-MIN KABI 041150Z 22005KT 10SM CLR M03/M07 A3041 1340 78 -500 220/05 RMK AO2 SLP304 T10331067 10000 21039 51009 $
13962KABI ABI20160204055510802/04/16 05:55:31  5-MIN KABI 041155Z 22005KT 10SM CLR M03/M07 A3041 1340 75 -400 220/05 RMK AO2 T10281067 $
13962KABI ABI20160204060010802/04/16 06:00:31  5-MIN KABI 041200Z 22004KT 10SM CLR M03/M07 A3041 1340 75 -400 210/04 RMK AO2 T10281067 $
13962KABI ABI20160204060510802/04/16 06:05:31  5-MIN KABI 041205Z 20004KT 10SM CLR M03/M07 A3041 1340 78 -500 200/04 RMK AO2 T10331067 $
13962KABI ABI20160204061010802/04/16 06:10:31  5-MIN KABI 041210Z 21004KT 10SM CLR M03/M07 A3042 1340 75 -400 200/04 RMK AO2 T10281067 $
13962KABI ABI20160204061510802/04/16 06:15:31  5-MIN KABI 041215Z 21004KT 10SM CLR M03/M07 A3042 1340 75 -400 200/04 RMK AO2 T10281067 $
13962KABI ABI20160204062010802/04/16 06:20:31  5-MIN KABI 041220Z 21004KT 10SM CLR M03/M07 A3042 1330 74 -500 200/04 RMK AO2 T10331072 $
13962KABI ABI20160204062510802/04/16 06:25:31  5-MIN KABI 041225Z 21004KT 10SM CLR M04/M07 A3042 1330 78 -600 210/04 RMK AO2 T10391072 $
13962KABI ABI20160204063010802/04/16 06:30:31  5-MIN KABI 041230Z 21003KT 10SM CLR M03/M07 A3042 1330 74 -500 210/03 RMK AO2 T10331072 $
13962KABI ABI20160204063510802/04/16 06:35:31  5-MIN KABI 041235Z 00000KT 10SM CLR M03/M07 A3043 1320 74 -500 000/00 RMK AO2 T10331072 $
13962KABI ABI20160204064010802/04/16 06:40:31  5-MIN KABI 041240Z 02006KT 10SM CLR M03/M07 A3043 1320 78 -500 010/06 RMK AO2 T10331067 $
13962KABI ABI20160204064510802/04/16 06:45:31  5-MIN KABI 041245Z 02007KT 10SM CLR M03/M07 A3044 1320 78 -500 010/07 RMK AO2 T10331067 $
13962KABI ABI20160204065011502/04/16 06:50:31  5-MIN KABI 041250Z 01005KT 10SM CLR M03/M07 A3044 1320 78 -500 360/05 RMK AO2 SLP316 T10331067 $
13962KABI ABI20160204065510802/04/16 06:55:31  5-MIN KABI 041255Z 04004KT 10SM CLR M03/M07 A3044 1320 78 -500 030/04 RMK AO2 T10331067 $
13962KABI ABI20160204070010802/04/16 07:00:31  5-MIN KABI 041300Z 03006KT 10SM CLR M03/M07 A3044 1320 78 -500 020/06 RMK AO2 T10331067 $
13962KABI ABI20160204070510802/04/16 07:05:31  5-MIN KABI 041305Z 04005KT 10SM CLR M03/M07 A3044 1320 78 -500 030/05 RMK AO2 T10331067 $
13962KABI ABI20160204071010802/04/16 07:10:31  5-MIN KABI 041310Z 03004KT 10SM CLR M03/M07 A3044 1310 78 -500 030/04 RMK AO2 T10331067 $
13962KABI ABI20160204071510802/04/16 07:15:31  5-MIN KABI 041315Z 04004KT 10SM CLR M03/M06 A3044 1310 78 -500 040/04 RMK AO2 T10281061 $
13962KABI ABI20160204072010802/04/16 07:20:31  5-MIN KABI 041320Z 05004KT 10SM CLR M03/M07 A3044 1310 75 -500 040/04 RMK AO2 T10281067 $
13962KABI ABI20160204072510802/04/16 07:25:31  5-MIN KABI 041325Z 04004KT 10SM CLR M03/M07 A3045 1310 78 -500 040/04 RMK AO2 T10331067 $
13962KABI ABI20160204073010602/04/16 07:30:31  5-MIN KABI 041330Z 06003KT 10SM CLR M03/M07 A3045 1310 78 -500 050/03 RMK AO2 T10331067
13962KABI ABI20160204073510602/04/16 07:35:31  5-MIN KABI 041335Z 06003KT 10SM CLR M03/M07 A3045 1310 75 -500 050/03 RMK AO2 T10281067
13962KABI ABI20160204074010602/04/16 07:40:31  5-MIN KABI 041340Z 09004KT 10SM CLR M03/M07 A3045 1310 74 -500 080/04 RMK AO2 T10331072
13962KABI ABI20160204074510602/04/16 07:45:31  5-MIN KABI 041345Z 11004KT 10SM CLR M04/M07 A3045 1310 81 -700 100/04 RMK AO2 T10441072
13962KABI ABI20160204175510502/04/16 17:55:31  5-MIN KABI 042355Z 00000KT 10SM CLR 12/M12 A3031 1430 17 1400 000/00 RMK AO2 T01171122
13962KABI ABI20160204180010502/04/16 18:00:31  5-MIN KABI 050000Z 00000KT 10SM CLR 12/M13 A3031 1430 17 1400 000/00 RMK AO2 T01171128
13962KABI ABI20160204180510502/04/16 18:05:31  5-MIN KABI 050005Z 13004KT 10SM CLR 11/M12 A3031 1430 18 1300 130/04 RMK AO2 T01111122
13962KABI ABI20160204181010502/04/16 18:10:31  5-MIN KABI 050010Z 14004KT 10SM CLR 10/M10 A3031 1430 23 1200 130/04 RMK AO2 T01001100
13962KABI ABI20160204181510502/04/16 18:15:31  5-MIN KABI 050015Z 15005KT 10SM CLR 10/M09 A3031 1430 24 1200 140/05 RMK AO2 T01001094
13962KABI ABI20160204182010502/04/16 18:20:31  5-MIN KABI 050020Z 13006KT 10SM CLR 09/M09 A3031 1430 26 1100 130/06 RMK AO2 T00941089
13962KABI ABI20160204182510502/04/16 18:25:31  5-MIN KABI 050025Z 13007KT 10SM CLR 09/M08 A3031 1430 28 1100 120/07 RMK AO2 T00891083
13962KABI ABI20160204183010502/04/16 18:30:31  5-MIN KABI 050030Z 13006KT 10SM CLR 09/M08 A3031 1430 28 1100 130/06 RMK AO2 T00891083
13962KABI ABI20160204183510502/04/16 18:35:31  5-MIN KABI 050035Z 13006KT 10SM CLR 09/M08 A3031 1430 28 1100 120/06 RMK AO2 T00891083
13962KABI ABI20160204184010502/04/16 18:40:31  5-MIN KABI 050040Z 13007KT 10SM CLR 09/M09 A3031 1430 27 1100 120/07 RMK AO2 T00891089
13962KABI ABI20160204184510502/04/16 18:45:31  5-MIN KABI 050045Z 13006KT 10SM CLR 08/M09 A3031 1430 28 1000 120/06 RMK AO2 T00831089
13962KABI ABI20160204185011202/04/16 18:50:31  5-MIN KABI 050050Z 13005KT 10SM CLR 09/M09 A3032 1430 27 1100 130/05 RMK AO2 SLP272 T00891089
13962KABI ABI20160204185510502/04/16 18:55:31  5-MIN KABI 050055Z 12004KT 10SM CLR 08/M09 A3032 1430 28 1000 120/04 RMK AO2 T00831089
13962KABI ABI20160204190010402/04/16 19:00:31  5-MIN KABI 050100Z 13006KT 10SM CLR 08/M09 A3032 1430 29 900 130/06 RMK AO2 T00781089
13962KABI ABI20160204190510402/04/16 19:05:31  5-MIN KABI 050105Z 15007KT 10SM CLR 07/M08 A3032 1420 33 800 140/07 RMK AO2 T00671083
13962KABI ABI20160204191010402/04/16 19:10:31  5-MIN KABI 050110Z 14005KT 10SM CLR 07/M08 A3032 1420 32 900 140/05 RMK AO2 T00721083
13962KABI ABI20160204191510402/04/16 19:15:31  5-MIN KABI 050115Z 14004KT 10SM CLR 08/M09 A3032 1420 29 900 140/04 RMK AO2 T00781089
13962KABI ABI20160204192010402/04/16 19:20:31  5-MIN KABI 050120Z 14005KT 10SM CLR 08/M09 A3033 1420 29 900 140/05 RMK AO2 T00781089
13962KABI ABI20160204192510402/04/16 19:25:31  5-MIN KABI 050125Z 14005KT 10SM CLR 07/M08 A3033 1420 32 900 130/05 RMK AO2 T00721083
13962KABI ABI20160204193010402/04/16 19:30:31  5-MIN KABI 050130Z 13005KT 10SM CLR 07/M08 A3033 1410 32 900 130/05 RMK AO2 T00721083
13962KABI ABI20160204193510402/04/16 19:35:31  5-MIN KABI 050135Z 13005KT 10SM CLR 07/M08 A3033 1410 33 800 120/05 RMK AO2 T00671083
13962KABI ABI20160204194010402/04/16 19:40:31  5-MIN KABI 050140Z 13005KT 10SM CLR 07/M08 A3034 1410 33 800 120/05 RMK AO2 T00671083
13962KABI ABI20160204194510402/04/16 19:45:31  5-MIN KABI 050145Z 14004KT 10SM CLR 07/M08 A3034 1410 33 800 140/04 RMK AO2 T00671083
13962KABI ABI20160204195011102/04/16 19:50:31  5-MIN KABI 050150Z 15004KT 10SM CLR 06/M08 A3034 1410 35 700 140/04 RMK AO2 SLP283 T00611083
13962KABI ABI20160204195510402/04/16 19:55:31  5-MIN KABI 050155Z 15004KT 10SM CLR 06/M08 A3034 1400 35 700 150/04 RMK AO2 T00611083
13962KABI ABI20160204200010402/04/16 20:00:31  5-MIN KABI 050200Z 15004KT 10SM CLR 06/M08 A3035 1400 36 600 140/04 RMK AO2 T00561083
13962KABI ABI20160204200510402/04/16 20:05:31  5-MIN KABI 050205Z 14005KT 10SM CLR 06/M08 A3035 1400 36 600 140/05 RMK AO2 T00561083
13962KABI ABI20160204201010402/04/16 20:10:31  5-MIN KABI 050210Z 15004KT 10SM CLR 06/M08 A3035 1400 36 600 150/04 RMK AO2 T00561083
13962KABI ABI20160204201510402/04/16 20:15:31  5-MIN KABI 050215Z 16003KT 10SM CLR 05/M08 A3035 1390 37 600 160/03 RMK AO2 T00501083
13962KABI ABI20160204202010402/04/16 20:20:31  5-MIN KABI 050220Z 16004KT 10SM CLR 05/M08 A3036 1390 37 600 150/04 RMK AO2 T00501083
13962KABI ABI20160204202510402/04/16 20:25:31  5-MIN KABI 050225Z 15004KT 10SM CLR 06/M08 A3035 1390 36 600 140/04 RMK AO2 T00561083
13962KABI ABI20160204203010402/04/16 20:30:31  5-MIN KABI 050230Z 14004KT 10SM CLR 06/M08 A3035 1390 36 600 140/04 RMK AO2 T00561083
13962KABI ABI20160204203510402/04/16 20:35:31  5-MIN KABI 050235Z 14004KT 10SM CLR 06/M08 A3036 1390 37 600 130/04 RMK AO2 T00561078
13962KABI ABI20160204204010402/04/16 20:40:31  5-MIN KABI 050240Z 14004KT 10SM CLR 06/M08 A3035 1390 36 600 130/04 RMK AO2 T00561083
13962KABI ABI20160204204510402/04/16 20:45:31  5-MIN KABI 050245Z 13004KT 10SM CLR 05/M08 A3036 1390 37 600 130/04 RMK AO2 T00501083
13962KABI ABI20160204205011702/04/16 20:50:31  5-MIN KABI 050250Z 13005KT 10SM CLR 04/M08 A3036 1390 41 500 130/05 RMK AO2 SLP286 T00441078 56007
13962KABI ABI20160204205510402/04/16 20:55:31  5-MIN KABI 050255Z 13005KT 10SM CLR 04/M08 A3036 1390 42 400 130/05 RMK AO2 T00391078
13962KABI ABI20160204210010402/04/16 21:00:31  5-MIN KABI 050300Z 14006KT 10SM CLR 03/M08 A3036 1390 44 300 130/06 RMK AO2 T00331078
13962KABI ABI20160204210510402/04/16 21:05:31  5-MIN KABI 050305Z 14007KT 10SM CLR 03/M07 A3036 1390 48 300 130/07 RMK AO2 T00281072
13962KABI ABI20160204211010402/04/16 21:10:31  5-MIN KABI 050310Z 15006KT 10SM CLR 03/M07 A3036 1390 46 300 140/06 RMK AO2 T00331072
13962KABI ABI20160204211510402/04/16 21:15:31  5-MIN KABI 050315Z 16005KT 10SM CLR 03/M07 A3036 1390 48 300 160/05 RMK AO2 T00281072
13962KABI ABI20160204212010402/04/16 21:20:31  5-MIN KABI 050320Z 17005KT 10SM CLR 03/M08 A3036 1390 44 400 160/05 RMK AO2 T00331078
13962KABI ABI20160204212510402/04/16 21:25:31  5-MIN KABI 050325Z 16005KT 10SM CLR 03/M08 A3036 1390 44 400 160/05 RMK AO2 T00331078
13962KABI ABI20160204213010402/04/16 21:30:31  5-MIN KABI 050330Z 16005KT 10SM CLR 03/M08 A3036 1390 44 400 160/05 RMK AO2 T00331078
13962KABI ABI20160204213510402/04/16 21:35:31  5-MIN KABI 050335Z 16005KT 10SM CLR 03/M08 A3036 1390 44 400 160/05 RMK AO2 T00331078
13962KABI ABI20160204214010402/04/16 21:40:31  5-MIN KABI 050340Z 16004KT 10SM CLR 03/M08 A3035 1390 44 400 160/04 RMK AO2 T00331078
13962KABI ABI20160204214510402/04/16 21:45:31  5-MIN KABI 050345Z 16004KT 10SM CLR 04/M08 A3035 1400 42 400 150/04 RMK AO2 T00391078
13962KABI ABI20160204215011102/04/16 21:50:31  5-MIN KABI 050350Z 16004KT 10SM CLR 04/M08 A3035 1400 42 400 150/04 RMK AO2 SLP282 T00391078
13962KABI ABI20160204215510402/04/16 21:55:31  5-MIN KABI 050355Z 14005KT 10SM CLR 03/M08 A3035 1400 44 400 140/05 RMK AO2 T00331078
13962KABI ABI20160204220010402/04/16 22:00:31  5-MIN KABI 050400Z 14006KT 10SM CLR 03/M08 A3035 1400 46 300 140/06 RMK AO2 T00281078
13962KABI ABI20160204220510402/04/16 22:05:31  5-MIN KABI 050405Z 14006KT 10SM CLR 02/M08 A3035 1400 47 200 140/06 RMK AO2 T00221078
13962KABI ABI20160204221010402/04/16 22:10:31  5-MIN KABI 050410Z 15006KT 10SM CLR 02/M08 A3035 1400 49 200 150/06 RMK AO2 T00171078
13962KABI ABI20160204221510402/04/16 22:15:31  5-MIN KABI 050415Z 14005KT 10SM CLR 02/M08 A3035 1400 47 200 140/05 RMK AO2 T00221078
13962KABI ABI20160204222010402/04/16 22:20:31  5-MIN KABI 050420Z 14006KT 10SM CLR 02/M08 A3035 1400 49 200 130/06 RMK AO2 T00171078
13962KABI ABI20160204222510402/04/16 22:25:31  5-MIN KABI 050425Z 14007KT 10SM CLR 02/M08 A3035 1400 49 200 140/07 RMK AO2 T00171078
13962KABI ABI20160204223010402/04/16 22:30:31  5-MIN KABI 050430Z 14006KT 10SM CLR 02/M08 A3035 1400 49 200 140/06 RMK AO2 T00171078
13962KABI ABI20160204223510402/04/16 22:35:31  5-MIN KABI 050435Z 14005KT 10SM CLR 02/M08 A3035 1400 47 200 140/05 RMK AO2 T00221078
13962KABI ABI20160204224010402/04/16 22:40:31  5-MIN KABI 050440Z 14006KT 10SM CLR 03/M07 A3035 1400 48 300 140/06 RMK AO2 T00281072
13962KABI ABI20160204224510402/04/16 22:45:31  5-MIN KABI 050445Z 15006KT 10SM CLR 02/M07 A3034 1400 50 200 150/06 RMK AO2 T00221072
13962KABI ABI20160204225011102/04/16 22:50:31  5-MIN KABI 050450Z 16007KT 10SM CLR 02/M08 A3034 1400 49 200 150/07 RMK AO2 SLP278 T00171078
13962KABI ABI20160204225510402/04/16 22:55:31  5-MIN KABI 050455Z 17007KT 10SM CLR 02/M08 A3034 1400 49 200 160/07 RMK AO2 T00171078
13962KABI ABI20160204230010402/04/16 23:00:31  5-MIN KABI 050500Z 17007KT 10SM CLR 02/M08 A3034 1410 49 200 160/07 RMK AO2 T00171078
13962KABI ABI20160204230510402/04/16 23:05:31  5-MIN KABI 050505Z 16008KT 10SM CLR 02/M08 A3034 1410 47 200 160/08 RMK AO2 T00171083
13962KABI ABI20160204231010402/04/16 23:10:31  5-MIN KABI 050510Z 16008KT 10SM CLR 02/M08 A3034 1410 47 200 150/08 RMK AO2 T00221078
13962KABI ABI20160204231510402/04/16 23:15:31  5-MIN KABI 050515Z 16008KT 10SM CLR 02/M08 A3034 1410 49 200 150/08 RMK AO2 T00171078
13962KABI ABI20160204232010402/04/16 23:20:31  5-MIN KABI 050520Z 15009KT 10SM CLR 02/M08 A3034 1410 49 200 150/09 RMK AO2 T00171078
13962KABI ABI20160204232510402/04/16 23:25:31  5-MIN KABI 050525Z 16009KT 10SM CLR 02/M08 A3034 1410 49 200 150/09 RMK AO2 T00171078
13962KABI ABI20160204233010402/04/16 23:30:31  5-MIN KABI 050530Z 16009KT 10SM CLR 03/M08 A3034 1410 46 300 150/09 RMK AO2 T00281078
13962KABI ABI20160204233510402/04/16 23:35:31  5-MIN KABI 050535Z 15009KT 10SM CLR 03/M07 A3033 1410 48 300 150/09 RMK AO2 T00281072
13962KABI ABI20160204234010402/04/16 23:40:31  5-MIN KABI 050540Z 15010KT 10SM CLR 03/M07 A3033 1410 46 400 150/10 RMK AO2 T00331072
13962KABI ABI20160204234510402/04/16 23:45:31  5-MIN KABI 050545Z 16010KT 10SM CLR 03/M07 A3033 1410 48 300 150/10 RMK AO2 T00281072
13962KABI ABI20160204235013902/04/16 23:50:31  5-MIN KABI 050550Z 15010KT 10SM CLR 03/M07 A3033 1410 46 400 150/10 RMK AO2 SLP271 T00331072 10117 20017 401331050 53015
13962KABI ABI20160204235510402/04/16 23:55:31  5-MIN KABI 050555Z 15009KT 10SM CLR 03/M07 A3033 1410 46 400 150/09 RMK AO2 T00331072
13962KABI ABI20160205000010402/05/16 00:00:31  5-MIN KABI 050600Z 15010KT 10SM CLR 03/M07 A3033 1410 48 300 140/10 RMK AO2 T00281072
13962KABI ABI20160205000510402/05/16 00:05:31  5-MIN KABI 050605Z 15010KT 10SM CLR 03/M07 A3033 1420 48 300 140/10 RMK AO2 T00281072
13962KABI ABI20160205001010402/05/16 00:10:31  5-MIN KABI 050610Z 15010KT 10SM CLR 03/M07 A3033 1420 48 300 140/10 RMK AO2 T00281072
13962KABI ABI20160205001510402/05/16 00:15:31  5-MIN KABI 050615Z 15010KT 10SM CLR 03/M07 A3033 1420 48 300 140/10 RMK AO2 T00281072
13962KABI ABI20160205002010402/05/16 00:20:31  5-MIN KABI 050620Z 15009KT 10SM CLR 03/M07 A3033 1420 48 300 150/09 RMK AO2 T00281072
13962KABI ABI20160205002510402/05/16 00:25:31  5-MIN KABI 050625Z 15009KT 10SM CLR 03/M07 A3033 1420 48 300 150/09 RMK AO2 T00281072
13962KABI ABI20160205003010402/05/16 00:30:31  5-MIN KABI 050630Z 15010KT 10SM CLR 03/M07 A3033 1420 48 300 150/10 RMK AO2 T00281072
13962KABI ABI20160205003510402/05/16 00:35:31  5-MIN KABI 050635Z 15009KT 10SM CLR 03/M07 A3033 1420 48 300 150/09 RMK AO2 T00281072
13962KABI ABI20160205004010402/05/16 00:40:31  5-MIN KABI 050640Z 15010KT 10SM CLR 03/M07 A3032 1420 48 300 140/10 RMK AO2 T00281072
13962KABI ABI20160205004510402/05/16 00:45:31  5-MIN KABI 050645Z 16009KT 10SM CLR 03/M07 A3032 1420 48 300 150/09 RMK AO2 T00281072
13962KABI ABI20160205005011102/05/16 00:50:31  5-MIN KABI 050650Z 16009KT 10SM CLR 03/M07 A3032 1420 48 300 150/09 RMK AO2 SLP267 T00281072
13962KABI ABI20160205005510402/05/16 00:55:31  5-MIN KABI 050655Z 16008KT 10SM CLR 03/M07 A3032 1430 48 300 150/08 RMK AO2 T00281072
13962KABI ABI20160205010010402/05/16 01:00:31  5-MIN KABI 050700Z 16008KT 10SM CLR 03/M07 A3032 1430 50 300 160/08 RMK AO2 T00281067
13962KABI ABI20160205010510402/05/16 01:05:31  5-MIN KABI 050705Z 16008KT 10SM CLR 03/M07 A3032 1430 50 300 150/08 RMK AO2 T00281067
13962KABI ABI20160205011010402/05/16 01:10:31  5-MIN KABI 050710Z 16008KT 10SM CLR 03/M07 A3031 1430 50 300 160/08 RMK AO2 T00281067
13962KABI ABI20160205011510402/05/16 01:15:31  5-MIN KABI 050715Z 16008KT 10SM CLR 03/M07 A3031 1430 50 300 150/08 RMK AO2 T00281067
13962KABI ABI20160205012010402/05/16 01:20:31  5-MIN KABI 050720Z 16009KT 10SM CLR 03/M07 A3031 1430 50 300 160/09 RMK AO2 T00281067
13962KABI ABI20160205012510402/05/16 01:25:31  5-MIN KABI 050725Z 17008KT 10SM CLR 03/M07 A3031 1430 50 300 160/08 RMK AO2 T00281067
13962KABI ABI20160205013010402/05/16 01:30:31  5-MIN KABI 050730Z 16009KT 10SM CLR 03/M07 A3032 1430 48 400 160/09 RMK AO2 T00331067
13962KABI ABI20160205013510402/05/16 01:35:31  5-MIN KABI 050735Z 17010KT 10SM CLR 03/M07 A3031 1430 48 400 160/10 RMK AO2 T00331067
13962KABI ABI20160205014010402/05/16 01:40:31  5-MIN KABI 050740Z 17010KT 10SM CLR 04/M07 A3032 1430 46 500 160/10 RMK AO2 T00391067
13962KABI ABI20160205014510402/05/16 01:45:31  5-MIN KABI 050745Z 17011KT 10SM CLR 04/M07 A3032 1430 46 500 170/11 RMK AO2 T00391067
13962KABI ABI20160205015011102/05/16 01:50:31  5-MIN KABI 050750Z 17009KT 10SM CLR 04/M07 A3032 1430 46 500 160/09 RMK AO2 SLP265 T00391067
13962KABI ABI20160205015510402/05/16 01:55:31  5-MIN KABI 050755Z 17008KT 10SM CLR 04/M07 A3032 1430 46 500 160/08 RMK AO2 T00391067
13962KABI ABI20160205020010402/05/16 02:00:31  5-MIN KABI 050800Z 17008KT 10SM CLR 03/M07 A3032 1430 48 400 160/08 RMK AO2 T00331067
13962KABI ABI20160205020510402/05/16 02:05:31  5-MIN KABI 050805Z 17008KT 10SM CLR 03/M07 A3031 1430 48 400 160/08 RMK AO2 T00331067
13962KABI ABI20160205021010402/05/16 02:10:31  5-MIN KABI 050810Z 17008KT 10SM CLR 03/M07 A3031 1430 50 300 160/08 RMK AO2 T00281067
13962KABI ABI20160205021510402/05/16 02:15:31  5-MIN KABI 050815Z 17008KT 10SM CLR 03/M07 A3031 1430 48 300 160/08 RMK AO2 T00281072
13962KABI ABI20160205022010402/05/16 02:20:31  5-MIN KABI 050820Z 16008KT 10SM CLR 03/M07 A3031 1430 48 300 160/08 RMK AO2 T00281072
13962KABI ABI20160205022510402/05/16 02:25:31  5-MIN KABI 050825Z 16008KT 10SM CLR 03/M07 A3031 1430 46 400 160/08 RMK AO2 T00331072
13962KABI ABI20160205023010402/05/16 02:30:31  5-MIN KABI 050830Z 16009KT 10SM CLR 03/M07 A3031 1430 46 400 160/09 RMK AO2 T00331072
13962KABI ABI20160205023510402/05/16 02:35:31  5-MIN KABI 050835Z 16010KT 10SM CLR 03/M07 A3031 1440 46 400 150/10 RMK AO2 T00331072
13962KABI ABI20160205024010402/05/16 02:40:31  5-MIN KABI 050840Z 16010KT 10SM CLR 03/M07 A3031 1440 46 400 150/10 RMK AO2 T00331072
13962KABI ABI20160205024510402/05/16 02:45:31  5-MIN KABI 050845Z 16009KT 10SM CLR 03/M07 A3031 1440 48 400 160/09 RMK AO2 T00331067
13962KABI ABI20160205025011702/05/16 02:50:31  5-MIN KABI 050850Z 17008KT 10SM CLR 03/M07 A3031 1430 50 300 170/08 RMK AO2 SLP263 T00281067 58008
13962KABI ABI20160205025510402/05/16 02:55:31  5-MIN KABI 050855Z 19005KT 10SM CLR 03/M07 A3031 1430 50 300 180/05 RMK AO2 T00281067
13962KABI ABI20160205030010402/05/16 03:00:31  5-MIN KABI 050900Z 18007KT 10SM CLR 02/M07 A3031 1430 52 300 170/07 RMK AO2 T00221067
13962KABI ABI20160205030510402/05/16 03:05:31  5-MIN KABI 050905Z 17007KT 10SM CLR 02/M07 A3031 1430 52 300 160/07 RMK AO2 T00221067
13962KABI ABI20160205031010402/05/16 03:10:31  5-MIN KABI 050910Z 16008KT 10SM CLR 02/M07 A3031 1430 52 300 150/08 RMK AO2 T00221067
13962KABI ABI20160205031510402/05/16 03:15:31  5-MIN KABI 050915Z 16009KT 10SM CLR 03/M07 A3031 1430 50 300 160/09 RMK AO2 T00281067
13962KABI ABI20160205032010402/05/16 03:20:31  5-MIN KABI 050920Z 16008KT 10SM CLR 03/M07 A3031 1430 48 400 160/08 RMK AO2 T00331067
13962KABI ABI20160205032510402/05/16 03:25:31  5-MIN KABI 050925Z 16008KT 10SM CLR 03/M07 A3031 1430 50 300 160/08 RMK AO2 T00281067
13962KABI ABI20160205033010402/05/16 03:30:31  5-MIN KABI 050930Z 17007KT 10SM CLR 02/M07 A3031 1430 52 300 160/07 RMK AO2 T00221067
13962KABI ABI20160205033510402/05/16 03:35:31  5-MIN KABI 050935Z 18006KT 10SM CLR 02/M07 A3032 1430 52 300 170/06 RMK AO2 T00221067
13962KABI ABI20160205034010402/05/16 03:40:31  5-MIN KABI 050940Z 18006KT 10SM CLR 02/M07 A3032 1430 52 300 170/06 RMK AO2 T00221067
13962KABI ABI20160205034510402/05/16 03:45:31  5-MIN KABI 050945Z 18005KT 10SM CLR 02/M07 A3032 1430 52 300 170/05 RMK AO2 T00221067
13962KABI ABI20160205035011102/05/16 03:50:31  5-MIN KABI 050950Z 18006KT 10SM CLR 02/M07 A3032 1420 52 300 170/06 RMK AO2 SLP266 T00221067
13962KABI ABI20160205035510402/05/16 03:55:31  5-MIN KABI 050955Z 18007KT 10SM CLR 02/M07 A3032 1420 52 300 170/07 RMK AO2 T00221067
13962KABI ABI20160205040010402/05/16 04:00:31  5-MIN KABI 051000Z 18008KT 10SM CLR 02/M06 A3032 1420 54 300 180/08 RMK AO2 T00221061
13962KABI ABI20160205040510402/05/16 04:05:31  5-MIN KABI 051005Z 19008KT 10SM CLR 02/M06 A3032 1420 54 300 180/08 RMK AO2 T00221061
13962KABI ABI20160205041010402/05/16 04:10:31  5-MIN KABI 051010Z 18009KT 10SM CLR 02/M06 A3032 1420 54 300 180/09 RMK AO2 T00221061
13962KABI ABI20160205041510402/05/16 04:15:31  5-MIN KABI 051015Z 18009KT 10SM CLR 02/M06 A3032 1420 54 300 180/09 RMK AO2 T00221061
13962KABI ABI20160205042010402/05/16 04:20:31  5-MIN KABI 051020Z 19009KT 10SM CLR 02/M06 A3032 1420 54 300 180/09 RMK AO2 T00221061
13962KABI ABI20160205042510402/05/16 04:25:31  5-MIN KABI 051025Z 18008KT 10SM CLR 02/M07 A3033 1420 52 300 180/08 RMK AO2 T00221067
13962KABI ABI20160205043010402/05/16 04:30:31  5-MIN KABI 051030Z 17007KT 10SM CLR 02/M07 A3033 1420 54 200 170/07 RMK AO2 T00171067
13962KABI ABI20160205043510402/05/16 04:35:31  5-MIN KABI 051035Z 17008KT 10SM CLR 02/M07 A3033 1420 54 200 160/08 RMK AO2 T00171067
13962KABI ABI20160205044010402/05/16 04:40:31  5-MIN KABI 051040Z 17008KT 10SM CLR 02/M06 A3032 1420 56 200 170/08 RMK AO2 T00171061
13962KABI ABI20160205044510402/05/16 04:45:31  5-MIN KABI 051045Z 18007KT 10SM CLR 01/M06 A3032 1420 58 100 170/07 RMK AO2 T00111061
13962KABI ABI20160205045011102/05/16 04:50:31  5-MIN KABI 051050Z 18008KT 10SM CLR 01/M06 A3032 1420 58 100 180/08 RMK AO2 SLP269 T00111061
13962KABI ABI20160205045510402/05/16 04:55:31  5-MIN KABI 051055Z 19008KT 10SM CLR 02/M06 A3033 1420 56 200 180/08 RMK AO2 T00171061
13962KABI ABI20160205050010402/05/16 05:00:31  5-MIN KABI 051100Z 19008KT 10SM CLR 02/M06 A3033 1420 56 200 180/08 RMK AO2 T00171061
13962KABI ABI20160205050510402/05/16 05:05:31  5-MIN KABI 051105Z 19008KT 10SM CLR 02/M06 A3033 1420 56 200 180/08 RMK AO2 T00171061
13962KABI ABI20160205051010402/05/16 05:10:31  5-MIN KABI 051110Z 19007KT 10SM CLR 02/M06 A3033 1420 56 200 190/07 RMK AO2 T00171061
13962KABI ABI20160205051510402/05/16 05:15:31  5-MIN KABI 051115Z 19008KT 10SM CLR 02/M06 A3033 1420 56 200 190/08 RMK AO2 T00171061
13962KABI ABI20160205052010402/05/16 05:20:31  5-MIN KABI 051120Z 19008KT 10SM CLR 02/M06 A3033 1420 56 200 190/08 RMK AO2 T00171061
13962KABI ABI20160205052510402/05/16 05:25:31  5-MIN KABI 051125Z 19009KT 10SM CLR 02/M06 A3033 1420 56 200 180/09 RMK AO2 T00171061
13962KABI ABI20160205053010402/05/16 05:30:31  5-MIN KABI 051130Z 18009KT 10SM CLR 02/M06 A3033 1420 56 200 180/09 RMK AO2 T00171061
13962KABI ABI20160205053510402/05/16 05:35:31  5-MIN KABI 051135Z 18010KT 10SM CLR 02/M06 A3032 1420 56 200 170/10 RMK AO2 T00171061
13962KABI ABI20160205054010402/05/16 05:40:31  5-MIN KABI 051140Z 18010KT 10SM CLR 02/M06 A3033 1420 56 200 180/10 RMK AO2 T00171061
13962KABI ABI20160205054510402/05/16 05:45:31  5-MIN KABI 051145Z 18010KT 10SM CLR 02/M06 A3032 1420 56 200 170/10 RMK AO2 T00171061
13962KABI ABI20160205055012902/05/16 05:50:31  5-MIN KABI 051150Z 18011KT 10SM CLR 02/M06 A3032 1420 54 300 180/11 RMK AO2 SLP266 T00221061 10039 20011 56006
13962KABI ABI20160205161510502/05/16 16:15:31  5-MIN KABI 052215Z 21010KT 10SM CLR 14/M04 A3019 1550 26 1900 200/10 RMK AO2 T01441044
13962KABI ABI20160205162011102/05/16 16:20:31  5-MIN KABI 052220Z 20017G25KT 10SM CLR 14/M04 A3019 1550 26 1900 190/17G25 RMK AO2 T01441044
13962KABI ABI20160205162511102/05/16 16:25:31  5-MIN KABI 052225Z 22012G25KT 10SM CLR 14/M04 A3019 1550 26 1900 220/12G25 RMK AO2 T01441044
13962KABI ABI20160205163010502/05/16 16:30:31  5-MIN KABI 052230Z 22010KT 10SM CLR 14/M04 A3019 1550 26 1900 220/10 RMK AO2 T01441044
13962KABI ABI20160205163511102/05/16 16:35:31  5-MIN KABI 052235Z 22013G19KT 10SM CLR 14/M04 A3019 1540 26 1900 210/13G19 RMK AO2 T01441044
13962KABI ABI20160205164011402/05/16 16:40:31  5-MIN KABI 052240Z 20016G20KT 10SM FEW085 14/M05 A3019 1540 26 1800 190/16G20 RMK AO2 T01391050
13962KABI ABI20160205164511402/05/16 16:45:31  5-MIN KABI 052245Z 21011G20KT 10SM FEW085 14/M05 A3019 1550 26 1800 210/11G20 RMK AO2 T01391050
13962KABI ABI20160205165011502/05/16 16:50:31  5-MIN KABI 052250Z 21010KT 10SM FEW090 14/M05 A3019 1550 26 1800 200/10 RMK AO2 SLP221 T01391050
13962KABI ABI20160205165510802/05/16 16:55:31  5-MIN KABI 052255Z 21011KT 10SM SCT085 14/M05 A3018 1550 26 1800 210/11 RMK AO2 T01391050
13962KABI ABI20160205170010802/05/16 17:00:31  5-MIN KABI 052300Z 23011KT 10SM SCT085 14/M04 A3018 1550 27 1800 220/11 RMK AO2 T01391044
13962KABI ABI20160205170510802/05/16 17:05:31  5-MIN KABI 052305Z 22012KT 10SM FEW090 14/M04 A3018 1550 27 1800 210/12 RMK AO2 T01391044
13962KABI ABI20160205171010802/05/16 17:10:31  5-MIN KABI 052310Z 22011KT 10SM SCT090 14/M04 A3018 1550 27 1800 220/11 RMK AO2 T01391044
13962KABI ABI20160205171510802/05/16 17:15:31  5-MIN KABI 052315Z 22011KT 10SM BKN095 14/M04 A3018 1550 27 1800 210/11 RMK AO2 T01391044
13962KABI ABI20160205172010802/05/16 17:20:31  5-MIN KABI 052320Z 22009KT 10SM BKN095 13/M04 A3018 1550 28 1800 220/09 RMK AO2 T01331044
13962KABI ABI20160205172510802/05/16 17:25:31  5-MIN KABI 052325Z 22009KT 10SM BKN100 13/M04 A3018 1550 28 1800 210/09 RMK AO2 T01331044
13962KABI ABI20160205173010802/05/16 17:30:31  5-MIN KABI 052330Z 21010KT 10SM OVC100 13/M04 A3018 1550 28 1800 200/10 RMK AO2 T01331044
13962KABI ABI20160205173510802/05/16 17:35:31  5-MIN KABI 052335Z 21010KT 10SM OVC095 13/M04 A3018 1550 28 1800 200/10 RMK AO2 T01331044
13962KABI ABI20160205174010802/05/16 17:40:31  5-MIN KABI 052340Z 20010KT 10SM OVC095 13/M04 A3018 1550 28 1800 190/10 RMK AO2 T01331044
13962KABI ABI20160205174510802/05/16 17:45:31  5-MIN KABI 052345Z 20008KT 10SM OVC100 13/M04 A3019 1550 28 1800 200/08 RMK AO2 T01331044
13962KABI ABI20160205175013302/05/16 17:50:31  5-MIN KABI 052350Z 21007KT 10SM OVC095 13/M04 A3019 1550 28 1700 210/07 RMK AO2 SLP221 T01331044 10150 20100 56037
13962KABI ABI20160205175510802/05/16 17:55:31  5-MIN KABI 052355Z 21008KT 10SM OVC100 13/M04 A3019 1550 28 1700 200/08 RMK AO2 T01331044
13962KABI ABI20160205180010802/05/16 18:00:31  5-MIN KABI 060000Z 20007KT 10SM OVC095 13/M04 A3019 1550 31 1700 190/07 RMK AO2 T01281039
13962KABI ABI20160205180510802/05/16 18:05:31  5-MIN KABI 060005Z 21006KT 10SM OVC090 13/M04 A3019 1540 31 1700 200/06 RMK AO2 T01281039
13962KABI ABI20160205181010802/05/16 18:10:31  5-MIN KABI 060010Z 21010KT 10SM OVC090 13/M04 A3019 1540 31 1700 200/10 RMK AO2 T01281039
13962KABI ABI20160205181510802/05/16 18:15:31  5-MIN KABI 060015Z 22008KT 10SM OVC090 12/M04 A3020 1540 32 1600 210/08 RMK AO2 T01221039
13962KABI ABI20160205182010802/05/16 18:20:31  5-MIN KABI 060020Z 22007KT 10SM OVC095 12/M04 A3020 1540 32 1600 210/07 RMK AO2 T01221039
13962KABI ABI20160205182510802/05/16 18:25:31  5-MIN KABI 060025Z 24008KT 10SM OVC095 13/M04 A3020 1540 30 1700 230/08 RMK AO2 T01281044
13962KABI ABI20160205183010802/05/16 18:30:31  5-MIN KABI 060030Z 25008KT 10SM OVC090 12/M04 A3020 1530 32 1600 250/08 RMK AO2 T01221039
13962KABI ABI20160205183510802/05/16 18:35:31  5-MIN KABI 060035Z 27011KT 10SM BKN095 12/M04 A3020 1530 32 1500 270/11 RMK AO2 T01171044
13962KABI ABI20160205184010802/05/16 18:40:31  5-MIN KABI 060040Z 30007KT 10SM BKN095 12/M05 A3021 1530 30 1500 290/07 RMK AO2 T01171050
13962KABI ABI20160205184510802/05/16 18:45:31  5-MIN KABI 060045Z 30008KT 10SM BKN095 11/M06 A3021 1530 30 1500 290/08 RMK AO2 T01111056
13962KABI ABI20160205185011502/05/16 18:50:31  5-MIN KABI 060050Z 30010KT 10SM BKN095 12/M07 A3021 1530 27 1500 290/10 RMK AO2 SLP228 T01171067
13962KABI ABI20160205185510802/05/16 18:55:31  5-MIN KABI 060055Z 30008KT 10SM SCT095 11/M07 A3021 1530 28 1500 290/08 RMK AO2 T01111067
13962KABI ABI20160205190010802/05/16 19:00:31  5-MIN KABI 060100Z 29010KT 10SM FEW090 11/M07 A3021 1530 28 1500 290/10 RMK AO2 T01111067
13962KABI ABI20160205190510802/05/16 19:05:31  5-MIN KABI 060105Z 30011KT 10SM FEW100 11/M07 A3021 1520 27 1500 290/11 RMK AO2 T01111072
13962KABI ABI20160205191010802/05/16 19:10:31  5-MIN KABI 060110Z 31013KT 10SM SCT100 11/M07 A3022 1520 27 1500 300/13 RMK AO2 T01111072
13962KABI ABI20160205191510802/05/16 19:15:31  5-MIN KABI 060115Z 31013KT 10SM SCT100 11/M07 A3022 1520 27 1400 300/13 RMK AO2 T01111072
13962KABI ABI20160205192010802/05/16 19:20:31  5-MIN KABI 060120Z 31012KT 10SM BKN110 11/M07 A3022 1510 28 1400 310/12 RMK AO2 T01061072
13962KABI ABI20160205192510802/05/16 19:25:31  5-MIN KABI 060125Z 31016KT 10SM BKN110 11/M07 A3022 1510 28 1400 300/16 RMK AO2 T01061072
13962KABI ABI20160205193011402/05/16 19:30:31  5-MIN KABI 060130Z 31013G21KT 10SM BKN110 11/M07 A3022 1510 28 1400 300/13G21 RMK AO2 T01061072
13962KABI ABI20160205193511502/05/16 19:35:31  5-MIN KABI 060135Z 31017KT 10SM BKN100 BKN120 11/M07 A3023 1510 29 1400 300/17 RMK AO2 T01061067
13962KABI ABI20160205194011502/05/16 19:40:31  5-MIN KABI 060140Z 31015KT 10SM BKN100 BKN120 11/M07 A3023 1510 29 1400 300/15 RMK AO2 T01061067
13962KABI ABI20160205194511502/05/16 19:45:31  5-MIN KABI 060145Z 30015KT 10SM BKN100 BKN110 11/M07 A3022 1510 29 1400 300/15 RMK AO2 T01061067
13962KABI ABI20160205195012202/05/16 19:50:31  5-MIN KABI 060150Z 30015KT 10SM BKN100 BKN110 11/M07 A3023 1510 28 1400 300/15 RMK AO2 SLP235 T01061072
13962KABI ABI20160205195511502/05/16 19:55:31  5-MIN KABI 060155Z 30016KT 10SM BKN100 BKN110 10/M07 A3023 1510 29 1300 300/16 RMK AO2 T01001072
13962KABI ABI20160205200010802/05/16 20:00:31  5-MIN KABI 060200Z 30013KT 10SM BKN110 10/M07 A3023 1510 29 1300 300/13 RMK AO2 T01001072
13962KABI ABI20160205200510802/05/16 20:05:31  5-MIN KABI 060205Z 30013KT 10SM BKN110 10/M07 A3023 1510 29 1300 300/13 RMK AO2 T01001072
13962KABI ABI20160205201011502/05/16 20:10:31  5-MIN KABI 060210Z 31017KT 10SM FEW100 BKN120 10/M07 A3023 1510 29 1300 300/17 RMK AO2 T01001072
13962KABI ABI20160205201511402/05/16 20:15:31  5-MIN KABI 060215Z 30014G22KT 10SM BKN110 10/M07 A3023 1510 29 1300 300/14G22 RMK AO2 T01001072
13962KABI ABI20160205202011402/05/16 20:20:31  5-MIN KABI 060220Z 30017G22KT 10SM BKN110 10/M07 A3023 1500 29 1300 300/17G22 RMK AO2 T01001072
13962KABI ABI20160205202510802/05/16 20:25:31  5-MIN KABI 060225Z 31016KT 10SM BKN110 10/M07 A3023 1500 29 1300 300/16 RMK AO2 T01001072
13962KABI ABI20160205203013202/05/16 20:30:31  5-MIN KABI 060230Z 31019G27KT 10SM BKN110 10/M08 A3023 1500 28 1300 310/19G27 RMK AO2 PK WND 31027/0226 T01001078
13962KABI ABI20160205203513202/05/16 20:35:31  5-MIN KABI 060235Z 31017G27KT 10SM BKN110 09/M08 A3023 1500 29 1200 310/17G27 RMK AO2 PK WND 31027/0226 T00941078
13962KABI ABI20160205204013202/05/16 20:40:31  5-MIN KABI 060240Z 31019G28KT 10SM BKN110 09/M08 A3023 1500 30 1200 310/19G28 RMK AO2 PK WND 32028/0239 T00891078
13962KABI ABI20160205204513202/05/16 20:45:31  5-MIN KABI 060245Z 31016G28KT 10SM SCT110 09/M08 A3023 1500 30 1200 310/16G28 RMK AO2 PK WND 32028/0239 T00891078
13962KABI ABI20160205205014502/05/16 20:50:31  5-MIN KABI 060250Z 31025G32KT 10SM SCT110 09/M07 A3023 1500 31 1200 300/25G32 RMK AO2 PK WND 30032/0250 SLP239 T00891072 55002
13962KABI ABI20160205205513102/05/16 20:55:31  5-MIN KABI 060255Z 31028G34KT 9SM FEW110 08/M08 A3024 1500 31 1100 300/28G34 RMK AO2 PK WND 30034/0254 T00831078
13962KABI ABI20160205210013102/05/16 21:00:31  5-MIN KABI 060300Z 31026G34KT 9SM FEW110 08/M08 A3024 1500 31 1100 310/26G34 RMK AO2 PK WND 30034/0254 T00831078
13962KABI ABI20160205210512902/05/16 21:05:31  5-MIN KABI 060305Z 31022G34KT 10SM CLR 08/M08 A3024 1500 31 1100 300/22G34 RMK AO2 PK WND 30034/0301 T00831078
13962KABI ABI20160205211012902/05/16 21:10:31  5-MIN KABI 060310Z 31023G34KT 10SM CLR 08/M07 A3024 1500 34 1000 300/23G34 RMK AO2 PK WND 30034/0301 T00781072
13962KABI ABI20160205211512902/05/16 21:15:31  5-MIN KABI 060315Z 31025G35KT 10SM CLR 08/M08 A3024 1500 32 1000 300/25G35 RMK AO2 PK WND 31035/0312 T00781078
13962KABI ABI20160205212012902/05/16 21:20:31  5-MIN KABI 060320Z 31023G36KT 10SM CLR 08/M07 A3024 1490 34 1000 310/23G36 RMK AO2 PK WND 31036/0316 T00781072
13962KABI ABI20160205212512902/05/16 21:25:31  5-MIN KABI 060325Z 31022G36KT 10SM CLR 08/M07 A3025 1490 34 1000 310/22G36 RMK AO2 PK WND 31036/0316 T00781072
13962KABI ABI20160205213012902/05/16 21:30:31  5-MIN KABI 060330Z 31022G32KT 10SM CLR 08/M07 A3025 1490 34 1000 310/22G32 RMK AO2 PK WND 31036/0316 T00781072
13962KABI ABI20160205213512802/05/16 21:35:31  5-MIN KABI 060335Z 31022G28KT 10SM CLR 07/M07 A3026 1480 35 900 300/22G28 RMK AO2 PK WND 31036/0316 T00721072
13962KABI ABI20160205214012802/05/16 21:40:31  5-MIN KABI 060340Z 31020G30KT 10SM CLR 07/M07 A3026 1480 35 900 310/20G30 RMK AO2 PK WND 31036/0316 T00721072
13962KABI ABI20160205214512802/05/16 21:45:31  5-MIN KABI 060345Z 31016G30KT 10SM CLR 07/M07 A3026 1480 35 900 310/16G30 RMK AO2 PK WND 31036/0316 T00721072
13962KABI ABI20160205215013502/05/16 21:50:31  5-MIN KABI 060350Z 31016G22KT 10SM CLR 07/M07 A3026 1480 35 900 310/16G22 RMK AO2 PK WND 31036/0316 SLP249 T00721072
13962KABI ABI20160205215511002/05/16 21:55:31  5-MIN KABI 060355Z 31016G22KT 10SM CLR 07/M07 A3026 1480 36 900 310/16G22 RMK AO2 T00671072
13962KABI ABI20160205220010402/05/16 22:00:31  5-MIN KABI 060400Z 31015KT 10SM CLR 07/M07 A3026 1480 36 900 300/15 RMK AO2 T00671072
13962KABI ABI20160205220511002/05/16 22:05:31  5-MIN KABI 060405Z 31016G22KT 10SM CLR 07/M07 A3026 1480 36 900 300/16G22 RMK AO2 T00671072
13962KABI ABI20160205221011002/05/16 22:10:31  5-MIN KABI 060410Z 30019G23KT 10SM CLR 07/M07 A3027 1480 36 900 300/19G23 RMK AO2 T00671072
13962KABI ABI20160205221510402/05/16 22:15:31  5-MIN KABI 060415Z 31016KT 10SM CLR 07/M07 A3027 1470 36 900 300/16 RMK AO2 T00671072
13962KABI ABI20160205222010402/05/16 22:20:31  5-MIN KABI 060420Z 31016KT 10SM CLR 06/M07 A3027 1470 39 800 300/16 RMK AO2 T00611067
13962KABI ABI20160205222511002/05/16 22:25:31  5-MIN KABI 060425Z 31017G22KT 10SM CLR 06/M07 A3028 1470 39 800 300/17G22 RMK AO2 T00611067
13962KABI ABI20160205223011002/05/16 22:30:31  5-MIN KABI 060430Z 31013G22KT 10SM CLR 06/M07 A3028 1470 39 800 300/13G22 RMK AO2 T00611067
13962KABI ABI20160205223511002/05/16 22:35:31  5-MIN KABI 060435Z 30011G20KT 10SM CLR 06/M07 A3027 1470 41 700 300/11G20 RMK AO2 T00561067
13962KABI ABI20160205224011002/05/16 22:40:31  5-MIN KABI 060440Z 30016G21KT 10SM CLR 06/M07 A3027 1470 41 700 300/16G21 RMK AO2 T00561067
13962KABI ABI20160205224511002/05/16 22:45:31  5-MIN KABI 060445Z 30012G21KT 10SM CLR 06/M07 A3027 1470 39 800 300/12G21 RMK AO2 T00611067
13962KABI ABI20160205225011102/05/16 22:50:31  5-MIN KABI 060450Z 31014KT 10SM CLR 06/M07 A3028 1460 41 700 300/14 RMK AO2 SLP251 T00561067
13962KABI ABI20160205225510402/05/16 22:55:31  5-MIN KABI 060455Z 30012KT 10SM CLR 06/M07 A3028 1460 41 700 300/12 RMK AO2 T00561067
13962KABI ABI20160205230011002/05/16 23:00:31  5-MIN KABI 060500Z 30013G19KT 10SM CLR 06/M07 A3028 1460 41 700 300/13G19 RMK AO2 T00561067
13962KABI ABI20160205230511002/05/16 23:05:31  5-MIN KABI 060505Z 30014G19KT 10SM CLR 06/M07 A3028 1460 41 700 300/14G19 RMK AO2 T00561067
13962KABI ABI20160205231010402/05/16 23:10:31  5-MIN KABI 060510Z 30014KT 10SM CLR 06/M07 A3028 1460 41 700 300/14 RMK AO2 T00561067
13962KABI ABI20160205231510402/05/16 23:15:31  5-MIN KABI 060515Z 30015KT 10SM CLR 06/M07 A3028 1460 41 700 290/15 RMK AO2 T00561067
13962KABI ABI20160205232010402/05/16 23:20:31  5-MIN KABI 060520Z 30014KT 10SM CLR 06/M07 A3028 1460 41 700 290/14 RMK AO2 T00561067
13962KABI ABI20160205232510402/05/16 23:25:31  5-MIN KABI 060525Z 30013KT 10SM CLR 05/M07 A3028 1460 42 600 290/13 RMK AO2 T00501067
13962KABI ABI20160205233010402/05/16 23:30:31  5-MIN KABI 060530Z 30011KT 10SM CLR 05/M07 A3028 1460 42 600 290/11 RMK AO2 T00501067
13962KABI ABI20160205233510402/05/16 23:35:31  5-MIN KABI 060535Z 30011KT 10SM CLR 05/M07 A3028 1460 42 600 290/11 RMK AO2 T00501067
13962KABI ABI20160205234010402/05/16 23:40:31  5-MIN KABI 060540Z 29011KT 10SM CLR 05/M07 A3029 1460 42 600 290/11 RMK AO2 T00501067
13962KABI ABI20160205234510402/05/16 23:45:31  5-MIN KABI 060545Z 28011KT 10SM CLR 04/M07 A3029 1460 44 600 280/11 RMK AO2 T00441067
13962KABI ABI20160205235013902/05/16 23:50:31  5-MIN KABI 060550Z 28012KT 10SM CLR 04/M07 A3029 1460 44 600 280/12 RMK AO2 SLP254 T00441067 10133 20044 401500011 51015
13962KABI ABI20160205235510402/05/16 23:55:31  5-MIN KABI 060555Z 29013KT 10SM CLR 04/M07 A3029 1460 44 600 280/13 RMK AO2 T00441067
13962KABI ABI20160206000010402/06/16 00:00:31  5-MIN KABI 060600Z 28012KT 10SM CLR 05/M07 A3029 1460 42 600 280/12 RMK AO2 T00501067
13962KABI ABI20160206000510402/06/16 00:05:31  5-MIN KABI 060605Z 29013KT 10SM CLR 04/M07 A3029 1460 44 600 280/13 RMK AO2 T00441067
13962KABI ABI20160206001010402/06/16 00:10:31  5-MIN KABI 060610Z 29013KT 10SM CLR 04/M07 A3029 1460 44 600 290/13 RMK AO2 T00441067
13962KABI ABI20160206001511002/06/16 00:15:31  5-MIN KABI 060615Z 29015G21KT 10SM CLR 04/M07 A3028 1460 44 600 290/15G21 RMK AO2 T00441067
13962KABI ABI20160206002011002/06/16 00:20:31  5-MIN KABI 060620Z 29013G21KT 10SM CLR 04/M07 A3028 1460 44 600 280/13G21 RMK AO2 T00441067
13962KABI ABI20160206002510402/06/16 00:25:31  5-MIN KABI 060625Z 29013KT 10SM CLR 04/M07 A3028 1460 44 600 280/13 RMK AO2 T00441067
13962KABI ABI20160206003011002/06/16 00:30:31  5-MIN KABI 060630Z 29014G20KT 10SM CLR 04/M07 A3028 1460 44 600 280/14G20 RMK AO2 T00441067
13962KABI ABI20160206003510402/06/16 00:35:31  5-MIN KABI 060635Z 29014KT 10SM CLR 04/M07 A3028 1460 44 600 290/14 RMK AO2 T00441067
13962KABI ABI20160206004010402/06/16 00:40:31  5-MIN KABI 060640Z 29015KT 10SM CLR 04/M07 A3028 1460 44 600 290/15 RMK AO2 T00441067
13962KABI ABI20160206004511002/06/16 00:45:31  5-MIN KABI 060645Z 29016G22KT 10SM CLR 04/M07 A3028 1460 44 600 290/16G22 RMK AO2 T00441067
13962KABI ABI20160206005011702/06/16 00:50:31  5-MIN KABI 060650Z 30016G22KT 10SM CLR 04/M07 A3027 1470 44 600 290/16G22 RMK AO2 SLP249 T00441067
13962KABI ABI20160206005511002/06/16 00:55:31  5-MIN KABI 060655Z 29015G23KT 10SM CLR 04/M07 A3027 1470 44 600 290/15G23 RMK AO2 T00441067
13962KABI ABI20160206010011002/06/16 01:00:31  5-MIN KABI 060700Z 29018G25KT 10SM CLR 04/M07 A3027 1470 44 600 290/18G25 RMK AO2 T00441067
13962KABI ABI20160206010511002/06/16 01:05:31  5-MIN KABI 060705Z 30017G25KT 10SM CLR 04/M07 A3027 1470 44 600 290/17G25 RMK AO2 T00441067
13962KABI ABI20160206011011002/06/16 01:10:31  5-MIN KABI 060710Z 30017G24KT 10SM CLR 04/M07 A3027 1470 44 600 290/17G24 RMK AO2 T00441067
13962KABI ABI20160206011511002/06/16 01:15:31  5-MIN KABI 060715Z 30015G24KT 10SM CLR 04/M07 A3027 1470 44 600 300/15G24 RMK AO2 T00441067
13962KABI ABI20160206012011002/06/16 01:20:31  5-MIN KABI 060720Z 30015G24KT 10SM CLR 04/M07 A3027 1470 44 600 300/15G24 RMK AO2 T00441067
13962KABI ABI20160206012511002/06/16 01:25:31  5-MIN KABI 060725Z 31014G23KT 10SM CLR 04/M07 A3027 1470 44 600 300/14G23 RMK AO2 T00441067
13962KABI ABI20160206013011002/06/16 01:30:31  5-MIN KABI 060730Z 30017G23KT 10SM CLR 04/M07 A3027 1470 44 600 300/17G23 RMK AO2 T00441067
13962KABI ABI20160206013510402/06/16 01:35:31  5-MIN KABI 060735Z 30018KT 10SM CLR 04/M07 A3027 1470 44 600 300/18 RMK AO2 T00441067
13962KABI ABI20160206014011002/06/16 01:40:31  5-MIN KABI 060740Z 31017G23KT 10SM CLR 04/M06 A3027 1470 46 600 300/17G23 RMK AO2 T00441061
13962KABI ABI20160206014511002/06/16 01:45:31  5-MIN KABI 060745Z 30017G24KT 10SM CLR 04/M06 A3027 1470 46 600 300/17G24 RMK AO2 T00441061
13962KABI ABI20160206015011702/06/16 01:50:31  5-MIN KABI 060750Z 30016G24KT 10SM CLR 04/M06 A3028 1470 46 600 300/16G24 RMK AO2 SLP249 T00441061
13962KABI ABI20160206015511002/06/16 01:55:31  5-MIN KABI 060755Z 30018G24KT 10SM CLR 04/M06 A3028 1460 46 600 290/18G24 RMK AO2 T00441061
13962KABI ABI20160206020011002/06/16 02:00:31  5-MIN KABI 060800Z 30015G24KT 10SM CLR 04/M06 A3028 1460 46 600 290/15G24 RMK AO2 T00441061
13962KABI ABI20160206020510402/06/16 02:05:31  5-MIN KABI 060805Z 30014KT 10SM CLR 04/M06 A3028 1460 48 500 290/14 RMK AO2 T00391061
13962KABI ABI20160206021011002/06/16 02:10:31  5-MIN KABI 060810Z 30016G22KT 10SM CLR 04/M06 A3028 1460 48 500 300/16G22 RMK AO2 T00391061
13962KABI ABI20160206021511002/06/16 02:15:31  5-MIN KABI 060815Z 30015G22KT 10SM CLR 04/M06 A3028 1460 48 500 300/15G22 RMK AO2 T00391061
13962KABI ABI20160206022010402/06/16 02:20:31  5-MIN KABI 060820Z 30015KT 10SM CLR 04/M06 A3029 1460 48 500 300/15 RMK AO2 T00391061
13962KABI ABI20160206022510402/06/16 02:25:31  5-MIN KABI 060825Z 30015KT 10SM CLR 04/M06 A3029 1450 48 500 300/15 RMK AO2 T00391061
13962KABI ABI20160206023010402/06/16 02:30:31  5-MIN KABI 060830Z 30015KT 10SM CLR 04/M06 A3029 1450 48 500 300/15 RMK AO2 T00391061
13962KABI ABI20160206023510402/06/16 02:35:31  5-MIN KABI 060835Z 31017KT 10SM CLR 04/M06 A3030 1450 46 600 300/17 RMK AO2 T00441061
13962KABI ABI20160206024011002/06/16 02:40:31  5-MIN KABI 060840Z 31016G24KT 10SM CLR 04/M06 A3030 1440 50 500 300/16G24 RMK AO2 T00391056
13962KABI ABI20160206024511002/06/16 02:45:31  5-MIN KABI 060845Z 31016G24KT 10SM CLR 04/M06 A3030 1440 50 500 300/16G24 RMK AO2 T00391056
13962KABI ABI20160206025011702/06/16 02:50:31  5-MIN KABI 060850Z 31015KT 10SM CLR 04/M06 A3030 1440 50 500 300/15 RMK AO2 SLP257 T00391056 51016
13962KABI ABI20160206025511002/06/16 02:55:31  5-MIN KABI 060855Z 30017G23KT 10SM CLR 04/M06 A3030 1440 50 500 290/17G23 RMK AO2 T00391056
13962KABI ABI20160206030011002/06/16 03:00:31  5-MIN KABI 060900Z 30016G23KT 10SM CLR 04/M06 A3030 1440 48 500 300/16G23 RMK AO2 T00391061
13962KABI ABI20160206030510402/06/16 03:05:31  5-MIN KABI 060905Z 30014KT 10SM CLR 04/M06 A3031 1440 50 500 300/14 RMK AO2 T00391056
13962KABI ABI20160206031010402/06/16 03:10:31  5-MIN KABI 060910Z 30015KT 10SM CLR 04/M06 A3030 1440 50 500 300/15 RMK AO2 T00391056
13962KABI ABI20160206031510402/06/16 03:15:31  5-MIN KABI 060915Z 31015KT 10SM CLR 03/M06 A3030 1440 52 400 300/15 RMK AO2 T00331056
13962KABI ABI20160206032010402/06/16 03:20:31  5-MIN KABI 060920Z 31016KT 10SM CLR 04/M06 A3030 1440 50 500 300/16 RMK AO2 T00391056
13962KABI ABI20160206032510402/06/16 03:25:31  5-MIN KABI 060925Z 31016KT 10SM CLR 03/M06 A3030 1440 52 400 310/16 RMK AO2 T00331056
13962KABI ABI20160206033011002/06/16 03:30:31  5-MIN KABI 060930Z 31019G24KT 10SM CLR 04/M06 A3030 1440 50 500 310/19G24 RMK AO2 T00391056
13962KABI ABI20160206033511002/06/16 03:35:31  5-MIN KABI 060935Z 32014G24KT 10SM CLR 04/M06 A3031 1440 50 500 310/14G24 RMK AO2 T00391056
13962KABI ABI20160206034010402/06/16 03:40:31  5-MIN KABI 060940Z 31015KT 10SM CLR 03/M06 A3031 1430 52 400 310/15 RMK AO2 T00331056
13962KABI ABI20160206034510402/06/16 03:45:31  5-MIN KABI 060945Z 31017KT 10SM CLR 03/M06 A3031 1430 52 400 310/17 RMK AO2 T00331056
13962KABI ABI20160206035011102/06/16 03:50:31  5-MIN KABI 060950Z 31015KT 10SM CLR 03/M06 A3031 1430 52 400 310/15 RMK AO2 SLP261 T00331056
13962KABI ABI20160206035510402/06/16 03:55:31  5-MIN KABI 060955Z 32017KT 10SM CLR 03/M06 A3031 1430 52 400 310/17 RMK AO2 T00331056
13962KABI ABI20160206040011002/06/16 04:00:31  5-MIN KABI 061000Z 32017G23KT 10SM CLR 03/M06 A3031 1430 52 400 310/17G23 RMK AO2 T00331056
13962KABI ABI20160206040511002/06/16 04:05:31  5-MIN KABI 061005Z 32016G24KT 10SM CLR 03/M06 A3031 1430 52 400 310/16G24 RMK AO2 T00331056
13962KABI ABI20160206041011002/06/16 04:10:31  5-MIN KABI 061010Z 31016G24KT 10SM CLR 03/M06 A3031 1430 52 400 310/16G24 RMK AO2 T00331056
13962KABI ABI20160206133510502/06/16 13:35:31  5-MIN KABI 061935Z 36012KT 10SM CLR 11/M06 A3038 1370 30 1300 350/12 RMK AO2 T01111056
13962KABI ABI20160206134011102/06/16 13:40:31  5-MIN KABI 061940Z VRB06G16KT 10SM CLR 11/M06 A3038 1370 30 1300 VRB/06G16 RMK AO2 T01111056
13962KABI ABI20160206134510502/06/16 13:45:31  5-MIN KABI 061945Z 35013KT 10SM CLR 12/M06 A3038 1370 29 1300 350/13 RMK AO2 T01171056
13962KABI ABI20160206135011802/06/16 13:50:31  5-MIN KABI 061950Z 29007G15KT 10SM CLR 11/M06 A3037 1380 30 1300 290/07G15 RMK AO2 SLP284 T01111056
13962KABI ABI20160206135512102/06/16 13:55:31  5-MIN KABI 061955Z 02010KT 350V050 10SM CLR 11/M06 A3037 1380 30 1300 010/10 350V050 RMK AO2 T01111056
13962KABI ABI20160206140010502/06/16 14:00:31  5-MIN KABI 062000Z 36010KT 10SM CLR 12/M06 A3037 1380 29 1400 350/10 RMK AO2 T01171056
13962KABI ABI20160206140510502/06/16 14:05:31  5-MIN KABI 062005Z 34008KT 10SM CLR 11/M06 A3036 1380 29 1300 340/08 RMK AO2 T01111061
13962KABI ABI20160206141010502/06/16 14:10:31  5-MIN KABI 062010Z 36008KT 10SM CLR 12/M06 A3036 1380 29 1400 350/08 RMK AO2 T01171056
13962KABI ABI20160206141510502/06/16 14:15:31  5-MIN KABI 062015Z 36010KT 10SM CLR 12/M06 A3036 1390 27 1400 360/10 RMK AO2 T01221061
13962KABI ABI20160206142010502/06/16 14:20:31  5-MIN KABI 062020Z 36009KT 10SM CLR 12/M06 A3036 1390 27 1400 360/09 RMK AO2 T01221061
13962KABI ABI20160206142510502/06/16 14:25:31  5-MIN KABI 062025Z 32007KT 10SM CLR 12/M06 A3036 1390 28 1400 310/07 RMK AO2 T01171061
13962KABI ABI20160206143010502/06/16 14:30:31  5-MIN KABI 062030Z 35008KT 10SM CLR 12/M06 A3036 1390 27 1400 340/08 RMK AO2 T01221061
13962KABI ABI20160206143512102/06/16 14:35:31  5-MIN KABI 062035Z 33007KT 310V030 10SM CLR 12/M06 A3036 1390 28 1400 330/07 310V030 RMK AO2 T01171061
13962KABI ABI20160206144010502/06/16 14:40:31  5-MIN KABI 062040Z 32008KT 10SM CLR 13/M06 A3036 1390 26 1500 320/08 RMK AO2 T01281061
13962KABI ABI20160206144510502/06/16 14:45:31  5-MIN KABI 062045Z 33011KT 10SM CLR 12/M06 A3036 1390 27 1400 330/11 RMK AO2 T01221061
13962KABI ABI20160206145011802/06/16 14:50:31  5-MIN KABI 062050Z 36011KT 10SM CLR 12/M07 A3036 1390 26 1400 350/11 RMK AO2 SLP277 T01221067 50012
13962KABI ABI20160206145510502/06/16 14:55:31  5-MIN KABI 062055Z 02006KT 10SM CLR 12/M07 A3036 1390 26 1400 010/06 RMK AO2 T01221067
13962KABI ABI20160206150010502/06/16 15:00:31  5-MIN KABI 062100Z VRB03KT 10SM CLR 12/M07 A3036 1390 26 1400 VRB/03 RMK AO2 T01221067
13962KABI ABI20160206150510502/06/16 15:05:31  5-MIN KABI 062105Z 33010KT 10SM CLR 13/M07 A3036 1390 25 1500 320/10 RMK AO2 T01281067
13962KABI ABI20160206151010502/06/16 15:10:31  5-MIN KABI 062110Z 35008KT 10SM CLR 13/M08 A3036 1390 23 1500 340/08 RMK AO2 T01281078
13962KABI ABI20160206151510502/06/16 15:15:31  5-MIN KABI 062115Z 33010KT 10SM CLR 13/M08 A3036 1390 23 1500 320/10 RMK AO2 T01281078
13962KABI ABI20160206152010502/06/16 15:20:31  5-MIN KABI 062120Z VRB04KT 10SM CLR 12/M07 A3036 1390 25 1400 VRB/04 RMK AO2 T01221072
13962KABI ABI20160206152509502/06/16 15:25:31  5-MIN KABI 062125Z 10SM CLR 12/M07 A3036 1390 25 1400 M /M RMK AO2 T01221072
13962KABI ABI20160206153010502/06/16 15:30:31  5-MIN KABI 062130Z 34010KT 10SM CLR 13/M08 A3035 1390 23 1500 330/10 RMK AO2 T01281078
13962KABI ABI20160206153510502/06/16 15:35:31  5-MIN KABI 062135Z 32010KT 10SM CLR 13/M08 A3035 1400 23 1500 310/10 RMK AO2 T01281078
13962KABI ABI20160206154010502/06/16 15:40:31  5-MIN KABI 062140Z 35012KT 10SM CLR 13/M07 A3035 1400 24 1500 340/12 RMK AO2 T01281072
13962KABI ABI20160206154510502/06/16 15:45:31  5-MIN KABI 062145Z 35009KT 10SM CLR 13/M08 A3035 1400 23 1500 350/09 RMK AO2 T01281078
13962KABI ABI20160206155011202/06/16 15:50:31  5-MIN KABI 062150Z 33007KT 10SM CLR 13/M07 A3035 1400 23 1600 330/07 RMK AO2 SLP274 T01331072
13962KABI ABI20160206155510502/06/16 15:55:31  5-MIN KABI 062155Z 31007KT 10SM CLR 12/M08 A3035 1400 24 1400 310/07 RMK AO2 T01221078
13962KABI ABI20160206160010502/06/16 16:00:31  5-MIN KABI 062200Z 31006KT 10SM CLR 12/M08 A3035 1400 24 1400 300/06 RMK AO2 T01221078
13962KABI ABI20160206160510502/06/16 16:05:31  5-MIN KABI 062205Z 30006KT 10SM CLR 12/M07 A3035 1400 25 1400 300/06 RMK AO2 T01221072
13962KABI ABI20160206161010502/06/16 16:10:31  5-MIN KABI 062210Z 29005KT 10SM CLR 12/M08 A3035 1400 24 1400 290/05 RMK AO2 T01221078
13962KABI ABI20160206161510502/06/16 16:15:31  5-MIN KABI 062215Z 33007KT 10SM CLR 13/M08 A3034 1400 23 1500 320/07 RMK AO2 T01281078
13962KABI ABI20160206162010502/06/16 16:20:31  5-MIN KABI 062220Z 32008KT 10SM CLR 13/M08 A3034 1400 22 1500 320/08 RMK AO2 T01281083
13962KABI ABI20160206162510502/06/16 16:25:31  5-MIN KABI 062225Z 36006KT 10SM CLR 12/M08 A3035 1400 23 1400 350/06 RMK AO2 T01221083
13962KABI ABI20160206163010502/06/16 16:30:31  5-MIN KABI 062230Z 33003KT 10SM CLR 13/M08 A3035 1400 22 1500 320/03 RMK AO2 T01281083
13962KABI ABI20160206163510502/06/16 16:35:31  5-MIN KABI 062235Z 33006KT 10SM CLR 13/M08 A3035 1400 22 1500 330/06 RMK AO2 T01281083
13962KABI ABI20160206164010502/06/16 16:40:31  5-MIN KABI 062240Z 33008KT 10SM CLR 12/M08 A3034 1400 23 1400 320/08 RMK AO2 T01221083
13962KABI ABI20160206164510502/06/16 16:45:31  5-MIN KABI 062245Z 31007KT 10SM CLR 12/M09 A3034 1400 22 1400 300/07 RMK AO2 T01221089
13962KABI ABI20160206165011202/06/16 16:50:31  5-MIN KABI 062250Z 34007KT 10SM CLR 12/M08 A3034 1400 23 1400 330/07 RMK AO2 SLP274 T01221083
13962KABI ABI20160206165510502/06/16 16:55:31  5-MIN KABI 062255Z 31004KT 10SM CLR 12/M08 A3034 1410 23 1400 300/04 RMK AO2 T01221083
13962KABI ABI20160206170010502/06/16 17:00:31  5-MIN KABI 062300Z 34004KT 10SM CLR 12/M09 A3033 1410 22 1500 330/04 RMK AO2 T01221089
13962KABI ABI20160206170510502/06/16 17:05:31  5-MIN KABI 062305Z 35005KT 10SM CLR 12/M08 A3033 1420 23 1500 340/05 RMK AO2 T01221083
13962KABI ABI20160206171010502/06/16 17:10:31  5-MIN KABI 062310Z VRB03KT 10SM CLR 13/M08 A3033 1420 22 1500 VRB/03 RMK AO2 T01281083
13962KABI ABI20160206171510502/06/16 17:15:31  5-MIN KABI 062315Z 00000KT 10SM CLR 12/M09 A3033 1420 22 1500 000/00 RMK AO2 T01221089
13962KABI ABI20160206172010502/06/16 17:20:31  5-MIN KABI 062320Z 34004KT 10SM CLR 13/M08 A3032 1420 22 1500 330/04 RMK AO2 T01281083
13962KABI ABI20160206172510502/06/16 17:25:31  5-MIN KABI 062325Z 02003KT 10SM CLR 12/M09 A3032 1420 22 1500 010/03 RMK AO2 T01221089
13962KABI ABI20160206173010502/06/16 17:30:31  5-MIN KABI 062330Z VRB03KT 10SM CLR 12/M09 A3032 1430 21 1500 VRB/03 RMK AO2 T01221094
13962KABI ABI20160206173510502/06/16 17:35:31  5-MIN KABI 062335Z 32004KT 10SM CLR 12/M09 A3032 1430 22 1500 320/04 RMK AO2 T01221089
13962KABI ABI20160206174010502/06/16 17:40:31  5-MIN KABI 062340Z 00000KT 10SM CLR 12/M09 A3032 1430 23 1400 000/00 RMK AO2 T01171089
13962KABI ABI20160206174510502/06/16 17:45:31  5-MIN KABI 062345Z 04003KT 10SM CLR 12/M09 A3032 1430 23 1400 030/03 RMK AO2 T01171089
13962KABI ABI20160206175013002/06/16 17:50:31  5-MIN KABI 062350Z 00000KT 10SM CLR 12/M09 A3032 1430 22 1400 000/00 RMK AO2 SLP266 T01171094 10133 20089 56026
13962KABI ABI20160206175510502/06/16 17:55:31  5-MIN KABI 062355Z 07003KT 10SM CLR 12/M09 A3031 1430 22 1400 070/03 RMK AO2 T01171094
13962KABI ABI20160206180010502/06/16 18:00:31  5-MIN KABI 070000Z 09003KT 10SM CLR 11/M09 A3031 1430 23 1300 080/03 RMK AO2 T01111089
13962KABI ABI20160206180510502/06/16 18:05:31  5-MIN KABI 070005Z 10004KT 10SM CLR 11/M09 A3031 1430 24 1300 090/04 RMK AO2 T01061089
13962KABI ABI20160206181010502/06/16 18:10:31  5-MIN KABI 070010Z 12004KT 10SM CLR 11/M08 A3031 1430 25 1300 120/04 RMK AO2 T01061083
13962KABI ABI20160206181510502/06/16 18:15:31  5-MIN KABI 070015Z 10004KT 10SM CLR 10/M08 A3031 1430 26 1200 100/04 RMK AO2 T01001083
13962KABI ABI20160206182010502/06/16 18:20:31  5-MIN KABI 070020Z 10004KT 10SM CLR 10/M08 A3031 1440 26 1200 090/04 RMK AO2 T01001083
13962KABI ABI20160206182510502/06/16 18:25:31  5-MIN KABI 070025Z 11006KT 10SM CLR 09/M08 A3030 1440 27 1200 100/06 RMK AO2 T00941083
13962KABI ABI20160206183010502/06/16 18:30:31  5-MIN KABI 070030Z 10005KT 10SM CLR 09/M08 A3030 1440 29 1200 100/05 RMK AO2 T00941078
13962KABI ABI20160206183510502/06/16 18:35:31  5-MIN KABI 070035Z 11005KT 10SM CLR 09/M08 A3031 1440 30 1100 100/05 RMK AO2 T00891078
13962KABI ABI20160206184010502/06/16 18:40:31  5-MIN KABI 070040Z 11005KT 10SM CLR 09/M07 A3031 1430 31 1100 110/05 RMK AO2 T00891072
13962KABI ABI20160206184510502/06/16 18:45:31  5-MIN KABI 070045Z 13004KT 10SM CLR 08/M07 A3031 1430 32 1000 120/04 RMK AO2 T00831072
13962KABI ABI20160206185011202/06/16 18:50:31  5-MIN KABI 070050Z 12007KT 10SM CLR 08/M07 A3030 1440 32 1000 110/07 RMK AO2 SLP263 T00831072
13962KABI ABI20160206185510402/06/16 18:55:31  5-MIN KABI 070055Z 12005KT 10SM CLR 08/M07 A3031 1430 34 900 110/05 RMK AO2 T00781072
13962KABI ABI20160206190010402/06/16 19:00:31  5-MIN KABI 070100Z 11006KT 10SM CLR 08/M07 A3031 1430 34 900 100/06 RMK AO2 T00781072
13962KABI ABI20160206190510502/06/16 19:05:31  5-MIN KABI 070105Z 12007KT 10SM CLR 08/M07 A3031 1440 34 1000 110/07 RMK AO2 T00781072
13962KABI ABI20160206191010402/06/16 19:10:31  5-MIN KABI 070110Z 11007KT 10SM CLR 07/M07 A3030 1440 35 900 100/07 RMK AO2 T00721072
13962KABI ABI20160206191510402/06/16 19:15:31  5-MIN KABI 070115Z 11008KT 10SM CLR 07/M07 A3030 1440 35 900 100/08 RMK AO2 T00721072
13962KABI ABI20160206192010402/06/16 19:20:31  5-MIN KABI 070120Z 12008KT 10SM CLR 06/M07 A3030 1450 38 800 110/08 RMK AO2 T00611072
13962KABI ABI20160206192510402/06/16 19:25:31  5-MIN KABI 070125Z 12008KT 10SM CLR 06/M07 A3030 1440 38 800 110/08 RMK AO2 T00611072
13962KABI ABI20160206193010402/06/16 19:30:31  5-MIN KABI 070130Z 12007KT 10SM CLR 06/M07 A3030 1440 39 700 110/07 RMK AO2 T00561072
13962KABI ABI20160206193510402/06/16 19:35:31  5-MIN KABI 070135Z 12007KT 10SM CLR 06/M07 A3030 1440 41 700 120/07 RMK AO2 T00561067
13962KABI ABI20160206194010402/06/16 19:40:31  5-MIN KABI 070140Z 12006KT 10SM CLR 06/M07 A3030 1440 41 700 110/06 RMK AO2 T00561067
13962KABI ABI20160206194510402/06/16 19:45:31  5-MIN KABI 070145Z 14006KT 10SM CLR 05/M07 A3030 1440 41 600 130/06 RMK AO2 T00501072
13962KABI ABI20160206195011102/06/16 19:50:31  5-MIN KABI 070150Z 13007KT 10SM CLR 04/M07 A3030 1440 44 500 130/07 RMK AO2 SLP267 T00391072
13962KABI ABI20160206195510402/06/16 19:55:31  5-MIN KABI 070155Z 14007KT 10SM CLR 04/M07 A3030 1440 44 500 130/07 RMK AO2 T00391072
13962KABI ABI20160206200010402/06/16 20:00:31  5-MIN KABI 070200Z 15006KT 10SM CLR 04/M07 A3030 1440 44 500 150/06 RMK AO2 T00391072
13962KABI ABI20160206200510402/06/16 20:05:31  5-MIN KABI 070205Z 15007KT 10SM CLR 03/M07 A3030 1440 46 400 150/07 RMK AO2 T00331072
13962KABI ABI20160206201010402/06/16 20:10:31  5-MIN KABI 070210Z 15007KT 10SM CLR 04/M07 A3031 1440 44 500 140/07 RMK AO2 T00391072
13962KABI ABI20160206201510402/06/16 20:15:31  5-MIN KABI 070215Z 15006KT 10SM CLR 04/M07 A3031 1440 44 500 140/06 RMK AO2 T00391072
13962KABI ABI20160206202010402/06/16 20:20:31  5-MIN KABI 070220Z 17007KT 10SM CLR 03/M07 A3031 1430 46 400 160/07 RMK AO2 T00331072
13962KABI ABI20160206202510402/06/16 20:25:31  5-MIN KABI 070225Z 16007KT 10SM CLR 03/M07 A3031 1440 48 300 160/07 RMK AO2 T00281072
13962KABI ABI20160206203010402/06/16 20:30:31  5-MIN KABI 070230Z 15007KT 10SM CLR 03/M07 A3031 1440 46 400 150/07 RMK AO2 T00331072
13962KABI ABI20160206203510402/06/16 20:35:31  5-MIN KABI 070235Z 16008KT 10SM CLR 03/M07 A3031 1440 46 400 150/08 RMK AO2 T00331072
13962KABI ABI20160206204010402/06/16 20:40:31  5-MIN KABI 070240Z 16008KT 10SM CLR 03/M07 A3031 1430 48 300 150/08 RMK AO2 T00281072
13962KABI ABI20160206204510402/06/16 20:45:31  5-MIN KABI 070245Z 15008KT 10SM CLR 03/M07 A3031 1430 48 300 140/08 RMK AO2 T00281072
13962KABI ABI20160206205011702/06/16 20:50:31  5-MIN KABI 070250Z 16008KT 10SM CLR 03/M07 A3031 1430 48 300 150/08 RMK AO2 SLP268 T00281072 58013
13962KABI ABI20160206205510402/06/16 20:55:31  5-MIN KABI 070255Z 15008KT 10SM CLR 02/M07 A3031 1430 50 300 150/08 RMK AO2 T00221072
13962KABI ABI20160206210010402/06/16 21:00:31  5-MIN KABI 070300Z 15009KT 10SM CLR 02/M07 A3031 1440 50 300 150/09 RMK AO2 T00221072
13962KABI ABI20160206210510402/06/16 21:05:31  5-MIN KABI 070305Z 15010KT 10SM CLR 02/M07 A3031 1440 50 300 150/10 RMK AO2 T00221072
13962KABI ABI20160206211010402/06/16 21:10:31  5-MIN KABI 070310Z 15008KT 10SM CLR 02/M07 A3031 1440 50 300 150/08 RMK AO2 T00221072
13962KABI ABI20160206211510402/06/16 21:15:31  5-MIN KABI 070315Z 15009KT 10SM CLR 02/M07 A3031 1440 50 300 140/09 RMK AO2 T00221072
13962KABI ABI20160206212010402/06/16 21:20:31  5-MIN KABI 070320Z 15008KT 10SM CLR 02/M07 A3030 1440 50 300 150/08 RMK AO2 T00221072
13962KABI ABI20160206212510402/06/16 21:25:31  5-MIN KABI 070325Z 15007KT 10SM CLR 03/M07 A3030 1440 48 400 140/07 RMK AO2 T00281072
13962KABI ABI20160206213010402/06/16 21:30:31  5-MIN KABI 070330Z 15007KT 10SM CLR 02/M07 A3030 1440 50 300 150/07 RMK AO2 T00221072
13962KABI ABI20160206213510402/06/16 21:35:31  5-MIN KABI 070335Z 15005KT 10SM CLR 02/M07 A3030 1440 50 300 150/05 RMK AO2 T00221072
13962KABI ABI20160206214010402/06/16 21:40:31  5-MIN KABI 070340Z 15007KT 10SM CLR 02/M07 A3030 1440 50 300 150/07 RMK AO2 T00221072
13962KABI ABI20160206214510402/06/16 21:45:31  5-MIN KABI 070345Z 15008KT 10SM CLR 02/M07 A3030 1440 50 300 150/08 RMK AO2 T00221072
13962KABI ABI20160206215011102/06/16 21:50:31  5-MIN KABI 070350Z 15008KT 10SM CLR 02/M07 A3030 1440 50 300 150/08 RMK AO2 SLP265 T00221072
13962KABI ABI20160206215510402/06/16 21:55:31  5-MIN KABI 070355Z 15009KT 10SM CLR 02/M07 A3030 1440 50 300 140/09 RMK AO2 T00221072
13962KABI ABI20160206220010402/06/16 22:00:31  5-MIN KABI 070400Z 15008KT 10SM CLR 02/M07 A3030 1440 50 300 150/08 RMK AO2 T00221072
13962KABI ABI20160206220510402/06/16 22:05:31  5-MIN KABI 070405Z 16007KT 10SM CLR 02/M07 A3030 1440 50 300 150/07 RMK AO2 T00221072
13962KABI ABI20160206221010402/06/16 22:10:31  5-MIN KABI 070410Z 16007KT 10SM CLR 02/M07 A3030 1440 50 300 160/07 RMK AO2 T00221072
13962KABI ABI20160206221510402/06/16 22:15:31  5-MIN KABI 070415Z 16007KT 10SM CLR 02/M07 A3031 1440 50 300 150/07 RMK AO2 T00221072
13962KABI ABI20160206222010402/06/16 22:20:31  5-MIN KABI 070420Z 16006KT 10SM CLR 02/M07 A3031 1430 50 300 160/06 RMK AO2 T00221072
13962KABI ABI20160206222510402/06/16 22:25:31  5-MIN KABI 070425Z 17005KT 10SM CLR 02/M07 A3031 1430 50 300 170/05 RMK AO2 T00221072
13962KABI ABI20160206223010402/06/16 22:30:31  5-MIN KABI 070430Z 16006KT 10SM CLR 02/M07 A3031 1430 50 300 150/06 RMK AO2 T00221072
13962KABI ABI20160206223510402/06/16 22:35:31  5-MIN KABI 070435Z 16006KT 10SM CLR 02/M07 A3031 1440 50 300 150/06 RMK AO2 T00221072
13962KABI ABI20160206224010402/06/16 22:40:31  5-MIN KABI 070440Z 16006KT 10SM CLR 02/M07 A3031 1430 50 300 160/06 RMK AO2 T00221072
13962KABI ABI20160206224510402/06/16 22:45:31  5-MIN KABI 070445Z 15007KT 10SM CLR 02/M07 A3031 1430 50 300 150/07 RMK AO2 T00221072
13962KABI ABI20160206225011102/06/16 22:50:31  5-MIN KABI 070450Z 16007KT 10SM CLR 02/M07 A3031 1440 52 200 150/07 RMK AO2 SLP264 T00171072
13962KABI ABI20160206225510402/06/16 22:55:31  5-MIN KABI 070455Z 15007KT 10SM CLR 02/M07 A3030 1440 52 200 150/07 RMK AO2 T00171072
13962KABI ABI20160206230010402/06/16 23:00:31  5-MIN KABI 070500Z 15007KT 10SM CLR 02/M07 A3030 1440 52 200 150/07 RMK AO2 T00171072
13962KABI ABI20160206230510402/06/16 23:05:31  5-MIN KABI 070505Z 15008KT 10SM CLR 02/M07 A3030 1440 50 300 140/08 RMK AO2 T00221072
13962KABI ABI20160206231010402/06/16 23:10:31  5-MIN KABI 070510Z 15008KT 10SM CLR 02/M08 A3030 1440 47 300 140/08 RMK AO2 T00221078
13962KABI ABI20160206231510402/06/16 23:15:31  5-MIN KABI 070515Z 15008KT 10SM CLR 02/M08 A3030 1440 49 200 150/08 RMK AO2 T00171078
13962KABI ABI20160206232010402/06/16 23:20:31  5-MIN KABI 070520Z 15008KT 10SM CLR 01/M08 A3030 1450 51 100 150/08 RMK AO2 T00111078
13962KABI ABI20160206232510402/06/16 23:25:31  5-MIN KABI 070525Z 15008KT 10SM CLR 01/M08 A3030 1440 51 100 150/08 RMK AO2 T00111078
13962KABI ABI20160206233010402/06/16 23:30:31  5-MIN KABI 070530Z 16008KT 10SM CLR 02/M08 A3030 1440 49 200 160/08 RMK AO2 T00171078
13962KABI ABI20160206233510402/06/16 23:35:31  5-MIN KABI 070535Z 16008KT 10SM CLR 02/M08 A3030 1440 49 200 160/08 RMK AO2 T00171078
13962KABI ABI20160206234010402/06/16 23:40:31  5-MIN KABI 070540Z 16008KT 10SM CLR 02/M08 A3031 1440 47 300 160/08 RMK AO2 T00221078
13962KABI ABI20160206234510402/06/16 23:45:31  5-MIN KABI 070545Z 17007KT 10SM CLR 02/M07 A3030 1440 52 200 160/07 RMK AO2 T00171072
13962KABI ABI20160206235013902/06/16 23:50:31  5-MIN KABI 070550Z 16008KT 10SM CLR 01/M07 A3030 1440 54 100 160/08 RMK AO2 SLP261 T00111072 10117 20011 401330006 55002
13962KABI ABI20160206235510402/06/16 23:55:31  5-MIN KABI 070555Z 15008KT 10SM CLR 02/M07 A3029 1450 52 200 150/08 RMK AO2 T00171072
13962KABI ABI20160207000010402/07/16 00:00:31  5-MIN KABI 070600Z 16009KT 10SM CLR 02/M07 A3029 1450 52 200 150/09 RMK AO2 T00171072
13962KABI ABI20160207000510402/07/16 00:05:31  5-MIN KABI 070605Z 16008KT 10SM CLR 02/M07 A3029 1450 50 300 150/08 RMK AO2 T00221072
13962KABI ABI20160207001010402/07/16 00:10:31  5-MIN KABI 070610Z 16008KT 10SM CLR 02/M07 A3029 1450 50 300 150/08 RMK AO2 T00221072
13962KABI ABI20160207001510402/07/16 00:15:31  5-MIN KABI 070615Z 16008KT 10SM CLR 02/M07 A3029 1450 50 300 160/08 RMK AO2 T00221072
13962KABI ABI20160207002010402/07/16 00:20:31  5-MIN KABI 070620Z 17007KT 10SM CLR 02/M07 A3029 1450 50 300 160/07 RMK AO2 T00221072
13962KABI ABI20160207002510402/07/16 00:25:31  5-MIN KABI 070625Z 17006KT 10SM CLR 02/M07 A3029 1460 52 200 160/06 RMK AO2 T00171072
13962KABI ABI20160207003010402/07/16 00:30:31  5-MIN KABI 070630Z 16006KT 10SM CLR 02/M07 A3028 1460 52 200 160/06 RMK AO2 T00171072
13962KABI ABI20160207003510402/07/16 00:35:31  5-MIN KABI 070635Z 16007KT 10SM CLR 02/M07 A3028 1460 52 200 150/07 RMK AO2 T00171072
13962KABI ABI20160207004010402/07/16 00:40:31  5-MIN KABI 070640Z 16007KT 10SM CLR 02/M07 A3028 1460 52 200 150/07 RMK AO2 T00171072
13962KABI ABI20160207004510402/07/16 00:45:31  5-MIN KABI 070645Z 16007KT 10SM CLR 02/M07 A3027 1470 52 200 160/07 RMK AO2 T00171072
13962KABI ABI20160207005011102/07/16 00:50:31  5-MIN KABI 070650Z 16007KT 10SM CLR 02/M07 A3027 1470 52 200 160/07 RMK AO2 SLP251 T00171072
13962KABI ABI20160207005510402/07/16 00:55:31  5-MIN KABI 070655Z 16007KT 10SM CLR 02/M07 A3027 1470 52 200 150/07 RMK AO2 T00171072
13962KABI ABI20160207010010402/07/16 01:00:31  5-MIN KABI 070700Z 18007KT 10SM CLR 02/M07 A3027 1470 52 200 170/07 RMK AO2 T00171072
13962KABI ABI20160207010510402/07/16 01:05:31  5-MIN KABI 070705Z 18006KT 10SM CLR 02/M07 A3027 1470 52 200 170/06 RMK AO2 T00171072
13962KABI ABI20160207011010402/07/16 01:10:31  5-MIN KABI 070710Z 19007KT 10SM CLR 02/M07 A3027 1470 50 300 180/07 RMK AO2 T00221072
13962KABI ABI20160207011510402/07/16 01:15:31  5-MIN KABI 070715Z 18008KT 10SM CLR 02/M07 A3027 1470 50 300 180/08 RMK AO2 T00221072
13962KABI ABI20160207012010402/07/16 01:20:31  5-MIN KABI 070720Z 17009KT 10SM CLR 02/M07 A3026 1480 50 300 160/09 RMK AO2 T00221072
13962KABI ABI20160207012510402/07/16 01:25:31  5-MIN KABI 070725Z 18008KT 10SM CLR 03/M07 A3026 1480 48 400 170/08 RMK AO2 T00281072
13962KABI ABI20160207013010402/07/16 01:30:31  5-MIN KABI 070730Z 18007KT 10SM CLR 02/M07 A3026 1480 50 300 170/07 RMK AO2 T00221072
13962KABI ABI20160207214510502/07/16 21:45:31  5-MIN KABI 080345Z 35004KT 10SM CLR 08/M03 A3028 1460 47 1000 340/04 RMK AO2 T00781028
13962KABI ABI20160207215011202/07/16 21:50:31  5-MIN KABI 080350Z 35005KT 10SM CLR 08/M03 A3029 1450 47 1000 340/05 RMK AO2 SLP253 T00781028
13962KABI ABI20160207215510402/07/16 21:55:31  5-MIN KABI 080355Z 35006KT 10SM CLR 07/M03 A3029 1450 47 900 340/06 RMK AO2 T00721033
13962KABI ABI20160207220010402/07/16 22:00:31  5-MIN KABI 080400Z 34006KT 10SM CLR 06/M03 A3029 1450 51 800 340/06 RMK AO2 T00611033
13962KABI ABI20160207220510402/07/16 22:05:31  5-MIN KABI 080405Z 35007KT 10SM CLR 06/M03 A3029 1450 51 800 340/07 RMK AO2 T00611033
13962KABI ABI20160207221010402/07/16 22:10:31  5-MIN KABI 080410Z 35007KT 10SM CLR 06/M03 A3029 1450 51 800 340/07 RMK AO2 T00611033
13962KABI ABI20160207221510402/07/16 22:15:31  5-MIN KABI 080415Z 35006KT 10SM CLR 07/M03 A3030 1450 51 800 350/06 RMK AO2 T00671028
13962KABI ABI20160207222010402/07/16 22:20:31  5-MIN KABI 080420Z 36006KT 10SM CLR 07/M03 A3030 1440 51 800 350/06 RMK AO2 T00671028
13962KABI ABI20160207222510402/07/16 22:25:31  5-MIN KABI 080425Z 35006KT 10SM CLR 07/M03 A3030 1440 51 800 350/06 RMK AO2 T00671028
13962KABI ABI20160207223010402/07/16 22:30:31  5-MIN KABI 080430Z 36006KT 10SM CLR 06/M03 A3031 1430 51 700 350/06 RMK AO2 T00611033
13962KABI ABI20160207223510402/07/16 22:35:31  5-MIN KABI 080435Z 36006KT 10SM CLR 06/M03 A3031 1430 51 700 350/06 RMK AO2 T00611033
13962KABI ABI20160207224010402/07/16 22:40:31  5-MIN KABI 080440Z 36006KT 10SM CLR 07/M03 A3031 1430 49 800 350/06 RMK AO2 T00671033
13962KABI ABI20160207224510402/07/16 22:45:31  5-MIN KABI 080445Z 36007KT 10SM CLR 07/M03 A3032 1430 49 800 350/07 RMK AO2 T00671033
13962KABI ABI20160207225011102/07/16 22:50:31  5-MIN KABI 080450Z 35006KT 10SM CLR 06/M03 A3032 1420 51 700 350/06 RMK AO2 SLP264 T00611033
13962KABI ABI20160207225510402/07/16 22:55:31  5-MIN KABI 080455Z 35006KT 10SM CLR 06/M03 A3033 1420 53 700 350/06 RMK AO2 T00561033
13962KABI ABI20160207230010402/07/16 23:00:31  5-MIN KABI 080500Z 36006KT 10SM CLR 06/M03 A3033 1420 51 700 350/06 RMK AO2 T00611033
13962KABI ABI20160207230510402/07/16 23:05:31  5-MIN KABI 080505Z 36006KT 10SM CLR 06/M03 A3033 1410 53 700 350/06 RMK AO2 T00561033
13962KABI ABI20160207231010402/07/16 23:10:31  5-MIN KABI 080510Z 36006KT 10SM CLR 06/M03 A3033 1420 53 700 360/06 RMK AO2 T00561033
13962KABI ABI20160207231510402/07/16 23:15:31  5-MIN KABI 080515Z 36006KT 10SM CLR 06/M03 A3033 1410 51 700 350/06 RMK AO2 T00611033
13962KABI ABI20160207232010402/07/16 23:20:31  5-MIN KABI 080520Z 35011KT 10SM CLR 06/M03 A3035 1400 53 600 350/11 RMK AO2 T00561033
13962KABI ABI20160207232510402/07/16 23:25:31  5-MIN KABI 080525Z 36012KT 10SM CLR 05/M03 A3035 1400 57 600 350/12 RMK AO2 T00501028
13962KABI ABI20160207233010402/07/16 23:30:31  5-MIN KABI 080530Z 36013KT 10SM CLR 06/M03 A3035 1400 55 600 360/13 RMK AO2 T00561028
13962KABI ABI20160207233510402/07/16 23:35:31  5-MIN KABI 080535Z 01011KT 10SM CLR 06/M02 A3035 1400 55 700 360/11 RMK AO2 T00611022
13962KABI ABI20160207234010402/07/16 23:40:31  5-MIN KABI 080540Z 01011KT 10SM CLR 06/M03 A3035 1400 53 700 360/11 RMK AO2 T00611028
13962KABI ABI20160207234510402/07/16 23:45:31  5-MIN KABI 080545Z 01010KT 10SM CLR 06/M03 A3035 1400 55 600 010/10 RMK AO2 T00561028
13962KABI ABI20160207235008402/07/16 23:50:31  5-MIN KABI 080550Z AUTO 01010KT M M M 010/10 RMK AO2 TSNO RVRNO $
13962KABI ABI20160207235511302/07/16 23:55:31  5-MIN KABI 080555Z AUTO 01011KT 05/M03 A3035 1390 57 600 360/11 RMK AO2 T00501028 TSNO RVRNO $
13962KABI ABI20160208000010202/08/16 00:00:31  5-MIN KABI 080600Z 01010KT 10SM 05/M03 A3036 1390 55 600 010/10 RMK AO2 T00501033 $
13962KABI ABI20160208000510202/08/16 00:05:31  5-MIN KABI 080605Z 01011KT 10SM 05/M03 A3036 1390 55 600 010/11 RMK AO2 T00501033 $
13962KABI ABI20160208001010202/08/16 00:10:31  5-MIN KABI 080610Z 01010KT 10SM 05/M03 A3036 1390 55 600 010/10 RMK AO2 T00501033 $
13962KABI ABI20160208001510202/08/16 00:15:31  5-MIN KABI 080615Z 01008KT 10SM 05/M04 A3036 1390 52 600 010/08 RMK AO2 T00501039 $
13962KABI ABI20160208002010602/08/16 00:20:31  5-MIN KABI 080620Z 01008KT 10SM CLR 05/M04 A3036 1390 52 600 010/08 RMK AO2 T00501039 $
13962KABI ABI20160208002510602/08/16 00:25:31  5-MIN KABI 080625Z 01007KT 10SM CLR 05/M04 A3036 1390 52 600 010/07 RMK AO2 T00501039 $
13962KABI ABI20160208003010602/08/16 00:30:31  5-MIN KABI 080630Z 01009KT 10SM CLR 05/M04 A3037 1380 52 500 010/09 RMK AO2 T00501039 $
13962KABI ABI20160208003510602/08/16 00:35:31  5-MIN KABI 080635Z 01010KT 10SM CLR 05/M04 A3036 1380 50 500 010/10 RMK AO2 T00501044 $
13962KABI ABI20160208004010602/08/16 00:40:31  5-MIN KABI 080640Z 01010KT 10SM CLR 05/M04 A3036 1390 50 600 360/10 RMK AO2 T00501044 $
13962KABI ABI20160208004510602/08/16 00:45:31  5-MIN KABI 080645Z 01010KT 10SM CLR 05/M04 A3036 1390 50 600 360/10 RMK AO2 T00501044 $
13962KABI ABI20160208005011302/08/16 00:50:31  5-MIN KABI 080650Z 01010KT 10SM CLR 05/M04 A3036 1390 50 600 010/10 RMK AO2 SLP274 T00501044 $
13962KABI ABI20160208005510602/08/16 00:55:31  5-MIN KABI 080655Z 01010KT 10SM CLR 05/M05 A3036 1390 48 600 360/10 RMK AO2 T00501050 $
13962KABI ABI20160208010010602/08/16 01:00:31  5-MIN KABI 080700Z 01010KT 10SM CLR 05/M05 A3036 1390 48 600 360/10 RMK AO2 T00501050 $
13962KABI ABI20160208010510602/08/16 01:05:31  5-MIN KABI 080705Z 01009KT 10SM CLR 05/M05 A3036 1390 48 600 360/09 RMK AO2 T00501050 $
13962KABI ABI20160208011010602/08/16 01:10:31  5-MIN KABI 080710Z 36008KT 10SM CLR 05/M05 A3036 1390 48 600 360/08 RMK AO2 T00501050 $
13962KABI ABI20160208011510602/08/16 01:15:31  5-MIN KABI 080715Z 36008KT 10SM CLR 05/M06 A3036 1390 46 600 360/08 RMK AO2 T00501056 $
13962KABI ABI20160208012010602/08/16 01:20:31  5-MIN KABI 080720Z 36008KT 10SM CLR 04/M06 A3036 1390 48 500 360/08 RMK AO2 T00441056 $
13962KABI ABI20160208012510602/08/16 01:25:31  5-MIN KABI 080725Z 01009KT 10SM CLR 04/M06 A3036 1390 48 500 360/09 RMK AO2 T00441056 $
13962KABI ABI20160208013010602/08/16 01:30:31  5-MIN KABI 080730Z 36008KT 10SM CLR 04/M06 A3036 1390 46 500 360/08 RMK AO2 T00441061 $
13962KABI ABI20160208013510602/08/16 01:35:31  5-MIN KABI 080735Z 36008KT 10SM CLR 04/M06 A3036 1390 46 500 360/08 RMK AO2 T00441061 $
13962KABI ABI20160208014010602/08/16 01:40:31  5-MIN KABI 080740Z 36008KT 10SM CLR 04/M06 A3036 1390 48 500 360/08 RMK AO2 T00441056 $
13962KABI ABI20160208014510602/08/16 01:45:31  5-MIN KABI 080745Z 36007KT 10SM CLR 04/M06 A3036 1390 50 400 360/07 RMK AO2 T00391056 $
13962KABI ABI20160208015011302/08/16 01:50:31  5-MIN KABI 080750Z 36007KT 10SM CLR 04/M06 A3037 1380 50 400 350/07 RMK AO2 SLP278 T00391056 $
13962KABI ABI20160208015510602/08/16 01:55:31  5-MIN KABI 080755Z 36006KT 10SM CLR 03/M06 A3037 1380 52 300 360/06 RMK AO2 T00331056 $
13962KABI ABI20160208020010602/08/16 02:00:31  5-MIN KABI 080800Z 36007KT 10SM CLR 03/M06 A3037 1380 52 300 360/07 RMK AO2 T00331056 $
13962KABI ABI20160208020510602/08/16 02:05:31  5-MIN KABI 080805Z 36006KT 10SM CLR 03/M06 A3037 1380 52 300 350/06 RMK AO2 T00331056 $
13962KABI ABI20160208021010602/08/16 02:10:31  5-MIN KABI 080810Z 36007KT 10SM CLR 03/M06 A3037 1380 52 300 350/07 RMK AO2 T00281061 $
13962KABI ABI20160208021510602/08/16 02:15:31  5-MIN KABI 080815Z 36007KT 10SM CLR 03/M06 A3038 1370 52 300 350/07 RMK AO2 T00281061 $
13962KABI ABI20160208022010602/08/16 02:20:31  5-MIN KABI 080820Z 36007KT 10SM CLR 03/M06 A3037 1380 52 300 350/07 RMK AO2 T00281061 $
13962KABI ABI20160208022510602/08/16 02:25:31  5-MIN KABI 080825Z 36007KT 10SM CLR 03/M06 A3038 1370 54 300 350/07 RMK AO2 T00281056 $
13962KABI ABI20160208023010602/08/16 02:30:31  5-MIN KABI 080830Z 36007KT 10SM CLR 02/M06 A3037 1380 56 200 350/07 RMK AO2 T00221056 $
13962KABI ABI20160208023510602/08/16 02:35:31  5-MIN KABI 080835Z 36008KT 10SM CLR 02/M06 A3038 1370 56 200 350/08 RMK AO2 T00221056 $
13962KABI ABI20160208024010602/08/16 02:40:31  5-MIN KABI 080840Z 35008KT 10SM CLR 02/M05 A3038 1370 59 200 350/08 RMK AO2 T00221050 $
13962KABI ABI20160208024510602/08/16 02:45:31  5-MIN KABI 080845Z 35008KT 10SM CLR 02/M05 A3038 1370 61 100 350/08 RMK AO2 T00171050 $
13962KABI ABI20160208025011302/08/16 02:50:31  5-MIN KABI 080850Z 35007KT 10SM CLR 02/M05 A3038 1370 61 100 350/07 RMK AO2 SLP283 T00171050 $
13962KABI ABI20160208025510602/08/16 02:55:31  5-MIN KABI 080855Z 35007KT 10SM CLR 02/M05 A3038 1370 61 100 340/07 RMK AO2 T00171050 $
13962KABI ABI20160208030010602/08/16 03:00:31  5-MIN KABI 080900Z 34007KT 10SM CLR 01/M05 A3038 1370 64 100 330/07 RMK AO2 T00111050 $
13962KABI ABI20160208030510402/08/16 03:05:31  5-MIN KABI 080905Z 34008KT 10SM CLR 01/M04 A3038 1370 69 0 340/08 RMK AO2 T00061044 $
13962KABI ABI20160208031010602/08/16 03:10:31  5-MIN KABI 080910Z 35009KT 10SM CLR 01/M05 A3038 1370 64 100 340/09 RMK AO2 T00111050 $
13962KABI ABI20160208031510602/08/16 03:15:31  5-MIN KABI 080915Z 35009KT 10SM CLR 01/M06 A3038 1370 61 100 340/09 RMK AO2 T00111056 $
13962KABI ABI20160208032010602/08/16 03:20:31  5-MIN KABI 080920Z 34009KT 10SM CLR 01/M06 A3038 1370 58 100 340/09 RMK AO2 T00111061 $
13962KABI ABI20160208032510602/08/16 03:25:31  5-MIN KABI 080925Z 34008KT 10SM CLR 01/M06 A3038 1370 58 100 340/08 RMK AO2 T00111061 $
13962KABI ABI20160208033010402/08/16 03:30:31  5-MIN KABI 080930Z 34007KT 10SM CLR 01/M07 A3038 1370 58 0 330/07 RMK AO2 T00061067 $
13962KABI ABI20160208033510402/08/16 03:35:31  5-MIN KABI 080935Z 34008KT 10SM CLR 01/M07 A3038 1370 58 0 330/08 RMK AO2 T00061067 $
13962KABI ABI20160208034010402/08/16 03:40:31  5-MIN KABI 080940Z 34008KT 10SM CLR 01/M07 A3038 1370 58 0 330/08 RMK AO2 T00061067 $
13962KABI ABI20160208034510402/08/16 03:45:31  5-MIN KABI 080945Z 33007KT 10SM CLR 01/M07 A3038 1370 58 0 330/07 RMK AO2 T00061067 $
13962KABI ABI20160208035011102/08/16 03:50:31  5-MIN KABI 080950Z 34007KT 10SM CLR 01/M07 A3038 1370 56 0 330/07 RMK AO2 SLP285 T00061072 $
13962KABI ABI20160208035510602/08/16 03:55:31  5-MIN KABI 080955Z 34008KT 10SM CLR 01/M07 A3038 1370 54 100 330/08 RMK AO2 T00111072 $
13962KABI ABI20160208040010402/08/16 04:00:31  5-MIN KABI 081000Z 34008KT 10SM CLR 01/M07 A3038 1370 56 0 330/08 RMK AO2 T00061072 $
13962KABI ABI20160208040510402/08/16 04:05:31  5-MIN KABI 081005Z 34007KT 10SM CLR 01/M07 A3038 1370 56 0 340/07 RMK AO2 T00061072 $
13962KABI ABI20160208041010402/08/16 04:10:31  5-MIN KABI 081010Z 34008KT 10SM CLR 01/M07 A3038 1370 56 0 340/08 RMK AO2 T00061072 $
13962KABI ABI20160208041510402/08/16 04:15:31  5-MIN KABI 081015Z 34007KT 10SM CLR 01/M07 A3038 1370 56 0 340/07 RMK AO2 T00061072 $
13962KABI ABI20160208042010402/08/16 04:20:31  5-MIN KABI 081020Z 34007KT 10SM CLR 01/M07 A3038 1370 56 0 330/07 RMK AO2 T00061072 $
13962KABI ABI20160208042510402/08/16 04:25:31  5-MIN KABI 081025Z 34007KT 10SM CLR 01/M07 A3038 1370 56 0 340/07 RMK AO2 T00061072 $
13962KABI ABI20160208043010402/08/16 04:30:31  5-MIN KABI 081030Z 34007KT 10SM CLR 01/M07 A3038 1370 56 0 340/07 RMK AO2 T00061072 $
13962KABI ABI20160208043510402/08/16 04:35:31  5-MIN KABI 081035Z 34007KT 10SM CLR 01/M07 A3038 1370 56 0 330/07 RMK AO2 T00061072 $
13962KABI ABI20160208044010402/08/16 04:40:31  5-MIN KABI 081040Z 34007KT 10SM CLR 00/M07 A3038 1370 58 0 330/07 RMK AO2 T00001072 $
13962KABI ABI20160208044510402/08/16 04:45:31  5-MIN KABI 081045Z 34007KT 10SM CLR 00/M08 A3038 1370 56 0 330/07 RMK AO2 T00001078 $
13962KABI ABI20160208045011102/08/16 04:50:31  5-MIN KABI 081050Z 34007KT 10SM CLR 00/M08 A3038 1370 56 0 330/07 RMK AO2 SLP288 T00001078 $
13962KABI ABI20160208045510402/08/16 04:55:31  5-MIN KABI 081055Z 34007KT 10SM CLR 00/M08 A3038 1370 56 0 330/07 RMK AO2 T00001078 $
13962KABI ABI20160208050010402/08/16 05:00:31  5-MIN KABI 081100Z 34007KT 10SM CLR 00/M08 A3038 1370 56 0 330/07 RMK AO2 T00001078 $
13962KABI ABI20160208050510402/08/16 05:05:31  5-MIN KABI 081105Z 34008KT 10SM CLR 01/M08 A3038 1370 54 0 330/08 RMK AO2 T00061078 $
13962KABI ABI20160208051010402/08/16 05:10:31  5-MIN KABI 081110Z 33007KT 10SM CLR 01/M08 A3039 1360 54 0 330/07 RMK AO2 T00061078 $
13962KABI ABI20160208051510402/08/16 05:15:31  5-MIN KABI 081115Z 33008KT 10SM CLR 01/M08 A3039 1360 51 0 330/08 RMK AO2 T00061083 $
13962KABI ABI20160208052010402/08/16 05:20:31  5-MIN KABI 081120Z 33007KT 10SM CLR 01/M08 A3039 1360 51 0 330/07 RMK AO2 T00061083 $
13962KABI ABI20160208052510402/08/16 05:25:31  5-MIN KABI 081125Z 34008KT 10SM CLR 01/M08 A3039 1360 51 0 330/08 RMK AO2 T00061083 $
13962KABI ABI20160208053010402/08/16 05:30:31  5-MIN KABI 081130Z 33008KT 10SM CLR 01/M08 A3039 1360 51 0 330/08 RMK AO2 T00061083 $
13962KABI ABI20160208053510402/08/16 05:35:31  5-MIN KABI 081135Z 33008KT 10SM CLR 01/M09 A3040 1350 47 0 330/08 RMK AO2 T00111089 $
13962KABI ABI20160208054010402/08/16 05:40:31  5-MIN KABI 081140Z 33008KT 10SM CLR 01/M09 A3040 1350 47 0 330/08 RMK AO2 T00111089 $
13962KABI ABI20160208054510402/08/16 05:45:31  5-MIN KABI 081145Z 33008KT 10SM CLR 01/M09 A3041 1350 49 0 320/08 RMK AO2 T00061089 $
13962KABI ABI20160208055012302/08/16 05:50:31  5-MIN KABI 081150Z 34008KT 10SM CLR 01/M09 A3040 1350 49 0 330/08 RMK AO2 SLP295 T00061089 10050 20000 $
13962KABI ABI20160208055510402/08/16 05:55:31  5-MIN KABI 081155Z 33007KT 10SM CLR 01/M09 A3040 1350 49 0 330/07 RMK AO2 T00061089 $
13962KABI ABI20160208060010402/08/16 06:00:31  5-MIN KABI 081200Z 33008KT 10SM CLR 01/M09 A3041 1350 49 0 330/08 RMK AO2 T00061089 $
13962KABI ABI20160208060510402/08/16 06:05:31  5-MIN KABI 081205Z 34008KT 10SM CLR 01/M09 A3041 1350 49 0 330/08 RMK AO2 T00061089 $
13962KABI ABI20160208061010402/08/16 06:10:31  5-MIN KABI 081210Z 33007KT 10SM CLR 01/M09 A3041 1340 49 0 330/07 RMK AO2 T00061089 $
13962KABI ABI20160208061510702/08/16 06:15:31  5-MIN KABI 081215Z 33006KT 10SM CLR 00/M09 A3041 1340 51 -100 330/06 RMK AO2 T00001089 $
13962KABI ABI20160208062010802/08/16 06:20:31  5-MIN KABI 081220Z 33006KT 10SM CLR M01/M09 A3041 1340 53 -100 330/06 RMK AO2 T10061089 $
13962KABI ABI20160208062510802/08/16 06:25:31  5-MIN KABI 081225Z 33005KT 10SM CLR M01/M09 A3041 1340 53 -100 320/05 RMK AO2 T10061089 $
13962KABI ABI20160208063010702/08/16 06:30:31  5-MIN KABI 081230Z 32005KT 10SM CLR 00/M09 A3042 1340 51 -100 320/05 RMK AO2 T00001089 $
13962KABI ABI20160208063510802/08/16 06:35:31  5-MIN KABI 081235Z 33005KT 10SM CLR M01/M09 A3042 1340 53 -100 330/05 RMK AO2 T10061089 $
13962KABI ABI20160208064010802/08/16 06:40:31  5-MIN KABI 081240Z 32006KT 10SM CLR M01/M09 A3042 1330 53 -100 320/06 RMK AO2 T10061089 $
13962KABI ABI20160208064510802/08/16 06:45:31  5-MIN KABI 081245Z 32007KT 10SM CLR M01/M09 A3042 1340 53 -100 310/07 RMK AO2 T10061089 $
13962KABI ABI20160208065011402/08/16 06:50:31  5-MIN KABI 081250Z 33008KT 10SM CLR 00/M09 A3042 1330 51 -100 320/08 RMK AO2 SLP302 T00001089 $
13962KABI ABI20160208065510402/08/16 06:55:31  5-MIN KABI 081255Z 33008KT 10SM CLR 01/M09 A3042 1330 49 0 320/08 RMK AO2 T00061089 $
13962KABI ABI20160208070010702/08/16 07:00:31  5-MIN KABI 081300Z 33007KT 10SM CLR 00/M09 A3042 1330 51 -100 320/07 RMK AO2 T00001089 $
13962KABI ABI20160208070510702/08/16 07:05:31  5-MIN KABI 081305Z 33007KT 10SM CLR 00/M09 A3042 1330 51 -100 320/07 RMK AO2 T00001089 $
13962KABI ABI20160208071010802/08/16 07:10:31  5-MIN KABI 081310Z 32007KT 10SM CLR M01/M09 A3042 1330 53 -200 320/07 RMK AO2 T10061089 $
13962KABI ABI20160208071510802/08/16 07:15:31  5-MIN KABI 081315Z 32006KT 10SM CLR M01/M09 A3043 1330 53 -200 320/06 RMK AO2 T10061089 $
13962KABI ABI20160208072010802/08/16 07:20:31  5-MIN KABI 081320Z 32006KT 10SM CLR M01/M09 A3043 1320 53 -200 320/06 RMK AO2 T10061089 $
13962KABI ABI20160208072510802/08/16 07:25:31  5-MIN KABI 081325Z 32006KT 10SM CLR M01/M09 A3043 1320 53 -200 320/06 RMK AO2 T10061089 $
13962KABI ABI20160208073010802/08/16 07:30:31  5-MIN KABI 081330Z 33007KT 10SM CLR M01/M09 A3043 1320 53 -200 320/07 RMK AO2 T10061089 $
13962KABI ABI20160208073510802/08/16 07:35:31  5-MIN KABI 081335Z 33007KT 10SM CLR M01/M09 A3043 1320 55 -200 320/07 RMK AO2 T10111089 $
13962KABI ABI20160208074010802/08/16 07:40:31  5-MIN KABI 081340Z 33006KT 10SM CLR M01/M09 A3044 1320 55 -200 330/06 RMK AO2 T10111089 $
13962KABI ABI20160208074510802/08/16 07:45:31  5-MIN KABI 081345Z 33007KT 10SM CLR M01/M09 A3043 1320 55 -200 320/07 RMK AO2 T10111089 $
13962KABI ABI20160208075011402/08/16 07:50:31  5-MIN KABI 081350Z 32007KT 9SM CLR M01/M09 A3044 1320 55 -200 320/07 RMK AO2 SLP309 T10111089 $
13962KABI ABI20160208075510702/08/16 07:55:31  5-MIN KABI 081355Z 32006KT 9SM CLR M01/M09 A3044 1320 53 -200 310/06 RMK AO2 T10061089 $
13962KABI ABI20160208080010702/08/16 08:00:31  5-MIN KABI 081400Z 32007KT 10SM CLR 00/M08 A3044 1310 53 -100 310/07 RMK AO2 T00001083 $
13962KABI ABI20160208080510502/08/16 08:05:31  5-MIN KABI 081405Z 31007KT 10SM CLR 00/M08 A3044 1310 53 -100 310/07 RMK AO2 T00001083
13962KABI ABI20160208081010202/08/16 08:10:31  5-MIN KABI 081410Z 32008KT 10SM CLR 01/M09 A3045 1310 47 0 310/08 RMK AO2 T00111089
13962KABI ABI20160208081510202/08/16 08:15:31  5-MIN KABI 081415Z 31008KT 10SM CLR 01/M08 A3045 1310 49 0 310/08 RMK AO2 T00111083
13962KABI ABI20160208082010202/08/16 08:20:31  5-MIN KABI 081420Z 31008KT 10SM CLR 02/M08 A3045 1300 47 0 310/08 RMK AO2 T00171083
13962KABI ABI20160208082510402/08/16 08:25:31  5-MIN KABI 081425Z 32008KT 10SM CLR 02/M08 A3046 1300 45 100 310/08 RMK AO2 T00221083
13962KABI ABI20160208083010402/08/16 08:30:31  5-MIN KABI 081430Z 32008KT 10SM CLR 02/M08 A3046 1300 45 100 310/08 RMK AO2 T00221083
13962KABI ABI20160208083510402/08/16 08:35:31  5-MIN KABI 081435Z 31009KT 10SM CLR 03/M09 A3046 1300 42 200 310/09 RMK AO2 T00281089
13962KABI ABI20160208084010402/08/16 08:40:31  5-MIN KABI 081440Z 31010KT 10SM CLR 03/M09 A3046 1290 42 200 310/10 RMK AO2 T00281089
13962KABI ABI20160208084510302/08/16 08:45:31  5-MIN KABI 081445Z 31009KT 9SM CLR 03/M09 A3047 1290 42 200 310/09 RMK AO2 T00281089
13962KABI ABI20160208085011602/08/16 08:50:31  5-MIN KABI 081450Z 32010KT 9SM CLR 03/M09 A3047 1290 40 200 310/10 RMK AO2 SLP318 T00331089 53008
13962KABI ABI20160208085510402/08/16 08:55:31  5-MIN KABI 081455Z 31009KT 10SM CLR 03/M09 A3047 1290 40 200 310/09 RMK AO2 T00331089
13962KABI ABI20160208090010402/08/16 09:00:31  5-MIN KABI 081500Z 32009KT 10SM CLR 03/M08 A3047 1280 42 200 310/09 RMK AO2 T00331083
13962KABI ABI20160208090510402/08/16 09:05:31  5-MIN KABI 081505Z 31009KT 10SM CLR 04/M08 A3047 1280 40 300 310/09 RMK AO2 T00391083
13962KABI ABI20160208091010402/08/16 09:10:31  5-MIN KABI 081510Z 32009KT 10SM CLR 04/M08 A3048 1280 40 300 310/09 RMK AO2 T00391083
13962KABI ABI20160208091510402/08/16 09:15:31  5-MIN KABI 081515Z 31010KT 10SM CLR 04/M09 A3048 1280 37 400 310/10 RMK AO2 T00441089
13962KABI ABI20160208092010402/08/16 09:20:31  5-MIN KABI 081520Z 32010KT 10SM CLR 04/M08 A3048 1280 39 400 320/10 RMK AO2 T00441083
13962KABI ABI20160208092510402/08/16 09:25:31  5-MIN KABI 081525Z 32009KT 10SM CLR 05/M09 A3048 1280 36 400 320/09 RMK AO2 T00501089
13962KABI ABI20160208093010402/08/16 09:30:31  5-MIN KABI 081530Z 32009KT 10SM CLR 05/M09 A3048 1280 36 400 320/09 RMK AO2 T00501089
13962KABI ABI20160208093510402/08/16 09:35:31  5-MIN KABI 081535Z 33010KT 10SM CLR 06/M08 A3048 1280 36 500 320/10 RMK AO2 T00561083
13962KABI ABI20160208094010402/08/16 09:40:31  5-MIN KABI 081540Z 33010KT 10SM CLR 06/M09 A3048 1280 33 600 330/10 RMK AO2 T00611089
13962KABI ABI20160208204510402/08/16 20:45:31  5-MIN KABI 090245Z 35004KT 10SM CLR 08/M09 A3034 1400 29 900 340/04 RMK AO2 T00781089
13962KABI ABI20160208205011702/08/16 20:50:31  5-MIN KABI 090250Z 35004KT 10SM CLR 08/M09 A3035 1400 29 900 340/04 RMK AO2 SLP277 T00781089 58014
13962KABI ABI20160208205510402/08/16 20:55:31  5-MIN KABI 090255Z 35004KT 10SM CLR 08/M09 A3034 1400 29 900 340/04 RMK AO2 T00781089
13962KABI ABI20160208210010402/08/16 21:00:31  5-MIN KABI 090300Z 34003KT 10SM CLR 08/M09 A3034 1400 28 900 330/03 RMK AO2 T00781094
13962KABI ABI20160208210510402/08/16 21:05:31  5-MIN KABI 090305Z 32003KT 10SM CLR 08/M09 A3035 1400 28 900 320/03 RMK AO2 T00781094
13962KABI ABI20160208211010402/08/16 21:10:31  5-MIN KABI 090310Z 32004KT 10SM CLR 07/M09 A3035 1400 31 800 320/04 RMK AO2 T00721089
13962KABI ABI20160208211510402/08/16 21:15:31  5-MIN KABI 090315Z 32004KT 10SM CLR 07/M08 A3035 1400 33 800 320/04 RMK AO2 T00671083
13962KABI ABI20160208212010402/08/16 21:20:31  5-MIN KABI 090320Z 32004KT 10SM CLR 07/M09 A3035 1400 32 800 320/04 RMK AO2 T00671089
13962KABI ABI20160208212510402/08/16 21:25:31  5-MIN KABI 090325Z 33004KT 10SM CLR 07/M09 A3035 1400 32 800 320/04 RMK AO2 T00671089
13962KABI ABI20160208213010402/08/16 21:30:31  5-MIN KABI 090330Z 32004KT 10SM CLR 07/M09 A3035 1400 32 800 320/04 RMK AO2 T00671089
13962KABI ABI20160208213510402/08/16 21:35:31  5-MIN KABI 090335Z 32003KT 10SM CLR 07/M09 A3035 1400 32 800 310/03 RMK AO2 T00671089
13962KABI ABI20160208214010402/08/16 21:40:31  5-MIN KABI 090340Z 00000KT 10SM CLR 06/M08 A3035 1400 36 600 000/00 RMK AO2 T00561083
13962KABI ABI20160208214510402/08/16 21:45:31  5-MIN KABI 090345Z 00000KT 10SM CLR 04/M08 A3035 1400 42 400 000/00 RMK AO2 T00391078
13962KABI ABI20160208215011102/08/16 21:50:31  5-MIN KABI 090350Z 00000KT 10SM CLR 03/M08 A3035 1400 42 400 000/00 RMK AO2 SLP279 T00331083
13962KABI ABI20160208215510402/08/16 21:55:31  5-MIN KABI 090355Z 00000KT 10SM CLR 03/M08 A3035 1400 46 300 000/00 RMK AO2 T00281078
13962KABI ABI20160208220010402/08/16 22:00:31  5-MIN KABI 090400Z 00000KT 10SM CLR 03/M08 A3035 1400 46 300 000/00 RMK AO2 T00281078
13962KABI ABI20160208220510402/08/16 22:05:31  5-MIN KABI 090405Z 00000KT 10SM CLR 03/M07 A3035 1400 48 300 000/00 RMK AO2 T00281072
13962KABI ABI20160208221010402/08/16 22:10:31  5-MIN KABI 090410Z 24003KT 10SM CLR 03/M07 A3035 1400 48 300 230/03 RMK AO2 T00281072
13962KABI ABI20160208221510402/08/16 22:15:31  5-MIN KABI 090415Z 26003KT 10SM CLR 03/M07 A3035 1400 48 300 250/03 RMK AO2 T00281072
13962KABI ABI20160208222010402/08/16 22:20:31  5-MIN KABI 090420Z 00000KT 10SM CLR 03/M07 A3036 1390 48 300 000/00 RMK AO2 T00281072
13962KABI ABI20160208222510402/08/16 22:25:31  5-MIN KABI 090425Z 00000KT 10SM CLR 03/M07 A3036 1390 46 400 000/00 RMK AO2 T00331072
13962KABI ABI20160208223010402/08/16 22:30:31  5-MIN KABI 090430Z 00000KT 10SM CLR 03/M07 A3035 1390 48 300 000/00 RMK AO2 T00281072
13962KABI ABI20160208223510402/08/16 22:35:31  5-MIN KABI 090435Z 23003KT 10SM CLR 02/M07 A3036 1390 52 100 230/03 RMK AO2 T00171072
13962KABI ABI20160208224010402/08/16 22:40:31  5-MIN KABI 090440Z 24003KT 10SM CLR 02/M07 A3036 1390 52 100 230/03 RMK AO2 T00171072
13962KABI ABI20160208224510402/08/16 22:45:31  5-MIN KABI 090445Z 00000KT 10SM CLR 03/M07 A3036 1390 48 300 000/00 RMK AO2 T00281072
13962KABI ABI20160208225011102/08/16 22:50:31  5-MIN KABI 090450Z 00000KT 10SM CLR 03/M07 A3036 1390 46 400 000/00 RMK AO2 SLP281 T00331072
13962KABI ABI20160208225510402/08/16 22:55:31  5-MIN KABI 090455Z 00000KT 10SM CLR 03/M07 A3036 1390 46 400 000/00 RMK AO2 T00331072
13962KABI ABI20160208230010402/08/16 23:00:31  5-MIN KABI 090500Z 23003KT 10SM CLR 03/M07 A3036 1390 48 300 230/03 RMK AO2 T00281072
13962KABI ABI20160208230510402/08/16 23:05:31  5-MIN KABI 090505Z 23004KT 10SM CLR 02/M07 A3036 1390 52 100 230/04 RMK AO2 T00171072
13962KABI ABI20160208231010402/08/16 23:10:31  5-MIN KABI 090510Z 24003KT 10SM CLR 02/M07 A3036 1390 52 100 230/03 RMK AO2 T00171072
13962KABI ABI20160208231510402/08/16 23:15:31  5-MIN KABI 090515Z 24004KT 10SM CLR 02/M07 A3036 1390 50 200 240/04 RMK AO2 T00221072
13962KABI ABI20160208232010402/08/16 23:20:31  5-MIN KABI 090520Z 25003KT 10SM CLR 02/M07 A3036 1390 50 200 250/03 RMK AO2 T00221072
13962KABI ABI20160208232510402/08/16 23:25:31  5-MIN KABI 090525Z 26004KT 10SM CLR 03/M07 A3036 1390 48 300 250/04 RMK AO2 T00281072
13962KABI ABI20160208233010402/08/16 23:30:31  5-MIN KABI 090530Z 26004KT 10SM CLR 03/M07 A3036 1390 46 400 260/04 RMK AO2 T00331072
13962KABI ABI20160208233510402/08/16 23:35:31  5-MIN KABI 090535Z 26004KT 10SM CLR 03/M07 A3036 1390 46 400 260/04 RMK AO2 T00331072
13962KABI ABI20160208234010402/08/16 23:40:31  5-MIN KABI 090540Z 26004KT 10SM CLR 03/M07 A3036 1390 46 400 260/04 RMK AO2 T00331072
13962KABI ABI20160208234510402/08/16 23:45:31  5-MIN KABI 090545Z 26004KT 10SM CLR 03/M07 A3036 1390 46 400 250/04 RMK AO2 T00331072
13962KABI ABI20160208235013902/08/16 23:50:31  5-MIN KABI 090550Z 25005KT 10SM CLR 03/M07 A3036 1390 48 300 250/05 RMK AO2 SLP280 T00281072 10128 20017 401441011 51012
13962KABI ABI20160208235510402/08/16 23:55:31  5-MIN KABI 090555Z 25004KT 10SM CLR 03/M07 A3036 1390 48 300 250/04 RMK AO2 T00281072
13962KABI ABI20160209000010402/09/16 00:00:31  5-MIN KABI 090600Z 25005KT 10SM CLR 03/M07 A3036 1390 48 300 240/05 RMK AO2 T00281072
13962KABI ABI20160209000510402/09/16 00:05:31  5-MIN KABI 090605Z 25006KT 10SM CLR 02/M07 A3036 1390 50 200 250/06 RMK AO2 T00221072
13962KABI ABI20160209001010402/09/16 00:10:31  5-MIN KABI 090610Z 26006KT 10SM CLR 02/M07 A3036 1390 50 200 250/06 RMK AO2 T00221072
13962KABI ABI20160209001510402/09/16 00:15:31  5-MIN KABI 090615Z 27006KT 10SM CLR 02/M07 A3036 1390 54 100 260/06 RMK AO2 T00171067
13962KABI ABI20160209002010402/09/16 00:20:31  5-MIN KABI 090620Z 27006KT 10SM CLR 01/M07 A3036 1390 56 100 270/06 RMK AO2 T00111067
13962KABI ABI20160209002510402/09/16 00:25:31  5-MIN KABI 090625Z 26005KT 10SM CLR 02/M07 A3036 1390 52 100 260/05 RMK AO2 T00171072
13962KABI ABI20160209003010402/09/16 00:30:31  5-MIN KABI 090630Z 27005KT 10SM CLR 02/M07 A3036 1390 50 200 260/05 RMK AO2 T00221072
13962KABI ABI20160209003510402/09/16 00:35:31  5-MIN KABI 090635Z 28004KT 10SM CLR 03/M08 A3036 1390 46 300 280/04 RMK AO2 T00281078
13962KABI ABI20160209004010402/09/16 00:40:31  5-MIN KABI 090640Z 28003KT 10SM CLR 03/M08 A3036 1390 44 400 270/03 RMK AO2 T00331078
13962KABI ABI20160209004510402/09/16 00:45:31  5-MIN KABI 090645Z 29003KT 10SM CLR 03/M08 A3036 1390 44 400 280/03 RMK AO2 T00331078
13962KABI ABI20160209005011102/09/16 00:50:31  5-MIN KABI 090650Z 26004KT 10SM CLR 03/M08 A3036 1390 44 300 250/04 RMK AO2 SLP280 T00331078
13962KABI ABI20160209005510402/09/16 00:55:31  5-MIN KABI 090655Z 27003KT 10SM CLR 03/M08 A3036 1390 46 300 260/03 RMK AO2 T00281078
13962KABI ABI20160209010010402/09/16 01:00:31  5-MIN KABI 090700Z 00000KT 10SM CLR 03/M07 A3036 1380 46 300 000/00 RMK AO2 T00331072
13962KABI ABI20160209010510402/09/16 01:05:31  5-MIN KABI 090705Z 00000KT 10SM CLR 03/M07 A3036 1390 48 300 000/00 RMK AO2 T00281072
13962KABI ABI20160209011010402/09/16 01:10:31  5-MIN KABI 090710Z 00000KT 10SM CLR 02/M07 A3036 1390 50 200 000/00 RMK AO2 T00221072
13962KABI ABI20160209011510402/09/16 01:15:31  5-MIN KABI 090715Z 00000KT 10SM CLR 01/M07 A3036 1390 54 100 000/00 RMK AO2 T00111072
13962KABI ABI20160209012010402/09/16 01:20:31  5-MIN KABI 090720Z 13003KT 10SM CLR 02/M07 A3036 1390 50 200 130/03 RMK AO2 T00221072
13962KABI ABI20160209012510402/09/16 01:25:31  5-MIN KABI 090725Z 00000KT 10SM CLR 02/M07 A3036 1390 52 100 000/00 RMK AO2 T00171072
13962KABI ABI20160209013010402/09/16 01:30:31  5-MIN KABI 090730Z 00000KT 10SM CLR 02/M07 A3036 1390 50 200 000/00 RMK AO2 T00221072
13962KABI ABI20160209013510402/09/16 01:35:31  5-MIN KABI 090735Z 12003KT 10SM CLR 02/M07 A3036 1390 50 200 120/03 RMK AO2 T00221072
13962KABI ABI20160209014010402/09/16 01:40:31  5-MIN KABI 090740Z 00000KT 10SM CLR 02/M07 A3036 1390 50 200 000/00 RMK AO2 T00221072
13962KABI ABI20160209014510402/09/16 01:45:31  5-MIN KABI 090745Z 13003KT 10SM CLR 03/M07 A3036 1390 48 300 120/03 RMK AO2 T00281072
13962KABI ABI20160209015011102/09/16 01:50:31  5-MIN KABI 090750Z 00000KT 10SM CLR 02/M07 A3036 1390 50 200 000/00 RMK AO2 SLP281 T00221072
13962KABI ABI20160209015510402/09/16 01:55:31  5-MIN KABI 090755Z 08003KT 10SM CLR 03/M07 A3036 1390 48 300 070/03 RMK AO2 T00281072
13962KABI ABI20160209020010402/09/16 02:00:31  5-MIN KABI 090800Z 00000KT 10SM CLR 03/M08 A3036 1390 44 300 000/00 RMK AO2 T00331078
13962KABI ABI20160209020510402/09/16 02:05:31  5-MIN KABI 090805Z 00000KT 10SM CLR 03/M08 A3036 1390 44 300 000/00 RMK AO2 T00331078
13962KABI ABI20160209021010402/09/16 02:10:31  5-MIN KABI 090810Z 00000KT 10SM CLR 03/M08 A3036 1390 46 300 000/00 RMK AO2 T00281078
13962KABI ABI20160209021510402/09/16 02:15:31  5-MIN KABI 090815Z 08003KT 10SM CLR 03/M07 A3036 1390 48 300 080/03 RMK AO2 T00281072
13962KABI ABI20160209022010402/09/16 02:20:31  5-MIN KABI 090820Z 08004KT 10SM CLR 03/M07 A3036 1390 48 300 080/04 RMK AO2 T00281072
13962KABI ABI20160209022510402/09/16 02:25:31  5-MIN KABI 090825Z 09004KT 10SM CLR 02/M07 A3036 1390 50 200 080/04 RMK AO2 T00221072
13962KABI ABI20160209023010402/09/16 02:30:31  5-MIN KABI 090830Z 10004KT 10SM CLR 02/M07 A3036 1390 52 100 090/04 RMK AO2 T00171072
13962KABI ABI20160209023510402/09/16 02:35:31  5-MIN KABI 090835Z 09005KT 10SM CLR 01/M07 A3035 1390 56 100 090/05 RMK AO2 T00111067
13962KABI ABI20160209024010402/09/16 02:40:31  5-MIN KABI 090840Z 09005KT 10SM CLR 01/M07 A3035 1390 54 100 080/05 RMK AO2 T00111072
13962KABI ABI20160209024510402/09/16 02:45:31  5-MIN KABI 090845Z 08003KT 10SM CLR 02/M07 A3035 1390 52 200 080/03 RMK AO2 T00171072
13962KABI ABI20160209025011702/09/16 02:50:31  5-MIN KABI 090850Z 00000KT 10SM CLR 02/M07 A3035 1400 50 200 000/00 RMK AO2 SLP276 T00221072 51004
13962KABI ABI20160209025510402/09/16 02:55:31  5-MIN KABI 090855Z 00000KT 10SM CLR 03/M08 A3035 1390 46 300 000/00 RMK AO2 T00281078
13962KABI ABI20160209030010402/09/16 03:00:31  5-MIN KABI 090900Z 00000KT 10SM CLR 03/M08 A3036 1390 46 300 000/00 RMK AO2 T00281078
13962KABI ABI20160209030510402/09/16 03:05:31  5-MIN KABI 090905Z 00000KT 10SM CLR 03/M08 A3036 1390 46 300 000/00 RMK AO2 T00281078
13962KABI ABI20160209031010402/09/16 03:10:31  5-MIN KABI 090910Z 00000KT 10SM CLR 02/M07 A3036 1390 52 100 000/00 RMK AO2 T00171072
13962KABI ABI20160209031510402/09/16 03:15:31  5-MIN KABI 090915Z 00000KT 10SM CLR 02/M07 A3036 1390 52 100 000/00 RMK AO2 T00171072
13962KABI ABI20160209032010202/09/16 03:20:31  5-MIN KABI 090920Z 00000KT 10SM CLR 00/M07 A3036 1390 58 0 000/00 RMK AO2 T00001072
13962KABI ABI20160209032510202/09/16 03:25:31  5-MIN KABI 090925Z 00000KT 10SM CLR 00/M07 A3035 1390 58 0 000/00 RMK AO2 T00001072
13962KABI ABI20160209033010602/09/16 03:30:31  5-MIN KABI 090930Z 00000KT 10SM CLR M01/M07 A3036 1390 61 -100 000/00 RMK AO2 T10061072
13962KABI ABI20160209033510602/09/16 03:35:31  5-MIN KABI 090935Z 21003KT 10SM CLR M01/M07 A3036 1390 61 -100 210/03 RMK AO2 T10061072
13962KABI ABI20160209034010602/09/16 03:40:31  5-MIN KABI 090940Z 20004KT 10SM CLR M01/M07 A3036 1390 66 -100 190/04 RMK AO2 T10111067
13962KABI ABI20160209034510602/09/16 03:45:31  5-MIN KABI 090945Z 19005KT 10SM CLR M01/M07 A3036 1390 66 -100 190/05 RMK AO2 T10111067
13962KABI ABI20160209035011302/09/16 03:50:31  5-MIN KABI 090950Z 19005KT 10SM CLR M01/M07 A3036 1390 66 -100 180/05 RMK AO2 SLP280 T10111067
13962KABI ABI20160209035510602/09/16 03:55:31  5-MIN KABI 090955Z 20004KT 10SM CLR M01/M07 A3036 1390 66 -100 200/04 RMK AO2 T10111067
13962KABI ABI20160209040010602/09/16 04:00:31  5-MIN KABI 091000Z 20005KT 10SM CLR M01/M07 A3035 1400 66 -100 190/05 RMK AO2 T10111067
13962KABI ABI20160209040510602/09/16 04:05:31  5-MIN KABI 091005Z 21005KT 10SM CLR M01/M07 A3035 1400 66 -100 210/05 RMK AO2 T10111067
13962KABI ABI20160209041010602/09/16 04:10:31  5-MIN KABI 091010Z 22005KT 10SM CLR M01/M07 A3035 1390 66 -100 220/05 RMK AO2 T10111067
13962KABI ABI20160209041510602/09/16 04:15:31  5-MIN KABI 091015Z 22006KT 10SM CLR M01/M07 A3035 1390 63 -100 220/06 RMK AO2 T10061067
13962KABI ABI20160209042010602/09/16 04:20:31  5-MIN KABI 091020Z 23005KT 10SM CLR M01/M07 A3035 1390 66 -100 220/05 RMK AO2 T10111067
13962KABI ABI20160209042510602/09/16 04:25:31  5-MIN KABI 091025Z 23004KT 10SM CLR M01/M07 A3035 1390 66 -100 220/04 RMK AO2 T10111067
13962KABI ABI20160209043010602/09/16 04:30:31  5-MIN KABI 091030Z 24003KT 10SM CLR M01/M07 A3035 1390 66 -100 230/03 RMK AO2 T10111067
13962KABI ABI20160209043510602/09/16 04:35:31  5-MIN KABI 091035Z 24003KT 10SM CLR M01/M07 A3036 1390 66 -200 230/03 RMK AO2 T10111067
13962KABI ABI20160209044010602/09/16 04:40:31  5-MIN KABI 091040Z 23004KT 10SM CLR M01/M06 A3036 1390 69 -100 230/04 RMK AO2 T10111061
13962KABI ABI20160209044510602/09/16 04:45:31  5-MIN KABI 091045Z 23003KT 10SM CLR M01/M06 A3036 1390 69 -100 220/03 RMK AO2 T10111061
13962KABI ABI20160209045011302/09/16 04:50:31  5-MIN KABI 091050Z 22004KT 10SM CLR M01/M06 A3035 1390 69 -100 220/04 RMK AO2 SLP279 T10111061
13962KABI ABI20160209045510602/09/16 04:55:31  5-MIN KABI 091055Z 23003KT 10SM CLR M01/M06 A3035 1390 69 -100 230/03 RMK AO2 T10111061
13962KABI ABI20160209050010602/09/16 05:00:31  5-MIN KABI 091100Z 22003KT 10SM CLR M01/M06 A3035 1390 69 -100 220/03 RMK AO2 T10111061
13962KABI ABI20160209050510602/09/16 05:05:31  5-MIN KABI 091105Z 21004KT 10SM CLR M01/M06 A3035 1400 69 -100 200/04 RMK AO2 T10111061
13962KABI ABI20160209051010602/09/16 05:10:31  5-MIN KABI 091110Z 20005KT 10SM CLR M02/M06 A3035 1390 72 -200 200/05 RMK AO2 T10171061
13962KABI ABI20160209051510602/09/16 05:15:31  5-MIN KABI 091115Z 20005KT 10SM CLR M02/M07 A3035 1390 69 -200 200/05 RMK AO2 T10171067
13962KABI ABI20160209052010602/09/16 05:20:31  5-MIN KABI 091120Z 21006KT 10SM CLR M02/M07 A3035 1400 72 -300 200/06 RMK AO2 T10221067
13962KABI ABI20160209052510602/09/16 05:25:31  5-MIN KABI 091125Z 21006KT 10SM CLR M02/M06 A3035 1390 75 -300 200/06 RMK AO2 T10221061
13962KABI ABI20160209053010602/09/16 05:30:31  5-MIN KABI 091130Z 21006KT 10SM CLR M02/M07 A3035 1390 72 -300 200/06 RMK AO2 T10221067
13962KABI ABI20160209053510602/09/16 05:35:31  5-MIN KABI 091135Z 22004KT 10SM CLR M02/M06 A3035 1400 75 -300 220/04 RMK AO2 T10221061
13962KABI ABI20160209054010602/09/16 05:40:31  5-MIN KABI 091140Z 23004KT 10SM CLR M02/M06 A3035 1390 72 -200 230/04 RMK AO2 T10171061
13962KABI ABI20160209054510602/09/16 05:45:31  5-MIN KABI 091145Z 22005KT 10SM CLR M01/M06 A3035 1390 69 -100 220/05 RMK AO2 T10111061
13962KABI ABI20160209055013102/09/16 05:50:31  5-MIN KABI 091150Z 22004KT 10SM CLR M01/M06 A3035 1400 69 -100 210/04 RMK AO2 SLP279 T10111061 10039 21022 58001
13962KABI ABI20160209055510602/09/16 05:55:31  5-MIN KABI 091155Z 22004KT 10SM CLR M02/M06 A3035 1390 72 -200 220/04 RMK AO2 T10171061
13962KABI ABI20160209060010602/09/16 06:00:31  5-MIN KABI 091200Z 23004KT 10SM CLR M01/M06 A3036 1390 69 -100 230/04 RMK AO2 T10111061
13962KABI ABI20160209060510602/09/16 06:05:31  5-MIN KABI 091205Z 24004KT 10SM CLR M01/M06 A3035 1390 69 -100 230/04 RMK AO2 T10111061
13962KABI ABI20160209061010602/09/16 06:10:31  5-MIN KABI 091210Z 23005KT 10SM CLR M01/M06 A3035 1390 69 -100 230/05 RMK AO2 T10111061
13962KABI ABI20160209061510602/09/16 06:15:31  5-MIN KABI 091215Z 23004KT 10SM CLR M01/M06 A3035 1390 69 -100 220/04 RMK AO2 T10111061
13962KABI ABI20160209062010602/09/16 06:20:31  5-MIN KABI 091220Z 23005KT 10SM CLR M01/M06 A3036 1390 69 -100 220/05 RMK AO2 T10111061
13962KABI ABI20160209062510602/09/16 06:25:31  5-MIN KABI 091225Z 23005KT 10SM CLR M01/M06 A3035 1400 69 -100 220/05 RMK AO2 T10061056
13962KABI ABI20160209063010602/09/16 06:30:31  5-MIN KABI 091230Z 24005KT 10SM CLR M01/M06 A3035 1400 66 -100 240/05 RMK AO2 T10061061
13962KABI ABI20160209063510602/09/16 06:35:31  5-MIN KABI 091235Z 23006KT 10SM CLR M01/M06 A3035 1400 69 -100 230/06 RMK AO2 T10061056
13962KABI ABI20160209064010602/09/16 06:40:31  5-MIN KABI 091240Z 24006KT 10SM CLR M01/M06 A3035 1400 66 -100 240/06 RMK AO2 T10061061
13962KABI ABI20160209064510202/09/16 06:45:31  5-MIN KABI 091245Z 26007KT 10SM CLR 00/M06 A3035 1400 66 0 250/07 RMK AO2 T00001056
13962KABI ABI20160209065010902/09/16 06:50:31  5-MIN KABI 091250Z 26008KT 10SM CLR 00/M06 A3035 1400 66 0 260/08 RMK AO2 SLP279 T00001056
13962KABI ABI20160209065510202/09/16 06:55:31  5-MIN KABI 091255Z 26008KT 10SM CLR 00/M06 A3035 1400 66 0 250/08 RMK AO2 T00001056
13962KABI ABI20160209070010202/09/16 07:00:31  5-MIN KABI 091300Z 26008KT 10SM CLR 00/M06 A3035 1400 66 0 250/08 RMK AO2 T00001056
13962KABI ABI20160209070510202/09/16 07:05:31  5-MIN KABI 091305Z 25007KT 10SM CLR 00/M06 A3035 1400 66 0 250/07 RMK AO2 T00001056
13962KABI ABI20160209071010202/09/16 07:10:31  5-MIN KABI 091310Z 26007KT 10SM CLR 01/M06 A3035 1400 63 0 250/07 RMK AO2 T00061056
13962KABI ABI20160209071510202/09/16 07:15:31  5-MIN KABI 091315Z 26007KT 10SM CLR 01/M06 A3035 1400 63 0 250/07 RMK AO2 T00061056
13962KABI ABI20160209072010402/09/16 07:20:31  5-MIN KABI 091320Z 25006KT 10SM CLR 01/M06 A3035 1400 61 100 250/06 RMK AO2 T00111056
13962KABI ABI20160209072510402/09/16 07:25:31  5-MIN KABI 091325Z 25007KT 10SM CLR 01/M06 A3035 1400 61 100 250/07 RMK AO2 T00111056
13962KABI ABI20160209073010402/09/16 07:30:31  5-MIN KABI 091330Z 26007KT 10SM CLR 01/M06 A3035 1400 61 100 250/07 RMK AO2 T00111056
13962KABI ABI20160209073510402/09/16 07:35:31  5-MIN KABI 091335Z 25007KT 10SM CLR 01/M05 A3035 1390 64 100 250/07 RMK AO2 T00111050
13962KABI ABI20160209074010402/09/16 07:40:31  5-MIN KABI 091340Z 25007KT 10SM CLR 02/M06 A3035 1400 59 200 250/07 RMK AO2 T00171056
13962KABI ABI20160209074510402/09/16 07:45:31  5-MIN KABI 091345Z 25007KT 10SM CLR 02/M05 A3035 1400 61 200 240/07 RMK AO2 T00171050
13962KABI ABI20160209075011102/09/16 07:50:31  5-MIN KABI 091350Z 24007KT 10SM CLR 02/M05 A3035 1400 59 200 240/07 RMK AO2 SLP278 T00221050
13962KABI ABI20160209075510402/09/16 07:55:31  5-MIN KABI 091355Z 24007KT 10SM CLR 02/M05 A3035 1400 59 200 240/07 RMK AO2 T00221050
13962KABI ABI20160209080010402/09/16 08:00:31  5-MIN KABI 091400Z 24005KT 10SM CLR 03/M05 A3035 1400 56 300 240/05 RMK AO2 T00281050
13962KABI ABI20160209080510402/09/16 08:05:31  5-MIN KABI 091405Z 24004KT 10SM CLR 03/M04 A3035 1400 59 300 240/04 RMK AO2 T00281044
13962KABI ABI20160209081010402/09/16 08:10:31  5-MIN KABI 091410Z 24004KT 10SM CLR 03/M04 A3035 1400 57 400 240/04 RMK AO2 T00331044
13962KABI ABI20160209081510402/09/16 08:15:31  5-MIN KABI 091415Z 26004KT 10SM CLR 04/M04 A3035 1400 54 400 250/04 RMK AO2 T00391044
13962KABI ABI20160209082010402/09/16 08:20:31  5-MIN KABI 091420Z 26005KT 10SM CLR 04/M04 A3035 1390 52 500 250/05 RMK AO2 T00441044
13962KABI ABI20160209082510402/09/16 08:25:31  5-MIN KABI 091425Z 26006KT 10SM CLR 05/M04 A3035 1390 50 600 250/06 RMK AO2 T00501044
13962KABI ABI20160209083010402/09/16 08:30:31  5-MIN KABI 091430Z 27005KT 10SM CLR 06/M04 A3036 1390 48 600 260/05 RMK AO2 T00561044
13962KABI ABI20160209083510402/09/16 08:35:31  5-MIN KABI 091435Z 26004KT 10SM CLR 06/M04 A3036 1390 48 600 260/04 RMK AO2 T00561044
13962KABI ABI20160209084010402/09/16 08:40:31  5-MIN KABI 091440Z 28005KT 10SM CLR 06/M04 A3036 1390 48 700 270/05 RMK AO2 T00611039
13962KABI ABI20160210074510402/10/16 07:45:31  5-MIN KABI 101345Z 18006KT 10SM CLR 04/M02 A3032 1430 64 500 180/06 RMK AO2 T00391022
13962KABI ABI20160210075011102/10/16 07:50:31  5-MIN KABI 101350Z 18007KT 10SM CLR 04/M02 A3032 1430 64 500 180/07 RMK AO2 SLP262 T00391022
13962KABI ABI20160210075510402/10/16 07:55:31  5-MIN KABI 101355Z 19006KT 10SM CLR 04/M02 A3032 1430 62 500 180/06 RMK AO2 T00441022
13962KABI ABI20160210080010402/10/16 08:00:31  5-MIN KABI 101400Z 19005KT 10SM CLR 04/M02 A3032 1420 62 500 190/05 RMK AO2 T00441022
13962KABI ABI20160210080510402/10/16 08:05:31  5-MIN KABI 101405Z 19005KT 10SM CLR 05/M02 A3032 1420 62 600 190/05 RMK AO2 T00501017
13962KABI ABI20160210081010402/10/16 08:10:31  5-MIN KABI 101410Z 19005KT 10SM CLR 05/M02 A3032 1430 62 600 190/05 RMK AO2 T00501017
13962KABI ABI20160210081510402/10/16 08:15:31  5-MIN KABI 101415Z 18005KT 10SM CLR 06/M02 A3032 1430 59 700 170/05 RMK AO2 T00561017
13962KABI ABI20160210082010402/10/16 08:20:31  5-MIN KABI 101420Z 18005KT 10SM CLR 07/M01 A3032 1430 57 800 180/05 RMK AO2 T00671011
13962KABI ABI20160210082510402/10/16 08:25:31  5-MIN KABI 101425Z 18005KT 10SM CLR 07/M01 A3032 1430 57 800 180/05 RMK AO2 T00671011
13962KABI ABI20160210083010402/10/16 08:30:31  5-MIN KABI 101430Z 20004KT 10SM CLR 07/M01 A3032 1430 55 900 200/04 RMK AO2 T00721011
13962KABI ABI20160210083510402/10/16 08:35:31  5-MIN KABI 101435Z 00000KT 10SM CLR 07/M01 A3032 1420 55 900 000/00 RMK AO2 T00721011
13962KABI ABI20160210084010402/10/16 08:40:31  5-MIN KABI 101440Z 22004KT 10SM CLR 08/M01 A3032 1420 53 900 210/04 RMK AO2 T00781011
13962KABI ABI20160210084510502/10/16 08:45:31  5-MIN KABI 101445Z 20007KT 10SM CLR 08/M01 A3032 1420 51 1000 190/07 RMK AO2 T00831011
13962KABI ABI20160210085011802/10/16 08:50:31  5-MIN KABI 101450Z 19006KT 10SM CLR 08/M01 A3032 1420 51 1000 190/06 RMK AO2 SLP263 T00831011 56003
13962KABI ABI20160210085510502/10/16 08:55:31  5-MIN KABI 101455Z 20006KT 10SM CLR 08/M01 A3032 1420 51 1000 190/06 RMK AO2 T00831011
13962KABI ABI20160210090010502/10/16 09:00:31  5-MIN KABI 101500Z 21007KT 10SM CLR 09/M01 A3032 1420 47 1100 200/07 RMK AO2 T00941011
13962KABI ABI20160210090510502/10/16 09:05:31  5-MIN KABI 101505Z 21006KT 10SM CLR 09/M01 A3032 1420 49 1100 210/06 RMK AO2 T00941006
13962KABI ABI20160210091010502/10/16 09:10:31  5-MIN KABI 101510Z 21006KT 10SM CLR 10/M01 A3032 1420 47 1200 210/06 RMK AO2 T01001006
13962KABI ABI20160210091510502/10/16 09:15:31  5-MIN KABI 101515Z 21009KT 10SM CLR 11/M01 A3032 1420 44 1300 200/09 RMK AO2 T01061011
13962KABI ABI20160210092010502/10/16 09:20:31  5-MIN KABI 101520Z 20009KT 10SM CLR 11/M01 A3032 1420 42 1300 200/09 RMK AO2 T01111011
13962KABI ABI20160210092510502/10/16 09:25:31  5-MIN KABI 101525Z 20008KT 10SM CLR 12/M01 A3033 1420 41 1400 200/08 RMK AO2 T01171011
13962KABI ABI20160210093010502/10/16 09:30:31  5-MIN KABI 101530Z 20009KT 10SM CLR 12/M01 A3032 1420 41 1500 190/09 RMK AO2 T01221006
13962KABI ABI20160210093510502/10/16 09:35:31  5-MIN KABI 101535Z 20009KT 10SM CLR 12/M01 A3033 1420 39 1500 200/09 RMK AO2 T01221011
13962KABI ABI20160210094010502/10/16 09:40:31  5-MIN KABI 101540Z 21009KT 10SM CLR 13/M01 A3033 1420 38 1500 200/09 RMK AO2 T01281011
13962KABI ABI20160210094510502/10/16 09:45:31  5-MIN KABI 101545Z 20009KT 10SM CLR 13/M01 A3033 1420 36 1600 200/09 RMK AO2 T01331011
13962KABI ABI20160210095011202/10/16 09:50:31  5-MIN KABI 101550Z 21009KT 10SM CLR 13/M01 A3032 1420 36 1600 200/09 RMK AO2 SLP262 T01331011
13962KABI ABI20160210095510502/10/16 09:55:31  5-MIN KABI 101555Z 21010KT 10SM CLR 14/M01 A3032 1420 35 1700 210/10 RMK AO2 T01391011
13962KABI ABI20160210100010502/10/16 10:00:31  5-MIN KABI 101600Z 23010KT 10SM CLR 14/M01 A3032 1420 35 1700 220/10 RMK AO2 T01391011
13962KABI ABI20160210100510502/10/16 10:05:31  5-MIN KABI 101605Z 22010KT 10SM CLR 14/M01 A3032 1420 35 1700 220/10 RMK AO2 T01391011
13962KABI ABI20160210101010502/10/16 10:10:31  5-MIN KABI 101610Z 21009KT 10SM CLR 14/M01 A3032 1430 34 1700 210/09 RMK AO2 T01441011
13962KABI ABI20160210101510502/10/16 10:15:31  5-MIN KABI 101615Z 22010KT 10SM CLR 14/M01 A3032 1430 34 1700 220/10 RMK AO2 T01441011
13962KABI ABI20160210102010502/10/16 10:20:31  5-MIN KABI 101620Z 22010KT 10SM CLR 14/M01 A3032 1430 35 1700 220/10 RMK AO2 T01391011
13962KABI ABI20160210102510502/10/16 10:25:31  5-MIN KABI 101625Z 22010KT 10SM CLR 14/M01 A3031 1430 35 1700 210/10 RMK AO2 T01441006
13962KABI ABI20160210103010502/10/16 10:30:31  5-MIN KABI 101630Z 21008KT 10SM CLR 14/M01 A3031 1430 34 1700 210/08 RMK AO2 T01441011
13962KABI ABI20160210103510502/10/16 10:35:31  5-MIN KABI 101635Z 21009KT 10SM CLR 15/M01 A3031 1430 34 1800 210/09 RMK AO2 T01501006
13962KABI ABI20160210104010502/10/16 10:40:31  5-MIN KABI 101640Z 22007KT 10SM CLR 16/M01 A3031 1430 33 1900 220/07 RMK AO2 T01561006
13962KABI ABI20160210104510502/10/16 10:45:31  5-MIN KABI 101645Z 23009KT 10SM CLR 16/M01 A3032 1430 33 1900 230/09 RMK AO2 T01561006
13962KABI ABI20160210105011202/10/16 10:50:31  5-MIN KABI 101650Z 25008KT 10SM CLR 16/M01 A3032 1430 32 1900 240/08 RMK AO2 SLP258 T01611006
13962KABI ABI20160210105510402/10/16 10:55:31  5-MIN KABI 101655Z 24009KT 10SM CLR 17/00 A3031 1430 32 2000 230/09 RMK AO2 T01670000
13962KABI ABI20160210110010502/10/16 11:00:31  5-MIN KABI 101700Z 23009KT 10SM CLR 17/M01 A3031 1430 31 2000 220/09 RMK AO2 T01671006
13962KABI ABI20160210110510502/10/16 11:05:31  5-MIN KABI 101705Z 23010KT 10SM CLR 17/M01 A3031 1430 29 2100 220/10 RMK AO2 T01721006
13962KABI ABI20160210111010502/10/16 11:10:31  5-MIN KABI 101710Z 21010KT 10SM CLR 17/M01 A3031 1440 29 2100 200/10 RMK AO2 T01721006
13962KABI ABI20160210111510402/10/16 11:15:31  5-MIN KABI 101715Z 22008KT 10SM CLR 18/00 A3031 1440 30 2100 210/08 RMK AO2 T01780000
13962KABI ABI20160210112010402/10/16 11:20:31  5-MIN KABI 101720Z 22010KT 10SM CLR 18/00 A3030 1440 29 2200 220/10 RMK AO2 T01830000
13962KABI ABI20160210112510402/10/16 11:25:31  5-MIN KABI 101725Z 22010KT 10SM CLR 18/00 A3030 1440 29 2200 220/10 RMK AO2 T01830000
13962KABI ABI20160210113010502/10/16 11:30:31  5-MIN KABI 101730Z 22010KT 10SM CLR 18/M01 A3030 1440 27 2200 210/10 RMK AO2 T01831006
13962KABI ABI20160210113510502/10/16 11:35:31  5-MIN KABI 101735Z 23010KT 10SM CLR 18/M01 A3030 1440 27 2200 230/10 RMK AO2 T01831006
13962KABI ABI20160210114010402/10/16 11:40:31  5-MIN KABI 101740Z 21010KT 10SM CLR 19/00 A3030 1440 28 2300 210/10 RMK AO2 T01890000
13962KABI ABI20160210114510502/10/16 11:45:31  5-MIN KABI 101745Z 21010KT 10SM CLR 19/M01 A3030 1450 26 2300 200/10 RMK AO2 T01941006
13962KABI ABI20160210115013002/10/16 11:50:31  5-MIN KABI 101750Z 22010KT 10SM CLR 19/M01 A3029 1450 26 2300 220/10 RMK AO2 SLP249 T01891006 10194 20033 51007
13962KABI ABI20160210115510502/10/16 11:55:31  5-MIN KABI 101755Z 22011KT 10SM CLR 19/M01 A3029 1450 26 2300 220/11 RMK AO2 T01941006
13962KABI ABI20160210120010502/10/16 12:00:31  5-MIN KABI 101800Z 25009KT 10SM CLR 19/M01 A3029 1460 26 2300 240/09 RMK AO2 T01941006
13962KABI ABI20160210120510502/10/16 12:05:31  5-MIN KABI 101805Z 24011KT 10SM CLR 20/M01 A3028 1460 25 2400 230/11 RMK AO2 T02001006
13962KABI ABI20160210121010502/10/16 12:10:31  5-MIN KABI 101810Z 25007KT 10SM CLR 20/M02 A3028 1460 23 2400 240/07 RMK AO2 T02001017
13962KABI ABI20160210121510502/10/16 12:15:31  5-MIN KABI 101815Z 22010KT 10SM CLR 21/M01 A3028 1460 23 2500 220/10 RMK AO2 T02061011
13962KABI ABI20160210122010502/10/16 12:20:31  5-MIN KABI 101820Z 25012KT 10SM CLR 21/M02 A3027 1470 20 2600 240/12 RMK AO2 T02111022
13962KABI ABI20160210122510502/10/16 12:25:31  5-MIN KABI 101825Z 23012KT 10SM CLR 21/M03 A3027 1470 20 2600 220/12 RMK AO2 T02111028
13962KABI ABI20160210123010502/10/16 12:30:31  5-MIN KABI 101830Z 24010KT 10SM CLR 21/M03 A3027 1470 20 2600 230/10 RMK AO2 T02111028
13962KABI ABI20160210123510502/10/16 12:35:31  5-MIN KABI 101835Z 25011KT 10SM CLR 22/M02 A3027 1470 20 2600 240/11 RMK AO2 T02171022
13962KABI ABI20160210124010502/10/16 12:40:31  5-MIN KABI 101840Z 24012KT 10SM CLR 22/M03 A3026 1480 19 2600 230/12 RMK AO2 T02171028
13962KABI ABI20160210124511102/10/16 12:45:31  5-MIN KABI 101845Z 25010G18KT 10SM CLR 22/M02 A3026 1480 20 2600 240/10G18 RMK AO2 T02171022
13962KABI ABI20160210125011802/10/16 12:50:31  5-MIN KABI 101850Z 22011G18KT 10SM CLR 22/M02 A3025 1490 20 2600 210/11G18 RMK AO2 SLP235 T02171022
13962KABI ABI20160210125511102/10/16 12:55:31  5-MIN KABI 101855Z 23012G17KT 10SM CLR 22/M02 A3025 1490 20 2700 220/12G17 RMK AO2 T02221017
13962KABI ABI20160210130010502/10/16 13:00:31  5-MIN KABI 101900Z 22012KT 10SM CLR 22/M02 A3025 1490 20 2600 220/12 RMK AO2 T02171022
13962KABI ABI20160210130511102/10/16 13:05:31  5-MIN KABI 101905Z 24012G18KT 10SM CLR 22/M02 A3024 1490 19 2700 240/12G18 RMK AO2 T02221022
13962KABI ABI20160210131011102/10/16 13:10:31  5-MIN KABI 101910Z 24012G18KT 10SM CLR 22/M03 A3024 1500 18 2700 240/12G18 RMK AO2 T02221028
13962KABI ABI20160210131511102/10/16 13:15:31  5-MIN KABI 101915Z 25012G21KT 10SM CLR 23/M03 A3024 1500 18 2800 250/12G21 RMK AO2 T02281028
13962KABI ABI20160210132011102/10/16 13:20:31  5-MIN KABI 101920Z 23010G21KT 10SM CLR 23/M03 A3024 1500 18 2800 220/10G21 RMK AO2 T02281028
13962KABI ABI20160210132511102/10/16 13:25:31  5-MIN KABI 101925Z 22015G19KT 10SM CLR 22/M03 A3023 1510 18 2700 220/15G19 RMK AO2 T02221028
13962KABI ABI20160210133011102/10/16 13:30:31  5-MIN KABI 101930Z 23011G19KT 10SM CLR 23/M03 A3023 1510 18 2800 230/11G19 RMK AO2 T02281028
13962KABI ABI20160210133510502/10/16 13:35:31  5-MIN KABI 101935Z 24011KT 10SM CLR 23/M02 A3022 1510 18 2900 230/11 RMK AO2 T02331022
13962KABI ABI20160210134011102/10/16 13:40:31  5-MIN KABI 101940Z 26012G19KT 10SM CLR 23/M03 A3022 1520 18 2800 250/12G19 RMK AO2 T02281028
13962KABI ABI20160210134511102/10/16 13:45:31  5-MIN KABI 101945Z 22013G19KT 10SM CLR 23/M02 A3022 1520 18 2900 220/13G19 RMK AO2 T02331022
13962KABI ABI20160210135011202/10/16 13:50:31  5-MIN KABI 101950Z 22014KT 10SM CLR 23/M03 A3022 1520 17 2900 220/14 RMK AO2 SLP220 T02331028
13962KABI ABI20160210135510502/10/16 13:55:31  5-MIN KABI 101955Z 22012KT 10SM CLR 23/M03 A3021 1530 17 2900 220/12 RMK AO2 T02331028
13962KABI ABI20160210140011102/10/16 14:00:31  5-MIN KABI 102000Z 23011G16KT 10SM CLR 23/M03 A3021 1530 17 2900 220/11G16 RMK AO2 T02331028
13962KABI ABI20160210140511102/10/16 14:05:31  5-MIN KABI 102005Z 25010G17KT 10SM CLR 23/M03 A3021 1530 16 2900 240/10G17 RMK AO2 T02331033
13962KABI ABI20160210141011102/10/16 14:10:31  5-MIN KABI 102010Z 22015G19KT 10SM CLR 24/M03 A3020 1530 16 2900 220/15G19 RMK AO2 T02391033
13962KABI ABI20160210141511102/10/16 14:15:31  5-MIN KABI 102015Z 23016G21KT 10SM CLR 24/M03 A3019 1540 16 3000 220/16G21 RMK AO2 T02391033
13962KABI ABI20160210142011102/10/16 14:20:31  5-MIN KABI 102020Z 24014G21KT 10SM CLR 24/M04 A3020 1540 15 3000 240/14G21 RMK AO2 T02391039
13962KABI ABI20160210142511102/10/16 14:25:31  5-MIN KABI 102025Z 24012G19KT 10SM CLR 24/M03 A3019 1540 15 3000 240/12G19 RMK AO2 T02441033
13962KABI ABI20160210143011102/10/16 14:30:31  5-MIN KABI 102030Z 24016G19KT 10SM CLR 24/M03 A3019 1550 15 3000 230/16G19 RMK AO2 T02441033
13962KABI ABI20160210143511102/10/16 14:35:31  5-MIN KABI 102035Z 24011G19KT 10SM CLR 24/M03 A3018 1550 16 3000 240/11G19 RMK AO2 T02391033
13962KABI ABI20160210144011002/10/16 14:40:31  5-MIN KABI 102040Z 24015G19KT 9SM CLR 24/M03 A3018 1550 15 3000 230/15G19 RMK AO2 T02441033
13962KABI ABI20160210144510402/10/16 14:45:31  5-MIN KABI 102045Z 23015KT 9SM CLR 24/M03 A3017 1560 16 3000 220/15 RMK AO2 T02441028
13962KABI ABI20160210145011802/10/16 14:50:31  5-MIN KABI 102050Z 22015KT 10SM CLR 24/M03 A3017 1560 16 3000 220/15 RMK AO2 SLP207 T02391033 58010
13962KABI ABI20160210145510502/10/16 14:55:31  5-MIN KABI 102055Z 22017KT 10SM CLR 24/M03 A3017 1560 16 3000 210/17 RMK AO2 T02391033
13962KABI ABI20160210150010502/10/16 15:00:31  5-MIN KABI 102100Z 22015KT 10SM CLR 24/M03 A3017 1560 15 3000 210/15 RMK AO2 T02441033
13962KABI ABI20160210150511102/10/16 15:05:31  5-MIN KABI 102105Z 22016G21KT 10SM CLR 24/M03 A3017 1560 15 3000 210/16G21 RMK AO2 T02441033
13962KABI ABI20160210151011102/10/16 15:10:31  5-MIN KABI 102110Z 22015G21KT 10SM CLR 24/M03 A3017 1560 15 3000 220/15G21 RMK AO2 T02441033
13962KABI ABI20160210151511102/10/16 15:15:31  5-MIN KABI 102115Z 23016G21KT 10SM CLR 24/M03 A3016 1570 15 3100 220/16G21 RMK AO2 T02441033
13962KABI ABI20160210152010502/10/16 15:20:31  5-MIN KABI 102120Z 24014KT 10SM CLR 24/M04 A3016 1570 15 3100 230/14 RMK AO2 T02441039
13962KABI ABI20160210152511102/10/16 15:25:31  5-MIN KABI 102125Z 23014G21KT 10SM CLR 25/M03 A3016 1570 15 3100 220/14G21 RMK AO2 T02501033
13962KABI ABI20160210153011102/10/16 15:30:31  5-MIN KABI 102130Z 22016G22KT 10SM CLR 24/M04 A3016 1570 15 3100 220/16G22 RMK AO2 T02441039
13962KABI ABI20160210153511102/10/16 15:35:31  5-MIN KABI 102135Z 23014G22KT 10SM CLR 24/M04 A3016 1570 15 3100 220/14G22 RMK AO2 T02441039
13962KABI ABI20160210154010502/10/16 15:40:31  5-MIN KABI 102140Z 24017KT 10SM CLR 24/M04 A3015 1580 15 3100 240/17 RMK AO2 T02441039
13962KABI ABI20160210154510502/10/16 15:45:31  5-MIN KABI 102145Z 23012KT 10SM CLR 24/M04 A3015 1580 15 3100 230/12 RMK AO2 T02441039
13962KABI ABI20160210155011202/10/16 15:50:31  5-MIN KABI 102150Z 23013KT 10SM CLR 25/M04 A3015 1580 14 3100 230/13 RMK AO2 SLP199 T02501039
13962KABI ABI20160210155510502/10/16 15:55:31  5-MIN KABI 102155Z 24012KT 10SM CLR 25/M04 A3015 1580 14 3100 230/12 RMK AO2 T02501044
13962KABI ABI20160210160011102/10/16 16:00:31  5-MIN KABI 102200Z 25012G19KT 10SM CLR 25/M04 A3015 1580 14 3100 240/12G19 RMK AO2 T02501039
13962KABI ABI20160210160510502/10/16 16:05:31  5-MIN KABI 102205Z 23016KT 10SM CLR 25/M04 A3014 1590 14 3100 230/16 RMK AO2 T02501044
13962KABI ABI20160210161010502/10/16 16:10:31  5-MIN KABI 102210Z 25012KT 10SM CLR 25/M04 A3014 1590 14 3100 240/12 RMK AO2 T02501044
13962KABI ABI20160210161510502/10/16 16:15:31  5-MIN KABI 102215Z 25013KT 10SM CLR 25/M04 A3014 1590 14 3100 240/13 RMK AO2 T02501044
13962KABI ABI20160210162010502/10/16 16:20:31  5-MIN KABI 102220Z 24017KT 10SM CLR 25/M04 A3013 1590 14 3100 230/17 RMK AO2 T02501044
13962KABI ABI20160210162510502/10/16 16:25:31  5-MIN KABI 102225Z 23015KT 10SM CLR 25/M05 A3013 1600 13 3100 230/15 RMK AO2 T02501050
13962KABI ABI20160210163011102/10/16 16:30:31  5-MIN KABI 102230Z 24017G22KT 10SM CLR 25/M05 A3013 1600 13 3200 230/17G22 RMK AO2 T02501050
13962KABI ABI20160210163511102/10/16 16:35:31  5-MIN KABI 102235Z 24013G22KT 10SM CLR 25/M05 A3013 1600 13 3200 240/13G22 RMK AO2 T02501050
13962KABI ABI20160210164010402/10/16 16:40:31  5-MIN KABI 102240Z 24015KT 8SM CLR 25/M05 A3013 1600 13 3200 240/15 RMK AO2 T02501050
13962KABI ABI20160210164510402/10/16 16:45:31  5-MIN KABI 102245Z 23015KT 8SM CLR 24/M05 A3013 1600 13 3100 230/15 RMK AO2 T02441050
13962KABI ABI20160210165011702/10/16 16:50:31  5-MIN KABI 102250Z 24013G20KT 8SM CLR 24/M05 A3013 1600 13 3100 240/13G20 RMK AO2 SLP191 T02441050
13962KABI ABI20160210165511002/10/16 16:55:31  5-MIN KABI 102255Z 24009G20KT 8SM CLR 24/M05 A3013 1600 13 3100 240/09G20 RMK AO2 T02441050
13962KABI ABI20160210170010402/10/16 17:00:31  5-MIN KABI 102300Z 23014KT 9SM CLR 24/M04 A3013 1600 14 3100 220/14 RMK AO2 T02441044
13962KABI ABI20160210170510402/10/16 17:05:31  5-MIN KABI 102305Z 23013KT 9SM CLR 24/M05 A3013 1600 13 3100 230/13 RMK AO2 T02441050
13962KABI ABI20160210171010402/10/16 17:10:31  5-MIN KABI 102310Z 23011KT 9SM CLR 24/M04 A3013 1600 14 3100 230/11 RMK AO2 T02441044
13962KABI ABI20160210171510402/10/16 17:15:31  5-MIN KABI 102315Z 23014KT 9SM CLR 24/M04 A3012 1600 14 3000 230/14 RMK AO2 T02391044
13962KABI ABI20160210172010502/10/16 17:20:31  5-MIN KABI 102320Z 23011KT 10SM CLR 24/M04 A3012 1610 14 3000 230/11 RMK AO2 T02391044
13962KABI ABI20160210172510502/10/16 17:25:31  5-MIN KABI 102325Z 23012KT 10SM CLR 24/M04 A3012 1610 14 3000 230/12 RMK AO2 T02391044
13962KABI ABI20160210173010502/10/16 17:30:31  5-MIN KABI 102330Z 23012KT 10SM CLR 23/M04 A3012 1610 15 3000 220/12 RMK AO2 T02331044
13962KABI ABI20160210173510502/10/16 17:35:31  5-MIN KABI 102335Z 23011KT 10SM CLR 23/M04 A3012 1610 15 3000 220/11 RMK AO2 T02331044
13962KABI ABI20160210174010502/10/16 17:40:31  5-MIN KABI 102340Z 23011KT 10SM CLR 23/M04 A3012 1610 15 3000 230/11 RMK AO2 T02331044
13962KABI ABI20160210174510502/10/16 17:45:31  5-MIN KABI 102345Z 23012KT 10SM CLR 23/M04 A3012 1610 15 3000 220/12 RMK AO2 T02331044
13962KABI ABI20160210175013002/10/16 17:50:31  5-MIN KABI 102350Z 23010KT 10SM CLR 23/M04 A3012 1610 16 2900 230/10 RMK AO2 SLP190 T02281044 10250 20194 58038
13962KABI ABI20160210175510402/10/16 17:55:31  5-MIN KABI 102355Z 23010KT 8SM CLR 23/M04 A3012 1610 16 2900 220/10 RMK AO2 T02281044
13962KABI ABI20160210180010402/10/16 18:00:31  5-MIN KABI 110000Z 23009KT 8SM CLR 22/M04 A3012 1610 16 2900 220/09 RMK AO2 T02221044
13962KABI ABI20160210180510502/10/16 18:05:31  5-MIN KABI 110005Z 23009KT 10SM CLR 22/M04 A3012 1610 17 2800 220/09 RMK AO2 T02171039
13962KABI ABI20160210181010402/10/16 18:10:31  5-MIN KABI 110010Z 22009KT 8SM CLR 22/M04 A3012 1610 17 2800 220/09 RMK AO2 T02171044
13962KABI ABI20160210181510402/10/16 18:15:31  5-MIN KABI 110015Z 23008KT 7SM CLR 21/M04 A3012 1610 17 2700 220/08 RMK AO2 T02111044
13962KABI ABI20160210182010402/10/16 18:20:31  5-MIN KABI 110020Z 22008KT 7SM CLR 21/M04 A3012 1610 19 2700 210/08 RMK AO2 T02061039
13962KABI ABI20160210182510402/10/16 18:25:31  5-MIN KABI 110025Z 22009KT 9SM CLR 20/M04 A3012 1610 19 2600 210/09 RMK AO2 T02001039
13962KABI ABI20160210183010502/10/16 18:30:31  5-MIN KABI 110030Z 22007KT 10SM CLR 20/M04 A3012 1610 18 2600 210/07 RMK AO2 T02001044
13962KABI ABI20160210183510502/10/16 18:35:31  5-MIN KABI 110035Z 22007KT 10SM CLR 19/M04 A3012 1610 20 2500 210/07 RMK AO2 T01891044
13962KABI ABI20160210184010502/10/16 18:40:31  5-MIN KABI 110040Z 21007KT 10SM CLR 18/M04 A3012 1610 21 2400 200/07 RMK AO2 T01831044
13962KABI ABI20160210184510502/10/16 18:45:31  5-MIN KABI 110045Z 21007KT 10SM CLR 18/M04 A3012 1610 21 2300 200/07 RMK AO2 T01781044
13962KABI ABI20160210185011202/10/16 18:50:31  5-MIN KABI 110050Z 20007KT 10SM CLR 18/M04 A3012 1610 21 2300 200/07 RMK AO2 SLP193 T01781044
13962KABI ABI20160210185510502/10/16 18:55:31  5-MIN KABI 110055Z 20006KT 10SM CLR 18/M04 A3012 1610 21 2300 190/06 RMK AO2 T01781044
13962KABI ABI20160210190010502/10/16 19:00:31  5-MIN KABI 110100Z 19006KT 10SM CLR 17/M05 A3012 1610 21 2300 190/06 RMK AO2 T01721050
13962KABI ABI20160210190510502/10/16 19:05:31  5-MIN KABI 110105Z 19006KT 10SM CLR 17/M05 A3012 1610 21 2300 190/06 RMK AO2 T01721050
13962KABI ABI20160210191010502/10/16 19:10:31  5-MIN KABI 110110Z 20007KT 10SM CLR 17/M04 A3012 1610 22 2300 190/07 RMK AO2 T01721044
13962KABI ABI20160210191510502/10/16 19:15:31  5-MIN KABI 110115Z 20006KT 10SM CLR 17/M04 A3012 1610 23 2200 190/06 RMK AO2 T01671044
13962KABI ABI20160210192010502/10/16 19:20:31  5-MIN KABI 110120Z 20007KT 10SM CLR 17/M04 A3012 1610 23 2200 190/07 RMK AO2 T01671044
13962KABI ABI20160210192510502/10/16 19:25:31  5-MIN KABI 110125Z 20006KT 10SM CLR 16/M04 A3012 1610 24 2200 190/06 RMK AO2 T01611044
13962KABI ABI20160210193010502/10/16 19:30:31  5-MIN KABI 110130Z 20006KT 10SM CLR 16/M04 A3012 1610 25 2100 190/06 RMK AO2 T01561044
13962KABI ABI20160210193510502/10/16 19:35:31  5-MIN KABI 110135Z 20006KT 10SM CLR 16/M04 A3012 1610 25 2100 190/06 RMK AO2 T01561044
13962KABI ABI20160210194010502/10/16 19:40:31  5-MIN KABI 110140Z 20005KT 10SM CLR 16/M04 A3012 1610 25 2100 200/05 RMK AO2 T01561044
13962KABI ABI20160211055013002/11/16 05:50:31  5-MIN KABI 111150Z 22013KT 10SM CLR 13/M03 A3007 1650 32 1800 210/13 RMK AO2 SLP167 T01281033 10150 20122 56012
13962KABI ABI20160211055510502/11/16 05:55:31  5-MIN KABI 111155Z 22013KT 10SM CLR 13/M03 A3007 1650 32 1800 210/13 RMK AO2 T01281033
13962KABI ABI20160211060010502/11/16 06:00:31  5-MIN KABI 111200Z 21012KT 10SM CLR 13/M03 A3007 1650 32 1800 210/12 RMK AO2 T01281033
13962KABI ABI20160211060510502/11/16 06:05:31  5-MIN KABI 111205Z 22011KT 10SM CLR 13/M03 A3007 1650 32 1800 210/11 RMK AO2 T01281033
13962KABI ABI20160211061010502/11/16 06:10:31  5-MIN KABI 111210Z 22012KT 10SM CLR 13/M03 A3007 1650 32 1800 210/12 RMK AO2 T01281033
13962KABI ABI20160211061510502/11/16 06:15:31  5-MIN KABI 111215Z 22012KT 10SM CLR 13/M03 A3007 1660 32 1800 210/12 RMK AO2 T01281033
13962KABI ABI20160211062010502/11/16 06:20:31  5-MIN KABI 111220Z 22011KT 10SM CLR 13/M03 A3007 1650 32 1800 210/11 RMK AO2 T01281033
13962KABI ABI20160211062510502/11/16 06:25:31  5-MIN KABI 111225Z 22011KT 10SM CLR 13/M03 A3007 1650 32 1800 210/11 RMK AO2 T01281033
13962KABI ABI20160211063010502/11/16 06:30:31  5-MIN KABI 111230Z 22012KT 10SM CLR 13/M03 A3008 1650 31 1900 210/12 RMK AO2 T01331033
13962KABI ABI20160211063510502/11/16 06:35:31  5-MIN KABI 111235Z 22011KT 10SM CLR 13/M03 A3008 1650 31 1900 220/11 RMK AO2 T01331033
13962KABI ABI20160211064011102/11/16 06:40:31  5-MIN KABI 111240Z 22012G18KT 10SM CLR 13/M03 A3008 1650 31 1900 210/12G18 RMK AO2 T01331033
13962KABI ABI20160211064511102/11/16 06:45:31  5-MIN KABI 111245Z 22011G18KT 10SM CLR 13/M03 A3008 1640 31 1900 220/11G18 RMK AO2 T01331033
13962KABI ABI20160211065011202/11/16 06:50:31  5-MIN KABI 111250Z 22010KT 10SM CLR 13/M03 A3008 1640 31 1900 210/10 RMK AO2 SLP174 T01331033
13962KABI ABI20160211065510502/11/16 06:55:31  5-MIN KABI 111255Z 22009KT 10SM CLR 13/M03 A3008 1640 31 1900 210/09 RMK AO2 T01331033
13962KABI ABI20160211070010502/11/16 07:00:31  5-MIN KABI 111300Z 22009KT 10SM CLR 13/M03 A3009 1640 31 1900 210/09 RMK AO2 T01331033
13962KABI ABI20160211070510502/11/16 07:05:31  5-MIN KABI 111305Z 23007KT 10SM CLR 13/M03 A3009 1640 32 1800 220/07 RMK AO2 T01281033
13962KABI ABI20160211071010502/11/16 07:10:31  5-MIN KABI 111310Z 23007KT 10SM CLR 13/M03 A3009 1630 32 1800 220/07 RMK AO2 T01281033
13962KABI ABI20160211071510502/11/16 07:15:31  5-MIN KABI 111315Z 23006KT 10SM CLR 13/M03 A3010 1630 32 1800 220/06 RMK AO2 T01281033
13962KABI ABI20160211072010502/11/16 07:20:31  5-MIN KABI 111320Z 22007KT 10SM CLR 12/M03 A3009 1630 33 1700 210/07 RMK AO2 T01221033
13962KABI ABI20160211072510502/11/16 07:25:31  5-MIN KABI 111325Z 21007KT 10SM CLR 12/M03 A3009 1630 33 1700 210/07 RMK AO2 T01221033
13962KABI ABI20160211073010502/11/16 07:30:31  5-MIN KABI 111330Z 21005KT 10SM CLR 12/M03 A3009 1630 33 1700 210/05 RMK AO2 T01221033
13962KABI ABI20160211073510502/11/16 07:35:31  5-MIN KABI 111335Z 21005KT 10SM CLR 12/M03 A3009 1630 33 1700 210/05 RMK AO2 T01221033
13962KABI ABI20160211074010502/11/16 07:40:31  5-MIN KABI 111340Z VRB04KT 10SM CLR 12/M03 A3010 1630 33 1700 VRB/04 RMK AO2 T01221033
13962KABI ABI20160211074510502/11/16 07:45:31  5-MIN KABI 111345Z 00000KT 10SM CLR 13/M03 A3010 1630 32 1800 000/00 RMK AO2 T01281033
13962KABI ABI20160211075011202/11/16 07:50:31  5-MIN KABI 111350Z 26004KT 10SM CLR 12/M03 A3010 1630 33 1700 250/04 RMK AO2 SLP180 T01221033
13962KABI ABI20160211075510502/11/16 07:55:31  5-MIN KABI 111355Z 25004KT 10SM CLR 12/M03 A3010 1630 33 1700 240/04 RMK AO2 T01221033
13962KABI ABI20160211080010502/11/16 08:00:31  5-MIN KABI 111400Z VRB04KT 10SM CLR 12/M03 A3010 1630 35 1700 VRB/04 RMK AO2 T01221028
13962KABI ABI20160211080510502/11/16 08:05:31  5-MIN KABI 111405Z 35007KT 10SM CLR 12/M03 A3011 1620 36 1600 340/07 RMK AO2 T01171028
13962KABI ABI20160211081010502/11/16 08:10:31  5-MIN KABI 111410Z 32006KT 10SM CLR 12/M02 A3011 1620 38 1600 320/06 RMK AO2 T01171022
13962KABI ABI20160211081510502/11/16 08:15:31  5-MIN KABI 111415Z 30006KT 10SM CLR 13/M03 A3011 1620 33 1800 290/06 RMK AO2 T01281028
13962KABI ABI20160211082010502/11/16 08:20:31  5-MIN KABI 111420Z 33005KT 10SM CLR 13/M02 A3012 1610 34 1800 320/05 RMK AO2 T01331022
13962KABI ABI20160211082510502/11/16 08:25:31  5-MIN KABI 111425Z 29003KT 10SM CLR 13/M02 A3012 1610 35 1800 290/03 RMK AO2 T01331017
13962KABI ABI20160211083010402/11/16 08:30:31  5-MIN KABI 111430Z 24004KT 9SM CLR 14/M02 A3012 1610 34 1900 230/04 RMK AO2 T01391017
13962KABI ABI20160211083510402/11/16 08:35:31  5-MIN KABI 111435Z VRB03KT 9SM CLR 14/M02 A3013 1600 31 2000 VRB/03 RMK AO2 T01441022
13962KABI ABI20160211084010502/11/16 08:40:31  5-MIN KABI 111440Z 01004KT 10SM CLR 14/M02 A3013 1600 33 2000 360/04 RMK AO2 T01441017
13962KABI ABI20160211084510502/11/16 08:45:31  5-MIN KABI 111445Z 35005KT 10SM CLR 14/M02 A3013 1600 34 1900 350/05 RMK AO2 T01391017
13962KABI ABI20160211085011802/11/16 08:50:31  5-MIN KABI 111450Z 00000KT 10SM CLR 14/M02 A3013 1600 34 1900 000/00 RMK AO2 SLP190 T01391017 53002
13962KABI ABI20160211085510502/11/16 08:55:31  5-MIN KABI 111455Z 35006KT 10SM CLR 14/M02 A3013 1600 34 1900 350/06 RMK AO2 T01391017
13962KABI ABI20160211090010502/11/16 09:00:31  5-MIN KABI 111500Z 00000KT 10SM CLR 14/M02 A3013 1600 34 1900 000/00 RMK AO2 T01391017
13962KABI ABI20160211090510502/11/16 09:05:31  5-MIN KABI 111505Z 34003KT 10SM CLR 14/M02 A3013 1600 34 1900 330/03 RMK AO2 T01391017
13962KABI ABI20160211091010502/11/16 09:10:31  5-MIN KABI 111510Z 35005KT 10SM CLR 14/M01 A3013 1600 34 1900 340/05 RMK AO2 T01441011
13962KABI ABI20160211091510502/11/16 09:15:31  5-MIN KABI 111515Z 00000KT 10SM CLR 14/M02 A3013 1600 33 1900 000/00 RMK AO2 T01441017
13962KABI ABI20160211092010502/11/16 09:20:31  5-MIN KABI 111520Z 36009KT 10SM CLR 15/M01 A3014 1590 33 2000 350/09 RMK AO2 T01501011
13962KABI ABI20160211092510502/11/16 09:25:31  5-MIN KABI 111525Z 35007KT 10SM CLR 14/M02 A3013 1590 33 1900 340/07 RMK AO2 T01441017
13962KABI ABI20160211093010502/11/16 09:30:31  5-MIN KABI 111530Z 34005KT 10SM CLR 14/M02 A3013 1600 33 1900 340/05 RMK AO2 T01441017
13962KABI ABI20160211093510502/11/16 09:35:31  5-MIN KABI 111535Z 34006KT 10SM CLR 15/M01 A3013 1600 33 2000 340/06 RMK AO2 T01501011
13962KABI ABI20160211094010502/11/16 09:40:31  5-MIN KABI 111540Z 36005KT 10SM CLR 15/M02 A3013 1600 31 2000 350/05 RMK AO2 T01501017
13962KABI ABI20160211094510502/11/16 09:45:31  5-MIN KABI 111545Z 33004KT 10SM CLR 16/M01 A3013 1600 31 2100 320/04 RMK AO2 T01561011
13962KABI ABI20160211095011202/11/16 09:50:31  5-MIN KABI 111550Z 00000KT 10SM CLR 16/M02 A3013 1600 30 2100 000/00 RMK AO2 SLP192 T01561017
13962KABI ABI20160211095510502/11/16 09:55:31  5-MIN KABI 111555Z 32004KT 10SM CLR 16/M01 A3013 1600 30 2100 310/04 RMK AO2 T01611011
13962KABI ABI20160211100010502/11/16 10:00:31  5-MIN KABI 111600Z 34006KT 10SM CLR 16/M01 A3014 1590 30 2100 330/06 RMK AO2 T01611011
13962KABI ABI20160211100510502/11/16 10:05:31  5-MIN KABI 111605Z 34007KT 10SM CLR 16/M01 A3014 1590 30 2100 330/07 RMK AO2 T01611011
13962KABI ABI20160211101010502/11/16 10:10:31  5-MIN KABI 111610Z 35008KT 10SM CLR 16/M01 A3015 1580 30 2100 340/08 RMK AO2 T01611011
13962KABI ABI20160211101510502/11/16 10:15:31  5-MIN KABI 111615Z 34007KT 10SM CLR 16/M02 A3015 1580 29 2100 330/07 RMK AO2 T01611017
13962KABI ABI20160211102010502/11/16 10:20:31  5-MIN KABI 111620Z 35007KT 10SM CLR 17/M02 A3015 1580 28 2200 350/07 RMK AO2 T01671017
13962KABI ABI20160211102510502/11/16 10:25:31  5-MIN KABI 111625Z 32005KT 10SM CLR 17/M02 A3014 1590 28 2200 310/05 RMK AO2 T01671017
13962KABI ABI20160211103010502/11/16 10:30:31  5-MIN KABI 111630Z 32006KT 10SM CLR 17/M02 A3014 1590 27 2300 310/06 RMK AO2 T01721017
13962KABI ABI20160211103510502/11/16 10:35:31  5-MIN KABI 111635Z 32005KT 10SM CLR 17/M02 A3014 1590 27 2300 310/05 RMK AO2 T01721017
13962KABI ABI20160211104010502/11/16 10:40:31  5-MIN KABI 111640Z 32007KT 10SM CLR 17/M02 A3015 1580 27 2200 310/07 RMK AO2 T01721017
13962KABI ABI20160211104510502/11/16 10:45:31  5-MIN KABI 111645Z 33007KT 10SM CLR 17/M01 A3015 1580 28 2200 330/07 RMK AO2 T01721011
13962KABI ABI20160211105011202/11/16 10:50:31  5-MIN KABI 111650Z 34006KT 10SM CLR 18/M01 A3015 1580 27 2300 330/06 RMK AO2 SLP198 T01781011
13962KABI ABI20160211105510502/11/16 10:55:31  5-MIN KABI 111655Z 34004KT 10SM CLR 18/M01 A3015 1580 27 2300 330/04 RMK AO2 T01781011
13962KABI ABI20160211110010502/11/16 11:00:31  5-MIN KABI 111700Z 31006KT 10SM CLR 18/M01 A3015 1580 26 2400 300/06 RMK AO2 T01831011
13962KABI ABI20160211110510502/11/16 11:05:31  5-MIN KABI 111705Z 31007KT 10SM CLR 18/M01 A3015 1580 27 2300 300/07 RMK AO2 T01781011
13962KABI ABI20160211111010502/11/16 11:10:31  5-MIN KABI 111710Z 31005KT 10SM CLR 18/M01 A3015 1580 27 2300 300/05 RMK AO2 T01781011
13962KABI ABI20160211111510502/11/16 11:15:31  5-MIN KABI 111715Z 28005KT 10SM CLR 18/M01 A3015 1580 26 2400 270/05 RMK AO2 T01831011
13962KABI ABI20160211112010502/11/16 11:20:31  5-MIN KABI 111720Z 32009KT 10SM CLR 19/M01 A3015 1580 25 2400 310/09 RMK AO2 T01891011
13962KABI ABI20160211112510502/11/16 11:25:31  5-MIN KABI 111725Z 32007KT 10SM CLR 19/M01 A3014 1590 25 2400 320/07 RMK AO2 T01891011
13962KABI ABI20160211113010502/11/16 11:30:31  5-MIN KABI 111730Z 26007KT 10SM CLR 18/M01 A3015 1590 26 2400 250/07 RMK AO2 T01831011
13962KABI ABI20160211113510502/11/16 11:35:31  5-MIN KABI 111735Z 30007KT 10SM CLR 18/M02 A3015 1590 25 2400 290/07 RMK AO2 T01831017
13962KABI ABI20160211114010502/11/16 11:40:31  5-MIN KABI 111740Z 31007KT 10SM CLR 19/M01 A3014 1590 25 2400 300/07 RMK AO2 T01891011
13962KABI ABI20160211114510502/11/16 11:45:31  5-MIN KABI 111745Z 27006KT 10SM CLR 19/M01 A3014 1590 25 2400 270/06 RMK AO2 T01891011
13962KABI ABI20160211115013002/11/16 11:50:31  5-MIN KABI 111750Z 29007KT 10SM CLR 19/M01 A3014 1590 26 2500 290/07 RMK AO2 SLP194 T01941006 10194 20117 53020
13962KABI ABI20160211115510502/11/16 11:55:31  5-MIN KABI 111755Z 29009KT 10SM CLR 19/M01 A3014 1590 25 2500 290/09 RMK AO2 T01941011
13962KABI ABI20160211120010502/11/16 12:00:31  5-MIN KABI 111800Z 31009KT 10SM CLR 19/M01 A3014 1590 26 2500 310/09 RMK AO2 T01941006
13962KABI ABI20160211120510502/11/16 12:05:31  5-MIN KABI 111805Z 32009KT 10SM CLR 19/M01 A3014 1590 26 2400 320/09 RMK AO2 T01891006
13962KABI ABI20160211121010502/11/16 12:10:31  5-MIN KABI 111810Z 32008KT 10SM CLR 19/M01 A3014 1590 26 2500 310/08 RMK AO2 T01941006
13962KABI ABI20160211121510402/11/16 12:15:31  5-MIN KABI 111815Z 33008KT 9SM CLR 19/M01 A3014 1590 26 2500 330/08 RMK AO2 T01941006
13962KABI ABI20160211122010502/11/16 12:20:31  5-MIN KABI 111820Z 30009KT 10SM CLR 20/M01 A3014 1590 25 2600 290/09 RMK AO2 T02001006
13962KABI ABI20160211122510502/11/16 12:25:31  5-MIN KABI 111825Z 30007KT 10SM CLR 19/M01 A3014 1590 25 2500 300/07 RMK AO2 T01941011
13962KABI ABI20160211123010502/11/16 12:30:31  5-MIN KABI 111830Z 30008KT 10SM CLR 19/M01 A3013 1600 25 2500 300/08 RMK AO2 T01941011
13962KABI ABI20160211123510502/11/16 12:35:31  5-MIN KABI 111835Z 30007KT 10SM CLR 20/M01 A3013 1600 25 2600 300/07 RMK AO2 T02001006
13962KABI ABI20160211124010402/11/16 12:40:31  5-MIN KABI 111840Z 36009KT 10SM CLR 20/00 A3013 1600 26 2600 350/09 RMK AO2 T02000000
13962KABI ABI20160211124510402/11/16 12:45:31  5-MIN KABI 111845Z 33008KT 10SM CLR 21/00 A3013 1600 25 2700 320/08 RMK AO2 T02060000
13962KABI ABI20160211125011202/11/16 12:50:31  5-MIN KABI 111850Z 34008KT 10SM CLR 20/M01 A3012 1610 25 2600 330/08 RMK AO2 SLP185 T02001006
13962KABI ABI20160211125510502/11/16 12:55:31  5-MIN KABI 111855Z 36006KT 10SM CLR 20/M01 A3012 1610 25 2600 350/06 RMK AO2 T02001006
13962KABI ABI20160211130010402/11/16 13:00:31  5-MIN KABI 111900Z 34007KT 10SM CLR 20/00 A3012 1610 26 2600 330/07 RMK AO2 T02000000
13962KABI ABI20160211130510502/11/16 13:05:31  5-MIN KABI 111905Z 35005KT 10SM CLR 20/M01 A3012 1610 25 2600 350/05 RMK AO2 T02001006
13962KABI ABI20160211131010402/11/16 13:10:31  5-MIN KABI 111910Z VRB06KT 10SM CLR 21/00 A3011 1610 25 2700 VRB/06 RMK AO2 T02060000
13962KABI ABI20160211131510502/11/16 13:15:31  5-MIN KABI 111915Z 34006KT 10SM CLR 20/M01 A3011 1610 25 2600 330/06 RMK AO2 T02001006
13962KABI ABI20160211132010502/11/16 13:20:31  5-MIN KABI 111920Z 29006KT 10SM CLR 20/M01 A3011 1620 25 2600 290/06 RMK AO2 T02001006
13962KABI ABI20160211132510502/11/16 13:25:31  5-MIN KABI 111925Z 34007KT 10SM CLR 21/M01 A3011 1620 24 2700 340/07 RMK AO2 T02061006
13962KABI ABI20160211133010502/11/16 13:30:31  5-MIN KABI 111930Z 33009KT 10SM CLR 21/M01 A3011 1620 23 2700 320/09 RMK AO2 T02061011
13962KABI ABI20160211133510502/11/16 13:35:31  5-MIN KABI 111935Z 35009KT 10SM CLR 21/M01 A3011 1620 23 2700 350/09 RMK AO2 T02061011
13962KABI ABI20160211134010502/11/16 13:40:31  5-MIN KABI 111940Z 32008KT 10SM CLR 21/M01 A3011 1620 23 2700 310/08 RMK AO2 T02061011
13962KABI ABI20160211134510502/11/16 13:45:31  5-MIN KABI 111945Z 35008KT 10SM CLR 21/M02 A3010 1620 22 2700 340/08 RMK AO2 T02061017
13962KABI ABI20160211135011202/11/16 13:50:31  5-MIN KABI 111950Z 36006KT 10SM CLR 21/M02 A3010 1630 22 2700 360/06 RMK AO2 SLP178 T02061017
13962KABI ABI20160211135510502/11/16 13:55:31  5-MIN KABI 111955Z 34007KT 10SM CLR 21/M02 A3010 1630 21 2800 330/07 RMK AO2 T02111017
13962KABI ABI20160211140012102/11/16 14:00:31  5-MIN KABI 112000Z 33007KT 300V360 10SM CLR 21/M02 A3010 1630 22 2700 320/07 300V360 RMK AO2 T02061017
13962KABI ABI20160211140510502/11/16 14:05:31  5-MIN KABI 112005Z 36007KT 10SM CLR 21/M01 A3010 1630 22 2800 350/07 RMK AO2 T02111011
13962KABI ABI20160211141010502/11/16 14:10:31  5-MIN KABI 112010Z 33009KT 10SM CLR 21/M01 A3010 1630 23 2800 320/09 RMK AO2 T02111006
13962KABI ABI20160211141510502/11/16 14:15:31  5-MIN KABI 112015Z 32008KT 10SM CLR 21/M01 A3009 1630 22 2800 320/08 RMK AO2 T02111011
13962KABI ABI20160211142010502/11/16 14:20:31  5-MIN KABI 112020Z 01007KT 10SM CLR 21/M01 A3009 1630 22 2800 010/07 RMK AO2 T02111011
13962KABI ABI20160211142510502/11/16 14:25:31  5-MIN KABI 112025Z 36007KT 10SM CLR 21/M01 A3009 1630 22 2800 350/07 RMK AO2 T02111011
13962KABI ABI20160211143010502/11/16 14:30:31  5-MIN KABI 112030Z 33005KT 10SM CLR 21/M01 A3009 1630 22 2800 330/05 RMK AO2 T02111011
13962KABI ABI20160211143510502/11/16 14:35:31  5-MIN KABI 112035Z 34005KT 10SM CLR 22/M01 A3010 1630 21 2800 340/05 RMK AO2 T02171011
13962KABI ABI20160211144010502/11/16 14:40:31  5-MIN KABI 112040Z 33007KT 10SM CLR 22/M01 A3009 1630 21 2800 330/07 RMK AO2 T02171011
13962KABI ABI20160211144510502/11/16 14:45:31  5-MIN KABI 112045Z 33005KT 10SM CLR 22/M01 A3009 1630 21 2800 330/05 RMK AO2 T02171011
13962KABI ABI20160211145011802/11/16 14:50:31  5-MIN KABI 112050Z 34005KT 10SM CLR 21/M01 A3009 1640 22 2800 330/05 RMK AO2 SLP174 T02111011 50004
13962KABI ABI20160211145510502/11/16 14:55:31  5-MIN KABI 112055Z 34005KT 10SM CLR 22/M02 A3009 1640 20 2800 330/05 RMK AO2 T02171017
13962KABI ABI20160211150010502/11/16 15:00:31  5-MIN KABI 112100Z 01003KT 10SM CLR 22/M02 A3009 1640 20 2800 010/03 RMK AO2 T02171017
13962KABI ABI20160211150510502/11/16 15:05:31  5-MIN KABI 112105Z 35003KT 10SM CLR 22/M02 A3009 1640 20 2800 340/03 RMK AO2 T02171017
13962KABI ABI20160211151010502/11/16 15:10:31  5-MIN KABI 112110Z 00000KT 10SM CLR 22/M02 A3009 1640 20 2800 000/00 RMK AO2 T02171017
13962KABI ABI20160211151510502/11/16 15:15:31  5-MIN KABI 112115Z 31005KT 10SM CLR 22/M02 A3009 1640 20 2900 310/05 RMK AO2 T02221017
13962KABI ABI20160211152010502/11/16 15:20:31  5-MIN KABI 112120Z 02004KT 10SM CLR 22/M02 A3009 1640 20 2900 020/04 RMK AO2 T02221017
13962KABI ABI20160211152510502/11/16 15:25:31  5-MIN KABI 112125Z 35006KT 10SM CLR 22/M02 A3009 1640 20 2900 350/06 RMK AO2 T02221017
13962KABI ABI20160211153010502/11/16 15:30:31  5-MIN KABI 112130Z 35006KT 10SM CLR 22/M01 A3009 1640 21 2900 350/06 RMK AO2 T02221011
13962KABI ABI20160211153510502/11/16 15:35:31  5-MIN KABI 112135Z 36004KT 10SM CLR 22/M01 A3009 1640 21 2900 350/04 RMK AO2 T02221011
13962KABI ABI20160211154010502/11/16 15:40:31  5-MIN KABI 112140Z 01007KT 10SM CLR 22/M01 A3009 1630 21 2900 360/07 RMK AO2 T02221011
13962KABI ABI20160211154510502/11/16 15:45:31  5-MIN KABI 112145Z 05004KT 10SM CLR 22/M01 A3009 1640 21 2900 050/04 RMK AO2 T02221011
13962KABI ABI20160211155011202/11/16 15:50:31  5-MIN KABI 112150Z 35006KT 10SM CLR 22/M01 A3008 1640 21 2900 340/06 RMK AO2 SLP171 T02221011
13962KABI ABI20160211155510502/11/16 15:55:31  5-MIN KABI 112155Z 33005KT 10SM CLR 22/M01 A3009 1640 21 2900 330/05 RMK AO2 T02221011
13962KABI ABI20160211160010502/11/16 16:00:31  5-MIN KABI 112200Z 00000KT 10SM CLR 22/M02 A3009 1640 20 2900 000/00 RMK AO2 T02221017
13962KABI ABI20160211160510502/11/16 16:05:31  5-MIN KABI 112205Z 04005KT 10SM CLR 22/M01 A3009 1640 21 2900 030/05 RMK AO2 T02221011
13962KABI ABI20160211161010502/11/16 16:10:31  5-MIN KABI 112210Z 30004KT 10SM CLR 22/M02 A3009 1640 20 2900 300/04 RMK AO2 T02221017
13962KABI ABI20160211161510502/11/16 16:15:31  5-MIN KABI 112215Z 33004KT 10SM CLR 22/M01 A3008 1640 21 2900 330/04 RMK AO2 T02221011
13962KABI ABI20160211162010502/11/16 16:20:31  5-MIN KABI 112220Z 01004KT 10SM CLR 22/M02 A3008 1640 20 2900 360/04 RMK AO2 T02221017
13962KABI ABI20160211162510502/11/16 16:25:31  5-MIN KABI 112225Z 33005KT 10SM CLR 22/M01 A3008 1640 21 2900 330/05 RMK AO2 T02221011
13962KABI ABI20160211163010502/11/16 16:30:31  5-MIN KABI 112230Z 01004KT 10SM CLR 23/M01 A3008 1640 20 3000 010/04 RMK AO2 T02281011
13962KABI ABI20160211163510502/11/16 16:35:31  5-MIN KABI 112235Z 00000KT 10SM CLR 22/M02 A3008 1640 20 2900 000/00 RMK AO2 T02221017
13962KABI ABI20160211164010502/11/16 16:40:31  5-MIN KABI 112240Z VRB03KT 10SM CLR 22/M02 A3008 1640 19 2900 VRB/03 RMK AO2 T02221022
13962KABI ABI20160211164510502/11/16 16:45:31  5-MIN KABI 112245Z 01004KT 10SM CLR 23/M02 A3009 1640 19 3000 360/04 RMK AO2 T02281017
13962KABI ABI20160211165011202/11/16 16:50:31  5-MIN KABI 112250Z 00000KT 10SM CLR 23/M02 A3009 1640 19 3000 000/00 RMK AO2 SLP172 T02281017
13962KABI ABI20160211165510502/11/16 16:55:31  5-MIN KABI 112255Z 34003KT 10SM CLR 23/M02 A3009 1640 18 3000 330/03 RMK AO2 T02281022
13962KABI ABI20160211170010502/11/16 17:00:31  5-MIN KABI 112300Z 33003KT 10SM CLR 22/M02 A3009 1640 19 2900 320/03 RMK AO2 T02221022
13962KABI ABI20160211170510502/11/16 17:05:31  5-MIN KABI 112305Z 34004KT 10SM CLR 22/M02 A3009 1630 20 2900 340/04 RMK AO2 T02221017
13962KABI ABI20160211171010502/11/16 17:10:31  5-MIN KABI 112310Z 34005KT 10SM CLR 22/M02 A3009 1630 20 2900 330/05 RMK AO2 T02221017
13962KABI ABI20160211171510502/11/16 17:15:31  5-MIN KABI 112315Z 33004KT 10SM CLR 22/M02 A3009 1630 20 2800 320/04 RMK AO2 T02171017
13962KABI ABI20160211172010502/11/16 17:20:31  5-MIN KABI 112320Z 33004KT 10SM CLR 22/M02 A3009 1630 20 2800 320/04 RMK AO2 T02171017
13962KABI ABI20160211172510502/11/16 17:25:31  5-MIN KABI 112325Z 32004KT 10SM CLR 21/M02 A3010 1630 21 2800 310/04 RMK AO2 T02111017
13962KABI ABI20160211173010502/11/16 17:30:31  5-MIN KABI 112330Z 34006KT 10SM CLR 21/M02 A3010 1630 21 2800 330/06 RMK AO2 T02111017
13962KABI ABI20160211173510502/11/16 17:35:31  5-MIN KABI 112335Z 34005KT 10SM CLR 21/M01 A3010 1630 22 2700 330/05 RMK AO2 T02111011
13962KABI ABI20160211174010502/11/16 17:40:31  5-MIN KABI 112340Z 34005KT 10SM CLR 21/M01 A3010 1630 23 2700 330/05 RMK AO2 T02111006
13962KABI ABI20160211174510502/11/16 17:45:31  5-MIN KABI 112345Z 33005KT 10SM CLR 21/M01 A3010 1630 24 2700 330/05 RMK AO2 T02061006
13962KABI ABI20160211175013002/11/16 17:50:31  5-MIN KABI 112350Z 33005KT 10SM CLR 20/M01 A3010 1620 25 2600 330/05 RMK AO2 SLP180 T02001006 10228 20189 56017
13962KABI ABI20160211175510502/11/16 17:55:31  5-MIN KABI 112355Z 33004KT 10SM CLR 20/M01 A3011 1620 25 2600 330/04 RMK AO2 T02001006
13962KABI ABI20160211180010502/11/16 18:00:31  5-MIN KABI 120000Z 33004KT 10SM CLR 19/M01 A3011 1620 25 2500 320/04 RMK AO2 T01941011
13962KABI ABI20160211180510502/11/16 18:05:31  5-MIN KABI 120005Z 33004KT 10SM CLR 19/M01 A3011 1620 25 2500 320/04 RMK AO2 T01941011
13962KABI ABI20160211181010502/11/16 18:10:31  5-MIN KABI 120010Z 33003KT 10SM CLR 19/M02 A3011 1620 24 2500 320/03 RMK AO2 T01941017
13962KABI ABI20160211181510502/11/16 18:15:31  5-MIN KABI 120015Z 32003KT 10SM CLR 19/M02 A3011 1620 24 2500 320/03 RMK AO2 T01941017
13962KABI ABI20160211182010502/11/16 18:20:31  5-MIN KABI 120020Z 32004KT 10SM CLR 19/M02 A3011 1620 24 2500 320/04 RMK AO2 T01891017
13962KABI ABI20160211182510502/11/16 18:25:31  5-MIN KABI 120025Z 31003KT 10SM CLR 19/M02 A3011 1620 23 2500 300/03 RMK AO2 T01891022
13962KABI ABI20160211183010502/11/16 18:30:31  5-MIN KABI 120030Z 29003KT 10SM CLR 18/M02 A3011 1620 25 2400 290/03 RMK AO2 T01831017
13962KABI ABI20160211183510502/11/16 18:35:31  5-MIN KABI 120035Z 29003KT 10SM CLR 18/M02 A3011 1620 24 2400 290/03 RMK AO2 T01831022
13962KABI ABI20160211184010502/11/16 18:40:31  5-MIN KABI 120040Z 31004KT 10SM CLR 18/M02 A3011 1620 26 2400 300/04 RMK AO2 T01781017
13962KABI ABI20160211184510502/11/16 18:45:31  5-MIN KABI 120045Z 31003KT 10SM CLR 18/M02 A3011 1620 26 2400 300/03 RMK AO2 T01781017
13962KABI ABI20160211185011202/11/16 18:50:31  5-MIN KABI 120050Z 29003KT 10SM CLR 18/M01 A3012 1610 27 2300 280/03 RMK AO2 SLP185 T01781011
13962KABI ABI20160211185510502/11/16 18:55:31  5-MIN KABI 120055Z 31004KT 10SM CLR 18/M01 A3012 1610 27 2300 310/04 RMK AO2 T01781011
13962KABI ABI20160211190010502/11/16 19:00:31  5-MIN KABI 120100Z 33003KT 10SM CLR 17/M02 A3012 1610 27 2300 320/03 RMK AO2 T01721017
13962KABI ABI20160211190510502/11/16 19:05:31  5-MIN KABI 120105Z 33004KT 10SM CLR 17/M02 A3012 1610 27 2300 320/04 RMK AO2 T01721017
13962KABI ABI20160211191010502/11/16 19:10:31  5-MIN KABI 120110Z 33004KT 10SM CLR 17/M02 A3012 1610 27 2300 320/04 RMK AO2 T01721017
13962KABI ABI20160211191510502/11/16 19:15:31  5-MIN KABI 120115Z 33005KT 10SM CLR 17/M02 A3012 1610 27 2300 330/05 RMK AO2 T01721017
13962KABI ABI20160211192010502/11/16 19:20:31  5-MIN KABI 120120Z 34006KT 10SM CLR 17/M02 A3012 1610 28 2200 330/06 RMK AO2 T01671017
13962KABI ABI20160211192510502/11/16 19:25:31  5-MIN KABI 120125Z 34006KT 10SM CLR 16/M01 A3012 1600 30 2100 340/06 RMK AO2 T01611011
13962KABI ABI20160211193010502/11/16 19:30:31  5-MIN KABI 120130Z 34007KT 10SM CLR 16/M01 A3013 1600 31 2100 340/07 RMK AO2 T01561011
13962KABI ABI20160211193510502/11/16 19:35:31  5-MIN KABI 120135Z 34007KT 10SM CLR 15/M01 A3013 1600 34 2000 340/07 RMK AO2 T01501006
13962KABI ABI20160211194010502/11/16 19:40:31  5-MIN KABI 120140Z 34006KT 10SM CLR 15/M01 A3013 1600 34 2000 340/06 RMK AO2 T01501006
13962KABI ABI20160211194510402/11/16 19:45:31  5-MIN KABI 120145Z 35006KT 10SM CLR 15/00 A3013 1600 35 2000 340/06 RMK AO2 T01500000
13962KABI ABI20160211195011102/11/16 19:50:31  5-MIN KABI 120150Z 01005KT 10SM CLR 16/00 A3013 1600 34 2100 010/05 RMK AO2 SLP193 T01560000
13962KABI ABI20160211195510402/11/16 19:55:31  5-MIN KABI 120155Z 01005KT 10SM CLR 16/00 A3014 1590 34 2100 360/05 RMK AO2 T01560000
13962KABI ABI20160211200010402/11/16 20:00:31  5-MIN KABI 120200Z 36005KT 10SM CLR 15/00 A3014 1590 35 2000 360/05 RMK AO2 T01500000
13962KABI ABI20160211200510402/11/16 20:05:31  5-MIN KABI 120205Z 01006KT 10SM CLR 15/00 A3014 1590 35 2000 360/06 RMK AO2 T01500000
13962KABI ABI20160211201010402/11/16 20:10:31  5-MIN KABI 120210Z 01006KT 10SM CLR 15/00 A3015 1590 35 2000 360/06 RMK AO2 T01500000
13962KABI ABI20160211201510402/11/16 20:15:31  5-MIN KABI 120215Z 01005KT 10SM CLR 14/00 A3015 1580 37 1900 010/05 RMK AO2 T01440000
13962KABI ABI20160211202010402/11/16 20:20:31  5-MIN KABI 120220Z 01005KT 10SM CLR 14/00 A3015 1580 37 1900 010/05 RMK AO2 T01440000
13962KABI ABI20160211202510402/11/16 20:25:31  5-MIN KABI 120225Z 02005KT 10SM CLR 14/00 A3015 1580 38 1900 010/05 RMK AO2 T01390000
13962KABI ABI20160211203010402/11/16 20:30:31  5-MIN KABI 120230Z 02005KT 10SM CLR 14/00 A3015 1580 38 1900 020/05 RMK AO2 T01390000
13962KABI ABI20160211203510402/11/16 20:35:31  5-MIN KABI 120235Z 03004KT 10SM CLR 14/00 A3014 1590 38 1900 030/04 RMK AO2 T01390000
13962KABI ABI20160211204010402/11/16 20:40:31  5-MIN KABI 120240Z 04004KT 10SM CLR 14/00 A3014 1590 38 1900 030/04 RMK AO2 T01390000
13962KABI ABI20160211204510402/11/16 20:45:31  5-MIN KABI 120245Z 05005KT 10SM CLR 14/00 A3015 1580 38 1900 040/05 RMK AO2 T01390000
13962KABI ABI20160211205011702/11/16 20:50:31  5-MIN KABI 120250Z 05005KT 10SM CLR 14/00 A3015 1590 37 1900 040/05 RMK AO2 SLP196 T01440000 53005
13962KABI ABI20160211205510402/11/16 20:55:31  5-MIN KABI 120255Z 07004KT 10SM CLR 14/00 A3015 1580 38 1900 060/04 RMK AO2 T01390000
13962KABI ABI20160211210010402/11/16 21:00:31  5-MIN KABI 120300Z 06003KT 10SM CLR 14/00 A3015 1580 38 1900 060/03 RMK AO2 T01390000
13962KABI ABI20160211210510402/11/16 21:05:31  5-MIN KABI 120305Z 00000KT 10SM CLR 14/00 A3015 1580 38 1900 000/00 RMK AO2 T01390000
13962KABI ABI20160211211010402/11/16 21:10:31  5-MIN KABI 120310Z 00000KT 10SM CLR 11/00 A3015 1580 46 1500 000/00 RMK AO2 T01110000
13962KABI ABI20160211211510402/11/16 21:15:31  5-MIN KABI 120315Z 00000KT 10SM CLR 12/00 A3015 1580 44 1600 000/00 RMK AO2 T01170000
13962KABI ABI20160211212010402/11/16 21:20:31  5-MIN KABI 120320Z 00000KT 10SM CLR 11/00 A3015 1580 46 1500 000/00 RMK AO2 T01110000
13962KABI ABI20160211212510502/11/16 21:25:31  5-MIN KABI 120325Z 00000KT 10SM CLR 10/M01 A3015 1580 47 1400 000/00 RMK AO2 T01001006
13962KABI ABI20160211213010502/11/16 21:30:31  5-MIN KABI 120330Z 00000KT 10SM CLR 10/M01 A3015 1580 47 1400 000/00 RMK AO2 T01001006
13962KABI ABI20160211213510502/11/16 21:35:31  5-MIN KABI 120335Z 00000KT 10SM CLR 09/M01 A3015 1580 49 1300 000/00 RMK AO2 T00941006
13962KABI ABI20160211214010402/11/16 21:40:31  5-MIN KABI 120340Z 21003KT 10SM CLR 10/00 A3015 1580 49 1400 200/03 RMK AO2 T01000000
13962KABI ABI20160211214510402/11/16 21:45:31  5-MIN KABI 120345Z 00000KT 10SM CLR 09/00 A3015 1580 51 1300 000/00 RMK AO2 T00940000
13962KABI ABI20160211215011102/11/16 21:50:31  5-MIN KABI 120350Z 00000KT 10SM CLR 09/00 A3015 1580 51 1300 000/00 RMK AO2 SLP202 T00940000
13962KABI ABI20160211215510402/11/16 21:55:31  5-MIN KABI 120355Z 00000KT 10SM CLR 10/00 A3015 1580 49 1400 000/00 RMK AO2 T01000000
13962KABI ABI20160211220010402/11/16 22:00:31  5-MIN KABI 120400Z 00000KT 10SM CLR 10/00 A3016 1580 49 1400 000/00 RMK AO2 T01000000
13962KABI ABI20160211220510402/11/16 22:05:31  5-MIN KABI 120405Z 29003KT 10SM CLR 10/00 A3016 1570 49 1400 290/03 RMK AO2 T01000000
13962KABI ABI20160211221010402/11/16 22:10:31  5-MIN KABI 120410Z 30003KT 10SM CLR 10/00 A3016 1570 49 1400 290/03 RMK AO2 T01000000
13962KABI ABI20160211221510402/11/16 22:15:31  5-MIN KABI 120415Z 00000KT 10SM CLR 10/00 A3016 1570 49 1400 000/00 RMK AO2 T01000000
13962KABI ABI20160211222010402/11/16 22:20:31  5-MIN KABI 120420Z 32003KT 10SM CLR 11/00 A3016 1570 48 1500 310/03 RMK AO2 T01060000
13962KABI ABI20160211222510402/11/16 22:25:31  5-MIN KABI 120425Z 34003KT 10SM CLR 11/00 A3016 1570 48 1500 340/03 RMK AO2 T01060000
13962KABI ABI20160211223010402/11/16 22:30:31  5-MIN KABI 120430Z 00000KT 10SM CLR 11/01 A3016 1570 50 1400 000/00 RMK AO2 T01060006
13962KABI ABI20160211223510402/11/16 22:35:31  5-MIN KABI 120435Z 33003KT 10SM CLR 11/01 A3016 1570 50 1400 330/03 RMK AO2 T01060006
13962KABI ABI20160211224010402/11/16 22:40:31  5-MIN KABI 120440Z 33003KT 10SM CLR 11/00 A3016 1570 48 1400 330/03 RMK AO2 T01060000
13962KABI ABI20160211224510402/11/16 22:45:31  5-MIN KABI 120445Z 00000KT 10SM CLR 10/01 A3017 1570 52 1400 000/00 RMK AO2 T01000006
13962KABI ABI20160211225011102/11/16 22:50:31  5-MIN KABI 120450Z 00000KT 10SM CLR 09/01 A3017 1560 56 1300 000/00 RMK AO2 SLP205 T00940011
13962KABI ABI20160211225510402/11/16 22:55:31  5-MIN KABI 120455Z 00000KT 10SM CLR 07/01 A3017 1560 62 1000 000/00 RMK AO2 T00720006
13962KABI ABI20160211230010402/11/16 23:00:31  5-MIN KABI 120500Z 00000KT 10SM CLR 07/01 A3017 1560 62 1000 000/00 RMK AO2 T00720006
13962KABI ABI20160211230510402/11/16 23:05:31  5-MIN KABI 120505Z 00000KT 10SM CLR 07/01 A3017 1560 62 1000 000/00 RMK AO2 T00720006
13962KABI ABI20160211231010402/11/16 23:10:31  5-MIN KABI 120510Z 00000KT 10SM CLR 07/01 A3017 1560 62 1000 000/00 RMK AO2 T00720006
13962KABI ABI20160211231510402/11/16 23:15:31  5-MIN KABI 120515Z 00000KT 10SM CLR 08/01 A3018 1560 60 1100 000/00 RMK AO2 T00780006
13962KABI ABI20160211232010402/11/16 23:20:31  5-MIN KABI 120520Z 00000KT 10SM CLR 08/01 A3018 1560 58 1200 000/00 RMK AO2 T00830006
13962KABI ABI20160211232510402/11/16 23:25:31  5-MIN KABI 120525Z 00000KT 10SM CLR 08/01 A3017 1560 58 1200 000/00 RMK AO2 T00830006
13962KABI ABI20160211233010402/11/16 23:30:31  5-MIN KABI 120530Z 00000KT 10SM CLR 07/01 A3017 1560 62 1000 000/00 RMK AO2 T00720006
13962KABI ABI20160211233510402/11/16 23:35:31  5-MIN KABI 120535Z 00000KT 10SM CLR 07/01 A3017 1560 62 1000 000/00 RMK AO2 T00720006
13962KABI ABI20160211234010402/11/16 23:40:31  5-MIN KABI 120540Z 00000KT 10SM CLR 07/01 A3017 1560 62 1000 000/00 RMK AO2 T00720006
13962KABI ABI20160211234510402/11/16 23:45:31  5-MIN KABI 120545Z 00000KT 10SM CLR 07/01 A3017 1560 65 1000 000/00 RMK AO2 T00670006
13962KABI ABI20160211235013802/11/16 23:50:31  5-MIN KABI 120550Z 00000KT 10SM CLR 06/00 A3017 1560 65 900 000/00 RMK AO2 SLP209 T00610000 10200 20061 402280061 53013
13962KABI ABI20160211235510302/11/16 23:55:31  5-MIN KABI 120555Z 20003KT 10SM CLR 06/00 A3017 1560 65 900 200/03 RMK AO2 T00610000
13962KABI ABI20160212000010302/12/16 00:00:31  5-MIN KABI 120600Z 19003KT 10SM CLR 06/00 A3017 1560 65 900 190/03 RMK AO2 T00610000
13962KABI ABI20160212000510302/12/16 00:05:31  5-MIN KABI 120605Z 19003KT 10SM CLR 06/00 A3018 1560 65 900 190/03 RMK AO2 T00610000
13962KABI ABI20160212001010302/12/16 00:10:31  5-MIN KABI 120610Z 20003KT 10SM CLR 06/00 A3018 1560 65 900 190/03 RMK AO2 T00610000
13962KABI ABI20160212001510302/12/16 00:15:31  5-MIN KABI 120615Z 00000KT 10SM CLR 06/00 A3018 1560 65 900 000/00 RMK AO2 T00610000
13962KABI ABI20160212002010302/12/16 00:20:31  5-MIN KABI 120620Z 00000KT 10SM CLR 06/00 A3018 1560 65 900 000/00 RMK AO2 T00610000
13962KABI ABI20160212002510302/12/16 00:25:31  5-MIN KABI 120625Z 22003KT 10SM CLR 06/00 A3017 1560 67 800 220/03 RMK AO2 T00560000
13962KABI ABI20160212003010302/12/16 00:30:31  5-MIN KABI 120630Z 23003KT 10SM CLR 06/00 A3017 1560 67 800 230/03 RMK AO2 T00560000
13962KABI ABI20160212003510302/12/16 00:35:31  5-MIN KABI 120635Z 00000KT 10SM CLR 06/00 A3017 1560 67 800 000/00 RMK AO2 T00560000
13962KABI ABI20160212004010302/12/16 00:40:31  5-MIN KABI 120640Z 26003KT 10SM CLR 06/00 A3018 1560 67 800 250/03 RMK AO2 T00560000
13962KABI ABI20160212004510302/12/16 00:45:31  5-MIN KABI 120645Z 26004KT 10SM CLR 06/00 A3018 1560 65 900 250/04 RMK AO2 T00610000
13962KABI ABI20160212005011002/12/16 00:50:31  5-MIN KABI 120650Z 27004KT 10SM CLR 06/01 A3018 1560 67 900 260/04 RMK AO2 SLP209 T00610006
13962KABI ABI20160212005510302/12/16 00:55:31  5-MIN KABI 120655Z 27004KT 10SM CLR 06/01 A3018 1560 67 900 260/04 RMK AO2 T00610006
13962KABI ABI20160212010010302/12/16 01:00:31  5-MIN KABI 120700Z 27004KT 10SM CLR 06/01 A3018 1560 67 900 270/04 RMK AO2 T00610006
13962KABI ABI20160212010510302/12/16 01:05:31  5-MIN KABI 120705Z 26003KT 10SM CLR 06/01 A3017 1560 67 900 260/03 RMK AO2 T00610006
13962KABI ABI20160212011010302/12/16 01:10:31  5-MIN KABI 120710Z 25004KT 10SM CLR 06/01 A3017 1560 67 900 250/04 RMK AO2 T00610006
13962KABI ABI20160212011510302/12/16 01:15:31  5-MIN KABI 120715Z 27004KT 10SM CLR 06/01 A3018 1560 70 800 260/04 RMK AO2 T00560006
13962KABI ABI20160212012010302/12/16 01:20:31  5-MIN KABI 120720Z 00000KT 10SM CLR 06/01 A3018 1560 67 900 000/00 RMK AO2 T00610006
13962KABI ABI20160212012510302/12/16 01:25:31  5-MIN KABI 120725Z 28003KT 10SM CLR 06/01 A3018 1560 67 900 280/03 RMK AO2 T00610006
13962KABI ABI20160212013010402/12/16 01:30:31  5-MIN KABI 120730Z 00000KT 10SM CLR 07/01 A3018 1560 65 1000 000/00 RMK AO2 T00670006
13962KABI ABI20160212013510302/12/16 01:35:31  5-MIN KABI 120735Z 00000KT 10SM CLR 06/01 A3017 1560 70 800 000/00 RMK AO2 T00560006
13962KABI ABI20160212014010302/12/16 01:40:31  5-MIN KABI 120740Z 00000KT 10SM CLR 05/00 A3017 1560 70 800 000/00 RMK AO2 T00500000
13962KABI ABI20160212014510302/12/16 01:45:31  5-MIN KABI 120745Z 00000KT 10SM CLR 04/00 A3017 1560 73 700 000/00 RMK AO2 T00440000
13962KABI ABI20160212015011002/12/16 01:50:31  5-MIN KABI 120750Z 00000KT 10SM CLR 05/00 A3017 1560 70 800 000/00 RMK AO2 SLP208 T00500000
13962KABI ABI20160212015510302/12/16 01:55:31  5-MIN KABI 120755Z 00000KT 10SM CLR 05/00 A3017 1560 70 800 000/00 RMK AO2 T00500000
13962KABI ABI20160212020010302/12/16 02:00:31  5-MIN KABI 120800Z 17003KT 10SM CLR 04/00 A3017 1560 73 700 160/03 RMK AO2 T00440000
13962KABI ABI20160212020510302/12/16 02:05:31  5-MIN KABI 120805Z 18003KT 10SM CLR 04/00 A3018 1560 73 700 180/03 RMK AO2 T00440000
13962KABI ABI20160212021010302/12/16 02:10:31  5-MIN KABI 120810Z 00000KT 10SM CLR 04/00 A3018 1560 73 700 000/00 RMK AO2 T00440000
13962KABI ABI20160212021510302/12/16 02:15:31  5-MIN KABI 120815Z 00000KT 10SM CLR 04/00 A3018 1550 73 700 000/00 RMK AO2 T00440000
13962KABI ABI20160212022010302/12/16 02:20:31  5-MIN KABI 120820Z 00000KT 10SM CLR 05/00 A3018 1550 70 800 000/00 RMK AO2 T00500000
13962KABI ABI20160212022510302/12/16 02:25:31  5-MIN KABI 120825Z 20003KT 10SM CLR 04/00 A3018 1550 73 700 190/03 RMK AO2 T00440000
13962KABI ABI20160212023010302/12/16 02:30:31  5-MIN KABI 120830Z 20003KT 10SM CLR 04/00 A3018 1550 76 600 190/03 RMK AO2 T00390000
13962KABI ABI20160212023510302/12/16 02:35:31  5-MIN KABI 120835Z 19004KT 10SM CLR 04/00 A3018 1550 76 600 190/04 RMK AO2 T00390000
13962KABI ABI20160212024010402/12/16 02:40:31  5-MIN KABI 120840Z 19005KT 10SM CLR 03/M01 A3019 1550 76 500 180/05 RMK AO2 T00331006
13962KABI ABI20160212024510402/12/16 02:45:31  5-MIN KABI 120845Z 19004KT 10SM CLR 03/M01 A3019 1550 76 500 190/04 RMK AO2 T00331006
13962KABI ABI20160212025011702/12/16 02:50:31  5-MIN KABI 120850Z 20004KT 10SM CLR 03/M01 A3019 1550 76 500 190/04 RMK AO2 SLP213 T00331006 51009
13962KABI ABI20160212025510302/12/16 02:55:31  5-MIN KABI 120855Z 21003KT 10SM CLR 03/00 A3019 1550 79 500 200/03 RMK AO2 T00330000
13962KABI ABI20160212030010302/12/16 03:00:31  5-MIN KABI 120900Z 21003KT 10SM CLR 04/00 A3019 1550 73 700 200/03 RMK AO2 T00440000
13962KABI ABI20160212030510302/12/16 03:05:31  5-MIN KABI 120905Z 19003KT 10SM CLR 04/00 A3018 1550 73 700 190/03 RMK AO2 T00440000
13962KABI ABI20160212031010302/12/16 03:10:31  5-MIN KABI 120910Z 00000KT 10SM CLR 04/00 A3018 1550 76 600 000/00 RMK AO2 T00390000
13962KABI ABI20160212031510302/12/16 03:15:31  5-MIN KABI 120915Z 00000KT 10SM CLR 04/00 A3018 1550 76 600 000/00 RMK AO2 T00390000
13962KABI ABI20160212032010302/12/16 03:20:31  5-MIN KABI 120920Z 00000KT 10SM CLR 04/00 A3018 1550 76 600 000/00 RMK AO2 T00390000
13962KABI ABI20160212032510302/12/16 03:25:31  5-MIN KABI 120925Z 00000KT 10SM CLR 04/00 A3019 1550 73 700 000/00 RMK AO2 T00440000
13962KABI ABI20160212033010302/12/16 03:30:31  5-MIN KABI 120930Z 00000KT 10SM CLR 04/00 A3019 1550 73 700 000/00 RMK AO2 T00440000
13962KABI ABI20160212033510302/12/16 03:35:31  5-MIN KABI 120935Z 22003KT 10SM CLR 04/00 A3019 1540 73 700 210/03 RMK AO2 T00440000
13962KABI ABI20160212034010402/12/16 03:40:31  5-MIN KABI 120940Z 22003KT 10SM CLR 03/M01 A3019 1540 76 500 210/03 RMK AO2 T00331006
13962KABI ABI20160212034510402/12/16 03:45:31  5-MIN KABI 120945Z 00000KT 10SM CLR 03/M01 A3019 1540 76 500 000/00 RMK AO2 T00331006
13962KABI ABI20160212035011102/12/16 03:50:31  5-MIN KABI 120950Z 19003KT 10SM CLR 03/M01 A3019 1550 76 500 190/03 RMK AO2 SLP214 T00331006
13962KABI ABI20160212035510402/12/16 03:55:31  5-MIN KABI 120955Z 18004KT 10SM CLR 03/M01 A3019 1550 79 500 180/04 RMK AO2 T00281006
13962KABI ABI20160212040010402/12/16 04:00:31  5-MIN KABI 121000Z 18005KT 10SM CLR 02/M01 A3019 1550 82 400 180/05 RMK AO2 T00221006
13962KABI ABI20160212040510402/12/16 04:05:31  5-MIN KABI 121005Z 19004KT 10SM CLR 02/M01 A3019 1550 82 400 190/04 RMK AO2 T00221006
13962KABI ABI20160212041010402/12/16 04:10:31  5-MIN KABI 121010Z 21004KT 10SM CLR 02/M01 A3019 1550 82 400 200/04 RMK AO2 T00221006
13962KABI ABI20160212041510402/12/16 04:15:31  5-MIN KABI 121015Z 20005KT 10SM CLR 02/M01 A3019 1540 82 400 200/05 RMK AO2 T00221006
13962KABI ABI20160212042010402/12/16 04:20:31  5-MIN KABI 121020Z 22004KT 10SM CLR 02/M01 A3019 1540 82 400 210/04 RMK AO2 T00221006
13962KABI ABI20160212042510402/12/16 04:25:31  5-MIN KABI 121025Z 21004KT 10SM CLR 02/M01 A3019 1550 82 400 210/04 RMK AO2 T00221006
13962KABI ABI20160212043010402/12/16 04:30:31  5-MIN KABI 121030Z 00000KT 10SM CLR 02/M01 A3019 1550 82 400 000/00 RMK AO2 T00221006
13962KABI ABI20160212043510402/12/16 04:35:31  5-MIN KABI 121035Z 23003KT 10SM CLR 03/M01 A3019 1540 79 500 220/03 RMK AO2 T00281006
13962KABI ABI20160212044010402/12/16 04:40:31  5-MIN KABI 121040Z 00000KT 10SM CLR 03/M01 A3019 1540 79 500 000/00 RMK AO2 T00281006
13962KABI ABI20160212044510402/12/16 04:45:31  5-MIN KABI 121045Z 00000KT 10SM CLR 03/M01 A3019 1540 79 500 000/00 RMK AO2 T00281006
13962KABI ABI20160212045011302/12/16 04:50:31  5-MIN KABI 121050Z AUTO 00000KT 03/M01 A3019 1540 79 500 000/00 RMK AO2 T00281006 TSNO RVRNO $
13962KABI ABI20160212045511302/12/16 04:55:31  5-MIN KABI 121055Z AUTO 18005KT 02/M01 A3020 1540 82 400 180/05 RMK AO2 T00221006 TSNO RVRNO $
13962KABI ABI20160212050010202/12/16 05:00:31  5-MIN KABI 121100Z 18004KT 10SM 02/M01 A3020 1530 82 400 170/04 RMK AO2 T00221006 $
13962KABI ABI20160212050510202/12/16 05:05:31  5-MIN KABI 121105Z 19004KT 10SM 03/M01 A3021 1530 79 500 180/04 RMK AO2 T00281006 $
13962KABI ABI20160212051010202/12/16 05:10:31  5-MIN KABI 121110Z 20004KT 10SM 02/M01 A3021 1530 82 400 190/04 RMK AO2 T00221006 $
13962KABI ABI20160212051510202/12/16 05:15:31  5-MIN KABI 121115Z 21003KT 10SM 03/M01 A3021 1530 79 500 200/03 RMK AO2 T00281006 $
13962KABI ABI20160212052010602/12/16 05:20:31  5-MIN KABI 121120Z 22003KT 10SM CLR 03/M01 A3021 1530 79 500 220/03 RMK AO2 T00281006 $
13962KABI ABI20160212052510602/12/16 05:25:31  5-MIN KABI 121125Z 00000KT 10SM CLR 03/M01 A3021 1520 79 400 000/00 RMK AO2 T00281006 $
13962KABI ABI20160212053010602/12/16 05:30:31  5-MIN KABI 121130Z 00000KT 10SM CLR 03/M01 A3021 1520 76 500 000/00 RMK AO2 T00331006 $
13962KABI ABI20160212053510602/12/16 05:35:31  5-MIN KABI 121135Z 00000KT 10SM CLR 04/M01 A3021 1520 73 600 000/00 RMK AO2 T00391006 $
13962KABI ABI20160212054010502/12/16 05:40:31  5-MIN KABI 121140Z 34004KT 10SM CLR 05/00 A3021 1520 70 700 330/04 RMK AO2 T00500000 $
13962KABI ABI20160212054510502/12/16 05:45:31  5-MIN KABI 121145Z 34005KT 10SM CLR 05/00 A3021 1520 70 700 340/05 RMK AO2 T00500000 $
13962KABI ABI20160212055012402/12/16 05:50:31  5-MIN KABI 121150Z 34005KT 10SM CLR 05/00 A3022 1520 70 700 330/05 RMK AO2 SLP223 T00500000 10083 20022 $
13962KABI ABI20160212055510502/12/16 05:55:31  5-MIN KABI 121155Z 34005KT 10SM CLR 05/00 A3022 1520 70 700 340/05 RMK AO2 T00500000 $
13962KABI ABI20160212060010502/12/16 06:00:31  5-MIN KABI 121200Z 36004KT 10SM CLR 05/00 A3022 1520 70 700 360/04 RMK AO2 T00500000 $
13962KABI ABI20160212060510502/12/16 06:05:31  5-MIN KABI 121205Z 01004KT 10SM CLR 05/00 A3022 1520 70 700 010/04 RMK AO2 T00500000 $
13962KABI ABI20160212061010502/12/16 06:10:31  5-MIN KABI 121210Z 01003KT 10SM CLR 05/00 A3022 1510 70 700 360/03 RMK AO2 T00500000 $
13962KABI ABI20160212061510502/12/16 06:15:31  5-MIN KABI 121215Z 01004KT 10SM CLR 05/00 A3023 1510 70 700 360/04 RMK AO2 T00500000 $
13962KABI ABI20160212062010602/12/16 06:20:31  5-MIN KABI 121220Z 36005KT 10SM CLR 04/M01 A3023 1510 70 600 350/05 RMK AO2 T00441006 $
13962KABI ABI20160212062510602/12/16 06:25:31  5-MIN KABI 121225Z 35005KT 10SM CLR 04/M01 A3023 1500 73 600 340/05 RMK AO2 T00391006 $
13962KABI ABI20160212063010602/12/16 06:30:31  5-MIN KABI 121230Z 36004KT 10SM CLR 04/M01 A3024 1500 73 600 350/04 RMK AO2 T00391006 $
13962KABI ABI20160212063510502/12/16 06:35:31  5-MIN KABI 121235Z 01005KT 10SM CLR 04/00 A3024 1500 76 600 360/05 RMK AO2 T00390000 $
13962KABI ABI20160212064010502/12/16 06:40:31  5-MIN KABI 121240Z 01004KT 10SM CLR 04/00 A3024 1500 76 600 010/04 RMK AO2 T00390000 $
13962KABI ABI20160212064510502/12/16 06:45:31  5-MIN KABI 121245Z 01004KT 10SM CLR 04/00 A3024 1500 76 600 010/04 RMK AO2 T00390000 $
13962KABI ABI20160212065011202/12/16 06:50:31  5-MIN KABI 121250Z 36004KT 10SM CLR 04/00 A3024 1500 73 600 350/04 RMK AO2 SLP234 T00440000 $
13962KABI ABI20160212065510502/12/16 06:55:31  5-MIN KABI 121255Z 00000KT 10SM CLR 04/00 A3024 1490 76 600 000/00 RMK AO2 T00390000 $
13962KABI ABI20160212070010602/12/16 07:00:31  5-MIN KABI 121300Z 00000KT 10SM CLR 03/M01 A3025 1490 76 500 000/00 RMK AO2 T00331006 $
13962KABI ABI20160212070510602/12/16 07:05:31  5-MIN KABI 121305Z 00000KT 10SM CLR 02/M01 A3025 1490 82 300 000/00 RMK AO2 T00171011 $
13962KABI ABI20160212071010602/12/16 07:10:31  5-MIN KABI 121310Z 00000KT 10SM CLR 01/M01 A3026 1480 85 200 000/00 RMK AO2 T00111011 $
13962KABI ABI20160212071510602/12/16 07:15:31  5-MIN KABI 121315Z 00000KT 10SM CLR 01/M02 A3026 1480 82 200 000/00 RMK AO2 T00111017 $
13962KABI ABI20160212072010602/12/16 07:20:31  5-MIN KABI 121320Z 00000KT 10SM CLR 01/M02 A3027 1470 85 100 000/00 RMK AO2 T00061017 $
13962KABI ABI20160212072510602/12/16 07:25:31  5-MIN KABI 121325Z VRB03KT 10SM CLR 01/M01 A3027 1470 85 200 VRB/03 RMK AO2 T00111011 $
13962KABI ABI20160212073010602/12/16 07:30:31  5-MIN KABI 121330Z 00000KT 10SM CLR 01/M01 A3027 1470 85 200 000/00 RMK AO2 T00111011 $
13962KABI ABI20160212073510602/12/16 07:35:31  5-MIN KABI 121335Z 00000KT 10SM CLR 01/M01 A3027 1470 85 200 000/00 RMK AO2 T00111011 $
13962KABI ABI20160212074010602/12/16 07:40:31  5-MIN KABI 121340Z 00000KT 10SM CLR 01/M02 A3027 1470 82 200 000/00 RMK AO2 T00111017 $
13962KABI ABI20160212074510602/12/16 07:45:31  5-MIN KABI 121345Z 00000KT 10SM CLR 01/M02 A3027 1470 82 200 000/00 RMK AO2 T00111017 $
13962KABI ABI20160212075011302/12/16 07:50:31  5-MIN KABI 121350Z 00000KT 10SM CLR 01/M01 A3027 1470 85 200 000/00 RMK AO2 SLP247 T00111011 $
13962KABI ABI20160212075510602/12/16 07:55:31  5-MIN KABI 121355Z 00000KT 10SM CLR 02/M01 A3027 1470 82 200 000/00 RMK AO2 T00171011 $
13962KABI ABI20160212080010602/12/16 08:00:31  5-MIN KABI 121400Z 00000KT 10SM CLR 02/M01 A3027 1470 85 200 000/00 RMK AO2 T00171006 $
13962KABI ABI20160212080510602/12/16 08:05:31  5-MIN KABI 121405Z 00000KT 10SM CLR 02/M01 A3027 1470 82 300 000/00 RMK AO2 T00221006 $
13962KABI ABI20160212081010502/12/16 08:10:31  5-MIN KABI 121410Z 00000KT 10SM CLR 03/00 A3027 1470 82 400 000/00 RMK AO2 T00280000 $
13962KABI ABI20160212081510502/12/16 08:15:31  5-MIN KABI 121415Z 00000KT 10SM CLR 03/00 A3027 1470 82 400 000/00 RMK AO2 T00280000 $
13962KABI ABI20160212082010502/12/16 08:20:31  5-MIN KABI 121420Z 00000KT 10SM CLR 03/00 A3027 1470 82 400 000/00 RMK AO2 T00280000 $
13962KABI ABI20160212082510402/12/16 08:25:31  5-MIN KABI 121425Z 00000KT 8SM CLR 03/01 A3028 1460 82 400 000/00 RMK AO2 T00330006 $
13962KABI ABI20160212083010702/12/16 08:30:31  5-MIN KABI 121430Z 00000KT 5SM HZ CLR 04/01 A3028 1460 82 500 000/00 RMK AO2 T00390011 $
13962KABI ABI20160212083510702/12/16 08:35:31  5-MIN KABI 121435Z 00000KT 3SM HZ CLR 04/01 A3029 1450 79 600 000/00 RMK AO2 T00440011 $
13962KABI ABI20160212084010702/12/16 08:40:31  5-MIN KABI 121440Z 00000KT 3SM HZ CLR 05/01 A3029 1450 76 600 000/00 RMK AO2 T00500011 $
13962KABI ABI20160212084510702/12/16 08:45:31  5-MIN KABI 121445Z 00000KT 6SM HZ CLR 05/01 A3029 1450 76 600 000/00 RMK AO2 T00500011 $
13962KABI ABI20160212085011102/12/16 08:50:31  5-MIN KABI 121450Z 00000KT 9SM CLR 06/01 A3029 1450 73 700 000/00 RMK AO2 SLP252 T00560011 $
13962KABI ABI20160212085510502/12/16 08:55:31  5-MIN KABI 121455Z 00000KT 10SM CLR 06/01 A3029 1450 70 800 000/00 RMK AO2 T00610011 $
13962KABI ABI20160212090010502/12/16 09:00:31  5-MIN KABI 121500Z 00000KT 10SM CLR 07/01 A3029 1450 67 800 000/00 RMK AO2 T00670011 $
13962KABI ABI20160212090510502/12/16 09:05:31  5-MIN KABI 121505Z 00000KT 10SM CLR 07/01 A3029 1450 67 800 000/00 RMK AO2 T00670011 $
13962KABI ABI20160212091010402/12/16 09:10:31  5-MIN KABI 121510Z 00000KT 10SM CLR 08/02 A3030 1450 65 1000 000/00 RMK AO2 T00780017
13962KABI ABI20160212091510402/12/16 09:15:31  5-MIN KABI 121515Z 00000KT 10SM CLR 08/02 A3030 1440 65 1000 000/00 RMK AO2 T00780017
13962KABI ABI20160212092010402/12/16 09:20:31  5-MIN KABI 121520Z 00000KT 10SM CLR 08/02 A3030 1440 63 1000 000/00 RMK AO2 T00830017
13962KABI ABI20160212092510402/12/16 09:25:31  5-MIN KABI 121525Z 00000KT 10SM CLR 08/02 A3030 1440 65 1000 000/00 RMK AO2 T00830022
13962KABI ABI20160212093010402/12/16 09:30:31  5-MIN KABI 121530Z 32003KT 10SM CLR 09/02 A3031 1440 60 1100 320/03 RMK AO2 T00890017
13962KABI ABI20160212093510402/12/16 09:35:31  5-MIN KABI 121535Z 00000KT 10SM CLR 09/02 A3031 1440 60 1100 000/00 RMK AO2 T00890017
13962KABI ABI20160212094010402/12/16 09:40:31  5-MIN KABI 121540Z 00000KT 10SM CLR 09/02 A3031 1430 60 1100 000/00 RMK AO2 T00890017
13962KABI ABI20160212094510402/12/16 09:45:31  5-MIN KABI 121545Z 00000KT 10SM CLR 10/02 A3031 1430 56 1200 000/00 RMK AO2 T01000017
13962KABI ABI20160212095011102/12/16 09:50:31  5-MIN KABI 121550Z 00000KT 10SM CLR 10/02 A3031 1430 56 1200 000/00 RMK AO2 SLP259 T01000017
13962KABI ABI20160212095510402/12/16 09:55:31  5-MIN KABI 121555Z VRB03KT 10SM CLR 11/02 A3031 1430 54 1300 VRB/03 RMK AO2 T01060017
13962KABI ABI20160212100010402/12/16 10:00:31  5-MIN KABI 121600Z 34003KT 10SM CLR 11/02 A3031 1430 56 1300 330/03 RMK AO2 T01060022
13962KABI ABI20160212100510402/12/16 10:05:31  5-MIN KABI 121605Z 01003KT 10SM CLR 11/02 A3031 1430 54 1300 010/03 RMK AO2 T01110022
13962KABI ABI20160212101010402/12/16 10:10:31  5-MIN KABI 121610Z 33003KT 10SM CLR 12/02 A3032 1430 52 1400 320/03 RMK AO2 T01170022
13962KABI ABI20160212101510402/12/16 10:15:31  5-MIN KABI 121615Z 33004KT 10SM CLR 11/02 A3032 1430 54 1300 330/04 RMK AO2 T01110022
13962KABI ABI20160212102010402/12/16 10:20:31  5-MIN KABI 121620Z 31003KT 10SM CLR 12/02 A3032 1430 52 1400 310/03 RMK AO2 T01170022
13962KABI ABI20160212102510402/12/16 10:25:31  5-MIN KABI 121625Z 33003KT 10SM CLR 12/02 A3032 1430 52 1400 330/03 RMK AO2 T01170022
13962KABI ABI20160212103010402/12/16 10:30:31  5-MIN KABI 121630Z VRB04KT 10SM CLR 12/02 A3032 1430 50 1500 VRB/04 RMK AO2 T01220022
13962KABI ABI20160212103510402/12/16 10:35:31  5-MIN KABI 121635Z 32004KT 10SM CLR 13/02 A3032 1420 48 1500 320/04 RMK AO2 T01280022
13962KABI ABI20160212104010402/12/16 10:40:31  5-MIN KABI 121640Z VRB05KT 10SM CLR 13/02 A3032 1420 48 1500 VRB/05 RMK AO2 T01280022
13962KABI ABI20160212104510402/12/16 10:45:31  5-MIN KABI 121645Z 34004KT 10SM CLR 13/02 A3032 1420 48 1500 330/04 RMK AO2 T01280022
13962KABI ABI20160212105011102/12/16 10:50:31  5-MIN KABI 121650Z VRB03KT 10SM CLR 13/02 A3033 1420 46 1600 VRB/03 RMK AO2 SLP262 T01330022
13962KABI ABI20160212105510402/12/16 10:55:31  5-MIN KABI 121655Z 33003KT 10SM CLR 14/02 A3033 1420 45 1700 320/03 RMK AO2 T01390022
13962KABI ABI20160212110010402/12/16 11:00:31  5-MIN KABI 121700Z 03003KT 10SM CLR 14/02 A3032 1420 45 1700 020/03 RMK AO2 T01390022
13962KABI ABI20160212110510402/12/16 11:05:31  5-MIN KABI 121705Z 00000KT 10SM CLR 14/02 A3032 1420 43 1700 000/00 RMK AO2 T01440022
13962KABI ABI20160212111010402/12/16 11:10:31  5-MIN KABI 121710Z 00000KT 10SM CLR 14/02 A3033 1420 43 1700 000/00 RMK AO2 T01440022
13962KABI ABI20160212111510402/12/16 11:15:31  5-MIN KABI 121715Z 00000KT 10SM CLR 14/02 A3032 1420 43 1700 000/00 RMK AO2 T01440022
13962KABI ABI20160212112010402/12/16 11:20:31  5-MIN KABI 121720Z 00000KT 10SM CLR 14/02 A3032 1420 43 1700 000/00 RMK AO2 T01440022
13962KABI ABI20160212112510402/12/16 11:25:31  5-MIN KABI 121725Z 00000KT 10SM CLR 16/03 A3032 1420 42 1900 000/00 RMK AO2 T01560028
13962KABI ABI20160212113010402/12/16 11:30:31  5-MIN KABI 121730Z 00000KT 10SM CLR 16/02 A3032 1430 40 1900 000/00 RMK AO2 T01560022
13962KABI ABI20160212113510402/12/16 11:35:31  5-MIN KABI 121735Z 00000KT 10SM CLR 15/02 A3032 1430 42 1800 000/00 RMK AO2 T01500022
13962KABI ABI20160212114010402/12/16 11:40:31  5-MIN KABI 121740Z 00000KT 10SM CLR 16/03 A3032 1430 40 1900 000/00 RMK AO2 T01610028
13962KABI ABI20160212114510402/12/16 11:45:31  5-MIN KABI 121745Z 00000KT 10SM CLR 16/02 A3032 1430 39 1900 000/00 RMK AO2 T01610022
13962KABI ABI20160212115012902/12/16 11:50:31  5-MIN KABI 121750Z 34004KT 10SM CLR 17/03 A3031 1430 39 2000 340/04 RMK AO2 SLP258 T01670028 10167 20006 51025
13962KABI ABI20160212115510402/12/16 11:55:31  5-MIN KABI 121755Z 33005KT 10SM CLR 17/03 A3031 1430 39 2000 330/05 RMK AO2 T01670028
13962KABI ABI20160212120010402/12/16 12:00:31  5-MIN KABI 121800Z 33004KT 10SM CLR 17/03 A3031 1430 37 2100 320/04 RMK AO2 T01720028
13962KABI ABI20160212120510402/12/16 12:05:31  5-MIN KABI 121805Z 35006KT 10SM CLR 17/03 A3032 1430 37 2100 350/06 RMK AO2 T01720028
13962KABI ABI20160212121010402/12/16 12:10:31  5-MIN KABI 121810Z 02004KT 10SM CLR 18/03 A3032 1430 36 2100 020/04 RMK AO2 T01780028
13962KABI ABI20160212121510402/12/16 12:15:31  5-MIN KABI 121815Z 34005KT 10SM CLR 18/03 A3031 1430 36 2100 330/05 RMK AO2 T01780028
13962KABI ABI20160212122010402/12/16 12:20:31  5-MIN KABI 121820Z VRB04KT 10SM CLR 18/03 A3031 1430 36 2100 VRB/04 RMK AO2 T01780028
13962KABI ABI20160212122510402/12/16 12:25:31  5-MIN KABI 121825Z VRB03KT 10SM CLR 18/03 A3031 1430 36 2100 VRB/03 RMK AO2 T01780028
13962KABI ABI20160212123010402/12/16 12:30:31  5-MIN KABI 121830Z VRB05KT 10SM CLR 18/03 A3031 1430 35 2200 VRB/05 RMK AO2 T01830028
13962KABI ABI20160212123510402/12/16 12:35:31  5-MIN KABI 121835Z 04004KT 10SM CLR 19/03 A3031 1440 34 2300 030/04 RMK AO2 T01890028
13962KABI ABI20160212124010402/12/16 12:40:31  5-MIN KABI 121840Z 35005KT 10SM CLR 19/03 A3030 1440 33 2300 350/05 RMK AO2 T01940028
13962KABI ABI20160212234510602/12/16 23:45:31  5-MIN KABI 130545Z 10006KT 10SM CLR 11/01 A3033 1420 52 1300 100/06 RMK AO2 T01060011 $
13962KABI ABI20160212235014102/12/16 23:50:31  5-MIN KABI 130550Z 10006KT 10SM CLR 10/01 A3033 1420 54 1200 100/06 RMK AO2 SLP261 T01000011 10194 20094 402220006 51016 $
13962KABI ABI20160212235510602/12/16 23:55:31  5-MIN KABI 130555Z 11006KT 10SM CLR 10/01 A3033 1420 54 1200 110/06 RMK AO2 T01000011 $
13962KABI ABI20160213000010602/13/16 00:00:31  5-MIN KABI 130600Z 13006KT 10SM CLR 10/01 A3033 1420 54 1200 130/06 RMK AO2 T01000011 $
13962KABI ABI20160213000510602/13/16 00:05:31  5-MIN KABI 130605Z 15005KT 10SM CLR 09/01 A3033 1420 56 1100 140/05 RMK AO2 T00940011 $
13962KABI ABI20160213001010602/13/16 00:10:31  5-MIN KABI 130610Z 13005KT 10SM CLR 09/01 A3033 1420 56 1100 130/05 RMK AO2 T00940011 $
13962KABI ABI20160213001510602/13/16 00:15:31  5-MIN KABI 130615Z 13006KT 10SM CLR 09/01 A3033 1420 58 1100 120/06 RMK AO2 T00890011 $
13962KABI ABI20160213002010602/13/16 00:20:31  5-MIN KABI 130620Z 12006KT 10SM CLR 09/01 A3033 1420 56 1100 120/06 RMK AO2 T00940011 $
13962KABI ABI20160213002510602/13/16 00:25:31  5-MIN KABI 130625Z 12006KT 10SM CLR 09/01 A3033 1410 56 1100 110/06 RMK AO2 T00940011 $
13962KABI ABI20160213003010602/13/16 00:30:31  5-MIN KABI 130630Z 13006KT 10SM CLR 09/01 A3033 1410 58 1100 120/06 RMK AO2 T00890011 $
13962KABI ABI20160213003510602/13/16 00:35:31  5-MIN KABI 130635Z 14005KT 10SM CLR 08/01 A3033 1410 60 1000 130/05 RMK AO2 T00830011 $
13962KABI ABI20160213004010602/13/16 00:40:31  5-MIN KABI 130640Z 13005KT 10SM CLR 09/01 A3033 1410 58 1100 120/05 RMK AO2 T00890011 $
13962KABI ABI20160213004510602/13/16 00:45:31  5-MIN KABI 130645Z 13006KT 10SM CLR 09/01 A3033 1410 58 1100 130/06 RMK AO2 T00890011 $
13962KABI ABI20160213005011302/13/16 00:50:31  5-MIN KABI 130650Z 13007KT 10SM CLR 08/01 A3034 1410 60 1000 120/07 RMK AO2 SLP263 T00830011 $
13962KABI ABI20160213005510602/13/16 00:55:31  5-MIN KABI 130655Z 14005KT 10SM CLR 08/01 A3033 1410 60 1000 130/05 RMK AO2 T00830011 $
13962KABI ABI20160213010010502/13/16 01:00:31  5-MIN KABI 130700Z 14004KT 10SM CLR 08/01 A3033 1410 62 900 140/04 RMK AO2 T00780011 $
13962KABI ABI20160213010510602/13/16 01:05:31  5-MIN KABI 130705Z 14003KT 10SM CLR 08/01 A3033 1410 60 1000 140/03 RMK AO2 T00830011 $
13962KABI ABI20160213011010602/13/16 01:10:31  5-MIN KABI 130710Z 13004KT 10SM CLR 08/01 A3033 1410 60 1000 130/04 RMK AO2 T00830011 $
13962KABI ABI20160213011510602/13/16 01:15:31  5-MIN KABI 130715Z 12005KT 10SM CLR 08/01 A3034 1410 60 1000 120/05 RMK AO2 T00830011 $
13962KABI ABI20160213012010502/13/16 01:20:31  5-MIN KABI 130720Z 12004KT 10SM CLR 08/01 A3034 1410 62 900 110/04 RMK AO2 T00780011 $
13962KABI ABI20160213012510502/13/16 01:25:31  5-MIN KABI 130725Z 12004KT 10SM CLR 08/01 A3034 1410 62 900 110/04 RMK AO2 T00780011 $
13962KABI ABI20160213013010502/13/16 01:30:31  5-MIN KABI 130730Z 12003KT 10SM CLR 08/01 A3034 1410 62 900 110/03 RMK AO2 T00780011 $
13962KABI ABI20160213013510502/13/16 01:35:31  5-MIN KABI 130735Z 12003KT 10SM CLR 08/01 A3034 1410 62 900 120/03 RMK AO2 T00780011 $
13962KABI ABI20160213014010502/13/16 01:40:31  5-MIN KABI 130740Z 13004KT 10SM CLR 08/01 A3034 1410 62 900 130/04 RMK AO2 T00780011 $
13962KABI ABI20160213014510502/13/16 01:45:31  5-MIN KABI 130745Z 15005KT 10SM CLR 08/01 A3034 1410 62 900 150/05 RMK AO2 T00780011 $
13962KABI ABI20160213015011202/13/16 01:50:31  5-MIN KABI 130750Z 17004KT 10SM CLR 06/01 A3034 1410 67 700 160/04 RMK AO2 SLP263 T00610006 $
13962KABI ABI20160213015510502/13/16 01:55:31  5-MIN KABI 130755Z 15005KT 10SM CLR 06/01 A3034 1410 67 700 140/05 RMK AO2 T00610006 $
13962KABI ABI20160213020010502/13/16 02:00:31  5-MIN KABI 130800Z 15004KT 10SM CLR 07/01 A3034 1410 67 800 140/04 RMK AO2 T00670011 $
13962KABI ABI20160213020510502/13/16 02:05:31  5-MIN KABI 130805Z 14005KT 10SM CLR 07/01 A3034 1410 67 800 140/05 RMK AO2 T00670011 $
13962KABI ABI20160213021010502/13/16 02:10:31  5-MIN KABI 130810Z 14005KT 10SM CLR 07/01 A3034 1410 67 800 140/05 RMK AO2 T00670011 $
13962KABI ABI20160213021510502/13/16 02:15:31  5-MIN KABI 130815Z 14005KT 10SM CLR 07/01 A3034 1410 67 800 130/05 RMK AO2 T00670011 $
13962KABI ABI20160213022010502/13/16 02:20:31  5-MIN KABI 130820Z 15005KT 10SM CLR 06/01 A3034 1410 70 700 150/05 RMK AO2 T00610011 $
13962KABI ABI20160213022510502/13/16 02:25:31  5-MIN KABI 130825Z 17005KT 10SM CLR 06/01 A3034 1410 70 600 160/05 RMK AO2 T00560006 $
13962KABI ABI20160213023010502/13/16 02:30:31  5-MIN KABI 130830Z 17005KT 10SM CLR 05/01 A3034 1410 73 600 170/05 RMK AO2 T00500006 $
13962KABI ABI20160213023510502/13/16 02:35:31  5-MIN KABI 130835Z 17006KT 10SM CLR 05/01 A3034 1410 73 600 160/06 RMK AO2 T00500006 $
13962KABI ABI20160213024010502/13/16 02:40:31  5-MIN KABI 130840Z 17006KT 10SM CLR 05/01 A3033 1410 73 600 160/06 RMK AO2 T00500006 $
13962KABI ABI20160213024510502/13/16 02:45:31  5-MIN KABI 130845Z 17006KT 10SM CLR 04/01 A3033 1410 76 500 170/06 RMK AO2 T00440006 $
13962KABI ABI20160213025011802/13/16 02:50:31  5-MIN KABI 130850Z 17006KT 10SM CLR 05/01 A3033 1410 73 600 170/06 RMK AO2 SLP263 T00500006 50002 $
13962KABI ABI20160213025510502/13/16 02:55:31  5-MIN KABI 130855Z 17006KT 10SM CLR 05/01 A3033 1410 73 600 160/06 RMK AO2 T00500006 $
13962KABI ABI20160213030010502/13/16 03:00:31  5-MIN KABI 130900Z 15005KT 10SM CLR 06/01 A3033 1410 73 700 150/05 RMK AO2 T00560011 $
13962KABI ABI20160213030510502/13/16 03:05:31  5-MIN KABI 130905Z 14005KT 10SM CLR 06/01 A3034 1410 70 700 140/05 RMK AO2 T00610011 $
13962KABI ABI20160213031010502/13/16 03:10:31  5-MIN KABI 130910Z 12004KT 10SM CLR 07/01 A3034 1410 67 800 120/04 RMK AO2 T00670011 $
13962KABI ABI20160213031510502/13/16 03:15:31  5-MIN KABI 130915Z 12003KT 10SM CLR 07/01 A3034 1410 65 900 110/03 RMK AO2 T00720011 $
13962KABI ABI20160213032010502/13/16 03:20:31  5-MIN KABI 130920Z 00000KT 10SM CLR 07/01 A3034 1410 65 900 000/00 RMK AO2 T00720011 $
13962KABI ABI20160213032510502/13/16 03:25:31  5-MIN KABI 130925Z 00000KT 10SM CLR 07/01 A3034 1410 67 800 000/00 RMK AO2 T00670011 $
13962KABI ABI20160213033010502/13/16 03:30:31  5-MIN KABI 130930Z 00000KT 10SM CLR 07/01 A3034 1410 67 800 000/00 RMK AO2 T00670011 $
13962KABI ABI20160213033510502/13/16 03:35:31  5-MIN KABI 130935Z 00000KT 10SM CLR 06/01 A3033 1410 70 700 000/00 RMK AO2 T00610011 $
13962KABI ABI20160213034010502/13/16 03:40:31  5-MIN KABI 130940Z 03004KT 10SM CLR 05/01 A3034 1410 73 600 030/04 RMK AO2 T00500006 $
13962KABI ABI20160213034510502/13/16 03:45:31  5-MIN KABI 130945Z 02004KT 10SM CLR 06/01 A3034 1410 70 700 020/04 RMK AO2 T00610011 $
13962KABI ABI20160213035011202/13/16 03:50:31  5-MIN KABI 130950Z 01004KT 10SM CLR 06/01 A3034 1410 70 700 010/04 RMK AO2 SLP264 T00610011 $
13962KABI ABI20160213035510502/13/16 03:55:31  5-MIN KABI 130955Z 36005KT 10SM CLR 06/01 A3034 1410 70 700 360/05 RMK AO2 T00610011 $
13962KABI ABI20160213040010502/13/16 04:00:31  5-MIN KABI 131000Z 36005KT 10SM CLR 06/01 A3034 1410 70 700 350/05 RMK AO2 T00610011 $
13962KABI ABI20160213040510502/13/16 04:05:31  5-MIN KABI 131005Z 35005KT 10SM CLR 05/01 A3034 1410 76 600 350/05 RMK AO2 T00500011 $
13962KABI ABI20160213041010502/13/16 04:10:31  5-MIN KABI 131010Z 35004KT 10SM CLR 05/01 A3034 1410 73 600 350/04 RMK AO2 T00500006 $
13962KABI ABI20160213041510502/13/16 04:15:31  5-MIN KABI 131015Z 35004KT 10SM CLR 06/01 A3034 1410 73 600 340/04 RMK AO2 T00560011 $
13962KABI ABI20160213042010502/13/16 04:20:31  5-MIN KABI 131020Z 36004KT 10SM CLR 06/01 A3034 1410 70 600 350/04 RMK AO2 T00560006 $
13962KABI ABI20160213042510502/13/16 04:25:31  5-MIN KABI 131025Z 36004KT 10SM CLR 06/01 A3033 1410 73 700 360/04 RMK AO2 T00560011 $
13962KABI ABI20160213043010502/13/16 04:30:31  5-MIN KABI 131030Z 35003KT 10SM CLR 06/01 A3033 1410 73 700 350/03 RMK AO2 T00560011 $
13962KABI ABI20160213043510502/13/16 04:35:31  5-MIN KABI 131035Z 36003KT 10SM CLR 06/01 A3033 1420 73 700 350/03 RMK AO2 T00560011 $
13962KABI ABI20160213044010502/13/16 04:40:31  5-MIN KABI 131040Z 02003KT 10SM CLR 06/01 A3033 1420 70 700 020/03 RMK AO2 T00560006 $
13962KABI ABI20160213044510502/13/16 04:45:31  5-MIN KABI 131045Z 00000KT 10SM CLR 06/01 A3033 1420 70 700 000/00 RMK AO2 T00560006 $
13962KABI ABI20160213045011202/13/16 04:50:31  5-MIN KABI 131050Z 00000KT 10SM CLR 06/01 A3033 1410 73 700 000/00 RMK AO2 SLP262 T00560011 $
13962KABI ABI20160213045510502/13/16 04:55:31  5-MIN KABI 131055Z 00000KT 10SM CLR 06/01 A3033 1410 70 700 000/00 RMK AO2 T00610011 $
13962KABI ABI20160213050010502/13/16 05:00:31  5-MIN KABI 131100Z 00000KT 10SM CLR 06/01 A3033 1410 70 700 000/00 RMK AO2 T00610011 $
13962KABI ABI20160213050510502/13/16 05:05:31  5-MIN KABI 131105Z 08003KT 10SM CLR 07/01 A3034 1410 67 800 070/03 RMK AO2 T00670011 $
13962KABI ABI20160213051010502/13/16 05:10:31  5-MIN KABI 131110Z 07003KT 10SM CLR 07/01 A3034 1410 67 800 070/03 RMK AO2 T00670011 $
13962KABI ABI20160213051510502/13/16 05:15:31  5-MIN KABI 131115Z 00000KT 10SM CLR 07/01 A3034 1410 67 800 000/00 RMK AO2 T00670011 $
13962KABI ABI20160213052010502/13/16 05:20:31  5-MIN KABI 131120Z 00000KT 10SM CLR 07/01 A3034 1410 67 800 000/00 RMK AO2 T00670011 $
13962KABI ABI20160213052510502/13/16 05:25:31  5-MIN KABI 131125Z 00000KT 10SM CLR 06/01 A3034 1410 70 700 000/00 RMK AO2 T00610011 $
13962KABI ABI20160213053010502/13/16 05:30:31  5-MIN KABI 131130Z 00000KT 10SM CLR 06/01 A3034 1410 70 700 000/00 RMK AO2 T00610011 $
13962KABI ABI20160213053510502/13/16 05:35:31  5-MIN KABI 131135Z 08004KT 10SM CLR 07/01 A3034 1410 67 800 080/04 RMK AO2 T00670011 $
13962KABI ABI20160213054010502/13/16 05:40:31  5-MIN KABI 131140Z 10005KT 10SM CLR 06/01 A3034 1410 70 700 090/05 RMK AO2 T00610011 $
13962KABI ABI20160213054510502/13/16 05:45:31  5-MIN KABI 131145Z 10005KT 10SM CLR 06/01 A3034 1410 73 600 090/05 RMK AO2 T00560011 $
13962KABI ABI20160213055013002/13/16 05:50:31  5-MIN KABI 131150Z 10004KT 10SM CLR 06/01 A3034 1410 70 600 100/04 RMK AO2 SLP266 T00560006 10100 20044 50002 $
13962KABI ABI20160213055510502/13/16 05:55:31  5-MIN KABI 131155Z 10004KT 10SM CLR 05/01 A3034 1410 76 600 100/04 RMK AO2 T00500011 $
13962KABI ABI20160213060010502/13/16 06:00:31  5-MIN KABI 131200Z 10004KT 10SM CLR 06/01 A3034 1410 73 600 100/04 RMK AO2 T00560011 $
13962KABI ABI20160213060510502/13/16 06:05:31  5-MIN KABI 131205Z 10004KT 10SM CLR 05/01 A3034 1400 73 600 100/04 RMK AO2 T00500006 $
13962KABI ABI20160213061010502/13/16 06:10:31  5-MIN KABI 131210Z 11003KT 10SM CLR 06/01 A3034 1400 73 600 110/03 RMK AO2 T00560011 $
13962KABI ABI20160213061510502/13/16 06:15:31  5-MIN KABI 131215Z 13003KT 10SM CLR 05/01 A3034 1400 73 600 120/03 RMK AO2 T00500006 $
13962KABI ABI20160213062010502/13/16 06:20:31  5-MIN KABI 131220Z 11003KT 10SM CLR 05/01 A3034 1400 73 600 110/03 RMK AO2 T00500006 $
13962KABI ABI20160213062510502/13/16 06:25:31  5-MIN KABI 131225Z 11004KT 10SM CLR 05/01 A3034 1400 73 600 100/04 RMK AO2 T00500006 $
13962KABI ABI20160213063010502/13/16 06:30:31  5-MIN KABI 131230Z 12005KT 10SM CLR 05/01 A3034 1400 73 600 110/05 RMK AO2 T00500006 $
13962KABI ABI20160213063510502/13/16 06:35:31  5-MIN KABI 131235Z 11005KT 10SM CLR 05/01 A3034 1400 73 600 110/05 RMK AO2 T00500006 $
13962KABI ABI20160213064010502/13/16 06:40:31  5-MIN KABI 131240Z 12004KT 10SM CLR 04/01 A3034 1400 79 400 110/04 RMK AO2 T00390006 $
13962KABI ABI20160213064510502/13/16 06:45:31  5-MIN KABI 131245Z 12004KT 10SM CLR 04/00 A3035 1400 76 400 110/04 RMK AO2 T00390000 $
13962KABI ABI20160213065011202/13/16 06:50:31  5-MIN KABI 131250Z 13003KT 10SM CLR 04/00 A3035 1400 76 400 120/03 RMK AO2 SLP271 T00390000 $
13962KABI ABI20160213065510502/13/16 06:55:31  5-MIN KABI 131255Z 14003KT 10SM CLR 04/00 A3035 1400 76 400 130/03 RMK AO2 T00390000 $
13962KABI ABI20160213070010502/13/16 07:00:31  5-MIN KABI 131300Z 12003KT 10SM CLR 03/00 A3035 1400 79 400 120/03 RMK AO2 T00330000 $
13962KABI ABI20160213070510502/13/16 07:05:31  5-MIN KABI 131305Z 00000KT 10SM CLR 03/00 A3035 1400 79 400 000/00 RMK AO2 T00330000 $
13962KABI ABI20160213071010402/13/16 07:10:31  5-MIN KABI 131310Z 00000KT 9SM CLR 03/01 A3035 1400 85 300 000/00 RMK AO2 T00280006 $
13962KABI ABI20160213071510402/13/16 07:15:31  5-MIN KABI 131315Z 00000KT 9SM CLR 03/01 A3035 1400 82 400 000/00 RMK AO2 T00330006 $
13962KABI ABI20160213072010402/13/16 07:20:31  5-MIN KABI 131320Z 00000KT 9SM CLR 03/01 A3035 1400 85 300 000/00 RMK AO2 T00280006 $
13962KABI ABI20160213072510502/13/16 07:25:31  5-MIN KABI 131325Z 00000KT 10SM CLR 03/01 A3035 1400 82 400 000/00 RMK AO2 T00330006 $
13962KABI ABI20160213073010402/13/16 07:30:31  5-MIN KABI 131330Z 00000KT 9SM CLR 03/01 A3035 1400 85 300 000/00 RMK AO2 T00280006 $
13962KABI ABI20160213073510402/13/16 07:35:31  5-MIN KABI 131335Z 00000KT 9SM CLR 03/01 A3035 1400 85 300 000/00 RMK AO2 T00280006 $
13962KABI ABI20160213074010402/13/16 07:40:31  5-MIN KABI 131340Z 00000KT 9SM CLR 03/01 A3035 1400 82 400 000/00 RMK AO2 T00330006 $
13962KABI ABI20160213074510402/13/16 07:45:31  5-MIN KABI 131345Z 00000KT 9SM CLR 03/01 A3035 1400 82 400 000/00 RMK AO2 T00330006 $
13962KABI ABI20160213075011102/13/16 07:50:31  5-MIN KABI 131350Z 00000KT 9SM CLR 03/01 A3035 1400 82 400 000/00 RMK AO2 SLP275 T00330006 $
13962KABI ABI20160213075510502/13/16 07:55:31  5-MIN KABI 131355Z 00000KT 10SM CLR 04/01 A3035 1390 79 400 000/00 RMK AO2 T00390006 $
13962KABI ABI20160213080010402/13/16 08:00:31  5-MIN KABI 131400Z 00000KT 9SM CLR 04/01 A3035 1390 79 400 000/00 RMK AO2 T00390006 $
13962KABI ABI20160213080510402/13/16 08:05:31  5-MIN KABI 131405Z 00000KT 9SM CLR 04/01 A3035 1400 82 400 000/00 RMK AO2 T00390011 $
13962KABI ABI20160213081010402/13/16 08:10:31  5-MIN KABI 131410Z 00000KT 9SM CLR 04/01 A3035 1400 82 400 000/00 RMK AO2 T00390011 $
13962KABI ABI20160213081510502/13/16 08:15:31  5-MIN KABI 131415Z 00000KT 10SM CLR 04/02 A3035 1390 82 500 000/00 RMK AO2 T00440017 $
13962KABI ABI20160213082010402/13/16 08:20:31  5-MIN KABI 131420Z 00000KT 9SM CLR 04/02 A3035 1390 82 500 000/00 RMK AO2 T00440017 $
13962KABI ABI20160213082510402/13/16 08:25:31  5-MIN KABI 131425Z 00000KT 9SM CLR 05/02 A3035 1400 79 600 000/00 RMK AO2 T00500017 $
13962KABI ABI20160213083010502/13/16 08:30:31  5-MIN KABI 131430Z 17003KT 10SM CLR 06/02 A3035 1400 76 600 160/03 RMK AO2 T00560017 $
13962KABI ABI20160213083510502/13/16 08:35:31  5-MIN KABI 131435Z 00000KT 10SM CLR 06/02 A3035 1390 76 600 000/00 RMK AO2 T00560017 $
13962KABI ABI20160213084010402/13/16 08:40:31  5-MIN KABI 131440Z 16003KT 9SM CLR 06/02 A3035 1400 73 700 160/03 RMK AO2 T00610017 $
13962KABI ABI20160213084510502/13/16 08:45:31  5-MIN KABI 131445Z 14003KT 10SM CLR 07/02 A3035 1390 70 800 130/03 RMK AO2 T00670017 $
13962KABI ABI20160213085011802/13/16 08:50:31  5-MIN KABI 131450Z 13004KT 10SM CLR 07/02 A3035 1390 70 800 120/04 RMK AO2 SLP275 T00670017 53002 $
13962KABI ABI20160213085510502/13/16 08:55:31  5-MIN KABI 131455Z 13004KT 10SM CLR 07/02 A3035 1390 68 800 130/04 RMK AO2 T00720017 $
13962KABI ABI20160213090010502/13/16 09:00:31  5-MIN KABI 131500Z 13007KT 10SM CLR 08/02 A3035 1400 65 900 130/07 RMK AO2 T00780017 $
13962KABI ABI20160213090510602/13/16 09:05:31  5-MIN KABI 131505Z 12006KT 10SM CLR 08/02 A3035 1400 63 1000 120/06 RMK AO2 T00830017 $
13962KABI ABI20160213091010502/13/16 09:10:31  5-MIN KABI 131510Z 13007KT 9SM CLR 09/02 A3035 1400 60 1000 120/07 RMK AO2 T00890017 $
13962KABI ABI20160213091510502/13/16 09:15:31  5-MIN KABI 131515Z 13008KT 9SM CLR 09/02 A3035 1400 58 1100 120/08 RMK AO2 T00940017 $
13962KABI ABI20160213092010502/13/16 09:20:31  5-MIN KABI 131520Z 15005KT 9SM CLR 09/02 A3035 1400 58 1100 150/05 RMK AO2 T00940017 $
13962KABI ABI20160213092510502/13/16 09:25:31  5-MIN KABI 131525Z 15007KT 9SM CLR 10/02 A3035 1400 56 1200 140/07 RMK AO2 T01000017 $
13962KABI ABI20160213093010502/13/16 09:30:31  5-MIN KABI 131530Z 14006KT 9SM CLR 10/02 A3035 1400 56 1200 140/06 RMK AO2 T01000017 $
13962KABI ABI20160213093510502/13/16 09:35:31  5-MIN KABI 131535Z 14007KT 9SM CLR 11/02 A3035 1400 54 1200 130/07 RMK AO2 T01060017 $
13962KABI ABI20160213094010502/13/16 09:40:31  5-MIN KABI 131540Z 16006KT 9SM CLR 11/02 A3035 1400 54 1200 150/06 RMK AO2 T01060017 $
13962KABI ABI20160213094510502/13/16 09:45:31  5-MIN KABI 131545Z 17007KT 9SM CLR 11/02 A3035 1400 54 1200 170/07 RMK AO2 T01060017 $
13962KABI ABI20160213095011202/13/16 09:50:31  5-MIN KABI 131550Z 18007KT 9SM CLR 11/02 A3035 1400 52 1300 170/07 RMK AO2 SLP271 T01110017 $
13962KABI ABI20160213095510502/13/16 09:55:31  5-MIN KABI 131555Z 17006KT 9SM CLR 11/02 A3035 1400 52 1300 160/06 RMK AO2 T01110017 $
13962KABI ABI20160213100010502/13/16 10:00:31  5-MIN KABI 131600Z VRB05KT 9SM CLR 12/02 A3035 1400 50 1400 VRB/05 RMK AO2 T01170017 $
13962KABI ABI20160213100510502/13/16 10:05:31  5-MIN KABI 131605Z 17009KT 9SM CLR 12/02 A3035 1400 50 1400 160/09 RMK AO2 T01220022 $
13962KABI ABI20160213101010502/13/16 10:10:31  5-MIN KABI 131610Z 16011KT 9SM CLR 12/02 A3034 1400 48 1400 160/11 RMK AO2 T01220017 $
13962KABI ABI20160213101510602/13/16 10:15:31  5-MIN KABI 131615Z 15010KT 10SM CLR 12/02 A3034 1400 48 1400 150/10 RMK AO2 T01220017 $
13962KABI ABI20160213102010602/13/16 10:20:31  5-MIN KABI 131620Z 15010KT 10SM CLR 13/02 A3034 1410 46 1500 140/10 RMK AO2 T01280017 $
13962KABI ABI20160213102511202/13/16 10:25:31  5-MIN KABI 131625Z 17012G17KT 10SM CLR 13/02 A3034 1410 45 1600 160/12G17 RMK AO2 T01330017 $
13962KABI ABI20160213103010602/13/16 10:30:31  5-MIN KABI 131630Z 16012KT 10SM CLR 14/02 A3034 1410 43 1600 150/12 RMK AO2 T01390017 $
13962KABI ABI20160213103510602/13/16 10:35:31  5-MIN KABI 131635Z 15015KT 10SM CLR 14/01 A3034 1410 41 1600 140/15 RMK AO2 T01390011 $
13962KABI ABI20160213104010602/13/16 10:40:31  5-MIN KABI 131640Z 16011KT 10SM CLR 14/02 A3034 1410 41 1700 150/11 RMK AO2 T01440017 $
13962KABI ABI20160213104510602/13/16 10:45:31  5-MIN KABI 131645Z 16013KT 10SM CLR 14/02 A3033 1410 43 1700 150/13 RMK AO2 T01390017 $
13962KABI ABI20160213105011302/13/16 10:50:31  5-MIN KABI 131650Z 16010KT 10SM CLR 14/02 A3033 1410 43 1600 150/10 RMK AO2 SLP265 T01390017 $
13962KABI ABI20160213105510602/13/16 10:55:31  5-MIN KABI 131655Z 15011KT 10SM CLR 14/02 A3033 1410 41 1700 150/11 RMK AO2 T01440017 $
13962KABI ABI20160213110010602/13/16 11:00:31  5-MIN KABI 131700Z 16013KT 10SM CLR 15/02 A3033 1410 42 1800 160/13 RMK AO2 T01500022 $
13962KABI ABI20160213110510602/13/16 11:05:31  5-MIN KABI 131705Z 15012KT 10SM CLR 15/02 A3033 1420 42 1800 140/12 RMK AO2 T01500022 $
13962KABI ABI20160213111010602/13/16 11:10:31  5-MIN KABI 131710Z 16012KT 10SM CLR 15/02 A3033 1420 42 1800 150/12 RMK AO2 T01500022 $
13962KABI ABI20160213111510602/13/16 11:15:31  5-MIN KABI 131715Z 16012KT 10SM CLR 16/03 A3032 1420 42 1900 150/12 RMK AO2 T01560028 $
13962KABI ABI20160213112010602/13/16 11:20:31  5-MIN KABI 131720Z 17011KT 10SM CLR 16/03 A3032 1420 40 1900 170/11 RMK AO2 T01610028 $
13962KABI ABI20160213112510602/13/16 11:25:31  5-MIN KABI 131725Z 16009KT 10SM CLR 17/03 A3032 1430 40 2000 150/09 RMK AO2 T01670033 $
13962KABI ABI20160213113010602/13/16 11:30:31  5-MIN KABI 131730Z 17012KT 10SM CLR 16/03 A3032 1430 42 1900 160/12 RMK AO2 T01610033 $
13962KABI ABI20160213113510602/13/16 11:35:31  5-MIN KABI 131735Z 16013KT 10SM CLR 16/03 A3031 1430 42 1900 160/13 RMK AO2 T01610033 $
13962KABI ABI20160213114010602/13/16 11:40:31  5-MIN KABI 131740Z 16011KT 10SM CLR 17/04 A3031 1440 42 2000 160/11 RMK AO2 T01670039 $
13962KABI ABI20160213114510602/13/16 11:45:31  5-MIN KABI 131745Z 16010KT 10SM CLR 17/04 A3030 1440 42 2000 150/10 RMK AO2 T01670039 $
13962KABI ABI20160213115013102/13/16 11:50:31  5-MIN KABI 131750Z 16010KT 10SM CLR 17/04 A3030 1440 42 2000 160/10 RMK AO2 SLP251 T01670039 10167 20028 51004 $
13962KABI ABI20160213115510602/13/16 11:55:31  5-MIN KABI 131755Z 15010KT 10SM CLR 17/04 A3030 1450 42 2100 150/10 RMK AO2 T01720044 $
13962KABI ABI20160213120010602/13/16 12:00:31  5-MIN KABI 131800Z 15012KT 10SM CLR 18/05 A3029 1450 42 2100 150/12 RMK AO2 T01780050 $
13962KABI ABI20160213120510602/13/16 12:05:31  5-MIN KABI 131805Z 15012KT 10SM CLR 18/05 A3029 1450 42 2200 150/12 RMK AO2 T01780050 $
13962KABI ABI20160213121011202/13/16 12:10:31  5-MIN KABI 131810Z 17012G17KT 10SM CLR 18/06 A3028 1460 42 2200 170/12G17 RMK AO2 T01830056 $
13962KABI ABI20160213121510602/13/16 12:15:31  5-MIN KABI 131815Z 17013KT 10SM CLR 18/06 A3028 1460 46 2200 170/13 RMK AO2 T01780061 $
13962KABI ABI20160213122011302/13/16 12:20:31  5-MIN KABI 131820Z 17012KT 10SM CLR 18/06 A3027 1470 44 2200 170/12 RMK AO2 PRESFR T01830061 $
13962KABI ABI20160213122510602/13/16 12:25:31  5-MIN KABI 131825Z 18010KT 10SM CLR 18/06 A3027 1470 44 2200 170/10 RMK AO2 T01830061 $
13962KABI ABI20160213123010602/13/16 12:30:31  5-MIN KABI 131830Z 17010KT 10SM CLR 18/06 A3027 1470 44 2200 160/10 RMK AO2 T01830061 $
13962KABI ABI20160213123510602/13/16 12:35:31  5-MIN KABI 131835Z 18010KT 10SM CLR 19/07 A3026 1480 44 2300 180/10 RMK AO2 T01890067 $
13962KABI ABI20160213124011202/13/16 12:40:31  5-MIN KABI 131840Z 18013G19KT 10SM CLR 19/07 A3025 1490 43 2400 170/13G19 RMK AO2 T01940067 $
13962KABI ABI20160213124510602/13/16 12:45:31  5-MIN KABI 131845Z 17012KT 10SM CLR 19/07 A3025 1490 43 2400 170/12 RMK AO2 T01940067 $
13962KABI ABI20160213125011302/13/16 12:50:31  5-MIN KABI 131850Z 17013KT 10SM CLR 20/07 A3024 1490 43 2500 160/13 RMK AO2 SLP230 T02000072 $
13962KABI ABI20160213125511302/13/16 12:55:31  5-MIN KABI 131855Z 18014KT 10SM CLR 20/07 A3024 1500 43 2500 170/14 RMK AO2 PRESFR T02000072 $
13962KABI ABI20160213130011302/13/16 13:00:31  5-MIN KABI 131900Z 19013KT 10SM CLR 20/08 A3023 1510 45 2500 190/13 RMK AO2 PRESFR T02000078 $
13962KABI ABI20160213130511302/13/16 13:05:31  5-MIN KABI 131905Z 17011KT 10SM CLR 21/08 A3023 1510 45 2500 160/11 RMK AO2 PRESFR T02060083 $
13962KABI ABI20160213131011302/13/16 13:10:31  5-MIN KABI 131910Z 18012KT 10SM CLR 21/08 A3022 1520 43 2600 180/12 RMK AO2 PRESFR T02110083 $
13962KABI ABI20160213131511302/13/16 13:15:31  5-MIN KABI 131915Z 19013KT 10SM CLR 21/08 A3021 1520 43 2600 180/13 RMK AO2 PRESFR T02110083 $
13962KABI ABI20160213132011202/13/16 13:20:31  5-MIN KABI 131920Z 18009G18KT 10SM CLR 21/08 A3021 1530 43 2600 170/09G18 RMK AO2 T02110083 $
13962KABI ABI20160213132511202/13/16 13:25:31  5-MIN KABI 131925Z 19017G20KT 10SM CLR 22/09 A3020 1530 43 2700 180/17G20 RMK AO2 T02170089 $
13962KABI ABI20160213133011202/13/16 13:30:31  5-MIN KABI 131930Z 19012G20KT 10SM CLR 22/09 A3020 1530 43 2700 180/12G20 RMK AO2 T02170089 $
13962KABI ABI20160213133510602/13/16 13:35:31  5-MIN KABI 131935Z 18014KT 10SM CLR 22/09 A3020 1540 43 2700 170/14 RMK AO2 T02170089 $
13962KABI ABI20160213134011202/13/16 13:40:31  5-MIN KABI 131940Z 19014G20KT 10SM CLR 22/09 A3019 1540 42 2800 180/14G20 RMK AO2 T02220089 $
13962KABI ABI20160213134510602/13/16 13:45:31  5-MIN KABI 131945Z 19014KT 10SM CLR 22/09 A3019 1540 42 2800 190/14 RMK AO2 T02220089 $
13962KABI ABI20160213135011902/13/16 13:50:31  5-MIN KABI 131950Z 18015G22KT 10SM CLR 22/09 A3019 1550 42 2800 170/15G22 RMK AO2 SLP210 T02220089 $
13962KABI ABI20160213135511202/13/16 13:55:31  5-MIN KABI 131955Z 19011G22KT 10SM CLR 23/09 A3018 1550 40 2800 180/11G22 RMK AO2 T02280089 $
13962KABI ABI20160213140011202/13/16 14:00:31  5-MIN KABI 132000Z 20013G23KT 10SM CLR 23/08 A3018 1550 39 2800 200/13G23 RMK AO2 T02280083 $
13962KABI ABI20160213140511202/13/16 14:05:31  5-MIN KABI 132005Z 19019G23KT 10SM CLR 22/08 A3018 1560 40 2800 180/19G23 RMK AO2 T02220083 $
13962KABI ABI20160213141011202/13/16 14:10:31  5-MIN KABI 132010Z 18015G22KT 10SM CLR 23/08 A3017 1560 37 2900 180/15G22 RMK AO2 T02280078 $
13962KABI ABI20160213141511202/13/16 14:15:31  5-MIN KABI 132015Z 18014G21KT 10SM CLR 23/08 A3017 1560 37 2900 180/14G21 RMK AO2 T02280078 $
13962KABI ABI20160213142010602/13/16 14:20:31  5-MIN KABI 132020Z 18015KT 10SM CLR 22/07 A3017 1570 37 2800 180/15 RMK AO2 T02220072 $
13962KABI ABI20160213142511202/13/16 14:25:31  5-MIN KABI 132025Z 18017G21KT 10SM CLR 23/07 A3016 1570 36 2900 180/17G21 RMK AO2 T02280072 $
13962KABI ABI20160213143011202/13/16 14:30:31  5-MIN KABI 132030Z 19015G21KT 10SM CLR 23/08 A3016 1570 37 2900 190/15G21 RMK AO2 T02280078 $
13962KABI ABI20160213143511202/13/16 14:35:31  5-MIN KABI 132035Z 19014G21KT 10SM CLR 23/07 A3015 1580 36 2900 190/14G21 RMK AO2 T02280072 $
13962KABI ABI20160213144011202/13/16 14:40:31  5-MIN KABI 132040Z 19014G22KT 10SM CLR 23/07 A3014 1590 36 2900 180/14G22 RMK AO2 T02280072 $
13962KABI ABI20160213144511902/13/16 14:45:31  5-MIN KABI 132045Z 20018G22KT 10SM CLR 23/07 A3014 1590 35 2900 190/18G22 RMK AO2 PRESFR T02280067 $
13962KABI ABI20160213145012502/13/16 14:50:31  5-MIN KABI 132050Z 20017G22KT 10SM CLR 22/07 A3014 1590 36 2800 200/17G22 RMK AO2 SLP194 T02220067 58018 $
13962KABI ABI20160213145511202/13/16 14:55:31  5-MIN KABI 132055Z 19014G22KT 10SM CLR 23/07 A3013 1600 36 2900 180/14G22 RMK AO2 T02280072 $
13962KABI ABI20160213150010602/13/16 15:00:31  5-MIN KABI 132100Z 20017KT 10SM CLR 23/07 A3013 1600 36 2900 190/17 RMK AO2 T02280072 $
13962KABI ABI20160213150510602/13/16 15:05:31  5-MIN KABI 132105Z 19013KT 10SM CLR 23/07 A3013 1600 36 2900 180/13 RMK AO2 T02280072 $
13962KABI ABI20160213151011202/13/16 15:10:31  5-MIN KABI 132110Z 18017G21KT 10SM CLR 23/07 A3012 1610 35 2900 170/17G21 RMK AO2 T02280067 $
13962KABI ABI20160213151510602/13/16 15:15:31  5-MIN KABI 132115Z 18016KT 10SM CLR 23/07 A3012 1610 36 2900 180/16 RMK AO2 T02280072 $
13962KABI ABI20160213152010602/13/16 15:20:31  5-MIN KABI 132120Z 19011KT 10SM CLR 23/07 A3011 1610 35 2900 190/11 RMK AO2 T02280067 $
13962KABI ABI20160213152511202/13/16 15:25:31  5-MIN KABI 132125Z 17014G19KT 10SM CLR 22/07 A3011 1610 37 2900 160/14G19 RMK AO2 T02220072 $
13962KABI ABI20160213153010602/13/16 15:30:31  5-MIN KABI 132130Z 18015KT 10SM CLR 22/07 A3011 1620 36 2900 170/15 RMK AO2 T02220067 $
13962KABI ABI20160213153510602/13/16 15:35:31  5-MIN KABI 132135Z 19013KT 10SM CLR 23/07 A3011 1620 35 3000 180/13 RMK AO2 T02330072 $
13962KABI ABI20160213154011202/13/16 15:40:31  5-MIN KABI 132140Z 17013G20KT 10SM CLR 23/07 A3010 1620 35 3000 170/13G20 RMK AO2 T02330072 $
13962KABI ABI20160213154510602/13/16 15:45:31  5-MIN KABI 132145Z 17016KT 10SM CLR 24/07 A3010 1630 34 3100 170/16 RMK AO2 T02390072 $
13962KABI ABI20160213155011302/13/16 15:50:31  5-MIN KABI 132150Z 17013KT 10SM CLR 23/07 A3010 1630 35 3000 170/13 RMK AO2 SLP179 T02330072 $
13962KABI ABI20160213155511202/13/16 15:55:31  5-MIN KABI 132155Z 18014G22KT 10SM CLR 23/07 A3009 1630 33 3000 170/14G22 RMK AO2 T02330067 $
13962KABI ABI20160213160011202/13/16 16:00:31  5-MIN KABI 132200Z 17013G22KT 10SM CLR 23/07 A3009 1640 33 3000 170/13G22 RMK AO2 T02330067 $
13962KABI ABI20160213160510602/13/16 16:05:31  5-MIN KABI 132205Z 18015KT 10SM CLR 23/07 A3009 1640 33 3000 170/15 RMK AO2 T02330067 $
13962KABI ABI20160213161011202/13/16 16:10:31  5-MIN KABI 132210Z 18011G21KT 10SM CLR 23/07 A3009 1640 33 3000 180/11G21 RMK AO2 T02330067 $
13962KABI ABI20160213161511202/13/16 16:15:31  5-MIN KABI 132215Z 18017G21KT 10SM CLR 23/07 A3008 1640 33 3000 180/17G21 RMK AO2 T02330067 $
13962KABI ABI20160213162011202/13/16 16:20:31  5-MIN KABI 132220Z 19015G21KT 10SM CLR 23/06 A3008 1640 33 3000 180/15G21 RMK AO2 T02280061 $
13962KABI ABI20160213162510602/13/16 16:25:31  5-MIN KABI 132225Z 19015KT 10SM CLR 23/06 A3008 1640 32 3000 180/15 RMK AO2 T02330061 $
13962KABI ABI20160213163011202/13/16 16:30:31  5-MIN KABI 132230Z 19015G21KT 10SM CLR 23/06 A3008 1650 33 3000 190/15G21 RMK AO2 T02280061 $
13962KABI ABI20160213163511202/13/16 16:35:31  5-MIN KABI 132235Z 17011G21KT 10SM CLR 23/06 A3008 1650 33 3000 160/11G21 RMK AO2 T02280061 $
13962KABI ABI20160213164011202/13/16 16:40:31  5-MIN KABI 132240Z 17012G19KT 10SM CLR 24/07 A3007 1650 32 3100 170/12G19 RMK AO2 T02390067 $
13962KABI ABI20160213164511202/13/16 16:45:31  5-MIN KABI 132245Z 17014G20KT 10SM CLR 24/07 A3007 1650 32 3100 170/14G20 RMK AO2 T02390067 $
13962KABI ABI20160213165011902/13/16 16:50:31  5-MIN KABI 132250Z 18016G21KT 10SM CLR 24/07 A3007 1660 32 3100 170/16G21 RMK AO2 SLP170 T02390067 $
13962KABI ABI20160213165511202/13/16 16:55:31  5-MIN KABI 132255Z 17014G21KT 10SM CLR 24/06 A3007 1660 30 3100 170/14G21 RMK AO2 T02390056 $
13962KABI ABI20160213170011202/13/16 17:00:31  5-MIN KABI 132300Z 18017G22KT 10SM CLR 23/06 A3007 1660 31 3000 180/17G22 RMK AO2 T02330056 $
13962KABI ABI20160213170511202/13/16 17:05:31  5-MIN KABI 132305Z 19014G22KT 10SM CLR 23/06 A3007 1660 31 3000 180/14G22 RMK AO2 T02330056 $
13962KABI ABI20160213171010602/13/16 17:10:31  5-MIN KABI 132310Z 18015KT 10SM CLR 23/06 A3007 1660 31 3000 180/15 RMK AO2 T02330056 $
13962KABI ABI20160213171511202/13/16 17:15:31  5-MIN KABI 132315Z 19014G20KT 10SM CLR 23/05 A3006 1660 30 3000 180/14G20 RMK AO2 T02330050 $
13962KABI ABI20160213172011202/13/16 17:20:31  5-MIN KABI 132320Z 18014G20KT 10SM CLR 23/05 A3007 1660 30 3000 180/14G20 RMK AO2 T02330050 $
13962KABI ABI20160213172511202/13/16 17:25:31  5-MIN KABI 132325Z 18013G20KT 10SM CLR 23/05 A3006 1660 30 3000 180/13G20 RMK AO2 T02330050 $
13962KABI ABI20160213173010602/13/16 17:30:31  5-MIN KABI 132330Z 19014KT 10SM CLR 23/04 A3006 1660 30 3000 190/14 RMK AO2 T02280044 $
13962KABI ABI20160213173510602/13/16 17:35:31  5-MIN KABI 132335Z 18011KT 10SM CLR 23/04 A3006 1660 28 3000 180/11 RMK AO2 T02330039 $
13962KABI ABI20160213174010602/13/16 17:40:31  5-MIN KABI 132340Z 18011KT 10SM CLR 23/04 A3006 1660 30 3000 170/11 RMK AO2 T02280044 $
13962KABI ABI20160213174510602/13/16 17:45:31  5-MIN KABI 132345Z 18012KT 10SM CLR 23/04 A3006 1660 29 3000 180/12 RMK AO2 T02330044 $
13962KABI ABI20160213175013102/13/16 17:50:31  5-MIN KABI 132350Z 19014KT 10SM CLR 23/04 A3006 1660 30 3000 180/14 RMK AO2 SLP168 T02280044 10239 20172 56052 $
13962KABI ABI20160213175510602/13/16 17:55:31  5-MIN KABI 132355Z 19012KT 10SM CLR 23/04 A3006 1670 29 3000 180/12 RMK AO2 T02280039 $
13962KABI ABI20160213180010602/13/16 18:00:31  5-MIN KABI 140000Z 18009KT 10SM CLR 23/04 A3006 1660 29 3000 180/09 RMK AO2 T02280039 $
13962KABI ABI20160213180510602/13/16 18:05:31  5-MIN KABI 140005Z 18009KT 10SM CLR 22/04 A3006 1660 31 2900 170/09 RMK AO2 T02220044 $
13962KABI ABI20160213181010602/13/16 18:10:31  5-MIN KABI 140010Z 17012KT 10SM CLR 22/04 A3006 1670 31 2900 170/12 RMK AO2 T02220044 $
13962KABI ABI20160213181510602/13/16 18:15:31  5-MIN KABI 140015Z 17012KT 10SM CLR 22/04 A3006 1670 31 2900 170/12 RMK AO2 T02220044 $
13962KABI ABI20160213182010602/13/16 18:20:31  5-MIN KABI 140020Z 18011KT 10SM CLR 22/04 A3006 1670 32 2900 170/11 RMK AO2 T02170044 $
13962KABI ABI20160213182510602/13/16 18:25:31  5-MIN KABI 140025Z 17010KT 10SM CLR 21/05 A3006 1660 34 2800 170/10 RMK AO2 T02110050 $
13962KABI ABI20160213183010602/13/16 18:30:31  5-MIN KABI 140030Z 18010KT 10SM CLR 21/05 A3006 1660 34 2800 170/10 RMK AO2 T02110050 $
13962KABI ABI20160213183510602/13/16 18:35:31  5-MIN KABI 140035Z 17010KT 10SM CLR 21/05 A3006 1660 34 2800 170/10 RMK AO2 T02110050 $
13962KABI ABI20160213184010602/13/16 18:40:31  5-MIN KABI 140040Z 17009KT 10SM CLR 20/05 A3006 1660 37 2700 160/09 RMK AO2 T02000050 $
13962KABI ABI20160213184510602/13/16 18:45:31  5-MIN KABI 140045Z 16009KT 10SM CLR 20/05 A3006 1660 37 2700 160/09 RMK AO2 T02000050 $
13962KABI ABI20160213185011302/13/16 18:50:31  5-MIN KABI 140050Z 16009KT 10SM CLR 19/05 A3006 1660 38 2600 160/09 RMK AO2 SLP171 T01940050 $
13962KABI ABI20160213185510602/13/16 18:55:31  5-MIN KABI 140055Z 16008KT 10SM CLR 19/05 A3006 1660 39 2500 160/08 RMK AO2 T01890050 $
13962KABI ABI20160213190010602/13/16 19:00:31  5-MIN KABI 140100Z 16009KT 10SM CLR 18/05 A3006 1670 41 2500 160/09 RMK AO2 T01830050 $
13962KABI ABI20160213190510602/13/16 19:05:31  5-MIN KABI 140105Z 16009KT 10SM CLR 18/05 A3006 1670 41 2500 150/09 RMK AO2 T01830050 $
13962KABI ABI20160213191010602/13/16 19:10:31  5-MIN KABI 140110Z 16010KT 10SM CLR 18/05 A3005 1670 42 2400 150/10 RMK AO2 T01780050 $
13962KABI ABI20160213191510602/13/16 19:15:31  5-MIN KABI 140115Z 16009KT 10SM CLR 18/05 A3005 1670 42 2400 150/09 RMK AO2 T01780050 $
13962KABI ABI20160213192010602/13/16 19:20:31  5-MIN KABI 140120Z 15009KT 10SM CLR 17/05 A3005 1670 44 2400 150/09 RMK AO2 T01720050 $
13962KABI ABI20160213192510602/13/16 19:25:31  5-MIN KABI 140125Z 15008KT 10SM CLR 17/05 A3005 1670 44 2400 150/08 RMK AO2 T01720050 $
13962KABI ABI20160213193010602/13/16 19:30:31  5-MIN KABI 140130Z 15009KT 10SM CLR 16/05 A3005 1670 47 2200 140/09 RMK AO2 T01610050 $
13962KABI ABI20160213193510602/13/16 19:35:31  5-MIN KABI 140135Z 15009KT 10SM CLR 16/05 A3005 1670 47 2200 140/09 RMK AO2 T01610050 $
13962KABI ABI20160213194010602/13/16 19:40:31  5-MIN KABI 140140Z 15009KT 10SM CLR 16/05 A3005 1670 47 2200 140/09 RMK AO2 T01610050 $
13962KABI ABI20160213194510602/13/16 19:45:31  5-MIN KABI 140145Z 15009KT 10SM CLR 16/05 A3005 1670 49 2200 140/09 RMK AO2 T01560050 $
13962KABI ABI20160213195011302/13/16 19:50:31  5-MIN KABI 140150Z 15009KT 10SM CLR 16/05 A3005 1680 49 2200 140/09 RMK AO2 SLP170 T01560050 $
13962KABI ABI20160213195510602/13/16 19:55:31  5-MIN KABI 140155Z 15009KT 10SM CLR 16/05 A3005 1680 49 2200 150/09 RMK AO2 T01560050 $
13962KABI ABI20160213200010602/13/16 20:00:31  5-MIN KABI 140200Z 15010KT 10SM CLR 16/05 A3005 1680 47 2200 150/10 RMK AO2 T01610050 $
13962KABI ABI20160213200510602/13/16 20:05:31  5-MIN KABI 140205Z 15010KT 10SM CLR 16/05 A3005 1680 47 2200 150/10 RMK AO2 T01610050 $
13962KABI ABI20160213201010602/13/16 20:10:31  5-MIN KABI 140210Z 16009KT 10SM CLR 16/05 A3005 1680 47 2200 150/09 RMK AO2 T01610050 $
13962KABI ABI20160213201510602/13/16 20:15:31  5-MIN KABI 140215Z 16009KT 10SM CLR 16/05 A3005 1680 49 2200 150/09 RMK AO2 T01560050 $
13962KABI ABI20160213202010602/13/16 20:20:31  5-MIN KABI 140220Z 16009KT 10SM CLR 16/06 A3004 1680 51 2200 150/09 RMK AO2 T01560056 $
13962KABI ABI20160213202510602/13/16 20:25:31  5-MIN KABI 140225Z 16009KT 10SM CLR 16/06 A3005 1680 51 2200 150/09 RMK AO2 T01560056 $
13962KABI ABI20160213203010602/13/16 20:30:31  5-MIN KABI 140230Z 16009KT 10SM CLR 16/05 A3005 1680 49 2200 150/09 RMK AO2 T01560050 $
13962KABI ABI20160213203510602/13/16 20:35:31  5-MIN KABI 140235Z 16009KT 10SM CLR 16/05 A3005 1670 49 2200 160/09 RMK AO2 T01560050 $
13962KABI ABI20160213204010602/13/16 20:40:31  5-MIN KABI 140240Z 17008KT 10SM CLR 15/05 A3005 1670 51 2100 160/08 RMK AO2 T01500050 $
13962KABI ABI20160213204510602/13/16 20:45:31  5-MIN KABI 140245Z 17009KT 10SM CLR 15/04 A3005 1680 49 2100 160/09 RMK AO2 T01500044 $
13962KABI ABI20160213205011902/13/16 20:50:31  5-MIN KABI 140250Z 17010KT 10SM CLR 16/04 A3004 1680 47 2200 170/10 RMK AO2 SLP166 T01560044 56025 $
13962KABI ABI20160213205510602/13/16 20:55:31  5-MIN KABI 140255Z 17011KT 10SM CLR 16/03 A3004 1680 42 2200 170/11 RMK AO2 T01610033 $
13962KABI ABI20160213210010602/13/16 21:00:31  5-MIN KABI 140300Z 18012KT 10SM CLR 17/03 A3004 1680 39 2300 170/12 RMK AO2 T01670028 $
13962KABI ABI20160213210510602/13/16 21:05:31  5-MIN KABI 140305Z 18012KT 10SM CLR 17/03 A3004 1680 39 2300 170/12 RMK AO2 T01670028 $
13962KABI ABI20160213211010602/13/16 21:10:31  5-MIN KABI 140310Z 18012KT 10SM CLR 17/02 A3004 1680 37 2300 170/12 RMK AO2 T01670022 $
13962KABI ABI20160213211510602/13/16 21:15:31  5-MIN KABI 140315Z 17013KT 10SM CLR 17/02 A3004 1690 37 2300 170/13 RMK AO2 T01670022 $
13962KABI ABI20160213212010602/13/16 21:20:31  5-MIN KABI 140320Z 17011KT 10SM CLR 17/02 A3004 1680 37 2300 170/11 RMK AO2 T01670022 $
13962KABI ABI20160213212510602/13/16 21:25:31  5-MIN KABI 140325Z 17012KT 10SM CLR 16/02 A3004 1690 39 2200 160/12 RMK AO2 T01610022 $
13962KABI ABI20160213213010602/13/16 21:30:31  5-MIN KABI 140330Z 17012KT 10SM CLR 16/02 A3003 1690 39 2200 170/12 RMK AO2 T01610022 $
13962KABI ABI20160213213510602/13/16 21:35:31  5-MIN KABI 140335Z 17011KT 10SM CLR 16/02 A3004 1690 39 2200 170/11 RMK AO2 T01610022 $
13962KABI ABI20160213214010602/13/16 21:40:31  5-MIN KABI 140340Z 17011KT 10SM CLR 16/02 A3003 1690 39 2200 170/11 RMK AO2 T01610022 $
13962KABI ABI20160213214510602/13/16 21:45:31  5-MIN KABI 140345Z 17013KT 10SM CLR 16/02 A3002 1700 39 2300 160/13 RMK AO2 T01610022 $
13962KABI ABI20160213215011902/13/16 21:50:31  5-MIN KABI 140350Z 17016G21KT 10SM CLR 16/02 A3002 1700 39 2300 170/16G21 RMK AO2 SLP156 T01610022 $
13962KABI ABI20160213215511202/13/16 21:55:31  5-MIN KABI 140355Z 17016G23KT 10SM CLR 17/02 A3002 1700 37 2300 170/16G23 RMK AO2 T01670022 $
13962KABI ABI20160213220010602/13/16 22:00:31  5-MIN KABI 140400Z 17016KT 10SM CLR 17/02 A3002 1700 37 2300 170/16 RMK AO2 T01670022 $
13962KABI ABI20160213220510602/13/16 22:05:31  5-MIN KABI 140405Z 17017KT 10SM CLR 16/02 A3001 1710 39 2300 170/17 RMK AO2 T01610022 $
13962KABI ABI20160213221010602/13/16 22:10:31  5-MIN KABI 140410Z 18018KT 10SM CLR 16/02 A3001 1710 39 2300 170/18 RMK AO2 T01610022 $
13962KABI ABI20160213221511202/13/16 22:15:31  5-MIN KABI 140415Z 18017G25KT 10SM CLR 16/02 A3001 1710 39 2300 170/17G25 RMK AO2 T01610022 $
13962KABI ABI20160213222013002/13/16 22:20:31  5-MIN KABI 140420Z 18017G26KT 10SM CLR 16/02 A3001 1710 39 2300 170/17G26 RMK AO2 PK WND 18026/0416 T01610022 $
13962KABI ABI20160213222513002/13/16 22:25:31  5-MIN KABI 140425Z 18020G26KT 10SM CLR 16/02 A3001 1710 39 2300 180/20G26 RMK AO2 PK WND 19026/0422 T01610022 $
13962KABI ABI20160213223013002/13/16 22:30:31  5-MIN KABI 140430Z 18019G26KT 10SM CLR 16/03 A3001 1710 40 2300 180/19G26 RMK AO2 PK WND 19026/0422 T01610028 $
13962KABI ABI20160213223512402/13/16 22:35:31  5-MIN KABI 140435Z 18019KT 10SM CLR 16/03 A3001 1710 40 2300 180/19 RMK AO2 PK WND 19026/0422 T01610028 $
13962KABI ABI20160213224013002/13/16 22:40:31  5-MIN KABI 140440Z 18018G24KT 10SM CLR 16/03 A3001 1710 40 2300 180/18G24 RMK AO2 PK WND 19026/0422 T01610028 $
13962KABI ABI20160213224513002/13/16 22:45:31  5-MIN KABI 140445Z 18017G25KT 10SM CLR 16/03 A3001 1710 40 2300 170/17G25 RMK AO2 PK WND 19026/0422 T01610028 $
13962KABI ABI20160213225013702/13/16 22:50:31  5-MIN KABI 140450Z 18020G25KT 10SM CLR 16/03 A3001 1710 42 2300 180/20G25 RMK AO2 PK WND 19026/0422 SLP149 T01610033 $
13962KABI ABI20160213225513002/13/16 22:55:31  5-MIN KABI 140455Z 18019G26KT 10SM CLR 16/03 A3000 1710 42 2300 180/19G26 RMK AO2 PK WND 18026/0453 T01610033 $
13962KABI ABI20160213230013002/13/16 23:00:31  5-MIN KABI 140500Z 18020G28KT 10SM CLR 16/03 A3000 1720 42 2300 180/20G28 RMK AO2 PK WND 19028/0500 T01610033 $
13962KABI ABI20160213230513002/13/16 23:05:31  5-MIN KABI 140505Z 18020G30KT 10SM CLR 16/04 A3000 1720 44 2300 170/20G30 RMK AO2 PK WND 19030/0504 T01610039 $
13962KABI ABI20160213231013002/13/16 23:10:31  5-MIN KABI 140510Z 18016G30KT 10SM CLR 16/04 A3000 1720 44 2300 170/16G30 RMK AO2 PK WND 19030/0504 T01610039 $
13962KABI ABI20160213231513002/13/16 23:15:31  5-MIN KABI 140515Z 18015G24KT 10SM CLR 16/04 A3000 1720 45 2200 170/15G24 RMK AO2 PK WND 19030/0504 T01560039 $
13962KABI ABI20160213232013002/13/16 23:20:31  5-MIN KABI 140520Z 18015G24KT 10SM CLR 16/04 A3000 1720 45 2200 170/15G24 RMK AO2 PK WND 19030/0504 T01560039 $
13962KABI ABI20160213232513002/13/16 23:25:31  5-MIN KABI 140525Z 18016G23KT 10SM CLR 16/04 A3000 1720 47 2200 170/16G23 RMK AO2 PK WND 19030/0504 T01560044 $
13962KABI ABI20160213233013002/13/16 23:30:31  5-MIN KABI 140530Z 18014G23KT 10SM CLR 16/04 A3000 1720 47 2200 170/14G23 RMK AO2 PK WND 19030/0504 T01560044 $
13962KABI ABI20160213233512402/13/16 23:35:31  5-MIN KABI 140535Z 18014KT 10SM CLR 15/04 A3000 1720 49 2200 170/14 RMK AO2 PK WND 19030/0504 T01500044 $
13962KABI ABI20160213234013002/13/16 23:40:31  5-MIN KABI 140540Z 17008G18KT 10SM CLR 15/04 A3000 1720 49 2200 160/08G18 RMK AO2 PK WND 19030/0504 T01500044 $
13962KABI ABI20160213234512402/13/16 23:45:31  5-MIN KABI 140545Z 17011KT 10SM CLR 14/04 A3000 1720 51 2100 170/11 RMK AO2 PK WND 19030/0504 T01440044 $
13962KABI ABI20160213235015902/13/16 23:50:31  5-MIN KABI 140550Z 17011KT 10SM CLR 14/04 A3000 1720 51 2100 170/11 RMK AO2 PK WND 19030/0504 SLP145 T01440044 10228 20144 402390028 58006 $
13962KABI ABI20160213235510602/13/16 23:55:31  5-MIN KABI 140555Z 17013KT 10SM CLR 14/05 A2999 1730 53 2100 170/13 RMK AO2 T01440050 $
13962KABI ABI20160214000010602/14/16 00:00:31  5-MIN KABI 140600Z 17012KT 10SM CLR 14/05 A2999 1730 53 2100 170/12 RMK AO2 T01440050 $
13962KABI ABI20160214000510602/14/16 00:05:31  5-MIN KABI 140605Z 18013KT 10SM CLR 14/06 A2999 1730 55 2100 170/13 RMK AO2 T01440056 $
13962KABI ABI20160214001010602/14/16 00:10:31  5-MIN KABI 140610Z 18013KT 10SM CLR 14/06 A2999 1730 55 2100 170/13 RMK AO2 T01440056 $
13962KABI ABI20160214001510602/14/16 00:15:31  5-MIN KABI 140615Z 17014KT 10SM CLR 14/06 A2999 1730 57 2100 170/14 RMK AO2 T01440061 $
13962KABI ABI20160214002010602/14/16 00:20:31  5-MIN KABI 140620Z 17012KT 10SM CLR 14/06 A2999 1730 57 2100 170/12 RMK AO2 T01440061 $
13962KABI ABI20160214002510602/14/16 00:25:31  5-MIN KABI 140625Z 17013KT 10SM CLR 14/07 A2998 1730 59 2100 170/13 RMK AO2 T01440067 $
13962KABI ABI20160214003010602/14/16 00:30:31  5-MIN KABI 140630Z 17012KT 10SM CLR 14/07 A2998 1730 59 2100 170/12 RMK AO2 T01440067 $
13962KABI ABI20160214003510602/14/16 00:35:31  5-MIN KABI 140635Z 17012KT 10SM CLR 14/07 A2998 1730 59 2100 170/12 RMK AO2 T01440067 $
13962KABI ABI20160214004010602/14/16 00:40:31  5-MIN KABI 140640Z 17011KT 10SM CLR 14/07 A2998 1740 61 2100 160/11 RMK AO2 T01390067 $
13962KABI ABI20160214004510602/14/16 00:45:31  5-MIN KABI 140645Z 17011KT 10SM CLR 14/07 A2998 1740 61 2100 170/11 RMK AO2 T01440072 $
13962KABI ABI20160214005011302/14/16 00:50:31  5-MIN KABI 140650Z 17012KT 10SM CLR 14/07 A2997 1740 64 2100 170/12 RMK AO2 SLP134 T01390072 $
13962KABI ABI20160214005510602/14/16 00:55:31  5-MIN KABI 140655Z 17012KT 10SM CLR 14/07 A2997 1740 64 2100 160/12 RMK AO2 T01390072 $
13962KABI ABI20160214010010602/14/16 01:00:31  5-MIN KABI 140700Z 17011KT 10SM CLR 14/08 A2997 1750 66 2100 160/11 RMK AO2 T01390078 $
13962KABI ABI20160214010510602/14/16 01:05:31  5-MIN KABI 140705Z 17012KT 10SM CLR 14/08 A2997 1750 66 2100 170/12 RMK AO2 T01390078 $
13962KABI ABI20160214011010602/14/16 01:10:31  5-MIN KABI 140710Z 18013KT 10SM CLR 14/08 A2997 1750 66 2100 170/13 RMK AO2 T01390078 $
13962KABI ABI20160214011511202/14/16 01:15:31  5-MIN KABI 140715Z 17015G21KT 10SM CLR 14/08 A2996 1760 66 2100 170/15G21 RMK AO2 T01390078 $
13962KABI ABI20160214012011202/14/16 01:20:31  5-MIN KABI 140720Z 17013G21KT 10SM CLR 14/08 A2996 1750 64 2100 170/13G21 RMK AO2 T01440078 $
13962KABI ABI20160214012510602/14/16 01:25:31  5-MIN KABI 140725Z 17012KT 10SM CLR 14/08 A2996 1760 66 2100 170/12 RMK AO2 T01390078 $
13962KABI ABI20160214013010602/14/16 01:30:31  5-MIN KABI 140730Z 17014KT 10SM CLR 14/08 A2995 1760 66 2100 160/14 RMK AO2 T01390078 $
13962KABI ABI20160214013510602/14/16 01:35:31  5-MIN KABI 140735Z 17014KT 10SM CLR 14/08 A2995 1760 66 2100 160/14 RMK AO2 T01390078 $
13962KABI ABI20160214014010602/14/16 01:40:31  5-MIN KABI 140740Z 17014KT 10SM CLR 14/08 A2995 1760 66 2100 160/14 RMK AO2 T01390078 $
13962KABI ABI20160214014510602/14/16 01:45:31  5-MIN KABI 140745Z 17013KT 10SM CLR 14/08 A2995 1770 66 2100 160/13 RMK AO2 T01390078 $
13962KABI ABI20160214015011302/14/16 01:50:31  5-MIN KABI 140750Z 17013KT 10SM CLR 14/08 A2995 1770 69 2100 160/13 RMK AO2 SLP124 T01390083 $
13962KABI ABI20160214015510602/14/16 01:55:31  5-MIN KABI 140755Z 17016KT 10SM CLR 14/08 A2994 1770 69 2100 170/16 RMK AO2 T01390083 $
13962KABI ABI20160214020010602/14/16 02:00:31  5-MIN KABI 140800Z 17016KT 10SM CLR 14/08 A2994 1770 69 2100 170/16 RMK AO2 T01390083 $
13962KABI ABI20160214020510602/14/16 02:05:31  5-MIN KABI 140805Z 17016KT 10SM CLR 14/08 A2994 1770 69 2100 160/16 RMK AO2 T01390083 $
13962KABI ABI20160214021010602/14/16 02:10:31  5-MIN KABI 140810Z 17015KT 10SM CLR 14/08 A2994 1770 69 2100 160/15 RMK AO2 T01390083 $
13962KABI ABI20160214021510602/14/16 02:15:31  5-MIN KABI 140815Z 17017KT 10SM CLR 14/08 A2994 1780 69 2100 160/17 RMK AO2 T01390083 $
13962KABI ABI20160214022011202/14/16 02:20:31  5-MIN KABI 140820Z 17016G23KT 10SM CLR 14/08 A2994 1780 69 2100 160/16G23 RMK AO2 T01390083 $
13962KABI ABI20160214022511202/14/16 02:25:31  5-MIN KABI 140825Z 17016G24KT 10SM CLR 13/08 A2994 1770 71 2000 160/16G24 RMK AO2 T01330083 $
13962KABI ABI20160214023011202/14/16 02:30:31  5-MIN KABI 140830Z 17015G24KT 10SM CLR 13/08 A2994 1780 71 2000 160/15G24 RMK AO2 T01330083 $
13962KABI ABI20160214023510602/14/16 02:35:31  5-MIN KABI 140835Z 17017KT 10SM CLR 13/08 A2994 1780 71 2000 160/17 RMK AO2 T01330083 $
13962KABI ABI20160214024010602/14/16 02:40:31  5-MIN KABI 140840Z 17016KT 10SM CLR 13/08 A2993 1780 71 2000 170/16 RMK AO2 T01330083 $
13962KABI ABI20160214024511202/14/16 02:45:31  5-MIN KABI 140845Z 17016G22KT 10SM CLR 13/08 A2993 1790 71 2000 160/16G22 RMK AO2 T01330083 $
13962KABI ABI20160214025012502/14/16 02:50:31  5-MIN KABI 140850Z 17016G22KT 10SM CLR 13/08 A2992 1790 71 2100 170/16G22 RMK AO2 SLP116 T01330083 56015 $
13962KABI ABI20160214025511202/14/16 02:55:31  5-MIN KABI 140855Z 17017G23KT 10SM CLR 13/08 A2992 1790 71 2100 170/17G23 RMK AO2 T01330083 $
13962KABI ABI20160214030011202/14/16 03:00:31  5-MIN KABI 140900Z 17014G23KT 10SM CLR 13/08 A2992 1790 71 2100 170/14G23 RMK AO2 T01330083 $
13962KABI ABI20160214030511202/14/16 03:05:31  5-MIN KABI 140905Z 17016G21KT 10SM CLR 13/08 A2992 1790 71 2100 160/16G21 RMK AO2 T01330083 $
13962KABI ABI20160214031011202/14/16 03:10:31  5-MIN KABI 140910Z 17016G21KT 10SM CLR 13/08 A2992 1790 71 2100 170/16G21 RMK AO2 T01330083 $
13962KABI ABI20160214031511202/14/16 03:15:31  5-MIN KABI 140915Z 16019G24KT 10SM CLR 13/08 A2992 1790 71 2100 160/19G24 RMK AO2 T01330083 $
13962KABI ABI20160214032011202/14/16 03:20:31  5-MIN KABI 140920Z 17016G24KT 10SM CLR 13/08 A2992 1790 74 2000 160/16G24 RMK AO2 T01280083 $
13962KABI ABI20160214032511202/14/16 03:25:31  5-MIN KABI 140925Z 17015G24KT 10SM CLR 13/08 A2991 1800 74 2000 160/15G24 RMK AO2 T01280083 $
13962KABI ABI20160214033010602/14/16 03:30:31  5-MIN KABI 140930Z 17014KT 10SM CLR 13/08 A2991 1800 74 2000 160/14 RMK AO2 T01280083 $
13962KABI ABI20160214033510602/14/16 03:35:31  5-MIN KABI 140935Z 16015KT 10SM CLR 13/08 A2991 1800 74 2000 160/15 RMK AO2 T01280083 $
13962KABI ABI20160214034010602/14/16 03:40:31  5-MIN KABI 140940Z 16012KT 10SM CLR 13/08 A2992 1800 74 2000 160/12 RMK AO2 T01280083 $
13962KABI ABI20160214034510602/14/16 03:45:31  5-MIN KABI 140945Z 16012KT 10SM CLR 13/08 A2992 1800 74 2000 160/12 RMK AO2 T01280083 $
13962KABI ABI20160214035011302/14/16 03:50:31  5-MIN KABI 140950Z 16014KT 10SM CLR 12/08 A2992 1800 77 1900 160/14 RMK AO2 SLP114 T01220083 $
13962KABI ABI20160214035510602/14/16 03:55:31  5-MIN KABI 140955Z 16013KT 10SM CLR 13/08 A2992 1800 74 2000 160/13 RMK AO2 T01280083 $
13962KABI ABI20160214040010602/14/16 04:00:31  5-MIN KABI 141000Z 16012KT 10SM CLR 13/08 A2992 1800 74 2000 160/12 RMK AO2 T01280083 $
13962KABI ABI20160214040510602/14/16 04:05:31  5-MIN KABI 141005Z 16012KT 10SM CLR 12/08 A2991 1800 77 1900 160/12 RMK AO2 T01220083 $
13962KABI ABI20160214041010602/14/16 04:10:31  5-MIN KABI 141010Z 16012KT 10SM CLR 12/08 A2991 1800 77 1900 150/12 RMK AO2 T01220083 $
13962KABI ABI20160214041510602/14/16 04:15:31  5-MIN KABI 141015Z 16012KT 10SM CLR 12/08 A2991 1800 77 1900 160/12 RMK AO2 T01220083 $
13962KABI ABI20160214042010602/14/16 04:20:31  5-MIN KABI 141020Z 16010KT 10SM CLR 12/09 A2991 1800 80 1900 150/10 RMK AO2 T01220089 $
13962KABI ABI20160214042510602/14/16 04:25:31  5-MIN KABI 141025Z 16010KT 10SM CLR 12/09 A2991 1800 80 1900 150/10 RMK AO2 T01220089 $
13962KABI ABI20160214043010602/14/16 04:30:31  5-MIN KABI 141030Z 16010KT 10SM CLR 12/09 A2992 1800 80 1900 160/10 RMK AO2 T01220089 $
13962KABI ABI20160214043510602/14/16 04:35:31  5-MIN KABI 141035Z 15009KT 10SM CLR 12/09 A2992 1790 80 1900 150/09 RMK AO2 T01220089 $
13962KABI ABI20160214044010602/14/16 04:40:31  5-MIN KABI 141040Z 17009KT 10SM CLR 12/09 A2992 1790 80 1900 160/09 RMK AO2 T01220089 $
13962KABI ABI20160214044511202/14/16 04:45:31  5-MIN KABI 141045Z 17011G15KT 10SM CLR 12/09 A2992 1790 80 1900 160/11G15 RMK AO2 T01220089 $
13962KABI ABI20160214045011302/14/16 04:50:31  5-MIN KABI 141050Z 15008KT 10SM CLR 12/09 A2992 1790 80 1900 150/08 RMK AO2 SLP114 T01220089 $
13962KABI ABI20160214045511202/14/16 04:55:31  5-MIN KABI 141055Z 18010G18KT 10SM CLR 13/09 A2992 1790 77 2000 180/10G18 RMK AO2 T01280089 $
13962KABI ABI20160214050011202/14/16 05:00:31  5-MIN KABI 141100Z 18014G19KT 10SM CLR 12/09 A2992 1790 80 1900 180/14G19 RMK AO2 T01220089 $
13962KABI ABI20160214050511202/14/16 05:05:31  5-MIN KABI 141105Z 18012G19KT 10SM CLR 12/09 A2991 1800 80 1900 170/12G19 RMK AO2 T01220089 $
13962KABI ABI20160214051010602/14/16 05:10:31  5-MIN KABI 141110Z 18010KT 10SM CLR 12/09 A2991 1800 80 1900 180/10 RMK AO2 T01220089 $
13962KABI ABI20160214051510602/14/16 05:15:31  5-MIN KABI 141115Z 19010KT 10SM CLR 12/09 A2992 1800 80 1900 180/10 RMK AO2 T01220089 $
13962KABI ABI20160214052010602/14/16 05:20:31  5-MIN KABI 141120Z 19012KT 10SM CLR 12/09 A2991 1800 80 1900 180/12 RMK AO2 T01220089 $
13962KABI ABI20160214052510602/14/16 05:25:31  5-MIN KABI 141125Z 18012KT 10SM CLR 12/09 A2991 1800 80 1900 180/12 RMK AO2 T01220089 $
13962KABI ABI20160214053011202/14/16 05:30:31  5-MIN KABI 141130Z 19014G22KT 10SM CLR 12/09 A2991 1800 80 1900 180/14G22 RMK AO2 T01220089 $
13962KABI ABI20160214053511202/14/16 05:35:31  5-MIN KABI 141135Z 18012G22KT 10SM CLR 12/09 A2991 1800 80 1900 170/12G22 RMK AO2 T01220089 $
13962KABI ABI20160214054010602/14/16 05:40:31  5-MIN KABI 141140Z 18010KT 10SM CLR 12/09 A2991 1800 80 1900 180/10 RMK AO2 T01220089 $
13962KABI ABI20160214054510602/14/16 05:45:31  5-MIN KABI 141145Z 18013KT 10SM CLR 12/09 A2991 1800 80 1900 170/13 RMK AO2 T01220089 $
13962KABI ABI20160214055013102/14/16 05:50:31  5-MIN KABI 141150Z 19012KT 10SM CLR 12/09 A2991 1810 80 1900 180/12 RMK AO2 SLP111 T01220089 10144 20122 58024 $
13962KABI ABI20160214055510602/14/16 05:55:31  5-MIN KABI 141155Z 18011KT 10SM CLR 12/09 A2991 1800 80 1900 180/11 RMK AO2 T01220089 $
13962KABI ABI20160214060011202/14/16 06:00:31  5-MIN KABI 141200Z 19014G17KT 10SM CLR 12/09 A2990 1810 83 1900 190/14G17 RMK AO2 T01170089 $
13962KABI ABI20160214060511202/14/16 06:05:31  5-MIN KABI 141205Z 18013G21KT 10SM CLR 12/09 A2990 1810 80 1900 170/13G21 RMK AO2 T01220089 $
13962KABI ABI20160214061011202/14/16 06:10:31  5-MIN KABI 141210Z 19009G21KT 10SM CLR 12/09 A2990 1810 80 1900 180/09G21 RMK AO2 T01220089 $
13962KABI ABI20160214061511202/14/16 06:15:31  5-MIN KABI 141215Z 20012G18KT 10SM CLR 12/09 A2990 1810 83 1900 190/12G18 RMK AO2 T01170089 $
13962KABI ABI20160214062011202/14/16 06:20:31  5-MIN KABI 141220Z 20011G18KT 10SM CLR 12/09 A2991 1810 83 1900 190/11G18 RMK AO2 T01170089 $
13962KABI ABI20160214062511202/14/16 06:25:31  5-MIN KABI 141225Z VRB05G18KT 10SM CLR 12/09 A2991 1800 80 1900 VRB/05G18 RMK AO2 T01220089 $
13962KABI ABI20160214063010602/14/16 06:30:31  5-MIN KABI 141230Z 19009KT 10SM CLR 12/09 A2991 1810 83 1900 180/09 RMK AO2 T01170089 $
13962KABI ABI20160214063511202/14/16 06:35:31  5-MIN KABI 141235Z 19013G16KT 10SM CLR 12/09 A2990 1810 83 1900 180/13G16 RMK AO2 T01170089 $
13962KABI ABI20160214064011202/14/16 06:40:31  5-MIN KABI 141240Z 18013G23KT 10SM CLR 12/09 A2990 1810 83 1900 180/13G23 RMK AO2 T01220094 $
13962KABI ABI20160214064513002/14/16 06:45:31  5-MIN KABI 141245Z 19019G28KT 10SM CLR 12/09 A2990 1810 83 1900 190/19G28 RMK AO2 PK WND 19028/1242 T01220094 $
13962KABI ABI20160214065013702/14/16 06:50:31  5-MIN KABI 141250Z 19017G28KT 10SM CLR 12/09 A2990 1810 83 1900 190/17G28 RMK AO2 PK WND 19028/1242 SLP110 T01220094 $
13962KABI ABI20160214065511202/14/16 06:55:31  5-MIN KABI 141255Z 19020G25KT 10SM CLR 12/09 A2989 1820 83 2000 190/20G25 RMK AO2 T01220094 $
13962KABI ABI20160214070013702/14/16 07:00:31  5-MIN KABI 141300Z 19021G31KT 10SM CLR 12/09 A2988 1830 83 2000 190/21G31 RMK AO2 PK WND 20031/1258 PRESFR T01220094 $
13962KABI ABI20160214070513002/14/16 07:05:31  5-MIN KABI 141305Z 20019G31KT 10SM CLR 12/09 A2988 1830 83 2000 190/19G31 RMK AO2 PK WND 20031/1258 T01220094 $
13962KABI ABI20160214071013002/14/16 07:10:31  5-MIN KABI 141310Z 19022G30KT 10SM CLR 12/09 A2988 1830 83 2000 190/22G30 RMK AO2 PK WND 20031/1258 T01220094 $
13962KABI ABI20160214071513002/14/16 07:15:31  5-MIN KABI 141315Z 20016G29KT 10SM CLR 12/09 A2989 1820 83 2000 200/16G29 RMK AO2 PK WND 20031/1258 T01220094 $
13962KABI ABI20160214072013502/14/16 07:20:31  5-MIN KABI 141320Z 21016G29KT 10SM CLR 12/09 A2989 1820 83 2000 200/16G29 RMK AO2 PK WND 20031/1258 T01220094 TSNO $
13962KABI ABI20160214072513002/14/16 07:25:31  5-MIN KABI 141325Z 20015G25KT 10SM CLR 12/09 A2989 1820 83 2000 200/15G25 RMK AO2 PK WND 20031/1258 T01220094 $
13962KABI ABI20160214073013002/14/16 07:30:31  5-MIN KABI 141330Z 20015G25KT 10SM CLR 12/09 A2989 1820 83 2000 190/15G25 RMK AO2 PK WND 20031/1258 T01220094 $
13962KABI ABI20160214073513002/14/16 07:35:31  5-MIN KABI 141335Z 20017G25KT 10SM CLR 12/09 A2989 1820 83 2000 200/17G25 RMK AO2 PK WND 20031/1258 T01220094 $
13962KABI ABI20160214074013002/14/16 07:40:31  5-MIN KABI 141340Z 20015G25KT 10SM CLR 12/09 A2989 1820 83 2000 200/15G25 RMK AO2 PK WND 20031/1258 T01220094 $
13962KABI ABI20160214074513002/14/16 07:45:31  5-MIN KABI 141345Z 21013G23KT 10SM CLR 12/09 A2989 1820 83 2000 200/13G23 RMK AO2 PK WND 20031/1258 T01220094 $
13962KABI ABI20160214075013702/14/16 07:50:31  5-MIN KABI 141350Z 20013G20KT 10SM CLR 12/09 A2989 1820 83 2000 200/13G20 RMK AO2 PK WND 20031/1258 SLP111 T01220094 $
13962KABI ABI20160214075511202/14/16 07:55:31  5-MIN KABI 141355Z 22012G20KT 10SM CLR 12/10 A2991 1810 86 1900 210/12G20 RMK AO2 T01220100 $
13962KABI ABI20160214080011902/14/16 08:00:31  5-MIN KABI 141400Z 24010G18KT 10SM CLR 12/10 A2992 1790 86 1900 240/10G18 RMK AO2 PRESRR T01220100 $
13962KABI ABI20160214080511902/14/16 08:05:31  5-MIN KABI 141405Z 28008G18KT 10SM CLR 12/10 A2993 1780 86 1900 270/08G18 RMK AO2 PRESRR T01220100 $
13962KABI ABI20160214081011602/14/16 08:10:31  5-MIN KABI 141410Z 33013KT 10SM FEW015 12/10 A2996 1760 86 1900 320/13 RMK AO2 PRESRR T01220100 $
13962KABI ABI20160214081510902/14/16 08:15:31  5-MIN KABI 141415Z 33013KT 10SM SCT015 13/10 A2996 1750 83 1900 320/13 RMK AO2 T01280100 $
13962KABI ABI20160214082010902/14/16 08:20:31  5-MIN KABI 141420Z VRB06KT 10SM SCT015 13/09 A2996 1760 80 1900 VRB/06 RMK AO2 T01280094 $
13962KABI ABI20160214082510902/14/16 08:25:31  5-MIN KABI 141425Z 30014KT 10SM BKN015 13/09 A2997 1750 80 1900 290/14 RMK AO2 T01280094 $
13962KABI ABI20160214083010902/14/16 08:30:31  5-MIN KABI 141430Z 31007KT 10SM SCT015 13/09 A2997 1750 80 1900 300/07 RMK AO2 T01280094 $
13962KABI ABI20160214083510902/14/16 08:35:31  5-MIN KABI 141435Z 32005KT 10SM SCT015 13/09 A2997 1750 80 1900 320/05 RMK AO2 T01280094 $
13962KABI ABI20160214084010902/14/16 08:40:31  5-MIN KABI 141440Z 31004KT 10SM SCT015 13/09 A2997 1750 80 1900 310/04 RMK AO2 T01280094 $
13962KABI ABI20160214084510902/14/16 08:45:31  5-MIN KABI 141445Z 29004KT 10SM SCT015 13/09 A2997 1750 80 1900 280/04 RMK AO2 T01280094 $
13962KABI ABI20160214085012202/14/16 08:50:31  5-MIN KABI 141450Z 00000KT 10SM SCT015 13/09 A2997 1750 80 1900 000/00 RMK AO2 SLP136 T01280094 58005 $
13962KABI ABI20160214085510902/14/16 08:55:31  5-MIN KABI 141455Z 29005KT 10SM SCT021 13/10 A2997 1740 80 2000 280/05 RMK AO2 T01330100 $
13962KABI ABI20160214090010002/14/16 09:00:31  5-MIN KABI 141500Z SCT021 13/10 A2997 1740 80 2000 M /M RMK AO2 T01330100 RVRNO $
13962KABI ABI20160214090509302/14/16 09:05:31  5-MIN KABI 141505Z 13/09 A2998 1740 77 2000 M /M RMK AO2 T01330094 RVRNO $
13962KABI ABI20160214091010202/14/16 09:10:31  5-MIN KABI 141510Z 29005KT 10SM 14/09 A2997 1740 74 2100 290/05 RMK AO2 T01390094 $
13962KABI ABI20160214091510202/14/16 09:15:31  5-MIN KABI 141515Z 27005KT 10SM 14/09 A2997 1740 72 2100 260/05 RMK AO2 T01440094 $
13962KABI ABI20160214092010202/14/16 09:20:31  5-MIN KABI 141520Z 27007KT 10SM 14/09 A2998 1740 74 2100 260/07 RMK AO2 T01390094 $
13962KABI ABI20160214092510202/14/16 09:25:31  5-MIN KABI 141525Z 27007KT 10SM 14/09 A2997 1750 69 2100 270/07 RMK AO2 T01440089 $
13962KABI ABI20160214093011802/14/16 09:30:31  5-MIN KABI 141530Z 27008KT 240V300 10SM 14/09 A2996 1750 69 2100 270/08 240V300 RMK AO2 T01440089 $
13962KABI ABI20160214093510602/14/16 09:35:31  5-MIN KABI 141535Z 29007KT 10SM CLR 14/09 A2996 1750 69 2100 280/07 RMK AO2 T01440089 $
13962KABI ABI20160214094010602/14/16 09:40:31  5-MIN KABI 141540Z 27009KT 10SM CLR 14/09 A2996 1750 69 2100 270/09 RMK AO2 T01440089 $
13962KABI ABI20160215064510802/15/16 06:45:31  5-MIN KABI 151245Z 35010KT 9SM BKN009 06/04 A2996 1750 89 1100 340/10 RMK AO2 T00560039 $
13962KABI ABI20160215065011502/15/16 06:50:31  5-MIN KABI 151250Z 35010KT 9SM OVC009 06/04 A2997 1750 89 1100 340/10 RMK AO2 SLP141 T00560039 $
13962KABI ABI20160215065510802/15/16 06:55:31  5-MIN KABI 151255Z 35009KT 9SM OVC009 06/04 A2997 1740 89 1100 340/09 RMK AO2 T00560039 $
13962KABI ABI20160215070010802/15/16 07:00:31  5-MIN KABI 151300Z 34010KT 9SM OVC009 06/04 A2997 1740 86 1100 340/10 RMK AO2 T00610039 $
13962KABI ABI20160215070511502/15/16 07:05:31  5-MIN KABI 151305Z 35011KT 9SM BKN009 OVC033 06/04 A2997 1740 86 1100 340/11 RMK AO2 T00610039 $
13962KABI ABI20160215071011502/15/16 07:10:31  5-MIN KABI 151310Z 35010KT 9SM BKN009 OVC033 06/04 A2997 1740 86 1100 350/10 RMK AO2 T00610039 $
13962KABI ABI20160215071510802/15/16 07:15:31  5-MIN KABI 151315Z 35008KT 9SM OVC009 07/04 A2998 1740 82 1200 350/08 RMK AO2 T00670039 $
13962KABI ABI20160215072010802/15/16 07:20:31  5-MIN KABI 151320Z 35009KT 9SM OVC010 07/04 A2998 1740 86 1200 340/09 RMK AO2 T00670044 $
13962KABI ABI20160215072510802/15/16 07:25:31  5-MIN KABI 151325Z 34009KT 9SM OVC010 07/04 A2998 1740 86 1200 330/09 RMK AO2 T00670044 $
13962KABI ABI20160215073010802/15/16 07:30:31  5-MIN KABI 151330Z 34006KT 9SM OVC010 07/04 A2998 1740 86 1200 330/06 RMK AO2 T00670044 $
13962KABI ABI20160215073510802/15/16 07:35:31  5-MIN KABI 151335Z 33005KT 8SM BKN010 07/04 A2997 1740 86 1200 330/05 RMK AO2 T00670044 $
13962KABI ABI20160215074010802/15/16 07:40:31  5-MIN KABI 151340Z 33005KT 8SM BKN010 06/04 A2998 1740 86 1100 320/05 RMK AO2 T00610039 $
13962KABI ABI20160215074510802/15/16 07:45:31  5-MIN KABI 151345Z 33007KT 7SM SCT010 06/04 A2999 1730 89 1000 320/07 RMK AO2 T00560039 $
13962KABI ABI20160215075011502/15/16 07:50:31  5-MIN KABI 151350Z 33008KT 7SM SCT011 06/04 A2999 1730 86 1100 330/08 RMK AO2 SLP151 T00610039 $
13962KABI ABI20160215075510802/15/16 07:55:31  5-MIN KABI 151355Z 34007KT 7SM FEW011 06/04 A2999 1720 86 1100 330/07 RMK AO2 T00610039 $
13962KABI ABI20160215080010802/15/16 08:00:31  5-MIN KABI 151400Z 34009KT 7SM FEW016 06/04 A3000 1720 89 1100 340/09 RMK AO2 T00610044 $
13962KABI ABI20160215080510802/15/16 08:05:31  5-MIN KABI 151405Z 34010KT 8SM SCT014 07/04 A3000 1720 86 1200 340/10 RMK AO2 T00670044 $
13962KABI ABI20160215081010802/15/16 08:10:31  5-MIN KABI 151410Z 35010KT 8SM BKN014 07/05 A3000 1720 86 1200 340/10 RMK AO2 T00720050 $
13962KABI ABI20160215081510802/15/16 08:15:31  5-MIN KABI 151415Z 35011KT 8SM BKN016 08/05 A3001 1710 82 1300 340/11 RMK AO2 T00780050 $
13962KABI ABI20160215082011502/15/16 08:20:31  5-MIN KABI 151420Z 34013KT 8SM BKN016 BKN025 08/04 A3001 1710 79 1300 340/13 RMK AO2 T00780044 $
13962KABI ABI20160215082512202/15/16 08:25:31  5-MIN KABI 151425Z 34014KT 8SM FEW013 BKN018 OVC025 08/04 A3001 1710 79 1300 340/14 RMK AO2 T00780044 $
13962KABI ABI20160215083011502/15/16 08:30:31  5-MIN KABI 151430Z 35009KT 8SM BKN018 OVC025 08/04 A3001 1710 79 1300 350/09 RMK AO2 T00780044 $
13962KABI ABI20160215083511502/15/16 08:35:31  5-MIN KABI 151435Z 35010KT 8SM BKN018 OVC025 08/04 A3001 1710 79 1300 350/10 RMK AO2 T00780044 $
13962KABI ABI20160215084011502/15/16 08:40:31  5-MIN KABI 151440Z 35011KT 8SM BKN018 OVC027 08/04 A3001 1710 79 1300 350/11 RMK AO2 T00780044 $
13962KABI ABI20160215084511502/15/16 08:45:31  5-MIN KABI 151445Z 35013KT 8SM SCT018 OVC027 08/04 A3001 1710 79 1300 340/13 RMK AO2 T00780044 $
13962KABI ABI20160215085012802/15/16 08:50:31  5-MIN KABI 151450Z 35012KT 7SM SCT018 OVC026 08/04 A3002 1700 76 1300 340/12 RMK AO2 SLP159 T00830044 53015 $
13962KABI ABI20160215085509302/15/16 08:55:31  5-MIN KABI 151455Z 08/04 A3002 1700 76 1300 M /M RMK AO2 T00830044 RVRNO $
13962KABI ABI20160215090009302/15/16 09:00:31  5-MIN KABI 151500Z 08/04 A3002 1700 76 1400 M /M RMK AO2 T00830044 RVRNO $
13962KABI ABI20160215090509302/15/16 09:05:31  5-MIN KABI 151505Z 08/04 A3002 1700 76 1300 M /M RMK AO2 T00830044 RVRNO $
13962KABI ABI20160215091007002/15/16 09:10:31  5-MIN KABI 151510Z A3002 M M M M /M RMK AO2 RVRNO $
13962KABI ABI20160215091507002/15/16 09:15:31  5-MIN KABI 151515Z A3002 M M M M /M RMK AO2 RVRNO $
13962KABI ABI20160215092007002/15/16 09:20:31  5-MIN KABI 151520Z A3002 M M M M /M RMK AO2 RVRNO $
13962KABI ABI20160215092510302/15/16 09:25:31  5-MIN KABI 151525Z 35013KT 10/04 A3002 1700 65 1500 350/13 RMK AO2 T01000039 RVRNO $
13962KABI ABI20160215093010402/15/16 09:30:31  5-MIN KABI 151530Z 36011KT 6SM HZ 10/03 A3002 1700 63 1500 350/11 RMK AO2 T01000033 $
13962KABI ABI20160215093510202/15/16 09:35:31  5-MIN KABI 151535Z 34009KT 10SM 11/04 A3002 1700 63 1600 330/09 RMK AO2 T01060039 $
13962KABI ABI20160215094010002/15/16 09:40:31  5-MIN KABI 151540Z 34009KT 10SM 11/04 A3002 1700 63 1600 340/09 RMK AO2 T01060039
13962KABI ABI20160215094510002/15/16 09:45:31  5-MIN KABI 151545Z 33009KT 10SM 11/04 A3002 1700 61 1700 320/09 RMK AO2 T01110039
13962KABI ABI20160215095011102/15/16 09:50:31  5-MIN KABI 151550Z 33009KT 10SM CLR 11/04 A3002 1700 63 1600 330/09 RMK AO2 SLP161 T01060039
13962KABI ABI20160215095510402/15/16 09:55:31  5-MIN KABI 151555Z 33009KT 10SM CLR 11/04 A3003 1690 61 1700 330/09 RMK AO2 T01110039
13962KABI ABI20160215100010402/15/16 10:00:31  5-MIN KABI 151600Z 34009KT 10SM CLR 12/04 A3003 1690 58 1700 330/09 RMK AO2 T01170039
13962KABI ABI20160215100510402/15/16 10:05:31  5-MIN KABI 151605Z 34009KT 10SM CLR 12/04 A3003 1690 61 1700 340/09 RMK AO2 T01170044
13962KABI ABI20160215101010402/15/16 10:10:31  5-MIN KABI 151610Z 30007KT 10SM CLR 12/04 A3003 1690 61 1700 300/07 RMK AO2 T01170044
13962KABI ABI20160215101510402/15/16 10:15:31  5-MIN KABI 151615Z 32008KT 10SM CLR 12/04 A3003 1690 59 1800 320/08 RMK AO2 T01220044
13962KABI ABI20160215102010402/15/16 10:20:31  5-MIN KABI 151620Z 32007KT 10SM CLR 12/04 A3003 1690 59 1800 320/07 RMK AO2 T01220044
13962KABI ABI20160215102510402/15/16 10:25:31  5-MIN KABI 151625Z 33009KT 10SM CLR 13/05 A3003 1690 59 1900 330/09 RMK AO2 T01280050
13962KABI ABI20160215103010402/15/16 10:30:31  5-MIN KABI 151630Z 32008KT 10SM CLR 13/05 A3003 1690 59 1900 310/08 RMK AO2 T01280050
13962KABI ABI20160215103510402/15/16 10:35:31  5-MIN KABI 151635Z 34010KT 10SM CLR 13/04 A3003 1690 54 1900 330/10 RMK AO2 T01330044
13962KABI ABI20160215104010402/15/16 10:40:31  5-MIN KABI 151640Z 33008KT 10SM CLR 13/04 A3003 1690 54 1900 320/08 RMK AO2 T01330044
13962KABI ABI20160215104510402/15/16 10:45:31  5-MIN KABI 151645Z 34011KT 10SM CLR 13/04 A3003 1690 54 1900 330/11 RMK AO2 T01330044
13962KABI ABI20160215105011102/15/16 10:50:31  5-MIN KABI 151650Z 34011KT 10SM CLR 14/03 A3003 1690 48 2000 330/11 RMK AO2 SLP163 T01390033
13962KABI ABI20160215105510402/15/16 10:55:31  5-MIN KABI 151655Z 33012KT 10SM CLR 14/04 A3004 1680 50 2000 330/12 RMK AO2 T01390039
13962KABI ABI20160215110010402/15/16 11:00:31  5-MIN KABI 151700Z 34011KT 10SM CLR 14/04 A3004 1680 50 2000 330/11 RMK AO2 T01390039
13962KABI ABI20160215110510402/15/16 11:05:31  5-MIN KABI 151705Z 33012KT 10SM CLR 14/04 A3004 1680 49 2000 320/12 RMK AO2 T01440039
13962KABI ABI20160215111010402/15/16 11:10:31  5-MIN KABI 151710Z 33008KT 10SM CLR 14/04 A3004 1680 49 2000 330/08 RMK AO2 T01440039
13962KABI ABI20160215111510402/15/16 11:15:31  5-MIN KABI 151715Z 32010KT 10SM CLR 14/04 A3004 1680 49 2000 320/10 RMK AO2 T01440039
13962KABI ABI20160215112010402/15/16 11:20:31  5-MIN KABI 151720Z 32009KT 10SM CLR 15/04 A3004 1680 47 2100 310/09 RMK AO2 T01500039
13962KABI ABI20160215112510402/15/16 11:25:31  5-MIN KABI 151725Z 33009KT 10SM CLR 15/03 A3004 1680 45 2100 320/09 RMK AO2 T01500033
13962KABI ABI20160215113010402/15/16 11:30:31  5-MIN KABI 151730Z 35005KT 10SM CLR 16/03 A3005 1670 43 2200 340/05 RMK AO2 T01560033
13962KABI ABI20160215113510402/15/16 11:35:31  5-MIN KABI 151735Z 35008KT 10SM CLR 16/03 A3005 1680 42 2200 340/08 RMK AO2 T01560028
13962KABI ABI20160215114009402/15/16 11:40:31  5-MIN KABI 151740Z 10SM CLR 16/02 A3005 1680 39 2200 M /M RMK AO2 T01610022
13962KABI ABI20160215114510402/15/16 11:45:31  5-MIN KABI 151745Z 33009KT 10SM CLR 16/02 A3005 1680 39 2200 330/09 RMK AO2 T01610022
13962KABI ABI20160215115012902/15/16 11:50:31  5-MIN KABI 151750Z 36006KT 10SM CLR 16/02 A3005 1680 37 2200 350/06 RMK AO2 SLP168 T01610017 10161 20044 53016
13962KABI ABI20160215115512202/15/16 11:55:31  5-MIN KABI 151755Z 35009KT 310V020 10SM CLR 16/02 A3004 1680 37 2200 340/09 310V020 RMK AO2 T01610017 $
13962KABI ABI20160215120011202/15/16 12:00:31  5-MIN KABI 151800Z 36008G16KT 10SM CLR 17/01 A3004 1680 34 2300 350/08G16 RMK AO2 T01670011 $
13962KABI ABI20160215120511202/15/16 12:05:31  5-MIN KABI 151805Z 01006G16KT 10SM CLR 17/01 A3004 1680 34 2300 360/06G16 RMK AO2 T01670011 $
13962KABI ABI20160215121011202/15/16 12:10:31  5-MIN KABI 151810Z 35011G14KT 10SM CLR 17/01 A3003 1690 33 2400 340/11G14 RMK AO2 T01720011 $
13962KABI ABI20160215121511202/15/16 12:15:31  5-MIN KABI 151815Z 01010G16KT 10SM CLR 17/01 A3003 1690 33 2300 360/10G16 RMK AO2 T01670006 $
13962KABI ABI20160215122010602/15/16 12:20:31  5-MIN KABI 151820Z 35006KT 10SM CLR 17/01 A3003 1690 33 2300 350/06 RMK AO2 T01670006 $
13962KABI ABI20160215122510602/15/16 12:25:31  5-MIN KABI 151825Z 35006KT 10SM CLR 17/01 A3003 1690 32 2400 350/06 RMK AO2 T01720006 $
13962KABI ABI20160215123010602/15/16 12:30:31  5-MIN KABI 151830Z 35006KT 10SM CLR 18/01 A3003 1690 31 2400 350/06 RMK AO2 T01780006 $
13962KABI ABI20160215123510602/15/16 12:35:31  5-MIN KABI 151835Z 35006KT 10SM CLR 18/00 A3003 1690 30 2400 350/06 RMK AO2 T01780000 $
13962KABI ABI20160215124010602/15/16 12:40:31  5-MIN KABI 151840Z 35006KT 10SM CLR 17/00 A3003 1700 31 2400 350/06 RMK AO2 T01720000 $
13962KABI ABI20160215124510702/15/16 12:45:31  5-MIN KABI 151845Z 35006KT 10SM CLR 18/M01 A3002 1700 28 2500 350/06 RMK AO2 T01781006 $
13962KABI ABI20160215125011402/15/16 12:50:31  5-MIN KABI 151850Z 35006KT 10SM CLR 18/M01 A3002 1700 27 2500 350/06 RMK AO2 SLP156 T01781011 $
13962KABI ABI20160215125510702/15/16 12:55:31  5-MIN KABI 151855Z 34008KT 10SM CLR 18/M01 A3001 1710 28 2500 330/08 RMK AO2 T01781006 $
13962KABI ABI20160215130009302/15/16 13:00:31  5-MIN KABI 151900Z 10SM 18/M01 A3000 1710 26 2500 M /M RMK AO2 T01831011 $
13962KABI ABI20160215130510302/15/16 13:05:31  5-MIN KABI 151905Z 36006KT 10SM 18/M01 A3000 1720 26 2500 350/06 RMK AO2 T01831011 $
13962KABI ABI20160215131010302/15/16 13:10:31  5-MIN KABI 151910Z 36008KT 10SM 18/M01 A3000 1720 26 2500 350/08 RMK AO2 T01831011 $
13962KABI ABI20160215131510302/15/16 13:15:31  5-MIN KABI 151915Z 34009KT 10SM 18/M02 A2999 1720 25 2600 340/09 RMK AO2 T01831017 $
13962KABI ABI20160215132010302/15/16 13:20:31  5-MIN KABI 151920Z 34007KT 10SM 18/M02 A2999 1720 25 2600 340/07 RMK AO2 T01831017 $
13962KABI ABI20160215132510302/15/16 13:25:31  5-MIN KABI 151925Z 33008KT 10SM 18/M02 A2999 1730 25 2600 330/08 RMK AO2 T01831017 $
13962KABI ABI20160215133010302/15/16 13:30:31  5-MIN KABI 151930Z VRB06KT 10SM 19/M02 A2999 1720 24 2600 VRB/06 RMK AO2 T01891017 $
13962KABI ABI20160215133511302/15/16 13:35:31  5-MIN KABI 151935Z 36010G15KT 10SM CLR 19/M02 A3000 1720 24 2600 360/10G15 RMK AO2 T01891017 $
13962KABI ABI20160215134011302/15/16 13:40:31  5-MIN KABI 151940Z 36008G15KT 10SM CLR 19/M02 A2999 1720 24 2600 350/08G15 RMK AO2 T01891017 $
13962KABI ABI20160215134510702/15/16 13:45:31  5-MIN KABI 151945Z 03006KT 10SM CLR 19/M03 A2999 1730 22 2600 020/06 RMK AO2 T01891028 $
13962KABI ABI20160215135011402/15/16 13:50:31  5-MIN KABI 151950Z 04006KT 10SM CLR 19/M02 A2999 1730 23 2600 030/06 RMK AO2 SLP145 T01891022 $
13962KABI ABI20160215135510702/15/16 13:55:31  5-MIN KABI 151955Z 35008KT 10SM CLR 19/M02 A2998 1730 23 2600 350/08 RMK AO2 T01891022 $
13962KABI ABI20160215140010702/15/16 14:00:31  5-MIN KABI 152000Z 34005KT 10SM CLR 19/M02 A2998 1740 24 2600 340/05 RMK AO2 T01891017 $
13962KABI ABI20160215140510702/15/16 14:05:31  5-MIN KABI 152005Z 34006KT 10SM CLR 19/M01 A2997 1740 25 2700 330/06 RMK AO2 T01941011 $
13962KABI ABI20160215141010702/15/16 14:10:31  5-MIN KABI 152010Z 32006KT 10SM CLR 19/M01 A2997 1750 26 2700 320/06 RMK AO2 T01941006 $
13962KABI ABI20160215141510702/15/16 14:15:31  5-MIN KABI 152015Z VRB04KT 10SM CLR 19/M02 A2997 1750 24 2700 VRB/04 RMK AO2 T01941017 $
13962KABI ABI20160215142010702/15/16 14:20:31  5-MIN KABI 152020Z 02006KT 10SM CLR 19/M02 A2996 1750 23 2700 010/06 RMK AO2 T01891022 $
13962KABI ABI20160215142510702/15/16 14:25:31  5-MIN KABI 152025Z 02005KT 10SM CLR 19/M02 A2996 1760 24 2700 020/05 RMK AO2 T01941017 $
13962KABI ABI20160215143010702/15/16 14:30:31  5-MIN KABI 152030Z 01008KT 10SM CLR 19/M02 A2996 1760 23 2700 360/08 RMK AO2 T01941022 $
13962KABI ABI20160215143510702/15/16 14:35:31  5-MIN KABI 152035Z 36007KT 10SM CLR 19/M02 A2996 1760 24 2700 350/07 RMK AO2 T01941017 $
13962KABI ABI20160215144010702/15/16 14:40:31  5-MIN KABI 152040Z 02007KT 10SM CLR 19/M02 A2995 1760 23 2700 020/07 RMK AO2 T01941022 $
13962KABI ABI20160215144510702/15/16 14:45:31  5-MIN KABI 152045Z VRB03KT 10SM CLR 19/M02 A2995 1770 23 2700 VRB/03 RMK AO2 T01941022 $
13962KABI ABI20160215145012002/15/16 14:50:31  5-MIN KABI 152050Z 01003KT 10SM CLR 19/M02 A2994 1770 23 2700 360/03 RMK AO2 SLP130 T01941022 53007 $
13962KABI ABI20160215145510702/15/16 14:55:31  5-MIN KABI 152055Z VRB05KT 10SM CLR 19/M02 A2994 1770 24 2700 VRB/05 RMK AO2 T01941017 $
13962KABI ABI20160215150010702/15/16 15:00:31  5-MIN KABI 152100Z 31005KT 10SM CLR 20/M02 A2994 1770 23 2800 310/05 RMK AO2 T02001017 $
13962KABI ABI20160215150510702/15/16 15:05:31  5-MIN KABI 152105Z 00000KT 10SM CLR 19/M02 A2994 1780 23 2700 000/00 RMK AO2 T01941022 $
13962KABI ABI20160215151010702/15/16 15:10:31  5-MIN KABI 152110Z 00000KT 10SM CLR 19/M02 A2993 1780 23 2700 000/00 RMK AO2 T01941022 $
13962KABI ABI20160215151510702/15/16 15:15:31  5-MIN KABI 152115Z 02003KT 10SM CLR 19/M02 A2994 1780 23 2700 010/03 RMK AO2 T01941022 $
13962KABI ABI20160215152010702/15/16 15:20:31  5-MIN KABI 152120Z 00000KT 10SM CLR 19/M02 A2993 1780 23 2700 000/00 RMK AO2 T01941022 $
13962KABI ABI20160215152510702/15/16 15:25:31  5-MIN KABI 152125Z VRB03KT 10SM CLR 20/M02 A2993 1780 22 2800 VRB/03 RMK AO2 T02001022 $
13962KABI ABI20160215153010702/15/16 15:30:31  5-MIN KABI 152130Z 06005KT 10SM CLR 20/M02 A2993 1780 22 2800 050/05 RMK AO2 T02001022 $
13962KABI ABI20160215153510702/15/16 15:35:31  5-MIN KABI 152135Z 13003KT 10SM CLR 19/M02 A2993 1780 23 2700 130/03 RMK AO2 T01941022 $
13962KABI ABI20160215154010702/15/16 15:40:31  5-MIN KABI 152140Z 03006KT 10SM CLR 19/M02 A2993 1780 24 2700 030/06 RMK AO2 T01941017 $
13962KABI ABI20160215154510702/15/16 15:45:31  5-MIN KABI 152145Z VRB04KT 10SM CLR 20/M02 A2993 1780 22 2800 VRB/04 RMK AO2 T02001022 $
13962KABI ABI20160215155011402/15/16 15:50:31  5-MIN KABI 152150Z VRB03KT 10SM CLR 20/M02 A2993 1780 22 2800 VRB/03 RMK AO2 SLP127 T02001022 $
13962KABI ABI20160215155510702/15/16 15:55:31  5-MIN KABI 152155Z 26004KT 10SM CLR 19/M02 A2993 1780 23 2700 260/04 RMK AO2 T01941022 $
13962KABI ABI20160215160010702/15/16 16:00:31  5-MIN KABI 152200Z 22003KT 10SM CLR 19/M02 A2993 1780 23 2700 220/03 RMK AO2 T01941022 $
13962KABI ABI20160215160510702/15/16 16:05:31  5-MIN KABI 152205Z 32005KT 10SM CLR 19/M02 A2993 1780 23 2700 320/05 RMK AO2 T01941022 $
13962KABI ABI20160215161010702/15/16 16:10:31  5-MIN KABI 152210Z 35007KT 10SM CLR 20/M02 A2993 1780 23 2800 340/07 RMK AO2 T02001017 $
13962KABI ABI20160215161510702/15/16 16:15:31  5-MIN KABI 152215Z 01005KT 10SM CLR 20/M02 A2993 1780 22 2800 010/05 RMK AO2 T02001022 $
13962KABI ABI20160215162010702/15/16 16:20:31  5-MIN KABI 152220Z 35005KT 10SM CLR 20/M02 A2993 1780 22 2800 340/05 RMK AO2 T02001022 $
13962KABI ABI20160215162510702/15/16 16:25:31  5-MIN KABI 152225Z 33007KT 10SM CLR 21/M02 A2993 1780 21 2900 330/07 RMK AO2 T02061022 $
13962KABI ABI20160215163010702/15/16 16:30:31  5-MIN KABI 152230Z 30004KT 10SM CLR 20/M02 A2993 1790 22 2800 300/04 RMK AO2 T02001022 $
13962KABI ABI20160215163510702/15/16 16:35:31  5-MIN KABI 152235Z 32007KT 10SM CLR 20/M02 A2992 1790 22 2800 310/07 RMK AO2 T02001022 $
13962KABI ABI20160215164010702/15/16 16:40:31  5-MIN KABI 152240Z 31006KT 10SM CLR 19/M02 A2992 1790 23 2800 300/06 RMK AO2 T01941022 $
13962KABI ABI20160215164510702/15/16 16:45:31  5-MIN KABI 152245Z 29005KT 10SM CLR 19/M03 A2992 1790 22 2800 280/05 RMK AO2 T01941028 $
13962KABI ABI20160215165011402/15/16 16:50:31  5-MIN KABI 152250Z 27003KT 10SM CLR 19/M03 A2993 1780 22 2800 270/03 RMK AO2 SLP125 T01941028 $
13962KABI ABI20160215165510702/15/16 16:55:31  5-MIN KABI 152255Z 00000KT 10SM CLR 19/M03 A2993 1780 22 2700 000/00 RMK AO2 T01941028 $
13962KABI ABI20160215170010702/15/16 17:00:31  5-MIN KABI 152300Z 33004KT 10SM CLR 20/M02 A2993 1780 22 2800 320/04 RMK AO2 T02001022 $
13962KABI ABI20160215170510702/15/16 17:05:31  5-MIN KABI 152305Z 36003KT 10SM CLR 20/M02 A2994 1780 22 2800 350/03 RMK AO2 T02001022 $
13962KABI ABI20160215171010702/15/16 17:10:31  5-MIN KABI 152310Z VRB05KT 10SM CLR 20/M02 A2993 1780 22 2800 VRB/05 RMK AO2 T02001022 $
13962KABI ABI20160215171510702/15/16 17:15:31  5-MIN KABI 152315Z 29004KT 10SM CLR 19/M02 A2994 1780 23 2700 280/04 RMK AO2 T01941022 $
13962KABI ABI20160215172010702/15/16 17:20:31  5-MIN KABI 152320Z 26004KT 10SM CLR 19/M02 A2994 1780 23 2700 260/04 RMK AO2 T01941022 $
13962KABI ABI20160215172510702/15/16 17:25:31  5-MIN KABI 152325Z 28007KT 10SM CLR 19/M02 A2994 1770 24 2700 270/07 RMK AO2 T01891017 $
13962KABI ABI20160215173009702/15/16 17:30:31  5-MIN KABI 152330Z 10SM CLR 18/M02 A2994 1770 24 2600 M /M RMK AO2 T01831022 $
13962KABI ABI20160215173510702/15/16 17:35:31  5-MIN KABI 152335Z 27006KT 10SM CLR 18/M02 A2994 1780 24 2600 260/06 RMK AO2 T01831022 $
13962KABI ABI20160215174009202/15/16 17:40:31  5-MIN KABI 152340Z 8SM 18/M02 A2994 1770 26 2500 M /M RMK AO2 T01781017 $
13962KABI ABI20160215174509702/15/16 17:45:31  5-MIN KABI 152345Z 10SM CLR 18/M02 A2994 1770 26 2500 M /M RMK AO2 T01781017 $
13962KABI ABI20160215175013202/15/16 17:50:31  5-MIN KABI 152350Z 26007KT 10SM CLR 17/M02 A2994 1770 27 2400 250/07 RMK AO2 SLP131 T01671022 10206 20161 58033 $
13962KABI ABI20160215175509702/15/16 17:55:31  5-MIN KABI 152355Z 10SM CLR 17/M02 A2994 1770 28 2400 M /M RMK AO2 T01671017 $
13962KABI ABI20160215180009802/15/16 18:00:31  5-MIN KABI 160000Z CLR 17/M02 A2993 1780 28 2400 M /M RMK AO2 T01671017 RVRNO $
13962KABI ABI20160215180509802/15/16 18:05:31  5-MIN KABI 160005Z CLR 17/M02 A2993 1780 28 2400 M /M RMK AO2 T01671017 RVRNO $
13962KABI ABI20160215181009802/15/16 18:10:31  5-MIN KABI 160010Z CLR 17/M02 A2994 1780 28 2400 M /M RMK AO2 T01671017 RVRNO $
13962KABI ABI20160215181507402/15/16 18:15:31  5-MIN KABI 160015Z CLR A2994 M M M M /M RMK AO2 RVRNO $
13962KABI ABI20160215182007402/15/16 18:20:31  5-MIN KABI 160020Z CLR A2995 M M M M /M RMK AO2 RVRNO $
13962KABI ABI20160215182510702/15/16 18:25:31  5-MIN KABI 160025Z 24003KT 10SM CLR 17/M03 A2995 1770 25 2500 240/03 RMK AO2 T01721028 $
13962KABI ABI20160215183010702/15/16 18:30:31  5-MIN KABI 160030Z 23003KT 10SM CLR 16/M03 A2995 1770 27 2300 220/03 RMK AO2 T01611028 $
13962KABI ABI20160215183510702/15/16 18:35:31  5-MIN KABI 160035Z 22003KT 10SM CLR 16/M02 A2994 1770 28 2400 210/03 RMK AO2 T01611022 $
13962KABI ABI20160215184009702/15/16 18:40:31  5-MIN KABI 160040Z 10SM CLR 16/M02 A2994 1780 28 2400 M /M RMK AO2 T01611022 $
13962KABI ABI20160216042510602/16/16 04:25:31  5-MIN KABI 161025Z 23006KT 10SM CLR 09/00 A2988 1830 51 1600 220/06 RMK AO2 T00940000 $
13962KABI ABI20160216043010602/16/16 04:30:31  5-MIN KABI 161030Z 22006KT 10SM CLR 09/00 A2988 1830 51 1600 210/06 RMK AO2 T00940000 $
13962KABI ABI20160216043510602/16/16 04:35:31  5-MIN KABI 161035Z 22007KT 10SM CLR 09/00 A2988 1830 51 1600 210/07 RMK AO2 T00940000 $
13962KABI ABI20160216044010602/16/16 04:40:31  5-MIN KABI 161040Z 22007KT 10SM CLR 09/00 A2988 1830 51 1600 210/07 RMK AO2 T00940000 $
13962KABI ABI20160216044510602/16/16 04:45:31  5-MIN KABI 161045Z 22007KT 10SM CLR 09/01 A2988 1830 53 1600 210/07 RMK AO2 T00940006 $
13962KABI ABI20160216045011302/16/16 04:50:31  5-MIN KABI 161050Z 22007KT 10SM CLR 09/01 A2988 1830 53 1600 210/07 RMK AO2 SLP106 T00940006 $
13962KABI ABI20160216045510602/16/16 04:55:31  5-MIN KABI 161055Z 21008KT 10SM CLR 10/01 A2988 1830 52 1700 210/08 RMK AO2 T01000006 $
13962KABI ABI20160216050010602/16/16 05:00:31  5-MIN KABI 161100Z 22008KT 10SM CLR 10/01 A2988 1830 54 1700 210/08 RMK AO2 T01000011 $
13962KABI ABI20160216050510602/16/16 05:05:31  5-MIN KABI 161105Z 22009KT 10SM CLR 11/01 A2987 1830 52 1800 210/09 RMK AO2 T01060011 $
13962KABI ABI20160216051010602/16/16 05:10:31  5-MIN KABI 161110Z 22009KT 10SM CLR 11/01 A2988 1830 50 1800 210/09 RMK AO2 T01110011 $
13962KABI ABI20160216051510602/16/16 05:15:31  5-MIN KABI 161115Z 21011KT 10SM CLR 11/01 A2988 1830 50 1800 210/11 RMK AO2 T01110011 $
13962KABI ABI20160216052010602/16/16 05:20:31  5-MIN KABI 161120Z 22009KT 10SM CLR 11/01 A2988 1830 50 1800 220/09 RMK AO2 T01110011 $
13962KABI ABI20160216052510602/16/16 05:25:31  5-MIN KABI 161125Z 22009KT 10SM CLR 12/01 A2989 1820 48 1900 220/09 RMK AO2 T01170011 $
13962KABI ABI20160216053010602/16/16 05:30:31  5-MIN KABI 161130Z 21008KT 10SM CLR 11/01 A2989 1820 50 1800 210/08 RMK AO2 T01110011 $
13962KABI ABI20160216053510602/16/16 05:35:31  5-MIN KABI 161135Z 22009KT 10SM CLR 11/01 A2989 1820 50 1800 210/09 RMK AO2 T01110011 $
13962KABI ABI20160216054010602/16/16 05:40:31  5-MIN KABI 161140Z 22007KT 10SM CLR 11/02 A2989 1820 52 1800 220/07 RMK AO2 T01110017 $
13962KABI ABI20160216054510602/16/16 05:45:31  5-MIN KABI 161145Z 22007KT 10SM CLR 11/02 A2989 1820 52 1800 220/07 RMK AO2 T01110017 $
13962KABI ABI20160216055013102/16/16 05:50:31  5-MIN KABI 161150Z 22008KT 10SM CLR 11/02 A2989 1820 54 1800 220/08 RMK AO2 SLP111 T01060017 10117 20078 58014 $
13962KABI ABI20160216055510602/16/16 05:55:31  5-MIN KABI 161155Z 22008KT 10SM CLR 11/02 A2990 1820 54 1800 220/08 RMK AO2 T01060017 $
13962KABI ABI20160216060010602/16/16 06:00:31  5-MIN KABI 161200Z 23006KT 10SM CLR 11/02 A2990 1810 54 1800 230/06 RMK AO2 T01060017 $
13962KABI ABI20160216060510602/16/16 06:05:31  5-MIN KABI 161205Z 23006KT 10SM CLR 11/02 A2990 1810 54 1700 230/06 RMK AO2 T01060017 $
13962KABI ABI20160216061010602/16/16 06:10:31  5-MIN KABI 161210Z 23006KT 10SM CLR 11/02 A2990 1810 54 1700 230/06 RMK AO2 T01060017 $
13962KABI ABI20160216061510602/16/16 06:15:31  5-MIN KABI 161215Z 26004KT 10SM CLR 10/02 A2991 1800 56 1700 250/04 RMK AO2 T01000017 $
13962KABI ABI20160216062010602/16/16 06:20:31  5-MIN KABI 161220Z 27005KT 10SM CLR 10/02 A2991 1800 56 1700 270/05 RMK AO2 T01000017 $
13962KABI ABI20160216062510602/16/16 06:25:31  5-MIN KABI 161225Z 26006KT 10SM CLR 10/02 A2992 1800 56 1700 250/06 RMK AO2 T01000017 $
13962KABI ABI20160216063010602/16/16 06:30:31  5-MIN KABI 161230Z 25006KT 10SM CLR 10/02 A2991 1800 56 1700 250/06 RMK AO2 T01000017 $
13962KABI ABI20160216063510602/16/16 06:35:31  5-MIN KABI 161235Z 24007KT 10SM CLR 09/02 A2991 1800 58 1600 240/07 RMK AO2 T00940017 $
13962KABI ABI20160216064010602/16/16 06:40:31  5-MIN KABI 161240Z 23007KT 10SM CLR 10/02 A2992 1800 58 1700 230/07 RMK AO2 T01000022 $
13962KABI ABI20160216064510602/16/16 06:45:31  5-MIN KABI 161245Z 24007KT 10SM CLR 10/02 A2992 1790 58 1700 240/07 RMK AO2 T01000022 $
13962KABI ABI20160216065011302/16/16 06:50:31  5-MIN KABI 161250Z 25007KT 10SM CLR 09/02 A2992 1790 58 1600 240/07 RMK AO2 SLP122 T00940017 $
13962KABI ABI20160216065510602/16/16 06:55:31  5-MIN KABI 161255Z 25007KT 10SM CLR 10/02 A2992 1790 56 1700 240/07 RMK AO2 T01000017 $
13962KABI ABI20160216070010602/16/16 07:00:31  5-MIN KABI 161300Z 25007KT 10SM CLR 10/02 A2993 1790 56 1700 250/07 RMK AO2 T01000017 $
13962KABI ABI20160216070510602/16/16 07:05:31  5-MIN KABI 161305Z 24007KT 10SM CLR 10/02 A2993 1780 56 1600 240/07 RMK AO2 T01000017 $
13962KABI ABI20160216071010602/16/16 07:10:31  5-MIN KABI 161310Z 24008KT 10SM CLR 10/02 A2993 1780 56 1600 230/08 RMK AO2 T01000017 $
13962KABI ABI20160216071510602/16/16 07:15:31  5-MIN KABI 161315Z 24008KT 10SM CLR 10/02 A2993 1780 56 1600 240/08 RMK AO2 T01000017 $
13962KABI ABI20160216072010602/16/16 07:20:31  5-MIN KABI 161320Z 24009KT 10SM CLR 10/02 A2993 1780 56 1600 240/09 RMK AO2 T01000017 $
13962KABI ABI20160216072510602/16/16 07:25:31  5-MIN KABI 161325Z 24008KT 10SM CLR 10/02 A2993 1780 56 1600 240/08 RMK AO2 T01000017 $
13962KABI ABI20160216073010602/16/16 07:30:31  5-MIN KABI 161330Z 26007KT 10SM CLR 10/02 A2994 1770 56 1600 250/07 RMK AO2 T01000017 $
13962KABI ABI20160216073510602/16/16 07:35:31  5-MIN KABI 161335Z 28007KT 10SM CLR 10/02 A2995 1770 56 1600 280/07 RMK AO2 T01000017 $
13962KABI ABI20160216074011302/16/16 07:40:31  5-MIN KABI 161340Z 30008KT 10SM CLR 09/02 A2996 1760 60 1500 290/08 RMK AO2 PRESRR T00890017 $
13962KABI ABI20160216074510602/16/16 07:45:31  5-MIN KABI 161345Z 30007KT 10SM CLR 09/02 A2996 1760 60 1500 290/07 RMK AO2 T00890017 $
13962KABI ABI20160216075011302/16/16 07:50:31  5-MIN KABI 161350Z 31006KT 10SM CLR 09/02 A2996 1750 60 1500 310/06 RMK AO2 SLP139 T00890017 $
13962KABI ABI20160216075510602/16/16 07:55:31  5-MIN KABI 161355Z 33009KT 10SM CLR 09/02 A2997 1750 63 1500 320/09 RMK AO2 T00890022 $
13962KABI ABI20160216080010402/16/16 08:00:31  5-MIN KABI 161400Z 34010KT 10SM CLR 09/02 A2998 1740 63 1500 340/10 RMK AO2 T00890022
13962KABI ABI20160216080511102/16/16 08:05:31  5-MIN KABI 161405Z 33010KT 10SM CLR 09/02 A2998 1740 60 1500 330/10 RMK AO2 PRESRR T00940022
13962KABI ABI20160216081010402/16/16 08:10:31  5-MIN KABI 161410Z 33007KT 10SM CLR 10/02 A2999 1730 56 1600 320/07 RMK AO2 T01000017
13962KABI ABI20160216081510402/16/16 08:15:31  5-MIN KABI 161415Z 34006KT 10SM CLR 10/02 A2999 1730 56 1600 340/06 RMK AO2 T01000017
13962KABI ABI20160216082010402/16/16 08:20:31  5-MIN KABI 161420Z 34007KT 10SM CLR 10/02 A2999 1730 56 1600 330/07 RMK AO2 T01000017
13962KABI ABI20160216082510402/16/16 08:25:31  5-MIN KABI 161425Z 33007KT 10SM CLR 10/02 A3000 1720 56 1600 320/07 RMK AO2 T01000017
13962KABI ABI20160216083010402/16/16 08:30:31  5-MIN KABI 161430Z 31007KT 10SM CLR 11/02 A3000 1720 54 1600 300/07 RMK AO2 T01060017
13962KABI ABI20160216083510402/16/16 08:35:31  5-MIN KABI 161435Z 30008KT 10SM CLR 11/02 A3001 1710 54 1600 300/08 RMK AO2 T01060017
13962KABI ABI20160216084010402/16/16 08:40:31  5-MIN KABI 161440Z 31007KT 10SM CLR 12/02 A3001 1710 50 1800 310/07 RMK AO2 T01170017
13962KABI ABI20160216084510402/16/16 08:45:31  5-MIN KABI 161445Z 30008KT 10SM CLR 12/02 A3001 1710 50 1800 300/08 RMK AO2 T01170017
13962KABI ABI20160216085011702/16/16 08:50:31  5-MIN KABI 161450Z 30009KT 10SM CLR 12/01 A3001 1710 48 1800 300/09 RMK AO2 SLP155 T01170011 53006
13962KABI ABI20160216085510402/16/16 08:55:31  5-MIN KABI 161455Z 30008KT 10SM CLR 12/01 A3001 1710 48 1800 290/08 RMK AO2 T01170011
13962KABI ABI20160216090010402/16/16 09:00:31  5-MIN KABI 161500Z 31008KT 10SM CLR 12/01 A3002 1700 46 1800 300/08 RMK AO2 T01220011
13962KABI ABI20160216090510402/16/16 09:05:31  5-MIN KABI 161505Z 31006KT 10SM CLR 13/01 A3002 1700 44 1900 310/06 RMK AO2 T01280011
13962KABI ABI20160216091010402/16/16 09:10:31  5-MIN KABI 161510Z 32009KT 10SM CLR 13/01 A3002 1700 43 1900 310/09 RMK AO2 T01280006
13962KABI ABI20160216091510402/16/16 09:15:31  5-MIN KABI 161515Z 31007KT 10SM CLR 13/01 A3002 1700 43 1900 310/07 RMK AO2 T01330011
13962KABI ABI20160216092010402/16/16 09:20:31  5-MIN KABI 161520Z 32009KT 10SM CLR 13/01 A3002 1700 41 1900 310/09 RMK AO2 T01330006
13962KABI ABI20160216092510402/16/16 09:25:31  5-MIN KABI 161525Z 33007KT 10SM CLR 13/01 A3002 1700 41 1900 320/07 RMK AO2 T01330006
13962KABI ABI20160216093010402/16/16 09:30:31  5-MIN KABI 161530Z 33010KT 10SM CLR 13/00 A3002 1700 40 1900 330/10 RMK AO2 T01330000
13962KABI ABI20160216093510402/16/16 09:35:31  5-MIN KABI 161535Z 33010KT 10SM CLR 14/00 A3003 1690 38 2000 330/10 RMK AO2 T01390000
13962KABI ABI20160216094010402/16/16 09:40:31  5-MIN KABI 161540Z 33009KT 10SM CLR 14/01 A3003 1690 40 2000 330/09 RMK AO2 T01390006
13962KABI ABI20160216094510402/16/16 09:45:31  5-MIN KABI 161545Z 33009KT 10SM CLR 14/01 A3003 1690 40 2000 330/09 RMK AO2 T01390006
13962KABI ABI20160216095011102/16/16 09:50:31  5-MIN KABI 161550Z 35010KT 10SM CLR 14/01 A3004 1690 38 2100 340/10 RMK AO2 SLP164 T01440006
13962KABI ABI20160216095510402/16/16 09:55:31  5-MIN KABI 161555Z 35009KT 10SM CLR 14/01 A3004 1680 38 2000 340/09 RMK AO2 T01440006
13962KABI ABI20160216100010402/16/16 10:00:31  5-MIN KABI 161600Z 35009KT 10SM CLR 14/00 A3004 1680 37 2000 340/09 RMK AO2 T01440000
13962KABI ABI20160216100510402/16/16 10:05:31  5-MIN KABI 161605Z 36011KT 10SM CLR 14/00 A3004 1680 37 2000 360/11 RMK AO2 T01440000
13962KABI ABI20160216101010502/16/16 10:10:31  5-MIN KABI 161610Z 35012KT 10SM CLR 15/M01 A3004 1680 34 2100 340/12 RMK AO2 T01501006
13962KABI ABI20160216101510402/16/16 10:15:31  5-MIN KABI 161615Z 01009KT 10SM CLR 16/00 A3004 1680 34 2200 010/09 RMK AO2 T01560000
13962KABI ABI20160216102010402/16/16 10:20:31  5-MIN KABI 161620Z 36012KT 10SM CLR 16/00 A3005 1680 34 2200 360/12 RMK AO2 T01560000
13962KABI ABI20160216102510402/16/16 10:25:31  5-MIN KABI 161625Z 01012KT 10SM CLR 16/00 A3005 1680 34 2200 360/12 RMK AO2 T01560000
13962KABI ABI20160216103010402/16/16 10:30:31  5-MIN KABI 161630Z 36010KT 10SM CLR 16/00 A3005 1670 34 2200 350/10 RMK AO2 T01560000
13962KABI ABI20160216103510402/16/16 10:35:31  5-MIN KABI 161635Z 01012KT 10SM CLR 16/00 A3005 1670 34 2200 010/12 RMK AO2 T01560000
13962KABI ABI20160216104010402/16/16 10:40:31  5-MIN KABI 161640Z 02011KT 10SM CLR 16/01 A3005 1670 36 2200 010/11 RMK AO2 T01560006
13962KABI ABI20160216104510402/16/16 10:45:31  5-MIN KABI 161645Z 01009KT 10SM CLR 16/01 A3005 1670 34 2200 360/09 RMK AO2 T01610006
13962KABI ABI20160216105011102/16/16 10:50:31  5-MIN KABI 161650Z 03007KT 10SM CLR 17/01 A3006 1670 33 2300 020/07 RMK AO2 SLP168 T01670006
13962KABI ABI20160216105510402/16/16 10:55:31  5-MIN KABI 161655Z 04010KT 10SM CLR 17/01 A3006 1670 32 2400 030/10 RMK AO2 T01720006
13962KABI ABI20160216110010402/16/16 11:00:31  5-MIN KABI 161700Z 01010KT 10SM CLR 18/01 A3006 1670 32 2400 010/10 RMK AO2 T01780011
13962KABI ABI20160216110510402/16/16 11:05:31  5-MIN KABI 161705Z 03011KT 10SM CLR 18/01 A3005 1670 32 2400 020/11 RMK AO2 T01780011
13962KABI ABI20160216111010402/16/16 11:10:31  5-MIN KABI 161710Z 04008KT 10SM CLR 18/01 A3005 1670 30 2500 030/08 RMK AO2 T01830006
13962KABI ABI20160216111511002/16/16 11:15:31  5-MIN KABI 161715Z 05013G18KT 10SM CLR 19/01 A3005 1670 29 2600 040/13G18 RMK AO2 T01940011
13962KABI ABI20160216112011002/16/16 11:20:31  5-MIN KABI 161720Z 04015G20KT 10SM CLR 19/01 A3005 1670 29 2600 030/15G20 RMK AO2 T01940011
13962KABI ABI20160216112511002/16/16 11:25:31  5-MIN KABI 161725Z 04015G25KT 10SM CLR 19/01 A3005 1670 29 2600 040/15G25 RMK AO2 T01940011
13962KABI ABI20160216113011002/16/16 11:30:31  5-MIN KABI 161730Z 03016G25KT 10SM CLR 19/01 A3006 1670 29 2600 020/16G25 RMK AO2 T01940011
13962KABI ABI20160216113511002/16/16 11:35:31  5-MIN KABI 161735Z 04016G24KT 10SM CLR 19/01 A3006 1660 29 2600 030/16G24 RMK AO2 T01940011
13962KABI ABI20160216114011002/16/16 11:40:31  5-MIN KABI 161740Z 04015G24KT 10SM CLR 19/01 A3006 1660 30 2500 030/15G24 RMK AO2 T01890011
13962KABI ABI20160216114511002/16/16 11:45:31  5-MIN KABI 161745Z 02014G24KT 10SM CLR 19/02 A3006 1660 30 2600 020/14G24 RMK AO2 T01940017
13962KABI ABI20160216115013502/16/16 11:50:31  5-MIN KABI 161750Z 02013G21KT 10SM CLR 19/02 A3006 1660 30 2600 010/13G21 RMK AO2 SLP169 T01940017 10200 20089 53037
13962KABI ABI20160216115511002/16/16 11:55:31  5-MIN KABI 161755Z 04014G20KT 10SM CLR 19/02 A3007 1660 30 2600 030/14G20 RMK AO2 T01940017
13962KABI ABI20160216120011002/16/16 12:00:31  5-MIN KABI 161800Z 04013G20KT 10SM CLR 19/02 A3006 1660 30 2600 030/13G20 RMK AO2 T01940017
13962KABI ABI20160216120511002/16/16 12:05:31  5-MIN KABI 161805Z 04012G20KT 10SM CLR 19/02 A3007 1660 30 2600 030/12G20 RMK AO2 T01940017
13962KABI ABI20160216121011002/16/16 12:10:31  5-MIN KABI 161810Z 04013G18KT 10SM CLR 19/02 A3007 1660 30 2600 030/13G18 RMK AO2 T01940017
13962KABI ABI20160216121511002/16/16 12:15:31  5-MIN KABI 161815Z 05012G19KT 10SM CLR 20/02 A3007 1650 29 2700 040/12G19 RMK AO2 T02000017
13962KABI ABI20160216122011002/16/16 12:20:31  5-MIN KABI 161820Z 01016G21KT 10SM CLR 20/02 A3007 1650 29 2700 010/16G21 RMK AO2 T02000017
13962KABI ABI20160216122511002/16/16 12:25:31  5-MIN KABI 161825Z 02011G21KT 10SM CLR 20/02 A3007 1660 29 2700 010/11G21 RMK AO2 T02000017
13962KABI ABI20160216123011002/16/16 12:30:31  5-MIN KABI 161830Z 01014G22KT 10SM CLR 20/02 A3007 1660 29 2700 010/14G22 RMK AO2 T02000017
13962KABI ABI20160216123511002/16/16 12:35:31  5-MIN KABI 161835Z 01011G22KT 10SM CLR 20/01 A3007 1660 28 2700 010/11G22 RMK AO2 T02000011
13962KABI ABI20160216124011002/16/16 12:40:31  5-MIN KABI 161840Z 03013G21KT 10SM CLR 20/01 A3007 1660 28 2700 030/13G21 RMK AO2 T02000011
13962KABI ABI20160216124511002/16/16 12:45:31  5-MIN KABI 161845Z 03015G21KT 10SM CLR 20/01 A3007 1660 28 2700 020/15G21 RMK AO2 T02000011
13962KABI ABI20160216125011702/16/16 12:50:31  5-MIN KABI 161850Z 03011G21KT 10SM CLR 19/01 A3007 1660 29 2600 020/11G21 RMK AO2 SLP169 T01940011
13962KABI ABI20160216125511002/16/16 12:55:31  5-MIN KABI 161855Z 02012G18KT 10SM CLR 20/01 A3006 1660 28 2700 010/12G18 RMK AO2 T02000011
13962KABI ABI20160216130011002/16/16 13:00:31  5-MIN KABI 161900Z 03011G19KT 10SM CLR 19/02 A3006 1660 30 2600 020/11G19 RMK AO2 T01940017
13962KABI ABI20160216130511002/16/16 13:05:31  5-MIN KABI 161905Z 03014G20KT 10SM CLR 19/01 A3006 1660 29 2600 020/14G20 RMK AO2 T01940011
13962KABI ABI20160216131011002/16/16 13:10:31  5-MIN KABI 161910Z 04013G20KT 10SM CLR 19/02 A3006 1670 30 2600 030/13G20 RMK AO2 T01940017
13962KABI ABI20160216131510402/16/16 13:15:31  5-MIN KABI 161915Z 03009KT 10SM CLR 20/01 A3005 1670 28 2700 030/09 RMK AO2 T02000011
13962KABI ABI20160216132011002/16/16 13:20:31  5-MIN KABI 161920Z 03012G19KT 10SM CLR 20/02 A3006 1670 29 2700 030/12G19 RMK AO2 T02000017
13962KABI ABI20160216132511002/16/16 13:25:31  5-MIN KABI 161925Z 05012G19KT 10SM CLR 20/01 A3006 1670 28 2700 040/12G19 RMK AO2 T02000011
13962KABI ABI20160216133011002/16/16 13:30:31  5-MIN KABI 161930Z 03011G19KT 10SM CLR 20/01 A3005 1670 28 2700 030/11G19 RMK AO2 T02000011
13962KABI ABI20160216133511002/16/16 13:35:31  5-MIN KABI 161935Z 06011G19KT 10SM CLR 20/01 A3005 1670 28 2700 050/11G19 RMK AO2 T02000011
13962KABI ABI20160216134011002/16/16 13:40:31  5-MIN KABI 161940Z 02015G20KT 10SM CLR 20/01 A3005 1680 28 2700 020/15G20 RMK AO2 T02000011
13962KABI ABI20160216134511002/16/16 13:45:31  5-MIN KABI 161945Z 03014G22KT 10SM CLR 20/01 A3005 1680 28 2700 020/14G22 RMK AO2 T02000011
13962KABI ABI20160216135011702/16/16 13:50:31  5-MIN KABI 161950Z 03014G22KT 10SM CLR 20/01 A3004 1680 27 2700 020/14G22 RMK AO2 SLP161 T02000006
13962KABI ABI20160216135511002/16/16 13:55:31  5-MIN KABI 161955Z 04011G22KT 10SM CLR 21/00 A3004 1680 25 2800 030/11G22 RMK AO2 T02060000
13962KABI ABI20160216140011002/16/16 14:00:31  5-MIN KABI 162000Z 03013G19KT 10SM CLR 21/00 A3004 1680 25 2800 020/13G19 RMK AO2 T02060000
13962KABI ABI20160216140511002/16/16 14:05:31  5-MIN KABI 162005Z 04013G19KT 10SM CLR 21/00 A3004 1680 25 2700 030/13G19 RMK AO2 T02060000
13962KABI ABI20160216141011102/16/16 14:10:31  5-MIN KABI 162010Z 04013G19KT 10SM CLR 20/M01 A3005 1680 25 2700 030/13G19 RMK AO2 T02001006
13962KABI ABI20160216141510502/16/16 14:15:31  5-MIN KABI 162015Z 03014KT 10SM CLR 21/M01 A3004 1680 23 2700 030/14 RMK AO2 T02061011
13962KABI ABI20160216142011102/16/16 14:20:31  5-MIN KABI 162020Z 03013G19KT 10SM CLR 20/M01 A3005 1680 24 2700 030/13G19 RMK AO2 T02001011
13962KABI ABI20160216142511102/16/16 14:25:31  5-MIN KABI 162025Z 03016G22KT 10SM CLR 21/M01 A3005 1680 23 2700 020/16G22 RMK AO2 T02061011
13962KABI ABI20160216143011102/16/16 14:30:31  5-MIN KABI 162030Z 03013G22KT 10SM CLR 21/M02 A3005 1670 22 2700 030/13G22 RMK AO2 T02061017
13962KABI ABI20160216143511102/16/16 14:35:31  5-MIN KABI 162035Z 03012G22KT 10SM CLR 21/M02 A3005 1670 22 2700 030/12G22 RMK AO2 T02061017
13962KABI ABI20160216144010502/16/16 14:40:31  5-MIN KABI 162040Z 03015KT 10SM CLR 21/M02 A3005 1670 22 2700 030/15 RMK AO2 T02061017
13962KABI ABI20160216144511102/16/16 14:45:31  5-MIN KABI 162045Z 06014G22KT 10SM CLR 21/M02 A3005 1670 21 2700 060/14G22 RMK AO2 T02061022
13962KABI ABI20160216145012402/16/16 14:50:31  5-MIN KABI 162050Z 06012G22KT 10SM CLR 21/M02 A3005 1670 21 2700 050/12G22 RMK AO2 SLP162 T02061022 51018
13962KABI ABI20160216145511102/16/16 14:55:31  5-MIN KABI 162055Z 04010G20KT 10SM CLR 21/M02 A3005 1670 21 2700 030/10G20 RMK AO2 T02061022
13962KABI ABI20160216150011102/16/16 15:00:31  5-MIN KABI 162100Z 04013G20KT 10SM CLR 21/M02 A3006 1670 20 2800 040/13G20 RMK AO2 T02111022
13962KABI ABI20160216150511102/16/16 15:05:31  5-MIN KABI 162105Z 05013G22KT 10SM CLR 21/M04 A3006 1660 19 2700 040/13G22 RMK AO2 T02061039
13962KABI ABI20160216151011102/16/16 15:10:31  5-MIN KABI 162110Z 03014G22KT 10SM CLR 21/M04 A3006 1660 19 2700 030/14G22 RMK AO2 T02061039
13962KABI ABI20160216151511102/16/16 15:15:31  5-MIN KABI 162115Z 05011G21KT 10SM CLR 21/M03 A3006 1670 19 2700 040/11G21 RMK AO2 T02061033
13962KABI ABI20160216152011102/16/16 15:20:31  5-MIN KABI 162120Z 05013G21KT 10SM CLR 21/M03 A3006 1660 20 2700 050/13G21 RMK AO2 T02061028
13962KABI ABI20160216152511102/16/16 15:25:31  5-MIN KABI 162125Z 05009G21KT 10SM CLR 21/M03 A3006 1660 20 2700 040/09G21 RMK AO2 T02061028
13962KABI ABI20160216153011102/16/16 15:30:31  5-MIN KABI 162130Z 05011G18KT 10SM CLR 21/M02 A3006 1660 21 2700 050/11G18 RMK AO2 T02061022
13962KABI ABI20160216153511102/16/16 15:35:31  5-MIN KABI 162135Z 04012G18KT 10SM CLR 21/M02 A3006 1670 21 2700 030/12G18 RMK AO2 T02061022
13962KABI ABI20160216154011102/16/16 15:40:31  5-MIN KABI 162140Z 04011G19KT 10SM CLR 21/M02 A3006 1670 21 2700 040/11G19 RMK AO2 T02061022
13962KABI ABI20160216154511102/16/16 15:45:31  5-MIN KABI 162145Z 04011G19KT 10SM CLR 21/M01 A3006 1670 23 2700 030/11G19 RMK AO2 T02061011
13962KABI ABI20160216155011802/16/16 15:50:31  5-MIN KABI 162150Z 03011G18KT 10SM CLR 20/M02 A3006 1660 23 2700 020/11G18 RMK AO2 SLP166 T02001017
13962KABI ABI20160216155511102/16/16 15:55:31  5-MIN KABI 162155Z 05013G18KT 10SM CLR 20/M02 A3006 1660 22 2700 040/13G18 RMK AO2 T02001022
13962KABI ABI20160216160011102/16/16 16:00:31  5-MIN KABI 162200Z 05010G18KT 10SM CLR 20/M02 A3006 1670 22 2700 050/10G18 RMK AO2 T02001022
13962KABI ABI20160216160511102/16/16 16:05:31  5-MIN KABI 162205Z 05010G17KT 10SM CLR 20/M02 A3006 1670 22 2700 040/10G17 RMK AO2 T02001022
13962KABI ABI20160216161011102/16/16 16:10:31  5-MIN KABI 162210Z 06011G17KT 10SM CLR 20/M02 A3006 1670 22 2700 050/11G17 RMK AO2 T02001022
13962KABI ABI20160216161510502/16/16 16:15:31  5-MIN KABI 162215Z 07008KT 10SM CLR 20/M02 A3005 1670 22 2700 070/08 RMK AO2 T02001022
13962KABI ABI20160216162010502/16/16 16:20:31  5-MIN KABI 162220Z 06010KT 10SM CLR 20/M02 A3006 1670 22 2700 060/10 RMK AO2 T02001022
13962KABI ABI20160216162510502/16/16 16:25:31  5-MIN KABI 162225Z 05010KT 10SM CLR 19/M02 A3006 1670 24 2600 050/10 RMK AO2 T01941017
13962KABI ABI20160216163010502/16/16 16:30:31  5-MIN KABI 162230Z 04011KT 10SM CLR 20/M02 A3006 1670 23 2700 030/11 RMK AO2 T02001017
13962KABI ABI20160216163510502/16/16 16:35:31  5-MIN KABI 162235Z 03010KT 10SM CLR 19/M02 A3006 1670 24 2600 030/10 RMK AO2 T01941017
13962KABI ABI20160216164010502/16/16 16:40:31  5-MIN KABI 162240Z 06011KT 10SM CLR 20/M02 A3006 1660 23 2700 050/11 RMK AO2 T02001017
13962KABI ABI20160216164510502/16/16 16:45:31  5-MIN KABI 162245Z 05009KT 10SM CLR 20/M01 A3006 1660 24 2700 050/09 RMK AO2 T02001011
13962KABI ABI20160216165011802/16/16 16:50:31  5-MIN KABI 162250Z 04010G17KT 10SM CLR 19/M01 A3006 1660 25 2600 040/10G17 RMK AO2 SLP167 T01941011
13962KABI ABI20160216165511102/16/16 16:55:31  5-MIN KABI 162255Z 03008G17KT 10SM CLR 19/M01 A3006 1660 25 2600 030/08G17 RMK AO2 T01941011
13962KABI ABI20160216170010502/16/16 17:00:31  5-MIN KABI 162300Z 04008KT 10SM CLR 19/M01 A3006 1660 25 2600 040/08 RMK AO2 T01941011
13962KABI ABI20160216170510502/16/16 17:05:31  5-MIN KABI 162305Z 05007KT 10SM CLR 19/M01 A3006 1660 25 2600 040/07 RMK AO2 T01941011
13962KABI ABI20160216171010502/16/16 17:10:31  5-MIN KABI 162310Z 05006KT 10SM CLR 19/M01 A3007 1660 25 2600 050/06 RMK AO2 T01941011
13962KABI ABI20160216171510502/16/16 17:15:31  5-MIN KABI 162315Z 06006KT 10SM CLR 19/M01 A3007 1660 25 2600 060/06 RMK AO2 T01941011
13962KABI ABI20160216172010502/16/16 17:20:31  5-MIN KABI 162320Z 06009KT 10SM CLR 19/M01 A3007 1660 26 2500 050/09 RMK AO2 T01891006
13962KABI ABI20160216172510502/16/16 17:25:31  5-MIN KABI 162325Z 07010KT 10SM CLR 19/M01 A3007 1660 25 2500 060/10 RMK AO2 T01891011
13962KABI ABI20160216173010502/16/16 17:30:31  5-MIN KABI 162330Z 07008KT 10SM CLR 19/M01 A3007 1660 26 2500 060/08 RMK AO2 T01891006
13962KABI ABI20160216173510502/16/16 17:35:31  5-MIN KABI 162335Z 06008KT 10SM CLR 19/M01 A3007 1660 26 2500 060/08 RMK AO2 T01891006
13962KABI ABI20160216174010502/16/16 17:40:31  5-MIN KABI 162340Z 06006KT 10SM CLR 18/M01 A3007 1660 26 2500 060/06 RMK AO2 T01831011
13962KABI ABI20160216174510502/16/16 17:45:31  5-MIN KABI 162345Z 07007KT 10SM CLR 18/M01 A3007 1650 26 2500 060/07 RMK AO2 T01831011
13962KABI ABI20160216175013002/16/16 17:50:31  5-MIN KABI 162350Z 06006KT 10SM CLR 18/M01 A3007 1650 28 2400 050/06 RMK AO2 SLP171 T01781006 10211 20178 55004
13962KABI ABI20160216175510502/16/16 17:55:31  5-MIN KABI 162355Z 05006KT 10SM CLR 18/M01 A3007 1650 28 2400 050/06 RMK AO2 T01781006
13962KABI ABI20160216180010502/16/16 18:00:31  5-MIN KABI 170000Z 05006KT 10SM CLR 18/M01 A3007 1650 28 2400 050/06 RMK AO2 T01781006
13962KABI ABI20160216180510502/16/16 18:05:31  5-MIN KABI 170005Z 06004KT 10SM CLR 18/M01 A3007 1650 27 2400 060/04 RMK AO2 T01781011
13962KABI ABI20160216181010502/16/16 18:10:31  5-MIN KABI 170010Z 07005KT 10SM CLR 17/M01 A3007 1650 28 2300 070/05 RMK AO2 T01721011
13962KABI ABI20160216181510502/16/16 18:15:31  5-MIN KABI 170015Z 06004KT 10SM CLR 17/M02 A3008 1650 27 2300 060/04 RMK AO2 T01721017
13962KABI ABI20160216182010502/16/16 18:20:31  5-MIN KABI 170020Z 05004KT 10SM CLR 17/M02 A3008 1650 28 2300 050/04 RMK AO2 T01671017
13962KABI ABI20160216182510502/16/16 18:25:31  5-MIN KABI 170025Z 05004KT 10SM CLR 17/M02 A3008 1640 28 2300 040/04 RMK AO2 T01671017
13962KABI ABI20160216183010502/16/16 18:30:31  5-MIN KABI 170030Z 06004KT 10SM CLR 17/M01 A3008 1640 29 2300 050/04 RMK AO2 T01671011
13962KABI ABI20160216183510502/16/16 18:35:31  5-MIN KABI 170035Z 06004KT 10SM CLR 16/M01 A3008 1640 30 2200 050/04 RMK AO2 T01611011
13962KABI ABI20160216184010502/16/16 18:40:31  5-MIN KABI 170040Z 05006KT 10SM CLR 16/M01 A3009 1640 30 2200 050/06 RMK AO2 T01611011
13962KABI ABI20160216184510502/16/16 18:45:31  5-MIN KABI 170045Z 05005KT 10SM CLR 16/M02 A3009 1640 29 2200 040/05 RMK AO2 T01611017
13962KABI ABI20160216185011202/16/16 18:50:31  5-MIN KABI 170050Z 03004KT 10SM CLR 16/M02 A3009 1640 30 2100 030/04 RMK AO2 SLP180 T01561017
13962KABI ABI20160216185510502/16/16 18:55:31  5-MIN KABI 170055Z 02004KT 10SM CLR 15/M01 A3009 1630 33 2100 020/04 RMK AO2 T01501011
13962KABI ABI20160216190010502/16/16 19:00:31  5-MIN KABI 170100Z 04005KT 10SM CLR 15/M01 A3009 1630 33 2100 040/05 RMK AO2 T01501011
13962KABI ABI20160216190510502/16/16 19:05:31  5-MIN KABI 170105Z 04004KT 10SM CLR 16/M02 A3009 1640 30 2100 040/04 RMK AO2 T01561017
13962KABI ABI20160216191010502/16/16 19:10:31  5-MIN KABI 170110Z 04004KT 10SM CLR 15/M02 A3010 1630 31 2000 030/04 RMK AO2 T01501017
13962KABI ABI20160216191510502/16/16 19:15:31  5-MIN KABI 170115Z 04004KT 10SM CLR 15/M01 A3010 1630 33 2000 040/04 RMK AO2 T01501011
13962KABI ABI20160216192010502/16/16 19:20:31  5-MIN KABI 170120Z 05004KT 10SM CLR 14/M01 A3010 1630 34 2000 050/04 RMK AO2 T01441011
13962KABI ABI20160216192510502/16/16 19:25:31  5-MIN KABI 170125Z 04004KT 10SM CLR 14/M02 A3010 1630 33 2000 040/04 RMK AO2 T01441017
13962KABI ABI20160216193010502/16/16 19:30:31  5-MIN KABI 170130Z 06005KT 10SM CLR 14/M02 A3010 1620 33 2000 050/05 RMK AO2 T01441017
13962KABI ABI20160216193510502/16/16 19:35:31  5-MIN KABI 170135Z 05005KT 10SM CLR 14/M02 A3011 1620 33 2000 050/05 RMK AO2 T01441017
13962KABI ABI20160216194010502/16/16 19:40:31  5-MIN KABI 170140Z 05005KT 10SM CLR 14/M02 A3011 1620 34 1900 050/05 RMK AO2 T01391017
13962KABI ABI20160216194510502/16/16 19:45:31  5-MIN KABI 170145Z 04004KT 10SM CLR 14/M02 A3011 1620 34 1900 040/04 RMK AO2 T01391017
13962KABI ABI20160216195011202/16/16 19:50:31  5-MIN KABI 170150Z 05005KT 10SM CLR 13/M02 A3011 1620 35 1800 050/05 RMK AO2 SLP190 T01331017
13962KABI ABI20160216195510502/16/16 19:55:31  5-MIN KABI 170155Z 05007KT 10SM CLR 13/M02 A3011 1610 34 1800 050/07 RMK AO2 T01331022
13962KABI ABI20160216200010502/16/16 20:00:31  5-MIN KABI 170200Z 05007KT 10SM CLR 14/M02 A3012 1610 32 1900 050/07 RMK AO2 T01391022
13962KABI ABI20160216200510502/16/16 20:05:31  5-MIN KABI 170205Z 06005KT 10SM CLR 13/M02 A3012 1610 34 1800 060/05 RMK AO2 T01331022
13962KABI ABI20160216201010502/16/16 20:10:31  5-MIN KABI 170210Z 08006KT 10SM CLR 13/M02 A3012 1610 34 1800 070/06 RMK AO2 T01331022
13962KABI ABI20160216201510502/16/16 20:15:31  5-MIN KABI 170215Z 09005KT 10SM CLR 12/M02 A3012 1610 38 1700 090/05 RMK AO2 T01221017
13962KABI ABI20160216202010502/16/16 20:20:31  5-MIN KABI 170220Z 09004KT 10SM CLR 12/M02 A3012 1610 38 1700 090/04 RMK AO2 T01221017
13962KABI ABI20160216202510502/16/16 20:25:31  5-MIN KABI 170225Z 09005KT 10SM CLR 12/M02 A3012 1610 39 1600 080/05 RMK AO2 T01171017
13962KABI ABI20160216203010502/16/16 20:30:31  5-MIN KABI 170230Z 10005KT 10SM CLR 12/M02 A3012 1610 38 1600 090/05 RMK AO2 T01171022
13962KABI ABI20160216203510502/16/16 20:35:31  5-MIN KABI 170235Z 10004KT 10SM CLR 12/M02 A3012 1610 39 1600 090/04 RMK AO2 T01171017
13962KABI ABI20160216204010502/16/16 20:40:31  5-MIN KABI 170240Z 09005KT 10SM CLR 11/M02 A3012 1610 41 1600 080/05 RMK AO2 T01111017
13962KABI ABI20160216204510502/16/16 20:45:31  5-MIN KABI 170245Z 09005KT 10SM CLR 11/M02 A3012 1610 41 1600 090/05 RMK AO2 T01111017
13962KABI ABI20160216205011802/16/16 20:50:31  5-MIN KABI 170250Z 10004KT 10SM CLR 11/M02 A3012 1610 41 1600 090/04 RMK AO2 SLP192 T01111017 53006
13962KABI ABI20160216205510502/16/16 20:55:31  5-MIN KABI 170255Z 09004KT 10SM CLR 11/M02 A3013 1600 41 1600 090/04 RMK AO2 T01111017
13962KABI ABI20160216210010502/16/16 21:00:31  5-MIN KABI 170300Z 09004KT 10SM CLR 11/M02 A3013 1600 41 1600 080/04 RMK AO2 T01111017
13962KABI ABI20160216210510502/16/16 21:05:31  5-MIN KABI 170305Z 08004KT 10SM CLR 11/M02 A3013 1600 41 1600 080/04 RMK AO2 T01111017
13962KABI ABI20160216211010502/16/16 21:10:31  5-MIN KABI 170310Z 10004KT 10SM CLR 11/M02 A3013 1600 41 1600 090/04 RMK AO2 T01111017
13962KABI ABI20160216211510502/16/16 21:15:31  5-MIN KABI 170315Z 00000KT 10SM CLR 09/M02 A3013 1600 45 1400 000/00 RMK AO2 T00941017
13962KABI ABI20160216212010502/16/16 21:20:31  5-MIN KABI 170320Z 00000KT 10SM CLR 09/M02 A3014 1590 47 1300 000/00 RMK AO2 T00891017
13962KABI ABI20160216212510502/16/16 21:25:31  5-MIN KABI 170325Z 00000KT 10SM CLR 09/M02 A3014 1590 47 1300 000/00 RMK AO2 T00891017
13962KABI ABI20160216213010502/16/16 21:30:31  5-MIN KABI 170330Z 03003KT 10SM CLR 10/M02 A3014 1590 44 1400 030/03 RMK AO2 T01001017
13962KABI ABI20160216213510502/16/16 21:35:31  5-MIN KABI 170335Z 00000KT 10SM CLR 11/M02 A3014 1590 42 1500 000/00 RMK AO2 T01061017
13962KABI ABI20160216214010502/16/16 21:40:31  5-MIN KABI 170340Z 00000KT 10SM CLR 08/M01 A3014 1590 51 1200 000/00 RMK AO2 T00831011
13962KABI ABI20160216214510502/16/16 21:45:31  5-MIN KABI 170345Z 00000KT 10SM CLR 09/M01 A3014 1590 49 1300 000/00 RMK AO2 T00891011
13962KABI ABI20160216215011202/16/16 21:50:31  5-MIN KABI 170350Z 00000KT 10SM CLR 10/M02 A3014 1590 44 1400 000/00 RMK AO2 SLP198 T01001017
13962KABI ABI20160216215510502/16/16 21:55:31  5-MIN KABI 170355Z 00000KT 10SM CLR 10/M02 A3014 1590 44 1400 000/00 RMK AO2 T01001017
13962KABI ABI20160216220010502/16/16 22:00:31  5-MIN KABI 170400Z 00000KT 10SM CLR 10/M02 A3014 1590 44 1400 000/00 RMK AO2 T01001017
13962KABI ABI20160216220510502/16/16 22:05:31  5-MIN KABI 170405Z 00000KT 10SM CLR 10/M02 A3014 1590 44 1400 000/00 RMK AO2 T01001017
13962KABI ABI20160216221010502/16/16 22:10:31  5-MIN KABI 170410Z 00000KT 10SM CLR 09/M02 A3014 1590 45 1300 000/00 RMK AO2 T00941017
13962KABI ABI20160216221510502/16/16 22:15:31  5-MIN KABI 170415Z 00000KT 10SM CLR 10/M02 A3014 1590 44 1400 000/00 RMK AO2 T01001017
13962KABI ABI20160216222010502/16/16 22:20:31  5-MIN KABI 170420Z 00000KT 10SM CLR 11/M02 A3014 1590 42 1500 000/00 RMK AO2 T01061017
13962KABI ABI20160216222510502/16/16 22:25:31  5-MIN KABI 170425Z 08004KT 10SM CLR 11/M02 A3014 1590 42 1500 080/04 RMK AO2 T01061017
13962KABI ABI20160216223010502/16/16 22:30:31  5-MIN KABI 170430Z 09004KT 10SM CLR 11/M01 A3014 1590 44 1500 090/04 RMK AO2 T01061011
13962KABI ABI20160216223510502/16/16 22:35:31  5-MIN KABI 170435Z 00000KT 10SM CLR 10/M01 A3014 1590 46 1400 000/00 RMK AO2 T01001011
13962KABI ABI20160216224010502/16/16 22:40:31  5-MIN KABI 170440Z 16004KT 10SM CLR 09/M02 A3015 1580 47 1300 160/04 RMK AO2 T00891017
13962KABI ABI20160216224510502/16/16 22:45:31  5-MIN KABI 170445Z 22003KT 10SM CLR 07/M01 A3014 1590 57 1000 210/03 RMK AO2 T00671011
13962KABI ABI20160216225011002/16/16 22:50:31  5-MIN KABI 170450Z 00000KT 10SM CLR 06/00 A3014 1590 67 900 000/00 RMK AO2 SLP200 T00560000
13962KABI ABI20160216225510402/16/16 22:55:31  5-MIN KABI 170455Z 00000KT 10SM CLR 06/M01 A3014 1590 62 900 000/00 RMK AO2 T00611006
13962KABI ABI20160216230010502/16/16 23:00:31  5-MIN KABI 170500Z 00000KT 10SM CLR 07/M01 A3015 1580 57 1100 000/00 RMK AO2 T00721006
13962KABI ABI20160216230510502/16/16 23:05:31  5-MIN KABI 170505Z 00000KT 10SM CLR 08/M01 A3015 1580 55 1100 000/00 RMK AO2 T00781006
13962KABI ABI20160216231010502/16/16 23:10:31  5-MIN KABI 170510Z 00000KT 10SM CLR 08/M01 A3015 1580 55 1100 000/00 RMK AO2 T00781006
13962KABI ABI20160216231510502/16/16 23:15:31  5-MIN KABI 170515Z 00000KT 10SM CLR 08/M01 A3015 1580 53 1200 000/00 RMK AO2 T00831006
13962KABI ABI20160216232010502/16/16 23:20:31  5-MIN KABI 170520Z 00000KT 10SM CLR 08/M01 A3015 1580 53 1200 000/00 RMK AO2 T00831006
13962KABI ABI20160216232510502/16/16 23:25:31  5-MIN KABI 170525Z 00000KT 10SM CLR 08/M01 A3015 1580 53 1100 000/00 RMK AO2 T00781011
13962KABI ABI20160216233010502/16/16 23:30:31  5-MIN KABI 170530Z 00000KT 10SM CLR 08/M01 A3015 1580 51 1200 000/00 RMK AO2 T00831011
13962KABI ABI20160216233510502/16/16 23:35:31  5-MIN KABI 170535Z 00000KT 10SM CLR 09/M01 A3015 1580 49 1300 000/00 RMK AO2 T00891011
13962KABI ABI20160216234010502/16/16 23:40:31  5-MIN KABI 170540Z 00000KT 10SM CLR 09/M01 A3015 1580 49 1300 000/00 RMK AO2 T00891011
13962KABI ABI20160216234510502/16/16 23:45:31  5-MIN KABI 170545Z 00000KT 10SM CLR 09/M01 A3015 1580 49 1300 000/00 RMK AO2 T00891011
13962KABI ABI20160216235014002/16/16 23:50:31  5-MIN KABI 170550Z 00000KT 10SM CLR 09/M01 A3015 1580 47 1300 000/00 RMK AO2 SLP198 T00941011 10178 20056 402110056 51016
13962KABI ABI20160216235510502/16/16 23:55:31  5-MIN KABI 170555Z 00000KT 10SM CLR 10/M01 A3015 1580 47 1400 000/00 RMK AO2 T01001006
13962KABI ABI20160217000010502/17/16 00:00:31  5-MIN KABI 170600Z 00000KT 10SM CLR 09/M01 A3015 1580 49 1300 000/00 RMK AO2 T00941006
13962KABI ABI20160217000510502/17/16 00:05:31  5-MIN KABI 170605Z 00000KT 10SM CLR 09/M01 A3015 1580 49 1300 000/00 RMK AO2 T00891011
13962KABI ABI20160217001010502/17/16 00:10:31  5-MIN KABI 170610Z 00000KT 10SM CLR 08/M01 A3015 1580 51 1200 000/00 RMK AO2 T00831011
13962KABI ABI20160217001510502/17/16 00:15:31  5-MIN KABI 170615Z 00000KT 10SM CLR 09/M01 A3014 1590 47 1300 000/00 RMK AO2 T00941011
13962KABI ABI20160217002010502/17/16 00:20:31  5-MIN KABI 170620Z 06003KT 10SM CLR 09/M01 A3014 1590 47 1300 060/03 RMK AO2 T00941011
13962KABI ABI20160217002510502/17/16 00:25:31  5-MIN KABI 170625Z 08003KT 10SM CLR 10/M01 A3014 1590 46 1400 070/03 RMK AO2 T01001011
13962KABI ABI20160217003010502/17/16 00:30:31  5-MIN KABI 170630Z 00000KT 10SM CLR 10/M01 A3014 1590 46 1400 000/00 RMK AO2 T01001011
13962KABI ABI20160217003510502/17/16 00:35:31  5-MIN KABI 170635Z 00000KT 10SM CLR 09/M01 A3014 1590 47 1300 000/00 RMK AO2 T00941011
13962KABI ABI20160217004010502/17/16 00:40:31  5-MIN KABI 170640Z 12003KT 10SM CLR 08/M01 A3014 1590 51 1200 110/03 RMK AO2 T00831011
13962KABI ABI20160217004510502/17/16 00:45:31  5-MIN KABI 170645Z 13004KT 10SM CLR 07/M01 A3013 1600 55 1100 120/04 RMK AO2 T00721011
13962KABI ABI20160217005011202/17/16 00:50:31  5-MIN KABI 170650Z 14004KT 10SM CLR 07/M01 A3014 1590 57 1000 140/04 RMK AO2 SLP195 T00671011
13962KABI ABI20160217005510502/17/16 00:55:31  5-MIN KABI 170655Z 11004KT 10SM CLR 07/M01 A3014 1590 55 1100 110/04 RMK AO2 T00721011
13962KABI ABI20160217010010502/17/16 01:00:31  5-MIN KABI 170700Z 13004KT 10SM CLR 07/M01 A3014 1590 55 1100 120/04 RMK AO2 T00721011
13962KABI ABI20160217010510402/17/16 01:05:31  5-MIN KABI 170705Z 15005KT 10SM CLR 06/M01 A3014 1590 65 900 150/05 RMK AO2 T00561006
13962KABI ABI20160217011010402/17/16 01:10:31  5-MIN KABI 170710Z 16005KT 10SM CLR 06/M01 A3014 1590 65 900 160/05 RMK AO2 T00561006
13962KABI ABI20160217011510402/17/16 01:15:31  5-MIN KABI 170715Z 14005KT 10SM CLR 06/M01 A3014 1590 62 900 140/05 RMK AO2 T00611006
13962KABI ABI20160217012010402/17/16 01:20:31  5-MIN KABI 170720Z 13005KT 10SM CLR 06/M01 A3014 1590 62 900 130/05 RMK AO2 T00611006
13962KABI ABI20160217012510502/17/16 01:25:31  5-MIN KABI 170725Z 13005KT 10SM CLR 07/M01 A3014 1590 55 1100 120/05 RMK AO2 T00721011
13962KABI ABI20160217013010502/17/16 01:30:31  5-MIN KABI 170730Z 14004KT 10SM CLR 07/M01 A3014 1590 55 1100 140/04 RMK AO2 T00721011
13962KABI ABI20160217013510402/17/16 01:35:31  5-MIN KABI 170735Z 14004KT 10SM CLR 06/M01 A3014 1590 60 900 130/04 RMK AO2 T00611011
13962KABI ABI20160217014010502/17/16 01:40:31  5-MIN KABI 170740Z 13004KT 10SM CLR 07/M01 A3014 1590 57 1000 130/04 RMK AO2 T00671011
13962KABI ABI20160217014510402/17/16 01:45:31  5-MIN KABI 170745Z 16003KT 10SM CLR 06/M01 A3014 1590 60 900 150/03 RMK AO2 T00611011
13962KABI ABI20160217015011102/17/16 01:50:31  5-MIN KABI 170750Z 19004KT 10SM CLR 06/M01 A3014 1590 62 900 190/04 RMK AO2 SLP197 T00611006
13962KABI ABI20160217015510402/17/16 01:55:31  5-MIN KABI 170755Z 19004KT 10SM CLR 06/M01 A3014 1590 65 900 180/04 RMK AO2 T00561006
13962KABI ABI20160217020010402/17/16 02:00:31  5-MIN KABI 170800Z 18005KT 10SM CLR 06/M01 A3014 1590 65 900 170/05 RMK AO2 T00561006
13962KABI ABI20160217020510402/17/16 02:05:31  5-MIN KABI 170805Z 17005KT 10SM CLR 05/M01 A3014 1590 67 800 160/05 RMK AO2 T00501006
13962KABI ABI20160217021010402/17/16 02:10:31  5-MIN KABI 170810Z 16006KT 10SM CLR 05/M01 A3014 1590 67 800 150/06 RMK AO2 T00501006
13962KABI ABI20160217021510402/17/16 02:15:31  5-MIN KABI 170815Z 15006KT 10SM CLR 05/M01 A3014 1590 67 800 150/06 RMK AO2 T00501006
13962KABI ABI20160217022010402/17/16 02:20:31  5-MIN KABI 170820Z 16006KT 10SM CLR 05/M01 A3013 1600 67 800 160/06 RMK AO2 T00501006
13962KABI ABI20160217022510402/17/16 02:25:31  5-MIN KABI 170825Z 15006KT 10SM CLR 05/M01 A3013 1600 67 800 150/06 RMK AO2 T00501006
13962KABI ABI20160217023010402/17/16 02:30:31  5-MIN KABI 170830Z 15006KT 10SM CLR 05/M01 A3013 1600 67 800 150/06 RMK AO2 T00501006
13962KABI ABI20160217023510402/17/16 02:35:31  5-MIN KABI 170835Z 15006KT 10SM CLR 05/M01 A3014 1590 67 800 150/06 RMK AO2 T00501006
13962KABI ABI20160217024010402/17/16 02:40:31  5-MIN KABI 170840Z 16006KT 10SM CLR 05/M01 A3014 1590 67 800 150/06 RMK AO2 T00501006
13962KABI ABI20160217024510402/17/16 02:45:31  5-MIN KABI 170845Z 15007KT 10SM CLR 05/M01 A3014 1590 67 800 150/07 RMK AO2 T00501006
13962KABI ABI20160217025011702/17/16 02:50:31  5-MIN KABI 170850Z 14006KT 10SM CLR 05/M01 A3014 1590 64 800 130/06 RMK AO2 SLP197 T00501011 51008
13962KABI ABI20160217025510402/17/16 02:55:31  5-MIN KABI 170855Z 14007KT 10SM CLR 05/M01 A3014 1590 64 800 130/07 RMK AO2 T00501011
13962KABI ABI20160217030010402/17/16 03:00:31  5-MIN KABI 170900Z 13007KT 10SM CLR 05/M01 A3014 1590 67 800 120/07 RMK AO2 T00501006
13962KABI ABI20160217030510402/17/16 03:05:31  5-MIN KABI 170905Z 11007KT 10SM CLR 06/M01 A3014 1590 65 900 110/07 RMK AO2 T00561006
13962KABI ABI20160217031010402/17/16 03:10:31  5-MIN KABI 170910Z 11007KT 10SM CLR 06/M01 A3014 1590 62 900 100/07 RMK AO2 T00561011
13962KABI ABI20160217031510402/17/16 03:15:31  5-MIN KABI 170915Z 11006KT 10SM CLR 06/M01 A3014 1590 60 900 110/06 RMK AO2 T00611011
13962KABI ABI20160217032010402/17/16 03:20:31  5-MIN KABI 170920Z 13006KT 10SM CLR 06/M02 A3014 1590 57 900 120/06 RMK AO2 T00611017
13962KABI ABI20160217032510402/17/16 03:25:31  5-MIN KABI 170925Z 12006KT 10SM CLR 06/M02 A3014 1590 57 900 120/06 RMK AO2 T00611017
13962KABI ABI20160217033010402/17/16 03:30:31  5-MIN KABI 170930Z 12006KT 10SM CLR 06/M02 A3014 1590 57 900 110/06 RMK AO2 T00611017
13962KABI ABI20160217033510402/17/16 03:35:31  5-MIN KABI 170935Z 12005KT 10SM CLR 06/M02 A3014 1590 57 900 110/05 RMK AO2 T00611017
13962KABI ABI20160217034010402/17/16 03:40:31  5-MIN KABI 170940Z 12004KT 10SM CLR 06/M02 A3015 1580 57 900 120/04 RMK AO2 T00611017
13962KABI ABI20160217034510402/17/16 03:45:31  5-MIN KABI 170945Z 15004KT 10SM CLR 06/M02 A3015 1580 55 900 150/04 RMK AO2 T00611022
13962KABI ABI20160217035011102/17/16 03:50:31  5-MIN KABI 170950Z 15006KT 10SM CLR 06/M02 A3015 1580 57 900 140/06 RMK AO2 SLP201 T00561022
13962KABI ABI20160217035510402/17/16 03:55:31  5-MIN KABI 170955Z 17006KT 10SM CLR 05/M02 A3016 1580 62 800 170/06 RMK AO2 T00501017
13962KABI ABI20160217040010402/17/16 04:00:31  5-MIN KABI 171000Z 19007KT 10SM CLR 04/M02 A3016 1570 64 700 180/07 RMK AO2 T00441017
13962KABI ABI20160217040510402/17/16 04:05:31  5-MIN KABI 171005Z 16007KT 10SM CLR 04/M02 A3016 1570 64 700 160/07 RMK AO2 T00441017
13962KABI ABI20160217041010402/17/16 04:10:31  5-MIN KABI 171010Z 15008KT 10SM CLR 05/M02 A3016 1570 62 800 140/08 RMK AO2 T00501017
13962KABI ABI20160217041510402/17/16 04:15:31  5-MIN KABI 171015Z 14008KT 10SM CLR 06/M02 A3016 1570 59 900 130/08 RMK AO2 T00561017
13962KABI ABI20160217042010402/17/16 04:20:31  5-MIN KABI 171020Z 13008KT 10SM CLR 06/M02 A3016 1570 59 900 120/08 RMK AO2 T00561017
13962KABI ABI20160217042510402/17/16 04:25:31  5-MIN KABI 171025Z 12009KT 10SM CLR 06/M02 A3016 1570 57 900 120/09 RMK AO2 T00561022
13962KABI ABI20160217043010402/17/16 04:30:31  5-MIN KABI 171030Z 12008KT 10SM CLR 06/M02 A3016 1580 57 900 120/08 RMK AO2 T00561022
13962KABI ABI20160217043510402/17/16 04:35:31  5-MIN KABI 171035Z 11007KT 10SM CLR 06/M02 A3016 1580 57 900 110/07 RMK AO2 T00561022
13962KABI ABI20160217044010402/17/16 04:40:31  5-MIN KABI 171040Z 11008KT 10SM CLR 06/M02 A3016 1580 55 900 110/08 RMK AO2 T00611022
13962KABI ABI20160217044510402/17/16 04:45:31  5-MIN KABI 171045Z 11008KT 10SM CLR 06/M02 A3015 1580 55 900 110/08 RMK AO2 T00611022
13962KABI ABI20160217045011102/17/16 04:50:31  5-MIN KABI 171050Z 12008KT 10SM CLR 06/M03 A3015 1580 53 900 120/08 RMK AO2 SLP202 T00611028
13962KABI ABI20160217045510402/17/16 04:55:31  5-MIN KABI 171055Z 13008KT 10SM CLR 06/M02 A3016 1570 57 900 120/08 RMK AO2 T00561022
13962KABI ABI20160217050010402/17/16 05:00:31  5-MIN KABI 171100Z 14008KT 10SM CLR 06/M03 A3016 1570 55 900 130/08 RMK AO2 T00561028
13962KABI ABI20160217050510402/17/16 05:05:31  5-MIN KABI 171105Z 14007KT 10SM CLR 05/M03 A3016 1570 57 800 130/07 RMK AO2 T00501028
13962KABI ABI20160217051010402/17/16 05:10:31  5-MIN KABI 171110Z 15007KT 10SM CLR 05/M03 A3016 1570 57 800 140/07 RMK AO2 T00501028
13962KABI ABI20160217051510402/17/16 05:15:31  5-MIN KABI 171115Z 14008KT 10SM CLR 05/M03 A3016 1580 57 800 140/08 RMK AO2 T00501028
13962KABI ABI20160217052010402/17/16 05:20:31  5-MIN KABI 171120Z 15008KT 10SM CLR 05/M03 A3015 1580 57 800 150/08 RMK AO2 T00501028
13962KABI ABI20160217052510402/17/16 05:25:31  5-MIN KABI 171125Z 15006KT 10SM CLR 06/M03 A3016 1580 55 900 150/06 RMK AO2 T00561028
13962KABI ABI20160217053010402/17/16 05:30:31  5-MIN KABI 171130Z 15008KT 10SM CLR 06/M03 A3015 1580 53 900 140/08 RMK AO2 T00561033
13962KABI ABI20160217053510402/17/16 05:35:31  5-MIN KABI 171135Z 15008KT 10SM CLR 06/M03 A3015 1580 55 900 140/08 RMK AO2 T00561028
13962KABI ABI20160217054010402/17/16 05:40:31  5-MIN KABI 171140Z 14009KT 10SM CLR 06/M03 A3016 1580 55 900 140/09 RMK AO2 T00561028
13962KABI ABI20160217054510402/17/16 05:45:31  5-MIN KABI 171145Z 14009KT 10SM CLR 06/M03 A3016 1570 53 900 140/09 RMK AO2 T00611028
13962KABI ABI20160217055012902/17/16 05:50:31  5-MIN KABI 171150Z 15009KT 10SM CLR 06/M03 A3016 1570 53 900 140/09 RMK AO2 SLP204 T00611028 10100 20044 56003
13962KABI ABI20160217055510502/17/16 05:55:31  5-MIN KABI 171155Z 15009KT 10SM CLR 07/M03 A3016 1570 49 1000 140/09 RMK AO2 T00671033
13962KABI ABI20160217060010502/17/16 06:00:31  5-MIN KABI 171200Z 15010KT 10SM CLR 07/M03 A3016 1570 49 1000 140/10 RMK AO2 T00671033
13962KABI ABI20160217060510502/17/16 06:05:31  5-MIN KABI 171205Z 15011KT 10SM CLR 07/M03 A3016 1570 49 1000 140/11 RMK AO2 T00671033
13962KABI ABI20160217061010502/17/16 06:10:31  5-MIN KABI 171210Z 14010KT 10SM CLR 07/M03 A3016 1570 49 1000 140/10 RMK AO2 T00671033
13962KABI ABI20160217061510502/17/16 06:15:31  5-MIN KABI 171215Z 14010KT 10SM CLR 07/M03 A3016 1570 49 1000 140/10 RMK AO2 T00671033
13962KABI ABI20160217062010502/17/16 06:20:31  5-MIN KABI 171220Z 15010KT 10SM CLR 07/M04 A3017 1560 45 1000 140/10 RMK AO2 T00721039
13962KABI ABI20160217062510502/17/16 06:25:31  5-MIN KABI 171225Z 15008KT 10SM CLR 07/M04 A3017 1560 45 1000 140/08 RMK AO2 T00721039
13962KABI ABI20160217063010502/17/16 06:30:31  5-MIN KABI 171230Z 15009KT 10SM CLR 07/M04 A3017 1560 45 1000 140/09 RMK AO2 T00721039
13962KABI ABI20160217063510502/17/16 06:35:31  5-MIN KABI 171235Z 16008KT 10SM CLR 07/M04 A3017 1560 45 1000 150/08 RMK AO2 T00721039
13962KABI ABI20160217064010502/17/16 06:40:31  5-MIN KABI 171240Z 16008KT 10SM CLR 07/M04 A3018 1560 47 1000 160/08 RMK AO2 T00671039
13962KABI ABI20160217064510502/17/16 06:45:31  5-MIN KABI 171245Z 16007KT 10SM CLR 07/M04 A3018 1550 47 1000 160/07 RMK AO2 T00671039
13962KABI ABI20160217065011202/17/16 06:50:31  5-MIN KABI 171250Z 16007KT 10SM CLR 07/M04 A3018 1550 47 1000 160/07 RMK AO2 SLP214 T00671039
13962KABI ABI20160217065510502/17/16 06:55:31  5-MIN KABI 171255Z 16008KT 10SM CLR 07/M04 A3018 1550 47 1000 150/08 RMK AO2 T00671039
13962KABI ABI20160217070010502/17/16 07:00:31  5-MIN KABI 171300Z 16007KT 10SM CLR 07/M04 A3018 1550 47 1000 150/07 RMK AO2 T00671039
13962KABI ABI20160217070510502/17/16 07:05:31  5-MIN KABI 171305Z 16008KT 10SM CLR 07/M04 A3019 1550 47 1000 150/08 RMK AO2 T00671039
13962KABI ABI20160217071010502/17/16 07:10:31  5-MIN KABI 171310Z 16008KT 10SM CLR 07/M04 A3019 1550 47 1000 160/08 RMK AO2 T00671039
13962KABI ABI20160217071510502/17/16 07:15:31  5-MIN KABI 171315Z 16008KT 10SM CLR 07/M04 A3019 1550 47 1000 150/08 RMK AO2 T00671039
13962KABI ABI20160217072010402/17/16 07:20:31  5-MIN KABI 171320Z 16008KT 10SM CLR 07/M04 A3019 1540 47 900 150/08 RMK AO2 T00671039
13962KABI ABI20160217072510402/17/16 07:25:31  5-MIN KABI 171325Z 16007KT 10SM CLR 06/M04 A3019 1540 48 900 160/07 RMK AO2 T00611039
13962KABI ABI20160217073010302/17/16 07:30:31  5-MIN KABI 171330Z 17006KT 9SM CLR 06/M04 A3020 1540 48 900 160/06 RMK AO2 T00611039
13962KABI ABI20160217073510302/17/16 07:35:31  5-MIN KABI 171335Z 17006KT 9SM CLR 06/M04 A3020 1530 48 900 160/06 RMK AO2 T00611039
13962KABI ABI20160217074010402/17/16 07:40:31  5-MIN KABI 171340Z 17007KT 10SM CLR 06/M04 A3021 1530 48 900 170/07 RMK AO2 T00611039
13962KABI ABI20160217074510402/17/16 07:45:31  5-MIN KABI 171345Z 17006KT 10SM CLR 06/M04 A3021 1520 48 900 170/06 RMK AO2 T00611039
13962KABI ABI20160217075011602/17/16 07:50:31  5-MIN KABI 171350Z AUTO 17006KT 10SM CLR 06/M03 A3022 1520 51 900 160/06 RMK AO2 SLP226 T00611033
13962KABI ABI20160217075511402/17/16 07:55:31  5-MIN KABI 171355Z AUTO 17007KT 10SM CLR 07/M03 A3022 1520 49 900 160/07 RMK AO2 T00671033 TSNO
13962KABI ABI20160217080011402/17/16 08:00:31  5-MIN KABI 171400Z AUTO 16007KT 10SM CLR 07/M03 A3022 1520 49 900 150/07 RMK AO2 T00671033 TSNO
13962KABI ABI20160217080511502/17/16 08:05:31  5-MIN KABI 171405Z AUTO 16007KT 10SM CLR 07/M03 A3022 1520 47 1000 150/07 RMK AO2 T00721033 TSNO
13962KABI ABI20160217081011502/17/16 08:10:31  5-MIN KABI 171410Z AUTO 16008KT 10SM CLR 08/M03 A3022 1510 45 1000 150/08 RMK AO2 T00781033 TSNO
13962KABI ABI20160217081511502/17/16 08:15:31  5-MIN KABI 171415Z AUTO 15006KT 10SM CLR 08/M03 A3022 1510 43 1100 150/06 RMK AO2 T00831033 TSNO
13962KABI ABI20160217082011502/17/16 08:20:31  5-MIN KABI 171420Z AUTO 15006KT 10SM CLR 09/M03 A3023 1510 43 1200 150/06 RMK AO2 T00891028 TSNO
13962KABI ABI20160217082511502/17/16 08:25:31  5-MIN KABI 171425Z AUTO 16010KT 10SM CLR 09/M03 A3023 1510 42 1200 150/10 RMK AO2 T00891033 TSNO
13962KABI ABI20160217083010502/17/16 08:30:31  5-MIN KABI 171430Z 16010KT 10SM CLR 10/M03 A3023 1500 39 1300 150/10 RMK AO2 T01001033
13962KABI ABI20160217083510502/17/16 08:35:31  5-MIN KABI 171435Z 16009KT 10SM CLR 11/M03 A3023 1500 37 1400 150/09 RMK AO2 T01061033
13962KABI ABI20160217084010502/17/16 08:40:31  5-MIN KABI 171440Z 16012KT 10SM CLR 11/M04 A3024 1500 36 1400 160/12 RMK AO2 T01061039
13962KABI ABI20160217084511102/17/16 08:45:31  5-MIN KABI 171445Z 16014G20KT 10SM CLR 11/M04 A3024 1500 34 1400 150/14G20 RMK AO2 T01111039
13962KABI ABI20160217085012402/17/16 08:50:31  5-MIN KABI 171450Z 16014G20KT 10SM CLR 11/M04 A3024 1500 34 1400 160/14G20 RMK AO2 SLP232 T01111039 51007
13962KABI ABI20160217085511102/17/16 08:55:31  5-MIN KABI 171455Z 16014G19KT 10SM CLR 12/M03 A3024 1500 35 1500 150/14G19 RMK AO2 T01171033
13962KABI ABI20160217090011102/17/16 09:00:31  5-MIN KABI 171500Z 16017G21KT 10SM CLR 12/M04 A3024 1500 33 1500 150/17G21 RMK AO2 T01171039
13962KABI ABI20160217090511102/17/16 09:05:31  5-MIN KABI 171505Z 16015G21KT 10SM CLR 12/M03 A3024 1500 35 1500 160/15G21 RMK AO2 T01171033
13962KABI ABI20160217091010502/17/16 09:10:31  5-MIN KABI 171510Z 16018KT 10SM CLR 12/M03 A3024 1500 35 1500 160/18 RMK AO2 T01171033
13962KABI ABI20160217091510502/17/16 09:15:31  5-MIN KABI 171515Z 16018KT 10SM CLR 12/M04 A3024 1500 32 1600 150/18 RMK AO2 T01221039
13962KABI ABI20160217092010502/17/16 09:20:31  5-MIN KABI 171520Z 16018KT 10SM CLR 12/M04 A3024 1500 32 1600 160/18 RMK AO2 T01221039
13962KABI ABI20160217092510502/17/16 09:25:31  5-MIN KABI 171525Z 16015KT 10SM CLR 13/M03 A3024 1500 32 1600 160/15 RMK AO2 T01281033
13962KABI ABI20160217093010502/17/16 09:30:31  5-MIN KABI 171530Z 16015KT 10SM CLR 13/M04 A3024 1500 31 1600 150/15 RMK AO2 T01281039
13962KABI ABI20160217093510502/17/16 09:35:31  5-MIN KABI 171535Z 16017KT 10SM CLR 13/M04 A3024 1500 31 1600 160/17 RMK AO2 T01281039
13962KABI ABI20160217094010502/17/16 09:40:31  5-MIN KABI 171540Z 16017KT 10SM CLR 13/M04 A3024 1500 30 1700 160/17 RMK AO2 T01331039
13962KABI ABI20160217094510502/17/16 09:45:31  5-MIN KABI 171545Z 16019KT 10SM CLR 13/M04 A3024 1500 28 1700 160/19 RMK AO2 T01331044
13962KABI ABI20160217095013602/17/16 09:50:31  5-MIN KABI 171550Z 16020G27KT 10SM CLR 13/M04 A3023 1500 28 1700 150/20G27 RMK AO2 PK WND 16027/1546 SLP231 T01331044
13962KABI ABI20160217095511102/17/16 09:55:31  5-MIN KABI 171555Z 16021G27KT 10SM CLR 14/M04 A3024 1500 29 1800 150/21G27 RMK AO2 T01391039
13962KABI ABI20160217100011102/17/16 10:00:31  5-MIN KABI 171600Z 16019G25KT 10SM CLR 14/M04 A3024 1500 29 1800 160/19G25 RMK AO2 T01391039
13962KABI ABI20160217100511102/17/16 10:05:31  5-MIN KABI 171605Z 16019G24KT 10SM CLR 14/M03 A3024 1500 29 1800 160/19G24 RMK AO2 T01441033
13962KABI ABI20160217101011102/17/16 10:10:31  5-MIN KABI 171610Z 16017G24KT 10SM CLR 14/M03 A3024 1500 29 1800 150/17G24 RMK AO2 T01441033
13962KABI ABI20160217101510502/17/16 10:15:31  5-MIN KABI 171615Z 15018KT 10SM CLR 14/M03 A3024 1500 29 1800 150/18 RMK AO2 T01441033
13962KABI ABI20160217102010502/17/16 10:20:31  5-MIN KABI 171620Z 17016KT 10SM CLR 14/M03 A3024 1500 29 1800 160/16 RMK AO2 T01441033
13962KABI ABI20160217102511102/17/16 10:25:31  5-MIN KABI 171625Z 16017G23KT 10SM CLR 15/M03 A3024 1500 28 1900 150/17G23 RMK AO2 T01501033
13962KABI ABI20160217103011102/17/16 10:30:31  5-MIN KABI 171630Z 16018G23KT 10SM CLR 15/M03 A3024 1500 28 1900 150/18G23 RMK AO2 T01501033
13962KABI ABI20160217103510502/17/16 10:35:31  5-MIN KABI 171635Z 16017KT 10SM CLR 15/M03 A3024 1500 28 1900 150/17 RMK AO2 T01501033
13962KABI ABI20160217104010502/17/16 10:40:31  5-MIN KABI 171640Z 16016KT 10SM CLR 16/M03 A3024 1500 27 2000 160/16 RMK AO2 T01561033
13962KABI ABI20160217104510502/17/16 10:45:31  5-MIN KABI 171645Z 16016KT 10SM CLR 16/M03 A3024 1500 28 2000 160/16 RMK AO2 T01561028
13962KABI ABI20160217105011202/17/16 10:50:31  5-MIN KABI 171650Z 17016KT 10SM CLR 16/M03 A3024 1500 27 2000 160/16 RMK AO2 SLP233 T01611028
13962KABI ABI20160217105510502/17/16 10:55:31  5-MIN KABI 171655Z 17017KT 10SM CLR 16/M03 A3024 1500 27 2000 160/17 RMK AO2 T01611028
13962KABI ABI20160217110010502/17/16 11:00:31  5-MIN KABI 171700Z 16015KT 10SM CLR 16/M03 A3024 1500 27 2000 160/15 RMK AO2 T01611028
13962KABI ABI20160217110511102/17/16 11:05:31  5-MIN KABI 171705Z 16015G21KT 10SM CLR 16/M03 A3024 1500 27 2000 150/15G21 RMK AO2 T01611028
13962KABI ABI20160217111010702/17/16 11:10:31  5-MIN KABI 171710Z 17014KT 10SM CLR 16/M02 A3023 1510 29 2000 160/14 RMK AO2 T01561022 $
13962KABI ABI20160217111509702/17/16 11:15:31  5-MIN KABI 171715Z 10SM CLR 16/M02 A3023 1510 29 2000 M /M RMK AO2 T01561022 $
13962KABI ABI20160217112010702/17/16 11:20:31  5-MIN KABI 171720Z 18015KT 10SM CLR 17/M02 A3023 1510 26 2200 170/15 RMK AO2 T01721022 $
13962KABI ABI20160217112511302/17/16 11:25:31  5-MIN KABI 171725Z 17016G22KT 10SM CLR 17/M02 A3023 1510 26 2200 160/16G22 RMK AO2 T01721022 $
13962KABI ABI20160217113011302/17/16 11:30:31  5-MIN KABI 171730Z 17016G22KT 10SM CLR 18/M02 A3023 1510 25 2200 160/16G22 RMK AO2 T01781022 $
13962KABI ABI20160217113510702/17/16 11:35:31  5-MIN KABI 171735Z 17016KT 10SM CLR 18/M02 A3022 1520 25 2200 170/16 RMK AO2 T01781022 $
13962KABI ABI20160217114010702/17/16 11:40:31  5-MIN KABI 171740Z 17015KT 10SM CLR 18/M02 A3022 1520 26 2200 170/15 RMK AO2 T01781017 $
13962KABI ABI20160217114510702/17/16 11:45:31  5-MIN KABI 171745Z 17014KT 10SM CLR 18/M02 A3022 1520 26 2200 170/14 RMK AO2 T01781017 $
13962KABI ABI20160217115013202/17/16 11:50:31  5-MIN KABI 171750Z 17013KT 10SM CLR 18/M02 A3022 1520 26 2200 170/13 RMK AO2 SLP223 T01781017 10178 20061 51024 $
13962KABI ABI20160217115511302/17/16 11:55:31  5-MIN KABI 171755Z 18015G21KT 10SM CLR 18/M02 A3022 1520 25 2300 170/15G21 RMK AO2 T01831017 $
13962KABI ABI20160217120011302/17/16 12:00:31  5-MIN KABI 171800Z 17016G23KT 10SM CLR 18/M01 A3021 1520 26 2300 160/16G23 RMK AO2 T01831011 $
13962KABI ABI20160217120511302/17/16 12:05:31  5-MIN KABI 171805Z 16015G23KT 10SM CLR 18/M01 A3021 1520 26 2300 160/15G23 RMK AO2 T01831011 $
13962KABI ABI20160217121010502/17/16 12:10:31  5-MIN KABI 171810Z 17017KT 10SM CLR 19/M01 A3021 1530 25 2400 160/17 RMK AO2 T01891011
13962KABI ABI20160217121510502/17/16 12:15:31  5-MIN KABI 171815Z 18014KT 10SM CLR 19/M01 A3021 1530 26 2400 180/14 RMK AO2 T01941006
13962KABI ABI20160217122011102/17/16 12:20:31  5-MIN KABI 171820Z 17016G22KT 10SM CLR 19/M01 A3020 1530 26 2400 160/16G22 RMK AO2 T01891006
13962KABI ABI20160217122511102/17/16 12:25:31  5-MIN KABI 171825Z 18013G22KT 10SM CLR 19/M01 A3020 1530 26 2400 170/13G22 RMK AO2 T01891006
13962KABI ABI20160217123010402/17/16 12:30:31  5-MIN KABI 171830Z 16015KT 10SM CLR 19/00 A3020 1530 27 2400 160/15 RMK AO2 T01940000
13962KABI ABI20160217123511102/17/16 12:35:31  5-MIN KABI 171835Z 17016G21KT 10SM CLR 19/M01 A3020 1540 26 2400 160/16G21 RMK AO2 T01941006
13962KABI ABI20160217124011002/17/16 12:40:31  5-MIN KABI 171840Z 16014G21KT 10SM CLR 20/00 A3019 1540 26 2500 160/14G21 RMK AO2 T02000000
13962KABI ABI20160217124511002/17/16 12:45:31  5-MIN KABI 171845Z 19016G21KT 10SM CLR 20/00 A3019 1540 26 2500 180/16G21 RMK AO2 T02000000
13962KABI ABI20160217125011702/17/16 12:50:31  5-MIN KABI 171850Z 16014G21KT 10SM CLR 20/01 A3019 1550 27 2500 160/14G21 RMK AO2 SLP213 T02000006
13962KABI ABI20160217125510402/17/16 12:55:31  5-MIN KABI 171855Z 17015KT 10SM CLR 20/01 A3019 1550 27 2500 170/15 RMK AO2 T02000006
13962KABI ABI20160217130010402/17/16 13:00:31  5-MIN KABI 171900Z 18014KT 10SM CLR 21/01 A3018 1550 27 2600 180/14 RMK AO2 T02060011
13962KABI ABI20160217130510402/17/16 13:05:31  5-MIN KABI 171905Z 17014KT 10SM CLR 21/01 A3018 1560 27 2600 160/14 RMK AO2 T02060011
13962KABI ABI20160217131011002/17/16 13:10:31  5-MIN KABI 171910Z 18016G22KT 10SM CLR 21/01 A3018 1560 27 2600 180/16G22 RMK AO2 T02060011
13962KABI ABI20160217131511002/17/16 13:15:31  5-MIN KABI 171915Z 18013G22KT 10SM CLR 21/02 A3017 1560 28 2700 180/13G22 RMK AO2 T02110022
13962KABI ABI20160217132011002/17/16 13:20:31  5-MIN KABI 171920Z 16013G21KT 10SM CLR 21/02 A3017 1560 27 2700 160/13G21 RMK AO2 T02110017
13962KABI ABI20160217132511002/17/16 13:25:31  5-MIN KABI 171925Z 19013G21KT 10SM CLR 21/02 A3016 1570 27 2700 180/13G21 RMK AO2 T02110017
13962KABI ABI20160217133011002/17/16 13:30:31  5-MIN KABI 171930Z 19015G21KT 10SM CLR 22/02 A3016 1570 27 2700 190/15G21 RMK AO2 T02170022
13962KABI ABI20160217133510402/17/16 13:35:31  5-MIN KABI 171935Z 17016KT 10SM CLR 21/02 A3016 1570 28 2700 170/16 RMK AO2 T02110022
13962KABI ABI20160217134010402/17/16 13:40:31  5-MIN KABI 171940Z 18013KT 10SM CLR 21/02 A3016 1570 28 2700 180/13 RMK AO2 T02110022
13962KABI ABI20160217134510402/17/16 13:45:31  5-MIN KABI 171945Z 18015KT 10SM CLR 22/02 A3015 1580 27 2800 180/15 RMK AO2 T02170022
13962KABI ABI20160217135011102/17/16 13:50:31  5-MIN KABI 171950Z 19013KT 10SM CLR 22/02 A3015 1580 27 2800 180/13 RMK AO2 SLP200 T02170022
13962KABI ABI20160217135511002/17/16 13:55:31  5-MIN KABI 171955Z 18016G21KT 10SM CLR 22/02 A3015 1580 27 2800 170/16G21 RMK AO2 T02170022
13962KABI ABI20160217140011002/17/16 14:00:31  5-MIN KABI 172000Z 21014G21KT 10SM CLR 22/03 A3015 1580 28 2800 200/14G21 RMK AO2 T02170028
13962KABI ABI20160217140511002/17/16 14:05:31  5-MIN KABI 172005Z 20013G20KT 10SM CLR 22/03 A3014 1590 28 2800 200/13G20 RMK AO2 T02170028
13962KABI ABI20160217141011002/17/16 14:10:31  5-MIN KABI 172010Z 18014G20KT 10SM CLR 22/03 A3014 1590 28 2800 170/14G20 RMK AO2 T02170028
13962KABI ABI20160217141510402/17/16 14:15:31  5-MIN KABI 172015Z 19013KT 10SM CLR 22/03 A3014 1590 27 2800 180/13 RMK AO2 T02220028
13962KABI ABI20160217142011002/17/16 14:20:31  5-MIN KABI 172020Z 18016G19KT 10SM CLR 22/03 A3014 1590 27 2800 180/16G19 RMK AO2 T02220028
13962KABI ABI20160217142511002/17/16 14:25:31  5-MIN KABI 172025Z 18014G19KT 10SM CLR 22/03 A3014 1590 27 2800 180/14G19 RMK AO2 T02220028
13962KABI ABI20160217143010402/17/16 14:30:31  5-MIN KABI 172030Z 18013KT 10SM CLR 22/03 A3014 1590 27 2800 170/13 RMK AO2 T02220028
13962KABI ABI20160217143511002/17/16 14:35:31  5-MIN KABI 172035Z 21013G19KT 10SM CLR 22/03 A3013 1600 27 2800 210/13G19 RMK AO2 T02220028
13962KABI ABI20160217144010402/17/16 14:40:31  5-MIN KABI 172040Z 19012KT 10SM CLR 23/03 A3013 1600 26 2900 180/12 RMK AO2 T02280028
13962KABI ABI20160217144511002/17/16 14:45:31  5-MIN KABI 172045Z 16014G20KT 10SM CLR 22/03 A3013 1600 27 2800 160/14G20 RMK AO2 T02220028
13962KABI ABI20160218002510402/18/16 00:25:31  5-MIN KABI 180625Z 17014KT 10SM CLR 16/04 A3008 1640 47 2100 160/14 RMK AO2 T01560044
13962KABI ABI20160218003010402/18/16 00:30:31  5-MIN KABI 180630Z 17013KT 10SM CLR 16/04 A3008 1640 47 2100 170/13 RMK AO2 T01560044
13962KABI ABI20160218003511002/18/16 00:35:31  5-MIN KABI 180635Z 17014G20KT 10SM CLR 16/04 A3008 1640 47 2100 160/14G20 RMK AO2 T01560044
13962KABI ABI20160218004011002/18/16 00:40:31  5-MIN KABI 180640Z 17014G21KT 10SM CLR 15/04 A3008 1650 49 2100 170/14G21 RMK AO2 T01500044
13962KABI ABI20160218004511002/18/16 00:45:31  5-MIN KABI 180645Z 17015G21KT 10SM CLR 15/04 A3008 1650 49 2100 170/15G21 RMK AO2 T01500044
13962KABI ABI20160218005011102/18/16 00:50:31  5-MIN KABI 180650Z 17013KT 10SM CLR 15/04 A3008 1650 49 2100 170/13 RMK AO2 SLP169 T01500044
13962KABI ABI20160218005510402/18/16 00:55:31  5-MIN KABI 180655Z 17014KT 10SM CLR 15/04 A3008 1650 49 2100 170/14 RMK AO2 T01500044
13962KABI ABI20160218010010402/18/16 01:00:31  5-MIN KABI 180700Z 17014KT 10SM CLR 15/04 A3007 1650 47 2100 160/14 RMK AO2 T01500039
13962KABI ABI20160218010511002/18/16 01:05:31  5-MIN KABI 180705Z 17017G24KT 10SM CLR 15/04 A3007 1650 49 2100 170/17G24 RMK AO2 T01500044
13962KABI ABI20160218011011002/18/16 01:10:31  5-MIN KABI 180710Z 17013G24KT 10SM CLR 15/04 A3007 1650 49 2100 160/13G24 RMK AO2 T01500044
13962KABI ABI20160218011510402/18/16 01:15:31  5-MIN KABI 180715Z 17015KT 10SM CLR 15/04 A3007 1650 49 2100 170/15 RMK AO2 T01500044
13962KABI ABI20160218012010402/18/16 01:20:31  5-MIN KABI 180720Z 17015KT 10SM CLR 14/04 A3007 1650 51 2000 170/15 RMK AO2 T01440044
13962KABI ABI20160218012510402/18/16 01:25:31  5-MIN KABI 180725Z 17015KT 10SM CLR 14/04 A3007 1650 51 2000 160/15 RMK AO2 T01440044
13962KABI ABI20160218013010402/18/16 01:30:31  5-MIN KABI 180730Z 17017KT 10SM CLR 14/04 A3007 1650 51 2000 160/17 RMK AO2 T01440044
13962KABI ABI20160218013510402/18/16 01:35:31  5-MIN KABI 180735Z 17015KT 10SM CLR 14/04 A3007 1650 51 2000 170/15 RMK AO2 T01440044
13962KABI ABI20160218014010402/18/16 01:40:31  5-MIN KABI 180740Z 17016KT 10SM CLR 14/04 A3007 1650 51 2000 170/16 RMK AO2 T01440044
13962KABI ABI20160218014510402/18/16 01:45:31  5-MIN KABI 180745Z 17014KT 10SM CLR 14/04 A3007 1650 51 2000 160/14 RMK AO2 T01440044
13962KABI ABI20160218015011102/18/16 01:50:31  5-MIN KABI 180750Z 17016KT 10SM CLR 14/04 A3007 1650 52 1900 160/16 RMK AO2 SLP167 T01390044
13962KABI ABI20160218015510402/18/16 01:55:31  5-MIN KABI 180755Z 17015KT 10SM CLR 14/04 A3007 1660 52 2000 160/15 RMK AO2 T01390044
13962KABI ABI20160218020010402/18/16 02:00:31  5-MIN KABI 180800Z 17013KT 10SM CLR 14/04 A3007 1660 52 2000 160/13 RMK AO2 T01390044
13962KABI ABI20160218020510402/18/16 02:05:31  5-MIN KABI 180805Z 17014KT 10SM CLR 13/04 A3007 1660 54 1900 160/14 RMK AO2 T01330044
13962KABI ABI20160218021010402/18/16 02:10:31  5-MIN KABI 180810Z 17013KT 10SM CLR 13/04 A3007 1660 54 1900 160/13 RMK AO2 T01330044
13962KABI ABI20160218021510402/18/16 02:15:31  5-MIN KABI 180815Z 17012KT 10SM CLR 13/04 A3007 1660 54 1900 160/12 RMK AO2 T01330044
13962KABI ABI20160218022010402/18/16 02:20:31  5-MIN KABI 180820Z 17012KT 10SM CLR 13/04 A3007 1660 54 1900 160/12 RMK AO2 T01330044
13962KABI ABI20160218022510402/18/16 02:25:31  5-MIN KABI 180825Z 17012KT 10SM CLR 13/04 A3007 1660 56 1800 160/12 RMK AO2 T01280044
13962KABI ABI20160218023010402/18/16 02:30:31  5-MIN KABI 180830Z 17012KT 10SM CLR 13/04 A3006 1660 56 1800 170/12 RMK AO2 T01280044
13962KABI ABI20160218023510402/18/16 02:35:31  5-MIN KABI 180835Z 17013KT 10SM CLR 13/04 A3007 1660 56 1800 170/13 RMK AO2 T01280044
13962KABI ABI20160218024010402/18/16 02:40:31  5-MIN KABI 180840Z 17012KT 10SM CLR 13/04 A3007 1660 56 1800 170/12 RMK AO2 T01280044
13962KABI ABI20160218024510402/18/16 02:45:31  5-MIN KABI 180845Z 16012KT 10SM CLR 13/04 A3007 1660 56 1800 160/12 RMK AO2 T01280044
13962KABI ABI20160218025011702/18/16 02:50:31  5-MIN KABI 180850Z 16011KT 10SM CLR 13/04 A3007 1650 56 1800 150/11 RMK AO2 SLP167 T01280044 50002
13962KABI ABI20160218025510402/18/16 02:55:31  5-MIN KABI 180855Z 15010KT 10SM CLR 13/04 A3007 1660 56 1800 150/10 RMK AO2 T01280044
13962KABI ABI20160218030010402/18/16 03:00:31  5-MIN KABI 180900Z 15011KT 10SM CLR 13/05 A3007 1660 59 1800 150/11 RMK AO2 T01280050
13962KABI ABI20160218030510402/18/16 03:05:31  5-MIN KABI 180905Z 15011KT 10SM CLR 12/05 A3007 1660 61 1800 150/11 RMK AO2 T01220050
13962KABI ABI20160218031010402/18/16 03:10:31  5-MIN KABI 180910Z 16012KT 10SM CLR 13/05 A3006 1660 59 1800 150/12 RMK AO2 T01280050
13962KABI ABI20160218031510402/18/16 03:15:31  5-MIN KABI 180915Z 16011KT 10SM CLR 13/05 A3006 1660 59 1800 150/11 RMK AO2 T01280050
13962KABI ABI20160218032010402/18/16 03:20:31  5-MIN KABI 180920Z 15010KT 10SM CLR 12/05 A3006 1660 61 1800 150/10 RMK AO2 T01220050
13962KABI ABI20160218032510402/18/16 03:25:31  5-MIN KABI 180925Z 15011KT 10SM CLR 12/05 A3006 1660 63 1700 150/11 RMK AO2 T01170050
13962KABI ABI20160218033010402/18/16 03:30:31  5-MIN KABI 180930Z 16012KT 10SM CLR 12/06 A3006 1670 63 1800 160/12 RMK AO2 T01220056
13962KABI ABI20160218033510402/18/16 03:35:31  5-MIN KABI 180935Z 17014KT 10SM CLR 13/06 A3005 1670 61 1800 160/14 RMK AO2 T01280056
13962KABI ABI20160218034010402/18/16 03:40:31  5-MIN KABI 180940Z 17014KT 10SM CLR 13/06 A3005 1670 61 1900 170/14 RMK AO2 T01330061
13962KABI ABI20160218034510402/18/16 03:45:31  5-MIN KABI 180945Z 17013KT 10SM CLR 13/06 A3005 1670 63 1800 170/13 RMK AO2 T01280061
13962KABI ABI20160218035011102/18/16 03:50:31  5-MIN KABI 180950Z 17015KT 10SM CLR 13/06 A3005 1680 61 1900 160/15 RMK AO2 SLP158 T01330061
13962KABI ABI20160218035510402/18/16 03:55:31  5-MIN KABI 180955Z 16014KT 10SM CLR 13/06 A3004 1680 61 1900 160/14 RMK AO2 T01330061
13962KABI ABI20160218040011002/18/16 04:00:31  5-MIN KABI 181000Z 17016G22KT 10SM CLR 13/06 A3004 1680 61 1900 160/16G22 RMK AO2 T01330061
13962KABI ABI20160218040511002/18/16 04:05:31  5-MIN KABI 181005Z 17017G24KT 10SM CLR 13/07 A3004 1690 64 1900 160/17G24 RMK AO2 T01330067
13962KABI ABI20160218041011002/18/16 04:10:31  5-MIN KABI 181010Z 17017G24KT 10SM CLR 13/07 A3003 1690 64 1900 170/17G24 RMK AO2 T01330067
13962KABI ABI20160218041510402/18/16 04:15:31  5-MIN KABI 181015Z 18014KT 10SM CLR 13/07 A3003 1690 64 1900 170/14 RMK AO2 T01330067
13962KABI ABI20160218042011002/18/16 04:20:31  5-MIN KABI 181020Z 18016G24KT 10SM CLR 13/07 A3003 1690 64 1900 170/16G24 RMK AO2 T01330067
13962KABI ABI20160218042511002/18/16 04:25:31  5-MIN KABI 181025Z 18016G24KT 10SM CLR 13/07 A3003 1690 64 1900 170/16G24 RMK AO2 T01330067
13962KABI ABI20160218043011002/18/16 04:30:31  5-MIN KABI 181030Z 18016G23KT 10SM CLR 13/07 A3003 1690 64 1900 180/16G23 RMK AO2 T01330067
13962KABI ABI20160218043511002/18/16 04:35:31  5-MIN KABI 181035Z 18016G24KT 10SM CLR 13/07 A3003 1690 64 1900 170/16G24 RMK AO2 T01330067
13962KABI ABI20160218044011002/18/16 04:40:31  5-MIN KABI 181040Z 18017G24KT 10SM CLR 13/07 A3003 1690 64 1900 170/17G24 RMK AO2 T01330067
13962KABI ABI20160218044510402/18/16 04:45:31  5-MIN KABI 181045Z 17015KT 10SM CLR 13/07 A3003 1690 66 1900 170/15 RMK AO2 T01330072
13962KABI ABI20160218045011702/18/16 04:50:31  5-MIN KABI 181050Z 17013G21KT 10SM CLR 13/07 A3003 1690 66 1900 170/13G21 RMK AO2 SLP152 T01330072
13962KABI ABI20160218045510402/18/16 04:55:31  5-MIN KABI 181055Z 17013KT 10SM CLR 13/07 A3003 1690 69 1900 170/13 RMK AO2 T01280072
13962KABI ABI20160218050010402/18/16 05:00:31  5-MIN KABI 181100Z 18013KT 10SM CLR 13/07 A3003 1690 69 1900 170/13 RMK AO2 T01280072
13962KABI ABI20160218050511002/18/16 05:05:31  5-MIN KABI 181105Z 18013G20KT 10SM CLR 13/07 A3003 1690 66 1900 180/13G20 RMK AO2 T01330072
13962KABI ABI20160218051011002/18/16 05:10:31  5-MIN KABI 181110Z 18014G21KT 10SM CLR 13/07 A3003 1690 66 1900 180/14G21 RMK AO2 T01330072
13962KABI ABI20160218051511002/18/16 05:15:31  5-MIN KABI 181115Z 18015G23KT 10SM CLR 13/08 A3004 1690 69 1900 180/15G23 RMK AO2 T01330078
13962KABI ABI20160218052011002/18/16 05:20:31  5-MIN KABI 181120Z 19015G23KT 10SM CLR 13/08 A3004 1680 69 1900 180/15G23 RMK AO2 T01330078
13962KABI ABI20160218052510902/18/16 05:25:31  5-MIN KABI 181125Z AUTO 19017KT 10SM CLR 13/08 A3004 1690 69 1900 180/17 RMK AO2 T01330078
13962KABI ABI20160218053011402/18/16 05:30:31  5-MIN KABI 181130Z AUTO 19016KT 10SM CLR 13/08 A3004 1680 69 1900 180/16 RMK AO2 T01330078 TSNO
13962KABI ABI20160218053512002/18/16 05:35:31  5-MIN KABI 181135Z AUTO 19015G23KT 10SM CLR 13/08 A3004 1680 69 1900 180/15G23 RMK AO2 T01330078 TSNO
13962KABI ABI20160218054011402/18/16 05:40:31  5-MIN KABI 181140Z AUTO 19017KT 10SM CLR 13/08 A3004 1690 69 1900 180/17 RMK AO2 T01330078 TSNO
13962KABI ABI20160218054511402/18/16 05:45:31  5-MIN KABI 181145Z AUTO 19015KT 10SM CLR 13/08 A3004 1690 69 1900 180/15 RMK AO2 T01330078 TSNO
13962KABI ABI20160218055013902/18/16 05:50:31  5-MIN KABI 181150Z AUTO 18016KT 10SM CLR 13/08 A3003 1690 69 1900 180/16 RMK AO2 SLP154 T01330078 10156 20117 55006 TSNO
13962KABI ABI20160218055511402/18/16 05:55:31  5-MIN KABI 181155Z AUTO 19017KT 10SM CLR 13/08 A3003 1690 69 1900 180/17 RMK AO2 T01330078 TSNO
13962KABI ABI20160218060011402/18/16 06:00:31  5-MIN KABI 181200Z AUTO 19017KT 10SM CLR 13/08 A3003 1690 69 1900 180/17 RMK AO2 T01330078 TSNO
13962KABI ABI20160218060513802/18/16 06:05:31  5-MIN KABI 181205Z AUTO 19021G26KT 10SM CLR 13/08 A3003 1690 69 1900 180/21G26 RMK AO2 PK WND 17026/1204 T01330078 TSNO
13962KABI ABI20160218061013802/18/16 06:10:31  5-MIN KABI 181210Z AUTO 19018G26KT 10SM CLR 13/08 A3003 1690 71 1900 180/18G26 RMK AO2 PK WND 20026/1210 T01330083 TSNO
13962KABI ABI20160218061513802/18/16 06:15:31  5-MIN KABI 181215Z AUTO 19019G27KT 10SM CLR 13/08 A3003 1690 71 1900 180/19G27 RMK AO2 PK WND 18027/1214 T01330083 TSNO
13962KABI ABI20160218062013802/18/16 06:20:31  5-MIN KABI 181220Z AUTO 19019G27KT 10SM CLR 14/08 A3003 1690 69 2000 190/19G27 RMK AO2 PK WND 18027/1214 T01390083 TSNO
13962KABI ABI20160218062513802/18/16 06:25:31  5-MIN KABI 181225Z AUTO 19018G26KT 10SM CLR 14/08 A3004 1690 69 2000 180/18G26 RMK AO2 PK WND 18027/1214 T01390083 TSNO
13962KABI ABI20160218063013802/18/16 06:30:31  5-MIN KABI 181230Z AUTO 19021G27KT 10SM CLR 14/08 A3003 1690 69 2000 190/21G27 RMK AO2 PK WND 18027/1226 T01390083 TSNO
13962KABI ABI20160218063512802/18/16 06:35:31  5-MIN KABI 181235Z 19016G27KT 10SM CLR 14/08 A3003 1690 69 2000 190/16G27 RMK AO2 PK WND 18027/1226 T01390083
13962KABI ABI20160218064012802/18/16 06:40:31  5-MIN KABI 181240Z 20019G26KT 10SM CLR 13/08 A3004 1680 69 1900 190/19G26 RMK AO2 PK WND 18027/1226 T01330078
13962KABI ABI20160218064512802/18/16 06:45:31  5-MIN KABI 181245Z 20013G26KT 10SM CLR 13/08 A3004 1680 69 1900 190/13G26 RMK AO2 PK WND 18027/1226 T01330078
13962KABI ABI20160218065013502/18/16 06:50:31  5-MIN KABI 181250Z 19018G23KT 10SM CLR 13/08 A3004 1680 69 1900 190/18G23 RMK AO2 PK WND 18027/1226 SLP159 T01330078
13962KABI ABI20160218065511002/18/16 06:55:31  5-MIN KABI 181255Z 19018G24KT 10SM CLR 13/08 A3004 1680 69 1900 190/18G24 RMK AO2 T01330078
13962KABI ABI20160218070011002/18/16 07:00:31  5-MIN KABI 181300Z 19018G24KT 10SM CLR 13/08 A3004 1680 69 1900 180/18G24 RMK AO2 T01330078
13962KABI ABI20160218070511002/18/16 07:05:31  5-MIN KABI 181305Z 19018G25KT 10SM CLR 13/08 A3003 1690 69 1900 180/18G25 RMK AO2 T01330078
13962KABI ABI20160218071012802/18/16 07:10:31  5-MIN KABI 181310Z 19020G28KT 10SM CLR 13/08 A3003 1690 69 1900 180/20G28 RMK AO2 PK WND 19028/1308 T01330078
13962KABI ABI20160218071512802/18/16 07:15:31  5-MIN KABI 181315Z 19018G28KT 10SM CLR 13/08 A3003 1690 69 1900 180/18G28 RMK AO2 PK WND 19028/1312 T01330078
13962KABI ABI20160218072012802/18/16 07:20:31  5-MIN KABI 181320Z 19020G30KT 10SM CLR 14/08 A3003 1690 66 2000 180/20G30 RMK AO2 PK WND 20030/1317 T01390078
13962KABI ABI20160218072512802/18/16 07:25:31  5-MIN KABI 181325Z 19022G30KT 10SM CLR 14/08 A3003 1690 66 2000 190/22G30 RMK AO2 PK WND 20030/1317 T01390078
13962KABI ABI20160218073012802/18/16 07:30:31  5-MIN KABI 181330Z 19022G32KT 10SM CLR 14/08 A3003 1690 66 2000 180/22G32 RMK AO2 PK WND 18032/1328 T01390078
13962KABI ABI20160218073512802/18/16 07:35:31  5-MIN KABI 181335Z 19020G32KT 10SM CLR 14/08 A3003 1690 66 2000 180/20G32 RMK AO2 PK WND 18032/1328 T01390078
13962KABI ABI20160218074012802/18/16 07:40:31  5-MIN KABI 181340Z 19022G31KT 10SM CLR 14/08 A3003 1690 66 2000 180/22G31 RMK AO2 PK WND 18032/1328 T01390078
13962KABI ABI20160218074512802/18/16 07:45:31  5-MIN KABI 181345Z 19022G31KT 10SM CLR 14/08 A3004 1690 66 2000 190/22G31 RMK AO2 PK WND 18032/1328 T01390078
13962KABI ABI20160218075013502/18/16 07:50:31  5-MIN KABI 181350Z 19024G32KT 10SM CLR 14/08 A3004 1690 69 2000 180/24G32 RMK AO2 PK WND 18032/1328 SLP158 T01390083
13962KABI ABI20160218075512802/18/16 07:55:31  5-MIN KABI 181355Z 19024G32KT 10SM CLR 14/08 A3004 1680 69 2000 190/24G32 RMK AO2 PK WND 18032/1355 T01390083
13962KABI ABI20160218080012802/18/16 08:00:31  5-MIN KABI 181400Z 19023G35KT 10SM CLR 14/08 A3004 1680 69 2000 180/23G35 RMK AO2 PK WND 21035/1357 T01390083
13962KABI ABI20160218080512802/18/16 08:05:31  5-MIN KABI 181405Z 19024G35KT 10SM CLR 14/08 A3004 1680 69 2000 190/24G35 RMK AO2 PK WND 21035/1357 T01390083
13962KABI ABI20160218081012802/18/16 08:10:31  5-MIN KABI 181410Z 19019G30KT 10SM CLR 14/08 A3005 1670 69 2000 180/19G30 RMK AO2 PK WND 21035/1357 T01390083
13962KABI ABI20160218081512802/18/16 08:15:31  5-MIN KABI 181415Z 19021G30KT 10SM CLR 14/08 A3005 1670 69 2000 180/21G30 RMK AO2 PK WND 21035/1357 T01390083
13962KABI ABI20160218082012802/18/16 08:20:31  5-MIN KABI 181420Z 19020G27KT 10SM CLR 14/08 A3005 1670 66 2000 180/20G27 RMK AO2 PK WND 21035/1357 T01440083
13962KABI ABI20160218082512202/18/16 08:25:31  5-MIN KABI 181425Z 18020KT 10SM CLR 14/08 A3006 1670 66 2000 180/20 RMK AO2 PK WND 21035/1357 T01440083
13962KABI ABI20160218083012802/18/16 08:30:31  5-MIN KABI 181430Z 18020G26KT 10SM CLR 14/08 A3006 1660 66 2000 180/20G26 RMK AO2 PK WND 21035/1357 T01440083
13962KABI ABI20160218083512802/18/16 08:35:31  5-MIN KABI 181435Z 19017G26KT 10SM CLR 14/08 A3006 1660 66 2000 180/17G26 RMK AO2 PK WND 21035/1357 T01440083
13962KABI ABI20160218084012802/18/16 08:40:31  5-MIN KABI 181440Z 18017G25KT 10SM CLR 15/08 A3007 1660 62 2100 180/17G25 RMK AO2 PK WND 21035/1357 T01500078
13962KABI ABI20160218084512802/18/16 08:45:31  5-MIN KABI 181445Z 19019G26KT 10SM CLR 15/08 A3007 1660 62 2100 180/19G26 RMK AO2 PK WND 21035/1357 T01500078
13962KABI ABI20160218085014102/18/16 08:50:31  5-MIN KABI 181450Z 18019G26KT 10SM CLR 15/07 A3007 1650 59 2100 180/19G26 RMK AO2 PK WND 21035/1357 SLP169 T01500072 56013
13962KABI ABI20160218085511002/18/16 08:55:31  5-MIN KABI 181455Z 17020G25KT 10SM CLR 16/07 A3007 1650 57 2100 170/20G25 RMK AO2 T01560072
13962KABI ABI20160218090012802/18/16 09:00:31  5-MIN KABI 181500Z 18018G27KT 10SM CLR 16/07 A3007 1650 57 2100 180/18G27 RMK AO2 PK WND 18027/1458 T01560072
13962KABI ABI20160218090512802/18/16 09:05:31  5-MIN KABI 181505Z 19020G27KT 10SM CLR 16/07 A3007 1650 55 2200 180/20G27 RMK AO2 PK WND 18027/1504 T01610072
13962KABI ABI20160218091012802/18/16 09:10:31  5-MIN KABI 181510Z 17020G27KT 10SM CLR 16/07 A3007 1650 55 2200 170/20G27 RMK AO2 PK WND 18027/1506 T01610072
13962KABI ABI20160218091512802/18/16 09:15:31  5-MIN KABI 181515Z 18019G27KT 10SM CLR 16/08 A3008 1650 57 2200 180/19G27 RMK AO2 PK WND 18027/1506 T01610078
13962KABI ABI20160218092012802/18/16 09:20:31  5-MIN KABI 181520Z 17019G24KT 10SM CLR 17/07 A3008 1650 53 2300 170/19G24 RMK AO2 PK WND 18027/1506 T01670072
13962KABI ABI20160218092512802/18/16 09:25:31  5-MIN KABI 181525Z 17019G25KT 10SM CLR 17/08 A3008 1650 55 2300 160/19G25 RMK AO2 PK WND 18027/1506 T01670078
13962KABI ABI20160218093012802/18/16 09:30:31  5-MIN KABI 181530Z 17019G25KT 10SM CLR 17/08 A3008 1650 55 2300 170/19G25 RMK AO2 PK WND 18027/1506 T01670078
13962KABI ABI20160218093512202/18/16 09:35:31  5-MIN KABI 181535Z 17018KT 10SM CLR 17/08 A3008 1650 53 2300 170/18 RMK AO2 PK WND 18027/1506 T01720078
13962KABI ABI20160218094012802/18/16 09:40:31  5-MIN KABI 181540Z 17020G25KT 10SM CLR 17/08 A3008 1650 53 2300 170/20G25 RMK AO2 PK WND 18027/1506 T01720078
13962KABI ABI20160218094512802/18/16 09:45:31  5-MIN KABI 181545Z 18021G29KT 10SM CLR 17/08 A3008 1640 53 2300 180/21G29 RMK AO2 PK WND 19029/1545 T01720078
13962KABI ABI20160218095013502/18/16 09:50:31  5-MIN KABI 181550Z 18019G29KT 10SM CLR 18/08 A3008 1650 51 2400 180/19G29 RMK AO2 PK WND 19029/1545 SLP171 T01780078
13962KABI ABI20160218095512802/18/16 09:55:31  5-MIN KABI 181555Z 18022G30KT 10SM CLR 18/08 A3008 1650 51 2400 170/22G30 RMK AO2 PK WND 18030/1554 T01780078
13962KABI ABI20160218100012802/18/16 10:00:31  5-MIN KABI 181600Z 17023G30KT 10SM CLR 18/08 A3008 1650 51 2400 170/23G30 RMK AO2 PK WND 18030/1554 T01780078
13962KABI ABI20160218100512802/18/16 10:05:31  5-MIN KABI 181605Z 18022G29KT 10SM CLR 18/07 A3008 1640 49 2400 180/22G29 RMK AO2 PK WND 18030/1554 T01780072
13962KABI ABI20160218101012802/18/16 10:10:31  5-MIN KABI 181610Z 17019G28KT 10SM CLR 18/07 A3008 1640 48 2500 170/19G28 RMK AO2 PK WND 18030/1554 T01830072
13962KABI ABI20160218101512802/18/16 10:15:31  5-MIN KABI 181615Z 18021G28KT 10SM CLR 18/07 A3008 1650 48 2500 170/21G28 RMK AO2 PK WND 18030/1554 T01830072
13962KABI ABI20160218102012802/18/16 10:20:31  5-MIN KABI 181620Z 19018G28KT 10SM CLR 18/07 A3008 1650 48 2500 180/18G28 RMK AO2 PK WND 18030/1554 T01830072
13962KABI ABI20160218102512802/18/16 10:25:31  5-MIN KABI 181625Z 18018G27KT 10SM CLR 19/08 A3008 1650 48 2500 180/18G27 RMK AO2 PK WND 18030/1554 T01890078
13962KABI ABI20160218103012802/18/16 10:30:31  5-MIN KABI 181630Z 18020G28KT 10SM CLR 19/08 A3008 1650 48 2500 170/20G28 RMK AO2 PK WND 18030/1554 T01890078
13962KABI ABI20160218103512802/18/16 10:35:31  5-MIN KABI 181635Z 18019G28KT 10SM CLR 19/08 A3008 1650 48 2600 180/19G28 RMK AO2 PK WND 18030/1554 T01940083
13962KABI ABI20160218104012802/18/16 10:40:31  5-MIN KABI 181640Z 19022G30KT 10SM CLR 19/08 A3008 1650 48 2600 180/22G30 RMK AO2 PK WND 17030/1639 T01940083
13962KABI ABI20160218104511002/18/16 10:45:31  5-MIN KABI 181645Z 10SM 19/08 A3008 1650 48 2600 M /M RMK AO2 PK WND 17030/1639 T01940083 $
13962KABI ABI20160218105013102/18/16 10:50:31  5-MIN KABI 181650Z 18019KT 10SM CLR 19/09 A3008 1650 50 2600 180/19 RMK AO2 PK WND 17030/1639 SLP169 T01940089 $
13962KABI ABI20160218105512602/18/16 10:55:31  5-MIN KABI 181655Z 18021G30KT 10SM 20/09 A3007 1650 48 2700 180/21G30 RMK AO2 PK WND 19030/1653 T02000089 $
13962KABI ABI20160218110012602/18/16 11:00:31  5-MIN KABI 181700Z 18025G30KT 10SM 20/09 A3007 1650 48 2700 180/25G30 RMK AO2 PK WND 19030/1653 T02000089 $
13962KABI ABI20160218110512602/18/16 11:05:31  5-MIN KABI 181705Z 18018G30KT 10SM 21/09 A3006 1660 48 2700 180/18G30 RMK AO2 PK WND 19030/1653 T02060094 $
13962KABI ABI20160218111012802/18/16 11:10:31  5-MIN KABI 181710Z 20016G26KT 10SM CLR 21/09 A3007 1650 48 2700 200/16G26 RMK AO2 PK WND 19030/1653 T02060094
13962KABI ABI20160218111512802/18/16 11:15:31  5-MIN KABI 181715Z 19022G29KT 10SM CLR 21/09 A3008 1650 47 2800 180/22G29 RMK AO2 PK WND 19030/1653 T02110094
13962KABI ABI20160218112012802/18/16 11:20:31  5-MIN KABI 181720Z 18018G30KT 10SM CLR 21/09 A3007 1650 47 2800 170/18G30 RMK AO2 PK WND 19030/1653 T02110094
13962KABI ABI20160218112512802/18/16 11:25:31  5-MIN KABI 181725Z 19017G34KT 10SM CLR 22/10 A3007 1650 47 2800 180/17G34 RMK AO2 PK WND 19034/1722 T02170100
13962KABI ABI20160218113012802/18/16 11:30:31  5-MIN KABI 181730Z 19013G34KT 10SM CLR 22/10 A3007 1650 47 2800 180/13G34 RMK AO2 PK WND 19034/1722 T02170100
13962KABI ABI20160218113512802/18/16 11:35:31  5-MIN KABI 181735Z 18021G30KT 10SM CLR 22/10 A3006 1660 45 2900 180/21G30 RMK AO2 PK WND 19034/1722 T02220100
13962KABI ABI20160218114012802/18/16 11:40:31  5-MIN KABI 181740Z 19023G31KT 10SM CLR 22/10 A3007 1660 45 2900 190/23G31 RMK AO2 PK WND 19034/1722 T02220100
13962KABI ABI20160218114512802/18/16 11:45:31  5-MIN KABI 181745Z 19025G32KT 10SM CLR 22/10 A3006 1660 45 2900 180/25G32 RMK AO2 PK WND 19034/1722 T02220100
13962KABI ABI20160218115015302/18/16 11:50:31  5-MIN KABI 181750Z 18020G32KT 10SM CLR 22/10 A3006 1660 45 2900 180/20G32 RMK AO2 PK WND 19034/1722 SLP162 T02220100 10222 20133 53014
13962KABI ABI20160218115512802/18/16 11:55:31  5-MIN KABI 181755Z 19022G30KT 10SM CLR 23/11 A3006 1660 45 3000 190/22G30 RMK AO2 PK WND 19030/1754 T02280106
13962KABI ABI20160218120012802/18/16 12:00:31  5-MIN KABI 181800Z 19017G30KT 10SM CLR 23/10 A3006 1660 44 3000 180/17G30 RMK AO2 PK WND 19030/1754 T02280100
13962KABI ABI20160218120512802/18/16 12:05:31  5-MIN KABI 181805Z 18021G36KT 10SM CLR 23/11 A3006 1670 45 3000 180/21G36 RMK AO2 PK WND 18036/1802 T02280106
13962KABI ABI20160218121012802/18/16 12:10:31  5-MIN KABI 181810Z 20023G36KT 10SM CLR 23/11 A3006 1670 45 3000 190/23G36 RMK AO2 PK WND 18036/1802 T02280106
13962KABI ABI20160218121512802/18/16 12:15:31  5-MIN KABI 181815Z 18022G34KT 10SM CLR 23/11 A3005 1670 44 3100 180/22G34 RMK AO2 PK WND 18036/1802 T02330106
13962KABI ABI20160218122012802/18/16 12:20:31  5-MIN KABI 181820Z 19020G34KT 10SM CLR 23/11 A3005 1670 44 3100 180/20G34 RMK AO2 PK WND 18036/1802 T02330106
13962KABI ABI20160218122512802/18/16 12:25:31  5-MIN KABI 181825Z 19021G34KT 10SM CLR 24/11 A3005 1680 44 3100 190/21G34 RMK AO2 PK WND 18036/1802 T02390111
13962KABI ABI20160218123012802/18/16 12:30:31  5-MIN KABI 181830Z 18025G31KT 10SM CLR 24/11 A3004 1680 44 3100 170/25G31 RMK AO2 PK WND 18036/1802 T02390111
13962KABI ABI20160218123512802/18/16 12:35:31  5-MIN KABI 181835Z 18022G35KT 10SM CLR 23/11 A3003 1690 45 3100 170/22G35 RMK AO2 PK WND 18036/1802 T02330111
13962KABI ABI20160218124012802/18/16 12:40:31  5-MIN KABI 181840Z 18024G35KT 10SM CLR 24/11 A3003 1690 44 3100 180/24G35 RMK AO2 PK WND 18036/1802 T02390111
13962KABI ABI20160218124512802/18/16 12:45:31  5-MIN KABI 181845Z 19021G32KT 10SM CLR 24/11 A3003 1690 44 3100 180/21G32 RMK AO2 PK WND 18036/1802 T02390111
13962KABI ABI20160218125013502/18/16 12:50:31  5-MIN KABI 181850Z 18026G32KT 10SM CLR 24/11 A3002 1700 44 3100 170/26G32 RMK AO2 PK WND 18036/1802 SLP148 T02390111
13962KABI ABI20160218125512802/18/16 12:55:31  5-MIN KABI 181855Z 18024G32KT 10SM CLR 24/11 A3003 1690 44 3100 180/24G32 RMK AO2 PK WND 18030/1853 T02390111
13962KABI ABI20160218130012802/18/16 13:00:31  5-MIN KABI 181900Z 19025G34KT 10SM CLR 24/11 A3002 1700 42 3200 180/25G34 RMK AO2 PK WND 19034/1900 T02440111
13962KABI ABI20160218130512802/18/16 13:05:31  5-MIN KABI 181905Z 19021G37KT 10SM CLR 24/11 A3002 1700 44 3200 180/21G37 RMK AO2 PK WND 20037/1901 T02390111
13962KABI ABI20160218131012802/18/16 13:10:31  5-MIN KABI 181910Z 20018G37KT 10SM CLR 24/11 A3002 1700 42 3200 190/18G37 RMK AO2 PK WND 20037/1901 T02440111
13962KABI ABI20160218131512802/18/16 13:15:31  5-MIN KABI 181915Z 20025G32KT 10SM CLR 24/11 A3001 1710 42 3200 190/25G32 RMK AO2 PK WND 20037/1901 T02440111
13962KABI ABI20160218132012802/18/16 13:20:31  5-MIN KABI 181920Z 19027G37KT 10SM CLR 24/11 A3000 1720 42 3200 190/27G37 RMK AO2 PK WND 20037/1901 T02440111
13962KABI ABI20160218132512802/18/16 13:25:31  5-MIN KABI 181925Z 20024G37KT 10SM CLR 25/11 A3000 1720 41 3300 200/24G37 RMK AO2 PK WND 20037/1901 T02500111
13962KABI ABI20160218133012802/18/16 13:30:31  5-MIN KABI 181930Z 20026G33KT 10SM CLR 25/11 A3000 1720 39 3300 190/26G33 RMK AO2 PK WND 20037/1901 T02500106
13962KABI ABI20160218133512802/18/16 13:35:31  5-MIN KABI 181935Z 21022G37KT 10SM CLR 25/11 A2999 1730 39 3300 200/22G37 RMK AO2 PK WND 20037/1901 T02500106
13962KABI ABI20160218134012802/18/16 13:40:31  5-MIN KABI 181940Z 20025G37KT 10SM CLR 26/11 A2999 1730 38 3400 200/25G37 RMK AO2 PK WND 20037/1901 T02560106
13962KABI ABI20160218134512802/18/16 13:45:31  5-MIN KABI 181945Z 20024G34KT 10SM CLR 26/11 A2999 1730 38 3400 190/24G34 RMK AO2 PK WND 20037/1901 T02560106
13962KABI ABI20160218135013502/18/16 13:50:31  5-MIN KABI 181950Z 18024G34KT 10SM CLR 26/10 A2999 1730 37 3400 180/24G34 RMK AO2 PK WND 20037/1901 SLP134 T02560100
13962KABI ABI20160218135512802/18/16 13:55:31  5-MIN KABI 181955Z 20026G36KT 10SM CLR 26/10 A2998 1740 37 3400 190/26G36 RMK AO2 PK WND 18036/1953 T02560100
13962KABI ABI20160218140012802/18/16 14:00:31  5-MIN KABI 182000Z 19023G36KT 10SM CLR 26/10 A2998 1740 37 3400 180/23G36 RMK AO2 PK WND 18036/1953 T02560100
13962KABI ABI20160218140512802/18/16 14:05:31  5-MIN KABI 182005Z 20027G39KT 10SM CLR 26/10 A2998 1740 37 3400 200/27G39 RMK AO2 PK WND 20039/2002 T02560100
13962KABI ABI20160218141012802/18/16 14:10:31  5-MIN KABI 182010Z 20023G39KT 10SM CLR 26/10 A2998 1740 36 3500 200/23G39 RMK AO2 PK WND 20039/2002 T02610100
13962KABI ABI20160218141512802/18/16 14:15:31  5-MIN KABI 182015Z 19020G30KT 10SM CLR 27/10 A2998 1740 34 3500 190/20G30 RMK AO2 PK WND 20039/2002 T02670100
13962KABI ABI20160218142012802/18/16 14:20:31  5-MIN KABI 182020Z 19025G33KT 10SM CLR 26/10 A2997 1750 36 3500 190/25G33 RMK AO2 PK WND 20039/2002 T02610100
13962KABI ABI20160218142512802/18/16 14:25:31  5-MIN KABI 182025Z 19023G35KT 10SM CLR 26/09 A2996 1750 34 3500 190/23G35 RMK AO2 PK WND 20039/2002 T02610094
13962KABI ABI20160218143012802/18/16 14:30:31  5-MIN KABI 182030Z 20024G35KT 10SM CLR 26/09 A2996 1750 34 3500 190/24G35 RMK AO2 PK WND 20039/2002 T02610094
13962KABI ABI20160218143512802/18/16 14:35:31  5-MIN KABI 182035Z 20023G34KT 10SM CLR 27/10 A2996 1760 34 3500 200/23G34 RMK AO2 PK WND 20039/2002 T02670100
13962KABI ABI20160218144012802/18/16 14:40:31  5-MIN KABI 182040Z 19027G35KT 10SM CLR 27/09 A2995 1760 33 3500 180/27G35 RMK AO2 PK WND 20039/2002 T02670094
13962KABI ABI20160218144512802/18/16 14:45:31  5-MIN KABI 182045Z 20027G38KT 10SM CLR 27/09 A2995 1760 33 3500 190/27G38 RMK AO2 PK WND 20039/2002 T02670094
13962KABI ABI20160218145014102/18/16 14:50:31  5-MIN KABI 182050Z 19022G38KT 10SM CLR 26/09 A2995 1760 34 3500 190/22G38 RMK AO2 PK WND 20039/2002 SLP125 T02610094 58003
13962KABI ABI20160218145512802/18/16 14:55:31  5-MIN KABI 182055Z 19027G36KT 10SM CLR 27/09 A2995 1760 33 3500 190/27G36 RMK AO2 PK WND 19036/2055 T02670094
13962KABI ABI20160218150012802/18/16 15:00:31  5-MIN KABI 182100Z 19026G36KT 10SM CLR 26/09 A2995 1760 34 3500 190/26G36 RMK AO2 PK WND 19036/2055 T02610094
13962KABI ABI20160218150512802/18/16 15:05:31  5-MIN KABI 182105Z 19026G35KT 10SM CLR 27/09 A2995 1770 33 3500 190/26G35 RMK AO2 PK WND 19036/2055 T02670094
13962KABI ABI20160218151012802/18/16 15:10:31  5-MIN KABI 182110Z 19025G34KT 10SM CLR 27/09 A2995 1770 33 3500 180/25G34 RMK AO2 PK WND 19036/2055 T02670094
13962KABI ABI20160218151512802/18/16 15:15:31  5-MIN KABI 182115Z 19025G36KT 10SM CLR 27/09 A2995 1760 33 3500 190/25G36 RMK AO2 PK WND 20036/2115 T02670094
13962KABI ABI20160218152012802/18/16 15:20:31  5-MIN KABI 182120Z 19026G36KT 10SM CLR 27/09 A2994 1770 32 3600 180/26G36 RMK AO2 PK WND 20036/2115 T02720094
13962KABI ABI20160218152512802/18/16 15:25:31  5-MIN KABI 182125Z 19026G35KT 10SM CLR 27/09 A2994 1770 33 3600 190/26G35 RMK AO2 PK WND 20036/2115 T02670094
13962KABI ABI20160218153012802/18/16 15:30:31  5-MIN KABI 182130Z 18021G35KT 10SM CLR 27/09 A2994 1780 33 3600 180/21G35 RMK AO2 PK WND 20036/2115 T02670094
13962KABI ABI20160218153512802/18/16 15:35:31  5-MIN KABI 182135Z 19022G32KT 10SM CLR 27/09 A2993 1780 33 3600 190/22G32 RMK AO2 PK WND 20036/2115 T02670094
13962KABI ABI20160218154012802/18/16 15:40:31  5-MIN KABI 182140Z 18027G33KT 10SM CLR 27/09 A2993 1780 33 3600 180/27G33 RMK AO2 PK WND 20036/2115 T02670094
13962KABI ABI20160218154512802/18/16 15:45:31  5-MIN KABI 182145Z 19020G33KT 10SM CLR 27/09 A2993 1780 33 3600 190/20G33 RMK AO2 PK WND 20036/2115 T02670094
13962KABI ABI20160218155013502/18/16 15:50:31  5-MIN KABI 182150Z 19025G33KT 10SM CLR 27/09 A2993 1780 32 3600 180/25G33 RMK AO2 PK WND 20036/2115 SLP115 T02720094
13962KABI ABI20160218155512802/18/16 15:55:31  5-MIN KABI 182155Z 18025G33KT 10SM CLR 27/09 A2993 1780 33 3600 170/25G33 RMK AO2 PK WND 18032/2154 T02670094
13962KABI ABI20160218160012802/18/16 16:00:31  5-MIN KABI 182200Z 19023G32KT 10SM CLR 27/09 A2993 1780 32 3600 190/23G32 RMK AO2 PK WND 18032/2154 T02670089
13962KABI ABI20160218160512802/18/16 16:05:31  5-MIN KABI 182205Z 19026G35KT 10SM CLR 27/09 A2992 1790 32 3600 180/26G35 RMK AO2 PK WND 18035/2204 T02670089
13962KABI ABI20160218161012802/18/16 16:10:31  5-MIN KABI 182210Z 19020G35KT 10SM CLR 27/09 A2993 1790 32 3600 180/20G35 RMK AO2 PK WND 18035/2204 T02670089
13962KABI ABI20160218161512802/18/16 16:15:31  5-MIN KABI 182215Z 19021G31KT 10SM CLR 27/09 A2992 1790 31 3600 180/21G31 RMK AO2 PK WND 18035/2204 T02720089
13962KABI ABI20160218162012802/18/16 16:20:31  5-MIN KABI 182220Z 18019G31KT 10SM CLR 27/09 A2992 1790 32 3600 170/19G31 RMK AO2 PK WND 18035/2204 T02670089
13962KABI ABI20160218162512802/18/16 16:25:31  5-MIN KABI 182225Z 18022G31KT 10SM CLR 27/09 A2992 1790 32 3600 170/22G31 RMK AO2 PK WND 18035/2204 T02670089
13962KABI ABI20160218163012802/18/16 16:30:31  5-MIN KABI 182230Z 19023G32KT 10SM CLR 27/09 A2992 1800 32 3600 180/23G32 RMK AO2 PK WND 18035/2204 T02670089
13962KABI ABI20160218163512802/18/16 16:35:31  5-MIN KABI 182235Z 18020G32KT 10SM CLR 27/09 A2991 1800 32 3600 170/20G32 RMK AO2 PK WND 18035/2204 T02670089
13962KABI ABI20160218164012802/18/16 16:40:31  5-MIN KABI 182240Z 18022G29KT 10SM CLR 27/09 A2991 1800 32 3600 180/22G29 RMK AO2 PK WND 18035/2204 T02670089
13962KABI ABI20160218164512802/18/16 16:45:31  5-MIN KABI 182245Z 18019G29KT 10SM CLR 27/09 A2992 1790 32 3600 180/19G29 RMK AO2 PK WND 18035/2204 T02670089
13962KABI ABI20160218165013502/18/16 16:50:31  5-MIN KABI 182250Z 19020G29KT 10SM CLR 27/09 A2992 1790 32 3600 180/20G29 RMK AO2 PK WND 18035/2204 SLP111 T02670089
13962KABI ABI20160218165512802/18/16 16:55:31  5-MIN KABI 182255Z 18016G29KT 10SM CLR 27/08 A2992 1800 31 3600 170/16G29 RMK AO2 PK WND 17027/2255 T02670083
13962KABI ABI20160218170012802/18/16 17:00:31  5-MIN KABI 182300Z 18017G31KT 10SM CLR 27/08 A2992 1790 31 3600 180/17G31 RMK AO2 PK WND 16031/2256 T02670083
13962KABI ABI20160218170512802/18/16 17:05:31  5-MIN KABI 182305Z 18020G31KT 10SM CLR 27/08 A2992 1800 31 3600 180/20G31 RMK AO2 PK WND 16031/2256 T02670083
13962KABI ABI20160218171012802/18/16 17:10:31  5-MIN KABI 182310Z 17024G29KT 10SM CLR 27/08 A2992 1800 31 3600 170/24G29 RMK AO2 PK WND 16031/2256 T02670083
13962KABI ABI20160218171512802/18/16 17:15:31  5-MIN KABI 182315Z 18023G30KT 10SM CLR 27/08 A2992 1800 31 3600 180/23G30 RMK AO2 PK WND 16031/2256 T02670083
13962KABI ABI20160218172012802/18/16 17:20:31  5-MIN KABI 182320Z 18020G30KT 10SM CLR 26/08 A2992 1790 31 3500 170/20G30 RMK AO2 PK WND 16031/2256 T02610078
13962KABI ABI20160218172512802/18/16 17:25:31  5-MIN KABI 182325Z 18020G28KT 10SM CLR 26/08 A2992 1790 32 3500 180/20G28 RMK AO2 PK WND 16031/2256 T02610083
13962KABI ABI20160218173012802/18/16 17:30:31  5-MIN KABI 182330Z 18019G26KT 10SM CLR 26/08 A2992 1790 32 3500 170/19G26 RMK AO2 PK WND 16031/2256 T02610083
13962KABI ABI20160218173512802/18/16 17:35:31  5-MIN KABI 182335Z 18020G26KT 10SM CLR 26/08 A2992 1790 32 3500 180/20G26 RMK AO2 PK WND 16031/2256 T02610083
13962KABI ABI20160218174012802/18/16 17:40:31  5-MIN KABI 182340Z 18021G27KT 10SM CLR 26/08 A2992 1790 32 3500 180/21G27 RMK AO2 PK WND 16031/2256 T02610083
13962KABI ABI20160218174512802/18/16 17:45:31  5-MIN KABI 182345Z 18017G27KT 10SM CLR 26/08 A2992 1790 33 3500 180/17G27 RMK AO2 PK WND 16031/2256 T02560083
13962KABI ABI20160218175015302/18/16 17:50:31  5-MIN KABI 182350Z 18020G27KT 10SM CLR 26/08 A2992 1800 33 3500 180/20G27 RMK AO2 PK WND 16031/2256 SLP112 T02560083 10272 20228 56035
13962KABI ABI20160218175511002/18/16 17:55:31  5-MIN KABI 182355Z 19017G27KT 10SM CLR 26/08 A2992 1790 33 3500 180/17G27 RMK AO2 T02560083
13962KABI ABI20160218180011002/18/16 18:00:31  5-MIN KABI 190000Z 19018G25KT 10SM CLR 25/08 A2992 1790 34 3400 180/18G25 RMK AO2 T02500083
13962KABI ABI20160218180511002/18/16 18:05:31  5-MIN KABI 190005Z 18018G25KT 10SM CLR 25/08 A2992 1790 33 3400 180/18G25 RMK AO2 T02500078
13962KABI ABI20160218181011002/18/16 18:10:31  5-MIN KABI 190010Z 19019G25KT 10SM CLR 25/08 A2992 1790 33 3400 180/19G25 RMK AO2 T02500078
13962KABI ABI20160218181511002/18/16 18:15:31  5-MIN KABI 190015Z 18018G25KT 10SM CLR 25/08 A2992 1790 34 3400 180/18G25 RMK AO2 T02500083
13962KABI ABI20160218182012802/18/16 18:20:31  5-MIN KABI 190020Z 18018G26KT 10SM CLR 24/08 A2992 1790 34 3300 180/18G26 RMK AO2 PK WND 19026/0016 T02440078
13962KABI ABI20160218182512802/18/16 18:25:31  5-MIN KABI 190025Z 18018G26KT 10SM CLR 24/08 A2992 1790 34 3300 180/18G26 RMK AO2 PK WND 19026/0016 T02440078
13962KABI ABI20160218183012802/18/16 18:30:31  5-MIN KABI 190030Z 18015G25KT 10SM CLR 24/08 A2992 1790 35 3300 180/15G25 RMK AO2 PK WND 19026/0016 T02390078
13962KABI ABI20160218183512802/18/16 18:35:31  5-MIN KABI 190035Z 18019G27KT 10SM CLR 24/08 A2993 1790 36 3300 170/19G27 RMK AO2 PK WND 17027/0033 T02390083
13962KABI ABI20160218184012802/18/16 18:40:31  5-MIN KABI 190040Z 18017G27KT 10SM CLR 24/08 A2992 1790 35 3300 170/17G27 RMK AO2 PK WND 17027/0033 T02390078
13962KABI ABI20160218184512202/18/16 18:45:31  5-MIN KABI 190045Z 18017KT 10SM CLR 23/08 A2992 1790 38 3200 180/17 RMK AO2 PK WND 17027/0033 T02330083
13962KABI ABI20160218185012902/18/16 18:50:31  5-MIN KABI 190050Z 18017KT 10SM CLR 23/08 A2992 1790 38 3200 170/17 RMK AO2 PK WND 17027/0033 SLP116 T02330083
13962KABI ABI20160218185511002/18/16 18:55:31  5-MIN KABI 190055Z 18017G24KT 10SM CLR 23/08 A2992 1790 38 3200 170/17G24 RMK AO2 T02330083
13962KABI ABI20160218190011002/18/16 19:00:31  5-MIN KABI 190100Z 18016G24KT 10SM CLR 23/08 A2992 1790 38 3200 170/16G24 RMK AO2 T02330083
13962KABI ABI20160218190510402/18/16 19:05:31  5-MIN KABI 190105Z 18019KT 10SM CLR 23/08 A2992 1790 38 3200 170/19 RMK AO2 T02330083
13962KABI ABI20160218191011002/18/16 19:10:31  5-MIN KABI 190110Z 18018G24KT 10SM CLR 23/08 A2993 1790 39 3100 170/18G24 RMK AO2 T02280083
13962KABI ABI20160218191511002/18/16 19:15:31  5-MIN KABI 190115Z 17018G24KT 10SM CLR 23/08 A2993 1780 39 3100 170/18G24 RMK AO2 T02280083
13962KABI ABI20160218192010402/18/16 19:20:31  5-MIN KABI 190120Z 18021KT 10SM CLR 23/08 A2993 1780 39 3100 170/21 RMK AO2 T02280083
13962KABI ABI20160218192512802/18/16 19:25:31  5-MIN KABI 190125Z 17019G26KT 10SM CLR 23/08 A2993 1780 39 3100 170/19G26 RMK AO2 PK WND 18026/0122 T02280083
13962KABI ABI20160218193012802/18/16 19:30:31  5-MIN KABI 190130Z 18021G28KT 10SM CLR 23/08 A2994 1780 39 3100 170/21G28 RMK AO2 PK WND 17028/0126 T02280083
13962KABI ABI20160218193512802/18/16 19:35:31  5-MIN KABI 190135Z 18022G29KT 10SM CLR 23/08 A2994 1780 39 3100 170/22G29 RMK AO2 PK WND 18029/0133 T02280083
13962KABI ABI20160218194012802/18/16 19:40:31  5-MIN KABI 190140Z 18020G29KT 10SM CLR 23/08 A2994 1770 39 3100 170/20G29 RMK AO2 PK WND 18029/0133 T02280083
13962KABI ABI20160218194512802/18/16 19:45:31  5-MIN KABI 190145Z 18021G29KT 10SM CLR 22/08 A2994 1770 40 3100 170/21G29 RMK AO2 PK WND 18029/0133 T02220083
13962KABI ABI20160218195013502/18/16 19:50:31  5-MIN KABI 190150Z 18021G29KT 10SM CLR 22/09 A2995 1770 42 3000 170/21G29 RMK AO2 PK WND 18029/0133 SLP124 T02220089
13962KABI ABI20160218195512802/18/16 19:55:31  5-MIN KABI 190155Z 18020G27KT 10SM CLR 22/09 A2995 1760 42 3000 170/20G27 RMK AO2 PK WND 18027/0155 T02220089
13962KABI ABI20160218200012802/18/16 20:00:31  5-MIN KABI 190200Z 18020G30KT 10SM CLR 22/09 A2995 1760 42 3000 170/20G30 RMK AO2 PK WND 18030/0157 T02220089
13962KABI ABI20160218200512802/18/16 20:05:31  5-MIN KABI 190205Z 18020G30KT 10SM CLR 22/09 A2995 1760 42 3000 180/20G30 RMK AO2 PK WND 18030/0157 T02220089
13962KABI ABI20160218201012802/18/16 20:10:31  5-MIN KABI 190210Z 18019G29KT 10SM CLR 22/09 A2996 1760 43 3000 180/19G29 RMK AO2 PK WND 18030/0157 T02170089
13962KABI ABI20160218201512802/18/16 20:15:31  5-MIN KABI 190215Z 18020G28KT 10SM CLR 22/09 A2996 1760 43 3000 180/20G28 RMK AO2 PK WND 18030/0157 T02170089
13962KABI ABI20160218202012802/18/16 20:20:31  5-MIN KABI 190220Z 18021G29KT 10SM CLR 22/09 A2996 1760 45 3000 180/21G29 RMK AO2 PK WND 18030/0157 T02170094
13962KABI ABI20160218202512802/18/16 20:25:31  5-MIN KABI 190225Z 19024G31KT 10SM CLR 22/09 A2996 1760 45 3000 180/24G31 RMK AO2 PK WND 18031/0223 T02170094
13962KABI ABI20160218203012802/18/16 20:30:31  5-MIN KABI 190230Z 18024G32KT 10SM CLR 22/09 A2996 1760 45 3000 180/24G32 RMK AO2 PK WND 19032/0229 T02170094
13962KABI ABI20160218203512802/18/16 20:35:31  5-MIN KABI 190235Z 19024G32KT 10SM CLR 22/10 A2996 1750 47 3000 180/24G32 RMK AO2 PK WND 19032/0229 T02170100
13962KABI ABI20160218204012802/18/16 20:40:31  5-MIN KABI 190240Z 19024G31KT 10SM CLR 22/10 A2996 1760 47 3000 180/24G31 RMK AO2 PK WND 19032/0229 T02170100
13962KABI ABI20160218204512802/18/16 20:45:31  5-MIN KABI 190245Z 19022G31KT 10SM CLR 22/10 A2996 1750 47 3000 180/22G31 RMK AO2 PK WND 19032/0229 T02170100
13962KABI ABI20160218205014102/18/16 20:50:31  5-MIN KABI 190250Z 18024G33KT 10SM CLR 21/11 A2997 1750 50 2900 180/24G33 RMK AO2 PK WND 18033/0250 SLP130 T02110106 56012
13962KABI ABI20160218205511002/18/16 20:55:31  5-MIN KABI 190255Z 18021G34KT 10SM CLR 22/11 A2997 1750 49 3000 180/21G34 RMK AO2 T02170106
13962KABI ABI20160218210012802/18/16 21:00:31  5-MIN KABI 190300Z 19021G34KT 10SM CLR 21/11 A2997 1740 50 2900 180/21G34 RMK AO2 PK WND 18030/0258 T02110106
13962KABI ABI20160218210512802/18/16 21:05:31  5-MIN KABI 190305Z 18024G32KT 10SM CLR 21/11 A2997 1750 50 2900 170/24G32 RMK AO2 PK WND 18032/0304 T02110106
13962KABI ABI20160218211012802/18/16 21:10:31  5-MIN KABI 190310Z 19022G32KT 10SM CLR 21/11 A2997 1740 50 2900 180/22G32 RMK AO2 PK WND 18032/0304 T02110106
13962KABI ABI20160218211512802/18/16 21:15:31  5-MIN KABI 190315Z 19021G29KT 10SM CLR 21/11 A2997 1740 50 2900 180/21G29 RMK AO2 PK WND 18032/0304 T02110106
13962KABI ABI20160218212013002/18/16 21:20:31  5-MIN KABI 190320Z 19021G32KT 10SM CLR 21/11 A2998 1740 50 2900 180/21G32 RMK AO2 PK WND 18032/0304 T02110106 $
13962KABI ABI20160218212513002/18/16 21:25:31  5-MIN KABI 190325Z 19020G32KT 10SM CLR 21/11 A2999 1730 52 2800 180/20G32 RMK AO2 PK WND 18032/0304 T02060106 $
13962KABI ABI20160218213013002/18/16 21:30:31  5-MIN KABI 190330Z 18019G30KT 10SM CLR 21/11 A3000 1720 52 2800 180/19G30 RMK AO2 PK WND 18032/0304 T02060106 $
13962KABI ABI20160218213513002/18/16 21:35:31  5-MIN KABI 190335Z 19017G27KT 10SM CLR 21/11 A3000 1720 52 2800 180/17G27 RMK AO2 PK WND 18032/0304 T02060106 $
13962KABI ABI20160218214013002/18/16 21:40:31  5-MIN KABI 190340Z 18018G27KT 10SM CLR 20/11 A3000 1720 54 2700 180/18G27 RMK AO2 PK WND 18032/0304 T02000106 $
13962KABI ABI20160218214513002/18/16 21:45:31  5-MIN KABI 190345Z 18018G25KT 10SM CLR 20/11 A3000 1720 56 2700 180/18G25 RMK AO2 PK WND 18032/0304 T02000111 $
13962KABI ABI20160218215013702/18/16 21:50:31  5-MIN KABI 190350Z 18019G26KT 10SM CLR 20/11 A3000 1720 56 2700 170/19G26 RMK AO2 PK WND 18032/0304 SLP141 T02000111 $
13962KABI ABI20160218215511202/18/16 21:55:31  5-MIN KABI 190355Z 18019G26KT 10SM CLR 20/11 A3000 1720 56 2700 180/19G26 RMK AO2 T02000111 $
13962KABI ABI20160218220011202/18/16 22:00:31  5-MIN KABI 190400Z 18016G24KT 10SM CLR 20/11 A3001 1710 56 2700 180/16G24 RMK AO2 T02000111 $
13962KABI ABI20160218220511202/18/16 22:05:31  5-MIN KABI 190405Z 18013G24KT 10SM CLR 20/11 A3001 1710 56 2700 180/13G24 RMK AO2 T02000111 $
13962KABI ABI20160218221011202/18/16 22:10:31  5-MIN KABI 190410Z 18011G22KT 10SM CLR 20/12 A3002 1700 58 2700 180/11G22 RMK AO2 T02000117 $
13962KABI ABI20160218221510602/18/16 22:15:31  5-MIN KABI 190415Z 19010KT 10SM CLR 19/12 A3002 1700 60 2700 180/10 RMK AO2 T01940117 $
13962KABI ABI20160218222010602/18/16 22:20:31  5-MIN KABI 190420Z 18008KT 10SM CLR 19/12 A3002 1700 60 2700 170/08 RMK AO2 T01940117 $
13962KABI ABI20160218222510602/18/16 22:25:31  5-MIN KABI 190425Z 17008KT 10SM CLR 19/12 A3002 1700 62 2600 170/08 RMK AO2 T01890117 $
13962KABI ABI20160218223010602/18/16 22:30:31  5-MIN KABI 190430Z 18009KT 10SM CLR 19/12 A3001 1710 60 2700 170/09 RMK AO2 T01940117 $
13962KABI ABI20160218223512802/18/16 22:35:31  5-MIN KABI 190435Z 20011G18KT 160V230 10SM CLR 20/12 A3002 1700 58 2700 190/11G18 160V230 RMK AO2 T02000117 $
13962KABI ABI20160218224011202/18/16 22:40:31  5-MIN KABI 190440Z 18008G18KT 10SM CLR 19/12 A3001 1710 60 2700 180/08G18 RMK AO2 T01940117 $
13962KABI ABI20160218224511202/18/16 22:45:31  5-MIN KABI 190445Z 19010G15KT 10SM CLR 19/12 A3001 1710 60 2700 190/10G15 RMK AO2 T01940117 $
13962KABI ABI20160218225011902/18/16 22:50:31  5-MIN KABI 190450Z 19013G18KT 10SM CLR 19/12 A3001 1710 60 2700 180/13G18 RMK AO2 SLP144 T01940117 $
13962KABI ABI20160218225511202/18/16 22:55:31  5-MIN KABI 190455Z 19011G20KT 10SM CLR 19/12 A3000 1720 60 2700 180/11G20 RMK AO2 T01940117 $
13962KABI ABI20160218230011202/18/16 23:00:31  5-MIN KABI 190500Z 19018G25KT 10SM CLR 19/12 A3000 1720 60 2700 180/18G25 RMK AO2 T01940117 $
13962KABI ABI20160218230513002/18/16 23:05:31  5-MIN KABI 190505Z 19015G26KT 10SM CLR 19/12 A3000 1720 60 2700 180/15G26 RMK AO2 PK WND 19026/0503 T01940117 $
13962KABI ABI20160218231013002/18/16 23:10:31  5-MIN KABI 190510Z 19019G28KT 10SM CLR 19/12 A2999 1720 60 2700 180/19G28 RMK AO2 PK WND 19028/0510 T01940117 $
13962KABI ABI20160218231513002/18/16 23:15:31  5-MIN KABI 190515Z 19016G28KT 10SM CLR 19/12 A2999 1730 60 2700 190/16G28 RMK AO2 PK WND 19028/0510 T01940117 $
13962KABI ABI20160218232013002/18/16 23:20:31  5-MIN KABI 190520Z 19019G26KT 10SM CLR 19/12 A2999 1730 60 2700 180/19G26 RMK AO2 PK WND 19028/0510 T01940117 $
13962KABI ABI20160218232513002/18/16 23:25:31  5-MIN KABI 190525Z 19017G30KT 10SM CLR 19/12 A2999 1730 60 2700 190/17G30 RMK AO2 PK WND 19030/0522 T01940117 $
13962KABI ABI20160218233013002/18/16 23:30:31  5-MIN KABI 190530Z 19015G30KT 10SM CLR 19/12 A2999 1730 60 2700 190/15G30 RMK AO2 PK WND 19030/0522 T01940117 $
13962KABI ABI20160218233512402/18/16 23:35:31  5-MIN KABI 190535Z 19018KT 10SM CLR 19/12 A3000 1720 60 2700 190/18 RMK AO2 PK WND 19030/0522 T01940117 $
13962KABI ABI20160218234012402/18/16 23:40:31  5-MIN KABI 190540Z 19017KT 10SM CLR 19/12 A3000 1720 60 2700 190/17 RMK AO2 PK WND 19030/0522 T01940117 $
13962KABI ABI20160218234513002/18/16 23:45:31  5-MIN KABI 190545Z 19019G24KT 10SM CLR 19/12 A3000 1720 60 2700 190/19G24 RMK AO2 PK WND 19030/0522 T01940117 $
13962KABI ABI20160219074511202/19/16 07:45:31  5-MIN KABI 191345Z 19009G17KT 10SM CLR 16/12 A3005 1680 80 2200 190/09G17 RMK AO2 T01560122 $
13962KABI ABI20160219075011302/19/16 07:50:31  5-MIN KABI 191350Z 19011KT 10SM CLR 16/12 A3005 1670 80 2200 190/11 RMK AO2 SLP158 T01560122 $
13962KABI ABI20160219075510602/19/16 07:55:31  5-MIN KABI 191355Z 19010KT 10SM CLR 16/12 A3006 1670 77 2200 180/10 RMK AO2 T01610122 $
13962KABI ABI20160219080010602/19/16 08:00:31  5-MIN KABI 191400Z 18009KT 10SM CLR 16/12 A3006 1670 77 2200 180/09 RMK AO2 T01610122 $
13962KABI ABI20160219080511202/19/16 08:05:31  5-MIN KABI 191405Z 18006G15KT 10SM CLR 16/12 A3006 1660 77 2200 180/06G15 RMK AO2 T01610122 $
13962KABI ABI20160219081011202/19/16 08:10:31  5-MIN KABI 191410Z VRB05G15KT 10SM CLR 16/12 A3007 1660 77 2200 VRB/05G15 RMK AO2 T01610122 $
13962KABI ABI20160219081511202/19/16 08:15:31  5-MIN KABI 191415Z VRB06G16KT 10SM CLR 17/12 A3007 1660 75 2300 VRB/06G16 RMK AO2 T01670122 $
13962KABI ABI20160219082011202/19/16 08:20:31  5-MIN KABI 191420Z 20006G16KT 10SM CLR 17/13 A3007 1650 77 2300 190/06G16 RMK AO2 T01670128 $
13962KABI ABI20160219082510602/19/16 08:25:31  5-MIN KABI 191425Z 20006KT 10SM CLR 17/13 A3007 1650 77 2300 200/06 RMK AO2 T01670128 $
13962KABI ABI20160219083011202/19/16 08:30:31  5-MIN KABI 191430Z 20011G16KT 10SM CLR 17/13 A3007 1650 77 2300 200/11G16 RMK AO2 T01670128 $
13962KABI ABI20160219083511202/19/16 08:35:31  5-MIN KABI 191435Z 20011G16KT 10SM CLR 17/13 A3007 1650 75 2300 190/11G16 RMK AO2 T01720128 $
13962KABI ABI20160219084010602/19/16 08:40:31  5-MIN KABI 191440Z 21013KT 10SM CLR 17/13 A3008 1650 75 2300 200/13 RMK AO2 T01720128 $
13962KABI ABI20160219084510602/19/16 08:45:31  5-MIN KABI 191445Z 21013KT 10SM CLR 17/13 A3008 1650 75 2300 200/13 RMK AO2 T01720128 $
13962KABI ABI20160219085011902/19/16 08:50:31  5-MIN KABI 191450Z 21013KT 10SM CLR 18/13 A3008 1640 72 2400 200/13 RMK AO2 SLP169 T01780128 50002 $
13962KABI ABI20160219085510602/19/16 08:55:31  5-MIN KABI 191455Z 21015KT 10SM CLR 18/13 A3008 1640 72 2400 200/15 RMK AO2 T01780128 $
13962KABI ABI20160219090011202/19/16 09:00:31  5-MIN KABI 191500Z 20015G22KT 10SM CLR 18/13 A3008 1640 72 2400 200/15G22 RMK AO2 T01780128 $
13962KABI ABI20160219090511202/19/16 09:05:31  5-MIN KABI 191505Z 21014G22KT 10SM CLR 18/13 A3009 1640 72 2400 200/14G22 RMK AO2 T01780128 $
13962KABI ABI20160219091010602/19/16 09:10:31  5-MIN KABI 191510Z 21014KT 10SM CLR 18/13 A3009 1640 70 2400 210/14 RMK AO2 T01830128 $
13962KABI ABI20160219091510602/19/16 09:15:31  5-MIN KABI 191515Z 21012KT 10SM CLR 18/13 A3009 1640 72 2400 200/12 RMK AO2 T01830133 $
13962KABI ABI20160219092011202/19/16 09:20:31  5-MIN KABI 191520Z 21015G20KT 10SM CLR 18/13 A3009 1630 72 2400 200/15G20 RMK AO2 T01830133 $
13962KABI ABI20160219092511202/19/16 09:25:31  5-MIN KABI 191525Z 20015G20KT 10SM CLR 18/13 A3009 1640 72 2400 190/15G20 RMK AO2 T01830133 $
13962KABI ABI20160219093011202/19/16 09:30:31  5-MIN KABI 191530Z 22015G22KT 10SM CLR 18/13 A3009 1640 70 2400 210/15G22 RMK AO2 T01830128 $
13962KABI ABI20160219093511202/19/16 09:35:31  5-MIN KABI 191535Z 21013G22KT 10SM CLR 18/13 A3009 1630 72 2400 200/13G22 RMK AO2 T01830133 $
13962KABI ABI20160219094010602/19/16 09:40:31  5-MIN KABI 191540Z 21013KT 10SM CLR 18/13 A3009 1630 72 2400 200/13 RMK AO2 T01830133 $
13962KABI ABI20160219094510602/19/16 09:45:31  5-MIN KABI 191545Z 20015KT 10SM CLR 18/13 A3010 1630 70 2400 200/15 RMK AO2 T01830128 $
13962KABI ABI20160219095011302/19/16 09:50:31  5-MIN KABI 191550Z 21016KT 10SM CLR 19/13 A3010 1630 70 2500 210/16 RMK AO2 SLP174 T01890133 $
13962KABI ABI20160219095510602/19/16 09:55:31  5-MIN KABI 191555Z 22012KT 10SM CLR 19/13 A3010 1620 70 2500 220/12 RMK AO2 T01890133 $
13962KABI ABI20160219100010602/19/16 10:00:31  5-MIN KABI 191600Z 21014KT 10SM CLR 19/13 A3010 1620 70 2500 210/14 RMK AO2 T01890133 $
13962KABI ABI20160219100510602/19/16 10:05:31  5-MIN KABI 191605Z 22014KT 10SM CLR 19/13 A3011 1620 67 2500 210/14 RMK AO2 T01890128 $
13962KABI ABI20160219101010602/19/16 10:10:31  5-MIN KABI 191610Z 20011KT 10SM CLR 19/13 A3011 1620 70 2500 190/11 RMK AO2 T01890133 $
13962KABI ABI20160219101510602/19/16 10:15:31  5-MIN KABI 191615Z 20015KT 10SM CLR 19/13 A3010 1630 70 2500 200/15 RMK AO2 T01890133 $
13962KABI ABI20160219102009202/19/16 10:20:31  5-MIN KABI 191620Z 10SM 19/13 A3010 1620 67 2500 M /M RMK AO2 T01890128 $
13962KABI ABI20160219102509202/19/16 10:25:31  5-MIN KABI 191625Z 10SM 19/13 A3011 1620 67 2500 M /M RMK AO2 T01890128 $
13962KABI ABI20160219103010202/19/16 10:30:31  5-MIN KABI 191630Z 22013KT 10SM 19/13 A3011 1620 67 2500 220/13 RMK AO2 T01890128 $
13962KABI ABI20160219103510202/19/16 10:35:31  5-MIN KABI 191635Z 22013KT 10SM 19/13 A3011 1610 67 2500 210/13 RMK AO2 T01890128 $
13962KABI ABI20160219104010202/19/16 10:40:31  5-MIN KABI 191640Z 21014KT 10SM 19/13 A3011 1610 67 2500 210/14 RMK AO2 T01890128 $
13962KABI ABI20160219104510202/19/16 10:45:31  5-MIN KABI 191645Z 20014KT 10SM 19/13 A3012 1610 67 2500 200/14 RMK AO2 T01890128 $
13962KABI ABI20160219105010902/19/16 10:50:31  5-MIN KABI 191650Z 21012KT 10SM 19/13 A3012 1610 67 2500 210/12 RMK AO2 SLP180 T01890128 $
13962KABI ABI20160219105510402/19/16 10:55:31  5-MIN KABI 191655Z 22012KT 10SM CLR 19/13 A3012 1610 67 2500 220/12 RMK AO2 T01890128
13962KABI ABI20160219110010402/19/16 11:00:31  5-MIN KABI 191700Z 22012KT 10SM CLR 19/13 A3012 1610 67 2500 210/12 RMK AO2 T01890128
13962KABI ABI20160219110510402/19/16 11:05:31  5-MIN KABI 191705Z 20013KT 10SM CLR 19/13 A3013 1600 67 2500 200/13 RMK AO2 T01890128
13962KABI ABI20160219111010402/19/16 11:10:31  5-MIN KABI 191710Z 20012KT 10SM CLR 18/13 A3012 1610 72 2400 190/12 RMK AO2 T01830133
13962KABI ABI20160219111510402/19/16 11:15:31  5-MIN KABI 191715Z 20011KT 10SM CLR 18/13 A3012 1610 72 2400 200/11 RMK AO2 T01830133
13962KABI ABI20160219112010402/19/16 11:20:31  5-MIN KABI 191720Z 22011KT 10SM CLR 19/13 A3012 1600 70 2500 220/11 RMK AO2 T01890133
13962KABI ABI20160219112510402/19/16 11:25:31  5-MIN KABI 191725Z 21013KT 10SM CLR 19/13 A3012 1610 70 2500 210/13 RMK AO2 T01890133
13962KABI ABI20160219113010402/19/16 11:30:31  5-MIN KABI 191730Z 22012KT 10SM CLR 19/13 A3012 1610 67 2500 220/12 RMK AO2 T01940133
13962KABI ABI20160219113510402/19/16 11:35:31  5-MIN KABI 191735Z 21012KT 10SM CLR 19/13 A3012 1610 67 2500 200/12 RMK AO2 T01940133
13962KABI ABI20160219114010402/19/16 11:40:31  5-MIN KABI 191740Z 21011KT 10SM CLR 19/13 A3012 1610 67 2500 210/11 RMK AO2 T01940133
13962KABI ABI20160219114510402/19/16 11:45:31  5-MIN KABI 191745Z 21011KT 10SM CLR 20/13 A3011 1620 65 2600 200/11 RMK AO2 T02000133
13962KABI ABI20160219115012902/19/16 11:50:31  5-MIN KABI 191750Z 22010KT 10SM CLR 21/13 A3011 1620 63 2700 210/10 RMK AO2 SLP176 T02060133 10206 20156 53026
13962KABI ABI20160219115510402/19/16 11:55:31  5-MIN KABI 191755Z 20011KT 10SM CLR 21/14 A3011 1620 63 2700 190/11 RMK AO2 T02110139
13962KABI ABI20160219120010402/19/16 12:00:31  5-MIN KABI 191800Z 20011KT 10SM CLR 21/14 A3010 1620 63 2700 200/11 RMK AO2 T02110139
13962KABI ABI20160219120510402/19/16 12:05:31  5-MIN KABI 191805Z 20012KT 10SM CLR 21/13 A3010 1630 61 2700 200/12 RMK AO2 T02110133
13962KABI ABI20160219121010402/19/16 12:10:31  5-MIN KABI 191810Z 22010KT 10SM CLR 21/13 A3010 1630 61 2700 210/10 RMK AO2 T02110133
13962KABI ABI20160219121510402/19/16 12:15:31  5-MIN KABI 191815Z 22012KT 10SM CLR 22/13 A3010 1630 58 2800 210/12 RMK AO2 T02170133
13962KABI ABI20160219122010402/19/16 12:20:31  5-MIN KABI 191820Z 19011KT 10SM CLR 22/13 A3010 1630 58 2800 190/11 RMK AO2 T02170133
13962KABI ABI20160219122510402/19/16 12:25:31  5-MIN KABI 191825Z 22012KT 10SM CLR 22/13 A3009 1640 56 2900 210/12 RMK AO2 T02220133
13962KABI ABI20160219123010402/19/16 12:30:31  5-MIN KABI 191830Z 20011KT 10SM CLR 22/13 A3009 1640 56 2900 200/11 RMK AO2 T02220133
13962KABI ABI20160219123510402/19/16 12:35:31  5-MIN KABI 191835Z 22011KT 10SM CLR 23/13 A3008 1640 55 3000 220/11 RMK AO2 T02280133
13962KABI ABI20160219124010402/19/16 12:40:31  5-MIN KABI 191840Z 22009KT 10SM CLR 23/13 A3008 1640 53 3000 210/09 RMK AO2 T02280128
13962KABI ABI20160219124510402/19/16 12:45:31  5-MIN KABI 191845Z 22009KT 10SM CLR 23/13 A3008 1640 53 3000 220/09 RMK AO2 T02330133
13962KABI ABI20160219125011702/19/16 12:50:31  5-MIN KABI 191850Z 22011G14KT 10SM CLR 23/13 A3007 1650 53 3000 210/11G14 RMK AO2 SLP164 T02330133
13962KABI ABI20160219125510402/19/16 12:55:31  5-MIN KABI 191855Z 21009KT 10SM CLR 24/13 A3007 1660 51 3100 200/09 RMK AO2 T02390133
13962KABI ABI20160219130010402/19/16 13:00:31  5-MIN KABI 191900Z 22008KT 10SM CLR 24/13 A3007 1660 49 3100 210/08 RMK AO2 T02390128
13962KABI ABI20160219130510402/19/16 13:05:31  5-MIN KABI 191905Z 21008KT 10SM CLR 24/13 A3007 1660 51 3100 210/08 RMK AO2 T02390133
13962KABI ABI20160219131010402/19/16 13:10:31  5-MIN KABI 191910Z 23010KT 10SM CLR 24/13 A3006 1660 51 3100 220/10 RMK AO2 T02390133
13962KABI ABI20160219131512002/19/16 13:15:31  5-MIN KABI 191915Z 22008KT 170V240 10SM CLR 24/13 A3006 1660 49 3100 210/08 170V240 RMK AO2 T02390128
13962KABI ABI20160219132010402/19/16 13:20:31  5-MIN KABI 191920Z 20009KT 10SM CLR 24/13 A3006 1670 49 3200 200/09 RMK AO2 T02440133
13962KABI ABI20160219132510402/19/16 13:25:31  5-MIN KABI 191925Z 22007KT 10SM CLR 24/13 A3005 1670 47 3200 210/07 RMK AO2 T02440128
13962KABI ABI20160219133009302/19/16 13:30:31  5-MIN KABI 191930Z 24/13 A3005 1670 49 3200 M /M RMK AO2 T02440133 RVRNO $
13962KABI ABI20160219133509302/19/16 13:35:31  5-MIN KABI 191935Z 24/13 A3005 1670 49 3200 M /M RMK AO2 T02440133 RVRNO $
13962KABI ABI20160219134010602/19/16 13:40:31  5-MIN KABI 191940Z 24005KT 10SM CLR 26/13 A3005 1680 44 3300 240/05 RMK AO2 T02560128 $
13962KABI ABI20160219134509602/19/16 13:45:31  5-MIN KABI 191945Z 10SM CLR 26/13 A3004 1680 44 3300 M /M RMK AO2 T02560128 $
13962KABI ABI20160219135011102/19/16 13:50:31  5-MIN KABI 191950Z 23007KT 10SM CLR 26/13 A3004 1680 44 3300 230/07 RMK AO2 SLP151 T02560128
13962KABI ABI20160219135510002/19/16 13:55:31  5-MIN KABI 191955Z 26006KT 10SM 26/13 A3004 1680 43 3400 260/06 RMK AO2 T02610128
13962KABI ABI20160219140009002/19/16 14:00:31  5-MIN KABI 192000Z 10SM 26/13 A3004 1680 44 3300 M /M RMK AO2 T02560128
13962KABI ABI20160219140510402/19/16 14:05:31  5-MIN KABI 192005Z VRB04KT 10SM CLR 26/13 A3003 1690 43 3400 VRB/04 RMK AO2 T02610128
13962KABI ABI20160219141010402/19/16 14:10:31  5-MIN KABI 192010Z 23006KT 10SM CLR 26/13 A3003 1690 43 3400 230/06 RMK AO2 T02610128
13962KABI ABI20160219141510402/19/16 14:15:31  5-MIN KABI 192015Z 24003KT 10SM CLR 26/13 A3003 1690 43 3400 230/03 RMK AO2 T02610128
13962KABI ABI20160219142009402/19/16 14:20:31  5-MIN KABI 192020Z 10SM CLR 27/13 A3003 1690 41 3500 M /M RMK AO2 T02670128
13962KABI ABI20160219142510402/19/16 14:25:31  5-MIN KABI 192025Z 22004KT 10SM CLR 26/12 A3002 1700 41 3400 220/04 RMK AO2 T02610122
13962KABI ABI20160219143010402/19/16 14:30:31  5-MIN KABI 192030Z 00000KT 10SM CLR 26/12 A3002 1700 40 3400 000/00 RMK AO2 T02610117
13962KABI ABI20160219143510402/19/16 14:35:31  5-MIN KABI 192035Z VRB05KT 10SM CLR 26/12 A3002 1700 40 3400 VRB/05 RMK AO2 T02610117
13962KABI ABI20160219144010402/19/16 14:40:31  5-MIN KABI 192040Z 13004KT 10SM CLR 26/11 A3002 1700 38 3400 130/04 RMK AO2 T02610111
13962KABI ABI20160219144510402/19/16 14:45:31  5-MIN KABI 192045Z 18005KT 10SM CLR 27/12 A3002 1700 38 3500 170/05 RMK AO2 T02670117
13962KABI ABI20160219145011702/19/16 14:50:31  5-MIN KABI 192050Z 20005KT 10SM CLR 27/12 A3002 1700 38 3500 190/05 RMK AO2 SLP142 T02670117 50007
13962KABI ABI20160219145510402/19/16 14:55:31  5-MIN KABI 192055Z 00000KT 10SM CLR 27/11 A3001 1710 37 3500 000/00 RMK AO2 T02670111
13962KABI ABI20160219150010402/19/16 15:00:31  5-MIN KABI 192100Z 17005KT 10SM CLR 28/11 A3001 1710 33 3600 160/05 RMK AO2 T02780106
13962KABI ABI20160219150510402/19/16 15:05:31  5-MIN KABI 192105Z VRB04KT 10SM CLR 27/11 A3001 1710 34 3500 VRB/04 RMK AO2 T02720106
13962KABI ABI20160219151010402/19/16 15:10:31  5-MIN KABI 192110Z 00000KT 10SM CLR 27/11 A3001 1710 36 3500 000/00 RMK AO2 T02720111
13962KABI ABI20160219151510402/19/16 15:15:31  5-MIN KABI 192115Z 27004KT 10SM CLR 27/11 A3001 1710 34 3500 260/04 RMK AO2 T02720106
13962KABI ABI20160219152010402/19/16 15:20:31  5-MIN KABI 192120Z VRB03KT 10SM CLR 28/10 A3001 1710 32 3600 VRB/03 RMK AO2 T02780100
13962KABI ABI20160219152510402/19/16 15:25:31  5-MIN KABI 192125Z 15004KT 10SM CLR 28/11 A3001 1710 33 3600 140/04 RMK AO2 T02780106
13962KABI ABI20160219153010402/19/16 15:30:31  5-MIN KABI 192130Z VRB04KT 10SM CLR 27/11 A3001 1710 34 3500 VRB/04 RMK AO2 T02720106
13962KABI ABI20160219153510402/19/16 15:35:31  5-MIN KABI 192135Z 14004KT 10SM CLR 27/10 A3000 1720 33 3500 140/04 RMK AO2 T02720100
13962KABI ABI20160219154010402/19/16 15:40:31  5-MIN KABI 192140Z 16004KT 10SM CLR 27/11 A3001 1710 34 3500 150/04 RMK AO2 T02720106
13962KABI ABI20160219154510402/19/16 15:45:31  5-MIN KABI 192145Z 00000KT 10SM CLR 27/11 A3001 1710 34 3500 000/00 RMK AO2 T02720106
13962KABI ABI20160219155011102/19/16 15:50:31  5-MIN KABI 192150Z 15003KT 10SM CLR 27/11 A3001 1710 34 3500 150/03 RMK AO2 SLP139 T02720106
13962KABI ABI20160219155510402/19/16 15:55:31  5-MIN KABI 192155Z 23004KT 10SM CLR 28/11 A3001 1710 33 3600 230/04 RMK AO2 T02780106
13962KABI ABI20160219160010402/19/16 16:00:31  5-MIN KABI 192200Z 00000KT 10SM CLR 27/10 A3000 1720 33 3500 000/00 RMK AO2 T02720100
13962KABI ABI20160219160510402/19/16 16:05:31  5-MIN KABI 192205Z VRB03KT 10SM CLR 28/09 A3001 1710 31 3600 VRB/03 RMK AO2 T02780094
13962KABI ABI20160219161010402/19/16 16:10:31  5-MIN KABI 192210Z 16005KT 10SM CLR 28/09 A3001 1710 30 3600 160/05 RMK AO2 T02780089
13962KABI ABI20160219161510402/19/16 16:15:31  5-MIN KABI 192215Z 16005KT 10SM CLR 27/09 A3001 1710 32 3500 160/05 RMK AO2 T02720094
13962KABI ABI20160219162010402/19/16 16:20:31  5-MIN KABI 192220Z 15004KT 10SM CLR 27/08 A3001 1710 30 3500 150/04 RMK AO2 T02720083
13962KABI ABI20160219162510402/19/16 16:25:31  5-MIN KABI 192225Z VRB03KT 10SM CLR 27/08 A3001 1710 30 3500 VRB/03 RMK AO2 T02720083
13962KABI ABI20160219163010402/19/16 16:30:31  5-MIN KABI 192230Z 16005KT 10SM CLR 27/08 A3001 1710 30 3500 150/05 RMK AO2 T02720083
13962KABI ABI20160219163510402/19/16 16:35:31  5-MIN KABI 192235Z 17006KT 10SM CLR 28/09 A3000 1720 30 3600 160/06 RMK AO2 T02780089
13962KABI ABI20160219164010402/19/16 16:40:31  5-MIN KABI 192240Z 00000KT 10SM CLR 27/08 A3000 1720 30 3500 000/00 RMK AO2 T02720083
13962KABI ABI20160219164510402/19/16 16:45:31  5-MIN KABI 192245Z 17004KT 10SM CLR 27/08 A3001 1710 30 3500 160/04 RMK AO2 T02720083
13962KABI ABI20160219165011102/19/16 16:50:31  5-MIN KABI 192250Z 19003KT 10SM CLR 27/09 A3001 1710 31 3500 180/03 RMK AO2 SLP139 T02720089
13962KABI ABI20160219165510402/19/16 16:55:31  5-MIN KABI 192255Z 15003KT 10SM CLR 27/09 A3000 1710 31 3500 150/03 RMK AO2 T02720089
13962KABI ABI20160219170010402/19/16 17:00:31  5-MIN KABI 192300Z 18006KT 10SM CLR 27/09 A3000 1720 31 3500 170/06 RMK AO2 T02720089
13962KABI ABI20160219170510402/19/16 17:05:31  5-MIN KABI 192305Z 18005KT 10SM CLR 27/09 A3000 1720 31 3500 170/05 RMK AO2 T02720089
13962KABI ABI20160219171010402/19/16 17:10:31  5-MIN KABI 192310Z 18006KT 10SM CLR 27/09 A3000 1720 31 3500 170/06 RMK AO2 T02720089
13962KABI ABI20160219171510402/19/16 17:15:31  5-MIN KABI 192315Z 15005KT 10SM CLR 27/08 A3000 1720 30 3500 150/05 RMK AO2 T02720083
13962KABI ABI20160219172010402/19/16 17:20:31  5-MIN KABI 192320Z 14004KT 10SM CLR 27/08 A3000 1720 31 3500 140/04 RMK AO2 T02670083
13962KABI ABI20160219172510402/19/16 17:25:31  5-MIN KABI 192325Z 13004KT 10SM CLR 26/08 A3001 1710 32 3400 120/04 RMK AO2 T02610083
13962KABI ABI20160219173010402/19/16 17:30:31  5-MIN KABI 192330Z 17003KT 10SM CLR 26/08 A3001 1710 32 3400 160/03 RMK AO2 T02610083
13962KABI ABI20160219173510402/19/16 17:35:31  5-MIN KABI 192335Z 16005KT 10SM CLR 27/09 A3001 1710 32 3500 160/05 RMK AO2 T02670089
13962KABI ABI20160219174010402/19/16 17:40:31  5-MIN KABI 192340Z 16005KT 10SM CLR 27/09 A3000 1720 32 3500 150/05 RMK AO2 T02670089
13962KABI ABI20160219174510402/19/16 17:45:31  5-MIN KABI 192345Z 15005KT 10SM CLR 27/09 A3001 1710 33 3500 150/05 RMK AO2 T02670094
13962KABI ABI20160219175012902/19/16 17:50:31  5-MIN KABI 192350Z 16005KT 10SM CLR 26/09 A3001 1710 33 3400 150/05 RMK AO2 SLP141 T02610089 10283 20206 56030
13962KABI ABI20160219175510402/19/16 17:55:31  5-MIN KABI 192355Z 16006KT 10SM CLR 26/09 A3001 1710 33 3400 150/06 RMK AO2 T02610089
13962KABI ABI20160219180010402/19/16 18:00:31  5-MIN KABI 200000Z 15006KT 10SM CLR 26/09 A3001 1710 34 3400 150/06 RMK AO2 T02560089
13962KABI ABI20160219180510402/19/16 18:05:31  5-MIN KABI 200005Z 14005KT 10SM CLR 24/09 A3001 1710 36 3200 130/05 RMK AO2 T02440089
13962KABI ABI20160219181010402/19/16 18:10:31  5-MIN KABI 200010Z 15006KT 10SM CLR 24/09 A3001 1710 39 3200 140/06 RMK AO2 T02390094
13962KABI ABI20160219181510402/19/16 18:15:31  5-MIN KABI 200015Z 15005KT 10SM CLR 24/09 A3001 1710 38 3200 150/05 RMK AO2 T02390089
13962KABI ABI20160219182010402/19/16 18:20:31  5-MIN KABI 200020Z 15004KT 10SM CLR 24/09 A3001 1710 38 3200 140/04 RMK AO2 T02390089
13962KABI ABI20160219182510402/19/16 18:25:31  5-MIN KABI 200025Z 16004KT 10SM CLR 23/09 A3002 1700 39 3100 160/04 RMK AO2 T02330089
13962KABI ABI20160219183010402/19/16 18:30:31  5-MIN KABI 200030Z 00000KT 10SM CLR 23/09 A3002 1700 39 3100 000/00 RMK AO2 T02330089
13962KABI ABI20160219183510402/19/16 18:35:31  5-MIN KABI 200035Z 19005KT 10SM CLR 23/09 A3002 1700 39 3100 180/05 RMK AO2 T02330089
13962KABI ABI20160219184010402/19/16 18:40:31  5-MIN KABI 200040Z 18005KT 10SM CLR 23/09 A3002 1700 39 3100 170/05 RMK AO2 T02330089
13962KABI ABI20160219184510402/19/16 18:45:31  5-MIN KABI 200045Z 18005KT 10SM CLR 23/09 A3002 1700 41 3100 170/05 RMK AO2 T02330094
13962KABI ABI20160219185011102/19/16 18:50:31  5-MIN KABI 200050Z 17005KT 10SM CLR 23/09 A3002 1700 41 3100 160/05 RMK AO2 SLP146 T02330094
13962KABI ABI20160219185510402/19/16 18:55:31  5-MIN KABI 200055Z 17005KT 10SM CLR 22/09 A3002 1700 43 3000 170/05 RMK AO2 T02220094
13962KABI ABI20160219190010302/19/16 19:00:31  5-MIN KABI 200100Z 16005KT 9SM CLR 22/09 A3002 1700 43 3000 150/05 RMK AO2 T02220094
13962KABI ABI20160219190510302/19/16 19:05:31  5-MIN KABI 200105Z 14006KT 9SM CLR 22/09 A3002 1700 45 2900 140/06 RMK AO2 T02170094
13962KABI ABI20160219191010402/19/16 19:10:31  5-MIN KABI 200110Z 16007KT 10SM CLR 21/09 A3002 1700 47 2800 150/07 RMK AO2 T02110094
13962KABI ABI20160219191510402/19/16 19:15:31  5-MIN KABI 200115Z 16007KT 10SM CLR 22/10 A3002 1700 47 2900 150/07 RMK AO2 T02170100
13962KABI ABI20160219192010402/19/16 19:20:31  5-MIN KABI 200120Z 15006KT 10SM CLR 22/10 A3002 1700 45 3000 150/06 RMK AO2 T02220100
13962KABI ABI20160219192510402/19/16 19:25:31  5-MIN KABI 200125Z 15007KT 10SM CLR 21/11 A3002 1700 50 2800 150/07 RMK AO2 T02110106
13962KABI ABI20160219193010402/19/16 19:30:31  5-MIN KABI 200130Z 16006KT 10SM CLR 21/10 A3003 1700 50 2800 160/06 RMK AO2 T02060100
13962KABI ABI20160219193510402/19/16 19:35:31  5-MIN KABI 200135Z 17006KT 10SM CLR 21/10 A3003 1690 50 2800 160/06 RMK AO2 T02060100
13962KABI ABI20160219194010402/19/16 19:40:31  5-MIN KABI 200140Z 16007KT 10SM CLR 21/11 A3003 1700 50 2800 160/07 RMK AO2 T02110106
13962KABI ABI20160219194510402/19/16 19:45:31  5-MIN KABI 200145Z 15006KT 10SM CLR 21/11 A3003 1690 50 2800 150/06 RMK AO2 T02110106
13962KABI ABI20160219195011102/19/16 19:50:31  5-MIN KABI 200150Z 16006KT 10SM CLR 21/11 A3003 1690 52 2800 160/06 RMK AO2 SLP152 T02060106
13962KABI ABI20160219195510402/19/16 19:55:31  5-MIN KABI 200155Z 16006KT 10SM CLR 21/11 A3003 1690 52 2800 160/06 RMK AO2 T02060106
13962KABI ABI20160219200010402/19/16 20:00:31  5-MIN KABI 200200Z 16007KT 10SM CLR 21/11 A3003 1690 52 2800 160/07 RMK AO2 T02060106
13962KABI ABI20160219200510402/19/16 20:05:31  5-MIN KABI 200205Z 16007KT 10SM CLR 20/11 A3002 1700 54 2700 160/07 RMK AO2 T02000106
13962KABI ABI20160219201010402/19/16 20:10:31  5-MIN KABI 200210Z 16008KT 10SM CLR 20/11 A3002 1700 54 2700 160/08 RMK AO2 T02000106
13962KABI ABI20160219201510402/19/16 20:15:31  5-MIN KABI 200215Z 16007KT 10SM CLR 20/11 A3002 1700 56 2700 160/07 RMK AO2 T02000111
13962KABI ABI20160219202010402/19/16 20:20:31  5-MIN KABI 200220Z 16007KT 10SM CLR 19/11 A3002 1700 58 2600 160/07 RMK AO2 T01940111
13962KABI ABI20160219202510402/19/16 20:25:31  5-MIN KABI 200225Z 17006KT 10SM CLR 19/11 A3003 1690 58 2600 160/06 RMK AO2 T01940111
13962KABI ABI20160219203010402/19/16 20:30:31  5-MIN KABI 200230Z 17006KT 10SM CLR 19/11 A3003 1690 58 2600 160/06 RMK AO2 T01940111
13962KABI ABI20160219203510402/19/16 20:35:31  5-MIN KABI 200235Z 17006KT 10SM CLR 19/11 A3003 1690 58 2600 160/06 RMK AO2 T01940111
13962KABI ABI20160219204010402/19/16 20:40:31  5-MIN KABI 200240Z 16006KT 10SM CLR 19/11 A3003 1690 58 2600 160/06 RMK AO2 T01940111
13962KABI ABI20160219204510402/19/16 20:45:31  5-MIN KABI 200245Z 16006KT 10SM CLR 19/12 A3003 1690 60 2600 150/06 RMK AO2 T01940117
13962KABI ABI20160219205011702/19/16 20:50:31  5-MIN KABI 200250Z 16006KT 10SM CLR 19/12 A3003 1690 62 2600 150/06 RMK AO2 SLP152 T01890117 55002
13962KABI ABI20160219205510402/19/16 20:55:31  5-MIN KABI 200255Z 15006KT 10SM CLR 19/12 A3003 1690 62 2600 150/06 RMK AO2 T01890117
13962KABI ABI20160219210010402/19/16 21:00:31  5-MIN KABI 200300Z 15007KT 10SM CLR 19/12 A3004 1680 62 2600 150/07 RMK AO2 T01890117
13962KABI ABI20160219210510402/19/16 21:05:31  5-MIN KABI 200305Z 15007KT 10SM CLR 19/12 A3004 1690 62 2600 150/07 RMK AO2 T01890117
13962KABI ABI20160219211010402/19/16 21:10:31  5-MIN KABI 200310Z 15008KT 10SM CLR 18/12 A3004 1690 65 2500 140/08 RMK AO2 T01830117
13962KABI ABI20160219211510402/19/16 21:15:31  5-MIN KABI 200315Z 15008KT 10SM CLR 19/12 A3004 1680 60 2600 150/08 RMK AO2 T01940117
13962KABI ABI20160219212010402/19/16 21:20:31  5-MIN KABI 200320Z 15009KT 10SM CLR 20/12 A3004 1680 58 2700 150/09 RMK AO2 T02000117
13962KABI ABI20160219212510402/19/16 21:25:31  5-MIN KABI 200325Z 15009KT 10SM CLR 20/12 A3004 1680 58 2700 140/09 RMK AO2 T02000117
13962KABI ABI20160219213010402/19/16 21:30:31  5-MIN KABI 200330Z 15009KT 10SM CLR 19/12 A3004 1680 60 2600 140/09 RMK AO2 T01940117
13962KABI ABI20160219213510402/19/16 21:35:31  5-MIN KABI 200335Z 15009KT 10SM CLR 19/12 A3004 1680 60 2600 140/09 RMK AO2 T01940117
13962KABI ABI20160219214010402/19/16 21:40:31  5-MIN KABI 200340Z 15009KT 10SM CLR 19/12 A3004 1680 62 2600 140/09 RMK AO2 T01940122
13962KABI ABI20160219214510402/19/16 21:45:31  5-MIN KABI 200345Z 15009KT 10SM CLR 20/12 A3004 1680 60 2700 150/09 RMK AO2 T02000122
13962KABI ABI20160219215011102/19/16 21:50:31  5-MIN KABI 200350Z 15010KT 10SM CLR 20/12 A3004 1690 58 2700 150/10 RMK AO2 SLP153 T02000117
13962KABI ABI20160219215510402/19/16 21:55:31  5-MIN KABI 200355Z 16012KT 10SM CLR 21/12 A3004 1690 56 2800 150/12 RMK AO2 T02060117
13962KABI ABI20160219220010402/19/16 22:00:31  5-MIN KABI 200400Z 16012KT 10SM CLR 21/12 A3004 1690 56 2800 150/12 RMK AO2 T02060117
13962KABI ABI20160219220510402/19/16 22:05:31  5-MIN KABI 200405Z 16012KT 10SM CLR 21/12 A3003 1690 56 2800 160/12 RMK AO2 T02060117
13962KABI ABI20160219221010402/19/16 22:10:31  5-MIN KABI 200410Z 16012KT 10SM CLR 21/12 A3003 1690 56 2800 160/12 RMK AO2 T02060117
13962KABI ABI20160219221510402/19/16 22:15:31  5-MIN KABI 200415Z 16013KT 10SM CLR 21/12 A3003 1690 56 2800 160/13 RMK AO2 T02060117
13962KABI ABI20160219222010402/19/16 22:20:31  5-MIN KABI 200420Z 16014KT 10SM CLR 21/11 A3003 1690 54 2800 160/14 RMK AO2 T02060111
13962KABI ABI20160219222510402/19/16 22:25:31  5-MIN KABI 200425Z 16013KT 10SM CLR 21/11 A3003 1690 54 2800 150/13 RMK AO2 T02060111
13962KABI ABI20160219223010402/19/16 22:30:31  5-MIN KABI 200430Z 16013KT 10SM CLR 21/11 A3003 1690 54 2800 160/13 RMK AO2 T02060111
13962KABI ABI20160219223510402/19/16 22:35:31  5-MIN KABI 200435Z 16012KT 10SM CLR 21/11 A3003 1690 54 2800 160/12 RMK AO2 T02060111
13962KABI ABI20160219224010402/19/16 22:40:31  5-MIN KABI 200440Z 16012KT 10SM CLR 21/11 A3004 1690 54 2800 160/12 RMK AO2 T02060111
13962KABI ABI20160219224510402/19/16 22:45:31  5-MIN KABI 200445Z 16013KT 10SM CLR 21/11 A3003 1690 54 2800 160/13 RMK AO2 T02060111
13962KABI ABI20160219225011102/19/16 22:50:31  5-MIN KABI 200450Z 16012KT 10SM CLR 21/11 A3003 1690 54 2800 160/12 RMK AO2 SLP150 T02060111
13962KABI ABI20160219225510402/19/16 22:55:31  5-MIN KABI 200455Z 16012KT 10SM CLR 21/11 A3003 1690 54 2800 160/12 RMK AO2 T02060111
13962KABI ABI20160219230010902/19/16 23:00:31  5-MIN KABI 200500Z 16013G19KT 9SM CLR 21/11 A3003 1690 54 2800 160/13G19 RMK AO2 T02060111
13962KABI ABI20160219230511002/19/16 23:05:31  5-MIN KABI 200505Z 17012G19KT 10SM CLR 21/11 A3003 1690 54 2800 160/12G19 RMK AO2 T02060111
13962KABI ABI20160219231010402/19/16 23:10:31  5-MIN KABI 200510Z 17014KT 10SM CLR 21/11 A3003 1690 54 2800 170/14 RMK AO2 T02060111
13962KABI ABI20160219231510402/19/16 23:15:31  5-MIN KABI 200515Z 17014KT 10SM CLR 21/11 A3003 1690 54 2800 170/14 RMK AO2 T02060111
13962KABI ABI20160219232011002/19/16 23:20:31  5-MIN KABI 200520Z 18014G20KT 10SM CLR 21/11 A3003 1690 54 2800 180/14G20 RMK AO2 T02060111
13962KABI ABI20160219232511002/19/16 23:25:31  5-MIN KABI 200525Z 18014G21KT 10SM CLR 21/11 A3003 1690 54 2800 170/14G21 RMK AO2 T02060111
13962KABI ABI20160219233011002/19/16 23:30:31  5-MIN KABI 200530Z 18017G22KT 10SM CLR 21/11 A3003 1700 54 2800 170/17G22 RMK AO2 T02060111
13962KABI ABI20160219233511002/19/16 23:35:31  5-MIN KABI 200535Z 18018G23KT 10SM CLR 21/11 A3002 1700 54 2800 170/18G23 RMK AO2 T02060111
13962KABI ABI20160219234011002/19/16 23:40:31  5-MIN KABI 200540Z 17015G23KT 10SM CLR 21/11 A3002 1700 54 2800 170/15G23 RMK AO2 T02060111
13962KABI ABI20160219234511002/19/16 23:45:31  5-MIN KABI 200545Z 17016G23KT 10SM CLR 21/11 A3002 1700 54 2800 170/16G23 RMK AO2 T02060111
13962KABI ABI20160219235013902/19/16 23:50:31  5-MIN KABI 200550Z 17014KT 10SM CLR 20/11 A3002 1700 56 2700 170/14 RMK AO2 SLP147 T02000111 10261 20183 402830156 51008
13962KABI ABI20160219235510402/19/16 23:55:31  5-MIN KABI 200555Z 18015KT 10SM CLR 20/11 A3003 1700 56 2700 170/15 RMK AO2 T02000111
13962KABI ABI20160220000011002/20/16 00:00:31  5-MIN KABI 200600Z 18012G21KT 10SM CLR 20/11 A3003 1690 56 2700 170/12G21 RMK AO2 T02000111
13962KABI ABI20160220000511002/20/16 00:05:31  5-MIN KABI 200605Z 17013G21KT 10SM CLR 20/11 A3003 1690 56 2700 170/13G21 RMK AO2 T02000111
13962KABI ABI20160220001010402/20/16 00:10:31  5-MIN KABI 200610Z 18011KT 10SM CLR 20/11 A3003 1690 56 2700 180/11 RMK AO2 T02000111
13962KABI ABI20160220001510402/20/16 00:15:31  5-MIN KABI 200615Z 18013KT 10SM CLR 20/11 A3003 1690 56 2700 180/13 RMK AO2 T02000111
13962KABI ABI20160220002011002/20/16 00:20:31  5-MIN KABI 200620Z 19015G21KT 10SM CLR 21/12 A3003 1690 56 2800 190/15G21 RMK AO2 T02060117
13962KABI ABI20160220002511002/20/16 00:25:31  5-MIN KABI 200625Z 19016G22KT 10SM CLR 21/12 A3003 1690 56 2800 190/16G22 RMK AO2 T02060117
13962KABI ABI20160220003011002/20/16 00:30:31  5-MIN KABI 200630Z 20015G22KT 10SM CLR 21/12 A3003 1690 56 2800 190/15G22 RMK AO2 T02060117
13962KABI ABI20160220003511002/20/16 00:35:31  5-MIN KABI 200635Z 20014G21KT 10SM CLR 21/12 A3003 1690 56 2800 200/14G21 RMK AO2 T02060117
13962KABI ABI20160220004011002/20/16 00:40:31  5-MIN KABI 200640Z 20016G24KT 10SM CLR 21/12 A3003 1690 56 2800 190/16G24 RMK AO2 T02060117
13962KABI ABI20160220004511002/20/16 00:45:31  5-MIN KABI 200645Z 20015G24KT 10SM CLR 20/12 A3003 1690 58 2700 200/15G24 RMK AO2 T02000117
13962KABI ABI20160220005011102/20/16 00:50:31  5-MIN KABI 200650Z 19015KT 10SM CLR 20/12 A3002 1700 58 2700 190/15 RMK AO2 SLP144 T02000117
13962KABI ABI20160220005511002/20/16 00:55:31  5-MIN KABI 200655Z 19013G20KT 10SM CLR 20/12 A3002 1700 58 2700 190/13G20 RMK AO2 T02000117
13962KABI ABI20160220010010402/20/16 01:00:31  5-MIN KABI 200700Z 20013KT 10SM CLR 20/12 A3002 1700 58 2700 190/13 RMK AO2 T02000117
13962KABI ABI20160220010510402/20/16 01:05:31  5-MIN KABI 200705Z 19013KT 10SM CLR 20/12 A3002 1700 58 2700 190/13 RMK AO2 T02000117
13962KABI ABI20160220011010402/20/16 01:10:31  5-MIN KABI 200710Z 20013KT 10SM CLR 20/12 A3002 1700 60 2700 190/13 RMK AO2 T02000122
13962KABI ABI20160220011511002/20/16 01:15:31  5-MIN KABI 200715Z 20010G18KT 10SM CLR 19/12 A3002 1700 60 2600 190/10G18 RMK AO2 T01940117
13962KABI ABI20160220012011002/20/16 01:20:31  5-MIN KABI 200720Z 20013G17KT 10SM CLR 19/12 A3002 1700 60 2600 200/13G17 RMK AO2 T01940117
13962KABI ABI20160220012511002/20/16 01:25:31  5-MIN KABI 200725Z 20013G20KT 10SM CLR 19/12 A3002 1700 60 2600 190/13G20 RMK AO2 T01940117
13962KABI ABI20160220013011002/20/16 01:30:31  5-MIN KABI 200730Z 20011G20KT 10SM CLR 19/12 A3002 1700 60 2600 190/11G20 RMK AO2 T01940117
13962KABI ABI20160220013510402/20/16 01:35:31  5-MIN KABI 200735Z 20010KT 10SM CLR 19/12 A3002 1700 60 2600 190/10 RMK AO2 T01940117
13962KABI ABI20160220014010402/20/16 01:40:31  5-MIN KABI 200740Z 19010KT 10SM CLR 19/12 A3002 1700 60 2600 190/10 RMK AO2 T01940117
13962KABI ABI20160220014510402/20/16 01:45:31  5-MIN KABI 200745Z 19011KT 10SM CLR 19/12 A3002 1700 60 2700 190/11 RMK AO2 T01940117
13962KABI ABI20160220015011102/20/16 01:50:31  5-MIN KABI 200750Z 19010KT 10SM CLR 19/12 A3002 1700 62 2600 190/10 RMK AO2 SLP143 T01890117
13962KABI ABI20160220015510402/20/16 01:55:31  5-MIN KABI 200755Z 19010KT 10SM CLR 19/12 A3002 1700 60 2700 190/10 RMK AO2 T01940117
13962KABI ABI20160220020010402/20/16 02:00:31  5-MIN KABI 200800Z 19008KT 10SM CLR 19/12 A3002 1700 62 2600 190/08 RMK AO2 T01890117
13962KABI ABI20160220020510402/20/16 02:05:31  5-MIN KABI 200805Z 19009KT 10SM CLR 19/12 A3001 1710 65 2600 180/09 RMK AO2 T01890122
13962KABI ABI20160220021010402/20/16 02:10:31  5-MIN KABI 200810Z 18008KT 10SM CLR 19/12 A3002 1700 65 2600 180/08 RMK AO2 T01890122
13962KABI ABI20160220021510402/20/16 02:15:31  5-MIN KABI 200815Z 20008KT 10SM CLR 19/12 A3001 1710 65 2600 190/08 RMK AO2 T01890122
13962KABI ABI20160220022010402/20/16 02:20:31  5-MIN KABI 200820Z 18007KT 10SM CLR 19/12 A3001 1710 65 2600 180/07 RMK AO2 T01890122
13962KABI ABI20160220022510402/20/16 02:25:31  5-MIN KABI 200825Z 19007KT 10SM CLR 19/12 A3001 1710 65 2600 190/07 RMK AO2 T01890122
13962KABI ABI20160220023010402/20/16 02:30:31  5-MIN KABI 200830Z 18007KT 10SM CLR 18/12 A3001 1710 67 2500 180/07 RMK AO2 T01830122
13962KABI ABI20160220023510402/20/16 02:35:31  5-MIN KABI 200835Z 17005KT 10SM CLR 19/12 A3001 1710 65 2600 170/05 RMK AO2 T01890122
13962KABI ABI20160220024010402/20/16 02:40:31  5-MIN KABI 200840Z VRB06KT 10SM CLR 18/12 A3001 1710 67 2500 VRB/06 RMK AO2 T01830122
13962KABI ABI20160220024510402/20/16 02:45:31  5-MIN KABI 200845Z VRB04KT 10SM CLR 19/12 A3000 1710 65 2600 VRB/04 RMK AO2 T01890122
13962KABI ABI20160220025011702/20/16 02:50:31  5-MIN KABI 200850Z 15003KT 10SM CLR 19/12 A3001 1710 65 2600 150/03 RMK AO2 SLP138 T01890122 58003
13962KABI ABI20160220025510402/20/16 02:55:31  5-MIN KABI 200855Z VRB03KT 10SM CLR 19/12 A3001 1710 65 2600 VRB/03 RMK AO2 T01890122
13962KABI ABI20160220030010402/20/16 03:00:31  5-MIN KABI 200900Z 18005KT 10SM CLR 19/12 A3001 1710 65 2600 180/05 RMK AO2 T01890122
13962KABI ABI20160220030510402/20/16 03:05:31  5-MIN KABI 200905Z 20006KT 10SM CLR 18/12 A3001 1710 67 2500 190/06 RMK AO2 T01830122
13962KABI ABI20160220031010402/20/16 03:10:31  5-MIN KABI 200910Z VRB06KT 10SM CLR 19/12 A3001 1710 65 2600 VRB/06 RMK AO2 T01890122
13962KABI ABI20160220031510402/20/16 03:15:31  5-MIN KABI 200915Z 17006KT 10SM CLR 19/12 A3001 1710 65 2600 170/06 RMK AO2 T01890122
13962KABI ABI20160220032010402/20/16 03:20:31  5-MIN KABI 200920Z 19009KT 10SM CLR 19/12 A3001 1710 65 2600 180/09 RMK AO2 T01890122
13962KABI ABI20160220032510402/20/16 03:25:31  5-MIN KABI 200925Z 19008KT 10SM CLR 19/12 A3001 1710 65 2600 190/08 RMK AO2 T01890122
13962KABI ABI20160220033010402/20/16 03:30:31  5-MIN KABI 200930Z 19009KT 10SM CLR 19/12 A3000 1720 65 2600 190/09 RMK AO2 T01890122
13962KABI ABI20160220033510402/20/16 03:35:31  5-MIN KABI 200935Z 19009KT 10SM CLR 19/12 A3000 1720 65 2600 180/09 RMK AO2 T01890122
13962KABI ABI20160220034010402/20/16 03:40:31  5-MIN KABI 200940Z 18006KT 10SM CLR 19/12 A3000 1720 65 2600 170/06 RMK AO2 T01890122
13962KABI ABI20160220034510402/20/16 03:45:31  5-MIN KABI 200945Z 17009KT 10SM CLR 18/12 A3000 1720 67 2500 170/09 RMK AO2 T01830122
13962KABI ABI20160220035011102/20/16 03:50:31  5-MIN KABI 200950Z 18009KT 10SM CLR 19/12 A2999 1720 65 2600 170/09 RMK AO2 SLP133 T01890122
13962KABI ABI20160220035510402/20/16 03:55:31  5-MIN KABI 200955Z 17012KT 10SM CLR 18/12 A2999 1730 67 2600 160/12 RMK AO2 T01830122
13962KABI ABI20160220040010402/20/16 04:00:31  5-MIN KABI 201000Z 18012KT 10SM CLR 18/12 A2999 1730 67 2600 180/12 RMK AO2 T01830122
13962KABI ABI20160220040510402/20/16 04:05:31  5-MIN KABI 201005Z 18013KT 10SM CLR 18/12 A2998 1730 67 2600 180/13 RMK AO2 T01830122
13962KABI ABI20160220041010402/20/16 04:10:31  5-MIN KABI 201010Z 19013KT 10SM CLR 18/12 A2998 1730 69 2500 180/13 RMK AO2 T01780122
13962KABI ABI20160220041510402/20/16 04:15:31  5-MIN KABI 201015Z 19011KT 10SM CLR 18/12 A2998 1730 69 2500 180/11 RMK AO2 T01780122
13962KABI ABI20160220042010402/20/16 04:20:31  5-MIN KABI 201020Z 19010KT 10SM CLR 18/12 A2999 1730 69 2500 180/10 RMK AO2 T01780122
13962KABI ABI20160220042511002/20/16 04:25:31  5-MIN KABI 201025Z 17008G17KT 10SM CLR 18/12 A2999 1730 67 2500 170/08G17 RMK AO2 T01780117
13962KABI ABI20160220043010402/20/16 04:30:31  5-MIN KABI 201030Z 17008KT 10SM CLR 17/12 A2999 1730 72 2400 160/08 RMK AO2 T01720122
13962KABI ABI20160220043510402/20/16 04:35:31  5-MIN KABI 201035Z 17007KT 10SM CLR 18/12 A2999 1730 69 2500 160/07 RMK AO2 T01780122
13962KABI ABI20160220044010402/20/16 04:40:31  5-MIN KABI 201040Z 16008KT 10SM CLR 18/12 A2999 1730 69 2500 150/08 RMK AO2 T01780122
13962KABI ABI20160220044510402/20/16 04:45:31  5-MIN KABI 201045Z 16004KT 10SM CLR 18/12 A2999 1730 69 2500 150/04 RMK AO2 T01780122
13962KABI ABI20160220045011102/20/16 04:50:31  5-MIN KABI 201050Z 18006KT 10SM CLR 18/12 A2999 1730 67 2600 170/06 RMK AO2 SLP133 T01830122
13962KABI ABI20160220045510402/20/16 04:55:31  5-MIN KABI 201055Z 17007KT 10SM CLR 18/12 A2999 1730 67 2600 170/07 RMK AO2 T01830122
13962KABI ABI20160220050010402/20/16 05:00:31  5-MIN KABI 201100Z 19007KT 10SM CLR 18/12 A2999 1730 67 2600 190/07 RMK AO2 T01830122
13962KABI ABI20160220050510402/20/16 05:05:31  5-MIN KABI 201105Z 20009KT 10SM CLR 18/12 A3000 1720 67 2500 190/09 RMK AO2 T01830122
13962KABI ABI20160220051010402/20/16 05:10:31  5-MIN KABI 201110Z 19009KT 10SM CLR 18/12 A3000 1720 67 2500 180/09 RMK AO2 T01830122
13962KABI ABI20160220051510402/20/16 05:15:31  5-MIN KABI 201115Z 19009KT 10SM CLR 18/12 A2999 1730 67 2600 180/09 RMK AO2 T01830122
13962KABI ABI20160220052010402/20/16 05:20:31  5-MIN KABI 201120Z 19006KT 10SM CLR 18/12 A3000 1720 67 2500 180/06 RMK AO2 T01830122
13962KABI ABI20160220052510402/20/16 05:25:31  5-MIN KABI 201125Z 18009KT 10SM CLR 18/12 A2999 1720 67 2600 180/09 RMK AO2 T01830122
13962KABI ABI20160220053010402/20/16 05:30:31  5-MIN KABI 201130Z 19009KT 10SM CLR 18/12 A2999 1720 67 2600 180/09 RMK AO2 T01830122
13962KABI ABI20160220053510402/20/16 05:35:31  5-MIN KABI 201135Z 18009KT 10SM CLR 18/12 A3000 1720 69 2500 180/09 RMK AO2 T01780122
13962KABI ABI20160220054010402/20/16 05:40:31  5-MIN KABI 201140Z 19008KT 10SM CLR 18/12 A3000 1720 69 2500 180/08 RMK AO2 T01780122
13962KABI ABI20160220054510402/20/16 05:45:31  5-MIN KABI 201145Z 18011KT 10SM CLR 18/12 A2999 1730 69 2500 180/11 RMK AO2 T01780122
13962KABI ABI20160220055012902/20/16 05:50:31  5-MIN KABI 201150Z 18010KT 10SM CLR 18/13 A2999 1720 72 2500 170/10 RMK AO2 SLP134 T01780128 10206 20172 58005
13962KABI ABI20160220055510402/20/16 05:55:31  5-MIN KABI 201155Z 18011KT 10SM CLR 18/13 A2999 1720 72 2500 170/11 RMK AO2 T01780128
13962KABI ABI20160220060010602/20/16 06:00:31  5-MIN KABI 201200Z 16009KT 10SM CLR 18/13 A2999 1720 72 2500 160/09 RMK AO2 T01780128 $
13962KABI ABI20160220060510602/20/16 06:05:31  5-MIN KABI 201205Z 18009KT 10SM CLR 18/13 A3000 1720 72 2500 170/09 RMK AO2 T01780128 $
13962KABI ABI20160220061010602/20/16 06:10:31  5-MIN KABI 201210Z 17009KT 10SM CLR 18/13 A2999 1720 72 2500 160/09 RMK AO2 T01780128 $
13962KABI ABI20160220061511202/20/16 06:15:31  5-MIN KABI 201215Z 16010G20KT 10SM CLR 17/13 A2999 1730 75 2400 160/10G20 RMK AO2 T01720128 $
13962KABI ABI20160220062011202/20/16 06:20:31  5-MIN KABI 201220Z 17008G20KT 10SM CLR 17/13 A2999 1730 75 2400 160/08G20 RMK AO2 T01720128 $
13962KABI ABI20160220062510602/20/16 06:25:31  5-MIN KABI 201225Z 15007KT 10SM CLR 17/13 A2999 1730 75 2400 140/07 RMK AO2 T01720128 $
13962KABI ABI20160220063010602/20/16 06:30:31  5-MIN KABI 201230Z 16010KT 10SM CLR 17/13 A2999 1730 77 2400 150/10 RMK AO2 T01670128 $
13962KABI ABI20160220063510602/20/16 06:35:31  5-MIN KABI 201235Z 18009KT 10SM CLR 17/13 A3000 1720 77 2400 170/09 RMK AO2 T01670128 $
13962KABI ABI20160220064011202/20/16 06:40:31  5-MIN KABI 201240Z 18008G15KT 10SM CLR 17/13 A3000 1720 75 2400 170/08G15 RMK AO2 T01720128 $
13962KABI ABI20160220064510602/20/16 06:45:31  5-MIN KABI 201245Z 17008KT 10SM CLR 17/13 A3000 1720 80 2400 160/08 RMK AO2 T01670133 $
13962KABI ABI20160220065011302/20/16 06:50:31  5-MIN KABI 201250Z 17007KT 10SM CLR 17/13 A3000 1720 80 2300 170/07 RMK AO2 SLP140 T01670133 $
13962KABI ABI20160220065510602/20/16 06:55:31  5-MIN KABI 201255Z 18008KT 10SM CLR 17/13 A3000 1720 80 2300 180/08 RMK AO2 T01670133 $
13962KABI ABI20160220070012202/20/16 07:00:31  5-MIN KABI 201300Z 19007KT 140V210 10SM CLR 17/13 A3001 1710 80 2300 180/07 140V210 RMK AO2 T01670133 $
13962KABI ABI20160220070510602/20/16 07:05:31  5-MIN KABI 201305Z 18005KT 10SM CLR 17/13 A3000 1710 80 2300 170/05 RMK AO2 T01670133 $
13962KABI ABI20160220071010602/20/16 07:10:31  5-MIN KABI 201310Z 20008KT 10SM CLR 17/13 A3001 1710 80 2300 190/08 RMK AO2 T01670133 $
13962KABI ABI20160220071510602/20/16 07:15:31  5-MIN KABI 201315Z 20010KT 10SM CLR 17/13 A3001 1710 80 2300 200/10 RMK AO2 T01670133 $
13962KABI ABI20160220072010602/20/16 07:20:31  5-MIN KABI 201320Z 22012KT 10SM CLR 17/13 A3001 1710 80 2300 220/12 RMK AO2 T01670133 $
13962KABI ABI20160220072510602/20/16 07:25:31  5-MIN KABI 201325Z 20012KT 10SM CLR 17/13 A3001 1710 80 2300 200/12 RMK AO2 T01670133 $
13962KABI ABI20160220073010602/20/16 07:30:31  5-MIN KABI 201330Z 20012KT 10SM CLR 17/13 A3001 1710 80 2300 200/12 RMK AO2 T01670133 $
13962KABI ABI20160220073510502/20/16 07:35:31  5-MIN KABI 201335Z 21010KT 9SM CLR 16/13 A3002 1700 83 2300 210/10 RMK AO2 T01610133 $
13962KABI ABI20160220074010502/20/16 07:40:31  5-MIN KABI 201340Z 22010KT 9SM CLR 16/13 A3003 1690 83 2300 210/10 RMK AO2 T01610133 $
13962KABI ABI20160220074511202/20/16 07:45:31  5-MIN KABI 201345Z 23006KT 9SM CLR 16/13 A3003 1690 83 2300 230/06 RMK AO2 PRESRR T01610133 $
13962KABI ABI20160220075011202/20/16 07:50:31  5-MIN KABI 201350Z 24006KT 9SM CLR 16/13 A3004 1690 83 2200 230/06 RMK AO2 SLP154 T01610133 $
13962KABI ABI20160220075510802/20/16 07:55:31  5-MIN KABI 201355Z 28006KT 9SM FEW014 16/13 A3004 1680 83 2200 270/06 RMK AO2 T01610133 $
13962KABI ABI20160220080012402/20/16 08:00:31  5-MIN KABI 201400Z 26008KT 210V280 8SM FEW014 16/14 A3004 1680 86 2200 260/08 210V280 RMK AO2 T01610139 $
13962KABI ABI20160220080510802/20/16 08:05:31  5-MIN KABI 201405Z 24008KT 8SM FEW014 16/14 A3004 1690 90 2200 230/08 RMK AO2 T01560139 $
13962KABI ABI20160220081010802/20/16 08:10:31  5-MIN KABI 201410Z 25006KT 8SM FEW014 16/14 A3004 1680 86 2200 250/06 RMK AO2 T01610139 $
13962KABI ABI20160220081510802/20/16 08:15:31  5-MIN KABI 201415Z 26007KT 8SM FEW014 16/14 A3004 1680 86 2200 250/07 RMK AO2 T01610139 $
13962KABI ABI20160220082010802/20/16 08:20:31  5-MIN KABI 201420Z 22008KT 8SM FEW013 16/14 A3004 1680 86 2200 210/08 RMK AO2 T01610139 $
13962KABI ABI20160220082510502/20/16 08:25:31  5-MIN KABI 201425Z 25006KT 9SM CLR 16/14 A3005 1680 86 2200 250/06 RMK AO2 T01610139 $
13962KABI ABI20160220083010502/20/16 08:30:31  5-MIN KABI 201430Z 25006KT 9SM CLR 16/14 A3005 1670 86 2200 240/06 RMK AO2 T01610139 $
13962KABI ABI20160220083510502/20/16 08:35:31  5-MIN KABI 201435Z 22005KT 9SM CLR 17/14 A3005 1680 83 2300 220/05 RMK AO2 T01670139 $
13962KABI ABI20160220084010502/20/16 08:40:31  5-MIN KABI 201440Z 23007KT 9SM CLR 17/14 A3005 1680 83 2300 220/07 RMK AO2 T01670139 $
13962KABI ABI20160220084510502/20/16 08:45:31  5-MIN KABI 201445Z 21013KT 9SM CLR 17/14 A3005 1680 83 2300 200/13 RMK AO2 T01670139 $
13962KABI ABI20160220085011802/20/16 08:50:31  5-MIN KABI 201450Z 21012KT 9SM CLR 17/14 A3005 1670 83 2300 210/12 RMK AO2 SLP161 T01670139 55004 $
13962KABI ABI20160220085510502/20/16 08:55:31  5-MIN KABI 201455Z 21010KT 9SM CLR 17/14 A3005 1670 83 2300 210/10 RMK AO2 T01670139 $
13962KABI ABI20160220090010502/20/16 09:00:31  5-MIN KABI 201500Z 21013KT 9SM CLR 17/14 A3005 1670 83 2300 200/13 RMK AO2 T01670139 $
13962KABI ABI20160220090510802/20/16 09:05:31  5-MIN KABI 201505Z 22011KT 9SM FEW012 17/14 A3006 1670 83 2300 210/11 RMK AO2 T01670139 $
13962KABI ABI20160220091010802/20/16 09:10:31  5-MIN KABI 201510Z 22008KT 9SM SCT012 17/14 A3006 1670 83 2300 220/08 RMK AO2 T01670139 $
13962KABI ABI20160220091510802/20/16 09:15:31  5-MIN KABI 201515Z 21012KT 9SM BKN012 17/14 A3005 1670 86 2300 210/12 RMK AO2 T01670144 $
13962KABI ABI20160220092010802/20/16 09:20:31  5-MIN KABI 201520Z 21010KT 8SM SCT012 17/14 A3005 1670 83 2400 210/10 RMK AO2 T01720144 $
13962KABI ABI20160220092510802/20/16 09:25:31  5-MIN KABI 201525Z 22010KT 8SM SCT012 17/14 A3005 1670 83 2400 220/10 RMK AO2 T01720144 $
13962KABI ABI20160220093010802/20/16 09:30:31  5-MIN KABI 201530Z 21009KT 8SM SCT012 17/14 A3005 1670 83 2400 210/09 RMK AO2 T01720144 $
13962KABI ABI20160220093510802/20/16 09:35:31  5-MIN KABI 201535Z 22011KT 8SM FEW012 17/14 A3005 1670 83 2400 220/11 RMK AO2 T01720144 $
13962KABI ABI20160220094010802/20/16 09:40:31  5-MIN KABI 201540Z 21010KT 8SM FEW012 18/14 A3005 1670 81 2400 200/10 RMK AO2 T01780144 $
13962KABI ABI20160220094510502/20/16 09:45:31  5-MIN KABI 201545Z 22010KT 8SM CLR 18/14 A3005 1670 81 2400 210/10 RMK AO2 T01780144 $
13962KABI ABI20160220095011202/20/16 09:50:31  5-MIN KABI 201550Z 21011KT 8SM CLR 18/15 A3005 1670 83 2400 200/11 RMK AO2 SLP159 T01780150 $
13962KABI ABI20160220095510502/20/16 09:55:31  5-MIN KABI 201555Z 22012KT 8SM CLR 18/15 A3005 1670 81 2500 210/12 RMK AO2 T01830150 $
13962KABI ABI20160220100010502/20/16 10:00:31  5-MIN KABI 201600Z 22011KT 8SM CLR 18/15 A3006 1670 81 2500 210/11 RMK AO2 T01830150 $
13962KABI ABI20160220100510502/20/16 10:05:31  5-MIN KABI 201605Z 22012KT 8SM CLR 18/15 A3005 1670 81 2500 210/12 RMK AO2 T01830150 $
13962KABI ABI20160220101010502/20/16 10:10:31  5-MIN KABI 201610Z 22011KT 8SM CLR 18/15 A3005 1670 81 2500 220/11 RMK AO2 T01830150 $
13962KABI ABI20160220101510502/20/16 10:15:31  5-MIN KABI 201615Z 23012KT 8SM CLR 19/15 A3005 1670 78 2500 220/12 RMK AO2 T01890150 $
13962KABI ABI20160220102010502/20/16 10:20:31  5-MIN KABI 201620Z 22012KT 8SM CLR 19/15 A3005 1680 78 2600 220/12 RMK AO2 T01890150 $
13962KABI ABI20160220102510502/20/16 10:25:31  5-MIN KABI 201625Z 22013KT 8SM CLR 19/15 A3005 1680 78 2600 210/13 RMK AO2 T01890150 $
13962KABI ABI20160220103010502/20/16 10:30:31  5-MIN KABI 201630Z 22012KT 8SM CLR 19/15 A3005 1680 78 2600 210/12 RMK AO2 T01890150 $
13962KABI ABI20160220103510502/20/16 10:35:31  5-MIN KABI 201635Z 22012KT 8SM CLR 19/15 A3005 1680 78 2600 210/12 RMK AO2 T01890150 $
13962KABI ABI20160220104010502/20/16 10:40:31  5-MIN KABI 201640Z 23012KT 8SM CLR 19/15 A3005 1670 78 2600 220/12 RMK AO2 T01890150 $
13962KABI ABI20160220104510502/20/16 10:45:31  5-MIN KABI 201645Z 22014KT 7SM CLR 19/14 A3005 1670 75 2600 220/14 RMK AO2 T01890144 $
13962KABI ABI20160220105011202/20/16 10:50:31  5-MIN KABI 201650Z 22011KT 7SM CLR 19/15 A3005 1670 78 2500 210/11 RMK AO2 SLP157 T01890150 $
13962KABI ABI20160220105510502/20/16 10:55:31  5-MIN KABI 201655Z 21014KT 7SM CLR 19/15 A3005 1670 78 2600 210/14 RMK AO2 T01890150 $
13962KABI ABI20160220110010502/20/16 11:00:31  5-MIN KABI 201700Z 23014KT 7SM CLR 19/15 A3005 1670 75 2600 230/14 RMK AO2 T01940150 $
13962KABI ABI20160220110510502/20/16 11:05:31  5-MIN KABI 201705Z 22013KT 7SM CLR 19/15 A3005 1670 75 2600 220/13 RMK AO2 T01940150 $
13962KABI ABI20160220111010502/20/16 11:10:31  5-MIN KABI 201710Z 23015KT 7SM CLR 19/15 A3005 1670 75 2600 230/15 RMK AO2 T01940150 $
13962KABI ABI20160220111510502/20/16 11:15:31  5-MIN KABI 201715Z 22014KT 8SM CLR 19/15 A3004 1680 75 2600 210/14 RMK AO2 T01940150 $
13962KABI ABI20160220112010502/20/16 11:20:31  5-MIN KABI 201720Z 21015KT 8SM CLR 19/15 A3004 1680 75 2600 210/15 RMK AO2 T01940150 $
13962KABI ABI20160220112510502/20/16 11:25:31  5-MIN KABI 201725Z 21016KT 7SM CLR 19/15 A3004 1680 75 2600 210/16 RMK AO2 T01940150 $
13962KABI ABI20160220113010502/20/16 11:30:31  5-MIN KABI 201730Z 22017KT 8SM CLR 20/15 A3004 1690 72 2700 210/17 RMK AO2 T02000150 $
13962KABI ABI20160220113510502/20/16 11:35:31  5-MIN KABI 201735Z 22014KT 8SM CLR 20/15 A3003 1690 72 2700 220/14 RMK AO2 T02000150 $
13962KABI ABI20160220114010502/20/16 11:40:31  5-MIN KABI 201740Z 22015KT 8SM CLR 20/15 A3004 1690 72 2700 220/15 RMK AO2 T02000150 $
13962KABI ABI20160220114510502/20/16 11:45:31  5-MIN KABI 201745Z 23011KT 8SM CLR 21/15 A3004 1690 70 2800 220/11 RMK AO2 T02060150 $
13962KABI ABI20160220115013002/20/16 11:50:31  5-MIN KABI 201750Z 23015KT 8SM CLR 21/15 A3003 1690 68 2800 230/15 RMK AO2 SLP149 T02110150 10211 20156 53019 $
13962KABI ABI20160220115510502/20/16 11:55:31  5-MIN KABI 201755Z 22012KT 8SM CLR 21/15 A3003 1690 68 2800 210/12 RMK AO2 T02110150 $
13962KABI ABI20160220120010502/20/16 12:00:31  5-MIN KABI 201800Z 22013KT 8SM CLR 21/15 A3003 1700 68 2800 210/13 RMK AO2 T02110150 $
13962KABI ABI20160220120510502/20/16 12:05:31  5-MIN KABI 201805Z 23013KT 8SM CLR 21/15 A3002 1700 68 2800 220/13 RMK AO2 T02110150 $
13962KABI ABI20160220121010502/20/16 12:10:31  5-MIN KABI 201810Z 21012KT 8SM CLR 21/15 A3002 1700 68 2800 200/12 RMK AO2 T02110150 $
13962KABI ABI20160220121510502/20/16 12:15:31  5-MIN KABI 201815Z 21012KT 8SM CLR 22/15 A3002 1700 65 2900 210/12 RMK AO2 T02170150 $
13962KABI ABI20160220122010502/20/16 12:20:31  5-MIN KABI 201820Z 21013KT 8SM CLR 22/15 A3001 1710 63 3000 210/13 RMK AO2 T02220150 $
13962KABI ABI20160220122510502/20/16 12:25:31  5-MIN KABI 201825Z 21012KT 8SM CLR 22/15 A3001 1710 63 3000 210/12 RMK AO2 T02220150 $
13962KABI ABI20160220123010502/20/16 12:30:31  5-MIN KABI 201830Z 23013KT 9SM CLR 23/15 A3001 1710 61 3000 230/13 RMK AO2 T02280150 $
13962KABI ABI20160220123510502/20/16 12:35:31  5-MIN KABI 201835Z 21011KT 9SM CLR 23/15 A3001 1710 61 3000 200/11 RMK AO2 T02280150 $
13962KABI ABI20160220124010502/20/16 12:40:31  5-MIN KABI 201840Z 22012KT 8SM CLR 22/15 A3001 1710 63 3000 210/12 RMK AO2 T02220150 $
13962KABI ABI20160220124510502/20/16 12:45:31  5-MIN KABI 201845Z 21012KT 8SM CLR 22/15 A3000 1720 63 3000 200/12 RMK AO2 T02220150 $
13962KABI ABI20160220125011202/20/16 12:50:31  5-MIN KABI 201850Z 21012KT 9SM CLR 23/15 A3000 1720 61 3100 210/12 RMK AO2 SLP137 T02280150 $
13962KABI ABI20160220125510502/20/16 12:55:31  5-MIN KABI 201855Z 21012KT 9SM CLR 23/15 A3000 1720 61 3100 200/12 RMK AO2 T02280150 $
13962KABI ABI20160220130010502/20/16 13:00:31  5-MIN KABI 201900Z 21011KT 9SM CLR 23/15 A3000 1720 61 3100 200/11 RMK AO2 T02280150 $
13962KABI ABI20160220130510502/20/16 13:05:31  5-MIN KABI 201905Z 21013KT 9SM CLR 22/15 A2999 1730 63 3000 200/13 RMK AO2 T02220150 $
13962KABI ABI20160220131010502/20/16 13:10:31  5-MIN KABI 201910Z 21012KT 9SM CLR 22/15 A2999 1720 63 3000 210/12 RMK AO2 T02220150 $
13962KABI ABI20160220131510502/20/16 13:15:31  5-MIN KABI 201915Z 21012KT 9SM CLR 22/15 A2999 1730 63 3000 200/12 RMK AO2 T02220150 $
13962KABI ABI20160220132010502/20/16 13:20:31  5-MIN KABI 201920Z 21012KT 9SM CLR 23/15 A2998 1730 61 3100 210/12 RMK AO2 T02280150 $
13962KABI ABI20160220132510502/20/16 13:25:31  5-MIN KABI 201925Z 20011KT 9SM CLR 23/16 A2998 1740 63 3100 190/11 RMK AO2 T02280156 $
13962KABI ABI20160220133010502/20/16 13:30:31  5-MIN KABI 201930Z 20011KT 9SM CLR 23/16 A2998 1740 63 3100 200/11 RMK AO2 T02280156 $
13962KABI ABI20160220133510502/20/16 13:35:31  5-MIN KABI 201935Z 20013KT 9SM CLR 23/16 A2998 1740 63 3100 190/13 RMK AO2 T02280156 $
13962KABI ABI20160220134010502/20/16 13:40:31  5-MIN KABI 201940Z 20013KT 9SM CLR 23/16 A2997 1750 63 3100 200/13 RMK AO2 T02280156 $
13962KABI ABI20160220134510502/20/16 13:45:31  5-MIN KABI 201945Z 22013KT 9SM CLR 23/15 A2997 1750 61 3100 210/13 RMK AO2 T02280150 $
13962KABI ABI20160220135011202/20/16 13:50:31  5-MIN KABI 201950Z 21014KT 9SM CLR 23/15 A2997 1750 61 3100 200/14 RMK AO2 SLP127 T02280150 $
13962KABI ABI20160220135510502/20/16 13:55:31  5-MIN KABI 201955Z 21013KT 8SM CLR 23/16 A2996 1750 63 3100 210/13 RMK AO2 T02280156 $
13962KABI ABI20160220140010502/20/16 14:00:31  5-MIN KABI 202000Z 22014KT 9SM CLR 23/15 A2996 1760 59 3200 220/14 RMK AO2 T02330150 $
13962KABI ABI20160220140510502/20/16 14:05:31  5-MIN KABI 202005Z 20011KT 9SM CLR 23/16 A2996 1760 61 3200 200/11 RMK AO2 T02330156 $
13962KABI ABI20160220141010502/20/16 14:10:31  5-MIN KABI 202010Z 22012KT 9SM CLR 23/16 A2996 1760 61 3200 210/12 RMK AO2 T02330156 $
13962KABI ABI20160220141510502/20/16 14:15:31  5-MIN KABI 202015Z 21012KT 9SM CLR 23/15 A2995 1760 61 3100 200/12 RMK AO2 T02280150 $
13962KABI ABI20160220142010502/20/16 14:20:31  5-MIN KABI 202020Z 21012KT 9SM CLR 23/16 A2995 1770 61 3200 210/12 RMK AO2 T02330156 $
13962KABI ABI20160220142510502/20/16 14:25:31  5-MIN KABI 202025Z 22012KT 9SM CLR 23/16 A2995 1770 61 3200 220/12 RMK AO2 T02330156 $
13962KABI ABI20160220143010502/20/16 14:30:31  5-MIN KABI 202030Z 22012KT 9SM CLR 24/16 A2995 1770 59 3200 210/12 RMK AO2 T02390156 $
13962KABI ABI20160220143510502/20/16 14:35:31  5-MIN KABI 202035Z 21013KT 9SM CLR 24/16 A2994 1770 59 3200 200/13 RMK AO2 T02390156 $
13962KABI ABI20160220144010502/20/16 14:40:31  5-MIN KABI 202040Z 22013KT 9SM CLR 24/16 A2994 1770 59 3200 220/13 RMK AO2 T02390156 $
13962KABI ABI20160220144510502/20/16 14:45:31  5-MIN KABI 202045Z 22011KT 9SM CLR 24/15 A2994 1780 57 3200 220/11 RMK AO2 T02390150 $
13962KABI ABI20160220145011802/20/16 14:50:31  5-MIN KABI 202050Z 21013KT 9SM CLR 24/16 A2993 1780 57 3300 200/13 RMK AO2 SLP114 T02440156 58008 $
13962KABI ABI20160220145510502/20/16 14:55:31  5-MIN KABI 202055Z 21011KT 9SM CLR 24/16 A2993 1780 57 3300 200/11 RMK AO2 T02440156 $
13962KABI ABI20160220150010502/20/16 15:00:31  5-MIN KABI 202100Z 20014KT 9SM CLR 24/16 A2993 1780 57 3300 200/14 RMK AO2 T02440156 $
13962KABI ABI20160220150510502/20/16 15:05:31  5-MIN KABI 202105Z 20015KT 9SM CLR 24/15 A2992 1790 55 3300 190/15 RMK AO2 T02440150 $
13962KABI ABI20160220151010502/20/16 15:10:31  5-MIN KABI 202110Z 22012KT 9SM CLR 25/15 A2993 1790 53 3400 220/12 RMK AO2 T02500150 $
13962KABI ABI20160220151510502/20/16 15:15:31  5-MIN KABI 202115Z 22011KT 9SM CLR 24/15 A2993 1790 55 3300 210/11 RMK AO2 T02440150 $
13962KABI ABI20160220152010502/20/16 15:20:31  5-MIN KABI 202120Z 21013KT 9SM CLR 25/15 A2993 1790 53 3400 210/13 RMK AO2 T02500150 $
13962KABI ABI20160220152510502/20/16 15:25:31  5-MIN KABI 202125Z 21012KT 9SM CLR 24/15 A2992 1790 55 3300 210/12 RMK AO2 T02440150 $
13962KABI ABI20160220153010502/20/16 15:30:31  5-MIN KABI 202130Z 21013KT 9SM CLR 25/16 A2992 1790 55 3400 210/13 RMK AO2 T02500156 $
13962KABI ABI20160220153510502/20/16 15:35:31  5-MIN KABI 202135Z 21012KT 9SM CLR 26/15 A2992 1790 51 3500 210/12 RMK AO2 T02560150 $
13962KABI ABI20160220154010602/20/16 15:40:31  5-MIN KABI 202140Z 21014KT 10SM CLR 26/15 A2992 1800 51 3500 200/14 RMK AO2 T02560150 $
13962KABI ABI20160220154510602/20/16 15:45:31  5-MIN KABI 202145Z 22013KT 10SM CLR 26/15 A2991 1800 51 3500 210/13 RMK AO2 T02560150 $
13962KABI ABI20160220155011302/20/16 15:50:31  5-MIN KABI 202150Z 22013KT 10SM CLR 25/15 A2992 1790 53 3400 210/13 RMK AO2 SLP108 T02500150 $
13962KABI ABI20160220155510602/20/16 15:55:31  5-MIN KABI 202155Z 22010KT 10SM CLR 26/15 A2992 1800 51 3500 210/10 RMK AO2 T02560150 $
13962KABI ABI20160220160010602/20/16 16:00:31  5-MIN KABI 202200Z 21012KT 10SM CLR 25/15 A2991 1800 53 3400 210/12 RMK AO2 T02500150 $
13962KABI ABI20160220160510602/20/16 16:05:31  5-MIN KABI 202205Z 21011KT 10SM CLR 26/15 A2991 1800 50 3500 200/11 RMK AO2 T02610150 $
13962KABI ABI20160220161010602/20/16 16:10:31  5-MIN KABI 202210Z 20013KT 10SM CLR 26/14 A2991 1800 49 3500 200/13 RMK AO2 T02560144 $
13962KABI ABI20160220161510602/20/16 16:15:31  5-MIN KABI 202215Z 20014KT 10SM CLR 25/15 A2991 1800 53 3400 200/14 RMK AO2 T02500150 $
13962KABI ABI20160220162010602/20/16 16:20:31  5-MIN KABI 202220Z 21012KT 10SM CLR 25/15 A2991 1800 53 3400 200/12 RMK AO2 T02500150 $
13962KABI ABI20160220162510602/20/16 16:25:31  5-MIN KABI 202225Z 21014KT 10SM CLR 25/15 A2991 1800 53 3400 200/14 RMK AO2 T02500150 $
13962KABI ABI20160220163010602/20/16 16:30:31  5-MIN KABI 202230Z 20012KT 10SM CLR 25/15 A2991 1800 53 3400 190/12 RMK AO2 T02500150 $
13962KABI ABI20160220163510602/20/16 16:35:31  5-MIN KABI 202235Z 20015KT 10SM CLR 26/15 A2991 1800 51 3500 200/15 RMK AO2 T02560150 $
13962KABI ABI20160220164010602/20/16 16:40:31  5-MIN KABI 202240Z 21013KT 10SM CLR 25/15 A2991 1800 53 3400 210/13 RMK AO2 T02500150 $
13962KABI ABI20160220164510602/20/16 16:45:31  5-MIN KABI 202245Z 20013KT 10SM CLR 25/15 A2991 1800 53 3400 190/13 RMK AO2 T02500150 $
13962KABI ABI20160220165011302/20/16 16:50:31  5-MIN KABI 202250Z 20013KT 10SM CLR 24/15 A2991 1800 55 3300 190/13 RMK AO2 SLP106 T02440150 $
13962KABI ABI20160220165510602/20/16 16:55:31  5-MIN KABI 202255Z 20010KT 10SM CLR 24/15 A2991 1800 55 3300 190/10 RMK AO2 T02440150 $
13962KABI ABI20160220170010602/20/16 17:00:31  5-MIN KABI 202300Z 20011KT 10SM CLR 24/15 A2991 1800 55 3300 190/11 RMK AO2 T02440150 $
13962KABI ABI20160220170510602/20/16 17:05:31  5-MIN KABI 202305Z 20011KT 10SM CLR 24/15 A2991 1800 55 3300 190/11 RMK AO2 T02440150 $
13962KABI ABI20160220171010602/20/16 17:10:31  5-MIN KABI 202310Z 20013KT 10SM CLR 24/15 A2991 1800 55 3300 190/13 RMK AO2 T02440150 $
13962KABI ABI20160220171510602/20/16 17:15:31  5-MIN KABI 202315Z 20012KT 10SM CLR 24/15 A2991 1800 55 3300 190/12 RMK AO2 T02440150 $
13962KABI ABI20160220172010602/20/16 17:20:31  5-MIN KABI 202320Z 20012KT 10SM CLR 24/15 A2991 1800 55 3300 190/12 RMK AO2 T02440150 $
13962KABI ABI20160220172510602/20/16 17:25:31  5-MIN KABI 202325Z 20011KT 10SM CLR 24/15 A2991 1800 55 3300 200/11 RMK AO2 T02440150 $
13962KABI ABI20160220173010602/20/16 17:30:31  5-MIN KABI 202330Z 20009KT 10SM CLR 24/15 A2991 1800 55 3300 190/09 RMK AO2 T02440150 $
13962KABI ABI20160220173510602/20/16 17:35:31  5-MIN KABI 202335Z 20013KT 10SM CLR 24/15 A2991 1800 55 3300 190/13 RMK AO2 T02440150 $
13962KABI ABI20160220174010602/20/16 17:40:31  5-MIN KABI 202340Z 19008KT 10SM CLR 24/15 A2991 1800 55 3300 190/08 RMK AO2 T02440150 $
13962KABI ABI20160220174510602/20/16 17:45:31  5-MIN KABI 202345Z 20010KT 10SM CLR 24/15 A2991 1800 55 3300 190/10 RMK AO2 T02440150 $
13962KABI ABI20160220175013102/20/16 17:50:31  5-MIN KABI 202350Z 19007KT 10SM CLR 24/15 A2991 1800 57 3300 180/07 RMK AO2 SLP107 T02390150 10261 20206 58031 $
13962KABI ABI20160220175510602/20/16 17:55:31  5-MIN KABI 202355Z 19008KT 10SM CLR 24/15 A2991 1800 57 3300 180/08 RMK AO2 T02390150 $
13962KABI ABI20160220180010602/20/16 18:00:31  5-MIN KABI 210000Z 18007KT 10SM CLR 24/15 A2991 1800 57 3300 170/07 RMK AO2 T02390150 $
13962KABI ABI20160220180510602/20/16 18:05:31  5-MIN KABI 210005Z 18007KT 10SM CLR 23/15 A2991 1800 59 3200 170/07 RMK AO2 T02330150 $
13962KABI ABI20160220181010602/20/16 18:10:31  5-MIN KABI 210010Z 17008KT 10SM CLR 23/15 A2991 1800 59 3200 170/08 RMK AO2 T02330150 $
13962KABI ABI20160220181510602/20/16 18:15:31  5-MIN KABI 210015Z 17008KT 10SM CLR 23/15 A2991 1800 61 3200 170/08 RMK AO2 T02280150 $
13962KABI ABI20160220182010602/20/16 18:20:31  5-MIN KABI 210020Z 18007KT 10SM CLR 23/15 A2991 1800 61 3200 170/07 RMK AO2 T02280150 $
13962KABI ABI20160220182510602/20/16 18:25:31  5-MIN KABI 210025Z 18008KT 10SM CLR 23/15 A2991 1800 61 3100 170/08 RMK AO2 T02280150 $
13962KABI ABI20160220183010602/20/16 18:30:31  5-MIN KABI 210030Z 18007KT 10SM CLR 22/15 A2991 1800 63 3100 170/07 RMK AO2 T02220150 $
13962KABI ABI20160220183510602/20/16 18:35:31  5-MIN KABI 210035Z 18007KT 10SM CLR 22/15 A2992 1800 63 3100 180/07 RMK AO2 T02220150 $
13962KABI ABI20160220184010602/20/16 18:40:31  5-MIN KABI 210040Z 19008KT 10SM CLR 22/15 A2992 1790 63 3100 180/08 RMK AO2 T02220150 $
13962KABI ABI20160220184510602/20/16 18:45:31  5-MIN KABI 210045Z 19008KT 10SM CLR 22/15 A2992 1790 65 3000 180/08 RMK AO2 T02170150 $
13962KABI ABI20160220185011302/20/16 18:50:31  5-MIN KABI 210050Z 19008KT 10SM CLR 22/15 A2992 1790 65 3000 180/08 RMK AO2 SLP112 T02170150 $
13962KABI ABI20160220185510602/20/16 18:55:31  5-MIN KABI 210055Z 19007KT 10SM CLR 22/15 A2992 1790 65 3000 180/07 RMK AO2 T02170150 $
13962KABI ABI20160220190010602/20/16 19:00:31  5-MIN KABI 210100Z 18007KT 10SM CLR 22/15 A2992 1790 65 3000 180/07 RMK AO2 T02170150 $
13962KABI ABI20160220190510602/20/16 19:05:31  5-MIN KABI 210105Z 18007KT 10SM CLR 22/15 A2992 1790 65 3000 170/07 RMK AO2 T02170150 $
13962KABI ABI20160220191010602/20/16 19:10:31  5-MIN KABI 210110Z 17008KT 10SM CLR 21/15 A2993 1790 68 2900 170/08 RMK AO2 T02110150 $
13962KABI ABI20160220191510602/20/16 19:15:31  5-MIN KABI 210115Z 17007KT 10SM CLR 22/15 A2993 1780 65 3000 170/07 RMK AO2 T02170150 $
13962KABI ABI20160220192010602/20/16 19:20:31  5-MIN KABI 210120Z 17006KT 10SM CLR 21/15 A2993 1780 68 2900 170/06 RMK AO2 T02110150 $
13962KABI ABI20160220192510902/20/16 19:25:31  5-MIN KABI 210125Z 18005KT 10SM FEW120 21/15 A2993 1780 68 2900 180/05 RMK AO2 T02110150 $
13962KABI ABI20160220193010902/20/16 19:30:31  5-MIN KABI 210130Z 19006KT 10SM FEW120 21/14 A2993 1780 67 2900 180/06 RMK AO2 T02060144 $
13962KABI ABI20160220193510902/20/16 19:35:31  5-MIN KABI 210135Z 18007KT 10SM FEW120 21/14 A2993 1780 67 2900 180/07 RMK AO2 T02060144 $
13962KABI ABI20160220194010902/20/16 19:40:31  5-MIN KABI 210140Z 18007KT 10SM FEW120 21/14 A2993 1780 67 2900 170/07 RMK AO2 T02060144 $
13962KABI ABI20160220194510902/20/16 19:45:31  5-MIN KABI 210145Z 18006KT 10SM FEW120 21/14 A2994 1780 67 2900 170/06 RMK AO2 T02060144 $
13962KABI ABI20160220195011602/20/16 19:50:31  5-MIN KABI 210150Z 18006KT 10SM FEW120 21/14 A2994 1770 67 2900 180/06 RMK AO2 SLP122 T02060144 $
13962KABI ABI20160220195510602/20/16 19:55:31  5-MIN KABI 210155Z 18007KT 10SM CLR 21/15 A2994 1770 70 2900 180/07 RMK AO2 T02060150 $
13962KABI ABI20160220200010602/20/16 20:00:31  5-MIN KABI 210200Z 18006KT 10SM CLR 21/15 A2995 1770 70 2900 170/06 RMK AO2 T02060150 $
13962KABI ABI20160220200510602/20/16 20:05:31  5-MIN KABI 210205Z 17005KT 10SM CLR 21/15 A2995 1770 70 2900 160/05 RMK AO2 T02060150 $
13962KABI ABI20160220201010602/20/16 20:10:31  5-MIN KABI 210210Z 17005KT 10SM CLR 20/14 A2995 1770 70 2800 160/05 RMK AO2 T02000144 $
13962KABI ABI20160220201510602/20/16 20:15:31  5-MIN KABI 210215Z 17004KT 10SM CLR 20/14 A2995 1760 70 2800 170/04 RMK AO2 T02000144 $
13962KABI ABI20160220202010502/20/16 20:20:31  5-MIN KABI 210220Z 00000KT 9SM CLR 20/14 A2996 1760 70 2800 000/00 RMK AO2 T02000144 $
13962KABI ABI20160220202510502/20/16 20:25:31  5-MIN KABI 210225Z 00000KT 9SM CLR 20/14 A2996 1760 70 2800 000/00 RMK AO2 T02000144 $
13962KABI ABI20160220203010602/20/16 20:30:31  5-MIN KABI 210230Z 24003KT 10SM CLR 20/14 A2996 1760 70 2800 230/03 RMK AO2 T02000144 $
13962KABI ABI20160220203510602/20/16 20:35:31  5-MIN KABI 210235Z 21005KT 10SM CLR 20/14 A2996 1760 70 2800 210/05 RMK AO2 T02000144 $
13962KABI ABI20160220204010602/20/16 20:40:31  5-MIN KABI 210240Z 20005KT 10SM CLR 19/14 A2996 1760 72 2700 200/05 RMK AO2 T01940144 $
13962KABI ABI20160220204510602/20/16 20:45:31  5-MIN KABI 210245Z 20005KT 10SM CLR 19/14 A2996 1760 72 2700 200/05 RMK AO2 T01940144 $
13962KABI ABI20160220205011902/20/16 20:50:31  5-MIN KABI 210250Z 19006KT 10SM CLR 19/14 A2996 1760 72 2700 190/06 RMK AO2 SLP127 T01940144 56007 $
13962KABI ABI20160220205510602/20/16 20:55:31  5-MIN KABI 210255Z 19006KT 10SM CLR 19/14 A2996 1750 72 2700 180/06 RMK AO2 T01940144 $
13962KABI ABI20160220210010602/20/16 21:00:31  5-MIN KABI 210300Z 19005KT 10SM CLR 19/14 A2996 1750 72 2700 180/05 RMK AO2 T01940144 $
13962KABI ABI20160220210510602/20/16 21:05:31  5-MIN KABI 210305Z 19005KT 10SM CLR 19/14 A2996 1750 72 2700 190/05 RMK AO2 T01940144 $
13962KABI ABI20160220211010602/20/16 21:10:31  5-MIN KABI 210310Z 19006KT 10SM CLR 19/14 A2996 1750 72 2700 190/06 RMK AO2 T01940144 $
13962KABI ABI20160220211510602/20/16 21:15:31  5-MIN KABI 210315Z 19006KT 10SM CLR 19/14 A2997 1750 72 2700 180/06 RMK AO2 T01940144 $
13962KABI ABI20160220212010602/20/16 21:20:31  5-MIN KABI 210320Z 18007KT 10SM CLR 19/14 A2997 1750 75 2600 180/07 RMK AO2 T01890144 $
13962KABI ABI20160220212510602/20/16 21:25:31  5-MIN KABI 210325Z 18009KT 10SM CLR 19/14 A2996 1760 75 2700 170/09 RMK AO2 T01890144 $
13962KABI ABI20160220213010602/20/16 21:30:31  5-MIN KABI 210330Z 18008KT 10SM CLR 19/15 A2996 1760 75 2700 180/08 RMK AO2 T01940150 $
13962KABI ABI20160220213510602/20/16 21:35:31  5-MIN KABI 210335Z 18009KT 10SM CLR 19/15 A2996 1760 75 2700 180/09 RMK AO2 T01940150 $
13962KABI ABI20160220214010602/20/16 21:40:31  5-MIN KABI 210340Z 19010KT 10SM CLR 20/15 A2996 1760 72 2800 180/10 RMK AO2 T02000150 $
13962KABI ABI20160220214510602/20/16 21:45:31  5-MIN KABI 210345Z 19010KT 10SM CLR 20/15 A2996 1760 72 2800 180/10 RMK AO2 T02000150 $
13962KABI ABI20160220215011302/20/16 21:50:31  5-MIN KABI 210350Z 19010KT 10SM CLR 21/15 A2996 1750 70 2800 190/10 RMK AO2 SLP127 T02060150 $
13962KABI ABI20160220215510602/20/16 21:55:31  5-MIN KABI 210355Z 20008KT 10SM CLR 20/15 A2996 1750 72 2800 200/08 RMK AO2 T02000150 $
13962KABI ABI20160220220010602/20/16 22:00:31  5-MIN KABI 210400Z 21007KT 10SM CLR 20/15 A2997 1750 72 2800 200/07 RMK AO2 T02000150 $
13962KABI ABI20160220220510602/20/16 22:05:31  5-MIN KABI 210405Z 21007KT 10SM CLR 20/15 A2997 1750 72 2800 200/07 RMK AO2 T02000150 $
13962KABI ABI20160220221010602/20/16 22:10:31  5-MIN KABI 210410Z 20006KT 10SM CLR 20/15 A2996 1750 72 2800 190/06 RMK AO2 T02000150 $
13962KABI ABI20160220221510602/20/16 22:15:31  5-MIN KABI 210415Z 19008KT 10SM CLR 20/15 A2996 1750 72 2800 190/08 RMK AO2 T02000150 $
13962KABI ABI20160220222010602/20/16 22:20:31  5-MIN KABI 210420Z 19007KT 10SM CLR 20/15 A2996 1750 72 2800 190/07 RMK AO2 T02000150 $
13962KABI ABI20160220222510602/20/16 22:25:31  5-MIN KABI 210425Z 20008KT 10SM CLR 20/15 A2996 1750 72 2800 190/08 RMK AO2 T02000150 $
13962KABI ABI20160220223010602/20/16 22:30:31  5-MIN KABI 210430Z 19009KT 10SM CLR 20/15 A2996 1760 72 2800 190/09 RMK AO2 T02000150 $
13962KABI ABI20160220223510602/20/16 22:35:31  5-MIN KABI 210435Z 19009KT 10SM CLR 20/15 A2996 1750 72 2800 190/09 RMK AO2 T02000150 $
13962KABI ABI20160220224010502/20/16 22:40:31  5-MIN KABI 210440Z 20009KT 9SM CLR 20/15 A2996 1750 72 2800 190/09 RMK AO2 T02000150 $
13962KABI ABI20160220224510502/20/16 22:45:31  5-MIN KABI 210445Z 19010KT 9SM CLR 20/15 A2996 1760 72 2800 190/10 RMK AO2 T02000150 $
13962KABI ABI20160220225011202/20/16 22:50:31  5-MIN KABI 210450Z 20011KT 9SM CLR 21/15 A2996 1760 70 2800 190/11 RMK AO2 SLP126 T02060150 $
13962KABI ABI20160220225510502/20/16 22:55:31  5-MIN KABI 210455Z 20010KT 9SM CLR 20/15 A2996 1760 72 2800 190/10 RMK AO2 T02000150 $
13962KABI ABI20160220230011102/20/16 23:00:31  5-MIN KABI 210500Z 19011G19KT 9SM CLR 20/15 A2996 1760 72 2800 190/11G19 RMK AO2 T02000150 $
13962KABI ABI20160220230511102/20/16 23:05:31  5-MIN KABI 210505Z 19010G19KT 9SM CLR 20/15 A2996 1760 72 2800 190/10G19 RMK AO2 T02000150 $
13962KABI ABI20160220231010502/20/16 23:10:31  5-MIN KABI 210510Z 19009KT 9SM CLR 20/15 A2995 1760 72 2800 190/09 RMK AO2 T02000150 $
13962KABI ABI20160220231510502/20/16 23:15:31  5-MIN KABI 210515Z 20010KT 9SM CLR 20/15 A2995 1760 72 2800 190/10 RMK AO2 T02000150 $
13962KABI ABI20160220232010502/20/16 23:20:31  5-MIN KABI 210520Z 19009KT 9SM CLR 20/15 A2995 1760 72 2800 190/09 RMK AO2 T02000150 $
13962KABI ABI20160220232510502/20/16 23:25:31  5-MIN KABI 210525Z 19010KT 9SM CLR 20/15 A2995 1760 72 2800 190/10 RMK AO2 T02000150 $
13962KABI ABI20160220233010502/20/16 23:30:31  5-MIN KABI 210530Z 19010KT 9SM CLR 20/15 A2995 1760 72 2800 190/10 RMK AO2 T02000150 $
13962KABI ABI20160220233510502/20/16 23:35:31  5-MIN KABI 210535Z 19009KT 9SM CLR 20/15 A2995 1760 72 2800 190/09 RMK AO2 T02000150 $
13962KABI ABI20160220234010502/20/16 23:40:31  5-MIN KABI 210540Z 19008KT 9SM CLR 20/15 A2995 1760 72 2800 190/08 RMK AO2 T02000150 $
13962KABI ABI20160220234510502/20/16 23:45:31  5-MIN KABI 210545Z 20009KT 9SM CLR 20/15 A2995 1760 72 2800 190/09 RMK AO2 T02000150 $
13962KABI ABI20160220235014002/20/16 23:50:31  5-MIN KABI 210550Z 20009KT 9SM CLR 20/15 A2995 1760 72 2800 190/09 RMK AO2 SLP123 T02000150 10239 20189 402610156 53016 $
13962KABI ABI20160220235510502/20/16 23:55:31  5-MIN KABI 210555Z 20010KT 9SM CLR 20/15 A2995 1760 72 2800 190/10 RMK AO2 T02000150 $
13962KABI ABI20160221000010502/21/16 00:00:31  5-MIN KABI 210600Z 19010KT 9SM CLR 20/15 A2995 1770 72 2800 190/10 RMK AO2 T02000150 $
13962KABI ABI20160221000511102/21/16 00:05:31  5-MIN KABI 210605Z 19008G16KT 9SM CLR 20/15 A2995 1770 72 2800 190/08G16 RMK AO2 T02000150 $
13962KABI ABI20160221001010502/21/16 00:10:31  5-MIN KABI 210610Z 20007KT 9SM CLR 19/15 A2995 1760 75 2700 190/07 RMK AO2 T01940150 $
13962KABI ABI20160221001510502/21/16 00:15:31  5-MIN KABI 210615Z 20007KT 9SM CLR 19/15 A2995 1760 75 2700 190/07 RMK AO2 T01940150 $
13962KABI ABI20160221002010502/21/16 00:20:31  5-MIN KABI 210620Z 20008KT 9SM CLR 20/15 A2995 1760 72 2800 190/08 RMK AO2 T02000150 $
13962KABI ABI20160221002510502/21/16 00:25:31  5-MIN KABI 210625Z 21009KT 9SM CLR 20/15 A2996 1760 72 2800 200/09 RMK AO2 T02000150 $
13962KABI ABI20160221003010502/21/16 00:30:31  5-MIN KABI 210630Z 21010KT 9SM CLR 20/15 A2996 1760 72 2800 200/10 RMK AO2 T02000150 $
13962KABI ABI20160221003510502/21/16 00:35:31  5-MIN KABI 210635Z 20009KT 9SM CLR 20/15 A2995 1760 72 2800 200/09 RMK AO2 T02000150 $
13962KABI ABI20160221004010502/21/16 00:40:31  5-MIN KABI 210640Z 20009KT 9SM CLR 20/15 A2996 1760 72 2800 200/09 RMK AO2 T02000150 $
13962KABI ABI20160221004510502/21/16 00:45:31  5-MIN KABI 210645Z 20008KT 9SM CLR 20/15 A2995 1760 72 2800 190/08 RMK AO2 T02000150 $
13962KABI ABI20160221005011202/21/16 00:50:31  5-MIN KABI 210650Z 19008KT 9SM CLR 19/15 A2995 1760 75 2700 190/08 RMK AO2 SLP123 T01940150 $
13962KABI ABI20160221005510502/21/16 00:55:31  5-MIN KABI 210655Z 20008KT 9SM CLR 19/15 A2995 1760 75 2700 190/08 RMK AO2 T01940150 $
13962KABI ABI20160221010010502/21/16 01:00:31  5-MIN KABI 210700Z 20007KT 9SM CLR 19/15 A2995 1760 75 2700 190/07 RMK AO2 T01940150 $
13962KABI ABI20160221010510502/21/16 01:05:31  5-MIN KABI 210705Z 19007KT 9SM CLR 19/15 A2995 1760 75 2700 190/07 RMK AO2 T01940150 $
13962KABI ABI20160221011010502/21/16 01:10:31  5-MIN KABI 210710Z 19006KT 9SM CLR 19/15 A2995 1770 75 2700 180/06 RMK AO2 T01940150 $
13962KABI ABI20160221011510502/21/16 01:15:31  5-MIN KABI 210715Z 19007KT 9SM CLR 19/15 A2995 1770 75 2700 180/07 RMK AO2 T01940150 $
13962KABI ABI20160221012010502/21/16 01:20:31  5-MIN KABI 210720Z 20006KT 9SM CLR 19/15 A2995 1770 75 2700 190/06 RMK AO2 T01940150 $
13962KABI ABI20160221012510502/21/16 01:25:31  5-MIN KABI 210725Z 20006KT 9SM CLR 19/15 A2995 1770 75 2700 190/06 RMK AO2 T01940150 $
13962KABI ABI20160221013010502/21/16 01:30:31  5-MIN KABI 210730Z 20006KT 9SM CLR 19/15 A2995 1760 75 2700 200/06 RMK AO2 T01940150 $
13962KABI ABI20160221013510502/21/16 01:35:31  5-MIN KABI 210735Z 20008KT 9SM CLR 19/15 A2995 1760 75 2700 200/08 RMK AO2 T01940150 $
13962KABI ABI20160221014010502/21/16 01:40:31  5-MIN KABI 210740Z 20007KT 9SM CLR 19/15 A2995 1760 75 2700 190/07 RMK AO2 T01940150 $
13962KABI ABI20160221014510502/21/16 01:45:31  5-MIN KABI 210745Z 20008KT 9SM CLR 19/16 A2995 1760 78 2700 190/08 RMK AO2 T01940156 $
13962KABI ABI20160221015011202/21/16 01:50:31  5-MIN KABI 210750Z 20007KT 9SM CLR 19/15 A2995 1760 75 2700 200/07 RMK AO2 SLP122 T01940150 $
13962KABI ABI20160221015510502/21/16 01:55:31  5-MIN KABI 210755Z 20008KT 9SM CLR 19/15 A2995 1760 75 2700 200/08 RMK AO2 T01940150 $
13962KABI ABI20160221020010502/21/16 02:00:31  5-MIN KABI 210800Z 20007KT 9SM CLR 19/16 A2995 1760 78 2700 200/07 RMK AO2 T01940156 $
13962KABI ABI20160221020510502/21/16 02:05:31  5-MIN KABI 210805Z 20008KT 9SM CLR 19/15 A2995 1760 75 2700 200/08 RMK AO2 T01940150 $
13962KABI ABI20160221021010502/21/16 02:10:31  5-MIN KABI 210810Z 20007KT 9SM CLR 19/15 A2995 1760 75 2700 200/07 RMK AO2 T01940150 $
13962KABI ABI20160221021510502/21/16 02:15:31  5-MIN KABI 210815Z 21007KT 9SM CLR 19/15 A2995 1760 75 2700 200/07 RMK AO2 T01940150 $
13962KABI ABI20160221022010502/21/16 02:20:31  5-MIN KABI 210820Z 21007KT 9SM CLR 19/15 A2995 1760 78 2700 200/07 RMK AO2 T01890150 $
13962KABI ABI20160221022510502/21/16 02:25:31  5-MIN KABI 210825Z 20006KT 9SM CLR 19/15 A2995 1760 78 2700 200/06 RMK AO2 T01890150 $
13962KABI ABI20160221023010502/21/16 02:30:31  5-MIN KABI 210830Z 20006KT 9SM CLR 19/15 A2995 1760 78 2700 200/06 RMK AO2 T01890150 $
13962KABI ABI20160221023510502/21/16 02:35:31  5-MIN KABI 210835Z 20006KT 9SM CLR 19/15 A2995 1760 78 2700 200/06 RMK AO2 T01890150 $
13962KABI ABI20160221024010502/21/16 02:40:31  5-MIN KABI 210840Z 21007KT 9SM CLR 19/15 A2995 1760 78 2700 210/07 RMK AO2 T01890150 $
13962KABI ABI20160221024510502/21/16 02:45:31  5-MIN KABI 210845Z 21007KT 9SM CLR 19/15 A2995 1760 78 2700 210/07 RMK AO2 T01890150 $
13962KABI ABI20160221025011802/21/16 02:50:31  5-MIN KABI 210850Z 21007KT 9SM CLR 19/15 A2995 1770 78 2700 210/07 RMK AO2 SLP120 T01890150 58002 $
13962KABI ABI20160221025510502/21/16 02:55:31  5-MIN KABI 210855Z 22006KT 9SM CLR 19/15 A2995 1760 78 2700 210/06 RMK AO2 T01890150 $
13962KABI ABI20160221030010502/21/16 03:00:31  5-MIN KABI 210900Z 22006KT 9SM CLR 19/15 A2995 1770 78 2700 210/06 RMK AO2 T01890150 $
13962KABI ABI20160221030510502/21/16 03:05:31  5-MIN KABI 210905Z 26005KT 9SM CLR 18/15 A2996 1760 81 2600 260/05 RMK AO2 T01830150 $
13962KABI ABI20160221031010502/21/16 03:10:31  5-MIN KABI 210910Z 33012KT 9SM CLR 18/15 A2996 1750 83 2500 330/12 RMK AO2 T01780150 $
13962KABI ABI20160221031510502/21/16 03:15:31  5-MIN KABI 210915Z 31004KT 9SM CLR 18/15 A2996 1760 83 2500 310/04 RMK AO2 T01780150 $
13962KABI ABI20160221032010502/21/16 03:20:31  5-MIN KABI 210920Z 30005KT 9SM CLR 18/15 A2996 1750 83 2500 300/05 RMK AO2 T01780150 $
13962KABI ABI20160221032510502/21/16 03:25:31  5-MIN KABI 210925Z 00000KT 9SM CLR 18/15 A2996 1760 83 2500 000/00 RMK AO2 T01780150 $
13962KABI ABI20160221033010502/21/16 03:30:31  5-MIN KABI 210930Z 00000KT 9SM CLR 18/15 A2996 1750 81 2600 000/00 RMK AO2 T01830150 $
13962KABI ABI20160221033510502/21/16 03:35:31  5-MIN KABI 210935Z 00000KT 9SM CLR 18/15 A2996 1750 81 2600 000/00 RMK AO2 T01830150 $
13962KABI ABI20160221034010502/21/16 03:40:31  5-MIN KABI 210940Z 00000KT 9SM CLR 18/15 A2996 1760 81 2600 000/00 RMK AO2 T01830150 $
13962KABI ABI20160221034510502/21/16 03:45:31  5-MIN KABI 210945Z 00000KT 9SM CLR 18/15 A2995 1760 81 2600 000/00 RMK AO2 T01830150 $
13962KABI ABI20160221035011202/21/16 03:50:31  5-MIN KABI 210950Z 00000KT 9SM CLR 18/15 A2995 1760 81 2600 000/00 RMK AO2 SLP122 T01830150 $
13962KABI ABI20160221035510502/21/16 03:55:31  5-MIN KABI 210955Z 30003KT 9SM CLR 18/15 A2996 1750 81 2600 290/03 RMK AO2 T01830150 $
13962KABI ABI20160221040010502/21/16 04:00:31  5-MIN KABI 211000Z 00000KT 9SM CLR 18/15 A2996 1760 83 2500 000/00 RMK AO2 T01780150 $
13962KABI ABI20160221040510502/21/16 04:05:31  5-MIN KABI 211005Z 22004KT 9SM CLR 18/15 A2995 1760 83 2500 210/04 RMK AO2 T01780150 $
13962KABI ABI20160221041010502/21/16 04:10:31  5-MIN KABI 211010Z 19003KT 9SM CLR 17/14 A2996 1760 86 2400 190/03 RMK AO2 T01670144 $
13962KABI ABI20160221041510502/21/16 04:15:31  5-MIN KABI 211015Z 00000KT 9SM CLR 17/14 A2996 1760 83 2500 000/00 RMK AO2 T01720144 $
13962KABI ABI20160221042010502/21/16 04:20:31  5-MIN KABI 211020Z 20007KT 9SM CLR 17/14 A2995 1760 83 2500 200/07 RMK AO2 T01720144 $
13962KABI ABI20160221042510502/21/16 04:25:31  5-MIN KABI 211025Z 21008KT 8SM CLR 16/14 A2995 1760 90 2300 200/08 RMK AO2 T01610144 $
13962KABI ABI20160221043010502/21/16 04:30:31  5-MIN KABI 211030Z 23004KT 8SM CLR 16/14 A2996 1760 90 2300 220/04 RMK AO2 T01610144 $
13962KABI ABI20160221043510502/21/16 04:35:31  5-MIN KABI 211035Z 23004KT 8SM CLR 16/14 A2996 1750 90 2300 230/04 RMK AO2 T01610144 $
13962KABI ABI20160221044010502/21/16 04:40:31  5-MIN KABI 211040Z 22004KT 7SM CLR 16/14 A2996 1760 90 2300 220/04 RMK AO2 T01610144 $
13962KABI ABI20160221044510502/21/16 04:45:31  5-MIN KABI 211045Z 21005KT 7SM CLR 16/14 A2996 1760 90 2300 200/05 RMK AO2 T01610144 $
13962KABI ABI20160221045011202/21/16 04:50:31  5-MIN KABI 211050Z 20006KT 7SM CLR 16/14 A2996 1760 93 2300 190/06 RMK AO2 SLP124 T01560144 $
13962KABI ABI20160221045510502/21/16 04:55:31  5-MIN KABI 211055Z 20005KT 7SM CLR 16/14 A2996 1760 90 2300 190/05 RMK AO2 T01610144 $
13962KABI ABI20160221050010502/21/16 05:00:31  5-MIN KABI 211100Z 20005KT 7SM CLR 16/14 A2996 1760 90 2300 190/05 RMK AO2 T01610144 $
13962KABI ABI20160221050510502/21/16 05:05:31  5-MIN KABI 211105Z 19008KT 7SM CLR 16/14 A2996 1760 93 2300 190/08 RMK AO2 T01560144 $
13962KABI ABI20160221051010502/21/16 05:10:31  5-MIN KABI 211110Z 20005KT 7SM CLR 16/14 A2996 1750 93 2300 200/05 RMK AO2 T01560144 $
13962KABI ABI20160221051510502/21/16 05:15:31  5-MIN KABI 211115Z 20004KT 7SM CLR 16/14 A2996 1760 93 2300 190/04 RMK AO2 T01560144 $
13962KABI ABI20160221052010502/21/16 05:20:31  5-MIN KABI 211120Z 21005KT 7SM CLR 16/14 A2996 1750 90 2300 200/05 RMK AO2 T01560139 $
13962KABI ABI20160221052510502/21/16 05:25:31  5-MIN KABI 211125Z 21003KT 7SM CLR 16/14 A2996 1750 90 2300 210/03 RMK AO2 T01560139 $
13962KABI ABI20160221053010502/21/16 05:30:31  5-MIN KABI 211130Z 23004KT 7SM CLR 16/14 A2996 1750 90 2300 220/04 RMK AO2 T01560139 $
13962KABI ABI20160221053510502/21/16 05:35:31  5-MIN KABI 211135Z 25004KT 7SM CLR 15/14 A2996 1750 93 2200 250/04 RMK AO2 T01500139 $
13962KABI ABI20160221054010802/21/16 05:40:31  5-MIN KABI 211140Z 24003KT 6SM BR CLR 15/14 A2996 1760 93 2200 230/03 RMK AO2 T01500139 $
13962KABI ABI20160221054510802/21/16 05:45:31  5-MIN KABI 211145Z 27003KT 6SM BR CLR 15/14 A2996 1760 93 2200 260/03 RMK AO2 T01500139 $
13962KABI ABI20160221055013302/21/16 05:50:31  5-MIN KABI 211150Z 26004KT 6SM BR CLR 15/14 A2996 1760 93 2200 250/04 RMK AO2 SLP126 T01500139 10200 20150 58001 $
13962KABI ABI20160221055510802/21/16 05:55:31  5-MIN KABI 211155Z 29005KT 6SM BR CLR 15/14 A2996 1750 93 2200 290/05 RMK AO2 T01500139 $
13962KABI ABI20160221060010802/21/16 06:00:31  5-MIN KABI 211200Z 30005KT 6SM BR CLR 14/14 A2997 1750 96 2100 290/05 RMK AO2 T01440139 $
13962KABI ABI20160221060510802/21/16 06:05:31  5-MIN KABI 211205Z 26004KT 6SM BR CLR 14/14 A2997 1750 96 2100 250/04 RMK AO2 T01440139 $
13962KABI ABI20160221061010802/21/16 06:10:31  5-MIN KABI 211210Z 25003KT 6SM BR CLR 15/14 A2997 1750 93 2200 250/03 RMK AO2 T01500139 $
13962KABI ABI20160221061510802/21/16 06:15:31  5-MIN KABI 211215Z 23003KT 6SM BR CLR 15/14 A2997 1750 93 2200 230/03 RMK AO2 T01500139 $
13962KABI ABI20160221062010802/21/16 06:20:31  5-MIN KABI 211220Z 23005KT 6SM BR CLR 15/14 A2997 1750 93 2200 220/05 RMK AO2 T01500139 $
13962KABI ABI20160221062510802/21/16 06:25:31  5-MIN KABI 211225Z 23005KT 6SM BR CLR 15/14 A2997 1740 93 2200 220/05 RMK AO2 T01500139 $
13962KABI ABI20160221063010802/21/16 06:30:31  5-MIN KABI 211230Z 23004KT 6SM BR CLR 14/14 A2998 1740 96 2100 230/04 RMK AO2 T01440139 $
13962KABI ABI20160221063510802/21/16 06:35:31  5-MIN KABI 211235Z 24003KT 6SM BR CLR 14/13 A2998 1740 93 2100 230/03 RMK AO2 T01440133 $
13962KABI ABI20160221064010802/21/16 06:40:31  5-MIN KABI 211240Z 23003KT 5SM BR CLR 14/14 A2998 1740 96 2100 230/03 RMK AO2 T01440139 $
13962KABI ABI20160221064510802/21/16 06:45:31  5-MIN KABI 211245Z 24004KT 6SM BR CLR 15/14 A2998 1740 93 2200 230/04 RMK AO2 T01500139 $
13962KABI ABI20160221065011502/21/16 06:50:31  5-MIN KABI 211250Z 23004KT 6SM BR CLR 15/14 A2998 1740 93 2200 230/04 RMK AO2 SLP136 T01500139 $
13962KABI ABI20160221065510802/21/16 06:55:31  5-MIN KABI 211255Z 24003KT 6SM BR CLR 15/14 A2999 1730 93 2200 230/03 RMK AO2 T01500139 $
13962KABI ABI20160221070010802/21/16 07:00:31  5-MIN KABI 211300Z 00000KT 6SM BR CLR 14/14 A2999 1730 96 2100 000/00 RMK AO2 T01440139 $
13962KABI ABI20160221070510802/21/16 07:05:31  5-MIN KABI 211305Z 22003KT 6SM BR CLR 15/14 A2999 1730 93 2200 210/03 RMK AO2 T01500139 $
13962KABI ABI20160221071010802/21/16 07:10:31  5-MIN KABI 211310Z 23003KT 6SM BR CLR 15/14 A2999 1730 93 2200 220/03 RMK AO2 T01500139 $
13962KABI ABI20160221071510802/21/16 07:15:31  5-MIN KABI 211315Z 25003KT 6SM BR CLR 15/14 A2999 1730 93 2200 240/03 RMK AO2 T01500139 $
13962KABI ABI20160221072010802/21/16 07:20:31  5-MIN KABI 211320Z 25003KT 6SM BR CLR 15/14 A2999 1720 93 2200 240/03 RMK AO2 T01500139 $
13962KABI ABI20160221072510802/21/16 07:25:31  5-MIN KABI 211325Z 24003KT 6SM BR CLR 15/14 A2999 1720 93 2200 240/03 RMK AO2 T01500139 $
13962KABI ABI20160221073010802/21/16 07:30:31  5-MIN KABI 211330Z 24004KT 5SM BR CLR 15/14 A2999 1720 93 2200 240/04 RMK AO2 T01500139 $
13962KABI ABI20160221073510802/21/16 07:35:31  5-MIN KABI 211335Z 24004KT 4SM BR CLR 15/14 A2999 1720 93 2200 230/04 RMK AO2 T01500139 $
13962KABI ABI20160221074010802/21/16 07:40:31  5-MIN KABI 211340Z 23004KT 4SM BR CLR 15/14 A3000 1720 93 2200 220/04 RMK AO2 T01500139 $
13962KABI ABI20160221074510802/21/16 07:45:31  5-MIN KABI 211345Z 25003KT 4SM BR CLR 14/14 A3000 1720 96 2100 240/03 RMK AO2 T01440139 $
13962KABI ABI20160221075011502/21/16 07:50:31  5-MIN KABI 211350Z 27003KT 4SM BR CLR 15/14 A3000 1720 93 2200 270/03 RMK AO2 SLP143 T01500139 $
13962KABI ABI20160221075510802/21/16 07:55:31  5-MIN KABI 211355Z 31003KT 4SM BR CLR 15/14 A3000 1720 93 2200 310/03 RMK AO2 T01500139 $
13962KABI ABI20160221080010802/21/16 08:00:31  5-MIN KABI 211400Z 32004KT 4SM BR CLR 15/14 A3001 1710 93 2200 320/04 RMK AO2 T01500139 $
13962KABI ABI20160221080510802/21/16 08:05:31  5-MIN KABI 211405Z 33005KT 4SM BR CLR 15/14 A3001 1710 93 2100 320/05 RMK AO2 T01500139 $
13962KABI ABI20160221081010802/21/16 08:10:31  5-MIN KABI 211410Z 31003KT 4SM BR CLR 15/14 A3001 1710 93 2100 310/03 RMK AO2 T01500139 $
13962KABI ABI20160221081510802/21/16 08:15:31  5-MIN KABI 211415Z 33006KT 4SM BR CLR 16/14 A3002 1700 93 2200 330/06 RMK AO2 T01560144 $
13962KABI ABI20160221082010802/21/16 08:20:31  5-MIN KABI 211420Z 34011KT 4SM BR CLR 16/14 A3003 1690 93 2200 330/11 RMK AO2 T01560144 $
13962KABI ABI20160221082511502/21/16 08:25:31  5-MIN KABI 211425Z 33014KT 6SM HZ CLR 16/13 A3003 1690 83 2200 330/14 RMK AO2 PRESRR T01560128 $
13962KABI ABI20160221083010802/21/16 08:30:31  5-MIN KABI 211430Z 33012KT 6SM HZ CLR 14/09 A3004 1690 72 2100 320/12 RMK AO2 T01440094 $
13962KABI ABI20160221083510802/21/16 08:35:31  5-MIN KABI 211435Z 34015KT 6SM HZ CLR 14/09 A3004 1690 69 2100 340/15 RMK AO2 T01440089 $
13962KABI ABI20160221084010802/21/16 08:40:31  5-MIN KABI 211440Z 34011KT 6SM HZ CLR 14/08 A3004 1680 66 2000 340/11 RMK AO2 T01390078 $
13962KABI ABI20160221084510802/21/16 08:45:31  5-MIN KABI 211445Z 35012KT 6SM HZ CLR 14/07 A3004 1680 64 2000 350/12 RMK AO2 T01390072 $
13962KABI ABI20160221085011902/21/16 08:50:31  5-MIN KABI 211450Z 34011KT 10SM CLR 14/07 A3005 1680 64 2000 340/11 RMK AO2 SLP160 T01390072 51004 $
13962KABI ABI20160221085510602/21/16 08:55:31  5-MIN KABI 211455Z 34011KT 10SM CLR 14/07 A3005 1670 61 2000 330/11 RMK AO2 T01390067 $
13962KABI ABI20160221090010602/21/16 09:00:31  5-MIN KABI 211500Z 35011KT 10SM CLR 14/07 A3005 1670 61 2000 340/11 RMK AO2 T01390067 $
13962KABI ABI20160221090510602/21/16 09:05:31  5-MIN KABI 211505Z 35009KT 10SM CLR 14/07 A3005 1670 64 2000 340/09 RMK AO2 T01390072 $
13962KABI ABI20160221091010602/21/16 09:10:31  5-MIN KABI 211510Z 35012KT 10SM CLR 14/07 A3005 1670 61 2000 340/12 RMK AO2 T01440072 $
13962KABI ABI20160221091510602/21/16 09:15:31  5-MIN KABI 211515Z 35010KT 10SM CLR 14/07 A3006 1670 61 2000 340/10 RMK AO2 T01440072 $
13962KABI ABI20160221092010602/21/16 09:20:31  5-MIN KABI 211520Z 34009KT 10SM CLR 14/07 A3006 1660 61 2000 340/09 RMK AO2 T01440072 $
13962KABI ABI20160221092510602/21/16 09:25:31  5-MIN KABI 211525Z 35011KT 10SM CLR 14/08 A3006 1670 64 2000 350/11 RMK AO2 T01440078 $
13962KABI ABI20160221093010602/21/16 09:30:31  5-MIN KABI 211530Z 36011KT 10SM CLR 15/08 A3006 1660 64 2100 350/11 RMK AO2 T01500083 $
13962KABI ABI20160221093510902/21/16 09:35:31  5-MIN KABI 211535Z 35011KT 10SM FEW010 14/08 A3006 1660 66 2000 340/11 RMK AO2 T01440083 $
13962KABI ABI20160221094010902/21/16 09:40:31  5-MIN KABI 211540Z 35012KT 10SM SCT010 14/08 A3006 1660 66 2000 350/12 RMK AO2 T01440083 $
13962KABI ABI20160221094510902/21/16 09:45:31  5-MIN KABI 211545Z 34012KT 10SM BKN010 15/08 A3007 1650 64 2100 340/12 RMK AO2 T01500083 $
13962KABI ABI20160221095009602/21/16 09:50:31  5-MIN KABI 211550Z 35014KT 10SM CLR 15/09 A3007 1650 66 2100 340/14 RMK AO2 $
13962KABI ABI20160221095510602/21/16 09:55:31  5-MIN KABI 211555Z 35014KT 10SM CLR 14/09 A3007 1650 72 2000 340/14 RMK AO2 T01440094 $
13962KABI ABI20160221100010602/21/16 10:00:31  5-MIN KABI 211600Z 36012KT 10SM CLR 15/10 A3007 1650 72 2100 350/12 RMK AO2 T01500100 $
13962KABI ABI20160221100510902/21/16 10:05:31  5-MIN KABI 211605Z 36010KT 10SM BKN011 15/10 A3008 1650 72 2100 350/10 RMK AO2 T01500100 $
13962KABI ABI20160221101010902/21/16 10:10:31  5-MIN KABI 211610Z 36011KT 10SM BKN011 15/10 A3007 1650 72 2100 360/11 RMK AO2 T01500100 $
13962KABI ABI20160221101510902/21/16 10:15:31  5-MIN KABI 211615Z 36011KT 10SM BKN012 15/11 A3007 1660 74 2100 360/11 RMK AO2 T01500106 $
13962KABI ABI20160221102010902/21/16 10:20:31  5-MIN KABI 211620Z 01011KT 10SM BKN012 15/11 A3007 1650 77 2100 360/11 RMK AO2 T01500111 $
13962KABI ABI20160221102510802/21/16 10:25:31  5-MIN KABI 211625Z 36013KT 9SM BKN012 15/11 A3008 1650 77 2100 360/13 RMK AO2 T01500111 $
13962KABI ABI20160221103010802/21/16 10:30:31  5-MIN KABI 211630Z 36012KT 9SM OVC012 15/12 A3008 1650 80 2100 360/12 RMK AO2 T01500117 $
13962KABI ABI20160221103510802/21/16 10:35:31  5-MIN KABI 211635Z 36013KT 8SM OVC012 14/12 A3008 1650 83 2000 360/13 RMK AO2 T01440117 $
13962KABI ABI20160221104010802/21/16 10:40:31  5-MIN KABI 211640Z 01015KT 8SM OVC012 15/12 A3008 1650 80 2100 360/15 RMK AO2 T01500117 $
13962KABI ABI20160221104510802/21/16 10:45:31  5-MIN KABI 211645Z 01014KT 9SM OVC011 15/12 A3008 1650 80 2100 010/14 RMK AO2 T01500117 $
13962KABI ABI20160221105011502/21/16 10:50:31  5-MIN KABI 211650Z 02011KT 9SM OVC011 15/12 A3008 1650 80 2100 010/11 RMK AO2 SLP170 T01500117 $
13962KABI ABI20160221105510802/21/16 10:55:31  5-MIN KABI 211655Z 01009KT 9SM OVC011 15/12 A3008 1640 80 2100 360/09 RMK AO2 T01500117 $
13962KABI ABI20160221110010802/21/16 11:00:31  5-MIN KABI 211700Z 02009KT 9SM OVC011 16/12 A3010 1630 77 2100 010/09 RMK AO2 T01560117 $
13962KABI ABI20160221110511502/21/16 11:05:31  5-MIN KABI 211705Z 01007KT 8SM OVC011 15/12 A3010 1620 80 2000 010/07 RMK AO2 PRESRR T01500117 $
13962KABI ABI20160221111010802/21/16 11:10:31  5-MIN KABI 211710Z 01011KT 8SM OVC011 15/12 A3010 1630 80 2000 360/11 RMK AO2 T01500117 $
13962KABI ABI20160221111510802/21/16 11:15:31  5-MIN KABI 211715Z 01009KT 8SM OVC011 15/12 A3010 1630 80 2000 010/09 RMK AO2 T01500117 $
13962KABI ABI20160221112010802/21/16 11:20:31  5-MIN KABI 211720Z 02008KT 9SM OVC011 15/12 A3011 1620 80 2000 010/08 RMK AO2 T01500117 $
13962KABI ABI20160221112510802/21/16 11:25:31  5-MIN KABI 211725Z 01008KT 9SM OVC013 15/12 A3011 1620 80 2000 360/08 RMK AO2 T01500117 $
13962KABI ABI20160221113010802/21/16 11:30:31  5-MIN KABI 211730Z 36009KT 9SM OVC013 16/11 A3010 1630 74 2100 350/09 RMK AO2 T01560111 $
13962KABI ABI20160221113510902/21/16 11:35:31  5-MIN KABI 211735Z 36009KT 10SM OVC015 16/11 A3010 1630 74 2100 360/09 RMK AO2 T01560111 $
13962KABI ABI20160221114010902/21/16 11:40:31  5-MIN KABI 211740Z 35009KT 10SM OVC015 16/11 A3010 1630 72 2100 350/09 RMK AO2 T01560106 $
13962KABI ABI20160221114510902/21/16 11:45:31  5-MIN KABI 211745Z 34011KT 10SM OVC011 16/10 A3010 1630 69 2100 340/11 RMK AO2 T01560100 $
13962KABI ABI20160221115013402/21/16 11:50:31  5-MIN KABI 211750Z 35015KT 10SM OVC018 16/11 A3009 1630 72 2100 340/15 RMK AO2 SLP175 T01560106 10156 20139 53008 $
13962KABI ABI20160221115510902/21/16 11:55:31  5-MIN KABI 211755Z 35012KT 10SM OVC018 16/11 A3010 1630 72 2100 350/12 RMK AO2 T01560106 $
13962KABI ABI20160221120010902/21/16 12:00:31  5-MIN KABI 211800Z 36014KT 10SM OVC018 16/10 A3010 1630 69 2100 360/14 RMK AO2 T01560100 $
13962KABI ABI20160221120510902/21/16 12:05:31  5-MIN KABI 211805Z 35014KT 10SM OVC018 15/11 A3010 1630 74 2000 350/14 RMK AO2 T01500106 $
13962KABI ABI20160221121010802/21/16 12:10:31  5-MIN KABI 211810Z 33015KT 9SM OVC018 15/11 A3010 1630 74 2000 330/15 RMK AO2 T01500106 $
13962KABI ABI20160221121510802/21/16 12:15:31  5-MIN KABI 211815Z 34012KT 9SM OVC018 15/11 A3010 1620 74 2000 340/12 RMK AO2 T01500106 $
13962KABI ABI20160221122010802/21/16 12:20:31  5-MIN KABI 211820Z 35014KT 9SM OVC018 15/11 A3010 1620 74 2000 340/14 RMK AO2 T01500106 $
13962KABI ABI20160221122510802/21/16 12:25:31  5-MIN KABI 211825Z 34012KT 9SM OVC018 14/11 A3011 1620 77 2000 330/12 RMK AO2 T01440106 $
13962KABI ABI20160221123010802/21/16 12:30:31  5-MIN KABI 211830Z 33011KT 9SM OVC018 14/11 A3011 1620 77 2000 320/11 RMK AO2 T01440106 $
13962KABI ABI20160221123510802/21/16 12:35:31  5-MIN KABI 211835Z 34011KT 9SM OVC018 14/11 A3010 1620 77 2000 340/11 RMK AO2 T01440106 $
13962KABI ABI20160221124010802/21/16 12:40:31  5-MIN KABI 211840Z 34014KT 9SM OVC018 14/11 A3010 1620 77 2000 340/14 RMK AO2 T01440106 $
13962KABI ABI20160221124510802/21/16 12:45:31  5-MIN KABI 211845Z 35011KT 9SM OVC017 14/11 A3010 1630 77 2000 340/11 RMK AO2 T01440106 $
13962KABI ABI20160221125011502/21/16 12:50:31  5-MIN KABI 211850Z 35011KT 9SM OVC015 14/11 A3010 1620 77 2000 340/11 RMK AO2 SLP178 T01440106 $
13962KABI ABI20160221125510802/21/16 12:55:31  5-MIN KABI 211855Z 35010KT 9SM OVC015 14/11 A3010 1630 77 2000 350/10 RMK AO2 T01440106 $
13962KABI ABI20160221130010802/21/16 13:00:31  5-MIN KABI 211900Z 35011KT 9SM OVC015 14/11 A3010 1630 77 2000 340/11 RMK AO2 T01440106 $
13962KABI ABI20160221130510802/21/16 13:05:31  5-MIN KABI 211905Z 34011KT 9SM OVC015 14/11 A3010 1620 77 2000 340/11 RMK AO2 T01440106 $
13962KABI ABI20160221131010802/21/16 13:10:31  5-MIN KABI 211910Z 34009KT 8SM OVC015 14/11 A3010 1620 80 1900 340/09 RMK AO2 T01390106 $
13962KABI ABI20160221131510802/21/16 13:15:31  5-MIN KABI 211915Z 34011KT 8SM OVC015 14/11 A3010 1630 80 1900 340/11 RMK AO2 T01390106 $
13962KABI ABI20160221132010802/21/16 13:20:31  5-MIN KABI 211920Z 34009KT 8SM OVC015 14/11 A3010 1630 80 1900 340/09 RMK AO2 T01390106 $
13962KABI ABI20160221132510802/21/16 13:25:31  5-MIN KABI 211925Z 34011KT 8SM OVC015 14/11 A3010 1630 80 1900 330/11 RMK AO2 T01390106 $
13962KABI ABI20160221133010802/21/16 13:30:31  5-MIN KABI 211930Z 35013KT 8SM OVC015 14/11 A3010 1630 80 1900 350/13 RMK AO2 T01390106 $
13962KABI ABI20160221133510802/21/16 13:35:31  5-MIN KABI 211935Z 34011KT 8SM OVC015 14/11 A3010 1630 80 1900 330/11 RMK AO2 T01390106 $
13962KABI ABI20160221134010802/21/16 13:40:31  5-MIN KABI 211940Z 34012KT 8SM OVC013 14/11 A3010 1630 80 1900 340/12 RMK AO2 T01390106 $
13962KABI ABI20160221134510802/21/16 13:45:31  5-MIN KABI 211945Z 34013KT 8SM OVC013 14/11 A3010 1630 80 1900 340/13 RMK AO2 T01390106 $
13962KABI ABI20160221135011802/21/16 13:50:31  5-MIN KABI 211950Z 35013KT 6SM HZ OVC013 14/11 A3009 1630 80 1900 340/13 RMK AO2 SLP176 T01390106 $
13962KABI ABI20160221135511102/21/16 13:55:31  5-MIN KABI 211955Z 34014KT 4SM BR OVC013 13/11 A3009 1630 86 1900 330/14 RMK AO2 T01330111 $
13962KABI ABI20160221140011102/21/16 14:00:31  5-MIN KABI 212000Z 34013KT 4SM BR OVC013 13/11 A3009 1630 86 1900 340/13 RMK AO2 T01330111 $
13962KABI ABI20160221140511102/21/16 14:05:31  5-MIN KABI 212005Z 36011KT 5SM BR OVC013 13/11 A3009 1640 86 1900 350/11 RMK AO2 T01330111 $
13962KABI ABI20160221141011102/21/16 14:10:31  5-MIN KABI 212010Z 36011KT 6SM HZ OVC013 13/11 A3008 1650 83 1900 350/11 RMK AO2 T01330106 $
13962KABI ABI20160221141510802/21/16 14:15:31  5-MIN KABI 212015Z 34012KT 7SM OVC013 14/11 A3008 1650 80 1900 340/12 RMK AO2 T01390106 $
13962KABI ABI20160221142010802/21/16 14:20:31  5-MIN KABI 212020Z 36012KT 7SM OVC013 14/11 A3007 1650 80 1900 360/12 RMK AO2 T01390106 $
13962KABI ABI20160221142510802/21/16 14:25:31  5-MIN KABI 212025Z 36010KT 8SM OVC013 14/11 A3007 1650 83 1900 360/10 RMK AO2 T01390111 $
13962KABI ABI20160221143010802/21/16 14:30:31  5-MIN KABI 212030Z 35013KT 8SM OVC013 14/11 A3007 1660 83 2000 350/13 RMK AO2 T01390111 $
13962KABI ABI20160221143510802/21/16 14:35:31  5-MIN KABI 212035Z 35011KT 8SM OVC013 14/11 A3007 1650 83 1900 350/11 RMK AO2 T01390111 $
13962KABI ABI20160221144010802/21/16 14:40:31  5-MIN KABI 212040Z 35011KT 8SM OVC013 13/11 A3007 1660 83 1900 350/11 RMK AO2 T01330106 $
13962KABI ABI20160221144510802/21/16 14:45:31  5-MIN KABI 212045Z 35010KT 8SM OVC013 14/11 A3007 1660 83 1900 340/10 RMK AO2 T01390111 $
13962KABI ABI20160221145009802/21/16 14:50:31  5-MIN KABI 212050Z 35009KT 8SM OVC017 14/11 A3007 1650 83 1900 350/09 RMK AO2 $
13962KABI ABI20160221145510802/21/16 14:55:31  5-MIN KABI 212055Z 36008KT 8SM OVC017 14/11 A3007 1660 83 2000 360/08 RMK AO2 T01390111 $
13962KABI ABI20160221150010802/21/16 15:00:31  5-MIN KABI 212100Z 35009KT 8SM OVC017 14/11 A3006 1660 83 2000 350/09 RMK AO2 T01390111 $
13962KABI ABI20160221150510802/21/16 15:05:31  5-MIN KABI 212105Z 36009KT 8SM OVC017 14/11 A3006 1660 80 2000 360/09 RMK AO2 T01390106 $
13962KABI ABI20160221151010802/21/16 15:10:31  5-MIN KABI 212110Z 36009KT 8SM OVC018 14/11 A3006 1660 80 2000 350/09 RMK AO2 T01390106 $
13962KABI ABI20160221151510802/21/16 15:15:31  5-MIN KABI 212115Z 35009KT 8SM OVC018 14/11 A3006 1660 77 2000 350/09 RMK AO2 T01440106 $
13962KABI ABI20160221152010802/21/16 15:20:31  5-MIN KABI 212120Z 36011KT 8SM OVC018 14/11 A3006 1660 77 2000 350/11 RMK AO2 T01440106 $
13962KABI ABI20160221152510802/21/16 15:25:31  5-MIN KABI 212125Z 36012KT 8SM OVC018 14/11 A3006 1660 77 2000 360/12 RMK AO2 T01440106 $
13962KABI ABI20160221153010802/21/16 15:30:31  5-MIN KABI 212130Z 36012KT 9SM OVC018 14/10 A3006 1660 74 2000 360/12 RMK AO2 T01440100 $
13962KABI ABI20160221153510802/21/16 15:35:31  5-MIN KABI 212135Z 36012KT 9SM OVC018 14/10 A3006 1660 74 2000 350/12 RMK AO2 T01440100 $
13962KABI ABI20160221154010802/21/16 15:40:31  5-MIN KABI 212140Z 36012KT 9SM OVC019 15/10 A3006 1660 72 2100 350/12 RMK AO2 T01500100 $
13962KABI ABI20160222064010902/22/16 06:40:31  5-MIN KABI 221240Z 02006KT 10SM OVC080 10/02 A3003 1690 58 1500 010/06 RMK AO2 T01000022 $
13962KABI ABI20160222064510902/22/16 06:45:31  5-MIN KABI 221245Z 02007KT 10SM OVC080 10/02 A3003 1690 58 1500 010/07 RMK AO2 T01000022 $
13962KABI ABI20160222065011602/22/16 06:50:31  5-MIN KABI 221250Z 01008KT 10SM OVC080 10/02 A3003 1690 58 1500 010/08 RMK AO2 SLP161 T01000022 $
13962KABI ABI20160222065510902/22/16 06:55:31  5-MIN KABI 221255Z 01007KT 10SM OVC080 10/02 A3004 1680 58 1500 360/07 RMK AO2 T01000022 $
13962KABI ABI20160222070010902/22/16 07:00:31  5-MIN KABI 221300Z 36008KT 10SM OVC080 10/02 A3004 1680 58 1500 360/08 RMK AO2 T01000022 $
13962KABI ABI20160222070510902/22/16 07:05:31  5-MIN KABI 221305Z 36007KT 10SM OVC080 09/02 A3004 1680 60 1500 350/07 RMK AO2 T00940022 $
13962KABI ABI20160222071010902/22/16 07:10:31  5-MIN KABI 221310Z 36007KT 10SM BKN080 09/02 A3004 1680 63 1400 350/07 RMK AO2 T00890022 $
13962KABI ABI20160222071510902/22/16 07:15:31  5-MIN KABI 221315Z 01007KT 10SM BKN080 09/02 A3004 1680 60 1500 010/07 RMK AO2 T00940022 $
13962KABI ABI20160222072010902/22/16 07:20:31  5-MIN KABI 221320Z 01006KT 10SM BKN080 09/02 A3004 1680 60 1500 360/06 RMK AO2 T00940022 $
13962KABI ABI20160222072510902/22/16 07:25:31  5-MIN KABI 221325Z 01006KT 10SM BKN080 09/02 A3004 1680 60 1500 010/06 RMK AO2 T00940022 $
13962KABI ABI20160222073011602/22/16 07:30:31  5-MIN KABI 221330Z 01006KT 10SM FEW055 BKN080 09/02 A3004 1680 60 1500 010/06 RMK AO2 T00940022 $
13962KABI ABI20160222073511602/22/16 07:35:31  5-MIN KABI 221335Z 01007KT 10SM SCT055 OVC080 09/02 A3004 1680 60 1500 360/07 RMK AO2 T00940022 $
13962KABI ABI20160222074011602/22/16 07:40:31  5-MIN KABI 221340Z 01008KT 10SM SCT055 OVC080 09/02 A3005 1680 60 1400 010/08 RMK AO2 T00940022 $
13962KABI ABI20160222074511602/22/16 07:45:31  5-MIN KABI 221345Z 01007KT 10SM BKN055 OVC080 09/02 A3005 1670 60 1400 360/07 RMK AO2 T00940022 $
13962KABI ABI20160222075012302/22/16 07:50:31  5-MIN KABI 221350Z 01007KT 10SM SCT055 OVC080 09/02 A3005 1670 60 1400 360/07 RMK AO2 SLP167 T00940022 $
13962KABI ABI20160222075511602/22/16 07:55:31  5-MIN KABI 221355Z 36006KT 10SM SCT055 OVC080 09/02 A3005 1670 60 1400 350/06 RMK AO2 T00940022 $
13962KABI ABI20160222080011602/22/16 08:00:31  5-MIN KABI 221400Z 36006KT 10SM SCT055 OVC075 09/02 A3005 1670 60 1400 360/06 RMK AO2 T00940022 $
13962KABI ABI20160222080511402/22/16 08:05:31  5-MIN KABI 221405Z 01006KT 10SM FEW055 OVC075 09/02 A3005 1670 60 1400 010/06 RMK AO2 T00940022
13962KABI ABI20160222081011402/22/16 08:10:31  5-MIN KABI 221410Z 01006KT 10SM FEW055 OVC075 09/02 A3005 1670 60 1400 010/06 RMK AO2 T00940022
13962KABI ABI20160222081510702/22/16 08:15:31  5-MIN KABI 221415Z 01007KT 10SM OVC075 09/02 A3005 1670 60 1400 010/07 RMK AO2 T00940022
13962KABI ABI20160222082010702/22/16 08:20:31  5-MIN KABI 221420Z 03006KT 10SM OVC080 09/02 A3005 1670 60 1400 020/06 RMK AO2 T00940022
13962KABI ABI20160222082510702/22/16 08:25:31  5-MIN KABI 221425Z 04005KT 10SM OVC080 09/02 A3005 1670 60 1400 030/05 RMK AO2 T00940022
13962KABI ABI20160222083010702/22/16 08:30:31  5-MIN KABI 221430Z 04006KT 10SM OVC080 09/02 A3005 1670 60 1400 040/06 RMK AO2 T00940022
13962KABI ABI20160222083510702/22/16 08:35:31  5-MIN KABI 221435Z 04006KT 10SM OVC080 09/02 A3005 1670 60 1400 040/06 RMK AO2 T00940022
13962KABI ABI20160222084010702/22/16 08:40:31  5-MIN KABI 221440Z 03007KT 10SM OVC080 09/02 A3005 1680 58 1400 020/07 RMK AO2 T00940017
13962KABI ABI20160222084510702/22/16 08:45:31  5-MIN KABI 221445Z 04006KT 10SM OVC080 09/02 A3005 1680 58 1400 030/06 RMK AO2 T00940017
13962KABI ABI20160222085012002/22/16 08:50:31  5-MIN KABI 221450Z 03008KT 10SM OVC080 09/02 A3005 1670 58 1400 020/08 RMK AO2 SLP167 T00940017 56013
13962KABI ABI20160222085511402/22/16 08:55:31  5-MIN KABI 221455Z 03007KT 10SM FEW055 OVC080 09/02 A3005 1680 58 1400 020/07 RMK AO2 T00940017
13962KABI ABI20160222090011402/22/16 09:00:31  5-MIN KABI 221500Z 04007KT 10SM SCT055 OVC080 10/02 A3005 1680 56 1500 030/07 RMK AO2 T01000017
13962KABI ABI20160222090511402/22/16 09:05:31  5-MIN KABI 221505Z 02007KT 10SM SCT055 OVC080 10/02 A3005 1680 56 1500 020/07 RMK AO2 T01000017
13962KABI ABI20160222091011402/22/16 09:10:31  5-MIN KABI 221510Z 03006KT 10SM BKN055 OVC080 10/02 A3004 1680 56 1500 030/06 RMK AO2 T01000017
13962KABI ABI20160222091511402/22/16 09:15:31  5-MIN KABI 221515Z 04007KT 10SM BKN055 OVC080 10/02 A3004 1680 56 1500 040/07 RMK AO2 T01000017
13962KABI ABI20160222092011402/22/16 09:20:31  5-MIN KABI 221520Z 04006KT 10SM BKN055 OVC080 10/02 A3005 1680 56 1500 030/06 RMK AO2 T01000017
13962KABI ABI20160222092511402/22/16 09:25:31  5-MIN KABI 221525Z 03005KT 10SM BKN055 OVC080 10/02 A3005 1680 56 1500 030/05 RMK AO2 T01000017
13962KABI ABI20160222093011402/22/16 09:30:31  5-MIN KABI 221530Z 04007KT 10SM SCT055 OVC080 10/02 A3004 1680 56 1500 030/07 RMK AO2 T01000017
13962KABI ABI20160222093511402/22/16 09:35:31  5-MIN KABI 221535Z 03006KT 10SM SCT055 OVC080 11/02 A3004 1680 54 1600 030/06 RMK AO2 T01060017
13962KABI ABI20160222094011402/22/16 09:40:31  5-MIN KABI 221540Z 03006KT 10SM FEW055 OVC080 11/02 A3004 1680 56 1600 020/06 RMK AO2 T01060022
13962KABI ABI20160222094511402/22/16 09:45:31  5-MIN KABI 221545Z 04005KT 10SM SCT055 OVC080 11/02 A3004 1680 56 1600 030/05 RMK AO2 T01060022
13962KABI ABI20160222095012102/22/16 09:50:31  5-MIN KABI 221550Z 02004KT 10SM FEW060 OVC080 11/02 A3004 1680 54 1700 020/04 RMK AO2 SLP163 T01110022
13962KABI ABI20160222095511402/22/16 09:55:31  5-MIN KABI 221555Z VRB05KT 10SM FEW060 OVC085 11/02 A3004 1680 56 1600 VRB/05 RMK AO2 T01060022
13962KABI ABI20160222100011402/22/16 10:00:31  5-MIN KABI 221600Z 01007KT 10SM FEW060 OVC085 11/02 A3004 1680 56 1600 360/07 RMK AO2 T01060022
13962KABI ABI20160222100511402/22/16 10:05:31  5-MIN KABI 221605Z 01006KT 10SM FEW060 OVC085 11/02 A3003 1690 56 1600 360/06 RMK AO2 T01060022
13962KABI ABI20160222101011402/22/16 10:10:31  5-MIN KABI 221610Z 01005KT 10SM FEW060 OVC085 11/02 A3003 1690 54 1700 010/05 RMK AO2 T01110022
13962KABI ABI20160222101510702/22/16 10:15:31  5-MIN KABI 221615Z 04005KT 10SM OVC085 11/02 A3003 1690 54 1700 030/05 RMK AO2 T01110022
13962KABI ABI20160222102010702/22/16 10:20:31  5-MIN KABI 221620Z VRB05KT 10SM OVC085 12/03 A3003 1690 52 1800 VRB/05 RMK AO2 T01220028
13962KABI ABI20160222102510702/22/16 10:25:31  5-MIN KABI 221625Z 00000KT 10SM OVC085 12/02 A3003 1690 52 1700 000/00 RMK AO2 T01170022
13962KABI ABI20160222103010702/22/16 10:30:31  5-MIN KABI 221630Z 07003KT 10SM OVC085 12/02 A3003 1690 52 1700 070/03 RMK AO2 T01170022
13962KABI ABI20160222103510702/22/16 10:35:31  5-MIN KABI 221635Z VRB03KT 10SM BKN085 12/02 A3003 1690 50 1800 VRB/03 RMK AO2 T01220022
13962KABI ABI20160222104010702/22/16 10:40:31  5-MIN KABI 221640Z VRB04KT 10SM BKN085 12/03 A3002 1700 52 1800 VRB/04 RMK AO2 T01220028
13962KABI ABI20160222104510702/22/16 10:45:31  5-MIN KABI 221645Z 00000KT 10SM BKN085 13/02 A3002 1700 48 1900 000/00 RMK AO2 T01280022
13962KABI ABI20160222105011402/22/16 10:50:31  5-MIN KABI 221650Z VRB03KT 10SM BKN085 12/02 A3002 1700 50 1800 VRB/03 RMK AO2 SLP155 T01220022
13962KABI ABI20160222105510702/22/16 10:55:31  5-MIN KABI 221655Z VRB04KT 10SM BKN080 12/02 A3002 1700 50 1800 VRB/04 RMK AO2 T01220022
13962KABI ABI20160222110010702/22/16 11:00:31  5-MIN KABI 221700Z 02004KT 10SM BKN080 13/03 A3002 1700 48 1900 020/04 RMK AO2 T01330028
13962KABI ABI20160222110510702/22/16 11:05:31  5-MIN KABI 221705Z VRB03KT 10SM BKN080 13/03 A3002 1700 48 1900 VRB/03 RMK AO2 T01330028
13962KABI ABI20160222111010702/22/16 11:10:31  5-MIN KABI 221710Z 00000KT 10SM BKN080 14/03 A3001 1710 47 2000 000/00 RMK AO2 T01390028
13962KABI ABI20160222111511402/22/16 11:15:31  5-MIN KABI 221715Z 13005KT 10SM FEW060 BKN080 13/02 A3000 1710 48 1900 120/05 RMK AO2 T01280022
13962KABI ABI20160222112011402/22/16 11:20:31  5-MIN KABI 221720Z 00000KT 10SM FEW060 OVC080 13/03 A3000 1720 48 2000 000/00 RMK AO2 T01330028
13962KABI ABI20160222112511402/22/16 11:25:31  5-MIN KABI 221725Z VRB03KT 10SM FEW055 BKN080 13/02 A2999 1720 46 2000 VRB/03 RMK AO2 T01330022
13962KABI ABI20160222113010402/22/16 11:30:31  5-MIN KABI 221730Z 10SM FEW055 BKN080 14/02 A2999 1730 45 2000 M /M RMK AO2 T01390022
13962KABI ABI20160222113511402/22/16 11:35:31  5-MIN KABI 221735Z 00000KT 10SM FEW055 BKN080 13/02 A2999 1730 46 2000 000/00 RMK AO2 T01330022
13962KABI ABI20160222114011402/22/16 11:40:31  5-MIN KABI 221740Z 13005KT 10SM SCT055 BKN080 14/02 A2999 1730 45 2000 130/05 RMK AO2 T01390022
13962KABI ABI20160222114511402/22/16 11:45:31  5-MIN KABI 221745Z 08003KT 10SM BKN055 BKN080 15/02 A2999 1730 42 2200 070/03 RMK AO2 T01500022
13962KABI ABI20160222115013202/22/16 11:50:31  5-MIN KABI 221750Z VRB04KT 10SM BKN055 14/02 A2998 1730 41 2100 VRB/04 RMK AO2 SLP142 T01440017 10150 20089 50007
13962KABI ABI20160222115510702/22/16 11:55:31  5-MIN KABI 221755Z VRB04KT 10SM BKN055 14/02 A2998 1740 41 2100 VRB/04 RMK AO2 T01440017
13962KABI ABI20160222120011402/22/16 12:00:31  5-MIN KABI 221800Z 13004KT 10SM SCT055 BKN085 14/02 A2998 1740 43 2100 130/04 RMK AO2 T01440022
13962KABI ABI20160222120511402/22/16 12:05:31  5-MIN KABI 221805Z VRB04KT 10SM BKN055 BKN085 14/02 A2997 1740 41 2100 VRB/04 RMK AO2 T01440017
13962KABI ABI20160222121011402/22/16 12:10:31  5-MIN KABI 221810Z 14004KT 10SM BKN055 BKN085 14/02 A2997 1740 41 2100 140/04 RMK AO2 T01440017
13962KABI ABI20160222121511402/22/16 12:15:31  5-MIN KABI 221815Z 12005KT 10SM BKN055 BKN085 14/02 A2997 1750 43 2100 110/05 RMK AO2 T01390017
13962KABI ABI20160222122011402/22/16 12:20:31  5-MIN KABI 221820Z VRB03KT 10SM BKN055 BKN085 14/02 A2997 1750 43 2100 VRB/03 RMK AO2 T01390017
13962KABI ABI20160222122510702/22/16 12:25:31  5-MIN KABI 221825Z 00000KT 10SM OVC055 14/02 A2996 1750 41 2100 000/00 RMK AO2 T01440017
13962KABI ABI20160222123010702/22/16 12:30:31  5-MIN KABI 221830Z 15004KT 10SM OVC060 14/02 A2996 1760 41 2100 150/04 RMK AO2 T01440017
13962KABI ABI20160222123510702/22/16 12:35:31  5-MIN KABI 221835Z 16004KT 10SM OVC060 14/02 A2995 1760 41 2100 160/04 RMK AO2 T01440017
13962KABI ABI20160222124010702/22/16 12:40:31  5-MIN KABI 221840Z 00000KT 10SM OVC060 15/02 A2995 1770 42 2200 000/00 RMK AO2 T01500022
13962KABI ABI20160222124511402/22/16 12:45:31  5-MIN KABI 221845Z 10003KT 10SM BKN060 OVC080 16/02 A2995 1770 40 2300 100/03 RMK AO2 T01560022
13962KABI ABI20160222125012102/22/16 12:50:31  5-MIN KABI 221850Z 17004KT 10SM BKN060 OVC080 15/02 A2995 1770 42 2200 170/04 RMK AO2 SLP129 T01500022
13962KABI ABI20160222125511402/22/16 12:55:31  5-MIN KABI 221855Z 15005KT 10SM BKN060 OVC080 15/02 A2994 1770 42 2200 150/05 RMK AO2 T01500022
13962KABI ABI20160222130011402/22/16 13:00:31  5-MIN KABI 221900Z 17004KT 10SM BKN060 OVC080 14/02 A2994 1770 43 2200 170/04 RMK AO2 T01440022
13962KABI ABI20160222130512102/22/16 13:05:31  5-MIN KABI 221905Z 12005KT 10SM SCT055 BKN070 OVC080 14/02 A2994 1780 43 2200 120/05 RMK AO2 T01440022
13962KABI ABI20160222131011402/22/16 13:10:31  5-MIN KABI 221910Z 00000KT 10SM SCT055 OVC075 14/02 A2994 1780 41 2200 000/00 RMK AO2 T01440017
13962KABI ABI20160222131511402/22/16 13:15:31  5-MIN KABI 221915Z 00000KT 10SM SCT055 OVC075 16/02 A2993 1780 40 2300 000/00 RMK AO2 T01560022
13962KABI ABI20160222132011402/22/16 13:20:31  5-MIN KABI 221920Z 00000KT 10SM BKN065 OVC080 15/02 A2993 1780 42 2200 000/00 RMK AO2 T01500022
13962KABI ABI20160222132512102/22/16 13:25:31  5-MIN KABI 221925Z 33003KT 10SM SCT055 BKN070 OVC080 15/02 A2993 1790 42 2200 330/03 RMK AO2 T01500022
13962KABI ABI20160222133012102/22/16 13:30:31  5-MIN KABI 221930Z 00000KT 10SM BKN055 BKN070 OVC080 15/02 A2993 1790 40 2200 000/00 RMK AO2 T01500017
13962KABI ABI20160222133512102/22/16 13:35:31  5-MIN KABI 221935Z 00000KT 10SM BKN055 BKN065 OVC080 15/02 A2992 1790 42 2200 000/00 RMK AO2 T01500022
13962KABI ABI20160222134012102/22/16 13:40:31  5-MIN KABI 221940Z 00000KT 10SM BKN055 BKN065 OVC080 15/02 A2992 1790 42 2300 000/00 RMK AO2 T01500022
13962KABI ABI20160222134510702/22/16 13:45:31  5-MIN KABI 221945Z 00000KT 10SM OVC055 15/02 A2992 1800 42 2300 000/00 RMK AO2 T01500022
13962KABI ABI20160222135011402/22/16 13:50:31  5-MIN KABI 221950Z 00000KT 10SM OVC055 15/02 A2991 1800 42 2300 000/00 RMK AO2 SLP118 T01500022
13962KABI ABI20160222135510702/22/16 13:55:31  5-MIN KABI 221955Z 33003KT 10SM OVC055 15/02 A2991 1800 42 2300 330/03 RMK AO2 T01500022
13962KABI ABI20160222140010702/22/16 14:00:31  5-MIN KABI 222000Z VRB03KT 10SM OVC050 15/02 A2991 1800 42 2300 VRB/03 RMK AO2 T01500022
13962KABI ABI20160222140510702/22/16 14:05:31  5-MIN KABI 222005Z 00000KT 10SM OVC050 15/02 A2990 1810 42 2300 000/00 RMK AO2 T01500022
13962KABI ABI20160222141010702/22/16 14:10:31  5-MIN KABI 222010Z 00000KT 10SM OVC055 15/02 A2990 1810 42 2300 000/00 RMK AO2 T01500022
13962KABI ABI20160222141510702/22/16 14:15:31  5-MIN KABI 222015Z 00000KT 10SM OVC055 15/02 A2990 1810 40 2300 000/00 RMK AO2 T01500017
13962KABI ABI20160222142010702/22/16 14:20:31  5-MIN KABI 222020Z 34004KT 10SM OVC055 15/02 A2990 1810 42 2300 340/04 RMK AO2 T01500022
13962KABI ABI20160222142510702/22/16 14:25:31  5-MIN KABI 222025Z 02004KT 10SM OVC055 15/02 A2989 1820 42 2300 010/04 RMK AO2 T01500022
13962KABI ABI20160222143010702/22/16 14:30:31  5-MIN KABI 222030Z 02004KT 10SM OVC055 15/02 A2989 1820 42 2300 010/04 RMK AO2 T01500022
13962KABI ABI20160222143510702/22/16 14:35:31  5-MIN KABI 222035Z 36003KT 10SM OVC055 15/02 A2989 1830 42 2300 360/03 RMK AO2 T01500022
13962KABI ABI20160222144010702/22/16 14:40:31  5-MIN KABI 222040Z 34004KT 10SM OVC055 14/02 A2988 1830 43 2200 340/04 RMK AO2 T01440022
13962KABI ABI20160222144510702/22/16 14:45:31  5-MIN KABI 222045Z 35003KT 10SM OVC055 14/02 A2988 1830 43 2200 340/03 RMK AO2 T01440022
13962KABI ABI20160222145014202/22/16 14:50:31  5-MIN KABI 222050Z 00000KT 10SM -RA OVC050 14/02 A2988 1830 43 2200 000/00 RMK AO2 RAB50 SLP109 P0000 60000 T01440022 58021
13962KABI ABI20160222145511702/22/16 14:55:31  5-MIN KABI 222055Z 28003KT 10SM -RA OVC050 14/03 A2988 1830 47 2200 270/03 RMK AO2 P0000 T01440033
13962KABI ABI20160222150011702/22/16 15:00:31  5-MIN KABI 222100Z 32005KT 10SM -RA OVC050 14/03 A2988 1830 47 2200 310/05 RMK AO2 P0000 T01440033
13962KABI ABI20160222150511902/22/16 15:05:31  5-MIN KABI 222105Z 34004KT 10SM OVC055 14/04 A2987 1840 49 2200 330/04 RMK AO2 RAE04 P0000 T01440039
13962KABI ABI20160222151011902/22/16 15:10:31  5-MIN KABI 222110Z 01004KT 10SM OVC055 14/03 A2987 1840 47 2200 360/04 RMK AO2 RAE04 P0000 T01440033
13962KABI ABI20160222151511902/22/16 15:15:31  5-MIN KABI 222115Z 35005KT 10SM OVC055 14/03 A2987 1840 47 2200 350/05 RMK AO2 RAE04 P0000 T01440033
13962KABI ABI20160222152012602/22/16 15:20:31  5-MIN KABI 222120Z 36007KT 10SM BKN055 OVC070 15/03 A2986 1840 45 2300 350/07 RMK AO2 RAE04 P0000 T01500033
13962KABI ABI20160222152512602/22/16 15:25:31  5-MIN KABI 222125Z 34005KT 10SM BKN060 BKN070 16/03 A2986 1850 43 2400 340/05 RMK AO2 RAE04 P0000 T01560033
13962KABI ABI20160222153012602/22/16 15:30:31  5-MIN KABI 222130Z 01006KT 10SM BKN060 BKN070 16/03 A2985 1850 43 2400 360/06 RMK AO2 RAE04 P0000 T01560033
13962KABI ABI20160222153514002/22/16 15:35:31  5-MIN KABI 222135Z 05005KT 10SM FEW050 BKN060 BKN095 16/03 A2985 1860 42 2400 040/05 RMK AO2 RAE04 PRESFR P0000 T01560028
13962KABI ABI20160222154012602/22/16 15:40:31  5-MIN KABI 222140Z 04005KT 10SM SCT065 BKN095 15/03 A2984 1860 43 2300 040/05 RMK AO2 RAE04 P0000 T01500028
13962KABI ABI20160222154512602/22/16 15:45:31  5-MIN KABI 222145Z 06006KT 10SM SCT070 BKN090 15/03 A2984 1870 43 2300 050/06 RMK AO2 RAE04 P0000 T01500028
13962KABI ABI20160222155014002/22/16 15:50:31  5-MIN KABI 222150Z 06006KT 10SM FEW060 SCT075 BKN090 15/02 A2984 1870 42 2300 050/06 RMK AO2 RAE04 SLP092 P0000 T01500022
13962KABI ABI20160222155511402/22/16 15:55:31  5-MIN KABI 222155Z 05007KT 10SM FEW055 BKN085 15/02 A2983 1880 42 2400 050/07 RMK AO2 T01500022
13962KABI ABI20160222160010702/22/16 16:00:31  5-MIN KABI 222200Z 05007KT 10SM OVC085 15/02 A2983 1880 42 2400 050/07 RMK AO2 T01500022
13962KABI ABI20160222160510702/22/16 16:05:31  5-MIN KABI 222205Z 06007KT 10SM OVC085 15/02 A2982 1880 42 2400 050/07 RMK AO2 T01500022
13962KABI ABI20160222161010702/22/16 16:10:31  5-MIN KABI 222210Z 06007KT 10SM OVC080 15/02 A2982 1880 42 2400 050/07 RMK AO2 T01500022
13962KABI ABI20160222161511402/22/16 16:15:31  5-MIN KABI 222215Z 05007KT 10SM SCT070 OVC085 15/02 A2982 1880 42 2400 050/07 RMK AO2 T01500022
13962KABI ABI20160222162011402/22/16 16:20:31  5-MIN KABI 222220Z 05006KT 10SM BKN065 OVC085 15/02 A2982 1880 42 2400 040/06 RMK AO2 T01500022
13962KABI ABI20160222162511402/22/16 16:25:31  5-MIN KABI 222225Z 06007KT 10SM BKN065 OVC085 15/02 A2982 1890 42 2400 050/07 RMK AO2 T01500022
13962KABI ABI20160222163011402/22/16 16:30:31  5-MIN KABI 222230Z 05008KT 10SM BKN065 OVC080 15/02 A2982 1890 42 2400 050/08 RMK AO2 T01500022
13962KABI ABI20160222163511402/22/16 16:35:31  5-MIN KABI 222235Z 04006KT 10SM BKN065 OVC080 15/02 A2981 1890 42 2400 040/06 RMK AO2 T01500022
13962KABI ABI20160222164010702/22/16 16:40:31  5-MIN KABI 222240Z 06008KT 10SM OVC060 14/02 A2981 1890 43 2300 050/08 RMK AO2 T01440022
13962KABI ABI20160222164510702/22/16 16:45:31  5-MIN KABI 222245Z 06007KT 10SM OVC060 14/02 A2981 1900 43 2300 050/07 RMK AO2 T01440022
13962KABI ABI20160222165011402/22/16 16:50:31  5-MIN KABI 222250Z 05006KT 10SM OVC060 14/03 A2981 1900 45 2300 040/06 RMK AO2 SLP084 T01440028
13962KABI ABI20160222165510702/22/16 16:55:31  5-MIN KABI 222255Z 04007KT 10SM OVC060 14/03 A2981 1900 45 2300 040/07 RMK AO2 T01440028
13962KABI ABI20160222170010702/22/16 17:00:31  5-MIN KABI 222300Z 04007KT 10SM OVC060 14/03 A2981 1900 45 2300 040/07 RMK AO2 T01440028
13962KABI ABI20160222170510702/22/16 17:05:31  5-MIN KABI 222305Z 06008KT 10SM OVC060 14/03 A2981 1900 47 2300 050/08 RMK AO2 T01440033
13962KABI ABI20160222171011402/22/16 17:10:31  5-MIN KABI 222310Z 06009KT 10SM BKN060 OVC070 14/03 A2980 1900 47 2300 050/09 RMK AO2 T01440033
13962KABI ABI20160222171510702/22/16 17:15:31  5-MIN KABI 222315Z 06010KT 10SM OVC065 14/03 A2980 1900 47 2300 050/10 RMK AO2 T01390028
13962KABI ABI20160222172010702/22/16 17:20:31  5-MIN KABI 222320Z 05010KT 10SM OVC065 14/03 A2980 1910 48 2300 050/10 RMK AO2 T01390033
13962KABI ABI20160222172510702/22/16 17:25:31  5-MIN KABI 222325Z 05010KT 10SM OVC065 14/03 A2980 1910 48 2300 050/10 RMK AO2 T01390033
13962KABI ABI20160222173011402/22/16 17:30:31  5-MIN KABI 222330Z 05009KT 10SM FEW044 OVC070 14/03 A2980 1910 48 2300 050/09 RMK AO2 T01390033
13962KABI ABI20160222173511402/22/16 17:35:31  5-MIN KABI 222335Z 07008KT 10SM FEW044 OVC070 13/03 A2979 1910 48 2200 060/08 RMK AO2 T01330028
13962KABI ABI20160222174011402/22/16 17:40:31  5-MIN KABI 222340Z 06008KT 10SM FEW044 OVC065 13/03 A2979 1910 48 2200 060/08 RMK AO2 T01330028
13962KABI ABI20160222174511402/22/16 17:45:31  5-MIN KABI 222345Z 06009KT 10SM FEW044 OVC065 13/03 A2979 1920 50 2200 050/09 RMK AO2 T01330033
13962KABI ABI20160222175014502/22/16 17:50:31  5-MIN KABI 222350Z 06010KT 10SM FEW044 OVC065 13/03 A2979 1920 48 2200 050/10 RMK AO2 SLP076 60000 T01330028 10156 20133 56033
13962KABI ABI20160222175510702/22/16 17:55:31  5-MIN KABI 222355Z 06007KT 10SM OVC065 13/03 A2979 1910 48 2200 060/07 RMK AO2 T01330028
13962KABI ABI20160222180010702/22/16 18:00:31  5-MIN KABI 230000Z 07008KT 10SM OVC065 13/03 A2979 1910 48 2200 060/08 RMK AO2 T01330028
13962KABI ABI20160222180510702/22/16 18:05:31  5-MIN KABI 230005Z 07008KT 10SM OVC060 13/03 A2979 1910 48 2200 060/08 RMK AO2 T01330028
13962KABI ABI20160222181010702/22/16 18:10:31  5-MIN KABI 230010Z 07007KT 10SM OVC060 13/03 A2980 1910 48 2200 060/07 RMK AO2 T01330028
13962KABI ABI20160222181510702/22/16 18:15:31  5-MIN KABI 230015Z 07007KT 10SM OVC060 13/03 A2980 1910 50 2200 060/07 RMK AO2 T01330033
13962KABI ABI20160222182010702/22/16 18:20:31  5-MIN KABI 230020Z 07008KT 10SM OVC060 13/03 A2979 1910 52 2100 070/08 RMK AO2 T01280033
13962KABI ABI20160222182510702/22/16 18:25:31  5-MIN KABI 230025Z 08010KT 10SM OVC060 13/03 A2978 1920 52 2100 070/10 RMK AO2 T01280033
13962KABI ABI20160222183010702/22/16 18:30:31  5-MIN KABI 230030Z 08009KT 10SM OVC065 13/03 A2979 1920 52 2100 080/09 RMK AO2 T01280033
13962KABI ABI20160222183511402/22/16 18:35:31  5-MIN KABI 230035Z 09008KT 10SM SCT060 OVC070 13/03 A2979 1920 52 2100 080/08 RMK AO2 T01280033
13962KABI ABI20160222184011402/22/16 18:40:31  5-MIN KABI 230040Z 09009KT 10SM SCT055 OVC070 13/03 A2978 1920 52 2100 080/09 RMK AO2 T01280033
13962KABI ABI20160222184511402/22/16 18:45:31  5-MIN KABI 230045Z 08010KT 10SM FEW055 OVC070 13/03 A2977 1930 52 2200 080/10 RMK AO2 T01280033
13962KABI ABI20160222185011402/22/16 18:50:31  5-MIN KABI 230050Z 08008KT 10SM OVC070 13/03 A2978 1930 52 2200 080/08 RMK AO2 SLP074 T01280033
13962KABI ABI20160222185510702/22/16 18:55:31  5-MIN KABI 230055Z 08009KT 10SM OVC070 13/03 A2977 1930 52 2200 080/09 RMK AO2 T01280033
13962KABI ABI20160222190010702/22/16 19:00:31  5-MIN KABI 230100Z 07007KT 10SM OVC070 13/03 A2978 1930 52 2200 070/07 RMK AO2 T01280033
13962KABI ABI20160222190510702/22/16 19:05:31  5-MIN KABI 230105Z 06005KT 10SM OVC070 13/03 A2978 1920 52 2200 060/05 RMK AO2 T01280033
13962KABI ABI20160222191010702/22/16 19:10:31  5-MIN KABI 230110Z 06006KT 10SM OVC070 13/03 A2978 1930 52 2200 060/06 RMK AO2 T01280033
13962KABI ABI20160222191510702/22/16 19:15:31  5-MIN KABI 230115Z 07007KT 10SM OVC070 13/03 A2977 1930 52 2200 070/07 RMK AO2 T01280033
13962KABI ABI20160222192010702/22/16 19:20:31  5-MIN KABI 230120Z 08007KT 10SM OVC070 13/03 A2977 1930 52 2200 070/07 RMK AO2 T01280033
13962KABI ABI20160222192510702/22/16 19:25:31  5-MIN KABI 230125Z 07007KT 10SM OVC070 13/03 A2976 1940 52 2200 070/07 RMK AO2 T01280033
13962KABI ABI20160222193010702/22/16 19:30:31  5-MIN KABI 230130Z 07007KT 10SM OVC070 13/03 A2976 1940 52 2200 070/07 RMK AO2 T01280033
13962KABI ABI20160222193510702/22/16 19:35:31  5-MIN KABI 230135Z 07007KT 10SM OVC070 13/03 A2976 1940 52 2200 070/07 RMK AO2 T01280033
13962KABI ABI20160222194011402/22/16 19:40:31  5-MIN KABI 230140Z 08007KT 10SM BKN070 OVC085 12/03 A2975 1950 54 2100 070/07 RMK AO2 T01220033
13962KABI ABI20160222194511402/22/16 19:45:31  5-MIN KABI 230145Z 09008KT 10SM BKN070 OVC085 13/03 A2975 1950 52 2200 080/08 RMK AO2 T01280033
13962KABI ABI20160222195011402/22/16 19:50:31  5-MIN KABI 230150Z 09007KT 10SM OVC080 13/03 A2974 1960 52 2200 080/07 RMK AO2 SLP064 T01280033
13962KABI ABI20160222195511402/22/16 19:55:31  5-MIN KABI 230155Z 09008KT 10SM OVC080 13/03 A2973 1960 52 2200 080/08 RMK AO2 PRESFR T01280033
13962KABI ABI20160222200010702/22/16 20:00:31  5-MIN KABI 230200Z 09007KT 10SM OVC080 12/03 A2974 1960 54 2100 090/07 RMK AO2 T01220033
13962KABI ABI20160222200510702/22/16 20:05:31  5-MIN KABI 230205Z 10006KT 10SM OVC080 12/03 A2975 1960 54 2100 090/06 RMK AO2 T01220033
13962KABI ABI20160222201010702/22/16 20:10:31  5-MIN KABI 230210Z 10005KT 10SM OVC080 12/04 A2975 1950 56 2100 100/05 RMK AO2 T01220039
13962KABI ABI20160222201510702/22/16 20:15:31  5-MIN KABI 230215Z 10006KT 10SM OVC075 12/04 A2976 1940 56 2100 100/06 RMK AO2 T01220039
13962KABI ABI20160222202010702/22/16 20:20:31  5-MIN KABI 230220Z 10005KT 10SM OVC080 12/04 A2976 1940 56 2100 090/05 RMK AO2 T01220039
13962KABI ABI20160222202512902/22/16 20:25:31  5-MIN KABI 230225Z 09005KT 10SM OVC075 13/04 A2976 1940 54 2200 080/05 RMK AO2 LTGICCCCG TS NW MOV E T01280039
13962KABI ABI20160222203012902/22/16 20:30:31  5-MIN KABI 230230Z 10006KT 10SM OVC080 13/04 A2976 1940 54 2200 090/06 RMK AO2 LTGICCCCG TS NW MOV E T01280039
13962KABI ABI20160222203513602/22/16 20:35:31  5-MIN KABI 230235Z 11006KT 10SM BKN075 OVC090 13/04 A2976 1940 54 2200 100/06 RMK AO2 LTGICCCCG TS NW MOV E T01280039
13962KABI ABI20160222204013602/22/16 20:40:31  5-MIN KABI 230240Z 11006KT 10SM BKN075 OVC090 13/04 A2976 1950 54 2200 100/06 RMK AO2 LTGICCCCG TS NW MOV E T01280039
13962KABI ABI20160222204513602/22/16 20:45:31  5-MIN KABI 230245Z 10005KT 10SM FEW070 OVC085 13/04 A2976 1940 56 2200 100/05 RMK AO2 LTGICCCCG TS NW MOV E T01280044
13962KABI ABI20160222205014902/22/16 20:50:31  5-MIN KABI 230250Z 09005KT 10SM FEW070 OVC085 13/04 A2976 1940 56 2200 090/05 RMK AO2 SLP071 LTGICCCCG TS NW MOV E T01280044 56030
13962KABI ABI20160222205511402/22/16 20:55:31  5-MIN KABI 230255Z 08005KT 10SM FEW070 OVC085 13/04 A2977 1930 56 2200 070/05 RMK AO2 T01280044
13962KABI ABI20160222210012102/22/16 21:00:31  5-MIN KABI 230300Z 02004KT 10SM FEW043 SCT070 OVC085 13/04 A2977 1930 56 2200 020/04 RMK AO2 T01280044
13962KABI ABI20160222210512802/22/16 21:05:31  5-MIN KABI 230305Z 34007KT 10SM SCT041 SCT055 OVC085 13/04 A2978 1920 56 2100 330/07 RMK AO2 PRESRR T01280044
13962KABI ABI20160222211013602/22/16 21:10:31  5-MIN KABI 230310Z 34008KT 4SM -RA BKN041 OVC085 12/06 A2979 1910 66 2100 330/08 RMK AO2 RAB07 PRESRR P0000 T01220061
13962KABI ABI20160222211513602/22/16 21:15:31  5-MIN KABI 230315Z 28010KT 2SM +RA BKN041 OVC085 11/07 A2982 1890 77 1900 270/10 RMK AO2 RAB07 PRESRR P0006 T01110072
13962KABI ABI20160222212014302/22/16 21:20:31  5-MIN KABI 230320Z 00000KT 1 1/2SM +RA BR FEW026 BKN039 OVC080 10/08 A2981 1890 86 1800 000/00 RMK AO2 RAB07 P0013 T01000078
13962KABI ABI20160222212513602/22/16 21:25:31  5-MIN KABI 230325Z 08006KT 1 1/2SM +RA BR SCT027 OVC039 10/08 A2980 1900 89 1800 070/06 RMK AO2 RAB07 P0026 T01000083
13962KABI ABI20160222213013902/22/16 21:30:31  5-MIN KABI 230330Z 06009KT 2SM +RA BR BKN033 BKN041 OVC070 10/08 A2980 1910 86 1800 050/09 RMK AO2 RAB07 P0034 T01000078
13962KABI ABI20160222213513102/22/16 21:35:31  5-MIN KABI 230335Z 33006KT 3SM RA BR BKN043 OVC070 10/08 A2981 1900 86 1800 320/06 RMK AO2 RAB07 P0035 T01000078
13962KABI ABI20160222214013902/22/16 21:40:31  5-MIN KABI 230340Z 33013KT 3SM +RA BR FEW022 SCT038 OVC046 10/08 A2981 1890 89 1800 320/13 RMK AO2 RAB07 P0039 T01000083
13962KABI ABI20160222214513102/22/16 21:45:31  5-MIN KABI 230345Z 36010KT 3SM RA BR FEW022 OVC043 10/08 A2980 1900 89 1800 360/10 RMK AO2 RAB07 P0040 T01000083
13962KABI ABI20160222215013902/22/16 21:50:31  5-MIN KABI 230350Z 36008KT 6SM +RA BR BKN045 OVC070 09/08 A2980 1900 93 1700 360/08 RMK AO2 RAB07 SLP084 P0042 T00940083
13962KABI ABI20160222215513202/22/16 21:55:31  5-MIN KABI 230355Z 01007KT 3SM RA BR FEW024 BKN050 OVC070 09/08 A2980 1900 93 1700 360/07 RMK AO2 P0001 T00940083
13962KABI ABI20160222220013202/22/16 22:00:31  5-MIN KABI 230400Z 36008KT 4SM RA BR SCT020 BKN036 OVC050 09/08 A2981 1900 93 1700 350/08 RMK AO2 P0003 T00940083
13962KABI ABI20160222220513202/22/16 22:05:31  5-MIN KABI 230405Z 01008KT 4SM RA BR BKN020 BKN026 OVC050 09/08 A2980 1900 93 1700 010/08 RMK AO2 P0005 T00940083
13962KABI ABI20160222221013202/22/16 22:10:31  5-MIN KABI 230410Z 03006KT 4SM RA BR BKN020 BKN026 OVC048 09/08 A2979 1920 93 1700 030/06 RMK AO2 P0007 T00940083
13962KABI ABI20160222221513902/22/16 22:15:31  5-MIN KABI 230415Z 05008KT 4SM RA BR BKN019 BKN029 OVC075 09/08 A2977 1940 93 1800 050/08 RMK AO2 PRESFR P0009 T00940083
13962KABI ABI20160222222013302/22/16 22:20:31  5-MIN KABI 230420Z 05006KT 5SM -RA BR SCT019 BKN029 OVC080 09/08 A2977 1930 93 1800 040/06 RMK AO2 P0011 T00940083
13962KABI ABI20160222222512302/22/16 22:25:31  5-MIN KABI 230425Z 01009KT 7SM -RA SCT019 OVC080 09/08 A2977 1930 93 1800 010/09 RMK AO2 P0011 T00940083
13962KABI ABI20160222223013702/22/16 22:30:31  5-MIN KABI 230430Z 06013KT 8SM -RA FEW019 SCT050 OVC080 09/08 A2972 1980 89 1800 060/13 RMK AO2 PRESFR P0012 T00940078
13962KABI ABI20160222223514302/22/16 22:35:31  5-MIN KABI 230435Z 05014G22KT 9SM -RA FEW019 SCT050 OVC080 09/08 A2970 2000 93 1800 050/14G22 RMK AO2 PRESFR P0012 T00890078
13962KABI ABI20160222224013602/22/16 22:40:31  5-MIN KABI 230440Z 03009G22KT 9SM -RA FEW050 BKN080 OVC100 09/08 A2972 1980 93 1800 020/09G22 RMK AO2 P0012 T00890078
13962KABI ABI20160222224513102/22/16 22:45:31  5-MIN KABI 230445Z 35011KT 10SM -RA FEW014 BKN080 OVC100 09/08 A2975 1950 93 1700 350/11 RMK AO2 P0012 T00890078
13962KABI ABI20160222225013802/22/16 22:50:31  5-MIN KABI 230450Z 01012KT 10SM -RA SCT014 BKN055 OVC100 09/08 A2974 1960 93 1700 010/12 RMK AO2 SLP063 P0012 T00890078
13962KABI ABI20160222225513102/22/16 22:55:31  5-MIN KABI 230455Z 01011KT 10SM -RA BKN014 BKN055 OVC100 09/07 A2974 1960 89 1700 360/11 RMK AO2 P0000 T00890072
13962KABI ABI20160222230013102/22/16 23:00:31  5-MIN KABI 230500Z 01009KT 10SM -RA FEW009 BKN014 OVC100 09/08 A2974 1960 93 1700 010/09 RMK AO2 P0000 T00890078
13962KABI ABI20160222230513302/22/16 23:05:31  5-MIN KABI 230505Z 02010KT 10SM FEW009 BKN014 OVC100 09/07 A2974 1960 89 1700 010/10 RMK AO2 RAE01 P0000 T00890072
13962KABI ABI20160222231012602/22/16 23:10:31  5-MIN KABI 230510Z 03009KT 10SM FEW009 OVC014 08/07 A2973 1970 93 1700 020/09 RMK AO2 RAE01 P0000 T00830072
13962KABI ABI20160222231511902/22/16 23:15:31  5-MIN KABI 230515Z 03010KT 10SM OVC014 08/07 A2972 1980 93 1700 020/10 RMK AO2 RAE01 P0000 T00830072
13962KABI ABI20160222232011902/22/16 23:20:31  5-MIN KABI 230520Z 03006KT 10SM OVC014 08/07 A2974 1960 93 1700 020/06 RMK AO2 RAE01 P0000 T00830072
13962KABI ABI20160222232511902/22/16 23:25:31  5-MIN KABI 230525Z 05007KT 10SM OVC014 08/07 A2973 1970 93 1700 050/07 RMK AO2 RAE01 P0000 T00830072
13962KABI ABI20160222233011902/22/16 23:30:31  5-MIN KABI 230530Z 08008KT 10SM OVC014 08/07 A2971 1990 93 1700 070/08 RMK AO2 RAE01 P0000 T00830072
13962KABI ABI20160222233511902/22/16 23:35:31  5-MIN KABI 230535Z 09011KT 10SM OVC015 08/07 A2969 2010 93 1700 080/11 RMK AO2 RAE01 P0000 T00830072
13962KABI ABI20160222234011902/22/16 23:40:31  5-MIN KABI 230540Z 03006KT 10SM OVC015 08/07 A2973 1970 93 1700 020/06 RMK AO2 RAE01 P0000 T00830072
13962KABI ABI20160222234511902/22/16 23:45:31  5-MIN KABI 230545Z 35007KT 10SM OVC014 08/07 A2974 1960 93 1700 350/07 RMK AO2 RAE01 P0000 T00830072
13962KABI ABI20160222235016002/22/16 23:50:31  5-MIN KABI 230550Z 36008KT 10SM OVC014 08/08 A2974 1960 96 1700 350/08 RMK AO2 RAE01 SLP061 P0000 60056 T00830078 10133 20083 401560083 58009
13962KABI ABI20160222235510702/22/16 23:55:31  5-MIN KABI 230555Z 35009KT 10SM OVC012 08/08 A2975 1950 96 1700 340/09 RMK AO2 T00830078
13962KABI ABI20160223000010702/23/16 00:00:31  5-MIN KABI 230600Z 04006KT 10SM OVC012 09/07 A2974 1960 89 1700 030/06 RMK AO2 T00890072
13962KABI ABI20160223000510702/23/16 00:05:31  5-MIN KABI 230605Z 04007KT 10SM OVC012 08/07 A2973 1970 93 1700 040/07 RMK AO2 T00830072
13962KABI ABI20160223001010702/23/16 00:10:31  5-MIN KABI 230610Z 02007KT 10SM OVC012 08/07 A2974 1960 93 1700 020/07 RMK AO2 T00830072
13962KABI ABI20160223001510702/23/16 00:15:31  5-MIN KABI 230615Z 02006KT 10SM OVC012 08/07 A2974 1960 93 1700 020/06 RMK AO2 T00830072
13962KABI ABI20160223002010702/23/16 00:20:31  5-MIN KABI 230620Z 03007KT 10SM OVC012 08/07 A2973 1970 93 1700 020/07 RMK AO2 T00830072
13962KABI ABI20160223002510702/23/16 00:25:31  5-MIN KABI 230625Z 04006KT 10SM OVC012 08/07 A2973 1970 93 1700 030/06 RMK AO2 T00830072
13962KABI ABI20160223003010702/23/16 00:30:31  5-MIN KABI 230630Z 06009KT 10SM OVC013 08/07 A2972 1980 93 1700 050/09 RMK AO2 T00830072
13962KABI ABI20160223003510702/23/16 00:35:31  5-MIN KABI 230635Z 05006KT 10SM OVC013 08/07 A2973 1970 93 1700 050/06 RMK AO2 T00830072
13962KABI ABI20160223004010702/23/16 00:40:31  5-MIN KABI 230640Z 05005KT 10SM OVC013 08/07 A2973 1970 93 1700 050/05 RMK AO2 T00830072
13962KABI ABI20160223004510702/23/16 00:45:31  5-MIN KABI 230645Z 04005KT 10SM OVC011 08/07 A2973 1970 93 1700 030/05 RMK AO2 T00830072
13962KABI ABI20160223005010402/23/16 00:50:31  5-MIN KABI 230650Z 04008KT 10SM SCT006 OVC011 08/07 A2971 1990 93 1700 030/08 RMK AO2
13962KABI ABI20160223005512602/23/16 00:55:31  5-MIN KABI 230655Z 02008KT 10SM OVC009 08/07 A2970 2000 93 1700 020/08 RMK AO2 CIG 005V013 PRESFR T00830072
13962KABI ABI20160223010014402/23/16 01:00:31  5-MIN KABI 230700Z 35011KT 10SM -RA BKN006 OVC011 08/08 A2971 1990 96 1700 350/11 RMK AO2 RAB0658 CIG 005V009 P0000 T00830078
13962KABI ABI20160223010513202/23/16 01:05:31  5-MIN KABI 230705Z 36011KT 10SM -RA BKN006 OVC011 08/08 A2971 1980 96 1700 350/11 RMK AO2 RAB0658 P0000 T00830078
13962KABI ABI20160223011013202/23/16 01:10:31  5-MIN KABI 230710Z 36010KT 10SM -RA BKN005 OVC011 09/08 A2971 1990 93 1800 350/10 RMK AO2 RAB0658 P0000 T00890078
13962KABI ABI20160223011512402/23/16 01:15:31  5-MIN KABI 230715Z 36012KT 10SM OVC005 09/08 A2970 2000 93 1800 350/12 RMK AO2 RAB0658E15 P0000 T00890078
13962KABI ABI20160223012012402/23/16 01:20:31  5-MIN KABI 230720Z 36011KT 10SM OVC005 08/08 A2969 2000 96 1700 350/11 RMK AO2 RAB0658E15 P0000 T00830078
13962KABI ABI20160223012512402/23/16 01:25:31  5-MIN KABI 230725Z 34012KT 10SM OVC005 08/07 A2971 1980 93 1700 340/12 RMK AO2 RAB0658E15 P0000 T00830072
13962KABI ABI20160223013012402/23/16 01:30:31  5-MIN KABI 230730Z 33011KT 10SM OVC005 08/07 A2972 1980 93 1700 330/11 RMK AO2 RAB0658E15 P0000 T00830072
13962KABI ABI20160223013512402/23/16 01:35:31  5-MIN KABI 230735Z 33011KT 10SM OVC005 08/07 A2972 1980 96 1600 320/11 RMK AO2 RAB0658E15 P0000 T00780072
13962KABI ABI20160223014012402/23/16 01:40:31  5-MIN KABI 230740Z 33009KT 10SM OVC005 08/07 A2971 1980 96 1600 330/09 RMK AO2 RAB0658E15 P0000 T00780072
13962KABI ABI20160223014512402/23/16 01:45:31  5-MIN KABI 230745Z 33009KT 10SM OVC005 08/07 A2971 1980 96 1600 320/09 RMK AO2 RAB0658E15 P0000 T00780072
13962KABI ABI20160223015013102/23/16 01:50:31  5-MIN KABI 230750Z 32010KT 10SM OVC005 08/07 A2972 1980 96 1600 320/10 RMK AO2 RAB0658E15 SLP054 P0000 T00780072
13962KABI ABI20160223015510702/23/16 01:55:31  5-MIN KABI 230755Z 32009KT 10SM OVC005 08/07 A2972 1980 96 1600 310/09 RMK AO2 T00780072
13962KABI ABI20160223020010702/23/16 02:00:31  5-MIN KABI 230800Z 31010KT 10SM OVC004 08/07 A2972 1980 96 1600 310/10 RMK AO2 T00780072
13962KABI ABI20160223020510602/23/16 02:05:31  5-MIN KABI 230805Z 32011KT 9SM OVC004 08/07 A2972 1980 96 1600 320/11 RMK AO2 T00780072
13962KABI ABI20160223021010602/23/16 02:10:31  5-MIN KABI 230810Z 32012KT 9SM OVC004 08/07 A2971 1990 96 1600 310/12 RMK AO2 T00780072
13962KABI ABI20160223021512902/23/16 02:15:31  5-MIN KABI 230815Z 33015KT 8SM -RA OVC004 08/07 A2968 2010 96 1700 330/15 RMK AO2 RAB12 PRESFR P0000 T00780072
13962KABI ABI20160223022012402/23/16 02:20:31  5-MIN KABI 230820Z 33016KT 6SM RA BR OVC004 08/07 A2968 2020 96 1700 320/16 RMK AO2 RAB12 P0001 T00780072
13962KABI ABI20160223022512602/23/16 02:25:31  5-MIN KABI 230825Z 32016KT 5SM -RA BR OVC004 07/07 A2968 2010 100 1600 320/16 RMK AO2 RAB12 P0001 T00720072
13962KABI ABI20160223023012502/23/16 02:30:31  5-MIN KABI 230830Z 32015KT 6SM -RA BR OVC004 07/07 A2969 2010 96 1600 320/15 RMK AO2 RAB12 P0002 T00720067
13962KABI ABI20160223023512802/23/16 02:35:31  5-MIN KABI 230835Z 32017G22KT 8SM -RA OVC004 07/07 A2969 2010 96 1600 320/17G22 RMK AO2 RAB12 P0002 T00720067
13962KABI ABI20160223024013502/23/16 02:40:31  5-MIN KABI 230840Z 32015KT 10SM -RA OVC004 07/07 A2969 2010 96 1600 320/15 RMK AO2 RAB12 CIG 003V007 P0002 T00720067
13962KABI ABI20160223024513502/23/16 02:45:31  5-MIN KABI 230845Z 32013KT 10SM -RA OVC004 07/07 A2969 2000 96 1600 320/13 RMK AO2 RAB12 CIG 003V007 P0002 T00720067
13962KABI ABI20160223025014202/23/16 02:50:31  5-MIN KABI 230850Z 34013KT 10SM -RA OVC004 07/07 A2969 2010 96 1600 340/13 RMK AO2 RAB12 SLP046 P0002 60002 T00720067 55017
13962KABI ABI20160223025511702/23/16 02:55:31  5-MIN KABI 230855Z 33015KT 10SM -RA OVC005 07/07 A2969 2000 96 1600 330/15 RMK AO2 P0000 T00720067
13962KABI ABI20160223030011602/23/16 03:00:31  5-MIN KABI 230900Z 34016KT 9SM -RA OVC005 07/07 A2969 2000 96 1600 340/16 RMK AO2 P0000 T00720067
13962KABI ABI20160223030511602/23/16 03:05:31  5-MIN KABI 230905Z 34014KT 8SM -RA OVC005 07/06 A2969 2000 96 1500 340/14 RMK AO2 P0000 T00670061
13962KABI ABI20160223031011902/23/16 03:10:31  5-MIN KABI 230910Z 34016KT 6SM -RA BR OVC005 07/06 A2970 2000 96 1500 340/16 RMK AO2 P0000 T00670061
13962KABI ABI20160223031511902/23/16 03:15:31  5-MIN KABI 230915Z 34013KT 5SM -RA BR OVC005 07/06 A2970 2000 96 1500 340/13 RMK AO2 P0000 T00670061
13962KABI ABI20160223032011902/23/16 03:20:31  5-MIN KABI 230920Z 35015KT 4SM -RA BR OVC005 07/06 A2969 2000 96 1500 340/15 RMK AO2 P0000 T00670061
13962KABI ABI20160223032511902/23/16 03:25:31  5-MIN KABI 230925Z 35015KT 4SM -RA BR OVC005 07/06 A2969 2010 96 1500 340/15 RMK AO2 P0001 T00670061
13962KABI ABI20160223033011902/23/16 03:30:31  5-MIN KABI 230930Z 36013KT 3SM -RA BR OVC005 07/06 A2969 2010 96 1500 350/13 RMK AO2 P0001 T00670061
13962KABI ABI20160223033512502/23/16 03:35:31  5-MIN KABI 230935Z 03011KT 3SM RA BR OVC005 07/06 A2967 2020 96 1500 020/11 RMK AO2 PRESFR P0003 T00670061
13962KABI ABI20160223034013902/23/16 03:40:31  5-MIN KABI 230940Z 02013G18KT 3SM -RA BR BKN005 OVC044 07/06 A2967 2030 96 1500 020/13G18 RMK AO2 PRESFR P0003 T00670061
13962KABI ABI20160223034512602/23/16 03:45:31  5-MIN KABI 230945Z 01013KT 4SM -RA BR BKN005 OVC044 07/06 A2968 2020 96 1500 010/13 RMK AO2 P0004 T00670061
13962KABI ABI20160223035014002/23/16 03:50:31  5-MIN KABI 230950Z 01012KT 6SM -RA BR BKN005 BKN028 OVC044 07/06 A2967 2030 96 1500 010/12 RMK AO2 SLP038 P0004 T00670061
13962KABI ABI20160223035513702/23/16 03:55:31  5-MIN KABI 230955Z 02014KT 7SM -RA SCT005 BKN033 OVC070 07/06 A2965 2050 96 1600 020/14 RMK AO2 PRESFR P0000 T00670061
13962KABI ABI20160223040014302/23/16 04:00:31  5-MIN KABI 231000Z 01015G20KT 8SM -RA BKN005 BKN033 OVC070 07/06 A2964 2060 96 1600 010/15G20 RMK AO2 PRESFR P0000 T00670061
13962KABI ABI20160223040513602/23/16 04:05:31  5-MIN KABI 231005Z 01014G21KT 9SM -RA BKN005 BKN033 OVC043 07/06 A2964 2060 96 1600 010/14G21 RMK AO2 P0000 T00670061
13962KABI ABI20160223041013002/23/16 04:10:31  5-MIN KABI 231010Z 35013KT 9SM -RA BKN005 BKN033 OVC043 07/06 A2967 2020 96 1500 340/13 RMK AO2 P0000 T00670061
13962KABI ABI20160223041513302/23/16 04:15:31  5-MIN KABI 231015Z 29012KT 10SM BKN005 OVC033 07/06 A2971 1990 96 1500 280/12 RMK AO2 RAE13 PRESRR P0000 T00670061
13962KABI ABI20160223042012902/23/16 04:20:31  5-MIN KABI 231020Z 30013KT 9SM OVC005 07/06 A2971 1990 96 1500 290/13 RMK AO2 WSHFT 1002 RAE13 P0000 T00670061
13962KABI ABI20160223042512902/23/16 04:25:31  5-MIN KABI 231025Z 30011KT 8SM OVC005 07/06 A2971 1990 96 1500 300/11 RMK AO2 WSHFT 1002 RAE13 P0000 T00670061
13962KABI ABI20160223043012902/23/16 04:30:31  5-MIN KABI 231030Z 31013KT 7SM OVC005 07/06 A2971 1990 96 1500 300/13 RMK AO2 WSHFT 1002 RAE13 P0000 T00670061
13962KABI ABI20160223043513502/23/16 04:35:31  5-MIN KABI 231035Z 32010G18KT 7SM OVC005 07/06 A2970 1990 96 1500 310/10G18 RMK AO2 WSHFT 1002 RAE13 P0000 T00670061
13962KABI ABI20160223044012902/23/16 04:40:31  5-MIN KABI 231040Z 33013KT 8SM OVC005 07/06 A2971 1990 96 1500 330/13 RMK AO2 WSHFT 1002 RAE13 P0000 T00670061
13962KABI ABI20160223044512902/23/16 04:45:31  5-MIN KABI 231045Z 33013KT 8SM OVC005 07/06 A2971 1990 96 1500 320/13 RMK AO2 WSHFT 1002 RAE13 P0000 T00670061
13962KABI ABI20160223045014202/23/16 04:50:31  5-MIN KABI 231050Z 34018G22KT 9SM OVC005 07/06 A2971 1980 96 1500 340/18G22 RMK AO2 WSHFT 1002 RAE13 SLP054 P0000 T00670061
13962KABI ABI20160223045511302/23/16 04:55:31  5-MIN KABI 231055Z 35014G22KT 10SM OVC006 07/06 A2972 1980 96 1500 340/14G22 RMK AO2 T00670061
13962KABI ABI20160223050010702/23/16 05:00:31  5-MIN KABI 231100Z 34012KT 10SM OVC006 07/06 A2972 1980 96 1500 330/12 RMK AO2 T00670061
13962KABI ABI20160223050510602/23/16 05:05:31  5-MIN KABI 231105Z 33015KT 9SM OVC006 07/06 A2972 1980 96 1500 330/15 RMK AO2 T00670061
13962KABI ABI20160223051012202/23/16 05:10:31  5-MIN KABI 231110Z 33015KT 9SM -RA OVC006 07/06 A2973 1970 96 1500 330/15 RMK AO2 RAB10 P0000 T00670061
13962KABI ABI20160223051514002/23/16 05:15:31  5-MIN KABI 231115Z 34018G23KT 9SM -RA OVC006 07/06 A2973 1970 96 1500 340/18G23 RMK AO2 RAB10 CIG 005V008 P0000 T00670061
13962KABI ABI20160223052014702/23/16 05:20:31  5-MIN KABI 231120Z 34015G23KT 8SM -RA BKN006 OVC011 07/06 A2973 1970 96 1500 340/15G23 RMK AO2 RAB10 CIG 005V008 P0000 T00670061
13962KABI ABI20160223052512902/23/16 05:25:31  5-MIN KABI 231125Z 34014KT 7SM -RA BKN006 OVC011 07/06 A2973 1970 96 1500 330/14 RMK AO2 RAB10 P0000 T00670061
13962KABI ABI20160223053013402/23/16 05:30:31  5-MIN KABI 231130Z 33015KT 7SM -RA OVC006 07/06 A2973 1970 96 1500 330/15 RMK AO2 RAB10 CIG 005V008 P0000 T00670061
13962KABI ABI20160223053514402/23/16 05:35:31  5-MIN KABI 231135Z 34016KT 6SM -RA BR BKN006 OVC010 07/06 A2973 1970 96 1500 340/16 RMK AO2 RAB10 CIG 005V008 P0001 T00670061
13962KABI ABI20160223054015002/23/16 05:40:31  5-MIN KABI 231140Z 33016G20KT 5SM -RA BR BKN006 OVC010 07/06 A2974 1960 96 1500 330/16G20 RMK AO2 RAB10 CIG 004V008 P0001 T00670061
13962KABI ABI20160223054514402/23/16 05:45:31  5-MIN KABI 231145Z 33016KT 4SM -RA BR BKN006 OVC010 07/06 A2974 1960 96 1500 330/16 RMK AO2 RAB10 CIG 004V008 P0001 T00670061
13962KABI ABI20160223055016202/23/16 05:50:31  5-MIN KABI 231150Z 34012KT 4SM -RA BR OVC006 07/06 A2974 1960 96 1500 330/12 RMK AO2 RAB10 SLP064 P0001 60007 70063 T00670061 10089 20067 56020
13962KABI ABI20160223055513102/23/16 05:55:31  5-MIN KABI 231155Z 34014KT 4SM -RA BR OVC006 07/06 A2974 1960 96 1500 330/14 RMK AO2 CIG 004V011 P0000 T00670061
13962KABI ABI20160223060013102/23/16 06:00:31  5-MIN KABI 231200Z 34014KT 5SM -RA BR OVC006 07/06 A2974 1960 96 1500 330/14 RMK AO2 CIG 004V009 P0000 T00670061
13962KABI ABI20160223060511902/23/16 06:05:31  5-MIN KABI 231205Z 33016KT 5SM -RA BR OVC006 07/06 A2975 1950 96 1500 330/16 RMK AO2 P0000 T00670061
13962KABI ABI20160223061012602/23/16 06:10:31  5-MIN KABI 231210Z 33014KT 5SM -RA BR BKN006 OVC010 07/06 A2975 1950 96 1500 330/14 RMK AO2 P0000 T00670061
13962KABI ABI20160223061513202/23/16 06:15:31  5-MIN KABI 231215Z 33013G21KT 5SM -RA BR BKN006 OVC010 07/06 A2975 1950 96 1500 330/13G21 RMK AO2 P0000 T00670061
13962KABI ABI20160223062013702/23/16 06:20:31  5-MIN KABI 231220Z 34017G21KT 5SM -RA BR OVC006 07/06 A2975 1950 96 1500 330/17G21 RMK AO2 CIG 004V009 P0001 T00670061
13962KABI ABI20160223062513702/23/16 06:25:31  5-MIN KABI 231225Z 33018G24KT 5SM -RA BR OVC006 06/06 A2975 1950 96 1400 330/18G24 RMK AO2 CIG 004V010 P0001 T00610056
13962KABI ABI20160223063014402/23/16 06:30:31  5-MIN KABI 231230Z 34017G24KT 6SM -RA BR BKN006 OVC012 06/06 A2975 1950 96 1400 330/17G24 RMK AO2 CIG 004V009 P0001 T00610056
13962KABI ABI20160223063512802/23/16 06:35:31  5-MIN KABI 231235Z 33018KT 7SM -RA OVC006 06/06 A2975 1950 96 1400 330/18 RMK AO2 CIG 004V011 P0001 T00610056
13962KABI ABI20160223064015202/23/16 06:40:31  5-MIN KABI 231240Z 33019G27KT 8SM -RA OVC006 06/06 A2975 1950 96 1400 320/19G27 RMK AO2 PK WND 34027/1237 CIG 004V009 P0001 T00610056
13962KABI ABI20160223064515202/23/16 06:45:31  5-MIN KABI 231245Z 35023G30KT 9SM -RA OVC007 06/05 A2976 1940 93 1400 340/23G30 RMK AO2 PK WND 33030/1242 CIG 004V010 P0001 T00610050
13962KABI ABI20160223065017302/23/16 06:50:31  5-MIN KABI 231250Z 34019G30KT 9SM -RA BKN007 OVC014 06/05 A2977 1930 93 1400 330/19G30 RMK AO2 PK WND 33030/1242 CIG 005V012 PRESRR SLP074 P0001 T00610050
13962KABI ABI20160223065515902/23/16 06:55:31  5-MIN KABI 231255Z 34022G30KT 8SM -RA BKN008 OVC014 06/05 A2977 1930 96 1300 340/22G30 RMK AO2 PK WND 34030/1255 CIG 005V012 P0000 T00560050
13962KABI ABI20160223070015202/23/16 07:00:31  5-MIN KABI 231300Z 34023G30KT 7SM -RA OVC008 06/04 A2977 1930 92 1300 330/23G30 RMK AO2 PK WND 34030/1255 CIG 005V012 P0000 T00560044
13962KABI ABI20160223070515202/23/16 07:05:31  5-MIN KABI 231305Z 34021G28KT 7SM -RA OVC008 06/04 A2977 1930 92 1300 340/21G28 RMK AO2 PK WND 34030/1255 CIG 005V011 P0000 T00560044
13962KABI ABI20160223071015402/23/16 07:10:31  5-MIN KABI 231310Z 34021G29KT 7SM OVC008 06/04 A2978 1930 92 1300 330/21G29 RMK AO2 PK WND 34030/1255 RAE10 CIG 006V012 P0000 T00560044
13962KABI ABI20160223071515202/23/16 07:15:31  5-MIN KABI 231315Z 34023G29KT 7SM -RA OVC008 05/04 A2977 1930 96 1200 330/23G29 RMK AO2 PK WND 34030/1255 CIG 007V014 P0000 T00500044
13962KABI ABI20160223072015202/23/16 07:20:31  5-MIN KABI 231320Z 33022G28KT 7SM -RA OVC009 05/04 A2978 1920 96 1200 330/22G28 RMK AO2 PK WND 34030/1255 CIG 007V013 P0000 T00500044
13962KABI ABI20160223072515202/23/16 07:25:31  5-MIN KABI 231325Z 33016G28KT 7SM -RA OVC009 05/04 A2978 1920 96 1200 330/16G28 RMK AO2 PK WND 34030/1255 CIG 006V013 P0000 T00500044
13962KABI ABI20160223073015202/23/16 07:30:31  5-MIN KABI 231330Z 34018G24KT 7SM -RA OVC009 05/04 A2978 1920 96 1200 330/18G24 RMK AO2 PK WND 34030/1255 CIG 005V010 P0000 T00500044
13962KABI ABI20160223073515202/23/16 07:35:31  5-MIN KABI 231335Z 33021G27KT 7SM -RA OVC009 05/04 A2979 1920 92 1200 330/21G27 RMK AO2 PK WND 34030/1255 CIG 005V013 P0000 T00500039
13962KABI ABI20160223074015202/23/16 07:40:31  5-MIN KABI 231340Z 33019G27KT 7SM -RA OVC009 04/04 A2979 1920 96 1100 320/19G27 RMK AO2 PK WND 34030/1255 CIG 005V012 P0000 T00440039
13962KABI ABI20160223074515202/23/16 07:45:31  5-MIN KABI 231345Z 33021G29KT 7SM -RA OVC007 04/04 A2979 1910 96 1100 320/21G29 RMK AO2 PK WND 34030/1255 CIG 005V010 P0000 T00440039
13962KABI ABI20160223075016902/23/16 07:50:31  5-MIN KABI 231350Z 33018G29KT 5SM -RA BR BKN007 OVC011 04/04 A2980 1910 96 1100 320/18G29 RMK AO2 PK WND 34030/1255 CIG 005V009 SLP084 P0000 T00440039
13962KABI ABI20160223075513102/23/16 07:55:31  5-MIN KABI 231355Z 33020KT 5SM -RA BR OVC007 04/04 A2979 1910 96 1100 320/20 RMK AO2 CIG 005V012 P0000 T00440039
13962KABI ABI20160223080013102/23/16 08:00:31  5-MIN KABI 231400Z 33021KT 6SM -RA BR OVC007 04/04 A2979 1910 96 1100 330/21 RMK AO2 CIG 006V012 P0000 T00440039
13962KABI ABI20160223080514902/23/16 08:05:31  5-MIN KABI 231405Z 33022KT 5SM -RA BR OVC007 04/03 A2980 1910 92 1100 330/22 RMK AO2 PK WND 33027/1405 CIG 006V010 P0000 T00440033
13962KABI ABI20160223081014902/23/16 08:10:31  5-MIN KABI 231410Z 33023KT 4SM -RA BR OVC007 04/03 A2979 1910 92 1100 330/23 RMK AO2 PK WND 33028/1410 CIG 006V011 P0000 T00440033
13962KABI ABI20160223081515502/23/16 08:15:31  5-MIN KABI 231415Z 33021G27KT 4SM -RA BR OVC007 04/04 A2980 1910 96 1100 330/21G27 RMK AO2 PK WND 33028/1410 CIG 006V011 P0000 T00440039
13962KABI ABI20160223082015502/23/16 08:20:31  5-MIN KABI 231420Z 34023G31KT 4SM -RA BR OVC007 04/04 A2980 1900 96 1100 330/23G31 RMK AO2 PK WND 35031/1419 CIG 006V011 P0001 T00440039
13962KABI ABI20160223082516202/23/16 08:25:31  5-MIN KABI 231425Z 34025G31KT 3SM -RA BR BKN007 OVC012 04/04 A2981 1900 96 1100 330/25G31 RMK AO2 PK WND 35031/1419 CIG 006V010 P0001 T00440039
13962KABI ABI20160223083016202/23/16 08:30:31  5-MIN KABI 231430Z 34025G35KT 3SM -RA BR BKN009 OVC012 04/04 A2980 1900 96 1100 340/25G35 RMK AO2 PK WND 34035/1430 CIG 006V010 P0001 T00440039
13962KABI ABI20160223083515502/23/16 08:35:31  5-MIN KABI 231435Z 34028G36KT 4SM -RA BR OVC009 04/04 A2980 1900 96 1100 340/28G36 RMK AO2 PK WND 34036/1435 CIG 006V013 P0001 T00440039
13962KABI ABI20160223084015502/23/16 08:40:31  5-MIN KABI 231440Z 34027G36KT 4SM -RA BR OVC009 04/04 A2980 1900 96 1100 340/27G36 RMK AO2 PK WND 34036/1435 CIG 006V013 P0001 T00440039
13962KABI ABI20160223084515502/23/16 08:45:31  5-MIN KABI 231445Z 35025G32KT 5SM -RA BR OVC009 04/04 A2980 1900 96 1100 340/25G32 RMK AO2 PK WND 34036/1435 CIG 006V013 P0001 T00440039
13962KABI ABI20160223085017402/23/16 08:50:31  5-MIN KABI 231450Z 35025G32KT 5SM -RA BR OVC009 04/04 A2981 1900 96 1100 340/25G32 RMK AO2 PK WND 34036/1435 CIG 006V013 SLP089 P0001 60002 T00440039 53017
13962KABI ABI20160223085515502/23/16 08:55:31  5-MIN KABI 231455Z 35022G32KT 5SM -RA BR OVC009 04/03 A2981 1900 92 1100 340/22G32 RMK AO2 PK WND 34028/1453 CIG 007V013 P0000 T00440033
13962KABI ABI20160223090015502/23/16 09:00:31  5-MIN KABI 231500Z 35025G31KT 6SM -RA BR OVC009 04/03 A2981 1890 92 1100 340/25G31 RMK AO2 PK WND 34031/1458 CIG 007V014 P0000 T00440033
13962KABI ABI20160223090515502/23/16 09:05:31  5-MIN KABI 231505Z 35028G33KT 6SM -RA BR OVC009 04/03 A2982 1890 92 1100 340/28G33 RMK AO2 PK WND 35033/1502 CIG 007V013 P0000 T00440033
13962KABI ABI20160223091015902/23/16 09:10:31  5-MIN KABI 231510Z 34024G34KT 7SM -RA BKN009 OVC014 04/03 A2982 1890 92 1100 340/24G34 RMK AO2 PK WND 35034/1508 CIG 007V013 P0000 T00440033
13962KABI ABI20160223091515902/23/16 09:15:31  5-MIN KABI 231515Z 34025G34KT 8SM -RA BKN009 OVC014 04/03 A2982 1880 92 1100 340/25G34 RMK AO2 PK WND 35034/1508 CIG 007V013 P0000 T00440033
13962KABI ABI20160223092014302/23/16 09:20:31  5-MIN KABI 231520Z 34023G32KT 5SM -RA BR OVC009 04/03 A2982 1880 92 1100 340/23G32 RMK AO2 PK WND 35034/1508 P0000 T00440033
13962KABI ABI20160223092514302/23/16 09:25:31  5-MIN KABI 231525Z 35022G33KT 5SM -RA BR OVC009 04/03 A2983 1880 92 1100 340/22G33 RMK AO2 PK WND 35034/1508 P0000 T00440033
13962KABI ABI20160223093014302/23/16 09:30:31  5-MIN KABI 231530Z 35027G35KT 5SM -RA BR OVC009 04/03 A2983 1870 92 1000 340/27G35 RMK AO2 PK WND 35035/1530 P0000 T00390028
13962KABI ABI20160223093514302/23/16 09:35:31  5-MIN KABI 231535Z 35022G35KT 5SM -RA BR OVC009 04/03 A2984 1870 92 1000 340/22G35 RMK AO2 PK WND 35035/1530 P0000 T00390028
13962KABI ABI20160223094014302/23/16 09:40:31  5-MIN KABI 231540Z 35025G31KT 5SM -RA BR OVC009 04/03 A2984 1870 96 1000 340/25G31 RMK AO2 PK WND 35035/1530 P0000 T00390033
13962KABI ABI20160223094514302/23/16 09:45:31  5-MIN KABI 231545Z 35021G31KT 5SM -RA BR OVC009 04/03 A2985 1860 92 1000 340/21G31 RMK AO2 PK WND 35035/1530 P0000 T00390028
13962KABI ABI20160223095016002/23/16 09:50:31  5-MIN KABI 231550Z 34025G29KT 10SM -RA OVC009 04/03 A2985 1860 92 1000 330/25G29 RMK AO2 PK WND 35035/1530 CIG 007V014 SLP105 P0000 T00390028
13962KABI ABI20160223095515302/23/16 09:55:31  5-MIN KABI 231555Z 36025G33KT 10SM -RA OVC009 04/03 A2985 1860 92 1000 350/25G33 RMK AO2 PK WND 36033/1554 CIG 007V014 P0000 T00390028
13962KABI ABI20160223100015302/23/16 10:00:31  5-MIN KABI 231600Z 35021G33KT 10SM -RA OVC009 04/03 A2986 1850 92 1000 340/21G33 RMK AO2 PK WND 36033/1554 CIG 007V014 P0000 T00390028
13962KABI ABI20160223100515302/23/16 10:05:31  5-MIN KABI 231605Z 34022G28KT 10SM -RA OVC009 04/03 A2986 1850 92 1000 340/22G28 RMK AO2 PK WND 36033/1554 CIG 007V014 P0000 T00390028
13962KABI ABI20160223101015202/23/16 10:10:31  5-MIN KABI 231610Z 34023G30KT 10SM -RA OVC009 03/03 A2986 1850 96 900 340/23G30 RMK AO2 PK WND 36033/1554 CIG 007V014 P0000 T00330028
13962KABI ABI20160223101515202/23/16 10:15:31  5-MIN KABI 231615Z 34020G30KT 10SM -RA OVC009 03/03 A2986 1850 96 900 340/20G30 RMK AO2 PK WND 36033/1554 CIG 007V012 P0000 T00330028
13962KABI ABI20160223102015202/23/16 10:20:31  5-MIN KABI 231620Z 35021G27KT 10SM -RA OVC009 03/03 A2986 1850 96 900 340/21G27 RMK AO2 PK WND 36033/1554 CIG 007V012 P0000 T00330028
13962KABI ABI20160223102515502/23/16 10:25:31  5-MIN KABI 231625Z 35021G27KT 10SM OVC009 04/03 A2986 1850 92 1000 340/21G27 RMK AO2 PK WND 36033/1554 RAE21 CIG 007V012 P0000 T00390028
13962KABI ABI20160223103014902/23/16 10:30:31  5-MIN KABI 231630Z 34022KT 10SM OVC010 04/03 A2986 1850 92 1000 330/22 RMK AO2 PK WND 36033/1554 RAE21 CIG 008V012 P0000 T00390028
13962KABI ABI20160223103514302/23/16 10:35:31  5-MIN KABI 231635Z 34019G27KT 10SM OVC009 04/03 A2987 1840 92 1000 330/19G27 RMK AO2 PK WND 36033/1554 RAE21 P0000 T00390028
13962KABI ABI20160223104013702/23/16 10:40:31  5-MIN KABI 231640Z 33019KT 10SM OVC009 04/03 A2987 1840 92 1000 330/19 RMK AO2 PK WND 36033/1554 RAE21 P0000 T00390028
13962KABI ABI20160223104513702/23/16 10:45:31  5-MIN KABI 231645Z 34020KT 10SM OVC009 04/03 A2987 1840 92 1000 330/20 RMK AO2 PK WND 36033/1554 RAE21 P0000 T00390028
13962KABI ABI20160223105015002/23/16 10:50:31  5-MIN KABI 231650Z 34019G26KT 10SM OVC009 04/03 A2987 1840 92 1000 340/19G26 RMK AO2 PK WND 36033/1554 RAE21 SLP113 P0000 T00390028
13962KABI ABI20160223105511302/23/16 10:55:31  5-MIN KABI 231655Z 34018G26KT 10SM OVC009 04/03 A2988 1830 92 1000 330/18G26 RMK AO2 T00390028
13962KABI ABI20160223110011302/23/16 11:00:31  5-MIN KABI 231700Z 34019G25KT 10SM OVC009 04/03 A2988 1830 92 1000 340/19G25 RMK AO2 T00390028
13962KABI ABI20160223110511302/23/16 11:05:31  5-MIN KABI 231705Z 34020G25KT 10SM OVC009 04/03 A2988 1830 92 1000 330/20G25 RMK AO2 T00390028
13962KABI ABI20160223111012502/23/16 11:10:31  5-MIN KABI 231710Z 34020G25KT 10SM OVC009 04/03 A2988 1830 92 1000 330/20G25 RMK AO2 CIG 008V012 T00390028
13962KABI ABI20160223111512502/23/16 11:15:31  5-MIN KABI 231715Z 34018G25KT 10SM OVC009 04/03 A2988 1830 92 1000 340/18G25 RMK AO2 CIG 008V014 T00440033
13962KABI ABI20160223112010702/23/16 11:20:31  5-MIN KABI 231720Z 34016KT 10SM OVC009 04/03 A2988 1830 92 1000 330/16 RMK AO2 T00440033
13962KABI ABI20160223112511302/23/16 11:25:31  5-MIN KABI 231725Z 33019G24KT 10SM OVC009 04/03 A2988 1830 92 1000 330/19G24 RMK AO2 T00440033
13962KABI ABI20160223113013102/23/16 11:30:31  5-MIN KABI 231730Z 34020G26KT 10SM OVC009 04/03 A2988 1830 92 1000 330/20G26 RMK AO2 PK WND 33026/1727 T00440033
13962KABI ABI20160223113513102/23/16 11:35:31  5-MIN KABI 231735Z 34019G27KT 10SM OVC009 05/03 A2988 1830 89 1100 330/19G27 RMK AO2 PK WND 33027/1733 T00500033
13962KABI ABI20160223114013102/23/16 11:40:31  5-MIN KABI 231740Z 34020G27KT 10SM OVC009 05/03 A2988 1830 89 1100 340/20G27 RMK AO2 PK WND 33027/1733 T00500033
13962KABI ABI20160223114512502/23/16 11:45:31  5-MIN KABI 231745Z 34019KT 10SM OVC009 05/04 A2988 1830 92 1100 340/19 RMK AO2 PK WND 33027/1733 T00500039
13962KABI ABI20160223115012102/23/16 11:50:31  5-MIN KABI 231750Z 34022G28KT 10SM OVC012 05/03 A2988 1830 89 1100 330/22G28 RMK AO2 PK WND 34028/1749
13962KABI ABI20160223115513102/23/16 11:55:31  5-MIN KABI 231755Z 34019G28KT 10SM OVC012 05/03 A2988 1830 89 1100 340/19G28 RMK AO2 PK WND 34026/1754 T00500033
13962KABI ABI20160223120013102/23/16 12:00:31  5-MIN KABI 231800Z 34019G26KT 10SM OVC012 05/03 A2989 1830 89 1100 340/19G26 RMK AO2 PK WND 34026/1754 T00500033
13962KABI ABI20160223120513102/23/16 12:05:31  5-MIN KABI 231805Z 34016G25KT 10SM OVC012 05/04 A2988 1830 92 1100 330/16G25 RMK AO2 PK WND 34026/1754 T00500039
13962KABI ABI20160223121012502/23/16 12:10:31  5-MIN KABI 231810Z 34018KT 10SM OVC012 06/04 A2988 1830 89 1200 330/18 RMK AO2 PK WND 34026/1754 T00560039
13962KABI ABI20160223121512502/23/16 12:15:31  5-MIN KABI 231815Z 33018KT 10SM OVC013 06/04 A2989 1820 89 1200 330/18 RMK AO2 PK WND 34026/1754 T00560039
13962KABI ABI20160223122013102/23/16 12:20:31  5-MIN KABI 231820Z 34021G26KT 10SM OVC013 06/04 A2988 1830 89 1200 330/21G26 RMK AO2 PK WND 34026/1754 T00560039
13962KABI ABI20160223122515402/23/16 12:25:31  5-MIN KABI 231825Z 34023G28KT 10SM -RA BKN013 OVC019 06/03 A2989 1820 85 1200 340/23G28 RMK AO2 PK WND 34028/1825 RAB21 P0000 T00560033
13962KABI ABI20160223123014702/23/16 12:30:31  5-MIN KABI 231830Z 34019G28KT 10SM -RA OVC012 06/04 A2989 1820 89 1200 340/19G28 RMK AO2 PK WND 34028/1825 RAB21 P0000 T00560039
13962KABI ABI20160223123514702/23/16 12:35:31  5-MIN KABI 231835Z 34020G26KT 10SM -RA OVC012 06/04 A2989 1820 89 1200 340/20G26 RMK AO2 PK WND 34028/1825 RAB21 P0000 T00560039
13962KABI ABI20160223124014702/23/16 12:40:31  5-MIN KABI 231840Z 33016G26KT 10SM -RA OVC012 06/04 A2989 1820 89 1200 330/16G26 RMK AO2 PK WND 34028/1825 RAB21 P0000 T00560039
13962KABI ABI20160223124514602/23/16 12:45:31  5-MIN KABI 231845Z 34020G27KT 10SM OVC012 06/04 A2989 1820 89 1200 340/20G27 RMK AO2 PK WND 34028/1825 RAB21E44 P0000 T00560039
13962KABI ABI20160223125015302/23/16 12:50:31  5-MIN KABI 231850Z 34020G27KT 10SM OVC012 06/04 A2989 1820 89 1200 340/20G27 RMK AO2 PK WND 34028/1825 RAB21E44 SLP117 P0000 T00560039
13962KABI ABI20160223125511302/23/16 12:55:31  5-MIN KABI 231855Z 33019G27KT 10SM OVC016 06/04 A2989 1830 89 1200 330/19G27 RMK AO2 T00560039
13962KABI ABI20160223130010702/23/16 13:00:31  5-MIN KABI 231900Z 34020KT 10SM OVC016 06/04 A2989 1820 89 1200 340/20 RMK AO2 T00560039
13962KABI ABI20160223130513102/23/16 13:05:31  5-MIN KABI 231905Z 34025G31KT 10SM OVC017 06/04 A2989 1820 89 1200 340/25G31 RMK AO2 PK WND 34031/1905 T00560039
13962KABI ABI20160223131013102/23/16 13:10:31  5-MIN KABI 231910Z 35025G33KT 10SM OVC017 06/03 A2989 1820 85 1200 340/25G33 RMK AO2 PK WND 35033/1910 T00560033
13962KABI ABI20160223131513102/23/16 13:15:31  5-MIN KABI 231915Z 34022G33KT 10SM OVC017 06/03 A2989 1820 85 1200 340/22G33 RMK AO2 PK WND 35033/1910 T00560033
13962KABI ABI20160223132015402/23/16 13:20:31  5-MIN KABI 231920Z 34019G30KT 10SM -RA BKN015 OVC021 06/04 A2989 1820 89 1200 330/19G30 RMK AO2 PK WND 35033/1910 RAB19 P0000 T00560039
13962KABI ABI20160223132515402/23/16 13:25:31  5-MIN KABI 231925Z 35026G31KT 10SM -RA SCT014 OVC020 06/04 A2989 1820 89 1200 340/26G31 RMK AO2 PK WND 35033/1910 RAB19 P0000 T00560039
13962KABI ABI20160223133015402/23/16 13:30:31  5-MIN KABI 231930Z 34020G31KT 10SM -RA BKN016 OVC021 06/04 A2989 1820 89 1200 340/20G31 RMK AO2 PK WND 35033/1910 RAB19 P0000 T00560039
13962KABI ABI20160223133514802/23/16 13:35:31  5-MIN KABI 231935Z 34020KT 10SM -RA BKN016 OVC022 06/04 A2989 1820 89 1200 340/20 RMK AO2 PK WND 35033/1910 RAB19 P0000 T00560039
13962KABI ABI20160223134015402/23/16 13:40:31  5-MIN KABI 231940Z 34019G27KT 10SM -RA BKN016 OVC022 06/04 A2989 1820 89 1200 340/19G27 RMK AO2 PK WND 35033/1910 RAB19 P0000 T00560039
13962KABI ABI20160223134515402/23/16 13:45:31  5-MIN KABI 231945Z 34018G25KT 10SM -RA BKN016 OVC022 06/04 A2989 1820 92 1200 330/18G25 RMK AO2 PK WND 35033/1910 RAB19 P0000 T00560044
13962KABI ABI20160223135016102/23/16 13:50:31  5-MIN KABI 231950Z 34020G29KT 10SM -RA BKN016 OVC022 06/04 A2989 1820 89 1200 340/20G29 RMK AO2 PK WND 35033/1910 RAB19 SLP119 P0000 T00560039
13962KABI ABI20160223135515002/23/16 13:55:31  5-MIN KABI 231955Z 34022G29KT 10SM BKN016 OVC020 06/04 A2989 1820 89 1200 340/22G29 RMK AO2 PK WND 35026/1953 RAE53 P0000 T00560039
13962KABI ABI20160223140014702/23/16 14:00:31  5-MIN KABI 232000Z 35024G28KT 7SM -RA BKN016 OVC020 06/04 A2989 1820 89 1200 350/24G28 RMK AO2 PK WND 36028/2000 P0000 T00560039
13962KABI ABI20160223140515402/23/16 14:05:31  5-MIN KABI 232005Z 34022G29KT 7SM -RA BKN016 BKN023 OVC030 06/04 A2990 1810 89 1200 340/22G29 RMK AO2 PK WND 34029/2005 P0000 T00560039
13962KABI ABI20160223141015402/23/16 14:10:31  5-MIN KABI 232010Z 35023G31KT 8SM -RA BKN016 BKN023 OVC030 06/04 A2989 1820 89 1200 340/23G31 RMK AO2 PK WND 34031/2009 P0000 T00560039
13962KABI ABI20160223141514702/23/16 14:15:31  5-MIN KABI 232015Z 34023G31KT 8SM -RA BKN016 OVC023 06/03 A2990 1820 85 1200 340/23G31 RMK AO2 PK WND 34031/2009 P0000 T00560033
13962KABI ABI20160223142014702/23/16 14:20:31  5-MIN KABI 232020Z 35022G31KT 9SM -RA BKN018 OVC023 06/03 A2990 1810 85 1100 340/22G31 RMK AO2 PK WND 34031/2016 P0000 T00560033
13962KABI ABI20160223142514802/23/16 14:25:31  5-MIN KABI 232025Z 36019G31KT 10SM -RA BKN018 OVC022 06/03 A2990 1810 85 1100 350/19G31 RMK AO2 PK WND 34031/2016 P0000 T00560033
13962KABI ABI20160223143014802/23/16 14:30:31  5-MIN KABI 232030Z 35023G31KT 10SM -RA BKN018 OVC025 06/03 A2991 1810 85 1100 340/23G31 RMK AO2 PK WND 34031/2016 P0000 T00560033
13962KABI ABI20160223143515002/23/16 14:35:31  5-MIN KABI 232035Z 35020G30KT 10SM BKN017 OVC022 06/04 A2991 1800 89 1100 350/20G30 RMK AO2 PK WND 34031/2016 RAE34 P0000 T00560039
13962KABI ABI20160223144015002/23/16 14:40:31  5-MIN KABI 232040Z 35018G29KT 10SM BKN017 OVC022 06/04 A2991 1810 89 1100 340/18G29 RMK AO2 PK WND 34031/2016 RAE34 P0000 T00560039
13962KABI ABI20160223144515702/23/16 14:45:31  5-MIN KABI 232045Z 35022G29KT 10SM BKN017 BKN022 OVC028 06/03 A2991 1810 85 1100 350/22G29 RMK AO2 PK WND 34031/2016 RAE34 P0000 T00560033
13962KABI ABI20160223145017602/23/16 14:50:31  5-MIN KABI 232050Z 35020G29KT 10SM BKN019 BKN024 OVC050 06/04 A2991 1810 89 1100 350/20G29 RMK AO2 PK WND 34031/2016 RAE34 SLP125 P0000 60001 T00560039 51024
13962KABI ABI20160223145512702/23/16 14:55:31  5-MIN KABI 232055Z 35020G27KT 10SM BKN020 BKN028 OVC055 06/04 A2991 1800 89 1100 350/20G27 RMK AO2 T00560039
13962KABI ABI20160223150016302/23/16 15:00:31  5-MIN KABI 232100Z 35023G29KT 10SM -RA BKN017 BKN022 OVC028 06/04 A2991 1800 89 1100 340/23G29 RMK AO2 PK WND 35029/2059 RAB2059 P0000 T00560039
13962KABI ABI20160223150516202/23/16 15:05:31  5-MIN KABI 232105Z 35024G29KT 8SM -RA BKN017 BKN022 OVC035 06/04 A2992 1800 89 1100 340/24G29 RMK AO2 PK WND 34029/2101 RAB2059 P0000 T00560039
13962KABI ABI20160223151016202/23/16 15:10:31  5-MIN KABI 232110Z 35019G29KT 8SM -RA SCT017 BKN025 OVC040 05/04 A2992 1790 92 1100 340/19G29 RMK AO2 PK WND 34029/2101 RAB2059 P0000 T00500039
13962KABI ABI20160223151515702/23/16 15:15:31  5-MIN KABI 232115Z 34019KT 10SM -RA BKN019 BKN024 OVC050 06/04 A2992 1790 89 1100 340/19 RMK AO2 PK WND 34029/2101 RAB2059 P0000 T00560039
13962KABI ABI20160223152015702/23/16 15:20:31  5-MIN KABI 232120Z 34019KT 10SM -RA BKN019 BKN024 OVC050 06/04 A2992 1790 89 1100 340/19 RMK AO2 PK WND 34029/2101 RAB2059 P0000 T00560039
13962KABI ABI20160223152515702/23/16 15:25:31  5-MIN KABI 232125Z 34018KT 10SM -RA BKN019 BKN024 OVC050 06/04 A2992 1790 89 1100 340/18 RMK AO2 PK WND 34029/2101 RAB2059 P0000 T00560039
13962KABI ABI20160223153015702/23/16 15:30:31  5-MIN KABI 232130Z 34015KT 10SM -RA BKN020 BKN028 OVC044 06/04 A2992 1790 89 1100 330/15 RMK AO2 PK WND 34029/2101 RAB2059 P0000 T00560039
13962KABI ABI20160223153516202/23/16 15:35:31  5-MIN KABI 232135Z 32017G23KT 10SM SCT017 BKN022 OVC041 06/04 A2992 1790 89 1100 320/17G23 RMK AO2 PK WND 34029/2101 RAB2059E35 P0000 T00560039
13962KABI ABI20160223154016202/23/16 15:40:31  5-MIN KABI 232140Z 34020G24KT 10SM SCT017 BKN022 OVC043 06/04 A2993 1790 89 1100 330/20G24 RMK AO2 PK WND 34029/2101 RAB2059E39 P0000 T00560039
13962KABI ABI20160223154516202/23/16 15:45:31  5-MIN KABI 232145Z 34020G28KT 8SM -RA BKN018 BKN022 OVC028 06/04 A2993 1780 89 1100 330/20G28 RMK AO2 PK WND 34029/2101 RAB2059 P0000 T00560039
13962KABI ABI20160223155016502/23/16 15:50:31  5-MIN KABI 232150Z 34023G28KT 6SM -RA BR BKN018 OVC022 06/04 A2993 1780 89 1100 340/23G28 RMK AO2 PK WND 34029/2101 RAB2059 SLP134 P0000 T00560039
13962KABI ABI20160223155514802/23/16 15:55:31  5-MIN KABI 232155Z 34019KT 8SM -RA SCT016 BKN022 OVC032 06/03 A2993 1780 85 1100 340/19 RMK AO2 PK WND 35026/2153 P0001 T00560033
13962KABI ABI20160223160014902/23/16 16:00:31  5-MIN KABI 232200Z 35018KT 10SM -RA BKN018 BKN026 OVC040 06/04 A2994 1780 89 1100 340/18 RMK AO2 PK WND 35026/2153 P0001 T00560039
13962KABI ABI20160223160514202/23/16 16:05:31  5-MIN KABI 232205Z 35016KT 10SM -RA BKN018 OVC028 06/04 A2994 1770 92 1100 340/16 RMK AO2 PK WND 35026/2153 P0001 T00560044
13962KABI ABI20160223161016102/23/16 16:10:31  5-MIN KABI 232210Z 34020KT 10SM -RA BKN019 BKN028 OVC039 06/04 A2994 1770 92 1100 340/20 RMK AO2 PK WND 35026/2153 CIG 013V025 P0001 T00560044
13962KABI ABI20160223161515502/23/16 16:15:31  5-MIN KABI 232215Z 34021G25KT 10SM -RA SCT016 BKN021 OVC039 06/04 A2995 1770 89 1200 330/21G25 RMK AO2 PK WND 35026/2153 P0001 T00610044
13962KABI ABI20160223162015502/23/16 16:20:31  5-MIN KABI 232220Z 34022G27KT 10SM -RA SCT018 BKN028 OVC060 06/04 A2995 1770 89 1200 340/22G27 RMK AO2 PK WND 35027/2219 P0001 T00610044
13962KABI ABI20160223162515702/23/16 16:25:31  5-MIN KABI 232225Z 35022G28KT 10SM FEW016 BKN024 OVC060 06/04 A2995 1770 89 1200 340/22G28 RMK AO2 PK WND 35028/2225 RAE22 P0001 T00610044
13962KABI ABI20160223163015702/23/16 16:30:31  5-MIN KABI 232230Z 34019G28KT 10SM SCT018 BKN024 OVC065 06/04 A2995 1770 86 1200 340/19G28 RMK AO2 PK WND 35028/2225 RAE22 P0001 T00610039
13962KABI ABI20160223163515502/23/16 16:35:31  5-MIN KABI 232235Z 35019G30KT 10SM -RA SCT018 BKN027 OVC065 06/04 A2996 1760 86 1200 340/19G30 RMK AO2 PK WND 34030/2233 P0001 T00610039
13962KABI ABI20160223164015502/23/16 16:40:31  5-MIN KABI 232240Z 35023G30KT 10SM -RA SCT018 BKN023 OVC060 06/04 A2996 1760 86 1100 350/23G30 RMK AO2 PK WND 34030/2233 P0001 T00610039
13962KABI ABI20160223164515502/23/16 16:45:31  5-MIN KABI 232245Z 34020G28KT 10SM -RA SCT018 BKN025 OVC065 06/04 A2996 1760 89 1100 340/20G28 RMK AO2 PK WND 34030/2233 P0001 T00560039
13962KABI ABI20160223165015502/23/16 16:50:31  5-MIN KABI 232250Z 35023G28KT 10SM -RA SCT016 OVC027 06/04 A2996 1750 89 1100 340/23G28 RMK AO2 PK WND 34030/2233 SLP146 P0001 T00560039
13962KABI ABI20160223165514802/23/16 16:55:31  5-MIN KABI 232255Z 34022G28KT 10SM -RA BKN018 OVC025 06/04 A2996 1750 89 1100 330/22G28 RMK AO2 PK WND 34027/2255 P0000 T00560039
13962KABI ABI20160223170014802/23/16 17:00:31  5-MIN KABI 232300Z 35023G30KT 10SM -RA BKN019 OVC027 06/04 A2997 1750 89 1100 340/23G30 RMK AO2 PK WND 35030/2257 P0000 T00560039
13962KABI ABI20160223170515702/23/16 17:05:31  5-MIN KABI 232305Z 35019G30KT 10SM BKN019 BKN027 OVC070 06/04 A2997 1750 89 1100 340/19G30 RMK AO2 PK WND 35030/2257 RAE03 P0000 T00560039
13962KABI ABI20160223171015702/23/16 17:10:31  5-MIN KABI 232310Z 35021G26KT 10SM SCT019 BKN025 OVC070 06/04 A2997 1740 89 1100 340/21G26 RMK AO2 PK WND 35030/2257 RAE03 P0000 T00560039
13962KABI ABI20160223171515102/23/16 17:15:31  5-MIN KABI 232315Z 35019KT 10SM SCT019 SCT025 OVC055 06/04 A2997 1740 86 1100 340/19 RMK AO2 PK WND 35030/2257 RAE03 P0000 T00610039
13962KABI ABI20160223172015102/23/16 17:20:31  5-MIN KABI 232320Z 34019KT 10SM SCT018 SCT044 OVC055 06/03 A2998 1740 82 1100 340/19 RMK AO2 PK WND 35030/2257 RAE03 P0000 T00610033
13962KABI ABI20160223172515702/23/16 17:25:31  5-MIN KABI 232325Z 35018G26KT 10SM FEW020 SCT045 OVC060 06/03 A2998 1740 82 1100 340/18G26 RMK AO2 PK WND 35030/2257 RAE03 P0000 T00610033
13962KABI ABI20160223173015702/23/16 17:30:31  5-MIN KABI 232330Z 34019G26KT 10SM FEW022 BKN055 OVC070 06/03 A2998 1740 82 1100 340/19G26 RMK AO2 PK WND 35030/2257 RAE03 P0000 T00610033
13962KABI ABI20160223173515702/23/16 17:35:31  5-MIN KABI 232335Z 34015G23KT 10SM FEW022 BKN055 OVC070 06/04 A2998 1730 86 1100 340/15G23 RMK AO2 PK WND 35030/2257 RAE03 P0000 T00610039
13962KABI ABI20160223174015702/23/16 17:40:31  5-MIN KABI 232340Z 34019G23KT 10SM SCT022 BKN055 OVC070 06/03 A2999 1730 82 1100 340/19G23 RMK AO2 PK WND 35030/2257 RAE03 P0000 T00610033
13962KABI ABI20160223174515102/23/16 17:45:31  5-MIN KABI 232345Z 34019KT 10SM SCT024 BKN036 OVC070 06/03 A2999 1720 82 1100 340/19 RMK AO2 PK WND 35030/2257 RAE03 P0000 T00610033
13962KABI ABI20160223175014102/23/16 17:50:31  5-MIN KABI 232350Z 34018KT 10SM BKN024 BKN036 OVC070 06/03 A3000 1720 85 1000 330/18 RMK AO2 PK WND 35030/2257 RAE03 P0000
13962KABI ABI20160223175512102/23/16 17:55:31  5-MIN KABI 232355Z 34016KT 10SM SCT024 BKN036 OVC075 06/03 A3000 1720 85 1000 340/16 RMK AO2 T00560033
13962KABI ABI20160223180012102/23/16 18:00:31  5-MIN KABI 240000Z 34016KT 10SM SCT024 BKN033 OVC075 06/03 A3000 1720 85 1000 330/16 RMK AO2 T00560033
13962KABI ABI20160223180513702/23/16 18:05:31  5-MIN KABI 240005Z 33019KT 10SM -RA BKN024 BKN032 OVC075 06/03 A3001 1710 85 1000 330/19 RMK AO2 RAB01 P0000 T00560033
13962KABI ABI20160223181014302/23/16 18:10:31  5-MIN KABI 240010Z 33014G22KT 10SM -RA BKN024 BKN033 OVC070 06/03 A3001 1710 85 1000 330/14G22 RMK AO2 RAB01 P0000 T00560033
13962KABI ABI20160223181513602/23/16 18:15:31  5-MIN KABI 240015Z 34020KT 10SM BKN024 BKN032 OVC070 06/03 A3001 1710 85 1000 330/20 RMK AO2 RAB01E13 P0000 T00560033
13962KABI ABI20160223182014202/23/16 18:20:31  5-MIN KABI 240020Z 33017G24KT 10SM BKN024 BKN032 OVC070 06/03 A3001 1710 85 1000 320/17G24 RMK AO2 RAB01E13 P0000 T00560033
13962KABI ABI20160223182514202/23/16 18:25:31  5-MIN KABI 240025Z 33019G24KT 10SM SCT022 BKN029 OVC070 06/03 A3002 1700 85 1000 320/19G24 RMK AO2 RAB01E13 P0000 T00560033
13962KABI ABI20160223183013602/23/16 18:30:31  5-MIN KABI 240030Z 33016KT 10SM SCT024 BKN029 OVC070 06/03 A3002 1700 85 1000 320/16 RMK AO2 RAB01E13 P0000 T00560033
13962KABI ABI20160223183516002/23/16 18:35:31  5-MIN KABI 240035Z 34019G28KT 10SM FEW022 BKN029 OVC070 06/03 A3002 1700 79 1100 330/19G28 RMK AO2 PK WND 33028/0032 RAB01E13 P0000 T00610028
13962KABI ABI20160223184016002/23/16 18:40:31  5-MIN KABI 240040Z 33015G28KT 10SM FEW022 BKN060 OVC070 06/03 A3003 1700 79 1100 330/15G28 RMK AO2 PK WND 33028/0032 RAB01E13 P0000 T00610028
13962KABI ABI20160223184516002/23/16 18:45:31  5-MIN KABI 240045Z 34019G25KT 10SM FEW027 BKN060 OVC075 06/03 A3003 1690 79 1100 330/19G25 RMK AO2 PK WND 33028/0032 RAB01E13 P0000 T00610028
13962KABI ABI20160223185016702/23/16 18:50:31  5-MIN KABI 240050Z 34017G25KT 10SM FEW029 SCT060 OVC075 06/03 A3003 1690 79 1100 330/17G25 RMK AO2 PK WND 33028/0032 RAB01E13 SLP168 P0000 T00610028
13962KABI ABI20160223185512102/23/16 18:55:31  5-MIN KABI 240055Z 33017KT 10SM FEW029 SCT065 OVC090 06/03 A3003 1690 79 1100 330/17 RMK AO2 T00610028
13962KABI ABI20160223190012102/23/16 19:00:31  5-MIN KABI 240100Z 33015KT 10SM FEW060 SCT075 OVC090 06/03 A3004 1680 79 1100 320/15 RMK AO2 T00610028
13962KABI ABI20160223190512102/23/16 19:05:31  5-MIN KABI 240105Z 33014KT 10SM FEW060 BKN090 OVC100 06/03 A3004 1680 79 1100 330/14 RMK AO2 T00610028
13962KABI ABI20160223191011402/23/16 19:10:31  5-MIN KABI 240110Z 33013KT 10SM FEW065 OVC095 06/03 A3004 1680 82 1000 330/13 RMK AO2 T00560028
13962KABI ABI20160223191510702/23/16 19:15:31  5-MIN KABI 240115Z 33014KT 10SM OVC100 06/03 A3005 1680 79 1000 330/14 RMK AO2 T00610028
13962KABI ABI20160223192010702/23/16 19:20:31  5-MIN KABI 240120Z 33014KT 10SM OVC100 06/03 A3005 1680 79 1000 330/14 RMK AO2 T00610028
13962KABI ABI20160223192510702/23/16 19:25:31  5-MIN KABI 240125Z 33014KT 10SM OVC100 06/03 A3005 1670 79 1000 320/14 RMK AO2 T00610028
13962KABI ABI20160223193010702/23/16 19:30:31  5-MIN KABI 240130Z 33013KT 10SM OVC100 06/03 A3005 1670 79 1000 320/13 RMK AO2 T00610028
13962KABI ABI20160223193510702/23/16 19:35:31  5-MIN KABI 240135Z 33012KT 10SM OVC100 06/03 A3005 1670 79 1000 320/12 RMK AO2 T00610028
13962KABI ABI20160223194010702/23/16 19:40:31  5-MIN KABI 240140Z 33014KT 10SM OVC100 06/03 A3006 1670 79 1000 320/14 RMK AO2 T00610028
13962KABI ABI20160223194510702/23/16 19:45:31  5-MIN KABI 240145Z 33013KT 10SM OVC095 06/03 A3006 1670 79 1000 320/13 RMK AO2 T00610028
13962KABI ABI20160223195011402/23/16 19:50:31  5-MIN KABI 240150Z 33013KT 10SM OVC100 06/03 A3006 1660 85 1000 320/13 RMK AO2 SLP179 T00560033
13962KABI ABI20160223195510702/23/16 19:55:31  5-MIN KABI 240155Z 33011KT 10SM OVC100 06/03 A3006 1660 85 1000 320/11 RMK AO2 T00560033
13962KABI ABI20160223200010702/23/16 20:00:31  5-MIN KABI 240200Z 33012KT 10SM OVC100 06/03 A3006 1660 82 1000 320/12 RMK AO2 T00610033
13962KABI ABI20160223200510702/23/16 20:05:31  5-MIN KABI 240205Z 32013KT 10SM OVC100 06/03 A3006 1660 85 1000 320/13 RMK AO2 T00560033
13962KABI ABI20160223201010702/23/16 20:10:31  5-MIN KABI 240210Z 32011KT 10SM OVC110 06/03 A3006 1660 82 1000 310/11 RMK AO2 T00610033
13962KABI ABI20160223201510702/23/16 20:15:31  5-MIN KABI 240215Z 32011KT 10SM BKN110 06/03 A3007 1660 85 1000 320/11 RMK AO2 T00560033
13962KABI ABI20160223202010702/23/16 20:20:31  5-MIN KABI 240220Z 32013KT 10SM BKN110 06/03 A3007 1660 85 1000 310/13 RMK AO2 T00560033
13962KABI ABI20160223202510702/23/16 20:25:31  5-MIN KABI 240225Z 32011KT 10SM SCT110 06/03 A3007 1660 85 1000 310/11 RMK AO2 T00560033
13962KABI ABI20160223203010702/23/16 20:30:31  5-MIN KABI 240230Z 31012KT 10SM FEW110 06/03 A3007 1650 85 1000 310/12 RMK AO2 T00560033
13962KABI ABI20160223203510602/23/16 20:35:31  5-MIN KABI 240235Z 31010KT 10SM FEW110 06/03 A3007 1650 85 900 310/10 RMK AO2 T00560033
13962KABI ABI20160223204010302/23/16 20:40:31  5-MIN KABI 240240Z 31011KT 10SM CLR 06/03 A3007 1650 85 900 310/11 RMK AO2 T00560033
13962KABI ABI20160223204510302/23/16 20:45:31  5-MIN KABI 240245Z 31009KT 10SM CLR 06/03 A3007 1650 85 900 310/09 RMK AO2 T00560033
13962KABI ABI20160223205012202/23/16 20:50:31  5-MIN KABI 240250Z 31010KT 10SM CLR 06/03 A3007 1650 85 900 310/10 RMK AO2 SLP184 60000 T00560033 53028
13962KABI ABI20160223205510302/23/16 20:55:31  5-MIN KABI 240255Z 31010KT 10SM CLR 06/03 A3007 1650 85 900 300/10 RMK AO2 T00560033
13962KABI ABI20160223210010302/23/16 21:00:31  5-MIN KABI 240300Z 31011KT 10SM CLR 06/03 A3008 1650 85 900 310/11 RMK AO2 T00560033
13962KABI ABI20160223210510302/23/16 21:05:31  5-MIN KABI 240305Z 31011KT 10SM CLR 06/03 A3008 1650 85 900 300/11 RMK AO2 T00560033
13962KABI ABI20160223211010302/23/16 21:10:31  5-MIN KABI 240310Z 31011KT 10SM CLR 06/03 A3008 1650 85 900 300/11 RMK AO2 T00560033
13962KABI ABI20160223211510302/23/16 21:15:31  5-MIN KABI 240315Z 31010KT 10SM CLR 06/03 A3008 1640 85 900 300/10 RMK AO2 T00560033
13962KABI ABI20160223212010302/23/16 21:20:31  5-MIN KABI 240320Z 30013KT 10SM CLR 06/03 A3008 1640 85 900 300/13 RMK AO2 T00560033
13962KABI ABI20160223212510302/23/16 21:25:31  5-MIN KABI 240325Z 30011KT 10SM CLR 06/03 A3008 1640 85 900 300/11 RMK AO2 T00560033
13962KABI ABI20160223213010302/23/16 21:30:31  5-MIN KABI 240330Z 30012KT 10SM CLR 06/03 A3008 1640 85 900 300/12 RMK AO2 T00560033
13962KABI ABI20160223213510302/23/16 21:35:31  5-MIN KABI 240335Z 30013KT 10SM CLR 06/03 A3008 1640 85 900 300/13 RMK AO2 T00560033
13962KABI ABI20160223214010302/23/16 21:40:31  5-MIN KABI 240340Z 31013KT 10SM CLR 06/03 A3008 1640 85 900 300/13 RMK AO2 T00560033
13962KABI ABI20160223214510302/23/16 21:45:31  5-MIN KABI 240345Z 31013KT 10SM CLR 06/03 A3008 1640 85 900 310/13 RMK AO2 T00560033
13962KABI ABI20160223215011002/23/16 21:50:31  5-MIN KABI 240350Z 31012KT 10SM CLR 06/03 A3009 1640 85 900 310/12 RMK AO2 SLP189 T00560033
13962KABI ABI20160223215510302/23/16 21:55:31  5-MIN KABI 240355Z 31012KT 10SM CLR 06/03 A3009 1640 85 900 310/12 RMK AO2 T00560033
13962KABI ABI20160223220010302/23/16 22:00:31  5-MIN KABI 240400Z 31013KT 10SM CLR 06/03 A3009 1640 85 900 310/13 RMK AO2 T00560033
13962KABI ABI20160223220510302/23/16 22:05:31  5-MIN KABI 240405Z 31013KT 10SM CLR 06/03 A3009 1640 85 900 310/13 RMK AO2 T00560033
13962KABI ABI20160223221010302/23/16 22:10:31  5-MIN KABI 240410Z 31015KT 10SM CLR 06/03 A3009 1630 85 900 310/15 RMK AO2 T00560033
13962KABI ABI20160223221510402/23/16 22:15:31  5-MIN KABI 240415Z 32015KT 10SM CLR 06/03 A3009 1630 82 1000 310/15 RMK AO2 T00610033
13962KABI ABI20160223222010402/23/16 22:20:31  5-MIN KABI 240420Z 31014KT 10SM CLR 06/03 A3009 1630 82 1000 310/14 RMK AO2 T00610033
13962KABI ABI20160223222510402/23/16 22:25:31  5-MIN KABI 240425Z 32012KT 10SM CLR 06/03 A3009 1630 79 1000 310/12 RMK AO2 T00610028
13962KABI ABI20160223223010402/23/16 22:30:31  5-MIN KABI 240430Z 31013KT 10SM CLR 06/03 A3010 1630 79 1000 310/13 RMK AO2 T00610028
13962KABI ABI20160223223510402/23/16 22:35:31  5-MIN KABI 240435Z 31012KT 10SM CLR 06/03 A3010 1630 79 1000 300/12 RMK AO2 T00610028
13962KABI ABI20160223224010402/23/16 22:40:31  5-MIN KABI 240440Z 31012KT 10SM CLR 06/03 A3010 1630 79 1000 300/12 RMK AO2 T00610028
13962KABI ABI20160223224510402/23/16 22:45:31  5-MIN KABI 240445Z 31014KT 10SM CLR 06/03 A3010 1630 79 1000 300/14 RMK AO2 T00610028
13962KABI ABI20160223225011002/23/16 22:50:31  5-MIN KABI 240450Z 30012KT 10SM CLR 06/03 A3010 1630 82 900 300/12 RMK AO2 SLP194 T00560028
13962KABI ABI20160223225510302/23/16 22:55:31  5-MIN KABI 240455Z 30011KT 10SM CLR 06/03 A3010 1630 82 900 290/11 RMK AO2 T00560028
13962KABI ABI20160223230010302/23/16 23:00:31  5-MIN KABI 240500Z 30011KT 10SM CLR 06/03 A3010 1630 82 900 290/11 RMK AO2 T00560028
13962KABI ABI20160223230510302/23/16 23:05:31  5-MIN KABI 240505Z 30012KT 10SM CLR 06/03 A3010 1630 82 900 290/12 RMK AO2 T00560028
13962KABI ABI20160223231010302/23/16 23:10:31  5-MIN KABI 240510Z 30012KT 10SM CLR 05/03 A3010 1630 85 900 290/12 RMK AO2 T00500028
13962KABI ABI20160223231510302/23/16 23:15:31  5-MIN KABI 240515Z 30012KT 10SM CLR 05/03 A3010 1630 85 900 290/12 RMK AO2 T00500028
13962KABI ABI20160223232010302/23/16 23:20:31  5-MIN KABI 240520Z 30012KT 10SM CLR 05/03 A3010 1630 85 900 290/12 RMK AO2 T00500028
13962KABI ABI20160223232510302/23/16 23:25:31  5-MIN KABI 240525Z 30013KT 10SM CLR 05/03 A3010 1630 85 900 300/13 RMK AO2 T00500028
13962KABI ABI20160223233010302/23/16 23:30:31  5-MIN KABI 240530Z 30012KT 10SM CLR 05/02 A3010 1630 82 800 300/12 RMK AO2 T00500022
13962KABI ABI20160223233510302/23/16 23:35:31  5-MIN KABI 240535Z 30012KT 10SM CLR 05/02 A3010 1630 82 800 300/12 RMK AO2 T00500022
13962KABI ABI20160223234010302/23/16 23:40:31  5-MIN KABI 240540Z 31013KT 10SM CLR 05/02 A3010 1620 82 800 310/13 RMK AO2 T00500022
13962KABI ABI20160223234510302/23/16 23:45:31  5-MIN KABI 240545Z 31014KT 10SM CLR 05/02 A3010 1620 82 800 300/14 RMK AO2 T00500022
13962KABI ABI20160223235014402/23/16 23:50:31  5-MIN KABI 240550Z 31015KT 10SM CLR 06/02 A3011 1620 76 900 310/15 RMK AO2 SLP196 60000 T00560017 10061 20050 400890033 51025
13962KABI ABI20160223235510302/23/16 23:55:31  5-MIN KABI 240555Z 32013KT 10SM CLR 06/02 A3011 1620 76 900 310/13 RMK AO2 T00560017
13962KABI ABI20160224000010302/24/16 00:00:31  5-MIN KABI 240600Z 32014KT 10SM CLR 05/01 A3011 1620 76 800 310/14 RMK AO2 T00500011
13962KABI ABI20160224000510302/24/16 00:05:31  5-MIN KABI 240605Z 32014KT 10SM CLR 05/01 A3011 1610 76 800 310/14 RMK AO2 T00500011
13962KABI ABI20160224001010302/24/16 00:10:31  5-MIN KABI 240610Z 32013KT 10SM CLR 05/01 A3011 1610 76 800 320/13 RMK AO2 T00500011
13962KABI ABI20160224001510302/24/16 00:15:31  5-MIN KABI 240615Z 32013KT 10SM CLR 05/01 A3012 1610 73 800 310/13 RMK AO2 T00500006
13962KABI ABI20160224002010302/24/16 00:20:31  5-MIN KABI 240620Z 33013KT 10SM CLR 05/01 A3012 1610 73 800 320/13 RMK AO2 T00500006
13962KABI ABI20160224002510302/24/16 00:25:31  5-MIN KABI 240625Z 32011KT 10SM CLR 05/01 A3012 1610 73 800 320/11 RMK AO2 T00500006
13962KABI ABI20160224003010302/24/16 00:30:31  5-MIN KABI 240630Z 32012KT 10SM CLR 05/01 A3012 1610 73 800 320/12 RMK AO2 T00500006
13962KABI ABI20160224003510302/24/16 00:35:31  5-MIN KABI 240635Z 32012KT 10SM CLR 05/00 A3012 1610 70 800 320/12 RMK AO2 T00500000
13962KABI ABI20160224004010302/24/16 00:40:31  5-MIN KABI 240640Z 32013KT 10SM CLR 05/00 A3012 1610 70 800 320/13 RMK AO2 T00500000
13962KABI ABI20160224004510902/24/16 00:45:31  5-MIN KABI 240645Z 33012G19KT 10SM CLR 05/00 A3012 1610 70 800 320/12G19 RMK AO2 T00500000
13962KABI ABI20160224005011102/24/16 00:50:31  5-MIN KABI 240650Z 32012KT 10SM CLR 05/M01 A3012 1610 67 800 320/12 RMK AO2 SLP200 T00501006
13962KABI ABI20160224005510402/24/16 00:55:31  5-MIN KABI 240655Z 33010KT 10SM CLR 05/M01 A3012 1610 67 800 320/10 RMK AO2 T00501006
13962KABI ABI20160224010010402/24/16 01:00:31  5-MIN KABI 240700Z 32012KT 10SM CLR 04/M01 A3012 1610 70 800 320/12 RMK AO2 T00441006
13962KABI ABI20160224010510402/24/16 01:05:31  5-MIN KABI 240705Z 32011KT 10SM CLR 04/M01 A3012 1610 70 800 320/11 RMK AO2 T00441006
13962KABI ABI20160224011010402/24/16 01:10:31  5-MIN KABI 240710Z 32012KT 10SM CLR 04/M01 A3012 1610 70 800 310/12 RMK AO2 T00441006
13962KABI ABI20160224011510402/24/16 01:15:31  5-MIN KABI 240715Z 32012KT 10SM CLR 04/M01 A3012 1610 70 800 310/12 RMK AO2 T00441006
13962KABI ABI20160224012010402/24/16 01:20:31  5-MIN KABI 240720Z 31011KT 10SM CLR 04/M01 A3012 1600 70 800 310/11 RMK AO2 T00441006
13962KABI ABI20160224012510402/24/16 01:25:31  5-MIN KABI 240725Z 32011KT 10SM CLR 04/M01 A3013 1600 73 700 310/11 RMK AO2 T00391006
13962KABI ABI20160224013010402/24/16 01:30:31  5-MIN KABI 240730Z 31010KT 10SM CLR 03/M01 A3013 1600 79 500 310/10 RMK AO2 T00281006
13962KABI ABI20160224013510402/24/16 01:35:31  5-MIN KABI 240735Z 32011KT 10SM CLR 02/M01 A3013 1600 82 500 310/11 RMK AO2 T00221006
13962KABI ABI20160224014010402/24/16 01:40:31  5-MIN KABI 240740Z 32012KT 10SM CLR 02/M01 A3013 1600 82 500 310/12 RMK AO2 T00221006
13962KABI ABI20160224014510402/24/16 01:45:31  5-MIN KABI 240745Z 32012KT 10SM CLR 02/M01 A3013 1600 78 500 310/12 RMK AO2 T00221011
13962KABI ABI20160224015011102/24/16 01:50:31  5-MIN KABI 240750Z 31013KT 10SM CLR 02/M01 A3013 1600 78 500 310/13 RMK AO2 SLP205 T00221011
13962KABI ABI20160224015510402/24/16 01:55:31  5-MIN KABI 240755Z 32012KT 10SM CLR 03/M01 A3013 1600 79 500 310/12 RMK AO2 T00281006
13962KABI ABI20160224020010402/24/16 02:00:31  5-MIN KABI 240800Z 32012KT 10SM CLR 04/M01 A3013 1600 70 700 310/12 RMK AO2 T00391011
13962KABI ABI20160224020510402/24/16 02:05:31  5-MIN KABI 240805Z 32011KT 10SM CLR 04/M01 A3013 1600 70 700 310/11 RMK AO2 T00391011
13962KABI ABI20160224021010402/24/16 02:10:31  5-MIN KABI 240810Z 32011KT 10SM CLR 04/M01 A3013 1600 73 700 310/11 RMK AO2 T00391006
13962KABI ABI20160224021510402/24/16 02:15:31  5-MIN KABI 240815Z 32012KT 10SM CLR 04/M01 A3013 1600 70 700 310/12 RMK AO2 T00391011
13962KABI ABI20160224022010402/24/16 02:20:31  5-MIN KABI 240820Z 31013KT 10SM CLR 04/M01 A3013 1590 70 700 300/13 RMK AO2 T00391011
13962KABI ABI20160224022510402/24/16 02:25:31  5-MIN KABI 240825Z 32012KT 10SM CLR 04/M01 A3014 1590 70 700 310/12 RMK AO2 T00391011
13962KABI ABI20160224023010402/24/16 02:30:31  5-MIN KABI 240830Z 31011KT 10SM CLR 04/M01 A3014 1590 70 700 310/11 RMK AO2 T00391011
13962KABI ABI20160224023510402/24/16 02:35:31  5-MIN KABI 240835Z 31012KT 10SM CLR 04/M01 A3014 1590 70 700 310/12 RMK AO2 T00391011
13962KABI ABI20160224024010402/24/16 02:40:31  5-MIN KABI 240840Z 32011KT 10SM CLR 04/M01 A3014 1590 70 700 310/11 RMK AO2 T00391011
13962KABI ABI20160224024510402/24/16 02:45:31  5-MIN KABI 240845Z 31012KT 10SM CLR 03/M01 A3014 1590 72 600 310/12 RMK AO2 T00331011
13962KABI ABI20160224025011702/24/16 02:50:31  5-MIN KABI 240850Z 31012KT 10SM CLR 03/M01 A3014 1590 72 600 310/12 RMK AO2 SLP207 T00331011 51010
13962KABI ABI20160224025510402/24/16 02:55:31  5-MIN KABI 240855Z 32012KT 10SM CLR 03/M01 A3014 1590 72 600 310/12 RMK AO2 T00331011
13962KABI ABI20160224030010402/24/16 03:00:31  5-MIN KABI 240900Z 32013KT 10SM CLR 03/M02 A3014 1590 70 600 310/13 RMK AO2 T00331017
13962KABI ABI20160224030510402/24/16 03:05:31  5-MIN KABI 240905Z 32012KT 10SM CLR 03/M02 A3014 1590 70 600 310/12 RMK AO2 T00331017
13962KABI ABI20160224031010402/24/16 03:10:31  5-MIN KABI 240910Z 32013KT 10SM CLR 03/M02 A3014 1590 70 600 310/13 RMK AO2 T00331017
13962KABI ABI20160224031510402/24/16 03:15:31  5-MIN KABI 240915Z 32012KT 10SM CLR 03/M02 A3014 1590 67 600 320/12 RMK AO2 T00331022
13962KABI ABI20160224032010402/24/16 03:20:31  5-MIN KABI 240920Z 32011KT 10SM CLR 03/M02 A3014 1590 67 600 320/11 RMK AO2 T00331022
13962KABI ABI20160224032510402/24/16 03:25:31  5-MIN KABI 240925Z 32010KT 10SM CLR 03/M02 A3014 1590 69 500 320/10 RMK AO2 T00281022
13962KABI ABI20160224033010402/24/16 03:30:31  5-MIN KABI 240930Z 32011KT 10SM CLR 03/M02 A3014 1590 69 500 310/11 RMK AO2 T00281022
13962KABI ABI20160224033510402/24/16 03:35:31  5-MIN KABI 240935Z 32011KT 10SM CLR 03/M03 A3014 1590 67 500 310/11 RMK AO2 T00281028
13962KABI ABI20160224034010402/24/16 03:40:31  5-MIN KABI 240940Z 32011KT 10SM CLR 03/M03 A3014 1590 64 600 320/11 RMK AO2 T00331028
13962KABI ABI20160224034510402/24/16 03:45:31  5-MIN KABI 240945Z 32012KT 10SM CLR 03/M03 A3014 1590 67 500 320/12 RMK AO2 T00281028
13962KABI ABI20160224035011102/24/16 03:50:31  5-MIN KABI 240950Z 32013KT 10SM CLR 03/M03 A3014 1590 67 500 320/13 RMK AO2 SLP209 T00281028
13962KABI ABI20160224035510402/24/16 03:55:31  5-MIN KABI 240955Z 32012KT 10SM CLR 03/M03 A3014 1590 67 500 320/12 RMK AO2 T00281028
13962KABI ABI20160224040010402/24/16 04:00:31  5-MIN KABI 241000Z 33010KT 10SM CLR 03/M03 A3015 1590 67 500 320/10 RMK AO2 T00281028
13962KABI ABI20160224040510402/24/16 04:05:31  5-MIN KABI 241005Z 32011KT 10SM CLR 03/M03 A3015 1590 67 500 310/11 RMK AO2 T00281028
13962KABI ABI20160224041010402/24/16 04:10:31  5-MIN KABI 241010Z 31013KT 10SM CLR 03/M03 A3014 1590 67 500 310/13 RMK AO2 T00281028
13962KABI ABI20160224041510402/24/16 04:15:31  5-MIN KABI 241015Z 31011KT 10SM CLR 03/M03 A3014 1590 67 500 310/11 RMK AO2 T00281028
13962KABI ABI20160224042010402/24/16 04:20:31  5-MIN KABI 241020Z 31010KT 10SM CLR 03/M03 A3014 1590 67 500 310/10 RMK AO2 T00281028
13962KABI ABI20160224042510402/24/16 04:25:31  5-MIN KABI 241025Z 31011KT 10SM CLR 03/M03 A3014 1590 67 500 310/11 RMK AO2 T00281028
13962KABI ABI20160224043010402/24/16 04:30:31  5-MIN KABI 241030Z 31010KT 10SM CLR 03/M03 A3015 1590 67 500 310/10 RMK AO2 T00281028
13962KABI ABI20160224043510402/24/16 04:35:31  5-MIN KABI 241035Z 32009KT 10SM CLR 02/M03 A3015 1590 69 500 310/09 RMK AO2 T00221028
13962KABI ABI20160224044010402/24/16 04:40:31  5-MIN KABI 241040Z 32011KT 10SM CLR 02/M03 A3015 1580 69 500 310/11 RMK AO2 T00221028
13962KABI ABI20160224044510402/24/16 04:45:31  5-MIN KABI 241045Z 32012KT 10SM CLR 02/M03 A3014 1590 69 500 310/12 RMK AO2 T00221028
13962KABI ABI20160224045011102/24/16 04:50:31  5-MIN KABI 241050Z 32012KT 10SM CLR 02/M03 A3014 1590 69 500 310/12 RMK AO2 SLP211 T00221028
13962KABI ABI20160224045510402/24/16 04:55:31  5-MIN KABI 241055Z 32012KT 10SM CLR 02/M03 A3015 1580 69 500 310/12 RMK AO2 T00221028
13962KABI ABI20160224050010402/24/16 05:00:31  5-MIN KABI 241100Z 32012KT 10SM CLR 02/M03 A3015 1580 69 500 320/12 RMK AO2 T00221028
13962KABI ABI20160224050510402/24/16 05:05:31  5-MIN KABI 241105Z 32013KT 10SM CLR 02/M03 A3015 1580 69 500 310/13 RMK AO2 T00221028
13962KABI ABI20160224051010402/24/16 05:10:31  5-MIN KABI 241110Z 32012KT 10SM CLR 02/M03 A3015 1580 67 500 310/12 RMK AO2 T00221033
13962KABI ABI20160224051510402/24/16 05:15:31  5-MIN KABI 241115Z 32011KT 10SM CLR 02/M03 A3015 1580 69 500 310/11 RMK AO2 T00221028
13962KABI ABI20160224052010402/24/16 05:20:31  5-MIN KABI 241120Z 31011KT 10SM CLR 02/M03 A3015 1580 69 500 310/11 RMK AO2 T00221028
13962KABI ABI20160224052510402/24/16 05:25:31  5-MIN KABI 241125Z 32010KT 10SM CLR 02/M03 A3015 1580 69 400 310/10 RMK AO2 T00221028
13962KABI ABI20160224053010402/24/16 05:30:31  5-MIN KABI 241130Z 31012KT 10SM CLR 02/M03 A3015 1580 69 400 310/12 RMK AO2 T00221028
13962KABI ABI20160224053510402/24/16 05:35:31  5-MIN KABI 241135Z 31011KT 10SM CLR 02/M03 A3016 1580 69 400 310/11 RMK AO2 T00221028
13962KABI ABI20160224054010402/24/16 05:40:31  5-MIN KABI 241140Z 31012KT 10SM CLR 02/M03 A3016 1570 69 400 310/12 RMK AO2 T00221028
13962KABI ABI20160224054510402/24/16 05:45:31  5-MIN KABI 241145Z 31011KT 10SM CLR 02/M03 A3016 1570 72 400 310/11 RMK AO2 T00171028
13962KABI ABI20160224055013502/24/16 05:50:31  5-MIN KABI 241150Z 31011KT 10SM CLR 02/M03 A3016 1570 69 400 310/11 RMK AO2 SLP216 70004 T00221028 10056 20017 51010
13962KABI ABI20160224055510402/24/16 05:55:31  5-MIN KABI 241155Z 31012KT 10SM CLR 02/M03 A3016 1570 72 400 310/12 RMK AO2 T00171028
13962KABI ABI20160224060010402/24/16 06:00:31  5-MIN KABI 241200Z 31010KT 10SM CLR 02/M03 A3016 1570 69 400 300/10 RMK AO2 T00221028
13962KABI ABI20160224060510402/24/16 06:05:31  5-MIN KABI 241205Z 31011KT 10SM CLR 02/M03 A3017 1560 72 400 310/11 RMK AO2 T00171028
13962KABI ABI20160224061010402/24/16 06:10:31  5-MIN KABI 241210Z 31013KT 10SM CLR 02/M03 A3017 1560 69 400 310/13 RMK AO2 T00221028
13962KABI ABI20160224061510402/24/16 06:15:31  5-MIN KABI 241215Z 31011KT 10SM CLR 02/M03 A3017 1560 69 400 310/11 RMK AO2 T00221028
13962KABI ABI20160224062010402/24/16 06:20:31  5-MIN KABI 241220Z 31012KT 10SM CLR 02/M03 A3018 1560 69 400 310/12 RMK AO2 T00221028
13962KABI ABI20160224062510402/24/16 06:25:31  5-MIN KABI 241225Z 31012KT 10SM CLR 02/M03 A3018 1550 69 400 300/12 RMK AO2 T00221028
13962KABI ABI20160224063010402/24/16 06:30:31  5-MIN KABI 241230Z 31011KT 10SM CLR 02/M03 A3018 1550 72 300 300/11 RMK AO2 T00171028
13962KABI ABI20160224063510402/24/16 06:35:31  5-MIN KABI 241235Z 30011KT 10SM CLR 02/M03 A3018 1550 69 300 290/11 RMK AO2 T00171033
13962KABI ABI20160224064010402/24/16 06:40:31  5-MIN KABI 241240Z 30010KT 10SM CLR 02/M03 A3019 1550 72 300 300/10 RMK AO2 T00171028
13962KABI ABI20160224064510402/24/16 06:45:31  5-MIN KABI 241245Z 31011KT 10SM CLR 02/M03 A3019 1540 72 300 300/11 RMK AO2 T00171028
13962KABI ABI20160224065011102/24/16 06:50:31  5-MIN KABI 241250Z 31010KT 10SM CLR 02/M03 A3019 1540 72 300 300/10 RMK AO2 SLP227 T00171028
13962KABI ABI20160224065510402/24/16 06:55:31  5-MIN KABI 241255Z 31011KT 10SM CLR 02/M03 A3019 1540 72 300 300/11 RMK AO2 T00171028
13962KABI ABI20160224070010402/24/16 07:00:31  5-MIN KABI 241300Z 31011KT 10SM CLR 02/M03 A3019 1540 72 300 300/11 RMK AO2 T00171028
13962KABI ABI20160224070510402/24/16 07:05:31  5-MIN KABI 241305Z 31010KT 10SM CLR 02/M03 A3020 1540 72 300 300/10 RMK AO2 T00171028
13962KABI ABI20160224071010402/24/16 07:10:31  5-MIN KABI 241310Z 31010KT 10SM CLR 02/M03 A3020 1540 72 300 300/10 RMK AO2 T00171028
13962KABI ABI20160224071510402/24/16 07:15:31  5-MIN KABI 241315Z 30009KT 10SM CLR 02/M03 A3020 1530 72 300 300/09 RMK AO2 T00171028
13962KABI ABI20160224072010402/24/16 07:20:31  5-MIN KABI 241320Z 31009KT 10SM CLR 02/M03 A3020 1530 69 300 300/09 RMK AO2 T00171033
13962KABI ABI20160224072510402/24/16 07:25:31  5-MIN KABI 241325Z 31010KT 10SM CLR 02/M03 A3021 1530 69 300 310/10 RMK AO2 T00171033
13962KABI ABI20160224073010402/24/16 07:30:31  5-MIN KABI 241330Z 31010KT 10SM CLR 02/M03 A3021 1530 69 300 300/10 RMK AO2 T00171033
13962KABI ABI20160224073510402/24/16 07:35:31  5-MIN KABI 241335Z 31010KT 10SM CLR 02/M03 A3021 1520 72 300 300/10 RMK AO2 T00171028
13962KABI ABI20160224074010402/24/16 07:40:31  5-MIN KABI 241340Z 30009KT 10SM CLR 02/M03 A3021 1520 72 300 300/09 RMK AO2 T00171028
13962KABI ABI20160224074510402/24/16 07:45:31  5-MIN KABI 241345Z 30011KT 10SM CLR 02/M03 A3022 1520 67 400 300/11 RMK AO2 T00221033
13962KABI ABI20160224075011102/24/16 07:50:31  5-MIN KABI 241350Z 30010KT 10SM CLR 02/M03 A3022 1510 69 400 300/10 RMK AO2 SLP238 T00221028
13962KABI ABI20160224075510402/24/16 07:55:31  5-MIN KABI 241355Z 31009KT 10SM CLR 02/M03 A3023 1510 69 400 300/09 RMK AO2 T00221028
13962KABI ABI20160224080010402/24/16 08:00:31  5-MIN KABI 241400Z 30010KT 10SM CLR 03/M03 A3023 1510 64 400 300/10 RMK AO2 T00281033
13962KABI ABI20160224080510402/24/16 08:05:31  5-MIN KABI 241405Z 30010KT 10SM CLR 03/M03 A3023 1510 67 400 290/10 RMK AO2 T00281028
13962KABI ABI20160224081010402/24/16 08:10:31  5-MIN KABI 241410Z 30010KT 10SM CLR 03/M03 A3023 1500 67 400 290/10 RMK AO2 T00281028
13962KABI ABI20160224081510402/24/16 08:15:31  5-MIN KABI 241415Z 30010KT 10SM CLR 03/M03 A3024 1500 61 500 290/10 RMK AO2 T00331033
13962KABI ABI20160224082010402/24/16 08:20:31  5-MIN KABI 241420Z 31011KT 10SM CLR 03/M03 A3024 1500 64 500 300/11 RMK AO2 T00331028
13962KABI ABI20160224082510402/24/16 08:25:31  5-MIN KABI 241425Z 30011KT 10SM CLR 03/M03 A3024 1500 64 500 300/11 RMK AO2 T00331028
13962KABI ABI20160224083010402/24/16 08:30:31  5-MIN KABI 241430Z 30012KT 10SM CLR 04/M03 A3024 1490 59 600 300/12 RMK AO2 T00391033
13962KABI ABI20160224083510402/24/16 08:35:31  5-MIN KABI 241435Z 30010KT 10SM CLR 04/M03 A3025 1490 59 500 300/10 RMK AO2 T00391033
13962KABI ABI20160224084010402/24/16 08:40:31  5-MIN KABI 241440Z 31012KT 10SM CLR 04/M03 A3025 1490 59 600 300/12 RMK AO2 T00441028
13962KABI ABI20160224084510402/24/16 08:45:31  5-MIN KABI 241445Z 31012KT 10SM CLR 04/M03 A3025 1490 57 600 310/12 RMK AO2 T00441033
13962KABI ABI20160224085011702/24/16 08:50:31  5-MIN KABI 241450Z 31012KT 10SM CLR 04/M03 A3026 1480 59 600 300/12 RMK AO2 SLP247 T00441028 53007
13962KABI ABI20160224085510402/24/16 08:55:31  5-MIN KABI 241455Z 31013KT 10SM CLR 05/M03 A3026 1480 57 700 300/13 RMK AO2 T00501028
13962KABI ABI20160224090010402/24/16 09:00:31  5-MIN KABI 241500Z 31011KT 10SM CLR 06/M03 A3026 1480 55 700 310/11 RMK AO2 T00561028
13962KABI ABI20160224090510402/24/16 09:05:31  5-MIN KABI 241505Z 31012KT 10SM CLR 06/M03 A3026 1480 53 700 310/12 RMK AO2 T00561033
13962KABI ABI20160224091010402/24/16 09:10:31  5-MIN KABI 241510Z 31010KT 10SM CLR 06/M03 A3027 1470 55 700 300/10 RMK AO2 T00561028
13962KABI ABI20160224091510402/24/16 09:15:31  5-MIN KABI 241515Z 31010KT 10SM CLR 06/M03 A3027 1470 53 800 310/10 RMK AO2 T00611028
13962KABI ABI20160224092010402/24/16 09:20:31  5-MIN KABI 241520Z 31012KT 10SM CLR 06/M03 A3027 1470 53 800 310/12 RMK AO2 T00611028
13962KABI ABI20160224092510402/24/16 09:25:31  5-MIN KABI 241525Z 31011KT 10SM CLR 06/M03 A3027 1470 51 800 310/11 RMK AO2 T00611033
13962KABI ABI20160224093010402/24/16 09:30:31  5-MIN KABI 241530Z 32014KT 10SM CLR 07/M03 A3027 1470 49 900 310/14 RMK AO2 T00671033
13962KABI ABI20160224093510402/24/16 09:35:31  5-MIN KABI 241535Z 32013KT 10SM CLR 07/M03 A3027 1470 49 900 310/13 RMK AO2 T00671033
13962KABI ABI20160224094010402/24/16 09:40:31  5-MIN KABI 241540Z 31013KT 10SM CLR 07/M03 A3028 1460 49 900 310/13 RMK AO2 T00671033
13962KABI ABI20160224094510402/24/16 09:45:31  5-MIN KABI 241545Z 31014KT 10SM CLR 07/M03 A3028 1460 47 900 310/14 RMK AO2 T00721033
13962KABI ABI20160224095011102/24/16 09:50:31  5-MIN KABI 241550Z 31013KT 10SM CLR 07/M03 A3028 1460 47 900 300/13 RMK AO2 SLP252 T00721033
13962KABI ABI20160224095510402/24/16 09:55:31  5-MIN KABI 241555Z 31010KT 10SM CLR 07/M03 A3028 1460 49 900 310/10 RMK AO2 T00721028
13962KABI ABI20160224100010502/24/16 10:00:31  5-MIN KABI 241600Z 31012KT 10SM CLR 08/M03 A3028 1460 47 1000 310/12 RMK AO2 T00781028
13962KABI ABI20160224100510502/24/16 10:05:31  5-MIN KABI 241605Z 32014KT 10SM CLR 08/M03 A3028 1460 47 1000 320/14 RMK AO2 T00781028
13962KABI ABI20160224101010502/24/16 10:10:31  5-MIN KABI 241610Z 31013KT 10SM CLR 08/M03 A3028 1460 45 1000 310/13 RMK AO2 T00781033
13962KABI ABI20160224101510502/24/16 10:15:31  5-MIN KABI 241615Z 32012KT 10SM CLR 08/M03 A3028 1460 45 1000 320/12 RMK AO2 T00781033
13962KABI ABI20160224102010502/24/16 10:20:31  5-MIN KABI 241620Z 32012KT 10SM CLR 08/M03 A3028 1460 43 1000 320/12 RMK AO2 T00831033
13962KABI ABI20160224102510502/24/16 10:25:31  5-MIN KABI 241625Z 31013KT 10SM CLR 08/M03 A3028 1460 45 1000 310/13 RMK AO2 T00831028
13962KABI ABI20160224103010502/24/16 10:30:31  5-MIN KABI 241630Z 32011KT 10SM CLR 08/M03 A3028 1460 43 1000 310/11 RMK AO2 T00831033
13962KABI ABI20160224103510502/24/16 10:35:31  5-MIN KABI 241635Z 31010KT 10SM CLR 09/M03 A3028 1460 43 1100 300/10 RMK AO2 T00891028
13962KABI ABI20160224104010502/24/16 10:40:31  5-MIN KABI 241640Z 32013KT 10SM CLR 09/M03 A3029 1460 43 1100 320/13 RMK AO2 T00891028
13962KABI ABI20160224104510502/24/16 10:45:31  5-MIN KABI 241645Z 31010KT 10SM CLR 09/M03 A3029 1450 43 1100 310/10 RMK AO2 T00891028
13962KABI ABI20160224105011202/24/16 10:50:31  5-MIN KABI 241650Z 31009KT 10SM CLR 09/M02 A3029 1450 44 1200 310/09 RMK AO2 SLP255 T00941022
13962KABI ABI20160224105510502/24/16 10:55:31  5-MIN KABI 241655Z 33010KT 10SM CLR 09/M02 A3029 1450 44 1200 320/10 RMK AO2 T00941022
13962KABI ABI20160224110010502/24/16 11:00:31  5-MIN KABI 241700Z 30009KT 10SM CLR 10/M02 A3029 1460 42 1200 290/09 RMK AO2 T01001022
13962KABI ABI20160224110510502/24/16 11:05:31  5-MIN KABI 241705Z 30010KT 10SM CLR 10/M02 A3029 1460 42 1200 290/10 RMK AO2 T01001022
13962KABI ABI20160224111010502/24/16 11:10:31  5-MIN KABI 241710Z 30011KT 10SM CLR 11/M02 A3029 1460 40 1300 300/11 RMK AO2 T01061022
13962KABI ABI20160224111510502/24/16 11:15:31  5-MIN KABI 241715Z 31011KT 10SM CLR 10/M03 A3029 1460 40 1200 310/11 RMK AO2 T01001028
13962KABI ABI20160224112010502/24/16 11:20:31  5-MIN KABI 241720Z 29010KT 10SM CLR 11/M02 A3029 1450 40 1300 280/10 RMK AO2 T01061022
13962KABI ABI20160224112510502/24/16 11:25:31  5-MIN KABI 241725Z 30010KT 10SM CLR 11/M03 A3029 1460 39 1300 290/10 RMK AO2 T01061028
13962KABI ABI20160224113010502/24/16 11:30:31  5-MIN KABI 241730Z 32014KT 10SM CLR 11/M04 A3028 1460 36 1300 320/14 RMK AO2 T01061039
13962KABI ABI20160224113510502/24/16 11:35:31  5-MIN KABI 241735Z 32014KT 10SM CLR 11/M04 A3028 1460 34 1300 310/14 RMK AO2 T01061044
13962KABI ABI20160224114010502/24/16 11:40:31  5-MIN KABI 241740Z 32012KT 10SM CLR 11/M04 A3028 1460 33 1400 320/12 RMK AO2 T01111044
13962KABI ABI20160224114510502/24/16 11:45:31  5-MIN KABI 241745Z 32012KT 10SM CLR 11/M06 A3028 1460 30 1400 320/12 RMK AO2 T01111056
13962KABI ABI20160224115013002/24/16 11:50:31  5-MIN KABI 241750Z 33014KT 10SM CLR 12/M04 A3027 1470 32 1500 320/14 RMK AO2 SLP248 T01171044 10117 20011 51030
13962KABI ABI20160224115510502/24/16 11:55:31  5-MIN KABI 241755Z 32013KT 10SM CLR 12/M06 A3027 1470 29 1500 320/13 RMK AO2 T01171056
13962KABI ABI20160224120011102/24/16 12:00:31  5-MIN KABI 241800Z 31016G19KT 10SM CLR 12/M05 A3027 1470 30 1500 310/16G19 RMK AO2 T01171050
13962KABI ABI20160224120511102/24/16 12:05:31  5-MIN KABI 241805Z 31014G22KT 10SM CLR 12/M05 A3027 1470 30 1500 310/14G22 RMK AO2 T01171050
13962KABI ABI20160224121011102/24/16 12:10:31  5-MIN KABI 241810Z 31012G22KT 10SM CLR 12/M04 A3027 1470 33 1500 310/12G22 RMK AO2 T01171039
13962KABI ABI20160224121510502/24/16 12:15:31  5-MIN KABI 241815Z 32012KT 10SM CLR 12/M04 A3026 1480 32 1500 320/12 RMK AO2 T01221039
13962KABI ABI20160224122010502/24/16 12:20:31  5-MIN KABI 241820Z 31011KT 10SM CLR 12/M04 A3026 1480 32 1500 300/11 RMK AO2 T01171044
13962KABI ABI20160224122511102/24/16 12:25:31  5-MIN KABI 241825Z 31012G16KT 10SM CLR 12/M04 A3026 1480 31 1500 310/12G16 RMK AO2 T01221044
13962KABI ABI20160224123011102/24/16 12:30:31  5-MIN KABI 241830Z 33012G16KT 10SM CLR 12/M04 A3026 1480 32 1500 320/12G16 RMK AO2 T01221039
13962KABI ABI20160224123510502/24/16 12:35:31  5-MIN KABI 241835Z 31014KT 10SM CLR 13/M04 A3025 1480 30 1700 300/14 RMK AO2 T01331039
13962KABI ABI20160224124010502/24/16 12:40:31  5-MIN KABI 241840Z 31011KT 10SM CLR 12/M05 A3025 1490 29 1500 300/11 RMK AO2 T01221050
13962KABI ABI20160224124511102/24/16 12:45:31  5-MIN KABI 241845Z 31012G18KT 10SM CLR 12/M04 A3025 1490 31 1600 300/12G18 RMK AO2 T01221044
13962KABI ABI20160224125011802/24/16 12:50:31  5-MIN KABI 241850Z 31014G20KT 10SM CLR 13/M04 A3024 1500 30 1600 310/14G20 RMK AO2 SLP238 T01281044
13962KABI ABI20160224125511102/24/16 12:55:31  5-MIN KABI 241855Z 31009G20KT 10SM CLR 13/M05 A3024 1500 28 1600 300/09G20 RMK AO2 T01281050
13962KABI ABI20160224130011102/24/16 13:00:31  5-MIN KABI 241900Z 32016G20KT 10SM CLR 13/M04 A3024 1500 28 1700 310/16G20 RMK AO2 T01331044
13962KABI ABI20160224130511102/24/16 13:05:31  5-MIN KABI 241905Z 32012G20KT 10SM CLR 13/M05 A3024 1500 28 1600 310/12G20 RMK AO2 T01281050
13962KABI ABI20160224131011102/24/16 13:10:31  5-MIN KABI 241910Z 30012G18KT 10SM CLR 13/M04 A3024 1500 28 1700 300/12G18 RMK AO2 T01331044
13962KABI ABI20160224131511102/24/16 13:15:31  5-MIN KABI 241915Z 29006G18KT 10SM CLR 13/M04 A3023 1500 31 1600 290/06G18 RMK AO2 T01281039
13962KABI ABI20160224132011102/24/16 13:20:31  5-MIN KABI 241920Z 33010G17KT 10SM CLR 13/M04 A3023 1510 30 1700 320/10G17 RMK AO2 T01331039
13962KABI ABI20160224132511102/24/16 13:25:31  5-MIN KABI 241925Z 28012G17KT 10SM CLR 13/M04 A3023 1510 30 1700 280/12G17 RMK AO2 T01331039
13962KABI ABI20160224133010502/24/16 13:30:31  5-MIN KABI 241930Z 31012KT 10SM CLR 13/M03 A3022 1510 32 1700 300/12 RMK AO2 T01331028
13962KABI ABI20160224133510502/24/16 13:35:31  5-MIN KABI 241935Z 30010KT 10SM CLR 13/M03 A3022 1520 31 1700 300/10 RMK AO2 T01331033
13962KABI ABI20160224134011102/24/16 13:40:31  5-MIN KABI 241940Z 29013G18KT 10SM CLR 13/M04 A3022 1520 30 1700 280/13G18 RMK AO2 T01331039
13962KABI ABI20160224134511102/24/16 13:45:31  5-MIN KABI 241945Z 32013G18KT 10SM CLR 13/M04 A3022 1520 30 1700 320/13G18 RMK AO2 T01331039
13962KABI ABI20160224135011802/24/16 13:50:31  5-MIN KABI 241950Z 28011G19KT 10SM CLR 14/M03 A3022 1520 30 1800 280/11G19 RMK AO2 SLP229 T01391033
13962KABI ABI20160224135511102/24/16 13:55:31  5-MIN KABI 241955Z 30011G19KT 10SM CLR 14/M04 A3021 1520 29 1800 290/11G19 RMK AO2 T01391039
13962KABI ABI20160224140010502/24/16 14:00:31  5-MIN KABI 242000Z 30011KT 10SM CLR 14/M03 A3021 1530 30 1800 300/11 RMK AO2 T01391033
13962KABI ABI20160224140510502/24/16 14:05:31  5-MIN KABI 242005Z 27013KT 10SM CLR 14/M04 A3020 1530 29 1800 260/13 RMK AO2 T01391039
13962KABI ABI20160224141011102/24/16 14:10:31  5-MIN KABI 242010Z 29015G19KT 10SM CLR 14/M03 A3020 1530 29 1900 280/15G19 RMK AO2 T01441033
13962KABI ABI20160224141511102/24/16 14:15:31  5-MIN KABI 242015Z 30010G19KT 10SM CLR 14/M03 A3020 1540 29 1900 290/10G19 RMK AO2 T01441033
13962KABI ABI20160224142010502/24/16 14:20:31  5-MIN KABI 242020Z 29008KT 10SM CLR 14/M04 A3020 1540 27 1800 290/08 RMK AO2 T01391044
13962KABI ABI20160224142511102/24/16 14:25:31  5-MIN KABI 242025Z 27013G19KT 10SM CLR 14/M04 A3019 1540 28 1900 260/13G19 RMK AO2 T01441039
13962KABI ABI20160224143011102/24/16 14:30:31  5-MIN KABI 242030Z 29014G20KT 10SM CLR 14/M04 A3019 1540 26 1900 290/14G20 RMK AO2 T01441044
13962KABI ABI20160224143510502/24/16 14:35:31  5-MIN KABI 242035Z 28014KT 10SM CLR 14/M05 A3019 1540 25 1900 280/14 RMK AO2 T01441050
13962KABI ABI20160224144010502/24/16 14:40:31  5-MIN KABI 242040Z 29014KT 10SM CLR 14/M04 A3019 1540 26 1900 280/14 RMK AO2 T01441044
13962KABI ABI20160224144511102/24/16 14:45:31  5-MIN KABI 242045Z 31011G20KT 10SM CLR 14/M04 A3019 1540 26 1900 300/11G20 RMK AO2 T01441044
13962KABI ABI20160224145012402/24/16 14:50:31  5-MIN KABI 242050Z 29015G20KT 10SM CLR 14/M05 A3018 1550 25 1900 280/15G20 RMK AO2 SLP217 T01441050 50006
13962KABI ABI20160224145510502/24/16 14:55:31  5-MIN KABI 242055Z 31016KT 10SM CLR 14/M05 A3018 1550 25 1900 300/16 RMK AO2 T01441050
13962KABI ABI20160224150010502/24/16 15:00:31  5-MIN KABI 242100Z 30018KT 10SM CLR 14/M06 A3018 1560 24 1900 290/18 RMK AO2 T01441056
13962KABI ABI20160224150510502/24/16 15:05:31  5-MIN KABI 242105Z 30015KT 10SM CLR 14/M05 A3018 1560 25 1900 290/15 RMK AO2 T01441050
13962KABI ABI20160224151010502/24/16 15:10:31  5-MIN KABI 242110Z 30014KT 10SM CLR 15/M05 A3017 1560 24 2000 290/14 RMK AO2 T01501050
13962KABI ABI20160224151510502/24/16 15:15:31  5-MIN KABI 242115Z 27013KT 10SM CLR 15/M06 A3017 1560 23 2000 270/13 RMK AO2 T01501056
13962KABI ABI20160224152010502/24/16 15:20:31  5-MIN KABI 242120Z 28010KT 10SM CLR 15/M06 A3017 1560 23 2000 270/10 RMK AO2 T01501056
13962KABI ABI20160224152510502/24/16 15:25:31  5-MIN KABI 242125Z 29012KT 10SM CLR 15/M05 A3017 1560 24 2000 280/12 RMK AO2 T01501050
13962KABI ABI20160224153011102/24/16 15:30:31  5-MIN KABI 242130Z 30008G18KT 10SM CLR 15/M06 A3017 1560 23 2000 300/08G18 RMK AO2 T01501056
13962KABI ABI20160224153511102/24/16 15:35:31  5-MIN KABI 242135Z 27010G18KT 10SM CLR 16/M04 A3017 1570 25 2000 260/10G18 RMK AO2 T01561044
13962KABI ABI20160224154011102/24/16 15:40:31  5-MIN KABI 242140Z 28015G21KT 10SM CLR 16/M05 A3016 1570 24 2000 270/15G21 RMK AO2 T01561050
13962KABI ABI20160224154511102/24/16 15:45:31  5-MIN KABI 242145Z 28011G21KT 10SM CLR 16/M06 A3016 1570 23 2000 270/11G21 RMK AO2 T01561056
13962KABI ABI20160224155011802/24/16 15:50:31  5-MIN KABI 242150Z 28010G21KT 10SM CLR 15/M05 A3016 1570 24 2000 280/10G21 RMK AO2 SLP209 T01501050
13962KABI ABI20160224155510502/24/16 15:55:31  5-MIN KABI 242155Z 29012KT 10SM CLR 16/M05 A3016 1580 24 2000 290/12 RMK AO2 T01561050
13962KABI ABI20160224160011102/24/16 16:00:31  5-MIN KABI 242200Z 28015G21KT 10SM CLR 16/M05 A3016 1570 24 2000 280/15G21 RMK AO2 T01561050
13962KABI ABI20160224160511102/24/16 16:05:31  5-MIN KABI 242205Z 26011G21KT 10SM CLR 16/M06 A3016 1580 23 2000 250/11G21 RMK AO2 T01561056
13962KABI ABI20160224161011102/24/16 16:10:31  5-MIN KABI 242210Z 29011G19KT 10SM CLR 16/M05 A3015 1580 24 2000 290/11G19 RMK AO2 T01561050
13962KABI ABI20160224161511102/24/16 16:15:31  5-MIN KABI 242215Z 30014G19KT 10SM CLR 16/M05 A3015 1580 24 2100 290/14G19 RMK AO2 T01561050
13962KABI ABI20160224162011102/24/16 16:20:31  5-MIN KABI 242220Z 29012G20KT 10SM CLR 16/M05 A3015 1580 24 2100 290/12G20 RMK AO2 T01561050
13962KABI ABI20160224162511102/24/16 16:25:31  5-MIN KABI 242225Z 30011G20KT 10SM CLR 16/M05 A3015 1580 24 2100 290/11G20 RMK AO2 T01561050
13962KABI ABI20160224163010502/24/16 16:30:31  5-MIN KABI 242230Z 29013KT 10SM CLR 16/M05 A3015 1580 24 2100 290/13 RMK AO2 T01561050
13962KABI ABI20160224163510502/24/16 16:35:31  5-MIN KABI 242235Z 30013KT 10SM CLR 16/M06 A3014 1590 23 2100 300/13 RMK AO2 T01561056
13962KABI ABI20160224164010502/24/16 16:40:31  5-MIN KABI 242240Z 28011KT 10SM CLR 16/M06 A3014 1590 23 2100 280/11 RMK AO2 T01561056
13962KABI ABI20160224164510502/24/16 16:45:31  5-MIN KABI 242245Z 28012KT 10SM CLR 16/M06 A3014 1590 23 2100 280/12 RMK AO2 T01561056
13962KABI ABI20160224165011202/24/16 16:50:31  5-MIN KABI 242250Z 29012KT 10SM CLR 16/M05 A3014 1590 24 2100 290/12 RMK AO2 SLP203 T01561050
13962KABI ABI20160224165511102/24/16 16:55:31  5-MIN KABI 242255Z 29012G20KT 10SM CLR 16/M06 A3014 1590 23 2100 280/12G20 RMK AO2 T01561056
13962KABI ABI20160224170011102/24/16 17:00:31  5-MIN KABI 242300Z 28010G20KT 10SM CLR 16/M06 A3014 1590 23 2100 280/10G20 RMK AO2 T01561056
13962KABI ABI20160224170510502/24/16 17:05:31  5-MIN KABI 242305Z 27013KT 10SM CLR 16/M06 A3014 1590 23 2100 260/13 RMK AO2 T01561056
13962KABI ABI20160224171010502/24/16 17:10:31  5-MIN KABI 242310Z 28008KT 10SM CLR 16/M06 A3014 1590 23 2100 280/08 RMK AO2 T01561056
13962KABI ABI20160224171510502/24/16 17:15:31  5-MIN KABI 242315Z 29011KT 10SM CLR 16/M06 A3014 1590 23 2100 290/11 RMK AO2 T01561056
13962KABI ABI20160224172010502/24/16 17:20:31  5-MIN KABI 242320Z 30014KT 10SM CLR 16/M06 A3014 1590 23 2100 290/14 RMK AO2 T01561056
13962KABI ABI20160224172510502/24/16 17:25:31  5-MIN KABI 242325Z 30014KT 10SM CLR 15/M06 A3014 1590 22 2000 290/14 RMK AO2 T01501061
13962KABI ABI20160224173010502/24/16 17:30:31  5-MIN KABI 242330Z 30011KT 10SM CLR 15/M06 A3014 1590 23 2000 300/11 RMK AO2 T01501056
13962KABI ABI20160224173510502/24/16 17:35:31  5-MIN KABI 242335Z 29010KT 10SM CLR 15/M06 A3014 1590 23 2000 280/10 RMK AO2 T01501056
13962KABI ABI20160224174010502/24/16 17:40:31  5-MIN KABI 242340Z 28012KT 10SM CLR 15/M06 A3014 1590 23 2000 270/12 RMK AO2 T01501056
13962KABI ABI20160224174510502/24/16 17:45:31  5-MIN KABI 242345Z 28011KT 10SM CLR 15/M06 A3014 1590 22 2000 280/11 RMK AO2 T01501061
13962KABI ABI20160224175013002/24/16 17:50:31  5-MIN KABI 242350Z 29010KT 10SM CLR 15/M06 A3014 1590 22 2000 280/10 RMK AO2 SLP203 T01501061 10156 20117 56029
13962KABI ABI20160224175510502/24/16 17:55:31  5-MIN KABI 242355Z 28010KT 10SM CLR 15/M06 A3014 1590 22 2000 280/10 RMK AO2 T01501061
13962KABI ABI20160224180010502/24/16 18:00:31  5-MIN KABI 250000Z 28008KT 10SM CLR 14/M06 A3014 1590 23 1900 280/08 RMK AO2 T01441061
13962KABI ABI20160224180510502/24/16 18:05:31  5-MIN KABI 250005Z 29009KT 10SM CLR 14/M06 A3014 1590 24 1900 280/09 RMK AO2 T01441056
13962KABI ABI20160224181010502/24/16 18:10:31  5-MIN KABI 250010Z 28008KT 10SM CLR 14/M06 A3014 1590 25 1900 270/08 RMK AO2 T01391056
13962KABI ABI20160224181510502/24/16 18:15:31  5-MIN KABI 250015Z 27008KT 10SM CLR 14/M06 A3014 1590 24 1900 270/08 RMK AO2 T01391061
13962KABI ABI20160224182010502/24/16 18:20:31  5-MIN KABI 250020Z 27006KT 10SM CLR 13/M06 A3014 1590 26 1800 260/06 RMK AO2 T01331056
13962KABI ABI20160224182510502/24/16 18:25:31  5-MIN KABI 250025Z 26006KT 10SM CLR 13/M06 A3014 1590 27 1700 250/06 RMK AO2 T01281056
13962KABI ABI20160224183010502/24/16 18:30:31  5-MIN KABI 250030Z 26006KT 10SM CLR 12/M06 A3014 1590 28 1700 250/06 RMK AO2 T01221056
13962KABI ABI20160224183510502/24/16 18:35:31  5-MIN KABI 250035Z 25005KT 10SM CLR 12/M05 A3014 1590 29 1700 240/05 RMK AO2 T01221050
13962KABI ABI20160224184010502/24/16 18:40:31  5-MIN KABI 250040Z 24005KT 10SM CLR 12/M04 A3014 1590 31 1700 240/05 RMK AO2 T01221044
13962KABI ABI20160224184510502/24/16 18:45:31  5-MIN KABI 250045Z 24005KT 10SM CLR 12/M05 A3014 1590 29 1700 230/05 RMK AO2 T01221050
13962KABI ABI20160224185011202/24/16 18:50:31  5-MIN KABI 250050Z 24005KT 10SM CLR 12/M05 A3014 1590 29 1700 230/05 RMK AO2 SLP205 T01221050
13962KABI ABI20160224185510502/24/16 18:55:31  5-MIN KABI 250055Z 23005KT 10SM CLR 12/M05 A3014 1590 29 1700 230/05 RMK AO2 T01221050
13962KABI ABI20160224190010502/24/16 19:00:31  5-MIN KABI 250100Z 22005KT 10SM CLR 12/M05 A3014 1590 29 1700 220/05 RMK AO2 T01221050
13962KABI ABI20160224190510502/24/16 19:05:31  5-MIN KABI 250105Z 22005KT 10SM CLR 12/M05 A3014 1590 30 1600 210/05 RMK AO2 T01171050
13962KABI ABI20160224191010502/24/16 19:10:31  5-MIN KABI 250110Z 21005KT 10SM CLR 11/M04 A3014 1590 33 1500 210/05 RMK AO2 T01111044
13962KABI ABI20160224191510502/24/16 19:15:31  5-MIN KABI 250115Z 21005KT 10SM CLR 11/M04 A3014 1590 36 1500 210/05 RMK AO2 T01061039
13962KABI ABI20160224192010502/24/16 19:20:31  5-MIN KABI 250120Z 21005KT 10SM CLR 11/M03 A3014 1590 37 1500 210/05 RMK AO2 T01061033
13962KABI ABI20160224192510502/24/16 19:25:31  5-MIN KABI 250125Z 21005KT 10SM CLR 10/M03 A3015 1590 39 1400 200/05 RMK AO2 T01001033
13962KABI ABI20160224193010502/24/16 19:30:31  5-MIN KABI 250130Z 20006KT 10SM CLR 09/M03 A3015 1580 40 1300 200/06 RMK AO2 T00941033
13962KABI ABI20160224193510502/24/16 19:35:31  5-MIN KABI 250135Z 21005KT 10SM CLR 09/M03 A3015 1580 42 1300 200/05 RMK AO2 T00941028
13962KABI ABI20160224194010502/24/16 19:40:31  5-MIN KABI 250140Z 20005KT 10SM CLR 09/M03 A3015 1580 40 1300 190/05 RMK AO2 T00941033
13962KABI ABI20160224194510502/24/16 19:45:31  5-MIN KABI 250145Z 20005KT 10SM CLR 09/M03 A3015 1580 40 1300 200/05 RMK AO2 T00941033
13962KABI ABI20160224195011202/24/16 19:50:31  5-MIN KABI 250150Z 20005KT 10SM CLR 09/M03 A3015 1580 42 1300 200/05 RMK AO2 SLP212 T00891033
13962KABI ABI20160224195510502/24/16 19:55:31  5-MIN KABI 250155Z 21005KT 10SM CLR 09/M03 A3015 1580 42 1300 200/05 RMK AO2 T00891033
13962KABI ABI20160224200010502/24/16 20:00:31  5-MIN KABI 250200Z 20005KT 10SM CLR 08/M03 A3016 1580 45 1200 200/05 RMK AO2 T00831028
13962KABI ABI20160224200510502/24/16 20:05:31  5-MIN KABI 250205Z 20005KT 10SM CLR 08/M03 A3016 1580 45 1200 200/05 RMK AO2 T00831028
13962KABI ABI20160224201010502/24/16 20:10:31  5-MIN KABI 250210Z 21005KT 10SM CLR 08/M03 A3016 1570 45 1200 200/05 RMK AO2 T00831028
13962KABI ABI20160224201510502/24/16 20:15:31  5-MIN KABI 250215Z 20005KT 10SM CLR 08/M03 A3016 1570 45 1200 200/05 RMK AO2 T00831028
13962KABI ABI20160224202010502/24/16 20:20:31  5-MIN KABI 250220Z 20006KT 10SM CLR 08/M03 A3016 1570 47 1100 200/06 RMK AO2 T00781028
13962KABI ABI20160224202510502/24/16 20:25:31  5-MIN KABI 250225Z 21005KT 10SM CLR 07/M02 A3016 1570 51 1100 200/05 RMK AO2 T00721022
13962KABI ABI20160224203010502/24/16 20:30:31  5-MIN KABI 250230Z 21006KT 10SM CLR 07/M02 A3016 1570 51 1000 200/06 RMK AO2 T00721022
13962KABI ABI20160224203510502/24/16 20:35:31  5-MIN KABI 250235Z 21006KT 10SM CLR 07/M02 A3016 1570 51 1000 200/06 RMK AO2 T00721022
13962KABI ABI20160224204010502/24/16 20:40:31  5-MIN KABI 250240Z 21006KT 10SM CLR 07/M02 A3016 1570 51 1000 210/06 RMK AO2 T00721022
13962KABI ABI20160224204510502/24/16 20:45:31  5-MIN KABI 250245Z 21006KT 10SM CLR 07/M02 A3016 1570 53 1000 200/06 RMK AO2 T00721017
13962KABI ABI20160224205011802/24/16 20:50:31  5-MIN KABI 250250Z 21006KT 10SM CLR 07/M02 A3016 1570 53 1000 210/06 RMK AO2 SLP215 T00671022 56014
13962KABI ABI20160224205510502/24/16 20:55:31  5-MIN KABI 250255Z 21006KT 10SM CLR 07/M02 A3016 1570 53 1000 210/06 RMK AO2 T00671022
13962KABI ABI20160224210010502/24/16 21:00:31  5-MIN KABI 250300Z 21006KT 10SM CLR 07/M02 A3016 1570 51 1000 200/06 RMK AO2 T00721022
13962KABI ABI20160224210510502/24/16 21:05:31  5-MIN KABI 250305Z 20006KT 10SM CLR 07/M02 A3016 1570 53 1000 200/06 RMK AO2 T00671022
13962KABI ABI20160224211010502/24/16 21:10:31  5-MIN KABI 250310Z 21006KT 10SM CLR 07/M02 A3016 1570 53 1000 200/06 RMK AO2 T00671022
13962KABI ABI20160224211510502/24/16 21:15:31  5-MIN KABI 250315Z 21006KT 10SM CLR 07/M02 A3016 1570 53 1000 200/06 RMK AO2 T00671022
13962KABI ABI20160224212010502/24/16 21:20:31  5-MIN KABI 250320Z 20006KT 10SM CLR 07/M02 A3016 1570 53 1000 200/06 RMK AO2 T00671022
13962KABI ABI20160224212510502/24/16 21:25:31  5-MIN KABI 250325Z 20005KT 10SM CLR 07/M02 A3016 1570 53 1000 200/05 RMK AO2 T00671022
13962KABI ABI20160224213010502/24/16 21:30:31  5-MIN KABI 250330Z 20006KT 10SM CLR 07/M02 A3016 1570 53 1000 200/06 RMK AO2 T00671022
13962KABI ABI20160224213510502/24/16 21:35:31  5-MIN KABI 250335Z 20006KT 10SM CLR 07/M03 A3016 1570 51 1000 190/06 RMK AO2 T00671028
13962KABI ABI20160224214010502/24/16 21:40:31  5-MIN KABI 250340Z 20006KT 10SM CLR 07/M03 A3016 1570 51 1000 200/06 RMK AO2 T00671028
13962KABI ABI20160224214510502/24/16 21:45:31  5-MIN KABI 250345Z 20006KT 10SM CLR 07/M03 A3016 1570 51 1000 200/06 RMK AO2 T00671028
13962KABI ABI20160224215011202/24/16 21:50:31  5-MIN KABI 250350Z 20006KT 10SM CLR 07/M03 A3016 1570 51 1000 200/06 RMK AO2 SLP212 T00671028
13962KABI ABI20160224215510402/24/16 21:55:31  5-MIN KABI 250355Z 20006KT 10SM CLR 06/M03 A3016 1570 53 900 200/06 RMK AO2 T00611028
13962KABI ABI20160224220010402/24/16 22:00:31  5-MIN KABI 250400Z 20006KT 10SM CLR 06/M03 A3016 1570 53 900 190/06 RMK AO2 T00611028
13962KABI ABI20160224220510402/24/16 22:05:31  5-MIN KABI 250405Z 20006KT 10SM CLR 06/M03 A3016 1570 53 900 190/06 RMK AO2 T00611028
13962KABI ABI20160224221010402/24/16 22:10:31  5-MIN KABI 250410Z 19006KT 10SM CLR 06/M03 A3016 1570 53 900 190/06 RMK AO2 T00611028
13962KABI ABI20160224221510402/24/16 22:15:31  5-MIN KABI 250415Z 20006KT 10SM CLR 06/M03 A3016 1570 53 900 190/06 RMK AO2 T00611028
13962KABI ABI20160224222010402/24/16 22:20:31  5-MIN KABI 250420Z 19006KT 10SM CLR 06/M03 A3016 1570 53 900 190/06 RMK AO2 T00611028
13962KABI ABI20160224222510402/24/16 22:25:31  5-MIN KABI 250425Z 19006KT 10SM CLR 06/M03 A3016 1570 53 900 190/06 RMK AO2 T00611028
13962KABI ABI20160224223010402/24/16 22:30:31  5-MIN KABI 250430Z 19006KT 10SM CLR 06/M03 A3016 1570 53 900 190/06 RMK AO2 T00611028
13962KABI ABI20160224223510402/24/16 22:35:31  5-MIN KABI 250435Z 19006KT 10SM CLR 06/M03 A3016 1570 53 900 180/06 RMK AO2 T00611028
13962KABI ABI20160224224010402/24/16 22:40:31  5-MIN KABI 250440Z 18006KT 10SM CLR 06/M02 A3016 1570 55 900 180/06 RMK AO2 T00611022
13962KABI ABI20160224224510402/24/16 22:45:31  5-MIN KABI 250445Z 18006KT 10SM CLR 06/M02 A3016 1570 57 900 180/06 RMK AO2 T00561022
13962KABI ABI20160224225011102/24/16 22:50:31  5-MIN KABI 250450Z 19006KT 10SM CLR 06/M02 A3016 1570 55 900 180/06 RMK AO2 SLP210 T00611022
13962KABI ABI20160224225510402/24/16 22:55:31  5-MIN KABI 250455Z 19006KT 10SM CLR 06/M02 A3016 1580 57 900 180/06 RMK AO2 T00561022
13962KABI ABI20160224230010402/24/16 23:00:31  5-MIN KABI 250500Z 19006KT 10SM CLR 06/M03 A3015 1580 55 900 190/06 RMK AO2 T00561028
13962KABI ABI20160224230510402/24/16 23:05:31  5-MIN KABI 250505Z 19005KT 10SM CLR 06/M03 A3015 1580 55 900 190/05 RMK AO2 T00561028
13962KABI ABI20160224231010402/24/16 23:10:31  5-MIN KABI 250510Z 20006KT 10SM CLR 06/M03 A3015 1580 55 900 190/06 RMK AO2 T00561028
13962KABI ABI20160224231510402/24/16 23:15:31  5-MIN KABI 250515Z 22006KT 10SM CLR 06/M03 A3015 1580 53 900 220/06 RMK AO2 T00611028
13962KABI ABI20160224232010402/24/16 23:20:31  5-MIN KABI 250520Z 20007KT 10SM CLR 06/M03 A3015 1580 53 900 200/07 RMK AO2 T00611028
13962KABI ABI20160224232510402/24/16 23:25:31  5-MIN KABI 250525Z 20007KT 10SM CLR 06/M03 A3015 1580 53 900 190/07 RMK AO2 T00611028
13962KABI ABI20160224233010502/24/16 23:30:31  5-MIN KABI 250530Z 20007KT 10SM CLR 07/M03 A3015 1580 51 1000 190/07 RMK AO2 T00671028
13962KABI ABI20160224233510502/24/16 23:35:31  5-MIN KABI 250535Z 19007KT 10SM CLR 07/M03 A3015 1580 49 1000 190/07 RMK AO2 T00671033
13962KABI ABI20160224234010502/24/16 23:40:31  5-MIN KABI 250540Z 19007KT 10SM CLR 07/M03 A3015 1580 49 1000 190/07 RMK AO2 T00671033
13962KABI ABI20160224234510502/24/16 23:45:31  5-MIN KABI 250545Z 19007KT 10SM CLR 07/M03 A3015 1580 49 1000 180/07 RMK AO2 T00671033
13962KABI ABI20160224235014002/24/16 23:50:31  5-MIN KABI 250550Z 18006KT 10SM CLR 07/M03 A3015 1580 49 1000 180/06 RMK AO2 SLP205 T00671033 10150 20056 401560011 53007
13962KABI ABI20160224235510402/24/16 23:55:31  5-MIN KABI 250555Z 21005KT 10SM CLR 06/M03 A3015 1580 55 900 210/05 RMK AO2 T00561028
13962KABI ABI20160225000009402/25/16 00:00:31  5-MIN KABI 250600Z 10SM CLR 06/M03 A3015 1580 55 900 M /M RMK AO2 T00561028
13962KABI ABI20160225000509402/25/16 00:05:31  5-MIN KABI 250605Z 10SM CLR 06/M03 A3015 1580 55 900 M /M RMK AO2 T00561028
13962KABI ABI20160225001010402/25/16 00:10:31  5-MIN KABI 250610Z 19006KT 10SM CLR 06/M03 A3015 1580 51 900 180/06 RMK AO2 T00611033
13962KABI ABI20160225001510402/25/16 00:15:31  5-MIN KABI 250615Z 20006KT 10SM CLR 06/M03 A3015 1580 51 900 190/06 RMK AO2 T00611033
13962KABI ABI20160225002010402/25/16 00:20:31  5-MIN KABI 250620Z 20006KT 10SM CLR 06/M03 A3015 1580 51 900 190/06 RMK AO2 T00611033
13962KABI ABI20160225002510402/25/16 00:25:31  5-MIN KABI 250625Z 19006KT 10SM CLR 06/M03 A3015 1580 53 900 190/06 RMK AO2 T00561033
13962KABI ABI20160225003010402/25/16 00:30:31  5-MIN KABI 250630Z 20006KT 10SM CLR 06/M03 A3015 1580 53 900 190/06 RMK AO2 T00561033
13962KABI ABI20160225003510402/25/16 00:35:31  5-MIN KABI 250635Z 20006KT 10SM CLR 06/M03 A3015 1580 53 900 190/06 RMK AO2 T00561033
13962KABI ABI20160225004010402/25/16 00:40:31  5-MIN KABI 250640Z 19006KT 10SM CLR 06/M03 A3015 1580 53 900 190/06 RMK AO2 T00561033
13962KABI ABI20160225004510402/25/16 00:45:31  5-MIN KABI 250645Z 19006KT 10SM CLR 05/M03 A3015 1580 55 800 190/06 RMK AO2 T00501033
13962KABI ABI20160225005011102/25/16 00:50:31  5-MIN KABI 250650Z 19006KT 10SM CLR 05/M03 A3015 1580 55 800 190/06 RMK AO2 SLP207 T00501033
13962KABI ABI20160225005510402/25/16 00:55:31  5-MIN KABI 250655Z 19006KT 10SM CLR 05/M03 A3015 1580 55 800 190/06 RMK AO2 T00501033
13962KABI ABI20160225010010402/25/16 01:00:31  5-MIN KABI 250700Z 19007KT 10SM CLR 04/M03 A3015 1580 57 700 190/07 RMK AO2 T00441033
13962KABI ABI20160225010510402/25/16 01:05:31  5-MIN KABI 250705Z 19006KT 10SM CLR 05/M03 A3015 1580 55 800 180/06 RMK AO2 T00501033
13962KABI ABI20160225011010402/25/16 01:10:31  5-MIN KABI 250710Z 17006KT 10SM CLR 04/M03 A3015 1580 62 700 160/06 RMK AO2 T00391028
13962KABI ABI20160225011510402/25/16 01:15:31  5-MIN KABI 250715Z 16007KT 10SM CLR 04/M03 A3015 1580 62 700 160/07 RMK AO2 T00391028
13962KABI ABI20160225012010402/25/16 01:20:31  5-MIN KABI 250720Z 17007KT 10SM CLR 04/M03 A3015 1580 62 700 170/07 RMK AO2 T00391028
13962KABI ABI20160225012510402/25/16 01:25:31  5-MIN KABI 250725Z 16008KT 10SM CLR 04/M03 A3015 1580 62 700 150/08 RMK AO2 T00391028
13962KABI ABI20160225013010402/25/16 01:30:31  5-MIN KABI 250730Z 16008KT 10SM CLR 04/M03 A3015 1580 59 700 150/08 RMK AO2 T00441028
13962KABI ABI20160225013510402/25/16 01:35:31  5-MIN KABI 250735Z 17008KT 10SM CLR 04/M03 A3015 1580 62 700 160/08 RMK AO2 T00391028
13962KABI ABI20160225014010402/25/16 01:40:31  5-MIN KABI 250740Z 16007KT 10SM CLR 04/M03 A3015 1580 59 700 160/07 RMK AO2 T00441028
13962KABI ABI20160225014510402/25/16 01:45:31  5-MIN KABI 250745Z 16008KT 10SM CLR 04/M03 A3015 1580 59 700 160/08 RMK AO2 T00441028
13962KABI ABI20160225114011102/25/16 11:40:31  5-MIN KABI 251740Z 04010G18KT 10SM CLR 11/M06 A3041 1340 31 1200 030/10G18 RMK AO2 T01061056
13962KABI ABI20160225114511102/25/16 11:45:31  5-MIN KABI 251745Z 05011G17KT 10SM CLR 11/M06 A3041 1340 31 1200 040/11G17 RMK AO2 T01061056
13962KABI ABI20160225115013002/25/16 11:50:31  5-MIN KABI 251750Z 08010KT 10SM CLR 11/M05 A3041 1340 32 1200 070/10 RMK AO2 SLP295 T01111050 10111 20017 51040
13962KABI ABI20160225115510502/25/16 11:55:31  5-MIN KABI 251755Z 06010KT 10SM CLR 11/M06 A3041 1340 31 1200 060/10 RMK AO2 T01061056
13962KABI ABI20160225120010502/25/16 12:00:31  5-MIN KABI 251800Z 04011KT 10SM CLR 11/M06 A3041 1340 30 1200 030/11 RMK AO2 T01111056
13962KABI ABI20160225120510502/25/16 12:05:31  5-MIN KABI 251805Z 06012KT 10SM CLR 11/M06 A3041 1340 29 1200 060/12 RMK AO2 T01111061
13962KABI ABI20160225121010502/25/16 12:10:31  5-MIN KABI 251810Z 05012KT 10SM CLR 11/M06 A3041 1340 29 1200 050/12 RMK AO2 T01111061
13962KABI ABI20160225121510502/25/16 12:15:31  5-MIN KABI 251815Z 07009KT 10SM CLR 11/M06 A3041 1340 30 1200 060/09 RMK AO2 T01111056
13962KABI ABI20160225122010502/25/16 12:20:31  5-MIN KABI 251820Z 06011KT 10SM CLR 12/M05 A3041 1350 30 1300 050/11 RMK AO2 T01171050
13962KABI ABI20160225122511102/25/16 12:25:31  5-MIN KABI 251825Z 03012G20KT 10SM CLR 12/M05 A3040 1350 30 1300 020/12G20 RMK AO2 T01171050
13962KABI ABI20160225123011102/25/16 12:30:31  5-MIN KABI 251830Z 05009G20KT 10SM CLR 11/M05 A3040 1350 32 1200 040/09G20 RMK AO2 T01111050
13962KABI ABI20160225123510502/25/16 12:35:31  5-MIN KABI 251835Z 02008KT 10SM CLR 12/M04 A3040 1350 31 1400 010/08 RMK AO2 T01221044
13962KABI ABI20160225124010502/25/16 12:40:31  5-MIN KABI 251840Z 02011KT 10SM CLR 12/M04 A3040 1350 31 1400 010/11 RMK AO2 T01221044
13962KABI ABI20160225124510502/25/16 12:45:31  5-MIN KABI 251845Z 03010KT 10SM CLR 12/M04 A3040 1350 31 1400 030/10 RMK AO2 T01221044
13962KABI ABI20160225125011202/25/16 12:50:31  5-MIN KABI 251850Z 03011KT 10SM CLR 12/M04 A3040 1350 32 1300 020/11 RMK AO2 SLP292 T01171044
13962KABI ABI20160225125511102/25/16 12:55:31  5-MIN KABI 251855Z 01011G16KT 10SM CLR 12/M04 A3040 1350 31 1400 360/11G16 RMK AO2 T01221044
13962KABI ABI20160225130011102/25/16 13:00:31  5-MIN KABI 251900Z 04008G16KT 10SM CLR 12/M04 A3040 1350 31 1400 040/08G16 RMK AO2 T01221044
13962KABI ABI20160225130511102/25/16 13:05:31  5-MIN KABI 251905Z 03011G16KT 10SM CLR 12/M04 A3039 1360 31 1400 020/11G16 RMK AO2 T01221044
13962KABI ABI20160225131011102/25/16 13:10:31  5-MIN KABI 251910Z 03012G16KT 10SM CLR 12/M04 A3039 1360 33 1300 020/12G16 RMK AO2 T01171039
13962KABI ABI20160225131511102/25/16 13:15:31  5-MIN KABI 251915Z 05011G17KT 10SM CLR 12/M04 A3039 1360 33 1300 040/11G17 RMK AO2 T01171039
13962KABI ABI20160225132011102/25/16 13:20:31  5-MIN KABI 251920Z 04010G17KT 10SM CLR 12/M04 A3039 1360 32 1300 030/10G17 RMK AO2 T01171044
13962KABI ABI20160225132511102/25/16 13:25:31  5-MIN KABI 251925Z 05008G16KT 10SM CLR 12/M04 A3039 1360 32 1300 040/08G16 RMK AO2 T01171044
13962KABI ABI20160225133010502/25/16 13:30:31  5-MIN KABI 251930Z 03008KT 10SM CLR 13/M03 A3038 1370 32 1500 030/08 RMK AO2 T01281033
13962KABI ABI20160225133510502/25/16 13:35:31  5-MIN KABI 251935Z 03009KT 10SM CLR 12/M03 A3038 1370 33 1400 030/09 RMK AO2 T01221033
13962KABI ABI20160225134010502/25/16 13:40:31  5-MIN KABI 251940Z 04009KT 10SM CLR 12/M04 A3038 1370 32 1400 030/09 RMK AO2 T01221039
13962KABI ABI20160225134511102/25/16 13:45:31  5-MIN KABI 251945Z 03007G15KT 10SM CLR 12/M04 A3038 1370 31 1400 020/07G15 RMK AO2 T01221044
13962KABI ABI20160225135011202/25/16 13:50:31  5-MIN KABI 251950Z 04011KT 10SM CLR 12/M05 A3038 1370 29 1400 040/11 RMK AO2 SLP284 T01221050
13962KABI ABI20160225135510502/25/16 13:55:31  5-MIN KABI 251955Z 02010KT 10SM CLR 12/M05 A3037 1380 29 1400 020/10 RMK AO2 T01221050
13962KABI ABI20160225140010502/25/16 14:00:31  5-MIN KABI 252000Z 03011KT 10SM CLR 12/M05 A3037 1380 29 1400 030/11 RMK AO2 T01221050
13962KABI ABI20160225140511102/25/16 14:05:31  5-MIN KABI 252005Z 05010G18KT 10SM CLR 12/M05 A3037 1380 29 1400 050/10G18 RMK AO2 T01221050
13962KABI ABI20160225141011102/25/16 14:10:31  5-MIN KABI 252010Z 06009G18KT 10SM CLR 12/M05 A3037 1380 29 1400 050/09G18 RMK AO2 T01221050
13962KABI ABI20160225141511102/25/16 14:15:31  5-MIN KABI 252015Z 06008G17KT 10SM CLR 12/M06 A3037 1380 28 1400 050/08G17 RMK AO2 T01221056
13962KABI ABI20160225142011102/25/16 14:20:31  5-MIN KABI 252020Z 03008G17KT 10SM CLR 13/M05 A3037 1380 28 1500 030/08G17 RMK AO2 T01281050
13962KABI ABI20160225142510502/25/16 14:25:31  5-MIN KABI 252025Z 03010KT 10SM CLR 13/M04 A3037 1380 31 1500 030/10 RMK AO2 T01281039
13962KABI ABI20160225143011102/25/16 14:30:31  5-MIN KABI 252030Z 04011G18KT 10SM CLR 13/M04 A3037 1380 30 1500 030/11G18 RMK AO2 T01281044
13962KABI ABI20160225143511102/25/16 14:35:31  5-MIN KABI 252035Z 03011G18KT 10SM CLR 13/M03 A3037 1380 32 1500 020/11G18 RMK AO2 T01281033
13962KABI ABI20160225144011102/25/16 14:40:31  5-MIN KABI 252040Z 02008G16KT 10SM CLR 13/M04 A3037 1380 31 1500 010/08G16 RMK AO2 T01281039
13962KABI ABI20160225144511102/25/16 14:45:31  5-MIN KABI 252045Z 36012G17KT 10SM CLR 13/M04 A3037 1380 30 1500 360/12G17 RMK AO2 T01281044
13962KABI ABI20160225145012402/25/16 14:50:31  5-MIN KABI 252050Z 04009G21KT 10SM CLR 13/M04 A3036 1380 30 1600 030/09G21 RMK AO2 SLP279 T01331039 51013
13962KABI ABI20160225145511102/25/16 14:55:31  5-MIN KABI 252055Z 02010G21KT 10SM CLR 13/M04 A3036 1390 30 1500 010/10G21 RMK AO2 T01281044
13962KABI ABI20160225150010502/25/16 15:00:31  5-MIN KABI 252100Z 03009KT 10SM CLR 13/M05 A3036 1390 28 1500 030/09 RMK AO2 T01281050
13962KABI ABI20160225150511102/25/16 15:05:31  5-MIN KABI 252105Z 03012G17KT 10SM CLR 13/M05 A3036 1390 28 1500 020/12G17 RMK AO2 T01281050
13962KABI ABI20160225151011102/25/16 15:10:31  5-MIN KABI 252110Z 02010G17KT 10SM CLR 13/M05 A3036 1390 28 1500 010/10G17 RMK AO2 T01281050
13962KABI ABI20160225151512702/25/16 15:15:31  5-MIN KABI 252115Z 03009G16KT 360V060 10SM CLR 13/M04 A3036 1390 31 1500 020/09G16 360V060 RMK AO2 T01281039
13962KABI ABI20160225152011102/25/16 15:20:31  5-MIN KABI 252120Z 02009G17KT 10SM CLR 13/M04 A3036 1390 28 1600 020/09G17 RMK AO2 T01331044
13962KABI ABI20160225152511102/25/16 15:25:31  5-MIN KABI 252125Z 36011G17KT 10SM CLR 13/M04 A3036 1390 28 1600 360/11G17 RMK AO2 T01331044
13962KABI ABI20160225153010502/25/16 15:30:31  5-MIN KABI 252130Z 03010KT 10SM CLR 13/M06 A3036 1390 27 1500 020/10 RMK AO2 T01281056
13962KABI ABI20160225153510502/25/16 15:35:31  5-MIN KABI 252135Z 04008KT 10SM CLR 13/M05 A3036 1390 28 1500 040/08 RMK AO2 T01281050
13962KABI ABI20160225154011102/25/16 15:40:31  5-MIN KABI 252140Z 02012G15KT 10SM CLR 13/M06 A3036 1390 27 1500 020/12G15 RMK AO2 T01281056
13962KABI ABI20160225154512702/25/16 15:45:31  5-MIN KABI 252145Z 05011G16KT 020V080 10SM CLR 13/M06 A3036 1390 27 1500 040/11G16 020V080 RMK AO2 T01281056
13962KABI ABI20160225155011802/25/16 15:50:31  5-MIN KABI 252150Z 05011G16KT 10SM CLR 13/M06 A3036 1390 26 1500 050/11G16 RMK AO2 SLP278 T01281061
13962KABI ABI20160225155510502/25/16 15:55:31  5-MIN KABI 252155Z 03008KT 10SM CLR 13/M05 A3035 1390 28 1500 020/08 RMK AO2 T01281050
13962KABI ABI20160225160011102/25/16 16:00:31  5-MIN KABI 252200Z 04014G19KT 10SM CLR 13/M04 A3035 1400 30 1500 030/14G19 RMK AO2 T01281044
13962KABI ABI20160225160511102/25/16 16:05:31  5-MIN KABI 252205Z 01011G20KT 10SM CLR 12/M05 A3035 1390 29 1400 010/11G20 RMK AO2 T01221050
13962KABI ABI20160225161011102/25/16 16:10:31  5-MIN KABI 252210Z 02009G18KT 10SM CLR 13/M04 A3035 1390 30 1500 010/09G18 RMK AO2 T01281044
13962KABI ABI20160225161510502/25/16 16:15:31  5-MIN KABI 252215Z 03010KT 10SM CLR 13/M04 A3035 1390 30 1500 030/10 RMK AO2 T01281044
13962KABI ABI20160225162010502/25/16 16:20:31  5-MIN KABI 252220Z 04010KT 10SM CLR 13/M04 A3036 1390 30 1500 040/10 RMK AO2 T01281044
13962KABI ABI20160225162510502/25/16 16:25:31  5-MIN KABI 252225Z 05009KT 10SM CLR 13/M04 A3036 1390 30 1500 040/09 RMK AO2 T01281044
13962KABI ABI20160225163010502/25/16 16:30:31  5-MIN KABI 252230Z 04008KT 10SM CLR 12/M04 A3036 1390 31 1400 040/08 RMK AO2 T01221044
13962KABI ABI20160225163510502/25/16 16:35:31  5-MIN KABI 252235Z 01010KT 10SM CLR 12/M04 A3036 1390 31 1400 360/10 RMK AO2 T01221044
13962KABI ABI20160225164010502/25/16 16:40:31  5-MIN KABI 252240Z 02010KT 10SM CLR 12/M04 A3036 1390 31 1400 020/10 RMK AO2 T01221044
13962KABI ABI20160225164510502/25/16 16:45:31  5-MIN KABI 252245Z 03012KT 10SM CLR 12/M04 A3036 1390 31 1400 020/12 RMK AO2 T01221044
13962KABI ABI20160225165011202/25/16 16:50:31  5-MIN KABI 252250Z 02011KT 10SM CLR 12/M05 A3036 1390 29 1400 010/11 RMK AO2 SLP278 T01221050
13962KABI ABI20160225165510502/25/16 16:55:31  5-MIN KABI 252255Z 02012KT 10SM CLR 12/M05 A3036 1380 29 1400 010/12 RMK AO2 T01221050
13962KABI ABI20160225170010502/25/16 17:00:31  5-MIN KABI 252300Z 02013KT 10SM CLR 12/M05 A3037 1380 29 1400 020/13 RMK AO2 T01221050
13962KABI ABI20160225170510502/25/16 17:05:31  5-MIN KABI 252305Z 03008KT 10SM CLR 12/M06 A3037 1380 28 1400 030/08 RMK AO2 T01221056
13962KABI ABI20160225171010502/25/16 17:10:31  5-MIN KABI 252310Z 03007KT 10SM CLR 12/M05 A3036 1380 29 1400 030/07 RMK AO2 T01221050
13962KABI ABI20160225171510502/25/16 17:15:31  5-MIN KABI 252315Z 04009KT 10SM CLR 12/M05 A3037 1380 29 1400 030/09 RMK AO2 T01221050
13962KABI ABI20160225172010502/25/16 17:20:31  5-MIN KABI 252320Z 03011KT 10SM CLR 12/M05 A3037 1380 29 1400 020/11 RMK AO2 T01221050
13962KABI ABI20160225172510502/25/16 17:25:31  5-MIN KABI 252325Z 04009KT 10SM CLR 12/M05 A3037 1380 30 1300 040/09 RMK AO2 T01171050
13962KABI ABI20160225173010502/25/16 17:30:31  5-MIN KABI 252330Z 02010KT 10SM CLR 12/M05 A3037 1380 30 1300 020/10 RMK AO2 T01171050
13962KABI ABI20160225173510502/25/16 17:35:31  5-MIN KABI 252335Z 03010KT 10SM CLR 12/M06 A3037 1380 29 1300 020/10 RMK AO2 T01171056
13962KABI ABI20160225174010502/25/16 17:40:31  5-MIN KABI 252340Z 02010KT 10SM CLR 12/M06 A3037 1380 29 1300 010/10 RMK AO2 T01171056
13962KABI ABI20160225174510502/25/16 17:45:31  5-MIN KABI 252345Z 03010KT 10SM CLR 12/M06 A3037 1380 29 1300 020/10 RMK AO2 T01171056
13962KABI ABI20160225175013002/25/16 17:50:31  5-MIN KABI 252350Z 04010KT 10SM CLR 11/M06 A3037 1370 30 1300 030/10 RMK AO2 SLP285 T01111056 10133 20106 58015
13962KABI ABI20160225175510502/25/16 17:55:31  5-MIN KABI 252355Z 03007KT 10SM CLR 11/M06 A3038 1370 29 1300 030/07 RMK AO2 T01111061
13962KABI ABI20160225180010502/25/16 18:00:31  5-MIN KABI 260000Z 04009KT 10SM CLR 11/M06 A3038 1370 30 1300 030/09 RMK AO2 T01111056
13962KABI ABI20160225180510502/25/16 18:05:31  5-MIN KABI 260005Z 04007KT 10SM CLR 11/M05 A3038 1370 33 1200 030/07 RMK AO2 T01061050
13962KABI ABI20160225181010502/25/16 18:10:31  5-MIN KABI 260010Z 04009KT 10SM CLR 11/M05 A3038 1370 33 1200 030/09 RMK AO2 T01061050
13962KABI ABI20160225181510502/25/16 18:15:31  5-MIN KABI 260015Z 04009KT 10SM CLR 11/M05 A3038 1370 33 1200 030/09 RMK AO2 T01061050
13962KABI ABI20160225182010502/25/16 18:20:31  5-MIN KABI 260020Z 04009KT 10SM CLR 10/M05 A3039 1360 34 1100 040/09 RMK AO2 T01001050
13962KABI ABI20160225182510502/25/16 18:25:31  5-MIN KABI 260025Z 05006KT 10SM CLR 10/M05 A3039 1360 34 1100 040/06 RMK AO2 T01001050
13962KABI ABI20160225183010502/25/16 18:30:31  5-MIN KABI 260030Z 04006KT 10SM CLR 10/M05 A3039 1360 34 1100 040/06 RMK AO2 T01001050
13962KABI ABI20160225183510502/25/16 18:35:31  5-MIN KABI 260035Z 04006KT 10SM CLR 09/M05 A3039 1360 35 1100 040/06 RMK AO2 T00941050
13962KABI ABI20160225184010502/25/16 18:40:31  5-MIN KABI 260040Z 04006KT 10SM CLR 09/M05 A3040 1360 35 1100 040/06 RMK AO2 T00941050
13962KABI ABI20160225184510502/25/16 18:45:31  5-MIN KABI 260045Z 04006KT 10SM CLR 09/M05 A3040 1350 37 1000 040/06 RMK AO2 T00891050
13962KABI ABI20160225185011202/25/16 18:50:31  5-MIN KABI 260050Z 04007KT 10SM CLR 09/M05 A3040 1350 37 1000 040/07 RMK AO2 SLP297 T00891050
13962KABI ABI20160225185510502/25/16 18:55:31  5-MIN KABI 260055Z 04006KT 10SM CLR 09/M05 A3040 1350 37 1000 030/06 RMK AO2 T00891050
13962KABI ABI20160225190010502/25/16 19:00:31  5-MIN KABI 260100Z 04005KT 10SM CLR 09/M05 A3040 1350 37 1000 040/05 RMK AO2 T00891050
13962KABI ABI20160225190510402/25/16 19:05:31  5-MIN KABI 260105Z 04004KT 10SM CLR 08/M05 A3041 1340 38 900 040/04 RMK AO2 T00831050
13962KABI ABI20160225191010402/25/16 19:10:31  5-MIN KABI 260110Z 04005KT 10SM CLR 08/M05 A3041 1340 38 900 040/05 RMK AO2 T00831050
13962KABI ABI20160225191510402/25/16 19:15:31  5-MIN KABI 260115Z 04005KT 10SM CLR 08/M05 A3041 1340 38 900 040/05 RMK AO2 T00831050
13962KABI ABI20160225192010402/25/16 19:20:31  5-MIN KABI 260120Z 05005KT 10SM CLR 08/M05 A3042 1340 38 900 040/05 RMK AO2 T00831050
13962KABI ABI20160225192510402/25/16 19:25:31  5-MIN KABI 260125Z 04005KT 10SM CLR 08/M05 A3042 1340 40 800 040/05 RMK AO2 T00781050
13962KABI ABI20160225193010402/25/16 19:30:31  5-MIN KABI 260130Z 04004KT 10SM CLR 08/M04 A3042 1330 41 800 040/04 RMK AO2 T00781044
13962KABI ABI20160225193510402/25/16 19:35:31  5-MIN KABI 260135Z 04005KT 10SM CLR 08/M04 A3042 1330 41 800 040/05 RMK AO2 T00781044
13962KABI ABI20160225194010402/25/16 19:40:31  5-MIN KABI 260140Z 04004KT 10SM CLR 08/M04 A3042 1330 41 800 040/04 RMK AO2 T00781044
13962KABI ABI20160225194510402/25/16 19:45:31  5-MIN KABI 260145Z 05005KT 10SM CLR 07/M04 A3042 1330 43 800 040/05 RMK AO2 T00721044
13962KABI ABI20160225195011102/25/16 19:50:31  5-MIN KABI 260150Z 04004KT 10SM CLR 07/M04 A3043 1330 43 800 040/04 RMK AO2 SLP305 T00721044
13962KABI ABI20160225195510402/25/16 19:55:31  5-MIN KABI 260155Z 05005KT 10SM CLR 07/M04 A3043 1330 43 700 040/05 RMK AO2 T00721044
13962KABI ABI20160225200010402/25/16 20:00:31  5-MIN KABI 260200Z 05004KT 10SM CLR 07/M04 A3043 1320 43 700 040/04 RMK AO2 T00721044
13962KABI ABI20160225200510402/25/16 20:05:31  5-MIN KABI 260205Z 05005KT 10SM CLR 07/M04 A3043 1320 45 700 050/05 RMK AO2 T00671044
13962KABI ABI20160225201010402/25/16 20:10:31  5-MIN KABI 260210Z 05005KT 10SM CLR 07/M04 A3043 1320 45 700 040/05 RMK AO2 T00671044
13962KABI ABI20160225201510402/25/16 20:15:31  5-MIN KABI 260215Z 05005KT 10SM CLR 07/M04 A3043 1320 45 700 040/05 RMK AO2 T00671044
13962KABI ABI20160225202010402/25/16 20:20:31  5-MIN KABI 260220Z 05005KT 10SM CLR 07/M04 A3044 1320 45 700 040/05 RMK AO2 T00671044
13962KABI ABI20160225202510402/25/16 20:25:31  5-MIN KABI 260225Z 06005KT 10SM CLR 07/M04 A3044 1320 45 700 050/05 RMK AO2 T00671044
13962KABI ABI20160225203010402/25/16 20:30:31  5-MIN KABI 260230Z 05004KT 10SM CLR 06/M04 A3044 1320 46 600 050/04 RMK AO2 T00611044
13962KABI ABI20160225203510402/25/16 20:35:31  5-MIN KABI 260235Z 06004KT 10SM CLR 06/M04 A3044 1320 46 600 050/04 RMK AO2 T00611044
13962KABI ABI20160225204010402/25/16 20:40:31  5-MIN KABI 260240Z 05004KT 10SM CLR 06/M04 A3044 1310 46 600 050/04 RMK AO2 T00611044
13962KABI ABI20160225204510402/25/16 20:45:31  5-MIN KABI 260245Z 05004KT 10SM CLR 06/M04 A3044 1310 46 600 050/04 RMK AO2 T00611044
13962KABI ABI20160225205011702/25/16 20:50:31  5-MIN KABI 260250Z 05005KT 10SM CLR 06/M04 A3044 1310 46 600 050/05 RMK AO2 SLP310 T00611044 53004
13962KABI ABI20160225205510402/25/16 20:55:31  5-MIN KABI 260255Z 05005KT 10SM CLR 06/M04 A3044 1310 46 600 040/05 RMK AO2 T00611044
13962KABI ABI20160225210010402/25/16 21:00:31  5-MIN KABI 260300Z 05005KT 10SM CLR 06/M04 A3045 1310 48 500 050/05 RMK AO2 T00561044
13962KABI ABI20160225210510402/25/16 21:05:31  5-MIN KABI 260305Z 06005KT 10SM CLR 06/M04 A3045 1310 50 500 050/05 RMK AO2 T00561039
13962KABI ABI20160225211010402/25/16 21:10:31  5-MIN KABI 260310Z 06005KT 10SM CLR 06/M04 A3045 1310 50 500 050/05 RMK AO2 T00561039
13962KABI ABI20160225211510402/25/16 21:15:31  5-MIN KABI 260315Z 06004KT 10SM CLR 06/M04 A3045 1310 50 500 050/04 RMK AO2 T00561039
13962KABI ABI20160225212010402/25/16 21:20:31  5-MIN KABI 260320Z 06004KT 10SM CLR 06/M04 A3045 1300 50 500 050/04 RMK AO2 T00561039
13962KABI ABI20160225212510402/25/16 21:25:31  5-MIN KABI 260325Z 06005KT 10SM CLR 06/M04 A3045 1310 50 500 050/05 RMK AO2 T00561039
13962KABI ABI20160225213010402/25/16 21:30:31  5-MIN KABI 260330Z 06005KT 10SM CLR 06/M04 A3045 1300 50 500 060/05 RMK AO2 T00561039
13962KABI ABI20160225213510402/25/16 21:35:31  5-MIN KABI 260335Z 06005KT 10SM CLR 06/M04 A3045 1310 50 500 060/05 RMK AO2 T00561039
13962KABI ABI20160225214010402/25/16 21:40:31  5-MIN KABI 260340Z 07004KT 10SM CLR 06/M04 A3045 1310 50 500 060/04 RMK AO2 T00561039
13962KABI ABI20160225214510402/25/16 21:45:31  5-MIN KABI 260345Z 07005KT 10SM CLR 06/M04 A3045 1310 50 500 070/05 RMK AO2 T00561039
13962KABI ABI20160225215011102/25/16 21:50:31  5-MIN KABI 260350Z 08004KT 10SM CLR 05/M04 A3045 1310 52 500 070/04 RMK AO2 SLP311 T00501039
13962KABI ABI20160225215510402/25/16 21:55:31  5-MIN KABI 260355Z 07005KT 10SM CLR 05/M04 A3045 1310 52 500 060/05 RMK AO2 T00501039
13962KABI ABI20160225220010402/25/16 22:00:31  5-MIN KABI 260400Z 07005KT 10SM CLR 05/M04 A3045 1300 52 500 060/05 RMK AO2 T00501039
13962KABI ABI20160225220510402/25/16 22:05:31  5-MIN KABI 260405Z 08004KT 10SM CLR 05/M04 A3045 1300 52 500 080/04 RMK AO2 T00501039
13962KABI ABI20160225221010402/25/16 22:10:31  5-MIN KABI 260410Z 09004KT 10SM CLR 04/M04 A3045 1300 55 400 080/04 RMK AO2 T00441039
13962KABI ABI20160225221510402/25/16 22:15:31  5-MIN KABI 260415Z 09004KT 10SM CLR 04/M03 A3045 1310 59 300 090/04 RMK AO2 T00391033
13962KABI ABI20160225222010402/25/16 22:20:31  5-MIN KABI 260420Z 09004KT 10SM CLR 04/M03 A3045 1310 59 300 080/04 RMK AO2 T00391033
13962KABI ABI20160225222510402/25/16 22:25:31  5-MIN KABI 260425Z 08004KT 10SM CLR 04/M04 A3045 1310 57 300 070/04 RMK AO2 T00391039
13962KABI ABI20160225223010402/25/16 22:30:31  5-MIN KABI 260430Z 08005KT 10SM CLR 04/M04 A3045 1300 57 300 070/05 RMK AO2 T00391039
13962KABI ABI20160225223510402/25/16 22:35:31  5-MIN KABI 260435Z 08005KT 10SM CLR 04/M04 A3045 1300 57 300 080/05 RMK AO2 T00391039
13962KABI ABI20160225224010402/25/16 22:40:31  5-MIN KABI 260440Z 08005KT 10SM CLR 04/M04 A3045 1310 57 300 070/05 RMK AO2 T00391039
13962KABI ABI20160225224510402/25/16 22:45:31  5-MIN KABI 260445Z 08006KT 10SM CLR 04/M04 A3045 1310 57 300 070/06 RMK AO2 T00391039
13962KABI ABI20160225225011102/25/16 22:50:31  5-MIN KABI 260450Z 08006KT 10SM CLR 04/M04 A3045 1310 57 300 070/06 RMK AO2 SLP310 T00391039
13962KABI ABI20160225225510402/25/16 22:55:31  5-MIN KABI 260455Z 09005KT 10SM CLR 04/M03 A3045 1310 59 300 080/05 RMK AO2 T00391033
13962KABI ABI20160225230010402/25/16 23:00:31  5-MIN KABI 260500Z 08005KT 10SM CLR 03/M03 A3045 1310 61 300 070/05 RMK AO2 T00331033
13962KABI ABI20160225230510402/25/16 23:05:31  5-MIN KABI 260505Z 08005KT 10SM CLR 04/M04 A3045 1310 57 300 080/05 RMK AO2 T00391039
13962KABI ABI20160225231010402/25/16 23:10:31  5-MIN KABI 260510Z 08005KT 10SM CLR 04/M04 A3045 1310 57 300 080/05 RMK AO2 T00391039
13962KABI ABI20160225231510402/25/16 23:15:31  5-MIN KABI 260515Z 08006KT 10SM CLR 04/M04 A3044 1310 57 300 080/06 RMK AO2 T00391039
13962KABI ABI20160225232010402/25/16 23:20:31  5-MIN KABI 260520Z 08006KT 10SM CLR 04/M04 A3044 1310 57 300 080/06 RMK AO2 T00391039
13962KABI ABI20160225232510402/25/16 23:25:31  5-MIN KABI 260525Z 07006KT 10SM CLR 04/M04 A3044 1310 57 300 070/06 RMK AO2 T00391039
13962KABI ABI20160225233010402/25/16 23:30:31  5-MIN KABI 260530Z 07007KT 10SM CLR 04/M04 A3044 1310 54 300 070/07 RMK AO2 T00391044
13962KABI ABI20160225233510402/25/16 23:35:31  5-MIN KABI 260535Z 07005KT 10SM CLR 04/M04 A3044 1320 54 300 070/05 RMK AO2 T00391044
13962KABI ABI20160227075510402/27/16 07:55:31  5-MIN KABI 271355Z 21008KT 10SM CLR 09/03 A3023 1500 65 1200 210/08 RMK AO2 T00890028
13962KABI ABI20160227080010402/27/16 08:00:31  5-MIN KABI 271400Z 21009KT 10SM CLR 09/03 A3023 1510 65 1200 200/09 RMK AO2 T00890028
13962KABI ABI20160227080510402/27/16 08:05:31  5-MIN KABI 271405Z 21010KT 10SM CLR 09/03 A3023 1510 68 1200 210/10 RMK AO2 T00890033
13962KABI ABI20160227081010402/27/16 08:10:31  5-MIN KABI 271410Z 21012KT 10SM CLR 09/03 A3023 1500 65 1200 200/12 RMK AO2 T00940033
13962KABI ABI20160227081510402/27/16 08:15:31  5-MIN KABI 271415Z 21011KT 10SM CLR 09/03 A3023 1510 65 1200 200/11 RMK AO2 T00940033
13962KABI ABI20160227082010402/27/16 08:20:31  5-MIN KABI 271420Z 21011KT 10SM CLR 09/03 A3023 1500 65 1200 200/11 RMK AO2 T00940033
13962KABI ABI20160227082510402/27/16 08:25:31  5-MIN KABI 271425Z 20010KT 10SM CLR 10/03 A3023 1500 63 1300 200/10 RMK AO2 T01000033
13962KABI ABI20160227083010402/27/16 08:30:31  5-MIN KABI 271430Z 20010KT 10SM CLR 10/04 A3023 1500 65 1300 200/10 RMK AO2 T01000039
13962KABI ABI20160227083510402/27/16 08:35:31  5-MIN KABI 271435Z 20011KT 10SM CLR 10/04 A3024 1500 65 1300 200/11 RMK AO2 T01000039
13962KABI ABI20160227084010402/27/16 08:40:31  5-MIN KABI 271440Z 21012KT 10SM CLR 10/03 A3024 1500 63 1300 200/12 RMK AO2 T01000033
13962KABI ABI20160227084510402/27/16 08:45:31  5-MIN KABI 271445Z 21013KT 10SM CLR 11/03 A3024 1500 61 1400 200/13 RMK AO2 T01060033
13962KABI ABI20160227085012302/27/16 08:50:31  5-MIN KABI 271450Z 21013G19KT 10SM CLR 11/04 A3024 1500 63 1400 200/13G19 RMK AO2 SLP233 T01060039 55003
13962KABI ABI20160227085510402/27/16 08:55:31  5-MIN KABI 271455Z 21016KT 10SM CLR 11/04 A3024 1500 63 1400 200/16 RMK AO2 T01060039
13962KABI ABI20160227090010402/27/16 09:00:31  5-MIN KABI 271500Z 21012KT 10SM CLR 11/04 A3024 1500 63 1400 200/12 RMK AO2 T01110044
13962KABI ABI20160227090510402/27/16 09:05:31  5-MIN KABI 271505Z 21013KT 10SM CLR 11/04 A3024 1500 63 1400 200/13 RMK AO2 T01110044
13962KABI ABI20160227091010402/27/16 09:10:31  5-MIN KABI 271510Z 21014KT 10SM CLR 11/04 A3023 1500 63 1400 210/14 RMK AO2 T01110044
13962KABI ABI20160227091510402/27/16 09:15:31  5-MIN KABI 271515Z 22012KT 10SM CLR 11/05 A3024 1500 66 1400 210/12 RMK AO2 T01110050
13962KABI ABI20160227092010402/27/16 09:20:31  5-MIN KABI 271520Z 22011KT 10SM CLR 12/05 A3024 1500 63 1500 210/11 RMK AO2 T01170050
13962KABI ABI20160227092511002/27/16 09:25:31  5-MIN KABI 271525Z 22013G18KT 10SM CLR 12/05 A3024 1500 61 1600 210/13G18 RMK AO2 T01220050
13962KABI ABI20160227093011002/27/16 09:30:31  5-MIN KABI 271530Z 21016G21KT 10SM CLR 12/05 A3024 1500 61 1600 210/16G21 RMK AO2 T01220050
13962KABI ABI20160227093511002/27/16 09:35:31  5-MIN KABI 271535Z 22014G21KT 10SM CLR 12/06 A3024 1500 63 1600 220/14G21 RMK AO2 T01220056
13962KABI ABI20160227094011002/27/16 09:40:31  5-MIN KABI 271540Z 22012G19KT 10SM CLR 12/05 A3024 1500 61 1600 210/12G19 RMK AO2 T01220050
13962KABI ABI20160227094510402/27/16 09:45:31  5-MIN KABI 271545Z 22013KT 10SM CLR 13/06 A3024 1500 61 1600 210/13 RMK AO2 T01280056
13962KABI ABI20160227095011102/27/16 09:50:31  5-MIN KABI 271550Z 21013KT 10SM CLR 13/06 A3024 1500 61 1600 200/13 RMK AO2 SLP234 T01280056
13962KABI ABI20160227095510402/27/16 09:55:31  5-MIN KABI 271555Z 21013KT 10SM CLR 13/06 A3024 1500 59 1700 210/13 RMK AO2 T01330056
13962KABI ABI20160227100010402/27/16 10:00:31  5-MIN KABI 271600Z 21013KT 10SM CLR 13/06 A3024 1500 59 1700 200/13 RMK AO2 T01330056
13962KABI ABI20160227100510402/27/16 10:05:31  5-MIN KABI 271605Z 22011KT 10SM CLR 13/06 A3023 1500 59 1700 220/11 RMK AO2 T01330056
13962KABI ABI20160227101010402/27/16 10:10:31  5-MIN KABI 271610Z 22013KT 10SM CLR 14/06 A3023 1500 57 1800 210/13 RMK AO2 T01390056
13962KABI ABI20160227101510402/27/16 10:15:31  5-MIN KABI 271615Z 21013KT 10SM CLR 14/06 A3023 1510 57 1800 210/13 RMK AO2 T01390056
13962KABI ABI20160227102010402/27/16 10:20:31  5-MIN KABI 271620Z 21013KT 10SM CLR 14/06 A3023 1510 59 1800 210/13 RMK AO2 T01390061
13962KABI ABI20160227102510402/27/16 10:25:31  5-MIN KABI 271625Z 20013KT 10SM CLR 14/06 A3023 1510 57 1800 190/13 RMK AO2 T01440061
13962KABI ABI20160227103010402/27/16 10:30:31  5-MIN KABI 271630Z 20015KT 10SM CLR 14/06 A3023 1510 57 1800 200/15 RMK AO2 T01440061
13962KABI ABI20160227103510402/27/16 10:35:31  5-MIN KABI 271635Z 20011KT 10SM CLR 14/06 A3023 1510 57 1800 190/11 RMK AO2 T01440061
13962KABI ABI20160227104010402/27/16 10:40:31  5-MIN KABI 271640Z 21011KT 10SM CLR 15/07 A3023 1510 57 1900 200/11 RMK AO2 T01500067
13962KABI ABI20160227104510402/27/16 10:45:31  5-MIN KABI 271645Z 20011KT 10SM CLR 15/06 A3023 1510 55 1900 190/11 RMK AO2 T01500061
13962KABI ABI20160227105011102/27/16 10:50:31  5-MIN KABI 271650Z 19011KT 10SM CLR 16/07 A3023 1510 55 2000 190/11 RMK AO2 SLP229 T01560067
13962KABI ABI20160227105510402/27/16 10:55:31  5-MIN KABI 271655Z 20011KT 10SM CLR 15/06 A3022 1510 55 1900 190/11 RMK AO2 T01500061
13962KABI ABI20160227110010402/27/16 11:00:31  5-MIN KABI 271700Z 19012KT 10SM CLR 16/07 A3022 1520 55 2000 180/12 RMK AO2 T01560067
13962KABI ABI20160227110510402/27/16 11:05:31  5-MIN KABI 271705Z 19012KT 10SM CLR 15/07 A3022 1520 57 1900 190/12 RMK AO2 T01500067
13962KABI ABI20160227111010402/27/16 11:10:31  5-MIN KABI 271710Z 21012KT 10SM CLR 16/06 A3022 1520 53 2000 200/12 RMK AO2 T01560061
13962KABI ABI20160227111511002/27/16 11:15:31  5-MIN KABI 271715Z 22011G18KT 10SM CLR 16/07 A3022 1520 55 2000 210/11G18 RMK AO2 T01560067
13962KABI ABI20160227112011002/27/16 11:20:31  5-MIN KABI 271720Z 20012G18KT 10SM CLR 16/07 A3021 1520 53 2000 190/12G18 RMK AO2 T01610067
13962KABI ABI20160227112510402/27/16 11:25:31  5-MIN KABI 271725Z 20012KT 10SM CLR 16/07 A3021 1520 53 2000 200/12 RMK AO2 T01610067
13962KABI ABI20160227113010402/27/16 11:30:31  5-MIN KABI 271730Z 21010KT 10SM CLR 16/07 A3021 1530 53 2000 210/10 RMK AO2 T01610067
13962KABI ABI20160227113510402/27/16 11:35:31  5-MIN KABI 271735Z 19012KT 10SM CLR 17/07 A3021 1530 51 2100 180/12 RMK AO2 T01670067
13962KABI ABI20160227114010402/27/16 11:40:31  5-MIN KABI 271740Z 20015KT 10SM CLR 17/07 A3020 1530 51 2100 190/15 RMK AO2 T01670067
13962KABI ABI20160227114510402/27/16 11:45:31  5-MIN KABI 271745Z 20015KT 10SM CLR 17/07 A3020 1530 51 2100 190/15 RMK AO2 T01670067
13962KABI ABI20160227115012902/27/16 11:50:31  5-MIN KABI 271750Z 21015KT 10SM CLR 17/07 A3020 1530 51 2100 210/15 RMK AO2 SLP218 T01670067 10167 20072 55000
13962KABI ABI20160227115510402/27/16 11:55:31  5-MIN KABI 271755Z 20015KT 10SM CLR 17/06 A3020 1540 49 2100 200/15 RMK AO2 T01670061
13962KABI ABI20160227120010402/27/16 12:00:31  5-MIN KABI 271800Z 22015KT 10SM CLR 17/06 A3019 1540 47 2200 210/15 RMK AO2 T01720061
13962KABI ABI20160227120510402/27/16 12:05:31  5-MIN KABI 271805Z 20014KT 10SM CLR 17/06 A3019 1540 47 2200 190/14 RMK AO2 T01720061
13962KABI ABI20160227121010402/27/16 12:10:31  5-MIN KABI 271810Z 22015KT 10SM CLR 17/06 A3019 1540 46 2200 210/15 RMK AO2 T01720056
13962KABI ABI20160227121511002/27/16 12:15:31  5-MIN KABI 271815Z 19012G19KT 10SM CLR 17/06 A3019 1550 47 2200 180/12G19 RMK AO2 T01720061
13962KABI ABI20160227122010402/27/16 12:20:31  5-MIN KABI 271820Z 20013KT 10SM CLR 18/06 A3018 1550 46 2300 200/13 RMK AO2 T01780061
13962KABI ABI20160227122511002/27/16 12:25:31  5-MIN KABI 271825Z 19015G20KT 10SM CLR 18/06 A3018 1560 46 2300 180/15G20 RMK AO2 T01780061
13962KABI ABI20160227123010402/27/16 12:30:31  5-MIN KABI 271830Z 20013KT 10SM CLR 18/06 A3018 1560 46 2300 200/13 RMK AO2 T01780061
13962KABI ABI20160227123510402/27/16 12:35:31  5-MIN KABI 271835Z 21013KT 10SM CLR 18/06 A3017 1560 46 2300 200/13 RMK AO2 T01780061
13962KABI ABI20160227124010402/27/16 12:40:31  5-MIN KABI 271840Z 21017KT 10SM CLR 19/07 A3017 1560 44 2400 200/17 RMK AO2 T01890067
13962KABI ABI20160227124510402/27/16 12:45:31  5-MIN KABI 271845Z 20015KT 10SM CLR 18/06 A3017 1570 44 2400 190/15 RMK AO2 T01830061
13962KABI ABI20160227125011102/27/16 12:50:31  5-MIN KABI 271850Z 21014KT 10SM CLR 18/06 A3016 1570 44 2400 200/14 RMK AO2 SLP204 T01830061
13962KABI ABI20160227125510402/27/16 12:55:31  5-MIN KABI 271855Z 23012KT 10SM CLR 18/06 A3016 1570 44 2400 220/12 RMK AO2 T01830061
13962KABI ABI20160227130010402/27/16 13:00:31  5-MIN KABI 271900Z 18013KT 10SM CLR 19/07 A3016 1580 44 2400 170/13 RMK AO2 T01890067
13962KABI ABI20160227130510402/27/16 13:05:31  5-MIN KABI 271905Z 20015KT 10SM CLR 19/06 A3015 1580 43 2400 190/15 RMK AO2 T01890061
13962KABI ABI20160227131010402/27/16 13:10:31  5-MIN KABI 271910Z 19014KT 10SM CLR 18/06 A3015 1580 44 2400 190/14 RMK AO2 T01830061
13962KABI ABI20160227131510402/27/16 13:15:31  5-MIN KABI 271915Z 20011KT 10SM CLR 19/06 A3014 1590 43 2400 190/11 RMK AO2 T01890061
13962KABI ABI20160227132011002/27/16 13:20:31  5-MIN KABI 271920Z 21014G20KT 10SM CLR 19/06 A3014 1590 43 2500 200/14G20 RMK AO2 T01890061
13962KABI ABI20160227132511002/27/16 13:25:31  5-MIN KABI 271925Z 19012G20KT 10SM CLR 19/06 A3013 1600 43 2500 190/12G20 RMK AO2 T01890061
13962KABI ABI20160227133010402/27/16 13:30:31  5-MIN KABI 271930Z 19013KT 10SM CLR 19/07 A3013 1600 43 2500 190/13 RMK AO2 T01940067
13962KABI ABI20160227133511002/27/16 13:35:31  5-MIN KABI 271935Z 20014G22KT 10SM CLR 19/06 A3013 1600 41 2500 200/14G22 RMK AO2 T01940061
13962KABI ABI20160227134011002/27/16 13:40:31  5-MIN KABI 271940Z 20015G22KT 10SM CLR 19/06 A3013 1600 41 2500 190/15G22 RMK AO2 T01940061
13962KABI ABI20160227134510402/27/16 13:45:31  5-MIN KABI 271945Z 18015KT 10SM CLR 19/06 A3012 1610 41 2500 180/15 RMK AO2 T01940061
13962KABI ABI20160227135011702/27/16 13:50:31  5-MIN KABI 271950Z 19011G19KT 10SM CLR 19/06 A3012 1610 41 2500 190/11G19 RMK AO2 SLP190 T01940061
13962KABI ABI20160227135511002/27/16 13:55:31  5-MIN KABI 271955Z 19015G20KT 10SM CLR 20/06 A3012 1610 40 2600 180/15G20 RMK AO2 T02000061
13962KABI ABI20160227140010402/27/16 14:00:31  5-MIN KABI 272000Z 17015KT 10SM CLR 19/06 A3011 1610 40 2500 170/15 RMK AO2 T01940056
13962KABI ABI20160227140511002/27/16 14:05:31  5-MIN KABI 272005Z 18016G21KT 10SM CLR 19/06 A3011 1620 40 2500 180/16G21 RMK AO2 T01940056
13962KABI ABI20160227141011002/27/16 14:10:31  5-MIN KABI 272010Z 18015G21KT 10SM CLR 19/06 A3011 1620 40 2600 180/15G21 RMK AO2 T01940056
13962KABI ABI20160227141511002/27/16 14:15:31  5-MIN KABI 272015Z 18014G20KT 10SM CLR 20/06 A3010 1630 40 2600 170/14G20 RMK AO2 T02000061
13962KABI ABI20160227142011002/27/16 14:20:31  5-MIN KABI 272020Z 18017G22KT 10SM CLR 20/06 A3010 1630 40 2600 180/17G22 RMK AO2 T02000061
13962KABI ABI20160227142511002/27/16 14:25:31  5-MIN KABI 272025Z 19014G23KT 10SM CLR 20/06 A3010 1630 38 2600 180/14G23 RMK AO2 T02000056
13962KABI ABI20160227143011002/27/16 14:30:31  5-MIN KABI 272030Z 18017G23KT 10SM CLR 20/06 A3010 1630 40 2600 180/17G23 RMK AO2 T02000061
13962KABI ABI20160227143511002/27/16 14:35:31  5-MIN KABI 272035Z 19016G22KT 10SM CLR 20/06 A3009 1630 40 2600 190/16G22 RMK AO2 T02000061
13962KABI ABI20160227144011202/27/16 14:40:31  5-MIN KABI 272040Z 19014G23KT 10SM CLR 21/06 A3009 1640 38 2700 190/14G23 RMK AO2 T02060061 $
13962KABI ABI20160227144510602/27/16 14:45:31  5-MIN KABI 272045Z 19015KT 10SM CLR 21/06 A3009 1640 38 2700 190/15 RMK AO2 T02060061 $
13962KABI ABI20160227145011902/27/16 14:50:31  5-MIN KABI 272050Z 19015KT 10SM CLR 21/07 A3009 1640 40 2700 190/15 RMK AO2 SLP177 T02060067 58011 $
13962KABI ABI20160227145511202/27/16 14:55:31  5-MIN KABI 272055Z 19017G22KT 10SM CLR 21/07 A3008 1640 40 2700 190/17G22 RMK AO2 T02060067 $
13962KABI ABI20160227150011202/27/16 15:00:31  5-MIN KABI 272100Z 19015G24KT 10SM CLR 21/07 A3008 1640 38 2800 180/15G24 RMK AO2 T02110067 $
13962KABI ABI20160227150511202/27/16 15:05:31  5-MIN KABI 272105Z 20015G24KT 10SM CLR 21/06 A3008 1650 38 2700 190/15G24 RMK AO2 T02060061 $
13962KABI ABI20160227151011202/27/16 15:10:31  5-MIN KABI 272110Z 19016G23KT 10SM CLR 21/06 A3008 1650 37 2800 190/16G23 RMK AO2 T02110061 $
13962KABI ABI20160227151511202/27/16 15:15:31  5-MIN KABI 272115Z 20016G22KT 10SM CLR 21/07 A3007 1650 38 2800 190/16G22 RMK AO2 T02110067 $
13962KABI ABI20160227152010602/27/16 15:20:31  5-MIN KABI 272120Z 19014KT 10SM CLR 21/07 A3007 1650 38 2800 190/14 RMK AO2 T02110067 $
13962KABI ABI20160227152511202/27/16 15:25:31  5-MIN KABI 272125Z 20015G20KT 10SM CLR 21/06 A3007 1660 37 2800 190/15G20 RMK AO2 T02110061 $
13962KABI ABI20160227153011202/27/16 15:30:31  5-MIN KABI 272130Z 20013G23KT 10SM CLR 22/06 A3007 1660 36 2900 190/13G23 RMK AO2 T02170061 $
13962KABI ABI20160227153511202/27/16 15:35:31  5-MIN KABI 272135Z 18016G23KT 10SM CLR 22/06 A3006 1660 36 2900 170/16G23 RMK AO2 T02170061 $
13962KABI ABI20160227154011202/27/16 15:40:31  5-MIN KABI 272140Z 18017G23KT 10SM CLR 21/06 A3006 1660 37 2800 180/17G23 RMK AO2 T02110061 $
13962KABI ABI20160227154511202/27/16 15:45:31  5-MIN KABI 272145Z 18020G25KT 10SM CLR 22/06 A3006 1670 34 2900 180/20G25 RMK AO2 T02170056 $
13962KABI ABI20160227155011902/27/16 15:50:31  5-MIN KABI 272150Z 18016G25KT 10SM CLR 22/06 A3006 1670 34 2900 170/16G25 RMK AO2 SLP166 T02170056 $
13962KABI ABI20160227155511202/27/16 15:55:31  5-MIN KABI 272155Z 19012G22KT 10SM CLR 22/06 A3005 1670 34 2900 180/12G22 RMK AO2 T02170056 $
13962KABI ABI20160227160011202/27/16 16:00:31  5-MIN KABI 272200Z 20016G21KT 10SM CLR 22/06 A3005 1670 34 2900 190/16G21 RMK AO2 T02170056 $
13962KABI ABI20160227160510602/27/16 16:05:31  5-MIN KABI 272205Z 19015KT 10SM CLR 22/05 A3005 1670 33 2900 180/15 RMK AO2 T02170050 $
13962KABI ABI20160227161011202/27/16 16:10:31  5-MIN KABI 272210Z 19018G22KT 10SM CLR 22/05 A3005 1680 33 2900 180/18G22 RMK AO2 T02170050 $
13962KABI ABI20160227161511202/27/16 16:15:31  5-MIN KABI 272215Z 18017G22KT 10SM CLR 22/05 A3005 1680 33 2900 170/17G22 RMK AO2 T02170050 $
13962KABI ABI20160227162011202/27/16 16:20:31  5-MIN KABI 272220Z 18017G24KT 10SM CLR 22/05 A3004 1680 33 2900 180/17G24 RMK AO2 T02170050 $
13962KABI ABI20160227162511202/27/16 16:25:31  5-MIN KABI 272225Z 19015G24KT 10SM CLR 22/05 A3004 1680 33 2900 180/15G24 RMK AO2 T02170050 $
13962KABI ABI20160227163011202/27/16 16:30:31  5-MIN KABI 272230Z 19014G23KT 10SM CLR 22/04 A3004 1680 32 2900 180/14G23 RMK AO2 T02170044 $
13962KABI ABI20160227163511202/27/16 16:35:31  5-MIN KABI 272235Z 18014G22KT 10SM CLR 22/05 A3004 1680 33 2900 180/14G22 RMK AO2 T02170050 $
13962KABI ABI20160227164011202/27/16 16:40:31  5-MIN KABI 272240Z 18016G22KT 10SM CLR 22/05 A3004 1680 33 2900 180/16G22 RMK AO2 T02170050 $
13962KABI ABI20160227164511202/27/16 16:45:31  5-MIN KABI 272245Z 18017G24KT 10SM CLR 22/05 A3004 1680 33 2900 170/17G24 RMK AO2 T02170050 $
13962KABI ABI20160227165011902/27/16 16:50:31  5-MIN KABI 272250Z 19017G24KT 10SM CLR 22/05 A3004 1680 33 2900 180/17G24 RMK AO2 SLP160 T02170050 $
13962KABI ABI20160227165510602/27/16 16:55:31  5-MIN KABI 272255Z 18016KT 10SM CLR 22/06 A3004 1680 34 2900 180/16 RMK AO2 T02170056 $
13962KABI ABI20160227170010602/27/16 17:00:31  5-MIN KABI 272300Z 19014KT 10SM CLR 22/06 A3004 1690 34 2900 180/14 RMK AO2 T02170056 $
13962KABI ABI20160227170510602/27/16 17:05:31  5-MIN KABI 272305Z 19016KT 10SM CLR 21/06 A3004 1680 36 2800 190/16 RMK AO2 T02110056 $
13962KABI ABI20160227171010602/27/16 17:10:31  5-MIN KABI 272310Z 19015KT 10SM CLR 21/06 A3004 1690 36 2800 180/15 RMK AO2 T02110056 $
13962KABI ABI20160227171511202/27/16 17:15:31  5-MIN KABI 272315Z 20015G21KT 10SM CLR 21/06 A3004 1690 36 2800 200/15G21 RMK AO2 T02110056 $
13962KABI ABI20160227172010602/27/16 17:20:31  5-MIN KABI 272320Z 19013KT 10SM CLR 21/06 A3004 1690 36 2800 190/13 RMK AO2 T02110056 $
13962KABI ABI20160227172510602/27/16 17:25:31  5-MIN KABI 272325Z 19014KT 10SM CLR 21/06 A3003 1690 36 2800 190/14 RMK AO2 T02110056 $
13962KABI ABI20160227173010602/27/16 17:30:31  5-MIN KABI 272330Z 19015KT 10SM CLR 21/06 A3003 1690 37 2800 190/15 RMK AO2 T02110061 $
13962KABI ABI20160227173510602/27/16 17:35:31  5-MIN KABI 272335Z 18012KT 10SM CLR 21/06 A3003 1690 37 2800 180/12 RMK AO2 T02110061 $
13962KABI ABI20160227174011202/27/16 17:40:31  5-MIN KABI 272340Z 18015G20KT 10SM CLR 21/06 A3003 1690 37 2800 180/15G20 RMK AO2 T02060056 $
13962KABI ABI20160227174511202/27/16 17:45:31  5-MIN KABI 272345Z 19013G20KT 10SM CLR 21/06 A3003 1690 37 2800 180/13G20 RMK AO2 T02060056 $
13962KABI ABI20160227175013102/27/16 17:50:31  5-MIN KABI 272350Z 19012KT 10SM CLR 21/06 A3003 1690 38 2800 180/12 RMK AO2 SLP156 T02060061 10222 20167 56037 $
13962KABI ABI20160227175511202/27/16 17:55:31  5-MIN KABI 272355Z 19016G20KT 10SM CLR 21/06 A3003 1690 38 2800 180/16G20 RMK AO2 T02060061 $
13962KABI ABI20160227180010602/27/16 18:00:31  5-MIN KABI 280000Z 18013KT 10SM CLR 20/06 A3003 1690 40 2700 180/13 RMK AO2 T02000061 $
13962KABI ABI20160227180510602/27/16 18:05:31  5-MIN KABI 280005Z 18014KT 10SM CLR 20/06 A3003 1690 40 2700 180/14 RMK AO2 T02000061 $
13962KABI ABI20160227181010602/27/16 18:10:31  5-MIN KABI 280010Z 18011KT 10SM CLR 20/06 A3003 1690 40 2700 170/11 RMK AO2 T02000061 $
13962KABI ABI20160227181510602/27/16 18:15:31  5-MIN KABI 280015Z 18012KT 10SM CLR 19/07 A3003 1690 43 2600 180/12 RMK AO2 T01940067 $
13962KABI ABI20160227182010602/27/16 18:20:31  5-MIN KABI 280020Z 18010KT 10SM CLR 19/07 A3003 1690 43 2600 180/10 RMK AO2 T01940067 $
13962KABI ABI20160227182510602/27/16 18:25:31  5-MIN KABI 280025Z 18010KT 10SM CLR 19/07 A3003 1690 43 2600 180/10 RMK AO2 T01940067 $
13962KABI ABI20160227183010602/27/16 18:30:31  5-MIN KABI 280030Z 18010KT 10SM CLR 19/07 A3003 1690 44 2600 170/10 RMK AO2 T01890067 $
13962KABI ABI20160227183510602/27/16 18:35:31  5-MIN KABI 280035Z 18010KT 10SM CLR 19/07 A3003 1690 44 2600 170/10 RMK AO2 T01890067 $
13962KABI ABI20160227184010602/27/16 18:40:31  5-MIN KABI 280040Z 18009KT 10SM CLR 18/07 A3003 1690 46 2500 170/09 RMK AO2 T01830067 $
13962KABI ABI20160227184510602/27/16 18:45:31  5-MIN KABI 280045Z 17010KT 10SM CLR 18/07 A3003 1690 46 2500 170/10 RMK AO2 T01830067 $
13962KABI ABI20160227185011302/27/16 18:50:31  5-MIN KABI 280050Z 18010KT 10SM CLR 18/07 A3003 1690 48 2400 170/10 RMK AO2 SLP159 T01780067 $
13962KABI ABI20160227185510602/27/16 18:55:31  5-MIN KABI 280055Z 18009KT 10SM CLR 18/07 A3003 1690 48 2400 170/09 RMK AO2 T01780067 $
13962KABI ABI20160227190010602/27/16 19:00:31  5-MIN KABI 280100Z 17009KT 10SM CLR 18/06 A3003 1690 46 2400 170/09 RMK AO2 T01780061 $
13962KABI ABI20160227190510602/27/16 19:05:31  5-MIN KABI 280105Z 17007KT 10SM CLR 18/06 A3003 1690 46 2400 160/07 RMK AO2 T01780061 $
13962KABI ABI20160227191010602/27/16 19:10:31  5-MIN KABI 280110Z 17008KT 10SM CLR 17/06 A3003 1690 47 2400 160/08 RMK AO2 T01720061 $
13962KABI ABI20160227191510602/27/16 19:15:31  5-MIN KABI 280115Z 16007KT 10SM CLR 17/06 A3003 1690 49 2300 160/07 RMK AO2 T01670061 $
13962KABI ABI20160227192010602/27/16 19:20:31  5-MIN KABI 280120Z 16008KT 10SM CLR 17/06 A3003 1690 47 2400 150/08 RMK AO2 T01720061 $
13962KABI ABI20160227192510602/27/16 19:25:31  5-MIN KABI 280125Z 16008KT 10SM CLR 17/06 A3003 1700 49 2300 160/08 RMK AO2 T01670061 $
13962KABI ABI20160227193010602/27/16 19:30:31  5-MIN KABI 280130Z 16008KT 10SM CLR 16/06 A3002 1700 51 2300 150/08 RMK AO2 T01610061 $
13962KABI ABI20160227193510602/27/16 19:35:31  5-MIN KABI 280135Z 16008KT 10SM CLR 16/07 A3002 1700 53 2300 160/08 RMK AO2 T01610067 $
13962KABI ABI20160227194010602/27/16 19:40:31  5-MIN KABI 280140Z 17008KT 10SM CLR 16/07 A3002 1700 53 2300 160/08 RMK AO2 T01610067 $
13962KABI ABI20160227194510602/27/16 19:45:31  5-MIN KABI 280145Z 17009KT 10SM CLR 17/07 A3002 1700 51 2300 170/09 RMK AO2 T01670067 $
13962KABI ABI20160227195011302/27/16 19:50:31  5-MIN KABI 280150Z 17011KT 10SM CLR 17/07 A3002 1700 51 2300 170/11 RMK AO2 SLP157 T01670067 $
13962KABI ABI20160227195510602/27/16 19:55:31  5-MIN KABI 280155Z 17010KT 10SM CLR 17/07 A3002 1700 51 2300 170/10 RMK AO2 T01670067 $
13962KABI ABI20160227200010602/27/16 20:00:31  5-MIN KABI 280200Z 17012KT 10SM CLR 17/07 A3002 1700 51 2300 170/12 RMK AO2 T01670067 $
13962KABI ABI20160227200510602/27/16 20:05:31  5-MIN KABI 280205Z 17012KT 10SM CLR 17/07 A3002 1700 51 2300 170/12 RMK AO2 T01670067 $
13962KABI ABI20160227201010602/27/16 20:10:31  5-MIN KABI 280210Z 17011KT 10SM CLR 17/07 A3002 1700 51 2300 160/11 RMK AO2 T01670067 $
13962KABI ABI20160227201510602/27/16 20:15:31  5-MIN KABI 280215Z 17010KT 10SM CLR 17/07 A3002 1700 51 2300 170/10 RMK AO2 T01670067 $
13962KABI ABI20160227202010602/27/16 20:20:31  5-MIN KABI 280220Z 18012KT 10SM CLR 16/07 A3002 1700 53 2300 170/12 RMK AO2 T01610067 $
13962KABI ABI20160227202510602/27/16 20:25:31  5-MIN KABI 280225Z 18012KT 10SM CLR 17/07 A3002 1700 51 2300 170/12 RMK AO2 T01670067 $
13962KABI ABI20160227203010602/27/16 20:30:31  5-MIN KABI 280230Z 18012KT 10SM CLR 17/07 A3002 1700 51 2300 180/12 RMK AO2 T01670067 $
13962KABI ABI20160227203510602/27/16 20:35:31  5-MIN KABI 280235Z 18013KT 10SM CLR 17/07 A3002 1700 51 2300 170/13 RMK AO2 T01670067 $
13962KABI ABI20160227204010602/27/16 20:40:31  5-MIN KABI 280240Z 18011KT 10SM CLR 16/07 A3002 1700 53 2300 170/11 RMK AO2 T01610067 $
13962KABI ABI20160227204510602/27/16 20:45:31  5-MIN KABI 280245Z 18012KT 10SM CLR 16/07 A3002 1700 53 2300 170/12 RMK AO2 T01610067 $
13962KABI ABI20160227205011902/27/16 20:50:31  5-MIN KABI 280250Z 18012KT 10SM CLR 16/07 A3002 1700 53 2300 170/12 RMK AO2 SLP156 T01610067 56018 $
13962KABI ABI20160227205510602/27/16 20:55:31  5-MIN KABI 280255Z 18013KT 10SM CLR 16/07 A3002 1700 53 2300 170/13 RMK AO2 T01610067 $
13962KABI ABI20160227210010602/27/16 21:00:31  5-MIN KABI 280300Z 18014KT 10SM CLR 16/07 A3002 1700 53 2300 170/14 RMK AO2 T01610067 $
13962KABI ABI20160227210510602/27/16 21:05:31  5-MIN KABI 280305Z 18013KT 10SM CLR 16/07 A3002 1700 53 2300 170/13 RMK AO2 T01610067 $
13962KABI ABI20160227211010602/27/16 21:10:31  5-MIN KABI 280310Z 18012KT 10SM CLR 16/07 A3002 1700 53 2300 170/12 RMK AO2 T01610067 $
13962KABI ABI20160227211510602/27/16 21:15:31  5-MIN KABI 280315Z 18013KT 10SM CLR 16/07 A3002 1700 53 2300 170/13 RMK AO2 T01610067 $
13962KABI ABI20160227212011202/27/16 21:20:31  5-MIN KABI 280320Z 17014G21KT 10SM CLR 16/07 A3002 1700 55 2300 170/14G21 RMK AO2 T01610072 $
13962KABI ABI20160227212511202/27/16 21:25:31  5-MIN KABI 280325Z 18014G21KT 10SM CLR 16/07 A3002 1700 55 2300 170/14G21 RMK AO2 T01610072 $
13962KABI ABI20160227213010602/27/16 21:30:31  5-MIN KABI 280330Z 18014KT 10SM CLR 16/07 A3002 1710 55 2300 170/14 RMK AO2 T01610072 $
13962KABI ABI20160227213510602/27/16 21:35:31  5-MIN KABI 280335Z 18017KT 10SM CLR 16/07 A3001 1710 57 2200 180/17 RMK AO2 T01560072 $
13962KABI ABI20160227214011202/27/16 21:40:31  5-MIN KABI 280340Z 18016G23KT 10SM CLR 16/07 A3002 1700 57 2200 180/16G23 RMK AO2 T01560072 $
13962KABI ABI20160227214511202/27/16 21:45:31  5-MIN KABI 280345Z 18016G23KT 10SM CLR 16/07 A3002 1700 57 2200 170/16G23 RMK AO2 T01560072 $
13962KABI ABI20160227215011302/27/16 21:50:31  5-MIN KABI 280350Z 18016KT 10SM CLR 16/07 A3002 1700 57 2200 170/16 RMK AO2 SLP153 T01560072 $
13962KABI ABI20160227215510602/27/16 21:55:31  5-MIN KABI 280355Z 18015KT 10SM CLR 16/07 A3002 1700 57 2200 170/15 RMK AO2 T01560072 $
13962KABI ABI20160227220010602/27/16 22:00:31  5-MIN KABI 280400Z 18015KT 10SM CLR 15/07 A3002 1700 59 2100 170/15 RMK AO2 T01500072 $
13962KABI ABI20160227220510602/27/16 22:05:31  5-MIN KABI 280405Z 18015KT 10SM CLR 15/07 A3002 1700 59 2100 170/15 RMK AO2 T01500072 $
13962KABI ABI20160227221011202/27/16 22:10:31  5-MIN KABI 280410Z 18017G22KT 10SM CLR 16/07 A3002 1700 57 2200 170/17G22 RMK AO2 T01560072 $
13962KABI ABI20160227221511202/27/16 22:15:31  5-MIN KABI 280415Z 18017G22KT 10SM CLR 16/07 A3002 1700 57 2200 180/17G22 RMK AO2 T01560072 $
13962KABI ABI20160227222011202/27/16 22:20:31  5-MIN KABI 280420Z 18016G22KT 10SM CLR 16/07 A3001 1710 57 2200 170/16G22 RMK AO2 T01560072 $
13962KABI ABI20160227222511202/27/16 22:25:31  5-MIN KABI 280425Z 18019G25KT 10SM CLR 16/07 A3001 1710 57 2200 170/19G25 RMK AO2 T01560072 $
13962KABI ABI20160227223011202/27/16 22:30:31  5-MIN KABI 280430Z 18018G25KT 10SM CLR 16/07 A3001 1710 57 2200 170/18G25 RMK AO2 T01560072 $
13962KABI ABI20160227223511202/27/16 22:35:31  5-MIN KABI 280435Z 18016G25KT 10SM CLR 16/07 A3001 1710 57 2200 180/16G25 RMK AO2 T01560072 $
13962KABI ABI20160227224011202/27/16 22:40:31  5-MIN KABI 280440Z 18016G25KT 10SM CLR 16/08 A3001 1710 59 2200 170/16G25 RMK AO2 T01560078 $
13962KABI ABI20160227224510602/27/16 22:45:31  5-MIN KABI 280445Z 18016KT 10SM CLR 16/08 A3002 1700 59 2200 170/16 RMK AO2 T01560078 $
13962KABI ABI20160227225011902/27/16 22:50:31  5-MIN KABI 280450Z 18018G25KT 10SM CLR 16/08 A3002 1700 59 2200 170/18G25 RMK AO2 SLP151 T01560078 $
13962KABI ABI20160227225513002/27/16 22:55:31  5-MIN KABI 280455Z 18018G27KT 10SM CLR 16/08 A3002 1700 59 2200 180/18G27 RMK AO2 PK WND 18027/0453 T01560078 $
13962KABI ABI20160227230013002/27/16 23:00:31  5-MIN KABI 280500Z 18017G27KT 10SM CLR 16/08 A3002 1700 59 2200 170/17G27 RMK AO2 PK WND 18027/0453 T01560078 $
13962KABI ABI20160227230513002/27/16 23:05:31  5-MIN KABI 280505Z 18015G24KT 10SM CLR 16/08 A3002 1700 59 2200 170/15G24 RMK AO2 PK WND 18027/0453 T01560078 $
13962KABI ABI20160227231012402/27/16 23:10:31  5-MIN KABI 280510Z 18014KT 10SM CLR 15/08 A3002 1700 62 2100 170/14 RMK AO2 PK WND 18027/0453 T01500078 $
13962KABI ABI20160227231512402/27/16 23:15:31  5-MIN KABI 280515Z 17013KT 10SM CLR 15/08 A3002 1700 62 2100 170/13 RMK AO2 PK WND 18027/0453 T01500078 $
13962KABI ABI20160227232012402/27/16 23:20:31  5-MIN KABI 280520Z 17012KT 10SM CLR 15/08 A3001 1710 62 2100 160/12 RMK AO2 PK WND 18027/0453 T01500078 $
13962KABI ABI20160227232512402/27/16 23:25:31  5-MIN KABI 280525Z 17013KT 10SM CLR 15/08 A3001 1710 62 2100 170/13 RMK AO2 PK WND 18027/0453 T01500078 $
13962KABI ABI20160227233013002/27/16 23:30:31  5-MIN KABI 280530Z 17012G20KT 10SM CLR 15/08 A3001 1710 62 2200 160/12G20 RMK AO2 PK WND 18027/0453 T01500078 $
13962KABI ABI20160227233513002/27/16 23:35:31  5-MIN KABI 280535Z 17013G21KT 10SM CLR 15/08 A3000 1720 62 2200 160/13G21 RMK AO2 PK WND 18027/0453 T01500078 $
13962KABI ABI20160227234013002/27/16 23:40:31  5-MIN KABI 280540Z 18014G21KT 10SM CLR 15/08 A3000 1720 62 2200 170/14G21 RMK AO2 PK WND 18027/0453 T01500078 $
13962KABI ABI20160227234513002/27/16 23:45:31  5-MIN KABI 280545Z 17014G21KT 10SM CLR 15/08 A3000 1720 62 2200 170/14G21 RMK AO2 PK WND 18027/0453 T01500078 $
13962KABI ABI20160227235016502/27/16 23:50:31  5-MIN KABI 280550Z 17012G21KT 10SM CLR 15/08 A2999 1720 62 2200 160/12G21 RMK AO2 PK WND 18027/0453 SLP143 T01500078 10206 20150 402220061 55002 $
13962KABI ABI20160227235511202/27/16 23:55:31  5-MIN KABI 280555Z 17016G21KT 10SM CLR 15/08 A2999 1730 62 2200 170/16G21 RMK AO2 T01500078 $
13962KABI ABI20160228000011202/28/16 00:00:31  5-MIN KABI 280600Z 18018G23KT 10SM CLR 15/08 A2999 1730 62 2200 170/18G23 RMK AO2 T01500078 $
13962KABI ABI20160228000511202/28/16 00:05:31  5-MIN KABI 280605Z 18015G23KT 10SM CLR 14/08 A2999 1730 64 2100 170/15G23 RMK AO2 T01440078 $
13962KABI ABI20160228001011202/28/16 00:10:31  5-MIN KABI 280610Z 18018G23KT 10SM CLR 14/08 A2998 1730 64 2100 170/18G23 RMK AO2 T01440078 $
13962KABI ABI20160228001511202/28/16 00:15:31  5-MIN KABI 280615Z 18016G23KT 10SM CLR 14/08 A2998 1740 64 2100 170/16G23 RMK AO2 T01440078 $
13962KABI ABI20160228002013002/28/16 00:20:31  5-MIN KABI 280620Z 18018G26KT 10SM CLR 14/08 A2998 1740 64 2100 170/18G26 RMK AO2 PK WND 17026/0618 T01440078 $
13962KABI ABI20160228002513002/28/16 00:25:31  5-MIN KABI 280625Z 18016G26KT 10SM CLR 14/08 A2998 1740 64 2100 170/16G26 RMK AO2 PK WND 17026/0618 T01440078 $
13962KABI ABI20160228003013002/28/16 00:30:31  5-MIN KABI 280630Z 18016G23KT 10SM CLR 14/08 A2997 1740 64 2100 170/16G23 RMK AO2 PK WND 17026/0618 T01440078 $
13962KABI ABI20160228003513002/28/16 00:35:31  5-MIN KABI 280635Z 18018G22KT 10SM CLR 14/08 A2997 1750 64 2100 170/18G22 RMK AO2 PK WND 17026/0618 T01440078 $
13962KABI ABI20160228004013002/28/16 00:40:31  5-MIN KABI 280640Z 18018G23KT 10SM CLR 14/08 A2997 1750 64 2100 170/18G23 RMK AO2 PK WND 17026/0618 T01440078 $
13962KABI ABI20160228004513002/28/16 00:45:31  5-MIN KABI 280645Z 18018G25KT 10SM CLR 14/08 A2997 1750 66 2100 170/18G25 RMK AO2 PK WND 17026/0618 T01390078 $
13962KABI ABI20160228005013702/28/16 00:50:31  5-MIN KABI 280650Z 18014G25KT 10SM CLR 14/08 A2997 1750 66 2100 170/14G25 RMK AO2 PK WND 17026/0618 SLP134 T01390078 $
13962KABI ABI20160228005511202/28/16 00:55:31  5-MIN KABI 280655Z 18019G24KT 10SM CLR 14/08 A2997 1750 66 2100 180/19G24 RMK AO2 T01390078 $
13962KABI ABI20160228010011202/28/16 01:00:31  5-MIN KABI 280700Z 18018G24KT 10SM CLR 14/08 A2997 1750 66 2100 170/18G24 RMK AO2 T01390078 $
13962KABI ABI20160228010511202/28/16 01:05:31  5-MIN KABI 280705Z 18018G24KT 10SM CLR 14/08 A2997 1750 66 2100 170/18G24 RMK AO2 T01390078 $
13962KABI ABI20160228011013002/28/16 01:10:31  5-MIN KABI 280710Z 18020G26KT 10SM CLR 14/08 A2996 1750 66 2100 180/20G26 RMK AO2 PK WND 18026/0710 T01390078 $
13962KABI ABI20160228011513002/28/16 01:15:31  5-MIN KABI 280715Z 18018G26KT 10SM CLR 14/08 A2996 1750 66 2100 170/18G26 RMK AO2 PK WND 18026/0710 T01390078 $
13962KABI ABI20160228012013002/28/16 01:20:31  5-MIN KABI 280720Z 18017G24KT 10SM CLR 14/08 A2996 1750 66 2100 170/17G24 RMK AO2 PK WND 18026/0710 T01390078 $
13962KABI ABI20160228012513002/28/16 01:25:31  5-MIN KABI 280725Z 18016G27KT 10SM CLR 14/08 A2997 1750 64 2100 180/16G27 RMK AO2 PK WND 19027/0721 T01440078 $
13962KABI ABI20160228013013002/28/16 01:30:31  5-MIN KABI 280730Z 18019G27KT 10SM CLR 14/08 A2996 1750 66 2100 170/19G27 RMK AO2 PK WND 19027/0721 T01390078 $
13962KABI ABI20160228013513002/28/16 01:35:31  5-MIN KABI 280735Z 18018G25KT 10SM CLR 14/08 A2996 1750 66 2100 170/18G25 RMK AO2 PK WND 19027/0721 T01390078 $
13962KABI ABI20160228014013002/28/16 01:40:31  5-MIN KABI 280740Z 18019G24KT 10SM CLR 14/08 A2996 1750 69 2100 170/19G24 RMK AO2 PK WND 19027/0721 T01390083 $
13962KABI ABI20160228014513002/28/16 01:45:31  5-MIN KABI 280745Z 18016G24KT 10SM CLR 14/08 A2996 1750 69 2100 170/16G24 RMK AO2 PK WND 19027/0721 T01390083 $
13962KABI ABI20160228015013702/28/16 01:50:31  5-MIN KABI 280750Z 18015G24KT 10SM CLR 14/08 A2996 1760 69 2100 170/15G24 RMK AO2 PK WND 19027/0721 SLP130 T01390083 $
13962KABI ABI20160228015511202/28/16 01:55:31  5-MIN KABI 280755Z 17017G23KT 10SM CLR 13/08 A2996 1760 71 2000 170/17G23 RMK AO2 T01330083 $
13962KABI ABI20160228020011202/28/16 02:00:31  5-MIN KABI 280800Z 18017G24KT 10SM CLR 13/08 A2995 1760 71 2000 170/17G24 RMK AO2 T01330083 $
13962KABI ABI20160228020511202/28/16 02:05:31  5-MIN KABI 280805Z 17017G24KT 10SM CLR 13/08 A2995 1760 71 2000 170/17G24 RMK AO2 T01330083 $
13962KABI ABI20160228021011202/28/16 02:10:31  5-MIN KABI 280810Z 17019G24KT 10SM CLR 13/08 A2995 1760 71 2000 170/19G24 RMK AO2 T01330083 $
13962KABI ABI20160228021511202/28/16 02:15:31  5-MIN KABI 280815Z 17016G24KT 10SM CLR 13/08 A2995 1760 71 2000 170/16G24 RMK AO2 T01330083 $
13962KABI ABI20160228022011202/28/16 02:20:31  5-MIN KABI 280820Z 17014G23KT 10SM CLR 13/08 A2995 1760 71 2000 170/14G23 RMK AO2 T01330083 $
13962KABI ABI20160228022510602/28/16 02:25:31  5-MIN KABI 280825Z 18013KT 10SM CLR 13/08 A2995 1760 71 2000 170/13 RMK AO2 T01330083 $
13962KABI ABI20160228023010602/28/16 02:30:31  5-MIN KABI 280830Z 17014KT 10SM CLR 13/08 A2995 1760 74 2000 170/14 RMK AO2 T01280083 $
13962KABI ABI20160228023510602/28/16 02:35:31  5-MIN KABI 280835Z 17011KT 10SM CLR 13/08 A2995 1770 74 2000 170/11 RMK AO2 T01280083 $
13962KABI ABI20160228024010602/28/16 02:40:31  5-MIN KABI 280840Z 17012KT 10SM CLR 13/08 A2995 1770 74 2000 170/12 RMK AO2 T01280083 $
13962KABI ABI20160228024511202/28/16 02:45:31  5-MIN KABI 280845Z 17012G19KT 10SM CLR 13/08 A2995 1770 74 2000 170/12G19 RMK AO2 T01280083 $
13962KABI ABI20160228025012502/28/16 02:50:31  5-MIN KABI 280850Z 18011G19KT 10SM CLR 13/08 A2995 1770 74 2000 170/11G19 RMK AO2 SLP125 T01280083 58009 $
13962KABI ABI20160228025511202/28/16 02:55:31  5-MIN KABI 280855Z 17014G19KT 10SM CLR 13/08 A2994 1770 74 2000 170/14G19 RMK AO2 T01280083 $
13962KABI ABI20160228030011202/28/16 03:00:31  5-MIN KABI 280900Z 17013G20KT 10SM CLR 13/08 A2994 1780 74 2000 170/13G20 RMK AO2 T01280083 $
13962KABI ABI20160228030511202/28/16 03:05:31  5-MIN KABI 280905Z 18014G22KT 10SM CLR 13/08 A2994 1780 74 2000 170/14G22 RMK AO2 T01280083 $
13962KABI ABI20160228031011202/28/16 03:10:31  5-MIN KABI 280910Z 18015G22KT 10SM CLR 13/09 A2993 1780 77 2000 180/15G22 RMK AO2 T01280089 $
13962KABI ABI20160228031511202/28/16 03:15:31  5-MIN KABI 280915Z 17011G20KT 10SM CLR 13/09 A2993 1780 77 2000 170/11G20 RMK AO2 T01280089 $
13962KABI ABI20160228032011202/28/16 03:20:31  5-MIN KABI 280920Z 17011G20KT 10SM CLR 13/09 A2993 1780 77 2000 170/11G20 RMK AO2 T01280089 $
13962KABI ABI20160228032511202/28/16 03:25:31  5-MIN KABI 280925Z 18013G20KT 10SM CLR 13/09 A2993 1790 77 2000 180/13G20 RMK AO2 T01280089 $
13962KABI ABI20160228033011202/28/16 03:30:31  5-MIN KABI 280930Z 18013G22KT 10SM CLR 13/09 A2992 1790 77 2000 170/13G22 RMK AO2 T01280089 $
13962KABI ABI20160228033511202/28/16 03:35:31  5-MIN KABI 280935Z 18014G22KT 10SM CLR 13/09 A2993 1790 77 2000 170/14G22 RMK AO2 T01280089 $
13962KABI ABI20160228034011202/28/16 03:40:31  5-MIN KABI 280940Z 19017G24KT 10SM CLR 13/09 A2992 1790 74 2000 180/17G24 RMK AO2 T01330089 $
13962KABI ABI20160228034511202/28/16 03:45:31  5-MIN KABI 280945Z 19016G24KT 10SM CLR 13/09 A2992 1790 77 2000 180/16G24 RMK AO2 T01280089 $
13962KABI ABI20160228035011902/28/16 03:50:31  5-MIN KABI 280950Z 19017G23KT 10SM CLR 13/09 A2992 1790 77 2000 180/17G23 RMK AO2 SLP115 T01280089 $
13962KABI ABI20160228035511202/28/16 03:55:31  5-MIN KABI 280955Z 19013G23KT 10SM CLR 13/09 A2992 1800 77 2000 180/13G23 RMK AO2 T01280089 $
13962KABI ABI20160228040011202/28/16 04:00:31  5-MIN KABI 281000Z 18013G21KT 10SM CLR 13/09 A2991 1800 77 2000 180/13G21 RMK AO2 T01280089 $
13962KABI ABI20160228040511202/28/16 04:05:31  5-MIN KABI 281005Z 19016G23KT 10SM CLR 13/09 A2991 1800 77 2000 180/16G23 RMK AO2 T01280089 $
13962KABI ABI20160228041013002/28/16 04:10:31  5-MIN KABI 281010Z 19016G27KT 10SM CLR 13/09 A2991 1800 77 2000 180/16G27 RMK AO2 PK WND 18027/1010 T01280089 $
13962KABI ABI20160228041513002/28/16 04:15:31  5-MIN KABI 281015Z 19018G27KT 10SM CLR 13/09 A2991 1800 77 2000 190/18G27 RMK AO2 PK WND 18027/1010 T01280089 $
13962KABI ABI20160228042013002/28/16 04:20:31  5-MIN KABI 281020Z 19020G28KT 10SM CLR 13/09 A2991 1810 80 2000 190/20G28 RMK AO2 PK WND 20028/1017 T01280094 $
13962KABI ABI20160228042513002/28/16 04:25:31  5-MIN KABI 281025Z 19019G28KT 10SM CLR 13/09 A2990 1810 80 2000 190/19G28 RMK AO2 PK WND 20028/1017 T01280094 $
13962KABI ABI20160228043013002/28/16 04:30:31  5-MIN KABI 281030Z 20017G29KT 10SM CLR 13/09 A2990 1810 80 2000 190/17G29 RMK AO2 PK WND 20029/1027 T01280094 $
13962KABI ABI20160228043513002/28/16 04:35:31  5-MIN KABI 281035Z 19018G31KT 10SM CLR 13/09 A2990 1810 80 2000 190/18G31 RMK AO2 PK WND 20031/1032 T01280094 $
13962KABI ABI20160228044013002/28/16 04:40:31  5-MIN KABI 281040Z 20020G31KT 10SM CLR 13/09 A2990 1820 80 2000 190/20G31 RMK AO2 PK WND 20031/1032 T01280094 $
13962KABI ABI20160228044513002/28/16 04:45:31  5-MIN KABI 281045Z 20022G31KT 10SM CLR 13/09 A2990 1810 77 2100 190/22G31 RMK AO2 PK WND 19031/1041 T01330094 $
13962KABI ABI20160228045013702/28/16 04:50:31  5-MIN KABI 281050Z 20021G31KT 10SM CLR 13/10 A2990 1810 80 2100 190/21G31 RMK AO2 PK WND 20031/1046 SLP108 T01330100 $
13962KABI ABI20160228045513002/28/16 04:55:31  5-MIN KABI 281055Z 20022G31KT 10SM CLR 13/09 A2990 1810 80 2000 190/22G31 RMK AO2 PK WND 20028/1055 T01280094 $
13962KABI ABI20160228050013002/28/16 05:00:31  5-MIN KABI 281100Z 20019G32KT 10SM CLR 13/10 A2990 1810 83 2000 200/19G32 RMK AO2 PK WND 20032/1058 T01280100 $
13962KABI ABI20160228050513002/28/16 05:05:31  5-MIN KABI 281105Z 21021G32KT 10SM CLR 13/10 A2990 1820 83 2000 200/21G32 RMK AO2 PK WND 20032/1058 T01280100 $
13962KABI ABI20160228051013002/28/16 05:10:31  5-MIN KABI 281110Z 21022G30KT 10SM CLR 13/10 A2989 1820 83 2000 200/22G30 RMK AO2 PK WND 20032/1058 T01280100 $
13962KABI ABI20160228051513002/28/16 05:15:31  5-MIN KABI 281115Z 20024G30KT 10SM CLR 13/10 A2989 1820 83 2000 200/24G30 RMK AO2 PK WND 20032/1058 T01280100 $
13962KABI ABI20160228052013002/28/16 05:20:31  5-MIN KABI 281120Z 20024G31KT 10SM CLR 13/10 A2989 1820 83 2000 190/24G31 RMK AO2 PK WND 20032/1058 T01280100 $
13962KABI ABI20160228052513002/28/16 05:25:31  5-MIN KABI 281125Z 20026G34KT 10SM CLR 13/10 A2989 1820 83 2000 200/26G34 RMK AO2 PK WND 20034/1125 T01280100 $
13962KABI ABI20160228053013002/28/16 05:30:31  5-MIN KABI 281130Z 20020G39KT 10SM CLR 13/10 A2989 1820 80 2100 200/20G39 RMK AO2 PK WND 20039/1126 T01330100 $
13962KABI ABI20160228053513002/28/16 05:35:31  5-MIN KABI 281135Z 20024G39KT 10SM CLR 13/10 A2989 1820 83 2000 200/24G39 RMK AO2 PK WND 20039/1126 T01280100 $
13962KABI ABI20160228054013002/28/16 05:40:31  5-MIN KABI 281140Z 20022G35KT 10SM CLR 13/10 A2989 1820 80 2100 200/22G35 RMK AO2 PK WND 20039/1126 T01330100 $
13962KABI ABI20160228054513002/28/16 05:45:31  5-MIN KABI 281145Z 21024G36KT 10SM CLR 13/10 A2989 1820 80 2100 200/24G36 RMK AO2 PK WND 20039/1126 T01330100 $
13962KABI ABI20160228055015502/28/16 05:50:31  5-MIN KABI 281150Z 21025G36KT 10SM CLR 13/10 A2990 1820 80 2100 200/25G36 RMK AO2 PK WND 20039/1126 SLP107 T01330100 10150 20128 56015 $
13962KABI ABI20160228055513002/28/16 05:55:31  5-MIN KABI 281155Z 21022G35KT 10SM CLR 13/10 A2990 1820 80 2100 200/22G35 RMK AO2 PK WND 20031/1155 T01330100 $
13962KABI ABI20160228060013002/28/16 06:00:31  5-MIN KABI 281200Z 20022G35KT 10SM CLR 13/10 A2990 1820 80 2100 200/22G35 RMK AO2 PK WND 20035/1156 T01330100 $
13962KABI ABI20160228060513002/28/16 06:05:31  5-MIN KABI 281205Z 21021G35KT 10SM CLR 13/10 A2990 1820 80 2100 200/21G35 RMK AO2 PK WND 20035/1156 T01330100 $
13962KABI ABI20160228061013002/28/16 06:10:31  5-MIN KABI 281210Z 21023G32KT 10SM CLR 13/10 A2990 1810 80 2100 200/23G32 RMK AO2 PK WND 20035/1156 T01330100 $
13962KABI ABI20160228061513002/28/16 06:15:31  5-MIN KABI 281215Z 20021G32KT 10SM CLR 13/10 A2990 1810 80 2100 200/21G32 RMK AO2 PK WND 20035/1156 T01330100 $
13962KABI ABI20160228062013002/28/16 06:20:31  5-MIN KABI 281220Z 20021G30KT 10SM CLR 13/10 A2990 1810 80 2100 200/21G30 RMK AO2 PK WND 20035/1156 T01330100 $
13962KABI ABI20160228062513002/28/16 06:25:31  5-MIN KABI 281225Z 20024G33KT 10SM CLR 13/10 A2990 1810 80 2100 200/24G33 RMK AO2 PK WND 20035/1156 T01330100 $
13962KABI ABI20160228063013002/28/16 06:30:31  5-MIN KABI 281230Z 20018G33KT 10SM CLR 13/10 A2990 1810 80 2100 200/18G33 RMK AO2 PK WND 20035/1156 T01330100 $
13962KABI ABI20160228063513002/28/16 06:35:31  5-MIN KABI 281235Z 20021G28KT 10SM CLR 13/10 A2990 1810 80 2100 200/21G28 RMK AO2 PK WND 20035/1156 T01330100 $
13962KABI ABI20160228094513702/28/16 09:45:31  5-MIN KABI 281545Z 26013G20KT 10SM CLR 17/11 A3000 1720 69 2300 250/13G20 RMK AO2 PK WND 21034/1515 PRESRR T01670111 $
13962KABI ABI20160228095014402/28/16 09:50:31  5-MIN KABI 281550Z 25012G20KT 10SM CLR 17/11 A3001 1710 69 2300 250/12G20 RMK AO2 PK WND 21034/1515 PRESRR SLP149 T01670111 $
13962KABI ABI20160228095511502/28/16 09:55:31  5-MIN KABI 281555Z 26013G20KT 10SM FEW021 17/11 A3001 1710 69 2300 260/13G20 RMK AO2 T01670111 $
13962KABI ABI20160228100011502/28/16 10:00:31  5-MIN KABI 281600Z 24011G21KT 10SM FEW021 17/11 A3002 1700 69 2300 240/11G21 RMK AO2 T01670111 $
13962KABI ABI20160228100511502/28/16 10:05:31  5-MIN KABI 281605Z 25012G21KT 10SM FEW021 17/11 A3001 1710 67 2400 240/12G21 RMK AO2 T01720111 $
13962KABI ABI20160228101011502/28/16 10:10:31  5-MIN KABI 281610Z 23011G18KT 10SM FEW021 17/11 A3001 1710 67 2400 230/11G18 RMK AO2 T01720111 $
13962KABI ABI20160228101510602/28/16 10:15:31  5-MIN KABI 281615Z 24009KT 10SM CLR 17/11 A3001 1710 67 2400 230/09 RMK AO2 T01720111 $
13962KABI ABI20160228102010902/28/16 10:20:31  5-MIN KABI 281620Z 24011KT 10SM FEW022 18/12 A3001 1710 67 2500 230/11 RMK AO2 T01780117 $
13962KABI ABI20160228102510902/28/16 10:25:31  5-MIN KABI 281625Z 24009KT 10SM FEW024 18/11 A3001 1710 64 2500 240/09 RMK AO2 T01780111 $
13962KABI ABI20160228103010602/28/16 10:30:31  5-MIN KABI 281630Z 27010KT 10SM CLR 18/11 A3001 1710 62 2500 260/10 RMK AO2 T01830111 $
13962KABI ABI20160228103510602/28/16 10:35:31  5-MIN KABI 281635Z 25010KT 10SM CLR 18/11 A3001 1710 64 2500 250/10 RMK AO2 T01780111 $
13962KABI ABI20160228104010602/28/16 10:40:31  5-MIN KABI 281640Z 26011KT 10SM CLR 18/11 A3001 1710 62 2500 260/11 RMK AO2 T01830111 $
13962KABI ABI20160228104510902/28/16 10:45:31  5-MIN KABI 281645Z 26015KT 10SM FEW030 19/11 A3001 1710 60 2600 260/15 RMK AO2 T01890111 $
13962KABI ABI20160228105011602/28/16 10:50:31  5-MIN KABI 281650Z 28013KT 10SM FEW030 19/11 A3001 1710 60 2600 280/13 RMK AO2 SLP147 T01890111 $
13962KABI ABI20160228105511202/28/16 10:55:31  5-MIN KABI 281655Z 28008G18KT 10SM CLR 19/11 A3001 1710 60 2600 280/08G18 RMK AO2 T01890111 $
13962KABI ABI20160228110011202/28/16 11:00:31  5-MIN KABI 281700Z 26007G15KT 10SM CLR 19/11 A3001 1710 60 2600 260/07G15 RMK AO2 T01890111 $
13962KABI ABI20160228110511202/28/16 11:05:31  5-MIN KABI 281705Z 26011G15KT 10SM CLR 19/12 A3001 1710 60 2700 250/11G15 RMK AO2 T01940117 $
13962KABI ABI20160228111010602/28/16 11:10:31  5-MIN KABI 281710Z 27011KT 10SM CLR 19/11 A3001 1710 58 2700 270/11 RMK AO2 T01940111 $
13962KABI ABI20160228111510602/28/16 11:15:31  5-MIN KABI 281715Z 30010KT 10SM CLR 20/12 A3001 1710 58 2700 290/10 RMK AO2 T02000117 $
13962KABI ABI20160228112011202/28/16 11:20:31  5-MIN KABI 281720Z 27006G15KT 10SM CLR 19/11 A3001 1710 58 2700 260/06G15 RMK AO2 T01940111 $
13962KABI ABI20160228112510602/28/16 11:25:31  5-MIN KABI 281725Z 28007KT 10SM CLR 19/11 A3000 1720 58 2700 270/07 RMK AO2 T01940111 $
13962KABI ABI20160228113011202/28/16 11:30:31  5-MIN KABI 281730Z 28009G14KT 10SM CLR 20/11 A3001 1710 56 2700 280/09G14 RMK AO2 T02000111 $
13962KABI ABI20160228113510602/28/16 11:35:31  5-MIN KABI 281735Z 28008KT 10SM CLR 20/11 A3001 1710 56 2700 270/08 RMK AO2 T02000111 $
13962KABI ABI20160228114010902/28/16 11:40:31  5-MIN KABI 281740Z 28013KT 10SM FEW038 21/11 A3001 1710 54 2800 270/13 RMK AO2 T02060111 $
13962KABI ABI20160228114510902/28/16 11:45:31  5-MIN KABI 281745Z 29011KT 10SM FEW038 21/11 A3000 1710 52 2800 290/11 RMK AO2 T02060106 $
13962KABI ABI20160228115013402/28/16 11:50:31  5-MIN KABI 281750Z 29011KT 10SM FEW037 21/11 A3000 1720 52 2800 290/11 RMK AO2 SLP144 T02060106 10206 20133 51012 $
13962KABI ABI20160228115511202/28/16 11:55:31  5-MIN KABI 281755Z 30009G18KT 10SM CLR 21/10 A3000 1720 50 2800 290/09G18 RMK AO2 T02060100 $
13962KABI ABI20160228120012802/28/16 12:00:31  5-MIN KABI 281800Z 31010G18KT 270V330 10SM CLR 21/10 A3000 1720 50 2800 300/10G18 270V330 RMK AO2 T02060100 $
13962KABI ABI20160228120510602/28/16 12:05:31  5-MIN KABI 281805Z 27010KT 10SM CLR 21/10 A3000 1720 48 2900 270/10 RMK AO2 T02110100 $
13962KABI ABI20160228121010602/28/16 12:10:31  5-MIN KABI 281810Z 30009KT 10SM CLR 21/11 A3000 1720 52 2800 290/09 RMK AO2 T02060106 $
13962KABI ABI20160228121511202/28/16 12:15:31  5-MIN KABI 281815Z 31010G17KT 10SM CLR 21/11 A3000 1720 50 2900 310/10G17 RMK AO2 T02110106 $
13962KABI ABI20160228122012202/28/16 12:20:31  5-MIN KABI 281820Z 31007KT 260V320 10SM CLR 21/10 A3000 1720 48 2900 300/07 260V320 RMK AO2 T02110100 $
13962KABI ABI20160228122511202/28/16 12:25:31  5-MIN KABI 281825Z 32010G16KT 10SM CLR 21/09 A3000 1720 47 2900 320/10G16 RMK AO2 T02110094 $
13962KABI ABI20160228123011202/28/16 12:30:31  5-MIN KABI 281830Z 30007G16KT 10SM CLR 21/09 A3000 1720 47 2900 290/07G16 RMK AO2 T02110094 $
13962KABI ABI20160228123510602/28/16 12:35:31  5-MIN KABI 281835Z 27011KT 10SM CLR 21/09 A2999 1730 47 2900 270/11 RMK AO2 T02110094 $
13962KABI ABI20160228124010602/28/16 12:40:31  5-MIN KABI 281840Z 33009KT 10SM CLR 22/08 A2999 1730 42 2900 320/09 RMK AO2 T02170083 $
13962KABI ABI20160228124510602/28/16 12:45:31  5-MIN KABI 281845Z 34008KT 10SM CLR 22/08 A2999 1730 42 2900 330/08 RMK AO2 T02170083 $
13962KABI ABI20160228125011302/28/16 12:50:31  5-MIN KABI 281850Z 33010KT 10SM CLR 22/09 A2999 1730 43 2900 320/10 RMK AO2 SLP140 T02170089 $
13962KABI ABI20160228125510602/28/16 12:55:31  5-MIN KABI 281855Z 32013KT 10SM CLR 22/08 A2999 1730 42 2900 320/13 RMK AO2 T02170083 $
13962KABI ABI20160228130010602/28/16 13:00:31  5-MIN KABI 281900Z 32010KT 10SM CLR 21/08 A2999 1730 42 2900 310/10 RMK AO2 T02110078 $
13962KABI ABI20160228130510602/28/16 13:05:31  5-MIN KABI 281905Z 30008KT 10SM CLR 22/08 A2999 1730 40 2900 300/08 RMK AO2 T02170078 $
13962KABI ABI20160228131011202/28/16 13:10:31  5-MIN KABI 281910Z 32010G16KT 10SM CLR 22/08 A2999 1730 40 2900 320/10G16 RMK AO2 T02170078 $
13962KABI ABI20160228131512802/28/16 13:15:31  5-MIN KABI 281915Z 32008G16KT 290V360 10SM CLR 22/08 A2999 1730 40 2900 320/08G16 290V360 RMK AO2 T02170078 $
13962KABI ABI20160228132011202/28/16 13:20:31  5-MIN KABI 281920Z 33009G17KT 10SM CLR 22/08 A2999 1730 40 2900 330/09G17 RMK AO2 T02170078 $
13962KABI ABI20160228132510602/28/16 13:25:31  5-MIN KABI 281925Z 31008KT 10SM CLR 22/08 A2999 1730 39 3000 310/08 RMK AO2 T02220078 $
13962KABI ABI20160228133011202/28/16 13:30:31  5-MIN KABI 281930Z 34007G15KT 10SM CLR 22/07 A2998 1730 37 3000 330/07G15 RMK AO2 T02220072 $
13962KABI ABI20160228133511202/28/16 13:35:31  5-MIN KABI 281935Z 33011G17KT 10SM CLR 22/06 A2998 1740 35 3000 330/11G17 RMK AO2 T02220061 $
13962KABI ABI20160228134011202/28/16 13:40:31  5-MIN KABI 281940Z 35010G17KT 10SM CLR 22/07 A2998 1740 36 3000 340/10G17 RMK AO2 T02220067 $
13962KABI ABI20160228134511202/28/16 13:45:31  5-MIN KABI 281945Z 35010G20KT 10SM CLR 22/07 A2998 1740 36 3000 350/10G20 RMK AO2 T02220067 $
13962KABI ABI20160228135011902/28/16 13:50:31  5-MIN KABI 281950Z 01007G20KT 10SM CLR 22/06 A2998 1740 35 3000 360/07G20 RMK AO2 SLP135 T02220061 $
13962KABI ABI20160228135511202/28/16 13:55:31  5-MIN KABI 281955Z 36010G15KT 10SM CLR 22/04 A2998 1740 31 3000 360/10G15 RMK AO2 T02220044 $
13962KABI ABI20160228140010602/28/16 14:00:31  5-MIN KABI 282000Z 35009KT 10SM CLR 23/06 A2998 1740 33 3100 340/09 RMK AO2 T02280061 $
13962KABI ABI20160228140511202/28/16 14:05:31  5-MIN KABI 282005Z 36013G18KT 10SM CLR 23/06 A2998 1740 32 3100 350/13G18 RMK AO2 T02280056 $
13962KABI ABI20160228141011202/28/16 14:10:31  5-MIN KABI 282010Z 36012G18KT 10SM CLR 23/06 A2998 1740 32 3100 350/12G18 RMK AO2 T02280056 $
13962KABI ABI20160228141510602/28/16 14:15:31  5-MIN KABI 282015Z 35011KT 10SM CLR 23/05 A2998 1740 31 3100 340/11 RMK AO2 T02280050 $
13962KABI ABI20160228142011202/28/16 14:20:31  5-MIN KABI 282020Z 36014G20KT 10SM CLR 23/05 A2998 1740 31 3100 350/14G20 RMK AO2 T02280050 $
13962KABI ABI20160228142511202/28/16 14:25:31  5-MIN KABI 282025Z 02009G20KT 10SM CLR 23/04 A2998 1740 28 3100 020/09G20 RMK AO2 T02330039 $
13962KABI ABI20160228143010602/28/16 14:30:31  5-MIN KABI 282030Z 02008KT 10SM CLR 23/04 A2998 1740 29 3100 010/08 RMK AO2 T02330044 $
13962KABI ABI20160228143510602/28/16 14:35:31  5-MIN KABI 282035Z 02007KT 10SM CLR 23/04 A2997 1740 29 3100 010/07 RMK AO2 T02330044 $
13962KABI ABI20160228144010602/28/16 14:40:31  5-MIN KABI 282040Z 36008KT 10SM CLR 23/04 A2997 1740 29 3100 360/08 RMK AO2 T02330044 $
13962KABI ABI20160228144510602/28/16 14:45:31  5-MIN KABI 282045Z 02009KT 10SM CLR 23/04 A2997 1750 28 3100 010/09 RMK AO2 T02330039 $
13962KABI ABI20160228145011902/28/16 14:50:31  5-MIN KABI 282050Z 01009KT 10SM CLR 24/04 A2997 1740 27 3200 010/09 RMK AO2 SLP133 T02390039 50024 $
13962KABI ABI20160228145510602/28/16 14:55:31  5-MIN KABI 282055Z 01008KT 10SM CLR 24/04 A2997 1740 27 3200 010/08 RMK AO2 T02390039 $
13962KABI ABI20160228150011202/28/16 15:00:31  5-MIN KABI 282100Z 01011G15KT 10SM CLR 24/03 A2997 1740 26 3200 360/11G15 RMK AO2 T02390033 $
13962KABI ABI20160228150511202/28/16 15:05:31  5-MIN KABI 282105Z 36011G16KT 10SM CLR 24/03 A2998 1740 25 3200 350/11G16 RMK AO2 T02390028 $
13962KABI ABI20160228151010602/28/16 15:10:31  5-MIN KABI 282110Z 36014KT 10SM CLR 23/03 A2997 1740 25 3100 360/14 RMK AO2 T02330028 $
13962KABI ABI20160228151511202/28/16 15:15:31  5-MIN KABI 282115Z 02010G19KT 10SM CLR 23/03 A2998 1740 25 3100 010/10G19 RMK AO2 T02330028 $
13962KABI ABI20160228152012202/28/16 15:20:31  5-MIN KABI 282120Z 03007KT 360V060 10SM CLR 24/03 A2998 1740 25 3200 030/07 360V060 RMK AO2 T02390028 $
13962KABI ABI20160228152510602/28/16 15:25:31  5-MIN KABI 282125Z 03008KT 10SM CLR 24/03 A2998 1740 25 3200 030/08 RMK AO2 T02390028 $
13962KABI ABI20160228153010602/28/16 15:30:31  5-MIN KABI 282130Z 35010KT 10SM CLR 24/03 A2998 1740 26 3200 350/10 RMK AO2 T02390033 $
13962KABI ABI20160228153510602/28/16 15:35:31  5-MIN KABI 282135Z 01008KT 10SM CLR 23/02 A2998 1740 24 3100 010/08 RMK AO2 T02330022 $
13962KABI ABI20160228154011202/28/16 15:40:31  5-MIN KABI 282140Z 01015G18KT 10SM CLR 24/03 A2998 1740 25 3200 360/15G18 RMK AO2 T02390028 $
13962KABI ABI20160228154511202/28/16 15:45:31  5-MIN KABI 282145Z 03011G18KT 10SM CLR 24/02 A2998 1740 23 3200 020/11G18 RMK AO2 T02390017 $
13962KABI ABI20160228155011902/28/16 15:50:31  5-MIN KABI 282150Z 01010G17KT 10SM CLR 23/01 A2998 1740 23 3100 360/10G17 RMK AO2 SLP134 T02330011 $
13962KABI ABI20160228155511202/28/16 15:55:31  5-MIN KABI 282155Z 03009G17KT 10SM CLR 24/02 A2998 1740 23 3200 030/09G17 RMK AO2 T02390017 $
13962KABI ABI20160228160011202/28/16 16:00:31  5-MIN KABI 282200Z 04010G16KT 10SM CLR 24/01 A2998 1740 22 3200 030/10G16 RMK AO2 T02390011 $
13962KABI ABI20160228160511202/28/16 16:05:31  5-MIN KABI 282205Z 03009G17KT 10SM CLR 24/02 A2998 1740 23 3200 030/09G17 RMK AO2 T02390017 $
13962KABI ABI20160228161011202/28/16 16:10:31  5-MIN KABI 282210Z 01008G17KT 10SM CLR 24/02 A2998 1740 23 3200 010/08G17 RMK AO2 T02390017 $
13962KABI ABI20160228161510602/28/16 16:15:31  5-MIN KABI 282215Z 02012KT 10SM CLR 24/01 A2998 1740 22 3200 020/12 RMK AO2 T02390011 $
13962KABI ABI20160228162010602/28/16 16:20:31  5-MIN KABI 282220Z 03010KT 10SM CLR 24/01 A2998 1740 22 3200 030/10 RMK AO2 T02390011 $
13962KABI ABI20160228162510602/28/16 16:25:31  5-MIN KABI 282225Z 04009KT 10SM CLR 23/01 A2998 1740 23 3100 030/09 RMK AO2 T02330011 $
13962KABI ABI20160228163011202/28/16 16:30:31  5-MIN KABI 282230Z 04009G16KT 10SM CLR 24/02 A2998 1740 23 3200 030/09G16 RMK AO2 T02390017 $
13962KABI ABI20160228163512202/28/16 16:35:31  5-MIN KABI 282235Z 05008KT 010V080 10SM CLR 24/02 A2998 1740 23 3200 040/08 010V080 RMK AO2 T02390017 $
13962KABI ABI20160228164011202/28/16 16:40:31  5-MIN KABI 282240Z 03012G16KT 10SM CLR 24/02 A2998 1740 23 3200 020/12G16 RMK AO2 T02390017 $
13962KABI ABI20160228164511202/28/16 16:45:31  5-MIN KABI 282245Z 02011G16KT 10SM CLR 24/02 A2998 1740 23 3200 010/11G16 RMK AO2 T02390017 $
13962KABI ABI20160228165011302/28/16 16:50:31  5-MIN KABI 282250Z 02009KT 10SM CLR 23/01 A2998 1730 23 3100 020/09 RMK AO2 SLP136 T02330011 $
13962KABI ABI20160228165510602/28/16 16:55:31  5-MIN KABI 282255Z 02010KT 10SM CLR 23/01 A2998 1730 22 3100 020/10 RMK AO2 T02330006 $
13962KABI ABI20160228170010602/28/16 17:00:31  5-MIN KABI 282300Z 03009KT 10SM CLR 23/01 A2999 1730 22 3100 020/09 RMK AO2 T02330006 $
13962KABI ABI20160228170510602/28/16 17:05:31  5-MIN KABI 282305Z 01007KT 10SM CLR 23/01 A2999 1730 22 3100 360/07 RMK AO2 T02330006 $
13962KABI ABI20160228171010602/28/16 17:10:31  5-MIN KABI 282310Z 01013KT 10SM CLR 23/01 A2999 1730 22 3100 360/13 RMK AO2 T02330006 $
13962KABI ABI20160228171510602/28/16 17:15:31  5-MIN KABI 282315Z 02009KT 10SM CLR 23/00 A2999 1730 21 3100 010/09 RMK AO2 T02330000 $
13962KABI ABI20160228172010602/28/16 17:20:31  5-MIN KABI 282320Z 02010KT 10SM CLR 23/00 A2999 1720 21 3100 010/10 RMK AO2 T02330000 $
13962KABI ABI20160228172510602/28/16 17:25:31  5-MIN KABI 282325Z 02009KT 10SM CLR 23/01 A3000 1720 22 3100 010/09 RMK AO2 T02330006 $
13962KABI ABI20160228173010602/28/16 17:30:31  5-MIN KABI 282330Z 02008KT 10SM CLR 23/01 A3000 1720 22 3100 020/08 RMK AO2 T02280006 $
13962KABI ABI20160228173510602/28/16 17:35:31  5-MIN KABI 282335Z 02009KT 10SM CLR 23/01 A3000 1720 22 3100 020/09 RMK AO2 T02280006 $
13962KABI ABI20160228174010602/28/16 17:40:31  5-MIN KABI 282340Z 03009KT 10SM CLR 23/00 A3000 1720 22 3100 020/09 RMK AO2 T02280000 $
13962KABI ABI20160228174510702/28/16 17:45:31  5-MIN KABI 282345Z 04008KT 10SM CLR 22/M01 A3000 1720 21 3000 040/08 RMK AO2 T02221011 $
13962KABI ABI20160228175013202/28/16 17:50:31  5-MIN KABI 282350Z 04007KT 10SM CLR 22/M01 A3000 1720 21 3000 040/07 RMK AO2 SLP144 T02221011 10239 20206 56009 $
13962KABI ABI20160228175510702/28/16 17:55:31  5-MIN KABI 282355Z 04007KT 10SM CLR 22/M01 A3001 1710 21 3000 040/07 RMK AO2 T02221011 $
13962KABI ABI20160228180010702/28/16 18:00:31  5-MIN KABI 290000Z 04007KT 10SM CLR 22/M01 A3001 1710 21 3000 040/07 RMK AO2 T02221011 $
13962KABI ABI20160228180510702/28/16 18:05:31  5-MIN KABI 290005Z 04008KT 10SM CLR 22/M01 A3001 1710 22 2900 040/08 RMK AO2 T02171006 $
13962KABI ABI20160228181010702/28/16 18:10:31  5-MIN KABI 290010Z 04006KT 10SM CLR 22/M01 A3001 1710 21 2900 040/06 RMK AO2 T02171011 $
13962KABI ABI20160228181510702/28/16 18:15:31  5-MIN KABI 290015Z 04005KT 10SM CLR 21/M01 A3002 1700 23 2800 040/05 RMK AO2 T02111006 $
13962KABI ABI20160228182010702/28/16 18:20:31  5-MIN KABI 290020Z 04005KT 10SM CLR 21/M01 A3002 1700 23 2800 040/05 RMK AO2 T02111006 $
13962KABI ABI20160228182510702/28/16 18:25:31  5-MIN KABI 290025Z 03005KT 10SM CLR 21/M01 A3002 1700 24 2800 030/05 RMK AO2 T02061006 $
13962KABI ABI20160228183010602/28/16 18:30:31  5-MIN KABI 290030Z 02004KT 10SM CLR 21/00 A3003 1700 25 2800 010/04 RMK AO2 T02060000 $
13962KABI ABI20160228183510602/28/16 18:35:31  5-MIN KABI 290035Z 01004KT 10SM CLR 20/00 A3003 1690 26 2700 010/04 RMK AO2 T02000000 $
13962KABI ABI20160228184010602/28/16 18:40:31  5-MIN KABI 290040Z 01005KT 10SM CLR 19/00 A3003 1690 27 2600 360/05 RMK AO2 T01940000 $
13962KABI ABI20160228184510602/28/16 18:45:31  5-MIN KABI 290045Z 01005KT 10SM CLR 19/01 A3003 1690 28 2600 360/05 RMK AO2 T01940006 $
13962KABI ABI20160228185011302/28/16 18:50:31  5-MIN KABI 290050Z 01005KT 10SM CLR 19/01 A3004 1690 29 2600 360/05 RMK AO2 SLP157 T01890006 $
13962KABI ABI20160228185510602/28/16 18:55:31  5-MIN KABI 290055Z 02005KT 10SM CLR 19/01 A3004 1680 29 2600 010/05 RMK AO2 T01890006 $
13962KABI ABI20160228190010602/28/16 19:00:31  5-MIN KABI 290100Z 01005KT 10SM CLR 18/01 A3004 1680 31 2500 010/05 RMK AO2 T01830011 $
13962KABI ABI20160228190510602/28/16 19:05:31  5-MIN KABI 290105Z 01005KT 10SM CLR 18/01 A3004 1680 31 2500 360/05 RMK AO2 T01830011 $
13962KABI ABI20160228191010602/28/16 19:10:31  5-MIN KABI 290110Z 01005KT 10SM CLR 18/01 A3004 1680 32 2400 360/05 RMK AO2 T01780011 $
13962KABI ABI20160228191510602/28/16 19:15:31  5-MIN KABI 290115Z 01005KT 10SM CLR 18/02 A3004 1680 33 2400 010/05 RMK AO2 T01780017 $
13962KABI ABI20160228192010602/28/16 19:20:31  5-MIN KABI 290120Z 01004KT 10SM CLR 18/02 A3005 1680 33 2400 010/04 RMK AO2 T01780017 $
13962KABI ABI20160228192510602/28/16 19:25:31  5-MIN KABI 290125Z 36005KT 10SM CLR 17/02 A3005 1670 35 2400 360/05 RMK AO2 T01720017 $
13962KABI ABI20160228193010602/28/16 19:30:31  5-MIN KABI 290130Z 36005KT 10SM CLR 17/02 A3005 1670 36 2300 360/05 RMK AO2 T01670017 $
13962KABI ABI20160228193510602/28/16 19:35:31  5-MIN KABI 290135Z 01005KT 10SM CLR 17/02 A3006 1670 36 2300 010/05 RMK AO2 T01670017 $
13962KABI ABI20160228194010602/28/16 19:40:31  5-MIN KABI 290140Z 02005KT 10SM CLR 17/02 A3006 1670 36 2300 020/05 RMK AO2 T01670017 $
13962KABI ABI20160228194510602/28/16 19:45:31  5-MIN KABI 290145Z 03004KT 10SM CLR 17/02 A3006 1670 36 2300 020/04 RMK AO2 T01670017 $
13962KABI ABI20160228195011302/28/16 19:50:31  5-MIN KABI 290150Z 03005KT 10SM CLR 17/02 A3006 1660 36 2300 020/05 RMK AO2 SLP166 T01670017 $
13962KABI ABI20160228195510602/28/16 19:55:31  5-MIN KABI 290155Z 03005KT 10SM CLR 17/02 A3006 1660 36 2300 030/05 RMK AO2 T01670017 $
13962KABI ABI20160228200010602/28/16 20:00:31  5-MIN KABI 290200Z 03005KT 10SM CLR 17/01 A3006 1660 34 2300 030/05 RMK AO2 T01670011 $
13962KABI ABI20160228200510602/28/16 20:05:31  5-MIN KABI 290205Z 04005KT 10SM CLR 17/01 A3006 1660 34 2300 030/05 RMK AO2 T01670011 $
13962KABI ABI20160228201010602/28/16 20:10:31  5-MIN KABI 290210Z 04004KT 10SM CLR 17/01 A3007 1660 34 2300 030/04 RMK AO2 T01670011 $
13962KABI ABI20160228201510602/28/16 20:15:31  5-MIN KABI 290215Z 03004KT 10SM CLR 17/01 A3007 1650 34 2300 030/04 RMK AO2 T01670011 $
13962KABI ABI20160228202010602/28/16 20:20:31  5-MIN KABI 290220Z 04004KT 10SM CLR 17/01 A3007 1650 34 2300 040/04 RMK AO2 T01670011 $
13962KABI ABI20160228202510602/28/16 20:25:31  5-MIN KABI 290225Z 04004KT 10SM CLR 17/01 A3007 1650 34 2300 040/04 RMK AO2 T01670011 $
13962KABI ABI20160228203010602/28/16 20:30:31  5-MIN KABI 290230Z 05003KT 10SM CLR 17/01 A3008 1650 34 2300 040/03 RMK AO2 T01670011 $
13962KABI ABI20160228203510602/28/16 20:35:31  5-MIN KABI 290235Z 07004KT 10SM CLR 16/01 A3008 1650 36 2200 060/04 RMK AO2 T01610011 $
13962KABI ABI20160228204010602/28/16 20:40:31  5-MIN KABI 290240Z 08004KT 10SM CLR 16/01 A3008 1650 36 2200 070/04 RMK AO2 T01610011 $
13962KABI ABI20160228204510602/28/16 20:45:31  5-MIN KABI 290245Z 08005KT 10SM CLR 16/01 A3008 1650 36 2200 070/05 RMK AO2 T01610011 $
13962KABI ABI20160228205011902/28/16 20:50:31  5-MIN KABI 290250Z 09004KT 10SM CLR 16/01 A3008 1650 37 2100 080/04 RMK AO2 SLP173 T01560011 53010 $
13962KABI ABI20160228205510602/28/16 20:55:31  5-MIN KABI 290255Z 10003KT 10SM CLR 16/01 A3008 1640 37 2100 090/03 RMK AO2 T01560011 $
13962KABI ABI20160228210010602/28/16 21:00:31  5-MIN KABI 290300Z 08003KT 10SM CLR 14/02 A3008 1640 41 2000 080/03 RMK AO2 T01440017 $
13962KABI ABI20160228210510602/28/16 21:05:31  5-MIN KABI 290305Z 09003KT 10SM CLR 14/02 A3008 1640 43 1900 090/03 RMK AO2 T01390017 $
13962KABI ABI20160228211010602/28/16 21:10:31  5-MIN KABI 290310Z 08003KT 10SM CLR 14/02 A3009 1640 43 1900 080/03 RMK AO2 T01390017 $
13962KABI ABI20160228211510602/28/16 21:15:31  5-MIN KABI 290315Z 08004KT 10SM CLR 14/02 A3009 1640 43 1900 080/04 RMK AO2 T01390017 $
13962KABI ABI20160228212010602/28/16 21:20:31  5-MIN KABI 290320Z 08004KT 10SM CLR 14/02 A3009 1640 41 2000 080/04 RMK AO2 T01440017 $
13962KABI ABI20160228212510602/28/16 21:25:31  5-MIN KABI 290325Z 09004KT 10SM CLR 14/02 A3009 1630 41 2000 080/04 RMK AO2 T01440017 $
13962KABI ABI20160228213010602/28/16 21:30:31  5-MIN KABI 290330Z 09004KT 10SM CLR 14/01 A3009 1630 40 2000 090/04 RMK AO2 T01440011 $
13962KABI ABI20160228213510602/28/16 21:35:31  5-MIN KABI 290335Z 09005KT 10SM CLR 14/02 A3010 1630 41 2000 090/05 RMK AO2 T01440017 $
13962KABI ABI20160228214010602/28/16 21:40:31  5-MIN KABI 290340Z 10004KT 10SM CLR 14/02 A3010 1630 43 1900 090/04 RMK AO2 T01390017 $
13962KABI ABI20160228214510602/28/16 21:45:31  5-MIN KABI 290345Z 09004KT 10SM CLR 14/02 A3010 1630 43 1900 090/04 RMK AO2 T01390017 $
13962KABI ABI20160228215011302/28/16 21:50:31  5-MIN KABI 290350Z 09004KT 10SM CLR 14/02 A3010 1630 43 1900 090/04 RMK AO2 SLP180 T01390017 $
13962KABI ABI20160228215510602/28/16 21:55:31  5-MIN KABI 290355Z 10004KT 10SM CLR 13/02 A3010 1630 45 1800 090/04 RMK AO2 T01330017 $
13962KABI ABI20160228220010602/28/16 22:00:31  5-MIN KABI 290400Z 09004KT 10SM CLR 13/02 A3010 1630 45 1800 090/04 RMK AO2 T01330017 $
13962KABI ABI20160228220510602/28/16 22:05:31  5-MIN KABI 290405Z 09004KT 10SM CLR 13/02 A3010 1630 45 1800 090/04 RMK AO2 T01330017 $
13962KABI ABI20160228221010602/28/16 22:10:31  5-MIN KABI 290410Z 10004KT 10SM CLR 13/02 A3010 1630 46 1800 100/04 RMK AO2 T01330022 $
13962KABI ABI20160228221510602/28/16 22:15:31  5-MIN KABI 290415Z 10004KT 10SM CLR 13/02 A3010 1630 48 1800 100/04 RMK AO2 T01280022 $
13962KABI ABI20160228222010602/28/16 22:20:31  5-MIN KABI 290420Z 10004KT 10SM CLR 13/02 A3010 1630 46 1800 100/04 RMK AO2 T01330022 $
13962KABI ABI20160228222510602/28/16 22:25:31  5-MIN KABI 290425Z 10004KT 10SM CLR 13/02 A3010 1630 48 1800 100/04 RMK AO2 T01280022 $
13962KABI ABI20160228223010602/28/16 22:30:31  5-MIN KABI 290430Z 11004KT 10SM CLR 13/02 A3010 1630 48 1800 100/04 RMK AO2 T01280022 $
13962KABI ABI20160228223510602/28/16 22:35:31  5-MIN KABI 290435Z 10004KT 10SM CLR 13/02 A3010 1630 48 1800 100/04 RMK AO2 T01280022 $
13962KABI ABI20160228224010602/28/16 22:40:31  5-MIN KABI 290440Z 10004KT 10SM CLR 13/02 A3010 1630 48 1800 100/04 RMK AO2 T01280022 $
13962KABI ABI20160228224510602/28/16 22:45:31  5-MIN KABI 290445Z 10004KT 10SM CLR 13/02 A3010 1630 48 1800 090/04 RMK AO2 T01280022 $
13962KABI ABI20160228225011302/28/16 22:50:31  5-MIN KABI 290450Z 09005KT 10SM CLR 13/02 A3010 1630 48 1800 080/05 RMK AO2 SLP178 T01280022 $
13962KABI ABI20160228225510602/28/16 22:55:31  5-MIN KABI 290455Z 08005KT 10SM CLR 13/02 A3010 1630 48 1800 080/05 RMK AO2 T01280022 $
13962KABI ABI20160228230010602/28/16 23:00:31  5-MIN KABI 290500Z 09007KT 10SM CLR 13/02 A3010 1630 46 1900 080/07 RMK AO2 T01330022 $
13962KABI ABI20160228230510602/28/16 23:05:31  5-MIN KABI 290505Z 08006KT 10SM CLR 13/02 A3010 1630 46 1900 080/06 RMK AO2 T01330022 $
13962KABI ABI20160228231010602/28/16 23:10:31  5-MIN KABI 290510Z 08006KT 10SM CLR 13/02 A3010 1630 48 1800 080/06 RMK AO2 T01280022 $
13962KABI ABI20160228231510602/28/16 23:15:31  5-MIN KABI 290515Z 09005KT 10SM CLR 13/02 A3010 1630 48 1800 090/05 RMK AO2 T01280022 $
13962KABI ABI20160228232010602/28/16 23:20:31  5-MIN KABI 290520Z 10004KT 10SM CLR 12/03 A3010 1630 54 1700 090/04 RMK AO2 T01170028 $
13962KABI ABI20160228232510602/28/16 23:25:31  5-MIN KABI 290525Z 11003KT 10SM CLR 11/03 A3010 1630 56 1600 100/03 RMK AO2 T01110028 $
13962KABI ABI20160228233010602/28/16 23:30:31  5-MIN KABI 290530Z 12003KT 10SM CLR 11/02 A3010 1630 54 1600 110/03 RMK AO2 T01110022 $
13962KABI ABI20160228233510602/28/16 23:35:31  5-MIN KABI 290535Z 13003KT 10SM CLR 11/02 A3010 1630 54 1600 120/03 RMK AO2 T01110022 $
13962KABI ABI20160228234010602/28/16 23:40:31  5-MIN KABI 290540Z 11004KT 10SM CLR 11/02 A3010 1630 56 1500 110/04 RMK AO2 T01060022 $
13962KABI ABI20160228234510602/28/16 23:45:31  5-MIN KABI 290545Z 13003KT 10SM CLR 11/02 A3009 1630 56 1500 130/03 RMK AO2 T01060022 $
13962KABI ABI20160228235014102/28/16 23:50:31  5-MIN KABI 290550Z 13003KT 10SM CLR 10/03 A3009 1640 60 1500 130/03 RMK AO2 SLP177 T01000028 10222 20100 402390100 51024 $
13962KABI ABI20160228235510602/28/16 23:55:31  5-MIN KABI 290555Z 12005KT 10SM CLR 10/03 A3008 1640 60 1500 120/05 RMK AO2 T01000028 $
13962KABI ABI20160229000010602/29/16 00:00:31  5-MIN KABI 290600Z 10006KT 10SM CLR 11/03 A3008 1640 56 1600 100/06 RMK AO2 T01110028 $
13962KABI ABI20160229000510602/29/16 00:05:31  5-MIN KABI 290605Z 09006KT 10SM CLR 12/03 A3008 1640 54 1700 090/06 RMK AO2 T01170028 $
13962KABI ABI20160229001010602/29/16 00:10:31  5-MIN KABI 290610Z 08006KT 10SM CLR 12/03 A3008 1640 52 1700 080/06 RMK AO2 T01220028 $
13962KABI ABI20160229001510602/29/16 00:15:31  5-MIN KABI 290615Z 09007KT 10SM CLR 13/03 A3008 1640 50 1800 080/07 RMK AO2 T01280028 $
13962KABI ABI20160229002010602/29/16 00:20:31  5-MIN KABI 290620Z 08008KT 10SM CLR 13/03 A3008 1650 48 1900 080/08 RMK AO2 T01330028 $
13962KABI ABI20160229002510602/29/16 00:25:31  5-MIN KABI 290625Z 08008KT 10SM CLR 13/03 A3008 1650 48 1900 070/08 RMK AO2 T01330028 $
13962KABI ABI20160229003010602/29/16 00:30:31  5-MIN KABI 290630Z 07007KT 10SM CLR 14/03 A3008 1640 45 2000 070/07 RMK AO2 T01440028 $
13962KABI ABI20160229003510602/29/16 00:35:31  5-MIN KABI 290635Z 07005KT 10SM CLR 13/03 A3008 1640 52 1800 070/05 RMK AO2 T01280033 $
13962KABI ABI20160229004010602/29/16 00:40:31  5-MIN KABI 290640Z 16006KT 10SM CLR 13/03 A3009 1640 52 1800 150/06 RMK AO2 T01280033 $
13962KABI ABI20160229004510602/29/16 00:45:31  5-MIN KABI 290645Z 00000KT 10SM CLR 10/03 A3009 1640 63 1500 000/00 RMK AO2 T01000033 $
13962KABI ABI20160229005011302/29/16 00:50:31  5-MIN KABI 290650Z 13004KT 10SM CLR 09/03 A3009 1640 68 1300 130/04 RMK AO2 SLP176 T00890033 $
13962KABI ABI20160229005510602/29/16 00:55:31  5-MIN KABI 290655Z 11003KT 10SM CLR 10/03 A3008 1640 63 1500 100/03 RMK AO2 T01000033 $
13962KABI ABI20160229010010602/29/16 01:00:31  5-MIN KABI 290700Z 00000KT 10SM CLR 11/03 A3008 1640 58 1600 000/00 RMK AO2 T01110033 $
13962KABI ABI20160229010510602/29/16 01:05:31  5-MIN KABI 290705Z 00000KT 10SM CLR 11/03 A3009 1630 61 1500 000/00 RMK AO2 T01060033 $
13962KABI ABI20160229011010602/29/16 01:10:31  5-MIN KABI 290710Z 00000KT 10SM CLR 09/03 A3010 1630 65 1400 000/00 RMK AO2 T00940033 $
13962KABI ABI20160229011510602/29/16 01:15:31  5-MIN KABI 290715Z 26004KT 10SM CLR 08/03 A3010 1630 73 1200 250/04 RMK AO2 T00780033 $
13962KABI ABI20160229012010602/29/16 01:20:31  5-MIN KABI 290720Z 27005KT 10SM CLR 08/03 A3010 1630 70 1300 260/05 RMK AO2 T00830033 $
13962KABI ABI20160229012510602/29/16 01:25:31  5-MIN KABI 290725Z 26006KT 10SM CLR 08/03 A3010 1620 70 1300 250/06 RMK AO2 T00830033 $
13962KABI ABI20160229013010602/29/16 01:30:31  5-MIN KABI 290730Z 25005KT 10SM CLR 08/03 A3010 1630 70 1300 250/05 RMK AO2 T00830033 $
13962KABI ABI20160229013510602/29/16 01:35:31  5-MIN KABI 290735Z 24004KT 10SM CLR 08/03 A3010 1630 70 1300 240/04 RMK AO2 T00830033 $
13962KABI ABI20160229014010602/29/16 01:40:31  5-MIN KABI 290740Z 23003KT 10SM CLR 09/03 A3010 1630 68 1300 230/03 RMK AO2 T00890033 $
13962KABI ABI20160229014510602/29/16 01:45:31  5-MIN KABI 290745Z 20003KT 10SM CLR 09/04 A3009 1630 68 1400 190/03 RMK AO2 T00940039 $
13962KABI ABI20160229015011302/29/16 01:50:31  5-MIN KABI 290750Z 20005KT 10SM CLR 10/03 A3010 1630 63 1500 200/05 RMK AO2 SLP178 T01000033 $
13962KABI ABI20160229015510602/29/16 01:55:31  5-MIN KABI 290755Z 20005KT 10SM CLR 09/03 A3010 1630 65 1400 190/05 RMK AO2 T00940033 $
13962KABI ABI20160229020010602/29/16 02:00:31  5-MIN KABI 290800Z 19004KT 10SM CLR 09/03 A3009 1630 65 1300 180/04 RMK AO2 T00890028 $
13962KABI ABI20160229020510602/29/16 02:05:31  5-MIN KABI 290805Z 18004KT 10SM CLR 09/03 A3009 1630 65 1300 180/04 RMK AO2 T00890028 $
13962KABI ABI20160229021010602/29/16 02:10:31  5-MIN KABI 290810Z 16004KT 10SM CLR 09/03 A3009 1630 65 1300 160/04 RMK AO2 T00890028 $
13962KABI ABI20160229021510602/29/16 02:15:31  5-MIN KABI 290815Z 16003KT 10SM CLR 09/03 A3009 1640 63 1400 150/03 RMK AO2 T00940028 $
13962KABI ABI20160229022010602/29/16 02:20:31  5-MIN KABI 290820Z 13003KT 10SM CLR 10/03 A3009 1640 60 1500 120/03 RMK AO2 T01000028 $
13962KABI ABI20160229022510602/29/16 02:25:31  5-MIN KABI 290825Z 13004KT 10SM CLR 09/03 A3008 1640 63 1400 120/04 RMK AO2 T00940028 $
13962KABI ABI20160229023010602/29/16 02:30:31  5-MIN KABI 290830Z 14004KT 10SM CLR 09/03 A3008 1640 63 1400 130/04 RMK AO2 T00940028 $
13962KABI ABI20160229023510602/29/16 02:35:31  5-MIN KABI 290835Z 18003KT 10SM CLR 09/03 A3008 1640 65 1300 180/03 RMK AO2 T00890028 $
13962KABI ABI20160229024010602/29/16 02:40:31  5-MIN KABI 290840Z 00000KT 10SM CLR 08/03 A3008 1640 70 1200 000/00 RMK AO2 T00780028 $
13962KABI ABI20160229024510602/29/16 02:45:31  5-MIN KABI 290845Z 00000KT 10SM CLR 08/03 A3008 1650 68 1300 000/00 RMK AO2 T00830028 $
13962KABI ABI20160229025011902/29/16 02:50:31  5-MIN KABI 290850Z 12004KT 10SM CLR 09/03 A3008 1650 65 1300 120/04 RMK AO2 SLP171 T00890028 50003 $
13962KABI ABI20160229025510602/29/16 02:55:31  5-MIN KABI 290855Z 12003KT 10SM CLR 09/03 A3008 1640 63 1400 110/03 RMK AO2 T00940028 $
13962KABI ABI20160229030010602/29/16 03:00:31  5-MIN KABI 290900Z 14003KT 10SM CLR 09/03 A3008 1640 63 1400 140/03 RMK AO2 T00940028 $
13962KABI ABI20160229030510602/29/16 03:05:31  5-MIN KABI 290905Z 08003KT 10SM CLR 10/03 A3008 1650 60 1500 070/03 RMK AO2 T01000028 $
13962KABI ABI20160229031010602/29/16 03:10:31  5-MIN KABI 290910Z 03004KT 10SM CLR 10/03 A3008 1650 60 1500 030/04 RMK AO2 T01000028 $
13962KABI ABI20160229031510602/29/16 03:15:31  5-MIN KABI 290915Z 02006KT 10SM CLR 09/03 A3008 1650 63 1400 020/06 RMK AO2 T00940028 $
13962KABI ABI20160229032010602/29/16 03:20:31  5-MIN KABI 290920Z 03005KT 10SM CLR 09/03 A3008 1650 65 1300 020/05 RMK AO2 T00890028 $
13962KABI ABI20160229032510602/29/16 03:25:31  5-MIN KABI 290925Z 03005KT 10SM CLR 09/03 A3008 1650 63 1400 020/05 RMK AO2 T00940028 $
13962KABI ABI20160229033010602/29/16 03:30:31  5-MIN KABI 290930Z 03005KT 10SM CLR 10/03 A3007 1650 60 1500 020/05 RMK AO2 T01000028 $
13962KABI ABI20160229033510602/29/16 03:35:31  5-MIN KABI 290935Z 03004KT 10SM CLR 10/03 A3007 1650 60 1500 020/04 RMK AO2 T01000028 $
13962KABI ABI20160229034010602/29/16 03:40:31  5-MIN KABI 290940Z 03004KT 10SM CLR 10/03 A3007 1650 60 1500 020/04 RMK AO2 T01000028 $
13962KABI ABI20160229034510602/29/16 03:45:31  5-MIN KABI 290945Z 00000KT 10SM CLR 11/03 A3007 1650 58 1600 000/00 RMK AO2 T01060028 $
13962KABI ABI20160229035011302/29/16 03:50:31  5-MIN KABI 290950Z 00000KT 10SM CLR 10/03 A3007 1650 60 1500 000/00 RMK AO2 SLP169 T01000028 $
13962KABI ABI20160229035510602/29/16 03:55:31  5-MIN KABI 290955Z 24003KT 10SM CLR 06/03 A3007 1650 79 1000 230/03 RMK AO2 T00610028 $
13962KABI ABI20160229040010602/29/16 04:00:31  5-MIN KABI 291000Z 00000KT 10SM CLR 06/03 A3007 1650 79 1000 000/00 RMK AO2 T00610028 $
13962KABI ABI20160229040510602/29/16 04:05:31  5-MIN KABI 291005Z 00000KT 10SM CLR 06/03 A3007 1650 79 1000 000/00 RMK AO2 T00610028 $
13962KABI ABI20160229041010602/29/16 04:10:31  5-MIN KABI 291010Z 00000KT 10SM CLR 06/03 A3008 1650 79 1000 000/00 RMK AO2 T00610028 $
13962KABI ABI20160229041510602/29/16 04:15:31  5-MIN KABI 291015Z 25004KT 10SM CLR 07/03 A3008 1650 76 1100 240/04 RMK AO2 T00670028 $
13962KABI ABI20160229042010602/29/16 04:20:31  5-MIN KABI 291020Z 00000KT 10SM CLR 07/03 A3008 1650 76 1100 000/00 RMK AO2 T00670028 $
13962KABI ABI20160229042510602/29/16 04:25:31  5-MIN KABI 291025Z 00000KT 10SM CLR 06/03 A3008 1650 79 1000 000/00 RMK AO2 T00610028 $
13962KABI ABI20160229043010602/29/16 04:30:31  5-MIN KABI 291030Z 00000KT 10SM CLR 07/03 A3008 1650 76 1100 000/00 RMK AO2 T00670028 $
13962KABI ABI20160229043510602/29/16 04:35:31  5-MIN KABI 291035Z 00000KT 10SM CLR 07/03 A3008 1650 73 1100 000/00 RMK AO2 T00720028 $
13962KABI ABI20160229044010602/29/16 04:40:31  5-MIN KABI 291040Z 00000KT 10SM CLR 07/03 A3008 1650 73 1100 000/00 RMK AO2 T00720028 $
13962KABI ABI20160229044510602/29/16 04:45:31  5-MIN KABI 291045Z 00000KT 10SM CLR 07/03 A3008 1650 73 1100 000/00 RMK AO2 T00720028 $
13962KABI ABI20160229045011302/29/16 04:50:31  5-MIN KABI 291050Z 00000KT 10SM CLR 07/03 A3008 1650 73 1100 000/00 RMK AO2 SLP172 T00720028 $
13962KABI ABI20160229045510602/29/16 04:55:31  5-MIN KABI 291055Z 26003KT 10SM CLR 07/03 A3007 1650 73 1100 260/03 RMK AO2 T00720028 $
13962KABI ABI20160229050010602/29/16 05:00:31  5-MIN KABI 291100Z 25003KT 10SM CLR 07/03 A3007 1650 73 1100 250/03 RMK AO2 T00720028 $
13962KABI ABI20160229050510602/29/16 05:05:31  5-MIN KABI 291105Z 25004KT 10SM CLR 07/03 A3008 1650 79 1100 240/04 RMK AO2 T00670033 $
13962KABI ABI20160229051010602/29/16 05:10:31  5-MIN KABI 291110Z 25004KT 10SM CLR 07/03 A3007 1650 79 1100 250/04 RMK AO2 T00670033 $
13962KABI ABI20160229051510602/29/16 05:15:31  5-MIN KABI 291115Z 24004KT 10SM CLR 07/03 A3007 1650 79 1100 240/04 RMK AO2 T00670033 $
13962KABI ABI20160229052010602/29/16 05:20:31  5-MIN KABI 291120Z 23005KT 10SM CLR 07/03 A3008 1650 79 1100 220/05 RMK AO2 T00670033 $
13962KABI ABI20160229052510602/29/16 05:25:31  5-MIN KABI 291125Z 23004KT 10SM CLR 06/03 A3007 1650 82 1000 220/04 RMK AO2 T00610033 $
13962KABI ABI20160229053010502/29/16 05:30:31  5-MIN KABI 291130Z 00000KT 10SM CLR 06/03 A3008 1650 82 900 000/00 RMK AO2 T00560028 $
13962KABI ABI20160229053510602/29/16 05:35:31  5-MIN KABI 291135Z 24003KT 10SM CLR 06/03 A3008 1650 79 1000 230/03 RMK AO2 T00610028 $
13962KABI ABI20160229054010602/29/16 05:40:31  5-MIN KABI 291140Z 00000KT 10SM CLR 06/03 A3008 1650 82 1000 000/00 RMK AO2 T00610033 $
13962KABI ABI20160229054510602/29/16 05:45:31  5-MIN KABI 291145Z 00000KT 10SM CLR 07/03 A3008 1650 79 1100 000/00 RMK AO2 T00670033 $
13962KABI ABI20160229055013102/29/16 05:50:31  5-MIN KABI 291150Z 19003KT 10SM CLR 06/03 A3008 1650 82 1000 180/03 RMK AO2 SLP174 T00610033 10144 20056 58002 $
13962KABI ABI20160229055510502/29/16 05:55:31  5-MIN KABI 291155Z 18003KT 10SM CLR 06/03 A3008 1650 85 900 180/03 RMK AO2 T00560033 $
13962KABI ABI20160229060010602/29/16 06:00:31  5-MIN KABI 291200Z 18003KT 10SM CLR 06/03 A3008 1650 82 1000 170/03 RMK AO2 T00610033 $
13962KABI ABI20160229060510502/29/16 06:05:31  5-MIN KABI 291205Z 20003KT 10SM CLR 06/03 A3008 1640 82 900 200/03 RMK AO2 T00560028 $
13962KABI ABI20160229061010502/29/16 06:10:31  5-MIN KABI 291210Z 20004KT 10SM CLR 05/03 A3008 1640 85 900 190/04 RMK AO2 T00500028 $
13962KABI ABI20160229061510502/29/16 06:15:31  5-MIN KABI 291215Z 20004KT 10SM CLR 05/03 A3008 1640 85 900 200/04 RMK AO2 T00500028 $
13962KABI ABI20160229062010502/29/16 06:20:31  5-MIN KABI 291220Z 21005KT 10SM CLR 06/03 A3009 1640 82 900 210/05 RMK AO2 T00560028 $
13962KABI ABI20160229062510502/29/16 06:25:31  5-MIN KABI 291225Z 21004KT 10SM CLR 05/03 A3009 1640 85 900 210/04 RMK AO2 T00500028 $
13962KABI ABI20160229063010502/29/16 06:30:31  5-MIN KABI 291230Z 22003KT 10SM CLR 05/03 A3008 1640 85 900 220/03 RMK AO2 T00500028 $
13962KABI ABI20160229063510502/29/16 06:35:31  5-MIN KABI 291235Z 24003KT 10SM CLR 05/03 A3009 1640 85 900 240/03 RMK AO2 T00500028 $
13962KABI ABI20160229064010602/29/16 06:40:31  5-MIN KABI 291240Z 00000KT 10SM CLR 06/03 A3008 1640 79 1000 000/00 RMK AO2 T00610028 $
13962KABI ABI20160229064510502/29/16 06:45:31  5-MIN KABI 291245Z 00000KT 10SM CLR 06/03 A3008 1640 82 900 000/00 RMK AO2 T00560028 $
13962KABI ABI20160229065011202/29/16 06:50:31  5-MIN KABI 291250Z 00000KT 10SM CLR 06/03 A3008 1640 82 900 000/00 RMK AO2 SLP178 T00560028 $
13962KABI ABI20160229065510502/29/16 06:55:31  5-MIN KABI 291255Z 17004KT 10SM CLR 06/03 A3008 1640 82 900 170/04 RMK AO2 T00560028 $
13962KABI ABI20160229070010502/29/16 07:00:31  5-MIN KABI 291300Z 17005KT 10SM CLR 05/03 A3008 1640 85 900 170/05 RMK AO2 T00500028 $
13962KABI ABI20160229070510502/29/16 07:05:31  5-MIN KABI 291305Z 15005KT 10SM CLR 06/03 A3008 1640 82 900 150/05 RMK AO2 T00560028 $
13962KABI ABI20160229071010502/29/16 07:10:31  5-MIN KABI 291310Z 17005KT 10SM CLR 06/03 A3008 1640 82 900 160/05 RMK AO2 T00560028 $
13962KABI ABI20160229071510502/29/16 07:15:31  5-MIN KABI 291315Z 18004KT 10SM CLR 05/03 A3008 1640 85 900 170/04 RMK AO2 T00500028 $
13962KABI ABI20160229072010502/29/16 07:20:31  5-MIN KABI 291320Z 19004KT 10SM CLR 05/02 A3009 1640 82 900 190/04 RMK AO2 T00500022 $
13962KABI ABI20160229072510502/29/16 07:25:31  5-MIN KABI 291325Z 18004KT 10SM CLR 06/03 A3009 1640 82 900 170/04 RMK AO2 T00560028 $
13962KABI ABI20160229073010502/29/16 07:30:31  5-MIN KABI 291330Z 17005KT 10SM CLR 06/03 A3009 1640 82 900 160/05 RMK AO2 T00560028 $
13962KABI ABI20160229073510602/29/16 07:35:31  5-MIN KABI 291335Z 16006KT 10SM CLR 06/03 A3009 1640 79 1000 150/06 RMK AO2 T00610028 $
13962KABI ABI20160229074010602/29/16 07:40:31  5-MIN KABI 291340Z 16006KT 10SM CLR 07/03 A3009 1640 79 1100 160/06 RMK AO2 T00670033 $
13962KABI ABI20160229074510402/29/16 07:45:31  5-MIN KABI 291345Z 18006KT 10SM CLR 06/03 A3009 1640 82 1000 170/06 RMK AO2 T00610033
13962KABI ABI20160229075011102/29/16 07:50:31  5-MIN KABI 291350Z 17006KT 10SM CLR 07/03 A3009 1640 79 1100 170/06 RMK AO2 SLP181 T00670033
13962KABI ABI20160229075510402/29/16 07:55:31  5-MIN KABI 291355Z 17005KT 10SM CLR 07/04 A3009 1640 79 1100 170/05 RMK AO2 T00720039
13962KABI ABI20160229080010402/29/16 08:00:31  5-MIN KABI 291400Z 17005KT 10SM CLR 08/04 A3009 1640 76 1200 170/05 RMK AO2 T00780039
13962KABI ABI20160229080510402/29/16 08:05:31  5-MIN KABI 291405Z 17005KT 10SM CLR 08/04 A3009 1640 73 1300 160/05 RMK AO2 T00830039
13962KABI ABI20160229081010402/29/16 08:10:31  5-MIN KABI 291410Z 16005KT 10SM CLR 09/04 A3009 1640 68 1400 160/05 RMK AO2 T00940039
13962KABI ABI20160229081510402/29/16 08:15:31  5-MIN KABI 291415Z 17005KT 10SM CLR 10/04 A3009 1630 65 1500 170/05 RMK AO2 T01000039
13962KABI ABI20160229082010402/29/16 08:20:31  5-MIN KABI 291420Z 16004KT 10SM CLR 10/04 A3009 1630 65 1500 160/04 RMK AO2 T01000039
13962KABI ABI20160229082510402/29/16 08:25:31  5-MIN KABI 291425Z 17003KT 10SM CLR 10/04 A3010 1630 65 1500 170/03 RMK AO2 T01000039
13962KABI ABI20160229083010402/29/16 08:30:31  5-MIN KABI 291430Z 19003KT 10SM CLR 11/04 A3010 1630 66 1500 190/03 RMK AO2 T01060044
13962KABI ABI20160229083510402/29/16 08:35:31  5-MIN KABI 291435Z 19003KT 10SM CLR 11/04 A3010 1630 66 1500 180/03 RMK AO2 T01060044
13962KABI ABI20160229084010402/29/16 08:40:31  5-MIN KABI 291440Z 20004KT 10SM CLR 11/05 A3010 1620 66 1600 190/04 RMK AO2 T01110050
13962KABI ABI20160229084510402/29/16 08:45:31  5-MIN KABI 291445Z 18003KT 10SM CLR 12/05 A3010 1630 63 1700 180/03 RMK AO2 T01170050
13962KABI ABI20160229085011702/29/16 08:50:31  5-MIN KABI 291450Z 17004KT 10SM CLR 12/05 A3010 1630 61 1700 160/04 RMK AO2 SLP182 T01220050 55001
13962KABI ABI20160229085510402/29/16 08:55:31  5-MIN KABI 291455Z 17003KT 10SM CLR 13/05 A3010 1630 59 1800 170/03 RMK AO2 T01280050
13962KABI ABI20160229090010402/29/16 09:00:31  5-MIN KABI 291500Z 14005KT 10SM CLR 13/06 A3010 1630 59 1900 130/05 RMK AO2 T01330056
13962KABI ABI20160229090510402/29/16 09:05:31  5-MIN KABI 291505Z 14005KT 10SM CLR 14/06 A3010 1630 55 2000 140/05 RMK AO2 T01440056
13962KABI ABI20160229091010402/29/16 09:10:31  5-MIN KABI 291510Z 14006KT 10SM CLR 15/06 A3010 1630 55 2000 130/06 RMK AO2 T01500061
13962KABI ABI20160229091510402/29/16 09:15:31  5-MIN KABI 291515Z 15006KT 10SM CLR 16/06 A3010 1630 53 2100 140/06 RMK AO2 T01560061
13962KABI ABI20160229092010402/29/16 09:20:31  5-MIN KABI 291520Z 13008KT 10SM CLR 16/06 A3010 1630 51 2200 130/08 RMK AO2 T01610061
13962KABI ABI20160229092510402/29/16 09:25:31  5-MIN KABI 291525Z 13009KT 10SM CLR 17/06 A3009 1630 49 2200 130/09 RMK AO2 T01670061
13962KABI ABI20160229093010402/29/16 09:30:31  5-MIN KABI 291530Z 13010KT 10SM CLR 17/06 A3009 1640 49 2300 120/10 RMK AO2 T01670061
13962KABI ABI20160229093510402/29/16 09:35:31  5-MIN KABI 291535Z 14010KT 10SM CLR 17/06 A3009 1640 47 2300 140/10 RMK AO2 T01720061
13962KABI ABI20160229094010402/29/16 09:40:31  5-MIN KABI 291540Z 14010KT 10SM CLR 18/06 A3009 1640 46 2400 140/10 RMK AO2 T01780061
13962KABI ABI20160229094510402/29/16 09:45:31  5-MIN KABI 291545Z 13008KT 10SM CLR 18/07 A3009 1640 48 2400 130/08 RMK AO2 T01780067
13962KABI ABI20160229095011102/29/16 09:50:31  5-MIN KABI 291550Z 13009KT 10SM CLR 18/06 A3009 1640 44 2400 130/09 RMK AO2 SLP174 T01830061
13962KABI ABI20160229095510402/29/16 09:55:31  5-MIN KABI 291555Z 13009KT 10SM CLR 18/06 A3008 1640 44 2400 130/09 RMK AO2 T01830061
13962KABI ABI20160229100010402/29/16 10:00:31  5-MIN KABI 291600Z 13009KT 10SM CLR 19/07 A3008 1640 44 2500 130/09 RMK AO2 T01890067
13962KABI ABI20160229100510402/29/16 10:05:31  5-MIN KABI 291605Z 14008KT 10SM CLR 19/07 A3008 1640 44 2500 130/08 RMK AO2 T01890067
13962KABI ABI20160229101010402/29/16 10:10:31  5-MIN KABI 291610Z 16010KT 10SM CLR 19/07 A3008 1650 44 2600 150/10 RMK AO2 T01940072
13962KABI ABI20160229101510402/29/16 10:15:31  5-MIN KABI 291615Z 14009KT 10SM CLR 19/07 A3008 1650 44 2600 130/09 RMK AO2 T01940072
13962KABI ABI20160229102010402/29/16 10:20:31  5-MIN KABI 291620Z 14011KT 10SM CLR 20/08 A3007 1650 45 2700 140/11 RMK AO2 T02000078
13962KABI ABI20160229102510402/29/16 10:25:31  5-MIN KABI 291625Z 15010KT 10SM CLR 20/08 A3007 1650 45 2700 150/10 RMK AO2 T02000078
13962KABI ABI20160229103010402/29/16 10:30:31  5-MIN KABI 291630Z 15011KT 10SM CLR 20/08 A3007 1650 45 2700 140/11 RMK AO2 T02000078
13962KABI ABI20160229103510402/29/16 10:35:31  5-MIN KABI 291635Z 14010KT 10SM CLR 21/08 A3007 1650 43 2700 140/10 RMK AO2 T02060078
13962KABI ABI20160229104010402/29/16 10:40:31  5-MIN KABI 291640Z 14010KT 10SM CLR 21/08 A3007 1660 43 2700 140/10 RMK AO2 T02060078
13962KABI ABI20160229104510402/29/16 10:45:31  5-MIN KABI 291645Z 14011KT 10SM CLR 21/08 A3007 1660 43 2700 140/11 RMK AO2 T02060078
13962KABI ABI20160229105011102/29/16 10:50:31  5-MIN KABI 291650Z 17010KT 10SM CLR 21/08 A3007 1660 43 2800 160/10 RMK AO2 SLP166 T02110083
13962KABI ABI20160229105510402/29/16 10:55:31  5-MIN KABI 291655Z 17010KT 10SM CLR 21/08 A3007 1660 43 2800 160/10 RMK AO2 T02110083
13962KABI ABI20160229110010402/29/16 11:00:31  5-MIN KABI 291700Z 15010KT 10SM CLR 21/08 A3007 1660 43 2800 140/10 RMK AO2 T02110083
13962KABI ABI20160229110510402/29/16 11:05:31  5-MIN KABI 291705Z 15010KT 10SM CLR 21/08 A3006 1660 43 2800 150/10 RMK AO2 T02110083
13962KABI ABI20160229111010402/29/16 11:10:31  5-MIN KABI 291710Z 15009KT 10SM CLR 21/09 A3006 1660 45 2800 140/09 RMK AO2 T02110089
13962KABI ABI20160229111510402/29/16 11:15:31  5-MIN KABI 291715Z 16010KT 10SM CLR 21/09 A3006 1670 45 2800 150/10 RMK AO2 T02110089
13962KABI ABI20160229112010402/29/16 11:20:31  5-MIN KABI 291720Z 17009KT 10SM CLR 22/09 A3006 1670 43 2900 160/09 RMK AO2 T02170089
13962KABI ABI20160229112510402/29/16 11:25:31  5-MIN KABI 291725Z 15009KT 10SM CLR 22/09 A3006 1670 45 2900 150/09 RMK AO2 T02170094
13962KABI ABI20160229113010402/29/16 11:30:31  5-MIN KABI 291730Z 15009KT 10SM CLR 22/09 A3005 1670 45 2900 150/09 RMK AO2 T02170094
13962KABI ABI20160229113510402/29/16 11:35:31  5-MIN KABI 291735Z 16010KT 10SM CLR 22/09 A3005 1670 45 2900 160/10 RMK AO2 T02170094
13962KABI ABI20160229114010402/29/16 11:40:31  5-MIN KABI 291740Z 16011KT 10SM CLR 22/10 A3005 1670 45 2900 160/11 RMK AO2 T02220100
13962KABI ABI20160229114510402/29/16 11:45:31  5-MIN KABI 291745Z 17010KT 10SM CLR 22/09 A3005 1670 43 2900 160/10 RMK AO2 T02220094
13962KABI ABI20160229115012902/29/16 11:50:31  5-MIN KABI 291750Z 17008KT 10SM CLR 22/09 A3005 1680 43 2900 170/08 RMK AO2 SLP161 T02220094 10222 20050 53006
13962KABI ABI20160229115510402/29/16 11:55:31  5-MIN KABI 291755Z 17010KT 10SM CLR 23/09 A3004 1680 42 3000 160/10 RMK AO2 T02280094
13962KABI ABI20160229120010402/29/16 12:00:31  5-MIN KABI 291800Z 17011KT 10SM CLR 23/09 A3004 1680 42 3000 160/11 RMK AO2 T02280094
13962KABI ABI20160229120510402/29/16 12:05:31  5-MIN KABI 291805Z 18009KT 10SM CLR 23/10 A3004 1690 44 3000 180/09 RMK AO2 T02280100
13962KABI ABI20160229121010402/29/16 12:10:31  5-MIN KABI 291810Z 17010KT 10SM CLR 23/10 A3003 1690 42 3100 160/10 RMK AO2 T02330100
13962KABI ABI20160229121510402/29/16 12:15:31  5-MIN KABI 291815Z 19013KT 10SM CLR 23/11 A3003 1690 45 3000 180/13 RMK AO2 T02280106
13962KABI ABI20160229122010402/29/16 12:20:31  5-MIN KABI 291820Z 19012KT 10SM CLR 23/10 A3003 1690 44 3000 180/12 RMK AO2 T02280100
13962KABI ABI20160229122510402/29/16 12:25:31  5-MIN KABI 291825Z 19011KT 10SM CLR 24/11 A3003 1690 42 3100 180/11 RMK AO2 T02390106
13962KABI ABI20160229123011002/29/16 12:30:31  5-MIN KABI 291830Z 18011G17KT 10SM CLR 23/10 A3002 1700 44 3000 180/11G17 RMK AO2 T02280100
13962KABI ABI20160229123510402/29/16 12:35:31  5-MIN KABI 291835Z 17015KT 10SM CLR 23/10 A3002 1700 42 3100 160/15 RMK AO2 T02330100
13962KABI ABI20160229124011002/29/16 12:40:31  5-MIN KABI 291840Z 17011G18KT 10SM CLR 23/10 A3002 1700 42 3100 170/11G18 RMK AO2 T02330100
13962KABI ABI20160229124511002/29/16 12:45:31  5-MIN KABI 291845Z 19011G19KT 10SM CLR 23/10 A3001 1710 42 3100 180/11G19 RMK AO2 T02330100
13962KABI ABI20160229125011702/29/16 12:50:31  5-MIN KABI 291850Z 19011G19KT 10SM CLR 24/10 A3000 1720 41 3200 180/11G19 RMK AO2 SLP145 T02390100
13962KABI ABI20160229125510402/29/16 12:55:31  5-MIN KABI 291855Z 18014KT 10SM CLR 24/11 A3000 1720 42 3200 180/14 RMK AO2 T02390106
13962KABI ABI20160229130010402/29/16 13:00:31  5-MIN KABI 291900Z 21013KT 10SM CLR 23/11 A2999 1720 44 3100 200/13 RMK AO2 T02330106
13962KABI ABI20160229130510402/29/16 13:05:31  5-MIN KABI 291905Z 21012KT 10SM CLR 23/11 A2999 1730 44 3100 200/12 RMK AO2 T02330106
13962KABI ABI20160229131011002/29/16 13:10:31  5-MIN KABI 291910Z 20013G21KT 10SM CLR 24/11 A2999 1730 42 3200 190/13G21 RMK AO2 T02390106
13962KABI ABI20160229131511002/29/16 13:15:31  5-MIN KABI 291915Z 18013G21KT 10SM CLR 24/11 A2998 1740 42 3200 180/13G21 RMK AO2 T02390106
13962KABI ABI20160229132010402/29/16 13:20:31  5-MIN KABI 291920Z 18012KT 10SM CLR 24/11 A2998 1740 44 3200 180/12 RMK AO2 T02390111
13962KABI ABI20160229132510402/29/16 13:25:31  5-MIN KABI 291925Z 20012KT 10SM CLR 24/11 A2997 1740 44 3200 190/12 RMK AO2 T02390111
13962KABI ABI20160229133010402/29/16 13:30:31  5-MIN KABI 291930Z 20012KT 10SM CLR 24/11 A2997 1750 44 3200 200/12 RMK AO2 T02390111
13962KABI ABI20160229133511002/29/16 13:35:31  5-MIN KABI 291935Z 18014G21KT 10SM CLR 24/11 A2997 1750 42 3300 180/14G21 RMK AO2 T02440111
13962KABI ABI20160229134011002/29/16 13:40:31  5-MIN KABI 291940Z 19013G21KT 10SM CLR 24/12 A2996 1750 44 3300 190/13G21 RMK AO2 T02440117
13962KABI ABI20160229134511002/29/16 13:45:31  5-MIN KABI 291945Z 19014G21KT 10SM CLR 24/12 A2996 1760 44 3300 190/14G21 RMK AO2 T02440117
13962KABI ABI20160229135011102/29/16 13:50:31  5-MIN KABI 291950Z 18010KT 10SM CLR 24/12 A2996 1760 44 3300 170/10 RMK AO2 SLP128 T02440117
13962KABI ABI20160229135511002/29/16 13:55:31  5-MIN KABI 291955Z 19014G19KT 10SM CLR 24/12 A2995 1760 44 3300 180/14G19 RMK AO2 T02440117
13962KABI ABI20160229140011002/29/16 14:00:31  5-MIN KABI 292000Z 21012G19KT 10SM CLR 24/12 A2995 1770 44 3300 200/12G19 RMK AO2 T02440117
13962KABI ABI20160229140511002/29/16 14:05:31  5-MIN KABI 292005Z 22014G19KT 10SM CLR 25/12 A2994 1770 43 3400 210/14G19 RMK AO2 T02500117
13962KABI ABI20160229141010402/29/16 14:10:31  5-MIN KABI 292010Z 19013KT 10SM CLR 24/12 A2994 1770 44 3300 190/13 RMK AO2 T02440117
13962KABI ABI20160229141510402/29/16 14:15:31  5-MIN KABI 292015Z 20016KT 10SM CLR 25/11 A2994 1770 41 3400 200/16 RMK AO2 T02500111
13962KABI ABI20160229142011002/29/16 14:20:31  5-MIN KABI 292020Z 18014G20KT 10SM CLR 24/12 A2994 1780 44 3300 180/14G20 RMK AO2 T02440117
13962KABI ABI20160229142511002/29/16 14:25:31  5-MIN KABI 292025Z 18013G21KT 10SM CLR 25/11 A2993 1780 41 3400 180/13G21 RMK AO2 T02500111
13962KABI ABI20160229143011002/29/16 14:30:31  5-MIN KABI 292030Z 20015G21KT 10SM CLR 24/11 A2993 1780 42 3300 190/15G21 RMK AO2 T02440111
13962KABI ABI20160229143510402/29/16 14:35:31  5-MIN KABI 292035Z 20016KT 10SM CLR 25/11 A2993 1790 41 3400 190/16 RMK AO2 T02500111
13962KABI ABI20160229144011002/29/16 14:40:31  5-MIN KABI 292040Z 21015G22KT 10SM CLR 25/11 A2992 1790 41 3400 210/15G22 RMK AO2 T02500111
13962KABI ABI20160229144511002/29/16 14:45:31  5-MIN KABI 292045Z 22017G22KT 10SM CLR 25/11 A2992 1790 41 3400 210/17G22 RMK AO2 T02500111
13962KABI ABI20160229145012302/29/16 14:50:31  5-MIN KABI 292050Z 21013G22KT 10SM CLR 26/11 A2992 1790 40 3400 200/13G22 RMK AO2 SLP117 T02560111 58017
13962KABI ABI20160229145510402/29/16 14:55:31  5-MIN KABI 292055Z 18012KT 10SM CLR 25/11 A2992 1790 41 3400 180/12 RMK AO2 T02500111
13962KABI ABI20160229150011002/29/16 15:00:31  5-MIN KABI 292100Z 20012G24KT 10SM CLR 25/11 A2992 1790 41 3400 190/12G24 RMK AO2 T02500111
13962KABI ABI20160229150511002/29/16 15:05:31  5-MIN KABI 292105Z 19013G24KT 10SM CLR 25/11 A2992 1800 41 3400 190/13G24 RMK AO2 T02500111
13962KABI ABI20160229151010402/29/16 15:10:31  5-MIN KABI 292110Z 17013KT 10SM CLR 25/11 A2991 1800 41 3400 170/13 RMK AO2 T02500111
13962KABI ABI20160229151511002/29/16 15:15:31  5-MIN KABI 292115Z 19016G21KT 10SM CLR 25/11 A2991 1810 41 3400 180/16G21 RMK AO2 T02500111
13962KABI ABI20160229152011002/29/16 15:20:31  5-MIN KABI 292120Z 20015G23KT 10SM CLR 25/12 A2991 1810 43 3400 190/15G23 RMK AO2 T02500117
13962KABI ABI20160229152510402/29/16 15:25:31  5-MIN KABI 292125Z 18014KT 10SM CLR 26/12 A2990 1810 41 3500 170/14 RMK AO2 T02560117
13962KABI ABI20160229153010402/29/16 15:30:31  5-MIN KABI 292130Z 18013KT 10SM CLR 26/12 A2990 1810 41 3500 180/13 RMK AO2 T02560117
13962KABI ABI20160229153511002/29/16 15:35:31  5-MIN KABI 292135Z 19014G22KT 10SM CLR 26/12 A2990 1810 41 3500 190/14G22 RMK AO2 T02560117
13962KABI ABI20160229154011002/29/16 15:40:31  5-MIN KABI 292140Z 20013G22KT 10SM CLR 26/12 A2990 1810 41 3500 190/13G22 RMK AO2 T02560117
13962KABI ABI20160229154511002/29/16 15:45:31  5-MIN KABI 292145Z 20012G21KT 10SM CLR 26/11 A2990 1810 40 3500 200/12G21 RMK AO2 T02560111
13962KABI ABI20160229155011702/29/16 15:50:31  5-MIN KABI 292150Z 20016G23KT 10SM CLR 26/11 A2990 1810 38 3500 190/16G23 RMK AO2 SLP109 T02560106
13962KABI ABI20160229155511002/29/16 15:55:31  5-MIN KABI 292155Z 21017G23KT 10SM CLR 26/11 A2990 1810 38 3500 200/17G23 RMK AO2 T02560106
13962KABI ABI20160229160010402/29/16 16:00:31  5-MIN KABI 292200Z 21015KT 10SM CLR 26/11 A2990 1810 38 3500 200/15 RMK AO2 T02560106
13962KABI ABI20160229160510402/29/16 16:05:31  5-MIN KABI 292205Z 20015KT 10SM CLR 26/11 A2990 1820 38 3500 200/15 RMK AO2 T02560106
13962KABI ABI20160229161011002/29/16 16:10:31  5-MIN KABI 292210Z 19018G25KT 10SM CLR 26/11 A2989 1820 40 3500 190/18G25 RMK AO2 T02560111
13962KABI ABI20160229161511002/29/16 16:15:31  5-MIN KABI 292215Z 19012G25KT 10SM CLR 26/11 A2989 1820 38 3500 180/12G25 RMK AO2 T02560106
13962KABI ABI20160229162011002/29/16 16:20:31  5-MIN KABI 292220Z 19016G21KT 10SM CLR 26/11 A2989 1820 40 3500 180/16G21 RMK AO2 T02560111
13962KABI ABI20160229162511002/29/16 16:25:31  5-MIN KABI 292225Z 19015G21KT 10SM CLR 25/11 A2988 1830 41 3400 190/15G21 RMK AO2 T02500111
13962KABI ABI20160229163010402/29/16 16:30:31  5-MIN KABI 292230Z 19015KT 10SM CLR 26/11 A2988 1830 40 3500 190/15 RMK AO2 T02560111
13962KABI ABI20160229163510402/29/16 16:35:31  5-MIN KABI 292235Z 18017KT 10SM CLR 25/11 A2988 1830 41 3400 170/17 RMK AO2 T02500111
13962KABI ABI20160229164011002/29/16 16:40:31  5-MIN KABI 292240Z 17018G23KT 10SM CLR 25/11 A2987 1830 41 3400 170/18G23 RMK AO2 T02500111
13962KABI ABI20160229164511002/29/16 16:45:31  5-MIN KABI 292245Z 18018G23KT 10SM CLR 25/11 A2987 1840 41 3400 170/18G23 RMK AO2 T02500111
13962KABI ABI20160229165011702/29/16 16:50:31  5-MIN KABI 292250Z 19014G23KT 10SM CLR 25/11 A2987 1840 41 3400 190/14G23 RMK AO2 SLP102 T02500111
13962KABI ABI20160229165511002/29/16 16:55:31  5-MIN KABI 292255Z 18013G19KT 10SM CLR 25/11 A2987 1830 41 3400 180/13G19 RMK AO2 T02500111
13962KABI ABI20160229170011002/29/16 17:00:31  5-MIN KABI 292300Z 19017G21KT 10SM CLR 25/12 A2988 1830 43 3400 180/17G21 RMK AO2 T02500117
13962KABI ABI20160229170511002/29/16 17:05:31  5-MIN KABI 292305Z 20014G21KT 10SM CLR 25/11 A2988 1830 41 3400 200/14G21 RMK AO2 T02500111
13962KABI ABI20160229171010402/29/16 17:10:31  5-MIN KABI 292310Z 19015KT 10SM CLR 25/11 A2988 1830 41 3400 180/15 RMK AO2 T02500111
13962KABI ABI20160229171510402/29/16 17:15:31  5-MIN KABI 292315Z 18015KT 10SM CLR 25/11 A2988 1830 41 3400 180/15 RMK AO2 T02500111
13962KABI ABI20160229172010402/29/16 17:20:31  5-MIN KABI 292320Z 18015KT 10SM CLR 24/11 A2987 1840 42 3400 170/15 RMK AO2 T02440111
13962KABI ABI20160229172511002/29/16 17:25:31  5-MIN KABI 292325Z 19017G21KT 10SM CLR 24/11 A2988 1830 42 3400 180/17G21 RMK AO2 T02440111
13962KABI ABI20160229173010402/29/16 17:30:31  5-MIN KABI 292330Z 19016KT 10SM CLR 24/11 A2988 1830 41 3400 180/16 RMK AO2 T02440106
13962KABI ABI20160229173510402/29/16 17:35:31  5-MIN KABI 292335Z 19013KT 10SM CLR 24/11 A2988 1830 41 3400 180/13 RMK AO2 T02440106
13962KABI ABI20160229174010402/29/16 17:40:31  5-MIN KABI 292340Z 19015KT 10SM CLR 24/11 A2988 1830 42 3300 180/15 RMK AO2 T02390106
13962KABI ABI20160229174510402/29/16 17:45:31  5-MIN KABI 292345Z 19016KT 10SM CLR 24/11 A2988 1830 42 3300 180/16 RMK AO2 T02390106
13962KABI ABI20160229175013502/29/16 17:50:31  5-MIN KABI 292350Z 18011G19KT 10SM CLR 24/11 A2988 1830 44 3300 170/11G19 RMK AO2 SLP106 T02390111 10256 20228 56039
13962KABI ABI20160229175510402/29/16 17:55:31  5-MIN KABI 292355Z 19013KT 10SM CLR 24/11 A2988 1830 44 3300 180/13 RMK AO2 T02390111
13962KABI ABI20160229180010402/29/16 18:00:31  5-MIN KABI 010000Z 19014KT 10SM CLR 23/11 A2988 1830 45 3300 180/14 RMK AO2 T02330111
13962KABI ABI20160229180510402/29/16 18:05:31  5-MIN KABI 010005Z 18012KT 10SM CLR 23/11 A2987 1840 45 3300 180/12 RMK AO2 T02330111
13962KABI ABI20160229181011002/29/16 18:10:31  5-MIN KABI 010010Z 19014G19KT 10SM CLR 23/11 A2988 1830 45 3300 180/14G19 RMK AO2 T02330111
13962KABI ABI20160229181510402/29/16 18:15:31  5-MIN KABI 010015Z 18014KT 10SM CLR 23/11 A2988 1830 45 3300 180/14 RMK AO2 T02330111
13962KABI ABI20160229182010402/29/16 18:20:31  5-MIN KABI 010020Z 19011KT 10SM CLR 23/11 A2988 1830 47 3200 190/11 RMK AO2 T02280111
13962KABI ABI20160229182510402/29/16 18:25:31  5-MIN KABI 010025Z 19013KT 10SM CLR 23/11 A2988 1830 47 3200 190/13 RMK AO2 T02280111
13962KABI ABI20160229183010402/29/16 18:30:31  5-MIN KABI 010030Z 19012KT 10SM CLR 23/11 A2988 1830 47 3200 180/12 RMK AO2 T02280111
13962KABI ABI20160229183510402/29/16 18:35:31  5-MIN KABI 010035Z 18011KT 10SM CLR 22/11 A2988 1830 49 3100 180/11 RMK AO2 T02220111
13962KABI ABI20160229184010402/29/16 18:40:31  5-MIN KABI 010040Z 19011KT 10SM CLR 22/11 A2988 1830 49 3100 180/11 RMK AO2 T02220111
13962KABI ABI20160229184510402/29/16 18:45:31  5-MIN KABI 010045Z 18011KT 10SM CLR 22/11 A2987 1840 50 3100 180/11 RMK AO2 T02170111
13962KABI ABI20160229185011102/29/16 18:50:31  5-MIN KABI 010050Z 18011KT 10SM CLR 22/11 A2987 1840 50 3100 180/11 RMK AO2 SLP104 T02170111
13962KABI ABI20160229185510402/29/16 18:55:31  5-MIN KABI 010055Z 18012KT 10SM CLR 22/11 A2987 1840 50 3100 180/12 RMK AO2 T02170111
13962KABI ABI20160229190010402/29/16 19:00:31  5-MIN KABI 010100Z 18013KT 10SM CLR 22/11 A2987 1840 50 3100 180/13 RMK AO2 T02170111
13962KABI ABI20160229190510402/29/16 19:05:31  5-MIN KABI 010105Z 18012KT 10SM CLR 22/11 A2987 1840 50 3100 180/12 RMK AO2 T02170111
13962KABI ABI20160229191010402/29/16 19:10:31  5-MIN KABI 010110Z 18012KT 10SM CLR 21/11 A2987 1840 52 3000 180/12 RMK AO2 T02110111
13962KABI ABI20160229191510402/29/16 19:15:31  5-MIN KABI 010115Z 18011KT 10SM CLR 21/11 A2987 1840 54 2900 180/11 RMK AO2 T02060111
13962KABI ABI20160229192010402/29/16 19:20:31  5-MIN KABI 010120Z 19011KT 10SM CLR 21/11 A2987 1840 54 2900 180/11 RMK AO2 T02060111
13962KABI ABI20160229192510402/29/16 19:25:31  5-MIN KABI 010125Z 18011KT 10SM CLR 21/11 A2987 1840 54 2900 180/11 RMK AO2 T02060111
13962KABI ABI20160229193010402/29/16 19:30:31  5-MIN KABI 010130Z 19011KT 10SM CLR 21/11 A2988 1830 54 2900 180/11 RMK AO2 T02060111
13962KABI ABI20160229193510402/29/16 19:35:31  5-MIN KABI 010135Z 19010KT 10SM CLR 21/11 A2988 1830 54 2900 180/10 RMK AO2 T02060111
13962KABI ABI20160229194010402/29/16 19:40:31  5-MIN KABI 010140Z 18010KT 10SM CLR 20/11 A2988 1830 56 2900 170/10 RMK AO2 T02000111
13962KABI ABI20160229194510402/29/16 19:45:31  5-MIN KABI 010145Z 18009KT 10SM CLR 19/11 A2989 1820 58 2800 170/09 RMK AO2 T01940111
13962KABI ABI20160229195011102/29/16 19:50:31  5-MIN KABI 010150Z 17010KT 10SM CLR 19/11 A2989 1820 58 2800 170/10 RMK AO2 SLP111 T01940111
13962KABI ABI20160229195510402/29/16 19:55:31  5-MIN KABI 010155Z 18009KT 10SM CLR 19/11 A2989 1820 58 2800 180/09 RMK AO2 T01940111
13962KABI ABI20160229200010402/29/16 20:00:31  5-MIN KABI 010200Z 19008KT 10SM CLR 19/11 A2990 1820 58 2800 190/08 RMK AO2 T01940111
13962KABI ABI20160229200510402/29/16 20:05:31  5-MIN KABI 010205Z 19007KT 10SM CLR 19/11 A2990 1810 60 2700 180/07 RMK AO2 T01890111
13962KABI ABI20160229201010402/29/16 20:10:31  5-MIN KABI 010210Z 18007KT 10SM CLR 19/11 A2990 1810 60 2700 180/07 RMK AO2 T01890111
13962KABI ABI20160229201510402/29/16 20:15:31  5-MIN KABI 010215Z 17008KT 10SM CLR 18/12 A2990 1810 65 2700 170/08 RMK AO2 T01830117
13962KABI ABI20160229202010402/29/16 20:20:31  5-MIN KABI 010220Z 18008KT 10SM CLR 18/12 A2990 1810 65 2700 170/08 RMK AO2 T01830117
13962KABI ABI20160229202510402/29/16 20:25:31  5-MIN KABI 010225Z 17010KT 10SM CLR 18/12 A2990 1810 67 2700 170/10 RMK AO2 T01830122
13962KABI ABI20160229203010402/29/16 20:30:31  5-MIN KABI 010230Z 17011KT 10SM CLR 19/12 A2990 1820 65 2700 170/11 RMK AO2 T01890122
13962KABI ABI20160229203510402/29/16 20:35:31  5-MIN KABI 010235Z 17010KT 10SM CLR 19/13 A2989 1820 67 2700 170/10 RMK AO2 T01890128
13962KABI ABI20160229204010402/29/16 20:40:31  5-MIN KABI 010240Z 18010KT 10SM CLR 19/13 A2989 1820 67 2700 170/10 RMK AO2 T01890128
13962KABI ABI20160229204510402/29/16 20:45:31  5-MIN KABI 010245Z 18011KT 10SM CLR 19/13 A2989 1820 67 2700 180/11 RMK AO2 T01890128
13962KABI ABI20160229205011702/29/16 20:50:31  5-MIN KABI 010250Z 18012KT 10SM CLR 18/13 A2989 1820 70 2700 170/12 RMK AO2 SLP108 T01830128 55015
13962KABI ABI20160229205510402/29/16 20:55:31  5-MIN KABI 010255Z 18013KT 10SM CLR 19/13 A2989 1820 67 2700 170/13 RMK AO2 T01890128
13962KABI ABI20160229210010402/29/16 21:00:31  5-MIN KABI 010300Z 18011KT 10SM CLR 19/13 A2989 1820 67 2700 170/11 RMK AO2 T01890128
13962KABI ABI20160229210510402/29/16 21:05:31  5-MIN KABI 010305Z 18012KT 10SM CLR 18/12 A2989 1820 67 2700 170/12 RMK AO2 T01830122
13962KABI ABI20160229211010402/29/16 21:10:31  5-MIN KABI 010310Z 18012KT 10SM CLR 18/12 A2989 1820 67 2700 170/12 RMK AO2 T01830122
13962KABI ABI20160229211510402/29/16 21:15:31  5-MIN KABI 010315Z 18011KT 10SM CLR 18/12 A2989 1820 67 2700 170/11 RMK AO2 T01830122
13962KABI ABI20160229212010402/29/16 21:20:31  5-MIN KABI 010320Z 17012KT 10SM CLR 18/12 A2989 1820 67 2700 170/12 RMK AO2 T01830122
13962KABI ABI20160229212510402/29/16 21:25:31  5-MIN KABI 010325Z 18012KT 10SM CLR 18/12 A2989 1820 67 2700 180/12 RMK AO2 T01830122
13962KABI ABI20160229213010402/29/16 21:30:31  5-MIN KABI 010330Z 18012KT 10SM CLR 18/12 A2989 1820 67 2700 170/12 RMK AO2 T01830122
13962KABI ABI20160229213510402/29/16 21:35:31  5-MIN KABI 010335Z 17015KT 10SM CLR 18/12 A2989 1820 67 2700 170/15 RMK AO2 T01830122
13962KABI ABI20160229214010402/29/16 21:40:31  5-MIN KABI 010340Z 18011KT 10SM CLR 18/12 A2989 1820 67 2700 180/11 RMK AO2 T01830122
13962KABI ABI20160229214510402/29/16 21:45:31  5-MIN KABI 010345Z 18011KT 10SM CLR 18/12 A2989 1820 69 2600 170/11 RMK AO2 T01780122
13962KABI ABI20160229215011702/29/16 21:50:31  5-MIN KABI 010350Z 18014G19KT 10SM CLR 18/12 A2989 1820 69 2600 170/14G19 RMK AO2 SLP105 T01780122
13962KABI ABI20160229215511002/29/16 21:55:31  5-MIN KABI 010355Z 18012G19KT 10SM CLR 18/12 A2989 1820 69 2600 170/12G19 RMK AO2 T01780122
13962KABI ABI20160229220010402/29/16 22:00:31  5-MIN KABI 010400Z 18011KT 10SM CLR 18/12 A2989 1820 69 2600 170/11 RMK AO2 T01780122
13962KABI ABI20160229220510402/29/16 22:05:31  5-MIN KABI 010405Z 18011KT 10SM CLR 18/12 A2989 1820 69 2600 170/11 RMK AO2 T01780122
13962KABI ABI20160229221010402/29/16 22:10:31  5-MIN KABI 010410Z 18011KT 10SM CLR 18/12 A2989 1820 69 2600 170/11 RMK AO2 T01780122
13962KABI ABI20160229221511002/29/16 22:15:31  5-MIN KABI 010415Z 18013G22KT 10SM CLR 18/12 A2989 1820 69 2600 180/13G22 RMK AO2 T01780122
13962KABI ABI20160229222011002/29/16 22:20:31  5-MIN KABI 010420Z 19013G22KT 10SM CLR 18/12 A2989 1820 69 2600 180/13G22 RMK AO2 T01780122
13962KABI ABI20160229222510402/29/16 22:25:31  5-MIN KABI 010425Z 19015KT 10SM CLR 18/12 A2989 1820 69 2600 190/15 RMK AO2 T01780122
13962KABI ABI20160229223011002/29/16 22:30:31  5-MIN KABI 010430Z 19017G22KT 10SM CLR 18/12 A2989 1820 69 2600 190/17G22 RMK AO2 T01780122
13962KABI ABI20160229223512802/29/16 22:35:31  5-MIN KABI 010435Z 19018G26KT 10SM CLR 18/12 A2989 1820 69 2600 190/18G26 RMK AO2 PK WND 19026/0435 T01780122
13962KABI ABI20160229224012802/29/16 22:40:31  5-MIN KABI 010440Z 19018G26KT 10SM CLR 18/12 A2989 1820 69 2600 190/18G26 RMK AO2 PK WND 19026/0435 T01780122
13962KABI ABI20160229224512802/29/16 22:45:31  5-MIN KABI 010445Z 19017G24KT 10SM CLR 18/12 A2989 1830 69 2600 190/17G24 RMK AO2 PK WND 19026/0435 T01780122
13962KABI ABI20160229225013502/29/16 22:50:31  5-MIN KABI 010450Z 19018G29KT 10SM CLR 18/12 A2988 1830 69 2600 190/18G29 RMK AO2 PK WND 20029/0447 SLP100 T01780122
13962KABI ABI20160229225512802/29/16 22:55:31  5-MIN KABI 010455Z 19020G30KT 10SM CLR 18/12 A2988 1830 69 2600 190/20G30 RMK AO2 PK WND 19030/0455 T01780122
13962KABI ABI20160229230012802/29/16 23:00:31  5-MIN KABI 010500Z 19022G30KT 10SM CLR 18/12 A2988 1830 69 2600 190/22G30 RMK AO2 PK WND 19030/0455 T01780122
13962KABI ABI20160229230512802/29/16 23:05:31  5-MIN KABI 010505Z 20023G29KT 10SM CLR 18/12 A2988 1830 69 2600 190/23G29 RMK AO2 PK WND 19030/0455 T01780122
13962KABI ABI20160229231012802/29/16 23:10:31  5-MIN KABI 010510Z 20023G32KT 10SM CLR 18/12 A2988 1830 69 2600 190/23G32 RMK AO2 PK WND 20032/0508 T01780122
13962KABI ABI20160229231512802/29/16 23:15:31  5-MIN KABI 010515Z 20020G32KT 10SM CLR 18/12 A2988 1830 69 2600 190/20G32 RMK AO2 PK WND 20032/0508 T01780122
13962KABI ABI20160229232012802/29/16 23:20:31  5-MIN KABI 010520Z 20025G30KT 10SM CLR 17/12 A2987 1840 72 2600 190/25G30 RMK AO2 PK WND 20032/0508 T01720122
13962KABI ABI20160229232512802/29/16 23:25:31  5-MIN KABI 010525Z 20025G30KT 10SM CLR 18/12 A2987 1830 69 2600 200/25G30 RMK AO2 PK WND 20032/0508 T01780122
13962KABI ABI20160229233012802/29/16 23:30:31  5-MIN KABI 010530Z 20024G31KT 10SM CLR 18/12 A2987 1840 69 2600 200/24G31 RMK AO2 PK WND 20032/0508 T01780122
13962KABI ABI20160229233512802/29/16 23:35:31  5-MIN KABI 010535Z 20021G31KT 10SM CLR 17/12 A2987 1840 72 2600 200/21G31 RMK AO2 PK WND 20032/0508 T01720122
13962KABI ABI20160229234012802/29/16 23:40:31  5-MIN KABI 010540Z 20023G30KT 10SM CLR 17/12 A2987 1840 72 2600 200/23G30 RMK AO2 PK WND 20032/0508 T01720122
13962KABI ABI20160229234512802/29/16 23:45:31  5-MIN KABI 010545Z 20022G32KT 10SM CLR 17/12 A2987 1840 72 2600 200/22G32 RMK AO2 PK WND 21032/0541 T01720122
13962KABI ABI20160229235016302/29/16 23:50:31  5-MIN KABI 010550Z 21024G32KT 10SM CLR 17/12 A2987 1840 72 2600 200/24G32 RMK AO2 PK WND 21032/0550 SLP094 T01720122 10239 20172 402560050 53003
13962KABI ABI20160229235512802/29/16 23:55:31  5-MIN KABI 010555Z 21022G34KT 10SM CLR 17/12 A2987 1840 72 2600 200/22G34 RMK AO2 PK WND 21034/0555 T01720122
