63870K0J4 0J420161101000010711/01/16 00:00:31  5-MIN K0J4 010500Z AUTO 00000KT 10SM CLR 14/12 A3010 150 83 200 000/00 RMK AO2 T01440117
63870K0J4 0J420161101000510711/01/16 00:05:31  5-MIN K0J4 010505Z AUTO 00000KT 10SM CLR 14/12 A3010 150 83 200 000/00 RMK AO2 T01440117
63870K0J4 0J420161101001010711/01/16 00:10:31  5-MIN K0J4 010510Z AUTO 00000KT 10SM CLR 14/12 A3010 150 83 200 000/00 RMK AO2 T01440117
63870K0J4 0J420161101001510711/01/16 00:15:31  5-MIN K0J4 010515Z AUTO 00000KT 10SM CLR 14/11 A3010 150 83 100 000/00 RMK AO2 T01390111
63870K0J4 0J420161101002010711/01/16 00:20:31  5-MIN K0J4 010520Z AUTO 00000KT 10SM CLR 14/12 A3010 150 83 200 000/00 RMK AO2 T01440117
63870K0J4 0J420161101111010711/01/16 11:10:31  5-MIN K0J4 011610Z AUTO VRB03KT 10SM CLR 27/12 A3021 50 39 1500 VRB/03 RMK AO2 T02720122
63870K0J4 0J420161101111510711/01/16 11:15:31  5-MIN K0J4 011615Z AUTO VRB04KT 10SM CLR 27/12 A3021 50 37 1500 VRB/04 RMK AO2 T02720117
63870K0J4 0J420161101112010711/01/16 11:20:31  5-MIN K0J4 011620Z AUTO 08006KT 10SM CLR 27/12 A3021 50 37 1500 080/06 RMK AO2 T02720117
63870K0J4 0J420161101112510711/01/16 11:25:31  5-MIN K0J4 011625Z AUTO 09006KT 10SM CLR 27/11 A3021 50 36 1500 090/06 RMK AO2 T02720111
63870K0J4 0J420161101113010711/01/16 11:30:31  5-MIN K0J4 011630Z AUTO 11005KT 10SM CLR 28/11 A3021 50 35 1600 110/05 RMK AO2 T02780111
63870K0J4 0J420161101113510711/01/16 11:35:31  5-MIN K0J4 011635Z AUTO VRB05KT 10SM CLR 28/11 A3020 50 35 1600 VRB/05 RMK AO2 T02780111
63870K0J4 0J420161101114010711/01/16 11:40:31  5-MIN K0J4 011640Z AUTO 11006KT 10SM CLR 28/11 A3021 50 33 1600 110/06 RMK AO2 T02780106
63870K0J4 0J420161101114510711/01/16 11:45:31  5-MIN K0J4 011645Z AUTO 14006KT 10SM CLR 27/11 A3020 50 36 1500 140/06 RMK AO2 T02720111
63870K0J4 0J420161101115010711/01/16 11:50:31  5-MIN K0J4 011650Z AUTO 10006KT 10SM CLR 27/11 A3020 60 36 1500 100/06 RMK AO2 T02720111
63870K0J4 0J420161101115511411/01/16 11:55:31  5-MIN K0J4 011655Z AUTO VRB05KT 10SM CLR 28/12 A3020 60 35 1600 VRB/05 RMK AO2 SLP223 T02830117
63870K0J4 0J420161101120010711/01/16 12:00:31  5-MIN K0J4 011700Z AUTO 11005KT 10SM CLR 28/11 A3020 60 35 1600 110/05 RMK AO2 T02780111
63870K0J4 0J420161101120510711/01/16 12:05:31  5-MIN K0J4 011705Z AUTO 00000KT 10SM CLR 28/11 A3020 60 35 1600 000/00 RMK AO2 T02780111
63870K0J4 0J420161101121009711/01/16 12:10:31  5-MIN K0J4 011710Z AUTO 10SM CLR 28/12 A3020 60 35 1700 M /M RMK AO2 T02830117
63870K0J4 0J420161101121510711/01/16 12:15:31  5-MIN K0J4 011715Z AUTO 06008KT 10SM CLR 28/12 A3019 60 36 1600 060/08 RMK AO2 T02780117
63870K0J4 0J420161101122010711/01/16 12:20:31  5-MIN K0J4 011720Z AUTO VRB05KT 10SM CLR 28/12 A3019 70 35 1700 VRB/05 RMK AO2 T02830117
63870K0J4 0J420161101122510711/01/16 12:25:31  5-MIN K0J4 011725Z AUTO 00000KT 10SM CLR 28/12 A3019 70 35 1700 000/00 RMK AO2 T02830117
63870K0J4 0J420161101123010711/01/16 12:30:31  5-MIN K0J4 011730Z AUTO 11005KT 10SM CLR 28/12 A3019 70 35 1700 110/05 RMK AO2 T02830117
63870K0J4 0J420161101123510711/01/16 12:35:31  5-MIN K0J4 011735Z AUTO 11006KT 10SM CLR 28/12 A3019 70 35 1700 110/06 RMK AO2 T02830117
63870K0J4 0J420161101124010711/01/16 12:40:31  5-MIN K0J4 011740Z AUTO 00000KT 10SM CLR 28/12 A3018 70 35 1700 000/00 RMK AO2 T02830117
63870K0J4 0J420161101124509711/01/16 12:45:31  5-MIN K0J4 011745Z AUTO 10SM CLR 28/12 A3018 80 35 1700 M /M RMK AO2 T02830117
63870K0J4 0J420161101125010711/01/16 12:50:31  5-MIN K0J4 011750Z AUTO VRB03KT 10SM CLR 28/11 A3018 80 33 1700 VRB/03 RMK AO2 T02830111
63870K0J4 0J420161101125512811/01/16 12:55:31  5-MIN K0J4 011755Z AUTO 10SM CLR 29/12 A3017 80 34 1700 M /M RMK AO2 SLP214 60000 T02890117 10289 20111 51016
63870K0J4 0J420161101130010711/01/16 13:00:31  5-MIN K0J4 011800Z AUTO VRB03KT 10SM CLR 29/12 A3017 80 34 1700 VRB/03 RMK AO2 T02890117
63870K0J4 0J420161101130510711/01/16 13:05:31  5-MIN K0J4 011805Z AUTO 15007KT 10SM CLR 29/12 A3017 90 34 1700 150/07 RMK AO2 T02890117
63870K0J4 0J420161101131010711/01/16 13:10:31  5-MIN K0J4 011810Z AUTO 18009KT 10SM CLR 29/12 A3017 90 34 1700 180/09 RMK AO2 T02890117
63870K0J4 0J420161101131510711/01/16 13:15:31  5-MIN K0J4 011815Z AUTO VRB03KT 10SM CLR 29/12 A3017 90 34 1700 VRB/03 RMK AO2 T02890117
63870K0J4 0J420161101132010711/01/16 13:20:31  5-MIN K0J4 011820Z AUTO VRB06KT 10SM CLR 29/12 A3016 90 34 1700 VRB/06 RMK AO2 T02890117
63870K0J4 0J420161101132510711/01/16 13:25:31  5-MIN K0J4 011825Z AUTO 08007KT 10SM CLR 29/12 A3016 90 34 1700 080/07 RMK AO2 T02890117
63870K0J4 0J420161101133010711/01/16 13:30:31  5-MIN K0J4 011830Z AUTO 09007KT 10SM CLR 29/12 A3017 90 33 1800 090/07 RMK AO2 T02940117
63870K0J4 0J420161101133510711/01/16 13:35:31  5-MIN K0J4 011835Z AUTO 05008KT 10SM CLR 29/12 A3016 90 34 1800 050/08 RMK AO2 T02890117
63870K0J4 0J420161101134010711/01/16 13:40:31  5-MIN K0J4 011840Z AUTO 00000KT 10SM CLR 29/12 A3016 90 34 1800 000/00 RMK AO2 T02890117
63870K0J4 0J420161101134510811/01/16 13:45:31  5-MIN K0J4 011845Z AUTO 00000KT 10SM CLR 29/11 A3016 100 32 1800 000/00 RMK AO2 T02890111
63870K0J4 0J420161101135009811/01/16 13:50:31  5-MIN K0J4 011850Z AUTO 10SM CLR 29/12 A3016 100 33 1800 M /M RMK AO2 T02940117
63870K0J4 0J420161101135513111/01/16 13:55:31  5-MIN K0J4 011855Z AUTO VRB04KT 10SM -RA CLR 29/11 A3015 100 31 1800 VRB/04 RMK AO2 RAB55 SLP207 P0000 T02940111
63870K0J4 0J420161101140011811/01/16 14:00:31  5-MIN K0J4 011900Z AUTO VRB06KT 10SM -RA CLR 29/12 A3015 100 34 1800 VRB/06 RMK AO2 P0000 T02890117
63870K0J4 0J420161101140512011/01/16 14:05:31  5-MIN K0J4 011905Z AUTO VRB06KT 10SM CLR 29/12 A3015 100 34 1800 VRB/06 RMK AO2 RAE04 P0000 T02890117
63870K0J4 0J420161101141012011/01/16 14:10:31  5-MIN K0J4 011910Z AUTO 00000KT 10SM CLR 29/11 A3015 110 32 1800 000/00 RMK AO2 RAE04 P0000 T02890111
63870K0J4 0J420161101141512011/01/16 14:15:31  5-MIN K0J4 011915Z AUTO 11004KT 10SM CLR 29/11 A3015 110 32 1800 110/04 RMK AO2 RAE04 P0000 T02890111
63870K0J4 0J420161101142012011/01/16 14:20:31  5-MIN K0J4 011920Z AUTO VRB06KT 10SM CLR 29/12 A3015 110 33 1800 VRB/06 RMK AO2 RAE04 P0000 T02940117
63870K0J4 0J420161101142512011/01/16 14:25:31  5-MIN K0J4 011925Z AUTO VRB04KT 10SM CLR 29/11 A3015 110 32 1800 VRB/04 RMK AO2 RAE04 P0000 T02890111
63870K0J4 0J420161101143012011/01/16 14:30:31  5-MIN K0J4 011930Z AUTO VRB04KT 10SM CLR 29/11 A3014 110 32 1800 VRB/04 RMK AO2 RAE04 P0000 T02890111
63870K0J4 0J420161101143513611/01/16 14:35:31  5-MIN K0J4 011935Z AUTO 13007KT 100V170 10SM CLR 29/11 A3014 110 31 1800 130/07 100V170 RMK AO2 RAE04 P0000 T02940111
63870K0J4 0J420161101144012011/01/16 14:40:31  5-MIN K0J4 011940Z AUTO 12006KT 10SM CLR 29/11 A3014 110 32 1800 120/06 RMK AO2 RAE04 P0000 T02890111
63870K0J4 0J420161101144512011/01/16 14:45:31  5-MIN K0J4 011945Z AUTO VRB06KT 10SM CLR 29/11 A3014 110 31 1800 VRB/06 RMK AO2 RAE04 P0000 T02940111
63870K0J4 0J420161101145012011/01/16 14:50:31  5-MIN K0J4 011950Z AUTO 10005KT 10SM CLR 29/11 A3014 110 31 1800 100/05 RMK AO2 RAE04 P0000 T02940111
63870K0J4 0J420161101145512711/01/16 14:55:31  5-MIN K0J4 011955Z AUTO 10004KT 10SM CLR 29/11 A3014 110 30 1800 100/04 RMK AO2 RAE04 SLP202 P0000 T02940106
63870K0J4 0J420161101150010811/01/16 15:00:31  5-MIN K0J4 012000Z AUTO VRB03KT 10SM CLR 29/11 A3014 120 31 1800 VRB/03 RMK AO2 T02940111
63870K0J4 0J420161101150512411/01/16 15:05:31  5-MIN K0J4 012005Z AUTO 12008KT 080V160 10SM CLR 30/12 A3014 110 31 1900 120/08 080V160 RMK AO2 T03000117
63870K0J4 0J420161101151010811/01/16 15:10:31  5-MIN K0J4 012010Z AUTO 13006KT 10SM CLR 29/11 A3014 120 31 1800 130/06 RMK AO2 T02940111
63870K0J4 0J420161101151510811/01/16 15:15:31  5-MIN K0J4 012015Z AUTO 09005KT 10SM CLR 30/11 A3014 120 30 1900 090/05 RMK AO2 T03000111
63870K0J4 0J420161101152010811/01/16 15:20:31  5-MIN K0J4 012020Z AUTO 15009KT 10SM CLR 30/12 A3014 120 31 1900 150/09 RMK AO2 T03000117
63870K0J4 0J420161101152510811/01/16 15:25:31  5-MIN K0J4 012025Z AUTO 12007KT 10SM CLR 29/11 A3014 120 31 1800 120/07 RMK AO2 T02940111
63870K0J4 0J420161101153010811/01/16 15:30:31  5-MIN K0J4 012030Z AUTO VRB05KT 10SM CLR 29/11 A3014 120 31 1800 VRB/05 RMK AO2 T02940111
63870K0J4 0J420161101153510811/01/16 15:35:31  5-MIN K0J4 012035Z AUTO VRB05KT 10SM CLR 30/11 A3014 120 30 1900 VRB/05 RMK AO2 T03000111
63870K0J4 0J420161101154010811/01/16 15:40:31  5-MIN K0J4 012040Z AUTO 17005KT 10SM CLR 29/11 A3014 120 31 1800 170/05 RMK AO2 T02940111
63870K0J4 0J420161101154510811/01/16 15:45:31  5-MIN K0J4 012045Z AUTO 09006KT 10SM CLR 30/11 A3014 120 30 1900 090/06 RMK AO2 T03000111
63870K0J4 0J420161101155010811/01/16 15:50:31  5-MIN K0J4 012050Z AUTO VRB06KT 10SM CLR 29/12 A3014 120 33 1800 VRB/06 RMK AO2 T02940117
63870K0J4 0J420161101155512711/01/16 15:55:31  5-MIN K0J4 012055Z AUTO 15004KT 10SM CLR 29/12 A3014 120 33 1800 150/04 RMK AO2 SLP202 60000 T02940117 58014
63870K0J4 0J420161101160010811/01/16 16:00:31  5-MIN K0J4 012100Z AUTO 16007KT 10SM CLR 29/12 A3014 120 33 1800 160/07 RMK AO2 T02940117
63870K0J4 0J420161101160510811/01/16 16:05:31  5-MIN K0J4 012105Z AUTO 15005KT 10SM CLR 29/12 A3014 120 34 1800 150/05 RMK AO2 T02890117
63870K0J4 0J420161101161010811/01/16 16:10:31  5-MIN K0J4 012110Z AUTO 12004KT 10SM CLR 29/12 A3014 120 33 1800 120/04 RMK AO2 T02940117
63870K0J4 0J420161101161510811/01/16 16:15:31  5-MIN K0J4 012115Z AUTO 14005KT 10SM CLR 29/12 A3014 120 34 1800 140/05 RMK AO2 T02890117
63870K0J4 0J420161101162010811/01/16 16:20:31  5-MIN K0J4 012120Z AUTO 16006KT 10SM CLR 29/12 A3014 120 35 1800 160/06 RMK AO2 T02890122
63870K0J4 0J420161101162510811/01/16 16:25:31  5-MIN K0J4 012125Z AUTO 12004KT 10SM CLR 29/12 A3014 120 35 1800 120/04 RMK AO2 T02890122
63870K0J4 0J420161101163010811/01/16 16:30:31  5-MIN K0J4 012130Z AUTO 18004KT 10SM CLR 29/12 A3014 120 35 1800 180/04 RMK AO2 T02890122
63870K0J4 0J420161101163510811/01/16 16:35:31  5-MIN K0J4 012135Z AUTO 16006KT 10SM CLR 29/12 A3014 110 35 1800 160/06 RMK AO2 T02890122
63870K0J4 0J420161101164010811/01/16 16:40:31  5-MIN K0J4 012140Z AUTO 15005KT 10SM CLR 29/12 A3014 110 35 1800 150/05 RMK AO2 T02890122
63870K0J4 0J420161101164510811/01/16 16:45:31  5-MIN K0J4 012145Z AUTO 12004KT 10SM CLR 29/12 A3014 120 35 1800 120/04 RMK AO2 T02890122
63870K0J4 0J420161101165010811/01/16 16:50:31  5-MIN K0J4 012150Z AUTO 12004KT 10SM CLR 29/12 A3014 120 35 1800 120/04 RMK AO2 T02890122
63870K0J4 0J420161101165511511/01/16 16:55:31  5-MIN K0J4 012155Z AUTO 11003KT 10SM CLR 29/12 A3014 120 35 1800 110/03 RMK AO2 SLP201 T02890122
63870K0J4 0J420161101170010811/01/16 17:00:31  5-MIN K0J4 012200Z AUTO 12003KT 10SM CLR 28/12 A3014 120 36 1700 120/03 RMK AO2 T02830122
63870K0J4 0J420161101170510811/01/16 17:05:31  5-MIN K0J4 012205Z AUTO 14004KT 10SM CLR 28/13 A3014 120 39 1700 140/04 RMK AO2 T02780128
63870K0J4 0J420161101171010811/01/16 17:10:31  5-MIN K0J4 012210Z AUTO 00000KT 10SM CLR 28/13 A3014 120 39 1700 000/00 RMK AO2 T02780128
63870K0J4 0J420161101171510811/01/16 17:15:31  5-MIN K0J4 012215Z AUTO 14004KT 10SM CLR 28/13 A3014 120 39 1700 140/04 RMK AO2 T02780128
63870K0J4 0J420161101172010811/01/16 17:20:31  5-MIN K0J4 012220Z AUTO 15003KT 10SM CLR 27/13 A3014 110 40 1600 150/03 RMK AO2 T02720128
63870K0J4 0J420161101172510811/01/16 17:25:31  5-MIN K0J4 012225Z AUTO 15004KT 10SM CLR 27/13 A3014 110 40 1600 150/04 RMK AO2 T02720128
63870K0J4 0J420161101173007511/01/16 17:30:31  5-MIN K0J4 012230Z AUTO 16004KT 10SM CLR 27/13 A3014 110
63870K0J4 0J420161101221010611/01/16 22:10:31  5-MIN K0J4 020310Z AUTO 00000KT 10SM CLR 18/17 A3021 50 93 400 000/00 RMK AO2 T01780167
63870K0J4 0J420161101221510611/01/16 22:15:31  5-MIN K0J4 020315Z AUTO 00000KT 10SM CLR 17/16 A3021 50 90 400 000/00 RMK AO2 T01720156
63870K0J4 0J420161101222010611/01/16 22:20:31  5-MIN K0J4 020320Z AUTO 00000KT 10SM CLR 18/16 A3021 50 90 400 000/00 RMK AO2 T01780161
63870K0J4 0J420161101223007911/01/16 22:30:31  5-MIN K0J4 020330Z AUTO 00000KT A3021 M M M 000/00 RMK AO2 $
63870K0J4 0J420161101223510411/01/16 22:35:31  5-MIN K0J4 020335Z AUTO 00000KT 10SM 17/16 A3021 50 90 400 000/00 RMK AO2 T01720156 $
63870K0J4 0J420161101224010411/01/16 22:40:31  5-MIN K0J4 020340Z AUTO 00000KT 10SM 17/16 A3021 50 93 300 000/00 RMK AO2 T01670156 $
63870K0J4 0J420161101224510411/01/16 22:45:31  5-MIN K0J4 020345Z AUTO 00000KT 10SM 17/16 A3021 50 90 400 000/00 RMK AO2 T01720156 $
63870K0J4 0J420161101225010411/01/16 22:50:31  5-MIN K0J4 020350Z AUTO 00000KT 10SM 17/16 A3021 50 93 300 000/00 RMK AO2 T01670156 $
63870K0J4 0J420161101225511011/01/16 22:55:31  5-MIN K0J4 020355Z AUTO 00000KT 8SM 17/16 A3021 50 93 300 000/00 RMK AO2 SLP227 T01670156 $
63870K0J4 0J420161101230011011/01/16 23:00:31  5-MIN K0J4 020400Z AUTO 00000KT 4SM BR CLR 17/16 A3022 40 93 300 000/00 RMK AO2 T01670156 $
63870K0J4 0J420161101230511011/01/16 23:05:31  5-MIN K0J4 020405Z AUTO 00000KT 4SM BR CLR 16/16 A3022 40 96 200 000/00 RMK AO2 T01610156 $
63870K0J4 0J420161101231011011/01/16 23:10:31  5-MIN K0J4 020410Z AUTO 00000KT 5SM BR CLR 16/16 A3022 40 96 200 000/00 RMK AO2 T01610156 $
63870K0J4 0J420161101231510711/01/16 23:15:31  5-MIN K0J4 020415Z AUTO 00000KT 7SM CLR 16/15 A3022 40 93 200 000/00 RMK AO2 T01610150 $
63870K0J4 0J420161101232010711/01/16 23:20:31  5-MIN K0J4 020420Z AUTO 00000KT 9SM CLR 16/15 A3022 40 96 200 000/00 RMK AO2 T01560150 $
63870K0J4 0J420161101232510711/01/16 23:25:31  5-MIN K0J4 020425Z AUTO 00000KT 9SM CLR 16/15 A3022 40 96 200 000/00 RMK AO2 T01560150 $
63870K0J4 0J420161101233010811/01/16 23:30:31  5-MIN K0J4 020430Z AUTO 00000KT 10SM CLR 16/15 A3022 40 93 200 000/00 RMK AO2 T01610150 $
63870K0J4 0J420161101233510811/01/16 23:35:31  5-MIN K0J4 020435Z AUTO 00000KT 10SM CLR 16/15 A3022 40 93 200 000/00 RMK AO2 T01610150 $
63870K0J4 0J420161101234010811/01/16 23:40:31  5-MIN K0J4 020440Z AUTO 02003KT 10SM CLR 16/15 A3022 40 96 200 020/03 RMK AO2 T01560150 $
63870K0J4 0J420161101234510811/01/16 23:45:31  5-MIN K0J4 020445Z AUTO 03003KT 10SM CLR 17/16 A3022 40 93 300 030/03 RMK AO2 T01670156 $
63870K0J4 0J420161101235010711/01/16 23:50:31  5-MIN K0J4 020450Z AUTO 04003KT 9SM CLR 16/15 A3022 40 93 200 040/03 RMK AO2 T01610150 $
63870K0J4 0J420161101235512411/01/16 23:55:31  5-MIN K0J4 020455Z AUTO 00000KT 9SM CLR 16/15 A3022 40 96 200 000/00 RMK AO2 SLP231 T01560150 403000111 $
63870K0J4 0J420161102000010711/02/16 00:00:31  5-MIN K0J4 020500Z AUTO 00000KT 9SM CLR 16/15 A3022 40 93 200 000/00 RMK AO2 T01610150 $
63870K0J4 0J420161102000510711/02/16 00:05:31  5-MIN K0J4 020505Z AUTO 00000KT 7SM CLR 17/16 A3022 40 93 300 000/00 RMK AO2 T01670156 $
63870K0J4 0J420161102001011011/02/16 00:10:31  5-MIN K0J4 020510Z AUTO 00000KT 6SM BR CLR 17/16 A3022 40 93 300 000/00 RMK AO2 T01670156 $
63870K0J4 0J420161102001511011/02/16 00:15:31  5-MIN K0J4 020515Z AUTO 00000KT 5SM BR CLR 16/16 A3022 40 96 200 000/00 RMK AO2 T01610156 $
63870K0J4 0J420161102002011011/02/16 00:20:31  5-MIN K0J4 020520Z AUTO 00000KT 5SM BR CLR 17/16 A3022 40 93 300 000/00 RMK AO2 T01670156 $
63870K0J4 0J420161102002511011/02/16 00:25:31  5-MIN K0J4 020525Z AUTO 00000KT 6SM BR CLR 17/16 A3022 40 93 300 000/00 RMK AO2 T01670156 $
63870K0J4 0J420161102003010711/02/16 00:30:31  5-MIN K0J4 020530Z AUTO 00000KT 7SM CLR 17/16 A3022 40 93 300 000/00 RMK AO2 T01670156 $
63870K0J4 0J420161102003510711/02/16 00:35:31  5-MIN K0J4 020535Z AUTO 00000KT 7SM CLR 17/16 A3022 40 96 300 000/00 RMK AO2 T01670161 $
63870K0J4 0J420161102004011011/02/16 00:40:31  5-MIN K0J4 020540Z AUTO 00000KT 6SM BR CLR 16/16 A3022 40 96 200 000/00 RMK AO2 T01610156 $
63870K0J4 0J420161102004511011/02/16 00:45:31  5-MIN K0J4 020545Z AUTO 07003KT 6SM BR CLR 17/16 A3023 40 93 300 070/03 RMK AO2 T01670156 $
63870K0J4 0J420161102005010711/02/16 00:50:31  5-MIN K0J4 020550Z AUTO 02003KT 7SM CLR 17/16 A3022 40 93 400 020/03 RMK AO2 T01720161 $
63870K0J4 0J420161102005513211/02/16 00:55:31  5-MIN K0J4 020555Z AUTO 04003KT 8SM CLR 17/16 A3022 40 93 300 040/03 RMK AO2 SLP230 60000 T01720161 10228 20156 $
63870K0J4 0J420161102010010711/02/16 01:00:31  5-MIN K0J4 020600Z AUTO 00000KT 8SM CLR 17/17 A3022 40 96 300 000/00 RMK AO2 T01720167 $
63870K0J4 0J420161102010510711/02/16 01:05:31  5-MIN K0J4 020605Z AUTO 05003KT 9SM CLR 17/17 A3023 40 96 300 050/03 RMK AO2 T01720167 $
63870K0J4 0J420161102011010711/02/16 01:10:31  5-MIN K0J4 020610Z AUTO 07005KT 9SM CLR 17/16 A3023 30 96 300 070/05 RMK AO2 T01670161 $
63870K0J4 0J420161102011510711/02/16 01:15:31  5-MIN K0J4 020615Z AUTO 07005KT 9SM CLR 17/16 A3023 30 93 300 070/05 RMK AO2 T01720161 $
63870K0J4 0J420161102012010711/02/16 01:20:31  5-MIN K0J4 020620Z AUTO 07005KT 9SM CLR 17/17 A3023 30 96 300 070/05 RMK AO2 T01720167 $
63870K0J4 0J420161102012510711/02/16 01:25:31  5-MIN K0J4 020625Z AUTO 08005KT 9SM CLR 17/17 A3023 30 96 300 080/05 RMK AO2 T01720167 $
63870K0J4 0J420161102013010711/02/16 01:30:31  5-MIN K0J4 020630Z AUTO 08005KT 9SM CLR 17/16 A3023 30 93 300 080/05 RMK AO2 T01720161 $
63870K0J4 0J420161102013510711/02/16 01:35:31  5-MIN K0J4 020635Z AUTO 08006KT 9SM CLR 17/16 A3023 30 93 300 080/06 RMK AO2 T01720161 $
63870K0J4 0J420161102014010711/02/16 01:40:31  5-MIN K0J4 020640Z AUTO 08005KT 8SM CLR 17/16 A3023 30 93 300 080/05 RMK AO2 T01720161 $
63870K0J4 0J420161102014510711/02/16 01:45:31  5-MIN K0J4 020645Z AUTO 08005KT 8SM CLR 17/16 A3023 30 93 300 080/05 RMK AO2 T01720161 $
63870K0J4 0J420161102015010711/02/16 01:50:31  5-MIN K0J4 020650Z AUTO 08005KT 8SM CLR 17/16 A3023 30 93 300 080/05 RMK AO2 T01720161 $
63870K0J4 0J420161102015511411/02/16 01:55:31  5-MIN K0J4 020655Z AUTO 07004KT 8SM CLR 17/16 A3023 30 96 300 070/04 RMK AO2 SLP234 T01670161 $
63870K0J4 0J420161102020010711/02/16 02:00:31  5-MIN K0J4 020700Z AUTO 08004KT 8SM CLR 17/16 A3023 30 93 300 080/04 RMK AO2 T01670156 $
63870K0J4 0J420161102020510711/02/16 02:05:31  5-MIN K0J4 020705Z AUTO 08005KT 8SM CLR 17/16 A3023 30 93 300 080/05 RMK AO2 T01670156 $
63870K0J4 0J420161102021010711/02/16 02:10:31  5-MIN K0J4 020710Z AUTO 08004KT 8SM CLR 17/16 A3023 30 96 300 080/04 RMK AO2 T01670161 $
63870K0J4 0J420161102021510711/02/16 02:15:31  5-MIN K0J4 020715Z AUTO 07003KT 8SM CLR 17/16 A3023 30 93 300 070/03 RMK AO2 T01670156 $
63870K0J4 0J420161102022010711/02/16 02:20:31  5-MIN K0J4 020720Z AUTO 07005KT 8SM CLR 17/16 A3023 30 93 300 070/05 RMK AO2 T01670156 $
63870K0J4 0J420161102022510711/02/16 02:25:31  5-MIN K0J4 020725Z AUTO 07004KT 8SM CLR 17/16 A3023 30 93 300 070/04 RMK AO2 T01670156 $
63870K0J4 0J420161102023010711/02/16 02:30:31  5-MIN K0J4 020730Z AUTO 07004KT 8SM CLR 17/16 A3023 30 93 300 070/04 RMK AO2 T01670156 $
63870K0J4 0J420161102023510711/02/16 02:35:31  5-MIN K0J4 020735Z AUTO 07005KT 9SM CLR 17/16 A3023 30 93 300 070/05 RMK AO2 T01670156 $
63870K0J4 0J420161102024010811/02/16 02:40:31  5-MIN K0J4 020740Z AUTO 08005KT 10SM CLR 17/16 A3023 30 93 300 080/05 RMK AO2 T01670156 $
63870K0J4 0J420161102024510811/02/16 02:45:31  5-MIN K0J4 020745Z AUTO 08005KT 10SM CLR 17/16 A3023 30 90 300 080/05 RMK AO2 T01720156 $
63870K0J4 0J420161102025010811/02/16 02:50:31  5-MIN K0J4 020750Z AUTO 07005KT 10SM CLR 17/16 A3023 30 90 300 070/05 RMK AO2 T01720156 $
63870K0J4 0J420161102025511511/02/16 02:55:31  5-MIN K0J4 020755Z AUTO 07005KT 10SM CLR 17/16 A3023 30 90 300 070/05 RMK AO2 SLP232 T01720156 $
63870K0J4 0J420161102030010811/02/16 03:00:31  5-MIN K0J4 020800Z AUTO 08004KT 10SM CLR 17/16 A3023 30 90 300 080/04 RMK AO2 T01720156 $
63870K0J4 0J420161102030510811/02/16 03:05:31  5-MIN K0J4 020805Z AUTO 08004KT 10SM CLR 17/16 A3023 30 90 300 080/04 RMK AO2 T01720156 $
63870K0J4 0J420161102031010811/02/16 03:10:31  5-MIN K0J4 020810Z AUTO 08004KT 10SM CLR 17/16 A3023 30 90 300 080/04 RMK AO2 T01720156 $
63870K0J4 0J420161102031510811/02/16 03:15:31  5-MIN K0J4 020815Z AUTO 08004KT 10SM CLR 17/16 A3023 40 90 300 080/04 RMK AO2 T01720156 $
63870K0J4 0J420161102032010811/02/16 03:20:31  5-MIN K0J4 020820Z AUTO 07004KT 10SM CLR 17/16 A3022 40 93 300 070/04 RMK AO2 T01670156 $
63870K0J4 0J420161102032510811/02/16 03:25:31  5-MIN K0J4 020825Z AUTO 07004KT 10SM CLR 17/15 A3022 40 90 300 070/04 RMK AO2 T01670150 $
63870K0J4 0J420161102033010811/02/16 03:30:31  5-MIN K0J4 020830Z AUTO 06004KT 10SM CLR 17/15 A3022 40 90 300 060/04 RMK AO2 T01670150 $
63870K0J4 0J420161102033510811/02/16 03:35:31  5-MIN K0J4 020835Z AUTO 07004KT 10SM CLR 17/15 A3022 40 90 300 070/04 RMK AO2 T01670150 $
63870K0J4 0J420161102034010811/02/16 03:40:31  5-MIN K0J4 020840Z AUTO 07004KT 10SM CLR 17/15 A3022 40 90 300 070/04 RMK AO2 T01670150 $
63870K0J4 0J420161102034510811/02/16 03:45:31  5-MIN K0J4 020845Z AUTO 06005KT 10SM CLR 17/15 A3022 40 90 300 060/05 RMK AO2 T01670150 $
63870K0J4 0J420161102035010811/02/16 03:50:31  5-MIN K0J4 020850Z AUTO 07004KT 10SM CLR 17/15 A3022 40 90 300 070/04 RMK AO2 T01670150 $
63870K0J4 0J420161102035511511/02/16 03:55:31  5-MIN K0J4 020855Z AUTO 07004KT 10SM CLR 17/15 A3022 40 90 300 070/04 RMK AO2 SLP231 T01670150 $
63870K0J4 0J420161102040010811/02/16 04:00:31  5-MIN K0J4 020900Z AUTO 07005KT 10SM CLR 17/15 A3022 40 90 300 070/05 RMK AO2 T01670150 $
63870K0J4 0J420161102040510811/02/16 04:05:31  5-MIN K0J4 020905Z AUTO 08004KT 10SM CLR 17/15 A3022 40 90 300 080/04 RMK AO2 T01670150 $
63870K0J4 0J420161102041010811/02/16 04:10:31  5-MIN K0J4 020910Z AUTO 08003KT 10SM CLR 17/15 A3022 40 90 300 080/03 RMK AO2 T01670150 $
63870K0J4 0J420161102041510811/02/16 04:15:31  5-MIN K0J4 020915Z AUTO 08004KT 10SM CLR 17/15 A3023 30 90 300 080/04 RMK AO2 T01670150 $
63870K0J4 0J420161102042010811/02/16 04:20:31  5-MIN K0J4 020920Z AUTO 07004KT 10SM CLR 17/14 A3023 30 86 300 070/04 RMK AO2 T01670144 $
63870K0J4 0J420161102042510811/02/16 04:25:31  5-MIN K0J4 020925Z AUTO 08004KT 10SM CLR 17/14 A3023 30 86 300 080/04 RMK AO2 T01670144 $
63870K0J4 0J420161102043010811/02/16 04:30:31  5-MIN K0J4 020930Z AUTO 07004KT 10SM CLR 17/14 A3022 40 86 300 070/04 RMK AO2 T01670144 $
63870K0J4 0J420161102043510811/02/16 04:35:31  5-MIN K0J4 020935Z AUTO 08005KT 10SM CLR 17/14 A3023 30 86 300 080/05 RMK AO2 T01670144 $
63870K0J4 0J420161102044010811/02/16 04:40:31  5-MIN K0J4 020940Z AUTO 08004KT 10SM CLR 17/14 A3023 30 86 300 080/04 RMK AO2 T01670144 $
63870K0J4 0J420161102082010611/02/16 08:20:31  5-MIN K0J4 021320Z AUTO 07006KT 9SM CLR 18/16 A3028 -10 90 300 070/06 RMK AO2 T01780161
63870K0J4 0J420161102082510611/02/16 08:25:31  5-MIN K0J4 021325Z AUTO 08005KT 9SM CLR 18/16 A3028 -10 90 300 080/05 RMK AO2 T01780161
63870K0J4 0J420161102083010611/02/16 08:30:31  5-MIN K0J4 021330Z AUTO 08006KT 9SM CLR 18/17 A3029 -20 90 400 080/06 RMK AO2 T01830167
63870K0J4 0J420161102083510611/02/16 08:35:31  5-MIN K0J4 021335Z AUTO 07006KT 9SM CLR 18/16 A3029 -20 87 400 070/06 RMK AO2 T01830161
63870K0J4 0J420161102084010611/02/16 08:40:31  5-MIN K0J4 021340Z AUTO 08007KT 9SM CLR 18/16 A3029 -20 87 400 080/07 RMK AO2 T01830161
63870K0J4 0J420161102084510711/02/16 08:45:31  5-MIN K0J4 021345Z AUTO 08007KT 10SM CLR 18/16 A3029 -20 87 400 080/07 RMK AO2 T01830161
63870K0J4 0J420161102085010711/02/16 08:50:31  5-MIN K0J4 021350Z AUTO 08006KT 10SM CLR 19/17 A3029 -20 87 500 080/06 RMK AO2 T01890167
63870K0J4 0J420161102085511411/02/16 08:55:31  5-MIN K0J4 021355Z AUTO 08006KT 10SM CLR 19/17 A3029 -20 87 500 080/06 RMK AO2 SLP254 T01890167
63870K0J4 0J420161102090010711/02/16 09:00:31  5-MIN K0J4 021400Z AUTO 08005KT 10SM CLR 19/17 A3029 -20 87 500 080/05 RMK AO2 T01940172
63870K0J4 0J420161102090510711/02/16 09:05:31  5-MIN K0J4 021405Z AUTO 09007KT 10SM CLR 19/17 A3029 -20 87 500 090/07 RMK AO2 T01940172
63870K0J4 0J420161102091010711/02/16 09:10:31  5-MIN K0J4 021410Z AUTO VRB05KT 10SM CLR 20/17 A3029 -20 84 600 VRB/05 RMK AO2 T02000172
63870K0J4 0J420161102091510711/02/16 09:15:31  5-MIN K0J4 021415Z AUTO 08006KT 10SM CLR 21/17 A3029 -20 81 700 080/06 RMK AO2 T02060172
63870K0J4 0J420161102092010711/02/16 09:20:31  5-MIN K0J4 021420Z AUTO 09006KT 10SM CLR 21/17 A3029 -20 81 700 090/06 RMK AO2 T02060172
63870K0J4 0J420161102092510711/02/16 09:25:31  5-MIN K0J4 021425Z AUTO 10005KT 10SM CLR 21/17 A3029 -20 81 700 100/05 RMK AO2 T02060172
63870K0J4 0J420161102093010711/02/16 09:30:31  5-MIN K0J4 021430Z AUTO 10006KT 10SM CLR 21/17 A3030 -20 78 700 100/06 RMK AO2 T02110172
63870K0J4 0J420161102093510711/02/16 09:35:31  5-MIN K0J4 021435Z AUTO 09008KT 10SM CLR 21/17 A3030 -30 78 700 090/08 RMK AO2 T02110172
63870K0J4 0J420161102094010711/02/16 09:40:31  5-MIN K0J4 021440Z AUTO 08007KT 10SM CLR 21/17 A3030 -30 78 700 080/07 RMK AO2 T02110172
63870K0J4 0J420161102094510711/02/16 09:45:31  5-MIN K0J4 021445Z AUTO VRB06KT 10SM CLR 21/17 A3030 -30 78 700 VRB/06 RMK AO2 T02110172
63870K0J4 0J420161102095010711/02/16 09:50:31  5-MIN K0J4 021450Z AUTO 09006KT 10SM CLR 22/17 A3030 -30 75 800 090/06 RMK AO2 T02170172
63870K0J4 0J420161102095512011/02/16 09:55:31  5-MIN K0J4 021455Z AUTO VRB03KT 10SM CLR 22/18 A3030 -30 75 800 VRB/03 RMK AO2 SLP256 T02220178 53010
63870K0J4 0J420161102100010711/02/16 10:00:31  5-MIN K0J4 021500Z AUTO 09007KT 10SM CLR 22/17 A3030 -30 73 800 090/07 RMK AO2 T02220172
63870K0J4 0J420161102100510711/02/16 10:05:31  5-MIN K0J4 021505Z AUTO VRB04KT 10SM CLR 22/18 A3030 -30 75 800 VRB/04 RMK AO2 T02220178
63870K0J4 0J420161102101010711/02/16 10:10:31  5-MIN K0J4 021510Z AUTO VRB06KT 10SM CLR 23/18 A3030 -30 73 900 VRB/06 RMK AO2 T02280178
63870K0J4 0J420161102101510711/02/16 10:15:31  5-MIN K0J4 021515Z AUTO 09006KT 10SM CLR 23/18 A3030 -30 73 900 090/06 RMK AO2 T02280178
63870K0J4 0J420161102102010711/02/16 10:20:31  5-MIN K0J4 021520Z AUTO 08005KT 10SM CLR 22/17 A3030 -30 73 800 080/05 RMK AO2 T02220172
63870K0J4 0J420161102102510711/02/16 10:25:31  5-MIN K0J4 021525Z AUTO 11006KT 10SM CLR 22/17 A3030 -30 73 800 110/06 RMK AO2 T02220172
63870K0J4 0J420161102103010711/02/16 10:30:31  5-MIN K0J4 021530Z AUTO 11005KT 10SM CLR 22/17 A3030 -30 73 800 110/05 RMK AO2 T02220172
63870K0J4 0J420161102103510811/02/16 10:35:31  5-MIN K0J4 021535Z AUTO 10006KT 10SM CLR 23/18 A3030 -30 70 1000 100/06 RMK AO2 T02330178
63870K0J4 0J420161102104010811/02/16 10:40:31  5-MIN K0J4 021540Z AUTO VRB04KT 10SM CLR 23/18 A3030 -30 70 1000 VRB/04 RMK AO2 T02330178
63870K0J4 0J420161102104510811/02/16 10:45:31  5-MIN K0J4 021545Z AUTO 08006KT 10SM CLR 24/18 A3030 -30 68 1000 080/06 RMK AO2 T02390178
63870K0J4 0J420161102105010811/02/16 10:50:31  5-MIN K0J4 021550Z AUTO 11005KT 10SM CLR 24/17 A3030 -30 66 1000 110/05 RMK AO2 T02390172
63870K0J4 0J420161102105511511/02/16 10:55:31  5-MIN K0J4 021555Z AUTO 10007KT 10SM CLR 24/17 A3030 -30 63 1100 100/07 RMK AO2 SLP257 T02440172
63870K0J4 0J420161102110010811/02/16 11:00:31  5-MIN K0J4 021600Z AUTO 08008KT 10SM CLR 24/17 A3030 -30 66 1000 080/08 RMK AO2 T02390172
63870K0J4 0J420161102110510811/02/16 11:05:31  5-MIN K0J4 021605Z AUTO 07006KT 10SM CLR 24/17 A3030 -30 63 1100 070/06 RMK AO2 T02440172
63870K0J4 0J420161102111010811/02/16 11:10:31  5-MIN K0J4 021610Z AUTO 08006KT 10SM CLR 26/17 A3030 -30 59 1200 080/06 RMK AO2 T02560172
63870K0J4 0J420161102111510811/02/16 11:15:31  5-MIN K0J4 021615Z AUTO VRB05KT 10SM CLR 25/17 A3030 -30 59 1200 VRB/05 RMK AO2 T02500167
63870K0J4 0J420161102112010811/02/16 11:20:31  5-MIN K0J4 021620Z AUTO 13006KT 10SM CLR 26/17 A3030 -20 59 1200 130/06 RMK AO2 T02560172
63870K0J4 0J420161102112510811/02/16 11:25:31  5-MIN K0J4 021625Z AUTO 00000KT 10SM CLR 25/17 A3029 -20 59 1200 000/00 RMK AO2 T02500167
63870K0J4 0J420161102113009811/02/16 11:30:31  5-MIN K0J4 021630Z AUTO 10SM CLR 26/17 A3029 -20 55 1300 M /M RMK AO2 T02610167
63870K0J4 0J420161102113510811/02/16 11:35:31  5-MIN K0J4 021635Z AUTO 00000KT 10SM CLR 26/17 A3029 -20 55 1300 000/00 RMK AO2 T02610167
63870K0J4 0J420161102114010811/02/16 11:40:31  5-MIN K0J4 021640Z AUTO 10006KT 10SM CLR 26/16 A3029 -20 53 1300 100/06 RMK AO2 T02610161
63870K0J4 0J420161102114510811/02/16 11:45:31  5-MIN K0J4 021645Z AUTO VRB03KT 10SM CLR 26/16 A3029 -20 53 1300 VRB/03 RMK AO2 T02610161
63870K0J4 0J420161102115012411/02/16 11:50:31  5-MIN K0J4 021650Z AUTO VRB03KT 10SM -RA CLR 26/16 A3029 -20 53 1300 VRB/03 RMK AO2 RAB50 P0000 T02610161
63870K0J4 0J420161102115513111/02/16 11:55:31  5-MIN K0J4 021655Z AUTO VRB03KT 10SM -RA CLR 27/17 A3028 -10 53 1400 VRB/03 RMK AO2 RAB50 SLP252 P0000 T02670167
63870K0J4 0J420161102120011811/02/16 12:00:31  5-MIN K0J4 021700Z AUTO VRB05KT 10SM -RA CLR 27/17 A3028 -10 53 1400 VRB/05 RMK AO2 P0000 T02670167
63870K0J4 0J420161102120511811/02/16 12:05:31  5-MIN K0J4 021705Z AUTO VRB06KT 10SM -RA CLR 27/16 A3028 -10 50 1400 VRB/06 RMK AO2 P0000 T02720161
63870K0J4 0J420161102121012011/02/16 12:10:31  5-MIN K0J4 021710Z AUTO VRB04KT 10SM CLR 26/16 A3028 -10 53 1300 VRB/04 RMK AO2 RAE07 P0000 T02610161
63870K0J4 0J420161102121512011/02/16 12:15:31  5-MIN K0J4 021715Z AUTO 12006KT 10SM CLR 27/16 A3028 -10 52 1400 120/06 RMK AO2 RAE07 P0000 T02670161
63870K0J4 0J420161102122012011/02/16 12:20:31  5-MIN K0J4 021720Z AUTO 09005KT 10SM CLR 27/16 A3028 -10 52 1400 090/05 RMK AO2 RAE07 P0000 T02670161
63870K0J4 0J420161102122512011/02/16 12:25:31  5-MIN K0J4 021725Z AUTO 09005KT 10SM CLR 27/16 A3027 -10 52 1400 090/05 RMK AO2 RAE07 P0000 T02670161
63870K0J4 0J420161102123011811/02/16 12:30:31  5-MIN K0J4 021730Z AUTO 09006KT 10SM CLR 27/16 A3027 0 50 1400 090/06 RMK AO2 RAE07 P0000 T02720161
63870K0J4 0J420161102123511811/02/16 12:35:31  5-MIN K0J4 021735Z AUTO VRB05KT 10SM CLR 27/17 A3027 0 52 1400 VRB/05 RMK AO2 RAE07 P0000 T02720167
63870K0J4 0J420161102124011811/02/16 12:40:31  5-MIN K0J4 021740Z AUTO VRB06KT 10SM CLR 27/17 A3027 0 52 1400 VRB/06 RMK AO2 RAE07 P0000 T02720167
63870K0J4 0J420161102124511811/02/16 12:45:31  5-MIN K0J4 021745Z AUTO 12005KT 10SM CLR 27/16 A3026 0 52 1400 120/05 RMK AO2 RAE07 P0000 T02670161
63870K0J4 0J420161102125011811/02/16 12:50:31  5-MIN K0J4 021750Z AUTO VRB03KT 10SM CLR 27/16 A3026 0 52 1400 VRB/03 RMK AO2 RAE07 P0000 T02670161
63870K0J4 0J420161102125514911/02/16 12:55:31  5-MIN K0J4 021755Z AUTO VRB04KT 10SM CLR 27/16 A3026 0 50 1500 VRB/04 RMK AO2 RAE07 SLP243 P0000 60000 T02720161 10272 20156 51015
63870K0J4 0J420161102130010711/02/16 13:00:31  5-MIN K0J4 021800Z AUTO 19007KT 10SM CLR 28/16 A3026 10 48 1500 190/07 RMK AO2 T02780161
63870K0J4 0J420161102130511011/02/16 13:05:31  5-MIN K0J4 021805Z AUTO 00000KT 10SM FEW038 27/16 A3025 10 50 1500 000/00 RMK AO2 T02720161
63870K0J4 0J420161102131011011/02/16 13:10:31  5-MIN K0J4 021810Z AUTO 09009KT 10SM FEW038 29/17 A3025 10 47 1700 090/09 RMK AO2 T02890167
63870K0J4 0J420161102131511011/02/16 13:15:31  5-MIN K0J4 021815Z AUTO VRB05KT 10SM FEW044 28/16 A3025 10 47 1600 VRB/05 RMK AO2 T02830161
63870K0J4 0J420161102132011711/02/16 13:20:31  5-MIN K0J4 021820Z AUTO 00000KT 10SM FEW039 SCT046 28/16 A3025 20 48 1500 000/00 RMK AO2 T02780161
63870K0J4 0J420161102132513311/02/16 13:25:31  5-MIN K0J4 021825Z AUTO 00000KT 10SM -RA FEW040 SCT047 27/16 A3025 20 48 1500 000/00 RMK AO2 RAB25 P0000 T02720156
63870K0J4 0J420161102133012511/02/16 13:30:31  5-MIN K0J4 021830Z AUTO 17004KT 10SM SCT045 28/16 A3025 20 46 1500 170/04 RMK AO2 RAB25E26 P0000 T02780156
63870K0J4 0J420161102133512511/02/16 13:35:31  5-MIN K0J4 021835Z AUTO VRB04KT 10SM SCT047 27/15 A3024 20 46 1500 VRB/04 RMK AO2 RAB25E26 P0000 T02720150
63870K0J4 0J420161102134012511/02/16 13:40:31  5-MIN K0J4 021840Z AUTO 00000KT 10SM BKN047 28/16 A3024 20 45 1600 000/00 RMK AO2 RAB25E26 P0000 T02830156
63870K0J4 0J420161102134512511/02/16 13:45:31  5-MIN K0J4 021845Z AUTO VRB06KT 10SM BKN047 29/15 A3024 20 42 1700 VRB/06 RMK AO2 RAB25E26 P0000 T02890150
63870K0J4 0J420161102135013211/02/16 13:50:31  5-MIN K0J4 021850Z AUTO VRB06KT 10SM SCT047 SCT070 28/15 A3024 20 43 1600 VRB/06 RMK AO2 RAB25E26 P0000 T02830150
63870K0J4 0J420161102135513911/02/16 13:55:31  5-MIN K0J4 021855Z AUTO 13003KT 10SM SCT047 BKN065 28/15 A3024 20 45 1500 130/03 RMK AO2 RAB25E26 SLP236 P0000 T02780150
63870K0J4 0J420161102140011711/02/16 14:00:31  5-MIN K0J4 021900Z AUTO 12006KT 10SM FEW047 SCT060 28/15 A3024 20 43 1600 120/06 RMK AO2 T02830150
63870K0J4 0J420161102140511711/02/16 14:05:31  5-MIN K0J4 021905Z AUTO 11005KT 10SM FEW047 SCT065 27/14 A3024 20 45 1500 110/05 RMK AO2 T02720144
63870K0J4 0J420161102141011711/02/16 14:10:31  5-MIN K0J4 021910Z AUTO 13005KT 10SM FEW047 FEW065 28/15 A3024 20 45 1500 130/05 RMK AO2 T02780150
63870K0J4 0J420161102141511011/02/16 14:15:31  5-MIN K0J4 021915Z AUTO 14005KT 10SM FEW065 27/15 A3024 30 48 1400 140/05 RMK AO2 T02670150
63870K0J4 0J420161102142011011/02/16 14:20:31  5-MIN K0J4 021920Z AUTO 16003KT 10SM FEW065 27/15 A3024 30 46 1500 160/03 RMK AO2 T02720150
63870K0J4 0J420161102142510711/02/16 14:25:31  5-MIN K0J4 021925Z AUTO VRB03KT 10SM CLR 27/15 A3023 30 46 1500 VRB/03 RMK AO2 T02720150
63870K0J4 0J420161102143010711/02/16 14:30:31  5-MIN K0J4 021930Z AUTO 11004KT 10SM CLR 28/15 A3023 30 45 1600 110/04 RMK AO2 T02780150
63870K0J4 0J420161102143511011/02/16 14:35:31  5-MIN K0J4 021935Z AUTO VRB04KT 10SM FEW050 29/15 A3023 30 42 1700 VRB/04 RMK AO2 T02890150
63870K0J4 0J420161102144011011/02/16 14:40:31  5-MIN K0J4 021940Z AUTO 20005KT 10SM SCT050 29/15 A3022 40 41 1700 200/05 RMK AO2 T02940150
63870K0J4 0J420161102144512611/02/16 14:45:31  5-MIN K0J4 021945Z AUTO VRB05KT 10SM -RA SCT050 29/15 A3022 40 42 1700 VRB/05 RMK AO2 RAB43 P0000 T02890150
63870K0J4 0J420161102145012611/02/16 14:50:31  5-MIN K0J4 021950Z AUTO VRB04KT 10SM -RA SCT050 29/15 A3022 40 41 1700 VRB/04 RMK AO2 RAB43 P0000 T02940150
63870K0J4 0J420161102145513211/02/16 14:55:31  5-MIN K0J4 021955Z AUTO VRB04KT 10SM SCT050 28/14 A3022 40 42 1600 VRB/04 RMK AO2 RAB43E53 SLP229 P0000 T02830144
63870K0J4 0J420161102150011011/02/16 15:00:31  5-MIN K0J4 022000Z AUTO 09006KT 10SM SCT050 29/15 A3022 40 42 1700 090/06 RMK AO2 T02890150
63870K0J4 0J420161102150511011/02/16 15:05:31  5-MIN K0J4 022005Z AUTO 06009KT 10SM BKN050 29/15 A3022 40 42 1700 060/09 RMK AO2 T02890150
63870K0J4 0J420161102151011011/02/16 15:10:31  5-MIN K0J4 022010Z AUTO VRB04KT 10SM SCT050 28/15 A3021 50 43 1600 VRB/04 RMK AO2 T02830150
63870K0J4 0J420161102151511711/02/16 15:15:31  5-MIN K0J4 022015Z AUTO 06008KT 10SM SCT050 SCT060 29/16 A3021 50 42 1800 060/08 RMK AO2 T02940156
63870K0J4 0J420161102152011711/02/16 15:20:31  5-MIN K0J4 022020Z AUTO 04008KT 10SM BKN050 BKN060 29/15 A3021 50 42 1700 040/08 RMK AO2 T02890150
63870K0J4 0J420161102152511711/02/16 15:25:31  5-MIN K0J4 022025Z AUTO 06008KT 10SM BKN050 BKN070 29/15 A3021 50 42 1700 060/08 RMK AO2 T02890150
63870K0J4 0J420161102153011711/02/16 15:30:31  5-MIN K0J4 022030Z AUTO 08009KT 10SM BKN055 BKN070 29/15 A3021 40 42 1700 080/09 RMK AO2 T02890150
63870K0J4 0J420161102153511011/02/16 15:35:31  5-MIN K0J4 022035Z AUTO 08008KT 10SM BKN055 28/15 A3022 40 43 1600 080/08 RMK AO2 T02830150
63870K0J4 0J420161102154011011/02/16 15:40:31  5-MIN K0J4 022040Z AUTO 08008KT 10SM SCT055 28/15 A3022 40 43 1600 080/08 RMK AO2 T02830150
63870K0J4 0J420161102154511011/02/16 15:45:31  5-MIN K0J4 022045Z AUTO 06006KT 10SM SCT050 28/15 A3022 40 45 1600 060/06 RMK AO2 T02780150
63870K0J4 0J420161102155011711/02/16 15:50:31  5-MIN K0J4 022050Z AUTO 06006KT 10SM FEW055 FEW070 28/15 A3022 40 43 1600 060/06 RMK AO2 T02830150
63870K0J4 0J420161102155513611/02/16 15:55:31  5-MIN K0J4 022055Z AUTO 04005KT 10SM FEW055 FEW070 28/15 A3022 40 43 1600 040/05 RMK AO2 SLP229 60000 T02830150 58014
63870K0J4 0J420161102160011011/02/16 16:00:31  5-MIN K0J4 022100Z AUTO VRB04KT 10SM FEW070 28/15 A3022 40 43 1600 VRB/04 RMK AO2 T02830150
63870K0J4 0J420161102160511011/02/16 16:05:31  5-MIN K0J4 022105Z AUTO VRB03KT 10SM FEW070 29/15 A3022 40 42 1700 VRB/03 RMK AO2 T02890150
63870K0J4 0J420161102161011011/02/16 16:10:31  5-MIN K0J4 022110Z AUTO 08003KT 10SM FEW070 28/15 A3022 40 43 1600 080/03 RMK AO2 T02830150
63870K0J4 0J420161102161511011/02/16 16:15:31  5-MIN K0J4 022115Z AUTO 06005KT 10SM FEW070 28/14 A3022 40 42 1600 060/05 RMK AO2 T02830144
63870K0J4 0J420161102162010711/02/16 16:20:31  5-MIN K0J4 022120Z AUTO VRB04KT 10SM CLR 28/14 A3022 40 42 1600 VRB/04 RMK AO2 T02830144
63870K0J4 0J420161102162510711/02/16 16:25:31  5-MIN K0J4 022125Z AUTO 03006KT 10SM CLR 28/14 A3022 40 42 1600 030/06 RMK AO2 T02830144
63870K0J4 0J420161102163010711/02/16 16:30:31  5-MIN K0J4 022130Z AUTO 04005KT 10SM CLR 28/14 A3022 40 42 1600 040/05 RMK AO2 T02830144
63870K0J4 0J420161102163510711/02/16 16:35:31  5-MIN K0J4 022135Z AUTO 04005KT 10SM CLR 28/15 A3022 40 43 1600 040/05 RMK AO2 T02830150
63870K0J4 0J420161102164010711/02/16 16:40:31  5-MIN K0J4 022140Z AUTO 09005KT 10SM CLR 28/14 A3022 40 42 1600 090/05 RMK AO2 T02830144
63870K0J4 0J420161102164510711/02/16 16:45:31  5-MIN K0J4 022145Z AUTO 08007KT 10SM CLR 28/14 A3022 40 43 1600 080/07 RMK AO2 T02780144
63870K0J4 0J420161102165010711/02/16 16:50:31  5-MIN K0J4 022150Z AUTO 04005KT 10SM CLR 28/14 A3022 40 43 1600 040/05 RMK AO2 T02780144
63870K0J4 0J420161102165511411/02/16 16:55:31  5-MIN K0J4 022155Z AUTO 07006KT 10SM CLR 28/14 A3022 40 43 1600 070/06 RMK AO2 SLP230 T02780144
63870K0J4 0J420161102170010711/02/16 17:00:31  5-MIN K0J4 022200Z AUTO 07005KT 10SM CLR 28/15 A3022 40 45 1600 070/05 RMK AO2 T02780150
63870K0J4 0J420161102170510711/02/16 17:05:31  5-MIN K0J4 022205Z AUTO 07005KT 10SM CLR 27/14 A3022 40 45 1500 070/05 RMK AO2 T02720144
63870K0J4 0J420161102171010711/02/16 17:10:31  5-MIN K0J4 022210Z AUTO 05005KT 10SM CLR 27/14 A3022 40 45 1500 050/05 RMK AO2 T02720144
63870K0J4 0J420161102171510711/02/16 17:15:31  5-MIN K0J4 022215Z AUTO 05005KT 10SM CLR 27/14 A3022 40 46 1400 050/05 RMK AO2 T02670144
63870K0J4 0J420161102172010711/02/16 17:20:31  5-MIN K0J4 022220Z AUTO 04003KT 10SM CLR 27/14 A3022 40 46 1400 040/03 RMK AO2 T02670144
63870K0J4 0J420161102172510711/02/16 17:25:31  5-MIN K0J4 022225Z AUTO 03003KT 10SM CLR 26/15 A3022 40 50 1400 030/03 RMK AO2 T02610150
63870K0J4 0J420161102173010711/02/16 17:30:31  5-MIN K0J4 022230Z AUTO 04003KT 10SM CLR 26/15 A3023 40 51 1300 040/03 RMK AO2 T02560150
63870K0J4 0J420161102173510711/02/16 17:35:31  5-MIN K0J4 022235Z AUTO 05003KT 10SM CLR 26/15 A3023 30 51 1300 050/03 RMK AO2 T02560150
63870K0J4 0J420161102174010711/02/16 17:40:31  5-MIN K0J4 022240Z AUTO 04003KT 10SM CLR 25/15 A3023 30 53 1200 040/03 RMK AO2 T02500150
63870K0J4 0J420161102174510711/02/16 17:45:31  5-MIN K0J4 022245Z AUTO 00000KT 10SM CLR 24/16 A3023 30 57 1200 000/00 RMK AO2 T02440156
63870K0J4 0J420161102175010711/02/16 17:50:31  5-MIN K0J4 022250Z AUTO 00000KT 10SM CLR 24/16 A3023 30 59 1100 000/00 RMK AO2 T02390156
63870K0J4 0J420161102175511411/02/16 17:55:31  5-MIN K0J4 022255Z AUTO 03003KT 10SM CLR 24/16 A3023 30 59 1100 030/03 RMK AO2 SLP233 T02390156
63870K0J4 0J420161102180010711/02/16 18:00:31  5-MIN K0J4 022300Z AUTO 00000KT 10SM CLR 23/16 A3023 30 63 1000 000/00 RMK AO2 T02280156
63870K0J4 0J420161102180510611/02/16 18:05:31  5-MIN K0J4 022305Z AUTO 00000KT 10SM CLR 22/16 A3023 30 68 900 000/00 RMK AO2 T02220161
63870K0J4 0J420161102181010711/02/16 18:10:31  5-MIN K0J4 022310Z AUTO 00000KT 10SM CLR 23/16 A3023 30 63 1000 000/00 RMK AO2 T02280156
63870K0J4 0J420161102181510711/02/16 18:15:31  5-MIN K0J4 022315Z AUTO 00000KT 10SM CLR 23/16 A3023 30 63 1000 000/00 RMK AO2 T02280156
63870K0J4 0J420161102182010611/02/16 18:20:31  5-MIN K0J4 022320Z AUTO 00000KT 10SM CLR 22/16 A3023 30 65 900 000/00 RMK AO2 T02220156
63870K0J4 0J420161102182510711/02/16 18:25:31  5-MIN K0J4 022325Z AUTO 00000KT 10SM CLR 23/16 A3023 30 63 1000 000/00 RMK AO2 T02280156
63870K0J4 0J420161102183010611/02/16 18:30:31  5-MIN K0J4 022330Z AUTO 00000KT 10SM CLR 21/16 A3024 30 70 800 000/00 RMK AO2 T02110156
63870K0J4 0J420161102183510611/02/16 18:35:31  5-MIN K0J4 022335Z AUTO 00000KT 10SM CLR 22/16 A3024 20 68 800 000/00 RMK AO2 T02170156
63870K0J4 0J420161102184010611/02/16 18:40:31  5-MIN K0J4 022340Z AUTO 00000KT 10SM CLR 22/16 A3024 20 70 800 000/00 RMK AO2 T02170161
63870K0J4 0J420161102184510611/02/16 18:45:31  5-MIN K0J4 022345Z AUTO 00000KT 10SM CLR 21/16 A3024 20 73 800 000/00 RMK AO2 T02110161
63870K0J4 0J420161102185010611/02/16 18:50:31  5-MIN K0J4 022350Z AUTO 00000KT 10SM CLR 22/16 A3024 20 68 800 000/00 RMK AO2 T02170156
63870K0J4 0J420161102185513711/02/16 18:55:31  5-MIN K0J4 022355Z AUTO 00000KT 10SM CLR 21/16 A3024 20 73 700 000/00 RMK AO2 SLP238 60000 T02060156 10294 20206 55013
63870K0J4 0J420161102190010611/02/16 19:00:31  5-MIN K0J4 030000Z AUTO 00000KT 10SM CLR 21/16 A3024 20 73 700 000/00 RMK AO2 T02060156
63870K0J4 0J420161102190510611/02/16 19:05:31  5-MIN K0J4 030005Z AUTO 00000KT 10SM CLR 21/16 A3024 20 73 700 000/00 RMK AO2 T02060156
63870K0J4 0J420161102191010611/02/16 19:10:31  5-MIN K0J4 030010Z AUTO 00000KT 10SM CLR 20/16 A3024 20 75 700 000/00 RMK AO2 T02000156
63870K0J4 0J420161102191510611/02/16 19:15:31  5-MIN K0J4 030015Z AUTO 00000KT 10SM CLR 21/16 A3024 20 73 700 000/00 RMK AO2 T02060156
63870K0J4 0J420161102192010611/02/16 19:20:31  5-MIN K0J4 030020Z AUTO 00000KT 10SM CLR 20/16 A3024 20 75 700 000/00 RMK AO2 T02000156
63870K0J4 0J420161102192510611/02/16 19:25:31  5-MIN K0J4 030025Z AUTO 00000KT 10SM CLR 20/16 A3024 20 75 600 000/00 RMK AO2 T02000156
63870K0J4 0J420161102193010611/02/16 19:30:31  5-MIN K0J4 030030Z AUTO 00000KT 10SM CLR 20/16 A3024 20 75 600 000/00 RMK AO2 T02000156
63870K0J4 0J420161102193510611/02/16 19:35:31  5-MIN K0J4 030035Z AUTO 00000KT 10SM CLR 19/16 A3024 20 78 600 000/00 RMK AO2 T01940156
63870K0J4 0J420161102194010611/02/16 19:40:31  5-MIN K0J4 030040Z AUTO 00000KT 10SM CLR 19/16 A3024 20 78 600 000/00 RMK AO2 T01940156
63870K0J4 0J420161102194510611/02/16 19:45:31  5-MIN K0J4 030045Z AUTO 00000KT 10SM CLR 19/16 A3024 20 78 600 000/00 RMK AO2 T01940156
63870K0J4 0J420161102195010611/02/16 19:50:31  5-MIN K0J4 030050Z AUTO 00000KT 10SM CLR 19/15 A3024 20 75 600 000/00 RMK AO2 T01940150
63870K0J4 0J420161102195511311/02/16 19:55:31  5-MIN K0J4 030055Z AUTO 00000KT 10SM CLR 20/16 A3024 20 75 700 000/00 RMK AO2 SLP238 T02000156
63870K0J4 0J420161102200010611/02/16 20:00:31  5-MIN K0J4 030100Z AUTO 00000KT 10SM CLR 19/15 A3024 20 75 600 000/00 RMK AO2 T01940150
63870K0J4 0J420161102200510611/02/16 20:05:31  5-MIN K0J4 030105Z AUTO 00000KT 10SM CLR 19/15 A3024 20 75 600 000/00 RMK AO2 T01940150
63870K0J4 0J420161102201010611/02/16 20:10:31  5-MIN K0J4 030110Z AUTO 00000KT 10SM CLR 19/15 A3024 20 75 600 000/00 RMK AO2 T01940150
63870K0J4 0J420161102201510611/02/16 20:15:31  5-MIN K0J4 030115Z AUTO 00000KT 10SM CLR 19/15 A3024 20 78 500 000/00 RMK AO2 T01890150
63870K0J4 0J420161103064510511/03/16 06:45:31  5-MIN K0J4 031145Z AUTO 00000KT 9SM CLR 16/14 A3026 10 90 200 000/00 RMK AO2 T01610144
63870K0J4 0J420161103065010511/03/16 06:50:31  5-MIN K0J4 031150Z AUTO 00000KT 8SM CLR 16/14 A3026 10 93 100 000/00 RMK AO2 T01560144
63870K0J4 0J420161103065512911/03/16 06:55:31  5-MIN K0J4 031155Z AUTO 00000KT 8SM CLR 16/14 A3026 0 93 100 000/00 RMK AO2 SLP244 T01560144 10172 20150 55003
63870K0J4 0J420161103070010211/03/16 07:00:31  5-MIN K0J4 031200Z AUTO 00000KT 8SM CLR 15/14 A3026 0 96 0 000/00 RMK AO2 T01500144
63870K0J4 0J420161103070510211/03/16 07:05:31  5-MIN K0J4 031205Z AUTO 00000KT 7SM CLR 15/14 A3026 0 96 0 000/00 RMK AO2 T01500144
63870K0J4 0J420161103071010511/03/16 07:10:31  5-MIN K0J4 031210Z AUTO 00000KT 6SM BR CLR 15/14 A3026 0 93 0 000/00 RMK AO2 T01500139
63870K0J4 0J420161103071510211/03/16 07:15:31  5-MIN K0J4 031215Z AUTO 00000KT 7SM CLR 14/14 A3026 0 96 0 000/00 RMK AO2 T01440139
63870K0J4 0J420161103072010211/03/16 07:20:31  5-MIN K0J4 031220Z AUTO 00000KT 9SM CLR 14/13 A3026 0 93 0 000/00 RMK AO2 T01440133
63870K0J4 0J420161103072510211/03/16 07:25:31  5-MIN K0J4 031225Z AUTO 00000KT 9SM CLR 15/14 A3027 0 93 0 000/00 RMK AO2 T01500139
63870K0J4 0J420161103073010411/03/16 07:30:31  5-MIN K0J4 031230Z AUTO 00000KT 8SM CLR 16/14 A3027 0 93 100 000/00 RMK AO2 T01560144
63870K0J4 0J420161103073510211/03/16 07:35:31  5-MIN K0J4 031235Z AUTO 00000KT 8SM CLR 15/14 A3027 0 93 0 000/00 RMK AO2 T01500139
63870K0J4 0J420161103074010411/03/16 07:40:31  5-MIN K0J4 031240Z AUTO 00000KT 8SM CLR 17/15 A3027 0 90 200 000/00 RMK AO2 T01670150
63870K0J4 0J420161103074512011/03/16 07:45:31  5-MIN K0J4 031245Z AUTO 00000KT 9SM -RA CLR 17/16 A3027 0 93 200 000/00 RMK AO2 RAB41 P0000 T01670156
63870K0J4 0J420161103075011911/03/16 07:50:31  5-MIN K0J4 031250Z AUTO 00000KT 9SM CLR 17/16 A3027 0 93 300 000/00 RMK AO2 RAB41E50 P0000 T01720161
63870K0J4 0J420161103075512611/03/16 07:55:31  5-MIN K0J4 031255Z AUTO 00000KT 9SM CLR 18/16 A3027 0 90 400 000/00 RMK AO2 RAB41E50 SLP249 P0000 T01780161
63870K0J4 0J420161103080010411/03/16 08:00:31  5-MIN K0J4 031300Z AUTO 00000KT 8SM CLR 18/17 A3027 0 93 400 000/00 RMK AO2 T01780167
63870K0J4 0J420161103080510611/03/16 08:05:31  5-MIN K0J4 031305Z AUTO 00000KT 9SM CLR 19/17 A3028 -10 87 500 000/00 RMK AO2 T01890167
63870K0J4 0J420161103081010611/03/16 08:10:31  5-MIN K0J4 031310Z AUTO 00000KT 9SM CLR 19/17 A3028 -10 90 500 000/00 RMK AO2 T01890172
63870K0J4 0J420161103081512311/03/16 08:15:31  5-MIN K0J4 031315Z AUTO 09003KT 10SM -RA CLR 19/17 A3028 -10 87 500 090/03 RMK AO2 RAB11 P0000 T01940172
63870K0J4 0J420161103082012311/03/16 08:20:31  5-MIN K0J4 031320Z AUTO 08003KT 10SM -RA CLR 19/17 A3028 -10 87 500 080/03 RMK AO2 RAB11 P0000 T01940172
63870K0J4 0J420161103082512211/03/16 08:25:31  5-MIN K0J4 031325Z AUTO VRB03KT 10SM CLR 20/17 A3028 -10 84 600 VRB/03 RMK AO2 RAB11E23 P0000 T02000172
63870K0J4 0J420161103083012211/03/16 08:30:31  5-MIN K0J4 031330Z AUTO 08003KT 10SM CLR 20/17 A3028 -10 84 600 080/03 RMK AO2 RAB11E23 P0000 T02000172
63870K0J4 0J420161103083512211/03/16 08:35:31  5-MIN K0J4 031335Z AUTO 00000KT 10SM CLR 20/17 A3028 -10 84 600 000/00 RMK AO2 RAB11E23 P0000 T02000172
63870K0J4 0J420161103084012211/03/16 08:40:31  5-MIN K0J4 031340Z AUTO 00000KT 10SM CLR 20/17 A3028 -10 84 600 000/00 RMK AO2 RAB11E23 P0000 T02000172
63870K0J4 0J420161103084512211/03/16 08:45:31  5-MIN K0J4 031345Z AUTO VRB03KT 10SM CLR 21/17 A3029 -20 81 700 VRB/03 RMK AO2 RAB11E23 P0000 T02060172
63870K0J4 0J420161103085012211/03/16 08:50:31  5-MIN K0J4 031350Z AUTO 00000KT 10SM CLR 21/17 A3029 -20 78 700 000/00 RMK AO2 RAB11E23 P0000 T02110172
63870K0J4 0J420161103085512911/03/16 08:55:31  5-MIN K0J4 031355Z AUTO VRB03KT 10SM CLR 21/17 A3029 -20 78 700 VRB/03 RMK AO2 RAB11E23 SLP253 P0000 T02110172
63870K0J4 0J420161103090010711/03/16 09:00:31  5-MIN K0J4 031400Z AUTO 11003KT 10SM CLR 21/17 A3029 -20 78 700 110/03 RMK AO2 T02110172
63870K0J4 0J420161103090510711/03/16 09:05:31  5-MIN K0J4 031405Z AUTO 00000KT 10SM CLR 22/17 A3029 -10 75 800 000/00 RMK AO2 T02170172
63870K0J4 0J420161103091010711/03/16 09:10:31  5-MIN K0J4 031410Z AUTO VRB03KT 10SM CLR 22/18 A3028 -10 75 900 VRB/03 RMK AO2 T02220178
63870K0J4 0J420161103091510711/03/16 09:15:31  5-MIN K0J4 031415Z AUTO VRB03KT 10SM CLR 22/18 A3028 -10 75 900 VRB/03 RMK AO2 T02220178
63870K0J4 0J420161103092010711/03/16 09:20:31  5-MIN K0J4 031420Z AUTO VRB03KT 10SM CLR 22/17 A3029 -10 73 900 VRB/03 RMK AO2 T02220172
63870K0J4 0J420161103092510711/03/16 09:25:31  5-MIN K0J4 031425Z AUTO 11005KT 10SM CLR 23/17 A3029 -20 70 900 110/05 RMK AO2 T02280172
63870K0J4 0J420161103093010711/03/16 09:30:31  5-MIN K0J4 031430Z AUTO 09005KT 10SM CLR 23/17 A3029 -20 70 900 090/05 RMK AO2 T02280172
63870K0J4 0J420161103093510811/03/16 09:35:31  5-MIN K0J4 031435Z AUTO 09003KT 10SM CLR 23/18 A3029 -10 70 1000 090/03 RMK AO2 T02330178
63870K0J4 0J420161103094010811/03/16 09:40:31  5-MIN K0J4 031440Z AUTO 10005KT 10SM CLR 23/18 A3028 -10 70 1000 100/05 RMK AO2 T02330178
63870K0J4 0J420161103094510811/03/16 09:45:31  5-MIN K0J4 031445Z AUTO 13004KT 10SM CLR 23/18 A3028 -10 70 1000 130/04 RMK AO2 T02330178
63870K0J4 0J420161103095010811/03/16 09:50:31  5-MIN K0J4 031450Z AUTO VRB04KT 10SM CLR 24/18 A3028 -10 68 1100 VRB/04 RMK AO2 T02390178
63870K0J4 0J420161103095512711/03/16 09:55:31  5-MIN K0J4 031455Z AUTO 15004KT 10SM CLR 24/18 A3028 -10 68 1000 150/04 RMK AO2 SLP252 60000 T02390178 53009
63870K0J4 0J420161103100010811/03/16 10:00:31  5-MIN K0J4 031500Z AUTO 12003KT 10SM CLR 24/18 A3028 -10 68 1000 120/03 RMK AO2 T02390178
63870K0J4 0J420161103172010811/03/16 17:20:31  5-MIN K0J4 032220Z AUTO 00000KT 10SM CLR 26/14 A3016 100 48 1400 000/00 RMK AO2 T02610144
63870K0J4 0J420161103172510811/03/16 17:25:31  5-MIN K0J4 032225Z AUTO 00000KT 10SM CLR 25/16 A3016 100 55 1300 000/00 RMK AO2 T02500156
63870K0J4 0J420161103173010811/03/16 17:30:31  5-MIN K0J4 032230Z AUTO 00000KT 10SM CLR 25/16 A3016 100 55 1300 000/00 RMK AO2 T02500156
63870K0J4 0J420161103173510811/03/16 17:35:31  5-MIN K0J4 032235Z AUTO 00000KT 10SM CLR 24/16 A3016 100 57 1300 000/00 RMK AO2 T02440156
63870K0J4 0J420161103174012311/03/16 17:40:31  5-MIN K0J4 032240Z AUTO 00000KT 10SM CLR 24/15 A3016 100 55 1300 000/00 RMK AO2 RAB37E39 P0000 T02440150
63870K0J4 0J420161103174512311/03/16 17:45:31  5-MIN K0J4 032245Z AUTO 00000KT 10SM CLR 24/15 A3016 100 55 1300 000/00 RMK AO2 RAB37E39 P0000 T02440150
63870K0J4 0J420161103175012311/03/16 17:50:31  5-MIN K0J4 032250Z AUTO 00000KT 10SM CLR 24/14 A3016 100 55 1200 000/00 RMK AO2 RAB37E39 P0000 T02390144
63870K0J4 0J420161103175513011/03/16 17:55:31  5-MIN K0J4 032255Z AUTO 00000KT 10SM CLR 23/16 A3016 100 63 1100 000/00 RMK AO2 RAB37E39 SLP209 P0000 T02280156
63870K0J4 0J420161103180010811/03/16 18:00:31  5-MIN K0J4 032300Z AUTO 00000KT 10SM CLR 23/15 A3016 100 59 1100 000/00 RMK AO2 T02330150
63870K0J4 0J420161103180512411/03/16 18:05:31  5-MIN K0J4 032305Z AUTO 00000KT 10SM -RA CLR 22/16 A3016 100 65 1000 000/00 RMK AO2 RAB04 P0000 T02220156
63870K0J4 0J420161103181012211/03/16 18:10:31  5-MIN K0J4 032310Z AUTO 00000KT 10SM CLR 23/15 A3016 90 61 1100 000/00 RMK AO2 RAB04E08 P0000 T02280150
63870K0J4 0J420161103181512211/03/16 18:15:31  5-MIN K0J4 032315Z AUTO 00000KT 10SM CLR 22/15 A3016 90 63 1000 000/00 RMK AO2 RAB04E08 P0000 T02220150
63870K0J4 0J420161103182012211/03/16 18:20:31  5-MIN K0J4 032320Z AUTO 00000KT 10SM CLR 22/15 A3016 90 63 1000 000/00 RMK AO2 RAB04E08 P0000 T02220150
63870K0J4 0J420161103182512111/03/16 18:25:31  5-MIN K0J4 032325Z AUTO 00000KT 10SM CLR 21/16 A3016 90 70 900 000/00 RMK AO2 RAB04E08 P0000 T02110156
63870K0J4 0J420161103183012111/03/16 18:30:31  5-MIN K0J4 032330Z AUTO 00000KT 10SM CLR 22/15 A3016 90 65 900 000/00 RMK AO2 RAB04E08 P0000 T02170150
63870K0J4 0J420161103183512111/03/16 18:35:31  5-MIN K0J4 032335Z AUTO 00000KT 10SM CLR 22/16 A3016 90 70 900 000/00 RMK AO2 RAB04E08 P0000 T02170161
63870K0J4 0J420161103184012111/03/16 18:40:31  5-MIN K0J4 032340Z AUTO 00000KT 10SM CLR 21/15 A3016 90 70 800 000/00 RMK AO2 RAB04E08 P0000 T02060150
63870K0J4 0J420161103184512111/03/16 18:45:31  5-MIN K0J4 032345Z AUTO 00000KT 10SM CLR 21/15 A3017 90 70 800 000/00 RMK AO2 RAB04E08 P0000 T02060150
63870K0J4 0J420161103185012111/03/16 18:50:31  5-MIN K0J4 032350Z AUTO 00000KT 10SM CLR 21/15 A3017 90 70 800 000/00 RMK AO2 RAB04E08 P0000 T02060150
63870K0J4 0J420161103185515211/03/16 18:55:31  5-MIN K0J4 032355Z AUTO 00000KT 10SM CLR 20/16 A3017 90 75 700 000/00 RMK AO2 RAB04E08 SLP213 P0000 60000 T02000156 10311 20200 56020
63870K0J4 0J420161103190010611/03/16 19:00:31  5-MIN K0J4 040000Z AUTO 21005KT 10SM CLR 21/16 A3017 90 75 800 210/05 RMK AO2 T02060161
63870K0J4 0J420161103190510611/03/16 19:05:31  5-MIN K0J4 040005Z AUTO 21004KT 10SM CLR 21/16 A3017 80 75 800 210/04 RMK AO2 T02060161
63870K0J4 0J420161103191010611/03/16 19:10:31  5-MIN K0J4 040010Z AUTO 23003KT 10SM CLR 21/16 A3017 80 73 900 230/03 RMK AO2 T02110161
63870K0J4 0J420161103191510611/03/16 19:15:31  5-MIN K0J4 040015Z AUTO 22003KT 10SM CLR 21/16 A3017 80 73 800 220/03 RMK AO2 T02060156
63870K0J4 0J420161103192010611/03/16 19:20:31  5-MIN K0J4 040020Z AUTO 00000KT 10SM CLR 21/16 A3017 80 70 900 000/00 RMK AO2 T02110156
63870K0J4 0J420161103192510611/03/16 19:25:31  5-MIN K0J4 040025Z AUTO 00000KT 10SM CLR 21/16 A3017 80 73 800 000/00 RMK AO2 T02060156
63870K0J4 0J420161103193010611/03/16 19:30:31  5-MIN K0J4 040030Z AUTO 00000KT 10SM CLR 20/16 A3017 80 75 700 000/00 RMK AO2 T02000156
63870K0J4 0J420161103193510611/03/16 19:35:31  5-MIN K0J4 040035Z AUTO 00000KT 10SM CLR 21/16 A3018 80 73 800 000/00 RMK AO2 T02060156
63870K0J4 0J420161103194010611/03/16 19:40:31  5-MIN K0J4 040040Z AUTO 00000KT 10SM CLR 21/16 A3018 80 73 900 000/00 RMK AO2 T02110161
63870K0J4 0J420161103194510611/03/16 19:45:31  5-MIN K0J4 040045Z AUTO 00000KT 10SM CLR 21/16 A3018 80 73 800 000/00 RMK AO2 T02110161
63870K0J4 0J420161103195010611/03/16 19:50:31  5-MIN K0J4 040050Z AUTO 00000KT 10SM CLR 21/16 A3018 80 73 800 000/00 RMK AO2 T02110161
63870K0J4 0J420161103195511311/03/16 19:55:31  5-MIN K0J4 040055Z AUTO 00000KT 10SM CLR 22/17 A3018 70 73 900 000/00 RMK AO2 SLP217 T02170167
63870K0J4 0J420161103200010611/03/16 20:00:31  5-MIN K0J4 040100Z AUTO 00000KT 10SM CLR 21/17 A3018 70 75 800 000/00 RMK AO2 T02110167
63870K0J4 0J420161103200510611/03/16 20:05:31  5-MIN K0J4 040105Z AUTO 23003KT 10SM CLR 21/17 A3018 70 75 800 230/03 RMK AO2 T02110167
63870K0J4 0J420161103201010611/03/16 20:10:31  5-MIN K0J4 040110Z AUTO 23003KT 10SM CLR 22/17 A3018 70 75 900 230/03 RMK AO2 T02170172
63870K0J4 0J420161103201510611/03/16 20:15:31  5-MIN K0J4 040115Z AUTO 23003KT 10SM CLR 21/17 A3018 70 78 800 230/03 RMK AO2 T02110172
63870K0J4 0J420161103202010911/03/16 20:20:31  5-MIN K0J4 040120Z AUTO 00000KT 10SM FEW070 22/17 A3018 70 75 900 000/00 RMK AO2 T02170172
63870K0J4 0J420161103202511611/03/16 20:25:31  5-MIN K0J4 040125Z AUTO 00000KT 10SM FEW070 FEW080 22/17 A3018 70 75 900 000/00 RMK AO2 T02170172
63870K0J4 0J420161103203010911/03/16 20:30:31  5-MIN K0J4 040130Z AUTO VRB03KT 10SM FEW070 22/17 A3018 70 75 900 VRB/03 RMK AO2 T02170172
63870K0J4 0J420161103203510911/03/16 20:35:31  5-MIN K0J4 040135Z AUTO 22003KT 10SM FEW075 22/18 A3019 70 78 900 220/03 RMK AO2 T02170178
63870K0J4 0J420161103204011611/03/16 20:40:31  5-MIN K0J4 040140Z AUTO 23003KT 10SM FEW075 SCT085 22/17 A3019 70 75 900 230/03 RMK AO2 T02170172
63870K0J4 0J420161103204511611/03/16 20:45:31  5-MIN K0J4 040145Z AUTO 23003KT 10SM SCT070 BKN085 22/18 A3019 70 78 900 230/03 RMK AO2 T02170178
63870K0J4 0J420161103205011611/03/16 20:50:31  5-MIN K0J4 040150Z AUTO 23003KT 10SM SCT070 BKN085 22/18 A3019 70 78 900 230/03 RMK AO2 T02170178
63870K0J4 0J420161103205512311/03/16 20:55:31  5-MIN K0J4 040155Z AUTO 23003KT 10SM FEW070 BKN085 22/18 A3019 70 78 900 230/03 RMK AO2 SLP218 T02170178
63870K0J4 0J420161103210011611/03/16 21:00:31  5-MIN K0J4 040200Z AUTO 00000KT 10SM FEW070 SCT085 22/18 A3019 70 78 900 000/00 RMK AO2 T02170178
63870K0J4 0J420161103210511611/03/16 21:05:31  5-MIN K0J4 040205Z AUTO 00000KT 10SM FEW070 SCT085 22/18 A3019 70 78 900 000/00 RMK AO2 T02170178
63870K0J4 0J420161103211010911/03/16 21:10:31  5-MIN K0J4 040210Z AUTO 22003KT 10SM SCT080 22/18 A3019 70 78 900 220/03 RMK AO2 T02170178
63870K0J4 0J420161103211510911/03/16 21:15:31  5-MIN K0J4 040215Z AUTO 00000KT 10SM SCT080 22/18 A3019 70 78 900 000/00 RMK AO2 T02170178
63870K0J4 0J420161103212011611/03/16 21:20:31  5-MIN K0J4 040220Z AUTO 00000KT 10SM FEW070 FEW085 21/18 A3019 70 81 800 000/00 RMK AO2 T02110178
63870K0J4 0J420161103212510911/03/16 21:25:31  5-MIN K0J4 040225Z AUTO 00000KT 10SM FEW085 21/18 A3019 70 81 800 000/00 RMK AO2 T02110178
63870K0J4 0J420161103213011611/03/16 21:30:31  5-MIN K0J4 040230Z AUTO 00000KT 10SM FEW070 SCT085 21/18 A3018 70 81 800 000/00 RMK AO2 T02110178
63870K0J4 0J420161103213511611/03/16 21:35:31  5-MIN K0J4 040235Z AUTO 00000KT 10SM FEW070 SCT085 21/18 A3018 70 81 800 000/00 RMK AO2 T02110178
63870K0J4 0J420161103214011611/03/16 21:40:31  5-MIN K0J4 040240Z AUTO 00000KT 10SM FEW070 SCT085 21/18 A3018 70 81 800 000/00 RMK AO2 T02110178
63870K0J4 0J420161103214511611/03/16 21:45:31  5-MIN K0J4 040245Z AUTO 00000KT 10SM FEW070 SCT085 21/18 A3018 70 81 800 000/00 RMK AO2 T02110178
63870K0J4 0J420161103215011611/03/16 21:50:31  5-MIN K0J4 040250Z AUTO 00000KT 10SM FEW070 SCT085 21/18 A3018 80 81 800 000/00 RMK AO2 T02110178
63870K0J4 0J420161103215512911/03/16 21:55:31  5-MIN K0J4 040255Z AUTO 00000KT 10SM FEW070 FEW085 21/18 A3018 80 81 900 000/00 RMK AO2 SLP216 T02110178 53004
63870K0J4 0J420161103220011611/03/16 22:00:31  5-MIN K0J4 040300Z AUTO 00000KT 10SM FEW070 FEW085 21/18 A3018 80 84 800 000/00 RMK AO2 T02060178
63870K0J4 0J420161103220510911/03/16 22:05:31  5-MIN K0J4 040305Z AUTO 00000KT 10SM FEW070 21/18 A3018 80 84 800 000/00 RMK AO2 T02060178
63870K0J4 0J420161103221010611/03/16 22:10:31  5-MIN K0J4 040310Z AUTO 00000KT 10SM CLR 21/18 A3018 80 84 800 000/00 RMK AO2 T02060178
63870K0J4 0J420161103221510611/03/16 22:15:31  5-MIN K0J4 040315Z AUTO 00000KT 10SM CLR 21/18 A3018 80 84 800 000/00 RMK AO2 T02060178
63870K0J4 0J420161103222010611/03/16 22:20:31  5-MIN K0J4 040320Z AUTO 00000KT 10SM CLR 21/18 A3018 80 84 800 000/00 RMK AO2 T02060178
63870K0J4 0J420161103222510611/03/16 22:25:31  5-MIN K0J4 040325Z AUTO 00000KT 10SM CLR 20/18 A3018 80 87 700 000/00 RMK AO2 T02000178
63870K0J4 0J420161103223010611/03/16 22:30:31  5-MIN K0J4 040330Z AUTO 00000KT 10SM CLR 20/18 A3018 80 87 700 000/00 RMK AO2 T02000178
63870K0J4 0J420161103223510611/03/16 22:35:31  5-MIN K0J4 040335Z AUTO 00000KT 10SM CLR 20/18 A3017 80 87 700 000/00 RMK AO2 T02000178
63870K0J4 0J420161103224010611/03/16 22:40:31  5-MIN K0J4 040340Z AUTO 00000KT 10SM CLR 20/18 A3017 80 87 700 000/00 RMK AO2 T02000178
63870K0J4 0J420161103224510611/03/16 22:45:31  5-MIN K0J4 040345Z AUTO 00000KT 10SM CLR 20/18 A3017 80 87 700 000/00 RMK AO2 T02000178
63870K0J4 0J420161103225010611/03/16 22:50:31  5-MIN K0J4 040350Z AUTO 00000KT 10SM CLR 20/18 A3017 90 87 700 000/00 RMK AO2 T02000178
63870K0J4 0J420161103225511311/03/16 22:55:31  5-MIN K0J4 040355Z AUTO 00000KT 10SM CLR 20/18 A3017 90 87 700 000/00 RMK AO2 SLP212 T02000178
63870K0J4 0J420161103230010611/03/16 23:00:31  5-MIN K0J4 040400Z AUTO 00000KT 10SM CLR 20/18 A3017 90 87 700 000/00 RMK AO2 T02000178
63870K0J4 0J420161103230510611/03/16 23:05:31  5-MIN K0J4 040405Z AUTO 00000KT 10SM CLR 20/18 A3017 90 87 700 000/00 RMK AO2 T02000178
63870K0J4 0J420161103231010611/03/16 23:10:31  5-MIN K0J4 040410Z AUTO 00000KT 10SM CLR 20/18 A3017 90 87 700 000/00 RMK AO2 T02000178
63870K0J4 0J420161103231510611/03/16 23:15:31  5-MIN K0J4 040415Z AUTO 00000KT 10SM CLR 20/18 A3016 90 87 700 000/00 RMK AO2 T02000178
63870K0J4 0J420161103232010611/03/16 23:20:31  5-MIN K0J4 040420Z AUTO 00000KT 10SM CLR 19/18 A3016 90 90 700 000/00 RMK AO2 T01940178
63870K0J4 0J420161103232510611/03/16 23:25:31  5-MIN K0J4 040425Z AUTO 00000KT 10SM CLR 20/18 A3016 90 87 700 000/00 RMK AO2 T02000178
63870K0J4 0J420161103233010711/03/16 23:30:31  5-MIN K0J4 040430Z AUTO 00000KT 10SM CLR 19/18 A3016 100 90 700 000/00 RMK AO2 T01940178
63870K0J4 0J420161103233510711/03/16 23:35:31  5-MIN K0J4 040435Z AUTO 00000KT 10SM CLR 19/18 A3016 100 90 700 000/00 RMK AO2 T01940178
63870K0J4 0J420161103234010711/03/16 23:40:31  5-MIN K0J4 040440Z AUTO 00000KT 10SM CLR 19/18 A3016 100 90 700 000/00 RMK AO2 T01940178
63870K0J4 0J420161103234510711/03/16 23:45:31  5-MIN K0J4 040445Z AUTO 00000KT 10SM CLR 19/18 A3016 100 90 700 000/00 RMK AO2 T01940178
63870K0J4 0J420161103235010711/03/16 23:50:31  5-MIN K0J4 040450Z AUTO 00000KT 10SM CLR 19/18 A3016 100 90 700 000/00 RMK AO2 T01940178
63870K0J4 0J420161103235512411/03/16 23:55:31  5-MIN K0J4 040455Z AUTO 00000KT 10SM CLR 19/18 A3016 100 90 700 000/00 RMK AO2 SLP209 T01940178 403110144
63870K0J4 0J420161104000010711/04/16 00:00:31  5-MIN K0J4 040500Z AUTO 00000KT 10SM CLR 19/18 A3016 100 90 700 000/00 RMK AO2 T01940178
63870K0J4 0J420161104000510711/04/16 00:05:31  5-MIN K0J4 040505Z AUTO 00000KT 10SM CLR 19/18 A3016 100 90 700 000/00 RMK AO2 T01940178
63870K0J4 0J420161104001010711/04/16 00:10:31  5-MIN K0J4 040510Z AUTO 00000KT 10SM CLR 19/18 A3016 100 90 700 000/00 RMK AO2 T01940178
63870K0J4 0J420161104001510711/04/16 00:15:31  5-MIN K0J4 040515Z AUTO 00000KT 10SM CLR 19/18 A3016 100 90 700 000/00 RMK AO2 T01940178
63870K0J4 0J420161104002010711/04/16 00:20:31  5-MIN K0J4 040520Z AUTO 00000KT 10SM CLR 19/18 A3015 100 93 600 000/00 RMK AO2 T01890178
63870K0J4 0J420161104002510711/04/16 00:25:31  5-MIN K0J4 040525Z AUTO 00000KT 10SM CLR 19/18 A3015 100 90 700 000/00 RMK AO2 T01940178
63870K0J4 0J420161104003010711/04/16 00:30:31  5-MIN K0J4 040530Z AUTO 00000KT 10SM CLR 19/18 A3015 100 93 600 000/00 RMK AO2 T01890178
63870K0J4 0J420161104003510711/04/16 00:35:31  5-MIN K0J4 040535Z AUTO 00000KT 10SM CLR 19/18 A3015 100 90 700 000/00 RMK AO2 T01940178
63870K0J4 0J420161104004010711/04/16 00:40:31  5-MIN K0J4 040540Z AUTO 00000KT 10SM CLR 19/18 A3015 100 93 600 000/00 RMK AO2 T01890178
63870K0J4 0J420161104004510711/04/16 00:45:31  5-MIN K0J4 040545Z AUTO 00000KT 10SM CLR 19/17 A3015 100 90 600 000/00 RMK AO2 T01890172
63870K0J4 0J420161104005010711/04/16 00:50:31  5-MIN K0J4 040550Z AUTO 00000KT 10SM CLR 19/17 A3015 100 90 600 000/00 RMK AO2 T01890172
63870K0J4 0J420161104005513111/04/16 00:55:31  5-MIN K0J4 040555Z AUTO 00000KT 9SM CLR 19/17 A3015 100 90 600 000/00 RMK AO2 SLP207 T01890172 10217 20189 50003
63870K0J4 0J420161104010012211/04/16 01:00:31  5-MIN K0J4 040600Z AUTO 00000KT 9SM -RA CLR 19/18 A3015 100 93 600 000/00 RMK AO2 RAB00 P0000 T01890178
63870K0J4 0J420161104010512311/04/16 01:05:31  5-MIN K0J4 040605Z AUTO 00000KT 10SM -RA CLR 19/18 A3015 100 93 600 000/00 RMK AO2 RAB00 P0000 T01890178
63870K0J4 0J420161104011012211/04/16 01:10:31  5-MIN K0J4 040610Z AUTO 00000KT 10SM CLR 19/18 A3015 100 93 600 000/00 RMK AO2 RAB00E09 P0000 T01890178
63870K0J4 0J420161104011512111/04/16 01:15:31  5-MIN K0J4 040615Z AUTO 00000KT 9SM CLR 19/18 A3015 100 93 600 000/00 RMK AO2 RAB00E09 P0000 T01890178
63870K0J4 0J420161104012012111/04/16 01:20:31  5-MIN K0J4 040620Z AUTO 00000KT 9SM CLR 19/18 A3015 110 93 600 000/00 RMK AO2 RAB00E09 P0000 T01890178
63870K0J4 0J420161104012512111/04/16 01:25:31  5-MIN K0J4 040625Z AUTO 00000KT 8SM CLR 19/18 A3015 110 93 600 000/00 RMK AO2 RAB00E09 P0000 T01890178
63870K0J4 0J420161104013012111/04/16 01:30:31  5-MIN K0J4 040630Z AUTO 00000KT 8SM CLR 18/17 A3015 110 93 600 000/00 RMK AO2 RAB00E09 P0000 T01830172
63870K0J4 0J420161104013512111/04/16 01:35:31  5-MIN K0J4 040635Z AUTO 00000KT 8SM CLR 18/17 A3015 110 93 600 000/00 RMK AO2 RAB00E09 P0000 T01830172
63870K0J4 0J420161104014012111/04/16 01:40:31  5-MIN K0J4 040640Z AUTO 00000KT 8SM CLR 18/17 A3015 110 93 600 000/00 RMK AO2 RAB00E09 P0000 T01830172
63870K0J4 0J420161104014512111/04/16 01:45:31  5-MIN K0J4 040645Z AUTO 00000KT 8SM CLR 18/17 A3015 110 93 600 000/00 RMK AO2 RAB00E09 P0000 T01830172
63870K0J4 0J420161104015012111/04/16 01:50:31  5-MIN K0J4 040650Z AUTO 00000KT 7SM CLR 18/17 A3015 110 93 600 000/00 RMK AO2 RAB00E09 P0000 T01830172
63870K0J4 0J420161104015512811/04/16 01:55:31  5-MIN K0J4 040655Z AUTO 00000KT 7SM CLR 18/17 A3015 110 93 600 000/00 RMK AO2 RAB00E09 SLP204 P0000 T01830172
63870K0J4 0J420161104020010611/04/16 02:00:31  5-MIN K0J4 040700Z AUTO 00000KT 8SM CLR 18/17 A3015 110 93 600 000/00 RMK AO2 T01830172
63870K0J4 0J420161104020510611/04/16 02:05:31  5-MIN K0J4 040705Z AUTO 00000KT 8SM CLR 18/17 A3015 110 93 600 000/00 RMK AO2 T01830172
63870K0J4 0J420161104021010611/04/16 02:10:31  5-MIN K0J4 040710Z AUTO 00000KT 8SM CLR 18/17 A3015 110 93 600 000/00 RMK AO2 T01830172
63870K0J4 0J420161104021510611/04/16 02:15:31  5-MIN K0J4 040715Z AUTO 00000KT 8SM CLR 18/17 A3015 110 93 600 000/00 RMK AO2 T01830172
63870K0J4 0J420161104022010611/04/16 02:20:31  5-MIN K0J4 040720Z AUTO 00000KT 8SM CLR 18/17 A3014 110 93 600 000/00 RMK AO2 T01830172
63870K0J4 0J420161104022510611/04/16 02:25:31  5-MIN K0J4 040725Z AUTO 00000KT 7SM CLR 18/17 A3014 110 93 600 000/00 RMK AO2 T01830172
63870K0J4 0J420161104023010611/04/16 02:30:31  5-MIN K0J4 040730Z AUTO 00000KT 7SM CLR 18/17 A3014 110 93 600 000/00 RMK AO2 T01830172
63870K0J4 0J420161104023510611/04/16 02:35:31  5-MIN K0J4 040735Z AUTO 00000KT 7SM CLR 18/17 A3014 110 93 600 000/00 RMK AO2 T01830172
63870K0J4 0J420161104024010611/04/16 02:40:31  5-MIN K0J4 040740Z AUTO 00000KT 7SM CLR 18/17 A3014 110 93 600 000/00 RMK AO2 T01830172
63870K0J4 0J420161104024510611/04/16 02:45:31  5-MIN K0J4 040745Z AUTO 00000KT 7SM CLR 18/17 A3014 110 93 600 000/00 RMK AO2 T01830172
63870K0J4 0J420161104025010611/04/16 02:50:31  5-MIN K0J4 040750Z AUTO 00000KT 7SM CLR 18/17 A3014 110 93 600 000/00 RMK AO2 T01830172
63870K0J4 0J420161104025511311/04/16 02:55:31  5-MIN K0J4 040755Z AUTO 00000KT 7SM CLR 18/17 A3014 110 93 600 000/00 RMK AO2 SLP201 T01830172
63870K0J4 0J420161104030010611/04/16 03:00:31  5-MIN K0J4 040800Z AUTO 00000KT 7SM CLR 18/17 A3014 110 93 500 000/00 RMK AO2 T01780167
63870K0J4 0J420161104030510611/04/16 03:05:31  5-MIN K0J4 040805Z AUTO 00000KT 7SM CLR 18/17 A3014 110 96 500 000/00 RMK AO2 T01780172
63870K0J4 0J420161104031010911/04/16 03:10:31  5-MIN K0J4 040810Z AUTO 00000KT 6SM BR CLR 18/17 A3014 110 93 500 000/00 RMK AO2 T01780167
63870K0J4 0J420161104031510911/04/16 03:15:31  5-MIN K0J4 040815Z AUTO 00000KT 6SM BR CLR 18/17 A3014 120 93 500 000/00 RMK AO2 T01780167
63870K0J4 0J420161104032010611/04/16 03:20:31  5-MIN K0J4 040820Z AUTO 00000KT 7SM CLR 18/17 A3014 120 93 500 000/00 RMK AO2 T01780167
63870K0J4 0J420161104032510611/04/16 03:25:31  5-MIN K0J4 040825Z AUTO 00000KT 7SM CLR 18/17 A3014 120 96 500 000/00 RMK AO2 T01780172
63870K0J4 0J420161104033010611/04/16 03:30:31  5-MIN K0J4 040830Z AUTO 00000KT 7SM CLR 18/17 A3014 120 93 500 000/00 RMK AO2 T01780167
63870K0J4 0J420161104033510611/04/16 03:35:31  5-MIN K0J4 040835Z AUTO 00000KT 7SM CLR 18/17 A3013 120 93 500 000/00 RMK AO2 T01780167
63870K0J4 0J420161104034010911/04/16 03:40:31  5-MIN K0J4 040840Z AUTO 00000KT 6SM BR CLR 17/17 A3013 120 96 400 000/00 RMK AO2 T01720167
63870K0J4 0J420161104034510911/04/16 03:45:31  5-MIN K0J4 040845Z AUTO 00000KT 5SM BR CLR 17/16 A3014 120 93 400 000/00 RMK AO2 T01720161
63870K0J4 0J420161104035010911/04/16 03:50:31  5-MIN K0J4 040850Z AUTO 00000KT 6SM BR CLR 17/16 A3013 120 96 400 000/00 RMK AO2 T01670161
63870K0J4 0J420161104035512511/04/16 03:55:31  5-MIN K0J4 040855Z AUTO 00000KT 7SM CLR 17/16 A3014 120 93 400 000/00 RMK AO2 SLP201 60000 T01720161 56008
63870K0J4 0J420161104040010611/04/16 04:00:31  5-MIN K0J4 040900Z AUTO 00000KT 7SM CLR 17/16 A3013 120 93 400 000/00 RMK AO2 T01720161
63870K0J4 0J420161104040510611/04/16 04:05:31  5-MIN K0J4 040905Z AUTO 00000KT 8SM CLR 17/16 A3013 120 93 400 000/00 RMK AO2 T01720161
63870K0J4 0J420161104041010611/04/16 04:10:31  5-MIN K0J4 040910Z AUTO 00000KT 8SM CLR 17/16 A3013 120 93 400 000/00 RMK AO2 T01720161
63870K0J4 0J420161104041510611/04/16 04:15:31  5-MIN K0J4 040915Z AUTO 00000KT 7SM CLR 17/16 A3013 120 93 400 000/00 RMK AO2 T01720161
63870K0J4 0J420161104042010611/04/16 04:20:31  5-MIN K0J4 040920Z AUTO 00000KT 7SM CLR 17/16 A3013 120 93 400 000/00 RMK AO2 T01720161
63870K0J4 0J420161104042510611/04/16 04:25:31  5-MIN K0J4 040925Z AUTO 00000KT 7SM CLR 17/16 A3014 120 93 400 000/00 RMK AO2 T01720161
63870K0J4 0J420161104043010911/04/16 04:30:31  5-MIN K0J4 040930Z AUTO 00000KT 6SM BR CLR 17/16 A3013 120 96 400 000/00 RMK AO2 T01670161
63870K0J4 0J420161104043510911/04/16 04:35:31  5-MIN K0J4 040935Z AUTO 00000KT 6SM BR CLR 17/16 A3013 120 96 400 000/00 RMK AO2 T01670161
63870K0J4 0J420161104044010611/04/16 04:40:31  5-MIN K0J4 040940Z AUTO 00000KT 7SM CLR 17/16 A3014 120 93 400 000/00 RMK AO2 T01670156
63870K0J4 0J420161104044510611/04/16 04:45:31  5-MIN K0J4 040945Z AUTO 00000KT 7SM CLR 17/16 A3013 120 93 400 000/00 RMK AO2 T01720161
63870K0J4 0J420161104045010611/04/16 04:50:31  5-MIN K0J4 040950Z AUTO 00000KT 7SM CLR 17/16 A3013 120 93 400 000/00 RMK AO2 T01720161
63870K0J4 0J420161104045511311/04/16 04:55:31  5-MIN K0J4 040955Z AUTO 00000KT 7SM CLR 17/16 A3013 120 96 400 000/00 RMK AO2 SLP200 T01670161
63870K0J4 0J420161104050010911/04/16 05:00:31  5-MIN K0J4 041000Z AUTO 00000KT 6SM BR CLR 17/16 A3014 120 93 400 000/00 RMK AO2 T01670156
63870K0J4 0J420161104050510911/04/16 05:05:31  5-MIN K0J4 041005Z AUTO 00000KT 5SM BR CLR 16/16 A3014 120 96 300 000/00 RMK AO2 T01610156
63870K0J4 0J420161104051010911/04/16 05:10:31  5-MIN K0J4 041010Z AUTO 00000KT 6SM BR CLR 16/15 A3014 110 93 300 000/00 RMK AO2 T01610150
63870K0J4 0J420161104051510611/04/16 05:15:31  5-MIN K0J4 041015Z AUTO 00000KT 8SM CLR 16/15 A3014 110 93 300 000/00 RMK AO2 T01610150
63870K0J4 0J420161104052010611/04/16 05:20:31  5-MIN K0J4 041020Z AUTO 00000KT 8SM CLR 17/16 A3014 110 93 400 000/00 RMK AO2 T01670156
63870K0J4 0J420161104052510611/04/16 05:25:31  5-MIN K0J4 041025Z AUTO 00000KT 9SM CLR 17/16 A3015 110 93 400 000/00 RMK AO2 T01670156
63870K0J4 0J420161104053010611/04/16 05:30:31  5-MIN K0J4 041030Z AUTO 00000KT 9SM CLR 17/16 A3015 110 96 400 000/00 RMK AO2 T01670161
63870K0J4 0J420161104053510711/04/16 05:35:31  5-MIN K0J4 041035Z AUTO 00000KT 10SM CLR 17/16 A3015 110 93 400 000/00 RMK AO2 T01670156
63870K0J4 0J420161104054010711/04/16 05:40:31  5-MIN K0J4 041040Z AUTO 00000KT 10SM CLR 17/16 A3015 100 90 400 000/00 RMK AO2 T01720156
63870K0J4 0J420161104054510711/04/16 05:45:31  5-MIN K0J4 041045Z AUTO 00000KT 10SM CLR 17/16 A3015 100 90 400 000/00 RMK AO2 T01720156
63870K0J4 0J420161104055010711/04/16 05:50:31  5-MIN K0J4 041050Z AUTO 00000KT 10SM CLR 17/16 A3015 100 93 400 000/00 RMK AO2 T01670156
63870K0J4 0J420161104055511311/04/16 05:55:31  5-MIN K0J4 041055Z AUTO 00000KT 9SM CLR 17/16 A3015 100 93 400 000/00 RMK AO2 SLP206 T01670156
63870K0J4 0J420161104060010611/04/16 06:00:31  5-MIN K0J4 041100Z AUTO 00000KT 9SM CLR 17/16 A3015 100 93 400 000/00 RMK AO2 T01670156
63870K0J4 0J420161104060510611/04/16 06:05:31  5-MIN K0J4 041105Z AUTO 00000KT 9SM CLR 17/16 A3015 110 93 400 000/00 RMK AO2 T01670156
63870K0J4 0J420161104061010711/04/16 06:10:31  5-MIN K0J4 041110Z AUTO 00000KT 10SM CLR 17/16 A3015 110 93 400 000/00 RMK AO2 T01670156
63870K0J4 0J420161104061510711/04/16 06:15:31  5-MIN K0J4 041115Z AUTO 00000KT 10SM CLR 17/16 A3015 110 90 400 000/00 RMK AO2 T01720156
63870K0J4 0J420161104062010711/04/16 06:20:31  5-MIN K0J4 041120Z AUTO 00000KT 10SM CLR 17/16 A3015 110 90 400 000/00 RMK AO2 T01720156
63870K0J4 0J420161104062510711/04/16 06:25:31  5-MIN K0J4 041125Z AUTO 00000KT 10SM CLR 17/16 A3015 110 93 400 000/00 RMK AO2 T01670156
63870K0J4 0J420161104063010711/04/16 06:30:31  5-MIN K0J4 041130Z AUTO 00000KT 10SM CLR 17/16 A3015 110 90 400 000/00 RMK AO2 T01720156
63870K0J4 0J420161104063510711/04/16 06:35:31  5-MIN K0J4 041135Z AUTO 00000KT 10SM CLR 17/16 A3015 100 90 400 000/00 RMK AO2 T01720156
63870K0J4 0J420161104064010711/04/16 06:40:31  5-MIN K0J4 041140Z AUTO 00000KT 10SM CLR 17/16 A3015 100 90 400 000/00 RMK AO2 T01720156
63870K0J4 0J420161104064510711/04/16 06:45:31  5-MIN K0J4 041145Z AUTO 00000KT 10SM CLR 17/16 A3015 100 90 400 000/00 RMK AO2 T01720156
63870K0J4 0J420161104065010711/04/16 06:50:31  5-MIN K0J4 041150Z AUTO 00000KT 10SM CLR 17/16 A3015 100 93 400 000/00 RMK AO2 T01670156
63870K0J4 0J420161104065513811/04/16 06:55:31  5-MIN K0J4 041155Z AUTO 00000KT 10SM CLR 17/16 A3015 100 93 400 000/00 RMK AO2 SLP208 60000 T01670156 10189 20161 57005
63870K0J4 0J420161104070010711/04/16 07:00:31  5-MIN K0J4 041200Z AUTO 00000KT 10SM CLR 17/16 A3016 100 93 400 000/00 RMK AO2 T01670156
63870K0J4 0J420161104070510711/04/16 07:05:31  5-MIN K0J4 041205Z AUTO 00000KT 10SM CLR 17/15 A3016 100 90 400 000/00 RMK AO2 T01670150
63870K0J4 0J420161104071010711/04/16 07:10:31  5-MIN K0J4 041210Z AUTO 00000KT 10SM CLR 17/16 A3016 100 90 400 000/00 RMK AO2 T01720156
63870K0J4 0J420161104071510711/04/16 07:15:31  5-MIN K0J4 041215Z AUTO 00000KT 10SM CLR 17/15 A3016 100 90 400 000/00 RMK AO2 T01670150
63870K0J4 0J420161104072012211/04/16 07:20:31  5-MIN K0J4 041220Z AUTO 00000KT 10SM -RA CLR 17/16 A3016 90 90 400 000/00 RMK AO2 RAB16 P0000 T01720156
63870K0J4 0J420161104072512211/04/16 07:25:31  5-MIN K0J4 041225Z AUTO 00000KT 10SM -RA CLR 17/16 A3016 90 93 400 000/00 RMK AO2 RAB16 P0000 T01670156
63870K0J4 0J420161104073012111/04/16 07:30:31  5-MIN K0J4 041230Z AUTO 00000KT 10SM CLR 17/16 A3016 90 90 400 000/00 RMK AO2 RAB16E27 P0000 T01720156
63870K0J4 0J420161104073512111/04/16 07:35:31  5-MIN K0J4 041235Z AUTO 00000KT 10SM CLR 17/16 A3016 90 90 400 000/00 RMK AO2 RAB16E27 P0000 T01720156
63870K0J4 0J420161104074012111/04/16 07:40:31  5-MIN K0J4 041240Z AUTO 00000KT 10SM CLR 18/16 A3017 90 87 500 000/00 RMK AO2 RAB16E27 P0000 T01780156
63870K0J4 0J420161104074512111/04/16 07:45:31  5-MIN K0J4 041245Z AUTO 00000KT 10SM CLR 18/16 A3017 90 87 500 000/00 RMK AO2 RAB16E27 P0000 T01780156
63870K0J4 0J420161104075012111/04/16 07:50:31  5-MIN K0J4 041250Z AUTO 00000KT 10SM CLR 18/16 A3016 90 84 500 000/00 RMK AO2 RAB16E27 P0000 T01830156
63870K0J4 0J420161104075512811/04/16 07:55:31  5-MIN K0J4 041255Z AUTO 00000KT 10SM CLR 18/16 A3017 90 84 500 000/00 RMK AO2 RAB16E27 SLP211 P0000 T01830156
63870K0J4 0J420161104080010611/04/16 08:00:31  5-MIN K0J4 041300Z AUTO 00000KT 10SM CLR 19/16 A3017 90 81 600 000/00 RMK AO2 T01890156
63870K0J4 0J420161104080510611/04/16 08:05:31  5-MIN K0J4 041305Z AUTO VRB04KT 10SM CLR 19/16 A3017 90 81 600 VRB/04 RMK AO2 T01890156
63870K0J4 0J420161104081010611/04/16 08:10:31  5-MIN K0J4 041310Z AUTO 32003KT 10SM CLR 19/16 A3017 80 78 700 320/03 RMK AO2 T01940156
63870K0J4 0J420161104081510611/04/16 08:15:31  5-MIN K0J4 041315Z AUTO 32004KT 10SM CLR 19/16 A3017 90 78 700 320/04 RMK AO2 T01940156
63870K0J4 0J420161104082010611/04/16 08:20:31  5-MIN K0J4 041320Z AUTO VRB03KT 10SM CLR 19/16 A3017 90 78 700 VRB/03 RMK AO2 T01940156
63870K0J4 0J420161104082510611/04/16 08:25:31  5-MIN K0J4 041325Z AUTO VRB03KT 10SM CLR 20/16 A3017 80 75 700 VRB/03 RMK AO2 T02000156
63870K0J4 0J420161104083010611/04/16 08:30:31  5-MIN K0J4 041330Z AUTO VRB04KT 10SM CLR 20/15 A3017 80 72 700 VRB/04 RMK AO2 T02000150
63870K0J4 0J420161104083510611/04/16 08:35:31  5-MIN K0J4 041335Z AUTO VRB05KT 10SM CLR 20/15 A3017 80 72 700 VRB/05 RMK AO2 T02000150
63870K0J4 0J420161104084010611/04/16 08:40:31  5-MIN K0J4 041340Z AUTO VRB04KT 10SM CLR 20/16 A3017 90 75 700 VRB/04 RMK AO2 T02000156
63870K0J4 0J420161104084510611/04/16 08:45:31  5-MIN K0J4 041345Z AUTO VRB04KT 10SM CLR 21/16 A3017 90 73 800 VRB/04 RMK AO2 T02060156
63870K0J4 0J420161104085010611/04/16 08:50:31  5-MIN K0J4 041350Z AUTO VRB05KT 10SM CLR 21/16 A3017 90 73 800 VRB/05 RMK AO2 T02060156
63870K0J4 0J420161104085511311/04/16 08:55:31  5-MIN K0J4 041355Z AUTO VRB04KT 10SM CLR 21/16 A3017 80 70 900 VRB/04 RMK AO2 SLP213 T02110156
63870K0J4 0J420161104090010611/04/16 09:00:31  5-MIN K0J4 041400Z AUTO VRB05KT 10SM CLR 21/16 A3017 80 70 900 VRB/05 RMK AO2 T02110156
63870K0J4 0J420161104090510611/04/16 09:05:31  5-MIN K0J4 041405Z AUTO VRB04KT 10SM CLR 21/16 A3017 80 70 900 VRB/04 RMK AO2 T02110156
63870K0J4 0J420161104091010611/04/16 09:10:31  5-MIN K0J4 041410Z AUTO VRB03KT 10SM CLR 22/16 A3017 80 68 900 VRB/03 RMK AO2 T02170156
63870K0J4 0J420161104091510611/04/16 09:15:31  5-MIN K0J4 041415Z AUTO 36004KT 10SM CLR 22/16 A3017 80 68 900 360/04 RMK AO2 T02170156
63870K0J4 0J420161104092010711/04/16 09:20:31  5-MIN K0J4 041420Z AUTO 35004KT 10SM CLR 22/16 A3017 90 65 1000 350/04 RMK AO2 T02220156
63870K0J4 0J420161104092510711/04/16 09:25:31  5-MIN K0J4 041425Z AUTO 01004KT 10SM CLR 23/16 A3017 90 63 1100 010/04 RMK AO2 T02280156
63870K0J4 0J420161104093010711/04/16 09:30:31  5-MIN K0J4 041430Z AUTO VRB04KT 10SM CLR 23/16 A3017 90 63 1100 VRB/04 RMK AO2 T02280156
63870K0J4 0J420161104093510711/04/16 09:35:31  5-MIN K0J4 041435Z AUTO 02004KT 10SM CLR 23/16 A3017 80 63 1000 020/04 RMK AO2 T02280156
63870K0J4 0J420161104094010711/04/16 09:40:31  5-MIN K0J4 041440Z AUTO VRB04KT 10SM CLR 23/16 A3017 80 61 1100 VRB/04 RMK AO2 T02330156
63870K0J4 0J420161104094510711/04/16 09:45:31  5-MIN K0J4 041445Z AUTO VRB04KT 10SM CLR 23/16 A3017 80 61 1100 VRB/04 RMK AO2 T02330156
63870K0J4 0J420161104095010711/04/16 09:50:31  5-MIN K0J4 041450Z AUTO VRB03KT 10SM CLR 23/16 A3017 90 61 1100 VRB/03 RMK AO2 T02330156
63870K0J4 0J420161104095512611/04/16 09:55:31  5-MIN K0J4 041455Z AUTO 01006KT 10SM CLR 24/16 A3017 90 61 1200 010/06 RMK AO2 SLP213 60000 T02390161 53008
63870K0J4 0J420161104100010711/04/16 10:00:31  5-MIN K0J4 041500Z AUTO 36006KT 10SM CLR 24/16 A3017 80 61 1200 360/06 RMK AO2 T02390161
63870K0J4 0J420161104100511011/04/16 10:05:31  5-MIN K0J4 041505Z AUTO VRB06KT 10SM FEW055 24/16 A3017 80 61 1200 VRB/06 RMK AO2 T02390161
63870K0J4 0J420161104101011011/04/16 10:10:31  5-MIN K0J4 041510Z AUTO 35005KT 10SM SCT055 24/16 A3018 80 59 1200 350/05 RMK AO2 T02440161
63870K0J4 0J420161104101511011/04/16 10:15:31  5-MIN K0J4 041515Z AUTO 01006KT 10SM BKN055 24/16 A3018 80 59 1200 010/06 RMK AO2 T02440161
63870K0J4 0J420161104102011011/04/16 10:20:31  5-MIN K0J4 041520Z AUTO 01004KT 10SM BKN055 24/17 A3018 80 61 1200 010/04 RMK AO2 T02440167
63870K0J4 0J420161104102511011/04/16 10:25:31  5-MIN K0J4 041525Z AUTO 02007KT 10SM BKN060 25/17 A3018 80 59 1300 020/07 RMK AO2 T02500167
63870K0J4 0J420161104103011011/04/16 10:30:31  5-MIN K0J4 041530Z AUTO VRB06KT 10SM BKN060 25/16 A3017 80 57 1300 VRB/06 RMK AO2 T02500161
63870K0J4 0J420161104103511011/04/16 10:35:31  5-MIN K0J4 041535Z AUTO VRB06KT 10SM SCT055 25/16 A3017 80 57 1300 VRB/06 RMK AO2 T02500161
63870K0J4 0J420161104104011011/04/16 10:40:31  5-MIN K0J4 041540Z AUTO 35005KT 10SM SCT060 25/16 A3017 80 55 1300 350/05 RMK AO2 T02500156
63870K0J4 0J420161104104511011/04/16 10:45:31  5-MIN K0J4 041545Z AUTO 35007KT 10SM FEW060 25/16 A3017 80 57 1300 350/07 RMK AO2 T02500161
63870K0J4 0J420161104105011011/04/16 10:50:31  5-MIN K0J4 041550Z AUTO 03007KT 10SM FEW060 26/16 A3017 80 55 1400 030/07 RMK AO2 T02560161
63870K0J4 0J420161104105511411/04/16 10:55:31  5-MIN K0J4 041555Z AUTO 36007KT 10SM CLR 26/16 A3017 80 53 1400 360/07 RMK AO2 SLP214 T02610161
63870K0J4 0J420161104110010711/04/16 11:00:31  5-MIN K0J4 041600Z AUTO 04007KT 10SM CLR 26/16 A3017 80 53 1400 040/07 RMK AO2 T02610161
63870K0J4 0J420161104110510711/04/16 11:05:31  5-MIN K0J4 041605Z AUTO VRB03KT 10SM CLR 27/17 A3017 90 53 1500 VRB/03 RMK AO2 T02670167
63870K0J4 0J420161104111009711/04/16 11:10:31  5-MIN K0J4 041610Z AUTO 10SM CLR 26/16 A3017 90 53 1400 M /M RMK AO2 T02610161
63870K0J4 0J420161104111510711/04/16 11:15:31  5-MIN K0J4 041615Z AUTO 01006KT 10SM CLR 27/16 A3017 90 52 1500 010/06 RMK AO2 T02670161
63870K0J4 0J420161104112010711/04/16 11:20:31  5-MIN K0J4 041620Z AUTO VRB05KT 10SM CLR 27/17 A3016 90 52 1600 VRB/05 RMK AO2 T02720167
63870K0J4 0J420161104112510711/04/16 11:25:31  5-MIN K0J4 041625Z AUTO VRB05KT 10SM CLR 27/16 A3016 90 50 1600 VRB/05 RMK AO2 T02720161
63870K0J4 0J420161104113010711/04/16 11:30:31  5-MIN K0J4 041630Z AUTO VRB05KT 10SM CLR 27/16 A3016 90 50 1600 VRB/05 RMK AO2 T02720161
63870K0J4 0J420161104113510711/04/16 11:35:31  5-MIN K0J4 041635Z AUTO VRB05KT 10SM CLR 27/16 A3016 90 50 1600 VRB/05 RMK AO2 T02720161
63870K0J4 0J420161104114010711/04/16 11:40:31  5-MIN K0J4 041640Z AUTO 36007KT 10SM CLR 28/16 A3016 90 48 1600 360/07 RMK AO2 T02780161
63870K0J4 0J420161104114510811/04/16 11:45:31  5-MIN K0J4 041645Z AUTO 01005KT 10SM CLR 28/17 A3016 100 50 1600 010/05 RMK AO2 T02780167
63870K0J4 0J420161104115010811/04/16 11:50:31  5-MIN K0J4 041650Z AUTO 36007KT 10SM CLR 27/16 A3016 100 50 1600 360/07 RMK AO2 T02720161
63870K0J4 0J420161104115511511/04/16 11:55:31  5-MIN K0J4 041655Z AUTO VRB05KT 10SM CLR 27/16 A3015 100 50 1600 VRB/05 RMK AO2 SLP207 T02720161
63870K0J4 0J420161104120010811/04/16 12:00:31  5-MIN K0J4 041700Z AUTO VRB06KT 10SM CLR 28/16 A3015 110 48 1600 VRB/06 RMK AO2 T02780161
63870K0J4 0J420161104120509811/04/16 12:05:31  5-MIN K0J4 041705Z AUTO 10SM CLR 28/16 A3014 110 48 1600 M /M RMK AO2 T02780161
63870K0J4 0J420161104121010811/04/16 12:10:31  5-MIN K0J4 041710Z AUTO 03007KT 10SM CLR 28/16 A3014 110 47 1700 030/07 RMK AO2 T02830161
63870K0J4 0J420161104121510811/04/16 12:15:31  5-MIN K0J4 041715Z AUTO VRB05KT 10SM CLR 28/16 A3014 110 46 1700 VRB/05 RMK AO2 T02780156
63870K0J4 0J420161104122010811/04/16 12:20:31  5-MIN K0J4 041720Z AUTO VRB04KT 10SM CLR 28/16 A3014 120 45 1700 VRB/04 RMK AO2 T02830156
63870K0J4 0J420161104122510811/04/16 12:25:31  5-MIN K0J4 041725Z AUTO 36005KT 10SM CLR 29/16 A3013 120 44 1800 360/05 RMK AO2 T02890156
63870K0J4 0J420161104123010811/04/16 12:30:31  5-MIN K0J4 041730Z AUTO 36007KT 10SM CLR 29/16 A3013 120 44 1800 360/07 RMK AO2 T02890156
63870K0J4 0J420161104123510811/04/16 12:35:31  5-MIN K0J4 041735Z AUTO 36007KT 10SM CLR 28/16 A3013 120 45 1700 360/07 RMK AO2 T02830156
63870K0J4 0J420161104124010811/04/16 12:40:31  5-MIN K0J4 041740Z AUTO 02007KT 10SM CLR 28/16 A3013 120 45 1700 020/07 RMK AO2 T02830156
63870K0J4 0J420161104124509811/04/16 12:45:31  5-MIN K0J4 041745Z AUTO 10SM CLR 29/16 A3012 130 44 1800 M /M RMK AO2 T02890156
63870K0J4 0J420161104125012411/04/16 12:50:31  5-MIN K0J4 041750Z AUTO 35008KT 310V040 10SM CLR 29/16 A3012 130 44 1800 350/08 310V040 RMK AO2 T02890156
63870K0J4 0J420161104125513911/04/16 12:55:31  5-MIN K0J4 041755Z AUTO VRB05KT 10SM CLR 29/16 A3012 130 42 1900 VRB/05 RMK AO2 SLP194 60000 T02940156 10294 20167 51004
63870K0J4 0J420161104130010811/04/16 13:00:31  5-MIN K0J4 041800Z AUTO VRB06KT 10SM CLR 29/16 A3012 130 42 1900 VRB/06 RMK AO2 T02940156
63870K0J4 0J420161104130510811/04/16 13:05:31  5-MIN K0J4 041805Z AUTO 36007KT 10SM CLR 29/16 A3012 140 42 1900 360/07 RMK AO2 T02940156
63870K0J4 0J420161104131010811/04/16 13:10:31  5-MIN K0J4 041810Z AUTO VRB05KT 10SM CLR 29/15 A3011 140 41 1900 VRB/05 RMK AO2 T02940150
63870K0J4 0J420161104131510811/04/16 13:15:31  5-MIN K0J4 041815Z AUTO VRB05KT 10SM CLR 29/16 A3011 140 44 1800 VRB/05 RMK AO2 T02890156
63870K0J4 0J420161104132011111/04/16 13:20:31  5-MIN K0J4 041820Z AUTO 35007KT 10SM FEW048 29/16 A3011 140 42 1900 350/07 RMK AO2 T02940156
63870K0J4 0J420161104132511111/04/16 13:25:31  5-MIN K0J4 041825Z AUTO VRB05KT 10SM FEW048 29/15 A3011 140 42 1800 VRB/05 RMK AO2 T02890150
63870K0J4 0J420161104133010111/04/16 13:30:31  5-MIN K0J4 041830Z AUTO 10SM FEW048 29/15 A3011 140 42 1800 M /M RMK AO2 T02890150
63870K0J4 0J420161104133511111/04/16 13:35:31  5-MIN K0J4 041835Z AUTO 04007KT 10SM FEW050 29/16 A3010 150 44 1800 040/07 RMK AO2 T02890156
63870K0J4 0J420161104134012711/04/16 13:40:31  5-MIN K0J4 041840Z AUTO 35009KT 300V050 10SM FEW048 29/16 A3010 150 44 1800 350/09 300V050 RMK AO2 T02890156
63870K0J4 0J420161104134511711/04/16 13:45:31  5-MIN K0J4 041845Z AUTO 36008G14KT 10SM FEW048 29/14 A3010 150 39 1900 360/08G14 RMK AO2 T02940144
63870K0J4 0J420161104135011111/04/16 13:50:31  5-MIN K0J4 041850Z AUTO 36006KT 10SM FEW050 29/14 A3010 150 40 1800 360/06 RMK AO2 T02890144
63870K0J4 0J420161104135511511/04/16 13:55:31  5-MIN K0J4 041855Z AUTO 36005KT 10SM CLR 29/15 A3010 150 41 1900 360/05 RMK AO2 SLP187 T02940150
63870K0J4 0J420161104140010811/04/16 14:00:31  5-MIN K0J4 041900Z AUTO 03004KT 10SM CLR 29/14 A3009 160 40 1800 030/04 RMK AO2 T02890144
63870K0J4 0J420161104140511111/04/16 14:05:31  5-MIN K0J4 041905Z AUTO VRB05KT 10SM FEW050 29/14 A3009 160 40 1800 VRB/05 RMK AO2 T02890144
63870K0J4 0J420161104141011111/04/16 14:10:31  5-MIN K0J4 041910Z AUTO VRB06KT 10SM FEW050 29/14 A3009 160 40 1800 VRB/06 RMK AO2 T02890144
63870K0J4 0J420161104141511111/04/16 14:15:31  5-MIN K0J4 041915Z AUTO 36004KT 10SM FEW050 29/15 A3009 160 41 1900 360/04 RMK AO2 T02940150
63870K0J4 0J420161104142011111/04/16 14:20:31  5-MIN K0J4 041920Z AUTO 36007KT 10SM FEW050 29/15 A3009 160 41 1900 360/07 RMK AO2 T02940150
63870K0J4 0J420161104142511111/04/16 14:25:31  5-MIN K0J4 041925Z AUTO VRB06KT 10SM FEW050 29/14 A3009 160 39 1800 VRB/06 RMK AO2 T02890139
63870K0J4 0J420161104143011111/04/16 14:30:31  5-MIN K0J4 041930Z AUTO 36008KT 10SM FEW050 29/14 A3009 160 39 1800 360/08 RMK AO2 T02890139
63870K0J4 0J420161104143511111/04/16 14:35:31  5-MIN K0J4 041935Z AUTO VRB04KT 10SM FEW055 28/14 A3009 160 40 1800 VRB/04 RMK AO2 T02830139
63870K0J4 0J420161104144011111/04/16 14:40:31  5-MIN K0J4 041940Z AUTO 35008KT 10SM FEW055 28/14 A3009 160 42 1700 350/08 RMK AO2 T02780139
63870K0J4 0J420161104144511111/04/16 14:45:31  5-MIN K0J4 041945Z AUTO 01007KT 10SM FEW055 29/14 A3009 160 39 1800 010/07 RMK AO2 T02890139
63870K0J4 0J420161104145011111/04/16 14:50:31  5-MIN K0J4 041950Z AUTO VRB05KT 10SM FEW050 28/14 A3009 160 40 1800 VRB/05 RMK AO2 T02830139
63870K0J4 0J420161104145511511/04/16 14:55:31  5-MIN K0J4 041955Z AUTO 01009KT 10SM CLR 29/14 A3009 160 39 1800 010/09 RMK AO2 SLP183 T02890139
63870K0J4 0J420161104150010811/04/16 15:00:31  5-MIN K0J4 042000Z AUTO 01008KT 10SM CLR 28/14 A3008 160 40 1800 010/08 RMK AO2 T02830139
63870K0J4 0J420161104150510811/04/16 15:05:31  5-MIN K0J4 042005Z AUTO 01009KT 10SM CLR 29/14 A3009 160 39 1800 010/09 RMK AO2 T02890139
63870K0J4 0J420161104151011411/04/16 15:10:31  5-MIN K0J4 042010Z AUTO 36007G14KT 10SM CLR 28/13 A3009 160 40 1700 360/07G14 RMK AO2 T02780133
63870K0J4 0J420161104151510811/04/16 15:15:31  5-MIN K0J4 042015Z AUTO VRB05KT 10SM CLR 28/13 A3009 160 40 1700 VRB/05 RMK AO2 T02780133
63870K0J4 0J420161104152011111/04/16 15:20:31  5-MIN K0J4 042020Z AUTO 36007KT 10SM FEW055 28/13 A3009 160 39 1800 360/07 RMK AO2 T02830133
63870K0J4 0J420161104152511111/04/16 15:25:31  5-MIN K0J4 042025Z AUTO 36005KT 10SM FEW055 28/13 A3009 160 39 1800 360/05 RMK AO2 T02830133
63870K0J4 0J420161104153011111/04/16 15:30:31  5-MIN K0J4 042030Z AUTO 36007KT 10SM FEW055 29/14 A3009 160 39 1800 360/07 RMK AO2 T02890139
63870K0J4 0J420161104153511711/04/16 15:35:31  5-MIN K0J4 042035Z AUTO 02009G14KT 10SM FEW055 29/14 A3009 160 39 1800 020/09G14 RMK AO2 T02890139
63870K0J4 0J420161104154011711/04/16 15:40:31  5-MIN K0J4 042040Z AUTO 36009G14KT 10SM FEW055 29/14 A3009 160 39 1800 360/09G14 RMK AO2 T02890139
63870K0J4 0J420161104154511711/04/16 15:45:31  5-MIN K0J4 042045Z AUTO VRB06G15KT 10SM FEW060 28/13 A3009 160 39 1800 VRB/06G15 RMK AO2 T02830133
63870K0J4 0J420161104155011711/04/16 15:50:31  5-MIN K0J4 042050Z AUTO 02010G15KT 10SM FEW060 28/13 A3009 160 39 1800 020/10G15 RMK AO2 T02830133
63870K0J4 0J420161104155512711/04/16 15:55:31  5-MIN K0J4 042055Z AUTO 01007G14KT 10SM CLR 27/13 A3009 160 40 1600 010/07G14 RMK AO2 SLP186 T02720128 58018
63870K0J4 0J420161104160010811/04/16 16:00:31  5-MIN K0J4 042100Z AUTO 36007KT 10SM CLR 27/13 A3009 160 40 1600 360/07 RMK AO2 T02720128
63870K0J4 0J420161104160510811/04/16 16:05:31  5-MIN K0J4 042105Z AUTO 36006KT 10SM CLR 27/13 A3009 160 40 1600 360/06 RMK AO2 T02720128
63870K0J4 0J420161104161010811/04/16 16:10:31  5-MIN K0J4 042110Z AUTO 01007KT 10SM CLR 28/13 A3009 160 39 1700 010/07 RMK AO2 T02780128
63870K0J4 0J420161104161510811/04/16 16:15:31  5-MIN K0J4 042115Z AUTO 35005KT 10SM CLR 28/13 A3009 160 39 1700 350/05 RMK AO2 T02780128
63870K0J4 0J420161104162010811/04/16 16:20:31  5-MIN K0J4 042120Z AUTO 01004KT 10SM CLR 28/13 A3009 160 40 1700 010/04 RMK AO2 T02780133
63870K0J4 0J420161104162510811/04/16 16:25:31  5-MIN K0J4 042125Z AUTO 35006KT 10SM CLR 28/13 A3009 160 39 1700 350/06 RMK AO2 T02780128
63870K0J4 0J420161104163010811/04/16 16:30:31  5-MIN K0J4 042130Z AUTO 36007KT 10SM CLR 28/12 A3009 160 37 1700 360/07 RMK AO2 T02780122
63870K0J4 0J420161104163510811/04/16 16:35:31  5-MIN K0J4 042135Z AUTO 36004KT 10SM CLR 28/13 A3009 160 39 1700 360/04 RMK AO2 T02780128
63870K0J4 0J420161104164010811/04/16 16:40:31  5-MIN K0J4 042140Z AUTO 36006KT 10SM CLR 28/13 A3009 160 39 1700 360/06 RMK AO2 T02780128
63870K0J4 0J420161104164512411/04/16 16:45:31  5-MIN K0J4 042145Z AUTO 36007KT 310V030 10SM CLR 28/12 A3009 160 37 1700 360/07 310V030 RMK AO2 T02780122
63870K0J4 0J420161104165010811/04/16 16:50:31  5-MIN K0J4 042150Z AUTO 36007KT 10SM CLR 28/12 A3009 160 37 1700 360/07 RMK AO2 T02780122
63870K0J4 0J420161104165511511/04/16 16:55:31  5-MIN K0J4 042155Z AUTO 36005KT 10SM CLR 27/12 A3009 160 39 1600 360/05 RMK AO2 SLP186 T02720122
63870K0J4 0J420161104170010811/04/16 17:00:31  5-MIN K0J4 042200Z AUTO 36006KT 10SM CLR 27/12 A3009 160 39 1600 360/06 RMK AO2 T02720122
63870K0J4 0J420161104170510811/04/16 17:05:31  5-MIN K0J4 042205Z AUTO 36005KT 10SM CLR 27/12 A3009 160 40 1600 360/05 RMK AO2 T02670122
63870K0J4 0J420161104171010811/04/16 17:10:31  5-MIN K0J4 042210Z AUTO 36005KT 10SM CLR 26/12 A3009 160 40 1500 360/05 RMK AO2 T02610117
63870K0J4 0J420161104171510811/04/16 17:15:31  5-MIN K0J4 042215Z AUTO VRB04KT 10SM CLR 26/12 A3009 160 40 1500 VRB/04 RMK AO2 T02610117
63870K0J4 0J420161104172010811/04/16 17:20:31  5-MIN K0J4 042220Z AUTO 36005KT 10SM CLR 26/12 A3009 160 40 1500 360/05 RMK AO2 T02610117
63870K0J4 0J420161104172510811/04/16 17:25:31  5-MIN K0J4 042225Z AUTO 36006KT 10SM CLR 26/12 A3010 150 41 1500 360/06 RMK AO2 T02560117
63870K0J4 0J420161104173010811/04/16 17:30:31  5-MIN K0J4 042230Z AUTO 36004KT 10SM CLR 26/12 A3010 150 41 1400 360/04 RMK AO2 T02560117
63870K0J4 0J420161104173510811/04/16 17:35:31  5-MIN K0J4 042235Z AUTO VRB04KT 10SM CLR 26/12 A3010 150 41 1400 VRB/04 RMK AO2 T02560117
63870K0J4 0J420161104174010811/04/16 17:40:31  5-MIN K0J4 042240Z AUTO 01005KT 10SM CLR 26/11 A3010 150 40 1400 010/05 RMK AO2 T02560111
63870K0J4 0J420161104174510811/04/16 17:45:31  5-MIN K0J4 042245Z AUTO 36004KT 10SM CLR 25/11 A3010 150 41 1400 360/04 RMK AO2 T02500111
63870K0J4 0J420161104175010811/04/16 17:50:31  5-MIN K0J4 042250Z AUTO 36003KT 10SM CLR 24/11 A3010 150 42 1300 360/03 RMK AO2 T02440111
63870K0J4 0J420161104175511511/04/16 17:55:31  5-MIN K0J4 042255Z AUTO 01003KT 10SM CLR 24/11 A3011 150 44 1300 010/03 RMK AO2 SLP191 T02390111
63870K0J4 0J420161104180010811/04/16 18:00:31  5-MIN K0J4 042300Z AUTO 01004KT 10SM CLR 24/11 A3011 140 44 1200 010/04 RMK AO2 T02390111
63870K0J4 0J420161104180510811/04/16 18:05:31  5-MIN K0J4 042305Z AUTO 01003KT 10SM CLR 24/11 A3011 140 44 1200 010/03 RMK AO2 T02390111
63870K0J4 0J420161104181010811/04/16 18:10:31  5-MIN K0J4 042310Z AUTO 36004KT 10SM CLR 23/11 A3011 140 45 1200 360/04 RMK AO2 T02330111
63870K0J4 0J420161104181510811/04/16 18:15:31  5-MIN K0J4 042315Z AUTO 36003KT 10SM CLR 24/11 A3011 140 44 1200 360/03 RMK AO2 T02390111
63870K0J4 0J420161104182010811/04/16 18:20:31  5-MIN K0J4 042320Z AUTO 01004KT 10SM CLR 23/11 A3011 140 47 1100 010/04 RMK AO2 T02280111
63870K0J4 0J420161104182510811/04/16 18:25:31  5-MIN K0J4 042325Z AUTO 01004KT 10SM CLR 23/11 A3012 140 47 1100 010/04 RMK AO2 T02280111
63870K0J4 0J420161104183010811/04/16 18:30:31  5-MIN K0J4 042330Z AUTO 36004KT 10SM CLR 23/11 A3012 130 45 1100 360/04 RMK AO2 T02280106
63870K0J4 0J420161104183510811/04/16 18:35:31  5-MIN K0J4 042335Z AUTO 01004KT 10SM CLR 22/11 A3012 130 47 1000 010/04 RMK AO2 T02220106
63870K0J4 0J420161104184011111/04/16 18:40:31  5-MIN K0J4 042340Z AUTO 01004KT 10SM FEW075 22/11 A3012 130 47 1000 010/04 RMK AO2 T02220106
63870K0J4 0J420161104184511111/04/16 18:45:31  5-MIN K0J4 042345Z AUTO 35004KT 10SM FEW075 22/11 A3012 130 47 1000 350/04 RMK AO2 T02220106
63870K0J4 0J420161104185011111/04/16 18:50:31  5-MIN K0J4 042350Z AUTO 36005KT 10SM FEW075 22/10 A3013 130 45 1000 360/05 RMK AO2 T02220100
63870K0J4 0J420161104185513611/04/16 18:55:31  5-MIN K0J4 042355Z AUTO 01005KT 10SM FEW075 23/10 A3013 130 44 1100 010/05 RMK AO2 SLP198 T02280100 10294 20217 55010
63870K0J4 0J420161104190011111/04/16 19:00:31  5-MIN K0J4 050000Z AUTO 36005KT 10SM FEW075 22/10 A3013 120 45 1000 360/05 RMK AO2 T02220100
63870K0J4 0J420161104190511111/04/16 19:05:31  5-MIN K0J4 050005Z AUTO 01004KT 10SM SCT075 22/10 A3013 120 45 1000 010/04 RMK AO2 T02220100
63870K0J4 0J420161104191011011/04/16 19:10:31  5-MIN K0J4 050010Z AUTO 01004KT 10SM SCT075 21/10 A3013 120 48 900 010/04 RMK AO2 T02110100
63870K0J4 0J420161104191511011/04/16 19:15:31  5-MIN K0J4 050015Z AUTO 01004KT 10SM BKN075 21/10 A3013 120 48 900 010/04 RMK AO2 T02110100
63870K0J4 0J420161104192011011/04/16 19:20:31  5-MIN K0J4 050020Z AUTO 01004KT 10SM BKN075 21/10 A3014 120 48 900 010/04 RMK AO2 T02110100
63870K0J4 0J420161104192511111/04/16 19:25:31  5-MIN K0J4 050025Z AUTO 01004KT 10SM BKN075 22/10 A3014 120 47 1000 010/04 RMK AO2 T02170100
63870K0J4 0J420161104193011111/04/16 19:30:31  5-MIN K0J4 050030Z AUTO 36005KT 10SM SCT075 22/09 A3014 120 45 1000 360/05 RMK AO2 T02170094
63870K0J4 0J420161104193511111/04/16 19:35:31  5-MIN K0J4 050035Z AUTO 36005KT 10SM SCT075 22/09 A3014 110 45 1000 360/05 RMK AO2 T02170094
63870K0J4 0J420161104194011111/04/16 19:40:31  5-MIN K0J4 050040Z AUTO 35005KT 10SM SCT075 22/09 A3014 110 45 1000 350/05 RMK AO2 T02170094
63870K0J4 0J420161104194511111/04/16 19:45:31  5-MIN K0J4 050045Z AUTO 36005KT 10SM FEW075 22/09 A3014 110 43 1000 360/05 RMK AO2 T02170089
63870K0J4 0J420161104195010811/04/16 19:50:31  5-MIN K0J4 050050Z AUTO 35004KT 10SM CLR 22/09 A3014 110 43 1000 350/04 RMK AO2 T02170089
63870K0J4 0J420161104195511411/04/16 19:55:31  5-MIN K0J4 050055Z AUTO 35004KT 10SM CLR 22/09 A3015 110 43 900 350/04 RMK AO2 SLP205 T02170089
63870K0J4 0J420161104200010711/04/16 20:00:31  5-MIN K0J4 050100Z AUTO 34004KT 10SM CLR 21/09 A3015 110 45 900 340/04 RMK AO2 T02110089
63870K0J4 0J420161104200510711/04/16 20:05:31  5-MIN K0J4 050105Z AUTO 36005KT 10SM CLR 21/09 A3015 110 45 900 360/05 RMK AO2 T02110089
63870K0J4 0J420161104201010711/04/16 20:10:31  5-MIN K0J4 050110Z AUTO 35004KT 10SM CLR 21/08 A3015 110 43 900 350/04 RMK AO2 T02110083
63870K0J4 0J420161104201510711/04/16 20:15:31  5-MIN K0J4 050115Z AUTO 35003KT 10SM CLR 21/08 A3015 100 45 800 350/03 RMK AO2 T02060083
63870K0J4 0J420161104202010711/04/16 20:20:31  5-MIN K0J4 050120Z AUTO 36004KT 10SM CLR 21/08 A3015 100 45 800 360/04 RMK AO2 T02060083
63870K0J4 0J420161104202510711/04/16 20:25:31  5-MIN K0J4 050125Z AUTO 36004KT 10SM CLR 21/08 A3015 100 45 800 360/04 RMK AO2 T02060083
63870K0J4 0J420161104203010711/04/16 20:30:31  5-MIN K0J4 050130Z AUTO 36005KT 10SM CLR 21/08 A3016 100 45 800 360/05 RMK AO2 T02060083
63870K0J4 0J420161104203510711/04/16 20:35:31  5-MIN K0J4 050135Z AUTO 01005KT 10SM CLR 19/09 A3016 100 50 700 010/05 RMK AO2 T01940089
63870K0J4 0J420161104204010711/04/16 20:40:31  5-MIN K0J4 050140Z AUTO 36004KT 10SM CLR 19/09 A3016 100 50 700 360/04 RMK AO2 T01940089
63870K0J4 0J420161104204510711/04/16 20:45:31  5-MIN K0J4 050145Z AUTO 35004KT 10SM CLR 20/08 A3016 100 46 700 350/04 RMK AO2 T02000083
63870K0J4 0J420161104205010611/04/16 20:50:31  5-MIN K0J4 050150Z AUTO 01005KT 10SM CLR 19/09 A3016 90 50 700 010/05 RMK AO2 T01940089
63870K0J4 0J420161104205511311/04/16 20:55:31  5-MIN K0J4 050155Z AUTO 36004KT 10SM CLR 18/09 A3016 90 56 500 360/04 RMK AO2 SLP210 T01830094
63870K0J4 0J420161104210010611/04/16 21:00:31  5-MIN K0J4 050200Z AUTO 36004KT 10SM CLR 19/08 A3016 90 48 700 360/04 RMK AO2 T01940083
63870K0J4 0J420161104210510611/04/16 21:05:31  5-MIN K0J4 050205Z AUTO 36005KT 10SM CLR 19/08 A3016 90 48 700 360/05 RMK AO2 T01940083
63870K0J4 0J420161104211010611/04/16 21:10:31  5-MIN K0J4 050210Z AUTO 36005KT 10SM CLR 19/08 A3017 90 48 700 360/05 RMK AO2 T01940083
63870K0J4 0J420161104211510611/04/16 21:15:31  5-MIN K0J4 050215Z AUTO 35005KT 10SM CLR 19/08 A3017 90 50 600 350/05 RMK AO2 T01890083
63870K0J4 0J420161104212010611/04/16 21:20:31  5-MIN K0J4 050220Z AUTO 36005KT 10SM CLR 19/08 A3017 90 50 600 360/05 RMK AO2 T01890083
63870K0J4 0J420161104212510611/04/16 21:25:31  5-MIN K0J4 050225Z AUTO 01004KT 10SM CLR 19/08 A3017 90 50 600 010/04 RMK AO2 T01890083
63870K0J4 0J420161104213010611/04/16 21:30:31  5-MIN K0J4 050230Z AUTO 36005KT 10SM CLR 18/08 A3017 90 52 500 360/05 RMK AO2 T01830083
63870K0J4 0J420161104213510611/04/16 21:35:31  5-MIN K0J4 050235Z AUTO 36004KT 10SM CLR 18/08 A3017 90 52 500 360/04 RMK AO2 T01830083
63870K0J4 0J420161104214010611/04/16 21:40:31  5-MIN K0J4 050240Z AUTO 01006KT 10SM CLR 18/08 A3017 90 52 500 010/06 RMK AO2 T01830083
63870K0J4 0J420161104214510611/04/16 21:45:31  5-MIN K0J4 050245Z AUTO 36004KT 10SM CLR 18/08 A3017 90 50 500 360/04 RMK AO2 T01830078
63870K0J4 0J420161104215010611/04/16 21:50:31  5-MIN K0J4 050250Z AUTO 35006KT 10SM CLR 19/08 A3017 90 48 600 350/06 RMK AO2 T01890078
63870K0J4 0J420161104215511911/04/16 21:55:31  5-MIN K0J4 050255Z AUTO 36006KT 10SM CLR 19/08 A3017 80 48 600 360/06 RMK AO2 SLP213 T01890078 53013
63870K0J4 0J420161104220010611/04/16 22:00:31  5-MIN K0J4 050300Z AUTO 34005KT 10SM CLR 19/08 A3017 90 48 600 340/05 RMK AO2 T01890078
63870K0J4 0J420161104220510611/04/16 22:05:31  5-MIN K0J4 050305Z AUTO 35006KT 10SM CLR 19/08 A3017 90 48 600 350/06 RMK AO2 T01890078
63870K0J4 0J420161104221010611/04/16 22:10:31  5-MIN K0J4 050310Z AUTO 35004KT 10SM CLR 19/08 A3017 80 48 600 350/04 RMK AO2 T01890078
63870K0J4 0J420161104221510611/04/16 22:15:31  5-MIN K0J4 050315Z AUTO 35004KT 10SM CLR 19/08 A3017 80 48 600 350/04 RMK AO2 T01890078
63870K0J4 0J420161104222010611/04/16 22:20:31  5-MIN K0J4 050320Z AUTO 36004KT 10SM CLR 18/08 A3017 80 50 500 360/04 RMK AO2 T01830078
63870K0J4 0J420161104222510611/04/16 22:25:31  5-MIN K0J4 050325Z AUTO 35004KT 10SM CLR 18/08 A3017 80 50 500 350/04 RMK AO2 T01830078
63870K0J4 0J420161104223010611/04/16 22:30:31  5-MIN K0J4 050330Z AUTO 35004KT 10SM CLR 18/08 A3018 80 50 500 350/04 RMK AO2 T01830078
63870K0J4 0J420161104223510611/04/16 22:35:31  5-MIN K0J4 050335Z AUTO 35004KT 10SM CLR 18/08 A3018 80 50 500 350/04 RMK AO2 T01830078
63870K0J4 0J420161104224010611/04/16 22:40:31  5-MIN K0J4 050340Z AUTO 35004KT 10SM CLR 18/07 A3018 80 48 500 350/04 RMK AO2 T01830072
63870K0J4 0J420161104224510611/04/16 22:45:31  5-MIN K0J4 050345Z AUTO 36004KT 10SM CLR 17/08 A3018 80 53 400 360/04 RMK AO2 T01720078
63870K0J4 0J420161104225010611/04/16 22:50:31  5-MIN K0J4 050350Z AUTO 36004KT 10SM CLR 16/08 A3018 80 62 200 360/04 RMK AO2 T01560083
63870K0J4 0J420161104225511311/04/16 22:55:31  5-MIN K0J4 050355Z AUTO 36004KT 10SM CLR 16/08 A3018 80 59 200 360/04 RMK AO2 SLP216 T01560078
63870K0J4 0J420161104230010611/04/16 23:00:31  5-MIN K0J4 050400Z AUTO 35004KT 10SM CLR 17/08 A3018 80 55 300 350/04 RMK AO2 T01670078
63870K0J4 0J420161104230510611/04/16 23:05:31  5-MIN K0J4 050405Z AUTO 34004KT 10SM CLR 17/07 A3018 80 51 400 340/04 RMK AO2 T01720072
63870K0J4 0J420161104231010611/04/16 23:10:31  5-MIN K0J4 050410Z AUTO 36004KT 10SM CLR 17/07 A3018 80 51 400 360/04 RMK AO2 T01720072
63870K0J4 0J420161104231510611/04/16 23:15:31  5-MIN K0J4 050415Z AUTO 35004KT 10SM CLR 17/08 A3018 80 55 300 350/04 RMK AO2 T01670078
63870K0J4 0J420161104232010611/04/16 23:20:31  5-MIN K0J4 050420Z AUTO 01005KT 10SM CLR 15/08 A3018 80 62 100 010/05 RMK AO2 T01500078
63870K0J4 0J420161104232510611/04/16 23:25:31  5-MIN K0J4 050425Z AUTO 01005KT 10SM CLR 16/08 A3018 80 59 200 010/05 RMK AO2 T01560078
63870K0J4 0J420161104233010611/04/16 23:30:31  5-MIN K0J4 050430Z AUTO 36005KT 10SM CLR 16/08 A3018 80 59 200 360/05 RMK AO2 T01560078
63870K0J4 0J420161104233510611/04/16 23:35:31  5-MIN K0J4 050435Z AUTO 35004KT 10SM CLR 16/07 A3018 80 55 300 350/04 RMK AO2 T01610072
63870K0J4 0J420161104234010611/04/16 23:40:31  5-MIN K0J4 050440Z AUTO 35004KT 10SM CLR 16/07 A3018 80 55 300 350/04 RMK AO2 T01610072
63870K0J4 0J420161104234510611/04/16 23:45:31  5-MIN K0J4 050445Z AUTO 35004KT 10SM CLR 16/07 A3018 80 57 200 350/04 RMK AO2 T01560072
63870K0J4 0J420161104235010611/04/16 23:50:31  5-MIN K0J4 050450Z AUTO 35003KT 10SM CLR 16/08 A3018 80 59 200 350/03 RMK AO2 T01560078
63870K0J4 0J420161104235512311/04/16 23:55:31  5-MIN K0J4 050455Z AUTO VRB04KT 10SM CLR 16/07 A3018 80 57 200 VRB/04 RMK AO2 SLP216 T01560072 402940150
63870K0J4 0J420161105000010611/05/16 00:00:31  5-MIN K0J4 050500Z AUTO 36005KT 10SM CLR 16/07 A3018 80 57 200 360/05 RMK AO2 T01560072
63870K0J4 0J420161105000510611/05/16 00:05:31  5-MIN K0J4 050505Z AUTO 36004KT 10SM CLR 15/08 A3018 80 62 100 360/04 RMK AO2 T01500078
63870K0J4 0J420161105001010611/05/16 00:10:31  5-MIN K0J4 050510Z AUTO 01004KT 10SM CLR 15/07 A3018 80 59 100 010/04 RMK AO2 T01500072
63870K0J4 0J420161105001510411/05/16 00:15:31  5-MIN K0J4 050515Z AUTO 02005KT 10SM CLR 13/08 A3018 80 69 0 020/05 RMK AO2 T01330078
63870K0J4 0J420161105002010411/05/16 00:20:31  5-MIN K0J4 050520Z AUTO 01005KT 10SM CLR 14/08 A3018 80 66 0 010/05 RMK AO2 T01390078
63870K0J4 0J420161105002510611/05/16 00:25:31  5-MIN K0J4 050525Z AUTO 02005KT 10SM CLR 14/07 A3018 80 61 100 020/05 RMK AO2 T01440072
63870K0J4 0J420161105003010611/05/16 00:30:31  5-MIN K0J4 050530Z AUTO 02006KT 10SM CLR 15/07 A3018 80 59 100 020/06 RMK AO2 T01500072
63870K0J4 0J420161105003510611/05/16 00:35:31  5-MIN K0J4 050535Z AUTO 02007KT 10SM CLR 16/07 A3018 80 55 200 020/07 RMK AO2 T01560067
63870K0J4 0J420161105004010611/05/16 00:40:31  5-MIN K0J4 050540Z AUTO 03007KT 10SM CLR 16/07 A3018 80 55 200 030/07 RMK AO2 T01560067
63870K0J4 0J420161105004510611/05/16 00:45:31  5-MIN K0J4 050545Z AUTO 03007KT 10SM CLR 16/07 A3018 80 55 200 030/07 RMK AO2 T01560067
63870K0J4 0J420161105005010611/05/16 00:50:31  5-MIN K0J4 050550Z AUTO 03006KT 10SM CLR 16/07 A3018 70 55 200 030/06 RMK AO2 T01560067
63870K0J4 0J420161105005513111/05/16 00:55:31  5-MIN K0J4 050555Z AUTO 04006KT 10SM CLR 15/07 A3018 70 57 100 040/06 RMK AO2 SLP217 T01500067 10222 20133 51015
63870K0J4 0J420161105010010611/05/16 01:00:31  5-MIN K0J4 050600Z AUTO 04006KT 10SM CLR 16/06 A3018 70 53 200 040/06 RMK AO2 T01560061
63870K0J4 0J420161105010510611/05/16 01:05:31  5-MIN K0J4 050605Z AUTO 04005KT 10SM CLR 16/06 A3018 80 53 200 040/05 RMK AO2 T01560061
63870K0J4 0J420161105011010611/05/16 01:10:31  5-MIN K0J4 050610Z AUTO 04005KT 10SM CLR 16/06 A3018 70 51 300 040/05 RMK AO2 T01610061
63870K0J4 0J420161105011510611/05/16 01:15:31  5-MIN K0J4 050615Z AUTO 03007KT 10SM CLR 16/06 A3018 80 53 200 030/07 RMK AO2 T01560061
63870K0J4 0J420161105012010611/05/16 01:20:31  5-MIN K0J4 050620Z AUTO 04007KT 10SM CLR 16/07 A3018 70 55 200 040/07 RMK AO2 T01560067
63870K0J4 0J420161105012510611/05/16 01:25:31  5-MIN K0J4 050625Z AUTO 04006KT 10SM CLR 16/07 A3018 70 53 300 040/06 RMK AO2 T01610067
63870K0J4 0J420161105013010611/05/16 01:30:31  5-MIN K0J4 050630Z AUTO 04007KT 10SM CLR 16/07 A3019 70 55 200 040/07 RMK AO2 T01560067
63870K0J4 0J420161105013510611/05/16 01:35:31  5-MIN K0J4 050635Z AUTO 04005KT 10SM CLR 16/07 A3019 70 53 300 040/05 RMK AO2 T01610067
63870K0J4 0J420161105014010611/05/16 01:40:31  5-MIN K0J4 050640Z AUTO 05003KT 10SM CLR 16/07 A3019 70 55 200 050/03 RMK AO2 T01560067
63870K0J4 0J420161105014510611/05/16 01:45:31  5-MIN K0J4 050645Z AUTO 04004KT 10SM CLR 16/07 A3019 70 55 200 040/04 RMK AO2 T01560067
63870K0J4 0J420161105015010611/05/16 01:50:31  5-MIN K0J4 050650Z AUTO 05003KT 10SM CLR 16/07 A3019 70 55 200 050/03 RMK AO2 T01560067
63870K0J4 0J420161105015511311/05/16 01:55:31  5-MIN K0J4 050655Z AUTO 05004KT 10SM CLR 15/07 A3019 70 59 100 050/04 RMK AO2 SLP218 T01500072
63870K0J4 0J420161105020010611/05/16 02:00:31  5-MIN K0J4 050700Z AUTO 05004KT 10SM CLR 15/07 A3019 70 59 100 050/04 RMK AO2 T01500072
63870K0J4 0J420161105020510611/05/16 02:05:31  5-MIN K0J4 050705Z AUTO 05004KT 10SM CLR 15/07 A3019 70 59 100 050/04 RMK AO2 T01500072
63870K0J4 0J420161105021010611/05/16 02:10:31  5-MIN K0J4 050710Z AUTO 04003KT 10SM CLR 16/07 A3019 70 57 200 040/03 RMK AO2 T01560072
63870K0J4 0J420161105021510611/05/16 02:15:31  5-MIN K0J4 050715Z AUTO 03004KT 10SM CLR 15/07 A3019 70 59 100 030/04 RMK AO2 T01500072
63870K0J4 0J420161105022010611/05/16 02:20:31  5-MIN K0J4 050720Z AUTO 04004KT 10SM CLR 15/07 A3019 70 59 100 040/04 RMK AO2 T01500072
63870K0J4 0J420161105022510611/05/16 02:25:31  5-MIN K0J4 050725Z AUTO 05003KT 10SM CLR 14/07 A3019 70 61 100 050/03 RMK AO2 T01440072
63870K0J4 0J420161105023010611/05/16 02:30:31  5-MIN K0J4 050730Z AUTO 04003KT 10SM CLR 15/07 A3019 70 59 100 040/03 RMK AO2 T01500072
63870K0J4 0J420161105023510611/05/16 02:35:31  5-MIN K0J4 050735Z AUTO 03003KT 10SM CLR 15/07 A3019 70 59 100 030/03 RMK AO2 T01500072
63870K0J4 0J420161105024010611/05/16 02:40:31  5-MIN K0J4 050740Z AUTO 03004KT 10SM CLR 14/08 A3019 70 64 100 030/04 RMK AO2 T01440078
63870K0J4 0J420161105024510611/05/16 02:45:31  5-MIN K0J4 050745Z AUTO 03004KT 10SM CLR 14/08 A3019 70 64 100 030/04 RMK AO2 T01440078
63870K0J4 0J420161105025010411/05/16 02:50:31  5-MIN K0J4 050750Z AUTO 04004KT 10SM CLR 14/08 A3019 70 66 0 040/04 RMK AO2 T01390078
63870K0J4 0J420161105025511311/05/16 02:55:31  5-MIN K0J4 050755Z AUTO 03004KT 10SM CLR 14/08 A3019 70 64 100 030/04 RMK AO2 SLP220 T01440078
63870K0J4 0J420161105030010411/05/16 03:00:31  5-MIN K0J4 050800Z AUTO 04003KT 10SM CLR 14/08 A3019 70 66 0 040/03 RMK AO2 T01390078
63870K0J4 0J420161105030510611/05/16 03:05:31  5-MIN K0J4 050805Z AUTO 05003KT 10SM CLR 14/08 A3019 70 64 100 050/03 RMK AO2 T01440078
63870K0J4 0J420161105031010611/05/16 03:10:31  5-MIN K0J4 050810Z AUTO 05004KT 10SM CLR 14/08 A3019 70 64 100 050/04 RMK AO2 T01440078
63870K0J4 0J420161105031510411/05/16 03:15:31  5-MIN K0J4 050815Z AUTO 05004KT 10SM CLR 14/08 A3019 70 66 0 050/04 RMK AO2 T01390078
63870K0J4 0J420161105032010611/05/16 03:20:31  5-MIN K0J4 050820Z AUTO 04005KT 10SM CLR 14/08 A3019 70 64 100 040/05 RMK AO2 T01440078
63870K0J4 0J420161105032510611/05/16 03:25:31  5-MIN K0J4 050825Z AUTO 05004KT 10SM CLR 14/08 A3019 60 64 100 050/04 RMK AO2 T01440078
63870K0J4 0J420161105033010411/05/16 03:30:31  5-MIN K0J4 050830Z AUTO 05005KT 10SM CLR 14/08 A3020 60 66 0 050/05 RMK AO2 T01390078
63870K0J4 0J420161105033510411/05/16 03:35:31  5-MIN K0J4 050835Z AUTO 04005KT 10SM CLR 14/08 A3020 60 69 0 040/05 RMK AO2 T01390083
63870K0J4 0J420161105034010411/05/16 03:40:31  5-MIN K0J4 050840Z AUTO 04003KT 10SM CLR 13/08 A3020 60 71 0 040/03 RMK AO2 T01330083
63870K0J4 0J420161105034510411/05/16 03:45:31  5-MIN K0J4 050845Z AUTO 00000KT 10SM CLR 14/08 A3020 60 69 0 000/00 RMK AO2 T01390083
63870K0J4 0J420161105035010411/05/16 03:50:31  5-MIN K0J4 050850Z AUTO 05005KT 10SM CLR 14/08 A3020 60 69 0 050/05 RMK AO2 T01390083
63870K0J4 0J420161105035511711/05/16 03:55:31  5-MIN K0J4 050855Z AUTO 05005KT 10SM CLR 14/09 A3020 60 71 0 050/05 RMK AO2 SLP223 T01390089 51004
63870K0J4 0J420161105040010411/05/16 04:00:31  5-MIN K0J4 050900Z AUTO 05005KT 10SM CLR 14/09 A3020 60 71 0 050/05 RMK AO2 T01390089
63870K0J4 0J420161105040510411/05/16 04:05:31  5-MIN K0J4 050905Z AUTO 05005KT 10SM CLR 14/09 A3020 60 71 0 050/05 RMK AO2 T01390089
63870K0J4 0J420161105041010411/05/16 04:10:31  5-MIN K0J4 050910Z AUTO 05006KT 10SM CLR 14/09 A3020 60 69 0 050/06 RMK AO2 T01440089
63870K0J4 0J420161105041510411/05/16 04:15:31  5-MIN K0J4 050915Z AUTO 05005KT 10SM CLR 14/09 A3020 60 69 0 050/05 RMK AO2 T01440089
63870K0J4 0J420161105042010411/05/16 04:20:31  5-MIN K0J4 050920Z AUTO 05005KT 10SM CLR 14/09 A3020 60 69 0 050/05 RMK AO2 T01440089
63870K0J4 0J420161105042510411/05/16 04:25:31  5-MIN K0J4 050925Z AUTO 06005KT 10SM CLR 14/09 A3020 60 69 0 060/05 RMK AO2 T01440089
63870K0J4 0J420161105043010411/05/16 04:30:31  5-MIN K0J4 050930Z AUTO 06005KT 10SM CLR 14/09 A3020 60 72 0 060/05 RMK AO2 T01440094
63870K0J4 0J420161105043510411/05/16 04:35:31  5-MIN K0J4 050935Z AUTO 06005KT 10SM CLR 14/09 A3020 60 74 0 060/05 RMK AO2 T01390094
63870K0J4 0J420161105044010411/05/16 04:40:31  5-MIN K0J4 050940Z AUTO 06004KT 10SM CLR 14/09 A3020 60 74 0 060/04 RMK AO2 T01390094
63870K0J4 0J420161105044510411/05/16 04:45:31  5-MIN K0J4 050945Z AUTO 06005KT 10SM CLR 14/09 A3020 50 74 0 060/05 RMK AO2 T01390094
63870K0J4 0J420161105045010411/05/16 04:50:31  5-MIN K0J4 050950Z AUTO 06005KT 10SM CLR 14/10 A3020 50 74 0 060/05 RMK AO2 T01440100
63870K0J4 0J420161105045511111/05/16 04:55:31  5-MIN K0J4 050955Z AUTO 06005KT 10SM CLR 14/10 A3021 50 74 0 060/05 RMK AO2 SLP225 T01440100
63870K0J4 0J420161105050010411/05/16 05:00:31  5-MIN K0J4 051000Z AUTO 06005KT 10SM CLR 14/10 A3021 50 77 0 060/05 RMK AO2 T01390100
63870K0J4 0J420161105050510411/05/16 05:05:31  5-MIN K0J4 051005Z AUTO 06005KT 10SM CLR 14/10 A3021 50 77 0 060/05 RMK AO2 T01390100
63870K0J4 0J420161105051010411/05/16 05:10:31  5-MIN K0J4 051010Z AUTO 07006KT 10SM CLR 14/10 A3021 50 77 0 070/06 RMK AO2 T01390100
63870K0J4 0J420161105051510411/05/16 05:15:31  5-MIN K0J4 051015Z AUTO 07006KT 10SM CLR 14/10 A3021 50 77 0 070/06 RMK AO2 T01390100
63870K0J4 0J420161105052010411/05/16 05:20:31  5-MIN K0J4 051020Z AUTO 07006KT 10SM CLR 14/10 A3021 50 77 0 070/06 RMK AO2 T01390100
63870K0J4 0J420161105052510411/05/16 05:25:31  5-MIN K0J4 051025Z AUTO 07006KT 10SM CLR 14/11 A3021 50 80 0 070/06 RMK AO2 T01390106
63870K0J4 0J420161105053010411/05/16 05:30:31  5-MIN K0J4 051030Z AUTO 07006KT 10SM CLR 14/10 A3021 50 77 0 070/06 RMK AO2 T01390100
63870K0J4 0J420161105053510411/05/16 05:35:31  5-MIN K0J4 051035Z AUTO 07006KT 10SM CLR 14/11 A3021 50 80 0 070/06 RMK AO2 T01390106
63870K0J4 0J420161105054010411/05/16 05:40:31  5-MIN K0J4 051040Z AUTO 07005KT 10SM CLR 14/11 A3021 50 80 0 070/05 RMK AO2 T01390106
63870K0J4 0J420161105054510411/05/16 05:45:31  5-MIN K0J4 051045Z AUTO 07005KT 10SM CLR 14/11 A3022 40 80 0 070/05 RMK AO2 T01390106
63870K0J4 0J420161105055010411/05/16 05:50:31  5-MIN K0J4 051050Z AUTO 07005KT 10SM CLR 14/11 A3022 40 80 0 070/05 RMK AO2 T01390106
63870K0J4 0J420161105055511111/05/16 05:55:31  5-MIN K0J4 051055Z AUTO 07006KT 10SM CLR 14/11 A3022 40 80 0 070/06 RMK AO2 SLP231 T01390106
63870K0J4 0J420161105060010411/05/16 06:00:31  5-MIN K0J4 051100Z AUTO 07005KT 10SM CLR 14/11 A3022 40 80 0 070/05 RMK AO2 T01390106
63870K0J4 0J420161105060510711/05/16 06:05:31  5-MIN K0J4 051105Z AUTO 07005KT 10SM CLR 13/11 A3022 40 83 -100 070/05 RMK AO2 T01330106
63870K0J4 0J420161105061010711/05/16 06:10:31  5-MIN K0J4 051110Z AUTO 08004KT 10SM CLR 13/11 A3022 40 83 -100 080/04 RMK AO2 T01330106
63870K0J4 0J420161105061510711/05/16 06:15:31  5-MIN K0J4 051115Z AUTO 07005KT 10SM CLR 13/11 A3022 40 83 -100 070/05 RMK AO2 T01330106
63870K0J4 0J420161105062010711/05/16 06:20:31  5-MIN K0J4 051120Z AUTO 07005KT 10SM CLR 13/11 A3023 30 83 -100 070/05 RMK AO2 T01330106
63870K0J4 0J420161105062510711/05/16 06:25:31  5-MIN K0J4 051125Z AUTO 08005KT 10SM CLR 13/11 A3023 30 83 -100 080/05 RMK AO2 T01330106
63870K0J4 0J420161105063010711/05/16 06:30:31  5-MIN K0J4 051130Z AUTO 08005KT 10SM CLR 13/11 A3023 30 83 -100 080/05 RMK AO2 T01330106
63870K0J4 0J420161105063510711/05/16 06:35:31  5-MIN K0J4 051135Z AUTO 07005KT 10SM CLR 13/11 A3023 30 83 -100 070/05 RMK AO2 T01330106
63870K0J4 0J420161105064010711/05/16 06:40:31  5-MIN K0J4 051140Z AUTO 07005KT 10SM CLR 13/11 A3023 30 83 -100 070/05 RMK AO2 T01330106
63870K0J4 0J420161105064510711/05/16 06:45:31  5-MIN K0J4 051145Z AUTO 07006KT 10SM CLR 13/11 A3023 30 83 -100 070/06 RMK AO2 T01330106
63870K0J4 0J420161105065010711/05/16 06:50:31  5-MIN K0J4 051150Z AUTO 07005KT 10SM CLR 13/11 A3024 30 83 -100 070/05 RMK AO2 T01330106
63870K0J4 0J420161105065513211/05/16 06:55:31  5-MIN K0J4 051155Z AUTO 07005KT 10SM CLR 13/11 A3024 20 83 -100 070/05 RMK AO2 SLP237 T01330106 10161 20133 53006
63870K0J4 0J420161105070010711/05/16 07:00:31  5-MIN K0J4 051200Z AUTO 07005KT 10SM CLR 13/11 A3024 20 83 -100 070/05 RMK AO2 T01330106
63870K0J4 0J420161105070510711/05/16 07:05:31  5-MIN K0J4 051205Z AUTO 07005KT 10SM CLR 13/11 A3024 20 83 -100 070/05 RMK AO2 T01330106
63870K0J4 0J420161105071010711/05/16 07:10:31  5-MIN K0J4 051210Z AUTO 07005KT 10SM CLR 13/11 A3024 20 86 -100 070/05 RMK AO2 T01330111
63870K0J4 0J420161105071510711/05/16 07:15:31  5-MIN K0J4 051215Z AUTO 07005KT 10SM CLR 13/11 A3024 20 86 -100 070/05 RMK AO2 T01330111
63870K0J4 0J420161105072010711/05/16 07:20:31  5-MIN K0J4 051220Z AUTO 07005KT 10SM CLR 13/11 A3025 20 86 -100 070/05 RMK AO2 T01330111
63870K0J4 0J420161105072510711/05/16 07:25:31  5-MIN K0J4 051225Z AUTO 07005KT 10SM CLR 13/11 A3025 10 86 -100 070/05 RMK AO2 T01330111
63870K0J4 0J420161105073010711/05/16 07:30:31  5-MIN K0J4 051230Z AUTO 07005KT 10SM CLR 13/11 A3025 10 86 -100 070/05 RMK AO2 T01330111
63870K0J4 0J420161105073510411/05/16 07:35:31  5-MIN K0J4 051235Z AUTO 07005KT 10SM CLR 14/11 A3025 10 83 0 070/05 RMK AO2 T01390111
63870K0J4 0J420161105074010411/05/16 07:40:31  5-MIN K0J4 051240Z AUTO 07006KT 10SM CLR 14/11 A3025 10 83 0 070/06 RMK AO2 T01390111
63870K0J4 0J420161105074510411/05/16 07:45:31  5-MIN K0J4 051245Z AUTO 08005KT 10SM CLR 14/11 A3026 10 83 0 080/05 RMK AO2 T01390111
63870K0J4 0J420161105075010311/05/16 07:50:31  5-MIN K0J4 051250Z AUTO 07006KT 10SM CLR 14/11 A3026 0 80 0 070/06 RMK AO2 T01440111
63870K0J4 0J420161105075511011/05/16 07:55:31  5-MIN K0J4 051255Z AUTO 07007KT 10SM CLR 14/11 A3026 0 80 0 070/07 RMK AO2 SLP244 T01440111
63870K0J4 0J420161105080010311/05/16 08:00:31  5-MIN K0J4 051300Z AUTO 07006KT 10SM CLR 15/11 A3026 0 77 0 070/06 RMK AO2 T01500111
63870K0J4 0J420161105080510311/05/16 08:05:31  5-MIN K0J4 051305Z AUTO 07006KT 10SM CLR 15/11 A3027 0 77 0 070/06 RMK AO2 T01500111
63870K0J4 0J420161105081010311/05/16 08:10:31  5-MIN K0J4 051310Z AUTO 08005KT 10SM CLR 15/11 A3027 0 77 0 080/05 RMK AO2 T01500111
63870K0J4 0J420161105081510511/05/16 08:15:31  5-MIN K0J4 051315Z AUTO 08006KT 10SM CLR 16/11 A3027 0 74 100 080/06 RMK AO2 T01560111
63870K0J4 0J420161105082010511/05/16 08:20:31  5-MIN K0J4 051320Z AUTO 08006KT 10SM CLR 16/11 A3027 0 72 200 080/06 RMK AO2 T01610111
63870K0J4 0J420161105082510511/05/16 08:25:31  5-MIN K0J4 051325Z AUTO 08007KT 10SM CLR 16/11 A3027 0 72 200 080/07 RMK AO2 T01610111
63870K0J4 0J420161105083010711/05/16 08:30:31  5-MIN K0J4 051330Z AUTO 09006KT 10SM CLR 16/11 A3028 -10 72 200 090/06 RMK AO2 T01610111
63870K0J4 0J420161105083510711/05/16 08:35:31  5-MIN K0J4 051335Z AUTO 09006KT 10SM CLR 17/11 A3028 -10 69 200 090/06 RMK AO2 T01670111
63870K0J4 0J420161105084010711/05/16 08:40:31  5-MIN K0J4 051340Z AUTO 09007KT 10SM CLR 17/11 A3028 -10 69 200 090/07 RMK AO2 T01670111
63870K0J4 0J420161105084510711/05/16 08:45:31  5-MIN K0J4 051345Z AUTO 08007KT 10SM CLR 17/11 A3028 -10 67 300 080/07 RMK AO2 T01720111
63870K0J4 0J420161105085010711/05/16 08:50:31  5-MIN K0J4 051350Z AUTO 09008KT 10SM CLR 17/11 A3028 -10 64 300 090/08 RMK AO2 T01720106
63870K0J4 0J420161105085511411/05/16 08:55:31  5-MIN K0J4 051355Z AUTO 09006KT 10SM CLR 17/11 A3028 -10 64 300 090/06 RMK AO2 SLP252 T01720106
63870K0J4 0J420161105090010711/05/16 09:00:31  5-MIN K0J4 051400Z AUTO 10006KT 10SM CLR 18/11 A3029 -20 62 300 100/06 RMK AO2 T01780106
63870K0J4 0J420161105090510711/05/16 09:05:31  5-MIN K0J4 051405Z AUTO VRB06KT 10SM CLR 18/10 A3029 -20 60 300 VRB/06 RMK AO2 T01780100
63870K0J4 0J420161105091010711/05/16 09:10:31  5-MIN K0J4 051410Z AUTO 10006KT 10SM CLR 18/10 A3029 -20 58 400 100/06 RMK AO2 T01830100
63870K0J4 0J420161105091510711/05/16 09:15:31  5-MIN K0J4 051415Z AUTO VRB06KT 10SM CLR 18/09 A3029 -20 56 400 VRB/06 RMK AO2 T01830094
63870K0J4 0J420161105092010711/05/16 09:20:31  5-MIN K0J4 051420Z AUTO 10008KT 10SM CLR 19/09 A3029 -20 54 500 100/08 RMK AO2 T01890094
63870K0J4 0J420161105092511311/05/16 09:25:31  5-MIN K0J4 051425Z AUTO 11010G15KT 10SM CLR 19/09 A3030 -20 54 500 110/10G15 RMK AO2 T01890094
63870K0J4 0J420161105093011311/05/16 09:30:31  5-MIN K0J4 051430Z AUTO VRB06G15KT 10SM CLR 19/09 A3030 -20 54 500 VRB/06G15 RMK AO2 T01890094
63870K0J4 0J420161105093511311/05/16 09:35:31  5-MIN K0J4 051435Z AUTO 11009G15KT 10SM CLR 19/09 A3030 -30 52 500 110/09G15 RMK AO2 T01890089
63870K0J4 0J420161105094012911/05/16 09:40:31  5-MIN K0J4 051440Z AUTO 12008G15KT 080V150 10SM CLR 19/08 A3030 -30 48 500 120/08G15 080V150 RMK AO2 T01940083
63870K0J4 0J420161105094511311/05/16 09:45:31  5-MIN K0J4 051445Z AUTO 10008G16KT 10SM CLR 19/08 A3030 -30 48 500 100/08G16 RMK AO2 T01940083
63870K0J4 0J420161105095011311/05/16 09:50:31  5-MIN K0J4 051450Z AUTO 10010G16KT 10SM CLR 19/08 A3030 -30 48 500 100/10G16 RMK AO2 T01940083
63870K0J4 0J420161105095512611/05/16 09:55:31  5-MIN K0J4 051455Z AUTO 11011G16KT 10SM CLR 19/08 A3030 -30 46 500 110/11G16 RMK AO2 SLP257 T01940078 53013
63870K0J4 0J420161105100011311/05/16 10:00:31  5-MIN K0J4 051500Z AUTO 13009G17KT 10SM CLR 20/08 A3030 -30 45 600 130/09G17 RMK AO2 T02000078
63870K0J4 0J420161105100511311/05/16 10:05:31  5-MIN K0J4 051505Z AUTO 11011G17KT 10SM CLR 20/08 A3030 -30 45 600 110/11G17 RMK AO2 T02000078
63870K0J4 0J420161105101011311/05/16 10:10:31  5-MIN K0J4 051510Z AUTO 11009G17KT 10SM CLR 20/08 A3030 -30 45 600 110/09G17 RMK AO2 T02000078
63870K0J4 0J420161105101512911/05/16 10:15:31  5-MIN K0J4 051515Z AUTO 09009G17KT 040V130 10SM CLR 21/08 A3030 -30 43 700 090/09G17 040V130 RMK AO2 T02060078
63870K0J4 0J420161105102012311/05/16 10:20:31  5-MIN K0J4 051520Z AUTO 11008KT 070V140 10SM CLR 21/08 A3030 -30 42 700 110/08 070V140 RMK AO2 T02110078
63870K0J4 0J420161105102511311/05/16 10:25:31  5-MIN K0J4 051525Z AUTO 11007G15KT 10SM CLR 21/07 A3030 -30 40 700 110/07G15 RMK AO2 T02110072
63870K0J4 0J420161105103012911/05/16 10:30:31  5-MIN K0J4 051530Z AUTO 10008G15KT 070V140 10SM CLR 21/07 A3030 -30 41 600 100/08G15 070V140 RMK AO2 T02060072
63870K0J4 0J420161105103511311/05/16 10:35:31  5-MIN K0J4 051535Z AUTO 08012G15KT 10SM CLR 22/07 A3030 -30 39 800 080/12G15 RMK AO2 T02170072
63870K0J4 0J420161105104011311/05/16 10:40:31  5-MIN K0J4 051540Z AUTO 08013G16KT 10SM CLR 22/07 A3030 -30 37 800 080/13G16 RMK AO2 T02170067
63870K0J4 0J420161105104511311/05/16 10:45:31  5-MIN K0J4 051545Z AUTO 11010G16KT 10SM CLR 22/07 A3030 -30 37 800 110/10G16 RMK AO2 T02170067
63870K0J4 0J420161105105011311/05/16 10:50:31  5-MIN K0J4 051550Z AUTO 10009G19KT 10SM CLR 22/06 A3030 -30 36 800 100/09G19 RMK AO2 T02170061
63870K0J4 0J420161105105513611/05/16 10:55:31  5-MIN K0J4 051555Z AUTO 11007G19KT 070V160 10SM CLR 22/06 A3030 -30 33 800 110/07G19 070V160 RMK AO2 SLP257 T02220056
63870K0J4 0J420161105110011311/05/16 11:00:31  5-MIN K0J4 051600Z AUTO 13009G16KT 10SM CLR 22/06 A3030 -20 33 800 130/09G16 RMK AO2 T02220056
63870K0J4 0J420161105110511311/05/16 11:05:31  5-MIN K0J4 051605Z AUTO 13009G16KT 10SM CLR 22/05 A3029 -20 32 800 130/09G16 RMK AO2 T02220050
63870K0J4 0J420161105111012911/05/16 11:10:31  5-MIN K0J4 051610Z AUTO 10007G14KT 080V140 10SM CLR 23/06 A3029 -20 32 900 100/07G14 080V140 RMK AO2 T02280056
63870K0J4 0J420161105111510711/05/16 11:15:31  5-MIN K0J4 051615Z AUTO 11008KT 10SM CLR 23/06 A3029 -20 32 900 110/08 RMK AO2 T02280056
63870K0J4 0J420161105112011411/05/16 11:20:31  5-MIN K0J4 051620Z AUTO 07014G19KT 10SM CLR 23/06 A3029 -20 31 1000 070/14G19 RMK AO2 T02330056
63870K0J4 0J420161105112511311/05/16 11:25:31  5-MIN K0J4 051625Z AUTO 10008G19KT 10SM CLR 23/05 A3029 -20 31 900 100/08G19 RMK AO2 T02280050
63870K0J4 0J420161105113010711/05/16 11:30:31  5-MIN K0J4 051630Z AUTO 10006KT 10SM CLR 23/05 A3029 -20 31 900 100/06 RMK AO2 T02280050
63870K0J4 0J420161105113511411/05/16 11:35:31  5-MIN K0J4 051635Z AUTO 08011G17KT 10SM CLR 23/05 A3029 -20 30 1000 080/11G17 RMK AO2 T02330050
63870K0J4 0J420161105114011311/05/16 11:40:31  5-MIN K0J4 051640Z AUTO 08010G17KT 10SM CLR 23/04 A3028 -10 30 900 080/10G17 RMK AO2 T02280044
63870K0J4 0J420161105114510811/05/16 11:45:31  5-MIN K0J4 051645Z AUTO 07012KT 10SM CLR 24/04 A3028 -10 28 1100 070/12 RMK AO2 T02390044
63870K0J4 0J420161105115010811/05/16 11:50:31  5-MIN K0J4 051650Z AUTO 07010KT 10SM CLR 23/04 A3028 -10 29 1000 070/10 RMK AO2 T02330044
63870K0J4 0J420161105115511511/05/16 11:55:31  5-MIN K0J4 051655Z AUTO 11010KT 10SM CLR 23/04 A3028 -10 29 1000 110/10 RMK AO2 SLP251 T02330044
63870K0J4 0J420161105120010811/05/16 12:00:31  5-MIN K0J4 051700Z AUTO 09011KT 10SM CLR 23/04 A3028 -10 29 1000 090/11 RMK AO2 T02330044
63870K0J4 0J420161105120513011/05/16 12:05:31  5-MIN K0J4 051705Z AUTO 08009G17KT 050V120 10SM CLR 24/05 A3028 -10 29 1100 080/09G17 050V120 RMK AO2 T02390050
63870K0J4 0J420161105121011411/05/16 12:10:31  5-MIN K0J4 051710Z AUTO 08011G18KT 10SM CLR 24/05 A3028 -10 29 1100 080/11G18 RMK AO2 T02390050
63870K0J4 0J420161105121510811/05/16 12:15:31  5-MIN K0J4 051715Z AUTO 09011KT 10SM CLR 24/04 A3028 -10 28 1100 090/11 RMK AO2 T02390044
63870K0J4 0J420161105122010611/05/16 12:20:31  5-MIN K0J4 051720Z AUTO 07011KT 10SM CLR 24/04 A3027 0 28 1100 070/11 RMK AO2 T02390044
63870K0J4 0J420161105122510611/05/16 12:25:31  5-MIN K0J4 051725Z AUTO 08011KT 10SM CLR 24/05 A3027 0 29 1100 080/11 RMK AO2 T02390050
63870K0J4 0J420161105123010611/05/16 12:30:31  5-MIN K0J4 051730Z AUTO 09008KT 10SM CLR 24/04 A3027 0 28 1100 090/08 RMK AO2 T02390044
63870K0J4 0J420161105123511211/05/16 12:35:31  5-MIN K0J4 051735Z AUTO 05012G16KT 10SM CLR 24/04 A3026 0 28 1100 050/12G16 RMK AO2 T02390044
63870K0J4 0J420161105124012811/05/16 12:40:31  5-MIN K0J4 051740Z AUTO 10008G16KT 060V120 10SM CLR 24/06 A3026 0 29 1100 100/08G16 060V120 RMK AO2 T02440056
63870K0J4 0J420161105124511211/05/16 12:45:31  5-MIN K0J4 051745Z AUTO 07010G16KT 10SM CLR 24/05 A3026 0 29 1100 070/10G16 RMK AO2 T02390050
63870K0J4 0J420161105125011311/05/16 12:50:31  5-MIN K0J4 051750Z AUTO 10008G15KT 10SM CLR 24/05 A3026 10 28 1100 100/08G15 RMK AO2 T02440050
63870K0J4 0J420161105125513811/05/16 12:55:31  5-MIN K0J4 051755Z AUTO 12008G15KT 10SM CLR 24/05 A3025 10 29 1100 120/08G15 RMK AO2 SLP241 T02390050 10244 20133 51020
63870K0J4 0J420161105130010711/05/16 13:00:31  5-MIN K0J4 051800Z AUTO 09007KT 10SM CLR 24/05 A3025 10 29 1100 090/07 RMK AO2 T02390050
63870K0J4 0J420161105130510711/05/16 13:05:31  5-MIN K0J4 051805Z AUTO 09008KT 10SM CLR 24/06 A3025 20 29 1200 090/08 RMK AO2 T02440056
63870K0J4 0J420161105131011311/05/16 13:10:31  5-MIN K0J4 051810Z AUTO 06012G15KT 10SM CLR 24/05 A3025 20 29 1100 060/12G15 RMK AO2 T02390050
63870K0J4 0J420161105131510711/05/16 13:15:31  5-MIN K0J4 051815Z AUTO 07010KT 10SM CLR 24/05 A3024 20 29 1100 070/10 RMK AO2 T02390050
63870K0J4 0J420161105132010711/05/16 13:20:31  5-MIN K0J4 051820Z AUTO 08009KT 10SM CLR 24/06 A3024 20 30 1100 080/09 RMK AO2 T02390056
63870K0J4 0J420161105132510711/05/16 13:25:31  5-MIN K0J4 051825Z AUTO 07007KT 10SM CLR 24/06 A3024 20 30 1100 070/07 RMK AO2 T02390056
63870K0J4 0J420161105133010711/05/16 13:30:31  5-MIN K0J4 051830Z AUTO 08011KT 10SM CLR 24/06 A3024 20 29 1200 080/11 RMK AO2 T02440056
63870K0J4 0J420161105133510711/05/16 13:35:31  5-MIN K0J4 051835Z AUTO 08008KT 10SM CLR 24/06 A3024 20 30 1100 080/08 RMK AO2 T02390056
63870K0J4 0J420161105134010711/05/16 13:40:31  5-MIN K0J4 051840Z AUTO 09008KT 10SM CLR 24/06 A3024 20 30 1100 090/08 RMK AO2 T02390056
63870K0J4 0J420161105134512311/05/16 13:45:31  5-MIN K0J4 051845Z AUTO 10008KT 060V140 10SM CLR 24/05 A3024 20 29 1100 100/08 060V140 RMK AO2 T02390050
63870K0J4 0J420161105135010711/05/16 13:50:31  5-MIN K0J4 051850Z AUTO 09009KT 10SM CLR 24/06 A3024 20 30 1100 090/09 RMK AO2 T02390056
63870K0J4 0J420161105135512011/05/16 13:55:31  5-MIN K0J4 051855Z AUTO 11008G14KT 10SM CLR 24/06 A3024 30 30 1100 110/08G14 RMK AO2 SLP235 T02390056
63870K0J4 0J420161105140010711/05/16 14:00:31  5-MIN K0J4 051900Z AUTO 08007KT 10SM CLR 23/06 A3023 30 31 1000 080/07 RMK AO2 T02330056
63870K0J4 0J420161105140511311/05/16 14:05:31  5-MIN K0J4 051905Z AUTO 10009G15KT 10SM CLR 24/06 A3023 30 30 1100 100/09G15 RMK AO2 T02390056
63870K0J4 0J420161105141011311/05/16 14:10:31  5-MIN K0J4 051910Z AUTO 07012G16KT 10SM CLR 24/05 A3023 30 29 1100 070/12G16 RMK AO2 T02390050
63870K0J4 0J420161105141510711/05/16 14:15:31  5-MIN K0J4 051915Z AUTO 06009KT 10SM CLR 24/06 A3023 30 29 1200 060/09 RMK AO2 T02440056
63870K0J4 0J420161105142012311/05/16 14:20:31  5-MIN K0J4 051920Z AUTO 05010KT 010V070 10SM CLR 25/06 A3023 40 28 1200 050/10 010V070 RMK AO2 T02500056
63870K0J4 0J420161105142512911/05/16 14:25:31  5-MIN K0J4 051925Z AUTO 08008G16KT 040V110 10SM CLR 25/06 A3022 40 28 1200 080/08G16 040V110 RMK AO2 T02500056
63870K0J4 0J420161105143010711/05/16 14:30:31  5-MIN K0J4 051930Z AUTO 08013KT 10SM CLR 25/06 A3022 40 28 1200 080/13 RMK AO2 T02500056
63870K0J4 0J420161105143511311/05/16 14:35:31  5-MIN K0J4 051935Z AUTO 06008G16KT 10SM CLR 24/06 A3022 40 29 1200 060/08G16 RMK AO2 T02440056
63870K0J4 0J420161105144011311/05/16 14:40:31  5-MIN K0J4 051940Z AUTO 06010G17KT 10SM CLR 24/06 A3022 40 29 1200 060/10G17 RMK AO2 T02440056
63870K0J4 0J420161105144511311/05/16 14:45:31  5-MIN K0J4 051945Z AUTO 03007G17KT 10SM CLR 24/06 A3022 40 29 1200 030/07G17 RMK AO2 T02440056
63870K0J4 0J420161105145012911/05/16 14:50:31  5-MIN K0J4 051950Z AUTO 08009G16KT 040V100 10SM CLR 24/06 A3022 40 29 1200 080/09G16 040V100 RMK AO2 T02440056
63870K0J4 0J420161105145512011/05/16 14:55:31  5-MIN K0J4 051955Z AUTO 09009G17KT 10SM CLR 24/05 A3021 40 28 1200 090/09G17 RMK AO2 SLP228 T02440050
63870K0J4 0J420161105150011311/05/16 15:00:31  5-MIN K0J4 052000Z AUTO 08010G17KT 10SM CLR 24/06 A3022 40 29 1200 080/10G17 RMK AO2 T02440056
63870K0J4 0J420161105150511311/05/16 15:05:31  5-MIN K0J4 052005Z AUTO 06014G18KT 10SM CLR 25/06 A3022 40 28 1300 060/14G18 RMK AO2 T02500056
63870K0J4 0J420161105151011311/05/16 15:10:31  5-MIN K0J4 052010Z AUTO 03009G18KT 10SM CLR 24/05 A3022 40 28 1200 030/09G18 RMK AO2 T02440050
63870K0J4 0J420161105151510711/05/16 15:15:31  5-MIN K0J4 052015Z AUTO 03007KT 10SM CLR 25/06 A3022 40 28 1300 030/07 RMK AO2 T02500056
63870K0J4 0J420161105152010711/05/16 15:20:31  5-MIN K0J4 052020Z AUTO 09008KT 10SM CLR 24/05 A3022 40 28 1200 090/08 RMK AO2 T02440050
63870K0J4 0J420161105152511311/05/16 15:25:31  5-MIN K0J4 052025Z AUTO 06010G15KT 10SM CLR 24/05 A3021 40 28 1200 060/10G15 RMK AO2 T02440050
63870K0J4 0J420161105153011311/05/16 15:30:31  5-MIN K0J4 052030Z AUTO 05009G15KT 10SM CLR 24/05 A3022 40 28 1200 050/09G15 RMK AO2 T02440050
63870K0J4 0J420161105153510711/05/16 15:35:31  5-MIN K0J4 052035Z AUTO 08007KT 10SM CLR 24/06 A3021 40 29 1200 080/07 RMK AO2 T02440056
63870K0J4 0J420161105154010711/05/16 15:40:31  5-MIN K0J4 052040Z AUTO 04009KT 10SM CLR 24/06 A3021 50 29 1200 040/09 RMK AO2 T02440056
63870K0J4 0J420161105154510711/05/16 15:45:31  5-MIN K0J4 052045Z AUTO 06011KT 10SM CLR 24/06 A3022 40 29 1200 060/11 RMK AO2 T02440056
63870K0J4 0J420161105155010711/05/16 15:50:31  5-MIN K0J4 052050Z AUTO 07008KT 10SM CLR 24/05 A3022 40 29 1100 070/08 RMK AO2 T02390050
63870K0J4 0J420161105155512011/05/16 15:55:31  5-MIN K0J4 052055Z AUTO 04010KT 10SM CLR 23/05 A3022 40 30 1100 040/10 RMK AO2 SLP229 T02330050 58016
63870K0J4 0J420161105160010711/05/16 16:00:31  5-MIN K0J4 052100Z AUTO 04008KT 10SM CLR 23/05 A3022 40 30 1100 040/08 RMK AO2 T02330050
63870K0J4 0J420161105160510711/05/16 16:05:31  5-MIN K0J4 052105Z AUTO 04009KT 10SM CLR 23/05 A3022 40 30 1100 040/09 RMK AO2 T02330050
63870K0J4 0J420161105161010711/05/16 16:10:31  5-MIN K0J4 052110Z AUTO 04007KT 10SM CLR 23/06 A3022 40 31 1100 040/07 RMK AO2 T02330056
63870K0J4 0J420161105161510711/05/16 16:15:31  5-MIN K0J4 052115Z AUTO 05007KT 10SM CLR 23/05 A3021 50 30 1100 050/07 RMK AO2 T02330050
63870K0J4 0J420161105162010711/05/16 16:20:31  5-MIN K0J4 052120Z AUTO 06007KT 10SM CLR 24/05 A3022 40 29 1100 060/07 RMK AO2 T02390050
63870K0J4 0J420161105162510711/05/16 16:25:31  5-MIN K0J4 052125Z AUTO 06007KT 10SM CLR 24/05 A3022 40 29 1100 060/07 RMK AO2 T02390050
63870K0J4 0J420161105163010711/05/16 16:30:31  5-MIN K0J4 052130Z AUTO 07007KT 10SM CLR 24/05 A3021 50 29 1100 070/07 RMK AO2 T02390050
63870K0J4 0J420161105163510711/05/16 16:35:31  5-MIN K0J4 052135Z AUTO 06007KT 10SM CLR 24/05 A3021 50 29 1100 060/07 RMK AO2 T02390050
63870K0J4 0J420161105164010711/05/16 16:40:31  5-MIN K0J4 052140Z AUTO 07008KT 10SM CLR 24/05 A3021 50 28 1200 070/08 RMK AO2 T02440050
63870K0J4 0J420161105164510711/05/16 16:45:31  5-MIN K0J4 052145Z AUTO 08004KT 10SM CLR 24/05 A3021 50 29 1100 080/04 RMK AO2 T02390050
63870K0J4 0J420161105165010711/05/16 16:50:31  5-MIN K0J4 052150Z AUTO 06004KT 10SM CLR 24/05 A3021 50 29 1100 060/04 RMK AO2 T02390050
63870K0J4 0J420161105165511411/05/16 16:55:31  5-MIN K0J4 052155Z AUTO 07008KT 10SM CLR 23/05 A3022 40 30 1100 070/08 RMK AO2 SLP229 T02330050
63870K0J4 0J420161105170010711/05/16 17:00:31  5-MIN K0J4 052200Z AUTO 06007KT 10SM CLR 23/05 A3022 40 30 1100 060/07 RMK AO2 T02330050
63870K0J4 0J420161105170510711/05/16 17:05:31  5-MIN K0J4 052205Z AUTO 07006KT 10SM CLR 23/05 A3022 40 30 1100 070/06 RMK AO2 T02330050
63870K0J4 0J420161105171010711/05/16 17:10:31  5-MIN K0J4 052210Z AUTO 07007KT 10SM CLR 23/04 A3022 40 29 1100 070/07 RMK AO2 T02330044
63870K0J4 0J420161105171510711/05/16 17:15:31  5-MIN K0J4 052215Z AUTO 06007KT 10SM CLR 23/05 A3022 40 31 1000 060/07 RMK AO2 T02280050
63870K0J4 0J420161105172010711/05/16 17:20:31  5-MIN K0J4 052220Z AUTO 07006KT 10SM CLR 23/05 A3022 40 31 1000 070/06 RMK AO2 T02280050
63870K0J4 0J420161105172510711/05/16 17:25:31  5-MIN K0J4 052225Z AUTO 07006KT 10SM CLR 23/05 A3022 40 31 1000 070/06 RMK AO2 T02280050
63870K0J4 0J420161105173010611/05/16 17:30:31  5-MIN K0J4 052230Z AUTO 08005KT 10SM CLR 22/05 A3022 40 32 900 080/05 RMK AO2 T02220050
63870K0J4 0J420161105173510611/05/16 17:35:31  5-MIN K0J4 052235Z AUTO 08004KT 10SM CLR 22/05 A3022 40 33 900 080/04 RMK AO2 T02170050
63870K0J4 0J420161105174010611/05/16 17:40:31  5-MIN K0J4 052240Z AUTO 09003KT 10SM CLR 22/06 A3022 40 34 900 090/03 RMK AO2 T02170056
63870K0J4 0J420161105174512211/05/16 17:45:31  5-MIN K0J4 052245Z AUTO 07003KT 10SM -RA CLR 21/06 A3022 40 36 800 070/03 RMK AO2 RAB43 P0000 T02110056
63870K0J4 0J420161105175012211/05/16 17:50:31  5-MIN K0J4 052250Z AUTO 08003KT 10SM -RA CLR 21/06 A3022 40 36 800 080/03 RMK AO2 RAB43 P0000 T02110056
63870K0J4 0J420161105175512811/05/16 17:55:31  5-MIN K0J4 052255Z AUTO 00000KT 10SM CLR 20/06 A3022 40 40 700 000/00 RMK AO2 RAB43E53 SLP232 P0000 T02000061
63870K0J4 0J420161105180010611/05/16 18:00:31  5-MIN K0J4 052300Z AUTO 00000KT 10SM CLR 20/06 A3023 40 38 700 000/00 RMK AO2 T02000056
63870K0J4 0J420161105180510611/05/16 18:05:31  5-MIN K0J4 052305Z AUTO 00000KT 10SM CLR 20/06 A3023 40 40 700 000/00 RMK AO2 T02000061
63870K0J4 0J420161105181010611/05/16 18:10:31  5-MIN K0J4 052310Z AUTO 00000KT 10SM CLR 19/06 A3023 30 41 600 000/00 RMK AO2 T01940061
63870K0J4 0J420161105181510611/05/16 18:15:31  5-MIN K0J4 052315Z AUTO 00000KT 10SM CLR 19/06 A3023 30 43 500 000/00 RMK AO2 T01890061
63870K0J4 0J420161105182010611/05/16 18:20:31  5-MIN K0J4 052320Z AUTO 00000KT 10SM CLR 18/07 A3023 30 46 500 000/00 RMK AO2 T01830067
63870K0J4 0J420161105182510611/05/16 18:25:31  5-MIN K0J4 052325Z AUTO 00000KT 10SM CLR 18/07 A3023 30 48 400 000/00 RMK AO2 T01780067
63870K0J4 0J420161105183010611/05/16 18:30:31  5-MIN K0J4 052330Z AUTO 00000KT 10SM CLR 18/07 A3023 30 48 400 000/00 RMK AO2 T01780067
63870K0J4 0J420161105183510611/05/16 18:35:31  5-MIN K0J4 052335Z AUTO 00000KT 10SM CLR 17/07 A3023 30 53 300 000/00 RMK AO2 T01670072
63870K0J4 0J420161105184010611/05/16 18:40:31  5-MIN K0J4 052340Z AUTO 00000KT 10SM CLR 16/07 A3023 30 55 200 000/00 RMK AO2 T01610072
63870K0J4 0J420161105184510611/05/16 18:45:31  5-MIN K0J4 052345Z AUTO 00000KT 10SM CLR 16/08 A3023 30 57 200 000/00 RMK AO2 T01610078
63870K0J4 0J420161105185010611/05/16 18:50:31  5-MIN K0J4 052350Z AUTO 04003KT 10SM CLR 16/07 A3024 30 55 200 040/03 RMK AO2 T01610072
63870K0J4 0J420161105185513711/05/16 18:55:31  5-MIN K0J4 052355Z AUTO 00000KT 10SM CLR 17/07 A3024 20 51 300 000/00 RMK AO2 SLP237 60000 T01670067 10250 20161 56013
63870K0J4 0J420161105190010611/05/16 19:00:31  5-MIN K0J4 060000Z AUTO 06003KT 10SM CLR 17/07 A3024 20 51 300 060/03 RMK AO2 T01670067
63870K0J4 0J420161105190510611/05/16 19:05:31  5-MIN K0J4 060005Z AUTO 06003KT 10SM CLR 17/07 A3024 20 51 300 060/03 RMK AO2 T01670067
63870K0J4 0J420161105191010611/05/16 19:10:31  5-MIN K0J4 060010Z AUTO 00000KT 10SM CLR 17/06 A3024 20 49 300 000/00 RMK AO2 T01670061
63870K0J4 0J420161105191510611/05/16 19:15:31  5-MIN K0J4 060015Z AUTO 04004KT 10SM CLR 17/06 A3024 20 49 300 040/04 RMK AO2 T01670061
63870K0J4 0J420161105192010611/05/16 19:20:31  5-MIN K0J4 060020Z AUTO 05003KT 10SM CLR 15/07 A3024 20 57 100 050/03 RMK AO2 T01500067
63870K0J4 0J420161105192510611/05/16 19:25:31  5-MIN K0J4 060025Z AUTO 06003KT 10SM CLR 16/07 A3024 20 55 100 060/03 RMK AO2 T01560067
63870K0J4 0J420161105193010611/05/16 19:30:31  5-MIN K0J4 060030Z AUTO 00000KT 10SM CLR 16/07 A3024 20 55 100 000/00 RMK AO2 T01560067
63870K0J4 0J420161105193510611/05/16 19:35:31  5-MIN K0J4 060035Z AUTO 00000KT 10SM CLR 17/06 A3025 20 49 300 000/00 RMK AO2 T01670061
63870K0J4 0J420161105194010611/05/16 19:40:31  5-MIN K0J4 060040Z AUTO 00000KT 10SM CLR 16/07 A3025 20 53 200 000/00 RMK AO2 T01610067
63870K0J4 0J420161105194510611/05/16 19:45:31  5-MIN K0J4 060045Z AUTO 04003KT 10SM CLR 16/07 A3025 10 53 200 040/03 RMK AO2 T01610067
63870K0J4 0J420161105195010611/05/16 19:50:31  5-MIN K0J4 060050Z AUTO 04003KT 10SM CLR 15/07 A3025 10 57 100 040/03 RMK AO2 T01500067
63870K0J4 0J420161105195511311/05/16 19:55:31  5-MIN K0J4 060055Z AUTO 05003KT 10SM CLR 16/07 A3025 10 55 100 050/03 RMK AO2 SLP242 T01560067
63870K0J4 0J420161105200010611/05/16 20:00:31  5-MIN K0J4 060100Z AUTO 00000KT 10SM CLR 16/07 A3025 10 55 100 000/00 RMK AO2 T01560067
63870K0J4 0J420161105200510611/05/16 20:05:31  5-MIN K0J4 060105Z AUTO 06003KT 10SM CLR 16/07 A3025 10 55 100 060/03 RMK AO2 T01560067
63870K0J4 0J420161105201010611/05/16 20:10:31  5-MIN K0J4 060110Z AUTO 06003KT 10SM CLR 16/07 A3025 10 55 100 060/03 RMK AO2 T01560067
63870K0J4 0J420161105201510611/05/16 20:15:31  5-MIN K0J4 060115Z AUTO 07004KT 10SM CLR 16/06 A3025 10 53 100 070/04 RMK AO2 T01560061
63870K0J4 0J420161105202010611/05/16 20:20:31  5-MIN K0J4 060120Z AUTO 07004KT 10SM CLR 16/06 A3026 10 53 100 070/04 RMK AO2 T01560061
63870K0J4 0J420161105202510611/05/16 20:25:31  5-MIN K0J4 060125Z AUTO 07003KT 10SM CLR 16/06 A3026 10 53 100 070/03 RMK AO2 T01560061
63870K0J4 0J420161105203010511/05/16 20:30:31  5-MIN K0J4 060130Z AUTO 08003KT 10SM CLR 16/06 A3026 0 49 200 080/03 RMK AO2 T01610056
63870K0J4 0J420161105203510511/05/16 20:35:31  5-MIN K0J4 060135Z AUTO 00000KT 10SM CLR 17/06 A3026 0 47 200 000/00 RMK AO2 T01670056
63870K0J4 0J420161105204010511/05/16 20:40:31  5-MIN K0J4 060140Z AUTO 08003KT 10SM CLR 16/06 A3026 0 53 100 080/03 RMK AO2 T01560061
63870K0J4 0J420161105204510311/05/16 20:45:31  5-MIN K0J4 060145Z AUTO 07003KT 10SM CLR 14/07 A3026 0 59 0 070/03 RMK AO2 T01440067
63870K0J4 0J420161105205010511/05/16 20:50:31  5-MIN K0J4 060150Z AUTO 00000KT 10SM CLR 16/06 A3026 0 51 100 000/00 RMK AO2 T01560056
63870K0J4 0J420161105205511211/05/16 20:55:31  5-MIN K0J4 060155Z AUTO 07003KT 10SM CLR 16/06 A3026 0 51 100 070/03 RMK AO2 SLP245 T01560056
63870K0J4 0J420161105210010511/05/16 21:00:31  5-MIN K0J4 060200Z AUTO 06003KT 10SM CLR 16/06 A3026 0 51 100 060/03 RMK AO2 T01560056
63870K0J4 0J420161105210510511/05/16 21:05:31  5-MIN K0J4 060205Z AUTO 00000KT 10SM CLR 16/06 A3027 0 51 100 000/00 RMK AO2 T01560056
63870K0J4 0J420161105211010311/05/16 21:10:31  5-MIN K0J4 060210Z AUTO 05003KT 10SM CLR 14/06 A3027 0 55 0 050/03 RMK AO2 T01440056
63870K0J4 0J420161105211510311/05/16 21:15:31  5-MIN K0J4 060215Z AUTO 00000KT 10SM CLR 14/06 A3027 0 55 0 000/00 RMK AO2 T01440056
63870K0J4 0J420161105212010511/05/16 21:20:31  5-MIN K0J4 060220Z AUTO 00000KT 10SM CLR 14/06 A3028 -10 55 0 000/00 RMK AO2 T01440056
63870K0J4 0J420161105212510511/05/16 21:25:31  5-MIN K0J4 060225Z AUTO 06003KT 10SM CLR 14/06 A3028 -10 55 0 060/03 RMK AO2 T01440056
63870K0J4 0J420161105213010811/05/16 21:30:31  5-MIN K0J4 060230Z AUTO 06003KT 10SM CLR 14/06 A3028 -10 59 -100 060/03 RMK AO2 T01390061
63870K0J4 0J420161105213510811/05/16 21:35:31  5-MIN K0J4 060235Z AUTO 07003KT 10SM CLR 14/06 A3028 -10 59 -100 070/03 RMK AO2 T01390061
63870K0J4 0J420161105214010511/05/16 21:40:31  5-MIN K0J4 060240Z AUTO 07003KT 10SM CLR 14/06 A3028 -10 55 0 070/03 RMK AO2 T01440056
63870K0J4 0J420161105214510511/05/16 21:45:31  5-MIN K0J4 060245Z AUTO 07003KT 10SM CLR 14/06 A3028 -10 55 0 070/03 RMK AO2 T01440056
63870K0J4 0J420161105215010511/05/16 21:50:31  5-MIN K0J4 060250Z AUTO 07003KT 10SM CLR 15/06 A3028 -10 53 0 070/03 RMK AO2 T01500056
63870K0J4 0J420161105215511811/05/16 21:55:31  5-MIN K0J4 060255Z AUTO 07003KT 10SM CLR 15/06 A3028 -10 53 0 070/03 RMK AO2 SLP250 T01500056 53008
63870K0J4 0J420161105220010511/05/16 22:00:31  5-MIN K0J4 060300Z AUTO 08003KT 10SM CLR 14/06 A3028 -10 55 0 080/03 RMK AO2 T01440056
63870K0J4 0J420161105220510711/05/16 22:05:31  5-MIN K0J4 060305Z AUTO 00000KT 10SM CLR 16/05 A3028 -10 49 100 000/00 RMK AO2 T01560050
63870K0J4 0J420161105221010511/05/16 22:10:31  5-MIN K0J4 060310Z AUTO 00000KT 10SM CLR 15/05 A3028 -10 51 0 000/00 RMK AO2 T01500050
63870K0J4 0J420161105221510811/05/16 22:15:31  5-MIN K0J4 060315Z AUTO 00000KT 10SM CLR 14/06 A3028 -10 57 -100 000/00 RMK AO2 T01390056
63870K0J4 0J420161105222010811/05/16 22:20:31  5-MIN K0J4 060320Z AUTO 00000KT 10SM CLR 12/07 A3028 -10 68 -300 000/00 RMK AO2 T01220067
63870K0J4 0J420161105222510811/05/16 22:25:31  5-MIN K0J4 060325Z AUTO 00000KT 10SM CLR 12/07 A3028 -10 74 -300 000/00 RMK AO2 T01170072
63870K0J4 0J420161105223010611/05/16 22:30:31  5-MIN K0J4 060330Z AUTO 00000KT 10SM CLR 12/07 A3027 0 68 -300 000/00 RMK AO2 T01220067
63870K0J4 0J420161105223510611/05/16 22:35:31  5-MIN K0J4 060335Z AUTO 00000KT 10SM CLR 12/06 A3027 0 66 -300 000/00 RMK AO2 T01220061
63870K0J4 0J420161105224010611/05/16 22:40:31  5-MIN K0J4 060340Z AUTO 00000KT 10SM CLR 12/06 A3027 0 66 -300 000/00 RMK AO2 T01220061
63870K0J4 0J420161105224510611/05/16 22:45:31  5-MIN K0J4 060345Z AUTO 00000KT 10SM CLR 13/06 A3027 0 61 -100 000/00 RMK AO2 T01330061
63870K0J4 0J420161105225010611/05/16 22:50:31  5-MIN K0J4 060350Z AUTO 00000KT 10SM CLR 13/06 A3027 0 61 -100 000/00 RMK AO2 T01330061
63870K0J4 0J420161105225511311/05/16 22:55:31  5-MIN K0J4 060355Z AUTO 00000KT 10SM CLR 13/06 A3027 0 63 -200 000/00 RMK AO2 SLP249 T01280061
63870K0J4 0J420161105230010611/05/16 23:00:31  5-MIN K0J4 060400Z AUTO 00000KT 10SM CLR 13/06 A3027 0 63 -200 000/00 RMK AO2 T01280061
63870K0J4 0J420161105230510611/05/16 23:05:31  5-MIN K0J4 060405Z AUTO 00000KT 10SM CLR 12/07 A3027 0 68 -200 000/00 RMK AO2 T01220067
63870K0J4 0J420161105231010611/05/16 23:10:31  5-MIN K0J4 060410Z AUTO 07003KT 10SM CLR 12/07 A3027 0 68 -300 070/03 RMK AO2 T01220067
63870K0J4 0J420161105231510611/05/16 23:15:31  5-MIN K0J4 060415Z AUTO 00000KT 10SM CLR 12/06 A3027 0 66 -300 000/00 RMK AO2 T01220061
63870K0J4 0J420161105232010611/05/16 23:20:31  5-MIN K0J4 060420Z AUTO 06004KT 10SM CLR 13/06 A3027 0 63 -200 060/04 RMK AO2 T01280061
63870K0J4 0J420161105232510611/05/16 23:25:31  5-MIN K0J4 060425Z AUTO 05003KT 10SM CLR 13/06 A3027 0 59 -100 050/03 RMK AO2 T01330056
63870K0J4 0J420161105233010611/05/16 23:30:31  5-MIN K0J4 060430Z AUTO 06003KT 10SM CLR 13/06 A3027 0 59 -100 060/03 RMK AO2 T01330056
63870K0J4 0J420161105233510611/05/16 23:35:31  5-MIN K0J4 060435Z AUTO 06003KT 10SM CLR 13/05 A3027 0 57 -100 060/03 RMK AO2 T01330050
63870K0J4 0J420161105234010611/05/16 23:40:31  5-MIN K0J4 060440Z AUTO 07003KT 10SM CLR 14/06 A3027 0 57 -100 070/03 RMK AO2 T01390056
63870K0J4 0J420161105234510611/05/16 23:45:31  5-MIN K0J4 060445Z AUTO 08003KT 10SM CLR 14/06 A3027 0 57 -100 080/03 RMK AO2 T01390056
63870K0J4 0J420161105235010611/05/16 23:50:31  5-MIN K0J4 060450Z AUTO 08003KT 10SM CLR 14/06 A3027 0 57 -100 080/03 RMK AO2 T01390056
63870K0J4 0J420161105235512311/05/16 23:55:31  5-MIN K0J4 060455Z AUTO 08004KT 10SM CLR 13/06 A3027 0 59 -100 080/04 RMK AO2 SLP248 T01330056 402500117
63870K0J4 0J420161106000010611/06/16 00:00:31  5-MIN K0J4 060500Z AUTO 08004KT 10SM CLR 13/06 A3027 0 59 -100 080/04 RMK AO2 T01330056
63870K0J4 0J420161106000510611/06/16 00:05:31  5-MIN K0J4 060505Z AUTO 08004KT 10SM CLR 13/06 A3027 0 59 -100 080/04 RMK AO2 T01330056
63870K0J4 0J420161106001010611/06/16 00:10:31  5-MIN K0J4 060510Z AUTO 08003KT 10SM CLR 13/06 A3027 0 59 -100 080/03 RMK AO2 T01330056
63870K0J4 0J420161106001510311/06/16 00:15:31  5-MIN K0J4 060515Z AUTO 08003KT 10SM CLR 14/06 A3027 0 57 0 080/03 RMK AO2 T01390056
63870K0J4 0J420161106002010311/06/16 00:20:31  5-MIN K0J4 060520Z AUTO 07003KT 10SM CLR 14/05 A3027 0 55 0 070/03 RMK AO2 T01390050
63870K0J4 0J420161106002510311/06/16 00:25:31  5-MIN K0J4 060525Z AUTO 08003KT 10SM CLR 14/05 A3027 0 55 0 080/03 RMK AO2 T01390050
63870K0J4 0J420161106003010311/06/16 00:30:31  5-MIN K0J4 060530Z AUTO 07003KT 10SM CLR 14/06 A3027 0 57 0 070/03 RMK AO2 T01390056
63870K0J4 0J420161106003510611/06/16 00:35:31  5-MIN K0J4 060535Z AUTO 08003KT 10SM CLR 13/06 A3027 0 59 -100 080/03 RMK AO2 T01330056
63870K0J4 0J420161106004010311/06/16 00:40:31  5-MIN K0J4 060540Z AUTO 00000KT 10SM CLR 14/05 A3027 0 55 0 000/00 RMK AO2 T01390050
63870K0J4 0J420161106004510611/06/16 00:45:31  5-MIN K0J4 060545Z AUTO 08003KT 10SM CLR 13/05 A3027 0 57 -100 080/03 RMK AO2 T01330050
63870K0J4 0J420161106005010611/06/16 00:50:31  5-MIN K0J4 060550Z AUTO 08004KT 10SM CLR 13/06 A3027 0 59 -100 080/04 RMK AO2 T01330056
63870K0J4 0J420161106005513111/06/16 00:55:31  5-MIN K0J4 060555Z AUTO 07004KT 10SM CLR 13/06 A3027 0 61 -200 070/04 RMK AO2 SLP247 T01280056 10172 20117 51013
63870K0J4 0J420161106010010611/06/16 01:00:31  5-MIN K0J4 060600Z AUTO 07003KT 10SM CLR 13/06 A3027 0 59 -100 070/03 RMK AO2 T01330056
63870K0J4 0J420161106010510611/06/16 01:05:31  5-MIN K0J4 060605Z AUTO 07003KT 10SM CLR 13/05 A3027 0 57 -100 070/03 RMK AO2 T01330050
63870K0J4 0J420161106011010611/06/16 01:10:31  5-MIN K0J4 060610Z AUTO 07003KT 10SM CLR 13/05 A3027 0 57 -100 070/03 RMK AO2 T01330050
63870K0J4 0J420161106011510611/06/16 01:15:31  5-MIN K0J4 060615Z AUTO 07004KT 10SM CLR 13/05 A3026 0 59 -200 070/04 RMK AO2 T01280050
63870K0J4 0J420161106012010611/06/16 01:20:31  5-MIN K0J4 060620Z AUTO 07004KT 10SM CLR 12/06 A3026 0 63 -200 070/04 RMK AO2 T01220056
63870K0J4 0J420161106012510611/06/16 01:25:31  5-MIN K0J4 060625Z AUTO 06004KT 10SM CLR 12/06 A3026 0 63 -200 060/04 RMK AO2 T01220056
63870K0J4 0J420161106013010611/06/16 01:30:31  5-MIN K0J4 060630Z AUTO 06003KT 10SM CLR 12/05 A3026 0 61 -200 060/03 RMK AO2 T01220050
63870K0J4 0J420161106013510611/06/16 01:35:31  5-MIN K0J4 060635Z AUTO 06003KT 10SM CLR 13/05 A3026 0 59 -200 060/03 RMK AO2 T01280050
63870K0J4 0J420161106014010611/06/16 01:40:31  5-MIN K0J4 060640Z AUTO 00000KT 10SM CLR 13/05 A3026 0 59 -200 000/00 RMK AO2 T01280050
63870K0J4 0J420161106014510611/06/16 01:45:31  5-MIN K0J4 060645Z AUTO 00000KT 10SM CLR 13/05 A3026 0 57 -100 000/00 RMK AO2 T01330050
63870K0J4 0J420161106015010611/06/16 01:50:31  5-MIN K0J4 060650Z AUTO 00000KT 10SM CLR 12/05 A3026 0 63 -300 000/00 RMK AO2 T01170050
63870K0J4 0J420161106015511311/06/16 01:55:31  5-MIN K0J4 060655Z AUTO 00000KT 10SM CLR 10/06 A3026 0 77 -500 000/00 RMK AO2 SLP244 T01000061
63870K0J4 0J420161106020010711/06/16 02:00:31  5-MIN K0J4 060700Z AUTO 07003KT 10SM CLR 11/06 A3026 10 74 -400 070/03 RMK AO2 T01060061
63870K0J4 0J420161106020510711/06/16 02:05:31  5-MIN K0J4 060705Z AUTO 07003KT 10SM CLR 11/06 A3025 10 71 -400 070/03 RMK AO2 T01060056
63870K0J4 0J420161106021010711/06/16 02:10:31  5-MIN K0J4 060710Z AUTO 00000KT 10SM CLR 11/06 A3026 10 68 -400 000/00 RMK AO2 T01110056
63870K0J4 0J420161106021510611/06/16 02:15:31  5-MIN K0J4 060715Z AUTO 00000KT 10SM CLR 12/05 A3026 0 63 -300 000/00 RMK AO2 T01170050
63870K0J4 0J420161106022010711/06/16 02:20:31  5-MIN K0J4 060720Z AUTO 00000KT 10SM CLR 10/06 A3026 10 74 -500 000/00 RMK AO2 T01000056
63870K0J4 0J420161106022510711/06/16 02:25:31  5-MIN K0J4 060725Z AUTO 06003KT 10SM CLR 11/06 A3026 10 71 -400 060/03 RMK AO2 T01060056
63870K0J4 0J420161106023010711/06/16 02:30:31  5-MIN K0J4 060730Z AUTO 05003KT 10SM CLR 11/06 A3026 10 71 -400 050/03 RMK AO2 T01060056
63870K0J4 0J420161106023510711/06/16 02:35:31  5-MIN K0J4 060735Z AUTO 04003KT 10SM CLR 12/05 A3026 10 63 -300 040/03 RMK AO2 T01170050
63870K0J4 0J420161106024010711/06/16 02:40:31  5-MIN K0J4 060740Z AUTO 04003KT 10SM CLR 12/05 A3026 10 61 -200 040/03 RMK AO2 T01220050
63870K0J4 0J420161106024510611/06/16 02:45:31  5-MIN K0J4 060745Z AUTO 00000KT 10SM CLR 12/05 A3026 0 61 -200 000/00 RMK AO2 T01220050
63870K0J4 0J420161106025010611/06/16 02:50:31  5-MIN K0J4 060750Z AUTO 00000KT 10SM CLR 11/06 A3026 0 68 -400 000/00 RMK AO2 T01110056
63870K0J4 0J420161106025511311/06/16 02:55:31  5-MIN K0J4 060755Z AUTO 00000KT 10SM CLR 09/06 A3026 0 76 -600 000/00 RMK AO2 SLP245 T00940056
63870K0J4 0J420161106030010611/06/16 03:00:31  5-MIN K0J4 060800Z AUTO 00000KT 10SM CLR 10/06 A3027 0 77 -500 000/00 RMK AO2 T01000061
63870K0J4 0J420161106030510611/06/16 03:05:31  5-MIN K0J4 060805Z AUTO 00000KT 10SM CLR 09/06 A3027 0 83 -600 000/00 RMK AO2 T00890061
63870K0J4 0J420161106031010611/06/16 03:10:31  5-MIN K0J4 060810Z AUTO 00000KT 10SM CLR 09/06 A3026 0 79 -600 000/00 RMK AO2 T00890056
63870K0J4 0J420161106031510611/06/16 03:15:31  5-MIN K0J4 060815Z AUTO 00000KT 10SM CLR 09/06 A3026 0 79 -600 000/00 RMK AO2 T00890056
63870K0J4 0J420161106032010711/06/16 03:20:31  5-MIN K0J4 060820Z AUTO 05004KT 10SM CLR 08/06 A3026 10 82 -700 050/04 RMK AO2 T00830056
63870K0J4 0J420161106032510611/06/16 03:25:31  5-MIN K0J4 060825Z AUTO 04004KT 10SM CLR 09/06 A3026 0 76 -600 040/04 RMK AO2 T00940056
63870K0J4 0J420161106033010611/06/16 03:30:31  5-MIN K0J4 060830Z AUTO 03003KT 10SM CLR 11/05 A3026 0 66 -400 030/03 RMK AO2 T01110050
63870K0J4 0J420161106033510611/06/16 03:35:31  5-MIN K0J4 060835Z AUTO 01003KT 10SM CLR 12/05 A3027 0 63 -300 010/03 RMK AO2 T01170050
63870K0J4 0J420161106034010611/06/16 03:40:31  5-MIN K0J4 060840Z AUTO 00000KT 10SM CLR 12/05 A3027 0 63 -300 000/00 RMK AO2 T01170050
63870K0J4 0J420161106034510611/06/16 03:45:31  5-MIN K0J4 060845Z AUTO 00000KT 10SM CLR 10/05 A3027 0 71 -500 000/00 RMK AO2 T01000050
63870K0J4 0J420161106035010611/06/16 03:50:31  5-MIN K0J4 060850Z AUTO 00000KT 10SM CLR 09/05 A3026 0 76 -600 000/00 RMK AO2 T00890050
63870K0J4 0J420161106035511911/06/16 03:55:31  5-MIN K0J4 060855Z AUTO 36003KT 10SM CLR 08/05 A3027 0 79 -700 360/03 RMK AO2 SLP246 T00830050 56003
63870K0J4 0J420161106040010611/06/16 04:00:31  5-MIN K0J4 060900Z AUTO 00000KT 10SM CLR 08/05 A3027 0 79 -700 000/00 RMK AO2 T00830050
63870K0J4 0J420161106040510611/06/16 04:05:31  5-MIN K0J4 060905Z AUTO 00000KT 10SM CLR 09/06 A3027 0 79 -700 000/00 RMK AO2 T00890056
63870K0J4 0J420161106041010611/06/16 04:10:31  5-MIN K0J4 060910Z AUTO 00000KT 10SM CLR 08/06 A3027 0 82 -700 000/00 RMK AO2 T00830056
63870K0J4 0J420161106041510611/06/16 04:15:31  5-MIN K0J4 060915Z AUTO 00000KT 10SM CLR 08/06 A3027 0 86 -800 000/00 RMK AO2 T00780056
63870K0J4 0J420161106042010611/06/16 04:20:31  5-MIN K0J4 060920Z AUTO 00000KT 10SM CLR 08/06 A3027 0 82 -700 000/00 RMK AO2 T00830056
63870K0J4 0J420161106042510811/06/16 04:25:31  5-MIN K0J4 060925Z AUTO 00000KT 10SM CLR 08/05 A3028 -10 82 -800 000/00 RMK AO2 T00780050
63870K0J4 0J420161106043010811/06/16 04:30:31  5-MIN K0J4 060930Z AUTO 00000KT 10SM CLR 08/06 A3028 -10 82 -700 000/00 RMK AO2 T00830056
63870K0J4 0J420161106043510811/06/16 04:35:31  5-MIN K0J4 060935Z AUTO 00000KT 10SM CLR 08/05 A3028 -10 82 -800 000/00 RMK AO2 T00780050
63870K0J4 0J420161106044010611/06/16 04:40:31  5-MIN K0J4 060940Z AUTO 00000KT 10SM CLR 08/05 A3027 0 82 -800 000/00 RMK AO2 T00780050
63870K0J4 0J420161106044510611/06/16 04:45:31  5-MIN K0J4 060945Z AUTO 00000KT 10SM CLR 08/05 A3027 0 82 -800 000/00 RMK AO2 T00780050
63870K0J4 0J420161106045010811/06/16 04:50:31  5-MIN K0J4 060950Z AUTO 00000KT 10SM CLR 08/06 A3028 -10 82 -700 000/00 RMK AO2 T00830056
63870K0J4 0J420161106045511511/06/16 04:55:31  5-MIN K0J4 060955Z AUTO 00000KT 10SM CLR 08/06 A3028 -10 86 -800 000/00 RMK AO2 SLP250 T00780056
63870K0J4 0J420161106050010611/06/16 05:00:31  5-MIN K0J4 061000Z AUTO 00000KT 10SM CLR 08/06 A3027 0 82 -700 000/00 RMK AO2 T00830056
63870K0J4 0J420161106050510611/06/16 05:05:31  5-MIN K0J4 061005Z AUTO 00000KT 10SM CLR 08/06 A3027 0 82 -700 000/00 RMK AO2 T00830056
63870K0J4 0J420161106051010811/06/16 05:10:31  5-MIN K0J4 061010Z AUTO 00000KT 10SM CLR 08/06 A3028 -10 82 -700 000/00 RMK AO2 T00830056
63870K0J4 0J420161106051510811/06/16 05:15:31  5-MIN K0J4 061015Z AUTO 08003KT 10SM CLR 09/06 A3028 -10 79 -700 080/03 RMK AO2 T00890056
63870K0J4 0J420161106052010811/06/16 05:20:31  5-MIN K0J4 061020Z AUTO 00000KT 10SM CLR 08/06 A3028 -10 82 -700 000/00 RMK AO2 T00830056
63870K0J4 0J420161106052510611/06/16 05:25:31  5-MIN K0J4 061025Z AUTO 08003KT 10SM CLR 09/06 A3027 0 76 -600 080/03 RMK AO2 T00940056
63870K0J4 0J420161106053010811/06/16 05:30:31  5-MIN K0J4 061030Z AUTO 09003KT 10SM CLR 10/05 A3028 -10 71 -500 090/03 RMK AO2 T01000050
63870K0J4 0J420161106053510811/06/16 05:35:31  5-MIN K0J4 061035Z AUTO 09004KT 10SM CLR 10/05 A3028 -10 71 -500 090/04 RMK AO2 T01000050
63870K0J4 0J420161106054010811/06/16 05:40:31  5-MIN K0J4 061040Z AUTO 09003KT 10SM CLR 11/05 A3028 -10 68 -500 090/03 RMK AO2 T01060050
63870K0J4 0J420161106054510811/06/16 05:45:31  5-MIN K0J4 061045Z AUTO 08003KT 10SM CLR 11/04 A3028 -10 66 -500 080/03 RMK AO2 T01060044
63870K0J4 0J420161106055010811/06/16 05:50:31  5-MIN K0J4 061050Z AUTO 08004KT 10SM CLR 10/05 A3028 -10 71 -500 080/04 RMK AO2 T01000050
63870K0J4 0J420161106055511511/06/16 05:55:31  5-MIN K0J4 061055Z AUTO 08004KT 10SM CLR 10/04 A3028 -10 68 -500 080/04 RMK AO2 SLP251 T01000044
63870K0J4 0J420161106060010811/06/16 06:00:31  5-MIN K0J4 061100Z AUTO 07003KT 10SM CLR 10/04 A3028 -10 68 -500 070/03 RMK AO2 T01000044
63870K0J4 0J420161106060510811/06/16 06:05:31  5-MIN K0J4 061105Z AUTO 00000KT 10SM CLR 10/04 A3029 -10 68 -500 000/00 RMK AO2 T01000044
63870K0J4 0J420161106061010811/06/16 06:10:31  5-MIN K0J4 061110Z AUTO 03003KT 10SM CLR 10/04 A3029 -20 68 -500 030/03 RMK AO2 T01000044
63870K0J4 0J420161106061510811/06/16 06:15:31  5-MIN K0J4 061115Z AUTO 00000KT 10SM CLR 09/04 A3029 -20 71 -600 000/00 RMK AO2 T00940044
63870K0J4 0J420161106062010811/06/16 06:20:31  5-MIN K0J4 061120Z AUTO 00000KT 10SM CLR 08/05 A3029 -20 79 -700 000/00 RMK AO2 T00830050
63870K0J4 0J420161106062510811/06/16 06:25:31  5-MIN K0J4 061125Z AUTO 00000KT 10SM CLR 08/04 A3029 -20 79 -800 000/00 RMK AO2 T00780044
63870K0J4 0J420161106063010811/06/16 06:30:31  5-MIN K0J4 061130Z AUTO 08003KT 10SM CLR 08/04 A3030 -30 79 -800 080/03 RMK AO2 T00780044
63870K0J4 0J420161106063510811/06/16 06:35:31  5-MIN K0J4 061135Z AUTO 00000KT 10SM CLR 09/05 A3030 -30 76 -700 000/00 RMK AO2 T00890050
63870K0J4 0J420161106064010811/06/16 06:40:31  5-MIN K0J4 061140Z AUTO 00000KT 10SM CLR 09/04 A3030 -30 73 -700 000/00 RMK AO2 T00890044
63870K0J4 0J420161106064510811/06/16 06:45:31  5-MIN K0J4 061145Z AUTO 05003KT 10SM CLR 08/04 A3030 -30 76 -800 050/03 RMK AO2 T00830044
63870K0J4 0J420161106065010811/06/16 06:50:31  5-MIN K0J4 061150Z AUTO 03003KT 10SM CLR 09/04 A3030 -30 73 -700 030/03 RMK AO2 T00890044
63870K0J4 0J420161106065513311/06/16 06:55:31  5-MIN K0J4 061155Z AUTO 00000KT 10SM CLR 09/04 A3030 -30 71 -600 000/00 RMK AO2 SLP261 T00940044 10133 20078 55000
63870K0J4 0J420161106070010811/06/16 07:00:31  5-MIN K0J4 061200Z AUTO 00000KT 10SM CLR 09/04 A3030 -30 73 -700 000/00 RMK AO2 T00890044
63870K0J4 0J420161106070510811/06/16 07:05:31  5-MIN K0J4 061205Z AUTO 03003KT 10SM CLR 08/04 A3030 -30 79 -800 030/03 RMK AO2 T00780044
63870K0J4 0J420161106071010911/06/16 07:10:31  5-MIN K0J4 061210Z AUTO 04003KT 10SM CLR 07/04 A3030 -30 82 -1000 040/03 RMK AO2 T00670039
63870K0J4 0J420161106071510911/06/16 07:15:31  5-MIN K0J4 061215Z AUTO 00000KT 10SM CLR 06/04 A3030 -30 86 -1000 000/00 RMK AO2 T00610039
63870K0J4 0J420161106072010811/06/16 07:20:31  5-MIN K0J4 061220Z AUTO 00000KT 10SM CLR 07/04 A3030 -30 82 -900 000/00 RMK AO2 T00720044
63870K0J4 0J420161106072510811/06/16 07:25:31  5-MIN K0J4 061225Z AUTO 00000KT 10SM CLR 08/04 A3031 -30 76 -800 000/00 RMK AO2 T00830044
63870K0J4 0J420161106073010811/06/16 07:30:31  5-MIN K0J4 061230Z AUTO 04003KT 10SM CLR 09/04 A3031 -30 73 -700 040/03 RMK AO2 T00890044
63870K0J4 0J420161106073510811/06/16 07:35:31  5-MIN K0J4 061235Z AUTO 00000KT 10SM CLR 09/04 A3031 -30 73 -700 000/00 RMK AO2 T00890044
63870K0J4 0J420161106074010811/06/16 07:40:31  5-MIN K0J4 061240Z AUTO 00000KT 10SM CLR 08/04 A3031 -30 79 -800 000/00 RMK AO2 T00780044
63870K0J4 0J420161106074510811/06/16 07:45:31  5-MIN K0J4 061245Z AUTO 06003KT 10SM CLR 08/05 A3031 -40 79 -800 060/03 RMK AO2 T00830050
63870K0J4 0J420161106075010811/06/16 07:50:31  5-MIN K0J4 061250Z AUTO 06003KT 10SM CLR 08/04 A3031 -40 76 -800 060/03 RMK AO2 T00830044
63870K0J4 0J420161106075511511/06/16 07:55:31  5-MIN K0J4 061255Z AUTO 00000KT 10SM CLR 09/04 A3031 -40 73 -700 000/00 RMK AO2 SLP262 T00890044
63870K0J4 0J420161106080010811/06/16 08:00:31  5-MIN K0J4 061300Z AUTO 05003KT 10SM CLR 09/04 A3031 -40 71 -600 050/03 RMK AO2 T00940044
63870K0J4 0J420161106080510811/06/16 08:05:31  5-MIN K0J4 061305Z AUTO 07004KT 10SM CLR 09/05 A3031 -40 74 -600 070/04 RMK AO2 T00940050
63870K0J4 0J420161106081010811/06/16 08:10:31  5-MIN K0J4 061310Z AUTO 06004KT 10SM CLR 09/05 A3031 -40 74 -600 060/04 RMK AO2 T00940050
63870K0J4 0J420161106081510811/06/16 08:15:31  5-MIN K0J4 061315Z AUTO 06003KT 10SM CLR 10/05 A3031 -40 71 -600 060/03 RMK AO2 T01000050
63870K0J4 0J420161106082010811/06/16 08:20:31  5-MIN K0J4 061320Z AUTO 00000KT 10SM CLR 10/05 A3031 -40 71 -600 000/00 RMK AO2 T01000050
63870K0J4 0J420161106082510811/06/16 08:25:31  5-MIN K0J4 061325Z AUTO 07003KT 10SM CLR 10/06 A3031 -40 74 -600 070/03 RMK AO2 T01000056
63870K0J4 0J420161106083010811/06/16 08:30:31  5-MIN K0J4 061330Z AUTO 07004KT 10SM CLR 10/06 A3031 -40 74 -600 070/04 RMK AO2 T01000056
63870K0J4 0J420161106083510811/06/16 08:35:31  5-MIN K0J4 061335Z AUTO 07004KT 10SM CLR 10/06 A3031 -40 74 -600 070/04 RMK AO2 T01000056
63870K0J4 0J420161106084010811/06/16 08:40:31  5-MIN K0J4 061340Z AUTO 07004KT 10SM CLR 10/05 A3031 -40 71 -600 070/04 RMK AO2 T01000050
63870K0J4 0J420161106084510811/06/16 08:45:31  5-MIN K0J4 061345Z AUTO 08003KT 10SM CLR 10/05 A3031 -40 71 -600 080/03 RMK AO2 T01000050
63870K0J4 0J420161106085010811/06/16 08:50:31  5-MIN K0J4 061350Z AUTO 07004KT 10SM CLR 10/06 A3032 -40 74 -600 070/04 RMK AO2 T01000056
63870K0J4 0J420161106085511511/06/16 08:55:31  5-MIN K0J4 061355Z AUTO 07004KT 10SM CLR 10/06 A3031 -40 74 -600 070/04 RMK AO2 SLP264 T01000056
63870K0J4 0J420161106090010811/06/16 09:00:31  5-MIN K0J4 061400Z AUTO 06004KT 10SM CLR 11/06 A3031 -40 71 -500 060/04 RMK AO2 T01060056
63870K0J4 0J420161106090510811/06/16 09:05:31  5-MIN K0J4 061405Z AUTO 07005KT 10SM CLR 12/06 A3031 -40 68 -400 070/05 RMK AO2 T01170061
63870K0J4 0J420161106091010811/06/16 09:10:31  5-MIN K0J4 061410Z AUTO 07006KT 10SM CLR 12/06 A3031 -40 66 -300 070/06 RMK AO2 T01220061
63870K0J4 0J420161106091510811/06/16 09:15:31  5-MIN K0J4 061415Z AUTO 08006KT 10SM CLR 13/06 A3031 -40 61 -200 080/06 RMK AO2 T01330061
63870K0J4 0J420161106092010811/06/16 09:20:31  5-MIN K0J4 061420Z AUTO 08007KT 10SM CLR 14/06 A3032 -40 57 -100 080/07 RMK AO2 T01390056
63870K0J4 0J420161106092510811/06/16 09:25:31  5-MIN K0J4 061425Z AUTO 08007KT 10SM CLR 13/05 A3032 -50 57 -200 080/07 RMK AO2 T01330050
63870K0J4 0J420161106093010811/06/16 09:30:31  5-MIN K0J4 061430Z AUTO 07006KT 10SM CLR 14/06 A3032 -50 57 -100 070/06 RMK AO2 T01390056
63870K0J4 0J420161106093510511/06/16 09:35:31  5-MIN K0J4 061435Z AUTO 09006KT 10SM CLR 14/06 A3032 -50 55 0 090/06 RMK AO2 T01440056
63870K0J4 0J420161106094010511/06/16 09:40:31  5-MIN K0J4 061440Z AUTO 07005KT 10SM CLR 15/06 A3032 -50 53 0 070/05 RMK AO2 T01500056
63870K0J4 0J420161106094510511/06/16 09:45:31  5-MIN K0J4 061445Z AUTO 07006KT 10SM CLR 16/06 A3032 -50 53 0 070/06 RMK AO2 T01560061
63870K0J4 0J420161106095010711/06/16 09:50:31  5-MIN K0J4 061450Z AUTO 07006KT 10SM CLR 16/06 A3032 -40 51 100 070/06 RMK AO2 T01610061
63870K0J4 0J420161106095512011/06/16 09:55:31  5-MIN K0J4 061455Z AUTO 08007KT 10SM CLR 16/06 A3032 -40 51 100 080/07 RMK AO2 SLP264 T01610061 53013
63870K0J4 0J420161106100010711/06/16 10:00:31  5-MIN K0J4 061500Z AUTO 06005KT 10SM CLR 17/06 A3032 -50 49 200 060/05 RMK AO2 T01670061
63870K0J4 0J420161106100510711/06/16 10:05:31  5-MIN K0J4 061505Z AUTO 08008KT 10SM CLR 17/06 A3032 -50 46 200 080/08 RMK AO2 T01720056
63870K0J4 0J420161106101010711/06/16 10:10:31  5-MIN K0J4 061510Z AUTO 10007KT 10SM CLR 17/06 A3032 -50 46 200 100/07 RMK AO2 T01720056
63870K0J4 0J420161106101510711/06/16 10:15:31  5-MIN K0J4 061515Z AUTO 07007KT 10SM CLR 18/06 A3032 -40 44 300 070/07 RMK AO2 T01780056
63870K0J4 0J420161106102010711/06/16 10:20:31  5-MIN K0J4 061520Z AUTO 07009KT 10SM CLR 18/06 A3032 -40 44 300 070/09 RMK AO2 T01780056
63870K0J4 0J420161106102510711/06/16 10:25:31  5-MIN K0J4 061525Z AUTO 08008KT 10SM CLR 18/05 A3032 -50 41 400 080/08 RMK AO2 T01830050
63870K0J4 0J420161106103010711/06/16 10:30:31  5-MIN K0J4 061530Z AUTO 10007KT 10SM CLR 18/05 A3032 -50 41 400 100/07 RMK AO2 T01830050
63870K0J4 0J420161106103510711/06/16 10:35:31  5-MIN K0J4 061535Z AUTO VRB06KT 10SM CLR 18/05 A3032 -40 41 400 VRB/06 RMK AO2 T01830050
63870K0J4 0J420161106104010711/06/16 10:40:31  5-MIN K0J4 061540Z AUTO 09006KT 10SM CLR 19/05 A3031 -40 39 400 090/06 RMK AO2 T01890050
63870K0J4 0J420161106104510711/06/16 10:45:31  5-MIN K0J4 061545Z AUTO 09009KT 10SM CLR 19/04 A3031 -40 38 400 090/09 RMK AO2 T01890044
63870K0J4 0J420161106105010711/06/16 10:50:31  5-MIN K0J4 061550Z AUTO 11008KT 10SM CLR 19/04 A3031 -40 38 400 110/08 RMK AO2 T01890044
63870K0J4 0J420161106105511411/06/16 10:55:31  5-MIN K0J4 061555Z AUTO 06011KT 10SM CLR 19/04 A3031 -30 38 400 060/11 RMK AO2 SLP260 T01890044
63870K0J4 0J420161106110010711/06/16 11:00:31  5-MIN K0J4 061600Z AUTO 07008KT 10SM CLR 19/05 A3031 -30 39 400 070/08 RMK AO2 T01890050
63870K0J4 0J420161106110510711/06/16 11:05:31  5-MIN K0J4 061605Z AUTO 10009KT 10SM CLR 19/05 A3030 -30 38 500 100/09 RMK AO2 T01940050
63870K0J4 0J420161106111010711/06/16 11:10:31  5-MIN K0J4 061610Z AUTO 09008KT 10SM CLR 20/05 A3030 -30 37 600 090/08 RMK AO2 T02000050
63870K0J4 0J420161106111510711/06/16 11:15:31  5-MIN K0J4 061615Z AUTO 08008KT 10SM CLR 20/04 A3030 -30 35 600 080/08 RMK AO2 T02000044
63870K0J4 0J420161106112010711/06/16 11:20:31  5-MIN K0J4 061620Z AUTO 07009KT 10SM CLR 20/04 A3029 -20 35 600 070/09 RMK AO2 T02000044
63870K0J4 0J420161106112510711/06/16 11:25:31  5-MIN K0J4 061625Z AUTO 08009KT 10SM CLR 20/04 A3029 -20 35 600 080/09 RMK AO2 T02000044
63870K0J4 0J420161106113010711/06/16 11:30:31  5-MIN K0J4 061630Z AUTO 05008KT 10SM CLR 21/04 A3029 -20 34 700 050/08 RMK AO2 T02060044
63870K0J4 0J420161106113510711/06/16 11:35:31  5-MIN K0J4 061635Z AUTO 07008KT 10SM CLR 21/05 A3029 -20 34 700 070/08 RMK AO2 T02110050
63870K0J4 0J420161106114010711/06/16 11:40:31  5-MIN K0J4 061640Z AUTO 05010KT 10SM CLR 21/04 A3028 -10 34 700 050/10 RMK AO2 T02060044
63870K0J4 0J420161106114510711/06/16 11:45:31  5-MIN K0J4 061645Z AUTO 06007KT 10SM CLR 21/04 A3028 -10 34 700 060/07 RMK AO2 T02060044
63870K0J4 0J420161106115012311/06/16 11:50:31  5-MIN K0J4 061650Z AUTO 11008KT 070V140 10SM CLR 21/04 A3028 -10 34 700 110/08 070V140 RMK AO2 T02060044
63870K0J4 0J420161106115511411/06/16 11:55:31  5-MIN K0J4 061655Z AUTO 12007KT 10SM CLR 21/03 A3028 -10 32 700 120/07 RMK AO2 SLP250 T02060033
63870K0J4 0J420161106120010511/06/16 12:00:31  5-MIN K0J4 061700Z AUTO 15006KT 10SM CLR 21/03 A3027 0 32 700 150/06 RMK AO2 T02060033
63870K0J4 0J420161106120510711/06/16 12:05:31  5-MIN K0J4 061705Z AUTO VRB06KT 10SM CLR 21/03 A3027 -10 32 700 VRB/06 RMK AO2 T02060033
63870K0J4 0J420161106121010511/06/16 12:10:31  5-MIN K0J4 061710Z AUTO 12004KT 10SM CLR 20/03 A3027 0 33 600 120/04 RMK AO2 T02000033
63870K0J4 0J420161106121510511/06/16 12:15:31  5-MIN K0J4 061715Z AUTO 10003KT 10SM CLR 21/04 A3027 0 33 700 100/03 RMK AO2 T02060039
63870K0J4 0J420161106122010511/06/16 12:20:31  5-MIN K0J4 061720Z AUTO VRB04KT 10SM CLR 21/03 A3027 0 30 700 VRB/04 RMK AO2 T02060028
63870K0J4 0J420161106122510511/06/16 12:25:31  5-MIN K0J4 061725Z AUTO 14004KT 10SM CLR 20/03 A3027 0 33 600 140/04 RMK AO2 T02000033
63870K0J4 0J420161106123010511/06/16 12:30:31  5-MIN K0J4 061730Z AUTO 15004KT 10SM CLR 21/04 A3027 0 33 700 150/04 RMK AO2 T02060039
63870K0J4 0J420161106123510511/06/16 12:35:31  5-MIN K0J4 061735Z AUTO VRB04KT 10SM CLR 21/03 A3026 0 30 800 VRB/04 RMK AO2 T02110033
63870K0J4 0J420161106124010611/06/16 12:40:31  5-MIN K0J4 061740Z AUTO 06006KT 10SM CLR 21/03 A3026 10 32 700 060/06 RMK AO2 T02060033
63870K0J4 0J420161106124510611/06/16 12:45:31  5-MIN K0J4 061745Z AUTO 12004KT 10SM CLR 21/03 A3025 10 30 700 120/04 RMK AO2 T02060028
63870K0J4 0J420161106125010611/06/16 12:50:31  5-MIN K0J4 061750Z AUTO 15006KT 10SM CLR 21/03 A3025 20 29 800 150/06 RMK AO2 T02110028
63870K0J4 0J420161106125513111/06/16 12:55:31  5-MIN K0J4 061755Z AUTO 00000KT 10SM CLR 21/03 A3024 20 30 800 000/00 RMK AO2 SLP238 T02110033 10211 20061 51004
63870K0J4 0J420161106130010611/06/16 13:00:31  5-MIN K0J4 061800Z AUTO VRB04KT 10SM CLR 22/03 A3024 20 29 800 VRB/04 RMK AO2 T02170033
63870K0J4 0J420161106130510611/06/16 13:05:31  5-MIN K0J4 061805Z AUTO VRB03KT 10SM CLR 21/03 A3024 20 32 700 VRB/03 RMK AO2 T02060033
63870K0J4 0J420161106131009611/06/16 13:10:31  5-MIN K0J4 061810Z AUTO 10SM CLR 22/03 A3023 30 28 900 M /M RMK AO2 T02220033
63870K0J4 0J420161106131510611/06/16 13:15:31  5-MIN K0J4 061815Z AUTO VRB05KT 10SM CLR 22/03 A3023 30 28 900 VRB/05 RMK AO2 T02220033
63870K0J4 0J420161106132010611/06/16 13:20:31  5-MIN K0J4 061820Z AUTO 06007KT 10SM CLR 22/04 A3023 30 30 900 060/07 RMK AO2 T02220039
63870K0J4 0J420161106132510711/06/16 13:25:31  5-MIN K0J4 061825Z AUTO 04006KT 10SM CLR 23/04 A3023 40 29 1000 040/06 RMK AO2 T02280039
63870K0J4 0J420161106133010711/06/16 13:30:31  5-MIN K0J4 061830Z AUTO 04005KT 10SM CLR 23/04 A3022 40 29 1000 040/05 RMK AO2 T02280039
63870K0J4 0J420161106133510711/06/16 13:35:31  5-MIN K0J4 061835Z AUTO 08004KT 10SM CLR 23/04 A3022 40 29 1000 080/04 RMK AO2 T02280039
63870K0J4 0J420161106134010711/06/16 13:40:31  5-MIN K0J4 061840Z AUTO 05006KT 10SM CLR 23/04 A3022 40 29 1000 050/06 RMK AO2 T02280039
63870K0J4 0J420161106134510711/06/16 13:45:31  5-MIN K0J4 061845Z AUTO 04005KT 10SM CLR 23/04 A3022 40 29 1000 040/05 RMK AO2 T02280039
63870K0J4 0J420161106135010711/06/16 13:50:31  5-MIN K0J4 061850Z AUTO 00000KT 10SM CLR 23/04 A3021 40 29 1000 000/00 RMK AO2 T02280039
63870K0J4 0J420161106135511411/06/16 13:55:31  5-MIN K0J4 061855Z AUTO VRB04KT 10SM CLR 23/03 A3021 50 27 1000 VRB/04 RMK AO2 SLP229 T02280033
63870K0J4 0J420161106140010611/06/16 14:00:31  5-MIN K0J4 061900Z AUTO 07005KT 10SM CLR 22/04 A3021 50 30 900 070/05 RMK AO2 T02220039
63870K0J4 0J420161106140510611/06/16 14:05:31  5-MIN K0J4 061905Z AUTO 04005KT 10SM CLR 22/04 A3021 50 31 900 040/05 RMK AO2 T02220044
63870K0J4 0J420161106141010611/06/16 14:10:31  5-MIN K0J4 061910Z AUTO VRB04KT 10SM CLR 22/04 A3021 50 30 900 VRB/04 RMK AO2 T02220039
63870K0J4 0J420161106141510611/06/16 14:15:31  5-MIN K0J4 061915Z AUTO 06005KT 10SM CLR 22/04 A3021 50 31 900 060/05 RMK AO2 T02220044
63870K0J4 0J420161106142010611/06/16 14:20:31  5-MIN K0J4 061920Z AUTO 06004KT 10SM CLR 22/04 A3021 50 31 900 060/04 RMK AO2 T02220044
63870K0J4 0J420161106142510611/06/16 14:25:31  5-MIN K0J4 061925Z AUTO 08004KT 10SM CLR 22/04 A3021 50 31 900 080/04 RMK AO2 T02220044
63870K0J4 0J420161106143010611/06/16 14:30:31  5-MIN K0J4 061930Z AUTO 10003KT 10SM CLR 22/04 A3021 50 31 900 100/03 RMK AO2 T02220044
63870K0J4 0J420161106143510611/06/16 14:35:31  5-MIN K0J4 061935Z AUTO VRB04KT 10SM CLR 22/04 A3021 50 30 900 VRB/04 RMK AO2 T02220039
63870K0J4 0J420161106144010611/06/16 14:40:31  5-MIN K0J4 061940Z AUTO 04004KT 10SM CLR 22/04 A3021 50 30 900 040/04 RMK AO2 T02220039
63870K0J4 0J420161106144510711/06/16 14:45:31  5-MIN K0J4 061945Z AUTO 04005KT 10SM CLR 23/04 A3021 50 30 1000 040/05 RMK AO2 T02280044
63870K0J4 0J420161106145010711/06/16 14:50:31  5-MIN K0J4 061950Z AUTO 06004KT 10SM CLR 23/04 A3020 60 29 1000 060/04 RMK AO2 T02280039
63870K0J4 0J420161106145511411/06/16 14:55:31  5-MIN K0J4 061955Z AUTO 05006KT 10SM CLR 23/04 A3020 60 29 1100 050/06 RMK AO2 SLP225 T02330044
63870K0J4 0J420161106150011711/06/16 15:00:31  5-MIN K0J4 062000Z AUTO 08003KT 10SM -RA CLR 23/04 A3020 60 29 1000 080/03 RMK AO2 P0000 T02280039
63870K0J4 0J420161106150511911/06/16 15:05:31  5-MIN K0J4 062005Z AUTO 05006KT 10SM CLR 23/04 A3020 60 30 1000 050/06 RMK AO2 RAE05 P0000 T02280044
63870K0J4 0J420161106151011911/06/16 15:10:31  5-MIN K0J4 062010Z AUTO 05003KT 10SM CLR 23/04 A3020 50 30 1000 050/03 RMK AO2 RAE05 P0000 T02280044
63870K0J4 0J420161106151511911/06/16 15:15:31  5-MIN K0J4 062015Z AUTO 00000KT 10SM CLR 23/04 A3021 50 30 1000 000/00 RMK AO2 RAE05 P0000 T02280044
63870K0J4 0J420161106152011811/06/16 15:20:31  5-MIN K0J4 062020Z AUTO 00000KT 10SM CLR 22/04 A3021 50 30 900 000/00 RMK AO2 RAE05 P0000 T02220039
63870K0J4 0J420161106152511811/06/16 15:25:31  5-MIN K0J4 062025Z AUTO 00000KT 10SM CLR 22/04 A3021 50 30 900 000/00 RMK AO2 RAE05 P0000 T02220039
63870K0J4 0J420161106153011811/06/16 15:30:31  5-MIN K0J4 062030Z AUTO 00000KT 10SM CLR 22/04 A3020 50 30 900 000/00 RMK AO2 RAE05 P0000 T02220039
63870K0J4 0J420161106153511911/06/16 15:35:31  5-MIN K0J4 062035Z AUTO 00000KT 10SM CLR 23/04 A3020 50 30 1000 000/00 RMK AO2 RAE05 P0000 T02280044
63870K0J4 0J420161106154011911/06/16 15:40:31  5-MIN K0J4 062040Z AUTO 00000KT 10SM CLR 23/04 A3020 60 30 1000 000/00 RMK AO2 RAE05 P0000 T02280044
63870K0J4 0J420161106154511911/06/16 15:45:31  5-MIN K0J4 062045Z AUTO 00000KT 10SM CLR 23/04 A3020 60 30 1000 000/00 RMK AO2 RAE05 P0000 T02280044
63870K0J4 0J420161106155011911/06/16 15:50:31  5-MIN K0J4 062050Z AUTO 10003KT 10SM CLR 23/04 A3020 60 30 1000 100/03 RMK AO2 RAE05 P0000 T02280044
63870K0J4 0J420161106155513811/06/16 15:55:31  5-MIN K0J4 062055Z AUTO 00000KT 10SM CLR 23/04 A3020 60 30 1000 000/00 RMK AO2 RAE05 SLP225 P0000 60000 T02280044 58026
63870K0J4 0J420161106160010711/06/16 16:00:31  5-MIN K0J4 062100Z AUTO 00000KT 10SM CLR 23/05 A3020 60 30 1100 000/00 RMK AO2 T02330050
63870K0J4 0J420161106160510711/06/16 16:05:31  5-MIN K0J4 062105Z AUTO 00000KT 10SM CLR 23/04 A3021 50 29 1100 000/00 RMK AO2 T02330044
63870K0J4 0J420161106161010711/06/16 16:10:31  5-MIN K0J4 062110Z AUTO 07003KT 10SM CLR 23/05 A3021 50 30 1100 070/03 RMK AO2 T02330050
63870K0J4 0J420161106161510711/06/16 16:15:31  5-MIN K0J4 062115Z AUTO 00000KT 10SM CLR 23/05 A3021 50 31 1000 000/00 RMK AO2 T02280050
63870K0J4 0J420161106162010711/06/16 16:20:31  5-MIN K0J4 062120Z AUTO 07003KT 10SM CLR 23/05 A3021 50 31 1000 070/03 RMK AO2 T02280050
63870K0J4 0J420161106162510711/06/16 16:25:31  5-MIN K0J4 062125Z AUTO 08003KT 10SM CLR 23/05 A3021 50 31 1000 080/03 RMK AO2 T02280050
63870K0J4 0J420161106163010711/06/16 16:30:31  5-MIN K0J4 062130Z AUTO 00000KT 10SM CLR 23/06 A3021 50 32 1000 000/00 RMK AO2 T02280056
63870K0J4 0J420161106163510711/06/16 16:35:31  5-MIN K0J4 062135Z AUTO 00000KT 10SM CLR 23/05 A3021 50 31 1000 000/00 RMK AO2 T02280050
63870K0J4 0J420161106164010711/06/16 16:40:31  5-MIN K0J4 062140Z AUTO 00000KT 10SM CLR 23/05 A3021 50 31 1000 000/00 RMK AO2 T02280050
63870K0J4 0J420161106164510611/06/16 16:45:31  5-MIN K0J4 062145Z AUTO 00000KT 10SM CLR 22/05 A3021 50 32 900 000/00 RMK AO2 T02220050
63870K0J4 0J420161106165010611/06/16 16:50:31  5-MIN K0J4 062150Z AUTO 00000KT 10SM CLR 22/06 A3021 50 35 900 000/00 RMK AO2 T02220061
63870K0J4 0J420161106165511311/06/16 16:55:31  5-MIN K0J4 062155Z AUTO 00000KT 10SM CLR 22/06 A3021 50 35 900 000/00 RMK AO2 SLP228 T02220061
63870K0J4 0J420161106170010611/06/16 17:00:31  5-MIN K0J4 062200Z AUTO 00000KT 10SM CLR 22/08 A3021 50 39 900 000/00 RMK AO2 T02220078
63870K0J4 0J420161106170512211/06/16 17:05:31  5-MIN K0J4 062205Z AUTO 00000KT 10SM -RA CLR 21/08 A3021 50 42 800 000/00 RMK AO2 RAB02 P0000 T02110078
63870K0J4 0J420161106171012211/06/16 17:10:31  5-MIN K0J4 062210Z AUTO 00000KT 10SM -RA CLR 21/08 A3021 50 43 800 000/00 RMK AO2 RAB02 P0000 T02110083
63870K0J4 0J420161106171512111/06/16 17:15:31  5-MIN K0J4 062215Z AUTO 00000KT 10SM CLR 21/08 A3021 50 43 800 000/00 RMK AO2 RAB02E12 P0000 T02110083
63870K0J4 0J420161106172012111/06/16 17:20:31  5-MIN K0J4 062220Z AUTO 00000KT 10SM CLR 21/08 A3021 40 43 800 000/00 RMK AO2 RAB02E12 P0000 T02110083
63870K0J4 0J420161106172512111/06/16 17:25:31  5-MIN K0J4 062225Z AUTO 00000KT 10SM CLR 21/08 A3022 40 45 700 000/00 RMK AO2 RAB02E12 P0000 T02060083
63870K0J4 0J420161106173012111/06/16 17:30:31  5-MIN K0J4 062230Z AUTO 00000KT 10SM CLR 20/08 A3022 40 46 700 000/00 RMK AO2 RAB02E12 P0000 T02000083
63870K0J4 0J420161106173512111/06/16 17:35:31  5-MIN K0J4 062235Z AUTO 00000KT 10SM CLR 20/08 A3021 50 45 700 000/00 RMK AO2 RAB02E12 P0000 T02000078
63870K0J4 0J420161106174012111/06/16 17:40:31  5-MIN K0J4 062240Z AUTO 00000KT 10SM CLR 20/08 A3022 40 45 700 000/00 RMK AO2 RAB02E12 P0000 T02000078
63870K0J4 0J420161106174512111/06/16 17:45:31  5-MIN K0J4 062245Z AUTO 00000KT 10SM CLR 19/08 A3022 40 46 600 000/00 RMK AO2 RAB02E12 P0000 T01940078
63870K0J4 0J420161106175012111/06/16 17:50:31  5-MIN K0J4 062250Z AUTO 00000KT 10SM CLR 19/08 A3022 40 46 600 000/00 RMK AO2 RAB02E12 P0000 T01940078
63870K0J4 0J420161106175512811/06/16 17:55:31  5-MIN K0J4 062255Z AUTO 00000KT 10SM CLR 18/08 A3022 40 52 500 000/00 RMK AO2 RAB02E12 SLP232 P0000 T01830083
63870K0J4 0J420161106180010611/06/16 18:00:31  5-MIN K0J4 062300Z AUTO 00000KT 10SM CLR 18/09 A3022 40 55 400 000/00 RMK AO2 T01780089
63870K0J4 0J420161106180512211/06/16 18:05:31  5-MIN K0J4 062305Z AUTO 00000KT 10SM -RA CLR 18/08 A3022 40 52 500 000/00 RMK AO2 RAB05 P0000 T01830083
63870K0J4 0J420161106181012211/06/16 18:10:31  5-MIN K0J4 062310Z AUTO 00000KT 10SM -RA CLR 18/08 A3022 40 53 400 000/00 RMK AO2 RAB05 P0000 T01780083
63870K0J4 0J420161106181512111/06/16 18:15:31  5-MIN K0J4 062315Z AUTO 00000KT 10SM CLR 17/09 A3022 40 60 300 000/00 RMK AO2 RAB05E13 P0000 T01670089
63870K0J4 0J420161106182012111/06/16 18:20:31  5-MIN K0J4 062320Z AUTO 00000KT 10SM CLR 17/09 A3022 40 60 300 000/00 RMK AO2 RAB05E13 P0000 T01670089
63870K0J4 0J420161106182512411/06/16 18:25:31  5-MIN K0J4 062325Z AUTO 00000KT 10SM FEW055 17/09 A3022 40 57 400 000/00 RMK AO2 RAB05E13 P0000 T01720089
63870K0J4 0J420161106183012411/06/16 18:30:31  5-MIN K0J4 062330Z AUTO 00000KT 10SM FEW055 17/09 A3022 40 57 300 000/00 RMK AO2 RAB05E13 P0000 T01720089
63870K0J4 0J420161106183512411/06/16 18:35:31  5-MIN K0J4 062335Z AUTO 00000KT 10SM FEW055 17/09 A3022 40 57 300 000/00 RMK AO2 RAB05E13 P0000 T01720089
63870K0J4 0J420161106184012411/06/16 18:40:31  5-MIN K0J4 062340Z AUTO 00000KT 10SM FEW055 17/09 A3022 40 62 300 000/00 RMK AO2 RAB05E13 P0000 T01670094
63870K0J4 0J420161106184512411/06/16 18:45:31  5-MIN K0J4 062345Z AUTO 00000KT 10SM FEW055 17/09 A3022 40 62 300 000/00 RMK AO2 RAB05E13 P0000 T01670094
63870K0J4 0J420161106185012411/06/16 18:50:31  5-MIN K0J4 062350Z AUTO 00000KT 10SM FEW055 17/09 A3022 40 62 300 000/00 RMK AO2 RAB05E13 P0000 T01670094
63870K0J4 0J420161106185515511/06/16 18:55:31  5-MIN K0J4 062355Z AUTO 00000KT 10SM FEW055 17/09 A3023 30 62 300 000/00 RMK AO2 RAB05E13 SLP234 P0000 60000 T01670094 10233 20167 56013
63870K0J4 0J420161106190010611/06/16 19:00:31  5-MIN K0J4 070000Z AUTO 00000KT 10SM CLR 16/10 A3023 30 67 200 000/00 RMK AO2 T01610100
63870K0J4 0J420161106190510611/06/16 19:05:31  5-MIN K0J4 070005Z AUTO 00000KT 10SM CLR 16/10 A3023 30 67 200 000/00 RMK AO2 T01610100
63870K0J4 0J420161106191010611/06/16 19:10:31  5-MIN K0J4 070010Z AUTO 00000KT 10SM CLR 16/09 A3023 30 64 200 000/00 RMK AO2 T01610094
63870K0J4 0J420161106191510611/06/16 19:15:31  5-MIN K0J4 070015Z AUTO 00000KT 10SM CLR 16/10 A3023 30 67 200 000/00 RMK AO2 T01610100
63870K0J4 0J420161106192010611/06/16 19:20:31  5-MIN K0J4 070020Z AUTO 00000KT 10SM CLR 16/10 A3023 30 69 100 000/00 RMK AO2 T01560100
63870K0J4 0J420161106192510611/06/16 19:25:31  5-MIN K0J4 070025Z AUTO 00000KT 10SM CLR 16/10 A3023 30 69 100 000/00 RMK AO2 T01560100
63870K0J4 0J420161106193012211/06/16 19:30:31  5-MIN K0J4 070030Z AUTO 00000KT 10SM -RA CLR 16/10 A3023 30 69 100 000/00 RMK AO2 RAB29 P0000 T01560100
63870K0J4 0J420161106193512111/06/16 19:35:31  5-MIN K0J4 070035Z AUTO 33003KT 10SM CLR 16/10 A3023 30 69 100 330/03 RMK AO2 RAB29E35 P0000 T01560100
63870K0J4 0J420161106194012111/06/16 19:40:31  5-MIN K0J4 070040Z AUTO VRB03KT 10SM CLR 16/10 A3023 30 69 100 VRB/03 RMK AO2 RAB29E35 P0000 T01560100
63870K0J4 0J420161106194512111/06/16 19:45:31  5-MIN K0J4 070045Z AUTO 34003KT 10SM CLR 17/08 A3023 30 57 300 340/03 RMK AO2 RAB29E35 P0000 T01670083
63870K0J4 0J420161106195012111/06/16 19:50:31  5-MIN K0J4 070050Z AUTO 35004KT 10SM CLR 18/08 A3023 30 51 400 350/04 RMK AO2 RAB29E35 P0000 T01780078
63870K0J4 0J420161106195512811/06/16 19:55:31  5-MIN K0J4 070055Z AUTO 35004KT 10SM CLR 18/07 A3024 30 48 500 350/04 RMK AO2 RAB29E35 SLP237 P0000 T01830072
63870K0J4 0J420161106200010611/06/16 20:00:31  5-MIN K0J4 070100Z AUTO 36003KT 10SM CLR 18/07 A3024 30 49 400 360/03 RMK AO2 T01780072
63870K0J4 0J420161106200510611/06/16 20:05:31  5-MIN K0J4 070105Z AUTO 36003KT 10SM CLR 17/08 A3024 30 53 300 360/03 RMK AO2 T01720078
63870K0J4 0J420161106201010911/06/16 20:10:31  5-MIN K0J4 070110Z AUTO 34003KT 10SM FEW050 17/08 A3024 20 55 300 340/03 RMK AO2 T01670078
63870K0J4 0J420161106201510911/06/16 20:15:31  5-MIN K0J4 070115Z AUTO VRB03KT 10SM FEW050 17/08 A3024 20 53 300 VRB/03 RMK AO2 T01720078
63870K0J4 0J420161106202010611/06/16 20:20:31  5-MIN K0J4 070120Z AUTO 03003KT 10SM CLR 16/09 A3024 20 64 100 030/03 RMK AO2 T01560089
63870K0J4 0J420161106202510911/06/16 20:25:31  5-MIN K0J4 070125Z AUTO 01003KT 10SM FEW050 16/09 A3024 20 64 100 010/03 RMK AO2 T01560089
63870K0J4 0J420161106203010911/06/16 20:30:31  5-MIN K0J4 070130Z AUTO 01004KT 10SM SCT050 16/09 A3024 20 64 100 010/04 RMK AO2 T01560089
63870K0J4 0J420161106203510911/06/16 20:35:31  5-MIN K0J4 070135Z AUTO 36004KT 10SM SCT050 16/09 A3024 20 64 100 360/04 RMK AO2 T01560089
63870K0J4 0J420161106204012511/06/16 20:40:31  5-MIN K0J4 070140Z AUTO 36004KT 10SM -RA SCT055 17/08 A3024 20 57 300 360/04 RMK AO2 RAB36 P0000 T01670083
63870K0J4 0J420161106204512511/06/16 20:45:31  5-MIN K0J4 070145Z AUTO 36003KT 10SM -RA SCT055 17/08 A3024 20 53 300 360/03 RMK AO2 RAB36 P0000 T01720078
63870K0J4 0J420161106205012411/06/16 20:50:31  5-MIN K0J4 070150Z AUTO 36003KT 10SM BKN055 18/08 A3024 20 51 400 360/03 RMK AO2 RAB36E46 P0000 T01780078
63870K0J4 0J420161106205513111/06/16 20:55:31  5-MIN K0J4 070155Z AUTO 36004KT 10SM BKN055 17/08 A3024 20 53 300 360/04 RMK AO2 RAB36E46 SLP240 P0000 T01720078
63870K0J4 0J420161106210010911/06/16 21:00:31  5-MIN K0J4 070200Z AUTO 36004KT 10SM BKN055 17/08 A3024 20 55 300 360/04 RMK AO2 T01720083
63870K0J4 0J420161106210510911/06/16 21:05:31  5-MIN K0J4 070205Z AUTO 01004KT 10SM BKN060 17/08 A3025 20 55 300 010/04 RMK AO2 T01720083
63870K0J4 0J420161106211012511/06/16 21:10:31  5-MIN K0J4 070210Z AUTO 36004KT 10SM -RA BKN060 17/08 A3025 10 57 300 360/04 RMK AO2 RAB10 P0000 T01670083
63870K0J4 0J420161106211512511/06/16 21:15:31  5-MIN K0J4 070215Z AUTO 01004KT 10SM -RA BKN060 17/08 A3025 20 57 300 010/04 RMK AO2 RAB10 P0000 T01670083
63870K0J4 0J420161106212012411/06/16 21:20:31  5-MIN K0J4 070220Z AUTO 01004KT 10SM BKN060 17/08 A3024 20 57 300 010/04 RMK AO2 RAB10E19 P0000 T01670083
63870K0J4 0J420161106212512411/06/16 21:25:31  5-MIN K0J4 070225Z AUTO 02003KT 10SM BKN060 16/09 A3025 20 67 100 020/03 RMK AO2 RAB10E19 P0000 T01560094
63870K0J4 0J420161106213012411/06/16 21:30:31  5-MIN K0J4 070230Z AUTO 01003KT 10SM BKN060 16/09 A3025 20 67 100 010/03 RMK AO2 RAB10E19 P0000 T01560094
63870K0J4 0J420161106213512411/06/16 21:35:31  5-MIN K0J4 070235Z AUTO 02003KT 10SM BKN065 16/09 A3024 20 67 100 020/03 RMK AO2 RAB10E19 P0000 T01560094
63870K0J4 0J420161106214012411/06/16 21:40:31  5-MIN K0J4 070240Z AUTO 02003KT 10SM SCT060 15/09 A3024 20 69 100 020/03 RMK AO2 RAB10E19 P0000 T01500094
63870K0J4 0J420161106214512411/06/16 21:45:31  5-MIN K0J4 070245Z AUTO 02003KT 10SM SCT060 16/09 A3024 20 64 100 020/03 RMK AO2 RAB10E19 P0000 T01560089
63870K0J4 0J420161106215012411/06/16 21:50:31  5-MIN K0J4 070250Z AUTO 01003KT 10SM FEW065 15/09 A3024 20 66 100 010/03 RMK AO2 RAB10E19 P0000 T01500089
63870K0J4 0J420161106215514311/06/16 21:55:31  5-MIN K0J4 070255Z AUTO 02003KT 10SM FEW065 15/09 A3024 20 69 100 020/03 RMK AO2 RAB10E19 SLP238 P0000 60000 T01500094 51008
63870K0J4 0J420161106220010911/06/16 22:00:31  5-MIN K0J4 070300Z AUTO 00000KT 10SM FEW065 15/09 A3024 20 69 100 000/00 RMK AO2 T01500094
63870K0J4 0J420161106220510911/06/16 22:05:31  5-MIN K0J4 070305Z AUTO 02003KT 10SM FEW065 15/09 A3024 20 69 100 020/03 RMK AO2 T01500094
63870K0J4 0J420161106221011611/06/16 22:10:31  5-MIN K0J4 070310Z AUTO 00000KT 10SM FEW042 SCT065 15/09 A3024 20 69 100 000/00 RMK AO2 T01500094
63870K0J4 0J420161106221511611/06/16 22:15:31  5-MIN K0J4 070315Z AUTO 01003KT 10SM SCT042 SCT065 15/09 A3024 20 69 100 010/03 RMK AO2 T01500094
63870K0J4 0J420161106222011611/06/16 22:20:31  5-MIN K0J4 070320Z AUTO 01003KT 10SM BKN042 BKN065 15/09 A3024 20 66 100 010/03 RMK AO2 T01500089
63870K0J4 0J420161106222510911/06/16 22:25:31  5-MIN K0J4 070325Z AUTO 00000KT 10SM BKN041 16/09 A3024 20 64 100 000/00 RMK AO2 T01560089
63870K0J4 0J420161106223010911/06/16 22:30:31  5-MIN K0J4 070330Z AUTO 00000KT 10SM BKN041 15/09 A3024 20 69 100 000/00 RMK AO2 T01500094
63870K0J4 0J420161106223511611/06/16 22:35:31  5-MIN K0J4 070335Z AUTO 00000KT 10SM BKN041 BKN065 15/09 A3024 20 69 100 000/00 RMK AO2 T01500094
63870K0J4 0J420161106224011611/06/16 22:40:31  5-MIN K0J4 070340Z AUTO 00000KT 10SM SCT041 BKN065 15/09 A3024 20 69 100 000/00 RMK AO2 T01500094
63870K0J4 0J420161106224511411/06/16 22:45:31  5-MIN K0J4 070345Z AUTO 00000KT 10SM FEW041 BKN065 14/10 A3024 20 74 0 000/00 RMK AO2 T01440100
63870K0J4 0J420161106225011611/06/16 22:50:31  5-MIN K0J4 070350Z AUTO 00000KT 10SM FEW040 BKN065 15/10 A3024 20 72 100 000/00 RMK AO2 T01500100
63870K0J4 0J420161106225513711/06/16 22:55:31  5-MIN K0J4 070355Z AUTO 00000KT 10SM -RA FEW040 OVC070 14/11 A3025 20 77 0 000/00 RMK AO2 RAB54 SLP240 P0000 T01440106
63870K0J4 0J420161106230011711/06/16 23:00:31  5-MIN K0J4 070400Z AUTO 00000KT 10SM -RA OVC070 14/11 A3025 20 77 0 000/00 RMK AO2 P0000 T01440106
63870K0J4 0J420161106230511911/06/16 23:05:31  5-MIN K0J4 070405Z AUTO 00000KT 10SM OVC070 14/11 A3025 20 77 0 000/00 RMK AO2 RAE03 P0000 T01440106
63870K0J4 0J420161106231011911/06/16 23:10:31  5-MIN K0J4 070410Z AUTO 00000KT 10SM OVC065 14/11 A3025 20 77 0 000/00 RMK AO2 RAE03 P0000 T01440106
63870K0J4 0J420161106231512111/06/16 23:15:31  5-MIN K0J4 070415Z AUTO 00000KT 10SM OVC070 15/11 A3025 20 77 100 000/00 RMK AO2 RAE03 P0000 T01500111
63870K0J4 0J420161106232012111/06/16 23:20:31  5-MIN K0J4 070420Z AUTO 00000KT 10SM OVC070 15/11 A3025 20 74 100 000/00 RMK AO2 RAE03 P0000 T01500106
63870K0J4 0J420161106232512111/06/16 23:25:31  5-MIN K0J4 070425Z AUTO 00000KT 10SM OVC070 15/11 A3025 20 74 100 000/00 RMK AO2 RAE03 P0000 T01500106
63870K0J4 0J420161106233012111/06/16 23:30:31  5-MIN K0J4 070430Z AUTO 00000KT 10SM OVC065 15/11 A3025 10 74 100 000/00 RMK AO2 RAE03 P0000 T01500106
63870K0J4 0J420161106233512111/06/16 23:35:31  5-MIN K0J4 070435Z AUTO 00000KT 10SM OVC065 16/09 A3025 10 67 100 000/00 RMK AO2 RAE03 P0000 T01560094
63870K0J4 0J420161106234012111/06/16 23:40:31  5-MIN K0J4 070440Z AUTO 00000KT 10SM OVC065 16/09 A3025 20 67 100 000/00 RMK AO2 RAE03 P0000 T01560094
63870K0J4 0J420161106234512111/06/16 23:45:31  5-MIN K0J4 070445Z AUTO 00000KT 10SM OVC065 16/09 A3025 20 67 100 000/00 RMK AO2 RAE03 P0000 T01560094
63870K0J4 0J420161106235012111/06/16 23:50:31  5-MIN K0J4 070450Z AUTO 00000KT 10SM OVC065 15/09 A3024 20 69 100 000/00 RMK AO2 RAE03 P0000 T01500094
63870K0J4 0J420161106235514511/06/16 23:55:31  5-MIN K0J4 070455Z AUTO 02003KT 10SM -RA OVC065 15/09 A3024 20 69 100 020/03 RMK AO2 RAE03B51 SLP239 P0000 T01500094 402330061
63870K0J4 0J420161107000012311/07/16 00:00:31  5-MIN K0J4 070500Z AUTO 02003KT 10SM BKN070 15/09 A3024 20 69 100 020/03 RMK AO2 RAE0459 P0000 T01500094
63870K0J4 0J420161107000512311/07/16 00:05:31  5-MIN K0J4 070505Z AUTO 00000KT 10SM OVC070 15/08 A3024 20 64 100 000/00 RMK AO2 RAE0459 P0000 T01500083
63870K0J4 0J420161107001012311/07/16 00:10:31  5-MIN K0J4 070510Z AUTO 00000KT 10SM OVC070 15/08 A3024 20 64 100 000/00 RMK AO2 RAE0459 P0000 T01500083
63870K0J4 0J420161107001512311/07/16 00:15:31  5-MIN K0J4 070515Z AUTO 00000KT 10SM BKN070 15/09 A3024 20 66 100 000/00 RMK AO2 RAE0459 P0000 T01500089
63870K0J4 0J420161107002012311/07/16 00:20:31  5-MIN K0J4 070520Z AUTO 00000KT 10SM BKN070 16/08 A3024 20 62 100 000/00 RMK AO2 RAE0459 P0000 T01560083
63870K0J4 0J420161107002512311/07/16 00:25:31  5-MIN K0J4 070525Z AUTO 00000KT 10SM OVC070 16/08 A3024 30 62 100 000/00 RMK AO2 RAE0459 P0000 T01560083
63870K0J4 0J420161107003012311/07/16 00:30:31  5-MIN K0J4 070530Z AUTO 00000KT 10SM OVC070 16/08 A3024 30 62 100 000/00 RMK AO2 RAE0459 P0000 T01560083
63870K0J4 0J420161107003512311/07/16 00:35:31  5-MIN K0J4 070535Z AUTO 00000KT 10SM OVC070 16/09 A3024 20 64 100 000/00 RMK AO2 RAE0459 P0000 T01560089
63870K0J4 0J420161107004012311/07/16 00:40:31  5-MIN K0J4 070540Z AUTO 00000KT 10SM OVC070 16/08 A3024 20 59 200 000/00 RMK AO2 RAE0459 P0000 T01610083
63870K0J4 0J420161107004512311/07/16 00:45:31  5-MIN K0J4 070545Z AUTO 06003KT 10SM OVC070 16/09 A3024 20 62 200 060/03 RMK AO2 RAE0459 P0000 T01610089
63870K0J4 0J420161107005012311/07/16 00:50:31  5-MIN K0J4 070550Z AUTO 07003KT 10SM OVC070 16/09 A3024 20 62 200 070/03 RMK AO2 RAE0459 P0000 T01610089
63870K0J4 0J420161107005515411/07/16 00:55:31  5-MIN K0J4 070555Z AUTO 08004KT 10SM OVC070 17/08 A3024 20 57 300 080/04 RMK AO2 RAE0459 SLP237 P0000 60000 T01670083 10183 20144 50005
63870K0J4 0J420161107010010911/07/16 01:00:31  5-MIN K0J4 070600Z AUTO 08004KT 10SM OVC070 17/08 A3024 20 57 300 080/04 RMK AO2 T01670083
63870K0J4 0J420161107010510911/07/16 01:05:31  5-MIN K0J4 070605Z AUTO 07004KT 10SM OVC070 17/08 A3024 20 57 300 070/04 RMK AO2 T01670083
63870K0J4 0J420161107011010911/07/16 01:10:31  5-MIN K0J4 070610Z AUTO 08004KT 10SM OVC070 17/08 A3024 20 57 300 080/04 RMK AO2 T01670083
63870K0J4 0J420161107011510911/07/16 01:15:31  5-MIN K0J4 070615Z AUTO 08004KT 10SM OVC070 17/08 A3024 20 57 300 080/04 RMK AO2 T01670083
63870K0J4 0J420161107012010911/07/16 01:20:31  5-MIN K0J4 070620Z AUTO 08005KT 10SM OVC070 17/08 A3024 20 57 300 080/05 RMK AO2 T01670083
63870K0J4 0J420161107012510911/07/16 01:25:31  5-MIN K0J4 070625Z AUTO 07004KT 10SM OVC070 17/09 A3024 20 60 300 070/04 RMK AO2 T01670089
63870K0J4 0J420161107013010911/07/16 01:30:31  5-MIN K0J4 070630Z AUTO 07004KT 10SM OVC070 17/09 A3024 20 60 300 070/04 RMK AO2 T01670089
63870K0J4 0J420161107013512511/07/16 01:35:31  5-MIN K0J4 070635Z AUTO 07005KT 10SM -RA OVC070 17/09 A3024 20 60 300 070/05 RMK AO2 RAB33 P0000 T01670089
63870K0J4 0J420161107014012511/07/16 01:40:31  5-MIN K0J4 070640Z AUTO 07005KT 10SM -RA OVC070 17/09 A3024 20 60 300 070/05 RMK AO2 RAB33 P0000 T01670089
63870K0J4 0J420161107014512411/07/16 01:45:31  5-MIN K0J4 070645Z AUTO 07005KT 10SM OVC070 17/09 A3024 20 62 300 070/05 RMK AO2 RAB33E43 P0000 T01670094
63870K0J4 0J420161107015012411/07/16 01:50:31  5-MIN K0J4 070650Z AUTO 07005KT 10SM OVC070 17/09 A3024 20 62 300 070/05 RMK AO2 RAB33E43 P0000 T01670094
63870K0J4 0J420161107015513111/07/16 01:55:31  5-MIN K0J4 070655Z AUTO 07005KT 10SM OVC070 17/09 A3024 20 62 300 070/05 RMK AO2 RAB33E43 SLP236 P0000 T01670094
63870K0J4 0J420161107020010911/07/16 02:00:31  5-MIN K0J4 070700Z AUTO 07004KT 10SM OVC070 17/09 A3024 20 62 300 070/04 RMK AO2 T01670094
63870K0J4 0J420161107020510911/07/16 02:05:31  5-MIN K0J4 070705Z AUTO 07004KT 10SM OVC070 17/09 A3024 20 62 300 070/04 RMK AO2 T01670094
63870K0J4 0J420161107021010911/07/16 02:10:31  5-MIN K0J4 070710Z AUTO 07005KT 10SM OVC070 17/10 A3024 20 64 300 070/05 RMK AO2 T01670100
63870K0J4 0J420161107021510911/07/16 02:15:31  5-MIN K0J4 070715Z AUTO 07004KT 10SM OVC070 17/10 A3024 20 64 300 070/04 RMK AO2 T01670100
63870K0J4 0J420161107022010911/07/16 02:20:31  5-MIN K0J4 070720Z AUTO 07004KT 10SM OVC070 17/10 A3024 30 64 300 070/04 RMK AO2 T01670100
63870K0J4 0J420161107022510911/07/16 02:25:31  5-MIN K0J4 070725Z AUTO 07004KT 10SM OVC070 17/10 A3023 30 64 300 070/04 RMK AO2 T01670100
63870K0J4 0J420161107023010911/07/16 02:30:31  5-MIN K0J4 070730Z AUTO 08004KT 10SM OVC070 17/10 A3023 30 64 300 080/04 RMK AO2 T01670100
63870K0J4 0J420161107023510911/07/16 02:35:31  5-MIN K0J4 070735Z AUTO 08004KT 10SM OVC070 17/11 A3023 30 67 300 080/04 RMK AO2 T01670106
63870K0J4 0J420161107024010911/07/16 02:40:31  5-MIN K0J4 070740Z AUTO 08004KT 10SM OVC070 17/11 A3023 30 67 300 080/04 RMK AO2 T01670106
63870K0J4 0J420161107024510911/07/16 02:45:31  5-MIN K0J4 070745Z AUTO 08004KT 10SM BKN070 17/11 A3023 30 67 300 080/04 RMK AO2 T01670106
63870K0J4 0J420161107025010911/07/16 02:50:31  5-MIN K0J4 070750Z AUTO 08005KT 10SM BKN070 16/11 A3023 30 69 200 080/05 RMK AO2 T01610106
63870K0J4 0J420161107025511611/07/16 02:55:31  5-MIN K0J4 070755Z AUTO 08004KT 10SM BKN070 16/11 A3023 30 69 200 080/04 RMK AO2 SLP234 T01610106
63870K0J4 0J420161107030010911/07/16 03:00:31  5-MIN K0J4 070800Z AUTO 08003KT 10SM BKN070 16/11 A3023 30 69 200 080/03 RMK AO2 T01610106
63870K0J4 0J420161107030510911/07/16 03:05:31  5-MIN K0J4 070805Z AUTO 08004KT 10SM BKN070 16/11 A3023 30 69 200 080/04 RMK AO2 T01610106
63870K0J4 0J420161107031010911/07/16 03:10:31  5-MIN K0J4 070810Z AUTO 08004KT 10SM SCT070 16/11 A3023 30 72 200 080/04 RMK AO2 T01610111
63870K0J4 0J420161107031510911/07/16 03:15:31  5-MIN K0J4 070815Z AUTO 08003KT 10SM SCT070 16/11 A3023 30 72 200 080/03 RMK AO2 T01610111
63870K0J4 0J420161107032010911/07/16 03:20:31  5-MIN K0J4 070820Z AUTO 08003KT 10SM BKN070 16/11 A3023 30 72 200 080/03 RMK AO2 T01610111
63870K0J4 0J420161107032510911/07/16 03:25:31  5-MIN K0J4 070825Z AUTO 09004KT 10SM BKN070 16/12 A3023 30 75 200 090/04 RMK AO2 T01610117
63870K0J4 0J420161107033010911/07/16 03:30:31  5-MIN K0J4 070830Z AUTO 07003KT 10SM BKN070 16/12 A3023 30 75 200 070/03 RMK AO2 T01610117
63870K0J4 0J420161107033510911/07/16 03:35:31  5-MIN K0J4 070835Z AUTO 07003KT 10SM BKN070 16/12 A3023 30 75 200 070/03 RMK AO2 T01610117
63870K0J4 0J420161107034010911/07/16 03:40:31  5-MIN K0J4 070840Z AUTO 07004KT 10SM BKN070 16/12 A3023 30 75 200 070/04 RMK AO2 T01610117
63870K0J4 0J420161107034510911/07/16 03:45:31  5-MIN K0J4 070845Z AUTO 06005KT 10SM OVC070 16/12 A3023 30 75 200 060/05 RMK AO2 T01610117
63870K0J4 0J420161107035011611/07/16 03:50:31  5-MIN K0J4 070850Z AUTO 06005KT 10SM FEW050 OVC070 16/11 A3023 30 72 200 060/05 RMK AO2 T01610111
63870K0J4 0J420161107035513511/07/16 03:55:31  5-MIN K0J4 070855Z AUTO 07004KT 10SM FEW050 OVC070 16/11 A3023 30 72 200 070/04 RMK AO2 SLP233 60000 T01610111 58002
63870K0J4 0J420161107040011611/07/16 04:00:31  5-MIN K0J4 070900Z AUTO 07003KT 10SM FEW050 OVC070 16/11 A3023 30 72 200 070/03 RMK AO2 T01610111
63870K0J4 0J420161107040511611/07/16 04:05:31  5-MIN K0J4 070905Z AUTO 08003KT 10SM SCT050 OVC070 16/11 A3023 30 72 200 080/03 RMK AO2 T01610111
63870K0J4 0J420161107041011611/07/16 04:10:31  5-MIN K0J4 070910Z AUTO 07004KT 10SM SCT050 OVC070 16/12 A3023 30 75 200 070/04 RMK AO2 T01610117
63870K0J4 0J420161107041511611/07/16 04:15:31  5-MIN K0J4 070915Z AUTO 07004KT 10SM SCT050 OVC070 16/12 A3023 30 75 200 070/04 RMK AO2 T01610117
63870K0J4 0J420161107042011611/07/16 04:20:31  5-MIN K0J4 070920Z AUTO 08004KT 10SM FEW050 OVC070 17/12 A3023 30 72 300 080/04 RMK AO2 T01670117
63870K0J4 0J420161107042511611/07/16 04:25:31  5-MIN K0J4 070925Z AUTO 08005KT 10SM FEW050 OVC070 17/12 A3023 30 72 300 080/05 RMK AO2 T01670117
63870K0J4 0J420161107043011611/07/16 04:30:31  5-MIN K0J4 070930Z AUTO 08005KT 10SM FEW050 OVC070 17/12 A3023 30 72 300 080/05 RMK AO2 T01670117
63870K0J4 0J420161107043511611/07/16 04:35:31  5-MIN K0J4 070935Z AUTO 08004KT 10SM FEW050 OVC070 17/12 A3024 30 72 300 080/04 RMK AO2 T01670117
63870K0J4 0J420161107044010911/07/16 04:40:31  5-MIN K0J4 070940Z AUTO 07005KT 10SM BKN070 17/12 A3024 30 72 300 070/05 RMK AO2 T01670117
63870K0J4 0J420161107044510911/07/16 04:45:31  5-MIN K0J4 070945Z AUTO 08005KT 10SM BKN070 17/12 A3024 20 72 300 080/05 RMK AO2 T01670117
63870K0J4 0J420161107045010911/07/16 04:50:31  5-MIN K0J4 070950Z AUTO 07005KT 10SM BKN070 16/12 A3024 20 75 200 070/05 RMK AO2 T01610117
63870K0J4 0J420161107045511611/07/16 04:55:31  5-MIN K0J4 070955Z AUTO 08004KT 10SM BKN070 16/12 A3024 20 75 200 080/04 RMK AO2 SLP237 T01610117
63870K0J4 0J420161107050010911/07/16 05:00:31  5-MIN K0J4 071000Z AUTO 08005KT 10SM BKN070 16/12 A3024 20 75 200 080/05 RMK AO2 T01610117
63870K0J4 0J420161107050510911/07/16 05:05:31  5-MIN K0J4 071005Z AUTO 07005KT 10SM BKN070 16/12 A3024 20 75 200 070/05 RMK AO2 T01610117
63870K0J4 0J420161107051010911/07/16 05:10:31  5-MIN K0J4 071010Z AUTO 08005KT 10SM BKN070 16/12 A3024 20 77 100 080/05 RMK AO2 T01560117
63870K0J4 0J420161107051510911/07/16 05:15:31  5-MIN K0J4 071015Z AUTO 08005KT 10SM BKN070 16/12 A3024 20 77 100 080/05 RMK AO2 T01560117
63870K0J4 0J420161107052010911/07/16 05:20:31  5-MIN K0J4 071020Z AUTO 08004KT 10SM BKN070 16/12 A3025 20 75 200 080/04 RMK AO2 T01610117
63870K0J4 0J420161107052510911/07/16 05:25:31  5-MIN K0J4 071025Z AUTO 08004KT 10SM BKN070 16/12 A3025 20 77 200 080/04 RMK AO2 T01610122
63870K0J4 0J420161107053010911/07/16 05:30:31  5-MIN K0J4 071030Z AUTO 08004KT 10SM BKN070 16/12 A3025 20 77 200 080/04 RMK AO2 T01610122
63870K0J4 0J420161107053510911/07/16 05:35:31  5-MIN K0J4 071035Z AUTO 08005KT 10SM BKN070 16/12 A3025 20 77 200 080/05 RMK AO2 T01610122
63870K0J4 0J420161107054010911/07/16 05:40:31  5-MIN K0J4 071040Z AUTO 08005KT 10SM BKN070 16/12 A3025 10 77 200 080/05 RMK AO2 T01610122
63870K0J4 0J420161107054510911/07/16 05:45:31  5-MIN K0J4 071045Z AUTO 08005KT 10SM BKN070 16/12 A3025 10 80 100 080/05 RMK AO2 T01560122
63870K0J4 0J420161107055010911/07/16 05:50:31  5-MIN K0J4 071050Z AUTO 09004KT 10SM BKN070 16/12 A3025 10 77 200 090/04 RMK AO2 T01610122
63870K0J4 0J420161107055511611/07/16 05:55:31  5-MIN K0J4 071055Z AUTO VRB03KT 10SM BKN070 16/12 A3025 10 77 200 VRB/03 RMK AO2 SLP241 T01610122
63870K0J4 0J420161107060010911/07/16 06:00:31  5-MIN K0J4 071100Z AUTO 09004KT 10SM SCT070 16/12 A3025 10 80 100 090/04 RMK AO2 T01560122
63870K0J4 0J420161107060510911/07/16 06:05:31  5-MIN K0J4 071105Z AUTO 08006KT 10SM SCT070 16/12 A3025 10 80 100 080/06 RMK AO2 T01560122
63870K0J4 0J420161107061010911/07/16 06:10:31  5-MIN K0J4 071110Z AUTO 08005KT 10SM SCT070 16/12 A3026 10 80 100 080/05 RMK AO2 T01560122
63870K0J4 0J420161107061510911/07/16 06:15:31  5-MIN K0J4 071115Z AUTO 08006KT 10SM SCT070 16/12 A3026 10 80 100 080/06 RMK AO2 T01560122
63870K0J4 0J420161107062010911/07/16 06:20:31  5-MIN K0J4 071120Z AUTO 08007KT 10SM BKN070 16/12 A3026 10 80 100 080/07 RMK AO2 T01560122
63870K0J4 0J420161107062510811/07/16 06:25:31  5-MIN K0J4 071125Z AUTO 09006KT 10SM BKN070 16/12 A3026 0 80 100 090/06 RMK AO2 T01560122
63870K0J4 0J420161107063010811/07/16 06:30:31  5-MIN K0J4 071130Z AUTO 09005KT 10SM SCT070 16/12 A3026 0 80 100 090/05 RMK AO2 T01560122
63870K0J4 0J420161107063510811/07/16 06:35:31  5-MIN K0J4 071135Z AUTO 09005KT 10SM SCT070 16/12 A3026 0 80 100 090/05 RMK AO2 T01560122
63870K0J4 0J420161107064010811/07/16 06:40:31  5-MIN K0J4 071140Z AUTO 09005KT 10SM BKN070 16/12 A3026 0 80 100 090/05 RMK AO2 T01560122
63870K0J4 0J420161107064510811/07/16 06:45:31  5-MIN K0J4 071145Z AUTO 10004KT 10SM BKN070 16/12 A3026 0 80 100 100/04 RMK AO2 T01560122
63870K0J4 0J420161107065010811/07/16 06:50:31  5-MIN K0J4 071150Z AUTO VRB04KT 10SM BKN070 16/12 A3026 0 80 100 VRB/04 RMK AO2 T01560122
63870K0J4 0J420161107065513911/07/16 06:55:31  5-MIN K0J4 071155Z AUTO 09004KT 10SM BKN070 16/12 A3026 0 80 100 090/04 RMK AO2 SLP246 60000 T01560122 10167 20156 58002
63870K0J4 0J420161107070010811/07/16 07:00:31  5-MIN K0J4 071200Z AUTO 09004KT 10SM OVC070 16/12 A3026 0 80 100 090/04 RMK AO2 T01560122
63870K0J4 0J420161107070510811/07/16 07:05:31  5-MIN K0J4 071205Z AUTO 10003KT 10SM OVC070 16/12 A3027 0 80 100 100/03 RMK AO2 T01560122
63870K0J4 0J420161107071010811/07/16 07:10:31  5-MIN K0J4 071210Z AUTO 12003KT 10SM OVC070 16/12 A3027 0 80 100 120/03 RMK AO2 T01560122
63870K0J4 0J420161107071510811/07/16 07:15:31  5-MIN K0J4 071215Z AUTO 09004KT 10SM OVC070 16/12 A3027 0 80 100 090/04 RMK AO2 T01560122
63870K0J4 0J420161107072010811/07/16 07:20:31  5-MIN K0J4 071220Z AUTO 09005KT 10SM OVC070 16/12 A3027 0 80 100 090/05 RMK AO2 T01560122
63870K0J4 0J420161107072510811/07/16 07:25:31  5-MIN K0J4 071225Z AUTO 09005KT 10SM OVC070 16/12 A3027 0 80 100 090/05 RMK AO2 T01560122
63870K0J4 0J420161107073010811/07/16 07:30:31  5-MIN K0J4 071230Z AUTO 09006KT 10SM OVC070 16/12 A3027 0 80 100 090/06 RMK AO2 T01560122
63870K0J4 0J420161107073510811/07/16 07:35:31  5-MIN K0J4 071235Z AUTO 09005KT 10SM OVC070 16/12 A3027 0 80 100 090/05 RMK AO2 T01560122
63870K0J4 0J420161107074010811/07/16 07:40:31  5-MIN K0J4 071240Z AUTO 09006KT 10SM BKN070 16/12 A3027 0 80 100 090/06 RMK AO2 T01560122
63870K0J4 0J420161107074510811/07/16 07:45:31  5-MIN K0J4 071245Z AUTO 09005KT 10SM BKN070 16/12 A3027 0 80 100 090/05 RMK AO2 T01560122
63870K0J4 0J420161107075010811/07/16 07:50:31  5-MIN K0J4 071250Z AUTO 09006KT 10SM BKN070 16/12 A3027 0 80 100 090/06 RMK AO2 T01560122
63870K0J4 0J420161107075511711/07/16 07:55:31  5-MIN K0J4 071255Z AUTO 09005KT 10SM BKN070 16/12 A3027 -10 80 100 090/05 RMK AO2 SLP249 T01560122
63870K0J4 0J420161107080011011/07/16 08:00:31  5-MIN K0J4 071300Z AUTO 10005KT 10SM BKN070 16/12 A3028 -10 77 200 100/05 RMK AO2 T01610122
63870K0J4 0J420161107080511011/07/16 08:05:31  5-MIN K0J4 071305Z AUTO 09005KT 10SM BKN070 16/12 A3028 -10 77 200 090/05 RMK AO2 T01610122
63870K0J4 0J420161107081011011/07/16 08:10:31  5-MIN K0J4 071310Z AUTO 10006KT 10SM BKN070 16/12 A3028 -10 77 200 100/06 RMK AO2 T01610122
63870K0J4 0J420161107081511011/07/16 08:15:31  5-MIN K0J4 071315Z AUTO 10004KT 10SM BKN070 17/12 A3028 -10 75 200 100/04 RMK AO2 T01670122
63870K0J4 0J420161107082011011/07/16 08:20:31  5-MIN K0J4 071320Z AUTO 08006KT 10SM BKN070 17/12 A3028 -10 75 200 080/06 RMK AO2 T01670122
63870K0J4 0J420161107082511011/07/16 08:25:31  5-MIN K0J4 071325Z AUTO VRB05KT 10SM OVC070 17/12 A3029 -10 75 200 VRB/05 RMK AO2 T01670122
63870K0J4 0J420161107083011011/07/16 08:30:31  5-MIN K0J4 071330Z AUTO 09007KT 10SM OVC070 17/12 A3029 -20 72 300 090/07 RMK AO2 T01720122
63870K0J4 0J420161107083511011/07/16 08:35:31  5-MIN K0J4 071335Z AUTO 08006KT 10SM BKN070 17/12 A3029 -10 72 300 080/06 RMK AO2 T01720122
63870K0J4 0J420161107084011011/07/16 08:40:31  5-MIN K0J4 071340Z AUTO 10007KT 10SM BKN070 17/12 A3028 -10 72 300 100/07 RMK AO2 T01720122
63870K0J4 0J420161107084511011/07/16 08:45:31  5-MIN K0J4 071345Z AUTO 11005KT 10SM SCT070 18/12 A3029 -20 69 300 110/05 RMK AO2 T01780122
63870K0J4 0J420161107085011011/07/16 08:50:31  5-MIN K0J4 071350Z AUTO 10006KT 10SM SCT070 18/13 A3029 -20 70 400 100/06 RMK AO2 T01830128
63870K0J4 0J420161107085511711/07/16 08:55:31  5-MIN K0J4 071355Z AUTO 09005KT 10SM FEW070 18/12 A3029 -20 69 300 090/05 RMK AO2 SLP255 T01780122
63870K0J4 0J420161107090010711/07/16 09:00:31  5-MIN K0J4 071400Z AUTO 09006KT 10SM CLR 17/12 A3029 -20 72 300 090/06 RMK AO2 T01720122
63870K0J4 0J420161107090510711/07/16 09:05:31  5-MIN K0J4 071405Z AUTO 11004KT 10SM CLR 18/12 A3029 -20 69 300 110/04 RMK AO2 T01780122
63870K0J4 0J420161107091010711/07/16 09:10:31  5-MIN K0J4 071410Z AUTO VRB04KT 10SM CLR 18/12 A3029 -20 69 300 VRB/04 RMK AO2 T01780122
63870K0J4 0J420161107091511011/07/16 09:15:31  5-MIN K0J4 071415Z AUTO 09005KT 10SM FEW070 18/13 A3029 -20 72 300 090/05 RMK AO2 T01780128
63870K0J4 0J420161107092011011/07/16 09:20:31  5-MIN K0J4 071420Z AUTO 09007KT 10SM BKN065 18/13 A3029 -20 70 400 090/07 RMK AO2 T01830128
63870K0J4 0J420161107092511011/07/16 09:25:31  5-MIN K0J4 071425Z AUTO 09009KT 10SM SCT065 18/13 A3029 -20 70 400 090/09 RMK AO2 T01830128
63870K0J4 0J420161107093011011/07/16 09:30:31  5-MIN K0J4 071430Z AUTO 08007KT 10SM SCT065 19/13 A3029 -20 67 500 080/07 RMK AO2 T01890128
63870K0J4 0J420161107093512611/07/16 09:35:31  5-MIN K0J4 071435Z AUTO 10007KT 070V140 10SM SCT065 19/13 A3029 -20 65 500 100/07 070V140 RMK AO2 T01940128
63870K0J4 0J420161107094011011/07/16 09:40:31  5-MIN K0J4 071440Z AUTO 10008KT 10SM SCT065 20/13 A3029 -20 63 600 100/08 RMK AO2 T02000128
63870K0J4 0J420161107094511011/07/16 09:45:31  5-MIN K0J4 071445Z AUTO VRB06KT 10SM FEW065 20/13 A3029 -20 63 600 VRB/06 RMK AO2 T02000128
63870K0J4 0J420161107095010711/07/16 09:50:31  5-MIN K0J4 071450Z AUTO 09007KT 10SM CLR 20/13 A3029 -20 63 600 090/07 RMK AO2 T02000128
63870K0J4 0J420161107095512011/07/16 09:55:31  5-MIN K0J4 071455Z AUTO 08008KT 10SM CLR 21/13 A3029 -20 63 700 080/08 RMK AO2 SLP255 T02060133 53011
63870K0J4 0J420161107100010711/07/16 10:00:31  5-MIN K0J4 071500Z AUTO 10008KT 10SM CLR 21/13 A3029 -20 61 700 100/08 RMK AO2 T02110133
63870K0J4 0J420161107100510711/07/16 10:05:31  5-MIN K0J4 071505Z AUTO 10007KT 10SM CLR 21/13 A3029 -20 58 700 100/07 RMK AO2 T02110128
63870K0J4 0J420161107101010711/07/16 10:10:31  5-MIN K0J4 071510Z AUTO 10006KT 10SM CLR 21/13 A3029 -20 61 700 100/06 RMK AO2 T02110133
63870K0J4 0J420161107101510711/07/16 10:15:31  5-MIN K0J4 071515Z AUTO 11008KT 10SM CLR 22/13 A3029 -20 58 800 110/08 RMK AO2 T02170133
63870K0J4 0J420161107102011311/07/16 10:20:31  5-MIN K0J4 071520Z AUTO 10008G15KT 10SM CLR 22/13 A3029 -20 58 800 100/08G15 RMK AO2 T02170133
63870K0J4 0J420161107102511311/07/16 10:25:31  5-MIN K0J4 071525Z AUTO 10006G15KT 10SM CLR 22/13 A3029 -20 58 800 100/06G15 RMK AO2 T02170133
63870K0J4 0J420161107103011311/07/16 10:30:31  5-MIN K0J4 071530Z AUTO 10009G16KT 10SM CLR 22/13 A3029 -20 56 900 100/09G16 RMK AO2 T02220133
63870K0J4 0J420161107103511311/07/16 10:35:31  5-MIN K0J4 071535Z AUTO 09007G16KT 10SM CLR 23/13 A3029 -20 55 900 090/07G16 RMK AO2 T02280133
63870K0J4 0J420161107104012311/07/16 10:40:31  5-MIN K0J4 071540Z AUTO 11007KT 080V140 10SM CLR 23/13 A3029 -20 55 900 110/07 080V140 RMK AO2 T02280133
63870K0J4 0J420161107104512311/07/16 10:45:31  5-MIN K0J4 071545Z AUTO 10008KT 10SM -RA CLR 23/13 A3029 -20 55 900 100/08 RMK AO2 RAB43 P0000 T02280133
63870K0J4 0J420161107105012411/07/16 10:50:31  5-MIN K0J4 071550Z AUTO 08012KT 10SM -RA CLR 23/13 A3029 -20 53 1000 080/12 RMK AO2 RAB43 P0000 T02330133
63870K0J4 0J420161107105512911/07/16 10:55:31  5-MIN K0J4 071555Z AUTO 08009KT 10SM CLR 23/13 A3029 -20 55 900 080/09 RMK AO2 RAB43E52 SLP256 P0000 T02280133
63870K0J4 0J420161107110010711/07/16 11:00:31  5-MIN K0J4 071600Z AUTO 08011KT 10SM CLR 23/13 A3029 -20 55 900 080/11 RMK AO2 T02280133
63870K0J4 0J420161107110510811/07/16 11:05:31  5-MIN K0J4 071605Z AUTO 09009KT 10SM CLR 23/13 A3029 -20 53 1000 090/09 RMK AO2 T02330133
63870K0J4 0J420161107111010811/07/16 11:10:31  5-MIN K0J4 071610Z AUTO 08011KT 10SM CLR 23/13 A3029 -20 53 1000 080/11 RMK AO2 T02330133
63870K0J4 0J420161107111510811/07/16 11:15:31  5-MIN K0J4 071615Z AUTO 08010KT 10SM CLR 24/13 A3029 -20 51 1000 080/10 RMK AO2 T02390133
63870K0J4 0J420161107112010811/07/16 11:20:31  5-MIN K0J4 071620Z AUTO 08010KT 10SM CLR 24/13 A3029 -20 51 1000 080/10 RMK AO2 T02390133
63870K0J4 0J420161107112510811/07/16 11:25:31  5-MIN K0J4 071625Z AUTO VRB04KT 10SM CLR 24/13 A3029 -10 51 1000 VRB/04 RMK AO2 T02390133
63870K0J4 0J420161107113012411/07/16 11:30:31  5-MIN K0J4 071630Z AUTO 10008KT 070V130 10SM CLR 24/13 A3028 -10 49 1100 100/08 070V130 RMK AO2 T02440133
63870K0J4 0J420161107113510811/07/16 11:35:31  5-MIN K0J4 071635Z AUTO 09012KT 10SM CLR 24/13 A3028 -10 47 1100 090/12 RMK AO2 T02440128
63870K0J4 0J420161107114010811/07/16 11:40:31  5-MIN K0J4 071640Z AUTO 09008KT 10SM CLR 24/13 A3028 -10 49 1100 090/08 RMK AO2 T02440133
63870K0J4 0J420161107114510811/07/16 11:45:31  5-MIN K0J4 071645Z AUTO 10008KT 10SM CLR 24/13 A3028 -10 47 1100 100/08 RMK AO2 T02440128
63870K0J4 0J420161107115010811/07/16 11:50:31  5-MIN K0J4 071650Z AUTO 10008KT 10SM CLR 24/13 A3028 -10 47 1100 100/08 RMK AO2 T02440128
63870K0J4 0J420161107115511511/07/16 11:55:31  5-MIN K0J4 071655Z AUTO 10007KT 10SM CLR 25/13 A3028 -10 46 1200 100/07 RMK AO2 SLP249 T02500128
63870K0J4 0J420161107120011211/07/16 12:00:31  5-MIN K0J4 071700Z AUTO 13011G16KT 10SM CLR 25/13 A3027 0 46 1200 130/11G16 RMK AO2 T02500128
63870K0J4 0J420161107120512811/07/16 12:05:31  5-MIN K0J4 071705Z AUTO 14010G16KT 100V170 10SM CLR 24/12 A3027 0 46 1100 140/10G16 100V170 RMK AO2 T02440122
63870K0J4 0J420161107121011211/07/16 12:10:31  5-MIN K0J4 071710Z AUTO 11009G17KT 10SM CLR 25/13 A3027 0 46 1200 110/09G17 RMK AO2 T02500128
63870K0J4 0J420161107121511211/07/16 12:15:31  5-MIN K0J4 071715Z AUTO 09009G17KT 10SM CLR 26/13 A3027 0 44 1300 090/09G17 RMK AO2 T02560128
63870K0J4 0J420161107122010611/07/16 12:20:31  5-MIN K0J4 071720Z AUTO VRB05KT 10SM CLR 26/13 A3026 0 44 1300 VRB/05 RMK AO2 T02560128
63870K0J4 0J420161107122511211/07/16 12:25:31  5-MIN K0J4 071725Z AUTO VRB06G14KT 10SM CLR 25/12 A3026 0 44 1200 VRB/06G14 RMK AO2 T02500122
63870K0J4 0J420161107123012911/07/16 12:30:31  5-MIN K0J4 071730Z AUTO 10010G14KT 080V140 10SM CLR 26/12 A3026 10 43 1300 100/10G14 080V140 RMK AO2 T02560122
63870K0J4 0J420161107123512311/07/16 12:35:31  5-MIN K0J4 071735Z AUTO 12008KT 070V160 10SM CLR 25/12 A3025 10 44 1200 120/08 070V160 RMK AO2 T02500122
63870K0J4 0J420161107124010711/07/16 12:40:31  5-MIN K0J4 071740Z AUTO VRB04KT 10SM CLR 25/12 A3025 10 44 1200 VRB/04 RMK AO2 T02500122
63870K0J4 0J420161107124511011/07/16 12:45:31  5-MIN K0J4 071745Z AUTO 11010KT 10SM FEW055 25/12 A3025 10 44 1200 110/10 RMK AO2 T02500122
63870K0J4 0J420161107125011011/07/16 12:50:31  5-MIN K0J4 071750Z AUTO 09008KT 10SM FEW050 25/11 A3025 10 41 1200 090/08 RMK AO2 T02500111
63870K0J4 0J420161107125514111/07/16 12:55:31  5-MIN K0J4 071755Z AUTO 11007KT 10SM SCT050 25/12 A3025 10 43 1200 110/07 RMK AO2 SLP239 60000 T02500117 10256 20156 50009
63870K0J4 0J420161107130011611/07/16 13:00:31  5-MIN K0J4 071800Z AUTO 09011G17KT 10SM BKN050 26/11 A3025 10 40 1300 090/11G17 RMK AO2 T02560111
63870K0J4 0J420161107130511611/07/16 13:05:31  5-MIN K0J4 071805Z AUTO 09011G17KT 10SM BKN050 26/11 A3025 20 40 1300 090/11G17 RMK AO2 T02560111
63870K0J4 0J420161107131011011/07/16 13:10:31  5-MIN K0J4 071810Z AUTO 08009KT 10SM BKN050 26/11 A3024 20 38 1300 080/09 RMK AO2 T02610111
63870K0J4 0J420161107131511611/07/16 13:15:31  5-MIN K0J4 071815Z AUTO 09011G17KT 10SM BKN050 26/11 A3024 20 38 1400 090/11G17 RMK AO2 T02610111
63870K0J4 0J420161107132013211/07/16 13:20:31  5-MIN K0J4 071820Z AUTO 12007G17KT 080V150 10SM BKN050 26/11 A3024 20 38 1400 120/07G17 080V150 RMK AO2 T02610111
63870K0J4 0J420161107132513211/07/16 13:25:31  5-MIN K0J4 071825Z AUTO 13010G15KT 100V160 10SM BKN055 26/11 A3024 20 37 1400 130/10G15 100V160 RMK AO2 T02610106
63870K0J4 0J420161107133011611/07/16 13:30:31  5-MIN K0J4 071830Z AUTO 11009G15KT 10SM BKN055 26/11 A3024 20 38 1300 110/09G15 RMK AO2 T02560106
63870K0J4 0J420161107133512611/07/16 13:35:31  5-MIN K0J4 071835Z AUTO 11010KT 080V150 10SM SCT055 26/11 A3024 20 38 1400 110/10 080V150 RMK AO2 T02610111
63870K0J4 0J420161107134011011/07/16 13:40:31  5-MIN K0J4 071840Z AUTO 13008KT 10SM SCT055 26/11 A3024 30 37 1400 130/08 RMK AO2 T02610106
63870K0J4 0J420161107134513211/07/16 13:45:31  5-MIN K0J4 071845Z AUTO 14010G15KT 100V160 10SM BKN055 26/09 A3023 30 34 1400 140/10G15 100V160 RMK AO2 T02610094
63870K0J4 0J420161107135013211/07/16 13:50:31  5-MIN K0J4 071850Z AUTO 12007G15KT 070V150 10SM BKN060 26/10 A3023 30 36 1400 120/07G15 070V150 RMK AO2 T02610100
63870K0J4 0J420161107135512311/07/16 13:55:31  5-MIN K0J4 071855Z AUTO 09008G15KT 10SM SCT055 27/11 A3023 30 36 1400 090/08G15 RMK AO2 SLP234 T02670106
63870K0J4 0J420161107140011011/07/16 14:00:31  5-MIN K0J4 071900Z AUTO 09008KT 10SM BKN060 25/11 A3023 30 39 1200 090/08 RMK AO2 T02500106
63870K0J4 0J420161107140513211/07/16 14:05:31  5-MIN K0J4 071905Z AUTO 08009G17KT 050V110 10SM BKN060 25/11 A3023 30 39 1200 080/09G17 050V110 RMK AO2 T02500106
63870K0J4 0J420161107141013211/07/16 14:10:31  5-MIN K0J4 071910Z AUTO 09009G17KT 070V130 10SM BKN060 26/11 A3023 40 37 1400 090/09G17 070V130 RMK AO2 T02610106
63870K0J4 0J420161107141511011/07/16 14:15:31  5-MIN K0J4 071915Z AUTO 09009KT 10SM SCT060 26/11 A3022 40 38 1300 090/09 RMK AO2 T02560106
63870K0J4 0J420161107142011011/07/16 14:20:31  5-MIN K0J4 071920Z AUTO 09012KT 10SM BKN060 26/11 A3022 40 37 1400 090/12 RMK AO2 T02610106
63870K0J4 0J420161107142511011/07/16 14:25:31  5-MIN K0J4 071925Z AUTO 08008KT 10SM BKN060 27/11 A3022 40 36 1400 080/08 RMK AO2 T02670106
63870K0J4 0J420161107143011011/07/16 14:30:31  5-MIN K0J4 071930Z AUTO 11009KT 10SM BKN060 27/11 A3022 40 36 1400 110/09 RMK AO2 T02670106
63870K0J4 0J420161107143511611/07/16 14:35:31  5-MIN K0J4 071935Z AUTO 16011G16KT 10SM BKN060 27/11 A3022 40 36 1400 160/11G16 RMK AO2 T02670106
63870K0J4 0J420161107144011611/07/16 14:40:31  5-MIN K0J4 071940Z AUTO 09009G16KT 10SM BKN060 27/11 A3022 40 36 1400 090/09G16 RMK AO2 T02670106
63870K0J4 0J420161107144511011/07/16 14:45:31  5-MIN K0J4 071945Z AUTO 08010KT 10SM BKN060 27/11 A3022 40 36 1400 080/10 RMK AO2 T02670106
63870K0J4 0J420161107145012611/07/16 14:50:31  5-MIN K0J4 071950Z AUTO 08011KT 060V130 10SM BKN060 26/11 A3021 50 37 1400 080/11 060V130 RMK AO2 T02610106
63870K0J4 0J420161107145511711/07/16 14:55:31  5-MIN K0J4 071955Z AUTO 08012KT 10SM BKN060 27/10 A3021 50 34 1400 080/12 RMK AO2 SLP227 T02670100
63870K0J4 0J420161107150011011/07/16 15:00:31  5-MIN K0J4 072000Z AUTO 08009KT 10SM BKN060 26/11 A3021 50 37 1400 080/09 RMK AO2 T02610106
63870K0J4 0J420161107150511011/07/16 15:05:31  5-MIN K0J4 072005Z AUTO 06007KT 10SM BKN060 27/11 A3021 50 36 1500 060/07 RMK AO2 T02670106
63870K0J4 0J420161107151012611/07/16 15:10:31  5-MIN K0J4 072010Z AUTO 10007KT 060V140 10SM BKN060 27/11 A3021 50 36 1500 100/07 060V140 RMK AO2 T02670106
63870K0J4 0J420161107151511011/07/16 15:15:31  5-MIN K0J4 072015Z AUTO 14008KT 10SM SCT060 26/10 A3021 50 36 1400 140/08 RMK AO2 T02610100
63870K0J4 0J420161107152012611/07/16 15:20:31  5-MIN K0J4 072020Z AUTO 10007KT 070V150 10SM SCT060 26/09 A3021 50 34 1400 100/07 070V150 RMK AO2 T02610094
63870K0J4 0J420161107152511611/07/16 15:25:31  5-MIN K0J4 072025Z AUTO 15009G14KT 10SM FEW060 26/09 A3021 50 34 1400 150/09G14 RMK AO2 T02610094
63870K0J4 0J420161107153013211/07/16 15:30:31  5-MIN K0J4 072030Z AUTO 14010G15KT 100V160 10SM SCT060 26/09 A3021 50 34 1400 140/10G15 100V160 RMK AO2 T02610094
63870K0J4 0J420161107153512611/07/16 15:35:31  5-MIN K0J4 072035Z AUTO 12008KT 090V160 10SM SCT060 26/09 A3021 50 34 1400 120/08 090V160 RMK AO2 T02610094
63870K0J4 0J420161107154011611/07/16 15:40:31  5-MIN K0J4 072040Z AUTO 14008G14KT 10SM FEW065 26/09 A3021 50 33 1400 140/08G14 RMK AO2 T02610089
63870K0J4 0J420161107154512611/07/16 15:45:31  5-MIN K0J4 072045Z AUTO 11007KT 070V130 10SM FEW065 26/09 A3021 50 33 1400 110/07 070V130 RMK AO2 T02610089
63870K0J4 0J420161107155011011/07/16 15:50:31  5-MIN K0J4 072050Z AUTO 09007KT 10SM SCT065 27/09 A3021 50 33 1500 090/07 RMK AO2 T02670094
63870K0J4 0J420161107155513911/07/16 15:55:31  5-MIN K0J4 072055Z AUTO 14009KT 110V170 10SM BKN060 27/09 A3021 50 33 1500 140/09 110V170 RMK AO2 SLP225 T02670094 58015
63870K0J4 0J420161107160011011/07/16 16:00:31  5-MIN K0J4 072100Z AUTO 09010KT 10SM BKN060 26/09 A3021 50 35 1300 090/10 RMK AO2 T02560094
63870K0J4 0J420161107160511011/07/16 16:05:31  5-MIN K0J4 072105Z AUTO 09006KT 10SM BKN060 24/09 A3021 50 38 1200 090/06 RMK AO2 T02440094
63870K0J4 0J420161107161011011/07/16 16:10:31  5-MIN K0J4 072110Z AUTO VRB06KT 10SM SCT060 24/09 A3021 50 38 1200 VRB/06 RMK AO2 T02440094
63870K0J4 0J420161107161512611/07/16 16:15:31  5-MIN K0J4 072115Z AUTO 11007KT 070V140 10SM SCT060 25/09 A3021 50 37 1300 110/07 070V140 RMK AO2 T02500094
63870K0J4 0J420161107162011011/07/16 16:20:31  5-MIN K0J4 072120Z AUTO 09006KT 10SM FEW060 26/09 A3021 50 35 1300 090/06 RMK AO2 T02560094
63870K0J4 0J420161107162511011/07/16 16:25:31  5-MIN K0J4 072125Z AUTO 09008KT 10SM FEW065 26/09 A3021 50 34 1300 090/08 RMK AO2 T02560089
63870K0J4 0J420161107163010711/07/16 16:30:31  5-MIN K0J4 072130Z AUTO 08007KT 10SM CLR 26/09 A3021 50 34 1300 080/07 RMK AO2 T02560089
63870K0J4 0J420161107163510711/07/16 16:35:31  5-MIN K0J4 072135Z AUTO VRB05KT 10SM CLR 25/09 A3021 50 35 1300 VRB/05 RMK AO2 T02500089
63870K0J4 0J420161107164010711/07/16 16:40:31  5-MIN K0J4 072140Z AUTO VRB05KT 10SM CLR 25/09 A3021 50 35 1300 VRB/05 RMK AO2 T02500089
63870K0J4 0J420161107164510711/07/16 16:45:31  5-MIN K0J4 072145Z AUTO VRB05KT 10SM CLR 25/09 A3021 50 35 1300 VRB/05 RMK AO2 T02500089
63870K0J4 0J420161107165010711/07/16 16:50:31  5-MIN K0J4 072150Z AUTO 12006KT 10SM CLR 24/09 A3021 50 36 1200 120/06 RMK AO2 T02440089
63870K0J4 0J420161107165511411/07/16 16:55:31  5-MIN K0J4 072155Z AUTO 12006KT 10SM CLR 24/09 A3021 50 36 1200 120/06 RMK AO2 SLP227 T02440089
63870K0J4 0J420161107170010711/07/16 17:00:31  5-MIN K0J4 072200Z AUTO 12004KT 10SM CLR 24/09 A3021 50 36 1200 120/04 RMK AO2 T02440089
63870K0J4 0J420161107170510711/07/16 17:05:31  5-MIN K0J4 072205Z AUTO VRB03KT 10SM CLR 24/09 A3021 50 36 1200 VRB/03 RMK AO2 T02440089
63870K0J4 0J420161107171010711/07/16 17:10:31  5-MIN K0J4 072210Z AUTO 12003KT 10SM CLR 24/09 A3021 50 36 1200 120/03 RMK AO2 T02440089
63870K0J4 0J420161107171511011/07/16 17:15:31  5-MIN K0J4 072215Z AUTO 00000KT 10SM FEW065 24/09 A3021 50 38 1100 000/00 RMK AO2 T02390089
63870K0J4 0J420161107172011011/07/16 17:20:31  5-MIN K0J4 072220Z AUTO VRB03KT 10SM FEW065 24/09 A3021 50 39 1100 VRB/03 RMK AO2 T02390094
63870K0J4 0J420161107172510711/07/16 17:25:31  5-MIN K0J4 072225Z AUTO 08004KT 10SM CLR 23/09 A3021 50 41 1100 080/04 RMK AO2 T02330094
63870K0J4 0J420161107173010711/07/16 17:30:31  5-MIN K0J4 072230Z AUTO 08005KT 10SM CLR 23/09 A3021 50 41 1100 080/05 RMK AO2 T02330094
63870K0J4 0J420161107173510711/07/16 17:35:31  5-MIN K0J4 072235Z AUTO 08005KT 10SM CLR 23/09 A3021 50 42 1000 080/05 RMK AO2 T02280094
63870K0J4 0J420161107174010611/07/16 17:40:31  5-MIN K0J4 072240Z AUTO 06005KT 10SM CLR 22/09 A3021 50 42 900 060/05 RMK AO2 T02220089
63870K0J4 0J420161107174510611/07/16 17:45:31  5-MIN K0J4 072245Z AUTO 08003KT 10SM CLR 22/09 A3021 50 45 900 080/03 RMK AO2 T02170094
63870K0J4 0J420161107175010611/07/16 17:50:31  5-MIN K0J4 072250Z AUTO 07004KT 10SM CLR 22/09 A3021 50 42 900 070/04 RMK AO2 T02220089
63870K0J4 0J420161107175511311/07/16 17:55:31  5-MIN K0J4 072255Z AUTO 06003KT 10SM CLR 21/09 A3021 50 47 800 060/03 RMK AO2 SLP228 T02110094
63870K0J4 0J420161107180010611/07/16 18:00:31  5-MIN K0J4 072300Z AUTO 06003KT 10SM CLR 21/09 A3021 50 48 700 060/03 RMK AO2 T02060094
63870K0J4 0J420161107180510611/07/16 18:05:31  5-MIN K0J4 072305Z AUTO 07003KT 10SM CLR 20/09 A3021 40 50 700 070/03 RMK AO2 T02000094
63870K0J4 0J420161107181010611/07/16 18:10:31  5-MIN K0J4 072310Z AUTO 07004KT 10SM CLR 21/09 A3021 40 47 800 070/04 RMK AO2 T02110094
63870K0J4 0J420161107181510611/07/16 18:15:31  5-MIN K0J4 072315Z AUTO 06003KT 10SM CLR 21/09 A3021 40 48 700 060/03 RMK AO2 T02060094
63870K0J4 0J420161107182010611/07/16 18:20:31  5-MIN K0J4 072320Z AUTO 06003KT 10SM CLR 19/09 A3022 40 52 600 060/03 RMK AO2 T01940094
63870K0J4 0J420161107182510611/07/16 18:25:31  5-MIN K0J4 072325Z AUTO 06003KT 10SM CLR 19/09 A3022 40 52 600 060/03 RMK AO2 T01940094
63870K0J4 0J420161107183010611/07/16 18:30:31  5-MIN K0J4 072330Z AUTO 06003KT 10SM CLR 19/09 A3022 40 52 600 060/03 RMK AO2 T01940094
63870K0J4 0J420161107183510611/07/16 18:35:31  5-MIN K0J4 072335Z AUTO 00000KT 10SM CLR 19/09 A3022 40 54 500 000/00 RMK AO2 T01890094
63870K0J4 0J420161107184010611/07/16 18:40:31  5-MIN K0J4 072340Z AUTO 06003KT 10SM CLR 18/09 A3022 40 56 500 060/03 RMK AO2 T01830094
63870K0J4 0J420161107184510611/07/16 18:45:31  5-MIN K0J4 072345Z AUTO 06004KT 10SM CLR 18/09 A3022 40 56 500 060/04 RMK AO2 T01830094
63870K0J4 0J420161107185010611/07/16 18:50:31  5-MIN K0J4 072350Z AUTO 06003KT 10SM CLR 19/09 A3022 40 54 500 060/03 RMK AO2 T01890094
63870K0J4 0J420161107185513111/07/16 18:55:31  5-MIN K0J4 072355Z AUTO 06005KT 10SM CLR 19/09 A3022 40 54 500 060/05 RMK AO2 SLP232 T01890094 10267 20183 56013
63870K0J4 0J420161107190010611/07/16 19:00:31  5-MIN K0J4 080000Z AUTO 06003KT 10SM CLR 19/09 A3023 30 50 600 060/03 RMK AO2 T01940089
63870K0J4 0J420161107190510611/07/16 19:05:31  5-MIN K0J4 080005Z AUTO 06003KT 10SM CLR 19/09 A3023 30 52 500 060/03 RMK AO2 T01890089
63870K0J4 0J420161107191010611/07/16 19:10:31  5-MIN K0J4 080010Z AUTO 06003KT 10SM CLR 18/09 A3023 30 54 500 060/03 RMK AO2 T01830089
63870K0J4 0J420161107191510611/07/16 19:15:31  5-MIN K0J4 080015Z AUTO 06003KT 10SM CLR 18/09 A3023 30 54 500 060/03 RMK AO2 T01830089
63870K0J4 0J420161107192010611/07/16 19:20:31  5-MIN K0J4 080020Z AUTO 06005KT 10SM CLR 18/09 A3023 30 55 400 060/05 RMK AO2 T01780089
63870K0J4 0J420161107192510611/07/16 19:25:31  5-MIN K0J4 080025Z AUTO 06003KT 10SM CLR 19/09 A3023 30 52 500 060/03 RMK AO2 T01890089
63870K0J4 0J420161107193010611/07/16 19:30:31  5-MIN K0J4 080030Z AUTO 06004KT 10SM CLR 18/09 A3023 30 54 500 060/04 RMK AO2 T01830089
63870K0J4 0J420161107193510611/07/16 19:35:31  5-MIN K0J4 080035Z AUTO 06003KT 10SM CLR 18/09 A3023 30 55 400 060/03 RMK AO2 T01780089
63870K0J4 0J420161107194010611/07/16 19:40:31  5-MIN K0J4 080040Z AUTO 05003KT 10SM CLR 18/09 A3024 20 55 400 050/03 RMK AO2 T01780089
63870K0J4 0J420161107194510611/07/16 19:45:31  5-MIN K0J4 080045Z AUTO 06004KT 10SM CLR 17/09 A3024 20 57 300 060/04 RMK AO2 T01720089
63870K0J4 0J420161107195010611/07/16 19:50:31  5-MIN K0J4 080050Z AUTO 07005KT 10SM CLR 18/09 A3024 20 55 400 070/05 RMK AO2 T01780089
63870K0J4 0J420161107195511311/07/16 19:55:31  5-MIN K0J4 080055Z AUTO 06005KT 10SM CLR 18/09 A3024 20 54 500 060/05 RMK AO2 SLP238 T01830089
63870K0J4 0J420161107200010611/07/16 20:00:31  5-MIN K0J4 080100Z AUTO 06005KT 10SM CLR 18/08 A3024 20 52 500 060/05 RMK AO2 T01830083
63870K0J4 0J420161107200510611/07/16 20:05:31  5-MIN K0J4 080105Z AUTO 06006KT 10SM CLR 18/08 A3024 20 52 500 060/06 RMK AO2 T01830083
63870K0J4 0J420161107201010611/07/16 20:10:31  5-MIN K0J4 080110Z AUTO 06006KT 10SM CLR 18/08 A3025 20 52 500 060/06 RMK AO2 T01830083
63870K0J4 0J420161107201510611/07/16 20:15:31  5-MIN K0J4 080115Z AUTO 07006KT 10SM CLR 18/08 A3025 20 50 500 070/06 RMK AO2 T01830078
63870K0J4 0J420161107202010611/07/16 20:20:31  5-MIN K0J4 080120Z AUTO 07005KT 10SM CLR 18/08 A3025 20 50 500 070/05 RMK AO2 T01830078
63870K0J4 0J420161107202510611/07/16 20:25:31  5-MIN K0J4 080125Z AUTO 07005KT 10SM CLR 18/08 A3025 20 50 500 070/05 RMK AO2 T01830078
63870K0J4 0J420161107203010911/07/16 20:30:31  5-MIN K0J4 080130Z AUTO 07005KT 10SM FEW065 18/07 A3025 10 49 400 070/05 RMK AO2 T01780072
63870K0J4 0J420161107203510911/07/16 20:35:31  5-MIN K0J4 080135Z AUTO 07005KT 10SM FEW065 18/07 A3025 10 49 400 070/05 RMK AO2 T01780072
63870K0J4 0J420161107204010911/07/16 20:40:31  5-MIN K0J4 080140Z AUTO 07005KT 10SM FEW065 18/07 A3025 10 49 400 070/05 RMK AO2 T01780072
63870K0J4 0J420161107204510911/07/16 20:45:31  5-MIN K0J4 080145Z AUTO 06004KT 10SM FEW065 17/07 A3025 10 51 300 060/04 RMK AO2 T01720072
63870K0J4 0J420161107205010911/07/16 20:50:31  5-MIN K0J4 080150Z AUTO 07004KT 10SM FEW065 17/07 A3025 10 49 300 070/04 RMK AO2 T01720067
63870K0J4 0J420161107205511611/07/16 20:55:31  5-MIN K0J4 080155Z AUTO 07004KT 10SM FEW065 17/07 A3025 10 49 300 070/04 RMK AO2 SLP241 T01720067
63870K0J4 0J420161107210010611/07/16 21:00:31  5-MIN K0J4 080200Z AUTO 07004KT 10SM CLR 17/07 A3025 10 49 300 070/04 RMK AO2 T01720067
63870K0J4 0J420161107210510611/07/16 21:05:31  5-MIN K0J4 080205Z AUTO 07003KT 10SM CLR 17/07 A3025 10 51 200 070/03 RMK AO2 T01670067
63870K0J4 0J420161107211010611/07/16 21:10:31  5-MIN K0J4 080210Z AUTO 07004KT 10SM CLR 17/07 A3026 10 49 300 070/04 RMK AO2 T01720067
63870K0J4 0J420161107211510611/07/16 21:15:31  5-MIN K0J4 080215Z AUTO 07004KT 10SM CLR 17/06 A3026 10 47 300 070/04 RMK AO2 T01720061
63870K0J4 0J420161107212010611/07/16 21:20:31  5-MIN K0J4 080220Z AUTO 07004KT 10SM CLR 17/06 A3026 10 47 300 070/04 RMK AO2 T01720061
63870K0J4 0J420161107212510611/07/16 21:25:31  5-MIN K0J4 080225Z AUTO 07004KT 10SM CLR 17/06 A3025 10 47 300 070/04 RMK AO2 T01720061
63870K0J4 0J420161107213010611/07/16 21:30:31  5-MIN K0J4 080230Z AUTO 07004KT 10SM CLR 17/06 A3026 10 46 300 070/04 RMK AO2 T01720056
63870K0J4 0J420161107213510611/07/16 21:35:31  5-MIN K0J4 080235Z AUTO 07004KT 10SM CLR 17/06 A3026 10 46 300 070/04 RMK AO2 T01720056
63870K0J4 0J420161107214010611/07/16 21:40:31  5-MIN K0J4 080240Z AUTO 07005KT 10SM CLR 17/06 A3026 10 47 200 070/05 RMK AO2 T01670056
63870K0J4 0J420161107214510511/07/16 21:45:31  5-MIN K0J4 080245Z AUTO 05003KT 10SM CLR 17/06 A3026 0 47 200 050/03 RMK AO2 T01670056
63870K0J4 0J420161107215010511/07/16 21:50:31  5-MIN K0J4 080250Z AUTO 06004KT 10SM CLR 17/05 A3026 0 45 200 060/04 RMK AO2 T01670050
63870K0J4 0J420161107215511811/07/16 21:55:31  5-MIN K0J4 080255Z AUTO 07004KT 10SM CLR 16/05 A3026 0 47 200 070/04 RMK AO2 SLP244 T01610050 53005
63870K0J4 0J420161107220010511/07/16 22:00:31  5-MIN K0J4 080300Z AUTO 07004KT 10SM CLR 16/05 A3026 0 47 200 070/04 RMK AO2 T01610050
63870K0J4 0J420161107220510511/07/16 22:05:31  5-MIN K0J4 080305Z AUTO 06004KT 10SM CLR 16/05 A3026 0 47 200 060/04 RMK AO2 T01610050
63870K0J4 0J420161107221010511/07/16 22:10:31  5-MIN K0J4 080310Z AUTO 07005KT 10SM CLR 16/05 A3026 0 47 200 070/05 RMK AO2 T01610050
63870K0J4 0J420161107221510511/07/16 22:15:31  5-MIN K0J4 080315Z AUTO 07006KT 10SM CLR 17/05 A3026 0 45 200 070/06 RMK AO2 T01670050
63870K0J4 0J420161107222010511/07/16 22:20:31  5-MIN K0J4 080320Z AUTO 07004KT 10SM CLR 17/04 A3026 0 44 200 070/04 RMK AO2 T01670044
63870K0J4 0J420161107222510511/07/16 22:25:31  5-MIN K0J4 080325Z AUTO 06004KT 10SM CLR 16/04 A3026 0 45 200 060/04 RMK AO2 T01610044
63870K0J4 0J420161107223010511/07/16 22:30:31  5-MIN K0J4 080330Z AUTO 06006KT 10SM CLR 16/04 A3026 0 45 200 060/06 RMK AO2 T01610044
63870K0J4 0J420161107223510511/07/16 22:35:31  5-MIN K0J4 080335Z AUTO 05005KT 10SM CLR 16/04 A3026 0 45 200 050/05 RMK AO2 T01610044
63870K0J4 0J420161107224010511/07/16 22:40:31  5-MIN K0J4 080340Z AUTO 05004KT 10SM CLR 16/04 A3026 0 45 200 050/04 RMK AO2 T01610044
63870K0J4 0J420161107224510511/07/16 22:45:31  5-MIN K0J4 080345Z AUTO 05004KT 10SM CLR 16/04 A3026 0 45 200 050/04 RMK AO2 T01610044
63870K0J4 0J420161107225010511/07/16 22:50:31  5-MIN K0J4 080350Z AUTO 06004KT 10SM CLR 16/04 A3026 0 47 100 060/04 RMK AO2 T01560044
63870K0J4 0J420161107225511211/07/16 22:55:31  5-MIN K0J4 080355Z AUTO 07004KT 10SM CLR 16/04 A3026 0 47 100 070/04 RMK AO2 SLP244 T01560044
63870K0J4 0J420161107230010511/07/16 23:00:31  5-MIN K0J4 080400Z AUTO 07004KT 10SM CLR 16/04 A3026 0 47 100 070/04 RMK AO2 T01560044
63870K0J4 0J420161107230510511/07/16 23:05:31  5-MIN K0J4 080405Z AUTO 07005KT 10SM CLR 16/04 A3026 0 47 100 070/05 RMK AO2 T01560044
63870K0J4 0J420161107231010511/07/16 23:10:31  5-MIN K0J4 080410Z AUTO 07004KT 10SM CLR 16/04 A3026 0 44 200 070/04 RMK AO2 T01610039
63870K0J4 0J420161107231510511/07/16 23:15:31  5-MIN K0J4 080415Z AUTO 06005KT 10SM CLR 16/04 A3026 0 44 200 060/05 RMK AO2 T01610039
63870K0J4 0J420161107232010511/07/16 23:20:31  5-MIN K0J4 080420Z AUTO 07004KT 10SM CLR 16/04 A3026 0 44 200 070/04 RMK AO2 T01610039
63870K0J4 0J420161107232510511/07/16 23:25:31  5-MIN K0J4 080425Z AUTO 08006KT 10SM CLR 16/04 A3026 0 44 200 080/06 RMK AO2 T01610039
63870K0J4 0J420161107233010511/07/16 23:30:31  5-MIN K0J4 080430Z AUTO 06005KT 10SM CLR 17/04 A3026 0 42 200 060/05 RMK AO2 T01670039
63870K0J4 0J420161107233510811/07/16 23:35:31  5-MIN K0J4 080435Z AUTO 06004KT 10SM FEW070 16/04 A3026 0 44 200 060/04 RMK AO2 T01610039
63870K0J4 0J420161107234010811/07/16 23:40:31  5-MIN K0J4 080440Z AUTO 07005KT 10SM SCT065 16/04 A3026 0 44 200 070/05 RMK AO2 T01610039
63870K0J4 0J420161107234510811/07/16 23:45:31  5-MIN K0J4 080445Z AUTO 07005KT 10SM FEW065 16/04 A3026 0 44 200 070/05 RMK AO2 T01610039
63870K0J4 0J420161107235010811/07/16 23:50:31  5-MIN K0J4 080450Z AUTO 07005KT 10SM FEW065 16/04 A3026 0 44 200 070/05 RMK AO2 T01610039
63870K0J4 0J420161107235512611/07/16 23:55:31  5-MIN K0J4 080455Z AUTO 06005KT 10SM FEW065 16/04 A3026 10 44 200 060/05 RMK AO2 SLP242 T01610039 402670150
63870K0J4 0J420161108000010911/08/16 00:00:31  5-MIN K0J4 080500Z AUTO 07006KT 10SM FEW065 16/04 A3025 10 44 200 070/06 RMK AO2 T01610039
63870K0J4 0J420161108000510911/08/16 00:05:31  5-MIN K0J4 080505Z AUTO 07005KT 10SM FEW065 16/04 A3025 10 44 200 070/05 RMK AO2 T01610039
63870K0J4 0J420161108001010611/08/16 00:10:31  5-MIN K0J4 080510Z AUTO 07005KT 10SM CLR 16/04 A3025 10 44 200 070/05 RMK AO2 T01610039
63870K0J4 0J420161108001510611/08/16 00:15:31  5-MIN K0J4 080515Z AUTO 07006KT 10SM CLR 16/04 A3025 10 44 200 070/06 RMK AO2 T01610039
63870K0J4 0J420161108002010611/08/16 00:20:31  5-MIN K0J4 080520Z AUTO 08005KT 10SM CLR 16/04 A3025 10 44 200 080/05 RMK AO2 T01610039
63870K0J4 0J420161108002510611/08/16 00:25:31  5-MIN K0J4 080525Z AUTO 08005KT 10SM CLR 16/04 A3025 10 44 200 080/05 RMK AO2 T01610039
63870K0J4 0J420161108003010611/08/16 00:30:31  5-MIN K0J4 080530Z AUTO 08006KT 10SM CLR 16/04 A3025 10 45 200 080/06 RMK AO2 T01610044
63870K0J4 0J420161108003510611/08/16 00:35:31  5-MIN K0J4 080535Z AUTO 08006KT 10SM CLR 16/05 A3025 10 47 200 080/06 RMK AO2 T01610050
63870K0J4 0J420161108004010611/08/16 00:40:31  5-MIN K0J4 080540Z AUTO 08006KT 10SM CLR 16/05 A3025 10 47 200 080/06 RMK AO2 T01610050
63870K0J4 0J420161108004510611/08/16 00:45:31  5-MIN K0J4 080545Z AUTO 08006KT 10SM CLR 16/05 A3025 20 47 200 080/06 RMK AO2 T01610050
63870K0J4 0J420161108005010611/08/16 00:50:31  5-MIN K0J4 080550Z AUTO 09006KT 10SM CLR 16/06 A3025 20 49 200 090/06 RMK AO2 T01610056
63870K0J4 0J420161108005513111/08/16 00:55:31  5-MIN K0J4 080555Z AUTO 08005KT 10SM CLR 16/06 A3024 20 49 200 080/05 RMK AO2 SLP238 T01610056 10194 20156 51012
63870K0J4 0J420161108010010611/08/16 01:00:31  5-MIN K0J4 080600Z AUTO 09005KT 10SM CLR 16/06 A3024 20 49 200 090/05 RMK AO2 T01610056
63870K0J4 0J420161108010510611/08/16 01:05:31  5-MIN K0J4 080605Z AUTO 08005KT 10SM CLR 16/06 A3024 20 53 100 080/05 RMK AO2 T01560061
63870K0J4 0J420161108011010611/08/16 01:10:31  5-MIN K0J4 080610Z AUTO 08005KT 10SM CLR 16/06 A3024 20 53 100 080/05 RMK AO2 T01560061
63870K0J4 0J420161108011510611/08/16 01:15:31  5-MIN K0J4 080615Z AUTO 08004KT 10SM CLR 16/06 A3025 10 53 100 080/04 RMK AO2 T01560061
63870K0J4 0J420161108012010611/08/16 01:20:31  5-MIN K0J4 080620Z AUTO 08005KT 10SM CLR 16/07 A3025 10 55 100 080/05 RMK AO2 T01560067
63870K0J4 0J420161108012510611/08/16 01:25:31  5-MIN K0J4 080625Z AUTO 07005KT 10SM CLR 16/07 A3025 10 55 100 070/05 RMK AO2 T01560067
63870K0J4 0J420161108013010611/08/16 01:30:31  5-MIN K0J4 080630Z AUTO 07004KT 10SM CLR 17/07 A3025 10 51 300 070/04 RMK AO2 T01670067
63870K0J4 0J420161108013510611/08/16 01:35:31  5-MIN K0J4 080635Z AUTO 07005KT 10SM CLR 16/07 A3025 10 55 100 070/05 RMK AO2 T01560067
63870K0J4 0J420161108014010611/08/16 01:40:31  5-MIN K0J4 080640Z AUTO 07005KT 10SM CLR 16/07 A3025 20 57 100 070/05 RMK AO2 T01560072
63870K0J4 0J420161108014510611/08/16 01:45:31  5-MIN K0J4 080645Z AUTO 08005KT 10SM CLR 16/07 A3025 20 57 100 080/05 RMK AO2 T01560072
63870K0J4 0J420161108015010611/08/16 01:50:31  5-MIN K0J4 080650Z AUTO 09004KT 10SM CLR 16/07 A3024 20 57 100 090/04 RMK AO2 T01560072
63870K0J4 0J420161108015511311/08/16 01:55:31  5-MIN K0J4 080655Z AUTO 08004KT 10SM CLR 16/07 A3024 20 57 100 080/04 RMK AO2 SLP237 T01560072
63870K0J4 0J420161108020010611/08/16 02:00:31  5-MIN K0J4 080700Z AUTO 08004KT 10SM CLR 16/08 A3024 20 59 100 080/04 RMK AO2 T01560078
63870K0J4 0J420161108020510611/08/16 02:05:31  5-MIN K0J4 080705Z AUTO 08004KT 10SM CLR 15/08 A3024 20 62 100 080/04 RMK AO2 T01500078
63870K0J4 0J420161108021010611/08/16 02:10:31  5-MIN K0J4 080710Z AUTO 08005KT 10SM CLR 15/08 A3024 30 62 100 080/05 RMK AO2 T01500078
63870K0J4 0J420161108021510611/08/16 02:15:31  5-MIN K0J4 080715Z AUTO 09004KT 10SM CLR 15/08 A3024 20 62 100 090/04 RMK AO2 T01500078
63870K0J4 0J420161108022010611/08/16 02:20:31  5-MIN K0J4 080720Z AUTO 09004KT 10SM CLR 15/08 A3024 30 64 100 090/04 RMK AO2 T01500083
63870K0J4 0J420161108022510611/08/16 02:25:31  5-MIN K0J4 080725Z AUTO 09003KT 10SM CLR 15/08 A3024 20 64 100 090/03 RMK AO2 T01500083
63870K0J4 0J420161108023010611/08/16 02:30:31  5-MIN K0J4 080730Z AUTO 09004KT 10SM CLR 15/08 A3024 20 64 100 090/04 RMK AO2 T01500083
63870K0J4 0J420161108023510611/08/16 02:35:31  5-MIN K0J4 080735Z AUTO 10004KT 10SM CLR 15/08 A3024 20 64 100 100/04 RMK AO2 T01500083
63870K0J4 0J420161108024010611/08/16 02:40:31  5-MIN K0J4 080740Z AUTO 09005KT 10SM CLR 15/09 A3024 20 66 100 090/05 RMK AO2 T01500089
63870K0J4 0J420161108024510411/08/16 02:45:31  5-MIN K0J4 080745Z AUTO 08005KT 10SM CLR 14/09 A3024 20 69 0 080/05 RMK AO2 T01440089
63870K0J4 0J420161108025010611/08/16 02:50:31  5-MIN K0J4 080750Z AUTO 09003KT 10SM CLR 15/09 A3024 20 66 100 090/03 RMK AO2 T01500089
63870K0J4 0J420161108025511311/08/16 02:55:31  5-MIN K0J4 080755Z AUTO VRB03KT 10SM CLR 15/09 A3024 20 66 100 VRB/03 RMK AO2 SLP236 T01500089
63870K0J4 0J420161108030010611/08/16 03:00:31  5-MIN K0J4 080800Z AUTO 08004KT 10SM CLR 15/09 A3024 20 66 100 080/04 RMK AO2 T01500089
63870K0J4 0J420161108030510611/08/16 03:05:31  5-MIN K0J4 080805Z AUTO 08004KT 10SM CLR 15/09 A3024 20 69 100 080/04 RMK AO2 T01500094
63870K0J4 0J420161108031010611/08/16 03:10:31  5-MIN K0J4 080810Z AUTO 08004KT 10SM CLR 15/09 A3024 20 69 100 080/04 RMK AO2 T01500094
63870K0J4 0J420161108031510611/08/16 03:15:31  5-MIN K0J4 080815Z AUTO 08005KT 10SM CLR 15/09 A3024 20 69 100 080/05 RMK AO2 T01500094
63870K0J4 0J420161108032010611/08/16 03:20:31  5-MIN K0J4 080820Z AUTO 08005KT 10SM CLR 15/09 A3024 30 69 100 080/05 RMK AO2 T01500094
63870K0J4 0J420161108032510611/08/16 03:25:31  5-MIN K0J4 080825Z AUTO 08005KT 10SM CLR 15/09 A3024 20 69 100 080/05 RMK AO2 T01500094
63870K0J4 0J420161108033010611/08/16 03:30:31  5-MIN K0J4 080830Z AUTO 08005KT 10SM CLR 15/10 A3024 20 72 100 080/05 RMK AO2 T01500100
63870K0J4 0J420161108033510611/08/16 03:35:31  5-MIN K0J4 080835Z AUTO 08006KT 10SM CLR 15/10 A3024 20 72 100 080/06 RMK AO2 T01500100
63870K0J4 0J420161108034010611/08/16 03:40:31  5-MIN K0J4 080840Z AUTO 08005KT 10SM CLR 15/10 A3024 20 72 100 080/05 RMK AO2 T01500100
63870K0J4 0J420161108034510611/08/16 03:45:31  5-MIN K0J4 080845Z AUTO 09006KT 10SM CLR 15/10 A3024 20 72 100 090/06 RMK AO2 T01500100
63870K0J4 0J420161108035010611/08/16 03:50:31  5-MIN K0J4 080850Z AUTO 08005KT 10SM CLR 15/10 A3024 30 72 100 080/05 RMK AO2 T01500100
63870K0J4 0J420161108035511911/08/16 03:55:31  5-MIN K0J4 080855Z AUTO 08006KT 10SM CLR 15/10 A3023 30 72 100 080/06 RMK AO2 SLP234 T01500100 58005
63870K0J4 0J420161108040010611/08/16 04:00:31  5-MIN K0J4 080900Z AUTO 08006KT 10SM CLR 15/10 A3023 30 72 100 080/06 RMK AO2 T01500100
63870K0J4 0J420161108040510611/08/16 04:05:31  5-MIN K0J4 080905Z AUTO 09004KT 10SM CLR 15/10 A3023 30 72 100 090/04 RMK AO2 T01500100
63870K0J4 0J420161108041010611/08/16 04:10:31  5-MIN K0J4 080910Z AUTO VRB03KT 10SM CLR 15/10 A3023 30 72 100 VRB/03 RMK AO2 T01500100
63870K0J4 0J420161108041510611/08/16 04:15:31  5-MIN K0J4 080915Z AUTO 10005KT 10SM CLR 15/10 A3023 30 72 100 100/05 RMK AO2 T01500100
63870K0J4 0J420161108042010611/08/16 04:20:31  5-MIN K0J4 080920Z AUTO 08005KT 10SM CLR 15/10 A3023 30 72 100 080/05 RMK AO2 T01500100
63870K0J4 0J420161108042510611/08/16 04:25:31  5-MIN K0J4 080925Z AUTO 09004KT 10SM CLR 15/10 A3023 30 72 100 090/04 RMK AO2 T01500100
63870K0J4 0J420161108043010611/08/16 04:30:31  5-MIN K0J4 080930Z AUTO 10004KT 10SM CLR 15/10 A3023 30 72 100 100/04 RMK AO2 T01500100
63870K0J4 0J420161108043510611/08/16 04:35:31  5-MIN K0J4 080935Z AUTO 09005KT 10SM CLR 15/09 A3023 30 69 100 090/05 RMK AO2 T01500094
63870K0J4 0J420161108044010611/08/16 04:40:31  5-MIN K0J4 080940Z AUTO 09005KT 10SM CLR 15/09 A3023 30 69 100 090/05 RMK AO2 T01500094
63870K0J4 0J420161108044510611/08/16 04:45:31  5-MIN K0J4 080945Z AUTO 08006KT 10SM CLR 15/09 A3023 30 69 100 080/06 RMK AO2 T01500094
63870K0J4 0J420161108045010611/08/16 04:50:31  5-MIN K0J4 080950Z AUTO 07006KT 10SM CLR 15/09 A3023 30 69 100 070/06 RMK AO2 T01500094
63870K0J4 0J420161108045511311/08/16 04:55:31  5-MIN K0J4 080955Z AUTO 08006KT 10SM CLR 15/09 A3023 30 66 100 080/06 RMK AO2 SLP234 T01500089
63870K0J4 0J420161108050010611/08/16 05:00:31  5-MIN K0J4 081000Z AUTO 07006KT 10SM CLR 15/09 A3023 30 66 100 070/06 RMK AO2 T01500089
63870K0J4 0J420161108050510611/08/16 05:05:31  5-MIN K0J4 081005Z AUTO 08005KT 10SM CLR 15/09 A3024 30 66 100 080/05 RMK AO2 T01500089
63870K0J4 0J420161108051010711/08/16 05:10:31  5-MIN K0J4 081010Z AUTO 08004KT 10SM FEW065 14/09 A3024 20 69 0 080/04 RMK AO2 T01440089
63870K0J4 0J420161108051510711/08/16 05:15:31  5-MIN K0J4 081015Z AUTO 08005KT 10SM FEW065 14/09 A3024 20 69 0 080/05 RMK AO2 T01440089
63870K0J4 0J420161108052010411/08/16 05:20:31  5-MIN K0J4 081020Z AUTO 07006KT 10SM CLR 14/09 A3024 30 69 0 070/06 RMK AO2 T01440089
63870K0J4 0J420161108052510411/08/16 05:25:31  5-MIN K0J4 081025Z AUTO 07006KT 10SM CLR 14/09 A3023 30 69 0 070/06 RMK AO2 T01440089
63870K0J4 0J420161108053010411/08/16 05:30:31  5-MIN K0J4 081030Z AUTO 08006KT 10SM CLR 14/09 A3024 30 69 0 080/06 RMK AO2 T01440089
63870K0J4 0J420161108053510411/08/16 05:35:31  5-MIN K0J4 081035Z AUTO 08005KT 10SM CLR 14/08 A3024 30 66 0 080/05 RMK AO2 T01440083
63870K0J4 0J420161108054010411/08/16 05:40:31  5-MIN K0J4 081040Z AUTO 08006KT 10SM CLR 14/08 A3024 20 66 0 080/06 RMK AO2 T01440083
63870K0J4 0J420161108054510411/08/16 05:45:31  5-MIN K0J4 081045Z AUTO 08005KT 10SM CLR 14/08 A3024 20 66 0 080/05 RMK AO2 T01440083
63870K0J4 0J420161108055010411/08/16 05:50:31  5-MIN K0J4 081050Z AUTO 07006KT 10SM CLR 14/08 A3024 20 66 0 070/06 RMK AO2 T01440083
63870K0J4 0J420161108055511111/08/16 05:55:31  5-MIN K0J4 081055Z AUTO 07005KT 10SM CLR 14/08 A3024 20 66 0 070/05 RMK AO2 SLP238 T01440083
63870K0J4 0J420161108060010411/08/16 06:00:31  5-MIN K0J4 081100Z AUTO 06006KT 10SM CLR 14/08 A3024 20 66 0 060/06 RMK AO2 T01440083
63870K0J4 0J420161108060510411/08/16 06:05:31  5-MIN K0J4 081105Z AUTO 06004KT 10SM CLR 14/08 A3025 20 64 0 060/04 RMK AO2 T01440078
63870K0J4 0J420161108061010411/08/16 06:10:31  5-MIN K0J4 081110Z AUTO 06004KT 10SM CLR 14/08 A3024 20 64 0 060/04 RMK AO2 T01440078
63870K0J4 0J420161108061510411/08/16 06:15:31  5-MIN K0J4 081115Z AUTO 06004KT 10SM CLR 14/08 A3025 20 64 0 060/04 RMK AO2 T01440078
63870K0J4 0J420161108062010411/08/16 06:20:31  5-MIN K0J4 081120Z AUTO 07004KT 10SM CLR 14/08 A3025 10 66 0 070/04 RMK AO2 T01390078
63870K0J4 0J420161108062510711/08/16 06:25:31  5-MIN K0J4 081125Z AUTO 07005KT 10SM FEW065 14/08 A3025 10 66 0 070/05 RMK AO2 T01390078
63870K0J4 0J420161108063010711/08/16 06:30:31  5-MIN K0J4 081130Z AUTO 08006KT 10SM FEW065 14/08 A3025 10 66 0 080/06 RMK AO2 T01390078
63870K0J4 0J420161108063510411/08/16 06:35:31  5-MIN K0J4 081135Z AUTO 08006KT 10SM CLR 14/08 A3025 10 66 0 080/06 RMK AO2 T01390078
63870K0J4 0J420161108064010411/08/16 06:40:31  5-MIN K0J4 081140Z AUTO 08005KT 10SM CLR 14/08 A3025 10 66 0 080/05 RMK AO2 T01390078
63870K0J4 0J420161108064510711/08/16 06:45:31  5-MIN K0J4 081145Z AUTO 08006KT 10SM FEW070 14/07 A3025 10 64 0 080/06 RMK AO2 T01390072
63870K0J4 0J420161108065010711/08/16 06:50:31  5-MIN K0J4 081150Z AUTO 09005KT 10SM FEW070 14/07 A3025 10 61 0 090/05 RMK AO2 T01440072
63870K0J4 0J420161108065513211/08/16 06:55:31  5-MIN K0J4 081155Z AUTO 08007KT 10SM FEW065 14/07 A3025 20 61 0 080/07 RMK AO2 SLP240 T01440072 10167 20139 58004
63870K0J4 0J420161108070010711/08/16 07:00:31  5-MIN K0J4 081200Z AUTO 08007KT 10SM FEW065 14/07 A3025 20 61 0 080/07 RMK AO2 T01440072
63870K0J4 0J420161108070510711/08/16 07:05:31  5-MIN K0J4 081205Z AUTO 08006KT 10SM FEW070 14/07 A3025 20 61 0 080/06 RMK AO2 T01440072
63870K0J4 0J420161108071010711/08/16 07:10:31  5-MIN K0J4 081210Z AUTO 08006KT 10SM FEW070 14/07 A3025 20 59 0 080/06 RMK AO2 T01440067
63870K0J4 0J420161108071510411/08/16 07:15:31  5-MIN K0J4 081215Z AUTO 08004KT 10SM CLR 14/07 A3025 10 59 0 080/04 RMK AO2 T01440067
63870K0J4 0J420161108072010411/08/16 07:20:31  5-MIN K0J4 081220Z AUTO 08005KT 10SM CLR 14/07 A3025 10 59 0 080/05 RMK AO2 T01440067
63870K0J4 0J420161108072510411/08/16 07:25:31  5-MIN K0J4 081225Z AUTO VRB04KT 10SM CLR 14/07 A3025 10 59 0 VRB/04 RMK AO2 T01440067
63870K0J4 0J420161108073010711/08/16 07:30:31  5-MIN K0J4 081230Z AUTO 07006KT 10SM FEW060 14/07 A3025 10 59 0 070/06 RMK AO2 T01440067
63870K0J4 0J420161108073510711/08/16 07:35:31  5-MIN K0J4 081235Z AUTO 06007KT 10SM FEW060 14/07 A3025 10 59 0 060/07 RMK AO2 T01440067
63870K0J4 0J420161108074010411/08/16 07:40:31  5-MIN K0J4 081240Z AUTO 07005KT 10SM CLR 14/07 A3026 10 59 0 070/05 RMK AO2 T01440067
63870K0J4 0J420161108074510711/08/16 07:45:31  5-MIN K0J4 081245Z AUTO 08003KT 10SM FEW060 14/07 A3026 10 59 0 080/03 RMK AO2 T01440067
63870K0J4 0J420161108075010611/08/16 07:50:31  5-MIN K0J4 081250Z AUTO 08004KT 10SM FEW060 14/07 A3026 0 59 0 080/04 RMK AO2 T01440067
63870K0J4 0J420161108075511311/08/16 07:55:31  5-MIN K0J4 081255Z AUTO 08004KT 10SM SCT060 14/07 A3026 0 59 0 080/04 RMK AO2 SLP245 T01440067
63870K0J4 0J420161108080010611/08/16 08:00:31  5-MIN K0J4 081300Z AUTO 07005KT 10SM SCT060 14/07 A3026 0 59 0 070/05 RMK AO2 T01440067
63870K0J4 0J420161108080510611/08/16 08:05:31  5-MIN K0J4 081305Z AUTO 07004KT 10SM FEW060 14/07 A3026 0 61 0 070/04 RMK AO2 T01440072
63870K0J4 0J420161108081010611/08/16 08:10:31  5-MIN K0J4 081310Z AUTO 08004KT 10SM FEW060 14/07 A3026 0 61 0 080/04 RMK AO2 T01440072
63870K0J4 0J420161108081510611/08/16 08:15:31  5-MIN K0J4 081315Z AUTO 08003KT 10SM FEW060 14/07 A3027 0 61 0 080/03 RMK AO2 T01440072
63870K0J4 0J420161108082010611/08/16 08:20:31  5-MIN K0J4 081320Z AUTO 08004KT 10SM FEW060 14/07 A3027 0 61 0 080/04 RMK AO2 T01440072
63870K0J4 0J420161108082510311/08/16 08:25:31  5-MIN K0J4 081325Z AUTO 07005KT 10SM CLR 14/07 A3027 0 61 0 070/05 RMK AO2 T01440072
63870K0J4 0J420161108083010311/08/16 08:30:31  5-MIN K0J4 081330Z AUTO 07005KT 10SM CLR 14/07 A3027 0 61 0 070/05 RMK AO2 T01440072
63870K0J4 0J420161108083510311/08/16 08:35:31  5-MIN K0J4 081335Z AUTO 07005KT 10SM CLR 14/07 A3027 0 61 0 070/05 RMK AO2 T01440072
63870K0J4 0J420161108084010311/08/16 08:40:31  5-MIN K0J4 081340Z AUTO 07006KT 10SM CLR 14/07 A3027 0 61 0 070/06 RMK AO2 T01440072
63870K0J4 0J420161108084510311/08/16 08:45:31  5-MIN K0J4 081345Z AUTO 07006KT 10SM CLR 14/07 A3027 0 61 0 070/06 RMK AO2 T01440072
63870K0J4 0J420161108085010311/08/16 08:50:31  5-MIN K0J4 081350Z AUTO 08006KT 10SM CLR 14/07 A3027 0 61 0 080/06 RMK AO2 T01440072
63870K0J4 0J420161108085511011/08/16 08:55:31  5-MIN K0J4 081355Z AUTO 07006KT 10SM CLR 14/07 A3027 0 61 0 070/06 RMK AO2 SLP247 T01440072
63870K0J4 0J420161108090010311/08/16 09:00:31  5-MIN K0J4 081400Z AUTO 07007KT 10SM CLR 14/07 A3027 0 61 0 070/07 RMK AO2 T01440072
63870K0J4 0J420161108090510311/08/16 09:05:31  5-MIN K0J4 081405Z AUTO 07007KT 10SM CLR 14/07 A3027 0 61 0 070/07 RMK AO2 T01440072
63870K0J4 0J420161108091010611/08/16 09:10:31  5-MIN K0J4 081410Z AUTO 08008KT 10SM FEW075 15/07 A3027 0 59 0 080/08 RMK AO2 T01500072
63870K0J4 0J420161108091510611/08/16 09:15:31  5-MIN K0J4 081415Z AUTO 08008KT 10SM SCT075 15/07 A3027 0 59 0 080/08 RMK AO2 T01500072
63870K0J4 0J420161108092010611/08/16 09:20:31  5-MIN K0J4 081420Z AUTO 08006KT 10SM SCT075 15/07 A3026 0 59 0 080/06 RMK AO2 T01500072
63870K0J4 0J420161108092510611/08/16 09:25:31  5-MIN K0J4 081425Z AUTO 07006KT 10SM SCT075 15/07 A3026 0 59 0 070/06 RMK AO2 T01500072
63870K0J4 0J420161108093010611/08/16 09:30:31  5-MIN K0J4 081430Z AUTO 08007KT 10SM FEW075 15/07 A3026 0 59 0 080/07 RMK AO2 T01500072
63870K0J4 0J420161108093510611/08/16 09:35:31  5-MIN K0J4 081435Z AUTO 08008KT 10SM FEW075 15/07 A3026 0 59 0 080/08 RMK AO2 T01500072
63870K0J4 0J420161108094010811/08/16 09:40:31  5-MIN K0J4 081440Z AUTO 08008KT 10SM FEW075 16/08 A3026 0 59 100 080/08 RMK AO2 T01560078
63870K0J4 0J420161108094510811/08/16 09:45:31  5-MIN K0J4 081445Z AUTO 08005KT 10SM FEW075 16/08 A3026 0 59 100 080/05 RMK AO2 T01560078
63870K0J4 0J420161108095010811/08/16 09:50:31  5-MIN K0J4 081450Z AUTO 08008KT 10SM FEW075 16/08 A3026 0 59 100 080/08 RMK AO2 T01560078
63870K0J4 0J420161108095512111/08/16 09:55:31  5-MIN K0J4 081455Z AUTO 08007KT 10SM SCT075 16/08 A3026 0 59 100 080/07 RMK AO2 SLP245 T01560078 53005
63870K0J4 0J420161108100010911/08/16 10:00:31  5-MIN K0J4 081500Z AUTO 09008KT 10SM SCT075 16/08 A3026 10 59 100 090/08 RMK AO2 T01560078
63870K0J4 0J420161108100510811/08/16 10:05:31  5-MIN K0J4 081505Z AUTO 09007KT 10SM FEW075 16/08 A3026 0 59 100 090/07 RMK AO2 T01560078
63870K0J4 0J420161108101010811/08/16 10:10:31  5-MIN K0J4 081510Z AUTO 08007KT 10SM FEW075 16/08 A3026 0 59 100 080/07 RMK AO2 T01560078
63870K0J4 0J420161108101510811/08/16 10:15:31  5-MIN K0J4 081515Z AUTO VRB04KT 10SM FEW075 16/08 A3027 0 57 200 VRB/04 RMK AO2 T01610078
63870K0J4 0J420161108102010811/08/16 10:20:31  5-MIN K0J4 081520Z AUTO 08005KT 10SM FEW075 16/08 A3027 0 57 200 080/05 RMK AO2 T01610078
63870K0J4 0J420161108102510811/08/16 10:25:31  5-MIN K0J4 081525Z AUTO 08005KT 10SM FEW075 17/08 A3027 0 57 200 080/05 RMK AO2 T01670083
63870K0J4 0J420161108103010511/08/16 10:30:31  5-MIN K0J4 081530Z AUTO 08007KT 10SM CLR 17/08 A3027 0 57 200 080/07 RMK AO2 T01670083
63870K0J4 0J420161108103510511/08/16 10:35:31  5-MIN K0J4 081535Z AUTO 08005KT 10SM CLR 17/08 A3027 0 55 200 080/05 RMK AO2 T01670078
63870K0J4 0J420161108104010511/08/16 10:40:31  5-MIN K0J4 081540Z AUTO 08006KT 10SM CLR 17/08 A3027 0 57 200 080/06 RMK AO2 T01670083
63870K0J4 0J420161108104510511/08/16 10:45:31  5-MIN K0J4 081545Z AUTO 09004KT 10SM CLR 17/08 A3027 0 57 200 090/04 RMK AO2 T01670083
63870K0J4 0J420161108105010511/08/16 10:50:31  5-MIN K0J4 081550Z AUTO 07005KT 10SM CLR 17/08 A3027 0 57 200 070/05 RMK AO2 T01670083
63870K0J4 0J420161108105511211/08/16 10:55:31  5-MIN K0J4 081555Z AUTO 08006KT 10SM CLR 17/08 A3027 0 57 200 080/06 RMK AO2 SLP246 T01670083
63870K0J4 0J420161108110010511/08/16 11:00:31  5-MIN K0J4 081600Z AUTO 10004KT 10SM CLR 17/08 A3026 0 57 200 100/04 RMK AO2 T01670083
63870K0J4 0J420161108110510511/08/16 11:05:31  5-MIN K0J4 081605Z AUTO 09005KT 10SM CLR 17/08 A3026 0 55 300 090/05 RMK AO2 T01720083
63870K0J4 0J420161108111010511/08/16 11:10:31  5-MIN K0J4 081610Z AUTO 11003KT 10SM CLR 17/08 A3026 0 57 200 110/03 RMK AO2 T01670083
63870K0J4 0J420161108111510511/08/16 11:15:31  5-MIN K0J4 081615Z AUTO 10003KT 10SM CLR 17/08 A3026 0 55 300 100/03 RMK AO2 T01720083
63870K0J4 0J420161108112010511/08/16 11:20:31  5-MIN K0J4 081620Z AUTO 08005KT 10SM CLR 17/08 A3026 0 55 300 080/05 RMK AO2 T01720083
63870K0J4 0J420161108112510511/08/16 11:25:31  5-MIN K0J4 081625Z AUTO 09006KT 10SM CLR 17/08 A3026 0 57 200 090/06 RMK AO2 T01670083
63870K0J4 0J420161108113010611/08/16 11:30:31  5-MIN K0J4 081630Z AUTO 10004KT 10SM CLR 17/08 A3026 10 57 200 100/04 RMK AO2 T01670083
63870K0J4 0J420161108113510611/08/16 11:35:31  5-MIN K0J4 081635Z AUTO 09004KT 10SM CLR 17/09 A3025 10 57 300 090/04 RMK AO2 T01720089
63870K0J4 0J420161108114010611/08/16 11:40:31  5-MIN K0J4 081640Z AUTO 11003KT 10SM CLR 17/09 A3025 10 57 300 110/03 RMK AO2 T01720089
63870K0J4 0J420161108114510911/08/16 11:45:31  5-MIN K0J4 081645Z AUTO 09004KT 10SM FEW110 17/09 A3025 10 57 300 090/04 RMK AO2 T01720089
63870K0J4 0J420161108115010911/08/16 11:50:31  5-MIN K0J4 081650Z AUTO 08005KT 10SM SCT110 17/09 A3024 20 60 300 080/05 RMK AO2 T01670089
63870K0J4 0J420161108115512311/08/16 11:55:31  5-MIN K0J4 081655Z AUTO VRB03KT 10SM FEW080 BKN100 17/09 A3024 20 57 300 VRB/03 RMK AO2 SLP238 T01720089
63870K0J4 0J420161108120012311/08/16 12:00:31  5-MIN K0J4 081700Z AUTO 09004KT 10SM FEW070 BKN090 BKN110 17/09 A3024 20 57 300 090/04 RMK AO2 T01720089
63870K0J4 0J420161108120512311/08/16 12:05:31  5-MIN K0J4 081705Z AUTO 09006KT 10SM FEW055 SCT070 BKN090 17/09 A3024 30 57 300 090/06 RMK AO2 T01720089
63870K0J4 0J420161108121012311/08/16 12:10:31  5-MIN K0J4 081710Z AUTO 09006KT 10SM FEW070 SCT100 BKN120 17/09 A3023 30 57 300 090/06 RMK AO2 T01720089
63870K0J4 0J420161108121512311/08/16 12:15:31  5-MIN K0J4 081715Z AUTO 09005KT 10SM FEW070 SCT095 SCT110 17/09 A3023 30 57 300 090/05 RMK AO2 T01720089
63870K0J4 0J420161108122012311/08/16 12:20:31  5-MIN K0J4 081720Z AUTO 07005KT 10SM FEW070 FEW090 SCT120 17/09 A3023 30 57 300 070/05 RMK AO2 T01720089
63870K0J4 0J420161108122511611/08/16 12:25:31  5-MIN K0J4 081725Z AUTO 07007KT 10SM FEW070 BKN110 17/09 A3023 30 57 300 070/07 RMK AO2 T01720089
63870K0J4 0J420161108123011611/08/16 12:30:31  5-MIN K0J4 081730Z AUTO 07006KT 10SM SCT100 BKN120 17/09 A3022 40 57 300 070/06 RMK AO2 T01720089
63870K0J4 0J420161108123511611/08/16 12:35:31  5-MIN K0J4 081735Z AUTO 07005KT 10SM BKN100 BKN120 17/09 A3022 40 57 400 070/05 RMK AO2 T01720089
63870K0J4 0J420161108124013211/08/16 12:40:31  5-MIN K0J4 081740Z AUTO 08005KT 10SM -RA BKN100 BKN120 17/09 A3022 40 60 400 080/05 RMK AO2 RAB40 P0000 T01720094
63870K0J4 0J420161108124513211/08/16 12:45:31  5-MIN K0J4 081745Z AUTO 08005KT 10SM -RA BKN100 OVC120 17/09 A3022 40 60 400 080/05 RMK AO2 RAB40 P0000 T01720094
63870K0J4 0J420161108125012511/08/16 12:50:31  5-MIN K0J4 081750Z AUTO 07004KT 10SM -RA OVC100 17/09 A3021 50 60 400 070/04 RMK AO2 RAB40 P0000 T01720094
63870K0J4 0J420161108125516311/08/16 12:55:31  5-MIN K0J4 081755Z AUTO 08005KT 10SM -RA FEW080 OVC100 17/09 A3021 50 62 300 080/05 RMK AO2 RAB40 SLP228 P0000 60000 T01670094 10172 20139 50005
63870K0J4 0J420161108130012611/08/16 13:00:31  5-MIN K0J4 081800Z AUTO 07004KT 10SM -RA FEW080 OVC100 17/10 A3021 50 64 300 070/04 RMK AO2 P0000 T01670100
63870K0J4 0J420161108130511911/08/16 13:05:31  5-MIN K0J4 081805Z AUTO 07005KT 10SM -RA OVC100 17/10 A3021 50 64 300 070/05 RMK AO2 P0000 T01670100
63870K0J4 0J420161108131011911/08/16 13:10:31  5-MIN K0J4 081810Z AUTO 06004KT 10SM -RA OVC100 17/11 A3020 60 67 300 060/04 RMK AO2 P0000 T01670106
63870K0J4 0J420161108131511911/08/16 13:15:31  5-MIN K0J4 081815Z AUTO 07004KT 10SM -RA OVC100 17/11 A3020 60 69 300 070/04 RMK AO2 P0000 T01670111
63870K0J4 0J420161108132012611/08/16 13:20:31  5-MIN K0J4 081820Z AUTO 06005KT 10SM -RA FEW055 OVC100 17/11 A3020 60 69 300 060/05 RMK AO2 P0000 T01670111
63870K0J4 0J420161108132512611/08/16 13:25:31  5-MIN K0J4 081825Z AUTO 06006KT 10SM -RA SCT050 BKN100 17/11 A3020 60 67 400 060/06 RMK AO2 P0000 T01720111
63870K0J4 0J420161108133013311/08/16 13:30:31  5-MIN K0J4 081830Z AUTO 06005KT 10SM -RA SCT044 SCT060 BKN100 18/11 A3020 60 64 400 060/05 RMK AO2 P0000 T01780111
63870K0J4 0J420161108133513311/08/16 13:35:31  5-MIN K0J4 081835Z AUTO 07005KT 10SM -RA SCT046 SCT075 OVC100 18/11 A3019 60 64 400 070/05 RMK AO2 P0000 T01780111
63870K0J4 0J420161108134013311/08/16 13:40:31  5-MIN K0J4 081840Z AUTO 08005KT 10SM -RA BKN042 BKN060 OVC100 18/11 A3020 60 62 400 080/05 RMK AO2 P0000 T01780106
63870K0J4 0J420161108134513311/08/16 13:45:31  5-MIN K0J4 081845Z AUTO 08004KT 10SM -RA SCT042 BKN049 BKN060 18/11 A3019 60 62 400 080/04 RMK AO2 P0000 T01780106
63870K0J4 0J420161108135013311/08/16 13:50:31  5-MIN K0J4 081850Z AUTO 07006KT 10SM -RA SCT040 SCT100 BKN110 18/11 A3019 70 62 400 070/06 RMK AO2 P0000 T01780106
63870K0J4 0J420161108135514211/08/16 13:55:31  5-MIN K0J4 081855Z AUTO 08006KT 10SM FEW040 SCT100 SCT110 18/11 A3019 70 62 500 080/06 RMK AO2 RAE52 SLP220 P0000 T01780106
63870K0J4 0J420161108140011611/08/16 14:00:31  5-MIN K0J4 081900Z AUTO 09004KT 10SM FEW038 FEW047 18/11 A3019 70 62 500 090/04 RMK AO2 T01780106
63870K0J4 0J420161108140511611/08/16 14:05:31  5-MIN K0J4 081905Z AUTO 05005KT 10SM FEW039 FEW120 18/11 A3019 70 62 400 050/05 RMK AO2 T01780106
63870K0J4 0J420161108141010911/08/16 14:10:31  5-MIN K0J4 081910Z AUTO 06005KT 10SM SCT110 18/11 A3019 70 62 500 060/05 RMK AO2 T01780106
63870K0J4 0J420161108141513211/08/16 14:15:31  5-MIN K0J4 081915Z AUTO 07004KT 10SM -RA SCT100 BKN120 18/11 A3019 70 62 400 070/04 RMK AO2 RAB14 P0000 T01780106
63870K0J4 0J420161108142013911/08/16 14:20:31  5-MIN K0J4 081920Z AUTO 03005KT 10SM -RA FEW070 SCT095 BKN120 18/11 A3019 70 64 500 030/05 RMK AO2 RAB14 P0000 T01780111
63870K0J4 0J420161108142513911/08/16 14:25:31  5-MIN K0J4 081925Z AUTO 05006KT 10SM -RA SCT048 SCT070 BKN095 18/11 A3019 70 64 500 050/06 RMK AO2 RAB14 P0000 T01780111
63870K0J4 0J420161108143013911/08/16 14:30:31  5-MIN K0J4 081930Z AUTO 05006KT 10SM -RA FEW040 SCT050 BKN110 18/11 A3018 70 64 500 050/06 RMK AO2 RAB14 P0000 T01780111
63870K0J4 0J420161108143513911/08/16 14:35:31  5-MIN K0J4 081935Z AUTO 06006KT 10SM -RA FEW044 SCT070 BKN100 18/11 A3018 80 64 500 060/06 RMK AO2 RAB14 P0000 T01780111
63870K0J4 0J420161108144013811/08/16 14:40:31  5-MIN K0J4 081940Z AUTO 07006KT 10SM FEW046 BKN100 OVC120 18/11 A3018 80 62 500 070/06 RMK AO2 RAB14E39 P0000 T01830111
63870K0J4 0J420161108144513911/08/16 14:45:31  5-MIN K0J4 081945Z AUTO 07006KT 10SM -RA SCT050 BKN070 OVC100 18/11 A3017 80 64 500 070/06 RMK AO2 RAB14 P0000 T01780111
63870K0J4 0J420161108145013911/08/16 14:50:31  5-MIN K0J4 081950Z AUTO 07006KT 10SM -RA SCT042 BKN050 OVC100 18/11 A3017 80 64 500 070/06 RMK AO2 RAB14 P0000 T01780111
63870K0J4 0J420161108145514611/08/16 14:55:31  5-MIN K0J4 081955Z AUTO 06006KT 10SM -RA FEW040 SCT050 OVC100 18/11 A3017 80 64 500 060/06 RMK AO2 RAB14 SLP215 P0000 T01780111
63870K0J4 0J420161108150013311/08/16 15:00:31  5-MIN K0J4 082000Z AUTO 07006KT 10SM -RA FEW050 BKN090 OVC110 18/11 A3017 80 64 500 070/06 RMK AO2 P0000 T01780111
63870K0J4 0J420161108150513311/08/16 15:05:31  5-MIN K0J4 082005Z AUTO 05006KT 10SM -RA SCT050 BKN070 OVC110 18/12 A3018 80 67 500 050/06 RMK AO2 P0000 T01780117
63870K0J4 0J420161108151013311/08/16 15:10:31  5-MIN K0J4 082010Z AUTO 05004KT 10SM -RA SCT045 BKN060 OVC120 18/11 A3018 80 64 500 050/04 RMK AO2 P0000 T01780111
63870K0J4 0J420161108151513311/08/16 15:15:31  5-MIN K0J4 082015Z AUTO 06005KT 10SM -RA FEW041 SCT055 BKN110 18/11 A3018 80 64 500 060/05 RMK AO2 P0000 T01780111
63870K0J4 0J420161108152013511/08/16 15:20:31  5-MIN K0J4 082020Z AUTO 06007KT 10SM FEW045 FEW090 BKN110 18/11 A3018 80 64 500 060/07 RMK AO2 RAE17 P0000 T01780111
63870K0J4 0J420161108152512811/08/16 15:25:31  5-MIN K0J4 082025Z AUTO 04006KT 10SM FEW045 BKN110 18/11 A3018 80 62 500 040/06 RMK AO2 RAE17 P0000 T01830111
63870K0J4 0J420161108153012811/08/16 15:30:31  5-MIN K0J4 082030Z AUTO 05005KT 10SM FEW042 SCT110 18/11 A3018 80 62 500 050/05 RMK AO2 RAE17 P0000 T01830111
63870K0J4 0J420161108153512111/08/16 15:35:31  5-MIN K0J4 082035Z AUTO 06007KT 10SM FEW110 18/11 A3018 80 60 500 060/07 RMK AO2 RAE17 P0000 T01830106
63870K0J4 0J420161108192012211/08/16 19:20:31  5-MIN K0J4 090020Z AUTO 04003KT 10SM -RA CLR 14/11 A3018 80 77 100 040/03 RMK AO2 RAB14 P0000 T01440106
63870K0J4 0J420161108192512411/08/16 19:25:31  5-MIN K0J4 090025Z AUTO 03004KT 10SM FEW095 15/11 A3018 80 74 100 030/04 RMK AO2 RAB14E23 P0000 T01500106
63870K0J4 0J420161108193012411/08/16 19:30:31  5-MIN K0J4 090030Z AUTO 03004KT 10SM FEW095 15/11 A3018 80 77 100 030/04 RMK AO2 RAB14E23 P0000 T01500111
63870K0J4 0J420161108193512111/08/16 19:35:31  5-MIN K0J4 090035Z AUTO 02004KT 10SM CLR 15/11 A3018 80 74 100 020/04 RMK AO2 RAB14E23 P0000 T01500106
63870K0J4 0J420161108194012111/08/16 19:40:31  5-MIN K0J4 090040Z AUTO 03004KT 10SM CLR 15/11 A3018 80 74 100 030/04 RMK AO2 RAB14E23 P0000 T01500106
63870K0J4 0J420161108194512111/08/16 19:45:31  5-MIN K0J4 090045Z AUTO 03005KT 10SM CLR 14/11 A3018 80 77 100 030/05 RMK AO2 RAB14E23 P0000 T01440106
63870K0J4 0J420161108195012111/08/16 19:50:31  5-MIN K0J4 090050Z AUTO 03005KT 10SM CLR 14/11 A3018 80 77 100 030/05 RMK AO2 RAB14E23 P0000 T01440106
63870K0J4 0J420161108195512811/08/16 19:55:31  5-MIN K0J4 090055Z AUTO 04005KT 10SM CLR 14/11 A3018 80 77 100 040/05 RMK AO2 RAB14E23 SLP217 P0000 T01440106
63870K0J4 0J420161108200010611/08/16 20:00:31  5-MIN K0J4 090100Z AUTO 04004KT 10SM CLR 15/11 A3018 80 74 100 040/04 RMK AO2 T01500106
63870K0J4 0J420161108200510611/08/16 20:05:31  5-MIN K0J4 090105Z AUTO 04005KT 10SM CLR 15/11 A3018 80 74 100 040/05 RMK AO2 T01500106
63870K0J4 0J420161108201010611/08/16 20:10:31  5-MIN K0J4 090110Z AUTO 04005KT 10SM CLR 15/11 A3018 80 74 100 040/05 RMK AO2 T01500106
63870K0J4 0J420161108202009911/08/16 20:20:31  5-MIN K0J4 090120Z AUTO 04004KT 15/11 A3018 80 74 100 040/04 RMK AO2 T01500106 $
63870K0J4 0J420161108202510411/08/16 20:25:31  5-MIN K0J4 090125Z AUTO 04004KT 10SM 15/11 A3018 80 74 100 040/04 RMK AO2 T01500106 $
63870K0J4 0J420161108203010411/08/16 20:30:31  5-MIN K0J4 090130Z AUTO 04004KT 10SM 15/11 A3018 80 74 100 040/04 RMK AO2 T01500106 $
63870K0J4 0J420161108203510411/08/16 20:35:31  5-MIN K0J4 090135Z AUTO 04005KT 10SM 15/10 A3018 80 72 100 040/05 RMK AO2 T01500100 $
63870K0J4 0J420161108204010411/08/16 20:40:31  5-MIN K0J4 090140Z AUTO 04005KT 10SM 15/10 A3018 80 72 100 040/05 RMK AO2 T01500100 $
63870K0J4 0J420161108204510811/08/16 20:45:31  5-MIN K0J4 090145Z AUTO 05004KT 10SM CLR 15/10 A3018 80 72 100 050/04 RMK AO2 T01500100 $
63870K0J4 0J420161108205010811/08/16 20:50:31  5-MIN K0J4 090150Z AUTO 04004KT 10SM CLR 14/10 A3017 80 74 100 040/04 RMK AO2 T01440100 $
63870K0J4 0J420161108205511511/08/16 20:55:31  5-MIN K0J4 090155Z AUTO 04004KT 10SM CLR 14/10 A3017 80 74 100 040/04 RMK AO2 SLP216 T01440100 $
63870K0J4 0J420161108210011111/08/16 21:00:31  5-MIN K0J4 090200Z AUTO 04003KT 10SM FEW090 14/10 A3018 80 74 100 040/03 RMK AO2 T01440100 $
63870K0J4 0J420161108210511111/08/16 21:05:31  5-MIN K0J4 090205Z AUTO 04003KT 10SM SCT090 15/10 A3018 80 72 100 040/03 RMK AO2 T01500100 $
63870K0J4 0J420161108211011111/08/16 21:10:31  5-MIN K0J4 090210Z AUTO 03004KT 10SM BKN090 15/10 A3018 80 72 100 030/04 RMK AO2 T01500100 $
63870K0J4 0J420161108211511111/08/16 21:15:31  5-MIN K0J4 090215Z AUTO 04004KT 10SM BKN090 15/10 A3018 80 72 100 040/04 RMK AO2 T01500100 $
63870K0J4 0J420161108212011111/08/16 21:20:31  5-MIN K0J4 090220Z AUTO 04004KT 10SM BKN090 15/10 A3017 80 72 100 040/04 RMK AO2 T01500100 $
63870K0J4 0J420161108212511111/08/16 21:25:31  5-MIN K0J4 090225Z AUTO 03003KT 10SM BKN090 15/10 A3017 80 72 100 030/03 RMK AO2 T01500100 $
63870K0J4 0J420161108213011111/08/16 21:30:31  5-MIN K0J4 090230Z AUTO 04004KT 10SM BKN090 15/10 A3017 80 72 100 040/04 RMK AO2 T01500100 $
63870K0J4 0J420161108213511111/08/16 21:35:31  5-MIN K0J4 090235Z AUTO 04004KT 10SM BKN090 15/09 A3017 80 69 100 040/04 RMK AO2 T01500094 $
63870K0J4 0J420161108214011111/08/16 21:40:31  5-MIN K0J4 090240Z AUTO 05003KT 10SM BKN090 15/09 A3017 80 69 100 050/03 RMK AO2 T01500094 $
63870K0J4 0J420161108214511111/08/16 21:45:31  5-MIN K0J4 090245Z AUTO 05003KT 10SM BKN090 15/09 A3017 80 69 100 050/03 RMK AO2 T01500094 $
63870K0J4 0J420161108215011111/08/16 21:50:31  5-MIN K0J4 090250Z AUTO 05004KT 10SM BKN090 15/09 A3017 80 69 100 050/04 RMK AO2 T01500094 $
63870K0J4 0J420161108215512411/08/16 21:55:31  5-MIN K0J4 090255Z AUTO 05004KT 10SM SCT090 15/09 A3017 80 69 100 050/04 RMK AO2 SLP215 60000 T01500094 $
63870K0J4 0J420161108220011111/08/16 22:00:31  5-MIN K0J4 090300Z AUTO 04004KT 10SM SCT090 15/09 A3017 80 69 100 040/04 RMK AO2 T01500094 $
63870K0J4 0J420161108220511111/08/16 22:05:31  5-MIN K0J4 090305Z AUTO 04004KT 10SM FEW090 14/09 A3017 90 72 100 040/04 RMK AO2 T01440094 $
63870K0J4 0J420161108221011111/08/16 22:10:31  5-MIN K0J4 090310Z AUTO 06005KT 10SM FEW090 14/09 A3017 90 72 100 060/05 RMK AO2 T01440094 $
63870K0J4 0J420161108221510811/08/16 22:15:31  5-MIN K0J4 090315Z AUTO 04005KT 10SM CLR 14/09 A3017 90 72 100 040/05 RMK AO2 T01440094 $
63870K0J4 0J420161108222010811/08/16 22:20:31  5-MIN K0J4 090320Z AUTO 04004KT 10SM CLR 14/09 A3017 90 72 100 040/04 RMK AO2 T01440094 $
63870K0J4 0J420161108222510811/08/16 22:25:31  5-MIN K0J4 090325Z AUTO 04004KT 10SM CLR 14/09 A3017 90 72 100 040/04 RMK AO2 T01440094 $
63870K0J4 0J420161108223010811/08/16 22:30:31  5-MIN K0J4 090330Z AUTO 04003KT 10SM CLR 14/09 A3017 90 72 100 040/03 RMK AO2 T01440094 $
63870K0J4 0J420161108223510811/08/16 22:35:31  5-MIN K0J4 090335Z AUTO 04004KT 10SM CLR 14/09 A3017 90 69 100 040/04 RMK AO2 T01440089 $
63870K0J4 0J420161108224010811/08/16 22:40:31  5-MIN K0J4 090340Z AUTO 04003KT 10SM CLR 14/09 A3017 80 69 100 040/03 RMK AO2 T01440089 $
63870K0J4 0J420161108224510811/08/16 22:45:31  5-MIN K0J4 090345Z AUTO 00000KT 10SM CLR 14/09 A3017 90 69 100 000/00 RMK AO2 T01440089 $
63870K0J4 0J420161108225010811/08/16 22:50:31  5-MIN K0J4 090350Z AUTO 00000KT 10SM CLR 15/09 A3017 90 66 100 000/00 RMK AO2 T01500089 $
63870K0J4 0J420161108225511511/08/16 22:55:31  5-MIN K0J4 090355Z AUTO 05003KT 10SM CLR 15/09 A3017 90 66 100 050/03 RMK AO2 SLP213 T01500089 $
63870K0J4 0J420161108230010811/08/16 23:00:31  5-MIN K0J4 090400Z AUTO 05004KT 10SM CLR 14/09 A3017 90 69 100 050/04 RMK AO2 T01440089 $
63870K0J4 0J420161108230510811/08/16 23:05:31  5-MIN K0J4 090405Z AUTO 04004KT 10SM CLR 14/09 A3017 90 69 100 040/04 RMK AO2 T01440089 $
63870K0J4 0J420161108231010811/08/16 23:10:31  5-MIN K0J4 090410Z AUTO 05003KT 10SM CLR 14/09 A3017 90 69 100 050/03 RMK AO2 T01440089 $
63870K0J4 0J420161108231510811/08/16 23:15:31  5-MIN K0J4 090415Z AUTO 05003KT 10SM CLR 14/09 A3017 90 69 100 050/03 RMK AO2 T01440089 $
63870K0J4 0J420161108232010811/08/16 23:20:31  5-MIN K0J4 090420Z AUTO 05003KT 10SM CLR 14/09 A3017 90 69 100 050/03 RMK AO2 T01440089 $
63870K0J4 0J420161108232510811/08/16 23:25:31  5-MIN K0J4 090425Z AUTO 05003KT 10SM CLR 14/08 A3017 90 66 100 050/03 RMK AO2 T01440083 $
63870K0J4 0J420161108233010811/08/16 23:30:31  5-MIN K0J4 090430Z AUTO 05003KT 10SM CLR 14/08 A3017 90 66 100 050/03 RMK AO2 T01440083 $
63870K0J4 0J420161108233510811/08/16 23:35:31  5-MIN K0J4 090435Z AUTO 06003KT 10SM CLR 14/08 A3016 90 66 100 060/03 RMK AO2 T01440083 $
63870K0J4 0J420161108234010811/08/16 23:40:31  5-MIN K0J4 090440Z AUTO 06005KT 10SM CLR 14/08 A3016 90 66 100 060/05 RMK AO2 T01440083 $
63870K0J4 0J420161108234510811/08/16 23:45:31  5-MIN K0J4 090445Z AUTO 06006KT 10SM CLR 15/08 A3016 90 62 200 060/06 RMK AO2 T01500078 $
63870K0J4 0J420161108235010911/08/16 23:50:31  5-MIN K0J4 090450Z AUTO 07004KT 10SM CLR 15/08 A3016 100 62 200 070/04 RMK AO2 T01500078 $
63870K0J4 0J420161108235512611/08/16 23:55:31  5-MIN K0J4 090455Z AUTO 06004KT 10SM CLR 15/08 A3016 100 62 200 060/04 RMK AO2 SLP210 T01500078 401890139 $
63870K0J4 0J420161109000010911/09/16 00:00:31  5-MIN K0J4 090500Z AUTO 07004KT 10SM CLR 15/08 A3016 100 62 200 070/04 RMK AO2 T01500078 $
63870K0J4 0J420161109000510911/09/16 00:05:31  5-MIN K0J4 090505Z AUTO 07004KT 10SM CLR 15/08 A3016 100 62 200 070/04 RMK AO2 T01500078 $
63870K0J4 0J420161109001010911/09/16 00:10:31  5-MIN K0J4 090510Z AUTO 07004KT 10SM CLR 15/08 A3015 100 62 200 070/04 RMK AO2 T01500078 $
63870K0J4 0J420161109001510911/09/16 00:15:31  5-MIN K0J4 090515Z AUTO 07005KT 10SM CLR 15/08 A3015 100 62 200 070/05 RMK AO2 T01500078 $
63870K0J4 0J420161109002010911/09/16 00:20:31  5-MIN K0J4 090520Z AUTO 07005KT 10SM CLR 15/08 A3015 100 62 200 070/05 RMK AO2 T01500078 $
63870K0J4 0J420161109002510911/09/16 00:25:31  5-MIN K0J4 090525Z AUTO 07004KT 10SM CLR 15/08 A3015 100 62 200 070/04 RMK AO2 T01500078 $
63870K0J4 0J420161109003010911/09/16 00:30:31  5-MIN K0J4 090530Z AUTO 07004KT 10SM CLR 15/08 A3015 100 62 200 070/04 RMK AO2 T01500078 $
63870K0J4 0J420161109003510911/09/16 00:35:31  5-MIN K0J4 090535Z AUTO 07004KT 10SM CLR 15/08 A3015 100 62 200 070/04 RMK AO2 T01500078 $
63870K0J4 0J420161109004010911/09/16 00:40:31  5-MIN K0J4 090540Z AUTO 07005KT 10SM CLR 15/08 A3015 110 62 200 070/05 RMK AO2 T01500078 $
63870K0J4 0J420161109004511211/09/16 00:45:31  5-MIN K0J4 090545Z AUTO 07006KT 10SM FEW110 15/08 A3015 110 62 200 070/06 RMK AO2 T01500078 $
63870K0J4 0J420161109005011211/09/16 00:50:31  5-MIN K0J4 090550Z AUTO 07004KT 10SM SCT110 15/07 A3014 110 59 200 070/04 RMK AO2 T01500072 $
63870K0J4 0J420161109005513711/09/16 00:55:31  5-MIN K0J4 090555Z AUTO 06005KT 10SM SCT110 15/07 A3014 110 59 200 060/05 RMK AO2 SLP205 60000 T01500072 10156 20144 $
63870K0J4 0J420161109010011211/09/16 01:00:31  5-MIN K0J4 090600Z AUTO 05004KT 10SM SCT110 15/08 A3014 110 62 200 050/04 RMK AO2 T01500078 $
63870K0J4 0J420161109010512811/09/16 01:05:31  5-MIN K0J4 090605Z AUTO 06004KT 10SM -RA FEW110 15/08 A3014 110 62 200 060/04 RMK AO2 RAB02 P0000 T01500078 $
63870K0J4 0J420161109011012811/09/16 01:10:31  5-MIN K0J4 090610Z AUTO 06004KT 10SM -RA FEW110 15/07 A3014 110 59 200 060/04 RMK AO2 RAB02 P0000 T01500072 $
63870K0J4 0J420161109011512711/09/16 01:15:31  5-MIN K0J4 090615Z AUTO 06004KT 10SM FEW110 15/07 A3014 110 59 200 060/04 RMK AO2 RAB02E15 P0000 T01500072 $
63870K0J4 0J420161109012012711/09/16 01:20:31  5-MIN K0J4 090620Z AUTO 07004KT 10SM FEW110 15/07 A3014 110 59 200 070/04 RMK AO2 RAB02E15 P0000 T01500072 $
63870K0J4 0J420161109012512411/09/16 01:25:31  5-MIN K0J4 090625Z AUTO 08004KT 10SM CLR 15/07 A3014 110 59 200 080/04 RMK AO2 RAB02E15 P0000 T01500072 $
63870K0J4 0J420161109013012411/09/16 01:30:31  5-MIN K0J4 090630Z AUTO 08003KT 10SM CLR 16/07 A3014 110 55 300 080/03 RMK AO2 RAB02E15 P0000 T01610072 $
63870K0J4 0J420161109013512411/09/16 01:35:31  5-MIN K0J4 090635Z AUTO 06003KT 10SM CLR 14/07 A3014 110 61 100 060/03 RMK AO2 RAB02E15 P0000 T01440072 $
63870K0J4 0J420161109014012711/09/16 01:40:31  5-MIN K0J4 090640Z AUTO 06004KT 10SM SCT041 14/08 A3014 110 64 100 060/04 RMK AO2 RAB02E15 P0000 T01440078 $
63870K0J4 0J420161109014512711/09/16 01:45:31  5-MIN K0J4 090645Z AUTO 04003KT 10SM BKN041 14/08 A3014 110 64 100 040/03 RMK AO2 RAB02E15 P0000 T01440078 $
63870K0J4 0J420161109015012711/09/16 01:50:31  5-MIN K0J4 090650Z AUTO 02004KT 10SM BKN041 14/08 A3014 110 64 100 020/04 RMK AO2 RAB02E15 P0000 T01440078 $
63870K0J4 0J420161109015513411/09/16 01:55:31  5-MIN K0J4 090655Z AUTO 02004KT 10SM BKN043 15/07 A3014 110 59 200 020/04 RMK AO2 RAB02E15 SLP204 P0000 T01500072 $
63870K0J4 0J420161109020011911/09/16 02:00:31  5-MIN K0J4 090700Z AUTO 04003KT 10SM BKN043 OVC055 15/08 A3014 110 62 200 040/03 RMK AO2 T01500078 $
63870K0J4 0J420161109020512611/09/16 02:05:31  5-MIN K0J4 090705Z AUTO 00000KT 10SM BKN043 BKN055 OVC100 14/08 A3014 110 64 100 000/00 RMK AO2 T01440078 $
63870K0J4 0J420161109021012611/09/16 02:10:31  5-MIN K0J4 090710Z AUTO 06003KT 10SM BKN043 BKN055 OVC100 14/08 A3014 120 64 100 060/03 RMK AO2 T01440078 $
63870K0J4 0J420161109021514211/09/16 02:15:31  5-MIN K0J4 090715Z AUTO 03003KT 10SM -RA SCT045 BKN050 OVC075 14/08 A3014 120 64 100 030/03 RMK AO2 RAB13 P0000 T01440078 $
63870K0J4 0J420161109022014211/09/16 02:20:31  5-MIN K0J4 090720Z AUTO 02003KT 10SM -RA FEW045 BKN050 OVC100 14/08 A3014 120 64 100 020/03 RMK AO2 RAB13 P0000 T01440078 $
63870K0J4 0J420161109022514211/09/16 02:25:31  5-MIN K0J4 090725Z AUTO 04004KT 10SM -RA FEW047 SCT055 BKN090 14/08 A3014 120 64 100 040/04 RMK AO2 RAB13 P0000 T01440078 $
63870K0J4 0J420161109023014211/09/16 02:30:31  5-MIN K0J4 090730Z AUTO 03003KT 10SM -RA FEW050 SCT090 SCT110 14/08 A3014 120 64 100 030/03 RMK AO2 RAB13 P0000 T01440078 $
63870K0J4 0J420161109023514211/09/16 02:35:31  5-MIN K0J4 090735Z AUTO 03003KT 10SM -RA FEW050 SCT070 SCT100 14/08 A3014 120 64 100 030/03 RMK AO2 RAB13 P0000 T01440078 $
63870K0J4 0J420161109024014111/09/16 02:40:31  5-MIN K0J4 090740Z AUTO 03004KT 10SM FEW050 FEW095 SCT120 14/08 A3013 120 64 100 030/04 RMK AO2 RAB13E37 P0000 T01440078 $
63870K0J4 0J420161109024512711/09/16 02:45:31  5-MIN K0J4 090745Z AUTO 03004KT 10SM FEW095 14/08 A3013 120 64 100 030/04 RMK AO2 RAB13E37 P0000 T01440078 $
63870K0J4 0J420161109025012711/09/16 02:50:31  5-MIN K0J4 090750Z AUTO 02005KT 10SM FEW110 14/08 A3013 120 64 100 020/05 RMK AO2 RAB13E37 P0000 T01440078 $
63870K0J4 0J420161109025513411/09/16 02:55:31  5-MIN K0J4 090755Z AUTO 02004KT 10SM FEW120 14/08 A3013 120 64 100 020/04 RMK AO2 RAB13E37 SLP201 P0000 T01440078 $
63870K0J4 0J420161109030011211/09/16 03:00:31  5-MIN K0J4 090800Z AUTO 02003KT 10SM FEW120 14/08 A3014 120 64 100 020/03 RMK AO2 T01440078 $
63870K0J4 0J420161109030511911/09/16 03:05:31  5-MIN K0J4 090805Z AUTO 02003KT 10SM FEW048 FEW110 14/08 A3014 120 64 100 020/03 RMK AO2 T01440078 $
63870K0J4 0J420161109031011911/09/16 03:10:31  5-MIN K0J4 090810Z AUTO 00000KT 10SM SCT046 SCT110 14/08 A3014 120 64 100 000/00 RMK AO2 T01440078 $
63870K0J4 0J420161109031511911/09/16 03:15:31  5-MIN K0J4 090815Z AUTO 00000KT 10SM SCT048 BKN110 14/08 A3014 110 64 100 000/00 RMK AO2 T01440078 $
63870K0J4 0J420161109032011911/09/16 03:20:31  5-MIN K0J4 090820Z AUTO 00000KT 10SM SCT046 BKN120 14/07 A3014 120 61 100 000/00 RMK AO2 T01440072 $
63870K0J4 0J420161109032511211/09/16 03:25:31  5-MIN K0J4 090825Z AUTO 00000KT 10SM SCT046 14/08 A3014 120 64 100 000/00 RMK AO2 T01440078 $
63870K0J4 0J420161109033011211/09/16 03:30:31  5-MIN K0J4 090830Z AUTO 00000KT 10SM BKN046 14/08 A3013 120 64 100 000/00 RMK AO2 T01440078 $
63870K0J4 0J420161109033511911/09/16 03:35:31  5-MIN K0J4 090835Z AUTO 00000KT 10SM SCT046 BKN120 14/08 A3013 120 64 100 000/00 RMK AO2 T01440078 $
63870K0J4 0J420161109034011911/09/16 03:40:31  5-MIN K0J4 090840Z AUTO 00000KT 10SM FEW047 SCT110 14/08 A3013 120 66 100 000/00 RMK AO2 T01440083 $
63870K0J4 0J420161109034511911/09/16 03:45:31  5-MIN K0J4 090845Z AUTO 00000KT 10SM FEW047 FEW110 14/08 A3013 130 64 100 000/00 RMK AO2 T01440078 $
63870K0J4 0J420161109035011911/09/16 03:50:31  5-MIN K0J4 090850Z AUTO 00000KT 10SM FEW049 FEW110 14/08 A3013 130 64 100 000/00 RMK AO2 T01440078 $
63870K0J4 0J420161109035513111/09/16 03:55:31  5-MIN K0J4 090855Z AUTO 00000KT 10SM FEW110 14/08 A3012 130 64 100 000/00 RMK AO2 SLP198 60000 T01440078 58010 $
63870K0J4 0J420161109040011211/09/16 04:00:31  5-MIN K0J4 090900Z AUTO 03003KT 10SM FEW110 14/07 A3012 130 61 100 030/03 RMK AO2 T01440072 $
63870K0J4 0J420161109040510911/09/16 04:05:31  5-MIN K0J4 090905Z AUTO 01003KT 10SM CLR 14/08 A3012 130 66 100 010/03 RMK AO2 T01390078 $
63870K0J4 0J420161109041011211/09/16 04:10:31  5-MIN K0J4 090910Z AUTO 02003KT 10SM FEW048 14/08 A3012 130 66 100 020/03 RMK AO2 T01390078 $
63870K0J4 0J420161109041511211/09/16 04:15:31  5-MIN K0J4 090915Z AUTO 00000KT 10SM FEW048 14/08 A3012 130 66 100 000/00 RMK AO2 T01390078 $
63870K0J4 0J420161109042011211/09/16 04:20:31  5-MIN K0J4 090920Z AUTO 00000KT 10SM FEW048 14/08 A3012 130 66 100 000/00 RMK AO2 T01390078 $
63870K0J4 0J420161109042511211/09/16 04:25:31  5-MIN K0J4 090925Z AUTO 01003KT 10SM FEW048 14/08 A3013 130 66 100 010/03 RMK AO2 T01390078 $
63870K0J4 0J420161109043011211/09/16 04:30:31  5-MIN K0J4 090930Z AUTO 00000KT 10SM FEW048 14/08 A3012 130 66 100 000/00 RMK AO2 T01390078 $
63870K0J4 0J420161109043511211/09/16 04:35:31  5-MIN K0J4 090935Z AUTO 00000KT 10SM SCT050 14/08 A3013 130 66 100 000/00 RMK AO2 T01390078 $
63870K0J4 0J420161109044011211/09/16 04:40:31  5-MIN K0J4 090940Z AUTO 00000KT 10SM BKN050 14/08 A3013 130 66 100 000/00 RMK AO2 T01390078 $
63870K0J4 0J420161109044511211/09/16 04:45:31  5-MIN K0J4 090945Z AUTO 00000KT 10SM BKN050 14/08 A3012 130 69 100 000/00 RMK AO2 T01390083 $
63870K0J4 0J420161109045011211/09/16 04:50:31  5-MIN K0J4 090950Z AUTO 00000KT 10SM BKN050 14/09 A3013 130 71 100 000/00 RMK AO2 T01390089 $
63870K0J4 0J420161109045512611/09/16 04:55:31  5-MIN K0J4 090955Z AUTO 00000KT 10SM BKN047 OVC055 14/08 A3013 130 69 100 000/00 RMK AO2 SLP199 T01390083 $
63870K0J4 0J420161109050011911/09/16 05:00:31  5-MIN K0J4 091000Z AUTO 00000KT 10SM BKN047 OVC055 14/09 A3013 120 74 100 000/00 RMK AO2 T01390094 $
63870K0J4 0J420161109050511911/09/16 05:05:31  5-MIN K0J4 091005Z AUTO 00000KT 10SM BKN047 OVC055 14/09 A3013 130 71 100 000/00 RMK AO2 T01390089 $
63870K0J4 0J420161109051011911/09/16 05:10:31  5-MIN K0J4 091010Z AUTO 00000KT 10SM BKN046 BKN055 14/09 A3013 120 74 100 000/00 RMK AO2 T01390094 $
63870K0J4 0J420161109051511211/09/16 05:15:31  5-MIN K0J4 091015Z AUTO 00000KT 10SM BKN046 14/09 A3013 130 74 100 000/00 RMK AO2 T01390094 $
63870K0J4 0J420161109052011211/09/16 05:20:31  5-MIN K0J4 091020Z AUTO 00000KT 10SM SCT046 14/10 A3013 130 77 100 000/00 RMK AO2 T01390100 $
63870K0J4 0J420161109052511911/09/16 05:25:31  5-MIN K0J4 091025Z AUTO 00000KT 10SM FEW045 FEW050 14/09 A3012 130 74 100 000/00 RMK AO2 T01390094 $
63870K0J4 0J420161109053011211/09/16 05:30:31  5-MIN K0J4 091030Z AUTO 00000KT 10SM FEW050 14/10 A3013 130 77 100 000/00 RMK AO2 T01390100 $
63870K0J4 0J420161109053510911/09/16 05:35:31  5-MIN K0J4 091035Z AUTO 00000KT 10SM CLR 14/09 A3013 120 74 100 000/00 RMK AO2 T01390094 $
63870K0J4 0J420161109054010911/09/16 05:40:31  5-MIN K0J4 091040Z AUTO 00000KT 10SM CLR 14/09 A3013 120 71 100 000/00 RMK AO2 T01390089 $
63870K0J4 0J420161109054510911/09/16 05:45:31  5-MIN K0J4 091045Z AUTO 00000KT 10SM CLR 14/09 A3013 120 71 100 000/00 RMK AO2 T01390089 $
63870K0J4 0J420161109055011211/09/16 05:50:31  5-MIN K0J4 091050Z AUTO 36003KT 10SM FEW100 14/09 A3013 120 71 100 360/03 RMK AO2 T01390089 $
63870K0J4 0J420161109055511911/09/16 05:55:31  5-MIN K0J4 091055Z AUTO 00000KT 10SM FEW100 14/08 A3013 120 69 100 000/00 RMK AO2 SLP201 T01390083 $
63870K0J4 0J420161109060011011/09/16 06:00:31  5-MIN K0J4 091100Z AUTO 00000KT 10SM FEW100 13/09 A3013 120 74 0 000/00 RMK AO2 T01330089 $
63870K0J4 0J420161109060511011/09/16 06:05:31  5-MIN K0J4 091105Z AUTO 00000KT 10SM FEW100 13/09 A3013 120 74 0 000/00 RMK AO2 T01330089 $
63870K0J4 0J420161109061011011/09/16 06:10:31  5-MIN K0J4 091110Z AUTO 00000KT 10SM FEW100 13/09 A3013 120 77 0 000/00 RMK AO2 T01330094 $
63870K0J4 0J420161109061511011/09/16 06:15:31  5-MIN K0J4 091115Z AUTO 02003KT 10SM FEW100 13/09 A3013 120 77 0 020/03 RMK AO2 T01330094 $
63870K0J4 0J420161109062010711/09/16 06:20:31  5-MIN K0J4 091120Z AUTO 00000KT 10SM CLR 13/09 A3013 120 80 0 000/00 RMK AO2 T01280094 $
63870K0J4 0J420161109062510711/09/16 06:25:31  5-MIN K0J4 091125Z AUTO 00000KT 10SM CLR 13/09 A3013 120 74 0 000/00 RMK AO2 T01330089 $
63870K0J4 0J420161109063010711/09/16 06:30:31  5-MIN K0J4 091130Z AUTO 35003KT 10SM CLR 13/08 A3014 120 71 0 350/03 RMK AO2 T01330083 $
63870K0J4 0J420161109063510711/09/16 06:35:31  5-MIN K0J4 091135Z AUTO 33005KT 10SM CLR 13/08 A3014 110 71 0 330/05 RMK AO2 T01330083 $
63870K0J4 0J420161109064010711/09/16 06:40:31  5-MIN K0J4 091140Z AUTO 00000KT 10SM CLR 13/08 A3014 120 71 0 000/00 RMK AO2 T01330083 $
63870K0J4 0J420161109064510711/09/16 06:45:31  5-MIN K0J4 091145Z AUTO 00000KT 10SM CLR 13/08 A3013 120 71 0 000/00 RMK AO2 T01330083 $
63870K0J4 0J420161109065010711/09/16 06:50:31  5-MIN K0J4 091150Z AUTO 00000KT 10SM CLR 13/09 A3013 120 74 0 000/00 RMK AO2 T01330089 $
63870K0J4 0J420161109065513811/09/16 06:55:31  5-MIN K0J4 091155Z AUTO 00000KT 10SM CLR 13/09 A3014 120 80 0 000/00 RMK AO2 SLP203 60000 T01280094 10161 20128 58007 $
63870K0J4 0J420161109070010711/09/16 07:00:31  5-MIN K0J4 091200Z AUTO 02003KT 10SM CLR 13/09 A3014 120 74 0 020/03 RMK AO2 T01330089 $
63870K0J4 0J420161109070510711/09/16 07:05:31  5-MIN K0J4 091205Z AUTO 02003KT 10SM CLR 13/09 A3013 120 74 0 020/03 RMK AO2 T01330089 $
63870K0J4 0J420161109071010711/09/16 07:10:31  5-MIN K0J4 091210Z AUTO 01003KT 10SM CLR 13/08 A3014 120 71 0 010/03 RMK AO2 T01330083 $
63870K0J4 0J420161109071510711/09/16 07:15:31  5-MIN K0J4 091215Z AUTO 00000KT 10SM CLR 13/08 A3014 120 71 0 000/00 RMK AO2 T01330083 $
63870K0J4 0J420161109072010711/09/16 07:20:31  5-MIN K0J4 091220Z AUTO 00000KT 10SM CLR 13/08 A3013 120 71 0 000/00 RMK AO2 T01330083 $
63870K0J4 0J420161109172010911/09/16 17:20:31  5-MIN K0J4 092220Z AUTO 00000KT 10SM CLR 21/09 A3010 150 47 900 000/00 RMK AO2 T02110094 $
63870K0J4 0J420161109172510911/09/16 17:25:31  5-MIN K0J4 092225Z AUTO 00000KT 10SM CLR 21/09 A3009 160 45 900 000/00 RMK AO2 T02110089 $
63870K0J4 0J420161109173010911/09/16 17:30:31  5-MIN K0J4 092230Z AUTO 00000KT 10SM CLR 21/09 A3010 150 48 900 000/00 RMK AO2 T02060094 $
63870K0J4 0J420161109173510911/09/16 17:35:31  5-MIN K0J4 092235Z AUTO 00000KT 10SM CLR 21/09 A3010 150 48 900 000/00 RMK AO2 T02060094 $
63870K0J4 0J420161109174010911/09/16 17:40:31  5-MIN K0J4 092240Z AUTO 00000KT 10SM CLR 20/09 A3010 150 50 800 000/00 RMK AO2 T02000094 $
63870K0J4 0J420161109174510911/09/16 17:45:31  5-MIN K0J4 092245Z AUTO 00000KT 10SM CLR 20/09 A3010 150 50 800 000/00 RMK AO2 T02000094 $
63870K0J4 0J420161109175010911/09/16 17:50:31  5-MIN K0J4 092250Z AUTO 00000KT 10SM CLR 19/09 A3010 150 52 700 000/00 RMK AO2 T01940094 $
63870K0J4 0J420161109175511611/09/16 17:55:31  5-MIN K0J4 092255Z AUTO 00000KT 10SM CLR 19/10 A3010 150 56 700 000/00 RMK AO2 SLP191 T01890100 $
63870K0J4 0J420161109180010911/09/16 18:00:31  5-MIN K0J4 092300Z AUTO 00000KT 10SM CLR 18/10 A3010 150 58 600 000/00 RMK AO2 T01830100 $
63870K0J4 0J420161109180510911/09/16 18:05:31  5-MIN K0J4 092305Z AUTO 00000KT 10SM CLR 18/10 A3011 140 58 600 000/00 RMK AO2 T01830100 $
63870K0J4 0J420161109181010911/09/16 18:10:31  5-MIN K0J4 092310Z AUTO 00000KT 10SM CLR 18/10 A3010 150 60 500 000/00 RMK AO2 T01780100 $
63870K0J4 0J420161109181510911/09/16 18:15:31  5-MIN K0J4 092315Z AUTO 00000KT 10SM CLR 17/11 A3011 140 64 500 000/00 RMK AO2 T01720106 $
63870K0J4 0J420161109182010911/09/16 18:20:31  5-MIN K0J4 092320Z AUTO 00000KT 10SM CLR 17/11 A3011 140 67 400 000/00 RMK AO2 T01670106 $
63870K0J4 0J420161109182512511/09/16 18:25:31  5-MIN K0J4 092325Z AUTO 00000KT 10SM -RA CLR 17/11 A3011 140 67 400 000/00 RMK AO2 RAB23 P0000 T01670106 $
63870K0J4 0J420161109183012411/09/16 18:30:31  5-MIN K0J4 092330Z AUTO 00000KT 10SM CLR 17/11 A3011 140 67 400 000/00 RMK AO2 RAB23E30 P0000 T01670106 $
63870K0J4 0J420161109183512411/09/16 18:35:31  5-MIN K0J4 092335Z AUTO 00000KT 10SM CLR 17/11 A3011 140 67 400 000/00 RMK AO2 RAB23E30 P0000 T01670106 $
63870K0J4 0J420161109184012411/09/16 18:40:31  5-MIN K0J4 092340Z AUTO 00000KT 10SM CLR 16/11 A3012 140 72 300 000/00 RMK AO2 RAB23E30 P0000 T01560106 $
63870K0J4 0J420161109184512411/09/16 18:45:31  5-MIN K0J4 092345Z AUTO 00000KT 10SM CLR 16/11 A3012 130 69 300 000/00 RMK AO2 RAB23E30 P0000 T01610106 $
63870K0J4 0J420161109185012411/09/16 18:50:31  5-MIN K0J4 092350Z AUTO 00000KT 10SM CLR 16/11 A3012 130 69 300 000/00 RMK AO2 RAB23E30 P0000 T01610106 $
63870K0J4 0J420161109185515511/09/16 18:55:31  5-MIN K0J4 092355Z AUTO 00000KT 10SM CLR 16/11 A3012 130 69 300 000/00 RMK AO2 RAB23E30 SLP199 P0000 60000 T01610106 10239 20156 56017 $
63870K0J4 0J420161109190010911/09/16 19:00:31  5-MIN K0J4 100000Z AUTO 00000KT 10SM CLR 15/11 A3013 130 74 200 000/00 RMK AO2 T01500106 $
63870K0J4 0J420161109190510911/09/16 19:05:31  5-MIN K0J4 100005Z AUTO 00000KT 10SM CLR 16/11 A3013 130 69 300 000/00 RMK AO2 T01610106 $
63870K0J4 0J420161109191010911/09/16 19:10:31  5-MIN K0J4 100010Z AUTO 00000KT 10SM CLR 15/11 A3013 120 74 200 000/00 RMK AO2 T01500106 $
63870K0J4 0J420161109191510911/09/16 19:15:31  5-MIN K0J4 100015Z AUTO 00000KT 10SM CLR 16/11 A3013 120 72 300 000/00 RMK AO2 T01560106 $
63870K0J4 0J420161109192010911/09/16 19:20:31  5-MIN K0J4 100020Z AUTO 00000KT 10SM CLR 16/11 A3013 120 72 300 000/00 RMK AO2 T01560106 $
63870K0J4 0J420161109192510911/09/16 19:25:31  5-MIN K0J4 100025Z AUTO 00000KT 10SM CLR 15/11 A3013 120 74 200 000/00 RMK AO2 T01500106 $
63870K0J4 0J420161109193010911/09/16 19:30:31  5-MIN K0J4 100030Z AUTO 00000KT 10SM CLR 16/11 A3013 120 72 300 000/00 RMK AO2 T01560106 $
63870K0J4 0J420161109193510911/09/16 19:35:31  5-MIN K0J4 100035Z AUTO 00000KT 10SM CLR 16/11 A3014 120 72 200 000/00 RMK AO2 T01560106 $
63870K0J4 0J420161109194010911/09/16 19:40:31  5-MIN K0J4 100040Z AUTO 00000KT 10SM CLR 17/11 A3014 110 67 400 000/00 RMK AO2 T01670106 $
63870K0J4 0J420161109194510911/09/16 19:45:31  5-MIN K0J4 100045Z AUTO 33003KT 10SM CLR 16/11 A3014 110 69 300 330/03 RMK AO2 T01610106 $
63870K0J4 0J420161109195010911/09/16 19:50:31  5-MIN K0J4 100050Z AUTO 00000KT 10SM CLR 16/11 A3014 110 72 200 000/00 RMK AO2 T01560106 $
63870K0J4 0J420161109195511611/09/16 19:55:31  5-MIN K0J4 100055Z AUTO 00000KT 10SM CLR 16/11 A3014 110 72 200 000/00 RMK AO2 SLP204 T01560106 $
63870K0J4 0J420161109200010911/09/16 20:00:31  5-MIN K0J4 100100Z AUTO 36003KT 10SM CLR 15/11 A3014 110 74 200 360/03 RMK AO2 T01500106 $
63870K0J4 0J420161109200510911/09/16 20:05:31  5-MIN K0J4 100105Z AUTO 34004KT 10SM CLR 15/11 A3014 110 74 200 340/04 RMK AO2 T01500106 $
63870K0J4 0J420161109201010911/09/16 20:10:31  5-MIN K0J4 100110Z AUTO 01004KT 10SM CLR 16/10 A3014 110 67 300 010/04 RMK AO2 T01610100 $
63870K0J4 0J420161109201510911/09/16 20:15:31  5-MIN K0J4 100115Z AUTO 35004KT 10SM CLR 17/10 A3014 110 64 400 350/04 RMK AO2 T01670100 $
63870K0J4 0J420161109202010911/09/16 20:20:31  5-MIN K0J4 100120Z AUTO 36004KT 10SM CLR 17/10 A3015 110 64 400 360/04 RMK AO2 T01670100 $
63870K0J4 0J420161109202510911/09/16 20:25:31  5-MIN K0J4 100125Z AUTO 36005KT 10SM CLR 16/10 A3015 110 67 300 360/05 RMK AO2 T01610100 $
63870K0J4 0J420161109203010911/09/16 20:30:31  5-MIN K0J4 100130Z AUTO 01006KT 10SM CLR 16/10 A3015 110 67 300 010/06 RMK AO2 T01610100 $
63870K0J4 0J420161109203510911/09/16 20:35:31  5-MIN K0J4 100135Z AUTO 02005KT 10SM CLR 17/11 A3015 110 67 400 020/05 RMK AO2 T01670106 $
63870K0J4 0J420161109204010911/09/16 20:40:31  5-MIN K0J4 100140Z AUTO 01005KT 10SM CLR 16/11 A3015 110 69 300 010/05 RMK AO2 T01610106 $
63870K0J4 0J420161109204510911/09/16 20:45:31  5-MIN K0J4 100145Z AUTO 36004KT 10SM CLR 16/11 A3015 110 69 300 360/04 RMK AO2 T01610106 $
63870K0J4 0J420161109205010911/09/16 20:50:31  5-MIN K0J4 100150Z AUTO 01005KT 10SM CLR 16/11 A3015 100 69 300 010/05 RMK AO2 T01610106 $
63870K0J4 0J420161109205511611/09/16 20:55:31  5-MIN K0J4 100155Z AUTO 01005KT 10SM CLR 16/11 A3015 100 69 300 010/05 RMK AO2 SLP207 T01610106 $
63870K0J4 0J420161109210010911/09/16 21:00:31  5-MIN K0J4 100200Z AUTO 01005KT 10SM CLR 16/11 A3015 100 69 300 010/05 RMK AO2 T01610106 $
63870K0J4 0J420161109210510911/09/16 21:05:31  5-MIN K0J4 100205Z AUTO 01006KT 10SM CLR 16/11 A3015 100 69 300 010/06 RMK AO2 T01610106 $
63870K0J4 0J420161109211010911/09/16 21:10:31  5-MIN K0J4 100210Z AUTO 01004KT 10SM CLR 16/11 A3015 100 69 300 010/04 RMK AO2 T01610106 $
63870K0J4 0J420161109211510911/09/16 21:15:31  5-MIN K0J4 100215Z AUTO 36004KT 10SM CLR 16/11 A3015 100 69 300 360/04 RMK AO2 T01610106 $
63870K0J4 0J420161109212010911/09/16 21:20:31  5-MIN K0J4 100220Z AUTO 01005KT 10SM CLR 16/11 A3016 100 72 200 010/05 RMK AO2 T01560106 $
63870K0J4 0J420161109212510911/09/16 21:25:31  5-MIN K0J4 100225Z AUTO 01005KT 10SM CLR 16/10 A3016 100 69 200 010/05 RMK AO2 T01560100 $
63870K0J4 0J420161109213010911/09/16 21:30:31  5-MIN K0J4 100230Z AUTO 01005KT 10SM CLR 16/10 A3016 100 69 200 010/05 RMK AO2 T01560100 $
63870K0J4 0J420161109213510811/09/16 21:35:31  5-MIN K0J4 100235Z AUTO 01004KT 10SM CLR 15/10 A3016 90 72 200 010/04 RMK AO2 T01500100 $
63870K0J4 0J420161109214010811/09/16 21:40:31  5-MIN K0J4 100240Z AUTO 01004KT 10SM CLR 15/10 A3016 90 72 200 010/04 RMK AO2 T01500100 $
63870K0J4 0J420161109214510811/09/16 21:45:31  5-MIN K0J4 100245Z AUTO 01005KT 10SM CLR 15/10 A3016 90 72 200 010/05 RMK AO2 T01500100 $
63870K0J4 0J420161109215010811/09/16 21:50:31  5-MIN K0J4 100250Z AUTO 36005KT 10SM CLR 15/10 A3016 90 72 200 360/05 RMK AO2 T01500100 $
63870K0J4 0J420161109215512111/09/16 21:55:31  5-MIN K0J4 100255Z AUTO 01005KT 10SM CLR 16/10 A3017 90 69 200 010/05 RMK AO2 SLP213 T01560100 53019 $
63870K0J4 0J420161109220010811/09/16 22:00:31  5-MIN K0J4 100300Z AUTO 01004KT 10SM CLR 15/10 A3017 90 72 100 010/04 RMK AO2 T01500100 $
63870K0J4 0J420161109220510811/09/16 22:05:31  5-MIN K0J4 100305Z AUTO 01003KT 10SM CLR 15/10 A3017 90 72 200 010/03 RMK AO2 T01500100 $
63870K0J4 0J420161109221010811/09/16 22:10:31  5-MIN K0J4 100310Z AUTO 36003KT 10SM CLR 15/10 A3017 90 72 100 360/03 RMK AO2 T01500100 $
63870K0J4 0J420161109221510811/09/16 22:15:31  5-MIN K0J4 100315Z AUTO 36003KT 10SM CLR 16/10 A3017 90 69 200 360/03 RMK AO2 T01560100 $
63870K0J4 0J420161109222010811/09/16 22:20:31  5-MIN K0J4 100320Z AUTO 36004KT 10SM CLR 16/09 A3017 90 67 200 360/04 RMK AO2 T01560094 $
63870K0J4 0J420161109222510811/09/16 22:25:31  5-MIN K0J4 100325Z AUTO 36004KT 10SM CLR 15/09 A3017 90 69 100 360/04 RMK AO2 T01500094 $
63870K0J4 0J420161109223010811/09/16 22:30:31  5-MIN K0J4 100330Z AUTO 36006KT 10SM CLR 16/09 A3017 90 67 200 360/06 RMK AO2 T01560094 $
63870K0J4 0J420161109223510811/09/16 22:35:31  5-MIN K0J4 100335Z AUTO 36005KT 10SM CLR 15/09 A3017 90 69 100 360/05 RMK AO2 T01500094 $
63870K0J4 0J420161109224010811/09/16 22:40:31  5-MIN K0J4 100340Z AUTO 36004KT 10SM CLR 16/09 A3017 80 67 200 360/04 RMK AO2 T01560094 $
63870K0J4 0J420161109224510811/09/16 22:45:31  5-MIN K0J4 100345Z AUTO 00000KT 10SM CLR 15/09 A3017 80 69 100 000/00 RMK AO2 T01500094 $
63870K0J4 0J420161109225010811/09/16 22:50:31  5-MIN K0J4 100350Z AUTO 35003KT 10SM CLR 15/09 A3018 80 69 100 350/03 RMK AO2 T01500094 $
63870K0J4 0J420161109225511511/09/16 22:55:31  5-MIN K0J4 100355Z AUTO 34003KT 10SM CLR 14/09 A3017 80 72 100 340/03 RMK AO2 SLP215 T01440094 $
63870K0J4 0J420161109230010811/09/16 23:00:31  5-MIN K0J4 100400Z AUTO 00000KT 10SM CLR 14/09 A3018 80 72 100 000/00 RMK AO2 T01440094 $
63870K0J4 0J420161109230510611/09/16 23:05:31  5-MIN K0J4 100405Z AUTO 34003KT 10SM CLR 14/09 A3018 80 74 0 340/03 RMK AO2 T01390094 $
63870K0J4 0J420161109231010811/09/16 23:10:31  5-MIN K0J4 100410Z AUTO 34004KT 10SM CLR 14/09 A3018 80 72 100 340/04 RMK AO2 T01440094 $
63870K0J4 0J420161109231510811/09/16 23:15:31  5-MIN K0J4 100415Z AUTO 34003KT 10SM CLR 14/09 A3018 80 72 100 340/03 RMK AO2 T01440094 $
63870K0J4 0J420161109232010611/09/16 23:20:31  5-MIN K0J4 100420Z AUTO 35003KT 10SM CLR 14/09 A3018 80 71 0 350/03 RMK AO2 T01390089 $
63870K0J4 0J420161109232510911/09/16 23:25:31  5-MIN K0J4 100425Z AUTO 34003KT 10SM CLR 13/09 A3018 80 77 -100 340/03 RMK AO2 T01280089 $
63870K0J4 0J420161109233010911/09/16 23:30:31  5-MIN K0J4 100430Z AUTO 35004KT 10SM CLR 13/09 A3018 80 77 -100 350/04 RMK AO2 T01280089 $
63870K0J4 0J420161109233510611/09/16 23:35:31  5-MIN K0J4 100435Z AUTO 35004KT 10SM CLR 13/09 A3018 80 74 0 350/04 RMK AO2 T01330089 $
63870K0J4 0J420161109234010611/09/16 23:40:31  5-MIN K0J4 100440Z AUTO VRB03KT 10SM CLR 14/09 A3018 80 71 0 VRB/03 RMK AO2 T01390089 $
63870K0J4 0J420161109234510611/09/16 23:45:31  5-MIN K0J4 100445Z AUTO 35003KT 10SM CLR 14/09 A3018 80 71 0 350/03 RMK AO2 T01390089 $
63870K0J4 0J420161109235010611/09/16 23:50:31  5-MIN K0J4 100450Z AUTO 34003KT 10SM CLR 14/09 A3018 80 71 0 340/03 RMK AO2 T01390089 $
63870K0J4 0J420161109235512311/09/16 23:55:31  5-MIN K0J4 100455Z AUTO 33003KT 10SM CLR 14/09 A3018 70 71 0 330/03 RMK AO2 SLP218 T01390089 402390128 $
63870K0J4 0J420161110000010611/10/16 00:00:31  5-MIN K0J4 100500Z AUTO 36003KT 10SM CLR 13/09 A3018 80 74 0 360/03 RMK AO2 T01330089 $
63870K0J4 0J420161110000510611/10/16 00:05:31  5-MIN K0J4 100505Z AUTO 35003KT 10SM CLR 13/08 A3018 80 71 0 350/03 RMK AO2 T01330083 $
63870K0J4 0J420161110001010611/10/16 00:10:31  5-MIN K0J4 100510Z AUTO 35004KT 10SM CLR 13/08 A3018 70 71 0 350/04 RMK AO2 T01330083 $
63870K0J4 0J420161110001510611/10/16 00:15:31  5-MIN K0J4 100515Z AUTO 35005KT 10SM CLR 14/08 A3018 70 69 0 350/05 RMK AO2 T01390083 $
63870K0J4 0J420161110002010611/10/16 00:20:31  5-MIN K0J4 100520Z AUTO 35006KT 10SM CLR 14/08 A3018 70 69 0 350/06 RMK AO2 T01390083 $
63870K0J4 0J420161110002510611/10/16 00:25:31  5-MIN K0J4 100525Z AUTO 36004KT 10SM CLR 14/08 A3018 70 69 0 360/04 RMK AO2 T01390083 $
63870K0J4 0J420161110003010611/10/16 00:30:31  5-MIN K0J4 100530Z AUTO 35004KT 10SM CLR 14/08 A3019 70 69 0 350/04 RMK AO2 T01390083 $
63870K0J4 0J420161110003510611/10/16 00:35:31  5-MIN K0J4 100535Z AUTO 35003KT 10SM CLR 13/08 A3019 70 69 0 350/03 RMK AO2 T01330078 $
63870K0J4 0J420161110004010611/10/16 00:40:31  5-MIN K0J4 100540Z AUTO 35004KT 10SM CLR 13/08 A3019 70 69 0 350/04 RMK AO2 T01330078 $
63870K0J4 0J420161110004510611/10/16 00:45:31  5-MIN K0J4 100545Z AUTO 36005KT 10SM CLR 13/08 A3018 70 69 0 360/05 RMK AO2 T01330078 $
63870K0J4 0J420161110005010611/10/16 00:50:31  5-MIN K0J4 100550Z AUTO 35004KT 10SM CLR 13/08 A3018 70 69 0 350/04 RMK AO2 T01330078 $
63870K0J4 0J420161110005513111/10/16 00:55:31  5-MIN K0J4 100555Z AUTO 36005KT 10SM CLR 13/08 A3018 70 69 0 360/05 RMK AO2 SLP218 T01330078 10167 20128 52015 $
63870K0J4 0J420161110010010611/10/16 01:00:31  5-MIN K0J4 100600Z AUTO 36005KT 10SM CLR 13/08 A3018 70 69 0 360/05 RMK AO2 T01330078 $
63870K0J4 0J420161110010510911/10/16 01:05:31  5-MIN K0J4 100605Z AUTO 36004KT 10SM CLR 13/07 A3018 70 69 -100 360/04 RMK AO2 T01280072 $
63870K0J4 0J420161110011010911/10/16 01:10:31  5-MIN K0J4 100610Z AUTO 01004KT 10SM CLR 12/07 A3018 70 74 -200 010/04 RMK AO2 T01170072 $
63870K0J4 0J420161110011510911/10/16 01:15:31  5-MIN K0J4 100615Z AUTO 34003KT 10SM CLR 11/07 A3019 70 77 -300 340/03 RMK AO2 T01110072 $
63870K0J4 0J420161110012010911/10/16 01:20:31  5-MIN K0J4 100620Z AUTO VRB03KT 10SM CLR 12/07 A3019 70 74 -200 VRB/03 RMK AO2 T01170072 $
63870K0J4 0J420161110012510911/10/16 01:25:31  5-MIN K0J4 100625Z AUTO 00000KT 10SM CLR 11/07 A3019 70 77 -300 000/00 RMK AO2 T01110072 $
63870K0J4 0J420161110013010911/10/16 01:30:31  5-MIN K0J4 100630Z AUTO 35003KT 10SM CLR 10/07 A3019 70 80 -400 350/03 RMK AO2 T01000067 $
63870K0J4 0J420161110013510911/10/16 01:35:31  5-MIN K0J4 100635Z AUTO 00000KT 10SM CLR 09/07 A3019 70 83 -500 000/00 RMK AO2 T00940067 $
63870K0J4 0J420161110014010911/10/16 01:40:31  5-MIN K0J4 100640Z AUTO 00000KT 10SM CLR 09/07 A3020 60 83 -500 000/00 RMK AO2 T00940067 $
63870K0J4 0J420161110014510911/10/16 01:45:31  5-MIN K0J4 100645Z AUTO 00000KT 10SM CLR 09/07 A3020 60 86 -600 000/00 RMK AO2 T00890067 $
63870K0J4 0J420161110015010911/10/16 01:50:31  5-MIN K0J4 100650Z AUTO 35003KT 10SM CLR 09/07 A3020 60 86 -600 350/03 RMK AO2 T00890067 $
63870K0J4 0J420161110015511611/10/16 01:55:31  5-MIN K0J4 100655Z AUTO 35003KT 10SM CLR 09/06 A3020 60 83 -600 350/03 RMK AO2 SLP224 T00890061 $
63870K0J4 0J420161110020010911/10/16 02:00:31  5-MIN K0J4 100700Z AUTO 36004KT 10SM CLR 09/06 A3020 60 83 -600 360/04 RMK AO2 T00890061 $
63870K0J4 0J420161110020510911/10/16 02:05:31  5-MIN K0J4 100705Z AUTO VRB03KT 10SM CLR 09/07 A3020 60 86 -600 VRB/03 RMK AO2 T00890067 $
63870K0J4 0J420161110021010911/10/16 02:10:31  5-MIN K0J4 100710Z AUTO 00000KT 10SM CLR 09/07 A3020 60 86 -600 000/00 RMK AO2 T00890067 $
63870K0J4 0J420161110021510911/10/16 02:15:31  5-MIN K0J4 100715Z AUTO 01004KT 10SM CLR 08/06 A3020 60 86 -600 010/04 RMK AO2 T00830061 $
63870K0J4 0J420161110022010911/10/16 02:20:31  5-MIN K0J4 100720Z AUTO 36004KT 10SM CLR 08/06 A3020 60 86 -600 360/04 RMK AO2 T00830061 $
63870K0J4 0J420161110022510911/10/16 02:25:31  5-MIN K0J4 100725Z AUTO 01005KT 10SM CLR 08/06 A3020 60 86 -600 010/05 RMK AO2 T00830061 $
63870K0J4 0J420161110023010911/10/16 02:30:31  5-MIN K0J4 100730Z AUTO 01005KT 10SM CLR 09/06 A3020 60 83 -600 010/05 RMK AO2 T00890061 $
63870K0J4 0J420161110023510911/10/16 02:35:31  5-MIN K0J4 100735Z AUTO 01004KT 10SM CLR 08/06 A3020 60 86 -600 010/04 RMK AO2 T00830061 $
63870K0J4 0J420161110024010911/10/16 02:40:31  5-MIN K0J4 100740Z AUTO 01003KT 10SM CLR 08/06 A3020 60 86 -600 010/03 RMK AO2 T00830061 $
63870K0J4 0J420161110024510911/10/16 02:45:31  5-MIN K0J4 100745Z AUTO 02005KT 10SM CLR 08/06 A3019 60 86 -600 020/05 RMK AO2 T00830061 $
63870K0J4 0J420161110025010911/10/16 02:50:31  5-MIN K0J4 100750Z AUTO 01006KT 10SM CLR 08/06 A3019 70 86 -600 010/06 RMK AO2 T00830061 $
63870K0J4 0J420161110025511611/10/16 02:55:31  5-MIN K0J4 100755Z AUTO 02004KT 10SM CLR 08/06 A3019 70 86 -600 020/04 RMK AO2 SLP220 T00830061 $
63870K0J4 0J420161110030010911/10/16 03:00:31  5-MIN K0J4 100800Z AUTO 02003KT 10SM CLR 08/06 A3019 70 86 -600 020/03 RMK AO2 T00830061 $
63870K0J4 0J420161110030510911/10/16 03:05:31  5-MIN K0J4 100805Z AUTO 02003KT 10SM CLR 09/06 A3019 70 79 -500 020/03 RMK AO2 T00940061 $
63870K0J4 0J420161110031010911/10/16 03:10:31  5-MIN K0J4 100810Z AUTO 03003KT 10SM CLR 09/06 A3019 70 79 -500 030/03 RMK AO2 T00940061 $
63870K0J4 0J420161110031510911/10/16 03:15:31  5-MIN K0J4 100815Z AUTO 02003KT 10SM CLR 08/06 A3019 70 82 -600 020/03 RMK AO2 T00830056 $
63870K0J4 0J420161110032010911/10/16 03:20:31  5-MIN K0J4 100820Z AUTO 01003KT 10SM CLR 09/06 A3020 60 83 -600 010/03 RMK AO2 T00890061 $
63870K0J4 0J420161110032510911/10/16 03:25:31  5-MIN K0J4 100825Z AUTO 00000KT 10SM CLR 08/06 A3020 60 86 -700 000/00 RMK AO2 T00780056 $
63870K0J4 0J420161110033010911/10/16 03:30:31  5-MIN K0J4 100830Z AUTO 00000KT 10SM CLR 08/05 A3019 60 82 -700 000/00 RMK AO2 T00780050 $
63870K0J4 0J420161110033510911/10/16 03:35:31  5-MIN K0J4 100835Z AUTO 01003KT 10SM CLR 08/05 A3019 70 82 -700 010/03 RMK AO2 T00780050 $
63870K0J4 0J420161110034010911/10/16 03:40:31  5-MIN K0J4 100840Z AUTO 01004KT 10SM CLR 08/06 A3019 60 86 -700 010/04 RMK AO2 T00780056 $
63870K0J4 0J420161110034510911/10/16 03:45:31  5-MIN K0J4 100845Z AUTO 01005KT 10SM CLR 08/05 A3019 60 82 -700 010/05 RMK AO2 T00780050 $
63870K0J4 0J420161110035010911/10/16 03:50:31  5-MIN K0J4 100850Z AUTO 02003KT 10SM CLR 08/05 A3019 70 82 -700 020/03 RMK AO2 T00780050 $
63870K0J4 0J420161110035512211/10/16 03:55:31  5-MIN K0J4 100855Z AUTO 02004KT 10SM CLR 08/06 A3019 70 86 -700 020/04 RMK AO2 SLP220 T00780056 51005 $
63870K0J4 0J420161110040010911/10/16 04:00:31  5-MIN K0J4 100900Z AUTO 01005KT 10SM CLR 07/05 A3019 70 86 -800 010/05 RMK AO2 T00720050 $
63870K0J4 0J420161110040510911/10/16 04:05:31  5-MIN K0J4 100905Z AUTO 02003KT 10SM CLR 07/05 A3019 70 86 -800 020/03 RMK AO2 T00720050 $
63870K0J4 0J420161110041010911/10/16 04:10:31  5-MIN K0J4 100910Z AUTO 01003KT 10SM CLR 07/05 A3019 70 86 -800 010/03 RMK AO2 T00720050 $
63870K0J4 0J420161110041510911/10/16 04:15:31  5-MIN K0J4 100915Z AUTO 00000KT 10SM CLR 07/05 A3019 70 86 -800 000/00 RMK AO2 T00720050 $
63870K0J4 0J420161110042010911/10/16 04:20:31  5-MIN K0J4 100920Z AUTO 00000KT 10SM CLR 07/04 A3019 70 82 -800 000/00 RMK AO2 T00720044 $
63870K0J4 0J420161110042510911/10/16 04:25:31  5-MIN K0J4 100925Z AUTO 00000KT 10SM CLR 07/04 A3019 60 82 -800 000/00 RMK AO2 T00720044 $
63870K0J4 0J420161110043010911/10/16 04:30:31  5-MIN K0J4 100930Z AUTO 00000KT 10SM CLR 06/04 A3020 60 86 -900 000/00 RMK AO2 T00610039 $
63870K0J4 0J420161110043510911/10/16 04:35:31  5-MIN K0J4 100935Z AUTO 01003KT 10SM CLR 07/04 A3020 60 82 -800 010/03 RMK AO2 T00670039 $
63870K0J4 0J420161110044010911/10/16 04:40:31  5-MIN K0J4 100940Z AUTO 01004KT 10SM CLR 07/04 A3020 60 86 -800 010/04 RMK AO2 T00670044 $
63870K0J4 0J420161110044510911/10/16 04:45:31  5-MIN K0J4 100945Z AUTO 00000KT 10SM CLR 07/04 A3020 60 86 -800 000/00 RMK AO2 T00670044 $
63870K0J4 0J420161110045010911/10/16 04:50:31  5-MIN K0J4 100950Z AUTO 00000KT 10SM CLR 06/04 A3020 60 89 -900 000/00 RMK AO2 T00610044 $
63870K0J4 0J420161110045511611/10/16 04:55:31  5-MIN K0J4 100955Z AUTO 00000KT 10SM CLR 06/04 A3020 50 89 -900 000/00 RMK AO2 SLP226 T00610044 $
63870K0J4 0J420161110050010911/10/16 05:00:31  5-MIN K0J4 101000Z AUTO 36003KT 10SM CLR 06/04 A3020 50 89 -900 360/03 RMK AO2 T00610044 $
63870K0J4 0J420161110050510911/10/16 05:05:31  5-MIN K0J4 101005Z AUTO 35003KT 10SM CLR 06/04 A3020 50 86 -900 350/03 RMK AO2 T00610039 $
63870K0J4 0J420161110051010911/10/16 05:10:31  5-MIN K0J4 101010Z AUTO 00000KT 10SM CLR 06/04 A3021 50 89 -900 000/00 RMK AO2 T00610044 $
63870K0J4 0J420161110051510911/10/16 05:15:31  5-MIN K0J4 101015Z AUTO 01003KT 10SM CLR 06/04 A3020 60 89 -900 010/03 RMK AO2 T00610044 $
63870K0J4 0J420161110153510911/10/16 15:35:31  5-MIN K0J4 102035Z AUTO 04007KT 10SM CLR 24/02 A3016 90 24 1200 040/07 RMK AO2 T02390022 $
63870K0J4 0J420161110154010911/10/16 15:40:31  5-MIN K0J4 102040Z AUTO VRB03KT 10SM CLR 23/02 A3016 90 24 1100 VRB/03 RMK AO2 T02330022 $
63870K0J4 0J420161110154510911/10/16 15:45:31  5-MIN K0J4 102045Z AUTO 01004KT 10SM CLR 24/02 A3016 90 23 1200 010/04 RMK AO2 T02390017 $
63870K0J4 0J420161110155010911/10/16 15:50:31  5-MIN K0J4 102050Z AUTO VRB04KT 10SM CLR 23/02 A3017 90 24 1100 VRB/04 RMK AO2 T02330017 $
63870K0J4 0J420161110155512211/10/16 15:55:31  5-MIN K0J4 102055Z AUTO VRB05KT 10SM CLR 23/01 A3016 90 23 1100 VRB/05 RMK AO2 SLP212 T02330011 58019 $
63870K0J4 0J420161110160010911/10/16 16:00:31  5-MIN K0J4 102100Z AUTO 36004KT 10SM CLR 23/01 A3016 90 22 1100 360/04 RMK AO2 T02330006 $
63870K0J4 0J420161110160510911/10/16 16:05:31  5-MIN K0J4 102105Z AUTO 01005KT 10SM CLR 23/00 A3016 90 21 1100 010/05 RMK AO2 T02330000 $
63870K0J4 0J420161110161010911/10/16 16:10:31  5-MIN K0J4 102110Z AUTO 01005KT 10SM CLR 23/00 A3016 90 21 1100 010/05 RMK AO2 T02330000 $
63870K0J4 0J420161110161510911/10/16 16:15:31  5-MIN K0J4 102115Z AUTO 05003KT 10SM CLR 23/00 A3016 90 21 1100 050/03 RMK AO2 T02330000 $
63870K0J4 0J420161110162011011/10/16 16:20:31  5-MIN K0J4 102120Z AUTO 02004KT 10SM CLR 23/01 A3016 100 22 1100 020/04 RMK AO2 T02330006 $
63870K0J4 0J420161110162511011/10/16 16:25:31  5-MIN K0J4 102125Z AUTO 03005KT 10SM CLR 23/01 A3016 100 22 1100 030/05 RMK AO2 T02330006 $
63870K0J4 0J420161110163011011/10/16 16:30:31  5-MIN K0J4 102130Z AUTO 03004KT 10SM CLR 23/01 A3016 100 23 1100 030/04 RMK AO2 T02330011 $
63870K0J4 0J420161110163510811/10/16 16:35:31  5-MIN K0J4 102135Z AUTO 03004KT 10SM CLR 23/01 A3016 100 23 1100 030/04 RMK AO2 T02280011
63870K0J4 0J420161110164010811/10/16 16:40:31  5-MIN K0J4 102140Z AUTO 36003KT 10SM CLR 23/01 A3016 100 23 1100 360/03 RMK AO2 T02280011
63870K0J4 0J420161110164511011/10/16 16:45:31  5-MIN K0J4 102145Z AUTO 00000KT 10SM CLR 23/01 A3016 100 22 1100 000/00 RMK AO2 T02280006 $
63870K0J4 0J420161110165011011/10/16 16:50:31  5-MIN K0J4 102150Z AUTO 00000KT 10SM CLR 22/01 A3016 100 24 1000 000/00 RMK AO2 T02220011 $
63870K0J4 0J420161110165511511/10/16 16:55:31  5-MIN K0J4 102155Z AUTO 00000KT 10SM CLR 22/01 A3016 90 25 900 000/00 RMK AO2 SLP212 T02170011 $
63870K0J4 0J420161110170010911/10/16 17:00:31  5-MIN K0J4 102200Z AUTO 00000KT 10SM CLR 22/02 A3016 100 26 900 000/00 RMK AO2 T02170017 $
63870K0J4 0J420161110170510811/10/16 17:05:31  5-MIN K0J4 102205Z AUTO 00000KT 10SM CLR 21/02 A3016 90 27 900 000/00 RMK AO2 T02110017 $
63870K0J4 0J420161110171010811/10/16 17:10:31  5-MIN K0J4 102210Z AUTO 00000KT 10SM CLR 21/02 A3017 90 29 800 000/00 RMK AO2 T02060022 $
63870K0J4 0J420161110171510811/10/16 17:15:31  5-MIN K0J4 102215Z AUTO 00000KT 10SM CLR 20/03 A3016 90 31 700 000/00 RMK AO2 T02000028 $
63870K0J4 0J420161110172010811/10/16 17:20:31  5-MIN K0J4 102220Z AUTO 00000KT 10SM CLR 19/03 A3016 90 33 700 000/00 RMK AO2 T01940028 $
63870K0J4 0J420161110172510811/10/16 17:25:31  5-MIN K0J4 102225Z AUTO 00000KT 10SM CLR 19/03 A3016 90 33 700 000/00 RMK AO2 T01940028 $
63870K0J4 0J420161110173010811/10/16 17:30:31  5-MIN K0J4 102230Z AUTO 00000KT 10SM CLR 19/03 A3016 90 35 600 000/00 RMK AO2 T01890033 $
63870K0J4 0J420161110173510911/10/16 17:35:31  5-MIN K0J4 102235Z AUTO 35003KT 10SM CLR 19/03 A3016 100 35 600 350/03 RMK AO2 T01890033 $
63870K0J4 0J420161110174010811/10/16 17:40:31  5-MIN K0J4 102240Z AUTO 00000KT 10SM CLR 18/04 A3016 90 39 500 000/00 RMK AO2 T01780039 $
63870K0J4 0J420161110174510811/10/16 17:45:31  5-MIN K0J4 102245Z AUTO 00000KT 10SM CLR 18/04 A3016 90 41 500 000/00 RMK AO2 T01780044 $
63870K0J4 0J420161110175012411/10/16 17:50:31  5-MIN K0J4 102250Z AUTO 00000KT 10SM -RA CLR 17/04 A3016 90 42 400 000/00 RMK AO2 RAB47 P0000 T01720044 $
63870K0J4 0J420161110175513111/10/16 17:55:31  5-MIN K0J4 102255Z AUTO 36003KT 10SM -RA CLR 17/04 A3016 90 42 400 360/03 RMK AO2 RAB47 SLP212 P0000 T01720044 $
63870K0J4 0J420161110180012011/10/16 18:00:31  5-MIN K0J4 102300Z AUTO 35003KT 10SM CLR 17/04 A3016 90 44 400 350/03 RMK AO2 RAE00 P0000 T01670044 $
63870K0J4 0J420161110180512011/10/16 18:05:31  5-MIN K0J4 102305Z AUTO 00000KT 10SM CLR 16/05 A3016 90 49 200 000/00 RMK AO2 RAE00 P0000 T01560050 $
63870K0J4 0J420161110181012011/10/16 18:10:31  5-MIN K0J4 102310Z AUTO 00000KT 10SM CLR 16/05 A3017 90 49 200 000/00 RMK AO2 RAE00 P0000 T01560050 $
63870K0J4 0J420161110181511811/10/16 18:15:31  5-MIN K0J4 102315Z AUTO 00000KT 10SM CLR 14/06 A3017 90 57 0 000/00 RMK AO2 RAE00 P0000 T01390056 $
63870K0J4 0J420161110182012011/10/16 18:20:31  5-MIN K0J4 102320Z AUTO 00000KT 10SM CLR 15/06 A3017 90 53 100 000/00 RMK AO2 RAE00 P0000 T01500056 $
63870K0J4 0J420161110182511811/10/16 18:25:31  5-MIN K0J4 102325Z AUTO 00000KT 10SM CLR 14/06 A3017 80 57 0 000/00 RMK AO2 RAE00 P0000 T01390056 $
63870K0J4 0J420161110183011811/10/16 18:30:31  5-MIN K0J4 102330Z AUTO 00000KT 10SM CLR 13/07 A3017 80 64 0 000/00 RMK AO2 RAE00 P0000 T01330067 $
63870K0J4 0J420161110183512111/10/16 18:35:31  5-MIN K0J4 102335Z AUTO 00000KT 10SM CLR 12/07 A3017 80 68 -100 000/00 RMK AO2 RAE00 P0000 T01220067 $
63870K0J4 0J420161110184012111/10/16 18:40:31  5-MIN K0J4 102340Z AUTO 00000KT 10SM CLR 12/06 A3017 80 66 -100 000/00 RMK AO2 RAE00 P0000 T01220061 $
63870K0J4 0J420161110184511811/10/16 18:45:31  5-MIN K0J4 102345Z AUTO 00000KT 10SM CLR 13/07 A3017 80 64 0 000/00 RMK AO2 RAE00 P0000 T01330067 $
63870K0J4 0J420161110185012111/10/16 18:50:31  5-MIN K0J4 102350Z AUTO 36003KT 10SM CLR 13/06 A3017 90 63 -100 360/03 RMK AO2 RAE00 P0000 T01280061 $
63870K0J4 0J420161110185515211/10/16 18:55:31  5-MIN K0J4 102355Z AUTO 00000KT 10SM CLR 12/06 A3017 80 63 -100 000/00 RMK AO2 RAE00 SLP217 P0000 60000 T01220056 10239 20122 55014 $
63870K0J4 0J420161110190010911/10/16 19:00:31  5-MIN K0J4 110000Z AUTO 00000KT 10SM CLR 11/06 A3017 80 68 -300 000/00 RMK AO2 T01110056 $
63870K0J4 0J420161110190510911/10/16 19:05:31  5-MIN K0J4 110005Z AUTO 36003KT 10SM CLR 11/06 A3018 80 68 -300 360/03 RMK AO2 T01110056 $
63870K0J4 0J420161110191010911/10/16 19:10:31  5-MIN K0J4 110010Z AUTO 00000KT 10SM CLR 12/06 A3018 80 66 -200 000/00 RMK AO2 T01170056 $
63870K0J4 0J420161110191510911/10/16 19:15:31  5-MIN K0J4 110015Z AUTO 00000KT 10SM CLR 12/05 A3018 80 61 -100 000/00 RMK AO2 T01220050 $
63870K0J4 0J420161110192010911/10/16 19:20:31  5-MIN K0J4 110020Z AUTO 00000KT 10SM CLR 12/05 A3018 80 63 -200 000/00 RMK AO2 T01170050 $
63870K0J4 0J420161110192510911/10/16 19:25:31  5-MIN K0J4 110025Z AUTO 03003KT 10SM CLR 12/05 A3018 80 63 -200 030/03 RMK AO2 T01170050 $
63870K0J4 0J420161110193010911/10/16 19:30:31  5-MIN K0J4 110030Z AUTO 02003KT 10SM CLR 12/05 A3017 80 61 -100 020/03 RMK AO2 T01220050 $
63870K0J4 0J420161110193510911/10/16 19:35:31  5-MIN K0J4 110035Z AUTO 01003KT 10SM CLR 12/04 A3017 80 59 -100 010/03 RMK AO2 T01220044 $
63870K0J4 0J420161110194010911/10/16 19:40:31  5-MIN K0J4 110040Z AUTO 01004KT 10SM CLR 11/05 A3017 80 66 -300 010/04 RMK AO2 T01110050 $
63870K0J4 0J420161110194510911/10/16 19:45:31  5-MIN K0J4 110045Z AUTO 01003KT 10SM CLR 11/05 A3018 80 68 -300 010/03 RMK AO2 T01060050 $
63870K0J4 0J420161110195010911/10/16 19:50:31  5-MIN K0J4 110050Z AUTO 36003KT 10SM CLR 11/05 A3018 80 68 -300 360/03 RMK AO2 T01060050 $
63870K0J4 0J420161110195511611/10/16 19:55:31  5-MIN K0J4 110055Z AUTO 36003KT 10SM CLR 12/05 A3018 80 63 -200 360/03 RMK AO2 SLP219 T01170050 $
63870K0J4 0J420161110200010911/10/16 20:00:31  5-MIN K0J4 110100Z AUTO 35003KT 10SM CLR 11/05 A3018 80 66 -300 350/03 RMK AO2 T01110050 $
63870K0J4 0J420161110200510911/10/16 20:05:31  5-MIN K0J4 110105Z AUTO 00000KT 10SM CLR 11/05 A3018 70 68 -300 000/00 RMK AO2 T01060050 $
63870K0J4 0J420161110201010911/10/16 20:10:31  5-MIN K0J4 110110Z AUTO 00000KT 10SM CLR 10/05 A3018 70 71 -400 000/00 RMK AO2 T01000050 $
63870K0J4 0J420161110201510911/10/16 20:15:31  5-MIN K0J4 110115Z AUTO 00000KT 10SM CLR 11/05 A3019 70 68 -400 000/00 RMK AO2 T01060050 $
63870K0J4 0J420161110202010911/10/16 20:20:31  5-MIN K0J4 110120Z AUTO 00000KT 10SM CLR 09/05 A3019 70 76 -600 000/00 RMK AO2 T00890050 $
63870K0J4 0J420161110202510911/10/16 20:25:31  5-MIN K0J4 110125Z AUTO 00000KT 10SM CLR 09/05 A3019 70 76 -600 000/00 RMK AO2 T00890050 $
63870K0J4 0J420161110203010911/10/16 20:30:31  5-MIN K0J4 110130Z AUTO 00000KT 10SM CLR 09/05 A3019 70 74 -500 000/00 RMK AO2 T00940050 $
63870K0J4 0J420161110203510911/10/16 20:35:31  5-MIN K0J4 110135Z AUTO 00000KT 10SM CLR 10/05 A3019 70 71 -400 000/00 RMK AO2 T01000050 $
63870K0J4 0J420161110204010911/10/16 20:40:31  5-MIN K0J4 110140Z AUTO 00000KT 10SM CLR 11/05 A3019 70 68 -400 000/00 RMK AO2 T01060050 $
63870K0J4 0J420161110204510911/10/16 20:45:31  5-MIN K0J4 110145Z AUTO 00000KT 10SM CLR 09/05 A3019 70 74 -500 000/00 RMK AO2 T00940050 $
63870K0J4 0J420161110205010911/10/16 20:50:31  5-MIN K0J4 110150Z AUTO 00000KT 10SM CLR 09/05 A3019 70 74 -500 000/00 RMK AO2 T00940050 $
63870K0J4 0J420161110205511611/10/16 20:55:31  5-MIN K0J4 110155Z AUTO 00000KT 10SM CLR 09/05 A3019 70 76 -600 000/00 RMK AO2 SLP221 T00890050 $
63870K0J4 0J420161110210010911/10/16 21:00:31  5-MIN K0J4 110200Z AUTO 00000KT 10SM CLR 08/04 A3019 70 76 -600 000/00 RMK AO2 T00830044 $
63870K0J4 0J420161110210510911/10/16 21:05:31  5-MIN K0J4 110205Z AUTO 00000KT 10SM CLR 08/04 A3019 70 76 -600 000/00 RMK AO2 T00830044 $
63870K0J4 0J420161110211010911/10/16 21:10:31  5-MIN K0J4 110210Z AUTO 00000KT 10SM CLR 09/05 A3019 60 76 -600 000/00 RMK AO2 T00890050 $
63870K0J4 0J420161110211510911/10/16 21:15:31  5-MIN K0J4 110215Z AUTO 00000KT 10SM CLR 09/05 A3019 60 74 -500 000/00 RMK AO2 T00940050 $
63870K0J4 0J420161110212010911/10/16 21:20:31  5-MIN K0J4 110220Z AUTO 00000KT 10SM CLR 09/04 A3020 60 73 -600 000/00 RMK AO2 T00890044 $
63870K0J4 0J420161110212510911/10/16 21:25:31  5-MIN K0J4 110225Z AUTO 00000KT 10SM CLR 09/05 A3020 60 76 -600 000/00 RMK AO2 T00890050 $
63870K0J4 0J420161110213010911/10/16 21:30:31  5-MIN K0J4 110230Z AUTO 00000KT 10SM CLR 08/04 A3020 60 76 -600 000/00 RMK AO2 T00830044 $
63870K0J4 0J420161110213510911/10/16 21:35:31  5-MIN K0J4 110235Z AUTO 00000KT 10SM CLR 08/04 A3020 60 79 -700 000/00 RMK AO2 T00780044 $
63870K0J4 0J420161110214010911/10/16 21:40:31  5-MIN K0J4 110240Z AUTO 00000KT 10SM CLR 07/04 A3020 60 82 -800 000/00 RMK AO2 T00720044 $
63870K0J4 0J420161110214510911/10/16 21:45:31  5-MIN K0J4 110245Z AUTO 00000KT 10SM CLR 08/05 A3020 60 79 -600 000/00 RMK AO2 T00830050 $
63870K0J4 0J420161110215010911/10/16 21:50:31  5-MIN K0J4 110250Z AUTO 00000KT 10SM CLR 07/04 A3020 60 82 -800 000/00 RMK AO2 T00720044 $
63870K0J4 0J420161110215512211/10/16 21:55:31  5-MIN K0J4 110255Z AUTO 00000KT 10SM CLR 08/04 A3020 60 79 -700 000/00 RMK AO2 SLP224 T00780044 53002 $
63870K0J4 0J420161110220010911/10/16 22:00:31  5-MIN K0J4 110300Z AUTO 00000KT 10SM CLR 08/04 A3020 60 76 -600 000/00 RMK AO2 T00830044 $
63870K0J4 0J420161110220510911/10/16 22:05:31  5-MIN K0J4 110305Z AUTO 00000KT 10SM CLR 08/04 A3020 60 76 -600 000/00 RMK AO2 T00830044 $
63870K0J4 0J420161110221010911/10/16 22:10:31  5-MIN K0J4 110310Z AUTO 00000KT 10SM CLR 08/04 A3020 60 79 -700 000/00 RMK AO2 T00780044 $
63870K0J4 0J420161110221510911/10/16 22:15:31  5-MIN K0J4 110315Z AUTO 00000KT 10SM CLR 07/04 A3020 60 82 -800 000/00 RMK AO2 T00670039 $
63870K0J4 0J420161110222010911/10/16 22:20:31  5-MIN K0J4 110320Z AUTO 00000KT 10SM CLR 07/04 A3020 60 82 -800 000/00 RMK AO2 T00670039 $
63870K0J4 0J420161110222510911/10/16 22:25:31  5-MIN K0J4 110325Z AUTO 00000KT 10SM CLR 07/04 A3020 60 79 -800 000/00 RMK AO2 T00720039 $
63870K0J4 0J420161110223010911/10/16 22:30:31  5-MIN K0J4 110330Z AUTO 00000KT 10SM CLR 06/03 A3020 60 82 -900 000/00 RMK AO2 T00610033 $
63870K0J4 0J420161110223510911/10/16 22:35:31  5-MIN K0J4 110335Z AUTO 00000KT 10SM CLR 07/03 A3020 60 79 -800 000/00 RMK AO2 T00670033 $
63870K0J4 0J420161110224010911/10/16 22:40:31  5-MIN K0J4 110340Z AUTO 00000KT 10SM CLR 07/04 A3020 60 82 -800 000/00 RMK AO2 T00670039 $
63870K0J4 0J420161110224510911/10/16 22:45:31  5-MIN K0J4 110345Z AUTO 00000KT 10SM CLR 07/03 A3020 60 79 -800 000/00 RMK AO2 T00670033 $
63870K0J4 0J420161110225010911/10/16 22:50:31  5-MIN K0J4 110350Z AUTO 00000KT 10SM CLR 06/03 A3020 50 82 -900 000/00 RMK AO2 T00610033 $
63870K0J4 0J420161110225511611/10/16 22:55:31  5-MIN K0J4 110355Z AUTO 00000KT 10SM CLR 06/03 A3020 60 82 -900 000/00 RMK AO2 SLP226 T00610033 $
63870K0J4 0J420161110230010911/10/16 23:00:31  5-MIN K0J4 110400Z AUTO 00000KT 10SM CLR 06/03 A3020 60 82 -900 000/00 RMK AO2 T00610033 $
63870K0J4 0J420161110230510911/10/16 23:05:31  5-MIN K0J4 110405Z AUTO 00000KT 10SM CLR 07/03 A3020 60 79 -800 000/00 RMK AO2 T00670033 $
63870K0J4 0J420161110231010911/10/16 23:10:31  5-MIN K0J4 110410Z AUTO 00000KT 10SM CLR 06/04 A3020 60 86 -900 000/00 RMK AO2 T00610039 $
63870K0J4 0J420161110231510911/10/16 23:15:31  5-MIN K0J4 110415Z AUTO 35003KT 10SM CLR 07/03 A3019 70 79 -800 350/03 RMK AO2 T00670033 $
63870K0J4 0J420161110232010911/10/16 23:20:31  5-MIN K0J4 110420Z AUTO 00000KT 10SM CLR 07/03 A3019 70 79 -800 000/00 RMK AO2 T00670033 $
63870K0J4 0J420161110232510911/10/16 23:25:31  5-MIN K0J4 110425Z AUTO 35003KT 10SM CLR 06/03 A3019 70 82 -900 350/03 RMK AO2 T00610033 $
63870K0J4 0J420161110233010911/10/16 23:30:31  5-MIN K0J4 110430Z AUTO 35003KT 10SM CLR 06/03 A3019 70 79 -900 350/03 RMK AO2 T00610028 $
63870K0J4 0J420161110233510911/10/16 23:35:31  5-MIN K0J4 110435Z AUTO 32003KT 10SM CLR 07/03 A3019 70 79 -800 320/03 RMK AO2 T00670033 $
63870K0J4 0J420161110234010911/10/16 23:40:31  5-MIN K0J4 110440Z AUTO 32003KT 10SM CLR 06/03 A3019 70 82 -900 320/03 RMK AO2 T00610033 $
63870K0J4 0J420161110234510911/10/16 23:45:31  5-MIN K0J4 110445Z AUTO 00000KT 10SM CLR 07/03 A3019 70 79 -800 000/00 RMK AO2 T00670033 $
63870K0J4 0J420161110235011011/10/16 23:50:31  5-MIN K0J4 110450Z AUTO 00000KT 10SM CLR 06/03 A3019 70 82 -1000 000/00 RMK AO2 T00560028 $
63870K0J4 0J420161110235512711/10/16 23:55:31  5-MIN K0J4 110455Z AUTO 00000KT 10SM CLR 06/02 A3019 70 79 -1000 000/00 RMK AO2 SLP221 T00560022 402390039 $
63870K0J4 0J420161111000011011/11/16 00:00:31  5-MIN K0J4 110500Z AUTO 00000KT 10SM CLR 05/02 A3019 70 82 -1000 000/00 RMK AO2 T00500022 $
63870K0J4 0J420161111000511011/11/16 00:05:31  5-MIN K0J4 110505Z AUTO 00000KT 10SM CLR 06/03 A3018 70 82 -1000 000/00 RMK AO2 T00560028 $
63870K0J4 0J420161111001011011/11/16 00:10:31  5-MIN K0J4 110510Z AUTO 00000KT 10SM CLR 06/03 A3018 80 82 -1000 000/00 RMK AO2 T00560028 $
63870K0J4 0J420161111001511011/11/16 00:15:31  5-MIN K0J4 110515Z AUTO 00000KT 10SM CLR 05/03 A3018 80 85 -1000 000/00 RMK AO2 T00500028 $
63870K0J4 0J420161111002010911/11/16 00:20:31  5-MIN K0J4 110520Z AUTO 00000KT 10SM CLR 06/03 A3018 80 79 -900 000/00 RMK AO2 T00610028 $
63870K0J4 0J420161111002510911/11/16 00:25:31  5-MIN K0J4 110525Z AUTO 00000KT 10SM CLR 06/03 A3018 80 79 -900 000/00 RMK AO2 T00610028 $
63870K0J4 0J420161111003011011/11/16 00:30:31  5-MIN K0J4 110530Z AUTO 00000KT 10SM CLR 05/03 A3018 80 85 -1000 000/00 RMK AO2 T00500028 $
63870K0J4 0J420161111003511011/11/16 00:35:31  5-MIN K0J4 110535Z AUTO 00000KT 10SM CLR 05/03 A3018 80 85 -1000 000/00 RMK AO2 T00500028 $
63870K0J4 0J420161111004011011/11/16 00:40:31  5-MIN K0J4 110540Z AUTO 00000KT 10SM CLR 05/03 A3018 80 85 -1000 000/00 RMK AO2 T00500028 $
63870K0J4 0J420161111004511011/11/16 00:45:31  5-MIN K0J4 110545Z AUTO 00000KT 10SM CLR 06/03 A3018 80 82 -1000 000/00 RMK AO2 T00560028 $
63870K0J4 0J420161111005011011/11/16 00:50:31  5-MIN K0J4 110550Z AUTO 00000KT 10SM CLR 05/03 A3018 80 85 -1000 000/00 RMK AO2 T00500028 $
63870K0J4 0J420161111005513511/11/16 00:55:31  5-MIN K0J4 110555Z AUTO 00000KT 10SM CLR 05/03 A3018 80 85 -1000 000/00 RMK AO2 SLP218 T00500028 10122 20050 53008 $
63870K0J4 0J420161111010011011/11/16 01:00:31  5-MIN K0J4 110600Z AUTO 00000KT 10SM CLR 05/03 A3018 80 85 -1000 000/00 RMK AO2 T00500028 $
63870K0J4 0J420161111010511011/11/16 01:05:31  5-MIN K0J4 110605Z AUTO 00000KT 10SM CLR 05/03 A3018 80 85 -1000 000/00 RMK AO2 T00500028 $
63870K0J4 0J420161111011011011/11/16 01:10:31  5-MIN K0J4 110610Z AUTO 00000KT 10SM CLR 06/03 A3018 80 82 -1000 000/00 RMK AO2 T00560028 $
63870K0J4 0J420161111011511011/11/16 01:15:31  5-MIN K0J4 110615Z AUTO 00000KT 10SM CLR 06/03 A3018 80 82 -1000 000/00 RMK AO2 T00560028 $
63870K0J4 0J420161111012011011/11/16 01:20:31  5-MIN K0J4 110620Z AUTO 00000KT 10SM CLR 05/03 A3018 80 85 -1000 000/00 RMK AO2 T00500028 $
63870K0J4 0J420161111012511011/11/16 01:25:31  5-MIN K0J4 110625Z AUTO 00000KT 10SM CLR 04/02 A3018 80 85 -1100 000/00 RMK AO2 T00440022 $
63870K0J4 0J420161111013011011/11/16 01:30:31  5-MIN K0J4 110630Z AUTO 00000KT 10SM CLR 05/02 A3018 80 82 -1000 000/00 RMK AO2 T00500022 $
63870K0J4 0J420161111013511011/11/16 01:35:31  5-MIN K0J4 110635Z AUTO 00000KT 10SM CLR 06/03 A3018 80 82 -1000 000/00 RMK AO2 T00560028 $
63870K0J4 0J420161111014011011/11/16 01:40:31  5-MIN K0J4 110640Z AUTO 00000KT 10SM CLR 05/02 A3017 80 82 -1000 000/00 RMK AO2 T00500022 $
63870K0J4 0J420161111014511011/11/16 01:45:31  5-MIN K0J4 110645Z AUTO 00000KT 10SM CLR 05/02 A3018 80 82 -1000 000/00 RMK AO2 T00500022 $
63870K0J4 0J420161111015011011/11/16 01:50:31  5-MIN K0J4 110650Z AUTO 00000KT 10SM CLR 05/02 A3018 80 82 -1000 000/00 RMK AO2 T00500022 $
63870K0J4 0J420161111015511711/11/16 01:55:31  5-MIN K0J4 110655Z AUTO 00000KT 10SM CLR 04/02 A3018 80 85 -1100 000/00 RMK AO2 SLP218 T00440022 $
63870K0J4 0J420161111020011011/11/16 02:00:31  5-MIN K0J4 110700Z AUTO 00000KT 10SM CLR 04/02 A3018 80 85 -1200 000/00 RMK AO2 T00390017 $
63870K0J4 0J420161111020511011/11/16 02:05:31  5-MIN K0J4 110705Z AUTO 31003KT 10SM CLR 04/02 A3018 80 82 -1100 310/03 RMK AO2 T00440017 $
63870K0J4 0J420161111021011011/11/16 02:10:31  5-MIN K0J4 110710Z AUTO 32003KT 10SM CLR 05/02 A3018 80 79 -1000 320/03 RMK AO2 T00500017 $
63870K0J4 0J420161111021511011/11/16 02:15:31  5-MIN K0J4 110715Z AUTO VRB03KT 10SM CLR 06/02 A3018 80 79 -1000 VRB/03 RMK AO2 T00560022 $
63870K0J4 0J420161111022010911/11/16 02:20:31  5-MIN K0J4 110720Z AUTO 32004KT 10SM CLR 07/03 A3018 80 76 -800 320/04 RMK AO2 T00670028 $
63870K0J4 0J420161111022510911/11/16 02:25:31  5-MIN K0J4 110725Z AUTO 33003KT 10SM CLR 08/03 A3018 80 70 -700 330/03 RMK AO2 T00780028 $
63870K0J4 0J420161111023010911/11/16 02:30:31  5-MIN K0J4 110730Z AUTO 33003KT 10SM CLR 07/03 A3018 80 73 -700 330/03 RMK AO2 T00720028 $
63870K0J4 0J420161111023510911/11/16 02:35:31  5-MIN K0J4 110735Z AUTO 33005KT 10SM CLR 09/03 A3017 80 65 -500 330/05 RMK AO2 T00890028 $
63870K0J4 0J420161111024010911/11/16 02:40:31  5-MIN K0J4 110740Z AUTO VRB04KT 10SM CLR 10/02 A3017 80 58 -400 VRB/04 RMK AO2 T01000022 $
63870K0J4 0J420161111024510911/11/16 02:45:31  5-MIN K0J4 110745Z AUTO 34005KT 10SM CLR 10/02 A3017 90 58 -400 340/05 RMK AO2 T01000022 $
63870K0J4 0J420161111025010911/11/16 02:50:31  5-MIN K0J4 110750Z AUTO 34005KT 10SM CLR 10/02 A3017 90 58 -400 340/05 RMK AO2 T01000022 $
63870K0J4 0J420161111025511611/11/16 02:55:31  5-MIN K0J4 110755Z AUTO 35004KT 10SM CLR 10/02 A3016 90 58 -400 350/04 RMK AO2 SLP211 T01000022 $
63870K0J4 0J420161111030010911/11/16 03:00:31  5-MIN K0J4 110800Z AUTO VRB04KT 10SM CLR 09/02 A3016 90 60 -500 VRB/04 RMK AO2 T00940022 $
63870K0J4 0J420161111030511011/11/16 03:05:31  5-MIN K0J4 110805Z AUTO 35004KT 10SM CLR 10/02 A3016 100 56 -400 350/04 RMK AO2 T01000017 $
63870K0J4 0J420161111031011011/11/16 03:10:31  5-MIN K0J4 110810Z AUTO 34005KT 10SM CLR 10/02 A3016 100 58 -400 340/05 RMK AO2 T01000022 $
63870K0J4 0J420161111031511011/11/16 03:15:31  5-MIN K0J4 110815Z AUTO 35004KT 10SM CLR 10/02 A3016 100 58 -400 350/04 RMK AO2 T01000022 $
63870K0J4 0J420161111032011011/11/16 03:20:31  5-MIN K0J4 110820Z AUTO 34005KT 10SM CLR 10/02 A3016 100 56 -400 340/05 RMK AO2 T01000017 $
63870K0J4 0J420161111032511011/11/16 03:25:31  5-MIN K0J4 110825Z AUTO 35005KT 10SM CLR 10/02 A3015 100 56 -400 350/05 RMK AO2 T01000017 $
63870K0J4 0J420161111033011011/11/16 03:30:31  5-MIN K0J4 110830Z AUTO 34005KT 10SM CLR 10/02 A3015 100 56 -400 340/05 RMK AO2 T01000017 $
63870K0J4 0J420161111143509511/11/16 14:35:31  5-MIN K0J4 111935Z AUTO VRB03KT -RA A3008 M M M VRB/03 RMK AO2 RAB35 P0000 $
63870K0J4 0J420161111144011611/11/16 14:40:31  5-MIN K0J4 111940Z AUTO 00000KT -RA 21/01 A3008 170 26 900 000/00 RMK AO2 RAB35 P0000 T02060006 $
63870K0J4 0J420161111144512111/11/16 14:45:31  5-MIN K0J4 111945Z AUTO 23004KT 10SM -RA 21/01 A3008 170 27 900 230/04 RMK AO2 RAB35 P0000 T02060011 $
63870K0J4 0J420161111145012111/11/16 14:50:31  5-MIN K0J4 111950Z AUTO 27003KT 10SM -RA 20/01 A3008 170 28 800 270/03 RMK AO2 RAB35 P0000 T02000011 $
63870K0J4 0J420161111145512811/11/16 14:55:31  5-MIN K0J4 111955Z AUTO 00000KT 10SM -RA 20/02 A3008 170 29 800 000/00 RMK AO2 RAB35 SLP182 P0000 T02000017 $
63870K0J4 0J420161111150011511/11/16 15:00:31  5-MIN K0J4 112000Z AUTO VRB03KT 10SM -RA 20/02 A3007 170 29 800 VRB/03 RMK AO2 P0000 T02000017 $
63870K0J4 0J420161111150511911/11/16 15:05:31  5-MIN K0J4 112005Z AUTO 00000KT 10SM -RA CLR 20/02 A3007 180 30 800 000/00 RMK AO2 P0000 T02000022 $
63870K0J4 0J420161111151011911/11/16 15:10:31  5-MIN K0J4 112010Z AUTO 00000KT 10SM -RA CLR 20/02 A3007 180 30 800 000/00 RMK AO2 P0000 T02000022 $
63870K0J4 0J420161111151511911/11/16 15:15:31  5-MIN K0J4 112015Z AUTO 00000KT 10SM -RA CLR 20/02 A3007 180 30 800 000/00 RMK AO2 P0000 T02000022 $
63870K0J4 0J420161111152011911/11/16 15:20:31  5-MIN K0J4 112020Z AUTO 00000KT 10SM -RA CLR 20/02 A3007 180 30 800 000/00 RMK AO2 P0000 T02000022 $
63870K0J4 0J420161111152511911/11/16 15:25:31  5-MIN K0J4 112025Z AUTO 00000KT 10SM -RA CLR 20/02 A3007 180 30 900 000/00 RMK AO2 P0000 T02000022 $
63870K0J4 0J420161111153011911/11/16 15:30:31  5-MIN K0J4 112030Z AUTO VRB03KT 10SM -RA CLR 21/02 A3006 180 29 900 VRB/03 RMK AO2 P0000 T02060022 $
63870K0J4 0J420161111153507911/11/16 15:35:31  5-MIN K0J4 112035Z AUTO 00000KT M M M 000/00 RMK AO2 P0000 $
63870K0J4 0J420161111154011611/11/16 15:40:31  5-MIN K0J4 112040Z AUTO 00000KT -RA 20/02 A3007 180 30 800 000/00 RMK AO2 RAB37 P0000 T02000022 $
63870K0J4 0J420161111154512111/11/16 15:45:31  5-MIN K0J4 112045Z AUTO VRB03KT 10SM -RA 20/02 A3007 180 30 800 VRB/03 RMK AO2 RAB37 P0000 T02000022 $
63870K0J4 0J420161111155012111/11/16 15:50:31  5-MIN K0J4 112050Z AUTO 00000KT 10SM -RA 20/03 A3007 180 31 800 000/00 RMK AO2 RAB37 P0000 T02000028 $
63870K0J4 0J420161111155513411/11/16 15:55:31  5-MIN K0J4 112055Z AUTO 00000KT 10SM -RA 20/03 A3007 180 31 800 000/00 RMK AO2 RAB37 SLP180 P0000 60000 T02000028 $
63870K0J4 0J420161111160011511/11/16 16:00:31  5-MIN K0J4 112100Z AUTO 00000KT 10SM -RA 20/03 A3007 180 31 800 000/00 RMK AO2 P0000 T02000028 $
63870K0J4 0J420161111160511911/11/16 16:05:31  5-MIN K0J4 112105Z AUTO 00000KT 10SM -RA CLR 20/03 A3007 180 31 800 000/00 RMK AO2 P0000 T02000028 $
63870K0J4 0J420161111161011911/11/16 16:10:31  5-MIN K0J4 112110Z AUTO 00000KT 10SM -RA CLR 19/03 A3008 170 34 800 000/00 RMK AO2 P0000 T01940033 $
63870K0J4 0J420161111161511911/11/16 16:15:31  5-MIN K0J4 112115Z AUTO 00000KT 10SM -RA CLR 19/03 A3008 170 34 800 000/00 RMK AO2 P0000 T01940033 $
63870K0J4 0J420161111162011911/11/16 16:20:31  5-MIN K0J4 112120Z AUTO 00000KT 10SM -RA CLR 19/03 A3008 170 34 800 000/00 RMK AO2 P0000 T01940033 $
63870K0J4 0J420161111162511911/11/16 16:25:31  5-MIN K0J4 112125Z AUTO 00000KT 10SM -RA CLR 19/04 A3008 170 38 700 000/00 RMK AO2 P0000 T01890044 $
63870K0J4 0J420161111163011911/11/16 16:30:31  5-MIN K0J4 112130Z AUTO 00000KT 10SM -RA CLR 19/05 A3008 170 39 700 000/00 RMK AO2 P0000 T01890050 $
63870K0J4 0J420161111163511911/11/16 16:35:31  5-MIN K0J4 112135Z AUTO 00000KT 10SM -RA CLR 19/04 A3009 160 38 700 000/00 RMK AO2 P0000 T01890044 $
63870K0J4 0J420161111164011911/11/16 16:40:31  5-MIN K0J4 112140Z AUTO 00000KT 10SM -RA CLR 19/04 A3009 160 36 700 000/00 RMK AO2 P0000 T01890039 $
63870K0J4 0J420161111164511911/11/16 16:45:31  5-MIN K0J4 112145Z AUTO 00000KT 10SM -RA CLR 19/04 A3009 160 38 700 000/00 RMK AO2 P0000 T01890044 $
63870K0J4 0J420161111165011911/11/16 16:50:31  5-MIN K0J4 112150Z AUTO 00000KT 10SM -RA CLR 18/04 A3009 160 39 600 000/00 RMK AO2 P0000 T01830044 $
63870K0J4 0J420161111165512611/11/16 16:55:31  5-MIN K0J4 112155Z AUTO 00000KT 10SM -RA CLR 18/04 A3009 160 38 600 000/00 RMK AO2 SLP188 P0000 T01830039 $
63870K0J4 0J420161111170011911/11/16 17:00:31  5-MIN K0J4 112200Z AUTO 00000KT 10SM -RA CLR 18/04 A3009 160 39 600 000/00 RMK AO2 P0000 T01830044 $
63870K0J4 0J420161111170511911/11/16 17:05:31  5-MIN K0J4 112205Z AUTO 00000KT 10SM -RA CLR 18/04 A3009 160 41 600 000/00 RMK AO2 P0000 T01780044 $
63870K0J4 0J420161111171011911/11/16 17:10:31  5-MIN K0J4 112210Z AUTO 00000KT 10SM -RA CLR 18/04 A3009 160 41 600 000/00 RMK AO2 P0000 T01780044 $
63870K0J4 0J420161111171511911/11/16 17:15:31  5-MIN K0J4 112215Z AUTO 00000KT 10SM -RA CLR 18/04 A3009 160 39 600 000/00 RMK AO2 P0000 T01780039 $
63870K0J4 0J420161111172011911/11/16 17:20:31  5-MIN K0J4 112220Z AUTO VRB03KT 10SM -RA CLR 18/03 A3009 160 38 600 VRB/03 RMK AO2 P0000 T01780033 $
63870K0J4 0J420161111172511911/11/16 17:25:31  5-MIN K0J4 112225Z AUTO VRB03KT 10SM -RA CLR 18/03 A3008 160 38 600 VRB/03 RMK AO2 P0000 T01780033 $
63870K0J4 0J420161111173011911/11/16 17:30:31  5-MIN K0J4 112230Z AUTO 00000KT 10SM -RA CLR 18/03 A3008 170 38 600 000/00 RMK AO2 P0000 T01780033 $
63870K0J4 0J420161111173511911/11/16 17:35:31  5-MIN K0J4 112235Z AUTO 00000KT 10SM -RA CLR 17/03 A3008 170 37 500 000/00 RMK AO2 P0000 T01720028 $
63870K0J4 0J420161111174011911/11/16 17:40:31  5-MIN K0J4 112240Z AUTO 00000KT 10SM -RA CLR 17/03 A3008 170 37 500 000/00 RMK AO2 P0000 T01720028 $
63870K0J4 0J420161111174511911/11/16 17:45:31  5-MIN K0J4 112245Z AUTO 00000KT 10SM -RA CLR 17/04 A3008 170 42 400 000/00 RMK AO2 P0000 T01670039 $
63870K0J4 0J420161111175011911/11/16 17:50:31  5-MIN K0J4 112250Z AUTO 00000KT 10SM -RA CLR 16/06 A3008 160 49 400 000/00 RMK AO2 P0000 T01610056 $
63870K0J4 0J420161111175512611/11/16 17:55:31  5-MIN K0J4 112255Z AUTO VRB03KT 10SM -RA CLR 17/04 A3008 170 42 400 VRB/03 RMK AO2 SLP187 P0000 T01670039 $
63870K0J4 0J420161111180011911/11/16 18:00:31  5-MIN K0J4 112300Z AUTO VRB03KT 10SM -RA CLR 17/03 A3008 170 39 400 VRB/03 RMK AO2 P0000 T01670028 $
63870K0J4 0J420161111180511911/11/16 18:05:31  5-MIN K0J4 112305Z AUTO VRB03KT 10SM -RA CLR 17/03 A3009 160 37 500 VRB/03 RMK AO2 P0000 T01720028 $
63870K0J4 0J420161111181011911/11/16 18:10:31  5-MIN K0J4 112310Z AUTO VRB03KT 10SM -RA CLR 17/03 A3009 160 39 400 VRB/03 RMK AO2 P0000 T01670028 $
63870K0J4 0J420161111181511911/11/16 18:15:31  5-MIN K0J4 112315Z AUTO 34003KT 10SM -RA CLR 17/03 A3009 160 39 400 340/03 RMK AO2 P0000 T01670028 $
63870K0J4 0J420161111182011911/11/16 18:20:31  5-MIN K0J4 112320Z AUTO 00000KT 10SM -RA CLR 17/03 A3009 160 39 400 000/00 RMK AO2 P0000 T01670028 $
63870K0J4 0J420161111182512111/11/16 18:25:31  5-MIN K0J4 112325Z AUTO 00000KT 10SM CLR 16/03 A3009 160 42 400 000/00 RMK AO2 RAE21 P0000 T01610033 $
63870K0J4 0J420161111183012111/11/16 18:30:31  5-MIN K0J4 112330Z AUTO 00000KT 10SM CLR 16/03 A3009 160 43 300 000/00 RMK AO2 RAE21 P0000 T01560033 $
63870K0J4 0J420161111183511911/11/16 18:35:31  5-MIN K0J4 112335Z AUTO 36003KT 10SM CLR 16/03 A3010 150 43 300 360/03 RMK AO2 RAE21 P0000 T01560033
63870K0J4 0J420161111184012611/11/16 18:40:31  5-MIN K0J4 112340Z AUTO 35003KT 10SM -RA CLR 15/04 A3010 150 47 200 350/03 RMK AO2 RAE21B37 P0000 T01500039
63870K0J4 0J420161111184512611/11/16 18:45:31  5-MIN K0J4 112345Z AUTO VRB03KT 10SM -RA CLR 15/04 A3011 150 47 200 VRB/03 RMK AO2 RAE21B37 P0000 T01500039
63870K0J4 0J420161111185012511/11/16 18:50:31  5-MIN K0J4 112350Z AUTO 33003KT 10SM CLR 15/04 A3011 140 47 200 330/03 RMK AO2 RAE21B37E46 P0000 T01500039
63870K0J4 0J420161111185515011/11/16 18:55:31  5-MIN K0J4 112355Z AUTO 36004KT 10SM CLR 14/04 A3011 140 49 200 360/04 RMK AO2 RAE21B37E46 SLP195 P0000 60000 T01440039 10217 20144
63870K0J4 0J420161111190010711/11/16 19:00:31  5-MIN K0J4 120000Z AUTO 35003KT 10SM CLR 14/04 A3011 140 49 200 350/03 RMK AO2 T01440039
63870K0J4 0J420161111190510711/11/16 19:05:31  5-MIN K0J4 120005Z AUTO 35003KT 10SM CLR 14/04 A3011 140 50 100 350/03 RMK AO2 T01390039
63870K0J4 0J420161111191010711/11/16 19:10:31  5-MIN K0J4 120010Z AUTO 00000KT 10SM CLR 14/04 A3011 140 49 100 000/00 RMK AO2 T01440039
63870K0J4 0J420161111191510711/11/16 19:15:31  5-MIN K0J4 120015Z AUTO VRB03KT 10SM CLR 14/04 A3011 140 49 100 VRB/03 RMK AO2 T01440039
63870K0J4 0J420161111192010711/11/16 19:20:31  5-MIN K0J4 120020Z AUTO 00000KT 10SM CLR 14/04 A3011 140 49 100 000/00 RMK AO2 T01440039
63870K0J4 0J420161111192510711/11/16 19:25:31  5-MIN K0J4 120025Z AUTO VRB03KT 10SM CLR 14/04 A3011 140 50 100 VRB/03 RMK AO2 T01390039
63870K0J4 0J420161111193010511/11/16 19:30:31  5-MIN K0J4 120030Z AUTO VRB03KT 10SM CLR 13/04 A3011 140 54 0 VRB/03 RMK AO2 T01330044
63870K0J4 0J420161111193510511/11/16 19:35:31  5-MIN K0J4 120035Z AUTO 00000KT 10SM CLR 13/04 A3011 140 56 0 000/00 RMK AO2 T01280044
63870K0J4 0J420161111194010511/11/16 19:40:31  5-MIN K0J4 120040Z AUTO 00000KT 10SM CLR 13/04 A3011 140 54 0 000/00 RMK AO2 T01330044
63870K0J4 0J420161111194510511/11/16 19:45:31  5-MIN K0J4 120045Z AUTO 00000KT 10SM CLR 13/04 A3011 140 54 0 000/00 RMK AO2 T01330044
63870K0J4 0J420161111195010511/11/16 19:50:31  5-MIN K0J4 120050Z AUTO 00000KT 10SM CLR 13/04 A3011 140 54 0 000/00 RMK AO2 T01330044
63870K0J4 0J420161111195511211/11/16 19:55:31  5-MIN K0J4 120055Z AUTO 00000KT 10SM CLR 13/04 A3011 140 56 0 000/00 RMK AO2 SLP195 T01280044
63870K0J4 0J420161111200010511/11/16 20:00:31  5-MIN K0J4 120100Z AUTO 36003KT 10SM CLR 13/04 A3011 140 56 0 360/03 RMK AO2 T01280044
63870K0J4 0J420161111200510811/11/16 20:05:31  5-MIN K0J4 120105Z AUTO 00000KT 10SM CLR 12/05 A3011 140 63 -100 000/00 RMK AO2 T01170050
63870K0J4 0J420161111201010811/11/16 20:10:31  5-MIN K0J4 120110Z AUTO 00000KT 10SM CLR 12/05 A3012 130 61 -100 000/00 RMK AO2 T01220050
63870K0J4 0J420161111201510811/11/16 20:15:31  5-MIN K0J4 120115Z AUTO 00000KT 10SM CLR 12/05 A3012 130 61 -100 000/00 RMK AO2 T01220050
63870K0J4 0J420161111202010811/11/16 20:20:31  5-MIN K0J4 120120Z AUTO 00000KT 10SM CLR 12/05 A3012 130 61 -100 000/00 RMK AO2 T01220050
63870K0J4 0J420161111202510811/11/16 20:25:31  5-MIN K0J4 120125Z AUTO 00000KT 10SM CLR 12/05 A3012 130 63 -100 000/00 RMK AO2 T01170050
63870K0J4 0J420161111203010811/11/16 20:30:31  5-MIN K0J4 120130Z AUTO 00000KT 10SM CLR 12/05 A3012 130 63 -100 000/00 RMK AO2 T01170050
63870K0J4 0J420161111203510811/11/16 20:35:31  5-MIN K0J4 120135Z AUTO 00000KT 10SM CLR 12/05 A3012 130 61 -100 000/00 RMK AO2 T01220050
63870K0J4 0J420161111204010811/11/16 20:40:31  5-MIN K0J4 120140Z AUTO 00000KT 10SM CLR 12/05 A3012 130 63 -100 000/00 RMK AO2 T01170050
63870K0J4 0J420161111204510811/11/16 20:45:31  5-MIN K0J4 120145Z AUTO 00000KT 10SM CLR 12/06 A3012 130 63 -100 000/00 RMK AO2 T01220056
63870K0J4 0J420161111205010811/11/16 20:50:31  5-MIN K0J4 120150Z AUTO 00000KT 10SM CLR 12/06 A3013 130 66 -200 000/00 RMK AO2 T01170056
63870K0J4 0J420161111205511511/11/16 20:55:31  5-MIN K0J4 120155Z AUTO VRB03KT 10SM CLR 12/06 A3013 130 66 -200 VRB/03 RMK AO2 SLP200 T01170056
63870K0J4 0J420161111210010811/11/16 21:00:31  5-MIN K0J4 120200Z AUTO VRB04KT 10SM CLR 12/06 A3013 130 63 -100 VRB/04 RMK AO2 T01220056
63870K0J4 0J420161111210510511/11/16 21:05:31  5-MIN K0J4 120205Z AUTO 33004KT 10SM CLR 13/06 A3012 130 61 0 330/04 RMK AO2 T01280056
63870K0J4 0J420161111211010811/11/16 21:10:31  5-MIN K0J4 120210Z AUTO 00000KT 10SM CLR 12/06 A3012 130 63 -100 000/00 RMK AO2 T01220056
63870K0J4 0J420161111211510811/11/16 21:15:31  5-MIN K0J4 120215Z AUTO 32003KT 10SM CLR 12/06 A3012 130 63 -100 320/03 RMK AO2 T01220056
63870K0J4 0J420161111212010811/11/16 21:20:31  5-MIN K0J4 120220Z AUTO VRB04KT 10SM CLR 12/06 A3013 120 63 -100 VRB/04 RMK AO2 T01220056
63870K0J4 0J420161111212510811/11/16 21:25:31  5-MIN K0J4 120225Z AUTO VRB03KT 10SM CLR 12/06 A3013 120 63 -100 VRB/03 RMK AO2 T01220056
63870K0J4 0J420161111213010811/11/16 21:30:31  5-MIN K0J4 120230Z AUTO VRB03KT 10SM CLR 12/06 A3013 120 63 -100 VRB/03 RMK AO2 T01220056
63870K0J4 0J420161111213510811/11/16 21:35:31  5-MIN K0J4 120235Z AUTO VRB03KT 10SM CLR 12/06 A3013 120 63 -100 VRB/03 RMK AO2 T01220056
63870K0J4 0J420161111214010811/11/16 21:40:31  5-MIN K0J4 120240Z AUTO VRB03KT 10SM CLR 12/06 A3014 120 63 -100 VRB/03 RMK AO2 T01220056
63870K0J4 0J420161111214510811/11/16 21:45:31  5-MIN K0J4 120245Z AUTO VRB03KT 10SM CLR 12/06 A3013 120 63 -100 VRB/03 RMK AO2 T01220056
63870K0J4 0J420161111215010811/11/16 21:50:31  5-MIN K0J4 120250Z AUTO 32003KT 10SM CLR 12/06 A3013 120 63 -100 320/03 RMK AO2 T01220056
63870K0J4 0J420161111215512111/11/16 21:55:31  5-MIN K0J4 120255Z AUTO 00000KT 10SM CLR 12/06 A3013 130 63 -100 000/00 RMK AO2 SLP200 T01220056 53012
63870K0J4 0J420161111220010811/11/16 22:00:31  5-MIN K0J4 120300Z AUTO 32003KT 10SM CLR 12/06 A3013 120 66 -200 320/03 RMK AO2 T01170056
63870K0J4 0J420161111220510811/11/16 22:05:31  5-MIN K0J4 120305Z AUTO 00000KT 10SM CLR 12/06 A3013 120 66 -200 000/00 RMK AO2 T01170056
63870K0J4 0J420161111221010811/11/16 22:10:31  5-MIN K0J4 120310Z AUTO VRB03KT 10SM CLR 12/06 A3013 120 66 -200 VRB/03 RMK AO2 T01170056
63870K0J4 0J420161111221510811/11/16 22:15:31  5-MIN K0J4 120315Z AUTO VRB03KT 10SM CLR 11/06 A3013 120 68 -200 VRB/03 RMK AO2 T01110056
63870K0J4 0J420161111222010811/11/16 22:20:31  5-MIN K0J4 120320Z AUTO 00000KT 10SM CLR 12/06 A3013 130 66 -200 000/00 RMK AO2 T01170056
63870K0J4 0J420161111222510811/11/16 22:25:31  5-MIN K0J4 120325Z AUTO 00000KT 10SM CLR 12/06 A3013 130 66 -200 000/00 RMK AO2 T01170056
63870K0J4 0J420161111223010811/11/16 22:30:31  5-MIN K0J4 120330Z AUTO 00000KT 10SM CLR 11/06 A3013 130 68 -200 000/00 RMK AO2 T01110056
63870K0J4 0J420161111223510811/11/16 22:35:31  5-MIN K0J4 120335Z AUTO 00000KT 10SM CLR 11/06 A3012 130 68 -200 000/00 RMK AO2 T01110056
63870K0J4 0J420161111224010811/11/16 22:40:31  5-MIN K0J4 120340Z AUTO 00000KT 10SM CLR 11/06 A3012 130 68 -200 000/00 RMK AO2 T01110056
63870K0J4 0J420161111224510811/11/16 22:45:31  5-MIN K0J4 120345Z AUTO 00000KT 10SM CLR 11/06 A3012 130 68 -200 000/00 RMK AO2 T01110056
63870K0J4 0J420161111225010811/11/16 22:50:31  5-MIN K0J4 120350Z AUTO 00000KT 10SM CLR 11/06 A3012 130 68 -200 000/00 RMK AO2 T01110056
63870K0J4 0J420161111225511511/11/16 22:55:31  5-MIN K0J4 120355Z AUTO 00000KT 10SM CLR 11/06 A3012 130 68 -200 000/00 RMK AO2 SLP198 T01110056
63870K0J4 0J420161111230010811/11/16 23:00:31  5-MIN K0J4 120400Z AUTO 00000KT 10SM CLR 11/06 A3012 130 68 -200 000/00 RMK AO2 T01110056
63870K0J4 0J420161111230510811/11/16 23:05:31  5-MIN K0J4 120405Z AUTO 00000KT 10SM CLR 12/06 A3013 130 66 -200 000/00 RMK AO2 T01170056
63870K0J4 0J420161111231010811/11/16 23:10:31  5-MIN K0J4 120410Z AUTO 00000KT 10SM CLR 12/06 A3013 130 66 -200 000/00 RMK AO2 T01170056
63870K0J4 0J420161111231510811/11/16 23:15:31  5-MIN K0J4 120415Z AUTO 34003KT 10SM CLR 11/06 A3013 130 68 -200 340/03 RMK AO2 T01110056
63870K0J4 0J420161111232010811/11/16 23:20:31  5-MIN K0J4 120420Z AUTO 00000KT 10SM CLR 11/06 A3013 130 68 -200 000/00 RMK AO2 T01110056
63870K0J4 0J420161111232510811/11/16 23:25:31  5-MIN K0J4 120425Z AUTO 00000KT 10SM CLR 11/06 A3013 120 68 -200 000/00 RMK AO2 T01110056
63870K0J4 0J420161111233010811/11/16 23:30:31  5-MIN K0J4 120430Z AUTO 00000KT 10SM CLR 11/06 A3012 130 68 -200 000/00 RMK AO2 T01110056
63870K0J4 0J420161111233510811/11/16 23:35:31  5-MIN K0J4 120435Z AUTO 00000KT 10SM CLR 11/06 A3012 130 68 -200 000/00 RMK AO2 T01110056
63870K0J4 0J420161111234010811/11/16 23:40:31  5-MIN K0J4 120440Z AUTO VRB03KT 10SM CLR 11/06 A3012 130 71 -300 VRB/03 RMK AO2 T01060056
63870K0J4 0J420161111234510811/11/16 23:45:31  5-MIN K0J4 120445Z AUTO 00000KT 10SM CLR 11/06 A3012 130 74 -300 000/00 RMK AO2 T01060061
63870K0J4 0J420161111235010811/11/16 23:50:31  5-MIN K0J4 120450Z AUTO 00000KT 10SM CLR 10/06 A3013 130 77 -400 000/00 RMK AO2 T01000061
63870K0J4 0J420161111235512511/11/16 23:55:31  5-MIN K0J4 120455Z AUTO 00000KT 10SM CLR 10/06 A3012 130 77 -300 000/00 RMK AO2 SLP198 T01000061 402170028
63870K0J4 0J420161112000010811/12/16 00:00:31  5-MIN K0J4 120500Z AUTO 00000KT 10SM CLR 10/06 A3012 130 77 -300 000/00 RMK AO2 T01000061
63870K0J4 0J420161112000510811/12/16 00:05:31  5-MIN K0J4 120505Z AUTO 00000KT 10SM CLR 10/06 A3012 130 77 -300 000/00 RMK AO2 T01000061
63870K0J4 0J420161112001010811/12/16 00:10:31  5-MIN K0J4 120510Z AUTO 00000KT 10SM CLR 10/06 A3012 130 77 -300 000/00 RMK AO2 T01000061
63870K0J4 0J420161112001510811/12/16 00:15:31  5-MIN K0J4 120515Z AUTO VRB03KT 10SM CLR 10/06 A3012 140 74 -300 VRB/03 RMK AO2 T01000056
63870K0J4 0J420161112002010811/12/16 00:20:31  5-MIN K0J4 120520Z AUTO 00000KT 10SM CLR 10/06 A3012 140 74 -300 000/00 RMK AO2 T01000056
63870K0J4 0J420161112002510811/12/16 00:25:31  5-MIN K0J4 120525Z AUTO VRB03KT 10SM CLR 11/06 A3011 140 74 -300 VRB/03 RMK AO2 T01060061
63870K0J4 0J420161112003010811/12/16 00:30:31  5-MIN K0J4 120530Z AUTO 00000KT 10SM CLR 11/06 A3011 140 71 -300 000/00 RMK AO2 T01060056
63870K0J4 0J420161112003510811/12/16 00:35:31  5-MIN K0J4 120535Z AUTO 00000KT 10SM CLR 11/06 A3011 140 71 -300 000/00 RMK AO2 T01060056
63870K0J4 0J420161112004010811/12/16 00:40:31  5-MIN K0J4 120540Z AUTO 00000KT 10SM CLR 11/06 A3011 140 71 -300 000/00 RMK AO2 T01060056
63870K0J4 0J420161112004510811/12/16 00:45:31  5-MIN K0J4 120545Z AUTO 00000KT 10SM CLR 11/06 A3011 140 71 -300 000/00 RMK AO2 T01060056
63870K0J4 0J420161112005010811/12/16 00:50:31  5-MIN K0J4 120550Z AUTO 00000KT 10SM CLR 10/06 A3010 150 74 -300 000/00 RMK AO2 T01000056
63870K0J4 0J420161112005513311/12/16 00:55:31  5-MIN K0J4 120555Z AUTO 00000KT 10SM CLR 10/06 A3010 150 74 -300 000/00 RMK AO2 SLP191 T01000056 10144 20100 53007
63870K0J4 0J420161112010010811/12/16 01:00:31  5-MIN K0J4 120600Z AUTO 00000KT 10SM CLR 10/06 A3010 150 74 -300 000/00 RMK AO2 T01000056
63870K0J4 0J420161112010510811/12/16 01:05:31  5-MIN K0J4 120605Z AUTO 00000KT 10SM CLR 10/06 A3010 150 74 -300 000/00 RMK AO2 T01000056
63870K0J4 0J420161112011010811/12/16 01:10:31  5-MIN K0J4 120610Z AUTO 00000KT 10SM CLR 10/06 A3010 150 74 -300 000/00 RMK AO2 T01000056
63870K0J4 0J420161112011510811/12/16 01:15:31  5-MIN K0J4 120615Z AUTO 00000KT 10SM CLR 10/06 A3010 150 74 -300 000/00 RMK AO2 T01000056
63870K0J4 0J420161112012010811/12/16 01:20:31  5-MIN K0J4 120620Z AUTO 00000KT 10SM CLR 10/06 A3010 150 77 -300 000/00 RMK AO2 T01000061
63870K0J4 0J420161112012510811/12/16 01:25:31  5-MIN K0J4 120625Z AUTO 00000KT 10SM CLR 10/06 A3010 150 74 -300 000/00 RMK AO2 T01000056
63870K0J4 0J420161112013010811/12/16 01:30:31  5-MIN K0J4 120630Z AUTO 36004KT 10SM CLR 09/06 A3010 150 76 -400 360/04 RMK AO2 T00940056
63870K0J4 0J420161112013510811/12/16 01:35:31  5-MIN K0J4 120635Z AUTO 35003KT 10SM CLR 09/06 A3010 150 76 -400 350/03 RMK AO2 T00940056
63870K0J4 0J420161112014507911/12/16 01:45:31  5-MIN K0J4 120645Z AUTO 35003KT A3009 M M M 350/03 RMK AO2 $
63870K0J4 0J420161112015010611/12/16 01:50:31  5-MIN K0J4 120650Z AUTO VRB03KT 10SM 09/06 A3009 160 76 -400 VRB/03 RMK AO2 T00940056 $
63870K0J4 0J420161112015511311/12/16 01:55:31  5-MIN K0J4 120655Z AUTO 36003KT 10SM 09/06 A3009 160 76 -400 360/03 RMK AO2 SLP188 T00940056 $
63870K0J4 0J420161112020010611/12/16 02:00:31  5-MIN K0J4 120700Z AUTO 36003KT 10SM 10/06 A3009 160 74 -300 360/03 RMK AO2 T01000056 $
63870K0J4 0J420161112020510611/12/16 02:05:31  5-MIN K0J4 120705Z AUTO 35003KT 10SM 09/06 A3009 160 76 -400 350/03 RMK AO2 T00940056 $
63870K0J4 0J420161112021010611/12/16 02:10:31  5-MIN K0J4 120710Z AUTO 35003KT 10SM 09/06 A3009 160 79 -400 350/03 RMK AO2 T00890056 $
63870K0J4 0J420161112021511011/12/16 02:15:31  5-MIN K0J4 120715Z AUTO 36004KT 10SM CLR 09/06 A3009 160 76 -400 360/04 RMK AO2 T00940056 $
63870K0J4 0J420161112022011011/12/16 02:20:31  5-MIN K0J4 120720Z AUTO 34003KT 10SM CLR 10/06 A3009 160 74 -300 340/03 RMK AO2 T01000056 $
63870K0J4 0J420161112022511011/12/16 02:25:31  5-MIN K0J4 120725Z AUTO 00000KT 10SM CLR 10/06 A3010 150 74 -300 000/00 RMK AO2 T01000056 $
63870K0J4 0J420161112023011011/12/16 02:30:31  5-MIN K0J4 120730Z AUTO VRB03KT 10SM CLR 10/06 A3010 150 74 -300 VRB/03 RMK AO2 T01000056 $
63870K0J4 0J420161112023511011/12/16 02:35:31  5-MIN K0J4 120735Z AUTO 00000KT 10SM CLR 10/06 A3010 150 74 -300 000/00 RMK AO2 T01000056 $
63870K0J4 0J420161112024011011/12/16 02:40:31  5-MIN K0J4 120740Z AUTO VRB03KT 10SM CLR 09/06 A3010 150 76 -400 VRB/03 RMK AO2 T00940056 $
63870K0J4 0J420161112024511011/12/16 02:45:31  5-MIN K0J4 120745Z AUTO 33003KT 10SM CLR 09/06 A3010 150 76 -400 330/03 RMK AO2 T00940056 $
63870K0J4 0J420161112025011011/12/16 02:50:31  5-MIN K0J4 120750Z AUTO VRB03KT 10SM CLR 09/06 A3010 150 76 -400 VRB/03 RMK AO2 T00940056 $
63870K0J4 0J420161112025511711/12/16 02:55:31  5-MIN K0J4 120755Z AUTO 35003KT 10SM CLR 09/06 A3010 150 76 -400 350/03 RMK AO2 SLP189 T00940056 $
63870K0J4 0J420161112030011011/12/16 03:00:31  5-MIN K0J4 120800Z AUTO 00000KT 10SM CLR 10/06 A3010 150 74 -300 000/00 RMK AO2 T01000056 $
63870K0J4 0J420161112030511011/12/16 03:05:31  5-MIN K0J4 120805Z AUTO 00000KT 10SM CLR 10/06 A3010 150 74 -300 000/00 RMK AO2 T01000056 $
63870K0J4 0J420161112031011011/12/16 03:10:31  5-MIN K0J4 120810Z AUTO 34003KT 10SM CLR 11/06 A3010 150 71 -300 340/03 RMK AO2 T01060056 $
63870K0J4 0J420161112031511011/12/16 03:15:31  5-MIN K0J4 120815Z AUTO 00000KT 10SM CLR 09/06 A3010 150 76 -400 000/00 RMK AO2 T00940056 $
63870K0J4 0J420161112032011011/12/16 03:20:31  5-MIN K0J4 120820Z AUTO 00000KT 10SM CLR 08/06 A3010 150 82 -500 000/00 RMK AO2 T00830056 $
63870K0J4 0J420161112032511011/12/16 03:25:31  5-MIN K0J4 120825Z AUTO 00000KT 10SM CLR 08/06 A3010 150 82 -500 000/00 RMK AO2 T00830056 $
63870K0J4 0J420161112033011011/12/16 03:30:31  5-MIN K0J4 120830Z AUTO 00000KT 10SM CLR 08/06 A3010 150 82 -500 000/00 RMK AO2 T00830056 $
63870K0J4 0J420161112033511011/12/16 03:35:31  5-MIN K0J4 120835Z AUTO 00000KT 10SM CLR 08/05 A3010 150 82 -600 000/00 RMK AO2 T00780050 $
63870K0J4 0J420161112034011011/12/16 03:40:31  5-MIN K0J4 120840Z AUTO 00000KT 10SM CLR 08/05 A3010 150 82 -600 000/00 RMK AO2 T00780050 $
63870K0J4 0J420161112034511011/12/16 03:45:31  5-MIN K0J4 120845Z AUTO 00000KT 10SM CLR 07/05 A3010 150 86 -700 000/00 RMK AO2 T00720050 $
63870K0J4 0J420161112035011011/12/16 03:50:31  5-MIN K0J4 120850Z AUTO 00000KT 10SM CLR 07/05 A3010 150 86 -700 000/00 RMK AO2 T00720050 $
63870K0J4 0J420161112035511711/12/16 03:55:31  5-MIN K0J4 120855Z AUTO 00000KT 10SM CLR 07/05 A3010 150 86 -700 000/00 RMK AO2 SLP191 T00720050 $
63870K0J4 0J420161112040011011/12/16 04:00:31  5-MIN K0J4 120900Z AUTO 00000KT 10SM CLR 07/05 A3010 150 86 -700 000/00 RMK AO2 T00720050 $
63870K0J4 0J420161112040511011/12/16 04:05:31  5-MIN K0J4 120905Z AUTO 00000KT 10SM CLR 07/05 A3010 150 86 -700 000/00 RMK AO2 T00720050 $
63870K0J4 0J420161112041011011/12/16 04:10:31  5-MIN K0J4 120910Z AUTO 00000KT 10SM CLR 08/05 A3010 150 82 -600 000/00 RMK AO2 T00780050 $
63870K0J4 0J420161112041511011/12/16 04:15:31  5-MIN K0J4 120915Z AUTO 00000KT 10SM CLR 08/05 A3010 150 82 -600 000/00 RMK AO2 T00780050 $
63870K0J4 0J420161112042011011/12/16 04:20:31  5-MIN K0J4 120920Z AUTO 00000KT 10SM CLR 07/05 A3010 150 86 -700 000/00 RMK AO2 T00720050 $
63870K0J4 0J420161112042511011/12/16 04:25:31  5-MIN K0J4 120925Z AUTO 00000KT 10SM CLR 07/05 A3010 150 86 -700 000/00 RMK AO2 T00720050 $
63870K0J4 0J420161112043011011/12/16 04:30:31  5-MIN K0J4 120930Z AUTO 00000KT 10SM CLR 07/05 A3011 150 86 -700 000/00 RMK AO2 T00720050 $
63870K0J4 0J420161112043511011/12/16 04:35:31  5-MIN K0J4 120935Z AUTO 00000KT 10SM CLR 07/05 A3011 150 86 -700 000/00 RMK AO2 T00720050 $
63870K0J4 0J420161112044011011/12/16 04:40:31  5-MIN K0J4 120940Z AUTO 00000KT 10SM CLR 07/04 A3010 150 86 -700 000/00 RMK AO2 T00670044 $
63870K0J4 0J420161112044511011/12/16 04:45:31  5-MIN K0J4 120945Z AUTO 00000KT 10SM CLR 07/04 A3010 150 82 -700 000/00 RMK AO2 T00720044 $
63870K0J4 0J420161112045011011/12/16 04:50:31  5-MIN K0J4 120950Z AUTO 00000KT 10SM CLR 07/05 A3011 140 86 -700 000/00 RMK AO2 T00720050 $
63870K0J4 0J420161112045511711/12/16 04:55:31  5-MIN K0J4 120955Z AUTO 00000KT 10SM CLR 07/04 A3011 140 86 -700 000/00 RMK AO2 SLP194 T00670044 $
63870K0J4 0J420161112050011011/12/16 05:00:31  5-MIN K0J4 121000Z AUTO 35003KT 10SM CLR 06/04 A3011 140 89 -800 350/03 RMK AO2 T00610044 $
63870K0J4 0J420161112050511011/12/16 05:05:31  5-MIN K0J4 121005Z AUTO 34004KT 10SM CLR 07/04 A3011 140 86 -700 340/04 RMK AO2 T00670044 $
63870K0J4 0J420161112051011011/12/16 05:10:31  5-MIN K0J4 121010Z AUTO 34004KT 10SM CLR 08/06 A3011 140 82 -500 340/04 RMK AO2 T00830056 $
63870K0J4 0J420161112051511011/12/16 05:15:31  5-MIN K0J4 121015Z AUTO 35003KT 10SM CLR 10/06 A3011 140 77 -300 350/03 RMK AO2 T01000061 $
63870K0J4 0J420161112052011011/12/16 05:20:31  5-MIN K0J4 121020Z AUTO 35003KT 10SM CLR 10/06 A3011 140 77 -300 350/03 RMK AO2 T01000061 $
63870K0J4 0J420161112052511011/12/16 05:25:31  5-MIN K0J4 121025Z AUTO 34004KT 10SM CLR 10/06 A3011 140 74 -300 340/04 RMK AO2 T01000056 $
63870K0J4 0J420161112053011011/12/16 05:30:31  5-MIN K0J4 121030Z AUTO 34004KT 10SM CLR 10/06 A3011 140 74 -300 340/04 RMK AO2 T01000056 $
63870K0J4 0J420161112053511011/12/16 05:35:31  5-MIN K0J4 121035Z AUTO 34003KT 10SM CLR 10/06 A3011 140 74 -300 340/03 RMK AO2 T01000056 $
63870K0J4 0J420161112054011011/12/16 05:40:31  5-MIN K0J4 121040Z AUTO VRB04KT 10SM CLR 10/06 A3011 140 74 -300 VRB/04 RMK AO2 T01000056 $
63870K0J4 0J420161112054511011/12/16 05:45:31  5-MIN K0J4 121045Z AUTO 34004KT 10SM CLR 10/06 A3011 140 74 -300 340/04 RMK AO2 T01000056 $
63870K0J4 0J420161112055011011/12/16 05:50:31  5-MIN K0J4 121050Z AUTO 34005KT 10SM CLR 10/06 A3011 140 74 -300 340/05 RMK AO2 T01000056 $
63870K0J4 0J420161112055511711/12/16 05:55:31  5-MIN K0J4 121055Z AUTO 34004KT 10SM CLR 10/06 A3012 130 74 -300 340/04 RMK AO2 SLP197 T01000056 $
63870K0J4 0J420161112060011011/12/16 06:00:31  5-MIN K0J4 121100Z AUTO 34005KT 10SM CLR 10/06 A3012 130 74 -300 340/05 RMK AO2 T01000056 $
63870K0J4 0J420161112060511011/12/16 06:05:31  5-MIN K0J4 121105Z AUTO 34005KT 10SM CLR 10/06 A3012 130 74 -300 340/05 RMK AO2 T01000056 $
63870K0J4 0J420161112061011011/12/16 06:10:31  5-MIN K0J4 121110Z AUTO 35005KT 10SM CLR 10/06 A3011 140 74 -300 350/05 RMK AO2 T01000056 $
63870K0J4 0J420161112061511011/12/16 06:15:31  5-MIN K0J4 121115Z AUTO 34004KT 10SM CLR 10/06 A3011 140 74 -300 340/04 RMK AO2 T01000056 $
63870K0J4 0J420161112062011011/12/16 06:20:31  5-MIN K0J4 121120Z AUTO 35004KT 10SM CLR 10/06 A3011 140 74 -300 350/04 RMK AO2 T01000056 $
63870K0J4 0J420161112062511011/12/16 06:25:31  5-MIN K0J4 121125Z AUTO 35005KT 10SM CLR 10/06 A3011 140 74 -300 350/05 RMK AO2 T01000056 $
63870K0J4 0J420161112063011011/12/16 06:30:31  5-MIN K0J4 121130Z AUTO 34005KT 10SM CLR 10/06 A3011 140 74 -300 340/05 RMK AO2 T01000056 $
63870K0J4 0J420161112063511011/12/16 06:35:31  5-MIN K0J4 121135Z AUTO 34005KT 10SM CLR 10/06 A3012 130 74 -300 340/05 RMK AO2 T01000056 $
63870K0J4 0J420161112064011011/12/16 06:40:31  5-MIN K0J4 121140Z AUTO 34004KT 10SM CLR 10/06 A3012 130 74 -300 340/04 RMK AO2 T01000056 $
63870K0J4 0J420161112064511011/12/16 06:45:31  5-MIN K0J4 121145Z AUTO 35005KT 10SM CLR 10/06 A3012 130 74 -300 350/05 RMK AO2 T01000056 $
63870K0J4 0J420161112065011011/12/16 06:50:31  5-MIN K0J4 121150Z AUTO 36004KT 10SM CLR 10/06 A3012 130 74 -300 360/04 RMK AO2 T01000056 $
63870K0J4 0J420161112065512911/12/16 06:55:31  5-MIN K0J4 121155Z AUTO 36004KT 10SM CLR 10/06 A3012 130 74 -300 360/04 RMK AO2 SLP197 T01000056 10106 20061 $
63870K0J4 0J420161112070011011/12/16 07:00:31  5-MIN K0J4 121200Z AUTO 36004KT 10SM CLR 09/06 A3012 130 76 -400 360/04 RMK AO2 T00940056 $
63870K0J4 0J420161112070511011/12/16 07:05:31  5-MIN K0J4 121205Z AUTO 35005KT 10SM CLR 09/06 A3012 130 76 -400 350/05 RMK AO2 T00940056 $
63870K0J4 0J420161112071011011/12/16 07:10:31  5-MIN K0J4 121210Z AUTO VRB05KT 10SM CLR 10/06 A3013 130 74 -400 VRB/05 RMK AO2 T01000056 $
63870K0J4 0J420161112071511011/12/16 07:15:31  5-MIN K0J4 121215Z AUTO VRB03KT 10SM CLR 09/06 A3013 120 76 -400 VRB/03 RMK AO2 T00940056 $
63870K0J4 0J420161112072011011/12/16 07:20:31  5-MIN K0J4 121220Z AUTO 34003KT 10SM CLR 09/06 A3013 120 76 -400 340/03 RMK AO2 T00940056 $
63870K0J4 0J420161112072511011/12/16 07:25:31  5-MIN K0J4 121225Z AUTO 00000KT 10SM CLR 09/06 A3013 120 76 -400 000/00 RMK AO2 T00940056 $
63870K0J4 0J420161112073011011/12/16 07:30:31  5-MIN K0J4 121230Z AUTO 00000KT 10SM CLR 08/06 A3014 120 82 -600 000/00 RMK AO2 T00830056 $
63870K0J4 0J420161112073511011/12/16 07:35:31  5-MIN K0J4 121235Z AUTO 00000KT 10SM CLR 08/05 A3014 120 82 -600 000/00 RMK AO2 T00780050 $
63870K0J4 0J420161112074011011/12/16 07:40:31  5-MIN K0J4 121240Z AUTO 00000KT 10SM CLR 08/05 A3014 120 82 -600 000/00 RMK AO2 T00780050 $
63870K0J4 0J420161112074511011/12/16 07:45:31  5-MIN K0J4 121245Z AUTO 00000KT 10SM CLR 08/06 A3014 110 86 -600 000/00 RMK AO2 T00780056 $
63870K0J4 0J420161112075011011/12/16 07:50:31  5-MIN K0J4 121250Z AUTO 00000KT 10SM CLR 08/06 A3014 110 82 -600 000/00 RMK AO2 T00830056 $
63870K0J4 0J420161112075511711/12/16 07:55:31  5-MIN K0J4 121255Z AUTO 00000KT 10SM CLR 09/06 A3014 110 83 -500 000/00 RMK AO2 SLP205 T00890061 $
63870K0J4 0J420161112080011011/12/16 08:00:31  5-MIN K0J4 121300Z AUTO 00000KT 10SM CLR 09/06 A3014 110 79 -400 000/00 RMK AO2 T00940061 $
63870K0J4 0J420161112080511011/12/16 08:05:31  5-MIN K0J4 121305Z AUTO 35003KT 10SM CLR 10/06 A3014 110 77 -400 350/03 RMK AO2 T01000061 $
63870K0J4 0J420161112081011011/12/16 08:10:31  5-MIN K0J4 121310Z AUTO 01004KT 10SM CLR 10/06 A3014 110 77 -400 010/04 RMK AO2 T01000061 $
63870K0J4 0J420161112081511011/12/16 08:15:31  5-MIN K0J4 121315Z AUTO 01003KT 10SM CLR 10/06 A3015 110 77 -400 010/03 RMK AO2 T01000061 $
63870K0J4 0J420161112082011011/12/16 08:20:31  5-MIN K0J4 121320Z AUTO 00000KT 10SM CLR 10/06 A3015 110 77 -400 000/00 RMK AO2 T01000061 $
63870K0J4 0J420161112082511011/12/16 08:25:31  5-MIN K0J4 121325Z AUTO 02003KT 10SM CLR 11/06 A3015 110 74 -300 020/03 RMK AO2 T01060061 $
63870K0J4 0J420161112083011011/12/16 08:30:31  5-MIN K0J4 121330Z AUTO 00000KT 10SM CLR 11/07 A3015 110 77 -300 000/00 RMK AO2 T01060067 $
63870K0J4 0J420161112083511011/12/16 08:35:31  5-MIN K0J4 121335Z AUTO 03003KT 10SM CLR 10/06 A3015 110 77 -400 030/03 RMK AO2 T01000061 $
63870K0J4 0J420161112084011011/12/16 08:40:31  5-MIN K0J4 121340Z AUTO 02003KT 10SM CLR 11/06 A3015 100 74 -300 020/03 RMK AO2 T01060061 $
63870K0J4 0J420161112084511011/12/16 08:45:31  5-MIN K0J4 121345Z AUTO 00000KT 10SM CLR 11/07 A3015 100 77 -300 000/00 RMK AO2 T01060067 $
63870K0J4 0J420161112085011011/12/16 08:50:31  5-MIN K0J4 121350Z AUTO 03003KT 10SM CLR 11/07 A3015 110 74 -200 030/03 RMK AO2 T01110067 $
63870K0J4 0J420161112085511711/12/16 08:55:31  5-MIN K0J4 121355Z AUTO 02003KT 10SM CLR 11/07 A3015 100 74 -200 020/03 RMK AO2 SLP209 T01110067 $
63870K0J4 0J420161112090011011/12/16 09:00:31  5-MIN K0J4 121400Z AUTO 01003KT 10SM CLR 12/07 A3016 100 71 -200 010/03 RMK AO2 T01170067 $
63870K0J4 0J420161112090511011/12/16 09:05:31  5-MIN K0J4 121405Z AUTO 01003KT 10SM CLR 12/07 A3016 100 68 -100 010/03 RMK AO2 T01220067 $
63870K0J4 0J420161112091011011/12/16 09:10:31  5-MIN K0J4 121410Z AUTO 02004KT 10SM CLR 13/07 A3016 100 69 -100 020/04 RMK AO2 T01280072 $
63870K0J4 0J420161112091510611/12/16 09:15:31  5-MIN K0J4 121415Z AUTO 02005KT 10SM CLR 13/07 A3016 90 64 0 020/05 RMK AO2 T01330067 $
63870K0J4 0J420161112092010611/12/16 09:20:31  5-MIN K0J4 121420Z AUTO 02005KT 10SM CLR 14/07 A3016 90 64 0 020/05 RMK AO2 T01390072 $
63870K0J4 0J420161112092510811/12/16 09:25:31  5-MIN K0J4 121425Z AUTO 03004KT 10SM CLR 14/07 A3016 90 61 100 030/04 RMK AO2 T01440072 $
63870K0J4 0J420161112093010811/12/16 09:30:31  5-MIN K0J4 121430Z AUTO 04006KT 10SM CLR 15/07 A3016 90 59 200 040/06 RMK AO2 T01500072 $
63870K0J4 0J420161112093510811/12/16 09:35:31  5-MIN K0J4 121435Z AUTO 05008KT 10SM CLR 16/07 A3016 90 55 200 050/08 RMK AO2 T01560067 $
63870K0J4 0J420161112094010811/12/16 09:40:31  5-MIN K0J4 121440Z AUTO 07007KT 10SM CLR 16/07 A3016 90 55 200 070/07 RMK AO2 T01560067 $
63870K0J4 0J420161112094510811/12/16 09:45:31  5-MIN K0J4 121445Z AUTO 06007KT 10SM CLR 16/07 A3017 90 53 300 060/07 RMK AO2 T01610067 $
63870K0J4 0J420161112095010811/12/16 09:50:31  5-MIN K0J4 121450Z AUTO 06009KT 10SM CLR 16/07 A3017 80 53 300 060/09 RMK AO2 T01610067 $
63870K0J4 0J420161112095512111/12/16 09:55:31  5-MIN K0J4 121455Z AUTO 09005KT 10SM CLR 16/07 A3017 80 53 300 090/05 RMK AO2 SLP216 T01610067 51006 $
63870K0J4 0J420161112100010811/12/16 10:00:31  5-MIN K0J4 121500Z AUTO 09007KT 10SM CLR 17/06 A3017 80 49 300 090/07 RMK AO2 T01670061 $
63870K0J4 0J420161112100510611/12/16 10:05:31  5-MIN K0J4 121505Z AUTO 07008KT 10SM CLR 17/06 A3017 80 49 300 070/08 RMK AO2 T01670061
63870K0J4 0J420161112101010611/12/16 10:10:31  5-MIN K0J4 121510Z AUTO 08007KT 10SM CLR 17/06 A3017 80 47 400 080/07 RMK AO2 T01720061
63870K0J4 0J420161112101512211/12/16 10:15:31  5-MIN K0J4 121515Z AUTO 07008KT 10SM -RA CLR 17/06 A3017 80 47 400 070/08 RMK AO2 RAB12 P0000 T01720061
63870K0J4 0J420161112102012211/12/16 10:20:31  5-MIN K0J4 121520Z AUTO 08006KT 10SM -RA CLR 17/06 A3017 80 46 400 080/06 RMK AO2 RAB12 P0000 T01720056
63870K0J4 0J420161112102512111/12/16 10:25:31  5-MIN K0J4 121525Z AUTO 05006KT 10SM CLR 18/06 A3017 90 44 500 050/06 RMK AO2 RAB12E22 P0000 T01780056
63870K0J4 0J420161112103012111/12/16 10:30:31  5-MIN K0J4 121530Z AUTO 06007KT 10SM CLR 18/06 A3017 90 44 500 060/07 RMK AO2 RAB12E22 P0000 T01780056
63870K0J4 0J420161112103512111/12/16 10:35:31  5-MIN K0J4 121535Z AUTO 07007KT 10SM CLR 18/06 A3017 90 44 500 070/07 RMK AO2 RAB12E22 P0000 T01780056
63870K0J4 0J420161112104012111/12/16 10:40:31  5-MIN K0J4 121540Z AUTO 07007KT 10SM CLR 18/06 A3016 90 44 500 070/07 RMK AO2 RAB12E22 P0000 T01830061
63870K0J4 0J420161112104512111/12/16 10:45:31  5-MIN K0J4 121545Z AUTO 06007KT 10SM CLR 18/06 A3016 90 44 500 060/07 RMK AO2 RAB12E22 P0000 T01830061
63870K0J4 0J420161112105012211/12/16 10:50:31  5-MIN K0J4 121550Z AUTO VRB06KT 10SM CLR 18/06 A3016 100 42 600 VRB/06 RMK AO2 RAB12E22 P0000 T01830056
63870K0J4 0J420161112105512911/12/16 10:55:31  5-MIN K0J4 121555Z AUTO 05006KT 10SM CLR 18/06 A3016 100 44 500 050/06 RMK AO2 RAB12E22 SLP210 P0000 T01830061
63870K0J4 0J420161112110010711/12/16 11:00:31  5-MIN K0J4 121600Z AUTO 06005KT 10SM CLR 19/06 A3016 100 41 700 060/05 RMK AO2 T01940061
63870K0J4 0J420161112110510711/12/16 11:05:31  5-MIN K0J4 121605Z AUTO VRB04KT 10SM CLR 19/06 A3016 100 41 700 VRB/04 RMK AO2 T01940061
63870K0J4 0J420161112111010711/12/16 11:10:31  5-MIN K0J4 121610Z AUTO 08004KT 10SM CLR 19/06 A3016 100 41 600 080/04 RMK AO2 T01890056
63870K0J4 0J420161112111510711/12/16 11:15:31  5-MIN K0J4 121615Z AUTO 00000KT 10SM CLR 19/06 A3016 100 40 700 000/00 RMK AO2 T01940056
63870K0J4 0J420161112112010711/12/16 11:20:31  5-MIN K0J4 121620Z AUTO VRB04KT 10SM CLR 20/06 A3016 100 40 700 VRB/04 RMK AO2 T02000061
63870K0J4 0J420161112112510711/12/16 11:25:31  5-MIN K0J4 121625Z AUTO VRB04KT 10SM CLR 19/06 A3016 100 40 700 VRB/04 RMK AO2 T01940056
63870K0J4 0J420161112113010611/12/16 11:30:31  5-MIN K0J4 121630Z AUTO VRB03KT 9SM CLR 20/06 A3016 100 38 700 VRB/03 RMK AO2 T02000056
63870K0J4 0J420161112113510611/12/16 11:35:31  5-MIN K0J4 121635Z AUTO 00000KT 9SM CLR 21/06 A3016 100 38 800 000/00 RMK AO2 T02060061
63870K0J4 0J420161112114010611/12/16 11:40:31  5-MIN K0J4 121640Z AUTO 09004KT 9SM CLR 21/06 A3016 100 38 800 090/04 RMK AO2 T02060061
63870K0J4 0J420161112114510611/12/16 11:45:31  5-MIN K0J4 121645Z AUTO 00000KT 9SM CLR 20/06 A3015 100 40 700 000/00 RMK AO2 T02000061
63870K0J4 0J420161112115010611/12/16 11:50:31  5-MIN K0J4 121650Z AUTO 00000KT 9SM CLR 20/06 A3015 100 38 800 000/00 RMK AO2 T02000056
63870K0J4 0J420161112115511311/12/16 11:55:31  5-MIN K0J4 121655Z AUTO 00000KT 9SM CLR 21/06 A3015 100 38 800 000/00 RMK AO2 SLP207 T02060061
63870K0J4 0J420161112120010611/12/16 12:00:31  5-MIN K0J4 121700Z AUTO 04005KT 9SM CLR 21/06 A3015 100 37 900 040/05 RMK AO2 T02110061
63870K0J4 0J420161112120510611/12/16 12:05:31  5-MIN K0J4 121705Z AUTO 36004KT 8SM CLR 21/06 A3015 110 37 900 360/04 RMK AO2 T02110061
63870K0J4 0J420161112121010611/12/16 12:10:31  5-MIN K0J4 121710Z AUTO 00000KT 8SM CLR 21/06 A3015 110 37 800 000/00 RMK AO2 T02060056
63870K0J4 0J420161112121510611/12/16 12:15:31  5-MIN K0J4 121715Z AUTO 00000KT 7SM CLR 21/06 A3014 110 36 900 000/00 RMK AO2 T02110056
63870K0J4 0J420161112122010611/12/16 12:20:31  5-MIN K0J4 121720Z AUTO 07003KT 7SM CLR 21/06 A3014 110 36 900 070/03 RMK AO2 T02110056
63870K0J4 0J420161112122510911/12/16 12:25:31  5-MIN K0J4 121725Z AUTO 00000KT 6SM HZ CLR 21/06 A3014 110 36 900 000/00 RMK AO2 T02110056
63870K0J4 0J420161112123011011/12/16 12:30:31  5-MIN K0J4 121730Z AUTO 09005KT 6SM HZ CLR 22/06 A3014 120 34 1000 090/05 RMK AO2 T02170056
63870K0J4 0J420161112123511011/12/16 12:35:31  5-MIN K0J4 121735Z AUTO VRB03KT 6SM HZ CLR 22/06 A3014 120 34 1000 VRB/03 RMK AO2 T02170056
63870K0J4 0J420161112124010711/12/16 12:40:31  5-MIN K0J4 121740Z AUTO 00000KT 7SM CLR 22/06 A3013 120 34 1000 000/00 RMK AO2 T02170056
63870K0J4 0J420161112124510711/12/16 12:45:31  5-MIN K0J4 121745Z AUTO 00000KT 7SM CLR 22/06 A3013 120 36 1000 000/00 RMK AO2 T02170061
63870K0J4 0J420161112125010711/12/16 12:50:31  5-MIN K0J4 121750Z AUTO VRB03KT 7SM CLR 22/06 A3013 120 34 1000 VRB/03 RMK AO2 T02170056
63870K0J4 0J420161112125513811/12/16 12:55:31  5-MIN K0J4 121755Z AUTO VRB03KT 7SM CLR 22/06 A3013 120 34 1000 VRB/03 RMK AO2 SLP200 60000 T02170056 10222 20078 51018
63870K0J4 0J420161112130010711/12/16 13:00:31  5-MIN K0J4 121800Z AUTO VRB03KT 7SM CLR 22/06 A3013 130 35 1000 VRB/03 RMK AO2 T02220061
63870K0J4 0J420161112130510711/12/16 13:05:31  5-MIN K0J4 121805Z AUTO VRB03KT 7SM CLR 22/06 A3012 130 34 1000 VRB/03 RMK AO2 T02170056
63870K0J4 0J420161112131011011/12/16 13:10:31  5-MIN K0J4 121810Z AUTO 00000KT 6SM HZ CLR 22/06 A3012 130 35 1000 000/00 RMK AO2 T02220061
63870K0J4 0J420161112131511011/12/16 13:15:31  5-MIN K0J4 121815Z AUTO 07005KT 6SM HZ CLR 22/06 A3011 140 35 1100 070/05 RMK AO2 T02220061
63870K0J4 0J420161112132011011/12/16 13:20:31  5-MIN K0J4 121820Z AUTO 02005KT 6SM HZ CLR 22/06 A3011 140 35 1100 020/05 RMK AO2 T02220061
63870K0J4 0J420161112132511011/12/16 13:25:31  5-MIN K0J4 121825Z AUTO VRB03KT 6SM HZ CLR 23/06 A3011 140 32 1100 VRB/03 RMK AO2 T02280056
63870K0J4 0J420161112133011011/12/16 13:30:31  5-MIN K0J4 121830Z AUTO 04005KT 6SM HZ CLR 22/06 A3011 140 35 1100 040/05 RMK AO2 T02220061
63870K0J4 0J420161112133511011/12/16 13:35:31  5-MIN K0J4 121835Z AUTO VRB03KT 6SM HZ CLR 22/06 A3010 150 35 1100 VRB/03 RMK AO2 T02220061
63870K0J4 0J420161112134011011/12/16 13:40:31  5-MIN K0J4 121840Z AUTO 35004KT 6SM HZ CLR 23/06 A3010 150 33 1100 350/04 RMK AO2 T02280061
63870K0J4 0J420161112134511011/12/16 13:45:31  5-MIN K0J4 121845Z AUTO VRB05KT 6SM HZ CLR 22/06 A3010 150 35 1100 VRB/05 RMK AO2 T02220061
63870K0J4 0J420161112135010711/12/16 13:50:31  5-MIN K0J4 121850Z AUTO 03005KT 7SM CLR 22/06 A3010 150 35 1100 030/05 RMK AO2 T02220061
63870K0J4 0J420161112135511411/12/16 13:55:31  5-MIN K0J4 121855Z AUTO 02006KT 7SM CLR 22/06 A3010 150 35 1100 020/06 RMK AO2 SLP191 T02220061
63870K0J4 0J420161112140011011/12/16 14:00:31  5-MIN K0J4 121900Z AUTO 02004KT 6SM HZ CLR 23/06 A3010 150 33 1100 020/04 RMK AO2 T02280061
63870K0J4 0J420161112140511011/12/16 14:05:31  5-MIN K0J4 121905Z AUTO VRB04KT 6SM HZ CLR 23/06 A3010 150 33 1100 VRB/04 RMK AO2 T02280061
63870K0J4 0J420161112141011011/12/16 14:10:31  5-MIN K0J4 121910Z AUTO VRB03KT 6SM HZ CLR 23/06 A3010 150 33 1100 VRB/03 RMK AO2 T02280061
63870K0J4 0J420161112141511011/12/16 14:15:31  5-MIN K0J4 121915Z AUTO VRB05KT 6SM HZ CLR 22/06 A3010 150 35 1100 VRB/05 RMK AO2 T02220061
63870K0J4 0J420161112142011011/12/16 14:20:31  5-MIN K0J4 121920Z AUTO 00000KT 6SM HZ CLR 23/06 A3010 150 33 1100 000/00 RMK AO2 T02280061
63870K0J4 0J420161112142511011/12/16 14:25:31  5-MIN K0J4 121925Z AUTO 04007KT 5SM HZ CLR 23/06 A3010 150 32 1100 040/07 RMK AO2 T02280056
63870K0J4 0J420161112143011011/12/16 14:30:31  5-MIN K0J4 121930Z AUTO 06007KT 5SM HZ CLR 23/06 A3010 150 33 1100 060/07 RMK AO2 T02280061
63870K0J4 0J420161112143511011/12/16 14:35:31  5-MIN K0J4 121935Z AUTO VRB05KT 5SM HZ CLR 23/06 A3010 150 33 1100 VRB/05 RMK AO2 T02280061
63870K0J4 0J420161112144011011/12/16 14:40:31  5-MIN K0J4 121940Z AUTO 06005KT 4SM HZ CLR 23/06 A3010 150 32 1100 060/05 RMK AO2 T02280056
63870K0J4 0J420161112144511011/12/16 14:45:31  5-MIN K0J4 121945Z AUTO 02009KT 4SM HZ CLR 23/06 A3009 160 33 1100 020/09 RMK AO2 T02280061
63870K0J4 0J420161112145011011/12/16 14:50:31  5-MIN K0J4 121950Z AUTO 03005KT 4SM HZ CLR 23/05 A3009 160 31 1100 030/05 RMK AO2 T02280050
63870K0J4 0J420161112145511711/12/16 14:55:31  5-MIN K0J4 121955Z AUTO 05008KT 4SM HZ CLR 23/06 A3009 160 32 1100 050/08 RMK AO2 SLP187 T02280056
63870K0J4 0J420161112150011011/12/16 15:00:31  5-MIN K0J4 122000Z AUTO VRB05KT 4SM HZ CLR 23/06 A3009 160 32 1100 VRB/05 RMK AO2 T02280056
63870K0J4 0J420161112150511011/12/16 15:05:31  5-MIN K0J4 122005Z AUTO VRB04KT 4SM HZ CLR 23/06 A3009 160 32 1100 VRB/04 RMK AO2 T02280056
63870K0J4 0J420161112151011011/12/16 15:10:31  5-MIN K0J4 122010Z AUTO VRB04KT 4SM HZ CLR 23/05 A3009 160 31 1100 VRB/04 RMK AO2 T02280050
63870K0J4 0J420161112151511011/12/16 15:15:31  5-MIN K0J4 122015Z AUTO 02006KT 4SM HZ CLR 23/05 A3009 160 31 1100 020/06 RMK AO2 T02280050
63870K0J4 0J420161112152011011/12/16 15:20:31  5-MIN K0J4 122020Z AUTO VRB06KT 4SM HZ CLR 23/05 A3009 160 31 1100 VRB/06 RMK AO2 T02280050
63870K0J4 0J420161112152511011/12/16 15:25:31  5-MIN K0J4 122025Z AUTO 03007KT 4SM HZ CLR 23/05 A3009 160 31 1100 030/07 RMK AO2 T02280050
63870K0J4 0J420161112153011011/12/16 15:30:31  5-MIN K0J4 122030Z AUTO 04007KT 4SM HZ CLR 23/05 A3009 160 31 1100 040/07 RMK AO2 T02280050
63870K0J4 0J420161112153511011/12/16 15:35:31  5-MIN K0J4 122035Z AUTO 03007KT 4SM HZ CLR 23/05 A3009 160 31 1100 030/07 RMK AO2 T02280050
63870K0J4 0J420161112154011011/12/16 15:40:31  5-MIN K0J4 122040Z AUTO 04008KT 4SM HZ CLR 23/06 A3009 160 32 1100 040/08 RMK AO2 T02280056
63870K0J4 0J420161112154511011/12/16 15:45:31  5-MIN K0J4 122045Z AUTO 02007KT 4SM HZ CLR 22/05 A3008 160 32 1100 020/07 RMK AO2 T02220050
63870K0J4 0J420161112155011011/12/16 15:50:31  5-MIN K0J4 122050Z AUTO 03009KT 4SM HZ CLR 22/05 A3008 170 32 1100 030/09 RMK AO2 T02220050
63870K0J4 0J420161112155512311/12/16 15:55:31  5-MIN K0J4 122055Z AUTO 02008KT 4SM HZ CLR 22/05 A3008 170 32 1100 020/08 RMK AO2 SLP184 T02220050 58016
63870K0J4 0J420161112160011011/12/16 16:00:31  5-MIN K0J4 122100Z AUTO 04007KT 4SM HZ CLR 22/05 A3009 160 33 1000 040/07 RMK AO2 T02170050
63870K0J4 0J420161112160511011/12/16 16:05:31  5-MIN K0J4 122105Z AUTO 03007KT 5SM HZ CLR 22/05 A3009 160 32 1100 030/07 RMK AO2 T02220050
63870K0J4 0J420161112161011011/12/16 16:10:31  5-MIN K0J4 122110Z AUTO 05006KT 5SM HZ CLR 22/05 A3009 160 32 1100 050/06 RMK AO2 T02220050
63870K0J4 0J420161112161511011/12/16 16:15:31  5-MIN K0J4 122115Z AUTO 05007KT 5SM HZ CLR 22/05 A3009 160 33 1000 050/07 RMK AO2 T02170050
63870K0J4 0J420161112162011011/12/16 16:20:31  5-MIN K0J4 122120Z AUTO 03006KT 5SM HZ CLR 22/06 A3009 160 34 1000 030/06 RMK AO2 T02170056
63870K0J4 0J420161112162511011/12/16 16:25:31  5-MIN K0J4 122125Z AUTO 03008KT 5SM HZ CLR 22/06 A3009 160 34 1000 030/08 RMK AO2 T02170056
63870K0J4 0J420161112163011011/12/16 16:30:31  5-MIN K0J4 122130Z AUTO 03007KT 5SM HZ CLR 22/06 A3009 160 34 1000 030/07 RMK AO2 T02170056
63870K0J4 0J420161112163511011/12/16 16:35:31  5-MIN K0J4 122135Z AUTO 04006KT 5SM HZ CLR 22/06 A3009 160 34 1000 040/06 RMK AO2 T02170056
63870K0J4 0J420161112164010911/12/16 16:40:31  5-MIN K0J4 122140Z AUTO 04006KT 5SM HZ CLR 21/06 A3009 160 36 900 040/06 RMK AO2 T02110056
63870K0J4 0J420161112164510911/12/16 16:45:31  5-MIN K0J4 122145Z AUTO 04005KT 5SM HZ CLR 21/06 A3010 150 36 900 040/05 RMK AO2 T02110056
63870K0J4 0J420161112165010911/12/16 16:50:31  5-MIN K0J4 122150Z AUTO 03006KT 6SM HZ CLR 21/06 A3010 150 36 900 030/06 RMK AO2 T02110056
63870K0J4 0J420161112165511611/12/16 16:55:31  5-MIN K0J4 122155Z AUTO 03006KT 6SM HZ CLR 21/06 A3010 150 37 900 030/06 RMK AO2 SLP190 T02060056
63870K0J4 0J420161112170010911/12/16 17:00:31  5-MIN K0J4 122200Z AUTO 04004KT 6SM HZ CLR 21/06 A3010 150 37 900 040/04 RMK AO2 T02060056
63870K0J4 0J420161112170510911/12/16 17:05:31  5-MIN K0J4 122205Z AUTO 04004KT 6SM HZ CLR 20/06 A3011 140 40 800 040/04 RMK AO2 T02000061
63870K0J4 0J420161112171010911/12/16 17:10:31  5-MIN K0J4 122210Z AUTO 03004KT 6SM HZ CLR 20/06 A3010 150 40 800 030/04 RMK AO2 T02000061
63870K0J4 0J420161112171510911/12/16 17:15:31  5-MIN K0J4 122215Z AUTO 03003KT 6SM HZ CLR 19/06 A3010 150 41 700 030/03 RMK AO2 T01940061
63870K0J4 0J420161112172010911/12/16 17:20:31  5-MIN K0J4 122220Z AUTO 03003KT 6SM HZ CLR 19/06 A3011 140 41 700 030/03 RMK AO2 T01940061
63870K0J4 0J420161112172510911/12/16 17:25:31  5-MIN K0J4 122225Z AUTO 02003KT 6SM HZ CLR 19/06 A3011 140 41 700 020/03 RMK AO2 T01940061
63870K0J4 0J420161112173010911/12/16 17:30:31  5-MIN K0J4 122230Z AUTO 03003KT 6SM HZ CLR 19/06 A3011 140 43 700 030/03 RMK AO2 T01890061
63870K0J4 0J420161112173510911/12/16 17:35:31  5-MIN K0J4 122235Z AUTO 03003KT 6SM HZ CLR 18/07 A3011 140 46 600 030/03 RMK AO2 T01830067
63870K0J4 0J420161112174012211/12/16 17:40:31  5-MIN K0J4 122240Z AUTO 00000KT 6SM -RA CLR 17/07 A3011 140 49 500 000/00 RMK AO2 RAB39 P0000 T01720067
63870K0J4 0J420161112174512211/12/16 17:45:31  5-MIN K0J4 122245Z AUTO 00000KT 6SM -RA CLR 17/07 A3011 140 51 400 000/00 RMK AO2 RAB39 P0000 T01670067
63870K0J4 0J420161112175012211/12/16 17:50:31  5-MIN K0J4 122250Z AUTO 00000KT 6SM -RA CLR 17/07 A3012 130 49 500 000/00 RMK AO2 RAB39 P0000 T01720067
63870K0J4 0J420161112175512911/12/16 17:55:31  5-MIN K0J4 122255Z AUTO 00000KT 6SM -RA CLR 16/07 A3012 130 55 300 000/00 RMK AO2 RAB39 SLP197 P0000 T01560067
63870K0J4 0J420161112180011611/12/16 18:00:31  5-MIN K0J4 122300Z AUTO 00000KT 7SM -RA CLR 15/07 A3012 130 57 200 000/00 RMK AO2 P0000 T01500067
63870K0J4 0J420161112180511811/12/16 18:05:31  5-MIN K0J4 122305Z AUTO 00000KT 7SM CLR 14/07 A3013 130 61 100 000/00 RMK AO2 RAE02 P0000 T01440072
63870K0J4 0J420161112181011811/12/16 18:10:31  5-MIN K0J4 122310Z AUTO 00000KT 7SM CLR 15/07 A3013 120 59 200 000/00 RMK AO2 RAE02 P0000 T01500072
63870K0J4 0J420161112181511811/12/16 18:15:31  5-MIN K0J4 122315Z AUTO 00000KT 7SM CLR 15/07 A3013 120 59 200 000/00 RMK AO2 RAE02 P0000 T01500072
63870K0J4 0J420161112182011811/12/16 18:20:31  5-MIN K0J4 122320Z AUTO 00000KT 7SM CLR 15/07 A3014 120 59 200 000/00 RMK AO2 RAE02 P0000 T01500072
63870K0J4 0J420161112182511811/12/16 18:25:31  5-MIN K0J4 122325Z AUTO 00000KT 7SM CLR 14/07 A3014 120 61 100 000/00 RMK AO2 RAE02 P0000 T01440072
63870K0J4 0J420161112183011811/12/16 18:30:31  5-MIN K0J4 122330Z AUTO 00000KT 7SM CLR 14/07 A3014 120 61 100 000/00 RMK AO2 RAE02 P0000 T01440072
63870K0J4 0J420161112183511811/12/16 18:35:31  5-MIN K0J4 122335Z AUTO 00000KT 7SM CLR 14/07 A3014 120 64 100 000/00 RMK AO2 RAE02 P0000 T01390072
63870K0J4 0J420161112184011611/12/16 18:40:31  5-MIN K0J4 122340Z AUTO 00000KT 7SM CLR 13/07 A3014 110 66 0 000/00 RMK AO2 RAE02 P0000 T01330072
63870K0J4 0J420161112184511611/12/16 18:45:31  5-MIN K0J4 122345Z AUTO 00000KT 7SM CLR 13/07 A3014 110 66 0 000/00 RMK AO2 RAE02 P0000 T01330072
63870K0J4 0J420161112185011611/12/16 18:50:31  5-MIN K0J4 122350Z AUTO 00000KT 7SM CLR 13/07 A3014 110 66 0 000/00 RMK AO2 RAE02 P0000 T01330072
63870K0J4 0J420161112185514711/12/16 18:55:31  5-MIN K0J4 122355Z AUTO 00000KT 7SM CLR 13/07 A3015 110 66 0 000/00 RMK AO2 RAE02 SLP207 P0000 60000 T01330072 10233 20133 56014
63870K0J4 0J420161112190010411/12/16 19:00:31  5-MIN K0J4 130000Z AUTO 00000KT 7SM CLR 13/07 A3015 110 69 0 000/00 RMK AO2 T01280072
63870K0J4 0J420161112190510411/12/16 19:05:31  5-MIN K0J4 130005Z AUTO 00000KT 7SM CLR 13/08 A3015 110 71 0 000/00 RMK AO2 T01280078
63870K0J4 0J420161112191010411/12/16 19:10:31  5-MIN K0J4 130010Z AUTO 00000KT 7SM CLR 13/08 A3015 110 71 0 000/00 RMK AO2 T01280078
63870K0J4 0J420161112191510411/12/16 19:15:31  5-MIN K0J4 130015Z AUTO 00000KT 7SM CLR 13/08 A3015 100 71 0 000/00 RMK AO2 T01280078
63870K0J4 0J420161112192010711/12/16 19:20:31  5-MIN K0J4 130020Z AUTO 00000KT 7SM CLR 12/07 A3015 100 71 -100 000/00 RMK AO2 T01220072
63870K0J4 0J420161112192510711/12/16 19:25:31  5-MIN K0J4 130025Z AUTO 00000KT 7SM CLR 12/07 A3015 100 71 -100 000/00 RMK AO2 T01220072
63870K0J4 0J420161112193010711/12/16 19:30:31  5-MIN K0J4 130030Z AUTO 00000KT 7SM CLR 12/07 A3015 100 71 -100 000/00 RMK AO2 T01220072
63870K0J4 0J420161112193510711/12/16 19:35:31  5-MIN K0J4 130035Z AUTO 00000KT 7SM CLR 12/07 A3015 100 68 -100 000/00 RMK AO2 T01220067
63870K0J4 0J420161112194010711/12/16 19:40:31  5-MIN K0J4 130040Z AUTO 00000KT 7SM CLR 12/07 A3015 100 68 -100 000/00 RMK AO2 T01220067
63870K0J4 0J420161112194510711/12/16 19:45:31  5-MIN K0J4 130045Z AUTO 00000KT 7SM CLR 12/07 A3015 110 71 -200 000/00 RMK AO2 T01170067
63870K0J4 0J420161112195010711/12/16 19:50:31  5-MIN K0J4 130050Z AUTO 00000KT 7SM CLR 12/07 A3015 100 71 -200 000/00 RMK AO2 T01170067
63870K0J4 0J420161112195511411/12/16 19:55:31  5-MIN K0J4 130055Z AUTO 00000KT 7SM CLR 12/07 A3015 100 71 -200 000/00 RMK AO2 SLP208 T01170067
63870K0J4 0J420161112200010711/12/16 20:00:31  5-MIN K0J4 130100Z AUTO 00000KT 7SM CLR 12/06 A3015 100 68 -200 000/00 RMK AO2 T01170061
63870K0J4 0J420161112200510711/12/16 20:05:31  5-MIN K0J4 130105Z AUTO 00000KT 7SM CLR 11/07 A3015 100 74 -200 000/00 RMK AO2 T01110067
63870K0J4 0J420161112201010711/12/16 20:10:31  5-MIN K0J4 130110Z AUTO 00000KT 7SM CLR 11/06 A3015 100 71 -200 000/00 RMK AO2 T01110061
63870K0J4 0J420161112201510711/12/16 20:15:31  5-MIN K0J4 130115Z AUTO 00000KT 7SM CLR 11/06 A3015 100 71 -200 000/00 RMK AO2 T01110061
63870K0J4 0J420161112202010711/12/16 20:20:31  5-MIN K0J4 130120Z AUTO 00000KT 7SM CLR 11/06 A3016 100 74 -300 000/00 RMK AO2 T01060061
63870K0J4 0J420161112202510711/12/16 20:25:31  5-MIN K0J4 130125Z AUTO 00000KT 7SM CLR 11/06 A3016 100 71 -300 000/00 RMK AO2 T01110061
63870K0J4 0J420161112203010711/12/16 20:30:31  5-MIN K0J4 130130Z AUTO 00000KT 7SM CLR 11/06 A3016 100 74 -300 000/00 RMK AO2 T01060061
63870K0J4 0J420161112203510711/12/16 20:35:31  5-MIN K0J4 130135Z AUTO 00000KT 7SM CLR 11/06 A3016 100 74 -300 000/00 RMK AO2 T01060061
63870K0J4 0J420161112204010711/12/16 20:40:31  5-MIN K0J4 130140Z AUTO 00000KT 7SM CLR 11/07 A3016 100 77 -300 000/00 RMK AO2 T01060067
63870K0J4 0J420161112204510711/12/16 20:45:31  5-MIN K0J4 130145Z AUTO 00000KT 7SM CLR 11/07 A3016 100 77 -300 000/00 RMK AO2 T01060067
63870K0J4 0J420161112205010711/12/16 20:50:31  5-MIN K0J4 130150Z AUTO 00000KT 7SM CLR 11/07 A3016 100 77 -300 000/00 RMK AO2 T01060067
63870K0J4 0J420161112205511411/12/16 20:55:31  5-MIN K0J4 130155Z AUTO 00000KT 7SM CLR 11/06 A3016 100 74 -300 000/00 RMK AO2 SLP211 T01060061
63870K0J4 0J420161112210010711/12/16 21:00:31  5-MIN K0J4 130200Z AUTO 00000KT 7SM CLR 11/06 A3016 100 74 -300 000/00 RMK AO2 T01060061
63870K0J4 0J420161112210510711/12/16 21:05:31  5-MIN K0J4 130205Z AUTO 00000KT 7SM CLR 11/06 A3016 100 74 -300 000/00 RMK AO2 T01060061
63870K0J4 0J420161112211010711/12/16 21:10:31  5-MIN K0J4 130210Z AUTO 00000KT 7SM CLR 11/06 A3016 100 74 -300 000/00 RMK AO2 T01060061
63870K0J4 0J420161112211512311/12/16 21:15:31  5-MIN K0J4 130215Z AUTO 00000KT 7SM -RA CLR 10/06 A3016 100 74 -400 000/00 RMK AO2 RAB15 P0000 T01000056
63870K0J4 0J420161112212012311/12/16 21:20:31  5-MIN K0J4 130220Z AUTO 00000KT 7SM -RA CLR 11/06 A3016 100 74 -300 000/00 RMK AO2 RAB15 P0000 T01060061
63870K0J4 0J420161112212512311/12/16 21:25:31  5-MIN K0J4 130225Z AUTO 00000KT 8SM -RA CLR 10/06 A3016 100 77 -400 000/00 RMK AO2 RAB15 P0000 T01000061
63870K0J4 0J420161112213012111/12/16 21:30:31  5-MIN K0J4 130230Z AUTO 00000KT 8SM CLR 10/06 A3016 90 77 -400 000/00 RMK AO2 RAB15E26 P0000 T01000061
63870K0J4 0J420161112213512111/12/16 21:35:31  5-MIN K0J4 130235Z AUTO 00000KT 7SM CLR 10/06 A3016 90 77 -400 000/00 RMK AO2 RAB15E26 P0000 T01000061
63870K0J4 0J420161112214012111/12/16 21:40:31  5-MIN K0J4 130240Z AUTO 00000KT 7SM CLR 10/06 A3016 90 74 -400 000/00 RMK AO2 RAB15E26 P0000 T01000056
63870K0J4 0J420161112214512111/12/16 21:45:31  5-MIN K0J4 130245Z AUTO 00000KT 7SM CLR 10/06 A3016 90 74 -400 000/00 RMK AO2 RAB15E26 P0000 T01000056
63870K0J4 0J420161112215012111/12/16 21:50:31  5-MIN K0J4 130250Z AUTO 00000KT 7SM CLR 10/06 A3016 90 74 -400 000/00 RMK AO2 RAB15E26 P0000 T01000056
63870K0J4 0J420161112215514011/12/16 21:55:31  5-MIN K0J4 130255Z AUTO 00000KT 7SM CLR 10/06 A3016 90 74 -400 000/00 RMK AO2 RAB15E26 SLP213 P0000 60000 T01000056 53021
63870K0J4 0J420161112220010611/12/16 22:00:31  5-MIN K0J4 130300Z AUTO 00000KT 8SM CLR 10/06 A3017 90 74 -400 000/00 RMK AO2 T01000056
63870K0J4 0J420161112220510611/12/16 22:05:31  5-MIN K0J4 130305Z AUTO 00000KT 8SM CLR 11/06 A3017 90 71 -300 000/00 RMK AO2 T01060056
63870K0J4 0J420161112221010611/12/16 22:10:31  5-MIN K0J4 130310Z AUTO 00000KT 8SM CLR 10/06 A3017 90 74 -400 000/00 RMK AO2 T01000056
63870K0J4 0J420161112221510611/12/16 22:15:31  5-MIN K0J4 130315Z AUTO 00000KT 8SM CLR 10/06 A3017 90 74 -400 000/00 RMK AO2 T01000056
63870K0J4 0J420161112222010611/12/16 22:20:31  5-MIN K0J4 130320Z AUTO 00000KT 9SM CLR 11/06 A3017 90 71 -300 000/00 RMK AO2 T01060056
63870K0J4 0J420161112222510611/12/16 22:25:31  5-MIN K0J4 130325Z AUTO 04003KT 9SM CLR 10/06 A3017 90 74 -400 040/03 RMK AO2 T01000056
63870K0J4 0J420161112223010611/12/16 22:30:31  5-MIN K0J4 130330Z AUTO 04005KT 9SM CLR 11/06 A3017 90 71 -300 040/05 RMK AO2 T01060056
63870K0J4 0J420161112223510611/12/16 22:35:31  5-MIN K0J4 130335Z AUTO 03004KT 9SM CLR 11/06 A3017 80 68 -300 030/04 RMK AO2 T01110056
63870K0J4 0J420161112224010611/12/16 22:40:31  5-MIN K0J4 130340Z AUTO 03005KT 9SM CLR 12/06 A3017 80 66 -200 030/05 RMK AO2 T01170056
63870K0J4 0J420161112224510611/12/16 22:45:31  5-MIN K0J4 130345Z AUTO 03004KT 9SM CLR 11/06 A3017 80 74 -300 030/04 RMK AO2 T01060061
63870K0J4 0J420161112225010611/12/16 22:50:31  5-MIN K0J4 130350Z AUTO 05003KT 8SM CLR 09/06 A3017 80 76 -500 050/03 RMK AO2 T00940056
63870K0J4 0J420161112225511311/12/16 22:55:31  5-MIN K0J4 130355Z AUTO 05004KT 8SM CLR 09/06 A3017 90 79 -500 050/04 RMK AO2 SLP215 T00940061
63870K0J4 0J420161112230010611/12/16 23:00:31  5-MIN K0J4 130400Z AUTO 06005KT 9SM CLR 11/06 A3017 80 71 -300 060/05 RMK AO2 T01110061
63870K0J4 0J420161112230510611/12/16 23:05:31  5-MIN K0J4 130405Z AUTO 05006KT 9SM CLR 12/06 A3017 90 63 -100 050/06 RMK AO2 T01220056
63870K0J4 0J420161112230515811/12/16 23:05:31  5-MIN K0J4 130405Z AUTO 05006KT 9SM CLR 12/06 A3017 90 63 -100 050/06 RMK AO2 T0122 9SM CLR 12/06 A3017 90 63 -100 060/05 RMK AO2 T01220056
63870K0J4 0J420161112231010611/12/16 23:10:31  5-MIN K0J4 130410Z AUTO 06005KT 9SM CLR 12/06 A3017 90 63 -100 060/05 RMK AO2 T01220056
63870K0J4 0J420161112231510711/12/16 23:15:31  5-MIN K0J4 130415Z AUTO 06005KT 10SM CLR 12/06 A3017 90 66 -100 060/05 RMK AO2 T01220061
63870K0J4 0J420161112232010711/12/16 23:20:31  5-MIN K0J4 130420Z AUTO 07005KT 10SM CLR 12/06 A3017 90 66 -100 070/05 RMK AO2 T01220061
63870K0J4 0J420161112232510711/12/16 23:25:31  5-MIN K0J4 130425Z AUTO 07006KT 10SM CLR 13/06 A3017 90 63 -100 070/06 RMK AO2 T01280061
63870K0J4 0J420161112233010711/12/16 23:30:31  5-MIN K0J4 130430Z AUTO 06006KT 10SM CLR 13/06 A3017 90 63 -100 060/06 RMK AO2 T01280061
63870K0J4 0J420161112233507911/12/16 23:35:31  5-MIN K0J4 130435Z AUTO 07006KT A3017 M M M 070/06 RMK AO2 $
63870K0J4 0J420161112234010011/12/16 23:40:31  5-MIN K0J4 130440Z AUTO 08005KT 13/06 A3017 80 63 -100 080/05 RMK AO2 T01280061 $
63870K0J4 0J420161112234510511/12/16 23:45:31  5-MIN K0J4 130445Z AUTO 07005KT 10SM 12/06 A3017 80 66 -100 070/05 RMK AO2 T01220061 $
63870K0J4 0J420161112235010511/12/16 23:50:31  5-MIN K0J4 130450Z AUTO 07005KT 10SM 12/06 A3017 80 66 -100 070/05 RMK AO2 T01220061 $
63870K0J4 0J420161112235512211/12/16 23:55:31  5-MIN K0J4 130455Z AUTO 06005KT 10SM 12/06 A3017 80 66 -100 060/05 RMK AO2 SLP215 T01220061 402330061 $
63870K0J4 0J420161113000010511/13/16 00:00:31  5-MIN K0J4 130500Z AUTO 05004KT 10SM 12/06 A3018 80 68 -200 050/04 RMK AO2 T01170061 $
63870K0J4 0J420161113000510911/13/16 00:05:31  5-MIN K0J4 130505Z AUTO 05004KT 10SM CLR 12/06 A3017 80 68 -200 050/04 RMK AO2 T01170061 $
63870K0J4 0J420161113001010911/13/16 00:10:31  5-MIN K0J4 130510Z AUTO 06005KT 10SM CLR 12/06 A3017 80 68 -200 060/05 RMK AO2 T01170061 $
63870K0J4 0J420161113001510911/13/16 00:15:31  5-MIN K0J4 130515Z AUTO 06004KT 10SM CLR 12/06 A3017 90 68 -200 060/04 RMK AO2 T01170061 $
63870K0J4 0J420161113002010911/13/16 00:20:31  5-MIN K0J4 130520Z AUTO 06005KT 10SM CLR 12/06 A3017 90 68 -200 060/05 RMK AO2 T01170061 $
63870K0J4 0J420161113002510911/13/16 00:25:31  5-MIN K0J4 130525Z AUTO 05004KT 10SM CLR 12/06 A3017 90 68 -200 050/04 RMK AO2 T01170061 $
63870K0J4 0J420161113003010911/13/16 00:30:31  5-MIN K0J4 130530Z AUTO 05005KT 10SM CLR 12/06 A3017 90 68 -200 050/05 RMK AO2 T01170061 $
63870K0J4 0J420161113003510911/13/16 00:35:31  5-MIN K0J4 130535Z AUTO 06005KT 10SM CLR 12/06 A3017 90 68 -200 060/05 RMK AO2 T01170061 $
63870K0J4 0J420161113004010911/13/16 00:40:31  5-MIN K0J4 130540Z AUTO 06005KT 10SM CLR 12/06 A3017 90 68 -200 060/05 RMK AO2 T01170061 $
63870K0J4 0J420161113004510911/13/16 00:45:31  5-MIN K0J4 130545Z AUTO 07006KT 10SM CLR 12/07 A3017 90 68 -100 070/06 RMK AO2 T01220067 $
63870K0J4 0J420161113005010911/13/16 00:50:31  5-MIN K0J4 130550Z AUTO 07005KT 10SM CLR 12/06 A3016 90 66 -100 070/05 RMK AO2 T01220061 $
63870K0J4 0J420161113005513411/13/16 00:55:31  5-MIN K0J4 130555Z AUTO 07006KT 10SM CLR 12/06 A3016 90 66 -100 070/06 RMK AO2 SLP212 60000 T01220061 10128 20094 $
63870K0J4 0J420161113010010911/13/16 01:00:31  5-MIN K0J4 130600Z AUTO 06005KT 10SM CLR 12/06 A3016 90 66 -100 060/05 RMK AO2 T01220061 $
63870K0J4 0J420161113010511011/13/16 01:05:31  5-MIN K0J4 130605Z AUTO 07006KT 10SM CLR 12/06 A3016 100 66 -100 070/06 RMK AO2 T01220061 $
63870K0J4 0J420161113011011011/13/16 01:10:31  5-MIN K0J4 130610Z AUTO 07006KT 10SM CLR 12/07 A3016 100 68 -100 070/06 RMK AO2 T01220067 $
63870K0J4 0J420161113011511011/13/16 01:15:31  5-MIN K0J4 130615Z AUTO 07005KT 10SM CLR 12/06 A3016 100 66 -100 070/05 RMK AO2 T01220061 $
63870K0J4 0J420161113012010911/13/16 01:20:31  5-MIN K0J4 130620Z AUTO 07005KT 10SM CLR 12/07 A3016 90 68 -100 070/05 RMK AO2 T01220067 $
63870K0J4 0J420161113012510911/13/16 01:25:31  5-MIN K0J4 130625Z AUTO 07005KT 10SM CLR 12/07 A3016 90 68 -100 070/05 RMK AO2 T01220067 $
63870K0J4 0J420161113013010911/13/16 01:30:31  5-MIN K0J4 130630Z AUTO 08004KT 10SM CLR 12/06 A3016 90 66 -100 080/04 RMK AO2 T01220061 $
63870K0J4 0J420161113013511011/13/16 01:35:31  5-MIN K0J4 130635Z AUTO 08006KT 10SM CLR 12/06 A3016 100 66 -100 080/06 RMK AO2 T01220061 $
63870K0J4 0J420161113014011011/13/16 01:40:31  5-MIN K0J4 130640Z AUTO 08006KT 10SM CLR 12/06 A3016 100 66 -100 080/06 RMK AO2 T01220061 $
63870K0J4 0J420161113014511011/13/16 01:45:31  5-MIN K0J4 130645Z AUTO 09004KT 10SM CLR 12/06 A3016 100 66 -100 090/04 RMK AO2 T01220061 $
63870K0J4 0J420161113015011011/13/16 01:50:31  5-MIN K0J4 130650Z AUTO 09003KT 10SM CLR 12/06 A3015 100 66 -100 090/03 RMK AO2 T01220061 $
63870K0J4 0J420161113015511711/13/16 01:55:31  5-MIN K0J4 130655Z AUTO 00000KT 10SM CLR 12/06 A3016 100 66 -100 000/00 RMK AO2 SLP210 T01220061 $
63870K0J4 0J420161113020010911/13/16 02:00:31  5-MIN K0J4 130700Z AUTO 08004KT 10SM CLR 12/06 A3016 90 66 -100 080/04 RMK AO2 T01220061 $
63870K0J4 0J420161113020510911/13/16 02:05:31  5-MIN K0J4 130705Z AUTO 08004KT 10SM CLR 12/06 A3016 90 66 -100 080/04 RMK AO2 T01220061 $
63870K0J4 0J420161113021011011/13/16 02:10:31  5-MIN K0J4 130710Z AUTO 09004KT 10SM CLR 12/06 A3016 100 66 -100 090/04 RMK AO2 T01220061 $
63870K0J4 0J420161113021511011/13/16 02:15:31  5-MIN K0J4 130715Z AUTO 09003KT 10SM CLR 12/07 A3016 100 68 -100 090/03 RMK AO2 T01220067 $
63870K0J4 0J420161113022011011/13/16 02:20:31  5-MIN K0J4 130720Z AUTO 08003KT 10SM CLR 12/07 A3015 100 68 -100 080/03 RMK AO2 T01220067 $
63870K0J4 0J420161113022511011/13/16 02:25:31  5-MIN K0J4 130725Z AUTO 07003KT 10SM CLR 12/07 A3016 100 68 -100 070/03 RMK AO2 T01220067 $
63870K0J4 0J420161113023011011/13/16 02:30:31  5-MIN K0J4 130730Z AUTO 06004KT 10SM CLR 12/07 A3016 100 71 -200 060/04 RMK AO2 T01170067 $
63870K0J4 0J420161113023511011/13/16 02:35:31  5-MIN K0J4 130735Z AUTO 06004KT 10SM CLR 12/07 A3016 100 71 -200 060/04 RMK AO2 T01170067 $
63870K0J4 0J420161113024011011/13/16 02:40:31  5-MIN K0J4 130740Z AUTO 05004KT 10SM CLR 12/07 A3016 100 71 -200 050/04 RMK AO2 T01170067 $
63870K0J4 0J420161113024511011/13/16 02:45:31  5-MIN K0J4 130745Z AUTO 06004KT 10SM CLR 11/07 A3016 100 74 -300 060/04 RMK AO2 T01110067 $
63870K0J4 0J420161113025011211/13/16 02:50:31  5-MIN K0J4 130750Z AUTO 06005KT 10SM FEW019 11/07 A3016 90 74 -300 060/05 RMK AO2 T01110067 $
63870K0J4 0J420161113025511911/13/16 02:55:31  5-MIN K0J4 130755Z AUTO 06004KT 10SM FEW019 11/07 A3017 90 74 -300 060/04 RMK AO2 SLP212 T01110067 $
63870K0J4 0J420161113030011211/13/16 03:00:31  5-MIN K0J4 130800Z AUTO 07004KT 10SM SCT019 11/07 A3016 90 74 -300 070/04 RMK AO2 T01110067 $
63870K0J4 0J420161113030511211/13/16 03:05:31  5-MIN K0J4 130805Z AUTO 07005KT 10SM BKN021 12/07 A3016 90 74 -200 070/05 RMK AO2 T01170072 $
63870K0J4 0J420161113031011211/13/16 03:10:31  5-MIN K0J4 130810Z AUTO 07005KT 10SM BKN021 12/07 A3016 90 71 -100 070/05 RMK AO2 T01220072 $
63870K0J4 0J420161113031511311/13/16 03:15:31  5-MIN K0J4 130815Z AUTO 07005KT 10SM BKN021 12/07 A3016 100 71 -100 070/05 RMK AO2 T01220072 $
63870K0J4 0J420161113032011211/13/16 03:20:31  5-MIN K0J4 130820Z AUTO 07005KT 10SM BKN021 12/07 A3016 90 71 -100 070/05 RMK AO2 T01220072 $
63870K0J4 0J420161113032511211/13/16 03:25:31  5-MIN K0J4 130825Z AUTO 06005KT 10SM BKN023 12/07 A3016 90 71 -100 060/05 RMK AO2 T01220072 $
63870K0J4 0J420161113033011211/13/16 03:30:31  5-MIN K0J4 130830Z AUTO 07005KT 10SM BKN023 12/07 A3016 90 71 -100 070/05 RMK AO2 T01220072 $
63870K0J4 0J420161113033511211/13/16 03:35:31  5-MIN K0J4 130835Z AUTO 06005KT 10SM BKN023 12/07 A3016 90 71 -100 060/05 RMK AO2 T01220072 $
63870K0J4 0J420161113034011211/13/16 03:40:31  5-MIN K0J4 130840Z AUTO 06005KT 10SM BKN025 12/07 A3016 90 71 -100 060/05 RMK AO2 T01220072 $
63870K0J4 0J420161113034511311/13/16 03:45:31  5-MIN K0J4 130845Z AUTO 05005KT 10SM BKN025 12/07 A3016 100 74 -200 050/05 RMK AO2 T01170072 $
63870K0J4 0J420161113035011211/13/16 03:50:31  5-MIN K0J4 130850Z AUTO 05005KT 10SM BKN025 12/07 A3016 90 74 -200 050/05 RMK AO2 T01170072 $
63870K0J4 0J420161113035511911/13/16 03:55:31  5-MIN K0J4 130855Z AUTO 04005KT 10SM BKN025 12/07 A3016 90 74 -200 040/05 RMK AO2 SLP212 T01170072 $
63870K0J4 0J420161113040011211/13/16 04:00:31  5-MIN K0J4 130900Z AUTO 05004KT 10SM BKN025 12/07 A3016 90 74 -200 050/04 RMK AO2 T01170072 $
63870K0J4 0J420161113040511211/13/16 04:05:31  5-MIN K0J4 130905Z AUTO 05005KT 10SM SCT025 12/07 A3016 90 74 -200 050/05 RMK AO2 T01170072 $
63870K0J4 0J420161113041011211/13/16 04:10:31  5-MIN K0J4 130910Z AUTO 05004KT 10SM SCT025 12/07 A3016 90 74 -200 050/04 RMK AO2 T01170072 $
63870K0J4 0J420161113041511311/13/16 04:15:31  5-MIN K0J4 130915Z AUTO 07005KT 10SM FEW024 12/07 A3016 100 74 -200 070/05 RMK AO2 T01170072 $
63870K0J4 0J420161113042011311/13/16 04:20:31  5-MIN K0J4 130920Z AUTO 08005KT 10SM FEW024 12/07 A3015 100 74 -200 080/05 RMK AO2 T01170072 $
63870K0J4 0J420161113042511311/13/16 04:25:31  5-MIN K0J4 130925Z AUTO 07005KT 10SM FEW024 12/07 A3016 100 74 -200 070/05 RMK AO2 T01170072 $
63870K0J4 0J420161113043011011/13/16 04:30:31  5-MIN K0J4 130930Z AUTO 07005KT 10SM CLR 12/07 A3016 100 74 -200 070/05 RMK AO2 T01170072 $
63870K0J4 0J420161113043511011/13/16 04:35:31  5-MIN K0J4 130935Z AUTO 06005KT 10SM CLR 11/07 A3016 100 77 -300 060/05 RMK AO2 T01110072 $
63870K0J4 0J420161113044011011/13/16 04:40:31  5-MIN K0J4 130940Z AUTO 06004KT 10SM CLR 11/07 A3016 100 77 -300 060/04 RMK AO2 T01110072 $
63870K0J4 0J420161113044510911/13/16 04:45:31  5-MIN K0J4 130945Z AUTO 06005KT 10SM CLR 11/07 A3016 90 77 -300 060/05 RMK AO2 T01110072 $
63870K0J4 0J420161113045011011/13/16 04:50:31  5-MIN K0J4 130950Z AUTO 06005KT 10SM CLR 11/07 A3016 100 77 -300 060/05 RMK AO2 T01110072 $
63870K0J4 0J420161113045511711/13/16 04:55:31  5-MIN K0J4 130955Z AUTO 06005KT 10SM CLR 11/07 A3016 100 77 -300 060/05 RMK AO2 SLP210 T01110072 $
63870K0J4 0J420161113050010911/13/16 05:00:31  5-MIN K0J4 131000Z AUTO 06005KT 10SM CLR 11/07 A3016 90 77 -300 060/05 RMK AO2 T01110072 $
63870K0J4 0J420161113050510911/13/16 05:05:31  5-MIN K0J4 131005Z AUTO 06005KT 10SM CLR 11/07 A3016 90 77 -300 060/05 RMK AO2 T01110072 $
63870K0J4 0J420161113051010911/13/16 05:10:31  5-MIN K0J4 131010Z AUTO 07005KT 10SM CLR 11/07 A3016 90 77 -300 070/05 RMK AO2 T01110072 $
63870K0J4 0J420161113051510911/13/16 05:15:31  5-MIN K0J4 131015Z AUTO 08004KT 10SM CLR 11/07 A3016 90 77 -300 080/04 RMK AO2 T01110072 $
63870K0J4 0J420161113052010911/13/16 05:20:31  5-MIN K0J4 131020Z AUTO 08005KT 10SM CLR 11/07 A3016 90 77 -300 080/05 RMK AO2 T01110072 $
63870K0J4 0J420161113052510911/13/16 05:25:31  5-MIN K0J4 131025Z AUTO 08005KT 10SM CLR 11/07 A3016 90 77 -300 080/05 RMK AO2 T01110072 $
63870K0J4 0J420161113053010911/13/16 05:30:31  5-MIN K0J4 131030Z AUTO 08005KT 10SM CLR 11/07 A3016 90 80 -300 080/05 RMK AO2 T01060072 $
63870K0J4 0J420161113053510911/13/16 05:35:31  5-MIN K0J4 131035Z AUTO 07005KT 10SM CLR 11/07 A3016 90 80 -300 070/05 RMK AO2 T01060072 $
63870K0J4 0J420161113054010911/13/16 05:40:31  5-MIN K0J4 131040Z AUTO 06005KT 10SM CLR 11/07 A3017 90 80 -300 060/05 RMK AO2 T01060072 $
63870K0J4 0J420161113054510911/13/16 05:45:31  5-MIN K0J4 131045Z AUTO 06005KT 10SM CLR 11/07 A3017 90 80 -300 060/05 RMK AO2 T01060072 $
63870K0J4 0J420161113055010911/13/16 05:50:31  5-MIN K0J4 131050Z AUTO 06004KT 10SM CLR 11/07 A3017 90 80 -300 060/04 RMK AO2 T01060072 $
63870K0J4 0J420161113055511611/13/16 05:55:31  5-MIN K0J4 131055Z AUTO 06005KT 10SM CLR 11/07 A3017 80 80 -300 060/05 RMK AO2 SLP215 T01060072 $
63870K0J4 0J420161113060010911/13/16 06:00:31  5-MIN K0J4 131100Z AUTO 05004KT 10SM CLR 10/07 A3017 80 83 -400 050/04 RMK AO2 T01000072 $
63870K0J4 0J420161113060510911/13/16 06:05:31  5-MIN K0J4 131105Z AUTO 04005KT 10SM CLR 10/07 A3018 80 83 -400 040/05 RMK AO2 T01000072 $
63870K0J4 0J420161113061010911/13/16 06:10:31  5-MIN K0J4 131110Z AUTO 04004KT 10SM CLR 10/07 A3018 80 83 -400 040/04 RMK AO2 T01000072 $
63870K0J4 0J420161113061510911/13/16 06:15:31  5-MIN K0J4 131115Z AUTO 03005KT 10SM CLR 10/07 A3018 80 83 -400 030/05 RMK AO2 T01000072 $
63870K0J4 0J420161113062010911/13/16 06:20:31  5-MIN K0J4 131120Z AUTO 04005KT 10SM CLR 10/07 A3018 80 83 -400 040/05 RMK AO2 T01000072 $
63870K0J4 0J420161113062510911/13/16 06:25:31  5-MIN K0J4 131125Z AUTO 05003KT 10SM CLR 10/07 A3018 80 83 -400 050/03 RMK AO2 T01000072 $
63870K0J4 0J420161113063010911/13/16 06:30:31  5-MIN K0J4 131130Z AUTO 05003KT 10SM CLR 10/07 A3018 70 83 -400 050/03 RMK AO2 T01000072 $
63870K0J4 0J420161113063510911/13/16 06:35:31  5-MIN K0J4 131135Z AUTO 04003KT 10SM CLR 10/07 A3019 70 83 -400 040/03 RMK AO2 T01000072 $
63870K0J4 0J420161113064010911/13/16 06:40:31  5-MIN K0J4 131140Z AUTO 04004KT 10SM CLR 10/07 A3019 70 83 -400 040/04 RMK AO2 T01000072 $
63870K0J4 0J420161113064510911/13/16 06:45:31  5-MIN K0J4 131145Z AUTO 04005KT 10SM CLR 10/07 A3019 70 83 -400 040/05 RMK AO2 T01000072 $
63870K0J4 0J420161113065010911/13/16 06:50:31  5-MIN K0J4 131150Z AUTO 05004KT 10SM CLR 10/07 A3019 70 83 -400 050/04 RMK AO2 T01000072 $
63870K0J4 0J420161113065513411/13/16 06:55:31  5-MIN K0J4 131155Z AUTO 06004KT 10SM CLR 09/07 A3018 70 83 -500 060/04 RMK AO2 SLP220 T00940067 10128 20094 55000 $
63870K0J4 0J420161113070010911/13/16 07:00:31  5-MIN K0J4 131200Z AUTO 07004KT 10SM CLR 09/07 A3018 70 83 -500 070/04 RMK AO2 T00940067 $
63870K0J4 0J420161113070510911/13/16 07:05:31  5-MIN K0J4 131205Z AUTO 07005KT 10SM CLR 10/07 A3018 80 83 -400 070/05 RMK AO2 T01000072 $
63870K0J4 0J420161113071010911/13/16 07:10:31  5-MIN K0J4 131210Z AUTO 08004KT 10SM CLR 10/07 A3018 80 83 -400 080/04 RMK AO2 T01000072 $
63870K0J4 0J420161113071510911/13/16 07:15:31  5-MIN K0J4 131215Z AUTO 08004KT 10SM CLR 10/07 A3018 80 83 -400 080/04 RMK AO2 T01000072 $
63870K0J4 0J420161113072010911/13/16 07:20:31  5-MIN K0J4 131220Z AUTO 08005KT 10SM CLR 11/07 A3018 70 80 -400 080/05 RMK AO2 T01060072 $
63870K0J4 0J420161113072510911/13/16 07:25:31  5-MIN K0J4 131225Z AUTO 08005KT 10SM CLR 11/07 A3018 70 80 -400 080/05 RMK AO2 T01060072 $
63870K0J4 0J420161113073010911/13/16 07:30:31  5-MIN K0J4 131230Z AUTO 07005KT 10SM CLR 11/07 A3019 70 80 -400 070/05 RMK AO2 T01060072 $
63870K0J4 0J420161113073510911/13/16 07:35:31  5-MIN K0J4 131235Z AUTO 06004KT 10SM CLR 11/07 A3019 60 80 -400 060/04 RMK AO2 T01060072 $
63870K0J4 0J420161113074010911/13/16 07:40:31  5-MIN K0J4 131240Z AUTO 07005KT 10SM CLR 11/07 A3019 70 80 -400 070/05 RMK AO2 T01060072 $
63870K0J4 0J420161113074510911/13/16 07:45:31  5-MIN K0J4 131245Z AUTO 08005KT 10SM CLR 11/07 A3019 70 80 -400 080/05 RMK AO2 T01060072 $
63870K0J4 0J420161113075010911/13/16 07:50:31  5-MIN K0J4 131250Z AUTO 06004KT 10SM CLR 11/07 A3019 60 77 -300 060/04 RMK AO2 T01110072 $
63870K0J4 0J420161113075511611/13/16 07:55:31  5-MIN K0J4 131255Z AUTO 06004KT 10SM CLR 11/07 A3020 60 77 -300 060/04 RMK AO2 SLP224 T01110072 $
63870K0J4 0J420161113080010911/13/16 08:00:31  5-MIN K0J4 131300Z AUTO 07004KT 10SM CLR 11/08 A3019 60 80 -300 070/04 RMK AO2 T01110078 $
63870K0J4 0J420161113080510911/13/16 08:05:31  5-MIN K0J4 131305Z AUTO 09004KT 10SM CLR 12/07 A3020 60 74 -200 090/04 RMK AO2 T01170072 $
63870K0J4 0J420161113081010911/13/16 08:10:31  5-MIN K0J4 131310Z AUTO 07004KT 10SM CLR 12/07 A3020 60 74 -200 070/04 RMK AO2 T01170072 $
63870K0J4 0J420161113081510911/13/16 08:15:31  5-MIN K0J4 131315Z AUTO 05004KT 10SM CLR 12/07 A3020 60 74 -200 050/04 RMK AO2 T01170072 $
63870K0J4 0J420161113082010911/13/16 08:20:31  5-MIN K0J4 131320Z AUTO 07004KT 10SM CLR 12/07 A3020 60 74 -200 070/04 RMK AO2 T01170072 $
63870K0J4 0J420161113082510911/13/16 08:25:31  5-MIN K0J4 131325Z AUTO 08004KT 10SM CLR 12/08 A3020 60 74 -200 080/04 RMK AO2 T01220078 $
63870K0J4 0J420161113083010911/13/16 08:30:31  5-MIN K0J4 131330Z AUTO 08004KT 10SM CLR 12/08 A3020 60 74 -200 080/04 RMK AO2 T01220078 $
63870K0J4 0J420161113083510911/13/16 08:35:31  5-MIN K0J4 131335Z AUTO 08004KT 10SM CLR 12/08 A3020 60 74 -200 080/04 RMK AO2 T01220078 $
63870K0J4 0J420161113084010911/13/16 08:40:31  5-MIN K0J4 131340Z AUTO 07005KT 10SM CLR 13/08 A3020 60 71 -100 070/05 RMK AO2 T01280078 $
63870K0J4 0J420161113084510911/13/16 08:45:31  5-MIN K0J4 131345Z AUTO 07005KT 10SM CLR 13/08 A3021 50 71 -100 070/05 RMK AO2 T01280078 $
63870K0J4 0J420161113085010611/13/16 08:50:31  5-MIN K0J4 131350Z AUTO 06006KT 10SM CLR 13/08 A3021 50 69 0 060/06 RMK AO2 T01330078 $
63870K0J4 0J420161113085511311/13/16 08:55:31  5-MIN K0J4 131355Z AUTO 07006KT 10SM CLR 13/08 A3021 50 69 0 070/06 RMK AO2 SLP228 T01330078 $
63870K0J4 0J420161113090010911/13/16 09:00:31  5-MIN K0J4 131400Z AUTO 07006KT 10SM CLR 13/08 A3021 50 69 -100 070/06 RMK AO2 T01330078 $
63870K0J4 0J420161113090510611/13/16 09:05:31  5-MIN K0J4 131405Z AUTO 06006KT 10SM CLR 14/08 A3021 50 66 0 060/06 RMK AO2 T01390078 $
63870K0J4 0J420161113091010911/13/16 09:10:31  5-MIN K0J4 131410Z AUTO 08006KT 10SM CLR 13/08 A3022 40 69 -100 080/06 RMK AO2 T01330078 $
63870K0J4 0J420161113091510611/13/16 09:15:31  5-MIN K0J4 131415Z AUTO 08005KT 10SM CLR 14/08 A3022 40 66 0 080/05 RMK AO2 T01390078 $
63870K0J4 0J420161113092010611/13/16 09:20:31  5-MIN K0J4 131420Z AUTO 09005KT 10SM CLR 14/08 A3022 40 66 0 090/05 RMK AO2 T01390078 $
63870K0J4 0J420161113092512211/13/16 09:25:31  5-MIN K0J4 131425Z AUTO 08005KT 10SM -RA CLR 14/08 A3022 40 64 0 080/05 RMK AO2 RAB25 P0000 T01440078 $
63870K0J4 0J420161113093012211/13/16 09:30:31  5-MIN K0J4 131430Z AUTO 07005KT 10SM -RA CLR 14/08 A3022 40 64 0 070/05 RMK AO2 RAB25 P0000 T01440078 $
63870K0J4 0J420161113093512111/13/16 09:35:31  5-MIN K0J4 131435Z AUTO 07006KT 10SM CLR 14/08 A3022 40 64 0 070/06 RMK AO2 RAB25E34 P0000 T01440078 $
63870K0J4 0J420161113094012311/13/16 09:40:31  5-MIN K0J4 131440Z AUTO 08006KT 10SM CLR 15/08 A3022 40 62 100 080/06 RMK AO2 RAB25E34 P0000 T01500078 $
63870K0J4 0J420161113094512311/13/16 09:45:31  5-MIN K0J4 131445Z AUTO 09007KT 10SM CLR 15/08 A3022 40 62 100 090/07 RMK AO2 RAB25E34 P0000 T01500078 $
63870K0J4 0J420161113095012311/13/16 09:50:31  5-MIN K0J4 131450Z AUTO 08006KT 10SM CLR 16/08 A3022 40 59 200 080/06 RMK AO2 RAB25E34 P0000 T01560078 $
63870K0J4 0J420161113095514211/13/16 09:55:31  5-MIN K0J4 131455Z AUTO VRB05KT 10SM CLR 16/08 A3022 40 59 200 VRB/05 RMK AO2 RAB25E34 SLP231 P0000 60000 T01610083 53006 $
63870K0J4 0J420161113100010811/13/16 10:00:31  5-MIN K0J4 131500Z AUTO 11006KT 10SM CLR 16/08 A3022 40 59 200 110/06 RMK AO2 T01560078 $
63870K0J4 0J420161113100510811/13/16 10:05:31  5-MIN K0J4 131505Z AUTO 09007KT 10SM CLR 16/08 A3021 50 59 200 090/07 RMK AO2 T01560078 $
63870K0J4 0J420161113101010811/13/16 10:10:31  5-MIN K0J4 131510Z AUTO 09005KT 10SM CLR 16/08 A3021 50 59 200 090/05 RMK AO2 T01560078 $
63870K0J4 0J420161113101510811/13/16 10:15:31  5-MIN K0J4 131515Z AUTO 10006KT 10SM CLR 17/08 A3022 40 57 300 100/06 RMK AO2 T01670083 $
63870K0J4 0J420161113102010811/13/16 10:20:31  5-MIN K0J4 131520Z AUTO 10006KT 10SM CLR 17/08 A3021 50 57 300 100/06 RMK AO2 T01670083 $
63870K0J4 0J420161113102510811/13/16 10:25:31  5-MIN K0J4 131525Z AUTO VRB05KT 10SM CLR 17/08 A3021 50 57 300 VRB/05 RMK AO2 T01670083 $
63870K0J4 0J420161113103010811/13/16 10:30:31  5-MIN K0J4 131530Z AUTO 09004KT 10SM CLR 17/09 A3021 50 60 300 090/04 RMK AO2 T01670089 $
63870K0J4 0J420161113103510811/13/16 10:35:31  5-MIN K0J4 131535Z AUTO 09006KT 10SM CLR 17/09 A3021 50 57 400 090/06 RMK AO2 T01720089 $
63870K0J4 0J420161113104010811/13/16 10:40:31  5-MIN K0J4 131540Z AUTO 09006KT 10SM CLR 17/09 A3021 50 60 300 090/06 RMK AO2 T01670089 $
63870K0J4 0J420161113104510811/13/16 10:45:31  5-MIN K0J4 131545Z AUTO 09005KT 10SM CLR 17/09 A3021 50 60 300 090/05 RMK AO2 T01670089 $
63870K0J4 0J420161113105010811/13/16 10:50:31  5-MIN K0J4 131550Z AUTO 10004KT 10SM CLR 17/09 A3021 50 60 300 100/04 RMK AO2 T01670089 $
63870K0J4 0J420161113105511511/13/16 10:55:31  5-MIN K0J4 131555Z AUTO 10004KT 10SM CLR 17/09 A3021 50 57 400 100/04 RMK AO2 SLP228 T01720089 $
63870K0J4 0J420161113110010811/13/16 11:00:31  5-MIN K0J4 131600Z AUTO 14003KT 10SM CLR 17/09 A3021 50 62 300 140/03 RMK AO2 T01670094 $
63870K0J4 0J420161113110510811/13/16 11:05:31  5-MIN K0J4 131605Z AUTO 12003KT 10SM CLR 17/09 A3021 50 60 400 120/03 RMK AO2 T01720094 $
63870K0J4 0J420161113111010811/13/16 11:10:31  5-MIN K0J4 131610Z AUTO 14004KT 10SM CLR 17/09 A3021 50 62 300 140/04 RMK AO2 T01670094 $
63870K0J4 0J420161113111510811/13/16 11:15:31  5-MIN K0J4 131615Z AUTO 00000KT 10SM CLR 17/09 A3021 50 62 300 000/00 RMK AO2 T01670094 $
63870K0J4 0J420161113112010811/13/16 11:20:31  5-MIN K0J4 131620Z AUTO 10004KT 10SM CLR 17/09 A3021 50 60 400 100/04 RMK AO2 T01720094 $
63870K0J4 0J420161113112510811/13/16 11:25:31  5-MIN K0J4 131625Z AUTO VRB04KT 10SM CLR 17/09 A3020 50 60 400 VRB/04 RMK AO2 T01720094 $
63870K0J4 0J420161113113010811/13/16 11:30:31  5-MIN K0J4 131630Z AUTO 07003KT 10SM CLR 17/09 A3020 60 60 400 070/03 RMK AO2 T01720094 $
63870K0J4 0J420161113113510811/13/16 11:35:31  5-MIN K0J4 131635Z AUTO 08005KT 10SM CLR 17/09 A3020 60 60 400 080/05 RMK AO2 T01720094 $
63870K0J4 0J420161113114010811/13/16 11:40:31  5-MIN K0J4 131640Z AUTO 00000KT 10SM CLR 17/09 A3020 60 60 400 000/00 RMK AO2 T01720094 $
63870K0J4 0J420161113114510811/13/16 11:45:31  5-MIN K0J4 131645Z AUTO 09004KT 10SM CLR 18/10 A3020 60 58 500 090/04 RMK AO2 T01830100 $
63870K0J4 0J420161113115010811/13/16 11:50:31  5-MIN K0J4 131650Z AUTO VRB04KT 10SM CLR 18/10 A3019 70 60 400 VRB/04 RMK AO2 T01780100 $
63870K0J4 0J420161113115511511/13/16 11:55:31  5-MIN K0J4 131655Z AUTO 00000KT 10SM CLR 18/10 A3019 70 58 500 000/00 RMK AO2 SLP220 T01830100 $
63870K0J4 0J420161113120010811/13/16 12:00:31  5-MIN K0J4 131700Z AUTO 06006KT 10SM CLR 18/10 A3018 70 58 500 060/06 RMK AO2 T01830100 $
63870K0J4 0J420161113120510811/13/16 12:05:31  5-MIN K0J4 131705Z AUTO 07005KT 10SM CLR 18/10 A3018 80 58 500 070/05 RMK AO2 T01830100 $
63870K0J4 0J420161113121010811/13/16 12:10:31  5-MIN K0J4 131710Z AUTO 08005KT 10SM CLR 19/11 A3018 80 58 600 080/05 RMK AO2 T01890106 $
63870K0J4 0J420161113121510811/13/16 12:15:31  5-MIN K0J4 131715Z AUTO 08004KT 10SM CLR 18/10 A3018 80 58 500 080/04 RMK AO2 T01830100 $
63870K0J4 0J420161113122010811/13/16 12:20:31  5-MIN K0J4 131720Z AUTO 02005KT 10SM CLR 18/10 A3018 80 58 500 020/05 RMK AO2 T01830100 $
63870K0J4 0J420161113122510811/13/16 12:25:31  5-MIN K0J4 131725Z AUTO 05006KT 10SM CLR 18/11 A3017 80 60 500 050/06 RMK AO2 T01830106 $
63870K0J4 0J420161113123010811/13/16 12:30:31  5-MIN K0J4 131730Z AUTO 04004KT 10SM CLR 18/10 A3017 80 58 500 040/04 RMK AO2 T01830100 $
63870K0J4 0J420161113123510811/13/16 12:35:31  5-MIN K0J4 131735Z AUTO 00000KT 10SM CLR 19/11 A3017 80 58 600 000/00 RMK AO2 T01890106 $
63870K0J4 0J420161113124010811/13/16 12:40:31  5-MIN K0J4 131740Z AUTO 05004KT 10SM CLR 19/11 A3017 90 56 700 050/04 RMK AO2 T01940106 $
63870K0J4 0J420161113124510811/13/16 12:45:31  5-MIN K0J4 131745Z AUTO 07004KT 10SM CLR 19/10 A3017 90 54 700 070/04 RMK AO2 T01940100 $
63870K0J4 0J420161113125010911/13/16 12:50:31  5-MIN K0J4 131750Z AUTO 03005KT 10SM CLR 19/10 A3016 100 54 700 030/05 RMK AO2 T01940100 $
63870K0J4 0J420161113125514011/13/16 12:55:31  5-MIN K0J4 131755Z AUTO 08005KT 10SM CLR 19/10 A3016 100 54 700 080/05 RMK AO2 SLP209 60000 T01940100 10200 20094 51011 $
63870K0J4 0J420161113130009911/13/16 13:00:31  5-MIN K0J4 131800Z AUTO 10SM CLR 20/10 A3015 100 52 800 M /M RMK AO2 T02000100 $
63870K0J4 0J420161113130510911/13/16 13:05:31  5-MIN K0J4 131805Z AUTO VRB05KT 10SM CLR 21/10 A3015 100 50 800 VRB/05 RMK AO2 T02060100 $
63870K0J4 0J420161113131010911/13/16 13:10:31  5-MIN K0J4 131810Z AUTO 03008KT 10SM CLR 21/11 A3015 100 52 800 030/08 RMK AO2 T02060106 $
63870K0J4 0J420161113131510911/13/16 13:15:31  5-MIN K0J4 131815Z AUTO 03007KT 10SM CLR 20/10 A3015 110 52 800 030/07 RMK AO2 T02000100 $
63870K0J4 0J420161113132010911/13/16 13:20:31  5-MIN K0J4 131820Z AUTO 04009KT 10SM CLR 21/10 A3014 110 50 800 040/09 RMK AO2 T02060100 $
63870K0J4 0J420161113132510911/13/16 13:25:31  5-MIN K0J4 131825Z AUTO 03005KT 10SM CLR 21/10 A3014 110 50 800 030/05 RMK AO2 T02060100 $
63870K0J4 0J420161113133010911/13/16 13:30:31  5-MIN K0J4 131830Z AUTO 04008KT 10SM CLR 21/10 A3014 120 50 800 040/08 RMK AO2 T02060100 $
63870K0J4 0J420161113133511211/13/16 13:35:31  5-MIN K0J4 131835Z AUTO VRB05KT 10SM FEW037 21/10 A3014 120 50 800 VRB/05 RMK AO2 T02060100 $
63870K0J4 0J420161113134011211/13/16 13:40:31  5-MIN K0J4 131840Z AUTO 04009KT 10SM FEW037 21/10 A3014 120 50 800 040/09 RMK AO2 T02060100 $
63870K0J4 0J420161113134511211/13/16 13:45:31  5-MIN K0J4 131845Z AUTO 01006KT 10SM FEW037 21/10 A3014 120 50 800 010/06 RMK AO2 T02060100 $
63870K0J4 0J420161113135011211/13/16 13:50:31  5-MIN K0J4 131850Z AUTO 04008KT 10SM FEW037 20/10 A3014 110 52 800 040/08 RMK AO2 T02000100 $
63870K0J4 0J420161113135511911/13/16 13:55:31  5-MIN K0J4 131855Z AUTO 06007KT 10SM FEW037 20/10 A3013 120 52 800 060/07 RMK AO2 SLP202 T02000100 $
63870K0J4 0J420161113140011211/13/16 14:00:31  5-MIN K0J4 131900Z AUTO 07008KT 10SM FEW037 20/10 A3013 120 52 800 070/08 RMK AO2 T02000100 $
63870K0J4 0J420161113140510911/13/16 14:05:31  5-MIN K0J4 131905Z AUTO 05007KT 10SM CLR 20/10 A3013 120 52 800 050/07 RMK AO2 T02000100 $
63870K0J4 0J420161113141010911/13/16 14:10:31  5-MIN K0J4 131910Z AUTO 36007KT 10SM CLR 20/10 A3013 130 52 800 360/07 RMK AO2 T02000100 $
63870K0J4 0J420161113141510911/13/16 14:15:31  5-MIN K0J4 131915Z AUTO 03007KT 10SM CLR 20/10 A3013 130 52 800 030/07 RMK AO2 T02000100 $
63870K0J4 0J420161113142010911/13/16 14:20:31  5-MIN K0J4 131920Z AUTO 03007KT 10SM CLR 20/10 A3013 130 52 800 030/07 RMK AO2 T02000100 $
63870K0J4 0J420161113142510911/13/16 14:25:31  5-MIN K0J4 131925Z AUTO 04007KT 10SM CLR 21/10 A3012 130 50 800 040/07 RMK AO2 T02060100 $
63870K0J4 0J420161113143010911/13/16 14:30:31  5-MIN K0J4 131930Z AUTO 02006KT 10SM CLR 20/09 A3012 130 50 800 020/06 RMK AO2 T02000094 $
63870K0J4 0J420161113143510911/13/16 14:35:31  5-MIN K0J4 131935Z AUTO VRB05KT 10SM CLR 20/10 A3012 130 52 800 VRB/05 RMK AO2 T02000100 $
63870K0J4 0J420161113144010911/13/16 14:40:31  5-MIN K0J4 131940Z AUTO 06008KT 10SM CLR 21/10 A3012 130 50 900 060/08 RMK AO2 T02060100 $
63870K0J4 0J420161113144510911/13/16 14:45:31  5-MIN K0J4 131945Z AUTO 01006KT 10SM CLR 21/10 A3012 130 50 900 010/06 RMK AO2 T02060100 $
63870K0J4 0J420161113145010911/13/16 14:50:31  5-MIN K0J4 131950Z AUTO VRB05KT 10SM CLR 20/09 A3012 130 50 800 VRB/05 RMK AO2 T02000094 $
63870K0J4 0J420161113145511611/13/16 14:55:31  5-MIN K0J4 131955Z AUTO 04006KT 10SM CLR 20/09 A3012 130 50 800 040/06 RMK AO2 SLP197 T02000094 $
63870K0J4 0J420161113150010911/13/16 15:00:31  5-MIN K0J4 132000Z AUTO 05008KT 10SM CLR 20/09 A3012 130 50 800 050/08 RMK AO2 T02000094 $
63870K0J4 0J420161113150510911/13/16 15:05:31  5-MIN K0J4 132005Z AUTO 03006KT 10SM CLR 20/09 A3012 130 50 800 030/06 RMK AO2 T02000094 $
63870K0J4 0J420161113151010911/13/16 15:10:31  5-MIN K0J4 132010Z AUTO 04006KT 10SM CLR 19/09 A3012 130 52 700 040/06 RMK AO2 T01940094 $
63870K0J4 0J420161113151512511/13/16 15:15:31  5-MIN K0J4 132015Z AUTO 05007KT 10SM -RA CLR 20/09 A3012 130 50 800 050/07 RMK AO2 RAB12 P0000 T02000094 $
63870K0J4 0J420161113152012511/13/16 15:20:31  5-MIN K0J4 132020Z AUTO 04006KT 10SM -RA CLR 20/09 A3012 130 50 800 040/06 RMK AO2 RAB12 P0000 T02000094 $
63870K0J4 0J420161113152512411/13/16 15:25:31  5-MIN K0J4 132025Z AUTO 06007KT 10SM CLR 20/09 A3012 130 50 800 060/07 RMK AO2 RAB12E22 P0000 T02000094 $
63870K0J4 0J420161113153012411/13/16 15:30:31  5-MIN K0J4 132030Z AUTO 04007KT 10SM CLR 20/09 A3012 130 50 800 040/07 RMK AO2 RAB12E22 P0000 T02000094 $
63870K0J4 0J420161113153512411/13/16 15:35:31  5-MIN K0J4 132035Z AUTO 03007KT 10SM CLR 20/09 A3012 130 50 800 030/07 RMK AO2 RAB12E22 P0000 T02000094 $
63870K0J4 0J420161113154012411/13/16 15:40:31  5-MIN K0J4 132040Z AUTO 03004KT 10SM CLR 20/09 A3012 130 50 800 030/04 RMK AO2 RAB12E22 P0000 T02000094 $
63870K0J4 0J420161113154512411/13/16 15:45:31  5-MIN K0J4 132045Z AUTO 04006KT 10SM CLR 20/09 A3012 130 50 800 040/06 RMK AO2 RAB12E22 P0000 T02000094 $
63870K0J4 0J420161113155012411/13/16 15:50:31  5-MIN K0J4 132050Z AUTO 08006KT 10SM CLR 20/09 A3012 130 50 800 080/06 RMK AO2 RAB12E22 P0000 T02000094 $
63870K0J4 0J420161113155514311/13/16 15:55:31  5-MIN K0J4 132055Z AUTO 03005KT 10SM CLR 20/09 A3012 130 50 800 030/05 RMK AO2 RAB12E22 SLP196 P0000 60000 T02000094 58021 $
63870K0J4 0J420161113160010911/13/16 16:00:31  5-MIN K0J4 132100Z AUTO 05005KT 10SM CLR 20/09 A3012 130 50 800 050/05 RMK AO2 T02000094 $
63870K0J4 0J420161113160510911/13/16 16:05:31  5-MIN K0J4 132105Z AUTO 06007KT 10SM CLR 19/09 A3012 130 52 700 060/07 RMK AO2 T01940094 $
63870K0J4 0J420161113161010911/13/16 16:10:31  5-MIN K0J4 132110Z AUTO 04005KT 10SM CLR 19/09 A3012 130 50 700 040/05 RMK AO2 T01940089 $
63870K0J4 0J420161113161510911/13/16 16:15:31  5-MIN K0J4 132115Z AUTO 04006KT 10SM CLR 19/09 A3012 130 50 700 040/06 RMK AO2 T01940089 $
63870K0J4 0J420161113162010911/13/16 16:20:31  5-MIN K0J4 132120Z AUTO 02005KT 10SM CLR 19/09 A3012 130 50 700 020/05 RMK AO2 T01940089 $
63870K0J4 0J420161113162510911/13/16 16:25:31  5-MIN K0J4 132125Z AUTO 03006KT 10SM CLR 19/09 A3012 130 50 700 030/06 RMK AO2 T01940089 $
63870K0J4 0J420161113163010911/13/16 16:30:31  5-MIN K0J4 132130Z AUTO 04005KT 10SM CLR 19/09 A3012 130 50 700 040/05 RMK AO2 T01940089 $
63870K0J4 0J420161113163510911/13/16 16:35:31  5-MIN K0J4 132135Z AUTO 04004KT 10SM CLR 19/09 A3012 130 50 700 040/04 RMK AO2 T01940089 $
63870K0J4 0J420161113164010911/13/16 16:40:31  5-MIN K0J4 132140Z AUTO 06005KT 10SM CLR 19/09 A3012 130 52 700 060/05 RMK AO2 T01940094 $
63870K0J4 0J420161113164510911/13/16 16:45:31  5-MIN K0J4 132145Z AUTO 06003KT 10SM CLR 19/09 A3012 130 54 700 060/03 RMK AO2 T01890094 $
63870K0J4 0J420161113165010911/13/16 16:50:31  5-MIN K0J4 132150Z AUTO 03003KT 10SM CLR 19/09 A3012 130 54 700 030/03 RMK AO2 T01890094 $
63870K0J4 0J420161113165511611/13/16 16:55:31  5-MIN K0J4 132155Z AUTO 02004KT 10SM CLR 19/09 A3012 130 54 700 020/04 RMK AO2 SLP196 T01890094 $
63870K0J4 0J420161113170010911/13/16 17:00:31  5-MIN K0J4 132200Z AUTO 02004KT 10SM CLR 19/09 A3012 130 54 700 020/04 RMK AO2 T01890094 $
63870K0J4 0J420161113170510911/13/16 17:05:31  5-MIN K0J4 132205Z AUTO 02003KT 10SM CLR 19/09 A3012 130 54 700 020/03 RMK AO2 T01890094 $
63870K0J4 0J420161113171010911/13/16 17:10:31  5-MIN K0J4 132210Z AUTO 02003KT 10SM CLR 18/09 A3012 130 56 600 020/03 RMK AO2 T01830094 $
63870K0J4 0J420161113171512511/13/16 17:15:31  5-MIN K0J4 132215Z AUTO 00000KT 10SM -RA CLR 18/09 A3012 130 56 600 000/00 RMK AO2 RAB11 P0000 T01830094 $
63870K0J4 0J420161113172012511/13/16 17:20:31  5-MIN K0J4 132220Z AUTO 00000KT 10SM -RA CLR 18/09 A3012 130 56 600 000/00 RMK AO2 RAB11 P0000 T01830094 $
63870K0J4 0J420161113172512511/13/16 17:25:31  5-MIN K0J4 132225Z AUTO 00000KT 10SM -RA CLR 18/09 A3012 130 56 600 000/00 RMK AO2 RAB11 P0000 T01830094 $
63870K0J4 0J420161113173012511/13/16 17:30:31  5-MIN K0J4 132230Z AUTO 00000KT 10SM -RA CLR 18/09 A3012 130 58 500 000/00 RMK AO2 RAB11 P0000 T01780094 $
63870K0J4 0J420161113173512511/13/16 17:35:31  5-MIN K0J4 132235Z AUTO 00000KT 10SM -RA CLR 18/09 A3012 130 58 500 000/00 RMK AO2 RAB11 P0000 T01780094 $
63870K0J4 0J420161113174012411/13/16 17:40:31  5-MIN K0J4 132240Z AUTO 00000KT 10SM CLR 18/09 A3012 130 58 500 000/00 RMK AO2 RAB11E38 P0000 T01780094 $
63870K0J4 0J420161113174512411/13/16 17:45:31  5-MIN K0J4 132245Z AUTO 00000KT 10SM CLR 17/10 A3012 130 64 400 000/00 RMK AO2 RAB11E38 P0000 T01670100 $
63870K0J4 0J420161113175012411/13/16 17:50:31  5-MIN K0J4 132250Z AUTO 00000KT 10SM CLR 16/10 A3012 130 67 300 000/00 RMK AO2 RAB11E38 P0000 T01610100 $
63870K0J4 0J420161113175513111/13/16 17:55:31  5-MIN K0J4 132255Z AUTO 00000KT 10SM CLR 16/10 A3012 130 67 300 000/00 RMK AO2 RAB11E38 SLP199 P0000 T01610100 $
63870K0J4 0J420161113180010911/13/16 18:00:31  5-MIN K0J4 132300Z AUTO 00000KT 10SM CLR 16/10 A3012 130 67 300 000/00 RMK AO2 T01610100 $
63870K0J4 0J420161113180510911/13/16 18:05:31  5-MIN K0J4 132305Z AUTO 00000KT 10SM CLR 16/10 A3013 130 67 300 000/00 RMK AO2 T01610100 $
63870K0J4 0J420161113181010911/13/16 18:10:31  5-MIN K0J4 132310Z AUTO 00000KT 10SM CLR 16/10 A3013 120 67 300 000/00 RMK AO2 T01610100 $
63870K0J4 0J420161113181510911/13/16 18:15:31  5-MIN K0J4 132315Z AUTO 00000KT 10SM CLR 16/10 A3013 120 69 300 000/00 RMK AO2 T01560100 $
63870K0J4 0J420161113182010911/13/16 18:20:31  5-MIN K0J4 132320Z AUTO 00000KT 10SM CLR 15/11 A3013 120 74 200 000/00 RMK AO2 T01500106 $
63870K0J4 0J420161113182510911/13/16 18:25:31  5-MIN K0J4 132325Z AUTO 00000KT 10SM CLR 15/11 A3013 120 74 200 000/00 RMK AO2 T01500106 $
63870K0J4 0J420161113183010911/13/16 18:30:31  5-MIN K0J4 132330Z AUTO 00000KT 10SM CLR 15/11 A3013 120 74 200 000/00 RMK AO2 T01500106 $
63870K0J4 0J420161113183510911/13/16 18:35:31  5-MIN K0J4 132335Z AUTO 00000KT 10SM CLR 15/11 A3014 120 74 200 000/00 RMK AO2 T01500106 $
63870K0J4 0J420161113184010911/13/16 18:40:31  5-MIN K0J4 132340Z AUTO 00000KT 10SM CLR 15/11 A3014 120 74 200 000/00 RMK AO2 T01500106 $
63870K0J4 0J420161113184510911/13/16 18:45:31  5-MIN K0J4 132345Z AUTO 00000KT 10SM CLR 15/11 A3014 120 74 200 000/00 RMK AO2 T01500106 $
63870K0J4 0J420161113185010911/13/16 18:50:31  5-MIN K0J4 132350Z AUTO 00000KT 10SM CLR 14/11 A3014 120 77 100 000/00 RMK AO2 T01440106 $
63870K0J4 0J420161113185514011/13/16 18:55:31  5-MIN K0J4 132355Z AUTO 00000KT 10SM CLR 14/11 A3014 120 77 100 000/00 RMK AO2 SLP204 60000 T01440106 10206 20144 56012 $
63870K0J4 0J420161113190010911/13/16 19:00:31  5-MIN K0J4 140000Z AUTO 00000KT 10SM CLR 14/11 A3014 110 77 100 000/00 RMK AO2 T01440106 $
63870K0J4 0J420161113190510711/13/16 19:05:31  5-MIN K0J4 140005Z AUTO 00000KT 10SM CLR 14/11 A3014 110 80 0 000/00 RMK AO2 T01390106 $
63870K0J4 0J420161113191010911/13/16 19:10:31  5-MIN K0J4 140010Z AUTO 00000KT 10SM CLR 14/11 A3014 120 80 100 000/00 RMK AO2 T01390106 $
63870K0J4 0J420161113191510711/13/16 19:15:31  5-MIN K0J4 140015Z AUTO 00000KT 10SM CLR 14/10 A3014 110 77 0 000/00 RMK AO2 T01390100 $
63870K0J4 0J420161113192010911/13/16 19:20:31  5-MIN K0J4 140020Z AUTO 00000KT 10SM CLR 14/11 A3014 120 80 100 000/00 RMK AO2 T01390106 $
63870K0J4 0J420161113192510711/13/16 19:25:31  5-MIN K0J4 140025Z AUTO 00000KT 10SM CLR 13/11 A3014 120 83 0 000/00 RMK AO2 T01330106 $
63870K0J4 0J420161113193010711/13/16 19:30:31  5-MIN K0J4 140030Z AUTO 00000KT 10SM CLR 13/10 A3014 120 80 0 000/00 RMK AO2 T01330100 $
63870K0J4 0J420161113193510911/13/16 19:35:31  5-MIN K0J4 140035Z AUTO 00000KT 10SM CLR 14/10 A3014 120 77 100 000/00 RMK AO2 T01390100 $
63870K0J4 0J420161113194010711/13/16 19:40:31  5-MIN K0J4 140040Z AUTO 00000KT 10SM CLR 13/10 A3014 110 80 0 000/00 RMK AO2 T01330100 $
63870K0J4 0J420161113194510711/13/16 19:45:31  5-MIN K0J4 140045Z AUTO 00000KT 10SM CLR 13/10 A3014 110 83 0 000/00 RMK AO2 T01280100 $
63870K0J4 0J420161113195010711/13/16 19:50:31  5-MIN K0J4 140050Z AUTO 00000KT 10SM CLR 13/09 A3014 110 80 0 000/00 RMK AO2 T01280094 $
63870K0J4 0J420161113195511711/13/16 19:55:31  5-MIN K0J4 140055Z AUTO 00000KT 10SM CLR 12/09 A3014 110 83 -100 000/00 RMK AO2 SLP206 T01220094 $
63870K0J4 0J420161113200011011/13/16 20:00:31  5-MIN K0J4 140100Z AUTO 00000KT 10SM CLR 12/09 A3014 110 83 -100 000/00 RMK AO2 T01220094 $
63870K0J4 0J420161113200511011/13/16 20:05:31  5-MIN K0J4 140105Z AUTO 00000KT 10SM CLR 12/09 A3014 110 83 -100 000/00 RMK AO2 T01220094 $
63870K0J4 0J420161113201011011/13/16 20:10:31  5-MIN K0J4 140110Z AUTO 00000KT 10SM CLR 12/09 A3014 110 83 -100 000/00 RMK AO2 T01220094 $
63870K0J4 0J420161113201511011/13/16 20:15:31  5-MIN K0J4 140115Z AUTO 00000KT 10SM CLR 12/09 A3014 110 86 -200 000/00 RMK AO2 T01170094 $
63870K0J4 0J420161113202011011/13/16 20:20:31  5-MIN K0J4 140120Z AUTO 00000KT 10SM CLR 12/09 A3014 110 83 -100 000/00 RMK AO2 T01220094 $
63870K0J4 0J420161113202511011/13/16 20:25:31  5-MIN K0J4 140125Z AUTO 00000KT 10SM CLR 12/09 A3015 110 83 -100 000/00 RMK AO2 T01220094 $
63870K0J4 0J420161113203011011/13/16 20:30:31  5-MIN K0J4 140130Z AUTO 00000KT 10SM CLR 12/09 A3015 110 86 -200 000/00 RMK AO2 T01170094 $
63870K0J4 0J420161113203511011/13/16 20:35:31  5-MIN K0J4 140135Z AUTO 00000KT 10SM CLR 12/09 A3015 110 86 -200 000/00 RMK AO2 T01170094 $
63870K0J4 0J420161113204011011/13/16 20:40:31  5-MIN K0J4 140140Z AUTO 00000KT 10SM CLR 12/09 A3015 110 86 -200 000/00 RMK AO2 T01170094 $
63870K0J4 0J420161113204511011/13/16 20:45:31  5-MIN K0J4 140145Z AUTO 00000KT 10SM CLR 12/09 A3015 110 83 -200 000/00 RMK AO2 T01170089 $
63870K0J4 0J420161113205011011/13/16 20:50:31  5-MIN K0J4 140150Z AUTO 00000KT 10SM CLR 12/09 A3015 110 83 -200 000/00 RMK AO2 T01170089 $
63870K0J4 0J420161113205511711/13/16 20:55:31  5-MIN K0J4 140155Z AUTO 01003KT 10SM CLR 12/09 A3015 110 83 -200 010/03 RMK AO2 SLP207 T01170089 $
63870K0J4 0J420161113210011011/13/16 21:00:31  5-MIN K0J4 140200Z AUTO 02003KT 10SM CLR 12/09 A3015 100 83 -200 020/03 RMK AO2 T01170089 $
63870K0J4 0J420161113210511011/13/16 21:05:31  5-MIN K0J4 140205Z AUTO 02004KT 10SM CLR 12/09 A3015 100 86 -200 020/04 RMK AO2 T01170094 $
63870K0J4 0J420161113211011011/13/16 21:10:31  5-MIN K0J4 140210Z AUTO 03005KT 10SM CLR 12/09 A3015 110 83 -100 030/05 RMK AO2 T01220094 $
63870K0J4 0J420161113211511011/13/16 21:15:31  5-MIN K0J4 140215Z AUTO 04006KT 10SM CLR 12/09 A3015 100 83 -100 040/06 RMK AO2 T01220094 $
63870K0J4 0J420161113212010711/13/16 21:20:31  5-MIN K0J4 140220Z AUTO 05006KT 10SM CLR 13/09 A3015 100 74 0 050/06 RMK AO2 T01330089 $
63870K0J4 0J420161113212510711/13/16 21:25:31  5-MIN K0J4 140225Z AUTO 05005KT 10SM CLR 14/09 A3015 100 71 0 050/05 RMK AO2 T01390089 $
63870K0J4 0J420161113213010911/13/16 21:30:31  5-MIN K0J4 140230Z AUTO 05006KT 10SM CLR 14/09 A3015 100 69 100 050/06 RMK AO2 T01440089 $
63870K0J4 0J420161113213510711/13/16 21:35:31  5-MIN K0J4 140235Z AUTO 05004KT 10SM CLR 14/09 A3015 100 71 0 050/04 RMK AO2 T01390089 $
63870K0J4 0J420161113214010711/13/16 21:40:31  5-MIN K0J4 140240Z AUTO 06005KT 10SM CLR 14/09 A3015 100 71 0 060/05 RMK AO2 T01390089 $
63870K0J4 0J420161113214510711/13/16 21:45:31  5-MIN K0J4 140245Z AUTO 06005KT 10SM CLR 14/09 A3015 100 71 0 060/05 RMK AO2 T01390089 $
63870K0J4 0J420161113215010711/13/16 21:50:31  5-MIN K0J4 140250Z AUTO 06005KT 10SM CLR 14/09 A3015 100 71 0 060/05 RMK AO2 T01390089 $
63870K0J4 0J420161113215512011/13/16 21:55:31  5-MIN K0J4 140255Z AUTO 07006KT 10SM CLR 14/08 A3016 100 69 0 070/06 RMK AO2 SLP209 T01390083 53007 $
63870K0J4 0J420161113220010711/13/16 22:00:31  5-MIN K0J4 140300Z AUTO 07005KT 10SM CLR 14/08 A3015 100 69 0 070/05 RMK AO2 T01390083 $
63870K0J4 0J420161113220510711/13/16 22:05:31  5-MIN K0J4 140305Z AUTO 07005KT 10SM CLR 14/08 A3015 100 66 0 070/05 RMK AO2 T01390078 $
63870K0J4 0J420161113221010711/13/16 22:10:31  5-MIN K0J4 140310Z AUTO 07005KT 10SM CLR 14/08 A3015 100 66 0 070/05 RMK AO2 T01390078 $
63870K0J4 0J420161113221510711/13/16 22:15:31  5-MIN K0J4 140315Z AUTO 07006KT 10SM CLR 14/08 A3015 100 66 0 070/06 RMK AO2 T01390078 $
63870K0J4 0J420161113222010711/13/16 22:20:31  5-MIN K0J4 140320Z AUTO 07006KT 10SM CLR 14/08 A3015 100 66 0 070/06 RMK AO2 T01390078 $
63870K0J4 0J420161113222510711/13/16 22:25:31  5-MIN K0J4 140325Z AUTO 07005KT 10SM CLR 14/08 A3015 100 66 0 070/05 RMK AO2 T01390078 $
63870K0J4 0J420161113223010711/13/16 22:30:31  5-MIN K0J4 140330Z AUTO 07005KT 10SM CLR 14/08 A3015 110 66 0 070/05 RMK AO2 T01390078 $
63870K0J4 0J420161113223510711/13/16 22:35:31  5-MIN K0J4 140335Z AUTO 07005KT 10SM CLR 14/07 A3015 110 64 0 070/05 RMK AO2 T01390072 $
63870K0J4 0J420161113224010711/13/16 22:40:31  5-MIN K0J4 140340Z AUTO 07005KT 10SM CLR 14/08 A3015 110 66 0 070/05 RMK AO2 T01390078 $
63870K0J4 0J420161113224510711/13/16 22:45:31  5-MIN K0J4 140345Z AUTO 07005KT 10SM CLR 14/07 A3014 110 64 0 070/05 RMK AO2 T01390072 $
63870K0J4 0J420161113225010711/13/16 22:50:31  5-MIN K0J4 140350Z AUTO 08005KT 10SM CLR 14/07 A3014 110 64 0 080/05 RMK AO2 T01390072 $
63870K0J4 0J420161113225511411/13/16 22:55:31  5-MIN K0J4 140355Z AUTO 09005KT 10SM CLR 14/07 A3014 110 64 0 090/05 RMK AO2 SLP204 T01390072 $
63870K0J4 0J420161113230010711/13/16 23:00:31  5-MIN K0J4 140400Z AUTO 09004KT 10SM CLR 13/07 A3014 110 66 0 090/04 RMK AO2 T01330072 $
63870K0J4 0J420161113230510711/13/16 23:05:31  5-MIN K0J4 140405Z AUTO 09005KT 10SM CLR 13/07 A3014 110 66 0 090/05 RMK AO2 T01330072 $
63870K0J4 0J420161113231010711/13/16 23:10:31  5-MIN K0J4 140410Z AUTO 09004KT 10SM CLR 13/07 A3014 110 66 0 090/04 RMK AO2 T01330072 $
63870K0J4 0J420161113231510711/13/16 23:15:31  5-MIN K0J4 140415Z AUTO 08004KT 10SM CLR 13/07 A3014 110 64 0 080/04 RMK AO2 T01330067 $
63870K0J4 0J420161113232010711/13/16 23:20:31  5-MIN K0J4 140420Z AUTO 08005KT 10SM CLR 13/07 A3014 110 64 0 080/05 RMK AO2 T01330067 $
63870K0J4 0J420161113232510711/13/16 23:25:31  5-MIN K0J4 140425Z AUTO 08003KT 10SM CLR 13/07 A3014 110 66 0 080/03 RMK AO2 T01330072 $
63870K0J4 0J420161113233010711/13/16 23:30:31  5-MIN K0J4 140430Z AUTO 08004KT 10SM CLR 13/07 A3014 110 64 0 080/04 RMK AO2 T01330067 $
63870K0J4 0J420161113233510711/13/16 23:35:31  5-MIN K0J4 140435Z AUTO 07005KT 10SM CLR 13/07 A3014 110 64 0 070/05 RMK AO2 T01330067 $
63870K0J4 0J420161113234011011/13/16 23:40:31  5-MIN K0J4 140440Z AUTO 07004KT 10SM FEW110 13/07 A3014 110 66 0 070/04 RMK AO2 T01330072 $
63870K0J4 0J420161113234511011/13/16 23:45:31  5-MIN K0J4 140445Z AUTO 08003KT 10SM SCT110 13/07 A3014 110 66 0 080/03 RMK AO2 T01330072 $
63870K0J4 0J420161113235012611/13/16 23:50:31  5-MIN K0J4 140450Z AUTO 09004KT 10SM -RA BKN110 13/07 A3014 110 66 0 090/04 RMK AO2 RAB47 P0000 T01330072 $
63870K0J4 0J420161113235514311/13/16 23:55:31  5-MIN K0J4 140455Z AUTO 08004KT 10SM -RA BKN100 13/07 A3014 110 64 0 080/04 RMK AO2 RAB47 SLP204 P0000 T01330067 402060094 $
63870K0J4 0J420161114000012011/14/16 00:00:31  5-MIN K0J4 140500Z AUTO 09004KT 10SM -RA BKN100 13/07 A3014 110 64 0 090/04 RMK AO2 P0000 T01330067 $
63870K0J4 0J420161114000512011/14/16 00:05:31  5-MIN K0J4 140505Z AUTO 09003KT 10SM -RA OVC100 13/07 A3014 120 64 0 090/03 RMK AO2 P0000 T01330067 $
63870K0J4 0J420161114001012011/14/16 00:10:31  5-MIN K0J4 140510Z AUTO 08004KT 10SM -RA BKN100 13/07 A3013 120 64 0 080/04 RMK AO2 P0000 T01330067 $
63870K0J4 0J420161114001512211/14/16 00:15:31  5-MIN K0J4 140515Z AUTO 09004KT 10SM BKN100 13/07 A3013 120 64 0 090/04 RMK AO2 RAE11 P0000 T01330067 $
63870K0J4 0J420161114002012211/14/16 00:20:31  5-MIN K0J4 140520Z AUTO 09004KT 10SM BKN110 13/06 A3013 120 61 0 090/04 RMK AO2 RAE11 P0000 T01330061 $
63870K0J4 0J420161114002512211/14/16 00:25:31  5-MIN K0J4 140525Z AUTO 08003KT 10SM BKN110 13/06 A3013 120 61 0 080/03 RMK AO2 RAE11 P0000 T01330061 $
63870K0J4 0J420161114003012211/14/16 00:30:31  5-MIN K0J4 140530Z AUTO 08006KT 10SM BKN110 13/06 A3013 130 61 0 080/06 RMK AO2 RAE11 P0000 T01330061 $
63870K0J4 0J420161114003512911/14/16 00:35:31  5-MIN K0J4 140535Z AUTO VRB03KT 10SM -RA BKN120 13/06 A3013 130 61 0 VRB/03 RMK AO2 RAE11B32 P0000 T01330061 $
63870K0J4 0J420161114004012911/14/16 00:40:31  5-MIN K0J4 140540Z AUTO 12003KT 10SM -RA BKN120 13/06 A3013 120 63 0 120/03 RMK AO2 RAE11B32 P0000 T01280061 $
63870K0J4 0J420161114004512911/14/16 00:45:31  5-MIN K0J4 140545Z AUTO VRB03KT 10SM -RA BKN120 13/06 A3013 120 63 0 VRB/03 RMK AO2 RAE11B32 P0000 T01280061 $
63870K0J4 0J420161114005012811/14/16 00:50:31  5-MIN K0J4 140550Z AUTO 00000KT 10SM BKN120 13/06 A3013 120 63 0 000/00 RMK AO2 RAE11B32E46 P0000 T01280061 $
63870K0J4 0J420161114005515911/14/16 00:55:31  5-MIN K0J4 140555Z AUTO 00000KT 10SM SCT120 13/06 A3014 120 63 0 000/00 RMK AO2 RAE11B32E46 SLP202 P0000 60000 T01280061 10144 20117 53006 $
63870K0J4 0J420161114010011311/14/16 01:00:31  5-MIN K0J4 140600Z AUTO 00000KT 10SM SCT120 12/06 A3013 120 66 -100 000/00 RMK AO2 T01220061 $
63870K0J4 0J420161114010511311/14/16 01:05:31  5-MIN K0J4 140605Z AUTO 00000KT 10SM FEW120 12/07 A3013 120 68 -100 000/00 RMK AO2 T01220067 $
63870K0J4 0J420161114011011311/14/16 01:10:31  5-MIN K0J4 140610Z AUTO 10003KT 10SM FEW110 12/07 A3013 130 68 -100 100/03 RMK AO2 T01220067 $
63870K0J4 0J420161114011511011/14/16 01:15:31  5-MIN K0J4 140615Z AUTO 00000KT 10SM CLR 12/06 A3012 130 66 -100 000/00 RMK AO2 T01220061 $
63870K0J4 0J420161114012011011/14/16 01:20:31  5-MIN K0J4 140620Z AUTO 00000KT 10SM CLR 12/07 A3012 130 68 -100 000/00 RMK AO2 T01220067 $
63870K0J4 0J420161114012511011/14/16 01:25:31  5-MIN K0J4 140625Z AUTO 00000KT 10SM CLR 12/06 A3013 130 66 -100 000/00 RMK AO2 T01220061 $
63870K0J4 0J420161114013011011/14/16 01:30:31  5-MIN K0J4 140630Z AUTO 00000KT 10SM CLR 12/06 A3012 130 66 -100 000/00 RMK AO2 T01220061 $
63870K0J4 0J420161114013511311/14/16 01:35:31  5-MIN K0J4 140635Z AUTO 00000KT 10SM FEW120 12/06 A3012 130 66 -100 000/00 RMK AO2 T01220061 $
63870K0J4 0J420161114014011311/14/16 01:40:31  5-MIN K0J4 140640Z AUTO 06003KT 10SM FEW120 12/06 A3012 130 66 -100 060/03 RMK AO2 T01220061 $
63870K0J4 0J420161114014511011/14/16 01:45:31  5-MIN K0J4 140645Z AUTO 08004KT 10SM CLR 12/06 A3012 130 66 -100 080/04 RMK AO2 T01220061 $
63870K0J4 0J420161114015011011/14/16 01:50:31  5-MIN K0J4 140650Z AUTO 06003KT 10SM CLR 12/06 A3012 130 66 -100 060/03 RMK AO2 T01220061 $
63870K0J4 0J420161114015511711/14/16 01:55:31  5-MIN K0J4 140655Z AUTO 07004KT 10SM CLR 12/06 A3012 130 66 -100 070/04 RMK AO2 SLP196 T01220061 $
63870K0J4 0J420161114020011011/14/16 02:00:31  5-MIN K0J4 140700Z AUTO 09004KT 10SM CLR 12/06 A3011 140 66 -100 090/04 RMK AO2 T01220061 $
63870K0J4 0J420161114020511011/14/16 02:05:31  5-MIN K0J4 140705Z AUTO 08003KT 10SM CLR 12/06 A3012 140 66 -100 080/03 RMK AO2 T01220061 $
63870K0J4 0J420161114021011011/14/16 02:10:31  5-MIN K0J4 140710Z AUTO 00000KT 10SM CLR 12/06 A3012 130 66 -100 000/00 RMK AO2 T01220061 $
63870K0J4 0J420161114021511011/14/16 02:15:31  5-MIN K0J4 140715Z AUTO 08004KT 10SM CLR 12/06 A3012 130 66 -100 080/04 RMK AO2 T01220061 $
63870K0J4 0J420161114022011011/14/16 02:20:31  5-MIN K0J4 140720Z AUTO 00000KT 10SM CLR 12/06 A3012 130 66 -100 000/00 RMK AO2 T01220061 $
63870K0J4 0J420161114022511011/14/16 02:25:31  5-MIN K0J4 140725Z AUTO 08003KT 10SM CLR 12/06 A3012 140 66 -100 080/03 RMK AO2 T01220061 $
63870K0J4 0J420161114023011011/14/16 02:30:31  5-MIN K0J4 140730Z AUTO 07003KT 10SM CLR 12/06 A3012 130 68 -100 070/03 RMK AO2 T01170061 $
63870K0J4 0J420161114023511011/14/16 02:35:31  5-MIN K0J4 140735Z AUTO 00000KT 10SM CLR 12/06 A3012 140 68 -100 000/00 RMK AO2 T01170061 $
63870K0J4 0J420161114024011011/14/16 02:40:31  5-MIN K0J4 140740Z AUTO 00000KT 10SM CLR 12/06 A3011 140 68 -100 000/00 RMK AO2 T01170061 $
63870K0J4 0J420161114024511011/14/16 02:45:31  5-MIN K0J4 140745Z AUTO 07003KT 10SM CLR 12/06 A3011 140 68 -100 070/03 RMK AO2 T01170061 $
63870K0J4 0J420161114025011011/14/16 02:50:31  5-MIN K0J4 140750Z AUTO 06003KT 10SM CLR 12/07 A3011 140 71 -100 060/03 RMK AO2 T01170067 $
63870K0J4 0J420161114025511711/14/16 02:55:31  5-MIN K0J4 140755Z AUTO 00000KT 10SM CLR 12/06 A3012 140 68 -100 000/00 RMK AO2 SLP195 T01170061 $
63870K0J4 0J420161114030011011/14/16 03:00:31  5-MIN K0J4 140800Z AUTO 00000KT 10SM CLR 12/06 A3012 140 68 -100 000/00 RMK AO2 T01170061 $
63870K0J4 0J420161114030511011/14/16 03:05:31  5-MIN K0J4 140805Z AUTO 00000KT 10SM CLR 12/06 A3011 140 68 -100 000/00 RMK AO2 T01170061 $
63870K0J4 0J420161114031011011/14/16 03:10:31  5-MIN K0J4 140810Z AUTO 04003KT 10SM CLR 12/06 A3011 140 68 -100 040/03 RMK AO2 T01170061 $
63870K0J4 0J420161114031511011/14/16 03:15:31  5-MIN K0J4 140815Z AUTO 04003KT 10SM CLR 12/06 A3011 140 68 -100 040/03 RMK AO2 T01170061 $
63870K0J4 0J420161114032011011/14/16 03:20:31  5-MIN K0J4 140820Z AUTO 00000KT 10SM CLR 11/06 A3011 140 71 -200 000/00 RMK AO2 T01110061 $
63870K0J4 0J420161114032511011/14/16 03:25:31  5-MIN K0J4 140825Z AUTO 04003KT 10SM CLR 11/06 A3011 140 71 -200 040/03 RMK AO2 T01110061 $
63870K0J4 0J420161114033011011/14/16 03:30:31  5-MIN K0J4 140830Z AUTO 04003KT 10SM CLR 11/06 A3010 150 71 -200 040/03 RMK AO2 T01110061 $
63870K0J4 0J420161114033511011/14/16 03:35:31  5-MIN K0J4 140835Z AUTO 02003KT 10SM CLR 11/06 A3011 140 71 -200 020/03 RMK AO2 T01110061 $
63870K0J4 0J420161114034011011/14/16 03:40:31  5-MIN K0J4 140840Z AUTO 04003KT 10SM CLR 11/06 A3010 150 71 -200 040/03 RMK AO2 T01110061 $
63870K0J4 0J420161114034511011/14/16 03:45:31  5-MIN K0J4 140845Z AUTO 00000KT 10SM CLR 11/06 A3011 150 71 -200 000/00 RMK AO2 T01110061 $
63870K0J4 0J420161114035011011/14/16 03:50:31  5-MIN K0J4 140850Z AUTO 00000KT 10SM CLR 11/06 A3010 150 74 -300 000/00 RMK AO2 T01060061 $
63870K0J4 0J420161114035512311/14/16 03:55:31  5-MIN K0J4 140855Z AUTO 00000KT 10SM CLR 11/06 A3011 150 74 -300 000/00 RMK AO2 SLP192 T01060061 56008 $
63870K0J4 0J420161114040011011/14/16 04:00:31  5-MIN K0J4 140900Z AUTO 00000KT 10SM CLR 11/06 A3010 150 71 -300 000/00 RMK AO2 T01060056 $
63870K0J4 0J420161114040511011/14/16 04:05:31  5-MIN K0J4 140905Z AUTO 04003KT 10SM CLR 11/06 A3010 150 71 -300 040/03 RMK AO2 T01060056 $
63870K0J4 0J420161114041011011/14/16 04:10:31  5-MIN K0J4 140910Z AUTO 04003KT 10SM CLR 11/06 A3010 150 71 -300 040/03 RMK AO2 T01060056 $
63870K0J4 0J420161114041511011/14/16 04:15:31  5-MIN K0J4 140915Z AUTO 04003KT 10SM CLR 11/06 A3010 150 71 -300 040/03 RMK AO2 T01060056 $
63870K0J4 0J420161114042011011/14/16 04:20:31  5-MIN K0J4 140920Z AUTO 00000KT 10SM CLR 11/06 A3010 150 71 -300 000/00 RMK AO2 T01060056 $
63870K0J4 0J420161114042511011/14/16 04:25:31  5-MIN K0J4 140925Z AUTO 00000KT 10SM CLR 11/06 A3010 150 71 -300 000/00 RMK AO2 T01060056 $
63870K0J4 0J420161114043011011/14/16 04:30:31  5-MIN K0J4 140930Z AUTO 00000KT 10SM CLR 11/06 A3010 150 71 -300 000/00 RMK AO2 T01060056 $
63870K0J4 0J420161114043511011/14/16 04:35:31  5-MIN K0J4 140935Z AUTO 03003KT 10SM CLR 11/06 A3010 150 71 -300 030/03 RMK AO2 T01060056 $
63870K0J4 0J420161114044011011/14/16 04:40:31  5-MIN K0J4 140940Z AUTO 02003KT 10SM CLR 10/06 A3010 150 74 -300 020/03 RMK AO2 T01000056 $
63870K0J4 0J420161114044511011/14/16 04:45:31  5-MIN K0J4 140945Z AUTO 02003KT 10SM CLR 10/06 A3010 150 74 -300 020/03 RMK AO2 T01000056 $
63870K0J4 0J420161114045011011/14/16 04:50:31  5-MIN K0J4 140950Z AUTO 02003KT 10SM CLR 10/06 A3010 150 74 -300 020/03 RMK AO2 T01000056 $
63870K0J4 0J420161114045511711/14/16 04:55:31  5-MIN K0J4 140955Z AUTO 00000KT 10SM CLR 09/06 A3011 140 76 -400 000/00 RMK AO2 SLP193 T00940056 $
63870K0J4 0J420161114050011011/14/16 05:00:31  5-MIN K0J4 141000Z AUTO 00000KT 10SM CLR 08/05 A3011 140 79 -500 000/00 RMK AO2 T00830050 $
63870K0J4 0J420161114050511011/14/16 05:05:31  5-MIN K0J4 141005Z AUTO 00000KT 10SM CLR 08/05 A3011 140 79 -500 000/00 RMK AO2 T00830050 $
63870K0J4 0J420161114051011011/14/16 05:10:31  5-MIN K0J4 141010Z AUTO 02003KT 10SM CLR 08/05 A3011 140 82 -600 020/03 RMK AO2 T00780050 $
63870K0J4 0J420161114051511011/14/16 05:15:31  5-MIN K0J4 141015Z AUTO 00000KT 10SM CLR 07/05 A3011 140 86 -700 000/00 RMK AO2 T00720050 $
63870K0J4 0J420161114052011011/14/16 05:20:31  5-MIN K0J4 141020Z AUTO 00000KT 10SM CLR 07/05 A3011 140 86 -700 000/00 RMK AO2 T00720050 $
63870K0J4 0J420161114052511011/14/16 05:25:31  5-MIN K0J4 141025Z AUTO 00000KT 10SM CLR 08/05 A3011 140 82 -600 000/00 RMK AO2 T00780050 $
63870K0J4 0J420161114053011011/14/16 05:30:31  5-MIN K0J4 141030Z AUTO 00000KT 10SM CLR 08/05 A3011 140 82 -600 000/00 RMK AO2 T00780050 $
63870K0J4 0J420161114053511011/14/16 05:35:31  5-MIN K0J4 141035Z AUTO 00000KT 10SM CLR 07/05 A3012 140 86 -700 000/00 RMK AO2 T00720050 $
63870K0J4 0J420161114054011011/14/16 05:40:31  5-MIN K0J4 141040Z AUTO 00000KT 10SM CLR 07/05 A3011 140 86 -700 000/00 RMK AO2 T00720050 $
63870K0J4 0J420161114054511011/14/16 05:45:31  5-MIN K0J4 141045Z AUTO 00000KT 10SM CLR 07/05 A3012 140 86 -700 000/00 RMK AO2 T00720050 $
63870K0J4 0J420161114055011011/14/16 05:50:31  5-MIN K0J4 141050Z AUTO 00000KT 10SM CLR 07/04 A3012 130 82 -700 000/00 RMK AO2 T00720044 $
63870K0J4 0J420161114055511711/14/16 05:55:31  5-MIN K0J4 141055Z AUTO 00000KT 10SM CLR 07/04 A3012 130 86 -800 000/00 RMK AO2 SLP197 T00670044 $
63870K0J4 0J420161114060011011/14/16 06:00:31  5-MIN K0J4 141100Z AUTO 00000KT 10SM CLR 06/04 A3012 130 89 -800 000/00 RMK AO2 T00610044 $
63870K0J4 0J420161114060511011/14/16 06:05:31  5-MIN K0J4 141105Z AUTO 00000KT 10SM CLR 06/04 A3012 130 89 -800 000/00 RMK AO2 T00610044 $
63870K0J4 0J420161114061011011/14/16 06:10:31  5-MIN K0J4 141110Z AUTO 00000KT 10SM CLR 06/04 A3012 130 89 -800 000/00 RMK AO2 T00610044 $
63870K0J4 0J420161114061511011/14/16 06:15:31  5-MIN K0J4 141115Z AUTO 00000KT 10SM CLR 06/04 A3012 130 89 -800 000/00 RMK AO2 T00610044 $
63870K0J4 0J420161114062011011/14/16 06:20:31  5-MIN K0J4 141120Z AUTO 00000KT 10SM CLR 06/04 A3012 130 89 -900 000/00 RMK AO2 T00560039 $
63870K0J4 0J420161114062511011/14/16 06:25:31  5-MIN K0J4 141125Z AUTO 00000KT 10SM CLR 06/04 A3012 130 86 -800 000/00 RMK AO2 T00610039 $
63870K0J4 0J420161114063011011/14/16 06:30:31  5-MIN K0J4 141130Z AUTO 00000KT 10SM CLR 06/04 A3012 130 86 -800 000/00 RMK AO2 T00610039 $
63870K0J4 0J420161114063511011/14/16 06:35:31  5-MIN K0J4 141135Z AUTO 00000KT 10SM CLR 06/04 A3012 130 89 -900 000/00 RMK AO2 T00560039 $
63870K0J4 0J420161114064011011/14/16 06:40:31  5-MIN K0J4 141140Z AUTO 00000KT 10SM CLR 06/04 A3013 130 89 -900 000/00 RMK AO2 T00560039 $
63870K0J4 0J420161114064511011/14/16 06:45:31  5-MIN K0J4 141145Z AUTO 00000KT 10SM CLR 06/04 A3013 130 89 -900 000/00 RMK AO2 T00560039 $
63870K0J4 0J420161114065011011/14/16 06:50:31  5-MIN K0J4 141150Z AUTO 00000KT 10SM CLR 06/04 A3013 120 92 -900 000/00 RMK AO2 T00560044 $
63870K0J4 0J420161114065513511/14/16 06:55:31  5-MIN K0J4 141155Z AUTO 00000KT 10SM CLR 06/04 A3013 120 89 -900 000/00 RMK AO2 SLP202 T00560039 10122 20056 56009 $
63870K0J4 0J420161114070011011/14/16 07:00:31  5-MIN K0J4 141200Z AUTO 00000KT 10SM CLR 06/04 A3013 130 89 -900 000/00 RMK AO2 T00560039 $
63870K0J4 0J420161114070511011/14/16 07:05:31  5-MIN K0J4 141205Z AUTO 00000KT 10SM CLR 06/04 A3013 120 89 -800 000/00 RMK AO2 T00610044 $
63870K0J4 0J420161114071011011/14/16 07:10:31  5-MIN K0J4 141210Z AUTO 00000KT 10SM CLR 06/04 A3013 120 89 -800 000/00 RMK AO2 T00610044 $
63870K0J4 0J420161114071511011/14/16 07:15:31  5-MIN K0J4 141215Z AUTO 00000KT 10SM CLR 07/04 A3013 120 86 -800 000/00 RMK AO2 T00670044 $
63870K0J4 0J420161114072011011/14/16 07:20:31  5-MIN K0J4 141220Z AUTO 00000KT 10SM CLR 07/05 A3013 120 89 -800 000/00 RMK AO2 T00670050 $
63870K0J4 0J420161114072511011/14/16 07:25:31  5-MIN K0J4 141225Z AUTO 00000KT 10SM CLR 07/05 A3013 120 89 -800 000/00 RMK AO2 T00670050 $
63870K0J4 0J420161114073011011/14/16 07:30:31  5-MIN K0J4 141230Z AUTO 00000KT 10SM CLR 06/05 A3013 120 93 -800 000/00 RMK AO2 T00610050 $
63870K0J4 0J420161114073511011/14/16 07:35:31  5-MIN K0J4 141235Z AUTO 00000KT 10SM CLR 07/05 A3014 120 89 -800 000/00 RMK AO2 T00670050 $
63870K0J4 0J420161114074011011/14/16 07:40:31  5-MIN K0J4 141240Z AUTO 00000KT 10SM CLR 07/06 A3014 120 89 -700 000/00 RMK AO2 T00720056 $
63870K0J4 0J420161114074511011/14/16 07:45:31  5-MIN K0J4 141245Z AUTO 00000KT 10SM CLR 08/06 A3014 110 86 -600 000/00 RMK AO2 T00830061 $
63870K0J4 0J420161114075011011/14/16 07:50:31  5-MIN K0J4 141250Z AUTO 00000KT 10SM CLR 07/06 A3014 110 93 -800 000/00 RMK AO2 T00670056 $
63870K0J4 0J420161114075511711/14/16 07:55:31  5-MIN K0J4 141255Z AUTO 00000KT 10SM CLR 07/06 A3014 110 89 -700 000/00 RMK AO2 SLP206 T00720056 $
63870K0J4 0J420161114080011011/14/16 08:00:31  5-MIN K0J4 141300Z AUTO 00000KT 10SM CLR 08/06 A3014 110 86 -600 000/00 RMK AO2 T00830061 $
63870K0J4 0J420161114080511011/14/16 08:05:31  5-MIN K0J4 141305Z AUTO 00000KT 10SM CLR 09/07 A3015 110 83 -400 000/00 RMK AO2 T00940067 $
63870K0J4 0J420161114081011011/14/16 08:10:31  5-MIN K0J4 141310Z AUTO 00000KT 10SM CLR 09/07 A3015 110 83 -400 000/00 RMK AO2 T00940067 $
63870K0J4 0J420161114081511011/14/16 08:15:31  5-MIN K0J4 141315Z AUTO 00000KT 10SM CLR 10/07 A3015 100 80 -400 000/00 RMK AO2 T01000067 $
63870K0J4 0J420161114082012611/14/16 08:20:31  5-MIN K0J4 141320Z AUTO 07003KT 10SM -RA CLR 10/07 A3015 100 80 -400 070/03 RMK AO2 RAB16 P0000 T01000067 $
63870K0J4 0J420161114082512611/14/16 08:25:31  5-MIN K0J4 141325Z AUTO 07003KT 10SM -RA CLR 10/07 A3015 100 80 -400 070/03 RMK AO2 RAB16 P0000 T01000067 $
63870K0J4 0J420161114083012611/14/16 08:30:31  5-MIN K0J4 141330Z AUTO 08003KT 10SM -RA CLR 10/07 A3015 100 80 -400 080/03 RMK AO2 RAB16 P0000 T01000067 $
63870K0J4 0J420161114083512511/14/16 08:35:31  5-MIN K0J4 141335Z AUTO 09003KT 10SM CLR 11/07 A3015 100 77 -300 090/03 RMK AO2 RAB16E33 P0000 T01060067 $
63870K0J4 0J420161114084012511/14/16 08:40:31  5-MIN K0J4 141340Z AUTO 08004KT 10SM CLR 11/07 A3015 100 77 -300 080/04 RMK AO2 RAB16E33 P0000 T01060067 $
63870K0J4 0J420161114084512511/14/16 08:45:31  5-MIN K0J4 141345Z AUTO VRB03KT 10SM CLR 11/07 A3016 100 74 -300 VRB/03 RMK AO2 RAB16E33 P0000 T01110067 $
63870K0J4 0J420161114085012511/14/16 08:50:31  5-MIN K0J4 141350Z AUTO 08004KT 10SM CLR 12/07 A3016 100 71 -200 080/04 RMK AO2 RAB16E33 P0000 T01170067 $
63870K0J4 0J420161114085513211/14/16 08:55:31  5-MIN K0J4 141355Z AUTO 10004KT 10SM CLR 12/07 A3016 100 71 -200 100/04 RMK AO2 RAB16E33 SLP210 P0000 T01170067 $
63870K0J4 0J420161114090011011/14/16 09:00:31  5-MIN K0J4 141400Z AUTO 09004KT 10SM CLR 12/07 A3015 100 71 -200 090/04 RMK AO2 T01170067 $
63870K0J4 0J420161114090511011/14/16 09:05:31  5-MIN K0J4 141405Z AUTO 09004KT 10SM CLR 12/07 A3015 100 71 -200 090/04 RMK AO2 T01170067 $
63870K0J4 0J420161114091011011/14/16 09:10:31  5-MIN K0J4 141410Z AUTO 09003KT 10SM CLR 12/07 A3015 100 68 -100 090/03 RMK AO2 T01220067 $
63870K0J4 0J420161114091511011/14/16 09:15:31  5-MIN K0J4 141415Z AUTO VRB03KT 10SM CLR 12/07 A3015 100 68 -100 VRB/03 RMK AO2 T01220067 $
63870K0J4 0J420161114092011011/14/16 09:20:31  5-MIN K0J4 141420Z AUTO 11004KT 10SM CLR 12/07 A3015 100 68 -100 110/04 RMK AO2 T01220067 $
63870K0J4 0J420161114092510711/14/16 09:25:31  5-MIN K0J4 141425Z AUTO 09004KT 10SM CLR 13/07 A3015 100 64 0 090/04 RMK AO2 T01330067 $
63870K0J4 0J420161114093010711/14/16 09:30:31  5-MIN K0J4 141430Z AUTO 09005KT 10SM CLR 13/07 A3015 100 66 0 090/05 RMK AO2 T01330072 $
63870K0J4 0J420161114093510511/14/16 09:35:31  5-MIN K0J4 141435Z AUTO 08005KT 10SM CLR 13/07 A3015 100 66 0 080/05 RMK AO2 T01330072
63870K0J4 0J420161114094010511/14/16 09:40:31  5-MIN K0J4 141440Z AUTO 10005KT 10SM CLR 13/07 A3015 100 66 0 100/05 RMK AO2 T01330072
63870K0J4 0J420161114094510711/14/16 09:45:31  5-MIN K0J4 141445Z AUTO VRB03KT 10SM CLR 14/07 A3015 100 61 0 VRB/03 RMK AO2 T01390067 $
63870K0J4 0J420161114095010911/14/16 09:50:31  5-MIN K0J4 141450Z AUTO VRB04KT 10SM CLR 14/07 A3015 100 61 100 VRB/04 RMK AO2 T01440072 $
63870K0J4 0J420161114095512811/14/16 09:55:31  5-MIN K0J4 141455Z AUTO 10004KT 10SM CLR 14/07 A3015 110 61 100 100/04 RMK AO2 SLP208 60000 T01440072 53007 $
63870K0J4 0J420161114100010911/14/16 10:00:31  5-MIN K0J4 141500Z AUTO 09004KT 10SM CLR 15/07 A3015 110 59 200 090/04 RMK AO2 T01500072 $
63870K0J4 0J420161114100510911/14/16 10:05:31  5-MIN K0J4 141505Z AUTO 10003KT 10SM CLR 15/07 A3015 100 59 200 100/03 RMK AO2 T01500072 $
63870K0J4 0J420161114101010911/14/16 10:10:31  5-MIN K0J4 141510Z AUTO 07005KT 10SM CLR 15/07 A3015 110 59 200 070/05 RMK AO2 T01500072 $
63870K0J4 0J420161114101510911/14/16 10:15:31  5-MIN K0J4 141515Z AUTO 09004KT 10SM CLR 16/07 A3015 110 57 200 090/04 RMK AO2 T01560072 $
63870K0J4 0J420161114102010911/14/16 10:20:31  5-MIN K0J4 141520Z AUTO 07005KT 10SM CLR 16/07 A3015 110 57 200 070/05 RMK AO2 T01560072 $
63870K0J4 0J420161114102510911/14/16 10:25:31  5-MIN K0J4 141525Z AUTO 00000KT 10SM CLR 16/08 A3015 110 57 300 000/00 RMK AO2 T01610078 $
63870K0J4 0J420161114103010911/14/16 10:30:31  5-MIN K0J4 141530Z AUTO VRB03KT 10SM CLR 16/08 A3014 110 57 300 VRB/03 RMK AO2 T01610078 $
63870K0J4 0J420161114103510911/14/16 10:35:31  5-MIN K0J4 141535Z AUTO 05004KT 10SM CLR 17/08 A3014 110 55 400 050/04 RMK AO2 T01670078 $
63870K0J4 0J420161114104010911/14/16 10:40:31  5-MIN K0J4 141540Z AUTO VRB03KT 10SM CLR 17/08 A3014 110 53 400 VRB/03 RMK AO2 T01720078 $
63870K0J4 0J420161114104510911/14/16 10:45:31  5-MIN K0J4 141545Z AUTO VRB03KT 10SM CLR 17/08 A3014 110 53 400 VRB/03 RMK AO2 T01720078 $
63870K0J4 0J420161114105010911/14/16 10:50:31  5-MIN K0J4 141550Z AUTO 00000KT 10SM CLR 17/07 A3014 110 51 400 000/00 RMK AO2 T01720072 $
63870K0J4 0J420161114105511611/14/16 10:55:31  5-MIN K0J4 141555Z AUTO 11004KT 10SM CLR 18/08 A3014 110 51 500 110/04 RMK AO2 SLP203 T01780078 $
63870K0J4 0J420161114110010911/14/16 11:00:31  5-MIN K0J4 141600Z AUTO 00000KT 10SM CLR 17/08 A3014 110 53 400 000/00 RMK AO2 T01720078 $
63870K0J4 0J420161114110510911/14/16 11:05:31  5-MIN K0J4 141605Z AUTO VRB03KT 10SM CLR 18/08 A3014 120 51 500 VRB/03 RMK AO2 T01780078 $
63870K0J4 0J420161114111010911/14/16 11:10:31  5-MIN K0J4 141610Z AUTO VRB03KT 10SM CLR 18/08 A3014 120 51 500 VRB/03 RMK AO2 T01780078 $
63870K0J4 0J420161114111510911/14/16 11:15:31  5-MIN K0J4 141615Z AUTO 01004KT 10SM CLR 18/08 A3014 120 50 600 010/04 RMK AO2 T01830078 $
63870K0J4 0J420161114112010911/14/16 11:20:31  5-MIN K0J4 141620Z AUTO VRB03KT 10SM CLR 19/08 A3013 120 48 600 VRB/03 RMK AO2 T01890078 $
63870K0J4 0J420161114112510911/14/16 11:25:31  5-MIN K0J4 141625Z AUTO VRB03KT 10SM CLR 18/08 A3013 120 50 600 VRB/03 RMK AO2 T01830078 $
63870K0J4 0J420161114113010911/14/16 11:30:31  5-MIN K0J4 141630Z AUTO 34003KT 10SM CLR 19/08 A3013 120 48 600 340/03 RMK AO2 T01890078 $
63870K0J4 0J420161114113510911/14/16 11:35:31  5-MIN K0J4 141635Z AUTO 00000KT 10SM CLR 18/08 A3013 120 50 600 000/00 RMK AO2 T01830078 $
63870K0J4 0J420161114114010911/14/16 11:40:31  5-MIN K0J4 141640Z AUTO 00000KT 10SM CLR 19/08 A3013 130 48 700 000/00 RMK AO2 T01890078 $
63870K0J4 0J420161114114510911/14/16 11:45:31  5-MIN K0J4 141645Z AUTO 00000KT 10SM CLR 19/08 A3012 130 48 700 000/00 RMK AO2 T01890078 $
63870K0J4 0J420161114115010911/14/16 11:50:31  5-MIN K0J4 141650Z AUTO 07005KT 10SM CLR 19/08 A3012 130 46 700 070/05 RMK AO2 T01940078 $
63870K0J4 0J420161114115511611/14/16 11:55:31  5-MIN K0J4 141655Z AUTO VRB03KT 10SM CLR 19/08 A3012 130 46 700 VRB/03 RMK AO2 SLP198 T01940078 $
63870K0J4 0J420161114120010911/14/16 12:00:31  5-MIN K0J4 141700Z AUTO 06005KT 10SM CLR 19/08 A3012 130 46 700 060/05 RMK AO2 T01940078 $
63870K0J4 0J420161114120510911/14/16 12:05:31  5-MIN K0J4 141705Z AUTO 00000KT 10SM CLR 19/08 A3012 130 48 700 000/00 RMK AO2 T01890078 $
63870K0J4 0J420161114121010911/14/16 12:10:31  5-MIN K0J4 141710Z AUTO 00000KT 10SM CLR 19/08 A3012 140 46 700 000/00 RMK AO2 T01940078 $
63870K0J4 0J420161114121510911/14/16 12:15:31  5-MIN K0J4 141715Z AUTO 02005KT 10SM CLR 21/08 A3011 140 43 900 020/05 RMK AO2 T02060078 $
63870K0J4 0J420161114122010911/14/16 12:20:31  5-MIN K0J4 141720Z AUTO 00000KT 10SM CLR 20/07 A3011 140 43 800 000/00 RMK AO2 T02000072 $
63870K0J4 0J420161114122509911/14/16 12:25:31  5-MIN K0J4 141725Z AUTO 10SM CLR 21/07 A3011 140 40 900 M /M RMK AO2 T02110072 $
63870K0J4 0J420161114123010911/14/16 12:30:31  5-MIN K0J4 141730Z AUTO VRB04KT 10SM CLR 21/07 A3010 150 41 900 VRB/04 RMK AO2 T02060072 $
63870K0J4 0J420161114123510911/14/16 12:35:31  5-MIN K0J4 141735Z AUTO VRB04KT 10SM CLR 21/07 A3010 150 40 900 VRB/04 RMK AO2 T02060067 $
63870K0J4 0J420161114124010911/14/16 12:40:31  5-MIN K0J4 141740Z AUTO VRB05KT 10SM CLR 21/07 A3010 150 40 900 VRB/05 RMK AO2 T02060067 $
63870K0J4 0J420161114124510911/14/16 12:45:31  5-MIN K0J4 141745Z AUTO 00000KT 10SM CLR 21/07 A3009 160 40 900 000/00 RMK AO2 T02060067 $
63870K0J4 0J420161114125010011/14/16 12:50:31  5-MIN K0J4 141750Z AUTO 10SM CLR 21/07 A3009 160 38 1000 M /M RMK AO2 T02110067 $
63870K0J4 0J420161114125514111/14/16 12:55:31  5-MIN K0J4 141755Z AUTO 03004KT 10SM CLR 21/07 A3008 160 38 1000 030/04 RMK AO2 SLP185 60000 T02110067 10211 20056 50007 $
63870K0J4 0J420161114130011011/14/16 13:00:31  5-MIN K0J4 141800Z AUTO 01008KT 10SM CLR 21/07 A3008 170 40 1000 010/08 RMK AO2 T02110072 $
63870K0J4 0J420161114130511011/14/16 13:05:31  5-MIN K0J4 141805Z AUTO 01005KT 10SM CLR 21/07 A3008 170 40 1000 010/05 RMK AO2 T02110072 $
63870K0J4 0J420161114131010911/14/16 13:10:31  5-MIN K0J4 141810Z AUTO 00000KT 10SM CLR 21/07 A3008 170 41 900 000/00 RMK AO2 T02060072 $
63870K0J4 0J420161114131510011/14/16 13:15:31  5-MIN K0J4 141815Z AUTO 10SM CLR 22/07 A3007 180 39 1000 M /M RMK AO2 T02170072 $
63870K0J4 0J420161114132011011/14/16 13:20:31  5-MIN K0J4 141820Z AUTO VRB03KT 10SM CLR 21/07 A3007 180 40 1000 VRB/03 RMK AO2 T02110072 $
63870K0J4 0J420161114132511011/14/16 13:25:31  5-MIN K0J4 141825Z AUTO 07005KT 10SM CLR 21/07 A3007 180 40 1000 070/05 RMK AO2 T02110072 $
63870K0J4 0J420161114133011011/14/16 13:30:31  5-MIN K0J4 141830Z AUTO VRB03KT 10SM CLR 21/07 A3007 180 40 1000 VRB/03 RMK AO2 T02110072 $
63870K0J4 0J420161114133511011/14/16 13:35:31  5-MIN K0J4 141835Z AUTO 00000KT 10SM CLR 22/07 A3006 190 37 1000 000/00 RMK AO2 T02170067 $
63870K0J4 0J420161114134011011/14/16 13:40:31  5-MIN K0J4 141840Z AUTO VRB03KT 10SM CLR 22/07 A3006 190 37 1000 VRB/03 RMK AO2 T02170067 $
63870K0J4 0J420161114134511011/14/16 13:45:31  5-MIN K0J4 141845Z AUTO 04005KT 10SM CLR 22/06 A3006 190 36 1100 040/05 RMK AO2 T02170061 $
63870K0J4 0J420161114135011011/14/16 13:50:31  5-MIN K0J4 141850Z AUTO 03003KT 10SM CLR 22/07 A3006 190 37 1100 030/03 RMK AO2 T02170067 $
63870K0J4 0J420161114135511711/14/16 13:55:31  5-MIN K0J4 141855Z AUTO VRB04KT 10SM CLR 22/06 A3006 190 36 1100 VRB/04 RMK AO2 SLP175 T02170061 $
63870K0J4 0J420161114140012611/14/16 14:00:31  5-MIN K0J4 141900Z AUTO VRB03KT 10SM -RA CLR 21/06 A3005 190 37 1000 VRB/03 RMK AO2 RAB00 P0000 T02110061 $
63870K0J4 0J420161114140512611/14/16 14:05:31  5-MIN K0J4 141905Z AUTO 00000KT 10SM -RA CLR 22/06 A3005 190 35 1100 000/00 RMK AO2 RAB00 P0000 T02220061 $
63870K0J4 0J420161114141012611/14/16 14:10:31  5-MIN K0J4 141910Z AUTO VRB04KT 10SM -RA CLR 22/06 A3005 200 35 1100 VRB/04 RMK AO2 RAB00 P0000 T02220061 $
63870K0J4 0J420161114141512511/14/16 14:15:31  5-MIN K0J4 141915Z AUTO 36004KT 10SM CLR 22/07 A3005 200 36 1100 360/04 RMK AO2 RAB00E11 P0000 T02220067 $
63870K0J4 0J420161114142014111/14/16 14:20:31  5-MIN K0J4 141920Z AUTO 01007KT 330V040 10SM CLR 22/07 A3004 200 36 1100 010/07 330V040 RMK AO2 RAB00E11 P0000 T02220067 $
63870K0J4 0J420161114142512511/14/16 14:25:31  5-MIN K0J4 141925Z AUTO 03009KT 10SM CLR 22/07 A3004 200 36 1100 030/09 RMK AO2 RAB00E11 P0000 T02220067 $
63870K0J4 0J420161114143012511/14/16 14:30:31  5-MIN K0J4 141930Z AUTO 02008KT 10SM CLR 22/07 A3004 200 37 1100 020/08 RMK AO2 RAB00E11 P0000 T02170067 $
63870K0J4 0J420161114143512511/14/16 14:35:31  5-MIN K0J4 141935Z AUTO VRB05KT 10SM CLR 22/07 A3004 210 37 1100 VRB/05 RMK AO2 RAB00E11 P0000 T02170067 $
63870K0J4 0J420161114144012511/14/16 14:40:31  5-MIN K0J4 141940Z AUTO 31004KT 10SM CLR 22/05 A3004 210 33 1100 310/04 RMK AO2 RAB00E11 P0000 T02170050 $
63870K0J4 0J420161114144512311/14/16 14:45:31  5-MIN K0J4 141945Z AUTO 01004KT 10SM CLR 22/06 A3004 210 34 1100 010/04 RMK AO2 RAB00E11 P0000 T02170056
63870K0J4 0J420161114145013911/14/16 14:50:31  5-MIN K0J4 141950Z AUTO 01007KT 310V050 10SM CLR 22/06 A3003 210 33 1100 010/07 310V050 RMK AO2 RAB00E11 P0000 T02220056
63870K0J4 0J420161114145513011/14/16 14:55:31  5-MIN K0J4 141955Z AUTO 05004KT 10SM CLR 22/06 A3003 210 34 1100 050/04 RMK AO2 RAB00E11 SLP167 P0000 T02170056
63870K0J4 0J420161114150011011/14/16 15:00:31  5-MIN K0J4 142000Z AUTO VRB05KT 10SM CLR 22/06 A3003 210 33 1100 VRB/05 RMK AO2 T02220056 $
63870K0J4 0J420161114150511011/14/16 15:05:31  5-MIN K0J4 142005Z AUTO VRB05KT 10SM CLR 22/06 A3003 210 33 1100 VRB/05 RMK AO2 T02220056 $
63870K0J4 0J420161114151011011/14/16 15:10:31  5-MIN K0J4 142010Z AUTO 00000KT 10SM CLR 22/06 A3003 220 33 1100 000/00 RMK AO2 T02220056 $
63870K0J4 0J420161114151512611/14/16 15:15:31  5-MIN K0J4 142015Z AUTO 24003KT 10SM -RA CLR 22/06 A3003 220 34 1100 240/03 RMK AO2 RAB12 P0000 T02170056 $
63870K0J4 0J420161114152012611/14/16 15:20:31  5-MIN K0J4 142020Z AUTO 35004KT 10SM -RA CLR 22/06 A3003 220 33 1100 350/04 RMK AO2 RAB12 P0000 T02220056 $
63870K0J4 0J420161114152512511/14/16 15:25:31  5-MIN K0J4 142025Z AUTO VRB04KT 10SM CLR 22/06 A3003 220 33 1200 VRB/04 RMK AO2 RAB12E22 P0000 T02220056 $
63870K0J4 0J420161114153012511/14/16 15:30:31  5-MIN K0J4 142030Z AUTO 03005KT 10SM CLR 22/06 A3003 220 33 1200 030/05 RMK AO2 RAB12E22 P0000 T02220056 $
63870K0J4 0J420161114153512511/14/16 15:35:31  5-MIN K0J4 142035Z AUTO 00000KT 10SM CLR 22/06 A3003 220 33 1200 000/00 RMK AO2 RAB12E22 P0000 T02220056 $
63870K0J4 0J420161114154012511/14/16 15:40:31  5-MIN K0J4 142040Z AUTO 00000KT 10SM CLR 22/06 A3003 220 33 1200 000/00 RMK AO2 RAB12E22 P0000 T02220056 $
63870K0J4 0J420161114154512511/14/16 15:45:31  5-MIN K0J4 142045Z AUTO VRB04KT 10SM CLR 22/06 A3002 220 33 1200 VRB/04 RMK AO2 RAB12E22 P0000 T02220056 $
63870K0J4 0J420161114155012511/14/16 15:50:31  5-MIN K0J4 142050Z AUTO VRB03KT 10SM CLR 22/05 A3003 220 32 1200 VRB/03 RMK AO2 RAB12E22 P0000 T02220050 $
63870K0J4 0J420161114155514411/14/16 15:55:31  5-MIN K0J4 142055Z AUTO 27003KT 10SM CLR 22/05 A3003 220 33 1100 270/03 RMK AO2 RAB12E22 SLP165 P0000 60000 T02170050 58022 $
63870K0J4 0J420161114160011011/14/16 16:00:31  5-MIN K0J4 142100Z AUTO 00000KT 10SM CLR 22/05 A3003 220 33 1100 000/00 RMK AO2 T02170050 $
63870K0J4 0J420161114160511011/14/16 16:05:31  5-MIN K0J4 142105Z AUTO 31004KT 10SM CLR 22/06 A3003 220 33 1100 310/04 RMK AO2 T02220056 $
63870K0J4 0J420161114161011011/14/16 16:10:31  5-MIN K0J4 142110Z AUTO 36004KT 10SM CLR 22/06 A3003 220 33 1200 360/04 RMK AO2 T02220056 $
63870K0J4 0J420161114161511011/14/16 16:15:31  5-MIN K0J4 142115Z AUTO 00000KT 10SM CLR 22/06 A3003 220 33 1200 000/00 RMK AO2 T02220056 $
63870K0J4 0J420161114162011011/14/16 16:20:31  5-MIN K0J4 142120Z AUTO 35003KT 10SM CLR 22/06 A3003 220 33 1200 350/03 RMK AO2 T02220056 $
63870K0J4 0J420161114162511011/14/16 16:25:31  5-MIN K0J4 142125Z AUTO 01003KT 10SM CLR 22/05 A3003 220 32 1200 010/03 RMK AO2 T02220050 $
63870K0J4 0J420161114163011011/14/16 16:30:31  5-MIN K0J4 142130Z AUTO 05004KT 10SM CLR 22/06 A3002 220 34 1100 050/04 RMK AO2 T02170056 $
63870K0J4 0J420161114163511011/14/16 16:35:31  5-MIN K0J4 142135Z AUTO VRB03KT 10SM CLR 22/05 A3002 220 33 1100 VRB/03 RMK AO2 T02170050 $
63870K0J4 0J420161114164011011/14/16 16:40:31  5-MIN K0J4 142140Z AUTO 35003KT 10SM CLR 22/05 A3002 220 33 1100 350/03 RMK AO2 T02170050 $
63870K0J4 0J420161114164511011/14/16 16:45:31  5-MIN K0J4 142145Z AUTO 00000KT 10SM CLR 22/05 A3002 220 33 1100 000/00 RMK AO2 T02170050 $
63870K0J4 0J420161114165011011/14/16 16:50:31  5-MIN K0J4 142150Z AUTO 35003KT 10SM CLR 21/05 A3002 220 34 1000 350/03 RMK AO2 T02110050 $
63870K0J4 0J420161114165511711/14/16 16:55:31  5-MIN K0J4 142155Z AUTO 00000KT 10SM CLR 21/05 A3002 220 34 1000 000/00 RMK AO2 SLP164 T02110050 $
63870K0J4 0J420161114170011011/14/16 17:00:31  5-MIN K0J4 142200Z AUTO 00000KT 10SM CLR 21/05 A3002 220 35 1000 000/00 RMK AO2 T02060050 $
63870K0J4 0J420161114170511011/14/16 17:05:31  5-MIN K0J4 142205Z AUTO 00000KT 10SM CLR 21/05 A3002 220 35 1000 000/00 RMK AO2 T02060050 $
63870K0J4 0J420161114171011011/14/16 17:10:31  5-MIN K0J4 142210Z AUTO 00000KT 10SM CLR 21/05 A3002 220 35 1000 000/00 RMK AO2 T02060050 $
63870K0J4 0J420161114171510911/14/16 17:15:31  5-MIN K0J4 142215Z AUTO 00000KT 10SM CLR 20/06 A3002 220 38 900 000/00 RMK AO2 T02000056 $
63870K0J4 0J420161114172010911/14/16 17:20:31  5-MIN K0J4 142220Z AUTO 00000KT 10SM CLR 19/06 A3002 220 40 800 000/00 RMK AO2 T01940056 $
63870K0J4 0J420161114172510911/14/16 17:25:31  5-MIN K0J4 142225Z AUTO 00000KT 10SM CLR 19/06 A3002 220 43 800 000/00 RMK AO2 T01890061 $
63870K0J4 0J420161114173012511/14/16 17:30:31  5-MIN K0J4 142230Z AUTO 00000KT 10SM -RA CLR 18/06 A3002 220 44 700 000/00 RMK AO2 RAB28 P0000 T01830061 $
63870K0J4 0J420161114173512511/14/16 17:35:31  5-MIN K0J4 142235Z AUTO 00000KT 10SM -RA CLR 18/06 A3003 220 44 700 000/00 RMK AO2 RAB28 P0000 T01830061 $
63870K0J4 0J420161114174012411/14/16 17:40:31  5-MIN K0J4 142240Z AUTO 00000KT 10SM CLR 17/06 A3003 220 47 600 000/00 RMK AO2 RAB28E38 P0000 T01720061 $
63870K0J4 0J420161114174512411/14/16 17:45:31  5-MIN K0J4 142245Z AUTO 00000KT 10SM CLR 17/06 A3003 220 47 600 000/00 RMK AO2 RAB28E38 P0000 T01720061 $
63870K0J4 0J420161114175012411/14/16 17:50:31  5-MIN K0J4 142250Z AUTO 00000KT 10SM CLR 17/07 A3003 220 51 500 000/00 RMK AO2 RAB28E38 P0000 T01670067 $
63870K0J4 0J420161114175513111/14/16 17:55:31  5-MIN K0J4 142255Z AUTO 00000KT 10SM CLR 16/07 A3003 210 55 400 000/00 RMK AO2 RAB28E38 SLP168 P0000 T01560067 $
63870K0J4 0J420161114180010911/14/16 18:00:31  5-MIN K0J4 142300Z AUTO 00000KT 10SM CLR 16/07 A3003 210 55 400 000/00 RMK AO2 T01560067 $
63870K0J4 0J420161114180510911/14/16 18:05:31  5-MIN K0J4 142305Z AUTO 00000KT 10SM CLR 16/07 A3003 210 55 400 000/00 RMK AO2 T01560067 $
63870K0J4 0J420161114181010911/14/16 18:10:31  5-MIN K0J4 142310Z AUTO 00000KT 10SM CLR 15/07 A3003 210 57 300 000/00 RMK AO2 T01500067 $
63870K0J4 0J420161114181510911/14/16 18:15:31  5-MIN K0J4 142315Z AUTO 00000KT 10SM CLR 14/07 A3003 210 61 200 000/00 RMK AO2 T01440072 $
63870K0J4 0J420161114182010911/14/16 18:20:31  5-MIN K0J4 142320Z AUTO 00000KT 10SM CLR 14/07 A3003 210 64 200 000/00 RMK AO2 T01390072 $
63870K0J4 0J420161114182510911/14/16 18:25:31  5-MIN K0J4 142325Z AUTO 00000KT 10SM CLR 14/08 A3004 210 66 200 000/00 RMK AO2 T01390078 $
63870K0J4 0J420161114183010911/14/16 18:30:31  5-MIN K0J4 142330Z AUTO 00000KT 10SM CLR 13/07 A3004 210 66 100 000/00 RMK AO2 T01330072 $
63870K0J4 0J420161114183510911/14/16 18:35:31  5-MIN K0J4 142335Z AUTO 00000KT 10SM CLR 13/07 A3004 210 66 100 000/00 RMK AO2 T01330072 $
63870K0J4 0J420161114184010911/14/16 18:40:31  5-MIN K0J4 142340Z AUTO 00000KT 10SM CLR 13/07 A3004 210 66 100 000/00 RMK AO2 T01330072 $
63870K0J4 0J420161114184510911/14/16 18:45:31  5-MIN K0J4 142345Z AUTO 00000KT 10SM CLR 13/07 A3004 210 66 100 000/00 RMK AO2 T01330072 $
63870K0J4 0J420161114185010711/14/16 18:50:31  5-MIN K0J4 142350Z AUTO 00000KT 10SM CLR 13/07 A3004 210 69 0 000/00 RMK AO2 T01280072 $
63870K0J4 0J420161114185513811/14/16 18:55:31  5-MIN K0J4 142355Z AUTO 00000KT 10SM CLR 12/07 A3004 210 71 0 000/00 RMK AO2 SLP172 60000 T01220072 10222 20122 56019 $
63870K0J4 0J420161114190010711/14/16 19:00:31  5-MIN K0J4 150000Z AUTO 00000KT 10SM CLR 12/07 A3004 200 71 0 000/00 RMK AO2 T01220072 $
63870K0J4 0J420161114190511011/14/16 19:05:31  5-MIN K0J4 150005Z AUTO 00000KT 10SM CLR 12/07 A3004 200 74 -100 000/00 RMK AO2 T01170072 $
63870K0J4 0J420161114191011011/14/16 19:10:31  5-MIN K0J4 150010Z AUTO 00000KT 10SM CLR 12/07 A3005 200 74 -100 000/00 RMK AO2 T01170072 $
63870K0J4 0J420161114191511011/14/16 19:15:31  5-MIN K0J4 150015Z AUTO 00000KT 10SM CLR 12/07 A3005 200 71 -100 000/00 RMK AO2 T01170067 $
63870K0J4 0J420161114192011011/14/16 19:20:31  5-MIN K0J4 150020Z AUTO 00000KT 10SM CLR 12/07 A3004 200 71 -100 000/00 RMK AO2 T01170067 $
63870K0J4 0J420161114192511011/14/16 19:25:31  5-MIN K0J4 150025Z AUTO 00000KT 10SM CLR 12/07 A3004 200 71 -100 000/00 RMK AO2 T01170067 $
63870K0J4 0J420161114193011011/14/16 19:30:31  5-MIN K0J4 150030Z AUTO 00000KT 10SM CLR 12/07 A3005 200 71 -100 000/00 RMK AO2 T01170067 $
63870K0J4 0J420161114193511011/14/16 19:35:31  5-MIN K0J4 150035Z AUTO 00000KT 10SM CLR 11/07 A3005 200 74 -100 000/00 RMK AO2 T01110067 $
63870K0J4 0J420161114194011011/14/16 19:40:31  5-MIN K0J4 150040Z AUTO 00000KT 10SM CLR 11/07 A3005 200 74 -100 000/00 RMK AO2 T01110067 $
63870K0J4 0J420161114194511011/14/16 19:45:31  5-MIN K0J4 150045Z AUTO 00000KT 10SM CLR 11/07 A3005 200 74 -100 000/00 RMK AO2 T01110067 $
63870K0J4 0J420161114195011011/14/16 19:50:31  5-MIN K0J4 150050Z AUTO 00000KT 10SM CLR 11/07 A3005 200 77 -200 000/00 RMK AO2 T01060067 $
63870K0J4 0J420161114195511711/14/16 19:55:31  5-MIN K0J4 150055Z AUTO 00000KT 10SM CLR 11/07 A3005 200 77 -200 000/00 RMK AO2 SLP174 T01060067 $
63870K0J4 0J420161114200011011/14/16 20:00:31  5-MIN K0J4 150100Z AUTO 00000KT 10SM CLR 10/07 A3005 200 80 -300 000/00 RMK AO2 T01000067 $
63870K0J4 0J420161114200511011/14/16 20:05:31  5-MIN K0J4 150105Z AUTO 00000KT 10SM CLR 11/07 A3005 200 77 -200 000/00 RMK AO2 T01060067 $
63870K0J4 0J420161114201011011/14/16 20:10:31  5-MIN K0J4 150110Z AUTO 00000KT 10SM CLR 10/07 A3005 200 80 -300 000/00 RMK AO2 T01000067 $
63870K0J4 0J420161114201511011/14/16 20:15:31  5-MIN K0J4 150115Z AUTO 00000KT 10SM CLR 10/06 A3005 190 77 -300 000/00 RMK AO2 T01000061 $
63870K0J4 0J420161114202011011/14/16 20:20:31  5-MIN K0J4 150120Z AUTO 00000KT 10SM CLR 11/07 A3005 190 77 -200 000/00 RMK AO2 T01060067 $
63870K0J4 0J420161114202511011/14/16 20:25:31  5-MIN K0J4 150125Z AUTO 00000KT 10SM CLR 10/07 A3006 190 80 -300 000/00 RMK AO2 T01000067 $
63870K0J4 0J420161114203011011/14/16 20:30:31  5-MIN K0J4 150130Z AUTO 00000KT 10SM CLR 10/06 A3006 190 77 -300 000/00 RMK AO2 T01000061 $
63870K0J4 0J420161114203511011/14/16 20:35:31  5-MIN K0J4 150135Z AUTO 00000KT 10SM CLR 10/06 A3006 190 77 -300 000/00 RMK AO2 T01000061 $
63870K0J4 0J420161114204011011/14/16 20:40:31  5-MIN K0J4 150140Z AUTO 00000KT 10SM CLR 10/06 A3005 190 77 -300 000/00 RMK AO2 T01000061 $
63870K0J4 0J420161114204511011/14/16 20:45:31  5-MIN K0J4 150145Z AUTO 00000KT 10SM CLR 09/06 A3005 190 79 -300 000/00 RMK AO2 T00940061 $
63870K0J4 0J420161114205011011/14/16 20:50:31  5-MIN K0J4 150150Z AUTO 00000KT 10SM CLR 09/06 A3005 190 79 -300 000/00 RMK AO2 T00940061 $
63870K0J4 0J420161114205511711/14/16 20:55:31  5-MIN K0J4 150155Z AUTO 00000KT 10SM CLR 09/06 A3005 190 79 -300 000/00 RMK AO2 SLP175 T00940061 $
63870K0J4 0J420161114210011011/14/16 21:00:31  5-MIN K0J4 150200Z AUTO 00000KT 10SM CLR 09/06 A3005 200 79 -300 000/00 RMK AO2 T00940061 $
63870K0J4 0J420161114210511011/14/16 21:05:31  5-MIN K0J4 150205Z AUTO 00000KT 10SM CLR 09/06 A3005 190 79 -300 000/00 RMK AO2 T00940061 $
63870K0J4 0J420161114211011011/14/16 21:10:31  5-MIN K0J4 150210Z AUTO 00000KT 10SM CLR 09/06 A3005 200 79 -300 000/00 RMK AO2 T00940061 $
63870K0J4 0J420161114211511011/14/16 21:15:31  5-MIN K0J4 150215Z AUTO 00000KT 10SM CLR 09/06 A3005 190 79 -400 000/00 RMK AO2 T00890056 $
63870K0J4 0J420161114212011011/14/16 21:20:31  5-MIN K0J4 150220Z AUTO 00000KT 10SM CLR 09/06 A3005 190 79 -300 000/00 RMK AO2 T00940061 $
63870K0J4 0J420161114212511011/14/16 21:25:31  5-MIN K0J4 150225Z AUTO 00000KT 10SM CLR 09/06 A3005 190 79 -300 000/00 RMK AO2 T00940061 $
63870K0J4 0J420161114213011011/14/16 21:30:31  5-MIN K0J4 150230Z AUTO 00000KT 10SM CLR 09/06 A3005 190 79 -300 000/00 RMK AO2 T00940061 $
63870K0J4 0J420161114213511011/14/16 21:35:31  5-MIN K0J4 150235Z AUTO 00000KT 10SM CLR 09/06 A3005 190 79 -400 000/00 RMK AO2 T00890056 $
63870K0J4 0J420161114214011011/14/16 21:40:31  5-MIN K0J4 150240Z AUTO 00000KT 10SM CLR 09/06 A3006 190 76 -300 000/00 RMK AO2 T00940056 $
63870K0J4 0J420161114214511011/14/16 21:45:31  5-MIN K0J4 150245Z AUTO 00000KT 10SM CLR 09/06 A3006 190 79 -300 000/00 RMK AO2 T00940061 $
63870K0J4 0J420161114215011011/14/16 21:50:31  5-MIN K0J4 150250Z AUTO 00000KT 10SM CLR 09/06 A3005 190 83 -400 000/00 RMK AO2 T00890061 $
63870K0J4 0J420161114215512311/14/16 21:55:31  5-MIN K0J4 150255Z AUTO 00000KT 10SM CLR 09/06 A3006 190 83 -400 000/00 RMK AO2 SLP176 T00890061 53005 $
63870K0J4 0J420161114220011011/14/16 22:00:31  5-MIN K0J4 150300Z AUTO 00000KT 10SM CLR 08/06 A3006 190 82 -500 000/00 RMK AO2 T00830056 $
63870K0J4 0J420161114220511011/14/16 22:05:31  5-MIN K0J4 150305Z AUTO 20004KT 10SM CLR 08/06 A3006 190 82 -500 200/04 RMK AO2 T00830056 $
63870K0J4 0J420161114221011011/14/16 22:10:31  5-MIN K0J4 150310Z AUTO 00000KT 10SM CLR 08/06 A3006 190 86 -500 000/00 RMK AO2 T00780056 $
63870K0J4 0J420161114221511011/14/16 22:15:31  5-MIN K0J4 150315Z AUTO 00000KT 10SM CLR 08/06 A3006 190 82 -500 000/00 RMK AO2 T00830056 $
63870K0J4 0J420161114222011011/14/16 22:20:31  5-MIN K0J4 150320Z AUTO 00000KT 10SM CLR 08/06 A3006 190 82 -500 000/00 RMK AO2 T00830056 $
63870K0J4 0J420161114222511011/14/16 22:25:31  5-MIN K0J4 150325Z AUTO 00000KT 10SM CLR 08/06 A3006 190 82 -500 000/00 RMK AO2 T00830056 $
63870K0J4 0J420161114223011011/14/16 22:30:31  5-MIN K0J4 150330Z AUTO 00000KT 10SM CLR 08/06 A3006 190 86 -500 000/00 RMK AO2 T00780056 $
63870K0J4 0J420161114223511011/14/16 22:35:31  5-MIN K0J4 150335Z AUTO 00000KT 10SM CLR 08/06 A3006 190 86 -500 000/00 RMK AO2 T00780056 $
63870K0J4 0J420161114224011011/14/16 22:40:31  5-MIN K0J4 150340Z AUTO 00000KT 10SM CLR 08/06 A3006 180 86 -600 000/00 RMK AO2 T00780056 $
63870K0J4 0J420161114224511011/14/16 22:45:31  5-MIN K0J4 150345Z AUTO 00000KT 10SM CLR 08/06 A3006 190 82 -500 000/00 RMK AO2 T00830056 $
63870K0J4 0J420161114225011011/14/16 22:50:31  5-MIN K0J4 150350Z AUTO 00000KT 10SM CLR 08/06 A3006 190 82 -500 000/00 RMK AO2 T00830056 $
63870K0J4 0J420161114225511711/14/16 22:55:31  5-MIN K0J4 150355Z AUTO 00000KT 10SM CLR 08/06 A3006 180 86 -500 000/00 RMK AO2 SLP178 T00780056 $
63870K0J4 0J420161114230011011/14/16 23:00:31  5-MIN K0J4 150400Z AUTO 00000KT 10SM CLR 09/06 A3006 180 79 -400 000/00 RMK AO2 T00890056 $
63870K0J4 0J420161114230511011/14/16 23:05:31  5-MIN K0J4 150405Z AUTO 00000KT 10SM CLR 08/06 A3006 180 86 -500 000/00 RMK AO2 T00780056 $
63870K0J4 0J420161114231011011/14/16 23:10:31  5-MIN K0J4 150410Z AUTO 00000KT 10SM CLR 08/06 A3006 180 86 -500 000/00 RMK AO2 T00780056 $
63870K0J4 0J420161114231511011/14/16 23:15:31  5-MIN K0J4 150415Z AUTO 00000KT 10SM CLR 08/06 A3006 180 86 -600 000/00 RMK AO2 T00780056 $
63870K0J4 0J420161114232011011/14/16 23:20:31  5-MIN K0J4 150420Z AUTO 00000KT 10SM CLR 08/05 A3006 180 82 -600 000/00 RMK AO2 T00780050 $
63870K0J4 0J420161114232511011/14/16 23:25:31  5-MIN K0J4 150425Z AUTO 00000KT 10SM CLR 08/06 A3006 180 86 -600 000/00 RMK AO2 T00780056 $
63870K0J4 0J420161114233011011/14/16 23:30:31  5-MIN K0J4 150430Z AUTO 00000KT 10SM CLR 08/05 A3006 180 82 -600 000/00 RMK AO2 T00780050 $
63870K0J4 0J420161114233511011/14/16 23:35:31  5-MIN K0J4 150435Z AUTO 00000KT 10SM CLR 08/05 A3006 180 82 -600 000/00 RMK AO2 T00780050 $
63870K0J4 0J420161114234011011/14/16 23:40:31  5-MIN K0J4 150440Z AUTO 00000KT 10SM CLR 07/05 A3007 180 86 -600 000/00 RMK AO2 T00720050 $
63870K0J4 0J420161114234511011/14/16 23:45:31  5-MIN K0J4 150445Z AUTO 00000KT 10SM CLR 07/05 A3006 180 86 -600 000/00 RMK AO2 T00720050 $
63870K0J4 0J420161114235011011/14/16 23:50:31  5-MIN K0J4 150450Z AUTO 00000KT 10SM CLR 08/05 A3006 180 82 -500 000/00 RMK AO2 T00780050 $
63870K0J4 0J420161114235512711/14/16 23:55:31  5-MIN K0J4 150455Z AUTO 00000KT 10SM CLR 08/06 A3006 190 86 -500 000/00 RMK AO2 SLP178 T00780056 402220056 $
63870K0J4 0J420161115000011011/15/16 00:00:31  5-MIN K0J4 150500Z AUTO 00000KT 10SM CLR 08/06 A3006 190 82 -500 000/00 RMK AO2 T00830056 $
63870K0J4 0J420161115000511011/15/16 00:05:31  5-MIN K0J4 150505Z AUTO 00000KT 10SM CLR 08/06 A3006 190 86 -500 000/00 RMK AO2 T00830061 $
63870K0J4 0J420161115001011011/15/16 00:10:31  5-MIN K0J4 150510Z AUTO 00000KT 10SM CLR 08/06 A3006 190 86 -500 000/00 RMK AO2 T00830061 $
63870K0J4 0J420161115001511011/15/16 00:15:31  5-MIN K0J4 150515Z AUTO 00000KT 10SM CLR 08/06 A3006 190 89 -500 000/00 RMK AO2 T00780061 $
63870K0J4 0J420161115002011011/15/16 00:20:31  5-MIN K0J4 150520Z AUTO 00000KT 10SM CLR 08/06 A3005 190 89 -500 000/00 RMK AO2 T00780061 $
63870K0J4 0J420161115002511011/15/16 00:25:31  5-MIN K0J4 150525Z AUTO 00000KT 10SM CLR 08/06 A3006 190 89 -500 000/00 RMK AO2 T00780061 $
63870K0J4 0J420161115003011011/15/16 00:30:31  5-MIN K0J4 150530Z AUTO 00000KT 10SM CLR 08/06 A3005 190 86 -500 000/00 RMK AO2 T00830061 $
63870K0J4 0J420161115003511011/15/16 00:35:31  5-MIN K0J4 150535Z AUTO 00000KT 10SM CLR 08/06 A3005 200 86 -500 000/00 RMK AO2 T00830061 $
63870K0J4 0J420161115004011011/15/16 00:40:31  5-MIN K0J4 150540Z AUTO 00000KT 10SM CLR 08/07 A3005 200 89 -500 000/00 RMK AO2 T00830067 $
63870K0J4 0J420161115004511011/15/16 00:45:31  5-MIN K0J4 150545Z AUTO 00000KT 10SM CLR 08/07 A3004 200 89 -500 000/00 RMK AO2 T00830067 $
63870K0J4 0J420161115005011011/15/16 00:50:31  5-MIN K0J4 150550Z AUTO 00000KT 10SM CLR 08/06 A3004 200 86 -500 000/00 RMK AO2 T00830061 $
63870K0J4 0J420161115005513511/15/16 00:55:31  5-MIN K0J4 150555Z AUTO 00000KT 10SM CLR 09/06 A3004 200 83 -400 000/00 RMK AO2 SLP170 T00890061 10122 20072 51005 $
63870K0J4 0J420161115010011011/15/16 01:00:31  5-MIN K0J4 150600Z AUTO 00000KT 10SM CLR 09/06 A3004 200 79 -300 000/00 RMK AO2 T00940061 $
63870K0J4 0J420161115010511011/15/16 01:05:31  5-MIN K0J4 150605Z AUTO 00000KT 10SM CLR 09/06 A3004 200 83 -400 000/00 RMK AO2 T00890061 $
63870K0J4 0J420161115011011011/15/16 01:10:31  5-MIN K0J4 150610Z AUTO 00000KT 10SM CLR 08/06 A3004 210 82 -500 000/00 RMK AO2 T00830056 $
63870K0J4 0J420161115011511011/15/16 01:15:31  5-MIN K0J4 150615Z AUTO 00000KT 10SM CLR 08/06 A3004 210 86 -500 000/00 RMK AO2 T00830061 $
63870K0J4 0J420161115012011011/15/16 01:20:31  5-MIN K0J4 150620Z AUTO 00000KT 10SM CLR 08/06 A3004 210 82 -500 000/00 RMK AO2 T00830056 $
63870K0J4 0J420161115012511011/15/16 01:25:31  5-MIN K0J4 150625Z AUTO 00000KT 10SM CLR 08/06 A3004 210 82 -500 000/00 RMK AO2 T00830056 $
63870K0J4 0J420161115013011011/15/16 01:30:31  5-MIN K0J4 150630Z AUTO 00000KT 10SM CLR 08/06 A3003 210 82 -400 000/00 RMK AO2 T00830056 $
63870K0J4 0J420161115013511011/15/16 01:35:31  5-MIN K0J4 150635Z AUTO 00000KT 10SM CLR 08/06 A3003 210 82 -500 000/00 RMK AO2 T00830056 $
63870K0J4 0J420161115014011011/15/16 01:40:31  5-MIN K0J4 150640Z AUTO 00000KT 10SM CLR 09/06 A3003 210 83 -400 000/00 RMK AO2 T00890061 $
63870K0J4 0J420161115014511011/15/16 01:45:31  5-MIN K0J4 150645Z AUTO 00000KT 10SM CLR 08/06 A3003 210 86 -500 000/00 RMK AO2 T00780056 $
63870K0J4 0J420161115015011011/15/16 01:50:31  5-MIN K0J4 150650Z AUTO 00000KT 10SM CLR 07/06 A3003 210 89 -600 000/00 RMK AO2 T00720056 $
63870K0J4 0J420161115015511711/15/16 01:55:31  5-MIN K0J4 150655Z AUTO 00000KT 10SM CLR 08/06 A3003 210 86 -500 000/00 RMK AO2 SLP167 T00780056 $
63870K0J4 0J420161115020011011/15/16 02:00:31  5-MIN K0J4 150700Z AUTO 00000KT 10SM CLR 08/06 A3003 210 82 -400 000/00 RMK AO2 T00830056 $
63870K0J4 0J420161115020511011/15/16 02:05:31  5-MIN K0J4 150705Z AUTO 00000KT 10SM CLR 07/05 A3003 210 86 -600 000/00 RMK AO2 T00720050 $
63870K0J4 0J420161115021011011/15/16 02:10:31  5-MIN K0J4 150710Z AUTO 00000KT 10SM CLR 07/05 A3003 210 89 -600 000/00 RMK AO2 T00670050 $
63870K0J4 0J420161115021511011/15/16 02:15:31  5-MIN K0J4 150715Z AUTO 00000KT 10SM CLR 07/05 A3003 220 89 -600 000/00 RMK AO2 T00670050 $
63870K0J4 0J420161115022011011/15/16 02:20:31  5-MIN K0J4 150720Z AUTO 00000KT 10SM CLR 07/05 A3003 220 86 -600 000/00 RMK AO2 T00720050 $
63870K0J4 0J420161115022511011/15/16 02:25:31  5-MIN K0J4 150725Z AUTO 00000KT 10SM CLR 07/05 A3003 220 86 -600 000/00 RMK AO2 T00720050 $
63870K0J4 0J420161115023011011/15/16 02:30:31  5-MIN K0J4 150730Z AUTO 00000KT 10SM CLR 07/05 A3003 220 86 -600 000/00 RMK AO2 T00720050 $
63870K0J4 0J420161115023511011/15/16 02:35:31  5-MIN K0J4 150735Z AUTO 00000KT 10SM CLR 07/05 A3003 220 86 -600 000/00 RMK AO2 T00720050 $
63870K0J4 0J420161115024011011/15/16 02:40:31  5-MIN K0J4 150740Z AUTO 00000KT 10SM CLR 07/05 A3003 210 86 -600 000/00 RMK AO2 T00720050 $
63870K0J4 0J420161115024511011/15/16 02:45:31  5-MIN K0J4 150745Z AUTO 00000KT 10SM CLR 07/05 A3003 220 86 -600 000/00 RMK AO2 T00720050 $
63870K0J4 0J420161115025011011/15/16 02:50:31  5-MIN K0J4 150750Z AUTO 00000KT 10SM CLR 07/05 A3003 210 86 -600 000/00 RMK AO2 T00720050 $
63870K0J4 0J420161115025511711/15/16 02:55:31  5-MIN K0J4 150755Z AUTO 00000KT 10SM CLR 07/05 A3003 210 89 -600 000/00 RMK AO2 SLP168 T00670050 $
63870K0J4 0J420161115030011011/15/16 03:00:31  5-MIN K0J4 150800Z AUTO 00000KT 10SM CLR 07/04 A3003 210 86 -700 000/00 RMK AO2 T00670044 $
63870K0J4 0J420161115030511011/15/16 03:05:31  5-MIN K0J4 150805Z AUTO 00000KT 10SM CLR 07/04 A3003 210 86 -700 000/00 RMK AO2 T00670044 $
63870K0J4 0J420161115031011011/15/16 03:10:31  5-MIN K0J4 150810Z AUTO 00000KT 10SM CLR 06/05 A3003 210 93 -700 000/00 RMK AO2 T00610050 $
63870K0J4 0J420161115031511011/15/16 03:15:31  5-MIN K0J4 150815Z AUTO 00000KT 10SM CLR 07/05 A3003 210 89 -700 000/00 RMK AO2 T00670050 $
63870K0J4 0J420161115032011011/15/16 03:20:31  5-MIN K0J4 150820Z AUTO 00000KT 10SM CLR 07/05 A3003 210 89 -700 000/00 RMK AO2 T00670050 $
63870K0J4 0J420161115032511011/15/16 03:25:31  5-MIN K0J4 150825Z AUTO 00000KT 10SM CLR 07/05 A3004 210 89 -700 000/00 RMK AO2 T00670050 $
63870K0J4 0J420161115033011011/15/16 03:30:31  5-MIN K0J4 150830Z AUTO 00000KT 10SM CLR 07/05 A3004 210 89 -700 000/00 RMK AO2 T00670050 $
63870K0J4 0J420161115033511011/15/16 03:35:31  5-MIN K0J4 150835Z AUTO 00000KT 10SM CLR 06/05 A3004 210 93 -700 000/00 RMK AO2 T00610050 $
63870K0J4 0J420161115034011011/15/16 03:40:31  5-MIN K0J4 150840Z AUTO 00000KT 10SM CLR 06/05 A3004 210 93 -700 000/00 RMK AO2 T00610050 $
63870K0J4 0J420161115034511011/15/16 03:45:31  5-MIN K0J4 150845Z AUTO 00000KT 10SM CLR 07/04 A3004 200 86 -700 000/00 RMK AO2 T00670044 $
63870K0J4 0J420161115035011011/15/16 03:50:31  5-MIN K0J4 150850Z AUTO 00000KT 10SM CLR 07/04 A3004 210 86 -700 000/00 RMK AO2 T00670044 $
63870K0J4 0J420161115035512311/15/16 03:55:31  5-MIN K0J4 150855Z AUTO 00000KT 10SM CLR 07/05 A3004 210 89 -700 000/00 RMK AO2 SLP170 T00670050 58005 $
63870K0J4 0J420161115040011011/15/16 04:00:31  5-MIN K0J4 150900Z AUTO 00000KT 10SM CLR 07/05 A3004 210 89 -700 000/00 RMK AO2 T00670050 $
63870K0J4 0J420161115040511011/15/16 04:05:31  5-MIN K0J4 150905Z AUTO 00000KT 10SM CLR 07/05 A3004 210 89 -700 000/00 RMK AO2 T00670050 $
63870K0J4 0J420161115041011011/15/16 04:10:31  5-MIN K0J4 150910Z AUTO 00000KT 10SM CLR 07/06 A3004 210 89 -600 000/00 RMK AO2 T00720056 $
63870K0J4 0J420161115041511011/15/16 04:15:31  5-MIN K0J4 150915Z AUTO 00000KT 10SM CLR 06/04 A3004 210 89 -700 000/00 RMK AO2 T00610044 $
63870K0J4 0J420161115042011011/15/16 04:20:31  5-MIN K0J4 150920Z AUTO 00000KT 10SM CLR 07/04 A3004 210 86 -700 000/00 RMK AO2 T00670044 $
63870K0J4 0J420161115042511011/15/16 04:25:31  5-MIN K0J4 150925Z AUTO 00000KT 10SM CLR 07/05 A3004 210 89 -700 000/00 RMK AO2 T00670050 $
63870K0J4 0J420161115043011011/15/16 04:30:31  5-MIN K0J4 150930Z AUTO 00000KT 10SM CLR 06/04 A3004 210 89 -700 000/00 RMK AO2 T00610044 $
63870K0J4 0J420161115043511011/15/16 04:35:31  5-MIN K0J4 150935Z AUTO 00000KT 10SM CLR 07/05 A3004 210 89 -700 000/00 RMK AO2 T00670050 $
63870K0J4 0J420161115044011011/15/16 04:40:31  5-MIN K0J4 150940Z AUTO 00000KT 10SM CLR 07/05 A3004 210 89 -700 000/00 RMK AO2 T00670050 $
63870K0J4 0J420161115044511011/15/16 04:45:31  5-MIN K0J4 150945Z AUTO 00000KT 10SM CLR 06/04 A3004 210 86 -700 000/00 RMK AO2 T00610039 $
63870K0J4 0J420161115045011011/15/16 04:50:31  5-MIN K0J4 150950Z AUTO 00000KT 10SM CLR 06/04 A3004 210 89 -800 000/00 RMK AO2 T00560039 $
63870K0J4 0J420161115045511711/15/16 04:55:31  5-MIN K0J4 150955Z AUTO 00000KT 10SM CLR 06/03 A3004 210 85 -800 000/00 RMK AO2 SLP171 T00560033 $
63870K0J4 0J420161115050011011/15/16 05:00:31  5-MIN K0J4 151000Z AUTO 00000KT 10SM CLR 06/03 A3004 210 85 -800 000/00 RMK AO2 T00560033 $
63870K0J4 0J420161115050511011/15/16 05:05:31  5-MIN K0J4 151005Z AUTO 00000KT 10SM CLR 06/04 A3004 210 86 -700 000/00 RMK AO2 T00610039 $
63870K0J4 0J420161115051011011/15/16 05:10:31  5-MIN K0J4 151010Z AUTO 00000KT 10SM CLR 06/04 A3004 200 86 -700 000/00 RMK AO2 T00610039 $
63870K0J4 0J420161115051511011/15/16 05:15:31  5-MIN K0J4 151015Z AUTO 00000KT 10SM CLR 06/04 A3004 210 86 -700 000/00 RMK AO2 T00610039 $
63870K0J4 0J420161115052011011/15/16 05:20:31  5-MIN K0J4 151020Z AUTO 00000KT 10SM CLR 06/04 A3004 210 92 -800 000/00 RMK AO2 T00560044 $
63870K0J4 0J420161115052511011/15/16 05:25:31  5-MIN K0J4 151025Z AUTO 00000KT 10SM CLR 06/04 A3004 210 92 -800 000/00 RMK AO2 T00560044 $
63870K0J4 0J420161115053011011/15/16 05:30:31  5-MIN K0J4 151030Z AUTO 00000KT 10SM CLR 06/04 A3004 200 92 -800 000/00 RMK AO2 T00560044 $
63870K0J4 0J420161115053511011/15/16 05:35:31  5-MIN K0J4 151035Z AUTO 00000KT 10SM CLR 06/04 A3004 210 92 -800 000/00 RMK AO2 T00560044 $
63870K0J4 0J420161115054011011/15/16 05:40:31  5-MIN K0J4 151040Z AUTO 00000KT 10SM CLR 06/04 A3004 210 92 -800 000/00 RMK AO2 T00560044 $
63870K0J4 0J420161115054511011/15/16 05:45:31  5-MIN K0J4 151045Z AUTO 00000KT 10SM CLR 06/04 A3004 210 89 -800 000/00 RMK AO2 T00560039 $
63870K0J4 0J420161115055011011/15/16 05:50:31  5-MIN K0J4 151050Z AUTO 00000KT 10SM CLR 06/04 A3004 210 89 -800 000/00 RMK AO2 T00560039 $
63870K0J4 0J420161115055511711/15/16 05:55:31  5-MIN K0J4 151055Z AUTO 00000KT 10SM CLR 06/04 A3004 210 89 -800 000/00 RMK AO2 SLP170 T00560039 $
63870K0J4 0J420161115060011011/15/16 06:00:31  5-MIN K0J4 151100Z AUTO 00000KT 10SM CLR 06/04 A3004 210 89 -800 000/00 RMK AO2 T00560039 $
63870K0J4 0J420161115060511011/15/16 06:05:31  5-MIN K0J4 151105Z AUTO 00000KT 10SM CLR 06/04 A3004 210 86 -700 000/00 RMK AO2 T00610039 $
63870K0J4 0J420161115061011011/15/16 06:10:31  5-MIN K0J4 151110Z AUTO 00000KT 10SM CLR 06/04 A3004 200 86 -700 000/00 RMK AO2 T00610039 $
63870K0J4 0J420161115061511011/15/16 06:15:31  5-MIN K0J4 151115Z AUTO 00000KT 10SM CLR 05/04 A3004 200 92 -900 000/00 RMK AO2 T00500039 $
63870K0J4 0J420161115062011011/15/16 06:20:31  5-MIN K0J4 151120Z AUTO 00000KT 10SM CLR 06/03 A3004 200 85 -800 000/00 RMK AO2 T00560033 $
63870K0J4 0J420161115062511011/15/16 06:25:31  5-MIN K0J4 151125Z AUTO 00000KT 10SM CLR 06/04 A3005 200 89 -800 000/00 RMK AO2 T00560039 $
63870K0J4 0J420161115063011011/15/16 06:30:31  5-MIN K0J4 151130Z AUTO 00000KT 10SM CLR 06/04 A3005 200 89 -800 000/00 RMK AO2 T00560039 $
63870K0J4 0J420161115063512611/15/16 06:35:31  5-MIN K0J4 151135Z AUTO 00000KT 10SM -RA CLR 06/04 A3005 200 92 -800 000/00 RMK AO2 RAB32 P0000 T00560044 $
63870K0J4 0J420161115064012611/15/16 06:40:31  5-MIN K0J4 151140Z AUTO 00000KT 10SM -RA CLR 06/05 A3005 200 93 -700 000/00 RMK AO2 RAB32 P0000 T00610050 $
63870K0J4 0J420161115064512511/15/16 06:45:31  5-MIN K0J4 151145Z AUTO 00000KT 10SM CLR 05/04 A3005 200 96 -900 000/00 RMK AO2 RAB32E41 P0000 T00500044 $
63870K0J4 0J420161115065012511/15/16 06:50:31  5-MIN K0J4 151150Z AUTO 00000KT 10SM CLR 06/04 A3005 190 92 -800 000/00 RMK AO2 RAB32E41 P0000 T00560044 $
63870K0J4 0J420161115065515611/15/16 06:55:31  5-MIN K0J4 151155Z AUTO 00000KT 10SM CLR 05/04 A3005 190 92 -900 000/00 RMK AO2 RAB32E41 SLP176 P0000 60000 T00500039 10094 20050 55001 $
63870K0J4 0J420161115070011011/15/16 07:00:31  5-MIN K0J4 151200Z AUTO 00000KT 10SM CLR 06/04 A3005 200 89 -800 000/00 RMK AO2 T00560039 $
63870K0J4 0J420161115070511011/15/16 07:05:31  5-MIN K0J4 151205Z AUTO 00000KT 10SM CLR 06/03 A3005 200 85 -800 000/00 RMK AO2 T00560033 $
63870K0J4 0J420161115071011011/15/16 07:10:31  5-MIN K0J4 151210Z AUTO 00000KT 10SM CLR 06/03 A3005 190 85 -800 000/00 RMK AO2 T00560033 $
63870K0J4 0J420161115213510911/15/16 21:35:31  5-MIN K0J4 160235Z AUTO 00000KT 10SM CLR 13/09 A3000 250 77 100 000/00 RMK AO2 T01280089 $
63870K0J4 0J420161115214010911/15/16 21:40:31  5-MIN K0J4 160240Z AUTO 00000KT 10SM CLR 13/09 A3000 250 77 100 000/00 RMK AO2 T01330094 $
63870K0J4 0J420161115214510711/15/16 21:45:31  5-MIN K0J4 160245Z AUTO 00000KT 10SM CLR 12/09 A3000 250 80 0 000/00 RMK AO2 T01220089 $
63870K0J4 0J420161115215010711/15/16 21:50:31  5-MIN K0J4 160250Z AUTO 00000KT 10SM CLR 12/08 A3000 240 80 0 000/00 RMK AO2 T01170083 $
63870K0J4 0J420161115215512011/15/16 21:55:31  5-MIN K0J4 160255Z AUTO 00000KT 10SM CLR 12/09 A3000 240 80 0 000/00 RMK AO2 SLP156 T01220089 53008 $
63870K0J4 0J420161115220010911/15/16 22:00:31  5-MIN K0J4 160300Z AUTO 00000KT 10SM CLR 13/09 A3000 240 80 100 000/00 RMK AO2 T01280094 $
63870K0J4 0J420161115220510711/15/16 22:05:31  5-MIN K0J4 160305Z AUTO 00000KT 10SM CLR 12/09 A3000 240 80 0 000/00 RMK AO2 T01220089 $
63870K0J4 0J420161115221011011/15/16 22:10:31  5-MIN K0J4 160310Z AUTO 00000KT 10SM FEW050 12/09 A3001 230 80 0 000/00 RMK AO2 T01220089 $
63870K0J4 0J420161115221511211/15/16 22:15:31  5-MIN K0J4 160315Z AUTO 00000KT 10SM SCT050 13/09 A3001 230 77 100 000/00 RMK AO2 T01280089 $
63870K0J4 0J420161115222011011/15/16 22:20:31  5-MIN K0J4 160320Z AUTO 00000KT 10SM SCT050 12/09 A3001 230 80 0 000/00 RMK AO2 T01220089 $
63870K0J4 0J420161115222511011/15/16 22:25:31  5-MIN K0J4 160325Z AUTO 00000KT 10SM SCT050 12/09 A3001 230 80 0 000/00 RMK AO2 T01220089 $
63870K0J4 0J420161115223011211/15/16 22:30:31  5-MIN K0J4 160330Z AUTO 00000KT 10SM SCT050 13/09 A3001 230 80 100 000/00 RMK AO2 T01280094 $
63870K0J4 0J420161115223511011/15/16 22:35:31  5-MIN K0J4 160335Z AUTO 00000KT 10SM SCT050 12/09 A3001 230 83 0 000/00 RMK AO2 T01220094 $
63870K0J4 0J420161115224011711/15/16 22:40:31  5-MIN K0J4 160340Z AUTO 00000KT 10SM SCT048 SCT055 12/09 A3001 230 83 0 000/00 RMK AO2 T01220094 $
63870K0J4 0J420161115224511711/15/16 22:45:31  5-MIN K0J4 160345Z AUTO 00000KT 10SM SCT048 BKN060 12/09 A3001 230 83 0 000/00 RMK AO2 T01170089 $
63870K0J4 0J420161115225011711/15/16 22:50:31  5-MIN K0J4 160350Z AUTO 00000KT 10SM SCT050 BKN065 12/09 A3002 230 80 0 000/00 RMK AO2 T01220089 $
63870K0J4 0J420161115225512411/15/16 22:55:31  5-MIN K0J4 160355Z AUTO 00000KT 10SM SCT050 BKN060 12/09 A3001 230 83 0 000/00 RMK AO2 SLP160 T01220094 $
63870K0J4 0J420161115230011711/15/16 23:00:31  5-MIN K0J4 160400Z AUTO 00000KT 10SM FEW050 SCT065 12/09 A3002 230 80 0 000/00 RMK AO2 T01220089 $
63870K0J4 0J420161115230511711/15/16 23:05:31  5-MIN K0J4 160405Z AUTO 00000KT 10SM FEW050 SCT065 12/09 A3001 230 80 0 000/00 RMK AO2 T01220089 $
63870K0J4 0J420161115231011711/15/16 23:10:31  5-MIN K0J4 160410Z AUTO 00000KT 10SM FEW050 SCT065 12/09 A3002 230 83 0 000/00 RMK AO2 T01170089 $
63870K0J4 0J420161115231511011/15/16 23:15:31  5-MIN K0J4 160415Z AUTO 00000KT 10SM FEW050 12/09 A3002 230 83 0 000/00 RMK AO2 T01170089 $
63870K0J4 0J420161115232011011/15/16 23:20:31  5-MIN K0J4 160420Z AUTO 00000KT 10SM SCT050 12/09 A3002 220 83 0 000/00 RMK AO2 T01170089 $
63870K0J4 0J420161115232511711/15/16 23:25:31  5-MIN K0J4 160425Z AUTO 00000KT 10SM FEW048 SCT060 12/09 A3002 220 83 0 000/00 RMK AO2 T01170089 $
63870K0J4 0J420161115233012411/15/16 23:30:31  5-MIN K0J4 160430Z AUTO 00000KT 10SM FEW048 SCT060 SCT070 12/09 A3002 220 83 0 000/00 RMK AO2 T01170089 $
63870K0J4 0J420161115233511911/15/16 23:35:31  5-MIN K0J4 160435Z AUTO 00000KT 10SM FEW045 SCT055 13/10 A3002 230 83 100 000/00 RMK AO2 T01280100 $
63870K0J4 0J420161115234011911/15/16 23:40:31  5-MIN K0J4 160440Z AUTO 00000KT 10SM SCT047 BKN060 13/10 A3001 230 83 100 000/00 RMK AO2 T01280100 $
63870K0J4 0J420161115234511911/15/16 23:45:31  5-MIN K0J4 160445Z AUTO 34003KT 10SM SCT047 BKN060 13/10 A3001 230 80 100 340/03 RMK AO2 T01330100 $
63870K0J4 0J420161115235011911/15/16 23:50:31  5-MIN K0J4 160450Z AUTO 00000KT 10SM SCT043 BKN055 13/10 A3001 230 80 100 000/00 RMK AO2 T01330100 $
63870K0J4 0J420161115235513611/15/16 23:55:31  5-MIN K0J4 160455Z AUTO 00000KT 10SM BKN043 BKN050 14/11 A3001 230 80 200 000/00 RMK AO2 SLP159 T01390106 402440050 $
63870K0J4 0J420161116000011911/16/16 00:00:31  5-MIN K0J4 160500Z AUTO 00000KT 10SM BKN045 BKN050 13/11 A3001 230 83 100 000/00 RMK AO2 T01330106 $
63870K0J4 0J420161116000511911/16/16 00:05:31  5-MIN K0J4 160505Z AUTO 00000KT 10SM BKN045 BKN055 13/11 A3001 240 83 100 000/00 RMK AO2 T01330106 $
63870K0J4 0J420161116001011911/16/16 00:10:31  5-MIN K0J4 160510Z AUTO 00000KT 10SM SCT044 BKN055 13/11 A3001 240 83 100 000/00 RMK AO2 T01330106 $
63870K0J4 0J420161116001511911/16/16 00:15:31  5-MIN K0J4 160515Z AUTO 00000KT 10SM SCT044 BKN060 13/10 A3001 240 83 100 000/00 RMK AO2 T01280100 $
63870K0J4 0J420161116002011711/16/16 00:20:31  5-MIN K0J4 160520Z AUTO 00000KT 10SM FEW044 BKN060 12/10 A3001 240 86 0 000/00 RMK AO2 T01220100 $
63870K0J4 0J420161116002511711/16/16 00:25:31  5-MIN K0J4 160525Z AUTO 00000KT 10SM FEW044 SCT060 12/09 A3001 240 86 0 000/00 RMK AO2 T01170094 $
63870K0J4 0J420161116003011311/16/16 00:30:31  5-MIN K0J4 160530Z AUTO 00000KT 10SM SCT055 11/09 A3000 240 86 -100 000/00 RMK AO2 T01110089 $
63870K0J4 0J420161116003511311/16/16 00:35:31  5-MIN K0J4 160535Z AUTO 00000KT 10SM SCT055 11/09 A3000 240 86 -100 000/00 RMK AO2 T01110089 $
63870K0J4 0J420161116004011311/16/16 00:40:31  5-MIN K0J4 160540Z AUTO 00000KT 10SM FEW060 11/09 A3000 240 86 -100 000/00 RMK AO2 T01110089 $
63870K0J4 0J420161116004511311/16/16 00:45:31  5-MIN K0J4 160545Z AUTO 00000KT 10SM FEW055 11/09 A3000 240 86 -100 000/00 RMK AO2 T01110089 $
63870K0J4 0J420161116005011011/16/16 00:50:31  5-MIN K0J4 160550Z AUTO 00000KT 10SM FEW055 12/09 A3000 240 83 0 000/00 RMK AO2 T01170089 $
63870K0J4 0J420161116005513511/16/16 00:55:31  5-MIN K0J4 160555Z AUTO 00000KT 10SM FEW055 12/09 A3000 240 83 0 000/00 RMK AO2 SLP156 T01170089 10189 20111 51008 $
63870K0J4 0J420161116010011011/16/16 01:00:31  5-MIN K0J4 160600Z AUTO 00000KT 10SM CLR 11/09 A3000 240 86 -100 000/00 RMK AO2 T01110089 $
63870K0J4 0J420161116010511011/16/16 01:05:31  5-MIN K0J4 160605Z AUTO 00000KT 10SM CLR 11/09 A3000 250 89 -100 000/00 RMK AO2 T01060089 $
63870K0J4 0J420161116011011011/16/16 01:10:31  5-MIN K0J4 160610Z AUTO 00000KT 10SM CLR 11/08 A3000 250 86 -100 000/00 RMK AO2 T01060083 $
63870K0J4 0J420161116011511011/16/16 01:15:31  5-MIN K0J4 160615Z AUTO 00000KT 10SM CLR 11/09 A2999 250 86 -100 000/00 RMK AO2 T01110089 $
63870K0J4 0J420161116012011011/16/16 01:20:31  5-MIN K0J4 160620Z AUTO 00000KT 10SM CLR 11/08 A2999 250 86 -100 000/00 RMK AO2 T01060083 $
63870K0J4 0J420161116012511011/16/16 01:25:31  5-MIN K0J4 160625Z AUTO 00000KT 10SM CLR 10/08 A2999 250 89 -200 000/00 RMK AO2 T01000083 $
63870K0J4 0J420161116013011011/16/16 01:30:31  5-MIN K0J4 160630Z AUTO 00000KT 10SM CLR 10/08 A2999 250 89 -200 000/00 RMK AO2 T01000083 $
63870K0J4 0J420161116013511011/16/16 01:35:31  5-MIN K0J4 160635Z AUTO 00000KT 10SM CLR 10/08 A2999 250 89 -200 000/00 RMK AO2 T01000083 $
63870K0J4 0J420161116014011011/16/16 01:40:31  5-MIN K0J4 160640Z AUTO 00000KT 10SM CLR 11/08 A2999 250 86 -100 000/00 RMK AO2 T01060083 $
63870K0J4 0J420161116014511011/16/16 01:45:31  5-MIN K0J4 160645Z AUTO 00000KT 10SM CLR 10/08 A2999 250 89 -200 000/00 RMK AO2 T01000083 $
63870K0J4 0J420161116015011011/16/16 01:50:31  5-MIN K0J4 160650Z AUTO 00000KT 10SM CLR 10/08 A2999 250 89 -200 000/00 RMK AO2 T01000083 $
63870K0J4 0J420161116015511711/16/16 01:55:31  5-MIN K0J4 160655Z AUTO 00000KT 10SM CLR 09/08 A3000 250 93 -300 000/00 RMK AO2 SLP154 T00940083 $
63870K0J4 0J420161116020011011/16/16 02:00:31  5-MIN K0J4 160700Z AUTO 00000KT 10SM CLR 09/08 A3000 250 93 -300 000/00 RMK AO2 T00940083 $
63870K0J4 0J420161116020511011/16/16 02:05:31  5-MIN K0J4 160705Z AUTO 00000KT 10SM CLR 09/08 A3000 250 93 -300 000/00 RMK AO2 T00940083 $
63870K0J4 0J420161116021011011/16/16 02:10:31  5-MIN K0J4 160710Z AUTO 00000KT 10SM CLR 10/08 A3000 250 89 -200 000/00 RMK AO2 T01000083 $
63870K0J4 0J420161116021511011/16/16 02:15:31  5-MIN K0J4 160715Z AUTO 35003KT 10SM CLR 10/08 A3000 250 89 -200 350/03 RMK AO2 T01000083 $
63870K0J4 0J420161116022011011/16/16 02:20:31  5-MIN K0J4 160720Z AUTO 00000KT 10SM CLR 10/09 A3000 250 93 -200 000/00 RMK AO2 T01000089 $
63870K0J4 0J420161116022511011/16/16 02:25:31  5-MIN K0J4 160725Z AUTO 00000KT 10SM CLR 10/09 A3000 250 93 -200 000/00 RMK AO2 T01000089 $
63870K0J4 0J420161116023011011/16/16 02:30:31  5-MIN K0J4 160730Z AUTO 00000KT 10SM CLR 10/09 A3000 250 93 -200 000/00 RMK AO2 T01000089 $
63870K0J4 0J420161116023511011/16/16 02:35:31  5-MIN K0J4 160735Z AUTO 00000KT 10SM CLR 10/09 A3000 250 93 -200 000/00 RMK AO2 T01000089 $
63870K0J4 0J420161116024011011/16/16 02:40:31  5-MIN K0J4 160740Z AUTO 00000KT 10SM CLR 10/09 A3000 250 93 -200 000/00 RMK AO2 T01000089 $
63870K0J4 0J420161116024511011/16/16 02:45:31  5-MIN K0J4 160745Z AUTO 00000KT 10SM CLR 10/09 A3000 240 93 -200 000/00 RMK AO2 T01000089 $
63870K0J4 0J420161116025011011/16/16 02:50:31  5-MIN K0J4 160750Z AUTO 00000KT 10SM CLR 10/08 A3000 240 89 -200 000/00 RMK AO2 T01000083 $
63870K0J4 0J420161116025511711/16/16 02:55:31  5-MIN K0J4 160755Z AUTO 00000KT 10SM CLR 10/08 A3000 240 89 -200 000/00 RMK AO2 SLP157 T01000083 $
63870K0J4 0J420161116030011011/16/16 03:00:31  5-MIN K0J4 160800Z AUTO 00000KT 10SM CLR 09/08 A3000 240 93 -300 000/00 RMK AO2 T00940083 $
63870K0J4 0J420161116030511011/16/16 03:05:31  5-MIN K0J4 160805Z AUTO 00000KT 10SM CLR 09/08 A3000 240 93 -300 000/00 RMK AO2 T00940083 $
63870K0J4 0J420161116031011011/16/16 03:10:31  5-MIN K0J4 160810Z AUTO 00000KT 10SM CLR 09/08 A3000 240 93 -300 000/00 RMK AO2 T00890078 $
63870K0J4 0J420161116031510911/16/16 03:15:31  5-MIN K0J4 160815Z AUTO 00000KT 9SM CLR 09/08 A3000 240 93 -300 000/00 RMK AO2 T00890078 $
63870K0J4 0J420161116032011011/16/16 03:20:31  5-MIN K0J4 160820Z AUTO 00000KT 10SM CLR 08/07 A3000 240 93 -400 000/00 RMK AO2 T00830072 $
63870K0J4 0J420161116032511011/16/16 03:25:31  5-MIN K0J4 160825Z AUTO 00000KT 10SM CLR 08/07 A3001 240 89 -400 000/00 RMK AO2 T00830067 $
63870K0J4 0J420161116033011011/16/16 03:30:31  5-MIN K0J4 160830Z AUTO 32003KT 10SM CLR 09/07 A3001 240 86 -400 320/03 RMK AO2 T00890067 $
63870K0J4 0J420161116033511011/16/16 03:35:31  5-MIN K0J4 160835Z AUTO 00000KT 10SM CLR 09/07 A3001 240 89 -400 000/00 RMK AO2 T00890072 $
63870K0J4 0J420161116034011011/16/16 03:40:31  5-MIN K0J4 160840Z AUTO 32003KT 10SM CLR 09/07 A3000 240 89 -300 320/03 RMK AO2 T00890072 $
63870K0J4 0J420161116034511011/16/16 03:45:31  5-MIN K0J4 160845Z AUTO 00000KT 10SM CLR 08/07 A3001 240 93 -400 000/00 RMK AO2 T00830072 $
63870K0J4 0J420161116035011011/16/16 03:50:31  5-MIN K0J4 160850Z AUTO 00000KT 10SM CLR 09/07 A3001 240 89 -400 000/00 RMK AO2 T00890072 $
63870K0J4 0J420161116035512311/16/16 03:55:31  5-MIN K0J4 160855Z AUTO 00000KT 10SM CLR 08/07 A3001 240 93 -400 000/00 RMK AO2 SLP159 T00830072 58001 $
63870K0J4 0J420161116040011011/16/16 04:00:31  5-MIN K0J4 160900Z AUTO 00000KT 10SM CLR 08/07 A3001 240 89 -400 000/00 RMK AO2 T00830067 $
63870K0J4 0J420161116040511011/16/16 04:05:31  5-MIN K0J4 160905Z AUTO 00000KT 10SM CLR 08/07 A3001 240 93 -400 000/00 RMK AO2 T00830072 $
63870K0J4 0J420161116041011011/16/16 04:10:31  5-MIN K0J4 160910Z AUTO 00000KT 10SM CLR 08/06 A3001 240 89 -500 000/00 RMK AO2 T00780061 $
63870K0J4 0J420161116041511011/16/16 04:15:31  5-MIN K0J4 160915Z AUTO 00000KT 10SM CLR 08/07 A3001 240 93 -500 000/00 RMK AO2 T00780067 $
63870K0J4 0J420161116042011011/16/16 04:20:31  5-MIN K0J4 160920Z AUTO 00000KT 10SM CLR 08/07 A3001 240 89 -400 000/00 RMK AO2 T00830067 $
63870K0J4 0J420161116042511011/16/16 04:25:31  5-MIN K0J4 160925Z AUTO 00000KT 10SM CLR 08/07 A3001 240 89 -400 000/00 RMK AO2 T00830067 $
63870K0J4 0J420161116043011011/16/16 04:30:31  5-MIN K0J4 160930Z AUTO 00000KT 10SM CLR 08/07 A3001 240 89 -400 000/00 RMK AO2 T00830067 $
63870K0J4 0J420161116043511011/16/16 04:35:31  5-MIN K0J4 160935Z AUTO 00000KT 10SM CLR 08/07 A3001 240 93 -500 000/00 RMK AO2 T00780067 $
63870K0J4 0J420161116044011011/16/16 04:40:31  5-MIN K0J4 160940Z AUTO 00000KT 10SM CLR 08/06 A3001 230 89 -500 000/00 RMK AO2 T00780061 $
63870K0J4 0J420161116044511011/16/16 04:45:31  5-MIN K0J4 160945Z AUTO 00000KT 10SM CLR 08/06 A3001 230 86 -400 000/00 RMK AO2 T00830061 $
63870K0J4 0J420161116045011011/16/16 04:50:31  5-MIN K0J4 160950Z AUTO 00000KT 10SM CLR 08/06 A3001 230 89 -500 000/00 RMK AO2 T00780061 $
63870K0J4 0J420161116045511711/16/16 04:55:31  5-MIN K0J4 160955Z AUTO 00000KT 10SM CLR 08/06 A3001 230 89 -500 000/00 RMK AO2 SLP160 T00780061 $
63870K0J4 0J420161116050011011/16/16 05:00:31  5-MIN K0J4 161000Z AUTO 00000KT 10SM CLR 08/06 A3001 230 86 -400 000/00 RMK AO2 T00830061 $
63870K0J4 0J420161116050511011/16/16 05:05:31  5-MIN K0J4 161005Z AUTO 00000KT 10SM CLR 08/07 A3001 230 89 -400 000/00 RMK AO2 T00830067 $
63870K0J4 0J420161116051011011/16/16 05:10:31  5-MIN K0J4 161010Z AUTO 00000KT 10SM CLR 08/07 A3001 230 89 -400 000/00 RMK AO2 T00830067 $
63870K0J4 0J420161116051511011/16/16 05:15:31  5-MIN K0J4 161015Z AUTO 00000KT 10SM CLR 08/07 A3001 230 89 -400 000/00 RMK AO2 T00830067 $
63870K0J4 0J420161116052011011/16/16 05:20:31  5-MIN K0J4 161020Z AUTO 00000KT 10SM CLR 08/07 A3002 230 89 -400 000/00 RMK AO2 T00830067 $
63870K0J4 0J420161116052511011/16/16 05:25:31  5-MIN K0J4 161025Z AUTO 34003KT 10SM CLR 09/07 A3002 230 89 -400 340/03 RMK AO2 T00890072 $
63870K0J4 0J420161116053010911/16/16 05:30:31  5-MIN K0J4 161030Z AUTO 34003KT 9SM CLR 09/08 A3002 230 89 -300 340/03 RMK AO2 T00940078 $
63870K0J4 0J420161116053510911/16/16 05:35:31  5-MIN K0J4 161035Z AUTO 00000KT 9SM CLR 11/09 A3002 230 89 -100 000/00 RMK AO2 T01110094 $
63870K0J4 0J420161116054010911/16/16 05:40:31  5-MIN K0J4 161040Z AUTO 34003KT 9SM CLR 11/10 A3002 220 93 -100 340/03 RMK AO2 T01110100 $
63870K0J4 0J420161116054510611/16/16 05:45:31  5-MIN K0J4 161045Z AUTO 34003KT 9SM CLR 12/11 A3002 220 93 0 340/03 RMK AO2 T01170106 $
63870K0J4 0J420161116055010611/16/16 05:50:31  5-MIN K0J4 161050Z AUTO 34003KT 9SM CLR 12/11 A3002 220 93 0 340/03 RMK AO2 T01170106 $
63870K0J4 0J420161116055511611/16/16 05:55:31  5-MIN K0J4 161055Z AUTO 32003KT 9SM CLR 11/11 A3002 220 96 -100 320/03 RMK AO2 SLP164 T01110106 $
63870K0J4 0J420161116060010911/16/16 06:00:31  5-MIN K0J4 161100Z AUTO 33003KT 8SM CLR 11/10 A3002 220 96 -200 330/03 RMK AO2 T01060100 $
63870K0J4 0J420161116060510911/16/16 06:05:31  5-MIN K0J4 161105Z AUTO 33003KT 8SM CLR 11/10 A3002 220 96 -200 330/03 RMK AO2 T01060100 $
63870K0J4 0J420161116061010911/16/16 06:10:31  5-MIN K0J4 161110Z AUTO 34003KT 8SM CLR 11/10 A3002 220 93 -100 340/03 RMK AO2 T01110100 $
63870K0J4 0J420161116061510911/16/16 06:15:31  5-MIN K0J4 161115Z AUTO 00000KT 8SM CLR 11/10 A3003 220 93 -100 000/00 RMK AO2 T01110100 $
63870K0J4 0J420161116062010911/16/16 06:20:31  5-MIN K0J4 161120Z AUTO 33003KT 7SM CLR 11/10 A3003 220 93 -100 330/03 RMK AO2 T01110100 $
63870K0J4 0J420161116062510611/16/16 06:25:31  5-MIN K0J4 161125Z AUTO 00000KT 7SM CLR 12/11 A3003 210 93 0 000/00 RMK AO2 T01170106 $
63870K0J4 0J420161116063010911/16/16 06:30:31  5-MIN K0J4 161130Z AUTO 00000KT 7SM CLR 11/10 A3003 210 93 -100 000/00 RMK AO2 T01110100 $
63870K0J4 0J420161116063510911/16/16 06:35:31  5-MIN K0J4 161135Z AUTO VRB03KT 7SM CLR 11/10 A3003 210 93 -100 VRB/03 RMK AO2 T01110100 $
63870K0J4 0J420161116064010911/16/16 06:40:31  5-MIN K0J4 161140Z AUTO VRB03KT 7SM CLR 11/10 A3003 220 96 -200 VRB/03 RMK AO2 T01060100 $
63870K0J4 0J420161116064511311/16/16 06:45:31  5-MIN K0J4 161145Z AUTO 00000KT 6SM BR CLR 09/09 A3003 220 100 -300 000/00 RMK AO2 T00940094 $
63870K0J4 0J420161116065011211/16/16 06:50:31  5-MIN K0J4 161150Z AUTO 33003KT 6SM BR CLR 08/08 A3003 220 96 -400 330/03 RMK AO2 T00830078 $
63870K0J4 0J420161116065513711/16/16 06:55:31  5-MIN K0J4 161155Z AUTO 00000KT 6SM BR CLR 08/07 A3003 210 93 -500 000/00 RMK AO2 SLP168 T00780067 10117 20078 53003 $
63870K0J4 0J420161116070011211/16/16 07:00:31  5-MIN K0J4 161200Z AUTO 33003KT 6SM BR CLR 07/06 A3003 210 93 -600 330/03 RMK AO2 T00720061 $
63870K0J4 0J420161116070511211/16/16 07:05:31  5-MIN K0J4 161205Z AUTO 33003KT 6SM BR CLR 08/07 A3003 210 89 -400 330/03 RMK AO2 T00830067 $
63870K0J4 0J420161116071011211/16/16 07:10:31  5-MIN K0J4 161210Z AUTO 33003KT 5SM BR CLR 11/09 A3003 210 89 -200 330/03 RMK AO2 T01060089 $
63870K0J4 0J420161116071511211/16/16 07:15:31  5-MIN K0J4 161215Z AUTO 33004KT 5SM BR CLR 11/10 A3004 210 96 -200 330/04 RMK AO2 T01060100 $
63870K0J4 0J420161116072011211/16/16 07:20:31  5-MIN K0J4 161220Z AUTO 33003KT 5SM BR CLR 11/10 A3004 210 96 -200 330/03 RMK AO2 T01060100 $
63870K0J4 0J420161116072511211/16/16 07:25:31  5-MIN K0J4 161225Z AUTO 34003KT 5SM BR CLR 11/10 A3004 210 96 -200 340/03 RMK AO2 T01060100 $
63870K0J4 0J420161116073011211/16/16 07:30:31  5-MIN K0J4 161230Z AUTO 33003KT 4SM BR CLR 11/10 A3004 210 96 -200 330/03 RMK AO2 T01060100 $
63870K0J4 0J420161116073511211/16/16 07:35:31  5-MIN K0J4 161235Z AUTO 34003KT 4SM BR CLR 11/10 A3004 200 93 -100 340/03 RMK AO2 T01110100 $
63870K0J4 0J420161116074011311/16/16 07:40:31  5-MIN K0J4 161240Z AUTO VRB03KT 4SM BR CLR 11/11 A3004 200 100 -200 VRB/03 RMK AO2 T01060106 $
63870K0J4 0J420161116074511211/16/16 07:45:31  5-MIN K0J4 161245Z AUTO 34003KT 4SM BR CLR 11/11 A3005 200 96 -100 340/03 RMK AO2 T01110106 $
63870K0J4 0J420161116075011311/16/16 07:50:31  5-MIN K0J4 161250Z AUTO 34003KT 4SM BR CLR 11/11 A3005 200 100 -200 340/03 RMK AO2 T01060106 $
63870K0J4 0J420161116075511911/16/16 07:55:31  5-MIN K0J4 161255Z AUTO 00000KT 4SM BR CLR 11/11 A3005 190 96 -100 000/00 RMK AO2 SLP175 T01110106 $
63870K0J4 0J420161116080011211/16/16 08:00:31  5-MIN K0J4 161300Z AUTO VRB03KT 4SM BR CLR 11/10 A3006 190 93 -100 VRB/03 RMK AO2 T01110100 $
63870K0J4 0J420161116080511211/16/16 08:05:31  5-MIN K0J4 161305Z AUTO VRB03KT 4SM BR CLR 11/10 A3006 190 93 -100 VRB/03 RMK AO2 T01110100 $
63870K0J4 0J420161116081011211/16/16 08:10:31  5-MIN K0J4 161310Z AUTO 34003KT 4SM BR CLR 11/10 A3006 190 93 -100 340/03 RMK AO2 T01110100 $
63870K0J4 0J420161116081511011/16/16 08:15:31  5-MIN K0J4 161315Z AUTO 35003KT 5SM BR CLR 12/11 A3006 180 93 -100 350/03 RMK AO2 T01170106
63870K0J4 0J420161116082011211/16/16 08:20:31  5-MIN K0J4 161320Z AUTO 35003KT 4SM BR CLR 12/11 A3006 180 93 -100 350/03 RMK AO2 T01170106 $
63870K0J4 0J420161116082511211/16/16 08:25:31  5-MIN K0J4 161325Z AUTO 36004KT 4SM BR CLR 12/10 A3006 180 89 -100 360/04 RMK AO2 T01170100 $
63870K0J4 0J420161116083011011/16/16 08:30:31  5-MIN K0J4 161330Z AUTO 36005KT 4SM BR CLR 12/10 A3006 180 89 -100 360/05 RMK AO2 T01170100
63870K0J4 0J420161116083511211/16/16 08:35:31  5-MIN K0J4 161335Z AUTO 36005KT 4SM BR CLR 12/10 A3007 180 89 -100 360/05 RMK AO2 T01170100 $
63870K0J4 0J420161116084011211/16/16 08:40:31  5-MIN K0J4 161340Z AUTO 36005KT 4SM BR CLR 12/10 A3007 180 89 -100 360/05 RMK AO2 T01170100 $
63870K0J4 0J420161116084511211/16/16 08:45:31  5-MIN K0J4 161345Z AUTO 36005KT 5SM BR CLR 12/11 A3007 180 93 -100 360/05 RMK AO2 T01170106 $
63870K0J4 0J420161116085010911/16/16 08:50:31  5-MIN K0J4 161350Z AUTO 01004KT 5SM BR CLR 12/11 A3007 180 89 0 010/04 RMK AO2 T01220106 $
63870K0J4 0J420161116085511611/16/16 08:55:31  5-MIN K0J4 161355Z AUTO 36005KT 6SM BR CLR 13/11 A3007 180 86 0 360/05 RMK AO2 SLP181 T01280106 $
63870K0J4 0J420161116090010911/16/16 09:00:31  5-MIN K0J4 161400Z AUTO VRB04KT 6SM BR CLR 13/11 A3007 180 89 0 VRB/04 RMK AO2 T01280111 $
63870K0J4 0J420161116090510811/16/16 09:05:31  5-MIN K0J4 161405Z AUTO 36005KT 7SM CLR 13/11 A3007 180 86 100 360/05 RMK AO2 T01330111 $
63870K0J4 0J420161116091010811/16/16 09:10:31  5-MIN K0J4 161410Z AUTO 36005KT 8SM CLR 13/11 A3007 180 86 100 360/05 RMK AO2 T01330111 $
63870K0J4 0J420161116091510811/16/16 09:15:31  5-MIN K0J4 161415Z AUTO 35005KT 8SM CLR 13/11 A3007 180 86 100 350/05 RMK AO2 T01330111 $
63870K0J4 0J420161116092012411/16/16 09:20:31  5-MIN K0J4 161420Z AUTO 36005KT 8SM -RA CLR 14/11 A3007 180 83 100 360/05 RMK AO2 RAB19 P0000 T01390111 $
63870K0J4 0J420161116092512411/16/16 09:25:31  5-MIN K0J4 161425Z AUTO 01005KT 9SM -RA CLR 14/11 A3007 180 83 100 010/05 RMK AO2 RAB19 P0000 T01390111 $
63870K0J4 0J420161116093012511/16/16 09:30:31  5-MIN K0J4 161430Z AUTO 01005KT 10SM -RA CLR 14/12 A3007 180 83 200 010/05 RMK AO2 RAB19 P0000 T01440117 $
63870K0J4 0J420161116093512411/16/16 09:35:31  5-MIN K0J4 161435Z AUTO 36005KT 10SM CLR 16/12 A3007 180 77 300 360/05 RMK AO2 RAB19E32 P0000 T01560117 $
63870K0J4 0J420161116094012411/16/16 09:40:31  5-MIN K0J4 161440Z AUTO 01005KT 10SM CLR 16/12 A3007 180 77 300 010/05 RMK AO2 RAB19E32 P0000 T01560117 $
63870K0J4 0J420161116094512411/16/16 09:45:31  5-MIN K0J4 161445Z AUTO 36004KT 10SM CLR 16/12 A3007 180 75 400 360/04 RMK AO2 RAB19E32 P0000 T01610117 $
63870K0J4 0J420161116095012411/16/16 09:50:31  5-MIN K0J4 161450Z AUTO VRB04KT 10SM CLR 17/12 A3007 180 75 500 VRB/04 RMK AO2 RAB19E32 P0000 T01670122 $
63870K0J4 0J420161116095514311/16/16 09:55:31  5-MIN K0J4 161455Z AUTO 36004KT 10SM CLR 17/12 A3007 180 72 500 360/04 RMK AO2 RAB19E32 SLP181 P0000 60000 T01670117 53008 $
63870K0J4 0J420161116100010911/16/16 10:00:31  5-MIN K0J4 161500Z AUTO 36004KT 10SM CLR 17/12 A3007 180 72 500 360/04 RMK AO2 T01720122 $
63870K0J4 0J420161116100510911/16/16 10:05:31  5-MIN K0J4 161505Z AUTO 36005KT 10SM CLR 17/12 A3007 180 72 500 360/05 RMK AO2 T01720122 $
63870K0J4 0J420161116101010911/16/16 10:10:31  5-MIN K0J4 161510Z AUTO 36007KT 10SM CLR 18/12 A3007 180 69 600 360/07 RMK AO2 T01780122 $
63870K0J4 0J420161116101510911/16/16 10:15:31  5-MIN K0J4 161515Z AUTO VRB05KT 10SM CLR 18/12 A3006 180 69 600 VRB/05 RMK AO2 T01780122 $
63870K0J4 0J420161116102010911/16/16 10:20:31  5-MIN K0J4 161520Z AUTO 01006KT 10SM CLR 18/12 A3006 180 67 700 010/06 RMK AO2 T01830122 $
63870K0J4 0J420161116102510911/16/16 10:25:31  5-MIN K0J4 161525Z AUTO VRB06KT 10SM CLR 18/12 A3007 180 67 700 VRB/06 RMK AO2 T01830122 $
63870K0J4 0J420161116103010911/16/16 10:30:31  5-MIN K0J4 161530Z AUTO 03004KT 10SM CLR 19/12 A3006 180 65 700 030/04 RMK AO2 T01890122 $
63870K0J4 0J420161116103510911/16/16 10:35:31  5-MIN K0J4 161535Z AUTO VRB04KT 10SM CLR 19/12 A3006 180 65 700 VRB/04 RMK AO2 T01890122 $
63870K0J4 0J420161116104010911/16/16 10:40:31  5-MIN K0J4 161540Z AUTO VRB05KT 10SM CLR 19/12 A3007 180 62 800 VRB/05 RMK AO2 T01940122 $
63870K0J4 0J420161116104510911/16/16 10:45:31  5-MIN K0J4 161545Z AUTO 02006KT 10SM CLR 19/12 A3007 180 62 800 020/06 RMK AO2 T01940122 $
63870K0J4 0J420161116105010911/16/16 10:50:31  5-MIN K0J4 161550Z AUTO VRB05KT 10SM CLR 20/12 A3007 180 60 800 VRB/05 RMK AO2 T02000122 $
63870K0J4 0J420161116105511611/16/16 10:55:31  5-MIN K0J4 161555Z AUTO 01005KT 10SM CLR 20/12 A3007 180 58 800 010/05 RMK AO2 SLP178 T02000117 $
63870K0J4 0J420161116110010911/16/16 11:00:31  5-MIN K0J4 161600Z AUTO 36007KT 10SM CLR 20/12 A3006 180 58 900 360/07 RMK AO2 T02000117 $
63870K0J4 0J420161116110510911/16/16 11:05:31  5-MIN K0J4 161605Z AUTO 03008KT 10SM CLR 21/12 A3006 180 56 900 030/08 RMK AO2 T02060117 $
63870K0J4 0J420161116111010911/16/16 11:10:31  5-MIN K0J4 161610Z AUTO 02008KT 10SM CLR 21/11 A3006 180 54 900 020/08 RMK AO2 T02060111 $
63870K0J4 0J420161116111510911/16/16 11:15:31  5-MIN K0J4 161615Z AUTO 36006KT 10SM CLR 21/12 A3006 180 56 900 360/06 RMK AO2 T02060117 $
63870K0J4 0J420161116112010911/16/16 11:20:31  5-MIN K0J4 161620Z AUTO 02006KT 10SM CLR 21/11 A3006 180 54 900 020/06 RMK AO2 T02060111 $
63870K0J4 0J420161116112511011/16/16 11:25:31  5-MIN K0J4 161625Z AUTO 01007KT 10SM CLR 21/11 A3006 190 52 1000 010/07 RMK AO2 T02110111 $
63870K0J4 0J420161116113011011/16/16 11:30:31  5-MIN K0J4 161630Z AUTO 36007KT 10SM CLR 21/11 A3006 190 50 1000 360/07 RMK AO2 T02110106 $
63870K0J4 0J420161116113511011/16/16 11:35:31  5-MIN K0J4 161635Z AUTO 03008KT 10SM CLR 21/11 A3006 190 52 1000 030/08 RMK AO2 T02110111 $
63870K0J4 0J420161116114011011/16/16 11:40:31  5-MIN K0J4 161640Z AUTO 02008KT 10SM CLR 21/11 A3005 190 52 1000 020/08 RMK AO2 T02110111 $
63870K0J4 0J420161116114511011/16/16 11:45:31  5-MIN K0J4 161645Z AUTO 04008KT 10SM CLR 21/12 A3005 190 54 1000 040/08 RMK AO2 T02110117 $
63870K0J4 0J420161116115011011/16/16 11:50:31  5-MIN K0J4 161650Z AUTO VRB03KT 10SM CLR 21/11 A3005 190 50 1000 VRB/03 RMK AO2 T02110106 $
63870K0J4 0J420161116115511711/16/16 11:55:31  5-MIN K0J4 161655Z AUTO 05008KT 10SM CLR 22/11 A3005 200 49 1100 050/08 RMK AO2 SLP172 T02170106 $
63870K0J4 0J420161116120011011/16/16 12:00:31  5-MIN K0J4 161700Z AUTO 03007KT 10SM CLR 22/11 A3005 200 49 1100 030/07 RMK AO2 T02170106 $
63870K0J4 0J420161116120512611/16/16 12:05:31  5-MIN K0J4 161705Z AUTO 04009KT 010V080 10SM CLR 22/11 A3005 200 49 1100 040/09 010V080 RMK AO2 T02220111 $
63870K0J4 0J420161116121011011/16/16 12:10:31  5-MIN K0J4 161710Z AUTO 01007KT 10SM CLR 22/11 A3005 200 50 1100 010/07 RMK AO2 T02170111 $
63870K0J4 0J420161116121511011/16/16 12:15:31  5-MIN K0J4 161715Z AUTO VRB06KT 10SM CLR 22/11 A3004 200 50 1100 VRB/06 RMK AO2 T02170111 $
63870K0J4 0J420161116122011011/16/16 12:20:31  5-MIN K0J4 161720Z AUTO 03007KT 10SM CLR 22/10 A3004 210 45 1100 030/07 RMK AO2 T02220100 $
63870K0J4 0J420161116122511011/16/16 12:25:31  5-MIN K0J4 161725Z AUTO VRB05KT 10SM CLR 22/09 A3004 210 43 1100 VRB/05 RMK AO2 T02220094 $
63870K0J4 0J420161116123011011/16/16 12:30:31  5-MIN K0J4 161730Z AUTO VRB06KT 10SM CLR 23/09 A3004 210 42 1200 VRB/06 RMK AO2 T02280094 $
63870K0J4 0J420161116123511011/16/16 12:35:31  5-MIN K0J4 161735Z AUTO VRB05KT 10SM CLR 22/09 A3003 210 43 1100 VRB/05 RMK AO2 T02220094 $
63870K0J4 0J420161116124011011/16/16 12:40:31  5-MIN K0J4 161740Z AUTO 36008KT 10SM CLR 22/09 A3003 210 43 1100 360/08 RMK AO2 T02220094 $
63870K0J4 0J420161116124511011/16/16 12:45:31  5-MIN K0J4 161745Z AUTO VRB06KT 10SM CLR 22/09 A3003 220 43 1100 VRB/06 RMK AO2 T02220094 $
63870K0J4 0J420161116125011011/16/16 12:50:31  5-MIN K0J4 161750Z AUTO 35006KT 10SM CLR 23/09 A3003 220 42 1200 350/06 RMK AO2 T02280094 $
63870K0J4 0J420161116125515711/16/16 12:55:31  5-MIN K0J4 161755Z AUTO 36007KT 330V030 10SM CLR 22/08 A3002 220 39 1200 360/07 330V030 RMK AO2 SLP164 60000 T02220078 10228 20072 50012 $
63870K0J4 0J420161116130011011/16/16 13:00:31  5-MIN K0J4 161800Z AUTO 34006KT 10SM CLR 22/09 A3002 220 42 1200 340/06 RMK AO2 T02220089 $
63870K0J4 0J420161116130511011/16/16 13:05:31  5-MIN K0J4 161805Z AUTO 03007KT 10SM CLR 23/08 A3002 220 39 1200 030/07 RMK AO2 T02280083 $
63870K0J4 0J420161116131011011/16/16 13:10:31  5-MIN K0J4 161810Z AUTO 03007KT 10SM CLR 23/08 A3002 230 39 1200 030/07 RMK AO2 T02280083 $
63870K0J4 0J420161116131511011/16/16 13:15:31  5-MIN K0J4 161815Z AUTO 03007KT 10SM CLR 23/09 A3002 230 39 1300 030/07 RMK AO2 T02330089 $
63870K0J4 0J420161116132011011/16/16 13:20:31  5-MIN K0J4 161820Z AUTO 03008KT 10SM CLR 23/08 A3001 230 38 1300 030/08 RMK AO2 T02330083 $
63870K0J4 0J420161116132511011/16/16 13:25:31  5-MIN K0J4 161825Z AUTO 04007KT 10SM CLR 23/08 A3001 230 39 1200 040/07 RMK AO2 T02280083 $
63870K0J4 0J420161116133012611/16/16 13:30:31  5-MIN K0J4 161830Z AUTO 01008KT 340V040 10SM CLR 23/08 A3001 230 36 1300 010/08 340V040 RMK AO2 T02330078 $
63870K0J4 0J420161116133511011/16/16 13:35:31  5-MIN K0J4 161835Z AUTO 34007KT 10SM CLR 23/07 A3001 230 36 1200 340/07 RMK AO2 T02280072 $
63870K0J4 0J420161116134011011/16/16 13:40:31  5-MIN K0J4 161840Z AUTO VRB04KT 10SM CLR 23/07 A3001 240 33 1300 VRB/04 RMK AO2 T02330067 $
63870K0J4 0J420161116134511011/16/16 13:45:31  5-MIN K0J4 161845Z AUTO 36007KT 10SM CLR 23/07 A3000 240 36 1200 360/07 RMK AO2 T02280072 $
63870K0J4 0J420161116135011011/16/16 13:50:31  5-MIN K0J4 161850Z AUTO 35005KT 10SM CLR 23/08 A3000 240 36 1300 350/05 RMK AO2 T02330078 $
63870K0J4 0J420161116135511711/16/16 13:55:31  5-MIN K0J4 161855Z AUTO VRB04KT 10SM CLR 23/07 A3000 240 35 1300 VRB/04 RMK AO2 SLP157 T02330072 $
63870K0J4 0J420161116140011011/16/16 14:00:31  5-MIN K0J4 161900Z AUTO 35006KT 10SM CLR 23/07 A3000 240 33 1300 350/06 RMK AO2 T02330067 $
63870K0J4 0J420161116140514111/16/16 14:05:31  5-MIN K0J4 161905Z AUTO 36007KT 320V020 10SM CLR 23/06 A3000 240 32 1300 360/07 320V020 RMK AO2 RAB03E05 P0000 T02330061 $
63870K0J4 0J420161116141012511/16/16 14:10:31  5-MIN K0J4 161910Z AUTO VRB04KT 10SM CLR 23/06 A3000 240 33 1200 VRB/04 RMK AO2 RAB03E05 P0000 T02280061 $
63870K0J4 0J420161116141512511/16/16 14:15:31  5-MIN K0J4 161915Z AUTO 03007KT 10SM CLR 23/06 A3000 240 32 1300 030/07 RMK AO2 RAB03E05 P0000 T02330061 $
63870K0J4 0J420161116142012511/16/16 14:20:31  5-MIN K0J4 161920Z AUTO 01005KT 10SM CLR 23/07 A3000 240 33 1300 010/05 RMK AO2 RAB03E05 P0000 T02330067 $
63870K0J4 0J420161116142512511/16/16 14:25:31  5-MIN K0J4 161925Z AUTO VRB05KT 10SM CLR 23/06 A3000 240 32 1300 VRB/05 RMK AO2 RAB03E05 P0000 T02330061 $
63870K0J4 0J420161116143012511/16/16 14:30:31  5-MIN K0J4 161930Z AUTO VRB06KT 10SM CLR 24/06 A3000 240 31 1400 VRB/06 RMK AO2 RAB03E05 P0000 T02390061 $
63870K0J4 0J420161116143512511/16/16 14:35:31  5-MIN K0J4 161935Z AUTO 01007KT 10SM CLR 23/06 A3000 240 32 1300 010/07 RMK AO2 RAB03E05 P0000 T02330061 $
63870K0J4 0J420161116144012511/16/16 14:40:31  5-MIN K0J4 161940Z AUTO VRB05KT 10SM CLR 23/06 A3000 240 32 1300 VRB/05 RMK AO2 RAB03E05 P0000 T02330061 $
63870K0J4 0J420161116144514111/16/16 14:45:31  5-MIN K0J4 161945Z AUTO 02008KT 340V050 10SM CLR 24/06 A3000 250 31 1400 020/08 340V050 RMK AO2 RAB03E05 P0000 T02390061 $
63870K0J4 0J420161116145012511/16/16 14:50:31  5-MIN K0J4 161950Z AUTO 02008KT 10SM CLR 24/07 A3000 250 32 1400 020/08 RMK AO2 RAB03E05 P0000 T02390067 $
63870K0J4 0J420161116145513211/16/16 14:55:31  5-MIN K0J4 161955Z AUTO 02009KT 10SM CLR 23/07 A2999 250 35 1300 020/09 RMK AO2 RAB03E05 SLP154 P0000 T02330072 $
63870K0J4 0J420161116150012611/16/16 15:00:31  5-MIN K0J4 162000Z AUTO 01007KT 330V040 10SM CLR 23/07 A3000 250 35 1300 010/07 330V040 RMK AO2 T02330072 $
63870K0J4 0J420161116150511011/16/16 15:05:31  5-MIN K0J4 162005Z AUTO VRB06KT 10SM CLR 23/07 A3000 250 35 1300 VRB/06 RMK AO2 T02330072 $
63870K0J4 0J420161116151011011/16/16 15:10:31  5-MIN K0J4 162010Z AUTO 03006KT 10SM CLR 24/07 A3000 240 32 1400 030/06 RMK AO2 T02390067 $
63870K0J4 0J420161116151511011/16/16 15:15:31  5-MIN K0J4 162015Z AUTO 00000KT 10SM CLR 24/07 A3000 240 34 1400 000/00 RMK AO2 T02390072 $
63870K0J4 0J420161116152011011/16/16 15:20:31  5-MIN K0J4 162020Z AUTO VRB04KT 10SM CLR 24/07 A3000 240 34 1400 VRB/04 RMK AO2 T02390072 $
63870K0J4 0J420161116152511011/16/16 15:25:31  5-MIN K0J4 162025Z AUTO 03005KT 10SM CLR 24/07 A3000 240 34 1400 030/05 RMK AO2 T02390072 $
63870K0J4 0J420161116153011011/16/16 15:30:31  5-MIN K0J4 162030Z AUTO VRB05KT 10SM CLR 24/08 A3000 240 35 1400 VRB/05 RMK AO2 T02390078 $
63870K0J4 0J420161116153511011/16/16 15:35:31  5-MIN K0J4 162035Z AUTO VRB05KT 10SM CLR 23/07 A3000 240 35 1300 VRB/05 RMK AO2 T02330072 $
63870K0J4 0J420161116154011011/16/16 15:40:31  5-MIN K0J4 162040Z AUTO 01003KT 10SM CLR 24/07 A3000 240 34 1400 010/03 RMK AO2 T02390072 $
63870K0J4 0J420161116154511011/16/16 15:45:31  5-MIN K0J4 162045Z AUTO 01006KT 10SM CLR 24/07 A3000 240 34 1400 010/06 RMK AO2 T02390072 $
63870K0J4 0J420161116155011011/16/16 15:50:31  5-MIN K0J4 162050Z AUTO VRB04KT 10SM CLR 23/07 A3000 240 35 1300 VRB/04 RMK AO2 T02330072 $
63870K0J4 0J420161116155512911/16/16 15:55:31  5-MIN K0J4 162055Z AUTO VRB03KT 10SM CLR 24/07 A3000 240 34 1400 VRB/03 RMK AO2 SLP157 60000 T02390072 58015 $
63870K0J4 0J420161116160011011/16/16 16:00:31  5-MIN K0J4 162100Z AUTO 02007KT 10SM CLR 24/07 A3000 240 34 1400 020/07 RMK AO2 T02390072 $
63870K0J4 0J420161116160511011/16/16 16:05:31  5-MIN K0J4 162105Z AUTO 01007KT 10SM CLR 23/07 A3000 240 33 1300 010/07 RMK AO2 T02330067 $
63870K0J4 0J420161116161011011/16/16 16:10:31  5-MIN K0J4 162110Z AUTO VRB03KT 10SM CLR 23/07 A3000 240 35 1300 VRB/03 RMK AO2 T02330072 $
63870K0J4 0J420161116161511011/16/16 16:15:31  5-MIN K0J4 162115Z AUTO 01006KT 10SM CLR 23/07 A3000 240 35 1300 010/06 RMK AO2 T02330072 $
63870K0J4 0J420161116162011011/16/16 16:20:31  5-MIN K0J4 162120Z AUTO 02005KT 10SM CLR 23/08 A3000 240 36 1300 020/05 RMK AO2 T02330078 $
63870K0J4 0J420161116162511011/16/16 16:25:31  5-MIN K0J4 162125Z AUTO VRB04KT 10SM CLR 23/08 A3000 240 36 1300 VRB/04 RMK AO2 T02330078 $
63870K0J4 0J420161116163011011/16/16 16:30:31  5-MIN K0J4 162130Z AUTO 34004KT 10SM CLR 23/08 A3000 240 36 1300 340/04 RMK AO2 T02330078 $
63870K0J4 0J420161116163511011/16/16 16:35:31  5-MIN K0J4 162135Z AUTO 01005KT 10SM CLR 23/08 A3000 240 39 1200 010/05 RMK AO2 T02280083 $
63870K0J4 0J420161116164011011/16/16 16:40:31  5-MIN K0J4 162140Z AUTO 02003KT 10SM CLR 23/08 A3000 240 39 1200 020/03 RMK AO2 T02280083 $
63870K0J4 0J420161116164511011/16/16 16:45:31  5-MIN K0J4 162145Z AUTO VRB03KT 10SM CLR 23/08 A3000 240 39 1200 VRB/03 RMK AO2 T02280083 $
63870K0J4 0J420161116165011011/16/16 16:50:31  5-MIN K0J4 162150Z AUTO 35003KT 10SM CLR 23/08 A3000 240 39 1200 350/03 RMK AO2 T02280083 $
63870K0J4 0J420161116165511711/16/16 16:55:31  5-MIN K0J4 162155Z AUTO 35003KT 10SM CLR 22/08 A3000 240 40 1200 350/03 RMK AO2 SLP156 T02220083 $
63870K0J4 0J420161116170011011/16/16 17:00:31  5-MIN K0J4 162200Z AUTO 00000KT 10SM CLR 22/08 A3000 240 40 1200 000/00 RMK AO2 T02220083 $
63870K0J4 0J420161116170511011/16/16 17:05:31  5-MIN K0J4 162205Z AUTO VRB03KT 10SM CLR 22/08 A3000 240 40 1200 VRB/03 RMK AO2 T02220083 $
63870K0J4 0J420161116171011011/16/16 17:10:31  5-MIN K0J4 162210Z AUTO 00000KT 10SM CLR 22/08 A3000 240 42 1100 000/00 RMK AO2 T02170083 $
63870K0J4 0J420161116171511011/16/16 17:15:31  5-MIN K0J4 162215Z AUTO 35003KT 10SM CLR 22/08 A3001 240 40 1100 350/03 RMK AO2 T02170078 $
63870K0J4 0J420161116172011011/16/16 17:20:31  5-MIN K0J4 162220Z AUTO 00000KT 10SM CLR 21/08 A3001 240 43 1000 000/00 RMK AO2 T02110083 $
63870K0J4 0J420161116172511011/16/16 17:25:31  5-MIN K0J4 162225Z AUTO 35003KT 10SM CLR 21/08 A3001 240 43 1000 350/03 RMK AO2 T02110083 $
63870K0J4 0J420161116173010911/16/16 17:30:31  5-MIN K0J4 162230Z AUTO 00000KT 10SM CLR 20/08 A3001 240 46 900 000/00 RMK AO2 T02000083 $
63870K0J4 0J420161116173510911/16/16 17:35:31  5-MIN K0J4 162235Z AUTO 00000KT 10SM CLR 19/09 A3001 240 50 900 000/00 RMK AO2 T01940089 $
63870K0J4 0J420161116174010911/16/16 17:40:31  5-MIN K0J4 162240Z AUTO 00000KT 10SM CLR 19/09 A3001 240 50 900 000/00 RMK AO2 T01940089 $
63870K0J4 0J420161116174510911/16/16 17:45:31  5-MIN K0J4 162245Z AUTO 00000KT 10SM CLR 18/09 A3001 230 55 700 000/00 RMK AO2 T01780089 $
63870K0J4 0J420161116175010911/16/16 17:50:31  5-MIN K0J4 162250Z AUTO 00000KT 10SM CLR 17/09 A3001 230 57 600 000/00 RMK AO2 T01720089 $
63870K0J4 0J420161116175511611/16/16 17:55:31  5-MIN K0J4 162255Z AUTO 00000KT 10SM CLR 17/09 A3001 230 60 600 000/00 RMK AO2 SLP161 T01720094 $
63870K0J4 0J420161116180010911/16/16 18:00:31  5-MIN K0J4 162300Z AUTO 00000KT 10SM CLR 17/09 A3001 230 60 600 000/00 RMK AO2 T01720094 $
63870K0J4 0J420161116180510911/16/16 18:05:31  5-MIN K0J4 162305Z AUTO 00000KT 10SM CLR 16/09 A3001 230 64 400 000/00 RMK AO2 T01560089 $
63870K0J4 0J420161116181012511/16/16 18:10:31  5-MIN K0J4 162310Z AUTO 00000KT 10SM -RA CLR 17/09 A3001 230 60 500 000/00 RMK AO2 RAB08 P0000 T01670089 $
63870K0J4 0J420161116181512511/16/16 18:15:31  5-MIN K0J4 162315Z AUTO 00000KT 10SM -RA CLR 16/09 A3002 230 62 500 000/00 RMK AO2 RAB08 P0000 T01610089 $
63870K0J4 0J420161116182012411/16/16 18:20:31  5-MIN K0J4 162320Z AUTO 00000KT 10SM CLR 16/09 A3002 230 62 500 000/00 RMK AO2 RAB08E16 P0000 T01610089 $
63870K0J4 0J420161116182512411/16/16 18:25:31  5-MIN K0J4 162325Z AUTO 00000KT 10SM CLR 16/09 A3002 230 64 400 000/00 RMK AO2 RAB08E16 P0000 T01560089 $
63870K0J4 0J420161116183012511/16/16 18:30:31  5-MIN K0J4 162330Z AUTO 00000KT 10SM -RA CLR 15/09 A3002 220 69 300 000/00 RMK AO2 RAB08 P0000 T01500094 $
63870K0J4 0J420161116183512511/16/16 18:35:31  5-MIN K0J4 162335Z AUTO 00000KT 10SM -RA CLR 14/09 A3002 220 69 200 000/00 RMK AO2 RAB08 P0000 T01440089 $
63870K0J4 0J420161116184012411/16/16 18:40:31  5-MIN K0J4 162340Z AUTO 00000KT 10SM CLR 14/09 A3002 220 72 200 000/00 RMK AO2 RAB08E39 P0000 T01440094 $
63870K0J4 0J420161116184512411/16/16 18:45:31  5-MIN K0J4 162345Z AUTO 00000KT 10SM CLR 14/09 A3003 220 72 200 000/00 RMK AO2 RAB08E39 P0000 T01440094 $
63870K0J4 0J420161116185012411/16/16 18:50:31  5-MIN K0J4 162350Z AUTO 00000KT 10SM CLR 14/09 A3003 220 72 200 000/00 RMK AO2 RAB08E39 P0000 T01440094 $
63870K0J4 0J420161116185515511/16/16 18:55:31  5-MIN K0J4 162355Z AUTO 00000KT 10SM CLR 14/09 A3003 210 71 200 000/00 RMK AO2 RAB08E39 SLP168 P0000 60000 T01390089 10239 20139 55007 $
63870K0J4 0J420161116190010911/16/16 19:00:31  5-MIN K0J4 170000Z AUTO 00000KT 10SM CLR 14/09 A3003 210 71 200 000/00 RMK AO2 T01390089 $
63870K0J4 0J420161116190510911/16/16 19:05:31  5-MIN K0J4 170005Z AUTO 00000KT 10SM CLR 14/09 A3004 210 71 200 000/00 RMK AO2 T01390089 $
63870K0J4 0J420161116191010911/16/16 19:10:31  5-MIN K0J4 170010Z AUTO 00000KT 10SM CLR 13/09 A3004 210 74 100 000/00 RMK AO2 T01330089 $
63870K0J4 0J420161116191510911/16/16 19:15:31  5-MIN K0J4 170015Z AUTO 00000KT 10SM CLR 13/09 A3004 210 74 100 000/00 RMK AO2 T01330089 $
63870K0J4 0J420161116192010711/16/16 19:20:31  5-MIN K0J4 170020Z AUTO 00000KT 10SM CLR 13/09 A3004 210 77 0 000/00 RMK AO2 T01280089 $
63870K0J4 0J420161116192510711/16/16 19:25:31  5-MIN K0J4 170025Z AUTO 00000KT 10SM CLR 13/09 A3004 200 77 0 000/00 RMK AO2 T01280089 $
63870K0J4 0J420161116193010911/16/16 19:30:31  5-MIN K0J4 170030Z AUTO 00000KT 10SM CLR 13/09 A3004 200 74 100 000/00 RMK AO2 T01330089 $
63870K0J4 0J420161116193511011/16/16 19:35:31  5-MIN K0J4 170035Z AUTO 00000KT 10SM CLR 12/08 A3004 200 80 -100 000/00 RMK AO2 T01170083 $
63870K0J4 0J420161116194010711/16/16 19:40:31  5-MIN K0J4 170040Z AUTO 00000KT 10SM CLR 13/08 A3005 200 74 0 000/00 RMK AO2 T01280083 $
63870K0J4 0J420161116194510711/16/16 19:45:31  5-MIN K0J4 170045Z AUTO 00000KT 10SM CLR 13/08 A3005 200 74 0 000/00 RMK AO2 T01280083 $
63870K0J4 0J420161116195010711/16/16 19:50:31  5-MIN K0J4 170050Z AUTO 00000KT 10SM CLR 12/08 A3005 200 77 0 000/00 RMK AO2 T01220083 $
63870K0J4 0J420161116195511411/16/16 19:55:31  5-MIN K0J4 170055Z AUTO 00000KT 10SM CLR 12/08 A3005 200 77 0 000/00 RMK AO2 SLP174 T01220083 $
63870K0J4 0J420161116200010711/16/16 20:00:31  5-MIN K0J4 170100Z AUTO 00000KT 10SM CLR 12/08 A3005 200 77 0 000/00 RMK AO2 T01220083 $
63870K0J4 0J420161116200511011/16/16 20:05:31  5-MIN K0J4 170105Z AUTO 00000KT 10SM CLR 12/08 A3005 200 77 -100 000/00 RMK AO2 T01170078 $
63870K0J4 0J420161116201011011/16/16 20:10:31  5-MIN K0J4 170110Z AUTO 00000KT 10SM CLR 12/08 A3005 190 80 -100 000/00 RMK AO2 T01170083 $
63870K0J4 0J420161116201511011/16/16 20:15:31  5-MIN K0J4 170115Z AUTO 00000KT 10SM CLR 11/08 A3005 190 80 -100 000/00 RMK AO2 T01110078 $
63870K0J4 0J420161116202011011/16/16 20:20:31  5-MIN K0J4 170120Z AUTO 00000KT 10SM CLR 12/08 A3005 190 77 -100 000/00 RMK AO2 T01170078 $
63870K0J4 0J420161116202511011/16/16 20:25:31  5-MIN K0J4 170125Z AUTO 00000KT 10SM CLR 11/08 A3005 190 80 -100 000/00 RMK AO2 T01110078 $
63870K0J4 0J420161116203011011/16/16 20:30:31  5-MIN K0J4 170130Z AUTO 00000KT 10SM CLR 11/08 A3005 190 83 -200 000/00 RMK AO2 T01060078 $
63870K0J4 0J420161116203511011/16/16 20:35:31  5-MIN K0J4 170135Z AUTO 00000KT 10SM CLR 11/08 A3005 190 80 -100 000/00 RMK AO2 T01110078 $
63870K0J4 0J420161116204011011/16/16 20:40:31  5-MIN K0J4 170140Z AUTO 00000KT 10SM CLR 11/08 A3005 190 83 -200 000/00 RMK AO2 T01060078 $
63870K0J4 0J420161116204511011/16/16 20:45:31  5-MIN K0J4 170145Z AUTO 00000KT 10SM CLR 11/08 A3006 190 83 -200 000/00 RMK AO2 T01060078 $
63870K0J4 0J420161116205011011/16/16 20:50:31  5-MIN K0J4 170150Z AUTO 00000KT 10SM CLR 11/08 A3006 190 80 -100 000/00 RMK AO2 T01110078 $
63870K0J4 0J420161116205511711/16/16 20:55:31  5-MIN K0J4 170155Z AUTO 00000KT 10SM CLR 10/07 A3006 190 83 -300 000/00 RMK AO2 SLP176 T01000072 $
63870K0J4 0J420161116210011011/16/16 21:00:31  5-MIN K0J4 170200Z AUTO 00000KT 10SM CLR 11/07 A3006 190 80 -200 000/00 RMK AO2 T01060072 $
63870K0J4 0J420161116210511011/16/16 21:05:31  5-MIN K0J4 170205Z AUTO 00000KT 10SM CLR 11/07 A3006 190 80 -200 000/00 RMK AO2 T01060072 $
63870K0J4 0J420161116211011011/16/16 21:10:31  5-MIN K0J4 170210Z AUTO 00000KT 10SM CLR 12/08 A3006 190 80 -100 000/00 RMK AO2 T01170083 $
63870K0J4 0J420161116211511011/16/16 21:15:31  5-MIN K0J4 170215Z AUTO 00000KT 10SM CLR 10/08 A3006 180 86 -300 000/00 RMK AO2 T01000078 $
63870K0J4 0J420161116212011011/16/16 21:20:31  5-MIN K0J4 170220Z AUTO 00000KT 10SM CLR 10/07 A3007 180 80 -300 000/00 RMK AO2 T01000067 $
63870K0J4 0J420161116212511011/16/16 21:25:31  5-MIN K0J4 170225Z AUTO 00000KT 10SM CLR 11/08 A3007 180 83 -200 000/00 RMK AO2 T01060078 $
63870K0J4 0J420161116213011011/16/16 21:30:31  5-MIN K0J4 170230Z AUTO 00000KT 10SM CLR 10/07 A3007 180 83 -300 000/00 RMK AO2 T01000072 $
63870K0J4 0J420161116213511011/16/16 21:35:31  5-MIN K0J4 170235Z AUTO 00000KT 10SM CLR 11/07 A3007 180 80 -200 000/00 RMK AO2 T01060072 $
63870K0J4 0J420161116214011011/16/16 21:40:31  5-MIN K0J4 170240Z AUTO 00000KT 10SM CLR 09/07 A3007 180 83 -400 000/00 RMK AO2 T00940067 $
63870K0J4 0J420161116214511011/16/16 21:45:31  5-MIN K0J4 170245Z AUTO 00000KT 10SM CLR 10/07 A3007 180 80 -300 000/00 RMK AO2 T01000067 $
63870K0J4 0J420161116215011011/16/16 21:50:31  5-MIN K0J4 170250Z AUTO 00000KT 10SM CLR 10/07 A3007 180 83 -300 000/00 RMK AO2 T01000072 $
63870K0J4 0J420161116215512311/16/16 21:55:31  5-MIN K0J4 170255Z AUTO 00000KT 10SM CLR 10/07 A3007 180 83 -300 000/00 RMK AO2 SLP182 T01000072 53010 $
63870K0J4 0J420161116220011011/16/16 22:00:31  5-MIN K0J4 170300Z AUTO 00000KT 10SM CLR 10/07 A3007 170 83 -300 000/00 RMK AO2 T01000072 $
63870K0J4 0J420161116220511011/16/16 22:05:31  5-MIN K0J4 170305Z AUTO 00000KT 10SM CLR 09/07 A3007 170 86 -400 000/00 RMK AO2 T00940072 $
63870K0J4 0J420161116221011011/16/16 22:10:31  5-MIN K0J4 170310Z AUTO 00000KT 10SM CLR 09/07 A3007 170 83 -400 000/00 RMK AO2 T00940067 $
63870K0J4 0J420161116221511011/16/16 22:15:31  5-MIN K0J4 170315Z AUTO 00000KT 10SM CLR 10/07 A3007 170 80 -300 000/00 RMK AO2 T01000067 $
63870K0J4 0J420161116222011011/16/16 22:20:31  5-MIN K0J4 170320Z AUTO 00000KT 10SM CLR 10/07 A3007 170 83 -300 000/00 RMK AO2 T01000072 $
63870K0J4 0J420161116222511011/16/16 22:25:31  5-MIN K0J4 170325Z AUTO 00000KT 10SM CLR 09/07 A3007 180 83 -400 000/00 RMK AO2 T00940067 $
63870K0J4 0J420161116223011011/16/16 22:30:31  5-MIN K0J4 170330Z AUTO 00000KT 10SM CLR 09/07 A3007 170 83 -400 000/00 RMK AO2 T00940067 $
63870K0J4 0J420161116223511011/16/16 22:35:31  5-MIN K0J4 170335Z AUTO 00000KT 10SM CLR 09/07 A3007 170 83 -400 000/00 RMK AO2 T00940067 $
63870K0J4 0J420161116224011011/16/16 22:40:31  5-MIN K0J4 170340Z AUTO 00000KT 10SM CLR 09/07 A3007 170 83 -400 000/00 RMK AO2 T00940067 $
63870K0J4 0J420161116224511011/16/16 22:45:31  5-MIN K0J4 170345Z AUTO 00000KT 10SM CLR 10/07 A3007 170 80 -300 000/00 RMK AO2 T01000067 $
63870K0J4 0J420161116225011011/16/16 22:50:31  5-MIN K0J4 170350Z AUTO 00000KT 10SM CLR 09/07 A3007 170 86 -400 000/00 RMK AO2 T00890067 $
63870K0J4 0J420161116225511711/16/16 22:55:31  5-MIN K0J4 170355Z AUTO 00000KT 10SM CLR 09/06 A3007 170 83 -400 000/00 RMK AO2 SLP182 T00890061 $
63870K0J4 0J420161116230011011/16/16 23:00:31  5-MIN K0J4 170400Z AUTO 00000KT 10SM CLR 09/06 A3008 170 79 -400 000/00 RMK AO2 T00940061 $
63870K0J4 0J420161116230511011/16/16 23:05:31  5-MIN K0J4 170405Z AUTO 00000KT 10SM CLR 09/06 A3008 170 79 -400 000/00 RMK AO2 T00940061 $
63870K0J4 0J420161116231011011/16/16 23:10:31  5-MIN K0J4 170410Z AUTO 00000KT 10SM CLR 09/07 A3008 170 83 -400 000/00 RMK AO2 T00940067 $
63870K0J4 0J420161116231511011/16/16 23:15:31  5-MIN K0J4 170415Z AUTO 00000KT 10SM CLR 09/07 A3007 170 83 -400 000/00 RMK AO2 T00940067 $
63870K0J4 0J420161116232011011/16/16 23:20:31  5-MIN K0J4 170420Z AUTO 00000KT 10SM CLR 09/07 A3008 170 83 -400 000/00 RMK AO2 T00940067 $
63870K0J4 0J420161116232511011/16/16 23:25:31  5-MIN K0J4 170425Z AUTO 00000KT 10SM CLR 08/06 A3008 170 86 -500 000/00 RMK AO2 T00830061 $
63870K0J4 0J420161116233011011/16/16 23:30:31  5-MIN K0J4 170430Z AUTO 00000KT 10SM CLR 08/06 A3008 170 89 -600 000/00 RMK AO2 T00780061 $
63870K0J4 0J420161116233511011/16/16 23:35:31  5-MIN K0J4 170435Z AUTO 00000KT 10SM CLR 08/06 A3008 170 86 -600 000/00 RMK AO2 T00780056 $
63870K0J4 0J420161116234011011/16/16 23:40:31  5-MIN K0J4 170440Z AUTO 00000KT 10SM CLR 09/06 A3008 170 83 -400 000/00 RMK AO2 T00890061 $
63870K0J4 0J420161116234511011/16/16 23:45:31  5-MIN K0J4 170445Z AUTO VRB04KT 10SM CLR 08/07 A3007 170 89 -500 VRB/04 RMK AO2 T00830067 $
63870K0J4 0J420161116235011011/16/16 23:50:31  5-MIN K0J4 170450Z AUTO 36004KT 10SM CLR 09/07 A3007 170 86 -400 360/04 RMK AO2 T00890067 $
63870K0J4 0J420161116235512711/16/16 23:55:31  5-MIN K0J4 170455Z AUTO 01004KT 10SM CLR 09/07 A3007 180 86 -400 010/04 RMK AO2 SLP181 T00890067 402390072 $
63870K0J4 0J420161117000011011/17/16 00:00:31  5-MIN K0J4 170500Z AUTO VRB03KT 10SM CLR 09/07 A3007 180 86 -400 VRB/03 RMK AO2 T00890067 $
63870K0J4 0J420161117000511011/17/16 00:05:31  5-MIN K0J4 170505Z AUTO 00000KT 10SM CLR 09/07 A3007 180 86 -400 000/00 RMK AO2 T00890067 $
63870K0J4 0J420161117001011011/17/16 00:10:31  5-MIN K0J4 170510Z AUTO 00000KT 10SM CLR 09/07 A3007 180 86 -400 000/00 RMK AO2 T00890067 $
63870K0J4 0J420161117001511011/17/16 00:15:31  5-MIN K0J4 170515Z AUTO 00000KT 10SM CLR 09/07 A3007 180 86 -400 000/00 RMK AO2 T00890067 $
63870K0J4 0J420161117002011011/17/16 00:20:31  5-MIN K0J4 170520Z AUTO 00000KT 10SM CLR 08/06 A3007 180 86 -500 000/00 RMK AO2 T00830061 $
63870K0J4 0J420161117002511011/17/16 00:25:31  5-MIN K0J4 170525Z AUTO 00000KT 10SM CLR 08/06 A3007 180 86 -600 000/00 RMK AO2 T00780056 $
63870K0J4 0J420161117003011011/17/16 00:30:31  5-MIN K0J4 170530Z AUTO 00000KT 10SM CLR 08/06 A3007 180 86 -600 000/00 RMK AO2 T00780056 $
63870K0J4 0J420161117003511011/17/16 00:35:31  5-MIN K0J4 170535Z AUTO 00000KT 10SM CLR 08/06 A3007 170 86 -600 000/00 RMK AO2 T00780056 $
63870K0J4 0J420161117004011011/17/16 00:40:31  5-MIN K0J4 170540Z AUTO 00000KT 10SM CLR 07/06 A3008 170 89 -600 000/00 RMK AO2 T00720056 $
63870K0J4 0J420161117004511011/17/16 00:45:31  5-MIN K0J4 170545Z AUTO 00000KT 10SM CLR 07/06 A3007 170 89 -600 000/00 RMK AO2 T00720056 $
63870K0J4 0J420161117005011011/17/16 00:50:31  5-MIN K0J4 170550Z AUTO 00000KT 10SM CLR 07/05 A3007 170 86 -600 000/00 RMK AO2 T00720050 $
63870K0J4 0J420161117005513511/17/16 00:55:31  5-MIN K0J4 170555Z AUTO 00000KT 10SM CLR 07/05 A3007 170 86 -600 000/00 RMK AO2 SLP181 T00720050 10139 20072 52014 $
63870K0J4 0J420161117010011011/17/16 01:00:31  5-MIN K0J4 170600Z AUTO 00000KT 10SM CLR 07/06 A3007 180 89 -600 000/00 RMK AO2 T00720056 $
63870K0J4 0J420161117010511011/17/16 01:05:31  5-MIN K0J4 170605Z AUTO 00000KT 10SM CLR 08/06 A3007 180 89 -600 000/00 RMK AO2 T00780061 $
63870K0J4 0J420161117011011011/17/16 01:10:31  5-MIN K0J4 170610Z AUTO 00000KT 10SM CLR 07/06 A3007 180 89 -600 000/00 RMK AO2 T00720056 $
63870K0J4 0J420161117011511011/17/16 01:15:31  5-MIN K0J4 170615Z AUTO 00000KT 10SM CLR 08/06 A3007 180 86 -600 000/00 RMK AO2 T00780056 $
63870K0J4 0J420161117012011011/17/16 01:20:31  5-MIN K0J4 170620Z AUTO 00000KT 10SM CLR 08/06 A3007 170 86 -600 000/00 RMK AO2 T00780056 $
63870K0J4 0J420161117012511011/17/16 01:25:31  5-MIN K0J4 170625Z AUTO 00000KT 10SM CLR 08/06 A3007 170 86 -600 000/00 RMK AO2 T00780056 $
63870K0J4 0J420161117013011011/17/16 01:30:31  5-MIN K0J4 170630Z AUTO 00000KT 10SM CLR 08/06 A3007 170 86 -600 000/00 RMK AO2 T00780056 $
63870K0J4 0J420161117013511011/17/16 01:35:31  5-MIN K0J4 170635Z AUTO 00000KT 10SM CLR 08/06 A3007 170 86 -600 000/00 RMK AO2 T00780056 $
63870K0J4 0J420161117014011011/17/16 01:40:31  5-MIN K0J4 170640Z AUTO 00000KT 10SM CLR 08/06 A3008 170 86 -600 000/00 RMK AO2 T00780056 $
63870K0J4 0J420161117014511011/17/16 01:45:31  5-MIN K0J4 170645Z AUTO 00000KT 10SM CLR 07/06 A3008 170 89 -600 000/00 RMK AO2 T00720056 $
63870K0J4 0J420161117015011011/17/16 01:50:31  5-MIN K0J4 170650Z AUTO 00000KT 10SM CLR 07/05 A3008 170 86 -600 000/00 RMK AO2 T00720050 $
63870K0J4 0J420161117015511711/17/16 01:55:31  5-MIN K0J4 170655Z AUTO 00000KT 10SM CLR 07/06 A3007 170 89 -600 000/00 RMK AO2 SLP181 T00720056 $
63870K0J4 0J420161117020011011/17/16 02:00:31  5-MIN K0J4 170700Z AUTO 00000KT 10SM CLR 07/05 A3007 170 86 -600 000/00 RMK AO2 T00720050 $
63870K0J4 0J420161117020511011/17/16 02:05:31  5-MIN K0J4 170705Z AUTO 00000KT 10SM CLR 07/05 A3007 170 89 -700 000/00 RMK AO2 T00670050 $
63870K0J4 0J420161117021011011/17/16 02:10:31  5-MIN K0J4 170710Z AUTO 00000KT 10SM CLR 07/05 A3008 170 86 -600 000/00 RMK AO2 T00720050 $
63870K0J4 0J420161117021511011/17/16 02:15:31  5-MIN K0J4 170715Z AUTO 00000KT 10SM CLR 07/05 A3008 170 89 -700 000/00 RMK AO2 T00670050 $
63870K0J4 0J420161117022011011/17/16 02:20:31  5-MIN K0J4 170720Z AUTO 00000KT 10SM CLR 07/06 A3008 170 89 -600 000/00 RMK AO2 T00720056 $
63870K0J4 0J420161117022511011/17/16 02:25:31  5-MIN K0J4 170725Z AUTO 00000KT 10SM CLR 07/05 A3008 170 86 -600 000/00 RMK AO2 T00720050 $
63870K0J4 0J420161117023011011/17/16 02:30:31  5-MIN K0J4 170730Z AUTO 00000KT 10SM CLR 06/04 A3008 170 89 -800 000/00 RMK AO2 T00610044 $
63870K0J4 0J420161117023511011/17/16 02:35:31  5-MIN K0J4 170735Z AUTO 00000KT 10SM CLR 07/04 A3008 170 86 -700 000/00 RMK AO2 T00670044 $
63870K0J4 0J420161117024011011/17/16 02:40:31  5-MIN K0J4 170740Z AUTO 00000KT 10SM CLR 07/05 A3008 170 86 -600 000/00 RMK AO2 T00720050 $
63870K0J4 0J420161117024511011/17/16 02:45:31  5-MIN K0J4 170745Z AUTO 00000KT 10SM CLR 07/05 A3008 170 86 -600 000/00 RMK AO2 T00720050 $
63870K0J4 0J420161117025011011/17/16 02:50:31  5-MIN K0J4 170750Z AUTO 00000KT 10SM CLR 07/05 A3008 170 86 -600 000/00 RMK AO2 T00720050 $
63870K0J4 0J420161117025511711/17/16 02:55:31  5-MIN K0J4 170755Z AUTO 00000KT 10SM CLR 07/05 A3008 170 89 -700 000/00 RMK AO2 SLP183 T00670050 $
63870K0J4 0J420161117030011011/17/16 03:00:31  5-MIN K0J4 170800Z AUTO 00000KT 10SM CLR 07/04 A3008 170 86 -700 000/00 RMK AO2 T00670044 $
63870K0J4 0J420161117030511011/17/16 03:05:31  5-MIN K0J4 170805Z AUTO 00000KT 10SM CLR 07/05 A3008 170 86 -600 000/00 RMK AO2 T00720050 $
63870K0J4 0J420161117031011011/17/16 03:10:31  5-MIN K0J4 170810Z AUTO 00000KT 10SM CLR 07/05 A3008 170 86 -600 000/00 RMK AO2 T00720050 $
63870K0J4 0J420161117031511011/17/16 03:15:31  5-MIN K0J4 170815Z AUTO 00000KT 10SM CLR 07/05 A3008 170 89 -700 000/00 RMK AO2 T00670050 $
63870K0J4 0J420161117032011011/17/16 03:20:31  5-MIN K0J4 170820Z AUTO 00000KT 10SM CLR 07/04 A3008 170 86 -700 000/00 RMK AO2 T00670044 $
63870K0J4 0J420161117032511011/17/16 03:25:31  5-MIN K0J4 170825Z AUTO 00000KT 10SM CLR 07/04 A3008 170 86 -700 000/00 RMK AO2 T00670044 $
63870K0J4 0J420161117033011011/17/16 03:30:31  5-MIN K0J4 170830Z AUTO 00000KT 10SM CLR 07/05 A3008 170 89 -700 000/00 RMK AO2 T00670050 $
63870K0J4 0J420161117033511011/17/16 03:35:31  5-MIN K0J4 170835Z AUTO 00000KT 10SM CLR 07/05 A3008 170 89 -700 000/00 RMK AO2 T00670050 $
63870K0J4 0J420161117034011011/17/16 03:40:31  5-MIN K0J4 170840Z AUTO 00000KT 10SM CLR 07/04 A3008 170 86 -700 000/00 RMK AO2 T00670044 $
63870K0J4 0J420161117034511011/17/16 03:45:31  5-MIN K0J4 170845Z AUTO 00000KT 10SM CLR 06/04 A3008 170 89 -800 000/00 RMK AO2 T00610044 $
63870K0J4 0J420161117035011011/17/16 03:50:31  5-MIN K0J4 170850Z AUTO 00000KT 10SM CLR 06/04 A3008 170 86 -800 000/00 RMK AO2 T00610039 $
63870K0J4 0J420161117035512311/17/16 03:55:31  5-MIN K0J4 170855Z AUTO 00000KT 10SM CLR 07/04 A3008 170 86 -700 000/00 RMK AO2 SLP184 T00670044 54000 $
63870K0J4 0J420161117040011011/17/16 04:00:31  5-MIN K0J4 170900Z AUTO 00000KT 10SM CLR 07/05 A3008 170 89 -700 000/00 RMK AO2 T00670050 $
63870K0J4 0J420161117040511011/17/16 04:05:31  5-MIN K0J4 170905Z AUTO 00000KT 10SM CLR 07/04 A3008 170 86 -700 000/00 RMK AO2 T00670044 $
63870K0J4 0J420161117041011011/17/16 04:10:31  5-MIN K0J4 170910Z AUTO 00000KT 10SM CLR 07/05 A3008 170 89 -700 000/00 RMK AO2 T00670050 $
63870K0J4 0J420161117041511011/17/16 04:15:31  5-MIN K0J4 170915Z AUTO 00000KT 10SM CLR 07/05 A3008 170 89 -700 000/00 RMK AO2 T00670050 $
63870K0J4 0J420161117042011011/17/16 04:20:31  5-MIN K0J4 170920Z AUTO 00000KT 10SM CLR 07/04 A3008 160 86 -700 000/00 RMK AO2 T00670044 $
63870K0J4 0J420161117042511011/17/16 04:25:31  5-MIN K0J4 170925Z AUTO 00000KT 10SM CLR 07/05 A3008 160 89 -700 000/00 RMK AO2 T00670050 $
63870K0J4 0J420161117043011011/17/16 04:30:31  5-MIN K0J4 170930Z AUTO 00000KT 10SM CLR 06/05 A3008 160 93 -800 000/00 RMK AO2 T00610050 $
63870K0J4 0J420161117043511011/17/16 04:35:31  5-MIN K0J4 170935Z AUTO 00000KT 10SM CLR 06/04 A3008 170 89 -800 000/00 RMK AO2 T00610044 $
63870K0J4 0J420161117044011011/17/16 04:40:31  5-MIN K0J4 170940Z AUTO 00000KT 10SM CLR 06/04 A3008 170 92 -800 000/00 RMK AO2 T00560044 $
63870K0J4 0J420161117044511011/17/16 04:45:31  5-MIN K0J4 170945Z AUTO 00000KT 10SM CLR 06/04 A3008 160 89 -800 000/00 RMK AO2 T00610044 $
63870K0J4 0J420161117045011011/17/16 04:50:31  5-MIN K0J4 170950Z AUTO 00000KT 10SM CLR 06/04 A3009 160 89 -800 000/00 RMK AO2 T00610044 $
63870K0J4 0J420161117045511711/17/16 04:55:31  5-MIN K0J4 170955Z AUTO 00000KT 10SM CLR 06/05 A3009 160 93 -800 000/00 RMK AO2 SLP186 T00610050 $
63870K0J4 0J420161117050011011/17/16 05:00:31  5-MIN K0J4 171000Z AUTO 00000KT 10SM CLR 06/05 A3008 160 93 -800 000/00 RMK AO2 T00610050 $
63870K0J4 0J420161117050511011/17/16 05:05:31  5-MIN K0J4 171005Z AUTO 00000KT 10SM CLR 06/04 A3008 170 92 -800 000/00 RMK AO2 T00560044 $
63870K0J4 0J420161117051011011/17/16 05:10:31  5-MIN K0J4 171010Z AUTO 00000KT 10SM CLR 06/04 A3009 160 89 -800 000/00 RMK AO2 T00610044 $
63870K0J4 0J420161117051511011/17/16 05:15:31  5-MIN K0J4 171015Z AUTO 00000KT 10SM CLR 06/04 A3009 160 89 -800 000/00 RMK AO2 T00610044 $
63870K0J4 0J420161117052011011/17/16 05:20:31  5-MIN K0J4 171020Z AUTO 00000KT 10SM CLR 06/05 A3009 160 93 -800 000/00 RMK AO2 T00610050 $
63870K0J4 0J420161117052511011/17/16 05:25:31  5-MIN K0J4 171025Z AUTO 00000KT 10SM CLR 06/05 A3009 160 93 -800 000/00 RMK AO2 T00610050 $
63870K0J4 0J420161117053011011/17/16 05:30:31  5-MIN K0J4 171030Z AUTO 00000KT 10SM CLR 06/05 A3009 160 93 -800 000/00 RMK AO2 T00610050 $
63870K0J4 0J420161117053511011/17/16 05:35:31  5-MIN K0J4 171035Z AUTO 00000KT 10SM CLR 06/04 A3009 160 92 -900 000/00 RMK AO2 T00560044 $
63870K0J4 0J420161117054011011/17/16 05:40:31  5-MIN K0J4 171040Z AUTO 00000KT 10SM CLR 06/04 A3009 160 89 -900 000/00 RMK AO2 T00560039 $
63870K0J4 0J420161117054511011/17/16 05:45:31  5-MIN K0J4 171045Z AUTO 00000KT 10SM CLR 06/03 A3009 160 85 -900 000/00 RMK AO2 T00560033 $
63870K0J4 0J420161117055011011/17/16 05:50:31  5-MIN K0J4 171050Z AUTO 00000KT 10SM CLR 06/03 A3009 160 85 -900 000/00 RMK AO2 T00560033 $
63870K0J4 0J420161117055511711/17/16 05:55:31  5-MIN K0J4 171055Z AUTO 00000KT 10SM CLR 06/03 A3009 160 82 -800 000/00 RMK AO2 SLP189 T00610033 $
63870K0J4 0J420161117060011011/17/16 06:00:31  5-MIN K0J4 171100Z AUTO 00000KT 10SM CLR 06/04 A3010 150 86 -800 000/00 RMK AO2 T00610039 $
63870K0J4 0J420161117060511011/17/16 06:05:31  5-MIN K0J4 171105Z AUTO 00000KT 10SM CLR 06/04 A3010 150 86 -800 000/00 RMK AO2 T00610039 $
63870K0J4 0J420161117061011011/17/16 06:10:31  5-MIN K0J4 171110Z AUTO 00000KT 10SM CLR 06/04 A3010 150 89 -900 000/00 RMK AO2 T00560039 $
63870K0J4 0J420161117061511011/17/16 06:15:31  5-MIN K0J4 171115Z AUTO 01003KT 10SM CLR 06/04 A3010 150 86 -800 010/03 RMK AO2 T00610039 $
63870K0J4 0J420161117062011011/17/16 06:20:31  5-MIN K0J4 171120Z AUTO 02003KT 10SM CLR 06/04 A3010 150 89 -900 020/03 RMK AO2 T00560039 $
63870K0J4 0J420161117062511011/17/16 06:25:31  5-MIN K0J4 171125Z AUTO 00000KT 10SM CLR 06/04 A3010 150 92 -900 000/00 RMK AO2 T00560044 $
63870K0J4 0J420161117063011011/17/16 06:30:31  5-MIN K0J4 171130Z AUTO 00000KT 10SM CLR 05/04 A3011 140 92 -900 000/00 RMK AO2 T00500039 $
63870K0J4 0J420161117063511011/17/16 06:35:31  5-MIN K0J4 171135Z AUTO 00000KT 10SM CLR 05/04 A3011 140 92 -900 000/00 RMK AO2 T00500039 $
63870K0J4 0J420161117064011011/17/16 06:40:31  5-MIN K0J4 171140Z AUTO 00000KT 10SM CLR 05/04 A3011 140 92 -900 000/00 RMK AO2 T00500039 $
63870K0J4 0J420161117064511011/17/16 06:45:31  5-MIN K0J4 171145Z AUTO 00000KT 10SM CLR 05/03 A3011 140 89 -900 000/00 RMK AO2 T00500033 $
63870K0J4 0J420161117065011111/17/16 06:50:31  5-MIN K0J4 171150Z AUTO 00000KT 10SM CLR 05/04 A3012 140 92 -1000 000/00 RMK AO2 T00500039 $
63870K0J4 0J420161117065513611/17/16 06:55:31  5-MIN K0J4 171155Z AUTO 00000KT 10SM CLR 05/03 A3012 140 89 -1000 000/00 RMK AO2 SLP198 T00500033 10078 20050 53003 $
63870K0J4 0J420161117070011111/17/16 07:00:31  5-MIN K0J4 171200Z AUTO 00000KT 10SM CLR 05/03 A3012 130 89 -1000 000/00 RMK AO2 T00500033 $
63870K0J4 0J420161117070511111/17/16 07:05:31  5-MIN K0J4 171205Z AUTO 00000KT 10SM CLR 05/03 A3012 130 89 -1000 000/00 RMK AO2 T00500033 $
63870K0J4 0J420161117071011111/17/16 07:10:31  5-MIN K0J4 171210Z AUTO 00000KT 10SM CLR 05/03 A3012 130 89 -1000 000/00 RMK AO2 T00500033 $
63870K0J4 0J420161117071511111/17/16 07:15:31  5-MIN K0J4 171215Z AUTO 00000KT 10SM CLR 05/03 A3012 130 89 -1000 000/00 RMK AO2 T00500033 $
63870K0J4 0J420161117072011111/17/16 07:20:31  5-MIN K0J4 171220Z AUTO 00000KT 10SM CLR 05/03 A3013 130 89 -1000 000/00 RMK AO2 T00500033 $
63870K0J4 0J420161117072511111/17/16 07:25:31  5-MIN K0J4 171225Z AUTO 00000KT 10SM CLR 04/03 A3013 130 92 -1000 000/00 RMK AO2 T00440033 $
63870K0J4 0J420161117073011111/17/16 07:30:31  5-MIN K0J4 171230Z AUTO 00000KT 10SM CLR 04/03 A3013 120 92 -1000 000/00 RMK AO2 T00440033 $
63870K0J4 0J420161117073511111/17/16 07:35:31  5-MIN K0J4 171235Z AUTO 00000KT 10SM CLR 05/03 A3013 120 89 -1000 000/00 RMK AO2 T00500033 $
63870K0J4 0J420161117074011011/17/16 07:40:31  5-MIN K0J4 171240Z AUTO 00000KT 10SM CLR 06/04 A3013 120 89 -900 000/00 RMK AO2 T00560039 $
63870K0J4 0J420161117074511011/17/16 07:45:31  5-MIN K0J4 171245Z AUTO 00000KT 10SM CLR 06/04 A3014 120 89 -800 000/00 RMK AO2 T00610044 $
63870K0J4 0J420161117075010811/17/16 07:50:31  5-MIN K0J4 171250Z AUTO 00000KT 10SM CLR 07/05 A3014 110 89 -800 000/00 RMK AO2 T00670050
63870K0J4 0J420161117075511511/17/16 07:55:31  5-MIN K0J4 171255Z AUTO 00000KT 10SM CLR 07/05 A3014 110 89 -800 000/00 RMK AO2 SLP206 T00670050
63870K0J4 0J420161117080010811/17/16 08:00:31  5-MIN K0J4 171300Z AUTO 00000KT 10SM CLR 07/05 A3014 110 89 -800 000/00 RMK AO2 T00670050
63870K0J4 0J420161117080510811/17/16 08:05:31  5-MIN K0J4 171305Z AUTO 00000KT 10SM CLR 07/06 A3015 110 89 -700 000/00 RMK AO2 T00720056
63870K0J4 0J420161117081010811/17/16 08:10:31  5-MIN K0J4 171310Z AUTO 00000KT 10SM CLR 08/06 A3015 110 86 -600 000/00 RMK AO2 T00780056
63870K0J4 0J420161117081510811/17/16 08:15:31  5-MIN K0J4 171315Z AUTO 00000KT 10SM CLR 08/06 A3015 100 86 -600 000/00 RMK AO2 T00830061
63870K0J4 0J420161117082010811/17/16 08:20:31  5-MIN K0J4 171320Z AUTO 00000KT 10SM CLR 09/07 A3015 100 86 -400 000/00 RMK AO2 T00940072
63870K0J4 0J420161117082510811/17/16 08:25:31  5-MIN K0J4 171325Z AUTO 00000KT 10SM CLR 10/07 A3015 100 83 -400 000/00 RMK AO2 T01000072
63870K0J4 0J420161117083010811/17/16 08:30:31  5-MIN K0J4 171330Z AUTO 00000KT 10SM CLR 11/08 A3015 100 83 -300 000/00 RMK AO2 T01060078
63870K0J4 0J420161117083510811/17/16 08:35:31  5-MIN K0J4 171335Z AUTO 00000KT 10SM CLR 11/08 A3016 100 80 -300 000/00 RMK AO2 T01110078
63870K0J4 0J420161117084010811/17/16 08:40:31  5-MIN K0J4 171340Z AUTO 00000KT 10SM CLR 12/08 A3016 100 80 -200 000/00 RMK AO2 T01170083
63870K0J4 0J420161117084510811/17/16 08:45:31  5-MIN K0J4 171345Z AUTO 00000KT 10SM CLR 13/08 A3016 100 74 -100 000/00 RMK AO2 T01280083
63870K0J4 0J420161117085010511/17/16 08:50:31  5-MIN K0J4 171350Z AUTO 00000KT 10SM CLR 13/08 A3016 100 71 0 000/00 RMK AO2 T01330083
63870K0J4 0J420161117085511211/17/16 08:55:31  5-MIN K0J4 171355Z AUTO 00000KT 10SM CLR 13/08 A3016 100 71 0 000/00 RMK AO2 SLP211 T01330083
63870K0J4 0J420161117090010411/17/16 09:00:31  5-MIN K0J4 171400Z AUTO 00000KT 10SM CLR 14/08 A3016 90 66 0 000/00 RMK AO2 T01390078
63870K0J4 0J420161117090510611/17/16 09:05:31  5-MIN K0J4 171405Z AUTO 00000KT 10SM CLR 15/08 A3016 90 62 200 000/00 RMK AO2 T01500078
63870K0J4 0J420161117091010611/17/16 09:10:31  5-MIN K0J4 171410Z AUTO 00000KT 10SM CLR 16/07 A3016 90 57 200 000/00 RMK AO2 T01560072
63870K0J4 0J420161117091510611/17/16 09:15:31  5-MIN K0J4 171415Z AUTO 00000KT 10SM CLR 16/07 A3016 90 55 200 000/00 RMK AO2 T01560067
63870K0J4 0J420161117092010611/17/16 09:20:31  5-MIN K0J4 171420Z AUTO 00000KT 10SM CLR 17/07 A3017 90 53 300 000/00 RMK AO2 T01670072
63870K0J4 0J420161117092510611/17/16 09:25:31  5-MIN K0J4 171425Z AUTO 00000KT 10SM CLR 17/08 A3017 90 53 400 000/00 RMK AO2 T01720078
63870K0J4 0J420161117093010611/17/16 09:30:31  5-MIN K0J4 171430Z AUTO 00000KT 10SM CLR 17/08 A3017 90 53 400 000/00 RMK AO2 T01720078
63870K0J4 0J420161117093510611/17/16 09:35:31  5-MIN K0J4 171435Z AUTO 00000KT 10SM CLR 18/08 A3017 90 51 500 000/00 RMK AO2 T01780078
63870K0J4 0J420161117094010611/17/16 09:40:31  5-MIN K0J4 171440Z AUTO 00000KT 10SM CLR 18/08 A3017 90 51 500 000/00 RMK AO2 T01780078
63870K0J4 0J420161117094510611/17/16 09:45:31  5-MIN K0J4 171445Z AUTO 00000KT 10SM CLR 19/07 A3017 90 44 600 000/00 RMK AO2 T01890067
63870K0J4 0J420161117095010611/17/16 09:50:31  5-MIN K0J4 171450Z AUTO 00000KT 10SM CLR 19/07 A3017 90 43 700 000/00 RMK AO2 T01940067
63870K0J4 0J420161117095511911/17/16 09:55:31  5-MIN K0J4 171455Z AUTO 07003KT 10SM CLR 19/07 A3017 90 43 700 070/03 RMK AO2 SLP214 T01940067 53012
63870K0J4 0J420161117100010611/17/16 10:00:31  5-MIN K0J4 171500Z AUTO VRB03KT 10SM CLR 20/07 A3017 80 41 700 VRB/03 RMK AO2 T02000067
63870K0J4 0J420161117100510611/17/16 10:05:31  5-MIN K0J4 171505Z AUTO 15005KT 10SM CLR 19/07 A3017 80 43 700 150/05 RMK AO2 T01940067
63870K0J4 0J420161117101010611/17/16 10:10:31  5-MIN K0J4 171510Z AUTO 10004KT 10SM CLR 20/07 A3017 80 41 700 100/04 RMK AO2 T02000067
63870K0J4 0J420161117101510611/17/16 10:15:31  5-MIN K0J4 171515Z AUTO VRB04KT 10SM CLR 20/07 A3017 80 41 700 VRB/04 RMK AO2 T02000067
63870K0J4 0J420161117102010611/17/16 10:20:31  5-MIN K0J4 171520Z AUTO 08003KT 10SM CLR 21/07 A3017 80 41 800 080/03 RMK AO2 T02060072
63870K0J4 0J420161117102510611/17/16 10:25:31  5-MIN K0J4 171525Z AUTO 13004KT 10SM CLR 21/07 A3017 80 41 800 130/04 RMK AO2 T02060072
63870K0J4 0J420161117103010611/17/16 10:30:31  5-MIN K0J4 171530Z AUTO 15005KT 10SM CLR 21/07 A3017 80 40 900 150/05 RMK AO2 T02110072
63870K0J4 0J420161117103510611/17/16 10:35:31  5-MIN K0J4 171535Z AUTO 11004KT 10SM CLR 21/07 A3017 80 40 900 110/04 RMK AO2 T02110072
63870K0J4 0J420161117104010611/17/16 10:40:31  5-MIN K0J4 171540Z AUTO 14003KT 10SM CLR 21/07 A3017 80 40 900 140/03 RMK AO2 T02110072
63870K0J4 0J420161117104510611/17/16 10:45:31  5-MIN K0J4 171545Z AUTO VRB03KT 10SM CLR 22/07 A3017 80 39 900 VRB/03 RMK AO2 T02170072
63870K0J4 0J420161117105010611/17/16 10:50:31  5-MIN K0J4 171550Z AUTO VRB06KT 10SM CLR 22/07 A3017 80 39 900 VRB/06 RMK AO2 T02170072
63870K0J4 0J420161117105511311/17/16 10:55:31  5-MIN K0J4 171555Z AUTO 00000KT 10SM CLR 22/07 A3017 80 39 900 000/00 RMK AO2 SLP214 T02170072
63870K0J4 0J420161117110010711/17/16 11:00:31  5-MIN K0J4 171600Z AUTO 18004KT 10SM CLR 22/07 A3017 80 37 1000 180/04 RMK AO2 T02220072
63870K0J4 0J420161117110510711/17/16 11:05:31  5-MIN K0J4 171605Z AUTO VRB05KT 10SM CLR 22/07 A3017 80 36 1000 VRB/05 RMK AO2 T02220067
63870K0J4 0J420161117111010711/17/16 11:10:31  5-MIN K0J4 171610Z AUTO 19006KT 10SM CLR 22/07 A3017 90 36 1000 190/06 RMK AO2 T02220067
63870K0J4 0J420161117111510711/17/16 11:15:31  5-MIN K0J4 171615Z AUTO VRB04KT 10SM CLR 22/07 A3017 90 36 1000 VRB/04 RMK AO2 T02220067
63870K0J4 0J420161117112010711/17/16 11:20:31  5-MIN K0J4 171620Z AUTO 12005KT 10SM CLR 23/07 A3017 90 36 1100 120/05 RMK AO2 T02280072
63870K0J4 0J420161117112510711/17/16 11:25:31  5-MIN K0J4 171625Z AUTO VRB04KT 10SM CLR 23/07 A3017 90 35 1100 VRB/04 RMK AO2 T02280067
63870K0J4 0J420161117113010711/17/16 11:30:31  5-MIN K0J4 171630Z AUTO 11004KT 10SM CLR 23/07 A3016 90 33 1100 110/04 RMK AO2 T02330067
63870K0J4 0J420161117113510711/17/16 11:35:31  5-MIN K0J4 171635Z AUTO 00000KT 10SM CLR 23/07 A3016 90 33 1100 000/00 RMK AO2 T02330067
63870K0J4 0J420161117114010811/17/16 11:40:31  5-MIN K0J4 171640Z AUTO 15005KT 10SM CLR 24/07 A3016 100 32 1200 150/05 RMK AO2 T02390067
63870K0J4 0J420161117114510811/17/16 11:45:31  5-MIN K0J4 171645Z AUTO 17006KT 10SM CLR 23/06 A3016 100 32 1100 170/06 RMK AO2 T02330061
63870K0J4 0J420161117115010811/17/16 11:50:31  5-MIN K0J4 171650Z AUTO 12005KT 10SM CLR 23/06 A3016 100 31 1100 120/05 RMK AO2 T02330056
63870K0J4 0J420161117115511511/17/16 11:55:31  5-MIN K0J4 171655Z AUTO 14005KT 10SM CLR 24/06 A3015 100 31 1200 140/05 RMK AO2 SLP208 T02390061
63870K0J4 0J420161117120010811/17/16 12:00:31  5-MIN K0J4 171700Z AUTO 00000KT 10SM CLR 24/06 A3015 100 31 1200 000/00 RMK AO2 T02390061
63870K0J4 0J420161117120510811/17/16 12:05:31  5-MIN K0J4 171705Z AUTO 14005KT 10SM CLR 24/06 A3015 100 31 1200 140/05 RMK AO2 T02390061
63870K0J4 0J420161117121010811/17/16 12:10:31  5-MIN K0J4 171710Z AUTO 19007KT 10SM CLR 24/06 A3015 110 30 1200 190/07 RMK AO2 T02390056
63870K0J4 0J420161117121510811/17/16 12:15:31  5-MIN K0J4 171715Z AUTO 19006KT 10SM CLR 24/06 A3015 110 30 1200 190/06 RMK AO2 T02390056
63870K0J4 0J420161117122010811/17/16 12:20:31  5-MIN K0J4 171720Z AUTO VRB05KT 10SM CLR 24/06 A3014 110 30 1200 VRB/05 RMK AO2 T02390056
63870K0J4 0J420161117122510811/17/16 12:25:31  5-MIN K0J4 171725Z AUTO 17007KT 10SM CLR 24/06 A3014 110 30 1200 170/07 RMK AO2 T02390056
63870K0J4 0J420161117123010811/17/16 12:30:31  5-MIN K0J4 171730Z AUTO VRB06KT 10SM CLR 24/06 A3014 110 30 1200 VRB/06 RMK AO2 T02390056
63870K0J4 0J420161117123510811/17/16 12:35:31  5-MIN K0J4 171735Z AUTO 20007KT 10SM CLR 24/06 A3014 120 29 1300 200/07 RMK AO2 T02440056
63870K0J4 0J420161117124010811/17/16 12:40:31  5-MIN K0J4 171740Z AUTO VRB05KT 10SM CLR 24/06 A3013 120 30 1200 VRB/05 RMK AO2 T02390056
63870K0J4 0J420161117124510811/17/16 12:45:31  5-MIN K0J4 171745Z AUTO 18006KT 10SM CLR 24/06 A3013 120 29 1300 180/06 RMK AO2 T02440056
63870K0J4 0J420161117125010811/17/16 12:50:31  5-MIN K0J4 171750Z AUTO VRB06KT 10SM CLR 24/06 A3013 130 29 1300 VRB/06 RMK AO2 T02440056
63870K0J4 0J420161117125513311/17/16 12:55:31  5-MIN K0J4 171755Z AUTO 20007KT 10SM CLR 24/06 A3012 130 29 1300 200/07 RMK AO2 SLP198 T02440056 10244 20044 51018
63870K0J4 0J420161117130010811/17/16 13:00:31  5-MIN K0J4 171800Z AUTO 17007KT 10SM CLR 25/05 A3012 130 27 1400 170/07 RMK AO2 T02500050
63870K0J4 0J420161117130510811/17/16 13:05:31  5-MIN K0J4 171805Z AUTO 13005KT 10SM CLR 24/05 A3012 130 28 1300 130/05 RMK AO2 T02440050
63870K0J4 0J420161117131010811/17/16 13:10:31  5-MIN K0J4 171810Z AUTO VRB04KT 10SM CLR 25/06 A3012 140 28 1400 VRB/04 RMK AO2 T02500056
63870K0J4 0J420161117131510811/17/16 13:15:31  5-MIN K0J4 171815Z AUTO 19007KT 10SM CLR 25/05 A3011 140 27 1400 190/07 RMK AO2 T02500050
63870K0J4 0J420161117132010811/17/16 13:20:31  5-MIN K0J4 171820Z AUTO VRB04KT 10SM CLR 25/06 A3011 140 28 1400 VRB/04 RMK AO2 T02500056
63870K0J4 0J420161117132512411/17/16 13:25:31  5-MIN K0J4 171825Z AUTO 00000KT 10SM -RA CLR 25/05 A3011 140 27 1400 000/00 RMK AO2 RAB25 P0000 T02500050
63870K0J4 0J420161117133012311/17/16 13:30:31  5-MIN K0J4 171830Z AUTO 19004KT 10SM CLR 25/04 A3011 140 26 1400 190/04 RMK AO2 RAB25E28 P0000 T02500044
63870K0J4 0J420161117133512311/17/16 13:35:31  5-MIN K0J4 171835Z AUTO 26003KT 10SM CLR 25/05 A3011 140 27 1400 260/03 RMK AO2 RAB25E28 P0000 T02500050
63870K0J4 0J420161117134011311/17/16 13:40:31  5-MIN K0J4 171840Z AUTO 10SM CLR 25/05 A3010 150 27 1400 M /M RMK AO2 RAB25E28 P0000 T02500050
63870K0J4 0J420161117134512311/17/16 13:45:31  5-MIN K0J4 171845Z AUTO 22003KT 10SM CLR 25/05 A3010 150 27 1400 220/03 RMK AO2 RAB25E28 P0000 T02500050
63870K0J4 0J420161117135012311/17/16 13:50:31  5-MIN K0J4 171850Z AUTO 00000KT 10SM CLR 26/05 A3010 150 26 1400 000/00 RMK AO2 RAB25E28 P0000 T02560050
63870K0J4 0J420161117135513011/17/16 13:55:31  5-MIN K0J4 171855Z AUTO 03005KT 10SM CLR 26/04 A3010 150 25 1400 030/05 RMK AO2 RAB25E28 SLP190 P0000 T02560044
63870K0J4 0J420161117140010811/17/16 14:00:31  5-MIN K0J4 171900Z AUTO 26004KT 10SM CLR 26/05 A3010 150 25 1500 260/04 RMK AO2 T02610050
63870K0J4 0J420161117140510811/17/16 14:05:31  5-MIN K0J4 171905Z AUTO VRB03KT 10SM CLR 25/05 A3010 150 27 1400 VRB/03 RMK AO2 T02500050
63870K0J4 0J420161117141010811/17/16 14:10:31  5-MIN K0J4 171910Z AUTO 27003KT 10SM CLR 26/06 A3010 150 27 1400 270/03 RMK AO2 T02560056
63870K0J4 0J420161117141512411/17/16 14:15:31  5-MIN K0J4 171915Z AUTO VRB03KT 10SM -RA CLR 26/05 A3010 150 26 1400 VRB/03 RMK AO2 RAB12 P0000 T02560050
63870K0J4 0J420161117142012411/17/16 14:20:31  5-MIN K0J4 171920Z AUTO VRB05KT 10SM -RA CLR 26/06 A3010 150 27 1500 VRB/05 RMK AO2 RAB12 P0000 T02560056
63870K0J4 0J420161117142512311/17/16 14:25:31  5-MIN K0J4 171925Z AUTO 22005KT 10SM CLR 26/06 A3010 150 27 1500 220/05 RMK AO2 RAB12E21 P0000 T02560056
63870K0J4 0J420161117143012311/17/16 14:30:31  5-MIN K0J4 171930Z AUTO 22007KT 10SM CLR 26/05 A3009 160 26 1500 220/07 RMK AO2 RAB12E21 P0000 T02560050
63870K0J4 0J420161117143512311/17/16 14:35:31  5-MIN K0J4 171935Z AUTO 20004KT 10SM CLR 26/05 A3010 150 26 1500 200/04 RMK AO2 RAB12E21 P0000 T02560050
63870K0J4 0J420161117144012311/17/16 14:40:31  5-MIN K0J4 171940Z AUTO 19004KT 10SM CLR 26/05 A3010 150 25 1500 190/04 RMK AO2 RAB12E21 P0000 T02610050
63870K0J4 0J420161117144512311/17/16 14:45:31  5-MIN K0J4 171945Z AUTO VRB03KT 10SM CLR 26/05 A3010 150 25 1500 VRB/03 RMK AO2 RAB12E21 P0000 T02610050
63870K0J4 0J420161117145012311/17/16 14:50:31  5-MIN K0J4 171950Z AUTO 21006KT 10SM CLR 26/05 A3009 160 25 1500 210/06 RMK AO2 RAB12E21 P0000 T02610050
63870K0J4 0J420161117145513011/17/16 14:55:31  5-MIN K0J4 171955Z AUTO 20006KT 10SM CLR 26/04 A3009 160 25 1500 200/06 RMK AO2 RAB12E21 SLP187 P0000 T02560044
63870K0J4 0J420161117150010811/17/16 15:00:31  5-MIN K0J4 172000Z AUTO 26004KT 10SM CLR 26/04 A3009 160 25 1500 260/04 RMK AO2 T02560044
63870K0J4 0J420161117150510811/17/16 15:05:31  5-MIN K0J4 172005Z AUTO 18004KT 10SM CLR 26/04 A3009 160 24 1500 180/04 RMK AO2 T02610044
63870K0J4 0J420161117151010811/17/16 15:10:31  5-MIN K0J4 172010Z AUTO 00000KT 10SM CLR 26/04 A3009 160 24 1500 000/00 RMK AO2 T02610044
63870K0J4 0J420161117151510811/17/16 15:15:31  5-MIN K0J4 172015Z AUTO 00000KT 10SM CLR 27/05 A3009 160 24 1600 000/00 RMK AO2 T02670050
63870K0J4 0J420161117152010811/17/16 15:20:31  5-MIN K0J4 172020Z AUTO 18004KT 10SM CLR 26/04 A3009 160 24 1500 180/04 RMK AO2 T02610044
63870K0J4 0J420161117152510811/17/16 15:25:31  5-MIN K0J4 172025Z AUTO 25003KT 10SM CLR 26/04 A3008 160 25 1500 250/03 RMK AO2 T02560044
63870K0J4 0J420161117153010811/17/16 15:30:31  5-MIN K0J4 172030Z AUTO 00000KT 10SM CLR 26/04 A3008 160 24 1500 000/00 RMK AO2 T02610044
63870K0J4 0J420161117153510811/17/16 15:35:31  5-MIN K0J4 172035Z AUTO 00000KT 10SM CLR 26/04 A3008 160 24 1500 000/00 RMK AO2 T02610044
63870K0J4 0J420161117154010811/17/16 15:40:31  5-MIN K0J4 172040Z AUTO 00000KT 10SM CLR 26/04 A3008 160 24 1500 000/00 RMK AO2 T02610044
63870K0J4 0J420161117154510811/17/16 15:45:31  5-MIN K0J4 172045Z AUTO VRB04KT 10SM CLR 26/04 A3008 170 24 1500 VRB/04 RMK AO2 T02610044
63870K0J4 0J420161117155010811/17/16 15:50:31  5-MIN K0J4 172050Z AUTO 24004KT 10SM CLR 26/05 A3008 170 25 1500 240/04 RMK AO2 T02610050
63870K0J4 0J420161117155512711/17/16 15:55:31  5-MIN K0J4 172055Z AUTO VRB03KT 10SM CLR 26/05 A3008 170 25 1500 VRB/03 RMK AO2 SLP184 60000 T02610050 58017
63870K0J4 0J420161117160010811/17/16 16:00:31  5-MIN K0J4 172100Z AUTO 20006KT 10SM CLR 26/05 A3008 170 26 1500 200/06 RMK AO2 T02560050
63870K0J4 0J420161117160510811/17/16 16:05:31  5-MIN K0J4 172105Z AUTO 21003KT 10SM CLR 26/05 A3008 170 26 1500 210/03 RMK AO2 T02560050
63870K0J4 0J420161117161010811/17/16 16:10:31  5-MIN K0J4 172110Z AUTO 00000KT 10SM CLR 26/05 A3008 170 26 1500 000/00 RMK AO2 T02560050
63870K0J4 0J420161117161510811/17/16 16:15:31  5-MIN K0J4 172115Z AUTO VRB04KT 10SM CLR 27/05 A3008 170 24 1600 VRB/04 RMK AO2 T02670050
63870K0J4 0J420161117162010811/17/16 16:20:31  5-MIN K0J4 172120Z AUTO 00000KT 10SM CLR 26/05 A3008 170 26 1500 000/00 RMK AO2 T02560050
63870K0J4 0J420161117162510811/17/16 16:25:31  5-MIN K0J4 172125Z AUTO 11003KT 10SM CLR 26/05 A3008 170 25 1500 110/03 RMK AO2 T02610050
63870K0J4 0J420161117163010811/17/16 16:30:31  5-MIN K0J4 172130Z AUTO 00000KT 10SM CLR 26/05 A3008 170 26 1500 000/00 RMK AO2 T02560050
63870K0J4 0J420161117163510811/17/16 16:35:31  5-MIN K0J4 172135Z AUTO 00000KT 10SM CLR 26/05 A3008 170 26 1500 000/00 RMK AO2 T02560050
63870K0J4 0J420161117164010811/17/16 16:40:31  5-MIN K0J4 172140Z AUTO 00000KT 10SM CLR 26/05 A3008 170 26 1500 000/00 RMK AO2 T02560050
63870K0J4 0J420161117164510811/17/16 16:45:31  5-MIN K0J4 172145Z AUTO 00000KT 10SM CLR 26/05 A3008 170 26 1500 000/00 RMK AO2 T02560050
63870K0J4 0J420161117165010811/17/16 16:50:31  5-MIN K0J4 172150Z AUTO 12003KT 10SM CLR 26/05 A3008 170 26 1500 120/03 RMK AO2 T02560050
63870K0J4 0J420161117165511511/17/16 16:55:31  5-MIN K0J4 172155Z AUTO 15003KT 10SM CLR 25/06 A3008 170 28 1400 150/03 RMK AO2 SLP183 T02500056
63870K0J4 0J420161117170010811/17/16 17:00:31  5-MIN K0J4 172200Z AUTO 16003KT 10SM CLR 25/06 A3008 170 28 1400 160/03 RMK AO2 T02500056
63870K0J4 0J420161117170510811/17/16 17:05:31  5-MIN K0J4 172205Z AUTO 00000KT 10SM CLR 24/06 A3008 170 30 1300 000/00 RMK AO2 T02440061
63870K0J4 0J420161117171010811/17/16 17:10:31  5-MIN K0J4 172210Z AUTO 00000KT 10SM CLR 24/07 A3008 170 32 1300 000/00 RMK AO2 T02390067
63870K0J4 0J420161117171510811/17/16 17:15:31  5-MIN K0J4 172215Z AUTO 00000KT 10SM CLR 24/06 A3008 170 31 1300 000/00 RMK AO2 T02390061
63870K0J4 0J420161117172010811/17/16 17:20:31  5-MIN K0J4 172220Z AUTO 00000KT 10SM CLR 23/07 A3008 170 35 1200 000/00 RMK AO2 T02280067
63870K0J4 0J420161117172510811/17/16 17:25:31  5-MIN K0J4 172225Z AUTO 00000KT 10SM CLR 23/06 A3008 170 33 1100 000/00 RMK AO2 T02280061
63870K0J4 0J420161117173010811/17/16 17:30:31  5-MIN K0J4 172230Z AUTO 00000KT 10SM CLR 21/07 A3008 170 38 1000 000/00 RMK AO2 T02110067
63870K0J4 0J420161117173512411/17/16 17:35:31  5-MIN K0J4 172235Z AUTO 00000KT 10SM -RA CLR 21/07 A3009 160 38 1000 000/00 RMK AO2 RAB34 P0000 T02110067
63870K0J4 0J420161117174012311/17/16 17:40:31  5-MIN K0J4 172240Z AUTO 00000KT 10SM -RA CLR 19/07 A3009 160 44 800 000/00 RMK AO2 RAB34 P0000 T01940072
63870K0J4 0J420161117174512311/17/16 17:45:31  5-MIN K0J4 172245Z AUTO 00000KT 10SM -RA CLR 20/07 A3009 160 43 800 000/00 RMK AO2 RAB34 P0000 T02000072
63870K0J4 0J420161117175012311/17/16 17:50:31  5-MIN K0J4 172250Z AUTO 00000KT 10SM -RA CLR 19/07 A3009 160 44 800 000/00 RMK AO2 RAB34 P0000 T01940072
63870K0J4 0J420161117175512911/17/16 17:55:31  5-MIN K0J4 172255Z AUTO 00000KT 10SM CLR 19/08 A3009 160 48 700 000/00 RMK AO2 RAB34E55 SLP189 P0000 T01890078
63870K0J4 0J420161117180010711/17/16 18:00:31  5-MIN K0J4 172300Z AUTO 19003KT 10SM CLR 18/08 A3010 150 52 600 190/03 RMK AO2 T01830083
63870K0J4 0J420161117180510711/17/16 18:05:31  5-MIN K0J4 172305Z AUTO 00000KT 10SM CLR 18/08 A3010 150 53 600 000/00 RMK AO2 T01780083
63870K0J4 0J420161117181010711/17/16 18:10:31  5-MIN K0J4 172310Z AUTO 21004KT 10SM CLR 18/08 A3010 150 50 600 210/04 RMK AO2 T01830078
63870K0J4 0J420161117181510711/17/16 18:15:31  5-MIN K0J4 172315Z AUTO 22005KT 10SM CLR 20/08 A3011 150 45 800 220/05 RMK AO2 T02000078
63870K0J4 0J420161117182010711/17/16 18:20:31  5-MIN K0J4 172320Z AUTO 21004KT 10SM CLR 17/08 A3011 140 55 500 210/04 RMK AO2 T01720083
63870K0J4 0J420161117182510711/17/16 18:25:31  5-MIN K0J4 172325Z AUTO 20003KT 10SM CLR 17/09 A3011 140 60 400 200/03 RMK AO2 T01670089
63870K0J4 0J420161117183010711/17/16 18:30:31  5-MIN K0J4 172330Z AUTO 20003KT 10SM CLR 18/08 A3011 140 52 600 200/03 RMK AO2 T01830083
63870K0J4 0J420161117183510711/17/16 18:35:31  5-MIN K0J4 172335Z AUTO 21004KT 10SM CLR 19/08 A3011 140 48 700 210/04 RMK AO2 T01940083
63870K0J4 0J420161117184010711/17/16 18:40:31  5-MIN K0J4 172340Z AUTO 22004KT 10SM CLR 19/08 A3011 140 48 700 220/04 RMK AO2 T01940083
63870K0J4 0J420161117184510711/17/16 18:45:31  5-MIN K0J4 172345Z AUTO 22003KT 10SM CLR 19/08 A3011 140 48 700 220/03 RMK AO2 T01940083
63870K0J4 0J420161117185010711/17/16 18:50:31  5-MIN K0J4 172350Z AUTO 21004KT 10SM CLR 19/08 A3012 140 48 700 210/04 RMK AO2 T01940083
63870K0J4 0J420161117185513811/17/16 18:55:31  5-MIN K0J4 172355Z AUTO 21004KT 10SM CLR 18/08 A3012 130 52 600 210/04 RMK AO2 SLP197 60000 T01830083 10267 20167 56013
63870K0J4 0J420161117190010711/17/16 19:00:31  5-MIN K0J4 180000Z AUTO 21004KT 10SM CLR 18/08 A3012 130 52 600 210/04 RMK AO2 T01830083
63870K0J4 0J420161117190510711/17/16 19:05:31  5-MIN K0J4 180005Z AUTO 00000KT 10SM CLR 18/08 A3012 130 53 500 000/00 RMK AO2 T01780083
63870K0J4 0J420161117191010711/17/16 19:10:31  5-MIN K0J4 180010Z AUTO 21003KT 10SM CLR 18/08 A3012 130 52 600 210/03 RMK AO2 T01830083
63870K0J4 0J420161117191510711/17/16 19:15:31  5-MIN K0J4 180015Z AUTO 22003KT 10SM CLR 18/08 A3012 130 53 500 220/03 RMK AO2 T01780083
63870K0J4 0J420161117192010711/17/16 19:20:31  5-MIN K0J4 180020Z AUTO 22003KT 10SM CLR 17/08 A3012 130 57 400 220/03 RMK AO2 T01670083
63870K0J4 0J420161117192510711/17/16 19:25:31  5-MIN K0J4 180025Z AUTO 22003KT 10SM CLR 15/09 A3012 130 66 200 220/03 RMK AO2 T01500089
63870K0J4 0J420161117193010711/17/16 19:30:31  5-MIN K0J4 180030Z AUTO 22003KT 10SM CLR 14/09 A3012 130 69 100 220/03 RMK AO2 T01440089
63870K0J4 0J420161117193510711/17/16 19:35:31  5-MIN K0J4 180035Z AUTO 22003KT 10SM CLR 14/09 A3012 130 71 100 220/03 RMK AO2 T01390089
63870K0J4 0J420161117194010711/17/16 19:40:31  5-MIN K0J4 180040Z AUTO 00000KT 10SM CLR 14/09 A3013 130 71 100 000/00 RMK AO2 T01390089
63870K0J4 0J420161117194510711/17/16 19:45:31  5-MIN K0J4 180045Z AUTO 00000KT 10SM CLR 14/09 A3013 130 71 100 000/00 RMK AO2 T01390089
63870K0J4 0J420161117195010711/17/16 19:50:31  5-MIN K0J4 180050Z AUTO 21003KT 10SM CLR 14/09 A3013 130 71 100 210/03 RMK AO2 T01390089
63870K0J4 0J420161117195511211/17/16 19:55:31  5-MIN K0J4 180055Z AUTO 22003KT 10SM CLR 13/08 A3013 120 71 0 220/03 RMK AO2 SLP201 T01330083
63870K0J4 0J420161117200010511/17/16 20:00:31  5-MIN K0J4 180100Z AUTO 21003KT 10SM CLR 13/08 A3013 120 71 0 210/03 RMK AO2 T01330083
63870K0J4 0J420161117200510511/17/16 20:05:31  5-MIN K0J4 180105Z AUTO 21003KT 10SM CLR 13/08 A3013 120 71 0 210/03 RMK AO2 T01330083
63870K0J4 0J420161117201010511/17/16 20:10:31  5-MIN K0J4 180110Z AUTO 22003KT 10SM CLR 13/08 A3013 120 71 0 220/03 RMK AO2 T01330083
63870K0J4 0J420161117201510511/17/16 20:15:31  5-MIN K0J4 180115Z AUTO 22003KT 10SM CLR 13/08 A3014 120 71 0 220/03 RMK AO2 T01330083
63870K0J4 0J420161117202010511/17/16 20:20:31  5-MIN K0J4 180120Z AUTO 22003KT 10SM CLR 13/08 A3014 120 74 0 220/03 RMK AO2 T01280083
63870K0J4 0J420161117202510511/17/16 20:25:31  5-MIN K0J4 180125Z AUTO 00000KT 10SM CLR 13/08 A3014 120 74 0 000/00 RMK AO2 T01280083
63870K0J4 0J420161117203010811/17/16 20:30:31  5-MIN K0J4 180130Z AUTO 00000KT 10SM CLR 12/08 A3014 120 77 -100 000/00 RMK AO2 T01220083
63870K0J4 0J420161117203510511/17/16 20:35:31  5-MIN K0J4 180135Z AUTO 23003KT 10SM CLR 13/08 A3014 120 74 0 230/03 RMK AO2 T01280083
63870K0J4 0J420161117204010511/17/16 20:40:31  5-MIN K0J4 180140Z AUTO 22003KT 10SM CLR 13/08 A3014 110 74 0 220/03 RMK AO2 T01280083
63870K0J4 0J420161117204510811/17/16 20:45:31  5-MIN K0J4 180145Z AUTO 00000KT 10SM CLR 12/08 A3014 110 77 -100 000/00 RMK AO2 T01220083
63870K0J4 0J420161117205010511/17/16 20:50:31  5-MIN K0J4 180150Z AUTO 00000KT 10SM CLR 13/08 A3014 110 74 0 000/00 RMK AO2 T01280083
63870K0J4 0J420161117205511511/17/16 20:55:31  5-MIN K0J4 180155Z AUTO 23003KT 10SM CLR 12/08 A3014 110 74 -100 230/03 RMK AO2 SLP206 T01220078
63870K0J4 0J420161117210010811/17/16 21:00:31  5-MIN K0J4 180200Z AUTO 23003KT 10SM CLR 12/08 A3014 110 77 -100 230/03 RMK AO2 T01220083
63870K0J4 0J420161117210510811/17/16 21:05:31  5-MIN K0J4 180205Z AUTO 00000KT 10SM CLR 12/08 A3015 110 77 -200 000/00 RMK AO2 T01170078
63870K0J4 0J420161117211010811/17/16 21:10:31  5-MIN K0J4 180210Z AUTO 00000KT 10SM CLR 12/08 A3015 110 77 -200 000/00 RMK AO2 T01170078
63870K0J4 0J420161117211510811/17/16 21:15:31  5-MIN K0J4 180215Z AUTO 00000KT 10SM CLR 12/08 A3015 110 74 -100 000/00 RMK AO2 T01220078
63870K0J4 0J420161117212010811/17/16 21:20:31  5-MIN K0J4 180220Z AUTO 00000KT 10SM CLR 12/08 A3015 100 77 -200 000/00 RMK AO2 T01170078
63870K0J4 0J420161117212510811/17/16 21:25:31  5-MIN K0J4 180225Z AUTO 00000KT 10SM CLR 12/08 A3015 100 77 -200 000/00 RMK AO2 T01170078
63870K0J4 0J420161117213010811/17/16 21:30:31  5-MIN K0J4 180230Z AUTO 00000KT 10SM CLR 12/08 A3015 100 77 -200 000/00 RMK AO2 T01170078
63870K0J4 0J420161117213510811/17/16 21:35:31  5-MIN K0J4 180235Z AUTO 00000KT 10SM CLR 12/08 A3015 100 77 -200 000/00 RMK AO2 T01170078
63870K0J4 0J420161117214010811/17/16 21:40:31  5-MIN K0J4 180240Z AUTO 00000KT 10SM CLR 12/08 A3015 100 77 -200 000/00 RMK AO2 T01170078
63870K0J4 0J420161117214510811/17/16 21:45:31  5-MIN K0J4 180245Z AUTO 00000KT 10SM CLR 12/08 A3015 100 77 -100 000/00 RMK AO2 T01220083
63870K0J4 0J420161117215010811/17/16 21:50:31  5-MIN K0J4 180250Z AUTO 00000KT 10SM CLR 12/08 A3016 100 80 -200 000/00 RMK AO2 T01170083
63870K0J4 0J420161117215512111/17/16 21:55:31  5-MIN K0J4 180255Z AUTO 00000KT 10SM CLR 12/08 A3016 100 77 -100 000/00 RMK AO2 SLP209 T01220083 53012
63870K0J4 0J420161117220010811/17/16 22:00:31  5-MIN K0J4 180300Z AUTO 00000KT 10SM CLR 11/08 A3016 100 80 -300 000/00 RMK AO2 T01110078
63870K0J4 0J420161117220510811/17/16 22:05:31  5-MIN K0J4 180305Z AUTO 00000KT 10SM CLR 11/08 A3016 100 80 -300 000/00 RMK AO2 T01110078
63870K0J4 0J420161117221010811/17/16 22:10:31  5-MIN K0J4 180310Z AUTO 00000KT 10SM CLR 11/08 A3016 100 80 -300 000/00 RMK AO2 T01110078
63870K0J4 0J420161117221510811/17/16 22:15:31  5-MIN K0J4 180315Z AUTO 00000KT 10SM CLR 11/08 A3016 100 80 -300 000/00 RMK AO2 T01110078
63870K0J4 0J420161117222010811/17/16 22:20:31  5-MIN K0J4 180320Z AUTO 00000KT 10SM CLR 11/08 A3016 100 83 -300 000/00 RMK AO2 T01110083
63870K0J4 0J420161117222510811/17/16 22:25:31  5-MIN K0J4 180325Z AUTO 00000KT 10SM CLR 11/08 A3016 100 83 -300 000/00 RMK AO2 T01060078
63870K0J4 0J420161117223010811/17/16 22:30:31  5-MIN K0J4 180330Z AUTO 00000KT 10SM CLR 11/08 A3016 100 83 -300 000/00 RMK AO2 T01110083
63870K0J4 0J420161117223510811/17/16 22:35:31  5-MIN K0J4 180335Z AUTO 00000KT 10SM CLR 11/08 A3016 100 83 -300 000/00 RMK AO2 T01110083
63870K0J4 0J420161117224010711/17/16 22:40:31  5-MIN K0J4 180340Z AUTO 00000KT 10SM CLR 11/08 A3016 90 83 -300 000/00 RMK AO2 T01110083
63870K0J4 0J420161117224510711/17/16 22:45:31  5-MIN K0J4 180345Z AUTO 00000KT 10SM CLR 11/08 A3016 90 83 -300 000/00 RMK AO2 T01060078
63870K0J4 0J420161117225010711/17/16 22:50:31  5-MIN K0J4 180350Z AUTO 00000KT 10SM CLR 11/08 A3016 90 86 -300 000/00 RMK AO2 T01060083
63870K0J4 0J420161117225511411/17/16 22:55:31  5-MIN K0J4 180355Z AUTO 00000KT 10SM CLR 11/08 A3016 90 83 -300 000/00 RMK AO2 SLP212 T01060078
63870K0J4 0J420161117230010711/17/16 23:00:31  5-MIN K0J4 180400Z AUTO 00000KT 10SM CLR 11/08 A3016 90 83 -300 000/00 RMK AO2 T01060078
63870K0J4 0J420161117230510711/17/16 23:05:31  5-MIN K0J4 180405Z AUTO 00000KT 10SM CLR 11/08 A3016 90 83 -300 000/00 RMK AO2 T01060078
63870K0J4 0J420161117231010711/17/16 23:10:31  5-MIN K0J4 180410Z AUTO 00000KT 10SM CLR 11/08 A3016 90 83 -300 000/00 RMK AO2 T01060078
63870K0J4 0J420161117231510711/17/16 23:15:31  5-MIN K0J4 180415Z AUTO 00000KT 10SM CLR 11/08 A3016 90 83 -300 000/00 RMK AO2 T01060078
63870K0J4 0J420161117232010711/17/16 23:20:31  5-MIN K0J4 180420Z AUTO 00000KT 10SM CLR 11/08 A3016 90 83 -300 000/00 RMK AO2 T01110083
63870K0J4 0J420161117232510711/17/16 23:25:31  5-MIN K0J4 180425Z AUTO 23003KT 10SM CLR 12/09 A3016 90 83 -100 230/03 RMK AO2 T01220094
63870K0J4 0J420161117233010711/17/16 23:30:31  5-MIN K0J4 180430Z AUTO 21003KT 10SM CLR 12/10 A3016 90 86 -100 210/03 RMK AO2 T01220100
63870K0J4 0J420161117233510711/17/16 23:35:31  5-MIN K0J4 180435Z AUTO 00000KT 10SM CLR 12/09 A3016 90 86 -200 000/00 RMK AO2 T01170094
63870K0J4 0J420161117234010711/17/16 23:40:31  5-MIN K0J4 180440Z AUTO 00000KT 10SM CLR 11/09 A3017 90 89 -300 000/00 RMK AO2 T01110094
63870K0J4 0J420161117234510711/17/16 23:45:31  5-MIN K0J4 180445Z AUTO 23003KT 10SM CLR 11/09 A3017 90 89 -300 230/03 RMK AO2 T01060089
63870K0J4 0J420161117235010711/17/16 23:50:31  5-MIN K0J4 180450Z AUTO 00000KT 10SM CLR 11/08 A3016 90 86 -300 000/00 RMK AO2 T01060083
63870K0J4 0J420161117235512411/17/16 23:55:31  5-MIN K0J4 180455Z AUTO 22003KT 10SM CLR 11/08 A3016 90 83 -300 220/03 RMK AO2 SLP211 T01060078 402670044
63870K0J4 0J420161118000010711/18/16 00:00:31  5-MIN K0J4 180500Z AUTO 00000KT 10SM CLR 10/08 A3016 90 86 -400 000/00 RMK AO2 T01000078
63870K0J4 0J420161118000510711/18/16 00:05:31  5-MIN K0J4 180505Z AUTO 00000KT 10SM CLR 10/08 A3016 90 86 -400 000/00 RMK AO2 T01000078
63870K0J4 0J420161118001010711/18/16 00:10:31  5-MIN K0J4 180510Z AUTO 00000KT 10SM CLR 10/08 A3016 90 86 -400 000/00 RMK AO2 T01000078
63870K0J4 0J420161118001510711/18/16 00:15:31  5-MIN K0J4 180515Z AUTO 00000KT 10SM CLR 10/08 A3017 90 86 -400 000/00 RMK AO2 T01000078
63870K0J4 0J420161118002010711/18/16 00:20:31  5-MIN K0J4 180520Z AUTO 00000KT 10SM CLR 10/08 A3017 90 86 -400 000/00 RMK AO2 T01000078
63870K0J4 0J420161118002510711/18/16 00:25:31  5-MIN K0J4 180525Z AUTO 00000KT 10SM CLR 10/08 A3017 90 86 -400 000/00 RMK AO2 T01000078
63870K0J4 0J420161118003010711/18/16 00:30:31  5-MIN K0J4 180530Z AUTO 00000KT 10SM CLR 10/08 A3017 90 86 -400 000/00 RMK AO2 T01000078
63870K0J4 0J420161118003510711/18/16 00:35:31  5-MIN K0J4 180535Z AUTO 00000KT 10SM CLR 10/08 A3017 90 86 -400 000/00 RMK AO2 T01000078
63870K0J4 0J420161118004010711/18/16 00:40:31  5-MIN K0J4 180540Z AUTO 00000KT 10SM CLR 10/08 A3017 90 86 -400 000/00 RMK AO2 T01000078
63870K0J4 0J420161118004510711/18/16 00:45:31  5-MIN K0J4 180545Z AUTO 00000KT 10SM CLR 10/08 A3016 90 86 -400 000/00 RMK AO2 T01000078
63870K0J4 0J420161118005010711/18/16 00:50:31  5-MIN K0J4 180550Z AUTO 00000KT 10SM CLR 10/08 A3016 90 86 -400 000/00 RMK AO2 T01000078
63870K0J4 0J420161118005513211/18/16 00:55:31  5-MIN K0J4 180555Z AUTO 00000KT 10SM CLR 11/08 A3017 90 86 -300 000/00 RMK AO2 SLP212 T01060083 10189 20100 53012
63870K0J4 0J420161118010010711/18/16 01:00:31  5-MIN K0J4 180600Z AUTO 00000KT 10SM CLR 10/08 A3016 90 89 -400 000/00 RMK AO2 T01000083
63870K0J4 0J420161118010510711/18/16 01:05:31  5-MIN K0J4 180605Z AUTO 00000KT 10SM CLR 10/08 A3016 90 86 -400 000/00 RMK AO2 T01000078
63870K0J4 0J420161118011007511/18/16 01:10:31  5-MIN K0J4 180610Z AUTO 00000KT 10SM CLR 10/08 A3016 90 
63870K0J4 0J420161118152512611/18/16 15:25:31  5-MIN K0J4 182025Z AUTO 19008KT 160V230 10SM CLR 26/12 A3014 120 41 1400 190/08 160V230 RMK AO2 T02560117 $
63870K0J4 0J420161118153010811/18/16 15:30:31  5-MIN K0J4 182030Z AUTO 18006KT 10SM CLR 26/12 A3014 120 43 1400 180/06 RMK AO2 T02560122
63870K0J4 0J420161118153510811/18/16 15:35:31  5-MIN K0J4 182035Z AUTO 16007KT 10SM CLR 26/12 A3014 120 43 1400 160/07 RMK AO2 T02560122
63870K0J4 0J420161118154010811/18/16 15:40:31  5-MIN K0J4 182040Z AUTO 20006KT 10SM CLR 26/12 A3014 120 43 1400 200/06 RMK AO2 T02560122
63870K0J4 0J420161118154511411/18/16 15:45:31  5-MIN K0J4 182045Z AUTO 21009G14KT 10SM CLR 26/12 A3014 120 41 1400 210/09G14 RMK AO2 T02560117
63870K0J4 0J420161118155010811/18/16 15:50:31  5-MIN K0J4 182050Z AUTO 21007KT 10SM CLR 26/12 A3014 110 41 1400 210/07 RMK AO2 T02560117
63870K0J4 0J420161118155512111/18/16 15:55:31  5-MIN K0J4 182055Z AUTO 22009KT 10SM CLR 26/12 A3014 110 41 1400 220/09 RMK AO2 SLP203 60000 T02560117
63870K0J4 0J420161118160010811/18/16 16:00:31  5-MIN K0J4 182100Z AUTO 21006KT 10SM CLR 26/12 A3014 110 41 1400 210/06 RMK AO2 T02560117
63870K0J4 0J420161118160510811/18/16 16:05:31  5-MIN K0J4 182105Z AUTO 17005KT 10SM CLR 26/12 A3014 120 41 1400 170/05 RMK AO2 T02560117
63870K0J4 0J420161118161010811/18/16 16:10:31  5-MIN K0J4 182110Z AUTO 18007KT 10SM CLR 26/12 A3014 110 41 1400 180/07 RMK AO2 T02560117
63870K0J4 0J420161118161510811/18/16 16:15:31  5-MIN K0J4 182115Z AUTO 21007KT 10SM CLR 25/12 A3014 120 43 1300 210/07 RMK AO2 T02500117
63870K0J4 0J420161118162010811/18/16 16:20:31  5-MIN K0J4 182120Z AUTO 21008KT 10SM CLR 25/12 A3014 110 43 1300 210/08 RMK AO2 T02500117
63870K0J4 0J420161118162510811/18/16 16:25:31  5-MIN K0J4 182125Z AUTO 20007KT 10SM CLR 25/12 A3014 110 44 1300 200/07 RMK AO2 T02500122
63870K0J4 0J420161118163011111/18/16 16:30:31  5-MIN K0J4 182130Z AUTO 20009KT 10SM FEW048 24/12 A3015 110 46 1300 200/09 RMK AO2 T02440122
63870K0J4 0J420161118163511111/18/16 16:35:31  5-MIN K0J4 182135Z AUTO 20007KT 10SM FEW048 24/12 A3015 110 46 1300 200/07 RMK AO2 T02440122
63870K0J4 0J420161118164011111/18/16 16:40:31  5-MIN K0J4 182140Z AUTO 19006KT 10SM FEW048 25/12 A3015 110 44 1300 190/06 RMK AO2 T02500122
63870K0J4 0J420161118164511111/18/16 16:45:31  5-MIN K0J4 182145Z AUTO 19005KT 10SM FEW048 24/12 A3015 100 46 1300 190/05 RMK AO2 T02440122
63870K0J4 0J420161118165011111/18/16 16:50:31  5-MIN K0J4 182150Z AUTO 20006KT 10SM FEW049 24/12 A3015 100 46 1300 200/06 RMK AO2 T02440122
63870K0J4 0J420161118165511811/18/16 16:55:31  5-MIN K0J4 182155Z AUTO 22005KT 10SM FEW049 24/12 A3015 100 46 1200 220/05 RMK AO2 SLP207 T02390117
63870K0J4 0J420161118170011311/18/16 17:00:31  5-MIN K0J4 182200Z AUTO 21004KT 10SM FEW049 23/12 A3015 100 47 1100 210/04 RMK AO2 T02330117 $
63870K0J4 0J420161118170511311/18/16 17:05:31  5-MIN K0J4 182205Z AUTO 22004KT 10SM FEW049 23/12 A3015 100 47 1100 220/04 RMK AO2 T02330117 $
63870K0J4 0J420161118171011311/18/16 17:10:31  5-MIN K0J4 182210Z AUTO 22007KT 10SM SCT049 23/12 A3016 100 49 1100 220/07 RMK AO2 T02330122 $
63870K0J4 0J420161118171511311/18/16 17:15:31  5-MIN K0J4 182215Z AUTO 22006KT 10SM SCT050 23/12 A3016 100 49 1100 220/06 RMK AO2 T02330122 $
63870K0J4 0J420161118172011311/18/16 17:20:31  5-MIN K0J4 182220Z AUTO 21006KT 10SM BKN050 23/12 A3016 100 49 1100 210/06 RMK AO2 T02330122 $
63870K0J4 0J420161118172511311/18/16 17:25:31  5-MIN K0J4 182225Z AUTO 22006KT 10SM BKN050 23/12 A3016 100 51 1100 220/06 RMK AO2 T02280122 $
63870K0J4 0J420161118173011211/18/16 17:30:31  5-MIN K0J4 182230Z AUTO 22005KT 10SM BKN050 23/12 A3016 90 51 1100 220/05 RMK AO2 T02280122 $
63870K0J4 0J420161118173511211/18/16 17:35:31  5-MIN K0J4 182235Z AUTO 21005KT 10SM BKN050 23/13 A3016 90 53 1100 210/05 RMK AO2 T02280128 $
63870K0J4 0J420161118174011111/18/16 17:40:31  5-MIN K0J4 182240Z AUTO 21007KT 10SM SCT050 22/13 A3016 90 56 900 210/07 RMK AO2 T02170128 $
63870K0J4 0J420161118174511211/18/16 17:45:31  5-MIN K0J4 182245Z AUTO 22006KT 10SM BKN050 22/13 A3017 90 54 1000 220/06 RMK AO2 T02220128 $
63870K0J4 0J420161118175011111/18/16 17:50:31  5-MIN K0J4 182250Z AUTO 21005KT 10SM SCT050 22/13 A3017 90 56 900 210/05 RMK AO2 T02170128 $
63870K0J4 0J420161118175511811/18/16 17:55:31  5-MIN K0J4 182255Z AUTO 22006KT 10SM FEW050 21/13 A3017 90 61 900 220/06 RMK AO2 SLP213 T02110133 $
63870K0J4 0J420161118180011111/18/16 18:00:31  5-MIN K0J4 182300Z AUTO 22006KT 10SM SCT050 22/13 A3017 90 58 900 220/06 RMK AO2 T02170133 $
63870K0J4 0J420161118180511111/18/16 18:05:31  5-MIN K0J4 182305Z AUTO 21005KT 10SM BKN050 21/13 A3017 90 61 900 210/05 RMK AO2 T02110133 $
63870K0J4 0J420161118181011111/18/16 18:10:31  5-MIN K0J4 182310Z AUTO 20005KT 10SM BKN050 21/13 A3017 90 63 800 200/05 RMK AO2 T02060133 $
63870K0J4 0J420161118181511111/18/16 18:15:31  5-MIN K0J4 182315Z AUTO 20005KT 10SM BKN050 20/13 A3017 90 65 700 200/05 RMK AO2 T02000133 $
63870K0J4 0J420161118182011111/18/16 18:20:31  5-MIN K0J4 182320Z AUTO 21005KT 10SM SCT049 20/13 A3017 90 65 700 210/05 RMK AO2 T02000133 $
63870K0J4 0J420161118182511111/18/16 18:25:31  5-MIN K0J4 182325Z AUTO 21005KT 10SM SCT049 20/13 A3017 80 65 700 210/05 RMK AO2 T02000133 $
63870K0J4 0J420161118183011111/18/16 18:30:31  5-MIN K0J4 182330Z AUTO 20005KT 10SM SCT049 19/13 A3017 80 67 700 200/05 RMK AO2 T01940133 $
63870K0J4 0J420161118183511111/18/16 18:35:31  5-MIN K0J4 182335Z AUTO 21006KT 10SM FEW047 19/13 A3017 80 67 700 210/06 RMK AO2 T01940133 $
63870K0J4 0J420161118184011111/18/16 18:40:31  5-MIN K0J4 182340Z AUTO 21006KT 10SM FEW047 19/14 A3017 80 70 700 210/06 RMK AO2 T01940139 $
63870K0J4 0J420161118184510811/18/16 18:45:31  5-MIN K0J4 182345Z AUTO 21006KT 10SM CLR 19/14 A3017 80 70 700 210/06 RMK AO2 T01940139 $
63870K0J4 0J420161118185010811/18/16 18:50:31  5-MIN K0J4 182350Z AUTO 22005KT 10SM CLR 19/14 A3017 80 70 700 220/05 RMK AO2 T01940139 $
63870K0J4 0J420161118185513311/18/16 18:55:31  5-MIN K0J4 182355Z AUTO 23005KT 10SM CLR 20/14 A3017 80 67 700 230/05 RMK AO2 SLP216 60000 T02000139 10261 20194 $
63870K0J4 0J420161118190010811/18/16 19:00:31  5-MIN K0J4 190000Z AUTO 22005KT 10SM CLR 20/14 A3018 80 67 700 220/05 RMK AO2 T02000139 $
63870K0J4 0J420161118190510811/18/16 19:05:31  5-MIN K0J4 190005Z AUTO 22006KT 10SM CLR 20/14 A3018 80 70 700 220/06 RMK AO2 T02000144 $
63870K0J4 0J420161118191010811/18/16 19:10:31  5-MIN K0J4 190010Z AUTO 21005KT 10SM CLR 19/14 A3017 80 70 700 210/05 RMK AO2 T01940139 $
63870K0J4 0J420161118191510811/18/16 19:15:31  5-MIN K0J4 190015Z AUTO 20005KT 10SM CLR 19/14 A3017 80 72 600 200/05 RMK AO2 T01890139 $
63870K0J4 0J420161118192010811/18/16 19:20:31  5-MIN K0J4 190020Z AUTO 21006KT 10SM CLR 18/14 A3018 80 75 500 210/06 RMK AO2 T01830139 $
63870K0J4 0J420161118192510811/18/16 19:25:31  5-MIN K0J4 190025Z AUTO 21005KT 10SM CLR 18/14 A3017 80 75 500 210/05 RMK AO2 T01830139 $
63870K0J4 0J420161118193010811/18/16 19:30:31  5-MIN K0J4 190030Z AUTO 21005KT 10SM CLR 18/14 A3017 80 78 500 210/05 RMK AO2 T01830144 $
63870K0J4 0J420161118193510811/18/16 19:35:31  5-MIN K0J4 190035Z AUTO 20006KT 10SM CLR 18/14 A3017 80 78 500 200/06 RMK AO2 T01830144 $
63870K0J4 0J420161118194010811/18/16 19:40:31  5-MIN K0J4 190040Z AUTO 20005KT 10SM CLR 18/14 A3017 80 81 500 200/05 RMK AO2 T01780144 $
63870K0J4 0J420161118194510811/18/16 19:45:31  5-MIN K0J4 190045Z AUTO 21005KT 10SM CLR 18/14 A3017 80 81 500 210/05 RMK AO2 T01780144 $
63870K0J4 0J420161118195010811/18/16 19:50:31  5-MIN K0J4 190050Z AUTO 21005KT 10SM CLR 18/14 A3017 80 78 500 210/05 RMK AO2 T01830144 $
63870K0J4 0J420161118195511511/18/16 19:55:31  5-MIN K0J4 190055Z AUTO 22005KT 10SM CLR 18/14 A3017 80 78 500 220/05 RMK AO2 SLP216 T01830144 $
63870K0J4 0J420161118200010811/18/16 20:00:31  5-MIN K0J4 190100Z AUTO 21005KT 10SM CLR 18/14 A3017 80 78 500 210/05 RMK AO2 T01830144 $
63870K0J4 0J420161118200510811/18/16 20:05:31  5-MIN K0J4 190105Z AUTO 21005KT 10SM CLR 18/15 A3018 80 81 500 210/05 RMK AO2 T01830150 $
63870K0J4 0J420161118201010811/18/16 20:10:31  5-MIN K0J4 190110Z AUTO 21006KT 10SM CLR 18/15 A3017 80 83 500 210/06 RMK AO2 T01780150 $
63870K0J4 0J420161118201510811/18/16 20:15:31  5-MIN K0J4 190115Z AUTO 21006KT 10SM CLR 17/14 A3018 80 83 400 210/06 RMK AO2 T01720144 $
63870K0J4 0J420161118202010811/18/16 20:20:31  5-MIN K0J4 190120Z AUTO 22006KT 10SM CLR 18/15 A3018 80 81 500 220/06 RMK AO2 T01830150 $
63870K0J4 0J420161118202510811/18/16 20:25:31  5-MIN K0J4 190125Z AUTO 22006KT 10SM CLR 18/15 A3018 80 81 500 220/06 RMK AO2 T01830150 $
63870K0J4 0J420161118203010811/18/16 20:30:31  5-MIN K0J4 190130Z AUTO 22005KT 10SM CLR 18/15 A3018 70 83 500 220/05 RMK AO2 T01780150 $
63870K0J4 0J420161118203510811/18/16 20:35:31  5-MIN K0J4 190135Z AUTO 22005KT 10SM CLR 18/15 A3018 70 83 500 220/05 RMK AO2 T01780150 $
63870K0J4 0J420161118204010811/18/16 20:40:31  5-MIN K0J4 190140Z AUTO 21004KT 10SM CLR 18/15 A3018 70 81 500 210/04 RMK AO2 T01830150 $
63870K0J4 0J420161118204510811/18/16 20:45:31  5-MIN K0J4 190145Z AUTO 22004KT 10SM CLR 18/15 A3019 70 83 500 220/04 RMK AO2 T01780150 $
63870K0J4 0J420161118205010811/18/16 20:50:31  5-MIN K0J4 190150Z AUTO 21003KT 10SM CLR 18/15 A3019 70 83 500 210/03 RMK AO2 T01780150 $
63870K0J4 0J420161118205511511/18/16 20:55:31  5-MIN K0J4 190155Z AUTO 21003KT 10SM CLR 17/15 A3019 70 87 400 210/03 RMK AO2 SLP221 T01720150 $
63870K0J4 0J420161118210010811/18/16 21:00:31  5-MIN K0J4 190200Z AUTO 21004KT 10SM CLR 17/14 A3019 70 83 400 210/04 RMK AO2 T01720144 $
63870K0J4 0J420161118210510811/18/16 21:05:31  5-MIN K0J4 190205Z AUTO 21003KT 10SM CLR 17/14 A3019 70 86 300 210/03 RMK AO2 T01670144 $
63870K0J4 0J420161118211010811/18/16 21:10:31  5-MIN K0J4 190210Z AUTO 19003KT 10SM CLR 17/14 A3019 60 86 300 190/03 RMK AO2 T01670144 $
63870K0J4 0J420161118211510811/18/16 21:15:31  5-MIN K0J4 190215Z AUTO 21003KT 10SM CLR 17/14 A3019 60 86 300 210/03 RMK AO2 T01670144 $
63870K0J4 0J420161118212010811/18/16 21:20:31  5-MIN K0J4 190220Z AUTO 21003KT 10SM CLR 17/15 A3019 60 87 400 210/03 RMK AO2 T01720150 $
63870K0J4 0J420161118212510811/18/16 21:25:31  5-MIN K0J4 190225Z AUTO 21004KT 10SM CLR 16/14 A3020 60 90 200 210/04 RMK AO2 T01610144 $
63870K0J4 0J420161118213010811/18/16 21:30:31  5-MIN K0J4 190230Z AUTO 21004KT 10SM CLR 16/14 A3019 60 90 200 210/04 RMK AO2 T01610144 $
63870K0J4 0J420161118213510811/18/16 21:35:31  5-MIN K0J4 190235Z AUTO 21004KT 10SM CLR 17/15 A3020 60 90 300 210/04 RMK AO2 T01670150 $
63870K0J4 0J420161118214010811/18/16 21:40:31  5-MIN K0J4 190240Z AUTO 20005KT 10SM CLR 17/15 A3020 60 90 300 200/05 RMK AO2 T01670150 $
63870K0J4 0J420161118214510811/18/16 21:45:31  5-MIN K0J4 190245Z AUTO 20005KT 10SM CLR 17/15 A3020 60 90 300 200/05 RMK AO2 T01670150 $
63870K0J4 0J420161118215010811/18/16 21:50:31  5-MIN K0J4 190250Z AUTO 20004KT 10SM CLR 16/15 A3020 60 93 200 200/04 RMK AO2 T01610150 $
63870K0J4 0J420161118215512111/18/16 21:55:31  5-MIN K0J4 190255Z AUTO 20003KT 10SM CLR 16/15 A3020 60 93 200 200/03 RMK AO2 SLP223 T01610150 51012 $
63870K0J4 0J420161118220010811/18/16 22:00:31  5-MIN K0J4 190300Z AUTO 21003KT 10SM CLR 16/14 A3020 60 90 200 210/03 RMK AO2 T01610144 $
63870K0J4 0J420161118220510711/18/16 22:05:31  5-MIN K0J4 190305Z AUTO 21003KT 9SM CLR 17/15 A3020 60 90 300 210/03 RMK AO2 T01670150 $
63870K0J4 0J420161118221010711/18/16 22:10:31  5-MIN K0J4 190310Z AUTO 21003KT 9SM CLR 16/14 A3020 60 93 200 210/03 RMK AO2 T01560144 $
63870K0J4 0J420161118221510711/18/16 22:15:31  5-MIN K0J4 190315Z AUTO 21003KT 8SM CLR 15/14 A3020 60 96 100 210/03 RMK AO2 T01500144 $
63870K0J4 0J420161118222010711/18/16 22:20:31  5-MIN K0J4 190320Z AUTO 22003KT 8SM CLR 15/14 A3020 50 93 100 220/03 RMK AO2 T01500139 $
63870K0J4 0J420161118222510711/18/16 22:25:31  5-MIN K0J4 190325Z AUTO 23003KT 8SM CLR 16/14 A3021 50 90 200 230/03 RMK AO2 T01560139 $
63870K0J4 0J420161118223010711/18/16 22:30:31  5-MIN K0J4 190330Z AUTO 22003KT 8SM CLR 15/14 A3021 50 93 100 220/03 RMK AO2 T01500139 $
63870K0J4 0J420161118223510511/18/16 22:35:31  5-MIN K0J4 190335Z AUTO 21003KT 8SM CLR 14/13 A3021 50 93 0 210/03 RMK AO2 T01440133 $
63870K0J4 0J420161118224010511/18/16 22:40:31  5-MIN K0J4 190340Z AUTO 00000KT 7SM CLR 14/13 A3021 50 93 0 000/00 RMK AO2 T01390128 $
63870K0J4 0J420161118224511011/18/16 22:45:31  5-MIN K0J4 190345Z AUTO 23003KT 6SM BR CLR 15/13 A3021 50 90 100 230/03 RMK AO2 T01500133 $
63870K0J4 0J420161118225010811/18/16 22:50:31  5-MIN K0J4 190350Z AUTO 00000KT 5SM BR CLR 13/13 A3021 50 96 0 000/00 RMK AO2 T01330128 $
63870K0J4 0J420161118225511711/18/16 22:55:31  5-MIN K0J4 190355Z AUTO 21003KT 5SM BR CLR 15/13 A3020 60 86 100 210/03 RMK AO2 SLP225 T01500128 $
63870K0J4 0J420161118230011011/18/16 23:00:31  5-MIN K0J4 190400Z AUTO 21004KT 6SM BR CLR 15/14 A3020 50 93 100 210/04 RMK AO2 T01500139 $
63870K0J4 0J420161118230511011/18/16 23:05:31  5-MIN K0J4 190405Z AUTO 22003KT 6SM BR CLR 15/14 A3021 50 93 100 220/03 RMK AO2 T01500139 $
63870K0J4 0J420161118231011011/18/16 23:10:31  5-MIN K0J4 190410Z AUTO 22003KT 4SM BR CLR 15/14 A3020 50 96 100 220/03 RMK AO2 T01500144 $
63870K0J4 0J420161118231511011/18/16 23:15:31  5-MIN K0J4 190415Z AUTO 22003KT 4SM BR CLR 15/14 A3021 50 96 100 220/03 RMK AO2 T01500144 $
63870K0J4 0J420161118232011011/18/16 23:20:31  5-MIN K0J4 190420Z AUTO 21003KT 5SM BR CLR 15/14 A3021 50 96 100 210/03 RMK AO2 T01500144 $
63870K0J4 0J420161118232510911/18/16 23:25:31  5-MIN K0J4 190425Z AUTO 21003KT 5SM BR CLR 14/14 A3020 50 100 0 210/03 RMK AO2 T01390139 $
63870K0J4 0J420161118233010811/18/16 23:30:31  5-MIN K0J4 190430Z AUTO 21003KT 4SM BR CLR 14/13 A3020 60 93 0 210/03 RMK AO2 T01390128 $
63870K0J4 0J420161118233510811/18/16 23:35:31  5-MIN K0J4 190435Z AUTO 21003KT 4SM BR CLR 14/12 A3020 50 90 0 210/03 RMK AO2 T01390122 $
63870K0J4 0J420161118234012011/18/16 23:40:31  5-MIN K0J4 190440Z AUTO 21003KT 3/4SM BR CLR 13/12 A3020 60 93 0 210/03 RMK AO2 VIS 1/4V4 T01330122 $
63870K0J4 0J420161118234511311/18/16 23:45:31  5-MIN K0J4 190445Z AUTO 20003KT 1/2SM FG CLR 13/11 A3020 60 89 -100 200/03 RMK AO2 T01280111 $
63870K0J4 0J420161118235012211/18/16 23:50:31  5-MIN K0J4 190450Z AUTO 21003KT 1 1/4SM HZ CLR 14/12 A3020 60 83 0 210/03 RMK AO2 VIS 1/4V5 T01440117 $
63870K0J4 0J420161118235509811/18/16 23:55:31  5-MIN K0J4 190455Z AUTO 21004KT 3SM BR CLR 13/13 A3020 60 96 0 210/04 RMK AO2 $
63870K0J4 0J420161119000011111/19/16 00:00:31  5-MIN K0J4 190500Z AUTO 21003KT 4SM BR CLR 13/12 A3020 60 96 -100 210/03 RMK AO2 T01280122 $
63870K0J4 0J420161119000511111/19/16 00:05:31  5-MIN K0J4 190505Z AUTO 20003KT 5SM BR CLR 13/12 A3020 60 93 -100 200/03 RMK AO2 T01280117 $
63870K0J4 0J420161119001011511/19/16 00:10:31  5-MIN K0J4 190510Z AUTO 20004KT 2 1/2SM BR CLR 13/11 A3020 60 89 -100 200/04 RMK AO2 T01280111 $
63870K0J4 0J420161119001512211/19/16 00:15:31  5-MIN K0J4 190515Z AUTO 21004KT 1 3/4SM BR CLR 14/13 A3020 60 93 100 210/04 RMK AO2 VIS 1V4 T01440133 $
63870K0J4 0J420161119002011011/19/16 00:20:31  5-MIN K0J4 190520Z AUTO 21004KT 2SM BR CLR 15/14 A3020 60 93 100 210/04 RMK AO2 T01500139 $
63870K0J4 0J420161119002511011/19/16 00:25:31  5-MIN K0J4 190525Z AUTO 22004KT 4SM BR CLR 15/14 A3020 60 96 100 220/04 RMK AO2 T01500144 $
63870K0J4 0J420161119003011011/19/16 00:30:31  5-MIN K0J4 190530Z AUTO 20004KT 5SM BR CLR 15/14 A3020 60 96 100 200/04 RMK AO2 T01500144 $
63870K0J4 0J420161119003511011/19/16 00:35:31  5-MIN K0J4 190535Z AUTO 21003KT 5SM BR CLR 15/14 A3019 60 96 100 210/03 RMK AO2 T01500144 $
63870K0J4 0J420161119004011811/19/16 00:40:31  5-MIN K0J4 190540Z AUTO 20003KT 2 1/2SM BR FEW002 14/14 A3019 70 100 100 200/03 RMK AO2 T01440144 $
63870K0J4 0J420161119004512011/19/16 00:45:31  5-MIN K0J4 190545Z AUTO 21003KT 1SM BR VV002 14/13 A3019 70 96 0 210/03 RMK AO2 VIS 1/4V3 T01390133 $
63870K0J4 0J420161119005012611/19/16 00:50:31  5-MIN K0J4 190550Z AUTO 21003KT 1SM BR VV002 15/14 A3019 70 93 100 210/03 RMK AO2 VIS 1/4V2 1/2 T01500139 $
63870K0J4 0J420161119005514111/19/16 00:55:31  5-MIN K0J4 190555Z AUTO 20003KT 1/2SM FG VV002 13/13 A3019 70 100 -100 200/03 RMK AO2 SLP220 T01280128 10200 20122 53008 $
63870K0J4 0J420161119010011511/19/16 01:00:31  5-MIN K0J4 190600Z AUTO 18003KT 1/4SM FG VV002 12/11 A3018 80 96 -200 180/03 RMK AO2 T01170111 $
63870K0J4 0J420161119010511411/19/16 01:05:31  5-MIN K0J4 190605Z AUTO 21004KT 1/2SM FG VV002 14/12 A3018 70 86 100 210/04 RMK AO2 T01440122 $
63870K0J4 0J420161119011011711/19/16 01:10:31  5-MIN K0J4 190610Z AUTO 20004KT 2 1/2SM BR FEW002 15/14 A3018 70 93 100 200/04 RMK AO2 T01500139 $
63870K0J4 0J420161119011511311/19/16 01:15:31  5-MIN K0J4 190615Z AUTO 23004KT 4SM BR FEW002 14/14 A3019 70 96 100 230/04 RMK AO2 T01440139 $
63870K0J4 0J420161119012011311/19/16 01:20:31  5-MIN K0J4 190620Z AUTO 23004KT 5SM BR FEW002 16/14 A3019 70 93 200 230/04 RMK AO2 T01560144 $
63870K0J4 0J420161119012511311/19/16 01:25:31  5-MIN K0J4 190625Z AUTO 21003KT 6SM BR FEW002 15/14 A3019 70 96 100 210/03 RMK AO2 T01500144 $
63870K0J4 0J420161119013010911/19/16 01:30:31  5-MIN K0J4 190630Z AUTO 00000KT 5SM BR CLR 14/14 A3019 70 100 0 000/00 RMK AO2 T01390139 $
63870K0J4 0J420161119013511411/19/16 01:35:31  5-MIN K0J4 190635Z AUTO 00000KT 1/2SM FG VV002 14/14 A3019 70 96 100 000/00 RMK AO2 T01440139 $
63870K0J4 0J420161119014011211/19/16 01:40:31  5-MIN K0J4 190640Z AUTO 00000KT 1/4SM FG VV002 14/13 A3019 70 96 0 000/00 RMK AO2 T01390133 $
63870K0J4 0J420161119014511211/19/16 01:45:31  5-MIN K0J4 190645Z AUTO 00000KT 1/4SM FG VV001 13/12 A3019 70 93 0 000/00 RMK AO2 T01330122 $
63870K0J4 0J420161119015011211/19/16 01:50:31  5-MIN K0J4 190650Z AUTO 23003KT 1/4SM FG VV002 13/13 A3019 70 96 0 230/03 RMK AO2 T01330128 $
63870K0J4 0J420161119015512211/19/16 01:55:31  5-MIN K0J4 190655Z AUTO 23003KT 3/4SM BR VV002 12/12 A3019 70 96 -200 230/03 RMK AO2 SLP220 T01220117 $
63870K0J4 0J420161119020011511/19/16 02:00:31  5-MIN K0J4 190700Z AUTO 00000KT 3/4SM BR VV002 12/12 A3019 70 96 -200 000/00 RMK AO2 T01220117 $
63870K0J4 0J420161119020512511/19/16 02:05:31  5-MIN K0J4 190705Z AUTO 19003KT 3/4SM BR VV001 12/11 A3018 70 96 -200 190/03 RMK AO2 VIS 1/4V3 T01170111 $
63870K0J4 0J420161119021011211/19/16 02:10:31  5-MIN K0J4 190710Z AUTO 21003KT 1/2SM FG VV001 13/12 A3019 70 89 0 210/03 RMK AO2 T01330117 $
63870K0J4 0J420161119021511511/19/16 02:15:31  5-MIN K0J4 190715Z AUTO 19003KT 1/4SM FG VV001 12/12 A3018 70 96 -100 190/03 RMK AO2 T01220117 $
63870K0J4 0J420161119022011511/19/16 02:20:31  5-MIN K0J4 190720Z AUTO 20003KT 1/4SM FG VV001 12/12 A3018 70 96 -100 200/03 RMK AO2 T01220117 $
63870K0J4 0J420161119022511511/19/16 02:25:31  5-MIN K0J4 190725Z AUTO 21003KT 1/4SM FG VV001 13/12 A3018 70 96 -100 210/03 RMK AO2 T01280122 $
63870K0J4 0J420161119023011611/19/16 02:30:31  5-MIN K0J4 190730Z AUTO 21003KT 1/4SM FG VV001 11/11 A3018 70 100 -300 210/03 RMK AO2 T01110111 $
63870K0J4 0J420161119023511511/19/16 02:35:31  5-MIN K0J4 190735Z AUTO 21003KT 1/4SM FG VV001 12/11 A3018 70 96 -200 210/03 RMK AO2 T01170111 $
63870K0J4 0J420161119024011511/19/16 02:40:31  5-MIN K0J4 190740Z AUTO 00000KT 1/4SM FG VV001 12/11 A3018 70 93 -200 000/00 RMK AO2 T01220111 $
63870K0J4 0J420161119024511511/19/16 02:45:31  5-MIN K0J4 190745Z AUTO 00000KT 1/4SM FG VV001 12/11 A3018 70 96 -200 000/00 RMK AO2 T01170111 $
63870K0J4 0J420161119025011511/19/16 02:50:31  5-MIN K0J4 190750Z AUTO 00000KT 1/4SM FG VV001 11/11 A3018 80 96 -300 000/00 RMK AO2 T01110106 $
63870K0J4 0J420161119025512211/19/16 02:55:31  5-MIN K0J4 190755Z AUTO 00000KT 1/4SM FG VV001 12/11 A3018 80 96 -200 000/00 RMK AO2 SLP217 T01170111 $
63870K0J4 0J420161119030011511/19/16 03:00:31  5-MIN K0J4 190800Z AUTO 18003KT 1/4SM FG VV001 11/11 A3018 80 96 -300 180/03 RMK AO2 T01110106 $
63870K0J4 0J420161119030511811/19/16 03:05:31  5-MIN K0J4 190805Z AUTO 00000KT 1 1/2SM BR SCT001 11/11 A3018 80 96 -300 000/00 RMK AO2 T01110106 $
63870K0J4 0J420161119031007311/19/16 03:10:31  5-MIN K0J4 190810Z AUTO 00000KT M M M 000/00 RMK AO2 $
63870K0J4 0J420161119031507911/19/16 03:15:31  5-MIN K0J4 190815Z AUTO 21003KT A3018 M M M 210/03 RMK AO2 $
63870K0J4 0J420161119032011011/19/16 03:20:31  5-MIN K0J4 190820Z AUTO 20003KT 1/4SM FG 11/11 A3018 80 100 -300 200/03 RMK AO2 T01060106 $
63870K0J4 0J420161119032510911/19/16 03:25:31  5-MIN K0J4 190825Z AUTO 00000KT 3/4SM BR 12/11 A3018 80 93 -200 000/00 RMK AO2 T01170106 $
63870K0J4 0J420161119033012211/19/16 03:30:31  5-MIN K0J4 190830Z AUTO 00000KT 1 3/4SM BR 12/12 A3018 80 100 -200 000/00 RMK AO2 VIS 3/4V3 T01170117 $
63870K0J4 0J420161119033510711/19/16 03:35:31  5-MIN K0J4 190835Z AUTO 00000KT 3SM BR 12/11 A3018 80 96 -200 000/00 RMK AO2 T01170111 $
63870K0J4 0J420161119034011411/19/16 03:40:31  5-MIN K0J4 190840Z AUTO 00000KT 4SM BR FEW001 12/11 A3018 80 96 -200 000/00 RMK AO2 T01170111 $
63870K0J4 0J420161119034511111/19/16 03:45:31  5-MIN K0J4 190845Z AUTO 22003KT 4SM BR CLR 13/12 A3018 80 93 -100 220/03 RMK AO2 T01280117 $
63870K0J4 0J420161119035011111/19/16 03:50:31  5-MIN K0J4 190850Z AUTO 00000KT 5SM BR CLR 12/11 A3017 80 96 -200 000/00 RMK AO2 T01170111 $
63870K0J4 0J420161119035511511/19/16 03:55:31  5-MIN K0J4 190855Z AUTO 22003KT 7SM CLR 12/11 A3017 80 96 -200 220/03 RMK AO2 SLP214 T01170111 $
63870K0J4 0J420161119040010811/19/16 04:00:31  5-MIN K0J4 190900Z AUTO 21003KT 7SM CLR 12/11 A3017 90 93 -100 210/03 RMK AO2 T01220111 $
63870K0J4 0J420161119040510811/19/16 04:05:31  5-MIN K0J4 190905Z AUTO 20003KT 7SM CLR 12/12 A3017 90 96 -100 200/03 RMK AO2 T01220117 $
63870K0J4 0J420161119041010811/19/16 04:10:31  5-MIN K0J4 190910Z AUTO 00000KT 7SM CLR 12/12 A3017 90 96 -100 000/00 RMK AO2 T01220117 $
63870K0J4 0J420161119041511111/19/16 04:15:31  5-MIN K0J4 190915Z AUTO 22003KT 6SM BR CLR 13/12 A3017 90 93 -100 220/03 RMK AO2 T01280117 $
63870K0J4 0J420161119042010811/19/16 04:20:31  5-MIN K0J4 190920Z AUTO 22003KT 7SM CLR 12/12 A3016 90 96 -100 220/03 RMK AO2 T01220117 $
63870K0J4 0J420161119042510811/19/16 04:25:31  5-MIN K0J4 190925Z AUTO 00000KT 7SM CLR 12/12 A3016 90 96 -100 000/00 RMK AO2 T01220117 $
63870K0J4 0J420161119043010811/19/16 04:30:31  5-MIN K0J4 190930Z AUTO 21003KT 7SM CLR 12/12 A3016 90 96 -100 210/03 RMK AO2 T01220117 $
63870K0J4 0J420161119043511111/19/16 04:35:31  5-MIN K0J4 190935Z AUTO 21003KT 6SM BR CLR 12/12 A3016 90 96 -100 210/03 RMK AO2 T01220117 $
63870K0J4 0J420161119044011111/19/16 04:40:31  5-MIN K0J4 190940Z AUTO 00000KT 6SM BR CLR 13/12 A3017 90 93 -100 000/00 RMK AO2 T01280117 $
63870K0J4 0J420161119044510811/19/16 04:45:31  5-MIN K0J4 190945Z AUTO 00000KT 7SM CLR 13/12 A3017 90 93 -100 000/00 RMK AO2 T01280117 $
63870K0J4 0J420161119045010811/19/16 04:50:31  5-MIN K0J4 190950Z AUTO 00000KT 7SM CLR 13/12 A3017 90 96 -100 000/00 RMK AO2 T01280122 $
63870K0J4 0J420161119045511811/19/16 04:55:31  5-MIN K0J4 190955Z AUTO 00000KT 7SM FEW055 12/12 A3017 90 96 -100 000/00 RMK AO2 SLP212 T01220117 $
63870K0J4 0J420161119050011111/19/16 05:00:31  5-MIN K0J4 191000Z AUTO 00000KT 8SM SCT055 13/12 A3017 90 93 -100 000/00 RMK AO2 T01280117 $
63870K0J4 0J420161119050510811/19/16 05:05:31  5-MIN K0J4 191005Z AUTO 00000KT 8SM FEW055 13/12 A3016 90 93 0 000/00 RMK AO2 T01330122 $
63870K0J4 0J420161119051011111/19/16 05:10:31  5-MIN K0J4 191010Z AUTO 00000KT 8SM FEW055 13/12 A3016 90 93 -100 000/00 RMK AO2 T01280117 $
63870K0J4 0J420161119051511111/19/16 05:15:31  5-MIN K0J4 191015Z AUTO 00000KT 8SM FEW055 13/12 A3016 90 96 -100 000/00 RMK AO2 T01280122 $
63870K0J4 0J420161119052011511/19/16 05:20:31  5-MIN K0J4 191020Z AUTO 00000KT 8SM FEW050 FEW060 13/12 A3016 90 93 0 000/00 RMK AO2 T01330122 $
63870K0J4 0J420161119052511111/19/16 05:25:31  5-MIN K0J4 191025Z AUTO 00000KT 7SM FEW050 13/12 A3017 90 96 -100 000/00 RMK AO2 T01280122 $
63870K0J4 0J420161119053010811/19/16 05:30:31  5-MIN K0J4 191030Z AUTO 00000KT 7SM SCT050 13/12 A3017 90 93 0 000/00 RMK AO2 T01330122 $
63870K0J4 0J420161119053510811/19/16 05:35:31  5-MIN K0J4 191035Z AUTO 00000KT 7SM BKN050 13/12 A3017 80 93 0 000/00 RMK AO2 T01330122 $
63870K0J4 0J420161119054010811/19/16 05:40:31  5-MIN K0J4 191040Z AUTO 00000KT 8SM BKN050 13/13 A3017 80 96 0 000/00 RMK AO2 T01330128 $
63870K0J4 0J420161119054510811/19/16 05:45:31  5-MIN K0J4 191045Z AUTO 00000KT 9SM BKN050 14/13 A3017 80 93 0 000/00 RMK AO2 T01390128 $
63870K0J4 0J420161119055011111/19/16 05:50:31  5-MIN K0J4 191050Z AUTO 00000KT 10SM BKN050 14/13 A3017 80 93 100 000/00 RMK AO2 T01440133 $
63870K0J4 0J420161119055511811/19/16 05:55:31  5-MIN K0J4 191055Z AUTO 00000KT 10SM OVC050 14/14 A3017 80 96 100 000/00 RMK AO2 SLP215 T01440139 $
63870K0J4 0J420161119060011111/19/16 06:00:31  5-MIN K0J4 191100Z AUTO 22003KT 10SM OVC050 15/14 A3017 80 93 100 220/03 RMK AO2 T01500139 $
63870K0J4 0J420161119060511811/19/16 06:05:31  5-MIN K0J4 191105Z AUTO VRB03KT 10SM BKN050 OVC060 15/14 A3017 80 93 100 VRB/03 RMK AO2 T01500139 $
63870K0J4 0J420161119061011811/19/16 06:10:31  5-MIN K0J4 191110Z AUTO 00000KT 10SM BKN050 OVC060 15/14 A3017 80 93 100 000/00 RMK AO2 T01500139 $
63870K0J4 0J420161119061511111/19/16 06:15:31  5-MIN K0J4 191115Z AUTO VRB03KT 10SM OVC055 15/14 A3017 80 93 100 VRB/03 RMK AO2 T01500139 $
63870K0J4 0J420161119062011811/19/16 06:20:31  5-MIN K0J4 191120Z AUTO 00000KT 10SM BKN050 OVC060 16/14 A3018 80 93 200 000/00 RMK AO2 T01560144 $
63870K0J4 0J420161119062511811/19/16 06:25:31  5-MIN K0J4 191125Z AUTO 00000KT 10SM BKN050 OVC060 16/14 A3018 80 93 200 000/00 RMK AO2 T01560144 $
63870K0J4 0J420161119063011811/19/16 06:30:31  5-MIN K0J4 191130Z AUTO VRB03KT 10SM BKN050 OVC060 16/14 A3018 80 90 300 VRB/03 RMK AO2 T01610144 $
63870K0J4 0J420161119063512511/19/16 06:35:31  5-MIN K0J4 191135Z AUTO 00000KT 10SM FEW031 BKN048 OVC060 16/15 A3018 80 93 300 000/00 RMK AO2 T01610150 $
63870K0J4 0J420161119064012511/19/16 06:40:31  5-MIN K0J4 191140Z AUTO 00000KT 10SM SCT031 BKN048 OVC060 16/15 A3019 70 93 300 000/00 RMK AO2 T01610150 $
63870K0J4 0J420161119064512511/19/16 06:45:31  5-MIN K0J4 191145Z AUTO 00000KT 10SM SCT030 BKN038 OVC048 17/15 A3019 70 90 300 000/00 RMK AO2 T01670150 $
63870K0J4 0J420161119065012511/19/16 06:50:31  5-MIN K0J4 191150Z AUTO 00000KT 10SM FEW030 SCT038 BKN048 17/15 A3019 70 90 300 000/00 RMK AO2 T01670150 $
63870K0J4 0J420161119065514411/19/16 06:55:31  5-MIN K0J4 191155Z AUTO VRB03KT 10SM FEW030 SCT040 BKN048 17/15 A3019 70 90 300 VRB/03 RMK AO2 SLP221 T01670150 10167 20106 $
63870K0J4 0J420161119070011811/19/16 07:00:31  5-MIN K0J4 191200Z AUTO VRB03KT 10SM FEW030 SCT040 17/15 A3019 70 90 300 VRB/03 RMK AO2 T01670150 $
63870K0J4 0J420161119070511811/19/16 07:05:31  5-MIN K0J4 191205Z AUTO VRB03KT 10SM FEW030 FEW038 17/15 A3019 70 90 300 VRB/03 RMK AO2 T01670150 $
63870K0J4 0J420161119071011111/19/16 07:10:31  5-MIN K0J4 191210Z AUTO VRB03KT 10SM FEW038 17/15 A3019 60 90 300 VRB/03 RMK AO2 T01670150 $
63870K0J4 0J420161119071511111/19/16 07:15:31  5-MIN K0J4 191215Z AUTO 00000KT 10SM SCT045 17/15 A3020 60 90 300 000/00 RMK AO2 T01670150 $
63870K0J4 0J420161119072011111/19/16 07:20:31  5-MIN K0J4 191220Z AUTO VRB03KT 10SM BKN045 17/15 A3020 60 90 300 VRB/03 RMK AO2 T01670150 $
63870K0J4 0J420161119072511111/19/16 07:25:31  5-MIN K0J4 191225Z AUTO VRB03KT 10SM SCT044 17/15 A3020 60 90 300 VRB/03 RMK AO2 T01670150 $
63870K0J4 0J420161119073011811/19/16 07:30:31  5-MIN K0J4 191230Z AUTO VRB03KT 10SM FEW021 BKN044 17/15 A3020 60 90 300 VRB/03 RMK AO2 T01670150 $
63870K0J4 0J420161119073511811/19/16 07:35:31  5-MIN K0J4 191235Z AUTO VRB04KT 10SM SCT021 BKN044 17/15 A3021 50 90 300 VRB/04 RMK AO2 T01670150 $
63870K0J4 0J420161119074012511/19/16 07:40:31  5-MIN K0J4 191240Z AUTO 34006KT 10SM FEW014 BKN023 BKN044 17/15 A3021 50 90 300 340/06 RMK AO2 T01670150 $
63870K0J4 0J420161119074514111/19/16 07:45:31  5-MIN K0J4 191245Z AUTO 33007KT 280V010 10SM SCT014 BKN023 BKN044 17/15 A3021 50 90 300 330/07 280V010 RMK AO2 T01670150 $
63870K0J4 0J420161119075011811/19/16 07:50:31  5-MIN K0J4 191250Z AUTO VRB05KT 10SM BKN013 BKN023 16/14 A3021 50 90 200 VRB/05 RMK AO2 T01610144 $
63870K0J4 0J420161119075516011/19/16 07:55:31  5-MIN K0J4 191255Z AUTO 33007KT 250V030 10SM BKN011 BKN014 OVC022 16/14 A3022 40 90 200 330/07 250V030 RMK AO2 CIG 008V012 SLP230 T01610144 $
63870K0J4 0J420161119080015111/19/16 08:00:31  5-MIN K0J4 191300Z AUTO 34007G15KT 310V010 9SM BKN008 OVC014 16/14 A3022 40 90 200 340/07G15 310V010 RMK AO2 CIG 006V011 T01610144 $
63870K0J4 0J420161119080512311/19/16 08:05:31  5-MIN K0J4 191305Z AUTO 34007G15KT 9SM BKN008 OVC012 16/14 A3022 40 93 200 340/07G15 RMK AO2 T01560144 $
63870K0J4 0J420161119081013911/19/16 08:10:31  5-MIN K0J4 191310Z AUTO 34007G14KT 310V060 9SM BKN008 OVC012 16/14 A3023 30 90 100 340/07G14 310V060 RMK AO2 T01560139 $
63870K0J4 0J420161119081512911/19/16 08:15:31  5-MIN K0J4 191315Z AUTO 34009G15KT 10SM OVC009 15/13 A3023 30 90 100 340/09G15 RMK AO2 CIG 005V011 T01500133 $
63870K0J4 0J420161119082015011/19/16 08:20:31  5-MIN K0J4 191320Z AUTO 32009G15KT 300V360 10SM BKN009 OVC015 14/12 A3024 30 86 0 320/09G15 300V360 RMK AO2 CIG 005V010 T01440122 $
63870K0J4 0J420161119082513411/19/16 08:25:31  5-MIN K0J4 191325Z AUTO VRB06G15KT 10SM BKN008 OVC017 14/12 A3024 20 86 0 VRB/06G15 RMK AO2 CIG 005V010 T01440122 $
63870K0J4 0J420161119083011611/19/16 08:30:31  5-MIN K0J4 191330Z AUTO VRB05KT 10SM SCT008 OVC017 14/12 A3024 20 83 0 VRB/05 RMK AO2 T01440117 $
63870K0J4 0J420161119083512311/19/16 08:35:31  5-MIN K0J4 191335Z AUTO 35006KT 10SM SCT008 BKN015 OVC020 14/11 A3025 20 80 0 350/06 RMK AO2 T01440111 $
63870K0J4 0J420161119084012311/19/16 08:40:31  5-MIN K0J4 191340Z AUTO VRB06KT 10SM FEW008 SCT015 OVC020 14/11 A3025 10 80 0 VRB/06 RMK AO2 T01440111 $
63870K0J4 0J420161119084511611/19/16 08:45:31  5-MIN K0J4 191345Z AUTO VRB05KT 10SM FEW015 OVC020 14/11 A3025 10 77 0 VRB/05 RMK AO2 T01440106 $
63870K0J4 0J420161119085011611/19/16 08:50:31  5-MIN K0J4 191350Z AUTO VRB04KT 10SM FEW015 OVC021 14/11 A3025 10 77 0 VRB/04 RMK AO2 T01440106 $
63870K0J4 0J420161119085511611/19/16 08:55:31  5-MIN K0J4 191355Z AUTO VRB06KT 10SM OVC021 14/11 A3026 10 83 0 VRB/06 RMK AO2 SLP243 T01390111 $
63870K0J4 0J420161119090010911/19/16 09:00:31  5-MIN K0J4 191400Z AUTO VRB04KT 10SM OVC023 14/10 A3026 10 77 0 VRB/04 RMK AO2 T01390100 $
63870K0J4 0J420161119090512511/19/16 09:05:31  5-MIN K0J4 191405Z AUTO 33007KT 290V010 10SM OVC023 14/09 A3026 10 74 0 330/07 290V010 RMK AO2 T01390094 $
63870K0J4 0J420161119091010811/19/16 09:10:31  5-MIN K0J4 191410Z AUTO VRB04KT 10SM OVC023 14/09 A3026 0 74 0 VRB/04 RMK AO2 T01390094 $
63870K0J4 0J420161119091512411/19/16 09:15:31  5-MIN K0J4 191415Z AUTO 33008KT 300V010 10SM OVC023 14/09 A3026 0 74 0 330/08 300V010 RMK AO2 T01390094 $
63870K0J4 0J420161119092013011/19/16 09:20:31  5-MIN K0J4 191420Z AUTO 33007G15KT 280V020 10SM OVC025 14/09 A3027 0 71 0 330/07G15 280V020 RMK AO2 T01390089 $
63870K0J4 0J420161119092511411/19/16 09:25:31  5-MIN K0J4 191425Z AUTO 34008G15KT 10SM OVC027 14/08 A3027 0 69 0 340/08G15 RMK AO2 T01390083 $
63870K0J4 0J420161119093013011/19/16 09:30:31  5-MIN K0J4 191430Z AUTO 33007G14KT 290V010 10SM OVC027 14/08 A3027 0 66 0 330/07G14 290V010 RMK AO2 T01440083 $
63870K0J4 0J420161119093512411/19/16 09:35:31  5-MIN K0J4 191435Z AUTO 33008KT 290V360 10SM OVC029 14/08 A3027 0 66 0 330/08 290V360 RMK AO2 T01440083 $
63870K0J4 0J420161119094011411/19/16 09:40:31  5-MIN K0J4 191440Z AUTO 33009G15KT 10SM OVC029 14/08 A3027 0 66 0 330/09G15 RMK AO2 T01440083 $
63870K0J4 0J420161119094513011/19/16 09:45:31  5-MIN K0J4 191445Z AUTO 33010G17KT 290V360 10SM OVC029 14/08 A3027 0 66 0 330/10G17 290V360 RMK AO2 T01440083 $
63870K0J4 0J420161119095012811/19/16 09:50:31  5-MIN K0J4 191450Z AUTO 35007G17KT 300V010 10SM OVC031 15/08 A3027 0 62 0 350/07G17 300V010 RMK AO2 T01500078
63870K0J4 0J420161119095513711/19/16 09:55:31  5-MIN K0J4 191455Z AUTO 33008KT 290V360 10SM OVC033 15/08 A3028 -10 62 0 330/08 290V360 RMK AO2 SLP250 T01500078 53006
63870K0J4 0J420161119100013011/19/16 10:00:31  5-MIN K0J4 191500Z AUTO 34007G16KT 300V030 10SM OVC035 15/08 A3028 -10 62 0 340/07G16 300V030 RMK AO2 T01500078
63870K0J4 0J420161119100511411/19/16 10:05:31  5-MIN K0J4 191505Z AUTO 33010G16KT 10SM OVC035 15/07 A3028 -10 59 0 330/10G16 RMK AO2 T01500072
63870K0J4 0J420161119101011411/19/16 10:10:31  5-MIN K0J4 191510Z AUTO 35008G17KT 10SM OVC037 15/07 A3028 -10 59 0 350/08G17 RMK AO2 T01500072
63870K0J4 0J420161119101511411/19/16 10:15:31  5-MIN K0J4 191515Z AUTO 36010G17KT 10SM OVC039 15/07 A3028 -10 59 0 360/10G17 RMK AO2 T01500072
63870K0J4 0J420161119102012311/19/16 10:20:31  5-MIN K0J4 191520Z AUTO VRB06G16KT 10SM BKN039 OVC047 16/07 A3028 -10 57 100 VRB/06G16 RMK AO2 T01560072
63870K0J4 0J420161119102511611/19/16 10:25:31  5-MIN K0J4 191525Z AUTO 36009G16KT 10SM OVC042 16/07 A3028 -10 57 100 360/09G16 RMK AO2 T01560072
63870K0J4 0J420161119103011411/19/16 10:30:31  5-MIN K0J4 191530Z AUTO VRB04G16KT 10SM OVC042 15/07 A3029 -20 59 0 VRB/04G16 RMK AO2 T01500072
63870K0J4 0J420161119103509811/19/16 10:35:31  5-MIN K0J4 191535Z AUTO 10SM OVC042 14/07 A3029 -20 61 0 M /M RMK AO2 T01440072
63870K0J4 0J420161119104013011/19/16 10:40:31  5-MIN K0J4 191540Z AUTO 36008G14KT 320V020 10SM OVC042 14/07 A3029 -20 59 0 360/08G14 320V020 RMK AO2 T01440067
63870K0J4 0J420161119104511411/19/16 10:45:31  5-MIN K0J4 191545Z AUTO 35004G14KT 10SM OVC042 14/07 A3029 -20 59 0 350/04G14 RMK AO2 T01440067
63870K0J4 0J420161119105012711/19/16 10:50:31  5-MIN K0J4 191550Z AUTO 33007KT 290V020 10SM BKN042 14/07 A3029 -20 61 -100 330/07 290V020 RMK AO2 T01390067
63870K0J4 0J420161119105513111/19/16 10:55:31  5-MIN K0J4 191555Z AUTO 34008KT 300V020 10SM BKN042 14/07 A3029 -20 59 0 340/08 300V020 RMK AO2 SLP255 T01440067
63870K0J4 0J420161119110013911/19/16 11:00:31  5-MIN K0J4 191600Z AUTO 34009G14KT 300V010 10SM SCT042 SCT050 16/06 A3029 -20 53 100 340/09G14 300V010 RMK AO2 T01560061
63870K0J4 0J420161119110513211/19/16 11:05:31  5-MIN K0J4 191605Z AUTO 35009G18KT 310V020 10SM FEW042 16/05 A3029 -20 47 100 350/09G18 310V020 RMK AO2 T01610050
63870K0J4 0J420161119111013211/19/16 11:10:31  5-MIN K0J4 191610Z AUTO 35009G18KT 300V020 10SM FEW042 17/04 A3028 -10 42 200 350/09G18 300V020 RMK AO2 T01670039
63870K0J4 0J420161119111511611/19/16 11:15:31  5-MIN K0J4 191615Z AUTO 36008G17KT 10SM FEW049 17/04 A3028 -10 42 200 360/08G17 RMK AO2 T01670039
63870K0J4 0J420161119112013211/19/16 11:20:31  5-MIN K0J4 191620Z AUTO 34008G17KT 300V020 10SM FEW049 17/04 A3029 -20 42 200 340/08G17 300V020 RMK AO2 T01670039
63870K0J4 0J420161119112513211/19/16 11:25:31  5-MIN K0J4 191625Z AUTO 33007G16KT 290V020 10SM FEW050 17/03 A3029 -10 40 200 330/07G16 290V020 RMK AO2 T01670033
63870K0J4 0J420161119113012911/19/16 11:30:31  5-MIN K0J4 191630Z AUTO 34007G16KT 310V010 10SM CLR 17/03 A3028 -10 40 200 340/07G16 310V010 RMK AO2 T01670033
63870K0J4 0J420161119113511311/19/16 11:35:31  5-MIN K0J4 191635Z AUTO 36010G15KT 10SM CLR 17/03 A3028 -10 39 200 360/10G15 RMK AO2 T01670028
63870K0J4 0J420161119114011311/19/16 11:40:31  5-MIN K0J4 191640Z AUTO VRB05G15KT 10SM CLR 17/03 A3028 -10 39 300 VRB/05G15 RMK AO2 T01720033
63870K0J4 0J420161119114512911/19/16 11:45:31  5-MIN K0J4 191645Z AUTO 34008G15KT 250V010 10SM CLR 17/03 A3028 -10 37 300 340/08G15 250V010 RMK AO2 T01720028
63870K0J4 0J420161119115012911/19/16 11:50:31  5-MIN K0J4 191650Z AUTO 35012G21KT 310V030 10SM CLR 17/02 A3028 -10 36 300 350/12G21 310V030 RMK AO2 T01720022
63870K0J4 0J420161119115512011/19/16 11:55:31  5-MIN K0J4 191655Z AUTO 36014G21KT 10SM CLR 17/01 A3028 -10 33 200 360/14G21 RMK AO2 SLP251 T01670006
63870K0J4 0J420161119120012911/19/16 12:00:31  5-MIN K0J4 191700Z AUTO 36009G21KT 300V030 10SM CLR 17/01 A3028 -10 32 300 360/09G21 300V030 RMK AO2 T01720006
63870K0J4 0J420161119120511311/19/16 12:05:31  5-MIN K0J4 191705Z AUTO 36009G21KT 10SM CLR 17/01 A3028 -10 32 300 360/09G21 RMK AO2 T01720006
63870K0J4 0J420161119121011311/19/16 12:10:31  5-MIN K0J4 191710Z AUTO 36011G19KT 10SM CLR 17/01 A3028 -10 33 300 360/11G19 RMK AO2 T01720011
63870K0J4 0J420161119121511311/19/16 12:15:31  5-MIN K0J4 191715Z AUTO 36013G21KT 10SM CLR 17/01 A3028 -10 33 200 360/13G21 RMK AO2 T01670006
63870K0J4 0J420161119122011311/19/16 12:20:31  5-MIN K0J4 191720Z AUTO 34009G21KT 10SM CLR 17/01 A3028 -10 32 300 340/09G21 RMK AO2 T01720006
63870K0J4 0J420161119122512711/19/16 12:25:31  5-MIN K0J4 191725Z AUTO 33009G17KT 310V020 10SM CLR 17/01 A3027 0 32 300 330/09G17 310V020 RMK AO2 T01720006
63870K0J4 0J420161119123012711/19/16 12:30:31  5-MIN K0J4 191730Z AUTO 36011G17KT 320V020 10SM CLR 18/01 A3027 0 31 400 360/11G17 320V020 RMK AO2 T01780006
63870K0J4 0J420161119123512711/19/16 12:35:31  5-MIN K0J4 191735Z AUTO 36009G19KT 310V030 10SM CLR 18/01 A3027 0 31 400 360/09G19 310V030 RMK AO2 T01780006
63870K0J4 0J420161119124012711/19/16 12:40:31  5-MIN K0J4 191740Z AUTO 34008G19KT 300V020 10SM CLR 18/01 A3027 0 31 400 340/08G19 300V020 RMK AO2 T01780006
63870K0J4 0J420161119124512711/19/16 12:45:31  5-MIN K0J4 191745Z AUTO 33010G17KT 290V360 10SM CLR 18/00 A3027 0 30 400 330/10G17 290V360 RMK AO2 T01780000
63870K0J4 0J420161119125012811/19/16 12:50:31  5-MIN K0J4 191750Z AUTO 33007G17KT 270V010 10SM CLR 17/M01 A3027 0 29 300 330/07G17 270V010 RMK AO2 T01721006
63870K0J4 0J420161119125515311/19/16 12:55:31  5-MIN K0J4 191755Z AUTO 34009G19KT 300V020 10SM CLR 17/M01 A3027 0 29 300 340/09G19 300V020 RMK AO2 SLP246 T01721006 10178 20139 51029
63870K0J4 0J420161119130012811/19/16 13:00:31  5-MIN K0J4 191800Z AUTO 34008G19KT 310V020 10SM CLR 17/M01 A3026 0 29 300 340/08G19 310V020 RMK AO2 T01721006
63870K0J4 0J420161119130512811/19/16 13:05:31  5-MIN K0J4 191805Z AUTO 35009G18KT 320V020 10SM CLR 18/M01 A3026 0 28 400 350/09G18 320V020 RMK AO2 T01781006
63870K0J4 0J420161119131011211/19/16 13:10:31  5-MIN K0J4 191810Z AUTO 01015G22KT 10SM CLR 17/M01 A3026 0 28 300 010/15G22 RMK AO2 T01721011
63870K0J4 0J420161119131511311/19/16 13:15:31  5-MIN K0J4 191815Z AUTO 02013G22KT 10SM CLR 18/M02 A3026 10 26 400 020/13G22 RMK AO2 T01781017
63870K0J4 0J420161119132011311/19/16 13:20:31  5-MIN K0J4 191820Z AUTO 01011G21KT 10SM CLR 18/M01 A3026 10 27 400 010/11G21 RMK AO2 T01781011
63870K0J4 0J420161119132512911/19/16 13:25:31  5-MIN K0J4 191825Z AUTO 01012G19KT 350V050 10SM CLR 18/M02 A3026 10 26 400 010/12G19 350V050 RMK AO2 T01781017
63870K0J4 0J420161119133011311/19/16 13:30:31  5-MIN K0J4 191830Z AUTO 36011G23KT 10SM CLR 18/M02 A3026 10 26 400 360/11G23 RMK AO2 T01781017
63870K0J4 0J420161119133511311/19/16 13:35:31  5-MIN K0J4 191835Z AUTO 02010G23KT 10SM CLR 18/M01 A3025 10 27 400 020/10G23 RMK AO2 T01781011
63870K0J4 0J420161119134011311/19/16 13:40:31  5-MIN K0J4 191840Z AUTO 35010G16KT 10SM CLR 18/M01 A3025 10 27 400 350/10G16 RMK AO2 T01781011
63870K0J4 0J420161119134512911/19/16 13:45:31  5-MIN K0J4 191845Z AUTO 34010G18KT 300V010 10SM CLR 18/M02 A3025 10 26 400 340/10G18 300V010 RMK AO2 T01781017
63870K0J4 0J420161119135012911/19/16 13:50:31  5-MIN K0J4 191850Z AUTO 36008G18KT 320V050 10SM CLR 18/M02 A3024 20 26 400 360/08G18 320V050 RMK AO2 T01781017
63870K0J4 0J420161119135513611/19/16 13:55:31  5-MIN K0J4 191855Z AUTO 01009G16KT 320V030 10SM CLR 18/M02 A3024 20 25 500 010/09G16 320V030 RMK AO2 SLP239 T01831017
63870K0J4 0J420161119140011311/19/16 14:00:31  5-MIN K0J4 191900Z AUTO 36010G19KT 10SM CLR 18/M02 A3024 20 24 500 360/10G19 RMK AO2 T01831022
63870K0J4 0J420161119140512911/19/16 14:05:31  5-MIN K0J4 191905Z AUTO 35011G19KT 310V020 10SM CLR 18/M02 A3024 20 25 400 350/11G19 310V020 RMK AO2 T01781022
63870K0J4 0J420161119141011311/19/16 14:10:31  5-MIN K0J4 191910Z AUTO 36011G18KT 10SM CLR 18/M02 A3024 20 26 400 360/11G18 RMK AO2 T01781017
63870K0J4 0J420161119141512911/19/16 14:15:31  5-MIN K0J4 191915Z AUTO 36010G17KT 330V030 10SM CLR 18/M02 A3024 20 26 400 360/10G17 330V030 RMK AO2 T01781017
63870K0J4 0J420161119142012911/19/16 14:20:31  5-MIN K0J4 191920Z AUTO 35007G16KT 290V020 10SM CLR 18/M02 A3024 20 24 500 350/07G16 290V020 RMK AO2 T01831022
63870K0J4 0J420161119142511311/19/16 14:25:31  5-MIN K0J4 191925Z AUTO 36012G21KT 10SM CLR 18/M02 A3024 30 24 500 360/12G21 RMK AO2 T01831022
63870K0J4 0J420161119143011311/19/16 14:30:31  5-MIN K0J4 191930Z AUTO 36010G21KT 10SM CLR 18/M03 A3023 30 24 400 360/10G21 RMK AO2 T01781028
63870K0J4 0J420161119143512911/19/16 14:35:31  5-MIN K0J4 191935Z AUTO 35007G18KT 300V010 10SM CLR 18/M02 A3024 30 25 400 350/07G18 300V010 RMK AO2 T01781022
63870K0J4 0J420161119144011311/19/16 14:40:31  5-MIN K0J4 191940Z AUTO 36012G18KT 10SM CLR 18/M02 A3023 30 25 400 360/12G18 RMK AO2 T01781022
63870K0J4 0J420161119144511311/19/16 14:45:31  5-MIN K0J4 191945Z AUTO 36008G17KT 10SM CLR 18/M02 A3023 30 24 500 360/08G17 RMK AO2 T01831022
63870K0J4 0J420161119145012911/19/16 14:50:31  5-MIN K0J4 191950Z AUTO 36008G17KT 330V030 10SM CLR 18/M02 A3023 30 24 500 360/08G17 330V030 RMK AO2 T01831022
63870K0J4 0J420161119145512011/19/16 14:55:31  5-MIN K0J4 191955Z AUTO 01011G18KT 10SM CLR 18/M03 A3023 30 23 500 010/11G18 RMK AO2 SLP233 T01831028
63870K0J4 0J420161119150011311/19/16 15:00:31  5-MIN K0J4 192000Z AUTO 01012G20KT 10SM CLR 18/M03 A3023 30 24 400 010/12G20 RMK AO2 T01781028
63870K0J4 0J420161119150511311/19/16 15:05:31  5-MIN K0J4 192005Z AUTO 36014G23KT 10SM CLR 18/M04 A3023 30 22 400 360/14G23 RMK AO2 T01781039
63870K0J4 0J420161119151012911/19/16 15:10:31  5-MIN K0J4 192010Z AUTO 01011G23KT 340V040 10SM CLR 18/M04 A3023 30 22 400 010/11G23 340V040 RMK AO2 T01781039
63870K0J4 0J420161119151511311/19/16 15:15:31  5-MIN K0J4 192015Z AUTO 02014G20KT 10SM CLR 18/M04 A3023 30 22 400 020/14G20 RMK AO2 T01781039
63870K0J4 0J420161119152012911/19/16 15:20:31  5-MIN K0J4 192020Z AUTO 35009G20KT 280V030 10SM CLR 18/M03 A3023 30 22 500 350/09G20 280V030 RMK AO2 T01831033
63870K0J4 0J420161119152511311/19/16 15:25:31  5-MIN K0J4 192025Z AUTO 36010G17KT 10SM CLR 18/M04 A3023 30 22 400 360/10G17 RMK AO2 T01781039
63870K0J4 0J420161119153011311/19/16 15:30:31  5-MIN K0J4 192030Z AUTO 01012G20KT 10SM CLR 18/M04 A3023 30 21 500 010/12G20 RMK AO2 T01831039
63870K0J4 0J420161119153511311/19/16 15:35:31  5-MIN K0J4 192035Z AUTO 35011G20KT 10SM CLR 17/M04 A3024 20 23 300 350/11G20 RMK AO2 T01721039
63870K0J4 0J420161119154012911/19/16 15:40:31  5-MIN K0J4 192040Z AUTO 35007G20KT 320V020 10SM CLR 17/M04 A3024 20 23 300 350/07G20 320V020 RMK AO2 T01721039
63870K0J4 0J420161119154511311/19/16 15:45:31  5-MIN K0J4 192045Z AUTO 36010G16KT 10SM CLR 17/M03 A3024 20 24 300 360/10G16 RMK AO2 T01721033
63870K0J4 0J420161119155011311/19/16 15:50:31  5-MIN K0J4 192050Z AUTO 36010G18KT 10SM CLR 17/M03 A3024 20 24 300 360/10G18 RMK AO2 T01721033
63870K0J4 0J420161119155512611/19/16 15:55:31  5-MIN K0J4 192055Z AUTO 36012G22KT 10SM CLR 17/M04 A3024 30 24 300 360/12G22 RMK AO2 SLP237 T01671039 58005
63870K0J4 0J420161119160011311/19/16 16:00:31  5-MIN K0J4 192100Z AUTO 35011G22KT 10SM CLR 17/M04 A3024 20 24 300 350/11G22 RMK AO2 T01671039
63870K0J4 0J420161119160511311/19/16 16:05:31  5-MIN K0J4 192105Z AUTO 36010G20KT 10SM CLR 17/M04 A3024 20 23 300 360/10G20 RMK AO2 T01671044
63870K0J4 0J420161119161011311/19/16 16:10:31  5-MIN K0J4 192110Z AUTO 01012G21KT 10SM CLR 17/M04 A3024 20 23 300 010/12G21 RMK AO2 T01671044
63870K0J4 0J420161119161511311/19/16 16:15:31  5-MIN K0J4 192115Z AUTO 01009G21KT 10SM CLR 17/M04 A3024 20 23 300 010/09G21 RMK AO2 T01671044
63870K0J4 0J420161119162011311/19/16 16:20:31  5-MIN K0J4 192120Z AUTO 01010G21KT 10SM CLR 17/M04 A3024 20 24 300 010/10G21 RMK AO2 T01671039
63870K0J4 0J420161119162511311/19/16 16:25:31  5-MIN K0J4 192125Z AUTO 01011G18KT 10SM CLR 16/M04 A3024 20 24 200 010/11G18 RMK AO2 T01611044
63870K0J4 0J420161119163012911/19/16 16:30:31  5-MIN K0J4 192130Z AUTO 35009G18KT 300V020 10SM CLR 16/M04 A3024 20 25 200 350/09G18 300V020 RMK AO2 T01611039
63870K0J4 0J420161119163512911/19/16 16:35:31  5-MIN K0J4 192135Z AUTO 36009G18KT 320V020 10SM CLR 16/M04 A3024 20 25 200 360/09G18 320V020 RMK AO2 T01611039
63870K0J4 0J420161119164011311/19/16 16:40:31  5-MIN K0J4 192140Z AUTO VRB05G17KT 10SM CLR 16/M04 A3024 20 25 200 VRB/05G17 RMK AO2 T01611039
63870K0J4 0J420161119164511311/19/16 16:45:31  5-MIN K0J4 192145Z AUTO 01008G17KT 10SM CLR 16/M04 A3024 20 26 100 010/08G17 RMK AO2 T01561039
63870K0J4 0J420161119165011311/19/16 16:50:31  5-MIN K0J4 192150Z AUTO 01008G17KT 10SM CLR 16/M04 A3024 20 26 100 010/08G17 RMK AO2 T01561039
63870K0J4 0J420161119165513011/19/16 16:55:31  5-MIN K0J4 192155Z AUTO 35008KT 320V020 10SM CLR 16/M04 A3024 20 26 100 350/08 320V020 RMK AO2 SLP240 T01561039
63870K0J4 0J420161119170012311/19/16 17:00:31  5-MIN K0J4 192200Z AUTO 35008KT 300V010 10SM CLR 15/M04 A3024 20 25 100 350/08 300V010 RMK AO2 T01501044
63870K0J4 0J420161119170512311/19/16 17:05:31  5-MIN K0J4 192205Z AUTO 36009KT 310V020 10SM CLR 15/M04 A3024 20 25 100 360/09 310V020 RMK AO2 T01501044
63870K0J4 0J420161119171011311/19/16 17:10:31  5-MIN K0J4 192210Z AUTO 36009G16KT 10SM CLR 15/M05 A3024 20 24 100 360/09G16 RMK AO2 T01501050
63870K0J4 0J420161119171511111/19/16 17:15:31  5-MIN K0J4 192215Z AUTO 36008G16KT 10SM CLR 14/M05 A3024 20 25 0 360/08G16 RMK AO2 T01441050
63870K0J4 0J420161119172011111/19/16 17:20:31  5-MIN K0J4 192220Z AUTO 01007G15KT 10SM CLR 14/M04 A3025 20 26 0 010/07G15 RMK AO2 T01441044
63870K0J4 0J420161119172510511/19/16 17:25:31  5-MIN K0J4 192225Z AUTO 36005KT 10SM CLR 14/M04 A3025 10 26 0 360/05 RMK AO2 T01441044
63870K0J4 0J420161119173010511/19/16 17:30:31  5-MIN K0J4 192230Z AUTO 36005KT 10SM CLR 14/M04 A3025 20 27 0 360/05 RMK AO2 T01391044
63870K0J4 0J420161119173510511/19/16 17:35:31  5-MIN K0J4 192235Z AUTO 01005KT 10SM CLR 14/M04 A3025 20 29 0 010/05 RMK AO2 T01391039
63870K0J4 0J420161119174010511/19/16 17:40:31  5-MIN K0J4 192240Z AUTO VRB05KT 10SM CLR 14/M04 A3025 20 29 0 VRB/05 RMK AO2 T01391039
63870K0J4 0J420161119174510811/19/16 17:45:31  5-MIN K0J4 192245Z AUTO 36004KT 10SM CLR 13/M04 A3025 20 30 -100 360/04 RMK AO2 T01331039
63870K0J4 0J420161119175010811/19/16 17:50:31  5-MIN K0J4 192250Z AUTO 34004KT 10SM CLR 13/M04 A3025 10 30 -100 340/04 RMK AO2 T01331039
63870K0J4 0J420161119175511511/19/16 17:55:31  5-MIN K0J4 192255Z AUTO VRB03KT 10SM CLR 13/M04 A3025 10 31 -200 VRB/03 RMK AO2 SLP242 T01281039
63870K0J4 0J420161119180010811/19/16 18:00:31  5-MIN K0J4 192300Z AUTO 00000KT 10SM CLR 13/M04 A3025 10 31 -200 000/00 RMK AO2 T01281039
63870K0J4 0J420161119180510811/19/16 18:05:31  5-MIN K0J4 192305Z AUTO 00000KT 10SM CLR 13/M04 A3025 10 31 -200 000/00 RMK AO2 T01281039
63870K0J4 0J420161119181010811/19/16 18:10:31  5-MIN K0J4 192310Z AUTO 35003KT 10SM CLR 13/M04 A3026 10 31 -200 350/03 RMK AO2 T01281039
63870K0J4 0J420161119181510811/19/16 18:15:31  5-MIN K0J4 192315Z AUTO VRB03KT 10SM CLR 12/M04 A3026 10 32 -200 VRB/03 RMK AO2 T01221039
63870K0J4 0J420161119182010811/19/16 18:20:31  5-MIN K0J4 192320Z AUTO VRB03KT 10SM CLR 12/M04 A3026 10 32 -200 VRB/03 RMK AO2 T01221039
63870K0J4 0J420161119182510711/19/16 18:25:31  5-MIN K0J4 192325Z AUTO 35003KT 10SM CLR 12/M04 A3026 0 33 -300 350/03 RMK AO2 T01171039
63870K0J4 0J420161119183010711/19/16 18:30:31  5-MIN K0J4 192330Z AUTO 36003KT 10SM CLR 12/M04 A3026 0 33 -300 360/03 RMK AO2 T01171039
63870K0J4 0J420161119183510711/19/16 18:35:31  5-MIN K0J4 192335Z AUTO 00000KT 10SM CLR 12/M04 A3026 0 33 -300 000/00 RMK AO2 T01171039
63870K0J4 0J420161119184010711/19/16 18:40:31  5-MIN K0J4 192340Z AUTO VRB03KT 10SM CLR 11/M03 A3026 0 36 -400 VRB/03 RMK AO2 T01111033
63870K0J4 0J420161119184510711/19/16 18:45:31  5-MIN K0J4 192345Z AUTO 36003KT 10SM CLR 11/M03 A3026 0 37 -400 360/03 RMK AO2 T01061033
63870K0J4 0J420161119185010711/19/16 18:50:31  5-MIN K0J4 192350Z AUTO 00000KT 10SM CLR 11/M03 A3026 0 36 -400 000/00 RMK AO2 T01111033
63870K0J4 0J420161119185513211/19/16 18:55:31  5-MIN K0J4 192355Z AUTO 00000KT 10SM CLR 11/M03 A3026 0 36 -400 000/00 RMK AO2 SLP247 T01111033 10183 20106 55009
63870K0J4 0J420161119190010711/19/16 19:00:31  5-MIN K0J4 200000Z AUTO 00000KT 10SM CLR 11/M03 A3026 0 37 -400 000/00 RMK AO2 T01061033
63870K0J4 0J420161119190510711/19/16 19:05:31  5-MIN K0J4 200005Z AUTO 00000KT 10SM CLR 11/M03 A3027 0 37 -400 000/00 RMK AO2 T01061033
63870K0J4 0J420161119191012311/19/16 19:10:31  5-MIN K0J4 200010Z AUTO 00000KT 10SM -RA CLR 10/M03 A3027 0 40 -500 000/00 RMK AO2 RAB08 P0000 T01001028
63870K0J4 0J420161119191512211/19/16 19:15:31  5-MIN K0J4 200015Z AUTO 34003KT 10SM CLR 10/M03 A3027 0 39 -500 340/03 RMK AO2 RAB08E15 P0000 T01001033
63870K0J4 0J420161119192012211/19/16 19:20:31  5-MIN K0J4 200020Z AUTO 01003KT 10SM CLR 09/M03 A3027 0 40 -600 010/03 RMK AO2 RAB08E15 P0000 T00941033
63870K0J4 0J420161119192512411/19/16 19:25:31  5-MIN K0J4 200025Z AUTO 00000KT 10SM CLR 09/M03 A3028 -10 42 -600 000/00 RMK AO2 RAB08E15 P0000 T00941028
63870K0J4 0J420161119193012411/19/16 19:30:31  5-MIN K0J4 200030Z AUTO 00000KT 10SM CLR 09/M03 A3028 -10 40 -600 000/00 RMK AO2 RAB08E15 P0000 T00941033
63870K0J4 0J420161119193512411/19/16 19:35:31  5-MIN K0J4 200035Z AUTO 36003KT 10SM CLR 10/M03 A3028 -10 39 -500 360/03 RMK AO2 RAB08E15 P0000 T01001033
63870K0J4 0J420161119194012411/19/16 19:40:31  5-MIN K0J4 200040Z AUTO 00000KT 10SM CLR 10/M03 A3028 -10 39 -500 000/00 RMK AO2 RAB08E15 P0000 T01001033
63870K0J4 0J420161119194512411/19/16 19:45:31  5-MIN K0J4 200045Z AUTO 34003KT 10SM CLR 09/M03 A3028 -10 40 -600 340/03 RMK AO2 RAB08E15 P0000 T00941033
63870K0J4 0J420161119195012411/19/16 19:50:31  5-MIN K0J4 200050Z AUTO VRB03KT 10SM CLR 09/M03 A3029 -20 40 -600 VRB/03 RMK AO2 RAB08E15 P0000 T00941033
63870K0J4 0J420161119195513111/19/16 19:55:31  5-MIN K0J4 200055Z AUTO 01003KT 10SM CLR 09/M03 A3029 -20 40 -600 010/03 RMK AO2 RAB08E15 SLP255 P0000 T00941033
63870K0J4 0J420161119200010911/19/16 20:00:31  5-MIN K0J4 200100Z AUTO 01003KT 10SM CLR 09/M03 A3029 -20 42 -700 010/03 RMK AO2 T00891033
63870K0J4 0J420161119200510911/19/16 20:05:31  5-MIN K0J4 200105Z AUTO 01003KT 10SM CLR 08/M03 A3029 -20 43 -700 010/03 RMK AO2 T00831033
63870K0J4 0J420161119201010911/19/16 20:10:31  5-MIN K0J4 200110Z AUTO 01003KT 10SM CLR 08/M03 A3029 -20 45 -700 010/03 RMK AO2 T00831028
63870K0J4 0J420161119201510911/19/16 20:15:31  5-MIN K0J4 200115Z AUTO 36003KT 10SM CLR 08/M03 A3029 -20 47 -800 360/03 RMK AO2 T00781028
63870K0J4 0J420161119202010911/19/16 20:20:31  5-MIN K0J4 200120Z AUTO 36003KT 10SM CLR 08/M03 A3030 -20 45 -700 360/03 RMK AO2 T00831028
63870K0J4 0J420161119202510911/19/16 20:25:31  5-MIN K0J4 200125Z AUTO VRB03KT 10SM CLR 08/M03 A3030 -30 45 -700 VRB/03 RMK AO2 T00831028
63870K0J4 0J420161119203010911/19/16 20:30:31  5-MIN K0J4 200130Z AUTO 36004KT 10SM CLR 08/M03 A3030 -30 43 -800 360/04 RMK AO2 T00831033
63870K0J4 0J420161119203510911/19/16 20:35:31  5-MIN K0J4 200135Z AUTO 36004KT 10SM CLR 09/M03 A3030 -30 42 -700 360/04 RMK AO2 T00891033
63870K0J4 0J420161119204010911/19/16 20:40:31  5-MIN K0J4 200140Z AUTO VRB05KT 10SM CLR 09/M04 A3030 -30 40 -700 VRB/05 RMK AO2 T00891039
63870K0J4 0J420161119204510911/19/16 20:45:31  5-MIN K0J4 200145Z AUTO 01005KT 10SM CLR 09/M04 A3030 -30 40 -700 010/05 RMK AO2 T00891039
63870K0J4 0J420161119205010911/19/16 20:50:31  5-MIN K0J4 200150Z AUTO 01005KT 10SM CLR 08/M04 A3030 -30 42 -800 010/05 RMK AO2 T00831039
63870K0J4 0J420161119205511611/19/16 20:55:31  5-MIN K0J4 200155Z AUTO 01005KT 10SM CLR 09/M04 A3030 -30 40 -700 010/05 RMK AO2 SLP260 T00891039
63870K0J4 0J420161119210010911/19/16 21:00:31  5-MIN K0J4 200200Z AUTO 01005KT 10SM CLR 08/M04 A3030 -30 42 -800 010/05 RMK AO2 T00831039
63870K0J4 0J420161119210510911/19/16 21:05:31  5-MIN K0J4 200205Z AUTO 01004KT 10SM CLR 09/M04 A3031 -40 38 -700 010/04 RMK AO2 T00891044
63870K0J4 0J420161119211010911/19/16 21:10:31  5-MIN K0J4 200210Z AUTO 01004KT 10SM CLR 08/M04 A3031 -40 42 -800 010/04 RMK AO2 T00831039
63870K0J4 0J420161119211510911/19/16 21:15:31  5-MIN K0J4 200215Z AUTO 01003KT 10SM CLR 08/M04 A3031 -40 43 -800 010/03 RMK AO2 T00781039
63870K0J4 0J420161119212010911/19/16 21:20:31  5-MIN K0J4 200220Z AUTO 00000KT 10SM CLR 08/M04 A3031 -40 43 -800 000/00 RMK AO2 T00781039
63870K0J4 0J420161119212510911/19/16 21:25:31  5-MIN K0J4 200225Z AUTO 00000KT 10SM CLR 08/M04 A3031 -40 42 -800 000/00 RMK AO2 T00831039
63870K0J4 0J420161119213010911/19/16 21:30:31  5-MIN K0J4 200230Z AUTO 00000KT 10SM CLR 07/M04 A3032 -40 45 -900 000/00 RMK AO2 T00721039
63870K0J4 0J420161119213511011/19/16 21:35:31  5-MIN K0J4 200235Z AUTO 36003KT 10SM CLR 07/M03 A3032 -40 49 -1000 360/03 RMK AO2 T00671033
63870K0J4 0J420161119214011011/19/16 21:40:31  5-MIN K0J4 200240Z AUTO 36003KT 10SM CLR 07/M03 A3032 -50 49 -1000 360/03 RMK AO2 T00671033
63870K0J4 0J420161119214511011/19/16 21:45:31  5-MIN K0J4 200245Z AUTO 01003KT 10SM CLR 07/M03 A3032 -50 49 -1000 010/03 RMK AO2 T00671033
63870K0J4 0J420161119215011011/19/16 21:50:31  5-MIN K0J4 200250Z AUTO 01003KT 10SM CLR 06/M03 A3032 -50 51 -1000 010/03 RMK AO2 T00611033
63870K0J4 0J420161119215512911/19/16 21:55:31  5-MIN K0J4 200255Z AUTO 01004KT 10SM CLR 06/M04 A3032 -50 48 -1000 010/04 RMK AO2 SLP266 60000 T00611039 53009
63870K0J4 0J420161119220011011/19/16 22:00:31  5-MIN K0J4 200300Z AUTO 01004KT 10SM CLR 06/M03 A3032 -50 51 -1100 010/04 RMK AO2 T00611033
63870K0J4 0J420161119220511011/19/16 22:05:31  5-MIN K0J4 200305Z AUTO 01004KT 10SM CLR 06/M04 A3032 -50 48 -1100 010/04 RMK AO2 T00611039
63870K0J4 0J420161119221011011/19/16 22:10:31  5-MIN K0J4 200310Z AUTO 36004KT 10SM CLR 07/M04 A3032 -50 47 -1000 360/04 RMK AO2 T00671039
63870K0J4 0J420161119221511011/19/16 22:15:31  5-MIN K0J4 200315Z AUTO 01003KT 10SM CLR 06/M04 A3032 -50 48 -1100 010/03 RMK AO2 T00611039
63870K0J4 0J420161119222011011/19/16 22:20:31  5-MIN K0J4 200320Z AUTO 36004KT 10SM CLR 06/M04 A3033 -50 48 -1100 360/04 RMK AO2 T00611039
63870K0J4 0J420161119222511011/19/16 22:25:31  5-MIN K0J4 200325Z AUTO 36003KT 10SM CLR 06/M04 A3032 -50 48 -1100 360/03 RMK AO2 T00611039
63870K0J4 0J420161119223011011/19/16 22:30:31  5-MIN K0J4 200330Z AUTO 35003KT 10SM CLR 06/M04 A3032 -50 50 -1100 350/03 RMK AO2 T00561039
63870K0J4 0J420161119223511011/19/16 22:35:31  5-MIN K0J4 200335Z AUTO 35003KT 10SM CLR 06/M04 A3032 -50 48 -1000 350/03 RMK AO2 T00611039
63870K0J4 0J420161119224011011/19/16 22:40:31  5-MIN K0J4 200340Z AUTO 36003KT 10SM CLR 06/M04 A3032 -50 50 -1100 360/03 RMK AO2 T00561039
63870K0J4 0J420161119224511011/19/16 22:45:31  5-MIN K0J4 200345Z AUTO 36003KT 10SM CLR 06/M04 A3032 -50 50 -1100 360/03 RMK AO2 T00561039
63870K0J4 0J420161119225011011/19/16 22:50:31  5-MIN K0J4 200350Z AUTO 01003KT 10SM CLR 06/M04 A3032 -50 50 -1100 010/03 RMK AO2 T00561039
63870K0J4 0J420161119225511711/19/16 22:55:31  5-MIN K0J4 200355Z AUTO 35003KT 10SM CLR 06/M04 A3032 -50 50 -1100 350/03 RMK AO2 SLP267 T00561039
63870K0J4 0J420161119230011011/19/16 23:00:31  5-MIN K0J4 200400Z AUTO 35003KT 10SM CLR 06/M04 A3032 -50 50 -1100 350/03 RMK AO2 T00561039
63870K0J4 0J420161119230511011/19/16 23:05:31  5-MIN K0J4 200405Z AUTO 36004KT 10SM CLR 06/M04 A3032 -50 50 -1100 360/04 RMK AO2 T00561039
63870K0J4 0J420161119231011011/19/16 23:10:31  5-MIN K0J4 200410Z AUTO 35003KT 10SM CLR 06/M04 A3032 -50 50 -1100 350/03 RMK AO2 T00561039
63870K0J4 0J420161119231511011/19/16 23:15:31  5-MIN K0J4 200415Z AUTO 36003KT 10SM CLR 06/M04 A3032 -50 50 -1100 360/03 RMK AO2 T00561039
63870K0J4 0J420161119232011011/19/16 23:20:31  5-MIN K0J4 200420Z AUTO 35003KT 10SM CLR 06/M04 A3032 -50 50 -1100 350/03 RMK AO2 T00561039
63870K0J4 0J420161119232511011/19/16 23:25:31  5-MIN K0J4 200425Z AUTO 00000KT 10SM CLR 06/M04 A3032 -50 50 -1100 000/00 RMK AO2 T00561039
63870K0J4 0J420161119233011011/19/16 23:30:31  5-MIN K0J4 200430Z AUTO 35003KT 10SM CLR 06/M04 A3032 -50 48 -1100 350/03 RMK AO2 T00561044
63870K0J4 0J420161119233511011/19/16 23:35:31  5-MIN K0J4 200435Z AUTO 35003KT 10SM CLR 05/M04 A3032 -50 52 -1200 350/03 RMK AO2 T00501039
63870K0J4 0J420161119234011011/19/16 23:40:31  5-MIN K0J4 200440Z AUTO 00000KT 10SM CLR 06/M04 A3032 -50 50 -1100 000/00 RMK AO2 T00561039
63870K0J4 0J420161119234511011/19/16 23:45:31  5-MIN K0J4 200445Z AUTO 00000KT 10SM CLR 05/M04 A3032 -50 52 -1200 000/00 RMK AO2 T00501039
63870K0J4 0J420161119235011011/19/16 23:50:31  5-MIN K0J4 200450Z AUTO 34003KT 10SM CLR 05/M04 A3032 -50 52 -1200 340/03 RMK AO2 T00501039
63870K0J4 0J420161119235512711/19/16 23:55:31  5-MIN K0J4 200455Z AUTO 34003KT 10SM CLR 05/M04 A3032 -50 52 -1200 340/03 RMK AO2 SLP266 T00501039 401830050
63870K0J4 0J420161120000011011/20/16 00:00:31  5-MIN K0J4 200500Z AUTO 35003KT 10SM CLR 05/M04 A3032 -50 52 -1200 350/03 RMK AO2 T00501039
63870K0J4 0J420161120000511011/20/16 00:05:31  5-MIN K0J4 200505Z AUTO 35003KT 10SM CLR 04/M03 A3032 -50 57 -1300 350/03 RMK AO2 T00441033
63870K0J4 0J420161120001011011/20/16 00:10:31  5-MIN K0J4 200510Z AUTO 35004KT 10SM CLR 04/M03 A3033 -50 57 -1300 350/04 RMK AO2 T00441033
63870K0J4 0J420161120001511011/20/16 00:15:31  5-MIN K0J4 200515Z AUTO 00000KT 10SM CLR 04/M04 A3033 -50 55 -1300 000/00 RMK AO2 T00441039
63870K0J4 0J420161120002011011/20/16 00:20:31  5-MIN K0J4 200520Z AUTO 00000KT 10SM CLR 04/M04 A3033 -50 55 -1300 000/00 RMK AO2 T00441039
63870K0J4 0J420161120002511011/20/16 00:25:31  5-MIN K0J4 200525Z AUTO 33003KT 10SM CLR 03/M03 A3033 -50 61 -1400 330/03 RMK AO2 T00331033
63870K0J4 0J420161120003011011/20/16 00:30:31  5-MIN K0J4 200530Z AUTO VRB03KT 10SM CLR 03/M03 A3033 -50 61 -1400 VRB/03 RMK AO2 T00331033
63870K0J4 0J420161120003511011/20/16 00:35:31  5-MIN K0J4 200535Z AUTO 33003KT 10SM CLR 04/M03 A3033 -50 59 -1300 330/03 RMK AO2 T00391033
63870K0J4 0J420161120004011011/20/16 00:40:31  5-MIN K0J4 200540Z AUTO VRB03KT 10SM CLR 04/M03 A3033 -50 59 -1300 VRB/03 RMK AO2 T00391033
63870K0J4 0J420161120004511011/20/16 00:45:31  5-MIN K0J4 200545Z AUTO VRB03KT 10SM CLR 05/M04 A3033 -50 52 -1200 VRB/03 RMK AO2 T00501039
63870K0J4 0J420161120005011011/20/16 00:50:31  5-MIN K0J4 200550Z AUTO 34003KT 10SM CLR 05/M04 A3033 -50 52 -1200 340/03 RMK AO2 T00501039
63870K0J4 0J420161120005514111/20/16 00:55:31  5-MIN K0J4 200555Z AUTO 00000KT 10SM CLR 04/M04 A3033 -50 55 -1300 000/00 RMK AO2 SLP269 60000 T00441039 10106 20028 51020
63870K0J4 0J420161120010011011/20/16 01:00:31  5-MIN K0J4 200600Z AUTO 00000KT 10SM CLR 04/M04 A3033 -60 57 -1300 000/00 RMK AO2 T00391039
63870K0J4 0J420161120010511011/20/16 01:05:31  5-MIN K0J4 200605Z AUTO 00000KT 10SM CLR 04/M04 A3033 -60 57 -1300 000/00 RMK AO2 T00391039
63870K0J4 0J420161120011011011/20/16 01:10:31  5-MIN K0J4 200610Z AUTO 34003KT 10SM CLR 04/M04 A3033 -60 57 -1300 340/03 RMK AO2 T00391039
63870K0J4 0J420161120011511011/20/16 01:15:31  5-MIN K0J4 200615Z AUTO 34003KT 10SM CLR 04/M04 A3033 -60 57 -1300 340/03 RMK AO2 T00391039
63870K0J4 0J420161120012011011/20/16 01:20:31  5-MIN K0J4 200620Z AUTO 33003KT 10SM CLR 03/M03 A3033 -60 61 -1400 330/03 RMK AO2 T00331033
63870K0J4 0J420161120012511011/20/16 01:25:31  5-MIN K0J4 200625Z AUTO 33003KT 10SM CLR 04/M04 A3033 -50 57 -1300 330/03 RMK AO2 T00391039
63870K0J4 0J420161120013011011/20/16 01:30:31  5-MIN K0J4 200630Z AUTO 33003KT 10SM CLR 04/M04 A3033 -50 57 -1300 330/03 RMK AO2 T00391039
63870K0J4 0J420161120013511011/20/16 01:35:31  5-MIN K0J4 200635Z AUTO 34003KT 10SM CLR 03/M04 A3033 -50 59 -1400 340/03 RMK AO2 T00331039
63870K0J4 0J420161120014011011/20/16 01:40:31  5-MIN K0J4 200640Z AUTO 33003KT 10SM CLR 04/M04 A3033 -50 57 -1300 330/03 RMK AO2 T00391039
63870K0J4 0J420161120014511011/20/16 01:45:31  5-MIN K0J4 200645Z AUTO VRB03KT 10SM CLR 03/M04 A3033 -50 59 -1400 VRB/03 RMK AO2 T00331039
63870K0J4 0J420161120015011011/20/16 01:50:31  5-MIN K0J4 200650Z AUTO 00000KT 10SM CLR 03/M04 A3033 -50 59 -1400 000/00 RMK AO2 T00331039
63870K0J4 0J420161120015511711/20/16 01:55:31  5-MIN K0J4 200655Z AUTO 00000KT 10SM CLR 03/M03 A3033 -50 64 -1500 000/00 RMK AO2 SLP268 T00281033
63870K0J4 0J420161120020011011/20/16 02:00:31  5-MIN K0J4 200700Z AUTO VRB03KT 10SM CLR 03/M03 A3033 -50 61 -1400 VRB/03 RMK AO2 T00331033
63870K0J4 0J420161120020511011/20/16 02:05:31  5-MIN K0J4 200705Z AUTO 00000KT 10SM CLR 03/M04 A3033 -60 61 -1500 000/00 RMK AO2 T00281039
63870K0J4 0J420161120021011011/20/16 02:10:31  5-MIN K0J4 200710Z AUTO 35003KT 10SM CLR 03/M04 A3033 -50 59 -1400 350/03 RMK AO2 T00331039
63870K0J4 0J420161120021511011/20/16 02:15:31  5-MIN K0J4 200715Z AUTO 36003KT 10SM CLR 03/M04 A3033 -50 59 -1400 360/03 RMK AO2 T00331039
63870K0J4 0J420161120022011011/20/16 02:20:31  5-MIN K0J4 200720Z AUTO VRB03KT 10SM CLR 04/M04 A3033 -50 57 -1300 VRB/03 RMK AO2 T00391039
63870K0J4 0J420161120022511011/20/16 02:25:31  5-MIN K0J4 200725Z AUTO 00000KT 10SM CLR 04/M04 A3033 -50 57 -1300 000/00 RMK AO2 T00391039
63870K0J4 0J420161120023011011/20/16 02:30:31  5-MIN K0J4 200730Z AUTO 00000KT 10SM CLR 03/M04 A3033 -50 61 -1500 000/00 RMK AO2 T00281039
63870K0J4 0J420161120023511011/20/16 02:35:31  5-MIN K0J4 200735Z AUTO 00000KT 10SM CLR 02/M03 A3032 -50 67 -1500 000/00 RMK AO2 T00221033
63870K0J4 0J420161120024011011/20/16 02:40:31  5-MIN K0J4 200740Z AUTO 00000KT 10SM CLR 02/M04 A3033 -50 66 -1600 000/00 RMK AO2 T00171039
63870K0J4 0J420161120024511011/20/16 02:45:31  5-MIN K0J4 200745Z AUTO 00000KT 10SM CLR 02/M03 A3032 -50 69 -1600 000/00 RMK AO2 T00171033
63870K0J4 0J420161120025011011/20/16 02:50:31  5-MIN K0J4 200750Z AUTO 00000KT 10SM CLR 02/M03 A3032 -50 67 -1500 000/00 RMK AO2 T00221033
63870K0J4 0J420161120025511711/20/16 02:55:31  5-MIN K0J4 200755Z AUTO 00000KT 10SM CLR 02/M03 A3032 -50 67 -1500 000/00 RMK AO2 SLP267 T00221033
63870K0J4 0J420161120113510911/20/16 11:35:31  5-MIN K0J4 201635Z AUTO 33007KT 10SM CLR 11/M07 A3036 -80 27 -500 330/07 RMK AO2 T01111072
63870K0J4 0J420161120114010911/20/16 11:40:31  5-MIN K0J4 201640Z AUTO 36006KT 10SM CLR 12/M07 A3035 -80 26 -400 360/06 RMK AO2 T01171072
63870K0J4 0J420161120114510911/20/16 11:45:31  5-MIN K0J4 201645Z AUTO 36007KT 10SM CLR 13/M07 A3035 -80 24 -300 360/07 RMK AO2 T01281072
63870K0J4 0J420161120115010911/20/16 11:50:31  5-MIN K0J4 201650Z AUTO 36006KT 10SM CLR 13/M08 A3035 -70 23 -300 360/06 RMK AO2 T01281078
63870K0J4 0J420161120115513211/20/16 11:55:31  5-MIN K0J4 201655Z AUTO 35007KT 310V010 10SM CLR 13/M07 A3034 -70 24 -300 350/07 310V010 RMK AO2 SLP275 T01281072
63870K0J4 0J420161120120010911/20/16 12:00:31  5-MIN K0J4 201700Z AUTO 01008KT 10SM CLR 13/M08 A3034 -70 22 -300 010/08 RMK AO2 T01281083
63870K0J4 0J420161120120510911/20/16 12:05:31  5-MIN K0J4 201705Z AUTO VRB06KT 10SM CLR 13/M08 A3034 -60 22 -300 VRB/06 RMK AO2 T01281083
63870K0J4 0J420161120121010911/20/16 12:10:31  5-MIN K0J4 201710Z AUTO 01008KT 10SM CLR 13/M09 A3033 -60 21 -300 010/08 RMK AO2 T01281089
63870K0J4 0J420161120121509911/20/16 12:15:31  5-MIN K0J4 201715Z AUTO 10SM CLR 14/M08 A3033 -50 21 -100 M /M RMK AO2 T01391078
63870K0J4 0J420161120122013111/20/16 12:20:31  5-MIN K0J4 201720Z AUTO 36009G14KT 320V030 10SM CLR 13/M08 A3032 -50 21 -200 360/09G14 320V030 RMK AO2 T01331083
63870K0J4 0J420161120122513111/20/16 12:25:31  5-MIN K0J4 201725Z AUTO 01007G14KT 340V040 10SM CLR 13/M08 A3032 -50 21 -200 010/07G14 340V040 RMK AO2 T01331083
63870K0J4 0J420161120123010911/20/16 12:30:31  5-MIN K0J4 201730Z AUTO VRB06KT 10SM CLR 14/M08 A3032 -40 21 -100 VRB/06 RMK AO2 T01391078
63870K0J4 0J420161120123506311/20/16 12:35:31  5-MIN K0J4 201735Z AUTO M M M M /M RMK AO2 $
63870K0J4 0J420161120124010211/20/16 12:40:31  5-MIN K0J4 201740Z AUTO 35007KT 14/M08 A3031 -40 20 -100 350/07 RMK AO2 T01391083 $
63870K0J4 0J420161120124512311/20/16 12:45:31  5-MIN K0J4 201745Z AUTO 34008KT 310V040 10SM 13/M09 A3031 -30 20 -200 340/08 310V040 RMK AO2 T01331089 $
63870K0J4 0J420161120125012911/20/16 12:50:31  5-MIN K0J4 201750Z AUTO 01010G16KT 340V040 10SM 14/M09 A3030 -30 20 -100 010/10G16 340V040 RMK AO2 T01391089 $
63870K0J4 0J420161120125515411/20/16 12:55:31  5-MIN K0J4 201755Z AUTO 36009G16KT 320V030 10SM 14/M08 A3030 -30 20 -100 360/09G16 320V030 RMK AO2 SLP260 60000 T01391083 10139 21017 $
63870K0J4 0J420161120130011311/20/16 13:00:31  5-MIN K0J4 201800Z AUTO 02011G16KT 10SM 14/M08 A3030 -30 20 -100 020/11G16 RMK AO2 T01391083 $
63870K0J4 0J420161120130511711/20/16 13:05:31  5-MIN K0J4 201805Z AUTO VRB06G16KT 10SM CLR 14/M08 A3029 -20 21 -100 VRB/06G16 RMK AO2 T01391078 $
63870K0J4 0J420161120131010811/20/16 13:10:31  5-MIN K0J4 201810Z AUTO VRB06KT 10SM CLR 14/M08 A3029 -20 20 0 VRB/06 RMK AO2 T01441078 $
63870K0J4 0J420161120131512411/20/16 13:15:31  5-MIN K0J4 201815Z AUTO 01007KT 330V050 10SM CLR 15/M08 A3029 -20 19 0 010/07 330V050 RMK AO2 T01501083 $
63870K0J4 0J420161120132010811/20/16 13:20:31  5-MIN K0J4 201820Z AUTO 33008KT 10SM CLR 15/M08 A3028 -10 19 0 330/08 RMK AO2 T01501083 $
63870K0J4 0J420161120132510811/20/16 13:25:31  5-MIN K0J4 201825Z AUTO VRB05KT 10SM CLR 14/M09 A3028 -10 19 0 VRB/05 RMK AO2 T01441089 $
63870K0J4 0J420161120133012411/20/16 13:30:31  5-MIN K0J4 201830Z AUTO 33007KT 280V020 10SM CLR 15/M08 A3028 -10 19 0 330/07 280V020 RMK AO2 T01501083 $
63870K0J4 0J420161120133512211/20/16 13:35:31  5-MIN K0J4 201835Z AUTO 36008KT 310V020 10SM CLR 15/M08 A3027 0 19 0 360/08 310V020 RMK AO2 T01501083 $
63870K0J4 0J420161120134010611/20/16 13:40:31  5-MIN K0J4 201840Z AUTO VRB05KT 10SM CLR 15/M08 A3027 0 19 0 VRB/05 RMK AO2 T01501083 $
63870K0J4 0J420161120134510811/20/16 13:45:31  5-MIN K0J4 201845Z AUTO VRB05KT 10SM CLR 16/M08 A3027 0 18 100 VRB/05 RMK AO2 T01561083 $
63870K0J4 0J420161120135010611/20/16 13:50:31  5-MIN K0J4 201850Z AUTO VRB05KT 10SM CLR 15/M09 A3027 0 18 0 VRB/05 RMK AO2 T01501089 $
63870K0J4 0J420161120135511511/20/16 13:55:31  5-MIN K0J4 201855Z AUTO VRB06KT 10SM CLR 16/M09 A3027 0 17 100 VRB/06 RMK AO2 SLP248 T01561089 $
63870K0J4 0J420161120140010811/20/16 14:00:31  5-MIN K0J4 201900Z AUTO VRB05KT 10SM CLR 16/M09 A3026 0 17 100 VRB/05 RMK AO2 T01561089 $
63870K0J4 0J420161120140512511/20/16 14:05:31  5-MIN K0J4 201905Z AUTO 36007KT 330V030 10SM CLR 16/M09 A3026 10 17 100 360/07 330V030 RMK AO2 T01561094 $
63870K0J4 0J420161120141011511/20/16 14:10:31  5-MIN K0J4 201910Z AUTO 35008G14KT 10SM CLR 16/M09 A3026 10 17 100 350/08G14 RMK AO2 T01561094 $
63870K0J4 0J420161120141511511/20/16 14:15:31  5-MIN K0J4 201915Z AUTO VRB06G18KT 10SM CLR 16/M10 A3025 10 15 200 VRB/06G18 RMK AO2 T01611100 $
63870K0J4 0J420161120142013111/20/16 14:20:31  5-MIN K0J4 201920Z AUTO 34008G18KT 310V030 10SM CLR 16/M10 A3025 10 15 200 340/08G18 310V030 RMK AO2 T01611100 $
63870K0J4 0J420161120142510911/20/16 14:25:31  5-MIN K0J4 201925Z AUTO 36010KT 10SM CLR 16/M10 A3025 10 15 200 360/10 RMK AO2 T01611100 $
63870K0J4 0J420161120143010911/20/16 14:30:31  5-MIN K0J4 201930Z AUTO VRB04KT 10SM CLR 16/M11 A3025 10 15 200 VRB/04 RMK AO2 T01611106 $
63870K0J4 0J420161120143510911/20/16 14:35:31  5-MIN K0J4 201935Z AUTO VRB05KT 10SM CLR 17/M11 A3025 10 14 300 VRB/05 RMK AO2 T01671106 $
63870K0J4 0J420161120144010911/20/16 14:40:31  5-MIN K0J4 201940Z AUTO 36008KT 10SM CLR 17/M11 A3025 20 14 300 360/08 RMK AO2 T01671106 $
63870K0J4 0J420161120144512511/20/16 14:45:31  5-MIN K0J4 201945Z AUTO 32007KT 290V350 10SM CLR 16/M11 A3024 20 15 200 320/07 290V350 RMK AO2 T01611106 $
63870K0J4 0J420161120145011511/20/16 14:50:31  5-MIN K0J4 201950Z AUTO VRB06G17KT 10SM CLR 17/M11 A3024 20 14 300 VRB/06G17 RMK AO2 T01671106 $
63870K0J4 0J420161120145512211/20/16 14:55:31  5-MIN K0J4 201955Z AUTO 35008G17KT 10SM CLR 17/M11 A3024 20 14 300 350/08G17 RMK AO2 SLP241 T01671106 $
63870K0J4 0J420161120150011511/20/16 15:00:31  5-MIN K0J4 202000Z AUTO 01007G14KT 10SM CLR 16/M11 A3024 20 15 200 010/07G14 RMK AO2 T01611106 $
63870K0J4 0J420161120150511511/20/16 15:05:31  5-MIN K0J4 202005Z AUTO VRB06G14KT 10SM CLR 17/M10 A3024 20 15 300 VRB/06G14 RMK AO2 T01671100 $
63870K0J4 0J420161120151010911/20/16 15:10:31  5-MIN K0J4 202010Z AUTO 35007KT 10SM CLR 16/M11 A3024 20 15 200 350/07 RMK AO2 T01611106 $
63870K0J4 0J420161120151510911/20/16 15:15:31  5-MIN K0J4 202015Z AUTO VRB05KT 10SM CLR 17/M11 A3024 20 14 300 VRB/05 RMK AO2 T01671106 $
63870K0J4 0J420161120152012511/20/16 15:20:31  5-MIN K0J4 202020Z AUTO 34007KT 320V020 10SM CLR 17/M11 A3024 20 14 300 340/07 320V020 RMK AO2 T01671106 $
63870K0J4 0J420161120152512511/20/16 15:25:31  5-MIN K0J4 202025Z AUTO 32008KT 290V350 10SM CLR 16/M11 A3024 20 15 200 320/08 290V350 RMK AO2 T01611106 $
63870K0J4 0J420161120153010911/20/16 15:30:31  5-MIN K0J4 202030Z AUTO VRB06KT 10SM CLR 17/M11 A3024 20 14 300 VRB/06 RMK AO2 T01671111 $
63870K0J4 0J420161120153510911/20/16 15:35:31  5-MIN K0J4 202035Z AUTO 35008KT 10SM CLR 16/M12 A3024 20 14 200 350/08 RMK AO2 T01611117 $
63870K0J4 0J420161120154010911/20/16 15:40:31  5-MIN K0J4 202040Z AUTO 35008KT 10SM CLR 16/M11 A3024 20 14 200 350/08 RMK AO2 T01611111 $
63870K0J4 0J420161120154510911/20/16 15:45:31  5-MIN K0J4 202045Z AUTO 36007KT 10SM CLR 16/M12 A3024 20 14 200 360/07 RMK AO2 T01611117 $
63870K0J4 0J420161120155010911/20/16 15:50:31  5-MIN K0J4 202050Z AUTO 35006KT 10SM CLR 16/M12 A3024 20 14 200 350/06 RMK AO2 T01611117 $
63870K0J4 0J420161120155511611/20/16 15:55:31  5-MIN K0J4 202055Z AUTO 36007KT 10SM CLR 16/M12 A3024 20 14 200 360/07 RMK AO2 SLP240 T01611117 $
63870K0J4 0J420161120160010911/20/16 16:00:31  5-MIN K0J4 202100Z AUTO 01005KT 10SM CLR 17/M11 A3024 20 14 300 010/05 RMK AO2 T01671111 $
63870K0J4 0J420161120160510911/20/16 16:05:31  5-MIN K0J4 202105Z AUTO VRB05KT 10SM CLR 17/M11 A3024 20 14 300 VRB/05 RMK AO2 T01671111 $
63870K0J4 0J420161120161012411/20/16 16:10:31  5-MIN K0J4 202110Z AUTO VRB06KT 10SM CLR 16/M11 A3024 20 14 200 VRB/06 RMK AO2 RAB08E10 P0000 T01611111 $
63870K0J4 0J420161120161512411/20/16 16:15:31  5-MIN K0J4 202115Z AUTO VRB05KT 10SM CLR 16/M11 A3024 20 14 200 VRB/05 RMK AO2 RAB08E10 P0000 T01611111 $
63870K0J4 0J420161120162014011/20/16 16:20:31  5-MIN K0J4 202120Z AUTO 34007KT 320V030 10SM CLR 16/M11 A3024 20 15 200 340/07 320V030 RMK AO2 RAB08E10 P0000 T01611106 $
63870K0J4 0J420161120162512411/20/16 16:25:31  5-MIN K0J4 202125Z AUTO VRB06KT 10SM CLR 16/M11 A3024 20 15 200 VRB/06 RMK AO2 RAB08E10 P0000 T01611106 $
63870K0J4 0J420161120163012411/20/16 16:30:31  5-MIN K0J4 202130Z AUTO 35007KT 10SM CLR 16/M11 A3024 20 15 200 350/07 RMK AO2 RAB08E10 P0000 T01611106 $
63870K0J4 0J420161120163512411/20/16 16:35:31  5-MIN K0J4 202135Z AUTO 34007KT 10SM CLR 16/M10 A3024 20 16 100 340/07 RMK AO2 RAB08E10 P0000 T01561100 $
63870K0J4 0J420161120164012411/20/16 16:40:31  5-MIN K0J4 202140Z AUTO 36006KT 10SM CLR 16/M10 A3024 20 16 100 360/06 RMK AO2 RAB08E10 P0000 T01561100 $
63870K0J4 0J420161120164512411/20/16 16:45:31  5-MIN K0J4 202145Z AUTO VRB04KT 10SM CLR 16/M10 A3024 20 16 100 VRB/04 RMK AO2 RAB08E10 P0000 T01561100 $
63870K0J4 0J420161120165012411/20/16 16:50:31  5-MIN K0J4 202150Z AUTO VRB04KT 10SM CLR 16/M11 A3024 20 15 100 VRB/04 RMK AO2 RAB08E10 P0000 T01561106 $
63870K0J4 0J420161120165513111/20/16 16:55:31  5-MIN K0J4 202155Z AUTO 35006KT 10SM CLR 15/M10 A3024 20 17 100 350/06 RMK AO2 RAB08E10 SLP239 P0000 T01501100 $
63870K0J4 0J420161120170010711/20/16 17:00:31  5-MIN K0J4 202200Z AUTO 36005KT 10SM CLR 14/M10 A3024 20 17 0 360/05 RMK AO2 T01441100 $
63870K0J4 0J420161120170510711/20/16 17:05:31  5-MIN K0J4 202205Z AUTO 35005KT 10SM CLR 14/M10 A3024 20 17 0 350/05 RMK AO2 T01441100 $
63870K0J4 0J420161120171010711/20/16 17:10:31  5-MIN K0J4 202210Z AUTO VRB04KT 10SM CLR 14/M10 A3024 20 17 0 VRB/04 RMK AO2 T01441100 $
63870K0J4 0J420161120171510711/20/16 17:15:31  5-MIN K0J4 202215Z AUTO VRB03KT 10SM CLR 14/M10 A3024 20 18 0 VRB/03 RMK AO2 T01391100 $
63870K0J4 0J420161120172010711/20/16 17:20:31  5-MIN K0J4 202220Z AUTO VRB06KT 10SM CLR 14/M10 A3024 20 18 0 VRB/06 RMK AO2 T01391100 $
63870K0J4 0J420161120172510711/20/16 17:25:31  5-MIN K0J4 202225Z AUTO 34004KT 10SM CLR 14/M11 A3024 20 17 0 340/04 RMK AO2 T01391106 $
63870K0J4 0J420161120173011011/20/16 17:30:31  5-MIN K0J4 202230Z AUTO 34005KT 10SM CLR 13/M10 A3024 20 19 -100 340/05 RMK AO2 T01331100 $
63870K0J4 0J420161120173511011/20/16 17:35:31  5-MIN K0J4 202235Z AUTO 35003KT 10SM CLR 13/M11 A3024 20 18 -100 350/03 RMK AO2 T01331106 $
63870K0J4 0J420161120174011011/20/16 17:40:31  5-MIN K0J4 202240Z AUTO 35003KT 10SM CLR 13/M11 A3024 20 18 -100 350/03 RMK AO2 T01331106 $
63870K0J4 0J420161120174511011/20/16 17:45:31  5-MIN K0J4 202245Z AUTO 35004KT 10SM CLR 13/M10 A3024 20 19 -100 350/04 RMK AO2 T01281100 $
63870K0J4 0J420161120175011011/20/16 17:50:31  5-MIN K0J4 202250Z AUTO VRB03KT 10SM CLR 13/M10 A3024 20 19 -100 VRB/03 RMK AO2 T01281100 $
63870K0J4 0J420161120175511711/20/16 17:55:31  5-MIN K0J4 202255Z AUTO 35003KT 10SM CLR 12/M10 A3024 20 20 -200 350/03 RMK AO2 SLP239 T01221100 $
63870K0J4 0J420161120180011011/20/16 18:00:31  5-MIN K0J4 202300Z AUTO 36003KT 10SM CLR 12/M09 A3024 20 21 -200 360/03 RMK AO2 T01221094 $
63870K0J4 0J420161120180511011/20/16 18:05:31  5-MIN K0J4 202305Z AUTO 36003KT 10SM CLR 12/M09 A3024 20 22 -300 360/03 RMK AO2 T01171094 $
63870K0J4 0J420161120181011011/20/16 18:10:31  5-MIN K0J4 202310Z AUTO 00000KT 10SM CLR 12/M09 A3024 30 22 -300 000/00 RMK AO2 T01171094 $
63870K0J4 0J420161120181511011/20/16 18:15:31  5-MIN K0J4 202315Z AUTO 35003KT 10SM CLR 12/M09 A3024 20 22 -300 350/03 RMK AO2 T01171094 $
63870K0J4 0J420161120182011011/20/16 18:20:31  5-MIN K0J4 202320Z AUTO VRB03KT 10SM CLR 12/M09 A3024 20 22 -300 VRB/03 RMK AO2 T01171094 $
63870K0J4 0J420161120182511011/20/16 18:25:31  5-MIN K0J4 202325Z AUTO 00000KT 10SM CLR 11/M09 A3024 20 22 -300 000/00 RMK AO2 T01111094 $
63870K0J4 0J420161120183011011/20/16 18:30:31  5-MIN K0J4 202330Z AUTO 00000KT 10SM CLR 11/M09 A3024 20 23 -300 000/00 RMK AO2 T01111089 $
63870K0J4 0J420161120183511011/20/16 18:35:31  5-MIN K0J4 202335Z AUTO 00000KT 10SM CLR 10/M09 A3024 20 25 -500 000/00 RMK AO2 T01001089 $
63870K0J4 0J420161120184011011/20/16 18:40:31  5-MIN K0J4 202340Z AUTO 00000KT 10SM CLR 09/M08 A3024 20 27 -600 000/00 RMK AO2 T00941083 $
63870K0J4 0J420161120184511011/20/16 18:45:31  5-MIN K0J4 202345Z AUTO 00000KT 10SM CLR 09/M08 A3024 20 30 -600 000/00 RMK AO2 T00891078 $
63870K0J4 0J420161120185011011/20/16 18:50:31  5-MIN K0J4 202350Z AUTO VRB03KT 10SM CLR 09/M07 A3025 20 31 -600 VRB/03 RMK AO2 T00891072 $
63870K0J4 0J420161120185514111/20/16 18:55:31  5-MIN K0J4 202355Z AUTO 00000KT 10SM CLR 09/M07 A3025 20 31 -600 000/00 RMK AO2 SLP243 60000 T00891072 10167 20083 56019 $
63870K0J4 0J420161120190011011/20/16 19:00:31  5-MIN K0J4 210000Z AUTO 00000KT 10SM CLR 09/M07 A3025 20 31 -600 000/00 RMK AO2 T00891072 $
63870K0J4 0J420161120190511011/20/16 19:05:31  5-MIN K0J4 210005Z AUTO 00000KT 10SM CLR 09/M07 A3025 20 32 -600 000/00 RMK AO2 T00891067 $
63870K0J4 0J420161120191011011/20/16 19:10:31  5-MIN K0J4 210010Z AUTO 00000KT 10SM CLR 08/M06 A3025 10 35 -700 000/00 RMK AO2 T00831061 $
63870K0J4 0J420161120191511011/20/16 19:15:31  5-MIN K0J4 210015Z AUTO 00000KT 10SM CLR 08/M06 A3025 10 38 -800 000/00 RMK AO2 T00781056 $
63870K0J4 0J420161120192011011/20/16 19:20:31  5-MIN K0J4 210020Z AUTO 00000KT 10SM CLR 08/M06 A3025 10 35 -700 000/00 RMK AO2 T00831061 $
63870K0J4 0J420161120192511011/20/16 19:25:31  5-MIN K0J4 210025Z AUTO 00000KT 10SM CLR 08/M07 A3025 10 34 -700 000/00 RMK AO2 T00831067 $
63870K0J4 0J420161120193011011/20/16 19:30:31  5-MIN K0J4 210030Z AUTO 34003KT 10SM CLR 08/M06 A3025 10 36 -800 340/03 RMK AO2 T00781061 $
63870K0J4 0J420161120193511011/20/16 19:35:31  5-MIN K0J4 210035Z AUTO 00000KT 10SM CLR 07/M06 A3025 10 40 -800 000/00 RMK AO2 T00721056 $
63870K0J4 0J420161120194011011/20/16 19:40:31  5-MIN K0J4 210040Z AUTO 00000KT 10SM CLR 07/M06 A3025 10 40 -800 000/00 RMK AO2 T00721056 $
63870K0J4 0J420161120194511011/20/16 19:45:31  5-MIN K0J4 210045Z AUTO VRB03KT 10SM CLR 07/M05 A3025 10 41 -800 VRB/03 RMK AO2 T00721050 $
63870K0J4 0J420161120195011011/20/16 19:50:31  5-MIN K0J4 210050Z AUTO 00000KT 10SM CLR 07/M05 A3025 10 43 -900 000/00 RMK AO2 T00671050 $
63870K0J4 0J420161120195511711/20/16 19:55:31  5-MIN K0J4 210055Z AUTO 00000KT 10SM CLR 07/M05 A3025 10 43 -900 000/00 RMK AO2 SLP245 T00671050 $
63870K0J4 0J420161120200011011/20/16 20:00:31  5-MIN K0J4 210100Z AUTO 00000KT 10SM CLR 07/M05 A3025 10 43 -900 000/00 RMK AO2 T00671050 $
63870K0J4 0J420161120200511011/20/16 20:05:31  5-MIN K0J4 210105Z AUTO 00000KT 10SM CLR 07/M05 A3025 10 43 -900 000/00 RMK AO2 T00671050 $
63870K0J4 0J420161120201011111/20/16 20:10:31  5-MIN K0J4 210110Z AUTO 33003KT 10SM CLR 06/M05 A3025 10 45 -1000 330/03 RMK AO2 T00611050 $
63870K0J4 0J420161120201511011/20/16 20:15:31  5-MIN K0J4 210115Z AUTO 00000KT 10SM CLR 07/M05 A3025 10 43 -900 000/00 RMK AO2 T00671050 $
63870K0J4 0J420161120202011011/20/16 20:20:31  5-MIN K0J4 210120Z AUTO 00000KT 10SM CLR 07/M05 A3025 10 43 -900 000/00 RMK AO2 T00671050 $
63870K0J4 0J420161120202511111/20/16 20:25:31  5-MIN K0J4 210125Z AUTO 00000KT 10SM CLR 06/M04 A3025 10 46 -1000 000/00 RMK AO2 T00611044 $
63870K0J4 0J420161120203011111/20/16 20:30:31  5-MIN K0J4 210130Z AUTO 00000KT 10SM CLR 06/M05 A3025 10 45 -1000 000/00 RMK AO2 T00611050 $
63870K0J4 0J420161120203511111/20/16 20:35:31  5-MIN K0J4 210135Z AUTO 00000KT 10SM CLR 06/M05 A3025 10 45 -1000 000/00 RMK AO2 T00611050 $
63870K0J4 0J420161120204011111/20/16 20:40:31  5-MIN K0J4 210140Z AUTO 00000KT 10SM CLR 06/M04 A3025 10 46 -1000 000/00 RMK AO2 T00611044 $
63870K0J4 0J420161120204511111/20/16 20:45:31  5-MIN K0J4 210145Z AUTO 00000KT 10SM CLR 05/M04 A3025 10 52 -1100 000/00 RMK AO2 T00501039 $
63870K0J4 0J420161120205011111/20/16 20:50:31  5-MIN K0J4 210150Z AUTO 00000KT 10SM CLR 05/M04 A3025 20 52 -1100 000/00 RMK AO2 T00501039 $
63870K0J4 0J420161120205511811/20/16 20:55:31  5-MIN K0J4 210155Z AUTO 00000KT 10SM CLR 05/M04 A3025 20 52 -1100 000/00 RMK AO2 SLP243 T00501039 $
63870K0J4 0J420161120210011111/20/16 21:00:31  5-MIN K0J4 210200Z AUTO 00000KT 10SM CLR 05/M04 A3025 10 50 -1100 000/00 RMK AO2 T00501044 $
63870K0J4 0J420161120210511111/20/16 21:05:31  5-MIN K0J4 210205Z AUTO 00000KT 10SM CLR 05/M04 A3025 20 52 -1100 000/00 RMK AO2 T00501039 $
63870K0J4 0J420161120211011111/20/16 21:10:31  5-MIN K0J4 210210Z AUTO 00000KT 10SM CLR 05/M04 A3025 20 50 -1100 000/00 RMK AO2 T00501044 $
63870K0J4 0J420161120211511111/20/16 21:15:31  5-MIN K0J4 210215Z AUTO 00000KT 10SM CLR 04/M04 A3025 20 52 -1200 000/00 RMK AO2 T00441044 $
63870K0J4 0J420161120212011111/20/16 21:20:31  5-MIN K0J4 210220Z AUTO 00000KT 10SM CLR 05/M04 A3024 20 50 -1100 000/00 RMK AO2 T00501044 $
63870K0J4 0J420161120212511111/20/16 21:25:31  5-MIN K0J4 210225Z AUTO 00000KT 10SM CLR 04/M04 A3024 20 52 -1200 000/00 RMK AO2 T00441044 $
63870K0J4 0J420161120213011111/20/16 21:30:31  5-MIN K0J4 210230Z AUTO 00000KT 10SM CLR 05/M04 A3024 20 52 -1100 000/00 RMK AO2 T00501039 $
63870K0J4 0J420161120213511111/20/16 21:35:31  5-MIN K0J4 210235Z AUTO 00000KT 10SM CLR 04/M04 A3024 20 57 -1200 000/00 RMK AO2 T00391039 $
63870K0J4 0J420161120214011111/20/16 21:40:31  5-MIN K0J4 210240Z AUTO 34003KT 10SM CLR 04/M04 A3024 20 52 -1200 340/03 RMK AO2 T00441044 $
63870K0J4 0J420161120214511111/20/16 21:45:31  5-MIN K0J4 210245Z AUTO VRB03KT 10SM CLR 04/M04 A3024 20 52 -1200 VRB/03 RMK AO2 T00441044 $
63870K0J4 0J420161120215011111/20/16 21:50:31  5-MIN K0J4 210250Z AUTO 00000KT 10SM CLR 04/M04 A3025 20 52 -1200 000/00 RMK AO2 T00441044 $
63870K0J4 0J420161120215512411/20/16 21:55:31  5-MIN K0J4 210255Z AUTO 00000KT 10SM CLR 04/M04 A3025 20 52 -1200 000/00 RMK AO2 SLP241 T00441044 53002 $
63870K0J4 0J420161120220011111/20/16 22:00:31  5-MIN K0J4 210300Z AUTO 00000KT 10SM CLR 04/M04 A3024 20 52 -1200 000/00 RMK AO2 T00441044 $
63870K0J4 0J420161120220511111/20/16 22:05:31  5-MIN K0J4 210305Z AUTO 00000KT 10SM CLR 04/M04 A3025 20 52 -1200 000/00 RMK AO2 T00441044 $
63870K0J4 0J420161120221011111/20/16 22:10:31  5-MIN K0J4 210310Z AUTO 00000KT 10SM CLR 04/M04 A3025 20 52 -1200 000/00 RMK AO2 T00441044 $
63870K0J4 0J420161120221511111/20/16 22:15:31  5-MIN K0J4 210315Z AUTO 00000KT 10SM CLR 05/M05 A3024 20 48 -1100 000/00 RMK AO2 T00501050 $
63870K0J4 0J420161120222011111/20/16 22:20:31  5-MIN K0J4 210320Z AUTO 00000KT 10SM CLR 04/M04 A3024 20 54 -1200 000/00 RMK AO2 T00391044 $
63870K0J4 0J420161120222511111/20/16 22:25:31  5-MIN K0J4 210325Z AUTO 00000KT 10SM CLR 04/M04 A3024 20 57 -1200 000/00 RMK AO2 T00391039 $
63870K0J4 0J420161120223011111/20/16 22:30:31  5-MIN K0J4 210330Z AUTO 00000KT 10SM CLR 03/M04 A3024 20 61 -1400 000/00 RMK AO2 T00281039 $
63870K0J4 0J420161120223511111/20/16 22:35:31  5-MIN K0J4 210335Z AUTO 00000KT 10SM CLR 03/M04 A3024 20 59 -1400 000/00 RMK AO2 T00281044 $
63870K0J4 0J420161120224011111/20/16 22:40:31  5-MIN K0J4 210340Z AUTO 00000KT 10SM CLR 03/M04 A3024 20 61 -1400 000/00 RMK AO2 T00281039 $
63870K0J4 0J420161120224511111/20/16 22:45:31  5-MIN K0J4 210345Z AUTO 00000KT 10SM CLR 03/M04 A3024 20 61 -1400 000/00 RMK AO2 T00281039 $
63870K0J4 0J420161120225011111/20/16 22:50:31  5-MIN K0J4 210350Z AUTO 00000KT 10SM CLR 03/M03 A3024 20 61 -1300 000/00 RMK AO2 T00331033 $
63870K0J4 0J420161120225511811/20/16 22:55:31  5-MIN K0J4 210355Z AUTO 00000KT 10SM CLR 03/M03 A3024 20 61 -1300 000/00 RMK AO2 SLP240 T00331033 $
63870K0J4 0J420161120230011111/20/16 23:00:31  5-MIN K0J4 210400Z AUTO 00000KT 10SM CLR 03/M04 A3024 20 59 -1300 000/00 RMK AO2 T00331039 $
63870K0J4 0J420161120230511111/20/16 23:05:31  5-MIN K0J4 210405Z AUTO 00000KT 10SM CLR 04/M04 A3024 20 57 -1200 000/00 RMK AO2 T00391039 $
63870K0J4 0J420161120231011111/20/16 23:10:31  5-MIN K0J4 210410Z AUTO 00000KT 10SM CLR 03/M03 A3024 20 64 -1400 000/00 RMK AO2 T00281033 $
63870K0J4 0J420161120231511111/20/16 23:15:31  5-MIN K0J4 210415Z AUTO 00000KT 10SM CLR 03/M03 A3024 20 64 -1400 000/00 RMK AO2 T00281033 $
63870K0J4 0J420161120232011111/20/16 23:20:31  5-MIN K0J4 210420Z AUTO 00000KT 10SM CLR 02/M03 A3024 20 67 -1400 000/00 RMK AO2 T00221033 $
63870K0J4 0J420161120232511111/20/16 23:25:31  5-MIN K0J4 210425Z AUTO 00000KT 10SM CLR 02/M04 A3024 20 64 -1400 000/00 RMK AO2 T00221039 $
63870K0J4 0J420161120233011111/20/16 23:30:31  5-MIN K0J4 210430Z AUTO 00000KT 10SM CLR 03/M04 A3024 20 61 -1400 000/00 RMK AO2 T00281039 $
63870K0J4 0J420161120233511111/20/16 23:35:31  5-MIN K0J4 210435Z AUTO 00000KT 10SM CLR 03/M04 A3024 30 61 -1400 000/00 RMK AO2 T00281039 $
63870K0J4 0J420161120234011111/20/16 23:40:31  5-MIN K0J4 210440Z AUTO 00000KT 10SM CLR 03/M04 A3023 30 61 -1400 000/00 RMK AO2 T00281039 $
63870K0J4 0J420161120234511111/20/16 23:45:31  5-MIN K0J4 210445Z AUTO 00000KT 10SM CLR 03/M04 A3023 30 57 -1300 000/00 RMK AO2 T00331044 $
63870K0J4 0J420161120235011111/20/16 23:50:31  5-MIN K0J4 210450Z AUTO VRB03KT 10SM CLR 03/M04 A3023 30 61 -1400 VRB/03 RMK AO2 T00281039 $
63870K0J4 0J420161120235512811/20/16 23:55:31  5-MIN K0J4 210455Z AUTO 00000KT 10SM CLR 04/M04 A3023 30 54 -1200 000/00 RMK AO2 SLP236 T00391044 401671022 $
63870K0J4 0J420161121000011111/21/16 00:00:31  5-MIN K0J4 210500Z AUTO 00000KT 10SM CLR 03/M04 A3023 30 59 -1300 000/00 RMK AO2 T00331039 $
63870K0J4 0J420161121000511111/21/16 00:05:31  5-MIN K0J4 210505Z AUTO 00000KT 10SM CLR 03/M04 A3023 30 59 -1300 000/00 RMK AO2 T00331039 $
63870K0J4 0J420161121001011111/21/16 00:10:31  5-MIN K0J4 210510Z AUTO 00000KT 10SM CLR 03/M04 A3023 30 57 -1300 000/00 RMK AO2 T00331044 $
63870K0J4 0J420161121001511111/21/16 00:15:31  5-MIN K0J4 210515Z AUTO 00000KT 10SM CLR 03/M04 A3023 30 59 -1400 000/00 RMK AO2 T00281044 $
63870K0J4 0J420161121002011111/21/16 00:20:31  5-MIN K0J4 210520Z AUTO 00000KT 10SM CLR 03/M04 A3023 40 61 -1400 000/00 RMK AO2 T00281039 $
63870K0J4 0J420161121002511111/21/16 00:25:31  5-MIN K0J4 210525Z AUTO 00000KT 10SM CLR 03/M04 A3022 40 59 -1400 000/00 RMK AO2 T00281044 $
63870K0J4 0J420161121003011111/21/16 00:30:31  5-MIN K0J4 210530Z AUTO 00000KT 10SM CLR 03/M04 A3022 40 59 -1400 000/00 RMK AO2 T00281044 $
63870K0J4 0J420161121003511111/21/16 00:35:31  5-MIN K0J4 210535Z AUTO 00000KT 10SM CLR 03/M04 A3022 40 59 -1300 000/00 RMK AO2 T00281044 $
63870K0J4 0J420161121004011111/21/16 00:40:31  5-MIN K0J4 210540Z AUTO 00000KT 10SM CLR 02/M04 A3022 40 61 -1400 000/00 RMK AO2 T00221044 $
63870K0J4 0J420161121004511111/21/16 00:45:31  5-MIN K0J4 210545Z AUTO 00000KT 10SM CLR 02/M04 A3022 40 61 -1400 000/00 RMK AO2 T00221044 $
63870K0J4 0J420161121005011111/21/16 00:50:31  5-MIN K0J4 210550Z AUTO 34003KT 10SM CLR 02/M04 A3022 40 61 -1400 340/03 RMK AO2 T00221044 $
63870K0J4 0J420161121005513611/21/16 00:55:31  5-MIN K0J4 210555Z AUTO VRB03KT 10SM CLR 02/M04 A3022 40 61 -1400 VRB/03 RMK AO2 SLP233 T00221044 10089 20022 58000 $
63870K0J4 0J420161121010011111/21/16 01:00:31  5-MIN K0J4 210600Z AUTO 33003KT 10SM CLR 02/M04 A3022 40 61 -1400 330/03 RMK AO2 T00221044 $
63870K0J4 0J420161121010511111/21/16 01:05:31  5-MIN K0J4 210605Z AUTO VRB03KT 10SM CLR 02/M04 A3022 40 64 -1500 VRB/03 RMK AO2 T00171044 $
63870K0J4 0J420161121011011111/21/16 01:10:31  5-MIN K0J4 210610Z AUTO 34003KT 10SM CLR 01/M04 A3021 40 66 -1500 340/03 RMK AO2 T00111044 $
63870K0J4 0J420161121011511111/21/16 01:15:31  5-MIN K0J4 210615Z AUTO 00000KT 10SM CLR 02/M04 A3021 50 64 -1500 000/00 RMK AO2 T00171044 $
63870K0J4 0J420161121012011111/21/16 01:20:31  5-MIN K0J4 210620Z AUTO 34003KT 10SM CLR 02/M04 A3021 50 64 -1500 340/03 RMK AO2 T00171044 $
63870K0J4 0J420161121012511111/21/16 01:25:31  5-MIN K0J4 210625Z AUTO 34003KT 10SM CLR 02/M05 A3021 50 61 -1500 340/03 RMK AO2 T00171050 $
63870K0J4 0J420161121013011111/21/16 01:30:31  5-MIN K0J4 210630Z AUTO 35003KT 10SM CLR 02/M05 A3021 50 61 -1500 350/03 RMK AO2 T00171050 $
63870K0J4 0J420161121013511111/21/16 01:35:31  5-MIN K0J4 210635Z AUTO 34003KT 10SM CLR 02/M05 A3021 50 61 -1500 340/03 RMK AO2 T00171050 $
63870K0J4 0J420161121014011111/21/16 01:40:31  5-MIN K0J4 210640Z AUTO 34003KT 10SM CLR 02/M05 A3021 50 61 -1500 340/03 RMK AO2 T00171050 $
63870K0J4 0J420161121014511111/21/16 01:45:31  5-MIN K0J4 210645Z AUTO 34004KT 10SM CLR 02/M05 A3021 50 61 -1500 340/04 RMK AO2 T00171050 $
63870K0J4 0J420161121015011111/21/16 01:50:31  5-MIN K0J4 210650Z AUTO 33003KT 10SM CLR 02/M05 A3021 50 59 -1400 330/03 RMK AO2 T00221050 $
63870K0J4 0J420161121015511811/21/16 01:55:31  5-MIN K0J4 210655Z AUTO 33003KT 10SM CLR 02/M05 A3021 50 59 -1400 330/03 RMK AO2 SLP230 T00221050 $
63870K0J4 0J420161121020011111/21/16 02:00:31  5-MIN K0J4 210700Z AUTO VRB03KT 10SM CLR 03/M05 A3021 50 56 -1300 VRB/03 RMK AO2 T00281050 $
63870K0J4 0J420161121020511111/21/16 02:05:31  5-MIN K0J4 210705Z AUTO 33003KT 10SM CLR 03/M06 A3021 50 52 -1300 330/03 RMK AO2 T00331056 $
63870K0J4 0J420161121021011111/21/16 02:10:31  5-MIN K0J4 210710Z AUTO 32003KT 10SM CLR 03/M05 A3021 50 56 -1300 320/03 RMK AO2 T00281050 $
63870K0J4 0J420161121021511111/21/16 02:15:31  5-MIN K0J4 210715Z AUTO 00000KT 10SM CLR 03/M06 A3021 50 54 -1300 000/00 RMK AO2 T00281056 $
63870K0J4 0J420161121022011111/21/16 02:20:31  5-MIN K0J4 210720Z AUTO 00000KT 10SM CLR 02/M05 A3021 50 59 -1400 000/00 RMK AO2 T00221050 $
63870K0J4 0J420161121022511111/21/16 02:25:31  5-MIN K0J4 210725Z AUTO 32003KT 10SM CLR 02/M05 A3021 50 59 -1400 320/03 RMK AO2 T00221050 $
63870K0J4 0J420161121023011111/21/16 02:30:31  5-MIN K0J4 210730Z AUTO 00000KT 10SM CLR 02/M04 A3021 50 61 -1400 000/00 RMK AO2 T00221044 $
63870K0J4 0J420161121023511111/21/16 02:35:31  5-MIN K0J4 210735Z AUTO 33003KT 10SM CLR 02/M04 A3021 50 64 -1500 330/03 RMK AO2 T00171044 $
63870K0J4 0J420161121024011111/21/16 02:40:31  5-MIN K0J4 210740Z AUTO 33003KT 10SM CLR 02/M04 A3021 50 64 -1500 330/03 RMK AO2 T00171044 $
63870K0J4 0J420161121024511111/21/16 02:45:31  5-MIN K0J4 210745Z AUTO 34003KT 10SM CLR 02/M05 A3021 50 59 -1400 340/03 RMK AO2 T00221050 $
63870K0J4 0J420161121025011111/21/16 02:50:31  5-MIN K0J4 210750Z AUTO 33004KT 10SM CLR 02/M05 A3021 50 59 -1400 330/04 RMK AO2 T00221050 $
63870K0J4 0J420161121025511811/21/16 02:55:31  5-MIN K0J4 210755Z AUTO 33003KT 10SM CLR 02/M05 A3021 50 59 -1400 330/03 RMK AO2 SLP230 T00221050 $
63870K0J4 0J420161121030011111/21/16 03:00:31  5-MIN K0J4 210800Z AUTO 33003KT 10SM CLR 02/M05 A3021 50 59 -1400 330/03 RMK AO2 T00221050 $
63870K0J4 0J420161121030511111/21/16 03:05:31  5-MIN K0J4 210805Z AUTO 33003KT 10SM CLR 02/M05 A3021 50 61 -1500 330/03 RMK AO2 T00171050 $
63870K0J4 0J420161121031011111/21/16 03:10:31  5-MIN K0J4 210810Z AUTO 33003KT 10SM CLR 02/M05 A3021 50 61 -1500 330/03 RMK AO2 T00171050 $
63870K0J4 0J420161121031511111/21/16 03:15:31  5-MIN K0J4 210815Z AUTO 33003KT 10SM CLR 01/M05 A3021 50 64 -1500 330/03 RMK AO2 T00111050 $
63870K0J4 0J420161121032011111/21/16 03:20:31  5-MIN K0J4 210820Z AUTO 33003KT 10SM CLR 01/M04 A3021 50 69 -1600 330/03 RMK AO2 T00061044 $
63870K0J4 0J420161121032511111/21/16 03:25:31  5-MIN K0J4 210825Z AUTO 32003KT 10SM CLR 01/M04 A3021 50 69 -1600 320/03 RMK AO2 T00061044 $
63870K0J4 0J420161121033011111/21/16 03:30:31  5-MIN K0J4 210830Z AUTO 32003KT 10SM CLR 00/M04 A3021 50 72 -1700 320/03 RMK AO2 T00001044 $
63870K0J4 0J420161121033511111/21/16 03:35:31  5-MIN K0J4 210835Z AUTO 33003KT 10SM CLR 01/M04 A3022 40 69 -1600 330/03 RMK AO2 T00061044 $
63870K0J4 0J420161121034011111/21/16 03:40:31  5-MIN K0J4 210840Z AUTO 33003KT 10SM CLR 02/M04 A3022 40 64 -1500 330/03 RMK AO2 T00171044 $
63870K0J4 0J420161121034511111/21/16 03:45:31  5-MIN K0J4 210845Z AUTO 33003KT 10SM CLR 03/M05 A3022 40 56 -1300 330/03 RMK AO2 T00281050 $
63870K0J4 0J420161121035011111/21/16 03:50:31  5-MIN K0J4 210850Z AUTO 33004KT 10SM CLR 03/M06 A3021 50 54 -1300 330/04 RMK AO2 T00281056 $
63870K0J4 0J420161121035512411/21/16 03:55:31  5-MIN K0J4 210855Z AUTO 33003KT 10SM CLR 03/M06 A3021 50 54 -1300 330/03 RMK AO2 SLP230 T00281056 58008 $
63870K0J4 0J420161121040011111/21/16 04:00:31  5-MIN K0J4 210900Z AUTO 34004KT 10SM CLR 03/M06 A3021 50 54 -1300 340/04 RMK AO2 T00281056 $
63870K0J4 0J420161121040511111/21/16 04:05:31  5-MIN K0J4 210905Z AUTO 34003KT 10SM CLR 03/M06 A3021 50 52 -1300 340/03 RMK AO2 T00331056 $
63870K0J4 0J420161121041011111/21/16 04:10:31  5-MIN K0J4 210910Z AUTO 34003KT 10SM CLR 03/M06 A3021 50 54 -1300 340/03 RMK AO2 T00281056 $
63870K0J4 0J420161121041511111/21/16 04:15:31  5-MIN K0J4 210915Z AUTO VRB04KT 10SM CLR 03/M06 A3021 50 54 -1300 VRB/04 RMK AO2 T00281056 $
63870K0J4 0J420161121042011111/21/16 04:20:31  5-MIN K0J4 210920Z AUTO 33003KT 10SM CLR 03/M06 A3021 50 52 -1300 330/03 RMK AO2 T00281061 $
63870K0J4 0J420161121042511111/21/16 04:25:31  5-MIN K0J4 210925Z AUTO 34003KT 10SM CLR 03/M06 A3021 50 52 -1300 340/03 RMK AO2 T00281061 $
63870K0J4 0J420161121043011111/21/16 04:30:31  5-MIN K0J4 210930Z AUTO 34003KT 10SM CLR 03/M06 A3021 50 54 -1300 340/03 RMK AO2 T00281056 $
63870K0J4 0J420161121043511111/21/16 04:35:31  5-MIN K0J4 210935Z AUTO VRB03KT 10SM CLR 02/M06 A3021 50 56 -1400 VRB/03 RMK AO2 T00221056 $
63870K0J4 0J420161121044011111/21/16 04:40:31  5-MIN K0J4 210940Z AUTO VRB03KT 10SM CLR 02/M06 A3021 50 56 -1400 VRB/03 RMK AO2 T00221056 $
63870K0J4 0J420161121044511111/21/16 04:45:31  5-MIN K0J4 210945Z AUTO 00000KT 10SM CLR 02/M05 A3021 50 61 -1500 000/00 RMK AO2 T00171050 $
63870K0J4 0J420161121045011211/21/16 04:50:31  5-MIN K0J4 210950Z AUTO 00000KT 10SM CLR M01/M04 A3021 50 75 -1800 000/00 RMK AO2 T10061044 $
63870K0J4 0J420161121045511911/21/16 04:55:31  5-MIN K0J4 210955Z AUTO 00000KT 10SM CLR M01/M05 A3021 50 75 -1800 000/00 RMK AO2 SLP231 T10111050 $
63870K0J4 0J420161121050011211/21/16 05:00:31  5-MIN K0J4 211000Z AUTO 00000KT 10SM CLR M01/M05 A3021 50 72 -1800 000/00 RMK AO2 T10061050 $
63870K0J4 0J420161121050511211/21/16 05:05:31  5-MIN K0J4 211005Z AUTO 00000KT 10SM CLR M01/M05 A3021 50 75 -1800 000/00 RMK AO2 T10111050 $
63870K0J4 0J420161121051011211/21/16 05:10:31  5-MIN K0J4 211010Z AUTO 00000KT 10SM CLR M01/M05 A3021 50 75 -1800 000/00 RMK AO2 T10111050 $
63870K0J4 0J420161121051511211/21/16 05:15:31  5-MIN K0J4 211015Z AUTO 00000KT 10SM CLR M01/M05 A3021 50 75 -1800 000/00 RMK AO2 T10111050 $
63870K0J4 0J420161121052011211/21/16 05:20:31  5-MIN K0J4 211020Z AUTO 33003KT 10SM CLR M02/M05 A3021 50 78 -1900 330/03 RMK AO2 T10171050 $
63870K0J4 0J420161121052511211/21/16 05:25:31  5-MIN K0J4 211025Z AUTO 33003KT 10SM CLR M01/M04 A3021 50 78 -1800 330/03 RMK AO2 T10111044 $
63870K0J4 0J420161121053011111/21/16 05:30:31  5-MIN K0J4 211030Z AUTO 34003KT 10SM CLR 01/M04 A3021 50 69 -1600 340/03 RMK AO2 T00061044 $
63870K0J4 0J420161121053511111/21/16 05:35:31  5-MIN K0J4 211035Z AUTO 34003KT 10SM CLR 01/M05 A3021 50 64 -1500 340/03 RMK AO2 T00111050 $
63870K0J4 0J420161121054011111/21/16 05:40:31  5-MIN K0J4 211040Z AUTO 34003KT 10SM CLR 02/M06 A3021 50 56 -1400 340/03 RMK AO2 T00221056 $
63870K0J4 0J420161121054511111/21/16 05:45:31  5-MIN K0J4 211045Z AUTO 35004KT 10SM CLR 02/M06 A3021 50 56 -1400 350/04 RMK AO2 T00221056 $
63870K0J4 0J420161121055011111/21/16 05:50:31  5-MIN K0J4 211050Z AUTO 34003KT 10SM CLR 03/M06 A3022 40 54 -1300 340/03 RMK AO2 T00281056 $
63870K0J4 0J420161121055511811/21/16 05:55:31  5-MIN K0J4 211055Z AUTO 34003KT 10SM CLR 02/M06 A3022 40 56 -1400 340/03 RMK AO2 SLP233 T00221056 $
63870K0J4 0J420161121060011111/21/16 06:00:31  5-MIN K0J4 211100Z AUTO 34004KT 10SM CLR 02/M06 A3022 40 56 -1400 340/04 RMK AO2 T00221056 $
63870K0J4 0J420161121060511111/21/16 06:05:31  5-MIN K0J4 211105Z AUTO VRB03KT 10SM CLR 02/M06 A3023 30 56 -1400 VRB/03 RMK AO2 T00221056 $
63870K0J4 0J420161121061011111/21/16 06:10:31  5-MIN K0J4 211110Z AUTO VRB03KT 10SM CLR 02/M06 A3023 30 59 -1500 VRB/03 RMK AO2 T00171056 $
63870K0J4 0J420161121061511111/21/16 06:15:31  5-MIN K0J4 211115Z AUTO 34004KT 10SM CLR 02/M06 A3023 30 59 -1500 340/04 RMK AO2 T00171056 $
63870K0J4 0J420161121062011111/21/16 06:20:31  5-MIN K0J4 211120Z AUTO 34004KT 10SM CLR 02/M06 A3024 30 59 -1500 340/04 RMK AO2 T00171056 $
63870K0J4 0J420161121062511111/21/16 06:25:31  5-MIN K0J4 211125Z AUTO 34004KT 10SM CLR 02/M06 A3024 20 59 -1500 340/04 RMK AO2 T00171056 $
63870K0J4 0J420161121063011111/21/16 06:30:31  5-MIN K0J4 211130Z AUTO 34004KT 10SM CLR 02/M06 A3024 20 59 -1500 340/04 RMK AO2 T00171056 $
63870K0J4 0J420161121063511111/21/16 06:35:31  5-MIN K0J4 211135Z AUTO 35004KT 10SM CLR 02/M06 A3024 20 59 -1500 350/04 RMK AO2 T00171056 $
63870K0J4 0J420161121064011111/21/16 06:40:31  5-MIN K0J4 211140Z AUTO 34005KT 10SM CLR 02/M06 A3024 20 59 -1500 340/05 RMK AO2 T00171056 $
63870K0J4 0J420161121064511111/21/16 06:45:31  5-MIN K0J4 211145Z AUTO 34005KT 10SM CLR 02/M06 A3024 20 54 -1400 340/05 RMK AO2 T00221061 $
63870K0J4 0J420161121065011111/21/16 06:50:31  5-MIN K0J4 211150Z AUTO 34005KT 10SM CLR 02/M06 A3025 20 54 -1400 340/05 RMK AO2 T00221061 $
63870K0J4 0J420161121065513611/21/16 06:55:31  5-MIN K0J4 211155Z AUTO 35005KT 10SM CLR 02/M06 A3025 20 54 -1400 350/05 RMK AO2 SLP243 T00221061 10033 21017 56003 $
63870K0J4 0J420161121070011111/21/16 07:00:31  5-MIN K0J4 211200Z AUTO 35004KT 10SM CLR 02/M06 A3025 10 54 -1400 350/04 RMK AO2 T00221061 $
63870K0J4 0J420161121070511111/21/16 07:05:31  5-MIN K0J4 211205Z AUTO 35004KT 10SM CLR 02/M06 A3025 10 56 -1500 350/04 RMK AO2 T00171061 $
63870K0J4 0J420161121071011111/21/16 07:10:31  5-MIN K0J4 211210Z AUTO 33003KT 10SM CLR 01/M06 A3025 10 61 -1600 330/03 RMK AO2 T00111056 $
63870K0J4 0J420161121071511111/21/16 07:15:31  5-MIN K0J4 211215Z AUTO 34003KT 10SM CLR 00/M06 A3025 10 66 -1700 340/03 RMK AO2 T00001056 $
63870K0J4 0J420161121072011211/21/16 07:20:31  5-MIN K0J4 211220Z AUTO 33003KT 10SM CLR M01/M05 A3025 10 72 -1800 330/03 RMK AO2 T10061050 $
63870K0J4 0J420161121072511011/21/16 07:25:31  5-MIN K0J4 211225Z AUTO 33004KT 10SM CLR M01/M05 A3025 10 72 -1800 330/04 RMK AO2 T10061050
63870K0J4 0J420161121073010911/21/16 07:30:31  5-MIN K0J4 211230Z AUTO VRB04KT 10SM CLR 01/M05 A3025 10 64 -1600 VRB/04 RMK AO2 T00111050
63870K0J4 0J420161121073510911/21/16 07:35:31  5-MIN K0J4 211235Z AUTO 34003KT 10SM CLR 02/M06 A3025 10 59 -1500 340/03 RMK AO2 T00171056
63870K0J4 0J420161121074010911/21/16 07:40:31  5-MIN K0J4 211240Z AUTO 34003KT 10SM CLR 02/M06 A3025 10 56 -1500 340/03 RMK AO2 T00221056
63870K0J4 0J420161121074510911/21/16 07:45:31  5-MIN K0J4 211245Z AUTO 34004KT 10SM CLR 03/M06 A3025 10 52 -1400 340/04 RMK AO2 T00281061
63870K0J4 0J420161121075010911/21/16 07:50:31  5-MIN K0J4 211250Z AUTO 34005KT 10SM CLR 03/M06 A3026 10 50 -1300 340/05 RMK AO2 T00331061
63870K0J4 0J420161121075511511/21/16 07:55:31  5-MIN K0J4 211255Z AUTO 34004KT 10SM CLR 03/M06 A3026 0 50 -1300 340/04 RMK AO2 SLP248 T00331061
63870K0J4 0J420161121080010811/21/16 08:00:31  5-MIN K0J4 211300Z AUTO VRB04KT 10SM CLR 04/M06 A3026 0 48 -1300 VRB/04 RMK AO2 T00391061
63870K0J4 0J420161121080510811/21/16 08:05:31  5-MIN K0J4 211305Z AUTO VRB04KT 10SM CLR 04/M06 A3027 0 48 -1300 VRB/04 RMK AO2 T00391061
63870K0J4 0J420161121081010811/21/16 08:10:31  5-MIN K0J4 211310Z AUTO 33004KT 10SM CLR 04/M06 A3027 0 48 -1300 330/04 RMK AO2 T00391061
63870K0J4 0J420161121081509811/21/16 08:15:31  5-MIN K0J4 211315Z AUTO 10SM CLR 04/M06 A3027 0 48 -1300 M /M RMK AO2 T00391061
63870K0J4 0J420161121082010811/21/16 08:20:31  5-MIN K0J4 211320Z AUTO 33004KT 10SM CLR 04/M06 A3027 0 46 -1200 330/04 RMK AO2 T00441061
63870K0J4 0J420161121082510811/21/16 08:25:31  5-MIN K0J4 211325Z AUTO VRB03KT 10SM CLR 04/M06 A3027 0 46 -1200 VRB/03 RMK AO2 T00441061
63870K0J4 0J420161121083011011/21/16 08:30:31  5-MIN K0J4 211330Z AUTO 34003KT 10SM CLR 05/M06 A3028 -10 46 -1100 340/03 RMK AO2 T00501056
63870K0J4 0J420161121083511011/21/16 08:35:31  5-MIN K0J4 211335Z AUTO 33004KT 10SM CLR 05/M06 A3028 -10 44 -1100 330/04 RMK AO2 T00501061
63870K0J4 0J420161121084010811/21/16 08:40:31  5-MIN K0J4 211340Z AUTO 33004KT 10SM CLR 06/M06 A3027 0 43 -1100 330/04 RMK AO2 T00561061
63870K0J4 0J420161121084511011/21/16 08:45:31  5-MIN K0J4 211345Z AUTO 33004KT 10SM CLR 06/M06 A3028 -10 43 -1100 330/04 RMK AO2 T00561061
63870K0J4 0J420161121085011011/21/16 08:50:31  5-MIN K0J4 211350Z AUTO 34004KT 10SM CLR 06/M06 A3028 -10 41 -1000 340/04 RMK AO2 T00611061
63870K0J4 0J420161121085511711/21/16 08:55:31  5-MIN K0J4 211355Z AUTO VRB05KT 10SM CLR 06/M06 A3028 -10 41 -1000 VRB/05 RMK AO2 SLP254 T00611061
63870K0J4 0J420161121090010911/21/16 09:00:31  5-MIN K0J4 211400Z AUTO 35004KT 10SM CLR 07/M06 A3028 -10 39 -900 350/04 RMK AO2 T00671061
63870K0J4 0J420161121090510911/21/16 09:05:31  5-MIN K0J4 211405Z AUTO 35004KT 10SM CLR 07/M06 A3028 -10 39 -900 350/04 RMK AO2 T00671061
63870K0J4 0J420161121091010911/21/16 09:10:31  5-MIN K0J4 211410Z AUTO 35005KT 10SM CLR 07/M06 A3029 -10 39 -900 350/05 RMK AO2 T00671061
63870K0J4 0J420161121091510911/21/16 09:15:31  5-MIN K0J4 211415Z AUTO 35005KT 10SM CLR 07/M06 A3029 -10 38 -900 350/05 RMK AO2 T00721061
63870K0J4 0J420161121092010911/21/16 09:20:31  5-MIN K0J4 211420Z AUTO 35005KT 10SM CLR 07/M07 A3029 -10 36 -900 350/05 RMK AO2 T00721067
63870K0J4 0J420161121092510911/21/16 09:25:31  5-MIN K0J4 211425Z AUTO 35006KT 10SM CLR 07/M07 A3028 -10 36 -900 350/06 RMK AO2 T00721067
63870K0J4 0J420161121093010911/21/16 09:30:31  5-MIN K0J4 211430Z AUTO 36006KT 10SM CLR 08/M07 A3028 -10 35 -800 360/06 RMK AO2 T00781067
63870K0J4 0J420161121093510911/21/16 09:35:31  5-MIN K0J4 211435Z AUTO VRB06KT 10SM CLR 08/M06 A3029 -10 36 -800 VRB/06 RMK AO2 T00781061
63870K0J4 0J420161121094010911/21/16 09:40:31  5-MIN K0J4 211440Z AUTO 36005KT 10SM CLR 08/M06 A3029 -20 35 -700 360/05 RMK AO2 T00831061
63870K0J4 0J420161121094510911/21/16 09:45:31  5-MIN K0J4 211445Z AUTO 02008KT 10SM CLR 08/M06 A3029 -20 35 -700 020/08 RMK AO2 T00831061
63870K0J4 0J420161121095010911/21/16 09:50:31  5-MIN K0J4 211450Z AUTO VRB04KT 10SM CLR 09/M06 A3029 -20 34 -700 VRB/04 RMK AO2 T00891061
63870K0J4 0J420161121095512211/21/16 09:55:31  5-MIN K0J4 211455Z AUTO VRB05KT 10SM CLR 09/M06 A3029 -20 33 -600 VRB/05 RMK AO2 SLP255 T00941061 53013
63870K0J4 0J420161121100010911/21/16 10:00:31  5-MIN K0J4 211500Z AUTO 36007KT 10SM CLR 10/M06 A3029 -20 31 -500 360/07 RMK AO2 T01001061
63870K0J4 0J420161121100510911/21/16 10:05:31  5-MIN K0J4 211505Z AUTO 36006KT 10SM CLR 10/M06 A3029 -20 33 -500 360/06 RMK AO2 T01001056
63870K0J4 0J420161121101010911/21/16 10:10:31  5-MIN K0J4 211510Z AUTO 36007KT 10SM CLR 10/M06 A3029 -20 31 -500 360/07 RMK AO2 T01001061
63870K0J4 0J420161121101512511/21/16 10:15:31  5-MIN K0J4 211515Z AUTO 01007KT 340V040 10SM CLR 11/M06 A3029 -20 30 -500 010/07 340V040 RMK AO2 T01061061
63870K0J4 0J420161121102010911/21/16 10:20:31  5-MIN K0J4 211520Z AUTO 01006KT 10SM CLR 11/M06 A3029 -20 30 -500 010/06 RMK AO2 T01061061
63870K0J4 0J420161121102510911/21/16 10:25:31  5-MIN K0J4 211525Z AUTO 02006KT 10SM CLR 12/M06 A3028 -10 28 -300 020/06 RMK AO2 T01171061
63870K0J4 0J420161121103010911/21/16 10:30:31  5-MIN K0J4 211530Z AUTO 02007KT 10SM CLR 12/M07 A3029 -20 26 -300 020/07 RMK AO2 T01221067
63870K0J4 0J420161121103510911/21/16 10:35:31  5-MIN K0J4 211535Z AUTO VRB05KT 10SM CLR 12/M06 A3029 -20 27 -300 VRB/05 RMK AO2 T01221061
63870K0J4 0J420161121104010911/21/16 10:40:31  5-MIN K0J4 211540Z AUTO 33004KT 10SM CLR 12/M06 A3029 -20 27 -300 330/04 RMK AO2 T01221061
63870K0J4 0J420161121104510911/21/16 10:45:31  5-MIN K0J4 211545Z AUTO 36005KT 10SM CLR 13/M07 A3029 -20 24 -200 360/05 RMK AO2 T01281072
63870K0J4 0J420161121105010911/21/16 10:50:31  5-MIN K0J4 211550Z AUTO 35005KT 10SM CLR 13/M07 A3028 -10 23 -100 350/05 RMK AO2 T01331072
63870K0J4 0J420161121105511611/21/16 10:55:31  5-MIN K0J4 211555Z AUTO 35006KT 10SM CLR 13/M08 A3028 -10 23 -200 350/06 RMK AO2 SLP254 T01281078
63870K0J4 0J420161121110012511/21/16 11:00:31  5-MIN K0J4 211600Z AUTO 36007KT 310V030 10SM CLR 14/M08 A3028 -10 21 -100 360/07 310V030 RMK AO2 T01391078
63870K0J4 0J420161121110510911/21/16 11:05:31  5-MIN K0J4 211605Z AUTO 02005KT 10SM CLR 14/M08 A3028 -10 21 -100 020/05 RMK AO2 T01391078
63870K0J4 0J420161121111010611/21/16 11:10:31  5-MIN K0J4 211610Z AUTO 36005KT 10SM CLR 14/M07 A3028 -10 21 0 360/05 RMK AO2 T01441072
63870K0J4 0J420161121111510611/21/16 11:15:31  5-MIN K0J4 211615Z AUTO VRB06KT 10SM CLR 14/M08 A3028 -10 20 0 VRB/06 RMK AO2 T01441083
63870K0J4 0J420161121112012211/21/16 11:20:31  5-MIN K0J4 211620Z AUTO 35007KT 310V020 10SM CLR 14/M09 A3028 -10 19 0 350/07 310V020 RMK AO2 T01441089
63870K0J4 0J420161121112510411/21/16 11:25:31  5-MIN K0J4 211625Z AUTO 02008KT 10SM CLR 15/M10 A3027 0 17 0 020/08 RMK AO2 T01501100
63870K0J4 0J420161121113010411/21/16 11:30:31  5-MIN K0J4 211630Z AUTO VRB06KT 10SM CLR 15/M09 A3027 0 17 0 VRB/06 RMK AO2 T01501094
63870K0J4 0J420161121113510411/21/16 11:35:31  5-MIN K0J4 211635Z AUTO 35006KT 10SM CLR 15/M10 A3027 0 17 0 350/06 RMK AO2 T01501100
63870K0J4 0J420161121114010611/21/16 11:40:31  5-MIN K0J4 211640Z AUTO 35005KT 10SM CLR 16/M11 A3026 0 15 100 350/05 RMK AO2 T01561106
63870K0J4 0J420161121114510611/21/16 11:45:31  5-MIN K0J4 211645Z AUTO VRB06KT 10SM CLR 16/M11 A3026 0 15 200 VRB/06 RMK AO2 T01611106
63870K0J4 0J420161121115010711/21/16 11:50:31  5-MIN K0J4 211650Z AUTO VRB06KT 10SM CLR 16/M12 A3026 10 13 100 VRB/06 RMK AO2 T01561122
63870K0J4 0J420161121115511411/21/16 11:55:31  5-MIN K0J4 211655Z AUTO 35007KT 10SM CLR 16/M12 A3025 10 13 100 350/07 RMK AO2 SLP244 T01561122
63870K0J4 0J420161121120010711/21/16 12:00:31  5-MIN K0J4 211700Z AUTO VRB06KT 10SM CLR 16/M12 A3025 10 14 200 VRB/06 RMK AO2 T01611117
63870K0J4 0J420161121120510711/21/16 12:05:31  5-MIN K0J4 211705Z AUTO 02006KT 10SM CLR 17/M11 A3025 10 14 300 020/06 RMK AO2 T01671111
63870K0J4 0J420161121121010711/21/16 12:10:31  5-MIN K0J4 211710Z AUTO VRB06KT 10SM CLR 17/M11 A3025 20 13 300 VRB/06 RMK AO2 T01721111
63870K0J4 0J420161121121510711/21/16 12:15:31  5-MIN K0J4 211715Z AUTO VRB04KT 10SM CLR 17/M11 A3024 20 14 300 VRB/04 RMK AO2 T01671111
63870K0J4 0J420161121122010711/21/16 12:20:31  5-MIN K0J4 211720Z AUTO 01006KT 10SM CLR 17/M11 A3024 20 13 300 010/06 RMK AO2 T01721111
63870K0J4 0J420161121122510711/21/16 12:25:31  5-MIN K0J4 211725Z AUTO 35006KT 10SM CLR 17/M12 A3024 30 12 300 350/06 RMK AO2 T01721122
63870K0J4 0J420161121123010711/21/16 12:30:31  5-MIN K0J4 211730Z AUTO 34007KT 10SM CLR 17/M13 A3023 30 12 300 340/07 RMK AO2 T01721128
63870K0J4 0J420161121123510711/21/16 12:35:31  5-MIN K0J4 211735Z AUTO 35004KT 10SM CLR 17/M13 A3023 30 12 300 350/04 RMK AO2 T01721128
63870K0J4 0J420161121124010711/21/16 12:40:31  5-MIN K0J4 211740Z AUTO VRB05KT 10SM CLR 17/M13 A3023 30 12 300 VRB/05 RMK AO2 T01721128
63870K0J4 0J420161121124510711/21/16 12:45:31  5-MIN K0J4 211745Z AUTO VRB05KT 10SM CLR 18/M12 A3022 40 12 400 VRB/05 RMK AO2 T01781122
63870K0J4 0J420161121125010711/21/16 12:50:31  5-MIN K0J4 211750Z AUTO VRB06KT 10SM CLR 18/M12 A3022 40 12 400 VRB/06 RMK AO2 T01781122
63870K0J4 0J420161121125513211/21/16 12:55:31  5-MIN K0J4 211755Z AUTO 35007KT 10SM CLR 18/M12 A3022 40 12 400 350/07 RMK AO2 SLP232 T01781122 10178 21006 51013
63870K0J4 0J420161121130010711/21/16 13:00:31  5-MIN K0J4 211800Z AUTO VRB06KT 10SM CLR 18/M13 A3021 50 11 400 VRB/06 RMK AO2 T01781128
63870K0J4 0J420161121130510711/21/16 13:05:31  5-MIN K0J4 211805Z AUTO 03008KT 10SM CLR 18/M12 A3021 50 11 500 030/08 RMK AO2 T01831122
63870K0J4 0J420161121131010711/21/16 13:10:31  5-MIN K0J4 211810Z AUTO VRB05KT 10SM CLR 18/M12 A3020 60 12 500 VRB/05 RMK AO2 T01831117
63870K0J4 0J420161121131510711/21/16 13:15:31  5-MIN K0J4 211815Z AUTO VRB06KT 10SM CLR 18/M12 A3020 60 12 500 VRB/06 RMK AO2 T01831117
63870K0J4 0J420161121132012311/21/16 13:20:31  5-MIN K0J4 211820Z AUTO 33007KT 290V020 10SM CLR 18/M12 A3020 60 11 500 330/07 290V020 RMK AO2 T01831122
63870K0J4 0J420161121132512311/21/16 13:25:31  5-MIN K0J4 211825Z AUTO 01008KT 330V040 10SM CLR 18/M12 A3020 60 12 500 010/08 330V040 RMK AO2 T01831117
63870K0J4 0J420161121133010711/21/16 13:30:31  5-MIN K0J4 211830Z AUTO VRB06KT 10SM CLR 18/M13 A3020 60 11 500 VRB/06 RMK AO2 T01831128
63870K0J4 0J420161121133510711/21/16 13:35:31  5-MIN K0J4 211835Z AUTO VRB06KT 10SM CLR 19/M12 A3019 60 11 600 VRB/06 RMK AO2 T01891122
63870K0J4 0J420161121134010711/21/16 13:40:31  5-MIN K0J4 211840Z AUTO 03009KT 10SM CLR 18/M13 A3019 70 11 500 030/09 RMK AO2 T01831128
63870K0J4 0J420161121134510711/21/16 13:45:31  5-MIN K0J4 211845Z AUTO 36006KT 10SM CLR 18/M12 A3019 70 11 500 360/06 RMK AO2 T01831122
63870K0J4 0J420161121135010711/21/16 13:50:31  5-MIN K0J4 211850Z AUTO 33005KT 10SM CLR 19/M12 A3019 70 11 600 330/05 RMK AO2 T01891122
63870K0J4 0J420161121135513011/21/16 13:55:31  5-MIN K0J4 211855Z AUTO 02007KT 330V050 10SM CLR 19/M12 A3018 70 11 600 020/07 330V050 RMK AO2 SLP220 T01891122
63870K0J4 0J420161121140012311/21/16 14:00:31  5-MIN K0J4 211900Z AUTO 34007KT 300V010 10SM CLR 19/M12 A3018 70 11 600 340/07 300V010 RMK AO2 T01891117
63870K0J4 0J420161121140510711/21/16 14:05:31  5-MIN K0J4 211905Z AUTO VRB05KT 10SM CLR 19/M12 A3018 70 11 600 VRB/05 RMK AO2 T01891122
63870K0J4 0J420161121141010711/21/16 14:10:31  5-MIN K0J4 211910Z AUTO 36007KT 10SM CLR 19/M12 A3018 80 11 600 360/07 RMK AO2 T01891117
63870K0J4 0J420161121141510711/21/16 14:15:31  5-MIN K0J4 211915Z AUTO VRB04KT 10SM CLR 19/M11 A3018 80 12 600 VRB/04 RMK AO2 T01891111
63870K0J4 0J420161121142012311/21/16 14:20:31  5-MIN K0J4 211920Z AUTO 36006KT 10SM -RA CLR 19/M12 A3018 80 10 700 360/06 RMK AO2 RAB19 P0000 T01941122
63870K0J4 0J420161121142512211/21/16 14:25:31  5-MIN K0J4 211925Z AUTO VRB05KT 10SM CLR 19/M12 A3018 80 11 700 VRB/05 RMK AO2 RAB19E23 P0000 T01941117
63870K0J4 0J420161121143012211/21/16 14:30:31  5-MIN K0J4 211930Z AUTO 01006KT 10SM CLR 19/M12 A3017 80 11 700 010/06 RMK AO2 RAB19E23 P0000 T01941117
63870K0J4 0J420161121143512811/21/16 14:35:31  5-MIN K0J4 211935Z AUTO 01009G14KT 10SM CLR 19/M12 A3017 80 11 700 010/09G14 RMK AO2 RAB19E23 P0000 T01941117
63870K0J4 0J420161121144012811/21/16 14:40:31  5-MIN K0J4 211940Z AUTO VRB05G14KT 10SM CLR 19/M12 A3017 80 11 700 VRB/05G14 RMK AO2 RAB19E23 P0000 T01941117
63870K0J4 0J420161121144512211/21/16 14:45:31  5-MIN K0J4 211945Z AUTO VRB04KT 10SM CLR 20/M11 A3017 80 11 700 VRB/04 RMK AO2 RAB19E23 P0000 T02001111
63870K0J4 0J420161121145012211/21/16 14:50:31  5-MIN K0J4 211950Z AUTO 34006KT 10SM CLR 20/M12 A3017 80 11 700 340/06 RMK AO2 RAB19E23 P0000 T02001117
63870K0J4 0J420161121145512911/21/16 14:55:31  5-MIN K0J4 211955Z AUTO 02006KT 10SM CLR 19/M12 A3017 90 11 700 020/06 RMK AO2 RAB19E23 SLP215 P0000 T01941117
63870K0J4 0J420161121150010711/21/16 15:00:31  5-MIN K0J4 212000Z AUTO VRB05KT 10SM CLR 19/M11 A3017 90 11 700 VRB/05 RMK AO2 T01941111
63870K0J4 0J420161121150510711/21/16 15:05:31  5-MIN K0J4 212005Z AUTO VRB04KT 10SM CLR 19/M12 A3017 90 11 700 VRB/04 RMK AO2 T01941117
63870K0J4 0J420161121151010711/21/16 15:10:31  5-MIN K0J4 212010Z AUTO 02006KT 10SM CLR 20/M11 A3017 90 11 700 020/06 RMK AO2 T02001111
63870K0J4 0J420161121151510711/21/16 15:15:31  5-MIN K0J4 212015Z AUTO VRB05KT 10SM CLR 20/M11 A3016 90 12 700 VRB/05 RMK AO2 T02001106
63870K0J4 0J420161121152010711/21/16 15:20:31  5-MIN K0J4 212020Z AUTO VRB06KT 10SM CLR 20/M12 A3017 90 11 700 VRB/06 RMK AO2 T02001117
63870K0J4 0J420161121152510711/21/16 15:25:31  5-MIN K0J4 212025Z AUTO VRB05KT 10SM CLR 19/M11 A3017 90 12 700 VRB/05 RMK AO2 T01941106
63870K0J4 0J420161121153010711/21/16 15:30:31  5-MIN K0J4 212030Z AUTO 36005KT 10SM CLR 20/M11 A3016 90 11 700 360/05 RMK AO2 T02001111
63870K0J4 0J420161121153510711/21/16 15:35:31  5-MIN K0J4 212035Z AUTO 01008KT 10SM CLR 19/M12 A3016 90 11 700 010/08 RMK AO2 T01941117
63870K0J4 0J420161121154010711/21/16 15:40:31  5-MIN K0J4 212040Z AUTO 01008KT 10SM CLR 19/M12 A3016 90 11 700 010/08 RMK AO2 T01941117
63870K0J4 0J420161121154510711/21/16 15:45:31  5-MIN K0J4 212045Z AUTO VRB04KT 10SM CLR 19/M12 A3016 90 11 700 VRB/04 RMK AO2 T01941117
63870K0J4 0J420161121155010711/21/16 15:50:31  5-MIN K0J4 212050Z AUTO VRB03KT 10SM CLR 19/M12 A3016 90 11 700 VRB/03 RMK AO2 T01941117
63870K0J4 0J420161121155512611/21/16 15:55:31  5-MIN K0J4 212055Z AUTO VRB03KT 10SM CLR 19/M12 A3016 90 11 700 VRB/03 RMK AO2 SLP212 60000 T01941117 58024
63870K0J4 0J420161121160010711/21/16 16:00:31  5-MIN K0J4 212100Z AUTO 01004KT 10SM CLR 20/M12 A3016 90 11 700 010/04 RMK AO2 T02001117
63870K0J4 0J420161121160510711/21/16 16:05:31  5-MIN K0J4 212105Z AUTO VRB05KT 10SM CLR 20/M12 A3016 90 11 700 VRB/05 RMK AO2 T02001117
63870K0J4 0J420161121161010711/21/16 16:10:31  5-MIN K0J4 212110Z AUTO VRB03KT 10SM CLR 19/M12 A3016 90 10 700 VRB/03 RMK AO2 T01941122
63870K0J4 0J420161121161510711/21/16 16:15:31  5-MIN K0J4 212115Z AUTO VRB03KT 10SM CLR 19/M12 A3016 90 10 700 VRB/03 RMK AO2 T01941122
63870K0J4 0J420161121162010711/21/16 16:20:31  5-MIN K0J4 212120Z AUTO VRB04KT 10SM CLR 19/M12 A3016 90 10 700 VRB/04 RMK AO2 T01941122
63870K0J4 0J420161121162510711/21/16 16:25:31  5-MIN K0J4 212125Z AUTO 36004KT 10SM CLR 19/M12 A3016 90 10 700 360/04 RMK AO2 T01941122
63870K0J4 0J420161121163010711/21/16 16:30:31  5-MIN K0J4 212130Z AUTO 35005KT 10SM CLR 19/M12 A3016 90 10 700 350/05 RMK AO2 T01941122
63870K0J4 0J420161121163510711/21/16 16:35:31  5-MIN K0J4 212135Z AUTO 02004KT 10SM CLR 19/M12 A3016 90 10 700 020/04 RMK AO2 T01941122
63870K0J4 0J420161121164010711/21/16 16:40:31  5-MIN K0J4 212140Z AUTO 36004KT 10SM CLR 19/M12 A3016 90 11 600 360/04 RMK AO2 T01891122
63870K0J4 0J420161121164510711/21/16 16:45:31  5-MIN K0J4 212145Z AUTO 35004KT 10SM CLR 19/M12 A3016 90 11 600 350/04 RMK AO2 T01891122
63870K0J4 0J420161121165010711/21/16 16:50:31  5-MIN K0J4 212150Z AUTO 36003KT 10SM CLR 19/M12 A3016 90 11 600 360/03 RMK AO2 T01891122
63870K0J4 0J420161121165511411/21/16 16:55:31  5-MIN K0J4 212155Z AUTO 34003KT 10SM CLR 18/M12 A3016 90 11 500 340/03 RMK AO2 SLP214 T01831122
63870K0J4 0J420161121170010711/21/16 17:00:31  5-MIN K0J4 212200Z AUTO 33005KT 10SM CLR 18/M12 A3016 90 12 500 330/05 RMK AO2 T01781122
63870K0J4 0J420161121170510711/21/16 17:05:31  5-MIN K0J4 212205Z AUTO 36004KT 10SM CLR 18/M12 A3016 90 12 500 360/04 RMK AO2 T01781122
63870K0J4 0J420161121171010711/21/16 17:10:31  5-MIN K0J4 212210Z AUTO 00000KT 10SM CLR 18/M12 A3016 90 12 500 000/00 RMK AO2 T01781117
63870K0J4 0J420161121171510711/21/16 17:15:31  5-MIN K0J4 212215Z AUTO 00000KT 10SM CLR 17/M12 A3017 90 13 400 000/00 RMK AO2 T01721117
63870K0J4 0J420161121172010711/21/16 17:20:31  5-MIN K0J4 212220Z AUTO 36003KT 10SM CLR 17/M11 A3017 90 14 300 360/03 RMK AO2 T01671111
63870K0J4 0J420161121172510711/21/16 17:25:31  5-MIN K0J4 212225Z AUTO 35003KT 10SM CLR 17/M11 A3017 90 14 300 350/03 RMK AO2 T01671106
63870K0J4 0J420161121173010711/21/16 17:30:31  5-MIN K0J4 212230Z AUTO 00000KT 10SM CLR 16/M11 A3017 90 15 300 000/00 RMK AO2 T01611106
63870K0J4 0J420161121173510711/21/16 17:35:31  5-MIN K0J4 212235Z AUTO 00000KT 10SM CLR 16/M09 A3017 90 17 200 000/00 RMK AO2 T01561094
63870K0J4 0J420161121174010511/21/16 17:40:31  5-MIN K0J4 212240Z AUTO 00000KT 10SM CLR 14/M08 A3017 90 20 0 000/00 RMK AO2 T01391083
63870K0J4 0J420161121174510511/21/16 17:45:31  5-MIN K0J4 212245Z AUTO 00000KT 10SM CLR 13/M08 A3017 90 22 0 000/00 RMK AO2 T01331078
63870K0J4 0J420161121175010511/21/16 17:50:31  5-MIN K0J4 212250Z AUTO 00000KT 10SM CLR 13/M07 A3017 90 23 0 000/00 RMK AO2 T01331072
63870K0J4 0J420161121175511511/21/16 17:55:31  5-MIN K0J4 212255Z AUTO 00000KT 10SM CLR 13/M07 A3017 80 25 -100 000/00 RMK AO2 SLP216 T01281067
63870K0J4 0J420161121180010811/21/16 18:00:31  5-MIN K0J4 212300Z AUTO 00000KT 10SM CLR 11/M06 A3017 90 29 -300 000/00 RMK AO2 T01111061
63870K0J4 0J420161121180510811/21/16 18:05:31  5-MIN K0J4 212305Z AUTO 00000KT 10SM CLR 11/M04 A3017 90 34 -300 000/00 RMK AO2 T01061044
63870K0J4 0J420161121181010811/21/16 18:10:31  5-MIN K0J4 212310Z AUTO 00000KT 10SM CLR 11/M05 A3017 80 32 -300 000/00 RMK AO2 T01111050
63870K0J4 0J420161121181510811/21/16 18:15:31  5-MIN K0J4 212315Z AUTO 00000KT 10SM CLR 11/M05 A3017 80 33 -300 000/00 RMK AO2 T01061050
63870K0J4 0J420161121182010811/21/16 18:20:31  5-MIN K0J4 212320Z AUTO VRB03KT 10SM CLR 11/M05 A3017 80 33 -300 VRB/03 RMK AO2 T01061050
63870K0J4 0J420161121182510811/21/16 18:25:31  5-MIN K0J4 212325Z AUTO 00000KT 10SM CLR 10/M04 A3018 80 36 -400 000/00 RMK AO2 T01001044
63870K0J4 0J420161121183010811/21/16 18:30:31  5-MIN K0J4 212330Z AUTO 00000KT 10SM CLR 10/M04 A3018 80 36 -400 000/00 RMK AO2 T01001044
63870K0J4 0J420161121183510811/21/16 18:35:31  5-MIN K0J4 212335Z AUTO 00000KT 10SM CLR 09/M04 A3018 80 37 -500 000/00 RMK AO2 T00941044
63870K0J4 0J420161121184010811/21/16 18:40:31  5-MIN K0J4 212340Z AUTO 00000KT 10SM CLR 09/M04 A3018 80 38 -500 000/00 RMK AO2 T00891044
63870K0J4 0J420161121184510811/21/16 18:45:31  5-MIN K0J4 212345Z AUTO 34003KT 10SM CLR 09/M04 A3018 80 38 -500 340/03 RMK AO2 T00891044
63870K0J4 0J420161121185010811/21/16 18:50:31  5-MIN K0J4 212350Z AUTO 00000KT 10SM CLR 09/M04 A3018 80 38 -500 000/00 RMK AO2 T00891044
63870K0J4 0J420161121185513911/21/16 18:55:31  5-MIN K0J4 212355Z AUTO 00000KT 10SM CLR 08/M04 A3018 80 40 -600 000/00 RMK AO2 SLP220 60000 T00831044 10200 20083 56018
63870K0J4 0J420161121190010811/21/16 19:00:31  5-MIN K0J4 220000Z AUTO 00000KT 10SM CLR 08/M04 A3018 80 40 -600 000/00 RMK AO2 T00831044
63870K0J4 0J420161121190510811/21/16 19:05:31  5-MIN K0J4 220005Z AUTO 00000KT 10SM CLR 08/M04 A3018 70 43 -700 000/00 RMK AO2 T00781039
63870K0J4 0J420161121191010811/21/16 19:10:31  5-MIN K0J4 220010Z AUTO 00000KT 10SM CLR 08/M04 A3018 70 43 -700 000/00 RMK AO2 T00781039
63870K0J4 0J420161121191510811/21/16 19:15:31  5-MIN K0J4 220015Z AUTO 00000KT 10SM CLR 08/M04 A3019 70 40 -600 000/00 RMK AO2 T00831044
63870K0J4 0J420161121192010811/21/16 19:20:31  5-MIN K0J4 220020Z AUTO 00000KT 10SM CLR 07/M03 A3019 70 49 -800 000/00 RMK AO2 T00671033
63870K0J4 0J420161121192510811/21/16 19:25:31  5-MIN K0J4 220025Z AUTO 00000KT 10SM CLR 07/M03 A3019 70 49 -800 000/00 RMK AO2 T00671033
63870K0J4 0J420161121193010811/21/16 19:30:31  5-MIN K0J4 220030Z AUTO 00000KT 10SM CLR 07/M03 A3018 70 47 -800 000/00 RMK AO2 T00721033
63870K0J4 0J420161121193510811/21/16 19:35:31  5-MIN K0J4 220035Z AUTO 00000KT 10SM CLR 07/M04 A3018 70 43 -800 000/00 RMK AO2 T00721044
63870K0J4 0J420161121194010811/21/16 19:40:31  5-MIN K0J4 220040Z AUTO 00000KT 10SM CLR 08/M04 A3019 70 41 -700 000/00 RMK AO2 T00781044
63870K0J4 0J420161121194510811/21/16 19:45:31  5-MIN K0J4 220045Z AUTO 00000KT 10SM CLR 08/M04 A3019 70 41 -700 000/00 RMK AO2 T00781044
63870K0J4 0J420161121195010811/21/16 19:50:31  5-MIN K0J4 220050Z AUTO 00000KT 10SM CLR 07/M03 A3019 70 49 -800 000/00 RMK AO2 T00671033
63870K0J4 0J420161121195511511/21/16 19:55:31  5-MIN K0J4 220055Z AUTO 00000KT 10SM CLR 07/M03 A3019 70 51 -800 000/00 RMK AO2 SLP224 T00671028
63870K0J4 0J420161121200010811/21/16 20:00:31  5-MIN K0J4 220100Z AUTO 00000KT 10SM CLR 07/M03 A3019 60 51 -800 000/00 RMK AO2 T00671028
63870K0J4 0J420161121200510811/21/16 20:05:31  5-MIN K0J4 220105Z AUTO 00000KT 10SM CLR 06/M03 A3019 70 53 -900 000/00 RMK AO2 T00611028
63870K0J4 0J420161121201010811/21/16 20:10:31  5-MIN K0J4 220110Z AUTO 00000KT 10SM CLR 06/M03 A3019 70 51 -900 000/00 RMK AO2 T00611033
63870K0J4 0J420161121201510811/21/16 20:15:31  5-MIN K0J4 220115Z AUTO 00000KT 10SM CLR 06/M03 A3019 60 51 -900 000/00 RMK AO2 T00611033
63870K0J4 0J420161121202010811/21/16 20:20:31  5-MIN K0J4 220120Z AUTO 00000KT 10SM CLR 07/M03 A3020 60 49 -800 000/00 RMK AO2 T00671033
63870K0J4 0J420161121202510811/21/16 20:25:31  5-MIN K0J4 220125Z AUTO 00000KT 10SM CLR 07/M03 A3020 60 49 -800 000/00 RMK AO2 T00671033
63870K0J4 0J420161121203010811/21/16 20:30:31  5-MIN K0J4 220130Z AUTO 00000KT 10SM CLR 07/M03 A3020 60 49 -800 000/00 RMK AO2 T00671033
63870K0J4 0J420161121203510911/21/16 20:35:31  5-MIN K0J4 220135Z AUTO 00000KT 10SM CLR 05/M04 A3020 60 52 -1000 000/00 RMK AO2 T00501039
63870K0J4 0J420161121204010811/21/16 20:40:31  5-MIN K0J4 220140Z AUTO 00000KT 10SM CLR 07/M04 A3020 60 45 -800 000/00 RMK AO2 T00671044
63870K0J4 0J420161121204510911/21/16 20:45:31  5-MIN K0J4 220145Z AUTO 00000KT 10SM CLR 05/M03 A3020 60 57 -1000 000/00 RMK AO2 T00501028
63870K0J4 0J420161121205010911/21/16 20:50:31  5-MIN K0J4 220150Z AUTO 00000KT 10SM CLR 06/M04 A3020 60 50 -1000 000/00 RMK AO2 T00561039
63870K0J4 0J420161121205511511/21/16 20:55:31  5-MIN K0J4 220155Z AUTO 00000KT 10SM CLR 06/M04 A3020 60 48 -900 000/00 RMK AO2 SLP225 T00611039
63870K0J4 0J420161121210010911/21/16 21:00:31  5-MIN K0J4 220200Z AUTO 00000KT 10SM CLR 05/M03 A3020 60 55 -1000 000/00 RMK AO2 T00501033
63870K0J4 0J420161121210510911/21/16 21:05:31  5-MIN K0J4 220205Z AUTO 00000KT 10SM CLR 05/M03 A3020 60 57 -1000 000/00 RMK AO2 T00501028
63870K0J4 0J420161121211010911/21/16 21:10:31  5-MIN K0J4 220210Z AUTO 00000KT 10SM CLR 04/M03 A3020 60 59 -1100 000/00 RMK AO2 T00441028
63870K0J4 0J420161121211510911/21/16 21:15:31  5-MIN K0J4 220215Z AUTO 00000KT 10SM CLR 05/M03 A3020 60 57 -1000 000/00 RMK AO2 T00501028
63870K0J4 0J420161121212010911/21/16 21:20:31  5-MIN K0J4 220220Z AUTO 00000KT 10SM CLR 05/M03 A3020 60 55 -1100 000/00 RMK AO2 T00501033
63870K0J4 0J420161121212510911/21/16 21:25:31  5-MIN K0J4 220225Z AUTO 00000KT 10SM CLR 05/M02 A3020 60 59 -1100 000/00 RMK AO2 T00501022
63870K0J4 0J420161121213010911/21/16 21:30:31  5-MIN K0J4 220230Z AUTO 00000KT 10SM CLR 04/M03 A3020 60 62 -1200 000/00 RMK AO2 T00391028
63870K0J4 0J420161121213510911/21/16 21:35:31  5-MIN K0J4 220235Z AUTO 00000KT 10SM CLR 04/M03 A3020 60 59 -1100 000/00 RMK AO2 T00441028
63870K0J4 0J420161121214010911/21/16 21:40:31  5-MIN K0J4 220240Z AUTO 00000KT 10SM CLR 05/M03 A3020 60 57 -1000 000/00 RMK AO2 T00501028
63870K0J4 0J420161121214510811/21/16 21:45:31  5-MIN K0J4 220245Z AUTO 01003KT 10SM CLR 06/M04 A3020 60 46 -900 010/03 RMK AO2 T00611044
63870K0J4 0J420161121215010911/21/16 21:50:31  5-MIN K0J4 220250Z AUTO 01004KT 10SM CLR 06/M04 A3019 60 48 -1000 010/04 RMK AO2 T00561044
63870K0J4 0J420161121215512211/21/16 21:55:31  5-MIN K0J4 220255Z AUTO 02004KT 10SM CLR 04/M04 A3019 60 55 -1100 020/04 RMK AO2 SLP224 T00441039 53007
63870K0J4 0J420161121220010911/21/16 22:00:31  5-MIN K0J4 220300Z AUTO 02003KT 10SM CLR 05/M04 A3019 60 52 -1000 020/03 RMK AO2 T00501039
63870K0J4 0J420161121220510911/21/16 22:05:31  5-MIN K0J4 220305Z AUTO 01003KT 10SM CLR 04/M03 A3019 60 59 -1200 010/03 RMK AO2 T00391033
63870K0J4 0J420161121221010911/21/16 22:10:31  5-MIN K0J4 220310Z AUTO 01003KT 10SM CLR 04/M03 A3020 60 57 -1100 010/03 RMK AO2 T00441033
63870K0J4 0J420161121221510911/21/16 22:15:31  5-MIN K0J4 220315Z AUTO 00000KT 10SM CLR 05/M03 A3020 60 55 -1000 000/00 RMK AO2 T00501033
63870K0J4 0J420161121222010911/21/16 22:20:31  5-MIN K0J4 220320Z AUTO 00000KT 10SM CLR 04/M03 A3020 60 57 -1100 000/00 RMK AO2 T00441033
63870K0J4 0J420161121222510911/21/16 22:25:31  5-MIN K0J4 220325Z AUTO 00000KT 10SM CLR 03/M03 A3020 60 67 -1300 000/00 RMK AO2 T00281028
63870K0J4 0J420161121223010911/21/16 22:30:31  5-MIN K0J4 220330Z AUTO 00000KT 10SM CLR 03/M03 A3020 60 67 -1300 000/00 RMK AO2 T00281028
63870K0J4 0J420161121223510911/21/16 22:35:31  5-MIN K0J4 220335Z AUTO 00000KT 10SM CLR 02/M03 A3020 60 69 -1400 000/00 RMK AO2 T00221028
63870K0J4 0J420161121224010911/21/16 22:40:31  5-MIN K0J4 220340Z AUTO 00000KT 10SM CLR 03/M02 A3020 60 67 -1300 000/00 RMK AO2 T00331022
63870K0J4 0J420161121224510911/21/16 22:45:31  5-MIN K0J4 220345Z AUTO 00000KT 10SM CLR 02/M02 A3020 60 72 -1400 000/00 RMK AO2 T00221022
63870K0J4 0J420161121225010911/21/16 22:50:31  5-MIN K0J4 220350Z AUTO 00000KT 10SM CLR 03/M02 A3020 60 67 -1200 000/00 RMK AO2 T00331022
63870K0J4 0J420161121225511611/21/16 22:55:31  5-MIN K0J4 220355Z AUTO 00000KT 10SM CLR 03/M03 A3019 60 64 -1200 000/00 RMK AO2 SLP224 T00331028
63870K0J4 0J420161121230010911/21/16 23:00:31  5-MIN K0J4 220400Z AUTO 00000KT 10SM CLR 03/M03 A3019 60 64 -1200 000/00 RMK AO2 T00331028
63870K0J4 0J420161121230510911/21/16 23:05:31  5-MIN K0J4 220405Z AUTO 00000KT 10SM CLR 04/M03 A3019 60 62 -1200 000/00 RMK AO2 T00391028
63870K0J4 0J420161121231010911/21/16 23:10:31  5-MIN K0J4 220410Z AUTO 00000KT 10SM CLR 03/M03 A3019 70 67 -1300 000/00 RMK AO2 T00281028
63870K0J4 0J420161121231510911/21/16 23:15:31  5-MIN K0J4 220415Z AUTO 00000KT 10SM CLR 03/M03 A3019 70 64 -1200 000/00 RMK AO2 T00331028
63870K0J4 0J420161121232010911/21/16 23:20:31  5-MIN K0J4 220420Z AUTO 00000KT 10SM CLR 03/M03 A3019 70 64 -1200 000/00 RMK AO2 T00331028
63870K0J4 0J420161121232510911/21/16 23:25:31  5-MIN K0J4 220425Z AUTO 00000KT 10SM CLR 03/M03 A3019 70 64 -1300 000/00 RMK AO2 T00281033
63870K0J4 0J420161121233010911/21/16 23:30:31  5-MIN K0J4 220430Z AUTO 00000KT 10SM CLR 03/M03 A3019 70 64 -1300 000/00 RMK AO2 T00281033
63870K0J4 0J420161121233510911/21/16 23:35:31  5-MIN K0J4 220435Z AUTO 00000KT 10SM CLR 03/M03 A3019 70 61 -1200 000/00 RMK AO2 T00331033
63870K0J4 0J420161121234010911/21/16 23:40:31  5-MIN K0J4 220440Z AUTO 00000KT 10SM CLR 03/M03 A3019 70 64 -1300 000/00 RMK AO2 T00281033
63870K0J4 0J420161121234510911/21/16 23:45:31  5-MIN K0J4 220445Z AUTO 00000KT 10SM CLR 02/M03 A3019 70 67 -1400 000/00 RMK AO2 T00221033
63870K0J4 0J420161121235010911/21/16 23:50:31  5-MIN K0J4 220450Z AUTO 00000KT 10SM CLR 02/M03 A3019 70 69 -1400 000/00 RMK AO2 T00221028
63870K0J4 0J420161121235512611/21/16 23:55:31  5-MIN K0J4 220455Z AUTO 00000KT 10SM CLR 02/M03 A3019 70 69 -1400 000/00 RMK AO2 SLP222 T00221028 402001017
63870K0J4 0J420161122000010911/22/16 00:00:31  5-MIN K0J4 220500Z AUTO 00000KT 10SM CLR 02/M03 A3019 70 72 -1400 000/00 RMK AO2 T00171028
63870K0J4 0J420161122000510911/22/16 00:05:31  5-MIN K0J4 220505Z AUTO 00000KT 10SM CLR 02/M03 A3019 70 72 -1400 000/00 RMK AO2 T00171028
63870K0J4 0J420161122001010911/22/16 00:10:31  5-MIN K0J4 220510Z AUTO 00000KT 10SM CLR 02/M03 A3019 70 72 -1400 000/00 RMK AO2 T00171028
63870K0J4 0J420161122001510911/22/16 00:15:31  5-MIN K0J4 220515Z AUTO 00000KT 10SM CLR 02/M03 A3019 70 69 -1400 000/00 RMK AO2 T00221028
63870K0J4 0J420161122002010911/22/16 00:20:31  5-MIN K0J4 220520Z AUTO 00000KT 10SM CLR 02/M03 A3019 70 67 -1400 000/00 RMK AO2 T00221033
63870K0J4 0J420161122002510911/22/16 00:25:31  5-MIN K0J4 220525Z AUTO 00000KT 10SM CLR 02/M03 A3018 70 67 -1400 000/00 RMK AO2 T00221033
63870K0J4 0J420161122003010911/22/16 00:30:31  5-MIN K0J4 220530Z AUTO 00000KT 10SM CLR 03/M04 A3018 70 61 -1300 000/00 RMK AO2 T00281039
63870K0J4 0J420161122003510911/22/16 00:35:31  5-MIN K0J4 220535Z AUTO 00000KT 10SM CLR 02/M04 A3018 70 64 -1400 000/00 RMK AO2 T00221039
63870K0J4 0J420161122004010911/22/16 00:40:31  5-MIN K0J4 220540Z AUTO 00000KT 10SM CLR 02/M04 A3018 70 64 -1400 000/00 RMK AO2 T00221039
63870K0J4 0J420161122004510911/22/16 00:45:31  5-MIN K0J4 220545Z AUTO 00000KT 10SM CLR 02/M03 A3018 70 69 -1400 000/00 RMK AO2 T00171033
63870K0J4 0J420161122005010911/22/16 00:50:31  5-MIN K0J4 220550Z AUTO 00000KT 10SM CLR 02/M03 A3018 80 69 -1400 000/00 RMK AO2 T00171033
63870K0J4 0J420161122005513411/22/16 00:55:31  5-MIN K0J4 220555Z AUTO 00000KT 10SM CLR 02/M03 A3018 80 69 -1400 000/00 RMK AO2 SLP219 T00171033 10089 20017 50004
63870K0J4 0J420161122010010911/22/16 01:00:31  5-MIN K0J4 220600Z AUTO 00000KT 10SM CLR 02/M03 A3018 80 69 -1400 000/00 RMK AO2 T00171033
63870K0J4 0J420161122010510911/22/16 01:05:31  5-MIN K0J4 220605Z AUTO 00000KT 10SM CLR 02/M03 A3018 80 67 -1400 000/00 RMK AO2 T00221033
63870K0J4 0J420161122011010911/22/16 01:10:31  5-MIN K0J4 220610Z AUTO 00000KT 10SM CLR 02/M04 A3018 80 66 -1400 000/00 RMK AO2 T00171039
63870K0J4 0J420161122011510911/22/16 01:15:31  5-MIN K0J4 220615Z AUTO 00000KT 10SM CLR 02/M03 A3018 80 69 -1400 000/00 RMK AO2 T00171033
63870K0J4 0J420161122012010911/22/16 01:20:31  5-MIN K0J4 220620Z AUTO 00000KT 10SM CLR 01/M03 A3018 80 72 -1500 000/00 RMK AO2 T00111033
63870K0J4 0J420161122012510911/22/16 01:25:31  5-MIN K0J4 220625Z AUTO 00000KT 10SM CLR 01/M03 A3018 80 72 -1500 000/00 RMK AO2 T00111033
63870K0J4 0J420161122013010911/22/16 01:30:31  5-MIN K0J4 220630Z AUTO 00000KT 10SM CLR 01/M03 A3017 80 72 -1500 000/00 RMK AO2 T00111033
63870K0J4 0J420161122013510911/22/16 01:35:31  5-MIN K0J4 220635Z AUTO 00000KT 10SM CLR 02/M03 A3017 80 69 -1400 000/00 RMK AO2 T00171033
63870K0J4 0J420161122014010911/22/16 01:40:31  5-MIN K0J4 220640Z AUTO 00000KT 10SM CLR 01/M03 A3017 80 72 -1500 000/00 RMK AO2 T00111033
63870K0J4 0J420161122014510911/22/16 01:45:31  5-MIN K0J4 220645Z AUTO 00000KT 10SM CLR 01/M03 A3017 80 72 -1500 000/00 RMK AO2 T00111033
63870K0J4 0J420161122015010911/22/16 01:50:31  5-MIN K0J4 220650Z AUTO 00000KT 10SM CLR 02/M03 A3017 80 69 -1400 000/00 RMK AO2 T00171033
63870K0J4 0J420161122015511611/22/16 01:55:31  5-MIN K0J4 220655Z AUTO 00000KT 10SM CLR 01/M03 A3017 80 72 -1500 000/00 RMK AO2 SLP217 T00111033
63870K0J4 0J420161122020010911/22/16 02:00:31  5-MIN K0J4 220700Z AUTO 00000KT 10SM CLR 01/M03 A3017 80 72 -1500 000/00 RMK AO2 T00111033
63870K0J4 0J420161122020510911/22/16 02:05:31  5-MIN K0J4 220705Z AUTO 01003KT 10SM CLR 02/M03 A3017 80 69 -1400 010/03 RMK AO2 T00171033
63870K0J4 0J420161122021010911/22/16 02:10:31  5-MIN K0J4 220710Z AUTO 00000KT 10SM CLR 01/M03 A3017 80 72 -1500 000/00 RMK AO2 T00111033
63870K0J4 0J420161122021510911/22/16 02:15:31  5-MIN K0J4 220715Z AUTO 00000KT 10SM CLR 01/M03 A3017 80 72 -1500 000/00 RMK AO2 T00111033
63870K0J4 0J420161122022010911/22/16 02:20:31  5-MIN K0J4 220720Z AUTO 00000KT 10SM CLR 01/M03 A3018 80 75 -1600 000/00 RMK AO2 T00061033
63870K0J4 0J420161122022510911/22/16 02:25:31  5-MIN K0J4 220725Z AUTO 00000KT 10SM CLR 02/M03 A3018 80 69 -1400 000/00 RMK AO2 T00171033
63870K0J4 0J420161122023010911/22/16 02:30:31  5-MIN K0J4 220730Z AUTO 00000KT 10SM CLR 02/M03 A3018 80 69 -1400 000/00 RMK AO2 T00221028
63870K0J4 0J420161122023510911/22/16 02:35:31  5-MIN K0J4 220735Z AUTO 00000KT 10SM CLR 01/M03 A3018 80 75 -1600 000/00 RMK AO2 T00061033
63870K0J4 0J420161122024010911/22/16 02:40:31  5-MIN K0J4 220740Z AUTO 00000KT 10SM CLR 00/M03 A3018 80 78 -1600 000/00 RMK AO2 T00001033
63870K0J4 0J420161122024510911/22/16 02:45:31  5-MIN K0J4 220745Z AUTO 00000KT 10SM CLR 00/M03 A3018 80 78 -1700 000/00 RMK AO2 T00001033
63870K0J4 0J420161122025010911/22/16 02:50:31  5-MIN K0J4 220750Z AUTO 00000KT 10SM CLR 01/M03 A3018 70 75 -1600 000/00 RMK AO2 T00061033
63870K0J4 0J420161122025511611/22/16 02:55:31  5-MIN K0J4 220755Z AUTO 00000KT 10SM CLR 01/M03 A3019 70 75 -1600 000/00 RMK AO2 SLP221 T00061033
63870K0J4 0J420161122030010911/22/16 03:00:31  5-MIN K0J4 220800Z AUTO 00000KT 10SM CLR 00/M03 A3019 70 78 -1700 000/00 RMK AO2 T00001033
63870K0J4 0J420161122030510911/22/16 03:05:31  5-MIN K0J4 220805Z AUTO 00000KT 10SM CLR 01/M03 A3019 70 75 -1600 000/00 RMK AO2 T00061033
63870K0J4 0J420161122031010911/22/16 03:10:31  5-MIN K0J4 220810Z AUTO 00000KT 10SM CLR 01/M03 A3019 70 72 -1500 000/00 RMK AO2 T00111033
63870K0J4 0J420161122031510911/22/16 03:15:31  5-MIN K0J4 220815Z AUTO 00000KT 10SM CLR 01/M03 A3019 70 75 -1600 000/00 RMK AO2 T00061033
63870K0J4 0J420161122032010911/22/16 03:20:31  5-MIN K0J4 220820Z AUTO 00000KT 10SM CLR 01/M03 A3019 70 75 -1600 000/00 RMK AO2 T00061033
63870K0J4 0J420161122032510911/22/16 03:25:31  5-MIN K0J4 220825Z AUTO 00000KT 10SM CLR 00/M03 A3019 70 78 -1700 000/00 RMK AO2 T00001033
63870K0J4 0J420161122033010911/22/16 03:30:31  5-MIN K0J4 220830Z AUTO 00000KT 10SM CLR 00/M03 A3019 60 78 -1700 000/00 RMK AO2 T00001033
63870K0J4 0J420161122033510911/22/16 03:35:31  5-MIN K0J4 220835Z AUTO 01003KT 10SM CLR 00/M03 A3019 60 78 -1700 010/03 RMK AO2 T00001033
63870K0J4 0J420161122034010911/22/16 03:40:31  5-MIN K0J4 220840Z AUTO 01004KT 10SM CLR 01/M03 A3019 60 75 -1600 010/04 RMK AO2 T00061033
63870K0J4 0J420161122034512411/22/16 03:45:31  5-MIN K0J4 220845Z AUTO 01004KT 10SM UP CLR 00/M04 A3019 60 75 -1700 010/04 RMK AO2 UPB41 P0000 T00001039
63870K0J4 0J420161122035013311/22/16 03:50:31  5-MIN K0J4 220850Z AUTO 02003KT 10SM -RA CLR 01/M04 A3019 60 72 -1600 020/03 RMK AO2 UPB41E50RAB50 P0000 T00061039
63870K0J4 0J420161122035515111/22/16 03:55:31  5-MIN K0J4 220855Z AUTO 01004KT 10SM CLR 01/M04 A3020 60 72 -1600 010/04 RMK AO2 UPB41E50RAB50E51 SLP225 P0000 60000 T00061039 58005
63870K0J4 0J420161122040010911/22/16 04:00:31  5-MIN K0J4 220900Z AUTO 01004KT 10SM CLR 00/M03 A3020 60 78 -1700 010/04 RMK AO2 T00001033
63870K0J4 0J420161122040510911/22/16 04:05:31  5-MIN K0J4 220905Z AUTO 02003KT 10SM CLR 00/M04 A3020 60 75 -1700 020/03 RMK AO2 T00001039
63870K0J4 0J420161122041010911/22/16 04:10:31  5-MIN K0J4 220910Z AUTO 36003KT 10SM CLR 00/M04 A3020 60 75 -1700 360/03 RMK AO2 T00001039
63870K0J4 0J420161122041510911/22/16 04:15:31  5-MIN K0J4 220915Z AUTO 00000KT 10SM CLR 01/M04 A3020 60 72 -1600 000/00 RMK AO2 T00061039
63870K0J4 0J420161122042010911/22/16 04:20:31  5-MIN K0J4 220920Z AUTO 00000KT 10SM CLR 01/M04 A3020 60 72 -1600 000/00 RMK AO2 T00061039
63870K0J4 0J420161122042510911/22/16 04:25:31  5-MIN K0J4 220925Z AUTO 00000KT 10SM CLR 01/M04 A3020 60 72 -1600 000/00 RMK AO2 T00061039
63870K0J4 0J420161122043010911/22/16 04:30:31  5-MIN K0J4 220930Z AUTO 00000KT 10SM CLR 00/M04 A3020 60 75 -1700 000/00 RMK AO2 T00001039
63870K0J4 0J420161122043510911/22/16 04:35:31  5-MIN K0J4 220935Z AUTO 00000KT 10SM CLR 00/M04 A3020 60 75 -1700 000/00 RMK AO2 T00001039
63870K0J4 0J420161122044010911/22/16 04:40:31  5-MIN K0J4 220940Z AUTO 00000KT 10SM CLR 00/M04 A3020 60 75 -1700 000/00 RMK AO2 T00001039
63870K0J4 0J420161122044510911/22/16 04:45:31  5-MIN K0J4 220945Z AUTO 00000KT 10SM CLR 00/M04 A3020 60 75 -1700 000/00 RMK AO2 T00001039
63870K0J4 0J420161122045010911/22/16 04:50:31  5-MIN K0J4 220950Z AUTO 00000KT 10SM CLR 00/M04 A3020 60 75 -1700 000/00 RMK AO2 T00001039
63870K0J4 0J420161122045511611/22/16 04:55:31  5-MIN K0J4 220955Z AUTO 00000KT 10SM CLR 00/M03 A3021 50 78 -1700 000/00 RMK AO2 SLP228 T00001033
63870K0J4 0J420161122050010911/22/16 05:00:31  5-MIN K0J4 221000Z AUTO 00000KT 10SM CLR 00/M03 A3021 50 78 -1700 000/00 RMK AO2 T00001033
63870K0J4 0J420161122050511011/22/16 05:05:31  5-MIN K0J4 221005Z AUTO 00000KT 10SM CLR M01/M04 A3021 50 78 -1800 000/00 RMK AO2 T10061039
63870K0J4 0J420161122051011011/22/16 05:10:31  5-MIN K0J4 221010Z AUTO 00000KT 10SM CLR M01/M04 A3021 50 81 -1800 000/00 RMK AO2 T10111039
63870K0J4 0J420161122051511011/22/16 05:15:31  5-MIN K0J4 221015Z AUTO 00000KT 10SM CLR M02/M04 A3021 50 85 -1900 000/00 RMK AO2 T10171039
63870K0J4 0J420161122052011011/22/16 05:20:31  5-MIN K0J4 221020Z AUTO 00000KT 10SM CLR M01/M04 A3021 50 81 -1800 000/00 RMK AO2 T10111039
63870K0J4 0J420161122052511011/22/16 05:25:31  5-MIN K0J4 221025Z AUTO 00000KT 10SM CLR M01/M04 A3021 50 78 -1800 000/00 RMK AO2 T10061039
63870K0J4 0J420161122053011011/22/16 05:30:31  5-MIN K0J4 221030Z AUTO 00000KT 10SM CLR M01/M04 A3021 50 81 -1800 000/00 RMK AO2 T10111039
63870K0J4 0J420161122053511011/22/16 05:35:31  5-MIN K0J4 221035Z AUTO 00000KT 10SM CLR M01/M04 A3022 40 81 -1800 000/00 RMK AO2 T10111039
63870K0J4 0J420161122054011011/22/16 05:40:31  5-MIN K0J4 221040Z AUTO 00000KT 10SM CLR M01/M04 A3022 40 78 -1800 000/00 RMK AO2 T10061039
63870K0J4 0J420161122054511011/22/16 05:45:31  5-MIN K0J4 221045Z AUTO 00000KT 10SM CLR M01/M04 A3022 40 81 -1800 000/00 RMK AO2 T10111039
63870K0J4 0J420161122055011011/22/16 05:50:31  5-MIN K0J4 221050Z AUTO 00000KT 10SM CLR M01/M04 A3022 40 81 -1800 000/00 RMK AO2 T10111039
63870K0J4 0J420161122055511711/22/16 05:55:31  5-MIN K0J4 221055Z AUTO 00000KT 10SM CLR M01/M04 A3022 40 81 -1800 000/00 RMK AO2 SLP233 T10111039
63870K0J4 0J420161122060011011/22/16 06:00:31  5-MIN K0J4 221100Z AUTO 00000KT 10SM CLR M01/M04 A3022 40 81 -1800 000/00 RMK AO2 T10111039
63870K0J4 0J420161122060511011/22/16 06:05:31  5-MIN K0J4 221105Z AUTO 00000KT 10SM CLR M01/M04 A3022 40 81 -1800 000/00 RMK AO2 T10111039
63870K0J4 0J420161122061011011/22/16 06:10:31  5-MIN K0J4 221110Z AUTO 00000KT 10SM CLR M01/M04 A3022 40 81 -1800 000/00 RMK AO2 T10111039
63870K0J4 0J420161122061511011/22/16 06:15:31  5-MIN K0J4 221115Z AUTO 00000KT 10SM CLR M02/M04 A3022 40 85 -1900 000/00 RMK AO2 T10171039
63870K0J4 0J420161122062011011/22/16 06:20:31  5-MIN K0J4 221120Z AUTO 00000KT 10SM CLR M01/M04 A3022 40 78 -1800 000/00 RMK AO2 T10111044
63870K0J4 0J420161122062511011/22/16 06:25:31  5-MIN K0J4 221125Z AUTO 00000KT 10SM CLR M01/M04 A3022 40 78 -1800 000/00 RMK AO2 T10111044
63870K0J4 0J420161122063011011/22/16 06:30:31  5-MIN K0J4 221130Z AUTO 00000KT 10SM CLR M01/M04 A3022 40 78 -1800 000/00 RMK AO2 T10111044
63870K0J4 0J420161122063511011/22/16 06:35:31  5-MIN K0J4 221135Z AUTO 00000KT 10SM CLR M01/M04 A3022 40 78 -1800 000/00 RMK AO2 T10111044
63870K0J4 0J420161122064011011/22/16 06:40:31  5-MIN K0J4 221140Z AUTO 00000KT 10SM CLR M01/M04 A3022 40 78 -1800 000/00 RMK AO2 T10111044
63870K0J4 0J420161122064511011/22/16 06:45:31  5-MIN K0J4 221145Z AUTO 00000KT 10SM CLR M01/M04 A3022 40 78 -1800 000/00 RMK AO2 T10111044
63870K0J4 0J420161122065011011/22/16 06:50:31  5-MIN K0J4 221150Z AUTO 00000KT 10SM CLR M01/M04 A3022 40 78 -1800 000/00 RMK AO2 T10111044
63870K0J4 0J420161122065514111/22/16 06:55:31  5-MIN K0J4 221155Z AUTO 00000KT 10SM CLR M01/M04 A3022 40 78 -1800 000/00 RMK AO2 SLP235 60000 T10111044 10022 21017 53006
63870K0J4 0J420161122070011011/22/16 07:00:31  5-MIN K0J4 221200Z AUTO 00000KT 10SM CLR M01/M04 A3022 40 78 -1800 000/00 RMK AO2 T10111044
63870K0J4 0J420161122070511011/22/16 07:05:31  5-MIN K0J4 221205Z AUTO 00000KT 10SM CLR M01/M04 A3022 40 78 -1800 000/00 RMK AO2 T10111044
63870K0J4 0J420161122071011011/22/16 07:10:31  5-MIN K0J4 221210Z AUTO 00000KT 10SM CLR M01/M04 A3023 40 78 -1800 000/00 RMK AO2 T10111044
63870K0J4 0J420161122071511011/22/16 07:15:31  5-MIN K0J4 221215Z AUTO 00000KT 10SM CLR M01/M04 A3023 30 78 -1800 000/00 RMK AO2 T10111044
63870K0J4 0J420161122072011011/22/16 07:20:31  5-MIN K0J4 221220Z AUTO 00000KT 10SM CLR M01/M04 A3023 30 78 -1800 000/00 RMK AO2 T10111044
63870K0J4 0J420161122072510911/22/16 07:25:31  5-MIN K0J4 221225Z AUTO 00000KT 10SM CLR 00/M04 A3023 30 72 -1700 000/00 RMK AO2 T00001044
63870K0J4 0J420161122073010911/22/16 07:30:31  5-MIN K0J4 221230Z AUTO 00000KT 10SM CLR 01/M04 A3023 30 69 -1600 000/00 RMK AO2 T00061044
63870K0J4 0J420161122073510911/22/16 07:35:31  5-MIN K0J4 221235Z AUTO 00000KT 10SM CLR 01/M05 A3023 30 64 -1600 000/00 RMK AO2 T00111050
63870K0J4 0J420161122074010911/22/16 07:40:31  5-MIN K0J4 221240Z AUTO 00000KT 10SM CLR 02/M05 A3024 20 59 -1400 000/00 RMK AO2 T00221050
63870K0J4 0J420161122074510911/22/16 07:45:31  5-MIN K0J4 221245Z AUTO 00000KT 10SM CLR 03/M06 A3024 20 52 -1300 000/00 RMK AO2 T00331056
63870K0J4 0J420161122075010911/22/16 07:50:31  5-MIN K0J4 221250Z AUTO 00000KT 10SM CLR 04/M06 A3024 20 46 -1200 000/00 RMK AO2 T00441061
63870K0J4 0J420161122075511611/22/16 07:55:31  5-MIN K0J4 221255Z AUTO 00000KT 10SM CLR 06/M06 A3025 20 43 -1000 000/00 RMK AO2 SLP242 T00561061
63870K0J4 0J420161122080010911/22/16 08:00:31  5-MIN K0J4 221300Z AUTO 00000KT 10SM CLR 06/M06 A3025 10 44 -1000 000/00 RMK AO2 T00561056
63870K0J4 0J420161122080510911/22/16 08:05:31  5-MIN K0J4 221305Z AUTO 00000KT 10SM CLR 06/M04 A3025 10 46 -1000 000/00 RMK AO2 T00611044
63870K0J4 0J420161122081010711/22/16 08:10:31  5-MIN K0J4 221310Z AUTO 00000KT 10SM CLR 07/M04 A3026 0 45 -900 000/00 RMK AO2 T00671044
63870K0J4 0J420161122081510711/22/16 08:15:31  5-MIN K0J4 221315Z AUTO 02003KT 10SM CLR 07/M03 A3026 0 51 -900 020/03 RMK AO2 T00671028
63870K0J4 0J420161122082010711/22/16 08:20:31  5-MIN K0J4 221320Z AUTO 00000KT 10SM CLR 07/M03 A3027 0 47 -900 000/00 RMK AO2 T00721033
63870K0J4 0J420161122082510711/22/16 08:25:31  5-MIN K0J4 221325Z AUTO 01003KT 10SM CLR 08/M04 A3027 0 41 -800 010/03 RMK AO2 T00781044
63870K0J4 0J420161122083010711/22/16 08:30:31  5-MIN K0J4 221330Z AUTO 01003KT 10SM CLR 07/M03 A3027 0 47 -900 010/03 RMK AO2 T00721033
63870K0J4 0J420161122083510911/22/16 08:35:31  5-MIN K0J4 221335Z AUTO 36004KT 10SM CLR 07/M03 A3028 -10 49 -900 360/04 RMK AO2 T00721028
63870K0J4 0J420161122084010911/22/16 08:40:31  5-MIN K0J4 221340Z AUTO 36003KT 10SM CLR 08/M05 A3028 -10 40 -800 360/03 RMK AO2 T00781050
63870K0J4 0J420161122084510911/22/16 08:45:31  5-MIN K0J4 221345Z AUTO 36003KT 10SM CLR 08/M05 A3028 -10 40 -800 360/03 RMK AO2 T00781050
63870K0J4 0J420161122085010911/22/16 08:50:31  5-MIN K0J4 221350Z AUTO 00000KT 10SM CLR 08/M04 A3028 -10 41 -800 000/00 RMK AO2 T00781044
63870K0J4 0J420161122085511611/22/16 08:55:31  5-MIN K0J4 221355Z AUTO 00000KT 10SM CLR 08/M04 A3028 -10 43 -800 000/00 RMK AO2 SLP255 T00781039
63870K0J4 0J420161122090010911/22/16 09:00:31  5-MIN K0J4 221400Z AUTO 36003KT 10SM CLR 08/M03 A3029 -10 45 -800 360/03 RMK AO2 T00781033
63870K0J4 0J420161122090510911/22/16 09:05:31  5-MIN K0J4 221405Z AUTO 00000KT 10SM CLR 08/M03 A3029 -20 43 -700 000/00 RMK AO2 T00831033
63870K0J4 0J420161122091010911/22/16 09:10:31  5-MIN K0J4 221410Z AUTO 00000KT 10SM CLR 09/M03 A3028 -10 42 -700 000/00 RMK AO2 T00891033
63870K0J4 0J420161122091510911/22/16 09:15:31  5-MIN K0J4 221415Z AUTO 00000KT 10SM CLR 09/M03 A3028 -10 40 -600 000/00 RMK AO2 T00941033
63870K0J4 0J420161122092010911/22/16 09:20:31  5-MIN K0J4 221420Z AUTO 08005KT 10SM CLR 11/M04 A3028 -10 36 -500 080/05 RMK AO2 T01061039
63870K0J4 0J420161122092510711/22/16 09:25:31  5-MIN K0J4 221425Z AUTO 08006KT 10SM CLR 11/M06 A3027 0 30 -500 080/06 RMK AO2 T01061061
63870K0J4 0J420161122093010911/22/16 09:30:31  5-MIN K0J4 221430Z AUTO 08005KT 10SM CLR 11/M07 A3027 -10 28 -400 080/05 RMK AO2 T01111067
63870K0J4 0J420161122093510911/22/16 09:35:31  5-MIN K0J4 221435Z AUTO 09006KT 10SM CLR 11/M07 A3028 -10 28 -400 090/06 RMK AO2 T01111067
63870K0J4 0J420161122094010911/22/16 09:40:31  5-MIN K0J4 221440Z AUTO 10005KT 10SM CLR 12/M07 A3028 -10 26 -300 100/05 RMK AO2 T01171072
63870K0J4 0J420161122094510911/22/16 09:45:31  5-MIN K0J4 221445Z AUTO 10006KT 10SM CLR 12/M07 A3028 -10 26 -300 100/06 RMK AO2 T01221067
63870K0J4 0J420161122095010911/22/16 09:50:31  5-MIN K0J4 221450Z AUTO 08006KT 10SM CLR 12/M07 A3028 -10 26 -300 080/06 RMK AO2 T01221067
63870K0J4 0J420161122095512011/22/16 09:55:31  5-MIN K0J4 221455Z AUTO 08007KT 10SM CLR 13/M07 A3027 0 25 -200 080/07 RMK AO2 SLP251 T01281067 51009
63870K0J4 0J420161122100010711/22/16 10:00:31  5-MIN K0J4 221500Z AUTO 08009KT 10SM CLR 13/M07 A3027 0 25 -200 080/09 RMK AO2 T01281067
63870K0J4 0J420161122100510711/22/16 10:05:31  5-MIN K0J4 221505Z AUTO 09007KT 10SM CLR 13/M07 A3027 0 25 -200 090/07 RMK AO2 T01281067
63870K0J4 0J420161122101010711/22/16 10:10:31  5-MIN K0J4 221510Z AUTO 08008KT 10SM CLR 13/M07 A3027 0 23 -100 080/08 RMK AO2 T01331072
63870K0J4 0J420161122101510711/22/16 10:15:31  5-MIN K0J4 221515Z AUTO 07008KT 10SM CLR 13/M07 A3027 0 23 -100 070/08 RMK AO2 T01331072
63870K0J4 0J420161122102010911/22/16 10:20:31  5-MIN K0J4 221520Z AUTO 08008KT 10SM CLR 14/M07 A3027 -10 22 -100 080/08 RMK AO2 T01391072
63870K0J4 0J420161122102510911/22/16 10:25:31  5-MIN K0J4 221525Z AUTO 10006KT 10SM CLR 14/M07 A3028 -10 22 -100 100/06 RMK AO2 T01391072
63870K0J4 0J420161122103010911/22/16 10:30:31  5-MIN K0J4 221530Z AUTO 11006KT 10SM CLR 14/M08 A3028 -10 21 -100 110/06 RMK AO2 T01391078
63870K0J4 0J420161122103510911/22/16 10:35:31  5-MIN K0J4 221535Z AUTO VRB06KT 10SM CLR 14/M08 A3028 -10 21 -100 VRB/06 RMK AO2 T01391078
63870K0J4 0J420161122104010611/22/16 10:40:31  5-MIN K0J4 221540Z AUTO 09005KT 10SM CLR 14/M08 A3028 -10 20 0 090/05 RMK AO2 T01441083
63870K0J4 0J420161122104510611/22/16 10:45:31  5-MIN K0J4 221545Z AUTO 09006KT 10SM CLR 14/M08 A3028 -10 20 0 090/06 RMK AO2 T01441083
63870K0J4 0J420161122105010611/22/16 10:50:31  5-MIN K0J4 221550Z AUTO VRB04KT 10SM CLR 15/M08 A3028 -10 19 0 VRB/04 RMK AO2 T01501083
63870K0J4 0J420161122105511311/22/16 10:55:31  5-MIN K0J4 221555Z AUTO 08006KT 10SM CLR 15/M08 A3028 -10 19 0 080/06 RMK AO2 SLP253 T01501083
63870K0J4 0J420161122110010811/22/16 11:00:31  5-MIN K0J4 221600Z AUTO VRB03KT 10SM CLR 16/M08 A3028 -10 19 100 VRB/03 RMK AO2 T01561078
63870K0J4 0J420161122110510811/22/16 11:05:31  5-MIN K0J4 221605Z AUTO 12003KT 10SM CLR 16/M08 A3028 -10 19 100 120/03 RMK AO2 T01561078
63870K0J4 0J420161122111010811/22/16 11:10:31  5-MIN K0J4 221610Z AUTO 12004KT 10SM CLR 16/M08 A3028 -10 18 200 120/04 RMK AO2 T01611078
63870K0J4 0J420161122111510611/22/16 11:15:31  5-MIN K0J4 221615Z AUTO VRB04KT 10SM CLR 16/M08 A3027 0 18 200 VRB/04 RMK AO2 T01611078
63870K0J4 0J420161122112010611/22/16 11:20:31  5-MIN K0J4 221620Z AUTO VRB05KT 10SM CLR 16/M08 A3027 0 18 200 VRB/05 RMK AO2 T01611078
63870K0J4 0J420161122112510611/22/16 11:25:31  5-MIN K0J4 221625Z AUTO VRB04KT 10SM CLR 17/M08 A3027 0 18 200 VRB/04 RMK AO2 T01671078
63870K0J4 0J420161122113010611/22/16 11:30:31  5-MIN K0J4 221630Z AUTO VRB03KT 10SM CLR 17/M07 A3027 0 18 200 VRB/03 RMK AO2 T01671072
63870K0J4 0J420161122113510611/22/16 11:35:31  5-MIN K0J4 221635Z AUTO 11004KT 10SM CLR 17/M08 A3027 0 18 200 110/04 RMK AO2 T01671078
63870K0J4 0J420161122114010611/22/16 11:40:31  5-MIN K0J4 221640Z AUTO VRB03KT 10SM CLR 17/M08 A3026 0 17 300 VRB/03 RMK AO2 T01721078
63870K0J4 0J420161122114510611/22/16 11:45:31  5-MIN K0J4 221645Z AUTO VRB03KT 10SM CLR 17/M07 A3026 0 18 300 VRB/03 RMK AO2 T01721072
63870K0J4 0J420161122115010611/22/16 11:50:31  5-MIN K0J4 221650Z AUTO 14003KT 10SM CLR 17/M07 A3026 0 18 300 140/03 RMK AO2 T01721072
63870K0J4 0J420161122115511311/22/16 11:55:31  5-MIN K0J4 221655Z AUTO 07005KT 10SM CLR 18/M07 A3026 0 17 400 070/05 RMK AO2 SLP246 T01781072
63870K0J4 0J420161122120010711/22/16 12:00:31  5-MIN K0J4 221700Z AUTO VRB04KT 10SM CLR 18/M08 A3026 10 16 400 VRB/04 RMK AO2 T01781078
63870K0J4 0J420161122120510711/22/16 12:05:31  5-MIN K0J4 221705Z AUTO 10005KT 10SM CLR 18/M08 A3025 10 16 400 100/05 RMK AO2 T01781078
63870K0J4 0J420161122121010711/22/16 12:10:31  5-MIN K0J4 221710Z AUTO VRB03KT 10SM CLR 18/M07 A3025 10 17 400 VRB/03 RMK AO2 T01781072
63870K0J4 0J420161122121509711/22/16 12:15:31  5-MIN K0J4 221715Z AUTO 10SM CLR 18/M07 A3025 10 17 400 M /M RMK AO2 T01831072
63870K0J4 0J420161122122010711/22/16 12:20:31  5-MIN K0J4 221720Z AUTO 09004KT 10SM CLR 18/M08 A3025 20 16 500 090/04 RMK AO2 T01831078
63870K0J4 0J420161122122510711/22/16 12:25:31  5-MIN K0J4 221725Z AUTO 04005KT 10SM CLR 19/M08 A3024 20 15 500 040/05 RMK AO2 T01891078
63870K0J4 0J420161122123009711/22/16 12:30:31  5-MIN K0J4 221730Z AUTO 10SM CLR 18/M07 A3024 20 17 500 M /M RMK AO2 T01831072
63870K0J4 0J420161122123510711/22/16 12:35:31  5-MIN K0J4 221735Z AUTO VRB04KT 10SM CLR 19/M07 A3024 20 16 500 VRB/04 RMK AO2 T01891072
63870K0J4 0J420161122124010711/22/16 12:40:31  5-MIN K0J4 221740Z AUTO 09004KT 10SM CLR 19/M07 A3023 30 16 500 090/04 RMK AO2 T01891072
63870K0J4 0J420161122124510711/22/16 12:45:31  5-MIN K0J4 221745Z AUTO 02004KT 10SM CLR 19/M08 A3023 30 15 500 020/04 RMK AO2 T01891078
63870K0J4 0J420161122125009711/22/16 12:50:31  5-MIN K0J4 221750Z AUTO 10SM CLR 19/M08 A3023 30 14 600 M /M RMK AO2 T01941083
63870K0J4 0J420161122125513211/22/16 12:55:31  5-MIN K0J4 221755Z AUTO 04006KT 10SM CLR 19/M08 A3022 40 15 500 040/06 RMK AO2 SLP233 T01891078 10194 21011 50017
63870K0J4 0J420161122130010711/22/16 13:00:31  5-MIN K0J4 221800Z AUTO 02005KT 10SM CLR 19/M08 A3022 40 14 600 020/05 RMK AO2 T01941083
63870K0J4 0J420161122130510711/22/16 13:05:31  5-MIN K0J4 221805Z AUTO 02005KT 10SM CLR 19/M08 A3022 40 15 600 020/05 RMK AO2 T01941078
63870K0J4 0J420161122131010711/22/16 13:10:31  5-MIN K0J4 221810Z AUTO VRB05KT 10SM CLR 19/M08 A3022 40 15 600 VRB/05 RMK AO2 T01941078
63870K0J4 0J420161122131510711/22/16 13:15:31  5-MIN K0J4 221815Z AUTO VRB04KT 10SM CLR 19/M08 A3021 50 14 600 VRB/04 RMK AO2 T01941083
63870K0J4 0J420161122132010711/22/16 13:20:31  5-MIN K0J4 221820Z AUTO 00000KT 10SM CLR 19/M08 A3021 50 15 600 000/00 RMK AO2 T01941078
63870K0J4 0J420161122132510711/22/16 13:25:31  5-MIN K0J4 221825Z AUTO 11004KT 10SM CLR 20/M08 A3021 50 14 700 110/04 RMK AO2 T02001083
63870K0J4 0J420161122133010711/22/16 13:30:31  5-MIN K0J4 221830Z AUTO 00000KT 10SM CLR 19/M09 A3021 50 14 600 000/00 RMK AO2 T01941089
63870K0J4 0J420161122133510711/22/16 13:35:31  5-MIN K0J4 221835Z AUTO VRB04KT 10SM CLR 21/M08 A3020 60 13 800 VRB/04 RMK AO2 T02061083
63870K0J4 0J420161122134010711/22/16 13:40:31  5-MIN K0J4 221840Z AUTO 07007KT 10SM CLR 21/M08 A3020 60 14 800 070/07 RMK AO2 T02061078
63870K0J4 0J420161122134510711/22/16 13:45:31  5-MIN K0J4 221845Z AUTO 00000KT 10SM CLR 20/M08 A3020 60 14 700 000/00 RMK AO2 T02001083
63870K0J4 0J420161122135010711/22/16 13:50:31  5-MIN K0J4 221850Z AUTO VRB03KT 10SM CLR 20/M08 A3020 60 14 700 VRB/03 RMK AO2 T02001083
63870K0J4 0J420161122135511411/22/16 13:55:31  5-MIN K0J4 221855Z AUTO VRB05KT 10SM CLR 21/M08 A3020 60 13 800 VRB/05 RMK AO2 SLP224 T02061083
63870K0J4 0J420161122140010711/22/16 14:00:31  5-MIN K0J4 221900Z AUTO VRB04KT 10SM CLR 21/M09 A3019 60 12 800 VRB/04 RMK AO2 T02061094
63870K0J4 0J420161122140510711/22/16 14:05:31  5-MIN K0J4 221905Z AUTO VRB05KT 10SM CLR 20/M09 A3019 60 13 700 VRB/05 RMK AO2 T02001089
63870K0J4 0J420161122141010711/22/16 14:10:31  5-MIN K0J4 221910Z AUTO VRB04KT 10SM CLR 20/M08 A3019 70 14 700 VRB/04 RMK AO2 T02001083
63870K0J4 0J420161122141510711/22/16 14:15:31  5-MIN K0J4 221915Z AUTO 08005KT 10SM CLR 21/M09 A3019 70 13 800 080/05 RMK AO2 T02061089
63870K0J4 0J420161122142009711/22/16 14:20:31  5-MIN K0J4 221920Z AUTO 10SM CLR 21/M09 A3019 70 13 800 M /M RMK AO2 T02061089
63870K0J4 0J420161122142510711/22/16 14:25:31  5-MIN K0J4 221925Z AUTO VRB03KT 10SM CLR 20/M09 A3019 70 13 700 VRB/03 RMK AO2 T02001094
63870K0J4 0J420161122143010711/22/16 14:30:31  5-MIN K0J4 221930Z AUTO VRB05KT 10SM CLR 21/M09 A3019 70 13 800 VRB/05 RMK AO2 T02061089
63870K0J4 0J420161122143510711/22/16 14:35:31  5-MIN K0J4 221935Z AUTO VRB04KT 10SM CLR 21/M09 A3019 70 12 800 VRB/04 RMK AO2 T02111089
63870K0J4 0J420161122144010711/22/16 14:40:31  5-MIN K0J4 221940Z AUTO VRB05KT 10SM CLR 21/M08 A3019 70 13 800 VRB/05 RMK AO2 T02111083
63870K0J4 0J420161122144510711/22/16 14:45:31  5-MIN K0J4 221945Z AUTO 06006KT 10SM CLR 21/M09 A3019 70 12 800 060/06 RMK AO2 T02111094
63870K0J4 0J420161122145010711/22/16 14:50:31  5-MIN K0J4 221950Z AUTO 00000KT 10SM CLR 21/M11 A3019 70 11 800 000/00 RMK AO2 T02111106
63870K0J4 0J420161122145511411/22/16 14:55:31  5-MIN K0J4 221955Z AUTO VRB03KT 10SM CLR 21/M10 A3019 70 11 800 VRB/03 RMK AO2 SLP220 T02111100
63870K0J4 0J420161122150010711/22/16 15:00:31  5-MIN K0J4 222000Z AUTO 07005KT 10SM CLR 21/M09 A3019 70 12 800 070/05 RMK AO2 T02111089
63870K0J4 0J420161122150509711/22/16 15:05:31  5-MIN K0J4 222005Z AUTO 10SM CLR 21/M09 A3018 70 12 800 M /M RMK AO2 T02111094
63870K0J4 0J420161122151010711/22/16 15:10:31  5-MIN K0J4 222010Z AUTO 06007KT 10SM CLR 21/M09 A3018 80 12 800 060/07 RMK AO2 T02111094
63870K0J4 0J420161122151510711/22/16 15:15:31  5-MIN K0J4 222015Z AUTO 03005KT 10SM CLR 21/M11 A3018 80 11 800 030/05 RMK AO2 T02111106
63870K0J4 0J420161122152010711/22/16 15:20:31  5-MIN K0J4 222020Z AUTO 03004KT 10SM CLR 21/M10 A3018 70 11 800 030/04 RMK AO2 T02111100
63870K0J4 0J420161122152510711/22/16 15:25:31  5-MIN K0J4 222025Z AUTO 09005KT 10SM CLR 22/M09 A3018 70 11 900 090/05 RMK AO2 T02171094
63870K0J4 0J420161122153010711/22/16 15:30:31  5-MIN K0J4 222030Z AUTO 11004KT 10SM CLR 21/M11 A3018 70 10 800 110/04 RMK AO2 T02111111
63870K0J4 0J420161122153510711/22/16 15:35:31  5-MIN K0J4 222035Z AUTO 09003KT 10SM CLR 21/M12 A3018 70 10 800 090/03 RMK AO2 T02111117
63870K0J4 0J420161122154010711/22/16 15:40:31  5-MIN K0J4 222040Z AUTO VRB05KT 10SM CLR 22/M11 A3018 70 10 900 VRB/05 RMK AO2 T02171111
63870K0J4 0J420161122154510711/22/16 15:45:31  5-MIN K0J4 222045Z AUTO 09004KT 10SM CLR 21/M09 A3018 70 12 800 090/04 RMK AO2 T02111094
63870K0J4 0J420161122155010711/22/16 15:50:31  5-MIN K0J4 222050Z AUTO 00000KT 10SM CLR 21/M10 A3018 70 12 800 000/00 RMK AO2 T02061100
63870K0J4 0J420161122155512011/22/16 15:55:31  5-MIN K0J4 222055Z AUTO VRB04KT 10SM CLR 21/M10 A3018 70 11 800 VRB/04 RMK AO2 SLP219 T02111100 58017
63870K0J4 0J420161122160010711/22/16 16:00:31  5-MIN K0J4 222100Z AUTO VRB04KT 10SM CLR 21/M09 A3018 70 12 800 VRB/04 RMK AO2 T02111094
63870K0J4 0J420161122160510711/22/16 16:05:31  5-MIN K0J4 222105Z AUTO 09004KT 10SM CLR 21/M09 A3018 70 12 800 090/04 RMK AO2 T02061094
63870K0J4 0J420161122161010711/22/16 16:10:31  5-MIN K0J4 222110Z AUTO 00000KT 10SM CLR 21/M09 A3019 70 12 800 000/00 RMK AO2 T02111094
63870K0J4 0J420161122161510711/22/16 16:15:31  5-MIN K0J4 222115Z AUTO 00000KT 10SM CLR 21/M10 A3019 70 12 800 000/00 RMK AO2 T02061100
63870K0J4 0J420161122162010711/22/16 16:20:31  5-MIN K0J4 222120Z AUTO 11005KT 10SM CLR 21/M09 A3019 70 12 800 110/05 RMK AO2 T02061094
63870K0J4 0J420161122162510711/22/16 16:25:31  5-MIN K0J4 222125Z AUTO 12003KT 10SM CLR 21/M10 A3019 70 12 800 120/03 RMK AO2 T02061100
63870K0J4 0J420161122163010711/22/16 16:30:31  5-MIN K0J4 222130Z AUTO 12003KT 10SM CLR 21/M10 A3019 70 12 800 120/03 RMK AO2 T02061100
63870K0J4 0J420161122163510711/22/16 16:35:31  5-MIN K0J4 222135Z AUTO 13003KT 10SM CLR 21/M10 A3019 70 12 800 130/03 RMK AO2 T02061100
63870K0J4 0J420161122164010711/22/16 16:40:31  5-MIN K0J4 222140Z AUTO 08004KT 10SM CLR 21/M10 A3019 70 12 800 080/04 RMK AO2 T02061100
63870K0J4 0J420161122164510711/22/16 16:45:31  5-MIN K0J4 222145Z AUTO 08003KT 10SM CLR 21/M09 A3019 70 12 800 080/03 RMK AO2 T02061094
63870K0J4 0J420161122165010711/22/16 16:50:31  5-MIN K0J4 222150Z AUTO 08005KT 10SM CLR 20/M09 A3019 70 13 700 080/05 RMK AO2 T02001089
63870K0J4 0J420161122165511411/22/16 16:55:31  5-MIN K0J4 222155Z AUTO 09004KT 10SM CLR 20/M09 A3019 70 13 700 090/04 RMK AO2 SLP222 T02001094
63870K0J4 0J420161122170010711/22/16 17:00:31  5-MIN K0J4 222200Z AUTO 09003KT 10SM CLR 19/M09 A3019 70 13 600 090/03 RMK AO2 T01941094
63870K0J4 0J420161122170510711/22/16 17:05:31  5-MIN K0J4 222205Z AUTO 11003KT 10SM CLR 19/M09 A3019 70 13 600 110/03 RMK AO2 T01941094
63870K0J4 0J420161122171010711/22/16 17:10:31  5-MIN K0J4 222210Z AUTO 09003KT 10SM CLR 19/M09 A3019 70 14 600 090/03 RMK AO2 T01941089
63870K0J4 0J420161122171510711/22/16 17:15:31  5-MIN K0J4 222215Z AUTO 09003KT 10SM CLR 19/M08 A3019 70 15 600 090/03 RMK AO2 T01891083
63870K0J4 0J420161122172010711/22/16 17:20:31  5-MIN K0J4 222220Z AUTO 00000KT 10SM CLR 18/M08 A3019 70 16 500 000/00 RMK AO2 T01831078
63870K0J4 0J420161122172510711/22/16 17:25:31  5-MIN K0J4 222225Z AUTO 00000KT 10SM CLR 18/M07 A3019 70 17 500 000/00 RMK AO2 T01781072
63870K0J4 0J420161122173010711/22/16 17:30:31  5-MIN K0J4 222230Z AUTO 00000KT 10SM CLR 17/M07 A3019 70 18 400 000/00 RMK AO2 T01721072
63870K0J4 0J420161122173510711/22/16 17:35:31  5-MIN K0J4 222235Z AUTO 00000KT 10SM CLR 16/M07 A3019 60 19 200 000/00 RMK AO2 T01611072
63870K0J4 0J420161122174010711/22/16 17:40:31  5-MIN K0J4 222240Z AUTO 00000KT 10SM CLR 14/M06 A3020 60 23 100 000/00 RMK AO2 T01441061
63870K0J4 0J420161122174510511/22/16 17:45:31  5-MIN K0J4 222245Z AUTO 00000KT 10SM CLR 14/M06 A3020 60 25 0 000/00 RMK AO2 T01391056
63870K0J4 0J420161122175010511/22/16 17:50:31  5-MIN K0J4 222250Z AUTO 00000KT 10SM CLR 14/M06 A3020 60 25 0 000/00 RMK AO2 T01391056
63870K0J4 0J420161122175511511/22/16 17:55:31  5-MIN K0J4 222255Z AUTO 00000KT 10SM CLR 13/M04 A3020 60 30 -100 000/00 RMK AO2 SLP227 T01281044
63870K0J4 0J420161122180010811/22/16 18:00:31  5-MIN K0J4 222300Z AUTO 00000KT 10SM CLR 12/M03 A3020 60 35 -200 000/00 RMK AO2 T01171033
63870K0J4 0J420161122180510811/22/16 18:05:31  5-MIN K0J4 222305Z AUTO 00000KT 10SM CLR 12/M03 A3020 60 35 -200 000/00 RMK AO2 T01171033
63870K0J4 0J420161122181010811/22/16 18:10:31  5-MIN K0J4 222310Z AUTO 00000KT 10SM CLR 11/M03 A3020 60 37 -300 000/00 RMK AO2 T01111028
63870K0J4 0J420161122181510811/22/16 18:15:31  5-MIN K0J4 222315Z AUTO 00000KT 10SM CLR 11/M02 A3020 50 39 -300 000/00 RMK AO2 T01111022
63870K0J4 0J420161122182010811/22/16 18:20:31  5-MIN K0J4 222320Z AUTO 00000KT 10SM CLR 11/M03 A3021 50 39 -400 000/00 RMK AO2 T01061028
63870K0J4 0J420161122182510811/22/16 18:25:31  5-MIN K0J4 222325Z AUTO 00000KT 10SM CLR 10/M03 A3021 50 40 -400 000/00 RMK AO2 T01001028
63870K0J4 0J420161122183010811/22/16 18:30:31  5-MIN K0J4 222330Z AUTO 00000KT 10SM CLR 10/M03 A3021 50 39 -500 000/00 RMK AO2 T01001033
63870K0J4 0J420161122183510811/22/16 18:35:31  5-MIN K0J4 222335Z AUTO 00000KT 10SM CLR 09/M03 A3021 50 42 -500 000/00 RMK AO2 T00941028
63870K0J4 0J420161122184010811/22/16 18:40:31  5-MIN K0J4 222340Z AUTO 00000KT 10SM CLR 09/M02 A3022 40 45 -600 000/00 RMK AO2 T00891022
63870K0J4 0J420161122184510811/22/16 18:45:31  5-MIN K0J4 222345Z AUTO 00000KT 10SM CLR 09/M02 A3022 40 45 -500 000/00 RMK AO2 T00941017
63870K0J4 0J420161122185010811/22/16 18:50:31  5-MIN K0J4 222350Z AUTO 00000KT 10SM CLR 09/M01 A3022 40 49 -600 000/00 RMK AO2 T00891011
63870K0J4 0J420161122185513311/22/16 18:55:31  5-MIN K0J4 222355Z AUTO 00000KT 10SM CLR 09/M02 A3022 40 47 -600 000/00 RMK AO2 SLP234 T00891017 10217 20089 56013
63870K0J4 0J420161122190010811/22/16 19:00:31  5-MIN K0J4 230000Z AUTO 00000KT 10SM CLR 08/M02 A3022 40 47 -700 000/00 RMK AO2 T00831022
63870K0J4 0J420161122190510811/22/16 19:05:31  5-MIN K0J4 230005Z AUTO 00000KT 10SM CLR 08/M02 A3022 40 49 -700 000/00 RMK AO2 T00831017
63870K0J4 0J420161122191010811/22/16 19:10:31  5-MIN K0J4 230010Z AUTO 00000KT 10SM CLR 08/M02 A3022 40 49 -700 000/00 RMK AO2 T00781022
63870K0J4 0J420161122191510811/22/16 19:15:31  5-MIN K0J4 230015Z AUTO 00000KT 10SM CLR 09/M03 A3023 30 43 -600 000/00 RMK AO2 T00891028
63870K0J4 0J420161122192010811/22/16 19:20:31  5-MIN K0J4 230020Z AUTO 00000KT 10SM CLR 08/M03 A3022 40 47 -700 000/00 RMK AO2 T00781028
63870K0J4 0J420161122192510811/22/16 19:25:31  5-MIN K0J4 230025Z AUTO 00000KT 10SM CLR 07/M02 A3022 40 51 -800 000/00 RMK AO2 T00721022
63870K0J4 0J420161122193010811/22/16 19:30:31  5-MIN K0J4 230030Z AUTO 00000KT 10SM CLR 07/M02 A3023 40 51 -800 000/00 RMK AO2 T00721022
63870K0J4 0J420161122194006311/22/16 19:40:31  5-MIN K0J4 230040Z AUTO M M M M /M RMK AO2 $
63870K0J4 0J420161122194507911/22/16 19:45:31  5-MIN K0J4 230045Z AUTO 00000KT A3023 M M M 000/00 RMK AO2 $
63870K0J4 0J420161122195010611/22/16 19:50:31  5-MIN K0J4 230050Z AUTO 00000KT 10SM 07/M02 A3023 30 55 -900 000/00 RMK AO2 T00671017 $
63870K0J4 0J420161122195511311/22/16 19:55:31  5-MIN K0J4 230055Z AUTO 00000KT 10SM 07/M02 A3023 30 53 -900 000/00 RMK AO2 SLP238 T00671022 $
63870K0J4 0J420161122200010611/22/16 20:00:31  5-MIN K0J4 230100Z AUTO 00000KT 10SM 07/M03 A3023 30 47 -800 000/00 RMK AO2 T00721033 $
63870K0J4 0J420161122200510611/22/16 20:05:31  5-MIN K0J4 230105Z AUTO 00000KT 10SM 07/M03 A3023 30 51 -900 000/00 RMK AO2 T00671028 $
63870K0J4 0J420161122201011011/22/16 20:10:31  5-MIN K0J4 230110Z AUTO 00000KT 10SM CLR 06/M02 A3023 30 55 -900 000/00 RMK AO2 T00611022 $
63870K0J4 0J420161122201511111/22/16 20:15:31  5-MIN K0J4 230115Z AUTO 00000KT 10SM CLR 06/M02 A3023 30 57 -1000 000/00 RMK AO2 T00561022 $
63870K0J4 0J420161122202011011/22/16 20:20:31  5-MIN K0J4 230120Z AUTO 00000KT 10SM CLR 06/M03 A3023 30 53 -900 000/00 RMK AO2 T00611028 $
63870K0J4 0J420161122202511111/22/16 20:25:31  5-MIN K0J4 230125Z AUTO 00000KT 10SM CLR 06/M03 A3023 30 55 -1000 000/00 RMK AO2 T00561028 $
63870K0J4 0J420161122203011111/22/16 20:30:31  5-MIN K0J4 230130Z AUTO 00000KT 10SM CLR 06/M03 A3023 30 55 -1000 000/00 RMK AO2 T00561028 $
63870K0J4 0J420161122203511111/22/16 20:35:31  5-MIN K0J4 230135Z AUTO 00000KT 10SM CLR 06/M03 A3023 30 55 -1000 000/00 RMK AO2 T00561028 $
63870K0J4 0J420161122204011111/22/16 20:40:31  5-MIN K0J4 230140Z AUTO 00000KT 10SM CLR 06/M02 A3023 30 57 -1000 000/00 RMK AO2 T00561022 $
63870K0J4 0J420161122204511111/22/16 20:45:31  5-MIN K0J4 230145Z AUTO 00000KT 10SM CLR 06/M02 A3023 30 57 -1000 000/00 RMK AO2 T00561022 $
63870K0J4 0J420161122205011111/22/16 20:50:31  5-MIN K0J4 230150Z AUTO 00000KT 10SM CLR 06/M02 A3024 30 57 -1000 000/00 RMK AO2 T00561022 $
63870K0J4 0J420161122205511811/22/16 20:55:31  5-MIN K0J4 230155Z AUTO 00000KT 10SM CLR 05/M02 A3024 20 59 -1100 000/00 RMK AO2 SLP238 T00501022 $
63870K0J4 0J420161122210011111/22/16 21:00:31  5-MIN K0J4 230200Z AUTO 00000KT 10SM CLR 04/M02 A3024 20 62 -1200 000/00 RMK AO2 T00441022 $
63870K0J4 0J420161122210511111/22/16 21:05:31  5-MIN K0J4 230205Z AUTO 00000KT 10SM CLR 05/M02 A3024 20 59 -1100 000/00 RMK AO2 T00501022 $
63870K0J4 0J420161122211011111/22/16 21:10:31  5-MIN K0J4 230210Z AUTO 00000KT 10SM CLR 05/M02 A3024 20 59 -1100 000/00 RMK AO2 T00501022 $
63870K0J4 0J420161122211511111/22/16 21:15:31  5-MIN K0J4 230215Z AUTO 00000KT 10SM CLR 05/M02 A3024 20 59 -1100 000/00 RMK AO2 T00501022 $
63870K0J4 0J420161122212011111/22/16 21:20:31  5-MIN K0J4 230220Z AUTO 00000KT 10SM CLR 05/M02 A3024 20 59 -1100 000/00 RMK AO2 T00501022 $
63870K0J4 0J420161122212511111/22/16 21:25:31  5-MIN K0J4 230225Z AUTO 00000KT 10SM CLR 05/M03 A3024 20 57 -1100 000/00 RMK AO2 T00501028 $
63870K0J4 0J420161122213011111/22/16 21:30:31  5-MIN K0J4 230230Z AUTO 00000KT 10SM CLR 04/M02 A3024 20 62 -1200 000/00 RMK AO2 T00441022 $
63870K0J4 0J420161122213511111/22/16 21:35:31  5-MIN K0J4 230235Z AUTO 00000KT 10SM CLR 04/M02 A3024 20 64 -1200 000/00 RMK AO2 T00441017 $
63870K0J4 0J420161122214011111/22/16 21:40:31  5-MIN K0J4 230240Z AUTO 00000KT 10SM CLR 04/M02 A3024 30 64 -1200 000/00 RMK AO2 T00391022 $
63870K0J4 0J420161122214511111/22/16 21:45:31  5-MIN K0J4 230245Z AUTO 00000KT 10SM CLR 05/M02 A3024 30 59 -1100 000/00 RMK AO2 T00501022 $
63870K0J4 0J420161122215011111/22/16 21:50:31  5-MIN K0J4 230250Z AUTO 00000KT 10SM CLR 06/M03 A3023 30 55 -1000 000/00 RMK AO2 T00561028 $
63870K0J4 0J420161122215511811/22/16 21:55:31  5-MIN K0J4 230255Z AUTO 00000KT 10SM CLR 04/M02 A3023 30 62 -1200 000/00 RMK AO2 SLP237 T00441022 $
63870K0J4 0J420161122220011111/22/16 22:00:31  5-MIN K0J4 230300Z AUTO 00000KT 10SM CLR 04/M02 A3023 30 62 -1200 000/00 RMK AO2 T00441022 $
63870K0J4 0J420161122220511111/22/16 22:05:31  5-MIN K0J4 230305Z AUTO 00000KT 10SM CLR 06/M03 A3024 30 53 -1000 000/00 RMK AO2 T00561033 $
63870K0J4 0J420161122221011111/22/16 22:10:31  5-MIN K0J4 230310Z AUTO 00000KT 10SM CLR 04/M03 A3023 30 59 -1200 000/00 RMK AO2 T00441028 $
63870K0J4 0J420161122221511111/22/16 22:15:31  5-MIN K0J4 230315Z AUTO 00000KT 10SM CLR 04/M02 A3024 30 62 -1200 000/00 RMK AO2 T00441022 $
63870K0J4 0J420161122222011111/22/16 22:20:31  5-MIN K0J4 230320Z AUTO 00000KT 10SM CLR 04/M02 A3024 20 62 -1200 000/00 RMK AO2 T00441022 $
63870K0J4 0J420161122222511111/22/16 22:25:31  5-MIN K0J4 230325Z AUTO 00000KT 10SM CLR 04/M02 A3024 20 62 -1200 000/00 RMK AO2 T00441022 $
63870K0J4 0J420161122223011111/22/16 22:30:31  5-MIN K0J4 230330Z AUTO 00000KT 10SM CLR 04/M02 A3024 20 62 -1200 000/00 RMK AO2 T00441022 $
63870K0J4 0J420161122223511111/22/16 22:35:31  5-MIN K0J4 230335Z AUTO 00000KT 10SM CLR 03/M02 A3024 20 67 -1300 000/00 RMK AO2 T00331022 $
63870K0J4 0J420161122224011111/22/16 22:40:31  5-MIN K0J4 230340Z AUTO 00000KT 10SM CLR 04/M02 A3024 20 64 -1200 000/00 RMK AO2 T00391022 $
63870K0J4 0J420161122224511111/22/16 22:45:31  5-MIN K0J4 230345Z AUTO 00000KT 10SM CLR 04/M02 A3024 20 62 -1200 000/00 RMK AO2 T00441022 $
63870K0J4 0J420161122225011111/22/16 22:50:31  5-MIN K0J4 230350Z AUTO 00000KT 10SM CLR 04/M02 A3024 20 62 -1200 000/00 RMK AO2 T00441022 $
63870K0J4 0J420161122225511811/22/16 22:55:31  5-MIN K0J4 230355Z AUTO 00000KT 10SM CLR 03/M02 A3023 30 70 -1300 000/00 RMK AO2 SLP237 T00331017 $
63870K0J4 0J420161122230011111/22/16 23:00:31  5-MIN K0J4 230400Z AUTO 00000KT 10SM CLR 04/M02 A3023 30 64 -1200 000/00 RMK AO2 T00391022 $
63870K0J4 0J420161122230511111/22/16 23:05:31  5-MIN K0J4 230405Z AUTO 00000KT 10SM CLR 04/M03 A3023 30 59 -1200 000/00 RMK AO2 T00441028 $
63870K0J4 0J420161122231011111/22/16 23:10:31  5-MIN K0J4 230410Z AUTO 00000KT 10SM CLR 04/M03 A3023 30 59 -1200 000/00 RMK AO2 T00441028 $
63870K0J4 0J420161122231511111/22/16 23:15:31  5-MIN K0J4 230415Z AUTO 00000KT 10SM CLR 04/M03 A3023 30 59 -1200 000/00 RMK AO2 T00441028 $
63870K0J4 0J420161122232011111/22/16 23:20:31  5-MIN K0J4 230420Z AUTO 00000KT 10SM CLR 04/M02 A3023 30 62 -1200 000/00 RMK AO2 T00441022 $
63870K0J4 0J420161122232511111/22/16 23:25:31  5-MIN K0J4 230425Z AUTO 00000KT 10SM CLR 04/M02 A3023 30 64 -1200 000/00 RMK AO2 T00391022 $
63870K0J4 0J420161122233011111/22/16 23:30:31  5-MIN K0J4 230430Z AUTO 00000KT 10SM CLR 04/M02 A3023 30 64 -1200 000/00 RMK AO2 T00391022 $
63870K0J4 0J420161122233511111/22/16 23:35:31  5-MIN K0J4 230435Z AUTO 15003KT 10SM CLR 03/M02 A3022 40 67 -1300 150/03 RMK AO2 T00331022 $
63870K0J4 0J420161122234011111/22/16 23:40:31  5-MIN K0J4 230440Z AUTO 15003KT 10SM CLR 03/M03 A3022 40 64 -1300 150/03 RMK AO2 T00331028 $
63870K0J4 0J420161122234511111/22/16 23:45:31  5-MIN K0J4 230445Z AUTO 16003KT 10SM CLR 05/M03 A3022 40 55 -1100 160/03 RMK AO2 T00501033 $
63870K0J4 0J420161122235011011/22/16 23:50:31  5-MIN K0J4 230450Z AUTO 17003KT 10SM CLR 06/M04 A3022 40 48 -900 170/03 RMK AO2 T00611039 $
63870K0J4 0J420161122235512811/22/16 23:55:31  5-MIN K0J4 230455Z AUTO 00000KT 10SM CLR 04/M03 A3022 40 62 -1200 000/00 RMK AO2 SLP232 T00391028 402171017 $
63870K0J4 0J420161123000011111/23/16 00:00:31  5-MIN K0J4 230500Z AUTO 00000KT 10SM CLR 04/M03 A3022 40 57 -1100 000/00 RMK AO2 T00441033 $
63870K0J4 0J420161123000511111/23/16 00:05:31  5-MIN K0J4 230505Z AUTO 00000KT 10SM CLR 04/M03 A3022 40 59 -1100 000/00 RMK AO2 T00441028 $
63870K0J4 0J420161123001011111/23/16 00:10:31  5-MIN K0J4 230510Z AUTO 00000KT 10SM CLR 05/M03 A3022 40 57 -1100 000/00 RMK AO2 T00501028 $
63870K0J4 0J420161123001511111/23/16 00:15:31  5-MIN K0J4 230515Z AUTO 00000KT 10SM CLR 04/M03 A3022 40 59 -1100 000/00 RMK AO2 T00441028 $
63870K0J4 0J420161123002011111/23/16 00:20:31  5-MIN K0J4 230520Z AUTO 00000KT 10SM CLR 04/M02 A3022 40 62 -1100 000/00 RMK AO2 T00441022 $
63870K0J4 0J420161123002511111/23/16 00:25:31  5-MIN K0J4 230525Z AUTO 00000KT 10SM CLR 04/M03 A3022 40 59 -1100 000/00 RMK AO2 T00441028 $
63870K0J4 0J420161123003011111/23/16 00:30:31  5-MIN K0J4 230530Z AUTO 00000KT 10SM CLR 04/M03 A3022 40 59 -1100 000/00 RMK AO2 T00441028 $
63870K0J4 0J420161123003511111/23/16 00:35:31  5-MIN K0J4 230535Z AUTO 00000KT 10SM CLR 04/M03 A3022 40 59 -1100 000/00 RMK AO2 T00441028 $
63870K0J4 0J420161123004011111/23/16 00:40:31  5-MIN K0J4 230540Z AUTO 11003KT 10SM CLR 05/M03 A3021 50 57 -1100 110/03 RMK AO2 T00501028 $
63870K0J4 0J420161123004511111/23/16 00:45:31  5-MIN K0J4 230545Z AUTO 11003KT 10SM CLR 06/M03 A3021 50 53 -1000 110/03 RMK AO2 T00561033 $
63870K0J4 0J420161123005011011/23/16 00:50:31  5-MIN K0J4 230550Z AUTO 12003KT 10SM CLR 08/M04 A3021 50 41 -700 120/03 RMK AO2 T00781044 $
63870K0J4 0J420161123005512911/23/16 00:55:31  5-MIN K0J4 230555Z AUTO 00000KT 10SM CLR 08/M04 A3021 50 40 -700 000/00 RMK AO2 SLP229 T00831044 10089 20033 $
63870K0J4 0J420161123010011011/23/16 01:00:31  5-MIN K0J4 230600Z AUTO 00000KT 10SM CLR 09/M05 A3021 50 37 -600 000/00 RMK AO2 T00891050 $
63870K0J4 0J420161123010511011/23/16 01:05:31  5-MIN K0J4 230605Z AUTO 00000KT 10SM CLR 07/M03 A3021 50 47 -800 000/00 RMK AO2 T00721033 $
63870K0J4 0J420161123011011011/23/16 01:10:31  5-MIN K0J4 230610Z AUTO 00000KT 10SM CLR 06/M03 A3021 50 53 -900 000/00 RMK AO2 T00611028 $
63870K0J4 0J420161123011511111/23/16 01:15:31  5-MIN K0J4 230615Z AUTO 12003KT 10SM CLR 05/M02 A3021 50 59 -1100 120/03 RMK AO2 T00501022 $
63870K0J4 0J420161123012011111/23/16 01:20:31  5-MIN K0J4 230620Z AUTO 13003KT 10SM CLR 05/M02 A3021 50 59 -1100 130/03 RMK AO2 T00501022 $
63870K0J4 0J420161123012511011/23/16 01:25:31  5-MIN K0J4 230625Z AUTO 00000KT 10SM CLR 06/M03 A3021 50 53 -900 000/00 RMK AO2 T00611028 $
63870K0J4 0J420161123013011111/23/16 01:30:31  5-MIN K0J4 230630Z AUTO 00000KT 10SM CLR 06/M02 A3020 50 57 -1000 000/00 RMK AO2 T00561022 $
63870K0J4 0J420161123013511111/23/16 01:35:31  5-MIN K0J4 230635Z AUTO 00000KT 10SM CLR 05/M02 A3020 60 59 -1100 000/00 RMK AO2 T00501022 $
63870K0J4 0J420161123014011111/23/16 01:40:31  5-MIN K0J4 230640Z AUTO 00000KT 10SM CLR 06/M02 A3020 60 57 -1000 000/00 RMK AO2 T00561022 $
63870K0J4 0J420161123014511111/23/16 01:45:31  5-MIN K0J4 230645Z AUTO 00000KT 10SM CLR 06/M02 A3020 60 57 -1000 000/00 RMK AO2 T00561022 $
63870K0J4 0J420161123015011011/23/16 01:50:31  5-MIN K0J4 230650Z AUTO 00000KT 10SM CLR 06/M02 A3020 60 55 -900 000/00 RMK AO2 T00611022 $
63870K0J4 0J420161123015511811/23/16 01:55:31  5-MIN K0J4 230655Z AUTO 00000KT 10SM CLR 06/M03 A3020 60 55 -1000 000/00 RMK AO2 SLP225 T00561028 $
63870K0J4 0J420161123020011111/23/16 02:00:31  5-MIN K0J4 230700Z AUTO 00000KT 10SM CLR 05/M02 A3020 60 59 -1000 000/00 RMK AO2 T00501022 $
63870K0J4 0J420161123020511111/23/16 02:05:31  5-MIN K0J4 230705Z AUTO 00000KT 10SM CLR 05/M02 A3020 60 59 -1000 000/00 RMK AO2 T00501022 $
63870K0J4 0J420161123021011111/23/16 02:10:31  5-MIN K0J4 230710Z AUTO 00000KT 10SM CLR 04/M02 A3019 70 64 -1100 000/00 RMK AO2 T00441017 $
63870K0J4 0J420161123021511111/23/16 02:15:31  5-MIN K0J4 230715Z AUTO 00000KT 10SM CLR 04/M02 A3019 70 64 -1100 000/00 RMK AO2 T00441017 $
63870K0J4 0J420161123022011111/23/16 02:20:31  5-MIN K0J4 230720Z AUTO 00000KT 10SM CLR 04/M02 A3019 70 62 -1100 000/00 RMK AO2 T00441022 $
63870K0J4 0J420161123022511111/23/16 02:25:31  5-MIN K0J4 230725Z AUTO 00000KT 10SM CLR 04/M02 A3019 70 62 -1100 000/00 RMK AO2 T00441022 $
63870K0J4 0J420161123023011111/23/16 02:30:31  5-MIN K0J4 230730Z AUTO 00000KT 10SM CLR 05/M02 A3019 70 59 -1000 000/00 RMK AO2 T00501022 $
63870K0J4 0J420161123023511111/23/16 02:35:31  5-MIN K0J4 230735Z AUTO 00000KT 10SM CLR 05/M02 A3019 70 59 -1000 000/00 RMK AO2 T00501022 $
63870K0J4 0J420161123024011111/23/16 02:40:31  5-MIN K0J4 230740Z AUTO 00000KT 10SM CLR 04/M02 A3019 70 62 -1100 000/00 RMK AO2 T00441022 $
63870K0J4 0J420161123024511111/23/16 02:45:31  5-MIN K0J4 230745Z AUTO 00000KT 10SM CLR 04/M02 A3019 70 62 -1100 000/00 RMK AO2 T00441022 $
63870K0J4 0J420161123025011111/23/16 02:50:31  5-MIN K0J4 230750Z AUTO 00000KT 10SM CLR 04/M02 A3019 70 62 -1100 000/00 RMK AO2 T00441022 $
63870K0J4 0J420161123025511811/23/16 02:55:31  5-MIN K0J4 230755Z AUTO 00000KT 10SM CLR 05/M02 A3019 70 59 -1000 000/00 RMK AO2 SLP221 T00501022 $
63870K0J4 0J420161123030011111/23/16 03:00:31  5-MIN K0J4 230800Z AUTO 00000KT 10SM CLR 05/M02 A3019 70 59 -1000 000/00 RMK AO2 T00501022 $
63870K0J4 0J420161123030511111/23/16 03:05:31  5-MIN K0J4 230805Z AUTO 00000KT 10SM CLR 04/M02 A3019 70 64 -1100 000/00 RMK AO2 T00441017 $
63870K0J4 0J420161123031011111/23/16 03:10:31  5-MIN K0J4 230810Z AUTO 00000KT 10SM CLR 04/M02 A3019 70 64 -1100 000/00 RMK AO2 T00441017 $
63870K0J4 0J420161123031511111/23/16 03:15:31  5-MIN K0J4 230815Z AUTO 00000KT 10SM CLR 06/M02 A3019 70 57 -1000 000/00 RMK AO2 T00561022 $
63870K0J4 0J420161123032011011/23/16 03:20:31  5-MIN K0J4 230820Z AUTO 10003KT 10SM CLR 07/M03 A3019 70 51 -800 100/03 RMK AO2 T00671028 $
63870K0J4 0J420161123032511011/23/16 03:25:31  5-MIN K0J4 230825Z AUTO 10003KT 10SM CLR 07/M03 A3019 70 47 -800 100/03 RMK AO2 T00721033 $
63870K0J4 0J420161123033011011/23/16 03:30:31  5-MIN K0J4 230830Z AUTO 00000KT 10SM CLR 07/M03 A3019 60 49 -800 000/00 RMK AO2 T00721028 $
63870K0J4 0J420161123033511011/23/16 03:35:31  5-MIN K0J4 230835Z AUTO 00000KT 10SM CLR 07/M03 A3019 60 51 -800 000/00 RMK AO2 T00671028 $
63870K0J4 0J420161123034011011/23/16 03:40:31  5-MIN K0J4 230840Z AUTO 00000KT 10SM CLR 07/M02 A3020 60 53 -800 000/00 RMK AO2 T00671022 $
63870K0J4 0J420161123034511011/23/16 03:45:31  5-MIN K0J4 230845Z AUTO 00000KT 10SM CLR 07/M03 A3020 60 51 -800 000/00 RMK AO2 T00671028 $
63870K0J4 0J420161123035011011/23/16 03:50:31  5-MIN K0J4 230850Z AUTO 00000KT 10SM CLR 07/M03 A3020 60 51 -800 000/00 RMK AO2 T00671028 $
63870K0J4 0J420161123035512311/23/16 03:55:31  5-MIN K0J4 230855Z AUTO 00000KT 10SM CLR 06/M02 A3020 60 55 -900 000/00 RMK AO2 SLP224 T00611022 58007 $
63870K0J4 0J420161123040011011/23/16 04:00:31  5-MIN K0J4 230900Z AUTO 00000KT 10SM CLR 06/M02 A3020 60 55 -900 000/00 RMK AO2 T00611022 $
63870K0J4 0J420161123040511011/23/16 04:05:31  5-MIN K0J4 230905Z AUTO 00000KT 10SM CLR 07/M03 A3020 60 51 -800 000/00 RMK AO2 T00671028 $
63870K0J4 0J420161123041011111/23/16 04:10:31  5-MIN K0J4 230910Z AUTO 00000KT 10SM CLR 06/M02 A3020 60 59 -1000 000/00 RMK AO2 T00561017 $
63870K0J4 0J420161123041511111/23/16 04:15:31  5-MIN K0J4 230915Z AUTO 00000KT 10SM CLR 05/M01 A3020 60 64 -1000 000/00 RMK AO2 T00501011 $
63870K0J4 0J420161123042011111/23/16 04:20:31  5-MIN K0J4 230920Z AUTO 00000KT 10SM CLR 05/M01 A3020 60 64 -1000 000/00 RMK AO2 T00501011 $
63870K0J4 0J420161123042511111/23/16 04:25:31  5-MIN K0J4 230925Z AUTO 00000KT 10SM CLR 05/M01 A3020 60 64 -1000 000/00 RMK AO2 T00501011 $
63870K0J4 0J420161123043011111/23/16 04:30:31  5-MIN K0J4 230930Z AUTO 08003KT 10SM CLR 05/M01 A3020 60 64 -1000 080/03 RMK AO2 T00501011 $
63870K0J4 0J420161123043512711/23/16 04:35:31  5-MIN K0J4 230935Z AUTO 09004KT 10SM -RA CLR 06/M02 A3019 60 59 -1000 090/04 RMK AO2 RAB32 P0000 T00561017 $
63870K0J4 0J420161123044012611/23/16 04:40:31  5-MIN K0J4 230940Z AUTO 09004KT 10SM -RA CLR 06/M02 A3019 60 55 -900 090/04 RMK AO2 RAB32 P0000 T00611022 $
63870K0J4 0J420161123044512611/23/16 04:45:31  5-MIN K0J4 230945Z AUTO 09004KT 10SM -RA CLR 06/M03 A3019 60 53 -900 090/04 RMK AO2 RAB32 P0000 T00611028 $
63870K0J4 0J420161123045012511/23/16 04:50:31  5-MIN K0J4 230950Z AUTO 09003KT 10SM CLR 06/M03 A3019 70 53 -900 090/03 RMK AO2 RAB32E46 P0000 T00611028 $
63870K0J4 0J420161123045513211/23/16 04:55:31  5-MIN K0J4 230955Z AUTO 09003KT 10SM CLR 07/M03 A3019 60 51 -800 090/03 RMK AO2 RAB32E46 SLP223 P0000 T00671028 $
63870K0J4 0J420161123050011011/23/16 05:00:31  5-MIN K0J4 231000Z AUTO 00000KT 10SM CLR 07/M03 A3019 60 51 -800 000/00 RMK AO2 T00671028 $
63870K0J4 0J420161123050511011/23/16 05:05:31  5-MIN K0J4 231005Z AUTO 07003KT 10SM CLR 07/M03 A3020 60 51 -800 070/03 RMK AO2 T00671028 $
63870K0J4 0J420161123051011011/23/16 05:10:31  5-MIN K0J4 231010Z AUTO 07003KT 10SM CLR 07/M03 A3020 60 51 -800 070/03 RMK AO2 T00671028 $
63870K0J4 0J420161123051511011/23/16 05:15:31  5-MIN K0J4 231015Z AUTO 00000KT 10SM CLR 06/M02 A3020 60 55 -900 000/00 RMK AO2 T00611022 $
63870K0J4 0J420161123052011011/23/16 05:20:31  5-MIN K0J4 231020Z AUTO 08003KT 10SM CLR 06/M02 A3020 60 55 -900 080/03 RMK AO2 T00611022 $
63870K0J4 0J420161123052511011/23/16 05:25:31  5-MIN K0J4 231025Z AUTO 08004KT 10SM CLR 06/M02 A3020 60 55 -900 080/04 RMK AO2 T00611022 $
63870K0J4 0J420161123053011011/23/16 05:30:31  5-MIN K0J4 231030Z AUTO 09003KT 10SM CLR 07/M02 A3020 60 55 -800 090/03 RMK AO2 T00671017 $
63870K0J4 0J420161123053511011/23/16 05:35:31  5-MIN K0J4 231035Z AUTO 00000KT 10SM CLR 07/M02 A3019 60 55 -800 000/00 RMK AO2 T00671017 $
63870K0J4 0J420161123054011011/23/16 05:40:31  5-MIN K0J4 231040Z AUTO 00000KT 10SM CLR 07/M02 A3020 60 55 -800 000/00 RMK AO2 T00671017 $
63870K0J4 0J420161123054511011/23/16 05:45:31  5-MIN K0J4 231045Z AUTO 00000KT 10SM CLR 07/M02 A3020 60 53 -800 000/00 RMK AO2 T00671022 $
63870K0J4 0J420161123055011011/23/16 05:50:31  5-MIN K0J4 231050Z AUTO 08003KT 10SM CLR 07/M02 A3020 60 51 -800 080/03 RMK AO2 T00721022 $
63870K0J4 0J420161123055511711/23/16 05:55:31  5-MIN K0J4 231055Z AUTO 00000KT 10SM CLR 07/M02 A3020 60 55 -800 000/00 RMK AO2 SLP225 T00671017 $
63870K0J4 0J420161123060011011/23/16 06:00:31  5-MIN K0J4 231100Z AUTO 08003KT 10SM CLR 07/M02 A3020 60 55 -800 080/03 RMK AO2 T00671017 $
63870K0J4 0J420161123060511011/23/16 06:05:31  5-MIN K0J4 231105Z AUTO 00000KT 10SM CLR 07/M02 A3020 60 55 -800 000/00 RMK AO2 T00671017 $
63870K0J4 0J420161123061011011/23/16 06:10:31  5-MIN K0J4 231110Z AUTO 00000KT 10SM CLR 07/M02 A3020 60 55 -800 000/00 RMK AO2 T00671017 $
63870K0J4 0J420161123061511011/23/16 06:15:31  5-MIN K0J4 231115Z AUTO 00000KT 10SM CLR 07/M02 A3020 60 55 -800 000/00 RMK AO2 T00671017 $
63870K0J4 0J420161123062011011/23/16 06:20:31  5-MIN K0J4 231120Z AUTO 09003KT 10SM CLR 07/M02 A3020 60 55 -800 090/03 RMK AO2 T00671017 $
63870K0J4 0J420161123062511011/23/16 06:25:31  5-MIN K0J4 231125Z AUTO 09003KT 10SM CLR 07/M02 A3020 60 55 -800 090/03 RMK AO2 T00671017 $
63870K0J4 0J420161123063011011/23/16 06:30:31  5-MIN K0J4 231130Z AUTO 09003KT 10SM CLR 07/M02 A3020 60 55 -800 090/03 RMK AO2 T00671017 $
63870K0J4 0J420161123063512511/23/16 06:35:31  5-MIN K0J4 231135Z AUTO 00000KT 10SM CLR 07/M01 A3020 50 55 -800 000/00 RMK AO2 RAB33E35 P0000 T00721011 $
63870K0J4 0J420161123064012511/23/16 06:40:31  5-MIN K0J4 231140Z AUTO 09003KT 10SM CLR 07/M01 A3020 50 57 -800 090/03 RMK AO2 RAB33E35 P0000 T00671011 $
63870K0J4 0J420161123064512511/23/16 06:45:31  5-MIN K0J4 231145Z AUTO 08004KT 10SM CLR 07/M01 A3021 50 57 -800 080/04 RMK AO2 RAB33E35 P0000 T00671011 $
63870K0J4 0J420161123065012511/23/16 06:50:31  5-MIN K0J4 231150Z AUTO 07003KT 10SM CLR 07/M01 A3021 50 57 -900 070/03 RMK AO2 RAB33E35 P0000 T00671011 $
63870K0J4 0J420161123065515611/23/16 06:55:31  5-MIN K0J4 231155Z AUTO 06003KT 10SM CLR 07/M01 A3021 50 60 -900 060/03 RMK AO2 RAB33E35 SLP230 P0000 60000 T00671006 10089 20044 55004 $
63870K0J4 0J420161123070011011/23/16 07:00:31  5-MIN K0J4 231200Z AUTO 06003KT 10SM CLR 07/M01 A3021 50 60 -900 060/03 RMK AO2 T00671006 $
63870K0J4 0J420161123070511011/23/16 07:05:31  5-MIN K0J4 231205Z AUTO 07003KT 10SM CLR 07/M01 A3021 40 60 -900 070/03 RMK AO2 T00671006 $
63870K0J4 0J420161123071011011/23/16 07:10:31  5-MIN K0J4 231210Z AUTO 07004KT 10SM CLR 06/M01 A3022 40 62 -900 070/04 RMK AO2 T00611006 $
63870K0J4 0J420161123071511011/23/16 07:15:31  5-MIN K0J4 231215Z AUTO 06003KT 10SM CLR 06/M01 A3022 40 62 -900 060/03 RMK AO2 T00611006 $
63870K0J4 0J420161123072010911/23/16 07:20:31  5-MIN K0J4 231220Z AUTO 07004KT 10SM CLR 06/00 A3022 40 65 -900 070/04 RMK AO2 T00610000 $
63870K0J4 0J420161123072510911/23/16 07:25:31  5-MIN K0J4 231225Z AUTO 07004KT 10SM CLR 06/00 A3023 40 65 -900 070/04 RMK AO2 T00610000 $
63870K0J4 0J420161123073010911/23/16 07:30:31  5-MIN K0J4 231230Z AUTO 06003KT 10SM CLR 07/01 A3023 30 65 -900 060/03 RMK AO2 T00670006 $
63870K0J4 0J420161123073510911/23/16 07:35:31  5-MIN K0J4 231235Z AUTO 07004KT 10SM CLR 07/01 A3023 30 67 -900 070/04 RMK AO2 T00670011 $
63870K0J4 0J420161123074010911/23/16 07:40:31  5-MIN K0J4 231240Z AUTO 08004KT 10SM CLR 07/01 A3023 30 65 -800 080/04 RMK AO2 T00720011 $
63870K0J4 0J420161123074510911/23/16 07:45:31  5-MIN K0J4 231245Z AUTO 08004KT 10SM CLR 07/02 A3023 30 68 -800 080/04 RMK AO2 T00720017 $
63870K0J4 0J420161123075012511/23/16 07:50:31  5-MIN K0J4 231250Z AUTO 08004KT 10SM -RA CLR 07/02 A3023 30 68 -800 080/04 RMK AO2 RAB48 P0000 T00720017 $
63870K0J4 0J420161123075513111/23/16 07:55:31  5-MIN K0J4 231255Z AUTO 09004KT 10SM CLR 08/02 A3023 40 68 -700 090/04 RMK AO2 RAB48E51 SLP234 P0000 T00780022 $
63870K0J4 0J420161123080010911/23/16 08:00:31  5-MIN K0J4 231300Z AUTO VRB03KT 10SM CLR 08/02 A3022 40 68 -700 VRB/03 RMK AO2 T00780022 $
63870K0J4 0J420161123080510911/23/16 08:05:31  5-MIN K0J4 231305Z AUTO 00000KT 10SM CLR 08/03 A3023 30 68 -700 000/00 RMK AO2 T00830028 $
63870K0J4 0J420161123081010911/23/16 08:10:31  5-MIN K0J4 231310Z AUTO VRB03KT 10SM CLR 08/03 A3023 30 68 -700 VRB/03 RMK AO2 T00830028 $
63870K0J4 0J420161123081510711/23/16 08:15:31  5-MIN K0J4 231315Z AUTO VRB03KT 10SM CLR 08/03 A3023 30 68 -700 VRB/03 RMK AO2 T00830028
63870K0J4 0J420161123082010711/23/16 08:20:31  5-MIN K0J4 231320Z AUTO 10004KT 10SM CLR 08/03 A3023 30 70 -700 100/04 RMK AO2 T00830033
63870K0J4 0J420161123082510711/23/16 08:25:31  5-MIN K0J4 231325Z AUTO 10004KT 10SM CLR 09/04 A3023 30 71 -600 100/04 RMK AO2 T00890039
63870K0J4 0J420161123083010711/23/16 08:30:31  5-MIN K0J4 231330Z AUTO 10004KT 10SM CLR 09/04 A3023 30 68 -500 100/04 RMK AO2 T00940039
63870K0J4 0J420161123083510711/23/16 08:35:31  5-MIN K0J4 231335Z AUTO 10004KT 10SM CLR 09/04 A3023 30 68 -500 100/04 RMK AO2 T00940039
63870K0J4 0J420161123084010711/23/16 08:40:31  5-MIN K0J4 231340Z AUTO 09004KT 10SM CLR 09/04 A3023 30 68 -500 090/04 RMK AO2 T00940039
63870K0J4 0J420161123084510711/23/16 08:45:31  5-MIN K0J4 231345Z AUTO 09006KT 10SM CLR 09/04 A3024 20 71 -500 090/06 RMK AO2 T00940044
63870K0J4 0J420161123085010711/23/16 08:50:31  5-MIN K0J4 231350Z AUTO 10004KT 10SM CLR 10/04 A3024 20 68 -500 100/04 RMK AO2 T01000044
63870K0J4 0J420161123085511411/23/16 08:55:31  5-MIN K0J4 231355Z AUTO 09006KT 10SM CLR 10/04 A3024 20 68 -500 090/06 RMK AO2 SLP241 T01000044
63870K0J4 0J420161123090010711/23/16 09:00:31  5-MIN K0J4 231400Z AUTO 09005KT 10SM CLR 10/05 A3025 20 71 -500 090/05 RMK AO2 T01000050
63870K0J4 0J420161123090510711/23/16 09:05:31  5-MIN K0J4 231405Z AUTO 09005KT 10SM CLR 11/05 A3025 10 68 -400 090/05 RMK AO2 T01060050
63870K0J4 0J420161123091010711/23/16 09:10:31  5-MIN K0J4 231410Z AUTO 10004KT 10SM CLR 11/05 A3025 10 68 -400 100/04 RMK AO2 T01060050
63870K0J4 0J420161123091510711/23/16 09:15:31  5-MIN K0J4 231415Z AUTO 11004KT 10SM CLR 11/05 A3025 10 68 -400 110/04 RMK AO2 T01060050
63870K0J4 0J420161123092010711/23/16 09:20:31  5-MIN K0J4 231420Z AUTO 09004KT 10SM CLR 11/06 A3025 10 71 -400 090/04 RMK AO2 T01060056
63870K0J4 0J420161123092510711/23/16 09:25:31  5-MIN K0J4 231425Z AUTO 11005KT 10SM CLR 11/06 A3025 10 68 -400 110/05 RMK AO2 T01110056
63870K0J4 0J420161123093010711/23/16 09:30:31  5-MIN K0J4 231430Z AUTO VRB05KT 10SM CLR 11/06 A3025 10 71 -400 VRB/05 RMK AO2 T01110061
63870K0J4 0J420161123093510711/23/16 09:35:31  5-MIN K0J4 231435Z AUTO 11004KT 10SM CLR 12/06 A3025 10 68 -300 110/04 RMK AO2 T01170061
63870K0J4 0J420161123094010711/23/16 09:40:31  5-MIN K0J4 231440Z AUTO VRB05KT 10SM CLR 12/07 A3025 10 68 -200 VRB/05 RMK AO2 T01220067
63870K0J4 0J420161123094510711/23/16 09:45:31  5-MIN K0J4 231445Z AUTO 10005KT 10SM CLR 13/07 A3025 10 66 -200 100/05 RMK AO2 T01280067
63870K0J4 0J420161123095010711/23/16 09:50:31  5-MIN K0J4 231450Z AUTO VRB04KT 10SM CLR 13/07 A3026 10 66 -200 VRB/04 RMK AO2 T01280067
63870K0J4 0J420161123095512611/23/16 09:55:31  5-MIN K0J4 231455Z AUTO 12006KT 10SM CLR 13/07 A3026 10 69 -200 120/06 RMK AO2 SLP245 60000 T01280072 53005
63870K0J4 0J420161123100010711/23/16 10:00:31  5-MIN K0J4 231500Z AUTO VRB03KT 10SM CLR 13/07 A3026 10 69 -200 VRB/03 RMK AO2 T01280072
63870K0J4 0J420161123100510411/23/16 10:05:31  5-MIN K0J4 231505Z AUTO VRB04KT 10SM CLR 14/08 A3026 10 66 0 VRB/04 RMK AO2 T01390078
63870K0J4 0J420161123101010311/23/16 10:10:31  5-MIN K0J4 231510Z AUTO 13005KT 10SM CLR 14/08 A3026 0 66 0 130/05 RMK AO2 T01390078
63870K0J4 0J420161123101510311/23/16 10:15:31  5-MIN K0J4 231515Z AUTO 11005KT 10SM CLR 14/08 A3026 0 64 0 110/05 RMK AO2 T01440078
63870K0J4 0J420161123102010311/23/16 10:20:31  5-MIN K0J4 231520Z AUTO 10005KT 10SM CLR 14/08 A3026 0 66 0 100/05 RMK AO2 T01440083
63870K0J4 0J420161123102510311/23/16 10:25:31  5-MIN K0J4 231525Z AUTO 11006KT 10SM CLR 15/08 A3026 0 64 0 110/06 RMK AO2 T01500083
63870K0J4 0J420161123103010611/23/16 10:30:31  5-MIN K0J4 231530Z AUTO VRB03KT 10SM CLR 16/09 A3026 10 64 100 VRB/03 RMK AO2 T01560089
63870K0J4 0J420161123103510611/23/16 10:35:31  5-MIN K0J4 231535Z AUTO 15005KT 10SM CLR 16/09 A3026 10 64 100 150/05 RMK AO2 T01560089
63870K0J4 0J420161123104010611/23/16 10:40:31  5-MIN K0J4 231540Z AUTO 15006KT 10SM CLR 16/09 A3026 10 64 100 150/06 RMK AO2 T01560089
63870K0J4 0J420161123104510611/23/16 10:45:31  5-MIN K0J4 231545Z AUTO 13004KT 10SM CLR 16/09 A3025 10 67 100 130/04 RMK AO2 T01560094
63870K0J4 0J420161123105010611/23/16 10:50:31  5-MIN K0J4 231550Z AUTO VRB03KT 10SM CLR 16/09 A3025 10 64 200 VRB/03 RMK AO2 T01610094
63870K0J4 0J420161123105511311/23/16 10:55:31  5-MIN K0J4 231555Z AUTO 15006KT 10SM CLR 17/10 A3025 10 64 300 150/06 RMK AO2 SLP244 T01670100
63870K0J4 0J420161123110010611/23/16 11:00:31  5-MIN K0J4 231600Z AUTO 15005KT 10SM CLR 17/10 A3025 10 64 300 150/05 RMK AO2 T01670100
63870K0J4 0J420161123110510611/23/16 11:05:31  5-MIN K0J4 231605Z AUTO 11004KT 10SM CLR 17/10 A3025 20 64 300 110/04 RMK AO2 T01670100
63870K0J4 0J420161123111010611/23/16 11:10:31  5-MIN K0J4 231610Z AUTO 15005KT 10SM CLR 17/11 A3025 20 64 300 150/05 RMK AO2 T01720106
63870K0J4 0J420161123111510611/23/16 11:15:31  5-MIN K0J4 231615Z AUTO 12003KT 10SM CLR 17/11 A3025 10 64 300 120/03 RMK AO2 T01720106
63870K0J4 0J420161123112010611/23/16 11:20:31  5-MIN K0J4 231620Z AUTO VRB04KT 10SM CLR 17/11 A3025 10 64 300 VRB/04 RMK AO2 T01720106
63870K0J4 0J420161123112510611/23/16 11:25:31  5-MIN K0J4 231625Z AUTO VRB04KT 10SM CLR 18/11 A3025 10 62 400 VRB/04 RMK AO2 T01830111
63870K0J4 0J420161123113010611/23/16 11:30:31  5-MIN K0J4 231630Z AUTO 14004KT 10SM CLR 19/11 A3025 10 60 500 140/04 RMK AO2 T01890111
63870K0J4 0J420161123113510611/23/16 11:35:31  5-MIN K0J4 231635Z AUTO VRB05KT 10SM CLR 18/12 A3024 20 65 500 VRB/05 RMK AO2 T01830117
63870K0J4 0J420161123114010611/23/16 11:40:31  5-MIN K0J4 231640Z AUTO VRB05KT 10SM CLR 18/12 A3024 20 65 500 VRB/05 RMK AO2 T01830117
63870K0J4 0J420161123114510611/23/16 11:45:31  5-MIN K0J4 231645Z AUTO 12005KT 10SM CLR 19/12 A3023 30 62 500 120/05 RMK AO2 T01890117
63870K0J4 0J420161123115010611/23/16 11:50:31  5-MIN K0J4 231650Z AUTO 13004KT 10SM CLR 19/12 A3023 30 62 500 130/04 RMK AO2 T01890117
63870K0J4 0J420161123115511311/23/16 11:55:31  5-MIN K0J4 231655Z AUTO 15005KT 10SM CLR 19/12 A3022 40 60 600 150/05 RMK AO2 SLP233 T01940117
63870K0J4 0J420161123120010611/23/16 12:00:31  5-MIN K0J4 231700Z AUTO VRB05KT 10SM CLR 21/12 A3022 40 58 700 VRB/05 RMK AO2 T02060122
63870K0J4 0J420161123120510611/23/16 12:05:31  5-MIN K0J4 231705Z AUTO 15005KT 10SM CLR 20/12 A3022 40 60 700 150/05 RMK AO2 T02000122
63870K0J4 0J420161123121010611/23/16 12:10:31  5-MIN K0J4 231710Z AUTO 14004KT 10SM CLR 20/12 A3022 40 60 700 140/04 RMK AO2 T02000122
63870K0J4 0J420161123121510611/23/16 12:15:31  5-MIN K0J4 231715Z AUTO 13006KT 10SM CLR 21/13 A3022 40 58 800 130/06 RMK AO2 T02110128
63870K0J4 0J420161123122010611/23/16 12:20:31  5-MIN K0J4 231720Z AUTO 15007KT 10SM CLR 21/13 A3021 50 60 700 150/07 RMK AO2 T02060128
63870K0J4 0J420161123122510611/23/16 12:25:31  5-MIN K0J4 231725Z AUTO 16007KT 10SM CLR 21/13 A3021 50 58 800 160/07 RMK AO2 T02110128
63870K0J4 0J420161123123010611/23/16 12:30:31  5-MIN K0J4 231730Z AUTO 17007KT 10SM CLR 22/13 A3021 50 56 900 170/07 RMK AO2 T02170128
63870K0J4 0J420161123123510611/23/16 12:35:31  5-MIN K0J4 231735Z AUTO VRB06KT 10SM CLR 22/13 A3021 50 56 900 VRB/06 RMK AO2 T02170128
63870K0J4 0J420161123124010611/23/16 12:40:31  5-MIN K0J4 231740Z AUTO 19005KT 10SM CLR 22/13 A3021 50 56 900 190/05 RMK AO2 T02170128
63870K0J4 0J420161123124510611/23/16 12:45:31  5-MIN K0J4 231745Z AUTO 12006KT 10SM CLR 22/13 A3020 60 58 900 120/06 RMK AO2 T02170133
63870K0J4 0J420161123125010711/23/16 12:50:31  5-MIN K0J4 231750Z AUTO 19005KT 10SM CLR 22/13 A3020 60 56 1000 190/05 RMK AO2 T02220133
63870K0J4 0J420161123125513711/23/16 12:55:31  5-MIN K0J4 231755Z AUTO VRB03KT 10SM CLR 22/13 A3020 60 58 900 VRB/03 RMK AO2 SLP224 60000 T02170133 10222 20061 53015
63870K0J4 0J420161123130010911/23/16 13:00:31  5-MIN K0J4 231800Z AUTO 17005KT 10SM FEW029 22/13 A3020 60 58 900 170/05 RMK AO2 T02170133
63870K0J4 0J420161123130510911/23/16 13:05:31  5-MIN K0J4 231805Z AUTO 00000KT 10SM FEW029 22/14 A3020 60 61 900 000/00 RMK AO2 T02170139
63870K0J4 0J420161123131011011/23/16 13:10:31  5-MIN K0J4 231810Z AUTO 18008KT 10SM FEW031 22/13 A3019 60 56 1000 180/08 RMK AO2 T02220133
63870K0J4 0J420161123131511011/23/16 13:15:31  5-MIN K0J4 231815Z AUTO 19006KT 10SM FEW031 23/13 A3019 60 55 1000 190/06 RMK AO2 T02280133
63870K0J4 0J420161123132011711/23/16 13:20:31  5-MIN K0J4 231820Z AUTO 23005KT 10SM FEW032 SCT042 22/13 A3020 60 56 1000 230/05 RMK AO2 T02220133
63870K0J4 0J420161123132511711/23/16 13:25:31  5-MIN K0J4 231825Z AUTO VRB06KT 10SM SCT034 BKN042 23/13 A3019 70 55 1000 VRB/06 RMK AO2 T02280133
63870K0J4 0J420161123133011011/23/16 13:30:31  5-MIN K0J4 231830Z AUTO 20010KT 10SM BKN034 23/13 A3019 60 55 1000 200/10 RMK AO2 T02280133
63870K0J4 0J420161123133511011/23/16 13:35:31  5-MIN K0J4 231835Z AUTO 17011KT 10SM BKN034 22/13 A3019 70 56 1000 170/11 RMK AO2 T02220133
63870K0J4 0J420161123134011011/23/16 13:40:31  5-MIN K0J4 231840Z AUTO 22010KT 10SM SCT034 23/13 A3019 70 55 1000 220/10 RMK AO2 T02280133
63870K0J4 0J420161123134511711/23/16 13:45:31  5-MIN K0J4 231845Z AUTO 21010KT 10SM SCT034 SCT045 23/13 A3019 70 53 1000 210/10 RMK AO2 T02280128
63870K0J4 0J420161123135011711/23/16 13:50:31  5-MIN K0J4 231850Z AUTO 21009KT 10SM SCT034 BKN045 22/13 A3018 70 54 1000 210/09 RMK AO2 T02220128
63870K0J4 0J420161123135512411/23/16 13:55:31  5-MIN K0J4 231855Z AUTO 19007KT 10SM SCT035 BKN043 22/13 A3019 70 56 1000 190/07 RMK AO2 SLP220 T02220133
63870K0J4 0J420161123140011011/23/16 14:00:31  5-MIN K0J4 231900Z AUTO 19010KT 10SM SCT037 24/13 A3018 70 51 1200 190/10 RMK AO2 T02390133
63870K0J4 0J420161123140511711/23/16 14:05:31  5-MIN K0J4 231905Z AUTO 22009KT 10SM FEW035 SCT044 23/13 A3018 70 53 1000 220/09 RMK AO2 T02280128
63870K0J4 0J420161123141011711/23/16 14:10:31  5-MIN K0J4 231910Z AUTO 20007KT 10SM SCT037 SCT044 23/13 A3018 80 53 1000 200/07 RMK AO2 T02280128
63870K0J4 0J420161123141511711/23/16 14:15:31  5-MIN K0J4 231915Z AUTO VRB05KT 10SM SCT037 SCT045 23/13 A3018 80 53 1000 VRB/05 RMK AO2 T02280128
63870K0J4 0J420161123142011711/23/16 14:20:31  5-MIN K0J4 231920Z AUTO 19008KT 10SM FEW035 SCT043 23/13 A3018 70 53 1000 190/08 RMK AO2 T02280128
63870K0J4 0J420161123142511711/23/16 14:25:31  5-MIN K0J4 231925Z AUTO 21008KT 10SM SCT040 SCT048 22/12 A3019 70 52 1000 210/08 RMK AO2 T02220122
63870K0J4 0J420161123143011711/23/16 14:30:31  5-MIN K0J4 231930Z AUTO 22007KT 10SM SCT040 BKN048 23/13 A3018 70 53 1000 220/07 RMK AO2 T02280128
63870K0J4 0J420161123143511711/23/16 14:35:31  5-MIN K0J4 231935Z AUTO 21007KT 10SM BKN042 BKN050 22/13 A3018 70 54 1000 210/07 RMK AO2 T02220128
63870K0J4 0J420161123144011711/23/16 14:40:31  5-MIN K0J4 231940Z AUTO 20005KT 10SM BKN042 BKN050 23/13 A3018 70 53 1000 200/05 RMK AO2 T02280128
63870K0J4 0J420161123144512411/23/16 14:45:31  5-MIN K0J4 231945Z AUTO 20007KT 10SM SCT042 BKN050 OVC060 23/13 A3019 70 51 1100 200/07 RMK AO2 T02330128
63870K0J4 0J420161123145012411/23/16 14:50:31  5-MIN K0J4 231950Z AUTO 19005KT 10SM SCT041 BKN050 BKN060 23/12 A3018 80 51 1000 190/05 RMK AO2 T02280122
63870K0J4 0J420161123145512411/23/16 14:55:31  5-MIN K0J4 231955Z AUTO 22004KT 10SM FEW041 BKN055 22/13 A3018 80 54 1000 220/04 RMK AO2 SLP219 T02220128
63870K0J4 0J420161123150011711/23/16 15:00:31  5-MIN K0J4 232000Z AUTO 20008KT 10SM FEW041 BKN050 23/13 A3018 80 51 1100 200/08 RMK AO2 T02330128
63870K0J4 0J420161123150512511/23/16 15:05:31  5-MIN K0J4 232005Z AUTO VRB04KT 10SM BKN050 24/13 A3018 80 49 1200 VRB/04 RMK AO2 RAB02E05 P0000 T02390128
63870K0J4 0J420161123151012511/23/16 15:10:31  5-MIN K0J4 232010Z AUTO 22006KT 10SM SCT055 23/13 A3018 80 51 1100 220/06 RMK AO2 RAB02E05 P0000 T02330128
63870K0J4 0J420161123151512511/23/16 15:15:31  5-MIN K0J4 232015Z AUTO 21008KT 10SM SCT055 23/13 A3018 70 53 1000 210/08 RMK AO2 RAB02E05 P0000 T02280128
63870K0J4 0J420161123152012511/23/16 15:20:31  5-MIN K0J4 232020Z AUTO 20009KT 10SM BKN060 23/12 A3018 70 51 1000 200/09 RMK AO2 RAB02E05 P0000 T02280122
63870K0J4 0J420161123152513911/23/16 15:25:31  5-MIN K0J4 232025Z AUTO 21006KT 10SM FEW043 SCT050 BKN060 23/13 A3018 70 53 1000 210/06 RMK AO2 RAB02E05 P0000 T02280128
63870K0J4 0J420161123153013911/23/16 15:30:31  5-MIN K0J4 232030Z AUTO 22006KT 10SM FEW043 SCT050 BKN060 23/13 A3018 70 53 1000 220/06 RMK AO2 RAB02E05 P0000 T02280128
63870K0J4 0J420161123153513911/23/16 15:35:31  5-MIN K0J4 232035Z AUTO 22004KT 10SM FEW041 SCT050 BKN060 23/13 A3018 70 53 1000 220/04 RMK AO2 RAB02E05 P0000 T02280128
63870K0J4 0J420161123154013211/23/16 15:40:31  5-MIN K0J4 232040Z AUTO 21005KT 10SM FEW045 OVC060 23/13 A3018 70 53 1000 210/05 RMK AO2 RAB02E05 P0000 T02280128
63870K0J4 0J420161123154513211/23/16 15:45:31  5-MIN K0J4 232045Z AUTO 22004KT 10SM FEW044 OVC060 23/13 A3018 80 53 1000 220/04 RMK AO2 RAB02E05 P0000 T02280128
63870K0J4 0J420161123155013211/23/16 15:50:31  5-MIN K0J4 232050Z AUTO 21007KT 10SM FEW044 OVC060 23/13 A3018 80 53 1000 210/07 RMK AO2 RAB02E05 P0000 T02280128
63870K0J4 0J420161123155514411/23/16 15:55:31  5-MIN K0J4 232055Z AUTO 20006KT 10SM BKN060 23/12 A3018 80 51 1000 200/06 RMK AO2 RAB02E05 SLP218 P0000 60000 T02280122 58019
63870K0J4 0J420161123160012711/23/16 16:00:31  5-MIN K0J4 232100Z AUTO 20007KT 10SM -RA FEW042 OVC060 24/13 A3018 80 49 1200 200/07 RMK AO2 P0000 T02390128
63870K0J4 0J420161123160512711/23/16 16:05:31  5-MIN K0J4 232105Z AUTO 21004KT 10SM -RA SCT042 OVC060 24/12 A3017 80 47 1200 210/04 RMK AO2 P0000 T02390122
63870K0J4 0J420161123161014311/23/16 16:10:31  5-MIN K0J4 232110Z AUTO 22007KT 200V260 10SM -RA SCT043 OVC060 24/12 A3017 80 47 1200 220/07 200V260 RMK AO2 P0000 T02390122
63870K0J4 0J420161123161512911/23/16 16:15:31  5-MIN K0J4 232115Z AUTO 22008KT 10SM SCT043 BKN060 24/12 A3017 90 47 1200 220/08 RMK AO2 RAE11 P0000 T02390122
63870K0J4 0J420161123162012911/23/16 16:20:31  5-MIN K0J4 232120Z AUTO 22007KT 10SM FEW043 BKN060 24/12 A3017 90 47 1200 220/07 RMK AO2 RAE11 P0000 T02390122
63870K0J4 0J420161123162512911/23/16 16:25:31  5-MIN K0J4 232125Z AUTO 24007KT 10SM FEW043 SCT055 23/12 A3017 80 49 1100 240/07 RMK AO2 RAE11 P0000 T02330122
63870K0J4 0J420161123163012211/23/16 16:30:31  5-MIN K0J4 232130Z AUTO 21007KT 10SM FEW043 23/12 A3017 80 51 1000 210/07 RMK AO2 RAE11 P0000 T02280122
63870K0J4 0J420161123163512211/23/16 16:35:31  5-MIN K0J4 232135Z AUTO 21006KT 10SM FEW043 22/12 A3018 80 52 1000 210/06 RMK AO2 RAE11 P0000 T02220122
63870K0J4 0J420161123164011911/23/16 16:40:31  5-MIN K0J4 232140Z AUTO 22009KT 10SM CLR 23/12 A3018 80 51 1000 220/09 RMK AO2 RAE11 P0000 T02280122
63870K0J4 0J420161123164511911/23/16 16:45:31  5-MIN K0J4 232145Z AUTO 22006KT 10SM CLR 22/12 A3018 80 52 1000 220/06 RMK AO2 RAE11 P0000 T02220122
63870K0J4 0J420161123165012211/23/16 16:50:31  5-MIN K0J4 232150Z AUTO VRB04KT 10SM FEW060 22/12 A3018 80 52 1000 VRB/04 RMK AO2 RAE11 P0000 T02220122
63870K0J4 0J420161123165512911/23/16 16:55:31  5-MIN K0J4 232155Z AUTO 23003KT 10SM SCT060 22/13 A3018 80 54 1000 230/03 RMK AO2 RAE11 SLP218 P0000 T02220128
63870K0J4 0J420161123170011011/23/16 17:00:31  5-MIN K0J4 232200Z AUTO 24003KT 10SM SCT060 22/13 A3018 80 54 1000 240/03 RMK AO2 T02220128
63870K0J4 0J420161123170510911/23/16 17:05:31  5-MIN K0J4 232205Z AUTO 22004KT 10SM FEW060 22/13 A3018 80 56 900 220/04 RMK AO2 T02170128
63870K0J4 0J420161123171010911/23/16 17:10:31  5-MIN K0J4 232210Z AUTO 00000KT 10SM FEW060 22/13 A3017 80 56 900 000/00 RMK AO2 T02170128
63870K0J4 0J420161123171510911/23/16 17:15:31  5-MIN K0J4 232215Z AUTO 00000KT 10SM FEW060 21/13 A3017 90 58 900 000/00 RMK AO2 T02110128
63870K0J4 0J420161123172009911/23/16 17:20:31  5-MIN K0J4 232220Z AUTO 10SM FEW060 21/13 A3017 90 58 900 M /M RMK AO2 T02110128
63870K0J4 0J420161123172510711/23/16 17:25:31  5-MIN K0J4 232225Z AUTO 21005KT 10SM CLR 21/13 A3016 100 60 800 210/05 RMK AO2 T02060128
63870K0J4 0J420161123173010711/23/16 17:30:31  5-MIN K0J4 232230Z AUTO 21004KT 10SM CLR 20/12 A3016 100 60 700 210/04 RMK AO2 T02000122
63870K0J4 0J420161123173510711/23/16 17:35:31  5-MIN K0J4 232235Z AUTO 18003KT 10SM CLR 20/12 A3015 100 60 700 180/03 RMK AO2 T02000122
63870K0J4 0J420161123174010711/23/16 17:40:31  5-MIN K0J4 232240Z AUTO 19003KT 10SM CLR 20/12 A3015 100 60 700 190/03 RMK AO2 T02000122
63870K0J4 0J420161123174510711/23/16 17:45:31  5-MIN K0J4 232245Z AUTO 19003KT 10SM CLR 19/12 A3015 100 62 700 190/03 RMK AO2 T01940122
63870K0J4 0J420161123175010711/23/16 17:50:31  5-MIN K0J4 232250Z AUTO 18004KT 10SM CLR 19/12 A3015 100 62 700 180/04 RMK AO2 T01940122
63870K0J4 0J420161123175511411/23/16 17:55:31  5-MIN K0J4 232255Z AUTO 18004KT 10SM CLR 19/12 A3015 100 65 600 180/04 RMK AO2 SLP208 T01890122
63870K0J4 0J420161123180010711/23/16 18:00:31  5-MIN K0J4 232300Z AUTO 18003KT 10SM CLR 19/12 A3015 100 65 600 180/03 RMK AO2 T01890122
63870K0J4 0J420161123180510711/23/16 18:05:31  5-MIN K0J4 232305Z AUTO 19003KT 10SM CLR 19/12 A3015 100 62 700 190/03 RMK AO2 T01940122
63870K0J4 0J420161123181010711/23/16 18:10:31  5-MIN K0J4 232310Z AUTO 00000KT 10SM CLR 19/13 A3016 100 65 700 000/00 RMK AO2 T01940128
63870K0J4 0J420161123181510711/23/16 18:15:31  5-MIN K0J4 232315Z AUTO 20003KT 10SM CLR 19/12 A3016 100 65 600 200/03 RMK AO2 T01890122
63870K0J4 0J420161123182010711/23/16 18:20:31  5-MIN K0J4 232320Z AUTO 19003KT 10SM CLR 17/12 A3016 100 72 400 190/03 RMK AO2 T01670117
63870K0J4 0J420161123182510611/23/16 18:25:31  5-MIN K0J4 232325Z AUTO 00000KT 10SM CLR 17/12 A3016 90 72 400 000/00 RMK AO2 T01670117
63870K0J4 0J420161123183010611/23/16 18:30:31  5-MIN K0J4 232330Z AUTO 00000KT 10SM CLR 18/13 A3017 90 70 500 000/00 RMK AO2 T01830128
63870K0J4 0J420161123183510611/23/16 18:35:31  5-MIN K0J4 232335Z AUTO 00000KT 10SM CLR 18/12 A3016 90 69 500 000/00 RMK AO2 T01780122
63870K0J4 0J420161123184010611/23/16 18:40:31  5-MIN K0J4 232340Z AUTO 20004KT 10SM CLR 18/12 A3016 90 69 500 200/04 RMK AO2 T01780122
63870K0J4 0J420161123184510711/23/16 18:45:31  5-MIN K0J4 232345Z AUTO 18004KT 10SM CLR 19/12 A3016 100 65 600 180/04 RMK AO2 T01890122
63870K0J4 0J420161123185010711/23/16 18:50:31  5-MIN K0J4 232350Z AUTO 17005KT 10SM CLR 19/12 A3015 100 62 700 170/05 RMK AO2 T01940122
63870K0J4 0J420161123185513811/23/16 18:55:31  5-MIN K0J4 232355Z AUTO 17006KT 10SM CLR 20/12 A3015 110 60 800 170/06 RMK AO2 SLP207 60000 T02000122 10239 20167 56007
63870K0J4 0J420161123190010811/23/16 19:00:31  5-MIN K0J4 240000Z AUTO 18007KT 10SM CLR 22/13 A3015 110 56 1000 180/07 RMK AO2 T02170128
63870K0J4 0J420161123190510811/23/16 19:05:31  5-MIN K0J4 240005Z AUTO 18006KT 10SM CLR 23/13 A3015 110 55 1100 180/06 RMK AO2 T02280133
63870K0J4 0J420161123191010811/23/16 19:10:31  5-MIN K0J4 240010Z AUTO 18005KT 10SM CLR 23/13 A3015 110 53 1100 180/05 RMK AO2 T02330133
63870K0J4 0J420161123191510811/23/16 19:15:31  5-MIN K0J4 240015Z AUTO 18004KT 10SM CLR 23/13 A3015 110 53 1100 180/04 RMK AO2 T02330133
63870K0J4 0J420161123192010811/23/16 19:20:31  5-MIN K0J4 240020Z AUTO 19004KT 10SM CLR 23/13 A3015 100 53 1100 190/04 RMK AO2 T02330133
63870K0J4 0J420161123192510811/23/16 19:25:31  5-MIN K0J4 240025Z AUTO 20006KT 10SM CLR 24/13 A3015 100 51 1200 200/06 RMK AO2 T02390133
63870K0J4 0J420161123193010811/23/16 19:30:31  5-MIN K0J4 240030Z AUTO 20006KT 10SM CLR 24/13 A3015 100 51 1200 200/06 RMK AO2 T02390133
63870K0J4 0J420161123193510811/23/16 19:35:31  5-MIN K0J4 240035Z AUTO 19005KT 10SM CLR 23/13 A3015 100 51 1100 190/05 RMK AO2 T02330128
63870K0J4 0J420161123194010811/23/16 19:40:31  5-MIN K0J4 240040Z AUTO 20003KT 10SM CLR 23/13 A3016 100 53 1100 200/03 RMK AO2 T02330133
63870K0J4 0J420161123194510711/23/16 19:45:31  5-MIN K0J4 240045Z AUTO 22004KT 10SM CLR 23/13 A3016 90 53 1100 220/04 RMK AO2 T02330133
63870K0J4 0J420161123195010711/23/16 19:50:31  5-MIN K0J4 240050Z AUTO 25003KT 10SM CLR 23/13 A3017 90 55 1100 250/03 RMK AO2 T02280133
63870K0J4 0J420161123195511411/23/16 19:55:31  5-MIN K0J4 240055Z AUTO 22005KT 10SM CLR 22/13 A3017 90 56 1000 220/05 RMK AO2 SLP212 T02220133
63870K0J4 0J420161123200010711/23/16 20:00:31  5-MIN K0J4 240100Z AUTO 21005KT 10SM CLR 23/14 A3017 90 55 1100 210/05 RMK AO2 T02330139
63870K0J4 0J420161123200510711/23/16 20:05:31  5-MIN K0J4 240105Z AUTO 20004KT 10SM CLR 23/13 A3017 90 53 1100 200/04 RMK AO2 T02330133
63870K0J4 0J420161123201010711/23/16 20:10:31  5-MIN K0J4 240110Z AUTO 18005KT 10SM CLR 23/13 A3016 90 53 1100 180/05 RMK AO2 T02330133
63870K0J4 0J420161123201510711/23/16 20:15:31  5-MIN K0J4 240115Z AUTO 19005KT 10SM CLR 23/13 A3017 90 53 1100 190/05 RMK AO2 T02280128
63870K0J4 0J420161123202010711/23/16 20:20:31  5-MIN K0J4 240120Z AUTO 20004KT 10SM CLR 23/13 A3017 90 55 1100 200/04 RMK AO2 T02280133
63870K0J4 0J420161123202510711/23/16 20:25:31  5-MIN K0J4 240125Z AUTO 20004KT 10SM CLR 23/14 A3017 90 57 1100 200/04 RMK AO2 T02280139
63870K0J4 0J420161123203010711/23/16 20:30:31  5-MIN K0J4 240130Z AUTO 22003KT 10SM CLR 22/14 A3017 80 59 1000 220/03 RMK AO2 T02220139
63870K0J4 0J420161123203510611/23/16 20:35:31  5-MIN K0J4 240135Z AUTO 22004KT 10SM CLR 21/13 A3017 80 63 800 220/04 RMK AO2 T02060133
63870K0J4 0J420161123204010611/23/16 20:40:31  5-MIN K0J4 240140Z AUTO 21003KT 10SM CLR 21/13 A3017 80 61 900 210/03 RMK AO2 T02110133
63870K0J4 0J420161123204510611/23/16 20:45:31  5-MIN K0J4 240145Z AUTO 21003KT 10SM CLR 22/13 A3018 80 58 900 210/03 RMK AO2 T02170133
63870K0J4 0J420161123205010611/23/16 20:50:31  5-MIN K0J4 240150Z AUTO 22003KT 10SM CLR 21/13 A3018 80 61 900 220/03 RMK AO2 T02110133
63870K0J4 0J420161123205511311/23/16 20:55:31  5-MIN K0J4 240155Z AUTO 22003KT 10SM CLR 19/13 A3018 70 67 700 220/03 RMK AO2 SLP218 T01940133
63870K0J4 0J420161123210010611/23/16 21:00:31  5-MIN K0J4 240200Z AUTO 20003KT 10SM CLR 17/12 A3018 70 72 400 200/03 RMK AO2 T01720122
63870K0J4 0J420161123210510611/23/16 21:05:31  5-MIN K0J4 240205Z AUTO 18004KT 10SM CLR 17/12 A3018 80 72 300 180/04 RMK AO2 T01670117
63870K0J4 0J420161123211010611/23/16 21:10:31  5-MIN K0J4 240210Z AUTO 18004KT 10SM CLR 17/12 A3018 80 72 300 180/04 RMK AO2 T01670117
63870K0J4 0J420161123211510611/23/16 21:15:31  5-MIN K0J4 240215Z AUTO 19003KT 10SM CLR 17/13 A3018 70 75 400 190/03 RMK AO2 T01720128
63870K0J4 0J420161123212011611/23/16 21:20:31  5-MIN K0J4 240220Z AUTO 00000KT 10SM FEW032 FEW043 19/13 A3018 70 70 600 000/00 RMK AO2 T01890133
63870K0J4 0J420161123212511611/23/16 21:25:31  5-MIN K0J4 240225Z AUTO 00000KT 10SM FEW030 SCT043 18/13 A3018 70 72 500 000/00 RMK AO2 T01830133
63870K0J4 0J420161123213011611/23/16 21:30:31  5-MIN K0J4 240230Z AUTO 00000KT 10SM SCT030 BKN044 17/13 A3019 70 75 400 000/00 RMK AO2 T01720128
63870K0J4 0J420161123213511611/23/16 21:35:31  5-MIN K0J4 240235Z AUTO 00000KT 10SM SCT030 BKN044 17/12 A3019 70 75 300 000/00 RMK AO2 T01670122
63870K0J4 0J420161123214011611/23/16 21:40:31  5-MIN K0J4 240240Z AUTO 18003KT 10SM SCT027 SCT044 17/12 A3019 70 75 300 180/03 RMK AO2 T01670122
63870K0J4 0J420161123214512311/23/16 21:45:31  5-MIN K0J4 240245Z AUTO 00000KT 10SM FEW024 SCT030 SCT044 17/13 A3018 70 75 400 000/00 RMK AO2 T01720128
63870K0J4 0J420161123215010911/23/16 21:50:31  5-MIN K0J4 240250Z AUTO 17003KT 10SM FEW030 17/13 A3018 70 75 400 170/03 RMK AO2 T01720128
63870K0J4 0J420161123215512211/23/16 21:55:31  5-MIN K0J4 240255Z AUTO 16003KT 10SM FEW028 17/13 A3018 80 75 400 160/03 RMK AO2 SLP218 T01720128 58010
63870K0J4 0J420161123220010911/23/16 22:00:31  5-MIN K0J4 240300Z AUTO 17003KT 10SM FEW026 17/12 A3018 70 75 300 170/03 RMK AO2 T01670122
63870K0J4 0J420161123220510611/23/16 22:05:31  5-MIN K0J4 240305Z AUTO 00000KT 10SM CLR 17/13 A3019 70 75 400 000/00 RMK AO2 T01720128
63870K0J4 0J420161123221010611/23/16 22:10:31  5-MIN K0J4 240310Z AUTO 15003KT 10SM CLR 17/13 A3018 70 75 400 150/03 RMK AO2 T01720128
63870K0J4 0J420161123221510611/23/16 22:15:31  5-MIN K0J4 240315Z AUTO 15003KT 10SM CLR 16/12 A3019 70 75 300 150/03 RMK AO2 T01610117
63870K0J4 0J420161123222010611/23/16 22:20:31  5-MIN K0J4 240320Z AUTO 16003KT 10SM CLR 16/12 A3019 70 75 300 160/03 RMK AO2 T01610117
63870K0J4 0J420161123222510611/23/16 22:25:31  5-MIN K0J4 240325Z AUTO 17003KT 10SM CLR 17/13 A3019 70 75 400 170/03 RMK AO2 T01720128
63870K0J4 0J420161123223010611/23/16 22:30:31  5-MIN K0J4 240330Z AUTO 16003KT 10SM CLR 17/13 A3019 70 75 400 160/03 RMK AO2 T01720128
63870K0J4 0J420161123223510611/23/16 22:35:31  5-MIN K0J4 240335Z AUTO 00000KT 10SM CLR 17/12 A3019 70 75 300 000/00 RMK AO2 T01670122
63870K0J4 0J420161123224010611/23/16 22:40:31  5-MIN K0J4 240340Z AUTO 00000KT 10SM CLR 17/13 A3019 70 75 400 000/00 RMK AO2 T01720128
63870K0J4 0J420161123224510611/23/16 22:45:31  5-MIN K0J4 240345Z AUTO 00000KT 10SM CLR 17/13 A3019 70 77 300 000/00 RMK AO2 T01670128
63870K0J4 0J420161123225010611/23/16 22:50:31  5-MIN K0J4 240350Z AUTO 00000KT 10SM CLR 17/13 A3019 60 78 400 000/00 RMK AO2 T01720133
63870K0J4 0J420161123225511311/23/16 22:55:31  5-MIN K0J4 240355Z AUTO 00000KT 10SM CLR 18/13 A3019 60 75 400 000/00 RMK AO2 SLP222 T01780133
63870K0J4 0J420161123230010611/23/16 23:00:31  5-MIN K0J4 240400Z AUTO 00000KT 10SM CLR 17/13 A3019 60 75 400 000/00 RMK AO2 T01720128
63870K0J4 0J420161123230510911/23/16 23:05:31  5-MIN K0J4 240405Z AUTO 00000KT 10SM FEW033 16/12 A3019 60 75 300 000/00 RMK AO2 T01610117
63870K0J4 0J420161123231010911/23/16 23:10:31  5-MIN K0J4 240410Z AUTO 00000KT 10SM FEW033 16/12 A3019 60 75 300 000/00 RMK AO2 T01610117
63870K0J4 0J420161123231510911/23/16 23:15:31  5-MIN K0J4 240415Z AUTO 00000KT 10SM FEW031 17/13 A3019 60 77 300 000/00 RMK AO2 T01670128
63870K0J4 0J420161123232010911/23/16 23:20:31  5-MIN K0J4 240420Z AUTO 00000KT 10SM FEW031 17/14 A3020 60 80 400 000/00 RMK AO2 T01720139
63870K0J4 0J420161123232510911/23/16 23:25:31  5-MIN K0J4 240425Z AUTO 00000KT 10SM SCT029 17/13 A3020 60 80 300 000/00 RMK AO2 T01670133
63870K0J4 0J420161123233010911/23/16 23:30:31  5-MIN K0J4 240430Z AUTO 00000KT 10SM SCT029 17/12 A3020 60 75 300 000/00 RMK AO2 T01670122
63870K0J4 0J420161123233510811/23/16 23:35:31  5-MIN K0J4 240435Z AUTO 00000KT 9SM FEW029 17/13 A3020 60 77 300 000/00 RMK AO2 T01670128
63870K0J4 0J420161123234010811/23/16 23:40:31  5-MIN K0J4 240440Z AUTO 00000KT 8SM FEW029 16/12 A3020 60 77 200 000/00 RMK AO2 T01610122
63870K0J4 0J420161123234510811/23/16 23:45:31  5-MIN K0J4 240445Z AUTO 00000KT 7SM FEW028 16/12 A3020 60 77 200 000/00 RMK AO2 T01610122
63870K0J4 0J420161123235010811/23/16 23:50:31  5-MIN K0J4 240450Z AUTO 00000KT 8SM FEW028 17/13 A3020 60 77 300 000/00 RMK AO2 T01670128
63870K0J4 0J420161123235513211/23/16 23:55:31  5-MIN K0J4 240455Z AUTO 00000KT 9SM FEW025 FEW033 16/13 A3020 60 80 200 000/00 RMK AO2 SLP225 T01610128 402390044
63870K0J4 0J420161124000011511/24/16 00:00:31  5-MIN K0J4 240500Z AUTO 00000KT 9SM SCT025 BKN033 16/13 A3020 60 80 200 000/00 RMK AO2 T01610128
63870K0J4 0J420161124000511511/24/16 00:05:31  5-MIN K0J4 240505Z AUTO 00000KT 8SM SCT025 BKN032 17/13 A3020 60 77 300 000/00 RMK AO2 T01670128
63870K0J4 0J420161124001011511/24/16 00:10:31  5-MIN K0J4 240510Z AUTO 00000KT 8SM BKN025 BKN032 17/13 A3020 60 77 300 000/00 RMK AO2 T01670128
63870K0J4 0J420161124001511511/24/16 00:15:31  5-MIN K0J4 240515Z AUTO 00000KT 9SM BKN026 OVC034 17/13 A3020 60 78 400 000/00 RMK AO2 T01720133
63870K0J4 0J420161124002012311/24/16 00:20:31  5-MIN K0J4 240520Z AUTO 00000KT 10SM SCT026 BKN034 OVC043 17/13 A3020 60 78 400 000/00 RMK AO2 T01720133
63870K0J4 0J420161124002512311/24/16 00:25:31  5-MIN K0J4 240525Z AUTO 00000KT 10SM SCT026 BKN034 BKN043 18/14 A3020 60 81 400 000/00 RMK AO2 T01780144
63870K0J4 0J420161124003011511/24/16 00:30:31  5-MIN K0J4 240530Z AUTO 00000KT 9SM SCT026 BKN034 17/13 A3020 60 78 400 000/00 RMK AO2 T01720133
63870K0J4 0J420161124003512211/24/16 00:35:31  5-MIN K0J4 240535Z AUTO 00000KT 9SM FEW028 SCT034 SCT041 18/14 A3020 60 78 400 000/00 RMK AO2 T01780139
63870K0J4 0J420161124004012211/24/16 00:40:31  5-MIN K0J4 240540Z AUTO 00000KT 8SM FEW026 SCT034 SCT041 18/14 A3020 60 78 400 000/00 RMK AO2 T01780139
63870K0J4 0J420161124004512211/24/16 00:45:31  5-MIN K0J4 240545Z AUTO 00000KT 7SM FEW026 FEW032 SCT041 18/14 A3020 60 78 400 000/00 RMK AO2 T01780139
63870K0J4 0J420161124005011511/24/16 00:50:31  5-MIN K0J4 240550Z AUTO 00000KT 7SM FEW026 SCT041 18/13 A3020 60 75 400 000/00 RMK AO2 T01780133
63870K0J4 0J420161124005514311/24/16 00:55:31  5-MIN K0J4 240555Z AUTO 00000KT 6SM HZ FEW026 SCT039 18/13 A3020 60 75 400 000/00 RMK AO2 SLP223 T01780133 10239 20161 50012
63870K0J4 0J420161124010011811/24/16 01:00:31  5-MIN K0J4 240600Z AUTO 00000KT 6SM HZ FEW027 SCT037 18/14 A3020 60 78 400 000/00 RMK AO2 T01780139
63870K0J4 0J420161124010512511/24/16 01:05:31  5-MIN K0J4 240605Z AUTO 00000KT 6SM HZ FEW027 SCT034 SCT041 18/14 A3020 60 78 400 000/00 RMK AO2 T01780139
63870K0J4 0J420161124011011811/24/16 01:10:31  5-MIN K0J4 240610Z AUTO 00000KT 6SM HZ FEW029 SCT035 18/14 A3020 60 81 400 000/00 RMK AO2 T01780144
63870K0J4 0J420161124011511111/24/16 01:15:31  5-MIN K0J4 240615Z AUTO 00000KT 4SM HZ FEW029 18/14 A3020 60 78 400 000/00 RMK AO2 T01780139
63870K0J4 0J420161124012011111/24/16 01:20:31  5-MIN K0J4 240620Z AUTO 00000KT 3SM HZ FEW032 17/14 A3020 60 80 400 000/00 RMK AO2 T01720139
63870K0J4 0J420161124012511111/24/16 01:25:31  5-MIN K0J4 240625Z AUTO 00000KT 3SM HZ FEW032 18/14 A3020 60 78 400 000/00 RMK AO2 T01780139
63870K0J4 0J420161124013011511/24/16 01:30:31  5-MIN K0J4 240630Z AUTO 00000KT 1 1/2SM HZ FEW032 17/14 A3020 60 80 400 000/00 RMK AO2 T01720139
63870K0J4 0J420161124013512011/24/16 01:35:31  5-MIN K0J4 240635Z AUTO 00000KT 3/4SM HZ SCT003 SCT033 17/13 A3019 60 78 400 000/00 RMK AO2 T01720133
63870K0J4 0J420161124014011211/24/16 01:40:31  5-MIN K0J4 240640Z AUTO 00000KT 1/2SM HZ VV002 17/13 A3020 60 77 300 000/00 RMK AO2 T01670128
63870K0J4 0J420161124014511211/24/16 01:45:31  5-MIN K0J4 240645Z AUTO 00000KT 1/4SM HZ VV002 17/13 A3020 60 78 400 000/00 RMK AO2 T01720133
63870K0J4 0J420161124015011211/24/16 01:50:31  5-MIN K0J4 240650Z AUTO 00000KT 1/4SM HZ VV001 17/13 A3020 60 80 300 000/00 RMK AO2 T01670133
63870K0J4 0J420161124015511911/24/16 01:55:31  5-MIN K0J4 240655Z AUTO 00000KT 1/4SM HZ VV001 17/14 A3020 60 80 400 000/00 RMK AO2 SLP221 T01720139
63870K0J4 0J420161124020011211/24/16 02:00:31  5-MIN K0J4 240700Z AUTO 00000KT 1/4SM HZ VV001 18/14 A3020 60 81 400 000/00 RMK AO2 T01780144
63870K0J4 0J420161124020511211/24/16 02:05:31  5-MIN K0J4 240705Z AUTO 00000KT 1/4SM HZ VV001 18/14 A3020 60 81 400 000/00 RMK AO2 T01780144
63870K0J4 0J420161124021011211/24/16 02:10:31  5-MIN K0J4 240710Z AUTO 00000KT 1/4SM HZ VV001 18/14 A3020 60 81 400 000/00 RMK AO2 T01780144
63870K0J4 0J420161124021511211/24/16 02:15:31  5-MIN K0J4 240715Z AUTO 00000KT 1/4SM HZ VV001 18/15 A3020 60 81 500 000/00 RMK AO2 T01830150
63870K0J4 0J420161124022011211/24/16 02:20:31  5-MIN K0J4 240720Z AUTO 00000KT 1/4SM HZ VV001 18/15 A3020 60 81 500 000/00 RMK AO2 T01830150
63870K0J4 0J420161124022511211/24/16 02:25:31  5-MIN K0J4 240725Z AUTO 00000KT 1/4SM HZ VV001 18/15 A3020 60 81 500 000/00 RMK AO2 T01830150
63870K0J4 0J420161124023011211/24/16 02:30:31  5-MIN K0J4 240730Z AUTO 00000KT 1/4SM HZ VV001 18/14 A3019 60 78 500 000/00 RMK AO2 T01830144
63870K0J4 0J420161124023511211/24/16 02:35:31  5-MIN K0J4 240735Z AUTO 00000KT 1/4SM HZ VV001 18/14 A3019 60 81 400 000/00 RMK AO2 T01780144
63870K0J4 0J420161124024011211/24/16 02:40:31  5-MIN K0J4 240740Z AUTO 00000KT 1/4SM HZ VV001 18/14 A3019 60 78 400 000/00 RMK AO2 T01780139
63870K0J4 0J420161124024511211/24/16 02:45:31  5-MIN K0J4 240745Z AUTO 00000KT 1/4SM HZ VV001 18/14 A3019 70 81 400 000/00 RMK AO2 T01780144
63870K0J4 0J420161124025011211/24/16 02:50:31  5-MIN K0J4 240750Z AUTO 00000KT 1/4SM HZ VV001 18/14 A3019 60 78 500 000/00 RMK AO2 T01830144
63870K0J4 0J420161124025511911/24/16 02:55:31  5-MIN K0J4 240755Z AUTO 00000KT 1/4SM HZ VV001 18/14 A3019 60 81 400 000/00 RMK AO2 SLP221 T01780144
63870K0J4 0J420161124030011211/24/16 03:00:31  5-MIN K0J4 240800Z AUTO 00000KT 1/4SM HZ VV001 18/14 A3019 60 81 400 000/00 RMK AO2 T01780144
63870K0J4 0J420161124030511211/24/16 03:05:31  5-MIN K0J4 240805Z AUTO 00000KT 1/4SM HZ VV001 18/14 A3019 60 81 400 000/00 RMK AO2 T01780144
63870K0J4 0J420161124031011211/24/16 03:10:31  5-MIN K0J4 240810Z AUTO 00000KT 1/4SM HZ VV001 18/15 A3019 60 81 500 000/00 RMK AO2 T01830150
63870K0J4 0J420161124031511211/24/16 03:15:31  5-MIN K0J4 240815Z AUTO 00000KT 1/4SM HZ VV001 18/14 A3019 60 81 400 000/00 RMK AO2 T01780144
63870K0J4 0J420161124032011211/24/16 03:20:31  5-MIN K0J4 240820Z AUTO 00000KT 1/4SM HZ VV001 18/14 A3019 60 81 400 000/00 RMK AO2 T01780144
63870K0J4 0J420161124032511211/24/16 03:25:31  5-MIN K0J4 240825Z AUTO 00000KT 1/4SM HZ VV001 18/14 A3019 60 78 400 000/00 RMK AO2 T01780139
63870K0J4 0J420161124033011211/24/16 03:30:31  5-MIN K0J4 240830Z AUTO 00000KT 1/4SM HZ VV001 18/14 A3019 60 81 400 000/00 RMK AO2 T01780144
63870K0J4 0J420161124033511211/24/16 03:35:31  5-MIN K0J4 240835Z AUTO 00000KT 1/4SM HZ VV001 18/14 A3019 60 78 400 000/00 RMK AO2 T01780139
63870K0J4 0J420161124034011211/24/16 03:40:31  5-MIN K0J4 240840Z AUTO 00000KT 1/4SM HZ VV001 18/14 A3019 70 78 400 000/00 RMK AO2 T01780139
63870K0J4 0J420161124034511211/24/16 03:45:31  5-MIN K0J4 240845Z AUTO 00000KT 1/4SM HZ VV001 18/14 A3019 70 78 400 000/00 RMK AO2 T01780139
63870K0J4 0J420161124035011211/24/16 03:50:31  5-MIN K0J4 240850Z AUTO 00000KT 1/4SM HZ VV001 18/14 A3019 60 78 400 000/00 RMK AO2 T01780139
63870K0J4 0J420161124035512511/24/16 03:55:31  5-MIN K0J4 240855Z AUTO 00000KT 1/2SM HZ VV001 18/14 A3019 60 78 400 000/00 RMK AO2 SLP221 T01780139 50005
63870K0J4 0J420161124040011211/24/16 04:00:31  5-MIN K0J4 240900Z AUTO 00000KT 1/2SM HZ VV001 18/13 A3020 60 72 500 000/00 RMK AO2 T01830133
63870K0J4 0J420161124040511211/24/16 04:05:31  5-MIN K0J4 240905Z AUTO 00000KT 1/4SM HZ VV001 18/14 A3020 60 78 400 000/00 RMK AO2 T01780139
63870K0J4 0J420161124041011211/24/16 04:10:31  5-MIN K0J4 240910Z AUTO 00000KT 1/4SM HZ VV001 17/13 A3020 60 78 400 000/00 RMK AO2 T01720133
63870K0J4 0J420161124041511211/24/16 04:15:31  5-MIN K0J4 240915Z AUTO 00000KT 1/4SM HZ VV001 17/13 A3020 60 78 400 000/00 RMK AO2 T01720133
63870K0J4 0J420161124042011211/24/16 04:20:31  5-MIN K0J4 240920Z AUTO 00000KT 1/4SM HZ VV001 17/13 A3020 60 80 300 000/00 RMK AO2 T01670133
63870K0J4 0J420161124042511211/24/16 04:25:31  5-MIN K0J4 240925Z AUTO 00000KT 1/2SM HZ VV001 17/13 A3020 60 78 400 000/00 RMK AO2 T01720133
63870K0J4 0J420161124043011211/24/16 04:30:31  5-MIN K0J4 240930Z AUTO 00000KT 1/2SM HZ VV001 17/13 A3020 60 78 400 000/00 RMK AO2 T01720133
63870K0J4 0J420161124043511211/24/16 04:35:31  5-MIN K0J4 240935Z AUTO 00000KT 1/2SM HZ VV001 17/14 A3020 60 80 400 000/00 RMK AO2 T01720139
63870K0J4 0J420161124044011211/24/16 04:40:31  5-MIN K0J4 240940Z AUTO 00000KT 1/2SM HZ VV001 17/14 A3020 60 80 400 000/00 RMK AO2 T01720139
63870K0J4 0J420161124044511211/24/16 04:45:31  5-MIN K0J4 240945Z AUTO 00000KT 1/4SM HZ VV001 17/14 A3020 60 80 400 000/00 RMK AO2 T01720139
63870K0J4 0J420161124045011211/24/16 04:50:31  5-MIN K0J4 240950Z AUTO 00000KT 1/4SM HZ VV001 17/13 A3020 60 78 400 000/00 RMK AO2 T01720133
63870K0J4 0J420161124045511911/24/16 04:55:31  5-MIN K0J4 240955Z AUTO 00000KT 1/4SM HZ VV001 17/13 A3020 60 78 400 000/00 RMK AO2 SLP223 T01720133
63870K0J4 0J420161124050011211/24/16 05:00:31  5-MIN K0J4 241000Z AUTO 00000KT 1/2SM HZ VV001 17/13 A3020 60 78 400 000/00 RMK AO2 T01720133
63870K0J4 0J420161124050511211/24/16 05:05:31  5-MIN K0J4 241005Z AUTO 00000KT 1/2SM HZ VV001 17/13 A3020 60 75 400 000/00 RMK AO2 T01720128
63870K0J4 0J420161124051011211/24/16 05:10:31  5-MIN K0J4 241010Z AUTO 00000KT 1/2SM HZ VV001 17/13 A3020 60 78 400 000/00 RMK AO2 T01720133
63870K0J4 0J420161124051511211/24/16 05:15:31  5-MIN K0J4 241015Z AUTO 00000KT 1/4SM HZ VV001 17/13 A3020 60 78 400 000/00 RMK AO2 T01720133
63870K0J4 0J420161124052012011/24/16 05:20:31  5-MIN K0J4 241020Z AUTO 00000KT 1/2SM HZ BKN001 OVC055 17/13 A3020 60 78 400 000/00 RMK AO2 T01720133
63870K0J4 0J420161124052512011/24/16 05:25:31  5-MIN K0J4 241025Z AUTO 00000KT 1/2SM HZ BKN001 OVC055 17/13 A3020 60 78 400 000/00 RMK AO2 T01720133
63870K0J4 0J420161124053011211/24/16 05:30:31  5-MIN K0J4 241030Z AUTO 00000KT 1/2SM HZ VV001 17/13 A3020 50 78 400 000/00 RMK AO2 T01720133
63870K0J4 0J420161124053511211/24/16 05:35:31  5-MIN K0J4 241035Z AUTO 00000KT 1/2SM HZ VV001 17/13 A3020 50 78 400 000/00 RMK AO2 T01720133
63870K0J4 0J420161124054011211/24/16 05:40:31  5-MIN K0J4 241040Z AUTO 00000KT 1/2SM HZ VV001 17/13 A3021 50 80 300 000/00 RMK AO2 T01670133
63870K0J4 0J420161124054511211/24/16 05:45:31  5-MIN K0J4 241045Z AUTO 00000KT 1/2SM HZ VV001 17/13 A3021 50 80 300 000/00 RMK AO2 T01670133
63870K0J4 0J420161124055011211/24/16 05:50:31  5-MIN K0J4 241050Z AUTO 00000KT 1/4SM HZ VV001 17/13 A3021 50 78 400 000/00 RMK AO2 T01720133
63870K0J4 0J420161124055511911/24/16 05:55:31  5-MIN K0J4 241055Z AUTO 00000KT 1/4SM HZ VV001 17/13 A3021 50 78 400 000/00 RMK AO2 SLP227 T01720133
63870K0J4 0J420161124060011211/24/16 06:00:31  5-MIN K0J4 241100Z AUTO 00000KT 1/4SM HZ VV001 17/13 A3021 50 80 300 000/00 RMK AO2 T01670133
63870K0J4 0J420161124060511211/24/16 06:05:31  5-MIN K0J4 241105Z AUTO 00000KT 1/4SM HZ VV001 17/13 A3021 50 80 300 000/00 RMK AO2 T01670133
63870K0J4 0J420161124061011211/24/16 06:10:31  5-MIN K0J4 241110Z AUTO 00000KT 1/4SM HZ VV001 17/13 A3021 50 77 300 000/00 RMK AO2 T01670128
63870K0J4 0J420161124061511211/24/16 06:15:31  5-MIN K0J4 241115Z AUTO 00000KT 1/4SM HZ VV001 17/13 A3021 50 78 400 000/00 RMK AO2 T01720133
63870K0J4 0J420161124062011211/24/16 06:20:31  5-MIN K0J4 241120Z AUTO 00000KT 1/4SM HZ VV001 17/13 A3022 40 78 400 000/00 RMK AO2 T01720133
63870K0J4 0J420161124062511211/24/16 06:25:31  5-MIN K0J4 241125Z AUTO 00000KT 1/4SM HZ VV001 17/13 A3022 40 78 400 000/00 RMK AO2 T01720133
63870K0J4 0J420161124063011211/24/16 06:30:31  5-MIN K0J4 241130Z AUTO 00000KT 1/4SM HZ VV001 17/13 A3022 40 78 400 000/00 RMK AO2 T01720133
63870K0J4 0J420161124063511211/24/16 06:35:31  5-MIN K0J4 241135Z AUTO 00000KT 1/4SM HZ VV001 17/13 A3022 40 78 400 000/00 RMK AO2 T01720133
63870K0J4 0J420161124064011211/24/16 06:40:31  5-MIN K0J4 241140Z AUTO 00000KT 1/4SM HZ VV001 17/13 A3022 40 78 400 000/00 RMK AO2 T01720133
63870K0J4 0J420161124064511211/24/16 06:45:31  5-MIN K0J4 241145Z AUTO 00000KT 1/4SM HZ VV001 17/13 A3022 40 78 400 000/00 RMK AO2 T01720133
63870K0J4 0J420161124065011211/24/16 06:50:31  5-MIN K0J4 241150Z AUTO 00000KT 1/4SM HZ VV001 17/13 A3022 40 78 400 000/00 RMK AO2 T01720133
63870K0J4 0J420161124065514511/24/16 06:55:31  5-MIN K0J4 241155Z AUTO 00000KT 1/2SM HZ BKN001 OVC044 17/14 A3022 40 80 300 000/00 RMK AO2 SLP232 T01720139 10183 20167 55001
63870K0J4 0J420161124070012011/24/16 07:00:31  5-MIN K0J4 241200Z AUTO 00000KT 1/2SM HZ BKN001 OVC044 17/13 A3022 40 78 300 000/00 RMK AO2 T01720133
63870K0J4 0J420161124070511811/24/16 07:05:31  5-MIN K0J4 241205Z AUTO 00000KT 1SM HZ SCT001 OVC044 17/13 A3022 40 78 300 000/00 RMK AO2 T01720133
63870K0J4 0J420161124071011811/24/16 07:10:31  5-MIN K0J4 241210Z AUTO 00000KT 2SM HZ SCT001 OVC044 17/13 A3022 40 78 300 000/00 RMK AO2 T01720133
63870K0J4 0J420161124071512511/24/16 07:15:31  5-MIN K0J4 241215Z AUTO 00000KT 4SM HZ SCT001 BKN044 OVC060 18/13 A3022 40 75 400 000/00 RMK AO2 T01780133
63870K0J4 0J420161124072012511/24/16 07:20:31  5-MIN K0J4 241220Z AUTO 00000KT 6SM HZ SCT001 BKN044 OVC060 17/13 A3023 30 78 300 000/00 RMK AO2 T01720133
63870K0J4 0J420161124072513811/24/16 07:25:31  5-MIN K0J4 241225Z AUTO 00000KT 7SM -RA SCT001 BKN044 OVC060 17/13 A3023 30 78 300 000/00 RMK AO2 RAB25 P0000 T01720133
63870K0J4 0J420161124073013811/24/16 07:30:31  5-MIN K0J4 241230Z AUTO 00000KT 6SM -RA SCT001 BKN044 OVC060 17/13 A3023 30 78 300 000/00 RMK AO2 RAB25 P0000 T01720133
63870K0J4 0J420161124073513811/24/16 07:35:31  5-MIN K0J4 241235Z AUTO 00000KT 6SM -RA SCT001 BKN049 OVC060 17/13 A3023 30 78 300 000/00 RMK AO2 RAB25 P0000 T01720133
63870K0J4 0J420161124074013111/24/16 07:40:31  5-MIN K0J4 241240Z AUTO 00000KT 7SM -RA SCT001 OVC060 17/13 A3023 30 78 300 000/00 RMK AO2 RAB25 P0000 T01720133
63870K0J4 0J420161124074513111/24/16 07:45:31  5-MIN K0J4 241245Z AUTO 00000KT 7SM -RA FEW001 OVC060 17/13 A3023 30 78 300 000/00 RMK AO2 RAB25 P0000 T01720133
63870K0J4 0J420161124075013111/24/16 07:50:31  5-MIN K0J4 241250Z AUTO 00000KT 7SM -RA FEW001 OVC060 17/13 A3023 30 78 300 000/00 RMK AO2 RAB25 P0000 T01720133
63870K0J4 0J420161124075513811/24/16 07:55:31  5-MIN K0J4 241255Z AUTO 00000KT 7SM -RA FEW001 OVC060 17/13 A3023 30 78 300 000/00 RMK AO2 RAB25 SLP234 P0000 T01720133
63870K0J4 0J420161124080011811/24/16 08:00:31  5-MIN K0J4 241300Z AUTO 00000KT 7SM -RA OVC060 18/13 A3023 30 75 400 000/00 RMK AO2 P0000 T01780133
63870K0J4 0J420161124080511811/24/16 08:05:31  5-MIN K0J4 241305Z AUTO 00000KT 7SM -RA OVC060 18/14 A3023 30 78 400 000/00 RMK AO2 P0000 T01780139
63870K0J4 0J420161124081011811/24/16 08:10:31  5-MIN K0J4 241310Z AUTO 00000KT 7SM -RA OVC060 18/14 A3024 30 78 400 000/00 RMK AO2 P0000 T01780139
63870K0J4 0J420161124081511811/24/16 08:15:31  5-MIN K0J4 241315Z AUTO 00000KT 7SM -RA OVC060 18/14 A3024 20 75 500 000/00 RMK AO2 P0000 T01830139
63870K0J4 0J420161124082011811/24/16 08:20:31  5-MIN K0J4 241320Z AUTO 00000KT 8SM -RA OVC060 19/14 A3024 20 75 500 000/00 RMK AO2 P0000 T01890144
63870K0J4 0J420161124082512011/24/16 08:25:31  5-MIN K0J4 241325Z AUTO 00000KT 7SM OVC060 19/14 A3024 20 72 600 000/00 RMK AO2 RAE22 P0000 T01940144
63870K0J4 0J420161124083012011/24/16 08:30:31  5-MIN K0J4 241330Z AUTO 00000KT 7SM OVC060 19/14 A3024 20 75 500 000/00 RMK AO2 RAE22 P0000 T01890144
63870K0J4 0J420161124083512011/24/16 08:35:31  5-MIN K0J4 241335Z AUTO 00000KT 7SM OVC060 19/14 A3024 20 72 600 000/00 RMK AO2 RAE22 P0000 T01940144
63870K0J4 0J420161124084012711/24/16 08:40:31  5-MIN K0J4 241340Z AUTO 15003KT 7SM -RA OVC060 20/14 A3024 20 70 600 150/03 RMK AO2 RAE22B40 P0000 T02000144
63870K0J4 0J420161124084512711/24/16 08:45:31  5-MIN K0J4 241345Z AUTO 16003KT 8SM -RA OVC060 21/14 A3025 20 65 800 160/03 RMK AO2 RAE22B40 P0000 T02110144
63870K0J4 0J420161124085012611/24/16 08:50:31  5-MIN K0J4 241350Z AUTO 00000KT 8SM OVC060 22/14 A3025 10 63 800 000/00 RMK AO2 RAE22B40E49 P0000 T02170144
63870K0J4 0J420161124085513311/24/16 08:55:31  5-MIN K0J4 241355Z AUTO 00000KT 8SM OVC060 21/15 A3025 10 68 800 000/00 RMK AO2 RAE22B40E49 SLP240 P0000 T02110150
63870K0J4 0J420161124090011811/24/16 09:00:31  5-MIN K0J4 241400Z AUTO 00000KT 8SM -RA OVC060 22/15 A3025 10 65 800 000/00 RMK AO2 P0000 T02170150
63870K0J4 0J420161124090512011/24/16 09:05:31  5-MIN K0J4 241405Z AUTO 00000KT 9SM OVC060 21/16 A3025 10 73 700 000/00 RMK AO2 RAE04 P0000 T02060156
63870K0J4 0J420161124091012011/24/16 09:10:31  5-MIN K0J4 241410Z AUTO 00000KT 8SM OVC060 21/15 A3025 10 68 800 000/00 RMK AO2 RAE04 P0000 T02110150
63870K0J4 0J420161124091512011/24/16 09:15:31  5-MIN K0J4 241415Z AUTO 00000KT 8SM BKN060 21/16 A3025 10 70 800 000/00 RMK AO2 RAE04 P0000 T02110156
63870K0J4 0J420161124092012011/24/16 09:20:31  5-MIN K0J4 241420Z AUTO 00000KT 9SM SCT060 22/16 A3025 10 70 800 000/00 RMK AO2 RAE04 P0000 T02170161
63870K0J4 0J420161124092512111/24/16 09:25:31  5-MIN K0J4 241425Z AUTO 00000KT 9SM SCT060 24/16 A3025 10 61 1100 000/00 RMK AO2 RAE04 P0000 T02390161
63870K0J4 0J420161124093012211/24/16 09:30:31  5-MIN K0J4 241430Z AUTO 15003KT 10SM FEW060 25/16 A3026 10 57 1200 150/03 RMK AO2 RAE04 P0000 T02500161
63870K0J4 0J420161124093512811/24/16 09:35:31  5-MIN K0J4 241435Z AUTO 00000KT 10SM FEW031 FEW060 26/16 A3026 0 53 1300 000/00 RMK AO2 RAE04 P0000 T02610161
63870K0J4 0J420161124094012111/24/16 09:40:31  5-MIN K0J4 241440Z AUTO 14003KT 10SM SCT031 27/16 A3026 0 52 1400 140/03 RMK AO2 RAE04 P0000 T02670161
63870K0J4 0J420161124094512111/24/16 09:45:31  5-MIN K0J4 241445Z AUTO 00000KT 10SM SCT032 27/16 A3026 0 52 1400 000/00 RMK AO2 RAE04 P0000 T02670161
63870K0J4 0J420161124095012111/24/16 09:50:31  5-MIN K0J4 241450Z AUTO 00000KT 10SM BKN032 27/16 A3026 0 52 1400 000/00 RMK AO2 RAE04 P0000 T02670161
63870K0J4 0J420161124095514011/24/16 09:55:31  5-MIN K0J4 241455Z AUTO 00000KT 10SM BKN032 28/16 A3026 0 48 1500 000/00 RMK AO2 RAE04 SLP244 P0000 60000 T02780161 53009
63870K0J4 0J420161124100010911/24/16 10:00:31  5-MIN K0J4 241500Z AUTO 00000KT 10SM BKN032 29/16 A3026 0 45 1600 000/00 RMK AO2 T02890161
63870K0J4 0J420161124100511611/24/16 10:05:31  5-MIN K0J4 241505Z AUTO 00000KT 10SM SCT032 SCT060 29/16 A3027 0 45 1600 000/00 RMK AO2 T02890161
63870K0J4 0J420161124101011611/24/16 10:10:31  5-MIN K0J4 241510Z AUTO 18003KT 10SM SCT032 SCT060 30/16 A3027 0 42 1800 180/03 RMK AO2 T03000161
63870K0J4 0J420161124101510911/24/16 10:15:31  5-MIN K0J4 241515Z AUTO 18004KT 10SM FEW031 31/16 A3026 0 41 1800 180/04 RMK AO2 T03060161
63870K0J4 0J420161124102010911/24/16 10:20:31  5-MIN K0J4 241520Z AUTO 20004KT 10SM FEW031 32/16 A3026 0 37 1900 200/04 RMK AO2 T03170156
63870K0J4 0J420161124102510911/24/16 10:25:31  5-MIN K0J4 241525Z AUTO 18004KT 10SM FEW031 32/16 A3026 0 36 2000 180/04 RMK AO2 T03220156
63870K0J4 0J420161124103010911/24/16 10:30:31  5-MIN K0J4 241530Z AUTO 18005KT 10SM FEW031 32/16 A3026 0 37 1900 180/05 RMK AO2 T03170156
63870K0J4 0J420161124103510611/24/16 10:35:31  5-MIN K0J4 241535Z AUTO 19004KT 10SM CLR 33/15 A3026 0 33 2100 190/04 RMK AO2 T03280150
63870K0J4 0J420161124104010611/24/16 10:40:31  5-MIN K0J4 241540Z AUTO 17006KT 10SM CLR 33/15 A3026 0 32 2100 170/06 RMK AO2 T03330150
63870K0J4 0J420161124104510611/24/16 10:45:31  5-MIN K0J4 241545Z AUTO 19005KT 10SM CLR 34/15 A3026 0 31 2200 190/05 RMK AO2 T03390150
63870K0J4 0J420161124105010611/24/16 10:50:31  5-MIN K0J4 241550Z AUTO VRB04KT 10SM CLR 33/14 A3026 0 31 2100 VRB/04 RMK AO2 T03330144
63870K0J4 0J420161124105511311/24/16 10:55:31  5-MIN K0J4 241555Z AUTO VRB05KT 10SM CLR 33/14 A3026 0 31 2100 VRB/05 RMK AO2 SLP242 T03330144
63870K0J4 0J420161124110010711/24/16 11:00:31  5-MIN K0J4 241600Z AUTO 19006KT 10SM CLR 34/14 A3026 10 30 2200 190/06 RMK AO2 T03390144
63870K0J4 0J420161124110511011/24/16 11:05:31  5-MIN K0J4 241605Z AUTO 19006KT 10SM FEW032 34/14 A3026 10 29 2300 190/06 RMK AO2 T03440144
63870K0J4 0J420161124111011011/24/16 11:10:31  5-MIN K0J4 241610Z AUTO 24008KT 10SM FEW032 33/14 A3026 10 31 2100 240/08 RMK AO2 T03330144
63870K0J4 0J420161124111511011/24/16 11:15:31  5-MIN K0J4 241615Z AUTO 24006KT 10SM FEW032 33/14 A3026 10 31 2100 240/06 RMK AO2 T03330144
63870K0J4 0J420161124112011011/24/16 11:20:31  5-MIN K0J4 241620Z AUTO 00000KT 10SM FEW032 32/14 A3025 10 33 2000 000/00 RMK AO2 T03220144
63870K0J4 0J420161124112511011/24/16 11:25:31  5-MIN K0J4 241625Z AUTO 22009KT 10SM SCT032 33/14 A3025 10 31 2100 220/09 RMK AO2 T03330144
63870K0J4 0J420161124113011011/24/16 11:30:31  5-MIN K0J4 241630Z AUTO 20007KT 10SM SCT032 34/14 A3025 10 30 2200 200/07 RMK AO2 T03390144
63870K0J4 0J420161124113511011/24/16 11:35:31  5-MIN K0J4 241635Z AUTO 20008KT 10SM FEW032 33/15 A3025 10 32 2100 200/08 RMK AO2 T03330150
63870K0J4 0J420161124114011011/24/16 11:40:31  5-MIN K0J4 241640Z AUTO 19006KT 10SM FEW032 33/14 A3025 20 31 2100 190/06 RMK AO2 T03330144
63870K0J4 0J420161124114511011/24/16 11:45:31  5-MIN K0J4 241645Z AUTO 17007KT 10SM FEW032 34/15 A3024 20 31 2200 170/07 RMK AO2 T03390150
63870K0J4 0J420161124115011011/24/16 11:50:31  5-MIN K0J4 241650Z AUTO 21005KT 10SM FEW032 34/14 A3024 20 30 2200 210/05 RMK AO2 T03390144
63870K0J4 0J420161124115511411/24/16 11:55:31  5-MIN K0J4 241655Z AUTO 20006KT 10SM CLR 34/14 A3024 20 29 2300 200/06 RMK AO2 SLP235 T03440144
63870K0J4 0J420161124120011011/24/16 12:00:31  5-MIN K0J4 241700Z AUTO VRB04KT 10SM FEW033 35/14 A3024 30 28 2300 VRB/04 RMK AO2 T03500144
63870K0J4 0J420161124120511711/24/16 12:05:31  5-MIN K0J4 241705Z AUTO 00000KT 10SM SCT034 SCT043 33/14 A3023 30 32 2100 000/00 RMK AO2 T03280144
63870K0J4 0J420161124121011711/24/16 12:10:31  5-MIN K0J4 241710Z AUTO VRB04KT 10SM SCT036 BKN050 33/14 A3023 30 31 2200 VRB/04 RMK AO2 T03330144
63870K0J4 0J420161124121512611/24/16 12:15:31  5-MIN K0J4 241715Z AUTO VRB04KT 10SM -RA BKN036 33/14 A3023 30 31 2200 VRB/04 RMK AO2 RAB12 P0000 T03330144
63870K0J4 0J420161124122012511/24/16 12:20:31  5-MIN K0J4 241720Z AUTO VRB05KT 10SM BKN036 33/14 A3022 40 31 2200 VRB/05 RMK AO2 RAB12E18 P0000 T03330144
63870K0J4 0J420161124122512511/24/16 12:25:31  5-MIN K0J4 241725Z AUTO 21007KT 10SM BKN036 36/14 A3022 40 27 2500 210/07 RMK AO2 RAB12E18 P0000 T03610144
63870K0J4 0J420161124123012511/24/16 12:30:31  5-MIN K0J4 241730Z AUTO 19006KT 10SM BKN036 36/14 A3022 40 27 2500 190/06 RMK AO2 RAB12E18 P0000 T03610144
63870K0J4 0J420161124123512511/24/16 12:35:31  5-MIN K0J4 241735Z AUTO VRB05KT 10SM SCT036 36/14 A3022 40 26 2400 VRB/05 RMK AO2 RAB12E18 P0000 T03560139
63870K0J4 0J420161124124013211/24/16 12:40:31  5-MIN K0J4 241740Z AUTO 22003KT 10SM SCT036 BKN050 34/14 A3022 40 28 2300 220/03 RMK AO2 RAB12E18 P0000 T03440139
63870K0J4 0J420161124124513211/24/16 12:45:31  5-MIN K0J4 241745Z AUTO 00000KT 10SM SCT038 BKN050 33/14 A3021 50 32 2100 000/00 RMK AO2 RAB12E18 P0000 T03280144
63870K0J4 0J420161124125013211/24/16 12:50:31  5-MIN K0J4 241750Z AUTO 22006KT 10SM SCT038 BKN050 33/14 A3021 50 30 2200 220/06 RMK AO2 RAB12E18 P0000 T03330139
63870K0J4 0J420161124125516311/24/16 12:55:31  5-MIN K0J4 241755Z AUTO 20007KT 10SM BKN038 BKN050 36/14 A3021 50 26 2500 200/07 RMK AO2 RAB12E18 SLP225 P0000 60000 T03610139 10367 20172 53014
63870K0J4 0J420161124130011711/24/16 13:00:31  5-MIN K0J4 241800Z AUTO VRB03KT 10SM SCT039 BKN055 36/14 A3021 50 26 2500 VRB/03 RMK AO2 T03610139
63870K0J4 0J420161124130510711/24/16 13:05:31  5-MIN K0J4 241805Z AUTO 10SM BKN039 OVC060 36/14 A3020 60 26 2500 M /M RMK AO2 T03610139
63870K0J4 0J420161124131011711/24/16 13:10:31  5-MIN K0J4 241810Z AUTO 20007KT 10SM BKN040 BKN060 37/13 A3020 60 24 2600 200/07 RMK AO2 T03670133
63870K0J4 0J420161124131511711/24/16 13:15:31  5-MIN K0J4 241815Z AUTO VRB05KT 10SM SCT040 BKN060 35/14 A3020 60 27 2400 VRB/05 RMK AO2 T03500139
63870K0J4 0J420161124132011711/24/16 13:20:31  5-MIN K0J4 241820Z AUTO VRB04KT 10SM SCT042 BKN055 34/13 A3020 60 28 2300 VRB/04 RMK AO2 T03390133
63870K0J4 0J420161124132511711/24/16 13:25:31  5-MIN K0J4 241825Z AUTO 19006KT 10SM SCT044 BKN055 34/14 A3020 60 28 2300 190/06 RMK AO2 T03440139
63870K0J4 0J420161124133011711/24/16 13:30:31  5-MIN K0J4 241830Z AUTO 20008KT 10SM BKN044 BKN055 36/14 A3019 60 26 2500 200/08 RMK AO2 T03560139
63870K0J4 0J420161124133511711/24/16 13:35:31  5-MIN K0J4 241835Z AUTO 21008KT 10SM BKN046 BKN055 36/13 A3019 70 25 2500 210/08 RMK AO2 T03560133
63870K0J4 0J420161124134011711/24/16 13:40:31  5-MIN K0J4 241840Z AUTO 18007KT 10SM BKN046 BKN055 34/13 A3019 70 27 2300 180/07 RMK AO2 T03440133
63870K0J4 0J420161124134511711/24/16 13:45:31  5-MIN K0J4 241845Z AUTO VRB06KT 10SM BKN045 BKN060 33/13 A3019 70 29 2200 VRB/06 RMK AO2 T03330133
63870K0J4 0J420161124135011711/24/16 13:50:31  5-MIN K0J4 241850Z AUTO 14003KT 10SM BKN045 OVC060 33/13 A3019 70 30 2200 140/03 RMK AO2 T03280133
63870K0J4 0J420161124135512411/24/16 13:55:31  5-MIN K0J4 241855Z AUTO 20007KT 10SM BKN045 OVC060 32/13 A3019 70 31 2100 200/07 RMK AO2 SLP217 T03220133
63870K0J4 0J420161124140011711/24/16 14:00:31  5-MIN K0J4 241900Z AUTO VRB03KT 10SM BKN045 OVC060 33/13 A3018 70 29 2200 VRB/03 RMK AO2 T03330133
63870K0J4 0J420161124140511711/24/16 14:05:31  5-MIN K0J4 241905Z AUTO 19009KT 10SM BKN047 OVC060 34/13 A3018 80 27 2300 190/09 RMK AO2 T03440133
63870K0J4 0J420161124141011711/24/16 14:10:31  5-MIN K0J4 241910Z AUTO 21011KT 10SM BKN047 OVC060 36/13 A3018 80 25 2500 210/11 RMK AO2 T03610133
63870K0J4 0J420161124141511711/24/16 14:15:31  5-MIN K0J4 241915Z AUTO 25006KT 10SM BKN047 BKN065 36/13 A3018 80 25 2500 250/06 RMK AO2 T03610133
63870K0J4 0J420161124142011711/24/16 14:20:31  5-MIN K0J4 241920Z AUTO 22008KT 10SM SCT047 SCT065 34/13 A3018 80 26 2300 220/08 RMK AO2 T03440128
63870K0J4 0J420161124142511711/24/16 14:25:31  5-MIN K0J4 241925Z AUTO 21005KT 10SM SCT047 SCT070 34/13 A3018 80 26 2300 210/05 RMK AO2 T03440128
63870K0J4 0J420161124143011711/24/16 14:30:31  5-MIN K0J4 241930Z AUTO 19006KT 10SM FEW047 SCT070 34/13 A3018 80 28 2300 190/06 RMK AO2 T03390133
63870K0J4 0J420161124143511711/24/16 14:35:31  5-MIN K0J4 241935Z AUTO VRB03KT 10SM FEW047 SCT070 33/13 A3018 80 30 2200 VRB/03 RMK AO2 T03280133
63870K0J4 0J420161124144011711/24/16 14:40:31  5-MIN K0J4 241940Z AUTO 22006KT 10SM SCT047 BKN065 32/13 A3018 80 31 2100 220/06 RMK AO2 T03220133
63870K0J4 0J420161124144511711/24/16 14:45:31  5-MIN K0J4 241945Z AUTO VRB04KT 10SM SCT047 SCT070 33/13 A3018 80 28 2200 VRB/04 RMK AO2 T03330128
63870K0J4 0J420161124145011711/24/16 14:50:31  5-MIN K0J4 241950Z AUTO VRB04KT 10SM FEW047 SCT070 32/13 A3017 80 30 2100 VRB/04 RMK AO2 T03220128
63870K0J4 0J420161124145512411/24/16 14:55:31  5-MIN K0J4 241955Z AUTO VRB04KT 10SM FEW047 BKN070 32/13 A3017 80 31 2000 VRB/04 RMK AO2 SLP213 T03170128
63870K0J4 0J420161124150011711/24/16 15:00:31  5-MIN K0J4 242000Z AUTO 00000KT 10SM FEW047 BKN065 32/13 A3017 80 30 2100 000/00 RMK AO2 T03220128
63870K0J4 0J420161124150511711/24/16 15:05:31  5-MIN K0J4 242005Z AUTO 00000KT 10SM SCT049 BKN065 32/13 A3017 80 30 2100 000/00 RMK AO2 T03220128
63870K0J4 0J420161124151011711/24/16 15:10:31  5-MIN K0J4 242010Z AUTO VRB04KT 10SM BKN055 BKN070 33/12 A3017 80 27 2200 VRB/04 RMK AO2 T03330122
63870K0J4 0J420161124151513311/24/16 15:15:31  5-MIN K0J4 242015Z AUTO 22007KT 180V290 10SM BKN050 BKN070 36/12 A3017 80 24 2500 220/07 180V290 RMK AO2 T03560122
63870K0J4 0J420161124152011711/24/16 15:20:31  5-MIN K0J4 242020Z AUTO 22007KT 10SM SCT055 BKN070 36/12 A3017 90 22 2500 220/07 RMK AO2 T03610117
63870K0J4 0J420161124152511711/24/16 15:25:31  5-MIN K0J4 242025Z AUTO 23006KT 10SM SCT055 BKN075 36/12 A3017 90 22 2500 230/06 RMK AO2 T03610117
63870K0J4 0J420161124153011711/24/16 15:30:31  5-MIN K0J4 242030Z AUTO 23006KT 10SM SCT050 BKN075 37/13 A3017 80 23 2600 230/06 RMK AO2 T03670128
63870K0J4 0J420161124153511711/24/16 15:35:31  5-MIN K0J4 242035Z AUTO 23008KT 10SM FEW050 SCT075 36/13 A3017 90 24 2500 230/08 RMK AO2 T03610128
63870K0J4 0J420161124154011711/24/16 15:40:31  5-MIN K0J4 242040Z AUTO VRB06KT 10SM FEW050 FEW075 36/13 A3017 80 25 2500 VRB/06 RMK AO2 T03560128
63870K0J4 0J420161124154511011/24/16 15:45:31  5-MIN K0J4 242045Z AUTO 23005KT 10SM FEW075 36/13 A3017 80 25 2500 230/05 RMK AO2 T03560128
63870K0J4 0J420161124155011011/24/16 15:50:31  5-MIN K0J4 242050Z AUTO 21005KT 10SM FEW075 35/13 A3017 80 25 2400 210/05 RMK AO2 T03500128
63870K0J4 0J420161124155512011/24/16 15:55:31  5-MIN K0J4 242055Z AUTO 22005KT 10SM CLR 34/13 A3017 80 26 2400 220/05 RMK AO2 SLP213 T03440128 58019
63870K0J4 0J420161124160010711/24/16 16:00:31  5-MIN K0J4 242100Z AUTO 23003KT 10SM CLR 33/13 A3017 80 30 2200 230/03 RMK AO2 T03280133
63870K0J4 0J420161124160510711/24/16 16:05:31  5-MIN K0J4 242105Z AUTO 20005KT 10SM CLR 32/13 A3017 80 31 2100 200/05 RMK AO2 T03220133
63870K0J4 0J420161124161011011/24/16 16:10:31  5-MIN K0J4 242110Z AUTO VRB04KT 10SM FEW075 34/13 A3018 80 28 2300 VRB/04 RMK AO2 T03390133
63870K0J4 0J420161124161511711/24/16 16:15:31  5-MIN K0J4 242115Z AUTO 20010KT 10SM FEW047 SCT070 34/13 A3018 80 27 2300 200/10 RMK AO2 T03440133
63870K0J4 0J420161124162011711/24/16 16:20:31  5-MIN K0J4 242120Z AUTO 20010KT 10SM FEW047 BKN070 35/14 A3018 80 27 2400 200/10 RMK AO2 T03500139
63870K0J4 0J420161124162511711/24/16 16:25:31  5-MIN K0J4 242125Z AUTO 21009KT 10SM FEW047 BKN070 34/14 A3018 80 28 2300 210/09 RMK AO2 T03440139
63870K0J4 0J420161124163011711/24/16 16:30:31  5-MIN K0J4 242130Z AUTO 22008KT 10SM FEW047 BKN070 34/14 A3018 80 29 2300 220/08 RMK AO2 T03390139
63870K0J4 0J420161124163511711/24/16 16:35:31  5-MIN K0J4 242135Z AUTO 22009KT 10SM FEW047 SCT070 33/14 A3018 80 30 2200 220/09 RMK AO2 T03330139
63870K0J4 0J420161124164011711/24/16 16:40:31  5-MIN K0J4 242140Z AUTO 20005KT 10SM FEW047 SCT070 33/14 A3018 80 30 2200 200/05 RMK AO2 T03330139
63870K0J4 0J420161124164511011/24/16 16:45:31  5-MIN K0J4 242145Z AUTO 19006KT 10SM FEW070 33/14 A3018 80 31 2200 190/06 RMK AO2 T03280139
63870K0J4 0J420161124165011011/24/16 16:50:31  5-MIN K0J4 242150Z AUTO 20008KT 10SM FEW070 33/14 A3018 80 30 2200 200/08 RMK AO2 T03330139
63870K0J4 0J420161124165511411/24/16 16:55:31  5-MIN K0J4 242155Z AUTO 21010KT 10SM CLR 33/14 A3018 70 30 2200 210/10 RMK AO2 SLP216 T03330139
63870K0J4 0J420161124170011011/24/16 17:00:31  5-MIN K0J4 242200Z AUTO 21008KT 10SM FEW075 33/14 A3018 70 31 2200 210/08 RMK AO2 T03280139
63870K0J4 0J420161124170511011/24/16 17:05:31  5-MIN K0J4 242205Z AUTO 21007KT 10SM FEW075 32/14 A3018 70 32 2100 210/07 RMK AO2 T03220139
63870K0J4 0J420161124171011011/24/16 17:10:31  5-MIN K0J4 242210Z AUTO 21010KT 10SM FEW075 32/14 A3018 70 33 2000 210/10 RMK AO2 T03170139
63870K0J4 0J420161124171511011/24/16 17:15:31  5-MIN K0J4 242215Z AUTO 22007KT 10SM FEW075 31/14 A3019 70 34 2000 220/07 RMK AO2 T03110139
63870K0J4 0J420161124172011011/24/16 17:20:31  5-MIN K0J4 242220Z AUTO 22007KT 10SM FEW075 31/14 A3019 70 35 1900 220/07 RMK AO2 T03060139
63870K0J4 0J420161124172511011/24/16 17:25:31  5-MIN K0J4 242225Z AUTO 22006KT 10SM FEW075 30/14 A3019 70 36 1800 220/06 RMK AO2 T03000139
63870K0J4 0J420161124173010711/24/16 17:30:31  5-MIN K0J4 242230Z AUTO 21006KT 10SM CLR 30/14 A3019 70 36 1800 210/06 RMK AO2 T03000139
63870K0J4 0J420161124173510711/24/16 17:35:31  5-MIN K0J4 242235Z AUTO 21005KT 10SM CLR 29/14 A3019 70 39 1700 210/05 RMK AO2 T02890139
63870K0J4 0J420161124174010711/24/16 17:40:31  5-MIN K0J4 242240Z AUTO 21005KT 10SM CLR 29/14 A3019 70 39 1700 210/05 RMK AO2 T02890139
63870K0J4 0J420161124174510711/24/16 17:45:31  5-MIN K0J4 242245Z AUTO 21005KT 10SM CLR 28/14 A3019 70 40 1700 210/05 RMK AO2 T02830139
63870K0J4 0J420161124175010711/24/16 17:50:31  5-MIN K0J4 242250Z AUTO 21005KT 10SM CLR 28/14 A3019 70 40 1700 210/05 RMK AO2 T02830139
63870K0J4 0J420161124175511411/24/16 17:55:31  5-MIN K0J4 242255Z AUTO 21005KT 10SM CLR 28/14 A3019 70 40 1700 210/05 RMK AO2 SLP219 T02830139
63870K0J4 0J420161125012011211/25/16 01:20:31  5-MIN K0J4 250620Z AUTO 00000KT 3/4SM HZ VV001 16/12 A3023 30 77 100 000/00 RMK AO2 T01560117
63870K0J4 0J420161125012511111/25/16 01:25:31  5-MIN K0J4 250625Z AUTO 00000KT 3SM HZ FEW001 16/11 A3023 30 74 100 000/00 RMK AO2 T01560111
63870K0J4 0J420161125013012511/25/16 01:30:31  5-MIN K0J4 250630Z AUTO 00000KT 1 1/4SM HZ SCT001 16/11 A3023 30 74 100 000/00 RMK AO2 VIS 1/4V5 T01560111
63870K0J4 0J420161125013511211/25/16 01:35:31  5-MIN K0J4 250635Z AUTO 00000KT 1/2SM HZ VV001 16/12 A3023 30 77 100 000/00 RMK AO2 T01560117
63870K0J4 0J420161125014012211/25/16 01:40:31  5-MIN K0J4 250640Z AUTO 00000KT 3/4SM HZ VV001 15/11 A3023 30 77 100 000/00 RMK AO2 VIS 1/4V3 T01500111
63870K0J4 0J420161125014512511/25/16 01:45:31  5-MIN K0J4 250645Z AUTO 00000KT 1 1/4SM HZ FEW001 16/12 A3023 30 77 100 000/00 RMK AO2 VIS 1/2V3 T01560117
63870K0J4 0J420161125015011211/25/16 01:50:31  5-MIN K0J4 250650Z AUTO 00000KT 3/4SM HZ VV001 16/11 A3023 30 74 100 000/00 RMK AO2 T01560111
63870K0J4 0J420161125015511911/25/16 01:55:31  5-MIN K0J4 250655Z AUTO 00000KT 3/4SM HZ VV001 15/11 A3024 30 77 100 000/00 RMK AO2 SLP234 T01500111
63870K0J4 0J420161125020010811/25/16 02:00:31  5-MIN K0J4 250700Z AUTO 18003KT 1SM HZ VV001 14/11 A3024 20 77 0 180/03 RMK AO2 T01440106
63870K0J4 0J420161125020511211/25/16 02:05:31  5-MIN K0J4 250705Z AUTO 00000KT 1/2SM HZ VV001 15/11 A3024 20 77 100 000/00 RMK AO2 T01500111
63870K0J4 0J420161125021011211/25/16 02:10:31  5-MIN K0J4 250710Z AUTO 00000KT 1/2SM HZ VV001 15/11 A3024 20 77 100 000/00 RMK AO2 T01500111
63870K0J4 0J420161125021511011/25/16 02:15:31  5-MIN K0J4 250715Z AUTO 00000KT 1/2SM HZ VV001 14/10 A3024 30 77 0 000/00 RMK AO2 T01390100
63870K0J4 0J420161125022010811/25/16 02:20:31  5-MIN K0J4 250720Z AUTO 00000KT 1SM HZ VV001 14/11 A3023 30 77 0 000/00 RMK AO2 T01440106
63870K0J4 0J420161125022512311/25/16 02:25:31  5-MIN K0J4 250725Z AUTO 00000KT 2 1/2SM HZ FEW001 15/11 A3023 30 77 100 000/00 RMK AO2 VIS 1V5 T01500111
63870K0J4 0J420161125023012511/25/16 02:30:31  5-MIN K0J4 250730Z AUTO 00000KT 1 1/4SM HZ FEW001 16/12 A3023 30 77 200 000/00 RMK AO2 VIS 3/4V5 T01610122
63870K0J4 0J420161125023507311/25/16 02:35:31  5-MIN K0J4 250735Z AUTO 00000KT M M M 000/00 RMK AO2 $
63870K0J4 0J420161125024010011/25/16 02:40:31  5-MIN K0J4 250740Z AUTO 00000KT 12/11 A3024 20 93 -200 000/00 RMK AO2 T01220111 $
63870K0J4 0J420161125024510911/25/16 02:45:31  5-MIN K0J4 250745Z AUTO 00000KT 1/2SM FG 12/11 A3024 20 93 -200 000/00 RMK AO2 T01220111 $
63870K0J4 0J420161125025010911/25/16 02:50:31  5-MIN K0J4 250750Z AUTO 00000KT 1/2SM FG 12/12 A3024 20 96 -200 000/00 RMK AO2 T01220117 $
63870K0J4 0J420161125025511111/25/16 02:55:31  5-MIN K0J4 250755Z AUTO 00000KT 1 1/2SM BR 12/11 A3024 20 96 -300 000/00 RMK AO2 VIS 1/2V5 $
63870K0J4 0J420161125030010711/25/16 03:00:31  5-MIN K0J4 250800Z AUTO 00000KT 3SM BR 12/11 A3024 20 96 -300 000/00 RMK AO2 T01170111 $
63870K0J4 0J420161125030511111/25/16 03:05:31  5-MIN K0J4 250805Z AUTO 00000KT 7SM BKN014 12/11 A3025 20 89 -200 000/00 RMK AO2 T01220106 $
63870K0J4 0J420161125031011411/25/16 03:10:31  5-MIN K0J4 250810Z AUTO 22003KT 5SM BR OVC014 13/11 A3025 20 89 -200 220/03 RMK AO2 T01280111 $
63870K0J4 0J420161125031511411/25/16 03:15:31  5-MIN K0J4 250815Z AUTO 22003KT 6SM BR OVC014 13/12 A3025 10 93 -200 220/03 RMK AO2 T01280117 $
63870K0J4 0J420161125032011111/25/16 03:20:31  5-MIN K0J4 250820Z AUTO 22003KT 8SM BKN014 12/11 A3025 10 93 -200 220/03 RMK AO2 T01220111 $
63870K0J4 0J420161125032511111/25/16 03:25:31  5-MIN K0J4 250825Z AUTO 00000KT 9SM BKN014 13/11 A3025 20 86 -100 000/00 RMK AO2 T01330111 $
63870K0J4 0J420161125033011211/25/16 03:30:31  5-MIN K0J4 250830Z AUTO 00000KT 10SM BKN014 13/11 A3025 20 86 -100 000/00 RMK AO2 T01330111 $
63870K0J4 0J420161125033510911/25/16 03:35:31  5-MIN K0J4 250835Z AUTO 00000KT 10SM SCT015 14/12 A3025 20 90 0 000/00 RMK AO2 T01390122 $
63870K0J4 0J420161125034010911/25/16 03:40:31  5-MIN K0J4 250840Z AUTO 00000KT 10SM SCT015 14/12 A3025 20 86 0 000/00 RMK AO2 T01440122 $
63870K0J4 0J420161125034511011/25/16 03:45:31  5-MIN K0J4 250845Z AUTO 00000KT 9SM BKN017 15/13 A3025 10 86 100 000/00 RMK AO2 T01500128 $
63870K0J4 0J420161125035011011/25/16 03:50:31  5-MIN K0J4 250850Z AUTO 00000KT 9SM BKN017 15/13 A3025 10 90 100 000/00 RMK AO2 T01500133 $
63870K0J4 0J420161125035511811/25/16 03:55:31  5-MIN K0J4 250855Z AUTO 00000KT 10SM BKN017 16/13 A3025 10 83 200 000/00 RMK AO2 SLP238 T01610133 $
63870K0J4 0J420161125040011111/25/16 04:00:31  5-MIN K0J4 250900Z AUTO 00000KT 10SM BKN017 16/13 A3025 10 83 100 000/00 RMK AO2 T01560128 $
63870K0J4 0J420161125040511111/25/16 04:05:31  5-MIN K0J4 250905Z AUTO 00000KT 10SM BKN019 16/13 A3025 20 83 100 000/00 RMK AO2 T01560128 $
63870K0J4 0J420161125041011111/25/16 04:10:31  5-MIN K0J4 250910Z AUTO 00000KT 10SM BKN019 16/12 A3024 20 80 100 000/00 RMK AO2 T01560122 $
63870K0J4 0J420161125041511111/25/16 04:15:31  5-MIN K0J4 250915Z AUTO 00000KT 10SM BKN018 16/13 A3024 20 80 200 000/00 RMK AO2 T01610128 $
63870K0J4 0J420161125042011111/25/16 04:20:31  5-MIN K0J4 250920Z AUTO 00000KT 10SM BKN018 17/13 A3024 20 77 300 000/00 RMK AO2 T01670128 $
63870K0J4 0J420161125042511111/25/16 04:25:31  5-MIN K0J4 250925Z AUTO 00000KT 10SM SCT018 16/13 A3024 20 80 200 000/00 RMK AO2 T01610128 $
63870K0J4 0J420161125043011011/25/16 04:30:31  5-MIN K0J4 250930Z AUTO 00000KT 9SM SCT016 17/13 A3025 20 77 300 000/00 RMK AO2 T01670128 $
63870K0J4 0J420161125043511011/25/16 04:35:31  5-MIN K0J4 250935Z AUTO 00000KT 7SM BKN016 17/13 A3025 20 80 300 000/00 RMK AO2 T01670133 $
63870K0J4 0J420161125044011011/25/16 04:40:31  5-MIN K0J4 250940Z AUTO 00000KT 8SM BKN016 17/13 A3025 10 80 300 000/00 RMK AO2 T01670133 $
63870K0J4 0J420161125044511011/25/16 04:45:31  5-MIN K0J4 250945Z AUTO 00000KT 9SM BKN014 17/13 A3025 10 77 300 000/00 RMK AO2 T01670128 $
63870K0J4 0J420161125045011111/25/16 04:50:31  5-MIN K0J4 250950Z AUTO 00000KT 10SM BKN014 17/12 A3025 10 72 300 000/00 RMK AO2 T01720122 $
63870K0J4 0J420161125045511811/25/16 04:55:31  5-MIN K0J4 250955Z AUTO 00000KT 10SM BKN014 17/12 A3025 10 72 300 000/00 RMK AO2 SLP239 T01720122 $
63870K0J4 0J420161125050012011/25/16 05:00:31  5-MIN K0J4 251000Z AUTO 00000KT 3SM HZ FEW002 BKN014 18/12 A3025 10 67 400 000/00 RMK AO2 T01780117 $
63870K0J4 0J420161125050512411/25/16 05:05:31  5-MIN K0J4 251005Z AUTO 00000KT 1 1/4SM HZ FEW002 BKN014 17/13 A3025 10 75 300 000/00 RMK AO2 T01720128 $
63870K0J4 0J420161125051012411/25/16 05:10:31  5-MIN K0J4 251010Z AUTO 00000KT 1 1/2SM HZ FEW002 BKN014 17/12 A3025 10 75 300 000/00 RMK AO2 T01670122 $
63870K0J4 0J420161125051512211/25/16 05:15:31  5-MIN K0J4 251015Z AUTO 00000KT 1/2SM HZ SCT002 BKN012 18/13 A3025 10 70 400 000/00 RMK AO2 T01830128 $
63870K0J4 0J420161125052012211/25/16 05:20:31  5-MIN K0J4 251020Z AUTO 00000KT 1/2SM HZ BKN002 BKN012 17/13 A3025 10 75 300 000/00 RMK AO2 T01720128 $
63870K0J4 0J420161125052512211/25/16 05:25:31  5-MIN K0J4 251025Z AUTO 00000KT 3/4SM HZ SCT002 BKN012 17/13 A3025 10 77 200 000/00 RMK AO2 T01670128 $
63870K0J4 0J420161125053012011/25/16 05:30:31  5-MIN K0J4 251030Z AUTO 00000KT 5SM HZ SCT002 SCT012 16/12 A3025 10 77 200 000/00 RMK AO2 T01610122 $
63870K0J4 0J420161125053511011/25/16 05:35:31  5-MIN K0J4 251035Z AUTO 00000KT 8SM FEW002 16/12 A3025 10 75 200 000/00 RMK AO2 T01610117 $
63870K0J4 0J420161125054011311/25/16 05:40:31  5-MIN K0J4 251040Z AUTO 00000KT 6SM HZ FEW002 16/12 A3025 10 77 100 000/00 RMK AO2 T01560117 $
63870K0J4 0J420161125054511311/25/16 05:45:31  5-MIN K0J4 251045Z AUTO 00000KT 5SM HZ SCT002 16/11 A3025 10 74 100 000/00 RMK AO2 T01560111 $
63870K0J4 0J420161125055011811/25/16 05:50:31  5-MIN K0J4 251050Z AUTO 00000KT 2SM HZ SCT002 SCT022 15/11 A3026 10 77 0 000/00 RMK AO2 T01500111 $
63870K0J4 0J420161125055512711/25/16 05:55:31  5-MIN K0J4 251055Z AUTO 00000KT 2SM HZ FEW002 SCT022 16/11 A3026 10 74 100 000/00 RMK AO2 SLP242 T01560111 $
63870K0J4 0J420161125060013311/25/16 06:00:31  5-MIN K0J4 251100Z AUTO 00000KT 1 1/4SM HZ FEW002 SCT022 16/12 A3026 0 77 100 000/00 RMK AO2 VIS 1/2V5 T01560117 $
63870K0J4 0J420161125060512311/25/16 06:05:31  5-MIN K0J4 251105Z AUTO 00000KT 1 1/4SM HZ FEW002 SCT024 16/12 A3026 0 77 100 000/00 RMK AO2 T01560117 $
63870K0J4 0J420161125061011911/25/16 06:10:31  5-MIN K0J4 251110Z AUTO 00000KT 3SM HZ FEW002 SCT024 16/12 A3026 0 80 100 000/00 RMK AO2 T01560122 $
63870K0J4 0J420161125061511211/25/16 06:15:31  5-MIN K0J4 251115Z AUTO 00000KT 3SM HZ FEW023 16/12 A3026 0 80 100 000/00 RMK AO2 T01560122 $
63870K0J4 0J420161125062011011/25/16 06:20:31  5-MIN K0J4 251120Z AUTO 00000KT 3SM HZ FEW023 15/12 A3026 0 80 0 000/00 RMK AO2 T01500117 $
63870K0J4 0J420161125062512511/25/16 06:25:31  5-MIN K0J4 251125Z AUTO 00000KT 2SM HZ FEW018 FEW023 15/12 A3026 0 80 0 000/00 RMK AO2 VIS 1V5 T01500117 $
63870K0J4 0J420161125063011011/25/16 06:30:31  5-MIN K0J4 251130Z AUTO 00000KT 3SM HZ SCT018 15/11 A3027 0 77 0 000/00 RMK AO2 T01500111 $
63870K0J4 0J420161125063510811/25/16 06:35:31  5-MIN K0J4 251135Z AUTO 00000KT 10SM BKN018 15/11 A3026 0 77 0 000/00 RMK AO2 T01500111 $
63870K0J4 0J420161125064011011/25/16 06:40:31  5-MIN K0J4 251140Z AUTO 00000KT 10SM SCT018 16/11 A3026 0 74 100 000/00 RMK AO2 T01560111 $
63870K0J4 0J420161125064511011/25/16 06:45:31  5-MIN K0J4 251145Z AUTO 00000KT 10SM SCT018 16/11 A3027 0 74 100 000/00 RMK AO2 T01560111 $
63870K0J4 0J420161125065011011/25/16 06:50:31  5-MIN K0J4 251150Z AUTO 00000KT 10SM SCT018 16/12 A3027 0 77 100 000/00 RMK AO2 T01560117 $
63870K0J4 0J420161125065512711/25/16 06:55:31  5-MIN K0J4 251155Z AUTO 00000KT 10SM FEW018 15/11 A3027 0 77 0 000/00 RMK AO2 SLP247 T01500111 10183 20117 $
63870K0J4 0J420161125070010811/25/16 07:00:31  5-MIN K0J4 251200Z AUTO 00000KT 10SM FEW018 15/11 A3027 0 77 0 000/00 RMK AO2 T01500111 $
63870K0J4 0J420161125070510511/25/16 07:05:31  5-MIN K0J4 251205Z AUTO 00000KT 10SM CLR 15/11 A3027 0 77 0 000/00 RMK AO2 T01500111 $
63870K0J4 0J420161125071011011/25/16 07:10:31  5-MIN K0J4 251210Z AUTO 00000KT 10SM FEW002 16/11 A3027 0 72 100 000/00 RMK AO2 T01560106 $
63870K0J4 0J420161125071511211/25/16 07:15:31  5-MIN K0J4 251215Z AUTO 00000KT 10SM SCT002 16/10 A3028 -10 67 200 000/00 RMK AO2 T01610100 $
63870K0J4 0J420161125072011211/25/16 07:20:31  5-MIN K0J4 251220Z AUTO 00000KT 10SM BKN002 16/10 A3028 -10 67 200 000/00 RMK AO2 T01610100 $
63870K0J4 0J420161125072511011/25/16 07:25:31  5-MIN K0J4 251225Z AUTO 00000KT 10SM BKN001 15/10 A3028 -10 72 0 000/00 RMK AO2 T01500100 $
63870K0J4 0J420161125073010911/25/16 07:30:31  5-MIN K0J4 251230Z AUTO 00000KT 8SM BKN001 14/10 A3028 -10 74 0 000/00 RMK AO2 T01440100 $
63870K0J4 0J420161125073512611/25/16 07:35:31  5-MIN K0J4 251235Z AUTO 00000KT 1 1/4SM HZ OVC001 14/10 A3028 -10 74 0 000/00 RMK AO2 VIS 1/4V5 T01440100 $
63870K0J4 0J420161125074011311/25/16 07:40:31  5-MIN K0J4 251240Z AUTO 00000KT 1/4SM HZ VV001 14/11 A3028 -10 77 0 000/00 RMK AO2 T01440106 $
63870K0J4 0J420161125074511311/25/16 07:45:31  5-MIN K0J4 251245Z AUTO 00000KT 1/4SM HZ VV001 14/11 A3028 -10 77 0 000/00 RMK AO2 T01440106 $
63870K0J4 0J420161125075011311/25/16 07:50:31  5-MIN K0J4 251250Z AUTO 00000KT 1/4SM HZ VV001 15/11 A3028 -10 77 0 000/00 RMK AO2 T01500111 $
63870K0J4 0J420161125075510611/25/16 07:55:31  5-MIN K0J4 251255Z AUTO 00000KT 1 3/4SM HZ BKN001 15/11 A3028 -10 77 0 000/00 RMK AO2 $
63870K0J4 0J420161125080011411/25/16 08:00:31  5-MIN K0J4 251300Z AUTO 00000KT 4SM HZ BKN001 16/12 A3028 -10 77 100 000/00 RMK AO2 T01560117 $
63870K0J4 0J420161125080511411/25/16 08:05:31  5-MIN K0J4 251305Z AUTO 00000KT 6SM HZ SCT001 16/12 A3029 -10 75 100 000/00 RMK AO2 T01610117 $
63870K0J4 0J420161125081011111/25/16 08:10:31  5-MIN K0J4 251310Z AUTO 00000KT 9SM SCT001 17/12 A3029 -20 75 200 000/00 RMK AO2 T01670122 $
63870K0J4 0J420161125081511211/25/16 08:15:31  5-MIN K0J4 251315Z AUTO 00000KT 10SM FEW001 17/12 A3029 -20 72 300 000/00 RMK AO2 T01720122 $
63870K0J4 0J420161125082011211/25/16 08:20:31  5-MIN K0J4 251320Z AUTO 00000KT 10SM FEW001 18/13 A3029 -20 70 400 000/00 RMK AO2 T01830128 $
63870K0J4 0J420161125082510911/25/16 08:25:31  5-MIN K0J4 251325Z AUTO 00000KT 10SM CLR 19/14 A3029 -20 72 500 000/00 RMK AO2 T01890139 $
63870K0J4 0J420161125083010911/25/16 08:30:31  5-MIN K0J4 251330Z AUTO 00000KT 10SM CLR 20/14 A3029 -20 70 600 000/00 RMK AO2 T02000144 $
63870K0J4 0J420161125083510911/25/16 08:35:31  5-MIN K0J4 251335Z AUTO 00000KT 10SM CLR 21/15 A3029 -20 68 700 000/00 RMK AO2 T02110150 $
63870K0J4 0J420161125084010911/25/16 08:40:31  5-MIN K0J4 251340Z AUTO 00000KT 10SM CLR 22/16 A3029 -20 68 800 000/00 RMK AO2 T02170156 $
63870K0J4 0J420161125084510911/25/16 08:45:31  5-MIN K0J4 251345Z AUTO 00000KT 10SM CLR 23/16 A3029 -20 65 900 000/00 RMK AO2 T02280161 $
63870K0J4 0J420161125085012511/25/16 08:50:31  5-MIN K0J4 251350Z AUTO 00000KT 10SM -RA CLR 23/16 A3029 -20 65 900 000/00 RMK AO2 RAB46 P0000 T02280161 $
63870K0J4 0J420161125085513611/25/16 08:55:31  5-MIN K0J4 251355Z AUTO 00000KT 10SM -RA FEW060 23/17 A3029 -20 66 1000 000/00 RMK AO2 RAB46 SLP253 P0000 T02330167 $
63870K0J4 0J420161125090012111/25/16 09:00:31  5-MIN K0J4 251400Z AUTO 00000KT 10SM -RA SCT060 24/17 A3029 -20 63 1000 000/00 RMK AO2 P0000 T02390167
63870K0J4 0J420161125090512111/25/16 09:05:31  5-MIN K0J4 251405Z AUTO 00000KT 10SM -RA SCT060 24/17 A3030 -20 61 1100 000/00 RMK AO2 P0000 T02440167
63870K0J4 0J420161125091012111/25/16 09:10:31  5-MIN K0J4 251410Z AUTO 00000KT 10SM -RA FEW060 26/17 A3029 -20 57 1200 000/00 RMK AO2 P0000 T02560167
63870K0J4 0J420161125091512111/25/16 09:15:31  5-MIN K0J4 251415Z AUTO 34003KT 10SM -RA FEW060 26/17 A3029 -20 57 1200 340/03 RMK AO2 P0000 T02560167
63870K0J4 0J420161125092012111/25/16 09:20:31  5-MIN K0J4 251420Z AUTO 35003KT 10SM -RA FEW060 26/17 A3029 -20 57 1200 350/03 RMK AO2 P0000 T02560167
63870K0J4 0J420161125092512111/25/16 09:25:31  5-MIN K0J4 251425Z AUTO 00000KT 10SM -RA FEW060 27/17 A3029 -20 53 1400 000/00 RMK AO2 P0000 T02670167
63870K0J4 0J420161125093011811/25/16 09:30:31  5-MIN K0J4 251430Z AUTO 00000KT 10SM -RA CLR 26/17 A3029 -20 57 1300 000/00 RMK AO2 P0000 T02610172
63870K0J4 0J420161125093511811/25/16 09:35:31  5-MIN K0J4 251435Z AUTO 00000KT 10SM -RA CLR 27/17 A3029 -20 54 1400 000/00 RMK AO2 P0000 T02720172
63870K0J4 0J420161125094011811/25/16 09:40:31  5-MIN K0J4 251440Z AUTO VRB03KT 10SM -RA CLR 28/17 A3029 -20 52 1500 VRB/03 RMK AO2 P0000 T02780172
63870K0J4 0J420161125094511811/25/16 09:45:31  5-MIN K0J4 251445Z AUTO 32003KT 10SM -RA CLR 28/17 A3029 -20 52 1500 320/03 RMK AO2 P0000 T02780172
63870K0J4 0J420161125095011811/25/16 09:50:31  5-MIN K0J4 251450Z AUTO VRB03KT 10SM -RA CLR 27/17 A3029 -20 54 1400 VRB/03 RMK AO2 P0000 T02720172
63870K0J4 0J420161125095513711/25/16 09:55:31  5-MIN K0J4 251455Z AUTO 31004KT 10SM -RA CLR 28/17 A3030 -20 50 1500 310/04 RMK AO2 SLP255 P0000 60000 T02780167 53008
63870K0J4 0J420161125100012111/25/16 10:00:31  5-MIN K0J4 251500Z AUTO 00000KT 10SM -RA FEW060 29/17 A3030 -30 47 1600 000/00 RMK AO2 P0000 T02890167
63870K0J4 0J420161125100512111/25/16 10:05:31  5-MIN K0J4 251505Z AUTO 00000KT 10SM -RA SCT060 28/17 A3030 -30 48 1500 000/00 RMK AO2 P0000 T02830167
63870K0J4 0J420161125101012811/25/16 10:10:31  5-MIN K0J4 251510Z AUTO 00000KT 10SM -RA FEW049 BKN060 27/17 A3030 -20 53 1400 000/00 RMK AO2 P0000 T02670167
63870K0J4 0J420161125101512811/25/16 10:15:31  5-MIN K0J4 251515Z AUTO 00000KT 10SM -RA SCT049 BKN060 28/17 A3029 -20 48 1500 000/00 RMK AO2 P0000 T02830167
63870K0J4 0J420161125102012811/25/16 10:20:31  5-MIN K0J4 251520Z AUTO VRB04KT 10SM -RA FEW049 BKN060 29/17 A3029 -20 45 1700 VRB/04 RMK AO2 P0000 T02940167
63870K0J4 0J420161125102512811/25/16 10:25:31  5-MIN K0J4 251525Z AUTO 00000KT 10SM -RA FEW049 BKN060 29/17 A3029 -20 45 1700 000/00 RMK AO2 P0000 T02940167
63870K0J4 0J420161125103012811/25/16 10:30:31  5-MIN K0J4 251530Z AUTO 33006KT 10SM -RA FEW049 BKN060 29/17 A3029 -20 45 1700 330/06 RMK AO2 P0000 T02940167
63870K0J4 0J420161125103512811/25/16 10:35:31  5-MIN K0J4 251535Z AUTO VRB03KT 10SM -RA FEW049 SCT060 30/17 A3029 -20 44 1700 VRB/03 RMK AO2 P0000 T03000167
63870K0J4 0J420161125104012811/25/16 10:40:31  5-MIN K0J4 251540Z AUTO VRB03KT 10SM -RA FEW049 SCT060 31/16 A3029 -20 40 1900 VRB/03 RMK AO2 P0000 T03110161
63870K0J4 0J420161125104512111/25/16 10:45:31  5-MIN K0J4 251545Z AUTO VRB05KT 10SM -RA FEW060 29/16 A3029 -20 44 1700 VRB/05 RMK AO2 P0000 T02940161
63870K0J4 0J420161125105011811/25/16 10:50:31  5-MIN K0J4 251550Z AUTO 34004KT 10SM -RA CLR 29/16 A3029 -20 44 1700 340/04 RMK AO2 P0000 T02940161
63870K0J4 0J420161125105512511/25/16 10:55:31  5-MIN K0J4 251555Z AUTO 33004KT 10SM -RA CLR 28/16 A3029 -20 45 1500 330/04 RMK AO2 SLP253 P0000 T02830156
63870K0J4 0J420161125110011811/25/16 11:00:31  5-MIN K0J4 251600Z AUTO VRB04KT 10SM -RA CLR 28/16 A3029 -10 47 1600 VRB/04 RMK AO2 P0000 T02830161
63870K0J4 0J420161125110511811/25/16 11:05:31  5-MIN K0J4 251605Z AUTO VRB05KT 10SM -RA CLR 29/16 A3028 -10 45 1600 VRB/05 RMK AO2 P0000 T02890161
63870K0J4 0J420161125111012111/25/16 11:10:31  5-MIN K0J4 251610Z AUTO VRB05KT 10SM -RA FEW024 29/16 A3028 -10 42 1700 VRB/05 RMK AO2 P0000 T02940156
63870K0J4 0J420161125111512111/25/16 11:15:31  5-MIN K0J4 251615Z AUTO VRB03KT 10SM -RA FEW024 28/16 A3028 -10 45 1600 VRB/03 RMK AO2 P0000 T02830156
63870K0J4 0J420161125112012811/25/16 11:20:31  5-MIN K0J4 251620Z AUTO VRB04KT 10SM -RA FEW024 SCT075 28/16 A3028 -10 45 1600 VRB/04 RMK AO2 P0000 T02830156
63870K0J4 0J420161125112512811/25/16 11:25:31  5-MIN K0J4 251625Z AUTO VRB03KT 10SM -RA SCT025 SCT075 31/16 A3028 -10 38 1900 VRB/03 RMK AO2 P0000 T03110156
63870K0J4 0J420161125113013511/25/16 11:30:31  5-MIN K0J4 251630Z AUTO 25006KT 10SM -RA SCT025 SCT040 SCT075 33/16 A3028 -10 35 2100 250/06 RMK AO2 P0000 T03280156
63870K0J4 0J420161125113514411/25/16 11:35:31  5-MIN K0J4 251635Z AUTO 31007KT 260V360 10SM -RA SCT027 BKN040 32/16 A3028 -10 36 2000 310/07 260V360 RMK AO2 P0000 T03220156
63870K0J4 0J420161125114009111/25/16 11:40:31  5-MIN K0J4 251640Z AUTO -RA SCT027 BKN038 M M M M /M RMK AO2 T03060150 $
63870K0J4 0J420161125114508511/25/16 11:45:31  5-MIN K0J4 251645Z AUTO VRB03KT A3028 M M M VRB/03 RMK AO2 P0000 $
63870K0J4 0J420161125115011211/25/16 11:50:31  5-MIN K0J4 251650Z AUTO VRB04KT 10SM -RA 23/ A3027 0 M 900 VRB/04 RMK AO2 RAB46 P0000 T0228 $
63870K0J4 0J420161125115511711/25/16 11:55:31  5-MIN K0J4 251655Z AUTO 01006KT 10SM -RA 23/ A3027 0 M 900 010/06 RMK AO2 RAB46 SLP246 P0000 T0228
63870K0J4 0J420161125120010511/25/16 12:00:31  5-MIN K0J4 251700Z AUTO 02005KT 10SM -RA 23/ A3027 0 M 1000 020/05 RMK AO2 P0000 T0233
63870K0J4 0J420161125120510511/25/16 12:05:31  5-MIN K0J4 251705Z AUTO 00000KT 10SM -RA 23/ A3027 0 M 1000 000/00 RMK AO2 P0000 T0233
63870K0J4 0J420161125121011811/25/16 12:10:31  5-MIN K0J4 251710Z AUTO VRB04KT 10SM -RA SCT030 OVC070 23/ A3026 0 M 900 VRB/04 RMK AO2 P0000 T0228
63870K0J4 0J420161125121512411/25/16 12:15:31  5-MIN K0J4 251715Z AUTO VRB04KT 9SM -RA SCT028 BKN033 OVC070 23/ A3026 0 M 900 VRB/04 RMK AO2 P0000 T0228
63870K0J4 0J420161125122011611/25/16 12:20:31  5-MIN K0J4 251720Z AUTO VRB04KT 5SM RA BKN028 OVC070 21/ A3027 0 M 800 VRB/04 RMK AO2 P0001 T0211
63870K0J4 0J420161125122513011/25/16 12:25:31  5-MIN K0J4 251725Z AUTO 00000KT 4SM RA SCT028 BKN033 OVC070 20/17 A3027 0 81 600 000/00 RMK AO2 P0002 T02000167
63870K0J4 0J420161125123014911/25/16 12:30:31  5-MIN K0J4 251730Z AUTO 00000KT 2 1/2SM RA BR SCT028 BKN033 OVC070 19/17 A3026 0 87 600 000/00 RMK AO2 VIS 1 1/4V5 P0003 T01940172
63870K0J4 0J420161125123513411/25/16 12:35:31  5-MIN K0J4 251735Z AUTO 00000KT 3SM -RA BR SCT027 BKN035 OVC043 19/17 A3026 0 87 600 000/00 RMK AO2 P0003 T01940172
63870K0J4 0J420161125124013111/25/16 12:40:31  5-MIN K0J4 251740Z AUTO 00000KT 7SM -RA FEW027 BKN035 OVC042 19/18 A3026 0 90 600 000/00 RMK AO2 P0003 T01940178
63870K0J4 0J420161125124513211/25/16 12:45:31  5-MIN K0J4 251745Z AUTO 23003KT 10SM -RA FEW027 BKN035 OVC042 19/18 A3026 0 90 600 230/03 RMK AO2 P0003 T01940178
63870K0J4 0J420161125125012611/25/16 12:50:31  5-MIN K0J4 251750Z AUTO 22003KT 10SM -RA BKN033 OVC040 19/18 A3026 10 90 600 220/03 RMK AO2 P0003 T01940178
63870K0J4 0J420161125125515711/25/16 12:55:31  5-MIN K0J4 251755Z AUTO 23003KT 10SM -RA FEW028 BKN037 OVC045 19/18 A3026 0 90 600 230/03 RMK AO2 SLP244 P0003 60003 T01940178 10328 20144
63870K0J4 0J420161125130013211/25/16 13:00:31  5-MIN K0J4 251800Z AUTO 00000KT 9SM -RA FEW028 BKN037 OVC045 19/18 A3026 10 90 600 000/00 RMK AO2 P0000 T01940178
63870K0J4 0J420161125130513211/25/16 13:05:31  5-MIN K0J4 251805Z AUTO 00000KT 8SM -RA FEW028 BKN037 OVC047 19/18 A3025 10 90 600 000/00 RMK AO2 P0000 T01940178
63870K0J4 0J420161125131013211/25/16 13:10:31  5-MIN K0J4 251810Z AUTO 00000KT 9SM -RA FEW028 SCT037 OVC047 19/18 A3025 10 90 600 000/00 RMK AO2 P0000 T01940178
63870K0J4 0J420161125131513311/25/16 13:15:31  5-MIN K0J4 251815Z AUTO 00000KT 10SM -RA FEW032 SCT040 OVC049 19/18 A3025 10 90 600 000/00 RMK AO2 P0000 T01940178
63870K0J4 0J420161125231510511/25/16 23:15:31  5-MIN K0J4 260415Z AUTO VRB03KT 10SM CLR 16/07 A3027 0 55 200 VRB/03 RMK AO2 T01610072
63870K0J4 0J420161125232010511/25/16 23:20:31  5-MIN K0J4 260420Z AUTO 34004KT 10SM CLR 16/07 A3027 0 57 100 340/04 RMK AO2 T01560072
63870K0J4 0J420161125232510511/25/16 23:25:31  5-MIN K0J4 260425Z AUTO 34003KT 10SM CLR 16/07 A3027 0 57 100 340/03 RMK AO2 T01560072
63870K0J4 0J420161125233010311/25/16 23:30:31  5-MIN K0J4 260430Z AUTO 35003KT 10SM CLR 15/07 A3027 0 59 0 350/03 RMK AO2 T01500072
63870K0J4 0J420161125233510311/25/16 23:35:31  5-MIN K0J4 260435Z AUTO 34003KT 10SM CLR 14/07 A3027 0 61 0 340/03 RMK AO2 T01440072
63870K0J4 0J420161125234010311/25/16 23:40:31  5-MIN K0J4 260440Z AUTO VRB03KT 10SM CLR 14/07 A3027 0 61 0 VRB/03 RMK AO2 T01440072
63870K0J4 0J420161125234510511/25/16 23:45:31  5-MIN K0J4 260445Z AUTO VRB04KT 10SM CLR 15/07 A3028 -10 59 0 VRB/04 RMK AO2 T01500072
63870K0J4 0J420161125235010511/25/16 23:50:31  5-MIN K0J4 260450Z AUTO 36004KT 10SM CLR 15/07 A3028 -10 59 0 360/04 RMK AO2 T01500072
63870K0J4 0J420161125235512011/25/16 23:55:31  5-MIN K0J4 260455Z AUTO 35003KT 10SM CLR 14/07 A3027 0 61 0 350/03 RMK AO2 SLP248 T01440072 403280117
63870K0J4 0J420161126000010311/26/16 00:00:31  5-MIN K0J4 260500Z AUTO 35004KT 10SM CLR 14/07 A3027 0 61 0 350/04 RMK AO2 T01440072
63870K0J4 0J420161126000510311/26/16 00:05:31  5-MIN K0J4 260505Z AUTO VRB03KT 10SM CLR 14/07 A3027 0 61 0 VRB/03 RMK AO2 T01440072
63870K0J4 0J420161126001010311/26/16 00:10:31  5-MIN K0J4 260510Z AUTO 34003KT 10SM CLR 14/07 A3027 0 61 0 340/03 RMK AO2 T01440072
63870K0J4 0J420161126001510311/26/16 00:15:31  5-MIN K0J4 260515Z AUTO VRB03KT 10SM CLR 15/07 A3027 0 59 0 VRB/03 RMK AO2 T01500072
63870K0J4 0J420161126002010311/26/16 00:20:31  5-MIN K0J4 260520Z AUTO 34003KT 10SM CLR 14/07 A3026 0 61 0 340/03 RMK AO2 T01440072
63870K0J4 0J420161126002510311/26/16 00:25:31  5-MIN K0J4 260525Z AUTO 00000KT 10SM CLR 14/07 A3027 0 61 0 000/00 RMK AO2 T01440072
63870K0J4 0J420161126003010311/26/16 00:30:31  5-MIN K0J4 260530Z AUTO VRB03KT 10SM CLR 14/07 A3027 0 64 0 VRB/03 RMK AO2 T01390072
63870K0J4 0J420161126003510311/26/16 00:35:31  5-MIN K0J4 260535Z AUTO VRB03KT 10SM CLR 14/07 A3026 0 64 0 VRB/03 RMK AO2 T01390072
63870K0J4 0J420161126004010311/26/16 00:40:31  5-MIN K0J4 260540Z AUTO 32003KT 10SM CLR 14/07 A3026 0 61 0 320/03 RMK AO2 T01440072
63870K0J4 0J420161126004510311/26/16 00:45:31  5-MIN K0J4 260545Z AUTO VRB03KT 10SM CLR 14/07 A3027 0 61 0 VRB/03 RMK AO2 T01440072
63870K0J4 0J420161126005010311/26/16 00:50:31  5-MIN K0J4 260550Z AUTO 34003KT 10SM CLR 14/07 A3026 0 64 0 340/03 RMK AO2 T01390072
63870K0J4 0J420161126005512811/26/16 00:55:31  5-MIN K0J4 260555Z AUTO 00000KT 10SM CLR 14/07 A3026 0 64 0 000/00 RMK AO2 SLP245 T01390072 10189 20139 51013
63870K0J4 0J420161126010010311/26/16 01:00:31  5-MIN K0J4 260600Z AUTO VRB04KT 10SM CLR 14/07 A3026 0 64 0 VRB/04 RMK AO2 T01390072
63870K0J4 0J420161126010510311/26/16 01:05:31  5-MIN K0J4 260605Z AUTO 34003KT 10SM CLR 14/07 A3026 0 64 0 340/03 RMK AO2 T01390072
63870K0J4 0J420161126011010611/26/16 01:10:31  5-MIN K0J4 260610Z AUTO 35003KT 10SM CLR 13/07 A3026 0 66 -100 350/03 RMK AO2 T01330072
63870K0J4 0J420161126011510711/26/16 01:15:31  5-MIN K0J4 260615Z AUTO VRB03KT 10SM CLR 13/07 A3026 10 66 -100 VRB/03 RMK AO2 T01330072
63870K0J4 0J420161126012010711/26/16 01:20:31  5-MIN K0J4 260620Z AUTO VRB03KT 10SM CLR 13/07 A3026 10 69 -200 VRB/03 RMK AO2 T01280072
63870K0J4 0J420161126012510711/26/16 01:25:31  5-MIN K0J4 260625Z AUTO VRB03KT 10SM CLR 13/07 A3026 10 66 -100 VRB/03 RMK AO2 T01330072
63870K0J4 0J420161126013010411/26/16 01:30:31  5-MIN K0J4 260630Z AUTO VRB04KT 10SM CLR 14/07 A3026 10 64 0 VRB/04 RMK AO2 T01390072
63870K0J4 0J420161126013510311/26/16 01:35:31  5-MIN K0J4 260635Z AUTO VRB04KT 10SM CLR 14/07 A3026 0 64 0 VRB/04 RMK AO2 T01390072
63870K0J4 0J420161126014010311/26/16 01:40:31  5-MIN K0J4 260640Z AUTO VRB04KT 10SM CLR 14/07 A3026 0 64 0 VRB/04 RMK AO2 T01390072
63870K0J4 0J420161126014510611/26/16 01:45:31  5-MIN K0J4 260645Z AUTO VRB05KT 10SM CLR 13/07 A3026 0 66 -100 VRB/05 RMK AO2 T01330072
63870K0J4 0J420161126015010611/26/16 01:50:31  5-MIN K0J4 260650Z AUTO 36003KT 10SM CLR 13/07 A3026 0 66 -100 360/03 RMK AO2 T01330072
63870K0J4 0J420161126015511311/26/16 01:55:31  5-MIN K0J4 260655Z AUTO VRB05KT 10SM CLR 13/07 A3026 0 69 -200 VRB/05 RMK AO2 SLP244 T01280072
63870K0J4 0J420161126020010711/26/16 02:00:31  5-MIN K0J4 260700Z AUTO 35004KT 10SM CLR 13/07 A3026 10 66 -100 350/04 RMK AO2 T01330072
63870K0J4 0J420161126020510611/26/16 02:05:31  5-MIN K0J4 260705Z AUTO VRB04KT 10SM CLR 13/07 A3026 0 69 -200 VRB/04 RMK AO2 T01280072
63870K0J4 0J420161126021010611/26/16 02:10:31  5-MIN K0J4 260710Z AUTO 34003KT 10SM CLR 13/07 A3026 0 66 -100 340/03 RMK AO2 T01330072
63870K0J4 0J420161126021510611/26/16 02:15:31  5-MIN K0J4 260715Z AUTO 34003KT 10SM CLR 13/07 A3026 0 64 -100 340/03 RMK AO2 T01330067
63870K0J4 0J420161126022010611/26/16 02:20:31  5-MIN K0J4 260720Z AUTO VRB03KT 10SM CLR 13/07 A3026 0 64 -100 VRB/03 RMK AO2 T01330067
63870K0J4 0J420161126022510611/26/16 02:25:31  5-MIN K0J4 260725Z AUTO 35003KT 10SM CLR 13/07 A3026 0 66 -200 350/03 RMK AO2 T01280067
63870K0J4 0J420161126023010711/26/16 02:30:31  5-MIN K0J4 260730Z AUTO 35003KT 10SM CLR 12/07 A3026 10 68 -200 350/03 RMK AO2 T01220067
63870K0J4 0J420161126023510611/26/16 02:35:31  5-MIN K0J4 260735Z AUTO 34004KT 10SM CLR 12/07 A3026 0 68 -200 340/04 RMK AO2 T01220067
63870K0J4 0J420161126024010611/26/16 02:40:31  5-MIN K0J4 260740Z AUTO VRB03KT 10SM CLR 13/07 A3026 0 66 -200 VRB/03 RMK AO2 T01280067
63870K0J4 0J420161126024510611/26/16 02:45:31  5-MIN K0J4 260745Z AUTO VRB03KT 10SM CLR 12/07 A3026 0 68 -200 VRB/03 RMK AO2 T01220067
63870K0J4 0J420161126025010611/26/16 02:50:31  5-MIN K0J4 260750Z AUTO 34003KT 10SM CLR 12/07 A3026 0 68 -200 340/03 RMK AO2 T01220067
63870K0J4 0J420161126025511311/26/16 02:55:31  5-MIN K0J4 260755Z AUTO 34003KT 10SM CLR 12/07 A3026 0 68 -200 340/03 RMK AO2 SLP245 T01220067
63870K0J4 0J420161126030010611/26/16 03:00:31  5-MIN K0J4 260800Z AUTO 32003KT 10SM CLR 12/07 A3026 0 68 -200 320/03 RMK AO2 T01220067
63870K0J4 0J420161126030510611/26/16 03:05:31  5-MIN K0J4 260805Z AUTO 33003KT 10SM CLR 12/07 A3026 0 68 -200 330/03 RMK AO2 T01220067
63870K0J4 0J420161126031010611/26/16 03:10:31  5-MIN K0J4 260810Z AUTO 33003KT 10SM CLR 13/07 A3026 0 64 -100 330/03 RMK AO2 T01330067
63870K0J4 0J420161126031510611/26/16 03:15:31  5-MIN K0J4 260815Z AUTO 33003KT 10SM CLR 13/07 A3026 0 64 -100 330/03 RMK AO2 T01330067
63870K0J4 0J420161126032010611/26/16 03:20:31  5-MIN K0J4 260820Z AUTO 34004KT 10SM CLR 12/07 A3026 0 68 -200 340/04 RMK AO2 T01220067
63870K0J4 0J420161126032510611/26/16 03:25:31  5-MIN K0J4 260825Z AUTO 00000KT 10SM CLR 12/07 A3026 0 68 -200 000/00 RMK AO2 T01220067
63870K0J4 0J420161126033010611/26/16 03:30:31  5-MIN K0J4 260830Z AUTO 34003KT 10SM CLR 12/07 A3026 0 68 -200 340/03 RMK AO2 T01220067
63870K0J4 0J420161126033510611/26/16 03:35:31  5-MIN K0J4 260835Z AUTO 34003KT 10SM CLR 12/07 A3026 0 71 -300 340/03 RMK AO2 T01170067
63870K0J4 0J420161126034010611/26/16 03:40:31  5-MIN K0J4 260840Z AUTO 35003KT 10SM CLR 12/07 A3026 0 71 -300 350/03 RMK AO2 T01170067
63870K0J4 0J420161126034510611/26/16 03:45:31  5-MIN K0J4 260845Z AUTO 35003KT 10SM CLR 11/07 A3026 0 74 -400 350/03 RMK AO2 T01110067
63870K0J4 0J420161126035010611/26/16 03:50:31  5-MIN K0J4 260850Z AUTO VRB03KT 10SM CLR 11/07 A3026 0 74 -400 VRB/03 RMK AO2 T01110067
63870K0J4 0J420161126035511911/26/16 03:55:31  5-MIN K0J4 260855Z AUTO 35003KT 10SM CLR 11/06 A3026 0 71 -400 350/03 RMK AO2 SLP246 T01110061 58000
63870K0J4 0J420161126040010611/26/16 04:00:31  5-MIN K0J4 260900Z AUTO 35004KT 10SM CLR 11/06 A3027 0 71 -400 350/04 RMK AO2 T01110061
63870K0J4 0J420161126040510611/26/16 04:05:31  5-MIN K0J4 260905Z AUTO 35003KT 10SM CLR 11/06 A3027 0 74 -400 350/03 RMK AO2 T01060061
63870K0J4 0J420161126041010611/26/16 04:10:31  5-MIN K0J4 260910Z AUTO 36004KT 10SM CLR 11/07 A3026 0 74 -400 360/04 RMK AO2 T01110067
63870K0J4 0J420161126041510611/26/16 04:15:31  5-MIN K0J4 260915Z AUTO 36004KT 10SM CLR 11/06 A3026 0 71 -400 360/04 RMK AO2 T01110061
63870K0J4 0J420161126042010611/26/16 04:20:31  5-MIN K0J4 260920Z AUTO VRB03KT 10SM CLR 11/07 A3026 0 74 -400 VRB/03 RMK AO2 T01110067
63870K0J4 0J420161126042510611/26/16 04:25:31  5-MIN K0J4 260925Z AUTO 36004KT 10SM CLR 11/06 A3026 0 74 -400 360/04 RMK AO2 T01060061
63870K0J4 0J420161126043010611/26/16 04:30:31  5-MIN K0J4 260930Z AUTO 36004KT 10SM CLR 11/06 A3026 0 71 -400 360/04 RMK AO2 T01110061
63870K0J4 0J420161126043510611/26/16 04:35:31  5-MIN K0J4 260935Z AUTO 36005KT 10SM CLR 11/06 A3026 0 74 -400 360/05 RMK AO2 T01060061
63870K0J4 0J420161126044010611/26/16 04:40:31  5-MIN K0J4 260940Z AUTO 36004KT 10SM CLR 11/06 A3026 0 74 -400 360/04 RMK AO2 T01060061
63870K0J4 0J420161126044510611/26/16 04:45:31  5-MIN K0J4 260945Z AUTO 35003KT 10SM CLR 11/06 A3027 0 74 -400 350/03 RMK AO2 T01060061
63870K0J4 0J420161126045010611/26/16 04:50:31  5-MIN K0J4 260950Z AUTO 36004KT 10SM CLR 11/06 A3027 0 74 -400 360/04 RMK AO2 T01060061
63870K0J4 0J420161126045511311/26/16 04:55:31  5-MIN K0J4 260955Z AUTO 36004KT 10SM CLR 11/06 A3027 0 74 -400 360/04 RMK AO2 SLP247 T01060061
63870K0J4 0J420161126050010611/26/16 05:00:31  5-MIN K0J4 261000Z AUTO 36005KT 10SM CLR 11/06 A3027 0 74 -400 360/05 RMK AO2 T01060061
63870K0J4 0J420161126050510611/26/16 05:05:31  5-MIN K0J4 261005Z AUTO 34004KT 10SM CLR 11/06 A3027 0 74 -400 340/04 RMK AO2 T01060061
63870K0J4 0J420161126051010611/26/16 05:10:31  5-MIN K0J4 261010Z AUTO VRB03KT 10SM CLR 11/06 A3027 0 74 -400 VRB/03 RMK AO2 T01060061
63870K0J4 0J420161126051510611/26/16 05:15:31  5-MIN K0J4 261015Z AUTO 36004KT 10SM CLR 11/06 A3027 0 74 -500 360/04 RMK AO2 T01060061
63870K0J4 0J420161126052010611/26/16 05:20:31  5-MIN K0J4 261020Z AUTO 36004KT 10SM CLR 11/06 A3027 0 74 -400 360/04 RMK AO2 T01060061
63870K0J4 0J420161126052510611/26/16 05:25:31  5-MIN K0J4 261025Z AUTO 35004KT 10SM CLR 11/06 A3027 0 74 -400 350/04 RMK AO2 T01060061
63870K0J4 0J420161126053010611/26/16 05:30:31  5-MIN K0J4 261030Z AUTO 35003KT 10SM CLR 11/06 A3027 0 74 -400 350/03 RMK AO2 T01060061
63870K0J4 0J420161126053510611/26/16 05:35:31  5-MIN K0J4 261035Z AUTO 35003KT 10SM CLR 10/06 A3027 0 77 -500 350/03 RMK AO2 T01000061
63870K0J4 0J420161126054010611/26/16 05:40:31  5-MIN K0J4 261040Z AUTO 35004KT 10SM CLR 10/06 A3027 0 74 -500 350/04 RMK AO2 T01000056
63870K0J4 0J420161126054510611/26/16 05:45:31  5-MIN K0J4 261045Z AUTO 35003KT 10SM CLR 10/06 A3027 0 74 -500 350/03 RMK AO2 T01000056
63870K0J4 0J420161126055010611/26/16 05:50:31  5-MIN K0J4 261050Z AUTO 35003KT 10SM CLR 10/06 A3027 0 74 -500 350/03 RMK AO2 T01000056
63870K0J4 0J420161126055511311/26/16 05:55:31  5-MIN K0J4 261055Z AUTO 00000KT 10SM CLR 10/06 A3027 0 74 -500 000/00 RMK AO2 SLP248 T01000056
63870K0J4 0J420161126060010611/26/16 06:00:31  5-MIN K0J4 261100Z AUTO 00000KT 10SM CLR 10/06 A3027 0 74 -500 000/00 RMK AO2 T01000056
63870K0J4 0J420161126060510811/26/16 06:05:31  5-MIN K0J4 261105Z AUTO 36003KT 10SM CLR 10/06 A3027 -10 74 -500 360/03 RMK AO2 T01000056
63870K0J4 0J420161126061010811/26/16 06:10:31  5-MIN K0J4 261110Z AUTO 34003KT 10SM CLR 10/06 A3028 -10 74 -500 340/03 RMK AO2 T01000056
63870K0J4 0J420161126061510811/26/16 06:15:31  5-MIN K0J4 261115Z AUTO 35003KT 10SM CLR 10/06 A3028 -10 74 -500 350/03 RMK AO2 T01000056
63870K0J4 0J420161126062010811/26/16 06:20:31  5-MIN K0J4 261120Z AUTO 01003KT 10SM CLR 10/06 A3028 -10 74 -500 010/03 RMK AO2 T01000056
63870K0J4 0J420161126062510811/26/16 06:25:31  5-MIN K0J4 261125Z AUTO 35003KT 10SM CLR 09/06 A3028 -10 76 -600 350/03 RMK AO2 T00940056
63870K0J4 0J420161126063010811/26/16 06:30:31  5-MIN K0J4 261130Z AUTO 36003KT 10SM CLR 09/06 A3028 -10 76 -600 360/03 RMK AO2 T00940056
63870K0J4 0J420161126063510811/26/16 06:35:31  5-MIN K0J4 261135Z AUTO 36003KT 10SM CLR 09/06 A3028 -10 76 -600 360/03 RMK AO2 T00940056
63870K0J4 0J420161126064010811/26/16 06:40:31  5-MIN K0J4 261140Z AUTO 36005KT 10SM CLR 09/06 A3028 -10 76 -600 360/05 RMK AO2 T00940056
63870K0J4 0J420161126064510811/26/16 06:45:31  5-MIN K0J4 261145Z AUTO 36005KT 10SM CLR 09/06 A3028 -10 76 -600 360/05 RMK AO2 T00940056
63870K0J4 0J420161126065010811/26/16 06:50:31  5-MIN K0J4 261150Z AUTO 36005KT 10SM CLR 10/06 A3028 -10 74 -500 360/05 RMK AO2 T01000056
63870K0J4 0J420161126065513911/26/16 06:55:31  5-MIN K0J4 261155Z AUTO 36004KT 10SM CLR 09/06 A3028 -10 76 -600 360/04 RMK AO2 SLP254 70003 T00940056 10139 20094 53001
63870K0J4 0J420161126070010811/26/16 07:00:31  5-MIN K0J4 261200Z AUTO 36004KT 10SM CLR 09/06 A3029 -20 76 -600 360/04 RMK AO2 T00940056
63870K0J4 0J420161126070510811/26/16 07:05:31  5-MIN K0J4 261205Z AUTO VRB03KT 10SM CLR 09/06 A3029 -20 76 -600 VRB/03 RMK AO2 T00940056
63870K0J4 0J420161126071010811/26/16 07:10:31  5-MIN K0J4 261210Z AUTO 36004KT 10SM CLR 09/05 A3029 -20 74 -600 360/04 RMK AO2 T00940050
63870K0J4 0J420161126071510811/26/16 07:15:31  5-MIN K0J4 261215Z AUTO 35003KT 10SM CLR 09/05 A3029 -20 74 -600 350/03 RMK AO2 T00940050
63870K0J4 0J420161126072010811/26/16 07:20:31  5-MIN K0J4 261220Z AUTO 36004KT 10SM CLR 09/05 A3029 -20 74 -600 360/04 RMK AO2 T00940050
63870K0J4 0J420161126072510811/26/16 07:25:31  5-MIN K0J4 261225Z AUTO 36004KT 10SM CLR 09/05 A3029 -20 74 -600 360/04 RMK AO2 T00940050
63870K0J4 0J420161126073010811/26/16 07:30:31  5-MIN K0J4 261230Z AUTO 36003KT 10SM CLR 09/05 A3029 -20 74 -600 360/03 RMK AO2 T00940050
63870K0J4 0J420161126073510711/26/16 07:35:31  5-MIN K0J4 261235Z AUTO 36003KT 9SM CLR 09/05 A3029 -20 76 -700 360/03 RMK AO2 T00890050
63870K0J4 0J420161126074010711/26/16 07:40:31  5-MIN K0J4 261240Z AUTO 36005KT 9SM CLR 09/05 A3030 -20 76 -700 360/05 RMK AO2 T00890050
63870K0J4 0J420161126074510711/26/16 07:45:31  5-MIN K0J4 261245Z AUTO 36005KT 9SM CLR 09/05 A3030 -30 74 -600 360/05 RMK AO2 T00940050
63870K0J4 0J420161126075010711/26/16 07:50:31  5-MIN K0J4 261250Z AUTO 36004KT 9SM CLR 09/05 A3030 -30 74 -600 360/04 RMK AO2 T00940050
63870K0J4 0J420161126075511411/26/16 07:55:31  5-MIN K0J4 261255Z AUTO 35004KT 9SM CLR 09/05 A3030 -30 74 -600 350/04 RMK AO2 SLP260 T00940050
63870K0J4 0J420161126080010711/26/16 08:00:31  5-MIN K0J4 261300Z AUTO 35004KT 9SM CLR 09/05 A3030 -30 74 -600 350/04 RMK AO2 T00940050
63870K0J4 0J420161126080510711/26/16 08:05:31  5-MIN K0J4 261305Z AUTO 36005KT 9SM CLR 09/05 A3030 -30 74 -600 360/05 RMK AO2 T00940050
63870K0J4 0J420161126081010711/26/16 08:10:31  5-MIN K0J4 261310Z AUTO 01006KT 9SM CLR 10/05 A3030 -30 71 -600 010/06 RMK AO2 T01000050
63870K0J4 0J420161126081510711/26/16 08:15:31  5-MIN K0J4 261315Z AUTO 36005KT 9SM CLR 10/05 A3030 -30 71 -600 360/05 RMK AO2 T01000050
63870K0J4 0J420161126082010711/26/16 08:20:31  5-MIN K0J4 261320Z AUTO 36006KT 9SM CLR 10/05 A3030 -30 71 -600 360/06 RMK AO2 T01000050
63870K0J4 0J420161126082510711/26/16 08:25:31  5-MIN K0J4 261325Z AUTO 01006KT 9SM CLR 10/05 A3030 -30 71 -500 010/06 RMK AO2 T01000050
63870K0J4 0J420161126083010811/26/16 08:30:31  5-MIN K0J4 261330Z AUTO 01008KT 10SM CLR 11/05 A3030 -30 68 -500 010/08 RMK AO2 T01060050
63870K0J4 0J420161126083510711/26/16 08:35:31  5-MIN K0J4 261335Z AUTO 01006KT 9SM CLR 11/06 A3030 -30 71 -500 010/06 RMK AO2 T01060056
63870K0J4 0J420161126084010711/26/16 08:40:31  5-MIN K0J4 261340Z AUTO 01007KT 9SM CLR 11/06 A3030 -30 71 -500 010/07 RMK AO2 T01060056
63870K0J4 0J420161126084510711/26/16 08:45:31  5-MIN K0J4 261345Z AUTO 01008KT 9SM CLR 11/06 A3030 -30 71 -500 010/08 RMK AO2 T01060056
63870K0J4 0J420161126085010811/26/16 08:50:31  5-MIN K0J4 261350Z AUTO 01007KT 10SM CLR 11/06 A3031 -30 68 -400 010/07 RMK AO2 T01110056
63870K0J4 0J420161126085511511/26/16 08:55:31  5-MIN K0J4 261355Z AUTO 01007KT 10SM CLR 11/06 A3031 -40 71 -500 010/07 RMK AO2 SLP262 T01060056
63870K0J4 0J420161126090010811/26/16 09:00:31  5-MIN K0J4 261400Z AUTO 01007KT 10SM CLR 11/06 A3031 -40 68 -400 010/07 RMK AO2 T01110056
63870K0J4 0J420161126090510811/26/16 09:05:31  5-MIN K0J4 261405Z AUTO 01006KT 10SM CLR 12/06 A3031 -40 66 -400 010/06 RMK AO2 T01170056
63870K0J4 0J420161126091010811/26/16 09:10:31  5-MIN K0J4 261410Z AUTO 01007KT 10SM CLR 12/06 A3032 -40 66 -400 010/07 RMK AO2 T01170056
63870K0J4 0J420161126091510811/26/16 09:15:31  5-MIN K0J4 261415Z AUTO 01008KT 10SM CLR 12/06 A3032 -40 66 -400 010/08 RMK AO2 T01170056
63870K0J4 0J420161126092010811/26/16 09:20:31  5-MIN K0J4 261420Z AUTO 36007KT 10SM CLR 12/06 A3032 -50 63 -300 360/07 RMK AO2 T01220056
63870K0J4 0J420161126092510811/26/16 09:25:31  5-MIN K0J4 261425Z AUTO 01007KT 10SM CLR 12/06 A3032 -50 63 -300 010/07 RMK AO2 T01220056
63870K0J4 0J420161126093010811/26/16 09:30:31  5-MIN K0J4 261430Z AUTO 01006KT 10SM CLR 12/06 A3032 -50 63 -300 010/06 RMK AO2 T01220056
63870K0J4 0J420161126093510811/26/16 09:35:31  5-MIN K0J4 261435Z AUTO 36006KT 10SM CLR 12/06 A3032 -50 63 -300 360/06 RMK AO2 T01220056
63870K0J4 0J420161126094010811/26/16 09:40:31  5-MIN K0J4 261440Z AUTO 02007KT 10SM CLR 13/06 A3032 -50 61 -200 020/07 RMK AO2 T01280056
63870K0J4 0J420161126094510811/26/16 09:45:31  5-MIN K0J4 261445Z AUTO 01006KT 10SM CLR 13/06 A3032 -50 61 -200 010/06 RMK AO2 T01280056
63870K0J4 0J420161126095010811/26/16 09:50:31  5-MIN K0J4 261450Z AUTO 01005KT 10SM CLR 13/06 A3032 -50 61 -200 010/05 RMK AO2 T01280056
63870K0J4 0J420161126095512111/26/16 09:55:31  5-MIN K0J4 261455Z AUTO 36007KT 10SM CLR 13/06 A3032 -50 61 -200 360/07 RMK AO2 SLP264 T01280056 53006
63870K0J4 0J420161126100010811/26/16 10:00:31  5-MIN K0J4 261500Z AUTO 02006KT 10SM CLR 13/06 A3032 -50 59 -200 020/06 RMK AO2 T01330056
63870K0J4 0J420161126100510811/26/16 10:05:31  5-MIN K0J4 261505Z AUTO 01007KT 10SM CLR 14/06 A3032 -40 57 -100 010/07 RMK AO2 T01390056
63870K0J4 0J420161126101010511/26/16 10:10:31  5-MIN K0J4 261510Z AUTO 02006KT 10SM CLR 14/06 A3031 -40 55 0 020/06 RMK AO2 T01440056
63870K0J4 0J420161126101510511/26/16 10:15:31  5-MIN K0J4 261515Z AUTO 02006KT 10SM CLR 15/06 A3031 -40 53 0 020/06 RMK AO2 T01500056
63870K0J4 0J420161126102010511/26/16 10:20:31  5-MIN K0J4 261520Z AUTO 03008KT 10SM CLR 16/06 A3031 -40 51 0 030/08 RMK AO2 T01560056
63870K0J4 0J420161126102512311/26/16 10:25:31  5-MIN K0J4 261525Z AUTO 02007KT 320V050 10SM CLR 16/06 A3031 -40 49 100 020/07 320V050 RMK AO2 T01610056
63870K0J4 0J420161126103010711/26/16 10:30:31  5-MIN K0J4 261530Z AUTO 36008KT 10SM CLR 16/06 A3032 -40 49 100 360/08 RMK AO2 T01610056
63870K0J4 0J420161126103510711/26/16 10:35:31  5-MIN K0J4 261535Z AUTO 01006KT 10SM CLR 16/05 A3031 -40 47 100 010/06 RMK AO2 T01610050
63870K0J4 0J420161126104010711/26/16 10:40:31  5-MIN K0J4 261540Z AUTO VRB06KT 10SM CLR 17/06 A3031 -40 47 200 VRB/06 RMK AO2 T01670056
63870K0J4 0J420161126104510711/26/16 10:45:31  5-MIN K0J4 261545Z AUTO 03008KT 10SM CLR 17/06 A3031 -40 46 200 030/08 RMK AO2 T01720056
63870K0J4 0J420161126105010711/26/16 10:50:31  5-MIN K0J4 261550Z AUTO 01005KT 10SM CLR 17/06 A3031 -40 46 200 010/05 RMK AO2 T01720056
63870K0J4 0J420161126105511411/26/16 10:55:31  5-MIN K0J4 261555Z AUTO VRB05KT 10SM CLR 17/06 A3031 -40 46 200 VRB/05 RMK AO2 SLP262 T01720056
63870K0J4 0J420161126110010711/26/16 11:00:31  5-MIN K0J4 261600Z AUTO VRB04KT 10SM CLR 18/05 A3031 -40 42 300 VRB/04 RMK AO2 T01780050
63870K0J4 0J420161126110510711/26/16 11:05:31  5-MIN K0J4 261605Z AUTO 36005KT 10SM CLR 18/05 A3031 -30 41 400 360/05 RMK AO2 T01830050
63870K0J4 0J420161126111010711/26/16 11:10:31  5-MIN K0J4 261610Z AUTO 03007KT 10SM CLR 19/05 A3030 -30 39 500 030/07 RMK AO2 T01890050
63870K0J4 0J420161126215512111/26/16 21:55:31  5-MIN K0J4 270255Z AUTO 35003KT 10SM CLR 08/M01 A3025 20 55 -800 350/03 RMK AO2 SLP240 T00781006 53008
63870K0J4 0J420161126220010811/26/16 22:00:31  5-MIN K0J4 270300Z AUTO 00000KT 10SM CLR 08/M01 A3025 10 55 -800 000/00 RMK AO2 T00781006
63870K0J4 0J420161126220510811/26/16 22:05:31  5-MIN K0J4 270305Z AUTO 00000KT 10SM CLR 07/M01 A3025 10 57 -800 000/00 RMK AO2 T00721006
63870K0J4 0J420161126221010811/26/16 22:10:31  5-MIN K0J4 270310Z AUTO 00000KT 10SM CLR 08/M01 A3025 10 55 -800 000/00 RMK AO2 T00781006
63870K0J4 0J420161126221510911/26/16 22:15:31  5-MIN K0J4 270315Z AUTO 00000KT 10SM CLR 06/M01 A3025 10 62 -1000 000/00 RMK AO2 T00611006
63870K0J4 0J420161126222010911/26/16 22:20:31  5-MIN K0J4 270320Z AUTO 00000KT 10SM CLR 06/M01 A3025 10 65 -1000 000/00 RMK AO2 T00561006
63870K0J4 0J420161126222510911/26/16 22:25:31  5-MIN K0J4 270325Z AUTO 00000KT 10SM CLR 06/M01 A3025 10 65 -1000 000/00 RMK AO2 T00561006
63870K0J4 0J420161126223010911/26/16 22:30:31  5-MIN K0J4 270330Z AUTO 30003KT 10SM CLR 06/M01 A3025 10 65 -1000 300/03 RMK AO2 T00561006
63870K0J4 0J420161126224007911/26/16 22:40:31  5-MIN K0J4 270340Z AUTO VRB03KT A3025 M M M VRB/03 RMK AO2 $
63870K0J4 0J420161126224510711/26/16 22:45:31  5-MIN K0J4 270345Z AUTO 00000KT 10SM 02/M01 A3025 10 82 -1500 000/00 RMK AO2 T00171011 $
63870K0J4 0J420161126225010711/26/16 22:50:31  5-MIN K0J4 270350Z AUTO 00000KT 10SM 02/M01 A3025 10 82 -1500 000/00 RMK AO2 T00171011 $
63870K0J4 0J420161126225511411/26/16 22:55:31  5-MIN K0J4 270355Z AUTO 00000KT 10SM 02/M01 A3025 10 82 -1500 000/00 RMK AO2 SLP243 T00171011 $
63870K0J4 0J420161126230010711/26/16 23:00:31  5-MIN K0J4 270400Z AUTO 00000KT 10SM 02/M01 A3025 10 82 -1500 000/00 RMK AO2 T00171011 $
63870K0J4 0J420161126230510711/26/16 23:05:31  5-MIN K0J4 270405Z AUTO 33003KT 10SM 02/M01 A3025 10 82 -1500 330/03 RMK AO2 T00171011 $
63870K0J4 0J420161126231011111/26/16 23:10:31  5-MIN K0J4 270410Z AUTO 34004KT 10SM CLR 02/M01 A3025 10 82 -1500 340/04 RMK AO2 T00171011 $
63870K0J4 0J420161126231511111/26/16 23:15:31  5-MIN K0J4 270415Z AUTO 34003KT 10SM CLR 02/M01 A3025 10 82 -1500 340/03 RMK AO2 T00171011 $
63870K0J4 0J420161126232011111/26/16 23:20:31  5-MIN K0J4 270420Z AUTO 00000KT 10SM CLR 02/M01 A3025 20 78 -1400 000/00 RMK AO2 T00221011 $
63870K0J4 0J420161126232511111/26/16 23:25:31  5-MIN K0J4 270425Z AUTO 00000KT 10SM CLR 02/M01 A3025 20 78 -1400 000/00 RMK AO2 T00221011 $
63870K0J4 0J420161126233011111/26/16 23:30:31  5-MIN K0J4 270430Z AUTO 36003KT 10SM CLR 02/M01 A3024 20 82 -1500 360/03 RMK AO2 T00171011 $
63870K0J4 0J420161126233511111/26/16 23:35:31  5-MIN K0J4 270435Z AUTO VRB03KT 10SM CLR 02/M01 A3024 20 78 -1400 VRB/03 RMK AO2 T00221011 $
63870K0J4 0J420161126234011111/26/16 23:40:31  5-MIN K0J4 270440Z AUTO VRB03KT 10SM CLR 02/M01 A3024 20 78 -1400 VRB/03 RMK AO2 T00221011 $
63870K0J4 0J420161126234511111/26/16 23:45:31  5-MIN K0J4 270445Z AUTO 36004KT 10SM CLR 02/M01 A3024 20 78 -1400 360/04 RMK AO2 T00221011 $
63870K0J4 0J420161126235011111/26/16 23:50:31  5-MIN K0J4 270450Z AUTO 36004KT 10SM CLR 03/M01 A3024 20 76 -1300 360/04 RMK AO2 T00331006 $
63870K0J4 0J420161126235512811/26/16 23:55:31  5-MIN K0J4 270455Z AUTO 01004KT 10SM CLR 04/M01 A3024 30 73 -1200 010/04 RMK AO2 SLP237 T00391006 402610011 $
63870K0J4 0J420161127000011111/27/16 00:00:31  5-MIN K0J4 270500Z AUTO 36004KT 10SM CLR 04/M01 A3024 20 70 -1200 360/04 RMK AO2 T00391011 $
63870K0J4 0J420161127000511111/27/16 00:05:31  5-MIN K0J4 270505Z AUTO 01003KT 10SM CLR 04/M01 A3024 30 70 -1200 010/03 RMK AO2 T00391011 $
63870K0J4 0J420161127001011111/27/16 00:10:31  5-MIN K0J4 270510Z AUTO 02003KT 10SM CLR 04/M01 A3023 30 70 -1200 020/03 RMK AO2 T00391011 $
63870K0J4 0J420161127001507511/27/16 00:15:31  5-MIN K0J4 270515Z AUTO 02003KT 10SM CLR 04/M01 A3023 30
63870K0J4 0J420161127082013311/27/16 08:20:31  5-MIN K0J4 271320Z AUTO 00000KT 10SM -RA CLR 07/00 A3023 30 60 -800 000/00 RMK AO2 RAB07SNB00E07 P0000 T00720000 $
63870K0J4 0J420161127082513311/27/16 08:25:31  5-MIN K0J4 271325Z AUTO 05003KT 10SM -RA CLR 08/00 A3023 30 55 -700 050/03 RMK AO2 RAB07SNB00E07 P0000 T00830000 $
63870K0J4 0J420161127083013311/27/16 08:30:31  5-MIN K0J4 271330Z AUTO 06003KT 10SM -RA CLR 09/01 A3023 30 53 -500 060/03 RMK AO2 RAB07SNB00E07 P0000 T00940006 $
63870K0J4 0J420161127083513311/27/16 08:35:31  5-MIN K0J4 271335Z AUTO 06004KT 10SM -RA CLR 11/01 A3023 30 48 -300 060/04 RMK AO2 RAB07SNB00E07 P0000 T01110006 $
63870K0J4 0J420161127084013311/27/16 08:40:31  5-MIN K0J4 271340Z AUTO 08004KT 10SM -RA CLR 12/01 A3023 30 46 -300 080/04 RMK AO2 RAB07SNB00E07 P0000 T01170006 $
63870K0J4 0J420161127084513311/27/16 08:45:31  5-MIN K0J4 271345Z AUTO 08005KT 10SM -RA CLR 13/00 A3023 30 41 -100 080/05 RMK AO2 RAB07SNB00E07 P0000 T01280000 $
63870K0J4 0J420161127085013311/27/16 08:50:31  5-MIN K0J4 271350Z AUTO 08005KT 10SM -RA CLR 13/01 A3023 30 41 -100 080/05 RMK AO2 RAB07SNB00E07 P0000 T01330006 $
63870K0J4 0J420161127085513711/27/16 08:55:31  5-MIN K0J4 271355Z AUTO 08005KT 10SM -RA CLR 14/00 A3023 30 38 0 080/05 RMK AO2 RAB07SNB00E07 SLP237 P0000 T01390000 $
63870K0J4 0J420161127090011611/27/16 09:00:31  5-MIN K0J4 271400Z AUTO 08005KT 10SM -RA CLR 14/00 A3024 30 38 0 080/05 RMK AO2 P0000 T01390000 $
63870K0J4 0J420161127090511611/27/16 09:05:31  5-MIN K0J4 271405Z AUTO 09007KT 10SM -RA CLR 14/00 A3024 30 37 0 090/07 RMK AO2 P0000 T01440000 $
63870K0J4 0J420161127091011611/27/16 09:10:31  5-MIN K0J4 271410Z AUTO 08006KT 10SM -RA CLR 14/01 A3024 30 38 0 080/06 RMK AO2 P0000 T01440006 $
63870K0J4 0J420161127091511611/27/16 09:15:31  5-MIN K0J4 271415Z AUTO 09007KT 10SM -RA CLR 15/00 A3024 30 35 100 090/07 RMK AO2 P0000 T01500000
63870K0J4 0J420161127092011611/27/16 09:20:31  5-MIN K0J4 271420Z AUTO 08007KT 10SM -RA CLR 15/00 A3024 20 35 100 080/07 RMK AO2 P0000 T01500000
63870K0J4 0J420161127092511611/27/16 09:25:31  5-MIN K0J4 271425Z AUTO 11004KT 10SM -RA CLR 16/01 A3024 20 36 100 110/04 RMK AO2 P0000 T01560006
63870K0J4 0J420161127094009511/27/16 09:40:31  5-MIN K0J4 271440Z AUTO 09006KT -RA A3024 M M M 090/06 RMK AO2 RAB40 P0000 $
63870K0J4 0J420161127094511611/27/16 09:45:31  5-MIN K0J4 271445Z AUTO 09004KT -RA 09/01 A3024 20 56 -500 090/04 RMK AO2 RAB40 P0000 T00940011 $
63870K0J4 0J420161127095012111/27/16 09:50:31  5-MIN K0J4 271450Z AUTO 10006KT 10SM -RA 09/01 A3024 20 56 -500 100/06 RMK AO2 RAB40 P0000 T00940011 $
63870K0J4 0J420161127095513411/27/16 09:55:31  5-MIN K0J4 271455Z AUTO 09006KT 10SM -RA 09/01 A3024 30 56 -500 090/06 RMK AO2 RAB40 SLP238 P0000 60000 T00940011 $
63870K0J4 0J420161127100011511/27/16 10:00:31  5-MIN K0J4 271500Z AUTO 08007KT 10SM -RA 10/01 A3023 30 54 -500 080/07 RMK AO2 P0000 T01000011 $
63870K0J4 0J420161127100511511/27/16 10:05:31  5-MIN K0J4 271505Z AUTO 10004KT 10SM -RA 10/02 A3023 30 56 -500 100/04 RMK AO2 P0000 T01000017 $
63870K0J4 0J420161127101011911/27/16 10:10:31  5-MIN K0J4 271510Z AUTO 09005KT 10SM -RA CLR 11/02 A3023 30 54 -400 090/05 RMK AO2 P0000 T01060017 $
63870K0J4 0J420161127101511911/27/16 10:15:31  5-MIN K0J4 271515Z AUTO 09005KT 10SM -RA CLR 11/02 A3024 30 52 -300 090/05 RMK AO2 P0000 T01110017 $
63870K0J4 0J420161127102011911/27/16 10:20:31  5-MIN K0J4 271520Z AUTO 09005KT 10SM -RA CLR 12/02 A3023 30 50 -300 090/05 RMK AO2 P0000 T01170017 $
63870K0J4 0J420161127102511911/27/16 10:25:31  5-MIN K0J4 271525Z AUTO 15006KT 10SM -RA CLR 12/02 A3023 30 52 -300 150/06 RMK AO2 P0000 T01170022 $
63870K0J4 0J420161127103011911/27/16 10:30:31  5-MIN K0J4 271530Z AUTO VRB04KT 10SM -RA CLR 12/02 A3023 30 48 -200 VRB/04 RMK AO2 P0000 T01220017 $
63870K0J4 0J420161127103511911/27/16 10:35:31  5-MIN K0J4 271535Z AUTO 13005KT 10SM -RA CLR 12/02 A3023 30 50 -200 130/05 RMK AO2 P0000 T01220022 $
63870K0J4 0J420161127104011911/27/16 10:40:31  5-MIN K0J4 271540Z AUTO VRB04KT 10SM -RA CLR 13/02 A3023 30 48 -100 VRB/04 RMK AO2 P0000 T01280022 $
63870K0J4 0J420161127104511911/27/16 10:45:31  5-MIN K0J4 271545Z AUTO VRB03KT 10SM -RA CLR 13/02 A3023 30 46 -100 VRB/03 RMK AO2 P0000 T01330022 $
63870K0J4 0J420161127105011911/27/16 10:50:31  5-MIN K0J4 271550Z AUTO 09004KT 10SM -RA CLR 13/02 A3023 30 46 -100 090/04 RMK AO2 P0000 T01330022 $
63870K0J4 0J420161127105512311/27/16 10:55:31  5-MIN K0J4 271555Z AUTO 10005KT 10SM -RA CLR 14/02 A3023 30 43 0 100/05 RMK AO2 SLP236 P0000 T01440022 $
63870K0J4 0J420161127110011611/27/16 11:00:31  5-MIN K0J4 271600Z AUTO VRB04KT 10SM -RA CLR 14/02 A3023 30 45 0 VRB/04 RMK AO2 P0000 T01390022 $
63870K0J4 0J420161127110511811/27/16 11:05:31  5-MIN K0J4 271605Z AUTO VRB04KT 10SM -RA CLR 15/03 A3023 30 43 100 VRB/04 RMK AO2 P0000 T01500028 $
63870K0J4 0J420161127111011811/27/16 11:10:31  5-MIN K0J4 271610Z AUTO 14005KT 10SM -RA CLR 15/03 A3023 30 43 100 140/05 RMK AO2 P0000 T01500028 $
63870K0J4 0J420161127111511811/27/16 11:15:31  5-MIN K0J4 271615Z AUTO VRB03KT 10SM -RA CLR 16/03 A3023 40 42 100 VRB/03 RMK AO2 P0000 T01560028 $
63870K0J4 0J420161127112011811/27/16 11:20:31  5-MIN K0J4 271620Z AUTO 12004KT 10SM -RA CLR 16/03 A3022 40 42 200 120/04 RMK AO2 P0000 T01560028 $
63870K0J4 0J420161127112511811/27/16 11:25:31  5-MIN K0J4 271625Z AUTO 14005KT 10SM -RA CLR 18/03 A3022 40 36 400 140/05 RMK AO2 P0000 T01780028 $
63870K0J4 0J420161127113011811/27/16 11:30:31  5-MIN K0J4 271630Z AUTO 12004KT 10SM -RA CLR 20/03 A3022 40 31 700 120/04 RMK AO2 P0000 T02000028 $
63870K0J4 0J420161127113511811/27/16 11:35:31  5-MIN K0J4 271635Z AUTO VRB06KT 10SM -RA CLR 22/03 A3022 40 28 900 VRB/06 RMK AO2 P0000 T02170028 $
63870K0J4 0J420161127114011911/27/16 11:40:31  5-MIN K0J4 271640Z AUTO VRB04KT 10SM -RA CLR 23/03 A3022 40 25 1100 VRB/04 RMK AO2 P0000 T02330028 $
63870K0J4 0J420161127114511911/27/16 11:45:31  5-MIN K0J4 271645Z AUTO 14004KT 10SM -RA CLR 23/03 A3021 50 25 1100 140/04 RMK AO2 P0000 T02330028 $
63870K0J4 0J420161127115013511/27/16 11:50:31  5-MIN K0J4 271650Z AUTO 14007KT 090V170 10SM -RA CLR 25/03 A3021 50 23 1300 140/07 090V170 RMK AO2 P0000 T02500028 $
63870K0J4 0J420161127115512611/27/16 11:55:31  5-MIN K0J4 271655Z AUTO 13007KT 10SM -RA CLR 26/03 A3021 50 21 1400 130/07 RMK AO2 SLP228 P0000 T02610028 $
63870K0J4 0J420161127120011911/27/16 12:00:31  5-MIN K0J4 271700Z AUTO 10007KT 10SM -RA CLR 25/03 A3020 50 23 1300 100/07 RMK AO2 P0000 T02500028 $
63870K0J4 0J420161127120513511/27/16 12:05:31  5-MIN K0J4 271705Z AUTO 12007KT 090V150 10SM -RA CLR 25/03 A3020 60 24 1300 120/07 090V150 RMK AO2 P0000 T02500033 $
63870K0J4 0J420161127121011911/27/16 12:10:31  5-MIN K0J4 271710Z AUTO 12008KT 10SM -RA CLR 26/03 A3020 60 22 1400 120/08 RMK AO2 P0000 T02610033 $
63870K0J4 0J420161127121511911/27/16 12:15:31  5-MIN K0J4 271715Z AUTO 12009KT 10SM -RA CLR 26/03 A3019 70 21 1400 120/09 RMK AO2 P0000 T02610028 $
63870K0J4 0J420161127122013511/27/16 12:20:31  5-MIN K0J4 271720Z AUTO 13007KT 100V170 10SM -RA CLR 26/03 A3019 70 21 1400 130/07 100V170 RMK AO2 P0000 T02610028 $
63870K0J4 0J420161127122513511/27/16 12:25:31  5-MIN K0J4 271725Z AUTO 15007KT 120V180 10SM -RA CLR 26/03 A3019 70 21 1400 150/07 120V180 RMK AO2 P0000 T02610028 $
63870K0J4 0J420161127123011911/27/16 12:30:31  5-MIN K0J4 271730Z AUTO 11006KT 10SM -RA CLR 26/03 A3019 70 21 1400 110/06 RMK AO2 P0000 T02610028 $
63870K0J4 0J420161127123513511/27/16 12:35:31  5-MIN K0J4 271735Z AUTO 16007KT 120V200 10SM -RA CLR 27/03 A3019 70 21 1500 160/07 120V200 RMK AO2 P0000 T02670028 $
63870K0J4 0J420161127124011911/27/16 12:40:31  5-MIN K0J4 271740Z AUTO VRB06KT 10SM -RA CLR 27/03 A3018 70 21 1500 VRB/06 RMK AO2 P0000 T02670028 $
63870K0J4 0J420161127124511911/27/16 12:45:31  5-MIN K0J4 271745Z AUTO 19007KT 10SM -RA CLR 27/03 A3018 80 20 1500 190/07 RMK AO2 P0000 T02720028 $
63870K0J4 0J420161127125011911/27/16 12:50:31  5-MIN K0J4 271750Z AUTO VRB04KT 10SM -RA CLR 27/03 A3018 80 20 1500 VRB/04 RMK AO2 P0000 T02720028 $
63870K0J4 0J420161127125514411/27/16 12:55:31  5-MIN K0J4 271755Z AUTO 12004KT 10SM -RA CLR 26/03 A3017 80 22 1400 120/04 RMK AO2 SLP215 P0000 60000 T02610033 10278 20011 $
63870K0J4 0J420161127130011911/27/16 13:00:31  5-MIN K0J4 271800Z AUTO 14006KT 10SM -RA CLR 28/03 A3018 80 19 1600 140/06 RMK AO2 P0000 T02780028 $
63870K0J4 0J420161127130511911/27/16 13:05:31  5-MIN K0J4 271805Z AUTO 19005KT 10SM -RA CLR 28/03 A3017 80 19 1600 190/05 RMK AO2 P0000 T02780028 $
63870K0J4 0J420161127131011911/27/16 13:10:31  5-MIN K0J4 271810Z AUTO VRB06KT 10SM -RA CLR 27/03 A3017 90 20 1600 VRB/06 RMK AO2 P0000 T02720028 $
63870K0J4 0J420161127131511911/27/16 13:15:31  5-MIN K0J4 271815Z AUTO VRB04KT 10SM -RA CLR 28/03 A3017 90 19 1600 VRB/04 RMK AO2 P0000 T02780028 $
63870K0J4 0J420161127132011911/27/16 13:20:31  5-MIN K0J4 271820Z AUTO 21006KT 10SM -RA CLR 29/02 A3017 90 17 1700 210/06 RMK AO2 P0000 T02890022 $
63870K0J4 0J420161127132511911/27/16 13:25:31  5-MIN K0J4 271825Z AUTO 17007KT 10SM -RA CLR 28/02 A3016 90 18 1700 170/07 RMK AO2 P0000 T02830022 $
63870K0J4 0J420161127133011911/27/16 13:30:31  5-MIN K0J4 271830Z AUTO 16005KT 10SM -RA CLR 29/02 A3016 90 17 1800 160/05 RMK AO2 P0000 T02890022 $
63870K0J4 0J420161127133512011/27/16 13:35:31  5-MIN K0J4 271835Z AUTO VRB04KT 10SM -RA CLR 28/02 A3015 100 19 1600 VRB/04 RMK AO2 P0000 T02780022 $
63870K0J4 0J420161127134012011/27/16 13:40:31  5-MIN K0J4 271840Z AUTO 14004KT 10SM -RA CLR 28/02 A3015 100 19 1600 140/04 RMK AO2 P0000 T02780022 $
63870K0J4 0J420161127134512011/27/16 13:45:31  5-MIN K0J4 271845Z AUTO 13005KT 10SM -RA CLR 29/02 A3015 100 17 1800 130/05 RMK AO2 P0000 T02890022 $
63870K0J4 0J420161127135012011/27/16 13:50:31  5-MIN K0J4 271850Z AUTO 00000KT 10SM -RA CLR 28/03 A3015 110 19 1700 000/00 RMK AO2 P0000 T02830028 $
63870K0J4 0J420161127135512711/27/16 13:55:31  5-MIN K0J4 271855Z AUTO VRB06KT 10SM -RA CLR 27/02 A3014 110 20 1500 VRB/06 RMK AO2 SLP205 P0000 T02670022 $
63870K0J4 0J420161127140012011/27/16 14:00:31  5-MIN K0J4 271900Z AUTO 18004KT 10SM -RA CLR 29/02 A3014 110 17 1800 180/04 RMK AO2 P0000 T02940022 $
63870K0J4 0J420161127140512011/27/16 14:05:31  5-MIN K0J4 271905Z AUTO VRB05KT 10SM -RA CLR 29/02 A3014 120 17 1800 VRB/05 RMK AO2 P0000 T02890022 $
63870K0J4 0J420161127141012011/27/16 14:10:31  5-MIN K0J4 271910Z AUTO VRB03KT 10SM -RA CLR 29/02 A3013 120 17 1800 VRB/03 RMK AO2 P0000 T02890022 $
63870K0J4 0J420161127141512011/27/16 14:15:31  5-MIN K0J4 271915Z AUTO 19007KT 10SM -RA CLR 29/02 A3013 120 17 1800 190/07 RMK AO2 P0000 T02890022 $
63870K0J4 0J420161127142012011/27/16 14:20:31  5-MIN K0J4 271920Z AUTO 18007KT 10SM -RA CLR 31/02 A3013 120 16 2000 180/07 RMK AO2 P0000 T03060022 $
63870K0J4 0J420161127142512011/27/16 14:25:31  5-MIN K0J4 271925Z AUTO 21005KT 10SM -RA CLR 29/02 A3013 130 17 1900 210/05 RMK AO2 P0000 T02940022 $
63870K0J4 0J420161127143012011/27/16 14:30:31  5-MIN K0J4 271930Z AUTO VRB05KT 10SM -RA CLR 29/02 A3012 130 17 1800 VRB/05 RMK AO2 P0000 T02890022 $
63870K0J4 0J420161127143512011/27/16 14:35:31  5-MIN K0J4 271935Z AUTO VRB06KT 10SM -RA CLR 29/02 A3012 130 17 1900 VRB/06 RMK AO2 P0000 T02940022 $
63870K0J4 0J420161127144012011/27/16 14:40:31  5-MIN K0J4 271940Z AUTO 15006KT 10SM -RA CLR 29/02 A3012 130 16 1900 150/06 RMK AO2 P0000 T02940017 $
63870K0J4 0J420161127144512011/27/16 14:45:31  5-MIN K0J4 271945Z AUTO 15005KT 10SM -RA CLR 28/02 A3012 140 18 1700 150/05 RMK AO2 P0000 T02830022 $
63870K0J4 0J420161127145012011/27/16 14:50:31  5-MIN K0J4 271950Z AUTO VRB04KT 10SM -RA CLR 29/02 A3011 140 16 1900 VRB/04 RMK AO2 P0000 T02940017 $
63870K0J4 0J420161127145512711/27/16 14:55:31  5-MIN K0J4 271955Z AUTO VRB05KT 10SM -RA CLR 28/02 A3011 140 18 1700 VRB/05 RMK AO2 SLP195 P0000 T02830022 $
63870K0J4 0J420161127150012011/27/16 15:00:31  5-MIN K0J4 272000Z AUTO 14005KT 10SM -RA CLR 29/03 A3011 140 18 1900 140/05 RMK AO2 P0000 T02940028 $
63870K0J4 0J420161127150512011/27/16 15:05:31  5-MIN K0J4 272005Z AUTO 13004KT 10SM -RA CLR 29/02 A3011 140 17 1900 130/04 RMK AO2 P0000 T02940022 $
63870K0J4 0J420161127151012011/27/16 15:10:31  5-MIN K0J4 272010Z AUTO 00000KT 10SM -RA CLR 26/02 A3011 140 21 1500 000/00 RMK AO2 P0000 T02610022 $
63870K0J4 0J420161127151512011/27/16 15:15:31  5-MIN K0J4 272015Z AUTO 17007KT 10SM -RA CLR 29/02 A3011 140 17 1900 170/07 RMK AO2 P0000 T02940022 $
63870K0J4 0J420161127152012011/27/16 15:20:31  5-MIN K0J4 272020Z AUTO 14004KT 10SM -RA CLR 29/02 A3011 140 17 1900 140/04 RMK AO2 P0000 T02940022 $
63870K0J4 0J420161127152512011/27/16 15:25:31  5-MIN K0J4 272025Z AUTO 00000KT 10SM -RA CLR 28/02 A3011 140 19 1700 000/00 RMK AO2 P0000 T02780022 $
63870K0J4 0J420161127153011011/27/16 15:30:31  5-MIN K0J4 272030Z AUTO 10SM -RA CLR 28/02 A3011 140 18 1700 M /M RMK AO2 P0000 T02830022 $
63870K0J4 0J420161127153511011/27/16 15:35:31  5-MIN K0J4 272035Z AUTO 10SM -RA CLR 28/03 A3011 140 19 1700 M /M RMK AO2 P0000 T02830028 $
63870K0J4 0J420161127154012011/27/16 15:40:31  5-MIN K0J4 272040Z AUTO 15003KT 10SM -RA CLR 29/02 A3011 140 17 1900 150/03 RMK AO2 P0000 T02940022 $
63870K0J4 0J420161127154512011/27/16 15:45:31  5-MIN K0J4 272045Z AUTO VRB03KT 10SM -RA CLR 28/02 A3011 140 18 1700 VRB/03 RMK AO2 P0000 T02830022 $
63870K0J4 0J420161127155012011/27/16 15:50:31  5-MIN K0J4 272050Z AUTO VRB04KT 10SM -RA CLR 27/03 A3011 140 20 1600 VRB/04 RMK AO2 P0000 T02720028 $
63870K0J4 0J420161127155513911/27/16 15:55:31  5-MIN K0J4 272055Z AUTO 16004KT 10SM -RA CLR 29/02 A3011 140 17 1800 160/04 RMK AO2 SLP193 P0000 60000 T02890022 58020 $
63870K0J4 0J420161127160012011/27/16 16:00:31  5-MIN K0J4 272100Z AUTO 00000KT 10SM -RA CLR 28/02 A3011 140 18 1700 000/00 RMK AO2 P0000 T02830022 $
63870K0J4 0J420161127160512011/27/16 16:05:31  5-MIN K0J4 272105Z AUTO 10005KT 10SM -RA CLR 26/03 A3011 140 21 1500 100/05 RMK AO2 P0000 T02610028 $
63870K0J4 0J420161127161012011/27/16 16:10:31  5-MIN K0J4 272110Z AUTO VRB05KT 10SM -RA CLR 27/03 A3012 130 20 1600 VRB/05 RMK AO2 P0000 T02720028 $
63870K0J4 0J420161127161512011/27/16 16:15:31  5-MIN K0J4 272115Z AUTO VRB04KT 10SM -RA CLR 28/02 A3012 140 19 1700 VRB/04 RMK AO2 P0000 T02780022 $
63870K0J4 0J420161127162012011/27/16 16:20:31  5-MIN K0J4 272120Z AUTO VRB04KT 10SM -RA CLR 28/02 A3012 130 19 1700 VRB/04 RMK AO2 P0000 T02780022 $
63870K0J4 0J420161127162512011/27/16 16:25:31  5-MIN K0J4 272125Z AUTO 00000KT 10SM -RA CLR 27/02 A3012 130 19 1600 000/00 RMK AO2 P0000 T02720022 $
63870K0J4 0J420161127163012011/27/16 16:30:31  5-MIN K0J4 272130Z AUTO 15004KT 10SM -RA CLR 27/02 A3012 130 20 1500 150/04 RMK AO2 P0000 T02670022 $
63870K0J4 0J420161127163512011/27/16 16:35:31  5-MIN K0J4 272135Z AUTO 15003KT 10SM -RA CLR 27/02 A3012 130 20 1500 150/03 RMK AO2 P0000 T02670022 $
63870K0J4 0J420161127164012011/27/16 16:40:31  5-MIN K0J4 272140Z AUTO 16005KT 10SM -RA CLR 26/03 A3012 130 21 1500 160/05 RMK AO2 P0000 T02610028 $
63870K0J4 0J420161127164512011/27/16 16:45:31  5-MIN K0J4 272145Z AUTO 17004KT 10SM -RA CLR 27/03 A3012 130 20 1600 170/04 RMK AO2 P0000 T02720028 $
63870K0J4 0J420161127165012011/27/16 16:50:31  5-MIN K0J4 272150Z AUTO 16004KT 10SM -RA CLR 27/02 A3012 130 19 1600 160/04 RMK AO2 P0000 T02720022 $
63870K0J4 0J420161127165512711/27/16 16:55:31  5-MIN K0J4 272155Z AUTO 17003KT 10SM -RA CLR 27/03 A3012 130 20 1600 170/03 RMK AO2 SLP198 P0000 T02720028 $
63870K0J4 0J420161127170012011/27/16 17:00:31  5-MIN K0J4 272200Z AUTO 15003KT 10SM -RA CLR 27/02 A3012 130 20 1500 150/03 RMK AO2 P0000 T02670022 $
63870K0J4 0J420161127170512011/27/16 17:05:31  5-MIN K0J4 272205Z AUTO 15004KT 10SM -RA CLR 26/02 A3012 130 21 1400 150/04 RMK AO2 P0000 T02560022 $
63870K0J4 0J420161127171012011/27/16 17:10:31  5-MIN K0J4 272210Z AUTO 14003KT 10SM -RA CLR 25/02 A3012 130 22 1400 140/03 RMK AO2 P0000 T02500022 $
63870K0J4 0J420161127171512011/27/16 17:15:31  5-MIN K0J4 272215Z AUTO 14003KT 10SM -RA CLR 24/03 A3012 130 24 1300 140/03 RMK AO2 P0000 T02440028 $
63870K0J4 0J420161127172012011/27/16 17:20:31  5-MIN K0J4 272220Z AUTO 13003KT 10SM -RA CLR 22/03 A3012 140 27 1000 130/03 RMK AO2 P0000 T02220028 $
63870K0J4 0J420161127172512011/27/16 17:25:31  5-MIN K0J4 272225Z AUTO 00000KT 10SM -RA CLR 22/03 A3011 140 28 1000 000/00 RMK AO2 P0000 T02170028 $
63870K0J4 0J420161127173011911/27/16 17:30:31  5-MIN K0J4 272230Z AUTO 00000KT 10SM -RA CLR 21/03 A3012 140 30 900 000/00 RMK AO2 P0000 T02060028 $
63870K0J4 0J420161127173511911/27/16 17:35:31  5-MIN K0J4 272235Z AUTO 00000KT 10SM -RA CLR 20/03 A3012 140 31 800 000/00 RMK AO2 P0000 T02000028 $
63870K0J4 0J420161127174011911/27/16 17:40:31  5-MIN K0J4 272240Z AUTO 10003KT 10SM -RA CLR 19/03 A3011 140 33 700 100/03 RMK AO2 P0000 T01940028 $
63870K0J4 0J420161127174511911/27/16 17:45:31  5-MIN K0J4 272245Z AUTO 12003KT 10SM -RA CLR 18/03 A3011 140 36 600 120/03 RMK AO2 P0000 T01830033 $
63870K0J4 0J420161127175011911/27/16 17:50:31  5-MIN K0J4 272250Z AUTO 11003KT 10SM -RA CLR 17/04 A3011 140 41 500 110/03 RMK AO2 P0000 T01720039 $
63870K0J4 0J420161127175512611/27/16 17:55:31  5-MIN K0J4 272255Z AUTO 11003KT 10SM -RA CLR 17/04 A3010 150 44 400 110/03 RMK AO2 SLP193 P0000 T01670044 $
63870K0J4 0J420161127180011911/27/16 18:00:31  5-MIN K0J4 272300Z AUTO 00000KT 10SM -RA CLR 16/04 A3010 150 44 400 000/00 RMK AO2 P0000 T01610039 $
63870K0J4 0J420161127180511911/27/16 18:05:31  5-MIN K0J4 272305Z AUTO 00000KT 10SM -RA CLR 16/03 A3010 150 42 400 000/00 RMK AO2 P0000 T01610033 $
63870K0J4 0J420161127181011911/27/16 18:10:31  5-MIN K0J4 272310Z AUTO 00000KT 10SM -RA CLR 16/04 A3010 150 45 300 000/00 RMK AO2 P0000 T01560039 $
63870K0J4 0J420161127181511911/27/16 18:15:31  5-MIN K0J4 272315Z AUTO 00000KT 10SM -RA CLR 15/04 A3010 150 47 200 000/00 RMK AO2 P0000 T01500039 $
63870K0J4 0J420161127182011911/27/16 18:20:31  5-MIN K0J4 272320Z AUTO 00000KT 10SM -RA CLR 15/03 A3010 150 45 200 000/00 RMK AO2 P0000 T01500033 $
63870K0J4 0J420161127182511911/27/16 18:25:31  5-MIN K0J4 272325Z AUTO 00000KT 10SM -RA CLR 15/04 A3010 150 47 200 000/00 RMK AO2 P0000 T01500039 $
63870K0J4 0J420161127183011911/27/16 18:30:31  5-MIN K0J4 272330Z AUTO 00000KT 10SM -RA CLR 14/04 A3010 150 51 200 000/00 RMK AO2 P0000 T01440044 $
63870K0J4 0J420161127183511911/27/16 18:35:31  5-MIN K0J4 272335Z AUTO 00000KT 10SM -RA CLR 14/04 A3010 150 51 200 000/00 RMK AO2 P0000 T01440044 $
63870K0J4 0J420161127184011911/27/16 18:40:31  5-MIN K0J4 272340Z AUTO 00000KT 10SM -RA CLR 14/04 A3010 150 49 200 000/00 RMK AO2 P0000 T01440039 $
63870K0J4 0J420161127184511911/27/16 18:45:31  5-MIN K0J4 272345Z AUTO 00000KT 10SM -RA CLR 14/04 A3010 150 50 100 000/00 RMK AO2 P0000 T01390039 $
63870K0J4 0J420161127185011911/27/16 18:50:31  5-MIN K0J4 272350Z AUTO 00000KT 10SM -RA CLR 14/04 A3010 150 50 100 000/00 RMK AO2 P0000 T01390039 $
63870K0J4 0J420161127185514811/27/16 18:55:31  5-MIN K0J4 272355Z AUTO 00000KT 10SM -RA CLR 13/04 A3010 150 54 0 000/00 RMK AO2 SLP192 P0000 60000 T01330044 10306 20133 56021 $
63870K0J4 0J420161127190011911/27/16 19:00:31  5-MIN K0J4 280000Z AUTO 22004KT 10SM -RA CLR 16/04 A3010 150 47 300 220/04 RMK AO2 P0000 T01560044 $
63870K0J4 0J420161127190511911/27/16 19:05:31  5-MIN K0J4 280005Z AUTO 22003KT 10SM -RA CLR 17/04 A3010 150 44 400 220/03 RMK AO2 P0000 T01670044 $
63870K0J4 0J420161127191011911/27/16 19:10:31  5-MIN K0J4 280010Z AUTO 22004KT 10SM -RA CLR 17/04 A3011 140 42 500 220/04 RMK AO2 P0000 T01720044 $
63870K0J4 0J420161127191511911/27/16 19:15:31  5-MIN K0J4 280015Z AUTO 23003KT 10SM -RA CLR 15/04 A3011 140 49 200 230/03 RMK AO2 P0000 T01500044 $
63870K0J4 0J420161127192012111/27/16 19:20:31  5-MIN K0J4 280020Z AUTO 21003KT 10SM CLR 14/04 A3011 140 52 100 210/03 RMK AO2 RAE17 P0000 T01390044 $
63870K0J4 0J420161127192511911/27/16 19:25:31  5-MIN K0J4 280025Z AUTO 20003KT 10SM CLR 13/04 A3011 150 54 0 200/03 RMK AO2 RAE17 P0000 T01330044 $
63870K0J4 0J420161127193011911/27/16 19:30:31  5-MIN K0J4 280030Z AUTO 00000KT 10SM CLR 13/04 A3011 140 54 0 000/00 RMK AO2 RAE17 P0000 T01330044 $
63870K0J4 0J420161127193512211/27/16 19:35:31  5-MIN K0J4 280035Z AUTO 00000KT 10SM CLR 12/04 A3011 150 59 -100 000/00 RMK AO2 RAE17 P0000 T01220044 $
63870K0J4 0J420161127194012211/27/16 19:40:31  5-MIN K0J4 280040Z AUTO 00000KT 10SM CLR 12/04 A3010 150 59 -100 000/00 RMK AO2 RAE17 P0000 T01220044 $
63870K0J4 0J420161127194512211/27/16 19:45:31  5-MIN K0J4 280045Z AUTO 00000KT 10SM CLR 12/04 A3010 150 59 -100 000/00 RMK AO2 RAE17 P0000 T01220044 $
63870K0J4 0J420161127195011911/27/16 19:50:31  5-MIN K0J4 280050Z AUTO 00000KT 10SM CLR 13/04 A3010 150 56 0 000/00 RMK AO2 RAE17 P0000 T01280044 $
63870K0J4 0J420161127195512611/27/16 19:55:31  5-MIN K0J4 280055Z AUTO 00000KT 10SM CLR 13/04 A3010 150 56 0 000/00 RMK AO2 RAE17 SLP193 P0000 T01280044 $
63870K0J4 0J420161127200010711/27/16 20:00:31  5-MIN K0J4 280100Z AUTO 00000KT 10SM CLR 13/04 A3010 150 56 0 000/00 RMK AO2 T01280044 $
63870K0J4 0J420161127200510711/27/16 20:05:31  5-MIN K0J4 280105Z AUTO 00000KT 10SM CLR 13/04 A3010 150 56 0 000/00 RMK AO2 T01280044 $
63870K0J4 0J420161127201010711/27/16 20:10:31  5-MIN K0J4 280110Z AUTO 00000KT 10SM CLR 13/04 A3009 160 56 0 000/00 RMK AO2 T01280044 $
63870K0J4 0J420161127201510711/27/16 20:15:31  5-MIN K0J4 280115Z AUTO 00000KT 10SM CLR 13/04 A3009 160 56 0 000/00 RMK AO2 T01280044 $
63870K0J4 0J420161127202010711/27/16 20:20:31  5-MIN K0J4 280120Z AUTO 00000KT 10SM CLR 12/05 A3009 160 61 0 000/00 RMK AO2 T01220050 $
63870K0J4 0J420161127202510711/27/16 20:25:31  5-MIN K0J4 280125Z AUTO 00000KT 10SM CLR 12/05 A3009 160 61 0 000/00 RMK AO2 T01220050 $
63870K0J4 0J420161127203010711/27/16 20:30:31  5-MIN K0J4 280130Z AUTO 00000KT 10SM CLR 12/05 A3009 160 61 0 000/00 RMK AO2 T01220050 $
63870K0J4 0J420161127203510711/27/16 20:35:31  5-MIN K0J4 280135Z AUTO 00000KT 10SM CLR 13/05 A3009 160 59 0 000/00 RMK AO2 T01280050 $
63870K0J4 0J420161127204010711/27/16 20:40:31  5-MIN K0J4 280140Z AUTO 00000KT 10SM CLR 13/05 A3009 160 59 0 000/00 RMK AO2 T01280050 $
63870K0J4 0J420161127204510711/27/16 20:45:31  5-MIN K0J4 280145Z AUTO 00000KT 10SM CLR 13/05 A3009 160 57 0 000/00 RMK AO2 T01330050 $
63870K0J4 0J420161127205010711/27/16 20:50:31  5-MIN K0J4 280150Z AUTO 00000KT 10SM CLR 13/05 A3009 160 57 0 000/00 RMK AO2 T01330050 $
63870K0J4 0J420161127205511411/27/16 20:55:31  5-MIN K0J4 280155Z AUTO 00000KT 10SM CLR 13/06 A3009 160 61 0 000/00 RMK AO2 SLP187 T01280056 $
63870K0J4 0J420161127210010711/27/16 21:00:31  5-MIN K0J4 280200Z AUTO 00000KT 10SM CLR 13/05 A3009 160 57 0 000/00 RMK AO2 T01330050 $
63870K0J4 0J420161127210510911/27/16 21:05:31  5-MIN K0J4 280205Z AUTO 00000KT 10SM CLR 14/06 A3010 150 55 200 000/00 RMK AO2 T01440056 $
63870K0J4 0J420161127211010911/27/16 21:10:31  5-MIN K0J4 280210Z AUTO 00000KT 10SM CLR 14/06 A3010 150 57 100 000/00 RMK AO2 T01390056 $
63870K0J4 0J420161127211510711/27/16 21:15:31  5-MIN K0J4 280215Z AUTO 00000KT 10SM CLR 13/06 A3010 150 59 0 000/00 RMK AO2 T01330056 $
63870K0J4 0J420161127212010711/27/16 21:20:31  5-MIN K0J4 280220Z AUTO 00000KT 10SM CLR 13/06 A3010 150 59 0 000/00 RMK AO2 T01330056 $
63870K0J4 0J420161127212510911/27/16 21:25:31  5-MIN K0J4 280225Z AUTO 00000KT 10SM CLR 14/06 A3010 150 57 100 000/00 RMK AO2 T01390056 $
63870K0J4 0J420161127213010911/27/16 21:30:31  5-MIN K0J4 280230Z AUTO 00000KT 10SM CLR 14/06 A3010 150 57 100 000/00 RMK AO2 T01390056 $
63870K0J4 0J420161127213510911/27/16 21:35:31  5-MIN K0J4 280235Z AUTO 00000KT 10SM CLR 14/06 A3010 150 57 100 000/00 RMK AO2 T01390056 $
63870K0J4 0J420161127214010711/27/16 21:40:31  5-MIN K0J4 280240Z AUTO 00000KT 10SM CLR 13/06 A3012 140 61 0 000/00 RMK AO2 T01330061 $
63870K0J4 0J420161127214510911/27/16 21:45:31  5-MIN K0J4 280245Z AUTO 00000KT 10SM CLR 14/06 A3011 140 59 100 000/00 RMK AO2 T01390061 $
63870K0J4 0J420161127215010711/27/16 21:50:31  5-MIN K0J4 280250Z AUTO 00000KT 10SM CLR 13/06 A3011 150 61 0 000/00 RMK AO2 T01330061 $
63870K0J4 0J420161127215512611/27/16 21:55:31  5-MIN K0J4 280255Z AUTO 00000KT 10SM CLR 13/06 A3010 150 59 0 000/00 RMK AO2 SLP191 60000 T01330056 58002 $
63870K0J4 0J420161127220010711/27/16 22:00:31  5-MIN K0J4 280300Z AUTO 00000KT 10SM CLR 13/06 A3010 150 61 0 000/00 RMK AO2 T01280056 $
63870K0J4 0J420161127220510711/27/16 22:05:31  5-MIN K0J4 280305Z AUTO 00000KT 10SM CLR 13/06 A3010 150 61 0 000/00 RMK AO2 T01280056 $
63870K0J4 0J420161127221010711/27/16 22:10:31  5-MIN K0J4 280310Z AUTO 01003KT 10SM CLR 13/06 A3010 150 61 0 010/03 RMK AO2 T01280056 $
63870K0J4 0J420161127221510711/27/16 22:15:31  5-MIN K0J4 280315Z AUTO 00000KT 10SM CLR 12/06 A3009 160 63 0 000/00 RMK AO2 T01220056 $
63870K0J4 0J420161127222010711/27/16 22:20:31  5-MIN K0J4 280320Z AUTO 00000KT 10SM CLR 12/06 A3009 160 63 0 000/00 RMK AO2 T01220056 $
63870K0J4 0J420161127222510711/27/16 22:25:31  5-MIN K0J4 280325Z AUTO 00000KT 10SM CLR 12/06 A3009 160 63 0 000/00 RMK AO2 T01220056 $
63870K0J4 0J420161127223011011/27/16 22:30:31  5-MIN K0J4 280330Z AUTO 00000KT 10SM CLR 12/06 A3008 160 66 -100 000/00 RMK AO2 T01170056 $
63870K0J4 0J420161127223511011/27/16 22:35:31  5-MIN K0J4 280335Z AUTO 00000KT 10SM CLR 12/06 A3008 170 66 -100 000/00 RMK AO2 T01170056 $
63870K0J4 0J420161127224011011/27/16 22:40:31  5-MIN K0J4 280340Z AUTO 00000KT 10SM CLR 12/06 A3008 170 66 -100 000/00 RMK AO2 T01170056 $
63870K0J4 0J420161127224511011/27/16 22:45:31  5-MIN K0J4 280345Z AUTO 00000KT 10SM CLR 12/06 A3007 180 66 -100 000/00 RMK AO2 T01170056 $
63870K0J4 0J420161127225011011/27/16 22:50:31  5-MIN K0J4 280350Z AUTO 00000KT 10SM CLR 12/06 A3007 180 66 -100 000/00 RMK AO2 T01170056 $
63870K0J4 0J420161127225511711/27/16 22:55:31  5-MIN K0J4 280355Z AUTO 00000KT 10SM CLR 11/05 A3007 180 66 -200 000/00 RMK AO2 SLP181 T01110050 $
63870K0J4 0J420161127230011011/27/16 23:00:31  5-MIN K0J4 280400Z AUTO 00000KT 10SM CLR 11/05 A3007 180 66 -200 000/00 RMK AO2 T01110050 $
63870K0J4 0J420161127230511011/27/16 23:05:31  5-MIN K0J4 280405Z AUTO 11003KT 10SM CLR 11/05 A3007 180 68 -200 110/03 RMK AO2 T01060050 $
63870K0J4 0J420161127231011011/27/16 23:10:31  5-MIN K0J4 280410Z AUTO 12003KT 10SM CLR 11/05 A3007 180 68 -200 120/03 RMK AO2 T01060050 $
63870K0J4 0J420161127231511011/27/16 23:15:31  5-MIN K0J4 280415Z AUTO 13004KT 10SM CLR 11/05 A3006 190 66 -100 130/04 RMK AO2 T01110050 $
63870K0J4 0J420161127232011011/27/16 23:20:31  5-MIN K0J4 280420Z AUTO 13003KT 10SM CLR 11/05 A3006 190 66 -100 130/03 RMK AO2 T01110050 $
63870K0J4 0J420161127232511011/27/16 23:25:31  5-MIN K0J4 280425Z AUTO 13003KT 10SM CLR 11/05 A3005 190 66 -100 130/03 RMK AO2 T01110050 $
63870K0J4 0J420161127233011011/27/16 23:30:31  5-MIN K0J4 280430Z AUTO 14003KT 10SM CLR 10/04 A3005 200 68 -300 140/03 RMK AO2 T01000044 $
63870K0J4 0J420161127233511011/27/16 23:35:31  5-MIN K0J4 280435Z AUTO 00000KT 10SM CLR 10/04 A3005 190 68 -300 000/00 RMK AO2 T01000044 $
63870K0J4 0J420161127234011011/27/16 23:40:31  5-MIN K0J4 280440Z AUTO 12003KT 10SM CLR 10/04 A3005 190 68 -300 120/03 RMK AO2 T01000044 $
63870K0J4 0J420161127234511011/27/16 23:45:31  5-MIN K0J4 280445Z AUTO 12003KT 10SM CLR 10/05 A3005 200 71 -300 120/03 RMK AO2 T01000050 $
63870K0J4 0J420161127235011011/27/16 23:50:31  5-MIN K0J4 280450Z AUTO 13003KT 10SM CLR 10/04 A3005 200 68 -300 130/03 RMK AO2 T01000044 $
63870K0J4 0J420161127235512711/27/16 23:55:31  5-MIN K0J4 280455Z AUTO 13003KT 10SM CLR 10/04 A3005 200 68 -300 130/03 RMK AO2 SLP173 T01000044 403060011 $
63870K0J4 0J420161128000011011/28/16 00:00:31  5-MIN K0J4 280500Z AUTO 14003KT 10SM CLR 10/04 A3005 200 68 -300 140/03 RMK AO2 T01000044 $
63870K0J4 0J420161128000511011/28/16 00:05:31  5-MIN K0J4 280505Z AUTO 00000KT 10SM CLR 10/04 A3005 200 68 -300 000/00 RMK AO2 T01000044 $
63870K0J4 0J420161128001011011/28/16 00:10:31  5-MIN K0J4 280510Z AUTO 00000KT 10SM CLR 10/04 A3005 200 68 -300 000/00 RMK AO2 T01000044 $
63870K0J4 0J420161128001511011/28/16 00:15:31  5-MIN K0J4 280515Z AUTO 00000KT 10SM CLR 09/04 A3005 200 71 -300 000/00 RMK AO2 T00940044 $
63870K0J4 0J420161128002011011/28/16 00:20:31  5-MIN K0J4 280520Z AUTO 09003KT 10SM CLR 10/04 A3005 190 68 -300 090/03 RMK AO2 T01000044 $
63870K0J4 0J420161128002511011/28/16 00:25:31  5-MIN K0J4 280525Z AUTO 00000KT 10SM CLR 11/05 A3005 190 68 -200 000/00 RMK AO2 T01060050 $
63870K0J4 0J420161128003011011/28/16 00:30:31  5-MIN K0J4 280530Z AUTO 00000KT 10SM CLR 11/05 A3006 190 68 -200 000/00 RMK AO2 T01060050 $
63870K0J4 0J420161128003511011/28/16 00:35:31  5-MIN K0J4 280535Z AUTO 00000KT 10SM CLR 11/05 A3006 190 68 -200 000/00 RMK AO2 T01060050 $
63870K0J4 0J420161128004011011/28/16 00:40:31  5-MIN K0J4 280540Z AUTO 00000KT 10SM CLR 11/05 A3006 190 66 -100 000/00 RMK AO2 T01110050 $
63870K0J4 0J420161128004511011/28/16 00:45:31  5-MIN K0J4 280545Z AUTO 00000KT 10SM CLR 11/05 A3006 190 66 -100 000/00 RMK AO2 T01110050 $
63870K0J4 0J420161128005011011/28/16 00:50:31  5-MIN K0J4 280550Z AUTO 13003KT 10SM CLR 11/04 A3006 190 66 -200 130/03 RMK AO2 T01060044 $
63870K0J4 0J420161128005514111/28/16 00:55:31  5-MIN K0J4 280555Z AUTO 00000KT 10SM CLR 10/04 A3006 190 68 -300 000/00 RMK AO2 SLP176 60000 T01000044 10172 20094 55001 $
63870K0J4 0J420161128010011011/28/16 01:00:31  5-MIN K0J4 280600Z AUTO 00000KT 10SM CLR 10/04 A3006 190 65 -300 000/00 RMK AO2 T01000039 $
63870K0J4 0J420161128010511011/28/16 01:05:31  5-MIN K0J4 280605Z AUTO 00000KT 10SM CLR 09/04 A3006 190 68 -300 000/00 RMK AO2 T00940039 $
63870K0J4 0J420161128011011011/28/16 01:10:31  5-MIN K0J4 280610Z AUTO 00000KT 10SM CLR 09/04 A3006 190 71 -400 000/00 RMK AO2 T00890039 $
63870K0J4 0J420161128011511011/28/16 01:15:31  5-MIN K0J4 280615Z AUTO 00000KT 10SM CLR 09/04 A3006 190 68 -300 000/00 RMK AO2 T00940039 $
63870K0J4 0J420161128012011011/28/16 01:20:31  5-MIN K0J4 280620Z AUTO 00000KT 10SM CLR 09/04 A3005 190 71 -400 000/00 RMK AO2 T00890039 $
63870K0J4 0J420161128012511011/28/16 01:25:31  5-MIN K0J4 280625Z AUTO 00000KT 10SM CLR 09/04 A3005 200 71 -400 000/00 RMK AO2 T00890039 $
63870K0J4 0J420161128013011011/28/16 01:30:31  5-MIN K0J4 280630Z AUTO 00000KT 10SM CLR 09/04 A3005 200 68 -300 000/00 RMK AO2 T00940039 $
63870K0J4 0J420161128013511011/28/16 01:35:31  5-MIN K0J4 280635Z AUTO 00000KT 10SM CLR 09/04 A3005 200 71 -400 000/00 RMK AO2 T00890039 $
63870K0J4 0J420161128014011011/28/16 01:40:31  5-MIN K0J4 280640Z AUTO 00000KT 10SM CLR 09/03 A3005 200 68 -400 000/00 RMK AO2 T00890033 $
63870K0J4 0J420161128014511311/28/16 01:45:31  5-MIN K0J4 280645Z AUTO 00000KT 10SM SCT049 09/03 A3005 200 68 -400 000/00 RMK AO2 T00890033 $
63870K0J4 0J420161128015011311/28/16 01:50:31  5-MIN K0J4 280650Z AUTO 00000KT 10SM BKN049 09/04 A3006 190 71 -400 000/00 RMK AO2 T00890039 $
63870K0J4 0J420161128015512011/28/16 01:55:31  5-MIN K0J4 280655Z AUTO 00000KT 10SM BKN049 09/04 A3005 190 71 -300 000/00 RMK AO2 SLP174 T00940044 $
63870K0J4 0J420161128020011311/28/16 02:00:31  5-MIN K0J4 280700Z AUTO 09003KT 10SM BKN049 10/04 A3005 190 68 -300 090/03 RMK AO2 T01000044 $
63870K0J4 0J420161128020512611/28/16 02:05:31  5-MIN K0J4 280705Z AUTO 09003KT 10SM -RA BKN049 12/05 A3006 190 61 0 090/03 RMK AO2 RAB02 P0000 T01220050 $
63870K0J4 0J420161128021012611/28/16 02:10:31  5-MIN K0J4 280710Z AUTO 09004KT 10SM -RA BKN049 13/06 A3006 190 61 0 090/04 RMK AO2 RAB02 P0000 T01280056 $
63870K0J4 0J420161128021512711/28/16 02:15:31  5-MIN K0J4 280715Z AUTO 09003KT 10SM BKN049 13/06 A3006 190 59 100 090/03 RMK AO2 RAB02E14 P0000 T01330056 $
63870K0J4 0J420161128022012711/28/16 02:20:31  5-MIN K0J4 280720Z AUTO VRB03KT 10SM BKN049 13/05 A3006 190 57 100 VRB/03 RMK AO2 RAB02E14 P0000 T01330050 $
63870K0J4 0J420161128022512511/28/16 02:25:31  5-MIN K0J4 280725Z AUTO 00000KT 10SM BKN049 13/05 A3006 190 59 0 000/00 RMK AO2 RAB02E14 P0000 T01280050 $
63870K0J4 0J420161128023012511/28/16 02:30:31  5-MIN K0J4 280730Z AUTO 00000KT 10SM BKN049 12/05 A3006 190 61 0 000/00 RMK AO2 RAB02E14 P0000 T01220050 $
63870K0J4 0J420161128023512511/28/16 02:35:31  5-MIN K0J4 280735Z AUTO 10004KT 10SM BKN049 13/05 A3006 190 59 0 100/04 RMK AO2 RAB02E14 P0000 T01280050 $
63870K0J4 0J420161128024012711/28/16 02:40:31  5-MIN K0J4 280740Z AUTO 10006KT 10SM BKN049 14/05 A3006 190 55 100 100/06 RMK AO2 RAB02E14 P0000 T01390050 $
63870K0J4 0J420161128024512711/28/16 02:45:31  5-MIN K0J4 280745Z AUTO 00000KT 10SM SCT049 14/04 A3005 200 51 200 000/00 RMK AO2 RAB02E14 P0000 T01440044 $
63870K0J4 0J420161128025012711/28/16 02:50:31  5-MIN K0J4 280750Z AUTO 10003KT 10SM SCT049 13/04 A3005 200 54 100 100/03 RMK AO2 RAB02E14 P0000 T01330044 $
63870K0J4 0J420161128025513211/28/16 02:55:31  5-MIN K0J4 280755Z AUTO VRB04KT 10SM FEW049 13/04 A3005 200 56 0 VRB/04 RMK AO2 RAB02E14 SLP171 P0000 T01280044 $
63870K0J4 0J420161128030011011/28/16 03:00:31  5-MIN K0J4 280800Z AUTO VRB03KT 10SM FEW049 13/04 A3005 200 56 0 VRB/03 RMK AO2 T01280044 $
63870K0J4 0J420161128030511011/28/16 03:05:31  5-MIN K0J4 280805Z AUTO 08003KT 10SM FEW049 12/04 A3005 200 59 0 080/03 RMK AO2 T01220044 $
63870K0J4 0J420161128031011011/28/16 03:10:31  5-MIN K0J4 280810Z AUTO 06004KT 10SM CLR 12/04 A3005 200 61 -100 060/04 RMK AO2 T01170044 $
63870K0J4 0J420161128031510711/28/16 03:15:31  5-MIN K0J4 280815Z AUTO 07004KT 10SM CLR 13/04 A3005 200 56 0 070/04 RMK AO2 T01280044 $
63870K0J4 0J420161128032010711/28/16 03:20:31  5-MIN K0J4 280820Z AUTO VRB04KT 10SM CLR 12/04 A3004 210 59 0 VRB/04 RMK AO2 T01220044 $
63870K0J4 0J420161128032511011/28/16 03:25:31  5-MIN K0J4 280825Z AUTO 08004KT 10SM CLR 12/04 A3004 200 58 -100 080/04 RMK AO2 T01170039 $
63870K0J4 0J420161128033011011/28/16 03:30:31  5-MIN K0J4 280830Z AUTO 08004KT 10SM CLR 12/04 A3004 200 58 -100 080/04 RMK AO2 T01170039 $
63870K0J4 0J420161128033511011/28/16 03:35:31  5-MIN K0J4 280835Z AUTO 08003KT 10SM CLR 11/04 A3005 200 61 -100 080/03 RMK AO2 T01110039 $
63870K0J4 0J420161128034011311/28/16 03:40:31  5-MIN K0J4 280840Z AUTO 08003KT 10SM FEW041 11/04 A3005 200 63 -200 080/03 RMK AO2 T01060039 $
63870K0J4 0J420161128034511311/28/16 03:45:31  5-MIN K0J4 280845Z AUTO 08003KT 10SM FEW041 11/04 A3004 200 63 -200 080/03 RMK AO2 T01060039 $
63870K0J4 0J420161128035011311/28/16 03:50:31  5-MIN K0J4 280850Z AUTO 08003KT 10SM SCT043 11/04 A3005 200 63 -200 080/03 RMK AO2 T01060039 $
63870K0J4 0J420161128035513911/28/16 03:55:31  5-MIN K0J4 280855Z AUTO 09003KT 10SM SCT041 BKN050 11/04 A3004 200 63 -200 090/03 RMK AO2 SLP169 60000 T01060039 55015 $
63870K0J4 0J420161128040012711/28/16 04:00:31  5-MIN K0J4 280900Z AUTO 00000KT 10SM FEW009 BKN041 BKN050 11/04 A3004 210 63 -200 000/00 RMK AO2 T01060039 $
63870K0J4 0J420161128040512711/28/16 04:05:31  5-MIN K0J4 280905Z AUTO VRB03KT 10SM SCT009 BKN041 BKN049 11/04 A3004 210 63 -100 VRB/03 RMK AO2 T01110044 $
63870K0J4 0J420161128041011711/28/16 04:10:31  5-MIN K0J4 280910Z AUTO 00000KT 10SM SCT009 BKN045 12/04 A3004 210 59 0 000/00 RMK AO2 T01220044 $
63870K0J4 0J420161128041511711/28/16 04:15:31  5-MIN K0J4 280915Z AUTO 10003KT 10SM BKN009 OVC045 12/04 A3003 210 59 0 100/03 RMK AO2 T01220044 $
63870K0J4 0J420161128042012411/28/16 04:20:31  5-MIN K0J4 280920Z AUTO 08003KT 10SM BKN009 BKN042 BKN049 12/04 A3003 220 61 0 080/03 RMK AO2 T01170044 $
63870K0J4 0J420161128042511711/28/16 04:25:31  5-MIN K0J4 280925Z AUTO 08003KT 10SM BKN010 BKN049 12/04 A3002 220 61 0 080/03 RMK AO2 T01170044 $
63870K0J4 0J420161128043011711/28/16 04:30:31  5-MIN K0J4 280930Z AUTO 09003KT 10SM SCT010 OVC049 12/04 A3002 230 59 0 090/03 RMK AO2 T01220044 $
63870K0J4 0J420161128043511711/28/16 04:35:31  5-MIN K0J4 280935Z AUTO 11003KT 10SM FEW010 OVC048 12/05 A3002 220 63 0 110/03 RMK AO2 T01170050 $
63870K0J4 0J420161128044011911/28/16 04:40:31  5-MIN K0J4 280940Z AUTO VRB03KT 10SM FEW010 OVC048 13/05 A3002 230 57 100 VRB/03 RMK AO2 T01330050 $
63870K0J4 0J420161128044511211/28/16 04:45:31  5-MIN K0J4 280945Z AUTO VRB03KT 10SM OVC048 13/05 A3002 220 59 100 VRB/03 RMK AO2 T01280050 $
63870K0J4 0J420161128045011211/28/16 04:50:31  5-MIN K0J4 280950Z AUTO 00000KT 10SM OVC048 13/05 A3002 230 59 100 000/00 RMK AO2 T01280050 $
63870K0J4 0J420161128045511711/28/16 04:55:31  5-MIN K0J4 280955Z AUTO 00000KT 10SM OVC048 12/05 A3002 220 63 0 000/00 RMK AO2 SLP162 T01170050 $
63870K0J4 0J420161128050011011/28/16 05:00:31  5-MIN K0J4 281000Z AUTO 00000KT 10SM OVC048 12/05 A3002 220 63 0 000/00 RMK AO2 T01170050 $
63870K0J4 0J420161128050511011/28/16 05:05:31  5-MIN K0J4 281005Z AUTO 08003KT 10SM BKN049 12/05 A3002 230 61 0 080/03 RMK AO2 T01220050 $
63870K0J4 0J420161128051011011/28/16 05:10:31  5-MIN K0J4 281010Z AUTO VRB03KT 10SM BKN049 12/05 A3002 230 61 0 VRB/03 RMK AO2 T01220050 $
63870K0J4 0J420161128051511711/28/16 05:15:31  5-MIN K0J4 281015Z AUTO 12003KT 10SM FEW037 SCT049 12/05 A3001 230 61 0 120/03 RMK AO2 T01220050 $
63870K0J4 0J420161128052011911/28/16 05:20:31  5-MIN K0J4 281020Z AUTO VRB03KT 10SM FEW037 SCT049 13/05 A3001 230 59 100 VRB/03 RMK AO2 T01280050 $
63870K0J4 0J420161128052511011/28/16 05:25:31  5-MIN K0J4 281025Z AUTO VRB03KT 10SM FEW049 12/05 A3001 230 63 0 VRB/03 RMK AO2 T01170050 $
63870K0J4 0J420161128053010711/28/16 05:30:31  5-MIN K0J4 281030Z AUTO VRB03KT 10SM CLR 12/05 A3001 230 61 0 VRB/03 RMK AO2 T01220050 $
63870K0J4 0J420161128053510711/28/16 05:35:31  5-MIN K0J4 281035Z AUTO VRB03KT 10SM CLR 12/06 A3001 230 63 0 VRB/03 RMK AO2 T01220056 $
63870K0J4 0J420161128054010911/28/16 05:40:31  5-MIN K0J4 281040Z AUTO VRB03KT 10SM CLR 13/06 A3001 230 61 100 VRB/03 RMK AO2 T01280056 $
63870K0J4 0J420161128054510711/28/16 05:45:31  5-MIN K0J4 281045Z AUTO VRB03KT 10SM CLR 12/06 A3001 230 66 0 VRB/03 RMK AO2 T01220061 $
63870K0J4 0J420161128055010711/28/16 05:50:31  5-MIN K0J4 281050Z AUTO 00000KT 10SM CLR 12/07 A3001 230 68 0 000/00 RMK AO2 T01220067 $
63870K0J4 0J420161128055511611/28/16 05:55:31  5-MIN K0J4 281055Z AUTO VRB04KT 10SM CLR 13/07 A3001 230 66 100 VRB/04 RMK AO2 SLP159 T01280067 $
63870K0J4 0J420161128060010911/28/16 06:00:31  5-MIN K0J4 281100Z AUTO 08003KT 10SM CLR 13/07 A3001 240 66 100 080/03 RMK AO2 T01280067 $
63870K0J4 0J420161128060510911/28/16 06:05:31  5-MIN K0J4 281105Z AUTO 09003KT 10SM CLR 13/07 A3001 230 69 100 090/03 RMK AO2 T01280072 $
63870K0J4 0J420161128061010711/28/16 06:10:31  5-MIN K0J4 281110Z AUTO VRB03KT 10SM CLR 12/07 A3001 230 71 0 VRB/03 RMK AO2 T01220072 $
63870K0J4 0J420161128061510911/28/16 06:15:31  5-MIN K0J4 281115Z AUTO VRB04KT 10SM CLR 13/07 A3001 240 69 100 VRB/04 RMK AO2 T01280072 $
63870K0J4 0J420161128062010911/28/16 06:20:31  5-MIN K0J4 281120Z AUTO 09003KT 10SM CLR 13/07 A3001 230 69 100 090/03 RMK AO2 T01280072 $
63870K0J4 0J420161128062510911/28/16 06:25:31  5-MIN K0J4 281125Z AUTO 09004KT 10SM CLR 13/07 A3001 230 69 100 090/04 RMK AO2 T01280072 $
63870K0J4 0J420161128063010911/28/16 06:30:31  5-MIN K0J4 281130Z AUTO 08004KT 10SM CLR 13/07 A3001 230 66 100 080/04 RMK AO2 T01330072 $
63870K0J4 0J420161128063510911/28/16 06:35:31  5-MIN K0J4 281135Z AUTO 08004KT 10SM CLR 13/07 A3001 230 69 100 080/04 RMK AO2 T01280072 $
63870K0J4 0J420161128064010911/28/16 06:40:31  5-MIN K0J4 281140Z AUTO 08004KT 10SM CLR 13/07 A3001 230 69 100 080/04 RMK AO2 T01280072 $
63870K0J4 0J420161128064510711/28/16 06:45:31  5-MIN K0J4 281145Z AUTO 08003KT 10SM CLR 12/07 A3001 230 71 0 080/03 RMK AO2 T01220072 $
63870K0J4 0J420161128065011011/28/16 06:50:31  5-MIN K0J4 281150Z AUTO 08003KT 10SM FEW016 12/07 A3001 230 71 0 080/03 RMK AO2 T01220072 $
63870K0J4 0J420161128065514111/28/16 06:55:31  5-MIN K0J4 281155Z AUTO 08003KT 10SM FEW016 12/07 A3001 230 71 0 080/03 RMK AO2 SLP162 60000 T01220072 10144 20089 58005 $
63870K0J4 0J420161128070011011/28/16 07:00:31  5-MIN K0J4 281200Z AUTO 08003KT 10SM FEW016 12/07 A3001 230 71 0 080/03 RMK AO2 T01220072 $
63870K0J4 0J420161128070511011/28/16 07:05:31  5-MIN K0J4 281205Z AUTO 10003KT 10SM FEW015 12/08 A3001 230 74 0 100/03 RMK AO2 T01220078 $
63870K0J4 0J420161128071011711/28/16 07:10:31  5-MIN K0J4 281210Z AUTO VRB03KT 10SM FEW015 SCT050 12/08 A3001 240 74 0 VRB/03 RMK AO2 T01220078 $
63870K0J4 0J420161128071511711/28/16 07:15:31  5-MIN K0J4 281215Z AUTO VRB03KT 10SM FEW016 SCT055 12/08 A3001 240 74 0 VRB/03 RMK AO2 T01220078 $
63870K0J4 0J420161128072011711/28/16 07:20:31  5-MIN K0J4 281220Z AUTO VRB03KT 10SM FEW016 SCT055 12/08 A3001 230 74 0 VRB/03 RMK AO2 T01220078 $
63870K0J4 0J420161128072511711/28/16 07:25:31  5-MIN K0J4 281225Z AUTO 11004KT 10SM FEW016 SCT055 12/08 A3001 240 74 0 110/04 RMK AO2 T01220078 $
63870K0J4 0J420161128073011911/28/16 07:30:31  5-MIN K0J4 281230Z AUTO 11003KT 10SM SCT017 SCT055 14/08 A3001 240 69 200 110/03 RMK AO2 T01390083 $
63870K0J4 0J420161128172512011/28/16 17:25:31  5-MIN K0J4 282225Z AUTO 17010KT 10SM SCT037 BKN048 28/17 A2981 410 48 2100 170/10 RMK AO2 T02830167 $
63870K0J4 0J420161128173012011/28/16 17:30:31  5-MIN K0J4 282230Z AUTO 17006KT 10SM SCT037 BKN046 28/17 A2981 420 50 2000 170/06 RMK AO2 T02780167 $
63870K0J4 0J420161128173512711/28/16 17:35:31  5-MIN K0J4 282235Z AUTO 17007KT 10SM SCT037 BKN048 BKN100 27/16 A2981 420 50 2000 170/07 RMK AO2 T02720161 $
63870K0J4 0J420161128174012711/28/16 17:40:31  5-MIN K0J4 282240Z AUTO 16006KT 10SM SCT037 BKN050 BKN100 27/17 A2982 410 52 2000 160/06 RMK AO2 T02720167 $
63870K0J4 0J420161128174512711/28/16 17:45:31  5-MIN K0J4 282245Z AUTO 15005KT 10SM SCT035 BKN042 BKN100 27/17 A2982 410 53 1900 150/05 RMK AO2 T02670167 $
63870K0J4 0J420161128175012011/28/16 17:50:31  5-MIN K0J4 282250Z AUTO 16006KT 10SM BKN038 BKN100 27/17 A2982 410 53 1900 160/06 RMK AO2 T02670167 $
63870K0J4 0J420161128175512711/28/16 17:55:31  5-MIN K0J4 282255Z AUTO 15005KT 10SM BKN036 BKN100 27/17 A2982 410 53 1900 150/05 RMK AO2 SLP094 T02670167 $
63870K0J4 0J420161128180012011/28/16 18:00:31  5-MIN K0J4 282300Z AUTO 14005KT 10SM BKN036 BKN100 27/17 A2982 410 53 1900 140/05 RMK AO2 T02670167 $
63870K0J4 0J420161128180512011/28/16 18:05:31  5-MIN K0J4 282305Z AUTO 15005KT 10SM BKN034 BKN041 27/17 A2982 410 53 1900 150/05 RMK AO2 T02670167 $
63870K0J4 0J420161128181011311/28/16 18:10:31  5-MIN K0J4 282310Z AUTO 14006KT 10SM BKN034 27/17 A2982 410 52 2000 140/06 RMK AO2 T02720167 $
63870K0J4 0J420161128181512011/28/16 18:15:31  5-MIN K0J4 282315Z AUTO 15006KT 10SM BKN034 BKN110 27/17 A2982 410 52 2000 150/06 RMK AO2 T02720167 $
63870K0J4 0J420161128182004911/28/16 18:20:31  5-MIN K0J4 282320Z AUTO RVRNO 
63870K0J4 0J420161128182510111/28/16 18:25:31  5-MIN K0J4 282325Z AUTO 16005KT 20/17 A2982 410 81 1100 160/05 RMK AO2 T02000167 $
63870K0J4 0J420161128183010611/28/16 18:30:31  5-MIN K0J4 282330Z AUTO 16006KT 10SM 20/17 A2982 410 84 1100 160/06 RMK AO2 T02000172 $
63870K0J4 0J420161128183510611/28/16 18:35:31  5-MIN K0J4 282335Z AUTO 16006KT 10SM 20/17 A2982 400 84 1100 160/06 RMK AO2 T02000172 $
63870K0J4 0J420161128184010611/28/16 18:40:31  5-MIN K0J4 282340Z AUTO 16005KT 10SM 21/17 A2983 400 78 1200 160/05 RMK AO2 T02110172 $
63870K0J4 0J420161128184510611/28/16 18:45:31  5-MIN K0J4 282345Z AUTO 16004KT 10SM 22/17 A2983 400 73 1400 160/04 RMK AO2 T02220172 $
63870K0J4 0J420161128185012011/28/16 18:50:31  5-MIN K0J4 282350Z AUTO 15006KT 10SM SCT030 OVC049 23/17 A2983 400 68 1500 150/06 RMK AO2 T02330172 $
63870K0J4 0J420161128185514511/28/16 18:55:31  5-MIN K0J4 282355Z AUTO 15006KT 10SM SCT030 OVC049 24/17 A2983 400 63 1600 150/06 RMK AO2 SLP099 60000 T02440172 10300 20200 $
63870K0J4 0J420161128190012011/28/16 19:00:31  5-MIN K0J4 290000Z AUTO 15006KT 10SM FEW030 OVC049 25/17 A2983 400 61 1700 150/06 RMK AO2 T02500172 $
63870K0J4 0J420161128190512711/28/16 19:05:31  5-MIN K0J4 290005Z AUTO 15006KT 10SM FEW030 SCT050 OVC055 26/17 A2983 400 59 1700 150/06 RMK AO2 T02560172 $
63870K0J4 0J420161128191012011/28/16 19:10:31  5-MIN K0J4 290010Z AUTO 15006KT 10SM BKN050 OVC055 26/17 A2983 400 59 1700 150/06 RMK AO2 T02560172 $
63870K0J4 0J420161128191512011/28/16 19:15:31  5-MIN K0J4 290015Z AUTO 15008KT 10SM BKN050 OVC060 26/17 A2983 400 57 1800 150/08 RMK AO2 T02610172 $
63870K0J4 0J420161128192012011/28/16 19:20:31  5-MIN K0J4 290020Z AUTO 15007KT 10SM BKN049 OVC060 27/17 A2983 400 55 1900 150/07 RMK AO2 T02670172 $
63870K0J4 0J420161128192512011/28/16 19:25:31  5-MIN K0J4 290025Z AUTO 16006KT 10SM BKN047 OVC055 27/17 A2983 400 55 1900 160/06 RMK AO2 T02670172 $
63870K0J4 0J420161128193012711/28/16 19:30:31  5-MIN K0J4 290030Z AUTO 15007KT 10SM BKN047 BKN060 OVC110 26/17 A2983 400 57 1800 150/07 RMK AO2 T02610172 $
63870K0J4 0J420161128193512711/28/16 19:35:31  5-MIN K0J4 290035Z AUTO 15006KT 10SM BKN047 BKN060 OVC110 26/17 A2984 400 57 1800 150/06 RMK AO2 T02610172 $
63870K0J4 0J420161128194012011/28/16 19:40:31  5-MIN K0J4 290040Z AUTO 16007KT 10SM BKN047 OVC060 27/17 A2983 400 55 1900 160/07 RMK AO2 T02670172 $
63870K0J4 0J420161128194512011/28/16 19:45:31  5-MIN K0J4 290045Z AUTO 16010KT 10SM BKN047 OVC060 27/17 A2983 400 55 1900 160/10 RMK AO2 T02670172 $
63870K0J4 0J420161128195012011/28/16 19:50:31  5-MIN K0J4 290050Z AUTO 17009KT 10SM BKN045 BKN060 27/17 A2983 400 55 1900 170/09 RMK AO2 T02670172 $
63870K0J4 0J420161128195513411/28/16 19:55:31  5-MIN K0J4 290055Z AUTO 16009KT 10SM FEW041 BKN047 OVC120 27/17 A2983 400 55 1900 160/09 RMK AO2 SLP097 T02670172 $
63870K0J4 0J420161128200012711/28/16 20:00:31  5-MIN K0J4 290100Z AUTO 17008KT 10SM FEW039 BKN060 OVC120 27/17 A2983 400 55 1900 170/08 RMK AO2 T02670172 $
63870K0J4 0J420161128200512711/28/16 20:05:31  5-MIN K0J4 290105Z AUTO 16010KT 10SM FEW039 BKN060 OVC120 26/17 A2982 400 57 1800 160/10 RMK AO2 T02610172 $
63870K0J4 0J420161128201012711/28/16 20:10:31  5-MIN K0J4 290110Z AUTO 16008KT 10SM FEW038 BKN060 OVC120 26/17 A2982 410 57 1800 160/08 RMK AO2 T02610172 $
63870K0J4 0J420161128201514311/28/16 20:15:31  5-MIN K0J4 290115Z AUTO 16008KT 120V180 10SM FEW041 BKN060 OVC120 26/17 A2982 410 57 1800 160/08 120V180 RMK AO2 T02610172 $
63870K0J4 0J420161128202012711/28/16 20:20:31  5-MIN K0J4 290120Z AUTO 17009KT 10SM FEW038 BKN065 OVC120 26/17 A2983 400 57 1800 170/09 RMK AO2 T02610172 $
63870K0J4 0J420161128202512711/28/16 20:25:31  5-MIN K0J4 290125Z AUTO 16008KT 10SM FEW038 BKN065 OVC120 26/17 A2982 410 57 1800 160/08 RMK AO2 T02610172 $
63870K0J4 0J420161128203012711/28/16 20:30:31  5-MIN K0J4 290130Z AUTO 17007KT 10SM FEW036 BKN065 OVC120 26/17 A2983 400 59 1800 170/07 RMK AO2 T02560172 $
63870K0J4 0J420161128203512711/28/16 20:35:31  5-MIN K0J4 290135Z AUTO 15008KT 10SM FEW035 BKN044 OVC120 26/17 A2983 400 59 1700 150/08 RMK AO2 T02560172 $
63870K0J4 0J420161128204012711/28/16 20:40:31  5-MIN K0J4 290140Z AUTO 17007KT 10SM FEW037 BKN044 BKN065 26/17 A2983 400 59 1700 170/07 RMK AO2 T02560172 $
63870K0J4 0J420161128204512711/28/16 20:45:31  5-MIN K0J4 290145Z AUTO 17006KT 10SM SCT042 BKN065 BKN120 26/17 A2983 400 57 1800 170/06 RMK AO2 T02610172 $
63870K0J4 0J420161128205012711/28/16 20:50:31  5-MIN K0J4 290150Z AUTO 17007KT 10SM SCT042 BKN065 BKN120 26/17 A2984 390 59 1700 170/07 RMK AO2 T02560172 $
63870K0J4 0J420161128205513411/28/16 20:55:31  5-MIN K0J4 290155Z AUTO 16007KT 10SM FEW044 SCT065 BKN120 26/17 A2983 400 59 1700 160/07 RMK AO2 SLP099 T02560172 $
63870K0J4 0J420161128210012711/28/16 21:00:31  5-MIN K0J4 290200Z AUTO 16007KT 10SM FEW044 FEW065 BKN120 26/17 A2983 400 57 1800 160/07 RMK AO2 T02610172 $
63870K0J4 0J420161128210512711/28/16 21:05:31  5-MIN K0J4 290205Z AUTO 17007KT 10SM FEW042 FEW065 BKN120 26/17 A2983 400 57 1800 170/07 RMK AO2 T02610172 $
63870K0J4 0J420161128211012011/28/16 21:10:31  5-MIN K0J4 290210Z AUTO 16005KT 10SM FEW065 SCT120 26/17 A2983 400 59 1800 160/05 RMK AO2 T02560172 $
63870K0J4 0J420161128211511311/28/16 21:15:31  5-MIN K0J4 290215Z AUTO 16006KT 10SM SCT120 26/17 A2983 400 57 1800 160/06 RMK AO2 T02610172 $
63870K0J4 0J420161128212012011/28/16 21:20:31  5-MIN K0J4 290220Z AUTO 16007KT 10SM FEW060 BKN120 26/17 A2983 400 57 1800 160/07 RMK AO2 T02610172 $
63870K0J4 0J420161128212512011/28/16 21:25:31  5-MIN K0J4 290225Z AUTO 16007KT 10SM FEW060 BKN120 26/17 A2982 410 57 1800 160/07 RMK AO2 T02610172 $
63870K0J4 0J420161128213012011/28/16 21:30:31  5-MIN K0J4 290230Z AUTO 17007KT 10SM FEW047 SCT120 26/17 A2982 410 57 1800 170/07 RMK AO2 T02610172 $
63870K0J4 0J420161128213512011/28/16 21:35:31  5-MIN K0J4 290235Z AUTO 16007KT 10SM FEW049 SCT120 26/17 A2982 410 57 1800 160/07 RMK AO2 T02610172 $
63870K0J4 0J420161128214012711/28/16 21:40:31  5-MIN K0J4 290240Z AUTO 16008KT 10SM FEW041 SCT049 BKN120 26/17 A2981 420 57 1800 160/08 RMK AO2 T02610172 $
63870K0J4 0J420161128214512711/28/16 21:45:31  5-MIN K0J4 290245Z AUTO 17008KT 10SM FEW042 SCT049 SCT120 26/17 A2981 410 57 1800 170/08 RMK AO2 T02610172 $
63870K0J4 0J420161128215012711/28/16 21:50:31  5-MIN K0J4 290250Z AUTO 17009KT 10SM FEW028 SCT049 SCT110 26/17 A2981 420 57 1800 170/09 RMK AO2 T02610172 $
63870K0J4 0J420161128215513411/28/16 21:55:31  5-MIN K0J4 290255Z AUTO 16010KT 10SM FEW028 SCT049 SCT060 26/17 A2980 430 57 1800 160/10 RMK AO2 SLP086 T02610172 $
63870K0J4 0J420161128220012711/28/16 22:00:31  5-MIN K0J4 290300Z AUTO 17010KT 10SM FEW030 SCT049 BKN060 26/17 A2979 430 57 1900 170/10 RMK AO2 T02610172 $
63870K0J4 0J420161128220512711/28/16 22:05:31  5-MIN K0J4 290305Z AUTO 17011KT 10SM FEW030 FEW041 SCT049 26/17 A2979 440 57 1900 170/11 RMK AO2 T02610172 $
63870K0J4 0J420161128221012711/28/16 22:10:31  5-MIN K0J4 290310Z AUTO 17010KT 10SM FEW029 FEW036 SCT049 26/17 A2978 440 57 1900 170/10 RMK AO2 T02610172 $
63870K0J4 0J420161128221512011/28/16 22:15:31  5-MIN K0J4 290315Z AUTO 17009KT 10SM FEW034 SCT049 26/17 A2979 440 57 1900 170/09 RMK AO2 T02610172 $
63870K0J4 0J420161128222012611/28/16 22:20:31  5-MIN K0J4 290320Z AUTO 17010G16KT 10SM FEW034 SCT049 26/17 A2979 440 57 1900 170/10G16 RMK AO2 T02610172 $
63870K0J4 0J420161128222511911/28/16 22:25:31  5-MIN K0J4 290325Z AUTO 17008G16KT 10SM FEW034 26/17 A2979 440 57 1900 170/08G16 RMK AO2 T02610172 $
63870K0J4 0J420161128223011911/28/16 22:30:31  5-MIN K0J4 290330Z AUTO 17012G18KT 10SM SCT034 26/17 A2978 440 57 1900 170/12G18 RMK AO2 T02610172 $
63870K0J4 0J420161128223511911/28/16 22:35:31  5-MIN K0J4 290335Z AUTO 17009G18KT 10SM SCT034 26/17 A2978 440 57 1900 170/09G18 RMK AO2 T02610172 $
63870K0J4 0J420161128224012011/28/16 22:40:31  5-MIN K0J4 290340Z AUTO 18012KT 10SM BKN032 BKN043 26/17 A2978 440 57 1900 180/12 RMK AO2 T02610172 $
63870K0J4 0J420161128224512711/28/16 22:45:31  5-MIN K0J4 290345Z AUTO 18009KT 10SM FEW026 SCT032 BKN039 26/17 A2979 440 57 1900 180/09 RMK AO2 T02610172 $
63870K0J4 0J420161128225012011/28/16 22:50:31  5-MIN K0J4 290350Z AUTO 18009KT 10SM SCT026 BKN035 26/17 A2979 440 57 1900 180/09 RMK AO2 T02610172 $
63870K0J4 0J420161128225512711/28/16 22:55:31  5-MIN K0J4 290355Z AUTO 18011KT 10SM SCT026 BKN035 26/17 A2979 440 57 1900 180/11 RMK AO2 SLP082 T02610172 $
63870K0J4 0J420161128230012011/28/16 23:00:31  5-MIN K0J4 290400Z AUTO 18008KT 10SM BKN024 OVC035 27/17 A2979 440 54 2000 180/08 RMK AO2 T02720172 $
63870K0J4 0J420161128230512011/28/16 23:05:31  5-MIN K0J4 290405Z AUTO 19008KT 10SM BKN024 OVC036 27/17 A2979 440 54 2000 190/08 RMK AO2 T02720172 $
63870K0J4 0J420161128231012011/28/16 23:10:31  5-MIN K0J4 290410Z AUTO 19009KT 10SM BKN024 OVC038 27/17 A2979 440 54 2000 190/09 RMK AO2 T02720172 $
63870K0J4 0J420161128231512611/28/16 23:15:31  5-MIN K0J4 290415Z AUTO 19013G19KT 10SM BKN024 OVC029 28/17 A2979 440 52 2100 190/13G19 RMK AO2 T02780172 $
63870K0J4 0J420161128232012611/28/16 23:20:31  5-MIN K0J4 290420Z AUTO 19013G19KT 10SM BKN022 OVC030 28/17 A2979 440 52 2100 190/13G19 RMK AO2 T02780172 $
63870K0J4 0J420161128232513311/28/16 23:25:31  5-MIN K0J4 290425Z AUTO 19014G21KT 10SM BKN022 BKN028 OVC034 28/17 A2978 440 52 2100 190/14G21 RMK AO2 T02780172 $
63870K0J4 0J420161128233012611/28/16 23:30:31  5-MIN K0J4 290430Z AUTO 19014G21KT 10SM BKN022 OVC030 28/17 A2978 440 52 2100 190/14G21 RMK AO2 T02780172 $
63870K0J4 0J420161128233512611/28/16 23:35:31  5-MIN K0J4 290435Z AUTO 19014G22KT 10SM BKN022 OVC030 28/18 A2979 440 54 2100 190/14G22 RMK AO2 T02780178 $
63870K0J4 0J420161128234013311/28/16 23:40:31  5-MIN K0J4 290440Z AUTO 19015G22KT 10SM BKN022 BKN028 OVC033 28/18 A2978 440 54 2100 190/15G22 RMK AO2 T02780178 $
63870K0J4 0J420161128234512611/28/16 23:45:31  5-MIN K0J4 290445Z AUTO 19015G23KT 10SM BKN022 OVC031 27/18 A2978 440 56 2000 190/15G23 RMK AO2 T02720178 $
63870K0J4 0J420161128235012611/28/16 23:50:31  5-MIN K0J4 290450Z AUTO 19016G24KT 10SM BKN022 OVC031 27/18 A2978 450 56 2000 190/16G24 RMK AO2 T02720178 $
63870K0J4 0J420161128235514311/28/16 23:55:31  5-MIN K0J4 290455Z AUTO 19015G24KT 10SM BKN023 OVC031 27/18 A2978 450 56 2000 190/15G24 RMK AO2 SLP080 T02720178 403000089 $
63870K0J4 0J420161129000012611/29/16 00:00:31  5-MIN K0J4 290500Z AUTO 19015G29KT 10SM BKN023 OVC031 23/18 A2978 440 73 1500 190/15G29 RMK AO2 T02280178 $
63870K0J4 0J420161129000515111/29/16 00:05:31  5-MIN K0J4 290505Z AUTO 19016G30KT 10SM BKN023 BKN031 OVC090 22/18 A2978 440 75 1400 190/16G30 RMK AO2 PK WND 18030/0502 T02220178 $
63870K0J4 0J420161129001015111/29/16 00:10:31  5-MIN K0J4 290510Z AUTO 20017G30KT 10SM BKN023 BKN031 OVC090 23/18 A2979 440 70 1500 200/17G30 RMK AO2 PK WND 18030/0502 T02330178 $
63870K0J4 0J420161129001515111/29/16 00:15:31  5-MIN K0J4 290515Z AUTO 19014G23KT 10SM BKN023 BKN031 OVC090 23/18 A2979 440 73 1500 190/14G23 RMK AO2 PK WND 18030/0502 T02280178 $
63870K0J4 0J420161129002015111/29/16 00:20:31  5-MIN K0J4 290520Z AUTO 20015G23KT 10SM BKN023 BKN065 OVC090 22/18 A2979 440 75 1400 200/15G23 RMK AO2 PK WND 18030/0502 T02220178 $
63870K0J4 0J420161129002515111/29/16 00:25:31  5-MIN K0J4 290525Z AUTO 20017G21KT 10SM BKN023 BKN065 OVC090 24/18 A2979 440 66 1700 200/17G21 RMK AO2 PK WND 18030/0502 T02440178 $
63870K0J4 0J420161129003015111/29/16 00:30:31  5-MIN K0J4 290530Z AUTO 19014G21KT 10SM BKN023 BKN065 OVC090 26/18 A2979 440 61 1800 190/14G21 RMK AO2 PK WND 18030/0502 T02560178 $
63870K0J4 0J420161129003515111/29/16 00:35:31  5-MIN K0J4 290535Z AUTO 20014G22KT 10SM BKN023 BKN028 OVC090 27/18 A2979 440 57 1900 200/14G22 RMK AO2 PK WND 18030/0502 T02670178 $
63870K0J4 0J420161129004015111/29/16 00:40:31  5-MIN K0J4 290540Z AUTO 19013G23KT 10SM BKN023 BKN028 OVC065 27/18 A2978 440 56 2000 190/13G23 RMK AO2 PK WND 18030/0502 T02720178 $
63870K0J4 0J420161129004515111/29/16 00:45:31  5-MIN K0J4 290545Z AUTO 19016G23KT 10SM BKN023 BKN029 OVC065 27/18 A2978 450 56 2000 190/16G23 RMK AO2 PK WND 18030/0502 T02720178 $
63870K0J4 0J420161129005015111/29/16 00:50:31  5-MIN K0J4 290550Z AUTO 20017G25KT 10SM SCT023 BKN029 OVC065 27/18 A2978 450 56 2000 200/17G25 RMK AO2 PK WND 18030/0502 T02720178 $
63870K0J4 0J420161129005517611/29/16 00:55:31  5-MIN K0J4 290555Z AUTO 19013G25KT 10SM SCT023 BKN027 OVC065 27/18 A2978 450 56 2000 190/13G25 RMK AO2 PK WND 18030/0502 SLP078 T02720178 10278 20200 58014 $
63870K0J4 0J420161129010012611/29/16 01:00:31  5-MIN K0J4 290600Z AUTO 19013G21KT 10SM SCT023 OVC029 28/18 A2977 450 54 2100 190/13G21 RMK AO2 T02780178 $
63870K0J4 0J420161129010513311/29/16 01:05:31  5-MIN K0J4 290605Z AUTO 19015G21KT 10SM BKN023 BKN029 OVC100 28/18 A2977 450 54 2100 190/15G21 RMK AO2 T02780178 $
63870K0J4 0J420161129011015111/29/16 01:10:31  5-MIN K0J4 290610Z AUTO 20019G26KT 10SM SCT023 BKN028 OVC033 27/18 A2977 450 56 2000 200/19G26 RMK AO2 PK WND 20026/0610 T02720178 $
63870K0J4 0J420161129011514411/29/16 01:15:31  5-MIN K0J4 290615Z AUTO 19018G26KT 10SM BKN025 OVC029 23/18 A2977 450 73 1500 190/18G26 RMK AO2 PK WND 20026/0610 T02280178 $
63870K0J4 0J420161129012015111/29/16 01:20:31  5-MIN K0J4 290620Z AUTO 20017G26KT 10SM BKN022 BKN027 OVC110 22/18 A2977 460 75 1400 200/17G26 RMK AO2 PK WND 20026/0610 T02220178 $
63870K0J4 0J420161129012515111/29/16 01:25:31  5-MIN K0J4 290625Z AUTO 19016G25KT 10SM BKN022 BKN028 OVC110 22/18 A2977 450 75 1400 190/16G25 RMK AO2 PK WND 20026/0610 T02220178 $
63870K0J4 0J420161129013015111/29/16 01:30:31  5-MIN K0J4 290630Z AUTO 19014G22KT 10SM SCT023 BKN028 OVC110 22/18 A2978 450 75 1400 190/14G22 RMK AO2 PK WND 20026/0610 T02220178 $
63870K0J4 0J420161129013515111/29/16 01:35:31  5-MIN K0J4 290635Z AUTO 20016G25KT 10SM SCT023 BKN028 OVC060 22/18 A2978 450 75 1400 200/16G25 RMK AO2 PK WND 20026/0610 T02220178 $
63870K0J4 0J420161129014014411/29/16 01:40:31  5-MIN K0J4 290640Z AUTO 19015G25KT 10SM BKN025 OVC060 22/18 A2977 450 75 1400 190/15G25 RMK AO2 PK WND 20026/0610 T02220178 $
63870K0J4 0J420161129014514411/29/16 01:45:31  5-MIN K0J4 290645Z AUTO 19015G25KT 10SM BKN025 OVC060 23/18 A2978 450 70 1600 190/15G25 RMK AO2 PK WND 20026/0610 T02330178 $
63870K0J4 0J420161129015014411/29/16 01:50:31  5-MIN K0J4 290650Z AUTO 20013G22KT 10SM SCT025 OVC060 25/18 A2978 450 64 1700 200/13G22 RMK AO2 PK WND 20026/0610 T02500178 $
63870K0J4 0J420161129015515111/29/16 01:55:31  5-MIN K0J4 290655Z AUTO 19016G23KT 10SM SCT025 OVC060 27/18 A2978 450 57 1900 190/16G23 RMK AO2 PK WND 20026/0610 SLP078 T02670178 $
63870K0J4 0J420161129020012611/29/16 02:00:31  5-MIN K0J4 290700Z AUTO 19015G24KT 10SM SCT024 OVC060 27/18 A2978 450 56 2000 190/15G24 RMK AO2 T02720178 $
63870K0J4 0J420161129020512611/29/16 02:05:31  5-MIN K0J4 290705Z AUTO 19015G24KT 10SM BKN024 OVC060 27/18 A2978 450 56 2000 190/15G24 RMK AO2 T02720178 $
63870K0J4 0J420161129021012611/29/16 02:10:31  5-MIN K0J4 290710Z AUTO 20014G25KT 10SM BKN024 OVC060 27/18 A2978 450 56 2000 200/14G25 RMK AO2 T02720178 $
63870K0J4 0J420161129021513311/29/16 02:15:31  5-MIN K0J4 290715Z AUTO 19013G25KT 10SM BKN024 BKN028 OVC060 28/18 A2978 450 54 2100 190/13G25 RMK AO2 T02780178 $
63870K0J4 0J420161129022013311/29/16 02:20:31  5-MIN K0J4 290720Z AUTO 20015G24KT 10SM SCT022 BKN027 OVC055 28/18 A2977 450 54 2100 200/15G24 RMK AO2 T02780178 $
63870K0J4 0J420161129022515111/29/16 02:25:31  5-MIN K0J4 290725Z AUTO 20016G26KT 10SM SCT022 SCT027 OVC060 28/18 A2977 450 54 2100 200/16G26 RMK AO2 PK WND 21026/0721 T02780178 $
63870K0J4 0J420161129023014411/29/16 02:30:31  5-MIN K0J4 290730Z AUTO 20014G26KT 10SM BKN022 OVC060 27/18 A2977 450 56 2000 200/14G26 RMK AO2 PK WND 21026/0721 T02720178 $
63870K0J4 0J420161129023515111/29/16 02:35:31  5-MIN K0J4 290735Z AUTO 19015G23KT 10SM BKN022 BKN055 OVC075 28/18 A2977 450 54 2100 190/15G23 RMK AO2 PK WND 21026/0721 T02780178 $
63870K0J4 0J420161129024015111/29/16 02:40:31  5-MIN K0J4 290740Z AUTO 20016G24KT 10SM SCT023 BKN060 OVC075 28/18 A2978 450 54 2100 200/16G24 RMK AO2 PK WND 21026/0721 T02780178 $
63870K0J4 0J420161129024515111/29/16 02:45:31  5-MIN K0J4 290745Z AUTO 19015G24KT 10SM FEW021 BKN060 OVC070 28/18 A2978 450 54 2100 190/15G24 RMK AO2 PK WND 21026/0721 T02780178 $
63870K0J4 0J420161129025015111/29/16 02:50:31  5-MIN K0J4 290750Z AUTO 20013G22KT 10SM SCT021 BKN065 OVC075 28/18 A2977 450 54 2100 200/13G22 RMK AO2 PK WND 21026/0721 T02780178 $
63870K0J4 0J420161129025514111/29/16 02:55:31  5-MIN K0J4 290755Z AUTO 20013G21KT 10SM SCT022 BKN028 OVC065 28/18 A2977 450 54 2100 200/13G21 RMK AO2 PK WND 21026/0721 $
63870K0J4 0J420161129030013311/29/16 03:00:31  5-MIN K0J4 290800Z AUTO 20013G22KT 10SM BKN022 BKN030 OVC065 28/18 A2977 450 54 2100 200/13G22 RMK AO2 T02780178 $
63870K0J4 0J420161129030513311/29/16 03:05:31  5-MIN K0J4 290805Z AUTO 20015G22KT 10SM BKN022 BKN030 OVC060 28/18 A2977 460 56 2100 200/15G22 RMK AO2 T02780183 $
63870K0J4 0J420161129031013311/29/16 03:10:31  5-MIN K0J4 290810Z AUTO 20015G22KT 10SM SCT022 BKN026 OVC060 28/18 A2977 460 56 2100 200/15G22 RMK AO2 T02780183 $
63870K0J4 0J420161129031513311/29/16 03:15:31  5-MIN K0J4 290815Z AUTO 20018G23KT 10SM BKN022 BKN030 OVC055 28/18 A2977 460 56 2100 200/18G23 RMK AO2 T02780183 $
63870K0J4 0J420161129032013311/29/16 03:20:31  5-MIN K0J4 290820Z AUTO 20014G23KT 10SM BKN023 BKN030 OVC055 28/18 A2977 460 56 2100 200/14G23 RMK AO2 T02780183 $
63870K0J4 0J420161129032513311/29/16 03:25:31  5-MIN K0J4 290825Z AUTO 20017G24KT 10SM BKN021 BKN026 OVC055 28/18 A2976 460 56 2100 200/17G24 RMK AO2 T02780183 $
63870K0J4 0J420161129033013311/29/16 03:30:31  5-MIN K0J4 290830Z AUTO 20018G24KT 10SM BKN023 BKN032 BKN055 28/18 A2976 460 56 2100 200/18G24 RMK AO2 T02780183 $
63870K0J4 0J420161129033513311/29/16 03:35:31  5-MIN K0J4 290835Z AUTO 20013G24KT 10SM BKN023 BKN031 BKN055 27/18 A2977 460 58 2000 200/13G24 RMK AO2 T02720183 $
63870K0J4 0J420161129034013311/29/16 03:40:31  5-MIN K0J4 290840Z AUTO 20015G22KT 10SM BKN021 BKN026 BKN031 28/18 A2977 460 56 2100 200/15G22 RMK AO2 T02780183 $
63870K0J4 0J420161129034512611/29/16 03:45:31  5-MIN K0J4 290845Z AUTO 20016G25KT 10SM BKN023 BKN031 28/18 A2977 460 56 2100 200/16G25 RMK AO2 T02780183 $
63870K0J4 0J420161129035012611/29/16 03:50:31  5-MIN K0J4 290850Z AUTO 20018G25KT 10SM BKN023 BKN030 28/18 A2977 460 56 2100 200/18G25 RMK AO2 T02780183 $
63870K0J4 0J420161129035513911/29/16 03:55:31  5-MIN K0J4 290855Z AUTO 20014G25KT 10SM BKN023 BKN030 27/18 A2977 460 58 2000 200/14G25 RMK AO2 SLP076 T02720183 57007 $
63870K0J4 0J420161129040011911/29/16 04:00:31  5-MIN K0J4 290900Z AUTO 21015G25KT 10SM BKN023 28/18 A2977 450 56 2100 210/15G25 RMK AO2 T02780183 $
63870K0J4 0J420161129040512611/29/16 04:05:31  5-MIN K0J4 290905Z AUTO 20017G24KT 10SM BKN021 BKN070 28/18 A2977 450 56 2100 200/17G24 RMK AO2 T02780183 $
63870K0J4 0J420161129041013311/29/16 04:10:31  5-MIN K0J4 290910Z AUTO 19018G25KT 10SM BKN021 BKN025 OVC070 28/18 A2977 450 56 2100 190/18G25 RMK AO2 T02780183 $
63870K0J4 0J420161129041513311/29/16 04:15:31  5-MIN K0J4 290915Z AUTO 20019G25KT 10SM BKN021 BKN025 OVC070 27/18 A2977 450 58 2000 200/19G25 RMK AO2 T02720183 $
63870K0J4 0J420161129042013311/29/16 04:20:31  5-MIN K0J4 290920Z AUTO 20016G25KT 10SM BKN019 BKN025 OVC070 27/18 A2977 450 58 2000 200/16G25 RMK AO2 T02720183 $
63870K0J4 0J420161129042513311/29/16 04:25:31  5-MIN K0J4 290925Z AUTO 20018G25KT 10SM BKN019 BKN025 OVC070 27/18 A2977 450 58 2000 200/18G25 RMK AO2 T02720183 $
63870K0J4 0J420161129043013311/29/16 04:30:31  5-MIN K0J4 290930Z AUTO 20017G23KT 10SM BKN019 BKN025 OVC070 27/18 A2977 460 58 2000 200/17G23 RMK AO2 T02720183 $
63870K0J4 0J420161129043513311/29/16 04:35:31  5-MIN K0J4 290935Z AUTO 20017G25KT 10SM BKN019 BKN025 OVC070 27/18 A2977 450 58 2000 200/17G25 RMK AO2 T02720183 $
63870K0J4 0J420161129044012611/29/16 04:40:31  5-MIN K0J4 290940Z AUTO 20015G25KT 10SM BKN019 OVC070 27/18 A2977 450 58 2000 200/15G25 RMK AO2 T02720183 $
63870K0J4 0J420161129044512611/29/16 04:45:31  5-MIN K0J4 290945Z AUTO 20021G25KT 10SM BKN019 OVC070 28/18 A2978 450 56 2100 200/21G25 RMK AO2 T02780183 $
63870K0J4 0J420161129045012611/29/16 04:50:31  5-MIN K0J4 290950Z AUTO 20016G25KT 10SM BKN019 OVC070 27/18 A2978 450 58 2000 200/16G25 RMK AO2 T02720183 $
63870K0J4 0J420161129045514011/29/16 04:55:31  5-MIN K0J4 290955Z AUTO 20015G23KT 10SM BKN019 BKN025 OVC070 27/18 A2978 450 58 2000 200/15G23 RMK AO2 SLP079 T02720183 $
63870K0J4 0J420161129050013311/29/16 05:00:31  5-MIN K0J4 291000Z AUTO 20015G23KT 10SM BKN019 BKN025 OVC070 28/18 A2978 440 56 2100 200/15G23 RMK AO2 T02780183 $
63870K0J4 0J420161129050513311/29/16 05:05:31  5-MIN K0J4 291005Z AUTO 20018G24KT 10SM BKN019 BKN025 OVC070 28/18 A2978 440 56 2100 200/18G24 RMK AO2 T02780183 $
63870K0J4 0J420161129051013311/29/16 05:10:31  5-MIN K0J4 291010Z AUTO 20013G24KT 10SM BKN019 BKN025 OVC070 28/19 A2978 440 58 2100 200/13G24 RMK AO2 T02780189 $
63870K0J4 0J420161129051512611/29/16 05:15:31  5-MIN K0J4 291015Z AUTO 20015G24KT 10SM BKN020 OVC070 28/19 A2979 440 58 2100 200/15G24 RMK AO2 T02780189 $
63870K0J4 0J420161129052012611/29/16 05:20:31  5-MIN K0J4 291020Z AUTO 20017G24KT 10SM BKN020 OVC025 28/18 A2979 440 56 2100 200/17G24 RMK AO2 T02780183 $
63870K0J4 0J420161129052513311/29/16 05:25:31  5-MIN K0J4 291025Z AUTO 20016G23KT 10SM BKN020 BKN025 OVC070 28/18 A2979 440 56 2000 200/16G23 RMK AO2 T02780183 $
63870K0J4 0J420161129053013311/29/16 05:30:31  5-MIN K0J4 291030Z AUTO 21015G21KT 10SM BKN020 BKN025 OVC070 28/18 A2979 430 56 2000 210/15G21 RMK AO2 T02780183 $
63870K0J4 0J420161129053512611/29/16 05:35:31  5-MIN K0J4 291035Z AUTO 21014G22KT 10SM BKN020 OVC070 28/19 A2980 430 58 2000 210/14G22 RMK AO2 T02780189 $
63870K0J4 0J420161129054013311/29/16 05:40:31  5-MIN K0J4 291040Z AUTO 20015G22KT 10SM BKN020 BKN050 OVC070 28/19 A2979 430 58 2000 200/15G22 RMK AO2 T02780189 $
63870K0J4 0J420161129054512711/29/16 05:45:31  5-MIN K0J4 291045Z AUTO 20014KT 10SM BKN020 BKN050 OVC070 28/19 A2979 430 58 2000 200/14 RMK AO2 T02780189 $
63870K0J4 0J420161129055012711/29/16 05:50:31  5-MIN K0J4 291050Z AUTO 21015KT 10SM BKN020 BKN050 OVC070 28/19 A2980 430 58 2000 210/15 RMK AO2 T02780189 $
63870K0J4 0J420161129055514011/29/16 05:55:31  5-MIN K0J4 291055Z AUTO 20014G25KT 10SM BKN020 BKN050 OVC070 28/19 A2980 430 58 2000 200/14G25 RMK AO2 SLP085 T02780189 $
63870K0J4 0J420161129060013311/29/16 06:00:31  5-MIN K0J4 291100Z AUTO 20013G25KT 10SM BKN020 BKN050 OVC075 28/19 A2979 440 58 2000 200/13G25 RMK AO2 T02780189 $
63870K0J4 0J420161129060513311/29/16 06:05:31  5-MIN K0J4 291105Z AUTO 20015G22KT 10SM SCT020 BKN050 OVC075 28/19 A2979 440 58 2000 200/15G22 RMK AO2 T02780189 $
63870K0J4 0J420161129061013311/29/16 06:10:31  5-MIN K0J4 291110Z AUTO 21018G22KT 10SM SCT020 BKN050 OVC100 28/19 A2980 430 58 2000 210/18G22 RMK AO2 T02780189 $
63870K0J4 0J420161129061513311/29/16 06:15:31  5-MIN K0J4 291115Z AUTO 20016G23KT 10SM FEW020 SCT050 OVC075 28/19 A2980 430 58 2000 200/16G23 RMK AO2 T02780189 $
63870K0J4 0J420161129062013311/29/16 06:20:31  5-MIN K0J4 291120Z AUTO 21016G23KT 10SM FEW020 BKN050 OVC075 28/19 A2980 420 58 2000 210/16G23 RMK AO2 T02780189 $
63870K0J4 0J420161129062512611/29/16 06:25:31  5-MIN K0J4 291125Z AUTO 21014G23KT 10SM SCT050 OVC075 28/19 A2981 420 58 2000 210/14G23 RMK AO2 T02780189 $
63870K0J4 0J420161129063012711/29/16 06:30:31  5-MIN K0J4 291130Z AUTO 20015KT 10SM FEW019 BKN075 OVC100 28/19 A2980 430 58 2000 200/15 RMK AO2 T02780189 $
63870K0J4 0J420161129063512711/29/16 06:35:31  5-MIN K0J4 291135Z AUTO 20016KT 10SM FEW019 SCT050 BKN075 28/19 A2981 420 58 2000 200/16 RMK AO2 T02780189 $
63870K0J4 0J420161129064013311/29/16 06:40:31  5-MIN K0J4 291140Z AUTO 20014G23KT 10SM FEW019 SCT050 BKN075 28/19 A2981 420 58 2000 200/14G23 RMK AO2 T02780189 $
63870K0J4 0J420161129064513311/29/16 06:45:31  5-MIN K0J4 291145Z AUTO 21016G23KT 10SM FEW019 SCT047 BKN055 28/19 A2981 420 58 2000 210/16G23 RMK AO2 T02780189 $
63870K0J4 0J420161129065013311/29/16 06:50:31  5-MIN K0J4 291150Z AUTO 20015G23KT 10SM FEW019 SCT048 BKN075 28/19 A2981 420 58 2000 200/15G23 RMK AO2 T02780189 $
63870K0J4 0J420161129065515811/29/16 06:55:31  5-MIN K0J4 291155Z AUTO 20016G23KT 10SM FEW019 SCT065 BKN075 28/19 A2981 420 58 2000 200/16G23 RMK AO2 SLP089 T02780189 10278 20222 58001 $
63870K0J4 0J420161129070013311/29/16 07:00:31  5-MIN K0J4 291200Z AUTO 20012G23KT 10SM FEW019 BKN065 BKN120 28/19 A2981 420 58 2000 200/12G23 RMK AO2 T02780189 $
63870K0J4 0J420161129070513311/29/16 07:05:31  5-MIN K0J4 291205Z AUTO 20016G22KT 10SM FEW019 SCT060 BKN120 28/19 A2981 420 58 2000 200/16G22 RMK AO2 T02780189 $
63870K0J4 0J420161129071013311/29/16 07:10:31  5-MIN K0J4 291210Z AUTO 20013G22KT 10SM FEW019 SCT060 BKN120 28/19 A2981 410 58 2000 200/13G22 RMK AO2 T02780189 $
63870K0J4 0J420161129071513311/29/16 07:15:31  5-MIN K0J4 291215Z AUTO 20013G22KT 10SM FEW049 SCT060 BKN120 28/19 A2982 410 58 2000 200/13G22 RMK AO2 T02780189 $
63870K0J4 0J420161129072013311/29/16 07:20:31  5-MIN K0J4 291220Z AUTO 20013G22KT 10SM SCT047 BKN060 BKN080 28/19 A2982 410 58 2000 200/13G22 RMK AO2 T02780189 $
63870K0J4 0J420161129072512011/29/16 07:25:31  5-MIN K0J4 291225Z AUTO 20012KT 10SM FEW018 BKN047 28/19 A2982 410 56 2100 200/12 RMK AO2 T02830189 $
63870K0J4 0J420161129073012011/29/16 07:30:31  5-MIN K0J4 291230Z AUTO 20012KT 10SM FEW018 BKN047 28/19 A2982 400 56 2100 200/12 RMK AO2 T02830189 $
63870K0J4 0J420161129073512711/29/16 07:35:31  5-MIN K0J4 291235Z AUTO 20011KT 10SM FEW018 BKN047 OVC080 28/19 A2983 400 56 2100 200/11 RMK AO2 T02830189 $
63870K0J4 0J420161129074013311/29/16 07:40:31  5-MIN K0J4 291240Z AUTO 20014G19KT 10SM FEW018 BKN048 OVC060 28/19 A2983 400 56 2100 200/14G19 RMK AO2 T02830189 $
63870K0J4 0J420161129074514911/29/16 07:45:31  5-MIN K0J4 291245Z AUTO 20012G19KT 10SM -RA FEW018 BKN048 OVC060 28/19 A2983 400 58 2100 200/12G19 RMK AO2 RAB45 P0000 T02830194 $
63870K0J4 0J420161129075014911/29/16 07:50:31  5-MIN K0J4 291250Z AUTO 20010G21KT 10SM -RA FEW018 BKN048 OVC065 28/19 A2983 400 58 2100 200/10G21 RMK AO2 RAB45 P0000 T02830194 $
63870K0J4 0J420161129075515611/29/16 07:55:31  5-MIN K0J4 291255Z AUTO 20013G21KT 10SM -RA FEW017 BKN048 OVC065 28/19 A2983 400 58 2100 200/13G21 RMK AO2 RAB45 SLP098 P0000 T02830194 $
63870K0J4 0J420161129080012711/29/16 08:00:31  5-MIN K0J4 291300Z AUTO 20013KT 10SM FEW017 BKN049 OVC060 28/19 A2984 390 58 2100 200/13 RMK AO2 T02830194 $
63870K0J4 0J420161129080511811/29/16 08:05:31  5-MIN K0J4 291305Z AUTO 21013KT 10SM FEW017 OVC049 28/19 A2984 390 58 2100 210/13 RMK AO2 T02830194
63870K0J4 0J420161129081012011/29/16 08:10:31  5-MIN K0J4 291310Z AUTO 20012KT 10SM FEW017 OVC049 28/19 A2984 390 58 2000 200/12 RMK AO2 T02830194 $
63870K0J4 0J420161129081512911/29/16 08:15:31  5-MIN K0J4 291315Z AUTO 20012KT 10SM -RA OVC047 28/19 A2984 390 58 2000 200/12 RMK AO2 RAB14 P0000 T02830194 $
63870K0J4 0J420161129082014311/29/16 08:20:31  5-MIN K0J4 291320Z AUTO 20011KT 10SM -RA FEW018 BKN047 OVC110 28/20 A2985 390 60 2000 200/11 RMK AO2 RAB14 P0000 T02830200 $
63870K0J4 0J420161129082514211/29/16 08:25:31  5-MIN K0J4 291325Z AUTO 19012KT 8SM -RA FEW018 BKN048 OVC100 28/20 A2984 390 60 2000 190/12 RMK AO2 RAB14 P0000 T02830200 $
63870K0J4 0J420161129083013511/29/16 08:30:31  5-MIN K0J4 291330Z AUTO 20013KT 8SM -RA SCT048 OVC095 28/20 A2985 380 60 2000 200/13 RMK AO2 RAB14 P0000 T02830200 $
63870K0J4 0J420161129083514811/29/16 08:35:31  5-MIN K0J4 291335Z AUTO 19008G17KT 7SM -RA SCT046 SCT075 OVC090 28/20 A2985 380 60 2000 190/08G17 RMK AO2 RAB14 P0000 T02830200 $
63870K0J4 0J420161129084014811/29/16 08:40:31  5-MIN K0J4 291340Z AUTO 20009G17KT 7SM -RA SCT046 BKN075 OVC090 28/20 A2985 380 62 2000 200/09G17 RMK AO2 RAB14 P0000 T02780200 $
63870K0J4 0J420161129084514311/29/16 08:45:31  5-MIN K0J4 291345Z AUTO 20008KT 10SM -RA BKN046 BKN075 OVC095 28/20 A2986 380 60 2000 200/08 RMK AO2 RAB14 P0000 T02830200 $
63870K0J4 0J420161129085013511/29/16 08:50:31  5-MIN K0J4 291350Z AUTO 19008KT 10SM BKN048 OVC090 28/20 A2985 380 60 2000 190/08 RMK AO2 RAB14E46 P0000 T02830200 $
63870K0J4 0J420161129085514211/29/16 08:55:31  5-MIN K0J4 291355Z AUTO 19010KT 10SM BKN048 OVC085 29/20 A2985 380 58 2100 190/10 RMK AO2 RAB14E46 SLP105 P0000 T02890200 $
63870K0J4 0J420161129090012011/29/16 09:00:31  5-MIN K0J4 291400Z AUTO 19010KT 10SM BKN048 OVC080 29/20 A2986 380 58 2100 190/10 RMK AO2 T02890200 $
63870K0J4 0J420161129090511311/29/16 09:05:31  5-MIN K0J4 291405Z AUTO 19011KT 10SM OVC048 29/20 A2986 380 58 2100 190/11 RMK AO2 T02890200 $
63870K0J4 0J420161129091012011/29/16 09:10:31  5-MIN K0J4 291410Z AUTO 19009KT 10SM BKN048 BKN060 29/20 A2986 380 56 2200 190/09 RMK AO2 T02940200 $
63870K0J4 0J420161129091512011/29/16 09:15:31  5-MIN K0J4 291415Z AUTO 20010KT 10SM BKN048 BKN060 29/20 A2986 370 56 2200 200/10 RMK AO2 T02940200 $
63870K0J4 0J420161129092012611/29/16 09:20:31  5-MIN K0J4 291420Z AUTO 19013G17KT 10SM BKN046 OVC060 29/20 A2986 370 56 2200 190/13G17 RMK AO2 T02940200 $
63870K0J4 0J420161129092512011/29/16 09:25:31  5-MIN K0J4 291425Z AUTO 19012KT 10SM BKN046 OVC055 29/20 A2986 380 56 2200 190/12 RMK AO2 T02940200 $
63870K0J4 0J420161129093012011/29/16 09:30:31  5-MIN K0J4 291430Z AUTO 19012KT 10SM BKN046 OVC055 29/19 A2986 370 54 2200 190/12 RMK AO2 T02940194 $
63870K0J4 0J420161129093512011/29/16 09:35:31  5-MIN K0J4 291435Z AUTO 19009KT 10SM BKN046 OVC055 29/19 A2986 370 54 2200 190/09 RMK AO2 T02940194 $
63870K0J4 0J420161129094011911/29/16 09:40:31  5-MIN K0J4 291440Z AUTO 19011G18KT 10SM OVC045 29/19 A2986 370 54 2200 190/11G18 RMK AO2 T02940194 $
63870K0J4 0J420161129094512011/29/16 09:45:31  5-MIN K0J4 291445Z AUTO 20011KT 10SM FEW018 OVC045 29/19 A2986 370 54 2100 200/11 RMK AO2 T02940194 $
63870K0J4 0J420161129095012011/29/16 09:50:31  5-MIN K0J4 291450Z AUTO 20012KT 10SM FEW018 OVC045 29/19 A2987 370 54 2100 200/12 RMK AO2 T02940194 $
63870K0J4 0J420161129095514511/29/16 09:55:31  5-MIN K0J4 291455Z AUTO 20014G21KT 10SM FEW018 OVC045 29/19 A2987 360 54 2100 200/14G21 RMK AO2 SLP110 60000 T02940194 53013 $
63870K0J4 0J420161129100012411/29/16 10:00:31  5-MIN K0J4 291500Z AUTO 20014G21KT 10SM FEW018 OVC045 29/19 A2987 360 54 2100 200/14G21 RMK AO2 T02940194
63870K0J4 0J420161129100512411/29/16 10:05:31  5-MIN K0J4 291505Z AUTO 21014G20KT 10SM SCT018 OVC045 29/19 A2988 360 54 2100 210/14G20 RMK AO2 T02940194
63870K0J4 0J420161129101012511/29/16 10:10:31  5-MIN K0J4 291510Z AUTO 20015KT 10SM SCT018 SCT024 OVC045 29/19 A2988 360 54 2100 200/15 RMK AO2 T02940194
63870K0J4 0J420161129101511811/29/16 10:15:31  5-MIN K0J4 291515Z AUTO 21012KT 10SM SCT018 OVC045 29/19 A2988 350 54 2100 210/12 RMK AO2 T02940194
63870K0J4 0J420161129102011811/29/16 10:20:31  5-MIN K0J4 291520Z AUTO 21012KT 10SM FEW018 OVC045 29/19 A2988 350 54 2100 210/12 RMK AO2 T02940194
63870K0J4 0J420161129102513111/29/16 10:25:31  5-MIN K0J4 291525Z AUTO 20013G22KT 10SM FEW018 BKN044 OVC060 29/19 A2988 350 54 2100 200/13G22 RMK AO2 T02940194
63870K0J4 0J420161129103013111/29/16 10:30:31  5-MIN K0J4 291530Z AUTO 20014G22KT 10SM SCT020 BKN044 OVC060 29/19 A2988 350 52 2100 200/14G22 RMK AO2 T02940189
63870K0J4 0J420161129103513111/29/16 10:35:31  5-MIN K0J4 291535Z AUTO 20017G21KT 10SM FEW020 BKN044 OVC060 29/19 A2988 350 52 2100 200/17G21 RMK AO2 T02940189
63870K0J4 0J420161129104013111/29/16 10:40:31  5-MIN K0J4 291540Z AUTO 20018G24KT 10SM SCT020 BKN043 OVC060 29/19 A2988 350 52 2100 200/18G24 RMK AO2 T02940189
63870K0J4 0J420161129104513111/29/16 10:45:31  5-MIN K0J4 291545Z AUTO 20014G24KT 10SM SCT020 BKN043 OVC060 29/19 A2988 350 52 2100 200/14G24 RMK AO2 T02940189
63870K0J4 0J420161129105014711/29/16 10:50:31  5-MIN K0J4 291550Z AUTO 20014G24KT 10SM -RA SCT019 BKN041 OVC060 29/19 A2989 350 54 2100 200/14G24 RMK AO2 RAB50 P0000 T02940194
63870K0J4 0J420161129105514711/29/16 10:55:31  5-MIN K0J4 291555Z AUTO 20012G24KT 10SM -RA SCT019 OVC041 29/19 A2989 350 54 2100 200/12G24 RMK AO2 RAB50 SLP116 P0000 T02940194
63870K0J4 0J420161129110013111/29/16 11:00:31  5-MIN K0J4 291600Z AUTO 19011G23KT 10SM SCT019 BKN028 OVC043 29/19 A2989 350 54 2100 190/11G23 RMK AO2 T02940194
63870K0J4 0J420161129110513111/29/16 11:05:31  5-MIN K0J4 291605Z AUTO 20014G20KT 10SM FEW019 BKN028 OVC041 30/19 A2989 350 52 2200 200/14G20 RMK AO2 T03000194
63870K0J4 0J420161129111013111/29/16 11:10:31  5-MIN K0J4 291610Z AUTO 20014G20KT 10SM SCT019 BKN028 OVC041 29/19 A2989 350 52 2100 200/14G20 RMK AO2 T02940189
63870K0J4 0J420161129111514611/29/16 11:15:31  5-MIN K0J4 291615Z AUTO 20013G20KT 8SM -RA SCT019 BKN027 OVC041 29/19 A2989 350 52 2100 200/13G20 RMK AO2 RAB14 P0000 T02940189
63870K0J4 0J420161129112014011/29/16 11:20:31  5-MIN K0J4 291620Z AUTO 20013KT 6SM -RA SCT019 BKN027 OVC043 29/19 A2989 350 56 2100 200/13 RMK AO2 RAB14 P0000 T02890194
63870K0J4 0J420161129112514011/29/16 11:25:31  5-MIN K0J4 291625Z AUTO 20012KT 7SM -RA FEW019 BKN027 OVC045 29/19 A2989 350 56 2100 200/12 RMK AO2 RAB14 P0000 T02890194
63870K0J4 0J420161129113014011/29/16 11:30:31  5-MIN K0J4 291630Z AUTO 20008KT 10SM FEW019 BKN034 OVC047 29/20 A2988 350 58 2100 200/08 RMK AO2 RAB14E30 P0000 T02890200
63870K0J4 0J420161129113514011/29/16 11:35:31  5-MIN K0J4 291635Z AUTO 20009KT 10SM FEW019 SCT026 OVC047 29/20 A2988 350 56 2100 200/09 RMK AO2 RAB14E30 P0000 T02940200
63870K0J4 0J420161129114014011/29/16 11:40:31  5-MIN K0J4 291640Z AUTO 20010KT 10SM FEW019 FEW030 OVC049 30/20 A2988 350 54 2200 200/10 RMK AO2 RAB14E30 P0000 T03000200
63870K0J4 0J420161129114514011/29/16 11:45:31  5-MIN K0J4 291645Z AUTO 20010KT 10SM FEW031 BKN049 OVC060 30/19 A2988 350 52 2200 200/10 RMK AO2 RAB14E30 P0000 T03000194
63870K0J4 0J420161129115013911/29/16 11:50:31  5-MIN K0J4 291650Z AUTO 20013G19KT 10SM BKN049 OVC060 31/19 A2988 350 49 2200 200/13G19 RMK AO2 RAB14E30 P0000 T03060189
63870K0J4 0J420161129115514611/29/16 11:55:31  5-MIN K0J4 291655Z AUTO 20011G19KT 10SM BKN047 OVC060 31/19 A2989 350 49 2200 200/11G19 RMK AO2 RAB14E30 SLP114 P0000 T03060189
63870K0J4 0J420161129120011811/29/16 12:00:31  5-MIN K0J4 291700Z AUTO 20013KT 10SM BKN047 OVC060 31/19 A2988 350 49 2300 200/13 RMK AO2 T03060189
63870K0J4 0J420161129120512511/29/16 12:05:31  5-MIN K0J4 291705Z AUTO 20012KT 10SM BKN047 BKN060 OVC075 30/19 A2988 350 51 2200 200/12 RMK AO2 T03000189
63870K0J4 0J420161129121012511/29/16 12:10:31  5-MIN K0J4 291710Z AUTO 20012KT 10SM BKN047 BKN060 OVC075 31/19 A2988 350 49 2300 200/12 RMK AO2 T03060189
63870K0J4 0J420161129121512511/29/16 12:15:31  5-MIN K0J4 291715Z AUTO 20015KT 10SM BKN045 BKN060 BKN075 31/19 A2988 350 49 2300 200/15 RMK AO2 T03060189
63870K0J4 0J420161129122013111/29/16 12:20:31  5-MIN K0J4 291720Z AUTO 20011G20KT 10SM FEW025 BKN043 BKN080 31/19 A2988 360 49 2300 200/11G20 RMK AO2 T03060189
63870K0J4 0J420161129122513111/29/16 12:25:31  5-MIN K0J4 291725Z AUTO 20015G19KT 10SM FEW025 BKN041 BKN080 31/19 A2987 360 49 2300 200/15G19 RMK AO2 T03060189
63870K0J4 0J420161129123013111/29/16 12:30:31  5-MIN K0J4 291730Z AUTO 20011G19KT 10SM FEW024 BKN041 OVC080 31/19 A2987 360 47 2300 200/11G19 RMK AO2 T03110189
63870K0J4 0J420161129123513111/29/16 12:35:31  5-MIN K0J4 291735Z AUTO 20018G21KT 10SM FEW024 BKN041 BKN080 31/19 A2987 360 47 2300 200/18G21 RMK AO2 T03110189
63870K0J4 0J420161129124013111/29/16 12:40:31  5-MIN K0J4 291740Z AUTO 20017G21KT 10SM FEW026 SCT033 BKN041 31/19 A2987 360 47 2300 200/17G21 RMK AO2 T03110189
63870K0J4 0J420161129124512511/29/16 12:45:31  5-MIN K0J4 291745Z AUTO 20015KT 10SM FEW026 SCT033 BKN041 31/19 A2987 370 47 2300 200/15 RMK AO2 T03110189
63870K0J4 0J420161129125013111/29/16 12:50:31  5-MIN K0J4 291750Z AUTO 20011G19KT 10SM FEW026 BKN038 BKN045 31/19 A2987 370 47 2300 200/11G19 RMK AO2 T03110189
63870K0J4 0J420161129125516211/29/16 12:55:31  5-MIN K0J4 291755Z AUTO 20014G20KT 10SM FEW025 BKN038 BKN045 31/19 A2986 370 47 2300 200/14G20 RMK AO2 SLP107 60000 T03110189 10311 20278 51021
63870K0J4 0J420161129130013111/29/16 13:00:31  5-MIN K0J4 291800Z AUTO 20012G20KT 10SM FEW025 BKN037 BKN045 32/19 A2986 370 46 2400 200/12G20 RMK AO2 T03170189
63870K0J4 0J420161129130513111/29/16 13:05:31  5-MIN K0J4 291805Z AUTO 19017G23KT 10SM FEW025 BKN037 OVC045 32/19 A2986 370 46 2400 190/17G23 RMK AO2 T03170189
63870K0J4 0J420161129131013111/29/16 13:10:31  5-MIN K0J4 291810Z AUTO 20016G23KT 10SM FEW026 BKN037 OVC045 31/19 A2986 370 47 2300 200/16G23 RMK AO2 T03110189
63870K0J4 0J420161129131513111/29/16 13:15:31  5-MIN K0J4 291815Z AUTO 19016G22KT 10SM FEW026 BKN038 OVC045 31/19 A2986 370 47 2300 190/16G22 RMK AO2 T03110189
63870K0J4 0J420161129132012411/29/16 13:20:31  5-MIN K0J4 291820Z AUTO 20017G22KT 10SM FEW026 OVC040 31/19 A2986 370 47 2300 200/17G22 RMK AO2 T03110189
63870K0J4 0J420161129132512411/29/16 13:25:31  5-MIN K0J4 291825Z AUTO 21018G23KT 10SM FEW026 BKN042 31/19 A2985 380 47 2300 210/18G23 RMK AO2 T03110189
63870K0J4 0J420161129133012411/29/16 13:30:31  5-MIN K0J4 291830Z AUTO 20016G23KT 10SM FEW026 OVC042 31/19 A2985 380 47 2300 200/16G23 RMK AO2 T03110189
63870K0J4 0J420161129133512511/29/16 13:35:31  5-MIN K0J4 291835Z AUTO 20016KT 10SM FEW024 SCT038 BKN046 31/19 A2985 380 47 2300 200/16 RMK AO2 T03110189
63870K0J4 0J420161129134011811/29/16 13:40:31  5-MIN K0J4 291840Z AUTO 21014KT 10SM FEW035 BKN046 32/19 A2985 380 46 2400 210/14 RMK AO2 T03170189
63870K0J4 0J420161129134512411/29/16 13:45:31  5-MIN K0J4 291845Z AUTO 20014G21KT 10SM SCT038 BKN046 32/19 A2985 380 44 2500 200/14G21 RMK AO2 T03220189
63870K0J4 0J420161129135013111/29/16 13:50:31  5-MIN K0J4 291850Z AUTO 19013G21KT 10SM FEW024 SCT032 BKN043 32/19 A2985 380 44 2500 190/13G21 RMK AO2 T03220189
63870K0J4 0J420161129135513811/29/16 13:55:31  5-MIN K0J4 291855Z AUTO 19014G20KT 10SM FEW026 SCT032 BKN039 32/18 A2985 380 43 2500 190/14G20 RMK AO2 SLP101 T03220183
63870K0J4 0J420161129140013111/29/16 14:00:31  5-MIN K0J4 291900Z AUTO 19015G20KT 10SM SCT026 BKN033 BKN042 32/19 A2985 380 46 2400 190/15G20 RMK AO2 T03170189
63870K0J4 0J420161129140513111/29/16 14:05:31  5-MIN K0J4 291905Z AUTO 19015G20KT 10SM SCT026 BKN033 OVC046 32/18 A2985 390 44 2400 190/15G20 RMK AO2 T03170183
63870K0J4 0J420161129141013111/29/16 14:10:31  5-MIN K0J4 291910Z AUTO 21014G20KT 10SM SCT026 BKN034 OVC043 32/18 A2984 390 44 2400 210/14G20 RMK AO2 T03170183
63870K0J4 0J420161129141512511/29/16 14:15:31  5-MIN K0J4 291915Z AUTO 20011KT 10SM SCT026 BKN034 OVC043 31/18 A2985 390 46 2400 200/11 RMK AO2 T03110183
63870K0J4 0J420161129142013111/29/16 14:20:31  5-MIN K0J4 291920Z AUTO 20013G19KT 10SM SCT027 BKN033 OVC049 32/18 A2984 390 44 2400 200/13G19 RMK AO2 T03170183
63870K0J4 0J420161129142513111/29/16 14:25:31  5-MIN K0J4 291925Z AUTO 19015G20KT 10SM SCT027 BKN033 OVC049 32/18 A2984 390 44 2400 190/15G20 RMK AO2 T03170183
63870K0J4 0J420161129143013111/29/16 14:30:31  5-MIN K0J4 291930Z AUTO 20019G24KT 10SM SCT029 SCT040 OVC050 32/18 A2984 390 44 2400 200/19G24 RMK AO2 T03170183
63870K0J4 0J420161129143513111/29/16 14:35:31  5-MIN K0J4 291935Z AUTO 21017G24KT 10SM FEW029 BKN050 OVC060 31/19 A2984 390 47 2400 210/17G24 RMK AO2 T03110189
63870K0J4 0J420161129144012511/29/16 14:40:31  5-MIN K0J4 291940Z AUTO 19013KT 10SM SCT029 BKN050 OVC085 31/19 A2985 390 47 2400 190/13 RMK AO2 T03110189
63870K0J4 0J420161129144513111/29/16 14:45:31  5-MIN K0J4 291945Z AUTO 20015G20KT 10SM FEW027 SCT035 OVC048 32/19 A2985 380 46 2400 200/15G20 RMK AO2 T03170189
63870K0J4 0J420161129145013111/29/16 14:50:31  5-MIN K0J4 291950Z AUTO 20016G25KT 10SM FEW027 FEW035 OVC047 31/18 A2985 380 46 2400 200/16G25 RMK AO2 T03110183
63870K0J4 0J420161129145513811/29/16 14:55:31  5-MIN K0J4 291955Z AUTO 20011G25KT 10SM FEW027 BKN047 OVC080 31/19 A2985 380 47 2400 200/11G25 RMK AO2 SLP102 T03110189
63870K0J4 0J420161129150013111/29/16 15:00:31  5-MIN K0J4 292000Z AUTO 19013G22KT 10SM FEW027 BKN043 OVC080 31/18 A2985 380 46 2400 190/13G22 RMK AO2 T03110183
63870K0J4 0J420161129150513111/29/16 15:05:31  5-MIN K0J4 292005Z AUTO 20016G22KT 10SM FEW027 BKN033 BKN045 31/18 A2985 380 46 2400 200/16G22 RMK AO2 T03110183
63870K0J4 0J420161129151014911/29/16 15:10:31  5-MIN K0J4 292010Z AUTO 19013G27KT 10SM FEW028 BKN033 BKN045 31/18 A2985 380 46 2400 190/13G27 RMK AO2 PK WND 21027/2008 T03110183
63870K0J4 0J420161129151514911/29/16 15:15:31  5-MIN K0J4 292015Z AUTO 20013G27KT 10SM SCT028 BKN036 BKN045 31/18 A2985 380 46 2300 200/13G27 RMK AO2 PK WND 21027/2008 T03110183
63870K0J4 0J420161129152014911/29/16 15:20:31  5-MIN K0J4 292020Z AUTO 20014G23KT 10SM SCT028 BKN036 BKN080 31/18 A2985 380 46 2400 200/14G23 RMK AO2 PK WND 21027/2008 T03110183
63870K0J4 0J420161129152514911/29/16 15:25:31  5-MIN K0J4 292025Z AUTO 20018G23KT 10SM SCT026 SCT034 BKN090 31/19 A2985 380 47 2400 200/18G23 RMK AO2 PK WND 21027/2008 T03110189
63870K0J4 0J420161129153016511/29/16 15:30:31  5-MIN K0J4 292030Z AUTO 20013G23KT 10SM -RA SCT029 BKN060 BKN090 31/19 A2985 380 47 2300 200/13G23 RMK AO2 PK WND 21027/2008 RAB27 P0000 T03110189
63870K0J4 0J420161129153515911/29/16 15:35:31  5-MIN K0J4 292035Z AUTO 20010KT 10SM -RA FEW029 SCT060 BKN090 31/19 A2985 380 47 2300 200/10 RMK AO2 PK WND 21027/2008 RAB27 P0000 T03110189
63870K0J4 0J420161129154016411/29/16 15:40:31  5-MIN K0J4 292040Z AUTO 20014G22KT 10SM FEW027 BKN080 BKN095 31/19 A2985 380 47 2300 200/14G22 RMK AO2 PK WND 21027/2008 RAB27E36 P0000 T03110189
63870K0J4 0J420161129154516411/29/16 15:45:31  5-MIN K0J4 292045Z AUTO 20011G22KT 10SM FEW027 SCT080 BKN090 31/19 A2985 380 47 2300 200/11G22 RMK AO2 PK WND 21027/2008 RAB27E36 P0000 T03110189
63870K0J4 0J420161129155016411/29/16 15:50:31  5-MIN K0J4 292050Z AUTO 20011G19KT 10SM FEW029 SCT080 BKN090 31/19 A2985 380 47 2300 200/11G19 RMK AO2 PK WND 21027/2008 RAB27E36 P0000 T03110189
63870K0J4 0J420161129155518311/29/16 15:55:31  5-MIN K0J4 292055Z AUTO 19015G20KT 10SM FEW060 FEW080 SCT095 31/19 A2985 380 47 2300 190/15G20 RMK AO2 PK WND 21027/2008 RAB27E36 SLP103 P0000 60000 T03110189 58003
63870K0J4 0J420161129160012411/29/16 16:00:31  5-MIN K0J4 292100Z AUTO 20015G23KT 10SM FEW075 BKN095 31/19 A2986 380 47 2300 200/15G23 RMK AO2 T03110189
63870K0J4 0J420161129160513111/29/16 16:05:31  5-MIN K0J4 292105Z AUTO 19012G23KT 10SM FEW036 FEW080 BKN095 31/19 A2986 380 49 2300 190/12G23 RMK AO2 T03060189
63870K0J4 0J420161129161012411/29/16 16:10:31  5-MIN K0J4 292110Z AUTO 19010G21KT 10SM FEW036 BKN095 31/19 A2986 370 47 2300 190/10G21 RMK AO2 T03110189
63870K0J4 0J420161129161513111/29/16 16:15:31  5-MIN K0J4 292115Z AUTO 19008G19KT 10SM FEW024 FEW033 BKN095 31/19 A2986 370 47 2300 190/08G19 RMK AO2 T03110189
63870K0J4 0J420161129162012511/29/16 16:20:31  5-MIN K0J4 292120Z AUTO 19010KT 10SM FEW024 SCT033 BKN095 31/19 A2986 370 47 2300 190/10 RMK AO2 T03110189
63870K0J4 0J420161129162512511/29/16 16:25:31  5-MIN K0J4 292125Z AUTO 18011KT 10SM SCT024 SCT029 BKN095 32/19 A2986 370 46 2400 180/11 RMK AO2 T03170189
63870K0J4 0J420161130023012411/30/16 02:30:31  5-MIN K0J4 300730Z AUTO 19010G19KT 10SM BKN015 OVC025 28/20 A2987 370 60 2000 190/10G19 RMK AO2 T02830200
63870K0J4 0J420161130023511811/30/16 02:35:31  5-MIN K0J4 300735Z AUTO 20013KT 10SM BKN015 OVC022 28/20 A2986 370 60 2000 200/13 RMK AO2 T02830200
63870K0J4 0J420161130024012511/30/16 02:40:31  5-MIN K0J4 300740Z AUTO 19013KT 10SM BKN013 BKN019 OVC027 28/20 A2986 370 60 2000 190/13 RMK AO2 T02830200
63870K0J4 0J420161130024511811/30/16 02:45:31  5-MIN K0J4 300745Z AUTO 19011KT 10SM BKN014 BKN019 28/19 A2986 370 58 2000 190/11 RMK AO2 T02830194
63870K0J4 0J420161130025011111/30/16 02:50:31  5-MIN K0J4 300750Z AUTO 19010KT 10SM BKN014 28/19 A2986 370 58 2000 190/10 RMK AO2 T02830194
63870K0J4 0J420161130025511811/30/16 02:55:31  5-MIN K0J4 300755Z AUTO 19011KT 10SM BKN014 28/19 A2986 370 58 2000 190/11 RMK AO2 SLP105 T02830194
63870K0J4 0J420161130030011111/30/16 03:00:31  5-MIN K0J4 300800Z AUTO 18012KT 10SM BKN014 28/19 A2986 370 58 2000 180/12 RMK AO2 T02830194
63870K0J4 0J420161130030511111/30/16 03:05:31  5-MIN K0J4 300805Z AUTO 19009KT 10SM BKN014 28/19 A2986 370 58 2000 190/09 RMK AO2 T02830194
63870K0J4 0J420161130031012411/30/16 03:10:31  5-MIN K0J4 300810Z AUTO 19010G16KT 10SM SCT014 BKN024 28/19 A2986 370 58 2000 190/10G16 RMK AO2 T02830194
63870K0J4 0J420161130031511711/30/16 03:15:31  5-MIN K0J4 300815Z AUTO 19010G16KT 10SM SCT014 28/19 A2986 370 58 2000 190/10G16 RMK AO2 T02830194
63870K0J4 0J420161130032011811/30/16 03:20:31  5-MIN K0J4 300820Z AUTO 20009KT 10SM SCT014 BKN022 28/19 A2986 370 58 2000 200/09 RMK AO2 T02830194
63870K0J4 0J420161130032511811/30/16 03:25:31  5-MIN K0J4 300825Z AUTO 19011KT 10SM SCT014 BKN022 28/19 A2986 370 58 2000 190/11 RMK AO2 T02830194
63870K0J4 0J420161130033011811/30/16 03:30:31  5-MIN K0J4 300830Z AUTO 18008KT 10SM SCT014 BKN020 28/19 A2986 370 58 2000 180/08 RMK AO2 T02830194
63870K0J4 0J420161130033511811/30/16 03:35:31  5-MIN K0J4 300835Z AUTO 19009KT 10SM SCT014 BKN020 28/19 A2986 370 58 2000 190/09 RMK AO2 T02830194
63870K0J4 0J420161130034012511/30/16 03:40:31  5-MIN K0J4 300840Z AUTO 19010KT 10SM SCT018 SCT022 SCT032 28/19 A2986 370 58 2000 190/10 RMK AO2 T02830194
63870K0J4 0J420161130034512511/30/16 03:45:31  5-MIN K0J4 300845Z AUTO 20012KT 10SM SCT017 SCT022 BKN040 28/19 A2986 370 58 2000 200/12 RMK AO2 T02830194
63870K0J4 0J420161130035011811/30/16 03:50:31  5-MIN K0J4 300850Z AUTO 18009KT 10SM SCT018 SCT029 28/19 A2986 370 58 2000 180/09 RMK AO2 T02830194
63870K0J4 0J420161130035512411/30/16 03:55:31  5-MIN K0J4 300855Z AUTO 20010KT 10SM SCT018 28/19 A2986 370 58 2000 200/10 RMK AO2 SLP106 T02830194 58005
63870K0J4 0J420161130040011111/30/16 04:00:31  5-MIN K0J4 300900Z AUTO 19008KT 10SM FEW018 28/19 A2986 370 58 2000 190/08 RMK AO2 T02830194
63870K0J4 0J420161130040512511/30/16 04:05:31  5-MIN K0J4 300905Z AUTO 20011KT 10SM FEW015 FEW020 SCT037 28/19 A2986 370 58 2000 200/11 RMK AO2 T02830194
63870K0J4 0J420161130041011811/30/16 04:10:31  5-MIN K0J4 300910Z AUTO 19010KT 10SM FEW015 SCT035 29/19 A2986 380 56 2100 190/10 RMK AO2 T02890194
63870K0J4 0J420161130041512511/30/16 04:15:31  5-MIN K0J4 300915Z AUTO 19010KT 10SM FEW015 FEW021 SCT035 28/19 A2986 380 58 2000 190/10 RMK AO2 T02830194
63870K0J4 0J420161130042012511/30/16 04:20:31  5-MIN K0J4 300920Z AUTO 19009KT 10SM FEW015 FEW023 SCT028 28/19 A2986 370 58 2000 190/09 RMK AO2 T02830194
63870K0J4 0J420161130042512511/30/16 04:25:31  5-MIN K0J4 300925Z AUTO 19009KT 10SM FEW015 FEW020 SCT026 29/19 A2986 370 56 2100 190/09 RMK AO2 T02890194
63870K0J4 0J420161130043012511/30/16 04:30:31  5-MIN K0J4 300930Z AUTO 18008KT 10SM FEW020 SCT026 SCT048 28/19 A2986 380 58 2000 180/08 RMK AO2 T02830194
63870K0J4 0J420161130043512511/30/16 04:35:31  5-MIN K0J4 300935Z AUTO 19010KT 10SM FEW020 SCT034 BKN048 28/19 A2985 380 58 2000 190/10 RMK AO2 T02830194
63870K0J4 0J420161130044012511/30/16 04:40:31  5-MIN K0J4 300940Z AUTO 19010KT 10SM FEW018 FEW026 SCT048 29/19 A2986 370 56 2100 190/10 RMK AO2 T02890194
63870K0J4 0J420161130044513111/30/16 04:45:31  5-MIN K0J4 300945Z AUTO 19009G17KT 10SM FEW018 FEW025 BKN050 29/19 A2986 370 56 2100 190/09G17 RMK AO2 T02890194
63870K0J4 0J420161130045013111/30/16 04:50:31  5-MIN K0J4 300950Z AUTO 19007G17KT 10SM FEW020 SCT040 BKN049 28/19 A2986 380 58 2000 190/07G17 RMK AO2 T02830194
63870K0J4 0J420161130045513211/30/16 04:55:31  5-MIN K0J4 300955Z AUTO 19008KT 10SM FEW020 SCT049 BKN055 28/19 A2985 380 58 2000 190/08 RMK AO2 SLP104 T02830194
63870K0J4 0J420161130050012511/30/16 05:00:31  5-MIN K0J4 301000Z AUTO 18008KT 10SM FEW024 SCT049 BKN060 28/19 A2985 380 58 2000 180/08 RMK AO2 T02830194
63870K0J4 0J420161130050514111/30/16 05:05:31  5-MIN K0J4 301005Z AUTO 18008KT 10SM -RA FEW022 SCT038 BKN050 29/19 A2985 380 56 2100 180/08 RMK AO2 RAB05 P0000 T02890194
63870K0J4 0J420161130051014111/30/16 05:10:31  5-MIN K0J4 301010Z AUTO 17009KT 10SM -RA SCT020 BKN038 OVC060 29/19 A2985 380 56 2100 170/09 RMK AO2 RAB05 P0000 T02890194
63870K0J4 0J420161130051514111/30/16 05:15:31  5-MIN K0J4 301015Z AUTO 18007KT 10SM -RA SCT020 BKN042 OVC060 29/19 A2985 380 56 2100 180/07 RMK AO2 RAB05 P0000 T02890194
63870K0J4 0J420161130052014111/30/16 05:20:31  5-MIN K0J4 301020Z AUTO 18009KT 10SM -RA FEW017 SCT025 BKN055 29/19 A2985 380 56 2100 180/09 RMK AO2 RAB05 P0000 T02890194
63870K0J4 0J420161130052514111/30/16 05:25:31  5-MIN K0J4 301025Z AUTO 18009KT 10SM -RA FEW019 SCT039 BKN050 28/19 A2985 380 58 2000 180/09 RMK AO2 RAB05 P0000 T02830194
63870K0J4 0J420161130053014111/30/16 05:30:31  5-MIN K0J4 301030Z AUTO 19008KT 10SM -RA FEW019 SCT034 BKN043 29/19 A2985 380 56 2100 190/08 RMK AO2 RAB05 P0000 T02890194
63870K0J4 0J420161130053514111/30/16 05:35:31  5-MIN K0J4 301035Z AUTO 18007KT 10SM -RA FEW017 BKN034 OVC090 28/19 A2985 380 58 2000 180/07 RMK AO2 RAB05 P0000 T02830194
63870K0J4 0J420161130054014011/30/16 05:40:31  5-MIN K0J4 301040Z AUTO 18009KT 10SM FEW017 BKN030 BKN041 28/19 A2985 380 58 2000 180/09 RMK AO2 RAB05E38 P0000 T02830194
63870K0J4 0J420161130054514011/30/16 05:45:31  5-MIN K0J4 301045Z AUTO 19009KT 10SM SCT017 BKN031 BKN055 28/19 A2985 380 58 2000 190/09 RMK AO2 RAB05E38 P0000 T02830194
63870K0J4 0J420161130055014011/30/16 05:50:31  5-MIN K0J4 301050Z AUTO 20006KT 10SM SCT015 BKN026 BKN035 28/19 A2985 380 58 2000 200/06 RMK AO2 RAB05E38 P0000 T02830194
63870K0J4 0J420161130055513011/30/16 05:55:31  5-MIN K0J4 301055Z AUTO 19008KT 10SM SCT015 SCT026 BKN037 28/19 A2985 380 58 2000 190/08 RMK AO2 RAB05E38 P0000
63870K0J4 0J420161130060012511/30/16 06:00:31  5-MIN K0J4 301100Z AUTO 19008KT 10SM FEW017 SCT026 SCT037 29/19 A2985 380 56 2100 190/08 RMK AO2 T02890194
63870K0J4 0J420161130060511811/30/16 06:05:31  5-MIN K0J4 301105Z AUTO 18006KT 10SM FEW015 SCT060 28/19 A2985 380 58 2000 180/06 RMK AO2 T02830194
63870K0J4 0J420161130061011811/30/16 06:10:31  5-MIN K0J4 301110Z AUTO 19007KT 10SM FEW015 SCT065 28/19 A2985 380 58 2000 190/07 RMK AO2 T02830194
63870K0J4 0J420161130061512511/30/16 06:15:31  5-MIN K0J4 301115Z AUTO 19007KT 10SM FEW015 FEW040 BKN065 28/19 A2985 380 58 2000 190/07 RMK AO2 T02830194
63870K0J4 0J420161130062011811/30/16 06:20:31  5-MIN K0J4 301120Z AUTO 18005KT 10SM FEW019 BKN060 28/19 A2986 380 58 2000 180/05 RMK AO2 T02830194
63870K0J4 0J420161130062514111/30/16 06:25:31  5-MIN K0J4 301125Z AUTO 19005KT 10SM -RA FEW019 SCT039 BKN060 28/19 A2986 370 58 2000 190/05 RMK AO2 RAB24 P0000 T02830194
63870K0J4 0J420161130063014111/30/16 06:30:31  5-MIN K0J4 301130Z AUTO 19006KT 10SM -RA FEW015 SCT021 BKN042 29/19 A2986 370 56 2100 190/06 RMK AO2 RAB24 P0000 T02890194
63870K0J4 0J420161130063514011/30/16 06:35:31  5-MIN K0J4 301135Z AUTO 19007KT 10SM SCT015 BKN027 BKN060 29/19 A2986 370 56 2100 190/07 RMK AO2 RAB24E34 P0000 T02890194
63870K0J4 0J420161130064014011/30/16 06:40:31  5-MIN K0J4 301140Z AUTO 19007KT 10SM BKN017 BKN032 BKN065 29/19 A2986 370 56 2100 190/07 RMK AO2 RAB24E34 P0000 T02890194
63870K0J4 0J420161130064514011/30/16 06:45:31  5-MIN K0J4 301145Z AUTO 19006KT 10SM SCT017 BKN036 OVC060 29/19 A2986 370 56 2100 190/06 RMK AO2 RAB24E34 P0000 T02890194
63870K0J4 0J420161130065014011/30/16 06:50:31  5-MIN K0J4 301150Z AUTO 18007KT 10SM SCT017 SCT026 BKN060 29/19 A2986 370 56 2100 180/07 RMK AO2 RAB24E34 P0000 T02890194
63870K0J4 0J420161130065517711/30/16 06:55:31  5-MIN K0J4 301155Z AUTO 18008KT 10SM FEW016 SCT026 BKN060 29/19 A2986 370 56 2100 180/08 RMK AO2 RAB24E34 SLP105 P0000 60000 70001 T02890194 10289 20283 55009
63870K0J4 0J420161130070011811/30/16 07:00:31  5-MIN K0J4 301200Z AUTO 19008KT 10SM FEW016 SCT060 28/19 A2986 370 58 2000 190/08 RMK AO2 T02830194
63870K0J4 0J420161130070511811/30/16 07:05:31  5-MIN K0J4 301205Z AUTO 19008KT 10SM FEW016 SCT060 28/19 A2986 370 58 2000 190/08 RMK AO2 T02830194
63870K0J4 0J420161130071011811/30/16 07:10:31  5-MIN K0J4 301210Z AUTO 18007KT 10SM FEW016 SCT060 28/19 A2986 370 58 2000 180/07 RMK AO2 T02830194
63870K0J4 0J420161130071511811/30/16 07:15:31  5-MIN K0J4 301215Z AUTO 19006KT 10SM FEW016 FEW065 28/19 A2986 370 60 2000 190/06 RMK AO2 T02780194
63870K0J4 0J420161130072011111/30/16 07:20:31  5-MIN K0J4 301220Z AUTO 19008KT 10SM FEW016 28/19 A2986 370 58 2000 190/08 RMK AO2 T02830194
63870K0J4 0J420161130072511811/30/16 07:25:31  5-MIN K0J4 301225Z AUTO 18008KT 10SM FEW016 FEW038 28/19 A2986 370 58 2000 180/08 RMK AO2 T02830194
63870K0J4 0J420161130073011811/30/16 07:30:31  5-MIN K0J4 301230Z AUTO 19008KT 10SM FEW014 FEW034 28/19 A2987 360 58 2000 190/08 RMK AO2 T02830194
63870K0J4 0J420161130073510811/30/16 07:35:31  5-MIN K0J4 301235Z AUTO 18007KT 10SM CLR 28/19 A2987 370 58 2000 180/07 RMK AO2 T02830194
63870K0J4 0J420161130074010811/30/16 07:40:31  5-MIN K0J4 301240Z AUTO 17006KT 10SM CLR 28/19 A2986 370 58 2000 170/06 RMK AO2 T02830194
63870K0J4 0J420161130074511711/30/16 07:45:31  5-MIN K0J4 301245Z AUTO 21012G16KT 10SM FEW013 28/19 A2986 370 60 2000 210/12G16 RMK AO2 T02780194
63870K0J4 0J420161130075012411/30/16 07:50:31  5-MIN K0J4 301250Z AUTO 19010G16KT 10SM FEW015 SCT023 29/19 A2987 360 56 2100 190/10G16 RMK AO2 T02890194
63870K0J4 0J420161130075513111/30/16 07:55:31  5-MIN K0J4 301255Z AUTO 18012G19KT 10SM SCT013 SCT023 29/19 A2987 370 56 2100 180/12G19 RMK AO2 SLP108 T02890194
63870K0J4 0J420161130080013111/30/16 08:00:31  5-MIN K0J4 301300Z AUTO 17008G19KT 10SM SCT013 SCT017 BKN023 28/20 A2986 370 60 2000 170/08G19 RMK AO2 T02830200
63870K0J4 0J420161130080512511/30/16 08:05:31  5-MIN K0J4 301305Z AUTO 17008KT 10SM SCT013 SCT023 BKN060 28/20 A2986 370 60 2000 170/08 RMK AO2 T02830200
63870K0J4 0J420161130081012511/30/16 08:10:31  5-MIN K0J4 301310Z AUTO 18007KT 10SM SCT013 SCT023 BKN060 28/20 A2986 370 60 2000 180/07 RMK AO2 T02830200
63870K0J4 0J420161130081512511/30/16 08:15:31  5-MIN K0J4 301315Z AUTO 18008KT 10SM SCT013 SCT023 SCT060 29/20 A2986 370 58 2100 180/08 RMK AO2 T02890200
63870K0J4 0J420161130082012511/30/16 08:20:31  5-MIN K0J4 301320Z AUTO 19010KT 10SM FEW013 SCT020 BKN120 29/20 A2986 370 56 2100 190/10 RMK AO2 T02940200
63870K0J4 0J420161130082512511/30/16 08:25:31  5-MIN K0J4 301325Z AUTO 19008KT 10SM FEW011 SCT065 BKN110 29/20 A2986 370 56 2100 190/08 RMK AO2 T02940200
63870K0J4 0J420161130083012511/30/16 08:30:31  5-MIN K0J4 301330Z AUTO 18010KT 10SM FEW011 SCT060 BKN110 29/20 A2986 370 56 2200 180/10 RMK AO2 T02940200
63870K0J4 0J420161130083513111/30/16 08:35:31  5-MIN K0J4 301335Z AUTO 19010G16KT 10SM FEW012 SCT060 SCT110 30/20 A2986 380 54 2200 190/10G16 RMK AO2 T03000200
63870K0J4 0J420161130084012511/30/16 08:40:31  5-MIN K0J4 301340Z AUTO 19009KT 10SM FEW012 FEW065 SCT110 30/20 A2986 380 54 2200 190/09 RMK AO2 T03000200
63870K0J4 0J420161130084512411/30/16 08:45:31  5-MIN K0J4 301345Z AUTO 19008G17KT 10SM FEW065 SCT110 30/20 A2985 380 54 2200 190/08G17 RMK AO2 T03000200
63870K0J4 0J420161130085011811/30/16 08:50:31  5-MIN K0J4 301350Z AUTO 19011KT 10SM FEW013 FEW065 30/20 A2985 380 54 2200 190/11 RMK AO2 T03000200
63870K0J4 0J420161130085513211/30/16 08:55:31  5-MIN K0J4 301355Z AUTO 19010KT 10SM FEW013 FEW060 SCT110 30/20 A2986 380 54 2200 190/10 RMK AO2 SLP104 T03000200
63870K0J4 0J420161130090013111/30/16 09:00:31  5-MIN K0J4 301400Z AUTO 18012G17KT 10SM FEW013 SCT019 SCT110 29/20 A2985 380 56 2200 180/12G17 RMK AO2 T02940200
63870K0J4 0J420161130090513111/30/16 09:05:31  5-MIN K0J4 301405Z AUTO 20011G18KT 10SM SCT013 SCT019 BKN060 29/20 A2986 380 56 2200 200/11G18 RMK AO2 T02940200
63870K0J4 0J420161130091013111/30/16 09:10:31  5-MIN K0J4 301410Z AUTO 19009G18KT 10SM SCT013 BKN019 BKN060 30/20 A2985 380 54 2200 190/09G18 RMK AO2 T03000200
63870K0J4 0J420161130091513111/30/16 09:15:31  5-MIN K0J4 301415Z AUTO 19013G20KT 10SM BKN015 BKN022 BKN110 30/21 A2986 380 56 2200 190/13G20 RMK AO2 T03000206
63870K0J4 0J420161130092013111/30/16 09:20:31  5-MIN K0J4 301420Z AUTO 18015G20KT 10SM BKN013 BKN021 OVC110 31/20 A2986 370 52 2300 180/15G20 RMK AO2 T03060200
63870K0J4 0J420161130092512411/30/16 09:25:31  5-MIN K0J4 301425Z AUTO 19011G20KT 10SM BKN015 BKN021 30/20 A2986 370 54 2200 190/11G20 RMK AO2 T03000200
63870K0J4 0J420161130093012411/30/16 09:30:31  5-MIN K0J4 301430Z AUTO 19012G19KT 10SM BKN015 OVC024 30/20 A2986 370 54 2200 190/12G19 RMK AO2 T03000200
63870K0J4 0J420161130093513111/30/16 09:35:31  5-MIN K0J4 301435Z AUTO 19012G22KT 10SM BKN015 BKN024 OVC028 30/20 A2986 370 54 2200 190/12G22 RMK AO2 T03000200
63870K0J4 0J420161130094013111/30/16 09:40:31  5-MIN K0J4 301440Z AUTO 18013G22KT 10SM SCT015 BKN022 OVC028 29/20 A2986 370 56 2200 180/13G22 RMK AO2 T02940200
63870K0J4 0J420161130094513111/30/16 09:45:31  5-MIN K0J4 301445Z AUTO 19013G20KT 10SM FEW017 BKN022 OVC028 29/20 A2986 370 56 2200 190/13G20 RMK AO2 T02940200
63870K0J4 0J420161130095013111/30/16 09:50:31  5-MIN K0J4 301450Z AUTO 19014G20KT 10SM FEW015 BKN022 OVC028 29/19 A2986 370 54 2200 190/14G20 RMK AO2 T02940194
63870K0J4 0J420161130095514411/30/16 09:55:31  5-MIN K0J4 301455Z AUTO 19014G20KT 10SM SCT017 BKN022 OVC060 29/19 A2986 370 54 2200 190/14G20 RMK AO2 SLP105 T02940194 55000
63870K0J4 0J420161130100013111/30/16 10:00:31  5-MIN K0J4 301500Z AUTO 19011G20KT 10SM FEW018 BKN026 OVC065 29/19 A2986 370 54 2200 190/11G20 RMK AO2 T02940194
63870K0J4 0J420161130100513111/30/16 10:05:31  5-MIN K0J4 301505Z AUTO 19011G20KT 10SM FEW018 BKN026 OVC055 30/20 A2986 370 54 2200 190/11G20 RMK AO2 T03000200
63870K0J4 0J420161130101013111/30/16 10:10:31  5-MIN K0J4 301510Z AUTO 18013G20KT 10SM FEW018 BKN025 OVC055 31/20 A2986 380 52 2300 180/13G20 RMK AO2 T03060200
63870K0J4 0J420161130101513111/30/16 10:15:31  5-MIN K0J4 301515Z AUTO 18013G20KT 10SM FEW022 BKN028 OVC055 31/19 A2985 380 51 2300 180/13G20 RMK AO2 T03060194
63870K0J4 0J420161130102013111/30/16 10:20:31  5-MIN K0J4 301520Z AUTO 20016G20KT 10SM SCT022 BKN031 BKN041 31/19 A2985 380 49 2300 200/16G20 RMK AO2 T03110194
63870K0J4 0J420161130102513111/30/16 10:25:31  5-MIN K0J4 301525Z AUTO 20017G20KT 10SM FEW020 BKN026 BKN037 31/19 A2985 380 49 2300 200/17G20 RMK AO2 T03110194
63870K0J4 0J420161130103013111/30/16 10:30:31  5-MIN K0J4 301530Z AUTO 20017G24KT 10SM SCT023 BKN030 BKN035 31/19 A2985 380 51 2300 200/17G24 RMK AO2 T03060194
63870K0J4 0J420161130103513111/30/16 10:35:31  5-MIN K0J4 301535Z AUTO 21013G24KT 10SM SCT023 BKN030 BKN035 31/19 A2985 380 51 2300 210/13G24 RMK AO2 T03060194
63870K0J4 0J420161130104013111/30/16 10:40:31  5-MIN K0J4 301540Z AUTO 20016G22KT 10SM SCT023 BKN030 BKN037 31/19 A2985 380 51 2300 200/16G22 RMK AO2 T03060194
63870K0J4 0J420161130104512411/30/16 10:45:31  5-MIN K0J4 301545Z AUTO 19017G24KT 10SM SCT021 BKN034 31/19 A2985 380 49 2300 190/17G24 RMK AO2 T03110194
63870K0J4 0J420161130105012411/30/16 10:50:31  5-MIN K0J4 301550Z AUTO 20016G24KT 10SM SCT021 BKN034 32/19 A2985 390 47 2400 200/16G24 RMK AO2 T03170194
63870K0J4 0J420161130105513111/30/16 10:55:31  5-MIN K0J4 301555Z AUTO 20015G21KT 10SM SCT023 SCT033 31/19 A2985 380 49 2400 200/15G21 RMK AO2 SLP102 T03110194
63870K0J4 0J420161130110013111/30/16 11:00:31  5-MIN K0J4 301600Z AUTO 19018G21KT 10SM SCT023 BKN031 BKN040 31/19 A2985 380 49 2400 190/18G21 RMK AO2 T03110194
63870K0J4 0J420161130110512411/30/16 11:05:31  5-MIN K0J4 301605Z AUTO 19018G22KT 10SM SCT023 BKN031 31/19 A2984 390 49 2400 190/18G22 RMK AO2 T03110194
63870K0J4 0J420161130111014211/30/16 11:10:31  5-MIN K0J4 301610Z AUTO 20020G27KT 10SM FEW023 SCT029 32/19 A2984 390 47 2400 200/20G27 RMK AO2 PK WND 20027/1610 T03170194
63870K0J4 0J420161130111514911/30/16 11:15:31  5-MIN K0J4 301615Z AUTO 20021G28KT 10SM FEW026 SCT048 SCT100 32/19 A2984 390 47 2400 200/21G28 RMK AO2 PK WND 21028/1615 T03170194
63870K0J4 0J420161130112012911/30/16 11:20:31  5-MIN K0J4 301620Z AUTO 20018G29KT 10SM FEW026 SCT048 BKN110 A2984 M M M 200/18G29 RMK AO2 PK WND 20029/1616 $
63870K0J4 0J420161130112512911/30/16 11:25:31  5-MIN K0J4 301625Z AUTO 20020G29KT 10SM FEW027 SCT047 SCT110 A2984 M M M 200/20G29 RMK AO2 PK WND 20029/1616 $
63870K0J4 0J420161130113012211/30/16 11:30:31  5-MIN K0J4 301630Z AUTO 20017G27KT 10SM FEW031 SCT047 A2984 M M M 200/17G27 RMK AO2 PK WND 20029/1616 $
63870K0J4 0J420161130113514411/30/16 11:35:31  5-MIN K0J4 301635Z AUTO 20017G24KT 5SM -RA FEW030 SCT044 BKN065 A2983 M M M 200/17G24 RMK AO2 PK WND 20029/1616 RAB31 P0002 $
63870K0J4 0J420161130114014411/30/16 11:40:31  5-MIN K0J4 301640Z AUTO 21017G25KT 4SM -RA FEW013 SCT028 BKN042 A2984 M M M 210/17G25 RMK AO2 PK WND 20029/1616 RAB31 P0003 $
63870K0J4 0J420161130114514411/30/16 11:45:31  5-MIN K0J4 301645Z AUTO 20014G25KT 7SM -RA FEW013 SCT028 SCT042 A2984 M M M 200/14G25 RMK AO2 PK WND 20029/1616 RAB31 P0003 $
63870K0J4 0J420161130115013811/30/16 11:50:31  5-MIN K0J4 301650Z AUTO 20015KT 10SM FEW015 FEW032 SCT042 A2983 M M M 200/15 RMK AO2 PK WND 20029/1616 RAB31E48 P0003 $
63870K0J4 0J420161130115515011/30/16 11:55:31  5-MIN K0J4 301655Z AUTO 21014G23KT 10SM FEW015 SCT028 SCT036 A2983 M M M 210/14G23 RMK AO2 PK WND 20029/1616 RAB31E48 SLPNO P0003 $
63870K0J4 0J420161130120011111/30/16 12:00:31  5-MIN K0J4 301700Z AUTO 22014G23KT 10SM FEW015 SCT026 BKN034 A2983 M M M 220/14G23 RMK AO2 $
63870K0J4 0J420161130120511111/30/16 12:05:31  5-MIN K0J4 301705Z AUTO 21016G22KT 10SM FEW015 SCT024 BKN029 A2983 M M M 210/16G22 RMK AO2 $
63870K0J4 0J420161130121011111/30/16 12:10:31  5-MIN K0J4 301710Z AUTO 20015G22KT 10SM FEW017 BKN024 BKN033 A2982 M M M 200/15G22 RMK AO2 $
63870K0J4 0J420161130121510511/30/16 12:15:31  5-MIN K0J4 301715Z AUTO 21014KT 10SM FEW018 BKN024 BKN028 A2982 M M M 210/14 RMK AO2 $
63870K0J4 0J420161130122011111/30/16 12:20:31  5-MIN K0J4 301720Z AUTO 21018G24KT 10SM SCT019 BKN025 BKN029 A2983 M M M 210/18G24 RMK AO2 $
63870K0J4 0J420161130122511111/30/16 12:25:31  5-MIN K0J4 301725Z AUTO 21013G24KT 10SM SCT019 BKN025 OVC110 A2983 M M M 210/13G24 RMK AO2 $
63870K0J4 0J420161130123011111/30/16 12:30:31  5-MIN K0J4 301730Z AUTO 20019G24KT 10SM BKN021 BKN030 BKN110 A2983 M M M 200/19G24 RMK AO2 $
63870K0J4 0J420161130123512911/30/16 12:35:31  5-MIN K0J4 301735Z AUTO 20019G27KT 10SM BKN021 BKN028 BKN110 A2982 M M M 200/19G27 RMK AO2 PK WND 21027/1734 $
63870K0J4 0J420161130124012211/30/16 12:40:31  5-MIN K0J4 301740Z AUTO 20019G27KT 10SM BKN019 BKN026 A2982 M M M 200/19G27 RMK AO2 PK WND 21027/1734 $
63870K0J4 0J420161130124512911/30/16 12:45:31  5-MIN K0J4 301745Z AUTO 21018G28KT 10SM SCT019 BKN026 BKN100 A2982 M M M 210/18G28 RMK AO2 PK WND 20028/1742 $
63870K0J4 0J420161130125012911/30/16 12:50:31  5-MIN K0J4 301750Z AUTO 22017G28KT 10SM SCT022 BKN090 BKN110 A2981 M M M 220/17G28 RMK AO2 PK WND 20028/1742 $
63870K0J4 0J420161130125514711/30/16 12:55:31  5-MIN K0J4 301755Z AUTO 20022G29KT 10SM SCT022 SCT060 BKN080 A2982 M M M 200/22G29 RMK AO2 PK WND 20029/1755 SLPNO 60003 57001 $
63870K0J4 0J420161130130014111/30/16 13:00:31  5-MIN K0J4 301800Z AUTO 20024G31KT 10SM SCT022 SCT060 BKN080 A2981 M M M 200/24G31 RMK AO2 PK WND 20031/1800 RAE00 P0000 $
63870K0J4 0J420161130130513911/30/16 13:05:31  5-MIN K0J4 301805Z AUTO 21020G31KT 10SM -RA SCT024 BKN080 OVC090 A2981 M M M 210/20G31 RMK AO2 PK WND 20031/1800 P0000 $
63870K0J4 0J420161130131011611/30/16 13:10:31  5-MIN K0J4 301810Z AUTO 21020G28KT M M M 210/20G28 RMK AO2 PK WND 20028/1810 P0000 PWINO FZRANO $
63870K0J4 0J420161130131511911/30/16 13:15:31  5-MIN K0J4 301815Z AUTO 22017G28KT -RA A2979 M M M 220/17G28 RMK AO2 PK WND 20028/1810 RAB14 P0000 $
63870K0J4 0J420161130132012311/30/16 13:20:31  5-MIN K0J4 301820Z AUTO 21022G26KT 6SM -RA A2979 M M M 210/22G26 RMK AO2 PK WND 20028/1810 RAB14 P0000 $
63870K0J4 0J420161130132512311/30/16 13:25:31  5-MIN K0J4 301825Z AUTO 21016G26KT 4SM -RA A2979 M M M 210/16G26 RMK AO2 PK WND 20028/1810 RAB14 P0001 $
63870K0J4 0J420161130133014911/30/16 13:30:31  5-MIN K0J4 301830Z AUTO 21016G22KT 1 3/4SM +RA 25/21 A2979 440 76 1700 210/16G22 RMK AO2 PK WND 20028/1810 RAB14 P0008 T02500206 $
63870K0J4 0J420161130133514711/30/16 13:35:31  5-MIN K0J4 301835Z AUTO 24009G22KT 1/2SM +RA 25/21 A2979 440 79 1700 240/09G22 RMK AO2 PK WND 20028/1810 RAB14 P0028 T02500211 $
63870K0J4 0J420161130134016811/30/16 13:40:31  5-MIN K0J4 301840Z AUTO 24006G17KT 1/2SM -RA BKN015 BKN025 OVC080 25/21 A2978 440 79 1700 240/06G17 RMK AO2 PK WND 20028/1810 RAB14 P0031 T02500211 $
63870K0J4 0J420161130134516611/30/16 13:45:31  5-MIN K0J4 301845Z AUTO 24011G18KT 2SM -RA SCT018 BKN030 OVC055 25/21 A2978 450 79 1800 240/11G18 RMK AO2 PK WND 20028/1810 RAB14 P0031 T02500211 $
63870K0J4 0J420161130135016611/30/16 13:50:31  5-MIN K0J4 301850Z AUTO 22014G18KT 10SM SCT016 BKN039 OVC055 26/21 A2978 450 76 1800 220/14G18 RMK AO2 PK WND 20028/1810 RAB14E47 P0031 T02560211 $
63870K0J4 0J420161130135515611/30/16 13:55:31  5-MIN K0J4 301855Z AUTO 20013G18KT 10SM SCT016 BKN029 OVC055 26/21 A2977 450 76 1800 200/13G18 RMK AO2 PK WND 20028/1810 RAB14E47 P0031 $
63870K0J4 0J420161130140013311/30/16 14:00:31  5-MIN K0J4 301900Z AUTO 21015G20KT 10SM FEW011 BKN020 OVC050 26/21 A2977 450 76 1800 210/15G20 RMK AO2 T02560211 $
63870K0J4 0J420161130140513311/30/16 14:05:31  5-MIN K0J4 301905Z AUTO 21016G22KT 10SM BKN020 BKN032 OVC055 26/21 A2977 450 76 1800 210/16G22 RMK AO2 T02560211 $
63870K0J4 0J420161130141013311/30/16 14:10:31  5-MIN K0J4 301910Z AUTO 21016G24KT 10SM BKN022 BKN032 OVC043 26/21 A2977 460 73 1900 210/16G24 RMK AO2 T02610211 $
63870K0J4 0J420161130141513311/30/16 14:15:31  5-MIN K0J4 301915Z AUTO 21014G24KT 10SM BKN022 BKN032 OVC055 27/21 A2977 460 71 1900 210/14G24 RMK AO2 T02670211 $
63870K0J4 0J420161130142016711/30/16 14:20:31  5-MIN K0J4 301920Z AUTO 21021G31KT 10SM -RA SCT021 BKN026 BKN034 27/21 A2976 460 69 2000 210/21G31 RMK AO2 PK WND 20031/1917 RAB19 P0000 T02670206 $
63870K0J4 0J420161130142516711/30/16 14:25:31  5-MIN K0J4 301925Z AUTO 21017G31KT 10SM -RA SCT021 BKN028 BKN060 27/21 A2976 460 69 2000 210/17G31 RMK AO2 PK WND 20031/1917 RAB19 P0000 T02670206 $
63870K0J4 0J420161130143016711/30/16 14:30:31  5-MIN K0J4 301930Z AUTO 21018G30KT 10SM -RA FEW021 SCT026 BKN060 27/21 A2977 460 66 2000 210/18G30 RMK AO2 PK WND 20031/1917 RAB19 P0000 T02720206 $
63870K0J4 0J420161130143516611/30/16 14:35:31  5-MIN K0J4 301935Z AUTO 21016G24KT 10SM SCT023 SCT029 BKN036 27/21 A2977 450 66 2000 210/16G24 RMK AO2 PK WND 20031/1917 RAB19E32 P0000 T02720206 $
63870K0J4 0J420161130144017311/30/16 14:40:31  5-MIN K0J4 301940Z AUTO 22013G24KT 10SM -RA SCT023 SCT032 BKN042 27/21 A2977 460 69 1900 220/13G24 RMK AO2 PK WND 20031/1917 RAB19E32B36 P0000 T02670206 $
63870K0J4 0J420161130144517211/30/16 14:45:31  5-MIN K0J4 301945Z AUTO 23012G21KT 9SM -RA SCT021 BKN027 BKN039 27/21 A2977 460 69 1900 230/12G21 RMK AO2 PK WND 20031/1917 RAB19E32B36 P0000 T02670206 $
63870K0J4 0J420161130145017211/30/16 14:50:31  5-MIN K0J4 301950Z AUTO 21013G18KT 9SM -RA SCT021 BKN029 BKN040 26/21 A2976 470 71 1900 210/13G18 RMK AO2 PK WND 20031/1917 RAB19E32B36 P0000 T02610206 $
63870K0J4 0J420161130145516711/30/16 14:55:31  5-MIN K0J4 301955Z AUTO 22013G19KT 9SM VCTS -RA SCT019 BKN027 BKN038 26/21 A2977 450 71 1900 220/13G19 RMK AO2 PK WND 20031/1917 RAB19E32B36 P0000 $
63870K0J4 0J420161130150014711/30/16 15:00:31  5-MIN K0J4 302000Z AUTO 22011G19KT 9SM VCTS -RA SCT019 BKN027 OVC038 26/21 A2978 450 73 1800 220/11G19 RMK AO2 P0001 T02560206 $
63870K0J4 0J420161130150514811/30/16 15:05:31  5-MIN K0J4 302005Z AUTO 23009G17KT 10SM VCTS -RA BKN017 BKN027 OVC038 26/21 A2979 440 73 1800 230/09G17 RMK AO2 P0001 T02560206 $
63870K0J4 0J420161130151015011/30/16 15:10:31  5-MIN K0J4 302010Z AUTO 22010G16KT 10SM -RA BKN015 BKN022 OVC033 26/21 A2979 430 76 1800 220/10G16 RMK AO2 PRESRR P0001 T02560211 $
63870K0J4 0J420161130151516511/30/16 15:15:31  5-MIN K0J4 302015Z AUTO 31010G21KT 240V350 5SM -RA BKN015 BKN026 OVC035 25/20 A2982 410 73 1700 310/10G21 240V350 RMK AO2 PRESRR P0002 T02500200 $
63870K0J4 0J420161130152014611/30/16 15:20:31  5-MIN K0J4 302020Z AUTO 30006G21KT 1 1/4SM +RA BKN015 BKN021 OVC035 23/18 A2982 410 76 1500 300/06G21 RMK AO2 P0011 T02280183 $
63870K0J4 0J420161130152514411/30/16 15:25:31  5-MIN K0J4 302025Z AUTO VRB05G15KT 3/4SM +RA FEW009 BKN021 OVC035 22/18 A2982 410 78 1300 VRB/05G15 RMK AO2 P0015 T02170178 $
63870K0J4 0J420161130153013611/30/16 15:30:31  5-MIN K0J4 302030Z AUTO VRB05KT 1SM +RA FEW007 BKN023 OVC032 21/18 A2982 410 81 1300 VRB/05 RMK AO2 P0020 T02110178 $
63870K0J4 0J420161130153513911/30/16 15:35:31  5-MIN K0J4 302035Z AUTO VRB06KT 1 1/4SM RA FEW007 BKN022 OVC033 21/18 A2982 410 81 1300 VRB/06 RMK AO2 P0021 T02110178 $
63870K0J4 0J420161130154013911/30/16 15:40:31  5-MIN K0J4 302040Z AUTO VRB05KT 1 3/4SM RA SCT007 BKN017 OVC035 21/18 A2983 400 81 1200 VRB/05 RMK AO2 P0024 T02110178 $
63870K0J4 0J420161130154514811/30/16 15:45:31  5-MIN K0J4 302045Z AUTO VRB03KT 1 1/2SM +TSRA SCT007 BKN019 OVC035 21/18 A2983 400 84 1200 VRB/03 RMK AO2 TSB41 P0027 T02060178 $
63870K0J4 0J420161130155014411/30/16 15:50:31  5-MIN K0J4 302050Z AUTO 00000KT 1SM +TSRA SCT007 BKN015 OVC031 21/18 A2982 410 84 1200 000/00 RMK AO2 TSB41 P0030 T02060178 $
63870K0J4 0J420161130155516011/30/16 15:55:31  5-MIN K0J4 302055Z AUTO VRB04KT 1 1/2SM TSRA SCT005 BKN016 OVC050 21/18 A2982 410 84 1200 VRB/04 RMK AO2 TSB41 SLP094 P0030 60061 T02060178 $
63870K0J4 0J420161130160013811/30/16 16:00:31  5-MIN K0J4 302100Z AUTO 00000KT 5SM -TSRA BKN007 BKN027 OVC095 21/18 A2982 410 84 1300 000/00 RMK AO2 P0001 T02110183 $
63870K0J4 0J420161130160513811/30/16 16:05:31  5-MIN K0J4 302105Z AUTO 32005KT 8SM -TSRA BKN007 BKN021 OVC100 22/18 A2983 400 78 1300 320/05 RMK AO2 P0001 T02170178 $
63870K0J4 0J420161130161013911/30/16 16:10:31  5-MIN K0J4 302110Z AUTO 00000KT 10SM -TSRA BKN007 BKN016 OVC033 21/18 A2983 400 81 1200 000/00 RMK AO2 P0001 T02110178 $
63870K0J4 0J420161130161514311/30/16 16:15:31  5-MIN K0J4 302115Z AUTO VRB03KT 10SM -RA BKN005 BKN035 OVC095 21/18 A2983 400 84 1200 VRB/03 RMK AO2 TSE11 P0001 T02110183 $
63870K0J4 0J420161130162014511/30/16 16:20:31  5-MIN K0J4 302120Z AUTO VRB04KT 10SM SCT005 BKN008 OVC042 21/18 A2983 400 81 1200 VRB/04 RMK AO2 RAE18 TSE11 P0001 T02110178 $
63870K0J4 0J420161130162515011/30/16 16:25:31  5-MIN K0J4 302125Z AUTO VRB04KT 10SM BKN006 OVC010 21/18 A2984 390 81 1200 VRB/04 RMK AO2 RAE18 TSE11 CIG 003V007 P0001 T02110178 $
63870K0J4 0J420161130163015011/30/16 16:30:31  5-MIN K0J4 302130Z AUTO VRB03KT 10SM BKN006 OVC012 21/18 A2984 390 81 1200 VRB/03 RMK AO2 RAE18 TSE11 CIG 003V009 P0001 T02110178 $
63870K0J4 0J420161130163514011/30/16 16:35:31  5-MIN K0J4 302135Z AUTO 10SM BKN008 OVC012 21/18 A2985 390 81 1200 M /M RMK AO2 RAE18 TSE11 CIG 003V011 P0001 T02110178 $
63870K0J4 0J420161130164013811/30/16 16:40:31  5-MIN K0J4 302140Z AUTO VRB04KT 10SM SCT005 OVC012 21/18 A2985 380 81 1200 VRB/04 RMK AO2 RAE18 TSE11 P0001 T02110178 $
63870K0J4 0J420161130164515511/30/16 16:45:31  5-MIN K0J4 302145Z AUTO VRB04KT 10SM -RA BKN007 OVC012 21/18 A2985 380 81 1200 VRB/04 RMK AO2 RAE18B44 TSE11 CIG 004V010 P0001 T02110178
63870K0J4 0J420161130165015511/30/16 16:50:31  5-MIN K0J4 302150Z AUTO 30004KT 7SM RA BKN007 OVC012 21/18 A2985 380 84 1200 300/04 RMK AO2 RAE18B44 TSE11 CIG 004V010 P0001 T02060178 $
63870K0J4 0J420161130165516311/30/16 16:55:31  5-MIN K0J4 302155Z AUTO VRB04KT 7SM -RA BKN008 OVC013 21/18 A2986 370 81 1200 VRB/04 RMK AO2 RAE18B44 TSE11 CIG 004V010 SLP107 P0001 T02110178 $
63870K0J4 0J420161130170015511/30/16 17:00:31  5-MIN K0J4 302200Z AUTO VRB04KT 9SM -RA BKN008 BKN013 OVC020 21/18 A2987 370 84 1100 VRB/04 RMK AO2 CIG 005V010 PRESRR P0000 T02060178 $
63870K0J4 0J420161130170514911/30/16 17:05:31  5-MIN K0J4 302205Z AUTO 00000KT 10SM -RA BKN008 BKN013 OVC022 21/18 A2987 360 84 1100 000/00 RMK AO2 CIG 005V010 P0000 T02060178 $
63870K0J4 0J420161130171013011/30/16 17:10:31  5-MIN K0J4 302210Z AUTO VRB04KT 10SM -RA SCT008 OVC024 21/17 A2987 370 81 1100 VRB/04 RMK AO2 P0000 T02060172 $
63870K0J4 0J420161130171513711/30/16 17:15:31  5-MIN K0J4 302215Z AUTO VRB03KT 10SM -RA SCT008 SCT022 OVC028 21/17 A2987 360 81 1100 VRB/03 RMK AO2 P0000 T02060172 $
63870K0J4 0J420161130172013911/30/16 17:20:31  5-MIN K0J4 302220Z AUTO VRB05KT 10SM FEW008 BKN028 OVC070 21/17 A2987 360 78 1100 VRB/05 RMK AO2 RAE20 P0000 T02060167 $
63870K0J4 0J420161130172513911/30/16 17:25:31  5-MIN K0J4 302225Z AUTO VRB04KT 10SM SCT026 BKN075 OVC100 21/17 A2986 370 78 1100 VRB/04 RMK AO2 RAE20 P0000 T02060167 $
63870K0J4 0J420161130173013911/30/16 17:30:31  5-MIN K0J4 302230Z AUTO VRB04KT 10SM SCT026 SCT070 OVC100 20/16 A2986 370 78 1100 VRB/04 RMK AO2 RAE20 P0000 T02000161 $
63870K0J4 0J420161130173513911/30/16 17:35:31  5-MIN K0J4 302235Z AUTO VRB03KT 10SM FEW028 SCT070 BKN100 19/16 A2987 360 81 1000 VRB/03 RMK AO2 RAE20 P0000 T01940161 $
63870K0J4 0J420161130174013911/30/16 17:40:31  5-MIN K0J4 302240Z AUTO VRB04KT 10SM FEW028 SCT070 BKN100 20/16 A2988 350 78 1100 VRB/04 RMK AO2 RAE20 P0000 T02000161 $
63870K0J4 0J420161130174513911/30/16 17:45:31  5-MIN K0J4 302245Z AUTO VRB04KT 10SM SCT075 BKN100 BKN120 19/16 A2988 360 78 1000 VRB/04 RMK AO2 RAE20 P0000 T01940156 $
63870K0J4 0J420161130175013911/30/16 17:50:31  5-MIN K0J4 302250Z AUTO 33003KT 10SM FEW075 BKN100 BKN120 19/16 A2988 350 78 1000 330/03 RMK AO2 RAE20 P0000 T01940156 $
63870K0J4 0J420161130175514611/30/16 17:55:31  5-MIN K0J4 302255Z AUTO VRB03KT 10SM FEW075 BKN095 BKN120 19/16 A2988 350 78 1000 VRB/03 RMK AO2 RAE20 SLP115 P0000 T01940156 $
63870K0J4 0J420161130180012711/30/16 18:00:31  5-MIN K0J4 302300Z AUTO VRB03KT 10SM FEW075 BKN095 BKN120 19/16 A2989 350 78 1000 VRB/03 RMK AO2 T01940156 $
63870K0J4 0J420161130180512711/30/16 18:05:31  5-MIN K0J4 302305Z AUTO VRB04KT 10SM FEW075 BKN095 OVC120 19/15 A2989 350 75 1000 VRB/04 RMK AO2 T01940150 $
63870K0J4 0J420161130181012011/30/16 18:10:31  5-MIN K0J4 302310Z AUTO VRB04KT 10SM FEW075 OVC090 19/14 A2989 340 72 1000 VRB/04 RMK AO2 T01940144 $
63870K0J4 0J420161130181511311/30/16 18:15:31  5-MIN K0J4 302315Z AUTO VRB05KT 10SM OVC090 19/13 A2989 340 67 1000 VRB/05 RMK AO2 T01940133 $
63870K0J4 0J420161130182011311/30/16 18:20:31  5-MIN K0J4 302320Z AUTO VRB04KT 10SM OVC095 19/13 A2990 340 65 1000 VRB/04 RMK AO2 T01940128 $
63870K0J4 0J420161130182511211/30/16 18:25:31  5-MIN K0J4 302325Z AUTO VRB03KT 10SM OVC090 19/13 A2990 330 67 900 VRB/03 RMK AO2 T01890128 $
63870K0J4 0J420161130183011211/30/16 18:30:31  5-MIN K0J4 302330Z AUTO VRB04KT 10SM BKN090 18/13 A2990 340 70 800 VRB/04 RMK AO2 T01830128 $
63870K0J4 0J420161130183511211/30/16 18:35:31  5-MIN K0J4 302335Z AUTO VRB04KT 10SM BKN090 19/13 A2990 330 67 900 VRB/04 RMK AO2 T01890128 $
63870K0J4 0J420161130184011211/30/16 18:40:31  5-MIN K0J4 302340Z AUTO VRB03KT 10SM SCT090 18/13 A2991 330 70 800 VRB/03 RMK AO2 T01830128 $
63870K0J4 0J420161130184511211/30/16 18:45:31  5-MIN K0J4 302345Z AUTO 33004KT 10SM SCT090 18/13 A2991 320 70 800 330/04 RMK AO2 T01830128 $
63870K0J4 0J420161130185012811/30/16 18:50:31  5-MIN K0J4 302350Z AUTO VRB03KT 10SM -RA FEW090 18/13 A2991 320 72 800 VRB/03 RMK AO2 RAB49 P0000 T01780128 $
63870K0J4 0J420161130185513711/30/16 18:55:31  5-MIN K0J4 302355Z AUTO 34003KT 10SM CLR 18/12 A2991 320 67 800 340/03 RMK AO2 RAB49E55 SLP124 P0000 60062 T01830122 $
63870K0J4 0J420161130190010911/30/16 19:00:31  5-MIN K0J4 010000Z AUTO VRB03KT 10SM CLR 18/12 A2992 320 69 800 VRB/03 RMK AO2 T01780122 $
63870K0J4 0J420161130190510911/30/16 19:05:31  5-MIN K0J4 010005Z AUTO VRB03KT 10SM CLR 18/12 A2992 320 69 800 VRB/03 RMK AO2 T01780122 $
63870K0J4 0J420161130191010911/30/16 19:10:31  5-MIN K0J4 010010Z AUTO 34003KT 10SM CLR 18/12 A2991 320 67 800 340/03 RMK AO2 T01780117 $
63870K0J4 0J420161130191510911/30/16 19:15:31  5-MIN K0J4 010015Z AUTO VRB03KT 10SM CLR 18/12 A2992 320 69 800 VRB/03 RMK AO2 T01780122 $
63870K0J4 0J420161130192011211/30/16 19:20:31  5-MIN K0J4 010020Z AUTO 00000KT 10SM FEW080 18/12 A2992 320 69 800 000/00 RMK AO2 T01780122 $
63870K0J4 0J420161130192511211/30/16 19:25:31  5-MIN K0J4 010025Z AUTO 36003KT 10SM SCT080 17/12 A2992 320 72 700 360/03 RMK AO2 T01720122 $
63870K0J4 0J420161130193011211/30/16 19:30:31  5-MIN K0J4 010030Z AUTO 00000KT 10SM SCT080 17/12 A2992 320 72 700 000/00 RMK AO2 T01720122 $
63870K0J4 0J420161130193511211/30/16 19:35:31  5-MIN K0J4 010035Z AUTO 00000KT 10SM FEW080 17/12 A2992 310 72 700 000/00 RMK AO2 T01720122 $
63870K0J4 0J420161130194011211/30/16 19:40:31  5-MIN K0J4 010040Z AUTO 00000KT 10SM FEW080 17/12 A2992 310 69 700 000/00 RMK AO2 T01720117 $
63870K0J4 0J420161130194511211/30/16 19:45:31  5-MIN K0J4 010045Z AUTO 00000KT 10SM FEW080 17/12 A2993 310 72 700 000/00 RMK AO2 T01720122 $
63870K0J4 0J420161130195011211/30/16 19:50:31  5-MIN K0J4 010050Z AUTO 00000KT 10SM SCT080 17/12 A2993 310 72 700 000/00 RMK AO2 T01720122 $
63870K0J4 0J420161130195513511/30/16 19:55:31  5-MIN K0J4 010055Z AUTO 36003KT 10SM -RA SCT085 17/12 A2993 310 72 700 360/03 RMK AO2 RAB55 SLP130 P0000 T01720122 $
63870K0J4 0J420161130200012211/30/16 20:00:31  5-MIN K0J4 010100Z AUTO 00000KT 10SM -RA SCT085 17/12 A2993 310 75 600 000/00 RMK AO2 P0000 T01670122 $
63870K0J4 0J420161130200512211/30/16 20:05:31  5-MIN K0J4 010105Z AUTO 00000KT 10SM -RA SCT085 17/12 A2993 310 72 700 000/00 RMK AO2 P0000 T01720122 $
63870K0J4 0J420161130201012411/30/16 20:10:31  5-MIN K0J4 010110Z AUTO 00000KT 10SM FEW085 17/12 A2993 310 72 700 000/00 RMK AO2 RAE07 P0000 T01720122 $
63870K0J4 0J420161130201512411/30/16 20:15:31  5-MIN K0J4 010115Z AUTO 00000KT 10SM SCT085 17/13 A2993 310 75 700 000/00 RMK AO2 RAE07 P0000 T01720128 $
63870K0J4 0J420161130202012411/30/16 20:20:31  5-MIN K0J4 010120Z AUTO 00000KT 10SM FEW085 17/13 A2993 310 75 700 000/00 RMK AO2 RAE07 P0000 T01720128 $
63870K0J4 0J420161130202512411/30/16 20:25:31  5-MIN K0J4 010125Z AUTO 00000KT 10SM FEW085 17/13 A2993 300 75 700 000/00 RMK AO2 RAE07 P0000 T01720128 $
63870K0J4 0J420161130203012411/30/16 20:30:31  5-MIN K0J4 010130Z AUTO 00000KT 10SM FEW090 17/13 A2994 300 77 600 000/00 RMK AO2 RAE07 P0000 T01670128 $
63870K0J4 0J420161130203512411/30/16 20:35:31  5-MIN K0J4 010135Z AUTO 00000KT 10SM SCT085 17/13 A2994 300 75 700 000/00 RMK AO2 RAE07 P0000 T01720128 $
63870K0J4 0J420161130204012411/30/16 20:40:31  5-MIN K0J4 010140Z AUTO 00000KT 10SM SCT085 17/13 A2994 300 80 600 000/00 RMK AO2 RAE07 P0000 T01670133 $
63870K0J4 0J420161130204512411/30/16 20:45:31  5-MIN K0J4 010145Z AUTO 00000KT 10SM SCT085 17/13 A2994 300 80 600 000/00 RMK AO2 RAE07 P0000 T01670133 $
63870K0J4 0J420161130205012411/30/16 20:50:31  5-MIN K0J4 010150Z AUTO 00000KT 10SM SCT085 16/13 A2994 300 80 500 000/00 RMK AO2 RAE07 P0000 T01610128 $
63870K0J4 0J420161130205513111/30/16 20:55:31  5-MIN K0J4 010155Z AUTO 00000KT 10SM FEW085 16/13 A2994 300 80 500 000/00 RMK AO2 RAE07 SLP133 P0000 T01610128 $
63870K0J4 0J420161130210011211/30/16 21:00:31  5-MIN K0J4 010200Z AUTO 00000KT 10SM FEW085 16/13 A2994 300 80 500 000/00 RMK AO2 T01610128 $
63870K0J4 0J420161130210511211/30/16 21:05:31  5-MIN K0J4 010205Z AUTO 00000KT 10SM FEW085 16/13 A2994 300 83 500 000/00 RMK AO2 T01560128 $
63870K0J4 0J420161130211011211/30/16 21:10:31  5-MIN K0J4 010210Z AUTO 00000KT 10SM FEW085 16/13 A2994 290 80 500 000/00 RMK AO2 T01610128 $
63870K0J4 0J420161130211511211/30/16 21:15:31  5-MIN K0J4 010215Z AUTO 00000KT 10SM SCT085 16/13 A2994 300 80 500 000/00 RMK AO2 T01610128 $
63870K0J4 0J420161130212011211/30/16 21:20:31  5-MIN K0J4 010220Z AUTO 00000KT 10SM BKN085 16/13 A2995 290 83 500 000/00 RMK AO2 T01610133 $
63870K0J4 0J420161130212512811/30/16 21:25:31  5-MIN K0J4 010225Z AUTO 00000KT 10SM -RA BKN085 17/13 A2995 290 80 600 000/00 RMK AO2 RAB24 P0000 T01670133 $
63870K0J4 0J420161130213012811/30/16 21:30:31  5-MIN K0J4 010230Z AUTO 00000KT 10SM -RA BKN085 17/13 A2995 290 80 600 000/00 RMK AO2 RAB24 P0000 T01670133 $
63870K0J4 0J420161130213512711/30/16 21:35:31  5-MIN K0J4 010235Z AUTO 00000KT 10SM OVC085 17/13 A2995 290 80 600 000/00 RMK AO2 RAB24E35 P0000 T01670133 $
63870K0J4 0J420161130214012711/30/16 21:40:31  5-MIN K0J4 010240Z AUTO 00000KT 10SM OVC085 17/14 A2994 290 83 600 000/00 RMK AO2 RAB24E35 P0000 T01670139 $
63870K0J4 0J420161130214512711/30/16 21:45:31  5-MIN K0J4 010245Z AUTO 00000KT 10SM BKN085 17/13 A2994 300 80 600 000/00 RMK AO2 RAB24E35 P0000 T01670133 $
63870K0J4 0J420161130215012711/30/16 21:50:31  5-MIN K0J4 010250Z AUTO 31003KT 10SM BKN085 17/13 A2995 290 80 600 310/03 RMK AO2 RAB24E35 P0000 T01670133 $
63870K0J4 0J420161130215515311/30/16 21:55:31  5-MIN K0J4 010255Z AUTO 00000KT 10SM SCT085 SCT100 17/13 A2995 290 80 600 000/00 RMK AO2 RAB24E35 SLP138 P0000 60000 T01670133 51047 $
63870K0J4 0J420161130220011911/30/16 22:00:31  5-MIN K0J4 010300Z AUTO 00000KT 10SM SCT085 BKN100 17/13 A2995 290 80 600 000/00 RMK AO2 T01670133 $
63870K0J4 0J420161130220511211/30/16 22:05:31  5-MIN K0J4 010305Z AUTO VRB04KT 10SM BKN100 17/12 A2995 290 75 600 VRB/04 RMK AO2 T01670122 $
63870K0J4 0J420161130221011211/30/16 22:10:31  5-MIN K0J4 010310Z AUTO VRB04KT 10SM BKN100 17/11 A2995 290 69 600 VRB/04 RMK AO2 T01670111 $
63870K0J4 0J420161130221511211/30/16 22:15:31  5-MIN K0J4 010315Z AUTO VRB03KT 10SM BKN100 17/11 A2996 280 69 600 VRB/03 RMK AO2 T01670111 $
63870K0J4 0J420161130222011211/30/16 22:20:31  5-MIN K0J4 010320Z AUTO VRB04KT 10SM BKN100 17/11 A2996 280 69 600 VRB/04 RMK AO2 T01670111 $
63870K0J4 0J420161130222511211/30/16 22:25:31  5-MIN K0J4 010325Z AUTO 00000KT 10SM SCT100 17/11 A2996 280 69 600 000/00 RMK AO2 T01670111 $
63870K0J4 0J420161130223011211/30/16 22:30:31  5-MIN K0J4 010330Z AUTO VRB03KT 10SM SCT100 16/11 A2996 280 72 500 VRB/03 RMK AO2 T01610111 $
63870K0J4 0J420161130223511211/30/16 22:35:31  5-MIN K0J4 010335Z AUTO 00000KT 10SM SCT100 16/11 A2996 280 72 500 000/00 RMK AO2 T01610111 $
63870K0J4 0J420161130224011211/30/16 22:40:31  5-MIN K0J4 010340Z AUTO 00000KT 10SM SCT090 16/11 A2996 280 72 500 000/00 RMK AO2 T01610111 $
63870K0J4 0J420161130224511211/30/16 22:45:31  5-MIN K0J4 010345Z AUTO 00000KT 10SM BKN090 16/11 A2997 270 74 400 000/00 RMK AO2 T01560111 $
63870K0J4 0J420161130225011911/30/16 22:50:31  5-MIN K0J4 010350Z AUTO 00000KT 10SM SCT080 BKN095 16/11 A2997 270 74 400 000/00 RMK AO2 T01560111 $
63870K0J4 0J420161130225511911/30/16 22:55:31  5-MIN K0J4 010355Z AUTO 00000KT 10SM BKN085 16/11 A2997 270 74 400 000/00 RMK AO2 SLP143 T01560111 $
63870K0J4 0J420161130230011911/30/16 23:00:31  5-MIN K0J4 010400Z AUTO 00000KT 10SM FEW080 SCT095 16/11 A2997 270 74 400 000/00 RMK AO2 T01560111 $
63870K0J4 0J420161130230511911/30/16 23:05:31  5-MIN K0J4 010405Z AUTO 00000KT 10SM FEW080 SCT095 15/12 A2997 270 80 400 000/00 RMK AO2 T01500117 $
63870K0J4 0J420161130231011211/30/16 23:10:31  5-MIN K0J4 010410Z AUTO 00000KT 10SM FEW080 16/12 A2997 270 77 400 000/00 RMK AO2 T01560117 $
63870K0J4 0J420161130231511211/30/16 23:15:31  5-MIN K0J4 010415Z AUTO 00000KT 10SM FEW080 15/12 A2997 270 80 400 000/00 RMK AO2 T01500117 $
63870K0J4 0J420161130232010911/30/16 23:20:31  5-MIN K0J4 010420Z AUTO 00000KT 10SM CLR 15/12 A2997 270 80 400 000/00 RMK AO2 T01500117 $
63870K0J4 0J420161130232510911/30/16 23:25:31  5-MIN K0J4 010425Z AUTO 00000KT 10SM CLR 14/11 A2998 260 80 300 000/00 RMK AO2 T01440111 $
63870K0J4 0J420161130233010911/30/16 23:30:31  5-MIN K0J4 010430Z AUTO 00000KT 10SM CLR 14/11 A2998 270 80 300 000/00 RMK AO2 T01440111 $
63870K0J4 0J420161130233510911/30/16 23:35:31  5-MIN K0J4 010435Z AUTO 00000KT 10SM CLR 14/11 A2998 260 77 300 000/00 RMK AO2 T01440106 $
63870K0J4 0J420161130234010911/30/16 23:40:31  5-MIN K0J4 010440Z AUTO 00000KT 10SM CLR 14/11 A2998 260 77 300 000/00 RMK AO2 T01440106 $
63870K0J4 0J420161130234510911/30/16 23:45:31  5-MIN K0J4 010445Z AUTO 00000KT 10SM CLR 14/10 A2998 260 77 200 000/00 RMK AO2 T01390100 $
63870K0J4 0J420161130235010911/30/16 23:50:31  5-MIN K0J4 010450Z AUTO 00000KT 10SM CLR 14/10 A2998 260 77 200 000/00 RMK AO2 T01390100 $
63870K0J4 0J420161130235512511/30/16 23:55:31  5-MIN K0J4 010455Z AUTO 00000KT 10SM CLR 14/10 A2998 260 77 200 000/00 RMK AO2 SLPNO T01390100 403170139 $
