04850KAOH AOH20160201000011702/01/16 00:00:31  5-MIN KAOH 010500Z AUTO 28018G23KT 10SM OVC015 08/07 A2973 1150 89 700 290/18G23 RMK AO2 T00830067
04850KAOH AOH20160201000513502/01/16 00:05:31  5-MIN KAOH 010505Z AUTO 28018G27KT 10SM OVC015 08/06 A2973 1150 86 700 290/18G27 RMK AO2 PK WND 28027/0503 T00830061
04850KAOH AOH20160201001014202/01/16 00:10:31  5-MIN KAOH 010510Z AUTO 28015G27KT 10SM BKN013 OVC018 08/06 A2974 1150 86 700 280/15G27 RMK AO2 PK WND 28027/0503 T00830061
04850KAOH AOH20160201001514102/01/16 00:15:31  5-MIN KAOH 010515Z AUTO 27016G22KT 9SM BKN013 OVC018 08/07 A2974 1150 89 700 280/16G22 RMK AO2 PK WND 28027/0503 T00830067
04850KAOH AOH20160201002014102/01/16 00:20:31  5-MIN KAOH 010520Z AUTO 27018G22KT 9SM BKN013 OVC018 08/06 A2974 1140 86 700 280/18G22 RMK AO2 PK WND 28027/0503 T00830061
04850KAOH AOH20160201002514102/01/16 00:25:31  5-MIN KAOH 010525Z AUTO 27019G25KT 9SM BKN015 OVC080 08/06 A2975 1140 86 600 280/19G25 RMK AO2 PK WND 28027/0503 T00780056
04850KAOH AOH20160201003014902/01/16 00:30:31  5-MIN KAOH 010530Z AUTO 27022G25KT 10SM SCT012 BKN019 OVC080 08/06 A2975 1130 86 600 280/22G25 RMK AO2 PK WND 28027/0503 T00780056
04850KAOH AOH20160201003514202/01/16 00:35:31  5-MIN KAOH 010535Z AUTO 27019G29KT 10SM BKN014 OVC085 08/06 A2976 1130 86 600 280/19G29 RMK AO2 PK WND 26029/0534 T00780056
04850KAOH AOH20160201004014802/01/16 00:40:31  5-MIN KAOH 010540Z AUTO 28019G29KT 9SM BKN014 BKN028 OVC085 08/05 A2976 1130 82 600 290/19G29 RMK AO2 PK WND 26029/0534 T00780050
04850KAOH AOH20160201004514802/01/16 00:45:31  5-MIN KAOH 010545Z AUTO 28020G25KT 9SM BKN014 BKN028 OVC085 07/05 A2976 1120 86 500 280/20G25 RMK AO2 PK WND 26029/0534 T00720050
04850KAOH AOH20160201005013802/01/16 00:50:31  5-MIN KAOH 010550Z AUTO 29017G24KT 9SM BKN015 BKN023 OVC085 07/05 A2977 1120 86 500 290/17G24 RMK AO2 PK WND 26029/0534
04850KAOH AOH20160201005513002/01/16 00:55:31  5-MIN KAOH 010555Z AUTO 29014G24KT 8SM BKN013 BKN023 OVC028 07/05 A2977 1120 86 500 300/14G24 RMK AO2 T00720050
04850KAOH AOH20160201010012402/01/16 01:00:31  5-MIN KAOH 010600Z AUTO 30019KT 7SM SCT010 BKN015 OVC028 07/05 A2977 1110 89 400 300/19 RMK AO2 T00670050
04850KAOH AOH20160201010513902/01/16 01:05:31  5-MIN KAOH 010605Z AUTO 30016KT 5SM BR BKN008 BKN015 OVC028 07/05 A2978 1110 89 400 300/16 RMK AO2 CIG 007V010 T00670050
04850KAOH AOH20160201011013302/01/16 01:10:31  5-MIN KAOH 010610Z AUTO 29015G23KT 4SM BR BKN008 BKN013 OVC026 06/05 A2978 1110 93 300 300/15G23 RMK AO2 T00610050
04850KAOH AOH20160201011512602/01/16 01:15:31  5-MIN KAOH 010615Z AUTO 30016G22KT 4SM BR BKN008 OVC013 06/05 A2979 1100 93 300 300/16G22 RMK AO2 T00610050
04850KAOH AOH20160201012015602/01/16 01:20:31  5-MIN KAOH 010620Z AUTO 29019G26KT 4SM BR BKN008 OVC015 06/04 A2979 1100 89 300 300/19G26 RMK AO2 PK WND 29026/0620 CIG 007V011 T00610044
04850KAOH AOH20160201012515602/01/16 01:25:31  5-MIN KAOH 010625Z AUTO 29019G26KT 5SM BR BKN008 OVC017 06/04 A2979 1100 89 300 300/19G26 RMK AO2 PK WND 29026/0621 CIG 007V011 T00560039
04850KAOH AOH20160201013015102/01/16 01:30:31  5-MIN KAOH 010630Z AUTO 29019G26KT 5SM BR SCT008 BKN011 OVC019 06/04 A2980 1090 89 300 300/19G26 RMK AO2 PK WND 29026/0621 T00560039
04850KAOH AOH20160201013515602/01/16 01:35:31  5-MIN KAOH 010635Z AUTO 30015G26KT 6SM BR BKN011 OVC019 06/03 A2980 1090 85 300 310/15G26 RMK AO2 PK WND 29026/0621 CIG 007V013 T00560033
04850KAOH AOH20160201014015602/01/16 01:40:31  5-MIN KAOH 010640Z AUTO 30015G22KT 5SM BR BKN011 OVC020 06/03 A2980 1090 85 300 300/15G22 RMK AO2 PK WND 29026/0621 CIG 007V013 T00560033
04850KAOH AOH20160201014514402/01/16 01:45:31  5-MIN KAOH 010645Z AUTO 30015G22KT 5SM BR BKN010 OVC020 05/03 A2980 1090 89 200 310/15G22 RMK AO2 PK WND 29026/0621 T00500033
04850KAOH AOH20160201015014502/01/16 01:50:31  5-MIN KAOH 010650Z AUTO 30014KT 5SM BR BKN010 OVC020 05/03 A2981 1080 89 200 310/14 RMK AO2 PK WND 29026/0621 SLP096 T00500033
04850KAOH AOH20160201015512002/01/16 01:55:31  5-MIN KAOH 010655Z AUTO 30014KT 5SM BR BKN010 OVC022 05/03 A2981 1080 89 200 310/14 RMK AO2 T00500033
04850KAOH AOH20160201020012602/01/16 02:00:31  5-MIN KAOH 010700Z AUTO 30016G25KT 5SM BR BKN010 OVC021 05/03 A2981 1080 89 200 310/16G25 RMK AO2 T00500033
04850KAOH AOH20160201020512602/01/16 02:05:31  5-MIN KAOH 010705Z AUTO 29017G25KT 5SM BR BKN011 OVC019 05/03 A2982 1070 89 200 300/17G25 RMK AO2 T00500033
04850KAOH AOH20160201021012002/01/16 02:10:31  5-MIN KAOH 010710Z AUTO 29014KT 5SM BR BKN011 OVC019 05/03 A2982 1070 85 200 300/14 RMK AO2 T00500028
04850KAOH AOH20160201021512002/01/16 02:15:31  5-MIN KAOH 010715Z AUTO 29015KT 5SM BR BKN011 OVC019 04/03 A2983 1060 89 100 300/15 RMK AO2 T00440028
04850KAOH AOH20160201022012002/01/16 02:20:31  5-MIN KAOH 010720Z AUTO 29014KT 5SM BR SCT011 OVC019 04/03 A2983 1060 89 100 300/14 RMK AO2 T00440028
04850KAOH AOH20160201022512002/01/16 02:25:31  5-MIN KAOH 010725Z AUTO 30016KT 5SM BR BKN013 OVC019 04/03 A2983 1060 89 100 300/16 RMK AO2 T00440028
04850KAOH AOH20160201023012002/01/16 02:30:31  5-MIN KAOH 010730Z AUTO 31014KT 6SM BR BKN015 OVC020 04/02 A2983 1060 85 100 310/14 RMK AO2 T00440022
04850KAOH AOH20160201023512002/01/16 02:35:31  5-MIN KAOH 010735Z AUTO 30016KT 6SM BR BKN015 OVC020 04/02 A2984 1060 85 100 310/16 RMK AO2 T00440022
04850KAOH AOH20160201024012602/01/16 02:40:31  5-MIN KAOH 010740Z AUTO 30018G22KT 6SM BR BKN015 OVC020 04/02 A2984 1050 85 100 310/18G22 RMK AO2 T00440022
04850KAOH AOH20160201024512602/01/16 02:45:31  5-MIN KAOH 010745Z AUTO 31015G22KT 6SM BR BKN015 OVC022 04/02 A2984 1050 85 100 310/15G22 RMK AO2 T00440022
04850KAOH AOH20160201025012502/01/16 02:50:31  5-MIN KAOH 010750Z AUTO 31016KT 6SM BR BKN015 BKN022 04/02 A2984 1050 89 0 320/16 RMK AO2 SLP109 T00390022
04850KAOH AOH20160201025510802/01/16 02:55:31  5-MIN KAOH 010755Z AUTO 31015KT 7SM BKN018 04/02 A2984 1050 85 0 310/15 RMK AO2 T00390017
04850KAOH AOH20160201030010802/01/16 03:00:31  5-MIN KAOH 010800Z AUTO 31012KT 7SM OVC018 04/02 A2985 1050 85 0 320/12 RMK AO2 T00390017
04850KAOH AOH20160201030510802/01/16 03:05:31  5-MIN KAOH 010805Z AUTO 31015KT 7SM OVC018 04/02 A2985 1040 85 0 310/15 RMK AO2 T00390017
04850KAOH AOH20160201031010802/01/16 03:10:31  5-MIN KAOH 010810Z AUTO 31013KT 8SM OVC018 04/02 A2985 1040 85 0 310/13 RMK AO2 T00390017
04850KAOH AOH20160201031511502/01/16 03:15:31  5-MIN KAOH 010815Z AUTO 30013KT 8SM BKN018 OVC023 04/02 A2986 1040 85 0 310/13 RMK AO2 T00390017
04850KAOH AOH20160201032010802/01/16 03:20:31  5-MIN KAOH 010820Z AUTO 31012KT 8SM OVC021 03/02 A2986 1030 89 0 310/12 RMK AO2 T00330017
04850KAOH AOH20160201032511502/01/16 03:25:31  5-MIN KAOH 010825Z AUTO 31013KT 8SM BKN018 OVC023 03/02 A2986 1030 89 0 310/13 RMK AO2 T00330017
04850KAOH AOH20160201033010802/01/16 03:30:31  5-MIN KAOH 010830Z AUTO 31011KT 8SM OVC020 03/01 A2986 1030 85 0 310/11 RMK AO2 T00330011
04850KAOH AOH20160201033511502/01/16 03:35:31  5-MIN KAOH 010835Z AUTO 31015KT 9SM BKN022 OVC090 03/01 A2986 1030 82 0 310/15 RMK AO2 T00330006
04850KAOH AOH20160201034011502/01/16 03:40:31  5-MIN KAOH 010840Z AUTO 30012KT 9SM BKN022 OVC090 03/01 A2986 1030 82 0 310/12 RMK AO2 T00330006
04850KAOH AOH20160201034511502/01/16 03:45:31  5-MIN KAOH 010845Z AUTO 30011KT 9SM BKN022 OVC090 03/01 A2987 1030 85 0 310/11 RMK AO2 T00330011
04850KAOH AOH20160201035012802/01/16 03:50:31  5-MIN KAOH 010850Z AUTO 30011KT 9SM BKN023 OVC090 03/01 A2987 1030 85 0 300/11 RMK AO2 SLP117 T00330011 52014
04850KAOH AOH20160201035511802/01/16 03:55:31  5-MIN KAOH 010855Z AUTO 31012KT 9SM BKN023 OVC090 03/01 A2987 1020 82 -100 310/12 RMK AO2 T00330006
04850KAOH AOH20160201040011802/01/16 04:00:31  5-MIN KAOH 010900Z AUTO 31010KT 9SM BKN023 OVC090 03/01 A2987 1020 82 -100 310/10 RMK AO2 T00330006
04850KAOH AOH20160201040511802/01/16 04:05:31  5-MIN KAOH 010905Z AUTO 31011KT 9SM BKN022 BKN090 03/01 A2987 1020 85 -100 320/11 RMK AO2 T00280006
04850KAOH AOH20160201041011202/01/16 04:10:31  5-MIN KAOH 010910Z AUTO 32010KT 10SM BKN022 03/01 A2987 1020 85 -100 320/10 RMK AO2 T00280006
04850KAOH AOH20160201041511202/01/16 04:15:31  5-MIN KAOH 010915Z AUTO 31009KT 10SM BKN022 03/01 A2987 1020 85 -100 320/09 RMK AO2 T00280006
04850KAOH AOH20160201042011202/01/16 04:20:31  5-MIN KAOH 010920Z AUTO 31010KT 10SM BKN021 03/01 A2987 1020 85 -100 320/10 RMK AO2 T00280006
04850KAOH AOH20160201042511202/01/16 04:25:31  5-MIN KAOH 010925Z AUTO 31010KT 10SM SCT021 02/00 A2987 1020 85 -200 320/10 RMK AO2 T00220000
04850KAOH AOH20160201043011202/01/16 04:30:31  5-MIN KAOH 010930Z AUTO 32010KT 10SM SCT021 03/00 A2987 1020 82 -100 320/10 RMK AO2 T00280000
04850KAOH AOH20160201043511202/01/16 04:35:31  5-MIN KAOH 010935Z AUTO 31010KT 10SM SCT021 03/00 A2988 1020 82 -100 320/10 RMK AO2 T00280000
04850KAOH AOH20160201044011202/01/16 04:40:31  5-MIN KAOH 010940Z AUTO 32009KT 10SM BKN021 03/01 A2988 1020 85 -100 320/09 RMK AO2 T00280006
04850KAOH AOH20160201044511202/01/16 04:45:31  5-MIN KAOH 010945Z AUTO 31008KT 10SM BKN021 03/01 A2988 1010 85 -100 320/08 RMK AO2 T00280006
04850KAOH AOH20160201045011902/01/16 04:50:31  5-MIN KAOH 010950Z AUTO 31010KT 10SM BKN021 03/00 A2989 1010 82 -100 320/10 RMK AO2 SLP124 T00280000
04850KAOH AOH20160201045511202/01/16 04:55:31  5-MIN KAOH 010955Z AUTO 32011KT 10SM OVC021 03/00 A2989 1010 82 -100 320/11 RMK AO2 T00280000
04850KAOH AOH20160201050011202/01/16 05:00:31  5-MIN KAOH 011000Z AUTO 31011KT 10SM OVC021 03/00 A2989 1010 82 -100 320/11 RMK AO2 T00280000
04850KAOH AOH20160201050511202/01/16 05:05:31  5-MIN KAOH 011005Z AUTO 31010KT 10SM OVC021 03/00 A2989 1000 82 -100 310/10 RMK AO2 T00280000
04850KAOH AOH20160201051011202/01/16 05:10:31  5-MIN KAOH 011010Z AUTO 32009KT 10SM OVC021 03/00 A2989 1000 82 -100 320/09 RMK AO2 T00280000
04850KAOH AOH20160201051511202/01/16 05:15:31  5-MIN KAOH 011015Z AUTO 32008KT 10SM OVC021 03/00 A2989 1000 82 -100 320/08 RMK AO2 T00280000
04850KAOH AOH20160201052011202/01/16 05:20:31  5-MIN KAOH 011020Z AUTO 33008KT 10SM OVC021 03/00 A2990 1000 82 -200 330/08 RMK AO2 T00280000
04850KAOH AOH20160201052511202/01/16 05:25:31  5-MIN KAOH 011025Z AUTO 31005KT 10SM OVC021 03/00 A2990 1000 82 -200 320/05 RMK AO2 T00280000
04850KAOH AOH20160201053011102/01/16 05:30:31  5-MIN KAOH 011030Z AUTO 31007KT 10SM OVC021 03/00 A2990 990 82 -200 320/07 RMK AO2 T00280000
04850KAOH AOH20160201053511102/01/16 05:35:31  5-MIN KAOH 011035Z AUTO 31007KT 10SM OVC021 03/00 A2991 990 82 -200 320/07 RMK AO2 T00280000
04850KAOH AOH20160201054011202/01/16 05:40:31  5-MIN KAOH 011040Z AUTO 33009KT 10SM OVC020 03/M01 A2991 990 79 -200 330/09 RMK AO2 T00281006
04850KAOH AOH20160201054511202/01/16 05:45:31  5-MIN KAOH 011045Z AUTO 33010KT 10SM OVC020 03/M01 A2991 990 79 -200 330/10 RMK AO2 T00281006
04850KAOH AOH20160201055011902/01/16 05:50:31  5-MIN KAOH 011050Z AUTO 33006KT 10SM OVC020 03/M01 A2991 990 79 -200 330/06 RMK AO2 SLP132 T00281006
04850KAOH AOH20160201055511102/01/16 05:55:31  5-MIN KAOH 011055Z AUTO 33005KT 10SM OVC020 03/00 A2991 980 82 -200 330/05 RMK AO2 T00280000
04850KAOH AOH20160201060011102/01/16 06:00:31  5-MIN KAOH 011100Z AUTO 31005KT 10SM OVC020 03/00 A2992 980 82 -200 320/05 RMK AO2 T00280000
04850KAOH AOH20160201060511102/01/16 06:05:31  5-MIN KAOH 011105Z AUTO 30005KT 10SM OVC020 02/00 A2992 980 85 -200 310/05 RMK AO2 T00220000
04850KAOH AOH20160201061011102/01/16 06:10:31  5-MIN KAOH 011110Z AUTO 31005KT 10SM OVC020 03/00 A2992 980 82 -200 320/05 RMK AO2 T00280000
04850KAOH AOH20160201061511102/01/16 06:15:31  5-MIN KAOH 011115Z AUTO 32006KT 10SM OVC020 03/00 A2992 980 82 -200 330/06 RMK AO2 T00280000
04850KAOH AOH20160201062011102/01/16 06:20:31  5-MIN KAOH 011120Z AUTO 33005KT 10SM OVC020 03/00 A2992 980 82 -200 340/05 RMK AO2 T00280000
04850KAOH AOH20160201062511102/01/16 06:25:31  5-MIN KAOH 011125Z AUTO 33006KT 10SM OVC020 03/00 A2992 980 82 -200 340/06 RMK AO2 T00280000
04850KAOH AOH20160201063011102/01/16 06:30:31  5-MIN KAOH 011130Z AUTO 33005KT 10SM OVC020 03/00 A2992 980 82 -200 340/05 RMK AO2 T00280000
04850KAOH AOH20160201063511102/01/16 06:35:31  5-MIN KAOH 011135Z AUTO 33004KT 10SM OVC020 02/00 A2992 980 85 -200 340/04 RMK AO2 T00220000
04850KAOH AOH20160201064011202/01/16 06:40:31  5-MIN KAOH 011140Z AUTO 34006KT 10SM OVC021 02/M01 A2992 980 82 -300 340/06 RMK AO2 T00221006
04850KAOH AOH20160201064511202/01/16 06:45:31  5-MIN KAOH 011145Z AUTO 33005KT 10SM OVC021 03/M01 A2992 970 79 -200 340/05 RMK AO2 T00281006
04850KAOH AOH20160201065014302/01/16 06:50:31  5-MIN KAOH 011150Z AUTO 32004KT 10SM OVC021 03/M01 A2993 970 79 -200 330/04 RMK AO2 SLP138 70006 T00281006 10072 20022 51033
04850KAOH AOH20160201065511102/01/16 06:55:31  5-MIN KAOH 011155Z AUTO 32004KT 10SM OVC021 02/00 A2993 970 85 -300 330/04 RMK AO2 T00220000
04850KAOH AOH20160201070011102/01/16 07:00:31  5-MIN KAOH 011200Z AUTO 31003KT 10SM OVC021 02/00 A2994 960 85 -300 320/03 RMK AO2 T00220000
04850KAOH AOH20160201070511102/01/16 07:05:31  5-MIN KAOH 011205Z AUTO 31003KT 10SM OVC021 02/00 A2994 960 85 -300 310/03 RMK AO2 T00220000
04850KAOH AOH20160201071011102/01/16 07:10:31  5-MIN KAOH 011210Z AUTO 30003KT 10SM OVC022 02/00 A2994 960 85 -300 300/03 RMK AO2 T00220000
04850KAOH AOH20160201071511102/01/16 07:15:31  5-MIN KAOH 011215Z AUTO 28003KT 10SM OVC022 02/00 A2995 950 85 -300 290/03 RMK AO2 T00220000
04850KAOH AOH20160201072011102/01/16 07:20:31  5-MIN KAOH 011220Z AUTO 28003KT 10SM OVC021 02/00 A2995 950 85 -300 290/03 RMK AO2 T00220000
04850KAOH AOH20160201072511102/01/16 07:25:31  5-MIN KAOH 011225Z AUTO 29003KT 10SM OVC021 02/00 A2995 950 85 -300 300/03 RMK AO2 T00220000
04850KAOH AOH20160201073011102/01/16 07:30:31  5-MIN KAOH 011230Z AUTO 00000KT 10SM OVC021 02/00 A2996 940 85 -300 000/00 RMK AO2 T00220000
04850KAOH AOH20160201073511102/01/16 07:35:31  5-MIN KAOH 011235Z AUTO 00000KT 10SM OVC021 02/00 A2996 940 85 -300 000/00 RMK AO2 T00220000
04850KAOH AOH20160201074011102/01/16 07:40:31  5-MIN KAOH 011240Z AUTO 00000KT 10SM OVC023 02/00 A2996 940 85 -300 000/00 RMK AO2 T00220000
04850KAOH AOH20160201074511102/01/16 07:45:31  5-MIN KAOH 011245Z AUTO 00000KT 10SM OVC023 03/00 A2996 940 82 -200 000/00 RMK AO2 T00280000
04850KAOH AOH20160201075011802/01/16 07:50:31  5-MIN KAOH 011250Z AUTO 00000KT 10SM OVC023 02/00 A2997 930 85 -300 000/00 RMK AO2 SLP151 T00220000
04850KAOH AOH20160201075511102/01/16 07:55:31  5-MIN KAOH 011255Z AUTO 26003KT 10SM OVC023 02/00 A2997 930 85 -300 260/03 RMK AO2 T00220000
04850KAOH AOH20160201080011102/01/16 08:00:31  5-MIN KAOH 011300Z AUTO 00000KT 10SM OVC023 02/00 A2997 940 85 -300 000/00 RMK AO2 T00220000
04850KAOH AOH20160201080511102/01/16 08:05:31  5-MIN KAOH 011305Z AUTO 26003KT 10SM OVC025 02/00 A2997 930 85 -300 260/03 RMK AO2 T00220000
04850KAOH AOH20160201081011102/01/16 08:10:31  5-MIN KAOH 011310Z AUTO 25003KT 10SM OVC025 02/00 A2997 930 85 -300 250/03 RMK AO2 T00220000
04850KAOH AOH20160201081511102/01/16 08:15:31  5-MIN KAOH 011315Z AUTO 24003KT 10SM OVC025 02/00 A2997 930 85 -300 250/03 RMK AO2 T00220000
04850KAOH AOH20160201082011102/01/16 08:20:31  5-MIN KAOH 011320Z AUTO 25003KT 10SM OVC025 02/00 A2997 930 85 -300 260/03 RMK AO2 T00220000
04850KAOH AOH20160201082511102/01/16 08:25:31  5-MIN KAOH 011325Z AUTO 27003KT 10SM OVC025 02/00 A2997 930 85 -300 280/03 RMK AO2 T00220000
04850KAOH AOH20160201083011102/01/16 08:30:31  5-MIN KAOH 011330Z AUTO 25003KT 10SM OVC025 02/00 A2997 930 85 -300 260/03 RMK AO2 T00220000
04850KAOH AOH20160201083511102/01/16 08:35:31  5-MIN KAOH 011335Z AUTO 25003KT 10SM OVC025 02/00 A2997 930 85 -300 260/03 RMK AO2 T00220000
04850KAOH AOH20160201084011102/01/16 08:40:31  5-MIN KAOH 011340Z AUTO 27003KT 10SM OVC025 02/00 A2997 930 85 -300 270/03 RMK AO2 T00220000
04850KAOH AOH20160201084511102/01/16 08:45:31  5-MIN KAOH 011345Z AUTO 00000KT 10SM OVC025 02/00 A2997 930 85 -300 000/00 RMK AO2 T00220000
04850KAOH AOH20160201085011802/01/16 08:50:31  5-MIN KAOH 011350Z AUTO 28003KT 10SM OVC025 03/01 A2998 920 85 -200 280/03 RMK AO2 SLP155 T00280006
04850KAOH AOH20160201085511102/01/16 08:55:31  5-MIN KAOH 011355Z AUTO 28003KT 10SM OVC025 03/01 A2998 920 85 -200 280/03 RMK AO2 T00280006
04850KAOH AOH20160201090011102/01/16 09:00:31  5-MIN KAOH 011400Z AUTO 29003KT 10SM OVC025 03/01 A2998 920 85 -200 290/03 RMK AO2 T00280006
04850KAOH AOH20160201090511102/01/16 09:05:31  5-MIN KAOH 011405Z AUTO 26003KT 10SM OVC024 03/01 A2999 920 85 -200 270/03 RMK AO2 T00330011
04850KAOH AOH20160201091011102/01/16 09:10:31  5-MIN KAOH 011410Z AUTO 24005KT 10SM OVC024 03/01 A2999 920 82 -200 240/05 RMK AO2 T00330006
04850KAOH AOH20160201091511102/01/16 09:15:31  5-MIN KAOH 011415Z AUTO 24004KT 10SM OVC023 03/01 A2999 920 82 -200 240/04 RMK AO2 T00330006
04850KAOH AOH20160201092011102/01/16 09:20:31  5-MIN KAOH 011420Z AUTO 23004KT 10SM OVC023 03/01 A2998 920 82 -200 230/04 RMK AO2 T00330006
04850KAOH AOH20160201092511102/01/16 09:25:31  5-MIN KAOH 011425Z AUTO 25004KT 10SM OVC024 03/01 A2998 920 82 -200 260/04 RMK AO2 T00330006
04850KAOH AOH20160201093011102/01/16 09:30:31  5-MIN KAOH 011430Z AUTO 25004KT 10SM OVC024 03/01 A2999 920 82 -200 260/04 RMK AO2 T00330006
04850KAOH AOH20160201093511102/01/16 09:35:31  5-MIN KAOH 011435Z AUTO 25004KT 10SM BKN024 03/01 A2999 910 82 -200 260/04 RMK AO2 T00330006
04850KAOH AOH20160201094011102/01/16 09:40:31  5-MIN KAOH 011440Z AUTO 25004KT 10SM SCT024 03/01 A2999 910 82 -200 260/04 RMK AO2 T00330006
04850KAOH AOH20160201094511102/01/16 09:45:31  5-MIN KAOH 011445Z AUTO 25005KT 10SM SCT024 04/01 A2999 910 79 -100 260/05 RMK AO2 T00390006
04850KAOH AOH20160201095012402/01/16 09:50:31  5-MIN KAOH 011450Z AUTO 25005KT 10SM FEW024 04/01 A2999 910 79 -100 250/05 RMK AO2 SLP159 T00390006 51021
04850KAOH AOH20160201095511102/01/16 09:55:31  5-MIN KAOH 011455Z AUTO 23003KT 10SM FEW024 04/01 A2999 910 79 -100 240/03 RMK AO2 T00390006
04850KAOH AOH20160201100010802/01/16 10:00:31  5-MIN KAOH 011500Z AUTO 24005KT 10SM CLR 04/01 A2999 910 79 -100 240/05 RMK AO2 T00390006
04850KAOH AOH20160201100510802/01/16 10:05:31  5-MIN KAOH 011505Z AUTO 25004KT 10SM CLR 04/01 A2999 910 79 -100 250/04 RMK AO2 T00390006
04850KAOH AOH20160201101010802/01/16 10:10:31  5-MIN KAOH 011510Z AUTO 23003KT 10SM CLR 04/01 A2999 910 79 -100 240/03 RMK AO2 T00390006
04850KAOH AOH20160201101510802/01/16 10:15:31  5-MIN KAOH 011515Z AUTO VRB03KT 10SM CLR 04/01 A2999 910 79 -100 VRB/03 RMK AO2 T00390006
04850KAOH AOH20160201102010802/01/16 10:20:31  5-MIN KAOH 011520Z AUTO 29003KT 10SM CLR 04/00 A2999 910 76 -100 300/03 RMK AO2 T00390000
04850KAOH AOH20160201102511302/01/16 10:25:31  5-MIN KAOH 011525Z AUTO 30004KT 10SM FEW020 04/00 A2999 910 76 -100 310/04 RMK AO2 T00390000 $
04850KAOH AOH20160201103011302/01/16 10:30:31  5-MIN KAOH 011530Z AUTO 31004KT 10SM FEW020 04/00 A3000 910 76 -100 310/04 RMK AO2 T00390000 $
04850KAOH AOH20160201103511302/01/16 10:35:31  5-MIN KAOH 011535Z AUTO 32003KT 10SM FEW020 04/00 A3000 910 76 -100 320/03 RMK AO2 T00390000 $
04850KAOH AOH20160201104011302/01/16 10:40:31  5-MIN KAOH 011540Z AUTO 30004KT 10SM FEW021 04/00 A3000 910 76 -100 310/04 RMK AO2 T00390000 $
04850KAOH AOH20160201104510802/01/16 10:45:31  5-MIN KAOH 011545Z AUTO 30005KT SCT021 04/01 A3000 900 79 -100 310/05 RMK AO2 T00390006 $
04850KAOH AOH20160201105009802/01/16 10:50:31  5-MIN KAOH 011550Z AUTO 31004KT BKN021 04/00 A3000 900 76 -100 310/04 RMK AO2 $
04850KAOH AOH20160201105510802/01/16 10:55:31  5-MIN KAOH 011555Z AUTO 31005KT BKN022 04/00 A3000 900 76 -100 320/05 RMK AO2 T00390000 $
04850KAOH AOH20160201110010802/01/16 11:00:31  5-MIN KAOH 011600Z AUTO 31004KT BKN022 04/01 A3000 900 76 -100 320/04 RMK AO2 T00440006 $
04850KAOH AOH20160201110510802/01/16 11:05:31  5-MIN KAOH 011605Z AUTO 31006KT BKN022 04/00 A3000 900 73 -100 320/06 RMK AO2 T00440000 $
04850KAOH AOH20160201111011302/01/16 11:10:31  5-MIN KAOH 011610Z AUTO 29003KT 10SM BKN022 04/00 A3001 900 76 -100 300/03 RMK AO2 T00390000 $
04850KAOH AOH20160201111511302/01/16 11:15:31  5-MIN KAOH 011615Z AUTO 30003KT 10SM BKN022 04/00 A3000 900 73 -100 310/03 RMK AO2 T00440000 $
04850KAOH AOH20160201112011302/01/16 11:20:31  5-MIN KAOH 011620Z AUTO 30004KT 10SM SCT022 04/00 A3000 900 73 -100 310/04 RMK AO2 T00440000 $
04850KAOH AOH20160201112511302/01/16 11:25:31  5-MIN KAOH 011625Z AUTO VRB05KT 10SM SCT022 04/00 A3000 900 73 -100 VRB/05 RMK AO2 T00440000 $
04850KAOH AOH20160201113011302/01/16 11:30:31  5-MIN KAOH 011630Z AUTO 33006KT 10SM SCT021 04/00 A3001 900 73 -100 330/06 RMK AO2 T00440000 $
04850KAOH AOH20160201113511302/01/16 11:35:31  5-MIN KAOH 011635Z AUTO 29004KT 10SM SCT021 04/00 A3001 900 73 -100 300/04 RMK AO2 T00440000 $
04850KAOH AOH20160201114011002/01/16 11:40:31  5-MIN KAOH 011640Z AUTO VRB05KT 10SM FEW021 05/01 A3001 890 73 0 VRB/05 RMK AO2 T00500006 $
04850KAOH AOH20160201114511002/01/16 11:45:31  5-MIN KAOH 011645Z AUTO 32003KT 10SM FEW021 05/00 A3001 890 70 0 330/03 RMK AO2 T00500000 $
04850KAOH AOH20160201115011702/01/16 11:50:31  5-MIN KAOH 011650Z AUTO 30003KT 10SM FEW021 05/00 A3002 890 70 0 300/03 RMK AO2 SLP169 T00500000 $
04850KAOH AOH20160201115511002/01/16 11:55:31  5-MIN KAOH 011655Z AUTO 30004KT 10SM FEW021 05/00 A3002 890 70 0 300/04 RMK AO2 T00500000 $
04850KAOH AOH20160201120011002/01/16 12:00:31  5-MIN KAOH 011700Z AUTO 34003KT 10SM FEW022 05/00 A3001 890 70 0 350/03 RMK AO2 T00500000 $
04850KAOH AOH20160201120511002/01/16 12:05:31  5-MIN KAOH 011705Z AUTO 00000KT 10SM FEW022 05/00 A3002 890 70 0 000/00 RMK AO2 T00500000 $
04850KAOH AOH20160201121011002/01/16 12:10:31  5-MIN KAOH 011710Z AUTO 00000KT 10SM FEW022 06/00 A3001 890 67 0 000/00 RMK AO2 T00560000 $
04850KAOH AOH20160201121511002/01/16 12:15:31  5-MIN KAOH 011715Z AUTO VRB03KT 10SM FEW022 06/00 A3002 890 67 0 VRB/03 RMK AO2 T00560000 $
04850KAOH AOH20160201122011102/01/16 12:20:31  5-MIN KAOH 011720Z AUTO VRB03KT 10SM FEW022 05/M01 A3001 890 67 0 VRB/03 RMK AO2 T00501006 $
04850KAOH AOH20160201122510802/01/16 12:25:31  5-MIN KAOH 011725Z AUTO 00000KT 10SM CLR 05/M01 A3001 890 67 0 000/00 RMK AO2 T00501006 $
04850KAOH AOH20160201123010802/01/16 12:30:31  5-MIN KAOH 011730Z AUTO 00000KT 10SM CLR 05/M01 A3001 890 67 0 000/00 RMK AO2 T00501006 $
04850KAOH AOH20160201123510802/01/16 12:35:31  5-MIN KAOH 011735Z AUTO 00000KT 10SM CLR 06/M01 A3001 900 65 0 000/00 RMK AO2 T00561006 $
04850KAOH AOH20160201124010702/01/16 12:40:31  5-MIN KAOH 011740Z AUTO 27003KT 10SM CLR 06/00 A3001 890 67 0 280/03 RMK AO2 T00560000 $
04850KAOH AOH20160201124510802/01/16 12:45:31  5-MIN KAOH 011745Z AUTO VRB03KT 10SM CLR 06/M01 A3001 890 65 0 VRB/03 RMK AO2 T00561006 $
04850KAOH AOH20160201125013202/01/16 12:50:31  5-MIN KAOH 011750Z AUTO 29004KT 10SM CLR 06/00 A3002 890 67 0 290/04 RMK AO2 SLP169 T00560000 10061 20022 51019 $
04850KAOH AOH20160201125510702/01/16 12:55:31  5-MIN KAOH 011755Z AUTO 00000KT 10SM CLR 06/00 A3002 890 67 0 000/00 RMK AO2 T00560000 $
04850KAOH AOH20160201130010802/01/16 13:00:31  5-MIN KAOH 011800Z AUTO 25003KT 10SM CLR 06/M01 A3002 890 65 0 260/03 RMK AO2 T00561006 $
04850KAOH AOH20160201130511102/01/16 13:05:31  5-MIN KAOH 011805Z AUTO 22003KT 10SM FEW025 06/M01 A3002 890 65 0 230/03 RMK AO2 T00561006 $
04850KAOH AOH20160201231011402/01/16 23:10:31  5-MIN KAOH 020410Z AUTO 12003KT 5SM BR CLR M01/M02 A3012 790 96 -900 120/03 RMK AO2 T10111017 $
04850KAOH AOH20160201231511402/01/16 23:15:31  5-MIN KAOH 020415Z AUTO 13003KT 5SM BR CLR M01/M02 A3012 790 92 -900 130/03 RMK AO2 T10111022 $
04850KAOH AOH20160201232011402/01/16 23:20:31  5-MIN KAOH 020420Z AUTO 13003KT 5SM BR CLR M01/M02 A3012 790 92 -900 130/03 RMK AO2 T10111022 $
04850KAOH AOH20160201232511402/01/16 23:25:31  5-MIN KAOH 020425Z AUTO 12003KT 5SM BR CLR M01/M02 A3012 790 92 -900 130/03 RMK AO2 T10111022 $
04850KAOH AOH20160201233011402/01/16 23:30:31  5-MIN KAOH 020430Z AUTO 12004KT 5SM BR CLR M01/M02 A3012 790 92 -800 130/04 RMK AO2 T10061017 $
04850KAOH AOH20160201233511402/01/16 23:35:31  5-MIN KAOH 020435Z AUTO 12003KT 6SM BR CLR M01/M02 A3012 800 92 -800 120/03 RMK AO2 T10061017 $
04850KAOH AOH20160201234011402/01/16 23:40:31  5-MIN KAOH 020440Z AUTO 10003KT 6SM BR CLR M01/M02 A3012 800 92 -900 100/03 RMK AO2 T10111022 $
04850KAOH AOH20160201234511502/01/16 23:45:31  5-MIN KAOH 020445Z AUTO 10003KT 5SM BR CLR M02/M03 A3012 800 96 -1000 100/03 RMK AO2 T10221028 $
04850KAOH AOH20160201235013202/01/16 23:50:31  5-MIN KAOH 020450Z AUTO 09003KT 5SM BR CLR M03/M03 A3012 800 96 -1100 090/03 RMK AO2 SLP207 T10281033 400831028 $
04850KAOH AOH20160201235511502/01/16 23:55:31  5-MIN KAOH 020455Z AUTO 09004KT 4SM BR CLR M02/M03 A3011 800 92 -1000 100/04 RMK AO2 T10221033 $
04850KAOH AOH20160202000011502/02/16 00:00:31  5-MIN KAOH 020500Z AUTO 09004KT 5SM BR CLR M02/M03 A3011 800 92 -1000 090/04 RMK AO2 T10171028 $
04850KAOH AOH20160202000511402/02/16 00:05:31  5-MIN KAOH 020505Z AUTO 09004KT 5SM BR CLR M01/M02 A3011 800 92 -900 100/04 RMK AO2 T10111022 $
04850KAOH AOH20160202001011402/02/16 00:10:31  5-MIN KAOH 020510Z AUTO 09005KT 5SM BR CLR M01/M02 A3011 800 92 -800 090/05 RMK AO2 T10061017 $
04850KAOH AOH20160202001511402/02/16 00:15:31  5-MIN KAOH 020515Z AUTO 09006KT 6SM BR CLR M01/M02 A3011 800 96 -900 090/06 RMK AO2 T10111017 $
04850KAOH AOH20160202002011402/02/16 00:20:31  5-MIN KAOH 020520Z AUTO 09005KT 6SM BR CLR M01/M02 A3011 800 96 -900 100/05 RMK AO2 T10111017 $
04850KAOH AOH20160202002511402/02/16 00:25:31  5-MIN KAOH 020525Z AUTO 09005KT 6SM BR CLR M01/M02 A3011 800 92 -800 100/05 RMK AO2 T10061017 $
04850KAOH AOH20160202003011402/02/16 00:30:31  5-MIN KAOH 020530Z AUTO 09005KT 6SM BR CLR M01/M02 A3011 810 92 -800 090/05 RMK AO2 T10061017 $
04850KAOH AOH20160202003511402/02/16 00:35:31  5-MIN KAOH 020535Z AUTO 08005KT 6SM BR CLR M01/M02 A3011 810 92 -800 090/05 RMK AO2 T10061017 $
04850KAOH AOH20160202004011402/02/16 00:40:31  5-MIN KAOH 020540Z AUTO 08004KT 6SM BR CLR M01/M02 A3011 800 92 -800 090/04 RMK AO2 T10061017 $
04850KAOH AOH20160202004511402/02/16 00:45:31  5-MIN KAOH 020545Z AUTO 07004KT 6SM BR CLR M01/M02 A3010 810 96 -900 070/04 RMK AO2 T10111017 $
04850KAOH AOH20160202005013902/02/16 00:50:31  5-MIN KAOH 020550Z AUTO 07005KT 6SM BR CLR M01/M02 A3010 810 92 -900 070/05 RMK AO2 SLP199 T10111022 10028 21028 53016 $
04850KAOH AOH20160202005511402/02/16 00:55:31  5-MIN KAOH 020555Z AUTO 07005KT 5SM BR CLR M01/M03 A3009 820 88 -900 080/05 RMK AO2 T10111028 $
04850KAOH AOH20160202010011402/02/16 01:00:31  5-MIN KAOH 020600Z AUTO 08006KT 5SM BR CLR M02/M03 A3009 820 92 -900 090/06 RMK AO2 T10171028 $
04850KAOH AOH20160202010511402/02/16 01:05:31  5-MIN KAOH 020605Z AUTO 09005KT 5SM BR CLR M02/M02 A3009 820 96 -900 100/05 RMK AO2 T10171022 $
04850KAOH AOH20160202011011402/02/16 01:10:31  5-MIN KAOH 020610Z AUTO 10005KT 5SM BR CLR M01/M02 A3009 820 92 -900 110/05 RMK AO2 T10111022 $
04850KAOH AOH20160202011511402/02/16 01:15:31  5-MIN KAOH 020615Z AUTO 09006KT 6SM BR CLR M02/M02 A3010 810 96 -900 100/06 RMK AO2 T10171022 $
04850KAOH AOH20160202012011402/02/16 01:20:31  5-MIN KAOH 020620Z AUTO 09004KT 6SM BR CLR M01/M02 A3010 810 92 -900 100/04 RMK AO2 T10111022 $
04850KAOH AOH20160202012511402/02/16 01:25:31  5-MIN KAOH 020625Z AUTO 08004KT 6SM BR CLR M01/M02 A3010 810 92 -800 090/04 RMK AO2 T10061017 $
04850KAOH AOH20160202013011402/02/16 01:30:31  5-MIN KAOH 020630Z AUTO 08005KT 6SM BR CLR M01/M02 A3010 810 92 -800 090/05 RMK AO2 T10061017 $
04850KAOH AOH20160202013511402/02/16 01:35:31  5-MIN KAOH 020635Z AUTO 09005KT 6SM BR CLR M01/M02 A3011 800 92 -800 100/05 RMK AO2 T10061017 $
04850KAOH AOH20160202014011402/02/16 01:40:31  5-MIN KAOH 020640Z AUTO 09005KT 6SM BR CLR M01/M02 A3011 800 92 -800 100/05 RMK AO2 T10061017 $
04850KAOH AOH20160202014511402/02/16 01:45:31  5-MIN KAOH 020645Z AUTO 09005KT 6SM BR CLR M01/M02 A3011 800 92 -800 090/05 RMK AO2 T10061017 $
04850KAOH AOH20160202015012102/02/16 01:50:31  5-MIN KAOH 020650Z AUTO 09004KT 6SM BR CLR M01/M02 A3011 800 92 -800 100/04 RMK AO2 SLP205 T10061017 $
04850KAOH AOH20160202015511402/02/16 01:55:31  5-MIN KAOH 020655Z AUTO 10003KT 6SM BR CLR M01/M02 A3012 790 92 -800 110/03 RMK AO2 T10061017 $
04850KAOH AOH20160202020011402/02/16 02:00:31  5-MIN KAOH 020700Z AUTO 00000KT 6SM BR CLR M01/M02 A3012 790 92 -900 000/00 RMK AO2 T10111022 $
04850KAOH AOH20160202020511402/02/16 02:05:31  5-MIN KAOH 020705Z AUTO 00000KT 6SM BR CLR M01/M02 A3013 790 92 -800 000/00 RMK AO2 T10061017 $
04850KAOH AOH20160202021011402/02/16 02:10:31  5-MIN KAOH 020710Z AUTO 10003KT 6SM BR CLR M01/M02 A3013 790 92 -900 110/03 RMK AO2 T10111022 $
04850KAOH AOH20160202021511402/02/16 02:15:31  5-MIN KAOH 020715Z AUTO 09003KT 6SM BR CLR M01/M02 A3013 780 92 -900 100/03 RMK AO2 T10111022 $
04850KAOH AOH20160202022011402/02/16 02:20:31  5-MIN KAOH 020720Z AUTO 09003KT 6SM BR CLR M01/M02 A3013 780 88 -800 090/03 RMK AO2 T10061022 $
04850KAOH AOH20160202022511402/02/16 02:25:31  5-MIN KAOH 020725Z AUTO 09003KT 6SM BR CLR M01/M02 A3013 780 92 -900 100/03 RMK AO2 T10111022 $
04850KAOH AOH20160202023011502/02/16 02:30:31  5-MIN KAOH 020730Z AUTO 00000KT 5SM BR CLR M02/M03 A3014 780 92 -1000 000/00 RMK AO2 T10171028 $
04850KAOH AOH20160202023511502/02/16 02:35:31  5-MIN KAOH 020735Z AUTO 00000KT 5SM BR CLR M02/M03 A3014 780 88 -1000 000/00 RMK AO2 T10171033 $
04850KAOH AOH20160202024011402/02/16 02:40:31  5-MIN KAOH 020740Z AUTO 00000KT 5SM BR CLR M01/M03 A3014 770 88 -900 000/00 RMK AO2 T10111028 $
04850KAOH AOH20160202024511402/02/16 02:45:31  5-MIN KAOH 020745Z AUTO 00000KT 5SM BR CLR M01/M03 A3015 770 88 -900 000/00 RMK AO2 T10111028 $
04850KAOH AOH20160202025012102/02/16 02:50:31  5-MIN KAOH 020750Z AUTO 00000KT 5SM BR CLR M01/M03 A3015 770 88 -900 000/00 RMK AO2 SLP217 T10111028 $
04850KAOH AOH20160202025511402/02/16 02:55:31  5-MIN KAOH 020755Z AUTO 10003KT 5SM BR CLR M01/M02 A3014 770 88 -900 110/03 RMK AO2 T10061022 $
04850KAOH AOH20160202030011402/02/16 03:00:31  5-MIN KAOH 020800Z AUTO 00000KT 5SM BR CLR M01/M02 A3015 770 96 -900 000/00 RMK AO2 T10111017 $
04850KAOH AOH20160202030511402/02/16 03:05:31  5-MIN KAOH 020805Z AUTO 10003KT 5SM BR CLR M01/M02 A3015 770 92 -900 100/03 RMK AO2 T10061017 $
04850KAOH AOH20160202031011702/02/16 03:10:31  5-MIN KAOH 020810Z AUTO 10003KT 5SM BR FEW120 M01/M02 A3015 770 92 -900 110/03 RMK AO2 T10061017 $
04850KAOH AOH20160202031511702/02/16 03:15:31  5-MIN KAOH 020815Z AUTO 11004KT 5SM BR SCT120 M01/M02 A3015 770 96 -900 120/04 RMK AO2 T10111017 $
04850KAOH AOH20160202032011702/02/16 03:20:31  5-MIN KAOH 020820Z AUTO 11005KT 5SM BR BKN120 M01/M02 A3014 770 92 -900 120/05 RMK AO2 T10111022 $
04850KAOH AOH20160202032511602/02/16 03:25:31  5-MIN KAOH 020825Z AUTO 11006KT 6SM BR BKN120 00/M01 A3015 770 92 -800 120/06 RMK AO2 T00001011 $
04850KAOH AOH20160202033011302/02/16 03:30:31  5-MIN KAOH 020830Z AUTO 11006KT 7SM BKN120 01/M01 A3015 760 89 -700 120/06 RMK AO2 T00061011 $
04850KAOH AOH20160202033511302/02/16 03:35:31  5-MIN KAOH 020835Z AUTO 10006KT 7SM BKN120 01/M01 A3015 770 89 -700 110/06 RMK AO2 T00061011 $
04850KAOH AOH20160202034011602/02/16 03:40:31  5-MIN KAOH 020840Z AUTO 09006KT 6SM BR BKN120 00/M01 A3015 770 92 -800 100/06 RMK AO2 T00001011 $
04850KAOH AOH20160202034511602/02/16 03:45:31  5-MIN KAOH 020845Z AUTO 09007KT 6SM BR SCT120 00/M01 A3014 770 92 -800 100/07 RMK AO2 T00001011 $
04850KAOH AOH20160202035012902/02/16 03:50:31  5-MIN KAOH 020850Z AUTO 09006KT 6SM BR FEW120 00/M01 A3015 770 92 -800 100/06 RMK AO2 SLP215 T00001011 58005 $
04850KAOH AOH20160202035511602/02/16 03:55:31  5-MIN KAOH 020855Z AUTO 09007KT 6SM BR FEW120 00/M01 A3015 770 92 -800 100/07 RMK AO2 T00001011 $
04850KAOH AOH20160202040011302/02/16 04:00:31  5-MIN KAOH 020900Z AUTO 10007KT 6SM BR CLR 00/M01 A3015 770 92 -800 110/07 RMK AO2 T00001011 $
04850KAOH AOH20160202040511602/02/16 04:05:31  5-MIN KAOH 020905Z AUTO 10007KT 6SM BR FEW120 00/M01 A3015 770 92 -800 100/07 RMK AO2 T00001011 $
04850KAOH AOH20160202041011602/02/16 04:10:31  5-MIN KAOH 020910Z AUTO 10006KT 6SM BR SCT120 00/M01 A3015 770 92 -800 110/06 RMK AO2 T00001011 $
04850KAOH AOH20160202041511602/02/16 04:15:31  5-MIN KAOH 020915Z AUTO 10007KT 6SM BR BKN120 00/M01 A3014 770 92 -800 100/07 RMK AO2 T00001011 $
04850KAOH AOH20160202042011602/02/16 04:20:31  5-MIN KAOH 020920Z AUTO 10007KT 6SM BR BKN120 00/M01 A3015 770 92 -800 100/07 RMK AO2 T00001011 $
04850KAOH AOH20160202042510902/02/16 04:25:31  5-MIN KAOH 020925Z AUTO 10006KT BKN120 00/M01 A3015 770 92 -800 100/06 RMK AO2 T00001011 $
04850KAOH AOH20160202043010902/02/16 04:30:31  5-MIN KAOH 020930Z AUTO 10006KT OVC120 00/M01 A3015 770 92 -800 100/06 RMK AO2 T00001011 $
04850KAOH AOH20160202043510902/02/16 04:35:31  5-MIN KAOH 020935Z AUTO 10006KT OVC120 00/M01 A3015 770 92 -800 100/06 RMK AO2 T00001011 $
04850KAOH AOH20160202044010902/02/16 04:40:31  5-MIN KAOH 020940Z AUTO 09006KT OVC120 00/M01 A3015 770 92 -800 100/06 RMK AO2 T00001011 $
04850KAOH AOH20160202044511602/02/16 04:45:31  5-MIN KAOH 020945Z AUTO 09006KT 5SM BR OVC120 00/M01 A3015 770 92 -800 100/06 RMK AO2 T00001011 $
04850KAOH AOH20160202045012302/02/16 04:50:31  5-MIN KAOH 020950Z AUTO 09007KT 5SM BR OVC120 00/M01 A3015 770 92 -800 100/07 RMK AO2 SLP216 T00001011 $
04850KAOH AOH20160202045511602/02/16 04:55:31  5-MIN KAOH 020955Z AUTO 10006KT 6SM BR OVC110 00/M01 A3015 760 92 -800 100/06 RMK AO2 T00001011 $
04850KAOH AOH20160202050011602/02/16 05:00:31  5-MIN KAOH 021000Z AUTO 10006KT 6SM BR OVC110 00/M01 A3015 770 92 -800 110/06 RMK AO2 T00001011 $
04850KAOH AOH20160202050511602/02/16 05:05:31  5-MIN KAOH 021005Z AUTO 10007KT 6SM BR OVC110 00/M01 A3015 770 92 -800 110/07 RMK AO2 T00001011 $
04850KAOH AOH20160202051011602/02/16 05:10:31  5-MIN KAOH 021010Z AUTO 10007KT 6SM BR OVC110 01/M01 A3015 770 89 -700 110/07 RMK AO2 T00061011 $
04850KAOH AOH20160202051511602/02/16 05:15:31  5-MIN KAOH 021015Z AUTO 10008KT 6SM BR OVC110 01/M01 A3014 770 92 -700 100/08 RMK AO2 T00061006 $
04850KAOH AOH20160202052011602/02/16 05:20:31  5-MIN KAOH 021020Z AUTO 10008KT 6SM BR OVC110 01/M01 A3014 770 92 -700 110/08 RMK AO2 T00061006 $
04850KAOH AOH20160202052511602/02/16 05:25:31  5-MIN KAOH 021025Z AUTO 10007KT 6SM BR OVC110 01/M01 A3014 770 92 -700 110/07 RMK AO2 T00061006 $
04850KAOH AOH20160202053011602/02/16 05:30:31  5-MIN KAOH 021030Z AUTO 10008KT 6SM BR OVC110 01/M01 A3014 780 92 -700 110/08 RMK AO2 T00061006 $
04850KAOH AOH20160202053511602/02/16 05:35:31  5-MIN KAOH 021035Z AUTO 10007KT 6SM BR OVC110 01/M01 A3014 770 92 -700 110/07 RMK AO2 T00061006 $
04850KAOH AOH20160202054011602/02/16 05:40:31  5-MIN KAOH 021040Z AUTO 10008KT 6SM BR OVC110 01/M01 A3014 770 92 -700 110/08 RMK AO2 T00061006 $
04850KAOH AOH20160202054511602/02/16 05:45:31  5-MIN KAOH 021045Z AUTO 11007KT 6SM BR OVC110 01/M01 A3014 770 92 -700 120/07 RMK AO2 T00061006 $
04850KAOH AOH20160202055012302/02/16 05:50:31  5-MIN KAOH 021050Z AUTO 11008KT 6SM BR OVC110 01/M01 A3014 770 92 -700 110/08 RMK AO2 SLP216 T00061006 $
04850KAOH AOH20160202055511602/02/16 05:55:31  5-MIN KAOH 021055Z AUTO 11007KT 6SM BR OVC110 01/M01 A3015 770 92 -700 120/07 RMK AO2 T00061006 $
04850KAOH AOH20160202060011602/02/16 06:00:31  5-MIN KAOH 021100Z AUTO 11008KT 6SM BR OVC110 01/M01 A3014 770 89 -700 120/08 RMK AO2 T00061011 $
04850KAOH AOH20160202060511602/02/16 06:05:31  5-MIN KAOH 021105Z AUTO 12010KT 6SM BR BKN110 01/M01 A3014 770 89 -700 130/10 RMK AO2 T00061011 $
04850KAOH AOH20160202061011602/02/16 06:10:31  5-MIN KAOH 021110Z AUTO 12009KT 6SM BR BKN110 01/M01 A3015 770 89 -700 130/09 RMK AO2 T00061011 $
04850KAOH AOH20160202061511302/02/16 06:15:31  5-MIN KAOH 021115Z AUTO 13010KT 7SM SCT110 01/M01 A3015 770 89 -700 130/10 RMK AO2 T00061011 $
04850KAOH AOH20160202062011302/02/16 06:20:31  5-MIN KAOH 021120Z AUTO 13008KT 7SM FEW100 01/M01 A3015 760 89 -700 130/08 RMK AO2 T00061011 $
04850KAOH AOH20160202062511302/02/16 06:25:31  5-MIN KAOH 021125Z AUTO 12009KT 7SM FEW100 01/M01 A3015 770 89 -700 130/09 RMK AO2 T00061011 $
04850KAOH AOH20160202063011002/02/16 06:30:31  5-MIN KAOH 021130Z AUTO 12009KT 7SM CLR 01/M01 A3014 770 89 -700 120/09 RMK AO2 T00061011 $
04850KAOH AOH20160202063511002/02/16 06:35:31  5-MIN KAOH 021135Z AUTO 12009KT 7SM CLR 01/M01 A3015 770 89 -700 130/09 RMK AO2 T00061011 $
04850KAOH AOH20160202064011002/02/16 06:40:31  5-MIN KAOH 021140Z AUTO 12008KT 7SM CLR 01/M01 A3014 770 89 -700 120/08 RMK AO2 T00061011 $
04850KAOH AOH20160202064511002/02/16 06:45:31  5-MIN KAOH 021145Z AUTO 12008KT 7SM CLR 01/M01 A3015 770 89 -700 120/08 RMK AO2 T00061011 $
04850KAOH AOH20160202065013502/02/16 06:50:31  5-MIN KAOH 021150Z AUTO 11009KT 7SM CLR 01/M01 A3014 770 89 -700 120/09 RMK AO2 SLP215 T00061011 10006 21017 51016 $
04850KAOH AOH20160202065511002/02/16 06:55:31  5-MIN KAOH 021155Z AUTO 12010KT 7SM CLR 01/M01 A3014 770 89 -700 120/10 RMK AO2 T00061011 $
04850KAOH AOH20160202070011002/02/16 07:00:31  5-MIN KAOH 021200Z AUTO 11007KT 7SM CLR 01/M01 A3014 780 89 -700 110/07 RMK AO2 T00061011 $
04850KAOH AOH20160202070511002/02/16 07:05:31  5-MIN KAOH 021205Z AUTO 10007KT 7SM CLR 00/M02 A3014 770 88 -800 110/07 RMK AO2 T00001017 $
04850KAOH AOH20160202071011302/02/16 07:10:31  5-MIN KAOH 021210Z AUTO 11007KT 6SM BR CLR 00/M02 A3014 770 88 -800 110/07 RMK AO2 T00001017 $
04850KAOH AOH20160202071511302/02/16 07:15:31  5-MIN KAOH 021215Z AUTO 10008KT 6SM BR CLR 00/M02 A3014 770 88 -800 110/08 RMK AO2 T00001017 $
04850KAOH AOH20160202072011302/02/16 07:20:31  5-MIN KAOH 021220Z AUTO 10007KT 6SM BR CLR 00/M02 A3014 770 88 -800 110/07 RMK AO2 T00001017 $
04850KAOH AOH20160202072511302/02/16 07:25:31  5-MIN KAOH 021225Z AUTO 10008KT 6SM BR CLR 00/M02 A3014 770 88 -800 110/08 RMK AO2 T00001017 $
04850KAOH AOH20160202073011302/02/16 07:30:31  5-MIN KAOH 021230Z AUTO 10008KT 6SM BR CLR 00/M02 A3014 770 88 -800 110/08 RMK AO2 T00001017 $
04850KAOH AOH20160202073511302/02/16 07:35:31  5-MIN KAOH 021235Z AUTO 10007KT 6SM BR CLR 00/M02 A3014 770 88 -800 110/07 RMK AO2 T00001017 $
04850KAOH AOH20160202074011302/02/16 07:40:31  5-MIN KAOH 021240Z AUTO 10008KT 6SM BR CLR 00/M02 A3014 770 88 -800 110/08 RMK AO2 T00001017 $
04850KAOH AOH20160202074511302/02/16 07:45:31  5-MIN KAOH 021245Z AUTO 10010KT 6SM BR CLR 00/M02 A3013 780 88 -800 100/10 RMK AO2 T00001017 $
04850KAOH AOH20160202075012002/02/16 07:50:31  5-MIN KAOH 021250Z AUTO 10010KT 5SM BR CLR 00/M02 A3013 780 88 -800 100/10 RMK AO2 SLP212 T00001017 $
04850KAOH AOH20160202075511302/02/16 07:55:31  5-MIN KAOH 021255Z AUTO 10009KT 5SM BR CLR 00/M02 A3013 780 88 -800 110/09 RMK AO2 T00001017 $
04850KAOH AOH20160202080011302/02/16 08:00:31  5-MIN KAOH 021300Z AUTO 11009KT 5SM BR CLR 00/M01 A3013 780 92 -800 110/09 RMK AO2 T00001011 $
04850KAOH AOH20160202080511302/02/16 08:05:31  5-MIN KAOH 021305Z AUTO 10010KT 6SM BR CLR 00/M01 A3013 780 92 -800 110/10 RMK AO2 T00001011 $
04850KAOH AOH20160202081011302/02/16 08:10:31  5-MIN KAOH 021310Z AUTO 10009KT 6SM BR CLR 00/M01 A3013 780 92 -800 110/09 RMK AO2 T00001011 $
04850KAOH AOH20160202081511302/02/16 08:15:31  5-MIN KAOH 021315Z AUTO 10007KT 6SM BR CLR 00/M01 A3013 780 92 -800 110/07 RMK AO2 T00001011 $
04850KAOH AOH20160202082011302/02/16 08:20:31  5-MIN KAOH 021320Z AUTO 10011KT 5SM BR CLR 00/M01 A3012 790 92 -800 100/11 RMK AO2 T00001011 $
04850KAOH AOH20160202082511302/02/16 08:25:31  5-MIN KAOH 021325Z AUTO 10011KT 5SM BR CLR 00/M02 A3012 790 88 -800 100/11 RMK AO2 T00001017 $
04850KAOH AOH20160202083011302/02/16 08:30:31  5-MIN KAOH 021330Z AUTO 10010KT 5SM BR CLR 00/M01 A3013 790 92 -800 110/10 RMK AO2 T00001011 $
04850KAOH AOH20160202083511102/02/16 08:35:31  5-MIN KAOH 021335Z AUTO 10010KT 5SM BR CLR 00/M01 A3013 780 92 -800 110/10 RMK AO2 T00001011
04850KAOH AOH20160202084010602/02/16 08:40:31  5-MIN KAOH 021340Z AUTO 11009KT CLR 01/M01 A3013 780 89 -700 110/09 RMK AO2 T00061011 $
04850KAOH AOH20160202084510602/02/16 08:45:31  5-MIN KAOH 021345Z AUTO 10010KT CLR 01/M01 A3013 780 89 -700 110/10 RMK AO2 T00061011 $
04850KAOH AOH20160202085012002/02/16 08:50:31  5-MIN KAOH 021350Z AUTO 10010KT 5SM BR CLR 01/M01 A3013 780 89 -700 110/10 RMK AO2 SLP212 T00061011 $
04850KAOH AOH20160202085511302/02/16 08:55:31  5-MIN KAOH 021355Z AUTO 11009KT 5SM BR CLR 01/M01 A3013 780 85 -600 110/09 RMK AO2 T00111011 $
04850KAOH AOH20160202090011302/02/16 09:00:31  5-MIN KAOH 021400Z AUTO 11009KT 5SM BR CLR 01/M01 A3013 780 85 -600 110/09 RMK AO2 T00111011 $
04850KAOH AOH20160202090511302/02/16 09:05:31  5-MIN KAOH 021405Z AUTO 11009KT 5SM BR CLR 01/M01 A3013 780 89 -600 110/09 RMK AO2 T00111006 $
04850KAOH AOH20160202091011302/02/16 09:10:31  5-MIN KAOH 021410Z AUTO 10011KT 5SM BR CLR 01/M01 A3013 790 89 -600 110/11 RMK AO2 T00111006 $
04850KAOH AOH20160202091510602/02/16 09:15:31  5-MIN KAOH 021415Z AUTO 11008KT CLR 01/M01 A3013 790 89 -600 110/08 RMK AO2 T00111006 $
04850KAOH AOH20160202092010602/02/16 09:20:31  5-MIN KAOH 021420Z AUTO 11010KT CLR 01/M01 A3013 790 89 -600 110/10 RMK AO2 T00111006 $
04850KAOH AOH20160202092510602/02/16 09:25:31  5-MIN KAOH 021425Z AUTO 11009KT CLR 01/M01 A3012 790 89 -600 110/09 RMK AO2 T00111006 $
04850KAOH AOH20160202093010602/02/16 09:30:31  5-MIN KAOH 021430Z AUTO 11009KT CLR 02/M01 A3012 790 85 -500 110/09 RMK AO2 T00171006 $
04850KAOH AOH20160202093510602/02/16 09:35:31  5-MIN KAOH 021435Z AUTO 11008KT CLR 02/M01 A3012 790 85 -500 110/08 RMK AO2 T00171006 $
04850KAOH AOH20160202094010602/02/16 09:40:31  5-MIN KAOH 021440Z AUTO 10010KT CLR 02/M01 A3012 790 85 -500 110/10 RMK AO2 T00171006 $
04850KAOH AOH20160202094510602/02/16 09:45:31  5-MIN KAOH 021445Z AUTO 11009KT CLR 02/M01 A3012 790 85 -600 110/09 RMK AO2 T00171006 $
04850KAOH AOH20160202095011902/02/16 09:50:31  5-MIN KAOH 021450Z AUTO 11010KT CLR 02/M01 A3013 790 85 -600 120/10 RMK AO2 SLP211 T00171006 58002 $
04850KAOH AOH20160202095510502/02/16 09:55:31  5-MIN KAOH 021455Z AUTO 12011KT CLR 02/00 A3012 790 85 -500 120/11 RMK AO2 T00220000 $
04850KAOH AOH20160202100010502/02/16 10:00:31  5-MIN KAOH 021500Z AUTO 11011KT CLR 02/00 A3012 790 85 -500 120/11 RMK AO2 T00220000 $
04850KAOH AOH20160202100511202/02/16 10:05:31  5-MIN KAOH 021505Z AUTO 11012G18KT CLR 02/M01 A3011 800 82 -500 120/12G18 RMK AO2 T00221006 $
04850KAOH AOH20160202101010602/02/16 10:10:31  5-MIN KAOH 021510Z AUTO 11013KT CLR 02/M01 A3011 800 82 -500 120/13 RMK AO2 T00221006 $
04850KAOH AOH20160202101511102/02/16 10:15:31  5-MIN KAOH 021515Z AUTO 11011G19KT CLR 03/00 A3011 810 82 -400 120/11G19 RMK AO2 T00280000 $
04850KAOH AOH20160202102010502/02/16 10:20:31  5-MIN KAOH 021520Z AUTO 11011KT CLR 03/00 A3010 810 82 -400 120/11 RMK AO2 T00280000 $
04850KAOH AOH20160202102510502/02/16 10:25:31  5-MIN KAOH 021525Z AUTO 12011KT CLR 03/00 A3010 810 82 -400 120/11 RMK AO2 T00280000 $
04850KAOH AOH20160202103010502/02/16 10:30:31  5-MIN KAOH 021530Z AUTO 11012KT CLR 03/00 A3010 810 79 -300 120/12 RMK AO2 T00330000 $
04850KAOH AOH20160202103510502/02/16 10:35:31  5-MIN KAOH 021535Z AUTO 12012KT CLR 03/00 A3010 810 79 -300 120/12 RMK AO2 T00330000 $
04850KAOH AOH20160202104011102/02/16 10:40:31  5-MIN KAOH 021540Z AUTO 11013G20KT CLR 03/00 A3010 810 79 -300 120/13G20 RMK AO2 T00330000 $
04850KAOH AOH20160202104511102/02/16 10:45:31  5-MIN KAOH 021545Z AUTO 11012G20KT CLR 04/00 A3009 820 76 -200 110/12G20 RMK AO2 T00390000 $
04850KAOH AOH20160202105011802/02/16 10:50:31  5-MIN KAOH 021550Z AUTO 11013G20KT CLR 04/01 A3009 820 79 -200 110/13G20 RMK AO2 SLP197 T00390006 $
04850KAOH AOH20160202105511102/02/16 10:55:31  5-MIN KAOH 021555Z AUTO 11012G20KT CLR 04/01 A3009 820 76 -200 120/12G20 RMK AO2 T00440006 $
04850KAOH AOH20160202110011102/02/16 11:00:31  5-MIN KAOH 021600Z AUTO 12013G19KT CLR 04/01 A3009 820 76 -200 120/13G19 RMK AO2 T00440006 $
04850KAOH AOH20160202110511102/02/16 11:05:31  5-MIN KAOH 021605Z AUTO 12014G19KT CLR 04/01 A3009 820 76 -200 130/14G19 RMK AO2 T00440006 $
04850KAOH AOH20160202221515002/02/16 22:15:31  5-MIN KAOH 030315Z AUTO 16024G33KT 5SM -RA BR OVC090 12/11 A2962 1250 93 1300 160/24G33 RMK AO2 PK WND 17033/0309 P0004 T01220111 $
04850KAOH AOH20160202222015002/02/16 22:20:31  5-MIN KAOH 030320Z AUTO 16024G31KT 5SM -RA BR OVC090 12/12 A2962 1260 96 1300 160/24G31 RMK AO2 PK WND 17033/0309 P0005 T01220117 $
04850KAOH AOH20160202222515002/02/16 22:25:31  5-MIN KAOH 030325Z AUTO 16020G31KT 6SM -RA BR OVC090 12/12 A2962 1260 96 1300 170/20G31 RMK AO2 PK WND 17033/0309 P0005 T01220117 $
04850KAOH AOH20160202223014902/02/16 22:30:31  5-MIN KAOH 030330Z AUTO 16022G31KT 6SM RA BR OVC090 12/12 A2963 1250 96 1300 170/22G31 RMK AO2 PK WND 17033/0309 P0007 T01220117 $
04850KAOH AOH20160202223515602/02/16 22:35:31  5-MIN KAOH 030335Z AUTO 16023G32KT 4SM RA BR SCT075 OVC090 12/12 A2963 1250 96 1300 170/23G32 RMK AO2 PK WND 17033/0309 P0008 T01220117 $
04850KAOH AOH20160202224015602/02/16 22:40:31  5-MIN KAOH 030340Z AUTO 16021G32KT 4SM RA BR BKN080 OVC095 12/12 A2963 1250 96 1300 170/21G32 RMK AO2 PK WND 17033/0309 P0010 T01220117 $
04850KAOH AOH20160202224516302/02/16 22:45:31  5-MIN KAOH 030345Z AUTO 17019G28KT 3SM RA BR FEW021 BKN075 OVC095 12/12 A2963 1240 96 1200 180/19G28 RMK AO2 PK WND 17033/0309 P0012 T01220117 $
04850KAOH AOH20160202225017002/02/16 22:50:31  5-MIN KAOH 030350Z AUTO 17019G28KT 3SM RA BR SCT020 BKN075 OVC095 12/12 A2963 1250 96 1200 170/19G28 RMK AO2 PK WND 17033/0309 SLP036 P0014 T01220117 $
04850KAOH AOH20160202225514502/02/16 22:55:31  5-MIN KAOH 030355Z AUTO 16017G26KT 4SM RA BR FEW020 BKN055 OVC080 12/12 A2962 1260 96 1300 170/17G26 RMK AO2 P0001 T01220117 $
04850KAOH AOH20160202230016302/02/16 23:00:31  5-MIN KAOH 030400Z AUTO 16017G29KT 4SM RA BR FEW020 SCT055 OVC070 12/12 A2962 1260 96 1300 170/17G29 RMK AO2 PK WND 15029/0358 P0002 T01220117 $
04850KAOH AOH20160202230517002/02/16 23:05:31  5-MIN KAOH 030405Z AUTO 15021G29KT 3SM RA BR FEW020 SCT055 OVC070 12/12 A2961 1270 96 1300 160/21G29 RMK AO2 PK WND 15029/0358 PRESFR P0005 T01220117 $
04850KAOH AOH20160202231017402/02/16 23:10:31  5-MIN KAOH 030410Z AUTO 15028G36KT 2 1/2SM RA BR FEW022 SCT048 OVC070 12/12 A2960 1270 96 1300 150/28G36 RMK AO2 PK WND 16036/0410 PRESFR P0009 T01220117 $
04850KAOH AOH20160202231516902/02/16 23:15:31  5-MIN KAOH 030415Z AUTO 16018G36KT 1 1/2SM +RA BR FEW016 BKN041 OVC070 12/12 A2961 1270 100 1300 170/18G36 RMK AO2 PK WND 16036/0410 P0015 T01220122 $
04850KAOH AOH20160202232016402/02/16 23:20:31  5-MIN KAOH 030420Z AUTO 16011G34KT 2SM RA BR FEW009 BKN043 OVC070 12/12 A2960 1270 100 1300 170/11G34 RMK AO2 PK WND 16036/0410 P0016 T01220122 $
04850KAOH AOH20160202232515902/02/16 23:25:31  5-MIN KAOH 030425Z AUTO 16012KT 4SM -RA BR FEW009 BKN035 OVC070 12/12 A2960 1270 100 1300 160/12 RMK AO2 PK WND 16036/0410 P0017 T01220122 $
04850KAOH AOH20160202233015802/02/16 23:30:31  5-MIN KAOH 030430Z AUTO 15011KT 4SM RA BR FEW009 BKN035 OVC065 12/12 A2959 1280 100 1300 150/11 RMK AO2 PK WND 16036/0410 P0018 T01220122 $
04850KAOH AOH20160202233515902/02/16 23:35:31  5-MIN KAOH 030435Z AUTO 15009KT 5SM -RA BR SCT009 BKN025 OVC034 12/12 A2959 1280 100 1300 160/09 RMK AO2 PK WND 16036/0410 P0018 T01220122 $
04850KAOH AOH20160202234015602/02/16 23:40:31  5-MIN KAOH 030440Z AUTO 16012KT 7SM -RA SCT009 BKN014 OVC034 12/12 A2959 1280 100 1300 160/12 RMK AO2 PK WND 16036/0410 P0018 T01220122 $
04850KAOH AOH20160202234517402/02/16 23:45:31  5-MIN KAOH 030445Z AUTO 15013G17KT 7SM -RA BKN009 BKN020 OVC034 12/12 A2959 1290 100 1300 160/13G17 RMK AO2 PK WND 16036/0410 CIG 007V015 P0019 T01220122 $
04850KAOH AOH20160202235018802/02/16 23:50:31  5-MIN KAOH 030450Z AUTO 15012KT 6SM -RA BR BKN009 BKN016 OVC023 12/12 A2958 1300 100 1300 160/12 RMK AO2 PK WND 16036/0410 CIG 007V013 SLP018 P0019 T01220122 401281017 $
04850KAOH AOH20160202235514102/02/16 23:55:31  5-MIN KAOH 030455Z AUTO 16011KT 6SM -RA BR BKN011 BKN016 OVC023 12/12 A2958 1290 100 1300 160/11 RMK AO2 P0000 T01220122 $
04850KAOH AOH20160203000013402/03/16 00:00:31  5-MIN KAOH 030500Z AUTO 16013KT 6SM -RA BR BKN011 OVC020 12/12 A2958 1290 100 1300 170/13 RMK AO2 P0001 T01220122 $
04850KAOH AOH20160203000513302/03/16 00:05:31  5-MIN KAOH 030505Z AUTO 16013KT 5SM RA BR BKN011 OVC018 12/12 A2958 1290 100 1300 170/13 RMK AO2 P0003 T01220122 $
04850KAOH AOH20160203001013202/03/16 00:10:31  5-MIN KAOH 030510Z AUTO 16011KT 4SM RA BR BKN011 OVC016 13/12 A2958 1290 96 1400 160/11 RMK AO2 P0006 T01280122 $
04850KAOH AOH20160203001514502/03/16 00:15:31  5-MIN KAOH 030515Z AUTO 18011KT 2 1/2SM +RA BR FEW009 BKN013 OVC019 12/12 A2958 1290 100 1300 180/11 RMK AO2 P0012 T01220122 $
04850KAOH AOH20160203002014902/03/16 00:20:31  5-MIN KAOH 030520Z AUTO 26009KT 2 1/2SM RA BR BKN010 OVC014 13/13 A2959 1280 100 1400 270/09 RMK AO2 CIG 006V011 P0013 T01280128 $
04850KAOH AOH20160203002515602/03/16 00:25:31  5-MIN KAOH 030525Z AUTO 27013KT 2 1/2SM RA BR BKN008 OVC014 12/12 A2960 1270 100 1300 270/13 RMK AO2 CIG 006V011 PRESRR P0019 T01220122 $
04850KAOH AOH20160203003015102/03/16 00:30:31  5-MIN KAOH 030530Z AUTO 17013G20KT 1 1/4SM +RA BR BKN006 BKN012 OVC022 13/13 A2957 1300 100 1400 180/13G20 RMK AO2 P0034 T01280128 $
04850KAOH AOH20160203003516702/03/16 00:35:31  5-MIN KAOH 030535Z AUTO 20010G20KT 160V240 1 1/4SM +RA BR FEW006 BKN018 OVC028 13/13 A2960 1280 100 1400 210/10G20 170V250 RMK AO2 P0038 T01280128 $
04850KAOH AOH20160203004015002/03/16 00:40:31  5-MIN KAOH 030540Z AUTO 24010G20KT 2 1/2SM RA BR SCT008 BKN015 OVC030 13/13 A2960 1270 100 1300 240/10G20 RMK AO2 P0041 T01280128 $
04850KAOH AOH20160203004514502/03/16 00:45:31  5-MIN KAOH 030545Z AUTO 17014KT 2 1/2SM +RA BR FEW008 BKN016 OVC031 13/13 A2958 1300 100 1400 170/14 RMK AO2 P0046 T01280128 $
04850KAOH AOH20160203005013302/03/16 00:50:31  5-MIN KAOH 030550Z AUTO 16013KT 2 1/2SM RA BR SCT013 BKN032 OVC060 13/12 A2957 1300 96 1400 170/13 RMK AO2 P0048 $
04850KAOH AOH20160203005514102/03/16 00:55:31  5-MIN KAOH 030555Z AUTO 19010KT 4SM -RA BR SCT018 BKN034 OVC075 13/13 A2958 1290 100 1400 200/10 RMK AO2 P0000 T01280128 $
04850KAOH AOH20160203010013802/03/16 01:00:31  5-MIN KAOH 030600Z AUTO 17009KT 8SM -RA SCT015 BKN024 OVC060 13/13 A2957 1300 100 1400 180/09 RMK AO2 P0000 T01280128 $
04850KAOH AOH20160203010513802/03/16 01:05:31  5-MIN KAOH 030605Z AUTO 15013KT 9SM -RA BKN017 BKN032 OVC060 13/13 A2956 1310 100 1400 150/13 RMK AO2 P0001 T01280128 $
04850KAOH AOH20160203011014402/03/16 01:10:31  5-MIN KAOH 030610Z AUTO 15015G20KT 9SM -RA BKN019 BKN040 OVC070 13/13 A2955 1320 100 1400 150/15G20 RMK AO2 P0001 T01280128 $
04850KAOH AOH20160203011514402/03/16 01:15:31  5-MIN KAOH 030615Z AUTO 15012G20KT 10SM -RA SCT014 BKN021 OVC065 13/12 A2955 1320 96 1400 160/12G20 RMK AO2 P0001 T01280122 $
04850KAOH AOH20160203012014502/03/16 01:20:31  5-MIN KAOH 030620Z AUTO 16009G18KT 10SM -RA BKN014 BKN021 OVC060 13/13 A2955 1320 100 1400 170/09G18 RMK AO2 P0001 T01280128 $
04850KAOH AOH20160203012513402/03/16 01:25:31  5-MIN KAOH 030625Z AUTO 15013KT 10SM BKN014 OVC021 13/13 A2954 1330 100 1400 160/13 RMK AO2 RAE23 P0001 T01280128 $
04850KAOH AOH20160203013013402/03/16 01:30:31  5-MIN KAOH 030630Z AUTO 16011KT 10SM BKN014 OVC021 13/13 A2954 1330 100 1400 160/11 RMK AO2 RAE23 P0001 T01280128 $
04850KAOH AOH20160203013514802/03/16 01:35:31  5-MIN KAOH 030635Z AUTO 15015KT 10SM FEW010 BKN014 OVC019 13/13 A2953 1340 100 1400 160/15 RMK AO2 RAE23 PRESFR P0001 T01280128 $
04850KAOH AOH20160203014013402/03/16 01:40:31  5-MIN KAOH 030640Z AUTO 16015KT 10SM SCT014 OVC021 13/13 A2952 1350 100 1400 160/15 RMK AO2 RAE23 P0001 T01280128 $
04850KAOH AOH20160203014513402/03/16 01:45:31  5-MIN KAOH 030645Z AUTO 16015KT 10SM BKN014 BKN021 13/13 A2953 1340 100 1400 170/15 RMK AO2 RAE23 P0001 T01280128 $
04850KAOH AOH20160203015014102/03/16 01:50:31  5-MIN KAOH 030650Z AUTO 16015KT 10SM BKN014 BKN021 13/13 A2953 1340 100 1400 170/15 RMK AO2 RAE23 SLP999 P0001 T01280128 $
04850KAOH AOH20160203015512202/03/16 01:55:31  5-MIN KAOH 030655Z AUTO 16014KT 10SM SCT014 BKN021 13/13 A2952 1350 100 1400 170/14 RMK AO2 T01280128 $
04850KAOH AOH20160203020012902/03/16 02:00:31  5-MIN KAOH 030700Z AUTO 17014KT 10SM SCT016 SCT021 SCT070 13/13 A2953 1340 100 1400 170/14 RMK AO2 T01280128 $
04850KAOH AOH20160203020512902/03/16 02:05:31  5-MIN KAOH 030705Z AUTO 17014KT 10SM SCT016 SCT041 BKN070 13/13 A2953 1340 100 1400 170/14 RMK AO2 T01280128 $
04850KAOH AOH20160203021012902/03/16 02:10:31  5-MIN KAOH 030710Z AUTO 17014KT 10SM FEW016 SCT041 BKN075 13/13 A2952 1350 100 1400 170/14 RMK AO2 T01280128 $
04850KAOH AOH20160203021512902/03/16 02:15:31  5-MIN KAOH 030715Z AUTO 16014KT 10SM FEW014 SCT035 BKN044 13/13 A2952 1350 100 1400 170/14 RMK AO2 T01280128 $
04850KAOH AOH20160203022012202/03/16 02:20:31  5-MIN KAOH 030720Z AUTO 16015KT 10SM BKN037 BKN070 13/13 A2952 1350 100 1400 170/15 RMK AO2 T01280128 $
04850KAOH AOH20160203022513402/03/16 02:25:31  5-MIN KAOH 030725Z AUTO 18012G22KT 10SM BKN034 BKN041 OVC070 13/13 A2953 1340 96 1500 190/12G22 RMK AO2 T01330128 $
04850KAOH AOH20160203023013402/03/16 02:30:31  5-MIN KAOH 030730Z AUTO 18013G22KT 10SM BKN034 BKN042 OVC075 13/13 A2954 1330 96 1500 190/13G22 RMK AO2 T01330128 $
04850KAOH AOH20160203023514102/03/16 02:35:31  5-MIN KAOH 030735Z AUTO 17021G25KT 10SM SCT034 BKN045 OVC060 13/12 A2955 1320 93 1500 180/21G25 RMK AO2 PRESRR T01330122 $
04850KAOH AOH20160203024013402/03/16 02:40:31  5-MIN KAOH 030740Z AUTO 17019G25KT 10SM SCT034 BKN047 OVC060 13/12 A2955 1330 93 1500 170/19G25 RMK AO2 T01330122 $
04850KAOH AOH20160203024513402/03/16 02:45:31  5-MIN KAOH 030745Z AUTO 17014G25KT 10SM SCT034 BKN047 OVC075 13/12 A2954 1330 93 1500 180/14G25 RMK AO2 T01330122 $
04850KAOH AOH20160203025014102/03/16 02:50:31  5-MIN KAOH 030750Z AUTO 17014G22KT 10SM SCT031 BKN045 OVC090 13/12 A2954 1330 93 1500 170/14G22 RMK AO2 SLP003 T01330122 $
04850KAOH AOH20160203025512802/03/16 02:55:31  5-MIN KAOH 030755Z AUTO 17016KT 10SM BKN031 BKN045 OVC055 13/12 A2953 1340 93 1500 170/16 RMK AO2 T01330122 $
04850KAOH AOH20160203030012102/03/16 03:00:31  5-MIN KAOH 030800Z AUTO 17015KT 10SM SCT029 BKN047 13/12 A2953 1340 93 1500 170/15 RMK AO2 T01330122 $
04850KAOH AOH20160203030513502/03/16 03:05:31  5-MIN KAOH 030805Z AUTO 16015KT 10SM SCT017 BKN029 BKN049 13/12 A2952 1350 96 1400 170/15 RMK AO2 PRESFR T01280122 $
04850KAOH AOH20160203031012802/03/16 03:10:31  5-MIN KAOH 030810Z AUTO 16014KT 10SM BKN017 BKN030 OVC080 13/12 A2952 1350 96 1400 170/14 RMK AO2 T01280122 $
04850KAOH AOH20160203031512102/03/16 03:15:31  5-MIN KAOH 030815Z AUTO 17015KT 10SM BKN017 OVC030 13/12 A2952 1350 96 1400 170/15 RMK AO2 T01280122 $
04850KAOH AOH20160203032012802/03/16 03:20:31  5-MIN KAOH 030820Z AUTO 17014KT 10SM BKN015 BKN027 OVC033 13/12 A2952 1350 96 1400 170/14 RMK AO2 T01280122 $
04850KAOH AOH20160203032512102/03/16 03:25:31  5-MIN KAOH 030825Z AUTO 17014KT 10SM BKN015 OVC031 13/12 A2952 1350 96 1400 170/14 RMK AO2 T01280122 $
04850KAOH AOH20160203033012102/03/16 03:30:31  5-MIN KAOH 030830Z AUTO 18012KT 10SM BKN015 OVC031 13/12 A2952 1350 96 1400 180/12 RMK AO2 T01280122 $
04850KAOH AOH20160203033512102/03/16 03:35:31  5-MIN KAOH 030835Z AUTO 18012KT 10SM SCT015 OVC031 13/12 A2952 1350 96 1400 180/12 RMK AO2 T01280122 $
04850KAOH AOH20160203034012102/03/16 03:40:31  5-MIN KAOH 030840Z AUTO 17010KT 10SM FEW015 OVC029 13/12 A2951 1360 96 1500 180/10 RMK AO2 T01280122 $
04850KAOH AOH20160203034512102/03/16 03:45:31  5-MIN KAOH 030845Z AUTO 17012KT 10SM FEW014 OVC029 13/12 A2950 1370 96 1500 170/12 RMK AO2 T01280122 $
04850KAOH AOH20160203035014002/03/16 03:50:31  5-MIN KAOH 030850Z AUTO 19013KT 10SM FEW014 BKN029 13/12 A2952 1350 96 1400 190/13 RMK AO2 SLP997 60001 T01280122 57016 $
04850KAOH AOH20160203035512802/03/16 03:55:31  5-MIN KAOH 030855Z AUTO 18012KT 10SM FEW014 BKN029 BKN035 13/12 A2952 1350 96 1400 180/12 RMK AO2 T01280122 $
04850KAOH AOH20160203040012102/03/16 04:00:31  5-MIN KAOH 030900Z AUTO 17011KT 10SM BKN027 BKN035 13/12 A2951 1360 96 1400 180/11 RMK AO2 T01280122 $
04850KAOH AOH20160203040512102/03/16 04:05:31  5-MIN KAOH 030905Z AUTO 18015KT 10SM BKN027 BKN035 13/12 A2952 1350 93 1500 190/15 RMK AO2 T01330122 $
04850KAOH AOH20160203041012102/03/16 04:10:31  5-MIN KAOH 030910Z AUTO 18013KT 10SM BKN027 BKN035 13/12 A2951 1360 93 1500 190/13 RMK AO2 T01330122 $
04850KAOH AOH20160203041513402/03/16 04:15:31  5-MIN KAOH 030915Z AUTO 17015G20KT 10SM SCT020 BKN027 BKN035 13/12 A2950 1370 93 1500 180/15G20 RMK AO2 T01330122 $
04850KAOH AOH20160203042014102/03/16 04:20:31  5-MIN KAOH 030920Z AUTO 18012G20KT 10SM SCT020 BKN027 OVC034 13/12 A2948 1390 93 1600 190/12G20 RMK AO2 PRESFR T01330122 $
04850KAOH AOH20160203042512802/03/16 04:25:31  5-MIN KAOH 030925Z AUTO 20008KT 10SM BKN018 BKN025 OVC035 13/12 A2950 1370 93 1500 210/08 RMK AO2 T01330122 $
04850KAOH AOH20160203043012102/03/16 04:30:31  5-MIN KAOH 030930Z AUTO 18012KT 10SM BKN018 OVC025 13/12 A2949 1370 93 1500 190/12 RMK AO2 T01330122 $
04850KAOH AOH20160203043512802/03/16 04:35:31  5-MIN KAOH 030935Z AUTO 18011KT 10SM BKN019 BKN025 OVC037 14/12 A2949 1380 90 1600 180/11 RMK AO2 T01390122 $
04850KAOH AOH20160203044012102/03/16 04:40:31  5-MIN KAOH 030940Z AUTO 21011KT 10SM BKN019 OVC028 13/12 A2950 1370 93 1500 220/11 RMK AO2 T01330122 $
04850KAOH AOH20160203044511402/03/16 04:45:31  5-MIN KAOH 030945Z AUTO 19009KT 10SM OVC019 14/12 A2950 1370 90 1600 200/09 RMK AO2 T01390122 $
04850KAOH AOH20160203045012102/03/16 04:50:31  5-MIN KAOH 030950Z AUTO 19011KT 10SM OVC019 14/12 A2950 1370 90 1600 200/11 RMK AO2 SLP989 T01390122 $
04850KAOH AOH20160203045511402/03/16 04:55:31  5-MIN KAOH 030955Z AUTO 20010KT 10SM OVC019 14/12 A2950 1370 90 1600 210/10 RMK AO2 T01390122 $
04850KAOH AOH20160203050012002/03/16 05:00:31  5-MIN KAOH 031000Z AUTO 21012G19KT 10SM OVC019 14/12 A2951 1360 90 1600 210/12G19 RMK AO2 T01390122 $
04850KAOH AOH20160203050512002/03/16 05:05:31  5-MIN KAOH 031005Z AUTO 20014G21KT 10SM OVC019 14/12 A2950 1370 90 1600 200/14G21 RMK AO2 T01390122 $
04850KAOH AOH20160203051012002/03/16 05:10:31  5-MIN KAOH 031010Z AUTO 19012G21KT 10SM OVC019 14/12 A2951 1360 86 1600 200/12G21 RMK AO2 T01390117 $
04850KAOH AOH20160203051512002/03/16 05:15:31  5-MIN KAOH 031015Z AUTO 21012G20KT 10SM OVC019 14/12 A2952 1350 86 1600 210/12G20 RMK AO2 T01390117 $
04850KAOH AOH20160203052011402/03/16 05:20:31  5-MIN KAOH 031020Z AUTO 21012KT 10SM OVC019 14/12 A2952 1350 86 1600 210/12 RMK AO2 T01390117 $
04850KAOH AOH20160203052512102/03/16 05:25:31  5-MIN KAOH 031025Z AUTO 20013KT 10SM BKN019 OVC027 14/12 A2952 1350 86 1600 210/13 RMK AO2 T01390117 $
04850KAOH AOH20160203053012102/03/16 05:30:31  5-MIN KAOH 031030Z AUTO 20014KT 10SM BKN019 OVC027 14/12 A2952 1350 86 1600 210/14 RMK AO2 T01390117 $
04850KAOH AOH20160203053512802/03/16 05:35:31  5-MIN KAOH 031035Z AUTO 21014KT 10SM BKN019 BKN027 OVC055 14/12 A2953 1340 86 1600 210/14 RMK AO2 T01390117 $
04850KAOH AOH20160203054013402/03/16 05:40:31  5-MIN KAOH 031040Z AUTO 21015G24KT 10SM BKN019 BKN026 BKN060 14/12 A2953 1340 86 1600 210/15G24 RMK AO2 T01390117 $
04850KAOH AOH20160203054513402/03/16 05:45:31  5-MIN KAOH 031045Z AUTO 20013G24KT 10SM SCT019 BKN026 BKN075 14/12 A2952 1350 86 1600 200/13G24 RMK AO2 T01390117 $
04850KAOH AOH20160203055012402/03/16 05:50:31  5-MIN KAOH 031050Z AUTO 21013G19KT 10SM FEW019 SCT025 SCT075 14/12 A2953 1340 86 1600 210/13G19 RMK AO2 $
04850KAOH AOH20160203055512702/03/16 05:55:31  5-MIN KAOH 031055Z AUTO 20011G17KT 10SM FEW022 SCT070 13/12 A2953 1340 89 1500 210/11G17 RMK AO2 T01330117 $
04850KAOH AOH20160203060012802/03/16 06:00:31  5-MIN KAOH 031100Z AUTO 20013KT 10SM FEW022 SCT055 BKN070 14/12 A2953 1340 86 1600 210/13 RMK AO2 T01390117 $
04850KAOH AOH20160203060512702/03/16 06:05:31  5-MIN KAOH 031105Z AUTO 20011G19KT 10SM SCT050 BKN070 13/12 A2953 1340 89 1500 210/11G19 RMK AO2 T01330117 $
04850KAOH AOH20160203061012702/03/16 06:10:31  5-MIN KAOH 031110Z AUTO 20013G19KT 10SM SCT050 BKN070 14/12 A2953 1340 86 1600 210/13G19 RMK AO2 T01390117 $
04850KAOH AOH20160203061512102/03/16 06:15:31  5-MIN KAOH 031115Z AUTO 21011KT 10SM BKN050 BKN070 14/12 A2954 1330 86 1600 210/11 RMK AO2 T01390117 $
04850KAOH AOH20160203062012102/03/16 06:20:31  5-MIN KAOH 031120Z AUTO 21011KT 10SM BKN049 OVC070 14/12 A2954 1330 86 1600 210/11 RMK AO2 T01390117 $
04850KAOH AOH20160203062512802/03/16 06:25:31  5-MIN KAOH 031125Z AUTO 21014KT 10SM BKN049 BKN060 OVC075 13/12 A2954 1330 89 1500 210/14 RMK AO2 T01330117 $
04850KAOH AOH20160203063012802/03/16 06:30:31  5-MIN KAOH 031130Z AUTO 21014KT 10SM SCT049 BKN060 BKN070 13/12 A2954 1330 89 1500 210/14 RMK AO2 T01330117 $
04850KAOH AOH20160203063512102/03/16 06:35:31  5-MIN KAOH 031135Z AUTO 22011KT 10SM SCT049 BKN060 13/12 A2954 1330 89 1500 220/11 RMK AO2 T01330117 $
04850KAOH AOH20160203064011402/03/16 06:40:31  5-MIN KAOH 031140Z AUTO 21013KT 10SM BKN060 13/12 A2954 1330 89 1500 220/13 RMK AO2 T01330117 $
04850KAOH AOH20160203064511402/03/16 06:45:31  5-MIN KAOH 031145Z AUTO 21012KT 10SM BKN060 13/12 A2955 1320 89 1500 220/12 RMK AO2 T01330117 $
04850KAOH AOH20160203065015102/03/16 06:50:31  5-MIN KAOH 031150Z AUTO 22014KT 10SM BKN060 13/12 A2956 1320 89 1500 230/14 RMK AO2 SLP008 60001 70088 T01330117 10139 20122 56020 $
04850KAOH AOH20160203065511402/03/16 06:55:31  5-MIN KAOH 031155Z AUTO 23012KT 10SM BKN060 13/11 A2956 1310 86 1500 230/12 RMK AO2 T01330111 $
04850KAOH AOH20160203070011402/03/16 07:00:31  5-MIN KAOH 031200Z AUTO 22015KT 10SM SCT060 13/11 A2956 1310 86 1500 230/15 RMK AO2 T01330111 $
04850KAOH AOH20160203070511402/03/16 07:05:31  5-MIN KAOH 031205Z AUTO 22013KT 10SM SCT055 13/11 A2957 1300 86 1500 230/13 RMK AO2 T01330111 $
04850KAOH AOH20160203071012002/03/16 07:10:31  5-MIN KAOH 031210Z AUTO 22012G20KT 10SM SCT055 13/11 A2957 1300 89 1400 230/12G20 RMK AO2 T01280111 $
04850KAOH AOH20160203071511402/03/16 07:15:31  5-MIN KAOH 031215Z AUTO 22012KT 10SM SCT055 13/11 A2958 1300 86 1400 220/12 RMK AO2 T01280106 $
04850KAOH AOH20160203072011402/03/16 07:20:31  5-MIN KAOH 031220Z AUTO 22015KT 10SM SCT055 13/11 A2958 1290 86 1400 230/15 RMK AO2 T01280106 $
04850KAOH AOH20160203072512002/03/16 07:25:31  5-MIN KAOH 031225Z AUTO 23016G22KT 10SM SCT060 13/09 A2958 1290 80 1400 230/16G22 RMK AO2 T01280094 $
04850KAOH AOH20160203073012702/03/16 07:30:31  5-MIN KAOH 031230Z AUTO 23014G22KT 10SM SCT055 SCT070 13/09 A2958 1290 77 1400 240/14G22 RMK AO2 T01280089 $
04850KAOH AOH20160203073512702/03/16 07:35:31  5-MIN KAOH 031235Z AUTO 23011G21KT 10SM FEW055 SCT070 13/09 A2958 1290 77 1400 230/11G21 RMK AO2 T01280089 $
04850KAOH AOH20160203074011402/03/16 07:40:31  5-MIN KAOH 031240Z AUTO 22011KT 10SM SCT060 12/09 A2959 1290 80 1300 230/11 RMK AO2 T01220089 $
04850KAOH AOH20160203074511402/03/16 07:45:31  5-MIN KAOH 031245Z AUTO 22015KT 10SM FEW060 12/09 A2959 1290 80 1300 230/15 RMK AO2 T01220089 $
04850KAOH AOH20160203075012102/03/16 07:50:31  5-MIN KAOH 031250Z AUTO 23014KT 10SM FEW065 12/08 A2959 1280 77 1300 240/14 RMK AO2 SLP020 T01220083 $
04850KAOH AOH20160203075511102/03/16 07:55:31  5-MIN KAOH 031255Z AUTO 23012KT 10SM CLR 12/08 A2959 1280 77 1300 230/12 RMK AO2 T01220083 $
04850KAOH AOH20160203080011102/03/16 08:00:31  5-MIN KAOH 031300Z AUTO 23013KT 10SM CLR 12/08 A2959 1280 77 1200 240/13 RMK AO2 T01170078 $
04850KAOH AOH20160203080511102/03/16 08:05:31  5-MIN KAOH 031305Z AUTO 23012KT 10SM CLR 12/08 A2960 1280 77 1200 230/12 RMK AO2 T01170078 $
04850KAOH AOH20160203081011102/03/16 08:10:31  5-MIN KAOH 031310Z AUTO 22012KT 10SM CLR 12/08 A2960 1280 77 1200 230/12 RMK AO2 T01170078 $
04850KAOH AOH20160203081511102/03/16 08:15:31  5-MIN KAOH 031315Z AUTO 23011KT 10SM CLR 12/07 A2960 1270 74 1200 230/11 RMK AO2 T01170072 $
04850KAOH AOH20160203082011102/03/16 08:20:31  5-MIN KAOH 031320Z AUTO 22014KT 10SM CLR 11/06 A2960 1270 71 1100 230/14 RMK AO2 T01110061 $
04850KAOH AOH20160203082511102/03/16 08:25:31  5-MIN KAOH 031325Z AUTO 23010KT 10SM CLR 11/06 A2960 1270 68 1100 230/10 RMK AO2 T01110056 $
04850KAOH AOH20160203083011102/03/16 08:30:31  5-MIN KAOH 031330Z AUTO 22011KT 10SM CLR 11/06 A2961 1270 68 1100 230/11 RMK AO2 T01110056 $
04850KAOH AOH20160203083511102/03/16 08:35:31  5-MIN KAOH 031335Z AUTO 22012KT 10SM CLR 11/06 A2961 1270 71 1100 230/12 RMK AO2 T01060056 $
04850KAOH AOH20160203084011102/03/16 08:40:31  5-MIN KAOH 031340Z AUTO 22011KT 10SM CLR 11/06 A2961 1270 68 1100 230/11 RMK AO2 T01110056 $
04850KAOH AOH20160203084511102/03/16 08:45:31  5-MIN KAOH 031345Z AUTO 22011KT 10SM CLR 11/06 A2961 1270 71 1100 220/11 RMK AO2 T01060056 $
04850KAOH AOH20160203085011802/03/16 08:50:31  5-MIN KAOH 031350Z AUTO 22010KT 10SM CLR 11/06 A2961 1270 68 1100 220/10 RMK AO2 SLP026 T01110056 $
04850KAOH AOH20160203085511102/03/16 08:55:31  5-MIN KAOH 031355Z AUTO 21010KT 10SM CLR 11/06 A2961 1270 68 1100 220/10 RMK AO2 T01110056 $
04850KAOH AOH20160203090011702/03/16 09:00:31  5-MIN KAOH 031400Z AUTO 22014G20KT 10SM CLR 11/06 A2961 1260 68 1100 230/14G20 RMK AO2 T01110056 $
04850KAOH AOH20160203090511702/03/16 09:05:31  5-MIN KAOH 031405Z AUTO 22012G20KT 10SM CLR 11/06 A2961 1270 71 1100 230/12G20 RMK AO2 T01060056 $
04850KAOH AOH20160203091011102/03/16 09:10:31  5-MIN KAOH 031410Z AUTO 22012KT 10SM CLR 11/05 A2961 1270 68 1100 220/12 RMK AO2 T01060050 $
04850KAOH AOH20160203091511102/03/16 09:15:31  5-MIN KAOH 031415Z AUTO 21012KT 10SM CLR 11/05 A2961 1260 68 1100 220/12 RMK AO2 T01060050 $
04850KAOH AOH20160203092011102/03/16 09:20:31  5-MIN KAOH 031420Z AUTO 21011KT 10SM CLR 11/06 A2961 1260 68 1100 220/11 RMK AO2 T01110056 $
04850KAOH AOH20160203092511102/03/16 09:25:31  5-MIN KAOH 031425Z AUTO 22011KT 10SM CLR 11/06 A2961 1270 68 1100 220/11 RMK AO2 T01110056 $
04850KAOH AOH20160203093011702/03/16 09:30:31  5-MIN KAOH 031430Z AUTO 22014G20KT 10SM CLR 11/06 A2961 1260 71 1100 220/14G20 RMK AO2 T01110061 $
04850KAOH AOH20160203093511702/03/16 09:35:31  5-MIN KAOH 031435Z AUTO 21012G20KT 10SM CLR 12/06 A2961 1260 68 1200 220/12G20 RMK AO2 T01170061 $
04850KAOH AOH20160203094011702/03/16 09:40:31  5-MIN KAOH 031440Z AUTO 21012G19KT 10SM CLR 12/07 A2962 1260 71 1200 220/12G19 RMK AO2 T01170067 $
04850KAOH AOH20160203094511702/03/16 09:45:31  5-MIN KAOH 031445Z AUTO 22015G23KT 10SM CLR 12/06 A2962 1260 68 1200 230/15G23 RMK AO2 T01170061 $
04850KAOH AOH20160203095013002/03/16 09:50:31  5-MIN KAOH 031450Z AUTO 22017G23KT 10SM CLR 12/06 A2962 1260 66 1200 230/17G23 RMK AO2 SLP029 T01170056 53018 $
04850KAOH AOH20160203095511702/03/16 09:55:31  5-MIN KAOH 031455Z AUTO 23020G25KT 10SM CLR 12/04 A2962 1260 61 1200 240/20G25 RMK AO2 T01170044 $
04850KAOH AOH20160203100011702/03/16 10:00:31  5-MIN KAOH 031500Z AUTO 23017G25KT 10SM CLR 12/04 A2962 1250 61 1200 230/17G25 RMK AO2 T01170044 $
04850KAOH AOH20160203100513502/03/16 10:05:31  5-MIN KAOH 031505Z AUTO 23019G26KT 10SM CLR 12/04 A2962 1250 61 1200 240/19G26 RMK AO2 PK WND 23026/1505 T01170044 $
04850KAOH AOH20160203101013502/03/16 10:10:31  5-MIN KAOH 031510Z AUTO 23017G26KT 10SM CLR 12/04 A2963 1250 58 1200 240/17G26 RMK AO2 PK WND 23026/1505 T01170039 $
04850KAOH AOH20160203101513502/03/16 10:15:31  5-MIN KAOH 031515Z AUTO 23022G27KT 10SM CLR 12/04 A2963 1250 58 1200 240/22G27 RMK AO2 PK WND 22027/1514 T01170039 $
04850KAOH AOH20160203102013502/03/16 10:20:31  5-MIN KAOH 031520Z AUTO 24023G27KT 10SM CLR 12/04 A2963 1250 58 1200 240/23G27 RMK AO2 PK WND 24027/1520 T01170039 $
04850KAOH AOH20160203102513502/03/16 10:25:31  5-MIN KAOH 031525Z AUTO 23019G27KT 10SM CLR 12/04 A2963 1250 58 1200 240/19G27 RMK AO2 PK WND 24027/1520 T01170039 $
04850KAOH AOH20160203103012902/03/16 10:30:31  5-MIN KAOH 031530Z AUTO 24019KT 10SM CLR 12/04 A2963 1250 58 1200 240/19 RMK AO2 PK WND 24027/1520 T01170039 $
04850KAOH AOH20160203103513502/03/16 10:35:31  5-MIN KAOH 031535Z AUTO 24022G27KT 10SM CLR 12/04 A2963 1240 58 1200 250/22G27 RMK AO2 PK WND 24027/1520 T01170039 $
04850KAOH AOH20160203104013502/03/16 10:40:31  5-MIN KAOH 031540Z AUTO 23019G27KT 10SM CLR 12/04 A2964 1240 58 1200 240/19G27 RMK AO2 PK WND 24027/1520 T01170039 $
04850KAOH AOH20160203104513502/03/16 10:45:31  5-MIN KAOH 031545Z AUTO 23014G26KT 10SM CLR 12/04 A2964 1240 58 1200 230/14G26 RMK AO2 PK WND 24027/1520 T01170039 $
04850KAOH AOH20160203105013602/03/16 10:50:31  5-MIN KAOH 031550Z AUTO 24014KT 10SM CLR 12/04 A2964 1230 61 1200 250/14 RMK AO2 PK WND 24027/1520 SLP038 T01170044 $
04850KAOH AOH20160203105512002/03/16 10:55:31  5-MIN KAOH 031555Z AUTO 25021G25KT 10SM FEW035 11/05 A2965 1230 66 1100 250/21G25 RMK AO2 T01110050 $
04850KAOH AOH20160203110012002/03/16 11:00:31  5-MIN KAOH 031600Z AUTO 24015G25KT 10SM FEW035 11/05 A2965 1230 66 1100 250/15G25 RMK AO2 T01110050 $
04850KAOH AOH20160203110511102/03/16 11:05:31  5-MIN KAOH 031605Z AUTO 25017KT 10SM CLR 11/06 A2965 1230 68 1100 250/17 RMK AO2 T01110056 $
04850KAOH AOH20160203111011102/03/16 11:10:31  5-MIN KAOH 031610Z AUTO 24017KT 10SM CLR 11/06 A2965 1220 68 1100 250/17 RMK AO2 T01110056 $
04850KAOH AOH20160203111511702/03/16 11:15:31  5-MIN KAOH 031615Z AUTO 25016G24KT 10SM CLR 11/04 A2965 1230 63 1100 250/16G24 RMK AO2 T01110044 $
04850KAOH AOH20160203112011702/03/16 11:20:31  5-MIN KAOH 031620Z AUTO 25015G24KT 10SM CLR 11/05 A2965 1230 66 1100 250/15G24 RMK AO2 T01110050 $
04850KAOH AOH20160203112511102/03/16 11:25:31  5-MIN KAOH 031625Z AUTO 24015KT 10SM CLR 11/04 A2965 1230 63 1100 240/15 RMK AO2 T01110044 $
04850KAOH AOH20160203113011102/03/16 11:30:31  5-MIN KAOH 031630Z AUTO 24015KT 10SM CLR 11/05 A2965 1220 66 1100 240/15 RMK AO2 T01110050 $
04850KAOH AOH20160203113511702/03/16 11:35:31  5-MIN KAOH 031635Z AUTO 24020G24KT 10SM CLR 11/04 A2965 1230 63 1100 250/20G24 RMK AO2 T01110044 $
04850KAOH AOH20160203114013502/03/16 11:40:31  5-MIN KAOH 031640Z AUTO 24019G26KT 10SM CLR 11/04 A2965 1220 61 1100 250/19G26 RMK AO2 PK WND 25026/1638 T01110039 $
04850KAOH AOH20160203114513502/03/16 11:45:31  5-MIN KAOH 031645Z AUTO 25020G26KT 10SM CLR 11/04 A2966 1220 66 1000 260/20G26 RMK AO2 PK WND 25026/1638 T01060044 $
04850KAOH AOH20160203115014202/03/16 11:50:31  5-MIN KAOH 031650Z AUTO 25020G25KT 10SM CLR 11/04 A2966 1220 63 1000 260/20G25 RMK AO2 PK WND 25026/1638 SLP043 T01060039 $
04850KAOH AOH20160203115513502/03/16 11:55:31  5-MIN KAOH 031655Z AUTO 24023G27KT 10SM CLR 11/03 A2966 1220 58 1100 240/23G27 RMK AO2 PK WND 24028/1654 T01110033 $
04850KAOH AOH20160203120013502/03/16 12:00:31  5-MIN KAOH 031700Z AUTO 23021G27KT 10SM CLR 11/03 A2966 1220 58 1100 240/21G27 RMK AO2 PK WND 24028/1654 T01110033 $
04850KAOH AOH20160203120513502/03/16 12:05:31  5-MIN KAOH 031705Z AUTO 25023G27KT 10SM CLR 11/03 A2966 1220 58 1100 250/23G27 RMK AO2 PK WND 24028/1654 T01110033 $
04850KAOH AOH20160203121012902/03/16 12:10:31  5-MIN KAOH 031710Z AUTO 25019KT 10SM CLR 11/03 A2966 1220 61 1000 250/19 RMK AO2 PK WND 24028/1654 T01060033 $
04850KAOH AOH20160203121512902/03/16 12:15:31  5-MIN KAOH 031715Z AUTO 24022KT 10SM CLR 11/03 A2966 1220 61 1000 250/22 RMK AO2 PK WND 24028/1654 T01060033 $
04850KAOH AOH20160203122013302/03/16 12:20:31  5-MIN KAOH 031720Z AUTO 24019G29KT 10SM CLR 11/03 A2967 1210 58 1000 250/19G29 RMK AO2 PK WND 23029/1717 T01060028
04850KAOH AOH20160203122513602/03/16 12:25:31  5-MIN KAOH 031725Z AUTO 26016G29KT 10SM FEW038 11/04 A2967 1210 66 1000 260/16G29 RMK AO2 PK WND 23029/1717 T01060044
04850KAOH AOH20160203123013602/03/16 12:30:31  5-MIN KAOH 031730Z AUTO 25017G25KT 10SM FEW038 11/05 A2967 1210 68 1000 260/17G25 RMK AO2 PK WND 23029/1717 T01060050
04850KAOH AOH20160203123513202/03/16 12:35:31  5-MIN KAOH 031735Z AUTO 26020G24KT 10SM CLR 10/05 A2967 1210 71 900 270/20G24 RMK AO2 PK WND 23029/1717 T01000050
04850KAOH AOH20160203124013502/03/16 12:40:31  5-MIN KAOH 031740Z AUTO 26018G24KT 10SM FEW032 10/04 A2967 1210 68 900 270/18G24 RMK AO2 PK WND 23029/1717 T01000044
04850KAOH AOH20160203124513502/03/16 12:45:31  5-MIN KAOH 031745Z AUTO 27017G24KT 10SM FEW034 09/04 A2967 1210 71 900 270/17G24 RMK AO2 PK WND 23029/1717 T00940044
04850KAOH AOH20160203125015102/03/16 12:50:31  5-MIN KAOH 031750Z AUTO 26019KT 10SM CLR 09/04 A2967 1210 71 900 270/19 RMK AO2 PK WND 23029/1717 SLP049 T00940044 10133 20094 51020
04850KAOH AOH20160203125511402/03/16 12:55:31  5-MIN KAOH 031755Z AUTO 26018G24KT 10SM CLR 09/04 A2967 1210 68 900 260/18G24 RMK AO2 T00940039
04850KAOH AOH20160203130011402/03/16 13:00:31  5-MIN KAOH 031800Z AUTO 27020G24KT 10SM CLR 09/04 A2968 1200 71 900 280/20G24 RMK AO2 T00940044
04850KAOH AOH20160203130513202/03/16 13:05:31  5-MIN KAOH 031805Z AUTO 26021G26KT 10SM CLR 09/04 A2968 1200 71 800 270/21G26 RMK AO2 PK WND 27026/1803 T00890039
04850KAOH AOH20160203131013202/03/16 13:10:31  5-MIN KAOH 031810Z AUTO 25019G26KT 10SM CLR 09/04 A2968 1200 71 800 260/19G26 RMK AO2 PK WND 27026/1803 T00890039
04850KAOH AOH20160203131512602/03/16 13:15:31  5-MIN KAOH 031815Z AUTO 27020KT 10SM CLR 09/04 A2968 1200 71 800 270/20 RMK AO2 PK WND 27026/1803 T00890039
04850KAOH AOH20160203132012602/03/16 13:20:31  5-MIN KAOH 031820Z AUTO 27016KT 10SM CLR 09/04 A2968 1200 73 800 270/16 RMK AO2 PK WND 27026/1803 T00890044
04850KAOH AOH20160203132513202/03/16 13:25:31  5-MIN KAOH 031825Z AUTO 25021G29KT 10SM CLR 09/04 A2969 1200 73 800 260/21G29 RMK AO2 PK WND 26029/1824 T00890044
04850KAOH AOH20160203133013202/03/16 13:30:31  5-MIN KAOH 031830Z AUTO 26023G29KT 10SM CLR 09/04 A2969 1190 71 800 260/23G29 RMK AO2 PK WND 26029/1824 T00890039
04850KAOH AOH20160203133513202/03/16 13:35:31  5-MIN KAOH 031835Z AUTO 26020G28KT 10SM CLR 09/04 A2969 1190 71 800 260/20G28 RMK AO2 PK WND 26029/1824 T00890039
04850KAOH AOH20160203134012902/03/16 13:40:31  5-MIN KAOH 031840Z AUTO 26018KT 10SM FEW028 08/03 A2969 1190 70 700 270/18 RMK AO2 PK WND 26029/1824 T00830033
04850KAOH AOH20160203134513502/03/16 13:45:31  5-MIN KAOH 031845Z AUTO 26025G30KT 10SM SCT028 08/03 A2969 1190 70 700 260/25G30 RMK AO2 PK WND 25030/1844 T00830033
04850KAOH AOH20160203135014902/03/16 13:50:31  5-MIN KAOH 031850Z AUTO 26023G30KT 10SM SCT028 SCT040 09/03 A2969 1190 68 800 270/23G30 RMK AO2 PK WND 25030/1844 SLP056 T00890033
04850KAOH AOH20160203135514202/03/16 13:55:31  5-MIN KAOH 031855Z AUTO 25019G26KT 10SM FEW028 SCT040 09/03 A2969 1190 68 800 260/19G26 RMK AO2 PK WND 26026/1855 T00890033
04850KAOH AOH20160203140014202/03/16 14:00:31  5-MIN KAOH 031900Z AUTO 26019G27KT 10SM FEW028 SCT034 09/03 A2970 1190 68 800 260/19G27 RMK AO2 PK WND 26027/1856 T00890033
04850KAOH AOH20160203140514202/03/16 14:05:31  5-MIN KAOH 031905Z AUTO 25019G27KT 10SM FEW028 SCT034 09/03 A2969 1190 65 800 260/19G27 RMK AO2 PK WND 26027/1856 T00890028
04850KAOH AOH20160203141014202/03/16 14:10:31  5-MIN KAOH 031910Z AUTO 26021G27KT 10SM FEW028 SCT034 09/03 A2970 1180 65 800 260/21G27 RMK AO2 PK WND 26027/1910 T00940033
04850KAOH AOH20160203141513502/03/16 14:15:31  5-MIN KAOH 031915Z AUTO 25023G30KT 10SM FEW034 09/03 A2970 1180 65 800 260/23G30 RMK AO2 PK WND 25030/1914 T00890028
04850KAOH AOH20160203142013502/03/16 14:20:31  5-MIN KAOH 031920Z AUTO 26020G30KT 10SM FEW034 09/03 A2970 1180 65 800 260/20G30 RMK AO2 PK WND 25030/1914 T00890028
04850KAOH AOH20160203142513502/03/16 14:25:31  5-MIN KAOH 031925Z AUTO 25020G31KT 10SM FEW034 09/02 A2970 1180 63 800 250/20G31 RMK AO2 PK WND 24031/1921 T00890022
04850KAOH AOH20160203143013202/03/16 14:30:31  5-MIN KAOH 031930Z AUTO 25024G31KT 10SM CLR 09/03 A2970 1180 65 800 260/24G31 RMK AO2 PK WND 24031/1921 T00890028
04850KAOH AOH20160203143513202/03/16 14:35:31  5-MIN KAOH 031935Z AUTO 25018G27KT 10SM CLR 09/02 A2970 1180 60 800 250/18G27 RMK AO2 PK WND 24031/1921 T00890017
04850KAOH AOH20160203144013502/03/16 14:40:31  5-MIN KAOH 031940Z AUTO 25018G26KT 10SM FEW036 08/02 A2970 1180 63 700 260/18G26 RMK AO2 PK WND 24031/1921 T00830017
04850KAOH AOH20160203144513502/03/16 14:45:31  5-MIN KAOH 031945Z AUTO 24019G31KT 10SM FEW038 09/02 A2970 1180 63 800 250/19G31 RMK AO2 PK WND 25031/1942 T00890022
04850KAOH AOH20160203145014202/03/16 14:50:31  5-MIN KAOH 031950Z AUTO 26023G31KT 10SM SCT034 09/02 A2971 1170 63 800 270/23G31 RMK AO2 PK WND 25031/1942 SLP061 T00890022
04850KAOH AOH20160203145511702/03/16 14:55:31  5-MIN KAOH 031955Z AUTO 26017G28KT 10SM SCT036 08/02 A2971 1170 68 600 270/17G28 RMK AO2 T00780022
04850KAOH AOH20160203150011702/03/16 15:00:31  5-MIN KAOH 032000Z AUTO 26016G28KT 10SM BKN038 08/02 A2971 1170 68 600 270/16G28 RMK AO2 T00780022
04850KAOH AOH20160203150514202/03/16 15:05:31  5-MIN KAOH 032005Z AUTO 27020G26KT 10SM BKN038 BKN047 08/02 A2972 1170 68 600 270/20G26 RMK AO2 PK WND 26026/2004 T00780022
04850KAOH AOH20160203151014202/03/16 15:10:31  5-MIN KAOH 032010Z AUTO 27020G26KT 10SM SCT036 BKN045 08/02 A2972 1170 68 600 270/20G26 RMK AO2 PK WND 26026/2004 T00780022
04850KAOH AOH20160203151513602/03/16 15:15:31  5-MIN KAOH 032015Z AUTO 27018KT 10SM BKN036 BKN047 08/02 A2972 1160 68 600 270/18 RMK AO2 PK WND 26026/2004 T00780022
04850KAOH AOH20160203152014302/03/16 15:20:31  5-MIN KAOH 032020Z AUTO 26021KT 10SM SCT032 BKN040 OVC047 07/02 A2973 1160 70 500 260/21 RMK AO2 PK WND 26026/2004 T00720022
04850KAOH AOH20160203152514902/03/16 15:25:31  5-MIN KAOH 032025Z AUTO 27018G24KT 10SM SCT032 BKN041 OVC048 07/02 A2974 1150 70 500 280/18G24 RMK AO2 PK WND 26026/2004 T00720022
04850KAOH AOH20160203153014202/03/16 15:30:31  5-MIN KAOH 032030Z AUTO 26018G26KT 10SM BKN032 OVC044 07/02 A2973 1150 70 500 270/18G26 RMK AO2 PK WND 26026/2004 T00720022
04850KAOH AOH20160203153514202/03/16 15:35:31  5-MIN KAOH 032035Z AUTO 26021G25KT 10SM SCT032 BKN044 07/02 A2974 1150 68 500 260/21G25 RMK AO2 PK WND 26026/2004 T00720017
04850KAOH AOH20160203154014202/03/16 15:40:31  5-MIN KAOH 032040Z AUTO 27018G26KT 10SM SCT032 BKN044 07/02 A2974 1140 68 500 270/18G26 RMK AO2 PK WND 26026/2004 T00720017
04850KAOH AOH20160203154514202/03/16 15:45:31  5-MIN KAOH 032045Z AUTO 25020G26KT 10SM FEW032 BKN045 07/02 A2975 1140 68 500 260/20G26 RMK AO2 PK WND 26026/2004 T00720017
04850KAOH AOH20160203155014902/03/16 15:50:31  5-MIN KAOH 032050Z AUTO 26019KT 10SM FEW032 BKN047 07/02 A2975 1130 68 500 270/19 RMK AO2 PK WND 26026/2004 SLP076 T00720017 51018
04850KAOH AOH20160203155512502/03/16 15:55:31  5-MIN KAOH 032055Z AUTO 27017KT 10SM FEW029 FEW036 BKN049 07/02 A2975 1140 70 500 270/17 RMK AO2 T00720022
04850KAOH AOH20160203160011802/03/16 16:00:31  5-MIN KAOH 032100Z AUTO 27019KT 10SM FEW028 BKN049 07/02 A2976 1130 73 400 270/19 RMK AO2 T00670022
04850KAOH AOH20160203160511802/03/16 16:05:31  5-MIN KAOH 032105Z AUTO 26018KT 10SM FEW028 BKN048 07/02 A2976 1130 73 400 270/18 RMK AO2 T00670022
04850KAOH AOH20160203161011102/03/16 16:10:31  5-MIN KAOH 032110Z AUTO 27016KT 10SM BKN048 07/02 A2976 1120 70 400 270/16 RMK AO2 T00670017
04850KAOH AOH20160203161512502/03/16 16:15:31  5-MIN KAOH 032115Z AUTO 27020KT 10SM FEW027 BKN048 06/02 A2977 1120 73 400 270/20 RMK AO2 PRESRR T00610017
04850KAOH AOH20160203162014202/03/16 16:20:31  5-MIN KAOH 032120Z AUTO 27021G26KT 10SM SCT027 BKN048 06/02 A2978 1110 73 300 280/21G26 RMK AO2 PK WND 27026/2120 T00610017
04850KAOH AOH20160203162514202/03/16 16:25:31  5-MIN KAOH 032125Z AUTO 27016G26KT 10SM FEW027 BKN049 06/02 A2978 1110 73 300 270/16G26 RMK AO2 PK WND 27026/2120 T00610017
04850KAOH AOH20160203163014202/03/16 16:30:31  5-MIN KAOH 032130Z AUTO 26017G25KT 10SM FEW025 BKN049 06/01 A2978 1110 70 300 260/17G25 RMK AO2 PK WND 27026/2120 T00610011
04850KAOH AOH20160203163514202/03/16 16:35:31  5-MIN KAOH 032135Z AUTO 26018G25KT 10SM FEW025 OVC049 06/02 A2979 1100 73 300 260/18G25 RMK AO2 PK WND 27026/2120 T00610017
04850KAOH AOH20160203164014202/03/16 16:40:31  5-MIN KAOH 032140Z AUTO 26023G28KT 10SM FEW025 OVC047 06/01 A2979 1100 70 300 270/23G28 RMK AO2 PK WND 25028/2137 T00560006
04850KAOH AOH20160203164514202/03/16 16:45:31  5-MIN KAOH 032145Z AUTO 25018G28KT 10SM FEW026 OVC047 06/01 A2979 1090 73 300 260/18G28 RMK AO2 PK WND 25028/2137 T00560011
04850KAOH AOH20160203165014302/03/16 16:50:31  5-MIN KAOH 032150Z AUTO 26019KT 10SM FEW026 OVC047 06/01 A2980 1090 73 200 270/19 RMK AO2 PK WND 25028/2137 SLP093 T00560011
04850KAOH AOH20160203165511102/03/16 16:55:31  5-MIN KAOH 032155Z AUTO 26017KT 10SM OVC047 06/01 A2980 1090 73 200 260/17 RMK AO2 T00560011
04850KAOH AOH20160203170011102/03/16 17:00:31  5-MIN KAOH 032200Z AUTO 26017KT 10SM OVC047 06/01 A2980 1090 73 200 260/17 RMK AO2 T00560011
04850KAOH AOH20160203170511802/03/16 17:05:31  5-MIN KAOH 032205Z AUTO 25019KT 10SM FEW025 OVC047 06/01 A2981 1080 70 200 250/19 RMK AO2 T00560006
04850KAOH AOH20160203171012402/03/16 17:10:31  5-MIN KAOH 032210Z AUTO 27020G25KT 10SM FEW025 OVC046 05/01 A2981 1080 76 200 270/20G25 RMK AO2 T00500011
04850KAOH AOH20160203171512402/03/16 17:15:31  5-MIN KAOH 032215Z AUTO 25017G25KT 10SM FEW026 OVC046 05/01 A2981 1080 73 200 260/17G25 RMK AO2 T00500006
04850KAOH AOH20160203172011802/03/16 17:20:31  5-MIN KAOH 032220Z AUTO 26017KT 10SM FEW026 OVC046 05/01 A2982 1070 73 200 270/17 RMK AO2 T00500006
04850KAOH AOH20160203172511802/03/16 17:25:31  5-MIN KAOH 032225Z AUTO 26018KT 10SM FEW026 OVC046 04/01 A2982 1070 76 100 270/18 RMK AO2 T00440006
04850KAOH AOH20160203173014202/03/16 17:30:31  5-MIN KAOH 032230Z AUTO 25021G27KT 10SM FEW028 OVC042 04/00 A2983 1070 73 100 260/21G27 RMK AO2 PK WND 26027/2230 T00440000
04850KAOH AOH20160203173514902/03/16 17:35:31  5-MIN KAOH 032235Z AUTO 25022G27KT 10SM FEW026 SCT032 OVC042 04/00 A2983 1060 73 100 260/22G27 RMK AO2 PK WND 26027/2230 T00440000
04850KAOH AOH20160203174014302/03/16 17:40:31  5-MIN KAOH 032240Z AUTO 25026G30KT 10SM SCT031 OVC042 04/M01 A2983 1060 70 100 250/26G30 RMK AO2 PK WND 25030/2239 T00441006
04850KAOH AOH20160203174514902/03/16 17:45:31  5-MIN KAOH 032245Z AUTO 26019G30KT 10SM SCT028 BKN036 OVC043 04/00 A2984 1060 73 100 260/19G30 RMK AO2 PK WND 25030/2239 T00440000
04850KAOH AOH20160203175015002/03/16 17:50:31  5-MIN KAOH 032250Z AUTO 25021KT 10SM SCT028 BKN034 OVC041 04/00 A2984 1050 73 100 260/21 RMK AO2 PK WND 25030/2239 SLP106 T00440000
04850KAOH AOH20160203175512402/03/16 17:55:31  5-MIN KAOH 032255Z AUTO 25020G27KT 10SM SCT028 OVC036 04/00 A2984 1050 73 100 260/20G27 RMK AO2 T00440000
04850KAOH AOH20160203180014302/03/16 18:00:31  5-MIN KAOH 032300Z AUTO 25023G28KT 10SM SCT028 OVC038 04/M01 A2985 1040 70 100 260/23G28 RMK AO2 PK WND 26028/2257 T00441006
04850KAOH AOH20160203180514102/03/16 18:05:31  5-MIN KAOH 032305Z AUTO 25019G29KT 10SM FEW028 OVC038 04/M01 A2985 1040 73 0 260/19G29 RMK AO2 PK WND 25029/2301 T00391006
04850KAOH AOH20160203181014102/03/16 18:10:31  5-MIN KAOH 032310Z AUTO 26022G29KT 10SM FEW028 OVC036 04/M01 A2985 1040 73 0 270/22G29 RMK AO2 PK WND 25029/2301 T00391006
04850KAOH AOH20160203181514102/03/16 18:15:31  5-MIN KAOH 032315Z AUTO 25019G27KT 10SM FEW030 OVC036 04/M01 A2986 1030 73 0 260/19G27 RMK AO2 PK WND 25029/2301 T00391006
04850KAOH AOH20160203182013402/03/16 18:20:31  5-MIN KAOH 032320Z AUTO 26019KT 10SM SCT030 OVC036 04/00 A2986 1030 76 0 270/19 RMK AO2 PK WND 25029/2301 T00390000
04850KAOH AOH20160203182513502/03/16 18:25:31  5-MIN KAOH 032325Z AUTO 25021KT 10SM BKN030 OVC037 04/M01 A2986 1030 73 0 260/21 RMK AO2 PK WND 25029/2301 T00391006
04850KAOH AOH20160203183013502/03/16 18:30:31  5-MIN KAOH 032330Z AUTO 25020KT 10SM BKN032 OVC039 04/M01 A2986 1030 73 0 260/20 RMK AO2 PK WND 25029/2301 T00391006
04850KAOH AOH20160203183513402/03/16 18:35:31  5-MIN KAOH 032335Z AUTO 25020G28KT 10SM OVC033 04/M01 A2987 1030 73 0 260/20G28 RMK AO2 PK WND 25029/2301 T00391006
04850KAOH AOH20160203184014102/03/16 18:40:31  5-MIN KAOH 032340Z AUTO 26024G29KT 10SM SCT030 OVC036 04/M01 A2987 1020 73 0 260/24G29 RMK AO2 PK WND 25029/2301 T00391006
04850KAOH AOH20160203184514102/03/16 18:45:31  5-MIN KAOH 032345Z AUTO 25021G29KT 10SM FEW030 OVC036 04/M01 A2987 1020 73 0 260/21G29 RMK AO2 PK WND 25029/2301 T00391006
04850KAOH AOH20160203185016902/03/16 18:50:31  5-MIN KAOH 032350Z AUTO 25021G31KT 10SM FEW030 OVC036 03/M01 A2987 1020 76 -100 250/21G31 RMK AO2 PK WND 25031/2348 SLP120 T00331006 10094 20033 53025
04850KAOH AOH20160203185511902/03/16 18:55:31  5-MIN KAOH 032355Z AUTO 25018G31KT 10SM OVC036 03/M01 A2988 1020 76 -100 260/18G31 RMK AO2 T00331006
04850KAOH AOH20160203190013602/03/16 19:00:31  5-MIN KAOH 040000Z AUTO 25022G26KT 10SM OVC038 03/00 A2988 1010 79 -100 260/22G26 RMK AO2 PK WND 26026/2359 T00330000
04850KAOH AOH20160203190514402/03/16 19:05:31  5-MIN KAOH 040005Z AUTO 26015G26KT 10SM FEW021 OVC040 03/M01 A2988 1010 76 -100 260/15G26 RMK AO2 PK WND 26026/2359 T00331006
04850KAOH AOH20160203191015002/03/16 19:10:31  5-MIN KAOH 040010Z AUTO 26014G23KT 10SM FEW021 SCT025 OVC040 03/00 A2988 1010 79 -100 270/14G23 RMK AO2 PK WND 26026/2359 T00330000
04850KAOH AOH20160203191514302/03/16 19:15:31  5-MIN KAOH 040015Z AUTO 25022G28KT 10SM BKN023 OVC040 03/00 A2989 1000 79 -100 260/22G28 RMK AO2 PK WND 26028/0013 T00330000
04850KAOH AOH20160203192015102/03/16 19:20:31  5-MIN KAOH 040020Z AUTO 25020G28KT 10SM SCT021 BKN026 OVC040 03/M01 A2989 1000 76 -100 260/20G28 RMK AO2 PK WND 25028/0019 T00331006
04850KAOH AOH20160203192515102/03/16 19:25:31  5-MIN KAOH 040025Z AUTO 25021G28KT 10SM SCT021 BKN028 OVC046 03/M01 A2989 1000 79 -100 250/21G28 RMK AO2 PK WND 25028/0019 T00281006
04850KAOH AOH20160203193015102/03/16 19:30:31  5-MIN KAOH 040030Z AUTO 25020G27KT 10SM SCT021 BKN026 OVC046 03/M01 A2990 1000 79 -200 250/20G27 RMK AO2 PK WND 25028/0019 T00281006
04850KAOH AOH20160203193515102/03/16 19:35:31  5-MIN KAOH 040035Z AUTO 24022G32KT 10SM BKN021 BKN026 OVC048 03/M01 A2990 1000 75 -200 250/22G32 RMK AO2 PK WND 24032/0032 T00281011
04850KAOH AOH20160203194015002/03/16 19:40:31  5-MIN KAOH 040040Z AUTO 25020G32KT 10SM BKN021 BKN030 OVC048 03/M01 A2990 990 75 -200 250/20G32 RMK AO2 PK WND 24032/0032 T00281011
04850KAOH AOH20160203194515002/03/16 19:45:31  5-MIN KAOH 040045Z AUTO 26025G31KT 10SM BKN023 BKN030 OVC048 03/M01 A2991 990 75 -200 270/25G31 RMK AO2 PK WND 24032/0032 T00281011
04850KAOH AOH20160203195013302/03/16 19:50:31  5-MIN KAOH 040050Z AUTO 25024G31KT 10SM SCT023 OVC048 03/M01 A2991 990 75 -200 260/24G31 RMK AO2 PK WND 24032/0032
04850KAOH AOH20160203195512502/03/16 19:55:31  5-MIN KAOH 040055Z AUTO 26021G29KT 10SM BKN023 OVC049 03/M01 A2991 980 75 -200 270/21G29 RMK AO2 T00281011
04850KAOH AOH20160203200015002/03/16 20:00:31  5-MIN KAOH 040100Z AUTO 25022G29KT 10SM BKN021 BKN028 OVC049 02/M01 A2992 980 78 -200 260/22G29 RMK AO2 PK WND 26028/0100 T00221011
04850KAOH AOH20160203200515002/03/16 20:05:31  5-MIN KAOH 040105Z AUTO 25020G28KT 10SM BKN021 BKN025 OVC049 02/M01 A2992 980 82 -200 250/20G28 RMK AO2 PK WND 26028/0100 T00221006
04850KAOH AOH20160203201015202/03/16 20:10:31  5-MIN KAOH 040110Z AUTO 26020G26KT 10SM BKN019 BKN027 OVC049 02/M01 A2992 980 82 -200 260/20G26 RMK AO2 PK WND 26028/0100 T00221006 $
04850KAOH AOH20160203201514702/03/16 20:15:31  5-MIN KAOH 040115Z AUTO 26018G24KT BKN019 BKN027 OVC049 02/M01 A2992 980 82 -200 260/18G24 RMK AO2 PK WND 26028/0100 T00221006 $
04850KAOH AOH20160203202014702/03/16 20:20:31  5-MIN KAOH 040120Z AUTO 26019G25KT BKN019 BKN029 OVC049 02/M01 A2992 980 82 -200 260/19G25 RMK AO2 PK WND 26028/0100 T00221006 $
04850KAOH AOH20160203202514502/03/16 20:25:31  5-MIN KAOH 040125Z AUTO 26019G25KT 10SM BKN017 OVC029 02/M01 A2992 980 82 -200 260/19G25 RMK AO2 PK WND 26028/0100 T00221006 $
04850KAOH AOH20160203203014002/03/16 20:30:31  5-MIN KAOH 040130Z AUTO 26018G26KT BKN017 OVC029 02/M01 A2992 980 82 -200 260/18G26 RMK AO2 PK WND 26028/0100 T00221006 $
04850KAOH AOH20160203203514702/03/16 20:35:31  5-MIN KAOH 040135Z AUTO 25020G26KT BKN017 BKN023 OVC049 02/M01 A2992 970 82 -300 260/20G26 RMK AO2 PK WND 26028/0100 T00221006 $
04850KAOH AOH20160203204014602/03/16 20:40:31  5-MIN KAOH 040140Z AUTO 26021KT 10SM BKN017 BKN023 OVC049 02/M01 A2993 970 82 -300 270/21 RMK AO2 PK WND 26028/0100 T00221006 $
04850KAOH AOH20160203204514602/03/16 20:45:31  5-MIN KAOH 040145Z AUTO 25021KT 10SM BKN017 BKN023 OVC049 02/M01 A2993 970 78 -300 260/21 RMK AO2 PK WND 26028/0100 T00221011 $
04850KAOH AOH20160203205015902/03/16 20:50:31  5-MIN KAOH 040150Z AUTO 25022G26KT 10SM BKN017 BKN023 OVC049 02/M01 A2993 970 82 -300 260/22G26 RMK AO2 PK WND 26028/0100 SLP140 T00221006 $
04850KAOH AOH20160203205512702/03/16 20:55:31  5-MIN KAOH 040155Z AUTO 25020G26KT 10SM BKN017 OVC023 02/M01 A2993 970 82 -300 260/20G26 RMK AO2 T00221006 $
04850KAOH AOH20160203210012102/03/16 21:00:31  5-MIN KAOH 040200Z AUTO 25017KT 10SM BKN017 OVC024 02/M01 A2994 960 85 -300 260/17 RMK AO2 T00171006 $
04850KAOH AOH20160203210512802/03/16 21:05:31  5-MIN KAOH 040205Z AUTO 26016KT 10SM BKN015 BKN020 OVC024 02/M01 A2994 960 85 -300 260/16 RMK AO2 T00171006 $
04850KAOH AOH20160203211012102/03/16 21:10:31  5-MIN KAOH 040210Z AUTO 26016KT 10SM BKN015 OVC024 02/M01 A2994 960 85 -300 270/16 RMK AO2 T00171006 $
04850KAOH AOH20160203211512802/03/16 21:15:31  5-MIN KAOH 040215Z AUTO 26017KT 10SM BKN013 BKN018 OVC025 02/M01 A2994 960 85 -300 260/17 RMK AO2 T00171006 $
04850KAOH AOH20160203212012102/03/16 21:20:31  5-MIN KAOH 040220Z AUTO 26016KT 10SM BKN015 OVC025 02/M01 A2994 960 85 -300 270/16 RMK AO2 T00171006 $
04850KAOH AOH20160203212512202/03/16 21:25:31  5-MIN KAOH 040225Z AUTO 26019G22KT BKN015 OVC023 02/M01 A2995 950 85 -300 270/19G22 RMK AO2 T00171006 $
04850KAOH AOH20160203213011502/03/16 21:30:31  5-MIN KAOH 040230Z AUTO 26015G25KT OVC013 02/M01 A2995 950 85 -300 270/15G25 RMK AO2 T00171006 $
04850KAOH AOH20160203213511502/03/16 21:35:31  5-MIN KAOH 040235Z AUTO 26014G25KT OVC013 02/M01 A2995 950 85 -300 270/14G25 RMK AO2 T00171006 $
04850KAOH AOH20160203214010902/03/16 21:40:31  5-MIN KAOH 040240Z AUTO 26013KT OVC013 02/M01 A2995 950 85 -300 270/13 RMK AO2 T00171006 $
04850KAOH AOH20160203214510902/03/16 21:45:31  5-MIN KAOH 040245Z AUTO 26014KT OVC013 02/M01 A2995 950 85 -400 270/14 RMK AO2 T00171006 $
04850KAOH AOH20160203215012802/03/16 21:50:31  5-MIN KAOH 040250Z AUTO 26016G24KT OVC013 02/M01 A2995 950 85 -400 260/16G24 RMK AO2 SLP147 T00171006 51041 $
04850KAOH AOH20160203215511502/03/16 21:55:31  5-MIN KAOH 040255Z AUTO 26019G24KT OVC013 02/M01 A2996 940 85 -400 270/19G24 RMK AO2 T00171006 $
04850KAOH AOH20160203220011502/03/16 22:00:31  5-MIN KAOH 040300Z AUTO 28017G24KT OVC014 02/M01 A2996 940 85 -400 280/17G24 RMK AO2 T00171006 $
04850KAOH AOH20160203220511502/03/16 22:05:31  5-MIN KAOH 040305Z AUTO 27015G23KT OVC014 02/M01 A2996 940 85 -400 270/15G23 RMK AO2 T00171006 $
04850KAOH AOH20160203221010902/03/16 22:10:31  5-MIN KAOH 040310Z AUTO 27014KT OVC014 02/M01 A2996 940 85 -400 280/14 RMK AO2 T00171006 $
04850KAOH AOH20160203221510902/03/16 22:15:31  5-MIN KAOH 040315Z AUTO 26016KT OVC014 01/M01 A2996 940 89 -400 270/16 RMK AO2 T00111006 $
04850KAOH AOH20160203222011602/03/16 22:20:31  5-MIN KAOH 040320Z AUTO 27014KT BKN013 OVC019 01/M01 A2996 940 89 -400 270/14 RMK AO2 T00111006 $
04850KAOH AOH20160203222512302/03/16 22:25:31  5-MIN KAOH 040325Z AUTO 27014KT SCT009 BKN013 OVC019 01/M01 A2997 940 89 -400 280/14 RMK AO2 T00111006 $
04850KAOH AOH20160203223012802/03/16 22:30:31  5-MIN KAOH 040330Z AUTO 26016KT BKN009 OVC013 01/M01 A2997 930 89 -400 270/16 RMK AO2 CIG 009V013 T00111006 $
04850KAOH AOH20160203223512802/03/16 22:35:31  5-MIN KAOH 040335Z AUTO 28015KT BKN011 OVC014 01/M01 A2997 930 89 -400 280/15 RMK AO2 CIG 009V012 T00111006 $
04850KAOH AOH20160203224013402/03/16 22:40:31  5-MIN KAOH 040340Z AUTO 27016G22KT BKN011 OVC020 01/M01 A2997 930 89 -400 270/16G22 RMK AO2 CIG 009V015 T00111006 $
04850KAOH AOH20160203224513402/03/16 22:45:31  5-MIN KAOH 040345Z AUTO 27017G23KT BKN011 OVC018 01/M01 A2997 930 85 -400 270/17G23 RMK AO2 CIG 009V014 T00111011 $
04850KAOH AOH20160203225012902/03/16 22:50:31  5-MIN KAOH 040350Z AUTO 26018G23KT BKN011 OVC018 01/M01 A2997 930 85 -400 270/18G23 RMK AO2 SLP154 T00111011 $
04850KAOH AOH20160203225511602/03/16 22:55:31  5-MIN KAOH 040355Z AUTO 27014KT BKN011 OVC018 01/M01 A2997 930 89 -500 270/14 RMK AO2 T00061011 $
04850KAOH AOH20160203230012202/03/16 23:00:31  5-MIN KAOH 040400Z AUTO 26016G22KT BKN013 OVC020 01/M01 A2997 930 89 -500 270/16G22 RMK AO2 T00061011 $
04850KAOH AOH20160203230511602/03/16 23:05:31  5-MIN KAOH 040405Z AUTO 26018KT BKN013 OVC018 01/M02 A2998 930 85 -500 270/18 RMK AO2 T00061017 $
04850KAOH AOH20160203231011602/03/16 23:10:31  5-MIN KAOH 040410Z AUTO 26017KT BKN015 OVC020 01/M02 A2998 920 85 -500 270/17 RMK AO2 T00061017 $
04850KAOH AOH20160203231512002/03/16 23:15:31  5-MIN KAOH 040415Z AUTO 28016G24KT 10SM OVC015 01/M02 A2998 920 85 -500 280/16G24 RMK AO2 T00061017 $
04850KAOH AOH20160203232012702/03/16 23:20:31  5-MIN KAOH 040420Z AUTO 27019G24KT 10SM BKN013 OVC019 01/M02 A2998 920 85 -500 280/19G24 RMK AO2 T00061017 $
04850KAOH AOH20160203232512102/03/16 23:25:31  5-MIN KAOH 040425Z AUTO 26015KT 10SM BKN016 OVC024 01/M02 A2998 920 85 -500 270/15 RMK AO2 T00061017 $
04850KAOH AOH20160203233011602/03/16 23:30:31  5-MIN KAOH 040430Z AUTO 26017KT BKN016 OVC021 01/M02 A2999 920 85 -500 270/17 RMK AO2 T00061017 $
04850KAOH AOH20160203233510902/03/16 23:35:31  5-MIN KAOH 040435Z AUTO 26019KT OVC016 01/M02 A2999 910 85 -500 270/19 RMK AO2 T00061017 $
04850KAOH AOH20160203234011602/03/16 23:40:31  5-MIN KAOH 040440Z AUTO 26016KT BKN014 OVC022 01/M02 A2999 910 82 -500 270/16 RMK AO2 T00061022 $
04850KAOH AOH20160203234511602/03/16 23:45:31  5-MIN KAOH 040445Z AUTO 26016KT BKN016 OVC022 01/M02 A2999 910 82 -500 260/16 RMK AO2 T00061022 $
04850KAOH AOH20160203235013902/03/16 23:50:31  5-MIN KAOH 040450Z AUTO 26019G23KT BKN016 OVC022 01/M02 A2999 910 82 -500 270/19G23 RMK AO2 SLP162 T00061022 401390006 $
04850KAOH AOH20160203235510902/03/16 23:55:31  5-MIN KAOH 040455Z AUTO 25017KT OVC014 00/M02 A2999 910 85 -600 260/17 RMK AO2 T00001022 $
04850KAOH AOH20160204000010902/04/16 00:00:31  5-MIN KAOH 040500Z AUTO 27015KT OVC014 00/M02 A3000 910 85 -600 270/15 RMK AO2 T00001022 $
04850KAOH AOH20160204000512102/04/16 00:05:31  5-MIN KAOH 040505Z AUTO 28016KT 10SM BKN012 OVC019 00/M02 A3000 900 88 -600 280/16 RMK AO2 T00001017 $
04850KAOH AOH20160204001012002/04/16 00:10:31  5-MIN KAOH 040510Z AUTO 27015G23KT 10SM OVC012 00/M02 A3000 900 88 -600 280/15G23 RMK AO2 T00001017 $
04850KAOH AOH20160204001512002/04/16 00:15:31  5-MIN KAOH 040515Z AUTO 27019G25KT 10SM OVC012 00/M02 A3001 900 85 -600 280/19G25 RMK AO2 T00001022 $
04850KAOH AOH20160204002012002/04/16 00:20:31  5-MIN KAOH 040520Z AUTO 27019G25KT 10SM OVC012 00/M02 A3001 900 85 -600 280/19G25 RMK AO2 T00001022 $
04850KAOH AOH20160204002512002/04/16 00:25:31  5-MIN KAOH 040525Z AUTO 27019G25KT 10SM OVC011 00/M02 A3001 890 85 -600 270/19G25 RMK AO2 T00001022 $
04850KAOH AOH20160204003012002/04/16 00:30:31  5-MIN KAOH 040530Z AUTO 26019G25KT 10SM OVC011 00/M02 A3001 890 85 -600 260/19G25 RMK AO2 T00001022 $
04850KAOH AOH20160204003511502/04/16 00:35:31  5-MIN KAOH 040535Z AUTO 26019G23KT OVC013 00/M02 A3001 890 85 -600 270/19G23 RMK AO2 T00001022 $
04850KAOH AOH20160204004010902/04/16 00:40:31  5-MIN KAOH 040540Z AUTO 27016KT OVC013 00/M03 A3001 890 81 -600 270/16 RMK AO2 T00001028 $
04850KAOH AOH20160204004511602/04/16 00:45:31  5-MIN KAOH 040545Z AUTO 26019KT BKN013 OVC018 00/M03 A3002 890 81 -600 270/19 RMK AO2 T00001028 $
04850KAOH AOH20160204005009902/04/16 00:50:31  5-MIN KAOH 040550Z AUTO 26020KT OVC016 00/M03 A3002 890 81 -600 270/20 RMK AO2 $
04850KAOH AOH20160204005511002/04/16 00:55:31  5-MIN KAOH 040555Z AUTO 26019KT OVC016 M01/M03 A3002 890 85 -700 260/19 RMK AO2 T10061028 $
04850KAOH AOH20160204010011402/04/16 01:00:31  5-MIN KAOH 040600Z AUTO 26018KT 10SM OVC016 00/M03 A3002 890 81 -600 270/18 RMK AO2 T00001028 $
04850KAOH AOH20160204010512102/04/16 01:05:31  5-MIN KAOH 040605Z AUTO 27016KT 10SM BKN016 OVC021 00/M03 A3002 890 81 -600 280/16 RMK AO2 T00001028 $
04850KAOH AOH20160204011011402/04/16 01:10:31  5-MIN KAOH 040610Z AUTO 26016KT 10SM OVC018 00/M03 A3002 890 81 -600 270/16 RMK AO2 T00001028 $
04850KAOH AOH20160204011511602/04/16 01:15:31  5-MIN KAOH 040615Z AUTO 26015G23KT OVC018 M01/M03 A3002 880 85 -700 270/15G23 RMK AO2 T10061028 $
04850KAOH AOH20160204012012102/04/16 01:20:31  5-MIN KAOH 040620Z AUTO 27016G23KT 10SM OVC018 M01/M03 A3003 880 85 -700 270/16G23 RMK AO2 T10061028 $
04850KAOH AOH20160204012512802/04/16 01:25:31  5-MIN KAOH 040625Z AUTO 26018G25KT 10SM BKN018 OVC023 M01/M03 A3003 880 85 -700 260/18G25 RMK AO2 T10061028 $
04850KAOH AOH20160204013012102/04/16 01:30:31  5-MIN KAOH 040630Z AUTO 27018G25KT 10SM OVC016 M01/M03 A3003 880 85 -700 280/18G25 RMK AO2 T10061028 $
04850KAOH AOH20160204013512102/04/16 01:35:31  5-MIN KAOH 040635Z AUTO 26018G25KT 10SM OVC016 M01/M03 A3003 880 85 -700 270/18G25 RMK AO2 T10061028 $
04850KAOH AOH20160204014011502/04/16 01:40:31  5-MIN KAOH 040640Z AUTO 26016KT 10SM OVC016 M01/M03 A3003 870 85 -700 260/16 RMK AO2 T10061028 $
04850KAOH AOH20160204014512102/04/16 01:45:31  5-MIN KAOH 040645Z AUTO 26015G22KT 10SM OVC014 M01/M03 A3003 870 85 -700 260/15G22 RMK AO2 T10061028 $
04850KAOH AOH20160204015012202/04/16 01:50:31  5-MIN KAOH 040650Z AUTO 26017KT 10SM OVC014 M01/M03 A3004 870 85 -700 270/17 RMK AO2 SLP178 T10061028 $
04850KAOH AOH20160204015511502/04/16 01:55:31  5-MIN KAOH 040655Z AUTO 26020KT 10SM OVC014 M01/M03 A3004 870 85 -700 260/20 RMK AO2 T10061028 $
04850KAOH AOH20160204020012102/04/16 02:00:31  5-MIN KAOH 040700Z AUTO 26016G23KT 10SM OVC014 M01/M03 A3004 870 81 -700 270/16G23 RMK AO2 T10061033 $
04850KAOH AOH20160204020511502/04/16 02:05:31  5-MIN KAOH 040705Z AUTO 25013KT 10SM OVC014 M01/M03 A3004 870 85 -700 260/13 RMK AO2 T10061028 $
04850KAOH AOH20160204021011502/04/16 02:10:31  5-MIN KAOH 040710Z AUTO 25013KT 10SM OVC013 M01/M03 A3005 860 85 -700 260/13 RMK AO2 T10061028 $
04850KAOH AOH20160204021511502/04/16 02:15:31  5-MIN KAOH 040715Z AUTO 25017KT 10SM OVC013 M01/M03 A3005 860 85 -700 260/17 RMK AO2 T10061028 $
04850KAOH AOH20160204022011502/04/16 02:20:31  5-MIN KAOH 040720Z AUTO 25014KT 10SM OVC013 M01/M03 A3005 860 81 -700 260/14 RMK AO2 T10061033 $
04850KAOH AOH20160204022511502/04/16 02:25:31  5-MIN KAOH 040725Z AUTO 26014KT 10SM OVC013 M01/M03 A3005 850 81 -700 260/14 RMK AO2 T10061033 $
04850KAOH AOH20160204023011502/04/16 02:30:31  5-MIN KAOH 040730Z AUTO 27016KT 10SM OVC015 M01/M03 A3006 850 81 -800 270/16 RMK AO2 T10061033 $
04850KAOH AOH20160204023511502/04/16 02:35:31  5-MIN KAOH 040735Z AUTO 26012KT 10SM OVC015 M01/M03 A3006 850 81 -800 260/12 RMK AO2 T10061033 $
04850KAOH AOH20160204024012102/04/16 02:40:31  5-MIN KAOH 040740Z AUTO 27016G22KT 10SM OVC015 M01/M03 A3006 840 81 -800 270/16G22 RMK AO2 T10061033 $
04850KAOH AOH20160204024512102/04/16 02:45:31  5-MIN KAOH 040745Z AUTO 25014G22KT 10SM OVC015 M01/M03 A3007 840 81 -800 260/14G22 RMK AO2 T10061033 $
04850KAOH AOH20160204025012202/04/16 02:50:31  5-MIN KAOH 040750Z AUTO 26017KT 10SM OVC015 M01/M03 A3007 840 81 -800 270/17 RMK AO2 SLP189 T10061033 $
04850KAOH AOH20160204025511502/04/16 02:55:31  5-MIN KAOH 040755Z AUTO 25014KT 10SM OVC015 M01/M03 A3007 840 81 -800 260/14 RMK AO2 T10061033 $
04850KAOH AOH20160204030011502/04/16 03:00:31  5-MIN KAOH 040800Z AUTO 26016KT 10SM OVC015 M01/M03 A3008 830 81 -800 260/16 RMK AO2 T10061033 $
04850KAOH AOH20160204030511502/04/16 03:05:31  5-MIN KAOH 040805Z AUTO 25017KT 10SM OVC014 M01/M03 A3008 830 81 -800 260/17 RMK AO2 T10061033 $
04850KAOH AOH20160204031011502/04/16 03:10:31  5-MIN KAOH 040810Z AUTO 25016KT 10SM OVC014 M01/M03 A3008 830 81 -800 260/16 RMK AO2 T10061033 $
04850KAOH AOH20160204031511502/04/16 03:15:31  5-MIN KAOH 040815Z AUTO 26014KT 10SM OVC014 M01/M03 A3008 830 85 -800 260/14 RMK AO2 T10061028 $
04850KAOH AOH20160204032011502/04/16 03:20:31  5-MIN KAOH 040820Z AUTO 25015KT 10SM OVC012 M01/M03 A3008 830 85 -800 260/15 RMK AO2 T10061028 $
04850KAOH AOH20160204032511502/04/16 03:25:31  5-MIN KAOH 040825Z AUTO 26014KT 10SM OVC012 M01/M03 A3008 830 88 -800 260/14 RMK AO2 T10111028 $
04850KAOH AOH20160204033011502/04/16 03:30:31  5-MIN KAOH 040830Z AUTO 26015KT 10SM OVC012 M01/M03 A3008 830 88 -900 260/15 RMK AO2 T10111028 $
04850KAOH AOH20160204033511502/04/16 03:35:31  5-MIN KAOH 040835Z AUTO 25016KT 10SM OVC012 M01/M03 A3008 830 85 -900 260/16 RMK AO2 T10111033 $
04850KAOH AOH20160204034011502/04/16 03:40:31  5-MIN KAOH 040840Z AUTO 26014KT 10SM OVC012 M01/M03 A3008 830 85 -900 270/14 RMK AO2 T10111033 $
04850KAOH AOH20160204034512102/04/16 03:45:31  5-MIN KAOH 040845Z AUTO 26018G22KT 10SM OVC012 M01/M04 A3008 830 81 -900 270/18G22 RMK AO2 T10111039 $
04850KAOH AOH20160204035012802/04/16 03:50:31  5-MIN KAOH 040850Z AUTO 26015KT 10SM OVC014 M01/M03 A3009 830 85 -900 260/15 RMK AO2 SLP195 T10111033 53021 $
04850KAOH AOH20160204035511502/04/16 03:55:31  5-MIN KAOH 040855Z AUTO 26015KT 10SM OVC014 M01/M03 A3009 820 85 -900 270/15 RMK AO2 T10111033 $
04850KAOH AOH20160204040011502/04/16 04:00:31  5-MIN KAOH 040900Z AUTO 26013KT 10SM OVC016 M01/M04 A3009 820 81 -900 270/13 RMK AO2 T10111039 $
04850KAOH AOH20160204040511502/04/16 04:05:31  5-MIN KAOH 040905Z AUTO 26013KT 10SM OVC016 M01/M04 A3009 820 81 -900 260/13 RMK AO2 T10111039 $
04850KAOH AOH20160204041011502/04/16 04:10:31  5-MIN KAOH 040910Z AUTO 25013KT 10SM OVC018 M01/M04 A3009 820 81 -900 260/13 RMK AO2 T10111039 $
04850KAOH AOH20160204041511502/04/16 04:15:31  5-MIN KAOH 040915Z AUTO 25015KT 10SM OVC018 M01/M04 A3009 820 78 -900 260/15 RMK AO2 T10111044 $
04850KAOH AOH20160204042011502/04/16 04:20:31  5-MIN KAOH 040920Z AUTO 26013KT 10SM OVC020 M01/M04 A3009 820 78 -900 260/13 RMK AO2 T10111044 $
04850KAOH AOH20160204042511502/04/16 04:25:31  5-MIN KAOH 040925Z AUTO 25013KT 10SM OVC020 M01/M04 A3009 820 78 -900 260/13 RMK AO2 T10111044 $
04850KAOH AOH20160204043011502/04/16 04:30:31  5-MIN KAOH 040930Z AUTO 25013KT 10SM OVC022 M01/M04 A3009 820 78 -900 260/13 RMK AO2 T10111044 $
04850KAOH AOH20160204043511502/04/16 04:35:31  5-MIN KAOH 040935Z AUTO 25012KT 10SM OVC022 M01/M04 A3009 820 81 -900 260/12 RMK AO2 T10111039 $
04850KAOH AOH20160204044012202/04/16 04:40:31  5-MIN KAOH 040940Z AUTO 24012KT 10SM FEW015 OVC022 M01/M04 A3010 820 81 -900 250/12 RMK AO2 T10111039 $
04850KAOH AOH20160204044512202/04/16 04:45:31  5-MIN KAOH 040945Z AUTO 25011KT 10SM FEW015 OVC022 M01/M04 A3010 820 81 -900 250/11 RMK AO2 T10111039 $
04850KAOH AOH20160204045012902/04/16 04:50:31  5-MIN KAOH 040950Z AUTO 25016KT 10SM SCT015 OVC022 M01/M04 A3010 810 81 -900 250/16 RMK AO2 SLP200 T10111039 $
04850KAOH AOH20160204045512902/04/16 04:55:31  5-MIN KAOH 040955Z AUTO 24011KT 10SM SCT016 BKN022 OVC028 M01/M04 A3010 810 81 -900 250/11 RMK AO2 T10111039 $
04850KAOH AOH20160204050012202/04/16 05:00:31  5-MIN KAOH 041000Z AUTO 25013KT 10SM SCT016 OVC022 M01/M04 A3010 810 81 -900 260/13 RMK AO2 T10111039 $
04850KAOH AOH20160204050512902/04/16 05:05:31  5-MIN KAOH 041005Z AUTO 25013KT 10SM SCT016 BKN022 OVC029 M01/M04 A3010 810 78 -900 250/13 RMK AO2 T10111044 $
04850KAOH AOH20160204051012202/04/16 05:10:31  5-MIN KAOH 041010Z AUTO 24011KT 10SM SCT018 OVC029 M01/M04 A3011 810 78 -900 250/11 RMK AO2 T10111044 $
04850KAOH AOH20160204051512902/04/16 05:15:31  5-MIN KAOH 041015Z AUTO 25012KT 10SM FEW016 FEW021 OVC029 M01/M04 A3011 800 78 -900 250/12 RMK AO2 T10111044 $
04850KAOH AOH20160204052011502/04/16 05:20:31  5-MIN KAOH 041020Z AUTO 25015KT 10SM OVC027 M01/M05 A3011 800 75 -900 260/15 RMK AO2 T10111050 $
04850KAOH AOH20160204052511502/04/16 05:25:31  5-MIN KAOH 041025Z AUTO 25012KT 10SM OVC027 M01/M04 A3011 800 78 -900 250/12 RMK AO2 T10111044 $
04850KAOH AOH20160204053011502/04/16 05:30:31  5-MIN KAOH 041030Z AUTO 25015KT 10SM OVC027 M01/M04 A3011 800 78 -900 260/15 RMK AO2 T10111044 $
04850KAOH AOH20160204053511502/04/16 05:35:31  5-MIN KAOH 041035Z AUTO 25015KT 10SM OVC027 M01/M05 A3012 800 75 -900 260/15 RMK AO2 T10111050 $
04850KAOH AOH20160204054011602/04/16 05:40:31  5-MIN KAOH 041040Z AUTO 25017KT 10SM OVC028 M02/M05 A3012 800 78 -1000 250/17 RMK AO2 T10171050 $
04850KAOH AOH20160204054511602/04/16 05:45:31  5-MIN KAOH 041045Z AUTO 24014KT 10SM OVC028 M02/M05 A3012 790 78 -1000 250/14 RMK AO2 T10171050 $
04850KAOH AOH20160204055012302/04/16 05:50:31  5-MIN KAOH 041050Z AUTO 25016KT 10SM OVC028 M02/M05 A3012 790 78 -1000 250/16 RMK AO2 SLP208 T10171050 $
04850KAOH AOH20160204055511602/04/16 05:55:31  5-MIN KAOH 041055Z AUTO 25016KT 10SM OVC029 M02/M04 A3012 790 81 -1000 260/16 RMK AO2 T10171044 $
04850KAOH AOH20160204060011602/04/16 06:00:31  5-MIN KAOH 041100Z AUTO 25015KT 10SM OVC029 M02/M04 A3012 790 81 -1000 250/15 RMK AO2 T10171044 $
04850KAOH AOH20160204060511602/04/16 06:05:31  5-MIN KAOH 041105Z AUTO 25016KT 10SM OVC029 M02/M05 A3012 790 78 -1000 260/16 RMK AO2 T10171050 $
04850KAOH AOH20160204061012202/04/16 06:10:31  5-MIN KAOH 041110Z AUTO 25015G22KT 10SM OVC029 M02/M05 A3012 790 78 -1000 250/15G22 RMK AO2 T10171050 $
04850KAOH AOH20160204061511602/04/16 06:15:31  5-MIN KAOH 041115Z AUTO 24013KT 10SM OVC029 M02/M05 A3012 790 78 -1000 250/13 RMK AO2 T10171050 $
04850KAOH AOH20160204062011602/04/16 06:20:31  5-MIN KAOH 041120Z AUTO 24011KT 10SM OVC029 M02/M05 A3013 790 78 -1000 250/11 RMK AO2 T10171050 $
04850KAOH AOH20160204062511602/04/16 06:25:31  5-MIN KAOH 041125Z AUTO 25011KT 10SM OVC029 M02/M04 A3013 790 81 -1000 260/11 RMK AO2 T10171044 $
04850KAOH AOH20160204063012302/04/16 06:30:31  5-MIN KAOH 041130Z AUTO 25014KT 10SM SCT023 OVC029 M02/M05 A3013 790 78 -1000 260/14 RMK AO2 T10171050 $
04850KAOH AOH20160204063512302/04/16 06:35:31  5-MIN KAOH 041135Z AUTO 25010KT 10SM BKN023 OVC029 M02/M05 A3013 790 78 -1000 250/10 RMK AO2 T10171050 $
04850KAOH AOH20160204064012302/04/16 06:40:31  5-MIN KAOH 041140Z AUTO 25013KT 10SM BKN022 OVC029 M02/M05 A3013 790 78 -1000 260/13 RMK AO2 T10171050 $
04850KAOH AOH20160204064512302/04/16 06:45:31  5-MIN KAOH 041145Z AUTO 25012KT 10SM BKN022 OVC029 M02/M05 A3013 780 78 -1000 260/12 RMK AO2 T10171050 $
04850KAOH AOH20160204065013902/04/16 06:50:31  5-MIN KAOH 041150Z AUTO 25013KT 10SM OVC022 M02/M05 A3013 780 78 -1000 250/13 RMK AO2 SLP211 T10171050 10000 21017 53017
04850KAOH AOH20160204065511402/04/16 06:55:31  5-MIN KAOH 041155Z AUTO 24014KT 10SM OVC022 M02/M06 A3013 780 75 -1000 240/14 RMK AO2 T10171056
04850KAOH AOH20160204070012102/04/16 07:00:31  5-MIN KAOH 041200Z AUTO 24012KT 10SM BKN022 OVC028 M02/M06 A3013 780 75 -1000 250/12 RMK AO2 T10171056
04850KAOH AOH20160204070511402/04/16 07:05:31  5-MIN KAOH 041205Z AUTO 23012KT 10SM OVC022 M02/M06 A3013 780 75 -1000 240/12 RMK AO2 T10171056
04850KAOH AOH20160204071011402/04/16 07:10:31  5-MIN KAOH 041210Z AUTO 24011KT 10SM OVC024 M02/M06 A3013 780 75 -1000 250/11 RMK AO2 T10171056
04850KAOH AOH20160204071511402/04/16 07:15:31  5-MIN KAOH 041215Z AUTO 24010KT 10SM OVC024 M02/M06 A3014 780 75 -1000 240/10 RMK AO2 T10171056
04850KAOH AOH20160204072011402/04/16 07:20:31  5-MIN KAOH 041220Z AUTO 23011KT 10SM OVC024 M02/M06 A3014 780 75 -1000 240/11 RMK AO2 T10171056
04850KAOH AOH20160204072511402/04/16 07:25:31  5-MIN KAOH 041225Z AUTO 23013KT 10SM OVC024 M02/M06 A3014 780 75 -1000 240/13 RMK AO2 T10171056
04850KAOH AOH20160204073011402/04/16 07:30:31  5-MIN KAOH 041230Z AUTO 24014KT 10SM OVC024 M02/M06 A3014 770 75 -1000 240/14 RMK AO2 T10171056
04850KAOH AOH20160204073512102/04/16 07:35:31  5-MIN KAOH 041235Z AUTO 23013KT 10SM SCT019 OVC024 M02/M06 A3015 770 75 -1000 240/13 RMK AO2 T10171056
04850KAOH AOH20160204074012102/04/16 07:40:31  5-MIN KAOH 041240Z AUTO 23009KT 10SM BKN017 OVC025 M02/M06 A3015 770 75 -1000 240/09 RMK AO2 T10171056
04850KAOH AOH20160204074512102/04/16 07:45:31  5-MIN KAOH 041245Z AUTO 24010KT 10SM BKN017 OVC025 M02/M06 A3015 770 75 -1000 240/10 RMK AO2 T10171056
04850KAOH AOH20160204075012802/04/16 07:50:31  5-MIN KAOH 041250Z AUTO 23011KT 10SM BKN017 OVC025 M02/M06 A3015 760 75 -1000 240/11 RMK AO2 SLP220 T10171056
04850KAOH AOH20160204075511402/04/16 07:55:31  5-MIN KAOH 041255Z AUTO 24010KT 10SM OVC017 M02/M06 A3015 760 75 -1000 240/10 RMK AO2 T10171056
04850KAOH AOH20160204080011402/04/16 08:00:31  5-MIN KAOH 041300Z AUTO 24010KT 10SM OVC017 M02/M06 A3016 760 78 -1100 250/10 RMK AO2 T10221056
04850KAOH AOH20160204080511402/04/16 08:05:31  5-MIN KAOH 041305Z AUTO 23010KT 10SM OVC019 M02/M06 A3016 760 75 -1000 240/10 RMK AO2 T10171056
04850KAOH AOH20160204081011402/04/16 08:10:31  5-MIN KAOH 041310Z AUTO 23009KT 10SM OVC019 M02/M06 A3016 750 75 -1000 240/09 RMK AO2 T10171056
04850KAOH AOH20160204081511402/04/16 08:15:31  5-MIN KAOH 041315Z AUTO 23009KT 10SM OVC019 M02/M06 A3016 750 75 -1000 230/09 RMK AO2 T10171056
04850KAOH AOH20160204082011402/04/16 08:20:31  5-MIN KAOH 041320Z AUTO 23014KT 10SM OVC019 M02/M06 A3017 750 78 -1100 240/14 RMK AO2 T10221056
04850KAOH AOH20160204082511402/04/16 08:25:31  5-MIN KAOH 041325Z AUTO 23013KT 10SM OVC019 M02/M06 A3017 750 78 -1100 240/13 RMK AO2 T10221056
04850KAOH AOH20160204083011402/04/16 08:30:31  5-MIN KAOH 041330Z AUTO 23010KT 10SM OVC019 M02/M06 A3017 750 78 -1100 240/10 RMK AO2 T10221056
04850KAOH AOH20160204083511402/04/16 08:35:31  5-MIN KAOH 041335Z AUTO 24009KT 10SM OVC019 M02/M06 A3017 750 78 -1100 250/09 RMK AO2 T10221056
04850KAOH AOH20160204084011402/04/16 08:40:31  5-MIN KAOH 041340Z AUTO 23009KT 10SM OVC018 M02/M05 A3017 750 81 -1100 240/09 RMK AO2 T10221050
04850KAOH AOH20160204084511402/04/16 08:45:31  5-MIN KAOH 041345Z AUTO 24010KT 10SM OVC016 M02/M05 A3017 750 81 -1100 250/10 RMK AO2 T10221050
04850KAOH AOH20160204085012102/04/16 08:50:31  5-MIN KAOH 041350Z AUTO 23010KT 10SM OVC016 M02/M05 A3017 750 81 -1100 240/10 RMK AO2 SLP227 T10221050
04850KAOH AOH20160204085511402/04/16 08:55:31  5-MIN KAOH 041355Z AUTO 24012KT 10SM OVC016 M02/M06 A3017 740 78 -1100 250/12 RMK AO2 T10221056
04850KAOH AOH20160204090011302/04/16 09:00:31  5-MIN KAOH 041400Z AUTO 26011KT 9SM OVC016 M02/M05 A3018 740 81 -1100 270/11 RMK AO2 T10221050
04850KAOH AOH20160204090511302/04/16 09:05:31  5-MIN KAOH 041405Z AUTO 24010KT 9SM OVC016 M02/M05 A3018 740 81 -1100 250/10 RMK AO2 T10221050
04850KAOH AOH20160204091011402/04/16 09:10:31  5-MIN KAOH 041410Z AUTO 24011KT 10SM OVC015 M02/M05 A3018 740 81 -1100 250/11 RMK AO2 T10221050
04850KAOH AOH20160204091511402/04/16 09:15:31  5-MIN KAOH 041415Z AUTO 24012KT 10SM OVC015 M02/M06 A3018 730 78 -1100 240/12 RMK AO2 T10221056
04850KAOH AOH20160204092011402/04/16 09:20:31  5-MIN KAOH 041420Z AUTO 25011KT 10SM OVC015 M02/M05 A3018 730 81 -1100 250/11 RMK AO2 T10221050
04850KAOH AOH20160204092511402/04/16 09:25:31  5-MIN KAOH 041425Z AUTO 25011KT 10SM OVC015 M02/M06 A3019 730 78 -1100 250/11 RMK AO2 T10221056
04850KAOH AOH20160204093011402/04/16 09:30:31  5-MIN KAOH 041430Z AUTO 24010KT 10SM OVC015 M02/M06 A3019 730 78 -1100 250/10 RMK AO2 T10221056
04850KAOH AOH20160204093511402/04/16 09:35:31  5-MIN KAOH 041435Z AUTO 27008KT 10SM OVC017 M02/M06 A3019 730 78 -1100 280/08 RMK AO2 T10221056
04850KAOH AOH20160204094011402/04/16 09:40:31  5-MIN KAOH 041440Z AUTO 26009KT 10SM OVC017 M02/M05 A3019 730 81 -1100 270/09 RMK AO2 T10221050
04850KAOH AOH20160204094511402/04/16 09:45:31  5-MIN KAOH 041445Z AUTO 26007KT 10SM OVC017 M02/M05 A3019 730 81 -1100 260/07 RMK AO2 T10221050
04850KAOH AOH20160204095012702/04/16 09:50:31  5-MIN KAOH 041450Z AUTO 25009KT 10SM OVC017 M02/M05 A3019 730 81 -1100 250/09 RMK AO2 SLP234 T10221050 51015
04850KAOH AOH20160204095511302/04/16 09:55:31  5-MIN KAOH 041455Z AUTO 25008KT 9SM OVC016 M02/M05 A3019 730 81 -1100 260/08 RMK AO2 T10221050
04850KAOH AOH20160204100011302/04/16 10:00:31  5-MIN KAOH 041500Z AUTO 25008KT 8SM OVC016 M02/M05 A3019 730 81 -1100 260/08 RMK AO2 T10221050
04850KAOH AOH20160204100511302/04/16 10:05:31  5-MIN KAOH 041505Z AUTO 25009KT 8SM OVC016 M02/M05 A3019 730 81 -1100 260/09 RMK AO2 T10221050
04850KAOH AOH20160204101012902/04/16 10:10:31  5-MIN KAOH 041510Z AUTO 26012KT 8SM -SN OVC016 M02/M05 A3020 720 81 -1100 260/12 RMK AO2 SNB08 P0000 T10221050
04850KAOH AOH20160204101512802/04/16 10:15:31  5-MIN KAOH 041515Z AUTO 26014KT 9SM OVC016 M02/M05 A3020 720 81 -1100 270/14 RMK AO2 SNB08E12 P0000 T10221050
04850KAOH AOH20160204102012902/04/16 10:20:31  5-MIN KAOH 041520Z AUTO 25012KT 10SM OVC016 M02/M06 A3020 720 78 -1100 260/12 RMK AO2 SNB08E12 P0000 T10221056
04850KAOH AOH20160204102512902/04/16 10:25:31  5-MIN KAOH 041525Z AUTO 25011KT 10SM OVC016 M02/M06 A3020 720 78 -1100 250/11 RMK AO2 SNB08E12 P0000 T10221056
04850KAOH AOH20160204103012902/04/16 10:30:31  5-MIN KAOH 041530Z AUTO 25009KT 10SM OVC018 M02/M06 A3020 720 78 -1100 260/09 RMK AO2 SNB08E12 P0000 T10221056
04850KAOH AOH20160204103512902/04/16 10:35:31  5-MIN KAOH 041535Z AUTO 27009KT 10SM OVC018 M02/M06 A3020 720 78 -1100 280/09 RMK AO2 SNB08E12 P0000 T10221056
04850KAOH AOH20160204104012902/04/16 10:40:31  5-MIN KAOH 041540Z AUTO 27010KT 10SM OVC018 M02/M06 A3020 720 78 -1100 270/10 RMK AO2 SNB08E12 P0000 T10221056
04850KAOH AOH20160204104512902/04/16 10:45:31  5-MIN KAOH 041545Z AUTO 27009KT 10SM OVC019 M02/M05 A3020 720 81 -1100 270/09 RMK AO2 SNB08E12 P0000 T10221050
04850KAOH AOH20160204105013602/04/16 10:50:31  5-MIN KAOH 041550Z AUTO 27009KT 10SM OVC019 M02/M05 A3020 720 81 -1100 280/09 RMK AO2 SNB08E12 SLP237 P0000 T10221050
04850KAOH AOH20160204105511402/04/16 10:55:31  5-MIN KAOH 041555Z AUTO 27009KT 10SM OVC019 M02/M05 A3020 720 81 -1100 280/09 RMK AO2 T10221050
04850KAOH AOH20160204110011402/04/16 11:00:31  5-MIN KAOH 041600Z AUTO 26008KT 10SM OVC019 M02/M05 A3020 720 81 -1100 270/08 RMK AO2 T10221050
04850KAOH AOH20160204110511402/04/16 11:05:31  5-MIN KAOH 041605Z AUTO 27009KT 10SM OVC019 M02/M05 A3020 720 81 -1100 280/09 RMK AO2 T10221050
04850KAOH AOH20160204111011402/04/16 11:10:31  5-MIN KAOH 041610Z AUTO 26008KT 10SM OVC017 M02/M05 A3020 720 81 -1100 260/08 RMK AO2 T10221050
04850KAOH AOH20160204111511402/04/16 11:15:31  5-MIN KAOH 041615Z AUTO 26007KT 10SM OVC017 M02/M05 A3020 720 81 -1100 260/07 RMK AO2 T10221050
04850KAOH AOH20160204112011402/04/16 11:20:31  5-MIN KAOH 041620Z AUTO 26010KT 10SM OVC017 M02/M05 A3020 720 81 -1100 260/10 RMK AO2 T10221050
04850KAOH AOH20160204112511402/04/16 11:25:31  5-MIN KAOH 041625Z AUTO 26012KT 10SM OVC017 M02/M05 A3020 720 81 -1100 270/12 RMK AO2 T10221050
04850KAOH AOH20160204113011402/04/16 11:30:31  5-MIN KAOH 041630Z AUTO 26014KT 10SM OVC017 M02/M05 A3020 720 81 -1100 270/14 RMK AO2 T10221050
04850KAOH AOH20160204113511402/04/16 11:35:31  5-MIN KAOH 041635Z AUTO 26012KT 10SM OVC017 M02/M05 A3020 720 81 -1100 260/12 RMK AO2 T10221050
04850KAOH AOH20160204114011402/04/16 11:40:31  5-MIN KAOH 041640Z AUTO 25011KT 10SM OVC016 M02/M05 A3020 720 81 -1100 260/11 RMK AO2 T10221050
04850KAOH AOH20160204114511402/04/16 11:45:31  5-MIN KAOH 041645Z AUTO 26012KT 10SM OVC016 M02/M06 A3020 720 78 -1100 260/12 RMK AO2 T10221056
04850KAOH AOH20160204115012102/04/16 11:50:31  5-MIN KAOH 041650Z AUTO 26012KT 10SM OVC016 M02/M05 A3020 720 81 -1100 270/12 RMK AO2 SLP239 T10221050
04850KAOH AOH20160204115511402/04/16 11:55:31  5-MIN KAOH 041655Z AUTO 26013KT 10SM OVC016 M02/M05 A3020 720 81 -1100 270/13 RMK AO2 T10221050
04850KAOH AOH20160204120011402/04/16 12:00:31  5-MIN KAOH 041700Z AUTO 28013KT 10SM OVC016 M02/M06 A3020 720 78 -1100 280/13 RMK AO2 T10221056
04850KAOH AOH20160204120511402/04/16 12:05:31  5-MIN KAOH 041705Z AUTO 26012KT 10SM OVC016 M02/M05 A3020 720 81 -1100 270/12 RMK AO2 T10221050
04850KAOH AOH20160204121011402/04/16 12:10:31  5-MIN KAOH 041710Z AUTO 26011KT 10SM OVC016 M02/M05 A3020 720 81 -1100 270/11 RMK AO2 T10221050
04850KAOH AOH20160204121511402/04/16 12:15:31  5-MIN KAOH 041715Z AUTO 27011KT 10SM OVC016 M02/M05 A3020 720 81 -1100 270/11 RMK AO2 T10221050
04850KAOH AOH20160204122011402/04/16 12:20:31  5-MIN KAOH 041720Z AUTO 27011KT 10SM OVC016 M02/M06 A3020 720 78 -1100 270/11 RMK AO2 T10221056
04850KAOH AOH20160204122511402/04/16 12:25:31  5-MIN KAOH 041725Z AUTO 26009KT 10SM OVC016 M02/M05 A3019 730 81 -1100 270/09 RMK AO2 T10221050
04850KAOH AOH20160204123011402/04/16 12:30:31  5-MIN KAOH 041730Z AUTO 25009KT 10SM OVC016 M02/M06 A3019 730 78 -1100 260/09 RMK AO2 T10221056
04850KAOH AOH20160204123511402/04/16 12:35:31  5-MIN KAOH 041735Z AUTO 26009KT 10SM OVC016 M02/M05 A3019 730 81 -1100 270/09 RMK AO2 T10221050
04850KAOH AOH20160204124011402/04/16 12:40:31  5-MIN KAOH 041740Z AUTO 26010KT 10SM OVC016 M02/M05 A3019 730 81 -1100 260/10 RMK AO2 T10221050
04850KAOH AOH20160204124511402/04/16 12:45:31  5-MIN KAOH 041745Z AUTO 27010KT 10SM OVC016 M02/M05 A3018 740 81 -1100 270/10 RMK AO2 T10221050
04850KAOH AOH20160204125014502/04/16 12:50:31  5-MIN KAOH 041750Z AUTO 26010KT 10SM OVC016 M02/M05 A3018 740 81 -1100 260/10 RMK AO2 SLP232 60000 T10221050 11017 21022 51021
04850KAOH AOH20160204125511402/04/16 12:55:31  5-MIN KAOH 041755Z AUTO 26012KT 10SM OVC016 M02/M05 A3018 740 81 -1100 270/12 RMK AO2 T10221050
04850KAOH AOH20160204130011402/04/16 13:00:31  5-MIN KAOH 041800Z AUTO 26009KT 10SM OVC016 M02/M05 A3018 740 81 -1100 270/09 RMK AO2 T10221050
04850KAOH AOH20160204130512002/04/16 13:05:31  5-MIN KAOH 041805Z AUTO 26015G19KT 10SM OVC016 M02/M05 A3018 730 81 -1100 270/15G19 RMK AO2 T10221050
04850KAOH AOH20160204131011402/04/16 13:10:31  5-MIN KAOH 041810Z AUTO 27013KT 10SM OVC015 M02/M05 A3018 740 81 -1100 280/13 RMK AO2 T10221050
04850KAOH AOH20160204131511402/04/16 13:15:31  5-MIN KAOH 041815Z AUTO 27017KT 10SM OVC015 M03/M06 A3018 740 81 -1200 270/17 RMK AO2 T10281056
04850KAOH AOH20160204132011402/04/16 13:20:31  5-MIN KAOH 041820Z AUTO 27015KT 10SM OVC015 M03/M06 A3018 740 81 -1200 270/15 RMK AO2 T10281056
04850KAOH AOH20160204132511402/04/16 13:25:31  5-MIN KAOH 041825Z AUTO 27017KT 10SM OVC015 M03/M06 A3018 730 81 -1200 270/17 RMK AO2 T10281056
04850KAOH AOH20160204133011402/04/16 13:30:31  5-MIN KAOH 041830Z AUTO 26015KT 10SM OVC015 M03/M06 A3018 740 81 -1200 270/15 RMK AO2 T10281056
04850KAOH AOH20160204133511402/04/16 13:35:31  5-MIN KAOH 041835Z AUTO 26014KT 10SM OVC015 M03/M06 A3018 730 81 -1200 270/14 RMK AO2 T10281056
04850KAOH AOH20160204134011402/04/16 13:40:31  5-MIN KAOH 041840Z AUTO 26013KT 10SM OVC015 M03/M06 A3018 740 81 -1200 270/13 RMK AO2 T10281056
04850KAOH AOH20160204134511402/04/16 13:45:31  5-MIN KAOH 041845Z AUTO 26013KT 10SM OVC017 M03/M06 A3018 740 78 -1200 270/13 RMK AO2 T10281061
04850KAOH AOH20160204135012102/04/16 13:50:31  5-MIN KAOH 041850Z AUTO 26014KT 10SM OVC017 M03/M06 A3018 740 78 -1200 260/14 RMK AO2 SLP231 T10281061
04850KAOH AOH20160204135511402/04/16 13:55:31  5-MIN KAOH 041855Z AUTO 26013KT 10SM OVC019 M03/M06 A3018 740 78 -1200 260/13 RMK AO2 T10281061
04850KAOH AOH20160204140011402/04/16 14:00:31  5-MIN KAOH 041900Z AUTO 26015KT 10SM OVC019 M03/M06 A3018 740 78 -1200 270/15 RMK AO2 T10281061
04850KAOH AOH20160204140511402/04/16 14:05:31  5-MIN KAOH 041905Z AUTO 27015KT 10SM OVC019 M02/M06 A3018 740 75 -1100 270/15 RMK AO2 T10221061
04850KAOH AOH20160204141011402/04/16 14:10:31  5-MIN KAOH 041910Z AUTO 27014KT 10SM OVC021 M02/M06 A3018 740 75 -1100 270/14 RMK AO2 T10221061
04850KAOH AOH20160204141511402/04/16 14:15:31  5-MIN KAOH 041915Z AUTO 26014KT 10SM OVC023 M02/M06 A3018 740 75 -1100 270/14 RMK AO2 T10221061
04850KAOH AOH20160204142012102/04/16 14:20:31  5-MIN KAOH 041920Z AUTO 28011KT 10SM BKN021 OVC030 M02/M06 A3017 740 78 -1100 290/11 RMK AO2 T10221056
04850KAOH AOH20160204142512102/04/16 14:25:31  5-MIN KAOH 041925Z AUTO 27013KT 10SM SCT021 OVC030 M02/M06 A3017 740 75 -1100 280/13 RMK AO2 T10221061
04850KAOH AOH20160204143012102/04/16 14:30:31  5-MIN KAOH 041930Z AUTO 27011KT 10SM FEW023 OVC030 M02/M06 A3017 750 75 -1100 280/11 RMK AO2 T10221061
04850KAOH AOH20160204143512102/04/16 14:35:31  5-MIN KAOH 041935Z AUTO 27013KT 10SM FEW022 OVC031 M02/M06 A3017 750 75 -1100 280/13 RMK AO2 T10221061
04850KAOH AOH20160204144012802/04/16 14:40:31  5-MIN KAOH 041940Z AUTO 26012KT 10SM FEW020 BKN028 OVC033 M02/M06 A3017 750 75 -1100 270/12 RMK AO2 T10221061
04850KAOH AOH20160204144512102/04/16 14:45:31  5-MIN KAOH 041945Z AUTO 25013KT 10SM FEW022 OVC031 M02/M06 A3017 750 75 -1100 260/13 RMK AO2 T10221061
04850KAOH AOH20160204145013502/04/16 14:50:31  5-MIN KAOH 041950Z AUTO 25015KT 10SM FEW022 BKN029 OVC033 M02/M06 A3017 740 75 -1100 260/15 RMK AO2 SLP228 T10221061
04850KAOH AOH20160204145512102/04/16 14:55:31  5-MIN KAOH 041955Z AUTO 25014KT 10SM FEW022 OVC031 M02/M06 A3017 750 75 -1100 260/14 RMK AO2 T10221061
04850KAOH AOH20160204150012802/04/16 15:00:31  5-MIN KAOH 042000Z AUTO 25013KT 10SM FEW019 BKN025 OVC033 M02/M06 A3017 740 75 -1100 260/13 RMK AO2 T10221061
04850KAOH AOH20160204150512102/04/16 15:05:31  5-MIN KAOH 042005Z AUTO 25014KT 10SM BKN021 OVC030 M02/M06 A3017 740 75 -1100 260/14 RMK AO2 T10221061
04850KAOH AOH20160204151012102/04/16 15:10:31  5-MIN KAOH 042010Z AUTO 27013KT 10SM BKN021 OVC028 M02/M06 A3017 740 75 -1100 270/13 RMK AO2 T10221061
04850KAOH AOH20160204151512102/04/16 15:15:31  5-MIN KAOH 042015Z AUTO 27013KT 10SM BKN021 OVC028 M02/M06 A3018 740 78 -1100 270/13 RMK AO2 T10221056
04850KAOH AOH20160204152012102/04/16 15:20:31  5-MIN KAOH 042020Z AUTO 26013KT 10SM BKN021 OVC028 M03/M06 A3018 740 78 -1200 260/13 RMK AO2 T10281061
04850KAOH AOH20160204152512102/04/16 15:25:31  5-MIN KAOH 042025Z AUTO 28012KT 10SM BKN021 OVC026 M03/M06 A3018 740 81 -1200 280/12 RMK AO2 T10281056
04850KAOH AOH20160204153012102/04/16 15:30:31  5-MIN KAOH 042030Z AUTO 27011KT 10SM BKN021 OVC026 M02/M06 A3018 740 78 -1100 280/11 RMK AO2 T10221056
04850KAOH AOH20160204153512102/04/16 15:35:31  5-MIN KAOH 042035Z AUTO 27013KT 10SM SCT019 OVC026 M03/M06 A3018 740 81 -1200 270/13 RMK AO2 T10281056
04850KAOH AOH20160204154012102/04/16 15:40:31  5-MIN KAOH 042040Z AUTO 26012KT 10SM FEW019 OVC026 M03/M06 A3018 740 81 -1200 270/12 RMK AO2 T10281056
04850KAOH AOH20160204154512102/04/16 15:45:31  5-MIN KAOH 042045Z AUTO 26013KT 10SM FEW017 OVC026 M03/M06 A3018 730 81 -1200 260/13 RMK AO2 T10281056
04850KAOH AOH20160204155012702/04/16 15:50:31  5-MIN KAOH 042050Z AUTO 26014KT 10SM OVC026 M02/M06 A3019 730 75 -1100 270/14 RMK AO2 SLP233 T10221061 58004
04850KAOH AOH20160204155512102/04/16 15:55:31  5-MIN KAOH 042055Z AUTO 26011KT 10SM BKN026 OVC031 M02/M06 A3019 730 78 -1100 270/11 RMK AO2 T10221056
04850KAOH AOH20160204160012102/04/16 16:00:31  5-MIN KAOH 042100Z AUTO 25010KT 10SM SCT026 OVC031 M02/M06 A3019 730 78 -1100 260/10 RMK AO2 T10221056
04850KAOH AOH20160204160511402/04/16 16:05:31  5-MIN KAOH 042105Z AUTO 25010KT 10SM OVC031 M02/M06 A3019 730 75 -1100 250/10 RMK AO2 T10221061
04850KAOH AOH20160204161012102/04/16 16:10:31  5-MIN KAOH 042110Z AUTO 25013KT 10SM SCT022 OVC031 M02/M06 A3019 730 75 -1100 250/13 RMK AO2 T10221061
04850KAOH AOH20160204161512102/04/16 16:15:31  5-MIN KAOH 042115Z AUTO 25011KT 10SM BKN022 OVC031 M02/M06 A3019 730 75 -1100 260/11 RMK AO2 T10221061
04850KAOH AOH20160204162012102/04/16 16:20:31  5-MIN KAOH 042120Z AUTO 25012KT 10SM BKN022 OVC031 M02/M06 A3019 730 75 -1100 260/12 RMK AO2 T10221061
04850KAOH AOH20160204162512102/04/16 16:25:31  5-MIN KAOH 042125Z AUTO 26013KT 10SM BKN022 OVC031 M02/M06 A3019 730 75 -1100 270/13 RMK AO2 T10221061
04850KAOH AOH20160204163012802/04/16 16:30:31  5-MIN KAOH 042130Z AUTO 27012KT 10SM BKN020 BKN026 OVC031 M02/M06 A3019 730 75 -1100 270/12 RMK AO2 T10221061
04850KAOH AOH20160204163512102/04/16 16:35:31  5-MIN KAOH 042135Z AUTO 27013KT 10SM BKN020 OVC031 M02/M06 A3019 730 78 -1100 280/13 RMK AO2 T10221056
04850KAOH AOH20160204164012802/04/16 16:40:31  5-MIN KAOH 042140Z AUTO 27012KT 10SM SCT020 BKN025 OVC031 M02/M06 A3019 720 78 -1100 270/12 RMK AO2 T10221056
04850KAOH AOH20160204164512102/04/16 16:45:31  5-MIN KAOH 042145Z AUTO 27014KT 10SM SCT020 OVC031 M02/M06 A3020 720 78 -1100 270/14 RMK AO2 T10221056
04850KAOH AOH20160204165012802/04/16 16:50:31  5-MIN KAOH 042150Z AUTO 27013KT 10SM FEW020 OVC029 M02/M06 A3020 720 75 -1100 270/13 RMK AO2 SLP237 T10221061
04850KAOH AOH20160204165512102/04/16 16:55:31  5-MIN KAOH 042155Z AUTO 27012KT 10SM FEW020 OVC029 M02/M07 A3020 720 72 -1100 270/12 RMK AO2 T10221067
04850KAOH AOH20160204170011402/04/16 17:00:31  5-MIN KAOH 042200Z AUTO 27011KT 10SM OVC029 M02/M06 A3020 720 75 -1100 280/11 RMK AO2 T10221061
04850KAOH AOH20160204170511402/04/16 17:05:31  5-MIN KAOH 042205Z AUTO 26012KT 10SM OVC029 M02/M07 A3020 720 72 -1100 260/12 RMK AO2 T10221067
04850KAOH AOH20160204171011402/04/16 17:10:31  5-MIN KAOH 042210Z AUTO 26011KT 10SM OVC027 M02/M06 A3021 710 75 -1100 260/11 RMK AO2 T10221061
04850KAOH AOH20160204171511402/04/16 17:15:31  5-MIN KAOH 042215Z AUTO 27014KT 10SM OVC027 M02/M06 A3021 710 75 -1100 280/14 RMK AO2 T10221061
04850KAOH AOH20160204172012102/04/16 17:20:31  5-MIN KAOH 042220Z AUTO 28012KT 10SM BKN022 OVC029 M02/M06 A3021 710 75 -1100 280/12 RMK AO2 T10221061
04850KAOH AOH20160204172512702/04/16 17:25:31  5-MIN KAOH 042225Z AUTO 28010G18KT 10SM SCT021 OVC029 M02/M06 A3022 710 75 -1100 280/10G18 RMK AO2 T10221061
04850KAOH AOH20160204173012102/04/16 17:30:31  5-MIN KAOH 042230Z AUTO 28011KT 10SM SCT021 OVC029 M02/M06 A3022 710 75 -1100 290/11 RMK AO2 T10221061
04850KAOH AOH20160204173512102/04/16 17:35:31  5-MIN KAOH 042235Z AUTO 28012KT 10SM BKN024 OVC031 M03/M06 A3022 700 78 -1200 290/12 RMK AO2 T10281061
04850KAOH AOH20160204174012102/04/16 17:40:31  5-MIN KAOH 042240Z AUTO 27012KT 10SM SCT022 OVC029 M03/M07 A3022 700 75 -1200 270/12 RMK AO2 T10281067
04850KAOH AOH20160204174512102/04/16 17:45:31  5-MIN KAOH 042245Z AUTO 27012KT 10SM SCT022 OVC029 M03/M07 A3022 700 75 -1200 280/12 RMK AO2 T10281067
04850KAOH AOH20160204175012802/04/16 17:50:31  5-MIN KAOH 042250Z AUTO 27011KT 10SM SCT022 OVC029 M03/M07 A3022 700 75 -1200 280/11 RMK AO2 SLP246 T10281067
04850KAOH AOH20160204175512102/04/16 17:55:31  5-MIN KAOH 042255Z AUTO 27011KT 10SM SCT022 OVC030 M03/M07 A3022 700 75 -1200 280/11 RMK AO2 T10281067
04850KAOH AOH20160204180012102/04/16 18:00:31  5-MIN KAOH 042300Z AUTO 27013KT 10SM BKN027 OVC032 M03/M07 A3022 700 75 -1200 280/13 RMK AO2 T10281067
04850KAOH AOH20160204180511402/04/16 18:05:31  5-MIN KAOH 042305Z AUTO 26014KT 10SM OVC025 M03/M07 A3023 700 71 -1200 270/14 RMK AO2 T10281072
04850KAOH AOH20160204181011402/04/16 18:10:31  5-MIN KAOH 042310Z AUTO 28012KT 10SM OVC025 M03/M07 A3023 690 71 -1200 290/12 RMK AO2 T10281072
04850KAOH AOH20160204181511402/04/16 18:15:31  5-MIN KAOH 042315Z AUTO 28014KT 10SM OVC026 M03/M08 A3023 690 68 -1200 290/14 RMK AO2 T10281078
04850KAOH AOH20160204182011402/04/16 18:20:31  5-MIN KAOH 042320Z AUTO 29012KT 10SM OVC026 M03/M08 A3023 690 68 -1200 300/12 RMK AO2 T10281078
04850KAOH AOH20160204182511402/04/16 18:25:31  5-MIN KAOH 042325Z AUTO 28010KT 10SM OVC026 M03/M08 A3023 690 68 -1200 290/10 RMK AO2 T10281078
04850KAOH AOH20160204183011402/04/16 18:30:31  5-MIN KAOH 042330Z AUTO 27013KT 10SM OVC026 M03/M08 A3024 690 68 -1200 280/13 RMK AO2 T10281078
04850KAOH AOH20160204183511402/04/16 18:35:31  5-MIN KAOH 042335Z AUTO 27013KT 10SM OVC026 M03/M08 A3024 680 68 -1200 280/13 RMK AO2 T10281078
04850KAOH AOH20160204184011402/04/16 18:40:31  5-MIN KAOH 042340Z AUTO 29009KT 10SM OVC026 M03/M08 A3024 680 68 -1200 300/09 RMK AO2 T10281078
04850KAOH AOH20160204184511402/04/16 18:45:31  5-MIN KAOH 042345Z AUTO 29011KT 10SM OVC026 M03/M08 A3025 680 71 -1300 300/11 RMK AO2 T10331078
04850KAOH AOH20160204185013902/04/16 18:50:31  5-MIN KAOH 042350Z AUTO 29009KT 10SM OVC025 M03/M08 A3025 680 71 -1300 300/09 RMK AO2 SLP255 T10331078 11022 21033 53001
04850KAOH AOH20160204185511402/04/16 18:55:31  5-MIN KAOH 042355Z AUTO 30012KT 10SM OVC025 M03/M07 A3025 670 74 -1300 310/12 RMK AO2 T10331072
04850KAOH AOH20160204190011402/04/16 19:00:31  5-MIN KAOH 050000Z AUTO 29010KT 10SM OVC025 M03/M08 A3025 670 71 -1300 290/10 RMK AO2 T10331078
04850KAOH AOH20160204190511402/04/16 19:05:31  5-MIN KAOH 050005Z AUTO 29011KT 10SM OVC024 M03/M08 A3025 670 68 -1300 290/11 RMK AO2 T10331083
04850KAOH AOH20160204191011402/04/16 19:10:31  5-MIN KAOH 050010Z AUTO 28013KT 10SM OVC024 M03/M08 A3026 670 71 -1300 280/13 RMK AO2 T10331078
04850KAOH AOH20160204191511402/04/16 19:15:31  5-MIN KAOH 050015Z AUTO 26012KT 10SM OVC025 M03/M08 A3026 660 71 -1300 270/12 RMK AO2 T10331078
04850KAOH AOH20160204192011402/04/16 19:20:31  5-MIN KAOH 050020Z AUTO 26014KT 10SM OVC025 M03/M08 A3026 660 68 -1300 270/14 RMK AO2 T10331083
04850KAOH AOH20160204192511402/04/16 19:25:31  5-MIN KAOH 050025Z AUTO 27011KT 10SM OVC025 M03/M08 A3026 660 68 -1300 280/11 RMK AO2 T10331083
04850KAOH AOH20160204193011402/04/16 19:30:31  5-MIN KAOH 050030Z AUTO 29011KT 10SM OVC025 M03/M08 A3026 660 68 -1300 300/11 RMK AO2 T10331083
04850KAOH AOH20160204193511402/04/16 19:35:31  5-MIN KAOH 050035Z AUTO 29009KT 10SM OVC026 M03/M08 A3026 660 68 -1300 300/09 RMK AO2 T10331083
04850KAOH AOH20160204194011402/04/16 19:40:31  5-MIN KAOH 050040Z AUTO 30013KT 10SM OVC026 M03/M08 A3027 660 68 -1300 310/13 RMK AO2 T10331083
04850KAOH AOH20160204194511402/04/16 19:45:31  5-MIN KAOH 050045Z AUTO 30011KT 10SM OVC026 M04/M08 A3027 660 71 -1400 310/11 RMK AO2 T10391083
04850KAOH AOH20160204195012102/04/16 19:50:31  5-MIN KAOH 050050Z AUTO 30012KT 10SM OVC026 M04/M09 A3027 660 68 -1400 310/12 RMK AO2 SLP262 T10391089
04850KAOH AOH20160204195512002/04/16 19:55:31  5-MIN KAOH 050055Z AUTO 29013G20KT 10SM OVC026 M04/M09 A3027 660 68 -1400 300/13G20 RMK AO2 T10391089
04850KAOH AOH20160204200012002/04/16 20:00:31  5-MIN KAOH 050100Z AUTO 29010G20KT 10SM OVC026 M04/M08 A3027 650 71 -1400 290/10G20 RMK AO2 T10391083
04850KAOH AOH20160204200511402/04/16 20:05:31  5-MIN KAOH 050105Z AUTO 31013KT 10SM OVC027 M04/M08 A3027 650 71 -1400 310/13 RMK AO2 T10391083
04850KAOH AOH20160204201012002/04/16 20:10:31  5-MIN KAOH 050110Z AUTO 29011G20KT 10SM OVC027 M04/M09 A3027 650 68 -1400 300/11G20 RMK AO2 T10391089
04850KAOH AOH20160204201512002/04/16 20:15:31  5-MIN KAOH 050115Z AUTO 29012G20KT 10SM OVC027 M04/M09 A3027 650 68 -1400 300/12G20 RMK AO2 T10391089
04850KAOH AOH20160204202011402/04/16 20:20:31  5-MIN KAOH 050120Z AUTO 28011KT 10SM OVC027 M04/M09 A3027 650 68 -1400 290/11 RMK AO2 T10391089
04850KAOH AOH20160204202511402/04/16 20:25:31  5-MIN KAOH 050125Z AUTO 29012KT 10SM OVC027 M04/M09 A3027 650 68 -1400 290/12 RMK AO2 T10391089
04850KAOH AOH20160204203011402/04/16 20:30:31  5-MIN KAOH 050130Z AUTO 30012KT 10SM OVC027 M04/M09 A3027 650 68 -1400 310/12 RMK AO2 T10391089
04850KAOH AOH20160204203511402/04/16 20:35:31  5-MIN KAOH 050135Z AUTO 30012KT 10SM OVC027 M04/M09 A3027 650 68 -1400 310/12 RMK AO2 T10391089
04850KAOH AOH20160204204011402/04/16 20:40:31  5-MIN KAOH 050140Z AUTO 31014KT 10SM OVC027 M04/M09 A3027 650 68 -1400 320/14 RMK AO2 T10391089
04850KAOH AOH20160204204511402/04/16 20:45:31  5-MIN KAOH 050145Z AUTO 28012KT 10SM OVC027 M04/M09 A3027 650 65 -1400 290/12 RMK AO2 T10391094
04850KAOH AOH20160204205012102/04/16 20:50:31  5-MIN KAOH 050150Z AUTO 29014KT 10SM OVC027 M04/M09 A3028 650 65 -1400 300/14 RMK AO2 SLP265 T10391094
04850KAOH AOH20160204205511402/04/16 20:55:31  5-MIN KAOH 050155Z AUTO 31010KT 10SM OVC027 M04/M09 A3028 650 65 -1400 310/10 RMK AO2 T10391094
04850KAOH AOH20160204210011402/04/16 21:00:31  5-MIN KAOH 050200Z AUTO 31008KT 10SM OVC027 M04/M09 A3028 650 65 -1400 320/08 RMK AO2 T10391094
04850KAOH AOH20160204210511402/04/16 21:05:31  5-MIN KAOH 050205Z AUTO 31008KT 10SM OVC027 M04/M09 A3027 650 68 -1400 310/08 RMK AO2 T10391089
04850KAOH AOH20160204211011402/04/16 21:10:31  5-MIN KAOH 050210Z AUTO 29010KT 10SM OVC027 M04/M09 A3027 650 65 -1400 300/10 RMK AO2 T10391094
04850KAOH AOH20160204211511402/04/16 21:15:31  5-MIN KAOH 050215Z AUTO 31008KT 10SM OVC027 M04/M09 A3028 650 68 -1400 320/08 RMK AO2 T10391089
04850KAOH AOH20160204212011402/04/16 21:20:31  5-MIN KAOH 050220Z AUTO 31006KT 10SM BKN028 M04/M09 A3028 650 68 -1400 310/06 RMK AO2 T10391089
04850KAOH AOH20160204212511402/04/16 21:25:31  5-MIN KAOH 050225Z AUTO 31007KT 10SM BKN028 M04/M09 A3028 650 71 -1500 310/07 RMK AO2 T10441089
04850KAOH AOH20160204213011402/04/16 21:30:31  5-MIN KAOH 050230Z AUTO 31008KT 10SM SCT028 M04/M09 A3028 650 71 -1500 320/08 RMK AO2 T10441089
04850KAOH AOH20160204213511402/04/16 21:35:31  5-MIN KAOH 050235Z AUTO 30008KT 10SM SCT028 M04/M09 A3028 650 71 -1500 310/08 RMK AO2 T10441089
04850KAOH AOH20160204214011402/04/16 21:40:31  5-MIN KAOH 050240Z AUTO 31007KT 10SM FEW028 M04/M09 A3028 650 71 -1500 310/07 RMK AO2 T10441089
04850KAOH AOH20160204214511102/04/16 21:45:31  5-MIN KAOH 050245Z AUTO 30006KT 10SM CLR M04/M09 A3028 650 71 -1500 310/06 RMK AO2 T10441089
04850KAOH AOH20160204215012702/04/16 21:50:31  5-MIN KAOH 050250Z AUTO 30005KT 10SM FEW027 M04/M09 A3028 640 71 -1500 310/05 RMK AO2 SLP268 T10441089 53021
04850KAOH AOH20160204215511402/04/16 21:55:31  5-MIN KAOH 050255Z AUTO 29005KT 10SM SCT027 M04/M08 A3028 640 74 -1500 300/05 RMK AO2 T10441083
04850KAOH AOH20160204220011402/04/16 22:00:31  5-MIN KAOH 050300Z AUTO 29007KT 10SM SCT026 M04/M09 A3029 640 71 -1500 300/07 RMK AO2 T10441089
04850KAOH AOH20160204220511402/04/16 22:05:31  5-MIN KAOH 050305Z AUTO 28005KT 10SM SCT026 M04/M09 A3029 640 71 -1500 290/05 RMK AO2 T10441089
04850KAOH AOH20160204221011402/04/16 22:10:31  5-MIN KAOH 050310Z AUTO 29005KT 10SM SCT026 M04/M09 A3029 640 71 -1500 290/05 RMK AO2 T10441089
04850KAOH AOH20160204221511402/04/16 22:15:31  5-MIN KAOH 050315Z AUTO 29005KT 10SM SCT026 M04/M09 A3029 640 71 -1500 290/05 RMK AO2 T10441089
04850KAOH AOH20160204222011402/04/16 22:20:31  5-MIN KAOH 050320Z AUTO 28006KT 10SM FEW026 M04/M09 A3029 640 71 -1500 290/06 RMK AO2 T10441089
04850KAOH AOH20160204222511402/04/16 22:25:31  5-MIN KAOH 050325Z AUTO 29005KT 10SM FEW026 M04/M09 A3029 640 71 -1500 300/05 RMK AO2 T10441089
04850KAOH AOH20160204223011102/04/16 22:30:31  5-MIN KAOH 050330Z AUTO 29005KT 10SM CLR M05/M08 A3029 640 77 -1600 290/05 RMK AO2 T10501083
04850KAOH AOH20160204223511102/04/16 22:35:31  5-MIN KAOH 050335Z AUTO 28004KT 10SM CLR M05/M08 A3029 640 77 -1600 290/04 RMK AO2 T10501083
04850KAOH AOH20160204224011102/04/16 22:40:31  5-MIN KAOH 050340Z AUTO 28005KT 10SM CLR M05/M08 A3029 640 77 -1600 290/05 RMK AO2 T10501083
04850KAOH AOH20160204224511102/04/16 22:45:31  5-MIN KAOH 050345Z AUTO 28004KT 10SM CLR M05/M08 A3029 640 77 -1600 290/04 RMK AO2 T10501083
04850KAOH AOH20160204225011802/04/16 22:50:31  5-MIN KAOH 050350Z AUTO 28004KT 10SM CLR M05/M08 A3029 630 77 -1600 290/04 RMK AO2 SLP271 T10501083
04850KAOH AOH20160204225511102/04/16 22:55:31  5-MIN KAOH 050355Z AUTO 28004KT 10SM CLR M05/M08 A3029 630 77 -1600 290/04 RMK AO2 T10501083
04850KAOH AOH20160204230011102/04/16 23:00:31  5-MIN KAOH 050400Z AUTO 28003KT 10SM CLR M05/M08 A3029 630 77 -1600 280/03 RMK AO2 T10501083
04850KAOH AOH20160204230511102/04/16 23:05:31  5-MIN KAOH 050405Z AUTO 28003KT 10SM CLR M06/M08 A3029 630 81 -1700 280/03 RMK AO2 T10561083
04850KAOH AOH20160204231011102/04/16 23:10:31  5-MIN KAOH 050410Z AUTO 27003KT 10SM CLR M06/M08 A3029 630 81 -1700 280/03 RMK AO2 T10561083
04850KAOH AOH20160204231511102/04/16 23:15:31  5-MIN KAOH 050415Z AUTO 26003KT 10SM CLR M06/M09 A3030 630 77 -1700 270/03 RMK AO2 T10561089
04850KAOH AOH20160204232011102/04/16 23:20:31  5-MIN KAOH 050420Z AUTO 00000KT 10SM CLR M06/M09 A3030 630 77 -1700 000/00 RMK AO2 T10561089
04850KAOH AOH20160204232511102/04/16 23:25:31  5-MIN KAOH 050425Z AUTO 24003KT 10SM CLR M06/M09 A3030 630 77 -1700 250/03 RMK AO2 T10561089
04850KAOH AOH20160204233011102/04/16 23:30:31  5-MIN KAOH 050430Z AUTO 24003KT 10SM CLR M06/M09 A3030 630 77 -1700 250/03 RMK AO2 T10561089
04850KAOH AOH20160204233511002/04/16 23:35:31  5-MIN KAOH 050435Z AUTO 23003KT 9SM CLR M06/M09 A3030 630 77 -1700 240/03 RMK AO2 T10561089
04850KAOH AOH20160204234011002/04/16 23:40:31  5-MIN KAOH 050440Z AUTO 21003KT 7SM CLR M06/M09 A3030 630 81 -1700 220/03 RMK AO2 T10611089
04850KAOH AOH20160204234511002/04/16 23:45:31  5-MIN KAOH 050445Z AUTO 21003KT 7SM CLR M06/M09 A3030 630 77 -1700 220/03 RMK AO2 T10561089
04850KAOH AOH20160204235012702/04/16 23:50:31  5-MIN KAOH 050450Z AUTO 22004KT 9SM CLR M06/M09 A3030 630 77 -1700 230/04 RMK AO2 SLP273 T10561089 400001061
04850KAOH AOH20160204235511102/04/16 23:55:31  5-MIN KAOH 050455Z AUTO 22004KT 10SM CLR M06/M09 A3030 630 77 -1700 230/04 RMK AO2 T10561089
04850KAOH AOH20160205000011102/05/16 00:00:31  5-MIN KAOH 050500Z AUTO 22004KT 10SM CLR M06/M09 A3030 630 77 -1700 230/04 RMK AO2 T10561089
04850KAOH AOH20160205000511102/05/16 00:05:31  5-MIN KAOH 050505Z AUTO 23004KT 10SM CLR M06/M09 A3030 630 77 -1700 230/04 RMK AO2 T10561089
04850KAOH AOH20160205001011102/05/16 00:10:31  5-MIN KAOH 050510Z AUTO 23004KT 10SM CLR M06/M09 A3030 630 81 -1700 240/04 RMK AO2 T10611089
04850KAOH AOH20160205001511102/05/16 00:15:31  5-MIN KAOH 050515Z AUTO 22004KT 10SM CLR M06/M09 A3030 630 81 -1700 230/04 RMK AO2 T10611089
04850KAOH AOH20160205002011102/05/16 00:20:31  5-MIN KAOH 050520Z AUTO 22003KT 10SM CLR M06/M09 A3030 630 81 -1700 230/03 RMK AO2 T10611089
04850KAOH AOH20160205002511102/05/16 00:25:31  5-MIN KAOH 050525Z AUTO 23004KT 10SM CLR M06/M09 A3030 620 77 -1700 230/04 RMK AO2 T10561089
04850KAOH AOH20160205003011102/05/16 00:30:31  5-MIN KAOH 050530Z AUTO 23004KT 10SM CLR M06/M09 A3031 620 81 -1700 230/04 RMK AO2 T10611089
04850KAOH AOH20160205003511102/05/16 00:35:31  5-MIN KAOH 050535Z AUTO 23004KT 10SM CLR M06/M09 A3031 620 81 -1700 230/04 RMK AO2 T10611089
04850KAOH AOH20160205004011102/05/16 00:40:31  5-MIN KAOH 050540Z AUTO 22003KT 10SM CLR M06/M09 A3030 620 81 -1700 230/03 RMK AO2 T10611089
04850KAOH AOH20160205004511102/05/16 00:45:31  5-MIN KAOH 050545Z AUTO 23003KT 10SM CLR M06/M09 A3030 620 81 -1700 230/03 RMK AO2 T10611089
04850KAOH AOH20160205005013602/05/16 00:50:31  5-MIN KAOH 050550Z AUTO 23003KT 10SM CLR M06/M09 A3030 620 81 -1700 240/03 RMK AO2 SLP275 T10611089 11033 21061 51011
04850KAOH AOH20160205005511102/05/16 00:55:31  5-MIN KAOH 050555Z AUTO 23003KT 10SM CLR M06/M09 A3030 620 81 -1700 240/03 RMK AO2 T10611089
04850KAOH AOH20160205010011102/05/16 01:00:31  5-MIN KAOH 050600Z AUTO 24003KT 10SM CLR M06/M09 A3031 620 81 -1700 240/03 RMK AO2 T10611089
04850KAOH AOH20160205010511102/05/16 01:05:31  5-MIN KAOH 050605Z AUTO 22003KT 10SM CLR M06/M09 A3031 620 81 -1700 230/03 RMK AO2 T10611089
04850KAOH AOH20160205011011102/05/16 01:10:31  5-MIN KAOH 050610Z AUTO 23003KT 10SM CLR M06/M09 A3031 620 81 -1700 240/03 RMK AO2 T10611089
04850KAOH AOH20160205011511102/05/16 01:15:31  5-MIN KAOH 050615Z AUTO 24003KT 10SM CLR M06/M09 A3031 620 81 -1800 240/03 RMK AO2 T10611089
04850KAOH AOH20160205012011102/05/16 01:20:31  5-MIN KAOH 050620Z AUTO 24003KT 10SM CLR M06/M09 A3031 620 81 -1800 240/03 RMK AO2 T10611089
04850KAOH AOH20160205012511102/05/16 01:25:31  5-MIN KAOH 050625Z AUTO 00000KT 10SM CLR M06/M09 A3031 620 77 -1700 000/00 RMK AO2 T10561089
04850KAOH AOH20160205013011102/05/16 01:30:31  5-MIN KAOH 050630Z AUTO 00000KT 10SM CLR M06/M09 A3031 620 77 -1700 000/00 RMK AO2 T10561089
04850KAOH AOH20160205013511102/05/16 01:35:31  5-MIN KAOH 050635Z AUTO 00000KT 10SM CLR M06/M09 A3031 620 81 -1800 000/00 RMK AO2 T10611089
04850KAOH AOH20160205014011102/05/16 01:40:31  5-MIN KAOH 050640Z AUTO 21003KT 10SM CLR M06/M09 A3031 620 81 -1800 220/03 RMK AO2 T10611089
04850KAOH AOH20160205014511102/05/16 01:45:31  5-MIN KAOH 050645Z AUTO 21003KT 10SM CLR M06/M09 A3031 620 81 -1700 210/03 RMK AO2 T10611089
04850KAOH AOH20160205015011802/05/16 01:50:31  5-MIN KAOH 050650Z AUTO 20003KT 10SM CLR M06/M09 A3031 620 81 -1700 200/03 RMK AO2 SLP277 T10611089
04850KAOH AOH20160205015511102/05/16 01:55:31  5-MIN KAOH 050655Z AUTO 20004KT 10SM CLR M06/M09 A3031 620 81 -1700 200/04 RMK AO2 T10611089
04850KAOH AOH20160205020011102/05/16 02:00:31  5-MIN KAOH 050700Z AUTO 20004KT 10SM CLR M06/M08 A3031 620 84 -1700 210/04 RMK AO2 T10611083
04850KAOH AOH20160205020511102/05/16 02:05:31  5-MIN KAOH 050705Z AUTO 00000KT 10SM CLR M06/M08 A3031 620 84 -1800 000/00 RMK AO2 T10611083
04850KAOH AOH20160205021011102/05/16 02:10:31  5-MIN KAOH 050710Z AUTO 21004KT 10SM CLR M06/M08 A3031 620 84 -1800 210/04 RMK AO2 T10611083
04850KAOH AOH20160205021511102/05/16 02:15:31  5-MIN KAOH 050715Z AUTO 21004KT 10SM CLR M06/M08 A3031 620 84 -1800 210/04 RMK AO2 T10611083
04850KAOH AOH20160205022011102/05/16 02:20:31  5-MIN KAOH 050720Z AUTO 21004KT 10SM CLR M06/M08 A3031 620 84 -1800 220/04 RMK AO2 T10611083
04850KAOH AOH20160205022511102/05/16 02:25:31  5-MIN KAOH 050725Z AUTO 21004KT 10SM CLR M06/M09 A3031 620 81 -1800 210/04 RMK AO2 T10611089
04850KAOH AOH20160205023011102/05/16 02:30:31  5-MIN KAOH 050730Z AUTO 22005KT 10SM CLR M06/M09 A3032 610 81 -1800 220/05 RMK AO2 T10611089
04850KAOH AOH20160205023511102/05/16 02:35:31  5-MIN KAOH 050735Z AUTO 21005KT 10SM CLR M06/M09 A3032 610 81 -1800 220/05 RMK AO2 T10611089
04850KAOH AOH20160205024011102/05/16 02:40:31  5-MIN KAOH 050740Z AUTO 22006KT 10SM CLR M06/M09 A3032 610 81 -1800 220/06 RMK AO2 T10611089
04850KAOH AOH20160205024511102/05/16 02:45:31  5-MIN KAOH 050745Z AUTO 21005KT 10SM CLR M06/M09 A3032 610 81 -1800 220/05 RMK AO2 T10611089
04850KAOH AOH20160205025011802/05/16 02:50:31  5-MIN KAOH 050750Z AUTO 21005KT 10SM CLR M06/M09 A3032 610 81 -1800 220/05 RMK AO2 SLP280 T10611089
04850KAOH AOH20160205025511102/05/16 02:55:31  5-MIN KAOH 050755Z AUTO 21005KT 10SM CLR M06/M09 A3032 610 81 -1800 210/05 RMK AO2 T10611089
04850KAOH AOH20160205030011102/05/16 03:00:31  5-MIN KAOH 050800Z AUTO 21005KT 10SM CLR M06/M09 A3032 610 81 -1800 210/05 RMK AO2 T10611089
04850KAOH AOH20160205030511102/05/16 03:05:31  5-MIN KAOH 050805Z AUTO 21006KT 10SM CLR M06/M08 A3032 610 84 -1800 220/06 RMK AO2 T10611083
04850KAOH AOH20160205031011102/05/16 03:10:31  5-MIN KAOH 050810Z AUTO 21006KT 10SM CLR M06/M08 A3032 610 84 -1800 210/06 RMK AO2 T10611083
04850KAOH AOH20160205031511102/05/16 03:15:31  5-MIN KAOH 050815Z AUTO 21006KT 10SM CLR M06/M08 A3032 610 84 -1800 220/06 RMK AO2 T10611083
04850KAOH AOH20160205032011102/05/16 03:20:31  5-MIN KAOH 050820Z AUTO 21005KT 10SM CLR M06/M08 A3032 610 84 -1800 220/05 RMK AO2 T10611083
04850KAOH AOH20160205032511102/05/16 03:25:31  5-MIN KAOH 050825Z AUTO 21005KT 10SM CLR M06/M08 A3032 610 84 -1800 210/05 RMK AO2 T10611083
04850KAOH AOH20160205033011102/05/16 03:30:31  5-MIN KAOH 050830Z AUTO 20005KT 10SM CLR M06/M08 A3032 610 84 -1800 210/05 RMK AO2 T10611083
04850KAOH AOH20160205033511102/05/16 03:35:31  5-MIN KAOH 050835Z AUTO 21004KT 10SM CLR M07/M08 A3032 610 88 -1800 210/04 RMK AO2 T10671083
04850KAOH AOH20160205034011102/05/16 03:40:31  5-MIN KAOH 050840Z AUTO 21004KT 10SM CLR M07/M09 A3032 610 84 -1800 220/04 RMK AO2 T10671089
04850KAOH AOH20160205034511102/05/16 03:45:31  5-MIN KAOH 050845Z AUTO 22005KT 10SM CLR M07/M08 A3032 610 88 -1800 230/05 RMK AO2 T10671083
04850KAOH AOH20160205035012402/05/16 03:50:31  5-MIN KAOH 050850Z AUTO 22004KT 10SM CLR M07/M08 A3032 610 88 -1800 230/04 RMK AO2 SLP281 T10671083 51007
04850KAOH AOH20160205035511102/05/16 03:55:31  5-MIN KAOH 050855Z AUTO 22004KT 10SM CLR M07/M08 A3032 610 88 -1800 230/04 RMK AO2 T10671083
04850KAOH AOH20160205040011102/05/16 04:00:31  5-MIN KAOH 050900Z AUTO 22004KT 10SM CLR M07/M08 A3032 610 88 -1800 230/04 RMK AO2 T10671083
04850KAOH AOH20160205040511102/05/16 04:05:31  5-MIN KAOH 050905Z AUTO 23004KT 10SM CLR M07/M08 A3032 610 88 -1800 230/04 RMK AO2 T10671083
04850KAOH AOH20160205041011102/05/16 04:10:31  5-MIN KAOH 050910Z AUTO 23004KT 10SM CLR M07/M08 A3032 610 88 -1800 230/04 RMK AO2 T10671083
04850KAOH AOH20160205041511102/05/16 04:15:31  5-MIN KAOH 050915Z AUTO 23004KT 10SM CLR M07/M08 A3032 610 88 -1800 230/04 RMK AO2 T10671083
04850KAOH AOH20160205042011102/05/16 04:20:31  5-MIN KAOH 050920Z AUTO 21004KT 10SM CLR M07/M08 A3032 610 88 -1800 220/04 RMK AO2 T10671083
04850KAOH AOH20160205042511102/05/16 04:25:31  5-MIN KAOH 050925Z AUTO 22003KT 10SM CLR M07/M08 A3032 610 88 -1800 220/03 RMK AO2 T10671083
04850KAOH AOH20160205043011102/05/16 04:30:31  5-MIN KAOH 050930Z AUTO 22004KT 10SM CLR M07/M08 A3032 610 88 -1800 230/04 RMK AO2 T10671083
04850KAOH AOH20160205043511102/05/16 04:35:31  5-MIN KAOH 050935Z AUTO 23004KT 10SM CLR M07/M08 A3032 610 88 -1800 240/04 RMK AO2 T10671083
04850KAOH AOH20160205044011102/05/16 04:40:31  5-MIN KAOH 050940Z AUTO 22004KT 10SM CLR M07/M08 A3032 610 88 -1800 230/04 RMK AO2 T10671083
04850KAOH AOH20160205044511102/05/16 04:45:31  5-MIN KAOH 050945Z AUTO 22003KT 10SM CLR M07/M08 A3032 610 88 -1800 230/03 RMK AO2 T10671083
04850KAOH AOH20160205045011802/05/16 04:50:31  5-MIN KAOH 050950Z AUTO 22004KT 10SM CLR M07/M08 A3032 610 88 -1800 230/04 RMK AO2 SLP283 T10671083
04850KAOH AOH20160205045511102/05/16 04:55:31  5-MIN KAOH 050955Z AUTO 23004KT 10SM CLR M07/M08 A3032 610 88 -1800 230/04 RMK AO2 T10671083
04850KAOH AOH20160205050011102/05/16 05:00:31  5-MIN KAOH 051000Z AUTO 23004KT 10SM CLR M07/M08 A3032 610 88 -1800 230/04 RMK AO2 T10671083
04850KAOH AOH20160205050511102/05/16 05:05:31  5-MIN KAOH 051005Z AUTO 22004KT 10SM CLR M07/M08 A3032 610 88 -1800 230/04 RMK AO2 T10671083
04850KAOH AOH20160205051011102/05/16 05:10:31  5-MIN KAOH 051010Z AUTO 22004KT 10SM CLR M07/M08 A3032 610 88 -1800 220/04 RMK AO2 T10671083
04850KAOH AOH20160205051511102/05/16 05:15:31  5-MIN KAOH 051015Z AUTO 22004KT 10SM CLR M07/M08 A3032 610 88 -1800 220/04 RMK AO2 T10671083
04850KAOH AOH20160205052011102/05/16 05:20:31  5-MIN KAOH 051020Z AUTO 22004KT 10SM CLR M07/M08 A3032 610 88 -1800 220/04 RMK AO2 T10671083
04850KAOH AOH20160205052511102/05/16 05:25:31  5-MIN KAOH 051025Z AUTO 22004KT 10SM CLR M07/M08 A3032 610 88 -1800 220/04 RMK AO2 T10671083
04850KAOH AOH20160205053011102/05/16 05:30:31  5-MIN KAOH 051030Z AUTO 21004KT 10SM CLR M07/M08 A3032 610 88 -1800 210/04 RMK AO2 T10671083
04850KAOH AOH20160205053511102/05/16 05:35:31  5-MIN KAOH 051035Z AUTO 20004KT 10SM CLR M07/M08 A3032 610 88 -1800 210/04 RMK AO2 T10671083
04850KAOH AOH20160205054011102/05/16 05:40:31  5-MIN KAOH 051040Z AUTO 20004KT 10SM CLR M07/M08 A3033 600 88 -1800 210/04 RMK AO2 T10671083
04850KAOH AOH20160205054511402/05/16 05:45:31  5-MIN KAOH 051045Z AUTO 19004KT 10SM FEW046 M06/M08 A3033 600 84 -1800 200/04 RMK AO2 T10611083
04850KAOH AOH20160205055012102/05/16 05:50:31  5-MIN KAOH 051050Z AUTO 19004KT 10SM SCT046 M06/M08 A3033 600 88 -1800 200/04 RMK AO2 SLP284 T10611078
04850KAOH AOH20160205055511402/05/16 05:55:31  5-MIN KAOH 051055Z AUTO 18003KT 10SM BKN046 M06/M08 A3033 600 88 -1800 180/03 RMK AO2 T10611078
04850KAOH AOH20160205060011402/05/16 06:00:31  5-MIN KAOH 051100Z AUTO 18003KT 10SM BKN046 M06/M08 A3033 600 88 -1800 190/03 RMK AO2 T10611078
04850KAOH AOH20160205060511402/05/16 06:05:31  5-MIN KAOH 051105Z AUTO 20004KT 10SM BKN046 M06/M08 A3033 600 84 -1800 200/04 RMK AO2 T10611083
04850KAOH AOH20160205061011402/05/16 06:10:31  5-MIN KAOH 051110Z AUTO 18004KT 10SM BKN046 M07/M08 A3033 600 88 -1800 190/04 RMK AO2 T10671083
04850KAOH AOH20160205061511402/05/16 06:15:31  5-MIN KAOH 051115Z AUTO 19005KT 10SM SCT046 M07/M08 A3033 600 88 -1800 190/05 RMK AO2 T10671083
04850KAOH AOH20160205062011402/05/16 06:20:31  5-MIN KAOH 051120Z AUTO 19005KT 10SM SCT046 M07/M08 A3033 600 88 -1800 200/05 RMK AO2 T10671083
04850KAOH AOH20160205062511402/05/16 06:25:31  5-MIN KAOH 051125Z AUTO 18005KT 10SM FEW046 M07/M08 A3033 600 88 -1800 190/05 RMK AO2 T10671083
04850KAOH AOH20160205063011402/05/16 06:30:31  5-MIN KAOH 051130Z AUTO 18005KT 10SM FEW046 M07/M08 A3033 600 88 -1800 180/05 RMK AO2 T10671083
04850KAOH AOH20160205063511102/05/16 06:35:31  5-MIN KAOH 051135Z AUTO 19004KT 10SM CLR M07/M08 A3033 600 88 -1800 200/04 RMK AO2 T10671083
04850KAOH AOH20160205064011102/05/16 06:40:31  5-MIN KAOH 051140Z AUTO 20003KT 10SM CLR M07/M08 A3033 600 88 -1900 210/03 RMK AO2 T10671083
04850KAOH AOH20160205064511102/05/16 06:45:31  5-MIN KAOH 051145Z AUTO 20005KT 10SM CLR M07/M08 A3034 600 88 -1900 200/05 RMK AO2 T10671083
04850KAOH AOH20160205065013602/05/16 06:50:31  5-MIN KAOH 051150Z AUTO 20006KT 10SM CLR M07/M08 A3034 590 88 -1900 200/06 RMK AO2 SLP288 T10671083 11056 21067 50004
04850KAOH AOH20160205065511102/05/16 06:55:31  5-MIN KAOH 051155Z AUTO 19005KT 10SM CLR M07/M08 A3034 590 88 -1900 200/05 RMK AO2 T10671083
04850KAOH AOH20160205070011102/05/16 07:00:31  5-MIN KAOH 051200Z AUTO 18005KT 10SM CLR M06/M08 A3034 590 84 -1800 190/05 RMK AO2 T10611083
04850KAOH AOH20160205070511102/05/16 07:05:31  5-MIN KAOH 051205Z AUTO 19006KT 10SM CLR M06/M08 A3035 590 84 -1800 200/06 RMK AO2 T10611083
04850KAOH AOH20160205071011102/05/16 07:10:31  5-MIN KAOH 051210Z AUTO 19006KT 10SM CLR M06/M08 A3035 590 84 -1800 200/06 RMK AO2 T10611083
04850KAOH AOH20160205071511102/05/16 07:15:31  5-MIN KAOH 051215Z AUTO 19005KT 10SM CLR M06/M08 A3035 580 84 -1800 200/05 RMK AO2 T10611083
04850KAOH AOH20160205072011102/05/16 07:20:31  5-MIN KAOH 051220Z AUTO 19005KT 10SM CLR M06/M08 A3035 580 84 -1800 190/05 RMK AO2 T10611083
04850KAOH AOH20160205072511102/05/16 07:25:31  5-MIN KAOH 051225Z AUTO 19005KT 10SM CLR M07/M08 A3035 580 88 -1900 190/05 RMK AO2 T10671083
04850KAOH AOH20160205073011102/05/16 07:30:31  5-MIN KAOH 051230Z AUTO 19004KT 10SM CLR M07/M08 A3035 580 88 -1900 190/04 RMK AO2 T10671083
04850KAOH AOH20160205073511102/05/16 07:35:31  5-MIN KAOH 051235Z AUTO 19006KT 10SM CLR M07/M08 A3035 580 88 -1900 190/06 RMK AO2 T10671083
04850KAOH AOH20160205074011102/05/16 07:40:31  5-MIN KAOH 051240Z AUTO 19005KT 10SM CLR M06/M08 A3036 580 84 -1800 200/05 RMK AO2 T10611083
04850KAOH AOH20160205074511102/05/16 07:45:31  5-MIN KAOH 051245Z AUTO 19004KT 10SM CLR M06/M08 A3036 570 84 -1800 190/04 RMK AO2 T10611083
04850KAOH AOH20160205075011802/05/16 07:50:31  5-MIN KAOH 051250Z AUTO 18005KT 10SM CLR M07/M08 A3036 580 88 -1900 190/05 RMK AO2 SLP294 T10671083
04850KAOH AOH20160205075511102/05/16 07:55:31  5-MIN KAOH 051255Z AUTO 18006KT 10SM CLR M07/M08 A3036 570 88 -1900 180/06 RMK AO2 T10671083
04850KAOH AOH20160205080011102/05/16 08:00:31  5-MIN KAOH 051300Z AUTO 17006KT 10SM CLR M07/M08 A3036 580 88 -1900 180/06 RMK AO2 T10671083
04850KAOH AOH20160205080511102/05/16 08:05:31  5-MIN KAOH 051305Z AUTO 17006KT 10SM CLR M07/M08 A3036 570 88 -1900 180/06 RMK AO2 T10671083
04850KAOH AOH20160205081011102/05/16 08:10:31  5-MIN KAOH 051310Z AUTO 17006KT 10SM CLR M06/M08 A3036 570 84 -1800 170/06 RMK AO2 T10611083
04850KAOH AOH20160205081511102/05/16 08:15:31  5-MIN KAOH 051315Z AUTO 17006KT 10SM CLR M06/M08 A3036 570 84 -1800 180/06 RMK AO2 T10611083
04850KAOH AOH20160205082011102/05/16 08:20:31  5-MIN KAOH 051320Z AUTO 17006KT 10SM CLR M06/M08 A3036 570 88 -1800 180/06 RMK AO2 T10611078
04850KAOH AOH20160205082511102/05/16 08:25:31  5-MIN KAOH 051325Z AUTO 17006KT 10SM CLR M06/M08 A3036 570 84 -1700 180/06 RMK AO2 T10561078
04850KAOH AOH20160205083011102/05/16 08:30:31  5-MIN KAOH 051330Z AUTO 18006KT 10SM CLR M06/M08 A3036 570 84 -1700 180/06 RMK AO2 T10561078
04850KAOH AOH20160205083511102/05/16 08:35:31  5-MIN KAOH 051335Z AUTO 17006KT 10SM CLR M06/M08 A3036 570 84 -1700 180/06 RMK AO2 T10561078
04850KAOH AOH20160205084011102/05/16 08:40:31  5-MIN KAOH 051340Z AUTO 18006KT 10SM CLR M05/M07 A3036 570 84 -1700 180/06 RMK AO2 T10501072
04850KAOH AOH20160205084511102/05/16 08:45:31  5-MIN KAOH 051345Z AUTO 18006KT 10SM CLR M05/M07 A3036 570 84 -1700 180/06 RMK AO2 T10501072
04850KAOH AOH20160205085011802/05/16 08:50:31  5-MIN KAOH 051350Z AUTO 18006KT 10SM CLR M05/M07 A3037 570 84 -1700 180/06 RMK AO2 SLP297 T10501072
04850KAOH AOH20160205085511102/05/16 08:55:31  5-MIN KAOH 051355Z AUTO 18007KT 10SM CLR M05/M07 A3037 570 84 -1700 180/07 RMK AO2 T10501072
04850KAOH AOH20160205090011102/05/16 09:00:31  5-MIN KAOH 051400Z AUTO 18007KT 10SM CLR M04/M07 A3037 560 81 -1600 190/07 RMK AO2 T10441072
04850KAOH AOH20160205090511102/05/16 09:05:31  5-MIN KAOH 051405Z AUTO 18007KT 10SM CLR M04/M07 A3037 560 84 -1600 190/07 RMK AO2 T10441067
04850KAOH AOH20160205091011102/05/16 09:10:31  5-MIN KAOH 051410Z AUTO 18006KT 10SM CLR M04/M07 A3037 560 84 -1600 180/06 RMK AO2 T10441067
04850KAOH AOH20160205091511102/05/16 09:15:31  5-MIN KAOH 051415Z AUTO 18006KT 10SM CLR M04/M07 A3037 560 81 -1500 190/06 RMK AO2 T10391067
04850KAOH AOH20160205092011102/05/16 09:20:31  5-MIN KAOH 051420Z AUTO 18007KT 10SM CLR M04/M06 A3037 560 85 -1500 190/07 RMK AO2 T10391061
04850KAOH AOH20160205092511102/05/16 09:25:31  5-MIN KAOH 051425Z AUTO 20007KT 10SM CLR M03/M06 A3038 560 81 -1500 210/07 RMK AO2 T10331061
04850KAOH AOH20160205093011102/05/16 09:30:31  5-MIN KAOH 051430Z AUTO 20007KT 10SM CLR M03/M06 A3038 560 81 -1500 210/07 RMK AO2 T10331061
04850KAOH AOH20160205093511102/05/16 09:35:31  5-MIN KAOH 051435Z AUTO 18006KT 10SM CLR M03/M06 A3038 560 78 -1400 190/06 RMK AO2 T10281061
04850KAOH AOH20160205094011102/05/16 09:40:31  5-MIN KAOH 051440Z AUTO 19006KT 10SM CLR M03/M06 A3038 560 81 -1400 200/06 RMK AO2 T10281056
04850KAOH AOH20160205094511102/05/16 09:45:31  5-MIN KAOH 051445Z AUTO 20005KT 10SM CLR M03/M06 A3038 560 78 -1400 200/05 RMK AO2 T10281061
04850KAOH AOH20160205095012402/05/16 09:50:31  5-MIN KAOH 051450Z AUTO 19005KT 10SM CLR M03/M06 A3038 560 81 -1400 200/05 RMK AO2 SLP300 T10281056 53008
04850KAOH AOH20160205095511102/05/16 09:55:31  5-MIN KAOH 051455Z AUTO 21007KT 10SM CLR M02/M06 A3038 560 78 -1300 210/07 RMK AO2 T10221056
04850KAOH AOH20160205100011102/05/16 10:00:31  5-MIN KAOH 051500Z AUTO 20006KT 10SM CLR M02/M06 A3038 560 78 -1300 210/06 RMK AO2 T10221056
04850KAOH AOH20160205100511102/05/16 10:05:31  5-MIN KAOH 051505Z AUTO 20006KT 10SM CLR M02/M06 A3038 560 78 -1300 200/06 RMK AO2 T10221056
04850KAOH AOH20160205101011102/05/16 10:10:31  5-MIN KAOH 051510Z AUTO 21007KT 10SM CLR M02/M06 A3038 550 75 -1300 210/07 RMK AO2 T10171056
04850KAOH AOH20160205101511102/05/16 10:15:31  5-MIN KAOH 051515Z AUTO 21007KT 10SM CLR M02/M06 A3038 550 75 -1300 210/07 RMK AO2 T10171056
04850KAOH AOH20160205102011102/05/16 10:20:31  5-MIN KAOH 051520Z AUTO 21007KT 10SM CLR M02/M06 A3038 550 75 -1300 210/07 RMK AO2 T10171056
04850KAOH AOH20160205102511102/05/16 10:25:31  5-MIN KAOH 051525Z AUTO 20008KT 10SM CLR M01/M06 A3038 550 72 -1200 200/08 RMK AO2 T10111056
04850KAOH AOH20160205103011102/05/16 10:30:31  5-MIN KAOH 051530Z AUTO 20008KT 10SM CLR M02/M06 A3038 550 75 -1300 210/08 RMK AO2 T10171056
04850KAOH AOH20160205103511102/05/16 10:35:31  5-MIN KAOH 051535Z AUTO 21007KT 10SM CLR M01/M06 A3038 560 72 -1200 210/07 RMK AO2 T10111056
04850KAOH AOH20160205104011102/05/16 10:40:31  5-MIN KAOH 051540Z AUTO 21007KT 10SM CLR M01/M06 A3038 560 72 -1200 220/07 RMK AO2 T10111056
04850KAOH AOH20160205104511102/05/16 10:45:31  5-MIN KAOH 051545Z AUTO 18006KT 10SM CLR M01/M06 A3038 560 72 -1200 190/06 RMK AO2 T10111056
04850KAOH AOH20160205105011802/05/16 10:50:31  5-MIN KAOH 051550Z AUTO 20006KT 10SM CLR M01/M06 A3038 560 69 -1100 200/06 RMK AO2 SLP299 T10061056
04850KAOH AOH20160205105511102/05/16 10:55:31  5-MIN KAOH 051555Z AUTO 20006KT 10SM CLR M01/M06 A3037 560 69 -1100 200/06 RMK AO2 T10061056
04850KAOH AOH20160205110011002/05/16 11:00:31  5-MIN KAOH 051600Z AUTO 19007KT 10SM CLR 00/M06 A3037 560 66 -1000 200/07 RMK AO2 T00001056
04850KAOH AOH20160205110511002/05/16 11:05:31  5-MIN KAOH 051605Z AUTO 20007KT 10SM CLR 00/M06 A3037 560 63 -1000 200/07 RMK AO2 T00001061
04850KAOH AOH20160205111011002/05/16 11:10:31  5-MIN KAOH 051610Z AUTO 19009KT 10SM CLR 00/M06 A3037 560 63 -1000 190/09 RMK AO2 T00001061
04850KAOH AOH20160205111511002/05/16 11:15:31  5-MIN KAOH 051615Z AUTO 18007KT 10SM CLR 00/M06 A3037 560 63 -1000 190/07 RMK AO2 T00001061
04850KAOH AOH20160205112011002/05/16 11:20:31  5-MIN KAOH 051620Z AUTO 19009KT 10SM CLR 01/M07 A3037 560 58 -1000 200/09 RMK AO2 T00061067
04850KAOH AOH20160205112511002/05/16 11:25:31  5-MIN KAOH 051625Z AUTO 18008KT 10SM CLR 01/M07 A3037 560 58 -1000 190/08 RMK AO2 T00061067
04850KAOH AOH20160205113010902/05/16 11:30:31  5-MIN KAOH 051630Z AUTO 18010KT 10SM CLR 01/M06 A3037 560 58 -900 190/10 RMK AO2 T00111061
04850KAOH AOH20160205113510902/05/16 11:35:31  5-MIN KAOH 051635Z AUTO 19010KT 10SM CLR 01/M07 A3037 560 56 -900 200/10 RMK AO2 T00111067
04850KAOH AOH20160205114010902/05/16 11:40:31  5-MIN KAOH 051640Z AUTO 20009KT 10SM CLR 01/M07 A3037 570 56 -900 200/09 RMK AO2 T00111067
04850KAOH AOH20160205114510902/05/16 11:45:31  5-MIN KAOH 051645Z AUTO 19009KT 10SM CLR 01/M07 A3037 570 56 -900 200/09 RMK AO2 T00111067
04850KAOH AOH20160205115011602/05/16 11:50:31  5-MIN KAOH 051650Z AUTO 19011KT 10SM CLR 01/M07 A3036 570 54 -900 200/11 RMK AO2 SLP295 T00111072
04850KAOH AOH20160205115510902/05/16 11:55:31  5-MIN KAOH 051655Z AUTO 20009KT 10SM CLR 01/M08 A3036 570 51 -900 200/09 RMK AO2 T00111078
04850KAOH AOH20160205120010902/05/16 12:00:31  5-MIN KAOH 051700Z AUTO 20010KT 10SM CLR 02/M08 A3036 570 49 -800 200/10 RMK AO2 T00171078
04850KAOH AOH20160205120510902/05/16 12:05:31  5-MIN KAOH 051705Z AUTO 18010KT 10SM CLR 02/M08 A3036 580 49 -800 190/10 RMK AO2 T00171078
04850KAOH AOH20160205121010902/05/16 12:10:31  5-MIN KAOH 051710Z AUTO 20008KT 10SM CLR 02/M08 A3036 580 49 -800 200/08 RMK AO2 T00171078
04850KAOH AOH20160205121510902/05/16 12:15:31  5-MIN KAOH 051715Z AUTO 17010KT 10SM CLR 02/M08 A3035 580 49 -800 180/10 RMK AO2 T00171078
04850KAOH AOH20160205122010902/05/16 12:20:31  5-MIN KAOH 051720Z AUTO 19007KT 10SM CLR 02/M08 A3035 580 49 -800 200/07 RMK AO2 T00171078
04850KAOH AOH20160205122510902/05/16 12:25:31  5-MIN KAOH 051725Z AUTO 18010KT 10SM CLR 02/M07 A3035 590 50 -700 180/10 RMK AO2 T00221072
04850KAOH AOH20160205123010902/05/16 12:30:31  5-MIN KAOH 051730Z AUTO 21010KT 10SM CLR 02/M07 A3034 590 50 -700 210/10 RMK AO2 T00221072
04850KAOH AOH20160205123510902/05/16 12:35:31  5-MIN KAOH 051735Z AUTO 19009KT 10SM CLR 02/M07 A3034 590 50 -700 200/09 RMK AO2 T00221072
04850KAOH AOH20160205124010902/05/16 12:40:31  5-MIN KAOH 051740Z AUTO 20009KT 10SM CLR 03/M07 A3034 590 48 -700 200/09 RMK AO2 T00281072
04850KAOH AOH20160205124510902/05/16 12:45:31  5-MIN KAOH 051745Z AUTO 19010KT 10SM CLR 03/M07 A3033 600 50 -700 190/10 RMK AO2 T00281067
04850KAOH AOH20160205125013402/05/16 12:50:31  5-MIN KAOH 051750Z AUTO 19010KT 10SM CLR 03/M07 A3033 600 50 -700 200/10 RMK AO2 SLP283 T00281067 10028 21067 51012
04850KAOH AOH20160205125510902/05/16 12:55:31  5-MIN KAOH 051755Z AUTO 20010KT 10SM CLR 03/M07 A3033 600 48 -600 210/10 RMK AO2 T00281072
04850KAOH AOH20160205130010902/05/16 13:00:31  5-MIN KAOH 051800Z AUTO 22010KT 10SM CLR 03/M07 A3033 600 50 -600 230/10 RMK AO2 T00281067
04850KAOH AOH20160205130510902/05/16 13:05:31  5-MIN KAOH 051805Z AUTO 20012KT 10SM CLR 03/M07 A3033 600 48 -600 210/12 RMK AO2 T00331067
04850KAOH AOH20160205131011502/05/16 13:10:31  5-MIN KAOH 051810Z AUTO 23011G18KT 10SM CLR 03/M07 A3032 610 50 -600 230/11G18 RMK AO2 T00281067
04850KAOH AOH20160205131510902/05/16 13:15:31  5-MIN KAOH 051815Z AUTO 23011KT 10SM CLR 03/M07 A3032 610 50 -600 230/11 RMK AO2 T00281067
04850KAOH AOH20160205132010902/05/16 13:20:31  5-MIN KAOH 051820Z AUTO 22009KT 10SM CLR 03/M06 A3032 610 50 -600 220/09 RMK AO2 T00331061
04850KAOH AOH20160205132510902/05/16 13:25:31  5-MIN KAOH 051825Z AUTO 20012KT 10SM CLR 03/M06 A3032 610 50 -600 210/12 RMK AO2 T00331061
04850KAOH AOH20160205133010902/05/16 13:30:31  5-MIN KAOH 051830Z AUTO 20010KT 10SM CLR 03/M06 A3032 610 50 -600 210/10 RMK AO2 T00331061
04850KAOH AOH20160205133510902/05/16 13:35:31  5-MIN KAOH 051835Z AUTO 22012KT 10SM CLR 03/M06 A3032 610 50 -600 220/12 RMK AO2 T00331061
04850KAOH AOH20160205134010902/05/16 13:40:31  5-MIN KAOH 051840Z AUTO 22012KT 10SM CLR 03/M07 A3031 610 50 -600 230/12 RMK AO2 T00281067
04850KAOH AOH20160205134510902/05/16 13:45:31  5-MIN KAOH 051845Z AUTO 22014KT 10SM CLR 03/M06 A3031 620 50 -600 230/14 RMK AO2 T00331061
04850KAOH AOH20160205135011602/05/16 13:50:31  5-MIN KAOH 051850Z AUTO 21010KT 10SM CLR 03/M06 A3031 620 50 -600 220/10 RMK AO2 SLP276 T00331061
04850KAOH AOH20160205135510902/05/16 13:55:31  5-MIN KAOH 051855Z AUTO 22009KT 10SM CLR 03/M06 A3031 620 52 -600 220/09 RMK AO2 T00281061
04850KAOH AOH20160205140010902/05/16 14:00:31  5-MIN KAOH 051900Z AUTO 20011KT 10SM CLR 03/M06 A3031 620 50 -600 210/11 RMK AO2 T00331061
04850KAOH AOH20160205140510902/05/16 14:05:31  5-MIN KAOH 051905Z AUTO 21012KT 10SM CLR 03/M06 A3031 620 52 -600 220/12 RMK AO2 T00331056
04850KAOH AOH20160205141010902/05/16 14:10:31  5-MIN KAOH 051910Z AUTO 20011KT 10SM CLR 03/M06 A3031 620 50 -600 210/11 RMK AO2 T00331061
04850KAOH AOH20160205141510902/05/16 14:15:31  5-MIN KAOH 051915Z AUTO 22011KT 10SM CLR 03/M06 A3031 620 50 -600 230/11 RMK AO2 T00331061
04850KAOH AOH20160205142010902/05/16 14:20:31  5-MIN KAOH 051920Z AUTO 20011KT 10SM CLR 03/M06 A3030 620 50 -600 200/11 RMK AO2 T00331061
04850KAOH AOH20160205142511502/05/16 14:25:31  5-MIN KAOH 051925Z AUTO 20009G18KT 10SM CLR 04/M06 A3030 630 50 -500 200/09G18 RMK AO2 T00391056
04850KAOH AOH20160205143011502/05/16 14:30:31  5-MIN KAOH 051930Z AUTO 19010G16KT 10SM CLR 03/M06 A3030 630 52 -500 200/10G16 RMK AO2 T00331056
04850KAOH AOH20160205143510902/05/16 14:35:31  5-MIN KAOH 051935Z AUTO 21010KT 10SM CLR 04/M06 A3030 630 50 -500 210/10 RMK AO2 T00391056
04850KAOH AOH20160205144010902/05/16 14:40:31  5-MIN KAOH 051940Z AUTO 21011KT 10SM CLR 03/M07 A3030 630 48 -500 220/11 RMK AO2 T00331067
04850KAOH AOH20160205144510902/05/16 14:45:31  5-MIN KAOH 051945Z AUTO 23013KT 10SM CLR 04/M06 A3030 630 48 -500 240/13 RMK AO2 T00391061
04850KAOH AOH20160205145011602/05/16 14:50:31  5-MIN KAOH 051950Z AUTO 20011KT 10SM CLR 04/M06 A3030 630 48 -500 210/11 RMK AO2 SLP271 T00391061
04850KAOH AOH20160205145510902/05/16 14:55:31  5-MIN KAOH 051955Z AUTO 23013KT 10SM CLR 04/M06 A3030 630 48 -500 230/13 RMK AO2 T00391061
04850KAOH AOH20160205150010902/05/16 15:00:31  5-MIN KAOH 052000Z AUTO 21010KT 10SM CLR 03/M06 A3029 630 50 -500 210/10 RMK AO2 T00331061
04850KAOH AOH20160205150511202/05/16 15:05:31  5-MIN KAOH 052005Z AUTO 19011KT 10SM FEW060 03/M06 A3030 630 50 -500 200/11 RMK AO2 T00331061
04850KAOH AOH20160205151011202/05/16 15:10:31  5-MIN KAOH 052010Z AUTO 21012KT 10SM SCT060 03/M06 A3030 630 50 -500 210/12 RMK AO2 T00331061
04850KAOH AOH20160205151511202/05/16 15:15:31  5-MIN KAOH 052015Z AUTO 21010KT 10SM SCT060 03/M07 A3030 630 48 -500 220/10 RMK AO2 T00331067
04850KAOH AOH20160205152011202/05/16 15:20:31  5-MIN KAOH 052020Z AUTO 20010KT 10SM SCT060 03/M06 A3030 630 50 -500 210/10 RMK AO2 T00331061
04850KAOH AOH20160205152511202/05/16 15:25:31  5-MIN KAOH 052025Z AUTO 19007KT 10SM SCT060 03/M06 A3029 630 50 -500 190/07 RMK AO2 T00331061
04850KAOH AOH20160205153011202/05/16 15:30:31  5-MIN KAOH 052030Z AUTO 20012KT 10SM BKN060 03/M06 A3029 630 50 -500 210/12 RMK AO2 T00331061
04850KAOH AOH20160205153511202/05/16 15:35:31  5-MIN KAOH 052035Z AUTO 19010KT 10SM BKN060 03/M07 A3029 630 48 -500 190/10 RMK AO2 T00331067
04850KAOH AOH20160205154011202/05/16 15:40:31  5-MIN KAOH 052040Z AUTO 20009KT 10SM BKN060 03/M06 A3030 630 50 -500 200/09 RMK AO2 T00331061
04850KAOH AOH20160205154511202/05/16 15:45:31  5-MIN KAOH 052045Z AUTO 19010KT 10SM BKN065 03/M07 A3030 630 48 -500 200/10 RMK AO2 T00331067
04850KAOH AOH20160205155012502/05/16 15:50:31  5-MIN KAOH 052050Z AUTO 19007KT 10SM OVC065 03/M06 A3030 630 50 -500 200/07 RMK AO2 SLP271 T00331061 58015
04850KAOH AOH20160205155511202/05/16 15:55:31  5-MIN KAOH 052055Z AUTO 19010KT 10SM OVC065 03/M06 A3030 630 50 -500 200/10 RMK AO2 T00331061
04850KAOH AOH20160205160011202/05/16 16:00:31  5-MIN KAOH 052100Z AUTO 18011KT 10SM OVC065 03/M06 A3030 630 50 -500 190/11 RMK AO2 T00331061
04850KAOH AOH20160205160511202/05/16 16:05:31  5-MIN KAOH 052105Z AUTO 20009KT 10SM OVC060 03/M06 A3030 630 50 -500 210/09 RMK AO2 T00331061
04850KAOH AOH20160205161011202/05/16 16:10:31  5-MIN KAOH 052110Z AUTO 20010KT 10SM OVC060 03/M06 A3030 630 50 -500 210/10 RMK AO2 T00331061
04850KAOH AOH20160205161511202/05/16 16:15:31  5-MIN KAOH 052115Z AUTO 20009KT 10SM OVC060 03/M06 A3030 630 54 -600 210/09 RMK AO2 T00281056
04850KAOH AOH20160205162011202/05/16 16:20:31  5-MIN KAOH 052120Z AUTO 20010KT 10SM OVC060 03/M06 A3030 630 50 -500 200/10 RMK AO2 T00331061
04850KAOH AOH20160205162511202/05/16 16:25:31  5-MIN KAOH 052125Z AUTO 20008KT 10SM OVC060 03/M06 A3030 630 52 -600 200/08 RMK AO2 T00281061
04850KAOH AOH20160205163011202/05/16 16:30:31  5-MIN KAOH 052130Z AUTO 20008KT 10SM OVC060 03/M06 A3030 630 52 -600 210/08 RMK AO2 T00281061
04850KAOH AOH20160205163511202/05/16 16:35:31  5-MIN KAOH 052135Z AUTO 19010KT 10SM OVC060 03/M06 A3030 630 54 -600 200/10 RMK AO2 T00281056
04850KAOH AOH20160205164011202/05/16 16:40:31  5-MIN KAOH 052140Z AUTO 20008KT 10SM OVC060 03/M06 A3030 630 54 -600 210/08 RMK AO2 T00281056
04850KAOH AOH20160205164511202/05/16 16:45:31  5-MIN KAOH 052145Z AUTO 20009KT 10SM OVC060 03/M06 A3030 630 52 -600 210/09 RMK AO2 T00281061
04850KAOH AOH20160205165011902/05/16 16:50:31  5-MIN KAOH 052150Z AUTO 19009KT 10SM OVC060 03/M06 A3030 630 54 -600 200/09 RMK AO2 SLP272 T00281056
04850KAOH AOH20160205165511202/05/16 16:55:31  5-MIN KAOH 052155Z AUTO 20007KT 10SM OVC060 03/M06 A3030 630 54 -600 200/07 RMK AO2 T00281056
04850KAOH AOH20160205170011202/05/16 17:00:31  5-MIN KAOH 052200Z AUTO 19006KT 10SM OVC060 03/M06 A3030 630 54 -600 200/06 RMK AO2 T00281056
04850KAOH AOH20160205170511202/05/16 17:05:31  5-MIN KAOH 052205Z AUTO 19007KT 10SM OVC060 03/M06 A3030 630 54 -600 200/07 RMK AO2 T00281056
04850KAOH AOH20160205171011202/05/16 17:10:31  5-MIN KAOH 052210Z AUTO 20007KT 10SM OVC060 03/M06 A3030 630 54 -600 200/07 RMK AO2 T00281056
04850KAOH AOH20160205171511202/05/16 17:15:31  5-MIN KAOH 052215Z AUTO 20007KT 10SM OVC060 03/M06 A3030 630 54 -600 200/07 RMK AO2 T00281056
04850KAOH AOH20160205172011202/05/16 17:20:31  5-MIN KAOH 052220Z AUTO 19007KT 10SM OVC060 03/M06 A3030 630 54 -600 200/07 RMK AO2 T00281056
04850KAOH AOH20160205172511202/05/16 17:25:31  5-MIN KAOH 052225Z AUTO 20006KT 10SM OVC055 03/M06 A3030 630 54 -600 200/06 RMK AO2 T00281056
04850KAOH AOH20160205173011902/05/16 17:30:31  5-MIN KAOH 052230Z AUTO 19007KT 10SM BKN050 OVC060 03/M06 A3030 630 54 -600 200/07 RMK AO2 T00281056
04850KAOH AOH20160205173511902/05/16 17:35:31  5-MIN KAOH 052235Z AUTO 20006KT 10SM SCT050 OVC060 02/M06 A3030 620 56 -700 200/06 RMK AO2 T00221056
04850KAOH AOH20160205174011902/05/16 17:40:31  5-MIN KAOH 052240Z AUTO 19007KT 10SM SCT050 OVC060 02/M06 A3030 620 56 -700 200/07 RMK AO2 T00221056
04850KAOH AOH20160205174511902/05/16 17:45:31  5-MIN KAOH 052245Z AUTO 20006KT 10SM SCT050 OVC060 02/M06 A3030 620 56 -700 200/06 RMK AO2 T00221056
04850KAOH AOH20160205175012602/05/16 17:50:31  5-MIN KAOH 052250Z AUTO 20007KT 10SM SCT050 OVC060 02/M06 A3031 620 56 -700 200/07 RMK AO2 SLP274 T00221056
04850KAOH AOH20160205175511902/05/16 17:55:31  5-MIN KAOH 052255Z AUTO 19005KT 10SM SCT050 OVC060 02/M05 A3031 620 59 -700 200/05 RMK AO2 T00221050
04850KAOH AOH20160205180011902/05/16 18:00:31  5-MIN KAOH 052300Z AUTO 20005KT 10SM SCT050 OVC060 02/M05 A3031 620 59 -700 200/05 RMK AO2 T00221050
04850KAOH AOH20160205180511902/05/16 18:05:31  5-MIN KAOH 052305Z AUTO 20006KT 10SM SCT049 OVC060 02/M05 A3031 620 59 -700 200/06 RMK AO2 T00221050
04850KAOH AOH20160205181011902/05/16 18:10:31  5-MIN KAOH 052310Z AUTO 20006KT 10SM SCT049 OVC060 02/M05 A3031 620 59 -700 200/06 RMK AO2 T00221050
04850KAOH AOH20160205181511902/05/16 18:15:31  5-MIN KAOH 052315Z AUTO 20005KT 10SM BKN049 OVC060 02/M05 A3031 620 59 -700 200/05 RMK AO2 T00221050
04850KAOH AOH20160205182011902/05/16 18:20:31  5-MIN KAOH 052320Z AUTO 19006KT 10SM BKN048 OVC060 02/M05 A3031 620 59 -700 200/06 RMK AO2 T00221050
04850KAOH AOH20160205182511902/05/16 18:25:31  5-MIN KAOH 052325Z AUTO 20006KT 10SM BKN048 OVC060 02/M05 A3031 620 59 -700 200/06 RMK AO2 T00221050
04850KAOH AOH20160205183011902/05/16 18:30:31  5-MIN KAOH 052330Z AUTO 20007KT 10SM BKN048 OVC060 02/M05 A3031 620 59 -700 200/07 RMK AO2 T00221050
04850KAOH AOH20160205183511902/05/16 18:35:31  5-MIN KAOH 052335Z AUTO 21006KT 10SM BKN048 OVC060 02/M05 A3031 620 59 -700 220/06 RMK AO2 T00221050
04850KAOH AOH20160205184011202/05/16 18:40:31  5-MIN KAOH 052340Z AUTO 22006KT 10SM OVC046 02/M05 A3032 610 59 -700 230/06 RMK AO2 T00221050
04850KAOH AOH20160205184511902/05/16 18:45:31  5-MIN KAOH 052345Z AUTO 27009KT 10SM BKN043 OVC050 02/M04 A3032 610 61 -700 280/09 RMK AO2 T00221044
04850KAOH AOH20160205185013702/05/16 18:50:31  5-MIN KAOH 052350Z AUTO 29010KT 10SM BKN045 01/M03 A3032 610 72 -800 290/10 RMK AO2 SLP280 T00111033 10039 20011 55010
04850KAOH AOH20160205185511202/05/16 18:55:31  5-MIN KAOH 052355Z AUTO 29010KT 10SM BKN045 01/M03 A3032 610 72 -800 290/10 RMK AO2 T00111033
04850KAOH AOH20160205190011202/05/16 19:00:31  5-MIN KAOH 060000Z AUTO 29009KT 10SM SCT043 01/M03 A3032 610 72 -800 300/09 RMK AO2 T00111033
04850KAOH AOH20160205190511202/05/16 19:05:31  5-MIN KAOH 060005Z AUTO 29011KT 10SM SCT043 01/M03 A3032 610 72 -800 300/11 RMK AO2 T00111033
04850KAOH AOH20160205191011202/05/16 19:10:31  5-MIN KAOH 060010Z AUTO 30011KT 10SM FEW042 01/M03 A3033 600 75 -900 310/11 RMK AO2 T00061033
04850KAOH AOH20160205191510902/05/16 19:15:31  5-MIN KAOH 060015Z AUTO 30011KT 10SM CLR 01/M03 A3033 610 75 -900 310/11 RMK AO2 T00061033
04850KAOH AOH20160205192011002/05/16 19:20:31  5-MIN KAOH 060020Z AUTO 30009KT 10SM CLR 00/M03 A3033 600 81 -1000 310/09 RMK AO2 T00001028
04850KAOH AOH20160205192511002/05/16 19:25:31  5-MIN KAOH 060025Z AUTO 30011KT 10SM CLR 00/M03 A3032 610 78 -1000 300/11 RMK AO2 T00001033
04850KAOH AOH20160205193011002/05/16 19:30:31  5-MIN KAOH 060030Z AUTO 29011KT 10SM CLR 00/M03 A3032 610 78 -1000 300/11 RMK AO2 T00001033
04850KAOH AOH20160205193511002/05/16 19:35:31  5-MIN KAOH 060035Z AUTO 29007KT 10SM CLR 00/M03 A3033 600 78 -1000 300/07 RMK AO2 T00001033
04850KAOH AOH20160205194011002/05/16 19:40:31  5-MIN KAOH 060040Z AUTO 29007KT 10SM CLR 00/M03 A3033 600 78 -1000 290/07 RMK AO2 T00001033
04850KAOH AOH20160205194511002/05/16 19:45:31  5-MIN KAOH 060045Z AUTO 29009KT 10SM CLR 00/M03 A3033 600 78 -1000 300/09 RMK AO2 T00001033
04850KAOH AOH20160205195011702/05/16 19:50:31  5-MIN KAOH 060050Z AUTO 29008KT 10SM CLR 00/M03 A3033 600 78 -1000 300/08 RMK AO2 SLP284 T00001033
04850KAOH AOH20160205195511002/05/16 19:55:31  5-MIN KAOH 060055Z AUTO 29010KT 10SM CLR 00/M03 A3033 600 78 -1000 300/10 RMK AO2 T00001033
04850KAOH AOH20160205200011002/05/16 20:00:31  5-MIN KAOH 060100Z AUTO 29009KT 10SM CLR 00/M04 A3033 600 75 -1000 300/09 RMK AO2 T00001039
04850KAOH AOH20160205200511102/05/16 20:05:31  5-MIN KAOH 060105Z AUTO 29009KT 10SM CLR M01/M03 A3033 600 81 -1100 300/09 RMK AO2 T10061033
04850KAOH AOH20160205201011102/05/16 20:10:31  5-MIN KAOH 060110Z AUTO 30011KT 10SM CLR M01/M04 A3032 610 78 -1100 300/11 RMK AO2 T10061039
04850KAOH AOH20160205201511102/05/16 20:15:31  5-MIN KAOH 060115Z AUTO 28011KT 10SM CLR M01/M04 A3032 610 75 -1100 290/11 RMK AO2 T10061044
04850KAOH AOH20160205202011402/05/16 20:20:31  5-MIN KAOH 060120Z AUTO 29011KT 10SM FEW050 M01/M04 A3032 610 75 -1100 290/11 RMK AO2 T10061044
04850KAOH AOH20160205202511402/05/16 20:25:31  5-MIN KAOH 060125Z AUTO 29011KT 10SM SCT050 M01/M04 A3032 610 75 -1100 300/11 RMK AO2 T10061044
04850KAOH AOH20160205203011402/05/16 20:30:31  5-MIN KAOH 060130Z AUTO 29010KT 10SM BKN050 M01/M04 A3033 600 75 -1100 290/10 RMK AO2 T10061044
04850KAOH AOH20160205203511402/05/16 20:35:31  5-MIN KAOH 060135Z AUTO 29009KT 10SM BKN050 M01/M04 A3033 600 75 -1100 290/09 RMK AO2 T10061044
04850KAOH AOH20160205204011402/05/16 20:40:31  5-MIN KAOH 060140Z AUTO 29007KT 10SM BKN050 M01/M04 A3033 600 75 -1100 290/07 RMK AO2 T10061044
04850KAOH AOH20160205204511402/05/16 20:45:31  5-MIN KAOH 060145Z AUTO 28008KT 10SM OVC050 M01/M04 A3032 610 75 -1100 290/08 RMK AO2 T10061044
04850KAOH AOH20160205205012102/05/16 20:50:31  5-MIN KAOH 060150Z AUTO 29008KT 10SM OVC050 M01/M04 A3032 610 75 -1100 290/08 RMK AO2 SLP281 T10061044
04850KAOH AOH20160205205511402/05/16 20:55:31  5-MIN KAOH 060155Z AUTO 28007KT 10SM OVC050 M01/M04 A3032 610 75 -1100 280/07 RMK AO2 T10061044
04850KAOH AOH20160205210011402/05/16 21:00:31  5-MIN KAOH 060200Z AUTO 27006KT 10SM OVC050 M01/M04 A3032 610 75 -1100 280/06 RMK AO2 T10061044
04850KAOH AOH20160205210512102/05/16 21:05:31  5-MIN KAOH 060205Z AUTO 27007KT 10SM SCT045 OVC055 M01/M04 A3032 610 75 -1100 280/07 RMK AO2 T10061044
04850KAOH AOH20160205211012102/05/16 21:10:31  5-MIN KAOH 060210Z AUTO 26007KT 10SM SCT043 OVC055 M01/M04 A3032 610 75 -1100 270/07 RMK AO2 T10061044
04850KAOH AOH20160205211512102/05/16 21:15:31  5-MIN KAOH 060215Z AUTO 27008KT 10SM SCT040 OVC050 M01/M04 A3032 610 75 -1100 270/08 RMK AO2 T10061044
04850KAOH AOH20160205212012802/05/16 21:20:31  5-MIN KAOH 060220Z AUTO 27007KT 10SM SCT040 BKN047 OVC055 M01/M04 A3032 610 75 -1100 280/07 RMK AO2 T10061044
04850KAOH AOH20160205212512802/05/16 21:25:31  5-MIN KAOH 060225Z AUTO 28008KT 10SM BKN040 BKN050 OVC055 M01/M04 A3032 610 75 -1100 280/08 RMK AO2 T10061044
04850KAOH AOH20160205213012102/05/16 21:30:31  5-MIN KAOH 060230Z AUTO 27007KT 10SM BKN039 OVC050 M01/M04 A3032 610 75 -1100 280/07 RMK AO2 T10061044
04850KAOH AOH20160205213512102/05/16 21:35:31  5-MIN KAOH 060235Z AUTO 29008KT 10SM BKN039 OVC055 M01/M04 A3032 610 75 -1100 300/08 RMK AO2 T10061044
04850KAOH AOH20160205214012102/05/16 21:40:31  5-MIN KAOH 060240Z AUTO 28007KT 10SM BKN038 OVC050 M01/M05 A3031 610 72 -1000 290/07 RMK AO2 T10061050
04850KAOH AOH20160205214512102/05/16 21:45:31  5-MIN KAOH 060245Z AUTO 28008KT 10SM BKN038 OVC055 M01/M06 A3031 620 72 -1100 290/08 RMK AO2 T10111056
04850KAOH AOH20160205215013402/05/16 21:50:31  5-MIN KAOH 060250Z AUTO 28007KT 10SM BKN038 OVC050 M01/M06 A3031 620 72 -1100 290/07 RMK AO2 SLP276 T10111056 53007
04850KAOH AOH20160205215512102/05/16 21:55:31  5-MIN KAOH 060255Z AUTO 27007KT 10SM BKN038 OVC050 M01/M05 A3031 620 75 -1100 280/07 RMK AO2 T10111050
04850KAOH AOH20160205220012102/05/16 22:00:31  5-MIN KAOH 060300Z AUTO 27007KT 10SM BKN038 OVC055 M01/M05 A3031 620 75 -1100 280/07 RMK AO2 T10111050
04850KAOH AOH20160205220512102/05/16 22:05:31  5-MIN KAOH 060305Z AUTO 27007KT 10SM SCT039 OVC055 M01/M05 A3031 620 75 -1100 270/07 RMK AO2 T10111050
04850KAOH AOH20160205221012102/05/16 22:10:31  5-MIN KAOH 060310Z AUTO 26006KT 10SM FEW039 BKN055 M01/M05 A3031 620 75 -1100 270/06 RMK AO2 T10111050
04850KAOH AOH20160205221512102/05/16 22:15:31  5-MIN KAOH 060315Z AUTO 26006KT 10SM FEW039 BKN055 M02/M06 A3031 620 75 -1200 270/06 RMK AO2 T10171056
04850KAOH AOH20160205222012102/05/16 22:20:31  5-MIN KAOH 060320Z AUTO 26005KT 10SM FEW039 SCT055 M02/M06 A3031 620 78 -1300 270/05 RMK AO2 T10221056
04850KAOH AOH20160205222511402/05/16 22:25:31  5-MIN KAOH 060325Z AUTO 26005KT 10SM FEW055 M02/M06 A3031 620 75 -1300 260/05 RMK AO2 T10221061
04850KAOH AOH20160205223011402/05/16 22:30:31  5-MIN KAOH 060330Z AUTO 25005KT 10SM FEW055 M03/M06 A3031 620 78 -1300 260/05 RMK AO2 T10281061
04850KAOH AOH20160205223511102/05/16 22:35:31  5-MIN KAOH 060335Z AUTO 24004KT 10SM CLR M02/M06 A3031 620 75 -1200 250/04 RMK AO2 T10221061
04850KAOH AOH20160205224011102/05/16 22:40:31  5-MIN KAOH 060340Z AUTO 25005KT 10SM CLR M02/M06 A3030 620 75 -1200 260/05 RMK AO2 T10221061
04850KAOH AOH20160205224511102/05/16 22:45:31  5-MIN KAOH 060345Z AUTO 25005KT 10SM CLR M02/M06 A3030 630 75 -1200 260/05 RMK AO2 T10221061
04850KAOH AOH20160205225011802/05/16 22:50:31  5-MIN KAOH 060350Z AUTO 23004KT 10SM CLR M02/M06 A3029 630 75 -1200 230/04 RMK AO2 SLP270 T10221061
04850KAOH AOH20160205225511102/05/16 22:55:31  5-MIN KAOH 060355Z AUTO 21004KT 10SM CLR M02/M06 A3029 630 75 -1200 220/04 RMK AO2 T10221061
04850KAOH AOH20160205230011102/05/16 23:00:31  5-MIN KAOH 060400Z AUTO 21004KT 10SM CLR M02/M06 A3029 640 75 -1200 220/04 RMK AO2 T10221061
04850KAOH AOH20160205230511102/05/16 23:05:31  5-MIN KAOH 060405Z AUTO 20004KT 10SM CLR M02/M06 A3029 640 75 -1200 200/04 RMK AO2 T10221061
04850KAOH AOH20160205231011102/05/16 23:10:31  5-MIN KAOH 060410Z AUTO 18004KT 10SM CLR M02/M06 A3029 640 75 -1200 190/04 RMK AO2 T10221061
04850KAOH AOH20160205231511102/05/16 23:15:31  5-MIN KAOH 060415Z AUTO 21004KT 10SM CLR M02/M06 A3029 630 75 -1200 210/04 RMK AO2 T10221061
04850KAOH AOH20160205232011102/05/16 23:20:31  5-MIN KAOH 060420Z AUTO 23004KT 10SM CLR M02/M06 A3030 630 75 -1200 230/04 RMK AO2 T10221061
04850KAOH AOH20160205232511102/05/16 23:25:31  5-MIN KAOH 060425Z AUTO 22004KT 10SM CLR M02/M06 A3029 630 75 -1200 230/04 RMK AO2 T10221061
04850KAOH AOH20160205233011102/05/16 23:30:31  5-MIN KAOH 060430Z AUTO 24004KT 10SM CLR M03/M06 A3030 630 78 -1300 250/04 RMK AO2 T10281061
04850KAOH AOH20160205233511402/05/16 23:35:31  5-MIN KAOH 060435Z AUTO 25004KT 10SM FEW015 M03/M06 A3030 630 81 -1400 250/04 RMK AO2 T10331061
04850KAOH AOH20160205234011302/05/16 23:40:31  5-MIN KAOH 060440Z AUTO 26005KT 9SM FEW015 M03/M06 A3030 630 81 -1300 260/05 RMK AO2 T10281056
04850KAOH AOH20160205234511302/05/16 23:45:31  5-MIN KAOH 060445Z AUTO 25004KT 9SM FEW015 M03/M05 A3030 630 85 -1300 260/04 RMK AO2 T10281050
04850KAOH AOH20160205235013002/05/16 23:50:31  5-MIN KAOH 060450Z AUTO 26005KT 9SM SCT015 M03/M06 A3030 630 85 -1400 260/05 RMK AO2 SLP271 T10331056 400391067
04850KAOH AOH20160205235511402/05/16 23:55:31  5-MIN KAOH 060455Z AUTO 25005KT 10SM BKN016 M03/M06 A3030 630 85 -1400 250/05 RMK AO2 T10331056
04850KAOH AOH20160206000011402/06/16 00:00:31  5-MIN KAOH 060500Z AUTO 25006KT 10SM BKN016 M03/M06 A3030 630 81 -1300 250/06 RMK AO2 T10281056
04850KAOH AOH20160206000511402/06/16 00:05:31  5-MIN KAOH 060505Z AUTO 24005KT 10SM BKN016 M02/M05 A3030 630 81 -1200 250/05 RMK AO2 T10221050
04850KAOH AOH20160206001011402/06/16 00:10:31  5-MIN KAOH 060510Z AUTO 25006KT 10SM OVC016 M02/M05 A3030 630 81 -1200 250/06 RMK AO2 T10221050
04850KAOH AOH20160206001511402/06/16 00:15:31  5-MIN KAOH 060515Z AUTO 24006KT 10SM BKN016 M02/M06 A3030 630 78 -1200 250/06 RMK AO2 T10221056
04850KAOH AOH20160206002011402/06/16 00:20:31  5-MIN KAOH 060520Z AUTO 25006KT 10SM BKN016 M03/M06 A3030 630 81 -1300 260/06 RMK AO2 T10281056
04850KAOH AOH20160206002511302/06/16 00:25:31  5-MIN KAOH 060525Z AUTO 25005KT 9SM SCT016 M03/M06 A3030 630 81 -1300 250/05 RMK AO2 T10281056
04850KAOH AOH20160206003011302/06/16 00:30:31  5-MIN KAOH 060530Z AUTO 25005KT 9SM SCT016 M03/M06 A3030 630 81 -1300 250/05 RMK AO2 T10281056
04850KAOH AOH20160206003511302/06/16 00:35:31  5-MIN KAOH 060535Z AUTO 24006KT 9SM FEW016 M03/M06 A3030 630 81 -1300 250/06 RMK AO2 T10281056
04850KAOH AOH20160206004011002/06/16 00:40:31  5-MIN KAOH 060540Z AUTO 25006KT 9SM CLR M03/M06 A3030 630 81 -1300 250/06 RMK AO2 T10281056
04850KAOH AOH20160206004511002/06/16 00:45:31  5-MIN KAOH 060545Z AUTO 25007KT 9SM CLR M03/M06 A3030 630 81 -1300 250/07 RMK AO2 T10281056
04850KAOH AOH20160206005013502/06/16 00:50:31  5-MIN KAOH 060550Z AUTO 25006KT 9SM CLR M03/M06 A3030 630 85 -1400 250/06 RMK AO2 SLP271 T10331056 10011 21033 58003
04850KAOH AOH20160206005511002/06/16 00:55:31  5-MIN KAOH 060555Z AUTO 25006KT 9SM CLR M03/M06 A3030 630 85 -1400 260/06 RMK AO2 T10331056
04850KAOH AOH20160206010011002/06/16 01:00:31  5-MIN KAOH 060600Z AUTO 24006KT 9SM CLR M03/M06 A3030 630 85 -1400 250/06 RMK AO2 T10331056
04850KAOH AOH20160206010511002/06/16 01:05:31  5-MIN KAOH 060605Z AUTO 25006KT 9SM CLR M03/M06 A3030 630 85 -1400 250/06 RMK AO2 T10331056
04850KAOH AOH20160206011011002/06/16 01:10:31  5-MIN KAOH 060610Z AUTO 25006KT 9SM CLR M03/M06 A3030 630 85 -1400 250/06 RMK AO2 T10331056
04850KAOH AOH20160206011511002/06/16 01:15:31  5-MIN KAOH 060615Z AUTO 24006KT 9SM CLR M03/M06 A3030 630 85 -1400 250/06 RMK AO2 T10331056
04850KAOH AOH20160206012011002/06/16 01:20:31  5-MIN KAOH 060620Z AUTO 24006KT 9SM CLR M03/M05 A3030 630 85 -1300 240/06 RMK AO2 T10281050
04850KAOH AOH20160206012511002/06/16 01:25:31  5-MIN KAOH 060625Z AUTO 24006KT 9SM CLR M03/M05 A3029 630 85 -1300 250/06 RMK AO2 T10281050
04850KAOH AOH20160206013011002/06/16 01:30:31  5-MIN KAOH 060630Z AUTO 24006KT 9SM CLR M03/M05 A3029 630 85 -1300 250/06 RMK AO2 T10281050
04850KAOH AOH20160206013511002/06/16 01:35:31  5-MIN KAOH 060635Z AUTO 24005KT 9SM CLR M03/M05 A3029 640 85 -1300 250/05 RMK AO2 T10281050
04850KAOH AOH20160206014011002/06/16 01:40:31  5-MIN KAOH 060640Z AUTO 24005KT 9SM CLR M03/M05 A3029 630 88 -1400 240/05 RMK AO2 T10331050
04850KAOH AOH20160206014511002/06/16 01:45:31  5-MIN KAOH 060645Z AUTO 23005KT 8SM CLR M03/M05 A3029 640 88 -1400 240/05 RMK AO2 T10331050
04850KAOH AOH20160206015011702/06/16 01:50:31  5-MIN KAOH 060650Z AUTO 23006KT 8SM CLR M03/M06 A3029 640 85 -1400 240/06 RMK AO2 SLP267 T10331056
04850KAOH AOH20160206015511002/06/16 01:55:31  5-MIN KAOH 060655Z AUTO 22005KT 8SM CLR M03/M06 A3029 640 85 -1400 230/05 RMK AO2 T10331056
04850KAOH AOH20160206020011002/06/16 02:00:31  5-MIN KAOH 060700Z AUTO 22005KT 8SM CLR M03/M06 A3029 640 85 -1400 230/05 RMK AO2 T10331056
04850KAOH AOH20160206020511002/06/16 02:05:31  5-MIN KAOH 060705Z AUTO 23004KT 8SM CLR M03/M06 A3029 640 85 -1400 230/04 RMK AO2 T10331056
04850KAOH AOH20160206021011002/06/16 02:10:31  5-MIN KAOH 060710Z AUTO 23005KT 8SM CLR M03/M06 A3029 640 85 -1400 240/05 RMK AO2 T10331056
04850KAOH AOH20160206021511002/06/16 02:15:31  5-MIN KAOH 060715Z AUTO 23005KT 8SM CLR M03/M06 A3029 640 85 -1400 240/05 RMK AO2 T10331056
04850KAOH AOH20160206022011002/06/16 02:20:31  5-MIN KAOH 060720Z AUTO 23005KT 8SM CLR M03/M06 A3029 640 85 -1400 240/05 RMK AO2 T10331056
04850KAOH AOH20160206022511002/06/16 02:25:31  5-MIN KAOH 060725Z AUTO 23004KT 8SM CLR M03/M06 A3029 640 85 -1400 230/04 RMK AO2 T10331056
04850KAOH AOH20160206023011002/06/16 02:30:31  5-MIN KAOH 060730Z AUTO 22004KT 8SM CLR M03/M06 A3029 630 85 -1400 230/04 RMK AO2 T10331056
04850KAOH AOH20160206023511002/06/16 02:35:31  5-MIN KAOH 060735Z AUTO 24004KT 8SM CLR M03/M05 A3029 630 88 -1400 240/04 RMK AO2 T10331050
04850KAOH AOH20160206024011002/06/16 02:40:31  5-MIN KAOH 060740Z AUTO 24005KT 8SM CLR M03/M06 A3030 630 85 -1400 250/05 RMK AO2 T10331056
04850KAOH AOH20160206024511002/06/16 02:45:31  5-MIN KAOH 060745Z AUTO 24005KT 8SM CLR M03/M06 A3030 630 85 -1400 250/05 RMK AO2 T10331056
04850KAOH AOH20160206025011702/06/16 02:50:31  5-MIN KAOH 060750Z AUTO 24005KT 7SM CLR M03/M05 A3030 630 88 -1400 250/05 RMK AO2 SLP270 T10331050
04850KAOH AOH20160206025511002/06/16 02:55:31  5-MIN KAOH 060755Z AUTO 25004KT 7SM CLR M03/M05 A3030 630 88 -1400 250/04 RMK AO2 T10331050
04850KAOH AOH20160206030011002/06/16 03:00:31  5-MIN KAOH 060800Z AUTO 24005KT 7SM CLR M04/M05 A3030 630 92 -1500 250/05 RMK AO2 T10391050
04850KAOH AOH20160206030511002/06/16 03:05:31  5-MIN KAOH 060805Z AUTO 24005KT 7SM CLR M04/M06 A3030 630 88 -1500 250/05 RMK AO2 T10391056
04850KAOH AOH20160206031011002/06/16 03:10:31  5-MIN KAOH 060810Z AUTO 25004KT 7SM CLR M04/M06 A3030 630 88 -1500 250/04 RMK AO2 T10391056
04850KAOH AOH20160206031511002/06/16 03:15:31  5-MIN KAOH 060815Z AUTO 24004KT 7SM CLR M04/M06 A3030 630 88 -1500 250/04 RMK AO2 T10391056
04850KAOH AOH20160206032011002/06/16 03:20:31  5-MIN KAOH 060820Z AUTO 24004KT 7SM CLR M04/M06 A3030 630 88 -1500 250/04 RMK AO2 T10391056
04850KAOH AOH20160206032511002/06/16 03:25:31  5-MIN KAOH 060825Z AUTO 24005KT 7SM CLR M04/M06 A3029 630 88 -1400 250/05 RMK AO2 T10391056
04850KAOH AOH20160206033011002/06/16 03:30:31  5-MIN KAOH 060830Z AUTO 25004KT 7SM CLR M04/M06 A3029 630 88 -1400 250/04 RMK AO2 T10391056
04850KAOH AOH20160206033511002/06/16 03:35:31  5-MIN KAOH 060835Z AUTO 24004KT 7SM CLR M04/M06 A3029 640 88 -1400 250/04 RMK AO2 T10391056
04850KAOH AOH20160206034011302/06/16 03:40:31  5-MIN KAOH 060840Z AUTO 24004KT 6SM BR CLR M04/M06 A3029 640 88 -1400 240/04 RMK AO2 T10391056
04850KAOH AOH20160206034511302/06/16 03:45:31  5-MIN KAOH 060845Z AUTO 23005KT 6SM BR CLR M04/M06 A3029 640 88 -1400 240/05 RMK AO2 T10391056
04850KAOH AOH20160206035012602/06/16 03:50:31  5-MIN KAOH 060850Z AUTO 22004KT 6SM BR CLR M04/M06 A3029 640 88 -1400 230/04 RMK AO2 SLP267 T10391056 55004
04850KAOH AOH20160206035511302/06/16 03:55:31  5-MIN KAOH 060855Z AUTO 23004KT 6SM BR CLR M04/M06 A3029 640 88 -1400 230/04 RMK AO2 T10391056
04850KAOH AOH20160206040011302/06/16 04:00:31  5-MIN KAOH 060900Z AUTO 22004KT 6SM BR CLR M04/M06 A3029 630 88 -1400 230/04 RMK AO2 T10391056
04850KAOH AOH20160206135510902/06/16 13:55:31  5-MIN KAOH 061855Z AUTO 24010KT 10SM CLR 02/M06 A3023 690 54 -600 250/10 RMK AO2 T00221061
04850KAOH AOH20160206140010902/06/16 14:00:31  5-MIN KAOH 061900Z AUTO 24010KT 10SM CLR 02/M06 A3023 690 56 -600 250/10 RMK AO2 T00221056
04850KAOH AOH20160206140510902/06/16 14:05:31  5-MIN KAOH 061905Z AUTO 26013KT 10SM CLR 02/M06 A3023 690 56 -600 270/13 RMK AO2 T00221056
04850KAOH AOH20160206141010902/06/16 14:10:31  5-MIN KAOH 061910Z AUTO 25012KT 10SM CLR 02/M05 A3023 700 59 -600 250/12 RMK AO2 T00221050
04850KAOH AOH20160206141510902/06/16 14:15:31  5-MIN KAOH 061915Z AUTO 25009KT 10SM CLR 02/M05 A3023 700 59 -600 250/09 RMK AO2 T00221050
04850KAOH AOH20160206142010902/06/16 14:20:31  5-MIN KAOH 061920Z AUTO 22014KT 10SM CLR 03/M06 A3023 700 54 -500 230/14 RMK AO2 T00281056
04850KAOH AOH20160206142510902/06/16 14:25:31  5-MIN KAOH 061925Z AUTO 24011KT 10SM CLR 03/M06 A3022 700 54 -500 250/11 RMK AO2 T00281056
04850KAOH AOH20160206143010902/06/16 14:30:31  5-MIN KAOH 061930Z AUTO 23011KT 10SM CLR 03/M05 A3022 700 56 -500 240/11 RMK AO2 T00281050
04850KAOH AOH20160206143510902/06/16 14:35:31  5-MIN KAOH 061935Z AUTO 24010KT 10SM CLR 03/M06 A3022 700 54 -500 240/10 RMK AO2 T00281056
04850KAOH AOH20160206144010902/06/16 14:40:31  5-MIN KAOH 061940Z AUTO 26011KT 10SM CLR 03/M05 A3022 700 56 -500 260/11 RMK AO2 T00281050
04850KAOH AOH20160206144510902/06/16 14:45:31  5-MIN KAOH 061945Z AUTO 25014KT 10SM CLR 03/M05 A3022 700 56 -500 260/14 RMK AO2 T00281050
04850KAOH AOH20160206145011602/06/16 14:50:31  5-MIN KAOH 061950Z AUTO 24011KT 10SM CLR 03/M06 A3022 700 54 -500 240/11 RMK AO2 SLP244 T00281056
04850KAOH AOH20160206145510902/06/16 14:55:31  5-MIN KAOH 061955Z AUTO 25011KT 10SM CLR 03/M04 A3022 700 59 -500 250/11 RMK AO2 T00281044
04850KAOH AOH20160206150010902/06/16 15:00:31  5-MIN KAOH 062000Z AUTO 24010KT 10SM CLR 03/M06 A3022 700 54 -500 250/10 RMK AO2 T00281056
04850KAOH AOH20160206150510902/06/16 15:05:31  5-MIN KAOH 062005Z AUTO 23012KT 10SM CLR 03/M06 A3022 700 54 -500 240/12 RMK AO2 T00281056
04850KAOH AOH20160206151010902/06/16 15:10:31  5-MIN KAOH 062010Z AUTO 24011KT 10SM CLR 03/M06 A3022 700 54 -500 250/11 RMK AO2 T00281056
04850KAOH AOH20160206151510902/06/16 15:15:31  5-MIN KAOH 062015Z AUTO 23011KT 10SM CLR 03/M05 A3021 710 54 -400 240/11 RMK AO2 T00331050
04850KAOH AOH20160206152010902/06/16 15:20:31  5-MIN KAOH 062020Z AUTO 25013KT 10SM CLR 03/M06 A3021 710 54 -500 260/13 RMK AO2 T00281056
04850KAOH AOH20160206152510902/06/16 15:25:31  5-MIN KAOH 062025Z AUTO 24010KT 10SM CLR 03/M06 A3021 710 54 -500 240/10 RMK AO2 T00281056
04850KAOH AOH20160206153010902/06/16 15:30:31  5-MIN KAOH 062030Z AUTO 24011KT 10SM CLR 03/M06 A3021 710 52 -500 250/11 RMK AO2 T00281061
04850KAOH AOH20160206153510902/06/16 15:35:31  5-MIN KAOH 062035Z AUTO 24011KT 10SM CLR 03/M07 A3021 710 50 -500 250/11 RMK AO2 T00281067
04850KAOH AOH20160206154010902/06/16 15:40:31  5-MIN KAOH 062040Z AUTO 23011KT 10SM CLR 03/M07 A3021 710 48 -400 240/11 RMK AO2 T00331067
04850KAOH AOH20160206154510902/06/16 15:45:31  5-MIN KAOH 062045Z AUTO 23011KT 10SM CLR 03/M07 A3021 710 48 -400 230/11 RMK AO2 T00331067
04850KAOH AOH20160206155012202/06/16 15:50:31  5-MIN KAOH 062050Z AUTO 24012KT 10SM CLR 03/M07 A3021 710 46 -400 250/12 RMK AO2 SLP241 T00331072 58018
04850KAOH AOH20160206155510902/06/16 15:55:31  5-MIN KAOH 062055Z AUTO 22010KT 10SM CLR 03/M07 A3021 710 48 -400 230/10 RMK AO2 T00331067
04850KAOH AOH20160206160010902/06/16 16:00:31  5-MIN KAOH 062100Z AUTO 22009KT 10SM CLR 03/M07 A3021 710 48 -400 230/09 RMK AO2 T00331067
04850KAOH AOH20160206160510902/06/16 16:05:31  5-MIN KAOH 062105Z AUTO 25011KT 10SM CLR 03/M06 A3021 710 50 -400 250/11 RMK AO2 T00331061
04850KAOH AOH20160206161010902/06/16 16:10:31  5-MIN KAOH 062110Z AUTO 24010KT 10SM CLR 03/M06 A3021 710 50 -400 240/10 RMK AO2 T00331061
04850KAOH AOH20160206161510902/06/16 16:15:31  5-MIN KAOH 062115Z AUTO 23009KT 10SM CLR 03/M06 A3021 710 50 -400 240/09 RMK AO2 T00331061
04850KAOH AOH20160206162010902/06/16 16:20:31  5-MIN KAOH 062120Z AUTO 23010KT 10SM CLR 03/M06 A3021 710 52 -400 240/10 RMK AO2 T00331056
04850KAOH AOH20160206162510902/06/16 16:25:31  5-MIN KAOH 062125Z AUTO 24010KT 10SM CLR 03/M06 A3022 710 50 -400 240/10 RMK AO2 T00331061
04850KAOH AOH20160206163010902/06/16 16:30:31  5-MIN KAOH 062130Z AUTO 24010KT 10SM CLR 03/M06 A3021 710 50 -400 240/10 RMK AO2 T00331061
04850KAOH AOH20160206163510902/06/16 16:35:31  5-MIN KAOH 062135Z AUTO 24009KT 10SM CLR 03/M06 A3021 710 50 -400 250/09 RMK AO2 T00331061
04850KAOH AOH20160206164010902/06/16 16:40:31  5-MIN KAOH 062140Z AUTO 24009KT 10SM CLR 03/M06 A3021 710 52 -400 250/09 RMK AO2 T00331056
04850KAOH AOH20160206164510902/06/16 16:45:31  5-MIN KAOH 062145Z AUTO 25008KT 10SM CLR 03/M06 A3021 710 52 -400 250/08 RMK AO2 T00331056
04850KAOH AOH20160206165011602/06/16 16:50:31  5-MIN KAOH 062150Z AUTO 23007KT 10SM CLR 03/M06 A3021 710 52 -400 240/07 RMK AO2 SLP240 T00331056
04850KAOH AOH20160206165510902/06/16 16:55:31  5-MIN KAOH 062155Z AUTO 22009KT 10SM CLR 03/M06 A3021 710 52 -400 220/09 RMK AO2 T00331056
04850KAOH AOH20160206170010902/06/16 17:00:31  5-MIN KAOH 062200Z AUTO 24009KT 10SM CLR 03/M06 A3021 710 52 -400 250/09 RMK AO2 T00331056
04850KAOH AOH20160206170510902/06/16 17:05:31  5-MIN KAOH 062205Z AUTO 24012KT 10SM CLR 03/M06 A3021 710 50 -400 240/12 RMK AO2 T00331061
04850KAOH AOH20160206171010902/06/16 17:10:31  5-MIN KAOH 062210Z AUTO 23011KT 10SM CLR 03/M06 A3021 710 50 -400 240/11 RMK AO2 T00331061
04850KAOH AOH20160206171510902/06/16 17:15:31  5-MIN KAOH 062215Z AUTO 23009KT 10SM CLR 03/M06 A3021 710 50 -400 230/09 RMK AO2 T00331061
04850KAOH AOH20160206172010902/06/16 17:20:31  5-MIN KAOH 062220Z AUTO 23010KT 10SM CLR 03/M06 A3021 710 52 -500 240/10 RMK AO2 T00281061
04850KAOH AOH20160206172510902/06/16 17:25:31  5-MIN KAOH 062225Z AUTO 23008KT 10SM CLR 03/M06 A3021 710 52 -500 230/08 RMK AO2 T00281061
04850KAOH AOH20160206173010902/06/16 17:30:31  5-MIN KAOH 062230Z AUTO 22007KT 10SM CLR 03/M06 A3021 710 52 -500 230/07 RMK AO2 T00281061
04850KAOH AOH20160206173510902/06/16 17:35:31  5-MIN KAOH 062235Z AUTO 23008KT 10SM CLR 03/M06 A3021 710 52 -500 230/08 RMK AO2 T00281061
04850KAOH AOH20160206174010902/06/16 17:40:31  5-MIN KAOH 062240Z AUTO 22006KT 10SM CLR 03/M06 A3021 710 52 -500 230/06 RMK AO2 T00281061
04850KAOH AOH20160206174510902/06/16 17:45:31  5-MIN KAOH 062245Z AUTO 22007KT 10SM CLR 02/M06 A3020 720 54 -600 220/07 RMK AO2 T00221061
04850KAOH AOH20160206175011602/06/16 17:50:31  5-MIN KAOH 062250Z AUTO 22006KT 10SM CLR 02/M06 A3020 720 54 -600 220/06 RMK AO2 SLP238 T00221061
04850KAOH AOH20160206175510902/06/16 17:55:31  5-MIN KAOH 062255Z AUTO 22007KT 10SM CLR 02/M06 A3020 720 54 -600 230/07 RMK AO2 T00221061
04850KAOH AOH20160206180010902/06/16 18:00:31  5-MIN KAOH 062300Z AUTO 23007KT 10SM CLR 02/M06 A3020 720 59 -600 240/07 RMK AO2 T00171056
04850KAOH AOH20160206180510902/06/16 18:05:31  5-MIN KAOH 062305Z AUTO 22006KT 10SM CLR 02/M06 A3020 720 59 -600 230/06 RMK AO2 T00171056
04850KAOH AOH20160206181010902/06/16 18:10:31  5-MIN KAOH 062310Z AUTO 22006KT 10SM CLR 02/M06 A3020 720 59 -600 230/06 RMK AO2 T00171056
04850KAOH AOH20160206181510902/06/16 18:15:31  5-MIN KAOH 062315Z AUTO 23006KT 10SM CLR 02/M06 A3021 710 59 -600 240/06 RMK AO2 T00171056
04850KAOH AOH20160206182010902/06/16 18:20:31  5-MIN KAOH 062320Z AUTO 23006KT 10SM CLR 01/M06 A3021 710 61 -700 240/06 RMK AO2 T00111056
04850KAOH AOH20160206182510902/06/16 18:25:31  5-MIN KAOH 062325Z AUTO 23005KT 10SM CLR 01/M06 A3021 710 61 -700 240/05 RMK AO2 T00111056
04850KAOH AOH20160206183010902/06/16 18:30:31  5-MIN KAOH 062330Z AUTO 23006KT 10SM CLR 01/M06 A3021 710 61 -700 240/06 RMK AO2 T00111056
04850KAOH AOH20160206183510902/06/16 18:35:31  5-MIN KAOH 062335Z AUTO 23006KT 10SM CLR 01/M06 A3021 710 61 -700 230/06 RMK AO2 T00111056
04850KAOH AOH20160206184010902/06/16 18:40:31  5-MIN KAOH 062340Z AUTO 22006KT 10SM CLR 01/M06 A3021 710 61 -700 230/06 RMK AO2 T00111056
04850KAOH AOH20160206184510902/06/16 18:45:31  5-MIN KAOH 062345Z AUTO 22006KT 10SM CLR 01/M06 A3021 710 61 -700 230/06 RMK AO2 T00111056
04850KAOH AOH20160206185013402/06/16 18:50:31  5-MIN KAOH 062350Z AUTO 22006KT 10SM CLR 01/M06 A3021 710 61 -700 230/06 RMK AO2 SLP241 T00111056 10033 20011 56016
04850KAOH AOH20160206185510902/06/16 18:55:31  5-MIN KAOH 062355Z AUTO 22005KT 10SM CLR 01/M06 A3021 710 61 -700 230/05 RMK AO2 T00111056
04850KAOH AOH20160206190010902/06/16 19:00:31  5-MIN KAOH 070000Z AUTO 22005KT 10SM CLR 01/M06 A3021 710 61 -700 230/05 RMK AO2 T00111056
04850KAOH AOH20160206190510902/06/16 19:05:31  5-MIN KAOH 070005Z AUTO 22005KT 10SM CLR 01/M06 A3021 710 61 -700 220/05 RMK AO2 T00111056
04850KAOH AOH20160206191010902/06/16 19:10:31  5-MIN KAOH 070010Z AUTO 21005KT 10SM CLR 01/M06 A3021 710 61 -700 220/05 RMK AO2 T00111056
04850KAOH AOH20160206191510902/06/16 19:15:31  5-MIN KAOH 070015Z AUTO 21005KT 10SM CLR 01/M06 A3021 710 61 -700 220/05 RMK AO2 T00111056
04850KAOH AOH20160206192010902/06/16 19:20:31  5-MIN KAOH 070020Z AUTO 22005KT 10SM CLR 01/M06 A3021 710 61 -700 220/05 RMK AO2 T00111056
04850KAOH AOH20160206192510902/06/16 19:25:31  5-MIN KAOH 070025Z AUTO 22005KT 10SM CLR 01/M06 A3021 710 61 -700 220/05 RMK AO2 T00111056
04850KAOH AOH20160206193010902/06/16 19:30:31  5-MIN KAOH 070030Z AUTO 22005KT 10SM CLR 01/M06 A3021 710 63 -800 230/05 RMK AO2 T00061056
04850KAOH AOH20160206193510902/06/16 19:35:31  5-MIN KAOH 070035Z AUTO 22006KT 10SM CLR 01/M06 A3021 710 61 -700 230/06 RMK AO2 T00111056
04850KAOH AOH20160206194010902/06/16 19:40:31  5-MIN KAOH 070040Z AUTO 22006KT 10SM CLR 01/M06 A3021 710 63 -800 230/06 RMK AO2 T00061056
04850KAOH AOH20160206194510902/06/16 19:45:31  5-MIN KAOH 070045Z AUTO 22006KT 10SM CLR 01/M06 A3021 710 63 -800 220/06 RMK AO2 T00061056
04850KAOH AOH20160206195011602/06/16 19:50:31  5-MIN KAOH 070050Z AUTO 21005KT 10SM CLR 01/M06 A3021 710 61 -700 210/05 RMK AO2 SLP240 T00111056
04850KAOH AOH20160206195510902/06/16 19:55:31  5-MIN KAOH 070055Z AUTO 21005KT 10SM CLR 01/M06 A3021 710 61 -700 210/05 RMK AO2 T00111056
04850KAOH AOH20160206200010902/06/16 20:00:31  5-MIN KAOH 070100Z AUTO 21006KT 10SM CLR 01/M06 A3021 710 63 -800 220/06 RMK AO2 T00061056
04850KAOH AOH20160206200510902/06/16 20:05:31  5-MIN KAOH 070105Z AUTO 21005KT 10SM CLR 01/M06 A3021 710 63 -800 210/05 RMK AO2 T00061056
04850KAOH AOH20160206201010902/06/16 20:10:31  5-MIN KAOH 070110Z AUTO 21005KT 10SM CLR 01/M05 A3021 710 66 -800 210/05 RMK AO2 T00061050
04850KAOH AOH20160206201510902/06/16 20:15:31  5-MIN KAOH 070115Z AUTO 20005KT 10SM CLR 01/M05 A3021 710 66 -800 200/05 RMK AO2 T00061050
04850KAOH AOH20160206202010902/06/16 20:20:31  5-MIN KAOH 070120Z AUTO 19006KT 10SM CLR 01/M05 A3020 720 66 -800 200/06 RMK AO2 T00061050
04850KAOH AOH20160206202510902/06/16 20:25:31  5-MIN KAOH 070125Z AUTO 20005KT 10SM CLR 01/M05 A3020 720 66 -800 200/05 RMK AO2 T00061050
04850KAOH AOH20160206203010902/06/16 20:30:31  5-MIN KAOH 070130Z AUTO 20006KT 10SM CLR 01/M05 A3020 720 66 -800 210/06 RMK AO2 T00061050
04850KAOH AOH20160206203510902/06/16 20:35:31  5-MIN KAOH 070135Z AUTO 20006KT 10SM CLR 01/M05 A3020 720 66 -800 200/06 RMK AO2 T00061050
04850KAOH AOH20160206204010902/06/16 20:40:31  5-MIN KAOH 070140Z AUTO 19005KT 10SM CLR 01/M04 A3020 720 69 -800 200/05 RMK AO2 T00061044
04850KAOH AOH20160206204510902/06/16 20:45:31  5-MIN KAOH 070145Z AUTO 19006KT 10SM CLR 01/M04 A3020 720 69 -800 200/06 RMK AO2 T00061044
04850KAOH AOH20160206205011602/06/16 20:50:31  5-MIN KAOH 070150Z AUTO 19005KT 10SM CLR 01/M04 A3020 720 69 -800 200/05 RMK AO2 SLP237 T00061044
04850KAOH AOH20160206205510902/06/16 20:55:31  5-MIN KAOH 070155Z AUTO 19006KT 10SM CLR 00/M04 A3020 720 72 -800 200/06 RMK AO2 T00001044
04850KAOH AOH20160206210010902/06/16 21:00:31  5-MIN KAOH 070200Z AUTO 19006KT 10SM CLR 00/M04 A3020 720 72 -800 190/06 RMK AO2 T00001044
04850KAOH AOH20160206210510902/06/16 21:05:31  5-MIN KAOH 070205Z AUTO 19005KT 10SM CLR 01/M04 A3020 720 69 -800 200/05 RMK AO2 T00061044
04850KAOH AOH20160206211010902/06/16 21:10:31  5-MIN KAOH 070210Z AUTO 19006KT 10SM CLR 00/M04 A3019 730 72 -800 200/06 RMK AO2 T00001044
04850KAOH AOH20160206211510902/06/16 21:15:31  5-MIN KAOH 070215Z AUTO 19006KT 10SM CLR 00/M04 A3019 730 72 -800 200/06 RMK AO2 T00001044
04850KAOH AOH20160206212010902/06/16 21:20:31  5-MIN KAOH 070220Z AUTO 19006KT 10SM CLR 00/M04 A3019 730 72 -800 200/06 RMK AO2 T00001044
04850KAOH AOH20160206212510902/06/16 21:25:31  5-MIN KAOH 070225Z AUTO 19007KT 10SM CLR 00/M04 A3019 730 72 -800 200/07 RMK AO2 T00001044
04850KAOH AOH20160206213010902/06/16 21:30:31  5-MIN KAOH 070230Z AUTO 19007KT 10SM CLR 01/M04 A3018 730 69 -800 200/07 RMK AO2 T00061044
04850KAOH AOH20160206213510902/06/16 21:35:31  5-MIN KAOH 070235Z AUTO 19006KT 10SM CLR 01/M04 A3018 730 69 -800 200/06 RMK AO2 T00061044
04850KAOH AOH20160206214010902/06/16 21:40:31  5-MIN KAOH 070240Z AUTO 19007KT 10SM CLR 01/M04 A3018 730 69 -800 200/07 RMK AO2 T00061044
04850KAOH AOH20160206214510902/06/16 21:45:31  5-MIN KAOH 070245Z AUTO 19007KT 10SM CLR 01/M04 A3018 730 69 -800 200/07 RMK AO2 T00061044
04850KAOH AOH20160206215012202/06/16 21:50:31  5-MIN KAOH 070250Z AUTO 19007KT 10SM CLR 01/M04 A3018 730 69 -800 190/07 RMK AO2 SLP232 T00061044 55001
04850KAOH AOH20160206215510902/06/16 21:55:31  5-MIN KAOH 070255Z AUTO 19007KT 10SM CLR 01/M04 A3018 740 69 -800 200/07 RMK AO2 T00061044
04850KAOH AOH20160206220010902/06/16 22:00:31  5-MIN KAOH 070300Z AUTO 19007KT 10SM CLR 01/M04 A3018 740 69 -800 200/07 RMK AO2 T00061044
04850KAOH AOH20160206220510902/06/16 22:05:31  5-MIN KAOH 070305Z AUTO 19006KT 10SM CLR 01/M04 A3018 740 69 -800 200/06 RMK AO2 T00061044
04850KAOH AOH20160206221010902/06/16 22:10:31  5-MIN KAOH 070310Z AUTO 19006KT 10SM CLR 01/M04 A3018 740 69 -800 200/06 RMK AO2 T00061044
04850KAOH AOH20160206221510902/06/16 22:15:31  5-MIN KAOH 070315Z AUTO 19006KT 10SM CLR 01/M04 A3018 740 69 -800 200/06 RMK AO2 T00061044
04850KAOH AOH20160206222010902/06/16 22:20:31  5-MIN KAOH 070320Z AUTO 19007KT 10SM CLR 01/M04 A3018 740 69 -800 200/07 RMK AO2 T00061044
04850KAOH AOH20160206222510902/06/16 22:25:31  5-MIN KAOH 070325Z AUTO 19007KT 10SM CLR 01/M04 A3018 740 69 -800 200/07 RMK AO2 T00061044
04850KAOH AOH20160206223010902/06/16 22:30:31  5-MIN KAOH 070330Z AUTO 19007KT 10SM CLR 01/M04 A3018 740 69 -800 190/07 RMK AO2 T00061044
04850KAOH AOH20160206223510902/06/16 22:35:31  5-MIN KAOH 070335Z AUTO 19008KT 10SM CLR 01/M04 A3018 740 69 -800 200/08 RMK AO2 T00061044
04850KAOH AOH20160206224010902/06/16 22:40:31  5-MIN KAOH 070340Z AUTO 18007KT 10SM CLR 01/M04 A3018 740 72 -800 190/07 RMK AO2 T00061039
04850KAOH AOH20160206224510902/06/16 22:45:31  5-MIN KAOH 070345Z AUTO 18008KT 10SM CLR 00/M04 A3018 740 75 -800 190/08 RMK AO2 T00001039
04850KAOH AOH20160206225011602/06/16 22:50:31  5-MIN KAOH 070350Z AUTO 18008KT 10SM CLR 00/M04 A3017 740 75 -800 190/08 RMK AO2 SLP229 T00001039
04850KAOH AOH20160206225510902/06/16 22:55:31  5-MIN KAOH 070355Z AUTO 18008KT 10SM CLR 00/M04 A3017 740 72 -800 190/08 RMK AO2 T00001044
04850KAOH AOH20160206230010902/06/16 23:00:31  5-MIN KAOH 070400Z AUTO 18008KT 10SM CLR 00/M04 A3017 740 72 -800 190/08 RMK AO2 T00001044
04850KAOH AOH20160206230510902/06/16 23:05:31  5-MIN KAOH 070405Z AUTO 18008KT 10SM CLR 01/M04 A3017 750 69 -700 190/08 RMK AO2 T00061044
04850KAOH AOH20160206231010902/06/16 23:10:31  5-MIN KAOH 070410Z AUTO 18008KT 10SM CLR 01/M04 A3017 750 69 -700 190/08 RMK AO2 T00061044
04850KAOH AOH20160206231510902/06/16 23:15:31  5-MIN KAOH 070415Z AUTO 18008KT 10SM CLR 01/M04 A3017 750 69 -700 190/08 RMK AO2 T00061044
04850KAOH AOH20160206232010902/06/16 23:20:31  5-MIN KAOH 070420Z AUTO 19008KT 10SM CLR 01/M04 A3017 750 69 -700 190/08 RMK AO2 T00061044
04850KAOH AOH20160206232510902/06/16 23:25:31  5-MIN KAOH 070425Z AUTO 19009KT 10SM CLR 01/M04 A3017 750 69 -700 190/09 RMK AO2 T00061044
04850KAOH AOH20160206233010902/06/16 23:30:31  5-MIN KAOH 070430Z AUTO 19008KT 10SM CLR 01/M04 A3017 750 69 -700 190/08 RMK AO2 T00061044
04850KAOH AOH20160206233510902/06/16 23:35:31  5-MIN KAOH 070435Z AUTO 19008KT 10SM CLR 01/M04 A3017 750 69 -700 190/08 RMK AO2 T00061044
04850KAOH AOH20160206234010902/06/16 23:40:31  5-MIN KAOH 070440Z AUTO 19009KT 10SM CLR 01/M04 A3016 750 69 -700 190/09 RMK AO2 T00061044
04850KAOH AOH20160206234510902/06/16 23:45:31  5-MIN KAOH 070445Z AUTO 19009KT 10SM CLR 01/M04 A3016 750 69 -700 190/09 RMK AO2 T00061044
04850KAOH AOH20160206235012602/06/16 23:50:31  5-MIN KAOH 070450Z AUTO 19009KT 10SM CLR 01/M04 A3016 750 69 -700 190/09 RMK AO2 SLP225 T00061044 400331050
04850KAOH AOH20160206235510902/06/16 23:55:31  5-MIN KAOH 070455Z AUTO 19009KT 10SM CLR 01/M04 A3016 760 69 -700 190/09 RMK AO2 T00061044
04850KAOH AOH20160207000010902/07/16 00:00:31  5-MIN KAOH 070500Z AUTO 18008KT 10SM CLR 01/M04 A3016 760 69 -700 190/08 RMK AO2 T00061044
04850KAOH AOH20160207000510902/07/16 00:05:31  5-MIN KAOH 070505Z AUTO 18009KT 10SM CLR 01/M04 A3016 760 69 -700 190/09 RMK AO2 T00061044
04850KAOH AOH20160207001010902/07/16 00:10:31  5-MIN KAOH 070510Z AUTO 18009KT 10SM CLR 01/M04 A3016 760 69 -700 190/09 RMK AO2 T00061044
04850KAOH AOH20160207001510902/07/16 00:15:31  5-MIN KAOH 070515Z AUTO 19009KT 10SM CLR 01/M04 A3015 760 69 -700 190/09 RMK AO2 T00061044
04850KAOH AOH20160207002010902/07/16 00:20:31  5-MIN KAOH 070520Z AUTO 18009KT 10SM CLR 01/M04 A3015 760 69 -700 190/09 RMK AO2 T00061044
04850KAOH AOH20160207002510902/07/16 00:25:31  5-MIN KAOH 070525Z AUTO 18008KT 10SM CLR 01/M04 A3015 760 69 -700 190/08 RMK AO2 T00061044
04850KAOH AOH20160207003010902/07/16 00:30:31  5-MIN KAOH 070530Z AUTO 18007KT 10SM CLR 00/M04 A3015 770 72 -800 180/07 RMK AO2 T00001044
04850KAOH AOH20160207003510902/07/16 00:35:31  5-MIN KAOH 070535Z AUTO 18008KT 10SM CLR 00/M04 A3015 770 72 -800 180/08 RMK AO2 T00001044
04850KAOH AOH20160207004010902/07/16 00:40:31  5-MIN KAOH 070540Z AUTO 18008KT 10SM CLR 00/M04 A3015 770 72 -800 190/08 RMK AO2 T00001044
04850KAOH AOH20160207004510902/07/16 00:45:31  5-MIN KAOH 070545Z AUTO 18008KT 10SM CLR 00/M04 A3015 770 72 -800 180/08 RMK AO2 T00001044
04850KAOH AOH20160207005013402/07/16 00:50:31  5-MIN KAOH 070550Z AUTO 18008KT 10SM CLR 00/M04 A3014 770 72 -800 180/08 RMK AO2 SLP218 T00001044 10011 20000 58009
04850KAOH AOH20160207005510902/07/16 00:55:31  5-MIN KAOH 070555Z AUTO 18008KT 10SM CLR 00/M04 A3014 770 72 -800 180/08 RMK AO2 T00001044
04850KAOH AOH20160207010010902/07/16 01:00:31  5-MIN KAOH 070600Z AUTO 18008KT 10SM CLR 00/M04 A3014 770 72 -800 180/08 RMK AO2 T00001044
04850KAOH AOH20160207010510902/07/16 01:05:31  5-MIN KAOH 070605Z AUTO 18009KT 10SM CLR 00/M04 A3014 780 72 -800 180/09 RMK AO2 T00001044
04850KAOH AOH20160207011010902/07/16 01:10:31  5-MIN KAOH 070610Z AUTO 18008KT 10SM CLR 00/M04 A3014 780 72 -800 180/08 RMK AO2 T00001044
04850KAOH AOH20160207011510902/07/16 01:15:31  5-MIN KAOH 070615Z AUTO 18008KT 10SM CLR 00/M04 A3013 780 72 -800 180/08 RMK AO2 T00001044
04850KAOH AOH20160207012010902/07/16 01:20:31  5-MIN KAOH 070620Z AUTO 18008KT 10SM CLR 01/M04 A3013 780 69 -700 180/08 RMK AO2 T00061044
04850KAOH AOH20160207012510902/07/16 01:25:31  5-MIN KAOH 070625Z AUTO 18009KT 10SM CLR 01/M04 A3013 780 69 -700 190/09 RMK AO2 T00061044
04850KAOH AOH20160207013010902/07/16 01:30:31  5-MIN KAOH 070630Z AUTO 18008KT 10SM CLR 01/M04 A3013 790 69 -700 180/08 RMK AO2 T00061044
04850KAOH AOH20160207013510902/07/16 01:35:31  5-MIN KAOH 070635Z AUTO 18008KT 10SM CLR 01/M04 A3013 790 69 -700 190/08 RMK AO2 T00061044
04850KAOH AOH20160207014010902/07/16 01:40:31  5-MIN KAOH 070640Z AUTO 18008KT 10SM CLR 00/M04 A3013 790 72 -800 190/08 RMK AO2 T00001044
04850KAOH AOH20160207014510902/07/16 01:45:31  5-MIN KAOH 070645Z AUTO 18008KT 10SM CLR 01/M04 A3013 790 69 -700 180/08 RMK AO2 T00061044
04850KAOH AOH20160207015011602/07/16 01:50:31  5-MIN KAOH 070650Z AUTO 18008KT 10SM CLR 01/M04 A3012 790 69 -700 190/08 RMK AO2 SLP210 T00061044
04850KAOH AOH20160207120010802/07/16 12:00:31  5-MIN KAOH 071700Z AUTO 20014KT 10SM CLR 06/M02 A2996 940 57 100 210/14 RMK AO2 T00611017
04850KAOH AOH20160207120510802/07/16 12:05:31  5-MIN KAOH 071705Z AUTO 20013KT 10SM CLR 07/M02 A2995 950 55 200 210/13 RMK AO2 T00671017
04850KAOH AOH20160207121010802/07/16 12:10:31  5-MIN KAOH 071710Z AUTO 20015KT 10SM CLR 07/M02 A2995 950 55 200 210/15 RMK AO2 T00671017
04850KAOH AOH20160207121510802/07/16 12:15:31  5-MIN KAOH 071715Z AUTO 20014KT 10SM CLR 07/M02 A2994 960 55 200 210/14 RMK AO2 T00671017
04850KAOH AOH20160207122010802/07/16 12:20:31  5-MIN KAOH 071720Z AUTO 21012KT 10SM CLR 07/M02 A2994 960 53 300 210/12 RMK AO2 T00721017
04850KAOH AOH20160207122510802/07/16 12:25:31  5-MIN KAOH 071725Z AUTO 21011KT 10SM CLR 07/M02 A2994 960 53 300 210/11 RMK AO2 T00721017
04850KAOH AOH20160207123010802/07/16 12:30:31  5-MIN KAOH 071730Z AUTO 21012KT 10SM CLR 08/M02 A2993 970 51 400 210/12 RMK AO2 T00781017
04850KAOH AOH20160207123510802/07/16 12:35:31  5-MIN KAOH 071735Z AUTO 21010KT 10SM CLR 08/M01 A2993 970 51 400 220/10 RMK AO2 T00831011
04850KAOH AOH20160207124010802/07/16 12:40:31  5-MIN KAOH 071740Z AUTO 20012KT 10SM CLR 08/M02 A2992 970 49 400 200/12 RMK AO2 T00831017
04850KAOH AOH20160207124510802/07/16 12:45:31  5-MIN KAOH 071745Z AUTO 21013KT 10SM CLR 08/M02 A2992 980 49 400 220/13 RMK AO2 T00831017
04850KAOH AOH20160207125013302/07/16 12:50:31  5-MIN KAOH 071750Z AUTO 20012KT 10SM CLR 08/M02 A2992 980 47 500 210/12 RMK AO2 SLP138 T00831022 10089 20006 56010
04850KAOH AOH20160207125510802/07/16 12:55:31  5-MIN KAOH 071755Z AUTO 21013KT 10SM CLR 09/M03 A2991 980 43 500 220/13 RMK AO2 T00891028
04850KAOH AOH20160207130010802/07/16 13:00:31  5-MIN KAOH 071800Z AUTO 21013KT 10SM CLR 09/M02 A2991 990 45 500 210/13 RMK AO2 T00891022
04850KAOH AOH20160207130511402/07/16 13:05:31  5-MIN KAOH 071805Z AUTO 21013G19KT 10SM CLR 09/M03 A2991 990 43 500 210/13G19 RMK AO2 T00891028
04850KAOH AOH20160207131011402/07/16 13:10:31  5-MIN KAOH 071810Z AUTO 22012G20KT 10SM CLR 09/M03 A2991 990 42 600 230/12G20 RMK AO2 T00941028
04850KAOH AOH20160207131511502/07/16 13:15:31  5-MIN KAOH 071815Z AUTO 21014G20KT 10SM CLR 09/M02 A2990 1000 44 600 220/14G20 RMK AO2 T00941022
04850KAOH AOH20160207132011502/07/16 13:20:31  5-MIN KAOH 071820Z AUTO 22017G25KT 10SM CLR 09/M02 A2990 1000 44 600 230/17G25 RMK AO2 T00941022
04850KAOH AOH20160207132511502/07/16 13:25:31  5-MIN KAOH 071825Z AUTO 23018G25KT 10SM CLR 09/M02 A2989 1000 44 600 240/18G25 RMK AO2 T00941022
04850KAOH AOH20160207133011502/07/16 13:30:31  5-MIN KAOH 071830Z AUTO 23018G25KT 10SM CLR 09/M02 A2989 1010 44 600 230/18G25 RMK AO2 T00941022
04850KAOH AOH20160207133511502/07/16 13:35:31  5-MIN KAOH 071835Z AUTO 22019G25KT 10SM CLR 09/M02 A2988 1010 44 600 220/19G25 RMK AO2 T00941022
04850KAOH AOH20160207134011502/07/16 13:40:31  5-MIN KAOH 071840Z AUTO 21014G25KT 10SM CLR 10/M02 A2988 1020 42 700 220/14G25 RMK AO2 T01001022
04850KAOH AOH20160207134510902/07/16 13:45:31  5-MIN KAOH 071845Z AUTO 22016KT 10SM CLR 10/M02 A2988 1020 44 700 230/16 RMK AO2 T01001017
04850KAOH AOH20160207135012202/07/16 13:50:31  5-MIN KAOH 071850Z AUTO 20015G23KT 10SM CLR 10/M02 A2987 1020 44 700 210/15G23 RMK AO2 SLP122 T01001017
04850KAOH AOH20160207135511502/07/16 13:55:31  5-MIN KAOH 071855Z AUTO 21019G23KT 10SM CLR 10/M02 A2987 1020 42 700 220/19G23 RMK AO2 T01001022
04850KAOH AOH20160207140011502/07/16 14:00:31  5-MIN KAOH 071900Z AUTO 21014G23KT 10SM CLR 09/M02 A2987 1030 44 600 220/14G23 RMK AO2 T00941022
04850KAOH AOH20160207140511502/07/16 14:05:31  5-MIN KAOH 071905Z AUTO 20014G23KT 10SM CLR 10/M02 A2986 1030 44 700 210/14G23 RMK AO2 T01001017
04850KAOH AOH20160207141011502/07/16 14:10:31  5-MIN KAOH 071910Z AUTO 23019G24KT 10SM CLR 10/M02 A2986 1030 44 700 230/19G24 RMK AO2 T01001017
04850KAOH AOH20160207141513302/07/16 14:15:31  5-MIN KAOH 071915Z AUTO 21018G28KT 10SM CLR 10/M02 A2986 1040 44 700 220/18G28 RMK AO2 PK WND 22028/1915 T01001017
04850KAOH AOH20160207142013302/07/16 14:20:31  5-MIN KAOH 071920Z AUTO 21019G28KT 10SM CLR 10/M02 A2985 1040 42 700 210/19G28 RMK AO2 PK WND 22028/1915 T01001022
04850KAOH AOH20160207142513302/07/16 14:25:31  5-MIN KAOH 071925Z AUTO 22018G27KT 10SM CLR 10/M02 A2985 1040 42 700 220/18G27 RMK AO2 PK WND 22028/1915 T01001022
04850KAOH AOH20160207143013302/07/16 14:30:31  5-MIN KAOH 071930Z AUTO 21018G27KT 10SM CLR 10/M02 A2984 1050 44 700 210/18G27 RMK AO2 PK WND 22028/1915 T01001017
04850KAOH AOH20160207143513302/07/16 14:35:31  5-MIN KAOH 071935Z AUTO 21020G25KT 10SM CLR 10/M02 A2985 1050 42 700 220/20G25 RMK AO2 PK WND 22028/1915 T01001022
04850KAOH AOH20160207144013302/07/16 14:40:31  5-MIN KAOH 071940Z AUTO 21012G25KT 10SM CLR 10/M02 A2985 1050 44 700 210/12G25 RMK AO2 PK WND 22028/1915 T01001017
04850KAOH AOH20160207144512702/07/16 14:45:31  5-MIN KAOH 071945Z AUTO 20014KT 10SM CLR 09/M02 A2984 1050 45 700 200/14 RMK AO2 PK WND 22028/1915 T00941017
04850KAOH AOH20160207145014002/07/16 14:50:31  5-MIN KAOH 071950Z AUTO 19017G23KT 10SM CLR 09/M02 A2984 1050 44 700 200/17G23 RMK AO2 PK WND 22028/1915 SLP110 T00941022
04850KAOH AOH20160207145511502/07/16 14:55:31  5-MIN KAOH 071955Z AUTO 19016G23KT 10SM CLR 09/M02 A2984 1060 45 700 200/16G23 RMK AO2 T00941017
04850KAOH AOH20160207150011502/07/16 15:00:31  5-MIN KAOH 072000Z AUTO 20015G21KT 10SM CLR 10/M02 A2983 1060 42 800 200/15G21 RMK AO2 T01001022
04850KAOH AOH20160207150511502/07/16 15:05:31  5-MIN KAOH 072005Z AUTO 20015G23KT 10SM CLR 10/M02 A2983 1060 44 800 200/15G23 RMK AO2 T01001017
04850KAOH AOH20160207151011502/07/16 15:10:31  5-MIN KAOH 072010Z AUTO 20014G23KT 10SM CLR 09/M02 A2983 1060 44 700 200/14G23 RMK AO2 T00941022
04850KAOH AOH20160207151511502/07/16 15:15:31  5-MIN KAOH 072015Z AUTO 20015G22KT 10SM CLR 09/M02 A2983 1060 44 700 200/15G22 RMK AO2 T00941022
04850KAOH AOH20160207152011502/07/16 15:20:31  5-MIN KAOH 072020Z AUTO 20014G22KT 10SM CLR 09/M02 A2982 1070 44 700 210/14G22 RMK AO2 T00941022
04850KAOH AOH20160207152511502/07/16 15:25:31  5-MIN KAOH 072025Z AUTO 20014G20KT 10SM CLR 09/M02 A2983 1060 45 700 210/14G20 RMK AO2 T00941017
04850KAOH AOH20160207153011502/07/16 15:30:31  5-MIN KAOH 072030Z AUTO 20013G21KT 10SM CLR 09/M02 A2983 1060 44 700 210/13G21 RMK AO2 T00941022
04850KAOH AOH20160207153511502/07/16 15:35:31  5-MIN KAOH 072035Z AUTO 20015G22KT 10SM CLR 10/M02 A2982 1070 42 800 210/15G22 RMK AO2 T01001022
04850KAOH AOH20160207154011502/07/16 15:40:31  5-MIN KAOH 072040Z AUTO 20012G22KT 10SM CLR 10/M02 A2982 1070 44 800 210/12G22 RMK AO2 T01001017
04850KAOH AOH20160207154511502/07/16 15:45:31  5-MIN KAOH 072045Z AUTO 20019G23KT 10SM CLR 10/M02 A2982 1070 42 800 210/19G23 RMK AO2 T01001022
04850KAOH AOH20160207155012802/07/16 15:50:31  5-MIN KAOH 072050Z AUTO 19017G24KT 10SM CLR 10/M02 A2982 1070 42 800 200/17G24 RMK AO2 SLP102 T01001022 58027
04850KAOH AOH20160207155511502/07/16 15:55:31  5-MIN KAOH 072055Z AUTO 20015G22KT 10SM CLR 10/M02 A2982 1070 42 800 200/15G22 RMK AO2 T01001022
04850KAOH AOH20160207160011502/07/16 16:00:31  5-MIN KAOH 072100Z AUTO 20016G22KT 10SM CLR 10/M02 A2982 1070 42 800 210/16G22 RMK AO2 T01001022
04850KAOH AOH20160207160511502/07/16 16:05:31  5-MIN KAOH 072105Z AUTO 21016G24KT 10SM CLR 11/M02 A2982 1070 40 800 220/16G24 RMK AO2 T01061022
04850KAOH AOH20160207161011502/07/16 16:10:31  5-MIN KAOH 072110Z AUTO 20018G24KT 10SM CLR 10/M02 A2981 1080 42 800 210/18G24 RMK AO2 T01001022
04850KAOH AOH20160207161511502/07/16 16:15:31  5-MIN KAOH 072115Z AUTO 20016G24KT 10SM CLR 10/M02 A2981 1080 42 800 210/16G24 RMK AO2 T01001022
04850KAOH AOH20160207162011502/07/16 16:20:31  5-MIN KAOH 072120Z AUTO 20018G22KT 10SM CLR 10/M02 A2981 1080 42 800 210/18G22 RMK AO2 T01001022
04850KAOH AOH20160207162511502/07/16 16:25:31  5-MIN KAOH 072125Z AUTO 21012G22KT 10SM CLR 10/M02 A2981 1080 42 800 220/12G22 RMK AO2 T01001022
04850KAOH AOH20160207163011502/07/16 16:30:31  5-MIN KAOH 072130Z AUTO 21012G22KT 10SM CLR 10/M02 A2981 1080 42 800 220/12G22 RMK AO2 T01001022
04850KAOH AOH20160207163511502/07/16 16:35:31  5-MIN KAOH 072135Z AUTO 21014G20KT 10SM CLR 10/M02 A2982 1070 44 800 220/14G20 RMK AO2 T01001017
04850KAOH AOH20160207164011502/07/16 16:40:31  5-MIN KAOH 072140Z AUTO 20013G20KT 10SM CLR 10/M02 A2981 1080 42 800 210/13G20 RMK AO2 T01001022
04850KAOH AOH20160207164510902/07/16 16:45:31  5-MIN KAOH 072145Z AUTO 20012KT 10SM CLR 10/M02 A2981 1080 44 800 210/12 RMK AO2 T01001017
04850KAOH AOH20160207165011602/07/16 16:50:31  5-MIN KAOH 072150Z AUTO 20014KT 10SM CLR 10/M02 A2981 1080 42 800 210/14 RMK AO2 SLP101 T01001022
04850KAOH AOH20160207165510902/07/16 16:55:31  5-MIN KAOH 072155Z AUTO 20013KT 10SM CLR 09/M02 A2981 1080 44 700 210/13 RMK AO2 T00941022
04850KAOH AOH20160207170011502/07/16 17:00:31  5-MIN KAOH 072200Z AUTO 21011G20KT 10SM CLR 09/M02 A2981 1080 44 700 220/11G20 RMK AO2 T00941022
04850KAOH AOH20160207170511502/07/16 17:05:31  5-MIN KAOH 072205Z AUTO 20013G20KT 10SM CLR 09/M02 A2981 1080 44 700 210/13G20 RMK AO2 T00941022
04850KAOH AOH20160207171011802/07/16 17:10:31  5-MIN KAOH 072210Z AUTO 20014G19KT 10SM FEW100 09/M02 A2981 1080 44 700 210/14G19 RMK AO2 T00941022
04850KAOH AOH20160207171511202/07/16 17:15:31  5-MIN KAOH 072215Z AUTO 20012KT 10SM SCT100 09/M02 A2981 1080 44 700 210/12 RMK AO2 T00941022
04850KAOH AOH20160207172011802/07/16 17:20:31  5-MIN KAOH 072220Z AUTO 20012G20KT 10SM BKN100 09/M02 A2981 1080 44 700 210/12G20 RMK AO2 T00941022
04850KAOH AOH20160207172511202/07/16 17:25:31  5-MIN KAOH 072225Z AUTO 20012KT 10SM BKN100 09/M03 A2981 1080 43 600 210/12 RMK AO2 T00891028
04850KAOH AOH20160207173011202/07/16 17:30:31  5-MIN KAOH 072230Z AUTO 20010KT 10SM BKN100 09/M03 A2981 1080 43 600 200/10 RMK AO2 T00891028
04850KAOH AOH20160207173511202/07/16 17:35:31  5-MIN KAOH 072235Z AUTO 20009KT 10SM OVC100 09/M02 A2981 1080 45 600 210/09 RMK AO2 T00891022
04850KAOH AOH20160207174011202/07/16 17:40:31  5-MIN KAOH 072240Z AUTO 20011KT 10SM OVC110 08/M02 A2981 1080 47 600 210/11 RMK AO2 T00831022
04850KAOH AOH20160207174511202/07/16 17:45:31  5-MIN KAOH 072245Z AUTO 20011KT 10SM OVC110 08/M02 A2981 1080 47 600 200/11 RMK AO2 T00831022
04850KAOH AOH20160207175011902/07/16 17:50:31  5-MIN KAOH 072250Z AUTO 20009KT 10SM OVC110 09/M02 A2981 1080 45 600 210/09 RMK AO2 SLP100 T00891022
04850KAOH AOH20160207175511202/07/16 17:55:31  5-MIN KAOH 072255Z AUTO 20010KT 10SM OVC110 08/M02 A2981 1080 47 600 210/10 RMK AO2 T00831022
04850KAOH AOH20160207180011202/07/16 18:00:31  5-MIN KAOH 072300Z AUTO 20008KT 10SM OVC110 08/M02 A2981 1080 47 600 210/08 RMK AO2 T00831022
04850KAOH AOH20160207180511202/07/16 18:05:31  5-MIN KAOH 072305Z AUTO 20010KT 10SM OVC110 08/M02 A2981 1080 49 600 200/10 RMK AO2 T00831017
04850KAOH AOH20160207181011202/07/16 18:10:31  5-MIN KAOH 072310Z AUTO 20010KT 10SM OVC100 08/M02 A2981 1080 49 600 200/10 RMK AO2 T00831017
04850KAOH AOH20160207181511202/07/16 18:15:31  5-MIN KAOH 072315Z AUTO 19009KT 10SM OVC100 08/M02 A2980 1090 49 600 190/09 RMK AO2 T00831017
04850KAOH AOH20160207182011202/07/16 18:20:31  5-MIN KAOH 072320Z AUTO 20009KT 10SM OVC100 08/M02 A2981 1080 49 600 210/09 RMK AO2 T00831017
04850KAOH AOH20160207182511202/07/16 18:25:31  5-MIN KAOH 072325Z AUTO 20009KT 10SM OVC100 08/M02 A2981 1080 51 500 200/09 RMK AO2 T00781017
04850KAOH AOH20160207183011202/07/16 18:30:31  5-MIN KAOH 072330Z AUTO 20009KT 10SM OVC100 08/M02 A2981 1080 51 500 200/09 RMK AO2 T00781017
04850KAOH AOH20160207183511202/07/16 18:35:31  5-MIN KAOH 072335Z AUTO 20008KT 10SM OVC100 08/M02 A2981 1080 51 500 200/08 RMK AO2 T00781017
04850KAOH AOH20160207184011202/07/16 18:40:31  5-MIN KAOH 072340Z AUTO 20008KT 10SM OVC100 08/M02 A2981 1080 51 500 200/08 RMK AO2 T00781017
04850KAOH AOH20160207184511202/07/16 18:45:31  5-MIN KAOH 072345Z AUTO 20008KT 10SM OVC110 08/M02 A2981 1080 51 500 200/08 RMK AO2 T00781017
04850KAOH AOH20160207185013702/07/16 18:50:31  5-MIN KAOH 072350Z AUTO 20008KT 10SM OVC110 08/M02 A2981 1080 51 500 200/08 RMK AO2 SLP099 T00781017 10106 20078 56033
04850KAOH AOH20160207185511202/07/16 18:55:31  5-MIN KAOH 072355Z AUTO 19008KT 10SM OVC110 08/M02 A2981 1080 51 500 200/08 RMK AO2 T00781017
04850KAOH AOH20160207190011202/07/16 19:00:31  5-MIN KAOH 080000Z AUTO 20008KT 10SM OVC120 07/M02 A2981 1080 53 400 200/08 RMK AO2 T00721017
04850KAOH AOH20160207190511202/07/16 19:05:31  5-MIN KAOH 080005Z AUTO 19008KT 10SM OVC120 08/M02 A2981 1080 51 500 190/08 RMK AO2 T00781017
04850KAOH AOH20160207191011202/07/16 19:10:31  5-MIN KAOH 080010Z AUTO 18007KT 10SM OVC120 07/M02 A2981 1080 53 400 190/07 RMK AO2 T00721017
04850KAOH AOH20160207191511202/07/16 19:15:31  5-MIN KAOH 080015Z AUTO 18008KT 10SM OVC120 07/M02 A2981 1080 53 400 190/08 RMK AO2 T00721017
04850KAOH AOH20160207192011202/07/16 19:20:31  5-MIN KAOH 080020Z AUTO 19008KT 10SM OVC120 07/M02 A2981 1080 53 400 190/08 RMK AO2 T00721017
04850KAOH AOH20160207192511202/07/16 19:25:31  5-MIN KAOH 080025Z AUTO 19008KT 10SM OVC120 07/M02 A2980 1090 53 500 190/08 RMK AO2 T00721017
04850KAOH AOH20160207193011202/07/16 19:30:31  5-MIN KAOH 080030Z AUTO 19008KT 10SM OVC110 07/M02 A2980 1090 53 500 190/08 RMK AO2 T00721017
04850KAOH AOH20160207193511202/07/16 19:35:31  5-MIN KAOH 080035Z AUTO 20009KT 10SM OVC110 07/M02 A2980 1090 53 500 200/09 RMK AO2 T00721017
04850KAOH AOH20160207194011202/07/16 19:40:31  5-MIN KAOH 080040Z AUTO 19009KT 10SM OVC110 07/M02 A2980 1090 51 500 200/09 RMK AO2 T00721022
04850KAOH AOH20160207194511902/07/16 19:45:31  5-MIN KAOH 080045Z AUTO 19008KT 10SM FEW070 OVC110 07/M02 A2980 1090 51 500 200/08 RMK AO2 T00721022
04850KAOH AOH20160207195012602/07/16 19:50:31  5-MIN KAOH 080050Z AUTO 19008KT 10SM SCT070 OVC110 07/M02 A2979 1090 51 500 190/08 RMK AO2 SLP095 T00721022
04850KAOH AOH20160207195511902/07/16 19:55:31  5-MIN KAOH 080055Z AUTO 18007KT 10SM BKN070 OVC110 07/M02 A2979 1100 55 400 190/07 RMK AO2 T00671017
04850KAOH AOH20160207200011902/07/16 20:00:31  5-MIN KAOH 080100Z AUTO 19008KT 10SM BKN070 OVC110 07/M02 A2979 1100 53 400 200/08 RMK AO2 T00671022
04850KAOH AOH20160207200511902/07/16 20:05:31  5-MIN KAOH 080105Z AUTO 19008KT 10SM BKN070 OVC110 07/M02 A2979 1100 51 500 190/08 RMK AO2 T00721022
04850KAOH AOH20160207201011202/07/16 20:10:31  5-MIN KAOH 080110Z AUTO 19008KT 10SM OVC070 07/M02 A2979 1100 51 500 190/08 RMK AO2 T00721022
04850KAOH AOH20160207201511202/07/16 20:15:31  5-MIN KAOH 080115Z AUTO 19009KT 10SM OVC070 07/M02 A2978 1100 53 400 200/09 RMK AO2 T00671022
04850KAOH AOH20160207202011202/07/16 20:20:31  5-MIN KAOH 080120Z AUTO 18008KT 10SM OVC070 07/M02 A2978 1110 53 400 190/08 RMK AO2 T00671022
04850KAOH AOH20160207202511202/07/16 20:25:31  5-MIN KAOH 080125Z AUTO 19010KT 10SM OVC070 07/M03 A2978 1110 51 400 190/10 RMK AO2 T00671028
04850KAOH AOH20160207203011202/07/16 20:30:31  5-MIN KAOH 080130Z AUTO 19009KT 10SM OVC065 07/M03 A2978 1110 51 400 190/09 RMK AO2 T00671028
04850KAOH AOH20160207203511202/07/16 20:35:31  5-MIN KAOH 080135Z AUTO 19009KT 10SM OVC065 07/M03 A2978 1110 51 400 200/09 RMK AO2 T00671028
04850KAOH AOH20160207204011202/07/16 20:40:31  5-MIN KAOH 080140Z AUTO 19009KT 10SM OVC065 07/M03 A2978 1110 49 500 200/09 RMK AO2 T00721028
04850KAOH AOH20160207204511202/07/16 20:45:31  5-MIN KAOH 080145Z AUTO 19009KT 10SM OVC065 07/M03 A2977 1110 51 400 200/09 RMK AO2 T00671028
04850KAOH AOH20160207205011902/07/16 20:50:31  5-MIN KAOH 080150Z AUTO 19011KT 10SM OVC060 07/M03 A2977 1110 49 500 200/11 RMK AO2 SLP087 T00721028
04850KAOH AOH20160207205511202/07/16 20:55:31  5-MIN KAOH 080155Z AUTO 19011KT 10SM OVC060 07/M03 A2977 1110 49 500 200/11 RMK AO2 T00721028
04850KAOH AOH20160207210011202/07/16 21:00:31  5-MIN KAOH 080200Z AUTO 21009KT 10SM OVC060 07/M03 A2977 1110 51 400 220/09 RMK AO2 T00671028
04850KAOH AOH20160207210511202/07/16 21:05:31  5-MIN KAOH 080205Z AUTO 20008KT 10SM OVC060 07/M03 A2977 1120 51 400 210/08 RMK AO2 T00671028
04850KAOH AOH20160207211011202/07/16 21:10:31  5-MIN KAOH 080210Z AUTO 20008KT 10SM OVC060 07/M03 A2977 1120 51 400 200/08 RMK AO2 T00671028
04850KAOH AOH20160207211511202/07/16 21:15:31  5-MIN KAOH 080215Z AUTO 19009KT 10SM OVC060 07/M03 A2977 1120 49 500 200/09 RMK AO2 T00721028
04850KAOH AOH20160207212011202/07/16 21:20:31  5-MIN KAOH 080220Z AUTO 20009KT 10SM OVC060 07/M03 A2977 1120 49 500 200/09 RMK AO2 T00721028
04850KAOH AOH20160207212511202/07/16 21:25:31  5-MIN KAOH 080225Z AUTO 19009KT 10SM OVC055 07/M03 A2977 1120 49 500 200/09 RMK AO2 T00721028
04850KAOH AOH20160207213011202/07/16 21:30:31  5-MIN KAOH 080230Z AUTO 19009KT 10SM OVC055 07/M03 A2976 1120 49 500 200/09 RMK AO2 T00721028
04850KAOH AOH20160207213511202/07/16 21:35:31  5-MIN KAOH 080235Z AUTO 19010KT 10SM OVC055 07/M03 A2976 1130 49 500 200/10 RMK AO2 T00721028
04850KAOH AOH20160207214011202/07/16 21:40:31  5-MIN KAOH 080240Z AUTO 19011KT 10SM OVC055 07/M03 A2976 1130 49 500 200/11 RMK AO2 T00721028
04850KAOH AOH20160207214511202/07/16 21:45:31  5-MIN KAOH 080245Z AUTO 20011KT 10SM OVC055 07/M02 A2976 1130 51 500 200/11 RMK AO2 T00721022
04850KAOH AOH20160207215012502/07/16 21:50:31  5-MIN KAOH 080250Z AUTO 19011KT 10SM OVC055 07/M02 A2975 1130 51 500 200/11 RMK AO2 SLP080 T00721022 58004
04850KAOH AOH20160207215511202/07/16 21:55:31  5-MIN KAOH 080255Z AUTO 20011KT 10SM OVC050 07/M02 A2975 1130 51 500 210/11 RMK AO2 T00721022
04850KAOH AOH20160207220011202/07/16 22:00:31  5-MIN KAOH 080300Z AUTO 21010KT 10SM OVC050 07/M02 A2975 1130 51 500 220/10 RMK AO2 T00721022
04850KAOH AOH20160207220511802/07/16 22:05:31  5-MIN KAOH 080305Z AUTO 22010G17KT 10SM OVC050 07/M02 A2976 1130 53 500 220/10G17 RMK AO2 T00721017
04850KAOH AOH20160207221011802/07/16 22:10:31  5-MIN KAOH 080310Z AUTO 22010G17KT 10SM OVC050 07/M02 A2976 1130 53 500 220/10G17 RMK AO2 T00721017
04850KAOH AOH20160207221511202/07/16 22:15:31  5-MIN KAOH 080315Z AUTO 22010KT 10SM OVC050 07/M02 A2976 1130 53 500 230/10 RMK AO2 T00721017
04850KAOH AOH20160207222011202/07/16 22:20:31  5-MIN KAOH 080320Z AUTO 23009KT 10SM OVC050 07/M02 A2976 1130 55 400 230/09 RMK AO2 T00671017
04850KAOH AOH20160207222511202/07/16 22:25:31  5-MIN KAOH 080325Z AUTO 23009KT 10SM OVC050 07/M01 A2976 1130 57 400 240/09 RMK AO2 T00671011
04850KAOH AOH20160207223011202/07/16 22:30:31  5-MIN KAOH 080330Z AUTO 23009KT 10SM OVC055 07/M01 A2975 1130 57 400 230/09 RMK AO2 T00671011
04850KAOH AOH20160207223511202/07/16 22:35:31  5-MIN KAOH 080335Z AUTO 23007KT 10SM OVC055 07/M01 A2975 1130 57 400 230/07 RMK AO2 T00671011
04850KAOH AOH20160207224011202/07/16 22:40:31  5-MIN KAOH 080340Z AUTO 23009KT 10SM OVC055 07/M01 A2975 1130 57 400 240/09 RMK AO2 T00671011
04850KAOH AOH20160207224511202/07/16 22:45:31  5-MIN KAOH 080345Z AUTO 23009KT 10SM OVC055 07/M01 A2975 1140 57 400 240/09 RMK AO2 T00671011
04850KAOH AOH20160207225011902/07/16 22:50:31  5-MIN KAOH 080350Z AUTO 24010KT 10SM OVC055 07/M01 A2975 1140 57 400 240/10 RMK AO2 SLP079 T00671011
04850KAOH AOH20160207225511202/07/16 22:55:31  5-MIN KAOH 080355Z AUTO 23009KT 10SM OVC055 07/M01 A2975 1140 60 400 240/09 RMK AO2 T00671006
04850KAOH AOH20160207230011202/07/16 23:00:31  5-MIN KAOH 080400Z AUTO 23008KT 10SM OVC055 07/M01 A2975 1140 60 400 230/08 RMK AO2 T00671006
04850KAOH AOH20160207230511202/07/16 23:05:31  5-MIN KAOH 080405Z AUTO 24008KT 10SM OVC060 06/M01 A2974 1140 62 400 240/08 RMK AO2 T00611006
04850KAOH AOH20160207231011202/07/16 23:10:31  5-MIN KAOH 080410Z AUTO 24008KT 10SM OVC055 06/M01 A2975 1140 62 400 250/08 RMK AO2 T00611006
04850KAOH AOH20160207231511202/07/16 23:15:31  5-MIN KAOH 080415Z AUTO 25007KT 10SM OVC055 06/M01 A2974 1140 62 400 260/07 RMK AO2 T00611006
04850KAOH AOH20160207232011102/07/16 23:20:31  5-MIN KAOH 080420Z AUTO 25007KT 10SM OVC060 06/00 A2974 1140 67 300 260/07 RMK AO2 T00560000
04850KAOH AOH20160207232511102/07/16 23:25:31  5-MIN KAOH 080425Z AUTO 26006KT 10SM OVC060 06/00 A2974 1140 67 300 260/06 RMK AO2 T00560000
04850KAOH AOH20160207233011102/07/16 23:30:31  5-MIN KAOH 080430Z AUTO 26005KT 10SM OVC060 05/01 A2974 1140 73 300 270/05 RMK AO2 T00500006
04850KAOH AOH20160207233511102/07/16 23:35:31  5-MIN KAOH 080435Z AUTO 26004KT 10SM OVC060 05/01 A2974 1150 73 300 270/04 RMK AO2 T00500006
04850KAOH AOH20160207234011102/07/16 23:40:31  5-MIN KAOH 080440Z AUTO 26004KT 10SM OVC060 04/01 A2974 1150 76 200 270/04 RMK AO2 T00440006
04850KAOH AOH20160207234511102/07/16 23:45:31  5-MIN KAOH 080445Z AUTO 27004KT 10SM OVC065 05/00 A2974 1150 70 300 280/04 RMK AO2 T00500000
04850KAOH AOH20160207235012802/07/16 23:50:31  5-MIN KAOH 080450Z AUTO 28005KT 10SM OVC065 05/01 A2973 1150 73 300 290/05 RMK AO2 SLP073 T00500006 401060000
04850KAOH AOH20160207235511102/07/16 23:55:31  5-MIN KAOH 080455Z AUTO 29006KT 10SM OVC065 05/01 A2973 1150 73 300 290/06 RMK AO2 T00500006
04850KAOH AOH20160208000011102/08/16 00:00:31  5-MIN KAOH 080500Z AUTO 28005KT 10SM OVC065 04/01 A2973 1150 79 200 290/05 RMK AO2 T00440011
04850KAOH AOH20160208000511102/08/16 00:05:31  5-MIN KAOH 080505Z AUTO 27004KT 10SM OVC065 04/01 A2973 1150 79 200 280/04 RMK AO2 T00440011
04850KAOH AOH20160208001011102/08/16 00:10:31  5-MIN KAOH 080510Z AUTO 27005KT 10SM OVC065 04/01 A2973 1160 76 200 280/05 RMK AO2 T00440006
04850KAOH AOH20160208001511802/08/16 00:15:31  5-MIN KAOH 080515Z AUTO 27006KT 10SM BKN055 OVC070 04/01 A2972 1160 76 200 280/06 RMK AO2 T00440006
04850KAOH AOH20160208002011802/08/16 00:20:31  5-MIN KAOH 080520Z AUTO 27006KT 10SM SCT055 OVC070 04/01 A2972 1160 82 100 280/06 RMK AO2 T00390011
04850KAOH AOH20160208002511802/08/16 00:25:31  5-MIN KAOH 080525Z AUTO 27007KT 10SM SCT055 OVC070 04/01 A2972 1160 82 100 280/07 RMK AO2 T00390011
04850KAOH AOH20160208003011802/08/16 00:30:31  5-MIN KAOH 080530Z AUTO 27007KT 10SM FEW055 OVC070 04/01 A2972 1160 82 100 280/07 RMK AO2 T00390011
04850KAOH AOH20160208003511802/08/16 00:35:31  5-MIN KAOH 080535Z AUTO 27009KT 10SM FEW055 OVC075 04/01 A2972 1160 76 200 280/09 RMK AO2 T00440006
04850KAOH AOH20160208004011802/08/16 00:40:31  5-MIN KAOH 080540Z AUTO 27008KT 10SM SCT055 OVC075 04/01 A2972 1160 76 200 280/08 RMK AO2 T00440006
04850KAOH AOH20160208004511802/08/16 00:45:31  5-MIN KAOH 080545Z AUTO 28007KT 10SM SCT055 OVC075 04/01 A2972 1170 76 200 280/07 RMK AO2 T00440006
04850KAOH AOH20160208005014302/08/16 00:50:31  5-MIN KAOH 080550Z AUTO 27007KT 10SM BKN055 OVC075 04/01 A2971 1170 79 100 280/07 RMK AO2 SLP066 T00390006 10078 20039 58017
04850KAOH AOH20160208005511802/08/16 00:55:31  5-MIN KAOH 080555Z AUTO 27006KT 10SM BKN055 OVC075 04/01 A2971 1170 76 200 280/06 RMK AO2 T00440006
04850KAOH AOH20160208010011802/08/16 01:00:31  5-MIN KAOH 080600Z AUTO 27007KT 10SM BKN055 OVC075 04/01 A2972 1170 79 100 270/07 RMK AO2 T00390006
04850KAOH AOH20160208010511102/08/16 01:05:31  5-MIN KAOH 080605Z AUTO 27007KT 10SM OVC055 04/01 A2971 1170 76 200 270/07 RMK AO2 T00440006
04850KAOH AOH20160208011011802/08/16 01:10:31  5-MIN KAOH 080610Z AUTO 27006KT 10SM FEW043 OVC055 04/01 A2971 1170 79 100 270/06 RMK AO2 T00390006
04850KAOH AOH20160208011511802/08/16 01:15:31  5-MIN KAOH 080615Z AUTO 25005KT 10SM SCT043 OVC055 04/01 A2971 1170 79 100 260/05 RMK AO2 T00390006
04850KAOH AOH20160208012011802/08/16 01:20:31  5-MIN KAOH 080620Z AUTO 24004KT 10SM BKN043 OVC055 04/01 A2971 1170 79 200 250/04 RMK AO2 T00390006
04850KAOH AOH20160208012511802/08/16 01:25:31  5-MIN KAOH 080625Z AUTO 24005KT 10SM BKN045 OVC055 04/01 A2971 1180 79 200 250/05 RMK AO2 T00390006
04850KAOH AOH20160208013011802/08/16 01:30:31  5-MIN KAOH 080630Z AUTO 25006KT 10SM BKN045 OVC055 04/01 A2970 1180 79 200 260/06 RMK AO2 T00390006
04850KAOH AOH20160208013511802/08/16 01:35:31  5-MIN KAOH 080635Z AUTO 25006KT 10SM BKN045 OVC055 04/01 A2970 1180 79 200 260/06 RMK AO2 T00390006
04850KAOH AOH20160208014011302/08/16 01:40:31  5-MIN KAOH 080640Z AUTO 25006KT 10SM OVC045 04/01 A2970 1180 79 200 260/06 RMK AO2 T00390006 $
04850KAOH AOH20160208014510802/08/16 01:45:31  5-MIN KAOH 080645Z AUTO 25006KT OVC045 04/01 A2970 1180 79 200 260/06 RMK AO2 T00390006 $
04850KAOH AOH20160208015011502/08/16 01:50:31  5-MIN KAOH 080650Z AUTO 26006KT OVC045 04/01 A2970 1190 79 200 260/06 RMK AO2 SLP059 T00390006 $
04850KAOH AOH20160208015510802/08/16 01:55:31  5-MIN KAOH 080655Z AUTO 25006KT OVC045 03/01 A2969 1190 82 100 260/06 RMK AO2 T00330006 $
04850KAOH AOH20160208020010802/08/16 02:00:31  5-MIN KAOH 080700Z AUTO 26006KT OVC044 03/01 A2969 1190 82 100 260/06 RMK AO2 T00330006 $
04850KAOH AOH20160208020510802/08/16 02:05:31  5-MIN KAOH 080705Z AUTO 27006KT OVC044 03/01 A2969 1190 82 100 270/06 RMK AO2 T00330006 $
04850KAOH AOH20160208021011502/08/16 02:10:31  5-MIN KAOH 080710Z AUTO 27006KT BKN044 OVC060 03/01 A2969 1190 82 100 280/06 RMK AO2 T00330006 $
04850KAOH AOH20160208021513102/08/16 02:15:31  5-MIN KAOH 080715Z AUTO 27007KT -RA BKN046 OVC060 03/01 A2969 1190 82 100 280/07 RMK AO2 RAB11 P0000 T00330006 $
04850KAOH AOH20160208022013102/08/16 02:20:31  5-MIN KAOH 080720Z AUTO 27006KT -RA BKN046 OVC065 03/01 A2969 1200 82 100 270/06 RMK AO2 RAB11 P0000 T00330006 $
04850KAOH AOH20160208022513102/08/16 02:25:31  5-MIN KAOH 080725Z AUTO 27007KT -RA BKN046 OVC060 03/01 A2968 1200 82 100 270/07 RMK AO2 RAB11 P0000 T00330006 $
04850KAOH AOH20160208023013002/08/16 02:30:31  5-MIN KAOH 080730Z AUTO 27006KT SCT048 OVC060 03/01 A2968 1200 82 100 270/06 RMK AO2 RAB11E27 P0000 T00330006 $
04850KAOH AOH20160208023513002/08/16 02:35:31  5-MIN KAOH 080735Z AUTO 26006KT SCT048 OVC065 03/01 A2968 1200 82 100 270/06 RMK AO2 RAB11E27 P0000 T00330006 $
04850KAOH AOH20160208024012802/08/16 02:40:31  5-MIN KAOH 080740Z AUTO 26006KT FEW048 OVC065 03/01 A2968 1200 85 0 270/06 RMK AO2 RAB11E27 P0000 T00280006 $
04850KAOH AOH20160208024513002/08/16 02:45:31  5-MIN KAOH 080745Z AUTO 26006KT FEW048 OVC070 03/01 A2968 1200 85 100 270/06 RMK AO2 RAB11E27 P0000 T00280006 $
04850KAOH AOH20160208025013702/08/16 02:50:31  5-MIN KAOH 080750Z AUTO 26006KT FEW050 OVC070 03/01 A2968 1200 85 100 270/06 RMK AO2 RAB11E27 SLP053 P0000 T00280006 $
04850KAOH AOH20160208025510602/08/16 02:55:31  5-MIN KAOH 080755Z AUTO 26005KT OVC070 02/01 A2968 1200 89 0 270/05 RMK AO2 T00220006 $
04850KAOH AOH20160208030010602/08/16 03:00:31  5-MIN KAOH 080800Z AUTO 26006KT OVC070 02/01 A2968 1200 89 0 260/06 RMK AO2 T00220006 $
04850KAOH AOH20160208030510602/08/16 03:05:31  5-MIN KAOH 080805Z AUTO 25004KT OVC070 02/01 A2968 1200 89 0 260/04 RMK AO2 T00220006 $
04850KAOH AOH20160208031010602/08/16 03:10:31  5-MIN KAOH 080810Z AUTO 26004KT OVC070 02/01 A2967 1210 89 0 260/04 RMK AO2 T00220006 $
04850KAOH AOH20160208031510802/08/16 03:15:31  5-MIN KAOH 080815Z AUTO 25005KT OVC070 03/01 A2967 1210 85 100 260/05 RMK AO2 T00280006 $
04850KAOH AOH20160208032011502/08/16 03:20:31  5-MIN KAOH 080820Z AUTO 25005KT BKN065 OVC075 03/01 A2967 1210 85 100 260/05 RMK AO2 T00280006 $
04850KAOH AOH20160208032511502/08/16 03:25:31  5-MIN KAOH 080825Z AUTO 25005KT BKN060 OVC070 03/01 A2967 1210 85 100 260/05 RMK AO2 T00280006 $
04850KAOH AOH20160208033011502/08/16 03:30:31  5-MIN KAOH 080830Z AUTO 25007KT BKN047 OVC065 03/01 A2967 1210 85 100 250/07 RMK AO2 T00280006 $
04850KAOH AOH20160208033513102/08/16 03:35:31  5-MIN KAOH 080835Z AUTO 24005KT -RA BKN045 OVC065 03/01 A2967 1210 85 100 250/05 RMK AO2 RAB31 P0000 T00280006 $
04850KAOH AOH20160208034013002/08/16 03:40:31  5-MIN KAOH 080840Z AUTO 23005KT BKN045 OVC065 03/01 A2966 1220 82 100 240/05 RMK AO2 RAB31E40 P0000 T00330006 $
04850KAOH AOH20160208034512302/08/16 03:45:31  5-MIN KAOH 080845Z AUTO 22005KT OVC047 03/01 A2966 1220 85 100 230/05 RMK AO2 RAB31E40 P0000 T00280006 $
04850KAOH AOH20160208035014202/08/16 03:50:31  5-MIN KAOH 080850Z AUTO 21003KT OVC047 03/00 A2965 1220 82 100 220/03 RMK AO2 RAB31E40 SLP046 P0000 60000 T00280000 58013 $
04850KAOH AOH20160208035511502/08/16 03:55:31  5-MIN KAOH 080855Z AUTO 21003KT BKN049 OVC075 03/00 A2965 1230 82 100 220/03 RMK AO2 T00280000 $
04850KAOH AOH20160208040011502/08/16 04:00:31  5-MIN KAOH 080900Z AUTO 22004KT BKN049 OVC080 03/00 A2965 1220 82 100 230/04 RMK AO2 T00280000 $
04850KAOH AOH20160208040511502/08/16 04:05:31  5-MIN KAOH 080905Z AUTO 23004KT SCT049 OVC080 03/00 A2965 1230 82 100 240/04 RMK AO2 T00280000 $
04850KAOH AOH20160208041012002/08/16 04:10:31  5-MIN KAOH 080910Z AUTO 23004KT 10SM SCT055 OVC080 03/00 A2965 1230 82 100 230/04 RMK AO2 T00280000 $
04850KAOH AOH20160208041512002/08/16 04:15:31  5-MIN KAOH 080915Z AUTO 22004KT 10SM FEW060 OVC085 03/00 A2965 1230 82 100 230/04 RMK AO2 T00280000 $
04850KAOH AOH20160208042011502/08/16 04:20:31  5-MIN KAOH 080920Z AUTO 21003KT FEW065 OVC080 03/00 A2965 1230 82 100 220/03 RMK AO2 T00280000 $
04850KAOH AOH20160208042511502/08/16 04:25:31  5-MIN KAOH 080925Z AUTO 20004KT FEW060 OVC080 03/00 A2964 1230 82 100 210/04 RMK AO2 T00280000 $
04850KAOH AOH20160208043011502/08/16 04:30:31  5-MIN KAOH 080930Z AUTO 21003KT SCT070 OVC085 03/00 A2965 1230 82 100 210/03 RMK AO2 T00280000 $
04850KAOH AOH20160208043511502/08/16 04:35:31  5-MIN KAOH 080935Z AUTO 21004KT FEW065 OVC090 03/00 A2964 1230 82 100 220/04 RMK AO2 T00280000 $
04850KAOH AOH20160208044011502/08/16 04:40:31  5-MIN KAOH 080940Z AUTO 00000KT FEW060 OVC090 03/00 A2964 1240 82 100 000/00 RMK AO2 T00280000 $
04850KAOH AOH20160208044511502/08/16 04:45:31  5-MIN KAOH 080945Z AUTO 21003KT FEW065 OVC090 03/00 A2964 1240 82 100 220/03 RMK AO2 T00280000 $
04850KAOH AOH20160208045012502/08/16 04:50:31  5-MIN KAOH 080950Z AUTO 22003KT 10SM FEW065 OVC095 02/00 A2964 1240 85 0 220/03 RMK AO2 SLP041 T00220000 $
04850KAOH AOH20160208045511102/08/16 04:55:31  5-MIN KAOH 080955Z AUTO 23003KT 10SM OVC095 02/00 A2964 1240 85 0 240/03 RMK AO2 T00220000 $
04850KAOH AOH20160208050011102/08/16 05:00:31  5-MIN KAOH 081000Z AUTO 24003KT 10SM OVC090 02/00 A2964 1240 85 0 240/03 RMK AO2 T00220000 $
04850KAOH AOH20160208050510602/08/16 05:05:31  5-MIN KAOH 081005Z AUTO 24004KT OVC090 02/00 A2964 1240 85 0 240/04 RMK AO2 T00220000 $
04850KAOH AOH20160208051010702/08/16 05:10:31  5-MIN KAOH 081010Z AUTO 23004KT OVC085 02/M01 A2963 1240 85 0 230/04 RMK AO2 T00171006 $
04850KAOH AOH20160208051510702/08/16 05:15:31  5-MIN KAOH 081015Z AUTO 22003KT BKN085 02/M01 A2963 1240 85 0 230/03 RMK AO2 T00171006 $
04850KAOH AOH20160208052011402/08/16 05:20:31  5-MIN KAOH 081020Z AUTO 22004KT BKN080 BKN110 02/M01 A2964 1240 85 0 230/04 RMK AO2 T00171006 $
04850KAOH AOH20160208052511702/08/16 05:25:31  5-MIN KAOH 081025Z AUTO 22005KT SCT080 BKN110 01/M01 A2964 1240 89 -100 230/05 RMK AO2 T00111006 $
04850KAOH AOH20160208053011402/08/16 05:30:31  5-MIN KAOH 081030Z AUTO 24005KT SCT080 SCT110 02/M01 A2963 1240 85 0 240/05 RMK AO2 T00171006 $
04850KAOH AOH20160208053511402/08/16 05:35:31  5-MIN KAOH 081035Z AUTO 23005KT FEW080 SCT110 02/M01 A2963 1240 85 0 240/05 RMK AO2 T00171006 $
04850KAOH AOH20160208054010602/08/16 05:40:31  5-MIN KAOH 081040Z AUTO 24006KT BKN110 02/00 A2963 1240 89 0 240/06 RMK AO2 T00170000 $
04850KAOH AOH20160208054510602/08/16 05:45:31  5-MIN KAOH 081045Z AUTO 24006KT BKN110 02/00 A2964 1240 85 0 240/06 RMK AO2 T00220000 $
04850KAOH AOH20160208055011302/08/16 05:50:31  5-MIN KAOH 081050Z AUTO 23006KT BKN110 02/00 A2963 1240 85 0 240/06 RMK AO2 SLP039 T00220000 $
04850KAOH AOH20160208055510602/08/16 05:55:31  5-MIN KAOH 081055Z AUTO 23005KT BKN110 02/00 A2963 1240 85 0 240/05 RMK AO2 T00220000 $
04850KAOH AOH20160208060010602/08/16 06:00:31  5-MIN KAOH 081100Z AUTO 25006KT OVC100 02/00 A2964 1240 89 0 250/06 RMK AO2 T00170000 $
04850KAOH AOH20160208060511302/08/16 06:05:31  5-MIN KAOH 081105Z AUTO 25006KT BKN090 OVC110 02/00 A2963 1240 89 0 260/06 RMK AO2 T00170000 $
04850KAOH AOH20160208061011302/08/16 06:10:31  5-MIN KAOH 081110Z AUTO 25006KT BKN085 OVC110 02/00 A2964 1240 89 0 260/06 RMK AO2 T00170000 $
04850KAOH AOH20160208061511302/08/16 06:15:31  5-MIN KAOH 081115Z AUTO 25006KT BKN085 OVC110 02/00 A2964 1240 89 0 260/06 RMK AO2 T00170000 $
04850KAOH AOH20160208062010602/08/16 06:20:31  5-MIN KAOH 081120Z AUTO 25006KT OVC090 02/00 A2964 1240 89 0 260/06 RMK AO2 T00170000 $
04850KAOH AOH20160208062510602/08/16 06:25:31  5-MIN KAOH 081125Z AUTO 26006KT OVC090 02/00 A2964 1240 89 0 260/06 RMK AO2 T00170000 $
04850KAOH AOH20160208063010902/08/16 06:30:31  5-MIN KAOH 081130Z AUTO 25006KT OVC095 01/00 A2964 1240 92 -100 250/06 RMK AO2 T00110000 $
04850KAOH AOH20160208063511002/08/16 06:35:31  5-MIN KAOH 081135Z AUTO 25006KT OVC100 01/M01 A2964 1240 89 -100 260/06 RMK AO2 T00111006 $
04850KAOH AOH20160208064011002/08/16 06:40:31  5-MIN KAOH 081140Z AUTO 25006KT OVC100 01/M01 A2964 1240 89 -100 260/06 RMK AO2 T00111006 $
04850KAOH AOH20160208064511002/08/16 06:45:31  5-MIN KAOH 081145Z AUTO 25006KT OVC100 01/M01 A2964 1240 89 -100 260/06 RMK AO2 T00111006 $
04850KAOH AOH20160208065014102/08/16 06:50:31  5-MIN KAOH 081150Z AUTO 25006KT OVC100 01/M01 A2963 1240 89 -100 260/06 RMK AO2 SLP041 60000 T00111006 10044 20011 58020 $
04850KAOH AOH20160208065511002/08/16 06:55:31  5-MIN KAOH 081155Z AUTO 26006KT OVC110 01/M01 A2963 1250 89 -100 270/06 RMK AO2 T00111006 $
04850KAOH AOH20160208070011002/08/16 07:00:31  5-MIN KAOH 081200Z AUTO 27006KT OVC110 01/M01 A2963 1250 89 -100 270/06 RMK AO2 T00111006 $
04850KAOH AOH20160208070510702/08/16 07:05:31  5-MIN KAOH 081205Z AUTO 27006KT OVC110 01/M01 A2963 1250 89 0 280/06 RMK AO2 T00111006 $
04850KAOH AOH20160208071011002/08/16 07:10:31  5-MIN KAOH 081210Z AUTO 27007KT OVC110 01/M01 A2963 1250 89 -100 280/07 RMK AO2 T00111006 $
04850KAOH AOH20160208071511002/08/16 07:15:31  5-MIN KAOH 081215Z AUTO 26008KT OVC100 01/M01 A2963 1250 89 -100 270/08 RMK AO2 T00111006 $
04850KAOH AOH20160208072010702/08/16 07:20:31  5-MIN KAOH 081220Z AUTO 27007KT OVC100 01/M01 A2963 1250 89 0 270/07 RMK AO2 T00111006 $
04850KAOH AOH20160208072511402/08/16 07:25:31  5-MIN KAOH 081225Z AUTO 26006KT BKN090 OVC110 01/M01 A2963 1250 89 0 270/06 RMK AO2 T00111006 $
04850KAOH AOH20160208073011702/08/16 07:30:31  5-MIN KAOH 081230Z AUTO 26006KT BKN085 OVC110 01/M01 A2963 1250 92 -100 270/06 RMK AO2 T00061006 $
04850KAOH AOH20160208073511002/08/16 07:35:31  5-MIN KAOH 081235Z AUTO 26006KT OVC090 01/M01 A2963 1250 89 -100 270/06 RMK AO2 T00061011 $
04850KAOH AOH20160208074010802/08/16 07:40:31  5-MIN KAOH 081240Z AUTO 25007KT OVC090 01/M01 A2963 1250 89 -100 260/07 RMK AO2 T00061011
04850KAOH AOH20160208074510802/08/16 07:45:31  5-MIN KAOH 081245Z AUTO 26007KT OVC095 01/M01 A2963 1250 89 -100 260/07 RMK AO2 T00061011
04850KAOH AOH20160208075012002/08/16 07:50:31  5-MIN KAOH 081250Z AUTO 26006KT 10SM OVC095 01/M01 A2963 1250 89 -100 260/06 RMK AO2 SLP040 T00061011
04850KAOH AOH20160208075511302/08/16 07:55:31  5-MIN KAOH 081255Z AUTO 26007KT 10SM OVC100 01/M01 A2963 1250 89 -100 270/07 RMK AO2 T00061011
04850KAOH AOH20160208080011302/08/16 08:00:31  5-MIN KAOH 081300Z AUTO 27008KT 10SM BKN100 01/M01 A2963 1250 89 -100 280/08 RMK AO2 T00061011
04850KAOH AOH20160208080511302/08/16 08:05:31  5-MIN KAOH 081305Z AUTO 28006KT 10SM BKN100 01/M01 A2963 1250 89 -100 280/06 RMK AO2 T00061011
04850KAOH AOH20160208081011302/08/16 08:10:31  5-MIN KAOH 081310Z AUTO 28006KT 10SM BKN100 01/M01 A2963 1250 92 -100 280/06 RMK AO2 T00061006
04850KAOH AOH20160208081511302/08/16 08:15:31  5-MIN KAOH 081315Z AUTO 28006KT 10SM BKN100 01/M01 A2963 1250 89 -100 280/06 RMK AO2 T00061011
04850KAOH AOH20160208082011002/08/16 08:20:31  5-MIN KAOH 081320Z AUTO 28007KT 10SM BKN100 01/M01 A2963 1250 85 0 290/07 RMK AO2 T00111011
04850KAOH AOH20160208082511202/08/16 08:25:31  5-MIN KAOH 081325Z AUTO 28007KT 10SM SCT100 01/M01 A2963 1250 85 0 290/07 RMK AO2 T00111011 $
04850KAOH AOH20160208083011202/08/16 08:30:31  5-MIN KAOH 081330Z AUTO 28006KT 10SM SCT100 01/M01 A2962 1250 85 0 290/06 RMK AO2 T00111011 $
04850KAOH AOH20160208083511202/08/16 08:35:31  5-MIN KAOH 081335Z AUTO 28006KT 10SM SCT095 01/M01 A2963 1250 85 0 290/06 RMK AO2 T00111011 $
04850KAOH AOH20160208084011202/08/16 08:40:31  5-MIN KAOH 081340Z AUTO 28006KT 10SM SCT095 01/M01 A2963 1250 85 0 290/06 RMK AO2 T00111011 $
04850KAOH AOH20160208084511202/08/16 08:45:31  5-MIN KAOH 081345Z AUTO 26003KT 10SM FEW090 01/M01 A2962 1250 85 0 270/03 RMK AO2 T00111011 $
04850KAOH AOH20160208085012202/08/16 08:50:31  5-MIN KAOH 081350Z AUTO 26004KT 10SM FEW090 01/M01 A2962 1250 89 -100 270/04 RMK AO2 SLP037 T00061011 $
04850KAOH AOH20160208085511202/08/16 08:55:31  5-MIN KAOH 081355Z AUTO 26004KT 10SM FEW090 01/M01 A2962 1250 85 0 260/04 RMK AO2 T00111011 $
04850KAOH AOH20160208090011502/08/16 09:00:31  5-MIN KAOH 081400Z AUTO 27004KT 10SM FEW090 01/M01 A2962 1260 89 -100 270/04 RMK AO2 T00061011 $
04850KAOH AOH20160208090510902/08/16 09:05:31  5-MIN KAOH 081405Z AUTO 28003KT 10SM CLR 01/M01 A2962 1260 85 0 290/03 RMK AO2 T00111011 $
04850KAOH AOH20160208091010902/08/16 09:10:31  5-MIN KAOH 081410Z AUTO 29004KT 10SM CLR 02/M01 A2961 1260 85 0 300/04 RMK AO2 T00171006 $
04850KAOH AOH20160208091510902/08/16 09:15:31  5-MIN KAOH 081415Z AUTO 29005KT 10SM CLR 02/M01 A2961 1260 82 0 290/05 RMK AO2 T00171011 $
04850KAOH AOH20160208092011102/08/16 09:20:31  5-MIN KAOH 081420Z AUTO 29006KT 10SM CLR 02/M01 A2961 1260 78 100 300/06 RMK AO2 T00221011 $
04850KAOH AOH20160208092511102/08/16 09:25:31  5-MIN KAOH 081425Z AUTO 29006KT 10SM CLR 02/M01 A2961 1260 78 100 300/06 RMK AO2 T00221011 $
04850KAOH AOH20160208093011102/08/16 09:30:31  5-MIN KAOH 081430Z AUTO 27006KT 10SM CLR 02/M01 A2962 1260 82 100 280/06 RMK AO2 T00221006 $
04850KAOH AOH20160208093511102/08/16 09:35:31  5-MIN KAOH 081435Z AUTO 28007KT 10SM CLR 03/M01 A2962 1260 79 100 290/07 RMK AO2 T00281006 $
04850KAOH AOH20160208094011102/08/16 09:40:31  5-MIN KAOH 081440Z AUTO 28006KT 10SM CLR 03/M01 A2961 1260 79 100 290/06 RMK AO2 T00281006 $
04850KAOH AOH20160208094511102/08/16 09:45:31  5-MIN KAOH 081445Z AUTO 29008KT 10SM CLR 03/M01 A2962 1260 75 100 290/08 RMK AO2 T00281011 $
04850KAOH AOH20160208095012402/08/16 09:50:31  5-MIN KAOH 081450Z AUTO 28008KT 10SM CLR 03/M01 A2962 1260 79 100 280/08 RMK AO2 SLP033 T00281006 56007 $
04850KAOH AOH20160208095510902/08/16 09:55:31  5-MIN KAOH 081455Z AUTO 28008KT 10SM CLR 03/M01 A2962 1260 79 100 290/08 RMK AO2 T00281006
04850KAOH AOH20160208100010902/08/16 10:00:31  5-MIN KAOH 081500Z AUTO 29010KT 10SM CLR 03/M01 A2961 1260 76 200 290/10 RMK AO2 T00331006
04850KAOH AOH20160208100510902/08/16 10:05:31  5-MIN KAOH 081505Z AUTO 28010KT 10SM CLR 03/M01 A2961 1260 76 200 280/10 RMK AO2 T00331006
04850KAOH AOH20160208101010902/08/16 10:10:31  5-MIN KAOH 081510Z AUTO 28009KT 10SM CLR 03/M01 A2961 1260 76 200 290/09 RMK AO2 T00331006
04850KAOH AOH20160208101510902/08/16 10:15:31  5-MIN KAOH 081515Z AUTO 28010KT 10SM CLR 03/M01 A2961 1270 76 200 290/10 RMK AO2 T00331006
04850KAOH AOH20160208102010902/08/16 10:20:31  5-MIN KAOH 081520Z AUTO 29011KT 10SM CLR 03/M01 A2961 1270 72 200 300/11 RMK AO2 T00331011
04850KAOH AOH20160208102510902/08/16 10:25:31  5-MIN KAOH 081525Z AUTO 28010KT 10SM CLR 03/M01 A2961 1270 75 100 290/10 RMK AO2 T00281011
04850KAOH AOH20160208103010902/08/16 10:30:31  5-MIN KAOH 081530Z AUTO 29009KT 10SM CLR 03/M01 A2961 1270 72 200 300/09 RMK AO2 T00331011
04850KAOH AOH20160208103510902/08/16 10:35:31  5-MIN KAOH 081535Z AUTO 29008KT 10SM CLR 04/M01 A2961 1270 70 300 300/08 RMK AO2 T00391011
04850KAOH AOH20160208104010902/08/16 10:40:31  5-MIN KAOH 081540Z AUTO 29009KT 10SM CLR 03/M01 A2961 1270 72 200 300/09 RMK AO2 T00331011
04850KAOH AOH20160208104510902/08/16 10:45:31  5-MIN KAOH 081545Z AUTO 28008KT 10SM CLR 03/M01 A2961 1270 72 200 290/08 RMK AO2 T00331011
04850KAOH AOH20160208105011902/08/16 10:50:31  5-MIN KAOH 081550Z AUTO 27009KT 10SM FEW024 03/M01 A2961 1270 72 200 280/09 RMK AO2 SLP030 T00331011
04850KAOH AOH20160208105511202/08/16 10:55:31  5-MIN KAOH 081555Z AUTO 30009KT 10SM FEW024 04/M01 A2961 1270 70 300 310/09 RMK AO2 T00391011
04850KAOH AOH20160209075511302/09/16 07:55:31  5-MIN KAOH 091255Z AUTO 26015KT 8SM OVC011 M04/M06 A2963 1240 88 -700 270/15 RMK AO2 T10391056
04850KAOH AOH20160209080011302/09/16 08:00:31  5-MIN KAOH 091300Z AUTO 26020KT 8SM OVC011 M04/M06 A2964 1240 88 -700 270/20 RMK AO2 T10391056
04850KAOH AOH20160209080511302/09/16 08:05:31  5-MIN KAOH 091305Z AUTO 26015KT 8SM OVC011 M04/M06 A2964 1240 85 -700 270/15 RMK AO2 T10391061
04850KAOH AOH20160209081011902/09/16 08:10:31  5-MIN KAOH 091310Z AUTO 27019G22KT 7SM OVC011 M04/M06 A2964 1240 85 -700 270/19G22 RMK AO2 T10391061
04850KAOH AOH20160209081511902/09/16 08:15:31  5-MIN KAOH 091315Z AUTO 27013G22KT 7SM OVC011 M04/M06 A2964 1240 85 -700 270/13G22 RMK AO2 T10391061
04850KAOH AOH20160209082011302/09/16 08:20:31  5-MIN KAOH 091320Z AUTO 27014KT 7SM OVC011 M04/M06 A2964 1240 88 -700 270/14 RMK AO2 T10391056
04850KAOH AOH20160209082511302/09/16 08:25:31  5-MIN KAOH 091325Z AUTO 26018KT 7SM OVC011 M04/M06 A2964 1240 88 -700 270/18 RMK AO2 T10391056
04850KAOH AOH20160209083011302/09/16 08:30:31  5-MIN KAOH 091330Z AUTO 26015KT 7SM OVC011 M04/M06 A2964 1240 85 -700 270/15 RMK AO2 T10391061
04850KAOH AOH20160209083511302/09/16 08:35:31  5-MIN KAOH 091335Z AUTO 26015KT 7SM OVC011 M04/M06 A2964 1240 85 -700 270/15 RMK AO2 T10391061
04850KAOH AOH20160209084011302/09/16 08:40:31  5-MIN KAOH 091340Z AUTO 26015KT 7SM OVC011 M04/M06 A2964 1240 88 -700 270/15 RMK AO2 T10391056
04850KAOH AOH20160209084511302/09/16 08:45:31  5-MIN KAOH 091345Z AUTO 27017KT 7SM OVC011 M04/M06 A2964 1230 85 -700 270/17 RMK AO2 T10391061
04850KAOH AOH20160209085012002/09/16 08:50:31  5-MIN KAOH 091350Z AUTO 26016KT 7SM OVC011 M04/M06 A2964 1230 85 -700 270/16 RMK AO2 SLP048 T10391061
04850KAOH AOH20160209085511902/09/16 08:55:31  5-MIN KAOH 091355Z AUTO 26018G22KT 7SM OVC011 M04/M06 A2965 1230 85 -700 270/18G22 RMK AO2 T10391061
04850KAOH AOH20160209090011902/09/16 09:00:31  5-MIN KAOH 091400Z AUTO 26018G22KT 8SM OVC013 M04/M06 A2965 1230 85 -700 270/18G22 RMK AO2 T10391061
04850KAOH AOH20160209090511302/09/16 09:05:31  5-MIN KAOH 091405Z AUTO 27016KT 8SM OVC013 M04/M06 A2965 1230 85 -700 270/16 RMK AO2 T10391061
04850KAOH AOH20160209091011302/09/16 09:10:31  5-MIN KAOH 091410Z AUTO 26013KT 8SM OVC013 M04/M06 A2965 1230 85 -700 270/13 RMK AO2 T10391061
04850KAOH AOH20160209091511302/09/16 09:15:31  5-MIN KAOH 091415Z AUTO 26018KT 8SM OVC013 M04/M06 A2965 1230 85 -700 260/18 RMK AO2 T10391061
04850KAOH AOH20160209092011302/09/16 09:20:31  5-MIN KAOH 091420Z AUTO 26015KT 8SM OVC013 M04/M07 A2965 1230 81 -700 270/15 RMK AO2 T10391067
04850KAOH AOH20160209092511302/09/16 09:25:31  5-MIN KAOH 091425Z AUTO 26016KT 8SM OVC013 M04/M07 A2965 1230 81 -700 260/16 RMK AO2 T10391067
04850KAOH AOH20160209093011302/09/16 09:30:31  5-MIN KAOH 091430Z AUTO 26017KT 8SM OVC013 M04/M07 A2965 1230 81 -700 270/17 RMK AO2 T10391067
04850KAOH AOH20160209093511302/09/16 09:35:31  5-MIN KAOH 091435Z AUTO 26017KT 8SM OVC014 M04/M07 A2965 1230 81 -700 270/17 RMK AO2 T10391067
04850KAOH AOH20160209094011302/09/16 09:40:31  5-MIN KAOH 091440Z AUTO 26017KT 7SM OVC014 M04/M07 A2965 1230 81 -700 270/17 RMK AO2 T10391067
04850KAOH AOH20160209094511302/09/16 09:45:31  5-MIN KAOH 091445Z AUTO 26014KT 7SM OVC014 M04/M06 A2965 1230 85 -700 260/14 RMK AO2 T10391061
04850KAOH AOH20160209095013502/09/16 09:50:31  5-MIN KAOH 091450Z AUTO 25015G25KT 6SM BR OVC014 M04/M06 A2965 1230 85 -700 260/15G25 RMK AO2 SLP052 T10391061 53007
04850KAOH AOH20160209095512902/09/16 09:55:31  5-MIN KAOH 091455Z AUTO 26017G25KT 3SM -SN OVC014 M04/M07 A2965 1220 81 -700 260/17G25 RMK AO2 P0000 T10391067
04850KAOH AOH20160209100013302/09/16 10:00:31  5-MIN KAOH 091500Z AUTO 27014G24KT 1 3/4SM -SN OVC014 M04/M07 A2965 1230 81 -700 270/14G24 RMK AO2 P0000 T10391067
04850KAOH AOH20160209100513002/09/16 10:05:31  5-MIN KAOH 091505Z AUTO 26013KT 1 1/2SM -SN BR OVC014 M04/M06 A2965 1230 85 -700 260/13 RMK AO2 P0000 T10391061
04850KAOH AOH20160209101012602/09/16 10:10:31  5-MIN KAOH 091510Z AUTO 26012KT 2SM -SN BR OVC014 M04/M06 A2965 1220 85 -700 270/12 RMK AO2 P0000 T10391061
04850KAOH AOH20160209101512602/09/16 10:15:31  5-MIN KAOH 091515Z AUTO 26014KT 3SM -SN BR OVC014 M04/M06 A2965 1220 85 -700 260/14 RMK AO2 P0000 T10391061
04850KAOH AOH20160209102012302/09/16 10:20:31  5-MIN KAOH 091520Z AUTO 24013KT 3SM -SN OVC013 M04/M07 A2965 1220 81 -700 250/13 RMK AO2 P0000 T10391067
04850KAOH AOH20160209102513002/09/16 10:25:31  5-MIN KAOH 091525Z AUTO 26015KT 2 1/2SM -SN BR OVC013 M04/M06 A2966 1220 85 -700 270/15 RMK AO2 P0000 T10391061
04850KAOH AOH20160209103012602/09/16 10:30:31  5-MIN KAOH 091530Z AUTO 26016KT 2SM -SN BR OVC013 M04/M06 A2965 1220 85 -700 260/16 RMK AO2 P0000 T10391061
04850KAOH AOH20160209103513002/09/16 10:35:31  5-MIN KAOH 091535Z AUTO 26013KT 1 3/4SM -SN BR OVC012 M04/M06 A2965 1220 85 -700 260/13 RMK AO2 P0000 T10391061
04850KAOH AOH20160209104013002/09/16 10:40:31  5-MIN KAOH 091540Z AUTO 26012KT 1 1/4SM -SN BR OVC012 M04/M06 A2965 1220 88 -700 260/12 RMK AO2 P0000 T10391056
04850KAOH AOH20160209104513302/09/16 10:45:31  5-MIN KAOH 091545Z AUTO 26016KT 1SM -SN BR BKN012 OVC016 M04/M06 A2966 1220 85 -700 270/16 RMK AO2 P0000 T10391061
04850KAOH AOH20160209105013302/09/16 10:50:31  5-MIN KAOH 091550Z AUTO 25014KT 1SM -SN BR OVC012 M04/M06 A2966 1220 88 -800 260/14 RMK AO2 SLP053 P0000 T10441061
04850KAOH AOH20160209105513302/09/16 10:55:31  5-MIN KAOH 091555Z AUTO 26017KT 1SM -SN BR BKN012 OVC018 M04/M06 A2966 1220 88 -800 270/17 RMK AO2 P0000 T10441061
04850KAOH AOH20160209110012602/09/16 11:00:31  5-MIN KAOH 091600Z AUTO 25014KT 1SM -SN BR OVC015 M04/M06 A2966 1220 88 -700 260/14 RMK AO2 P0000 T10391056
04850KAOH AOH20160209110513002/09/16 11:05:31  5-MIN KAOH 091605Z AUTO 25015KT 1 1/2SM -SN BR OVC015 M04/M06 A2966 1220 88 -800 260/15 RMK AO2 P0000 T10441061
04850KAOH AOH20160209111013002/09/16 11:10:31  5-MIN KAOH 091610Z AUTO 25016KT 1 3/4SM -SN BR OVC015 M04/M06 A2966 1220 88 -800 260/16 RMK AO2 P0000 T10441061
04850KAOH AOH20160209111513702/09/16 11:15:31  5-MIN KAOH 091615Z AUTO 25013KT 1 1/2SM -SN BR SCT010 OVC015 M04/M06 A2966 1220 88 -800 260/13 RMK AO2 P0000 T10441061
04850KAOH AOH20160209112013002/09/16 11:20:31  5-MIN KAOH 091620Z AUTO 25015KT 1 3/4SM -SN BR OVC013 M04/M06 A2966 1220 88 -800 260/15 RMK AO2 P0000 T10441061
04850KAOH AOH20160209112513302/09/16 11:25:31  5-MIN KAOH 091625Z AUTO 25015KT 2SM -SN BR BKN011 OVC016 M04/M06 A2966 1220 88 -800 260/15 RMK AO2 P0000 T10441061
04850KAOH AOH20160209113013002/09/16 11:30:31  5-MIN KAOH 091630Z AUTO 26015KT 1 1/4SM -SN BR OVC011 M04/M06 A2966 1220 88 -800 260/15 RMK AO2 P0000 T10441061
04850KAOH AOH20160209113513002/09/16 11:35:31  5-MIN KAOH 091635Z AUTO 26015KT 1 1/4SM -SN BR OVC013 M04/M06 A2966 1220 85 -700 270/15 RMK AO2 P0000 T10391061
04850KAOH AOH20160209114013002/09/16 11:40:31  5-MIN KAOH 091640Z AUTO 26014KT 1 1/2SM -SN BR OVC013 M04/M06 A2966 1220 88 -800 260/14 RMK AO2 P0000 T10441061
04850KAOH AOH20160209114513002/09/16 11:45:31  5-MIN KAOH 091645Z AUTO 26012KT 1 1/2SM -SN BR OVC013 M04/M06 A2966 1220 88 -700 260/12 RMK AO2 P0000 T10391056
04850KAOH AOH20160209115013702/09/16 11:50:31  5-MIN KAOH 091650Z AUTO 26015KT 1 3/4SM -SN BR OVC012 M04/M06 A2966 1220 88 -700 270/15 RMK AO2 SLP054 P0000 T10391056
04850KAOH AOH20160209115513002/09/16 11:55:31  5-MIN KAOH 091655Z AUTO 26018KT 1 3/4SM -SN BR OVC012 M04/M06 A2966 1220 85 -700 260/18 RMK AO2 P0000 T10391061
04850KAOH AOH20160209120012602/09/16 12:00:31  5-MIN KAOH 091700Z AUTO 26014KT 2SM -SN BR OVC012 M04/M06 A2966 1220 85 -700 270/14 RMK AO2 P0000 T10391061
04850KAOH AOH20160209120512602/09/16 12:05:31  5-MIN KAOH 091705Z AUTO 25013KT 3SM -SN BR OVC011 M04/M06 A2966 1220 85 -700 260/13 RMK AO2 P0000 T10391061
04850KAOH AOH20160209121014002/09/16 12:10:31  5-MIN KAOH 091710Z AUTO 26015KT 5SM BR OVC011 M04/M06 A2966 1220 88 -700 260/15 RMK AO2 SNE10 CIG 009V014 P0000 T10391056
04850KAOH AOH20160209121512802/09/16 12:15:31  5-MIN KAOH 091715Z AUTO 26016KT 6SM BR OVC011 M04/M06 A2966 1220 88 -700 260/16 RMK AO2 SNE10 P0000 T10391056
04850KAOH AOH20160209122012502/09/16 12:20:31  5-MIN KAOH 091720Z AUTO 26013KT 8SM OVC010 M04/M06 A2966 1220 85 -700 260/13 RMK AO2 SNE10 P0000 T10391061
04850KAOH AOH20160209122512502/09/16 12:25:31  5-MIN KAOH 091725Z AUTO 25014KT 8SM OVC010 M04/M06 A2966 1220 88 -700 260/14 RMK AO2 SNE10 P0000 T10391056
04850KAOH AOH20160209123012502/09/16 12:30:31  5-MIN KAOH 091730Z AUTO 25014KT 8SM OVC010 M04/M06 A2966 1220 85 -700 260/14 RMK AO2 SNE10 P0000 T10391061
04850KAOH AOH20160209123512502/09/16 12:35:31  5-MIN KAOH 091735Z AUTO 25013KT 8SM OVC011 M04/M06 A2965 1220 85 -700 260/13 RMK AO2 SNE10 P0000 T10391061
04850KAOH AOH20160209124012502/09/16 12:40:31  5-MIN KAOH 091740Z AUTO 26014KT 8SM OVC011 M04/M06 A2965 1230 88 -700 260/14 RMK AO2 SNE10 P0000 T10391056
04850KAOH AOH20160209185513302/09/16 18:55:31  5-MIN KAOH 092355Z AUTO 26015KT 6SM -SN BR BKN014 OVC025 M04/M07 A2977 1110 84 -900 260/15 RMK AO2 P0000 T10441067
04850KAOH AOH20160209190012602/09/16 19:00:31  5-MIN KAOH 100000Z AUTO 26015KT 6SM -SN BR OVC014 M04/M07 A2978 1110 84 -900 260/15 RMK AO2 P0000 T10441067
04850KAOH AOH20160209190512302/09/16 19:05:31  5-MIN KAOH 100005Z AUTO 26013KT 7SM -SN OVC014 M04/M07 A2978 1110 84 -900 270/13 RMK AO2 P0000 T10441067
04850KAOH AOH20160209191013302/09/16 19:10:31  5-MIN KAOH 100010Z AUTO 25012KT 6SM -SN BR BKN014 OVC018 M04/M07 A2978 1110 84 -900 260/12 RMK AO2 P0000 T10441067
04850KAOH AOH20160209191512702/09/16 19:15:31  5-MIN KAOH 100015Z AUTO 25014KT 6SM -SN BR OVC014 M05/M07 A2978 1110 88 -1000 260/14 RMK AO2 P0000 T10501067
04850KAOH AOH20160209192012702/09/16 19:20:31  5-MIN KAOH 100020Z AUTO 26015KT 6SM -SN BR OVC014 M05/M07 A2978 1110 88 -1000 260/15 RMK AO2 P0000 T10501067
04850KAOH AOH20160209192512402/09/16 19:25:31  5-MIN KAOH 100025Z AUTO 26017KT 7SM -SN OVC014 M05/M07 A2978 1100 88 -1000 270/17 RMK AO2 P0000 T10501067
04850KAOH AOH20160209193012702/09/16 19:30:31  5-MIN KAOH 100030Z AUTO 26016KT 6SM -SN BR OVC014 M05/M07 A2978 1100 88 -1000 270/16 RMK AO2 P0000 T10501067
04850KAOH AOH20160209193512702/09/16 19:35:31  5-MIN KAOH 100035Z AUTO 27017KT 4SM -SN BR OVC014 M05/M07 A2979 1100 88 -1000 270/17 RMK AO2 P0000 T10501067
04850KAOH AOH20160209194013102/09/16 19:40:31  5-MIN KAOH 100040Z AUTO 26017KT 2 1/2SM -SN BR OVC014 M05/M07 A2979 1100 88 -1000 270/17 RMK AO2 P0000 T10501067
04850KAOH AOH20160209194513102/09/16 19:45:31  5-MIN KAOH 100045Z AUTO 27016KT 2 1/2SM -SN BR OVC013 M05/M07 A2979 1100 88 -1000 270/16 RMK AO2 P0000 T10501067
04850KAOH AOH20160209195013402/09/16 19:50:31  5-MIN KAOH 100050Z AUTO 27015KT 5SM -SN BR OVC013 M05/M07 A2979 1100 84 -1000 270/15 RMK AO2 SLP101 P0000 T10501072
04850KAOH AOH20160209195512402/09/16 19:55:31  5-MIN KAOH 100055Z AUTO 26015KT 7SM -SN OVC013 M05/M07 A2979 1100 84 -1000 270/15 RMK AO2 P0000 T10501072
04850KAOH AOH20160209200012402/09/16 20:00:31  5-MIN KAOH 100100Z AUTO 26019KT 8SM -SN OVC013 M05/M07 A2979 1100 84 -1000 270/19 RMK AO2 P0000 T10501072
04850KAOH AOH20160209200512602/09/16 20:05:31  5-MIN KAOH 100105Z AUTO 26017KT 9SM OVC013 M06/M07 A2979 1100 88 -1100 270/17 RMK AO2 SNE02 P0000 T10561072
04850KAOH AOH20160209201012602/09/16 20:10:31  5-MIN KAOH 100110Z AUTO 27016KT 9SM OVC013 M06/M07 A2979 1100 88 -1100 270/16 RMK AO2 SNE02 P0000 T10561072
04850KAOH AOH20160209201512402/09/16 20:15:31  5-MIN KAOH 100115Z AUTO 26015KT 7SM -SN OVC013 M06/M07 A2979 1090 88 -1100 270/15 RMK AO2 P0000 T10561072
04850KAOH AOH20160209202012702/09/16 20:20:31  5-MIN KAOH 100120Z AUTO 26015KT 6SM -SN BR OVC013 M06/M07 A2980 1090 88 -1100 270/15 RMK AO2 P0000 T10561072
04850KAOH AOH20160209202512702/09/16 20:25:31  5-MIN KAOH 100125Z AUTO 26016KT 5SM -SN BR OVC013 M06/M07 A2980 1090 88 -1100 270/16 RMK AO2 P0000 T10561072
04850KAOH AOH20160209203012702/09/16 20:30:31  5-MIN KAOH 100130Z AUTO 27015KT 5SM -SN BR OVC013 M06/M07 A2980 1090 88 -1100 270/15 RMK AO2 P0000 T10561072
04850KAOH AOH20160209203512702/09/16 20:35:31  5-MIN KAOH 100135Z AUTO 27015KT 6SM -SN BR OVC012 M06/M07 A2980 1090 88 -1100 270/15 RMK AO2 P0000 T10561072
04850KAOH AOH20160209204012702/09/16 20:40:31  5-MIN KAOH 100140Z AUTO 27016KT 6SM -SN BR OVC012 M06/M07 A2980 1090 88 -1100 280/16 RMK AO2 P0000 T10561072
04850KAOH AOH20160209204512402/09/16 20:45:31  5-MIN KAOH 100145Z AUTO 27016KT 7SM -SN OVC012 M06/M07 A2980 1090 88 -1100 270/16 RMK AO2 P0000 T10561072
04850KAOH AOH20160209205013102/09/16 20:50:31  5-MIN KAOH 100150Z AUTO 26016KT 7SM -SN OVC012 M06/M07 A2980 1090 88 -1100 270/16 RMK AO2 SLP104 P0000 T10561072
04850KAOH AOH20160209205512702/09/16 20:55:31  5-MIN KAOH 100155Z AUTO 26014KT 6SM -SN BR OVC012 M06/M08 A2980 1090 84 -1100 270/14 RMK AO2 P0000 T10561078
04850KAOH AOH20160209210013402/09/16 21:00:31  5-MIN KAOH 100200Z AUTO 26016KT 6SM -SN BR BKN012 OVC017 M06/M08 A2980 1090 84 -1100 270/16 RMK AO2 P0000 T10561078
04850KAOH AOH20160209210513002/09/16 21:05:31  5-MIN KAOH 100205Z AUTO 26013G21KT 7SM -SN OVC012 M06/M08 A2980 1090 84 -1100 270/13G21 RMK AO2 P0000 T10561078
04850KAOH AOH20160209211013202/09/16 21:10:31  5-MIN KAOH 100210Z AUTO 27013G21KT 9SM OVC012 M06/M08 A2980 1090 84 -1100 270/13G21 RMK AO2 SNE08 P0000 T10561078
04850KAOH AOH20160209211512602/09/16 21:15:31  5-MIN KAOH 100215Z AUTO 27015KT 9SM OVC014 M06/M08 A2980 1090 84 -1100 270/15 RMK AO2 SNE08 P0000 T10561078
04850KAOH AOH20160209212012602/09/16 21:20:31  5-MIN KAOH 100220Z AUTO 26016KT 9SM OVC014 M06/M08 A2980 1090 84 -1100 270/16 RMK AO2 SNE08 P0000 T10561078
04850KAOH AOH20160209212512602/09/16 21:25:31  5-MIN KAOH 100225Z AUTO 27014KT 9SM OVC014 M06/M08 A2980 1090 84 -1100 270/14 RMK AO2 SNE08 P0000 T10561078
04850KAOH AOH20160209213012702/09/16 21:30:31  5-MIN KAOH 100230Z AUTO 27014KT 10SM OVC012 M06/M08 A2980 1090 88 -1200 280/14 RMK AO2 SNE08 P0000 T10611078
04850KAOH AOH20160209213512702/09/16 21:35:31  5-MIN KAOH 100235Z AUTO 27012KT 10SM OVC014 M06/M08 A2980 1090 88 -1200 280/12 RMK AO2 SNE08 P0000 T10611078
04850KAOH AOH20160209214012702/09/16 21:40:31  5-MIN KAOH 100240Z AUTO 27012KT 10SM OVC014 M06/M08 A2980 1090 84 -1200 280/12 RMK AO2 SNE08 P0000 T10611083
04850KAOH AOH20160209214512702/09/16 21:45:31  5-MIN KAOH 100245Z AUTO 26015KT 10SM OVC014 M06/M08 A2980 1090 84 -1200 270/15 RMK AO2 SNE08 P0000 T10611083
04850KAOH AOH20160209215014602/09/16 21:50:31  5-MIN KAOH 100250Z AUTO 26016KT 10SM OVC014 M06/M08 A2981 1080 84 -1200 270/16 RMK AO2 SNE08 SLP106 P0000 60000 T10611083 53030
04850KAOH AOH20160209215511502/09/16 21:55:31  5-MIN KAOH 100255Z AUTO 27014KT 10SM OVC014 M06/M08 A2981 1080 84 -1200 280/14 RMK AO2 T10611083
04850KAOH AOH20160209220011502/09/16 22:00:31  5-MIN KAOH 100300Z AUTO 28015KT 10SM OVC014 M06/M08 A2981 1080 84 -1200 280/15 RMK AO2 T10611083
04850KAOH AOH20160209220511502/09/16 22:05:31  5-MIN KAOH 100305Z AUTO 27016KT 10SM OVC014 M06/M09 A2981 1080 81 -1200 280/16 RMK AO2 T10611089
04850KAOH AOH20160209221011502/09/16 22:10:31  5-MIN KAOH 100310Z AUTO 26017KT 10SM OVC015 M06/M09 A2981 1080 81 -1200 270/17 RMK AO2 T10611089
04850KAOH AOH20160209221511502/09/16 22:15:31  5-MIN KAOH 100315Z AUTO 27016KT 10SM OVC015 M06/M09 A2981 1080 81 -1200 270/16 RMK AO2 T10611089
04850KAOH AOH20160209222011502/09/16 22:20:31  5-MIN KAOH 100320Z AUTO 27013KT 10SM OVC016 M06/M09 A2981 1080 81 -1200 280/13 RMK AO2 T10611089
04850KAOH AOH20160209222511502/09/16 22:25:31  5-MIN KAOH 100325Z AUTO 26014KT 10SM OVC016 M06/M09 A2981 1080 81 -1200 270/14 RMK AO2 T10611089
04850KAOH AOH20160209223011502/09/16 22:30:31  5-MIN KAOH 100330Z AUTO 26014KT 10SM OVC015 M07/M09 A2981 1080 84 -1200 270/14 RMK AO2 T10671089
04850KAOH AOH20160209223511502/09/16 22:35:31  5-MIN KAOH 100335Z AUTO 26014KT 10SM OVC015 M07/M09 A2981 1080 84 -1200 270/14 RMK AO2 T10671089
04850KAOH AOH20160209224011502/09/16 22:40:31  5-MIN KAOH 100340Z AUTO 27016KT 10SM OVC015 M07/M09 A2981 1080 84 -1200 270/16 RMK AO2 T10671089
04850KAOH AOH20160209224511502/09/16 22:45:31  5-MIN KAOH 100345Z AUTO 26016KT 10SM OVC015 M07/M09 A2981 1080 81 -1200 270/16 RMK AO2 T10671094
04850KAOH AOH20160209225012802/09/16 22:50:31  5-MIN KAOH 100350Z AUTO 27018G22KT 10SM OVC015 M07/M09 A2981 1080 81 -1200 280/18G22 RMK AO2 SLP108 T10671094
04850KAOH AOH20160209225511502/09/16 22:55:31  5-MIN KAOH 100355Z AUTO 27016KT 10SM OVC015 M07/M10 A2981 1080 77 -1200 280/16 RMK AO2 T10671100
04850KAOH AOH20160209230012102/09/16 23:00:31  5-MIN KAOH 100400Z AUTO 26016G24KT 10SM OVC016 M07/M09 A2981 1080 81 -1200 270/16G24 RMK AO2 T10671094
04850KAOH AOH20160209230511502/09/16 23:05:31  5-MIN KAOH 100405Z AUTO 26015KT 10SM OVC016 M07/M09 A2981 1080 81 -1200 260/15 RMK AO2 T10671094
04850KAOH AOH20160209231011502/09/16 23:10:31  5-MIN KAOH 100410Z AUTO 25016KT 10SM OVC016 M07/M09 A2981 1080 81 -1200 260/16 RMK AO2 T10671094
04850KAOH AOH20160209231511502/09/16 23:15:31  5-MIN KAOH 100415Z AUTO 26016KT 10SM OVC016 M07/M09 A2981 1080 81 -1200 270/16 RMK AO2 T10671094
04850KAOH AOH20160209232011502/09/16 23:20:31  5-MIN KAOH 100420Z AUTO 26015KT 10SM OVC016 M07/M09 A2981 1080 84 -1300 270/15 RMK AO2 T10721094
04850KAOH AOH20160209232511502/09/16 23:25:31  5-MIN KAOH 100425Z AUTO 26018KT 10SM OVC016 M07/M09 A2981 1080 84 -1300 270/18 RMK AO2 T10721094
04850KAOH AOH20160209233011502/09/16 23:30:31  5-MIN KAOH 100430Z AUTO 26016KT 10SM OVC016 M07/M09 A2981 1080 84 -1300 270/16 RMK AO2 T10721094
04850KAOH AOH20160209233512002/09/16 23:35:31  5-MIN KAOH 100435Z AUTO 27013G23KT 9SM OVC016 M07/M10 A2981 1080 81 -1300 270/13G23 RMK AO2 T10721100
04850KAOH AOH20160209234011402/09/16 23:40:31  5-MIN KAOH 100440Z AUTO 26016KT 8SM OVC016 M07/M09 A2981 1080 84 -1300 270/16 RMK AO2 T10721094
04850KAOH AOH20160209234511402/09/16 23:45:31  5-MIN KAOH 100445Z AUTO 27013KT 8SM OVC016 M07/M09 A2981 1080 84 -1300 270/13 RMK AO2 T10721094
04850KAOH AOH20160209235013102/09/16 23:50:31  5-MIN KAOH 100450Z AUTO 25013KT 8SM OVC016 M07/M09 A2981 1080 84 -1300 260/13 RMK AO2 SLP109 T10721094 410221072
04850KAOH AOH20160209235512402/09/16 23:55:31  5-MIN KAOH 100455Z AUTO 26015KT 7SM -SN OVC016 M07/M09 A2981 1080 84 -1300 270/15 RMK AO2 P0000 T10721094
04850KAOH AOH20160210000012402/10/16 00:00:31  5-MIN KAOH 100500Z AUTO 26012KT 7SM -SN OVC016 M07/M09 A2981 1080 84 -1300 270/12 RMK AO2 P0000 T10721094
04850KAOH AOH20160210000512602/10/16 00:05:31  5-MIN KAOH 100505Z AUTO 26012KT 8SM OVC015 M07/M09 A2981 1080 84 -1300 270/12 RMK AO2 SNE03 P0000 T10721094
04850KAOH AOH20160210001012602/10/16 00:10:31  5-MIN KAOH 100510Z AUTO 26016KT 8SM OVC015 M07/M09 A2982 1070 84 -1300 260/16 RMK AO2 SNE03 P0000 T10721094
04850KAOH AOH20160210001512602/10/16 00:15:31  5-MIN KAOH 100515Z AUTO 26016KT 9SM OVC015 M07/M09 A2982 1070 84 -1300 260/16 RMK AO2 SNE03 P0000 T10721094
04850KAOH AOH20160210002013202/10/16 00:20:31  5-MIN KAOH 100520Z AUTO 26012G22KT 9SM OVC015 M07/M09 A2982 1070 84 -1300 260/12G22 RMK AO2 SNE03 P0000 T10721094
04850KAOH AOH20160210002512602/10/16 00:25:31  5-MIN KAOH 100525Z AUTO 26017KT 9SM OVC014 M07/M10 A2982 1070 81 -1300 260/17 RMK AO2 SNE03 P0000 T10721100
04850KAOH AOH20160210003012602/10/16 00:30:31  5-MIN KAOH 100530Z AUTO 26016KT 9SM OVC014 M07/M10 A2982 1070 81 -1300 260/16 RMK AO2 SNE03 P0000 T10721100
04850KAOH AOH20160210003512602/10/16 00:35:31  5-MIN KAOH 100535Z AUTO 26017KT 9SM OVC014 M07/M10 A2982 1070 81 -1300 270/17 RMK AO2 SNE03 P0000 T10721100
04850KAOH AOH20160210004012602/10/16 00:40:31  5-MIN KAOH 100540Z AUTO 26015KT 9SM OVC014 M08/M10 A2982 1070 84 -1400 270/15 RMK AO2 SNE03 P0000 T10781100
04850KAOH AOH20160210004512702/10/16 00:45:31  5-MIN KAOH 100545Z AUTO 26015KT 10SM OVC014 M08/M10 A2982 1070 84 -1400 260/15 RMK AO2 SNE03 P0000 T10781100
04850KAOH AOH20160210005015702/10/16 00:50:31  5-MIN KAOH 100550Z AUTO 26016KT 9SM OVC014 M08/M10 A2982 1070 84 -1400 260/16 RMK AO2 SNE03 SLP110 P0000 60000 T10781100 11044 21078 51011
04850KAOH AOH20160210005511402/10/16 00:55:31  5-MIN KAOH 100555Z AUTO 27017KT 8SM OVC014 M08/M11 A2981 1080 80 -1400 270/17 RMK AO2 T10781106
04850KAOH AOH20160210010013202/10/16 01:00:31  5-MIN KAOH 100600Z AUTO 26016KT 7SM -SN OVC014 M08/M11 A2981 1080 80 -1400 270/16 RMK AO2 SNB0556 P0000 T10781106
04850KAOH AOH20160210010513202/10/16 01:05:31  5-MIN KAOH 100605Z AUTO 27014KT 7SM -SN OVC016 M08/M11 A2981 1080 80 -1400 270/14 RMK AO2 SNB0556 P0000 T10781106
04850KAOH AOH20160210011013202/10/16 01:10:31  5-MIN KAOH 100610Z AUTO 26014KT 6SM -SN OVC016 M08/M11 A2981 1080 80 -1400 260/14 RMK AO2 SNB0556 P0000 T10781106
04850KAOH AOH20160210011513202/10/16 01:15:31  5-MIN KAOH 100615Z AUTO 26019KT 5SM -SN OVC016 M08/M11 A2981 1080 80 -1400 270/19 RMK AO2 SNB0556 P0000 T10781106
04850KAOH AOH20160210012013202/10/16 01:20:31  5-MIN KAOH 100620Z AUTO 27017KT 6SM -SN OVC016 M08/M11 A2981 1080 80 -1400 270/17 RMK AO2 SNB0556 P0000 T10781106
04850KAOH AOH20160210012513202/10/16 01:25:31  5-MIN KAOH 100625Z AUTO 26013KT 7SM -SN OVC016 M08/M11 A2981 1080 80 -1400 270/13 RMK AO2 SNB0556 P0000 T10781106
04850KAOH AOH20160210013013202/10/16 01:30:31  5-MIN KAOH 100630Z AUTO 26013KT 7SM -SN OVC016 M08/M11 A2981 1080 80 -1400 270/13 RMK AO2 SNB0556 P0000 T10781106
04850KAOH AOH20160210013513802/10/16 01:35:31  5-MIN KAOH 100635Z AUTO 26016G20KT 7SM -SN OVC017 M08/M11 A2981 1080 80 -1400 260/16G20 RMK AO2 SNB0556 P0000 T10781106
04850KAOH AOH20160210014013202/10/16 01:40:31  5-MIN KAOH 100640Z AUTO 26014KT 7SM -SN OVC017 M08/M11 A2981 1080 80 -1400 270/14 RMK AO2 SNB0556 P0000 T10781106
04850KAOH AOH20160210014513202/10/16 01:45:31  5-MIN KAOH 100645Z AUTO 25014KT 7SM -SN OVC017 M08/M11 A2981 1080 80 -1400 260/14 RMK AO2 SNB0556 P0000 T10781106
04850KAOH AOH20160210015014202/10/16 01:50:31  5-MIN KAOH 100650Z AUTO 26014KT 6SM -SN BR OVC017 M08/M11 A2981 1080 84 -1500 260/14 RMK AO2 SNB0556 SLP108 P0000 T10831106
04850KAOH AOH20160210015512702/10/16 01:55:31  5-MIN KAOH 100655Z AUTO 26017KT 6SM -SN BR OVC017 M08/M11 A2981 1080 84 -1500 260/17 RMK AO2 P0000 T10831106
04850KAOH AOH20160210020013002/10/16 02:00:31  5-MIN KAOH 100700Z AUTO 26016G21KT 7SM -SN OVC016 M08/M11 A2981 1080 84 -1500 260/16G21 RMK AO2 P0000 T10831106
04850KAOH AOH20160210020512402/10/16 02:05:31  5-MIN KAOH 100705Z AUTO 26015KT 7SM -SN OVC016 M08/M11 A2981 1080 84 -1500 270/15 RMK AO2 P0000 T10831106
04850KAOH AOH20160210021012402/10/16 02:10:31  5-MIN KAOH 100710Z AUTO 26015KT 7SM -SN OVC016 M08/M11 A2981 1080 84 -1500 260/15 RMK AO2 P0000 T10831106
04850KAOH AOH20160210021512402/10/16 02:15:31  5-MIN KAOH 100715Z AUTO 26015KT 7SM -SN OVC016 M08/M11 A2981 1080 84 -1500 270/15 RMK AO2 P0000 T10831106
04850KAOH AOH20160210022012402/10/16 02:20:31  5-MIN KAOH 100720Z AUTO 26014KT 7SM -SN OVC016 M08/M11 A2981 1080 80 -1500 260/14 RMK AO2 P0000 T10831111
04850KAOH AOH20160210022512402/10/16 02:25:31  5-MIN KAOH 100725Z AUTO 26015KT 7SM -SN OVC016 M08/M11 A2981 1080 84 -1500 270/15 RMK AO2 P0000 T10831106
04850KAOH AOH20160210023012402/10/16 02:30:31  5-MIN KAOH 100730Z AUTO 26012KT 7SM -SN OVC016 M08/M11 A2981 1080 84 -1500 260/12 RMK AO2 P0000 T10831106
04850KAOH AOH20160210023512702/10/16 02:35:31  5-MIN KAOH 100735Z AUTO 25014KT 6SM -SN BR OVC016 M08/M11 A2981 1080 84 -1500 260/14 RMK AO2 P0000 T10831106
04850KAOH AOH20160210024012402/10/16 02:40:31  5-MIN KAOH 100740Z AUTO 26017KT 6SM -SN OVC016 M08/M11 A2981 1080 80 -1500 260/17 RMK AO2 P0000 T10831111
04850KAOH AOH20160210024512402/10/16 02:45:31  5-MIN KAOH 100745Z AUTO 25015KT 6SM -SN OVC016 M08/M11 A2981 1080 80 -1500 260/15 RMK AO2 P0000 T10831111
04850KAOH AOH20160210025013102/10/16 02:50:31  5-MIN KAOH 100750Z AUTO 26014KT 5SM -SN OVC016 M08/M11 A2981 1080 80 -1500 260/14 RMK AO2 SLP108 P0000 T10831111
04850KAOH AOH20160210025512702/10/16 02:55:31  5-MIN KAOH 100755Z AUTO 26013KT 5SM -SN BR OVC016 M08/M11 A2981 1080 84 -1500 260/13 RMK AO2 P0000 T10831106
04850KAOH AOH20160210030012402/10/16 03:00:31  5-MIN KAOH 100800Z AUTO 26015KT 5SM -SN OVC016 M08/M11 A2981 1080 80 -1500 270/15 RMK AO2 P0000 T10831111
04850KAOH AOH20160210030512702/10/16 03:05:31  5-MIN KAOH 100805Z AUTO 25013KT 5SM -SN BR OVC016 M08/M11 A2981 1080 84 -1500 260/13 RMK AO2 P0000 T10831106
04850KAOH AOH20160210031012402/10/16 03:10:31  5-MIN KAOH 100810Z AUTO 26015KT 5SM -SN OVC016 M08/M11 A2981 1080 80 -1500 260/15 RMK AO2 P0000 T10831111
04850KAOH AOH20160210031512402/10/16 03:15:31  5-MIN KAOH 100815Z AUTO 26016KT 5SM -SN OVC016 M08/M11 A2981 1080 80 -1500 260/16 RMK AO2 P0000 T10831111
04850KAOH AOH20160210032012402/10/16 03:20:31  5-MIN KAOH 100820Z AUTO 25012KT 5SM -SN OVC016 M08/M11 A2980 1080 80 -1500 260/12 RMK AO2 P0000 T10831111
04850KAOH AOH20160210032512402/10/16 03:25:31  5-MIN KAOH 100825Z AUTO 25015KT 5SM -SN OVC016 M08/M11 A2980 1080 80 -1500 260/15 RMK AO2 P0000 T10831111
04850KAOH AOH20160210033012402/10/16 03:30:31  5-MIN KAOH 100830Z AUTO 26013KT 6SM -SN OVC016 M08/M11 A2981 1080 80 -1500 260/13 RMK AO2 P0000 T10831111
04850KAOH AOH20160210033512402/10/16 03:35:31  5-MIN KAOH 100835Z AUTO 26014KT 6SM -SN OVC016 M08/M11 A2981 1080 80 -1500 260/14 RMK AO2 P0000 T10831111
04850KAOH AOH20160210034012402/10/16 03:40:31  5-MIN KAOH 100840Z AUTO 25011KT 5SM -SN OVC016 M08/M11 A2981 1080 80 -1500 260/11 RMK AO2 P0000 T10831111
04850KAOH AOH20160210034512402/10/16 03:45:31  5-MIN KAOH 100845Z AUTO 26017KT 5SM -SN OVC016 M08/M11 A2981 1080 80 -1500 260/17 RMK AO2 P0000 T10831111
04850KAOH AOH20160210035014302/10/16 03:50:31  5-MIN KAOH 100850Z AUTO 25013KT 5SM -SN OVC016 M08/M11 A2981 1080 80 -1500 260/13 RMK AO2 SLP107 P0000 60000 T10831111 51003
04850KAOH AOH20160210035512702/10/16 03:55:31  5-MIN KAOH 100855Z AUTO 26015KT 5SM -SN BR OVC016 M08/M11 A2981 1080 84 -1500 260/15 RMK AO2 P0000 T10831106
04850KAOH AOH20160210040012402/10/16 04:00:31  5-MIN KAOH 100900Z AUTO 26017KT 5SM -SN OVC016 M08/M11 A2981 1080 80 -1500 260/17 RMK AO2 P0000 T10831111
04850KAOH AOH20160210040512402/10/16 04:05:31  5-MIN KAOH 100905Z AUTO 26014KT 5SM -SN OVC016 M08/M11 A2981 1080 80 -1500 260/14 RMK AO2 P0000 T10831111
04850KAOH AOH20160210041012402/10/16 04:10:31  5-MIN KAOH 100910Z AUTO 26017KT 5SM -SN OVC016 M08/M11 A2981 1080 80 -1500 270/17 RMK AO2 P0000 T10831111
04850KAOH AOH20160210041512402/10/16 04:15:31  5-MIN KAOH 100915Z AUTO 25015KT 4SM -SN OVC016 M08/M11 A2981 1080 80 -1500 260/15 RMK AO2 P0000 T10831111
04850KAOH AOH20160210042012402/10/16 04:20:31  5-MIN KAOH 100920Z AUTO 26013KT 4SM -SN OVC016 M08/M11 A2981 1080 80 -1500 260/13 RMK AO2 P0000 T10831111
04850KAOH AOH20160210042512402/10/16 04:25:31  5-MIN KAOH 100925Z AUTO 26015KT 4SM -SN OVC016 M08/M11 A2981 1080 80 -1500 260/15 RMK AO2 P0000 T10831111
04850KAOH AOH20160210043012402/10/16 04:30:31  5-MIN KAOH 100930Z AUTO 26013KT 3SM -SN OVC016 M08/M11 A2981 1080 80 -1500 260/13 RMK AO2 P0000 T10831111
04850KAOH AOH20160210043512402/10/16 04:35:31  5-MIN KAOH 100935Z AUTO 26015KT 3SM -SN OVC016 M08/M11 A2981 1080 80 -1500 270/15 RMK AO2 P0000 T10831111
04850KAOH AOH20160210044013002/10/16 04:40:31  5-MIN KAOH 100940Z AUTO 26017G20KT 3SM -SN OVC016 M08/M11 A2981 1080 80 -1500 270/17G20 RMK AO2 P0000 T10831111
04850KAOH AOH20160210044513702/10/16 04:45:31  5-MIN KAOH 100945Z AUTO 26014G20KT 2 1/2SM -SN BR OVC016 M09/M11 A2981 1080 84 -1500 270/14G20 RMK AO2 P0000 T10891111
04850KAOH AOH20160210045014202/10/16 04:50:31  5-MIN KAOH 100950Z AUTO 26013KT 2 1/2SM -SN BKN016 OVC027 M08/M11 A2981 1080 80 -1500 270/13 RMK AO2 SLP109 P0000 T10831111
04850KAOH AOH20160210045513802/10/16 04:55:31  5-MIN KAOH 100955Z AUTO 26012KT 2 1/2SM -SN BR BKN016 OVC029 M09/M11 A2982 1070 88 -1500 270/12 RMK AO2 P0000 T10891106
04850KAOH AOH20160210050013402/10/16 05:00:31  5-MIN KAOH 101000Z AUTO 26012KT 3SM -SN BR BKN016 OVC029 M08/M11 A2982 1070 84 -1500 260/12 RMK AO2 P0000 T10831106
04850KAOH AOH20160210050513102/10/16 05:05:31  5-MIN KAOH 101005Z AUTO 26015KT 3SM -SN BKN016 OVC029 M08/M11 A2982 1070 80 -1500 270/15 RMK AO2 P0000 T10831111
04850KAOH AOH20160210051013802/10/16 05:10:31  5-MIN KAOH 101010Z AUTO 26015KT 2 1/2SM -SN BR BKN016 OVC029 M09/M11 A2982 1070 84 -1500 270/15 RMK AO2 P0000 T10891111
04850KAOH AOH20160210051513502/10/16 05:15:31  5-MIN KAOH 101015Z AUTO 26015KT 2 1/2SM -SN BKN016 OVC029 M08/M11 A2982 1070 80 -1500 270/15 RMK AO2 P0000 T10831111
04850KAOH AOH20160210052012702/10/16 05:20:31  5-MIN KAOH 101020Z AUTO 26013KT 2SM -SN BR OVC016 M09/M11 A2982 1070 84 -1500 270/13 RMK AO2 P0000 T10891111
04850KAOH AOH20160210052512702/10/16 05:25:31  5-MIN KAOH 101025Z AUTO 26013KT 2SM -SN BR OVC016 M09/M11 A2982 1070 88 -1600 260/13 RMK AO2 P0000 T10891106
04850KAOH AOH20160210053013102/10/16 05:30:31  5-MIN KAOH 101030Z AUTO 26015KT 1 3/4SM -SN BR OVC016 M09/M11 A2983 1070 88 -1600 270/15 RMK AO2 P0000 T10891106
04850KAOH AOH20160210053513102/10/16 05:35:31  5-MIN KAOH 101035Z AUTO 26014KT 1 1/4SM -SN BR OVC016 M09/M11 A2983 1060 88 -1600 260/14 RMK AO2 P0000 T10891106
04850KAOH AOH20160210054012602/10/16 05:40:31  5-MIN KAOH 101040Z AUTO 26016KT 1SM -SN BR VV014 M09/M11 A2983 1060 88 -1600 270/16 RMK AO2 P0000 T10891106
04850KAOH AOH20160210054512602/10/16 05:45:31  5-MIN KAOH 101045Z AUTO 26012KT 1SM -SN BR VV014 M09/M11 A2983 1060 88 -1600 270/12 RMK AO2 P0000 T10891106
04850KAOH AOH20160210055013802/10/16 05:50:31  5-MIN KAOH 101050Z AUTO 26012KT 1 1/4SM -SN BR OVC014 M09/M11 A2983 1060 88 -1600 260/12 RMK AO2 SLP115 P0000 T10891106
04850KAOH AOH20160210055513102/10/16 05:55:31  5-MIN KAOH 101055Z AUTO 26013KT 1 1/4SM -SN BR OVC014 M09/M11 A2983 1060 88 -1600 260/13 RMK AO2 P0000 T10891106
04850KAOH AOH20160210060013102/10/16 06:00:31  5-MIN KAOH 101100Z AUTO 27015KT 1 1/4SM -SN BR OVC013 M09/M11 A2983 1060 88 -1600 270/15 RMK AO2 P0000 T10891106
04850KAOH AOH20160210060513102/10/16 06:05:31  5-MIN KAOH 101105Z AUTO 26014KT 1 1/4SM -SN BR OVC013 M09/M11 A2983 1060 88 -1600 270/14 RMK AO2 P0000 T10891106
04850KAOH AOH20160210061013102/10/16 06:10:31  5-MIN KAOH 101110Z AUTO 27015KT 1 1/4SM -SN BR OVC013 M09/M11 A2983 1060 88 -1600 270/15 RMK AO2 P0000 T10891106
04850KAOH AOH20160210061512602/10/16 06:15:31  5-MIN KAOH 101115Z AUTO 26013KT 1SM -SN BR VV013 M09/M11 A2984 1060 84 -1600 270/13 RMK AO2 P0000 T10891111
04850KAOH AOH20160210062012602/10/16 06:20:31  5-MIN KAOH 101120Z AUTO 26013KT 1SM -SN BR VV012 M09/M11 A2984 1060 88 -1600 260/13 RMK AO2 P0000 T10891106
04850KAOH AOH20160210062513102/10/16 06:25:31  5-MIN KAOH 101125Z AUTO 27011KT 1 1/4SM -SN BR OVC013 M09/M11 A2984 1060 88 -1600 270/11 RMK AO2 P0000 T10891106
04850KAOH AOH20160210063013102/10/16 06:30:31  5-MIN KAOH 101130Z AUTO 26012KT 1 1/4SM -SN BR OVC013 M09/M11 A2984 1050 88 -1600 270/12 RMK AO2 P0000 T10891106
04850KAOH AOH20160210063513102/10/16 06:35:31  5-MIN KAOH 101135Z AUTO 27015KT 1 1/4SM -SN BR OVC013 M09/M11 A2984 1050 84 -1600 270/15 RMK AO2 P0000 T10891111
04850KAOH AOH20160210064013102/10/16 06:40:31  5-MIN KAOH 101140Z AUTO 26014KT 1 1/2SM -SN BR OVC013 M09/M11 A2984 1050 84 -1600 270/14 RMK AO2 P0000 T10891111
04850KAOH AOH20160210064513102/10/16 06:45:31  5-MIN KAOH 101145Z AUTO 26013KT 1 3/4SM -SN BR OVC013 M09/M11 A2984 1050 84 -1600 260/13 RMK AO2 P0000 T10891111
04850KAOH AOH20160210065012102/10/16 06:50:31  5-MIN KAOH 101150Z AUTO 26016KT 2 1/2SM -SN BR OVC015 M09/M11 A2984 1050 84 -1600 270/16 RMK AO2 P0000
04850KAOH AOH20160210065513802/10/16 06:55:31  5-MIN KAOH 101155Z AUTO 26014KT 2 1/2SM -SN BR BKN015 OVC025 M09/M11 A2984 1050 84 -1600 260/14 RMK AO2 P0000 T10891111
04850KAOH AOH20160210070013402/10/16 07:00:31  5-MIN KAOH 101200Z AUTO 27015KT 3SM -SN BR BKN015 OVC025 M09/M11 A2984 1050 84 -1600 270/15 RMK AO2 P0000 T10891111
04850KAOH AOH20160210070512702/10/16 07:05:31  5-MIN KAOH 101205Z AUTO 26013KT 4SM -SN BR OVC015 M09/M11 A2985 1050 84 -1600 270/13 RMK AO2 P0000 T10891111
04850KAOH AOH20160210071012702/10/16 07:10:31  5-MIN KAOH 101210Z AUTO 26014KT 5SM -SN BR OVC015 M09/M11 A2985 1050 84 -1600 260/14 RMK AO2 P0000 T10891111
04850KAOH AOH20160210071512702/10/16 07:15:31  5-MIN KAOH 101215Z AUTO 26015KT 5SM -SN BR OVC015 M09/M11 A2985 1040 84 -1600 270/15 RMK AO2 P0000 T10891111
04850KAOH AOH20160210072012702/10/16 07:20:31  5-MIN KAOH 101220Z AUTO 26017KT 5SM -SN BR OVC015 M09/M11 A2985 1040 84 -1600 270/17 RMK AO2 P0000 T10891111
04850KAOH AOH20160210072512902/10/16 07:25:31  5-MIN KAOH 101225Z AUTO 26013KT 5SM BR OVC015 M09/M11 A2985 1040 84 -1600 260/13 RMK AO2 SNE25 P0000 T10891111
04850KAOH AOH20160210073012702/10/16 07:30:31  5-MIN KAOH 101230Z AUTO 26016KT 4SM -SN BR OVC015 M09/M11 A2985 1040 84 -1600 270/16 RMK AO2 P0000 T10891111
04850KAOH AOH20160210073512702/10/16 07:35:31  5-MIN KAOH 101235Z AUTO 26013KT 3SM -SN BR OVC015 M09/M11 A2985 1040 84 -1600 270/13 RMK AO2 P0000 T10891111
04850KAOH AOH20160210074013102/10/16 07:40:31  5-MIN KAOH 101240Z AUTO 26017KT 2 1/2SM -SN BR OVC014 M09/M11 A2985 1040 84 -1600 270/17 RMK AO2 P0000 T10891111
04850KAOH AOH20160210074512402/10/16 07:45:31  5-MIN KAOH 101245Z AUTO 27015KT 3SM -SN OVC014 M09/M12 A2985 1040 80 -1600 270/15 RMK AO2 P0000 T10891117
04850KAOH AOH20160210075013102/10/16 07:50:31  5-MIN KAOH 101250Z AUTO 27015KT 4SM -SN OVC014 M09/M12 A2985 1040 80 -1600 270/15 RMK AO2 SLP124 P0000 T10891117
04850KAOH AOH20160210075512902/10/16 07:55:31  5-MIN KAOH 101255Z AUTO 26014KT 5SM HZ OVC014 M09/M12 A2986 1040 80 -1600 270/14 RMK AO2 SNE54 P0000 T10891117
04850KAOH AOH20160210080012802/10/16 08:00:31  5-MIN KAOH 101300Z AUTO 26014KT 7SM OVC014 M09/M12 A2986 1040 80 -1600 270/14 RMK AO2 SNE1254 P0000 T10891117
04850KAOH AOH20160210080512802/10/16 08:05:31  5-MIN KAOH 101305Z AUTO 27015KT 7SM OVC014 M09/M12 A2986 1040 84 -1700 270/15 RMK AO2 SNE1254 P0000 T10941117
04850KAOH AOH20160210081013502/10/16 08:10:31  5-MIN KAOH 101310Z AUTO 26017KT 8SM BKN014 OVC026 M09/M12 A2986 1030 84 -1700 260/17 RMK AO2 SNE1254 P0000 T10941117
04850KAOH AOH20160210081513502/10/16 08:15:31  5-MIN KAOH 101315Z AUTO 26014KT 8SM BKN014 OVC024 M09/M12 A2986 1030 84 -1700 270/14 RMK AO2 SNE1254 P0000 T10941117
04850KAOH AOH20160210082013802/10/16 08:20:31  5-MIN KAOH 101320Z AUTO 26016KT 6SM BR BKN014 OVC024 M09/M12 A2986 1030 84 -1700 270/16 RMK AO2 SNE1254 P0000 T10941117
04850KAOH AOH20160210082513802/10/16 08:25:31  5-MIN KAOH 101325Z AUTO 26018KT 6SM BR BKN014 OVC024 M09/M12 A2986 1030 84 -1700 270/18 RMK AO2 SNE1254 P0000 T10941117
04850KAOH AOH20160210083014502/10/16 08:30:31  5-MIN KAOH 101330Z AUTO 26016KT 4SM -SN BR BKN014 OVC024 M09/M12 A2986 1030 84 -1700 270/16 RMK AO2 SNE1254B29 P0000 T10941117
04850KAOH AOH20160210083515202/10/16 08:35:31  5-MIN KAOH 101335Z AUTO 27016KT 3SM -SN BR SCT014 BKN024 OVC095 M09/M12 A2986 1030 84 -1700 270/16 RMK AO2 SNE1254B29 P0000 T10941117
04850KAOH AOH20160210084016402/10/16 08:40:31  5-MIN KAOH 101340Z AUTO 26015KT 2 1/2SM -SN BR SCT014 BKN022 OVC095 M09/M12 A2986 1030 84 -1700 270/15 RMK AO2 VIS 2V4 SNE1254B29 P0000 T10941117
04850KAOH AOH20160210084515202/10/16 08:45:31  5-MIN KAOH 101345Z AUTO 26016KT 3SM -SN BR SCT014 BKN020 OVC095 M09/M12 A2986 1030 84 -1700 270/16 RMK AO2 SNE1254B29 P0000 T10941117
04850KAOH AOH20160210085014102/10/16 08:50:31  5-MIN KAOH 101350Z AUTO 26014KT 4SM BR BKN014 BKN020 OVC095 M09/M12 A2987 1030 84 -1700 270/14 RMK AO2 SNE1254B29E50 P0000
04850KAOH AOH20160210085513102/10/16 08:55:31  5-MIN KAOH 101355Z AUTO 26014KT 5SM BR BKN013 BKN020 OVC095 M09/M12 A2987 1030 84 -1700 270/14 RMK AO2 T10941117
04850KAOH AOH20160210185512902/10/16 18:55:31  5-MIN KAOH 102355Z AUTO 25016G24KT 7SM -SN OVC025 M09/M13 A2999 910 73 -1800 260/16G24 RMK AO2 P0000 T10941133
04850KAOH AOH20160210190013002/10/16 19:00:31  5-MIN KAOH 110000Z AUTO 25017KT 6SM -SN BKN025 OVC055 M09/M13 A2999 910 73 -1800 260/17 RMK AO2 P0000 T10941133
04850KAOH AOH20160210190513202/10/16 19:05:31  5-MIN KAOH 110005Z AUTO 25018KT 8SM BKN023 OVC055 M09/M13 A3000 910 73 -1800 260/18 RMK AO2 SNE04 P0000 T10941133
04850KAOH AOH20160210191013202/10/16 19:10:31  5-MIN KAOH 110010Z AUTO 25017KT 9SM BKN023 OVC055 M09/M13 A3000 910 73 -1800 260/17 RMK AO2 SNE04 P0000 T10941133
04850KAOH AOH20160210191513302/10/16 19:15:31  5-MIN KAOH 110015Z AUTO 26018KT 10SM BKN025 OVC055 M09/M13 A3000 910 77 -1800 260/18 RMK AO2 SNE04 P0000 T10941128
04850KAOH AOH20160210192013302/10/16 19:20:31  5-MIN KAOH 110020Z AUTO 25019KT 10SM SCT029 OVC055 M09/M13 A3000 900 77 -1800 260/19 RMK AO2 SNE04 P0000 T10941128
04850KAOH AOH20160210192513902/10/16 19:25:31  5-MIN KAOH 110025Z AUTO 26018KT 6SM -SN SCT027 OVC055 M09/M13 A3000 900 77 -1800 270/18 RMK AO2 SNE04B25 P0000 T10941128
04850KAOH AOH20160210193013902/10/16 19:30:31  5-MIN KAOH 110030Z AUTO 25017KT 4SM -SN SCT025 OVC050 M09/M13 A3000 900 77 -1800 260/17 RMK AO2 SNE04B25 P0000 T10941128
04850KAOH AOH20160210193513902/10/16 19:35:31  5-MIN KAOH 110035Z AUTO 26015KT 4SM -SN SCT023 OVC050 M09/M13 A3000 900 77 -1800 260/15 RMK AO2 SNE04B25 P0000 T10941128
04850KAOH AOH20160210194013902/10/16 19:40:31  5-MIN KAOH 110040Z AUTO 26015KT 4SM -SN BKN026 OVC050 M09/M13 A3001 900 74 -1800 270/15 RMK AO2 SNE04B25 P0000 T10891128
04850KAOH AOH20160210194513902/10/16 19:45:31  5-MIN KAOH 110045Z AUTO 26019KT 6SM -SN BKN028 OVC050 M09/M13 A3001 900 77 -1800 270/19 RMK AO2 SNE04B25 P0000 T10941128
04850KAOH AOH20160210195014602/10/16 19:50:31  5-MIN KAOH 110050Z AUTO 26019KT 8SM -SN BKN026 OVC050 M09/M13 A3001 900 77 -1800 270/19 RMK AO2 SNE04B25 SLP179 P0000 T10941128
04850KAOH AOH20160210195513602/10/16 19:55:31  5-MIN KAOH 110055Z AUTO 26018G25KT 8SM -SN SCT023 OVC050 M09/M13 A3001 900 77 -1800 270/18G25 RMK AO2 P0000 T10941128
04850KAOH AOH20160210200014002/10/16 20:00:31  5-MIN KAOH 110100Z AUTO 26020G25KT 8SM SCT027 OVC050 M09/M13 A3001 900 77 -1800 260/20G25 RMK AO2 SNE0057 P0000 T10941128
04850KAOH AOH20160210200514102/10/16 20:05:31  5-MIN KAOH 110105Z AUTO 26018KT 8SM FEW027 FEW038 OVC050 M09/M13 A3001 890 77 -1800 260/18 RMK AO2 SNE0057 P0000 T10941128
04850KAOH AOH20160210201013602/10/16 20:10:31  5-MIN KAOH 110110Z AUTO 26018G25KT 7SM -SN FEW027 OVC050 M09/M13 A3001 890 77 -1800 270/18G25 RMK AO2 P0000 T10941128
04850KAOH AOH20160210201512902/10/16 20:15:31  5-MIN KAOH 110115Z AUTO 26017G25KT 6SM -SN OVC050 M09/M13 A3001 890 77 -1800 260/17G25 RMK AO2 P0000 T10941128
04850KAOH AOH20160210202012502/10/16 20:20:31  5-MIN KAOH 110120Z AUTO 26020KT 7SM OVC050 M09/M13 A3001 890 77 -1800 270/20 RMK AO2 SNE20 P0000 T10941128
04850KAOH AOH20160210202512502/10/16 20:25:31  5-MIN KAOH 110125Z AUTO 26020KT 8SM OVC050 M09/M13 A3001 890 77 -1800 270/20 RMK AO2 SNE20 P0000 T10941128
04850KAOH AOH20160210203014702/10/16 20:30:31  5-MIN KAOH 110130Z AUTO 26020G26KT 7SM -SN OVC050 M09/M13 A3002 890 77 -1800 260/20G26 RMK AO2 PK WND 26026/0128 P0000 T10941128
04850KAOH AOH20160210203514102/10/16 20:35:31  5-MIN KAOH 110135Z AUTO 26021KT 5SM -SN OVC050 M09/M13 A3002 890 77 -1900 260/21 RMK AO2 PK WND 26026/0128 P0000 T10941128
04850KAOH AOH20160210204014802/10/16 20:40:31  5-MIN KAOH 110140Z AUTO 26018KT 6SM -SN FEW023 OVC050 M09/M13 A3002 880 77 -1900 270/18 RMK AO2 PK WND 26026/0128 P0000 T10941128
04850KAOH AOH20160210204514802/10/16 20:45:31  5-MIN KAOH 110145Z AUTO 27018KT 7SM -SN SCT023 OVC050 M09/M13 A3002 880 77 -1900 270/18 RMK AO2 PK WND 26026/0128 P0000 T10941128
04850KAOH AOH20160210205014002/10/16 20:50:31  5-MIN KAOH 110150Z AUTO 27015KT 8SM BKN023 OVC050 M09/M13 A3003 880 77 -1900 270/15 RMK AO2 PK WND 26026/0128 SNE48 P0000
04850KAOH AOH20160210205513002/10/16 20:55:31  5-MIN KAOH 110155Z AUTO 27016KT 7SM -SN BKN023 OVC050 M09/M13 A3003 880 77 -1900 270/16 RMK AO2 P0000 T10941128
04850KAOH AOH20160210210013002/10/16 21:00:31  5-MIN KAOH 110200Z AUTO 27017KT 6SM -SN BKN023 OVC050 M09/M13 A3003 880 77 -1900 280/17 RMK AO2 P0000 T10941128
04850KAOH AOH20160210210513002/10/16 21:05:31  5-MIN KAOH 110205Z AUTO 26015KT 7SM -SN BKN023 OVC055 M09/M13 A3003 880 73 -1900 270/15 RMK AO2 P0000 T10941133
04850KAOH AOH20160210211013902/10/16 21:10:31  5-MIN KAOH 110210Z AUTO 26018KT 7SM BKN021 BKN030 OVC055 M09/M13 A3003 870 73 -1900 270/18 RMK AO2 SNE06 P0000 T10941133
04850KAOH AOH20160210211513702/10/16 21:15:31  5-MIN KAOH 110215Z AUTO 27013KT 7SM -SN BKN023 BKN030 OVC055 M09/M13 A3003 870 77 -1900 280/13 RMK AO2 P0000 T10941128
04850KAOH AOH20160210212013702/10/16 21:20:31  5-MIN KAOH 110220Z AUTO 26016KT 7SM -SN BKN023 BKN027 OVC055 M09/M13 A3003 870 77 -1900 260/16 RMK AO2 P0000 T10941128
04850KAOH AOH20160210212513702/10/16 21:25:31  5-MIN KAOH 110225Z AUTO 27016KT 7SM -SN BKN021 BKN032 OVC055 M09/M13 A3003 870 73 -1900 280/16 RMK AO2 P0000 T10941133
04850KAOH AOH20160210213013702/10/16 21:30:31  5-MIN KAOH 110230Z AUTO 27015KT 7SM -SN BKN021 BKN036 OVC050 M09/M13 A3004 870 77 -1900 270/15 RMK AO2 P0000 T10941128
04850KAOH AOH20160210213513702/10/16 21:35:31  5-MIN KAOH 110235Z AUTO 27016KT 7SM -SN BKN021 BKN036 OVC050 M09/M13 A3004 870 77 -1900 270/16 RMK AO2 P0000 T10941128
04850KAOH AOH20160210214013902/10/16 21:40:31  5-MIN KAOH 110240Z AUTO 26017KT 7SM BKN021 BKN033 OVC055 M09/M13 A3003 870 77 -1900 270/17 RMK AO2 SNE36 P0000 T10941128
04850KAOH AOH20160210214513902/10/16 21:45:31  5-MIN KAOH 110245Z AUTO 27018KT 8SM BKN021 BKN039 OVC050 M09/M13 A3004 870 77 -1900 280/18 RMK AO2 SNE36 P0000 T10941128
04850KAOH AOH20160210215015102/10/16 21:50:31  5-MIN KAOH 110250Z AUTO 27015KT 8SM BKN021 OVC050 M09/M13 A3004 870 77 -1900 270/15 RMK AO2 SNE36 SLP189 P0000 60000 T10941128 53018
04850KAOH AOH20160210215512002/10/16 21:55:31  5-MIN KAOH 110255Z AUTO 26014KT 8SM BKN021 OVC050 M09/M13 A3004 870 77 -1900 270/14 RMK AO2 T10941128
04850KAOH AOH20160210220012002/10/16 22:00:31  5-MIN KAOH 110300Z AUTO 27016KT 9SM BKN021 OVC050 M09/M13 A3004 870 77 -1900 280/16 RMK AO2 T10941128
04850KAOH AOH20160210220512002/10/16 22:05:31  5-MIN KAOH 110305Z AUTO 27014KT 8SM SCT021 OVC050 M09/M13 A3004 860 77 -1900 270/14 RMK AO2 T10941128
04850KAOH AOH20160210221012002/10/16 22:10:31  5-MIN KAOH 110310Z AUTO 27014KT 8SM SCT021 OVC055 M09/M13 A3004 860 73 -1900 280/14 RMK AO2 T10941133
04850KAOH AOH20160210221512002/10/16 22:15:31  5-MIN KAOH 110315Z AUTO 27014KT 9SM FEW021 OVC055 M09/M13 A3005 860 73 -1900 280/14 RMK AO2 T10941133
04850KAOH AOH20160210222012102/10/16 22:20:31  5-MIN KAOH 110320Z AUTO 27015KT 10SM FEW021 OVC055 M09/M13 A3005 860 73 -1900 270/15 RMK AO2 T10941133
04850KAOH AOH20160210222512102/10/16 22:25:31  5-MIN KAOH 110325Z AUTO 26014KT 10SM FEW021 OVC055 M09/M13 A3005 860 73 -1900 270/14 RMK AO2 T10941133
04850KAOH AOH20160210223011402/10/16 22:30:31  5-MIN KAOH 110330Z AUTO 27018KT 10SM OVC055 M09/M13 A3005 860 73 -1900 270/18 RMK AO2 T10941133
04850KAOH AOH20160210223512002/10/16 22:35:31  5-MIN KAOH 110335Z AUTO 27017G23KT 10SM OVC055 M10/M14 A3005 860 73 -2000 270/17G23 RMK AO2 T11001139
04850KAOH AOH20160210224011402/10/16 22:40:31  5-MIN KAOH 110340Z AUTO 26018KT 10SM OVC055 M10/M14 A3005 860 73 -2000 270/18 RMK AO2 T11001139
04850KAOH AOH20160210224511402/10/16 22:45:31  5-MIN KAOH 110345Z AUTO 28016KT 10SM OVC055 M10/M14 A3005 860 73 -2000 280/16 RMK AO2 T11001139
04850KAOH AOH20160210225012102/10/16 22:50:31  5-MIN KAOH 110350Z AUTO 27017KT 10SM OVC055 M10/M14 A3005 850 73 -2000 280/17 RMK AO2 SLP195 T11001139
04850KAOH AOH20160210225511402/10/16 22:55:31  5-MIN KAOH 110355Z AUTO 28014KT 10SM OVC055 M10/M14 A3006 850 73 -2000 280/14 RMK AO2 T11001139
04850KAOH AOH20160210230011402/10/16 23:00:31  5-MIN KAOH 110400Z AUTO 27014KT 10SM OVC055 M10/M14 A3006 850 73 -2000 270/14 RMK AO2 T11001139
04850KAOH AOH20160210230511402/10/16 23:05:31  5-MIN KAOH 110405Z AUTO 28015KT 10SM OVC055 M10/M14 A3006 850 73 -2000 290/15 RMK AO2 T11001139
04850KAOH AOH20160210231012002/10/16 23:10:31  5-MIN KAOH 110410Z AUTO 27015G21KT 10SM OVC055 M10/M14 A3006 850 73 -2000 280/15G21 RMK AO2 T11001139
04850KAOH AOH20160210231511402/10/16 23:15:31  5-MIN KAOH 110415Z AUTO 28015KT 10SM OVC055 M10/M14 A3006 850 73 -2000 280/15 RMK AO2 T11001139
04850KAOH AOH20160210232011402/10/16 23:20:31  5-MIN KAOH 110420Z AUTO 27016KT 10SM OVC055 M10/M14 A3006 850 73 -2000 280/16 RMK AO2 T11001139
04850KAOH AOH20160210232511402/10/16 23:25:31  5-MIN KAOH 110425Z AUTO 27014KT 10SM OVC055 M10/M14 A3006 850 73 -2000 280/14 RMK AO2 T11001139
04850KAOH AOH20160210233012102/10/16 23:30:31  5-MIN KAOH 110430Z AUTO 28011KT 10SM FEW040 OVC055 M10/M14 A3006 850 73 -2000 280/11 RMK AO2 T11001139
04850KAOH AOH20160210233512102/10/16 23:35:31  5-MIN KAOH 110435Z AUTO 28011KT 10SM SCT040 OVC055 M10/M14 A3006 850 73 -2000 290/11 RMK AO2 T11001139
04850KAOH AOH20160210234012102/10/16 23:40:31  5-MIN KAOH 110440Z AUTO 29011KT 10SM SCT039 OVC050 M10/M14 A3006 850 73 -2000 290/11 RMK AO2 T11001139
04850KAOH AOH20160210234512102/10/16 23:45:31  5-MIN KAOH 110445Z AUTO 28010KT 10SM FEW039 OVC050 M10/M14 A3006 850 70 -2000 290/10 RMK AO2 T11001144
04850KAOH AOH20160210235014402/10/16 23:50:31  5-MIN KAOH 110450Z AUTO 29013G20KT 10SM FEW039 OVC050 M10/M14 A3006 850 70 -2000 300/13G20 RMK AO2 SLP196 T11001144 410721100
04850KAOH AOH20160210235512702/10/16 23:55:31  5-MIN KAOH 110455Z AUTO 29013G20KT 10SM FEW039 OVC050 M10/M14 A3006 850 70 -2000 300/13G20 RMK AO2 T11001144
04850KAOH AOH20160211000012002/11/16 00:00:31  5-MIN KAOH 110500Z AUTO 29013KT 8SM FEW039 OVC050 M10/M14 A3006 850 70 -2000 300/13 RMK AO2 T11001144
04850KAOH AOH20160211000513602/11/16 00:05:31  5-MIN KAOH 110505Z AUTO 29015KT 7SM -SN FEW039 OVC050 M10/M14 A3006 840 70 -2000 290/15 RMK AO2 SNB02 P0000 T11001144
04850KAOH AOH20160211001013502/11/16 00:10:31  5-MIN KAOH 110510Z AUTO 29015G21KT 6SM -SN OVC050 M10/M14 A3007 840 70 -2000 300/15G21 RMK AO2 SNB02 P0000 T11001144
04850KAOH AOH20160211001513502/11/16 00:15:31  5-MIN KAOH 110515Z AUTO 29013G21KT 7SM -SN OVC050 M10/M14 A3007 840 70 -2000 300/13G21 RMK AO2 SNB02 P0000 T11001144
04850KAOH AOH20160211002012802/11/16 00:20:31  5-MIN KAOH 110520Z AUTO 28015KT 7SM OVC050 M10/M14 A3007 840 70 -2000 290/15 RMK AO2 SNB02E18 P0000 T11001144
04850KAOH AOH20160211002512802/11/16 00:25:31  5-MIN KAOH 110525Z AUTO 28013KT 9SM OVC050 M10/M14 A3007 840 70 -2000 290/13 RMK AO2 SNB02E18 P0000 T11001144
04850KAOH AOH20160211003012902/11/16 00:30:31  5-MIN KAOH 110530Z AUTO 28015KT 10SM OVC050 M10/M14 A3007 840 70 -2000 290/15 RMK AO2 SNB02E18 P0000 T11001144
04850KAOH AOH20160211003512902/11/16 00:35:31  5-MIN KAOH 110535Z AUTO 29013KT 10SM OVC050 M10/M14 A3007 840 70 -2000 300/13 RMK AO2 SNB02E18 P0000 T11001144
04850KAOH AOH20160211004012902/11/16 00:40:31  5-MIN KAOH 110540Z AUTO 29013KT 10SM OVC055 M10/M14 A3007 840 70 -2000 290/13 RMK AO2 SNB02E18 P0000 T11001144
04850KAOH AOH20160211004512902/11/16 00:45:31  5-MIN KAOH 110545Z AUTO 29012KT 10SM OVC055 M10/M14 A3007 840 70 -2000 290/12 RMK AO2 SNB02E18 P0000 T11001144
04850KAOH AOH20160211005016002/11/16 00:50:31  5-MIN KAOH 110550Z AUTO 28013KT 10SM OVC055 M10/M14 A3007 840 70 -2000 290/13 RMK AO2 SNB02E18 SLP198 P0000 60000 T11001144 11089 21100 51015
04850KAOH AOH20160211005511402/11/16 00:55:31  5-MIN KAOH 110555Z AUTO 28015KT 10SM OVC055 M10/M14 A3007 840 70 -2000 290/15 RMK AO2 T11001144
04850KAOH AOH20160211010011402/11/16 01:00:31  5-MIN KAOH 110600Z AUTO 29013KT 10SM OVC055 M10/M14 A3007 840 70 -2000 300/13 RMK AO2 T11001144
04850KAOH AOH20160211010511402/11/16 01:05:31  5-MIN KAOH 110605Z AUTO 29011KT 10SM OVC055 M10/M14 A3007 840 70 -2000 290/11 RMK AO2 T11001144
04850KAOH AOH20160211011011402/11/16 01:10:31  5-MIN KAOH 110610Z AUTO 29011KT 10SM OVC055 M10/M14 A3007 840 70 -2000 290/11 RMK AO2 T11001144
04850KAOH AOH20160211011511402/11/16 01:15:31  5-MIN KAOH 110615Z AUTO 29012KT 10SM OVC055 M11/M14 A3007 840 73 -2100 290/12 RMK AO2 T11061144
04850KAOH AOH20160211012011402/11/16 01:20:31  5-MIN KAOH 110620Z AUTO 28012KT 10SM OVC055 M10/M14 A3007 840 70 -2000 290/12 RMK AO2 T11001144
04850KAOH AOH20160211012511402/11/16 01:25:31  5-MIN KAOH 110625Z AUTO 29013KT 10SM OVC055 M10/M14 A3007 840 70 -2000 290/13 RMK AO2 T11001144
04850KAOH AOH20160211013011402/11/16 01:30:31  5-MIN KAOH 110630Z AUTO 28012KT 10SM OVC055 M10/M14 A3007 840 70 -2000 290/12 RMK AO2 T11001144
04850KAOH AOH20160211013511402/11/16 01:35:31  5-MIN KAOH 110635Z AUTO 29013KT 10SM OVC055 M10/M14 A3007 840 70 -2000 290/13 RMK AO2 T11001144
04850KAOH AOH20160211014011402/11/16 01:40:31  5-MIN KAOH 110640Z AUTO 28013KT 10SM OVC055 M11/M14 A3007 840 73 -2100 290/13 RMK AO2 T11061144
04850KAOH AOH20160211014511402/11/16 01:45:31  5-MIN KAOH 110645Z AUTO 29013KT 10SM OVC055 M11/M14 A3007 840 73 -2100 290/13 RMK AO2 T11061144
04850KAOH AOH20160211015012102/11/16 01:50:31  5-MIN KAOH 110650Z AUTO 29011KT 10SM OVC055 M11/M14 A3007 840 73 -2100 290/11 RMK AO2 SLP201 T11061144
04850KAOH AOH20160211015511402/11/16 01:55:31  5-MIN KAOH 110655Z AUTO 29011KT 10SM OVC055 M11/M14 A3007 840 73 -2100 290/11 RMK AO2 T11061144
04850KAOH AOH20160211020011402/11/16 02:00:31  5-MIN KAOH 110700Z AUTO 29012KT 10SM OVC055 M11/M14 A3007 840 73 -2100 300/12 RMK AO2 T11061144
04850KAOH AOH20160211020511402/11/16 02:05:31  5-MIN KAOH 110705Z AUTO 29011KT 10SM OVC055 M11/M14 A3007 840 73 -2100 290/11 RMK AO2 T11061144
04850KAOH AOH20160211021011402/11/16 02:10:31  5-MIN KAOH 110710Z AUTO 29011KT 10SM OVC055 M11/M14 A3007 840 73 -2100 300/11 RMK AO2 T11061144
04850KAOH AOH20160211021511402/11/16 02:15:31  5-MIN KAOH 110715Z AUTO 30010KT 10SM OVC055 M11/M14 A3007 840 73 -2100 300/10 RMK AO2 T11061144
04850KAOH AOH20160211022011402/11/16 02:20:31  5-MIN KAOH 110720Z AUTO 30008KT 10SM OVC055 M11/M14 A3007 840 73 -2100 300/08 RMK AO2 T11061144
04850KAOH AOH20160211022511402/11/16 02:25:31  5-MIN KAOH 110725Z AUTO 30010KT 10SM OVC055 M11/M14 A3007 840 73 -2100 300/10 RMK AO2 T11061144
04850KAOH AOH20160211023011402/11/16 02:30:31  5-MIN KAOH 110730Z AUTO 29009KT 10SM OVC055 M11/M14 A3007 840 73 -2100 300/09 RMK AO2 T11061144
04850KAOH AOH20160211023511402/11/16 02:35:31  5-MIN KAOH 110735Z AUTO 29010KT 10SM OVC055 M11/M14 A3007 840 73 -2100 300/10 RMK AO2 T11061144
04850KAOH AOH20160211024011402/11/16 02:40:31  5-MIN KAOH 110740Z AUTO 29010KT 10SM OVC055 M11/M14 A3007 840 73 -2100 300/10 RMK AO2 T11061144
04850KAOH AOH20160211024511402/11/16 02:45:31  5-MIN KAOH 110745Z AUTO 29007KT 10SM OVC055 M11/M14 A3007 840 73 -2100 290/07 RMK AO2 T11061144
04850KAOH AOH20160211025012102/11/16 02:50:31  5-MIN KAOH 110750Z AUTO 29008KT 10SM OVC055 M11/M14 A3007 840 73 -2100 290/08 RMK AO2 SLP202 T11061144
04850KAOH AOH20160211025511402/11/16 02:55:31  5-MIN KAOH 110755Z AUTO 28008KT 10SM OVC055 M11/M14 A3007 830 73 -2100 290/08 RMK AO2 T11061144
04850KAOH AOH20160211030011402/11/16 03:00:31  5-MIN KAOH 110800Z AUTO 28009KT 10SM OVC055 M11/M14 A3008 830 73 -2100 290/09 RMK AO2 T11061144
04850KAOH AOH20160211030511402/11/16 03:05:31  5-MIN KAOH 110805Z AUTO 28008KT 10SM OVC050 M11/M14 A3007 830 73 -2100 280/08 RMK AO2 T11061144
04850KAOH AOH20160211031011402/11/16 03:10:31  5-MIN KAOH 110810Z AUTO 28009KT 10SM OVC050 M11/M14 A3008 830 73 -2100 290/09 RMK AO2 T11061144
04850KAOH AOH20160211031511402/11/16 03:15:31  5-MIN KAOH 110815Z AUTO 29009KT 10SM OVC050 M11/M14 A3008 830 73 -2100 290/09 RMK AO2 T11061144
04850KAOH AOH20160211032011402/11/16 03:20:31  5-MIN KAOH 110820Z AUTO 29009KT 10SM OVC050 M11/M14 A3008 830 73 -2100 290/09 RMK AO2 T11061144
04850KAOH AOH20160211032511402/11/16 03:25:31  5-MIN KAOH 110825Z AUTO 29008KT 10SM OVC050 M11/M14 A3008 830 73 -2100 300/08 RMK AO2 T11061144
04850KAOH AOH20160211033011402/11/16 03:30:31  5-MIN KAOH 110830Z AUTO 28008KT 10SM OVC050 M11/M14 A3009 830 73 -2100 290/08 RMK AO2 T11061144
04850KAOH AOH20160211033511402/11/16 03:35:31  5-MIN KAOH 110835Z AUTO 28008KT 10SM OVC050 M11/M14 A3009 820 77 -2200 290/08 RMK AO2 T11111144
04850KAOH AOH20160211034011402/11/16 03:40:31  5-MIN KAOH 110840Z AUTO 28008KT 10SM OVC050 M11/M14 A3009 820 77 -2200 290/08 RMK AO2 T11111144
04850KAOH AOH20160211034511402/11/16 03:45:31  5-MIN KAOH 110845Z AUTO 28007KT 10SM OVC055 M11/M14 A3009 820 77 -2200 290/07 RMK AO2 T11111144
04850KAOH AOH20160211035012702/11/16 03:50:31  5-MIN KAOH 110850Z AUTO 29008KT 10SM OVC055 M11/M14 A3009 820 77 -2200 290/08 RMK AO2 SLP207 T11111144 51010
04850KAOH AOH20160211035511402/11/16 03:55:31  5-MIN KAOH 110855Z AUTO 28009KT 10SM OVC055 M11/M14 A3009 820 77 -2200 290/09 RMK AO2 T11111144
04850KAOH AOH20160211040011402/11/16 04:00:31  5-MIN KAOH 110900Z AUTO 29008KT 10SM OVC055 M11/M14 A3009 820 77 -2200 290/08 RMK AO2 T11111144
04850KAOH AOH20160211040511402/11/16 04:05:31  5-MIN KAOH 110905Z AUTO 29008KT 10SM OVC055 M11/M14 A3009 820 73 -2100 290/08 RMK AO2 T11061144
04850KAOH AOH20160211041011402/11/16 04:10:31  5-MIN KAOH 110910Z AUTO 28007KT 10SM OVC055 M11/M14 A3009 820 77 -2100 280/07 RMK AO2 T11061139
04850KAOH AOH20160211041511402/11/16 04:15:31  5-MIN KAOH 110915Z AUTO 28006KT 10SM OVC055 M11/M14 A3009 820 77 -2100 290/06 RMK AO2 T11061139
04850KAOH AOH20160211042011402/11/16 04:20:31  5-MIN KAOH 110920Z AUTO 29007KT 10SM OVC055 M11/M14 A3009 820 77 -2100 290/07 RMK AO2 T11061139
04850KAOH AOH20160211042511402/11/16 04:25:31  5-MIN KAOH 110925Z AUTO 28007KT 10SM OVC055 M11/M14 A3009 820 77 -2100 290/07 RMK AO2 T11061139
04850KAOH AOH20160211043011402/11/16 04:30:31  5-MIN KAOH 110930Z AUTO 29007KT 10SM OVC055 M11/M14 A3009 820 77 -2100 290/07 RMK AO2 T11061139
04850KAOH AOH20160211043511402/11/16 04:35:31  5-MIN KAOH 110935Z AUTO 28007KT 10SM OVC055 M11/M14 A3009 820 77 -2100 290/07 RMK AO2 T11061139
04850KAOH AOH20160211044011402/11/16 04:40:31  5-MIN KAOH 110940Z AUTO 29006KT 10SM OVC055 M11/M13 A3010 820 80 -2100 300/06 RMK AO2 T11061133
04850KAOH AOH20160211044511402/11/16 04:45:31  5-MIN KAOH 110945Z AUTO 29006KT 10SM OVC055 M11/M13 A3010 810 80 -2100 290/06 RMK AO2 T11061133
04850KAOH AOH20160211045012102/11/16 04:50:31  5-MIN KAOH 110950Z AUTO 29007KT 10SM OVC055 M11/M13 A3010 810 80 -2100 290/07 RMK AO2 SLP210 T11061133
04850KAOH AOH20160211045511402/11/16 04:55:31  5-MIN KAOH 110955Z AUTO 29006KT 10SM OVC055 M11/M13 A3010 810 80 -2100 290/06 RMK AO2 T11061133
04850KAOH AOH20160211050011402/11/16 05:00:31  5-MIN KAOH 111000Z AUTO 29007KT 10SM OVC055 M11/M13 A3010 810 80 -2100 290/07 RMK AO2 T11061133
04850KAOH AOH20160211050511402/11/16 05:05:31  5-MIN KAOH 111005Z AUTO 28006KT 10SM OVC055 M11/M13 A3010 810 80 -2100 280/06 RMK AO2 T11061133
04850KAOH AOH20160211051011402/11/16 05:10:31  5-MIN KAOH 111010Z AUTO 27008KT 10SM OVC055 M10/M13 A3011 810 77 -2000 280/08 RMK AO2 T11001133
04850KAOH AOH20160211051511402/11/16 05:15:31  5-MIN KAOH 111015Z AUTO 27008KT 10SM OVC055 M10/M13 A3011 800 77 -2000 270/08 RMK AO2 T11001133
04850KAOH AOH20160211052011402/11/16 05:20:31  5-MIN KAOH 111020Z AUTO 27007KT 10SM OVC055 M10/M13 A3011 800 77 -2000 270/07 RMK AO2 T11001133
04850KAOH AOH20160211052511402/11/16 05:25:31  5-MIN KAOH 111025Z AUTO 27009KT 10SM OVC055 M10/M13 A3011 800 80 -2000 280/09 RMK AO2 T11001128
04850KAOH AOH20160211053011402/11/16 05:30:31  5-MIN KAOH 111030Z AUTO 28007KT 10SM OVC055 M10/M13 A3012 800 77 -2000 290/07 RMK AO2 T11001133
04850KAOH AOH20160211053511402/11/16 05:35:31  5-MIN KAOH 111035Z AUTO 28007KT 10SM OVC055 M10/M13 A3012 800 80 -2000 280/07 RMK AO2 T11001128
04850KAOH AOH20160211054011402/11/16 05:40:31  5-MIN KAOH 111040Z AUTO 27006KT 10SM OVC055 M10/M13 A3012 800 80 -2000 280/06 RMK AO2 T11001128
04850KAOH AOH20160211054511402/11/16 05:45:31  5-MIN KAOH 111045Z AUTO 28007KT 10SM OVC050 M10/M13 A3012 790 80 -2000 280/07 RMK AO2 T11001128
04850KAOH AOH20160211055012102/11/16 05:50:31  5-MIN KAOH 111050Z AUTO 30008KT 10SM OVC050 M10/M13 A3012 790 80 -2000 300/08 RMK AO2 SLP218 T11001128
04850KAOH AOH20160211055511402/11/16 05:55:31  5-MIN KAOH 111055Z AUTO 29009KT 10SM OVC050 M10/M13 A3012 790 80 -2000 300/09 RMK AO2 T11001128
04850KAOH AOH20160211060011402/11/16 06:00:31  5-MIN KAOH 111100Z AUTO 27008KT 10SM OVC050 M10/M13 A3012 790 80 -2000 280/08 RMK AO2 T11001128
04850KAOH AOH20160211060511402/11/16 06:05:31  5-MIN KAOH 111105Z AUTO 28008KT 10SM OVC055 M10/M13 A3013 790 80 -2000 290/08 RMK AO2 T11001128
04850KAOH AOH20160211061011402/11/16 06:10:31  5-MIN KAOH 111110Z AUTO 29007KT 10SM OVC055 M10/M13 A3012 790 80 -2000 290/07 RMK AO2 T11001128
04850KAOH AOH20160211061511402/11/16 06:15:31  5-MIN KAOH 111115Z AUTO 29008KT 10SM OVC055 M10/M13 A3013 790 80 -2000 300/08 RMK AO2 T11001128
04850KAOH AOH20160211062011402/11/16 06:20:31  5-MIN KAOH 111120Z AUTO 28006KT 10SM OVC055 M10/M13 A3013 790 80 -2100 290/06 RMK AO2 T11001128
04850KAOH AOH20160211062511402/11/16 06:25:31  5-MIN KAOH 111125Z AUTO 28006KT 10SM OVC055 M10/M13 A3013 790 80 -2100 290/06 RMK AO2 T11001128
04850KAOH AOH20160211063011402/11/16 06:30:31  5-MIN KAOH 111130Z AUTO 29007KT 10SM OVC055 M10/M13 A3013 780 80 -2100 300/07 RMK AO2 T11001128
04850KAOH AOH20160211063511402/11/16 06:35:31  5-MIN KAOH 111135Z AUTO 28006KT 10SM OVC055 M10/M13 A3013 780 80 -2100 290/06 RMK AO2 T11001128
04850KAOH AOH20160211064011402/11/16 06:40:31  5-MIN KAOH 111140Z AUTO 29006KT 10SM OVC055 M10/M13 A3014 780 80 -2100 290/06 RMK AO2 T11001128
04850KAOH AOH20160211064511402/11/16 06:45:31  5-MIN KAOH 111145Z AUTO 29007KT 10SM OVC055 M10/M13 A3014 780 80 -2100 300/07 RMK AO2 T11001128
04850KAOH AOH20160211065013902/11/16 06:50:31  5-MIN KAOH 111150Z AUTO 29007KT 10SM OVC055 M10/M13 A3014 770 80 -2100 300/07 RMK AO2 SLP226 T11001128 11100 21111 53007
04850KAOH AOH20160211065511402/11/16 06:55:31  5-MIN KAOH 111155Z AUTO 30006KT 10SM OVC055 M10/M13 A3015 770 80 -2100 310/06 RMK AO2 T11001128
04850KAOH AOH20160211070011402/11/16 07:00:31  5-MIN KAOH 111200Z AUTO 29006KT 10SM OVC055 M10/M13 A3015 770 80 -2100 290/06 RMK AO2 T11001128
04850KAOH AOH20160211070511402/11/16 07:05:31  5-MIN KAOH 111205Z AUTO 29006KT 10SM OVC050 M10/M13 A3015 770 80 -2100 290/06 RMK AO2 T11001128
04850KAOH AOH20160211071011402/11/16 07:10:31  5-MIN KAOH 111210Z AUTO 28006KT 10SM OVC050 M10/M13 A3015 770 80 -2100 290/06 RMK AO2 T11001128
04850KAOH AOH20160211071511402/11/16 07:15:31  5-MIN KAOH 111215Z AUTO 29006KT 10SM OVC050 M10/M13 A3015 760 80 -2100 300/06 RMK AO2 T11001128
04850KAOH AOH20160211072011402/11/16 07:20:31  5-MIN KAOH 111220Z AUTO 28006KT 10SM OVC055 M10/M13 A3016 760 80 -2100 290/06 RMK AO2 T11001128
04850KAOH AOH20160211072511302/11/16 07:25:31  5-MIN KAOH 111225Z AUTO 29006KT 9SM OVC055 M10/M12 A3016 760 84 -2100 300/06 RMK AO2 T11001122
04850KAOH AOH20160211073011302/11/16 07:30:31  5-MIN KAOH 111230Z AUTO 29005KT 9SM OVC055 M10/M12 A3016 760 84 -2100 290/05 RMK AO2 T11001122
04850KAOH AOH20160211073511402/11/16 07:35:31  5-MIN KAOH 111235Z AUTO 28007KT 10SM OVC055 M10/M12 A3016 750 84 -2100 280/07 RMK AO2 T11001122
04850KAOH AOH20160211074011402/11/16 07:40:31  5-MIN KAOH 111240Z AUTO 27007KT 10SM OVC055 M10/M12 A3017 750 84 -2100 280/07 RMK AO2 T11001122
04850KAOH AOH20160211074511302/11/16 07:45:31  5-MIN KAOH 111245Z AUTO 27007KT 9SM OVC055 M10/M12 A3017 750 84 -2100 280/07 RMK AO2 T11001122
04850KAOH AOH20160211075012002/11/16 07:50:31  5-MIN KAOH 111250Z AUTO 28008KT 8SM OVC055 M10/M12 A3017 750 84 -2100 290/08 RMK AO2 SLP235 T11001122
04850KAOH AOH20160211075511302/11/16 07:55:31  5-MIN KAOH 111255Z AUTO 26007KT 8SM OVC055 M10/M12 A3017 740 84 -2100 270/07 RMK AO2 T11001122
04850KAOH AOH20160211080012002/11/16 08:00:31  5-MIN KAOH 111300Z AUTO 26007KT 8SM FEW012 OVC055 M10/M12 A3018 740 84 -2100 260/07 RMK AO2 T11001122
04850KAOH AOH20160211080512002/11/16 08:05:31  5-MIN KAOH 111305Z AUTO 25008KT 7SM SCT012 OVC055 M10/M12 A3018 740 84 -2100 260/08 RMK AO2 T11001122
04850KAOH AOH20160211081012302/11/16 08:10:31  5-MIN KAOH 111310Z AUTO 25007KT 6SM BR FEW012 OVC055 M10/M12 A3018 740 84 -2100 260/07 RMK AO2 T11001122
04850KAOH AOH20160211081512302/11/16 08:15:31  5-MIN KAOH 111315Z AUTO 24007KT 6SM BR FEW012 OVC055 M10/M12 A3018 740 84 -2100 250/07 RMK AO2 T11001122
04850KAOH AOH20160211082012002/11/16 08:20:31  5-MIN KAOH 111320Z AUTO 24007KT 7SM FEW012 OVC055 M10/M12 A3018 740 84 -2100 250/07 RMK AO2 T11001122
04850KAOH AOH20160211082512002/11/16 08:25:31  5-MIN KAOH 111325Z AUTO 24006KT 7SM FEW012 OVC055 M10/M12 A3018 740 84 -2100 250/06 RMK AO2 T11001122
04850KAOH AOH20160211083012002/11/16 08:30:31  5-MIN KAOH 111330Z AUTO 25007KT 8SM FEW012 OVC055 M10/M12 A3018 730 84 -2100 260/07 RMK AO2 T11001122
04850KAOH AOH20160211083511302/11/16 08:35:31  5-MIN KAOH 111335Z AUTO 25008KT 8SM OVC055 M10/M12 A3019 730 84 -2100 250/08 RMK AO2 T11001122
04850KAOH AOH20160211084012002/11/16 08:40:31  5-MIN KAOH 111340Z AUTO 24008KT 8SM FEW012 OVC055 M10/M12 A3019 730 84 -2100 250/08 RMK AO2 T11001122
04850KAOH AOH20160211084511302/11/16 08:45:31  5-MIN KAOH 111345Z AUTO 26007KT 8SM OVC055 M10/M12 A3019 730 84 -2100 260/07 RMK AO2 T11001122
04850KAOH AOH20160211085012002/11/16 08:50:31  5-MIN KAOH 111350Z AUTO 25008KT 7SM OVC055 M10/M12 A3019 730 84 -2100 260/08 RMK AO2 SLP241 T11001122
04850KAOH AOH20160211085511302/11/16 08:55:31  5-MIN KAOH 111355Z AUTO 25009KT 7SM OVC055 M09/M12 A3019 730 80 -2100 260/09 RMK AO2 T10941122
04850KAOH AOH20160211090011302/11/16 09:00:31  5-MIN KAOH 111400Z AUTO 25008KT 7SM OVC055 M09/M12 A3019 720 80 -2100 260/08 RMK AO2 T10941122
04850KAOH AOH20160211090511302/11/16 09:05:31  5-MIN KAOH 111405Z AUTO 26008KT 7SM OVC055 M09/M12 A3020 720 84 -2100 260/08 RMK AO2 T10941117
04850KAOH AOH20160211091012702/11/16 09:10:31  5-MIN KAOH 111410Z AUTO 24010KT 7SM FEW013 FEW045 OVC055 M09/M12 A3020 720 84 -2100 250/10 RMK AO2 T10941117
04850KAOH AOH20160211091513002/11/16 09:15:31  5-MIN KAOH 111415Z AUTO 24008KT 6SM BR FEW013 FEW033 OVC055 M10/M12 A3020 720 84 -2100 250/08 RMK AO2 T11001122
04850KAOH AOH20160211092013002/11/16 09:20:31  5-MIN KAOH 111420Z AUTO 25008KT 5SM HZ FEW013 FEW041 OVC055 M09/M12 A3021 710 80 -2100 250/08 RMK AO2 T10941122
04850KAOH AOH20160211092512302/11/16 09:25:31  5-MIN KAOH 111425Z AUTO 25008KT 5SM HZ FEW013 OVC055 M09/M12 A3021 710 80 -2100 250/08 RMK AO2 T10941122
04850KAOH AOH20160211093012302/11/16 09:30:31  5-MIN KAOH 111430Z AUTO 25008KT 6SM HZ FEW013 OVC055 M09/M12 A3021 710 80 -2100 250/08 RMK AO2 T10941122
04850KAOH AOH20160211093512002/11/16 09:35:31  5-MIN KAOH 111435Z AUTO 25008KT 7SM FEW013 OVC055 M09/M12 A3021 710 80 -2100 260/08 RMK AO2 T10941122
04850KAOH AOH20160211094012002/11/16 09:40:31  5-MIN KAOH 111440Z AUTO 25008KT 7SM SCT013 OVC055 M09/M12 A3021 710 84 -2100 260/08 RMK AO2 T10941117
04850KAOH AOH20160211094512002/11/16 09:45:31  5-MIN KAOH 111445Z AUTO 25007KT 7SM SCT013 OVC055 M09/M12 A3022 700 80 -2100 250/07 RMK AO2 T10941122
04850KAOH AOH20160211095013302/11/16 09:50:31  5-MIN KAOH 111450Z AUTO 24007KT 7SM SCT013 OVC055 M09/M12 A3022 700 80 -2000 250/07 RMK AO2 SLP250 T10891117 53018
04850KAOH AOH20160211095512002/11/16 09:55:31  5-MIN KAOH 111455Z AUTO 24009KT 7SM SCT013 OVC055 M09/M12 A3022 700 80 -2000 250/09 RMK AO2 T10891117
04850KAOH AOH20160211100012002/11/16 10:00:31  5-MIN KAOH 111500Z AUTO 28007KT 7SM SCT012 OVC055 M09/M12 A3022 700 80 -2000 290/07 RMK AO2 T10891117
04850KAOH AOH20160211100512002/11/16 10:05:31  5-MIN KAOH 111505Z AUTO 26007KT 7SM SCT012 OVC055 M09/M12 A3022 700 80 -2000 270/07 RMK AO2 T10891117
04850KAOH AOH20160211101012002/11/16 10:10:31  5-MIN KAOH 111510Z AUTO 27007KT 8SM SCT013 OVC055 M09/M12 A3022 700 80 -2000 280/07 RMK AO2 T10891117
04850KAOH AOH20160211101512002/11/16 10:15:31  5-MIN KAOH 111515Z AUTO 28007KT 9SM FEW013 OVC055 M08/M12 A3022 700 77 -1900 280/07 RMK AO2 T10831117
04850KAOH AOH20160211102012102/11/16 10:20:31  5-MIN KAOH 111520Z AUTO 29006KT 10SM FEW013 OVC055 M08/M12 A3022 700 74 -1900 300/06 RMK AO2 T10831122
04850KAOH AOH20160211102511402/11/16 10:25:31  5-MIN KAOH 111525Z AUTO 30009KT 10SM OVC055 M08/M13 A3022 700 67 -1900 310/09 RMK AO2 T10831133
04850KAOH AOH20160211103011402/11/16 10:30:31  5-MIN KAOH 111530Z AUTO 31007KT 10SM OVC055 M08/M13 A3022 700 67 -1900 310/07 RMK AO2 T10831133
04850KAOH AOH20160211103511402/11/16 10:35:31  5-MIN KAOH 111535Z AUTO 29007KT 10SM OVC055 M09/M13 A3023 700 70 -2000 300/07 RMK AO2 T10891133
04850KAOH AOH20160211104011402/11/16 10:40:31  5-MIN KAOH 111540Z AUTO 28008KT 10SM OVC055 M08/M13 A3023 690 70 -1900 290/08 RMK AO2 T10831128
04850KAOH AOH20160211104512102/11/16 10:45:31  5-MIN KAOH 111545Z AUTO 29007KT 10SM FEW023 OVC055 M08/M13 A3023 690 70 -1900 300/07 RMK AO2 T10831128
04850KAOH AOH20160211105012802/11/16 10:50:31  5-MIN KAOH 111550Z AUTO 27007KT 10SM SCT023 OVC055 M08/M13 A3023 690 70 -1900 280/07 RMK AO2 SLP255 T10831128
04850KAOH AOH20160211105512102/11/16 10:55:31  5-MIN KAOH 111555Z AUTO 32008KT 10SM SCT023 BKN055 M09/M14 A3023 690 67 -2000 330/08 RMK AO2 T10891139
04850KAOH AOH20160211110012102/11/16 11:00:31  5-MIN KAOH 111600Z AUTO 29009KT 10SM FEW022 BKN055 M08/M14 A3023 690 64 -2000 290/09 RMK AO2 T10831139
04850KAOH AOH20160211110512102/11/16 11:05:31  5-MIN KAOH 111605Z AUTO 28006KT 10SM SCT022 BKN055 M08/M13 A3023 690 67 -2000 290/06 RMK AO2 T10831133
04850KAOH AOH20160211111012102/11/16 11:10:31  5-MIN KAOH 111610Z AUTO 26006KT 10SM SCT022 BKN055 M08/M13 A3023 690 67 -2000 270/06 RMK AO2 T10831133
04850KAOH AOH20160211111512102/11/16 11:15:31  5-MIN KAOH 111615Z AUTO 28007KT 10SM FEW024 BKN055 M08/M13 A3023 690 67 -2000 290/07 RMK AO2 T10831133
04850KAOH AOH20160211112012102/11/16 11:20:31  5-MIN KAOH 111620Z AUTO 31009KT 10SM FEW024 BKN055 M08/M13 A3024 690 64 -1900 310/09 RMK AO2 T10781133
04850KAOH AOH20160211112512102/11/16 11:25:31  5-MIN KAOH 111625Z AUTO 29008KT 10SM SCT028 BKN055 M08/M13 A3024 690 64 -1900 290/08 RMK AO2 T10781133
04850KAOH AOH20160211113012102/11/16 11:30:31  5-MIN KAOH 111630Z AUTO 31008KT 10SM SCT028 BKN055 M08/M13 A3024 680 64 -1900 310/08 RMK AO2 T10781133
04850KAOH AOH20160211113512802/11/16 11:35:31  5-MIN KAOH 111635Z AUTO 30005KT 10SM BKN028 BKN042 BKN055 M08/M13 A3024 680 64 -1900 310/05 RMK AO2 T10781133
04850KAOH AOH20160211114012802/11/16 11:40:31  5-MIN KAOH 111640Z AUTO 32008KT 10SM BKN028 BKN034 OVC055 M08/M13 A3024 680 64 -1900 330/08 RMK AO2 T10781133
04850KAOH AOH20160211114512802/11/16 11:45:31  5-MIN KAOH 111645Z AUTO 31009KT 10SM BKN028 BKN034 OVC055 M08/M13 A3024 690 64 -1900 320/09 RMK AO2 T10781133
04850KAOH AOH20160211115013502/11/16 11:50:31  5-MIN KAOH 111650Z AUTO 28008KT 10SM BKN028 BKN034 OVC055 M08/M13 A3024 690 64 -1900 290/08 RMK AO2 SLP257 T10781133
04850KAOH AOH20160211115512802/11/16 11:55:31  5-MIN KAOH 111655Z AUTO 29011KT 10SM BKN028 BKN034 OVC050 M07/M13 A3024 690 65 -1800 290/11 RMK AO2 T10721128
04850KAOH AOH20160211120012802/11/16 12:00:31  5-MIN KAOH 111700Z AUTO 30007KT 10SM BKN028 BKN034 OVC043 M08/M14 A3024 690 62 -1900 310/07 RMK AO2 T10781139
04850KAOH AOH20160211120512102/11/16 12:05:31  5-MIN KAOH 111705Z AUTO 32009KT 10SM SCT028 OVC034 M08/M13 A3024 690 64 -1900 330/09 RMK AO2 T10781133
04850KAOH AOH20160211121012102/11/16 12:10:31  5-MIN KAOH 111710Z AUTO 28010KT 10SM SCT029 OVC034 M08/M13 A3024 690 64 -1900 290/10 RMK AO2 T10781133
04850KAOH AOH20160211121513602/11/16 12:15:31  5-MIN KAOH 111715Z AUTO 29007KT 7SM -SN BKN032 OVC041 M08/M13 A3023 690 64 -1900 300/07 RMK AO2 SNB15 P0000 T10781133
04850KAOH AOH20160211122013602/11/16 12:20:31  5-MIN KAOH 111720Z AUTO 28006KT 7SM -SN BKN032 OVC043 M08/M13 A3023 690 64 -1900 280/06 RMK AO2 SNB15 P0000 T10781133
04850KAOH AOH20160211122513702/11/16 12:25:31  5-MIN KAOH 111725Z AUTO 31007KT 9SM BKN030 OVC043 M08/M13 A3023 690 64 -1900 320/07 RMK AO2 SNB15E24 P0000 T10781133 $
04850KAOH AOH20160211123013302/11/16 12:30:31  5-MIN KAOH 111730Z AUTO 31010KT BKN032 OVC047 M07/M13 A3023 690 65 -1800 320/10 RMK AO2 SNB15E24 P0000 T10721128 $
04850KAOH AOH20160211123513302/11/16 12:35:31  5-MIN KAOH 111735Z AUTO 33007KT BKN032 OVC047 M08/M13 A3023 690 67 -1900 340/07 RMK AO2 SNB15E24 P0000 T10781128 $
04850KAOH AOH20160211124014002/11/16 12:40:31  5-MIN KAOH 111740Z AUTO 35008KT SCT030 BKN040 OVC047 M08/M13 A3023 700 67 -1900 350/08 RMK AO2 SNB15E24 P0000 T10781128 $
04850KAOH AOH20160211124514002/11/16 12:45:31  5-MIN KAOH 111745Z AUTO 31008KT SCT030 BKN040 OVC047 M07/M13 A3023 690 62 -1800 320/08 RMK AO2 SNB15E24 P0000 T10721133 $
04850KAOH AOH20160211125016402/11/16 12:50:31  5-MIN KAOH 111750Z AUTO 32005KT BKN032 OVC045 M07/M13 A3023 690 62 -1800 330/05 RMK AO2 SNB15E24 SLP253 P0000 60000 T10721133 11072 21100 51024 $
04850KAOH AOH20160211125511802/11/16 12:55:31  5-MIN KAOH 111755Z AUTO 32009KT BKN034 OVC045 M07/M13 A3023 690 62 -1800 320/09 RMK AO2 T10721133 $
04850KAOH AOH20160211130011802/11/16 13:00:31  5-MIN KAOH 111800Z AUTO 33009KT BKN034 OVC043 M07/M14 A3023 700 59 -1800 340/09 RMK AO2 T10721139 $
04850KAOH AOH20160211130511802/11/16 13:05:31  5-MIN KAOH 111805Z AUTO 31008KT SCT036 OVC045 M07/M14 A3023 700 59 -1800 310/08 RMK AO2 T10721139 $
04850KAOH AOH20160211131011802/11/16 13:10:31  5-MIN KAOH 111810Z AUTO 31008KT SCT034 OVC047 M07/M14 A3022 700 57 -1700 320/08 RMK AO2 T10671139 $
04850KAOH AOH20160211131511802/11/16 13:15:31  5-MIN KAOH 111815Z AUTO 32012KT SCT036 OVC047 M07/M14 A3023 700 59 -1800 320/12 RMK AO2 T10721139 $
04850KAOH AOH20160211132014002/11/16 13:20:31  5-MIN KAOH 111820Z AUTO 33011KT UP FEW029 SCT036 OVC047 M07/M13 A3023 690 62 -1800 330/11 RMK AO2 UPB17 P0000 T10721133 $
04850KAOH AOH20160211132514902/11/16 13:25:31  5-MIN KAOH 111825Z AUTO 32009KT -SN FEW029 BKN035 OVC046 M07/M12 A3023 690 68 -1800 320/09 RMK AO2 UPB17E21SNB21 P0000 T10721122 $
04850KAOH AOH20160211133014902/11/16 13:30:31  5-MIN KAOH 111830Z AUTO 29009KT -SN FEW025 BKN035 OVC048 M07/M13 A3023 690 65 -1800 300/09 RMK AO2 UPB17E21SNB21 P0000 T10721128 $
04850KAOH AOH20160211133514802/11/16 13:35:31  5-MIN KAOH 111835Z AUTO 32007KT BKN027 BKN034 OVC048 M07/M12 A3022 700 68 -1800 320/07 RMK AO2 UPB17E21SNB21E33 P0000 T10721122 $
04850KAOH AOH20160211134014802/11/16 13:40:31  5-MIN KAOH 111840Z AUTO 34009KT SCT027 BKN036 OVC045 M07/M14 A3022 700 59 -1800 340/09 RMK AO2 UPB17E21SNB21E33 P0000 T10721139 $
04850KAOH AOH20160211134514102/11/16 13:45:31  5-MIN KAOH 111845Z AUTO 30008KT SCT027 OVC038 M07/M14 A3022 700 59 -1800 310/08 RMK AO2 UPB17E21SNB21E33 P0000 T10721139 $
04850KAOH AOH20160211135014802/11/16 13:50:31  5-MIN KAOH 111850Z AUTO 29007KT SCT027 OVC038 M07/M14 A3022 700 59 -1800 290/07 RMK AO2 UPB17E21SNB21E33 SLP252 P0000 T10721139 $
04850KAOH AOH20160211135511802/11/16 13:55:31  5-MIN KAOH 111855Z AUTO 31009KT FEW027 OVC038 M07/M13 A3022 700 62 -1800 310/09 RMK AO2 T10721133 $
04850KAOH AOH20160211140012502/11/16 14:00:31  5-MIN KAOH 111900Z AUTO 31011KT FEW027 BKN038 OVC045 M07/M13 A3022 700 62 -1700 310/11 RMK AO2 T10671128 $
04850KAOH AOH20160211140511802/11/16 14:05:31  5-MIN KAOH 111905Z AUTO 31009KT BKN037 OVC047 M07/M14 A3023 700 59 -1800 320/09 RMK AO2 T10721139 $
04850KAOH AOH20160211141011802/11/16 14:10:31  5-MIN KAOH 111910Z AUTO 31011KT BKN037 OVC050 M07/M13 A3023 700 62 -1800 320/11 RMK AO2 T10721133 $
04850KAOH AOH20160211141511802/11/16 14:15:31  5-MIN KAOH 111915Z AUTO 29009KT BKN037 OVC050 M07/M14 A3023 690 59 -1800 290/09 RMK AO2 T10721139 $
04850KAOH AOH20160211142011802/11/16 14:20:31  5-MIN KAOH 111920Z AUTO 28007KT SCT037 OVC049 M07/M12 A3023 700 68 -1800 280/07 RMK AO2 T10721122 $
04850KAOH AOH20160211142511802/11/16 14:25:31  5-MIN KAOH 111925Z AUTO 29007KT FEW037 OVC049 M07/M12 A3023 700 65 -1700 290/07 RMK AO2 T10671122 $
04850KAOH AOH20160211143011802/11/16 14:30:31  5-MIN KAOH 111930Z AUTO 30005KT FEW037 OVC049 M07/M13 A3023 700 59 -1700 300/05 RMK AO2 T10671133 $
04850KAOH AOH20160211143511802/11/16 14:35:31  5-MIN KAOH 111935Z AUTO 28009KT FEW037 OVC049 M06/M12 A3023 700 62 -1700 290/09 RMK AO2 T10611122 $
04850KAOH AOH20160211144011802/11/16 14:40:31  5-MIN KAOH 111940Z AUTO 27012KT SCT035 OVC049 M07/M13 A3023 700 62 -1700 270/12 RMK AO2 T10671128 $
04850KAOH AOH20160211144511802/11/16 14:45:31  5-MIN KAOH 111945Z AUTO 27013KT SCT035 OVC047 M06/M13 A3023 700 57 -1700 280/13 RMK AO2 T10611133 $
04850KAOH AOH20160211145013102/11/16 14:50:31  5-MIN KAOH 111950Z AUTO 28011G18KT FEW035 OVC046 M06/M13 A3023 700 57 -1700 290/11G18 RMK AO2 SLP253 T10611133 $
04850KAOH AOH20160211145512402/11/16 14:55:31  5-MIN KAOH 111955Z AUTO 26010G18KT FEW035 OVC046 M07/M14 A3023 690 57 -1700 270/10G18 RMK AO2 T10671139 $
04850KAOH AOH20160211150011102/11/16 15:00:31  5-MIN KAOH 112000Z AUTO 27010KT OVC041 M07/M15 A3023 690 52 -1700 280/10 RMK AO2 T10671150 $
04850KAOH AOH20160211150511102/11/16 15:05:31  5-MIN KAOH 112005Z AUTO 27010KT OVC041 M07/M14 A3023 690 57 -1700 280/10 RMK AO2 T10671139 $
04850KAOH AOH20160211151011102/11/16 15:10:31  5-MIN KAOH 112010Z AUTO 31009KT OVC041 M07/M14 A3023 690 57 -1700 310/09 RMK AO2 T10671139 $
04850KAOH AOH20160211151511102/11/16 15:15:31  5-MIN KAOH 112015Z AUTO 33013KT OVC041 M07/M14 A3023 690 57 -1700 330/13 RMK AO2 T10671139 $
04850KAOH AOH20160211152011102/11/16 15:20:31  5-MIN KAOH 112020Z AUTO 32008KT OVC042 M07/M14 A3023 690 57 -1700 320/08 RMK AO2 T10671139 $
04850KAOH AOH20160211152511102/11/16 15:25:31  5-MIN KAOH 112025Z AUTO 29010KT OVC042 M07/M14 A3023 690 57 -1700 290/10 RMK AO2 T10671139 $
04850KAOH AOH20160211153011102/11/16 15:30:31  5-MIN KAOH 112030Z AUTO 31007KT OVC042 M07/M14 A3023 690 57 -1700 320/07 RMK AO2 T10671139 $
04850KAOH AOH20160211153511102/11/16 15:35:31  5-MIN KAOH 112035Z AUTO 28008KT OVC042 M07/M14 A3024 690 57 -1700 280/08 RMK AO2 T10671139 $
04850KAOH AOH20160211154011102/11/16 15:40:31  5-MIN KAOH 112040Z AUTO 30007KT OVC042 M07/M14 A3024 680 54 -1700 300/07 RMK AO2 T10671144 $
04850KAOH AOH20160211154511102/11/16 15:45:31  5-MIN KAOH 112045Z AUTO 30010KT OVC042 M07/M14 A3024 690 54 -1700 310/10 RMK AO2 T10671144 $
04850KAOH AOH20160211155013002/11/16 15:50:31  5-MIN KAOH 112050Z AUTO 33007KT OVC043 M07/M14 A3024 690 54 -1700 330/07 RMK AO2 SLP257 60000 T10671144 50002 $
04850KAOH AOH20160211155511102/11/16 15:55:31  5-MIN KAOH 112055Z AUTO 32007KT OVC043 M07/M14 A3024 690 54 -1700 330/07 RMK AO2 T10671144 $
04850KAOH AOH20160211160011602/11/16 16:00:31  5-MIN KAOH 112100Z AUTO 32008KT 10SM OVC043 M07/M15 A3024 680 52 -1700 320/08 RMK AO2 T10671150 $
04850KAOH AOH20160211160511602/11/16 16:05:31  5-MIN KAOH 112105Z AUTO 32008KT 10SM OVC043 M07/M15 A3024 680 52 -1700 320/08 RMK AO2 T10671150 $
04850KAOH AOH20160211161011602/11/16 16:10:31  5-MIN KAOH 112110Z AUTO 31009KT 10SM OVC043 M07/M14 A3024 680 54 -1700 320/09 RMK AO2 T10671144 $
04850KAOH AOH20160211161511602/11/16 16:15:31  5-MIN KAOH 112115Z AUTO 30007KT 10SM OVC043 M07/M15 A3024 680 52 -1700 300/07 RMK AO2 T10671150 $
04850KAOH AOH20160211162011602/11/16 16:20:31  5-MIN KAOH 112120Z AUTO 28009KT 10SM OVC043 M07/M14 A3024 680 54 -1700 290/09 RMK AO2 T10671144 $
04850KAOH AOH20160211162511602/11/16 16:25:31  5-MIN KAOH 112125Z AUTO 28009KT 10SM OVC043 M07/M14 A3025 680 54 -1800 280/09 RMK AO2 T10671144 $
04850KAOH AOH20160211163011602/11/16 16:30:31  5-MIN KAOH 112130Z AUTO 28008KT 10SM OVC043 M07/M14 A3025 680 57 -1800 290/08 RMK AO2 T10671139 $
04850KAOH AOH20160211163511602/11/16 16:35:31  5-MIN KAOH 112135Z AUTO 29006KT 10SM OVC045 M07/M14 A3025 680 54 -1800 300/06 RMK AO2 T10671144 $
04850KAOH AOH20160211164011602/11/16 16:40:31  5-MIN KAOH 112140Z AUTO 32008KT 10SM OVC045 M07/M14 A3025 680 57 -1800 330/08 RMK AO2 T10671139 $
04850KAOH AOH20160211164511602/11/16 16:45:31  5-MIN KAOH 112145Z AUTO 30009KT 10SM OVC045 M07/M14 A3025 680 57 -1800 310/09 RMK AO2 T10671139 $
04850KAOH AOH20160211165012302/11/16 16:50:31  5-MIN KAOH 112150Z AUTO 33009KT 10SM OVC045 M07/M13 A3025 680 59 -1800 330/09 RMK AO2 SLP259 T10671133 $
04850KAOH AOH20160211165511602/11/16 16:55:31  5-MIN KAOH 112155Z AUTO 31008KT 10SM OVC045 M07/M14 A3025 680 57 -1800 320/08 RMK AO2 T10671139 $
04850KAOH AOH20160211170011602/11/16 17:00:31  5-MIN KAOH 112200Z AUTO 32009KT 10SM OVC045 M07/M14 A3025 680 57 -1800 320/09 RMK AO2 T10671139 $
04850KAOH AOH20160211170511602/11/16 17:05:31  5-MIN KAOH 112205Z AUTO 32009KT 10SM OVC045 M07/M13 A3025 680 59 -1800 320/09 RMK AO2 T10671133 $
04850KAOH AOH20160211171011602/11/16 17:10:31  5-MIN KAOH 112210Z AUTO 32006KT 10SM OVC045 M07/M13 A3025 680 59 -1800 320/06 RMK AO2 T10671133 $
04850KAOH AOH20160211171511602/11/16 17:15:31  5-MIN KAOH 112215Z AUTO 31007KT 10SM OVC045 M07/M13 A3025 680 59 -1800 320/07 RMK AO2 T10671133 $
04850KAOH AOH20160211172011602/11/16 17:20:31  5-MIN KAOH 112220Z AUTO 29007KT 10SM OVC045 M07/M14 A3025 670 57 -1800 300/07 RMK AO2 T10671139 $
04850KAOH AOH20160211172511602/11/16 17:25:31  5-MIN KAOH 112225Z AUTO 27007KT 10SM OVC045 M07/M14 A3025 670 57 -1800 280/07 RMK AO2 T10671139 $
04850KAOH AOH20160211173011602/11/16 17:30:31  5-MIN KAOH 112230Z AUTO 28006KT 10SM OVC046 M07/M14 A3025 670 57 -1800 290/06 RMK AO2 T10671139 $
04850KAOH AOH20160211173511602/11/16 17:35:31  5-MIN KAOH 112235Z AUTO 30004KT 10SM OVC046 M07/M14 A3025 670 57 -1800 300/04 RMK AO2 T10671139 $
04850KAOH AOH20160211174011602/11/16 17:40:31  5-MIN KAOH 112240Z AUTO 29006KT 10SM OVC048 M07/M14 A3025 670 54 -1800 290/06 RMK AO2 T10671144 $
04850KAOH AOH20160211174511602/11/16 17:45:31  5-MIN KAOH 112245Z AUTO 27008KT 10SM OVC046 M07/M15 A3025 670 52 -1800 280/08 RMK AO2 T10671150 $
04850KAOH AOH20160211175012302/11/16 17:50:31  5-MIN KAOH 112250Z AUTO 27008KT 10SM OVC046 M07/M14 A3025 670 54 -1800 270/08 RMK AO2 SLP262 T10671144 $
04850KAOH AOH20160212015511302/12/16 01:55:31  5-MIN KAOH 120655Z AUTO 22005KT 10SM CLR M11/M15 A3022 700 70 -2200 220/05 RMK AO2 T11061150 $
04850KAOH AOH20160212020011302/12/16 02:00:31  5-MIN KAOH 120700Z AUTO 22005KT 10SM CLR M11/M15 A3022 710 70 -2200 230/05 RMK AO2 T11061150 $
04850KAOH AOH20160212020511302/12/16 02:05:31  5-MIN KAOH 120705Z AUTO 22005KT 10SM CLR M11/M15 A3021 710 70 -2200 230/05 RMK AO2 T11061150 $
04850KAOH AOH20160212021011302/12/16 02:10:31  5-MIN KAOH 120710Z AUTO 22005KT 10SM CLR M11/M15 A3021 710 70 -2200 230/05 RMK AO2 T11061150 $
04850KAOH AOH20160212021511302/12/16 02:15:31  5-MIN KAOH 120715Z AUTO 22005KT 10SM CLR M11/M15 A3021 710 73 -2300 230/05 RMK AO2 T11111150 $
04850KAOH AOH20160212022011302/12/16 02:20:31  5-MIN KAOH 120720Z AUTO 23004KT 10SM CLR M11/M15 A3021 710 73 -2300 240/04 RMK AO2 T11111150 $
04850KAOH AOH20160212022511302/12/16 02:25:31  5-MIN KAOH 120725Z AUTO 22005KT 10SM CLR M11/M15 A3021 710 73 -2300 230/05 RMK AO2 T11111150 $
04850KAOH AOH20160212023011302/12/16 02:30:31  5-MIN KAOH 120730Z AUTO 22005KT 10SM CLR M11/M15 A3021 710 73 -2300 220/05 RMK AO2 T11111150 $
04850KAOH AOH20160212023511302/12/16 02:35:31  5-MIN KAOH 120735Z AUTO 22004KT 10SM CLR M11/M15 A3021 710 70 -2200 220/04 RMK AO2 T11061150 $
04850KAOH AOH20160212024011302/12/16 02:40:31  5-MIN KAOH 120740Z AUTO 22005KT 10SM CLR M11/M15 A3020 720 70 -2200 220/05 RMK AO2 T11061150 $
04850KAOH AOH20160212024511302/12/16 02:45:31  5-MIN KAOH 120745Z AUTO 21005KT 10SM CLR M11/M14 A3020 720 73 -2200 220/05 RMK AO2 T11061144 $
04850KAOH AOH20160212025012002/12/16 02:50:31  5-MIN KAOH 120750Z AUTO 20004KT 10SM CLR M11/M15 A3020 720 70 -2200 210/04 RMK AO2 SLP245 T11061150 $
04850KAOH AOH20160212025511302/12/16 02:55:31  5-MIN KAOH 120755Z AUTO 20004KT 10SM CLR M11/M15 A3020 720 73 -2300 210/04 RMK AO2 T11111150 $
04850KAOH AOH20160212030011302/12/16 03:00:31  5-MIN KAOH 120800Z AUTO 21004KT 10SM CLR M11/M15 A3020 720 73 -2300 220/04 RMK AO2 T11111150 $
04850KAOH AOH20160212030511302/12/16 03:05:31  5-MIN KAOH 120805Z AUTO 21005KT 10SM CLR M11/M15 A3020 720 73 -2300 220/05 RMK AO2 T11111150 $
04850KAOH AOH20160212031011302/12/16 03:10:31  5-MIN KAOH 120810Z AUTO 20004KT 10SM CLR M11/M15 A3020 720 73 -2300 210/04 RMK AO2 T11111150 $
04850KAOH AOH20160212031511802/12/16 03:15:31  5-MIN KAOH 120815Z AUTO 20004KT 10SM CLR M11/M14 A3020 720 77 -2300 210/04 RMK AO2 T11111144 TSNO $
04850KAOH AOH20160212032011802/12/16 03:20:31  5-MIN KAOH 120820Z AUTO 20005KT 10SM CLR M11/M14 A3019 730 73 -2200 200/05 RMK AO2 T11061144 TSNO $
04850KAOH AOH20160212032511802/12/16 03:25:31  5-MIN KAOH 120825Z AUTO 20004KT 10SM CLR M11/M14 A3019 730 73 -2200 200/04 RMK AO2 T11061144 TSNO $
04850KAOH AOH20160212033011802/12/16 03:30:31  5-MIN KAOH 120830Z AUTO 19005KT 10SM CLR M11/M14 A3019 730 73 -2200 190/05 RMK AO2 T11061144 TSNO $
04850KAOH AOH20160212033511802/12/16 03:35:31  5-MIN KAOH 120835Z AUTO 18004KT 10SM CLR M11/M14 A3019 730 77 -2300 190/04 RMK AO2 T11111144 TSNO $
04850KAOH AOH20160212034011802/12/16 03:40:31  5-MIN KAOH 120840Z AUTO 19005KT 10SM CLR M11/M14 A3018 730 73 -2200 200/05 RMK AO2 T11061144 TSNO $
04850KAOH AOH20160212034511802/12/16 03:45:31  5-MIN KAOH 120845Z AUTO 19005KT 10SM CLR M11/M14 A3018 740 73 -2200 200/05 RMK AO2 T11061144 TSNO $
04850KAOH AOH20160212035013102/12/16 03:50:31  5-MIN KAOH 120850Z AUTO 19005KT 10SM CLR M11/M14 A3018 740 73 -2200 200/05 RMK AO2 SLP237 T11061144 58008 TSNO $
04850KAOH AOH20160212035511802/12/16 03:55:31  5-MIN KAOH 120855Z AUTO 20005KT 10SM CLR M11/M14 A3018 740 73 -2200 200/05 RMK AO2 T11061144 TSNO $
04850KAOH AOH20160212040011802/12/16 04:00:31  5-MIN KAOH 120900Z AUTO 20005KT 10SM CLR M11/M14 A3017 740 73 -2200 210/05 RMK AO2 T11061144 TSNO $
04850KAOH AOH20160212040511802/12/16 04:05:31  5-MIN KAOH 120905Z AUTO 19005KT 10SM CLR M11/M14 A3017 750 73 -2200 200/05 RMK AO2 T11061144 TSNO $
04850KAOH AOH20160212041011802/12/16 04:10:31  5-MIN KAOH 120910Z AUTO 20005KT 10SM CLR M11/M14 A3017 750 73 -2200 210/05 RMK AO2 T11061144 TSNO $
04850KAOH AOH20160212041511802/12/16 04:15:31  5-MIN KAOH 120915Z AUTO 20005KT 10SM CLR M11/M14 A3017 750 73 -2200 210/05 RMK AO2 T11061144 TSNO $
04850KAOH AOH20160212042011802/12/16 04:20:31  5-MIN KAOH 120920Z AUTO 20005KT 10SM CLR M11/M14 A3017 750 73 -2200 200/05 RMK AO2 T11061144 TSNO $
04850KAOH AOH20160212042511302/12/16 04:25:31  5-MIN KAOH 120925Z AUTO 19006KT 10SM CLR M11/M14 A3016 750 73 -2200 200/06 RMK AO2 T11061144 $
04850KAOH AOH20160212043011302/12/16 04:30:31  5-MIN KAOH 120930Z AUTO 19006KT 10SM CLR M11/M14 A3016 760 73 -2200 200/06 RMK AO2 T11061144 $
04850KAOH AOH20160212043511302/12/16 04:35:31  5-MIN KAOH 120935Z AUTO 19006KT 10SM CLR M11/M14 A3016 760 73 -2200 190/06 RMK AO2 T11061144 $
04850KAOH AOH20160212044011302/12/16 04:40:31  5-MIN KAOH 120940Z AUTO 19006KT 10SM CLR M11/M14 A3016 760 77 -2200 190/06 RMK AO2 T11111144 $
04850KAOH AOH20160212044511302/12/16 04:45:31  5-MIN KAOH 120945Z AUTO 18006KT 10SM CLR M11/M14 A3016 760 77 -2200 190/06 RMK AO2 T11111144 $
04850KAOH AOH20160212045012002/12/16 04:50:31  5-MIN KAOH 120950Z AUTO 18006KT 10SM CLR M11/M14 A3016 760 77 -2200 190/06 RMK AO2 SLP230 T11111144 $
04850KAOH AOH20160212045511302/12/16 04:55:31  5-MIN KAOH 120955Z AUTO 18006KT 10SM CLR M11/M14 A3016 760 77 -2200 190/06 RMK AO2 T11111144 $
04850KAOH AOH20160212050011302/12/16 05:00:31  5-MIN KAOH 121000Z AUTO 18006KT 10SM CLR M11/M14 A3016 760 77 -2200 190/06 RMK AO2 T11111144 $
04850KAOH AOH20160212050511602/12/16 05:05:31  5-MIN KAOH 121005Z AUTO 18006KT 10SM SCT100 M11/M14 A3016 760 77 -2200 190/06 RMK AO2 T11111144 $
04850KAOH AOH20160212051011602/12/16 05:10:31  5-MIN KAOH 121010Z AUTO 18005KT 10SM BKN100 M11/M14 A3016 760 73 -2200 190/05 RMK AO2 T11061144 $
04850KAOH AOH20160212051511602/12/16 05:15:31  5-MIN KAOH 121015Z AUTO 19006KT 10SM BKN100 M11/M14 A3015 760 77 -2200 190/06 RMK AO2 T11061139 $
04850KAOH AOH20160212052011602/12/16 05:20:31  5-MIN KAOH 121020Z AUTO 18006KT 10SM BKN100 M11/M14 A3015 760 77 -2200 190/06 RMK AO2 T11061139 $
04850KAOH AOH20160212052511602/12/16 05:25:31  5-MIN KAOH 121025Z AUTO 18007KT 10SM OVC100 M10/M14 A3015 760 73 -2100 190/07 RMK AO2 T11001139 $
04850KAOH AOH20160212053011602/12/16 05:30:31  5-MIN KAOH 121030Z AUTO 18006KT 10SM OVC100 M10/M14 A3015 760 73 -2100 190/06 RMK AO2 T11001139 $
04850KAOH AOH20160212053511602/12/16 05:35:31  5-MIN KAOH 121035Z AUTO 19007KT 10SM OVC100 M10/M13 A3015 760 77 -2100 190/07 RMK AO2 T11001133 $
04850KAOH AOH20160212054011602/12/16 05:40:31  5-MIN KAOH 121040Z AUTO 18007KT 10SM OVC100 M10/M13 A3015 770 77 -2100 190/07 RMK AO2 T11001133 $
04850KAOH AOH20160212054511602/12/16 05:45:31  5-MIN KAOH 121045Z AUTO 18006KT 10SM OVC110 M10/M13 A3015 770 77 -2100 180/06 RMK AO2 T11001133 $
04850KAOH AOH20160212055012302/12/16 05:50:31  5-MIN KAOH 121050Z AUTO 18006KT 10SM OVC100 M10/M13 A3015 770 77 -2100 180/06 RMK AO2 SLP227 T11001133 $
04850KAOH AOH20160212055511602/12/16 05:55:31  5-MIN KAOH 121055Z AUTO 18006KT 10SM OVC100 M10/M13 A3015 770 77 -2100 180/06 RMK AO2 T11001133 $
04850KAOH AOH20160212060011602/12/16 06:00:31  5-MIN KAOH 121100Z AUTO 18006KT 10SM OVC100 M10/M13 A3015 770 77 -2100 190/06 RMK AO2 T11001133 $
04850KAOH AOH20160212060511602/12/16 06:05:31  5-MIN KAOH 121105Z AUTO 18006KT 10SM OVC100 M10/M13 A3015 770 77 -2100 190/06 RMK AO2 T11001133 $
04850KAOH AOH20160212061011602/12/16 06:10:31  5-MIN KAOH 121110Z AUTO 19006KT 10SM OVC100 M09/M13 A3015 770 73 -2000 190/06 RMK AO2 T10941133 $
04850KAOH AOH20160212061511602/12/16 06:15:31  5-MIN KAOH 121115Z AUTO 19005KT 10SM OVC100 M09/M13 A3015 770 73 -2000 200/05 RMK AO2 T10941133 $
04850KAOH AOH20160212062011602/12/16 06:20:31  5-MIN KAOH 121120Z AUTO 19006KT 10SM OVC100 M09/M13 A3015 770 73 -2000 200/06 RMK AO2 T10941133 $
04850KAOH AOH20160212062511602/12/16 06:25:31  5-MIN KAOH 121125Z AUTO 20006KT 10SM OVC100 M09/M13 A3015 770 77 -2000 200/06 RMK AO2 T10941128 $
04850KAOH AOH20160212063011602/12/16 06:30:31  5-MIN KAOH 121130Z AUTO 20006KT 10SM OVC100 M09/M13 A3015 770 77 -2000 210/06 RMK AO2 T10941128 $
04850KAOH AOH20160212063512302/12/16 06:35:31  5-MIN KAOH 121135Z AUTO 20006KT 10SM FEW065 OVC100 M09/M13 A3015 770 77 -2000 210/06 RMK AO2 T10941128 $
04850KAOH AOH20160212064012302/12/16 06:40:31  5-MIN KAOH 121140Z AUTO 20006KT 10SM SCT065 OVC100 M09/M13 A3015 770 74 -1900 200/06 RMK AO2 T10891128 $
04850KAOH AOH20160212064512302/12/16 06:45:31  5-MIN KAOH 121145Z AUTO 20006KT 10SM SCT065 OVC100 M09/M13 A3015 770 74 -1900 210/06 RMK AO2 T10891128 $
04850KAOH AOH20160212065014802/12/16 06:50:31  5-MIN KAOH 121150Z AUTO 20007KT 10SM SCT065 OVC100 M09/M13 A3014 770 74 -1900 210/07 RMK AO2 SLP224 T10891128 11089 21111 58018 $
04850KAOH AOH20160212065512102/12/16 06:55:31  5-MIN KAOH 121155Z AUTO 20007KT 10SM SCT065 OVC100 M09/M13 A3014 770 74 -1900 210/07 RMK AO2 T10891128
04850KAOH AOH20160212070012102/12/16 07:00:31  5-MIN KAOH 121200Z AUTO 20007KT 10SM SCT065 OVC100 M09/M13 A3014 780 74 -1900 210/07 RMK AO2 T10891128
04850KAOH AOH20160212070512102/12/16 07:05:31  5-MIN KAOH 121205Z AUTO 20007KT 10SM FEW065 OVC100 M09/M13 A3014 780 74 -1900 210/07 RMK AO2 T10891128
04850KAOH AOH20160212071012102/12/16 07:10:31  5-MIN KAOH 121210Z AUTO 20007KT 10SM FEW070 OVC095 M09/M12 A3014 780 77 -1900 210/07 RMK AO2 T10891122
04850KAOH AOH20160212071512102/12/16 07:15:31  5-MIN KAOH 121215Z AUTO 21006KT 10SM SCT070 OVC095 M09/M13 A3014 780 74 -1900 210/06 RMK AO2 T10891128
04850KAOH AOH20160212072012102/12/16 07:20:31  5-MIN KAOH 121220Z AUTO 21006KT 10SM SCT070 OVC095 M09/M13 A3014 780 74 -1900 210/06 RMK AO2 T10891128
04850KAOH AOH20160212072512102/12/16 07:25:31  5-MIN KAOH 121225Z AUTO 21006KT 10SM BKN070 OVC095 M08/M12 A3014 780 74 -1800 220/06 RMK AO2 T10831122
04850KAOH AOH20160212073012102/12/16 07:30:31  5-MIN KAOH 121230Z AUTO 22007KT 10SM BKN070 OVC095 M08/M13 A3014 780 70 -1800 230/07 RMK AO2 T10831128
04850KAOH AOH20160212073512102/12/16 07:35:31  5-MIN KAOH 121235Z AUTO 21006KT 10SM BKN070 OVC095 M08/M12 A3013 780 74 -1800 220/06 RMK AO2 T10831122
04850KAOH AOH20160212074011402/12/16 07:40:31  5-MIN KAOH 121240Z AUTO 21005KT 10SM OVC070 M08/M12 A3013 780 74 -1800 220/05 RMK AO2 T10831122
04850KAOH AOH20160212074511402/12/16 07:45:31  5-MIN KAOH 121245Z AUTO 22005KT 10SM OVC065 M08/M12 A3013 790 74 -1800 220/05 RMK AO2 T10831122
04850KAOH AOH20160212075012102/12/16 07:50:31  5-MIN KAOH 121250Z AUTO 22006KT 10SM OVC065 M08/M12 A3013 790 74 -1800 220/06 RMK AO2 SLP219 T10831122
04850KAOH AOH20160212075511402/12/16 07:55:31  5-MIN KAOH 121255Z AUTO 22007KT 10SM OVC065 M08/M12 A3013 790 74 -1800 220/07 RMK AO2 T10831122
04850KAOH AOH20160212080011402/12/16 08:00:31  5-MIN KAOH 121300Z AUTO 21007KT 10SM OVC065 M08/M12 A3013 790 74 -1800 220/07 RMK AO2 T10831122
04850KAOH AOH20160212080511402/12/16 08:05:31  5-MIN KAOH 121305Z AUTO 22007KT 10SM OVC065 M08/M13 A3013 790 70 -1800 220/07 RMK AO2 T10831128
04850KAOH AOH20160212081011402/12/16 08:10:31  5-MIN KAOH 121310Z AUTO 22008KT 10SM OVC065 M08/M12 A3013 790 74 -1800 220/08 RMK AO2 T10831122
04850KAOH AOH20160212081511402/12/16 08:15:31  5-MIN KAOH 121315Z AUTO 22007KT 10SM OVC065 M08/M13 A3013 790 70 -1800 220/07 RMK AO2 T10831128
04850KAOH AOH20160212082011402/12/16 08:20:31  5-MIN KAOH 121320Z AUTO 22008KT 10SM OVC065 M08/M12 A3013 780 71 -1800 220/08 RMK AO2 T10781122
04850KAOH AOH20160212082511402/12/16 08:25:31  5-MIN KAOH 121325Z AUTO 22007KT 10SM OVC065 M08/M12 A3013 790 71 -1800 220/07 RMK AO2 T10781122
04850KAOH AOH20160212083011402/12/16 08:30:31  5-MIN KAOH 121330Z AUTO 21008KT 10SM OVC065 M08/M12 A3013 790 71 -1800 220/08 RMK AO2 T10781122
04850KAOH AOH20160212083511402/12/16 08:35:31  5-MIN KAOH 121335Z AUTO 21008KT 10SM OVC065 M08/M12 A3013 790 71 -1800 220/08 RMK AO2 T10781122
04850KAOH AOH20160212084011402/12/16 08:40:31  5-MIN KAOH 121340Z AUTO 22008KT 10SM OVC065 M08/M12 A3013 790 71 -1800 230/08 RMK AO2 T10781122
04850KAOH AOH20160212084511402/12/16 08:45:31  5-MIN KAOH 121345Z AUTO 22008KT 10SM OVC065 M08/M12 A3012 790 71 -1800 220/08 RMK AO2 T10781122
04850KAOH AOH20160212085012802/12/16 08:50:31  5-MIN KAOH 121350Z AUTO 22010KT 10SM BKN065 OVC090 M08/M12 A3012 790 71 -1800 230/10 RMK AO2 SLP217 T10781122
04850KAOH AOH20160212085512102/12/16 08:55:31  5-MIN KAOH 121355Z AUTO 22010KT 10SM BKN065 OVC095 M08/M12 A3012 790 71 -1800 220/10 RMK AO2 T10781122
04850KAOH AOH20160212090012102/12/16 09:00:31  5-MIN KAOH 121400Z AUTO 22010KT 10SM BKN065 OVC095 M08/M12 A3012 790 71 -1800 220/10 RMK AO2 T10781122
04850KAOH AOH20160212090512102/12/16 09:05:31  5-MIN KAOH 121405Z AUTO 22008KT 10SM SCT070 OVC095 M08/M12 A3012 790 71 -1700 230/08 RMK AO2 T10781122
04850KAOH AOH20160212091012102/12/16 09:10:31  5-MIN KAOH 121410Z AUTO 23009KT 10SM SCT070 OVC095 M07/M12 A3012 790 68 -1700 230/09 RMK AO2 T10721122
04850KAOH AOH20160212091512102/12/16 09:15:31  5-MIN KAOH 121415Z AUTO 22010KT 10SM FEW070 OVC095 M07/M12 A3012 790 68 -1700 230/10 RMK AO2 T10721122
04850KAOH AOH20160212092012102/12/16 09:20:31  5-MIN KAOH 121420Z AUTO 24012KT 10SM SCT070 OVC095 M07/M12 A3012 790 68 -1700 240/12 RMK AO2 T10721122
04850KAOH AOH20160212092512102/12/16 09:25:31  5-MIN KAOH 121425Z AUTO 24010KT 10SM SCT070 OVC090 M07/M12 A3012 790 68 -1700 240/10 RMK AO2 T10721122
04850KAOH AOH20160212093012102/12/16 09:30:31  5-MIN KAOH 121430Z AUTO 23012KT 10SM BKN075 OVC090 M07/M12 A3011 800 68 -1700 240/12 RMK AO2 T10721122
04850KAOH AOH20160212093512102/12/16 09:35:31  5-MIN KAOH 121435Z AUTO 22013KT 10SM BKN075 OVC090 M07/M12 A3011 800 68 -1700 230/13 RMK AO2 T10721122
04850KAOH AOH20160212094012102/12/16 09:40:31  5-MIN KAOH 121440Z AUTO 23011KT 10SM BKN070 OVC090 M07/M12 A3011 810 68 -1700 240/11 RMK AO2 T10721122
04850KAOH AOH20160212094512102/12/16 09:45:31  5-MIN KAOH 121445Z AUTO 22012KT 10SM BKN070 OVC090 M07/M12 A3011 810 68 -1700 220/12 RMK AO2 T10721122
04850KAOH AOH20160212095013402/12/16 09:50:31  5-MIN KAOH 121450Z AUTO 23011KT 10SM BKN075 OVC090 M07/M12 A3011 810 68 -1700 240/11 RMK AO2 SLP211 T10721122 56012
04850KAOH AOH20160212095512102/12/16 09:55:31  5-MIN KAOH 121455Z AUTO 23013KT 10SM BKN070 OVC090 M07/M12 A3010 810 68 -1700 230/13 RMK AO2 T10721122
04850KAOH AOH20160212100012102/12/16 10:00:31  5-MIN KAOH 121500Z AUTO 23010KT 10SM BKN070 OVC090 M07/M12 A3010 810 68 -1600 240/10 RMK AO2 T10671117
04850KAOH AOH20160212100512102/12/16 10:05:31  5-MIN KAOH 121505Z AUTO 23011KT 10SM SCT065 OVC090 M07/M12 A3010 810 68 -1600 240/11 RMK AO2 T10671117
04850KAOH AOH20160212101012102/12/16 10:10:31  5-MIN KAOH 121510Z AUTO 23013KT 10SM SCT070 OVC090 M07/M12 A3010 810 68 -1600 240/13 RMK AO2 T10671117
04850KAOH AOH20160212101512102/12/16 10:15:31  5-MIN KAOH 121515Z AUTO 23011KT 10SM BKN065 OVC090 M07/M12 A3010 810 65 -1600 240/11 RMK AO2 T10671122
04850KAOH AOH20160212102012102/12/16 10:20:31  5-MIN KAOH 121520Z AUTO 23011KT 10SM BKN065 OVC090 M07/M12 A3010 810 68 -1600 240/11 RMK AO2 T10671117
04850KAOH AOH20160212102512102/12/16 10:25:31  5-MIN KAOH 121525Z AUTO 23011KT 10SM BKN065 OVC090 M06/M12 A3010 810 65 -1500 240/11 RMK AO2 T10611117
04850KAOH AOH20160212103011402/12/16 10:30:31  5-MIN KAOH 121530Z AUTO 23011KT 10SM OVC065 M06/M12 A3010 810 65 -1500 240/11 RMK AO2 T10611117
04850KAOH AOH20160212103511402/12/16 10:35:31  5-MIN KAOH 121535Z AUTO 23012KT 10SM OVC065 M06/M12 A3010 820 65 -1500 230/12 RMK AO2 T10611117
04850KAOH AOH20160212104011402/12/16 10:40:31  5-MIN KAOH 121540Z AUTO 24012KT 10SM OVC065 M06/M12 A3009 820 65 -1500 240/12 RMK AO2 T10611117
04850KAOH AOH20160212104511402/12/16 10:45:31  5-MIN KAOH 121545Z AUTO 23014KT 10SM OVC065 M06/M12 A3009 820 65 -1500 240/14 RMK AO2 T10611117
04850KAOH AOH20160212105012102/12/16 10:50:31  5-MIN KAOH 121550Z AUTO 23014KT 10SM OVC065 M06/M12 A3009 820 65 -1500 240/14 RMK AO2 SLP206 T10611117
04850KAOH AOH20160212105511402/12/16 10:55:31  5-MIN KAOH 121555Z AUTO 24013KT 10SM OVC065 M06/M12 A3009 820 62 -1400 240/13 RMK AO2 T10561117
04850KAOH AOH20160212110011402/12/16 11:00:31  5-MIN KAOH 121600Z AUTO 25011KT 10SM OVC065 M06/M12 A3009 820 62 -1400 250/11 RMK AO2 T10561117
04850KAOH AOH20160212110511402/12/16 11:05:31  5-MIN KAOH 121605Z AUTO 25015KT 10SM OVC060 M06/M12 A3009 820 59 -1400 250/15 RMK AO2 T10561122
04850KAOH AOH20160212111012102/12/16 11:10:31  5-MIN KAOH 121610Z AUTO 25013KT 10SM FEW050 OVC060 M06/M12 A3009 820 62 -1400 260/13 RMK AO2 T10561117
04850KAOH AOH20160212111511402/12/16 11:15:31  5-MIN KAOH 121615Z AUTO 24015KT 10SM OVC055 M06/M12 A3010 820 62 -1400 240/15 RMK AO2 T10561117
04850KAOH AOH20160212112011402/12/16 11:20:31  5-MIN KAOH 121620Z AUTO 25012KT 10SM OVC055 M06/M12 A3009 820 62 -1400 260/12 RMK AO2 T10561117
04850KAOH AOH20160212112511402/12/16 11:25:31  5-MIN KAOH 121625Z AUTO 24013KT 10SM OVC055 M06/M12 A3009 820 62 -1400 240/13 RMK AO2 T10561117
04850KAOH AOH20160212113011402/12/16 11:30:31  5-MIN KAOH 121630Z AUTO 25012KT 10SM OVC055 M06/M12 A3008 830 62 -1400 250/12 RMK AO2 T10561117
04850KAOH AOH20160212113511402/12/16 11:35:31  5-MIN KAOH 121635Z AUTO 22011KT 10SM OVC055 M06/M12 A3008 830 62 -1400 230/11 RMK AO2 T10561117
04850KAOH AOH20160212114011402/12/16 11:40:31  5-MIN KAOH 121640Z AUTO 23015KT 10SM OVC055 M06/M12 A3008 830 59 -1400 240/15 RMK AO2 T10561122
04850KAOH AOH20160212114511402/12/16 11:45:31  5-MIN KAOH 121645Z AUTO 23014KT 10SM OVC060 M06/M12 A3007 830 59 -1400 240/14 RMK AO2 T10561122
04850KAOH AOH20160212115012102/12/16 11:50:31  5-MIN KAOH 121650Z AUTO 24013KT 10SM OVC060 M06/M12 A3007 830 59 -1400 250/13 RMK AO2 SLP201 T10561122
04850KAOH AOH20160212115511402/12/16 11:55:31  5-MIN KAOH 121655Z AUTO 24013KT 10SM OVC060 M06/M12 A3007 840 59 -1400 250/13 RMK AO2 T10561122
04850KAOH AOH20160212120011402/12/16 12:00:31  5-MIN KAOH 121700Z AUTO 25014KT 10SM OVC055 M06/M12 A3007 840 59 -1400 260/14 RMK AO2 T10561122
04850KAOH AOH20160212120511402/12/16 12:05:31  5-MIN KAOH 121705Z AUTO 24015KT 10SM OVC060 M06/M12 A3007 840 59 -1400 240/15 RMK AO2 T10561122
04850KAOH AOH20160212121011402/12/16 12:10:31  5-MIN KAOH 121710Z AUTO 24011KT 10SM OVC055 M05/M12 A3006 850 57 -1300 240/11 RMK AO2 T10501122
04850KAOH AOH20160212121511402/12/16 12:15:31  5-MIN KAOH 121715Z AUTO 24015KT 10SM OVC055 M06/M13 A3007 840 57 -1400 250/15 RMK AO2 T10561128
04850KAOH AOH20160212122011402/12/16 12:20:31  5-MIN KAOH 121720Z AUTO 24015KT 10SM OVC055 M05/M13 A3007 840 55 -1300 250/15 RMK AO2 T10501128
04850KAOH AOH20160212122511402/12/16 12:25:31  5-MIN KAOH 121725Z AUTO 25015KT 10SM OVC055 M05/M13 A3006 850 52 -1300 260/15 RMK AO2 T10501133
04850KAOH AOH20160212123011402/12/16 12:30:31  5-MIN KAOH 121730Z AUTO 25015KT 10SM OVC055 M05/M13 A3005 860 52 -1300 260/15 RMK AO2 T10501133
04850KAOH AOH20160212123511402/12/16 12:35:31  5-MIN KAOH 121735Z AUTO 25015KT 10SM OVC055 M06/M13 A3005 860 54 -1400 260/15 RMK AO2 T10561133
04850KAOH AOH20160212124011402/12/16 12:40:31  5-MIN KAOH 121740Z AUTO 25015KT 10SM OVC055 M05/M13 A3005 860 55 -1300 260/15 RMK AO2 T10501128
04850KAOH AOH20160212124511402/12/16 12:45:31  5-MIN KAOH 121745Z AUTO 25014KT 10SM OVC060 M05/M13 A3004 860 52 -1300 260/14 RMK AO2 T10501133
04850KAOH AOH20160212125013902/12/16 12:50:31  5-MIN KAOH 121750Z AUTO 25015KT 10SM OVC060 M05/M13 A3004 870 55 -1300 260/15 RMK AO2 SLP190 T10501128 11050 21089 58013
04850KAOH AOH20160212125511402/12/16 12:55:31  5-MIN KAOH 121755Z AUTO 25015KT 10SM OVC060 M05/M13 A3004 870 55 -1300 260/15 RMK AO2 T10501128
04850KAOH AOH20160212130011402/12/16 13:00:31  5-MIN KAOH 121800Z AUTO 26015KT 10SM OVC060 M05/M12 A3004 870 57 -1300 260/15 RMK AO2 T10501122
04850KAOH AOH20160212130512002/12/16 13:05:31  5-MIN KAOH 121805Z AUTO 25017G22KT 10SM OVC060 M05/M12 A3004 870 57 -1300 260/17G22 RMK AO2 T10501122
04850KAOH AOH20160212131012002/12/16 13:10:31  5-MIN KAOH 121810Z AUTO 25015G22KT 10SM OVC060 M04/M12 A3003 870 55 -1200 260/15G22 RMK AO2 T10441122
04850KAOH AOH20160212131512002/12/16 13:15:31  5-MIN KAOH 121815Z AUTO 27018G23KT 10SM OVC060 M04/M12 A3003 880 57 -1200 270/18G23 RMK AO2 T10441117
04850KAOH AOH20160212132012002/12/16 13:20:31  5-MIN KAOH 121820Z AUTO 26018G23KT 10SM OVC065 M04/M12 A3003 880 55 -1200 260/18G23 RMK AO2 T10441122
04850KAOH AOH20160212132511402/12/16 13:25:31  5-MIN KAOH 121825Z AUTO 27016KT 10SM OVC065 M04/M12 A3003 880 55 -1200 270/16 RMK AO2 T10441122
04850KAOH AOH20160212133012102/12/16 13:30:31  5-MIN KAOH 121830Z AUTO 25017KT 10SM FEW039 OVC070 M04/M12 A3003 880 57 -1200 250/17 RMK AO2 T10441117
04850KAOH AOH20160212133512102/12/16 13:35:31  5-MIN KAOH 121835Z AUTO 27019KT 10SM FEW039 OVC065 M04/M12 A3002 880 57 -1200 270/19 RMK AO2 T10441117
04850KAOH AOH20160212134012702/12/16 13:40:31  5-MIN KAOH 121840Z AUTO 27020G24KT 10SM SCT040 OVC070 M04/M12 A3002 880 57 -1200 270/20G24 RMK AO2 T10441117
04850KAOH AOH20160212134512102/12/16 13:45:31  5-MIN KAOH 121845Z AUTO 26020KT 10SM BKN040 OVC070 M04/M12 A3002 880 57 -1200 260/20 RMK AO2 T10441117
04850KAOH AOH20160212135013402/12/16 13:50:31  5-MIN KAOH 121850Z AUTO 27016G25KT 10SM BKN040 OVC070 M04/M11 A3002 890 60 -1200 270/16G25 RMK AO2 SLP180 T10441111
04850KAOH AOH20160212135512102/12/16 13:55:31  5-MIN KAOH 121855Z AUTO 27016KT 10SM BKN038 OVC060 M04/M11 A3002 890 60 -1200 280/16 RMK AO2 T10441111
04850KAOH AOH20160212140012702/12/16 14:00:31  5-MIN KAOH 121900Z AUTO 26020G23KT 10SM BKN038 OVC055 M04/M11 A3001 890 60 -1200 270/20G23 RMK AO2 T10441111
04850KAOH AOH20160212140512802/12/16 14:05:31  5-MIN KAOH 121905Z AUTO 27018KT 10SM BKN038 BKN047 OVC055 M04/M11 A3001 890 60 -1200 270/18 RMK AO2 T10441111
04850KAOH AOH20160212141012702/12/16 14:10:31  5-MIN KAOH 121910Z AUTO 25016G24KT 10SM BKN036 OVC055 M05/M11 A3001 890 62 -1300 250/16G24 RMK AO2 T10501111
04850KAOH AOH20160212141512802/12/16 14:15:31  5-MIN KAOH 121915Z AUTO 26015KT 10SM BKN033 BKN040 OVC050 M04/M11 A3001 890 62 -1200 260/15 RMK AO2 T10441106
04850KAOH AOH20160212142012702/12/16 14:20:31  5-MIN KAOH 121920Z AUTO 27021G25KT 10SM BKN035 OVC050 M05/M11 A3001 890 65 -1300 270/21G25 RMK AO2 T10501106
04850KAOH AOH20160212142512702/12/16 14:25:31  5-MIN KAOH 121925Z AUTO 26017G25KT 10SM BKN035 OVC050 M04/M11 A3001 890 62 -1200 270/17G25 RMK AO2 T10441106
04850KAOH AOH20160212143012702/12/16 14:30:31  5-MIN KAOH 121930Z AUTO 27017G24KT 10SM BKN035 OVC047 M04/M10 A3001 900 65 -1200 280/17G24 RMK AO2 T10441100
04850KAOH AOH20160212143514502/12/16 14:35:31  5-MIN KAOH 121935Z AUTO 26017G26KT 10SM BKN035 OVC048 M04/M10 A3001 900 65 -1200 260/17G26 RMK AO2 PK WND 27026/1932 T10441100
04850KAOH AOH20160212144014502/12/16 14:40:31  5-MIN KAOH 121940Z AUTO 26018G26KT 10SM BKN035 OVC048 M04/M10 A3001 900 65 -1200 260/18G26 RMK AO2 PK WND 27026/1932 T10441100
04850KAOH AOH20160212144513802/12/16 14:45:31  5-MIN KAOH 121945Z AUTO 27017G26KT 10SM OVC035 M04/M10 A3001 900 65 -1200 280/17G26 RMK AO2 PK WND 27026/1932 T10441100
04850KAOH AOH20160212145015202/12/16 14:50:31  5-MIN KAOH 121950Z AUTO 26016G23KT 10SM BKN033 OVC043 M05/M11 A3000 900 65 -1300 270/16G23 RMK AO2 PK WND 27026/1932 SLP177 T10501106
04850KAOH AOH20160212145512702/12/16 14:55:31  5-MIN KAOH 121955Z AUTO 26018G25KT 10SM BKN033 OVC041 M05/M10 A3000 900 68 -1300 270/18G25 RMK AO2 T10501100
04850KAOH AOH20160212150012002/12/16 15:00:31  5-MIN KAOH 122000Z AUTO 26021G25KT 10SM OVC035 M05/M11 A3000 900 65 -1300 270/21G25 RMK AO2 T10501106
04850KAOH AOH20160212150512002/12/16 15:05:31  5-MIN KAOH 122005Z AUTO 27018G24KT 10SM OVC035 M05/M11 A3000 900 65 -1300 280/18G24 RMK AO2 T10501106
04850KAOH AOH20160212151011402/12/16 15:10:31  5-MIN KAOH 122010Z AUTO 27017KT 10SM OVC035 M05/M10 A3000 900 68 -1300 270/17 RMK AO2 T10501100
04850KAOH AOH20160212151513602/12/16 15:15:31  5-MIN KAOH 122015Z AUTO 27019KT 8SM -SN SCT028 OVC035 M05/M10 A3000 900 68 -1300 270/19 RMK AO2 SNB13 P0000 T10501100
04850KAOH AOH20160212152014202/12/16 15:20:31  5-MIN KAOH 122020Z AUTO 26019G24KT 7SM -SN SCT028 OVC035 M05/M09 A3000 900 71 -1300 270/19G24 RMK AO2 SNB13 P0000 T10501094
04850KAOH AOH20160212152514202/12/16 15:25:31  5-MIN KAOH 122025Z AUTO 25017G24KT 8SM -SN SCT028 OVC035 M05/M09 A3000 910 71 -1300 260/17G24 RMK AO2 SNB13 P0000 T10501094
04850KAOH AOH20160212153013602/12/16 15:30:31  5-MIN KAOH 122030Z AUTO 26015KT 7SM -SN SCT028 OVC035 M05/M09 A3000 900 71 -1300 270/15 RMK AO2 SNB13 P0000 T10501094
04850KAOH AOH20160212153516002/12/16 15:35:31  5-MIN KAOH 122035Z AUTO 26020G26KT 4SM -SN SCT026 OVC033 M05/M09 A3000 910 74 -1300 260/20G26 RMK AO2 PK WND 26026/2035 SNB13 P0000 T10501089
04850KAOH AOH20160212154016702/12/16 15:40:31  5-MIN KAOH 122040Z AUTO 27019G26KT 3SM -SN FEW022 BKN029 OVC036 M05/M09 A3000 910 74 -1300 280/19G26 RMK AO2 PK WND 26026/2035 SNB13 P0000 T10501089
04850KAOH AOH20160212154516002/12/16 15:45:31  5-MIN KAOH 122045Z AUTO 27017G26KT 3SM -SN SCT022 OVC029 M05/M09 A3000 900 74 -1300 280/17G26 RMK AO2 PK WND 26026/2035 SNB13 P0000 T10501089
04850KAOH AOH20160212155016902/12/16 15:50:31  5-MIN KAOH 122050Z AUTO 27015G23KT 2 1/2SM -SN SCT022 BKN028 OVC033 M05/M08 A3000 900 77 -1300 280/15G23 RMK AO2 PK WND 26026/2035 VIS 2V3 SNB13 P0000
04850KAOH AOH20160212155514702/12/16 15:55:31  5-MIN KAOH 122055Z AUTO 27015G23KT 2 1/2SM -SN FEW018 BKN023 OVC028 M05/M08 A3000 900 77 -1300 270/15G23 RMK AO2 P0000 T10501083
04850KAOH AOH20160212160013602/12/16 16:00:31  5-MIN KAOH 122100Z AUTO 27014G21KT 2SM -SN BKN023 OVC028 M05/M08 A3000 900 77 -1300 280/14G21 RMK AO2 P0000 T10501083
04850KAOH AOH20160212160513602/12/16 16:05:31  5-MIN KAOH 122105Z AUTO 29018G22KT 2SM -SN BKN021 OVC026 M05/M08 A3000 900 77 -1300 300/18G22 RMK AO2 P0000 T10501083
04850KAOH AOH20160212161013602/12/16 16:10:31  5-MIN KAOH 122110Z AUTO 29013G22KT 2SM -SN SCT015 OVC023 M05/M08 A3001 900 81 -1300 290/13G22 RMK AO2 P0000 T10501078
04850KAOH AOH20160212161513702/12/16 16:15:31  5-MIN KAOH 122115Z AUTO 29015KT 3SM -SN SCT017 BKN023 OVC031 M05/M08 A3000 900 77 -1300 290/15 RMK AO2 P0000 T10501083
04850KAOH AOH20160212162014302/12/16 16:20:31  5-MIN KAOH 122120Z AUTO 29016G22KT 4SM -SN SCT017 BKN021 OVC033 M05/M08 A3001 900 77 -1300 300/16G22 RMK AO2 P0000 T10501083
04850KAOH AOH20160212162514302/12/16 16:25:31  5-MIN KAOH 122125Z AUTO 28018G24KT 4SM -SN SCT017 BKN021 OVC043 M05/M08 A3001 900 77 -1300 280/18G24 RMK AO2 P0000 T10501083
04850KAOH AOH20160212163016102/12/16 16:30:31  5-MIN KAOH 122130Z AUTO 29017G27KT 5SM -SN FEW017 BKN023 OVC044 M05/M08 A3001 900 77 -1300 300/17G27 RMK AO2 PK WND 27027/2126 P0000 T10501083
04850KAOH AOH20160212163516302/12/16 16:35:31  5-MIN KAOH 122135Z AUTO 29015G27KT 8SM FEW017 BKN039 OVC060 M05/M09 A3001 890 74 -1300 300/15G27 RMK AO2 PK WND 27027/2126 SNE34 P0000 T10501089
04850KAOH AOH20160212164017002/12/16 16:40:31  5-MIN KAOH 122140Z AUTO 28019G23KT 5SM -SN SCT021 BKN033 OVC060 M05/M09 A3001 890 74 -1300 290/19G23 RMK AO2 PK WND 27027/2126 SNE34B40 P0000 T10501089
04850KAOH AOH20160212164517202/12/16 16:45:31  5-MIN KAOH 122145Z AUTO 29019G23KT 3/4SM -SN SCT018 BKN023 OVC060 M06/M08 A3002 880 81 -1300 300/19G23 RMK AO2 PK WND 27027/2126 SNE34B40 P0000 T10561083
04850KAOH AOH20160212165016702/12/16 16:50:31  5-MIN KAOH 122150Z AUTO 28017G26KT 1/2SM -SN FZFG FEW012 BKN021 OVC060 M06/M08 A3002 880 84 -1300 290/17G26 RMK AO2 PK WND 27027/2126 SNE34B40 P0000
04850KAOH AOH20160212165514702/12/16 16:55:31  5-MIN KAOH 122155Z AUTO 29018G26KT 1 1/4SM -SN FEW012 BKN024 OVC060 M06/M08 A3002 890 81 -1300 300/18G26 RMK AO2 P0000 T10561083
04850KAOH AOH20160212170014302/12/16 17:00:31  5-MIN KAOH 122200Z AUTO 28017G21KT 3SM -SN BKN026 BKN036 OVC060 M06/M08 A3002 890 81 -1300 290/17G21 RMK AO2 P0000 T10561083
04850KAOH AOH20160212170514302/12/16 17:05:31  5-MIN KAOH 122205Z AUTO 29018G23KT 5SM -SN FEW018 BKN029 OVC060 M06/M09 A3002 880 74 -1300 300/18G23 RMK AO2 P0000 T10561094
04850KAOH AOH20160212171014502/12/16 17:10:31  5-MIN KAOH 122210Z AUTO 29018G23KT 9SM BKN031 BKN039 OVC060 M06/M09 A3002 880 74 -1400 290/18G23 RMK AO2 SNE07 P0000 T10561094
04850KAOH AOH20160212171516302/12/16 17:15:31  5-MIN KAOH 122215Z AUTO 30015G28KT 8SM FEW025 BKN033 OVC060 M06/M09 A3003 880 77 -1400 300/15G28 RMK AO2 PK WND 31028/2214 SNE07 P0000 T10561089
04850KAOH AOH20160212172017402/12/16 17:20:31  5-MIN KAOH 122220Z AUTO 32023G29KT 1 3/4SM -SN SCT019 BKN029 OVC060 M06/M09 A3003 880 81 -1400 320/23G29 RMK AO2 PK WND 32029/2219 SNE07B16 P0000 T10611089
04850KAOH AOH20160212172517002/12/16 17:25:31  5-MIN KAOH 122225Z AUTO 30020G29KT 1SM -SN SCT019 BKN025 OVC060 M07/M09 A3004 870 81 -1500 310/20G29 RMK AO2 PK WND 32029/2219 SNE07B16 P0000 T10671094
04850KAOH AOH20160212173017002/12/16 17:30:31  5-MIN KAOH 122230Z AUTO 30020G28KT 2SM -SN FEW019 BKN025 OVC060 M07/M10 A3004 870 77 -1500 310/20G28 RMK AO2 PK WND 32029/2219 SNE07B16 P0000 T10671100
04850KAOH AOH20160212173517002/12/16 17:35:31  5-MIN KAOH 122235Z AUTO 31020G27KT 7SM -SN FEW019 BKN027 OVC045 M07/M11 A3004 870 74 -1500 310/20G27 RMK AO2 PK WND 32029/2219 SNE07B16 P0000 T10671106
04850KAOH AOH20160212174016902/12/16 17:40:31  5-MIN KAOH 122240Z AUTO 30019G27KT 9SM FEW019 BKN027 OVC034 M07/M11 A3004 860 74 -1500 300/19G27 RMK AO2 PK WND 32029/2219 SNE07B16E37 P0000 T10671106
04850KAOH AOH20160212174517002/12/16 17:45:31  5-MIN KAOH 122245Z AUTO 30019G26KT 10SM FEW019 BKN027 OVC055 M07/M12 A3005 860 68 -1500 300/19G26 RMK AO2 PK WND 32029/2219 SNE07B16E37 P0000 T10671117
04850KAOH AOH20160212175016002/12/16 17:50:31  5-MIN KAOH 122250Z AUTO 30021G26KT 10SM SCT029 BKN036 OVC050 M07/M13 A3005 860 62 -1500 300/21G26 RMK AO2 PK WND 32029/2219 SNE07B16E37 P0000
04850KAOH AOH20160212175512702/12/16 17:55:31  5-MIN KAOH 122255Z AUTO 30017G26KT 10SM SCT032 BKN050 M07/M13 A3005 860 59 -1500 310/17G26 RMK AO2 T10671133
04850KAOH AOH20160212180013402/12/16 18:00:31  5-MIN KAOH 122300Z AUTO 30020G25KT 10SM FEW034 SCT046 BKN050 M07/M13 A3006 850 59 -1500 310/20G25 RMK AO2 T10671133
04850KAOH AOH20160212180516002/12/16 18:05:31  5-MIN KAOH 122305Z AUTO 30023G29KT 8SM -SN SCT032 BKN050 M07/M13 A3006 850 62 -1500 310/23G29 RMK AO2 PK WND 30029/2304 SNB04 P0000 T10671128
04850KAOH AOH20160212181016702/12/16 18:10:31  5-MIN KAOH 122310Z AUTO 30021G29KT 7SM -SN SCT032 SCT043 BKN050 M07/M12 A3006 850 65 -1500 310/21G29 RMK AO2 PK WND 30029/2304 SNB04 P0000 T10671122
04850KAOH AOH20160212181516702/12/16 18:15:31  5-MIN KAOH 122315Z AUTO 30018G25KT 8SM -SN SCT032 SCT043 BKN050 M07/M13 A3007 840 62 -1500 300/18G25 RMK AO2 PK WND 30029/2304 SNB04 P0000 T10671128
04850KAOH AOH20160212182015302/12/16 18:20:31  5-MIN KAOH 122320Z AUTO 30019KT 9SM FEW030 BKN055 M07/M13 A3007 840 65 -1600 310/19 RMK AO2 PK WND 30029/2304 SNB04E17 P0000 T10721128
04850KAOH AOH20160212182516002/12/16 18:25:31  5-MIN KAOH 122325Z AUTO 30013G23KT 10SM FEW030 BKN055 M07/M13 A3007 840 65 -1600 310/13G23 RMK AO2 PK WND 30029/2304 SNB04E17 P0000 T10721128
04850KAOH AOH20160212183016002/12/16 18:30:31  5-MIN KAOH 122330Z AUTO 29016G23KT 10SM FEW030 BKN055 M07/M13 A3007 840 65 -1600 300/16G23 RMK AO2 PK WND 30029/2304 SNB04E17 P0000 T10721128
04850KAOH AOH20160212183516002/12/16 18:35:31  5-MIN KAOH 122335Z AUTO 29013G23KT 10SM FEW036 SCT055 M07/M13 A3008 830 65 -1600 300/13G23 RMK AO2 PK WND 30029/2304 SNB04E17 P0000 T10721128
04850KAOH AOH20160212184015302/12/16 18:40:31  5-MIN KAOH 122340Z AUTO 30014G21KT 10SM FEW055 M08/M13 A3008 830 67 -1700 300/14G21 RMK AO2 PK WND 30029/2304 SNB04E17 P0000 T10781128
04850KAOH AOH20160212184515302/12/16 18:45:31  5-MIN KAOH 122345Z AUTO 30013G21KT 10SM FEW055 M08/M12 A3008 830 71 -1700 300/13G21 RMK AO2 PK WND 30029/2304 SNB04E17 P0000 T10781122
04850KAOH AOH20160212185017802/12/16 18:50:31  5-MIN KAOH 122350Z AUTO 30012KT 10SM FEW055 M08/M12 A3009 820 71 -1700 310/12 RMK AO2 PK WND 30029/2304 SNB04E17 SLP205 P0000 60000 T10781122 11044 21078 56013
04850KAOH AOH20160212185511102/12/16 18:55:31  5-MIN KAOH 122355Z AUTO 29014KT 10SM CLR M08/M12 A3009 820 71 -1700 300/14 RMK AO2 T10781122
04850KAOH AOH20160212190011102/12/16 19:00:31  5-MIN KAOH 130000Z AUTO 29016KT 10SM CLR M08/M13 A3009 820 67 -1700 300/16 RMK AO2 T10781128
04850KAOH AOH20160212190511102/12/16 19:05:31  5-MIN KAOH 130005Z AUTO 30015KT 10SM CLR M08/M13 A3010 820 67 -1700 300/15 RMK AO2 T10781128
04850KAOH AOH20160212191011402/12/16 19:10:31  5-MIN KAOH 130010Z AUTO 31019KT 10SM FEW031 M08/M13 A3010 810 67 -1700 310/19 RMK AO2 T10781128
04850KAOH AOH20160212191513802/12/16 19:15:31  5-MIN KAOH 130015Z AUTO 30021G26KT 10SM SCT031 M08/M13 A3010 810 67 -1700 310/21G26 RMK AO2 PK WND 30026/0014 T10781128
04850KAOH AOH20160212192016002/12/16 19:20:31  5-MIN KAOH 130020Z AUTO 31021G26KT 5SM -SN FEW020 BKN031 M08/M12 A3010 810 71 -1700 320/21G26 RMK AO2 PK WND 30026/0014 SNB20 P0000 T10781122
04850KAOH AOH20160212192516402/12/16 19:25:31  5-MIN KAOH 130025Z AUTO 30017G27KT 1 3/4SM -SN SCT015 BKN031 M08/M11 A3011 810 77 -1700 310/17G27 RMK AO2 PK WND 32027/0021 SNB20 P0000 T10781111
04850KAOH AOH20160212193016402/12/16 19:30:31  5-MIN KAOH 130030Z AUTO 30018G27KT 2 1/2SM -SN FEW013 SCT032 M08/M12 A3011 800 74 -1800 310/18G27 RMK AO2 PK WND 32027/0021 SNB20 P0000 T10831122
04850KAOH AOH20160212193515902/12/16 19:35:31  5-MIN KAOH 130035Z AUTO 31016G25KT 9SM FEW015 SCT032 M08/M12 A3011 800 77 -1800 310/16G25 RMK AO2 PK WND 32027/0021 SNB20E35 P0000 T10831117
04850KAOH AOH20160212194015902/12/16 19:40:31  5-MIN KAOH 130040Z AUTO 30016G25KT 9SM FEW015 SCT032 M08/M12 A3012 800 77 -1800 310/16G25 RMK AO2 PK WND 32027/0021 SNB20E35 P0000 T10831117
04850KAOH AOH20160212194514702/12/16 19:45:31  5-MIN KAOH 130045Z AUTO 30014KT 10SM FEW015 M08/M12 A3012 790 77 -1800 300/14 RMK AO2 PK WND 32027/0021 SNB20E35 P0000 T10831117
04850KAOH AOH20160212195013702/12/16 19:50:31  5-MIN KAOH 130050Z AUTO 30013KT 10SM FEW006 M08/M12 A3012 790 77 -1800 310/13 RMK AO2 PK WND 32027/0021 SNB20E35 P0000
04850KAOH AOH20160212195511402/12/16 19:55:31  5-MIN KAOH 130055Z AUTO 30016KT 10SM FEW024 M08/M12 A3012 790 74 -1800 310/16 RMK AO2 T10831122
04850KAOH AOH20160212200012702/12/16 20:00:31  5-MIN KAOH 130100Z AUTO 30014G22KT 10SM FEW024 FEW031 M08/M12 A3013 790 74 -1800 310/14G22 RMK AO2 T10831122
04850KAOH AOH20160212200512002/12/16 20:05:31  5-MIN KAOH 130105Z AUTO 30018G24KT 10SM FEW031 M08/M12 A3013 790 74 -1800 310/18G24 RMK AO2 T10831122
04850KAOH AOH20160212201011702/12/16 20:10:31  5-MIN KAOH 130110Z AUTO 31018G25KT 10SM CLR M08/M13 A3013 790 70 -1800 310/18G25 RMK AO2 T10831128
04850KAOH AOH20160212201511702/12/16 20:15:31  5-MIN KAOH 130115Z AUTO 30016G25KT 10SM CLR M08/M13 A3013 780 70 -1800 310/16G25 RMK AO2 T10831128
04850KAOH AOH20160212202011102/12/16 20:20:31  5-MIN KAOH 130120Z AUTO 30018KT 10SM CLR M08/M13 A3013 780 70 -1800 310/18 RMK AO2 T10831128
04850KAOH AOH20160212202511102/12/16 20:25:31  5-MIN KAOH 130125Z AUTO 30016KT 10SM CLR M08/M12 A3014 780 74 -1800 310/16 RMK AO2 T10831122
04850KAOH AOH20160212203011102/12/16 20:30:31  5-MIN KAOH 130130Z AUTO 31016KT 10SM CLR M09/M12 A3014 780 77 -1900 310/16 RMK AO2 T10891122
04850KAOH AOH20160212203511702/12/16 20:35:31  5-MIN KAOH 130135Z AUTO 30015G21KT 10SM CLR M09/M12 A3014 780 77 -1900 310/15G21 RMK AO2 T10891122
04850KAOH AOH20160212204011702/12/16 20:40:31  5-MIN KAOH 130140Z AUTO 31015G22KT 10SM CLR M09/M12 A3014 770 77 -1900 310/15G22 RMK AO2 T10891122
04850KAOH AOH20160212204511702/12/16 20:45:31  5-MIN KAOH 130145Z AUTO 31017G24KT 10SM CLR M09/M13 A3015 770 74 -1900 310/17G24 RMK AO2 T10891128
04850KAOH AOH20160212205012402/12/16 20:50:31  5-MIN KAOH 130150Z AUTO 30017G24KT 10SM CLR M09/M13 A3015 770 74 -1900 310/17G24 RMK AO2 SLP226 T10891128
04850KAOH AOH20160212205511102/12/16 20:55:31  5-MIN KAOH 130155Z AUTO 30013KT 10SM CLR M09/M12 A3015 760 77 -1900 310/13 RMK AO2 T10891122
04850KAOH AOH20160212210012002/12/16 21:00:31  5-MIN KAOH 130200Z AUTO 30014G21KT 10SM FEW038 M09/M12 A3015 760 77 -1900 300/14G21 RMK AO2 T10891122
04850KAOH AOH20160212210512002/12/16 21:05:31  5-MIN KAOH 130205Z AUTO 30014G23KT 10SM SCT036 M09/M13 A3015 760 74 -1900 310/14G23 RMK AO2 T10891128
04850KAOH AOH20160212211012002/12/16 21:10:31  5-MIN KAOH 130210Z AUTO 31018G24KT 10SM SCT036 M09/M13 A3016 760 74 -1900 310/18G24 RMK AO2 T10891128
04850KAOH AOH20160212211512002/12/16 21:15:31  5-MIN KAOH 130215Z AUTO 31016G24KT 10SM BKN038 M09/M12 A3016 760 77 -1900 320/16G24 RMK AO2 T10891122
04850KAOH AOH20160212212012902/12/16 21:20:31  5-MIN KAOH 130220Z AUTO 31018KT 8SM -SN BKN038 M09/M12 A3016 750 77 -1900 310/18 RMK AO2 SNB18 P0000 T10891122
04850KAOH AOH20160212212514202/12/16 21:25:31  5-MIN KAOH 130225Z AUTO 31013G22KT 4SM -SN FEW019 BKN035 M09/M12 A3016 750 77 -1900 310/13G22 RMK AO2 SNB18 P0000 T10891122
04850KAOH AOH20160212213013602/12/16 21:30:31  5-MIN KAOH 130230Z AUTO 31018KT 4SM -SN FEW019 OVC035 M09/M12 A3016 750 77 -1900 310/18 RMK AO2 SNB18 P0000 T10891122
04850KAOH AOH20160212213514302/12/16 21:35:31  5-MIN KAOH 130235Z AUTO 31015KT 6SM -SN FEW019 BKN035 OVC043 M09/M12 A3017 750 77 -2000 320/15 RMK AO2 SNB18 P0000 T10891122
04850KAOH AOH20160212214014302/12/16 21:40:31  5-MIN KAOH 130240Z AUTO 31015KT 6SM -SN FEW019 BKN028 OVC038 M09/M12 A3017 750 77 -2000 310/15 RMK AO2 SNB18 P0000 T10891122
04850KAOH AOH20160212214514902/12/16 21:45:31  5-MIN KAOH 130245Z AUTO 30017G21KT 6SM -SN FEW016 BKN021 OVC037 M09/M12 A3017 750 77 -2000 310/17G21 RMK AO2 SNB18 P0000 T10891122
04850KAOH AOH20160212215016802/12/16 21:50:31  5-MIN KAOH 130250Z AUTO 31016G22KT 8SM -SN FEW016 BKN021 OVC041 M09/M12 A3017 740 80 -2000 310/16G22 RMK AO2 SNB18 SLP234 P0000 60000 T10941122 53028
04850KAOH AOH20160212215513302/12/16 21:55:31  5-MIN KAOH 130255Z AUTO 30016G25KT 9SM FEW017 SCT022 OVC044 M09/M12 A3018 740 77 -2000 310/16G25 RMK AO2 T10891122
04850KAOH AOH20160212220013402/12/16 22:00:31  5-MIN KAOH 130300Z AUTO 30016G25KT 10SM FEW019 BKN026 OVC044 M09/M13 A3018 740 77 -2000 310/16G25 RMK AO2 T10941128
04850KAOH AOH20160212220514902/12/16 22:05:31  5-MIN KAOH 130305Z AUTO 30017G25KT 4SM -SN FEW013 BKN029 OVC044 M09/M13 A3018 740 77 -2000 310/17G25 RMK AO2 SNB03 P0000 T10941128
04850KAOH AOH20160212221014902/12/16 22:10:31  5-MIN KAOH 130310Z AUTO 30016G24KT 4SM -SN FEW013 BKN032 OVC044 M09/M13 A3018 730 77 -2000 310/16G24 RMK AO2 SNB03 P0000 T10941128
04850KAOH AOH20160212221514802/12/16 22:15:31  5-MIN KAOH 130315Z AUTO 30016G22KT 8SM FEW021 BKN029 OVC044 M09/M13 A3019 730 77 -2000 310/16G22 RMK AO2 SNB03E15 P0000 T10941128
04850KAOH AOH20160212222014802/12/16 22:20:31  5-MIN KAOH 130320Z AUTO 31017G23KT 9SM FEW021 BKN029 BKN044 M09/M13 A3019 730 77 -2000 320/17G23 RMK AO2 SNB03E15 P0000 T10941128
04850KAOH AOH20160212222514302/12/16 22:25:31  5-MIN KAOH 130325Z AUTO 31016KT 10SM FEW014 SCT024 BKN031 M10/M13 A3019 730 80 -2100 310/16 RMK AO2 SNB03E15 P0000 T11001128
04850KAOH AOH20160212223014302/12/16 22:30:31  5-MIN KAOH 130330Z AUTO 31015KT 10SM FEW014 FEW022 BKN031 M10/M13 A3019 730 80 -2100 310/15 RMK AO2 SNB03E15 P0000 T11001128
04850KAOH AOH20160212223513602/12/16 22:35:31  5-MIN KAOH 130335Z AUTO 30015KT 10SM FEW020 BKN031 M10/M13 A3020 720 80 -2100 310/15 RMK AO2 SNB03E15 P0000 T11001128
04850KAOH AOH20160212224013602/12/16 22:40:31  5-MIN KAOH 130340Z AUTO 30013KT 10SM FEW018 BKN029 M09/M13 A3020 720 77 -2100 310/13 RMK AO2 SNB03E15 P0000 T10941128
04850KAOH AOH20160212224513602/12/16 22:45:31  5-MIN KAOH 130345Z AUTO 30012KT 10SM BKN031 BKN036 M09/M13 A3020 720 77 -2100 310/12 RMK AO2 SNB03E15 P0000 T10941128
04850KAOH AOH20160212225013602/12/16 22:50:31  5-MIN KAOH 130350Z AUTO 30012KT 10SM BKN031 M09/M13 A3020 720 73 -2100 310/12 RMK AO2 SNB03E15 SLP244 P0000 T10941133
04850KAOH AOH20160212225511402/12/16 22:55:31  5-MIN KAOH 130355Z AUTO 30011KT 10SM BKN033 M10/M13 A3020 720 77 -2100 310/11 RMK AO2 T11001133
04850KAOH AOH20160212230012102/12/16 23:00:31  5-MIN KAOH 130400Z AUTO 31014KT 10SM SCT021 OVC033 M10/M14 A3020 720 73 -2100 310/14 RMK AO2 T11001139
04850KAOH AOH20160212230512802/12/16 23:05:31  5-MIN KAOH 130405Z AUTO 31013KT 10SM FEW020 BKN027 OVC033 M10/M14 A3020 720 73 -2100 320/13 RMK AO2 T11001139
04850KAOH AOH20160212231012802/12/16 23:10:31  5-MIN KAOH 130410Z AUTO 30013KT 10SM BKN029 BKN035 BKN055 M10/M14 A3021 710 73 -2100 310/13 RMK AO2 T11001139
04850KAOH AOH20160212231513402/12/16 23:15:31  5-MIN KAOH 130415Z AUTO 31015G21KT 10SM SCT029 BKN035 BKN060 M10/M14 A3021 710 73 -2100 310/15G21 RMK AO2 T11001139
04850KAOH AOH20160212232012702/12/16 23:20:31  5-MIN KAOH 130420Z AUTO 30015G21KT 10SM SCT027 SCT033 M10/M14 A3021 710 70 -2100 310/15G21 RMK AO2 T11001144
04850KAOH AOH20160212232512002/12/16 23:25:31  5-MIN KAOH 130425Z AUTO 31015G25KT 10SM SCT027 M10/M14 A3021 710 70 -2200 310/15G25 RMK AO2 T11001144
04850KAOH AOH20160212233012002/12/16 23:30:31  5-MIN KAOH 130430Z AUTO 31016G25KT 10SM SCT027 M10/M14 A3022 700 73 -2200 310/16G25 RMK AO2 T11001139
04850KAOH AOH20160212233511402/12/16 23:35:31  5-MIN KAOH 130435Z AUTO 30016KT 10SM BKN025 M10/M14 A3022 700 73 -2200 310/16 RMK AO2 T11001139
04850KAOH AOH20160212234012102/12/16 23:40:31  5-MIN KAOH 130440Z AUTO 31017KT 10SM BKN029 BKN043 M10/M14 A3022 700 73 -2200 310/17 RMK AO2 T11001139
04850KAOH AOH20160212234512102/12/16 23:45:31  5-MIN KAOH 130445Z AUTO 30016KT 10SM BKN029 BKN043 M10/M14 A3022 700 73 -2200 310/16 RMK AO2 T11001139
04850KAOH AOH20160212235011802/12/16 23:50:31  5-MIN KAOH 130450Z AUTO 31013KT 10SM SCT029 BKN043 BKN060 M11/M14 A3023 700 77 -2200 310/13 RMK AO2
04850KAOH AOH20160212235512802/12/16 23:55:31  5-MIN KAOH 130455Z AUTO 31015KT 10SM FEW018 BKN027 BKN043 M11/M14 A3023 690 77 -2200 310/15 RMK AO2 T11061139
04850KAOH AOH20160213000012702/13/16 00:00:31  5-MIN KAOH 130500Z AUTO 31015KT 8SM FEW020 BKN027 BKN055 M10/M14 A3023 690 73 -2200 310/15 RMK AO2 T11001139
04850KAOH AOH20160213000514302/13/16 00:05:31  5-MIN KAOH 130505Z AUTO 31013KT 6SM -SN FEW018 BKN025 BKN055 M11/M13 A3024 690 80 -2200 310/13 RMK AO2 SNB01 P0000 T11061133
04850KAOH AOH20160213001014302/13/16 00:10:31  5-MIN KAOH 130510Z AUTO 31012KT 7SM -SN BKN021 BKN026 BKN055 M11/M13 A3024 680 80 -2300 310/12 RMK AO2 SNB01 P0000 T11061133
04850KAOH AOH20160213001514202/13/16 00:15:31  5-MIN KAOH 130515Z AUTO 30012KT 9SM BKN018 BKN026 OVC055 M11/M13 A3024 680 80 -2300 310/12 RMK AO2 SNB01E12 P0000 T11061133
04850KAOH AOH20160213002013602/13/16 00:20:31  5-MIN KAOH 130520Z AUTO 31011KT 10SM BKN018 BKN025 M11/M13 A3024 680 80 -2300 310/11 RMK AO2 SNB01E12 P0000 T11061133
04850KAOH AOH20160213002513602/13/16 00:25:31  5-MIN KAOH 130525Z AUTO 30013KT 10SM BKN018 BKN025 M11/M13 A3024 680 84 -2300 310/13 RMK AO2 SNB01E12 P0000 T11111133
04850KAOH AOH20160213003013602/13/16 00:30:31  5-MIN KAOH 130530Z AUTO 30013KT 10SM BKN018 BKN025 M11/M14 A3025 680 80 -2300 310/13 RMK AO2 SNB01E12 P0000 T11111139
04850KAOH AOH20160213003512902/13/16 00:35:31  5-MIN KAOH 130535Z AUTO 30011KT 10SM BKN016 M11/M14 A3025 670 80 -2300 310/11 RMK AO2 SNB01E12 P0000 T11111139
04850KAOH AOH20160213004012902/13/16 00:40:31  5-MIN KAOH 130540Z AUTO 31012KT 10SM BKN016 M11/M13 A3025 670 84 -2300 310/12 RMK AO2 SNB01E12 P0000 T11111133
04850KAOH AOH20160213004512902/13/16 00:45:31  5-MIN KAOH 130545Z AUTO 31011KT 10SM BKN015 M11/M13 A3025 670 84 -2300 320/11 RMK AO2 SNB01E12 P0000 T11111133
04850KAOH AOH20160213005011902/13/16 00:50:31  5-MIN KAOH 130550Z AUTO 31010KT 10SM SCT013 M11/M13 A3025 670 84 -2300 310/10 RMK AO2 SNB01E12 P0000
04850KAOH AOH20160213005511402/13/16 00:55:31  5-MIN KAOH 130555Z AUTO 31012KT 10SM SCT013 M11/M14 A3025 670 80 -2300 310/12 RMK AO2 T11111139
04850KAOH AOH20160213105511402/13/16 10:55:31  5-MIN KAOH 131555Z AUTO 30009KT 10SM BKN041 M12/M18 A3047 470 58 -2700 310/09 RMK AO2 T11171183
04850KAOH AOH20160213110012002/13/16 11:00:31  5-MIN KAOH 131600Z AUTO 32014G18KT 10SM BKN044 M11/M17 A3048 470 58 -2500 330/14G18 RMK AO2 T11061172
04850KAOH AOH20160213110512002/13/16 11:05:31  5-MIN KAOH 131605Z AUTO 32015G19KT 10SM OVC044 M11/M18 A3048 470 58 -2600 330/15G19 RMK AO2 T11111178
04850KAOH AOH20160213111011402/13/16 11:10:31  5-MIN KAOH 131610Z AUTO 30013KT 10SM BKN044 M11/M18 A3048 460 58 -2600 310/13 RMK AO2 T11111178
04850KAOH AOH20160213111512102/13/16 11:15:31  5-MIN KAOH 131615Z AUTO 28012KT 10SM FEW039 BKN047 M11/M18 A3048 460 58 -2600 290/12 RMK AO2 T11111178
04850KAOH AOH20160213112012102/13/16 11:20:31  5-MIN KAOH 131620Z AUTO 29011KT 10SM FEW036 OVC047 M11/M17 A3048 460 61 -2600 300/11 RMK AO2 T11111172
04850KAOH AOH20160213112512802/13/16 11:25:31  5-MIN KAOH 131625Z AUTO 28011KT 10SM FEW030 FEW039 BKN047 M11/M17 A3048 470 64 -2600 290/11 RMK AO2 T11111167
04850KAOH AOH20160213113012802/13/16 11:30:31  5-MIN KAOH 131630Z AUTO 28012KT 10SM FEW030 SCT036 BKN048 M11/M17 A3048 460 64 -2600 280/12 RMK AO2 T11111167
04850KAOH AOH20160213113512802/13/16 11:35:31  5-MIN KAOH 131635Z AUTO 29012KT 10SM FEW028 SCT036 BKN048 M11/M17 A3048 460 64 -2600 300/12 RMK AO2 T11111167
04850KAOH AOH20160213114012802/13/16 11:40:31  5-MIN KAOH 131640Z AUTO 28014KT 10SM FEW028 SCT034 BKN049 M11/M16 A3048 470 64 -2500 280/14 RMK AO2 T11061161
04850KAOH AOH20160213114512802/13/16 11:45:31  5-MIN KAOH 131645Z AUTO 27009KT 10SM SCT028 SCT034 BKN049 M11/M16 A3048 470 67 -2600 280/09 RMK AO2 T11111161
04850KAOH AOH20160213115012802/13/16 11:50:31  5-MIN KAOH 131650Z AUTO 28011KT 10SM SCT028 BKN034 M11/M16 A3047 470 67 -2500 290/11 RMK AO2 SLP339 T11061156
04850KAOH AOH20160213115512102/13/16 11:55:31  5-MIN KAOH 131655Z AUTO 29011KT 10SM SCT028 BKN034 M11/M17 A3047 470 64 -2600 290/11 RMK AO2 T11111167
04850KAOH AOH20160213120012102/13/16 12:00:31  5-MIN KAOH 131700Z AUTO 30011KT 10SM FEW026 SCT034 M11/M16 A3047 470 64 -2500 300/11 RMK AO2 T11061161
04850KAOH AOH20160213120511402/13/16 12:05:31  5-MIN KAOH 131705Z AUTO 29010KT 10SM SCT026 M11/M16 A3048 470 64 -2500 300/10 RMK AO2 T11061161
04850KAOH AOH20160213121012102/13/16 12:10:31  5-MIN KAOH 131710Z AUTO 29010KT 10SM SCT028 BKN036 M11/M16 A3048 470 67 -2600 300/10 RMK AO2 T11111161
04850KAOH AOH20160213121512102/13/16 12:15:31  5-MIN KAOH 131715Z AUTO 30010KT 10SM SCT028 BKN034 M11/M16 A3047 470 64 -2500 300/10 RMK AO2 T11061161
04850KAOH AOH20160213122012102/13/16 12:20:31  5-MIN KAOH 131720Z AUTO 29011KT 10SM SCT028 BKN037 M11/M16 A3047 470 64 -2500 290/11 RMK AO2 T11061161
04850KAOH AOH20160213122511402/13/16 12:25:31  5-MIN KAOH 131725Z AUTO 27013KT 10SM BKN032 M11/M16 A3047 470 64 -2500 280/13 RMK AO2 T11061161
04850KAOH AOH20160213123012102/13/16 12:30:31  5-MIN KAOH 131730Z AUTO 29008KT 10SM BKN030 OVC038 M11/M16 A3047 470 64 -2500 300/08 RMK AO2 T11061161
04850KAOH AOH20160213123512102/13/16 12:35:31  5-MIN KAOH 131735Z AUTO 27016KT 10SM BKN030 OVC035 M11/M16 A3047 470 64 -2500 280/16 RMK AO2 T11061161
04850KAOH AOH20160213124012102/13/16 12:40:31  5-MIN KAOH 131740Z AUTO 28011KT 10SM BKN030 OVC037 M11/M16 A3047 470 64 -2500 290/11 RMK AO2 T11061161
04850KAOH AOH20160213124512102/13/16 12:45:31  5-MIN KAOH 131745Z AUTO 29015KT 10SM BKN030 OVC037 M11/M16 A3047 470 64 -2500 290/15 RMK AO2 T11061161
04850KAOH AOH20160213125011102/13/16 12:50:31  5-MIN KAOH 131750Z AUTO 29015KT 10SM BKN029 OVC037 M10/M16 A3047 470 61 -2400 300/15 RMK AO2
04850KAOH AOH20160213125512102/13/16 12:55:31  5-MIN KAOH 131755Z AUTO 29014KT 10SM SCT029 OVC036 M10/M16 A3047 470 64 -2400 290/14 RMK AO2 T11001156
04850KAOH AOH20160213130012102/13/16 13:00:31  5-MIN KAOH 131800Z AUTO 29014KT 10SM SCT030 OVC038 M10/M16 A3047 480 64 -2400 300/14 RMK AO2 T11001156
04850KAOH AOH20160213130512102/13/16 13:05:31  5-MIN KAOH 131805Z AUTO 29013KT 10SM FEW027 OVC038 M10/M16 A3046 480 64 -2400 290/13 RMK AO2 T11001156
04850KAOH AOH20160213131011402/13/16 13:10:31  5-MIN KAOH 131810Z AUTO 29012KT 10SM OVC034 M10/M16 A3046 480 61 -2400 290/12 RMK AO2 T11001161
04850KAOH AOH20160213131511402/13/16 13:15:31  5-MIN KAOH 131815Z AUTO 30010KT 10SM OVC034 M09/M16 A3046 480 61 -2400 310/10 RMK AO2 T10941156
04850KAOH AOH20160213132012102/13/16 13:20:31  5-MIN KAOH 131820Z AUTO 29009KT 10SM SCT029 OVC036 M09/M16 A3046 480 61 -2400 300/09 RMK AO2 T10941156
04850KAOH AOH20160213132512102/13/16 13:25:31  5-MIN KAOH 131825Z AUTO 29011KT 10SM BKN030 OVC038 M10/M16 A3046 480 61 -2400 290/11 RMK AO2 T11001161
04850KAOH AOH20160213133012002/13/16 13:30:31  5-MIN KAOH 131830Z AUTO 28015KT 9SM BKN030 OVC039 M10/M15 A3046 480 67 -2400 280/15 RMK AO2 T11001150
04850KAOH AOH20160213133512002/13/16 13:35:31  5-MIN KAOH 131835Z AUTO 29012KT 9SM FEW029 OVC038 M10/M16 A3045 490 64 -2400 300/12 RMK AO2 T11001156
04850KAOH AOH20160213134012702/13/16 13:40:31  5-MIN KAOH 131840Z AUTO 30012G19KT 10SM BKN032 OVC042 M09/M16 A3045 490 61 -2400 310/12G19 RMK AO2 T10941156
04850KAOH AOH20160213134512702/13/16 13:45:31  5-MIN KAOH 131845Z AUTO 29011G19KT 10SM SCT031 OVC040 M09/M16 A3045 490 61 -2300 290/11G19 RMK AO2 T10941156
04850KAOH AOH20160213135013402/13/16 13:50:31  5-MIN KAOH 131850Z AUTO 29016G21KT 10SM SCT030 OVC040 M09/M16 A3045 490 61 -2400 300/16G21 RMK AO2 SLP332 T10941156
04850KAOH AOH20160213135511902/13/16 13:55:31  5-MIN KAOH 131855Z AUTO 28013G21KT 9SM OVC038 M10/M16 A3045 490 64 -2400 290/13G21 RMK AO2 T11001156
04850KAOH AOH20160213140012602/13/16 14:00:31  5-MIN KAOH 131900Z AUTO 29013G19KT 8SM SCT031 OVC041 M09/M15 A3045 490 64 -2400 290/13G19 RMK AO2 T10941150
04850KAOH AOH20160213140512602/13/16 14:05:31  5-MIN KAOH 131905Z AUTO 28014G19KT 9SM BKN033 OVC041 M09/M16 A3045 490 61 -2300 290/14G19 RMK AO2 T10941156
04850KAOH AOH20160213141012102/13/16 14:10:31  5-MIN KAOH 131910Z AUTO 30010KT 10SM BKN033 OVC041 M09/M15 A3045 490 61 -2300 300/10 RMK AO2 T10891150
04850KAOH AOH20160213141512702/13/16 14:15:31  5-MIN KAOH 131915Z AUTO 29010G22KT 10SM BKN032 OVC041 M09/M16 A3045 490 59 -2300 300/10G22 RMK AO2 T10891156
04850KAOH AOH20160213142012702/13/16 14:20:31  5-MIN KAOH 131920Z AUTO 28014G22KT 10SM BKN032 OVC043 M09/M15 A3045 490 64 -2400 290/14G22 RMK AO2 T10941150
04850KAOH AOH20160213142514302/13/16 14:25:31  5-MIN KAOH 131925Z AUTO 29010KT 5SM -SN BKN029 BKN034 OVC041 M10/M15 A3045 490 67 -2400 290/10 RMK AO2 SNB23 P0000 T11001150
04850KAOH AOH20160213143014302/13/16 14:30:31  5-MIN KAOH 131930Z AUTO 29012KT 5SM -SN SCT029 BKN034 OVC045 M10/M15 A3045 490 67 -2400 300/12 RMK AO2 SNB23 P0000 T11001150
04850KAOH AOH20160213143513502/13/16 14:35:31  5-MIN KAOH 131935Z AUTO 27013KT 9SM BKN031 OVC045 M09/M14 A3045 490 67 -2400 280/13 RMK AO2 SNB23E34 P0000 T10941144
04850KAOH AOH20160213144014302/13/16 14:40:31  5-MIN KAOH 131940Z AUTO 28012KT 10SM BKN031 BKN040 OVC047 M09/M15 A3045 490 64 -2400 280/12 RMK AO2 SNB23E34 P0000 T10941150
04850KAOH AOH20160213144514902/13/16 14:45:31  5-MIN KAOH 131945Z AUTO 28012KT 6SM -SN BKN031 BKN038 OVC047 M10/M14 A3045 490 70 -2400 290/12 RMK AO2 SNB23E34B45 P0000 T11001144
04850KAOH AOH20160213145017202/13/16 14:50:31  5-MIN KAOH 131950Z AUTO 29011KT 2 1/2SM -SN BKN029 BKN038 OVC047 M10/M14 A3045 490 73 -2400 290/11 RMK AO2 VIS 1 3/4V5 SNB23E34B45 SLP331 P0000 T11001139
04850KAOH AOH20160213145513702/13/16 14:55:31  5-MIN KAOH 131955Z AUTO 29013KT 3SM -SN FEW026 BKN032 OVC047 M09/M14 A3045 490 67 -2300 290/13 RMK AO2 P0000 T10941144
04850KAOH AOH20160213150013702/13/16 15:00:31  5-MIN KAOH 132000Z AUTO 29012KT 3SM -SN BKN027 BKN034 OVC041 M10/M14 A3045 490 70 -2400 300/12 RMK AO2 P0000 T11001144
04850KAOH AOH20160213150522202/13/16 15:05:31  5-MIN KAOH 132005Z AUTO 29014KT 1 3/4SM -SN BKN023 BKN030 OVC036 M10/M14 A3045 490 73 -2400 300/14 RMK AO2 VIS 3/4V4 P0000 T11001139BKN028 OVC049 M10/M13 A3045 490 77 -2400 300/10 RMK AO2 P0000 T11001133
04850KAOH AOH20160213151513702/13/16 15:15:31  5-MIN KAOH 132015Z AUTO 28010KT 2SM -SN FEW016 BKN023 OVC049 M10/M13 A3045 500 77 -2400 280/10 RMK AO2 P0000 T11001133
04850KAOH AOH20160213152013702/13/16 15:20:31  5-MIN KAOH 132020Z AUTO 28012KT 5SM -SN SCT026 BKN030 OVC049 M09/M14 A3044 500 70 -2300 280/12 RMK AO2 P0000 T10941139
04850KAOH AOH20160213152513702/13/16 15:25:31  5-MIN KAOH 132025Z AUTO 28013KT 3SM -SN BKN022 BKN028 OVC050 M09/M13 A3044 500 73 -2300 280/13 RMK AO2 P0000 T10941133
04850KAOH AOH20160213153013702/13/16 15:30:31  5-MIN KAOH 132030Z AUTO 27016KT 2SM -SN FEW015 BKN022 OVC050 M09/M13 A3044 500 77 -2300 270/16 RMK AO2 P0000 T10941128
04850KAOH AOH20160213220011402/13/16 22:00:31  5-MIN KAOH 140300Z AUTO 27006KT 10SM OVC038 M13/M16 A3046 480 76 -2800 270/06 RMK AO2 T11281161
04850KAOH AOH20160213220511402/13/16 22:05:31  5-MIN KAOH 140305Z AUTO 26005KT 10SM OVC038 M13/M16 A3046 480 76 -2800 270/05 RMK AO2 T11281161
04850KAOH AOH20160213221011402/13/16 22:10:31  5-MIN KAOH 140310Z AUTO 25004KT 10SM OVC037 M13/M16 A3046 480 76 -2800 260/04 RMK AO2 T11281161
04850KAOH AOH20160213221511402/13/16 22:15:31  5-MIN KAOH 140315Z AUTO 26004KT 10SM OVC037 M13/M16 A3046 480 80 -2900 270/04 RMK AO2 T11331161
04850KAOH AOH20160213222011402/13/16 22:20:31  5-MIN KAOH 140320Z AUTO 28004KT 10SM BKN037 M13/M16 A3046 490 80 -2900 280/04 RMK AO2 T11331161
04850KAOH AOH20160213222511402/13/16 22:25:31  5-MIN KAOH 140325Z AUTO 26004KT 10SM BKN037 M13/M17 A3046 480 76 -2900 270/04 RMK AO2 T11331167
04850KAOH AOH20160213223011402/13/16 22:30:31  5-MIN KAOH 140330Z AUTO 24004KT 10SM SCT037 M13/M17 A3046 480 76 -2900 250/04 RMK AO2 T11331167
04850KAOH AOH20160213223511402/13/16 22:35:31  5-MIN KAOH 140335Z AUTO 25005KT 10SM SCT037 M13/M17 A3046 490 76 -2900 260/05 RMK AO2 T11331167
04850KAOH AOH20160213224011402/13/16 22:40:31  5-MIN KAOH 140340Z AUTO 27005KT 10SM FEW037 M13/M17 A3045 490 76 -2900 280/05 RMK AO2 T11331167
04850KAOH AOH20160213224511402/13/16 22:45:31  5-MIN KAOH 140345Z AUTO 29005KT 10SM FEW036 M13/M17 A3045 490 76 -2900 300/05 RMK AO2 T11331167
04850KAOH AOH20160213225011802/13/16 22:50:31  5-MIN KAOH 140350Z AUTO 29006KT 10SM CLR M13/M17 A3046 480 76 -2900 290/06 RMK AO2 SLP336 T11331167
04850KAOH AOH20160213225511102/13/16 22:55:31  5-MIN KAOH 140355Z AUTO 29007KT 10SM CLR M13/M17 A3046 480 73 -2800 300/07 RMK AO2 T11281167
04850KAOH AOH20160213230011102/13/16 23:00:31  5-MIN KAOH 140400Z AUTO 29007KT 10SM CLR M13/M17 A3045 490 73 -2800 300/07 RMK AO2 T11281167
04850KAOH AOH20160213230511102/13/16 23:05:31  5-MIN KAOH 140405Z AUTO 29007KT 10SM CLR M13/M17 A3045 490 76 -2900 300/07 RMK AO2 T11331167
04850KAOH AOH20160213231011102/13/16 23:10:31  5-MIN KAOH 140410Z AUTO 29005KT 10SM CLR M13/M17 A3045 490 76 -2900 290/05 RMK AO2 T11331167
04850KAOH AOH20160213231511102/13/16 23:15:31  5-MIN KAOH 140415Z AUTO 28005KT 10SM CLR M13/M17 A3045 490 76 -2900 280/05 RMK AO2 T11331167
04850KAOH AOH20160213232011102/13/16 23:20:31  5-MIN KAOH 140420Z AUTO 26004KT 10SM CLR M13/M17 A3045 490 76 -2900 270/04 RMK AO2 T11331167
04850KAOH AOH20160213232511102/13/16 23:25:31  5-MIN KAOH 140425Z AUTO 25004KT 10SM CLR M14/M17 A3045 490 76 -2900 260/04 RMK AO2 T11391172
04850KAOH AOH20160213233011102/13/16 23:30:31  5-MIN KAOH 140430Z AUTO 24004KT 10SM CLR M14/M17 A3045 490 76 -2900 250/04 RMK AO2 T11391172
04850KAOH AOH20160213233511102/13/16 23:35:31  5-MIN KAOH 140435Z AUTO 24003KT 10SM CLR M14/M17 A3045 490 76 -2900 250/03 RMK AO2 T11391172
04850KAOH AOH20160213234011102/13/16 23:40:31  5-MIN KAOH 140440Z AUTO 25005KT 10SM CLR M14/M17 A3045 490 76 -2900 250/05 RMK AO2 T11391172
04850KAOH AOH20160213234511102/13/16 23:45:31  5-MIN KAOH 140445Z AUTO 25005KT 10SM CLR M14/M17 A3045 490 76 -2900 250/05 RMK AO2 T11391172
04850KAOH AOH20160213235012802/13/16 23:50:31  5-MIN KAOH 140450Z AUTO 25006KT 10SM CLR M14/M17 A3045 490 76 -2900 250/06 RMK AO2 SLP333 T11391172 410891167
04850KAOH AOH20160213235511102/13/16 23:55:31  5-MIN KAOH 140455Z AUTO 25006KT 10SM CLR M14/M17 A3045 490 76 -2900 250/06 RMK AO2 T11391172
04850KAOH AOH20160214000011102/14/16 00:00:31  5-MIN KAOH 140500Z AUTO 26006KT 10SM CLR M14/M17 A3045 490 80 -3000 260/06 RMK AO2 T11441172
04850KAOH AOH20160214000511102/14/16 00:05:31  5-MIN KAOH 140505Z AUTO 26005KT 10SM CLR M14/M17 A3045 490 80 -3000 270/05 RMK AO2 T11441172
04850KAOH AOH20160214001011402/14/16 00:10:31  5-MIN KAOH 140510Z AUTO 26004KT 10SM FEW036 M15/M17 A3045 490 83 -3100 260/04 RMK AO2 T11501172
04850KAOH AOH20160214001511402/14/16 00:15:31  5-MIN KAOH 140515Z AUTO 25005KT 10SM SCT036 M15/M17 A3045 490 83 -3100 260/05 RMK AO2 T11501172
04850KAOH AOH20160214002011402/14/16 00:20:31  5-MIN KAOH 140520Z AUTO 25004KT 10SM BKN036 M14/M18 A3045 490 76 -3000 250/04 RMK AO2 T11441178
04850KAOH AOH20160214002511402/14/16 00:25:31  5-MIN KAOH 140525Z AUTO 25005KT 10SM BKN036 M15/M18 A3045 490 80 -3100 250/05 RMK AO2 T11501178
04850KAOH AOH20160214003011402/14/16 00:30:31  5-MIN KAOH 140530Z AUTO 25005KT 10SM BKN036 M14/M17 A3045 490 76 -2900 250/05 RMK AO2 T11391172
04850KAOH AOH20160214003511402/14/16 00:35:31  5-MIN KAOH 140535Z AUTO 24005KT 10SM OVC036 M14/M17 A3045 490 76 -2900 250/05 RMK AO2 T11391172
04850KAOH AOH20160214004011402/14/16 00:40:31  5-MIN KAOH 140540Z AUTO 24006KT 10SM OVC036 M14/M17 A3046 480 76 -2900 250/06 RMK AO2 T11391172
04850KAOH AOH20160214004511402/14/16 00:45:31  5-MIN KAOH 140545Z AUTO 26005KT 10SM OVC036 M14/M17 A3046 480 80 -2900 260/05 RMK AO2 T11391167
04850KAOH AOH20160214005013902/14/16 00:50:31  5-MIN KAOH 140550Z AUTO 28004KT 10SM BKN036 M14/M17 A3046 490 80 -3000 280/04 RMK AO2 SLP335 T11441172 11106 21150 58000
04850KAOH AOH20160214005511402/14/16 00:55:31  5-MIN KAOH 140555Z AUTO 27003KT 10SM BKN036 M15/M17 A3046 490 83 -3100 280/03 RMK AO2 T11501172
04850KAOH AOH20160214010011402/14/16 01:00:31  5-MIN KAOH 140600Z AUTO 29003KT 10SM SCT036 M15/M17 A3045 490 83 -3100 290/03 RMK AO2 T11501172
04850KAOH AOH20160214010511402/14/16 01:05:31  5-MIN KAOH 140605Z AUTO 30003KT 10SM SCT036 M15/M17 A3045 490 83 -3100 310/03 RMK AO2 T11501172
04850KAOH AOH20160214011011402/14/16 01:10:31  5-MIN KAOH 140610Z AUTO 30003KT 10SM FEW037 M14/M17 A3045 490 80 -3000 310/03 RMK AO2 T11441172
04850KAOH AOH20160214011511102/14/16 01:15:31  5-MIN KAOH 140615Z AUTO 29003KT 10SM CLR M14/M17 A3045 490 80 -3000 290/03 RMK AO2 T11441172
04850KAOH AOH20160214012011102/14/16 01:20:31  5-MIN KAOH 140620Z AUTO 28003KT 10SM CLR M14/M17 A3045 490 76 -2900 280/03 RMK AO2 T11391172
04850KAOH AOH20160214012511102/14/16 01:25:31  5-MIN KAOH 140625Z AUTO 00000KT 10SM CLR M14/M17 A3045 490 76 -2900 000/00 RMK AO2 T11391172
04850KAOH AOH20160214013011102/14/16 01:30:31  5-MIN KAOH 140630Z AUTO 00000KT 10SM CLR M14/M17 A3045 490 76 -2900 000/00 RMK AO2 T11391172
04850KAOH AOH20160214013511102/14/16 01:35:31  5-MIN KAOH 140635Z AUTO 00000KT 10SM CLR M14/M17 A3045 490 76 -2900 000/00 RMK AO2 T11391172
04850KAOH AOH20160214014011102/14/16 01:40:31  5-MIN KAOH 140640Z AUTO 00000KT 10SM CLR M14/M17 A3045 490 76 -2900 000/00 RMK AO2 T11391172
04850KAOH AOH20160214014511102/14/16 01:45:31  5-MIN KAOH 140645Z AUTO 27003KT 10SM CLR M14/M17 A3046 490 76 -2900 280/03 RMK AO2 T11391172
04850KAOH AOH20160214015011802/14/16 01:50:31  5-MIN KAOH 140650Z AUTO 00000KT 10SM CLR M14/M17 A3045 490 76 -2900 000/00 RMK AO2 SLP333 T11391172
04850KAOH AOH20160214015511102/14/16 01:55:31  5-MIN KAOH 140655Z AUTO 00000KT 10SM CLR M14/M17 A3045 490 76 -2900 000/00 RMK AO2 T11391172
04850KAOH AOH20160214020011102/14/16 02:00:31  5-MIN KAOH 140700Z AUTO 00000KT 10SM CLR M14/M17 A3045 490 76 -2900 000/00 RMK AO2 T11391172
04850KAOH AOH20160214020511102/14/16 02:05:31  5-MIN KAOH 140705Z AUTO 00000KT 10SM CLR M14/M17 A3045 490 80 -3000 000/00 RMK AO2 T11441172
04850KAOH AOH20160214021011102/14/16 02:10:31  5-MIN KAOH 140710Z AUTO 00000KT 10SM CLR M14/M17 A3045 490 76 -2900 000/00 RMK AO2 T11391172
04850KAOH AOH20160214021511102/14/16 02:15:31  5-MIN KAOH 140715Z AUTO 00000KT 10SM CLR M14/M17 A3045 490 80 -3000 000/00 RMK AO2 T11441172
04850KAOH AOH20160214022011102/14/16 02:20:31  5-MIN KAOH 140720Z AUTO 00000KT 10SM CLR M14/M17 A3045 490 80 -3000 000/00 RMK AO2 T11441172
04850KAOH AOH20160214022511102/14/16 02:25:31  5-MIN KAOH 140725Z AUTO 00000KT 10SM CLR M16/M18 A3045 490 83 -3200 000/00 RMK AO2 T11561178
04850KAOH AOH20160214023011102/14/16 02:30:31  5-MIN KAOH 140730Z AUTO 22003KT 10SM CLR M15/M18 A3045 490 80 -3100 220/03 RMK AO2 T11501178
04850KAOH AOH20160214023511102/14/16 02:35:31  5-MIN KAOH 140735Z AUTO 22003KT 10SM CLR M15/M18 A3045 490 80 -3100 230/03 RMK AO2 T11501178
04850KAOH AOH20160214024011102/14/16 02:40:31  5-MIN KAOH 140740Z AUTO 22003KT 10SM CLR M16/M18 A3045 490 83 -3200 230/03 RMK AO2 T11561178
04850KAOH AOH20160214024511102/14/16 02:45:31  5-MIN KAOH 140745Z AUTO 22003KT 10SM CLR M16/M18 A3045 490 83 -3200 230/03 RMK AO2 T11561178
04850KAOH AOH20160214025011802/14/16 02:50:31  5-MIN KAOH 140750Z AUTO 22003KT 10SM CLR M15/M18 A3045 490 80 -3100 230/03 RMK AO2 SLP333 T11501178
04850KAOH AOH20160214025511102/14/16 02:55:31  5-MIN KAOH 140755Z AUTO 24003KT 10SM CLR M15/M18 A3045 490 80 -3100 240/03 RMK AO2 T11501178
04850KAOH AOH20160214030011102/14/16 03:00:31  5-MIN KAOH 140800Z AUTO 23003KT 10SM CLR M15/M18 A3045 490 80 -3100 230/03 RMK AO2 T11501178
04850KAOH AOH20160214030511102/14/16 03:05:31  5-MIN KAOH 140805Z AUTO 21003KT 10SM CLR M16/M18 A3046 480 83 -3200 220/03 RMK AO2 T11561178
04850KAOH AOH20160214031011102/14/16 03:10:31  5-MIN KAOH 140810Z AUTO 22004KT 10SM CLR M16/M18 A3046 480 87 -3200 230/04 RMK AO2 T11611178
04850KAOH AOH20160214031511102/14/16 03:15:31  5-MIN KAOH 140815Z AUTO 23004KT 10SM CLR M16/M18 A3046 490 83 -3200 240/04 RMK AO2 T11561178
04850KAOH AOH20160214032011102/14/16 03:20:31  5-MIN KAOH 140820Z AUTO 22003KT 10SM CLR M16/M18 A3046 490 83 -3200 230/03 RMK AO2 T11561178
04850KAOH AOH20160214032511102/14/16 03:25:31  5-MIN KAOH 140825Z AUTO 21003KT 10SM CLR M16/M18 A3045 490 83 -3200 220/03 RMK AO2 T11561178
04850KAOH AOH20160214033011102/14/16 03:30:31  5-MIN KAOH 140830Z AUTO 00000KT 10SM CLR M16/M18 A3045 490 83 -3200 000/00 RMK AO2 T11561178
04850KAOH AOH20160214033511102/14/16 03:35:31  5-MIN KAOH 140835Z AUTO 00000KT 10SM CLR M16/M18 A3045 490 83 -3200 000/00 RMK AO2 T11611183
04850KAOH AOH20160214034011102/14/16 03:40:31  5-MIN KAOH 140840Z AUTO 00000KT 10SM CLR M16/M18 A3045 500 79 -3200 000/00 RMK AO2 T11561183
04850KAOH AOH20160214034511102/14/16 03:45:31  5-MIN KAOH 140845Z AUTO 00000KT 10SM CLR M16/M18 A3044 500 79 -3200 000/00 RMK AO2 T11561183
04850KAOH AOH20160214035012402/14/16 03:50:31  5-MIN KAOH 140850Z AUTO 00000KT 10SM CLR M16/M18 A3044 500 83 -3200 000/00 RMK AO2 SLP330 T11561178 55000
04850KAOH AOH20160214035511102/14/16 03:55:31  5-MIN KAOH 140855Z AUTO 00000KT 10SM CLR M16/M18 A3044 500 83 -3200 000/00 RMK AO2 T11561178
04850KAOH AOH20160214040011102/14/16 04:00:31  5-MIN KAOH 140900Z AUTO 00000KT 10SM CLR M16/M18 A3044 500 83 -3200 000/00 RMK AO2 T11561178
04850KAOH AOH20160214040511102/14/16 04:05:31  5-MIN KAOH 140905Z AUTO 00000KT 10SM CLR M16/M18 A3044 500 79 -3200 000/00 RMK AO2 T11561183
04850KAOH AOH20160214041011102/14/16 04:10:31  5-MIN KAOH 140910Z AUTO 00000KT 10SM CLR M16/M18 A3044 500 83 -3200 000/00 RMK AO2 T11611183
04850KAOH AOH20160214041511102/14/16 04:15:31  5-MIN KAOH 140915Z AUTO 00000KT 10SM CLR M16/M18 A3044 500 83 -3100 000/00 RMK AO2 T11561178
04850KAOH AOH20160214042011102/14/16 04:20:31  5-MIN KAOH 140920Z AUTO 00000KT 10SM CLR M16/M18 A3044 500 83 -3200 000/00 RMK AO2 T11561178
04850KAOH AOH20160214042511102/14/16 04:25:31  5-MIN KAOH 140925Z AUTO 00000KT 10SM CLR M16/M18 A3044 500 83 -3100 000/00 RMK AO2 T11561178
04850KAOH AOH20160214043011102/14/16 04:30:31  5-MIN KAOH 140930Z AUTO 00000KT 10SM CLR M16/M18 A3043 510 87 -3200 000/00 RMK AO2 T11611178
04850KAOH AOH20160214043511102/14/16 04:35:31  5-MIN KAOH 140935Z AUTO 00000KT 10SM CLR M16/M18 A3043 510 87 -3200 000/00 RMK AO2 T11611178
04850KAOH AOH20160214044011102/14/16 04:40:31  5-MIN KAOH 140940Z AUTO 00000KT 10SM CLR M16/M18 A3043 510 83 -3200 000/00 RMK AO2 T11611183
04850KAOH AOH20160214044511102/14/16 04:45:31  5-MIN KAOH 140945Z AUTO 00000KT 10SM CLR M17/M18 A3043 510 87 -3300 000/00 RMK AO2 T11671183
04850KAOH AOH20160214045011802/14/16 04:50:31  5-MIN KAOH 140950Z AUTO 00000KT 10SM CLR M16/M18 A3043 510 83 -3200 000/00 RMK AO2 SLP326 T11611183
04850KAOH AOH20160214045511102/14/16 04:55:31  5-MIN KAOH 140955Z AUTO 06003KT 10SM CLR M16/M18 A3043 510 83 -3200 070/03 RMK AO2 T11611183
04850KAOH AOH20160214050011102/14/16 05:00:31  5-MIN KAOH 141000Z AUTO 00000KT 10SM CLR M17/M18 A3043 510 87 -3300 000/00 RMK AO2 T11671183
04850KAOH AOH20160214050511102/14/16 05:05:31  5-MIN KAOH 141005Z AUTO 00000KT 10SM CLR M17/M19 A3043 510 83 -3300 000/00 RMK AO2 T11671189
04850KAOH AOH20160214051011102/14/16 05:10:31  5-MIN KAOH 141010Z AUTO 00000KT 10SM CLR M17/M19 A3043 510 83 -3300 000/00 RMK AO2 T11671189
04850KAOH AOH20160214051511102/14/16 05:15:31  5-MIN KAOH 141015Z AUTO 00000KT 10SM CLR M16/M19 A3043 510 79 -3200 000/00 RMK AO2 T11611189
04850KAOH AOH20160214052011102/14/16 05:20:31  5-MIN KAOH 141020Z AUTO 00000KT 10SM CLR M16/M18 A3043 510 83 -3200 000/00 RMK AO2 T11611183
04850KAOH AOH20160214052511102/14/16 05:25:31  5-MIN KAOH 141025Z AUTO 00000KT 10SM CLR M16/M18 A3043 510 83 -3200 000/00 RMK AO2 T11611183
04850KAOH AOH20160214053011102/14/16 05:30:31  5-MIN KAOH 141030Z AUTO 08003KT 10SM CLR M16/M18 A3043 510 83 -3200 080/03 RMK AO2 T11611183
04850KAOH AOH20160214053511102/14/16 05:35:31  5-MIN KAOH 141035Z AUTO 08003KT 10SM CLR M16/M18 A3043 510 87 -3200 080/03 RMK AO2 T11611178
04850KAOH AOH20160214054011102/14/16 05:40:31  5-MIN KAOH 141040Z AUTO 08003KT 10SM CLR M16/M18 A3043 510 83 -3200 080/03 RMK AO2 T11611183
04850KAOH AOH20160214054511102/14/16 05:45:31  5-MIN KAOH 141045Z AUTO 07003KT 10SM CLR M16/M18 A3042 520 83 -3200 080/03 RMK AO2 T11611183
04850KAOH AOH20160214055011802/14/16 05:50:31  5-MIN KAOH 141050Z AUTO 08004KT 10SM CLR M16/M19 A3042 520 79 -3200 080/04 RMK AO2 SLP324 T11611189
04850KAOH AOH20160214055511102/14/16 05:55:31  5-MIN KAOH 141055Z AUTO 07004KT 10SM CLR M16/M18 A3042 510 83 -3200 080/04 RMK AO2 T11611183
04850KAOH AOH20160214060011102/14/16 06:00:31  5-MIN KAOH 141100Z AUTO 09003KT 10SM CLR M16/M18 A3043 510 87 -3200 100/03 RMK AO2 T11611178
04850KAOH AOH20160214060511102/14/16 06:05:31  5-MIN KAOH 141105Z AUTO 08004KT 10SM CLR M16/M18 A3043 510 83 -3100 090/04 RMK AO2 T11561178
04850KAOH AOH20160214061011102/14/16 06:10:31  5-MIN KAOH 141110Z AUTO 08003KT 10SM CLR M16/M18 A3043 510 83 -3100 090/03 RMK AO2 T11561178
04850KAOH AOH20160214061511102/14/16 06:15:31  5-MIN KAOH 141115Z AUTO 09004KT 10SM CLR M16/M18 A3043 510 83 -3100 090/04 RMK AO2 T11561178
04850KAOH AOH20160214062011102/14/16 06:20:31  5-MIN KAOH 141120Z AUTO 10003KT 10SM CLR M16/M18 A3043 510 83 -3100 110/03 RMK AO2 T11561178
04850KAOH AOH20160214062511102/14/16 06:25:31  5-MIN KAOH 141125Z AUTO 12003KT 10SM CLR M16/M18 A3043 510 83 -3200 120/03 RMK AO2 T11611183
04850KAOH AOH20160214063011102/14/16 06:30:31  5-MIN KAOH 141130Z AUTO 13004KT 10SM CLR M16/M18 A3043 510 83 -3200 140/04 RMK AO2 T11611183
04850KAOH AOH20160214063511102/14/16 06:35:31  5-MIN KAOH 141135Z AUTO 15003KT 10SM CLR M17/M19 A3043 510 83 -3300 150/03 RMK AO2 T11671189
04850KAOH AOH20160214064011102/14/16 06:40:31  5-MIN KAOH 141140Z AUTO 14004KT 10SM CLR M17/M18 A3043 510 87 -3300 140/04 RMK AO2 T11671183
04850KAOH AOH20160214064511102/14/16 06:45:31  5-MIN KAOH 141145Z AUTO 14004KT 10SM CLR M17/M18 A3043 510 87 -3300 150/04 RMK AO2 T11671183
04850KAOH AOH20160214065013602/14/16 06:50:31  5-MIN KAOH 141150Z AUTO 14005KT 10SM CLR M17/M19 A3043 510 83 -3300 150/05 RMK AO2 SLP326 T11671189 11139 21167 58004
04850KAOH AOH20160214065511102/14/16 06:55:31  5-MIN KAOH 141155Z AUTO 15004KT 10SM CLR M17/M19 A3043 510 83 -3300 160/04 RMK AO2 T11671189
04850KAOH AOH20160214070011102/14/16 07:00:31  5-MIN KAOH 141200Z AUTO 15005KT 10SM CLR M17/M19 A3043 510 83 -3300 160/05 RMK AO2 T11671189
04850KAOH AOH20160214070511102/14/16 07:05:31  5-MIN KAOH 141205Z AUTO 16005KT 10SM CLR M17/M19 A3043 510 83 -3300 170/05 RMK AO2 T11671189
04850KAOH AOH20160214071011102/14/16 07:10:31  5-MIN KAOH 141210Z AUTO 16004KT 10SM CLR M17/M18 A3042 510 87 -3300 170/04 RMK AO2 T11671183
04850KAOH AOH20160214071511102/14/16 07:15:31  5-MIN KAOH 141215Z AUTO 16005KT 10SM CLR M17/M19 A3043 510 83 -3300 170/05 RMK AO2 T11671189
04850KAOH AOH20160214072011102/14/16 07:20:31  5-MIN KAOH 141220Z AUTO 16005KT 10SM CLR M17/M19 A3043 510 83 -3300 170/05 RMK AO2 T11671189
04850KAOH AOH20160214072511102/14/16 07:25:31  5-MIN KAOH 141225Z AUTO 17004KT 10SM CLR M17/M19 A3043 510 83 -3300 170/04 RMK AO2 T11671189
04850KAOH AOH20160214073011102/14/16 07:30:31  5-MIN KAOH 141230Z AUTO 17005KT 10SM CLR M17/M19 A3043 510 83 -3300 180/05 RMK AO2 T11671189
04850KAOH AOH20160214073511102/14/16 07:35:31  5-MIN KAOH 141235Z AUTO 17004KT 10SM CLR M17/M18 A3043 510 87 -3300 170/04 RMK AO2 T11671183
04850KAOH AOH20160214074011102/14/16 07:40:31  5-MIN KAOH 141240Z AUTO 17006KT 10SM CLR M17/M18 A3043 510 87 -3300 170/06 RMK AO2 T11671183
04850KAOH AOH20160214074511102/14/16 07:45:31  5-MIN KAOH 141245Z AUTO 17005KT 10SM CLR M17/M18 A3043 510 87 -3300 170/05 RMK AO2 T11671183
04850KAOH AOH20160214075011802/14/16 07:50:31  5-MIN KAOH 141250Z AUTO 17005KT 10SM CLR M16/M18 A3043 510 83 -3200 170/05 RMK AO2 SLP327 T11611183
04850KAOH AOH20160214075511102/14/16 07:55:31  5-MIN KAOH 141255Z AUTO 17006KT 10SM CLR M17/M18 A3043 510 87 -3300 170/06 RMK AO2 T11671183
04850KAOH AOH20160214080011102/14/16 08:00:31  5-MIN KAOH 141300Z AUTO 17006KT 10SM CLR M17/M18 A3043 510 87 -3300 170/06 RMK AO2 T11671183
04850KAOH AOH20160214080511102/14/16 08:05:31  5-MIN KAOH 141305Z AUTO 16005KT 10SM CLR M16/M18 A3043 510 83 -3200 170/05 RMK AO2 T11611183
04850KAOH AOH20160214081011102/14/16 08:10:31  5-MIN KAOH 141310Z AUTO 16005KT 10SM CLR M16/M18 A3043 510 83 -3200 160/05 RMK AO2 T11611183
04850KAOH AOH20160214081511102/14/16 08:15:31  5-MIN KAOH 141315Z AUTO 15005KT 10SM CLR M16/M18 A3042 510 83 -3200 150/05 RMK AO2 T11611183
04850KAOH AOH20160214082011102/14/16 08:20:31  5-MIN KAOH 141320Z AUTO 13004KT 10SM CLR M16/M17 A3042 510 87 -3100 140/04 RMK AO2 T11561172
04850KAOH AOH20160214082511102/14/16 08:25:31  5-MIN KAOH 141325Z AUTO 12004KT 10SM CLR M15/M17 A3043 510 83 -3100 120/04 RMK AO2 T11501172
04850KAOH AOH20160214083011102/14/16 08:30:31  5-MIN KAOH 141330Z AUTO 13004KT 10SM CLR M14/M17 A3043 510 83 -3000 140/04 RMK AO2 T11441167
04850KAOH AOH20160214083511102/14/16 08:35:31  5-MIN KAOH 141335Z AUTO 13005KT 10SM CLR M14/M17 A3043 510 83 -3000 140/05 RMK AO2 T11441167
04850KAOH AOH20160214084011102/14/16 08:40:31  5-MIN KAOH 141340Z AUTO 13005KT 10SM CLR M14/M17 A3043 510 83 -3000 140/05 RMK AO2 T11441167
04850KAOH AOH20160214084511102/14/16 08:45:31  5-MIN KAOH 141345Z AUTO 13006KT 10SM CLR M14/M16 A3043 510 83 -2900 140/06 RMK AO2 T11391161
04850KAOH AOH20160214085011802/14/16 08:50:31  5-MIN KAOH 141350Z AUTO 14006KT 10SM CLR M13/M16 A3043 510 80 -2800 140/06 RMK AO2 SLP325 T11331161
04850KAOH AOH20160214085511102/14/16 08:55:31  5-MIN KAOH 141355Z AUTO 13007KT 10SM CLR M13/M16 A3043 510 83 -2800 140/07 RMK AO2 T11331156
04850KAOH AOH20160214090011102/14/16 09:00:31  5-MIN KAOH 141400Z AUTO 13006KT 10SM CLR M13/M16 A3042 510 80 -2800 140/06 RMK AO2 T11281156
04850KAOH AOH20160214090511102/14/16 09:05:31  5-MIN KAOH 141405Z AUTO 13007KT 10SM CLR M13/M15 A3042 520 84 -2800 130/07 RMK AO2 T11281150
04850KAOH AOH20160214091011102/14/16 09:10:31  5-MIN KAOH 141410Z AUTO 13007KT 10SM CLR M12/M15 A3042 520 80 -2700 140/07 RMK AO2 T11221150
04850KAOH AOH20160214091511102/14/16 09:15:31  5-MIN KAOH 141415Z AUTO 13008KT 10SM CLR M12/M15 A3042 520 80 -2700 140/08 RMK AO2 T11221150
04850KAOH AOH20160214092011102/14/16 09:20:31  5-MIN KAOH 141420Z AUTO 13009KT 10SM CLR M12/M15 A3042 520 76 -2600 140/09 RMK AO2 T11171150
04850KAOH AOH20160214092511102/14/16 09:25:31  5-MIN KAOH 141425Z AUTO 13008KT 10SM CLR M12/M14 A3042 520 80 -2600 130/08 RMK AO2 T11171144
04850KAOH AOH20160214093011102/14/16 09:30:31  5-MIN KAOH 141430Z AUTO 14009KT 10SM CLR M11/M14 A3042 520 77 -2500 140/09 RMK AO2 T11111144
04850KAOH AOH20160214093511102/14/16 09:35:31  5-MIN KAOH 141435Z AUTO 13010KT 10SM CLR M11/M14 A3042 520 77 -2500 140/10 RMK AO2 T11111144
04850KAOH AOH20160214094011102/14/16 09:40:31  5-MIN KAOH 141440Z AUTO 14011KT 10SM CLR M11/M14 A3042 520 77 -2500 150/11 RMK AO2 T11111144
04850KAOH AOH20160214094511102/14/16 09:45:31  5-MIN KAOH 141445Z AUTO 14010KT 10SM CLR M11/M14 A3041 520 77 -2500 150/10 RMK AO2 T11111144
04850KAOH AOH20160214095012402/14/16 09:50:31  5-MIN KAOH 141450Z AUTO 13010KT 10SM CLR M11/M14 A3042 520 73 -2500 140/10 RMK AO2 SLP320 T11061144 55005
04850KAOH AOH20160214095511102/14/16 09:55:31  5-MIN KAOH 141455Z AUTO 15010KT 10SM CLR M11/M14 A3041 520 73 -2500 150/10 RMK AO2 T11061144
04850KAOH AOH20160214100011102/14/16 10:00:31  5-MIN KAOH 141500Z AUTO 15012KT 10SM CLR M11/M14 A3041 520 73 -2500 160/12 RMK AO2 T11061144
04850KAOH AOH20160214100511102/14/16 10:05:31  5-MIN KAOH 141505Z AUTO 13012KT 10SM CLR M11/M14 A3041 530 73 -2500 140/12 RMK AO2 T11061144
04850KAOH AOH20160214101011102/14/16 10:10:31  5-MIN KAOH 141510Z AUTO 16010KT 10SM CLR M11/M14 A3041 530 73 -2500 160/10 RMK AO2 T11061144
04850KAOH AOH20160214101511102/14/16 10:15:31  5-MIN KAOH 141515Z AUTO 15010KT 10SM CLR M10/M14 A3041 530 70 -2400 160/10 RMK AO2 T11001144
04850KAOH AOH20160214102011102/14/16 10:20:31  5-MIN KAOH 141520Z AUTO 14010KT 10SM CLR M10/M14 A3041 530 70 -2400 150/10 RMK AO2 T11001144
04850KAOH AOH20160214102511102/14/16 10:25:31  5-MIN KAOH 141525Z AUTO 14010KT 10SM CLR M10/M14 A3041 530 70 -2400 140/10 RMK AO2 T11001144
04850KAOH AOH20160214103011102/14/16 10:30:31  5-MIN KAOH 141530Z AUTO 16010KT 10SM CLR M09/M14 A3040 530 67 -2300 160/10 RMK AO2 T10941144
04850KAOH AOH20160214103511102/14/16 10:35:31  5-MIN KAOH 141535Z AUTO 15011KT 10SM CLR M10/M14 A3040 540 70 -2400 160/11 RMK AO2 T11001144
04850KAOH AOH20160214104011402/14/16 10:40:31  5-MIN KAOH 141540Z AUTO 16011KT 10SM FEW022 M09/M14 A3040 540 67 -2300 160/11 RMK AO2 T10941144
04850KAOH AOH20160214104511402/14/16 10:45:31  5-MIN KAOH 141545Z AUTO 14011KT 10SM FEW022 M09/M14 A3040 540 67 -2200 150/11 RMK AO2 T10891139
04850KAOH AOH20160214105012102/14/16 10:50:31  5-MIN KAOH 141550Z AUTO 12010KT 10SM FEW022 M09/M14 A3039 540 67 -2300 130/10 RMK AO2 SLP312 T10941144
04850KAOH AOH20160214105511402/14/16 10:55:31  5-MIN KAOH 141555Z AUTO 14013KT 10SM FEW022 M09/M15 A3039 550 61 -2200 150/13 RMK AO2 T10891150
04850KAOH AOH20160214110011402/14/16 11:00:31  5-MIN KAOH 141600Z AUTO 14012KT 10SM FEW023 M09/M14 A3038 550 64 -2200 150/12 RMK AO2 T10891144
04850KAOH AOH20160214110511402/14/16 11:05:31  5-MIN KAOH 141605Z AUTO 14010KT 10SM FEW023 M09/M15 A3038 550 61 -2200 150/10 RMK AO2 T10891150
04850KAOH AOH20160214111011102/14/16 11:10:31  5-MIN KAOH 141610Z AUTO 13012KT 10SM CLR M09/M14 A3038 560 64 -2200 130/12 RMK AO2 T10891144
04850KAOH AOH20160214111511102/14/16 11:15:31  5-MIN KAOH 141615Z AUTO 14014KT 10SM CLR M09/M15 A3037 560 61 -2200 150/14 RMK AO2 T10891150
04850KAOH AOH20160214112011102/14/16 11:20:31  5-MIN KAOH 141620Z AUTO 13012KT 10SM CLR M09/M15 A3037 560 61 -2200 140/12 RMK AO2 T10891150
04850KAOH AOH20160214112511102/14/16 11:25:31  5-MIN KAOH 141625Z AUTO 15010KT 10SM CLR M08/M14 A3037 570 62 -2100 150/10 RMK AO2 T10831144
04850KAOH AOH20160214113011802/14/16 11:30:31  5-MIN KAOH 141630Z AUTO 14016KT 10SM CLR M08/M14 A3036 580 59 -2000 140/16 RMK AO2 PRESFR T10781144
04850KAOH AOH20160214113511102/14/16 11:35:31  5-MIN KAOH 141635Z AUTO 15012KT 10SM CLR M08/M15 A3035 580 59 -2100 150/12 RMK AO2 T10831150
04850KAOH AOH20160214114011702/14/16 11:40:31  5-MIN KAOH 141640Z AUTO 14012G20KT 10SM CLR M08/M15 A3035 580 59 -2100 150/12G20 RMK AO2 T10831150
04850KAOH AOH20160214114511702/14/16 11:45:31  5-MIN KAOH 141645Z AUTO 14014G20KT 10SM CLR M08/M15 A3034 590 59 -2100 140/14G20 RMK AO2 T10831150
04850KAOH AOH20160214115011802/14/16 11:50:31  5-MIN KAOH 141650Z AUTO 15012KT 10SM CLR M08/M14 A3034 590 62 -2100 160/12 RMK AO2 SLP295 T10831144
04850KAOH AOH20160214115511102/14/16 11:55:31  5-MIN KAOH 141655Z AUTO 13010KT 10SM CLR M08/M14 A3034 590 59 -2000 140/10 RMK AO2 T10781144
04850KAOH AOH20160214120011702/14/16 12:00:31  5-MIN KAOH 141700Z AUTO 13014G20KT 10SM CLR M08/M14 A3033 600 59 -2000 140/14G20 RMK AO2 T10781144
04850KAOH AOH20160214120511102/14/16 12:05:31  5-MIN KAOH 141705Z AUTO 14013KT 10SM CLR M08/M14 A3033 600 59 -2000 140/13 RMK AO2 T10781144
04850KAOH AOH20160214121011102/14/16 12:10:31  5-MIN KAOH 141710Z AUTO 16013KT 10SM CLR M08/M14 A3034 590 59 -2000 160/13 RMK AO2 T10781144
04850KAOH AOH20160214121511102/14/16 12:15:31  5-MIN KAOH 141715Z AUTO 13012KT 10SM CLR M08/M14 A3034 590 59 -2000 140/12 RMK AO2 T10781144
04850KAOH AOH20160214122011102/14/16 12:20:31  5-MIN KAOH 141720Z AUTO 16013KT 10SM CLR M08/M15 A3034 590 56 -2000 160/13 RMK AO2 T10781150
04850KAOH AOH20160214122511102/14/16 12:25:31  5-MIN KAOH 141725Z AUTO 15013KT 10SM CLR M08/M14 A3034 590 59 -2000 160/13 RMK AO2 T10781144
04850KAOH AOH20160214123011102/14/16 12:30:31  5-MIN KAOH 141730Z AUTO 15009KT 10SM CLR M08/M14 A3034 590 59 -2000 160/09 RMK AO2 T10781144
04850KAOH AOH20160214123511102/14/16 12:35:31  5-MIN KAOH 141735Z AUTO 14013KT 10SM CLR M07/M14 A3034 590 59 -1900 150/13 RMK AO2 T10721139
04850KAOH AOH20160214124011702/14/16 12:40:31  5-MIN KAOH 141740Z AUTO 15012G17KT 10SM CLR M08/M14 A3034 590 59 -2000 160/12G17 RMK AO2 T10781144
04850KAOH AOH20160214124511102/14/16 12:45:31  5-MIN KAOH 141745Z AUTO 15011KT 10SM CLR M08/M15 A3034 600 56 -2000 150/11 RMK AO2 T10781150
04850KAOH AOH20160214125013602/14/16 12:50:31  5-MIN KAOH 141750Z AUTO 15012KT 10SM CLR M08/M15 A3033 600 56 -2000 150/12 RMK AO2 SLP291 T10781150 11072 21167 58004
04850KAOH AOH20160214125511102/14/16 12:55:31  5-MIN KAOH 141755Z AUTO 16013KT 10SM CLR M08/M15 A3032 610 56 -2000 160/13 RMK AO2 T10781150
04850KAOH AOH20160214130011102/14/16 13:00:31  5-MIN KAOH 141800Z AUTO 16012KT 10SM CLR M08/M15 A3032 610 56 -2000 170/12 RMK AO2 T10781150
04850KAOH AOH20160214130511102/14/16 13:05:31  5-MIN KAOH 141805Z AUTO 14010KT 10SM CLR M08/M15 A3032 610 56 -2000 150/10 RMK AO2 T10781150
04850KAOH AOH20160214131011102/14/16 13:10:31  5-MIN KAOH 141810Z AUTO 15010KT 10SM CLR M07/M15 A3032 610 54 -1900 150/10 RMK AO2 T10721150
04850KAOH AOH20160214131511102/14/16 13:15:31  5-MIN KAOH 141815Z AUTO 16013KT 10SM CLR M08/M14 A3031 620 59 -2000 170/13 RMK AO2 T10781144
04850KAOH AOH20160214132011102/14/16 13:20:31  5-MIN KAOH 141820Z AUTO 15012KT 10SM CLR M08/M14 A3030 630 59 -2000 150/12 RMK AO2 T10781144
04850KAOH AOH20160214132511102/14/16 13:25:31  5-MIN KAOH 141825Z AUTO 13011KT 10SM CLR M08/M15 A3030 630 56 -2000 140/11 RMK AO2 T10781150
04850KAOH AOH20160214133011102/14/16 13:30:31  5-MIN KAOH 141830Z AUTO 16012KT 10SM CLR M07/M15 A3029 630 54 -1900 160/12 RMK AO2 T10721150
04850KAOH AOH20160214133511702/14/16 13:35:31  5-MIN KAOH 141835Z AUTO 16012G18KT 10SM CLR M08/M15 A3030 630 56 -2000 170/12G18 RMK AO2 T10781150
04850KAOH AOH20160214134011102/14/16 13:40:31  5-MIN KAOH 141840Z AUTO 17012KT 10SM CLR M08/M15 A3030 630 56 -2000 170/12 RMK AO2 T10781150
04850KAOH AOH20160214134511102/14/16 13:45:31  5-MIN KAOH 141845Z AUTO 15012KT 10SM CLR M08/M15 A3029 640 56 -1900 160/12 RMK AO2 T10781150
04850KAOH AOH20160214135011802/14/16 13:50:31  5-MIN KAOH 141850Z AUTO 15012KT 10SM CLR M08/M15 A3028 650 56 -1900 150/12 RMK AO2 SLP273 T10781150
04850KAOH AOH20160214135511102/14/16 13:55:31  5-MIN KAOH 141855Z AUTO 16014KT 10SM CLR M08/M15 A3028 650 56 -1900 160/14 RMK AO2 T10781150
04850KAOH AOH20160214140011102/14/16 14:00:31  5-MIN KAOH 141900Z AUTO 14011KT 10SM CLR M08/M15 A3028 650 56 -1900 150/11 RMK AO2 T10781150
04850KAOH AOH20160214140511102/14/16 14:05:31  5-MIN KAOH 141905Z AUTO 14012KT 10SM CLR M07/M15 A3027 650 54 -1900 140/12 RMK AO2 T10721150
04850KAOH AOH20160214141011102/14/16 14:10:31  5-MIN KAOH 141910Z AUTO 15011KT 10SM CLR M07/M14 A3027 650 56 -1900 160/11 RMK AO2 T10721144
04850KAOH AOH20160214141511102/14/16 14:15:31  5-MIN KAOH 141915Z AUTO 13008KT 10SM CLR M08/M15 A3027 650 56 -1900 140/08 RMK AO2 T10781150
04850KAOH AOH20160214142012102/14/16 14:20:31  5-MIN KAOH 141920Z AUTO 13009KT 10SM FEW095 M07/M14 A3026 670 56 -1800 130/09 RMK AO2 PRESFR T10721144
04850KAOH AOH20160214142511402/14/16 14:25:31  5-MIN KAOH 141925Z AUTO 11011KT 10SM FEW100 M07/M14 A3026 670 56 -1800 120/11 RMK AO2 T10721144
04850KAOH AOH20160214143011102/14/16 14:30:31  5-MIN KAOH 141930Z AUTO 11010KT 10SM CLR M07/M14 A3025 670 56 -1800 110/10 RMK AO2 T10721144
04850KAOH AOH20160214143511102/14/16 14:35:31  5-MIN KAOH 141935Z AUTO 12011KT 10SM CLR M07/M14 A3026 670 56 -1800 130/11 RMK AO2 T10721144
04850KAOH AOH20160214144011402/14/16 14:40:31  5-MIN KAOH 141940Z AUTO 12011KT 10SM FEW120 M08/M14 A3025 670 59 -1900 130/11 RMK AO2 T10781144
04850KAOH AOH20160214144511402/14/16 14:45:31  5-MIN KAOH 141945Z AUTO 12011KT 10SM SCT110 M08/M14 A3025 670 59 -1900 120/11 RMK AO2 T10781144
04850KAOH AOH20160214145012102/14/16 14:50:31  5-MIN KAOH 141950Z AUTO 13009KT 10SM BKN110 M08/M15 A3025 680 56 -1900 130/09 RMK AO2 SLP262 T10781150
04850KAOH AOH20160214145511402/14/16 14:55:31  5-MIN KAOH 141955Z AUTO 12012KT 10SM BKN110 M08/M14 A3025 680 59 -1900 130/12 RMK AO2 T10781144
04850KAOH AOH20160214150011402/14/16 15:00:31  5-MIN KAOH 142000Z AUTO 14011KT 10SM BKN110 M08/M15 A3025 680 56 -1900 140/11 RMK AO2 T10781150
04850KAOH AOH20160214150512102/14/16 15:05:31  5-MIN KAOH 142005Z AUTO 14013KT 10SM BKN100 OVC120 M08/M15 A3025 680 56 -1900 150/13 RMK AO2 T10781150
04850KAOH AOH20160214151011402/14/16 15:10:31  5-MIN KAOH 142010Z AUTO 13012KT 10SM OVC100 M08/M15 A3025 680 56 -1900 140/12 RMK AO2 T10781150
04850KAOH AOH20160214151512102/14/16 15:15:31  5-MIN KAOH 142015Z AUTO 13011KT 10SM SCT080 OVC100 M08/M14 A3025 680 59 -1900 140/11 RMK AO2 T10781144
04850KAOH AOH20160214152012102/14/16 15:20:31  5-MIN KAOH 142020Z AUTO 12011KT 10SM BKN080 OVC100 M08/M14 A3025 680 59 -1900 130/11 RMK AO2 T10781144
04850KAOH AOH20160214152512102/14/16 15:25:31  5-MIN KAOH 142025Z AUTO 13010KT 10SM BKN070 OVC095 M08/M14 A3024 680 59 -1900 130/10 RMK AO2 T10781144
04850KAOH AOH20160214153012102/14/16 15:30:31  5-MIN KAOH 142030Z AUTO 14012KT 10SM BKN075 OVC095 M08/M15 A3024 680 56 -1900 150/12 RMK AO2 T10781150
04850KAOH AOH20160214153512102/14/16 15:35:31  5-MIN KAOH 142035Z AUTO 14013KT 10SM BKN070 OVC085 M08/M14 A3025 680 59 -1900 150/13 RMK AO2 T10781144
04850KAOH AOH20160214154011402/14/16 15:40:31  5-MIN KAOH 142040Z AUTO 15013KT 10SM OVC070 M08/M14 A3025 670 59 -1900 160/13 RMK AO2 T10781144
04850KAOH AOH20160214154511402/14/16 15:45:31  5-MIN KAOH 142045Z AUTO 15012KT 10SM OVC070 M08/M15 A3025 670 56 -1900 160/12 RMK AO2 T10781150
04850KAOH AOH20160214155012702/14/16 15:50:31  5-MIN KAOH 142050Z AUTO 14012KT 10SM OVC065 M08/M15 A3026 670 56 -1900 150/12 RMK AO2 SLP266 T10781150 56029
04850KAOH AOH20160214155512102/14/16 15:55:31  5-MIN KAOH 142055Z AUTO 15011KT 10SM BKN060 OVC070 M08/M14 A3027 660 59 -1900 160/11 RMK AO2 T10781144
04850KAOH AOH20160214160012102/14/16 16:00:31  5-MIN KAOH 142100Z AUTO 16010KT 10SM BKN055 OVC070 M08/M15 A3026 660 56 -1900 160/10 RMK AO2 T10781150
04850KAOH AOH20160214160512102/14/16 16:05:31  5-MIN KAOH 142105Z AUTO 14012KT 10SM BKN055 OVC070 M08/M15 A3026 670 56 -1900 150/12 RMK AO2 T10781150
04850KAOH AOH20160214161011402/14/16 16:10:31  5-MIN KAOH 142110Z AUTO 14010KT 10SM OVC055 M08/M15 A3025 670 56 -1900 150/10 RMK AO2 T10781150
04850KAOH AOH20160214161512102/14/16 16:15:31  5-MIN KAOH 142115Z AUTO 13012KT 10SM OVC055 M08/M15 A3024 680 56 -1900 140/12 RMK AO2 PRESFR T10781150
04850KAOH AOH20160214162012102/14/16 16:20:31  5-MIN KAOH 142120Z AUTO 12010KT 10SM OVC055 M08/M16 A3023 690 54 -1900 130/10 RMK AO2 PRESFR T10781156
04850KAOH AOH20160214162511402/14/16 16:25:31  5-MIN KAOH 142125Z AUTO 13012KT 10SM OVC055 M08/M15 A3023 690 56 -1900 140/12 RMK AO2 T10781150
04850KAOH AOH20160214163012102/14/16 16:30:31  5-MIN KAOH 142130Z AUTO 14013KT 10SM BKN050 OVC060 M08/M15 A3023 690 56 -1900 140/13 RMK AO2 T10781150
04850KAOH AOH20160214163512102/14/16 16:35:31  5-MIN KAOH 142135Z AUTO 15012KT 10SM BKN047 OVC060 M08/M15 A3023 700 59 -1900 150/12 RMK AO2 T10831150
04850KAOH AOH20160214164012002/14/16 16:40:31  5-MIN KAOH 142140Z AUTO 13011KT 8SM BKN043 OVC060 M08/M15 A3022 700 59 -1900 130/11 RMK AO2 T10831150
04850KAOH AOH20160214164514302/14/16 16:45:31  5-MIN KAOH 142145Z AUTO 12010KT 4SM -SN BKN036 BKN045 OVC055 M08/M14 A3021 710 62 -1900 130/10 RMK AO2 SNB41 P0000 T10831144
04850KAOH AOH20160214165014302/14/16 16:50:31  5-MIN KAOH 142150Z AUTO 12012KT 3SM -SN BKN034 OVC045 M08/M14 A3021 710 62 -1900 130/12 RMK AO2 SNB41 SLP250 P0000 T10831144
04850KAOH AOH20160214165513002/14/16 16:55:31  5-MIN KAOH 142155Z AUTO 12014KT 3SM -SN BKN034 OVC047 M08/M14 A3021 710 64 -1900 120/14 RMK AO2 P0000 T10831139
04850KAOH AOH20160214170012302/14/16 17:00:31  5-MIN KAOH 142200Z AUTO 12011KT 3SM -SN OVC032 M08/M13 A3021 710 67 -1900 130/11 RMK AO2 P0000 T10831133
04850KAOH AOH20160214170512702/14/16 17:05:31  5-MIN KAOH 142205Z AUTO 13014KT 2 1/2SM -SN OVC030 M08/M13 A3021 710 67 -1900 130/14 RMK AO2 P0000 T10831133
04850KAOH AOH20160214171012702/14/16 17:10:31  5-MIN KAOH 142210Z AUTO 12012KT 1 1/2SM -SN OVC028 M08/M13 A3020 720 70 -1900 120/12 RMK AO2 P0000 T10831128
04850KAOH AOH20160214171512302/14/16 17:15:31  5-MIN KAOH 142215Z AUTO 12011KT 1SM -SN OVC026 M08/M12 A3020 720 74 -1900 130/11 RMK AO2 P0000 T10831122
04850KAOH AOH20160214172012302/14/16 17:20:31  5-MIN KAOH 142220Z AUTO 12011KT 1SM -SN OVC024 M08/M12 A3020 720 77 -1900 130/11 RMK AO2 P0000 T10831117
04850KAOH AOH20160214172512502/14/16 17:25:31  5-MIN KAOH 142225Z AUTO 13009KT 3/4SM -SN OVC022 M09/M12 A3021 710 80 -2000 130/09 RMK AO2 P0000 T10891117
04850KAOH AOH20160214173012702/14/16 17:30:31  5-MIN KAOH 142230Z AUTO 11009KT 3/4SM -SN BR VV019 M09/M11 A3022 710 84 -2000 120/09 RMK AO2 P0000 T10891111
04850KAOH AOH20160214173512402/14/16 17:35:31  5-MIN KAOH 142235Z AUTO 11007KT 3/4SM -SN VV018 M08/M11 A3022 700 80 -1900 120/07 RMK AO2 P0000 T10831111
04850KAOH AOH20160214174012702/14/16 17:40:31  5-MIN KAOH 142240Z AUTO 11010KT 3/4SM -SN BR VV017 M09/M11 A3022 700 84 -2000 120/10 RMK AO2 P0000 T10891111
04850KAOH AOH20160214174512702/14/16 17:45:31  5-MIN KAOH 142245Z AUTO 13011KT 3/4SM -SN BR VV016 M09/M11 A3022 700 84 -2000 130/11 RMK AO2 P0000 T10891111
04850KAOH AOH20160214175013402/14/16 17:50:31  5-MIN KAOH 142250Z AUTO 11010KT 3/4SM -SN BR VV016 M09/M11 A3021 710 84 -2000 120/10 RMK AO2 SLP251 P0000 T10891111
04850KAOH AOH20160214175513402/14/16 17:55:31  5-MIN KAOH 142255Z AUTO 11010KT 3/4SM -SN BR VV017 M09/M11 A3020 720 84 -2000 120/10 RMK AO2 PRESFR P0000 T10891111
04850KAOH AOH20160214180012702/14/16 18:00:31  5-MIN KAOH 142300Z AUTO 12010KT 3/4SM -SN BR VV019 M09/M11 A3020 720 84 -2000 120/10 RMK AO2 P0000 T10891111
04850KAOH AOH20160214180512502/14/16 18:05:31  5-MIN KAOH 142305Z AUTO 12012KT 1SM -SN BR VV020 M09/M11 A3020 720 84 -2000 130/12 RMK AO2 P0000 T10891111
04850KAOH AOH20160214181012502/14/16 18:10:31  5-MIN KAOH 142310Z AUTO 12010KT 1SM -SN BR VV020 M09/M11 A3021 710 84 -2000 120/10 RMK AO2 P0000 T10891111
04850KAOH AOH20160214181512502/14/16 18:15:31  5-MIN KAOH 142315Z AUTO 12009KT 1SM -SN BR VV019 M09/M11 A3021 710 84 -2000 120/09 RMK AO2 P0001 T10891111
04850KAOH AOH20160214182012502/14/16 18:20:31  5-MIN KAOH 142320Z AUTO 12009KT 1SM -SN BR VV019 M09/M11 A3020 720 84 -2000 120/09 RMK AO2 P0001 T10891111
04850KAOH AOH20160214182513002/14/16 18:25:31  5-MIN KAOH 142325Z AUTO 12010KT 1 1/2SM -SN BR OVC019 M09/M11 A3020 720 84 -2000 120/10 RMK AO2 P0001 T10891111
04850KAOH AOH20160214183013002/14/16 18:30:31  5-MIN KAOH 142330Z AUTO 12010KT 1 1/2SM -SN BR OVC019 M09/M11 A3020 720 84 -2000 120/10 RMK AO2 P0001 T10891111
04850KAOH AOH20160214183513002/14/16 18:35:31  5-MIN KAOH 142335Z AUTO 12010KT 1 1/2SM -SN BR OVC019 M09/M11 A3020 720 84 -2000 120/10 RMK AO2 P0001 T10891111
04850KAOH AOH20160214184013002/14/16 18:40:31  5-MIN KAOH 142340Z AUTO 12010KT 1 1/2SM -SN BR OVC019 M09/M11 A3020 720 84 -2000 120/10 RMK AO2 P0001 T10891111
04850KAOH AOH20160214184513002/14/16 18:45:31  5-MIN KAOH 142345Z AUTO 11011KT 1 3/4SM -SN BR OVC021 M09/M11 A3020 720 84 -2000 120/11 RMK AO2 P0001 T10891111
04850KAOH AOH20160214185011602/14/16 18:50:31  5-MIN KAOH 142350Z AUTO 11013KT 2SM -SN BR OVC023 M09/M11 A3019 730 84 -2000 120/13 RMK AO2 P0001
04850KAOH AOH20160214185512302/14/16 18:55:31  5-MIN KAOH 142355Z AUTO 12013KT 2SM -SN OVC023 M09/M12 A3019 730 80 -2000 120/13 RMK AO2 P0000 T10891117
04850KAOH AOH20160214190012602/14/16 19:00:31  5-MIN KAOH 150000Z AUTO 11010KT 2SM -SN BR OVC024 M09/M12 A3019 730 84 -2000 120/10 RMK AO2 P0000 T10941117
04850KAOH AOH20160214190512602/14/16 19:05:31  5-MIN KAOH 150005Z AUTO 11010KT 2SM -SN BR OVC024 M09/M11 A3019 730 84 -2000 120/10 RMK AO2 P0000 T10891111
04850KAOH AOH20160214191012602/14/16 19:10:31  5-MIN KAOH 150010Z AUTO 12011KT 2SM -SN BR OVC024 M09/M11 A3019 730 84 -2000 120/11 RMK AO2 P0000 T10891111
04850KAOH AOH20160214191513002/14/16 19:15:31  5-MIN KAOH 150015Z AUTO 11011KT 2 1/2SM -SN BR OVC026 M09/M11 A3018 740 84 -2000 120/11 RMK AO2 P0000 T10891111
04850KAOH AOH20160214192013002/14/16 19:20:31  5-MIN KAOH 150020Z AUTO 12013KT 2 1/2SM -SN BR OVC028 M09/M11 A3018 740 84 -2000 120/13 RMK AO2 P0000 T10891111
04850KAOH AOH20160214192512702/14/16 19:25:31  5-MIN KAOH 150025Z AUTO 11013KT 2 1/2SM -SN OVC028 M09/M12 A3018 740 80 -2000 120/13 RMK AO2 P0000 T10891117
04850KAOH AOH20160214193013002/14/16 19:30:31  5-MIN KAOH 150030Z AUTO 12012KT 2 1/2SM -SN BR OVC032 M09/M11 A3018 740 84 -2000 120/12 RMK AO2 P0000 T10891111
04850KAOH AOH20160214193512602/14/16 19:35:31  5-MIN KAOH 150035Z AUTO 11012KT 3SM -SN BR OVC040 M09/M11 A3017 740 84 -2000 120/12 RMK AO2 P0000 T10891111
04850KAOH AOH20160214194012602/14/16 19:40:31  5-MIN KAOH 150040Z AUTO 11011KT 4SM -SN BR OVC047 M09/M11 A3017 750 84 -2000 120/11 RMK AO2 P0000 T10891111
04850KAOH AOH20160214194512602/14/16 19:45:31  5-MIN KAOH 150045Z AUTO 12012KT 5SM -SN BR OVC049 M09/M11 A3017 750 84 -2000 120/12 RMK AO2 P0000 T10891111
04850KAOH AOH20160214195014602/14/16 19:50:31  5-MIN KAOH 150050Z AUTO 12013G18KT 5SM -SN BR BKN049 OVC070 M09/M11 A3017 750 84 -2000 120/13G18 RMK AO2 SLP236 P0000 T10891111
04850KAOH AOH20160214195513602/14/16 19:55:31  5-MIN KAOH 150055Z AUTO 12011G18KT 5SM BR BKN055 BKN070 OVC080 M09/M11 A3016 750 84 -1900 130/11G18 RMK AO2 T10891111
04850KAOH AOH20160214200012302/14/16 20:00:31  5-MIN KAOH 150100Z AUTO 11013KT 6SM BR SCT060 OVC085 M09/M11 A3016 760 84 -1900 120/13 RMK AO2 T10891111
04850KAOH AOH20160214200512702/14/16 20:05:31  5-MIN KAOH 150105Z AUTO 12011KT 7SM SCT050 BKN070 OVC090 M09/M11 A3016 760 84 -1900 120/11 RMK AO2 T10891111
04850KAOH AOH20160214201014602/14/16 20:10:31  5-MIN KAOH 150110Z AUTO 12012KT 4SM -SN BR BKN038 BKN070 OVC090 M09/M11 A3016 760 84 -1900 120/12 RMK AO2 SNB07 P0000 T10891111
04850KAOH AOH20160214201515002/14/16 20:15:31  5-MIN KAOH 150115Z AUTO 12014KT 2 1/2SM -SN BR BKN031 BKN070 OVC090 M09/M11 A3015 760 84 -1900 120/14 RMK AO2 SNB07 P0000 T10891111
04850KAOH AOH20160214202014302/14/16 20:20:31  5-MIN KAOH 150120Z AUTO 12012KT 2 1/2SM -SN BR BKN036 OVC085 M09/M11 A3015 760 84 -1900 120/12 RMK AO2 SNB07 P0000 T10891111
04850KAOH AOH20160214202513902/14/16 20:25:31  5-MIN KAOH 150125Z AUTO 11011KT 3SM -SN BR BKN040 OVC085 M09/M11 A3015 770 84 -1900 120/11 RMK AO2 SNB07 P0000 T10891111
04850KAOH AOH20160214203013902/14/16 20:30:31  5-MIN KAOH 150130Z AUTO 12011KT 5SM -SN BR BKN040 OVC110 M09/M11 A3015 770 84 -1900 120/11 RMK AO2 SNB07 P0000 T10891111
04850KAOH AOH20160214203514502/14/16 20:35:31  5-MIN KAOH 150135Z AUTO 12015G19KT 5SM -SN BR BKN042 OVC110 M09/M11 A3015 770 84 -1900 130/15G19 RMK AO2 SNB07 P0000 T10891111
04850KAOH AOH20160214204013902/14/16 20:40:31  5-MIN KAOH 150140Z AUTO 12013KT 6SM -SN BR BKN046 OVC110 M09/M11 A3014 770 84 -1900 120/13 RMK AO2 SNB07 P0000 T10891111
04850KAOH AOH20160214204513602/14/16 20:45:31  5-MIN KAOH 150145Z AUTO 12014KT 7SM -SN SCT048 OVC110 M09/M11 A3015 770 84 -1900 120/14 RMK AO2 SNB07 P0000 T10891111
04850KAOH AOH20160214205014902/14/16 20:50:31  5-MIN KAOH 150150Z AUTO 11014G21KT 8SM -SN FEW050 OVC110 M09/M11 A3015 770 84 -1900 120/14G21 RMK AO2 SNB07 SLP228 P0000 T10891111
04850KAOH AOH20160214205512602/14/16 20:55:31  5-MIN KAOH 150155Z AUTO 12015G21KT 9SM FEW050 OVC110 M09/M11 A3014 780 84 -1900 130/15G21 RMK AO2 T10891111
04850KAOH AOH20160216050012602/16/16 05:00:31  5-MIN KAOH 161000Z AUTO 33006KT 1/4SM FZFG VV002 M01/M01 A2972 1160 100 -400 340/06 RMK AO2 I1001 T10111011
04850KAOH AOH20160216050512602/16/16 05:05:31  5-MIN KAOH 161005Z AUTO 33006KT 1/4SM FZFG VV002 M01/M01 A2973 1160 100 -400 330/06 RMK AO2 I1001 T10111011
04850KAOH AOH20160216051012602/16/16 05:10:31  5-MIN KAOH 161010Z AUTO 32007KT 1/4SM FZFG VV002 M01/M01 A2973 1150 100 -400 330/07 RMK AO2 I1001 T10111011
04850KAOH AOH20160216051512602/16/16 05:15:31  5-MIN KAOH 161015Z AUTO 34007KT 1/4SM FZFG VV002 M01/M01 A2973 1150 100 -400 350/07 RMK AO2 I1002 T10111011
04850KAOH AOH20160216052012602/16/16 05:20:31  5-MIN KAOH 161020Z AUTO 34005KT 1/4SM FZFG VV002 M01/M01 A2973 1150 100 -400 340/05 RMK AO2 I1002 T10111011
04850KAOH AOH20160216052512602/16/16 05:25:31  5-MIN KAOH 161025Z AUTO 35006KT 1/4SM FZFG VV002 M01/M01 A2973 1150 100 -400 350/06 RMK AO2 I1003 T10111011
04850KAOH AOH20160216053012502/16/16 05:30:31  5-MIN KAOH 161030Z AUTO 33007KT 1/4SM FZFG VV002 M01/M02 A2973 1160 96 -400 340/07 RMK AO2 I1003 T10111017
04850KAOH AOH20160216053512502/16/16 05:35:31  5-MIN KAOH 161035Z AUTO 33006KT 1/4SM FZFG VV002 M01/M02 A2972 1160 96 -400 340/06 RMK AO2 I1003 T10111017
04850KAOH AOH20160216054012502/16/16 05:40:31  5-MIN KAOH 161040Z AUTO 33006KT 1/4SM FZFG VV002 M01/M02 A2973 1160 96 -400 340/06 RMK AO2 I1004 T10111017
04850KAOH AOH20160216054512502/16/16 05:45:31  5-MIN KAOH 161045Z AUTO 33009KT 1/4SM FZFG VV002 M01/M02 A2972 1160 96 -400 340/09 RMK AO2 I1004 T10111017
04850KAOH AOH20160216055013202/16/16 05:50:31  5-MIN KAOH 161050Z AUTO 34007KT 1/2SM FZFG VV002 M01/M02 A2972 1160 96 -400 340/07 RMK AO2 SLP074 I1004 T10111017
04850KAOH AOH20160216055511802/16/16 05:55:31  5-MIN KAOH 161055Z AUTO 33006KT 3/4SM BR VV002 M02/M02 A2972 1160 100 -500 340/06 RMK AO2 T10171017
04850KAOH AOH20160216060011802/16/16 06:00:31  5-MIN KAOH 161100Z AUTO 32008KT 3/4SM BR VV002 M02/M02 A2973 1160 100 -500 330/08 RMK AO2 T10171017
04850KAOH AOH20160216060511502/16/16 06:05:31  5-MIN KAOH 161105Z AUTO 34009KT 1SM BR VV002 M02/M02 A2973 1160 96 -500 340/09 RMK AO2 T10171022
04850KAOH AOH20160216061012002/16/16 06:10:31  5-MIN KAOH 161110Z AUTO 34007KT 1 3/4SM BR OVC002 M02/M02 A2973 1160 96 -500 350/07 RMK AO2 T10171022
04850KAOH AOH20160216061512002/16/16 06:15:31  5-MIN KAOH 161115Z AUTO 33006KT 2 1/2SM BR OVC002 M02/M02 A2973 1160 96 -500 340/06 RMK AO2 T10171022
04850KAOH AOH20160216062012002/16/16 06:20:31  5-MIN KAOH 161120Z AUTO 34007KT 2 1/2SM BR OVC003 M02/M02 A2973 1160 96 -500 350/07 RMK AO2 T10171022
04850KAOH AOH20160216062512302/16/16 06:25:31  5-MIN KAOH 161125Z AUTO 34008KT 3SM BR BKN003 OVC008 M02/M03 A2973 1150 92 -500 340/08 RMK AO2 T10171028
04850KAOH AOH20160216063013502/16/16 06:30:31  5-MIN KAOH 161130Z AUTO 33007KT 3SM BR BKN003 OVC008 M02/M03 A2973 1150 92 -500 340/07 RMK AO2 CIG 002V007 T10171028
04850KAOH AOH20160216063512802/16/16 06:35:31  5-MIN KAOH 161135Z AUTO 33008KT 3SM BR OVC006 M02/M03 A2973 1150 92 -500 330/08 RMK AO2 CIG 004V009 T10171028
04850KAOH AOH20160216064012802/16/16 06:40:31  5-MIN KAOH 161140Z AUTO 33006KT 3SM BR OVC006 M02/M03 A2973 1150 96 -600 330/06 RMK AO2 CIG 004V009 T10221028
04850KAOH AOH20160216064512902/16/16 06:45:31  5-MIN KAOH 161145Z AUTO 32008KT 3SM BR OVC007 M02/M02 A2973 1150 100 -600 330/08 RMK AO2 CIG 005V009 T10221022
04850KAOH AOH20160216065015902/16/16 06:50:31  5-MIN KAOH 161150Z AUTO 33007KT 3SM BR OVC007 M02/M03 A2973 1150 96 -600 330/07 RMK AO2 CIG 005V009 SLP079 I6006 T10221028 10000 21022 56016
04850KAOH AOH20160216065511602/16/16 06:55:31  5-MIN KAOH 161155Z AUTO 33007KT 3SM BR OVC007 M02/M03 A2973 1150 96 -600 330/07 RMK AO2 T10221028
04850KAOH AOH20160216070011602/16/16 07:00:31  5-MIN KAOH 161200Z AUTO 33007KT 3SM BR OVC007 M02/M03 A2973 1150 96 -600 340/07 RMK AO2 T10221028
04850KAOH AOH20160216070511602/16/16 07:05:31  5-MIN KAOH 161205Z AUTO 32007KT 3SM BR OVC006 M02/M03 A2973 1150 96 -600 330/07 RMK AO2 T10221028
04850KAOH AOH20160216071012002/16/16 07:10:31  5-MIN KAOH 161210Z AUTO 33007KT 2 1/2SM BR OVC006 M02/M03 A2973 1150 96 -600 340/07 RMK AO2 T10221028
04850KAOH AOH20160216071512002/16/16 07:15:31  5-MIN KAOH 161215Z AUTO 32007KT 2 1/2SM BR OVC006 M02/M03 A2974 1140 96 -600 320/07 RMK AO2 T10221028
04850KAOH AOH20160216072011602/16/16 07:20:31  5-MIN KAOH 161220Z AUTO 33008KT 3SM BR OVC006 M02/M03 A2974 1150 96 -600 330/08 RMK AO2 T10221028
04850KAOH AOH20160216072511602/16/16 07:25:31  5-MIN KAOH 161225Z AUTO 33007KT 3SM BR OVC006 M02/M03 A2974 1150 96 -600 340/07 RMK AO2 T10221028
04850KAOH AOH20160216073012002/16/16 07:30:31  5-MIN KAOH 161230Z AUTO 34005KT 2 1/2SM BR OVC006 M02/M03 A2974 1150 96 -600 340/05 RMK AO2 T10221028
04850KAOH AOH20160216073512002/16/16 07:35:31  5-MIN KAOH 161235Z AUTO 33007KT 2 1/2SM BR OVC006 M02/M03 A2974 1150 96 -600 330/07 RMK AO2 T10221028
04850KAOH AOH20160216074011602/16/16 07:40:31  5-MIN KAOH 161240Z AUTO 34008KT 3SM BR OVC006 M02/M03 A2974 1150 96 -600 350/08 RMK AO2 T10221028
04850KAOH AOH20160216074511602/16/16 07:45:31  5-MIN KAOH 161245Z AUTO 35005KT 3SM BR OVC006 M02/M03 A2974 1150 96 -600 360/05 RMK AO2 T10221028
04850KAOH AOH20160216075012302/16/16 07:50:31  5-MIN KAOH 161250Z AUTO 34006KT 3SM BR OVC006 M02/M03 A2974 1140 96 -600 350/06 RMK AO2 SLP081 T10221028
04850KAOH AOH20160216075512302/16/16 07:55:31  5-MIN KAOH 161255Z AUTO 35005KT 3SM BR BKN006 OVC012 M02/M03 A2974 1140 96 -600 350/05 RMK AO2 T10221028
04850KAOH AOH20160216080012702/16/16 08:00:31  5-MIN KAOH 161300Z AUTO 34005KT 2 1/2SM BR BKN006 OVC012 M02/M03 A2975 1140 96 -600 340/05 RMK AO2 T10221028
04850KAOH AOH20160216080512302/16/16 08:05:31  5-MIN KAOH 161305Z AUTO 34005KT 2SM BR BKN006 OVC013 M02/M03 A2975 1140 96 -600 340/05 RMK AO2 T10221028
04850KAOH AOH20160216081011602/16/16 08:10:31  5-MIN KAOH 161310Z AUTO 34005KT 2SM BR OVC006 M02/M03 A2975 1130 96 -600 340/05 RMK AO2 T10221028
04850KAOH AOH20160216081511602/16/16 08:15:31  5-MIN KAOH 161315Z AUTO 33004KT 2SM BR OVC006 M02/M03 A2975 1130 96 -600 330/04 RMK AO2 T10221028
04850KAOH AOH20160216082011602/16/16 08:20:31  5-MIN KAOH 161320Z AUTO 33005KT 2SM BR OVC006 M02/M03 A2976 1130 96 -600 340/05 RMK AO2 T10221028
04850KAOH AOH20160216082511602/16/16 08:25:31  5-MIN KAOH 161325Z AUTO 34005KT 2SM BR OVC006 M02/M03 A2976 1130 96 -600 340/05 RMK AO2 T10221028
04850KAOH AOH20160216083011602/16/16 08:30:31  5-MIN KAOH 161330Z AUTO 33005KT 2SM BR OVC006 M02/M03 A2976 1120 96 -600 340/05 RMK AO2 T10221028
04850KAOH AOH20160216083511602/16/16 08:35:31  5-MIN KAOH 161335Z AUTO 34005KT 2SM BR OVC006 M02/M03 A2976 1120 96 -600 340/05 RMK AO2 T10221028
04850KAOH AOH20160216084012002/16/16 08:40:31  5-MIN KAOH 161340Z AUTO 34006KT 1 3/4SM BR OVC006 M02/M03 A2976 1120 96 -600 350/06 RMK AO2 T10221028
04850KAOH AOH20160216084512002/16/16 08:45:31  5-MIN KAOH 161345Z AUTO 33005KT 1 3/4SM BR OVC006 M02/M03 A2977 1120 96 -600 330/05 RMK AO2 T10221028
04850KAOH AOH20160216085012702/16/16 08:50:31  5-MIN KAOH 161350Z AUTO 32006KT 1 3/4SM BR OVC006 M02/M03 A2977 1110 96 -600 320/06 RMK AO2 SLP092 T10221028
04850KAOH AOH20160216085512002/16/16 08:55:31  5-MIN KAOH 161355Z AUTO 32005KT 1 3/4SM BR OVC006 M02/M03 A2978 1110 96 -600 330/05 RMK AO2 T10221028
04850KAOH AOH20160216090012002/16/16 09:00:31  5-MIN KAOH 161400Z AUTO 31005KT 1 3/4SM BR OVC006 M02/M03 A2978 1110 96 -600 320/05 RMK AO2 T10221028
04850KAOH AOH20160216090512002/16/16 09:05:31  5-MIN KAOH 161405Z AUTO 31005KT 1 3/4SM BR OVC006 M02/M03 A2979 1100 96 -700 320/05 RMK AO2 T10221028
04850KAOH AOH20160216091011602/16/16 09:10:31  5-MIN KAOH 161410Z AUTO 30006KT 2SM BR OVC006 M02/M03 A2979 1100 96 -700 310/06 RMK AO2 T10221028
04850KAOH AOH20160216091511602/16/16 09:15:31  5-MIN KAOH 161415Z AUTO 31006KT 2SM BR OVC006 M02/M03 A2979 1100 96 -700 320/06 RMK AO2 T10221028
04850KAOH AOH20160216092011602/16/16 09:20:31  5-MIN KAOH 161420Z AUTO 32005KT 2SM BR OVC006 M02/M03 A2979 1100 96 -700 330/05 RMK AO2 T10221028
04850KAOH AOH20160216092511602/16/16 09:25:31  5-MIN KAOH 161425Z AUTO 33006KT 2SM BR OVC006 M02/M03 A2979 1100 96 -700 330/06 RMK AO2 T10221028
04850KAOH AOH20160216093011602/16/16 09:30:31  5-MIN KAOH 161430Z AUTO 33006KT 2SM BR OVC006 M02/M03 A2979 1100 96 -700 340/06 RMK AO2 T10221028
04850KAOH AOH20160216093511602/16/16 09:35:31  5-MIN KAOH 161435Z AUTO 33005KT 2SM BR OVC006 M02/M03 A2979 1100 96 -700 340/05 RMK AO2 T10221028
04850KAOH AOH20160216094011602/16/16 09:40:31  5-MIN KAOH 161440Z AUTO 31006KT 2SM BR OVC006 M02/M03 A2979 1100 96 -700 320/06 RMK AO2 T10221028
04850KAOH AOH20160216094512002/16/16 09:45:31  5-MIN KAOH 161445Z AUTO 31005KT 1 3/4SM BR OVC006 M02/M03 A2979 1090 96 -700 320/05 RMK AO2 T10221028
04850KAOH AOH20160216095013302/16/16 09:50:31  5-MIN KAOH 161450Z AUTO 31006KT 1 3/4SM BR OVC006 M02/M03 A2979 1090 96 -700 320/06 RMK AO2 SLP099 T10221028 53020
04850KAOH AOH20160216095512002/16/16 09:55:31  5-MIN KAOH 161455Z AUTO 30004KT 1 3/4SM BR OVC006 M02/M03 A2980 1090 96 -700 300/04 RMK AO2 T10221028
04850KAOH AOH20160216100012002/16/16 10:00:31  5-MIN KAOH 161500Z AUTO 29005KT 1 3/4SM BR OVC006 M02/M03 A2980 1090 96 -700 300/05 RMK AO2 T10221028
04850KAOH AOH20160216100512002/16/16 10:05:31  5-MIN KAOH 161505Z AUTO 30005KT 1 3/4SM BR OVC006 M02/M03 A2979 1090 96 -700 300/05 RMK AO2 T10221028
04850KAOH AOH20160216101013202/16/16 10:10:31  5-MIN KAOH 161510Z AUTO 29004KT 1 3/4SM BR OVC006 M02/M03 A2980 1090 96 -700 300/04 RMK AO2 CIG 004V008 T10221028
04850KAOH AOH20160216101511602/16/16 10:15:31  5-MIN KAOH 161515Z AUTO 31004KT 2SM BR OVC006 M02/M03 A2979 1100 96 -700 310/04 RMK AO2 T10221028
04850KAOH AOH20160216102011602/16/16 10:20:31  5-MIN KAOH 161520Z AUTO 30004KT 2SM BR OVC006 M02/M03 A2979 1100 96 -700 310/04 RMK AO2 T10221028
04850KAOH AOH20160216102512002/16/16 10:25:31  5-MIN KAOH 161525Z AUTO 32004KT 1 3/4SM BR OVC006 M02/M03 A2979 1100 96 -700 320/04 RMK AO2 T10221028
04850KAOH AOH20160216103012002/16/16 10:30:31  5-MIN KAOH 161530Z AUTO 32005KT 1 3/4SM BR OVC006 M02/M03 A2979 1100 96 -700 320/05 RMK AO2 T10221028
04850KAOH AOH20160216103511602/16/16 10:35:31  5-MIN KAOH 161535Z AUTO 31004KT 2SM BR OVC006 M02/M03 A2979 1100 92 -600 320/04 RMK AO2 T10171028
04850KAOH AOH20160216104011602/16/16 10:40:31  5-MIN KAOH 161540Z AUTO 30004KT 2SM BR OVC006 M02/M03 A2979 1100 96 -700 310/04 RMK AO2 T10221028
04850KAOH AOH20160216104512002/16/16 10:45:31  5-MIN KAOH 161545Z AUTO 29004KT 2 1/2SM BR OVC006 M02/M03 A2980 1090 96 -700 300/04 RMK AO2 T10221028
04850KAOH AOH20160216105012702/16/16 10:50:31  5-MIN KAOH 161550Z AUTO 29004KT 2 1/2SM BR OVC006 M02/M03 A2980 1090 92 -600 300/04 RMK AO2 SLP100 T10171028
04850KAOH AOH20160216105512002/16/16 10:55:31  5-MIN KAOH 161555Z AUTO 30005KT 2 1/2SM BR OVC006 M02/M03 A2980 1090 92 -600 310/05 RMK AO2 T10171028
04850KAOH AOH20160216110012002/16/16 11:00:31  5-MIN KAOH 161600Z AUTO 30004KT 2 1/2SM BR OVC006 M02/M03 A2979 1100 96 -700 300/04 RMK AO2 T10221028
04850KAOH AOH20160216110512002/16/16 11:05:31  5-MIN KAOH 161605Z AUTO 30004KT 2 1/2SM BR OVC006 M02/M03 A2979 1090 96 -700 300/04 RMK AO2 T10221028
04850KAOH AOH20160216111012002/16/16 11:10:31  5-MIN KAOH 161610Z AUTO 32004KT 2 1/2SM BR OVC006 M02/M03 A2979 1100 96 -700 330/04 RMK AO2 T10221028
04850KAOH AOH20160216111511602/16/16 11:15:31  5-MIN KAOH 161615Z AUTO 31004KT 2SM BR OVC006 M02/M03 A2979 1100 92 -600 320/04 RMK AO2 T10171028
04850KAOH AOH20160216112011602/16/16 11:20:31  5-MIN KAOH 161620Z AUTO 30004KT 2SM BR OVC006 M02/M03 A2979 1100 92 -600 310/04 RMK AO2 T10171028
04850KAOH AOH20160216112511602/16/16 11:25:31  5-MIN KAOH 161625Z AUTO 30004KT 2SM BR OVC006 M02/M02 A2979 1100 96 -600 310/04 RMK AO2 T10171022
04850KAOH AOH20160216113011602/16/16 11:30:31  5-MIN KAOH 161630Z AUTO 31004KT 2SM BR OVC006 M02/M03 A2979 1100 92 -600 310/04 RMK AO2 T10171028
04850KAOH AOH20160216113512002/16/16 11:35:31  5-MIN KAOH 161635Z AUTO 30004KT 1 3/4SM BR OVC006 M02/M02 A2979 1090 96 -600 310/04 RMK AO2 T10171022
04850KAOH AOH20160216114013202/16/16 11:40:31  5-MIN KAOH 161640Z AUTO 30004KT 1 3/4SM BR OVC006 M02/M02 A2979 1090 96 -600 310/04 RMK AO2 CIG 004V008 T10171022
04850KAOH AOH20160216114512002/16/16 11:45:31  5-MIN KAOH 161645Z AUTO 29005KT 1 1/2SM BR OVC005 M02/M02 A2980 1090 96 -600 300/05 RMK AO2 T10171022
04850KAOH AOH20160216115012702/16/16 11:50:31  5-MIN KAOH 161650Z AUTO 28005KT 1 1/2SM BR OVC005 M02/M02 A2980 1090 96 -600 290/05 RMK AO2 SLP100 T10171022
04850KAOH AOH20160216115511602/16/16 11:55:31  5-MIN KAOH 161655Z AUTO 28004KT 2SM BR OVC005 M02/M02 A2980 1090 96 -600 290/04 RMK AO2 T10171022
04850KAOH AOH20160216120012802/16/16 12:00:31  5-MIN KAOH 161700Z AUTO 29005KT 2SM BR OVC005 M02/M02 A2980 1090 96 -600 290/05 RMK AO2 CIG 004V007 T10171022
04850KAOH AOH20160216120512002/16/16 12:05:31  5-MIN KAOH 161705Z AUTO 28005KT 2 1/2SM BR OVC005 M02/M02 A2980 1090 96 -600 290/05 RMK AO2 T10171022
04850KAOH AOH20160216121012002/16/16 12:10:31  5-MIN KAOH 161710Z AUTO 28006KT 2 1/2SM BR OVC006 M02/M03 A2980 1090 92 -600 280/06 RMK AO2 T10171028
04850KAOH AOH20160216121512002/16/16 12:15:31  5-MIN KAOH 161715Z AUTO 28007KT 2 1/2SM BR OVC006 M02/M03 A2980 1090 92 -600 280/07 RMK AO2 T10171028
04850KAOH AOH20160216122012002/16/16 12:20:31  5-MIN KAOH 161720Z AUTO 27007KT 2 1/2SM BR OVC007 M02/M03 A2980 1090 92 -600 280/07 RMK AO2 T10171028
04850KAOH AOH20160216122512002/16/16 12:25:31  5-MIN KAOH 161725Z AUTO 28006KT 2 1/2SM BR OVC007 M02/M03 A2980 1090 92 -600 280/06 RMK AO2 T10171028
04850KAOH AOH20160216123012002/16/16 12:30:31  5-MIN KAOH 161730Z AUTO 27007KT 2 1/2SM BR OVC007 M02/M03 A2980 1090 92 -600 280/07 RMK AO2 T10171028
04850KAOH AOH20160216123512002/16/16 12:35:31  5-MIN KAOH 161735Z AUTO 28007KT 2 1/2SM BR OVC007 M02/M03 A2980 1090 92 -600 280/07 RMK AO2 T10171028
04850KAOH AOH20160216124012002/16/16 12:40:31  5-MIN KAOH 161740Z AUTO 28006KT 2 1/2SM BR OVC007 M02/M03 A2979 1090 92 -600 280/06 RMK AO2 T10171028
04850KAOH AOH20160216124511602/16/16 12:45:31  5-MIN KAOH 161745Z AUTO 28005KT 3SM BR OVC007 M02/M03 A2979 1100 92 -600 290/05 RMK AO2 T10171028
04850KAOH AOH20160216125014102/16/16 12:50:31  5-MIN KAOH 161750Z AUTO 29006KT 3SM BR OVC009 M02/M03 A2979 1100 92 -600 290/06 RMK AO2 SLP098 T10171028 11017 21022 58003
04850KAOH AOH20160216125511602/16/16 12:55:31  5-MIN KAOH 161755Z AUTO 28005KT 3SM BR OVC009 M02/M03 A2979 1100 92 -600 290/05 RMK AO2 T10171028
04850KAOH AOH20160216130011602/16/16 13:00:31  5-MIN KAOH 161800Z AUTO 28006KT 3SM BR OVC009 M02/M03 A2978 1100 92 -600 290/06 RMK AO2 T10171028
04850KAOH AOH20160216130511602/16/16 13:05:31  5-MIN KAOH 161805Z AUTO 30005KT 3SM BR OVC009 M02/M03 A2978 1110 92 -600 300/05 RMK AO2 T10171028
04850KAOH AOH20160216131012302/16/16 13:10:31  5-MIN KAOH 161810Z AUTO 29007KT 3SM BR BKN009 OVC022 M01/M03 A2978 1110 88 -500 300/07 RMK AO2 T10111028
04850KAOH AOH20160216131512302/16/16 13:15:31  5-MIN KAOH 161815Z AUTO 28006KT 4SM BR BKN009 OVC020 M01/M03 A2977 1110 88 -500 290/06 RMK AO2 T10111028
04850KAOH AOH20160216132012302/16/16 13:20:31  5-MIN KAOH 161820Z AUTO 28006KT 4SM BR SCT009 OVC019 M01/M03 A2977 1120 88 -500 280/06 RMK AO2 T10111028
04850KAOH AOH20160216132512302/16/16 13:25:31  5-MIN KAOH 161825Z AUTO 28006KT 4SM BR FEW009 OVC019 M01/M03 A2977 1120 88 -500 290/06 RMK AO2 T10111028
04850KAOH AOH20160216133012302/16/16 13:30:31  5-MIN KAOH 161830Z AUTO 28006KT 4SM BR FEW011 OVC019 M01/M03 A2977 1120 88 -500 290/06 RMK AO2 T10111028
04850KAOH AOH20160216133512302/16/16 13:35:31  5-MIN KAOH 161835Z AUTO 28006KT 5SM BR FEW011 OVC019 M01/M03 A2977 1120 88 -500 290/06 RMK AO2 T10111028
04850KAOH AOH20160216134012302/16/16 13:40:31  5-MIN KAOH 161840Z AUTO 29006KT 6SM BR FEW011 OVC017 M01/M03 A2976 1120 85 -500 300/06 RMK AO2 T10111033
04850KAOH AOH20160216134512002/16/16 13:45:31  5-MIN KAOH 161845Z AUTO 28006KT 7SM FEW011 OVC017 M01/M03 A2976 1120 85 -500 290/06 RMK AO2 T10111033
04850KAOH AOH20160216135012002/16/16 13:50:31  5-MIN KAOH 161850Z AUTO 28006KT 8SM OVC017 M01/M03 A2976 1120 85 -500 290/06 RMK AO2 SLP089 T10111033
04850KAOH AOH20160216135512002/16/16 13:55:31  5-MIN KAOH 161855Z AUTO 28005KT 8SM FEW011 OVC017 M01/M03 A2977 1120 85 -500 290/05 RMK AO2 T10111033
04850KAOH AOH20160216140012002/16/16 14:00:31  5-MIN KAOH 161900Z AUTO 27006KT 8SM FEW011 OVC017 M01/M03 A2977 1120 85 -500 280/06 RMK AO2 T10111033
04850KAOH AOH20160216140511302/16/16 14:05:31  5-MIN KAOH 161905Z AUTO 27007KT 9SM OVC017 M01/M03 A2977 1120 85 -500 280/07 RMK AO2 T10111033
04850KAOH AOH20160216141011402/16/16 14:10:31  5-MIN KAOH 161910Z AUTO 28010KT 10SM OVC017 M01/M03 A2977 1120 85 -500 290/10 RMK AO2 T10111033
04850KAOH AOH20160216141511302/16/16 14:15:31  5-MIN KAOH 161915Z AUTO 29008KT 8SM OVC015 M01/M03 A2977 1120 85 -500 290/08 RMK AO2 T10111033
04850KAOH AOH20160216142012002/16/16 14:20:31  5-MIN KAOH 161920Z AUTO 30010KT 7SM BKN011 OVC015 M01/M03 A2977 1120 85 -500 300/10 RMK AO2 T10111033
04850KAOH AOH20160216142512002/16/16 14:25:31  5-MIN KAOH 161925Z AUTO 30011KT 7SM BKN011 OVC015 M02/M03 A2977 1120 88 -600 300/11 RMK AO2 T10171033
04850KAOH AOH20160216143012002/16/16 14:30:31  5-MIN KAOH 161930Z AUTO 30010KT 7SM BKN011 OVC016 M02/M03 A2977 1120 88 -600 300/10 RMK AO2 T10171033
04850KAOH AOH20160216143511302/16/16 14:35:31  5-MIN KAOH 161935Z AUTO 29010KT 7SM OVC011 M02/M03 A2977 1120 88 -600 300/10 RMK AO2 T10171033
04850KAOH AOH20160216144011302/16/16 14:40:31  5-MIN KAOH 161940Z AUTO 29011KT 7SM OVC011 M02/M03 A2976 1120 88 -600 300/11 RMK AO2 T10171033
04850KAOH AOH20160216144511302/16/16 14:45:31  5-MIN KAOH 161945Z AUTO 30009KT 8SM OVC011 M02/M03 A2976 1130 88 -600 310/09 RMK AO2 T10171033
04850KAOH AOH20160216145012002/16/16 14:50:31  5-MIN KAOH 161950Z AUTO 31008KT 8SM OVC011 M01/M03 A2976 1120 85 -500 310/08 RMK AO2 SLP088 T10111033
04850KAOH AOH20160216145511302/16/16 14:55:31  5-MIN KAOH 161955Z AUTO 30009KT 8SM OVC011 M01/M03 A2976 1120 85 -500 310/09 RMK AO2 T10111033
04850KAOH AOH20160216150011302/16/16 15:00:31  5-MIN KAOH 162000Z AUTO 30009KT 8SM OVC011 M01/M03 A2976 1120 85 -500 310/09 RMK AO2 T10111033
04850KAOH AOH20160216150511302/16/16 15:05:31  5-MIN KAOH 162005Z AUTO 29008KT 8SM OVC011 M01/M03 A2977 1120 85 -500 300/08 RMK AO2 T10111033
04850KAOH AOH20160216151011302/16/16 15:10:31  5-MIN KAOH 162010Z AUTO 29008KT 8SM OVC013 M01/M03 A2977 1120 85 -500 300/08 RMK AO2 T10111033
04850KAOH AOH20160216151511302/16/16 15:15:31  5-MIN KAOH 162015Z AUTO 29009KT 9SM OVC013 M01/M03 A2977 1120 85 -500 300/09 RMK AO2 T10111033
04850KAOH AOH20160216152011402/16/16 15:20:31  5-MIN KAOH 162020Z AUTO 30008KT 10SM OVC015 M01/M03 A2977 1120 85 -500 300/08 RMK AO2 T10111033
04850KAOH AOH20160216152511402/16/16 15:25:31  5-MIN KAOH 162025Z AUTO 31010KT 10SM OVC015 M01/M04 A2977 1110 81 -500 310/10 RMK AO2 T10111039
04850KAOH AOH20160216153011402/16/16 15:30:31  5-MIN KAOH 162030Z AUTO 31010KT 10SM OVC014 M01/M04 A2977 1110 81 -500 310/10 RMK AO2 T10111039
04850KAOH AOH20160216153511402/16/16 15:35:31  5-MIN KAOH 162035Z AUTO 30008KT 10SM OVC014 M01/M04 A2977 1120 81 -500 310/08 RMK AO2 T10111039
04850KAOH AOH20160216154011402/16/16 15:40:31  5-MIN KAOH 162040Z AUTO 30008KT 10SM OVC014 M01/M04 A2977 1120 81 -500 310/08 RMK AO2 T10111039
04850KAOH AOH20160216154511402/16/16 15:45:31  5-MIN KAOH 162045Z AUTO 31007KT 10SM OVC016 M01/M04 A2977 1120 81 -500 320/07 RMK AO2 T10111039
04850KAOH AOH20160216155010402/16/16 15:50:31  5-MIN KAOH 162050Z AUTO 30007KT 10SM OVC016 M01/M04 A2977 1120 81 -500 310/07 RMK AO2
04850KAOH AOH20160216155511402/16/16 15:55:31  5-MIN KAOH 162055Z AUTO 31007KT 10SM OVC016 M01/M03 A2977 1110 85 -500 310/07 RMK AO2 T10111033
04850KAOH AOH20160216160011402/16/16 16:00:31  5-MIN KAOH 162100Z AUTO 28009KT 10SM OVC016 M01/M04 A2977 1110 81 -500 290/09 RMK AO2 T10111039
04850KAOH AOH20160216160511402/16/16 16:05:31  5-MIN KAOH 162105Z AUTO 32009KT 10SM OVC016 M01/M03 A2978 1110 85 -500 330/09 RMK AO2 T10111033
04850KAOH AOH20160216161011402/16/16 16:10:31  5-MIN KAOH 162110Z AUTO 31008KT 10SM OVC018 M01/M04 A2978 1110 81 -500 320/08 RMK AO2 T10111039
04850KAOH AOH20160216161511402/16/16 16:15:31  5-MIN KAOH 162115Z AUTO 31008KT 10SM OVC018 M01/M04 A2977 1110 81 -500 320/08 RMK AO2 T10111039
04850KAOH AOH20160216162011402/16/16 16:20:31  5-MIN KAOH 162120Z AUTO 31009KT 10SM OVC018 M01/M04 A2977 1110 81 -500 320/09 RMK AO2 T10111039
04850KAOH AOH20160216162511402/16/16 16:25:31  5-MIN KAOH 162125Z AUTO 31007KT 10SM OVC018 M01/M04 A2977 1110 81 -500 320/07 RMK AO2 T10111039
04850KAOH AOH20160216163011402/16/16 16:30:31  5-MIN KAOH 162130Z AUTO 31011KT 10SM OVC018 M01/M04 A2978 1110 81 -500 320/11 RMK AO2 T10111039
04850KAOH AOH20160216163511402/16/16 16:35:31  5-MIN KAOH 162135Z AUTO 31009KT 10SM OVC018 M01/M04 A2978 1110 78 -500 320/09 RMK AO2 T10111044
04850KAOH AOH20160216164011402/16/16 16:40:31  5-MIN KAOH 162140Z AUTO 31008KT 10SM OVC018 M01/M04 A2978 1110 78 -500 310/08 RMK AO2 T10111044
04850KAOH AOH20160216164511402/16/16 16:45:31  5-MIN KAOH 162145Z AUTO 32006KT 10SM OVC018 M01/M04 A2978 1100 81 -500 320/06 RMK AO2 T10111039
04850KAOH AOH20160216165012102/16/16 16:50:31  5-MIN KAOH 162150Z AUTO 32006KT 10SM OVC018 M01/M04 A2979 1100 81 -500 330/06 RMK AO2 SLP096 T10111039
04850KAOH AOH20160216165511402/16/16 16:55:31  5-MIN KAOH 162155Z AUTO 31009KT 10SM OVC018 M01/M04 A2979 1100 81 -500 320/09 RMK AO2 T10111039
04850KAOH AOH20160216170011402/16/16 17:00:31  5-MIN KAOH 162200Z AUTO 30006KT 10SM OVC018 M01/M04 A2979 1090 81 -500 300/06 RMK AO2 T10111039
04850KAOH AOH20160216170511402/16/16 17:05:31  5-MIN KAOH 162205Z AUTO 31007KT 10SM OVC016 M01/M04 A2980 1090 81 -500 310/07 RMK AO2 T10111039
04850KAOH AOH20160216171011402/16/16 17:10:31  5-MIN KAOH 162210Z AUTO 31007KT 10SM OVC016 M01/M04 A2980 1090 81 -500 320/07 RMK AO2 T10111039
04850KAOH AOH20160216171511402/16/16 17:15:31  5-MIN KAOH 162215Z AUTO 32007KT 10SM OVC016 M01/M04 A2980 1090 81 -500 320/07 RMK AO2 T10111039
04850KAOH AOH20160216172011402/16/16 17:20:31  5-MIN KAOH 162220Z AUTO 29008KT 10SM OVC016 M01/M04 A2981 1080 81 -500 290/08 RMK AO2 T10111039
04850KAOH AOH20160216172511402/16/16 17:25:31  5-MIN KAOH 162225Z AUTO 31006KT 10SM OVC016 M01/M04 A2980 1080 81 -500 310/06 RMK AO2 T10111039
04850KAOH AOH20160216173011402/16/16 17:30:31  5-MIN KAOH 162230Z AUTO 31008KT 10SM OVC016 M01/M04 A2981 1080 78 -500 320/08 RMK AO2 T10111044
04850KAOH AOH20160216173511402/16/16 17:35:31  5-MIN KAOH 162235Z AUTO 30008KT 10SM OVC016 M01/M04 A2981 1080 78 -500 310/08 RMK AO2 T10111044
04850KAOH AOH20160216174011402/16/16 17:40:31  5-MIN KAOH 162240Z AUTO 30008KT 10SM OVC016 M02/M04 A2981 1080 81 -600 300/08 RMK AO2 T10171044
04850KAOH AOH20160216174511402/16/16 17:45:31  5-MIN KAOH 162245Z AUTO 30008KT 10SM OVC016 M02/M04 A2982 1070 81 -600 310/08 RMK AO2 T10171044
04850KAOH AOH20160216175012102/16/16 17:50:31  5-MIN KAOH 162250Z AUTO 30008KT 10SM OVC016 M02/M04 A2982 1070 81 -600 300/08 RMK AO2 SLP109 T10171044
04850KAOH AOH20160216175511402/16/16 17:55:31  5-MIN KAOH 162255Z AUTO 29009KT 10SM OVC016 M02/M04 A2983 1060 81 -600 290/09 RMK AO2 T10171044
04850KAOH AOH20160216180011402/16/16 18:00:31  5-MIN KAOH 162300Z AUTO 30008KT 10SM OVC016 M02/M04 A2983 1060 81 -600 310/08 RMK AO2 T10171044
04850KAOH AOH20160216180511402/16/16 18:05:31  5-MIN KAOH 162305Z AUTO 31010KT 10SM OVC016 M02/M04 A2983 1060 81 -600 320/10 RMK AO2 T10171044
04850KAOH AOH20160216181011402/16/16 18:10:31  5-MIN KAOH 162310Z AUTO 30007KT 10SM OVC016 M02/M04 A2984 1050 81 -600 300/07 RMK AO2 T10171044
04850KAOH AOH20160216181511402/16/16 18:15:31  5-MIN KAOH 162315Z AUTO 30008KT 10SM OVC016 M02/M04 A2984 1050 81 -600 310/08 RMK AO2 T10171044
04850KAOH AOH20160216182011402/16/16 18:20:31  5-MIN KAOH 162320Z AUTO 30007KT 10SM OVC016 M02/M04 A2984 1050 81 -600 310/07 RMK AO2 T10171044
04850KAOH AOH20160216182511402/16/16 18:25:31  5-MIN KAOH 162325Z AUTO 31009KT 10SM OVC016 M02/M04 A2985 1040 81 -700 310/09 RMK AO2 T10171044
04850KAOH AOH20160216183011402/16/16 18:30:31  5-MIN KAOH 162330Z AUTO 28010KT 10SM OVC016 M02/M04 A2985 1040 81 -700 290/10 RMK AO2 T10171044
04850KAOH AOH20160216183511402/16/16 18:35:31  5-MIN KAOH 162335Z AUTO 28010KT 10SM OVC016 M02/M04 A2986 1040 81 -700 280/10 RMK AO2 T10171044
04850KAOH AOH20160216184011402/16/16 18:40:31  5-MIN KAOH 162340Z AUTO 29008KT 10SM OVC016 M02/M04 A2986 1040 81 -700 290/08 RMK AO2 T10171044
04850KAOH AOH20160216184511402/16/16 18:45:31  5-MIN KAOH 162345Z AUTO 29009KT 10SM OVC016 M02/M04 A2986 1030 81 -700 300/09 RMK AO2 T10171044
04850KAOH AOH20160216185013902/16/16 18:50:31  5-MIN KAOH 162350Z AUTO 31008KT 10SM OVC016 M02/M04 A2986 1030 81 -700 310/08 RMK AO2 SLP122 T10171044 11011 21017 55005
04850KAOH AOH20160216185511402/16/16 18:55:31  5-MIN KAOH 162355Z AUTO 29005KT 10SM OVC016 M02/M04 A2986 1030 81 -700 290/05 RMK AO2 T10171044
04850KAOH AOH20160216190011402/16/16 19:00:31  5-MIN KAOH 170000Z AUTO 28006KT 10SM OVC016 M02/M04 A2987 1030 81 -700 290/06 RMK AO2 T10171044
04850KAOH AOH20160216190511402/16/16 19:05:31  5-MIN KAOH 170005Z AUTO 30006KT 10SM OVC015 M02/M04 A2987 1030 81 -700 310/06 RMK AO2 T10171044
04850KAOH AOH20160216191011402/16/16 19:10:31  5-MIN KAOH 170010Z AUTO 31006KT 10SM OVC015 M02/M04 A2987 1030 81 -700 310/06 RMK AO2 T10171044
04850KAOH AOH20160216191511402/16/16 19:15:31  5-MIN KAOH 170015Z AUTO 31008KT 10SM OVC015 M02/M04 A2987 1030 81 -700 320/08 RMK AO2 T10171044
04850KAOH AOH20160216192011302/16/16 19:20:31  5-MIN KAOH 170020Z AUTO 32006KT 9SM OVC015 M02/M04 A2987 1030 81 -700 330/06 RMK AO2 T10171044
04850KAOH AOH20160216192511302/16/16 19:25:31  5-MIN KAOH 170025Z AUTO 32007KT 9SM OVC015 M02/M04 A2987 1020 81 -700 320/07 RMK AO2 T10171044
04850KAOH AOH20160216193011302/16/16 19:30:31  5-MIN KAOH 170030Z AUTO 28006KT 9SM OVC015 M02/M04 A2987 1020 81 -700 290/06 RMK AO2 T10171044
04850KAOH AOH20160216193511302/16/16 19:35:31  5-MIN KAOH 170035Z AUTO 29010KT 9SM OVC015 M02/M04 A2987 1020 81 -700 300/10 RMK AO2 T10171044
04850KAOH AOH20160216194011302/16/16 19:40:31  5-MIN KAOH 170040Z AUTO 31006KT 9SM OVC015 M02/M04 A2988 1020 81 -700 320/06 RMK AO2 T10171044
04850KAOH AOH20160216194511302/16/16 19:45:31  5-MIN KAOH 170045Z AUTO 32006KT 8SM OVC015 M02/M04 A2988 1020 81 -700 330/06 RMK AO2 T10171044
04850KAOH AOH20160216195012002/16/16 19:50:31  5-MIN KAOH 170050Z AUTO 32009KT 8SM OVC015 M02/M04 A2988 1020 81 -700 320/09 RMK AO2 SLP128 T10171044
04850KAOH AOH20160216195511302/16/16 19:55:31  5-MIN KAOH 170055Z AUTO 31007KT 8SM OVC015 M02/M04 A2988 1020 81 -700 310/07 RMK AO2 T10171044
04850KAOH AOH20160216200011302/16/16 20:00:31  5-MIN KAOH 170100Z AUTO 31006KT 8SM OVC015 M02/M04 A2988 1020 81 -700 320/06 RMK AO2 T10171044
04850KAOH AOH20160216200511302/16/16 20:05:31  5-MIN KAOH 170105Z AUTO 33005KT 8SM OVC015 M02/M04 A2988 1020 81 -700 340/05 RMK AO2 T10171044
04850KAOH AOH20160216201011302/16/16 20:10:31  5-MIN KAOH 170110Z AUTO 32004KT 8SM OVC015 M02/M04 A2988 1020 81 -700 330/04 RMK AO2 T10171044
04850KAOH AOH20160216201511302/16/16 20:15:31  5-MIN KAOH 170115Z AUTO 33008KT 8SM OVC017 M02/M04 A2988 1020 81 -700 340/08 RMK AO2 T10171044
04850KAOH AOH20160216202011302/16/16 20:20:31  5-MIN KAOH 170120Z AUTO 33007KT 9SM OVC017 M02/M05 A2988 1020 78 -700 340/07 RMK AO2 T10171050
04850KAOH AOH20160216202511402/16/16 20:25:31  5-MIN KAOH 170125Z AUTO 34006KT 10SM OVC019 M02/M05 A2988 1010 78 -700 350/06 RMK AO2 T10171050
04850KAOH AOH20160216203011402/16/16 20:30:31  5-MIN KAOH 170130Z AUTO 33004KT 10SM OVC019 M02/M05 A2988 1010 78 -700 330/04 RMK AO2 T10171050
04850KAOH AOH20160216203511402/16/16 20:35:31  5-MIN KAOH 170135Z AUTO 32003KT 10SM OVC019 M02/M05 A2988 1010 78 -700 330/03 RMK AO2 T10171050
04850KAOH AOH20160216204011402/16/16 20:40:31  5-MIN KAOH 170140Z AUTO 00000KT 10SM OVC021 M02/M05 A2988 1010 78 -700 000/00 RMK AO2 T10171050
04850KAOH AOH20160216204511402/16/16 20:45:31  5-MIN KAOH 170145Z AUTO 00000KT 10SM OVC021 M02/M05 A2988 1010 78 -700 000/00 RMK AO2 T10171050
04850KAOH AOH20160216205012102/16/16 20:50:31  5-MIN KAOH 170150Z AUTO 00000KT 10SM OVC021 M02/M04 A2989 1010 81 -700 000/00 RMK AO2 SLP132 T10171044
04850KAOH AOH20160216205511402/16/16 20:55:31  5-MIN KAOH 170155Z AUTO 00000KT 10SM OVC022 M02/M04 A2989 1010 81 -700 000/00 RMK AO2 T10171044
04850KAOH AOH20160216210011402/16/16 21:00:31  5-MIN KAOH 170200Z AUTO 00000KT 10SM OVC022 M02/M05 A2989 1000 78 -700 000/00 RMK AO2 T10171050
04850KAOH AOH20160216210511402/16/16 21:05:31  5-MIN KAOH 170205Z AUTO 00000KT 10SM OVC022 M02/M04 A2989 1000 81 -700 000/00 RMK AO2 T10171044
04850KAOH AOH20160216211011302/16/16 21:10:31  5-MIN KAOH 170210Z AUTO 00000KT 9SM OVC023 M02/M04 A2990 1000 81 -700 000/00 RMK AO2 T10171044
04850KAOH AOH20160216211511302/16/16 21:15:31  5-MIN KAOH 170215Z AUTO 00000KT 9SM OVC023 M02/M05 A2990 1000 78 -700 000/00 RMK AO2 T10171050
04850KAOH AOH20160216212011402/16/16 21:20:31  5-MIN KAOH 170220Z AUTO 00000KT 10SM OVC023 M02/M04 A2990 1000 81 -700 000/00 RMK AO2 T10171044
04850KAOH AOH20160216212511302/16/16 21:25:31  5-MIN KAOH 170225Z AUTO 00000KT 9SM OVC023 M02/M04 A2990 1000 81 -700 000/00 RMK AO2 T10171044
04850KAOH AOH20160216213011302/16/16 21:30:31  5-MIN KAOH 170230Z AUTO 00000KT 9SM OVC023 M02/M04 A2990 1000 81 -700 000/00 RMK AO2 T10171044
04850KAOH AOH20160216213511302/16/16 21:35:31  5-MIN KAOH 170235Z AUTO 00000KT 8SM OVC023 M02/M05 A2990 1000 78 -700 000/00 RMK AO2 T10171050
04850KAOH AOH20160216214011202/16/16 21:40:31  5-MIN KAOH 170240Z AUTO 27004KT 9SM OVC023 M02/M05 A2990 990 78 -700 280/04 RMK AO2 T10171050
04850KAOH AOH20160216214511202/16/16 21:45:31  5-MIN KAOH 170245Z AUTO 00000KT 9SM OVC023 M02/M05 A2990 990 78 -700 000/00 RMK AO2 T10171050
04850KAOH AOH20160216215012502/16/16 21:50:31  5-MIN KAOH 170250Z AUTO 00000KT 9SM OVC023 M02/M05 A2991 990 78 -700 000/00 RMK AO2 SLP137 T10171050 53030
04850KAOH AOH20160216215511202/16/16 21:55:31  5-MIN KAOH 170255Z AUTO 24003KT 9SM OVC023 M02/M04 A2991 990 81 -700 250/03 RMK AO2 T10171044
04850KAOH AOH20160216220011202/16/16 22:00:31  5-MIN KAOH 170300Z AUTO 24003KT 9SM OVC023 M02/M04 A2991 990 81 -700 250/03 RMK AO2 T10171044
04850KAOH AOH20160216220511202/16/16 22:05:31  5-MIN KAOH 170305Z AUTO 24004KT 9SM OVC023 M02/M05 A2991 980 78 -700 250/04 RMK AO2 T10171050
04850KAOH AOH20160216221011202/16/16 22:10:31  5-MIN KAOH 170310Z AUTO 23004KT 9SM OVC023 M02/M05 A2991 990 78 -700 230/04 RMK AO2 T10171050
04850KAOH AOH20160216221511202/16/16 22:15:31  5-MIN KAOH 170315Z AUTO 00000KT 9SM OVC023 M02/M05 A2991 990 78 -700 000/00 RMK AO2 T10171050
04850KAOH AOH20160216222011202/16/16 22:20:31  5-MIN KAOH 170320Z AUTO 19003KT 8SM OVC023 M02/M05 A2991 990 78 -700 190/03 RMK AO2 T10171050
04850KAOH AOH20160216222511202/16/16 22:25:31  5-MIN KAOH 170325Z AUTO 00000KT 8SM OVC023 M02/M05 A2990 990 78 -700 000/00 RMK AO2 T10171050
04850KAOH AOH20160216223011202/16/16 22:30:31  5-MIN KAOH 170330Z AUTO 17003KT 8SM OVC023 M02/M05 A2990 990 78 -700 170/03 RMK AO2 T10171050
04850KAOH AOH20160216223511202/16/16 22:35:31  5-MIN KAOH 170335Z AUTO 00000KT 8SM OVC023 M02/M05 A2991 990 81 -800 000/00 RMK AO2 T10221050
04850KAOH AOH20160216224011202/16/16 22:40:31  5-MIN KAOH 170340Z AUTO 19003KT 8SM OVC023 M02/M05 A2991 990 81 -800 190/03 RMK AO2 T10221050
04850KAOH AOH20160216224511202/16/16 22:45:31  5-MIN KAOH 170345Z AUTO 00000KT 8SM OVC023 M02/M05 A2991 990 81 -800 000/00 RMK AO2 T10221050
04850KAOH AOH20160216225011902/16/16 22:50:31  5-MIN KAOH 170350Z AUTO 00000KT 8SM OVC023 M02/M05 A2991 990 81 -800 000/00 RMK AO2 SLP138 T10221050
04850KAOH AOH20160216225511202/16/16 22:55:31  5-MIN KAOH 170355Z AUTO 00000KT 8SM OVC023 M03/M05 A2991 990 85 -900 000/00 RMK AO2 T10281050
04850KAOH AOH20160216230011202/16/16 23:00:31  5-MIN KAOH 170400Z AUTO 18004KT 8SM OVC023 M03/M06 A2990 990 81 -900 180/04 RMK AO2 T10281056
04850KAOH AOH20160216230511202/16/16 23:05:31  5-MIN KAOH 170405Z AUTO 19004KT 8SM OVC023 M03/M06 A2990 990 81 -900 200/04 RMK AO2 T10281056
04850KAOH AOH20160216231011202/16/16 23:10:31  5-MIN KAOH 170410Z AUTO 20004KT 8SM OVC023 M03/M06 A2990 990 81 -900 210/04 RMK AO2 T10281056
04850KAOH AOH20160216231511202/16/16 23:15:31  5-MIN KAOH 170415Z AUTO 22004KT 8SM OVC022 M02/M05 A2991 990 81 -800 220/04 RMK AO2 T10221050
04850KAOH AOH20160216232011202/16/16 23:20:31  5-MIN KAOH 170420Z AUTO 23005KT 8SM OVC022 M02/M05 A2991 990 81 -800 240/05 RMK AO2 T10221050
04850KAOH AOH20160216232511202/16/16 23:25:31  5-MIN KAOH 170425Z AUTO 24004KT 8SM OVC022 M02/M05 A2991 990 81 -800 240/04 RMK AO2 T10221050
04850KAOH AOH20160216233011202/16/16 23:30:31  5-MIN KAOH 170430Z AUTO 26004KT 9SM OVC022 M02/M05 A2991 980 81 -800 270/04 RMK AO2 T10221050
04850KAOH AOH20160216233511202/16/16 23:35:31  5-MIN KAOH 170435Z AUTO 25004KT 8SM OVC022 M02/M04 A2991 980 85 -800 260/04 RMK AO2 T10221044
04850KAOH AOH20160216234011202/16/16 23:40:31  5-MIN KAOH 170440Z AUTO 24003KT 8SM OVC022 M02/M04 A2991 980 85 -800 240/03 RMK AO2 T10221044
04850KAOH AOH20160216234511202/16/16 23:45:31  5-MIN KAOH 170445Z AUTO 24003KT 8SM OVC022 M02/M04 A2991 980 85 -800 250/03 RMK AO2 T10221044
04850KAOH AOH20160216235012902/16/16 23:50:31  5-MIN KAOH 170450Z AUTO 27003KT 8SM OVC022 M02/M04 A2992 980 85 -800 280/03 RMK AO2 SLP141 T10221044 400001028
04850KAOH AOH20160216235511202/16/16 23:55:31  5-MIN KAOH 170455Z AUTO 28004KT 8SM OVC022 M02/M04 A2992 980 85 -800 280/04 RMK AO2 T10221044
04850KAOH AOH20160217000011202/17/16 00:00:31  5-MIN KAOH 170500Z AUTO 27004KT 8SM OVC022 M02/M04 A2992 980 85 -800 280/04 RMK AO2 T10221044
04850KAOH AOH20160217000511202/17/16 00:05:31  5-MIN KAOH 170505Z AUTO 27004KT 8SM OVC022 M02/M04 A2992 980 85 -800 280/04 RMK AO2 T10221044
04850KAOH AOH20160217001011202/17/16 00:10:31  5-MIN KAOH 170510Z AUTO 27004KT 8SM OVC021 M02/M04 A2993 970 85 -800 280/04 RMK AO2 T10221044
04850KAOH AOH20160217001511202/17/16 00:15:31  5-MIN KAOH 170515Z AUTO 28003KT 8SM OVC021 M02/M04 A2993 970 85 -800 280/03 RMK AO2 T10221044
04850KAOH AOH20160217002011202/17/16 00:20:31  5-MIN KAOH 170520Z AUTO 25003KT 8SM OVC021 M02/M04 A2993 970 85 -800 260/03 RMK AO2 T10221044
04850KAOH AOH20160217002511202/17/16 00:25:31  5-MIN KAOH 170525Z AUTO 24006KT 8SM OVC021 M02/M04 A2993 970 81 -700 250/06 RMK AO2 T10171044
04850KAOH AOH20160217003011202/17/16 00:30:31  5-MIN KAOH 170530Z AUTO 24006KT 8SM OVC021 M02/M04 A2993 970 81 -800 240/06 RMK AO2 T10171044
04850KAOH AOH20160217003511202/17/16 00:35:31  5-MIN KAOH 170535Z AUTO 24006KT 9SM OVC021 M02/M04 A2993 960 81 -800 250/06 RMK AO2 T10171044
04850KAOH AOH20160217004011202/17/16 00:40:31  5-MIN KAOH 170540Z AUTO 25006KT 8SM OVC021 M02/M04 A2994 960 81 -800 250/06 RMK AO2 T10171044
04850KAOH AOH20160217004511202/17/16 00:45:31  5-MIN KAOH 170545Z AUTO 26005KT 8SM OVC021 M02/M04 A2994 960 81 -800 260/05 RMK AO2 T10171044
04850KAOH AOH20160217005013702/17/16 00:50:31  5-MIN KAOH 170550Z AUTO 27004KT 8SM OVC021 M02/M04 A2994 960 81 -800 270/04 RMK AO2 SLP148 T10171044 11017 21028 53014
04850KAOH AOH20160217005511202/17/16 00:55:31  5-MIN KAOH 170555Z AUTO 27004KT 7SM OVC021 M02/M04 A2994 960 81 -800 270/04 RMK AO2 T10171044
04850KAOH AOH20160217010011202/17/16 01:00:31  5-MIN KAOH 170600Z AUTO 26006KT 7SM OVC020 M02/M04 A2994 960 81 -800 260/06 RMK AO2 T10171044
04850KAOH AOH20160217010511202/17/16 01:05:31  5-MIN KAOH 170605Z AUTO 26005KT 7SM OVC020 M02/M04 A2994 960 81 -800 270/05 RMK AO2 T10171044
04850KAOH AOH20160217011011502/17/16 01:10:31  5-MIN KAOH 170610Z AUTO 27004KT 6SM HZ OVC020 M02/M04 A2994 960 81 -800 270/04 RMK AO2 T10171044
04850KAOH AOH20160217011511502/17/16 01:15:31  5-MIN KAOH 170615Z AUTO 28004KT 6SM BR OVC018 M02/M04 A2994 960 85 -800 280/04 RMK AO2 T10171039
04850KAOH AOH20160217012011502/17/16 01:20:31  5-MIN KAOH 170620Z AUTO 27005KT 6SM BR OVC018 M02/M04 A2994 960 85 -800 270/05 RMK AO2 T10171039
04850KAOH AOH20160217012513102/17/16 01:25:31  5-MIN KAOH 170625Z AUTO 25006KT 4SM -SN BR OVC018 M02/M04 A2994 960 85 -800 250/06 RMK AO2 SNB21 P0000 T10171039
04850KAOH AOH20160217013013102/17/16 01:30:31  5-MIN KAOH 170630Z AUTO 25007KT 2SM -SN BR OVC018 M02/M04 A2994 960 85 -800 250/07 RMK AO2 SNB21 P0000 T10171039
04850KAOH AOH20160217013513502/17/16 01:35:31  5-MIN KAOH 170635Z AUTO 25006KT 1 3/4SM -SN BR OVC018 M02/M04 A2993 970 88 -800 250/06 RMK AO2 SNB21 P0000 T10221039
04850KAOH AOH20160217014013102/17/16 01:40:31  5-MIN KAOH 170640Z AUTO 25006KT 2SM -SN BR OVC018 M02/M03 A2993 970 92 -800 250/06 RMK AO2 SNB21 P0000 T10221033
04850KAOH AOH20160217014513102/17/16 01:45:31  5-MIN KAOH 170645Z AUTO 24005KT 3SM -SN BR OVC018 M02/M03 A2994 960 92 -800 250/05 RMK AO2 SNB21 P0000 T10221033
04850KAOH AOH20160217015013702/17/16 01:50:31  5-MIN KAOH 170650Z AUTO 25006KT 4SM BR OVC016 M02/M03 A2994 960 92 -800 260/06 RMK AO2 SNB21E50 SLP149 P0000 T10221033
04850KAOH AOH20160217015512202/17/16 01:55:31  5-MIN KAOH 170655Z AUTO 25006KT 5SM BR SCT010 OVC017 M02/M03 A2994 960 92 -800 260/06 RMK AO2 T10221033
04850KAOH AOH20160217020012202/17/16 02:00:31  5-MIN KAOH 170700Z AUTO 25006KT 5SM BR SCT010 OVC017 M02/M03 A2994 960 92 -800 260/06 RMK AO2 T10221033
04850KAOH AOH20160217020513402/17/16 02:05:31  5-MIN KAOH 170705Z AUTO 26006KT 4SM BR BKN010 OVC017 M02/M03 A2994 960 92 -800 260/06 RMK AO2 CIG 007V012 T10221033
04850KAOH AOH20160217021013402/17/16 02:10:31  5-MIN KAOH 170710Z AUTO 26006KT 4SM BR BKN010 OVC016 M02/M03 A2995 950 92 -800 270/06 RMK AO2 CIG 007V012 T10221033
04850KAOH AOH20160217021512202/17/16 02:15:31  5-MIN KAOH 170715Z AUTO 26008KT 4SM BR BKN007 OVC012 M02/M03 A2995 950 96 -800 270/08 RMK AO2 T10221028
04850KAOH AOH20160217022012702/17/16 02:20:31  5-MIN KAOH 170720Z AUTO 26007KT 4SM BR OVC007 M02/M03 A2995 950 96 -800 270/07 RMK AO2 CIG 007V012 T10221028
04850KAOH AOH20160217022512202/17/16 02:25:31  5-MIN KAOH 170725Z AUTO 26007KT 4SM BR BKN007 OVC011 M02/M03 A2995 950 96 -800 270/07 RMK AO2 T10221028
04850KAOH AOH20160217023012702/17/16 02:30:31  5-MIN KAOH 170730Z AUTO 27008KT 4SM BR OVC007 M02/M03 A2996 940 92 -800 270/08 RMK AO2 CIG 007V012 T10171028
04850KAOH AOH20160217023512702/17/16 02:35:31  5-MIN KAOH 170735Z AUTO 26009KT 4SM BR OVC007 M02/M03 A2996 940 92 -800 270/09 RMK AO2 CIG 007V010 T10171028
04850KAOH AOH20160217024011502/17/16 02:40:31  5-MIN KAOH 170740Z AUTO 26008KT 4SM BR OVC007 M02/M03 A2996 940 92 -800 270/08 RMK AO2 T10171028
04850KAOH AOH20160217024512702/17/16 02:45:31  5-MIN KAOH 170745Z AUTO 26008KT 4SM BR OVC007 M02/M03 A2996 940 92 -800 270/08 RMK AO2 CIG 006V013 T10171028
04850KAOH AOH20160217025012202/17/16 02:50:31  5-MIN KAOH 170750Z AUTO 26009KT 4SM BR OVC007 M02/M03 A2996 940 92 -800 270/09 RMK AO2 SLP157 T10171028
04850KAOH AOH20160217025511502/17/16 02:55:31  5-MIN KAOH 170755Z AUTO 27008KT 4SM BR OVC007 M02/M03 A2996 940 92 -800 270/08 RMK AO2 T10171028
04850KAOH AOH20160217030011502/17/16 03:00:31  5-MIN KAOH 170800Z AUTO 27010KT 4SM BR OVC007 M02/M03 A2996 940 92 -800 280/10 RMK AO2 T10171028
04850KAOH AOH20160217030511502/17/16 03:05:31  5-MIN KAOH 170805Z AUTO 27010KT 5SM BR OVC008 M02/M03 A2997 930 92 -800 280/10 RMK AO2 T10171028
04850KAOH AOH20160217031012702/17/16 03:10:31  5-MIN KAOH 170810Z AUTO 27010KT 5SM BR OVC008 M02/M03 A2997 930 92 -800 280/10 RMK AO2 CIG 007V011 T10171028
04850KAOH AOH20160217031512702/17/16 03:15:31  5-MIN KAOH 170815Z AUTO 27009KT 5SM BR OVC008 M02/M03 A2997 930 92 -800 280/09 RMK AO2 CIG 007V011 T10171028
04850KAOH AOH20160217032012702/17/16 03:20:31  5-MIN KAOH 170820Z AUTO 27007KT 5SM BR OVC008 M02/M03 A2997 930 92 -800 280/07 RMK AO2 CIG 007V012 T10171028
04850KAOH AOH20160217032513402/17/16 03:25:31  5-MIN KAOH 170825Z AUTO 28007KT 5SM BR BKN008 OVC023 M02/M03 A2997 930 88 -800 280/07 RMK AO2 CIG 007V012 T10171033
04850KAOH AOH20160217033013402/17/16 03:30:31  5-MIN KAOH 170830Z AUTO 28007KT 5SM BR BKN008 OVC023 M02/M03 A2997 930 88 -800 280/07 RMK AO2 CIG 007V012 T10171033
04850KAOH AOH20160217033512202/17/16 03:35:31  5-MIN KAOH 170835Z AUTO 27008KT 5SM BR BKN008 OVC023 M02/M03 A2997 930 92 -800 280/08 RMK AO2 T10171028
04850KAOH AOH20160217034013402/17/16 03:40:31  5-MIN KAOH 170840Z AUTO 26008KT 5SM BR BKN008 OVC023 M02/M03 A2997 930 92 -800 270/08 RMK AO2 CIG 007V012 T10171028
04850KAOH AOH20160217034513402/17/16 03:45:31  5-MIN KAOH 170845Z AUTO 26008KT 5SM BR BKN009 OVC023 M02/M03 A2997 930 92 -800 270/08 RMK AO2 CIG 007V012 T10171028
04850KAOH AOH20160217035015302/17/16 03:50:31  5-MIN KAOH 170850Z AUTO 27007KT 4SM BR BKN009 OVC023 M02/M03 A2997 930 92 -800 270/07 RMK AO2 CIG 007V011 SLP161 60000 T10171028 53010
04850KAOH AOH20160217035513402/17/16 03:55:31  5-MIN KAOH 170855Z AUTO 28007KT 4SM BR BKN009 OVC023 M02/M03 A2997 930 92 -800 280/07 RMK AO2 CIG 007V011 T10171028
04850KAOH AOH20160217140011202/17/16 14:00:31  5-MIN KAOH 171900Z AUTO 29010KT 10SM OVC035 02/M04 A3018 740 66 -600 300/10 RMK AO2 T00171039
04850KAOH AOH20160217140511902/17/16 14:05:31  5-MIN KAOH 171905Z AUTO 29008KT 10SM SCT031 OVC039 02/M04 A3018 740 66 -600 290/08 RMK AO2 T00171039
04850KAOH AOH20160217141011902/17/16 14:10:31  5-MIN KAOH 171910Z AUTO 28011KT 10SM SCT031 OVC042 02/M04 A3018 740 64 -600 290/11 RMK AO2 T00171044
04850KAOH AOH20160217141511902/17/16 14:15:31  5-MIN KAOH 171915Z AUTO 28012KT 10SM FEW031 OVC040 02/M04 A3018 740 64 -600 290/12 RMK AO2 T00171044
04850KAOH AOH20160217142011202/17/16 14:20:31  5-MIN KAOH 171920Z AUTO 29011KT 10SM OVC040 02/M04 A3018 740 64 -600 300/11 RMK AO2 T00171044
04850KAOH AOH20160217142511202/17/16 14:25:31  5-MIN KAOH 171925Z AUTO 29010KT 10SM OVC040 02/M04 A3018 740 66 -600 290/10 RMK AO2 T00171039
04850KAOH AOH20160217143011202/17/16 14:30:31  5-MIN KAOH 171930Z AUTO 30011KT 10SM OVC040 02/M04 A3018 740 64 -600 310/11 RMK AO2 T00171044
04850KAOH AOH20160217143511202/17/16 14:35:31  5-MIN KAOH 171935Z AUTO 29010KT 10SM OVC040 02/M04 A3018 730 64 -600 290/10 RMK AO2 T00171044
04850KAOH AOH20160217144011202/17/16 14:40:31  5-MIN KAOH 171940Z AUTO 28010KT 10SM OVC040 02/M04 A3019 730 66 -600 290/10 RMK AO2 T00171039
04850KAOH AOH20160217144511202/17/16 14:45:31  5-MIN KAOH 171945Z AUTO 28010KT 10SM OVC039 02/M04 A3018 730 66 -600 290/10 RMK AO2 T00171039
04850KAOH AOH20160217145012602/17/16 14:50:31  5-MIN KAOH 171950Z AUTO 28010KT 10SM FEW029 OVC039 02/M04 A3019 730 66 -600 290/10 RMK AO2 SLP232 T00171039
04850KAOH AOH20160217145511902/17/16 14:55:31  5-MIN KAOH 171955Z AUTO 28010KT 10SM FEW029 OVC039 02/M04 A3019 730 66 -600 290/10 RMK AO2 T00171039
04850KAOH AOH20160217150011902/17/16 15:00:31  5-MIN KAOH 172000Z AUTO 28007KT 10SM BKN041 OVC049 02/M04 A3019 730 66 -600 290/07 RMK AO2 T00171039
04850KAOH AOH20160217150512602/17/16 15:05:31  5-MIN KAOH 172005Z AUTO 29011KT 10SM FEW030 BKN041 OVC049 02/M04 A3019 730 66 -600 290/11 RMK AO2 T00171039
04850KAOH AOH20160217151011902/17/16 15:10:31  5-MIN KAOH 172010Z AUTO 29009KT 10SM SCT035 OVC043 02/M04 A3019 730 64 -600 300/09 RMK AO2 T00171044
04850KAOH AOH20160217151511902/17/16 15:15:31  5-MIN KAOH 172015Z AUTO 30010KT 10SM FEW030 OVC041 02/M04 A3020 720 64 -600 300/10 RMK AO2 T00171044
04850KAOH AOH20160217152011902/17/16 15:20:31  5-MIN KAOH 172020Z AUTO 29010KT 10SM FEW033 OVC041 02/M04 A3020 720 66 -600 300/10 RMK AO2 T00171039
04850KAOH AOH20160217152511902/17/16 15:25:31  5-MIN KAOH 172025Z AUTO 30009KT 10SM FEW033 OVC041 02/M04 A3020 720 64 -600 300/09 RMK AO2 T00171044
04850KAOH AOH20160217153011202/17/16 15:30:31  5-MIN KAOH 172030Z AUTO 29008KT 10SM OVC041 02/M04 A3020 720 66 -600 300/08 RMK AO2 T00171039
04850KAOH AOH20160217153511202/17/16 15:35:31  5-MIN KAOH 172035Z AUTO 29010KT 10SM OVC039 02/M04 A3020 720 64 -600 300/10 RMK AO2 T00171044
04850KAOH AOH20160217154011202/17/16 15:40:31  5-MIN KAOH 172040Z AUTO 30012KT 10SM OVC039 02/M04 A3021 710 64 -600 300/12 RMK AO2 T00171044
04850KAOH AOH20160217154511902/17/16 15:45:31  5-MIN KAOH 172045Z AUTO 29011KT 10SM FEW032 OVC041 02/M04 A3021 710 64 -600 300/11 RMK AO2 T00171044
04850KAOH AOH20160217155012502/17/16 15:50:31  5-MIN KAOH 172050Z AUTO 29010KT 10SM OVC041 02/M04 A3021 710 64 -600 300/10 RMK AO2 SLP240 T00171044 51004
04850KAOH AOH20160217155511202/17/16 15:55:31  5-MIN KAOH 172055Z AUTO 29010KT 10SM OVC041 02/M04 A3021 710 64 -700 290/10 RMK AO2 T00171044
04850KAOH AOH20160217160011902/17/16 16:00:31  5-MIN KAOH 172100Z AUTO 29010KT 10SM FEW033 OVC043 02/M04 A3021 710 64 -700 290/10 RMK AO2 T00171044
04850KAOH AOH20160217160511202/17/16 16:05:31  5-MIN KAOH 172105Z AUTO 28011KT 10SM OVC045 02/M04 A3021 710 64 -700 290/11 RMK AO2 T00171044
04850KAOH AOH20160217161011202/17/16 16:10:31  5-MIN KAOH 172110Z AUTO 28011KT 10SM OVC045 02/M04 A3022 710 66 -700 280/11 RMK AO2 T00171039
04850KAOH AOH20160217161511902/17/16 16:15:31  5-MIN KAOH 172115Z AUTO 28009KT 10SM FEW032 OVC045 02/M04 A3022 700 66 -700 290/09 RMK AO2 T00171039
04850KAOH AOH20160217162011902/17/16 16:20:31  5-MIN KAOH 172120Z AUTO 28011KT 10SM FEW032 OVC045 02/M04 A3022 700 66 -700 280/11 RMK AO2 T00171039
04850KAOH AOH20160217162511902/17/16 16:25:31  5-MIN KAOH 172125Z AUTO 28010KT 10SM FEW032 OVC047 02/M04 A3022 700 66 -700 290/10 RMK AO2 T00171039
04850KAOH AOH20160217163011902/17/16 16:30:31  5-MIN KAOH 172130Z AUTO 29011KT 10SM FEW032 OVC047 02/M04 A3023 700 66 -700 290/11 RMK AO2 T00171039
04850KAOH AOH20160217163511902/17/16 16:35:31  5-MIN KAOH 172135Z AUTO 28010KT 10SM FEW032 OVC047 02/M04 A3023 690 66 -700 290/10 RMK AO2 T00171039
04850KAOH AOH20160217164011902/17/16 16:40:31  5-MIN KAOH 172140Z AUTO 30010KT 10SM FEW032 OVC045 02/M04 A3023 690 66 -700 300/10 RMK AO2 T00171039
04850KAOH AOH20160217164511202/17/16 16:45:31  5-MIN KAOH 172145Z AUTO 30011KT 10SM OVC045 02/M04 A3023 690 64 -700 300/11 RMK AO2 T00171044
04850KAOH AOH20160217165011902/17/16 16:50:31  5-MIN KAOH 172150Z AUTO 29011KT 10SM OVC045 02/M04 A3023 690 64 -700 300/11 RMK AO2 SLP248 T00171044
04850KAOH AOH20160217165511202/17/16 16:55:31  5-MIN KAOH 172155Z AUTO 29008KT 10SM OVC045 01/M04 A3024 690 69 -700 300/08 RMK AO2 T00111039
04850KAOH AOH20160217170011202/17/16 17:00:31  5-MIN KAOH 172200Z AUTO 29010KT 10SM OVC045 01/M04 A3024 690 66 -800 290/10 RMK AO2 T00111044
04850KAOH AOH20160217170511202/17/16 17:05:31  5-MIN KAOH 172205Z AUTO 29010KT 10SM OVC047 01/M04 A3024 680 66 -800 290/10 RMK AO2 T00111044
04850KAOH AOH20160217171011202/17/16 17:10:31  5-MIN KAOH 172210Z AUTO 29008KT 10SM OVC047 01/M04 A3024 690 66 -800 290/08 RMK AO2 T00111044
04850KAOH AOH20160217171511202/17/16 17:15:31  5-MIN KAOH 172215Z AUTO 29009KT 10SM OVC046 01/M04 A3024 690 66 -700 290/09 RMK AO2 T00111044
04850KAOH AOH20160217172011202/17/16 17:20:31  5-MIN KAOH 172220Z AUTO 30007KT 10SM OVC046 01/M04 A3024 690 66 -800 300/07 RMK AO2 T00111044
04850KAOH AOH20160217172511202/17/16 17:25:31  5-MIN KAOH 172225Z AUTO 29009KT 10SM OVC046 01/M04 A3024 680 66 -800 290/09 RMK AO2 T00111044
04850KAOH AOH20160217173011202/17/16 17:30:31  5-MIN KAOH 172230Z AUTO 29009KT 10SM OVC046 01/M04 A3024 680 66 -800 300/09 RMK AO2 T00111044
04850KAOH AOH20160217173511202/17/16 17:35:31  5-MIN KAOH 172235Z AUTO 30008KT 10SM OVC046 01/M04 A3024 680 66 -800 300/08 RMK AO2 T00111044
04850KAOH AOH20160217174011202/17/16 17:40:31  5-MIN KAOH 172240Z AUTO 29007KT 10SM OVC045 01/M04 A3024 680 66 -800 300/07 RMK AO2 T00111044
04850KAOH AOH20160217174511202/17/16 17:45:31  5-MIN KAOH 172245Z AUTO 29008KT 10SM OVC045 01/M05 A3024 680 64 -800 290/08 RMK AO2 T00111050
04850KAOH AOH20160217175011902/17/16 17:50:31  5-MIN KAOH 172250Z AUTO 28011KT 10SM OVC045 01/M04 A3025 680 66 -800 280/11 RMK AO2 SLP253 T00111044
04850KAOH AOH20160217175511202/17/16 17:55:31  5-MIN KAOH 172255Z AUTO 28009KT 10SM OVC043 01/M05 A3025 670 64 -800 290/09 RMK AO2 T00111050
04850KAOH AOH20160217180011202/17/16 18:00:31  5-MIN KAOH 172300Z AUTO 29009KT 10SM OVC043 01/M04 A3025 670 66 -800 290/09 RMK AO2 T00111044
04850KAOH AOH20160217180511202/17/16 18:05:31  5-MIN KAOH 172305Z AUTO 28009KT 10SM OVC043 01/M04 A3025 670 66 -800 290/09 RMK AO2 T00111044
04850KAOH AOH20160217181011902/17/16 18:10:31  5-MIN KAOH 172310Z AUTO 29009KT 10SM FEW035 OVC043 01/M04 A3025 670 66 -800 290/09 RMK AO2 T00111044
04850KAOH AOH20160217181511902/17/16 18:15:31  5-MIN KAOH 172315Z AUTO 28008KT 10SM FEW037 OVC044 01/M04 A3026 670 66 -800 280/08 RMK AO2 T00111044
04850KAOH AOH20160217182011202/17/16 18:20:31  5-MIN KAOH 172320Z AUTO 27006KT 10SM OVC042 01/M04 A3026 670 72 -800 280/06 RMK AO2 T00061039
04850KAOH AOH20160217182511902/17/16 18:25:31  5-MIN KAOH 172325Z AUTO 27006KT 10SM FEW036 OVC044 01/M04 A3026 670 72 -800 270/06 RMK AO2 T00061039
04850KAOH AOH20160217183011202/17/16 18:30:31  5-MIN KAOH 172330Z AUTO 27006KT 10SM OVC042 01/M04 A3026 670 72 -800 280/06 RMK AO2 T00061039
04850KAOH AOH20160217183511202/17/16 18:35:31  5-MIN KAOH 172335Z AUTO 27007KT 10SM OVC042 01/M04 A3026 660 72 -800 280/07 RMK AO2 T00061039
04850KAOH AOH20160217184011202/17/16 18:40:31  5-MIN KAOH 172340Z AUTO 27007KT 10SM OVC042 01/M04 A3026 660 72 -900 270/07 RMK AO2 T00061039
04850KAOH AOH20160217184511202/17/16 18:45:31  5-MIN KAOH 172345Z AUTO 27007KT 10SM OVC042 01/M04 A3027 660 72 -900 270/07 RMK AO2 T00061039
04850KAOH AOH20160217185013702/17/16 18:50:31  5-MIN KAOH 172350Z AUTO 27007KT 10SM OVC042 01/M04 A3027 660 72 -900 280/07 RMK AO2 SLP261 T00061039 10017 20006 53013
04850KAOH AOH20160217185511202/17/16 18:55:31  5-MIN KAOH 172355Z AUTO 27008KT 10SM OVC042 01/M04 A3027 650 72 -900 280/08 RMK AO2 T00061039
04850KAOH AOH20160217190011202/17/16 19:00:31  5-MIN KAOH 180000Z AUTO 28007KT 10SM OVC042 01/M04 A3027 650 72 -900 290/07 RMK AO2 T00061039
04850KAOH AOH20160217190511202/17/16 19:05:31  5-MIN KAOH 180005Z AUTO 28006KT 10SM OVC042 01/M04 A3027 650 72 -900 280/06 RMK AO2 T00061039
04850KAOH AOH20160217191011202/17/16 19:10:31  5-MIN KAOH 180010Z AUTO 28006KT 10SM OVC043 01/M04 A3028 650 72 -900 290/06 RMK AO2 T00061039
04850KAOH AOH20160217191511202/17/16 19:15:31  5-MIN KAOH 180015Z AUTO 29006KT 10SM OVC043 01/M04 A3028 650 72 -900 290/06 RMK AO2 T00061039
04850KAOH AOH20160217192011202/17/16 19:20:31  5-MIN KAOH 180020Z AUTO 29008KT 10SM OVC043 01/M04 A3028 640 72 -900 300/08 RMK AO2 T00061039
04850KAOH AOH20160217192511202/17/16 19:25:31  5-MIN KAOH 180025Z AUTO 29008KT 10SM OVC042 01/M04 A3028 640 72 -900 300/08 RMK AO2 T00061039
04850KAOH AOH20160217193011202/17/16 19:30:31  5-MIN KAOH 180030Z AUTO 29008KT 10SM OVC042 01/M04 A3029 640 72 -900 300/08 RMK AO2 T00061039
04850KAOH AOH20160217193511202/17/16 19:35:31  5-MIN KAOH 180035Z AUTO 29008KT 10SM OVC040 01/M04 A3029 640 72 -900 300/08 RMK AO2 T00061039
04850KAOH AOH20160217194011202/17/16 19:40:31  5-MIN KAOH 180040Z AUTO 29006KT 10SM OVC040 01/M04 A3029 640 72 -900 300/06 RMK AO2 T00061039
04850KAOH AOH20160217194511202/17/16 19:45:31  5-MIN KAOH 180045Z AUTO 29007KT 10SM OVC040 01/M04 A3029 640 72 -900 290/07 RMK AO2 T00061039
04850KAOH AOH20160217195011902/17/16 19:50:31  5-MIN KAOH 180050Z AUTO 29007KT 10SM OVC040 01/M04 A3029 640 72 -900 290/07 RMK AO2 SLP268 T00061039
04850KAOH AOH20160217195511202/17/16 19:55:31  5-MIN KAOH 180055Z AUTO 29007KT 10SM OVC041 01/M04 A3029 640 69 -900 300/07 RMK AO2 T00061044
04850KAOH AOH20160217200011202/17/16 20:00:31  5-MIN KAOH 180100Z AUTO 29008KT 10SM OVC041 01/M04 A3029 630 69 -900 300/08 RMK AO2 T00061044
04850KAOH AOH20160217200511202/17/16 20:05:31  5-MIN KAOH 180105Z AUTO 28007KT 10SM OVC041 01/M05 A3029 630 66 -900 290/07 RMK AO2 T00061050
04850KAOH AOH20160217201011202/17/16 20:10:31  5-MIN KAOH 180110Z AUTO 29007KT 10SM OVC043 01/M06 A3029 630 63 -900 290/07 RMK AO2 T00061056
04850KAOH AOH20160217201511202/17/16 20:15:31  5-MIN KAOH 180115Z AUTO 28008KT 10SM OVC043 01/M06 A3030 630 63 -900 290/08 RMK AO2 T00061056
04850KAOH AOH20160217202011202/17/16 20:20:31  5-MIN KAOH 180120Z AUTO 29008KT 10SM OVC043 01/M06 A3030 630 63 -900 290/08 RMK AO2 T00061056
04850KAOH AOH20160217202511202/17/16 20:25:31  5-MIN KAOH 180125Z AUTO 29007KT 10SM OVC042 01/M06 A3030 630 63 -900 300/07 RMK AO2 T00061056
04850KAOH AOH20160217203011202/17/16 20:30:31  5-MIN KAOH 180130Z AUTO 29006KT 10SM OVC042 01/M05 A3030 630 66 -900 300/06 RMK AO2 T00061050
04850KAOH AOH20160217203511202/17/16 20:35:31  5-MIN KAOH 180135Z AUTO 30006KT 10SM OVC042 01/M05 A3030 630 66 -900 300/06 RMK AO2 T00061050
04850KAOH AOH20160217204011202/17/16 20:40:31  5-MIN KAOH 180140Z AUTO 30006KT 10SM OVC042 01/M05 A3030 630 66 -900 300/06 RMK AO2 T00061050
04850KAOH AOH20160217204511202/17/16 20:45:31  5-MIN KAOH 180145Z AUTO 30006KT 10SM OVC042 01/M05 A3030 630 66 -900 310/06 RMK AO2 T00061050
04850KAOH AOH20160217205012002/17/16 20:50:31  5-MIN KAOH 180150Z AUTO 32005KT 10SM OVC042 00/M04 A3030 630 72 -1000 330/05 RMK AO2 SLP270 T00001044
04850KAOH AOH20160217205511302/17/16 20:55:31  5-MIN KAOH 180155Z AUTO 32006KT 10SM OVC042 00/M04 A3030 630 72 -1000 330/06 RMK AO2 T00001044
04850KAOH AOH20160217210011302/17/16 21:00:31  5-MIN KAOH 180200Z AUTO 31005KT 10SM OVC041 00/M04 A3030 630 72 -1000 320/05 RMK AO2 T00001044
04850KAOH AOH20160217210511302/17/16 21:05:31  5-MIN KAOH 180205Z AUTO 32005KT 10SM OVC041 00/M04 A3030 630 72 -1000 320/05 RMK AO2 T00001044
04850KAOH AOH20160217211011302/17/16 21:10:31  5-MIN KAOH 180210Z AUTO 31006KT 10SM OVC042 00/M04 A3030 630 72 -1000 320/06 RMK AO2 T00001044
04850KAOH AOH20160217211511302/17/16 21:15:31  5-MIN KAOH 180215Z AUTO 31005KT 10SM OVC042 00/M04 A3030 630 72 -1000 310/05 RMK AO2 T00001044
04850KAOH AOH20160217212011302/17/16 21:20:31  5-MIN KAOH 180220Z AUTO 31005KT 10SM OVC042 00/M04 A3030 630 72 -1000 320/05 RMK AO2 T00001044
04850KAOH AOH20160217212511302/17/16 21:25:31  5-MIN KAOH 180225Z AUTO 30005KT 10SM OVC042 00/M04 A3030 630 72 -1000 300/05 RMK AO2 T00001044
04850KAOH AOH20160217213011302/17/16 21:30:31  5-MIN KAOH 180230Z AUTO 30006KT 10SM OVC041 00/M04 A3030 620 72 -1000 300/06 RMK AO2 T00001044
04850KAOH AOH20160217213511302/17/16 21:35:31  5-MIN KAOH 180235Z AUTO 30006KT 10SM OVC041 00/M04 A3031 620 72 -1000 300/06 RMK AO2 T00001044
04850KAOH AOH20160217214012002/17/16 21:40:31  5-MIN KAOH 180240Z AUTO 29006KT 10SM FEW031 OVC041 00/M04 A3031 620 72 -1000 300/06 RMK AO2 T00001044
04850KAOH AOH20160217214512002/17/16 21:45:31  5-MIN KAOH 180245Z AUTO 30006KT 10SM SCT034 OVC041 00/M04 A3031 620 72 -1000 310/06 RMK AO2 T00001044
04850KAOH AOH20160217215013302/17/16 21:50:31  5-MIN KAOH 180250Z AUTO 30006KT 10SM BKN034 OVC041 00/M04 A3031 620 72 -1000 310/06 RMK AO2 SLP275 T00001044 51020
04850KAOH AOH20160217215512002/17/16 21:55:31  5-MIN KAOH 180255Z AUTO 30006KT 10SM BKN034 OVC042 00/M05 A3031 620 69 -1000 310/06 RMK AO2 T00001050
04850KAOH AOH20160217220011302/17/16 22:00:31  5-MIN KAOH 180300Z AUTO 32007KT 10SM OVC036 00/M05 A3032 610 69 -1000 320/07 RMK AO2 T00001050
04850KAOH AOH20160217220511302/17/16 22:05:31  5-MIN KAOH 180305Z AUTO 32006KT 10SM OVC037 00/M04 A3031 610 72 -1000 320/06 RMK AO2 T00001044
04850KAOH AOH20160217221011302/17/16 22:10:31  5-MIN KAOH 180310Z AUTO 32006KT 10SM OVC037 00/M04 A3032 610 72 -1000 320/06 RMK AO2 T00001044
04850KAOH AOH20160217221511302/17/16 22:15:31  5-MIN KAOH 180315Z AUTO 32007KT 10SM OVC037 00/M05 A3032 610 69 -1000 320/07 RMK AO2 T00001050
04850KAOH AOH20160217222011302/17/16 22:20:31  5-MIN KAOH 180320Z AUTO 32006KT 10SM OVC038 00/M05 A3032 610 69 -1000 330/06 RMK AO2 T00001050
04850KAOH AOH20160217222511302/17/16 22:25:31  5-MIN KAOH 180325Z AUTO 32005KT 10SM OVC040 00/M04 A3032 610 72 -1000 330/05 RMK AO2 T00001044
04850KAOH AOH20160217223011302/17/16 22:30:31  5-MIN KAOH 180330Z AUTO 32006KT 10SM OVC040 00/M05 A3032 610 69 -1000 330/06 RMK AO2 T00001050
04850KAOH AOH20160217223511402/17/16 22:35:31  5-MIN KAOH 180335Z AUTO 33006KT 10SM OVC040 M01/M05 A3032 610 72 -1100 340/06 RMK AO2 T10061050
04850KAOH AOH20160217224011402/17/16 22:40:31  5-MIN KAOH 180340Z AUTO 33006KT 10SM OVC040 M01/M05 A3032 610 72 -1100 330/06 RMK AO2 T10061050
04850KAOH AOH20160217224511402/17/16 22:45:31  5-MIN KAOH 180345Z AUTO 32005KT 10SM OVC041 M01/M05 A3033 600 72 -1100 330/05 RMK AO2 T10061050
04850KAOH AOH20160217225012102/17/16 22:50:31  5-MIN KAOH 180350Z AUTO 32005KT 10SM OVC041 M01/M04 A3033 600 75 -1100 330/05 RMK AO2 SLP280 T10061044
04850KAOH AOH20160217225511402/17/16 22:55:31  5-MIN KAOH 180355Z AUTO 32005KT 10SM OVC041 M01/M05 A3033 600 72 -1100 320/05 RMK AO2 T10061050
04850KAOH AOH20160217230011402/17/16 23:00:31  5-MIN KAOH 180400Z AUTO 32005KT 10SM OVC041 M01/M05 A3033 600 72 -1100 320/05 RMK AO2 T10061050
04850KAOH AOH20160217230511402/17/16 23:05:31  5-MIN KAOH 180405Z AUTO 31005KT 10SM OVC041 M01/M04 A3033 600 75 -1100 320/05 RMK AO2 T10061044
04850KAOH AOH20160217231011402/17/16 23:10:31  5-MIN KAOH 180410Z AUTO 31005KT 10SM OVC041 M01/M04 A3033 600 75 -1100 320/05 RMK AO2 T10061044
04850KAOH AOH20160217231511402/17/16 23:15:31  5-MIN KAOH 180415Z AUTO 30005KT 10SM OVC041 M01/M04 A3033 600 75 -1100 310/05 RMK AO2 T10061044
04850KAOH AOH20160217232011402/17/16 23:20:31  5-MIN KAOH 180420Z AUTO 31006KT 10SM OVC041 M01/M04 A3033 600 75 -1100 310/06 RMK AO2 T10061044
04850KAOH AOH20160217232511402/17/16 23:25:31  5-MIN KAOH 180425Z AUTO 32005KT 10SM OVC042 M01/M05 A3033 600 72 -1100 320/05 RMK AO2 T10061050
04850KAOH AOH20160217233011402/17/16 23:30:31  5-MIN KAOH 180430Z AUTO 31004KT 10SM OVC042 M01/M04 A3033 600 75 -1100 320/04 RMK AO2 T10061044
04850KAOH AOH20160217233511402/17/16 23:35:31  5-MIN KAOH 180435Z AUTO 30004KT 10SM OVC042 M01/M04 A3033 600 75 -1100 310/04 RMK AO2 T10061044
04850KAOH AOH20160217234011402/17/16 23:40:31  5-MIN KAOH 180440Z AUTO 30004KT 10SM OVC042 M01/M04 A3034 590 78 -1100 300/04 RMK AO2 T10111044
04850KAOH AOH20160217234511402/17/16 23:45:31  5-MIN KAOH 180445Z AUTO 30004KT 10SM OVC042 M01/M04 A3034 590 78 -1100 310/04 RMK AO2 T10111044
04850KAOH AOH20160217235013102/17/16 23:50:31  5-MIN KAOH 180450Z AUTO 31004KT 10SM OVC042 M01/M05 A3034 590 75 -1100 310/04 RMK AO2 SLP283 T10111050 400171022
04850KAOH AOH20160217235511402/17/16 23:55:31  5-MIN KAOH 180455Z AUTO 31006KT 10SM OVC042 M01/M05 A3034 590 75 -1100 320/06 RMK AO2 T10111050
04850KAOH AOH20160218000011402/18/16 00:00:31  5-MIN KAOH 180500Z AUTO 31006KT 10SM OVC042 M01/M05 A3034 590 75 -1100 310/06 RMK AO2 T10111050
04850KAOH AOH20160218000511402/18/16 00:05:31  5-MIN KAOH 180505Z AUTO 30005KT 10SM OVC042 M01/M05 A3034 590 75 -1100 310/05 RMK AO2 T10111050
04850KAOH AOH20160218001011402/18/16 00:10:31  5-MIN KAOH 180510Z AUTO 30005KT 10SM OVC041 M01/M05 A3034 590 75 -1100 310/05 RMK AO2 T10111050
04850KAOH AOH20160218001511402/18/16 00:15:31  5-MIN KAOH 180515Z AUTO 30005KT 10SM OVC041 M01/M05 A3034 590 75 -1100 310/05 RMK AO2 T10111050
04850KAOH AOH20160218002011402/18/16 00:20:31  5-MIN KAOH 180520Z AUTO 30004KT 10SM OVC040 M02/M05 A3034 590 78 -1200 300/04 RMK AO2 T10171050
04850KAOH AOH20160218002511402/18/16 00:25:31  5-MIN KAOH 180525Z AUTO 29004KT 10SM OVC040 M02/M05 A3034 590 78 -1200 290/04 RMK AO2 T10171050
04850KAOH AOH20160218003011402/18/16 00:30:31  5-MIN KAOH 180530Z AUTO 28004KT 10SM OVC040 M02/M05 A3034 590 78 -1200 290/04 RMK AO2 T10171050
04850KAOH AOH20160218003511402/18/16 00:35:31  5-MIN KAOH 180535Z AUTO 29004KT 10SM OVC040 M02/M05 A3034 590 78 -1200 290/04 RMK AO2 T10171050
04850KAOH AOH20160218004011402/18/16 00:40:31  5-MIN KAOH 180540Z AUTO 29004KT 10SM OVC040 M02/M05 A3034 590 78 -1200 300/04 RMK AO2 T10171050
04850KAOH AOH20160218004511402/18/16 00:45:31  5-MIN KAOH 180545Z AUTO 30005KT 10SM OVC040 M02/M06 A3035 590 75 -1200 300/05 RMK AO2 T10171056
04850KAOH AOH20160218005013902/18/16 00:50:31  5-MIN KAOH 180550Z AUTO 31005KT 10SM OVC039 M02/M06 A3035 580 75 -1200 320/05 RMK AO2 SLP288 T10171056 10006 21017 51014
04850KAOH AOH20160218005511402/18/16 00:55:31  5-MIN KAOH 180555Z AUTO 31005KT 10SM OVC039 M02/M06 A3035 580 75 -1200 320/05 RMK AO2 T10171056
04850KAOH AOH20160218010011402/18/16 01:00:31  5-MIN KAOH 180600Z AUTO 30005KT 10SM OVC039 M02/M06 A3035 580 75 -1200 300/05 RMK AO2 T10171056
04850KAOH AOH20160218010511402/18/16 01:05:31  5-MIN KAOH 180605Z AUTO 30005KT 10SM OVC039 M02/M06 A3035 580 75 -1200 300/05 RMK AO2 T10171056
04850KAOH AOH20160218011011402/18/16 01:10:31  5-MIN KAOH 180610Z AUTO 31005KT 10SM OVC039 M02/M06 A3035 580 72 -1200 310/05 RMK AO2 T10171061
04850KAOH AOH20160218011511402/18/16 01:15:31  5-MIN KAOH 180615Z AUTO 31005KT 10SM OVC039 M02/M06 A3036 580 72 -1200 320/05 RMK AO2 T10171061
04850KAOH AOH20160218012011402/18/16 01:20:31  5-MIN KAOH 180620Z AUTO 32005KT 10SM OVC039 M02/M06 A3036 580 75 -1300 330/05 RMK AO2 T10221061
04850KAOH AOH20160218012511402/18/16 01:25:31  5-MIN KAOH 180625Z AUTO 34004KT 10SM OVC039 M02/M06 A3036 570 78 -1300 340/04 RMK AO2 T10221056
04850KAOH AOH20160218013011402/18/16 01:30:31  5-MIN KAOH 180630Z AUTO 33004KT 10SM OVC039 M02/M06 A3036 570 75 -1300 340/04 RMK AO2 T10221061
04850KAOH AOH20160218013511402/18/16 01:35:31  5-MIN KAOH 180635Z AUTO 34004KT 10SM OVC039 M02/M06 A3036 570 75 -1300 340/04 RMK AO2 T10221061
04850KAOH AOH20160218014011402/18/16 01:40:31  5-MIN KAOH 180640Z AUTO 34004KT 10SM OVC037 M02/M06 A3036 570 75 -1300 350/04 RMK AO2 T10221061
04850KAOH AOH20160218014511402/18/16 01:45:31  5-MIN KAOH 180645Z AUTO 34003KT 10SM OVC037 M02/M06 A3036 570 75 -1300 350/03 RMK AO2 T10221061
04850KAOH AOH20160218015012102/18/16 01:50:31  5-MIN KAOH 180650Z AUTO 00000KT 10SM OVC037 M02/M06 A3036 570 75 -1300 000/00 RMK AO2 SLP293 T10221061
04850KAOH AOH20160218015511402/18/16 01:55:31  5-MIN KAOH 180655Z AUTO 32003KT 10SM OVC037 M02/M06 A3036 570 75 -1300 330/03 RMK AO2 T10221061
04850KAOH AOH20160218115510902/18/16 11:55:31  5-MIN KAOH 181655Z AUTO 13006KT 10SM CLR 02/M05 A3049 460 59 -900 140/06 RMK AO2 T00221050
04850KAOH AOH20160218120010902/18/16 12:00:31  5-MIN KAOH 181700Z AUTO 15008KT 10SM CLR 02/M05 A3049 460 59 -900 150/08 RMK AO2 T00221050
04850KAOH AOH20160218120510902/18/16 12:05:31  5-MIN KAOH 181705Z AUTO 16008KT 10SM CLR 02/M05 A3049 460 59 -900 170/08 RMK AO2 T00221050
04850KAOH AOH20160218121010902/18/16 12:10:31  5-MIN KAOH 181710Z AUTO 15007KT 10SM CLR 02/M05 A3049 460 59 -900 160/07 RMK AO2 T00221050
04850KAOH AOH20160218121510902/18/16 12:15:31  5-MIN KAOH 181715Z AUTO 17008KT 10SM CLR 02/M05 A3049 460 59 -900 180/08 RMK AO2 T00221050
04850KAOH AOH20160218122010902/18/16 12:20:31  5-MIN KAOH 181720Z AUTO 19006KT 10SM CLR 03/M04 A3048 460 59 -800 200/06 RMK AO2 T00281044
04850KAOH AOH20160218122510902/18/16 12:25:31  5-MIN KAOH 181725Z AUTO 17010KT 10SM CLR 03/M04 A3048 460 59 -800 180/10 RMK AO2 T00281044
04850KAOH AOH20160218123010902/18/16 12:30:31  5-MIN KAOH 181730Z AUTO 17006KT 10SM CLR 02/M04 A3048 470 61 -900 170/06 RMK AO2 T00221044
04850KAOH AOH20160218123510902/18/16 12:35:31  5-MIN KAOH 181735Z AUTO 15007KT 10SM CLR 02/M05 A3047 470 59 -900 160/07 RMK AO2 T00221050
04850KAOH AOH20160218124010902/18/16 12:40:31  5-MIN KAOH 181740Z AUTO 17007KT 10SM CLR 02/M04 A3047 470 61 -900 180/07 RMK AO2 T00221044
04850KAOH AOH20160218124510902/18/16 12:45:31  5-MIN KAOH 181745Z AUTO 16010KT 10SM CLR 02/M04 A3047 470 61 -900 160/10 RMK AO2 T00221044
04850KAOH AOH20160218125013402/18/16 12:50:31  5-MIN KAOH 181750Z AUTO 17007KT 10SM CLR 03/M04 A3047 480 59 -800 170/07 RMK AO2 SLP328 T00281044 10028 21056 53017
04850KAOH AOH20160218125510902/18/16 12:55:31  5-MIN KAOH 181755Z AUTO 16009KT 10SM CLR 03/M04 A3046 480 59 -800 160/09 RMK AO2 T00281044
04850KAOH AOH20160218130010902/18/16 13:00:31  5-MIN KAOH 181800Z AUTO 17008KT 10SM CLR 03/M04 A3046 480 59 -800 180/08 RMK AO2 T00281044
04850KAOH AOH20160218130510902/18/16 13:05:31  5-MIN KAOH 181805Z AUTO 16010KT 10SM CLR 02/M04 A3046 480 61 -900 170/10 RMK AO2 T00221044
04850KAOH AOH20160218131010902/18/16 13:10:31  5-MIN KAOH 181810Z AUTO 15010KT 10SM CLR 03/M04 A3046 490 59 -800 160/10 RMK AO2 T00281044
04850KAOH AOH20160218131510902/18/16 13:15:31  5-MIN KAOH 181815Z AUTO 15008KT 10SM CLR 03/M04 A3046 490 61 -800 160/08 RMK AO2 T00281039
04850KAOH AOH20160218132010902/18/16 13:20:31  5-MIN KAOH 181820Z AUTO 16010KT 10SM CLR 03/M04 A3045 490 61 -800 170/10 RMK AO2 T00281039
04850KAOH AOH20160218132510902/18/16 13:25:31  5-MIN KAOH 181825Z AUTO 16010KT 10SM CLR 03/M04 A3045 490 61 -800 170/10 RMK AO2 T00281039
04850KAOH AOH20160218133010902/18/16 13:30:31  5-MIN KAOH 181830Z AUTO 17009KT 10SM CLR 03/M04 A3045 490 61 -800 170/09 RMK AO2 T00281039
04850KAOH AOH20160218133510902/18/16 13:35:31  5-MIN KAOH 181835Z AUTO 15009KT 10SM CLR 03/M04 A3044 500 59 -700 160/09 RMK AO2 T00331039
04850KAOH AOH20160218134010902/18/16 13:40:31  5-MIN KAOH 181840Z AUTO 15008KT 10SM CLR 03/M04 A3044 500 61 -800 150/08 RMK AO2 T00281039
04850KAOH AOH20160218134510902/18/16 13:45:31  5-MIN KAOH 181845Z AUTO 14009KT 10SM CLR 03/M03 A3044 500 61 -700 150/09 RMK AO2 T00331033
04850KAOH AOH20160218135011602/18/16 13:50:31  5-MIN KAOH 181850Z AUTO 16009KT 10SM CLR 03/M03 A3044 500 61 -700 170/09 RMK AO2 SLP318 T00331033
04850KAOH AOH20160218135510902/18/16 13:55:31  5-MIN KAOH 181855Z AUTO 14008KT 10SM CLR 04/M03 A3043 510 59 -600 140/08 RMK AO2 T00391033
04850KAOH AOH20160218140010902/18/16 14:00:31  5-MIN KAOH 181900Z AUTO 15008KT 10SM CLR 04/M03 A3043 510 59 -600 160/08 RMK AO2 T00391033
04850KAOH AOH20160218140510902/18/16 14:05:31  5-MIN KAOH 181905Z AUTO 15010KT 10SM CLR 03/M04 A3043 510 59 -700 150/10 RMK AO2 T00331039
04850KAOH AOH20160218141010902/18/16 14:10:31  5-MIN KAOH 181910Z AUTO 15010KT 10SM CLR 03/M03 A3043 510 61 -700 160/10 RMK AO2 T00331033
04850KAOH AOH20160218141510902/18/16 14:15:31  5-MIN KAOH 181915Z AUTO 16009KT 10SM CLR 03/M03 A3043 510 61 -700 160/09 RMK AO2 T00331033
04850KAOH AOH20160218142010902/18/16 14:20:31  5-MIN KAOH 181920Z AUTO 16011KT 10SM CLR 03/M03 A3043 510 61 -700 160/11 RMK AO2 T00331033
04850KAOH AOH20160218142510902/18/16 14:25:31  5-MIN KAOH 181925Z AUTO 17011KT 10SM CLR 03/M03 A3042 510 61 -700 170/11 RMK AO2 T00331033
04850KAOH AOH20160218143010902/18/16 14:30:31  5-MIN KAOH 181930Z AUTO 17009KT 10SM CLR 03/M03 A3042 510 61 -700 170/09 RMK AO2 T00331033
04850KAOH AOH20160218143510902/18/16 14:35:31  5-MIN KAOH 181935Z AUTO 16009KT 10SM CLR 03/M03 A3042 520 61 -700 170/09 RMK AO2 T00331033
04850KAOH AOH20160218144010902/18/16 14:40:31  5-MIN KAOH 181940Z AUTO 15008KT 10SM CLR 04/M03 A3042 520 59 -600 150/08 RMK AO2 T00391033
04850KAOH AOH20160218144511202/18/16 14:45:31  5-MIN KAOH 181945Z AUTO 15010KT 10SM FEW031 04/M03 A3042 520 62 -600 160/10 RMK AO2 T00391028
04850KAOH AOH20160218145011602/18/16 14:50:31  5-MIN KAOH 181950Z AUTO 15009KT 10SM CLR 04/M03 A3042 520 59 -600 160/09 RMK AO2 SLP311 T00391033
04850KAOH AOH20160218145510902/18/16 14:55:31  5-MIN KAOH 181955Z AUTO 15012KT 10SM CLR 04/M03 A3041 520 59 -600 160/12 RMK AO2 T00391033
04850KAOH AOH20160218150010902/18/16 15:00:31  5-MIN KAOH 182000Z AUTO 15014KT 10SM CLR 04/M03 A3041 530 59 -600 160/14 RMK AO2 T00391033
04850KAOH AOH20160218150510902/18/16 15:05:31  5-MIN KAOH 182005Z AUTO 16010KT 10SM CLR 04/M03 A3040 540 59 -600 160/10 RMK AO2 T00391033
04850KAOH AOH20160218151011602/18/16 15:10:31  5-MIN KAOH 182010Z AUTO 14010KT 10SM CLR 04/M03 A3039 540 59 -600 150/10 RMK AO2 PRESFR T00391033
04850KAOH AOH20160218151510902/18/16 15:15:31  5-MIN KAOH 182015Z AUTO 14012KT 10SM CLR 04/M03 A3039 540 59 -600 150/12 RMK AO2 T00391033
04850KAOH AOH20160218152010902/18/16 15:20:31  5-MIN KAOH 182020Z AUTO 14009KT 10SM CLR 04/M03 A3039 540 59 -600 150/09 RMK AO2 T00391033
04850KAOH AOH20160218152510902/18/16 15:25:31  5-MIN KAOH 182025Z AUTO 15013KT 10SM CLR 04/M03 A3039 540 59 -600 160/13 RMK AO2 T00391033
04850KAOH AOH20160218153010902/18/16 15:30:31  5-MIN KAOH 182030Z AUTO 15013KT 10SM CLR 04/M03 A3039 550 59 -600 160/13 RMK AO2 T00391033
04850KAOH AOH20160218153510902/18/16 15:35:31  5-MIN KAOH 182035Z AUTO 14011KT 10SM CLR 03/M04 A3038 550 59 -600 150/11 RMK AO2 T00331039
04850KAOH AOH20160218154010902/18/16 15:40:31  5-MIN KAOH 182040Z AUTO 15010KT 10SM CLR 03/M04 A3039 550 59 -600 150/10 RMK AO2 T00331039
04850KAOH AOH20160218154510902/18/16 15:45:31  5-MIN KAOH 182045Z AUTO 16012KT 10SM CLR 04/M03 A3039 550 59 -600 170/12 RMK AO2 T00391033
04850KAOH AOH20160218155012202/18/16 15:50:31  5-MIN KAOH 182050Z AUTO 15012KT 10SM CLR 04/M03 A3039 540 59 -600 160/12 RMK AO2 SLP302 T00391033 58005
04850KAOH AOH20160218155510902/18/16 15:55:31  5-MIN KAOH 182055Z AUTO 16012KT 10SM CLR 03/M04 A3039 540 59 -700 170/12 RMK AO2 T00331039
04850KAOH AOH20160218160010902/18/16 16:00:31  5-MIN KAOH 182100Z AUTO 15014KT 10SM CLR 03/M04 A3039 540 59 -600 160/14 RMK AO2 T00331039
04850KAOH AOH20160218160510902/18/16 16:05:31  5-MIN KAOH 182105Z AUTO 15015KT 10SM CLR 03/M04 A3039 550 59 -600 160/15 RMK AO2 T00331039
04850KAOH AOH20160218161010902/18/16 16:10:31  5-MIN KAOH 182110Z AUTO 16016KT 10SM CLR 03/M04 A3039 550 59 -600 170/16 RMK AO2 T00331039
04850KAOH AOH20160218161510902/18/16 16:15:31  5-MIN KAOH 182115Z AUTO 15015KT 10SM CLR 03/M04 A3039 550 61 -700 160/15 RMK AO2 T00281039
04850KAOH AOH20160218162010902/18/16 16:20:31  5-MIN KAOH 182120Z AUTO 16012KT 10SM CLR 03/M04 A3038 550 59 -600 160/12 RMK AO2 T00331039
04850KAOH AOH20160218162510902/18/16 16:25:31  5-MIN KAOH 182125Z AUTO 17013KT 10SM CLR 03/M04 A3038 550 59 -600 170/13 RMK AO2 T00331039
04850KAOH AOH20160218163010902/18/16 16:30:31  5-MIN KAOH 182130Z AUTO 16016KT 10SM CLR 03/M03 A3038 550 61 -600 170/16 RMK AO2 T00331033
04850KAOH AOH20160218163510902/18/16 16:35:31  5-MIN KAOH 182135Z AUTO 17014KT 10SM CLR 03/M04 A3038 550 61 -700 170/14 RMK AO2 T00281039
04850KAOH AOH20160218164010902/18/16 16:40:31  5-MIN KAOH 182140Z AUTO 16013KT 10SM CLR 03/M04 A3038 560 61 -700 160/13 RMK AO2 T00281039
04850KAOH AOH20160218164510902/18/16 16:45:31  5-MIN KAOH 182145Z AUTO 15013KT 10SM CLR 03/M03 A3037 560 64 -700 160/13 RMK AO2 T00281033
04850KAOH AOH20160218165011602/18/16 16:50:31  5-MIN KAOH 182150Z AUTO 15015KT 10SM CLR 03/M04 A3037 560 61 -700 160/15 RMK AO2 SLP296 T00281039
04850KAOH AOH20160218165510902/18/16 16:55:31  5-MIN KAOH 182155Z AUTO 16016KT 10SM CLR 03/M04 A3037 560 59 -700 160/16 RMK AO2 T00281044
04850KAOH AOH20160218170010902/18/16 17:00:31  5-MIN KAOH 182200Z AUTO 15015KT 10SM CLR 02/M04 A3037 560 61 -800 160/15 RMK AO2 T00221044
04850KAOH AOH20160218170510902/18/16 17:05:31  5-MIN KAOH 182205Z AUTO 16011KT 10SM CLR 02/M04 A3037 560 64 -800 170/11 RMK AO2 T00221039
04850KAOH AOH20160218171010902/18/16 17:10:31  5-MIN KAOH 182210Z AUTO 16014KT 10SM CLR 02/M04 A3037 560 64 -800 160/14 RMK AO2 T00221039
04850KAOH AOH20160218171510902/18/16 17:15:31  5-MIN KAOH 182215Z AUTO 16014KT 10SM CLR 02/M04 A3037 570 64 -800 160/14 RMK AO2 T00221039
04850KAOH AOH20160218172010902/18/16 17:20:31  5-MIN KAOH 182220Z AUTO 16013KT 10SM CLR 02/M04 A3037 560 64 -800 170/13 RMK AO2 T00221039
04850KAOH AOH20160218172510902/18/16 17:25:31  5-MIN KAOH 182225Z AUTO 16015KT 10SM CLR 02/M04 A3037 560 66 -800 170/15 RMK AO2 T00171039
04850KAOH AOH20160218173010902/18/16 17:30:31  5-MIN KAOH 182230Z AUTO 16013KT 10SM CLR 02/M04 A3037 560 66 -800 170/13 RMK AO2 T00171039
04850KAOH AOH20160218173510902/18/16 17:35:31  5-MIN KAOH 182235Z AUTO 16013KT 10SM CLR 02/M04 A3037 560 66 -800 160/13 RMK AO2 T00171039
04850KAOH AOH20160218174010902/18/16 17:40:31  5-MIN KAOH 182240Z AUTO 16013KT 10SM CLR 02/M04 A3037 560 66 -800 160/13 RMK AO2 T00171039
04850KAOH AOH20160218174510902/18/16 17:45:31  5-MIN KAOH 182245Z AUTO 16013KT 10SM CLR 02/M04 A3037 570 66 -800 160/13 RMK AO2 T00171039
04850KAOH AOH20160218175011602/18/16 17:50:31  5-MIN KAOH 182250Z AUTO 15013KT 10SM CLR 02/M04 A3036 570 66 -800 160/13 RMK AO2 SLP293 T00171039
04850KAOH AOH20160218175510902/18/16 17:55:31  5-MIN KAOH 182255Z AUTO 15013KT 10SM CLR 02/M04 A3036 570 64 -800 150/13 RMK AO2 T00171044
04850KAOH AOH20160218180010902/18/16 18:00:31  5-MIN KAOH 182300Z AUTO 14012KT 10SM CLR 02/M04 A3035 580 64 -800 150/12 RMK AO2 T00171044
04850KAOH AOH20160218180510902/18/16 18:05:31  5-MIN KAOH 182305Z AUTO 14013KT 10SM CLR 01/M04 A3035 580 66 -900 150/13 RMK AO2 T00111044
04850KAOH AOH20160218181010902/18/16 18:10:31  5-MIN KAOH 182310Z AUTO 14013KT 10SM CLR 01/M04 A3035 590 66 -900 140/13 RMK AO2 T00111044
04850KAOH AOH20160218181510902/18/16 18:15:31  5-MIN KAOH 182315Z AUTO 14012KT 10SM CLR 01/M04 A3035 590 66 -900 150/12 RMK AO2 T00111044
04850KAOH AOH20160218182010902/18/16 18:20:31  5-MIN KAOH 182320Z AUTO 14012KT 10SM CLR 01/M04 A3034 590 66 -900 150/12 RMK AO2 T00111044
04850KAOH AOH20160218182510902/18/16 18:25:31  5-MIN KAOH 182325Z AUTO 14012KT 10SM CLR 01/M04 A3034 590 66 -900 140/12 RMK AO2 T00111044
04850KAOH AOH20160218183010902/18/16 18:30:31  5-MIN KAOH 182330Z AUTO 14012KT 10SM CLR 01/M04 A3034 590 66 -900 140/12 RMK AO2 T00111044
04850KAOH AOH20160218183510902/18/16 18:35:31  5-MIN KAOH 182335Z AUTO 14010KT 10SM CLR 01/M04 A3035 590 66 -900 150/10 RMK AO2 T00111044
04850KAOH AOH20160218184010902/18/16 18:40:31  5-MIN KAOH 182340Z AUTO 14010KT 10SM CLR 01/M04 A3035 580 66 -900 150/10 RMK AO2 T00111044
04850KAOH AOH20160218184510902/18/16 18:45:31  5-MIN KAOH 182345Z AUTO 13011KT 10SM CLR 01/M04 A3034 590 66 -900 140/11 RMK AO2 T00111044
04850KAOH AOH20160218185013402/18/16 18:50:31  5-MIN KAOH 182350Z AUTO 14011KT 10SM CLR 01/M04 A3034 590 66 -900 150/11 RMK AO2 SLP286 T00111044 10039 20011 56024
04850KAOH AOH20160218185510902/18/16 18:55:31  5-MIN KAOH 182355Z AUTO 14011KT 10SM CLR 01/M04 A3034 590 66 -900 140/11 RMK AO2 T00111044
04850KAOH AOH20160218190010902/18/16 19:00:31  5-MIN KAOH 190000Z AUTO 14010KT 10SM CLR 01/M04 A3034 590 66 -900 150/10 RMK AO2 T00111044
04850KAOH AOH20160218190510902/18/16 19:05:31  5-MIN KAOH 190005Z AUTO 14011KT 10SM CLR 01/M04 A3034 590 66 -900 150/11 RMK AO2 T00111044
04850KAOH AOH20160218191010902/18/16 19:10:31  5-MIN KAOH 190010Z AUTO 15011KT 10SM CLR 01/M04 A3034 590 66 -900 160/11 RMK AO2 T00111044
04850KAOH AOH20160218191510902/18/16 19:15:31  5-MIN KAOH 190015Z AUTO 14010KT 10SM CLR 01/M04 A3033 600 66 -900 150/10 RMK AO2 T00111044
04850KAOH AOH20160218192010902/18/16 19:20:31  5-MIN KAOH 190020Z AUTO 14012KT 10SM CLR 01/M04 A3033 600 66 -900 140/12 RMK AO2 T00111044
04850KAOH AOH20160218192510902/18/16 19:25:31  5-MIN KAOH 190025Z AUTO 14011KT 10SM CLR 01/M04 A3033 600 66 -900 150/11 RMK AO2 T00111044
04850KAOH AOH20160218193010902/18/16 19:30:31  5-MIN KAOH 190030Z AUTO 14011KT 10SM CLR 01/M04 A3033 600 66 -900 150/11 RMK AO2 T00111044
04850KAOH AOH20160218193510902/18/16 19:35:31  5-MIN KAOH 190035Z AUTO 14011KT 10SM CLR 01/M04 A3033 600 66 -900 150/11 RMK AO2 T00111044
04850KAOH AOH20160218194010902/18/16 19:40:31  5-MIN KAOH 190040Z AUTO 14010KT 10SM CLR 01/M04 A3033 600 66 -900 150/10 RMK AO2 T00111044
04850KAOH AOH20160218194510902/18/16 19:45:31  5-MIN KAOH 190045Z AUTO 14011KT 10SM CLR 01/M04 A3032 610 66 -800 150/11 RMK AO2 T00111044
04850KAOH AOH20160218195011602/18/16 19:50:31  5-MIN KAOH 190050Z AUTO 14011KT 10SM CLR 01/M04 A3032 610 66 -800 150/11 RMK AO2 SLP279 T00111044
04850KAOH AOH20160218195510902/18/16 19:55:31  5-MIN KAOH 190055Z AUTO 14012KT 10SM CLR 01/M04 A3031 620 66 -800 140/12 RMK AO2 T00111044
04850KAOH AOH20160218200011602/18/16 20:00:31  5-MIN KAOH 190100Z AUTO 14013KT 10SM CLR 01/M04 A3031 620 66 -800 140/13 RMK AO2 PRESFR T00111044
04850KAOH AOH20160218200510902/18/16 20:05:31  5-MIN KAOH 190105Z AUTO 13013KT 10SM CLR 01/M04 A3030 630 66 -800 140/13 RMK AO2 T00111044
04850KAOH AOH20160218201010902/18/16 20:10:31  5-MIN KAOH 190110Z AUTO 14014KT 10SM CLR 01/M04 A3030 630 66 -800 140/14 RMK AO2 T00111044
04850KAOH AOH20160218201510902/18/16 20:15:31  5-MIN KAOH 190115Z AUTO 14013KT 10SM CLR 01/M04 A3030 630 66 -800 140/13 RMK AO2 T00111044
04850KAOH AOH20160218202011502/18/16 20:20:31  5-MIN KAOH 190120Z AUTO 14012G22KT 10SM CLR 02/M04 A3030 630 64 -800 140/12G22 RMK AO2 T00171044
04850KAOH AOH20160218202511502/18/16 20:25:31  5-MIN KAOH 190125Z AUTO 14013G22KT 10SM CLR 02/M04 A3030 630 64 -800 150/13G22 RMK AO2 T00171044
04850KAOH AOH20160218203010902/18/16 20:30:31  5-MIN KAOH 190130Z AUTO 14014KT 10SM CLR 02/M04 A3030 630 64 -800 140/14 RMK AO2 T00171044
04850KAOH AOH20160218203510902/18/16 20:35:31  5-MIN KAOH 190135Z AUTO 14015KT 10SM CLR 02/M04 A3030 630 64 -800 150/15 RMK AO2 T00171044
04850KAOH AOH20160218204010902/18/16 20:40:31  5-MIN KAOH 190140Z AUTO 14014KT 10SM CLR 02/M04 A3029 630 64 -700 150/14 RMK AO2 T00171044
04850KAOH AOH20160218204510902/18/16 20:45:31  5-MIN KAOH 190145Z AUTO 15013KT 10SM CLR 02/M04 A3029 640 64 -700 160/13 RMK AO2 T00171044
04850KAOH AOH20160218205012502/18/16 20:50:31  5-MIN KAOH 190150Z AUTO 15012G21KT 10SM FEW095 02/M04 A3029 640 64 -700 150/12G21 RMK AO2 SLP266 T00171044
04850KAOH AOH20160218205511802/18/16 20:55:31  5-MIN KAOH 190155Z AUTO 14014G21KT 10SM FEW095 02/M04 A3028 650 64 -700 150/14G21 RMK AO2 T00171044
04850KAOH AOH20160218210011202/18/16 21:00:31  5-MIN KAOH 190200Z AUTO 14012KT 10SM SCT095 02/M04 A3028 640 64 -700 140/12 RMK AO2 T00171044
04850KAOH AOH20160218210511202/18/16 21:05:31  5-MIN KAOH 190205Z AUTO 14013KT 10SM BKN095 02/M04 A3029 640 64 -700 150/13 RMK AO2 T00171044
04850KAOH AOH20160218211011202/18/16 21:10:31  5-MIN KAOH 190210Z AUTO 15013KT 10SM BKN095 02/M04 A3028 640 64 -700 160/13 RMK AO2 T00171044
04850KAOH AOH20160218211511202/18/16 21:15:31  5-MIN KAOH 190215Z AUTO 15014KT 10SM BKN095 02/M04 A3029 640 64 -700 160/14 RMK AO2 T00171044
04850KAOH AOH20160218212011202/18/16 21:20:31  5-MIN KAOH 190220Z AUTO 15016KT 10SM SCT095 02/M04 A3027 650 64 -700 160/16 RMK AO2 T00171044
04850KAOH AOH20160218212511202/18/16 21:25:31  5-MIN KAOH 190225Z AUTO 15015KT 10SM SCT095 02/M04 A3028 650 64 -700 160/15 RMK AO2 T00171044
04850KAOH AOH20160218213011802/18/16 21:30:31  5-MIN KAOH 190230Z AUTO 15016G22KT 10SM SCT095 02/M05 A3028 650 59 -700 160/16G22 RMK AO2 T00221050
04850KAOH AOH20160218213511202/18/16 21:35:31  5-MIN KAOH 190235Z AUTO 15016KT 10SM SCT095 02/M04 A3027 650 61 -700 160/16 RMK AO2 T00221044
04850KAOH AOH20160218214011202/18/16 21:40:31  5-MIN KAOH 190240Z AUTO 15015KT 10SM BKN095 02/M05 A3027 660 59 -600 160/15 RMK AO2 T00221050
04850KAOH AOH20160218214511202/18/16 21:45:31  5-MIN KAOH 190245Z AUTO 15016KT 10SM BKN095 02/M04 A3027 660 61 -600 160/16 RMK AO2 T00221044
04850KAOH AOH20160218215012502/18/16 21:50:31  5-MIN KAOH 190250Z AUTO 15016KT 10SM BKN095 02/M04 A3026 660 61 -600 160/16 RMK AO2 SLP257 T00221044 58018
04850KAOH AOH20160218215511902/18/16 21:55:31  5-MIN KAOH 190255Z AUTO 15016KT 10SM FEW080 BKN095 02/M04 A3026 670 61 -600 160/16 RMK AO2 T00221044
04850KAOH AOH20160218220011902/18/16 22:00:31  5-MIN KAOH 190300Z AUTO 15018KT 10SM SCT080 OVC095 02/M04 A3025 670 61 -600 150/18 RMK AO2 T00221044
04850KAOH AOH20160218220512502/18/16 22:05:31  5-MIN KAOH 190305Z AUTO 15015G23KT 10SM BKN080 OVC095 02/M04 A3026 670 61 -600 160/15G23 RMK AO2 T00221044
04850KAOH AOH20160218221012502/18/16 22:10:31  5-MIN KAOH 190310Z AUTO 15017G23KT 10SM BKN080 OVC095 02/M04 A3025 670 61 -600 160/17G23 RMK AO2 T00221044
04850KAOH AOH20160218221511902/18/16 22:15:31  5-MIN KAOH 190315Z AUTO 16017KT 10SM BKN080 OVC095 02/M04 A3025 670 61 -600 160/17 RMK AO2 T00221044
04850KAOH AOH20160218222011202/18/16 22:20:31  5-MIN KAOH 190320Z AUTO 15015KT 10SM OVC080 02/M04 A3025 680 61 -600 160/15 RMK AO2 T00221044
04850KAOH AOH20160218222511202/18/16 22:25:31  5-MIN KAOH 190325Z AUTO 15016KT 10SM OVC080 02/M04 A3024 680 61 -600 160/16 RMK AO2 T00221044
04850KAOH AOH20160218223011202/18/16 22:30:31  5-MIN KAOH 190330Z AUTO 16019KT 10SM OVC080 02/M04 A3024 680 61 -600 160/19 RMK AO2 T00221044
04850KAOH AOH20160218223511202/18/16 22:35:31  5-MIN KAOH 190335Z AUTO 15018KT 10SM OVC080 02/M04 A3023 690 61 -600 160/18 RMK AO2 T00221044
04850KAOH AOH20160218224011802/18/16 22:40:31  5-MIN KAOH 190340Z AUTO 15020G25KT 10SM OVC080 02/M04 A3023 690 61 -600 160/20G25 RMK AO2 T00221044
04850KAOH AOH20160218224512502/18/16 22:45:31  5-MIN KAOH 190345Z AUTO 15017G25KT 10SM OVC080 02/M04 A3022 700 61 -600 150/17G25 RMK AO2 PRESFR T00221044
04850KAOH AOH20160218225011902/18/16 22:50:31  5-MIN KAOH 190350Z AUTO 15016KT 10SM OVC080 02/M04 A3022 700 61 -600 160/16 RMK AO2 SLP243 T00221044
04850KAOH AOH20160218225511202/18/16 22:55:31  5-MIN KAOH 190355Z AUTO 15016KT 10SM OVC080 02/M04 A3022 700 61 -600 160/16 RMK AO2 T00221044
04850KAOH AOH20160218230011202/18/16 23:00:31  5-MIN KAOH 190400Z AUTO 16017KT 10SM BKN080 02/M04 A3022 700 61 -600 160/17 RMK AO2 T00221044
04850KAOH AOH20160218230511802/18/16 23:05:31  5-MIN KAOH 190405Z AUTO 15018G25KT 10SM BKN080 02/M04 A3021 710 61 -600 160/18G25 RMK AO2 T00221044
04850KAOH AOH20160218231011802/18/16 23:10:31  5-MIN KAOH 190410Z AUTO 15019G25KT 10SM SCT080 03/M04 A3021 710 59 -500 150/19G25 RMK AO2 T00281044
04850KAOH AOH20160218231511802/18/16 23:15:31  5-MIN KAOH 190415Z AUTO 15019G25KT 10SM FEW080 03/M04 A3021 710 59 -500 160/19G25 RMK AO2 T00281044
04850KAOH AOH20160218232011802/18/16 23:20:31  5-MIN KAOH 190420Z AUTO 15017G25KT 10SM FEW080 03/M04 A3020 720 59 -500 160/17G25 RMK AO2 T00281044
04850KAOH AOH20160218232511502/18/16 23:25:31  5-MIN KAOH 190425Z AUTO 15018G24KT 10SM CLR 03/M04 A3021 710 59 -500 160/18G24 RMK AO2 T00281044
04850KAOH AOH20160218233010902/18/16 23:30:31  5-MIN KAOH 190430Z AUTO 15019KT 10SM CLR 03/M04 A3020 720 59 -500 160/19 RMK AO2 T00281044
04850KAOH AOH20160218233511502/18/16 23:35:31  5-MIN KAOH 190435Z AUTO 15015G23KT 10SM CLR 03/M04 A3020 720 59 -500 150/15G23 RMK AO2 T00281044
04850KAOH AOH20160218234011502/18/16 23:40:31  5-MIN KAOH 190440Z AUTO 15017G23KT 10SM CLR 03/M04 A3021 710 59 -500 160/17G23 RMK AO2 T00281044
04850KAOH AOH20160218234510902/18/16 23:45:31  5-MIN KAOH 190445Z AUTO 15017KT 10SM CLR 02/M04 A3020 720 61 -600 150/17 RMK AO2 T00221044
04850KAOH AOH20160218235013202/18/16 23:50:31  5-MIN KAOH 190450Z AUTO 15020G25KT 10SM CLR 03/M04 A3020 720 59 -500 160/20G25 RMK AO2 SLP235 T00281044 400391056
04850KAOH AOH20160218235511502/18/16 23:55:31  5-MIN KAOH 190455Z AUTO 15017G25KT 10SM CLR 02/M04 A3020 720 61 -600 160/17G25 RMK AO2 T00221044
04850KAOH AOH20160219000011502/19/16 00:00:31  5-MIN KAOH 190500Z AUTO 15017G23KT 10SM CLR 02/M04 A3019 730 61 -600 160/17G23 RMK AO2 T00221044
04850KAOH AOH20160219000510902/19/16 00:05:31  5-MIN KAOH 190505Z AUTO 15017KT 10SM CLR 02/M04 A3019 730 61 -600 160/17 RMK AO2 T00221044
04850KAOH AOH20160219001011502/19/16 00:10:31  5-MIN KAOH 190510Z AUTO 15019G23KT 10SM CLR 02/M04 A3019 730 61 -600 150/19G23 RMK AO2 T00221044
04850KAOH AOH20160219001511502/19/16 00:15:31  5-MIN KAOH 190515Z AUTO 15017G25KT 10SM CLR 03/M04 A3019 730 59 -500 160/17G25 RMK AO2 T00281044
04850KAOH AOH20160219002011502/19/16 00:20:31  5-MIN KAOH 190520Z AUTO 15018G25KT 10SM CLR 02/M04 A3019 730 61 -600 160/18G25 RMK AO2 T00221044
04850KAOH AOH20160219002511502/19/16 00:25:31  5-MIN KAOH 190525Z AUTO 15017G24KT 10SM CLR 02/M04 A3019 730 61 -600 150/17G24 RMK AO2 T00221044
04850KAOH AOH20160219003011502/19/16 00:30:31  5-MIN KAOH 190530Z AUTO 15017G23KT 10SM CLR 02/M04 A3019 730 61 -600 150/17G23 RMK AO2 T00221044
04850KAOH AOH20160219003513302/19/16 00:35:31  5-MIN KAOH 190535Z AUTO 15017G26KT 10SM CLR 02/M04 A3018 730 61 -600 160/17G26 RMK AO2 PK WND 15026/0533 T00221044
04850KAOH AOH20160219004013302/19/16 00:40:31  5-MIN KAOH 190540Z AUTO 15017G26KT 10SM CLR 02/M04 A3019 730 61 -600 160/17G26 RMK AO2 PK WND 15026/0533 T00221044
04850KAOH AOH20160219004513302/19/16 00:45:31  5-MIN KAOH 190545Z AUTO 15015G23KT 10SM CLR 02/M04 A3019 730 61 -600 160/15G23 RMK AO2 PK WND 15026/0533 T00221044
04850KAOH AOH20160219005015202/19/16 00:50:31  5-MIN KAOH 190550Z AUTO 15017KT 10SM CLR 02/M04 A3018 730 64 -600 160/17 RMK AO2 PK WND 15026/0533 SLP229 T00221039 10028 20011 56025
04850KAOH AOH20160219005510902/19/16 00:55:31  5-MIN KAOH 190555Z AUTO 15016KT 10SM CLR 02/M04 A3018 740 64 -500 160/16 RMK AO2 T00221039
04850KAOH AOH20160219010011502/19/16 01:00:31  5-MIN KAOH 190600Z AUTO 15018G25KT 10SM CLR 02/M04 A3018 740 64 -500 160/18G25 RMK AO2 T00221039
04850KAOH AOH20160219010511502/19/16 01:05:31  5-MIN KAOH 190605Z AUTO 15017G25KT 10SM CLR 02/M04 A3018 740 64 -500 160/17G25 RMK AO2 T00221039
04850KAOH AOH20160219011011502/19/16 01:10:31  5-MIN KAOH 190610Z AUTO 15017G24KT 10SM CLR 02/M04 A3017 740 64 -500 160/17G24 RMK AO2 T00221039
04850KAOH AOH20160219011510902/19/16 01:15:31  5-MIN KAOH 190615Z AUTO 15018KT 10SM CLR 02/M04 A3017 750 64 -500 160/18 RMK AO2 T00221039
04850KAOH AOH20160219012010902/19/16 01:20:31  5-MIN KAOH 190620Z AUTO 15017KT 10SM CLR 02/M04 A3017 750 64 -500 160/17 RMK AO2 T00221039
04850KAOH AOH20160219012510902/19/16 01:25:31  5-MIN KAOH 190625Z AUTO 15016KT 10SM CLR 02/M04 A3016 750 64 -500 160/16 RMK AO2 T00221039
04850KAOH AOH20160219013010902/19/16 01:30:31  5-MIN KAOH 190630Z AUTO 15014KT 10SM CLR 02/M04 A3016 760 64 -500 160/14 RMK AO2 T00221039
04850KAOH AOH20160219013510902/19/16 01:35:31  5-MIN KAOH 190635Z AUTO 15017KT 10SM CLR 03/M04 A3016 760 61 -500 160/17 RMK AO2 T00281039
04850KAOH AOH20160219014011502/19/16 01:40:31  5-MIN KAOH 190640Z AUTO 15015G22KT 10SM CLR 02/M04 A3016 760 64 -500 160/15G22 RMK AO2 T00221039
04850KAOH AOH20160219014511502/19/16 01:45:31  5-MIN KAOH 190645Z AUTO 15016G22KT 10SM CLR 02/M04 A3015 760 64 -500 160/16G22 RMK AO2 T00221039
04850KAOH AOH20160219015012202/19/16 01:50:31  5-MIN KAOH 190650Z AUTO 15017G25KT 10SM CLR 03/M04 A3015 760 61 -400 160/17G25 RMK AO2 SLP217 T00281039
04850KAOH AOH20160219015511502/19/16 01:55:31  5-MIN KAOH 190655Z AUTO 16018G25KT 10SM CLR 03/M04 A3015 770 61 -400 160/18G25 RMK AO2 T00281039
04850KAOH AOH20160219020011502/19/16 02:00:31  5-MIN KAOH 190700Z AUTO 16019G25KT 10SM CLR 03/M03 A3014 770 64 -400 160/19G25 RMK AO2 T00281033
04850KAOH AOH20160219020511502/19/16 02:05:31  5-MIN KAOH 190705Z AUTO 16018G25KT 10SM CLR 03/M04 A3014 780 61 -400 160/18G25 RMK AO2 T00281039
04850KAOH AOH20160219021011502/19/16 02:10:31  5-MIN KAOH 190710Z AUTO 16019G24KT 10SM CLR 03/M03 A3014 780 64 -400 160/19G24 RMK AO2 T00281033
04850KAOH AOH20160219021513302/19/16 02:15:31  5-MIN KAOH 190715Z AUTO 15018G26KT 10SM CLR 03/M03 A3014 780 64 -400 160/18G26 RMK AO2 PK WND 16026/0712 T00281033
04850KAOH AOH20160219022013302/19/16 02:20:31  5-MIN KAOH 190720Z AUTO 16019G26KT 10SM CLR 03/M03 A3013 780 64 -400 170/19G26 RMK AO2 PK WND 16026/0712 T00281033
04850KAOH AOH20160219022512702/19/16 02:25:31  5-MIN KAOH 190725Z AUTO 16020KT 10SM CLR 03/M03 A3013 790 64 -400 160/20 RMK AO2 PK WND 16026/0712 T00281033
04850KAOH AOH20160219023013302/19/16 02:30:31  5-MIN KAOH 190730Z AUTO 16018G25KT 10SM CLR 03/M03 A3012 790 64 -400 160/18G25 RMK AO2 PK WND 16026/0712 T00281033
04850KAOH AOH20160219023513302/19/16 02:35:31  5-MIN KAOH 190735Z AUTO 16017G25KT 10SM CLR 03/M03 A3012 790 64 -400 160/17G25 RMK AO2 PK WND 16026/0712 T00281033
04850KAOH AOH20160219024012702/19/16 02:40:31  5-MIN KAOH 190740Z AUTO 16018KT 10SM CLR 03/M03 A3012 790 64 -400 160/18 RMK AO2 PK WND 16026/0712 T00281033
04850KAOH AOH20160219024512702/19/16 02:45:31  5-MIN KAOH 190745Z AUTO 16018KT 10SM CLR 03/M03 A3012 790 64 -400 160/18 RMK AO2 PK WND 16026/0712 T00281033
04850KAOH AOH20160219025013402/19/16 02:50:31  5-MIN KAOH 190750Z AUTO 16018KT 10SM CLR 03/M03 A3012 800 64 -400 160/18 RMK AO2 PK WND 16026/0712 SLP205 T00281033
04850KAOH AOH20160219025510902/19/16 02:55:31  5-MIN KAOH 190755Z AUTO 16020KT 10SM CLR 03/M03 A3011 800 64 -400 170/20 RMK AO2 T00281033
04850KAOH AOH20160219030010902/19/16 03:00:31  5-MIN KAOH 190800Z AUTO 16019KT 10SM CLR 03/M03 A3011 800 64 -400 170/19 RMK AO2 T00281033
04850KAOH AOH20160219030511502/19/16 03:05:31  5-MIN KAOH 190805Z AUTO 16017G24KT 10SM CLR 03/M03 A3011 800 64 -400 170/17G24 RMK AO2 T00281033
04850KAOH AOH20160219031010902/19/16 03:10:31  5-MIN KAOH 190810Z AUTO 16016KT 10SM CLR 03/M03 A3010 810 64 -400 170/16 RMK AO2 T00281033
04850KAOH AOH20160219031510902/19/16 03:15:31  5-MIN KAOH 190815Z AUTO 16017KT 10SM CLR 03/M03 A3010 810 64 -400 170/17 RMK AO2 T00281033
04850KAOH AOH20160219032011502/19/16 03:20:31  5-MIN KAOH 190820Z AUTO 17017G23KT 10SM CLR 03/M03 A3010 810 61 -300 170/17G23 RMK AO2 T00331033
04850KAOH AOH20160219032511502/19/16 03:25:31  5-MIN KAOH 190825Z AUTO 16020G25KT 10SM CLR 03/M03 A3009 820 61 -300 170/20G25 RMK AO2 T00331033
04850KAOH AOH20160219033014002/19/16 03:30:31  5-MIN KAOH 190830Z AUTO 16020G26KT 10SM CLR 03/M03 A3008 830 61 -300 170/20G26 RMK AO2 PK WND 16026/0829 PRESFR T00331033
04850KAOH AOH20160219033513302/19/16 03:35:31  5-MIN KAOH 190835Z AUTO 16020G26KT 10SM CLR 03/M03 A3008 830 61 -300 170/20G26 RMK AO2 PK WND 16026/0829 T00331033
04850KAOH AOH20160219034012702/19/16 03:40:31  5-MIN KAOH 190840Z AUTO 16016KT 10SM CLR 03/M03 A3008 830 64 -300 170/16 RMK AO2 PK WND 16026/0829 T00331028
04850KAOH AOH20160219034513302/19/16 03:45:31  5-MIN KAOH 190845Z AUTO 17017G23KT 10SM CLR 03/M03 A3007 840 61 -300 170/17G23 RMK AO2 PK WND 16026/0829 T00331033
04850KAOH AOH20160219035014602/19/16 03:50:31  5-MIN KAOH 190850Z AUTO 16017G24KT 10SM CLR 03/M03 A3007 840 61 -300 170/17G24 RMK AO2 PK WND 16026/0829 SLP189 T00331033 56026
04850KAOH AOH20160219035511502/19/16 03:55:31  5-MIN KAOH 190855Z AUTO 16018G24KT 10SM CLR 03/M03 A3006 840 64 -300 170/18G24 RMK AO2 T00331028
04850KAOH AOH20160219040011502/19/16 04:00:31  5-MIN KAOH 190900Z AUTO 16018G23KT 10SM CLR 03/M03 A3006 850 64 -300 170/18G23 RMK AO2 T00331028
04850KAOH AOH20160219040511802/19/16 04:05:31  5-MIN KAOH 190905Z AUTO 16017G23KT 10SM FEW120 03/M03 A3006 850 64 -300 170/17G23 RMK AO2 T00331028
04850KAOH AOH20160219041011202/19/16 04:10:31  5-MIN KAOH 190910Z AUTO 16019KT 10SM SCT120 03/M03 A3006 850 64 -300 170/19 RMK AO2 T00331028
04850KAOH AOH20160219041511202/19/16 04:15:31  5-MIN KAOH 190915Z AUTO 16018KT 10SM BKN120 03/M03 A3005 860 64 -300 170/18 RMK AO2 T00331028
04850KAOH AOH20160219042011202/19/16 04:20:31  5-MIN KAOH 190920Z AUTO 16018KT 10SM BKN120 03/M03 A3005 860 64 -300 160/18 RMK AO2 T00331028
04850KAOH AOH20160219042511202/19/16 04:25:31  5-MIN KAOH 190925Z AUTO 16018KT 10SM BKN120 03/M03 A3005 860 64 -300 170/18 RMK AO2 T00331028
04850KAOH AOH20160219043011202/19/16 04:30:31  5-MIN KAOH 190930Z AUTO 16019KT 10SM OVC120 04/M03 A3005 860 62 -200 170/19 RMK AO2 T00391028
04850KAOH AOH20160219043513602/19/16 04:35:31  5-MIN KAOH 190935Z AUTO 16020G26KT 10SM BKN120 04/M03 A3004 860 62 -200 170/20G26 RMK AO2 PK WND 16026/0935 T00391028
04850KAOH AOH20160219044013602/19/16 04:40:31  5-MIN KAOH 190940Z AUTO 16020G27KT 10SM BKN120 04/M03 A3004 870 62 -200 170/20G27 RMK AO2 PK WND 17027/0939 T00391028
04850KAOH AOH20160219044513602/19/16 04:45:31  5-MIN KAOH 190945Z AUTO 16019G27KT 10SM SCT120 04/M03 A3004 870 62 -200 170/19G27 RMK AO2 PK WND 17027/0939 T00391028
04850KAOH AOH20160219045014302/19/16 04:50:31  5-MIN KAOH 190950Z AUTO 17019G25KT 10SM SCT120 04/M03 A3004 870 59 -100 170/19G25 RMK AO2 PK WND 17027/0939 SLP179 T00441028
04850KAOH AOH20160219045511802/19/16 04:55:31  5-MIN KAOH 190955Z AUTO 16019G25KT 10SM FEW120 04/M03 A3004 870 59 -100 170/19G25 RMK AO2 T00441028
04850KAOH AOH20160219050011502/19/16 05:00:31  5-MIN KAOH 191000Z AUTO 17020G25KT 10SM CLR 04/M03 A3004 870 59 -100 170/20G25 RMK AO2 T00441028
04850KAOH AOH20160219050511502/19/16 05:05:31  5-MIN KAOH 191005Z AUTO 17017G25KT 10SM CLR 04/M03 A3004 870 59 -100 170/17G25 RMK AO2 T00441028
04850KAOH AOH20160219051011502/19/16 05:10:31  5-MIN KAOH 191010Z AUTO 17018G24KT 10SM CLR 04/M03 A3004 870 59 -100 170/18G24 RMK AO2 T00441028
04850KAOH AOH20160219051511502/19/16 05:15:31  5-MIN KAOH 191015Z AUTO 17017G25KT 10SM CLR 04/M03 A3004 870 59 -100 180/17G25 RMK AO2 T00441028
04850KAOH AOH20160219052011502/19/16 05:20:31  5-MIN KAOH 191020Z AUTO 17018G25KT 10SM CLR 04/M03 A3004 870 59 -100 170/18G25 RMK AO2 T00441028
04850KAOH AOH20160219052513302/19/16 05:25:31  5-MIN KAOH 191025Z AUTO 16019G26KT 10SM CLR 04/M03 A3003 880 59 -100 170/19G26 RMK AO2 PK WND 16026/1023 T00441028
04850KAOH AOH20160219053013302/19/16 05:30:31  5-MIN KAOH 191030Z AUTO 17018G26KT 10SM CLR 04/M03 A3002 880 59 -100 170/18G26 RMK AO2 PK WND 16026/1028 T00441028
04850KAOH AOH20160219053513302/19/16 05:35:31  5-MIN KAOH 191035Z AUTO 17020G27KT 10SM CLR 04/M03 A3002 890 59 -100 170/20G27 RMK AO2 PK WND 17027/1033 T00441028
04850KAOH AOH20160219054013302/19/16 05:40:31  5-MIN KAOH 191040Z AUTO 16020G27KT 10SM CLR 04/M03 A3002 890 59 -100 170/20G27 RMK AO2 PK WND 17027/1033 T00441028
04850KAOH AOH20160219054513302/19/16 05:45:31  5-MIN KAOH 191045Z AUTO 17016G24KT 10SM CLR 04/M03 A3002 890 59 -100 180/16G24 RMK AO2 PK WND 17027/1033 T00441028
04850KAOH AOH20160219055014002/19/16 05:50:31  5-MIN KAOH 191050Z AUTO 17016G24KT 10SM CLR 04/M02 A3002 890 62 -100 180/16G24 RMK AO2 PK WND 17027/1033 SLP171 T00441022
04850KAOH AOH20160219055511502/19/16 05:55:31  5-MIN KAOH 191055Z AUTO 17018G26KT 10SM CLR 04/M02 A3001 890 62 -100 180/18G26 RMK AO2 T00441022
04850KAOH AOH20160219060011502/19/16 06:00:31  5-MIN KAOH 191100Z AUTO 16019G26KT 10SM CLR 04/M02 A3001 900 62 -100 170/19G26 RMK AO2 T00441022
04850KAOH AOH20160219060511502/19/16 06:05:31  5-MIN KAOH 191105Z AUTO 17018G25KT 10SM CLR 04/M02 A3001 890 62 -100 180/18G25 RMK AO2 T00441022
04850KAOH AOH20160219061011502/19/16 06:10:31  5-MIN KAOH 191110Z AUTO 17017G25KT 10SM CLR 04/M02 A3001 900 62 -100 170/17G25 RMK AO2 T00441022
04850KAOH AOH20160219061511502/19/16 06:15:31  5-MIN KAOH 191115Z AUTO 15019G25KT 10SM CLR 04/M02 A3000 910 62 -100 160/19G25 RMK AO2 T00441022
04850KAOH AOH20160219062013302/19/16 06:20:31  5-MIN KAOH 191120Z AUTO 17015G27KT 10SM CLR 04/M02 A3001 900 62 -100 180/15G27 RMK AO2 PK WND 15027/1116 T00441022
04850KAOH AOH20160219062513302/19/16 06:25:31  5-MIN KAOH 191125Z AUTO 16018G27KT 10SM CLR 04/M02 A3000 910 62 -100 170/18G27 RMK AO2 PK WND 15027/1116 T00441022
04850KAOH AOH20160219063013302/19/16 06:30:31  5-MIN KAOH 191130Z AUTO 17019G26KT 10SM CLR 04/M02 A2999 910 62 -100 170/19G26 RMK AO2 PK WND 15027/1116 T00441022
04850KAOH AOH20160219063512702/19/16 06:35:31  5-MIN KAOH 191135Z AUTO 17019KT 10SM CLR 04/M02 A3000 910 62 -100 170/19 RMK AO2 PK WND 15027/1116 T00441022
04850KAOH AOH20160219064013302/19/16 06:40:31  5-MIN KAOH 191140Z AUTO 17018G26KT 10SM CLR 04/M02 A2999 910 62 -100 170/18G26 RMK AO2 PK WND 15027/1116 T00441022
04850KAOH AOH20160219064513002/19/16 06:45:31  5-MIN KAOH 191145Z AUTO 17019G26KT 10SM CLR 04/M02 A2998 920 62 0 170/19G26 RMK AO2 PK WND 15027/1116 T00441022
04850KAOH AOH20160219065015802/19/16 06:50:31  5-MIN KAOH 191150Z AUTO 17019G26KT 10SM CLR 04/M02 A2999 920 62 -100 180/19G26 RMK AO2 PK WND 15027/1116 SLP162 T00441022 10044 20022 58038
04850KAOH AOH20160219065511202/19/16 06:55:31  5-MIN KAOH 191155Z AUTO 17018G26KT 10SM CLR 05/M02 A2999 920 62 0 180/18G26 RMK AO2 T00501017
04850KAOH AOH20160219070010602/19/16 07:00:31  5-MIN KAOH 191200Z AUTO 17017KT 10SM CLR 05/M02 A2998 920 62 0 180/17 RMK AO2 T00501017
04850KAOH AOH20160219070511202/19/16 07:05:31  5-MIN KAOH 191205Z AUTO 17018G25KT 10SM CLR 05/M02 A2998 920 62 0 180/18G25 RMK AO2 T00501017
04850KAOH AOH20160219071013002/19/16 07:10:31  5-MIN KAOH 191210Z AUTO 18019G26KT 10SM CLR 05/M02 A2998 920 62 0 180/19G26 RMK AO2 PK WND 18026/1209 T00501017
04850KAOH AOH20160219071513002/19/16 07:15:31  5-MIN KAOH 191215Z AUTO 18017G26KT 10SM CLR 06/M02 A2998 920 59 0 180/17G26 RMK AO2 PK WND 18026/1209 T00561017
04850KAOH AOH20160219072013202/19/16 07:20:31  5-MIN KAOH 191220Z AUTO 18016G25KT 10SM CLR 06/M02 A2997 930 59 100 180/16G25 RMK AO2 PK WND 18026/1209 T00561017
04850KAOH AOH20160219072513002/19/16 07:25:31  5-MIN KAOH 191225Z AUTO 18018G24KT 10SM CLR 06/M02 A2998 920 59 0 180/18G24 RMK AO2 PK WND 18026/1209 T00561017
04850KAOH AOH20160219073013002/19/16 07:30:31  5-MIN KAOH 191230Z AUTO 18015G25KT 10SM CLR 06/M02 A2998 930 59 0 180/15G25 RMK AO2 PK WND 18026/1209 T00561017
04850KAOH AOH20160219073513002/19/16 07:35:31  5-MIN KAOH 191235Z AUTO 17018G25KT 10SM CLR 06/M02 A2998 930 59 0 180/18G25 RMK AO2 PK WND 18026/1209 T00561017
04850KAOH AOH20160219074013202/19/16 07:40:31  5-MIN KAOH 191240Z AUTO 18016G25KT 10SM CLR 06/M02 A2997 930 59 100 180/16G25 RMK AO2 PK WND 18026/1209 T00561017
04850KAOH AOH20160219074513202/19/16 07:45:31  5-MIN KAOH 191245Z AUTO 18017G25KT 10SM CLR 06/M02 A2997 930 59 100 180/17G25 RMK AO2 PK WND 18026/1209 T00561017
04850KAOH AOH20160219075013902/19/16 07:50:31  5-MIN KAOH 191250Z AUTO 18016G25KT 10SM CLR 06/M02 A2997 930 59 100 180/16G25 RMK AO2 PK WND 18026/1209 SLP155 T00561017
04850KAOH AOH20160219075511402/19/16 07:55:31  5-MIN KAOH 191255Z AUTO 18017G24KT 10SM CLR 06/M02 A2997 930 59 100 180/17G24 RMK AO2 T00561017
04850KAOH AOH20160219080011402/19/16 08:00:31  5-MIN KAOH 191300Z AUTO 18017G22KT 10SM CLR 06/M02 A2997 930 59 100 180/17G22 RMK AO2 T00561017
04850KAOH AOH20160219080511402/19/16 08:05:31  5-MIN KAOH 191305Z AUTO 18015G22KT 10SM CLR 06/M02 A2997 940 59 100 190/15G22 RMK AO2 T00561017
04850KAOH AOH20160219081011402/19/16 08:10:31  5-MIN KAOH 191310Z AUTO 17017G23KT 10SM CLR 06/M01 A2996 940 62 100 180/17G23 RMK AO2 T00561011
04850KAOH AOH20160219081511702/19/16 08:15:31  5-MIN KAOH 191315Z AUTO 18016G23KT 10SM FEW080 06/M01 A2996 940 62 100 180/16G23 RMK AO2 T00561011
04850KAOH AOH20160219082011102/19/16 08:20:31  5-MIN KAOH 191320Z AUTO 18016KT 10SM SCT080 06/M01 A2996 940 60 100 190/16 RMK AO2 T00611011
04850KAOH AOH20160219082511702/19/16 08:25:31  5-MIN KAOH 191325Z AUTO 18014G22KT 10SM BKN080 06/M01 A2996 940 60 100 190/14G22 RMK AO2 T00611011
04850KAOH AOH20160219083011702/19/16 08:30:31  5-MIN KAOH 191330Z AUTO 18015G22KT 10SM BKN080 06/M01 A2996 940 60 100 190/15G22 RMK AO2 T00611011
04850KAOH AOH20160219083511702/19/16 08:35:31  5-MIN KAOH 191335Z AUTO 17014G22KT 10SM BKN080 06/M01 A2996 940 60 100 180/14G22 RMK AO2 T00611011
04850KAOH AOH20160219084011702/19/16 08:40:31  5-MIN KAOH 191340Z AUTO 17015G23KT 10SM OVC080 06/M01 A2995 950 60 100 180/15G23 RMK AO2 T00611011
04850KAOH AOH20160219084511702/19/16 08:45:31  5-MIN KAOH 191345Z AUTO 18014G23KT 10SM OVC080 07/M01 A2995 950 57 200 180/14G23 RMK AO2 T00671011
04850KAOH AOH20160219085012402/19/16 08:50:31  5-MIN KAOH 191350Z AUTO 18016G22KT 10SM OVC080 07/M01 A2995 950 60 200 180/16G22 RMK AO2 SLP148 T00671006
04850KAOH AOH20160219085511702/19/16 08:55:31  5-MIN KAOH 191355Z AUTO 18016G26KT 10SM OVC080 07/M01 A2995 950 60 200 180/16G26 RMK AO2 T00671006
04850KAOH AOH20160219090011702/19/16 09:00:31  5-MIN KAOH 191400Z AUTO 18018G26KT 10SM OVC080 07/M01 A2995 950 57 300 190/18G26 RMK AO2 T00721006
04850KAOH AOH20160219090511702/19/16 09:05:31  5-MIN KAOH 191405Z AUTO 18017G25KT 10SM OVC080 07/M01 A2994 960 57 300 190/17G25 RMK AO2 T00721006
04850KAOH AOH20160219091013502/19/16 09:10:31  5-MIN KAOH 191410Z AUTO 19021G30KT 10SM OVC075 08/M01 A2994 960 53 400 190/21G30 RMK AO2 PK WND 21030/1407 T00831006
04850KAOH AOH20160219091513502/19/16 09:15:31  5-MIN KAOH 191415Z AUTO 19020G30KT 10SM OVC075 09/M01 A2993 970 51 500 190/20G30 RMK AO2 PK WND 21030/1407 T00891006
04850KAOH AOH20160219092013502/19/16 09:20:31  5-MIN KAOH 191420Z AUTO 19019G26KT 10SM OVC075 09/M01 A2993 970 51 500 200/19G26 RMK AO2 PK WND 21030/1407 T00891006
04850KAOH AOH20160219092513502/19/16 09:25:31  5-MIN KAOH 191425Z AUTO 19021G39KT 10SM OVC070 09/M01 A2993 970 49 600 200/21G39 RMK AO2 PK WND 18039/1422 T00941006
04850KAOH AOH20160219093013502/19/16 09:30:31  5-MIN KAOH 191430Z AUTO 19021G39KT 10SM OVC070 09/M01 A2992 970 51 500 200/21G39 RMK AO2 PK WND 18039/1422 T00891006
04850KAOH AOH20160219093513502/19/16 09:35:31  5-MIN KAOH 191435Z AUTO 20025G35KT 10SM OVC070 09/M01 A2992 980 51 500 210/25G35 RMK AO2 PK WND 18039/1422 T00891006
04850KAOH AOH20160219094013402/19/16 09:40:31  5-MIN KAOH 191440Z AUTO 18022G35KT 10SM OVC070 09/00 A2992 980 53 500 190/22G35 RMK AO2 PK WND 18039/1422 T00890000
04850KAOH AOH20160219094513402/19/16 09:45:31  5-MIN KAOH 191445Z AUTO 18022G30KT 10SM OVC070 09/00 A2991 990 53 500 190/22G30 RMK AO2 PK WND 18039/1422 T00890000
04850KAOH AOH20160219095015502/19/16 09:50:31  5-MIN KAOH 191450Z AUTO 19023G30KT 10SM OVC070 09/00 A2990 1000 53 500 200/23G30 RMK AO2 PK WND 18039/1422 PRESFR SLP131 T00890000 58026
04850KAOH AOH20160219095514202/19/16 09:55:31  5-MIN KAOH 191455Z AUTO 19021G30KT 10SM OVC070 09/00 A2989 1000 51 600 190/21G30 RMK AO2 PK WND 20028/1455 PRESFR T00940000
04850KAOH AOH20160219100013502/19/16 10:00:31  5-MIN KAOH 191500Z AUTO 20022G36KT 10SM OVC070 09/00 A2989 1000 51 600 200/22G36 RMK AO2 PK WND 19036/1456 T00940000
04850KAOH AOH20160219100513502/19/16 10:05:31  5-MIN KAOH 191505Z AUTO 19027G37KT 10SM OVC070 10/00 A2989 1010 49 700 200/27G37 RMK AO2 PK WND 19037/1505 T01000000
04850KAOH AOH20160219101013502/19/16 10:10:31  5-MIN KAOH 191510Z AUTO 19019G37KT 10SM OVC070 10/00 A2988 1010 49 700 200/19G37 RMK AO2 PK WND 19037/1505 T01000000
04850KAOH AOH20160219101514202/19/16 10:15:31  5-MIN KAOH 191515Z AUTO 19022G31KT 10SM BKN070 OVC085 10/00 A2988 1020 49 700 200/22G31 RMK AO2 PK WND 19037/1505 T01000000
04850KAOH AOH20160219102014202/19/16 10:20:31  5-MIN KAOH 191520Z AUTO 19023G33KT 10SM BKN070 BKN085 10/00 A2987 1020 49 700 200/23G33 RMK AO2 PK WND 19037/1505 T01000000
04850KAOH AOH20160219102514902/19/16 10:25:31  5-MIN KAOH 191525Z AUTO 19021G34KT 10SM SCT070 BKN085 11/01 A2987 1030 50 800 200/21G34 RMK AO2 PK WND 19037/1505 PRESFR T01060006
04850KAOH AOH20160219103014202/19/16 10:30:31  5-MIN KAOH 191530Z AUTO 19020G34KT 10SM SCT070 SCT085 11/01 A2986 1030 50 800 200/20G34 RMK AO2 PK WND 19037/1505 T01060006
04850KAOH AOH20160219103514202/19/16 10:35:31  5-MIN KAOH 191535Z AUTO 20027G36KT 10SM FEW070 SCT085 11/01 A2986 1040 48 900 200/27G36 RMK AO2 PK WND 19037/1505 T01110006
04850KAOH AOH20160219104014202/19/16 10:40:31  5-MIN KAOH 191540Z AUTO 19025G36KT 10SM SCT065 SCT085 11/01 A2985 1040 48 900 200/25G36 RMK AO2 PK WND 19037/1505 T01110006
04850KAOH AOH20160219104514202/19/16 10:45:31  5-MIN KAOH 191545Z AUTO 19022G34KT 10SM SCT065 SCT085 11/01 A2985 1040 50 900 200/22G34 RMK AO2 PK WND 19037/1505 T01110011
04850KAOH AOH20160219105014202/19/16 10:50:31  5-MIN KAOH 191550Z AUTO 20022G34KT 10SM FEW065 11/01 A2984 1050 48 900 210/22G34 RMK AO2 PK WND 19037/1505 SLP110 T01110006
04850KAOH AOH20160219105513502/19/16 10:55:31  5-MIN KAOH 191555Z AUTO 20022G34KT 10SM FEW065 11/01 A2984 1050 50 900 210/22G34 RMK AO2 PK WND 20031/1555 T01110011
04850KAOH AOH20160219110013502/19/16 11:00:31  5-MIN KAOH 191600Z AUTO 20021G33KT 10SM FEW065 12/01 A2984 1050 48 900 210/21G33 RMK AO2 PK WND 19033/1557 T01170011
04850KAOH AOH20160219110513502/19/16 11:05:31  5-MIN KAOH 191605Z AUTO 20024G37KT 10SM FEW065 12/01 A2984 1050 48 900 200/24G37 RMK AO2 PK WND 21037/1603 T01170011
04850KAOH AOH20160219111013202/19/16 11:10:31  5-MIN KAOH 191610Z AUTO 20027G37KT 10SM CLR 12/01 A2984 1050 48 900 210/27G37 RMK AO2 PK WND 21037/1603 T01170011
04850KAOH AOH20160219111513302/19/16 11:15:31  5-MIN KAOH 191615Z AUTO 20024G35KT 10SM CLR 12/01 A2983 1060 48 1000 200/24G35 RMK AO2 PK WND 21037/1603 T01170011
04850KAOH AOH20160219112013302/19/16 11:20:31  5-MIN KAOH 191620Z AUTO 21023G34KT 10SM CLR 12/01 A2983 1060 48 1000 210/23G34 RMK AO2 PK WND 21037/1603 T01170011
04850KAOH AOH20160219112513302/19/16 11:25:31  5-MIN KAOH 191625Z AUTO 21022G34KT 10SM CLR 12/01 A2984 1060 46 1000 210/22G34 RMK AO2 PK WND 21037/1603 T01220011
04850KAOH AOH20160219113013302/19/16 11:30:31  5-MIN KAOH 191630Z AUTO 20025G34KT 10SM CLR 12/01 A2983 1060 46 1000 210/25G34 RMK AO2 PK WND 21037/1603 T01220011
04850KAOH AOH20160219113513302/19/16 11:35:31  5-MIN KAOH 191635Z AUTO 20029G37KT 10SM CLR 12/01 A2983 1070 46 1000 210/29G37 RMK AO2 PK WND 20037/1634 T01220011
04850KAOH AOH20160219114013302/19/16 11:40:31  5-MIN KAOH 191640Z AUTO 20023G37KT 10SM CLR 12/01 A2982 1070 46 1000 210/23G37 RMK AO2 PK WND 20037/1634 T01220011
04850KAOH AOH20160219114513602/19/16 11:45:31  5-MIN KAOH 191645Z AUTO 20024G35KT 10SM FEW055 13/02 A2982 1070 46 1100 210/24G35 RMK AO2 PK WND 20037/1634 T01280017
04850KAOH AOH20160219115014302/19/16 11:50:31  5-MIN KAOH 191650Z AUTO 20026G35KT 10SM FEW055 13/02 A2981 1080 46 1100 210/26G35 RMK AO2 PK WND 20037/1634 SLP098 T01280017
04850KAOH AOH20160219115513602/19/16 11:55:31  5-MIN KAOH 191655Z AUTO 21027G35KT 10SM FEW055 13/02 A2981 1080 46 1100 210/27G35 RMK AO2 PK WND 21033/1655 T01280017
04850KAOH AOH20160219120013302/19/16 12:00:31  5-MIN KAOH 191700Z AUTO 20024G36KT 10SM CLR 13/02 A2981 1080 46 1100 210/24G36 RMK AO2 PK WND 21036/1658 T01280017
04850KAOH AOH20160219120513302/19/16 12:05:31  5-MIN KAOH 191705Z AUTO 20025G38KT 10SM CLR 13/02 A2980 1090 45 1200 210/25G38 RMK AO2 PK WND 19038/1704 T01330017
04850KAOH AOH20160219121013302/19/16 12:10:31  5-MIN KAOH 191710Z AUTO 20022G38KT 10SM CLR 13/02 A2980 1090 45 1200 210/22G38 RMK AO2 PK WND 19038/1704 T01330017
04850KAOH AOH20160219121513302/19/16 12:15:31  5-MIN KAOH 191715Z AUTO 20023G35KT 10SM CLR 13/02 A2979 1100 45 1200 200/23G35 RMK AO2 PK WND 19038/1704 T01330017
04850KAOH AOH20160219122013302/19/16 12:20:31  5-MIN KAOH 191720Z AUTO 20020G40KT 10SM CLR 14/02 A2979 1100 43 1300 210/20G40 RMK AO2 PK WND 21040/1716 T01390017
04850KAOH AOH20160219122513302/19/16 12:25:31  5-MIN KAOH 191725Z AUTO 20026G40KT 10SM CLR 14/02 A2979 1100 43 1300 210/26G40 RMK AO2 PK WND 21040/1716 T01390017
04850KAOH AOH20160219123013302/19/16 12:30:31  5-MIN KAOH 191730Z AUTO 20019G35KT 10SM CLR 14/02 A2978 1110 45 1300 210/19G35 RMK AO2 PK WND 21040/1716 T01390022
04850KAOH AOH20160219123513302/19/16 12:35:31  5-MIN KAOH 191735Z AUTO 21028G38KT 10SM CLR 14/02 A2977 1110 43 1300 210/28G38 RMK AO2 PK WND 21040/1716 T01440022
04850KAOH AOH20160219124013302/19/16 12:40:31  5-MIN KAOH 191740Z AUTO 20024G38KT 10SM CLR 14/02 A2977 1110 43 1300 210/24G38 RMK AO2 PK WND 21040/1716 T01440022
04850KAOH AOH20160219124513302/19/16 12:45:31  5-MIN KAOH 191745Z AUTO 20022G40KT 10SM CLR 14/02 A2977 1120 43 1300 210/22G40 RMK AO2 PK WND 21040/1742 T01440022
04850KAOH AOH20160219125015802/19/16 12:50:31  5-MIN KAOH 191750Z AUTO 20022G40KT 10SM CLR 15/02 A2977 1120 42 1400 210/22G40 RMK AO2 PK WND 21040/1742 SLP084 T01500022 10150 20050 58029
04850KAOH AOH20160219125513302/19/16 12:55:31  5-MIN KAOH 191755Z AUTO 21024G37KT 10SM CLR 15/02 A2976 1130 42 1400 220/24G37 RMK AO2 PK WND 21034/1755 T01500022
04850KAOH AOH20160219130013302/19/16 13:00:31  5-MIN KAOH 191800Z AUTO 21025G37KT 10SM CLR 16/03 A2976 1130 42 1500 210/25G37 RMK AO2 PK WND 21034/1755 T01560028
04850KAOH AOH20160219130513302/19/16 13:05:31  5-MIN KAOH 191805Z AUTO 21026G37KT 10SM CLR 16/02 A2976 1130 40 1500 210/26G37 RMK AO2 PK WND 20037/1805 T01560022
04850KAOH AOH20160219131013302/19/16 13:10:31  5-MIN KAOH 191810Z AUTO 21024G38KT 10SM CLR 16/02 A2975 1140 40 1500 220/24G38 RMK AO2 PK WND 21038/1810 T01560022
04850KAOH AOH20160219131513302/19/16 13:15:31  5-MIN KAOH 191815Z AUTO 21025G38KT 10SM CLR 16/02 A2974 1140 40 1500 220/25G38 RMK AO2 PK WND 21038/1810 T01560022
04850KAOH AOH20160219132013302/19/16 13:20:31  5-MIN KAOH 191820Z AUTO 21024G36KT 10SM CLR 16/03 A2974 1140 40 1600 220/24G36 RMK AO2 PK WND 21038/1810 T01610028
04850KAOH AOH20160219132513302/19/16 13:25:31  5-MIN KAOH 191825Z AUTO 21026G36KT 10SM CLR 16/03 A2974 1150 40 1600 210/26G36 RMK AO2 PK WND 21038/1810 T01610028
04850KAOH AOH20160219135507402/19/16 13:55:31  5-MIN KAOH 191855Z AUTO M M M M /M RMK AO2 FZRANO PNO $
04850KAOH AOH20160219140513102/19/16 14:05:31  5-MIN KAOH 191905Z AUTO 22028G35KT 10SM 16/03 A2971 1170 42 1600 230/28G35 RMK AO2 PK WND 22035/1905 T01610033 $
04850KAOH AOH20160219141013102/19/16 14:10:31  5-MIN KAOH 191910Z AUTO 22026G35KT 10SM 16/03 A2971 1180 42 1600 230/26G35 RMK AO2 PK WND 22035/1905 T01610033 $
04850KAOH AOH20160219141513102/19/16 14:15:31  5-MIN KAOH 191915Z AUTO 22029G42KT 10SM 16/03 A2970 1180 42 1600 220/29G42 RMK AO2 PK WND 21042/1912 T01610033 $
04850KAOH AOH20160219142013102/19/16 14:20:31  5-MIN KAOH 191920Z AUTO 21029G42KT 10SM 16/03 A2970 1180 42 1600 220/29G42 RMK AO2 PK WND 21042/1912 T01610033 $
04850KAOH AOH20160219142513502/19/16 14:25:31  5-MIN KAOH 191925Z AUTO 22028G40KT 10SM CLR 16/03 A2970 1190 42 1600 220/28G40 RMK AO2 PK WND 21042/1912 T01610033 $
04850KAOH AOH20160219143013502/19/16 14:30:31  5-MIN KAOH 191930Z AUTO 22029G38KT 10SM CLR 16/03 A2970 1180 42 1600 230/29G38 RMK AO2 PK WND 21042/1912 T01610033 $
04850KAOH AOH20160219143513502/19/16 14:35:31  5-MIN KAOH 191935Z AUTO 22027G40KT 10SM CLR 16/03 A2970 1180 42 1600 230/27G40 RMK AO2 PK WND 21042/1912 T01610033 $
04850KAOH AOH20160219144013502/19/16 14:40:31  5-MIN KAOH 191940Z AUTO 22030G40KT 10SM CLR 16/03 A2969 1190 42 1600 230/30G40 RMK AO2 PK WND 21042/1912 T01610033 $
04850KAOH AOH20160219144507002/19/16 14:45:31  5-MIN KAOH 191945Z AUTO M M M M /M RMK AO2 FZRANO $
04850KAOH AOH20160219145013902/19/16 14:50:31  5-MIN KAOH 191950Z AUTO 22032G43KT 16/03 A2969 1190 42 1600 230/32G43 RMK AO2 PK WND 20043/1950 SLP057 T01610033 PWINO $
04850KAOH AOH20160219145513102/19/16 14:55:31  5-MIN KAOH 191955Z AUTO 22029G43KT 10SM 16/03 A2969 1190 42 1600 230/29G43 RMK AO2 PK WND 21042/1955 T01610033 $
04850KAOH AOH20160219150013102/19/16 15:00:31  5-MIN KAOH 192000Z AUTO 22030G45KT 10SM 16/03 A2969 1190 42 1600 230/30G45 RMK AO2 PK WND 22045/1957 T01610033 $
04850KAOH AOH20160219150513102/19/16 15:05:31  5-MIN KAOH 192005Z AUTO 22028G45KT 10SM 16/04 A2969 1190 44 1600 220/28G45 RMK AO2 PK WND 22045/1957 T01610039 $
04850KAOH AOH20160219151013102/19/16 15:10:31  5-MIN KAOH 192010Z AUTO 22029G42KT 10SM 16/04 A2968 1200 44 1600 230/29G42 RMK AO2 PK WND 22045/1957 T01610039 $
04850KAOH AOH20160219151513502/19/16 15:15:31  5-MIN KAOH 192015Z AUTO 22031G42KT 10SM CLR 16/04 A2969 1190 44 1600 230/31G42 RMK AO2 PK WND 22045/1957 T01610039 $
04850KAOH AOH20160219152013502/19/16 15:20:31  5-MIN KAOH 192020Z AUTO 22023G38KT 10SM CLR 16/04 A2970 1190 44 1600 230/23G38 RMK AO2 PK WND 22045/1957 T01610039 $
04850KAOH AOH20160219152513502/19/16 15:25:31  5-MIN KAOH 192025Z AUTO 22029G37KT 10SM CLR 17/04 A2970 1180 42 1700 220/29G37 RMK AO2 PK WND 22045/1957 T01670039 $
04850KAOH AOH20160219153013502/19/16 15:30:31  5-MIN KAOH 192030Z AUTO 22026G37KT 10SM CLR 16/04 A2970 1180 44 1600 230/26G37 RMK AO2 PK WND 22045/1957 T01610039 $
04850KAOH AOH20160219153513502/19/16 15:35:31  5-MIN KAOH 192035Z AUTO 22028G41KT 10SM CLR 16/04 A2970 1180 44 1600 230/28G41 RMK AO2 PK WND 22045/1957 T01610039 $
04850KAOH AOH20160219154013502/19/16 15:40:31  5-MIN KAOH 192040Z AUTO 22029G41KT 10SM CLR 17/04 A2970 1180 44 1700 230/29G41 RMK AO2 PK WND 22045/1957 T01670044 $
04850KAOH AOH20160219154513502/19/16 15:45:31  5-MIN KAOH 192045Z AUTO 23027G38KT 10SM CLR 17/04 A2971 1180 44 1700 230/27G38 RMK AO2 PK WND 22045/1957 T01670044 $
04850KAOH AOH20160219155014802/19/16 15:50:31  5-MIN KAOH 192050Z AUTO 22027G40KT 10SM CLR 17/04 A2971 1180 44 1700 230/27G40 RMK AO2 PK WND 22045/1957 SLP061 6//// T01670044 $
04850KAOH AOH20160219155513502/19/16 15:55:31  5-MIN KAOH 192055Z AUTO 23028G40KT 10SM CLR 16/04 A2971 1170 45 1600 230/28G40 RMK AO2 PK WND 24033/2054 T01610044 $
04850KAOH AOH20160219160013802/19/16 16:00:31  5-MIN KAOH 192100Z AUTO 23022G37KT 10SM FEW060 17/04 A2971 1170 44 1700 230/22G37 RMK AO2 PK WND 22037/2056 T01670044 $
04850KAOH AOH20160219160513802/19/16 16:05:31  5-MIN KAOH 192105Z AUTO 23030G40KT 10SM SCT055 16/04 A2971 1170 45 1600 230/30G40 RMK AO2 PK WND 24040/2104 T01610044 $
04850KAOH AOH20160219161013802/19/16 16:10:31  5-MIN KAOH 192110Z AUTO 23030G42KT 10SM BKN055 16/04 A2972 1170 45 1600 240/30G42 RMK AO2 PK WND 22042/2106 T01610044 $
04850KAOH AOH20160219161513802/19/16 16:15:31  5-MIN KAOH 192115Z AUTO 23028G42KT 10SM BKN050 16/04 A2971 1170 47 1500 230/28G42 RMK AO2 PK WND 22042/2106 T01560044 $
04850KAOH AOH20160219162013802/19/16 16:20:31  5-MIN KAOH 192120Z AUTO 22032G38KT 10SM BKN050 16/05 A2970 1180 49 1600 230/32G38 RMK AO2 PK WND 22042/2106 T01560050 $
04850KAOH AOH20160219162513802/19/16 16:25:31  5-MIN KAOH 192125Z AUTO 22028G39KT 10SM OVC050 16/05 A2971 1180 49 1600 230/28G39 RMK AO2 PK WND 22042/2106 T01560050 $
04850KAOH AOH20160219163013802/19/16 16:30:31  5-MIN KAOH 192130Z AUTO 22023G39KT 10SM OVC050 16/05 A2970 1180 49 1600 230/23G39 RMK AO2 PK WND 22042/2106 T01560050 $
04850KAOH AOH20160219163513802/19/16 16:35:31  5-MIN KAOH 192135Z AUTO 23026G36KT 10SM OVC050 16/05 A2971 1170 49 1600 230/26G36 RMK AO2 PK WND 22042/2106 T01560050 $
04850KAOH AOH20160219164013802/19/16 16:40:31  5-MIN KAOH 192140Z AUTO 23021G34KT 10SM OVC050 15/05 A2971 1170 51 1500 230/21G34 RMK AO2 PK WND 22042/2106 T01500050 $
04850KAOH AOH20160219164513802/19/16 16:45:31  5-MIN KAOH 192145Z AUTO 23024G33KT 10SM OVC050 16/05 A2972 1170 49 1500 230/24G33 RMK AO2 PK WND 22042/2106 T01560050 $
04850KAOH AOH20160219165014302/19/16 16:50:31  5-MIN KAOH 192150Z AUTO 23024G32KT 10SM OVC050 16/05 A2972 1160 49 1500 230/24G32 RMK AO2 PK WND 22042/2106 SLP066 T01560050
04850KAOH AOH20160219165513602/19/16 16:55:31  5-MIN KAOH 192155Z AUTO 22021G32KT 10SM OVC050 16/05 A2972 1170 49 1500 230/21G32 RMK AO2 PK WND 22030/2155 T01560050
04850KAOH AOH20160219170013602/19/16 17:00:31  5-MIN KAOH 192200Z AUTO 22022G36KT 10SM OVC050 15/05 A2972 1170 51 1500 230/22G36 RMK AO2 PK WND 21036/2200 T01500050
04850KAOH AOH20160219170513602/19/16 17:05:31  5-MIN KAOH 192205Z AUTO 22023G36KT 10SM OVC047 15/06 A2972 1170 53 1500 230/23G36 RMK AO2 PK WND 21036/2200 T01500056
04850KAOH AOH20160219171013602/19/16 17:10:31  5-MIN KAOH 192210Z AUTO 23024G33KT 10SM OVC047 15/06 A2973 1160 55 1500 240/24G33 RMK AO2 PK WND 21036/2200 T01500061
04850KAOH AOH20160219171507002/19/16 17:15:31  5-MIN KAOH 192215Z AUTO M M M M /M RMK AO2 FZRANO $
04850KAOH AOH20160219172012502/19/16 17:20:31  5-MIN KAOH 192220Z AUTO 22024G31KT 15/ A2973 1160 M 1500 230/24G31 RMK AO2 PK WND 22031/2219 T0150 PWINO $
04850KAOH AOH20160219172513102/19/16 17:25:31  5-MIN KAOH 192225Z AUTO 23020G31KT 10SM 15/06 A2973 1160 55 1500 230/20G31 RMK AO2 PK WND 22031/2219 T01500061 $
04850KAOH AOH20160219173013102/19/16 17:30:31  5-MIN KAOH 192230Z AUTO 22024G31KT 10SM 15/06 A2972 1160 55 1500 230/24G31 RMK AO2 PK WND 22031/2219 T01500061 $
04850KAOH AOH20160219173513102/19/16 17:35:31  5-MIN KAOH 192235Z AUTO 22022G31KT 10SM 15/07 A2972 1160 57 1500 220/22G31 RMK AO2 PK WND 22031/2219 T01500067 $
04850KAOH AOH20160219174013102/19/16 17:40:31  5-MIN KAOH 192240Z AUTO 23023G30KT 10SM 14/07 A2972 1170 59 1400 230/23G30 RMK AO2 PK WND 22031/2219 T01440067 $
04850KAOH AOH20160219174514502/19/16 17:45:31  5-MIN KAOH 192245Z AUTO 22023G30KT 10SM BKN043 BKN050 14/07 A2971 1170 59 1400 230/23G30 RMK AO2 PK WND 22031/2219 T01440067 $
04850KAOH AOH20160219175014502/19/16 17:50:31  5-MIN KAOH 192250Z AUTO 23023G32KT 10SM BKN045 14/07 A2972 1170 59 1400 230/23G32 RMK AO2 PK WND 22032/2247 SLP065 T01440067 $
04850KAOH AOH20160219175513802/19/16 17:55:31  5-MIN KAOH 192255Z AUTO 23019G32KT 10SM BKN043 14/07 A2972 1160 59 1400 230/19G32 RMK AO2 PK WND 22028/2255 T01440067 $
04850KAOH AOH20160219180013802/19/16 18:00:31  5-MIN KAOH 192300Z AUTO 22018G32KT 10SM BKN043 14/07 A2972 1160 59 1400 230/18G32 RMK AO2 PK WND 23032/2256 T01440067 $
04850KAOH AOH20160219180513802/19/16 18:05:31  5-MIN KAOH 192305Z AUTO 22021G32KT 10SM BKN043 14/07 A2972 1160 59 1400 230/21G32 RMK AO2 PK WND 23032/2256 T01440067 $
04850KAOH AOH20160219181013802/19/16 18:10:31  5-MIN KAOH 192310Z AUTO 23024G32KT 10SM SCT043 14/07 A2973 1160 61 1400 230/24G32 RMK AO2 PK WND 24032/2310 T01440072 $
04850KAOH AOH20160219181513802/19/16 18:15:31  5-MIN KAOH 192315Z AUTO 22018G32KT 10SM SCT043 14/07 A2973 1150 61 1400 230/18G32 RMK AO2 PK WND 24032/2310 T01440072 $
04850KAOH AOH20160219182013802/19/16 18:20:31  5-MIN KAOH 192320Z AUTO 23021G33KT 10SM SCT041 14/07 A2973 1150 61 1400 230/21G33 RMK AO2 PK WND 22033/2317 T01440072 $
04850KAOH AOH20160219182515202/19/16 18:25:31  5-MIN KAOH 192325Z AUTO 23022G33KT 10SM BKN039 BKN047 14/07 A2975 1140 61 1400 240/22G33 RMK AO2 PK WND 22033/2317 PRESRR T01440072 $
04850KAOH AOH20160219183014502/19/16 18:30:31  5-MIN KAOH 192330Z AUTO 23021G29KT 10SM SCT037 BKN045 14/07 A2975 1140 64 1300 240/21G29 RMK AO2 PK WND 22033/2317 T01390072 $
04850KAOH AOH20160219183514502/19/16 18:35:31  5-MIN KAOH 192335Z AUTO 23025G33KT 10SM FEW037 SCT046 14/08 A2975 1140 66 1300 230/25G33 RMK AO2 PK WND 22033/2317 T01390078 $
04850KAOH AOH20160219184013802/19/16 18:40:31  5-MIN KAOH 192340Z AUTO 23018G33KT 10SM FEW037 14/08 A2975 1130 66 1300 240/18G33 RMK AO2 PK WND 22033/2317 T01390078 $
04850KAOH AOH20160219184513802/19/16 18:45:31  5-MIN KAOH 192345Z AUTO 23022G31KT 10SM FEW037 14/08 A2975 1130 66 1300 240/22G31 RMK AO2 PK WND 22033/2317 T01390078 $
04850KAOH AOH20160219185016302/19/16 18:50:31  5-MIN KAOH 192350Z AUTO 23021G30KT 10SM FEW037 14/08 A2975 1130 66 1300 240/21G30 RMK AO2 PK WND 22033/2317 SLP077 6//// T01390078 10167 20128 $
04850KAOH AOH20160219185513502/19/16 18:55:31  5-MIN KAOH 192355Z AUTO 23023G33KT 10SM CLR 14/08 A2975 1130 66 1300 240/23G33 RMK AO2 PK WND 23030/2354 T01390078 $
04850KAOH AOH20160219190013502/19/16 19:00:31  5-MIN KAOH 200000Z AUTO 23020G33KT 10SM CLR 14/08 A2976 1130 66 1300 240/20G33 RMK AO2 PK WND 23030/2354 T01390078 $
04850KAOH AOH20160219190513802/19/16 19:05:31  5-MIN KAOH 200005Z AUTO 23021G28KT 10SM FEW050 14/08 A2977 1120 66 1300 240/21G28 RMK AO2 PK WND 23030/2354 T01390078 $
04850KAOH AOH20160219191013802/19/16 19:10:31  5-MIN KAOH 200010Z AUTO 23022G30KT 10SM SCT050 13/08 A2977 1120 69 1200 240/22G30 RMK AO2 PK WND 23030/2354 T01330078 $
04850KAOH AOH20160219191513802/19/16 19:15:31  5-MIN KAOH 200015Z AUTO 23022G31KT 10SM BKN055 14/08 A2977 1120 66 1300 230/22G31 RMK AO2 PK WND 22031/0015 T01390078 $
04850KAOH AOH20160219192013802/19/16 19:20:31  5-MIN KAOH 200020Z AUTO 23023G31KT 10SM BKN055 14/08 A2977 1120 66 1300 230/23G31 RMK AO2 PK WND 22031/0015 T01390078 $
04850KAOH AOH20160219192515202/19/16 19:25:31  5-MIN KAOH 200025Z AUTO 23023G31KT 10SM FEW042 SCT050 BKN060 14/08 A2977 1120 66 1300 240/23G31 RMK AO2 PK WND 22031/0015 T01390078 $
04850KAOH AOH20160219193015202/19/16 19:30:31  5-MIN KAOH 200030Z AUTO 23023G33KT 10SM FEW043 BKN050 BKN060 13/08 A2977 1120 69 1200 240/23G33 RMK AO2 PK WND 23033/0030 T01330078 $
04850KAOH AOH20160219193515202/19/16 19:35:31  5-MIN KAOH 200035Z AUTO 23022G33KT 10SM SCT050 SCT060 BKN075 13/08 A2978 1110 69 1200 240/22G33 RMK AO2 PK WND 23033/0030 T01330078 $
04850KAOH AOH20160219194014502/19/16 19:40:31  5-MIN KAOH 200040Z AUTO 24021G30KT 10SM SCT050 SCT075 13/08 A2978 1100 69 1200 250/21G30 RMK AO2 PK WND 23033/0030 T01330078 $
04850KAOH AOH20160219194514502/19/16 19:45:31  5-MIN KAOH 200045Z AUTO 24023G33KT 10SM FEW050 FEW075 13/08 A2979 1100 69 1200 250/23G33 RMK AO2 PK WND 23033/0030 T01330078 $
04850KAOH AOH20160219195015202/19/16 19:50:31  5-MIN KAOH 200050Z AUTO 24021G33KT 10SM FEW047 FEW075 13/08 A2979 1100 71 1100 250/21G33 RMK AO2 PK WND 23033/0030 SLP090 T01280078 $
04850KAOH AOH20160219195512002/19/16 19:55:31  5-MIN KAOH 200055Z AUTO 24022G31KT 10SM FEW075 13/07 A2979 1100 66 1200 250/22G31 RMK AO2 T01330072 $
04850KAOH AOH20160219200013802/19/16 20:00:31  5-MIN KAOH 200100Z AUTO 24023G30KT 10SM FEW070 13/07 A2979 1100 69 1100 240/23G30 RMK AO2 PK WND 23027/0100 T01280072 $
04850KAOH AOH20160219200513802/19/16 20:05:31  5-MIN KAOH 200105Z AUTO 24020G29KT 10SM FEW070 13/07 A2979 1100 66 1200 250/20G29 RMK AO2 PK WND 24029/0103 T01330072 $
04850KAOH AOH20160219201015202/19/16 20:10:31  5-MIN KAOH 200110Z AUTO 24021G29KT 10SM FEW050 FEW060 SCT070 13/07 A2979 1100 66 1200 250/21G29 RMK AO2 PK WND 24029/0103 T01330072 $
04850KAOH AOH20160219201514502/19/16 20:15:31  5-MIN KAOH 200115Z AUTO 24021G33KT 10SM FEW050 SCT065 13/07 A2979 1090 66 1200 240/21G33 RMK AO2 PK WND 25033/0113 T01330072 $
04850KAOH AOH20160219202013802/19/16 20:20:31  5-MIN KAOH 200120Z AUTO 23020G33KT 10SM BKN070 13/07 A2979 1100 66 1200 240/20G33 RMK AO2 PK WND 25033/0113 T01330072 $
04850KAOH AOH20160219202513802/19/16 20:25:31  5-MIN KAOH 200125Z AUTO 24027G33KT 10SM BKN070 13/07 A2979 1090 64 1200 240/27G33 RMK AO2 PK WND 24033/0125 T01330067 $
04850KAOH AOH20160219203013802/19/16 20:30:31  5-MIN KAOH 200130Z AUTO 24024G33KT 10SM BKN070 13/07 A2980 1090 64 1200 240/24G33 RMK AO2 PK WND 24033/0125 T01330067 $
04850KAOH AOH20160219203514502/19/16 20:35:31  5-MIN KAOH 200135Z AUTO 24026G31KT 10SM FEW050 BKN070 13/07 A2980 1090 64 1200 240/26G31 RMK AO2 PK WND 24033/0125 T01330067 $
04850KAOH AOH20160219204013802/19/16 20:40:31  5-MIN KAOH 200140Z AUTO 24024G31KT 10SM BKN070 13/07 A2980 1090 64 1200 250/24G31 RMK AO2 PK WND 24033/0125 T01330067 $
04850KAOH AOH20160219204513802/19/16 20:45:31  5-MIN KAOH 200145Z AUTO 24022G31KT 10SM SCT070 13/06 A2980 1090 63 1100 240/22G31 RMK AO2 PK WND 24033/0125 T01280061 $
04850KAOH AOH20160219205014502/19/16 20:50:31  5-MIN KAOH 200150Z AUTO 24020G29KT 10SM FEW070 13/06 A2980 1090 63 1100 240/20G29 RMK AO2 PK WND 24033/0125 SLP093 T01280061 $
04850KAOH AOH20160219205512002/19/16 20:55:31  5-MIN KAOH 200155Z AUTO 23019G26KT 10SM FEW070 13/07 A2980 1090 66 1100 240/19G26 RMK AO2 T01280067 $
04850KAOH AOH20160219210013802/19/16 21:00:31  5-MIN KAOH 200200Z AUTO 23025G31KT 10SM FEW070 13/06 A2980 1090 63 1100 240/25G31 RMK AO2 PK WND 24031/0159 T01280061 $
04850KAOH AOH20160219210513502/19/16 21:05:31  5-MIN KAOH 200205Z AUTO 23022G31KT 10SM CLR 13/07 A2980 1090 66 1100 240/22G31 RMK AO2 PK WND 24031/0159 T01280067 $
04850KAOH AOH20160219211013802/19/16 21:10:31  5-MIN KAOH 200210Z AUTO 23022G31KT 10SM FEW070 13/07 A2981 1080 66 1100 240/22G31 RMK AO2 PK WND 24031/0159 T01280067 $
04850KAOH AOH20160219211513802/19/16 21:15:31  5-MIN KAOH 200215Z AUTO 23022G29KT 10SM FEW070 12/06 A2980 1090 66 1100 240/22G29 RMK AO2 PK WND 24031/0159 T01220061 $
04850KAOH AOH20160219212013502/19/16 21:20:31  5-MIN KAOH 200220Z AUTO 23022G32KT 10SM CLR 13/06 A2980 1090 63 1100 240/22G32 RMK AO2 PK WND 24032/0216 T01280061 $
04850KAOH AOH20160219212513502/19/16 21:25:31  5-MIN KAOH 200225Z AUTO 23020G32KT 10SM CLR 13/06 A2981 1080 63 1100 240/20G32 RMK AO2 PK WND 24032/0216 T01280061 $
04850KAOH AOH20160219213013502/19/16 21:30:31  5-MIN KAOH 200230Z AUTO 23025G34KT 10SM CLR 13/06 A2981 1080 61 1100 240/25G34 RMK AO2 PK WND 23034/0230 T01280056 $
04850KAOH AOH20160219213513502/19/16 21:35:31  5-MIN KAOH 200235Z AUTO 24024G34KT 10SM CLR 13/06 A2981 1080 61 1100 250/24G34 RMK AO2 PK WND 23034/0231 T01280056 $
04850KAOH AOH20160219214013502/19/16 21:40:31  5-MIN KAOH 200240Z AUTO 24024G34KT 10SM CLR 12/05 A2981 1080 61 1000 240/24G34 RMK AO2 PK WND 25034/0237 T01220050 $
04850KAOH AOH20160219214513502/19/16 21:45:31  5-MIN KAOH 200245Z AUTO 24025G35KT 10SM CLR 13/05 A2982 1070 59 1100 250/25G35 RMK AO2 PK WND 25035/0243 T01280050 $
04850KAOH AOH20160219215014202/19/16 21:50:31  5-MIN KAOH 200250Z AUTO 25026G35KT 10SM CLR 12/05 A2982 1070 61 1000 250/26G35 RMK AO2 PK WND 25035/0243 SLP101 T01220050 $
04850KAOH AOH20160219215513502/19/16 21:55:31  5-MIN KAOH 200255Z AUTO 24024G33KT 10SM CLR 12/05 A2983 1060 61 1000 250/24G33 RMK AO2 PK WND 24030/0255 T01220050 $
04850KAOH AOH20160219220013802/19/16 22:00:31  5-MIN KAOH 200300Z AUTO 24026G39KT 10SM SCT065 13/05 A2983 1070 59 1100 250/26G39 RMK AO2 PK WND 24039/0258 T01280050 $
04850KAOH AOH20160219220513802/19/16 22:05:31  5-MIN KAOH 200305Z AUTO 24024G39KT 10SM SCT065 13/05 A2983 1060 59 1100 250/24G39 RMK AO2 PK WND 24039/0258 T01280050 $
04850KAOH AOH20160219221013802/19/16 22:10:31  5-MIN KAOH 200310Z AUTO 24025G40KT 10SM BKN065 13/04 A2983 1060 56 1100 250/25G40 RMK AO2 PK WND 24040/0310 T01280044 $
04850KAOH AOH20160219221513802/19/16 22:15:31  5-MIN KAOH 200315Z AUTO 25026G40KT 10SM BKN065 13/04 A2984 1050 56 1100 250/26G40 RMK AO2 PK WND 24040/0310 T01280044 $
04850KAOH AOH20160219222013802/19/16 22:20:31  5-MIN KAOH 200320Z AUTO 25025G36KT 10SM BKN065 13/04 A2984 1050 56 1100 260/25G36 RMK AO2 PK WND 24040/0310 T01280044 $
04850KAOH AOH20160219222513802/19/16 22:25:31  5-MIN KAOH 200325Z AUTO 25029G37KT 10SM OVC065 12/04 A2985 1050 56 1000 260/29G37 RMK AO2 PK WND 24040/0310 T01220039 $
04850KAOH AOH20160219223013802/19/16 22:30:31  5-MIN KAOH 200330Z AUTO 25029G42KT 10SM OVC065 12/04 A2985 1040 56 1000 260/29G42 RMK AO2 PK WND 24042/0327 T01220039 $
04850KAOH AOH20160219223513802/19/16 22:35:31  5-MIN KAOH 200335Z AUTO 25030G42KT 10SM BKN065 12/03 A2985 1040 54 1000 260/30G42 RMK AO2 PK WND 24042/0327 T01220033 $
04850KAOH AOH20160219224013802/19/16 22:40:31  5-MIN KAOH 200340Z AUTO 26029G39KT 10SM BKN070 12/03 A2985 1040 52 1000 260/29G39 RMK AO2 PK WND 24042/0327 T01220028 $
04850KAOH AOH20160219224513702/19/16 22:45:31  5-MIN KAOH 200345Z AUTO 25028G45KT 10SM BKN070 12/02 A2985 1040 52 900 260/28G45 RMK AO2 PK WND 26045/0341 T01170022 $
04850KAOH AOH20160219225014402/19/16 22:50:31  5-MIN KAOH 200350Z AUTO 26024G45KT 10SM SCT070 12/02 A2986 1040 52 900 260/24G45 RMK AO2 PK WND 26045/0341 SLP111 T01170022 $
04850KAOH AOH20160219225513702/19/16 22:55:31  5-MIN KAOH 200355Z AUTO 25027G38KT 10SM FEW070 12/02 A2986 1030 52 900 260/27G38 RMK AO2 PK WND 26034/0354 T01170022 $
04850KAOH AOH20160219230013702/19/16 23:00:31  5-MIN KAOH 200400Z AUTO 26028G38KT 10SM FEW070 12/02 A2986 1030 52 900 270/28G38 RMK AO2 PK WND 25038/0356 T01170022 $
04850KAOH AOH20160219230513402/19/16 23:05:31  5-MIN KAOH 200405Z AUTO 26029G40KT 10SM CLR 12/02 A2987 1030 50 900 260/29G40 RMK AO2 PK WND 25040/0404 T01170017 $
04850KAOH AOH20160219231013402/19/16 23:10:31  5-MIN KAOH 200410Z AUTO 26028G40KT 10SM CLR 12/02 A2987 1020 50 900 260/28G40 RMK AO2 PK WND 25040/0404 T01170017 $
04850KAOH AOH20160219231513402/19/16 23:15:31  5-MIN KAOH 200415Z AUTO 26026G37KT 10SM CLR 11/02 A2987 1020 52 800 260/26G37 RMK AO2 PK WND 25040/0404 T01110017 $
04850KAOH AOH20160219232013402/19/16 23:20:31  5-MIN KAOH 200420Z AUTO 26024G36KT 10SM CLR 11/02 A2988 1020 54 800 260/24G36 RMK AO2 PK WND 25040/0404 T01060017 $
04850KAOH AOH20160219232513402/19/16 23:25:31  5-MIN KAOH 200425Z AUTO 25027G33KT 10SM CLR 11/02 A2988 1010 54 800 260/27G33 RMK AO2 PK WND 25040/0404 T01060017 $
04850KAOH AOH20160219233013402/19/16 23:30:31  5-MIN KAOH 200430Z AUTO 25025G36KT 10SM CLR 11/02 A2989 1010 54 800 260/25G36 RMK AO2 PK WND 25040/0404 T01060017 $
04850KAOH AOH20160219233513402/19/16 23:35:31  5-MIN KAOH 200435Z AUTO 26026G36KT 10SM CLR 11/02 A2989 1010 54 800 260/26G36 RMK AO2 PK WND 25040/0404 T01060017 $
04850KAOH AOH20160219234013402/19/16 23:40:31  5-MIN KAOH 200440Z AUTO 26025G35KT 10SM CLR 10/02 A2989 1000 56 700 260/25G35 RMK AO2 PK WND 25040/0404 T01000017 $
04850KAOH AOH20160219234513402/19/16 23:45:31  5-MIN KAOH 200445Z AUTO 26025G37KT 10SM CLR 11/01 A2989 1000 52 700 260/25G37 RMK AO2 PK WND 25040/0404 T01060011 $
04850KAOH AOH20160219235015102/19/16 23:50:31  5-MIN KAOH 200450Z AUTO 25024G37KT 10SM CLR 10/01 A2989 1000 54 700 260/24G37 RMK AO2 PK WND 25040/0404 SLP125 T01000011 401670022 $
04850KAOH AOH20160219235513402/19/16 23:55:31  5-MIN KAOH 200455Z AUTO 25025G33KT 10SM CLR 10/01 A2989 1000 54 700 260/25G33 RMK AO2 PK WND 26033/0455 T01000011 $
04850KAOH AOH20160220000013402/20/16 00:00:31  5-MIN KAOH 200500Z AUTO 25022G33KT 10SM CLR 10/01 A2989 1000 54 700 260/22G33 RMK AO2 PK WND 26027/0500 T01000011 $
04850KAOH AOH20160220000513402/20/16 00:05:31  5-MIN KAOH 200505Z AUTO 25018G31KT 10SM CLR 10/01 A2989 1000 54 700 260/18G31 RMK AO2 PK WND 26031/0502 T01000011 $
04850KAOH AOH20160220001013402/20/16 00:10:31  5-MIN KAOH 200510Z AUTO 25020G31KT 10SM CLR 10/01 A2989 1000 54 700 260/20G31 RMK AO2 PK WND 26031/0502 T01000011 $
04850KAOH AOH20160220001513402/20/16 00:15:31  5-MIN KAOH 200515Z AUTO 25022G29KT 10SM CLR 10/01 A2990 1000 54 700 260/22G29 RMK AO2 PK WND 26031/0502 T01000011 $
04850KAOH AOH20160220002013402/20/16 00:20:31  5-MIN KAOH 200520Z AUTO 25018G29KT 10SM CLR 10/01 A2990 1000 54 700 260/18G29 RMK AO2 PK WND 26031/0502 T01000011 $
04850KAOH AOH20160220002513302/20/16 00:25:31  5-MIN KAOH 200525Z AUTO 25019G28KT 10SM CLR 09/01 A2990 990 56 600 260/19G28 RMK AO2 PK WND 26031/0502 T00940011 $
04850KAOH AOH20160220003013302/20/16 00:30:31  5-MIN KAOH 200530Z AUTO 25017G28KT 10SM CLR 09/01 A2990 990 56 600 260/17G28 RMK AO2 PK WND 26031/0502 T00940011 $
04850KAOH AOH20160220003512702/20/16 00:35:31  5-MIN KAOH 200535Z AUTO 25017KT 10SM CLR 09/01 A2990 990 56 600 250/17 RMK AO2 PK WND 26031/0502 T00940011 $
04850KAOH AOH20160220004012702/20/16 00:40:31  5-MIN KAOH 200540Z AUTO 25016KT 10SM CLR 09/01 A2990 990 53 600 250/16 RMK AO2 PK WND 26031/0502 T00940006 $
04850KAOH AOH20160220004513302/20/16 00:45:31  5-MIN KAOH 200545Z AUTO 25015G23KT 10SM CLR 09/01 A2991 990 56 500 250/15G23 RMK AO2 PK WND 26031/0502 T00890006 $
04850KAOH AOH20160220005015202/20/16 00:50:31  5-MIN KAOH 200550Z AUTO 25017KT 10SM CLR 09/01 A2991 990 56 500 260/17 RMK AO2 PK WND 26031/0502 SLP128 T00890006 10139 20089 51024 $
04850KAOH AOH20160220005510902/20/16 00:55:31  5-MIN KAOH 200555Z AUTO 25016KT 10SM CLR 09/01 A2991 990 53 600 250/16 RMK AO2 T00940006 $
04850KAOH AOH20160220010010902/20/16 01:00:31  5-MIN KAOH 200600Z AUTO 25016KT 10SM CLR 09/00 A2991 990 53 500 260/16 RMK AO2 T00890000 $
04850KAOH AOH20160220010510902/20/16 01:05:31  5-MIN KAOH 200605Z AUTO 25014KT 10SM CLR 09/00 A2991 980 53 500 250/14 RMK AO2 T00890000 $
04850KAOH AOH20160220011010902/20/16 01:10:31  5-MIN KAOH 200610Z AUTO 24013KT 10SM CLR 09/00 A2991 980 53 500 250/13 RMK AO2 T00890000 $
04850KAOH AOH20160220011511502/20/16 01:15:31  5-MIN KAOH 200615Z AUTO 24015G20KT 10SM CLR 08/00 A2991 980 55 500 250/15G20 RMK AO2 T00830000 $
04850KAOH AOH20160220012011502/20/16 01:20:31  5-MIN KAOH 200620Z AUTO 25016G22KT 10SM CLR 09/01 A2991 980 53 600 250/16G22 RMK AO2 T00940006 $
04850KAOH AOH20160220012511502/20/16 01:25:31  5-MIN KAOH 200625Z AUTO 25015G23KT 10SM CLR 09/01 A2991 980 53 600 250/15G23 RMK AO2 T00940006 $
04850KAOH AOH20160220013011502/20/16 01:30:31  5-MIN KAOH 200630Z AUTO 25016G23KT 10SM CLR 09/01 A2992 980 56 500 250/16G23 RMK AO2 T00890006 $
04850KAOH AOH20160220013510902/20/16 01:35:31  5-MIN KAOH 200635Z AUTO 25017KT 10SM CLR 09/01 A2992 980 56 500 260/17 RMK AO2 T00890006 $
04850KAOH AOH20160220014010902/20/16 01:40:31  5-MIN KAOH 200640Z AUTO 25016KT 10SM CLR 09/01 A2992 980 56 500 260/16 RMK AO2 T00890006 $
04850KAOH AOH20160220014513302/20/16 01:45:31  5-MIN KAOH 200645Z AUTO 25018G26KT 10SM CLR 09/01 A2992 980 56 500 260/18G26 RMK AO2 PK WND 25026/0641 T00890006 $
04850KAOH AOH20160220015014002/20/16 01:50:31  5-MIN KAOH 200650Z AUTO 25016G26KT 10SM CLR 09/00 A2992 980 53 500 250/16G26 RMK AO2 PK WND 25026/0641 SLP131 T00890000 $
04850KAOH AOH20160220015510902/20/16 01:55:31  5-MIN KAOH 200655Z AUTO 25014KT 10SM CLR 09/00 A2992 980 53 500 250/14 RMK AO2 T00890000 $
04850KAOH AOH20160220020010902/20/16 02:00:31  5-MIN KAOH 200700Z AUTO 25015KT 10SM CLR 08/00 A2992 980 55 400 250/15 RMK AO2 T00830000 $
04850KAOH AOH20160220020510902/20/16 02:05:31  5-MIN KAOH 200705Z AUTO 25014KT 10SM CLR 08/00 A2992 980 55 400 250/14 RMK AO2 T00830000 $
04850KAOH AOH20160220021010902/20/16 02:10:31  5-MIN KAOH 200710Z AUTO 24013KT 10SM CLR 08/00 A2992 980 55 400 250/13 RMK AO2 T00830000 $
04850KAOH AOH20160220021510902/20/16 02:15:31  5-MIN KAOH 200715Z AUTO 24014KT 10SM CLR 08/00 A2992 970 55 400 250/14 RMK AO2 T00830000 $
04850KAOH AOH20160220022010902/20/16 02:20:31  5-MIN KAOH 200720Z AUTO 24015KT 10SM CLR 09/00 A2993 970 53 500 250/15 RMK AO2 T00890000 $
04850KAOH AOH20160220022510902/20/16 02:25:31  5-MIN KAOH 200725Z AUTO 24015KT 10SM CLR 09/00 A2993 970 53 500 250/15 RMK AO2 T00890000 $
04850KAOH AOH20160220023010902/20/16 02:30:31  5-MIN KAOH 200730Z AUTO 24016KT 10SM CLR 08/01 A2992 970 58 400 240/16 RMK AO2 T00830006 $
04850KAOH AOH20160220023510902/20/16 02:35:31  5-MIN KAOH 200735Z AUTO 24014KT 10SM CLR 09/01 A2992 970 56 500 240/14 RMK AO2 T00890006 $
04850KAOH AOH20160220024010902/20/16 02:40:31  5-MIN KAOH 200740Z AUTO 23013KT 10SM CLR 08/01 A2992 970 58 400 240/13 RMK AO2 T00830006 $
04850KAOH AOH20160220024510902/20/16 02:45:31  5-MIN KAOH 200745Z AUTO 23015KT 10SM CLR 08/01 A2992 980 58 400 240/15 RMK AO2 T00830006 $
04850KAOH AOH20160220025011602/20/16 02:50:31  5-MIN KAOH 200750Z AUTO 23013KT 10SM CLR 08/01 A2992 980 58 500 240/13 RMK AO2 SLP133 T00830006 $
04850KAOH AOH20160220025510902/20/16 02:55:31  5-MIN KAOH 200755Z AUTO 23012KT 10SM CLR 08/01 A2992 980 58 400 230/12 RMK AO2 T00830006 $
04850KAOH AOH20160220030010902/20/16 03:00:31  5-MIN KAOH 200800Z AUTO 23012KT 10SM CLR 08/01 A2992 980 58 400 240/12 RMK AO2 T00830006 $
04850KAOH AOH20160220030510902/20/16 03:05:31  5-MIN KAOH 200805Z AUTO 23013KT 10SM CLR 08/01 A2992 980 58 400 240/13 RMK AO2 T00830006 $
04850KAOH AOH20160220031010902/20/16 03:10:31  5-MIN KAOH 200810Z AUTO 23013KT 10SM CLR 08/01 A2992 970 58 400 240/13 RMK AO2 T00830006 $
04850KAOH AOH20160220031510902/20/16 03:15:31  5-MIN KAOH 200815Z AUTO 24012KT 10SM CLR 08/01 A2992 970 58 400 240/12 RMK AO2 T00830006 $
04850KAOH AOH20160220032010902/20/16 03:20:31  5-MIN KAOH 200820Z AUTO 24012KT 10SM CLR 08/01 A2993 970 60 400 250/12 RMK AO2 T00780006 $
04850KAOH AOH20160220032510902/20/16 03:25:31  5-MIN KAOH 200825Z AUTO 24011KT 10SM CLR 08/01 A2993 970 60 400 250/11 RMK AO2 T00780006 $
04850KAOH AOH20160220033010902/20/16 03:30:31  5-MIN KAOH 200830Z AUTO 24011KT 10SM CLR 08/01 A2993 970 60 400 250/11 RMK AO2 T00780006 $
04850KAOH AOH20160220033510902/20/16 03:35:31  5-MIN KAOH 200835Z AUTO 25011KT 10SM CLR 07/01 A2993 970 62 300 250/11 RMK AO2 T00720006 $
04850KAOH AOH20160220034010902/20/16 03:40:31  5-MIN KAOH 200840Z AUTO 25011KT 10SM CLR 07/01 A2992 970 62 300 250/11 RMK AO2 T00720006 $
04850KAOH AOH20160220034510902/20/16 03:45:31  5-MIN KAOH 200845Z AUTO 25012KT 10SM CLR 07/01 A2992 970 62 300 260/12 RMK AO2 T00720006 $
04850KAOH AOH20160220035012202/20/16 03:50:31  5-MIN KAOH 200850Z AUTO 25012KT 10SM CLR 07/01 A2992 970 62 300 260/12 RMK AO2 SLP134 T00720006 51027 $
04850KAOH AOH20160220035510902/20/16 03:55:31  5-MIN KAOH 200855Z AUTO 25012KT 10SM CLR 07/01 A2992 980 62 300 250/12 RMK AO2 T00720006 $
04850KAOH AOH20160220040010902/20/16 04:00:31  5-MIN KAOH 200900Z AUTO 24010KT 10SM CLR 07/01 A2992 980 62 300 250/10 RMK AO2 T00720006 $
04850KAOH AOH20160220040510902/20/16 04:05:31  5-MIN KAOH 200905Z AUTO 24011KT 10SM CLR 07/00 A2992 980 60 300 250/11 RMK AO2 T00720000 $
04850KAOH AOH20160220041010902/20/16 04:10:31  5-MIN KAOH 200910Z AUTO 24011KT 10SM CLR 07/00 A2992 970 60 300 240/11 RMK AO2 T00720000 $
04850KAOH AOH20160220041510902/20/16 04:15:31  5-MIN KAOH 200915Z AUTO 23010KT 10SM CLR 07/00 A2992 970 60 300 240/10 RMK AO2 T00720000 $
04850KAOH AOH20160220042010902/20/16 04:20:31  5-MIN KAOH 200920Z AUTO 23009KT 10SM CLR 07/00 A2992 970 60 300 230/09 RMK AO2 T00720000 $
04850KAOH AOH20160220042510902/20/16 04:25:31  5-MIN KAOH 200925Z AUTO 23010KT 10SM CLR 07/00 A2992 970 62 200 240/10 RMK AO2 T00670000 $
04850KAOH AOH20160220043010902/20/16 04:30:31  5-MIN KAOH 200930Z AUTO 23010KT 10SM CLR 07/00 A2992 980 60 300 240/10 RMK AO2 T00720000 $
04850KAOH AOH20160220043510902/20/16 04:35:31  5-MIN KAOH 200935Z AUTO 23011KT 10SM CLR 07/00 A2992 970 60 300 240/11 RMK AO2 T00720000 $
04850KAOH AOH20160220044010902/20/16 04:40:31  5-MIN KAOH 200940Z AUTO 23010KT 10SM CLR 07/00 A2992 970 60 300 240/10 RMK AO2 T00720000 $
04850KAOH AOH20160220044510902/20/16 04:45:31  5-MIN KAOH 200945Z AUTO 23011KT 10SM CLR 07/00 A2992 970 60 300 240/11 RMK AO2 T00720000 $
04850KAOH AOH20160220045011602/20/16 04:50:31  5-MIN KAOH 200950Z AUTO 23011KT 10SM CLR 07/01 A2992 970 62 300 240/11 RMK AO2 SLP134 T00720006 $
04850KAOH AOH20160220045510902/20/16 04:55:31  5-MIN KAOH 200955Z AUTO 23011KT 10SM CLR 07/01 A2992 970 62 300 230/11 RMK AO2 T00720006 $
04850KAOH AOH20160220050010902/20/16 05:00:31  5-MIN KAOH 201000Z AUTO 23010KT 10SM CLR 07/01 A2992 970 62 300 230/10 RMK AO2 T00720006 $
04850KAOH AOH20160220050510902/20/16 05:05:31  5-MIN KAOH 201005Z AUTO 23011KT 10SM CLR 07/01 A2993 970 65 200 240/11 RMK AO2 T00670006 $
04850KAOH AOH20160220051010902/20/16 05:10:31  5-MIN KAOH 201010Z AUTO 23010KT 10SM CLR 07/01 A2992 970 62 300 230/10 RMK AO2 T00720006 $
04850KAOH AOH20160220051510902/20/16 05:15:31  5-MIN KAOH 201015Z AUTO 23012KT 10SM CLR 07/01 A2992 980 62 300 230/12 RMK AO2 T00720006 $
04850KAOH AOH20160220052010902/20/16 05:20:31  5-MIN KAOH 201020Z AUTO 22012KT 10SM CLR 07/01 A2993 970 62 300 230/12 RMK AO2 T00720006 $
04850KAOH AOH20160220052510902/20/16 05:25:31  5-MIN KAOH 201025Z AUTO 22013KT 10SM CLR 07/01 A2993 970 65 200 230/13 RMK AO2 T00670006 $
04850KAOH AOH20160220053010902/20/16 05:30:31  5-MIN KAOH 201030Z AUTO 22010KT 10SM CLR 07/01 A2993 970 62 300 230/10 RMK AO2 T00720006 $
04850KAOH AOH20160220053510902/20/16 05:35:31  5-MIN KAOH 201035Z AUTO 22010KT 10SM CLR 07/01 A2993 970 65 200 220/10 RMK AO2 T00670006 $
04850KAOH AOH20160220054010902/20/16 05:40:31  5-MIN KAOH 201040Z AUTO 22012KT 10SM CLR 07/01 A2993 970 65 300 220/12 RMK AO2 T00720011 $
04850KAOH AOH20160220054510902/20/16 05:45:31  5-MIN KAOH 201045Z AUTO 22011KT 10SM CLR 07/01 A2993 970 65 300 230/11 RMK AO2 T00720011 $
04850KAOH AOH20160220055011602/20/16 05:50:31  5-MIN KAOH 201050Z AUTO 22010KT 10SM CLR 07/02 A2993 970 68 300 220/10 RMK AO2 SLP136 T00720017 $
04850KAOH AOH20160220055511502/20/16 05:55:31  5-MIN KAOH 201055Z AUTO 21009G17KT 10SM CLR 07/02 A2993 970 68 300 220/09G17 RMK AO2 T00720017 $
04850KAOH AOH20160220060010902/20/16 06:00:31  5-MIN KAOH 201100Z AUTO 22011KT 10SM CLR 07/02 A2993 970 70 200 230/11 RMK AO2 T00670017 $
04850KAOH AOH20160220060510902/20/16 06:05:31  5-MIN KAOH 201105Z AUTO 22010KT 10SM CLR 07/02 A2993 970 70 200 220/10 RMK AO2 T00670017 $
04850KAOH AOH20160220061010902/20/16 06:10:31  5-MIN KAOH 201110Z AUTO 22009KT 10SM CLR 07/02 A2993 970 73 200 230/09 RMK AO2 T00670022 $
04850KAOH AOH20160220061510902/20/16 06:15:31  5-MIN KAOH 201115Z AUTO 22011KT 10SM CLR 07/02 A2993 970 73 200 220/11 RMK AO2 T00670022 $
04850KAOH AOH20160220062010902/20/16 06:20:31  5-MIN KAOH 201120Z AUTO 22011KT 10SM CLR 07/02 A2993 970 70 300 230/11 RMK AO2 T00720022 $
04850KAOH AOH20160220062510902/20/16 06:25:31  5-MIN KAOH 201125Z AUTO 22010KT 10SM CLR 07/02 A2993 970 70 300 230/10 RMK AO2 T00720022 $
04850KAOH AOH20160220063010902/20/16 06:30:31  5-MIN KAOH 201130Z AUTO 22010KT 10SM CLR 07/02 A2993 970 73 200 230/10 RMK AO2 T00670022 $
04850KAOH AOH20160220063510902/20/16 06:35:31  5-MIN KAOH 201135Z AUTO 22010KT 10SM CLR 07/02 A2993 970 73 200 230/10 RMK AO2 T00670022 $
04850KAOH AOH20160220064010902/20/16 06:40:31  5-MIN KAOH 201140Z AUTO 22008KT 10SM CLR 07/02 A2992 970 70 300 230/08 RMK AO2 T00720022 $
04850KAOH AOH20160220064510902/20/16 06:45:31  5-MIN KAOH 201145Z AUTO 22009KT 10SM CLR 07/02 A2993 970 73 200 230/09 RMK AO2 T00670022 $
04850KAOH AOH20160220065014002/20/16 06:50:31  5-MIN KAOH 201150Z AUTO 22009KT 10SM CLR 07/02 A2993 970 73 200 220/09 RMK AO2 SLP135 7//// T00670022 10094 20067 51004 $
04850KAOH AOH20160220065510902/20/16 06:55:31  5-MIN KAOH 201155Z AUTO 22009KT 10SM CLR 07/02 A2993 970 70 300 220/09 RMK AO2 T00720022 $
04850KAOH AOH20160220070010902/20/16 07:00:31  5-MIN KAOH 201200Z AUTO 21009KT 10SM CLR 07/02 A2992 970 73 200 220/09 RMK AO2 T00670022 $
04850KAOH AOH20160220070510902/20/16 07:05:31  5-MIN KAOH 201205Z AUTO 20008KT 10SM CLR 07/02 A2993 970 73 200 200/08 RMK AO2 T00670022 $
04850KAOH AOH20160220071010902/20/16 07:10:31  5-MIN KAOH 201210Z AUTO 20007KT 10SM CLR 07/02 A2992 970 73 200 210/07 RMK AO2 T00670022 $
04850KAOH AOH20160220071510902/20/16 07:15:31  5-MIN KAOH 201215Z AUTO 20007KT 10SM CLR 07/02 A2992 980 73 200 210/07 RMK AO2 T00670022 $
04850KAOH AOH20160220072010902/20/16 07:20:31  5-MIN KAOH 201220Z AUTO 20008KT 10SM CLR 07/02 A2992 980 73 200 200/08 RMK AO2 T00670022 $
04850KAOH AOH20160220072510902/20/16 07:25:31  5-MIN KAOH 201225Z AUTO 20009KT 10SM CLR 07/02 A2992 980 73 200 210/09 RMK AO2 T00670022 $
04850KAOH AOH20160220073010902/20/16 07:30:31  5-MIN KAOH 201230Z AUTO 20011KT 10SM CLR 07/02 A2992 980 73 200 210/11 RMK AO2 T00670022 $
04850KAOH AOH20160220073510902/20/16 07:35:31  5-MIN KAOH 201235Z AUTO 20012KT 10SM CLR 07/02 A2992 980 73 200 210/12 RMK AO2 T00670022 $
04850KAOH AOH20160220074010902/20/16 07:40:31  5-MIN KAOH 201240Z AUTO 20010KT 10SM CLR 07/02 A2992 980 73 200 210/10 RMK AO2 T00670022 $
04850KAOH AOH20160220074510902/20/16 07:45:31  5-MIN KAOH 201245Z AUTO 20012KT 10SM CLR 07/02 A2992 980 73 200 200/12 RMK AO2 T00670022 $
04850KAOH AOH20160220075011602/20/16 07:50:31  5-MIN KAOH 201250Z AUTO 20009KT 10SM CLR 07/02 A2992 980 73 200 200/09 RMK AO2 SLP133 T00670022 $
04850KAOH AOH20160220075510902/20/16 07:55:31  5-MIN KAOH 201255Z AUTO 19011KT 10SM CLR 07/02 A2992 980 73 200 200/11 RMK AO2 T00670022 $
04850KAOH AOH20160220080010902/20/16 08:00:31  5-MIN KAOH 201300Z AUTO 19011KT 10SM CLR 07/02 A2992 980 73 300 200/11 RMK AO2 T00670022 $
04850KAOH AOH20160220080510902/20/16 08:05:31  5-MIN KAOH 201305Z AUTO 19010KT 10SM CLR 07/02 A2992 980 73 200 190/10 RMK AO2 T00670022 $
04850KAOH AOH20160220081010902/20/16 08:10:31  5-MIN KAOH 201310Z AUTO 19010KT 10SM CLR 07/02 A2992 980 73 200 200/10 RMK AO2 T00670022 $
04850KAOH AOH20160220081510902/20/16 08:15:31  5-MIN KAOH 201315Z AUTO 20010KT 10SM CLR 07/03 A2992 970 73 300 200/10 RMK AO2 T00720028 $
04850KAOH AOH20160220082010902/20/16 08:20:31  5-MIN KAOH 201320Z AUTO 20010KT 10SM CLR 07/03 A2993 970 76 300 200/10 RMK AO2 T00720033 $
04850KAOH AOH20160220082510902/20/16 08:25:31  5-MIN KAOH 201325Z AUTO 20010KT 10SM CLR 08/03 A2992 970 73 400 200/10 RMK AO2 T00780033 $
04850KAOH AOH20160220083010902/20/16 08:30:31  5-MIN KAOH 201330Z AUTO 20010KT 10SM CLR 08/04 A2992 970 76 400 210/10 RMK AO2 T00780039 $
04850KAOH AOH20160220083510902/20/16 08:35:31  5-MIN KAOH 201335Z AUTO 20012KT 10SM CLR 08/04 A2992 970 73 400 210/12 RMK AO2 T00830039 $
04850KAOH AOH20160220084010902/20/16 08:40:31  5-MIN KAOH 201340Z AUTO 20012KT 10SM CLR 08/04 A2992 970 76 400 210/12 RMK AO2 T00830044 $
04850KAOH AOH20160220084511502/20/16 08:45:31  5-MIN KAOH 201345Z AUTO 21011G19KT 10SM CLR 09/04 A2992 970 73 500 210/11G19 RMK AO2 T00890044 $
04850KAOH AOH20160220085012202/20/16 08:50:31  5-MIN KAOH 201350Z AUTO 21013G19KT 10SM CLR 09/04 A2993 970 73 500 210/13G19 RMK AO2 SLP135 T00890044 $
04850KAOH AOH20160220085511502/20/16 08:55:31  5-MIN KAOH 201355Z AUTO 21014G20KT 10SM CLR 09/04 A2993 970 71 600 210/14G20 RMK AO2 T00940044 $
04850KAOH AOH20160220090011502/20/16 09:00:31  5-MIN KAOH 201400Z AUTO 20012G20KT 10SM CLR 09/04 A2992 970 71 600 210/12G20 RMK AO2 T00940044 $
04850KAOH AOH20160220090510902/20/16 09:05:31  5-MIN KAOH 201405Z AUTO 20013KT 10SM CLR 09/04 A2992 980 71 600 210/13 RMK AO2 T00940044 $
04850KAOH AOH20160220091010902/20/16 09:10:31  5-MIN KAOH 201410Z AUTO 21014KT 10SM CLR 10/04 A2992 980 68 700 210/14 RMK AO2 T01000044 $
04850KAOH AOH20160220091510902/20/16 09:15:31  5-MIN KAOH 201415Z AUTO 20014KT 10SM CLR 10/04 A2992 980 68 700 210/14 RMK AO2 T01000044 $
04850KAOH AOH20160220092010902/20/16 09:20:31  5-MIN KAOH 201420Z AUTO 20013KT 10SM CLR 10/05 A2992 980 71 700 210/13 RMK AO2 T01000050 $
04850KAOH AOH20160220092510902/20/16 09:25:31  5-MIN KAOH 201425Z AUTO 21013KT 10SM CLR 11/05 A2992 980 68 700 210/13 RMK AO2 T01060050 $
04850KAOH AOH20160220093011502/20/16 09:30:31  5-MIN KAOH 201430Z AUTO 21013G20KT 10SM CLR 11/05 A2992 980 68 700 210/13G20 RMK AO2 T01060050 $
04850KAOH AOH20160220093511502/20/16 09:35:31  5-MIN KAOH 201435Z AUTO 21015G22KT 10SM CLR 11/04 A2992 980 63 800 210/15G22 RMK AO2 T01110044 $
04850KAOH AOH20160220094011502/20/16 09:40:31  5-MIN KAOH 201440Z AUTO 21016G22KT 10SM CLR 11/04 A2992 980 63 800 220/16G22 RMK AO2 T01110044 $
04850KAOH AOH20160220094511502/20/16 09:45:31  5-MIN KAOH 201445Z AUTO 21014G21KT 10SM CLR 12/04 A2992 980 61 900 220/14G21 RMK AO2 T01170044 $
04850KAOH AOH20160220095012202/20/16 09:50:31  5-MIN KAOH 201450Z AUTO 21015KT 10SM CLR 12/04 A2992 980 59 900 220/15 RMK AO2 SLP132 T01220044 50001 $
04850KAOH AOH20160220095510902/20/16 09:55:31  5-MIN KAOH 201455Z AUTO 22014KT 10SM CLR 12/04 A2992 980 56 900 220/14 RMK AO2 T01220039 $
04850KAOH AOH20160220100011602/20/16 10:00:31  5-MIN KAOH 201500Z AUTO 21015G23KT 10SM CLR 13/04 A2992 980 54 1000 220/15G23 RMK AO2 T01280039 $
04850KAOH AOH20160220100511602/20/16 10:05:31  5-MIN KAOH 201505Z AUTO 21016G23KT 10SM CLR 13/04 A2992 980 54 1000 220/16G23 RMK AO2 T01280039 $
04850KAOH AOH20160220101011602/20/16 10:10:31  5-MIN KAOH 201510Z AUTO 21014G22KT 10SM CLR 13/03 A2992 980 50 1100 220/14G22 RMK AO2 T01330033 $
04850KAOH AOH20160220101511602/20/16 10:15:31  5-MIN KAOH 201515Z AUTO 21016G23KT 10SM CLR 14/03 A2992 980 48 1100 220/16G23 RMK AO2 T01390033 $
04850KAOH AOH20160220102011602/20/16 10:20:31  5-MIN KAOH 201520Z AUTO 22017G23KT 10SM CLR 14/03 A2992 980 48 1100 230/17G23 RMK AO2 T01390033 $
04850KAOH AOH20160220102511602/20/16 10:25:31  5-MIN KAOH 201525Z AUTO 22015G22KT 10SM CLR 14/03 A2991 980 48 1100 230/15G22 RMK AO2 T01390033 $
04850KAOH AOH20160220103011002/20/16 10:30:31  5-MIN KAOH 201530Z AUTO 21017KT 10SM CLR 14/03 A2991 990 47 1200 220/17 RMK AO2 T01440033 $
04850KAOH AOH20160220103511002/20/16 10:35:31  5-MIN KAOH 201535Z AUTO 21015KT 10SM CLR 14/03 A2991 990 47 1200 220/15 RMK AO2 T01440033 $
04850KAOH AOH20160220104011602/20/16 10:40:31  5-MIN KAOH 201540Z AUTO 22017G23KT 10SM CLR 15/03 A2991 990 45 1300 220/17G23 RMK AO2 T01500033 $
04850KAOH AOH20160220104511602/20/16 10:45:31  5-MIN KAOH 201545Z AUTO 22019G25KT 10SM CLR 15/03 A2991 990 43 1300 220/19G25 RMK AO2 T01500028 $
04850KAOH AOH20160220105012302/20/16 10:50:31  5-MIN KAOH 201550Z AUTO 21017G25KT 10SM CLR 16/03 A2990 990 42 1300 220/17G25 RMK AO2 SLP125 T01560028 $
04850KAOH AOH20160220105513502/20/16 10:55:31  5-MIN KAOH 201555Z AUTO 22021G26KT 10SM CLR 16/03 A2990 1000 43 1300 220/21G26 RMK AO2 PK WND 21026/1554 T01560033 $
04850KAOH AOH20160220110013502/20/16 11:00:31  5-MIN KAOH 201600Z AUTO 22021G26KT 10SM CLR 16/03 A2990 1000 43 1300 230/21G26 RMK AO2 PK WND 22026/1556 T01560033 $
04850KAOH AOH20160220110513502/20/16 11:05:31  5-MIN KAOH 201605Z AUTO 22018G26KT 10SM CLR 16/03 A2990 1000 43 1300 220/18G26 RMK AO2 PK WND 22026/1556 T01560033 $
04850KAOH AOH20160220111013502/20/16 11:10:31  5-MIN KAOH 201610Z AUTO 22019G26KT 10SM CLR 16/03 A2990 1000 42 1400 230/19G26 RMK AO2 PK WND 22026/1556 T01610033 $
04850KAOH AOH20160220111513502/20/16 11:15:31  5-MIN KAOH 201615Z AUTO 22018G27KT 10SM CLR 16/03 A2989 1000 42 1400 230/18G27 RMK AO2 PK WND 22027/1612 T01610033 $
04850KAOH AOH20160220112013502/20/16 11:20:31  5-MIN KAOH 201620Z AUTO 23023G29KT 10SM CLR 16/03 A2990 1000 42 1400 230/23G29 RMK AO2 PK WND 24029/1620 T01610033 $
04850KAOH AOH20160220112513502/20/16 11:25:31  5-MIN KAOH 201625Z AUTO 22018G29KT 10SM CLR 17/03 A2989 1000 40 1500 230/18G29 RMK AO2 PK WND 24029/1620 T01670033 $
04850KAOH AOH20160220113013502/20/16 11:30:31  5-MIN KAOH 201630Z AUTO 23021G27KT 10SM CLR 17/03 A2989 1000 39 1500 230/21G27 RMK AO2 PK WND 24029/1620 T01670028 $
04850KAOH AOH20160220113513502/20/16 11:35:31  5-MIN KAOH 201635Z AUTO 23025G32KT 10SM CLR 17/03 A2989 1010 39 1500 230/25G32 RMK AO2 PK WND 22032/1635 T01670028 $
04850KAOH AOH20160220114013502/20/16 11:40:31  5-MIN KAOH 201640Z AUTO 22023G33KT 10SM CLR 17/02 A2989 1010 36 1500 230/23G33 RMK AO2 PK WND 22033/1640 T01720022 $
04850KAOH AOH20160220114513502/20/16 11:45:31  5-MIN KAOH 201645Z AUTO 22027G34KT 10SM CLR 17/02 A2988 1010 36 1500 230/27G34 RMK AO2 PK WND 22034/1645 T01720022 $
04850KAOH AOH20160220115014202/20/16 11:50:31  5-MIN KAOH 201650Z AUTO 23019G34KT 10SM CLR 17/02 A2988 1010 36 1500 240/19G34 RMK AO2 PK WND 23034/1646 SLP118 T01720022 $
04850KAOH AOH20160220115513502/20/16 11:55:31  5-MIN KAOH 201655Z AUTO 24025G34KT 10SM CLR 18/02 A2988 1010 35 1600 240/25G34 RMK AO2 PK WND 24032/1654 T01780022 $
04850KAOH AOH20160220120013502/20/16 12:00:31  5-MIN KAOH 201700Z AUTO 23021G33KT 10SM CLR 18/02 A2988 1010 35 1600 240/21G33 RMK AO2 PK WND 24032/1654 T01780022 $
04850KAOH AOH20160220120513502/20/16 12:05:31  5-MIN KAOH 201705Z AUTO 23025G32KT 10SM CLR 18/02 A2988 1020 35 1600 240/25G32 RMK AO2 PK WND 22032/1703 T01780022 $
04850KAOH AOH20160220121013502/20/16 12:10:31  5-MIN KAOH 201710Z AUTO 24024G32KT 10SM CLR 18/02 A2988 1020 33 1600 240/24G32 RMK AO2 PK WND 22032/1703 T01780017 $
04850KAOH AOH20160220121513502/20/16 12:15:31  5-MIN KAOH 201715Z AUTO 23026G33KT 10SM CLR 18/02 A2987 1020 35 1600 240/26G33 RMK AO2 PK WND 24033/1715 T01780022 $
04850KAOH AOH20160220122013502/20/16 12:20:31  5-MIN KAOH 201720Z AUTO 23022G33KT 10SM CLR 18/02 A2987 1020 35 1600 240/22G33 RMK AO2 PK WND 24033/1715 T01780022 $
04850KAOH AOH20160220122513502/20/16 12:25:31  5-MIN KAOH 201725Z AUTO 23027G39KT 10SM CLR 18/03 A2987 1030 36 1600 230/27G39 RMK AO2 PK WND 24039/1724 T01780028 $
04850KAOH AOH20160220123013502/20/16 12:30:31  5-MIN KAOH 201730Z AUTO 24023G39KT 10SM CLR 18/03 A2987 1020 36 1600 240/23G39 RMK AO2 PK WND 24039/1724 T01780028 $
04850KAOH AOH20160220123513502/20/16 12:35:31  5-MIN KAOH 201735Z AUTO 24027G36KT 10SM CLR 18/03 A2987 1030 35 1700 240/27G36 RMK AO2 PK WND 24039/1724 T01830028 $
04850KAOH AOH20160220124013502/20/16 12:40:31  5-MIN KAOH 201740Z AUTO 23024G36KT 10SM CLR 18/03 A2986 1030 35 1700 230/24G36 RMK AO2 PK WND 24039/1724 T01830028 $
04850KAOH AOH20160220124513502/20/16 12:45:31  5-MIN KAOH 201745Z AUTO 24024G34KT 10SM CLR 18/02 A2986 1030 34 1700 240/24G34 RMK AO2 PK WND 24039/1724 T01830022 $
04850KAOH AOH20160220125016002/20/16 12:50:31  5-MIN KAOH 201750Z AUTO 24024G32KT 10SM CLR 19/02 A2986 1030 32 1800 250/24G32 RMK AO2 PK WND 24039/1724 SLP110 T01890022 10189 20061 57002 $
04850KAOH AOH20160220125513502/20/16 12:55:31  5-MIN KAOH 201755Z AUTO 24024G34KT 10SM CLR 19/02 A2986 1040 32 1800 250/24G34 RMK AO2 PK WND 25031/1755 T01890022 $
04850KAOH AOH20160220130013502/20/16 13:00:31  5-MIN KAOH 201800Z AUTO 24022G34KT 10SM CLR 19/02 A2985 1040 32 1800 250/22G34 RMK AO2 PK WND 25031/1755 T01890022 $
04850KAOH AOH20160220130513502/20/16 13:05:31  5-MIN KAOH 201805Z AUTO 23031G36KT 10SM CLR 19/02 A2985 1040 31 1800 240/31G36 RMK AO2 PK WND 23036/1804 T01890017 $
04850KAOH AOH20160220131013502/20/16 13:10:31  5-MIN KAOH 201810Z AUTO 24027G37KT 10SM CLR 19/01 A2985 1040 30 1800 250/27G37 RMK AO2 PK WND 24037/1808 T01890011 $
04850KAOH AOH20160220131513502/20/16 13:15:31  5-MIN KAOH 201815Z AUTO 24026G37KT 10SM CLR 19/01 A2985 1050 30 1800 240/26G37 RMK AO2 PK WND 24037/1808 T01890011 $
04850KAOH AOH20160220132013502/20/16 13:20:31  5-MIN KAOH 201820Z AUTO 24028G35KT 10SM CLR 19/02 A2984 1050 31 1800 240/28G35 RMK AO2 PK WND 24037/1808 T01890017 $
04850KAOH AOH20160220132513502/20/16 13:25:31  5-MIN KAOH 201825Z AUTO 24024G35KT 10SM CLR 19/01 A2984 1050 30 1800 240/24G35 RMK AO2 PK WND 24037/1808 T01890011 $
04850KAOH AOH20160220133013502/20/16 13:30:31  5-MIN KAOH 201830Z AUTO 24031G40KT 10SM CLR 19/01 A2984 1050 30 1800 240/31G40 RMK AO2 PK WND 24040/1830 T01890011 $
04850KAOH AOH20160220133513502/20/16 13:35:31  5-MIN KAOH 201835Z AUTO 25028G40KT 10SM CLR 19/01 A2984 1050 30 1800 250/28G40 RMK AO2 PK WND 24040/1830 T01890011 $
04850KAOH AOH20160220134013502/20/16 13:40:31  5-MIN KAOH 201840Z AUTO 25025G36KT 10SM CLR 19/02 A2984 1050 31 1800 250/25G36 RMK AO2 PK WND 24040/1830 T01890017 $
04850KAOH AOH20160220134513502/20/16 13:45:31  5-MIN KAOH 201845Z AUTO 24024G33KT 10SM CLR 19/02 A2984 1060 30 1900 250/24G33 RMK AO2 PK WND 24040/1830 T01940017 $
04850KAOH AOH20160220135014202/20/16 13:50:31  5-MIN KAOH 201850Z AUTO 25019G33KT 10SM CLR 19/02 A2984 1050 31 1900 250/19G33 RMK AO2 PK WND 24040/1830 SLP102 T01940022 $
04850KAOH AOH20160220135513502/20/16 13:55:31  5-MIN KAOH 201855Z AUTO 26028G34KT 10SM CLR 19/01 A2984 1060 29 1900 260/28G34 RMK AO2 PK WND 26034/1854 T01940011 $
04850KAOH AOH20160220140013502/20/16 14:00:31  5-MIN KAOH 201900Z AUTO 24025G34KT 10SM CLR 19/01 A2983 1060 29 1900 250/25G34 RMK AO2 PK WND 26034/1854 T01940011 $
04850KAOH AOH20160220140513502/20/16 14:05:31  5-MIN KAOH 201905Z AUTO 25026G33KT 10SM CLR 19/01 A2983 1060 29 1900 260/26G33 RMK AO2 PK WND 26034/1854 T01940011 $
04850KAOH AOH20160220141013502/20/16 14:10:31  5-MIN KAOH 201910Z AUTO 26025G35KT 10SM CLR 19/02 A2983 1060 30 1900 260/25G35 RMK AO2 PK WND 26035/1909 T01940017 $
04850KAOH AOH20160220141513502/20/16 14:15:31  5-MIN KAOH 201915Z AUTO 24022G35KT 10SM CLR 19/02 A2983 1060 30 1900 250/22G35 RMK AO2 PK WND 26035/1909 T01940017 $
04850KAOH AOH20160220142013502/20/16 14:20:31  5-MIN KAOH 201920Z AUTO 25024G29KT 10SM CLR 19/02 A2983 1060 30 1900 250/24G29 RMK AO2 PK WND 26035/1909 T01940017 $
04850KAOH AOH20160220142513502/20/16 14:25:31  5-MIN KAOH 201925Z AUTO 24021G29KT 10SM CLR 19/02 A2983 1060 31 1900 250/21G29 RMK AO2 PK WND 26035/1909 T01940022 $
04850KAOH AOH20160220143013502/20/16 14:30:31  5-MIN KAOH 201930Z AUTO 25028G35KT 10SM CLR 19/01 A2983 1060 29 1900 260/28G35 RMK AO2 PK WND 25035/1930 T01940011 $
04850KAOH AOH20160220143513502/20/16 14:35:31  5-MIN KAOH 201935Z AUTO 26024G35KT 10SM CLR 19/02 A2983 1060 30 1900 270/24G35 RMK AO2 PK WND 25035/1930 T01940017 $
04850KAOH AOH20160220144013502/20/16 14:40:31  5-MIN KAOH 201940Z AUTO 25026G34KT 10SM CLR 19/02 A2983 1060 30 1900 260/26G34 RMK AO2 PK WND 25035/1930 T01940017 $
04850KAOH AOH20160220144513502/20/16 14:45:31  5-MIN KAOH 201945Z AUTO 25025G34KT 10SM CLR 19/01 A2983 1060 29 1900 250/25G34 RMK AO2 PK WND 25035/1930 T01940011 $
04850KAOH AOH20160220145014202/20/16 14:50:31  5-MIN KAOH 201950Z AUTO 25025G33KT 10SM CLR 19/02 A2983 1060 30 1900 260/25G33 RMK AO2 PK WND 25035/1930 SLP100 T01940017 $
04850KAOH AOH20160220145513502/20/16 14:55:31  5-MIN KAOH 201955Z AUTO 25025G33KT 10SM CLR 19/02 A2983 1060 31 1900 260/25G33 RMK AO2 PK WND 24031/1955 T01940022 $
04850KAOH AOH20160220150013502/20/16 15:00:31  5-MIN KAOH 202000Z AUTO 25024G31KT 10SM CLR 19/02 A2983 1060 30 1900 250/24G31 RMK AO2 PK WND 24031/1955 T01940017 $
04850KAOH AOH20160220150513502/20/16 15:05:31  5-MIN KAOH 202005Z AUTO 24022G29KT 10SM CLR 19/02 A2983 1060 31 1900 250/22G29 RMK AO2 PK WND 24031/1955 T01940022 $
04850KAOH AOH20160220151013502/20/16 15:10:31  5-MIN KAOH 202010Z AUTO 25016G29KT 10SM CLR 20/03 A2983 1060 31 1900 250/16G29 RMK AO2 PK WND 24031/1955 T02000028 $
04850KAOH AOH20160220151513502/20/16 15:15:31  5-MIN KAOH 202015Z AUTO 25025G32KT 10SM CLR 19/01 A2983 1060 29 1900 260/25G32 RMK AO2 PK WND 25032/2014 T01940011 $
04850KAOH AOH20160220152013502/20/16 15:20:31  5-MIN KAOH 202020Z AUTO 25021G32KT 10SM CLR 19/02 A2983 1060 30 1900 250/21G32 RMK AO2 PK WND 25032/2014 T01940017 $
04850KAOH AOH20160220152513502/20/16 15:25:31  5-MIN KAOH 202025Z AUTO 25020G30KT 10SM CLR 19/01 A2983 1060 29 1900 250/20G30 RMK AO2 PK WND 25032/2014 T01940011 $
04850KAOH AOH20160220153013502/20/16 15:30:31  5-MIN KAOH 202030Z AUTO 26025G34KT 10SM CLR 19/02 A2984 1060 30 1900 270/25G34 RMK AO2 PK WND 26034/2028 T01940017 $
04850KAOH AOH20160220153513502/20/16 15:35:31  5-MIN KAOH 202035Z AUTO 26023G34KT 10SM CLR 19/01 A2984 1050 29 1900 260/23G34 RMK AO2 PK WND 26034/2028 T01940011 $
04850KAOH AOH20160220154013502/20/16 15:40:31  5-MIN KAOH 202040Z AUTO 26020G33KT 10SM CLR 19/02 A2984 1050 30 1900 260/20G33 RMK AO2 PK WND 26034/2028 T01940017 $
04850KAOH AOH20160220154513502/20/16 15:45:31  5-MIN KAOH 202045Z AUTO 27020G31KT 10SM CLR 19/02 A2984 1050 31 1800 270/20G31 RMK AO2 PK WND 26034/2028 T01940022 $
04850KAOH AOH20160220155014802/20/16 15:50:31  5-MIN KAOH 202050Z AUTO 25017G29KT 10SM CLR 19/02 A2985 1050 31 1800 260/17G29 RMK AO2 PK WND 26034/2028 SLP106 T01940022 58021 $
04850KAOH AOH20160220155513502/20/16 15:55:31  5-MIN KAOH 202055Z AUTO 26022G26KT 10SM CLR 19/02 A2984 1050 31 1800 260/22G26 RMK AO2 PK WND 26026/2055 T01940022 $
04850KAOH AOH20160220160013502/20/16 16:00:31  5-MIN KAOH 202100Z AUTO 26024G32KT 10SM CLR 19/02 A2985 1050 31 1800 270/24G32 RMK AO2 PK WND 25032/2058 T01890017 $
04850KAOH AOH20160220160513502/20/16 16:05:31  5-MIN KAOH 202105Z AUTO 27023G32KT 10SM CLR 19/01 A2985 1050 30 1800 270/23G32 RMK AO2 PK WND 25032/2058 T01890011 $
04850KAOH AOH20160220161013502/20/16 16:10:31  5-MIN KAOH 202110Z AUTO 26021G29KT 10SM CLR 19/02 A2985 1050 31 1800 270/21G29 RMK AO2 PK WND 25032/2058 T01890017 $
04850KAOH AOH20160220161513502/20/16 16:15:31  5-MIN KAOH 202115Z AUTO 26020G28KT 10SM CLR 19/01 A2985 1040 30 1800 260/20G28 RMK AO2 PK WND 25032/2058 T01890011 $
04850KAOH AOH20160220162013502/20/16 16:20:31  5-MIN KAOH 202120Z AUTO 27020G28KT 10SM CLR 19/01 A2985 1050 30 1800 280/20G28 RMK AO2 PK WND 25032/2058 T01890011 $
04850KAOH AOH20160220162513502/20/16 16:25:31  5-MIN KAOH 202125Z AUTO 27019G28KT 10SM CLR 19/01 A2985 1040 30 1800 270/19G28 RMK AO2 PK WND 25032/2058 T01890011 $
04850KAOH AOH20160220163013502/20/16 16:30:31  5-MIN KAOH 202130Z AUTO 26019G26KT 10SM CLR 19/02 A2985 1050 31 1800 270/19G26 RMK AO2 PK WND 25032/2058 T01890017 $
04850KAOH AOH20160220163513502/20/16 16:35:31  5-MIN KAOH 202135Z AUTO 26018G26KT 10SM CLR 18/01 A2985 1040 31 1700 260/18G26 RMK AO2 PK WND 25032/2058 T01830011 $
04850KAOH AOH20160220164012902/20/16 16:40:31  5-MIN KAOH 202140Z AUTO 26018KT 10SM CLR 18/01 A2985 1040 31 1700 270/18 RMK AO2 PK WND 25032/2058 T01830011 $
04850KAOH AOH20160220164512902/20/16 16:45:31  5-MIN KAOH 202145Z AUTO 26018KT 10SM CLR 18/01 A2985 1040 31 1700 260/18 RMK AO2 PK WND 25032/2058 T01830011 $
04850KAOH AOH20160220165013602/20/16 16:50:31  5-MIN KAOH 202150Z AUTO 26017KT 10SM CLR 18/01 A2985 1040 31 1700 260/17 RMK AO2 PK WND 25032/2058 SLP108 T01830011 $
04850KAOH AOH20160220165511702/20/16 16:55:31  5-MIN KAOH 202155Z AUTO 26018G25KT 10SM CLR 18/01 A2985 1040 30 1700 270/18G25 RMK AO2 T01830006 $
04850KAOH AOH20160220170011702/20/16 17:00:31  5-MIN KAOH 202200Z AUTO 26019G25KT 10SM CLR 18/01 A2985 1040 30 1700 270/19G25 RMK AO2 T01830006 $
04850KAOH AOH20160220170513502/20/16 17:05:31  5-MIN KAOH 202205Z AUTO 26020G26KT 10SM CLR 18/01 A2986 1040 31 1600 270/20G26 RMK AO2 PK WND 25026/2205 T01780006 $
04850KAOH AOH20160220171013502/20/16 17:10:31  5-MIN KAOH 202210Z AUTO 27017G26KT 10SM CLR 18/01 A2986 1040 31 1600 270/17G26 RMK AO2 PK WND 25026/2205 T01780006 $
04850KAOH AOH20160220171513502/20/16 17:15:31  5-MIN KAOH 202215Z AUTO 26015G25KT 10SM CLR 18/01 A2986 1040 31 1600 270/15G25 RMK AO2 PK WND 25026/2205 T01780006 $
04850KAOH AOH20160220172012902/20/16 17:20:31  5-MIN KAOH 202220Z AUTO 26012KT 10SM CLR 17/01 A2986 1030 33 1600 270/12 RMK AO2 PK WND 25026/2205 T01720011 $
04850KAOH AOH20160220172512902/20/16 17:25:31  5-MIN KAOH 202225Z AUTO 25012KT 10SM CLR 17/01 A2986 1040 33 1600 260/12 RMK AO2 PK WND 25026/2205 T01720011 $
04850KAOH AOH20160220173012902/20/16 17:30:31  5-MIN KAOH 202230Z AUTO 25014KT 10SM CLR 17/01 A2986 1030 33 1600 260/14 RMK AO2 PK WND 25026/2205 T01720011 $
04850KAOH AOH20160220173512902/20/16 17:35:31  5-MIN KAOH 202235Z AUTO 26015KT 10SM CLR 17/01 A2987 1030 33 1600 260/15 RMK AO2 PK WND 25026/2205 T01720011 $
04850KAOH AOH20160220174012902/20/16 17:40:31  5-MIN KAOH 202240Z AUTO 26017KT 10SM CLR 17/01 A2987 1030 33 1600 260/17 RMK AO2 PK WND 25026/2205 T01720011 $
04850KAOH AOH20160220174512902/20/16 17:45:31  5-MIN KAOH 202245Z AUTO 26015KT 10SM CLR 17/01 A2987 1020 34 1500 270/15 RMK AO2 PK WND 25026/2205 T01670011 $
04850KAOH AOH20160220175013602/20/16 17:50:31  5-MIN KAOH 202250Z AUTO 26014KT 10SM CLR 16/01 A2987 1020 36 1400 260/14 RMK AO2 PK WND 25026/2205 SLP115 T01610011 $
04850KAOH AOH20160220175511102/20/16 17:55:31  5-MIN KAOH 202255Z AUTO 26012KT 10SM CLR 16/01 A2987 1020 37 1400 270/12 RMK AO2 T01560011 $
04850KAOH AOH20160220180011102/20/16 18:00:31  5-MIN KAOH 202300Z AUTO 25010KT 10SM CLR 15/01 A2987 1020 38 1300 260/10 RMK AO2 T01500011 $
04850KAOH AOH20160220180511102/20/16 18:05:31  5-MIN KAOH 202305Z AUTO 25010KT 10SM CLR 16/01 A2987 1020 36 1400 260/10 RMK AO2 T01560006 $
04850KAOH AOH20160220181011102/20/16 18:10:31  5-MIN KAOH 202310Z AUTO 26010KT 10SM CLR 14/01 A2987 1020 40 1200 260/10 RMK AO2 T01440011 $
04850KAOH AOH20160220181511102/20/16 18:15:31  5-MIN KAOH 202315Z AUTO 25009KT 10SM CLR 14/01 A2988 1020 40 1200 260/09 RMK AO2 T01440011 $
04850KAOH AOH20160220182011102/20/16 18:20:31  5-MIN KAOH 202320Z AUTO 24009KT 10SM CLR 14/01 A2988 1020 38 1200 250/09 RMK AO2 T01440006 $
04850KAOH AOH20160220182511102/20/16 18:25:31  5-MIN KAOH 202325Z AUTO 24009KT 10SM CLR 15/01 A2988 1010 37 1300 250/09 RMK AO2 T01500006 $
04850KAOH AOH20160220183011102/20/16 18:30:31  5-MIN KAOH 202330Z AUTO 24009KT 10SM CLR 14/01 A2989 1010 38 1200 250/09 RMK AO2 T01440006 $
04850KAOH AOH20160220183511102/20/16 18:35:31  5-MIN KAOH 202335Z AUTO 25008KT 10SM CLR 14/01 A2989 1010 38 1200 250/08 RMK AO2 T01440006 $
04850KAOH AOH20160220184011102/20/16 18:40:31  5-MIN KAOH 202340Z AUTO 25008KT 10SM CLR 13/01 A2989 1000 41 1100 250/08 RMK AO2 T01330006 $
04850KAOH AOH20160220184511102/20/16 18:45:31  5-MIN KAOH 202345Z AUTO 25008KT 10SM CLR 13/01 A2990 1000 41 1100 260/08 RMK AO2 T01330006 $
04850KAOH AOH20160220185013602/20/16 18:50:31  5-MIN KAOH 202350Z AUTO 25008KT 10SM CLR 13/01 A2990 1000 41 1100 250/08 RMK AO2 SLP127 T01330006 10200 20133 55004 $
04850KAOH AOH20160220185511102/20/16 18:55:31  5-MIN KAOH 202355Z AUTO 25007KT 10SM CLR 13/01 A2990 1000 43 1000 250/07 RMK AO2 T01280006 $
04850KAOH AOH20160220190011002/20/16 19:00:31  5-MIN KAOH 210000Z AUTO 24007KT 10SM CLR 13/01 A2990 990 43 1000 250/07 RMK AO2 T01280006 $
04850KAOH AOH20160220190511002/20/16 19:05:31  5-MIN KAOH 210005Z AUTO 25007KT 10SM CLR 13/01 A2990 990 41 1100 250/07 RMK AO2 T01330006 $
04850KAOH AOH20160220191011002/20/16 19:10:31  5-MIN KAOH 210010Z AUTO 24007KT 10SM CLR 13/01 A2991 990 41 1100 250/07 RMK AO2 T01330006 $
04850KAOH AOH20160220191511002/20/16 19:15:31  5-MIN KAOH 210015Z AUTO 24007KT 10SM CLR 13/01 A2991 990 43 1000 250/07 RMK AO2 T01280006 $
04850KAOH AOH20160220192011002/20/16 19:20:31  5-MIN KAOH 210020Z AUTO 24007KT 10SM CLR 13/01 A2991 990 43 1000 250/07 RMK AO2 T01280006 $
04850KAOH AOH20160220192511002/20/16 19:25:31  5-MIN KAOH 210025Z AUTO 25008KT 10SM CLR 13/01 A2991 990 43 1000 260/08 RMK AO2 T01280006 $
04850KAOH AOH20160220193010902/20/16 19:30:31  5-MIN KAOH 210030Z AUTO 25008KT 10SM CLR 12/01 A2991 990 46 900 260/08 RMK AO2 T01170006 $
04850KAOH AOH20160220193510902/20/16 19:35:31  5-MIN KAOH 210035Z AUTO 25008KT 10SM CLR 11/01 A2991 990 48 800 260/08 RMK AO2 T01110006 $
04850KAOH AOH20160220194010902/20/16 19:40:31  5-MIN KAOH 210040Z AUTO 25008KT 10SM CLR 11/01 A2992 980 48 800 260/08 RMK AO2 T01110006 $
04850KAOH AOH20160220194510902/20/16 19:45:31  5-MIN KAOH 210045Z AUTO 25008KT 10SM CLR 11/01 A2992 980 48 800 260/08 RMK AO2 T01110006 $
04850KAOH AOH20160220195011602/20/16 19:50:31  5-MIN KAOH 210050Z AUTO 25008KT 10SM CLR 11/01 A2992 980 48 800 260/08 RMK AO2 SLP133 T01110006 $
04850KAOH AOH20160220195510902/20/16 19:55:31  5-MIN KAOH 210055Z AUTO 25007KT 10SM CLR 11/01 A2992 980 48 800 250/07 RMK AO2 T01110006 $
04850KAOH AOH20160220200010902/20/16 20:00:31  5-MIN KAOH 210100Z AUTO 24008KT 10SM CLR 12/01 A2992 980 44 900 250/08 RMK AO2 T01220006 $
04850KAOH AOH20160220200510902/20/16 20:05:31  5-MIN KAOH 210105Z AUTO 25007KT 10SM CLR 12/00 A2992 980 43 900 250/07 RMK AO2 T01220000 $
04850KAOH AOH20160220201010902/20/16 20:10:31  5-MIN KAOH 210110Z AUTO 25007KT 10SM CLR 12/00 A2992 980 43 900 250/07 RMK AO2 T01220000 $
04850KAOH AOH20160220201510902/20/16 20:15:31  5-MIN KAOH 210115Z AUTO 25007KT 10SM CLR 12/00 A2992 980 44 800 260/07 RMK AO2 T01170000 $
04850KAOH AOH20160220202010902/20/16 20:20:31  5-MIN KAOH 210120Z AUTO 25007KT 10SM CLR 10/00 A2992 980 49 600 260/07 RMK AO2 T01000000 $
04850KAOH AOH20160220202510902/20/16 20:25:31  5-MIN KAOH 210125Z AUTO 26007KT 10SM CLR 10/00 A2992 970 49 600 260/07 RMK AO2 T01000000 $
04850KAOH AOH20160220203010902/20/16 20:30:31  5-MIN KAOH 210130Z AUTO 26007KT 10SM CLR 10/00 A2993 970 49 600 260/07 RMK AO2 T01000000 $
04850KAOH AOH20160220203510902/20/16 20:35:31  5-MIN KAOH 210135Z AUTO 25007KT 10SM CLR 10/00 A2993 970 49 600 260/07 RMK AO2 T01000000 $
04850KAOH AOH20160220204010902/20/16 20:40:31  5-MIN KAOH 210140Z AUTO 25008KT 10SM CLR 10/00 A2993 970 49 600 260/08 RMK AO2 T01000000 $
04850KAOH AOH20160220204510902/20/16 20:45:31  5-MIN KAOH 210145Z AUTO 26008KT 10SM CLR 10/00 A2993 970 49 600 260/08 RMK AO2 T01000000 $
04850KAOH AOH20160220205011602/20/16 20:50:31  5-MIN KAOH 210150Z AUTO 26008KT 10SM CLR 10/00 A2993 970 49 600 270/08 RMK AO2 SLP139 T01000000 $
04850KAOH AOH20160220205510902/20/16 20:55:31  5-MIN KAOH 210155Z AUTO 26008KT 10SM CLR 10/01 A2993 970 52 600 260/08 RMK AO2 T01000006 $
04850KAOH AOH20160220210010902/20/16 21:00:31  5-MIN KAOH 210200Z AUTO 26008KT 10SM CLR 10/01 A2993 970 52 600 260/08 RMK AO2 T01000006 $
04850KAOH AOH20160220210510902/20/16 21:05:31  5-MIN KAOH 210205Z AUTO 26008KT 10SM CLR 10/01 A2993 960 52 600 270/08 RMK AO2 T01000006 $
04850KAOH AOH20160220211010902/20/16 21:10:31  5-MIN KAOH 210210Z AUTO 26009KT 10SM CLR 10/01 A2993 960 52 600 270/09 RMK AO2 T01000006 $
04850KAOH AOH20160220211510902/20/16 21:15:31  5-MIN KAOH 210215Z AUTO 27009KT 10SM CLR 09/01 A2994 960 53 600 270/09 RMK AO2 T00940006 $
04850KAOH AOH20160220212010902/20/16 21:20:31  5-MIN KAOH 210220Z AUTO 25008KT 10SM CLR 09/01 A2994 960 53 600 260/08 RMK AO2 T00940006 $
04850KAOH AOH20160220212510902/20/16 21:25:31  5-MIN KAOH 210225Z AUTO 25007KT 10SM CLR 09/01 A2994 960 56 500 250/07 RMK AO2 T00890006 $
04850KAOH AOH20160220213010902/20/16 21:30:31  5-MIN KAOH 210230Z AUTO 25007KT 10SM CLR 11/01 A2994 960 50 700 260/07 RMK AO2 T01060006 $
04850KAOH AOH20160220213510902/20/16 21:35:31  5-MIN KAOH 210235Z AUTO 24007KT 10SM CLR 11/01 A2994 960 48 800 250/07 RMK AO2 T01110006 $
04850KAOH AOH20160220214010902/20/16 21:40:31  5-MIN KAOH 210240Z AUTO 25007KT 10SM CLR 11/01 A2994 960 50 700 250/07 RMK AO2 T01060006 $
04850KAOH AOH20160220214510902/20/16 21:45:31  5-MIN KAOH 210245Z AUTO 24007KT 10SM CLR 11/01 A2994 960 48 800 250/07 RMK AO2 T01110006 $
04850KAOH AOH20160220215012202/20/16 21:50:31  5-MIN KAOH 210250Z AUTO 24007KT 10SM CLR 11/01 A2994 960 50 700 250/07 RMK AO2 SLP139 T01060006 53019 $
04850KAOH AOH20160220215510902/20/16 21:55:31  5-MIN KAOH 210255Z AUTO 24008KT 10SM CLR 10/01 A2994 960 52 600 250/08 RMK AO2 T01000006 $
04850KAOH AOH20160220220010902/20/16 22:00:31  5-MIN KAOH 210300Z AUTO 25007KT 10SM CLR 10/01 A2994 960 52 600 250/07 RMK AO2 T01000006 $
04850KAOH AOH20160220220510902/20/16 22:05:31  5-MIN KAOH 210305Z AUTO 26006KT 10SM CLR 08/01 A2994 960 58 400 260/06 RMK AO2 T00830006 $
04850KAOH AOH20160220221010902/20/16 22:10:31  5-MIN KAOH 210310Z AUTO 26006KT 10SM CLR 09/01 A2994 960 56 500 260/06 RMK AO2 T00890006 $
04850KAOH AOH20160220221510902/20/16 22:15:31  5-MIN KAOH 210315Z AUTO 25006KT 10SM CLR 09/01 A2994 960 53 600 260/06 RMK AO2 T00940006 $
04850KAOH AOH20160220222010902/20/16 22:20:31  5-MIN KAOH 210320Z AUTO 26006KT 10SM CLR 10/01 A2994 960 52 600 260/06 RMK AO2 T01000006 $
04850KAOH AOH20160220222510902/20/16 22:25:31  5-MIN KAOH 210325Z AUTO 25006KT 10SM CLR 10/01 A2994 960 52 600 260/06 RMK AO2 T01000006 $
04850KAOH AOH20160220223010902/20/16 22:30:31  5-MIN KAOH 210330Z AUTO 24006KT 10SM CLR 09/01 A2995 950 53 600 250/06 RMK AO2 T00940006 $
04850KAOH AOH20160220223510902/20/16 22:35:31  5-MIN KAOH 210335Z AUTO 24006KT 10SM CLR 10/01 A2995 950 52 600 250/06 RMK AO2 T01000006 $
04850KAOH AOH20160220224010902/20/16 22:40:31  5-MIN KAOH 210340Z AUTO 26007KT 10SM CLR 10/01 A2995 950 52 600 270/07 RMK AO2 T01000006 $
04850KAOH AOH20160220224510902/20/16 22:45:31  5-MIN KAOH 210345Z AUTO 27007KT 10SM CLR 08/01 A2995 950 58 400 270/07 RMK AO2 T00830006 $
04850KAOH AOH20160220225011602/20/16 22:50:31  5-MIN KAOH 210350Z AUTO 27006KT 10SM CLR 09/01 A2995 950 53 500 280/06 RMK AO2 SLP142 T00940006 $
04850KAOH AOH20160220225510902/20/16 22:55:31  5-MIN KAOH 210355Z AUTO 26007KT 10SM CLR 09/01 A2995 950 56 500 270/07 RMK AO2 T00890006 $
04850KAOH AOH20160220230010902/20/16 23:00:31  5-MIN KAOH 210400Z AUTO 26006KT 10SM CLR 09/01 A2995 950 56 500 270/06 RMK AO2 T00890006 $
04850KAOH AOH20160220230510902/20/16 23:05:31  5-MIN KAOH 210405Z AUTO 27006KT 10SM CLR 09/01 A2995 950 53 500 270/06 RMK AO2 T00940006 $
04850KAOH AOH20160220231010902/20/16 23:10:31  5-MIN KAOH 210410Z AUTO 26006KT 10SM CLR 09/01 A2996 940 56 500 270/06 RMK AO2 T00890006 $
04850KAOH AOH20160220231510902/20/16 23:15:31  5-MIN KAOH 210415Z AUTO 28005KT 10SM CLR 08/01 A2995 950 58 400 280/05 RMK AO2 T00830006 $
04850KAOH AOH20160220232010902/20/16 23:20:31  5-MIN KAOH 210420Z AUTO 27005KT 10SM CLR 07/01 A2996 940 62 300 280/05 RMK AO2 T00720006 $
04850KAOH AOH20160220232510902/20/16 23:25:31  5-MIN KAOH 210425Z AUTO 27005KT 10SM CLR 08/01 A2996 940 60 300 270/05 RMK AO2 T00780006 $
04850KAOH AOH20160220233010902/20/16 23:30:31  5-MIN KAOH 210430Z AUTO 26005KT 10SM CLR 08/01 A2995 950 60 300 270/05 RMK AO2 T00780006 $
04850KAOH AOH20160220233510902/20/16 23:35:31  5-MIN KAOH 210435Z AUTO 27004KT 10SM CLR 07/01 A2995 950 62 300 270/04 RMK AO2 T00720006 $
04850KAOH AOH20160220234010902/20/16 23:40:31  5-MIN KAOH 210440Z AUTO 27004KT 10SM CLR 08/01 A2996 940 60 300 280/04 RMK AO2 T00780006 $
04850KAOH AOH20160220234510902/20/16 23:45:31  5-MIN KAOH 210445Z AUTO 29005KT 10SM CLR 08/01 A2995 950 60 300 300/05 RMK AO2 T00780006 $
04850KAOH AOH20160220235012602/20/16 23:50:31  5-MIN KAOH 210450Z AUTO 30006KT 10SM CLR 08/01 A2996 940 60 300 300/06 RMK AO2 SLP144 T00780006 402000061 $
04850KAOH AOH20160220235510902/20/16 23:55:31  5-MIN KAOH 210455Z AUTO 30006KT 10SM CLR 07/01 A2996 940 62 300 300/06 RMK AO2 T00720006 $
04850KAOH AOH20160221000010902/21/16 00:00:31  5-MIN KAOH 210500Z AUTO 29005KT 10SM CLR 08/01 A2996 940 60 300 300/05 RMK AO2 T00780006 $
04850KAOH AOH20160221000510902/21/16 00:05:31  5-MIN KAOH 210505Z AUTO 29005KT 10SM CLR 07/01 A2996 940 62 300 300/05 RMK AO2 T00720006 $
04850KAOH AOH20160221001010902/21/16 00:10:31  5-MIN KAOH 210510Z AUTO 30005KT 10SM CLR 07/01 A2996 940 65 200 300/05 RMK AO2 T00670006 $
04850KAOH AOH20160221001510902/21/16 00:15:31  5-MIN KAOH 210515Z AUTO 30005KT 10SM CLR 07/01 A2996 940 62 300 310/05 RMK AO2 T00720006 $
04850KAOH AOH20160221002010902/21/16 00:20:31  5-MIN KAOH 210520Z AUTO 32006KT 10SM CLR 07/01 A2996 940 62 300 330/06 RMK AO2 T00720006 $
04850KAOH AOH20160221002510902/21/16 00:25:31  5-MIN KAOH 210525Z AUTO 34006KT 10SM CLR 07/01 A2996 940 62 300 340/06 RMK AO2 T00720006 $
04850KAOH AOH20160221003010902/21/16 00:30:31  5-MIN KAOH 210530Z AUTO 34005KT 10SM CLR 06/01 A2996 940 67 100 350/05 RMK AO2 T00610006 $
04850KAOH AOH20160221003510902/21/16 00:35:31  5-MIN KAOH 210535Z AUTO 35006KT 10SM CLR 06/01 A2996 940 67 100 350/06 RMK AO2 T00610006 $
04850KAOH AOH20160221004010902/21/16 00:40:31  5-MIN KAOH 210540Z AUTO 34005KT 10SM CLR 06/01 A2996 940 67 100 340/05 RMK AO2 T00610006 $
04850KAOH AOH20160221004510902/21/16 00:45:31  5-MIN KAOH 210545Z AUTO 35006KT 10SM CLR 07/01 A2995 950 65 300 350/06 RMK AO2 T00720011 $
04850KAOH AOH20160221005013402/21/16 00:50:31  5-MIN KAOH 210550Z AUTO 34006KT 10SM CLR 07/01 A2995 950 65 300 340/06 RMK AO2 SLP142 T00720011 10133 20061 51014 $
04850KAOH AOH20160221005510902/21/16 00:55:31  5-MIN KAOH 210555Z AUTO 36009KT 10SM CLR 07/01 A2995 950 65 300 010/09 RMK AO2 T00720011 $
04850KAOH AOH20160221010010902/21/16 01:00:31  5-MIN KAOH 210600Z AUTO 35007KT 10SM CLR 07/01 A2995 950 67 200 360/07 RMK AO2 T00670011 $
04850KAOH AOH20160221010510902/21/16 01:05:31  5-MIN KAOH 210605Z AUTO 35007KT 10SM CLR 07/01 A2994 960 65 300 360/07 RMK AO2 T00720011 $
04850KAOH AOH20160221011010902/21/16 01:10:31  5-MIN KAOH 210610Z AUTO 35007KT 10SM CLR 07/01 A2995 950 67 200 360/07 RMK AO2 T00670011 $
04850KAOH AOH20160221011510902/21/16 01:15:31  5-MIN KAOH 210615Z AUTO 35007KT 10SM CLR 07/01 A2995 950 65 200 350/07 RMK AO2 T00670006 $
04850KAOH AOH20160221012010902/21/16 01:20:31  5-MIN KAOH 210620Z AUTO 35008KT 10SM CLR 07/01 A2995 950 65 200 360/08 RMK AO2 T00670006 $
04850KAOH AOH20160221012510902/21/16 01:25:31  5-MIN KAOH 210625Z AUTO 36008KT 10SM CLR 07/00 A2995 950 62 200 360/08 RMK AO2 T00670000 $
04850KAOH AOH20160221013010902/21/16 01:30:31  5-MIN KAOH 210630Z AUTO 36007KT 10SM CLR 07/00 A2994 960 62 200 360/07 RMK AO2 T00670000 $
04850KAOH AOH20160221013510902/21/16 01:35:31  5-MIN KAOH 210635Z AUTO 36007KT 10SM CLR 06/00 A2995 950 65 200 010/07 RMK AO2 T00610000 $
04850KAOH AOH20160221014010902/21/16 01:40:31  5-MIN KAOH 210640Z AUTO 36006KT 10SM CLR 06/00 A2995 950 65 100 010/06 RMK AO2 T00610000 $
04850KAOH AOH20160221014510902/21/16 01:45:31  5-MIN KAOH 210645Z AUTO 01005KT 10SM CLR 06/00 A2995 950 65 100 020/05 RMK AO2 T00610000 $
04850KAOH AOH20160221015011602/21/16 01:50:31  5-MIN KAOH 210650Z AUTO 01006KT 10SM CLR 06/00 A2995 950 65 200 020/06 RMK AO2 SLP140 T00610000 $
04850KAOH AOH20160221015510902/21/16 01:55:31  5-MIN KAOH 210655Z AUTO 02007KT 10SM CLR 06/00 A2995 950 67 100 020/07 RMK AO2 T00560000 $
04850KAOH AOH20160221020010902/21/16 02:00:31  5-MIN KAOH 210700Z AUTO 02006KT 10SM CLR 06/00 A2995 950 67 100 020/06 RMK AO2 T00560000 $
04850KAOH AOH20160221020510702/21/16 02:05:31  5-MIN KAOH 210705Z AUTO 01007KT 10SM CLR 05/00 A2995 950 70 0 020/07 RMK AO2 T00500000 $
04850KAOH AOH20160221021010702/21/16 02:10:31  5-MIN KAOH 210710Z AUTO 01006KT 10SM CLR 05/00 A2995 950 70 0 010/06 RMK AO2 T00500000 $
04850KAOH AOH20160221021510802/21/16 02:15:31  5-MIN KAOH 210715Z AUTO 36005KT 10SM CLR 05/M01 A2995 950 67 0 010/05 RMK AO2 T00501006 $
04850KAOH AOH20160221022010802/21/16 02:20:31  5-MIN KAOH 210720Z AUTO 36006KT 10SM CLR 05/M01 A2995 950 67 0 010/06 RMK AO2 T00501006 $
04850KAOH AOH20160221022510802/21/16 02:25:31  5-MIN KAOH 210725Z AUTO 36006KT 10SM CLR 05/M01 A2995 950 67 0 010/06 RMK AO2 T00501006 $
04850KAOH AOH20160221023010802/21/16 02:30:31  5-MIN KAOH 210730Z AUTO 36004KT 10SM CLR 05/M01 A2996 940 67 0 360/04 RMK AO2 T00501006 $
04850KAOH AOH20160221023510802/21/16 02:35:31  5-MIN KAOH 210735Z AUTO 35003KT 10SM CLR 04/M01 A2996 940 70 0 360/03 RMK AO2 T00441006 $
04850KAOH AOH20160221024010802/21/16 02:40:31  5-MIN KAOH 210740Z AUTO 35005KT 10SM CLR 05/M01 A2996 940 67 0 360/05 RMK AO2 T00501006 $
04850KAOH AOH20160221024510802/21/16 02:45:31  5-MIN KAOH 210745Z AUTO 35005KT 10SM CLR 05/M01 A2996 940 67 0 360/05 RMK AO2 T00501006 $
04850KAOH AOH20160221025011502/21/16 02:50:31  5-MIN KAOH 210750Z AUTO 35005KT 10SM CLR 04/M01 A2996 940 70 0 360/05 RMK AO2 SLP146 T00441006 $
04850KAOH AOH20160221025510802/21/16 02:55:31  5-MIN KAOH 210755Z AUTO 35006KT 10SM CLR 04/M01 A2996 940 70 0 360/06 RMK AO2 T00441006 $
04850KAOH AOH20160221030011102/21/16 03:00:31  5-MIN KAOH 210800Z AUTO 35006KT 10SM CLR 04/M01 A2996 940 73 -100 360/06 RMK AO2 T00391006 $
04850KAOH AOH20160221030511102/21/16 03:05:31  5-MIN KAOH 210805Z AUTO 35004KT 10SM CLR 04/M01 A2995 950 73 -100 360/04 RMK AO2 T00391006 $
04850KAOH AOH20160221031010802/21/16 03:10:31  5-MIN KAOH 210810Z AUTO 36004KT 10SM CLR 04/M01 A2995 950 70 0 360/04 RMK AO2 T00441006 $
04850KAOH AOH20160221031510802/21/16 03:15:31  5-MIN KAOH 210815Z AUTO 36005KT 10SM CLR 04/M01 A2995 950 70 0 010/05 RMK AO2 T00441006 $
04850KAOH AOH20160221032011102/21/16 03:20:31  5-MIN KAOH 210820Z AUTO 36006KT 10SM CLR 04/M01 A2995 950 73 -100 010/06 RMK AO2 T00391006 $
04850KAOH AOH20160221032511102/21/16 03:25:31  5-MIN KAOH 210825Z AUTO 36006KT 10SM CLR 04/M01 A2995 950 73 -100 010/06 RMK AO2 T00391006 $
04850KAOH AOH20160221033011102/21/16 03:30:31  5-MIN KAOH 210830Z AUTO 36007KT 10SM CLR 04/M01 A2994 960 73 -100 360/07 RMK AO2 T00391006 $
04850KAOH AOH20160221033511102/21/16 03:35:31  5-MIN KAOH 210835Z AUTO 36007KT 10SM CLR 04/M01 A2994 960 73 -100 360/07 RMK AO2 T00391006 $
04850KAOH AOH20160221034011102/21/16 03:40:31  5-MIN KAOH 210840Z AUTO 36007KT 10SM CLR 04/M01 A2994 960 73 -100 010/07 RMK AO2 T00391006 $
04850KAOH AOH20160221034511102/21/16 03:45:31  5-MIN KAOH 210845Z AUTO 36007KT 10SM CLR 04/M01 A2994 960 73 -100 360/07 RMK AO2 T00391006 $
04850KAOH AOH20160221035012402/21/16 03:50:31  5-MIN KAOH 210850Z AUTO 36005KT 10SM CLR 04/M01 A2995 950 73 -100 010/05 RMK AO2 SLP142 T00391006 50002 $
04850KAOH AOH20160221035511102/21/16 03:55:31  5-MIN KAOH 210855Z AUTO 36005KT 10SM CLR 04/M01 A2995 950 73 -100 010/05 RMK AO2 T00391006 $
04850KAOH AOH20160221040011102/21/16 04:00:31  5-MIN KAOH 210900Z AUTO 36004KT 10SM CLR 04/M01 A2995 950 73 -100 360/04 RMK AO2 T00391006 $
04850KAOH AOH20160221040511102/21/16 04:05:31  5-MIN KAOH 210905Z AUTO 36005KT 10SM CLR 04/M01 A2995 950 73 -100 010/05 RMK AO2 T00391006 $
04850KAOH AOH20160221041011102/21/16 04:10:31  5-MIN KAOH 210910Z AUTO 02005KT 10SM CLR 03/M01 A2995 950 76 -100 020/05 RMK AO2 T00331006 $
04850KAOH AOH20160221041511102/21/16 04:15:31  5-MIN KAOH 210915Z AUTO 01006KT 10SM CLR 03/M01 A2995 950 76 -100 020/06 RMK AO2 T00331006 $
04850KAOH AOH20160221042011102/21/16 04:20:31  5-MIN KAOH 210920Z AUTO 01007KT 10SM CLR 03/M01 A2995 950 76 -100 020/07 RMK AO2 T00331006 $
04850KAOH AOH20160221042511102/21/16 04:25:31  5-MIN KAOH 210925Z AUTO 01007KT 10SM CLR 03/M01 A2994 960 76 -100 020/07 RMK AO2 T00331006 $
04850KAOH AOH20160221043011102/21/16 04:30:31  5-MIN KAOH 210930Z AUTO 01007KT 10SM CLR 03/M01 A2994 960 76 -100 020/07 RMK AO2 T00331006 $
04850KAOH AOH20160221043511102/21/16 04:35:31  5-MIN KAOH 210935Z AUTO 01006KT 10SM CLR 03/M01 A2995 950 76 -100 020/06 RMK AO2 T00331006 $
04850KAOH AOH20160221044011102/21/16 04:40:31  5-MIN KAOH 210940Z AUTO 36006KT 10SM CLR 03/M01 A2995 950 76 -200 010/06 RMK AO2 T00331006 $
04850KAOH AOH20160221044511102/21/16 04:45:31  5-MIN KAOH 210945Z AUTO 01006KT 10SM CLR 03/M01 A2996 940 76 -200 020/06 RMK AO2 T00331006 $
04850KAOH AOH20160221045011802/21/16 04:50:31  5-MIN KAOH 210950Z AUTO 01006KT 10SM CLR 03/M01 A2996 940 76 -200 020/06 RMK AO2 SLP146 T00331006 $
04850KAOH AOH20160221045511102/21/16 04:55:31  5-MIN KAOH 210955Z AUTO 01006KT 10SM CLR 03/M01 A2996 940 76 -200 010/06 RMK AO2 T00331006 $
04850KAOH AOH20160221050011102/21/16 05:00:31  5-MIN KAOH 211000Z AUTO 36006KT 10SM CLR 03/M01 A2996 940 76 -200 010/06 RMK AO2 T00331006 $
04850KAOH AOH20160221050511102/21/16 05:05:31  5-MIN KAOH 211005Z AUTO 36005KT 10SM CLR 03/M01 A2996 940 76 -200 010/05 RMK AO2 T00331006 $
04850KAOH AOH20160221051011102/21/16 05:10:31  5-MIN KAOH 211010Z AUTO 36004KT 10SM CLR 03/M01 A2996 940 79 -200 010/04 RMK AO2 T00281006 $
04850KAOH AOH20160221051511102/21/16 05:15:31  5-MIN KAOH 211015Z AUTO 01004KT 10SM CLR 03/M01 A2996 940 79 -200 010/04 RMK AO2 T00281006 $
04850KAOH AOH20160221052011102/21/16 05:20:31  5-MIN KAOH 211020Z AUTO 01004KT 10SM CLR 03/M01 A2996 940 79 -200 020/04 RMK AO2 T00281006 $
04850KAOH AOH20160221052511102/21/16 05:25:31  5-MIN KAOH 211025Z AUTO 03003KT 10SM CLR 03/M01 A2996 940 79 -200 030/03 RMK AO2 T00281006 $
04850KAOH AOH20160221053011102/21/16 05:30:31  5-MIN KAOH 211030Z AUTO 00000KT 10SM CLR 03/M01 A2997 930 79 -200 000/00 RMK AO2 T00281006 $
04850KAOH AOH20160221053511102/21/16 05:35:31  5-MIN KAOH 211035Z AUTO 00000KT 10SM CLR 03/M01 A2997 930 76 -200 000/00 RMK AO2 T00331006 $
04850KAOH AOH20160221054011102/21/16 05:40:31  5-MIN KAOH 211040Z AUTO 00000KT 10SM CLR 02/M01 A2997 930 78 -300 000/00 RMK AO2 T00221011 $
04850KAOH AOH20160221054511102/21/16 05:45:31  5-MIN KAOH 211045Z AUTO 03003KT 10SM CLR 03/M01 A2997 930 79 -200 040/03 RMK AO2 T00281006 $
04850KAOH AOH20160221055011802/21/16 05:50:31  5-MIN KAOH 211050Z AUTO 00000KT 10SM CLR 02/M01 A2997 940 82 -400 000/00 RMK AO2 SLP150 T00171011 $
04850KAOH AOH20160221055511102/21/16 05:55:31  5-MIN KAOH 211055Z AUTO 00000KT 10SM CLR 02/M01 A2996 940 82 -400 000/00 RMK AO2 T00171011 $
04850KAOH AOH20160221060011102/21/16 06:00:31  5-MIN KAOH 211100Z AUTO 01003KT 10SM CLR 03/M01 A2997 940 79 -200 020/03 RMK AO2 T00281006 $
04850KAOH AOH20160221060511102/21/16 06:05:31  5-MIN KAOH 211105Z AUTO 01004KT 10SM CLR 01/M01 A2997 940 85 -400 010/04 RMK AO2 T00111011 $
04850KAOH AOH20160221061011102/21/16 06:10:31  5-MIN KAOH 211110Z AUTO 01004KT 10SM CLR 01/M02 A2997 940 85 -500 010/04 RMK AO2 T00061017 $
04850KAOH AOH20160221061511102/21/16 06:15:31  5-MIN KAOH 211115Z AUTO 02004KT 10SM CLR 02/M01 A2996 940 82 -400 030/04 RMK AO2 T00171011 $
04850KAOH AOH20160221062011102/21/16 06:20:31  5-MIN KAOH 211120Z AUTO 02004KT 10SM CLR 02/M01 A2997 940 82 -400 030/04 RMK AO2 T00171011 $
04850KAOH AOH20160221062511102/21/16 06:25:31  5-MIN KAOH 211125Z AUTO 02003KT 10SM CLR 02/M01 A2997 930 78 -300 030/03 RMK AO2 T00221011 $
04850KAOH AOH20160221063011102/21/16 06:30:31  5-MIN KAOH 211130Z AUTO 03003KT 10SM CLR 02/M01 A2997 930 78 -300 030/03 RMK AO2 T00221011 $
04850KAOH AOH20160221063511102/21/16 06:35:31  5-MIN KAOH 211135Z AUTO 02003KT 10SM CLR 02/M01 A2997 930 78 -300 030/03 RMK AO2 T00221011 $
04850KAOH AOH20160221064011102/21/16 06:40:31  5-MIN KAOH 211140Z AUTO 01003KT 10SM CLR 02/M01 A2997 930 78 -300 020/03 RMK AO2 T00221011 $
04850KAOH AOH20160221064511102/21/16 06:45:31  5-MIN KAOH 211145Z AUTO 02004KT 10SM CLR 02/M01 A2997 930 82 -400 020/04 RMK AO2 T00171011 $
04850KAOH AOH20160221065013602/21/16 06:50:31  5-MIN KAOH 211150Z AUTO 01005KT 10SM CLR 02/M01 A2997 930 82 -400 020/05 RMK AO2 SLP153 T00171011 10072 20006 50001 $
04850KAOH AOH20160221065511102/21/16 06:55:31  5-MIN KAOH 211155Z AUTO 01004KT 10SM CLR 02/M01 A2997 930 82 -400 020/04 RMK AO2 T00171011 $
04850KAOH AOH20160221070011102/21/16 07:00:31  5-MIN KAOH 211200Z AUTO 36004KT 10SM CLR 02/M01 A2998 930 82 -400 010/04 RMK AO2 T00171011 $
04850KAOH AOH20160221070511102/21/16 07:05:31  5-MIN KAOH 211205Z AUTO 36003KT 10SM CLR 02/M01 A2998 920 82 -400 010/03 RMK AO2 T00171011 $
04850KAOH AOH20160221071011102/21/16 07:10:31  5-MIN KAOH 211210Z AUTO 36003KT 10SM CLR 02/M01 A2998 920 82 -400 010/03 RMK AO2 T00171011 $
04850KAOH AOH20160221071511102/21/16 07:15:31  5-MIN KAOH 211215Z AUTO 01003KT 10SM CLR 02/M01 A2998 920 82 -400 020/03 RMK AO2 T00171011 $
04850KAOH AOH20160221072011102/21/16 07:20:31  5-MIN KAOH 211220Z AUTO 01003KT 10SM CLR 02/M01 A2998 920 82 -400 020/03 RMK AO2 T00171011 $
04850KAOH AOH20160221072511102/21/16 07:25:31  5-MIN KAOH 211225Z AUTO 02003KT 10SM CLR 02/M01 A2998 920 82 -400 020/03 RMK AO2 T00171011 $
04850KAOH AOH20160221073011102/21/16 07:30:31  5-MIN KAOH 211230Z AUTO 02003KT 10SM CLR 02/M01 A2998 920 82 -400 020/03 RMK AO2 T00171011 $
04850KAOH AOH20160221073511102/21/16 07:35:31  5-MIN KAOH 211235Z AUTO 02003KT 10SM CLR 02/M01 A2998 920 78 -300 030/03 RMK AO2 T00221011 $
04850KAOH AOH20160221074011102/21/16 07:40:31  5-MIN KAOH 211240Z AUTO 02003KT 10SM CLR 02/M01 A2998 920 78 -300 020/03 RMK AO2 T00221011 $
04850KAOH AOH20160221074511102/21/16 07:45:31  5-MIN KAOH 211245Z AUTO 02004KT 10SM CLR 02/M01 A2998 920 82 -400 020/04 RMK AO2 T00171011 $
04850KAOH AOH20160221075011802/21/16 07:50:31  5-MIN KAOH 211250Z AUTO 02003KT 10SM CLR 01/M01 A2998 920 85 -500 030/03 RMK AO2 SLP157 T00111011 $
04850KAOH AOH20160221075511102/21/16 07:55:31  5-MIN KAOH 211255Z AUTO 01003KT 10SM CLR 01/M01 A2998 920 85 -500 020/03 RMK AO2 T00111011 $
04850KAOH AOH20160221080011102/21/16 08:00:31  5-MIN KAOH 211300Z AUTO 02004KT 10SM CLR 01/M02 A2998 920 85 -500 020/04 RMK AO2 T00061017 $
04850KAOH AOH20160221080511102/21/16 08:05:31  5-MIN KAOH 211305Z AUTO 01004KT 10SM CLR 01/M01 A2998 920 85 -500 020/04 RMK AO2 T00111011 $
04850KAOH AOH20160221081011102/21/16 08:10:31  5-MIN KAOH 211310Z AUTO 01004KT 10SM CLR 01/M01 A2999 910 85 -500 010/04 RMK AO2 T00111011 $
04850KAOH AOH20160221081511102/21/16 08:15:31  5-MIN KAOH 211315Z AUTO 36005KT 10SM CLR 01/M01 A2999 910 85 -500 360/05 RMK AO2 T00111011 $
04850KAOH AOH20160221082011102/21/16 08:20:31  5-MIN KAOH 211320Z AUTO 35005KT 10SM CLR 01/M01 A3000 910 89 -500 360/05 RMK AO2 T00111006 $
04850KAOH AOH20160221082511102/21/16 08:25:31  5-MIN KAOH 211325Z AUTO 35006KT 10SM CLR 02/M01 A3000 900 82 -300 360/06 RMK AO2 T00221006 $
04850KAOH AOH20160221083011002/21/16 08:30:31  5-MIN KAOH 211330Z AUTO 36005KT 10SM CLR 03/00 A3000 910 82 -300 360/05 RMK AO2 T00280000 $
04850KAOH AOH20160221083511002/21/16 08:35:31  5-MIN KAOH 211335Z AUTO 36005KT 10SM CLR 03/00 A3000 910 82 -300 010/05 RMK AO2 T00280000 $
04850KAOH AOH20160221084011002/21/16 08:40:31  5-MIN KAOH 211340Z AUTO 36006KT 10SM CLR 03/00 A3000 910 82 -300 360/06 RMK AO2 T00280000 $
04850KAOH AOH20160221084511002/21/16 08:45:31  5-MIN KAOH 211345Z AUTO 35007KT 10SM CLR 03/00 A3000 910 79 -200 360/07 RMK AO2 T00330000 $
04850KAOH AOH20160221085011702/21/16 08:50:31  5-MIN KAOH 211350Z AUTO 35008KT 10SM CLR 03/00 A3000 910 79 -200 360/08 RMK AO2 SLP163 T00330000 $
04850KAOH AOH20160221085511002/21/16 08:55:31  5-MIN KAOH 211355Z AUTO 36007KT 10SM CLR 03/00 A3000 910 79 -200 010/07 RMK AO2 T00330000 $
04850KAOH AOH20160221090011002/21/16 09:00:31  5-MIN KAOH 211400Z AUTO 01011KT 10SM CLR 03/00 A3000 900 79 -200 020/11 RMK AO2 T00330000 $
04850KAOH AOH20160221090511002/21/16 09:05:31  5-MIN KAOH 211405Z AUTO 01009KT 10SM CLR 04/00 A3000 900 76 -100 010/09 RMK AO2 T00390000 $
04850KAOH AOH20160221091011002/21/16 09:10:31  5-MIN KAOH 211410Z AUTO 01009KT 10SM CLR 04/00 A3000 900 76 -100 020/09 RMK AO2 T00390000 $
04850KAOH AOH20160221091511002/21/16 09:15:31  5-MIN KAOH 211415Z AUTO 01008KT 10SM CLR 04/00 A3000 900 76 -100 020/08 RMK AO2 T00390000 $
04850KAOH AOH20160221092011002/21/16 09:20:31  5-MIN KAOH 211420Z AUTO 01009KT 10SM CLR 04/01 A3000 900 76 -100 020/09 RMK AO2 T00440006 $
04850KAOH AOH20160221092511002/21/16 09:25:31  5-MIN KAOH 211425Z AUTO 01009KT 10SM CLR 04/00 A3000 910 73 -100 020/09 RMK AO2 T00440000 $
04850KAOH AOH20160221093011002/21/16 09:30:31  5-MIN KAOH 211430Z AUTO 02007KT 10SM CLR 04/01 A3000 910 76 -100 020/07 RMK AO2 T00440006 $
04850KAOH AOH20160221093511002/21/16 09:35:31  5-MIN KAOH 211435Z AUTO 02007KT 10SM CLR 04/01 A3000 900 76 -100 020/07 RMK AO2 T00440006 $
04850KAOH AOH20160221094010702/21/16 09:40:31  5-MIN KAOH 211440Z AUTO 01010KT 10SM CLR 05/01 A3000 900 73 0 020/10 RMK AO2 T00500006 $
04850KAOH AOH20160221094510702/21/16 09:45:31  5-MIN KAOH 211445Z AUTO 03011KT 10SM CLR 05/01 A3000 900 73 0 040/11 RMK AO2 T00500006 $
04850KAOH AOH20160221095012002/21/16 09:50:31  5-MIN KAOH 211450Z AUTO 03011KT 10SM CLR 05/01 A3000 900 73 0 040/11 RMK AO2 SLP163 T00500006 51008 $
04850KAOH AOH20160221095510702/21/16 09:55:31  5-MIN KAOH 211455Z AUTO 03008KT 10SM CLR 05/01 A3000 900 73 0 040/08 RMK AO2 T00500006 $
04850KAOH AOH20160221100010702/21/16 10:00:31  5-MIN KAOH 211500Z AUTO 02010KT 10SM CLR 05/01 A3000 900 73 0 030/10 RMK AO2 T00500006 $
04850KAOH AOH20160221100510702/21/16 10:05:31  5-MIN KAOH 211505Z AUTO 03008KT 10SM CLR 06/01 A3000 900 73 0 040/08 RMK AO2 T00560011 $
04850KAOH AOH20160221101010702/21/16 10:10:31  5-MIN KAOH 211510Z AUTO 02011KT 10SM CLR 06/01 A3001 900 73 0 030/11 RMK AO2 T00560011 $
04850KAOH AOH20160221101510702/21/16 10:15:31  5-MIN KAOH 211515Z AUTO 04010KT 10SM CLR 06/01 A3000 900 70 0 040/10 RMK AO2 T00560006 $
04850KAOH AOH20160221102010902/21/16 10:20:31  5-MIN KAOH 211520Z AUTO 02009KT 10SM CLR 06/01 A3000 900 70 100 030/09 RMK AO2 T00610011 $
04850KAOH AOH20160221102510902/21/16 10:25:31  5-MIN KAOH 211525Z AUTO 03011KT 10SM CLR 06/01 A3000 900 70 100 040/11 RMK AO2 T00610011 $
04850KAOH AOH20160221103010902/21/16 10:30:31  5-MIN KAOH 211530Z AUTO 03012KT 10SM CLR 06/01 A3000 900 70 100 030/12 RMK AO2 T00610011 $
04850KAOH AOH20160221103510902/21/16 10:35:31  5-MIN KAOH 211535Z AUTO 02009KT 10SM CLR 06/01 A3000 900 70 100 030/09 RMK AO2 T00610011 $
04850KAOH AOH20160221104010902/21/16 10:40:31  5-MIN KAOH 211540Z AUTO 02009KT 10SM CLR 06/01 A3000 900 70 100 020/09 RMK AO2 T00610011 $
04850KAOH AOH20160221104510902/21/16 10:45:31  5-MIN KAOH 211545Z AUTO 03008KT 10SM CLR 07/01 A3000 900 67 200 030/08 RMK AO2 T00670011 $
04850KAOH AOH20160221105011602/21/16 10:50:31  5-MIN KAOH 211550Z AUTO 05011KT 10SM CLR 07/02 A3000 900 68 200 060/11 RMK AO2 SLP163 T00720017 $
04850KAOH AOH20160221105510902/21/16 10:55:31  5-MIN KAOH 211555Z AUTO 04010KT 10SM CLR 07/01 A3000 900 65 200 050/10 RMK AO2 T00720011 $
04850KAOH AOH20160221110010902/21/16 11:00:31  5-MIN KAOH 211600Z AUTO 03010KT 10SM CLR 07/02 A3000 900 68 200 040/10 RMK AO2 T00720017 $
04850KAOH AOH20160221110510902/21/16 11:05:31  5-MIN KAOH 211605Z AUTO 02009KT 10SM CLR 07/02 A3000 900 68 200 030/09 RMK AO2 T00720017 $
04850KAOH AOH20160221111010902/21/16 11:10:31  5-MIN KAOH 211610Z AUTO 03009KT 10SM CLR 07/02 A3000 900 68 200 040/09 RMK AO2 T00720017 $
04850KAOH AOH20160221111510902/21/16 11:15:31  5-MIN KAOH 211615Z AUTO 02009KT 10SM CLR 08/02 A3000 910 68 300 030/09 RMK AO2 T00780022 $
04850KAOH AOH20160221112010902/21/16 11:20:31  5-MIN KAOH 211620Z AUTO 04009KT 10SM CLR 08/02 A3000 910 65 300 050/09 RMK AO2 T00780017 $
04850KAOH AOH20160221112510902/21/16 11:25:31  5-MIN KAOH 211625Z AUTO 05009KT 10SM CLR 08/02 A3000 910 65 300 050/09 RMK AO2 T00780017 $
04850KAOH AOH20160221113010902/21/16 11:30:31  5-MIN KAOH 211630Z AUTO 02009KT 10SM CLR 08/02 A3000 910 68 300 030/09 RMK AO2 T00780022 $
04850KAOH AOH20160221113510902/21/16 11:35:31  5-MIN KAOH 211635Z AUTO 05006KT 10SM CLR 08/02 A3000 910 63 400 060/06 RMK AO2 T00830017 $
04850KAOH AOH20160221114010902/21/16 11:40:31  5-MIN KAOH 211640Z AUTO 06007KT 10SM CLR 08/02 A2999 910 63 400 070/07 RMK AO2 T00830017 $
04850KAOH AOH20160221114510902/21/16 11:45:31  5-MIN KAOH 211645Z AUTO 07009KT 10SM CLR 08/02 A3000 900 63 400 080/09 RMK AO2 T00830017 $
04850KAOH AOH20160221115013202/21/16 11:50:31  5-MIN KAOH 211650Z AUTO 04007KT 360V080 10SM CLR 08/02 A3000 910 63 400 040/07 010V090 RMK AO2 SLP161 T00830017 $
04850KAOH AOH20160221115511202/21/16 11:55:31  5-MIN KAOH 211655Z AUTO 03007KT 10SM FEW026 09/02 A2999 910 63 400 040/07 RMK AO2 T00890022 $
04850KAOH AOH20160221120011202/21/16 12:00:31  5-MIN KAOH 211700Z AUTO 07012KT 10SM FEW026 09/02 A2999 910 63 400 080/12 RMK AO2 T00890022 $
04850KAOH AOH20160221120511202/21/16 12:05:31  5-MIN KAOH 211705Z AUTO 05009KT 10SM FEW027 09/02 A2999 910 63 400 060/09 RMK AO2 T00890022 $
04850KAOH AOH20160221121011202/21/16 12:10:31  5-MIN KAOH 211710Z AUTO 08007KT 10SM FEW027 09/02 A2999 910 60 400 080/07 RMK AO2 T00890017 $
04850KAOH AOH20160221121511202/21/16 12:15:31  5-MIN KAOH 211715Z AUTO 08008KT 10SM FEW027 09/02 A2999 910 60 400 080/08 RMK AO2 T00890017 $
04850KAOH AOH20160221122011202/21/16 12:20:31  5-MIN KAOH 211720Z AUTO 05008KT 10SM SCT029 09/02 A2999 910 60 500 060/08 RMK AO2 T00940022 $
04850KAOH AOH20160221122511202/21/16 12:25:31  5-MIN KAOH 211725Z AUTO 06007KT 10SM SCT029 09/02 A2999 920 58 500 070/07 RMK AO2 T00940017 $
04850KAOH AOH20160221123011202/21/16 12:30:31  5-MIN KAOH 211730Z AUTO 04008KT 10SM SCT029 09/02 A2999 920 58 500 050/08 RMK AO2 T00940017 $
04850KAOH AOH20160221123511202/21/16 12:35:31  5-MIN KAOH 211735Z AUTO 03008KT 10SM SCT031 09/02 A2999 920 58 500 040/08 RMK AO2 T00940017 $
04850KAOH AOH20160221124011202/21/16 12:40:31  5-MIN KAOH 211740Z AUTO 02010KT 10SM BKN031 09/02 A2998 920 60 400 020/10 RMK AO2 T00890017 $
04850KAOH AOH20160221124511202/21/16 12:45:31  5-MIN KAOH 211745Z AUTO 02010KT 10SM BKN031 09/02 A2998 920 58 500 030/10 RMK AO2 T00940017 $
04850KAOH AOH20160221125013702/21/16 12:50:31  5-MIN KAOH 211750Z AUTO 04011KT 10SM BKN031 09/02 A2998 920 60 400 040/11 RMK AO2 SLP156 T00890017 10094 20006 51009 $
04850KAOH AOH20160221125511202/21/16 12:55:31  5-MIN KAOH 211755Z AUTO 04008KT 10SM SCT031 09/01 A2998 920 58 400 050/08 RMK AO2 T00890011 $
04850KAOH AOH20160221130011202/21/16 13:00:31  5-MIN KAOH 211800Z AUTO 04008KT 10SM SCT032 09/02 A2998 920 58 500 050/08 RMK AO2 T00940017 $
04850KAOH AOH20160221130511202/21/16 13:05:31  5-MIN KAOH 211805Z AUTO 02009KT 10SM FEW032 09/02 A2999 920 58 500 020/09 RMK AO2 T00940017 $
04850KAOH AOH20160221131011202/21/16 13:10:31  5-MIN KAOH 211810Z AUTO 04010KT 10SM FEW032 09/02 A2999 920 60 400 040/10 RMK AO2 T00890017 $
04850KAOH AOH20160221131511202/21/16 13:15:31  5-MIN KAOH 211815Z AUTO 03008KT 10SM SCT032 09/02 A2998 920 58 500 040/08 RMK AO2 T00940017 $
04850KAOH AOH20160221132011202/21/16 13:20:31  5-MIN KAOH 211820Z AUTO 02009KT 10SM SCT032 10/02 A2999 920 56 600 030/09 RMK AO2 T01000017 $
04850KAOH AOH20160221132511202/21/16 13:25:31  5-MIN KAOH 211825Z AUTO 01010KT 10SM SCT033 09/02 A2999 920 60 400 020/10 RMK AO2 T00890017 $
04850KAOH AOH20160221133012802/21/16 13:30:31  5-MIN KAOH 211830Z AUTO 02011KT 340V040 10SM BKN033 10/02 A2998 920 58 600 030/11 350V050 RMK AO2 T01000022 $
04850KAOH AOH20160221133511202/21/16 13:35:31  5-MIN KAOH 211835Z AUTO 02013KT 10SM BKN033 09/02 A2999 920 58 500 020/13 RMK AO2 T00940017 $
04850KAOH AOH20160221134011202/21/16 13:40:31  5-MIN KAOH 211840Z AUTO 01010KT 10SM BKN033 09/02 A2999 920 60 400 020/10 RMK AO2 T00890017 $
04850KAOH AOH20160221134511202/21/16 13:45:31  5-MIN KAOH 211845Z AUTO 03013KT 10SM BKN033 09/02 A2999 910 60 400 030/13 RMK AO2 T00890017 $
04850KAOH AOH20160221135011902/21/16 13:50:31  5-MIN KAOH 211850Z AUTO 02013KT 10SM BKN034 09/02 A2999 920 58 500 030/13 RMK AO2 SLP158 T00940017 $
04850KAOH AOH20160221135511202/21/16 13:55:31  5-MIN KAOH 211855Z AUTO 03012KT 10SM BKN034 09/02 A2999 920 60 400 030/12 RMK AO2 T00890017 $
04850KAOH AOH20160221140011902/21/16 14:00:31  5-MIN KAOH 211900Z AUTO 03012KT 10SM BKN034 BKN120 09/02 A2998 920 58 500 030/12 RMK AO2 T00940017 $
04850KAOH AOH20160221140511902/21/16 14:05:31  5-MIN KAOH 211905Z AUTO 05010KT 10SM SCT036 BKN120 10/01 A2999 920 54 600 050/10 RMK AO2 T01000011 $
04850KAOH AOH20160221141011902/21/16 14:10:31  5-MIN KAOH 211910Z AUTO 06011KT 10SM SCT036 BKN120 10/02 A2999 920 56 600 070/11 RMK AO2 T01000017 $
04850KAOH AOH20160221141511902/21/16 14:15:31  5-MIN KAOH 211915Z AUTO 02011KT 10SM BKN036 BKN120 09/02 A2999 910 58 500 020/11 RMK AO2 T00940017 $
04850KAOH AOH20160221142011902/21/16 14:20:31  5-MIN KAOH 211920Z AUTO 03008KT 10SM BKN036 BKN120 09/01 A2999 910 56 500 040/08 RMK AO2 T00940011 $
04850KAOH AOH20160221142511902/21/16 14:25:31  5-MIN KAOH 211925Z AUTO 02013KT 10SM BKN036 BKN120 10/02 A2999 910 56 600 020/13 RMK AO2 T01000017 $
04850KAOH AOH20160221143011202/21/16 14:30:31  5-MIN KAOH 211930Z AUTO 01012KT 10SM BKN036 09/02 A2999 920 58 500 010/12 RMK AO2 T00940017 $
04850KAOH AOH20160221143511202/21/16 14:35:31  5-MIN KAOH 211935Z AUTO 03014KT 10SM OVC036 09/02 A2998 920 58 500 030/14 RMK AO2 T00940017 $
04850KAOH AOH20160221144011202/21/16 14:40:31  5-MIN KAOH 211940Z AUTO 02014KT 10SM OVC036 09/02 A2999 910 60 400 020/14 RMK AO2 T00890017 $
04850KAOH AOH20160221144511202/21/16 14:45:31  5-MIN KAOH 211945Z AUTO 03014KT 10SM OVC036 09/02 A2999 910 60 400 030/14 RMK AO2 T00890017 $
04850KAOH AOH20160221145011902/21/16 14:50:31  5-MIN KAOH 211950Z AUTO 03013KT 10SM OVC036 09/02 A2999 910 60 400 030/13 RMK AO2 SLP161 T00890017 $
04850KAOH AOH20160221145511202/21/16 14:55:31  5-MIN KAOH 211955Z AUTO 03011KT 10SM OVC036 09/02 A2999 910 60 400 040/11 RMK AO2 T00890017 $
04850KAOH AOH20160221150011202/21/16 15:00:31  5-MIN KAOH 212000Z AUTO 03012KT 10SM OVC036 09/02 A2999 910 60 400 040/12 RMK AO2 T00890017 $
04850KAOH AOH20160221150511202/21/16 15:05:31  5-MIN KAOH 212005Z AUTO 04012KT 10SM OVC036 09/02 A2999 910 60 400 050/12 RMK AO2 T00890017 $
04850KAOH AOH20160221151011202/21/16 15:10:31  5-MIN KAOH 212010Z AUTO 03012KT 10SM OVC037 08/02 A2999 910 63 400 030/12 RMK AO2 T00830017 $
04850KAOH AOH20160221151511202/21/16 15:15:31  5-MIN KAOH 212015Z AUTO 02012KT 10SM OVC037 08/02 A2999 910 63 400 020/12 RMK AO2 T00830017 $
04850KAOH AOH20160221152011202/21/16 15:20:31  5-MIN KAOH 212020Z AUTO 04011KT 10SM OVC036 08/02 A3000 900 63 400 050/11 RMK AO2 T00830017 $
04850KAOH AOH20160221152511202/21/16 15:25:31  5-MIN KAOH 212025Z AUTO 03010KT 10SM OVC036 08/01 A3000 900 60 400 040/10 RMK AO2 T00830011 $
04850KAOH AOH20160221153011202/21/16 15:30:31  5-MIN KAOH 212030Z AUTO 03011KT 10SM BKN036 08/02 A2999 910 63 400 040/11 RMK AO2 T00830017 $
04850KAOH AOH20160221153511202/21/16 15:35:31  5-MIN KAOH 212035Z AUTO 03014KT 10SM BKN034 08/02 A3000 910 63 400 030/14 RMK AO2 T00830017 $
04850KAOH AOH20160221154011902/21/16 15:40:31  5-MIN KAOH 212040Z AUTO 04015KT 10SM FEW030 BKN036 08/02 A3000 900 63 400 040/15 RMK AO2 T00830017 $
04850KAOH AOH20160221154511202/21/16 15:45:31  5-MIN KAOH 212045Z AUTO 04013KT 10SM SCT034 08/02 A3000 900 63 400 040/13 RMK AO2 T00830017 $
04850KAOH AOH20160221155012502/21/16 15:50:31  5-MIN KAOH 212050Z AUTO 02013KT 10SM FEW034 08/02 A3000 900 65 400 030/13 RMK AO2 SLP164 T00830022 58006 $
04850KAOH AOH20160221155511202/21/16 15:55:31  5-MIN KAOH 212055Z AUTO 03013KT 10SM FEW032 08/02 A3000 900 63 400 030/13 RMK AO2 T00830017 $
04850KAOH AOH20160221160010902/21/16 16:00:31  5-MIN KAOH 212100Z AUTO 03013KT 10SM CLR 08/02 A3000 900 63 400 040/13 RMK AO2 T00830017 $
04850KAOH AOH20160221160510902/21/16 16:05:31  5-MIN KAOH 212105Z AUTO 03012KT 10SM CLR 08/02 A3000 900 63 400 030/12 RMK AO2 T00830017 $
04850KAOH AOH20160221161011202/21/16 16:10:31  5-MIN KAOH 212110Z AUTO 04013KT 10SM FEW029 08/02 A3001 900 63 400 040/13 RMK AO2 T00830017 $
04850KAOH AOH20160221161511202/21/16 16:15:31  5-MIN KAOH 212115Z AUTO 04010KT 10SM SCT029 08/01 A3001 900 62 300 050/10 RMK AO2 T00780011 $
04850KAOH AOH20160221162011202/21/16 16:20:31  5-MIN KAOH 212120Z AUTO 02012KT 10SM FEW029 08/01 A3001 890 62 300 030/12 RMK AO2 T00780011 $
04850KAOH AOH20160221162511202/21/16 16:25:31  5-MIN KAOH 212125Z AUTO 02013KT 10SM SCT029 08/02 A3001 900 63 300 030/13 RMK AO2 T00830017 $
04850KAOH AOH20160221163011202/21/16 16:30:31  5-MIN KAOH 212130Z AUTO 05011KT 10SM SCT029 08/02 A3001 900 65 300 050/11 RMK AO2 T00780017 $
04850KAOH AOH20160221163511202/21/16 16:35:31  5-MIN KAOH 212135Z AUTO 05012KT 10SM SCT029 08/02 A3001 900 65 300 050/12 RMK AO2 T00780017 $
04850KAOH AOH20160221164011202/21/16 16:40:31  5-MIN KAOH 212140Z AUTO 03011KT 10SM SCT028 07/01 A3001 890 65 200 040/11 RMK AO2 T00720011 $
04850KAOH AOH20160221164511202/21/16 16:45:31  5-MIN KAOH 212145Z AUTO 03011KT 10SM FEW028 07/01 A3002 890 65 200 040/11 RMK AO2 T00720011 $
04850KAOH AOH20160221165011902/21/16 16:50:31  5-MIN KAOH 212150Z AUTO 02011KT 10SM FEW028 07/01 A3002 880 65 200 030/11 RMK AO2 SLP172 T00720011 $
04850KAOH AOH20160221165511202/21/16 16:55:31  5-MIN KAOH 212155Z AUTO 02010KT 10SM FEW028 07/01 A3002 880 67 100 030/10 RMK AO2 T00670011 $
04850KAOH AOH20160221170011202/21/16 17:00:31  5-MIN KAOH 212200Z AUTO 03010KT 10SM FEW028 07/01 A3002 880 67 100 030/10 RMK AO2 T00670011 $
04850KAOH AOH20160221170511202/21/16 17:05:31  5-MIN KAOH 212205Z AUTO 03011KT 10SM FEW027 07/01 A3002 880 65 200 040/11 RMK AO2 T00720011 $
04850KAOH AOH20160221171011202/21/16 17:10:31  5-MIN KAOH 212210Z AUTO 02013KT 10SM SCT027 07/02 A3002 890 68 200 030/13 RMK AO2 T00720017 $
04850KAOH AOH20160221171511802/21/16 17:15:31  5-MIN KAOH 212215Z AUTO 03010G18KT 10SM SCT026 07/02 A3002 890 70 100 030/10G18 RMK AO2 T00670017 $
04850KAOH AOH20160221172011202/21/16 17:20:31  5-MIN KAOH 212220Z AUTO 03011KT 10SM SCT026 06/01 A3002 890 70 100 040/11 RMK AO2 T00610011 $
04850KAOH AOH20160221172511202/21/16 17:25:31  5-MIN KAOH 212225Z AUTO 03008KT 10SM SCT026 06/01 A3002 890 70 100 040/08 RMK AO2 T00610011 $
04850KAOH AOH20160221173011202/21/16 17:30:31  5-MIN KAOH 212230Z AUTO 02010KT 10SM SCT026 06/01 A3002 880 70 100 030/10 RMK AO2 T00610011 $
04850KAOH AOH20160221173511202/21/16 17:35:31  5-MIN KAOH 212235Z AUTO 03010KT 10SM FEW026 06/01 A3003 880 70 100 040/10 RMK AO2 T00610011 $
04850KAOH AOH20160221174011202/21/16 17:40:31  5-MIN KAOH 212240Z AUTO 03008KT 10SM FEW026 06/01 A3003 880 70 100 040/08 RMK AO2 T00610011 $
04850KAOH AOH20160221174510702/21/16 17:45:31  5-MIN KAOH 212245Z AUTO 03010KT 10SM CLR 06/01 A3003 870 73 0 030/10 RMK AO2 T00560011 $
04850KAOH AOH20160221175011402/21/16 17:50:31  5-MIN KAOH 212250Z AUTO 02009KT 10SM CLR 06/01 A3004 870 73 0 020/09 RMK AO2 SLP178 T00560011 $
04850KAOH AOH20160221175510702/21/16 17:55:31  5-MIN KAOH 212255Z AUTO 03009KT 10SM CLR 06/01 A3004 870 73 0 030/09 RMK AO2 T00560011 $
04850KAOH AOH20160221180010702/21/16 18:00:31  5-MIN KAOH 212300Z AUTO 02007KT 10SM CLR 05/01 A3004 870 76 0 030/07 RMK AO2 T00500011 $
04850KAOH AOH20160221180510702/21/16 18:05:31  5-MIN KAOH 212305Z AUTO 02009KT 10SM CLR 05/01 A3004 860 76 0 030/09 RMK AO2 T00500011 $
04850KAOH AOH20160221181010702/21/16 18:10:31  5-MIN KAOH 212310Z AUTO 02008KT 10SM CLR 05/01 A3005 860 73 0 030/08 RMK AO2 T00500006 $
04850KAOH AOH20160221181511002/21/16 18:15:31  5-MIN KAOH 212315Z AUTO 02007KT 10SM CLR 04/01 A3005 860 76 -100 030/07 RMK AO2 T00440006 $
04850KAOH AOH20160221182011002/21/16 18:20:31  5-MIN KAOH 212320Z AUTO 03007KT 10SM CLR 04/01 A3005 860 76 -100 030/07 RMK AO2 T00440006 $
04850KAOH AOH20160221182511002/21/16 18:25:31  5-MIN KAOH 212325Z AUTO 03007KT 10SM CLR 04/01 A3005 860 76 -100 030/07 RMK AO2 T00440006 $
04850KAOH AOH20160221183011002/21/16 18:30:31  5-MIN KAOH 212330Z AUTO 03008KT 10SM CLR 04/01 A3005 850 76 -100 030/08 RMK AO2 T00440006 $
04850KAOH AOH20160221183511002/21/16 18:35:31  5-MIN KAOH 212335Z AUTO 03007KT 10SM CLR 04/01 A3006 850 76 -100 030/07 RMK AO2 T00440006 $
04850KAOH AOH20160221184011002/21/16 18:40:31  5-MIN KAOH 212340Z AUTO 03007KT 10SM CLR 04/01 A3006 850 79 -200 030/07 RMK AO2 T00390006 $
04850KAOH AOH20160221184511002/21/16 18:45:31  5-MIN KAOH 212345Z AUTO 03007KT 10SM CLR 04/01 A3006 850 79 -200 040/07 RMK AO2 T00390006 $
04850KAOH AOH20160221185013502/21/16 18:50:31  5-MIN KAOH 212350Z AUTO 03007KT 10SM CLR 04/01 A3006 850 79 -200 030/07 RMK AO2 SLP187 T00390006 10100 20039 53007 $
04850KAOH AOH20160221185511002/21/16 18:55:31  5-MIN KAOH 212355Z AUTO 03007KT 10SM CLR 04/01 A3006 840 79 -200 030/07 RMK AO2 T00390006 $
04850KAOH AOH20160221190011002/21/16 19:00:31  5-MIN KAOH 220000Z AUTO 03007KT 10SM CLR 04/01 A3007 840 79 -200 030/07 RMK AO2 T00390006 $
04850KAOH AOH20160221190511002/21/16 19:05:31  5-MIN KAOH 220005Z AUTO 03007KT 10SM CLR 03/00 A3007 840 79 -300 040/07 RMK AO2 T00330000 $
04850KAOH AOH20160221191011002/21/16 19:10:31  5-MIN KAOH 220010Z AUTO 04007KT 10SM CLR 03/00 A3007 840 79 -300 040/07 RMK AO2 T00330000 $
04850KAOH AOH20160221191511002/21/16 19:15:31  5-MIN KAOH 220015Z AUTO 03007KT 10SM CLR 03/00 A3007 840 79 -300 040/07 RMK AO2 T00330000 $
04850KAOH AOH20160221192011002/21/16 19:20:31  5-MIN KAOH 220020Z AUTO 03006KT 10SM CLR 03/00 A3007 830 79 -300 040/06 RMK AO2 T00330000 $
04850KAOH AOH20160221192511002/21/16 19:25:31  5-MIN KAOH 220025Z AUTO 03006KT 10SM CLR 03/00 A3008 830 82 -400 030/06 RMK AO2 T00280000 $
04850KAOH AOH20160221193011002/21/16 19:30:31  5-MIN KAOH 220030Z AUTO 03005KT 10SM CLR 03/00 A3008 830 82 -400 040/05 RMK AO2 T00280000 $
04850KAOH AOH20160221193511002/21/16 19:35:31  5-MIN KAOH 220035Z AUTO 02004KT 10SM CLR 03/00 A3008 830 82 -400 030/04 RMK AO2 T00280000 $
04850KAOH AOH20160221194011002/21/16 19:40:31  5-MIN KAOH 220040Z AUTO 03004KT 10SM CLR 03/00 A3008 830 82 -400 030/04 RMK AO2 T00280000 $
04850KAOH AOH20160221194511102/21/16 19:45:31  5-MIN KAOH 220045Z AUTO 03005KT 10SM CLR 02/M01 A3008 830 82 -400 030/05 RMK AO2 T00221006 $
04850KAOH AOH20160221195011802/21/16 19:50:31  5-MIN KAOH 220050Z AUTO 02005KT 10SM CLR 02/M01 A3008 830 82 -400 030/05 RMK AO2 SLP195 T00221006 $
04850KAOH AOH20160221195511102/21/16 19:55:31  5-MIN KAOH 220055Z AUTO 02005KT 10SM CLR 02/M01 A3008 830 82 -400 030/05 RMK AO2 T00221006 $
04850KAOH AOH20160221200011102/21/16 20:00:31  5-MIN KAOH 220100Z AUTO 03004KT 10SM CLR 02/M01 A3008 830 82 -400 040/04 RMK AO2 T00221006 $
04850KAOH AOH20160221200511102/21/16 20:05:31  5-MIN KAOH 220105Z AUTO 03005KT 10SM CLR 02/M01 A3009 830 82 -400 030/05 RMK AO2 T00221006 $
04850KAOH AOH20160221201011102/21/16 20:10:31  5-MIN KAOH 220110Z AUTO 03005KT 10SM CLR 02/M01 A3009 830 82 -400 040/05 RMK AO2 T00221006 $
04850KAOH AOH20160221201511102/21/16 20:15:31  5-MIN KAOH 220115Z AUTO 03005KT 10SM CLR 02/M01 A3009 820 85 -500 040/05 RMK AO2 T00171006 $
04850KAOH AOH20160221202011402/21/16 20:20:31  5-MIN KAOH 220120Z AUTO 04005KT 10SM FEW100 02/M01 A3009 820 85 -500 040/05 RMK AO2 T00171006 $
04850KAOH AOH20160221202511402/21/16 20:25:31  5-MIN KAOH 220125Z AUTO 03005KT 10SM FEW100 02/M01 A3009 820 85 -500 040/05 RMK AO2 T00171006 $
04850KAOH AOH20160221203011402/21/16 20:30:31  5-MIN KAOH 220130Z AUTO 03005KT 10SM FEW100 02/M01 A3009 820 85 -500 040/05 RMK AO2 T00171006 $
04850KAOH AOH20160221203511402/21/16 20:35:31  5-MIN KAOH 220135Z AUTO 04004KT 10SM FEW100 02/M01 A3009 820 85 -500 050/04 RMK AO2 T00171006 $
04850KAOH AOH20160221204011402/21/16 20:40:31  5-MIN KAOH 220140Z AUTO 04005KT 10SM FEW100 02/M01 A3009 820 85 -500 050/05 RMK AO2 T00171006 $
04850KAOH AOH20160221204511402/21/16 20:45:31  5-MIN KAOH 220145Z AUTO 04005KT 10SM FEW100 02/M01 A3009 820 85 -500 050/05 RMK AO2 T00171006 $
04850KAOH AOH20160221205011802/21/16 20:50:31  5-MIN KAOH 220150Z AUTO 04006KT 10SM CLR 02/M01 A3009 820 85 -500 040/06 RMK AO2 SLP197 T00171006 $
04850KAOH AOH20160221205511102/21/16 20:55:31  5-MIN KAOH 220155Z AUTO 04005KT 10SM CLR 02/M01 A3009 820 85 -500 040/05 RMK AO2 T00171006 $
04850KAOH AOH20160221210011102/21/16 21:00:31  5-MIN KAOH 220200Z AUTO 04005KT 10SM CLR 01/M01 A3009 820 89 -600 050/05 RMK AO2 T00111006 $
04850KAOH AOH20160221210511102/21/16 21:05:31  5-MIN KAOH 220205Z AUTO 04006KT 10SM CLR 01/M01 A3009 820 89 -600 040/06 RMK AO2 T00111006 $
04850KAOH AOH20160221211011102/21/16 21:10:31  5-MIN KAOH 220210Z AUTO 04005KT 10SM CLR 01/M01 A3009 820 85 -600 040/05 RMK AO2 T00111011 $
04850KAOH AOH20160221211511102/21/16 21:15:31  5-MIN KAOH 220215Z AUTO 04005KT 10SM CLR 01/M01 A3009 820 85 -600 040/05 RMK AO2 T00111011 $
04850KAOH AOH20160221212011102/21/16 21:20:31  5-MIN KAOH 220220Z AUTO 04004KT 10SM CLR 01/M01 A3010 820 85 -600 040/04 RMK AO2 T00111011 $
04850KAOH AOH20160221212511102/21/16 21:25:31  5-MIN KAOH 220225Z AUTO 04003KT 10SM CLR 01/M01 A3010 810 85 -600 040/03 RMK AO2 T00111011 $
04850KAOH AOH20160221213011102/21/16 21:30:31  5-MIN KAOH 220230Z AUTO 04003KT 10SM CLR 01/M01 A3010 810 85 -600 040/03 RMK AO2 T00111011 $
04850KAOH AOH20160221213511102/21/16 21:35:31  5-MIN KAOH 220235Z AUTO 04003KT 10SM CLR 01/M01 A3010 810 89 -600 040/03 RMK AO2 T00111006 $
04850KAOH AOH20160221214011102/21/16 21:40:31  5-MIN KAOH 220240Z AUTO 04003KT 10SM CLR 01/M01 A3010 810 89 -600 050/03 RMK AO2 T00111006 $
04850KAOH AOH20160221214511102/21/16 21:45:31  5-MIN KAOH 220245Z AUTO 05003KT 10SM CLR 01/M01 A3010 810 85 -600 050/03 RMK AO2 T00111011 $
04850KAOH AOH20160221215012402/21/16 21:50:31  5-MIN KAOH 220250Z AUTO 04003KT 10SM CLR 01/M01 A3010 810 85 -600 040/03 RMK AO2 SLP199 T00111011 53020 $
04850KAOH AOH20160221215511102/21/16 21:55:31  5-MIN KAOH 220255Z AUTO 00000KT 10SM CLR 01/M01 A3010 810 85 -600 000/00 RMK AO2 T00111011 $
04850KAOH AOH20160221220011102/21/16 22:00:31  5-MIN KAOH 220300Z AUTO 00000KT 10SM CLR 01/M01 A3010 810 85 -600 000/00 RMK AO2 T00111011 $
04850KAOH AOH20160221220511102/21/16 22:05:31  5-MIN KAOH 220305Z AUTO 00000KT 10SM CLR 01/M01 A3010 810 89 -700 000/00 RMK AO2 T00061011 $
04850KAOH AOH20160221221011102/21/16 22:10:31  5-MIN KAOH 220310Z AUTO 00000KT 10SM CLR 00/M02 A3010 810 88 -700 000/00 RMK AO2 T00001017 $
04850KAOH AOH20160221221511102/21/16 22:15:31  5-MIN KAOH 220315Z AUTO 00000KT 10SM CLR 00/M02 A3010 810 88 -700 000/00 RMK AO2 T00001017 $
04850KAOH AOH20160221222011102/21/16 22:20:31  5-MIN KAOH 220320Z AUTO 00000KT 10SM CLR 00/M02 A3010 810 88 -700 000/00 RMK AO2 T00001017 $
04850KAOH AOH20160221222511102/21/16 22:25:31  5-MIN KAOH 220325Z AUTO 00000KT 10SM CLR 00/M02 A3011 810 88 -700 000/00 RMK AO2 T00001017 $
04850KAOH AOH20160221223011102/21/16 22:30:31  5-MIN KAOH 220330Z AUTO 00000KT 10SM CLR 00/M02 A3011 810 88 -700 000/00 RMK AO2 T00001017 $
04850KAOH AOH20160221223511202/21/16 22:35:31  5-MIN KAOH 220335Z AUTO 00000KT 10SM CLR M01/M02 A3010 810 88 -800 000/00 RMK AO2 T10061022 $
04850KAOH AOH20160221224011202/21/16 22:40:31  5-MIN KAOH 220340Z AUTO 02003KT 10SM CLR M01/M02 A3010 810 92 -900 030/03 RMK AO2 T10111022 $
04850KAOH AOH20160221224511202/21/16 22:45:31  5-MIN KAOH 220345Z AUTO 02003KT 10SM CLR M01/M02 A3010 810 88 -800 030/03 RMK AO2 T10061022 $
04850KAOH AOH20160221225011802/21/16 22:50:31  5-MIN KAOH 220350Z AUTO 02004KT 10SM CLR 00/M02 A3010 810 88 -700 030/04 RMK AO2 SLP201 T00001017 $
04850KAOH AOH20160221225511202/21/16 22:55:31  5-MIN KAOH 220355Z AUTO 02004KT 10SM CLR M01/M02 A3010 810 92 -800 020/04 RMK AO2 T10061017 $
04850KAOH AOH20160221230011202/21/16 23:00:31  5-MIN KAOH 220400Z AUTO 03004KT 10SM CLR M01/M02 A3010 810 92 -800 030/04 RMK AO2 T10061017 $
04850KAOH AOH20160221230511202/21/16 23:05:31  5-MIN KAOH 220405Z AUTO 03004KT 10SM CLR M01/M02 A3010 810 92 -800 040/04 RMK AO2 T10061017 $
04850KAOH AOH20160221231011102/21/16 23:10:31  5-MIN KAOH 220410Z AUTO 05003KT 10SM CLR 00/M02 A3010 810 88 -700 050/03 RMK AO2 T00001017 $
04850KAOH AOH20160221231511102/21/16 23:15:31  5-MIN KAOH 220415Z AUTO 04004KT 10SM CLR 00/M02 A3010 810 88 -700 050/04 RMK AO2 T00001017 $
04850KAOH AOH20160221232011102/21/16 23:20:31  5-MIN KAOH 220420Z AUTO 05004KT 10SM CLR 00/M02 A3010 810 88 -700 060/04 RMK AO2 T00001017 $
04850KAOH AOH20160221232511102/21/16 23:25:31  5-MIN KAOH 220425Z AUTO 06003KT 10SM CLR 00/M02 A3010 810 88 -700 060/03 RMK AO2 T00001017 $
04850KAOH AOH20160221233011202/21/16 23:30:31  5-MIN KAOH 220430Z AUTO 06003KT 10SM CLR M01/M02 A3010 810 92 -800 070/03 RMK AO2 T10061017 $
04850KAOH AOH20160221233511202/21/16 23:35:31  5-MIN KAOH 220435Z AUTO 07003KT 10SM CLR M01/M02 A3010 810 92 -800 070/03 RMK AO2 T10061017 $
04850KAOH AOH20160221234011202/21/16 23:40:31  5-MIN KAOH 220440Z AUTO 07003KT 10SM CLR M01/M02 A3010 810 92 -800 070/03 RMK AO2 T10061017 $
04850KAOH AOH20160221234511202/21/16 23:45:31  5-MIN KAOH 220445Z AUTO 07003KT 10SM CLR M01/M02 A3010 810 92 -800 080/03 RMK AO2 T10061017 $
04850KAOH AOH20160221235012902/21/16 23:50:31  5-MIN KAOH 220450Z AUTO 08003KT 10SM CLR M01/M02 A3010 810 92 -800 090/03 RMK AO2 SLP201 T10061017 401001011 $
04850KAOH AOH20160221235511202/21/16 23:55:31  5-MIN KAOH 220455Z AUTO 08004KT 10SM CLR M01/M02 A3010 810 92 -800 080/04 RMK AO2 T10061017 $
04850KAOH AOH20160222000011202/22/16 00:00:31  5-MIN KAOH 220500Z AUTO 07003KT 10SM CLR M01/M02 A3010 810 92 -800 070/03 RMK AO2 T10061017 $
04850KAOH AOH20160222000511202/22/16 00:05:31  5-MIN KAOH 220505Z AUTO 08003KT 10SM CLR M01/M02 A3010 810 92 -800 080/03 RMK AO2 T10061017 $
04850KAOH AOH20160222001011202/22/16 00:10:31  5-MIN KAOH 220510Z AUTO 08003KT 10SM CLR M01/M02 A3011 810 92 -800 090/03 RMK AO2 T10061017 $
04850KAOH AOH20160222001511202/22/16 00:15:31  5-MIN KAOH 220515Z AUTO 08003KT 10SM CLR M01/M02 A3011 810 92 -800 090/03 RMK AO2 T10061017 $
04850KAOH AOH20160222002011202/22/16 00:20:31  5-MIN KAOH 220520Z AUTO 08003KT 10SM CLR M01/M02 A3011 810 92 -900 090/03 RMK AO2 T10111022 $
04850KAOH AOH20160222002511202/22/16 00:25:31  5-MIN KAOH 220525Z AUTO 08003KT 10SM CLR M01/M03 A3011 800 88 -900 080/03 RMK AO2 T10111028 $
04850KAOH AOH20160222003011202/22/16 00:30:31  5-MIN KAOH 220530Z AUTO 08003KT 10SM CLR M01/M02 A3011 810 92 -900 090/03 RMK AO2 T10111022 $
04850KAOH AOH20160222003511202/22/16 00:35:31  5-MIN KAOH 220535Z AUTO 08003KT 10SM CLR M01/M02 A3011 810 92 -900 080/03 RMK AO2 T10111022 $
04850KAOH AOH20160222004011502/22/16 00:40:31  5-MIN KAOH 220540Z AUTO 08004KT 10SM FEW028 M01/M03 A3011 800 88 -900 090/04 RMK AO2 T10111028 $
04850KAOH AOH20160222004511502/22/16 00:45:31  5-MIN KAOH 220545Z AUTO 08004KT 10SM SCT028 M01/M02 A3011 800 92 -900 090/04 RMK AO2 T10111022 $
04850KAOH AOH20160222005010502/22/16 00:50:31  5-MIN KAOH 220550Z AUTO 08004KT 10SM BKN028 M01/M02 A3011 800 92 -900 090/04 RMK AO2 $
04850KAOH AOH20160222005511502/22/16 00:55:31  5-MIN KAOH 220555Z AUTO 08005KT 10SM SCT028 M01/M02 A3011 810 92 -900 090/05 RMK AO2 T10111022 $
04850KAOH AOH20160222010011502/22/16 01:00:31  5-MIN KAOH 220600Z AUTO 08005KT 10SM SCT027 M01/M03 A3011 800 88 -900 090/05 RMK AO2 T10111028 $
04850KAOH AOH20160222010511502/22/16 01:05:31  5-MIN KAOH 220605Z AUTO 09005KT 10SM SCT027 M01/M03 A3011 800 88 -900 090/05 RMK AO2 T10111028 $
04850KAOH AOH20160222011011502/22/16 01:10:31  5-MIN KAOH 220610Z AUTO 09005KT 10SM FEW027 M01/M03 A3011 810 88 -900 090/05 RMK AO2 T10111028 $
04850KAOH AOH20160222011511502/22/16 01:15:31  5-MIN KAOH 220615Z AUTO 09005KT 10SM FEW027 M01/M03 A3011 810 88 -900 100/05 RMK AO2 T10111028 $
04850KAOH AOH20160222012011202/22/16 01:20:31  5-MIN KAOH 220620Z AUTO 09005KT 10SM CLR M01/M03 A3011 810 88 -900 100/05 RMK AO2 T10111028 $
04850KAOH AOH20160222012511302/22/16 01:25:31  5-MIN KAOH 220625Z AUTO 09006KT 10SM CLR M02/M03 A3011 810 88 -1000 100/06 RMK AO2 T10171033 $
04850KAOH AOH20160222013011202/22/16 01:30:31  5-MIN KAOH 220630Z AUTO 09005KT 10SM CLR M02/M03 A3011 810 88 -900 090/05 RMK AO2 T10171033 $
04850KAOH AOH20160222013511202/22/16 01:35:31  5-MIN KAOH 220635Z AUTO 08005KT 10SM CLR M02/M03 A3011 810 92 -900 090/05 RMK AO2 T10171028 $
04850KAOH AOH20160222014011202/22/16 01:40:31  5-MIN KAOH 220640Z AUTO 08004KT 10SM CLR M02/M03 A3010 810 92 -900 090/04 RMK AO2 T10171028 $
04850KAOH AOH20160222014511202/22/16 01:45:31  5-MIN KAOH 220645Z AUTO 08004KT 10SM CLR M02/M03 A3010 810 92 -900 090/04 RMK AO2 T10171028 $
04850KAOH AOH20160222015011902/22/16 01:50:31  5-MIN KAOH 220650Z AUTO 09004KT 10SM CLR M02/M03 A3010 810 92 -900 090/04 RMK AO2 SLP201 T10171028 $
04850KAOH AOH20160222015511202/22/16 01:55:31  5-MIN KAOH 220655Z AUTO 09004KT 10SM CLR M02/M03 A3010 810 92 -900 100/04 RMK AO2 T10171028 $
04850KAOH AOH20160222020011202/22/16 02:00:31  5-MIN KAOH 220700Z AUTO 08004KT 10SM CLR M02/M03 A3011 810 92 -900 090/04 RMK AO2 T10171028 $
04850KAOH AOH20160222020511302/22/16 02:05:31  5-MIN KAOH 220705Z AUTO 08005KT 10SM CLR M02/M03 A3011 800 92 -1000 090/05 RMK AO2 T10171028 $
04850KAOH AOH20160222021011302/22/16 02:10:31  5-MIN KAOH 220710Z AUTO 07005KT 10SM CLR M02/M03 A3011 800 92 -1000 080/05 RMK AO2 T10171028 $
04850KAOH AOH20160222021511302/22/16 02:15:31  5-MIN KAOH 220715Z AUTO 07005KT 10SM CLR M02/M03 A3011 810 92 -1000 070/05 RMK AO2 T10171028 $
04850KAOH AOH20160222022011302/22/16 02:20:31  5-MIN KAOH 220720Z AUTO 07005KT 10SM CLR M02/M03 A3011 800 88 -1000 080/05 RMK AO2 T10171033 $
04850KAOH AOH20160222022511302/22/16 02:25:31  5-MIN KAOH 220725Z AUTO 07005KT 10SM CLR M02/M03 A3011 810 88 -1000 070/05 RMK AO2 T10171033 $
04850KAOH AOH20160222023011502/22/16 02:30:31  5-MIN KAOH 220730Z AUTO 06005KT 10SM FEW027 M01/M03 A3011 800 88 -900 070/05 RMK AO2 T10111028 $
04850KAOH AOH20160222023511502/22/16 02:35:31  5-MIN KAOH 220735Z AUTO 06004KT 10SM SCT027 M01/M03 A3011 800 88 -900 070/04 RMK AO2 T10111028 $
04850KAOH AOH20160222024011502/22/16 02:40:31  5-MIN KAOH 220740Z AUTO 06005KT 10SM BKN027 M01/M03 A3011 800 88 -900 070/05 RMK AO2 T10111028 $
04850KAOH AOH20160222024511502/22/16 02:45:31  5-MIN KAOH 220745Z AUTO 05005KT 10SM BKN027 M01/M02 A3011 800 88 -800 060/05 RMK AO2 T10061022 $
04850KAOH AOH20160222025012202/22/16 02:50:31  5-MIN KAOH 220750Z AUTO 06004KT 10SM BKN027 M01/M02 A3012 800 88 -800 060/04 RMK AO2 SLP205 T10061022 $
04850KAOH AOH20160222025511502/22/16 02:55:31  5-MIN KAOH 220755Z AUTO 06004KT 10SM OVC027 M01/M02 A3012 800 92 -800 070/04 RMK AO2 T10061017 $
04850KAOH AOH20160222030011402/22/16 03:00:31  5-MIN KAOH 220800Z AUTO 06004KT 10SM OVC026 00/M02 A3012 800 88 -800 070/04 RMK AO2 T00001017 $
04850KAOH AOH20160222030511402/22/16 03:05:31  5-MIN KAOH 220805Z AUTO 07004KT 10SM OVC026 00/M02 A3012 800 88 -800 080/04 RMK AO2 T00001017 $
04850KAOH AOH20160222031011402/22/16 03:10:31  5-MIN KAOH 220810Z AUTO 07004KT 10SM OVC026 00/M02 A3012 800 88 -800 070/04 RMK AO2 T00001017 $
04850KAOH AOH20160222031511402/22/16 03:15:31  5-MIN KAOH 220815Z AUTO 05004KT 10SM OVC026 00/M02 A3012 800 88 -800 060/04 RMK AO2 T00001017 $
04850KAOH AOH20160222032011402/22/16 03:20:31  5-MIN KAOH 220820Z AUTO 00000KT 10SM OVC026 00/M02 A3012 800 88 -800 000/00 RMK AO2 T00001017 $
04850KAOH AOH20160222032511402/22/16 03:25:31  5-MIN KAOH 220825Z AUTO 00000KT 10SM OVC026 00/M02 A3011 800 88 -700 000/00 RMK AO2 T00001017 $
04850KAOH AOH20160222033011402/22/16 03:30:31  5-MIN KAOH 220830Z AUTO 00000KT 10SM OVC026 00/M02 A3012 790 88 -800 000/00 RMK AO2 T00001017 $
04850KAOH AOH20160222033511402/22/16 03:35:31  5-MIN KAOH 220835Z AUTO 01003KT 10SM OVC026 00/M02 A3012 790 88 -800 020/03 RMK AO2 T00001017 $
04850KAOH AOH20160222034011402/22/16 03:40:31  5-MIN KAOH 220840Z AUTO 01003KT 10SM OVC028 00/M02 A3012 800 88 -800 010/03 RMK AO2 T00001017 $
04850KAOH AOH20160222034511402/22/16 03:45:31  5-MIN KAOH 220845Z AUTO 01003KT 10SM OVC028 00/M02 A3012 800 88 -800 020/03 RMK AO2 T00001017 $
04850KAOH AOH20160222035012702/22/16 03:50:31  5-MIN KAOH 220850Z AUTO 00000KT 10SM OVC028 00/M02 A3012 800 88 -800 000/00 RMK AO2 SLP205 T00001017 52002 $
04850KAOH AOH20160222035511502/22/16 03:55:31  5-MIN KAOH 220855Z AUTO 00000KT 10SM OVC028 M01/M02 A3012 800 92 -800 000/00 RMK AO2 T10061017 $
04850KAOH AOH20160222040011502/22/16 04:00:31  5-MIN KAOH 220900Z AUTO 00000KT 10SM BKN029 M01/M02 A3011 800 92 -800 000/00 RMK AO2 T10061017 $
04850KAOH AOH20160222040511502/22/16 04:05:31  5-MIN KAOH 220905Z AUTO 00000KT 10SM BKN029 M01/M02 A3012 800 88 -800 000/00 RMK AO2 T10061022 $
04850KAOH AOH20160222041011502/22/16 04:10:31  5-MIN KAOH 220910Z AUTO 00000KT 10SM SCT029 M01/M02 A3012 790 88 -800 000/00 RMK AO2 T10061022 $
04850KAOH AOH20160222041511502/22/16 04:15:31  5-MIN KAOH 220915Z AUTO 00000KT 10SM FEW029 M01/M02 A3012 790 92 -900 000/00 RMK AO2 T10111022 $
04850KAOH AOH20160222042011502/22/16 04:20:31  5-MIN KAOH 220920Z AUTO 00000KT 10SM FEW029 M01/M02 A3012 790 92 -900 000/00 RMK AO2 T10111022 $
04850KAOH AOH20160222042511202/22/16 04:25:31  5-MIN KAOH 220925Z AUTO 00000KT 10SM CLR M01/M02 A3012 790 92 -900 000/00 RMK AO2 T10111022 $
04850KAOH AOH20160222043011302/22/16 04:30:31  5-MIN KAOH 220930Z AUTO 00000KT 10SM CLR M02/M03 A3012 790 92 -1000 000/00 RMK AO2 T10171028 $
04850KAOH AOH20160222043511302/22/16 04:35:31  5-MIN KAOH 220935Z AUTO 00000KT 10SM CLR M02/M03 A3013 790 88 -1000 000/00 RMK AO2 T10171033 $
04850KAOH AOH20160222044011302/22/16 04:40:31  5-MIN KAOH 220940Z AUTO 00000KT 10SM CLR M02/M03 A3013 790 88 -1000 000/00 RMK AO2 T10171033 $
04850KAOH AOH20160222044511302/22/16 04:45:31  5-MIN KAOH 220945Z AUTO 00000KT 10SM CLR M02/M03 A3013 790 92 -1000 000/00 RMK AO2 T10221033 $
04850KAOH AOH20160222045012002/22/16 04:50:31  5-MIN KAOH 220950Z AUTO 00000KT 10SM CLR M02/M03 A3013 790 92 -1000 000/00 RMK AO2 SLP210 T10221033 $
04850KAOH AOH20160222045511302/22/16 04:55:31  5-MIN KAOH 220955Z AUTO 00000KT 10SM CLR M02/M03 A3013 780 92 -1000 000/00 RMK AO2 T10221033 $
04850KAOH AOH20160222050011302/22/16 05:00:31  5-MIN KAOH 221000Z AUTO 00000KT 10SM CLR M03/M04 A3014 780 92 -1100 000/00 RMK AO2 T10281039 $
04850KAOH AOH20160222050511202/22/16 05:05:31  5-MIN KAOH 221005Z AUTO 01003KT 9SM CLR M03/M04 A3014 780 92 -1100 010/03 RMK AO2 T10281039 $
04850KAOH AOH20160222051011802/22/16 05:10:31  5-MIN KAOH 221010Z AUTO 01003KT 9SM CLR M02/M03 A3014 770 92 -1100 020/03 RMK AO2 I1000 T10221033 $
04850KAOH AOH20160222051511802/22/16 05:15:31  5-MIN KAOH 221015Z AUTO 02003KT 9SM CLR M03/M03 A3014 780 96 -1100 030/03 RMK AO2 I1000 T10281033 $
04850KAOH AOH20160222052011802/22/16 05:20:31  5-MIN KAOH 221020Z AUTO 02003KT 9SM CLR M02/M03 A3014 780 92 -1100 030/03 RMK AO2 I1000 T10221033 $
04850KAOH AOH20160222052511802/22/16 05:25:31  5-MIN KAOH 221025Z AUTO 03003KT 9SM CLR M03/M03 A3014 780 96 -1100 030/03 RMK AO2 I1000 T10281033 $
04850KAOH AOH20160222053011802/22/16 05:30:31  5-MIN KAOH 221030Z AUTO 03003KT 8SM CLR M03/M04 A3014 780 92 -1100 030/03 RMK AO2 I1000 T10281039 $
04850KAOH AOH20160222053511802/22/16 05:35:31  5-MIN KAOH 221035Z AUTO 03004KT 8SM CLR M03/M03 A3014 780 96 -1100 030/04 RMK AO2 I1000 T10281033 $
04850KAOH AOH20160222054011802/22/16 05:40:31  5-MIN KAOH 221040Z AUTO 02004KT 8SM CLR M03/M03 A3014 780 96 -1100 030/04 RMK AO2 I1000 T10281033 $
04850KAOH AOH20160222054511802/22/16 05:45:31  5-MIN KAOH 221045Z AUTO 02003KT 8SM CLR M03/M04 A3014 770 92 -1100 030/03 RMK AO2 I1001 T10281039 $
04850KAOH AOH20160222055012502/22/16 05:50:31  5-MIN KAOH 221050Z AUTO 01003KT 7SM CLR M03/M04 A3014 770 96 -1200 020/03 RMK AO2 SLP217 I1001 T10331039 $
04850KAOH AOH20160222055511202/22/16 05:55:31  5-MIN KAOH 221055Z AUTO 35003KT 7SM CLR M03/M04 A3015 770 96 -1200 350/03 RMK AO2 T10331039 $
04850KAOH AOH20160222060011502/22/16 06:00:31  5-MIN KAOH 221100Z AUTO 00000KT 6SM BR CLR M03/M04 A3015 770 96 -1200 000/00 RMK AO2 T10331039 $
04850KAOH AOH20160222060511502/22/16 06:05:31  5-MIN KAOH 221105Z AUTO 00000KT 6SM BR CLR M03/M04 A3015 770 92 -1100 000/00 RMK AO2 T10281039 $
04850KAOH AOH20160222061011502/22/16 06:10:31  5-MIN KAOH 221110Z AUTO 00000KT 6SM BR CLR M03/M04 A3014 770 92 -1100 000/00 RMK AO2 T10281039 $
04850KAOH AOH20160222061511502/22/16 06:15:31  5-MIN KAOH 221115Z AUTO 05003KT 5SM BR CLR M03/M04 A3014 770 92 -1100 050/03 RMK AO2 T10281039 $
04850KAOH AOH20160222062011502/22/16 06:20:31  5-MIN KAOH 221120Z AUTO 06003KT 6SM BR CLR M03/M04 A3015 770 96 -1200 060/03 RMK AO2 T10331039 $
04850KAOH AOH20160222062511502/22/16 06:25:31  5-MIN KAOH 221125Z AUTO 05003KT 6SM BR CLR M03/M03 A3015 770 96 -1100 050/03 RMK AO2 T10281033 $
04850KAOH AOH20160222063011502/22/16 06:30:31  5-MIN KAOH 221130Z AUTO 04004KT 6SM BR CLR M02/M03 A3014 770 92 -1100 040/04 RMK AO2 T10221033 $
04850KAOH AOH20160222063511502/22/16 06:35:31  5-MIN KAOH 221135Z AUTO 04004KT 6SM BR CLR M03/M03 A3014 770 96 -1100 050/04 RMK AO2 T10281033 $
04850KAOH AOH20160222064011502/22/16 06:40:31  5-MIN KAOH 221140Z AUTO 04004KT 6SM BR CLR M03/M03 A3014 770 96 -1100 050/04 RMK AO2 T10281033 $
04850KAOH AOH20160222064511502/22/16 06:45:31  5-MIN KAOH 221145Z AUTO 05004KT 6SM BR CLR M03/M03 A3015 770 96 -1100 060/04 RMK AO2 T10281033 $
04850KAOH AOH20160222065014602/22/16 06:50:31  5-MIN KAOH 221150Z AUTO 05003KT 6SM BR CLR M03/M03 A3015 770 96 -1100 060/03 RMK AO2 SLP219 I6001 T10281033 10000 21039 52003 $
04850KAOH AOH20160222065511502/22/16 06:55:31  5-MIN KAOH 221155Z AUTO 00000KT 6SM BR CLR M03/M03 A3015 770 96 -1100 000/00 RMK AO2 T10281033 $
04850KAOH AOH20160222070011502/22/16 07:00:31  5-MIN KAOH 221200Z AUTO 05003KT 6SM BR CLR M03/M03 A3015 760 96 -1100 050/03 RMK AO2 T10281033 $
04850KAOH AOH20160222070511502/22/16 07:05:31  5-MIN KAOH 221205Z AUTO 05003KT 6SM BR CLR M03/M03 A3015 760 96 -1100 060/03 RMK AO2 T10281033 $
04850KAOH AOH20160222071011502/22/16 07:10:31  5-MIN KAOH 221210Z AUTO 00000KT 6SM BR CLR M03/M04 A3016 760 96 -1200 000/00 RMK AO2 T10331039 $
04850KAOH AOH20160222071511502/22/16 07:15:31  5-MIN KAOH 221215Z AUTO 05004KT 5SM BR CLR M03/M04 A3015 760 92 -1100 050/04 RMK AO2 T10281039 $
04850KAOH AOH20160222072011502/22/16 07:20:31  5-MIN KAOH 221220Z AUTO 05003KT 5SM BR CLR M03/M04 A3016 760 92 -1100 050/03 RMK AO2 T10281039 $
04850KAOH AOH20160222072512102/22/16 07:25:31  5-MIN KAOH 221225Z AUTO 06003KT 4SM BR CLR M03/M04 A3016 760 92 -1100 070/03 RMK AO2 I1000 T10281039 $
04850KAOH AOH20160222073012102/22/16 07:30:31  5-MIN KAOH 221230Z AUTO 06003KT 4SM BR CLR M03/M04 A3016 760 92 -1100 070/03 RMK AO2 I1000 T10281039 $
04850KAOH AOH20160222073512102/22/16 07:35:31  5-MIN KAOH 221235Z AUTO 07004KT 4SM BR CLR M03/M04 A3015 760 96 -1200 070/04 RMK AO2 I1000 T10331039 $
04850KAOH AOH20160222074012102/22/16 07:40:31  5-MIN KAOH 221240Z AUTO 07004KT 4SM BR CLR M03/M04 A3016 760 96 -1200 080/04 RMK AO2 I1000 T10331039 $
04850KAOH AOH20160222074512402/22/16 07:45:31  5-MIN KAOH 221245Z AUTO 07004KT 4SM BR FEW023 M03/M03 A3016 760 96 -1100 080/04 RMK AO2 I1000 T10281033 $
04850KAOH AOH20160222075013102/22/16 07:50:31  5-MIN KAOH 221250Z AUTO 07004KT 4SM BR SCT023 M03/M04 A3016 760 96 -1200 080/04 RMK AO2 SLP223 I1000 T10331039 $
04850KAOH AOH20160222075511802/22/16 07:55:31  5-MIN KAOH 221255Z AUTO 07005KT 4SM BR SCT023 M03/M03 A3015 760 96 -1100 080/05 RMK AO2 T10281033 $
04850KAOH AOH20160222080011802/22/16 08:00:31  5-MIN KAOH 221300Z AUTO 07005KT 5SM BR FEW023 M02/M03 A3015 760 92 -1100 080/05 RMK AO2 T10221033 $
04850KAOH AOH20160222080511802/22/16 08:05:31  5-MIN KAOH 221305Z AUTO 07006KT 5SM BR FEW023 M02/M03 A3016 760 96 -1100 080/06 RMK AO2 T10221028 $
04850KAOH AOH20160222081011802/22/16 08:10:31  5-MIN KAOH 221310Z AUTO 07005KT 6SM BR FEW023 M02/M03 A3016 760 96 -1100 080/05 RMK AO2 T10221028 $
04850KAOH AOH20160222081511802/22/16 08:15:31  5-MIN KAOH 221315Z AUTO 07005KT 6SM BR FEW023 M02/M02 A3016 760 96 -1000 080/05 RMK AO2 T10171022 $
04850KAOH AOH20160222082011202/22/16 08:20:31  5-MIN KAOH 221320Z AUTO 07005KT 7SM CLR M02/M02 A3016 760 96 -1000 070/05 RMK AO2 T10171022 $
04850KAOH AOH20160222082511202/22/16 08:25:31  5-MIN KAOH 221325Z AUTO 06006KT 7SM CLR M02/M02 A3016 760 96 -1000 070/06 RMK AO2 T10171022 $
04850KAOH AOH20160222083011202/22/16 08:30:31  5-MIN KAOH 221330Z AUTO 05005KT 7SM CLR M02/M02 A3017 750 96 -1000 060/05 RMK AO2 T10171022 $
04850KAOH AOH20160222083511502/22/16 08:35:31  5-MIN KAOH 221335Z AUTO 05006KT 7SM SCT004 M02/M02 A3017 750 96 -1000 050/06 RMK AO2 T10171022 $
04850KAOH AOH20160222084011802/22/16 08:40:31  5-MIN KAOH 221340Z AUTO 05008KT 5SM BR BKN004 M02/M03 A3017 740 92 -1000 050/08 RMK AO2 T10171028 $
04850KAOH AOH20160222084511802/22/16 08:45:31  5-MIN KAOH 221345Z AUTO 05006KT 4SM BR BKN004 M02/M03 A3017 740 96 -1100 060/06 RMK AO2 T10221028 $
04850KAOH AOH20160222085011202/22/16 08:50:31  5-MIN KAOH 221350Z AUTO 06008KT 2 1/2SM BR BKN003 M02/M03 A3018 740 96 -1100 070/08 RMK AO2 $
04850KAOH AOH20160222085512302/22/16 08:55:31  5-MIN KAOH 221355Z AUTO 06006KT 2 1/2SM BR OVC003 M02/M02 A3018 740 100 -1100 070/06 RMK AO2 T10221022 $
04850KAOH AOH20160222090011802/22/16 09:00:31  5-MIN KAOH 221400Z AUTO 06006KT 3SM BR OVC003 M02/M02 A3018 740 96 -1000 070/06 RMK AO2 T10171022 $
04850KAOH AOH20160222090511802/22/16 09:05:31  5-MIN KAOH 221405Z AUTO 08007KT 4SM BR OVC003 M02/M02 A3018 740 96 -1000 080/07 RMK AO2 T10171022 $
04850KAOH AOH20160222091011802/22/16 09:10:31  5-MIN KAOH 221410Z AUTO 05005KT 5SM BR OVC003 M02/M02 A3018 740 96 -1000 060/05 RMK AO2 T10171022 $
04850KAOH AOH20160222091511802/22/16 09:15:31  5-MIN KAOH 221415Z AUTO 06005KT 5SM BR OVC003 M02/M02 A3018 740 96 -1000 070/05 RMK AO2 T10171022 $
04850KAOH AOH20160222092011802/22/16 09:20:31  5-MIN KAOH 221420Z AUTO 05005KT 5SM BR OVC003 M02/M02 A3017 740 96 -1000 060/05 RMK AO2 T10171022 $
04850KAOH AOH20160222092511802/22/16 09:25:31  5-MIN KAOH 221425Z AUTO 07006KT 5SM BR OVC003 M02/M02 A3017 740 96 -1000 070/06 RMK AO2 T10171022 $
04850KAOH AOH20160222093011902/22/16 09:30:31  5-MIN KAOH 221430Z AUTO 04007KT 5SM BR OVC003 M02/M02 A3017 750 100 -1000 040/07 RMK AO2 T10171017 $
04850KAOH AOH20160222093511802/22/16 09:35:31  5-MIN KAOH 221435Z AUTO 03007KT 5SM BR OVC003 M02/M02 A3017 740 96 -1000 040/07 RMK AO2 T10171022 $
04850KAOH AOH20160222094011802/22/16 09:40:31  5-MIN KAOH 221440Z AUTO 07006KT 6SM BR OVC003 M02/M02 A3018 740 96 -1000 070/06 RMK AO2 T10171022 $
04850KAOH AOH20160222094511802/22/16 09:45:31  5-MIN KAOH 221445Z AUTO 06006KT 6SM BR OVC003 M02/M02 A3018 740 96 -1000 060/06 RMK AO2 T10171022 $
04850KAOH AOH20160222095013802/22/16 09:50:31  5-MIN KAOH 221450Z AUTO 03007KT 6SM BR OVC004 M02/M02 A3018 740 100 -1000 030/07 RMK AO2 SLP228 I3/// T10171017 51012 $
04850KAOH AOH20160222095511802/22/16 09:55:31  5-MIN KAOH 221455Z AUTO 03007KT 6SM BR OVC004 M02/M02 A3017 740 96 -1000 030/07 RMK AO2 T10171022 $
04850KAOH AOH20160222100011802/22/16 10:00:31  5-MIN KAOH 221500Z AUTO 03007KT 5SM BR OVC004 M02/M02 A3018 740 96 -1000 040/07 RMK AO2 T10171022 $
04850KAOH AOH20160222100511802/22/16 10:05:31  5-MIN KAOH 221505Z AUTO 01007KT 5SM BR OVC004 M02/M02 A3017 740 96 -1000 020/07 RMK AO2 T10171022 $
04850KAOH AOH20160222101011802/22/16 10:10:31  5-MIN KAOH 221510Z AUTO 04007KT 6SM BR OVC004 M01/M02 A3017 750 92 -1000 040/07 RMK AO2 T10111022 $
04850KAOH AOH20160222101511402/22/16 10:15:31  5-MIN KAOH 221515Z AUTO 03006KT 7SM BKN003 M01/M02 A3017 740 92 -900 040/06 RMK AO2 T10061017 $
04850KAOH AOH20160222102011402/22/16 10:20:31  5-MIN KAOH 221520Z AUTO 03007KT 9SM BKN003 M01/M01 A3018 740 96 -900 040/07 RMK AO2 T10061011 $
04850KAOH AOH20160222102511502/22/16 10:25:31  5-MIN KAOH 221525Z AUTO 05006KT 10SM BKN003 M01/M02 A3018 740 92 -900 060/06 RMK AO2 T10061017 $
04850KAOH AOH20160222103012602/22/16 10:30:31  5-MIN KAOH 221530Z AUTO 04007KT 10SM BKN003 01/M01 A3017 750 89 -700 050/07 RMK AO2 CIG 003V006 T00061011 $
04850KAOH AOH20160222103511402/22/16 10:35:31  5-MIN KAOH 221535Z AUTO 06007KT 10SM SCT004 01/M01 A3017 750 89 -700 060/07 RMK AO2 T00061011 $
04850KAOH AOH20160222104011402/22/16 10:40:31  5-MIN KAOH 221540Z AUTO 06008KT 10SM FEW004 01/M01 A3017 750 89 -700 070/08 RMK AO2 T00061011 $
04850KAOH AOH20160222104511402/22/16 10:45:31  5-MIN KAOH 221545Z AUTO 05007KT 10SM SCT006 00/M02 A3018 740 88 -800 060/07 RMK AO2 T00001017 $
04850KAOH AOH20160222105012102/22/16 10:50:31  5-MIN KAOH 221550Z AUTO 03007KT 10SM FEW006 00/M02 A3017 740 88 -800 030/07 RMK AO2 SLP228 T00001017 $
04850KAOH AOH20160222105511402/22/16 10:55:31  5-MIN KAOH 221555Z AUTO 04006KT 10SM FEW006 01/M01 A3017 750 89 -700 040/06 RMK AO2 T00061011 $
04850KAOH AOH20160222110011402/22/16 11:00:31  5-MIN KAOH 221600Z AUTO 03007KT 10SM FEW006 01/M01 A3017 750 89 -700 040/07 RMK AO2 T00061011 $
04850KAOH AOH20160222110511402/22/16 11:05:31  5-MIN KAOH 221605Z AUTO 03007KT 10SM FEW006 01/M01 A3017 750 85 -700 040/07 RMK AO2 T00111011 $
04850KAOH AOH20160222111011402/22/16 11:10:31  5-MIN KAOH 221610Z AUTO 03006KT 10SM FEW007 01/M01 A3017 750 85 -700 040/06 RMK AO2 T00111011 $
04850KAOH AOH20160222111511102/22/16 11:15:31  5-MIN KAOH 221615Z AUTO 06006KT 10SM CLR 02/M01 A3016 750 82 -600 070/06 RMK AO2 T00171011 $
04850KAOH AOH20160222112011102/22/16 11:20:31  5-MIN KAOH 221620Z AUTO 07008KT 10SM CLR 02/M01 A3016 750 82 -500 080/08 RMK AO2 T00221006 $
04850KAOH AOH20160222112511102/22/16 11:25:31  5-MIN KAOH 221625Z AUTO 06008KT 10SM CLR 02/M01 A3016 760 82 -600 070/08 RMK AO2 T00171011 $
04850KAOH AOH20160222113011102/22/16 11:30:31  5-MIN KAOH 221630Z AUTO 07006KT 10SM CLR 02/M01 A3016 750 78 -500 080/06 RMK AO2 T00221011 $
04850KAOH AOH20160222113511102/22/16 11:35:31  5-MIN KAOH 221635Z AUTO 07008KT 10SM CLR 02/M01 A3016 750 78 -500 080/08 RMK AO2 T00221011 $
04850KAOH AOH20160222114011102/22/16 11:40:31  5-MIN KAOH 221640Z AUTO 07009KT 10SM CLR 02/M01 A3016 760 78 -500 080/09 RMK AO2 T00221011 $
04850KAOH AOH20160222114511102/22/16 11:45:31  5-MIN KAOH 221645Z AUTO 07008KT 10SM CLR 03/M01 A3016 760 79 -500 070/08 RMK AO2 T00281006 $
04850KAOH AOH20160222115011802/22/16 11:50:31  5-MIN KAOH 221650Z AUTO 04007KT 10SM CLR 03/M01 A3016 760 79 -500 040/07 RMK AO2 SLP221 T00281006 $
04850KAOH AOH20160222115511102/22/16 11:55:31  5-MIN KAOH 221655Z AUTO 05007KT 10SM CLR 03/M01 A3016 760 79 -500 060/07 RMK AO2 T00281006 $
04850KAOH AOH20160222120011102/22/16 12:00:31  5-MIN KAOH 221700Z AUTO 05008KT 10SM CLR 03/M01 A3016 760 79 -500 060/08 RMK AO2 T00281006 $
04850KAOH AOH20160222120511102/22/16 12:05:31  5-MIN KAOH 221705Z AUTO 06010KT 10SM CLR 03/M01 A3015 760 79 -400 070/10 RMK AO2 T00281006 $
04850KAOH AOH20160222121011102/22/16 12:10:31  5-MIN KAOH 221710Z AUTO 07009KT 10SM CLR 03/M01 A3016 760 76 -400 080/09 RMK AO2 T00331006 $
04850KAOH AOH20160222121511302/22/16 12:15:31  5-MIN KAOH 221715Z AUTO 05009KT 10SM FEW015 03/00 A3016 760 79 -400 050/09 RMK AO2 T00330000 $
04850KAOH AOH20160222122011402/22/16 12:20:31  5-MIN KAOH 221720Z AUTO 06009KT 10SM SCT013 03/M01 A3016 760 76 -400 060/09 RMK AO2 T00331006 $
04850KAOH AOH20160222122511402/22/16 12:25:31  5-MIN KAOH 221725Z AUTO 07010KT 10SM FEW013 03/M01 A3015 760 76 -400 070/10 RMK AO2 T00331006 $
04850KAOH AOH20160222123011402/22/16 12:30:31  5-MIN KAOH 221730Z AUTO 06010KT 10SM FEW014 03/M01 A3015 760 72 -400 060/10 RMK AO2 T00331011 $
04850KAOH AOH20160222123511402/22/16 12:35:31  5-MIN KAOH 221735Z AUTO 05008KT 10SM SCT014 03/M01 A3015 760 76 -400 050/08 RMK AO2 T00331006 $
04850KAOH AOH20160222124011402/22/16 12:40:31  5-MIN KAOH 221740Z AUTO 04008KT 10SM SCT014 03/M01 A3015 760 79 -400 040/08 RMK AO2 T00281006 $
04850KAOH AOH20160222124511402/22/16 12:45:31  5-MIN KAOH 221745Z AUTO 06008KT 10SM FEW014 03/M01 A3016 760 75 -400 060/08 RMK AO2 T00281011 $
04850KAOH AOH20160222125014502/22/16 12:50:31  5-MIN KAOH 221750Z AUTO 07009KT 10SM FEW015 04/M01 A3015 760 73 -300 070/09 RMK AO2 SLP220 I6000 T00391006 10039 21039 50008 $
04850KAOH AOH20160222125511402/22/16 12:55:31  5-MIN KAOH 221755Z AUTO 07010KT 10SM FEW015 03/M01 A3015 760 72 -400 070/10 RMK AO2 T00331011 $
04850KAOH AOH20160222130011402/22/16 13:00:31  5-MIN KAOH 221800Z AUTO 08010KT 10SM FEW015 03/M01 A3015 770 76 -400 080/10 RMK AO2 T00331006 $
04850KAOH AOH20160222130511402/22/16 13:05:31  5-MIN KAOH 221805Z AUTO 07010KT 10SM FEW015 04/M01 A3014 770 73 -300 070/10 RMK AO2 T00391006 $
04850KAOH AOH20160222131011402/22/16 13:10:31  5-MIN KAOH 221810Z AUTO 06010KT 10SM FEW017 04/M01 A3014 780 73 -300 060/10 RMK AO2 T00391006 $
04850KAOH AOH20160222131511402/22/16 13:15:31  5-MIN KAOH 221815Z AUTO 06010KT 10SM FEW017 04/M01 A3013 780 73 -300 070/10 RMK AO2 T00391006 $
04850KAOH AOH20160222132011402/22/16 13:20:31  5-MIN KAOH 221820Z AUTO 07010KT 10SM FEW017 04/M01 A3013 780 73 -300 080/10 RMK AO2 T00391006 $
04850KAOH AOH20160222132511402/22/16 13:25:31  5-MIN KAOH 221825Z AUTO 05008KT 10SM FEW017 04/M01 A3013 780 73 -300 060/08 RMK AO2 T00391006 $
04850KAOH AOH20160222133011402/22/16 13:30:31  5-MIN KAOH 221830Z AUTO 05011KT 10SM FEW017 04/M01 A3013 780 73 -300 060/11 RMK AO2 T00391006 $
04850KAOH AOH20160222133511402/22/16 13:35:31  5-MIN KAOH 221835Z AUTO 06010KT 10SM FEW017 04/M01 A3013 780 73 -300 070/10 RMK AO2 T00391006 $
04850KAOH AOH20160222134011402/22/16 13:40:31  5-MIN KAOH 221840Z AUTO 08010KT 10SM FEW017 04/M01 A3013 780 70 -200 080/10 RMK AO2 T00441006 $
04850KAOH AOH20160222134511302/22/16 13:45:31  5-MIN KAOH 221845Z AUTO 08009KT 10SM FEW017 05/00 A3013 780 70 -100 080/09 RMK AO2 T00500000 $
04850KAOH AOH20160222135012002/22/16 13:50:31  5-MIN KAOH 221850Z AUTO 05010KT 10SM SCT017 05/01 A3012 790 73 -100 050/10 RMK AO2 SLP210 T00500006 $
04850KAOH AOH20160222135511302/22/16 13:55:31  5-MIN KAOH 221855Z AUTO 05010KT 10SM SCT017 04/00 A3012 790 73 -200 060/10 RMK AO2 T00440000 $
04850KAOH AOH20160222140011402/22/16 14:00:31  5-MIN KAOH 221900Z AUTO 07010KT 10SM SCT018 04/M01 A3012 790 70 -200 080/10 RMK AO2 T00441006 $
04850KAOH AOH20160222140511402/22/16 14:05:31  5-MIN KAOH 221905Z AUTO 04008KT 10SM FEW018 04/M01 A3012 790 67 -200 050/08 RMK AO2 T00441011 $
04850KAOH AOH20160222141011402/22/16 14:10:31  5-MIN KAOH 221910Z AUTO 06010KT 10SM FEW018 05/M01 A3012 790 67 -100 060/10 RMK AO2 T00501006 $
04850KAOH AOH20160222141511402/22/16 14:15:31  5-MIN KAOH 221915Z AUTO 08008KT 10SM FEW018 04/M01 A3012 800 70 -200 090/08 RMK AO2 T00441006 $
04850KAOH AOH20160222142011302/22/16 14:20:31  5-MIN KAOH 221920Z AUTO 08009KT 10SM FEW018 06/00 A3012 800 67 -100 080/09 RMK AO2 T00560000 $
04850KAOH AOH20160222142511402/22/16 14:25:31  5-MIN KAOH 221925Z AUTO 03010KT 10SM FEW020 05/M01 A3012 800 67 -100 030/10 RMK AO2 T00501006 $
04850KAOH AOH20160222143011402/22/16 14:30:31  5-MIN KAOH 221930Z AUTO 05008KT 10SM FEW020 05/M01 A3012 800 67 -100 060/08 RMK AO2 T00501006 $
04850KAOH AOH20160222143511402/22/16 14:35:31  5-MIN KAOH 221935Z AUTO 03008KT 10SM FEW021 05/M01 A3012 800 67 -100 030/08 RMK AO2 T00501006 $
04850KAOH AOH20160222144011402/22/16 14:40:31  5-MIN KAOH 221940Z AUTO 05007KT 10SM FEW021 05/M01 A3012 800 67 -100 060/07 RMK AO2 T00501006 $
04850KAOH AOH20160222144511402/22/16 14:45:31  5-MIN KAOH 221945Z AUTO 03010KT 10SM FEW021 06/M01 A3012 800 65 -100 040/10 RMK AO2 T00561006 $
04850KAOH AOH20160222145012102/22/16 14:50:31  5-MIN KAOH 221950Z AUTO 06008KT 10SM FEW023 05/M01 A3012 800 64 -100 060/08 RMK AO2 SLP207 T00501011 $
04850KAOH AOH20160222145511102/22/16 14:55:31  5-MIN KAOH 221955Z AUTO 07010KT 10SM CLR 06/M01 A3012 800 62 -100 080/10 RMK AO2 T00561011 $
04850KAOH AOH20160222150011402/22/16 15:00:31  5-MIN KAOH 222000Z AUTO 07009KT 10SM FEW027 06/M01 A3012 800 62 -100 080/09 RMK AO2 T00561011 $
04850KAOH AOH20160222150511102/22/16 15:05:31  5-MIN KAOH 222005Z AUTO 06008KT 10SM FEW027 06/M01 A3012 800 60 0 060/08 RMK AO2 T00611011 $
04850KAOH AOH20160222151010802/22/16 15:10:31  5-MIN KAOH 222010Z AUTO 06008KT 10SM CLR 06/M01 A3012 800 60 0 070/08 RMK AO2 T00611011 $
04850KAOH AOH20160222151510802/22/16 15:15:31  5-MIN KAOH 222015Z AUTO 03007KT 10SM CLR 06/M01 A3011 800 60 0 040/07 RMK AO2 T00611011 $
04850KAOH AOH20160222152011102/22/16 15:20:31  5-MIN KAOH 222020Z AUTO 04012KT 10SM CLR 06/M02 A3011 810 59 -100 040/12 RMK AO2 T00561017 $
04850KAOH AOH20160222152510602/22/16 15:25:31  5-MIN KAOH 222025Z AUTO 02008KT 10SM CLR 06/M02 A3011 800 57 0 030/08 RMK AO2 T00611017
04850KAOH AOH20160222153010602/22/16 15:30:31  5-MIN KAOH 222030Z AUTO 05008KT 10SM CLR 06/M01 A3011 800 60 0 060/08 RMK AO2 T00611011
04850KAOH AOH20160222153510602/22/16 15:35:31  5-MIN KAOH 222035Z AUTO 03012KT 10SM CLR 06/M01 A3011 810 60 0 040/12 RMK AO2 T00611011
04850KAOH AOH20160222154010602/22/16 15:40:31  5-MIN KAOH 222040Z AUTO 05009KT 10SM CLR 06/M02 A3011 810 57 0 060/09 RMK AO2 T00611017
04850KAOH AOH20160222154512202/22/16 15:45:31  5-MIN KAOH 222045Z AUTO 05007KT 020V080 10SM CLR 06/M02 A3011 810 57 0 060/07 030V090 RMK AO2 T00611017
04850KAOH AOH20160222155012202/22/16 15:50:31  5-MIN KAOH 222050Z AUTO 02011KT 10SM FEW030 06/M01 A3011 800 60 0 020/11 RMK AO2 SLP202 T00611011 58007
04850KAOH AOH20160222155510902/22/16 15:55:31  5-MIN KAOH 222055Z AUTO 03011KT 10SM SCT032 07/M01 A3011 800 60 0 040/11 RMK AO2 T00671006
04850KAOH AOH20160222160010902/22/16 16:00:31  5-MIN KAOH 222100Z AUTO 04008KT 10SM FEW032 06/M01 A3011 800 60 0 050/08 RMK AO2 T00611011
04850KAOH AOH20160222160510902/22/16 16:05:31  5-MIN KAOH 222105Z AUTO 04008KT 10SM FEW032 07/M01 A3011 800 57 0 050/08 RMK AO2 T00671011
04850KAOH AOH20160222161010902/22/16 16:10:31  5-MIN KAOH 222110Z AUTO 05009KT 10SM FEW032 07/M01 A3011 800 57 0 050/09 RMK AO2 T00671011
04850KAOH AOH20160222161510902/22/16 16:15:31  5-MIN KAOH 222115Z AUTO 03009KT 10SM SCT032 06/M01 A3011 800 62 0 030/09 RMK AO2 T00611006
04850KAOH AOH20160222162010902/22/16 16:20:31  5-MIN KAOH 222120Z AUTO 05009KT 10SM SCT032 06/M01 A3011 810 60 0 050/09 RMK AO2 T00611011
04850KAOH AOH20160222162510902/22/16 16:25:31  5-MIN KAOH 222125Z AUTO 04007KT 10SM FEW031 06/M01 A3010 810 62 0 050/07 RMK AO2 T00561011
04850KAOH AOH20160222163010902/22/16 16:30:31  5-MIN KAOH 222130Z AUTO 06010KT 10SM FEW031 06/M01 A3010 810 60 0 060/10 RMK AO2 T00611011
04850KAOH AOH20160222163510902/22/16 16:35:31  5-MIN KAOH 222135Z AUTO 04011KT 10SM FEW031 06/M01 A3010 810 62 0 040/11 RMK AO2 T00611006
04850KAOH AOH20160222164010902/22/16 16:40:31  5-MIN KAOH 222140Z AUTO 05010KT 10SM FEW031 06/M01 A3010 810 62 0 050/10 RMK AO2 T00561011
04850KAOH AOH20160222164510902/22/16 16:45:31  5-MIN KAOH 222145Z AUTO 03011KT 10SM FEW031 06/M01 A3010 820 60 0 030/11 RMK AO2 T00611011
04850KAOH AOH20160222165011602/22/16 16:50:31  5-MIN KAOH 222150Z AUTO 05010KT 10SM SCT031 06/M02 A3009 820 59 0 050/10 RMK AO2 SLP200 T00561017
04850KAOH AOH20160222165510902/22/16 16:55:31  5-MIN KAOH 222155Z AUTO 06009KT 10SM FEW031 06/M02 A3009 820 59 0 070/09 RMK AO2 T00561017
04850KAOH AOH20160222170010902/22/16 17:00:31  5-MIN KAOH 222200Z AUTO 05010KT 10SM FEW032 06/M01 A3009 820 62 0 050/10 RMK AO2 T00561011
04850KAOH AOH20160222170510902/22/16 17:05:31  5-MIN KAOH 222205Z AUTO 06010KT 10SM SCT032 06/M01 A3009 820 62 0 060/10 RMK AO2 T00561011
04850KAOH AOH20160222171010902/22/16 17:10:31  5-MIN KAOH 222210Z AUTO 06009KT 10SM SCT032 06/M01 A3009 820 62 0 060/09 RMK AO2 T00561011
04850KAOH AOH20160222171510902/22/16 17:15:31  5-MIN KAOH 222215Z AUTO 05009KT 10SM FEW032 06/M02 A3009 820 59 0 060/09 RMK AO2 T00561017
04850KAOH AOH20160222172011202/22/16 17:20:31  5-MIN KAOH 222220Z AUTO 05009KT 10SM FEW032 05/M02 A3009 820 62 -100 060/09 RMK AO2 T00501017
04850KAOH AOH20160222172511202/22/16 17:25:31  5-MIN KAOH 222225Z AUTO 05010KT 10SM FEW032 05/M02 A3009 820 62 -100 050/10 RMK AO2 T00501017
04850KAOH AOH20160222173011202/22/16 17:30:31  5-MIN KAOH 222230Z AUTO 04011KT 10SM FEW032 05/M02 A3009 820 62 -100 050/11 RMK AO2 T00501017
04850KAOH AOH20160222173510902/22/16 17:35:31  5-MIN KAOH 222235Z AUTO 04011KT 10SM CLR 05/M02 A3009 820 62 -100 050/11 RMK AO2 T00501017
04850KAOH AOH20160222174010902/22/16 17:40:31  5-MIN KAOH 222240Z AUTO 04010KT 10SM CLR 04/M02 A3009 820 64 -200 050/10 RMK AO2 T00441017
04850KAOH AOH20160222174510902/22/16 17:45:31  5-MIN KAOH 222245Z AUTO 05010KT 10SM CLR 04/M02 A3009 830 64 -200 050/10 RMK AO2 T00441017
04850KAOH AOH20160222175011602/22/16 17:50:31  5-MIN KAOH 222250Z AUTO 06010KT 10SM CLR 04/M02 A3009 820 64 -200 060/10 RMK AO2 SLP198 T00441017
04850KAOH AOH20160222175510902/22/16 17:55:31  5-MIN KAOH 222255Z AUTO 05009KT 10SM CLR 04/M02 A3009 820 64 -200 060/09 RMK AO2 T00441017
04850KAOH AOH20160222180010902/22/16 18:00:31  5-MIN KAOH 222300Z AUTO 05011KT 10SM CLR 04/M02 A3009 820 67 -200 050/11 RMK AO2 T00391017
04850KAOH AOH20160222180510902/22/16 18:05:31  5-MIN KAOH 222305Z AUTO 06011KT 10SM CLR 03/M02 A3009 820 70 -300 070/11 RMK AO2 T00331017
04850KAOH AOH20160222181010902/22/16 18:10:31  5-MIN KAOH 222310Z AUTO 06010KT 10SM CLR 03/M02 A3009 820 70 -300 060/10 RMK AO2 T00331017
04850KAOH AOH20160222181510902/22/16 18:15:31  5-MIN KAOH 222315Z AUTO 06008KT 10SM CLR 03/M02 A3009 820 72 -400 070/08 RMK AO2 T00281017
04850KAOH AOH20160222182010902/22/16 18:20:31  5-MIN KAOH 222320Z AUTO 06009KT 10SM CLR 03/M02 A3010 810 72 -400 060/09 RMK AO2 T00281017
04850KAOH AOH20160222182510902/22/16 18:25:31  5-MIN KAOH 222325Z AUTO 06008KT 10SM CLR 03/M02 A3010 810 69 -400 060/08 RMK AO2 T00281022
04850KAOH AOH20160222183010902/22/16 18:30:31  5-MIN KAOH 222330Z AUTO 05008KT 10SM CLR 02/M02 A3010 810 72 -500 060/08 RMK AO2 T00221022
04850KAOH AOH20160222183510902/22/16 18:35:31  5-MIN KAOH 222335Z AUTO 05007KT 10SM CLR 02/M02 A3010 810 72 -500 060/07 RMK AO2 T00221022
04850KAOH AOH20160222184010902/22/16 18:40:31  5-MIN KAOH 222340Z AUTO 05009KT 10SM CLR 02/M02 A3010 810 72 -500 060/09 RMK AO2 T00221022
04850KAOH AOH20160222184510902/22/16 18:45:31  5-MIN KAOH 222345Z AUTO 05010KT 10SM CLR 02/M03 A3010 810 69 -500 060/10 RMK AO2 T00221028
04850KAOH AOH20160222185013402/22/16 18:50:31  5-MIN KAOH 222350Z AUTO 05009KT 10SM CLR 02/M03 A3010 810 69 -500 050/09 RMK AO2 SLP203 T00221028 10067 20022 56015
04850KAOH AOH20160222185510902/22/16 18:55:31  5-MIN KAOH 222355Z AUTO 05008KT 10SM CLR 02/M03 A3010 810 69 -500 050/08 RMK AO2 T00221028
04850KAOH AOH20160222190010902/22/16 19:00:31  5-MIN KAOH 230000Z AUTO 05007KT 10SM CLR 02/M03 A3010 810 72 -500 050/07 RMK AO2 T00171028
04850KAOH AOH20160222190510902/22/16 19:05:31  5-MIN KAOH 230005Z AUTO 05009KT 10SM CLR 02/M03 A3010 810 72 -500 050/09 RMK AO2 T00171028
04850KAOH AOH20160222191010902/22/16 19:10:31  5-MIN KAOH 230010Z AUTO 05009KT 10SM CLR 02/M03 A3011 810 72 -500 060/09 RMK AO2 T00171028
04850KAOH AOH20160222191510902/22/16 19:15:31  5-MIN KAOH 230015Z AUTO 06009KT 10SM CLR 02/M03 A3011 800 72 -500 060/09 RMK AO2 T00171028
04850KAOH AOH20160222192010902/22/16 19:20:31  5-MIN KAOH 230020Z AUTO 05009KT 10SM CLR 01/M03 A3011 800 72 -600 060/09 RMK AO2 T00111033
04850KAOH AOH20160222192510902/22/16 19:25:31  5-MIN KAOH 230025Z AUTO 05008KT 10SM CLR 01/M03 A3011 800 72 -600 060/08 RMK AO2 T00111033
04850KAOH AOH20160222193010902/22/16 19:30:31  5-MIN KAOH 230030Z AUTO 05008KT 10SM CLR 01/M03 A3011 800 72 -600 050/08 RMK AO2 T00111033
04850KAOH AOH20160222193510902/22/16 19:35:31  5-MIN KAOH 230035Z AUTO 05008KT 10SM CLR 01/M03 A3011 800 72 -600 050/08 RMK AO2 T00111033
04850KAOH AOH20160222194010902/22/16 19:40:31  5-MIN KAOH 230040Z AUTO 05008KT 10SM CLR 01/M03 A3012 800 72 -600 050/08 RMK AO2 T00111033
04850KAOH AOH20160222194510902/22/16 19:45:31  5-MIN KAOH 230045Z AUTO 05008KT 10SM CLR 01/M03 A3012 800 75 -700 060/08 RMK AO2 T00061033
04850KAOH AOH20160222195011602/22/16 19:50:31  5-MIN KAOH 230050Z AUTO 05007KT 10SM CLR 01/M03 A3012 800 75 -700 050/07 RMK AO2 SLP209 T00061033
04850KAOH AOH20160222195510902/22/16 19:55:31  5-MIN KAOH 230055Z AUTO 05007KT 10SM CLR 01/M03 A3012 790 75 -700 050/07 RMK AO2 T00061033
04850KAOH AOH20160222200010902/22/16 20:00:31  5-MIN KAOH 230100Z AUTO 04007KT 10SM CLR 01/M03 A3012 790 75 -700 040/07 RMK AO2 T00061033
04850KAOH AOH20160222200510902/22/16 20:05:31  5-MIN KAOH 230105Z AUTO 05009KT 10SM CLR 00/M03 A3012 790 78 -800 060/09 RMK AO2 T00001033
04850KAOH AOH20160222201010902/22/16 20:10:31  5-MIN KAOH 230110Z AUTO 05007KT 10SM CLR 00/M03 A3012 790 78 -800 060/07 RMK AO2 T00001033
04850KAOH AOH20160222201510902/22/16 20:15:31  5-MIN KAOH 230115Z AUTO 05009KT 10SM CLR 00/M03 A3012 790 78 -800 060/09 RMK AO2 T00001033
04850KAOH AOH20160222202010902/22/16 20:20:31  5-MIN KAOH 230120Z AUTO 06008KT 10SM CLR 00/M03 A3012 790 78 -800 060/08 RMK AO2 T00001033
04850KAOH AOH20160222202510902/22/16 20:25:31  5-MIN KAOH 230125Z AUTO 06007KT 10SM CLR 00/M03 A3012 790 78 -800 060/07 RMK AO2 T00001033
04850KAOH AOH20160222203011002/22/16 20:30:31  5-MIN KAOH 230130Z AUTO 05008KT 10SM CLR M01/M03 A3013 790 81 -800 060/08 RMK AO2 T10061033
04850KAOH AOH20160222203511002/22/16 20:35:31  5-MIN KAOH 230135Z AUTO 05008KT 10SM CLR M01/M03 A3013 790 81 -800 050/08 RMK AO2 T10061033
04850KAOH AOH20160222204011002/22/16 20:40:31  5-MIN KAOH 230140Z AUTO 05010KT 10SM CLR M01/M03 A3013 790 81 -800 060/10 RMK AO2 T10061033
04850KAOH AOH20160222204511002/22/16 20:45:31  5-MIN KAOH 230145Z AUTO 05009KT 10SM CLR M01/M03 A3013 790 81 -800 060/09 RMK AO2 T10061033
04850KAOH AOH20160222205011702/22/16 20:50:31  5-MIN KAOH 230150Z AUTO 04010KT 10SM CLR M01/M03 A3013 790 81 -800 050/10 RMK AO2 SLP213 T10061033
04850KAOH AOH20160222205511002/22/16 20:55:31  5-MIN KAOH 230155Z AUTO 05010KT 10SM CLR M01/M03 A3013 790 81 -800 050/10 RMK AO2 T10061033
04850KAOH AOH20160222210011002/22/16 21:00:31  5-MIN KAOH 230200Z AUTO 05009KT 10SM CLR M01/M03 A3013 790 85 -900 050/09 RMK AO2 T10111033
04850KAOH AOH20160222210511002/22/16 21:05:31  5-MIN KAOH 230205Z AUTO 05009KT 10SM CLR M01/M04 A3013 790 81 -900 050/09 RMK AO2 T10111039
04850KAOH AOH20160222211011002/22/16 21:10:31  5-MIN KAOH 230210Z AUTO 05009KT 10SM CLR M01/M04 A3013 790 81 -900 050/09 RMK AO2 T10111039
04850KAOH AOH20160222211511002/22/16 21:15:31  5-MIN KAOH 230215Z AUTO 05008KT 10SM CLR M01/M04 A3013 790 81 -900 060/08 RMK AO2 T10111039
04850KAOH AOH20160222212011002/22/16 21:20:31  5-MIN KAOH 230220Z AUTO 05008KT 10SM CLR M01/M04 A3013 790 81 -900 050/08 RMK AO2 T10111039
04850KAOH AOH20160222212511002/22/16 21:25:31  5-MIN KAOH 230225Z AUTO 04010KT 10SM CLR M01/M04 A3013 790 81 -900 050/10 RMK AO2 T10111039
04850KAOH AOH20160222213011002/22/16 21:30:31  5-MIN KAOH 230230Z AUTO 04009KT 10SM CLR M01/M04 A3013 790 81 -900 050/09 RMK AO2 T10111039
04850KAOH AOH20160222213511102/22/16 21:35:31  5-MIN KAOH 230235Z AUTO 05008KT 10SM CLR M02/M04 A3013 790 85 -1000 050/08 RMK AO2 T10171039
04850KAOH AOH20160222214011102/22/16 21:40:31  5-MIN KAOH 230240Z AUTO 05008KT 10SM CLR M02/M04 A3012 790 81 -1000 060/08 RMK AO2 T10171044
04850KAOH AOH20160222214511102/22/16 21:45:31  5-MIN KAOH 230245Z AUTO 05007KT 10SM CLR M02/M04 A3012 790 81 -1000 050/07 RMK AO2 T10171044
04850KAOH AOH20160222215012402/22/16 21:50:31  5-MIN KAOH 230250Z AUTO 05009KT 10SM CLR M02/M04 A3012 790 81 -1000 060/09 RMK AO2 SLP211 T10171044 55002
04850KAOH AOH20160222215511102/22/16 21:55:31  5-MIN KAOH 230255Z AUTO 05008KT 10SM CLR M02/M04 A3012 790 81 -1000 050/08 RMK AO2 T10171044
04850KAOH AOH20160222220011102/22/16 22:00:31  5-MIN KAOH 230300Z AUTO 05008KT 10SM CLR M02/M05 A3012 790 78 -1000 060/08 RMK AO2 T10171050
04850KAOH AOH20160222220511102/22/16 22:05:31  5-MIN KAOH 230305Z AUTO 05008KT 10SM CLR M02/M05 A3012 790 78 -1000 060/08 RMK AO2 T10171050
04850KAOH AOH20160222221011102/22/16 22:10:31  5-MIN KAOH 230310Z AUTO 05009KT 10SM CLR M02/M05 A3012 790 78 -1000 060/09 RMK AO2 T10171050
04850KAOH AOH20160222221511102/22/16 22:15:31  5-MIN KAOH 230315Z AUTO 05008KT 10SM CLR M02/M05 A3012 790 78 -1000 060/08 RMK AO2 T10171050
04850KAOH AOH20160222222011102/22/16 22:20:31  5-MIN KAOH 230320Z AUTO 06009KT 10SM CLR M02/M05 A3012 790 78 -1000 060/09 RMK AO2 T10171050
04850KAOH AOH20160222222511102/22/16 22:25:31  5-MIN KAOH 230325Z AUTO 06009KT 10SM CLR M02/M06 A3012 800 75 -1000 060/09 RMK AO2 T10171056
04850KAOH AOH20160222223011102/22/16 22:30:31  5-MIN KAOH 230330Z AUTO 06010KT 10SM CLR M02/M06 A3012 800 75 -1000 070/10 RMK AO2 T10171056
04850KAOH AOH20160222223511102/22/16 22:35:31  5-MIN KAOH 230335Z AUTO 06010KT 10SM CLR M02/M06 A3012 800 75 -1000 060/10 RMK AO2 T10171056
04850KAOH AOH20160222224011102/22/16 22:40:31  5-MIN KAOH 230340Z AUTO 06009KT 10SM CLR M02/M06 A3012 800 75 -1000 060/09 RMK AO2 T10171056
04850KAOH AOH20160222224511102/22/16 22:45:31  5-MIN KAOH 230345Z AUTO 06008KT 10SM CLR M02/M06 A3012 800 78 -1000 060/08 RMK AO2 T10221056
04850KAOH AOH20160222225011802/22/16 22:50:31  5-MIN KAOH 230350Z AUTO 05009KT 10SM CLR M02/M06 A3011 800 78 -1000 060/09 RMK AO2 SLP208 T10221056
04850KAOH AOH20160222225511102/22/16 22:55:31  5-MIN KAOH 230355Z AUTO 05009KT 10SM CLR M02/M06 A3011 800 78 -1000 060/09 RMK AO2 T10221056
04850KAOH AOH20160222230011102/22/16 23:00:31  5-MIN KAOH 230400Z AUTO 05008KT 10SM CLR M02/M06 A3011 800 78 -1000 060/08 RMK AO2 T10221056
04850KAOH AOH20160222230511102/22/16 23:05:31  5-MIN KAOH 230405Z AUTO 05008KT 10SM CLR M02/M06 A3011 800 75 -1000 060/08 RMK AO2 T10221061
04850KAOH AOH20160222231011102/22/16 23:10:31  5-MIN KAOH 230410Z AUTO 05008KT 10SM CLR M02/M06 A3011 800 75 -1000 050/08 RMK AO2 T10221061
04850KAOH AOH20160222231511102/22/16 23:15:31  5-MIN KAOH 230415Z AUTO 06006KT 10SM CLR M02/M06 A3011 800 75 -1000 060/06 RMK AO2 T10221061
04850KAOH AOH20160222232011102/22/16 23:20:31  5-MIN KAOH 230420Z AUTO 05007KT 10SM CLR M02/M06 A3011 800 75 -1000 060/07 RMK AO2 T10221061
04850KAOH AOH20160222232511102/22/16 23:25:31  5-MIN KAOH 230425Z AUTO 06007KT 10SM CLR M02/M06 A3011 800 75 -1000 070/07 RMK AO2 T10221061
04850KAOH AOH20160222233011102/22/16 23:30:31  5-MIN KAOH 230430Z AUTO 05009KT 10SM CLR M02/M06 A3011 800 75 -1000 060/09 RMK AO2 T10221061
04850KAOH AOH20160222233511102/22/16 23:35:31  5-MIN KAOH 230435Z AUTO 05007KT 10SM CLR M02/M06 A3011 800 75 -1000 060/07 RMK AO2 T10221061
04850KAOH AOH20160222234011102/22/16 23:40:31  5-MIN KAOH 230440Z AUTO 05010KT 10SM CLR M02/M06 A3011 800 75 -1000 060/10 RMK AO2 T10221061
04850KAOH AOH20160222234511102/22/16 23:45:31  5-MIN KAOH 230445Z AUTO 06008KT 10SM CLR M02/M06 A3011 800 75 -1000 060/08 RMK AO2 T10221061
04850KAOH AOH20160222235012802/22/16 23:50:31  5-MIN KAOH 230450Z AUTO 06008KT 10SM CLR M02/M06 A3011 800 75 -1000 070/08 RMK AO2 SLP206 T10221061 400671039
04850KAOH AOH20160222235511102/22/16 23:55:31  5-MIN KAOH 230455Z AUTO 06009KT 10SM CLR M02/M06 A3011 800 75 -1000 070/09 RMK AO2 T10221061
04850KAOH AOH20160223000011102/23/16 00:00:31  5-MIN KAOH 230500Z AUTO 06010KT 10SM CLR M02/M06 A3011 800 75 -1000 070/10 RMK AO2 T10221061
04850KAOH AOH20160223000511102/23/16 00:05:31  5-MIN KAOH 230505Z AUTO 06009KT 10SM CLR M02/M06 A3011 810 75 -1000 060/09 RMK AO2 T10221061
04850KAOH AOH20160223001011102/23/16 00:10:31  5-MIN KAOH 230510Z AUTO 06008KT 10SM CLR M02/M06 A3011 810 75 -1000 070/08 RMK AO2 T10221061
04850KAOH AOH20160223001511102/23/16 00:15:31  5-MIN KAOH 230515Z AUTO 07009KT 10SM CLR M02/M06 A3010 810 75 -1000 070/09 RMK AO2 T10221061
04850KAOH AOH20160223002011102/23/16 00:20:31  5-MIN KAOH 230520Z AUTO 06008KT 10SM CLR M02/M07 A3011 810 72 -1000 070/08 RMK AO2 T10221067
04850KAOH AOH20160223002511102/23/16 00:25:31  5-MIN KAOH 230525Z AUTO 05008KT 10SM CLR M02/M07 A3011 810 72 -1000 060/08 RMK AO2 T10221067
04850KAOH AOH20160223003011102/23/16 00:30:31  5-MIN KAOH 230530Z AUTO 06008KT 10SM CLR M02/M07 A3011 810 72 -1000 060/08 RMK AO2 T10221067
04850KAOH AOH20160223003511102/23/16 00:35:31  5-MIN KAOH 230535Z AUTO 06008KT 10SM CLR M02/M07 A3010 810 72 -1000 060/08 RMK AO2 T10221067
04850KAOH AOH20160223004011102/23/16 00:40:31  5-MIN KAOH 230540Z AUTO 06008KT 10SM CLR M02/M07 A3010 810 72 -1000 070/08 RMK AO2 T10221067
04850KAOH AOH20160223004511102/23/16 00:45:31  5-MIN KAOH 230545Z AUTO 06007KT 10SM CLR M02/M07 A3010 810 72 -1000 060/07 RMK AO2 T10221067
04850KAOH AOH20160223005013602/23/16 00:50:31  5-MIN KAOH 230550Z AUTO 06008KT 10SM CLR M03/M07 A3010 810 75 -1100 070/08 RMK AO2 SLP202 T10281067 10022 21028 50007
04850KAOH AOH20160223005511102/23/16 00:55:31  5-MIN KAOH 230555Z AUTO 06008KT 10SM CLR M03/M07 A3010 810 75 -1100 060/08 RMK AO2 T10281067
04850KAOH AOH20160223010011102/23/16 01:00:31  5-MIN KAOH 230600Z AUTO 06006KT 10SM CLR M03/M07 A3010 810 75 -1100 060/06 RMK AO2 T10281067
04850KAOH AOH20160223010511102/23/16 01:05:31  5-MIN KAOH 230605Z AUTO 06006KT 10SM CLR M03/M07 A3010 810 75 -1100 070/06 RMK AO2 T10281067
04850KAOH AOH20160223011011102/23/16 01:10:31  5-MIN KAOH 230610Z AUTO 06007KT 10SM CLR M03/M07 A3010 810 75 -1100 060/07 RMK AO2 T10281067
04850KAOH AOH20160223011511102/23/16 01:15:31  5-MIN KAOH 230615Z AUTO 06008KT 10SM CLR M03/M07 A3010 810 75 -1100 060/08 RMK AO2 T10281067
04850KAOH AOH20160223012011102/23/16 01:20:31  5-MIN KAOH 230620Z AUTO 06008KT 10SM CLR M03/M07 A3010 810 75 -1100 060/08 RMK AO2 T10281067
04850KAOH AOH20160223012511102/23/16 01:25:31  5-MIN KAOH 230625Z AUTO 06009KT 10SM CLR M02/M07 A3010 810 72 -1000 070/09 RMK AO2 T10221067
04850KAOH AOH20160223013011102/23/16 01:30:31  5-MIN KAOH 230630Z AUTO 07008KT 10SM CLR M03/M07 A3010 810 75 -1100 070/08 RMK AO2 T10281067
04850KAOH AOH20160223013511102/23/16 01:35:31  5-MIN KAOH 230635Z AUTO 07009KT 10SM CLR M03/M07 A3010 810 75 -1100 080/09 RMK AO2 T10281067
04850KAOH AOH20160223014011102/23/16 01:40:31  5-MIN KAOH 230640Z AUTO 07007KT 10SM CLR M03/M07 A3010 810 75 -1100 070/07 RMK AO2 T10281067
04850KAOH AOH20160223014511102/23/16 01:45:31  5-MIN KAOH 230645Z AUTO 07009KT 10SM CLR M02/M07 A3010 810 72 -1000 080/09 RMK AO2 T10221067
04850KAOH AOH20160223015011802/23/16 01:50:31  5-MIN KAOH 230650Z AUTO 07009KT 10SM CLR M02/M07 A3010 810 72 -1000 070/09 RMK AO2 SLP201 T10221067
04850KAOH AOH20160223015511102/23/16 01:55:31  5-MIN KAOH 230655Z AUTO 07009KT 10SM CLR M02/M07 A3010 810 72 -1000 080/09 RMK AO2 T10221067
04850KAOH AOH20160223020011102/23/16 02:00:31  5-MIN KAOH 230700Z AUTO 07009KT 10SM CLR M02/M07 A3010 810 72 -1000 070/09 RMK AO2 T10221067
04850KAOH AOH20160223020511102/23/16 02:05:31  5-MIN KAOH 230705Z AUTO 06008KT 10SM CLR M02/M07 A3010 810 72 -1000 070/08 RMK AO2 T10221067
04850KAOH AOH20160223021011102/23/16 02:10:31  5-MIN KAOH 230710Z AUTO 06008KT 10SM CLR M02/M07 A3010 810 72 -1000 070/08 RMK AO2 T10221067
04850KAOH AOH20160223021511102/23/16 02:15:31  5-MIN KAOH 230715Z AUTO 06007KT 10SM CLR M02/M07 A3010 810 72 -1000 070/07 RMK AO2 T10221067
04850KAOH AOH20160223022011102/23/16 02:20:31  5-MIN KAOH 230720Z AUTO 06006KT 10SM CLR M03/M07 A3010 810 75 -1100 060/06 RMK AO2 T10281067
04850KAOH AOH20160223022511102/23/16 02:25:31  5-MIN KAOH 230725Z AUTO 06007KT 10SM CLR M03/M07 A3010 810 75 -1100 060/07 RMK AO2 T10281067
04850KAOH AOH20160223023011102/23/16 02:30:31  5-MIN KAOH 230730Z AUTO 06008KT 10SM CLR M02/M07 A3010 810 72 -1000 060/08 RMK AO2 T10221067
04850KAOH AOH20160223023511102/23/16 02:35:31  5-MIN KAOH 230735Z AUTO 05008KT 10SM CLR M02/M07 A3010 810 72 -1000 060/08 RMK AO2 T10221067
04850KAOH AOH20160223024011102/23/16 02:40:31  5-MIN KAOH 230740Z AUTO 05009KT 10SM CLR M02/M07 A3010 810 72 -1000 060/09 RMK AO2 T10221067
04850KAOH AOH20160223024511102/23/16 02:45:31  5-MIN KAOH 230745Z AUTO 06009KT 10SM CLR M02/M07 A3009 820 72 -1000 060/09 RMK AO2 T10221067
04850KAOH AOH20160223025011802/23/16 02:50:31  5-MIN KAOH 230750Z AUTO 06009KT 10SM CLR M02/M07 A3009 820 72 -1000 070/09 RMK AO2 SLP199 T10221067
04850KAOH AOH20160223025511102/23/16 02:55:31  5-MIN KAOH 230755Z AUTO 06008KT 10SM CLR M02/M07 A3009 820 72 -1000 060/08 RMK AO2 T10221067
04850KAOH AOH20160223030011102/23/16 03:00:31  5-MIN KAOH 230800Z AUTO 06008KT 10SM CLR M03/M06 A3009 820 78 -1100 070/08 RMK AO2 T10281061
04850KAOH AOH20160223030511102/23/16 03:05:31  5-MIN KAOH 230805Z AUTO 07009KT 10SM CLR M03/M06 A3009 820 78 -1100 070/09 RMK AO2 T10281061
04850KAOH AOH20160223031011102/23/16 03:10:31  5-MIN KAOH 230810Z AUTO 07009KT 10SM CLR M02/M06 A3009 820 75 -1000 080/09 RMK AO2 T10221061
04850KAOH AOH20160223031511102/23/16 03:15:31  5-MIN KAOH 230815Z AUTO 07011KT 10SM CLR M02/M06 A3008 830 75 -1000 080/11 RMK AO2 T10221061
04850KAOH AOH20160223032011102/23/16 03:20:31  5-MIN KAOH 230820Z AUTO 07011KT 10SM CLR M02/M06 A3008 830 75 -1000 070/11 RMK AO2 T10221061
04850KAOH AOH20160223032511102/23/16 03:25:31  5-MIN KAOH 230825Z AUTO 07012KT 10SM CLR M02/M06 A3008 830 75 -1000 080/12 RMK AO2 T10221061
04850KAOH AOH20160223033011102/23/16 03:30:31  5-MIN KAOH 230830Z AUTO 07011KT 10SM CLR M02/M06 A3008 830 75 -1000 070/11 RMK AO2 T10221061
04850KAOH AOH20160223033511102/23/16 03:35:31  5-MIN KAOH 230835Z AUTO 07012KT 10SM CLR M02/M06 A3008 830 75 -1000 070/12 RMK AO2 T10221061
04850KAOH AOH20160223034011102/23/16 03:40:31  5-MIN KAOH 230840Z AUTO 07012KT 10SM CLR M02/M07 A3008 830 72 -1000 070/12 RMK AO2 T10221067
04850KAOH AOH20160223034511102/23/16 03:45:31  5-MIN KAOH 230845Z AUTO 06012KT 10SM CLR M02/M07 A3008 830 72 -1000 070/12 RMK AO2 T10221067
04850KAOH AOH20160223035012302/23/16 03:50:31  5-MIN KAOH 230850Z AUTO 07012KT 10SM CLR M02/M07 A3008 830 69 -900 070/12 RMK AO2 SLP193 T10171067 56007
04850KAOH AOH20160223035511002/23/16 03:55:31  5-MIN KAOH 230855Z AUTO 07011KT 10SM CLR M02/M07 A3008 830 69 -900 080/11 RMK AO2 T10171067
04850KAOH AOH20160223040011102/23/16 04:00:31  5-MIN KAOH 230900Z AUTO 07010KT 10SM CLR M02/M06 A3008 830 75 -1000 080/10 RMK AO2 T10221061
04850KAOH AOH20160223040511102/23/16 04:05:31  5-MIN KAOH 230905Z AUTO 07009KT 10SM CLR M02/M06 A3007 840 75 -1000 080/09 RMK AO2 T10221061
04850KAOH AOH20160223041011102/23/16 04:10:31  5-MIN KAOH 230910Z AUTO 07011KT 10SM CLR M02/M06 A3007 840 75 -1000 080/11 RMK AO2 T10221061
04850KAOH AOH20160223041511102/23/16 04:15:31  5-MIN KAOH 230915Z AUTO 07011KT 10SM CLR M02/M07 A3007 840 72 -1000 080/11 RMK AO2 T10221067
04850KAOH AOH20160223042011102/23/16 04:20:31  5-MIN KAOH 230920Z AUTO 07013KT 10SM CLR M02/M07 A3007 840 72 -1000 070/13 RMK AO2 T10221067
04850KAOH AOH20160223042511002/23/16 04:25:31  5-MIN KAOH 230925Z AUTO 07012KT 10SM CLR M02/M07 A3007 840 69 -900 070/12 RMK AO2 T10171067
04850KAOH AOH20160223043011102/23/16 04:30:31  5-MIN KAOH 230930Z AUTO 07012KT 10SM CLR M02/M07 A3007 840 72 -1000 080/12 RMK AO2 T10221067
04850KAOH AOH20160223043511002/23/16 04:35:31  5-MIN KAOH 230935Z AUTO 07012KT 10SM CLR M02/M07 A3007 840 69 -900 070/12 RMK AO2 T10171067
04850KAOH AOH20160223044011002/23/16 04:40:31  5-MIN KAOH 230940Z AUTO 07013KT 10SM CLR M02/M07 A3007 840 69 -900 080/13 RMK AO2 T10171067
04850KAOH AOH20160223044511002/23/16 04:45:31  5-MIN KAOH 230945Z AUTO 07013KT 10SM CLR M02/M07 A3007 840 69 -900 080/13 RMK AO2 T10171067
04850KAOH AOH20160223045011702/23/16 04:50:31  5-MIN KAOH 230950Z AUTO 07012KT 10SM CLR M02/M07 A3007 840 69 -900 080/12 RMK AO2 SLP190 T10171067
04850KAOH AOH20160223045511002/23/16 04:55:31  5-MIN KAOH 230955Z AUTO 07012KT 10SM CLR M02/M07 A3007 840 69 -900 080/12 RMK AO2 T10171067
04850KAOH AOH20160223050011002/23/16 05:00:31  5-MIN KAOH 231000Z AUTO 07011KT 10SM CLR M02/M07 A3007 840 69 -900 070/11 RMK AO2 T10171067
04850KAOH AOH20160223050511002/23/16 05:05:31  5-MIN KAOH 231005Z AUTO 07011KT 10SM CLR M02/M07 A3006 850 69 -900 080/11 RMK AO2 T10171067
04850KAOH AOH20160223051011102/23/16 05:10:31  5-MIN KAOH 231010Z AUTO 07011KT 10SM CLR M02/M06 A3006 850 75 -1000 080/11 RMK AO2 T10221061
04850KAOH AOH20160223051511102/23/16 05:15:31  5-MIN KAOH 231015Z AUTO 07011KT 10SM CLR M02/M06 A3006 850 75 -1000 080/11 RMK AO2 T10221061
04850KAOH AOH20160223052011102/23/16 05:20:31  5-MIN KAOH 231020Z AUTO 07010KT 10SM CLR M02/M06 A3006 850 75 -1000 070/10 RMK AO2 T10221061
04850KAOH AOH20160223052511102/23/16 05:25:31  5-MIN KAOH 231025Z AUTO 07010KT 10SM CLR M02/M06 A3006 850 75 -1000 070/10 RMK AO2 T10221061
04850KAOH AOH20160223053011102/23/16 05:30:31  5-MIN KAOH 231030Z AUTO 07011KT 10SM CLR M02/M06 A3006 850 75 -1000 070/11 RMK AO2 T10221061
04850KAOH AOH20160223053511102/23/16 05:35:31  5-MIN KAOH 231035Z AUTO 07011KT 10SM CLR M02/M06 A3006 850 75 -1000 080/11 RMK AO2 T10221061
04850KAOH AOH20160223054011102/23/16 05:40:31  5-MIN KAOH 231040Z AUTO 07011KT 10SM CLR M02/M06 A3006 850 75 -1000 080/11 RMK AO2 T10221061
04850KAOH AOH20160223054511102/23/16 05:45:31  5-MIN KAOH 231045Z AUTO 07012KT 10SM CLR M02/M06 A3006 840 75 -1000 070/12 RMK AO2 T10221061
04850KAOH AOH20160223055011802/23/16 05:50:31  5-MIN KAOH 231050Z AUTO 07009KT 10SM CLR M02/M06 A3007 840 75 -1000 070/09 RMK AO2 SLP190 T10221061
04850KAOH AOH20160223055511102/23/16 05:55:31  5-MIN KAOH 231055Z AUTO 07010KT 10SM CLR M02/M06 A3007 840 75 -1000 070/10 RMK AO2 T10221061
04850KAOH AOH20160223060011102/23/16 06:00:31  5-MIN KAOH 231100Z AUTO 06009KT 10SM CLR M02/M06 A3007 840 75 -1000 070/09 RMK AO2 T10221061
04850KAOH AOH20160223060511102/23/16 06:05:31  5-MIN KAOH 231105Z AUTO 07008KT 10SM CLR M02/M06 A3007 840 75 -1000 070/08 RMK AO2 T10221061
04850KAOH AOH20160223061011102/23/16 06:10:31  5-MIN KAOH 231110Z AUTO 07008KT 10SM CLR M02/M06 A3007 840 75 -1000 070/08 RMK AO2 T10221061
04850KAOH AOH20160223061511102/23/16 06:15:31  5-MIN KAOH 231115Z AUTO 07008KT 10SM CLR M02/M06 A3007 840 75 -1000 070/08 RMK AO2 T10221061
04850KAOH AOH20160223062011102/23/16 06:20:31  5-MIN KAOH 231120Z AUTO 07009KT 10SM CLR M02/M06 A3007 840 75 -1000 070/09 RMK AO2 T10221061
04850KAOH AOH20160223062511102/23/16 06:25:31  5-MIN KAOH 231125Z AUTO 07008KT 10SM CLR M02/M06 A3007 840 75 -1000 070/08 RMK AO2 T10221061
04850KAOH AOH20160223063011102/23/16 06:30:31  5-MIN KAOH 231130Z AUTO 07009KT 10SM CLR M02/M06 A3007 840 75 -1000 080/09 RMK AO2 T10221061
04850KAOH AOH20160223063511102/23/16 06:35:31  5-MIN KAOH 231135Z AUTO 07010KT 10SM CLR M02/M06 A3007 830 75 -1000 070/10 RMK AO2 T10221061
04850KAOH AOH20160223064011102/23/16 06:40:31  5-MIN KAOH 231140Z AUTO 07009KT 10SM CLR M02/M06 A3007 840 75 -1000 070/09 RMK AO2 T10221061
04850KAOH AOH20160223064511102/23/16 06:45:31  5-MIN KAOH 231145Z AUTO 06009KT 10SM CLR M02/M06 A3007 840 75 -1000 070/09 RMK AO2 T10221061
04850KAOH AOH20160223065013602/23/16 06:50:31  5-MIN KAOH 231150Z AUTO 06008KT 10SM CLR M02/M06 A3007 840 75 -1000 070/08 RMK AO2 SLP193 T10221061 11017 21028 58008
04850KAOH AOH20160223065511102/23/16 06:55:31  5-MIN KAOH 231155Z AUTO 07008KT 10SM CLR M02/M06 A3007 840 75 -1000 070/08 RMK AO2 T10221061
04850KAOH AOH20160223070011102/23/16 07:00:31  5-MIN KAOH 231200Z AUTO 06008KT 10SM CLR M02/M06 A3007 840 75 -1000 070/08 RMK AO2 T10221061
04850KAOH AOH20160223070511102/23/16 07:05:31  5-MIN KAOH 231205Z AUTO 06009KT 10SM CLR M02/M06 A3007 840 75 -1000 070/09 RMK AO2 T10221061
04850KAOH AOH20160223071011102/23/16 07:10:31  5-MIN KAOH 231210Z AUTO 06009KT 10SM CLR M02/M06 A3007 840 75 -1000 060/09 RMK AO2 T10221061
04850KAOH AOH20160223071511102/23/16 07:15:31  5-MIN KAOH 231215Z AUTO 06008KT 10SM CLR M02/M06 A3006 850 75 -1000 060/08 RMK AO2 T10221061
04850KAOH AOH20160223072011102/23/16 07:20:31  5-MIN KAOH 231220Z AUTO 06008KT 10SM CLR M02/M06 A3006 850 75 -1000 070/08 RMK AO2 T10221061
04850KAOH AOH20160223072511102/23/16 07:25:31  5-MIN KAOH 231225Z AUTO 05008KT 10SM CLR M02/M06 A3006 850 75 -1000 060/08 RMK AO2 T10221061
04850KAOH AOH20160223073011102/23/16 07:30:31  5-MIN KAOH 231230Z AUTO 06007KT 10SM CLR M03/M06 A3006 850 78 -1000 060/07 RMK AO2 T10281061
04850KAOH AOH20160223073511102/23/16 07:35:31  5-MIN KAOH 231235Z AUTO 05008KT 10SM CLR M03/M06 A3006 850 78 -1000 060/08 RMK AO2 T10281061
04850KAOH AOH20160223074011102/23/16 07:40:31  5-MIN KAOH 231240Z AUTO 05008KT 10SM CLR M03/M06 A3007 840 78 -1000 060/08 RMK AO2 T10281061
04850KAOH AOH20160223074511102/23/16 07:45:31  5-MIN KAOH 231245Z AUTO 05008KT 10SM CLR M02/M06 A3007 840 75 -1000 060/08 RMK AO2 T10221061
04850KAOH AOH20160223075011802/23/16 07:50:31  5-MIN KAOH 231250Z AUTO 05007KT 10SM CLR M02/M06 A3007 840 75 -1000 060/07 RMK AO2 SLP192 T10221061
04850KAOH AOH20160223075511102/23/16 07:55:31  5-MIN KAOH 231255Z AUTO 06008KT 10SM CLR M02/M06 A3007 840 75 -1000 060/08 RMK AO2 T10221061
04850KAOH AOH20160223080011102/23/16 08:00:31  5-MIN KAOH 231300Z AUTO 06009KT 10SM CLR M02/M06 A3007 840 78 -1000 060/09 RMK AO2 T10221056
04850KAOH AOH20160223080511102/23/16 08:05:31  5-MIN KAOH 231305Z AUTO 06008KT 10SM CLR M02/M06 A3007 840 78 -1000 070/08 RMK AO2 T10221056
04850KAOH AOH20160223081011002/23/16 08:10:31  5-MIN KAOH 231310Z AUTO 06009KT 10SM CLR M02/M06 A3006 850 75 -900 070/09 RMK AO2 T10171056
04850KAOH AOH20160223081511002/23/16 08:15:31  5-MIN KAOH 231315Z AUTO 06008KT 10SM CLR M02/M06 A3005 860 75 -900 060/08 RMK AO2 T10171056
04850KAOH AOH20160223082011702/23/16 08:20:31  5-MIN KAOH 231320Z AUTO 06011KT 10SM CLR M02/M06 A3004 860 75 -900 070/11 RMK AO2 PRESFR T10171056
04850KAOH AOH20160223082511002/23/16 08:25:31  5-MIN KAOH 231325Z AUTO 06010KT 10SM CLR M01/M06 A3004 860 72 -800 070/10 RMK AO2 T10111056
04850KAOH AOH20160223083011002/23/16 08:30:31  5-MIN KAOH 231330Z AUTO 06011KT 10SM CLR M01/M06 A3005 860 72 -800 060/11 RMK AO2 T10111056
04850KAOH AOH20160223083511002/23/16 08:35:31  5-MIN KAOH 231335Z AUTO 04008KT 10SM CLR M01/M05 A3007 840 72 -800 050/08 RMK AO2 T10061050
04850KAOH AOH20160223084011702/23/16 08:40:31  5-MIN KAOH 231340Z AUTO 05009KT 10SM CLR M01/M05 A3008 830 72 -800 050/09 RMK AO2 PRESRR T10061050
04850KAOH AOH20160223084511002/23/16 08:45:31  5-MIN KAOH 231345Z AUTO 04008KT 10SM CLR M01/M05 A3008 830 72 -800 050/08 RMK AO2 T10061050
04850KAOH AOH20160223085011602/23/16 08:50:31  5-MIN KAOH 231350Z AUTO 05010KT 10SM CLR 00/M05 A3008 830 69 -700 050/10 RMK AO2 SLP197 T00001050
04850KAOH AOH20160223085510902/23/16 08:55:31  5-MIN KAOH 231355Z AUTO 05011KT 10SM CLR 00/M05 A3009 820 69 -700 060/11 RMK AO2 T00001050
04850KAOH AOH20160223090010902/23/16 09:00:31  5-MIN KAOH 231400Z AUTO 05010KT 10SM CLR 00/M05 A3010 810 69 -700 060/10 RMK AO2 T00001050
04850KAOH AOH20160223090511602/23/16 09:05:31  5-MIN KAOH 231405Z AUTO 06010KT 10SM CLR 01/M05 A3010 810 66 -700 060/10 RMK AO2 PRESRR T00061050
04850KAOH AOH20160223091010902/23/16 09:10:31  5-MIN KAOH 231410Z AUTO 06009KT 10SM CLR 01/M05 A3011 810 66 -700 060/09 RMK AO2 T00061050
04850KAOH AOH20160223091510902/23/16 09:15:31  5-MIN KAOH 231415Z AUTO 05010KT 10SM CLR 01/M05 A3011 810 66 -700 060/10 RMK AO2 T00061050
04850KAOH AOH20160223092010902/23/16 09:20:31  5-MIN KAOH 231420Z AUTO 06012KT 10SM CLR 01/M05 A3011 810 64 -600 060/12 RMK AO2 T00111050
04850KAOH AOH20160223092510902/23/16 09:25:31  5-MIN KAOH 231425Z AUTO 05008KT 10SM CLR 01/M05 A3010 810 64 -600 060/08 RMK AO2 T00111050
04850KAOH AOH20160223093010902/23/16 09:30:31  5-MIN KAOH 231430Z AUTO 05011KT 10SM CLR 01/M05 A3010 810 64 -600 060/11 RMK AO2 T00111050
04850KAOH AOH20160223093510902/23/16 09:35:31  5-MIN KAOH 231435Z AUTO 06012KT 10SM CLR 01/M05 A3010 810 64 -600 070/12 RMK AO2 T00111050
04850KAOH AOH20160223094010902/23/16 09:40:31  5-MIN KAOH 231440Z AUTO 06009KT 10SM CLR 02/M05 A3011 810 61 -500 070/09 RMK AO2 T00171050
04850KAOH AOH20160223094510902/23/16 09:45:31  5-MIN KAOH 231445Z AUTO 06009KT 10SM CLR 02/M05 A3010 810 61 -500 060/09 RMK AO2 T00171050
04850KAOH AOH20160223095012202/23/16 09:50:31  5-MIN KAOH 231450Z AUTO 06010KT 10SM CLR 02/M05 A3010 810 61 -500 060/10 RMK AO2 SLP203 T00171050 55001
04850KAOH AOH20160223095510902/23/16 09:55:31  5-MIN KAOH 231455Z AUTO 06012KT 10SM CLR 02/M05 A3010 810 59 -500 060/12 RMK AO2 T00221050
04850KAOH AOH20160223100010902/23/16 10:00:31  5-MIN KAOH 231500Z AUTO 07012KT 10SM CLR 02/M04 A3010 810 61 -500 080/12 RMK AO2 T00221044
04850KAOH AOH20160223100510902/23/16 10:05:31  5-MIN KAOH 231505Z AUTO 06011KT 10SM CLR 02/M04 A3010 810 61 -500 070/11 RMK AO2 T00221044
04850KAOH AOH20160223101010902/23/16 10:10:31  5-MIN KAOH 231510Z AUTO 05010KT 10SM CLR 03/M04 A3009 820 59 -400 060/10 RMK AO2 T00281044
04850KAOH AOH20160223101510902/23/16 10:15:31  5-MIN KAOH 231515Z AUTO 06010KT 10SM CLR 03/M04 A3010 820 61 -400 070/10 RMK AO2 T00281039
04850KAOH AOH20160223102010902/23/16 10:20:31  5-MIN KAOH 231520Z AUTO 05009KT 10SM CLR 03/M04 A3010 810 61 -400 060/09 RMK AO2 T00281039
04850KAOH AOH20160223102510902/23/16 10:25:31  5-MIN KAOH 231525Z AUTO 05011KT 10SM CLR 03/M04 A3009 820 59 -400 060/11 RMK AO2 T00281044
04850KAOH AOH20160223103010902/23/16 10:30:31  5-MIN KAOH 231530Z AUTO 04012KT 10SM CLR 03/M04 A3009 820 57 -300 050/12 RMK AO2 T00331044
04850KAOH AOH20160223103510902/23/16 10:35:31  5-MIN KAOH 231535Z AUTO 05012KT 10SM CLR 03/M04 A3010 820 59 -300 060/12 RMK AO2 T00331039
04850KAOH AOH20160223104010902/23/16 10:40:31  5-MIN KAOH 231540Z AUTO 06010KT 10SM CLR 04/M04 A3009 820 57 -200 070/10 RMK AO2 T00391039
04850KAOH AOH20160223104510902/23/16 10:45:31  5-MIN KAOH 231545Z AUTO 05009KT 10SM CLR 04/M04 A3009 820 57 -200 060/09 RMK AO2 T00391039
04850KAOH AOH20160223105011602/23/16 10:50:31  5-MIN KAOH 231550Z AUTO 07012KT 10SM CLR 04/M04 A3009 820 57 -200 070/12 RMK AO2 SLP197 T00391039
04850KAOH AOH20160223105510902/23/16 10:55:31  5-MIN KAOH 231555Z AUTO 05014KT 10SM CLR 04/M04 A3009 830 57 -200 060/14 RMK AO2 T00391039
04850KAOH AOH20160223110010902/23/16 11:00:31  5-MIN KAOH 231600Z AUTO 06014KT 10SM CLR 04/M04 A3009 820 57 -200 070/14 RMK AO2 T00391039
04850KAOH AOH20160223110510902/23/16 11:05:31  5-MIN KAOH 231605Z AUTO 07011KT 10SM CLR 04/M04 A3009 820 57 -200 070/11 RMK AO2 T00391039
04850KAOH AOH20160223111010902/23/16 11:10:31  5-MIN KAOH 231610Z AUTO 04011KT 10SM CLR 04/M03 A3009 820 57 -200 050/11 RMK AO2 T00441033
04850KAOH AOH20160223111510902/23/16 11:15:31  5-MIN KAOH 231615Z AUTO 06014KT 10SM CLR 04/M03 A3009 820 57 -200 070/14 RMK AO2 T00441033
04850KAOH AOH20160223112010902/23/16 11:20:31  5-MIN KAOH 231620Z AUTO 05012KT 10SM CLR 04/M03 A3008 830 57 -200 060/12 RMK AO2 T00441033
04850KAOH AOH20160223112511502/23/16 11:25:31  5-MIN KAOH 231625Z AUTO 06017G21KT 10SM CLR 05/M03 A3008 830 55 -100 070/17G21 RMK AO2 T00501033
04850KAOH AOH20160223113011502/23/16 11:30:31  5-MIN KAOH 231630Z AUTO 06013G21KT 10SM CLR 05/M03 A3008 830 55 -100 070/13G21 RMK AO2 T00501033
04850KAOH AOH20160223113510902/23/16 11:35:31  5-MIN KAOH 231635Z AUTO 06011KT 10SM CLR 04/M03 A3007 840 59 -100 070/11 RMK AO2 T00441028
04850KAOH AOH20160223114010902/23/16 11:40:31  5-MIN KAOH 231640Z AUTO 06014KT 10SM CLR 05/M03 A3007 840 57 -100 070/14 RMK AO2 T00501028
04850KAOH AOH20160223114510902/23/16 11:45:31  5-MIN KAOH 231645Z AUTO 07014KT 10SM CLR 05/M03 A3007 840 57 -100 070/14 RMK AO2 T00501028
04850KAOH AOH20160223115011302/23/16 11:50:31  5-MIN KAOH 231650Z AUTO 05013KT 10SM CLR 06/M03 A3007 840 55 0 060/13 RMK AO2 SLP191 T00561028
04850KAOH AOH20160223115510602/23/16 11:55:31  5-MIN KAOH 231655Z AUTO 05012KT 10SM CLR 06/M02 A3007 840 57 0 060/12 RMK AO2 T00561022
04850KAOH AOH20160223120010602/23/16 12:00:31  5-MIN KAOH 231700Z AUTO 05013KT 10SM CLR 06/M02 A3006 850 57 0 050/13 RMK AO2 T00561022
04850KAOH AOH20160223120511202/23/16 12:05:31  5-MIN KAOH 231705Z AUTO 06013G19KT 10SM CLR 06/M02 A3005 850 57 0 070/13G19 RMK AO2 T00561022
04850KAOH AOH20160223121011202/23/16 12:10:31  5-MIN KAOH 231710Z AUTO 06014G19KT 10SM CLR 06/M02 A3005 860 57 0 060/14G19 RMK AO2 T00561022
04850KAOH AOH20160223121510602/23/16 12:15:31  5-MIN KAOH 231715Z AUTO 04012KT 10SM CLR 06/M02 A3005 860 57 0 050/12 RMK AO2 T00561022
04850KAOH AOH20160223122010602/23/16 12:20:31  5-MIN KAOH 231720Z AUTO 05012KT 10SM CLR 06/M02 A3005 860 57 0 060/12 RMK AO2 T00611017
04850KAOH AOH20160223122510602/23/16 12:25:31  5-MIN KAOH 231725Z AUTO 06013KT 10SM CLR 06/M02 A3004 860 55 0 060/13 RMK AO2 T00611022
04850KAOH AOH20160223123010602/23/16 12:30:31  5-MIN KAOH 231730Z AUTO 06012KT 10SM CLR 06/M02 A3004 870 55 0 060/12 RMK AO2 T00611022
04850KAOH AOH20160223123510802/23/16 12:35:31  5-MIN KAOH 231735Z AUTO 06013KT 10SM CLR 07/M02 A3003 870 53 100 060/13 RMK AO2 T00671022
04850KAOH AOH20160223124010802/23/16 12:40:31  5-MIN KAOH 231740Z AUTO 07014KT 10SM CLR 07/M02 A3003 880 55 100 070/14 RMK AO2 T00671017
04850KAOH AOH20160223124510802/23/16 12:45:31  5-MIN KAOH 231745Z AUTO 04012KT 10SM CLR 07/M02 A3003 880 55 100 050/12 RMK AO2 T00671017
04850KAOH AOH20160223125013902/23/16 12:50:31  5-MIN KAOH 231750Z AUTO 05012G20KT 10SM CLR 07/M02 A3002 880 53 100 060/12G20 RMK AO2 SLP175 T00671022 10067 21028 53009
04850KAOH AOH20160223125511402/23/16 12:55:31  5-MIN KAOH 231755Z AUTO 05012G20KT 10SM CLR 07/M02 A3002 880 53 100 060/12G20 RMK AO2 T00671022
04850KAOH AOH20160223130011402/23/16 13:00:31  5-MIN KAOH 231800Z AUTO 07016G19KT 10SM CLR 07/M02 A3002 890 53 100 070/16G19 RMK AO2 T00671022
04850KAOH AOH20160223130510802/23/16 13:05:31  5-MIN KAOH 231805Z AUTO 06015KT 10SM CLR 07/M02 A3002 890 53 100 070/15 RMK AO2 T00671022
04850KAOH AOH20160223131010802/23/16 13:10:31  5-MIN KAOH 231810Z AUTO 04011KT 10SM CLR 07/M02 A3002 890 53 200 050/11 RMK AO2 T00721017
04850KAOH AOH20160223131510802/23/16 13:15:31  5-MIN KAOH 231815Z AUTO 06013KT 10SM CLR 07/M02 A3002 890 53 200 070/13 RMK AO2 T00721017
04850KAOH AOH20160223132010802/23/16 13:20:31  5-MIN KAOH 231820Z AUTO 07012KT 10SM CLR 07/M02 A3001 890 53 200 080/12 RMK AO2 T00721017
04850KAOH AOH20160223132510802/23/16 13:25:31  5-MIN KAOH 231825Z AUTO 06011KT 10SM CLR 08/M02 A3001 900 51 300 060/11 RMK AO2 T00781017
04850KAOH AOH20160223133011402/23/16 13:30:31  5-MIN KAOH 231830Z AUTO 06013G18KT 10SM CLR 08/M02 A3001 900 51 300 070/13G18 RMK AO2 T00781017
04850KAOH AOH20160223133510802/23/16 13:35:31  5-MIN KAOH 231835Z AUTO 05010KT 10SM CLR 08/M01 A3001 900 53 300 060/10 RMK AO2 T00781011
04850KAOH AOH20160223134011402/23/16 13:40:31  5-MIN KAOH 231840Z AUTO 06014G21KT 10SM CLR 08/M02 A3001 900 51 300 070/14G21 RMK AO2 T00781017
04850KAOH AOH20160223134511402/23/16 13:45:31  5-MIN KAOH 231845Z AUTO 07013G21KT 10SM CLR 08/M02 A3001 900 51 300 080/13G21 RMK AO2 T00781017
04850KAOH AOH20160223135011502/23/16 13:50:31  5-MIN KAOH 231850Z AUTO 06012KT 10SM CLR 08/M01 A3001 900 53 300 060/12 RMK AO2 SLP169 T00781011
04850KAOH AOH20160223135511402/23/16 13:55:31  5-MIN KAOH 231855Z AUTO 06010G17KT 10SM CLR 08/M01 A3001 900 53 300 070/10G17 RMK AO2 T00781011
04850KAOH AOH20160223140011402/23/16 14:00:31  5-MIN KAOH 231900Z AUTO 04013G18KT 10SM CLR 08/M01 A3000 900 53 300 040/13G18 RMK AO2 T00781011
04850KAOH AOH20160223140511402/23/16 14:05:31  5-MIN KAOH 231905Z AUTO 04012G18KT 10SM CLR 08/M02 A3000 900 51 300 050/12G18 RMK AO2 T00781017
04850KAOH AOH20160223141010802/23/16 14:10:31  5-MIN KAOH 231910Z AUTO 04012KT 10SM CLR 08/M02 A3000 900 51 300 050/12 RMK AO2 T00781017
04850KAOH AOH20160223141510802/23/16 14:15:31  5-MIN KAOH 231915Z AUTO 04010KT 10SM CLR 08/M02 A3000 910 51 300 050/10 RMK AO2 T00781017
04850KAOH AOH20160223142010802/23/16 14:20:31  5-MIN KAOH 231920Z AUTO 06011KT 10SM CLR 08/M01 A3000 910 53 300 070/11 RMK AO2 T00781011
04850KAOH AOH20160223142510802/23/16 14:25:31  5-MIN KAOH 231925Z AUTO 06014KT 10SM CLR 08/M01 A3000 900 51 400 070/14 RMK AO2 T00831011
04850KAOH AOH20160223143010802/23/16 14:30:31  5-MIN KAOH 231930Z AUTO 05011KT 10SM CLR 08/M01 A3000 900 51 400 050/11 RMK AO2 T00831011
04850KAOH AOH20160223143510802/23/16 14:35:31  5-MIN KAOH 231935Z AUTO 06012KT 10SM CLR 08/M01 A3000 900 51 400 070/12 RMK AO2 T00831011
04850KAOH AOH20160223144010802/23/16 14:40:31  5-MIN KAOH 231940Z AUTO 04012KT 10SM CLR 08/M01 A3000 900 51 400 050/12 RMK AO2 T00831011
04850KAOH AOH20160223144510802/23/16 14:45:31  5-MIN KAOH 231945Z AUTO 03011KT 10SM CLR 08/M02 A3000 900 51 300 040/11 RMK AO2 T00781017
04850KAOH AOH20160223145011502/23/16 14:50:31  5-MIN KAOH 231950Z AUTO 06013KT 10SM CLR 08/M01 A3000 900 51 400 070/13 RMK AO2 SLP165 T00831011
04850KAOH AOH20160223145510802/23/16 14:55:31  5-MIN KAOH 231955Z AUTO 04011KT 10SM CLR 08/M01 A3000 910 51 400 050/11 RMK AO2 T00831011
04850KAOH AOH20160223150010802/23/16 15:00:31  5-MIN KAOH 232000Z AUTO 04011KT 10SM CLR 08/M01 A2999 910 51 400 040/11 RMK AO2 T00831011
04850KAOH AOH20160223150510802/23/16 15:05:31  5-MIN KAOH 232005Z AUTO 04013KT 10SM CLR 08/M01 A2999 910 51 400 050/13 RMK AO2 T00831011
04850KAOH AOH20160223151010802/23/16 15:10:31  5-MIN KAOH 232010Z AUTO 03013KT 10SM CLR 08/M01 A2999 910 51 400 030/13 RMK AO2 T00831011
04850KAOH AOH20160223151510802/23/16 15:15:31  5-MIN KAOH 232015Z AUTO 06012KT 10SM CLR 08/M01 A2999 910 51 400 060/12 RMK AO2 T00831011
04850KAOH AOH20160223152010802/23/16 15:20:31  5-MIN KAOH 232020Z AUTO 03016KT 10SM CLR 08/M01 A2999 920 51 400 040/16 RMK AO2 T00831011
04850KAOH AOH20160223152510802/23/16 15:25:31  5-MIN KAOH 232025Z AUTO 05012KT 10SM CLR 08/M01 A2999 920 51 400 060/12 RMK AO2 T00831011
04850KAOH AOH20160223153010802/23/16 15:30:31  5-MIN KAOH 232030Z AUTO 03016KT 10SM CLR 08/M01 A2998 920 51 400 030/16 RMK AO2 T00831011
04850KAOH AOH20160223153510802/23/16 15:35:31  5-MIN KAOH 232035Z AUTO 04014KT 10SM CLR 08/M01 A2998 920 53 300 040/14 RMK AO2 T00781011
04850KAOH AOH20160223154010802/23/16 15:40:31  5-MIN KAOH 232040Z AUTO 05014KT 10SM CLR 08/M02 A2998 920 51 300 050/14 RMK AO2 T00781017
04850KAOH AOH20160223154510802/23/16 15:45:31  5-MIN KAOH 232045Z AUTO 03013KT 10SM CLR 08/M02 A2998 920 51 300 040/13 RMK AO2 T00781017
04850KAOH AOH20160223155012702/23/16 15:50:31  5-MIN KAOH 232050Z AUTO 05013G20KT 10SM CLR 08/M01 A2998 920 53 300 060/13G20 RMK AO2 SLP158 T00781011 58026
04850KAOH AOH20160223155511402/23/16 15:55:31  5-MIN KAOH 232055Z AUTO 04015G20KT 10SM CLR 08/M01 A2998 930 53 300 040/15G20 RMK AO2 T00781011
04850KAOH AOH20160223160011402/23/16 16:00:31  5-MIN KAOH 232100Z AUTO 04013G19KT 10SM CLR 07/M02 A2998 930 53 300 050/13G19 RMK AO2 T00721017
04850KAOH AOH20160223160511402/23/16 16:05:31  5-MIN KAOH 232105Z AUTO 05013G19KT 10SM CLR 07/M02 A2997 930 53 300 060/13G19 RMK AO2 T00721017
04850KAOH AOH20160223161011402/23/16 16:10:31  5-MIN KAOH 232110Z AUTO 05015G19KT 10SM CLR 07/M02 A2997 930 53 300 060/15G19 RMK AO2 T00721017
04850KAOH AOH20160223161510802/23/16 16:15:31  5-MIN KAOH 232115Z AUTO 06014KT 10SM CLR 07/M02 A2997 930 55 200 060/14 RMK AO2 T00671017
04850KAOH AOH20160223162010802/23/16 16:20:31  5-MIN KAOH 232120Z AUTO 05014KT 10SM CLR 07/M02 A2997 930 55 200 060/14 RMK AO2 T00671017
04850KAOH AOH20160223162510802/23/16 16:25:31  5-MIN KAOH 232125Z AUTO 05013KT 10SM CLR 07/M02 A2997 930 55 200 060/13 RMK AO2 T00671017
04850KAOH AOH20160223163011402/23/16 16:30:31  5-MIN KAOH 232130Z AUTO 05013G19KT 10SM CLR 06/M02 A2997 930 57 100 050/13G19 RMK AO2 T00611017
04850KAOH AOH20160223163510802/23/16 16:35:31  5-MIN KAOH 232135Z AUTO 06012KT 10SM CLR 06/M02 A2997 930 55 100 060/12 RMK AO2 T00611022
04850KAOH AOH20160223164011402/23/16 16:40:31  5-MIN KAOH 232140Z AUTO 04013G19KT 10SM CLR 06/M02 A2997 940 55 100 040/13G19 RMK AO2 T00611022
04850KAOH AOH20160223164511402/23/16 16:45:31  5-MIN KAOH 232145Z AUTO 03014G19KT 10SM CLR 06/M02 A2996 940 57 100 040/14G19 RMK AO2 T00561022
04850KAOH AOH20160223165011502/23/16 16:50:31  5-MIN KAOH 232150Z AUTO 05015KT 10SM CLR 06/M02 A2996 940 57 100 050/15 RMK AO2 SLP154 T00561022
04850KAOH AOH20160223165511402/23/16 16:55:31  5-MIN KAOH 232155Z AUTO 05015G22KT 10SM CLR 06/M02 A2996 940 57 100 050/15G22 RMK AO2 T00561022
04850KAOH AOH20160223170011402/23/16 17:00:31  5-MIN KAOH 232200Z AUTO 04013G22KT 10SM CLR 06/M02 A2996 940 57 100 050/13G22 RMK AO2 T00561022
04850KAOH AOH20160223170510602/23/16 17:05:31  5-MIN KAOH 232205Z AUTO 05014KT 10SM CLR 05/M02 A2997 930 59 0 060/14 RMK AO2 T00501022
04850KAOH AOH20160223171010602/23/16 17:10:31  5-MIN KAOH 232210Z AUTO 04013KT 10SM CLR 05/M03 A2997 930 57 0 050/13 RMK AO2 T00501028
04850KAOH AOH20160223171511202/23/16 17:15:31  5-MIN KAOH 232215Z AUTO 05011G19KT 10SM CLR 05/M03 A2997 930 57 0 060/11G19 RMK AO2 T00501028
04850KAOH AOH20160223172011202/23/16 17:20:31  5-MIN KAOH 232220Z AUTO 05011G19KT 10SM CLR 05/M02 A2996 940 59 0 050/11G19 RMK AO2 T00501022
04850KAOH AOH20160223172510602/23/16 17:25:31  5-MIN KAOH 232225Z AUTO 05010KT 10SM CLR 04/M03 A2996 940 59 0 050/10 RMK AO2 T00441028
04850KAOH AOH20160223173010602/23/16 17:30:31  5-MIN KAOH 232230Z AUTO 04010KT 10SM CLR 04/M03 A2996 940 59 0 050/10 RMK AO2 T00441028
04850KAOH AOH20160223173510902/23/16 17:35:31  5-MIN KAOH 232235Z AUTO 04012KT 10SM CLR 04/M03 A2996 940 62 -100 040/12 RMK AO2 T00391028
04850KAOH AOH20160223174010902/23/16 17:40:31  5-MIN KAOH 232240Z AUTO 04011KT 10SM CLR 04/M03 A2996 940 62 -100 050/11 RMK AO2 T00391028
04850KAOH AOH20160223174510902/23/16 17:45:31  5-MIN KAOH 232245Z AUTO 04013KT 10SM CLR 04/M03 A2996 940 62 -100 040/13 RMK AO2 T00391028
04850KAOH AOH20160223175011602/23/16 17:50:31  5-MIN KAOH 232250Z AUTO 05012KT 10SM CLR 04/M03 A2997 930 62 -100 050/12 RMK AO2 SLP156 T00391028
04850KAOH AOH20160223175510902/23/16 17:55:31  5-MIN KAOH 232255Z AUTO 05010KT 10SM CLR 03/M03 A2997 940 64 -200 050/10 RMK AO2 T00331028
04850KAOH AOH20160223180011502/23/16 18:00:31  5-MIN KAOH 232300Z AUTO 03012G18KT 10SM CLR 03/M03 A2996 940 64 -200 040/12G18 RMK AO2 T00331028
04850KAOH AOH20160223180511502/23/16 18:05:31  5-MIN KAOH 232305Z AUTO 04012G18KT 10SM CLR 03/M03 A2996 940 64 -200 050/12G18 RMK AO2 T00331028
04850KAOH AOH20160223181010902/23/16 18:10:31  5-MIN KAOH 232310Z AUTO 04010KT 10SM CLR 03/M03 A2997 940 67 -200 050/10 RMK AO2 T00281028
04850KAOH AOH20160223181510902/23/16 18:15:31  5-MIN KAOH 232315Z AUTO 03011KT 10SM CLR 03/M03 A2997 930 67 -200 040/11 RMK AO2 T00281028
04850KAOH AOH20160223182010902/23/16 18:20:31  5-MIN KAOH 232320Z AUTO 03013KT 10SM CLR 03/M03 A2997 930 67 -200 040/13 RMK AO2 T00281028
04850KAOH AOH20160223182510902/23/16 18:25:31  5-MIN KAOH 232325Z AUTO 04010KT 10SM CLR 03/M03 A2997 930 67 -200 040/10 RMK AO2 T00281028
04850KAOH AOH20160223183011502/23/16 18:30:31  5-MIN KAOH 232330Z AUTO 04012G19KT 10SM CLR 02/M03 A2997 940 69 -300 040/12G19 RMK AO2 T00221028
04850KAOH AOH20160223183511502/23/16 18:35:31  5-MIN KAOH 232335Z AUTO 04011G19KT 10SM CLR 02/M03 A2996 940 69 -300 050/11G19 RMK AO2 T00221028
04850KAOH AOH20160223184011502/23/16 18:40:31  5-MIN KAOH 232340Z AUTO 05012G18KT 10SM CLR 02/M03 A2996 940 69 -300 050/12G18 RMK AO2 T00221028
04850KAOH AOH20160223184511502/23/16 18:45:31  5-MIN KAOH 232345Z AUTO 04013G18KT 10SM CLR 02/M03 A2996 940 67 -300 050/13G18 RMK AO2 T00221033
04850KAOH AOH20160223185013402/23/16 18:50:31  5-MIN KAOH 232350Z AUTO 05012KT 10SM CLR 02/M03 A2997 940 69 -400 060/12 RMK AO2 SLP157 T00171033 10083 20017 58014
04850KAOH AOH20160223185510902/23/16 18:55:31  5-MIN KAOH 232355Z AUTO 04010KT 10SM CLR 02/M03 A2997 940 69 -400 050/10 RMK AO2 T00171033
04850KAOH AOH20160223190010902/23/16 19:00:31  5-MIN KAOH 240000Z AUTO 05013KT 10SM CLR 02/M03 A2996 940 69 -400 060/13 RMK AO2 T00171033
04850KAOH AOH20160223190511502/23/16 19:05:31  5-MIN KAOH 240005Z AUTO 05011G19KT 10SM CLR 02/M03 A2996 940 69 -400 050/11G19 RMK AO2 T00171033
04850KAOH AOH20160223191011502/23/16 19:10:31  5-MIN KAOH 240010Z AUTO 04010G19KT 10SM CLR 01/M03 A2996 940 72 -400 050/10G19 RMK AO2 T00111033
04850KAOH AOH20160223191510902/23/16 19:15:31  5-MIN KAOH 240015Z AUTO 05011KT 10SM CLR 01/M03 A2995 950 72 -400 050/11 RMK AO2 T00111033
04850KAOH AOH20160223192011502/23/16 19:20:31  5-MIN KAOH 240020Z AUTO 05011G20KT 10SM CLR 01/M03 A2995 950 72 -400 050/11G20 RMK AO2 T00111033
04850KAOH AOH20160223192511502/23/16 19:25:31  5-MIN KAOH 240025Z AUTO 05011G20KT 10SM CLR 01/M03 A2995 950 72 -400 050/11G20 RMK AO2 T00111033
04850KAOH AOH20160223193010902/23/16 19:30:31  5-MIN KAOH 240030Z AUTO 04009KT 10SM CLR 01/M03 A2994 960 72 -400 050/09 RMK AO2 T00111033
04850KAOH AOH20160223193510902/23/16 19:35:31  5-MIN KAOH 240035Z AUTO 05011KT 10SM CLR 01/M03 A2994 960 72 -400 050/11 RMK AO2 T00111033
04850KAOH AOH20160223194010902/23/16 19:40:31  5-MIN KAOH 240040Z AUTO 04011KT 10SM CLR 01/M03 A2994 960 75 -500 040/11 RMK AO2 T00061033
04850KAOH AOH20160223194510902/23/16 19:45:31  5-MIN KAOH 240045Z AUTO 04010KT 10SM CLR 01/M03 A2994 960 75 -500 040/10 RMK AO2 T00061033
04850KAOH AOH20160223195011602/23/16 19:50:31  5-MIN KAOH 240050Z AUTO 04011KT 10SM CLR 01/M03 A2994 960 75 -500 050/11 RMK AO2 SLP149 T00061033
04850KAOH AOH20160223195510902/23/16 19:55:31  5-MIN KAOH 240055Z AUTO 04011KT 10SM CLR 01/M03 A2994 960 75 -500 050/11 RMK AO2 T00061033
04850KAOH AOH20160223200010902/23/16 20:00:31  5-MIN KAOH 240100Z AUTO 04010KT 10SM CLR 01/M04 A2993 960 72 -500 050/10 RMK AO2 T00061039
04850KAOH AOH20160223200511502/23/16 20:05:31  5-MIN KAOH 240105Z AUTO 04009G18KT 10SM CLR 01/M03 A2994 960 75 -500 040/09G18 RMK AO2 T00061033
04850KAOH AOH20160223201011502/23/16 20:10:31  5-MIN KAOH 240110Z AUTO 05011G18KT 10SM CLR 01/M04 A2994 960 72 -500 050/11G18 RMK AO2 T00061039
04850KAOH AOH20160223201511502/23/16 20:15:31  5-MIN KAOH 240115Z AUTO 05011G17KT 10SM CLR 01/M04 A2994 960 72 -500 060/11G17 RMK AO2 T00061039
04850KAOH AOH20160223202010902/23/16 20:20:31  5-MIN KAOH 240120Z AUTO 05011KT 10SM CLR 01/M03 A2994 950 75 -500 050/11 RMK AO2 T00061033
04850KAOH AOH20160223202510902/23/16 20:25:31  5-MIN KAOH 240125Z AUTO 05012KT 10SM CLR 01/M03 A2995 950 75 -500 050/12 RMK AO2 T00061033
04850KAOH AOH20160223203010902/23/16 20:30:31  5-MIN KAOH 240130Z AUTO 05010KT 10SM CLR 01/M03 A2995 950 75 -500 050/10 RMK AO2 T00061033
04850KAOH AOH20160223203510902/23/16 20:35:31  5-MIN KAOH 240135Z AUTO 04011KT 10SM CLR 01/M03 A2994 950 75 -500 050/11 RMK AO2 T00061033
04850KAOH AOH20160223204010902/23/16 20:40:31  5-MIN KAOH 240140Z AUTO 04011KT 10SM CLR 01/M03 A2994 950 75 -500 040/11 RMK AO2 T00061033
04850KAOH AOH20160223204510902/23/16 20:45:31  5-MIN KAOH 240145Z AUTO 03011KT 10SM CLR 00/M03 A2994 960 78 -500 040/11 RMK AO2 T00001033
04850KAOH AOH20160223205011602/23/16 20:50:31  5-MIN KAOH 240150Z AUTO 04011KT 10SM CLR 00/M03 A2994 960 78 -500 040/11 RMK AO2 SLP147 T00001033
04850KAOH AOH20160223205510902/23/16 20:55:31  5-MIN KAOH 240155Z AUTO 04011KT 10SM CLR 00/M03 A2994 960 78 -500 050/11 RMK AO2 T00001033
04850KAOH AOH20160223210010902/23/16 21:00:31  5-MIN KAOH 240200Z AUTO 03012KT 10SM CLR 00/M03 A2993 970 78 -500 040/12 RMK AO2 T00001033
04850KAOH AOH20160223210510902/23/16 21:05:31  5-MIN KAOH 240205Z AUTO 04012KT 10SM CLR 00/M03 A2993 970 78 -500 050/12 RMK AO2 T00001033
04850KAOH AOH20160223211010902/23/16 21:10:31  5-MIN KAOH 240210Z AUTO 04011KT 10SM CLR 00/M03 A2993 970 78 -500 050/11 RMK AO2 T00001033
04850KAOH AOH20160223211510902/23/16 21:15:31  5-MIN KAOH 240215Z AUTO 03012KT 10SM CLR 00/M03 A2993 970 78 -500 040/12 RMK AO2 T00001033
04850KAOH AOH20160223212010902/23/16 21:20:31  5-MIN KAOH 240220Z AUTO 03011KT 10SM CLR 00/M03 A2993 970 78 -500 040/11 RMK AO2 T00001033
04850KAOH AOH20160223212510902/23/16 21:25:31  5-MIN KAOH 240225Z AUTO 04011KT 10SM CLR 00/M03 A2992 980 78 -500 040/11 RMK AO2 T00001033
04850KAOH AOH20160223213011202/23/16 21:30:31  5-MIN KAOH 240230Z AUTO 04012KT 10SM FEW070 00/M03 A2992 980 78 -500 040/12 RMK AO2 T00001033
04850KAOH AOH20160223213511802/23/16 21:35:31  5-MIN KAOH 240235Z AUTO 04012G17KT 10SM SCT070 00/M03 A2991 990 78 -500 040/12G17 RMK AO2 T00001033
04850KAOH AOH20160223214011902/23/16 21:40:31  5-MIN KAOH 240240Z AUTO 04011KT 10SM FEW037 SCT070 00/M03 A2991 990 78 -500 050/11 RMK AO2 T00001033
04850KAOH AOH20160223214512502/23/16 21:45:31  5-MIN KAOH 240245Z AUTO 05011G19KT 10SM SCT037 BKN070 00/M03 A2991 990 78 -500 050/11G19 RMK AO2 T00001033
04850KAOH AOH20160223215013802/23/16 21:50:31  5-MIN KAOH 240250Z AUTO 04011G19KT 10SM BKN037 BKN070 00/M03 A2990 990 78 -500 050/11G19 RMK AO2 SLP134 T00001033 56004
04850KAOH AOH20160223215512002/23/16 21:55:31  5-MIN KAOH 240255Z AUTO 04010KT 10SM BKN036 OVC070 00/M03 A2990 1000 81 -500 050/10 RMK AO2 T00001028
04850KAOH AOH20160223220012002/23/16 22:00:31  5-MIN KAOH 240300Z AUTO 04012KT 10SM BKN036 OVC070 00/M03 A2989 1000 81 -500 050/12 RMK AO2 T00001028
04850KAOH AOH20160223220511902/23/16 22:05:31  5-MIN KAOH 240305Z AUTO 05011G18KT 10SM OVC036 00/M03 A2989 1000 81 -500 050/11G18 RMK AO2 T00001028
04850KAOH AOH20160223221011302/23/16 22:10:31  5-MIN KAOH 240310Z AUTO 05011KT 10SM OVC036 00/M03 A2989 1000 81 -500 050/11 RMK AO2 T00001028
04850KAOH AOH20160223221511302/23/16 22:15:31  5-MIN KAOH 240315Z AUTO 05011KT 10SM OVC036 00/M03 A2989 1000 81 -500 060/11 RMK AO2 T00001028
04850KAOH AOH20160223222011302/23/16 22:20:31  5-MIN KAOH 240320Z AUTO 05011KT 10SM OVC038 01/M03 A2989 1000 78 -400 050/11 RMK AO2 T00061028
04850KAOH AOH20160223222511302/23/16 22:25:31  5-MIN KAOH 240325Z AUTO 05011KT 10SM OVC038 01/M03 A2990 1000 78 -400 060/11 RMK AO2 T00061028
04850KAOH AOH20160223223011302/23/16 22:30:31  5-MIN KAOH 240330Z AUTO 05011KT 10SM OVC038 01/M03 A2989 1000 78 -400 060/11 RMK AO2 T00061028
04850KAOH AOH20160223223511302/23/16 22:35:31  5-MIN KAOH 240335Z AUTO 05011KT 10SM OVC040 01/M03 A2989 1000 78 -400 050/11 RMK AO2 T00061028
04850KAOH AOH20160223224011902/23/16 22:40:31  5-MIN KAOH 240340Z AUTO 04011G20KT 10SM OVC042 01/M02 A2989 1000 82 -400 050/11G20 RMK AO2 T00061022
04850KAOH AOH20160223224511902/23/16 22:45:31  5-MIN KAOH 240345Z AUTO 05011G20KT 10SM OVC042 01/M02 A2989 1000 82 -400 050/11G20 RMK AO2 T00061022
04850KAOH AOH20160223225012002/23/16 22:50:31  5-MIN KAOH 240350Z AUTO 05013KT 10SM OVC042 01/M02 A2988 1010 82 -400 050/13 RMK AO2 SLP126 T00061022
04850KAOH AOH20160223225511302/23/16 22:55:31  5-MIN KAOH 240355Z AUTO 05011KT 10SM OVC044 01/M02 A2988 1020 82 -400 050/11 RMK AO2 T00061022
04850KAOH AOH20160223230011302/23/16 23:00:31  5-MIN KAOH 240400Z AUTO 04013KT 10SM OVC044 01/M02 A2987 1020 82 -400 050/13 RMK AO2 T00061022
04850KAOH AOH20160223230511902/23/16 23:05:31  5-MIN KAOH 240405Z AUTO 04014G20KT 10SM OVC044 01/M02 A2987 1030 82 -400 050/14G20 RMK AO2 T00061022
04850KAOH AOH20160223231011902/23/16 23:10:31  5-MIN KAOH 240410Z AUTO 05012G20KT 10SM OVC044 01/M02 A2987 1030 82 -400 050/12G20 RMK AO2 T00061022
04850KAOH AOH20160223231511302/23/16 23:15:31  5-MIN KAOH 240415Z AUTO 05010KT 10SM OVC046 01/M02 A2986 1030 82 -400 050/10 RMK AO2 T00061022
04850KAOH AOH20160223232011302/23/16 23:20:31  5-MIN KAOH 240420Z AUTO 04010KT 10SM OVC046 01/M02 A2986 1030 82 -400 050/10 RMK AO2 T00061022
04850KAOH AOH20160223232511302/23/16 23:25:31  5-MIN KAOH 240425Z AUTO 04013KT 10SM OVC046 01/M02 A2986 1030 82 -400 040/13 RMK AO2 T00061022
04850KAOH AOH20160223233011302/23/16 23:30:31  5-MIN KAOH 240430Z AUTO 04012KT 10SM OVC046 01/M02 A2986 1030 82 -400 040/12 RMK AO2 T00061022
04850KAOH AOH20160223233511302/23/16 23:35:31  5-MIN KAOH 240435Z AUTO 04013KT 10SM OVC046 01/M02 A2986 1040 82 -400 050/13 RMK AO2 T00061022
04850KAOH AOH20160223234012002/23/16 23:40:31  5-MIN KAOH 240440Z AUTO 04011KT 10SM BKN046 OVC070 01/M02 A2985 1040 82 -400 040/11 RMK AO2 T00061022
04850KAOH AOH20160223234512002/23/16 23:45:31  5-MIN KAOH 240445Z AUTO 04011KT 10SM BKN046 OVC070 01/M02 A2985 1050 82 -400 040/11 RMK AO2 T00061022
04850KAOH AOH20160223235014402/23/16 23:50:31  5-MIN KAOH 240450Z AUTO 04013KT 10SM SCT046 OVC070 01/M02 A2984 1050 82 -400 050/13 RMK AO2 PRESFR SLP110 T00061022 400831028
04850KAOH AOH20160223235513302/23/16 23:55:31  5-MIN KAOH 240455Z AUTO 04013G20KT 10SM SCT046 BKN070 01/M02 A2983 1060 82 -400 040/13G20 RMK AO2 PRESFR T00061022
04850KAOH AOH20160224000013302/24/16 00:00:31  5-MIN KAOH 240500Z AUTO 03015G20KT 10SM FEW046 BKN070 00/M02 A2982 1070 85 -400 040/15G20 RMK AO2 PRESFR T00001022
04850KAOH AOH20160224000512602/24/16 00:05:31  5-MIN KAOH 240505Z AUTO 03015G20KT 10SM SCT070 00/M02 A2982 1070 85 -400 040/15G20 RMK AO2 PRESFR T00001022
04850KAOH AOH20160224001011902/24/16 00:10:31  5-MIN KAOH 240510Z AUTO 04012G19KT 10SM BKN070 00/M02 A2982 1070 85 -400 040/12G19 RMK AO2 T00001022
04850KAOH AOH20160224001511302/24/16 00:15:31  5-MIN KAOH 240515Z AUTO 03011KT 10SM BKN070 00/M02 A2982 1070 85 -400 040/11 RMK AO2 T00001022
04850KAOH AOH20160224002011902/24/16 00:20:31  5-MIN KAOH 240520Z AUTO 04012G18KT 10SM BKN070 00/M02 A2981 1080 85 -400 040/12G18 RMK AO2 T00001022
04850KAOH AOH20160224002511902/24/16 00:25:31  5-MIN KAOH 240525Z AUTO 04013G19KT 10SM BKN070 00/M02 A2981 1080 85 -400 040/13G19 RMK AO2 T00001022
04850KAOH AOH20160224003011902/24/16 00:30:31  5-MIN KAOH 240530Z AUTO 05010G19KT 10SM BKN070 00/M02 A2981 1080 88 -400 050/10G19 RMK AO2 T00001017
04850KAOH AOH20160224003511302/24/16 00:35:31  5-MIN KAOH 240535Z AUTO 05011KT 10SM OVC070 00/M02 A2982 1070 88 -400 060/11 RMK AO2 T00001017
04850KAOH AOH20160224004011302/24/16 00:40:31  5-MIN KAOH 240540Z AUTO 05011KT 10SM OVC075 01/M02 A2982 1070 85 -300 050/11 RMK AO2 T00061017
04850KAOH AOH20160224004511902/24/16 00:45:31  5-MIN KAOH 240545Z AUTO 05013G19KT 10SM OVC075 00/M02 A2981 1080 88 -400 050/13G19 RMK AO2 T00001017
04850KAOH AOH20160224005014402/24/16 00:50:31  5-MIN KAOH 240550Z AUTO 05013G19KT 10SM OVC075 01/M02 A2981 1080 85 -300 050/13G19 RMK AO2 SLP100 T00061017 10017 20000 58024
04850KAOH AOH20160224005511902/24/16 00:55:31  5-MIN KAOH 240555Z AUTO 04011G19KT 10SM OVC070 00/M02 A2980 1090 88 -400 040/11G19 RMK AO2 T00001017
04850KAOH AOH20160224010012002/24/16 01:00:31  5-MIN KAOH 240600Z AUTO 04012KT 10SM OVC070 00/M02 A2979 1100 88 -400 040/12 RMK AO2 PRESFR T00001017
04850KAOH AOH20160224010511902/24/16 01:05:31  5-MIN KAOH 240605Z AUTO 04012G21KT 10SM OVC070 00/M02 A2980 1090 88 -400 050/12G21 RMK AO2 T00001017
04850KAOH AOH20160224011011902/24/16 01:10:31  5-MIN KAOH 240610Z AUTO 05010G21KT 10SM OVC070 01/M02 A2979 1090 85 -300 050/10G21 RMK AO2 T00061017
04850KAOH AOH20160224011511902/24/16 01:15:31  5-MIN KAOH 240615Z AUTO 05011G19KT 10SM OVC070 01/M02 A2979 1090 85 -300 050/11G19 RMK AO2 T00061017
04850KAOH AOH20160224012011302/24/16 01:20:31  5-MIN KAOH 240620Z AUTO 05011KT 10SM OVC070 00/M02 A2980 1090 88 -400 060/11 RMK AO2 T00001017
04850KAOH AOH20160224012511902/24/16 01:25:31  5-MIN KAOH 240625Z AUTO 05012G17KT 10SM OVC070 01/M02 A2980 1090 85 -300 060/12G17 RMK AO2 T00061017
04850KAOH AOH20160224013011902/24/16 01:30:31  5-MIN KAOH 240630Z AUTO 05011G17KT 10SM OVC065 01/M02 A2979 1090 85 -300 050/11G17 RMK AO2 T00061017
04850KAOH AOH20160224013511302/24/16 01:35:31  5-MIN KAOH 240635Z AUTO 05011KT 10SM OVC065 01/M02 A2979 1100 85 -300 060/11 RMK AO2 T00061017
04850KAOH AOH20160224014011302/24/16 01:40:31  5-MIN KAOH 240640Z AUTO 05011KT 10SM OVC060 01/M02 A2979 1100 85 -300 050/11 RMK AO2 T00061017
04850KAOH AOH20160224014511902/24/16 01:45:31  5-MIN KAOH 240645Z AUTO 05010G18KT 10SM OVC060 01/M02 A2978 1100 85 -300 050/10G18 RMK AO2 T00061017
04850KAOH AOH20160224015012602/24/16 01:50:31  5-MIN KAOH 240650Z AUTO 05013G18KT 10SM OVC060 01/M02 A2978 1110 85 -300 050/13G18 RMK AO2 SLP091 T00061017
04850KAOH AOH20160224015511302/24/16 01:55:31  5-MIN KAOH 240655Z AUTO 04014KT 10SM OVC065 01/M02 A2977 1110 85 -300 050/14 RMK AO2 T00061017
04850KAOH AOH20160224020011302/24/16 02:00:31  5-MIN KAOH 240700Z AUTO 04015KT 10SM OVC065 01/M02 A2977 1120 85 -300 050/15 RMK AO2 T00061017
04850KAOH AOH20160224020511902/24/16 02:05:31  5-MIN KAOH 240705Z AUTO 05013G20KT 10SM OVC065 01/M02 A2976 1120 85 -300 050/13G20 RMK AO2 T00061017
04850KAOH AOH20160224021011902/24/16 02:10:31  5-MIN KAOH 240710Z AUTO 04011G19KT 10SM OVC065 01/M02 A2976 1120 85 -300 050/11G19 RMK AO2 T00061017
04850KAOH AOH20160224021512602/24/16 02:15:31  5-MIN KAOH 240715Z AUTO 05013G21KT 10SM BKN070 OVC090 01/M02 A2976 1130 85 -300 050/13G21 RMK AO2 T00061017
04850KAOH AOH20160224022012602/24/16 02:20:31  5-MIN KAOH 240720Z AUTO 04016G21KT 10SM BKN070 OVC090 01/M02 A2975 1140 85 -300 050/16G21 RMK AO2 T00061017
04850KAOH AOH20160224022513502/24/16 02:25:31  5-MIN KAOH 240725Z AUTO 04013G21KT 10SM -RA OVC070 01/M02 A2975 1140 85 -300 050/13G21 RMK AO2 RAB22 P0000 T00061017
04850KAOH AOH20160224023012902/24/16 02:30:31  5-MIN KAOH 240730Z AUTO 05011KT 10SM -RA OVC070 01/M02 A2974 1140 85 -300 050/11 RMK AO2 RAB22 P0000 T00061017
04850KAOH AOH20160224023512902/24/16 02:35:31  5-MIN KAOH 240735Z AUTO 04012KT 10SM -RA OVC070 00/M01 A2974 1140 92 -300 050/12 RMK AO2 RAB22 P0000 T00001011
04850KAOH AOH20160224024013602/24/16 02:40:31  5-MIN KAOH 240740Z AUTO 04014KT 10SM UP OVC070 00/M01 A2974 1150 92 -300 050/14 RMK AO2 RAB22E40UPB40 P0000 T00001011
04850KAOH AOH20160224024514302/24/16 02:45:31  5-MIN KAOH 240745Z AUTO 05014KT 10SM UP SCT049 OVC070 00/M01 A2973 1150 92 -300 050/14 RMK AO2 RAB22E40UPB40 P0000 T00001011
04850KAOH AOH20160224025015002/24/16 02:50:31  5-MIN KAOH 240750Z AUTO 04012KT 10SM UP SCT049 OVC065 00/M01 A2973 1160 92 -300 050/12 RMK AO2 RAB22E40UPB40 SLP073 P0000 T00001011
04850KAOH AOH20160224025512902/24/16 02:55:31  5-MIN KAOH 240755Z AUTO 04014KT 10SM UP BKN047 OVC065 00/M01 A2972 1160 92 -300 050/14 RMK AO2 P0000 T00001011
04850KAOH AOH20160224030014102/24/16 03:00:31  5-MIN KAOH 240800Z AUTO 04014G21KT 9SM UP BKN047 OVC065 00/M01 A2971 1170 92 -300 050/14G21 RMK AO2 PRESFR P0000 T00001011
04850KAOH AOH20160224030514102/24/16 03:05:31  5-MIN KAOH 240805Z AUTO 04016G21KT 8SM UP BKN047 OVC065 00/M01 A2971 1170 92 -300 050/16G21 RMK AO2 PRESFR P0000 T00001011
04850KAOH AOH20160224031013402/24/16 03:10:31  5-MIN KAOH 240810Z AUTO 05014G20KT 7SM UP SCT047 OVC065 00/M01 A2970 1180 92 -300 050/14G20 RMK AO2 P0000 T00001011
04850KAOH AOH20160224031513102/24/16 03:15:31  5-MIN KAOH 240815Z AUTO 04015KT 6SM UP BR SCT047 OVC060 00/M01 A2970 1180 92 -300 050/15 RMK AO2 P0000 T00001011
04850KAOH AOH20160224032013102/24/16 03:20:31  5-MIN KAOH 240820Z AUTO 04014KT 6SM UP BR FEW047 OVC060 00/M01 A2969 1190 92 -300 050/14 RMK AO2 P0001 T00001011
04850KAOH AOH20160224032514402/24/16 03:25:31  5-MIN KAOH 240825Z AUTO 04015G22KT 5SM UP BR FEW047 OVC060 00/M01 A2968 1200 92 -300 040/15G22 RMK AO2 PRESFR P0001 T00001011
04850KAOH AOH20160224033014402/24/16 03:30:31  5-MIN KAOH 240830Z AUTO 04015G23KT 5SM UP BR FEW007 OVC055 00/M01 A2967 1210 92 -200 040/15G23 RMK AO2 PRESFR P0002 T00001011
04850KAOH AOH20160224033513702/24/16 03:35:31  5-MIN KAOH 240835Z AUTO 04017G24KT 5SM UP BR FEW007 OVC050 00/M01 A2967 1210 96 -200 040/17G24 RMK AO2 P0002 T00001006
04850KAOH AOH20160224034013702/24/16 03:40:31  5-MIN KAOH 240840Z AUTO 04015G24KT 4SM UP BR FEW007 OVC050 00/M01 A2967 1210 96 -200 050/15G24 RMK AO2 P0003 T00001006
04850KAOH AOH20160224034513702/24/16 03:45:31  5-MIN KAOH 240845Z AUTO 04016G22KT 4SM UP BR FEW007 OVC050 00/M01 A2967 1210 96 -200 050/16G22 RMK AO2 P0004 T00001006
04850KAOH AOH20160224035015602/24/16 03:50:31  5-MIN KAOH 240850Z AUTO 04015G22KT 3SM UP BR SCT007 OVC048 00/M01 A2967 1210 96 -200 050/15G22 RMK AO2 SLP052 P0006 60006 T00001006 58029
04850KAOH AOH20160224135511202/24/16 13:55:31  5-MIN KAOH 241855Z AUTO 04012KT 10SM OVC005 02/02 A2922 1630 100 500 040/12 RMK AO2 T00220022
04850KAOH AOH20160224140011202/24/16 14:00:31  5-MIN KAOH 241900Z AUTO 04012KT 10SM OVC005 02/02 A2922 1630 100 500 040/12 RMK AO2 T00220022
04850KAOH AOH20160224140511402/24/16 14:05:31  5-MIN KAOH 241905Z AUTO 04012KT 10SM OVC005 02/02 A2922 1630 100 500 040/12 RMK AO2 T00220022 $
04850KAOH AOH20160224141011402/24/16 14:10:31  5-MIN KAOH 241910Z AUTO 04013KT 10SM OVC005 02/02 A2921 1640 100 500 040/13 RMK AO2 T00220022 $
04850KAOH AOH20160224141511402/24/16 14:15:31  5-MIN KAOH 241915Z AUTO 03013KT 10SM OVC005 02/02 A2921 1640 100 500 040/13 RMK AO2 T00220022 $
04850KAOH AOH20160224142012902/24/16 14:20:31  5-MIN KAOH 241920Z AUTO 03010KT 8SM -RA OVC005 02/02 A2920 1650 100 500 040/10 RMK AO2 RAB19 P0000 T00220022 $
04850KAOH AOH20160224142513802/24/16 14:25:31  5-MIN KAOH 241925Z AUTO 03013KT 5SM RA BR OVC005 02/02 A2919 1660 100 500 040/13 RMK AO2 RAB19 PRESFR P0001 T00220022 $
04850KAOH AOH20160224143013202/24/16 14:30:31  5-MIN KAOH 241930Z AUTO 04012KT 5SM -RA BR OVC005 02/02 A2919 1660 100 500 040/12 RMK AO2 RAB19 P0001 T00220022 $
04850KAOH AOH20160224143512902/24/16 14:35:31  5-MIN KAOH 241935Z AUTO 04011KT 8SM -RA OVC004 03/03 A2919 1660 100 600 040/11 RMK AO2 RAB19 P0001 T00280028 $
04850KAOH AOH20160224144013602/24/16 14:40:31  5-MIN KAOH 241940Z AUTO 03015G20KT 10SM -RA OVC004 03/03 A2919 1660 100 600 040/15G20 RMK AO2 RAB19 P0001 T00280028 $
04850KAOH AOH20160224144512902/24/16 14:45:31  5-MIN KAOH 241945Z AUTO 03013KT 10SM OVC004 03/03 A2919 1660 100 600 040/13 RMK AO2 RAB19E43 P0001 T00280028 $
04850KAOH AOH20160224145013602/24/16 14:50:31  5-MIN KAOH 241950Z AUTO 03014KT 10SM OVC004 02/02 A2919 1660 100 600 040/14 RMK AO2 RAB19E43 SLP890 P0001 T00220022 $
04850KAOH AOH20160224145511402/24/16 14:55:31  5-MIN KAOH 241955Z AUTO 03013KT 10SM OVC004 02/02 A2918 1670 100 600 040/13 RMK AO2 T00220022 $
04850KAOH AOH20160224150011402/24/16 15:00:31  5-MIN KAOH 242000Z AUTO 03015KT 10SM OVC004 02/02 A2918 1670 100 600 040/15 RMK AO2 T00220022 $
04850KAOH AOH20160224150511402/24/16 15:05:31  5-MIN KAOH 242005Z AUTO 03015KT 10SM OVC004 02/02 A2918 1670 100 600 040/15 RMK AO2 T00220022 $
04850KAOH AOH20160224151012002/24/16 15:10:31  5-MIN KAOH 242010Z AUTO 02014G21KT 10SM OVC004 02/02 A2918 1670 100 600 030/14G21 RMK AO2 T00220022 $
04850KAOH AOH20160224151511402/24/16 15:15:31  5-MIN KAOH 242015Z AUTO 03012KT 10SM OVC004 02/02 A2918 1670 100 600 040/12 RMK AO2 T00220022 $
04850KAOH AOH20160224152011402/24/16 15:20:31  5-MIN KAOH 242020Z AUTO 02014KT 10SM OVC004 02/02 A2918 1670 100 600 030/14 RMK AO2 T00220022 $
04850KAOH AOH20160224152511402/24/16 15:25:31  5-MIN KAOH 242025Z AUTO 03013KT 10SM OVC004 02/02 A2918 1670 100 600 040/13 RMK AO2 T00220022 $
04850KAOH AOH20160224153011402/24/16 15:30:31  5-MIN KAOH 242030Z AUTO 02015KT 10SM OVC004 02/02 A2918 1670 100 600 020/15 RMK AO2 T00220022 $
04850KAOH AOH20160224153511402/24/16 15:35:31  5-MIN KAOH 242035Z AUTO 03013KT 10SM OVC004 02/02 A2918 1670 100 600 040/13 RMK AO2 T00220022 $
04850KAOH AOH20160224154012902/24/16 15:40:31  5-MIN KAOH 242040Z AUTO 02012KT 9SM -RA OVC004 02/02 A2918 1670 100 600 030/12 RMK AO2 RAB39 P0000 T00220022 $
04850KAOH AOH20160224154512902/24/16 15:45:31  5-MIN KAOH 242045Z AUTO 02011KT 8SM -RA OVC004 02/02 A2918 1670 100 600 030/11 RMK AO2 RAB39 P0001 T00220022 $
04850KAOH AOH20160224155014802/24/16 15:50:31  5-MIN KAOH 242050Z AUTO 02011KT 9SM -RA OVC004 02/02 A2919 1660 100 500 030/11 RMK AO2 RAB39 SLP890 P0001 60002 T00170017 56036 $
04850KAOH AOH20160224155512402/24/16 15:55:31  5-MIN KAOH 242055Z AUTO 02011KT 10SM -RA OVC004 02/02 A2919 1660 100 500 030/11 RMK AO2 P0000 T00170017 $
04850KAOH AOH20160224160012302/24/16 16:00:31  5-MIN KAOH 242100Z AUTO 03011KT 7SM -RA OVC003 02/02 A2920 1650 100 500 030/11 RMK AO2 P0000 T00170017 $
04850KAOH AOH20160224160511502/24/16 16:05:31  5-MIN KAOH 242105Z AUTO 02009KT 5SM -RA OVC003 02/ A2920 1650 M 500 030/09 RMK AO2 P0001 T0017 $
04850KAOH AOH20160224161011502/24/16 16:10:31  5-MIN KAOH 242110Z AUTO 02012KT 5SM -RA OVC003 02/ A2920 1650 M 500 020/12 RMK AO2 P0001 T0017 $
04850KAOH AOH20160224161512602/24/16 16:15:31  5-MIN KAOH 242115Z AUTO 01008KT 6SM -RA BR OVC003 02/02 A2919 1660 100 500 020/08 RMK AO2 P0001 T00170017 $
04850KAOH AOH20160224162012602/24/16 16:20:31  5-MIN KAOH 242120Z AUTO 01010KT 6SM -RA BR OVC003 02/02 A2919 1660 100 500 020/10 RMK AO2 P0002 T00170017 $
04850KAOH AOH20160224162512602/24/16 16:25:31  5-MIN KAOH 242125Z AUTO 01011KT 6SM -RA BR OVC003 02/02 A2919 1660 100 500 020/11 RMK AO2 P0002 T00170017 $
04850KAOH AOH20160224163012602/24/16 16:30:31  5-MIN KAOH 242130Z AUTO 01011KT 6SM -RA BR OVC003 02/02 A2919 1660 100 500 010/11 RMK AO2 P0002 T00170017 $
04850KAOH AOH20160224163511502/24/16 16:35:31  5-MIN KAOH 242135Z AUTO 01010KT 6SM -RA OVC003 02/ A2919 1660 M 500 020/10 RMK AO2 P0002 T0017 $
04850KAOH AOH20160224164012002/24/16 16:40:31  5-MIN KAOH 242140Z AUTO 01010KT 6SM HZ OVC004 02/ A2920 1650 M 500 010/10 RMK AO2 RAE37 P0002 T0017 $
04850KAOH AOH20160224164512002/24/16 16:45:31  5-MIN KAOH 242145Z AUTO 01011KT 6SM HZ OVC004 02/ A2920 1650 M 500 020/11 RMK AO2 RAE37 P0002 T0017 $
04850KAOH AOH20160224165012202/24/16 16:50:31  5-MIN KAOH 242150Z AUTO 01007KT 6SM -RA OVC004 02/ A2921 1640 M 500 020/07 RMK AO2 SLP897 P0002 T0017 $
04850KAOH AOH20160224165511502/24/16 16:55:31  5-MIN KAOH 242155Z AUTO 01010KT 5SM -RA OVC004 02/ A2920 1650 M 500 020/10 RMK AO2 P0000 T0017 $
04850KAOH AOH20160224170011502/24/16 17:00:31  5-MIN KAOH 242200Z AUTO 01010KT 4SM -RA OVC004 02/ A2920 1650 M 500 020/10 RMK AO2 P0000 T0017 $
04850KAOH AOH20160224170512602/24/16 17:05:31  5-MIN KAOH 242205Z AUTO 02010KT 4SM -RA BR OVC004 02/02 A2920 1650 100 500 020/10 RMK AO2 P0000 T00170017 $
04850KAOH AOH20160224171012602/24/16 17:10:31  5-MIN KAOH 242210Z AUTO 02011KT 4SM -RA BR OVC004 02/02 A2921 1640 100 500 020/11 RMK AO2 P0001 T00170017 $
04850KAOH AOH20160224171512502/24/16 17:15:31  5-MIN KAOH 242215Z AUTO 02011KT 3SM RA BR OVC004 02/02 A2921 1640 100 500 030/11 RMK AO2 P0002 T00170017 $
04850KAOH AOH20160224172012602/24/16 17:20:31  5-MIN KAOH 242220Z AUTO 01008KT 3SM -RA BR OVC004 02/02 A2921 1640 100 500 020/08 RMK AO2 P0002 T00170017 $
04850KAOH AOH20160224172512602/24/16 17:25:31  5-MIN KAOH 242225Z AUTO 01010KT 5SM -RA BR OVC004 02/02 A2921 1640 100 500 020/10 RMK AO2 P0002 T00170017 $
04850KAOH AOH20160224173012302/24/16 17:30:31  5-MIN KAOH 242230Z AUTO 36007KT 7SM -RA OVC004 02/02 A2922 1640 100 500 010/07 RMK AO2 P0002 T00170017 $
04850KAOH AOH20160224173511802/24/16 17:35:31  5-MIN KAOH 242235Z AUTO 01010KT 10SM OVC004 02/ A2922 1630 M 400 020/10 RMK AO2 RAE34 P0002 T0017 $
04850KAOH AOH20160224174012602/24/16 17:40:31  5-MIN KAOH 242240Z AUTO 02008KT 10SM OVC004 02/02 A2922 1630 100 400 020/08 RMK AO2 RAE34 P0002 T00170017 $
04850KAOH AOH20160224174512602/24/16 17:45:31  5-MIN KAOH 242245Z AUTO 36008KT 10SM OVC004 02/02 A2923 1630 100 400 010/08 RMK AO2 RAE34 P0002 T00170017 $
04850KAOH AOH20160224175013302/24/16 17:50:31  5-MIN KAOH 242250Z AUTO 36009KT 10SM OVC004 02/02 A2923 1620 100 400 010/09 RMK AO2 RAE34 SLP904 P0002 T00170017 $
04850KAOH AOH20160224175512402/24/16 17:55:31  5-MIN KAOH 242255Z AUTO 01010KT 10SM -RA OVC004 01/01 A2923 1620 100 400 020/10 RMK AO2 P0000 T00110011 $
04850KAOH AOH20160224180011602/24/16 18:00:31  5-MIN KAOH 242300Z AUTO 01010KT 10SM -RA OVC004 01/ A2923 1620 M 400 020/10 RMK AO2 P0000 T0011 $
04850KAOH AOH20160224180511602/24/16 18:05:31  5-MIN KAOH 242305Z AUTO 01011KT 10SM -RA OVC004 01/ A2923 1620 M 400 010/11 RMK AO2 P0000 T0011 $
04850KAOH AOH20160224181011602/24/16 18:10:31  5-MIN KAOH 242310Z AUTO 01010KT 10SM -RA OVC004 02/ A2923 1620 M 400 010/10 RMK AO2 P0000 T0017 $
04850KAOH AOH20160224181511502/24/16 18:15:31  5-MIN KAOH 242315Z AUTO 01012KT 9SM -RA OVC004 02/ A2923 1620 M 400 020/12 RMK AO2 P0000 T0017 $
04850KAOH AOH20160224182012602/24/16 18:20:31  5-MIN KAOH 242320Z AUTO 01007KT 6SM -RA BR OVC004 02/02 A2923 1620 100 400 020/07 RMK AO2 P0000 T00170017 $
04850KAOH AOH20160224182512602/24/16 18:25:31  5-MIN KAOH 242325Z AUTO 01009KT 4SM -RA BR OVC004 02/02 A2924 1610 100 400 020/09 RMK AO2 P0000 T00170017 $
04850KAOH AOH20160224183012602/24/16 18:30:31  5-MIN KAOH 242330Z AUTO 01006KT 4SM -RA BR OVC004 02/02 A2924 1610 100 400 010/06 RMK AO2 P0000 T00170017 $
04850KAOH AOH20160224183512602/24/16 18:35:31  5-MIN KAOH 242335Z AUTO 36010KT 3SM -RA BR OVC004 01/01 A2925 1610 100 300 360/10 RMK AO2 P0000 T00110011 $
04850KAOH AOH20160224184012602/24/16 18:40:31  5-MIN KAOH 242340Z AUTO 36008KT 4SM -RA BR OVC004 01/01 A2925 1600 100 300 360/08 RMK AO2 P0000 T00110011 $
04850KAOH AOH20160224184511502/24/16 18:45:31  5-MIN KAOH 242345Z AUTO 36009KT 4SM -RA OVC004 01/ A2926 1600 M 300 010/09 RMK AO2 P0001 T0011 $
04850KAOH AOH20160225005513202/25/16 00:55:31  5-MIN KAOH 250555Z AUTO 31018KT 1SM -SN BR BKN006 OVC011 M01/M02 A2938 1480 92 0 310/18 RMK AO2 P0000 T10111022 $
04850KAOH AOH20160225010014202/25/16 01:00:31  5-MIN KAOH 250600Z AUTO 31015G22KT 1 1/4SM -SN BR BKN006 OVC011 M01/M02 A2938 1480 92 0 310/15G22 RMK AO2 P0000 T10111022 $
04850KAOH AOH20160225010512902/25/16 01:05:31  5-MIN KAOH 250605Z AUTO 31017KT 1 1/4SM -SN BR OVC008 M01/M02 A2939 1480 92 0 310/17 RMK AO2 P0000 T10111022 $
04850KAOH AOH20160225011012902/25/16 01:10:31  5-MIN KAOH 250610Z AUTO 30016KT 1 1/2SM -SN BR OVC008 M01/M02 A2939 1470 92 0 310/16 RMK AO2 P0000 T10111022 $
04850KAOH AOH20160225011513902/25/16 01:15:31  5-MIN KAOH 250615Z AUTO 31016KT 1 3/4SM -SN BR BKN008 OVC013 M01/M02 A2939 1470 92 -100 310/16 RMK AO2 P0000 T10111022 $
04850KAOH AOH20160225012014402/25/16 01:20:31  5-MIN KAOH 250620Z AUTO 31017KT 1 3/4SM -SN BR OVC008 M01/M02 A2939 1470 92 -100 310/17 RMK AO2 CIG 005V012 P0000 T10111022 $
04850KAOH AOH20160225012515102/25/16 01:25:31  5-MIN KAOH 250625Z AUTO 30014KT 1 3/4SM -SN BR BKN008 OVC012 M01/M02 A2940 1470 92 -100 310/14 RMK AO2 CIG 005V010 P0000 T10111022 $
04850KAOH AOH20160225013014402/25/16 01:30:31  5-MIN KAOH 250630Z AUTO 30019KT 1 3/4SM -SN BR OVC008 M01/M02 A2940 1460 92 -100 310/19 RMK AO2 CIG 006V010 P0000 T10111022 $
04850KAOH AOH20160225013515102/25/16 01:35:31  5-MIN KAOH 250635Z AUTO 30015KT 1 3/4SM -SN BR BKN008 OVC012 M01/M02 A2940 1460 92 -100 310/15 RMK AO2 CIG 006V011 P0000 T10111022 $
04850KAOH AOH20160225014015302/25/16 01:40:31  5-MIN KAOH 250640Z AUTO 30018G23KT 2SM -SN BR BKN008 OVC012 M02/M02 A2940 1460 96 -100 310/18G23 RMK AO2 CIG 006V011 P0000 T10171022 $
04850KAOH AOH20160225014514602/25/16 01:45:31  5-MIN KAOH 250645Z AUTO 30017G23KT 2SM -SN BR OVC008 M02/M02 A2940 1460 96 -100 310/17G23 RMK AO2 CIG 006V011 P0000 T10171022 $
04850KAOH AOH20160225015015102/25/16 01:50:31  5-MIN KAOH 250650Z AUTO 30016KT 2 1/2SM -SN BR OVC008 M01/M02 A2941 1460 92 -100 310/16 RMK AO2 CIG 006V011 SLP966 P0000 T10111022 $
04850KAOH AOH20160225015514002/25/16 01:55:31  5-MIN KAOH 250655Z AUTO 30018KT 3SM -SN BR OVC008 M01/M02 A2941 1450 92 -100 310/18 RMK AO2 CIG 006V010 P0000 T10111022 $
04850KAOH AOH20160225020012802/25/16 02:00:31  5-MIN KAOH 250700Z AUTO 30019KT 3SM -SN BR OVC008 M01/M02 A2941 1450 92 -100 310/19 RMK AO2 P0000 T10111022 $
04850KAOH AOH20160225020512802/25/16 02:05:31  5-MIN KAOH 250705Z AUTO 30017KT 3SM -SN BR OVC008 M01/M02 A2941 1450 92 -100 310/17 RMK AO2 P0000 T10111022 $
04850KAOH AOH20160225021013402/25/16 02:10:31  5-MIN KAOH 250710Z AUTO 30020G25KT 3SM -SN BR OVC008 M01/M02 A2942 1450 92 -100 300/20G25 RMK AO2 P0000 T10111022 $
04850KAOH AOH20160225021513802/25/16 02:15:31  5-MIN KAOH 250715Z AUTO 30017G25KT 2 1/2SM -SN BR OVC008 M01/M02 A2942 1450 92 -100 300/17G25 RMK AO2 P0000 T10111022 $
04850KAOH AOH20160225022013202/25/16 02:20:31  5-MIN KAOH 250720Z AUTO 29017KT 2 1/2SM -SN BR OVC008 M01/M02 A2942 1440 92 -100 300/17 RMK AO2 P0000 T10111022 $
04850KAOH AOH20160225022513402/25/16 02:25:31  5-MIN KAOH 250725Z AUTO 30017G23KT 3SM -SN BR OVC008 M01/M02 A2942 1440 92 -100 310/17G23 RMK AO2 P0000 T10111022 $
04850KAOH AOH20160225023014102/25/16 02:30:31  5-MIN KAOH 250730Z AUTO 30019G24KT 3SM -SN BR BKN008 OVC011 M01/M02 A2942 1440 92 -100 310/19G24 RMK AO2 P0000 T10111022 $
04850KAOH AOH20160225023515302/25/16 02:35:31  5-MIN KAOH 250735Z AUTO 30017G24KT 3SM -SN BR BKN008 OVC011 M01/M02 A2942 1440 92 -100 300/17G24 RMK AO2 CIG 006V010 P0000 T10111022 $
04850KAOH AOH20160225024014002/25/16 02:40:31  5-MIN KAOH 250740Z AUTO 29016KT 3SM -SN BR OVC008 M01/M02 A2943 1440 92 -100 300/16 RMK AO2 CIG 006V012 P0000 T10111022 $
04850KAOH AOH20160225024514702/25/16 02:45:31  5-MIN KAOH 250745Z AUTO 30017KT 5SM -SN BR BKN010 OVC014 M01/M02 A2943 1440 92 -100 300/17 RMK AO2 CIG 006V012 P0000 T10111022 $
04850KAOH AOH20160225025015102/25/16 02:50:31  5-MIN KAOH 250750Z AUTO 29014KT 7SM -SN BKN010 OVC014 M01/M02 A2943 1440 92 -100 300/14 RMK AO2 CIG 006V012 SLP974 P0000 T10111022 $
04850KAOH AOH20160225025515002/25/16 02:55:31  5-MIN KAOH 250755Z AUTO 29015G24KT 7SM -SN BKN010 OVC014 M01/M02 A2943 1440 92 -100 300/15G24 RMK AO2 CIG 006V012 P0000 T10111022 $
04850KAOH AOH20160225030013502/25/16 03:00:31  5-MIN KAOH 250800Z AUTO 30015G24KT 8SM OVC012 M01/M02 A2943 1430 92 -100 300/15G24 RMK AO2 SNE0759 P0000 T10111022 $
04850KAOH AOH20160225030514302/25/16 03:05:31  5-MIN KAOH 250805Z AUTO 30016G24KT 9SM UP OVC012 M01/M02 A2943 1430 92 -100 300/16G24 RMK AO2 UPB05SNE0759 P0000 T10111022 $
04850KAOH AOH20160225031014302/25/16 03:10:31  5-MIN KAOH 250810Z AUTO 30018G24KT 9SM UP OVC012 M01/M02 A2944 1430 92 -100 300/18G24 RMK AO2 UPB05SNE0759 P0000 T10111022 $
04850KAOH AOH20160225031515002/25/16 03:15:31  5-MIN KAOH 250815Z AUTO 30016G24KT 8SM BKN012 OVC021 M01/M02 A2944 1430 92 -100 300/16G24 RMK AO2 UPB05E15SNE0759 P0000 T10111022 $
04850KAOH AOH20160225032015002/25/16 03:20:31  5-MIN KAOH 250820Z AUTO 29017G23KT 8SM UP BKN012 OVC021 M01/M02 A2944 1430 92 -100 300/17G23 RMK AO2 UPB05SNE0759 P0000 T10111022 $
04850KAOH AOH20160225032515702/25/16 03:25:31  5-MIN KAOH 250825Z AUTO 29015G23KT 8SM -SN BKN012 OVC018 M01/M02 A2944 1430 92 -100 300/15G23 RMK AO2 UPB05E22SNE0759B23 P0000 T10111022 $
04850KAOH AOH20160225033015102/25/16 03:30:31  5-MIN KAOH 250830Z AUTO 29016KT 8SM -SN BKN012 OVC020 M01/M02 A2944 1420 92 -100 300/16 RMK AO2 UPB05E22SNE0759B23 P0000 T10111022 $
04850KAOH AOH20160225033514402/25/16 03:35:31  5-MIN KAOH 250835Z AUTO 29018KT 7SM -SN OVC011 M01/M02 A2944 1420 92 -100 300/18 RMK AO2 UPB05E22SNE0759B23 P0000 T10111022 $
04850KAOH AOH20160225034016502/25/16 03:40:31  5-MIN KAOH 250840Z AUTO 31015G22KT 6SM -SN BR OVC011 M01/M02 A2944 1420 92 -100 310/15G22 RMK AO2 UPB05E22SNE0759B23 CIG 008V013 P0000 T10111022 $
04850KAOH AOH20160225034515902/25/16 03:45:31  5-MIN KAOH 250845Z AUTO 31014KT 6SM -SN BR OVC010 M01/M02 A2945 1420 92 -100 310/14 RMK AO2 UPB05E22SNE0759B23 CIG 007V013 P0000 T10111022 $
04850KAOH AOH20160225035018402/25/16 03:50:31  5-MIN KAOH 250850Z AUTO 29017G21KT 6SM -SN BR OVC010 M01/M02 A2945 1410 92 -100 300/17G21 RMK AO2 UPB05E22SNE0759B23 CIG 007V015 SLP981 P0000 60000 T10111022 53017 $
04850KAOH AOH20160225035514702/25/16 03:55:31  5-MIN KAOH 250855Z AUTO 30015KT 6SM -SN BR BKN010 OVC021 M01/M02 A2945 1410 92 -100 300/15 RMK AO2 CIG 007V013 P0000 T10111022 $
04850KAOH AOH20160225040015302/25/16 04:00:31  5-MIN KAOH 250900Z AUTO 29017G25KT 6SM -SN BR BKN010 OVC015 M01/M02 A2945 1410 88 -100 290/17G25 RMK AO2 CIG 007V012 P0000 T10061022 $
04850KAOH AOH20160225040515302/25/16 04:05:31  5-MIN KAOH 250905Z AUTO 29017G25KT 5SM -SN BR BKN010 OVC015 M01/M02 A2945 1410 88 -100 300/17G25 RMK AO2 CIG 007V011 P0000 T10061022 $
04850KAOH AOH20160225041015302/25/16 04:10:31  5-MIN KAOH 250910Z AUTO 29018G24KT 5SM -SN BR BKN010 OVC015 M01/M02 A2946 1410 88 -100 290/18G24 RMK AO2 CIG 007V013 P0000 T10061022 $
04850KAOH AOH20160225041513502/25/16 04:15:31  5-MIN KAOH 250915Z AUTO 29017KT 5SM -SN BR BKN012 OVC017 M01/M02 A2946 1410 88 -100 290/17 RMK AO2 P0000 T10061022 $
04850KAOH AOH20160225042014702/25/16 04:20:31  5-MIN KAOH 250920Z AUTO 30015KT 4SM -SN BR BKN010 OVC017 M01/M02 A2946 1400 92 -100 310/15 RMK AO2 CIG 007V013 P0000 T10061017 $
04850KAOH AOH20160225042517102/25/16 04:25:31  5-MIN KAOH 250925Z AUTO 30017G26KT 4SM -SN BR BKN010 OVC015 M01/M02 A2947 1400 88 -100 300/17G26 RMK AO2 PK WND 30026/0922 CIG 007V013 P0000 T10061022 $
04850KAOH AOH20160225043015202/25/16 04:30:31  5-MIN KAOH 250930Z AUTO 29018G26KT 3SM -SN BR OVC012 M01/M02 A2947 1400 88 -100 300/18G26 RMK AO2 PK WND 30026/0922 P0000 T10061022 $
04850KAOH AOH20160225043515902/25/16 04:35:31  5-MIN KAOH 250935Z AUTO 29017G24KT 4SM -SN BR BKN012 OVC019 M01/M02 A2947 1400 88 -100 290/17G24 RMK AO2 PK WND 30026/0922 P0000 T10061022 $
04850KAOH AOH20160225044016502/25/16 04:40:31  5-MIN KAOH 250940Z AUTO 29018KT 5SM -SN BR BKN010 OVC017 M01/M02 A2947 1390 88 -100 290/18 RMK AO2 PK WND 30026/0922 CIG 007V013 P0000 T10061022 $
04850KAOH AOH20160225044516202/25/16 04:45:31  5-MIN KAOH 250945Z AUTO 29018KT 7SM -SN BKN010 OVC017 M01/M02 A2947 1390 88 -100 300/18 RMK AO2 PK WND 30026/0922 CIG 007V013 P0000 T10061022 $
04850KAOH AOH20160225045014802/25/16 04:50:31  5-MIN KAOH 250950Z AUTO 29016G25KT 9SM SCT010 OVC017 M01/M02 A2948 1390 88 -100 300/16G25 RMK AO2 PK WND 30026/0922 SNE50 P0000 $
04850KAOH AOH20160225045512802/25/16 04:55:31  5-MIN KAOH 250955Z AUTO 29017G25KT 9SM BKN012 OVC019 M01/M02 A2948 1390 88 -100 300/17G25 RMK AO2 T10061022 $
04850KAOH AOH20160225050012302/25/16 05:00:31  5-MIN KAOH 251000Z AUTO 30019KT 10SM BKN012 OVC021 M01/M02 A2948 1380 88 -100 300/19 RMK AO2 T10061022 $
04850KAOH AOH20160225050514402/25/16 05:05:31  5-MIN KAOH 251005Z AUTO 30018G25KT 9SM -SN BKN012 OVC023 M01/M02 A2949 1380 88 -100 300/18G25 RMK AO2 SNB02 P0000 T10061022 $
04850KAOH AOH20160225051014402/25/16 05:10:31  5-MIN KAOH 251010Z AUTO 29017G25KT 9SM -SN BKN012 OVC019 M01/M02 A2949 1380 88 -100 300/17G25 RMK AO2 SNB02 P0000 T10061022 $
04850KAOH AOH20160225051514302/25/16 05:15:31  5-MIN KAOH 251015Z AUTO 29017G24KT 9SM BKN012 OVC019 M01/M02 A2949 1380 88 -100 300/17G24 RMK AO2 SNB02E15 P0000 T10061022 $
04850KAOH AOH20160225052014402/25/16 05:20:31  5-MIN KAOH 251020Z AUTO 30017G24KT 9SM -SN BKN012 OVC019 M01/M02 A2949 1380 88 -100 300/17G24 RMK AO2 SNB02 P0000 T10061022 $
04850KAOH AOH20160225052515102/25/16 05:25:31  5-MIN KAOH 251025Z AUTO 30019G25KT 9SM -SN BKN012 BKN018 OVC023 M01/M02 A2949 1370 88 -100 300/19G25 RMK AO2 SNB02 P0000 T10061022 $
04850KAOH AOH20160225053016102/25/16 05:30:31  5-MIN KAOH 251030Z AUTO 30020G26KT 9SM BKN015 OVC022 M01/M02 A2950 1370 88 -100 310/20G26 RMK AO2 PK WND 30026/1029 SNB02E30 P0000 T10061022 $
04850KAOH AOH20160225053516102/25/16 05:35:31  5-MIN KAOH 251035Z AUTO 29017G26KT 9SM BKN015 OVC022 M01/M02 A2950 1370 88 -100 300/17G26 RMK AO2 PK WND 30026/1029 SNB02E30 P0000 T10061022 $
04850KAOH AOH20160225054015502/25/16 05:40:31  5-MIN KAOH 251040Z AUTO 30017G24KT 10SM OVC015 M01/M02 A2950 1370 88 -100 310/17G24 RMK AO2 PK WND 30026/1029 SNB02E30 P0000 T10061022 $
04850KAOH AOH20160225054516102/25/16 05:45:31  5-MIN KAOH 251045Z AUTO 29017G23KT 9SM -SN OVC015 M01/M02 A2950 1370 88 -100 300/17G23 RMK AO2 PK WND 30026/1029 SNB02E30B44 P0000 T10061022 $
04850KAOH AOH20160225055015102/25/16 05:50:31  5-MIN KAOH 251050Z AUTO 30014G21KT 7SM -SN OVC013 M01/M02 A2951 1360 88 -100 300/14G21 RMK AO2 PK WND 30026/1029 SNB02E30B44 P0000 $
04850KAOH AOH20160225055514102/25/16 05:55:31  5-MIN KAOH 251055Z AUTO 30018G26KT 4SM -SN BR BKN013 OVC021 M01/M02 A2951 1360 88 -100 300/18G26 RMK AO2 P0000 T10061022 $
04850KAOH AOH20160225060014102/25/16 06:00:31  5-MIN KAOH 251100Z AUTO 29017G26KT 3SM -SN BR BKN013 OVC021 M01/M02 A2951 1360 92 -100 300/17G26 RMK AO2 P0000 T10061017 $
04850KAOH AOH20160225060514102/25/16 06:05:31  5-MIN KAOH 251105Z AUTO 29016G23KT 3SM -SN BR BKN013 OVC022 M01/M02 A2951 1360 92 -100 300/16G23 RMK AO2 P0000 T10061017 $
04850KAOH AOH20160225061013502/25/16 06:10:31  5-MIN KAOH 251110Z AUTO 30015KT 3SM -SN BR BKN013 OVC022 M01/M02 A2951 1360 92 -100 300/15 RMK AO2 P0000 T10061017 $
04850KAOH AOH20160225061513402/25/16 06:15:31  5-MIN KAOH 251115Z AUTO 30015G24KT 3SM -SN BR OVC013 M01/M02 A2952 1350 92 -100 300/15G24 RMK AO2 P0000 T10061017 $
04850KAOH AOH20160225062016602/25/16 06:20:31  5-MIN KAOH 251120Z AUTO 29018G26KT 3SM -SN BR BKN011 BKN016 OVC022 M01/M02 A2952 1350 92 -100 300/18G26 RMK AO2 PK WND 28026/1118 P0000 T10061017 $
04850KAOH AOH20160225062515902/25/16 06:25:31  5-MIN KAOH 251125Z AUTO 29020G26KT 3SM -SN BR BKN013 OVC022 M01/M02 A2952 1350 92 -100 300/20G26 RMK AO2 PK WND 28026/1118 P0000 T10061017 $
04850KAOH AOH20160225063015202/25/16 06:30:31  5-MIN KAOH 251130Z AUTO 30017G27KT 3SM -SN BR OVC013 M01/M02 A2953 1340 92 -100 300/17G27 RMK AO2 PK WND 29027/1128 P0000 T10061017 $
04850KAOH AOH20160225063515902/25/16 06:35:31  5-MIN KAOH 251135Z AUTO 30018G27KT 3SM -SN BR BKN013 OVC019 M01/M02 A2953 1340 92 -100 310/18G27 RMK AO2 PK WND 29027/1128 P0000 T10061017 $
04850KAOH AOH20160225064015902/25/16 06:40:31  5-MIN KAOH 251140Z AUTO 30018G21KT 3SM -SN BR BKN013 OVC020 M01/M02 A2953 1340 92 -100 300/18G21 RMK AO2 PK WND 29027/1128 P0000 T10061017 $
04850KAOH AOH20160225064515302/25/16 06:45:31  5-MIN KAOH 251145Z AUTO 29016KT 3SM -SN BR BKN013 OVC018 M01/M02 A2953 1340 92 -100 300/16 RMK AO2 PK WND 29027/1128 P0000 T10061017 $
04850KAOH AOH20160225065019602/25/16 06:50:31  5-MIN KAOH 251150Z AUTO 30019G24KT 4SM -SN BR BKN011 OVC018 M01/M02 A2953 1340 92 -100 310/19G24 RMK AO2 PK WND 29027/1128 SLP010 P0000 60000 70073 T10061017 11006 21017 52014 $
04850KAOH AOH20160225065514102/25/16 06:55:31  5-MIN KAOH 251155Z AUTO 29017G26KT 6SM -SN BR BKN011 OVC018 M01/M02 A2954 1330 92 -200 290/17G26 RMK AO2 P0000 T10061017 $
04850KAOH AOH20160225070015602/25/16 07:00:31  5-MIN KAOH 251200Z AUTO 29022G28KT 8SM -SN BKN011 OVC018 M01/M02 A2954 1330 92 -200 300/22G28 RMK AO2 PK WND 28028/1159 P0000 T10061017 $
04850KAOH AOH20160225070517802/25/16 07:05:31  5-MIN KAOH 251205Z AUTO 30017G28KT 8SM UP BKN011 OVC018 M01/M02 A2954 1330 92 -200 310/17G28 RMK AO2 PK WND 28028/1159 UPB05SNE05 CIG 009V013 P0000 T10061017 $
04850KAOH AOH20160225071018302/25/16 07:10:31  5-MIN KAOH 251210Z AUTO 30021G25KT 7SM -SN BKN011 OVC018 M01/M02 A2955 1330 92 -200 310/21G25 RMK AO2 PK WND 28028/1159 UPB05E10SNE05B10 CIG 008V013 P0000 T10061017
04850KAOH AOH20160225071518602/25/16 07:15:31  5-MIN KAOH 251215Z AUTO 30018G26KT 4SM -SN BR BKN010 OVC018 M01/M02 A2955 1320 92 -200 300/18G26 RMK AO2 PK WND 28028/1159 UPB05E10SNE05B10 CIG 007V013 P0000 T10061017
04850KAOH AOH20160225072019302/25/16 07:20:31  5-MIN KAOH 251220Z AUTO 30017G26KT 3SM -SN BR BKN010 BKN013 OVC018 M01/M02 A2955 1320 92 -200 300/17G26 RMK AO2 PK WND 28028/1159 UPB05E10SNE05B10 CIG 007V011 P0000 T10061017
04850KAOH AOH20160225072518002/25/16 07:25:31  5-MIN KAOH 251225Z AUTO 30019KT 3SM -SN BR BKN010 OVC016 M01/M02 A2955 1320 92 -200 300/19 RMK AO2 PK WND 28028/1159 UPB05E10SNE05B10 CIG 007V013 P0000 T10061017
04850KAOH AOH20160225073018402/25/16 07:30:31  5-MIN KAOH 251230Z AUTO 30019KT 2 1/2SM -SN BR BKN009 OVC014 M01/M02 A2955 1320 92 -200 310/19 RMK AO2 PK WND 28028/1159 UPB05E10SNE05B10 CIG 007V012 P0000 T10061017
04850KAOH AOH20160225073517802/25/16 07:35:31  5-MIN KAOH 251235Z AUTO 30018G25KT 1 3/4SM -SN BR BKN009 OVC014 M01/M02 A2956 1310 92 -200 300/18G25 RMK AO2 PK WND 28028/1159 UPB05E10SNE05B10 P0000 T10061017
04850KAOH AOH20160225074017802/25/16 07:40:31  5-MIN KAOH 251240Z AUTO 30020G25KT 1 1/2SM -SN BR BKN009 OVC014 M01/M02 A2956 1310 92 -200 310/20G25 RMK AO2 PK WND 28028/1159 UPB05E10SNE05B10 P0000 T10061017
04850KAOH AOH20160225074517202/25/16 07:45:31  5-MIN KAOH 251245Z AUTO 30016KT 1 1/4SM -SN BR BKN009 OVC015 M01/M02 A2956 1310 92 -200 310/16 RMK AO2 PK WND 28028/1159 UPB05E10SNE05B10 P0000 T10061017
04850KAOH AOH20160225075018102/25/16 07:50:31  5-MIN KAOH 251250Z AUTO 30017G23KT 1SM -SN BR BKN009 OVC015 M01/M02 A2957 1310 92 -200 310/17G23 RMK AO2 PK WND 28028/1159 UPB05E10SNE05B10 SLP020 P0000 T10061017
04850KAOH AOH20160225075513302/25/16 07:55:31  5-MIN KAOH 251255Z AUTO 29019KT 1SM -SN BR BKN009 OVC013 M01/M02 A2957 1300 92 -200 300/19 RMK AO2 P0000 T10061017
04850KAOH AOH20160225080012602/25/16 08:00:31  5-MIN KAOH 251300Z AUTO 30020KT 1SM -SN BR OVC009 M01/M02 A2957 1300 92 -200 310/20 RMK AO2 P0000 T10061017
04850KAOH AOH20160225080516202/25/16 08:05:31  5-MIN KAOH 251305Z AUTO 30019G27KT 1SM -SN BR OVC009 M01/M02 A2958 1300 92 -200 310/19G27 RMK AO2 PK WND 31027/1303 CIG 007V012 P0000 T10061017
04850KAOH AOH20160225081016102/25/16 08:10:31  5-MIN KAOH 251310Z AUTO 30017G27KT 1 1/4SM -SN BR BKN009 OVC012 M01/M02 A2958 1290 92 -200 310/17G27 RMK AO2 PK WND 31027/1303 P0000 T10061017
04850KAOH AOH20160225081516702/25/16 08:15:31  5-MIN KAOH 251315Z AUTO 30020KT 1 1/4SM -SN BR BKN008 OVC012 M01/M02 A2959 1290 92 -200 310/20 RMK AO2 PK WND 31027/1303 CIG 007V011 P0000 T10061017
04850KAOH AOH20160225082017302/25/16 08:20:31  5-MIN KAOH 251320Z AUTO 30019G24KT 1 1/2SM -SN BR BKN008 OVC012 M01/M02 A2959 1290 92 -200 310/19G24 RMK AO2 PK WND 31027/1303 CIG 007V010 P0000 T10061017
04850KAOH AOH20160225082517302/25/16 08:25:31  5-MIN KAOH 251325Z AUTO 30017G24KT 1 1/2SM -SN BR BKN008 OVC012 M01/M02 A2959 1280 92 -200 310/17G24 RMK AO2 PK WND 31027/1303 CIG 007V010 P0000 T10061017
04850KAOH AOH20160225083016702/25/16 08:30:31  5-MIN KAOH 251330Z AUTO 30017KT 1 1/4SM -SN BR BKN008 OVC012 M01/M02 A2959 1280 92 -200 310/17 RMK AO2 PK WND 31027/1303 CIG 007V010 P0000 T10061017
04850KAOH AOH20160225083516402/25/16 08:35:31  5-MIN KAOH 251335Z AUTO 30017G24KT 1SM -SN BR BKN008 BKN014 OVC020 M01/M02 A2959 1280 92 -200 310/17G24 RMK AO2 PK WND 31027/1303 P0000 T10061017
04850KAOH AOH20160225084017602/25/16 08:40:31  5-MIN KAOH 251340Z AUTO 30018G24KT 1SM -SN BR BKN008 BKN014 OVC020 M01/M02 A2960 1280 92 -200 310/18G24 RMK AO2 PK WND 31027/1303 CIG 007V011 P0000 T10061017
04850KAOH AOH20160225084516902/25/16 08:45:31  5-MIN KAOH 251345Z AUTO 30020G26KT 1SM -SN BR BKN008 OVC017 M01/M02 A2960 1280 92 -200 300/20G26 RMK AO2 PK WND 31027/1303 CIG 007V012 P0000 T10061017
04850KAOH AOH20160225085015802/25/16 08:50:31  5-MIN KAOH 251350Z AUTO 31018G26KT 1SM -SN BR BKN010 OVC017 00/M01 A2960 1270 92 -200 310/18G26 RMK AO2 PK WND 31027/1303 CIG 007V011 P0000
04850KAOH AOH20160225085514402/25/16 08:55:31  5-MIN KAOH 251355Z AUTO 31017KT 1SM -SN BR BKN010 OVC017 00/M01 A2960 1270 92 -200 310/17 RMK AO2 CIG 007V013 P0000 T00001011
04850KAOH AOH20160225090014402/25/16 09:00:31  5-MIN KAOH 251400Z AUTO 30018KT 1SM -SN BR BKN009 OVC017 00/M01 A2961 1270 92 -200 310/18 RMK AO2 CIG 007V014 P0000 T00001011
04850KAOH AOH20160225090513702/25/16 09:05:31  5-MIN KAOH 251405Z AUTO 30019KT 1SM -SN BR OVC009 00/M01 A2961 1270 92 -200 310/19 RMK AO2 CIG 007V014 P0000 T00001011
04850KAOH AOH20160225091014902/25/16 09:10:31  5-MIN KAOH 251410Z AUTO 30021G26KT 1SM -SN BR OVC009 00/M01 A2961 1260 92 -200 300/21G26 RMK AO2 PK WND 30026/1410 P0000 T00001011
04850KAOH AOH20160225091515602/25/16 09:15:31  5-MIN KAOH 251415Z AUTO 30021G26KT 1SM -SN BR BKN009 OVC015 00/M01 A2961 1260 92 -200 310/21G26 RMK AO2 PK WND 30026/1414 P0000 T00001011
04850KAOH AOH20160225092015102/25/16 09:20:31  5-MIN KAOH 251420Z AUTO 30017G26KT 3/4SM -SN BR OVC009 00/M01 A2962 1260 92 -200 310/17G26 RMK AO2 PK WND 30026/1414 P0000 T00001011
04850KAOH AOH20160225092514502/25/16 09:25:31  5-MIN KAOH 251425Z AUTO 30017KT 3/4SM -SN BR OVC009 00/M01 A2962 1260 92 -200 300/17 RMK AO2 PK WND 30026/1414 P0000 T00001011
04850KAOH AOH20160225093014502/25/16 09:30:31  5-MIN KAOH 251430Z AUTO 30016KT 3/4SM -SN BR OVC009 00/M01 A2962 1250 92 -200 310/16 RMK AO2 PK WND 30026/1414 P0000 T00001011
04850KAOH AOH20160225093515102/25/16 09:35:31  5-MIN KAOH 251435Z AUTO 30020G24KT 3/4SM -SN BR OVC009 00/M01 A2963 1250 92 -200 310/20G24 RMK AO2 PK WND 30026/1414 P0001 T00001011
04850KAOH AOH20160225094016102/25/16 09:40:31  5-MIN KAOH 251440Z AUTO 30020G27KT 1SM -SN BR OVC009 00/M01 A2963 1250 92 -200 310/20G27 RMK AO2 PK WND 30027/1440 CIG 006V013 P0001 T00001011
04850KAOH AOH20160225094516002/25/16 09:45:31  5-MIN KAOH 251445Z AUTO 30018G27KT 1 1/4SM -SN BR BKN009 OVC013 00/M01 A2963 1240 92 -200 310/18G27 RMK AO2 PK WND 30027/1440 P0001 T00001011
04850KAOH AOH20160225095017302/25/16 09:50:31  5-MIN KAOH 251450Z AUTO 30019KT 1 1/2SM -SN BR BKN009 OVC013 00/M01 A2964 1240 92 -200 310/19 RMK AO2 PK WND 30027/1440 SLP044 P0001 60001 T00001011 53020
04850KAOH AOH20160225095513502/25/16 09:55:31  5-MIN KAOH 251455Z AUTO 30019G26KT 1 3/4SM -SN BR OVC011 00/M01 A2964 1240 92 -200 300/19G26 RMK AO2 P0000 T00001011
04850KAOH AOH20160225100013502/25/16 10:00:31  5-MIN KAOH 251500Z AUTO 30018G26KT 1 3/4SM -SN BR OVC011 00/M01 A2964 1240 92 -200 310/18G26 RMK AO2 P0000 T00001011
04850KAOH AOH20160225100513502/25/16 10:05:31  5-MIN KAOH 251505Z AUTO 30018G24KT 1 3/4SM -SN BR OVC011 00/M01 A2964 1230 92 -200 310/18G24 RMK AO2 P0000 T00001011
04850KAOH AOH20160225101013502/25/16 10:10:31  5-MIN KAOH 251510Z AUTO 31021G25KT 1 3/4SM -SN BR OVC011 00/M02 A2965 1230 88 -200 310/21G25 RMK AO2 P0000 T00001017
04850KAOH AOH20160225101515302/25/16 10:15:31  5-MIN KAOH 251515Z AUTO 30020G27KT 1 1/2SM -SN BR OVC011 00/M01 A2965 1230 92 -200 310/20G27 RMK AO2 PK WND 31027/1515 P0000 T00001011
04850KAOH AOH20160225102016502/25/16 10:20:31  5-MIN KAOH 251520Z AUTO 31019G27KT 1 1/2SM -SN BR OVC011 00/M01 A2965 1230 92 -200 310/19G27 RMK AO2 PK WND 31027/1515 CIG 007V013 P0000 T00001011
04850KAOH AOH20160225102515302/25/16 10:25:31  5-MIN KAOH 251525Z AUTO 30019G27KT 1 1/2SM -SN BR OVC011 00/M01 A2966 1220 92 -200 310/19G27 RMK AO2 PK WND 31027/1515 P0000 T00001011
04850KAOH AOH20160225103016502/25/16 10:30:31  5-MIN KAOH 251530Z AUTO 30017G27KT 1 1/2SM -SN BR OVC011 00/M01 A2966 1220 92 -200 310/17G27 RMK AO2 PK WND 31027/1515 CIG 007V014 P0000 T00001011
04850KAOH AOH20160225103514702/25/16 10:35:31  5-MIN KAOH 251535Z AUTO 30016KT 1 1/4SM -SN BR OVC011 00/M01 A2966 1220 92 -200 310/16 RMK AO2 PK WND 31027/1515 P0000 T00001011
04850KAOH AOH20160225104014702/25/16 10:40:31  5-MIN KAOH 251540Z AUTO 30017KT 1 1/4SM -SN BR OVC010 00/M01 A2967 1210 92 -200 300/17 RMK AO2 PK WND 31027/1515 P0000 T00001011
04850KAOH AOH20160225104514702/25/16 10:45:31  5-MIN KAOH 251545Z AUTO 30018KT 1 1/4SM -SN BR OVC010 00/M01 A2967 1210 92 -200 300/18 RMK AO2 PK WND 31027/1515 P0000 T00001011
04850KAOH AOH20160225105016702/25/16 10:50:31  5-MIN KAOH 251550Z AUTO 30020G26KT 1 1/4SM -SN BR BKN010 OVC014 00/M01 A2967 1210 92 -200 310/20G26 RMK AO2 PK WND 31027/1515 SLP055 P0000 T00001011
04850KAOH AOH20160225105514202/25/16 10:55:31  5-MIN KAOH 251555Z AUTO 30019G26KT 1 1/4SM -SN BR BKN010 OVC014 00/M01 A2967 1210 92 -200 310/19G26 RMK AO2 P0000 T00001011
04850KAOH AOH20160225110013502/25/16 11:00:31  5-MIN KAOH 251600Z AUTO 30018G25KT 1 1/4SM -SN BR OVC011 00/M01 A2968 1210 92 -200 300/18G25 RMK AO2 P0000 T00001011
04850KAOH AOH20160225110515402/25/16 11:05:31  5-MIN KAOH 251605Z AUTO 30018G24KT 1 1/4SM -SN BR BKN009 OVC014 00/M01 A2968 1200 92 -200 310/18G24 RMK AO2 CIG 006V011 P0000 T00001011
04850KAOH AOH20160225111015402/25/16 11:10:31  5-MIN KAOH 251610Z AUTO 30017G24KT 1 1/4SM -SN BR BKN009 OVC014 00/M01 A2968 1200 92 -200 300/17G24 RMK AO2 CIG 006V010 P0000 T00001011
04850KAOH AOH20160225111515402/25/16 11:15:31  5-MIN KAOH 251615Z AUTO 30018G24KT 1 1/4SM -SN BR BKN009 OVC014 00/M01 A2969 1190 92 -300 310/18G24 RMK AO2 CIG 006V012 P0000 T00001011
04850KAOH AOH20160225112017202/25/16 11:20:31  5-MIN KAOH 251620Z AUTO 30019G26KT 1 1/4SM -SN BR BKN009 OVC014 00/M01 A2969 1190 92 -300 310/19G26 RMK AO2 PK WND 31026/1620 CIG 006V011 P0000 T00001011
04850KAOH AOH20160225112517202/25/16 11:25:31  5-MIN KAOH 251625Z AUTO 30019G26KT 1 1/4SM -SN BR BKN009 OVC014 00/M01 A2969 1190 92 -300 300/19G26 RMK AO2 PK WND 31026/1620 CIG 006V011 P0000 T00001011
04850KAOH AOH20160225113015402/25/16 11:30:31  5-MIN KAOH 251630Z AUTO 30018KT 1 1/4SM -SN BR BKN009 OVC014 00/M01 A2969 1190 92 -300 300/18 RMK AO2 PK WND 31026/1620 P0000 T00001011
04850KAOH AOH20160225113514302/25/16 11:35:31  5-MIN KAOH 251635Z AUTO 30017KT 1SM -SN BR OVC009 00/M01 A2970 1190 92 -300 300/17 RMK AO2 PK WND 31026/1620 P0000 T00001011
04850KAOH AOH20160225114015802/25/16 11:40:31  5-MIN KAOH 251640Z AUTO 30018G26KT 3/4SM -SN BR BKN009 OVC015 00/M01 A2970 1180 92 -300 300/18G26 RMK AO2 PK WND 31026/1638 P0000 T00001011
04850KAOH AOH20160225114515802/25/16 11:45:31  5-MIN KAOH 251645Z AUTO 30021G26KT 3/4SM -SN BR BKN009 OVC015 00/M01 A2970 1180 92 -300 310/21G26 RMK AO2 PK WND 31026/1638 P0000 T00001011
04850KAOH AOH20160225115016502/25/16 11:50:31  5-MIN KAOH 251650Z AUTO 30023G28KT 3/4SM -SN BR BKN009 OVC015 00/M01 A2970 1180 92 -300 300/23G28 RMK AO2 PK WND 30028/1649 SLP067 P0000 T00001011
04850KAOH AOH20160225115513302/25/16 11:55:31  5-MIN KAOH 251655Z AUTO 30017G28KT 3/4SM -SN BR OVC009 00/M01 A2971 1180 92 -300 300/17G28 RMK AO2 P0000 T00001011
04850KAOH AOH20160225120015802/25/16 12:00:31  5-MIN KAOH 251700Z AUTO 30021G29KT 3/4SM -SN BR BKN009 OVC013 00/M01 A2971 1170 92 -300 310/21G29 RMK AO2 PK WND 31029/1658 P0000 T00001011
04850KAOH AOH20160225120515802/25/16 12:05:31  5-MIN KAOH 251705Z AUTO 30020G29KT 3/4SM -SN BR BKN009 OVC013 00/M01 A2971 1170 92 -300 300/20G29 RMK AO2 PK WND 31029/1658 P0000 T00001011
04850KAOH AOH20160225121015802/25/16 12:10:31  5-MIN KAOH 251710Z AUTO 30018G26KT 3/4SM -SN BR BKN009 OVC013 00/00 A2972 1170 100 -300 300/18G26 RMK AO2 PK WND 31029/1658 P0000 T00000000
04850KAOH AOH20160225121514902/25/16 12:15:31  5-MIN KAOH 251715Z AUTO 29015G26KT 1SM -SN BR OVC011 00/00 A2972 1170 100 -300 300/15G26 RMK AO2 PK WND 31029/1658 P0000 T00000000
04850KAOH AOH20160225122016002/25/16 12:20:31  5-MIN KAOH 251720Z AUTO 30020G26KT 1 1/4SM -SN BR BKN009 OVC013 00/00 A2972 1160 100 -300 300/20G26 RMK AO2 PK WND 31029/1658 P0000 T00000000
04850KAOH AOH20160225122516002/25/16 12:25:31  5-MIN KAOH 251725Z AUTO 30020G27KT 1 1/4SM -SN BR BKN009 OVC013 00/00 A2972 1160 100 -300 300/20G27 RMK AO2 PK WND 31029/1658 P0000 T00000000
04850KAOH AOH20160225123015402/25/16 12:30:31  5-MIN KAOH 251730Z AUTO 30021KT 1 1/4SM -SN BR BKN009 OVC017 00/00 A2972 1160 100 -300 300/21 RMK AO2 PK WND 31029/1658 P0000 T00000000
04850KAOH AOH20160225123515302/25/16 12:35:31  5-MIN KAOH 251735Z AUTO 30023G28KT 1 1/4SM -SN BR OVC009 00/00 A2972 1160 100 -300 310/23G28 RMK AO2 PK WND 31029/1658 P0000 T00000000
04850KAOH AOH20160225124015302/25/16 12:40:31  5-MIN KAOH 251740Z AUTO 30021G28KT 1 1/4SM -SN BR OVC011 00/00 A2973 1160 100 -300 310/21G28 RMK AO2 PK WND 31029/1658 P0000 T00000000
04850KAOH AOH20160225124514702/25/16 12:45:31  5-MIN KAOH 251745Z AUTO 30019KT 1 1/2SM -SN BR OVC009 00/00 A2973 1150 100 -300 310/19 RMK AO2 PK WND 31029/1658 P0000 T00000000
04850KAOH AOH20160225125019102/25/16 12:50:31  5-MIN KAOH 251750Z AUTO 30015G27KT 1 1/4SM -SN BR BKN009 OVC017 00/00 A2973 1150 100 -300 310/15G27 RMK AO2 PK WND 31029/1658 SLP078 P0000 60001 T00000000 10000 21006 53034
04850KAOH AOH20160225125516002/25/16 12:55:31  5-MIN KAOH 251755Z AUTO 29019G27KT 1 1/4SM -SN BR BKN009 OVC018 00/00 A2973 1150 100 -300 300/19G27 RMK AO2 PK WND 29027/1755 P0000 T00000000
04850KAOH AOH20160225130017202/25/16 13:00:31  5-MIN KAOH 251800Z AUTO 30019G27KT 1 1/4SM -SN BR BKN009 OVC015 00/00 A2973 1150 100 -300 300/19G27 RMK AO2 PK WND 29027/1755 CIG 007V013 P0000 T00000000
04850KAOH AOH20160225130516602/25/16 13:05:31  5-MIN KAOH 251805Z AUTO 29017KT 1 1/4SM -SN BR BKN009 OVC015 00/00 A2974 1150 100 -300 300/17 RMK AO2 PK WND 29027/1755 CIG 007V013 P0000 T00000000
04850KAOH AOH20160225131017202/25/16 13:10:31  5-MIN KAOH 251810Z AUTO 30018G24KT 1 1/4SM -SN BR BKN009 OVC015 00/00 A2974 1150 100 -300 300/18G24 RMK AO2 PK WND 29027/1755 CIG 007V012 P0000 T00000000
04850KAOH AOH20160225131517202/25/16 13:15:31  5-MIN KAOH 251815Z AUTO 30020G26KT 1 1/4SM -SN BR BKN009 OVC017 00/00 A2974 1140 100 -300 310/20G26 RMK AO2 PK WND 29027/1755 CIG 007V013 P0000 T00000000
04850KAOH AOH20160225132017202/25/16 13:20:31  5-MIN KAOH 251820Z AUTO 30016G26KT 1 1/4SM -SN BR BKN010 OVC016 00/00 A2974 1140 100 -300 310/16G26 RMK AO2 PK WND 29027/1755 CIG 007V013 P0000 T00000000
04850KAOH AOH20160225132516002/25/16 13:25:31  5-MIN KAOH 251825Z AUTO 30020G26KT 1 1/4SM -SN BR BKN010 OVC016 00/00 A2974 1140 100 -300 310/20G26 RMK AO2 PK WND 29027/1755 P0000 T00000000
04850KAOH AOH20160225133016002/25/16 13:30:31  5-MIN KAOH 251830Z AUTO 30017G26KT 1 1/2SM -SN BR BKN010 OVC016 00/00 A2974 1140 100 -300 300/17G26 RMK AO2 PK WND 29027/1755 P0000 T00000000
04850KAOH AOH20160225133516002/25/16 13:35:31  5-MIN KAOH 251835Z AUTO 30017G24KT 1 3/4SM -SN BR BKN010 OVC016 00/00 A2975 1140 100 -300 300/17G24 RMK AO2 PK WND 29027/1755 P0000 T00000000
04850KAOH AOH20160225134016002/25/16 13:40:31  5-MIN KAOH 251840Z AUTO 30017G23KT 1 3/4SM -SN BR BKN010 OVC016 01/01 A2975 1140 100 -300 300/17G23 RMK AO2 PK WND 29027/1755 P0000 T00060006
04850KAOH AOH20160225134515402/25/16 13:45:31  5-MIN KAOH 251845Z AUTO 30016KT 1 3/4SM -SN BR BKN010 OVC013 01/01 A2975 1140 100 -300 310/16 RMK AO2 PK WND 29027/1755 P0000 T00060006
04850KAOH AOH20160225135016702/25/16 13:50:31  5-MIN KAOH 251850Z AUTO 30020G25KT 1 3/4SM -SN BR BKN010 OVC018 01/01 A2975 1130 100 -300 300/20G25 RMK AO2 PK WND 29027/1755 SLP084 P0000 T00060006
04850KAOH AOH20160225135513502/25/16 13:55:31  5-MIN KAOH 251855Z AUTO 30020G28KT 1 3/4SM -SN BR OVC010 00/00 A2976 1130 100 -300 300/20G28 RMK AO2 P0000 T00000000
04850KAOH AOH20160225140017902/25/16 14:00:31  5-MIN KAOH 251900Z AUTO 30022G28KT 1 3/4SM -SN BR BKN010 BKN015 OVC020 00/00 A2976 1130 100 -300 310/22G28 RMK AO2 PK WND 30027/1857 CIG 007V013 P0000 T00000000
04850KAOH AOH20160225140516002/25/16 14:05:31  5-MIN KAOH 251905Z AUTO 30020G27KT 1 1/4SM -SN BR BKN010 OVC020 00/00 A2976 1120 100 -300 310/20G27 RMK AO2 PK WND 30027/1857 P0000 T00000000
04850KAOH AOH20160225141015602/25/16 14:10:31  5-MIN KAOH 251910Z AUTO 30022G28KT 1SM -SN BR BKN010 OVC020 00/00 A2977 1120 100 -300 310/22G28 RMK AO2 PK WND 30028/1909 P0000 T00000000
04850KAOH AOH20160225141515602/25/16 14:15:31  5-MIN KAOH 251915Z AUTO 30020G28KT 1SM -SN BR BKN011 OVC020 00/00 A2977 1120 100 -300 310/20G28 RMK AO2 PK WND 30028/1913 P0000 T00000000
04850KAOH AOH20160225142014902/25/16 14:20:31  5-MIN KAOH 251920Z AUTO 30024G28KT 1SM -SN BR OVC011 00/00 A2977 1110 100 -400 310/24G28 RMK AO2 PK WND 30028/1920 P0000 T00000000
04850KAOH AOH20160225142515002/25/16 14:25:31  5-MIN KAOH 251925Z AUTO 30019G28KT 1/2SM SN FG OVC011 00/00 A2978 1110 100 -400 300/19G28 RMK AO2 PK WND 30028/1920 P0000 T00000000
04850KAOH AOH20160225143016202/25/16 14:30:31  5-MIN KAOH 251930Z AUTO 30016G26KT 1/2SM -SN FZFG BKN011 OVC014 M01/M01 A2978 1110 100 -400 300/16G26 RMK AO2 PK WND 30028/1920 P0000 T10061006
04850KAOH AOH20160225143515802/25/16 14:35:31  5-MIN KAOH 251935Z AUTO 30020G26KT 3/4SM -SN BR SCT009 OVC014 00/00 A2978 1110 100 -400 310/20G26 RMK AO2 PK WND 30028/1920 P0000 T00000000
04850KAOH AOH20160225144015602/25/16 14:40:31  5-MIN KAOH 251940Z AUTO 30021G26KT 1SM -SN BR SCT009 OVC014 00/00 A2978 1110 100 -400 310/21G26 RMK AO2 PK WND 30028/1920 P0000 T00000000
04850KAOH AOH20160225144515602/25/16 14:45:31  5-MIN KAOH 251945Z AUTO 30019G26KT 1SM -SN BR BKN009 OVC014 00/00 A2979 1100 100 -400 310/19G26 RMK AO2 PK WND 30028/1920 P0000 T00000000
04850KAOH AOH20160225145014602/25/16 14:50:31  5-MIN KAOH 251950Z AUTO 30020G26KT 1SM -SN BR BKN009 OVC017 00/00 A2979 1100 100 -400 310/20G26 RMK AO2 PK WND 30028/1920 P0000
04850KAOH AOH20160225145513802/25/16 14:55:31  5-MIN KAOH 251955Z AUTO 30014G24KT 1SM -SN BR BKN009 OVC017 00/00 A2979 1100 100 -400 310/14G24 RMK AO2 P0000 T00000000
04850KAOH AOH20160225150014202/25/16 15:00:31  5-MIN KAOH 252000Z AUTO 30018G23KT 1 1/2SM -SN BR BKN010 OVC019 00/00 A2980 1090 100 -400 300/18G23 RMK AO2 P0000 T00000000
04850KAOH AOH20160225150514902/25/16 15:05:31  5-MIN KAOH 252005Z AUTO 30016G23KT 2 1/2SM -SN BR BKN010 BKN017 OVC022 00/00 A2980 1090 100 -400 310/16G23 RMK AO2 P0000 T00000000
04850KAOH AOH20160225151013802/25/16 15:10:31  5-MIN KAOH 252010Z AUTO 30019G23KT 3SM -SN BR BKN010 OVC017 00/00 A2980 1090 100 -400 310/19G23 RMK AO2 P0000 T00000000
04850KAOH AOH20160225151513602/25/16 15:15:31  5-MIN KAOH 252015Z AUTO 30017KT 2 1/2SM -SN BR BKN010 OVC016 00/00 A2981 1080 100 -400 310/17 RMK AO2 P0000 T00000000
04850KAOH AOH20160225152014302/25/16 15:20:31  5-MIN KAOH 252020Z AUTO 30018KT 2 1/2SM -SN BR BKN010 BKN016 OVC026 00/00 A2981 1080 100 -400 310/18 RMK AO2 P0000 T00000000
04850KAOH AOH20160225152514902/25/16 15:25:31  5-MIN KAOH 252025Z AUTO 30015G24KT 2 1/2SM -SN BR BKN010 BKN018 OVC026 00/00 A2981 1080 100 -400 300/15G24 RMK AO2 P0000 T00000000
04850KAOH AOH20160225153014502/25/16 15:30:31  5-MIN KAOH 252030Z AUTO 30017G24KT 4SM -SN BR BKN012 BKN018 OVC026 00/00 A2981 1080 100 -400 300/17G24 RMK AO2 P0000 T00000000
04850KAOH AOH20160225153516302/25/16 15:35:31  5-MIN KAOH 252035Z AUTO 30022G29KT 5SM -SN BR FEW012 SCT016 OVC026 00/00 A2982 1070 100 -400 310/22G29 RMK AO2 PK WND 29029/2035 P0000 T00000000
04850KAOH AOH20160225154016302/25/16 15:40:31  5-MIN KAOH 252040Z AUTO 30021G30KT 5SM -SN BR FEW010 SCT016 OVC026 01/01 A2982 1070 100 -300 310/21G30 RMK AO2 PK WND 30030/2040 P0000 T00060006
04850KAOH AOH20160225154517202/25/16 15:45:31  5-MIN KAOH 252045Z AUTO 31020G30KT 6SM UP BR FEW010 FEW015 OVC026 01/00 A2982 1070 96 -300 310/20G30 RMK AO2 PK WND 30030/2040 UPB42SNE42 P0000 T00060000
04850KAOH AOH20160225225512002/25/16 22:55:31  5-MIN KAOH 260355Z AUTO 32014G23KT 10SM OVC027 M03/M07 A3004 860 71 -1000 330/14G23 RMK AO2 T10281072
04850KAOH AOH20160225230012002/25/16 23:00:31  5-MIN KAOH 260400Z AUTO 33012G20KT 10SM OVC027 M03/M07 A3005 860 71 -1000 330/12G20 RMK AO2 T10281072
04850KAOH AOH20160225230512002/25/16 23:05:31  5-MIN KAOH 260405Z AUTO 32016G21KT 10SM OVC027 M03/M07 A3005 860 71 -1000 320/16G21 RMK AO2 T10281072
04850KAOH AOH20160225231012002/25/16 23:10:31  5-MIN KAOH 260410Z AUTO 32016G21KT 10SM OVC027 M03/M07 A3005 860 71 -1000 330/16G21 RMK AO2 T10281072
04850KAOH AOH20160225231512002/25/16 23:15:31  5-MIN KAOH 260415Z AUTO 32016G21KT 10SM OVC027 M03/M07 A3005 860 75 -1000 330/16G21 RMK AO2 T10281067
04850KAOH AOH20160225232012002/25/16 23:20:31  5-MIN KAOH 260420Z AUTO 32018G24KT 10SM OVC027 M03/M07 A3005 860 75 -1000 320/18G24 RMK AO2 T10281067
04850KAOH AOH20160225232512002/25/16 23:25:31  5-MIN KAOH 260425Z AUTO 31021G24KT 10SM OVC027 M03/M07 A3005 850 71 -1000 320/21G24 RMK AO2 T10281072
04850KAOH AOH20160225233012002/25/16 23:30:31  5-MIN KAOH 260430Z AUTO 31019G24KT 10SM OVC027 M03/M07 A3005 850 71 -1000 310/19G24 RMK AO2 T10281072
04850KAOH AOH20160225233513002/25/16 23:35:31  5-MIN KAOH 260435Z AUTO 32019KT 10SM -SN OVC027 M03/M07 A3006 850 71 -1000 320/19 RMK AO2 SNB34 P0000 T10281072
04850KAOH AOH20160225234012902/25/16 23:40:31  5-MIN KAOH 260440Z AUTO 31016KT 9SM -SN OVC027 M03/M07 A3006 850 71 -1000 310/16 RMK AO2 SNB34 P0000 T10281072
04850KAOH AOH20160225234513402/25/16 23:45:31  5-MIN KAOH 260445Z AUTO 31018G25KT 9SM OVC028 M03/M08 A3006 850 68 -1000 310/18G25 RMK AO2 SNB34E42 P0000 T10281078
04850KAOH AOH20160225235015202/25/16 23:50:31  5-MIN KAOH 260450Z AUTO 31015G25KT 10SM OVC028 M03/M08 A3006 850 68 -1000 320/15G25 RMK AO2 SNB34E42 SLP189 P0000 T10281078 400061028
04850KAOH AOH20160225235512002/25/16 23:55:31  5-MIN KAOH 260455Z AUTO 31017G24KT 10SM OVC028 M03/M07 A3006 850 71 -1000 310/17G24 RMK AO2 T10281072
04850KAOH AOH20160226000013802/26/16 00:00:31  5-MIN KAOH 260500Z AUTO 30019G26KT 10SM OVC028 M03/M08 A3006 850 68 -1000 310/19G26 RMK AO2 PK WND 31026/0500 T10281078
04850KAOH AOH20160226000513802/26/16 00:05:31  5-MIN KAOH 260505Z AUTO 31018G26KT 10SM OVC026 M03/M08 A3006 850 68 -1000 320/18G26 RMK AO2 PK WND 31026/0500 T10281078
04850KAOH AOH20160226001013802/26/16 00:10:31  5-MIN KAOH 260510Z AUTO 31015G24KT 10SM OVC026 M03/M07 A3006 850 71 -1000 320/15G24 RMK AO2 PK WND 31026/0500 T10281072
04850KAOH AOH20160226001513802/26/16 00:15:31  5-MIN KAOH 260515Z AUTO 31017G24KT 10SM OVC026 M03/M07 A3006 850 71 -1000 310/17G24 RMK AO2 PK WND 31026/0500 T10281072
04850KAOH AOH20160226002013202/26/16 00:20:31  5-MIN KAOH 260520Z AUTO 31017KT 10SM OVC026 M03/M07 A3006 850 71 -1000 320/17 RMK AO2 PK WND 31026/0500 T10281072
04850KAOH AOH20160226002513202/26/16 00:25:31  5-MIN KAOH 260525Z AUTO 31015KT 10SM OVC025 M03/M07 A3006 850 74 -1100 320/15 RMK AO2 PK WND 31026/0500 T10331072
04850KAOH AOH20160226003013202/26/16 00:30:31  5-MIN KAOH 260530Z AUTO 32014KT 10SM OVC025 M03/M07 A3006 840 74 -1100 320/14 RMK AO2 PK WND 31026/0500 T10331072
04850KAOH AOH20160226003513202/26/16 00:35:31  5-MIN KAOH 260535Z AUTO 32016KT 10SM OVC025 M03/M07 A3007 840 74 -1100 320/16 RMK AO2 PK WND 31026/0500 T10331072
04850KAOH AOH20160226004013802/26/16 00:40:31  5-MIN KAOH 260540Z AUTO 33016G23KT 10SM OVC025 M03/M08 A3007 840 71 -1100 340/16G23 RMK AO2 PK WND 31026/0500 T10331078
04850KAOH AOH20160226004513202/26/16 00:45:31  5-MIN KAOH 260545Z AUTO 33016KT 10SM OVC027 M03/M08 A3007 840 68 -1100 340/16 RMK AO2 PK WND 31026/0500 T10331083
04850KAOH AOH20160226005016902/26/16 00:50:31  5-MIN KAOH 260550Z AUTO 33015G25KT 10SM OVC027 M03/M08 A3007 840 68 -1100 340/15G25 RMK AO2 PK WND 31026/0500 SLP194 60000 T10331083 11011 21033 51024
04850KAOH AOH20160226005512002/26/16 00:55:31  5-MIN KAOH 260555Z AUTO 32014G25KT 10SM OVC029 M03/M08 A3007 830 68 -1100 330/14G25 RMK AO2 T10331083
04850KAOH AOH20160226010012002/26/16 01:00:31  5-MIN KAOH 260600Z AUTO 32015G21KT 10SM OVC031 M03/M08 A3007 840 68 -1100 320/15G21 RMK AO2 T10331083
04850KAOH AOH20160226010512702/26/16 01:05:31  5-MIN KAOH 260605Z AUTO 32014G21KT 10SM BKN031 OVC047 M03/M08 A3007 840 68 -1100 330/14G21 RMK AO2 T10331083
04850KAOH AOH20160226011012102/26/16 01:10:31  5-MIN KAOH 260610Z AUTO 32014KT 10SM BKN031 OVC047 M03/M08 A3007 840 68 -1100 330/14 RMK AO2 T10331083
04850KAOH AOH20160226011512102/26/16 01:15:31  5-MIN KAOH 260615Z AUTO 34011KT 10SM SCT031 OVC047 M03/M08 A3007 840 68 -1100 340/11 RMK AO2 T10331083
04850KAOH AOH20160226012012702/26/16 01:20:31  5-MIN KAOH 260620Z AUTO 33013G19KT 10SM FEW031 OVC047 M03/M09 A3007 840 65 -1100 340/13G19 RMK AO2 T10331089
04850KAOH AOH20160226012512102/26/16 01:25:31  5-MIN KAOH 260625Z AUTO 33012KT 10SM FEW033 OVC047 M03/M09 A3007 840 65 -1100 340/12 RMK AO2 T10331089
04850KAOH AOH20160226013012002/26/16 01:30:31  5-MIN KAOH 260630Z AUTO 33013G20KT 10SM OVC047 M03/M09 A3008 830 65 -1100 340/13G20 RMK AO2 T10331089
04850KAOH AOH20160226013511402/26/16 01:35:31  5-MIN KAOH 260635Z AUTO 33011KT 10SM OVC047 M03/M09 A3008 830 65 -1100 330/11 RMK AO2 T10331089
04850KAOH AOH20160226014011402/26/16 01:40:31  5-MIN KAOH 260640Z AUTO 32012KT 10SM OVC048 M03/M09 A3008 830 65 -1100 330/12 RMK AO2 T10331089
04850KAOH AOH20160226014512002/26/16 01:45:31  5-MIN KAOH 260645Z AUTO 32015G19KT 10SM OVC048 M03/M09 A3008 830 65 -1100 330/15G19 RMK AO2 T10331089
04850KAOH AOH20160226015012702/26/16 01:50:31  5-MIN KAOH 260650Z AUTO 33010G19KT 10SM OVC048 M03/M09 A3008 830 65 -1100 340/10G19 RMK AO2 SLP198 T10331089
04850KAOH AOH20160226015511402/26/16 01:55:31  5-MIN KAOH 260655Z AUTO 33009KT 10SM OVC048 M03/M09 A3009 820 63 -1100 340/09 RMK AO2 T10331094
04850KAOH AOH20160226020011402/26/16 02:00:31  5-MIN KAOH 260700Z AUTO 33011KT 10SM OVC048 M03/M09 A3009 820 63 -1100 330/11 RMK AO2 T10331094
04850KAOH AOH20160226020511402/26/16 02:05:31  5-MIN KAOH 260705Z AUTO 33010KT 10SM OVC048 M03/M09 A3009 820 63 -1100 330/10 RMK AO2 T10331094
04850KAOH AOH20160226021011402/26/16 02:10:31  5-MIN KAOH 260710Z AUTO 33010KT 10SM OVC048 M03/M09 A3009 820 65 -1100 330/10 RMK AO2 T10331089
04850KAOH AOH20160226021511402/26/16 02:15:31  5-MIN KAOH 260715Z AUTO 33009KT 10SM OVC048 M03/M09 A3009 820 63 -1100 330/09 RMK AO2 T10331094
04850KAOH AOH20160226022011402/26/16 02:20:31  5-MIN KAOH 260720Z AUTO 33010KT 10SM OVC048 M03/M09 A3009 820 63 -1100 330/10 RMK AO2 T10331094
04850KAOH AOH20160226022511402/26/16 02:25:31  5-MIN KAOH 260725Z AUTO 32009KT 10SM OVC048 M03/M09 A3009 820 63 -1100 330/09 RMK AO2 T10331094
04850KAOH AOH20160226023011402/26/16 02:30:31  5-MIN KAOH 260730Z AUTO 33009KT 10SM OVC048 M03/M09 A3009 820 63 -1100 330/09 RMK AO2 T10331094
04850KAOH AOH20160226023511402/26/16 02:35:31  5-MIN KAOH 260735Z AUTO 32008KT 10SM OVC048 M03/M09 A3009 820 65 -1100 330/08 RMK AO2 T10331089
04850KAOH AOH20160226024011402/26/16 02:40:31  5-MIN KAOH 260740Z AUTO 32007KT 10SM OVC048 M03/M09 A3009 820 65 -1100 330/07 RMK AO2 T10331089
04850KAOH AOH20160226024511402/26/16 02:45:31  5-MIN KAOH 260745Z AUTO 32008KT 10SM OVC048 M03/M09 A3010 820 65 -1100 330/08 RMK AO2 T10331089
04850KAOH AOH20160226025012102/26/16 02:50:31  5-MIN KAOH 260750Z AUTO 31007KT 10SM OVC048 M03/M08 A3009 820 68 -1100 320/07 RMK AO2 SLP202 T10331083
04850KAOH AOH20160226025511402/26/16 02:55:31  5-MIN KAOH 260755Z AUTO 31009KT 10SM OVC049 M03/M08 A3010 820 68 -1100 320/09 RMK AO2 T10331083
04850KAOH AOH20160226030011402/26/16 03:00:31  5-MIN KAOH 260800Z AUTO 31007KT 10SM OVC049 M03/M08 A3010 810 68 -1200 320/07 RMK AO2 T10331083
04850KAOH AOH20160226030511402/26/16 03:05:31  5-MIN KAOH 260805Z AUTO 31009KT 10SM OVC049 M03/M08 A3010 810 68 -1200 320/09 RMK AO2 T10331083
04850KAOH AOH20160226031011402/26/16 03:10:31  5-MIN KAOH 260810Z AUTO 31008KT 10SM OVC050 M03/M08 A3010 810 68 -1200 320/08 RMK AO2 T10331083
04850KAOH AOH20160226031512102/26/16 03:15:31  5-MIN KAOH 260815Z AUTO 31009KT 10SM FEW042 OVC050 M03/M08 A3010 810 71 -1200 310/09 RMK AO2 T10331078
04850KAOH AOH20160226032012102/26/16 03:20:31  5-MIN KAOH 260820Z AUTO 32009KT 10SM FEW040 OVC050 M03/M08 A3010 810 68 -1200 320/09 RMK AO2 T10331083
04850KAOH AOH20160226032512102/26/16 03:25:31  5-MIN KAOH 260825Z AUTO 31009KT 10SM FEW040 OVC050 M03/M08 A3010 810 68 -1200 310/09 RMK AO2 T10331083
04850KAOH AOH20160226033012102/26/16 03:30:31  5-MIN KAOH 260830Z AUTO 32009KT 10SM FEW040 OVC050 M03/M08 A3010 810 68 -1200 320/09 RMK AO2 T10331083
04850KAOH AOH20160226033512102/26/16 03:35:31  5-MIN KAOH 260835Z AUTO 32010KT 10SM FEW040 OVC050 M03/M08 A3010 810 68 -1200 320/10 RMK AO2 T10331083
04850KAOH AOH20160226034012102/26/16 03:40:31  5-MIN KAOH 260840Z AUTO 32011KT 10SM FEW040 OVC050 M03/M08 A3010 810 68 -1200 330/11 RMK AO2 T10331083
04850KAOH AOH20160226034512102/26/16 03:45:31  5-MIN KAOH 260845Z AUTO 32009KT 10SM FEW040 OVC050 M03/M08 A3011 810 68 -1200 320/09 RMK AO2 T10331083
04850KAOH AOH20160226035013402/26/16 03:50:31  5-MIN KAOH 260850Z AUTO 32010KT 10SM FEW040 OVC050 M03/M08 A3011 810 68 -1200 320/10 RMK AO2 SLP206 T10331083 51018
04850KAOH AOH20160226035511402/26/16 03:55:31  5-MIN KAOH 260855Z AUTO 32008KT 10SM OVC050 M03/M08 A3011 800 68 -1200 320/08 RMK AO2 T10331083
04850KAOH AOH20160226040011402/26/16 04:00:31  5-MIN KAOH 260900Z AUTO 31007KT 10SM OVC050 M03/M08 A3011 800 71 -1200 320/07 RMK AO2 T10331078
04850KAOH AOH20160226040511402/26/16 04:05:31  5-MIN KAOH 260905Z AUTO 31009KT 10SM OVC050 M03/M08 A3011 800 71 -1200 320/09 RMK AO2 T10331078
04850KAOH AOH20160226041011402/26/16 04:10:31  5-MIN KAOH 260910Z AUTO 31008KT 10SM OVC050 M03/M08 A3011 800 71 -1200 310/08 RMK AO2 T10331078
04850KAOH AOH20160226041511402/26/16 04:15:31  5-MIN KAOH 260915Z AUTO 31007KT 10SM OVC050 M03/M08 A3011 800 68 -1200 320/07 RMK AO2 T10331083
04850KAOH AOH20160226042011402/26/16 04:20:31  5-MIN KAOH 260920Z AUTO 32006KT 10SM OVC050 M03/M08 A3011 800 71 -1200 330/06 RMK AO2 T10331078
04850KAOH AOH20160226042511402/26/16 04:25:31  5-MIN KAOH 260925Z AUTO 31007KT 10SM OVC050 M03/M08 A3012 800 71 -1200 320/07 RMK AO2 T10331078
04850KAOH AOH20160226043011402/26/16 04:30:31  5-MIN KAOH 260930Z AUTO 32008KT 10SM OVC050 M03/M08 A3012 800 71 -1200 320/08 RMK AO2 T10331078
04850KAOH AOH20160226043511402/26/16 04:35:31  5-MIN KAOH 260935Z AUTO 32007KT 10SM OVC050 M03/M08 A3012 790 71 -1200 320/07 RMK AO2 T10331078
04850KAOH AOH20160226044011402/26/16 04:40:31  5-MIN KAOH 260940Z AUTO 31008KT 10SM OVC050 M03/M08 A3012 790 71 -1200 320/08 RMK AO2 T10331078
04850KAOH AOH20160226044511402/26/16 04:45:31  5-MIN KAOH 260945Z AUTO 31008KT 10SM OVC050 M03/M08 A3012 790 71 -1200 310/08 RMK AO2 T10331078
04850KAOH AOH20160226045012102/26/16 04:50:31  5-MIN KAOH 260950Z AUTO 31006KT 10SM OVC050 M03/M07 A3012 790 74 -1200 320/06 RMK AO2 SLP212 T10331072
04850KAOH AOH20160226045511402/26/16 04:55:31  5-MIN KAOH 260955Z AUTO 30008KT 10SM OVC050 M03/M07 A3013 790 74 -1200 310/08 RMK AO2 T10331072
04850KAOH AOH20160226050011402/26/16 05:00:31  5-MIN KAOH 261000Z AUTO 31007KT 10SM OVC050 M03/M07 A3013 790 74 -1200 310/07 RMK AO2 T10331072
04850KAOH AOH20160226050511402/26/16 05:05:31  5-MIN KAOH 261005Z AUTO 31008KT 10SM OVC050 M03/M07 A3013 780 74 -1200 310/08 RMK AO2 T10331072
04850KAOH AOH20160226051011402/26/16 05:10:31  5-MIN KAOH 261010Z AUTO 31008KT 10SM OVC050 M03/M07 A3013 780 74 -1200 310/08 RMK AO2 T10331072
04850KAOH AOH20160226051511402/26/16 05:15:31  5-MIN KAOH 261015Z AUTO 30007KT 10SM OVC050 M03/M07 A3014 780 74 -1200 310/07 RMK AO2 T10331072
04850KAOH AOH20160226052011402/26/16 05:20:31  5-MIN KAOH 261020Z AUTO 31008KT 10SM OVC050 M03/M07 A3014 780 74 -1200 310/08 RMK AO2 T10331072
04850KAOH AOH20160226052511402/26/16 05:25:31  5-MIN KAOH 261025Z AUTO 30009KT 10SM OVC050 M03/M08 A3014 780 71 -1200 310/09 RMK AO2 T10331078
04850KAOH AOH20160226053011402/26/16 05:30:31  5-MIN KAOH 261030Z AUTO 30008KT 10SM OVC050 M03/M08 A3014 780 71 -1200 310/08 RMK AO2 T10331078
04850KAOH AOH20160226053511402/26/16 05:35:31  5-MIN KAOH 261035Z AUTO 30008KT 10SM OVC050 M03/M08 A3014 770 71 -1200 310/08 RMK AO2 T10331078
04850KAOH AOH20160226054011402/26/16 05:40:31  5-MIN KAOH 261040Z AUTO 30007KT 10SM OVC050 M03/M08 A3014 770 71 -1200 310/07 RMK AO2 T10331078
04850KAOH AOH20160226054511402/26/16 05:45:31  5-MIN KAOH 261045Z AUTO 30007KT 10SM OVC050 M03/M07 A3015 770 74 -1200 310/07 RMK AO2 T10331072
04850KAOH AOH20160226055012102/26/16 05:50:31  5-MIN KAOH 261050Z AUTO 31007KT 10SM OVC050 M03/M07 A3015 770 74 -1200 310/07 RMK AO2 SLP219 T10331072
04850KAOH AOH20160226055511402/26/16 05:55:31  5-MIN KAOH 261055Z AUTO 30009KT 10SM OVC050 M03/M08 A3015 770 71 -1200 310/09 RMK AO2 T10331078
04850KAOH AOH20160226060011402/26/16 06:00:31  5-MIN KAOH 261100Z AUTO 30008KT 10SM OVC050 M03/M08 A3015 770 71 -1200 310/08 RMK AO2 T10331078
04850KAOH AOH20160226060511402/26/16 06:05:31  5-MIN KAOH 261105Z AUTO 30008KT 10SM OVC050 M03/M08 A3015 770 71 -1200 310/08 RMK AO2 T10331078
04850KAOH AOH20160226061011402/26/16 06:10:31  5-MIN KAOH 261110Z AUTO 30008KT 10SM OVC050 M03/M08 A3015 770 71 -1200 300/08 RMK AO2 T10331078
04850KAOH AOH20160226061511402/26/16 06:15:31  5-MIN KAOH 261115Z AUTO 30008KT 10SM OVC055 M03/M08 A3015 760 71 -1200 300/08 RMK AO2 T10331078
04850KAOH AOH20160226062011402/26/16 06:20:31  5-MIN KAOH 261120Z AUTO 30008KT 10SM OVC055 M03/M08 A3015 760 71 -1200 310/08 RMK AO2 T10331078
04850KAOH AOH20160226062511402/26/16 06:25:31  5-MIN KAOH 261125Z AUTO 31007KT 10SM OVC055 M03/M08 A3015 760 71 -1200 310/07 RMK AO2 T10331078
04850KAOH AOH20160226063011402/26/16 06:30:31  5-MIN KAOH 261130Z AUTO 30006KT 10SM OVC055 M03/M08 A3015 760 71 -1200 310/06 RMK AO2 T10331078
04850KAOH AOH20160226063511402/26/16 06:35:31  5-MIN KAOH 261135Z AUTO 30008KT 10SM OVC055 M03/M08 A3016 760 71 -1200 300/08 RMK AO2 T10331078
04850KAOH AOH20160226064011402/26/16 06:40:31  5-MIN KAOH 261140Z AUTO 29006KT 10SM OVC050 M03/M08 A3016 760 71 -1200 300/06 RMK AO2 T10331078
04850KAOH AOH20160226064511402/26/16 06:45:31  5-MIN KAOH 261145Z AUTO 28007KT 10SM OVC050 M03/M08 A3016 760 71 -1200 290/07 RMK AO2 T10331078
04850KAOH AOH20160226065014502/26/16 06:50:31  5-MIN KAOH 261150Z AUTO 28008KT 10SM OVC050 M03/M07 A3016 760 74 -1200 280/08 RMK AO2 SLP225 70001 T10331072 11033 21033 51011
04850KAOH AOH20160226065511402/26/16 06:55:31  5-MIN KAOH 261155Z AUTO 28008KT 10SM OVC050 M03/M07 A3016 750 74 -1200 290/08 RMK AO2 T10331072
04850KAOH AOH20160226070011402/26/16 07:00:31  5-MIN KAOH 261200Z AUTO 28008KT 10SM OVC050 M03/M08 A3016 750 71 -1200 290/08 RMK AO2 T10331078
04850KAOH AOH20160226070511402/26/16 07:05:31  5-MIN KAOH 261205Z AUTO 28008KT 10SM OVC050 M03/M07 A3017 750 74 -1200 290/08 RMK AO2 T10331072
04850KAOH AOH20160226071011402/26/16 07:10:31  5-MIN KAOH 261210Z AUTO 28007KT 10SM OVC050 M03/M07 A3017 750 74 -1200 290/07 RMK AO2 T10331072
04850KAOH AOH20160226071511402/26/16 07:15:31  5-MIN KAOH 261215Z AUTO 28007KT 10SM OVC050 M03/M07 A3017 750 74 -1200 290/07 RMK AO2 T10331072
04850KAOH AOH20160226072011402/26/16 07:20:31  5-MIN KAOH 261220Z AUTO 28007KT 10SM OVC050 M03/M07 A3017 750 74 -1200 290/07 RMK AO2 T10331072
04850KAOH AOH20160226072511402/26/16 07:25:31  5-MIN KAOH 261225Z AUTO 28008KT 10SM OVC050 M03/M07 A3017 750 74 -1200 290/08 RMK AO2 T10331072
04850KAOH AOH20160226073011402/26/16 07:30:31  5-MIN KAOH 261230Z AUTO 29008KT 10SM OVC050 M03/M07 A3017 740 74 -1200 290/08 RMK AO2 T10331072
04850KAOH AOH20160226073511402/26/16 07:35:31  5-MIN KAOH 261235Z AUTO 29007KT 10SM OVC050 M03/M07 A3017 740 74 -1200 290/07 RMK AO2 T10331072
04850KAOH AOH20160226074011402/26/16 07:40:31  5-MIN KAOH 261240Z AUTO 29007KT 10SM OVC050 M03/M07 A3018 740 74 -1200 290/07 RMK AO2 T10331072
04850KAOH AOH20160226074511402/26/16 07:45:31  5-MIN KAOH 261245Z AUTO 29007KT 10SM OVC050 M03/M07 A3018 740 74 -1200 290/07 RMK AO2 T10331072
04850KAOH AOH20160226075012102/26/16 07:50:31  5-MIN KAOH 261250Z AUTO 29006KT 10SM OVC050 M03/M07 A3018 740 78 -1200 300/06 RMK AO2 SLP232 T10331067
04850KAOH AOH20160226075511402/26/16 07:55:31  5-MIN KAOH 261255Z AUTO 29008KT 10SM OVC050 M03/M07 A3018 730 74 -1300 290/08 RMK AO2 T10331072
04850KAOH AOH20160226080011402/26/16 08:00:31  5-MIN KAOH 261300Z AUTO 29007KT 10SM OVC050 M03/M07 A3018 730 74 -1300 300/07 RMK AO2 T10331072
04850KAOH AOH20160226080511402/26/16 08:05:31  5-MIN KAOH 261305Z AUTO 29008KT 10SM OVC050 M03/M07 A3019 730 74 -1300 300/08 RMK AO2 T10331072
04850KAOH AOH20160226081011402/26/16 08:10:31  5-MIN KAOH 261310Z AUTO 28008KT 10SM OVC050 M03/M07 A3019 730 74 -1300 290/08 RMK AO2 T10331072
04850KAOH AOH20160226081511402/26/16 08:15:31  5-MIN KAOH 261315Z AUTO 28007KT 10SM OVC050 M03/M07 A3019 730 74 -1300 290/07 RMK AO2 T10331072
04850KAOH AOH20160226082011402/26/16 08:20:31  5-MIN KAOH 261320Z AUTO 28007KT 10SM OVC050 M03/M07 A3019 730 74 -1300 290/07 RMK AO2 T10331072
04850KAOH AOH20160226082511402/26/16 08:25:31  5-MIN KAOH 261325Z AUTO 28008KT 10SM OVC050 M03/M07 A3019 730 74 -1300 290/08 RMK AO2 T10331072
04850KAOH AOH20160226083011402/26/16 08:30:31  5-MIN KAOH 261330Z AUTO 28008KT 10SM OVC050 M03/M07 A3019 720 74 -1300 290/08 RMK AO2 T10331072
04850KAOH AOH20160226083511402/26/16 08:35:31  5-MIN KAOH 261335Z AUTO 29007KT 10SM OVC050 M03/M08 A3020 720 71 -1300 300/07 RMK AO2 T10331078
04850KAOH AOH20160226084011402/26/16 08:40:31  5-MIN KAOH 261340Z AUTO 28009KT 10SM BKN050 M03/M08 A3020 720 71 -1300 290/09 RMK AO2 T10331078
04850KAOH AOH20160226084511402/26/16 08:45:31  5-MIN KAOH 261345Z AUTO 28008KT 10SM BKN055 M03/M07 A3020 720 74 -1300 290/08 RMK AO2 T10331072
04850KAOH AOH20160226085012102/26/16 08:50:31  5-MIN KAOH 261350Z AUTO 29006KT 10SM OVC055 M03/M07 A3020 720 71 -1200 290/06 RMK AO2 SLP240 T10281072
04850KAOH AOH20160226085511402/26/16 08:55:31  5-MIN KAOH 261355Z AUTO 29007KT 10SM OVC055 M03/M07 A3021 710 71 -1200 290/07 RMK AO2 T10281072
04850KAOH AOH20160226090011402/26/16 09:00:31  5-MIN KAOH 261400Z AUTO 30006KT 10SM OVC055 M03/M08 A3020 720 68 -1200 310/06 RMK AO2 T10281078
04850KAOH AOH20160226090511402/26/16 09:05:31  5-MIN KAOH 261405Z AUTO 30007KT 10SM OVC050 M03/M08 A3021 710 66 -1200 310/07 RMK AO2 T10281083
04850KAOH AOH20160226091011402/26/16 09:10:31  5-MIN KAOH 261410Z AUTO 30008KT 10SM OVC050 M02/M08 A3021 710 63 -1100 300/08 RMK AO2 T10221083
04850KAOH AOH20160226091511402/26/16 09:15:31  5-MIN KAOH 261415Z AUTO 31008KT 10SM OVC050 M02/M08 A3021 710 63 -1100 320/08 RMK AO2 T10221083
04850KAOH AOH20160226092011402/26/16 09:20:31  5-MIN KAOH 261420Z AUTO 30009KT 10SM OVC050 M02/M08 A3021 710 63 -1100 310/09 RMK AO2 T10221083
04850KAOH AOH20160226092511402/26/16 09:25:31  5-MIN KAOH 261425Z AUTO 30007KT 10SM OVC050 M02/M08 A3021 710 63 -1100 310/07 RMK AO2 T10221083
04850KAOH AOH20160226093011402/26/16 09:30:31  5-MIN KAOH 261430Z AUTO 29008KT 10SM OVC050 M02/M08 A3021 710 63 -1100 300/08 RMK AO2 T10221083
04850KAOH AOH20160226093511402/26/16 09:35:31  5-MIN KAOH 261435Z AUTO 30007KT 10SM OVC050 M02/M09 A3022 700 60 -1100 300/07 RMK AO2 T10221089
04850KAOH AOH20160226094011402/26/16 09:40:31  5-MIN KAOH 261440Z AUTO 28007KT 10SM OVC050 M02/M08 A3022 700 63 -1100 290/07 RMK AO2 T10221083
04850KAOH AOH20160226094511402/26/16 09:45:31  5-MIN KAOH 261445Z AUTO 29007KT 10SM OVC050 M02/M08 A3022 700 63 -1200 290/07 RMK AO2 T10221083
04850KAOH AOH20160226095012702/26/16 09:50:31  5-MIN KAOH 261450Z AUTO 28007KT 10SM OVC050 M02/M08 A3022 700 66 -1200 290/07 RMK AO2 SLP246 T10221078 51018
04850KAOH AOH20160226095511402/26/16 09:55:31  5-MIN KAOH 261455Z AUTO 27008KT 10SM OVC050 M02/M08 A3022 700 66 -1200 280/08 RMK AO2 T10221078
04850KAOH AOH20160226100011402/26/16 10:00:31  5-MIN KAOH 261500Z AUTO 29007KT 10SM OVC050 M02/M08 A3023 700 66 -1200 290/07 RMK AO2 T10221078
04850KAOH AOH20160226100511402/26/16 10:05:31  5-MIN KAOH 261505Z AUTO 28008KT 10SM OVC055 M02/M08 A3023 690 66 -1200 280/08 RMK AO2 T10221078
04850KAOH AOH20160226101011402/26/16 10:10:31  5-MIN KAOH 261510Z AUTO 28008KT 10SM OVC055 M02/M08 A3023 700 66 -1200 290/08 RMK AO2 T10221078
04850KAOH AOH20160226101511402/26/16 10:15:31  5-MIN KAOH 261515Z AUTO 28007KT 10SM OVC055 M02/M08 A3023 700 63 -1100 290/07 RMK AO2 T10171078
04850KAOH AOH20160226102011402/26/16 10:20:31  5-MIN KAOH 261520Z AUTO 28009KT 10SM OVC055 M02/M08 A3023 690 63 -1100 290/09 RMK AO2 T10171078
04850KAOH AOH20160226102511402/26/16 10:25:31  5-MIN KAOH 261525Z AUTO 28009KT 10SM OVC055 M02/M08 A3023 690 60 -1100 290/09 RMK AO2 T10171083
04850KAOH AOH20160226103011402/26/16 10:30:31  5-MIN KAOH 261530Z AUTO 29008KT 10SM OVC055 M02/M08 A3023 690 60 -1100 290/08 RMK AO2 T10171083
04850KAOH AOH20160226103511402/26/16 10:35:31  5-MIN KAOH 261535Z AUTO 28007KT 10SM OVC055 M02/M08 A3023 690 63 -1100 290/07 RMK AO2 T10171078
04850KAOH AOH20160226104011402/26/16 10:40:31  5-MIN KAOH 261540Z AUTO 27009KT 10SM OVC055 M02/M08 A3023 690 60 -1100 280/09 RMK AO2 T10171083
04850KAOH AOH20160226104511402/26/16 10:45:31  5-MIN KAOH 261545Z AUTO 29008KT 10SM OVC050 M02/M08 A3023 690 60 -1100 290/08 RMK AO2 T10171083
04850KAOH AOH20160226105012102/26/16 10:50:31  5-MIN KAOH 261550Z AUTO 29010KT 10SM OVC050 M02/M08 A3023 690 63 -1100 300/10 RMK AO2 SLP249 T10171078
04850KAOH AOH20160226105511402/26/16 10:55:31  5-MIN KAOH 261555Z AUTO 28008KT 10SM OVC050 M02/M08 A3023 690 60 -1100 290/08 RMK AO2 T10171083
04850KAOH AOH20160226110011402/26/16 11:00:31  5-MIN KAOH 261600Z AUTO 31009KT 10SM OVC050 M02/M08 A3023 690 60 -1100 310/09 RMK AO2 T10171083
04850KAOH AOH20160226110511402/26/16 11:05:31  5-MIN KAOH 261605Z AUTO 30009KT 10SM OVC050 M02/M08 A3023 690 60 -1100 310/09 RMK AO2 T10171083
04850KAOH AOH20160226111011402/26/16 11:10:31  5-MIN KAOH 261610Z AUTO 31009KT 10SM OVC050 M01/M08 A3023 690 60 -1000 320/09 RMK AO2 T10111078
04850KAOH AOH20160226111511402/26/16 11:15:31  5-MIN KAOH 261615Z AUTO 31009KT 10SM OVC050 M01/M08 A3023 690 58 -1000 320/09 RMK AO2 T10111083
04850KAOH AOH20160226112011402/26/16 11:20:31  5-MIN KAOH 261620Z AUTO 30011KT 10SM OVC050 M01/M08 A3023 690 60 -1000 310/11 RMK AO2 T10111078
04850KAOH AOH20160226112512102/26/16 11:25:31  5-MIN KAOH 261625Z AUTO 33008KT 10SM FEW038 OVC050 M02/M08 A3024 690 60 -1100 330/08 RMK AO2 T10171083
04850KAOH AOH20160226113012102/26/16 11:30:31  5-MIN KAOH 261630Z AUTO 29012KT 10SM FEW038 OVC050 M01/M08 A3024 690 60 -1000 300/12 RMK AO2 T10111078
04850KAOH AOH20160226113512102/26/16 11:35:31  5-MIN KAOH 261635Z AUTO 30008KT 10SM SCT038 OVC050 M01/M08 A3024 690 60 -1000 300/08 RMK AO2 T10111078
04850KAOH AOH20160226114012102/26/16 11:40:31  5-MIN KAOH 261640Z AUTO 32011KT 10SM SCT039 OVC050 M01/M08 A3024 690 60 -1000 330/11 RMK AO2 T10111078
04850KAOH AOH20160226114512102/26/16 11:45:31  5-MIN KAOH 261645Z AUTO 31010KT 10SM SCT039 OVC050 M01/M08 A3024 690 60 -1000 320/10 RMK AO2 T10111078
04850KAOH AOH20160226115012802/26/16 11:50:31  5-MIN KAOH 261650Z AUTO 30008KT 10SM SCT039 OVC050 M01/M07 A3024 690 63 -1000 310/08 RMK AO2 SLP250 T10111072
04850KAOH AOH20160226115512102/26/16 11:55:31  5-MIN KAOH 261655Z AUTO 30011KT 10SM BKN039 OVC050 M01/M08 A3024 690 60 -1000 310/11 RMK AO2 T10111078
04850KAOH AOH20160226120012102/26/16 12:00:31  5-MIN KAOH 261700Z AUTO 31009KT 10SM BKN039 OVC050 M01/M08 A3024 690 60 -1000 310/09 RMK AO2 T10111078
04850KAOH AOH20160226120512102/26/16 12:05:31  5-MIN KAOH 261705Z AUTO 31011KT 10SM BKN039 OVC045 M01/M08 A3023 690 60 -1000 320/11 RMK AO2 T10111078
04850KAOH AOH20160226121012102/26/16 12:10:31  5-MIN KAOH 261710Z AUTO 31009KT 10SM BKN037 OVC045 M01/M08 A3023 690 60 -1000 320/09 RMK AO2 T10111078
04850KAOH AOH20160226121512102/26/16 12:15:31  5-MIN KAOH 261715Z AUTO 31008KT 10SM BKN037 OVC044 M01/M07 A3023 690 63 -1000 310/08 RMK AO2 T10111072
04850KAOH AOH20160226122011402/26/16 12:20:31  5-MIN KAOH 261720Z AUTO 30008KT 10SM OVC037 M01/M07 A3023 690 63 -1000 310/08 RMK AO2 T10111072
04850KAOH AOH20160226122511402/26/16 12:25:31  5-MIN KAOH 261725Z AUTO 30007KT 10SM OVC039 M01/M07 A3023 690 63 -1000 300/07 RMK AO2 T10111072
04850KAOH AOH20160226123011402/26/16 12:30:31  5-MIN KAOH 261730Z AUTO 31009KT 10SM OVC039 M01/M07 A3023 690 63 -1000 320/09 RMK AO2 T10111072
04850KAOH AOH20160226123511402/26/16 12:35:31  5-MIN KAOH 261735Z AUTO 30009KT 10SM OVC036 M01/M07 A3023 690 63 -1000 300/09 RMK AO2 T10111072
04850KAOH AOH20160226124011402/26/16 12:40:31  5-MIN KAOH 261740Z AUTO 30009KT 10SM OVC036 M01/M07 A3023 690 63 -1000 300/09 RMK AO2 T10111072
04850KAOH AOH20160226124511402/26/16 12:45:31  5-MIN KAOH 261745Z AUTO 27010KT 10SM OVC037 M01/M07 A3023 700 63 -1000 270/10 RMK AO2 T10111072
04850KAOH AOH20160226125013902/26/16 12:50:31  5-MIN KAOH 261750Z AUTO 29009KT 10SM OVC037 M01/M07 A3023 700 63 -1000 300/09 RMK AO2 SLP247 T10111072 11011 21033 51020
04850KAOH AOH20160226125511402/26/16 12:55:31  5-MIN KAOH 261755Z AUTO 29010KT 10SM OVC036 M01/M07 A3022 700 63 -1000 300/10 RMK AO2 T10111072
04850KAOH AOH20160226130012102/26/16 13:00:31  5-MIN KAOH 261800Z AUTO 29011KT 10SM BKN036 OVC043 M01/M07 A3022 700 63 -1000 300/11 RMK AO2 T10111072
04850KAOH AOH20160226130511402/26/16 13:05:31  5-MIN KAOH 261805Z AUTO 28010KT 10SM OVC038 M01/M07 A3022 700 63 -1000 290/10 RMK AO2 T10111072
04850KAOH AOH20160226131012102/26/16 13:10:31  5-MIN KAOH 261810Z AUTO 30012KT 10SM BKN038 OVC046 M01/M07 A3022 700 63 -1000 310/12 RMK AO2 T10111072
04850KAOH AOH20160226131512102/26/16 13:15:31  5-MIN KAOH 261815Z AUTO 30011KT 10SM BKN040 OVC046 M01/M08 A3022 710 58 -1000 300/11 RMK AO2 T10111083
04850KAOH AOH20160226132011402/26/16 13:20:31  5-MIN KAOH 261820Z AUTO 29008KT 10SM OVC042 M01/M08 A3021 710 58 -1000 290/08 RMK AO2 T10111083
04850KAOH AOH20160226132511402/26/16 13:25:31  5-MIN KAOH 261825Z AUTO 29009KT 10SM OVC042 M01/M08 A3021 710 60 -1000 290/09 RMK AO2 T10111078
04850KAOH AOH20160226133011402/26/16 13:30:31  5-MIN KAOH 261830Z AUTO 28010KT 10SM OVC044 M01/M08 A3021 710 60 -1000 280/10 RMK AO2 T10111078
04850KAOH AOH20160226133511402/26/16 13:35:31  5-MIN KAOH 261835Z AUTO 28011KT 10SM OVC044 M01/M08 A3021 710 60 -1000 290/11 RMK AO2 T10111078
04850KAOH AOH20160226134011402/26/16 13:40:31  5-MIN KAOH 261840Z AUTO 29009KT 10SM OVC044 M01/M07 A3021 720 63 -1000 300/09 RMK AO2 T10111072
04850KAOH AOH20160226134511402/26/16 13:45:31  5-MIN KAOH 261845Z AUTO 29009KT 10SM OVC044 M01/M07 A3020 720 63 -1000 300/09 RMK AO2 T10111072
04850KAOH AOH20160226135012102/26/16 13:50:31  5-MIN KAOH 261850Z AUTO 30009KT 10SM OVC042 M01/M07 A3020 720 63 -1000 310/09 RMK AO2 SLP239 T10111072
04850KAOH AOH20160226135511402/26/16 13:55:31  5-MIN KAOH 261855Z AUTO 28012KT 10SM OVC040 M01/M07 A3020 720 66 -1000 280/12 RMK AO2 T10111067
04850KAOH AOH20160226140012102/26/16 14:00:31  5-MIN KAOH 261900Z AUTO 29008KT 10SM SCT033 OVC043 M01/M07 A3020 720 66 -1000 290/08 RMK AO2 T10111067
04850KAOH AOH20160226140512102/26/16 14:05:31  5-MIN KAOH 261905Z AUTO 30006KT 10SM BKN033 OVC040 M01/M06 A3020 720 69 -1000 300/06 RMK AO2 T10111061
04850KAOH AOH20160226141012102/26/16 14:10:31  5-MIN KAOH 261910Z AUTO 28007KT 10SM BKN033 OVC043 M01/M06 A3020 720 69 -1000 280/07 RMK AO2 T10111061
04850KAOH AOH20160226141511402/26/16 14:15:31  5-MIN KAOH 261915Z AUTO 29008KT 10SM OVC033 M01/M06 A3020 720 69 -1000 300/08 RMK AO2 T10111061
04850KAOH AOH20160226142012102/26/16 14:20:31  5-MIN KAOH 261920Z AUTO 29007KT 10SM BKN030 OVC037 M01/M06 A3020 720 69 -1000 300/07 RMK AO2 T10111061
04850KAOH AOH20160226142512102/26/16 14:25:31  5-MIN KAOH 261925Z AUTO 29008KT 10SM BKN030 OVC037 M01/M06 A3019 720 69 -1000 290/08 RMK AO2 T10111061
04850KAOH AOH20160226143012102/26/16 14:30:31  5-MIN KAOH 261930Z AUTO 30008KT 10SM BKN030 OVC037 M01/M06 A3019 730 69 -1000 300/08 RMK AO2 T10111061
04850KAOH AOH20160226143512102/26/16 14:35:31  5-MIN KAOH 261935Z AUTO 27008KT 10SM SCT030 OVC039 M01/M06 A3019 730 72 -1000 280/08 RMK AO2 T10111056
04850KAOH AOH20160226144012102/26/16 14:40:31  5-MIN KAOH 261940Z AUTO 28008KT 10SM SCT030 OVC039 M01/M05 A3019 730 75 -1000 280/08 RMK AO2 T10111050
04850KAOH AOH20160226144512102/26/16 14:45:31  5-MIN KAOH 261945Z AUTO 27009KT 10SM BKN032 OVC041 M01/M05 A3019 730 75 -1000 270/09 RMK AO2 T10111050
04850KAOH AOH20160226145013502/26/16 14:50:31  5-MIN KAOH 261950Z AUTO 25011KT 10SM FEW026 BKN032 OVC041 M01/M06 A3019 730 72 -1000 250/11 RMK AO2 SLP236 T10111056
04850KAOH AOH20160226145512802/26/16 14:55:31  5-MIN KAOH 261955Z AUTO 26012KT 10SM FEW028 BKN034 OVC041 M01/M06 A3019 730 72 -1000 270/12 RMK AO2 T10111056
04850KAOH AOH20160226150012802/26/16 15:00:31  5-MIN KAOH 262000Z AUTO 27011KT 10SM FEW028 BKN034 OVC041 M01/M06 A3019 730 72 -1000 270/11 RMK AO2 T10111056
04850KAOH AOH20160226150512102/26/16 15:05:31  5-MIN KAOH 262005Z AUTO 27010KT 10SM FEW026 OVC034 M01/M06 A3019 730 72 -1000 280/10 RMK AO2 T10111056
04850KAOH AOH20160226151012102/26/16 15:10:31  5-MIN KAOH 262010Z AUTO 27008KT 10SM FEW026 OVC036 M01/M06 A3019 730 72 -1000 280/08 RMK AO2 T10111056
04850KAOH AOH20160226151512102/26/16 15:15:31  5-MIN KAOH 262015Z AUTO 28007KT 10SM FEW027 OVC036 M01/M06 A3019 730 72 -1000 290/07 RMK AO2 T10111056
04850KAOH AOH20160226152012102/26/16 15:20:31  5-MIN KAOH 262020Z AUTO 30008KT 10SM SCT031 OVC039 M01/M06 A3019 730 72 -1000 300/08 RMK AO2 T10111056
04850KAOH AOH20160226152512002/26/16 15:25:31  5-MIN KAOH 262025Z AUTO 28006KT 10SM SCT030 OVC038 M01/M06 A3019 730 69 -900 290/06 RMK AO2 T10061056
04850KAOH AOH20160226153012002/26/16 15:30:31  5-MIN KAOH 262030Z AUTO 28007KT 10SM SCT030 OVC038 M01/M06 A3019 730 69 -900 280/07 RMK AO2 T10061056
04850KAOH AOH20160226153512002/26/16 15:35:31  5-MIN KAOH 262035Z AUTO 29006KT 10SM SCT030 OVC038 M01/M06 A3019 730 66 -900 290/06 RMK AO2 T10061061
04850KAOH AOH20160226154012102/26/16 15:40:31  5-MIN KAOH 262040Z AUTO 28006KT 10SM BKN033 OVC041 M01/M06 A3019 730 69 -1000 290/06 RMK AO2 T10111061
04850KAOH AOH20160226154511302/26/16 15:45:31  5-MIN KAOH 262045Z AUTO 26009KT 10SM OVC035 M01/M06 A3019 730 69 -900 270/09 RMK AO2 T10061056
04850KAOH AOH20160226155013302/26/16 15:50:31  5-MIN KAOH 262050Z AUTO 27011KT 10SM BKN033 OVC041 M01/M06 A3019 730 69 -900 270/11 RMK AO2 SLP234 T10061056 50001
04850KAOH AOH20160226155511302/26/16 15:55:31  5-MIN KAOH 262055Z AUTO 27010KT 10SM OVC037 M01/M06 A3019 730 69 -900 270/10 RMK AO2 T10061056
04850KAOH AOH20160226160011302/26/16 16:00:31  5-MIN KAOH 262100Z AUTO 26008KT 10SM OVC037 M01/M06 A3019 730 66 -900 260/08 RMK AO2 T10061061
04850KAOH AOH20160226160511302/26/16 16:05:31  5-MIN KAOH 262105Z AUTO 25013KT 10SM OVC037 M01/M06 A3019 730 66 -900 260/13 RMK AO2 T10061061
04850KAOH AOH20160226161011302/26/16 16:10:31  5-MIN KAOH 262110Z AUTO 25010KT 10SM OVC037 M01/M06 A3018 730 66 -900 250/10 RMK AO2 T10061061
04850KAOH AOH20160226161511302/26/16 16:15:31  5-MIN KAOH 262115Z AUTO 25008KT 10SM OVC039 M01/M06 A3018 740 66 -900 260/08 RMK AO2 T10061061
04850KAOH AOH20160226162011302/26/16 16:20:31  5-MIN KAOH 262120Z AUTO 25010KT 10SM OVC039 M01/M06 A3018 740 66 -900 250/10 RMK AO2 T10061061
04850KAOH AOH20160226162512002/26/16 16:25:31  5-MIN KAOH 262125Z AUTO 25010KT 10SM SCT035 OVC043 M01/M06 A3018 740 69 -900 260/10 RMK AO2 T10061056
04850KAOH AOH20160226163012002/26/16 16:30:31  5-MIN KAOH 262130Z AUTO 26009KT 10SM FEW035 OVC043 M01/M06 A3018 740 66 -900 270/09 RMK AO2 T10061061
04850KAOH AOH20160226163511302/26/16 16:35:31  5-MIN KAOH 262135Z AUTO 25008KT 10SM OVC043 M01/M06 A3018 740 69 -900 260/08 RMK AO2 T10061056
04850KAOH AOH20160226164011302/26/16 16:40:31  5-MIN KAOH 262140Z AUTO 25009KT 10SM OVC043 M01/M06 A3018 740 66 -900 260/09 RMK AO2 T10061061
04850KAOH AOH20160226164511302/26/16 16:45:31  5-MIN KAOH 262145Z AUTO 25008KT 10SM OVC043 M01/M06 A3018 740 66 -900 250/08 RMK AO2 T10061061
04850KAOH AOH20160226165012002/26/16 16:50:31  5-MIN KAOH 262150Z AUTO 26010KT 10SM OVC044 M01/M06 A3018 740 66 -900 260/10 RMK AO2 SLP230 T10061061
04850KAOH AOH20160226165511302/26/16 16:55:31  5-MIN KAOH 262155Z AUTO 24011KT 10SM OVC044 M01/M07 A3018 740 63 -900 250/11 RMK AO2 T10061067
04850KAOH AOH20160226170011302/26/16 17:00:31  5-MIN KAOH 262200Z AUTO 25010KT 10SM OVC043 M01/M06 A3018 740 66 -900 260/10 RMK AO2 T10061061
04850KAOH AOH20160226170511302/26/16 17:05:31  5-MIN KAOH 262205Z AUTO 26009KT 10SM OVC043 M01/M06 A3018 740 66 -900 270/09 RMK AO2 T10061061
04850KAOH AOH20160226171011302/26/16 17:10:31  5-MIN KAOH 262210Z AUTO 25009KT 10SM OVC043 M01/M06 A3017 740 66 -900 250/09 RMK AO2 T10061061
04850KAOH AOH20160226171511302/26/16 17:15:31  5-MIN KAOH 262215Z AUTO 24008KT 10SM OVC043 M01/M06 A3018 740 69 -900 250/08 RMK AO2 T10061056
04850KAOH AOH20160226172011302/26/16 17:20:31  5-MIN KAOH 262220Z AUTO 25009KT 10SM OVC043 M01/M06 A3018 740 66 -900 250/09 RMK AO2 T10061061
04850KAOH AOH20160226172511302/26/16 17:25:31  5-MIN KAOH 262225Z AUTO 25010KT 10SM OVC043 M01/M06 A3017 740 66 -900 250/10 RMK AO2 T10061061
04850KAOH AOH20160226173011302/26/16 17:30:31  5-MIN KAOH 262230Z AUTO 24007KT 10SM OVC043 M01/M06 A3017 740 66 -900 250/07 RMK AO2 T10061061
04850KAOH AOH20160226173511302/26/16 17:35:31  5-MIN KAOH 262235Z AUTO 24008KT 10SM OVC043 M01/M06 A3017 740 69 -900 250/08 RMK AO2 T10061056
04850KAOH AOH20160226174011302/26/16 17:40:31  5-MIN KAOH 262240Z AUTO 24008KT 10SM OVC043 M01/M06 A3017 750 66 -900 250/08 RMK AO2 T10061061
04850KAOH AOH20160226174511302/26/16 17:45:31  5-MIN KAOH 262245Z AUTO 24008KT 10SM OVC043 M01/M06 A3017 750 66 -900 240/08 RMK AO2 T10061061
04850KAOH AOH20160226175012002/26/16 17:50:31  5-MIN KAOH 262250Z AUTO 24007KT 10SM OVC043 M01/M06 A3017 750 66 -900 240/07 RMK AO2 SLP227 T10061061
04850KAOH AOH20160226175511302/26/16 17:55:31  5-MIN KAOH 262255Z AUTO 23008KT 10SM OVC043 M01/M06 A3017 750 66 -900 240/08 RMK AO2 T10061061
04850KAOH AOH20160226180011302/26/16 18:00:31  5-MIN KAOH 262300Z AUTO 23008KT 10SM OVC043 M01/M06 A3017 750 66 -900 240/08 RMK AO2 T10061061
04850KAOH AOH20160226180511302/26/16 18:05:31  5-MIN KAOH 262305Z AUTO 23006KT 10SM OVC044 M01/M06 A3017 750 66 -900 240/06 RMK AO2 T10061061
04850KAOH AOH20160226181011302/26/16 18:10:31  5-MIN KAOH 262310Z AUTO 23006KT 10SM OVC044 M01/M06 A3017 750 66 -900 230/06 RMK AO2 T10061061
04850KAOH AOH20160226181511302/26/16 18:15:31  5-MIN KAOH 262315Z AUTO 24007KT 10SM OVC044 M01/M06 A3017 750 66 -900 240/07 RMK AO2 T10061061
04850KAOH AOH20160226182011302/26/16 18:20:31  5-MIN KAOH 262320Z AUTO 24007KT 10SM OVC044 M01/M06 A3017 750 66 -900 240/07 RMK AO2 T10061061
04850KAOH AOH20160226182511302/26/16 18:25:31  5-MIN KAOH 262325Z AUTO 23008KT 10SM OVC044 M01/M06 A3017 750 66 -900 240/08 RMK AO2 T10061061
04850KAOH AOH20160226183011302/26/16 18:30:31  5-MIN KAOH 262330Z AUTO 23007KT 10SM OVC044 M01/M06 A3017 750 66 -900 240/07 RMK AO2 T10061061
04850KAOH AOH20160226183511302/26/16 18:35:31  5-MIN KAOH 262335Z AUTO 24006KT 10SM OVC044 M01/M06 A3017 750 66 -900 240/06 RMK AO2 T10061061
04850KAOH AOH20160226184011302/26/16 18:40:31  5-MIN KAOH 262340Z AUTO 23007KT 10SM OVC044 M01/M06 A3017 750 66 -900 240/07 RMK AO2 T10061061
04850KAOH AOH20160226184511302/26/16 18:45:31  5-MIN KAOH 262345Z AUTO 24006KT 10SM OVC043 M01/M06 A3017 750 66 -900 250/06 RMK AO2 T10061061
04850KAOH AOH20160226185013802/26/16 18:50:31  5-MIN KAOH 262350Z AUTO 25007KT 10SM OVC043 M01/M06 A3017 750 69 -900 250/07 RMK AO2 SLP227 T10061056 11006 21011 56012
04850KAOH AOH20160226185511302/26/16 18:55:31  5-MIN KAOH 262355Z AUTO 25006KT 10SM OVC043 M01/M06 A3017 750 66 -900 250/06 RMK AO2 T10061061
04850KAOH AOH20160226190011402/26/16 19:00:31  5-MIN KAOH 270000Z AUTO 25007KT 10SM OVC043 M01/M06 A3017 740 72 -1000 260/07 RMK AO2 T10111056
04850KAOH AOH20160226190511302/26/16 19:05:31  5-MIN KAOH 270005Z AUTO 25008KT 10SM OVC043 M01/M06 A3017 740 66 -900 250/08 RMK AO2 T10061061
04850KAOH AOH20160226191011302/26/16 19:10:31  5-MIN KAOH 270010Z AUTO 25007KT 10SM OVC044 M01/M06 A3017 740 66 -900 260/07 RMK AO2 T10061061
04850KAOH AOH20160226191511302/26/16 19:15:31  5-MIN KAOH 270015Z AUTO 25007KT 10SM OVC044 M01/M06 A3017 750 66 -900 260/07 RMK AO2 T10061061
04850KAOH AOH20160226192011302/26/16 19:20:31  5-MIN KAOH 270020Z AUTO 25008KT 10SM OVC042 M01/M06 A3017 750 66 -900 260/08 RMK AO2 T10061061
04850KAOH AOH20160226192511302/26/16 19:25:31  5-MIN KAOH 270025Z AUTO 26008KT 10SM OVC042 M01/M06 A3017 750 66 -900 260/08 RMK AO2 T10061061
04850KAOH AOH20160226193011302/26/16 19:30:31  5-MIN KAOH 270030Z AUTO 26009KT 10SM OVC042 M01/M06 A3017 750 66 -900 260/09 RMK AO2 T10061061
04850KAOH AOH20160226193511402/26/16 19:35:31  5-MIN KAOH 270035Z AUTO 25009KT 10SM OVC043 M01/M06 A3017 740 69 -1000 260/09 RMK AO2 T10111061
04850KAOH AOH20160226194011402/26/16 19:40:31  5-MIN KAOH 270040Z AUTO 25008KT 10SM OVC043 M01/M06 A3017 750 69 -1000 260/08 RMK AO2 T10111061
04850KAOH AOH20160226194511402/26/16 19:45:31  5-MIN KAOH 270045Z AUTO 26008KT 10SM OVC045 M01/M06 A3017 750 69 -1000 270/08 RMK AO2 T10111061
04850KAOH AOH20160226195012102/26/16 19:50:31  5-MIN KAOH 270050Z AUTO 26008KT 10SM OVC045 M01/M06 A3017 750 72 -1000 260/08 RMK AO2 SLP228 T10111056
04850KAOH AOH20160226195511402/26/16 19:55:31  5-MIN KAOH 270055Z AUTO 26006KT 10SM OVC045 M01/M06 A3017 750 69 -1000 260/06 RMK AO2 T10111061
04850KAOH AOH20160226200011302/26/16 20:00:31  5-MIN KAOH 270100Z AUTO 27006KT 10SM OVC045 M01/M06 A3017 750 69 -900 270/06 RMK AO2 T10111061
04850KAOH AOH20160226200511302/26/16 20:05:31  5-MIN KAOH 270105Z AUTO 28006KT 10SM OVC045 M01/M06 A3017 750 72 -900 290/06 RMK AO2 T10111056
04850KAOH AOH20160226201011302/26/16 20:10:31  5-MIN KAOH 270110Z AUTO 28005KT 10SM OVC045 M01/M06 A3017 750 72 -900 280/05 RMK AO2 T10111056
04850KAOH AOH20160226201511302/26/16 20:15:31  5-MIN KAOH 270115Z AUTO 27005KT 10SM OVC045 M01/M06 A3016 750 72 -900 280/05 RMK AO2 T10111056
04850KAOH AOH20160226202011302/26/16 20:20:31  5-MIN KAOH 270120Z AUTO 27006KT 10SM OVC045 M01/M06 A3016 750 69 -900 280/06 RMK AO2 T10111061
04850KAOH AOH20160226202511302/26/16 20:25:31  5-MIN KAOH 270125Z AUTO 28005KT 10SM OVC045 M01/M06 A3016 750 72 -900 280/05 RMK AO2 T10111056
04850KAOH AOH20160226203011302/26/16 20:30:31  5-MIN KAOH 270130Z AUTO 27006KT 10SM OVC045 M01/M06 A3016 750 69 -900 280/06 RMK AO2 T10111061
04850KAOH AOH20160226203511302/26/16 20:35:31  5-MIN KAOH 270135Z AUTO 27006KT 10SM OVC045 M01/M06 A3017 750 72 -900 280/06 RMK AO2 T10111056
04850KAOH AOH20160226204012002/26/16 20:40:31  5-MIN KAOH 270140Z AUTO 27006KT 10SM FEW037 OVC045 M01/M06 A3016 750 72 -900 270/06 RMK AO2 T10111056
04850KAOH AOH20160226204511302/26/16 20:45:31  5-MIN KAOH 270145Z AUTO 27009KT 10SM OVC045 M01/M06 A3016 750 69 -900 280/09 RMK AO2 T10111061
04850KAOH AOH20160226205012002/26/16 20:50:31  5-MIN KAOH 270150Z AUTO 25006KT 10SM OVC043 M01/M06 A3016 750 69 -900 260/06 RMK AO2 SLP225 T10111061
04850KAOH AOH20160226205512002/26/16 20:55:31  5-MIN KAOH 270155Z AUTO 24007KT 10SM SCT038 OVC045 M01/M06 A3016 760 69 -900 250/07 RMK AO2 T10111061
04850KAOH AOH20160226210011302/26/16 21:00:31  5-MIN KAOH 270200Z AUTO 25008KT 10SM OVC043 M01/M06 A3016 760 69 -900 250/08 RMK AO2 T10111061
04850KAOH AOH20160226210512002/26/16 21:05:31  5-MIN KAOH 270205Z AUTO 25008KT 10SM BKN039 OVC046 M01/M06 A3016 760 69 -900 260/08 RMK AO2 T10111061
04850KAOH AOH20160226211011302/26/16 21:10:31  5-MIN KAOH 270210Z AUTO 25008KT 10SM OVC041 M01/M06 A3016 760 69 -900 260/08 RMK AO2 T10111061
04850KAOH AOH20160226211512002/26/16 21:15:31  5-MIN KAOH 270215Z AUTO 24007KT 10SM BKN041 OVC048 M01/M06 A3016 760 69 -900 250/07 RMK AO2 T10111061
04850KAOH AOH20160226212012002/26/16 21:20:31  5-MIN KAOH 270220Z AUTO 24008KT 10SM BKN041 OVC048 M01/M06 A3016 760 69 -900 250/08 RMK AO2 T10111061
04850KAOH AOH20160226212512002/26/16 21:25:31  5-MIN KAOH 270225Z AUTO 24007KT 10SM BKN040 OVC047 M01/M06 A3016 760 69 -900 250/07 RMK AO2 T10111061
04850KAOH AOH20160226213012702/26/16 21:30:31  5-MIN KAOH 270230Z AUTO 25008KT 10SM FEW030 BKN040 OVC047 M01/M06 A3016 760 69 -900 250/08 RMK AO2 T10111061
04850KAOH AOH20160226213512002/26/16 21:35:31  5-MIN KAOH 270235Z AUTO 25008KT 10SM SCT032 OVC043 M01/M06 A3016 760 72 -900 260/08 RMK AO2 T10111056
04850KAOH AOH20160226214012002/26/16 21:40:31  5-MIN KAOH 270240Z AUTO 25010KT 10SM BKN032 OVC044 M01/M06 A3016 760 72 -900 250/10 RMK AO2 T10111056
04850KAOH AOH20160226214512002/26/16 21:45:31  5-MIN KAOH 270245Z AUTO 25011KT 10SM BKN030 OVC039 M01/M06 A3016 760 72 -900 260/11 RMK AO2 T10111056
04850KAOH AOH20160226215011002/26/16 21:50:31  5-MIN KAOH 270250Z AUTO 25009KT 10SM BKN028 OVC039 M01/M05 A3015 760 75 -900 260/09 RMK AO2
04850KAOH AOH20160226215511302/26/16 21:55:31  5-MIN KAOH 270255Z AUTO 26008KT 10SM OVC028 M01/M05 A3015 760 75 -900 260/08 RMK AO2 T10111050
04850KAOH AOH20160226220011302/26/16 22:00:31  5-MIN KAOH 270300Z AUTO 26010KT 10SM OVC028 M01/M05 A3015 760 75 -900 270/10 RMK AO2 T10111050
04850KAOH AOH20160226220511302/26/16 22:05:31  5-MIN KAOH 270305Z AUTO 26010KT 10SM OVC030 M01/M05 A3015 760 75 -900 270/10 RMK AO2 T10111050
04850KAOH AOH20160226221012002/26/16 22:10:31  5-MIN KAOH 270310Z AUTO 25009KT 10SM BKN030 OVC039 M01/M05 A3015 760 75 -900 260/09 RMK AO2 T10111050
04850KAOH AOH20160226221512002/26/16 22:15:31  5-MIN KAOH 270315Z AUTO 26008KT 10SM SCT027 OVC039 M01/M05 A3015 770 75 -900 260/08 RMK AO2 T10111050
04850KAOH AOH20160226222012002/26/16 22:20:31  5-MIN KAOH 270320Z AUTO 25008KT 10SM SCT030 OVC039 M01/M05 A3015 760 75 -900 260/08 RMK AO2 T10111050
04850KAOH AOH20160226222511302/26/16 22:25:31  5-MIN KAOH 270325Z AUTO 26010KT 10SM OVC037 M01/M05 A3015 770 75 -900 260/10 RMK AO2 T10111050
04850KAOH AOH20160226223011302/26/16 22:30:31  5-MIN KAOH 270330Z AUTO 26010KT 10SM OVC037 M01/M05 A3015 770 75 -900 260/10 RMK AO2 T10111050
04850KAOH AOH20160226223512002/26/16 22:35:31  5-MIN KAOH 270335Z AUTO 26009KT 10SM BKN037 OVC050 M01/M05 A3015 770 75 -900 260/09 RMK AO2 T10111050
04850KAOH AOH20160226224012002/26/16 22:40:31  5-MIN KAOH 270340Z AUTO 25007KT 10SM BKN038 OVC050 M01/M05 A3015 770 75 -900 260/07 RMK AO2 T10111050
04850KAOH AOH20160226224512002/26/16 22:45:31  5-MIN KAOH 270345Z AUTO 25009KT 10SM BKN038 OVC049 M01/M05 A3015 760 75 -900 260/09 RMK AO2 T10111050
04850KAOH AOH20160226225012702/26/16 22:50:31  5-MIN KAOH 270350Z AUTO 25011KT 10SM BKN038 OVC049 M01/M06 A3015 770 72 -900 250/11 RMK AO2 SLP220 T10111056
04850KAOH AOH20160226225512002/26/16 22:55:31  5-MIN KAOH 270355Z AUTO 25011KT 10SM BKN036 OVC049 M01/M06 A3015 770 72 -900 260/11 RMK AO2 T10111056
04850KAOH AOH20160226230012002/26/16 23:00:31  5-MIN KAOH 270400Z AUTO 25009KT 10SM SCT036 OVC047 M01/M06 A3015 770 72 -900 260/09 RMK AO2 T10111056
04850KAOH AOH20160226230512102/26/16 23:05:31  5-MIN KAOH 270405Z AUTO 25011KT 10SM BKN039 OVC047 M02/M06 A3015 770 75 -1000 260/11 RMK AO2 T10171056
04850KAOH AOH20160226231012102/26/16 23:10:31  5-MIN KAOH 270410Z AUTO 27011KT 10SM BKN039 OVC047 M02/M06 A3015 760 72 -1000 270/11 RMK AO2 T10171061
04850KAOH AOH20160226231511402/26/16 23:15:31  5-MIN KAOH 270415Z AUTO 26010KT 10SM OVC042 M02/M06 A3015 770 75 -1000 270/10 RMK AO2 T10171056
04850KAOH AOH20160226232011402/26/16 23:20:31  5-MIN KAOH 270420Z AUTO 26008KT 10SM OVC042 M02/M06 A3015 770 75 -1000 260/08 RMK AO2 T10171056
04850KAOH AOH20160226232511402/26/16 23:25:31  5-MIN KAOH 270425Z AUTO 25008KT 10SM OVC042 M02/M06 A3015 770 75 -1000 260/08 RMK AO2 T10171056
04850KAOH AOH20160226233011402/26/16 23:30:31  5-MIN KAOH 270430Z AUTO 25009KT 10SM OVC039 M02/M06 A3015 770 75 -1000 260/09 RMK AO2 T10171056
04850KAOH AOH20160226233511402/26/16 23:35:31  5-MIN KAOH 270435Z AUTO 25010KT 10SM OVC039 M02/M06 A3015 770 72 -1000 260/10 RMK AO2 T10171061
04850KAOH AOH20160226234011402/26/16 23:40:31  5-MIN KAOH 270440Z AUTO 25010KT 10SM OVC039 M02/M06 A3015 770 72 -1000 260/10 RMK AO2 T10171061
04850KAOH AOH20160226234511402/26/16 23:45:31  5-MIN KAOH 270445Z AUTO 25009KT 10SM OVC039 M02/M06 A3015 770 75 -1000 260/09 RMK AO2 T10171056
04850KAOH AOH20160226235013102/26/16 23:50:31  5-MIN KAOH 270450Z AUTO 25009KT 10SM OVC039 M02/M06 A3015 770 75 -1000 260/09 RMK AO2 SLP220 T10171056 410061033
04850KAOH AOH20160226235511402/26/16 23:55:31  5-MIN KAOH 270455Z AUTO 26011KT 10SM OVC037 M02/M06 A3015 770 72 -1000 270/11 RMK AO2 T10171061
04850KAOH AOH20160227000011402/27/16 00:00:31  5-MIN KAOH 270500Z AUTO 26012KT 10SM OVC037 M02/M06 A3015 770 72 -1000 260/12 RMK AO2 T10171061
04850KAOH AOH20160227000511402/27/16 00:05:31  5-MIN KAOH 270505Z AUTO 26013KT 10SM OVC037 M02/M06 A3015 770 72 -1000 260/13 RMK AO2 T10171061
04850KAOH AOH20160227001011402/27/16 00:10:31  5-MIN KAOH 270510Z AUTO 25013KT 10SM OVC037 M02/M07 A3015 770 69 -1000 260/13 RMK AO2 T10171067
04850KAOH AOH20160227001511402/27/16 00:15:31  5-MIN KAOH 270515Z AUTO 26013KT 10SM OVC039 M02/M07 A3015 770 69 -1000 270/13 RMK AO2 T10171067
04850KAOH AOH20160227002011402/27/16 00:20:31  5-MIN KAOH 270520Z AUTO 26013KT 10SM OVC039 M02/M07 A3015 770 69 -1000 270/13 RMK AO2 T10171067
04850KAOH AOH20160227002511402/27/16 00:25:31  5-MIN KAOH 270525Z AUTO 25013KT 10SM OVC039 M02/M07 A3015 770 69 -1000 260/13 RMK AO2 T10171067
04850KAOH AOH20160227003011402/27/16 00:30:31  5-MIN KAOH 270530Z AUTO 27013KT 10SM OVC039 M02/M07 A3014 770 66 -1000 270/13 RMK AO2 T10171072
04850KAOH AOH20160227003511402/27/16 00:35:31  5-MIN KAOH 270535Z AUTO 26010KT 10SM OVC039 M02/M07 A3014 770 66 -1000 270/10 RMK AO2 T10171072
04850KAOH AOH20160227004011402/27/16 00:40:31  5-MIN KAOH 270540Z AUTO 26012KT 10SM OVC039 M02/M07 A3014 770 66 -1000 260/12 RMK AO2 T10171072
04850KAOH AOH20160227004511402/27/16 00:45:31  5-MIN KAOH 270545Z AUTO 27012KT 10SM OVC037 M02/M07 A3014 770 66 -1000 280/12 RMK AO2 T10171072
04850KAOH AOH20160227005013902/27/16 00:50:31  5-MIN KAOH 270550Z AUTO 27009KT 10SM OVC037 M02/M07 A3014 770 69 -1000 270/09 RMK AO2 SLP218 T10171067 11006 21017 58005
04850KAOH AOH20160227005511402/27/16 00:55:31  5-MIN KAOH 270555Z AUTO 26010KT 10SM OVC035 M02/M07 A3014 770 69 -1000 270/10 RMK AO2 T10171067
04850KAOH AOH20160227010011402/27/16 01:00:31  5-MIN KAOH 270600Z AUTO 25009KT 10SM OVC035 M02/M07 A3014 780 66 -1000 250/09 RMK AO2 T10171072
04850KAOH AOH20160227010511402/27/16 01:05:31  5-MIN KAOH 270605Z AUTO 26012KT 10SM OVC033 M02/M07 A3014 780 66 -1000 260/12 RMK AO2 T10171072
04850KAOH AOH20160227011011402/27/16 01:10:31  5-MIN KAOH 270610Z AUTO 25011KT 10SM OVC033 M02/M07 A3013 780 66 -1000 260/11 RMK AO2 T10171072
04850KAOH AOH20160227011511402/27/16 01:15:31  5-MIN KAOH 270615Z AUTO 26011KT 10SM OVC033 M02/M07 A3013 780 69 -1000 260/11 RMK AO2 T10171067
04850KAOH AOH20160227012011402/27/16 01:20:31  5-MIN KAOH 270620Z AUTO 26007KT 10SM OVC031 M02/M07 A3013 780 69 -1000 260/07 RMK AO2 T10171067
04850KAOH AOH20160227012511402/27/16 01:25:31  5-MIN KAOH 270625Z AUTO 26007KT 10SM OVC031 M02/M07 A3013 780 69 -1000 260/07 RMK AO2 T10171067
04850KAOH AOH20160227013011402/27/16 01:30:31  5-MIN KAOH 270630Z AUTO 25009KT 10SM OVC031 M02/M07 A3013 780 69 -1000 250/09 RMK AO2 T10171067
04850KAOH AOH20160227013511402/27/16 01:35:31  5-MIN KAOH 270635Z AUTO 25009KT 10SM OVC031 M02/M07 A3013 780 69 -1000 260/09 RMK AO2 T10171067
04850KAOH AOH20160227014011402/27/16 01:40:31  5-MIN KAOH 270640Z AUTO 25009KT 10SM OVC031 M02/M07 A3013 780 69 -1000 260/09 RMK AO2 T10171067
04850KAOH AOH20160227014511402/27/16 01:45:31  5-MIN KAOH 270645Z AUTO 26011KT 10SM OVC032 M02/M06 A3013 780 72 -1000 260/11 RMK AO2 T10171061
04850KAOH AOH20160227015012102/27/16 01:50:31  5-MIN KAOH 270650Z AUTO 26010KT 10SM OVC032 M02/M06 A3013 780 72 -1000 260/10 RMK AO2 SLP214 T10171061
04850KAOH AOH20160227015511402/27/16 01:55:31  5-MIN KAOH 270655Z AUTO 25008KT 10SM OVC031 M02/M06 A3013 780 72 -1000 260/08 RMK AO2 T10171061
04850KAOH AOH20160227020012002/27/16 02:00:31  5-MIN KAOH 270700Z AUTO 26014G19KT 10SM OVC031 M02/M06 A3013 790 72 -1000 270/14G19 RMK AO2 T10171061
04850KAOH AOH20160227020512002/27/16 02:05:31  5-MIN KAOH 270705Z AUTO 25009G19KT 10SM OVC033 M02/M06 A3013 780 72 -1000 260/09G19 RMK AO2 T10171061
04850KAOH AOH20160227021011402/27/16 02:10:31  5-MIN KAOH 270710Z AUTO 25011KT 10SM OVC033 M02/M06 A3013 780 72 -1000 260/11 RMK AO2 T10171061
04850KAOH AOH20160227021511402/27/16 02:15:31  5-MIN KAOH 270715Z AUTO 26009KT 10SM OVC032 M02/M06 A3013 780 72 -1000 260/09 RMK AO2 T10171061
04850KAOH AOH20160227022011402/27/16 02:20:31  5-MIN KAOH 270720Z AUTO 26012KT 10SM OVC032 M02/M06 A3013 790 72 -1000 270/12 RMK AO2 T10171061
04850KAOH AOH20160227022511402/27/16 02:25:31  5-MIN KAOH 270725Z AUTO 25010KT 10SM OVC032 M02/M06 A3013 790 72 -1000 260/10 RMK AO2 T10171061
04850KAOH AOH20160227023011402/27/16 02:30:31  5-MIN KAOH 270730Z AUTO 26011KT 10SM OVC032 M02/M06 A3013 790 72 -1000 270/11 RMK AO2 T10171061
04850KAOH AOH20160227023511402/27/16 02:35:31  5-MIN KAOH 270735Z AUTO 26010KT 10SM OVC032 M02/M06 A3013 790 72 -1000 270/10 RMK AO2 T10171061
04850KAOH AOH20160227024011402/27/16 02:40:31  5-MIN KAOH 270740Z AUTO 27009KT 10SM OVC032 M02/M06 A3013 780 72 -1000 280/09 RMK AO2 T10171061
04850KAOH AOH20160227024511402/27/16 02:45:31  5-MIN KAOH 270745Z AUTO 26011KT 10SM OVC031 M02/M06 A3013 780 72 -1000 270/11 RMK AO2 T10171061
04850KAOH AOH20160227025012102/27/16 02:50:31  5-MIN KAOH 270750Z AUTO 26013KT 10SM OVC031 M02/M06 A3013 790 72 -1000 260/13 RMK AO2 SLP213 T10171061
04850KAOH AOH20160227025511302/27/16 02:55:31  5-MIN KAOH 270755Z AUTO 27014KT 10SM OVC031 M01/M07 A3013 790 66 -900 270/14 RMK AO2 T10111067
04850KAOH AOH20160227030011402/27/16 03:00:31  5-MIN KAOH 270800Z AUTO 26012KT 10SM OVC031 M02/M06 A3013 790 72 -1000 260/12 RMK AO2 T10171061
04850KAOH AOH20160227030511402/27/16 03:05:31  5-MIN KAOH 270805Z AUTO 26013KT 10SM OVC031 M02/M06 A3013 790 72 -1000 260/13 RMK AO2 T10171061
04850KAOH AOH20160227031011402/27/16 03:10:31  5-MIN KAOH 270810Z AUTO 26011KT 10SM OVC030 M02/M06 A3012 790 72 -1000 270/11 RMK AO2 T10171061
04850KAOH AOH20160227031511402/27/16 03:15:31  5-MIN KAOH 270815Z AUTO 26012KT 10SM OVC030 M02/M06 A3012 790 72 -1000 260/12 RMK AO2 T10171061
04850KAOH AOH20160227032011402/27/16 03:20:31  5-MIN KAOH 270820Z AUTO 27010KT 10SM OVC030 M02/M06 A3012 790 72 -1000 270/10 RMK AO2 T10171061
04850KAOH AOH20160227032511402/27/16 03:25:31  5-MIN KAOH 270825Z AUTO 26012KT 10SM OVC029 M02/M06 A3012 790 72 -1000 270/12 RMK AO2 T10171061
04850KAOH AOH20160227033012002/27/16 03:30:31  5-MIN KAOH 270830Z AUTO 26013G20KT 10SM OVC029 M02/M06 A3012 790 72 -1000 270/13G20 RMK AO2 T10171061
04850KAOH AOH20160227033512002/27/16 03:35:31  5-MIN KAOH 270835Z AUTO 27012G20KT 10SM OVC029 M02/M06 A3012 790 72 -1000 270/12G20 RMK AO2 T10171061
04850KAOH AOH20160227034011402/27/16 03:40:31  5-MIN KAOH 270840Z AUTO 26010KT 10SM OVC029 M02/M06 A3012 790 72 -1000 260/10 RMK AO2 T10171061
04850KAOH AOH20160227034511402/27/16 03:45:31  5-MIN KAOH 270845Z AUTO 26012KT 10SM OVC029 M02/M06 A3012 790 72 -1000 270/12 RMK AO2 T10171061
04850KAOH AOH20160227035012702/27/16 03:50:31  5-MIN KAOH 270850Z AUTO 26012KT 10SM OVC029 M02/M06 A3012 800 72 -1000 270/12 RMK AO2 SLP210 T10171061 57004
04850KAOH AOH20160227035511402/27/16 03:55:31  5-MIN KAOH 270855Z AUTO 26012KT 10SM OVC029 M02/M06 A3012 800 72 -1000 260/12 RMK AO2 T10171061
04850KAOH AOH20160227040011402/27/16 04:00:31  5-MIN KAOH 270900Z AUTO 26010KT 10SM OVC031 M02/M06 A3012 800 72 -1000 260/10 RMK AO2 T10171061
04850KAOH AOH20160227040511402/27/16 04:05:31  5-MIN KAOH 270905Z AUTO 24010KT 10SM OVC031 M02/M06 A3012 800 72 -1000 250/10 RMK AO2 T10171061
04850KAOH AOH20160227041011402/27/16 04:10:31  5-MIN KAOH 270910Z AUTO 24009KT 10SM OVC033 M02/M06 A3012 800 72 -1000 250/09 RMK AO2 T10171061
04850KAOH AOH20160227041511402/27/16 04:15:31  5-MIN KAOH 270915Z AUTO 24008KT 10SM OVC033 M02/M06 A3011 800 72 -1000 250/08 RMK AO2 T10171061
04850KAOH AOH20160227042011402/27/16 04:20:31  5-MIN KAOH 270920Z AUTO 23009KT 10SM OVC035 M02/M06 A3011 800 72 -1000 240/09 RMK AO2 T10171061
04850KAOH AOH20160227042511402/27/16 04:25:31  5-MIN KAOH 270925Z AUTO 23008KT 10SM OVC037 M02/M06 A3011 800 72 -1000 240/08 RMK AO2 T10171061
04850KAOH AOH20160227043011402/27/16 04:30:31  5-MIN KAOH 270930Z AUTO 23008KT 10SM OVC037 M02/M06 A3011 800 72 -1000 240/08 RMK AO2 T10171061
04850KAOH AOH20160227043511302/27/16 04:35:31  5-MIN KAOH 270935Z AUTO 24007KT 10SM OVC037 M02/M06 A3011 810 72 -900 240/07 RMK AO2 T10171061
04850KAOH AOH20160227044011302/27/16 04:40:31  5-MIN KAOH 270940Z AUTO 23008KT 10SM OVC038 M02/M06 A3010 810 72 -900 230/08 RMK AO2 T10171061
04850KAOH AOH20160227044511302/27/16 04:45:31  5-MIN KAOH 270945Z AUTO 23007KT 10SM OVC038 M02/M06 A3010 810 72 -900 230/07 RMK AO2 T10171061
04850KAOH AOH20160227045012002/27/16 04:50:31  5-MIN KAOH 270950Z AUTO 23008KT 10SM OVC038 M02/M06 A3010 810 72 -900 230/08 RMK AO2 SLP204 T10171061
04850KAOH AOH20160227045511302/27/16 04:55:31  5-MIN KAOH 270955Z AUTO 23007KT 10SM OVC038 M02/M06 A3010 810 72 -900 240/07 RMK AO2 T10171061
04850KAOH AOH20160227050011302/27/16 05:00:31  5-MIN KAOH 271000Z AUTO 22008KT 10SM OVC038 M02/M06 A3010 820 72 -900 220/08 RMK AO2 T10171061
04850KAOH AOH20160227050511302/27/16 05:05:31  5-MIN KAOH 271005Z AUTO 21007KT 10SM OVC038 M02/M06 A3009 820 72 -900 220/07 RMK AO2 T10171061
04850KAOH AOH20160227051011302/27/16 05:10:31  5-MIN KAOH 271010Z AUTO 21006KT 10SM OVC040 M02/M06 A3010 820 72 -900 220/06 RMK AO2 T10171061
04850KAOH AOH20160227051511302/27/16 05:15:31  5-MIN KAOH 271015Z AUTO 21007KT 10SM OVC040 M02/M06 A3009 820 72 -900 220/07 RMK AO2 T10171061
04850KAOH AOH20160227052011302/27/16 05:20:31  5-MIN KAOH 271020Z AUTO 21007KT 10SM OVC040 M02/M06 A3010 810 72 -900 220/07 RMK AO2 T10171061
04850KAOH AOH20160227052511302/27/16 05:25:31  5-MIN KAOH 271025Z AUTO 21006KT 10SM OVC040 M02/M06 A3010 810 72 -900 220/06 RMK AO2 T10171061
04850KAOH AOH20160227053011302/27/16 05:30:31  5-MIN KAOH 271030Z AUTO 21008KT 10SM OVC041 M02/M06 A3010 810 72 -900 220/08 RMK AO2 T10171061
04850KAOH AOH20160227053511302/27/16 05:35:31  5-MIN KAOH 271035Z AUTO 21007KT 10SM OVC041 M02/M06 A3010 820 72 -900 210/07 RMK AO2 T10171061
04850KAOH AOH20160227054011302/27/16 05:40:31  5-MIN KAOH 271040Z AUTO 21006KT 10SM OVC041 M02/M06 A3010 820 72 -900 220/06 RMK AO2 T10171061
04850KAOH AOH20160227054511302/27/16 05:45:31  5-MIN KAOH 271045Z AUTO 21007KT 10SM OVC041 M02/M06 A3010 820 72 -900 210/07 RMK AO2 T10171061
04850KAOH AOH20160227055012002/27/16 05:50:31  5-MIN KAOH 271050Z AUTO 21007KT 10SM OVC042 M02/M06 A3010 810 72 -900 220/07 RMK AO2 SLP203 T10171061
04850KAOH AOH20160227055511302/27/16 05:55:31  5-MIN KAOH 271055Z AUTO 21007KT 10SM OVC042 M02/M06 A3010 810 72 -900 220/07 RMK AO2 T10171061
04850KAOH AOH20160227060011302/27/16 06:00:31  5-MIN KAOH 271100Z AUTO 21007KT 10SM OVC042 M02/M06 A3010 820 72 -900 220/07 RMK AO2 T10171061
04850KAOH AOH20160227060511302/27/16 06:05:31  5-MIN KAOH 271105Z AUTO 21008KT 10SM OVC042 M02/M06 A3010 810 72 -900 220/08 RMK AO2 T10171061
04850KAOH AOH20160227061011402/27/16 06:10:31  5-MIN KAOH 271110Z AUTO 21007KT 10SM OVC042 M02/M06 A3010 810 75 -1000 220/07 RMK AO2 T10221061
04850KAOH AOH20160227061511402/27/16 06:15:31  5-MIN KAOH 271115Z AUTO 22007KT 10SM OVC042 M02/M06 A3010 810 75 -1000 220/07 RMK AO2 T10221061
04850KAOH AOH20160227062011402/27/16 06:20:31  5-MIN KAOH 271120Z AUTO 22007KT 10SM OVC042 M02/M06 A3010 810 75 -1000 230/07 RMK AO2 T10221061
04850KAOH AOH20160227062511402/27/16 06:25:31  5-MIN KAOH 271125Z AUTO 21007KT 10SM OVC042 M02/M06 A3010 810 75 -1000 220/07 RMK AO2 T10221061
04850KAOH AOH20160227063011402/27/16 06:30:31  5-MIN KAOH 271130Z AUTO 21007KT 10SM OVC042 M02/M06 A3010 810 75 -1000 220/07 RMK AO2 T10221061
04850KAOH AOH20160227063511402/27/16 06:35:31  5-MIN KAOH 271135Z AUTO 20006KT 10SM BKN042 M02/M06 A3010 810 75 -1000 210/06 RMK AO2 T10221061
04850KAOH AOH20160227064011402/27/16 06:40:31  5-MIN KAOH 271140Z AUTO 21006KT 10SM BKN041 M02/M06 A3010 810 75 -1000 210/06 RMK AO2 T10221061
04850KAOH AOH20160227064511402/27/16 06:45:31  5-MIN KAOH 271145Z AUTO 20007KT 10SM SCT041 M03/M06 A3010 820 78 -1100 210/07 RMK AO2 T10281061
04850KAOH AOH20160227065013902/27/16 06:50:31  5-MIN KAOH 271150Z AUTO 20007KT 10SM SCT041 M03/M06 A3009 820 78 -1100 210/07 RMK AO2 SLP202 T10281061 11011 21028 56007
04850KAOH AOH20160227065511402/27/16 06:55:31  5-MIN KAOH 271155Z AUTO 20006KT 10SM FEW040 M02/M06 A3009 820 75 -1000 210/06 RMK AO2 T10221061
04850KAOH AOH20160227070011102/27/16 07:00:31  5-MIN KAOH 271200Z AUTO 20007KT 10SM CLR M03/M06 A3010 820 78 -1100 210/07 RMK AO2 T10281061
04850KAOH AOH20160227070511102/27/16 07:05:31  5-MIN KAOH 271205Z AUTO 20007KT 10SM CLR M03/M06 A3009 820 78 -1100 210/07 RMK AO2 T10281061
04850KAOH AOH20160227071011102/27/16 07:10:31  5-MIN KAOH 271210Z AUTO 22008KT 10SM CLR M03/M06 A3010 820 78 -1100 220/08 RMK AO2 T10281061
04850KAOH AOH20160227071511102/27/16 07:15:31  5-MIN KAOH 271215Z AUTO 21008KT 10SM CLR M03/M06 A3009 820 78 -1100 220/08 RMK AO2 T10281061
04850KAOH AOH20160227072011102/27/16 07:20:31  5-MIN KAOH 271220Z AUTO 21008KT 10SM CLR M03/M06 A3009 820 78 -1100 220/08 RMK AO2 T10281061
04850KAOH AOH20160227072511102/27/16 07:25:31  5-MIN KAOH 271225Z AUTO 21007KT 10SM CLR M03/M06 A3009 820 78 -1100 220/07 RMK AO2 T10281061
04850KAOH AOH20160227073011102/27/16 07:30:31  5-MIN KAOH 271230Z AUTO 21007KT 10SM CLR M03/M06 A3010 820 78 -1100 220/07 RMK AO2 T10281061
04850KAOH AOH20160227073511102/27/16 07:35:31  5-MIN KAOH 271235Z AUTO 21008KT 10SM CLR M03/M06 A3010 810 78 -1100 220/08 RMK AO2 T10281061
04850KAOH AOH20160227074011102/27/16 07:40:31  5-MIN KAOH 271240Z AUTO 21008KT 10SM CLR M03/M06 A3010 810 78 -1100 210/08 RMK AO2 T10281061
04850KAOH AOH20160227074511102/27/16 07:45:31  5-MIN KAOH 271245Z AUTO 21009KT 10SM CLR M03/M06 A3010 810 78 -1100 220/09 RMK AO2 T10281061
04850KAOH AOH20160227075011802/27/16 07:50:31  5-MIN KAOH 271250Z AUTO 20009KT 10SM CLR M02/M06 A3010 820 75 -1000 210/09 RMK AO2 SLP202 T10221061
04850KAOH AOH20160227075511102/27/16 07:55:31  5-MIN KAOH 271255Z AUTO 20009KT 10SM CLR M02/M06 A3009 820 75 -1000 210/09 RMK AO2 T10221061
04850KAOH AOH20160227080011102/27/16 08:00:31  5-MIN KAOH 271300Z AUTO 20009KT 10SM CLR M02/M06 A3009 820 75 -1000 210/09 RMK AO2 T10221061
04850KAOH AOH20160227080511102/27/16 08:05:31  5-MIN KAOH 271305Z AUTO 20009KT 10SM CLR M02/M06 A3009 820 75 -1000 210/09 RMK AO2 T10221061
04850KAOH AOH20160227081011102/27/16 08:10:31  5-MIN KAOH 271310Z AUTO 21009KT 10SM CLR M02/M06 A3009 820 75 -1000 210/09 RMK AO2 T10221061
04850KAOH AOH20160227081511102/27/16 08:15:31  5-MIN KAOH 271315Z AUTO 21009KT 10SM CLR M02/M06 A3009 820 75 -1000 220/09 RMK AO2 T10221061
04850KAOH AOH20160227082011002/27/16 08:20:31  5-MIN KAOH 271320Z AUTO 21010KT 10SM CLR M02/M06 A3009 820 72 -900 210/10 RMK AO2 T10171061
04850KAOH AOH20160227082511002/27/16 08:25:31  5-MIN KAOH 271325Z AUTO 21011KT 10SM CLR M02/M06 A3009 820 72 -900 220/11 RMK AO2 T10171061
04850KAOH AOH20160227083011602/27/16 08:30:31  5-MIN KAOH 271330Z AUTO 20010G16KT 10SM CLR M02/M06 A3008 830 72 -900 210/10G16 RMK AO2 T10171061
04850KAOH AOH20160227083511602/27/16 08:35:31  5-MIN KAOH 271335Z AUTO 21011G17KT 10SM CLR M02/M06 A3008 830 72 -900 210/11G17 RMK AO2 T10171061
04850KAOH AOH20160227084011002/27/16 08:40:31  5-MIN KAOH 271340Z AUTO 21013KT 10SM CLR M02/M06 A3008 830 72 -900 210/13 RMK AO2 T10171061
04850KAOH AOH20160227084511002/27/16 08:45:31  5-MIN KAOH 271345Z AUTO 21012KT 10SM CLR M02/M06 A3008 830 72 -900 220/12 RMK AO2 T10171061
04850KAOH AOH20160227085011702/27/16 08:50:31  5-MIN KAOH 271350Z AUTO 22010KT 10SM CLR M01/M06 A3009 830 69 -900 220/10 RMK AO2 SLP198 T10111061
04850KAOH AOH20160227085511002/27/16 08:55:31  5-MIN KAOH 271355Z AUTO 21013KT 10SM CLR M01/M06 A3008 830 72 -900 220/13 RMK AO2 T10111056
04850KAOH AOH20160227190010702/27/16 19:00:31  5-MIN KAOH 280000Z AUTO 21011KT 10SM CLR 07/00 A2995 950 62 200 210/11 RMK AO2 T00670000
04850KAOH AOH20160227190510702/27/16 19:05:31  5-MIN KAOH 280005Z AUTO 21011KT 10SM CLR 07/00 A2995 950 62 200 210/11 RMK AO2 T00670000
04850KAOH AOH20160227191010702/27/16 19:10:31  5-MIN KAOH 280010Z AUTO 20011KT 10SM CLR 07/00 A2995 950 62 200 210/11 RMK AO2 T00670000
04850KAOH AOH20160227191510702/27/16 19:15:31  5-MIN KAOH 280015Z AUTO 20011KT 10SM CLR 07/00 A2995 950 62 200 210/11 RMK AO2 T00670000
04850KAOH AOH20160227192010702/27/16 19:20:31  5-MIN KAOH 280020Z AUTO 20012KT 10SM CLR 07/00 A2995 950 62 200 210/12 RMK AO2 T00670000
04850KAOH AOH20160227192510702/27/16 19:25:31  5-MIN KAOH 280025Z AUTO 20010KT 10SM CLR 07/00 A2995 950 62 200 210/10 RMK AO2 T00670000
04850KAOH AOH20160227193010702/27/16 19:30:31  5-MIN KAOH 280030Z AUTO 20011KT 10SM CLR 06/00 A2994 960 65 200 200/11 RMK AO2 T00610000
04850KAOH AOH20160227193510702/27/16 19:35:31  5-MIN KAOH 280035Z AUTO 19010KT 10SM CLR 06/00 A2994 960 65 200 200/10 RMK AO2 T00610000
04850KAOH AOH20160227194010702/27/16 19:40:31  5-MIN KAOH 280040Z AUTO 19010KT 10SM CLR 06/00 A2994 960 65 200 200/10 RMK AO2 T00610000
04850KAOH AOH20160227194510702/27/16 19:45:31  5-MIN KAOH 280045Z AUTO 19012KT 10SM CLR 06/00 A2993 970 65 200 200/12 RMK AO2 T00610000
04850KAOH AOH20160227195011402/27/16 19:50:31  5-MIN KAOH 280050Z AUTO 20010KT 10SM CLR 06/00 A2993 960 65 200 200/10 RMK AO2 SLP144 T00610000
04850KAOH AOH20160227195510702/27/16 19:55:31  5-MIN KAOH 280055Z AUTO 20011KT 10SM CLR 06/00 A2994 960 65 200 200/11 RMK AO2 T00610000
04850KAOH AOH20160227200010702/27/16 20:00:31  5-MIN KAOH 280100Z AUTO 19010KT 10SM CLR 06/00 A2993 960 65 200 200/10 RMK AO2 T00610000
04850KAOH AOH20160227200510702/27/16 20:05:31  5-MIN KAOH 280105Z AUTO 20011KT 10SM CLR 06/00 A2994 960 65 200 200/11 RMK AO2 T00610000
04850KAOH AOH20160227201010702/27/16 20:10:31  5-MIN KAOH 280110Z AUTO 20010KT 10SM CLR 06/00 A2994 960 65 200 200/10 RMK AO2 T00610000
04850KAOH AOH20160227201510702/27/16 20:15:31  5-MIN KAOH 280115Z AUTO 20009KT 10SM CLR 06/00 A2994 960 65 200 210/09 RMK AO2 T00610000
04850KAOH AOH20160227202010702/27/16 20:20:31  5-MIN KAOH 280120Z AUTO 20010KT 10SM CLR 06/00 A2994 960 65 200 210/10 RMK AO2 T00610000
04850KAOH AOH20160227202510702/27/16 20:25:31  5-MIN KAOH 280125Z AUTO 20010KT 10SM CLR 06/00 A2994 960 65 200 210/10 RMK AO2 T00610000
04850KAOH AOH20160227203010702/27/16 20:30:31  5-MIN KAOH 280130Z AUTO 20011KT 10SM CLR 06/00 A2994 960 65 200 210/11 RMK AO2 T00610000
04850KAOH AOH20160227203510702/27/16 20:35:31  5-MIN KAOH 280135Z AUTO 20010KT 10SM CLR 06/00 A2994 960 65 200 200/10 RMK AO2 T00610000
04850KAOH AOH20160227204010702/27/16 20:40:31  5-MIN KAOH 280140Z AUTO 19012KT 10SM CLR 06/00 A2993 970 65 200 200/12 RMK AO2 T00610000
04850KAOH AOH20160227204510702/27/16 20:45:31  5-MIN KAOH 280145Z AUTO 20010KT 10SM CLR 06/00 A2993 970 67 100 200/10 RMK AO2 T00560000
04850KAOH AOH20160227205011402/27/16 20:50:31  5-MIN KAOH 280150Z AUTO 19010KT 10SM CLR 06/00 A2993 970 67 100 200/10 RMK AO2 SLP142 T00560000
04850KAOH AOH20160227205510702/27/16 20:55:31  5-MIN KAOH 280155Z AUTO 20010KT 10SM CLR 06/00 A2993 970 67 100 200/10 RMK AO2 T00560000
04850KAOH AOH20160227210010702/27/16 21:00:31  5-MIN KAOH 280200Z AUTO 20010KT 10SM CLR 06/00 A2993 970 67 100 200/10 RMK AO2 T00560000
04850KAOH AOH20160227210510702/27/16 21:05:31  5-MIN KAOH 280205Z AUTO 19012KT 10SM CLR 06/00 A2993 970 65 200 200/12 RMK AO2 T00610000
04850KAOH AOH20160227211010702/27/16 21:10:31  5-MIN KAOH 280210Z AUTO 19011KT 10SM CLR 06/00 A2992 970 65 200 200/11 RMK AO2 T00610000
04850KAOH AOH20160227211510702/27/16 21:15:31  5-MIN KAOH 280215Z AUTO 20010KT 10SM CLR 06/00 A2993 970 65 200 210/10 RMK AO2 T00610000
04850KAOH AOH20160227212011302/27/16 21:20:31  5-MIN KAOH 280220Z AUTO 20012G18KT 10SM CLR 06/00 A2993 970 65 200 210/12G18 RMK AO2 T00610000
04850KAOH AOH20160227212510702/27/16 21:25:31  5-MIN KAOH 280225Z AUTO 20012KT 10SM CLR 06/00 A2992 970 65 200 210/12 RMK AO2 T00610000
04850KAOH AOH20160227213010702/27/16 21:30:31  5-MIN KAOH 280230Z AUTO 20013KT 10SM CLR 06/00 A2992 970 65 200 200/13 RMK AO2 T00610000
04850KAOH AOH20160227213511302/27/16 21:35:31  5-MIN KAOH 280235Z AUTO 20011G18KT 10SM CLR 06/00 A2992 970 65 200 200/11G18 RMK AO2 T00610000
04850KAOH AOH20160227214010702/27/16 21:40:31  5-MIN KAOH 280240Z AUTO 20013KT 10SM CLR 06/00 A2992 980 65 200 210/13 RMK AO2 T00610000
04850KAOH AOH20160227214510702/27/16 21:45:31  5-MIN KAOH 280245Z AUTO 20011KT 10SM CLR 06/00 A2992 980 65 200 210/11 RMK AO2 T00610000
04850KAOH AOH20160227215012002/27/16 21:50:31  5-MIN KAOH 280250Z AUTO 20011KT 10SM CLR 06/00 A2992 980 65 200 210/11 RMK AO2 SLP139 T00610000 55000
04850KAOH AOH20160227215510702/27/16 21:55:31  5-MIN KAOH 280255Z AUTO 21012KT 10SM CLR 06/00 A2992 980 65 200 210/12 RMK AO2 T00610000
04850KAOH AOH20160227220010702/27/16 22:00:31  5-MIN KAOH 280300Z AUTO 20012KT 10SM CLR 06/00 A2992 980 65 200 210/12 RMK AO2 T00610000
04850KAOH AOH20160227220510702/27/16 22:05:31  5-MIN KAOH 280305Z AUTO 20011KT 10SM CLR 06/00 A2992 980 65 200 210/11 RMK AO2 T00610000
04850KAOH AOH20160227221010802/27/16 22:10:31  5-MIN KAOH 280310Z AUTO 21012KT 10SM CLR 06/M01 A2992 980 62 200 210/12 RMK AO2 T00611006
04850KAOH AOH20160227221510702/27/16 22:15:31  5-MIN KAOH 280315Z AUTO 21011KT 10SM CLR 06/00 A2992 980 65 200 210/11 RMK AO2 T00610000
04850KAOH AOH20160227222010802/27/16 22:20:31  5-MIN KAOH 280320Z AUTO 21013KT 10SM CLR 06/M01 A2992 980 62 200 210/13 RMK AO2 T00611006
04850KAOH AOH20160227222510802/27/16 22:25:31  5-MIN KAOH 280325Z AUTO 20013KT 10SM CLR 06/M01 A2992 980 62 200 210/13 RMK AO2 T00611006
04850KAOH AOH20160227223010802/27/16 22:30:31  5-MIN KAOH 280330Z AUTO 21013KT 10SM CLR 06/M01 A2991 980 62 200 210/13 RMK AO2 T00611006
04850KAOH AOH20160227223510802/27/16 22:35:31  5-MIN KAOH 280335Z AUTO 21012KT 10SM CLR 06/M01 A2992 980 62 200 220/12 RMK AO2 T00611006
04850KAOH AOH20160227224010802/27/16 22:40:31  5-MIN KAOH 280340Z AUTO 21012KT 10SM CLR 06/M01 A2992 980 62 200 220/12 RMK AO2 T00611006
04850KAOH AOH20160227224511402/27/16 22:45:31  5-MIN KAOH 280345Z AUTO 21012G19KT 10SM CLR 06/M01 A2992 980 62 200 220/12G19 RMK AO2 T00611006
04850KAOH AOH20160227225011502/27/16 22:50:31  5-MIN KAOH 280350Z AUTO 21013KT 10SM CLR 06/M01 A2992 980 65 100 220/13 RMK AO2 SLP138 T00561006
04850KAOH AOH20160227225511402/27/16 22:55:31  5-MIN KAOH 280355Z AUTO 21012G18KT 10SM CLR 06/M01 A2992 980 65 100 220/12G18 RMK AO2 T00561006
04850KAOH AOH20160227230010802/27/16 23:00:31  5-MIN KAOH 280400Z AUTO 20013KT 10SM CLR 06/M01 A2992 980 65 100 210/13 RMK AO2 T00561006
04850KAOH AOH20160227230510802/27/16 23:05:31  5-MIN KAOH 280405Z AUTO 21011KT 10SM CLR 06/M01 A2992 980 65 100 210/11 RMK AO2 T00561006
04850KAOH AOH20160227231010802/27/16 23:10:31  5-MIN KAOH 280410Z AUTO 21010KT 10SM CLR 06/M01 A2992 970 65 100 210/10 RMK AO2 T00561006
04850KAOH AOH20160227231511402/27/16 23:15:31  5-MIN KAOH 280415Z AUTO 21013G19KT 10SM CLR 06/M01 A2993 970 65 100 220/13G19 RMK AO2 T00561006
04850KAOH AOH20160227232011402/27/16 23:20:31  5-MIN KAOH 280420Z AUTO 21011G19KT 10SM CLR 06/M01 A2992 970 65 100 220/11G19 RMK AO2 T00561006
04850KAOH AOH20160227232510802/27/16 23:25:31  5-MIN KAOH 280425Z AUTO 21013KT 10SM CLR 06/M01 A2992 980 65 100 220/13 RMK AO2 T00561006
04850KAOH AOH20160227233010802/27/16 23:30:31  5-MIN KAOH 280430Z AUTO 21012KT 10SM CLR 06/M01 A2992 980 62 200 210/12 RMK AO2 T00611006
04850KAOH AOH20160227233510702/27/16 23:35:31  5-MIN KAOH 280435Z AUTO 21012KT 10SM CLR 06/00 A2992 980 67 100 210/12 RMK AO2 T00560000
04850KAOH AOH20160227234010802/27/16 23:40:31  5-MIN KAOH 280440Z AUTO 21012KT 10SM CLR 06/M01 A2992 980 65 100 210/12 RMK AO2 T00561006
04850KAOH AOH20160227234510702/27/16 23:45:31  5-MIN KAOH 280445Z AUTO 21011KT 10SM CLR 06/00 A2992 980 65 200 210/11 RMK AO2 T00610000
04850KAOH AOH20160227235012402/27/16 23:50:31  5-MIN KAOH 280450Z AUTO 21012KT 10SM CLR 06/00 A2992 980 65 200 210/12 RMK AO2 SLP138 T00610000 400831028
04850KAOH AOH20160227235510702/27/16 23:55:31  5-MIN KAOH 280455Z AUTO 21012KT 10SM CLR 06/00 A2992 980 65 200 220/12 RMK AO2 T00610000
04850KAOH AOH20160228000011302/28/16 00:00:31  5-MIN KAOH 280500Z AUTO 21012G20KT 10SM CLR 06/00 A2992 980 67 100 220/12G20 RMK AO2 T00560000
04850KAOH AOH20160228000511302/28/16 00:05:31  5-MIN KAOH 280505Z AUTO 21013G20KT 10SM CLR 06/00 A2992 980 65 200 220/13G20 RMK AO2 T00610000
04850KAOH AOH20160228001010702/28/16 00:10:31  5-MIN KAOH 280510Z AUTO 21011KT 10SM CLR 06/00 A2991 980 67 100 220/11 RMK AO2 T00560000
04850KAOH AOH20160228001510702/28/16 00:15:31  5-MIN KAOH 280515Z AUTO 21013KT 10SM CLR 06/00 A2991 980 67 100 220/13 RMK AO2 T00560000
04850KAOH AOH20160228002010702/28/16 00:20:31  5-MIN KAOH 280520Z AUTO 21013KT 10SM CLR 06/00 A2991 980 67 100 210/13 RMK AO2 T00560000
04850KAOH AOH20160228002510702/28/16 00:25:31  5-MIN KAOH 280525Z AUTO 21013KT 10SM CLR 06/00 A2991 990 67 100 210/13 RMK AO2 T00560000
04850KAOH AOH20160228003010702/28/16 00:30:31  5-MIN KAOH 280530Z AUTO 21011KT 10SM CLR 05/00 A2991 990 70 100 210/11 RMK AO2 T00500000
04850KAOH AOH20160228003510702/28/16 00:35:31  5-MIN KAOH 280535Z AUTO 21011KT 10SM CLR 05/00 A2991 980 70 100 210/11 RMK AO2 T00500000
04850KAOH AOH20160228004010702/28/16 00:40:31  5-MIN KAOH 280540Z AUTO 21011KT 10SM CLR 05/00 A2991 990 70 100 210/11 RMK AO2 T00500000
04850KAOH AOH20160228004510702/28/16 00:45:31  5-MIN KAOH 280545Z AUTO 20011KT 10SM CLR 05/00 A2991 990 70 100 210/11 RMK AO2 T00500000
04850KAOH AOH20160228005013202/28/16 00:50:31  5-MIN KAOH 280550Z AUTO 21012KT 10SM CLR 05/00 A2991 990 70 100 210/12 RMK AO2 SLP134 T00500000 10067 20050 56010
04850KAOH AOH20160228005510802/28/16 00:55:31  5-MIN KAOH 280555Z AUTO 20013KT 10SM CLR 05/M01 A2991 990 67 100 210/13 RMK AO2 T00501006
04850KAOH AOH20160228010010802/28/16 01:00:31  5-MIN KAOH 280600Z AUTO 20012KT 10SM CLR 05/M01 A2990 990 67 100 210/12 RMK AO2 T00501006
04850KAOH AOH20160228010510602/28/16 01:05:31  5-MIN KAOH 280605Z AUTO 20012KT 10SM CLR 04/M01 A2990 990 70 0 210/12 RMK AO2 T00441006
04850KAOH AOH20160228011010602/28/16 01:10:31  5-MIN KAOH 280610Z AUTO 20012KT 10SM CLR 04/M01 A2991 990 70 0 210/12 RMK AO2 T00441006
04850KAOH AOH20160228011510802/28/16 01:15:31  5-MIN KAOH 280615Z AUTO 20013KT 10SM CLR 05/M01 A2990 990 67 100 210/13 RMK AO2 T00501006
04850KAOH AOH20160228012010802/28/16 01:20:31  5-MIN KAOH 280620Z AUTO 20012KT 10SM CLR 05/M01 A2990 990 67 100 210/12 RMK AO2 T00501006
04850KAOH AOH20160228012510802/28/16 01:25:31  5-MIN KAOH 280625Z AUTO 21013KT 10SM CLR 05/M01 A2990 990 67 100 210/13 RMK AO2 T00501006
04850KAOH AOH20160228013010802/28/16 01:30:31  5-MIN KAOH 280630Z AUTO 21013KT 10SM CLR 05/M01 A2990 990 67 100 210/13 RMK AO2 T00501006
04850KAOH AOH20160228013511502/28/16 01:35:31  5-MIN KAOH 280635Z AUTO 20014G19KT 10SM CLR 05/M01 A2990 1000 67 100 210/14G19 RMK AO2 T00501006
04850KAOH AOH20160228014011502/28/16 01:40:31  5-MIN KAOH 280640Z AUTO 20013G22KT 10SM CLR 05/M01 A2990 1000 67 100 210/13G22 RMK AO2 T00501006
04850KAOH AOH20160228014511502/28/16 01:45:31  5-MIN KAOH 280645Z AUTO 21012G22KT 10SM CLR 05/M01 A2989 1000 67 100 210/12G22 RMK AO2 T00501006
04850KAOH AOH20160228015011602/28/16 01:50:31  5-MIN KAOH 280650Z AUTO 21012KT 10SM CLR 05/M01 A2989 1000 67 100 220/12 RMK AO2 SLP127 T00501006
04850KAOH AOH20160228015510902/28/16 01:55:31  5-MIN KAOH 280655Z AUTO 21015KT 10SM CLR 05/M01 A2989 1000 67 100 210/15 RMK AO2 T00501006
04850KAOH AOH20160228020010902/28/16 02:00:31  5-MIN KAOH 280700Z AUTO 21014KT 10SM CLR 05/M01 A2989 1000 67 100 210/14 RMK AO2 T00501006
04850KAOH AOH20160228020510902/28/16 02:05:31  5-MIN KAOH 280705Z AUTO 20013KT 10SM CLR 05/M01 A2989 1010 67 100 210/13 RMK AO2 T00501006
04850KAOH AOH20160228021010902/28/16 02:10:31  5-MIN KAOH 280710Z AUTO 21013KT 10SM CLR 05/M01 A2989 1010 67 100 220/13 RMK AO2 T00501006
04850KAOH AOH20160228021510902/28/16 02:15:31  5-MIN KAOH 280715Z AUTO 21013KT 10SM CLR 05/M01 A2989 1010 67 100 220/13 RMK AO2 T00501006
04850KAOH AOH20160228022010902/28/16 02:20:31  5-MIN KAOH 280720Z AUTO 21013KT 10SM CLR 05/M01 A2989 1010 67 100 220/13 RMK AO2 T00501006
04850KAOH AOH20160228022510902/28/16 02:25:31  5-MIN KAOH 280725Z AUTO 21012KT 10SM CLR 05/M01 A2989 1010 67 100 220/12 RMK AO2 T00501006
04850KAOH AOH20160228023010902/28/16 02:30:31  5-MIN KAOH 280730Z AUTO 21013KT 10SM CLR 05/M01 A2988 1010 67 100 210/13 RMK AO2 T00501006
04850KAOH AOH20160228023510902/28/16 02:35:31  5-MIN KAOH 280735Z AUTO 21013KT 10SM CLR 05/M01 A2988 1010 67 100 210/13 RMK AO2 T00501006
04850KAOH AOH20160228024010902/28/16 02:40:31  5-MIN KAOH 280740Z AUTO 21012KT 10SM CLR 05/M01 A2988 1020 67 100 220/12 RMK AO2 T00501006
04850KAOH AOH20160228024511502/28/16 02:45:31  5-MIN KAOH 280745Z AUTO 21014G21KT 10SM CLR 05/M01 A2988 1020 67 100 210/14G21 RMK AO2 T00501006
04850KAOH AOH20160228025012202/28/16 02:50:31  5-MIN KAOH 280750Z AUTO 21012G22KT 10SM CLR 06/M01 A2988 1020 65 200 220/12G22 RMK AO2 SLP121 T00561006
04850KAOH AOH20160228025511502/28/16 02:55:31  5-MIN KAOH 280755Z AUTO 21014G22KT 10SM CLR 05/M01 A2987 1020 67 100 210/14G22 RMK AO2 T00501006
04850KAOH AOH20160228030011502/28/16 03:00:31  5-MIN KAOH 280800Z AUTO 21014G21KT 10SM CLR 05/M01 A2987 1020 67 100 220/14G21 RMK AO2 T00501006
04850KAOH AOH20160228030511502/28/16 03:05:31  5-MIN KAOH 280805Z AUTO 21013G21KT 10SM CLR 05/M01 A2987 1030 67 100 210/13G21 RMK AO2 T00501006
04850KAOH AOH20160228031010902/28/16 03:10:31  5-MIN KAOH 280810Z AUTO 21013KT 10SM CLR 05/M01 A2986 1030 67 100 210/13 RMK AO2 T00501006
04850KAOH AOH20160228031510802/28/16 03:15:31  5-MIN KAOH 280815Z AUTO 21013KT 10SM CLR 05/00 A2986 1030 70 100 220/13 RMK AO2 T00500000
04850KAOH AOH20160228032010802/28/16 03:20:31  5-MIN KAOH 280820Z AUTO 21011KT 10SM CLR 05/00 A2986 1030 70 100 210/11 RMK AO2 T00500000
04850KAOH AOH20160228032510802/28/16 03:25:31  5-MIN KAOH 280825Z AUTO 21011KT 10SM CLR 05/00 A2986 1030 70 100 210/11 RMK AO2 T00500000
04850KAOH AOH20160228033010802/28/16 03:30:31  5-MIN KAOH 280830Z AUTO 21010KT 10SM CLR 05/00 A2986 1030 70 100 210/10 RMK AO2 T00500000
04850KAOH AOH20160228033510802/28/16 03:35:31  5-MIN KAOH 280835Z AUTO 21012KT 10SM CLR 05/00 A2986 1040 70 100 210/12 RMK AO2 T00500000
04850KAOH AOH20160228034010802/28/16 03:40:31  5-MIN KAOH 280840Z AUTO 21012KT 10SM CLR 05/00 A2986 1040 70 100 210/12 RMK AO2 T00500000
04850KAOH AOH20160228034510602/28/16 03:45:31  5-MIN KAOH 280845Z AUTO 21012KT 10SM CLR 04/00 A2986 1040 73 0 210/12 RMK AO2 T00440000
04850KAOH AOH20160228035012102/28/16 03:50:31  5-MIN KAOH 280850Z AUTO 21012KT 10SM CLR 05/00 A2986 1040 70 100 210/12 RMK AO2 SLP115 T00500000 58005
04850KAOH AOH20160228035510802/28/16 03:55:31  5-MIN KAOH 280855Z AUTO 21012KT 10SM CLR 05/00 A2986 1040 70 100 210/12 RMK AO2 T00500000
04850KAOH AOH20160228040010602/28/16 04:00:31  5-MIN KAOH 280900Z AUTO 21011KT 10SM CLR 04/00 A2986 1040 73 0 210/11 RMK AO2 T00440000
04850KAOH AOH20160228040511402/28/16 04:05:31  5-MIN KAOH 280905Z AUTO 20011G20KT 10SM CLR 05/00 A2985 1040 70 100 210/11G20 RMK AO2 T00500000
04850KAOH AOH20160228041011402/28/16 04:10:31  5-MIN KAOH 280910Z AUTO 21013G20KT 10SM CLR 05/00 A2985 1040 70 100 210/13G20 RMK AO2 T00500000
04850KAOH AOH20160228041510802/28/16 04:15:31  5-MIN KAOH 280915Z AUTO 21013KT 10SM CLR 05/00 A2985 1040 70 100 210/13 RMK AO2 T00500000
04850KAOH AOH20160228042010802/28/16 04:20:31  5-MIN KAOH 280920Z AUTO 20013KT 10SM CLR 05/00 A2985 1040 70 100 210/13 RMK AO2 T00500000
04850KAOH AOH20160228042510802/28/16 04:25:31  5-MIN KAOH 280925Z AUTO 21013KT 10SM CLR 05/00 A2985 1040 70 100 210/13 RMK AO2 T00500000
04850KAOH AOH20160228043010802/28/16 04:30:31  5-MIN KAOH 280930Z AUTO 21013KT 10SM CLR 05/00 A2985 1040 70 100 210/13 RMK AO2 T00500000
04850KAOH AOH20160228043510802/28/16 04:35:31  5-MIN KAOH 280935Z AUTO 20013KT 10SM CLR 04/00 A2985 1040 73 100 210/13 RMK AO2 T00440000
04850KAOH AOH20160228044010802/28/16 04:40:31  5-MIN KAOH 280940Z AUTO 21012KT 10SM CLR 04/00 A2985 1050 73 100 210/12 RMK AO2 T00440000
04850KAOH AOH20160228044510802/28/16 04:45:31  5-MIN KAOH 280945Z AUTO 20013KT 10SM CLR 05/00 A2985 1050 70 100 210/13 RMK AO2 T00500000
04850KAOH AOH20160228045011502/28/16 04:50:31  5-MIN KAOH 280950Z AUTO 20012KT 10SM CLR 05/00 A2984 1050 70 100 210/12 RMK AO2 SLP111 T00500000
04850KAOH AOH20160228045510802/28/16 04:55:31  5-MIN KAOH 280955Z AUTO 20012KT 10SM CLR 04/00 A2985 1050 73 100 210/12 RMK AO2 T00440000
04850KAOH AOH20160228050010802/28/16 05:00:31  5-MIN KAOH 281000Z AUTO 20012KT 10SM CLR 04/00 A2985 1050 73 100 210/12 RMK AO2 T00440000
04850KAOH AOH20160228050510802/28/16 05:05:31  5-MIN KAOH 281005Z AUTO 20012KT 10SM CLR 04/00 A2985 1050 73 100 210/12 RMK AO2 T00440000
04850KAOH AOH20160228051010802/28/16 05:10:31  5-MIN KAOH 281010Z AUTO 20012KT 10SM CLR 04/00 A2985 1050 73 100 210/12 RMK AO2 T00440000
04850KAOH AOH20160228051510802/28/16 05:15:31  5-MIN KAOH 281015Z AUTO 20011KT 10SM CLR 04/00 A2985 1050 73 100 210/11 RMK AO2 T00440000
04850KAOH AOH20160228052010802/28/16 05:20:31  5-MIN KAOH 281020Z AUTO 20011KT 10SM CLR 04/00 A2985 1050 73 100 200/11 RMK AO2 T00440000
04850KAOH AOH20160228052510802/28/16 05:25:31  5-MIN KAOH 281025Z AUTO 20012KT 10SM CLR 04/00 A2985 1050 73 100 210/12 RMK AO2 T00440000
04850KAOH AOH20160228053011402/28/16 05:30:31  5-MIN KAOH 281030Z AUTO 19011G19KT 10SM CLR 04/00 A2984 1050 73 100 200/11G19 RMK AO2 T00440000
04850KAOH AOH20160228053511402/28/16 05:35:31  5-MIN KAOH 281035Z AUTO 19011G19KT 10SM CLR 04/00 A2984 1050 73 100 200/11G19 RMK AO2 T00440000
04850KAOH AOH20160228054010802/28/16 05:40:31  5-MIN KAOH 281040Z AUTO 19010KT 10SM CLR 04/00 A2984 1060 73 100 200/10 RMK AO2 T00440000
04850KAOH AOH20160228054510802/28/16 05:45:31  5-MIN KAOH 281045Z AUTO 20011KT 10SM CLR 04/00 A2984 1050 73 100 200/11 RMK AO2 T00440000
04850KAOH AOH20160228055011502/28/16 05:50:31  5-MIN KAOH 281050Z AUTO 19011KT 10SM CLR 04/00 A2984 1050 73 100 200/11 RMK AO2 SLP108 T00440000
04850KAOH AOH20160228055510802/28/16 05:55:31  5-MIN KAOH 281055Z AUTO 19011KT 10SM CLR 04/00 A2984 1050 73 100 200/11 RMK AO2 T00440000
04850KAOH AOH20160228060010802/28/16 06:00:31  5-MIN KAOH 281100Z AUTO 20010KT 10SM CLR 04/00 A2984 1060 73 100 200/10 RMK AO2 T00440000
04850KAOH AOH20160228060510802/28/16 06:05:31  5-MIN KAOH 281105Z AUTO 20012KT 10SM CLR 04/00 A2984 1050 73 100 200/12 RMK AO2 T00440000
04850KAOH AOH20160228061010802/28/16 06:10:31  5-MIN KAOH 281110Z AUTO 19012KT 10SM CLR 04/01 A2984 1060 76 100 200/12 RMK AO2 T00440006
04850KAOH AOH20160228061510802/28/16 06:15:31  5-MIN KAOH 281115Z AUTO 19013KT 10SM CLR 05/01 A2983 1060 73 100 200/13 RMK AO2 T00500006
04850KAOH AOH20160228062010802/28/16 06:20:31  5-MIN KAOH 281120Z AUTO 20013KT 10SM CLR 04/01 A2983 1060 76 100 200/13 RMK AO2 T00440006
04850KAOH AOH20160228062510802/28/16 06:25:31  5-MIN KAOH 281125Z AUTO 20012KT 10SM CLR 04/01 A2983 1060 76 100 200/12 RMK AO2 T00440006
04850KAOH AOH20160228063010802/28/16 06:30:31  5-MIN KAOH 281130Z AUTO 20012KT 10SM CLR 04/01 A2983 1060 76 100 200/12 RMK AO2 T00440006
04850KAOH AOH20160228063510802/28/16 06:35:31  5-MIN KAOH 281135Z AUTO 20014KT 10SM CLR 05/01 A2983 1070 73 200 210/14 RMK AO2 T00500006
04850KAOH AOH20160228064010802/28/16 06:40:31  5-MIN KAOH 281140Z AUTO 20013KT 10SM CLR 05/01 A2982 1070 73 200 200/13 RMK AO2 T00500006
04850KAOH AOH20160228064511402/28/16 06:45:31  5-MIN KAOH 281145Z AUTO 20014G22KT 10SM CLR 05/01 A2982 1070 73 200 200/14G22 RMK AO2 T00500006
04850KAOH AOH20160228065013902/28/16 06:50:31  5-MIN KAOH 281150Z AUTO 20014G22KT 10SM CLR 05/01 A2982 1070 73 200 210/14G22 RMK AO2 SLP104 T00500006 10056 20044 56017
04850KAOH AOH20160228065510802/28/16 06:55:31  5-MIN KAOH 281155Z AUTO 20015KT 10SM CLR 05/01 A2983 1070 73 200 210/15 RMK AO2 T00500006
04850KAOH AOH20160228070011402/28/16 07:00:31  5-MIN KAOH 281200Z AUTO 20015G21KT 10SM CLR 05/01 A2983 1070 73 200 210/15G21 RMK AO2 T00500006
04850KAOH AOH20160228070511402/28/16 07:05:31  5-MIN KAOH 281205Z AUTO 20014G21KT 10SM CLR 05/01 A2983 1070 73 200 210/14G21 RMK AO2 T00500006
04850KAOH AOH20160228071011402/28/16 07:10:31  5-MIN KAOH 281210Z AUTO 21015G21KT 10SM CLR 05/01 A2983 1070 73 200 210/15G21 RMK AO2 T00500006
04850KAOH AOH20160228071511402/28/16 07:15:31  5-MIN KAOH 281215Z AUTO 20013G20KT 10SM CLR 05/01 A2982 1070 73 200 210/13G20 RMK AO2 T00500006
04850KAOH AOH20160228072011402/28/16 07:20:31  5-MIN KAOH 281220Z AUTO 20015G22KT 10SM CLR 05/01 A2982 1070 73 200 210/15G22 RMK AO2 T00500006
04850KAOH AOH20160228072510802/28/16 07:25:31  5-MIN KAOH 281225Z AUTO 20015KT 10SM CLR 05/01 A2982 1070 73 200 210/15 RMK AO2 T00500006
04850KAOH AOH20160228073010802/28/16 07:30:31  5-MIN KAOH 281230Z AUTO 20014KT 10SM CLR 05/01 A2982 1070 73 200 210/14 RMK AO2 T00500006
04850KAOH AOH20160228073510802/28/16 07:35:31  5-MIN KAOH 281235Z AUTO 20016KT 10SM CLR 05/01 A2982 1070 73 200 210/16 RMK AO2 T00500006
04850KAOH AOH20160228074010802/28/16 07:40:31  5-MIN KAOH 281240Z AUTO 20015KT 10SM CLR 05/01 A2982 1070 76 200 210/15 RMK AO2 T00500011
04850KAOH AOH20160228074510802/28/16 07:45:31  5-MIN KAOH 281245Z AUTO 20016KT 10SM CLR 05/01 A2982 1070 76 200 210/16 RMK AO2 T00500011
04850KAOH AOH20160228075012102/28/16 07:50:31  5-MIN KAOH 281250Z AUTO 20014G22KT 10SM CLR 06/01 A2982 1070 73 200 210/14G22 RMK AO2 SLP102 T00560011
04850KAOH AOH20160228075511402/28/16 07:55:31  5-MIN KAOH 281255Z AUTO 20016G22KT 10SM CLR 06/01 A2982 1070 73 200 210/16G22 RMK AO2 T00560011
04850KAOH AOH20160228080011402/28/16 08:00:31  5-MIN KAOH 281300Z AUTO 21015G24KT 10SM CLR 06/01 A2982 1070 73 200 210/15G24 RMK AO2 T00560011
04850KAOH AOH20160228080511402/28/16 08:05:31  5-MIN KAOH 281305Z AUTO 20013G24KT 10SM CLR 06/01 A2982 1070 73 200 210/13G24 RMK AO2 T00560011
04850KAOH AOH20160228081011402/28/16 08:10:31  5-MIN KAOH 281310Z AUTO 20014G21KT 10SM CLR 06/01 A2982 1070 73 200 210/14G21 RMK AO2 T00560011
04850KAOH AOH20160228081511402/28/16 08:15:31  5-MIN KAOH 281315Z AUTO 20016G24KT 10SM CLR 06/01 A2982 1070 70 300 210/16G24 RMK AO2 T00610011
04850KAOH AOH20160228082011402/28/16 08:20:31  5-MIN KAOH 281320Z AUTO 21014G24KT 10SM CLR 06/01 A2982 1070 70 300 210/14G24 RMK AO2 T00610011
04850KAOH AOH20160228082511402/28/16 08:25:31  5-MIN KAOH 281325Z AUTO 21016G23KT 10SM CLR 06/01 A2982 1070 70 300 220/16G23 RMK AO2 T00610011
04850KAOH AOH20160228083011402/28/16 08:30:31  5-MIN KAOH 281330Z AUTO 21016G23KT 10SM CLR 06/01 A2982 1070 70 300 210/16G23 RMK AO2 T00610011
04850KAOH AOH20160228083510802/28/16 08:35:31  5-MIN KAOH 281335Z AUTO 21015KT 10SM CLR 07/02 A2982 1070 70 400 210/15 RMK AO2 T00670017
04850KAOH AOH20160228084011402/28/16 08:40:31  5-MIN KAOH 281340Z AUTO 20015G21KT 10SM CLR 07/02 A2981 1080 70 400 210/15G21 RMK AO2 T00670017
04850KAOH AOH20160228084511402/28/16 08:45:31  5-MIN KAOH 281345Z AUTO 21015G23KT 10SM CLR 07/02 A2982 1070 70 400 210/15G23 RMK AO2 T00670017
04850KAOH AOH20160228085012102/28/16 08:50:31  5-MIN KAOH 281350Z AUTO 21017G23KT 10SM CLR 07/02 A2981 1080 68 400 220/17G23 RMK AO2 SLP100 T00720017
04850KAOH AOH20160228085511402/28/16 08:55:31  5-MIN KAOH 281355Z AUTO 21016G23KT 10SM CLR 07/02 A2981 1080 68 400 210/16G23 RMK AO2 T00720017
04850KAOH AOH20160228090011402/28/16 09:00:31  5-MIN KAOH 281400Z AUTO 21014G23KT 10SM CLR 07/02 A2981 1080 68 400 210/14G23 RMK AO2 T00720017
04850KAOH AOH20160228090511402/28/16 09:05:31  5-MIN KAOH 281405Z AUTO 21016G23KT 10SM CLR 07/02 A2981 1080 68 400 220/16G23 RMK AO2 T00720017
04850KAOH AOH20160228091011402/28/16 09:10:31  5-MIN KAOH 281410Z AUTO 21014G23KT 10SM CLR 08/02 A2981 1080 68 500 220/14G23 RMK AO2 T00780022
04850KAOH AOH20160228091513202/28/16 09:15:31  5-MIN KAOH 281415Z AUTO 21016G26KT 10SM CLR 08/02 A2981 1080 68 500 210/16G26 RMK AO2 PK WND 22026/1412 T00780022
04850KAOH AOH20160228092013202/28/16 09:20:31  5-MIN KAOH 281420Z AUTO 21015G26KT 10SM CLR 08/02 A2981 1080 68 500 220/15G26 RMK AO2 PK WND 22026/1412 T00780022
04850KAOH AOH20160228092513202/28/16 09:25:31  5-MIN KAOH 281425Z AUTO 21016G25KT 10SM CLR 08/02 A2981 1080 65 600 220/16G25 RMK AO2 PK WND 22026/1412 T00830022
04850KAOH AOH20160228093013202/28/16 09:30:31  5-MIN KAOH 281430Z AUTO 20016G25KT 10SM CLR 08/03 A2980 1090 68 600 210/16G25 RMK AO2 PK WND 22026/1412 T00830028
04850KAOH AOH20160228093513202/28/16 09:35:31  5-MIN KAOH 281435Z AUTO 21016G24KT 10SM CLR 09/03 A2980 1090 65 700 220/16G24 RMK AO2 PK WND 22026/1412 T00890028
04850KAOH AOH20160228094013202/28/16 09:40:31  5-MIN KAOH 281440Z AUTO 21016G26KT 10SM CLR 09/03 A2980 1090 65 700 220/16G26 RMK AO2 PK WND 21026/1439 T00890028
04850KAOH AOH20160228094513202/28/16 09:45:31  5-MIN KAOH 281445Z AUTO 21017G26KT 10SM CLR 09/03 A2980 1090 65 700 220/17G26 RMK AO2 PK WND 21026/1439 T00890028
04850KAOH AOH20160228095014502/28/16 09:50:31  5-MIN KAOH 281450Z AUTO 21017G24KT 10SM CLR 09/03 A2980 1090 63 700 220/17G24 RMK AO2 PK WND 21026/1439 SLP093 T00940028 58010
04850KAOH AOH20160228095511402/28/16 09:55:31  5-MIN KAOH 281455Z AUTO 20016G24KT 10SM CLR 09/03 A2980 1090 63 700 210/16G24 RMK AO2 T00940028
04850KAOH AOH20160228210013602/28/16 21:00:31  5-MIN KAOH 290200Z AUTO 21020G28KT 10SM OVC060 14/03 A2955 1330 45 1600 220/20G28 RMK AO2 PK WND 19028/0154 T01440028
04850KAOH AOH20160228210513602/28/16 21:05:31  5-MIN KAOH 290205Z AUTO 21017G25KT 10SM OVC055 14/03 A2954 1330 45 1600 220/17G25 RMK AO2 PK WND 19028/0154 T01440028
04850KAOH AOH20160228211013602/28/16 21:10:31  5-MIN KAOH 290210Z AUTO 21017G25KT 10SM OVC055 14/03 A2955 1330 45 1600 210/17G25 RMK AO2 PK WND 19028/0154 T01440028
04850KAOH AOH20160228211513602/28/16 21:15:31  5-MIN KAOH 290215Z AUTO 21020G27KT 10SM OVC055 14/03 A2954 1330 45 1600 210/20G27 RMK AO2 PK WND 19028/0154 T01440028
04850KAOH AOH20160228212013602/28/16 21:20:31  5-MIN KAOH 290220Z AUTO 22019G27KT 10SM OVC050 14/03 A2954 1330 47 1600 220/19G27 RMK AO2 PK WND 19028/0154 T01440033
04850KAOH AOH20160228212515202/28/16 21:25:31  5-MIN KAOH 290225Z AUTO 21020G27KT 10SM -RA OVC050 14/04 A2954 1330 50 1500 220/20G27 RMK AO2 PK WND 19028/0154 RAB23 P0000 T01390039
04850KAOH AOH20160228213015202/28/16 21:30:31  5-MIN KAOH 290230Z AUTO 21016G27KT 10SM -RA OVC050 14/03 A2954 1330 47 1600 220/16G27 RMK AO2 PK WND 19028/0154 RAB23 P0000 T01440033
04850KAOH AOH20160228213515102/28/16 21:35:31  5-MIN KAOH 290235Z AUTO 22019G27KT 10SM OVC050 14/03 A2954 1330 48 1500 220/19G27 RMK AO2 PK WND 19028/0154 RAB23E32 P0000 T01390033
04850KAOH AOH20160228214015102/28/16 21:40:31  5-MIN KAOH 290240Z AUTO 22020G26KT 10SM OVC050 14/03 A2955 1330 48 1500 220/20G26 RMK AO2 PK WND 19028/0154 RAB23E32 P0000 T01390033
04850KAOH AOH20160228214515102/28/16 21:45:31  5-MIN KAOH 290245Z AUTO 22018G26KT 10SM OVC050 14/04 A2955 1330 50 1500 230/18G26 RMK AO2 PK WND 19028/0154 RAB23E32 P0000 T01390039
04850KAOH AOH20160228215017702/28/16 21:50:31  5-MIN KAOH 290250Z AUTO 22016G27KT 10SM -RA OVC050 14/04 A2954 1330 50 1500 230/16G27 RMK AO2 PK WND 19028/0154 RAB23E32B50 SLP004 P0000 60000 T01390039 55008
04850KAOH AOH20160228215512802/28/16 21:55:31  5-MIN KAOH 290255Z AUTO 22016G28KT 10SM -RA OVC050 14/04 A2955 1330 50 1500 220/16G28 RMK AO2 P0000 T01390039
04850KAOH AOH20160228220013002/28/16 22:00:31  5-MIN KAOH 290300Z AUTO 22017G28KT 10SM OVC050 14/04 A2954 1330 50 1500 230/17G28 RMK AO2 RAE00 P0000 T01390039
04850KAOH AOH20160228220512802/28/16 22:05:31  5-MIN KAOH 290305Z AUTO 22016G24KT 10SM -RA OVC050 14/04 A2954 1330 52 1600 230/16G24 RMK AO2 P0000 T01390044
04850KAOH AOH20160228221014602/28/16 22:10:31  5-MIN KAOH 290310Z AUTO 23018G28KT 10SM -RA OVC050 14/04 A2954 1340 52 1600 230/18G28 RMK AO2 PK WND 23028/0310 P0000 T01390044
04850KAOH AOH20160228221514802/28/16 22:15:31  5-MIN KAOH 290315Z AUTO 22025G31KT 10SM OVC048 14/04 A2953 1340 51 1600 230/25G31 RMK AO2 PK WND 22031/0314 RAE14 P0000 T01440044
04850KAOH AOH20160228222014802/28/16 22:20:31  5-MIN KAOH 290320Z AUTO 22024G31KT 10SM OVC048 14/04 A2953 1340 51 1600 230/24G31 RMK AO2 PK WND 21031/0320 RAE14 P0000 T01440044
04850KAOH AOH20160228222514802/28/16 22:25:31  5-MIN KAOH 290325Z AUTO 22025G37KT 10SM OVC050 14/04 A2953 1340 51 1600 220/25G37 RMK AO2 PK WND 22037/0325 RAE14 P0000 T01440044
04850KAOH AOH20160228223015502/28/16 22:30:31  5-MIN KAOH 290330Z AUTO 22022G37KT 10SM BKN050 OVC060 14/05 A2952 1350 53 1600 220/22G37 RMK AO2 PK WND 22037/0325 RAE14 P0000 T01440050
04850KAOH AOH20160228223515502/28/16 22:35:31  5-MIN KAOH 290335Z AUTO 22022G36KT 10SM BKN050 OVC060 14/05 A2952 1350 53 1600 230/22G36 RMK AO2 PK WND 22037/0325 RAE14 P0000 T01440050
04850KAOH AOH20160228224015502/28/16 22:40:31  5-MIN KAOH 290340Z AUTO 22024G36KT 10SM BKN050 OVC060 14/05 A2952 1350 53 1600 220/24G36 RMK AO2 PK WND 22037/0325 RAE14 P0000 T01440050
04850KAOH AOH20160228224515502/28/16 22:45:31  5-MIN KAOH 290345Z AUTO 23025G35KT 10SM BKN050 OVC060 14/05 A2952 1350 53 1600 230/25G35 RMK AO2 PK WND 22037/0325 RAE14 P0000 T01440050
04850KAOH AOH20160228225015502/28/16 22:50:31  5-MIN KAOH 290350Z AUTO 22023G35KT 10SM OVC055 14/06 A2952 1350 55 1600 220/23G35 RMK AO2 PK WND 22037/0325 RAE14 SLP995 P0000 T01440056
04850KAOH AOH20160228225513602/28/16 22:55:31  5-MIN KAOH 290355Z AUTO 22021G31KT 10SM OVC055 14/06 A2952 1350 57 1600 230/21G31 RMK AO2 PK WND 22026/0355 T01390056
04850KAOH AOH20160228230013602/28/16 23:00:31  5-MIN KAOH 290400Z AUTO 22021G31KT 10SM OVC050 14/06 A2952 1350 57 1600 230/21G31 RMK AO2 PK WND 22031/0357 T01390056
04850KAOH AOH20160228230514302/28/16 23:05:31  5-MIN KAOH 290405Z AUTO 22022G31KT 10SM FEW045 OVC055 14/06 A2952 1350 57 1600 230/22G31 RMK AO2 PK WND 22031/0401 T01390056
04850KAOH AOH20160228231014302/28/16 23:10:31  5-MIN KAOH 290410Z AUTO 22022G31KT 10SM FEW042 OVC060 14/06 A2951 1360 57 1600 220/22G31 RMK AO2 PK WND 22031/0401 T01390056
04850KAOH AOH20160228231514302/28/16 23:15:31  5-MIN KAOH 290415Z AUTO 22022G30KT 10SM FEW042 OVC055 14/06 A2951 1360 57 1600 230/22G30 RMK AO2 PK WND 22031/0401 T01390056
04850KAOH AOH20160228232014302/28/16 23:20:31  5-MIN KAOH 290420Z AUTO 22021G31KT 10SM SCT046 OVC055 14/06 A2951 1360 59 1600 230/21G31 RMK AO2 PK WND 22031/0401 T01390061
04850KAOH AOH20160228232515002/28/16 23:25:31  5-MIN KAOH 290425Z AUTO 22018G31KT 10SM BKN049 BKN060 OVC070 14/06 A2951 1360 59 1600 230/18G31 RMK AO2 PK WND 22031/0401 T01390061
04850KAOH AOH20160228233015002/28/16 23:30:31  5-MIN KAOH 290430Z AUTO 22020G29KT 10SM SCT045 BKN055 OVC090 14/06 A2952 1350 59 1600 230/20G29 RMK AO2 PK WND 22031/0401 T01390061
04850KAOH AOH20160228233514302/28/16 23:35:31  5-MIN KAOH 290435Z AUTO 22021G29KT 10SM BKN043 OVC055 13/06 A2952 1350 61 1500 230/21G29 RMK AO2 PK WND 22031/0401 T01330061
04850KAOH AOH20160228234015002/28/16 23:40:31  5-MIN KAOH 290440Z AUTO 22018G29KT 10SM BKN039 BKN047 OVC055 13/07 A2952 1350 64 1500 230/18G29 RMK AO2 PK WND 22031/0401 T01330067
04850KAOH AOH20160228234515002/28/16 23:45:31  5-MIN KAOH 290445Z AUTO 23022G32KT 10SM BKN039 BKN047 OVC055 13/07 A2952 1350 64 1500 230/22G32 RMK AO2 PK WND 21032/0443 T01330067
04850KAOH AOH20160228235017502/28/16 23:50:31  5-MIN KAOH 290450Z AUTO 23026G34KT 7SM -RA BKN037 OVC048 13/07 A2953 1340 69 1400 240/26G34 RMK AO2 PK WND 20034/0447 RAB49 SLP998 P0001 T01280072 401780044
04850KAOH AOH20160228235515902/28/16 23:55:31  5-MIN KAOH 290455Z AUTO 24023G34KT 5SM -RA BKN037 BKN046 OVC055 12/08 A2954 1330 74 1400 240/23G34 RMK AO2 PK WND 23029/0455 P0000 T01220078
04850KAOH AOH20160229000013302/29/16 00:00:31  5-MIN KAOH 290500Z AUTO 24020G34KT 6SM RA BKN037 OVC050 12/08 A2954 1330 80 1300 250/20G34 RMK AO2 P0002 T01170083
04850KAOH AOH20160229000515902/29/16 00:05:31  5-MIN KAOH 290505Z AUTO 25019G30KT 7SM -RA SCT037 BKN047 OVC055 11/09 A2954 1330 86 1200 250/19G30 RMK AO2 PK WND 25029/0502 P0003 T01110089
04850KAOH AOH20160229001015902/29/16 00:10:31  5-MIN KAOH 290510Z AUTO 25018G29KT 9SM -RA FEW023 SCT037 OVC055 11/09 A2954 1330 86 1200 260/18G29 RMK AO2 PK WND 25029/0502 P0003 T01110089
04850KAOH AOH20160229001515402/29/16 00:15:31  5-MIN KAOH 290515Z AUTO 25018KT 10SM -RA FEW021 SCT035 OVC055 11/09 A2955 1330 86 1200 260/18 RMK AO2 PK WND 25029/0502 P0004 T01110089
04850KAOH AOH20160229002016002/29/16 00:20:31  5-MIN KAOH 290520Z AUTO 24022G28KT 10SM -RA FEW015 SCT020 OVC055 11/09 A2955 1330 86 1200 250/22G28 RMK AO2 PK WND 25029/0502 P0004 T01110089
04850KAOH AOH20160229002515902/29/16 00:25:31  5-MIN KAOH 290525Z AUTO 25023G29KT 9SM -RA SCT015 SCT022 OVC055 11/09 A2955 1320 86 1200 250/23G29 RMK AO2 PK WND 25029/0502 P0005 T01110089
04850KAOH AOH20160229003015902/29/16 00:30:31  5-MIN KAOH 290530Z AUTO 25021G29KT 9SM -RA SCT015 BKN024 OVC055 11/09 A2955 1320 89 1100 250/21G29 RMK AO2 PK WND 25029/0502 P0006 T01060089
04850KAOH AOH20160229003515402/29/16 00:35:31  5-MIN KAOH 290535Z AUTO 25020KT 10SM -RA SCT013 BKN018 OVC055 11/09 A2955 1320 89 1100 260/20 RMK AO2 PK WND 25029/0502 P0006 T01060089
04850KAOH AOH20160229004016002/29/16 00:40:31  5-MIN KAOH 290540Z AUTO 26023G28KT 10SM -RA BKN015 BKN028 OVC055 11/09 A2956 1320 89 1100 260/23G28 RMK AO2 PK WND 25029/0502 P0006 T01060089
04850KAOH AOH20160229004516002/29/16 00:45:31  5-MIN KAOH 290545Z AUTO 26023G29KT 10SM -RA BKN013 BKN019 OVC055 11/09 A2956 1310 89 1100 260/23G29 RMK AO2 PK WND 25029/0502 P0006 T01060089
04850KAOH AOH20160229005014302/29/16 00:50:31  5-MIN KAOH 290550Z AUTO 26021G29KT 10SM -RA BKN013 OVC019 11/09 A2956 1310 89 1100 270/21G29 RMK AO2 PK WND 25029/0502 P0006
04850KAOH AOH20160229005514602/29/16 00:55:31  5-MIN KAOH 290555Z AUTO 26024G29KT 10SM -RA OVC014 10/08 A2957 1310 89 1100 270/24G29 RMK AO2 PK WND 27028/0554 P0000 T01000083
04850KAOH AOH20160229010014602/29/16 01:00:31  5-MIN KAOH 290600Z AUTO 27021G29KT 10SM -RA OVC014 10/08 A2957 1300 89 1100 270/21G29 RMK AO2 PK WND 27028/0554 P0000 T01000083
04850KAOH AOH20160229010515502/29/16 01:05:31  5-MIN KAOH 290605Z AUTO 29025G36KT 10SM OVC016 10/07 A2958 1290 83 1000 300/25G36 RMK AO2 PK WND 26036/0601 RAE05 PRESRR P0000 T01000072
04850KAOH AOH20160229011016102/29/16 01:10:31  5-MIN KAOH 290610Z AUTO 31024G36KT 10SM BKN016 OVC029 08/06 A2959 1280 82 800 310/24G36 RMK AO2 PK WND 26036/0601 RAE05 PRESRR P0000 T00830056
04850KAOH AOH20160229011515402/29/16 01:15:31  5-MIN KAOH 290615Z AUTO 31022G31KT 10SM BKN016 OVC029 08/04 A2960 1280 79 800 310/22G31 RMK AO2 PK WND 26036/0601 RAE05 P0000 T00780044
04850KAOH AOH20160229012016802/29/16 01:20:31  5-MIN KAOH 290620Z AUTO 30018G29KT 10SM -RA BKN018 OVC029 07/04 A2960 1270 82 700 310/18G29 RMK AO2 PK WND 26036/0601 RAE05B19 PRESRR P0000 T00720044
04850KAOH AOH20160229012516202/29/16 01:25:31  5-MIN KAOH 290625Z AUTO 30021KT 10SM -RA SCT018 OVC029 07/04 A2961 1270 82 700 310/21 RMK AO2 PK WND 26036/0601 RAE05B19 PRESRR P0000 T00720044
04850KAOH AOH20160229013016702/29/16 01:30:31  5-MIN KAOH 290630Z AUTO 29013G26KT 9SM -RA SCT017 OVC029 07/04 A2962 1260 86 600 300/13G26 RMK AO2 PK WND 26036/0601 RAE05B19 PRESRR P0000 T00670044
04850KAOH AOH20160229013516002/29/16 01:35:31  5-MIN KAOH 290635Z AUTO 29021G29KT 9SM -RA SCT017 OVC030 07/04 A2962 1260 86 600 300/21G29 RMK AO2 PK WND 26036/0601 RAE05B19 P0001 T00670044
04850KAOH AOH20160229014017402/29/16 01:40:31  5-MIN KAOH 290640Z AUTO 30023G33KT 9SM -RA FEW015 FEW020 OVC030 06/03 A2963 1250 82 500 300/23G33 RMK AO2 PK WND 26036/0601 RAE05B19 PRESRR P0001 T00610033
04850KAOH AOH20160229014516802/29/16 01:45:31  5-MIN KAOH 290645Z AUTO 30019G33KT 10SM -RA FEW015 OVC030 06/03 A2963 1240 82 500 300/19G33 RMK AO2 PK WND 26036/0601 RAE05B19 PRESRR P0001 T00610033
04850KAOH AOH20160229015018202/29/16 01:50:31  5-MIN KAOH 290650Z AUTO 29022G28KT 10SM -RA SCT017 BKN030 OVC035 06/03 A2964 1230 82 400 300/22G28 RMK AO2 PK WND 26036/0601 RAE05B19 PRESRR SLP039 P0001 T00560028
04850KAOH AOH20160229015514102/29/16 01:55:31  5-MIN KAOH 290655Z AUTO 29017G28KT 10SM -RA SCT017 BKN030 OVC037 06/03 A2965 1230 82 400 300/17G28 RMK AO2 P0000 T00560028
04850KAOH AOH20160229020013502/29/16 02:00:31  5-MIN KAOH 290700Z AUTO 29017KT 10SM -RA SCT017 BKN030 OVC037 06/03 A2965 1230 82 400 300/17 RMK AO2 P0000 T00560028
04850KAOH AOH20160229020513402/29/16 02:05:31  5-MIN KAOH 290705Z AUTO 30018G25KT 10SM -RA SCT017 OVC034 05/03 A2965 1230 85 400 300/18G25 RMK AO2 P0000 T00500028
04850KAOH AOH20160229021015402/29/16 02:10:31  5-MIN KAOH 290710Z AUTO 29024G31KT 10SM SCT017 OVC036 05/03 A2966 1220 85 300 300/24G31 RMK AO2 PK WND 30031/0710 RAE08 P0000 T00500028
04850KAOH AOH20160229021515402/29/16 02:15:31  5-MIN KAOH 290715Z AUTO 29019G31KT 10SM SCT017 OVC038 05/02 A2966 1220 82 300 300/19G31 RMK AO2 PK WND 30031/0710 RAE08 P0000 T00500022
04850KAOH AOH20160229022015402/29/16 02:20:31  5-MIN KAOH 290720Z AUTO 30019G29KT 10SM BKN017 OVC038 05/02 A2966 1220 82 300 310/19G29 RMK AO2 PK WND 30031/0710 RAE08 P0000 T00500022
04850KAOH AOH20160229022516102/29/16 02:25:31  5-MIN KAOH 290725Z AUTO 29018G26KT 10SM BKN017 BKN024 OVC038 05/02 A2966 1220 79 300 300/18G26 RMK AO2 PK WND 30031/0710 RAE08 P0000 T00500017
04850KAOH AOH20160229023016102/29/16 02:30:31  5-MIN KAOH 290730Z AUTO 29020G27KT 10SM SCT017 BKN024 OVC038 04/02 A2967 1210 82 300 300/20G27 RMK AO2 PK WND 30031/0710 RAE08 P0000 T00440017
04850KAOH AOH20160229023516102/29/16 02:35:31  5-MIN KAOH 290735Z AUTO 30024G29KT 10SM BKN017 OVC040 04/02 A2968 1200 82 300 310/24G29 RMK AO2 PK WND 30031/0710 RAE08 PRESRR P0000 T00440017
04850KAOH AOH20160229024016102/29/16 02:40:31  5-MIN KAOH 290740Z AUTO 30023G29KT 10SM BKN017 OVC040 04/01 A2969 1190 82 200 300/23G29 RMK AO2 PK WND 30031/0710 RAE08 PRESRR P0000 T00390011
04850KAOH AOH20160229024516102/29/16 02:45:31  5-MIN KAOH 290745Z AUTO 30018G30KT 10SM BKN017 BKN022 OVC039 04/01 A2969 1190 79 200 310/18G30 RMK AO2 PK WND 30031/0710 RAE08 P0000 T00390006
04850KAOH AOH20160229025016802/29/16 02:50:31  5-MIN KAOH 290750Z AUTO 31018G30KT 10SM BKN017 BKN022 OVC039 03/01 A2970 1180 82 100 310/18G30 RMK AO2 PK WND 30031/0710 RAE08 SLP057 P0000 T00330006
04850KAOH AOH20160229025512402/29/16 02:55:31  5-MIN KAOH 290755Z AUTO 30017G27KT 10SM BKN016 OVC039 03/01 A2970 1180 82 100 310/17G27 RMK AO2 T00330006
04850KAOH AOH20160229030011802/29/16 03:00:31  5-MIN KAOH 290800Z AUTO 30017KT 10SM BKN016 OVC039 03/01 A2970 1180 82 100 310/17 RMK AO2 T00330006
04850KAOH AOH20160229030512402/29/16 03:05:31  5-MIN KAOH 290805Z AUTO 30015G22KT 10SM BKN016 OVC021 03/01 A2971 1180 82 100 310/15G22 RMK AO2 T00330006
04850KAOH AOH20160229031011702/29/16 03:10:31  5-MIN KAOH 290810Z AUTO 30016G23KT 10SM OVC015 03/01 A2971 1170 82 100 310/16G23 RMK AO2 T00330006
04850KAOH AOH20160229031511702/29/16 03:15:31  5-MIN KAOH 290815Z AUTO 30019G25KT 10SM OVC015 03/01 A2972 1170 82 100 300/19G25 RMK AO2 T00330006
04850KAOH AOH20160229032013302/29/16 03:20:31  5-MIN KAOH 290820Z AUTO 29020G28KT 10SM OVC015 03/01 A2972 1160 85 0 300/20G28 RMK AO2 PK WND 30028/0820 T00280006
04850KAOH AOH20160229032513302/29/16 03:25:31  5-MIN KAOH 290825Z AUTO 31022G28KT 10SM OVC015 03/01 A2972 1160 85 0 320/22G28 RMK AO2 PK WND 30028/0820 T00280006
04850KAOH AOH20160229033014002/29/16 03:30:31  5-MIN KAOH 290830Z AUTO 30023G28KT 10SM OVC015 03/00 A2973 1150 82 0 310/23G28 RMK AO2 PK WND 31028/0830 PRESRR T00280000
04850KAOH AOH20160229033514002/29/16 03:35:31  5-MIN KAOH 290835Z AUTO 31022G31KT 10SM OVC015 03/00 A2974 1150 82 0 310/22G31 RMK AO2 PK WND 31031/0833 PRESRR T00280000
04850KAOH AOH20160229034013302/29/16 03:40:31  5-MIN KAOH 290840Z AUTO 30018G31KT 10SM OVC015 02/00 A2974 1140 85 0 310/18G31 RMK AO2 PK WND 31031/0833 T00220000
04850KAOH AOH20160229034514302/29/16 03:45:31  5-MIN KAOH 290845Z AUTO 31019G28KT 10SM OVC015 02/00 A2975 1130 85 -100 310/19G28 RMK AO2 PK WND 31031/0833 PRESRR T00220000
04850KAOH AOH20160229035015502/29/16 03:50:31  5-MIN KAOH 290850Z AUTO 30018G26KT 10SM OVC015 02/00 A2975 1130 85 -100 310/18G26 RMK AO2 PK WND 31031/0833 SLP076 60001 T00220000 53006
04850KAOH AOH20160229035511802/29/16 03:55:31  5-MIN KAOH 290855Z AUTO 29018G25KT 10SM OVC015 02/00 A2976 1130 85 -100 300/18G25 RMK AO2 T00220000
04850KAOH AOH20160229040013202/29/16 04:00:31  5-MIN KAOH 290900Z AUTO 30015G25KT 10SM BKN015 BKN020 OVC025 02/00 A2976 1130 85 -100 300/15G25 RMK AO2 T00220000
04850KAOH AOH20160229040512502/29/16 04:05:31  5-MIN KAOH 290905Z AUTO 29014G21KT 10SM BKN015 OVC025 02/00 A2976 1120 85 -100 300/14G21 RMK AO2 T00220000
04850KAOH AOH20160229041012502/29/16 04:10:31  5-MIN KAOH 290910Z AUTO 29014G21KT 10SM BKN015 OVC025 02/00 A2976 1120 85 -100 300/14G21 RMK AO2 T00220000
04850KAOH AOH20160229041512502/29/16 04:15:31  5-MIN KAOH 290915Z AUTO 29013G21KT 10SM SCT015 OVC027 02/00 A2977 1120 85 -100 300/13G21 RMK AO2 T00220000
04850KAOH AOH20160229042012502/29/16 04:20:31  5-MIN KAOH 290920Z AUTO 29012G22KT 10SM FEW015 OVC027 02/00 A2977 1120 85 -100 290/12G22 RMK AO2 T00220000
04850KAOH AOH20160229042512502/29/16 04:25:31  5-MIN KAOH 290925Z AUTO 29016G22KT 10SM FEW017 OVC027 02/00 A2977 1120 85 -100 300/16G22 RMK AO2 T00220000
04850KAOH AOH20160229043012502/29/16 04:30:31  5-MIN KAOH 290930Z AUTO 29016G21KT 10SM FEW017 OVC027 02/00 A2977 1110 85 -100 290/16G21 RMK AO2 T00220000
04850KAOH AOH20160229043511902/29/16 04:35:31  5-MIN KAOH 290935Z AUTO 28015KT 10SM FEW015 OVC027 02/00 A2977 1110 85 -100 290/15 RMK AO2 T00220000
04850KAOH AOH20160229044013202/29/16 04:40:31  5-MIN KAOH 290940Z AUTO 29017G23KT 10SM FEW014 FEW019 OVC028 02/00 A2978 1110 85 -100 290/17G23 RMK AO2 T00220000
04850KAOH AOH20160229044513202/29/16 04:45:31  5-MIN KAOH 290945Z AUTO 29014G23KT 10SM SCT014 SCT019 OVC028 02/01 A2978 1110 89 -100 290/14G23 RMK AO2 T00220006
04850KAOH AOH20160229045012602/29/16 04:50:31  5-MIN KAOH 290950Z AUTO 28012KT 10SM SCT016 OVC028 02/01 A2978 1110 89 -100 290/12 RMK AO2 SLP086 T00220006
04850KAOH AOH20160229045512202/29/16 04:55:31  5-MIN KAOH 290955Z AUTO 28017G23KT 10SM BKN016 OVC028 03/01 A2979 1100 85 0 290/17G23 RMK AO2 T00280006
04850KAOH AOH20160229050012902/29/16 05:00:31  5-MIN KAOH 291000Z AUTO 28017G25KT 10SM BKN016 BKN020 OVC028 03/01 A2979 1100 85 0 280/17G25 RMK AO2 T00280006
04850KAOH AOH20160229050512202/29/16 05:05:31  5-MIN KAOH 291005Z AUTO 29016G25KT 10SM BKN014 OVC028 03/01 A2980 1090 85 0 300/16G25 RMK AO2 T00280006
04850KAOH AOH20160229051012902/29/16 05:10:31  5-MIN KAOH 291010Z AUTO 29017G23KT 10SM BKN014 BKN018 OVC029 03/01 A2980 1090 85 0 290/17G23 RMK AO2 T00280006
04850KAOH AOH20160229051512202/29/16 05:15:31  5-MIN KAOH 291015Z AUTO 28016G24KT 10SM BKN013 OVC018 03/01 A2980 1080 85 0 290/16G24 RMK AO2 T00280006
04850KAOH AOH20160229052014302/29/16 05:20:31  5-MIN KAOH 291020Z AUTO 28015G26KT 10SM BKN013 OVC029 03/01 A2981 1080 85 -100 290/15G26 RMK AO2 PK WND 28026/1017 T00280006
04850KAOH AOH20160229052513602/29/16 05:25:31  5-MIN KAOH 291025Z AUTO 27014G26KT 10SM OVC013 03/01 A2981 1080 85 -100 280/14G26 RMK AO2 PK WND 28026/1017 T00280006
04850KAOH AOH20160229053014302/29/16 05:30:31  5-MIN KAOH 291030Z AUTO 27018G24KT 10SM BKN013 OVC028 03/01 A2982 1070 85 -100 280/18G24 RMK AO2 PK WND 28026/1017 T00280006
04850KAOH AOH20160229053514302/29/16 05:35:31  5-MIN KAOH 291035Z AUTO 27019G24KT 10SM BKN013 OVC028 03/01 A2982 1070 85 -100 280/19G24 RMK AO2 PK WND 28026/1017 T00280006
04850KAOH AOH20160229054014302/29/16 05:40:31  5-MIN KAOH 291040Z AUTO 28014G23KT 10SM BKN013 OVC028 03/01 A2982 1070 85 -100 290/14G23 RMK AO2 PK WND 28026/1017 T00280006
04850KAOH AOH20160229054514302/29/16 05:45:31  5-MIN KAOH 291045Z AUTO 28013G21KT 10SM BKN013 OVC028 03/00 A2982 1070 82 -100 280/13G21 RMK AO2 PK WND 28026/1017 T00280000
04850KAOH AOH20160229055015002/29/16 05:50:31  5-MIN KAOH 291050Z AUTO 28017G23KT 10SM BKN013 OVC028 03/00 A2983 1060 82 -100 280/17G23 RMK AO2 PK WND 28026/1017 SLP104 T00280000
04850KAOH AOH20160229055512502/29/16 05:55:31  5-MIN KAOH 291055Z AUTO 28015G23KT 10SM SCT015 OVC027 03/00 A2983 1060 82 -100 290/15G23 RMK AO2 T00280000
04850KAOH AOH20160229060012502/29/16 06:00:31  5-MIN KAOH 291100Z AUTO 27016G21KT 10SM SCT015 OVC027 03/00 A2983 1060 82 -100 280/16G21 RMK AO2 T00280000
04850KAOH AOH20160229060512502/29/16 06:05:31  5-MIN KAOH 291105Z AUTO 28014G21KT 10SM SCT017 OVC027 03/00 A2983 1060 82 -100 280/14G21 RMK AO2 T00280000
04850KAOH AOH20160229061012602/29/16 06:10:31  5-MIN KAOH 291110Z AUTO 28016G23KT 10SM FEW017 OVC025 02/M01 A2983 1060 82 -100 290/16G23 RMK AO2 T00221006
04850KAOH AOH20160229061512502/29/16 06:15:31  5-MIN KAOH 291115Z AUTO 28014G23KT 10SM FEW017 OVC025 02/00 A2984 1050 85 -200 280/14G23 RMK AO2 T00220000
04850KAOH AOH20160229062012502/29/16 06:20:31  5-MIN KAOH 291120Z AUTO 27016G21KT 10SM SCT017 OVC025 02/00 A2984 1050 85 -200 280/16G21 RMK AO2 T00220000
04850KAOH AOH20160229062511902/29/16 06:25:31  5-MIN KAOH 291125Z AUTO 27014KT 10SM BKN017 OVC025 02/00 A2985 1050 85 -200 280/14 RMK AO2 T00220000
04850KAOH AOH20160229063011902/29/16 06:30:31  5-MIN KAOH 291130Z AUTO 27016KT 10SM BKN017 OVC025 02/00 A2985 1040 85 -200 270/16 RMK AO2 T00220000
04850KAOH AOH20160229063511902/29/16 06:35:31  5-MIN KAOH 291135Z AUTO 27016KT 10SM BKN017 OVC025 02/00 A2986 1040 85 -200 280/16 RMK AO2 T00220000
04850KAOH AOH20160229064011902/29/16 06:40:31  5-MIN KAOH 291140Z AUTO 27016KT 10SM BKN017 OVC024 02/00 A2986 1030 85 -200 280/16 RMK AO2 T00220000
04850KAOH AOH20160229064512002/29/16 06:45:31  5-MIN KAOH 291145Z AUTO 27015KT 10SM BKN016 OVC024 02/M01 A2986 1030 82 -200 280/15 RMK AO2 T00221006
04850KAOH AOH20160229065015702/29/16 06:50:31  5-MIN KAOH 291150Z AUTO 27017KT 10SM BKN016 OVC024 02/M01 A2986 1040 82 -200 280/17 RMK AO2 SLP114 60001 70008 T00221006 10100 20022 51063
04850KAOH AOH20160229065512002/29/16 06:55:31  5-MIN KAOH 291155Z AUTO 27018KT 10SM BKN016 OVC022 02/M01 A2986 1040 82 -200 280/18 RMK AO2 T00221006
04850KAOH AOH20160229070013702/29/16 07:00:31  5-MIN KAOH 291200Z AUTO 27020G27KT 10SM OVC019 02/M01 A2986 1030 78 -200 280/20G27 RMK AO2 PK WND 27027/1158 T00221011
04850KAOH AOH20160229070514402/29/16 07:05:31  5-MIN KAOH 291205Z AUTO 29013G27KT 10SM BKN019 OVC023 02/M01 A2986 1030 78 -200 290/13G27 RMK AO2 PK WND 27027/1158 T00221011
04850KAOH AOH20160229071013702/29/16 07:10:31  5-MIN KAOH 291210Z AUTO 28020G23KT 10SM OVC021 02/M01 A2986 1030 78 -200 290/20G23 RMK AO2 PK WND 27027/1158 T00221011
04850KAOH AOH20160229071513702/29/16 07:15:31  5-MIN KAOH 291215Z AUTO 29017G23KT 10SM OVC021 02/M02 A2987 1030 75 -200 290/17G23 RMK AO2 PK WND 27027/1158 T00221017
04850KAOH AOH20160229072013702/29/16 07:20:31  5-MIN KAOH 291220Z AUTO 29015G24KT 10SM OVC023 02/M02 A2987 1030 75 -200 290/15G24 RMK AO2 PK WND 27027/1158 T00221017
04850KAOH AOH20160229072513702/29/16 07:25:31  5-MIN KAOH 291225Z AUTO 29016G24KT 10SM OVC023 02/M02 A2987 1020 75 -200 290/16G24 RMK AO2 PK WND 27027/1158 T00221017
04850KAOH AOH20160229073013702/29/16 07:30:31  5-MIN KAOH 291230Z AUTO 28017G24KT 10SM OVC023 02/M02 A2988 1010 75 -200 290/17G24 RMK AO2 PK WND 27027/1158 T00221017
04850KAOH AOH20160229073513702/29/16 07:35:31  5-MIN KAOH 291235Z AUTO 29020G24KT 10SM OVC023 02/M02 A2988 1010 75 -200 290/20G24 RMK AO2 PK WND 27027/1158 T00221017
04850KAOH AOH20160229074013702/29/16 07:40:31  5-MIN KAOH 291240Z AUTO 28016G24KT 10SM OVC024 02/M02 A2989 1010 75 -200 290/16G24 RMK AO2 PK WND 27027/1158 T00221017
04850KAOH AOH20160229074513702/29/16 07:45:31  5-MIN KAOH 291245Z AUTO 29014G24KT 10SM OVC024 02/M02 A2988 1010 78 -300 290/14G24 RMK AO2 PK WND 27027/1158 T00171017
04850KAOH AOH20160229075013802/29/16 07:50:31  5-MIN KAOH 291250Z AUTO 28014KT 10SM OVC024 02/M02 A2989 1000 78 -300 290/14 RMK AO2 PK WND 27027/1158 SLP125 T00171017
04850KAOH AOH20160229075511302/29/16 07:55:31  5-MIN KAOH 291255Z AUTO 27015KT 10SM OVC022 02/M01 A2989 1000 78 -200 280/15 RMK AO2 T00221011
04850KAOH AOH20160229080011302/29/16 08:00:31  5-MIN KAOH 291300Z AUTO 26013KT 10SM OVC022 02/M01 A2990 1000 82 -300 270/13 RMK AO2 T00171011
04850KAOH AOH20160229080511302/29/16 08:05:31  5-MIN KAOH 291305Z AUTO 27015KT 10SM OVC022 02/M01 A2990 1000 82 -300 270/15 RMK AO2 T00171011
04850KAOH AOH20160229081011302/29/16 08:10:31  5-MIN KAOH 291310Z AUTO 26014KT 10SM OVC022 02/M01 A2989 1000 82 -300 270/14 RMK AO2 T00171011
04850KAOH AOH20160229081511302/29/16 08:15:31  5-MIN KAOH 291315Z AUTO 26016KT 10SM OVC022 02/M02 A2989 1000 78 -300 260/16 RMK AO2 T00171017
04850KAOH AOH20160229082011902/29/16 08:20:31  5-MIN KAOH 291320Z AUTO 27016G24KT 10SM OVC022 02/M02 A2990 1000 78 -300 280/16G24 RMK AO2 T00171017
04850KAOH AOH20160229082511902/29/16 08:25:31  5-MIN KAOH 291325Z AUTO 28017G24KT 10SM OVC021 02/M02 A2990 1000 78 -300 290/17G24 RMK AO2 T00171017
04850KAOH AOH20160229083011802/29/16 08:30:31  5-MIN KAOH 291330Z AUTO 28018G24KT 10SM OVC023 02/M02 A2991 990 75 -300 290/18G24 RMK AO2 T00171022
04850KAOH AOH20160229083511802/29/16 08:35:31  5-MIN KAOH 291335Z AUTO 29017G24KT 10SM OVC023 02/M02 A2991 990 75 -300 290/17G24 RMK AO2 T00171022
04850KAOH AOH20160229084011802/29/16 08:40:31  5-MIN KAOH 291340Z AUTO 28017G24KT 10SM OVC023 02/M02 A2992 980 75 -300 290/17G24 RMK AO2 T00171022
04850KAOH AOH20160229084511802/29/16 08:45:31  5-MIN KAOH 291345Z AUTO 28017G24KT 10SM OVC023 02/M02 A2992 980 75 -300 290/17G24 RMK AO2 T00171022
04850KAOH AOH20160229085012502/29/16 08:50:31  5-MIN KAOH 291350Z AUTO 29015G22KT 10SM OVC025 02/M02 A2992 980 75 -300 290/15G22 RMK AO2 SLP136 T00171022
04850KAOH AOH20160229085511802/29/16 08:55:31  5-MIN KAOH 291355Z AUTO 29013G22KT 10SM OVC025 02/M02 A2992 980 72 -300 290/13G22 RMK AO2 T00221022
04850KAOH AOH20160229090011202/29/16 09:00:31  5-MIN KAOH 291400Z AUTO 29014KT 10SM OVC025 02/M02 A2992 980 72 -300 300/14 RMK AO2 T00221022
04850KAOH AOH20160229090511202/29/16 09:05:31  5-MIN KAOH 291405Z AUTO 28012KT 10SM OVC025 02/M02 A2992 970 72 -300 290/12 RMK AO2 T00221022
04850KAOH AOH20160229091011202/29/16 09:10:31  5-MIN KAOH 291410Z AUTO 28013KT 10SM OVC025 02/M02 A2992 980 75 -300 280/13 RMK AO2 T00221017
04850KAOH AOH20160229091511202/29/16 09:15:31  5-MIN KAOH 291415Z AUTO 27014KT 10SM OVC025 02/M01 A2992 970 78 -300 280/14 RMK AO2 T00221011
04850KAOH AOH20160229092011202/29/16 09:20:31  5-MIN KAOH 291420Z AUTO 26015KT 10SM OVC025 02/M01 A2992 970 78 -300 270/15 RMK AO2 T00221011
04850KAOH AOH20160229092511202/29/16 09:25:31  5-MIN KAOH 291425Z AUTO 25014KT 10SM OVC025 02/M01 A2993 970 78 -300 260/14 RMK AO2 T00221011
04850KAOH AOH20160229093011202/29/16 09:30:31  5-MIN KAOH 291430Z AUTO 26013KT 10SM OVC025 02/M01 A2993 970 78 -300 270/13 RMK AO2 T00221011
04850KAOH AOH20160229093511202/29/16 09:35:31  5-MIN KAOH 291435Z AUTO 25014KT 10SM OVC024 03/M01 A2993 970 79 -200 250/14 RMK AO2 T00281006
04850KAOH AOH20160229094011202/29/16 09:40:31  5-MIN KAOH 291440Z AUTO 26013KT 10SM OVC024 03/M01 A2993 970 75 -200 260/13 RMK AO2 T00281011
04850KAOH AOH20160229094511802/29/16 09:45:31  5-MIN KAOH 291445Z AUTO 25015G20KT 10SM OVC024 03/M01 A2994 960 75 -200 250/15G20 RMK AO2 T00281011
04850KAOH AOH20160229095012502/29/16 09:50:31  5-MIN KAOH 291450Z AUTO 25017KT 10SM OVC024 03/M01 A2994 960 79 -200 260/17 RMK AO2 SLP141 T00281006 52033
04850KAOH AOH20160229095511202/29/16 09:55:31  5-MIN KAOH 291455Z AUTO 25016KT 10SM OVC024 03/M01 A2994 960 79 -200 260/16 RMK AO2 T00281006
04850KAOH AOH20160229100011202/29/16 10:00:31  5-MIN KAOH 291500Z AUTO 24014KT 10SM OVC024 03/M01 A2994 960 76 -100 240/14 RMK AO2 T00331006
04850KAOH AOH20160229100511802/29/16 10:05:31  5-MIN KAOH 291505Z AUTO 26016G22KT 10SM OVC024 03/M01 A2994 960 76 -100 260/16G22 RMK AO2 T00331006
04850KAOH AOH20160229101011802/29/16 10:10:31  5-MIN KAOH 291510Z AUTO 25013G22KT 10SM OVC022 03/M01 A2994 960 76 -100 260/13G22 RMK AO2 T00331006
04850KAOH AOH20160229101511802/29/16 10:15:31  5-MIN KAOH 291515Z AUTO 25016G20KT 10SM OVC022 03/M01 A2994 960 76 -100 260/16G20 RMK AO2 T00331006
04850KAOH AOH20160229102011802/29/16 10:20:31  5-MIN KAOH 291520Z AUTO 25017G24KT 10SM OVC022 03/M01 A2994 960 76 -100 250/17G24 RMK AO2 T00331006
04850KAOH AOH20160229102511802/29/16 10:25:31  5-MIN KAOH 291525Z AUTO 25019G24KT 10SM OVC022 03/M01 A2994 960 76 -100 260/19G24 RMK AO2 T00331006
04850KAOH AOH20160229103011802/29/16 10:30:31  5-MIN KAOH 291530Z AUTO 25019G25KT 10SM OVC022 03/M01 A2995 950 76 -100 260/19G25 RMK AO2 T00331006
04850KAOH AOH20160229103513602/29/16 10:35:31  5-MIN KAOH 291535Z AUTO 24015G27KT 10SM OVC022 03/M01 A2994 960 76 -100 250/15G27 RMK AO2 PK WND 26027/1531 T00331006
04850KAOH AOH20160229104013602/29/16 10:40:31  5-MIN KAOH 291540Z AUTO 24019G27KT 10SM OVC021 03/M01 A2994 950 76 -100 250/19G27 RMK AO2 PK WND 26027/1531 T00331006
04850KAOH AOH20160229104513602/29/16 10:45:31  5-MIN KAOH 291545Z AUTO 23021G25KT 10SM OVC021 03/M01 A2995 950 72 -100 240/21G25 RMK AO2 PK WND 26027/1531 T00331011
04850KAOH AOH20160229105014302/29/16 10:50:31  5-MIN KAOH 291550Z AUTO 24020G26KT 10SM OVC019 03/M01 A2995 950 72 -100 250/20G26 RMK AO2 PK WND 26027/1531 SLP145 T00331011
04850KAOH AOH20160229105511202/29/16 10:55:31  5-MIN KAOH 291555Z AUTO 25020KT 10SM BKN019 03/M01 A2995 950 72 -100 250/20 RMK AO2 T00331011
04850KAOH AOH20160229110011202/29/16 11:00:31  5-MIN KAOH 291600Z AUTO 24018KT 10SM BKN019 03/M01 A2995 950 72 -100 240/18 RMK AO2 T00331011
04850KAOH AOH20160229110511202/29/16 11:05:31  5-MIN KAOH 291605Z AUTO 25020KT 10SM BKN019 04/M01 A2995 950 73 -100 250/20 RMK AO2 T00391006
04850KAOH AOH20160229111011202/29/16 11:10:31  5-MIN KAOH 291610Z AUTO 23019KT 10SM BKN020 04/M01 A2995 950 73 -100 240/19 RMK AO2 T00391006
04850KAOH AOH20160229111511402/29/16 11:15:31  5-MIN KAOH 291615Z AUTO 24020G25KT 10SM BKN020 04/00 A2994 960 73 0 240/20G25 RMK AO2 T00440000
04850KAOH AOH20160229112011402/29/16 11:20:31  5-MIN KAOH 291620Z AUTO 23019G25KT 10SM BKN020 04/00 A2994 960 73 0 230/19G25 RMK AO2 T00440000
04850KAOH AOH20160229112511402/29/16 11:25:31  5-MIN KAOH 291625Z AUTO 23020G25KT 10SM OVC020 04/00 A2995 950 73 0 240/20G25 RMK AO2 T00440000
04850KAOH AOH20160229113011202/29/16 11:30:31  5-MIN KAOH 291630Z AUTO 23017KT 10SM OVC020 04/M01 A2995 950 73 -100 240/17 RMK AO2 T00391006
04850KAOH AOH20160229113513602/29/16 11:35:31  5-MIN KAOH 291635Z AUTO 24019G26KT 10SM BKN020 03/M01 A2995 950 76 -100 250/19G26 RMK AO2 PK WND 24026/1633 T00331006
04850KAOH AOH20160229114013602/29/16 11:40:31  5-MIN KAOH 291640Z AUTO 23018G26KT 10SM BKN020 04/M01 A2995 950 73 -100 240/18G26 RMK AO2 PK WND 24026/1633 T00391006
04850KAOH AOH20160229114513202/29/16 11:45:31  5-MIN KAOH 291645Z AUTO 23020G27KT 10SM OVC020 04/00 A2995 950 73 0 240/20G27 RMK AO2 PK WND 22027/1643 T00440000
04850KAOH AOH20160229115014302/29/16 11:50:31  5-MIN KAOH 291650Z AUTO 24021G28KT 10SM OVC019 04/M01 A2995 950 73 -100 240/21G28 RMK AO2 PK WND 24028/1646 SLP146 T00391006
04850KAOH AOH20160229115513602/29/16 11:55:31  5-MIN KAOH 291655Z AUTO 24021G28KT 10SM BKN019 04/M01 A2995 950 70 -100 250/21G28 RMK AO2 PK WND 23028/1654 T00391011
04850KAOH AOH20160229120013602/29/16 12:00:31  5-MIN KAOH 291700Z AUTO 23019G28KT 10SM BKN019 04/M01 A2994 960 70 -100 240/19G28 RMK AO2 PK WND 23028/1654 T00391011
04850KAOH AOH20160229120513202/29/16 12:05:31  5-MIN KAOH 291705Z AUTO 22018G25KT 10SM SCT019 04/00 A2993 970 73 0 220/18G25 RMK AO2 PK WND 23028/1654 T00440000
04850KAOH AOH20160229121013202/29/16 12:10:31  5-MIN KAOH 291710Z AUTO 22020G26KT 10SM SCT019 05/00 A2994 960 70 0 220/20G26 RMK AO2 PK WND 23028/1654 T00500000
04850KAOH AOH20160229121513402/29/16 12:15:31  5-MIN KAOH 291715Z AUTO 23018G26KT 10SM SCT019 06/01 A2994 960 70 100 240/18G26 RMK AO2 PK WND 23028/1654 T00560006
04850KAOH AOH20160229122013402/29/16 12:20:31  5-MIN KAOH 291720Z AUTO 22018G25KT 10SM SCT020 06/00 A2994 960 67 100 230/18G25 RMK AO2 PK WND 23028/1654 T00560000
04850KAOH AOH20160229122513202/29/16 12:25:31  5-MIN KAOH 291725Z AUTO 24019G25KT 10SM FEW020 05/00 A2994 960 70 0 250/19G25 RMK AO2 PK WND 23028/1654 T00500000
04850KAOH AOH20160229123012802/29/16 12:30:31  5-MIN KAOH 291730Z AUTO 23020KT 10SM FEW020 06/01 A2994 960 70 100 230/20 RMK AO2 PK WND 23028/1654 T00560006
04850KAOH AOH20160229123513402/29/16 12:35:31  5-MIN KAOH 291735Z AUTO 23017G28KT 10SM FEW020 06/01 A2994 960 67 200 230/17G28 RMK AO2 PK WND 24028/1733 T00610006
04850KAOH AOH20160229124013402/29/16 12:40:31  5-MIN KAOH 291740Z AUTO 22017G28KT 10SM FEW021 06/01 A2993 970 67 200 230/17G28 RMK AO2 PK WND 24028/1733 T00610006
04850KAOH AOH20160229124513402/29/16 12:45:31  5-MIN KAOH 291745Z AUTO 22019G25KT 10SM FEW021 06/01 A2993 970 67 200 230/19G25 RMK AO2 PK WND 24028/1733 T00610006
04850KAOH AOH20160229125015602/29/16 12:50:31  5-MIN KAOH 291750Z AUTO 23018G25KT 10SM CLR 07/01 A2994 960 65 200 240/18G25 RMK AO2 PK WND 24028/1733 SLP140 T00670006 10067 20017 51026
04850KAOH AOH20160229125510702/29/16 12:55:31  5-MIN KAOH 291755Z AUTO 24019KT 10SM CLR 07/01 A2994 960 67 200 250/19 RMK AO2 T00670011
04850KAOH AOH20160229130011302/29/16 13:00:31  5-MIN KAOH 291800Z AUTO 24018G24KT 10SM CLR 07/01 A2994 960 67 200 250/18G24 RMK AO2 T00670011
04850KAOH AOH20160229130511302/29/16 13:05:31  5-MIN KAOH 291805Z AUTO 23018G24KT 10SM CLR 07/01 A2994 960 65 300 240/18G24 RMK AO2 T00720011
04850KAOH AOH20160229131011302/29/16 13:10:31  5-MIN KAOH 291810Z AUTO 24016G23KT 10SM CLR 07/02 A2995 950 68 300 250/16G23 RMK AO2 T00720017
04850KAOH AOH20160229131513102/29/16 13:15:31  5-MIN KAOH 291815Z AUTO 24020G26KT 10SM CLR 07/01 A2995 950 62 300 240/20G26 RMK AO2 PK WND 23026/1811 T00720006
04850KAOH AOH20160229132013102/29/16 13:20:31  5-MIN KAOH 291820Z AUTO 23019G26KT 10SM CLR 07/01 A2995 950 65 300 240/19G26 RMK AO2 PK WND 23026/1811 T00720011
04850KAOH AOH20160229132513102/29/16 13:25:31  5-MIN KAOH 291825Z AUTO 23022G26KT 10SM CLR 08/02 A2995 950 65 400 240/22G26 RMK AO2 PK WND 23026/1811 T00780017
04850KAOH AOH20160229133013102/29/16 13:30:31  5-MIN KAOH 291830Z AUTO 23018G26KT 10SM CLR 08/01 A2994 960 62 400 230/18G26 RMK AO2 PK WND 23026/1811 T00780011
04850KAOH AOH20160229133513102/29/16 13:35:31  5-MIN KAOH 291835Z AUTO 23019G26KT 10SM CLR 08/01 A2993 960 62 400 230/19G26 RMK AO2 PK WND 23026/1835 T00780011
04850KAOH AOH20160229134013102/29/16 13:40:31  5-MIN KAOH 291840Z AUTO 23017G26KT 10SM CLR 08/01 A2993 970 62 400 230/17G26 RMK AO2 PK WND 23026/1835 T00780011
04850KAOH AOH20160229134513802/29/16 13:45:31  5-MIN KAOH 291845Z AUTO 23019G26KT 10SM CLR 08/01 A2992 980 60 500 240/19G26 RMK AO2 PK WND 23026/1835 PRESFR T00830011
04850KAOH AOH20160229135013202/29/16 13:50:31  5-MIN KAOH 291850Z AUTO 23017KT 10SM CLR 08/01 A2992 980 60 500 230/17 RMK AO2 PK WND 23026/1835 SLP135 T00830011
04850KAOH AOH20160229135511302/29/16 13:55:31  5-MIN KAOH 291855Z AUTO 24021G25KT 10SM CLR 08/01 A2992 980 60 500 250/21G25 RMK AO2 T00830011
04850KAOH AOH20160229140011302/29/16 14:00:31  5-MIN KAOH 291900Z AUTO 22017G25KT 10SM CLR 08/01 A2992 980 60 500 220/17G25 RMK AO2 T00830011
04850KAOH AOH20160229140513102/29/16 14:05:31  5-MIN KAOH 291905Z AUTO 23018G27KT 10SM CLR 09/01 A2992 980 58 500 240/18G27 RMK AO2 PK WND 22027/1903 T00890011
04850KAOH AOH20160229141013102/29/16 14:10:31  5-MIN KAOH 291910Z AUTO 23020G27KT 10SM CLR 08/01 A2992 980 60 400 230/20G27 RMK AO2 PK WND 22027/1903 T00830011
04850KAOH AOH20160229141513102/29/16 14:15:31  5-MIN KAOH 291915Z AUTO 22022G28KT 10SM CLR 09/01 A2992 980 58 500 230/22G28 RMK AO2 PK WND 22028/1915 T00890011
04850KAOH AOH20160229142013102/29/16 14:20:31  5-MIN KAOH 291920Z AUTO 23016G28KT 10SM CLR 09/01 A2992 980 58 500 230/16G28 RMK AO2 PK WND 22028/1915 T00890011
04850KAOH AOH20160229142512502/29/16 14:25:31  5-MIN KAOH 291925Z AUTO 23016KT 10SM CLR 09/02 A2992 980 58 600 230/16 RMK AO2 PK WND 22028/1915 T00940017
04850KAOH AOH20160229143013102/29/16 14:30:31  5-MIN KAOH 291930Z AUTO 24019G26KT 10SM CLR 09/01 A2991 980 53 600 240/19G26 RMK AO2 PK WND 22028/1915 T00940006
04850KAOH AOH20160229143513102/29/16 14:35:31  5-MIN KAOH 291935Z AUTO 22018G26KT 10SM CLR 09/01 A2991 990 56 600 230/18G26 RMK AO2 PK WND 22028/1915 T00940011
04850KAOH AOH20160229144013102/29/16 14:40:31  5-MIN KAOH 291940Z AUTO 23019G25KT 10SM CLR 09/01 A2991 990 56 600 240/19G25 RMK AO2 PK WND 22028/1915 T00940011
04850KAOH AOH20160229144513102/29/16 14:45:31  5-MIN KAOH 291945Z AUTO 24015G25KT 10SM CLR 10/01 A2991 990 54 700 240/15G25 RMK AO2 PK WND 22028/1915 T01000011
04850KAOH AOH20160229145013802/29/16 14:50:31  5-MIN KAOH 291950Z AUTO 23020G24KT 10SM CLR 10/01 A2991 990 54 700 240/20G24 RMK AO2 PK WND 22028/1915 SLP133 T01000011
04850KAOH AOH20160229145511302/29/16 14:55:31  5-MIN KAOH 291955Z AUTO 24020G25KT 10SM CLR 10/01 A2991 990 52 700 250/20G25 RMK AO2 T01000006
04850KAOH AOH20160229150011302/29/16 15:00:31  5-MIN KAOH 292000Z AUTO 22020G25KT 10SM CLR 10/01 A2991 990 54 700 230/20G25 RMK AO2 T01000011
04850KAOH AOH20160229150511302/29/16 15:05:31  5-MIN KAOH 292005Z AUTO 22019G24KT 10SM CLR 10/01 A2991 990 54 700 230/19G24 RMK AO2 T01000011
04850KAOH AOH20160229151013102/29/16 15:10:31  5-MIN KAOH 292010Z AUTO 22018G26KT 10SM CLR 10/01 A2991 980 52 700 230/18G26 RMK AO2 PK WND 24026/2008 T01000006
04850KAOH AOH20160229151513102/29/16 15:15:31  5-MIN KAOH 292015Z AUTO 23019G26KT 10SM CLR 10/01 A2991 980 54 700 240/19G26 RMK AO2 PK WND 24026/2008 T01000011
04850KAOH AOH20160229152013102/29/16 15:20:31  5-MIN KAOH 292020Z AUTO 23020G25KT 10SM CLR 10/01 A2991 980 54 700 240/20G25 RMK AO2 PK WND 24026/2008 T01000011
04850KAOH AOH20160229152513102/29/16 15:25:31  5-MIN KAOH 292025Z AUTO 23020G26KT 10SM CLR 10/01 A2991 990 54 700 240/20G26 RMK AO2 PK WND 24026/2008 T01000011
04850KAOH AOH20160229153013102/29/16 15:30:31  5-MIN KAOH 292030Z AUTO 22018G26KT 10SM CLR 10/01 A2991 990 52 700 230/18G26 RMK AO2 PK WND 24026/2008 T01000006
04850KAOH AOH20160229153513102/29/16 15:35:31  5-MIN KAOH 292035Z AUTO 23020G25KT 10SM CLR 10/01 A2991 980 52 700 240/20G25 RMK AO2 PK WND 24026/2008 T01000006
04850KAOH AOH20160229154013102/29/16 15:40:31  5-MIN KAOH 292040Z AUTO 23020G27KT 10SM CLR 11/01 A2991 980 50 700 240/20G27 RMK AO2 PK WND 23027/2037 T01060006
04850KAOH AOH20160229154513102/29/16 15:45:31  5-MIN KAOH 292045Z AUTO 24018G27KT 10SM CLR 10/01 A2992 980 54 700 250/18G27 RMK AO2 PK WND 23027/2037 T01000011
04850KAOH AOH20160229155013802/29/16 15:50:31  5-MIN KAOH 292050Z AUTO 25017KT 10SM CLR 11/02 A2992 980 54 700 250/17 RMK AO2 PK WND 23027/2037 SLP137 T01060017 58001
04850KAOH AOH20160229155511302/29/16 15:55:31  5-MIN KAOH 292055Z AUTO 25019G27KT 10SM CLR 11/02 A2993 970 54 700 250/19G27 RMK AO2 T01060017
04850KAOH AOH20160229160013102/29/16 16:00:31  5-MIN KAOH 292100Z AUTO 24020G27KT 10SM CLR 11/01 A2993 970 52 700 250/20G27 RMK AO2 PK WND 24026/2056 T01060011
04850KAOH AOH20160229160512502/29/16 16:05:31  5-MIN KAOH 292105Z AUTO 25020KT 10SM CLR 11/01 A2993 970 50 700 250/20 RMK AO2 PK WND 24026/2056 T01060006
04850KAOH AOH20160229161012502/29/16 16:10:31  5-MIN KAOH 292110Z AUTO 25020KT 10SM CLR 10/01 A2993 960 54 600 260/20 RMK AO2 PK WND 24026/2056 T01000011
04850KAOH AOH20160229161512502/29/16 16:15:31  5-MIN KAOH 292115Z AUTO 24019KT 10SM CLR 11/01 A2993 970 52 700 240/19 RMK AO2 PK WND 24026/2056 T01060011
04850KAOH AOH20160229162013102/29/16 16:20:31  5-MIN KAOH 292120Z AUTO 24016G24KT 10SM CLR 11/01 A2993 970 52 700 240/16G24 RMK AO2 PK WND 24026/2056 T01060011
04850KAOH AOH20160229162512502/29/16 16:25:31  5-MIN KAOH 292125Z AUTO 24016KT 10SM CLR 11/01 A2993 970 52 700 250/16 RMK AO2 PK WND 24026/2056 T01060011
04850KAOH AOH20160229163012502/29/16 16:30:31  5-MIN KAOH 292130Z AUTO 24017KT 10SM CLR 11/01 A2993 970 52 700 250/17 RMK AO2 PK WND 24026/2056 T01060011
04850KAOH AOH20160229163512502/29/16 16:35:31  5-MIN KAOH 292135Z AUTO 25017KT 10SM CLR 11/01 A2993 970 52 700 250/17 RMK AO2 PK WND 24026/2056 T01060011
04850KAOH AOH20160229164013102/29/16 16:40:31  5-MIN KAOH 292140Z AUTO 25015G22KT 10SM CLR 11/01 A2993 970 50 700 250/15G22 RMK AO2 PK WND 24026/2056 T01060006
04850KAOH AOH20160229164512502/29/16 16:45:31  5-MIN KAOH 292145Z AUTO 25018KT 10SM CLR 11/01 A2994 960 50 700 260/18 RMK AO2 PK WND 24026/2056 T01060006
04850KAOH AOH20160229165013202/29/16 16:50:31  5-MIN KAOH 292150Z AUTO 25013KT 10SM CLR 11/01 A2993 960 52 700 260/13 RMK AO2 PK WND 24026/2056 SLP141 T01060011
04850KAOH AOH20160229165510702/29/16 16:55:31  5-MIN KAOH 292155Z AUTO 25017KT 10SM CLR 11/01 A2993 970 52 700 260/17 RMK AO2 T01060011
04850KAOH AOH20160229170010702/29/16 17:00:31  5-MIN KAOH 292200Z AUTO 24016KT 10SM CLR 11/01 A2993 970 50 700 250/16 RMK AO2 T01060006
04850KAOH AOH20160229170511302/29/16 17:05:31  5-MIN KAOH 292205Z AUTO 25014G22KT 10SM CLR 11/01 A2993 970 50 700 260/14G22 RMK AO2 T01060006
04850KAOH AOH20160229171011302/29/16 17:10:31  5-MIN KAOH 292210Z AUTO 25015G22KT 10SM CLR 11/01 A2993 970 50 700 260/15G22 RMK AO2 T01060006
04850KAOH AOH20160229171510702/29/16 17:15:31  5-MIN KAOH 292215Z AUTO 25014KT 10SM CLR 11/01 A2993 960 50 700 260/14 RMK AO2 T01060006
04850KAOH AOH20160229172010702/29/16 17:20:31  5-MIN KAOH 292220Z AUTO 25014KT 10SM CLR 11/01 A2993 970 50 700 260/14 RMK AO2 T01060006
04850KAOH AOH20160229172510702/29/16 17:25:31  5-MIN KAOH 292225Z AUTO 23014KT 10SM CLR 11/00 A2993 970 48 700 240/14 RMK AO2 T01060000
04850KAOH AOH20160229173010702/29/16 17:30:31  5-MIN KAOH 292230Z AUTO 24015KT 10SM CLR 11/01 A2993 970 50 700 240/15 RMK AO2 T01060006
04850KAOH AOH20160229173510702/29/16 17:35:31  5-MIN KAOH 292235Z AUTO 24011KT 10SM CLR 11/01 A2994 960 50 700 250/11 RMK AO2 T01060006
04850KAOH AOH20160229174010702/29/16 17:40:31  5-MIN KAOH 292240Z AUTO 24012KT 10SM CLR 10/01 A2994 960 52 600 240/12 RMK AO2 T01000006
04850KAOH AOH20160229174510702/29/16 17:45:31  5-MIN KAOH 292245Z AUTO 24014KT 10SM CLR 10/01 A2994 960 52 600 240/14 RMK AO2 T01000006
04850KAOH AOH20160229175011402/29/16 17:50:31  5-MIN KAOH 292250Z AUTO 24012KT 10SM CLR 10/01 A2994 960 52 600 240/12 RMK AO2 SLP142 T01000006
04850KAOH AOH20160229175510702/29/16 17:55:31  5-MIN KAOH 292255Z AUTO 23013KT 10SM CLR 10/01 A2994 960 52 600 240/13 RMK AO2 T01000006
04850KAOH AOH20160229180010702/29/16 18:00:31  5-MIN KAOH 292300Z AUTO 23015KT 10SM CLR 10/00 A2994 960 49 600 240/15 RMK AO2 T01000000
04850KAOH AOH20160229180510702/29/16 18:05:31  5-MIN KAOH 292305Z AUTO 23013KT 10SM CLR 09/01 A2994 960 53 600 240/13 RMK AO2 T00940006
04850KAOH AOH20160229181010702/29/16 18:10:31  5-MIN KAOH 292310Z AUTO 23010KT 10SM CLR 09/01 A2994 960 53 600 240/10 RMK AO2 T00940006
04850KAOH AOH20160229181510702/29/16 18:15:31  5-MIN KAOH 292315Z AUTO 23012KT 10SM CLR 09/01 A2994 960 53 600 240/12 RMK AO2 T00940006
04850KAOH AOH20160229182010702/29/16 18:20:31  5-MIN KAOH 292320Z AUTO 23010KT 10SM CLR 09/01 A2994 960 53 600 230/10 RMK AO2 T00940006
04850KAOH AOH20160229182510702/29/16 18:25:31  5-MIN KAOH 292325Z AUTO 22009KT 10SM CLR 09/01 A2994 960 56 500 230/09 RMK AO2 T00890006
04850KAOH AOH20160229183010702/29/16 18:30:31  5-MIN KAOH 292330Z AUTO 22008KT 10SM CLR 09/01 A2994 960 56 500 230/08 RMK AO2 T00890006
04850KAOH AOH20160229183510702/29/16 18:35:31  5-MIN KAOH 292335Z AUTO 22010KT 10SM CLR 09/01 A2994 960 56 500 230/10 RMK AO2 T00890006
04850KAOH AOH20160229184010702/29/16 18:40:31  5-MIN KAOH 292340Z AUTO 21009KT 10SM CLR 09/01 A2994 960 56 500 220/09 RMK AO2 T00890006
04850KAOH AOH20160229184510702/29/16 18:45:31  5-MIN KAOH 292345Z AUTO 21008KT 10SM CLR 09/01 A2994 960 56 500 220/08 RMK AO2 T00890006
04850KAOH AOH20160229185013202/29/16 18:50:31  5-MIN KAOH 292350Z AUTO 22009KT 10SM CLR 09/01 A2994 960 56 500 220/09 RMK AO2 SLP145 T00890006 10106 20067 55001
04850KAOH AOH20160229185510702/29/16 18:55:31  5-MIN KAOH 292355Z AUTO 22008KT 10SM CLR 08/01 A2995 950 58 400 230/08 RMK AO2 T00830006
04850KAOH AOH20160229190010702/29/16 19:00:31  5-MIN KAOH 010000Z AUTO 23008KT 10SM CLR 08/01 A2995 950 58 400 230/08 RMK AO2 T00830006
04850KAOH AOH20160229190510702/29/16 19:05:31  5-MIN KAOH 010005Z AUTO 23009KT 10SM CLR 08/01 A2996 940 58 400 240/09 RMK AO2 T00830006
04850KAOH AOH20160229191010702/29/16 19:10:31  5-MIN KAOH 010010Z AUTO 24008KT 10SM CLR 08/01 A2996 940 58 400 240/08 RMK AO2 T00830006
04850KAOH AOH20160229191510702/29/16 19:15:31  5-MIN KAOH 010015Z AUTO 24007KT 10SM CLR 08/01 A2997 930 60 300 250/07 RMK AO2 T00780006
04850KAOH AOH20160229192010702/29/16 19:20:31  5-MIN KAOH 010020Z AUTO 24007KT 10SM CLR 08/01 A2997 930 60 300 240/07 RMK AO2 T00780006
04850KAOH AOH20160229192510702/29/16 19:25:31  5-MIN KAOH 010025Z AUTO 24007KT 10SM CLR 08/01 A2997 930 60 300 250/07 RMK AO2 T00780006
04850KAOH AOH20160229193010702/29/16 19:30:31  5-MIN KAOH 010030Z AUTO 24006KT 10SM CLR 07/01 A2998 930 62 300 250/06 RMK AO2 T00720006
04850KAOH AOH20160229193510702/29/16 19:35:31  5-MIN KAOH 010035Z AUTO 24007KT 10SM CLR 07/01 A2998 920 62 300 240/07 RMK AO2 T00720006
04850KAOH AOH20160229194010702/29/16 19:40:31  5-MIN KAOH 010040Z AUTO 23008KT 10SM CLR 07/01 A2998 920 62 300 240/08 RMK AO2 T00720006
04850KAOH AOH20160229194510702/29/16 19:45:31  5-MIN KAOH 010045Z AUTO 23008KT 10SM CLR 08/01 A2998 930 60 300 240/08 RMK AO2 T00780006
04850KAOH AOH20160229195011402/29/16 19:50:31  5-MIN KAOH 010050Z AUTO 23007KT 10SM CLR 08/01 A2998 920 60 300 240/07 RMK AO2 SLP157 T00780006
04850KAOH AOH20160229195510702/29/16 19:55:31  5-MIN KAOH 010055Z AUTO 23007KT 10SM CLR 07/01 A2998 920 62 200 230/07 RMK AO2 T00720006
04850KAOH AOH20160229200010702/29/16 20:00:31  5-MIN KAOH 010100Z AUTO 23006KT 10SM CLR 07/01 A2998 920 62 200 240/06 RMK AO2 T00720006
04850KAOH AOH20160229200510702/29/16 20:05:31  5-MIN KAOH 010105Z AUTO 24007KT 10SM CLR 07/01 A2998 920 62 200 250/07 RMK AO2 T00720006
04850KAOH AOH20160229201010702/29/16 20:10:31  5-MIN KAOH 010110Z AUTO 24007KT 10SM CLR 07/01 A2999 920 62 200 250/07 RMK AO2 T00720006
04850KAOH AOH20160229201510702/29/16 20:15:31  5-MIN KAOH 010115Z AUTO 24007KT 10SM CLR 07/01 A2999 920 62 200 240/07 RMK AO2 T00720006
04850KAOH AOH20160229202010702/29/16 20:20:31  5-MIN KAOH 010120Z AUTO 23006KT 10SM CLR 07/01 A2999 910 65 200 240/06 RMK AO2 T00670006
04850KAOH AOH20160229202511002/29/16 20:25:31  5-MIN KAOH 010125Z AUTO 25005KT 10SM FEW100 07/01 A2999 910 65 200 250/05 RMK AO2 T00670006
04850KAOH AOH20160229203010802/29/16 20:30:31  5-MIN KAOH 010130Z AUTO 24005KT 10SM SCT100 06/01 A2999 910 70 0 250/05 RMK AO2 T00560006
04850KAOH AOH20160229203510802/29/16 20:35:31  5-MIN KAOH 010135Z AUTO 26004KT 10SM SCT100 06/01 A2999 910 70 0 270/04 RMK AO2 T00560006
04850KAOH AOH20160229204010802/29/16 20:40:31  5-MIN KAOH 010140Z AUTO 24004KT 10SM SCT100 06/01 A2999 910 70 0 250/04 RMK AO2 T00560006
04850KAOH AOH20160229204511002/29/16 20:45:31  5-MIN KAOH 010145Z AUTO 23004KT 10SM FEW100 06/01 A2999 910 67 100 240/04 RMK AO2 T00610006
04850KAOH AOH20160229205011702/29/16 20:50:31  5-MIN KAOH 010150Z AUTO 26003KT 10SM FEW100 07/01 A2999 910 65 200 260/03 RMK AO2 SLP163 T00670006
04850KAOH AOH20160229205511002/29/16 20:55:31  5-MIN KAOH 010155Z AUTO 25003KT 10SM SCT110 07/01 A2999 910 65 200 250/03 RMK AO2 T00670006
04850KAOH AOH20160229210011002/29/16 21:00:31  5-MIN KAOH 010200Z AUTO 23003KT 10SM SCT110 07/01 A2999 910 65 200 240/03 RMK AO2 T00670006
04850KAOH AOH20160229210511002/29/16 21:05:31  5-MIN KAOH 010205Z AUTO 21003KT 10SM BKN110 07/01 A3000 910 65 200 220/03 RMK AO2 T00670006
04850KAOH AOH20160229211011002/29/16 21:10:31  5-MIN KAOH 010210Z AUTO 19004KT 10SM BKN110 06/01 A3000 910 67 100 200/04 RMK AO2 T00610006
04850KAOH AOH20160229211511002/29/16 21:15:31  5-MIN KAOH 010215Z AUTO 00000KT 10SM BKN110 06/01 A3000 910 67 100 000/00 RMK AO2 T00610006
04850KAOH AOH20160229212011002/29/16 21:20:31  5-MIN KAOH 010220Z AUTO 00000KT 10SM OVC110 06/01 A3000 900 67 100 000/00 RMK AO2 T00610006
04850KAOH AOH20160229212510802/29/16 21:25:31  5-MIN KAOH 010225Z AUTO 00000KT 10SM OVC110 06/01 A3000 900 70 0 000/00 RMK AO2 T00560006
04850KAOH AOH20160229213010802/29/16 21:30:31  5-MIN KAOH 010230Z AUTO 00000KT 10SM OVC100 06/01 A3000 900 70 0 000/00 RMK AO2 T00560006
04850KAOH AOH20160229213510802/29/16 21:35:31  5-MIN KAOH 010235Z AUTO 00000KT 10SM OVC100 06/01 A3000 900 70 0 000/00 RMK AO2 T00560006
04850KAOH AOH20160229214010802/29/16 21:40:31  5-MIN KAOH 010240Z AUTO 18003KT 10SM OVC100 05/01 A3000 900 73 0 190/03 RMK AO2 T00500006
04850KAOH AOH20160229214511102/29/16 21:45:31  5-MIN KAOH 010245Z AUTO 17004KT 10SM OVC100 04/01 A3000 900 76 -100 170/04 RMK AO2 T00440006
04850KAOH AOH20160229215012102/29/16 21:50:31  5-MIN KAOH 010250Z AUTO 19003KT 10SM OVC100 06/01 A3000 900 70 0 190/03 RMK AO2 SLP167 T00560006 53004
04850KAOH AOH20160229215510802/29/16 21:55:31  5-MIN KAOH 010255Z AUTO 17004KT 10SM OVC100 06/01 A3000 900 70 0 180/04 RMK AO2 T00560006
04850KAOH AOH20160229220011002/29/16 22:00:31  5-MIN KAOH 010300Z AUTO 17005KT 10SM OVC110 06/01 A3000 900 67 100 170/05 RMK AO2 T00610006
04850KAOH AOH20160229220510802/29/16 22:05:31  5-MIN KAOH 010305Z AUTO 17003KT 10SM OVC110 06/01 A3000 900 70 0 180/03 RMK AO2 T00560006
04850KAOH AOH20160229221011102/29/16 22:10:31  5-MIN KAOH 010310Z AUTO 00000KT 10SM OVC110 04/01 A3000 900 76 -100 000/00 RMK AO2 T00440006
04850KAOH AOH20160229221510802/29/16 22:15:31  5-MIN KAOH 010315Z AUTO 15003KT 10SM OVC110 06/01 A3000 900 70 0 150/03 RMK AO2 T00560006
04850KAOH AOH20160229222010802/29/16 22:20:31  5-MIN KAOH 010320Z AUTO 14003KT 10SM OVC120 06/01 A3000 900 70 0 150/03 RMK AO2 T00560006
04850KAOH AOH20160229222510802/29/16 22:25:31  5-MIN KAOH 010325Z AUTO 16005KT 10SM OVC120 06/01 A3000 900 70 0 170/05 RMK AO2 T00560006
04850KAOH AOH20160229223010802/29/16 22:30:31  5-MIN KAOH 010330Z AUTO 16007KT 10SM OVC120 06/01 A3000 900 70 0 170/07 RMK AO2 T00560006
04850KAOH AOH20160229223510802/29/16 22:35:31  5-MIN KAOH 010335Z AUTO 16006KT 10SM OVC120 05/01 A3000 900 73 0 170/06 RMK AO2 T00500006
04850KAOH AOH20160229224010802/29/16 22:40:31  5-MIN KAOH 010340Z AUTO 16007KT 10SM OVC110 06/01 A3000 900 70 0 170/07 RMK AO2 T00560006
04850KAOH AOH20160229224510802/29/16 22:45:31  5-MIN KAOH 010345Z AUTO 16006KT 10SM BKN110 06/01 A3000 900 70 0 170/06 RMK AO2 T00560006
04850KAOH AOH20160229225011502/29/16 22:50:31  5-MIN KAOH 010350Z AUTO 17005KT 10SM BKN110 06/01 A3000 900 70 0 170/05 RMK AO2 SLP166 T00560006
04850KAOH AOH20160229225510802/29/16 22:55:31  5-MIN KAOH 010355Z AUTO 17006KT 10SM BKN110 06/01 A3000 900 70 0 170/06 RMK AO2 T00560006
04850KAOH AOH20160229230010802/29/16 23:00:31  5-MIN KAOH 010400Z AUTO 17006KT 10SM SCT110 06/01 A3000 900 70 0 170/06 RMK AO2 T00560006
04850KAOH AOH20160229230510802/29/16 23:05:31  5-MIN KAOH 010405Z AUTO 17006KT 10SM FEW110 06/01 A3000 900 70 0 170/06 RMK AO2 T00560006
04850KAOH AOH20160229231010802/29/16 23:10:31  5-MIN KAOH 010410Z AUTO 17007KT 10SM FEW110 06/01 A3001 900 70 0 170/07 RMK AO2 T00560006
04850KAOH AOH20160229231510802/29/16 23:15:31  5-MIN KAOH 010415Z AUTO 16006KT 10SM FEW120 06/01 A3001 900 70 0 170/06 RMK AO2 T00560006
04850KAOH AOH20160229232010802/29/16 23:20:31  5-MIN KAOH 010420Z AUTO 17007KT 10SM SCT110 06/01 A3001 900 70 0 170/07 RMK AO2 T00560006
04850KAOH AOH20160229232510802/29/16 23:25:31  5-MIN KAOH 010425Z AUTO 17008KT 10SM SCT110 06/01 A3000 900 70 0 180/08 RMK AO2 T00560006
04850KAOH AOH20160229233010802/29/16 23:30:31  5-MIN KAOH 010430Z AUTO 17008KT 10SM BKN120 06/01 A3000 900 70 0 180/08 RMK AO2 T00560006
04850KAOH AOH20160229233510802/29/16 23:35:31  5-MIN KAOH 010435Z AUTO 17007KT 10SM BKN120 06/01 A3000 900 70 0 180/07 RMK AO2 T00560006
04850KAOH AOH20160229234010802/29/16 23:40:31  5-MIN KAOH 010440Z AUTO 17007KT 10SM BKN120 06/01 A3000 900 70 0 170/07 RMK AO2 T00560006
04850KAOH AOH20160229234510802/29/16 23:45:31  5-MIN KAOH 010445Z AUTO 17007KT 10SM OVC120 06/01 A3000 910 70 0 170/07 RMK AO2 T00560006
04850KAOH AOH20160229235012502/29/16 23:50:31  5-MIN KAOH 010450Z AUTO 17007KT 10SM OVC120 06/01 A3000 910 73 0 180/07 RMK AO2 SLP163 T00560011 401170017
04850KAOH AOH20160229235510802/29/16 23:55:31  5-MIN KAOH 010455Z AUTO 17007KT 10SM OVC120 06/01 A2999 910 73 0 180/07 RMK AO2 T00560011
