24044KAIA AIA20160601000010906/01/16 00:00:31  5-MIN KAIA 010700Z AUTO 25008KT 10SM CLR 03/02 A3015 3730 92 3200 240/08 RMK AO2 T00280017
24044KAIA AIA20160601000510906/01/16 00:05:31  5-MIN KAIA 010705Z AUTO 26007KT 10SM CLR 03/02 A3015 3720 92 3200 250/07 RMK AO2 T00280017
24044KAIA AIA20160601001010906/01/16 00:10:31  5-MIN KAIA 010710Z AUTO 26007KT 10SM CLR 03/02 A3015 3720 92 3200 250/07 RMK AO2 T00280017
24044KAIA AIA20160601001510906/01/16 00:15:31  5-MIN KAIA 010715Z AUTO 26006KT 10SM CLR 03/02 A3015 3720 92 3200 260/06 RMK AO2 T00280017
24044KAIA AIA20160601002010906/01/16 00:20:31  5-MIN KAIA 010720Z AUTO 26008KT 10SM CLR 03/02 A3015 3720 92 3200 250/08 RMK AO2 T00280017
24044KAIA AIA20160601002510906/01/16 00:25:31  5-MIN KAIA 010725Z AUTO 27007KT 10SM CLR 03/02 A3015 3720 92 3200 260/07 RMK AO2 T00280017
24044KAIA AIA20160601003010906/01/16 00:30:31  5-MIN KAIA 010730Z AUTO 25006KT 10SM CLR 03/02 A3015 3720 92 3200 240/06 RMK AO2 T00280017
24044KAIA AIA20160601003510906/01/16 00:35:31  5-MIN KAIA 010735Z AUTO 26007KT 10SM CLR 02/02 A3015 3720 96 3100 260/07 RMK AO2 T00220017
24044KAIA AIA20160601004010906/01/16 00:40:31  5-MIN KAIA 010740Z AUTO 27006KT 10SM CLR 02/01 A3016 3720 92 3100 260/06 RMK AO2 T00220011
24044KAIA AIA20160601004510906/01/16 00:45:31  5-MIN KAIA 010745Z AUTO 26006KT 10SM CLR 02/01 A3016 3720 92 3100 260/06 RMK AO2 T00220011
24044KAIA AIA20160601005011606/01/16 00:50:31  5-MIN KAIA 010750Z AUTO 26006KT 10SM CLR 02/01 A3016 3710 96 3000 260/06 RMK AO2 SLP201 T00170011
24044KAIA AIA20160601005510906/01/16 00:55:31  5-MIN KAIA 010755Z AUTO 27007KT 10SM CLR 02/01 A3016 3710 96 3000 260/07 RMK AO2 T00170011
24044KAIA AIA20160601010010906/01/16 01:00:31  5-MIN KAIA 010800Z AUTO 28008KT 10SM CLR 02/01 A3016 3710 96 3000 270/08 RMK AO2 T00170011
24044KAIA AIA20160601010510906/01/16 01:05:31  5-MIN KAIA 010805Z AUTO 29006KT 10SM CLR 02/01 A3016 3710 92 3100 280/06 RMK AO2 T00220011
24044KAIA AIA20160601011010906/01/16 01:10:31  5-MIN KAIA 010810Z AUTO 28006KT 10SM CLR 02/01 A3016 3710 92 3100 270/06 RMK AO2 T00220011
24044KAIA AIA20160601011510906/01/16 01:15:31  5-MIN KAIA 010815Z AUTO 27007KT 10SM CLR 02/01 A3016 3710 92 3100 260/07 RMK AO2 T00220011
24044KAIA AIA20160601012010906/01/16 01:20:31  5-MIN KAIA 010820Z AUTO 27008KT 10SM CLR 02/01 A3016 3710 92 3100 260/08 RMK AO2 T00220011
24044KAIA AIA20160601012510906/01/16 01:25:31  5-MIN KAIA 010825Z AUTO 27008KT 10SM CLR 02/01 A3016 3710 92 3100 260/08 RMK AO2 T00220011
24044KAIA AIA20160601013010906/01/16 01:30:31  5-MIN KAIA 010830Z AUTO 26007KT 10SM CLR 02/01 A3017 3710 92 3100 250/07 RMK AO2 T00220011
24044KAIA AIA20160601013510906/01/16 01:35:31  5-MIN KAIA 010835Z AUTO 25007KT 10SM CLR 02/01 A3017 3710 96 3000 240/07 RMK AO2 T00170011
24044KAIA AIA20160601014010906/01/16 01:40:31  5-MIN KAIA 010840Z AUTO 25007KT 10SM CLR 02/01 A3017 3710 92 3000 240/07 RMK AO2 T00170006
24044KAIA AIA20160601014510906/01/16 01:45:31  5-MIN KAIA 010845Z AUTO 25006KT 10SM CLR 01/01 A3017 3710 96 3000 240/06 RMK AO2 T00110006
24044KAIA AIA20160601015012206/01/16 01:50:31  5-MIN KAIA 010850Z AUTO 27006KT 10SM CLR 01/01 A3017 3710 96 3000 260/06 RMK AO2 SLP207 T00110006 51013
24044KAIA AIA20160601015510906/01/16 01:55:31  5-MIN KAIA 010855Z AUTO 28007KT 10SM CLR 02/01 A3017 3710 92 3100 270/07 RMK AO2 T00220011
24044KAIA AIA20160601020010906/01/16 02:00:31  5-MIN KAIA 010900Z AUTO 30007KT 10SM CLR 02/01 A3017 3710 92 3100 290/07 RMK AO2 T00220011
24044KAIA AIA20160601020510906/01/16 02:05:31  5-MIN KAIA 010905Z AUTO 29006KT 10SM CLR 03/02 A3017 3710 92 3200 280/06 RMK AO2 T00280017
24044KAIA AIA20160601021010906/01/16 02:10:31  5-MIN KAIA 010910Z AUTO 28006KT 10SM CLR 03/02 A3017 3710 92 3200 270/06 RMK AO2 T00280017
24044KAIA AIA20160601021510906/01/16 02:15:31  5-MIN KAIA 010915Z AUTO 25005KT 10SM CLR 02/01 A3017 3710 96 3000 240/05 RMK AO2 T00170011
24044KAIA AIA20160601022010906/01/16 02:20:31  5-MIN KAIA 010920Z AUTO 24006KT 10SM CLR 01/01 A3017 3700 96 3000 230/06 RMK AO2 T00110006
24044KAIA AIA20160601022510906/01/16 02:25:31  5-MIN KAIA 010925Z AUTO 26008KT 10SM CLR 02/01 A3017 3710 92 3000 250/08 RMK AO2 T00170006
24044KAIA AIA20160601023010906/01/16 02:30:31  5-MIN KAIA 010930Z AUTO 28007KT 10SM CLR 02/01 A3016 3710 92 3100 270/07 RMK AO2 T00220011
24044KAIA AIA20160601023510906/01/16 02:35:31  5-MIN KAIA 010935Z AUTO 29007KT 10SM CLR 03/02 A3016 3710 92 3200 280/07 RMK AO2 T00280017
24044KAIA AIA20160601024010906/01/16 02:40:31  5-MIN KAIA 010940Z AUTO 28006KT 10SM CLR 03/02 A3016 3710 92 3200 280/06 RMK AO2 T00280017
24044KAIA AIA20160601024510906/01/16 02:45:31  5-MIN KAIA 010945Z AUTO 27006KT 10SM CLR 02/01 A3016 3710 92 3100 270/06 RMK AO2 T00220011
24044KAIA AIA20160601025011606/01/16 02:50:31  5-MIN KAIA 010950Z AUTO 27007KT 10SM CLR 02/01 A3016 3710 92 3000 260/07 RMK AO2 SLP204 T00170006
24044KAIA AIA20160601025510906/01/16 02:55:31  5-MIN KAIA 010955Z AUTO 26007KT 10SM CLR 01/01 A3016 3710 96 3000 250/07 RMK AO2 T00110006
24044KAIA AIA20160601030010906/01/16 03:00:31  5-MIN KAIA 011000Z AUTO 27007KT 10SM CLR 02/01 A3016 3710 92 3000 260/07 RMK AO2 T00170006
24044KAIA AIA20160601030510906/01/16 03:05:31  5-MIN KAIA 011005Z AUTO 28007KT 10SM CLR 02/01 A3016 3710 92 3000 270/07 RMK AO2 T00170006
24044KAIA AIA20160601031010906/01/16 03:10:31  5-MIN KAIA 011010Z AUTO 27008KT 10SM CLR 02/01 A3016 3710 92 3000 270/08 RMK AO2 T00170006
24044KAIA AIA20160601031510906/01/16 03:15:31  5-MIN KAIA 011015Z AUTO 27008KT 10SM CLR 02/01 A3016 3710 92 3000 260/08 RMK AO2 T00170006
24044KAIA AIA20160601032010906/01/16 03:20:31  5-MIN KAIA 011020Z AUTO 28006KT 10SM CLR 01/01 A3016 3710 96 3000 270/06 RMK AO2 T00110006
24044KAIA AIA20160601032510906/01/16 03:25:31  5-MIN KAIA 011025Z AUTO 28007KT 10SM CLR 02/01 A3016 3710 92 3000 270/07 RMK AO2 T00170006
24044KAIA AIA20160601033010906/01/16 03:30:31  5-MIN KAIA 011030Z AUTO 27008KT 10SM CLR 02/01 A3016 3710 96 3000 260/08 RMK AO2 T00170011
24044KAIA AIA20160601033510906/01/16 03:35:31  5-MIN KAIA 011035Z AUTO 27006KT 10SM CLR 02/01 A3016 3710 96 3000 270/06 RMK AO2 T00170011
24044KAIA AIA20160601034010906/01/16 03:40:31  5-MIN KAIA 011040Z AUTO 28008KT 10SM CLR 02/01 A3016 3710 92 3100 270/08 RMK AO2 T00220011
24044KAIA AIA20160601034511206/01/16 03:45:31  5-MIN KAIA 011045Z AUTO 28008KT 10SM FEW110 03/02 A3016 3710 92 3200 270/08 RMK AO2 T00280017
24044KAIA AIA20160601035011906/01/16 03:50:31  5-MIN KAIA 011050Z AUTO 29008KT 10SM FEW110 03/02 A3016 3710 96 3200 280/08 RMK AO2 SLP201 T00280022
24044KAIA AIA20160601035511206/01/16 03:55:31  5-MIN KAIA 011055Z AUTO 29008KT 10SM FEW100 03/02 A3016 3710 92 3200 280/08 RMK AO2 T00330022
24044KAIA AIA20160601040010706/01/16 04:00:31  5-MIN KAIA 011100Z AUTO 29008KT 10SM 04/02 A3016 3710 89 3300 290/08 RMK AO2 T00390022 $
24044KAIA AIA20160601040510706/01/16 04:05:31  5-MIN KAIA 011105Z AUTO 29008KT 10SM 03/02 A3016 3710 92 3200 280/08 RMK AO2 T00330022 $
24044KAIA AIA20160601041010706/01/16 04:10:31  5-MIN KAIA 011110Z AUTO 29007KT 10SM 03/02 A3016 3720 92 3200 290/07 RMK AO2 T00330022 $
24044KAIA AIA20160601041510706/01/16 04:15:31  5-MIN KAIA 011115Z AUTO 27008KT 10SM 03/02 A3016 3710 92 3200 260/08 RMK AO2 T00330022 $
24044KAIA AIA20160601042010706/01/16 04:20:31  5-MIN KAIA 011120Z AUTO 28009KT 10SM 03/02 A3016 3710 92 3200 280/09 RMK AO2 T00280017 $
24044KAIA AIA20160601042510706/01/16 04:25:31  5-MIN KAIA 011125Z AUTO 29008KT 10SM 03/02 A3016 3710 92 3200 280/08 RMK AO2 T00330022 $
24044KAIA AIA20160601043011406/01/16 04:30:31  5-MIN KAIA 011130Z AUTO 29008KT 10SM FEW110 03/02 A3016 3710 92 3200 280/08 RMK AO2 T00330022 $
24044KAIA AIA20160601043511406/01/16 04:35:31  5-MIN KAIA 011135Z AUTO 28006KT 10SM FEW110 03/02 A3016 3710 92 3200 270/06 RMK AO2 T00330022 $
24044KAIA AIA20160601044011406/01/16 04:40:31  5-MIN KAIA 011140Z AUTO 30007KT 10SM SCT100 04/03 A3016 3710 92 3300 290/07 RMK AO2 T00390028 $
24044KAIA AIA20160601044511406/01/16 04:45:31  5-MIN KAIA 011145Z AUTO 30006KT 10SM BKN100 04/03 A3016 3710 89 3400 290/06 RMK AO2 T00440028 $
24044KAIA AIA20160601045013906/01/16 04:50:31  5-MIN KAIA 011150Z AUTO 29005KT 10SM BKN100 05/03 A3016 3710 89 3400 280/05 RMK AO2 SLP198 T00500033 10078 20011 51010 $
24044KAIA AIA20160601045511406/01/16 04:55:31  5-MIN KAIA 011155Z AUTO 29006KT 10SM BKN100 05/03 A3016 3710 89 3400 280/06 RMK AO2 T00500033 $
24044KAIA AIA20160601050011406/01/16 05:00:31  5-MIN KAIA 011200Z AUTO 29005KT 10SM OVC100 06/03 A3016 3710 85 3500 280/05 RMK AO2 T00560033 $
24044KAIA AIA20160601050511406/01/16 05:05:31  5-MIN KAIA 011205Z AUTO 29006KT 10SM OVC100 06/04 A3016 3710 89 3500 280/06 RMK AO2 T00560039 $
24044KAIA AIA20160601051011406/01/16 05:10:31  5-MIN KAIA 011210Z AUTO 29006KT 10SM OVC100 06/04 A3016 3720 89 3500 280/06 RMK AO2 T00560039 $
24044KAIA AIA20160601051511406/01/16 05:15:31  5-MIN KAIA 011215Z AUTO 29006KT 10SM OVC100 06/04 A3016 3720 86 3600 290/06 RMK AO2 T00610039 $
24044KAIA AIA20160601052011406/01/16 05:20:31  5-MIN KAIA 011220Z AUTO 29006KT 10SM OVC100 06/04 A3015 3720 86 3600 290/06 RMK AO2 T00610039 $
24044KAIA AIA20160601052511406/01/16 05:25:31  5-MIN KAIA 011225Z AUTO 29006KT 10SM OVC100 06/04 A3015 3720 89 3600 280/06 RMK AO2 T00610044 $
24044KAIA AIA20160601053011406/01/16 05:30:31  5-MIN KAIA 011230Z AUTO 28005KT 10SM OVC100 06/04 A3016 3720 89 3600 270/05 RMK AO2 T00610044 $
24044KAIA AIA20160601053511406/01/16 05:35:31  5-MIN KAIA 011235Z AUTO 27004KT 10SM OVC100 07/04 A3016 3720 86 3600 260/04 RMK AO2 T00670044 $
24044KAIA AIA20160601054011406/01/16 05:40:31  5-MIN KAIA 011240Z AUTO 26006KT 10SM OVC100 07/05 A3016 3710 89 3600 250/06 RMK AO2 T00670050 $
24044KAIA AIA20160601054511406/01/16 05:45:31  5-MIN KAIA 011245Z AUTO 27005KT 10SM OVC100 07/05 A3016 3710 89 3600 260/05 RMK AO2 T00670050 $
24044KAIA AIA20160601055012106/01/16 05:50:31  5-MIN KAIA 011250Z AUTO 27005KT 10SM BKN100 07/05 A3016 3710 89 3600 260/05 RMK AO2 SLP199 T00670050 $
24044KAIA AIA20160601055511406/01/16 05:55:31  5-MIN KAIA 011255Z AUTO 28005KT 10SM BKN100 07/05 A3017 3710 89 3600 270/05 RMK AO2 T00670050 $
24044KAIA AIA20160601060011406/01/16 06:00:31  5-MIN KAIA 011300Z AUTO 28006KT 10SM BKN100 07/05 A3017 3710 86 3700 270/06 RMK AO2 T00720050 $
24044KAIA AIA20160601060511406/01/16 06:05:31  5-MIN KAIA 011305Z AUTO 28006KT 10SM BKN110 08/06 A3017 3710 86 3800 270/06 RMK AO2 T00780056 $
24044KAIA AIA20160601061011406/01/16 06:10:31  5-MIN KAIA 011310Z AUTO 28006KT 10SM BKN110 08/06 A3017 3710 86 3800 280/06 RMK AO2 T00780056 $
24044KAIA AIA20160601061511406/01/16 06:15:31  5-MIN KAIA 011315Z AUTO 30006KT 10SM BKN110 08/06 A3017 3710 82 3800 290/06 RMK AO2 T00830056 $
24044KAIA AIA20160601062011406/01/16 06:20:31  5-MIN KAIA 011320Z AUTO 29006KT 10SM BKN100 09/06 A3016 3710 79 3900 280/06 RMK AO2 T00890056 $
24044KAIA AIA20160601062511406/01/16 06:25:31  5-MIN KAIA 011325Z AUTO 29006KT 10SM BKN110 09/06 A3016 3710 79 4000 280/06 RMK AO2 T00940061 $
24044KAIA AIA20160601063011406/01/16 06:30:31  5-MIN KAIA 011330Z AUTO 29007KT 10SM OVC110 09/06 A3016 3710 79 4000 280/07 RMK AO2 T00940061 $
24044KAIA AIA20160601063511406/01/16 06:35:31  5-MIN KAIA 011335Z AUTO 29007KT 10SM OVC100 10/06 A3017 3710 77 4000 280/07 RMK AO2 T01000061 $
24044KAIA AIA20160601064011406/01/16 06:40:31  5-MIN KAIA 011340Z AUTO 29007KT 10SM OVC100 10/06 A3017 3710 77 4000 280/07 RMK AO2 T01000061 $
24044KAIA AIA20160601064511406/01/16 06:45:31  5-MIN KAIA 011345Z AUTO 29007KT 10SM OVC100 11/06 A3017 3700 74 4100 280/07 RMK AO2 T01060061 $
24044KAIA AIA20160601065012106/01/16 06:50:31  5-MIN KAIA 011350Z AUTO 28008KT 10SM OVC100 11/06 A3017 3700 74 4100 280/08 RMK AO2 SLP200 T01060061 $
24044KAIA AIA20160601065511406/01/16 06:55:31  5-MIN KAIA 011355Z AUTO 30007KT 10SM OVC100 11/06 A3017 3700 71 4100 290/07 RMK AO2 T01110061 $
24044KAIA AIA20160601070011206/01/16 07:00:31  5-MIN KAIA 011400Z AUTO 29007KT 10SM BKN100 11/06 A3017 3700 71 4100 280/07 RMK AO2 T01110061
24044KAIA AIA20160601070511206/01/16 07:05:31  5-MIN KAIA 011405Z AUTO 28007KT 10SM OVC100 12/07 A3017 3700 71 4200 270/07 RMK AO2 T01170067
24044KAIA AIA20160601071011906/01/16 07:10:31  5-MIN KAIA 011410Z AUTO 28007KT 10SM SCT090 OVC100 12/06 A3018 3700 68 4200 270/07 RMK AO2 T01170061
24044KAIA AIA20160601071511906/01/16 07:15:31  5-MIN KAIA 011415Z AUTO 28006KT 10SM SCT085 OVC100 12/07 A3018 3700 68 4300 280/06 RMK AO2 T01220067
24044KAIA AIA20160601072011906/01/16 07:20:31  5-MIN KAIA 011420Z AUTO 29007KT 10SM FEW070 OVC100 12/06 A3018 3700 68 4200 280/07 RMK AO2 T01170061
24044KAIA AIA20160601072511906/01/16 07:25:31  5-MIN KAIA 011425Z AUTO 29006KT 10SM FEW070 OVC100 13/07 A3017 3700 66 4300 280/06 RMK AO2 T01280067
24044KAIA AIA20160601073011906/01/16 07:30:31  5-MIN KAIA 011430Z AUTO 30007KT 10SM FEW065 BKN095 13/06 A3017 3700 63 4300 290/07 RMK AO2 T01280061
24044KAIA AIA20160601073512606/01/16 07:35:31  5-MIN KAIA 011435Z AUTO 31007KT 10SM FEW065 SCT080 BKN100 12/06 A3017 3700 66 4300 300/07 RMK AO2 T01220061
24044KAIA AIA20160601074012606/01/16 07:40:31  5-MIN KAIA 011440Z AUTO 30007KT 10SM FEW065 FEW075 BKN100 14/07 A3017 3700 61 4500 290/07 RMK AO2 T01390067
24044KAIA AIA20160601074511906/01/16 07:45:31  5-MIN KAIA 011445Z AUTO 31008KT 10SM FEW065 SCT100 14/06 A3017 3710 59 4500 300/08 RMK AO2 T01390061
24044KAIA AIA20160601075013206/01/16 07:50:31  5-MIN KAIA 011450Z AUTO 32007KT 10SM FEW065 FEW100 14/06 A3017 3710 57 4500 310/07 RMK AO2 SLP196 T01440061 55001
24044KAIA AIA20160601075511906/01/16 07:55:31  5-MIN KAIA 011455Z AUTO 32008KT 10SM FEW060 FEW100 14/06 A3016 3710 55 4500 320/08 RMK AO2 T01440056
24044KAIA AIA20160601080011206/01/16 08:00:31  5-MIN KAIA 011500Z AUTO 30009KT 10SM FEW060 15/06 A3016 3710 53 4600 290/09 RMK AO2 T01500056
24044KAIA AIA20160601080510906/01/16 08:05:31  5-MIN KAIA 011505Z AUTO 31008KT 10SM CLR 15/04 A3016 3710 49 4600 300/08 RMK AO2 T01500044
24044KAIA AIA20160601081011206/01/16 08:10:31  5-MIN KAIA 011510Z AUTO 31008KT 10SM FEW060 15/05 A3016 3710 51 4600 300/08 RMK AO2 T01500050
24044KAIA AIA20160601081511206/01/16 08:15:31  5-MIN KAIA 011515Z AUTO 32009KT 10SM FEW060 16/04 A3016 3710 47 4700 310/09 RMK AO2 T01560044
24044KAIA AIA20160601082011906/01/16 08:20:31  5-MIN KAIA 011520Z AUTO 27009KT 10SM FEW065 FEW100 16/04 A3016 3710 47 4700 260/09 RMK AO2 T01560044
24044KAIA AIA20160601082511906/01/16 08:25:31  5-MIN KAIA 011525Z AUTO 29008KT 10SM FEW065 FEW100 14/04 A3016 3720 51 4500 280/08 RMK AO2 T01440044
24044KAIA AIA20160601083011906/01/16 08:30:31  5-MIN KAIA 011530Z AUTO 29006KT 10SM FEW065 FEW100 15/05 A3015 3720 51 4600 280/06 RMK AO2 T01500050
24044KAIA AIA20160601083511906/01/16 08:35:31  5-MIN KAIA 011535Z AUTO 30007KT 10SM FEW065 FEW100 16/05 A3015 3720 49 4700 290/07 RMK AO2 T01560050
24044KAIA AIA20160601084011206/01/16 08:40:31  5-MIN KAIA 011540Z AUTO 28007KT 10SM FEW100 16/04 A3015 3720 45 4700 270/07 RMK AO2 T01610044
24044KAIA AIA20160601084511206/01/16 08:45:31  5-MIN KAIA 011545Z AUTO 28006KT 10SM FEW100 16/04 A3015 3730 45 4700 270/06 RMK AO2 T01610044
24044KAIA AIA20160601085011606/01/16 08:50:31  5-MIN KAIA 011550Z AUTO 33007KT 10SM CLR 16/05 A3014 3730 47 4800 330/07 RMK AO2 SLP187 T01610050
24044KAIA AIA20160601085510906/01/16 08:55:31  5-MIN KAIA 011555Z AUTO 33007KT 10SM CLR 17/04 A3014 3730 44 4800 320/07 RMK AO2 T01670044
24044KAIA AIA20160601090013106/01/16 09:00:31  5-MIN KAIA 011600Z AUTO 31010G14KT 270V350 10SM CLR 17/05 A3014 3740 45 4800 300/10G14 260V340 RMK AO2 T01670050
24044KAIA AIA20160601090511506/01/16 09:05:31  5-MIN KAIA 011605Z AUTO 35008G14KT 10SM CLR 17/04 A3014 3740 44 4800 350/08G14 RMK AO2 T01670044
24044KAIA AIA20160601091010906/01/16 09:10:31  5-MIN KAIA 011610Z AUTO 33007KT 10SM CLR 17/03 A3014 3740 40 4800 320/07 RMK AO2 T01670033
24044KAIA AIA20160601091511206/01/16 09:15:31  5-MIN KAIA 011615Z AUTO 35006KT 10SM FEW070 17/03 A3013 3740 39 4800 340/06 RMK AO2 T01670028
24044KAIA AIA20160601092011206/01/16 09:20:31  5-MIN KAIA 011620Z AUTO 31008KT 10SM SCT070 17/03 A3013 3740 39 4800 300/08 RMK AO2 T01670028
24044KAIA AIA20160601192510906/01/16 19:25:31  5-MIN KAIA 020225Z AUTO 17006KT 10SM CLR 15/10 A3006 3800 72 4700 170/06 RMK AO2 T01500100
24044KAIA AIA20160601193010906/01/16 19:30:31  5-MIN KAIA 020230Z AUTO 17006KT 10SM CLR 14/10 A3006 3800 77 4600 160/06 RMK AO2 T01390100
24044KAIA AIA20160601193510906/01/16 19:35:31  5-MIN KAIA 020235Z AUTO 16006KT 10SM CLR 13/10 A3007 3800 80 4500 150/06 RMK AO2 T01330100
24044KAIA AIA20160601194010906/01/16 19:40:31  5-MIN KAIA 020240Z AUTO 15006KT 10SM CLR 13/10 A3007 3800 80 4500 140/06 RMK AO2 T01330100
24044KAIA AIA20160601194510906/01/16 19:45:31  5-MIN KAIA 020245Z AUTO 15008KT 10SM CLR 13/10 A3007 3800 80 4500 150/08 RMK AO2 T01330100
24044KAIA AIA20160601195012206/01/16 19:50:31  5-MIN KAIA 020250Z AUTO 16007KT 10SM CLR 13/10 A3007 3800 80 4500 150/07 RMK AO2 SLP161 T01330100 56013
24044KAIA AIA20160601195510906/01/16 19:55:31  5-MIN KAIA 020255Z AUTO 16007KT 10SM CLR 13/10 A3007 3800 83 4500 150/07 RMK AO2 T01280100
24044KAIA AIA20160601200010906/01/16 20:00:31  5-MIN KAIA 020300Z AUTO 14007KT 10SM CLR 12/09 A3007 3800 83 4400 130/07 RMK AO2 T01220094
24044KAIA AIA20160601200510906/01/16 20:05:31  5-MIN KAIA 020305Z AUTO 14007KT 10SM CLR 12/09 A3007 3800 86 4300 130/07 RMK AO2 T01170094
24044KAIA AIA20160601201010906/01/16 20:10:31  5-MIN KAIA 020310Z AUTO 14008KT 10SM CLR 12/09 A3007 3800 83 4400 130/08 RMK AO2 T01220094
24044KAIA AIA20160601201510906/01/16 20:15:31  5-MIN KAIA 020315Z AUTO 15008KT 10SM CLR 12/09 A3007 3800 83 4400 140/08 RMK AO2 T01220094
24044KAIA AIA20160601202010906/01/16 20:20:31  5-MIN KAIA 020320Z AUTO 15008KT 10SM CLR 12/09 A3007 3800 83 4400 140/08 RMK AO2 T01220094
24044KAIA AIA20160601202505006/01/16 20:25:31  5-MIN KAIA 020325Z AUTO RVRNO $
24044KAIA AIA20160601203010206/01/16 20:30:31  5-MIN KAIA 020330Z AUTO 13006KT 12/09 A3008 3790 83 4300 130/06 RMK AO2 T01170089 $
24044KAIA AIA20160601203510206/01/16 20:35:31  5-MIN KAIA 020335Z AUTO 13006KT 12/09 A3008 3790 86 4300 120/06 RMK AO2 T01170094 $
24044KAIA AIA20160601204010706/01/16 20:40:31  5-MIN KAIA 020340Z AUTO 15005KT 10SM 12/09 A3008 3790 86 4300 140/05 RMK AO2 T01170094 $
24044KAIA AIA20160601204510706/01/16 20:45:31  5-MIN KAIA 020345Z AUTO 14006KT 10SM 12/09 A3008 3790 86 4300 130/06 RMK AO2 T01170094 $
24044KAIA AIA20160601205011406/01/16 20:50:31  5-MIN KAIA 020350Z AUTO 15006KT 10SM 12/09 A3008 3790 86 4300 140/06 RMK AO2 SLP166 T01170094 $
24044KAIA AIA20160601205510706/01/16 20:55:31  5-MIN KAIA 020355Z AUTO 15007KT 10SM 12/09 A3008 3780 86 4300 140/07 RMK AO2 T01170094 $
24044KAIA AIA20160601210011106/01/16 21:00:31  5-MIN KAIA 020400Z AUTO 15007KT 10SM CLR 11/09 A3008 3780 89 4200 150/07 RMK AO2 T01110094 $
24044KAIA AIA20160601210511106/01/16 21:05:31  5-MIN KAIA 020405Z AUTO 16007KT 10SM CLR 11/09 A3008 3780 86 4200 150/07 RMK AO2 T01110089 $
24044KAIA AIA20160601211011106/01/16 21:10:31  5-MIN KAIA 020410Z AUTO 15006KT 10SM CLR 11/09 A3009 3780 86 4200 140/06 RMK AO2 T01110089 $
24044KAIA AIA20160601211511106/01/16 21:15:31  5-MIN KAIA 020415Z AUTO 15006KT 10SM CLR 11/09 A3009 3780 89 4200 140/06 RMK AO2 T01110094 $
24044KAIA AIA20160601212011106/01/16 21:20:31  5-MIN KAIA 020420Z AUTO 15006KT 10SM CLR 11/09 A3009 3780 89 4200 140/06 RMK AO2 T01110094 $
24044KAIA AIA20160601212511106/01/16 21:25:31  5-MIN KAIA 020425Z AUTO 14005KT 10SM CLR 11/09 A3009 3780 89 4200 140/05 RMK AO2 T01110094 $
24044KAIA AIA20160601213011106/01/16 21:30:31  5-MIN KAIA 020430Z AUTO 15005KT 10SM CLR 12/09 A3009 3780 86 4300 140/05 RMK AO2 T01170094 $
24044KAIA AIA20160601213511106/01/16 21:35:31  5-MIN KAIA 020435Z AUTO 15004KT 10SM CLR 12/09 A3009 3780 86 4300 140/04 RMK AO2 T01170094 $
24044KAIA AIA20160601214011106/01/16 21:40:31  5-MIN KAIA 020440Z AUTO 14004KT 10SM CLR 12/09 A3009 3780 86 4300 140/04 RMK AO2 T01170094 $
24044KAIA AIA20160601214511106/01/16 21:45:31  5-MIN KAIA 020445Z AUTO 14005KT 10SM CLR 12/10 A3008 3780 89 4300 130/05 RMK AO2 T01170100 $
24044KAIA AIA20160601215011806/01/16 21:50:31  5-MIN KAIA 020450Z AUTO 14004KT 10SM CLR 12/10 A3008 3780 86 4400 130/04 RMK AO2 SLP163 T01220100 $
24044KAIA AIA20160601215511106/01/16 21:55:31  5-MIN KAIA 020455Z AUTO 13004KT 10SM CLR 12/09 A3008 3790 83 4400 120/04 RMK AO2 T01220094 $
24044KAIA AIA20160601220011106/01/16 22:00:31  5-MIN KAIA 020500Z AUTO 12003KT 10SM CLR 11/09 A3008 3790 86 4200 110/03 RMK AO2 T01110089 $
24044KAIA AIA20160601220511106/01/16 22:05:31  5-MIN KAIA 020505Z AUTO 00000KT 10SM CLR 11/09 A3008 3790 86 4200 000/00 RMK AO2 T01110089 $
24044KAIA AIA20160601221011106/01/16 22:10:31  5-MIN KAIA 020510Z AUTO 14003KT 10SM CLR 11/09 A3008 3790 86 4200 140/03 RMK AO2 T01110089 $
24044KAIA AIA20160601221511106/01/16 22:15:31  5-MIN KAIA 020515Z AUTO 15003KT 10SM CLR 11/09 A3008 3790 89 4200 140/03 RMK AO2 T01110094 $
24044KAIA AIA20160601222011106/01/16 22:20:31  5-MIN KAIA 020520Z AUTO 14005KT 10SM CLR 12/09 A3008 3790 86 4300 140/05 RMK AO2 T01170094 $
24044KAIA AIA20160601222511106/01/16 22:25:31  5-MIN KAIA 020525Z AUTO 15004KT 10SM CLR 11/09 A3008 3790 89 4200 140/04 RMK AO2 T01110094 $
24044KAIA AIA20160601223011106/01/16 22:30:31  5-MIN KAIA 020530Z AUTO 15003KT 10SM CLR 11/09 A3008 3790 89 4300 140/03 RMK AO2 T01110094 $
24044KAIA AIA20160601223511106/01/16 22:35:31  5-MIN KAIA 020535Z AUTO 14003KT 10SM CLR 11/09 A3008 3790 89 4300 140/03 RMK AO2 T01110094 $
24044KAIA AIA20160601224011106/01/16 22:40:31  5-MIN KAIA 020540Z AUTO 16004KT 10SM CLR 11/09 A3008 3790 89 4300 150/04 RMK AO2 T01110094 $
24044KAIA AIA20160601224511106/01/16 22:45:31  5-MIN KAIA 020545Z AUTO 16005KT 10SM CLR 11/09 A3008 3790 89 4300 150/05 RMK AO2 T01110094 $
24044KAIA AIA20160601225013006/01/16 22:50:31  5-MIN KAIA 020550Z AUTO 16005KT 10SM CLR 11/09 A3007 3790 93 4200 150/05 RMK AO2 SLP160 T01060094 10222 20106 $
24044KAIA AIA20160601225511106/01/16 22:55:31  5-MIN KAIA 020555Z AUTO 16006KT 10SM CLR 11/09 A3007 3790 93 4200 150/06 RMK AO2 T01060094 $
24044KAIA AIA20160601230011106/01/16 23:00:31  5-MIN KAIA 020600Z AUTO 16007KT 10SM CLR 10/09 A3007 3790 96 4100 160/07 RMK AO2 T01000094 $
24044KAIA AIA20160601230511106/01/16 23:05:31  5-MIN KAIA 020605Z AUTO 17007KT 10SM CLR 09/08 A3008 3790 93 4100 160/07 RMK AO2 T00940083 $
24044KAIA AIA20160601231011106/01/16 23:10:31  5-MIN KAIA 020610Z AUTO 17005KT 10SM CLR 09/08 A3008 3790 93 4100 160/05 RMK AO2 T00940083 $
24044KAIA AIA20160601231511106/01/16 23:15:31  5-MIN KAIA 020615Z AUTO 20003KT 10SM CLR 09/08 A3008 3790 93 4000 190/03 RMK AO2 T00890078 $
24044KAIA AIA20160601232011106/01/16 23:20:31  5-MIN KAIA 020620Z AUTO 18004KT 10SM CLR 09/08 A3008 3790 93 4000 170/04 RMK AO2 T00890078 $
24044KAIA AIA20160601232511106/01/16 23:25:31  5-MIN KAIA 020625Z AUTO 18005KT 10SM CLR 09/08 A3008 3790 93 4100 170/05 RMK AO2 T00940083 $
24044KAIA AIA20160601233011106/01/16 23:30:31  5-MIN KAIA 020630Z AUTO 18004KT 10SM CLR 10/09 A3007 3790 93 4100 170/04 RMK AO2 T01000089 $
24044KAIA AIA20160601233511106/01/16 23:35:31  5-MIN KAIA 020635Z AUTO 18005KT 10SM CLR 11/09 A3007 3790 89 4200 170/05 RMK AO2 T01060089 $
24044KAIA AIA20160601234011106/01/16 23:40:31  5-MIN KAIA 020640Z AUTO 18005KT 10SM CLR 10/09 A3007 3790 93 4100 170/05 RMK AO2 T01000089 $
24044KAIA AIA20160601234511106/01/16 23:45:31  5-MIN KAIA 020645Z AUTO 17005KT 10SM CLR 10/09 A3007 3800 93 4100 170/05 RMK AO2 T01000089 $
24044KAIA AIA20160601235012806/01/16 23:50:31  5-MIN KAIA 020650Z AUTO 17006KT 10SM CLR 09/08 A3007 3800 93 4100 170/06 RMK AO2 SLP161 T00940083 402280011 $
24044KAIA AIA20160601235511106/01/16 23:55:31  5-MIN KAIA 020655Z AUTO 18007KT 10SM CLR 09/08 A3007 3800 96 4000 170/07 RMK AO2 T00890083 $
24044KAIA AIA20160602000011106/02/16 00:00:31  5-MIN KAIA 020700Z AUTO 18006KT 10SM CLR 08/08 A3007 3800 96 3900 170/06 RMK AO2 T00830078 $
24044KAIA AIA20160602000511106/02/16 00:05:31  5-MIN KAIA 020705Z AUTO 18006KT 10SM CLR 09/08 A3007 3800 93 4000 170/06 RMK AO2 T00890078 $
24044KAIA AIA20160602001011106/02/16 00:10:31  5-MIN KAIA 020710Z AUTO 17006KT 10SM CLR 09/08 A3007 3800 93 4000 170/06 RMK AO2 T00890078 $
24044KAIA AIA20160602001511106/02/16 00:15:31  5-MIN KAIA 020715Z AUTO 17006KT 10SM CLR 08/08 A3007 3800 96 3900 170/06 RMK AO2 T00830078 $
24044KAIA AIA20160602002011106/02/16 00:20:31  5-MIN KAIA 020720Z AUTO 17005KT 10SM CLR 08/08 A3007 3800 96 3900 160/05 RMK AO2 T00830078 $
24044KAIA AIA20160602002511106/02/16 00:25:31  5-MIN KAIA 020725Z AUTO 17006KT 10SM CLR 09/08 A3007 3800 93 4000 160/06 RMK AO2 T00890078 $
24044KAIA AIA20160602003011106/02/16 00:30:31  5-MIN KAIA 020730Z AUTO 18006KT 10SM CLR 09/08 A3007 3800 93 4000 170/06 RMK AO2 T00890078 $
24044KAIA AIA20160602003511106/02/16 00:35:31  5-MIN KAIA 020735Z AUTO 18007KT 10SM CLR 08/08 A3007 3800 96 3900 170/07 RMK AO2 T00830078 $
24044KAIA AIA20160602004011106/02/16 00:40:31  5-MIN KAIA 020740Z AUTO 18008KT 10SM CLR 08/08 A3007 3800 96 3900 170/08 RMK AO2 T00830078 $
24044KAIA AIA20160602004511106/02/16 00:45:31  5-MIN KAIA 020745Z AUTO 18007KT 10SM CLR 09/08 A3007 3800 96 4000 170/07 RMK AO2 T00890083 $
24044KAIA AIA20160602005011806/02/16 00:50:31  5-MIN KAIA 020750Z AUTO 18007KT 10SM CLR 09/08 A3007 3800 93 4100 170/07 RMK AO2 SLP155 T00940083 $
24044KAIA AIA20160602005511106/02/16 00:55:31  5-MIN KAIA 020755Z AUTO 18007KT 10SM CLR 10/09 A3007 3800 93 4100 170/07 RMK AO2 T01000089 $
24044KAIA AIA20160602010011106/02/16 01:00:31  5-MIN KAIA 020800Z AUTO 18007KT 10SM CLR 10/09 A3007 3800 93 4100 170/07 RMK AO2 T01000089 $
24044KAIA AIA20160602010511106/02/16 01:05:31  5-MIN KAIA 020805Z AUTO 18007KT 10SM CLR 10/09 A3007 3800 93 4100 170/07 RMK AO2 T01000089 $
24044KAIA AIA20160602011011106/02/16 01:10:31  5-MIN KAIA 020810Z AUTO 18006KT 10SM CLR 10/09 A3007 3800 96 4100 170/06 RMK AO2 T01000094 $
24044KAIA AIA20160602011511106/02/16 01:15:31  5-MIN KAIA 020815Z AUTO 19006KT 10SM CLR 10/09 A3007 3800 96 4100 180/06 RMK AO2 T01000094 $
24044KAIA AIA20160602012011106/02/16 01:20:31  5-MIN KAIA 020820Z AUTO 18007KT 10SM CLR 11/10 A3007 3800 96 4200 180/07 RMK AO2 T01060100 $
24044KAIA AIA20160602012511106/02/16 01:25:31  5-MIN KAIA 020825Z AUTO 19006KT 10SM CLR 11/11 A3007 3800 96 4300 180/06 RMK AO2 T01110106 $
24044KAIA AIA20160602013011106/02/16 01:30:31  5-MIN KAIA 020830Z AUTO 19006KT 10SM CLR 11/11 A3007 3800 96 4300 180/06 RMK AO2 T01110106 $
24044KAIA AIA20160602013511106/02/16 01:35:31  5-MIN KAIA 020835Z AUTO 19006KT 10SM CLR 11/11 A3007 3800 96 4300 180/06 RMK AO2 T01110106 $
24044KAIA AIA20160602014011106/02/16 01:40:31  5-MIN KAIA 020840Z AUTO 20007KT 10SM CLR 11/11 A3007 3800 96 4300 190/07 RMK AO2 T01110106 $
24044KAIA AIA20160602014511106/02/16 01:45:31  5-MIN KAIA 020845Z AUTO 20007KT 10SM CLR 11/11 A3007 3800 96 4300 190/07 RMK AO2 T01110106 $
24044KAIA AIA20160602015011806/02/16 01:50:31  5-MIN KAIA 020850Z AUTO 21006KT 10SM CLR 11/11 A3007 3800 96 4300 200/06 RMK AO2 SLP153 T01110106 $
24044KAIA AIA20160602015511106/02/16 01:55:31  5-MIN KAIA 020855Z AUTO 21006KT 10SM CLR 11/10 A3007 3800 96 4200 200/06 RMK AO2 T01060100 $
24044KAIA AIA20160602020011106/02/16 02:00:31  5-MIN KAIA 020900Z AUTO 21006KT 10SM CLR 11/10 A3007 3800 96 4200 200/06 RMK AO2 T01060100 $
24044KAIA AIA20160602020511106/02/16 02:05:31  5-MIN KAIA 020905Z AUTO 20006KT 10SM CLR 11/10 A3007 3800 96 4200 200/06 RMK AO2 T01060100 $
24044KAIA AIA20160602021011106/02/16 02:10:31  5-MIN KAIA 020910Z AUTO 20005KT 10SM CLR 10/09 A3007 3800 96 4100 190/05 RMK AO2 T01000094 $
24044KAIA AIA20160602021511106/02/16 02:15:31  5-MIN KAIA 020915Z AUTO 19005KT 10SM CLR 09/09 A3007 3800 96 4100 180/05 RMK AO2 T00940089 $
24044KAIA AIA20160602022011106/02/16 02:20:31  5-MIN KAIA 020920Z AUTO 18005KT 10SM CLR 10/09 A3007 3800 96 4100 170/05 RMK AO2 T01000094 $
24044KAIA AIA20160602022511106/02/16 02:25:31  5-MIN KAIA 020925Z AUTO 18005KT 10SM CLR 10/09 A3007 3800 96 4100 180/05 RMK AO2 T01000094 $
24044KAIA AIA20160602023011106/02/16 02:30:31  5-MIN KAIA 020930Z AUTO 19005KT 10SM CLR 09/09 A3007 3800 96 4100 180/05 RMK AO2 T00940089 $
24044KAIA AIA20160602023511106/02/16 02:35:31  5-MIN KAIA 020935Z AUTO 18004KT 10SM CLR 10/09 A3007 3800 96 4100 170/04 RMK AO2 T01000094 $
24044KAIA AIA20160602024011106/02/16 02:40:31  5-MIN KAIA 020940Z AUTO 18004KT 10SM CLR 10/09 A3007 3800 96 4100 170/04 RMK AO2 T01000094 $
24044KAIA AIA20160602024511206/02/16 02:45:31  5-MIN KAIA 020945Z AUTO 17005KT 10SM CLR 09/09 A3007 3800 100 4100 170/05 RMK AO2 T00940094 $
24044KAIA AIA20160602025011906/02/16 02:50:31  5-MIN KAIA 020950Z AUTO 17005KT 10SM CLR 09/09 A3007 3800 100 4000 160/05 RMK AO2 SLP156 T00890089 $
24044KAIA AIA20160602025511106/02/16 02:55:31  5-MIN KAIA 020955Z AUTO 18006KT 10SM CLR 09/08 A3007 3800 96 4000 170/06 RMK AO2 T00890083 $
24044KAIA AIA20160602030011206/02/16 03:00:31  5-MIN KAIA 021000Z AUTO 17006KT 10SM CLR 09/09 A3007 3800 100 4000 160/06 RMK AO2 T00890089 $
24044KAIA AIA20160602030511106/02/16 03:05:31  5-MIN KAIA 021005Z AUTO 18006KT 10SM CLR 09/08 A3007 3800 96 4000 170/06 RMK AO2 T00890083 $
24044KAIA AIA20160602031011106/02/16 03:10:31  5-MIN KAIA 021010Z AUTO 19005KT 10SM CLR 09/09 A3007 3790 96 4100 180/05 RMK AO2 T00940089 $
24044KAIA AIA20160602031511106/02/16 03:15:31  5-MIN KAIA 021015Z AUTO 20004KT 10SM CLR 09/09 A3007 3800 96 4100 190/04 RMK AO2 T00940089 $
24044KAIA AIA20160602032011206/02/16 03:20:31  5-MIN KAIA 021020Z AUTO 21004KT 10SM CLR 09/09 A3007 3800 100 4000 210/04 RMK AO2 T00890089 $
24044KAIA AIA20160602032511106/02/16 03:25:31  5-MIN KAIA 021025Z AUTO 22004KT 10SM CLR 09/09 A3007 3800 96 4100 210/04 RMK AO2 T00940089 $
24044KAIA AIA20160602033011406/02/16 03:30:31  5-MIN KAIA 021030Z AUTO 22003KT 6SM BR CLR 08/08 A3007 3800 100 3900 220/03 RMK AO2 T00830083 $
24044KAIA AIA20160602033511406/02/16 03:35:31  5-MIN KAIA 021035Z AUTO 22004KT 1SM BR CLR 08/08 A3007 3790 100 3900 220/04 RMK AO2 T00830083 $
24044KAIA AIA20160602034011806/02/16 03:40:31  5-MIN KAIA 021040Z AUTO 27004KT 1/2SM FG VV002 08/08 A3007 3800 100 3900 260/04 RMK AO2 T00780078 $
24044KAIA AIA20160602034511806/02/16 03:45:31  5-MIN KAIA 021045Z AUTO 23004KT 1/2SM FG VV002 08/08 A3007 3800 100 3900 220/04 RMK AO2 T00780078 $
24044KAIA AIA20160602035010506/02/16 03:50:31  5-MIN KAIA 021050Z AUTO 23004KT 1/2SM FG CLR 09/08 A3007 3800 96 4000 220/04 RMK AO2 $
24044KAIA AIA20160602035511606/02/16 03:55:31  5-MIN KAIA 021055Z AUTO 24004KT 1/2SM FG CLR 08/08 A3007 3800 100 3900 230/04 RMK AO2 T00780078 $
24044KAIA AIA20160602040011806/02/16 04:00:31  5-MIN KAIA 021100Z AUTO 28003KT 1/2SM FG VV002 07/07 A3007 3800 100 3700 270/03 RMK AO2 T00670067 $
24044KAIA AIA20160602040511806/02/16 04:05:31  5-MIN KAIA 021105Z AUTO 26003KT 3/4SM BR VV002 07/07 A3007 3800 100 3800 250/03 RMK AO2 T00720072 $
24044KAIA AIA20160602041011606/02/16 04:10:31  5-MIN KAIA 021110Z AUTO 23005KT 3SM BR FEW002 08/07 A3007 3800 96 3900 220/05 RMK AO2 T00780072 $
24044KAIA AIA20160602041511706/02/16 04:15:31  5-MIN KAIA 021115Z AUTO 24006KT 1/2SM FG VV002 07/07 A3007 3800 96 3800 230/06 RMK AO2 T00720067 $
24044KAIA AIA20160602042011806/02/16 04:20:31  5-MIN KAIA 021120Z AUTO 23006KT 1/4SM FG VV002 07/07 A3007 3790 100 3800 230/06 RMK AO2 T00720072 $
24044KAIA AIA20160602042511806/02/16 04:25:31  5-MIN KAIA 021125Z AUTO 24005KT 1/4SM FG VV002 07/07 A3007 3800 100 3700 230/05 RMK AO2 T00670067 $
24044KAIA AIA20160602043011506/02/16 04:30:31  5-MIN KAIA 021130Z AUTO 24006KT 1/2SM FG CLR 08/07 A3007 3790 96 3900 230/06 RMK AO2 T00780072 $
24044KAIA AIA20160602043511406/02/16 04:35:31  5-MIN KAIA 021135Z AUTO 24005KT 2SM BR CLR 08/08 A3007 3790 100 3900 230/05 RMK AO2 T00830083 $
24044KAIA AIA20160602044011106/02/16 04:40:31  5-MIN KAIA 021140Z AUTO 24004KT 7SM CLR 08/08 A3007 3790 100 3900 230/04 RMK AO2 T00780078 $
24044KAIA AIA20160602044511806/02/16 04:45:31  5-MIN KAIA 021145Z AUTO 27004KT 1 1/2SM BR CLR 07/07 A3008 3790 100 3800 260/04 RMK AO2 T00720072 $
24044KAIA AIA20160602045013906/02/16 04:50:31  5-MIN KAIA 021150Z AUTO 26005KT 1SM BR CLR 07/07 A3007 3790 100 3800 250/05 RMK AO2 SLP164 T00720072 10111 20067 56003 $
24044KAIA AIA20160602045511406/02/16 04:55:31  5-MIN KAIA 021155Z AUTO 25005KT 2SM BR CLR 08/08 A3007 3790 100 3900 250/05 RMK AO2 T00780078 $
24044KAIA AIA20160602050011406/02/16 05:00:31  5-MIN KAIA 021200Z AUTO 25004KT 3SM BR CLR 08/08 A3007 3800 100 3900 240/04 RMK AO2 T00780078 $
24044KAIA AIA20160602050511406/02/16 05:05:31  5-MIN KAIA 021205Z AUTO 24004KT 6SM BR CLR 08/08 A3007 3800 100 3900 230/04 RMK AO2 T00780078 $
24044KAIA AIA20160602051011206/02/16 05:10:31  5-MIN KAIA 021210Z AUTO 21003KT 10SM CLR 08/08 A3007 3800 100 3900 200/03 RMK AO2 T00830083 $
24044KAIA AIA20160602051511206/02/16 05:15:31  5-MIN KAIA 021215Z AUTO 21003KT 10SM CLR 08/08 A3006 3800 100 3900 200/03 RMK AO2 T00830083 $
24044KAIA AIA20160602052011106/02/16 05:20:31  5-MIN KAIA 021220Z AUTO 19003KT 10SM CLR 09/08 A3007 3800 96 4000 190/03 RMK AO2 T00890083 $
24044KAIA AIA20160602052511106/02/16 05:25:31  5-MIN KAIA 021225Z AUTO 00000KT 10SM CLR 09/08 A3007 3800 96 4000 000/00 RMK AO2 T00890083 $
24044KAIA AIA20160602053011206/02/16 05:30:31  5-MIN KAIA 021230Z AUTO 00000KT 10SM CLR 09/09 A3006 3800 100 4000 000/00 RMK AO2 T00890089 $
24044KAIA AIA20160602053511206/02/16 05:35:31  5-MIN KAIA 021235Z AUTO 00000KT 10SM CLR 09/09 A3006 3800 100 4000 000/00 RMK AO2 T00890089 $
24044KAIA AIA20160602054011106/02/16 05:40:31  5-MIN KAIA 021240Z AUTO 20003KT 10SM CLR 09/09 A3006 3800 96 4100 190/03 RMK AO2 T00940089 $
24044KAIA AIA20160602054511106/02/16 05:45:31  5-MIN KAIA 021245Z AUTO 00000KT 10SM CLR 10/09 A3006 3800 96 4100 000/00 RMK AO2 T01000094 $
24044KAIA AIA20160602055011806/02/16 05:50:31  5-MIN KAIA 021250Z AUTO 00000KT 10SM CLR 11/10 A3007 3800 96 4200 000/00 RMK AO2 SLP155 T01060100 $
24044KAIA AIA20160602055511106/02/16 05:55:31  5-MIN KAIA 021255Z AUTO 00000KT 10SM CLR 11/11 A3007 3800 96 4300 000/00 RMK AO2 T01110106 $
24044KAIA AIA20160602060011206/02/16 06:00:31  5-MIN KAIA 021300Z AUTO 00000KT 10SM CLR 12/12 A3007 3800 100 4300 000/00 RMK AO2 T01170117 $
24044KAIA AIA20160602060511106/02/16 06:05:31  5-MIN KAIA 021305Z AUTO 28003KT 10SM CLR 12/12 A3007 3800 96 4400 270/03 RMK AO2 T01220117 $
24044KAIA AIA20160602061011106/02/16 06:10:31  5-MIN KAIA 021310Z AUTO 28003KT 10SM CLR 13/12 A3007 3800 89 4500 270/03 RMK AO2 T01330117 $
24044KAIA AIA20160602061511106/02/16 06:15:31  5-MIN KAIA 021315Z AUTO 28003KT 10SM CLR 14/12 A3007 3800 90 4600 270/03 RMK AO2 T01390122 $
24044KAIA AIA20160602062011106/02/16 06:20:31  5-MIN KAIA 021320Z AUTO 24009KT 10SM CLR 14/13 A3006 3800 90 4700 230/09 RMK AO2 T01440128 $
24044KAIA AIA20160602062511106/02/16 06:25:31  5-MIN KAIA 021325Z AUTO 23009KT 10SM CLR 15/13 A3006 3800 86 4700 220/09 RMK AO2 T01500128 $
24044KAIA AIA20160602063011106/02/16 06:30:31  5-MIN KAIA 021330Z AUTO 24011KT 10SM CLR 16/13 A3006 3800 83 4800 230/11 RMK AO2 T01560128 $
24044KAIA AIA20160602063511106/02/16 06:35:31  5-MIN KAIA 021335Z AUTO 25009KT 10SM CLR 16/13 A3006 3800 80 4800 240/09 RMK AO2 T01610128 $
24044KAIA AIA20160602064011106/02/16 06:40:31  5-MIN KAIA 021340Z AUTO 25011KT 10SM CLR 16/13 A3006 3800 80 4800 240/11 RMK AO2 T01610128 $
24044KAIA AIA20160602064511106/02/16 06:45:31  5-MIN KAIA 021345Z AUTO 25011KT 10SM CLR 17/13 A3006 3800 77 4900 240/11 RMK AO2 T01670128 $
24044KAIA AIA20160602065011806/02/16 06:50:31  5-MIN KAIA 021350Z AUTO 24011KT 10SM CLR 17/12 A3006 3800 72 5000 240/11 RMK AO2 SLP152 T01720122 $
24044KAIA AIA20160602065511106/02/16 06:55:31  5-MIN KAIA 021355Z AUTO 26009KT 10SM CLR 17/12 A3007 3800 72 5000 250/09 RMK AO2 T01720122 $
24044KAIA AIA20160602070011106/02/16 07:00:31  5-MIN KAIA 021400Z AUTO 27008KT 10SM CLR 18/13 A3007 3800 72 5000 260/08 RMK AO2 T01780128 $
24044KAIA AIA20160602070511106/02/16 07:05:31  5-MIN KAIA 021405Z AUTO 25009KT 10SM CLR 18/12 A3006 3800 67 5100 250/09 RMK AO2 T01830122 $
24044KAIA AIA20160602071010906/02/16 07:10:31  5-MIN KAIA 021410Z AUTO 26011KT 10SM CLR 18/12 A3006 3800 67 5100 250/11 RMK AO2 T01830122
24044KAIA AIA20160602071510906/02/16 07:15:31  5-MIN KAIA 021415Z AUTO 25009KT 10SM CLR 19/12 A3006 3800 65 5200 250/09 RMK AO2 T01890122
24044KAIA AIA20160602072010906/02/16 07:20:31  5-MIN KAIA 021420Z AUTO 26011KT 10SM CLR 19/12 A3006 3800 65 5200 250/11 RMK AO2 T01890122
24044KAIA AIA20160602072510906/02/16 07:25:31  5-MIN KAIA 021425Z AUTO 25011KT 10SM CLR 19/12 A3006 3800 65 5200 240/11 RMK AO2 T01890122
24044KAIA AIA20160602073010906/02/16 07:30:31  5-MIN KAIA 021430Z AUTO 26010KT 10SM CLR 19/12 A3006 3800 62 5200 250/10 RMK AO2 T01940122
24044KAIA AIA20160602073510906/02/16 07:35:31  5-MIN KAIA 021435Z AUTO 25010KT 10SM CLR 19/12 A3007 3800 62 5200 240/10 RMK AO2 T01940122
24044KAIA AIA20160602074010906/02/16 07:40:31  5-MIN KAIA 021440Z AUTO 25011KT 10SM CLR 20/12 A3007 3800 60 5300 240/11 RMK AO2 T02000122
24044KAIA AIA20160602074510906/02/16 07:45:31  5-MIN KAIA 021445Z AUTO 25011KT 10SM CLR 20/12 A3007 3790 58 5300 240/11 RMK AO2 T02000117
24044KAIA AIA20160602075012206/02/16 07:50:31  5-MIN KAIA 021450Z AUTO 24009KT 10SM CLR 21/12 A3007 3800 58 5300 230/09 RMK AO2 SLP152 T02060122 53002
24044KAIA AIA20160602075510906/02/16 07:55:31  5-MIN KAIA 021455Z AUTO 24010KT 10SM CLR 21/12 A3007 3800 58 5300 230/10 RMK AO2 T02060122
24044KAIA AIA20160602080010906/02/16 08:00:31  5-MIN KAIA 021500Z AUTO 25010KT 10SM CLR 21/12 A3007 3790 58 5300 240/10 RMK AO2 T02060122
24044KAIA AIA20160602080510906/02/16 08:05:31  5-MIN KAIA 021505Z AUTO 23010KT 10SM CLR 21/12 A3007 3790 56 5400 220/10 RMK AO2 T02110122
24044KAIA AIA20160602081010906/02/16 08:10:31  5-MIN KAIA 021510Z AUTO 23010KT 10SM CLR 21/12 A3007 3800 56 5400 220/10 RMK AO2 T02110122
24044KAIA AIA20160602081510906/02/16 08:15:31  5-MIN KAIA 021515Z AUTO 24009KT 10SM CLR 22/12 A3007 3800 54 5500 230/09 RMK AO2 T02170122
24044KAIA AIA20160602082010906/02/16 08:20:31  5-MIN KAIA 021520Z AUTO 25009KT 10SM CLR 21/12 A3007 3800 56 5400 240/09 RMK AO2 T02110122
24044KAIA AIA20160602082510906/02/16 08:25:31  5-MIN KAIA 021525Z AUTO 24008KT 10SM CLR 21/12 A3007 3800 56 5400 230/08 RMK AO2 T02110122
24044KAIA AIA20160602083010906/02/16 08:30:31  5-MIN KAIA 021530Z AUTO 26010KT 10SM CLR 22/12 A3007 3800 54 5500 250/10 RMK AO2 T02170122
24044KAIA AIA20160602083510906/02/16 08:35:31  5-MIN KAIA 021535Z AUTO 24008KT 10SM CLR 22/12 A3007 3800 54 5500 230/08 RMK AO2 T02170122
24044KAIA AIA20160602084010906/02/16 08:40:31  5-MIN KAIA 021540Z AUTO 25009KT 10SM CLR 22/13 A3006 3800 56 5500 240/09 RMK AO2 T02170128
24044KAIA AIA20160602084510906/02/16 08:45:31  5-MIN KAIA 021545Z AUTO 23008KT 10SM CLR 22/12 A3006 3800 54 5500 220/08 RMK AO2 T02170122
24044KAIA AIA20160602085011606/02/16 08:50:31  5-MIN KAIA 021550Z AUTO 24008KT 10SM CLR 22/12 A3006 3800 52 5500 230/08 RMK AO2 SLP150 T02220122
24044KAIA AIA20160602085512506/02/16 08:55:31  5-MIN KAIA 021555Z AUTO 23010KT 200V270 10SM CLR 22/12 A3006 3810 52 5500 220/10 190V260 RMK AO2 T02220122
24044KAIA AIA20160602090010906/02/16 09:00:31  5-MIN KAIA 021600Z AUTO VRB06KT 10SM CLR 22/12 A3006 3810 52 5500 VRB/06 RMK AO2 T02220122
24044KAIA AIA20160602090510906/02/16 09:05:31  5-MIN KAIA 021605Z AUTO 23007KT 10SM CLR 22/12 A3006 3810 52 5500 220/07 RMK AO2 T02220122
24044KAIA AIA20160602091010906/02/16 09:10:31  5-MIN KAIA 021610Z AUTO 22008KT 10SM CLR 23/13 A3006 3810 53 5600 220/08 RMK AO2 T02280128
24044KAIA AIA20160602091510906/02/16 09:15:31  5-MIN KAIA 021615Z AUTO 22008KT 10SM CLR 23/12 A3006 3810 51 5600 220/08 RMK AO2 T02280122
24044KAIA AIA20160602092010906/02/16 09:20:31  5-MIN KAIA 021620Z AUTO 22009KT 10SM CLR 23/12 A3005 3810 51 5600 210/09 RMK AO2 T02280122
24044KAIA AIA20160602092510906/02/16 09:25:31  5-MIN KAIA 021625Z AUTO 23008KT 10SM CLR 23/12 A3006 3810 51 5600 220/08 RMK AO2 T02280122
24044KAIA AIA20160602093010906/02/16 09:30:31  5-MIN KAIA 021630Z AUTO 21007KT 10SM CLR 23/13 A3006 3810 51 5700 200/07 RMK AO2 T02330128
24044KAIA AIA20160602093510906/02/16 09:35:31  5-MIN KAIA 021635Z AUTO 22008KT 10SM CLR 23/12 A3005 3810 49 5700 210/08 RMK AO2 T02330122
24044KAIA AIA20160602094010906/02/16 09:40:31  5-MIN KAIA 021640Z AUTO 23008KT 10SM CLR 23/12 A3005 3810 49 5700 220/08 RMK AO2 T02330122
24044KAIA AIA20160602094510906/02/16 09:45:31  5-MIN KAIA 021645Z AUTO 24010KT 10SM CLR 23/13 A3005 3810 51 5700 230/10 RMK AO2 T02330128
24044KAIA AIA20160602095011606/02/16 09:50:31  5-MIN KAIA 021650Z AUTO 24008KT 10SM CLR 24/12 A3005 3810 47 5700 230/08 RMK AO2 SLP144 T02390122
24044KAIA AIA20160602095510906/02/16 09:55:31  5-MIN KAIA 021655Z AUTO 23008KT 10SM CLR 24/12 A3005 3810 47 5700 220/08 RMK AO2 T02390122
24044KAIA AIA20160602100010906/02/16 10:00:31  5-MIN KAIA 021700Z AUTO VRB05KT 10SM CLR 24/12 A3005 3810 47 5700 VRB/05 RMK AO2 T02390122
24044KAIA AIA20160602100510906/02/16 10:05:31  5-MIN KAIA 021705Z AUTO 22008KT 10SM CLR 24/13 A3005 3810 49 5700 210/08 RMK AO2 T02390128
24044KAIA AIA20160602101010906/02/16 10:10:31  5-MIN KAIA 021710Z AUTO 20006KT 10SM CLR 24/12 A3005 3810 47 5700 190/06 RMK AO2 T02390122
24044KAIA AIA20160602101510906/02/16 10:15:31  5-MIN KAIA 021715Z AUTO 22005KT 10SM CLR 24/12 A3005 3810 46 5800 210/05 RMK AO2 T02440122
24044KAIA AIA20160602102010906/02/16 10:20:31  5-MIN KAIA 021720Z AUTO 21006KT 10SM CLR 24/12 A3005 3820 44 5800 210/06 RMK AO2 T02440117
24044KAIA AIA20160602102510906/02/16 10:25:31  5-MIN KAIA 021725Z AUTO 19009KT 10SM CLR 25/12 A3005 3820 43 5900 180/09 RMK AO2 T02500117
24044KAIA AIA20160602103010906/02/16 10:30:31  5-MIN KAIA 021730Z AUTO 22009KT 10SM CLR 25/11 A3005 3820 41 5900 220/09 RMK AO2 T02500111
24044KAIA AIA20160602103510906/02/16 10:35:31  5-MIN KAIA 021735Z AUTO 20009KT 10SM CLR 25/11 A3004 3820 41 5900 190/09 RMK AO2 T02500111
24044KAIA AIA20160602104010906/02/16 10:40:31  5-MIN KAIA 021740Z AUTO 18008KT 10SM CLR 25/10 A3004 3820 38 5900 180/08 RMK AO2 T02500100
24044KAIA AIA20160602104511506/02/16 10:45:31  5-MIN KAIA 021745Z AUTO 19010G19KT 10SM CLR 26/10 A3004 3820 37 5900 180/10G19 RMK AO2 T02560100
24044KAIA AIA20160602105014006/02/16 10:50:31  5-MIN KAIA 021750Z AUTO 19008G19KT 10SM CLR 26/08 A3004 3820 32 6000 180/08G19 RMK AO2 SLP141 T02610083 10261 20078 55001
24044KAIA AIA20160602105510906/02/16 10:55:31  5-MIN KAIA 021755Z AUTO 18008KT 10SM CLR 26/07 A3004 3820 29 6000 170/08 RMK AO2 T02610072
24044KAIA AIA20160602110010906/02/16 11:00:31  5-MIN KAIA 021800Z AUTO 22008KT 10SM CLR 26/10 A3004 3820 36 6000 210/08 RMK AO2 T02610100
24044KAIA AIA20160602110510906/02/16 11:05:31  5-MIN KAIA 021805Z AUTO 21011KT 10SM CLR 26/09 A3004 3820 33 6000 200/11 RMK AO2 T02610089
24044KAIA AIA20160602111010906/02/16 11:10:31  5-MIN KAIA 021810Z AUTO 17007KT 10SM CLR 26/09 A3004 3820 33 6000 160/07 RMK AO2 T02610089
24044KAIA AIA20160602111510906/02/16 11:15:31  5-MIN KAIA 021815Z AUTO 21005KT 10SM CLR 26/07 A3004 3830 28 6000 200/05 RMK AO2 T02610067
24044KAIA AIA20160602112011506/02/16 11:20:31  5-MIN KAIA 021820Z AUTO 21010G15KT 10SM CLR 26/08 A3004 3830 32 6000 210/10G15 RMK AO2 T02610083
24044KAIA AIA20160602112510906/02/16 11:25:31  5-MIN KAIA 021825Z AUTO 21011KT 10SM CLR 26/09 A3004 3830 33 6000 210/11 RMK AO2 T02610089
24044KAIA AIA20160602113011506/02/16 11:30:31  5-MIN KAIA 021830Z AUTO 18005G16KT 10SM CLR 26/09 A3003 3830 34 6000 180/05G16 RMK AO2 T02610094
24044KAIA AIA20160602113511506/02/16 11:35:31  5-MIN KAIA 021835Z AUTO 22010G15KT 10SM CLR 26/10 A3003 3830 36 6000 210/10G15 RMK AO2 T02610100
24044KAIA AIA20160602114011506/02/16 11:40:31  5-MIN KAIA 021840Z AUTO VRB05G15KT 10SM CLR 27/10 A3003 3840 34 6100 VRB/05G15 RMK AO2 T02670100
24044KAIA AIA20160602114509906/02/16 11:45:31  5-MIN KAIA 021845Z AUTO 10SM CLR 27/10 A3003 3830 33 6100 M /M RMK AO2 T02720100
24044KAIA AIA20160602115012206/02/16 11:50:31  5-MIN KAIA 021850Z AUTO 17010G20KT 10SM CLR 27/08 A3003 3840 31 6100 170/10G20 RMK AO2 SLP134 T02670083
24044KAIA AIA20160602115511506/02/16 11:55:31  5-MIN KAIA 021855Z AUTO 18010G20KT 10SM CLR 27/08 A3002 3840 29 6100 170/10G20 RMK AO2 T02670078
24044KAIA AIA20160602120010906/02/16 12:00:31  5-MIN KAIA 021900Z AUTO 18011KT 10SM CLR 27/08 A3002 3840 29 6100 170/11 RMK AO2 T02720078
24044KAIA AIA20160602120510906/02/16 12:05:31  5-MIN KAIA 021905Z AUTO 19012KT 10SM CLR 28/09 A3002 3840 30 6200 190/12 RMK AO2 T02780089
24044KAIA AIA20160602121010906/02/16 12:10:31  5-MIN KAIA 021910Z AUTO 22007KT 10SM CLR 27/07 A3002 3840 27 6100 210/07 RMK AO2 T02670067
24044KAIA AIA20160602121510906/02/16 12:15:31  5-MIN KAIA 021915Z AUTO 18010KT 10SM CLR 28/07 A3002 3840 27 6200 170/10 RMK AO2 T02780072
24044KAIA AIA20160602122011506/02/16 12:20:31  5-MIN KAIA 021920Z AUTO 19014G18KT 10SM CLR 28/08 A3002 3840 28 6200 180/14G18 RMK AO2 T02780078
24044KAIA AIA20160602122511506/02/16 12:25:31  5-MIN KAIA 021925Z AUTO 18011G18KT 10SM CLR 27/07 A3002 3840 27 6100 170/11G18 RMK AO2 T02720072
24044KAIA AIA20160602123010906/02/16 12:30:31  5-MIN KAIA 021930Z AUTO 20012KT 10SM CLR 27/07 A3002 3840 27 6100 190/12 RMK AO2 T02720072
24044KAIA AIA20160602123511506/02/16 12:35:31  5-MIN KAIA 021935Z AUTO 19014G20KT 10SM CLR 27/07 A3002 3850 27 6100 180/14G20 RMK AO2 T02720072
24044KAIA AIA20160602124011506/02/16 12:40:31  5-MIN KAIA 021940Z AUTO 18010G20KT 10SM CLR 28/07 A3001 3850 26 6200 180/10G20 RMK AO2 T02780067
24044KAIA AIA20160602124510906/02/16 12:45:31  5-MIN KAIA 021945Z AUTO 18010KT 10SM CLR 28/07 A3001 3850 27 6200 180/10 RMK AO2 T02780072
24044KAIA AIA20160602125011606/02/16 12:50:31  5-MIN KAIA 021950Z AUTO 18013KT 10SM CLR 28/08 A3000 3860 28 6200 170/13 RMK AO2 SLP125 T02780078
24044KAIA AIA20160602125510906/02/16 12:55:31  5-MIN KAIA 021955Z AUTO 18013KT 10SM CLR 27/07 A3000 3860 27 6200 170/13 RMK AO2 T02720072
24044KAIA AIA20160602130010906/02/16 13:00:31  5-MIN KAIA 022000Z AUTO 19012KT 10SM CLR 28/07 A3000 3860 27 6200 190/12 RMK AO2 T02780072
24044KAIA AIA20160602130511506/02/16 13:05:31  5-MIN KAIA 022005Z AUTO 17010G16KT 10SM CLR 28/08 A2999 3870 29 6200 160/10G16 RMK AO2 T02780083
24044KAIA AIA20160602131011506/02/16 13:10:31  5-MIN KAIA 022010Z AUTO 18012G16KT 10SM CLR 28/08 A2999 3870 28 6300 170/12G16 RMK AO2 T02830083
24044KAIA AIA20160602131510906/02/16 13:15:31  5-MIN KAIA 022015Z AUTO 19010KT 10SM CLR 28/08 A3000 3870 28 6200 180/10 RMK AO2 T02780078
24044KAIA AIA20160602132010906/02/16 13:20:31  5-MIN KAIA 022020Z AUTO 20009KT 10SM CLR 28/08 A2999 3870 27 6300 190/09 RMK AO2 T02830078
24044KAIA AIA20160602132511506/02/16 13:25:31  5-MIN KAIA 022025Z AUTO 19011G14KT 10SM CLR 28/07 A2999 3870 27 6200 180/11G14 RMK AO2 T02780072
24044KAIA AIA20160602133011506/02/16 13:30:31  5-MIN KAIA 022030Z AUTO 18007G14KT 10SM CLR 28/07 A2999 3870 26 6200 170/07G14 RMK AO2 T02780067
24044KAIA AIA20160602133511506/02/16 13:35:31  5-MIN KAIA 022035Z AUTO 17012G18KT 10SM CLR 28/07 A2999 3870 25 6300 170/12G18 RMK AO2 T02830067
24044KAIA AIA20160602134011506/02/16 13:40:31  5-MIN KAIA 022040Z AUTO 21010G18KT 10SM CLR 28/07 A2999 3870 26 6300 200/10G18 RMK AO2 T02830072
24044KAIA AIA20160602134511506/02/16 13:45:31  5-MIN KAIA 022045Z AUTO 19007G18KT 10SM CLR 28/06 A2999 3870 24 6200 180/07G18 RMK AO2 T02780056
24044KAIA AIA20160602135012806/02/16 13:50:31  5-MIN KAIA 022050Z AUTO 19010G18KT 10SM CLR 28/07 A2999 3870 25 6300 180/10G18 RMK AO2 SLP118 T02830067 58009
24044KAIA AIA20160602135513106/02/16 13:55:31  5-MIN KAIA 022055Z AUTO 17009G18KT 140V200 10SM CLR 28/07 A2999 3870 26 6300 160/09G18 130V190 RMK AO2 T02830072
24044KAIA AIA20160602140011806/02/16 14:00:31  5-MIN KAIA 022100Z AUTO 21015G20KT 10SM FEW090 28/07 A2999 3870 26 6300 200/15G20 RMK AO2 T02830072
24044KAIA AIA20160602140511806/02/16 14:05:31  5-MIN KAIA 022105Z AUTO 18006G20KT 10SM FEW090 28/07 A2998 3880 26 6200 180/06G20 RMK AO2 T02780067
24044KAIA AIA20160602141011806/02/16 14:10:31  5-MIN KAIA 022110Z AUTO 18012G17KT 10SM FEW090 28/07 A2998 3870 27 6200 170/12G17 RMK AO2 T02780072
24044KAIA AIA20160602141511806/02/16 14:15:31  5-MIN KAIA 022115Z AUTO 21012G22KT 10SM FEW100 28/08 A2998 3880 27 6300 210/12G22 RMK AO2 T02830078
24044KAIA AIA20160602142013406/02/16 14:20:31  5-MIN KAIA 022120Z AUTO 17008G22KT 140V230 10SM FEW100 28/07 A2998 3880 27 6200 160/08G22 130V220 RMK AO2 T02780072
24044KAIA AIA20160602142511806/02/16 14:25:31  5-MIN KAIA 022125Z AUTO 23013G17KT 10SM FEW095 28/08 A2998 3880 27 6300 220/13G17 RMK AO2 T02830078
24044KAIA AIA20160602143011806/02/16 14:30:31  5-MIN KAIA 022130Z AUTO 21012G22KT 10SM FEW100 28/07 A2998 3880 26 6300 200/12G22 RMK AO2 T02830072
24044KAIA AIA20160602143511806/02/16 14:35:31  5-MIN KAIA 022135Z AUTO 18011G22KT 10SM FEW100 28/08 A2997 3890 27 6300 180/11G22 RMK AO2 T02830078
24044KAIA AIA20160602144011206/02/16 14:40:31  5-MIN KAIA 022140Z AUTO 21014KT 10SM FEW100 28/07 A2998 3880 26 6300 200/14 RMK AO2 T02830072
24044KAIA AIA20160602144511206/02/16 14:45:31  5-MIN KAIA 022145Z AUTO 21012KT 10SM FEW100 28/07 A2997 3890 25 6300 200/12 RMK AO2 T02830067
24044KAIA AIA20160602145011906/02/16 14:50:31  5-MIN KAIA 022150Z AUTO 22009KT 10SM FEW100 28/06 A2997 3890 24 6300 210/09 RMK AO2 SLP114 T02830061
24044KAIA AIA20160602145511206/02/16 14:55:31  5-MIN KAIA 022155Z AUTO 19015KT 10SM FEW100 29/08 A2997 3890 26 6400 190/15 RMK AO2 T02890078
24044KAIA AIA20160602150011806/02/16 15:00:31  5-MIN KAIA 022200Z AUTO 21013G19KT 10SM FEW100 28/07 A2997 3890 26 6300 200/13G19 RMK AO2 T02830072
24044KAIA AIA20160602150511206/02/16 15:05:31  5-MIN KAIA 022205Z AUTO 19014KT 10SM FEW100 28/06 A2997 3890 25 6300 180/14 RMK AO2 T02780061
24044KAIA AIA20160602151011206/02/16 15:10:31  5-MIN KAIA 022210Z AUTO 23007KT 10SM FEW100 28/04 A2996 3890 22 6300 220/07 RMK AO2 T02780044
24044KAIA AIA20160602151511206/02/16 15:15:31  5-MIN KAIA 022215Z AUTO 20010KT 10SM FEW100 28/07 A2996 3900 26 6300 190/10 RMK AO2 T02780067
24044KAIA AIA20160602152011206/02/16 15:20:31  5-MIN KAIA 022220Z AUTO 18012KT 10SM FEW100 27/07 A2996 3900 27 6200 170/12 RMK AO2 T02720072
24044KAIA AIA20160602152511206/02/16 15:25:31  5-MIN KAIA 022225Z AUTO 22009KT 10SM FEW100 27/08 A2996 3900 31 6100 210/09 RMK AO2 T02670083
24044KAIA AIA20160602153010906/02/16 15:30:31  5-MIN KAIA 022230Z AUTO 23011KT 10SM CLR 27/06 A2996 3900 26 6100 230/11 RMK AO2 T02670061
24044KAIA AIA20160602153511206/02/16 15:35:31  5-MIN KAIA 022235Z AUTO 23009KT 10SM FEW110 27/06 A2996 3900 25 6100 220/09 RMK AO2 T02670056
24044KAIA AIA20160602154011206/02/16 15:40:31  5-MIN KAIA 022240Z AUTO 21006KT 10SM FEW110 26/07 A2996 3900 29 6100 200/06 RMK AO2 T02610072
24044KAIA AIA20160602154510906/02/16 15:45:31  5-MIN KAIA 022245Z AUTO 20009KT 10SM CLR 26/08 A2995 3900 31 6100 190/09 RMK AO2 T02610078
24044KAIA AIA20160602155011606/02/16 15:50:31  5-MIN KAIA 022250Z AUTO 19010KT 10SM CLR 26/08 A2995 3900 31 6100 190/10 RMK AO2 SLP110 T02610078
24044KAIA AIA20160602155510906/02/16 15:55:31  5-MIN KAIA 022255Z AUTO 19010KT 10SM CLR 26/08 A2995 3900 32 6100 180/10 RMK AO2 T02610083
24044KAIA AIA20160602160010906/02/16 16:00:31  5-MIN KAIA 022300Z AUTO 19012KT 10SM CLR 27/08 A2995 3900 31 6100 180/12 RMK AO2 T02670083
24044KAIA AIA20160602160510906/02/16 16:05:31  5-MIN KAIA 022305Z AUTO 19012KT 10SM CLR 27/08 A2995 3910 30 6200 180/12 RMK AO2 T02720083
24044KAIA AIA20160602161010906/02/16 16:10:31  5-MIN KAIA 022310Z AUTO 18010KT 10SM CLR 27/09 A2995 3910 31 6200 180/10 RMK AO2 T02720089
24044KAIA AIA20160602161510906/02/16 16:15:31  5-MIN KAIA 022315Z AUTO 17011KT 10SM CLR 26/10 A2995 3910 36 6100 170/11 RMK AO2 T02610100
24044KAIA AIA20160602162010906/02/16 16:20:31  5-MIN KAIA 022320Z AUTO 19011KT 10SM CLR 26/10 A2995 3910 36 6100 180/11 RMK AO2 T02610100
24044KAIA AIA20160602162510906/02/16 16:25:31  5-MIN KAIA 022325Z AUTO 18012KT 10SM CLR 27/10 A2995 3910 34 6100 180/12 RMK AO2 T02670100
24044KAIA AIA20160602163010906/02/16 16:30:31  5-MIN KAIA 022330Z AUTO 19012KT 10SM CLR 27/11 A2995 3910 34 6200 180/12 RMK AO2 T02720106
24044KAIA AIA20160602163510906/02/16 16:35:31  5-MIN KAIA 022335Z AUTO 17016KT 10SM CLR 28/11 A2994 3910 33 6300 160/16 RMK AO2 T02780106
24044KAIA AIA20160602164010906/02/16 16:40:31  5-MIN KAIA 022340Z AUTO 17015KT 10SM CLR 27/10 A2994 3920 33 6200 160/15 RMK AO2 T02720100
24044KAIA AIA20160602164510906/02/16 16:45:31  5-MIN KAIA 022345Z AUTO 18014KT 10SM CLR 27/11 A2994 3920 34 6200 170/14 RMK AO2 T02720106
24044KAIA AIA20160602165014006/02/16 16:50:31  5-MIN KAIA 022350Z AUTO 17014G20KT 10SM CLR 27/10 A2993 3920 33 6200 160/14G20 RMK AO2 SLP105 T02720100 10289 20256 56016
24044KAIA AIA20160602165511506/02/16 16:55:31  5-MIN KAIA 022355Z AUTO 17017G21KT 10SM CLR 27/10 A2993 3920 34 6200 160/17G21 RMK AO2 T02670100
24044KAIA AIA20160602170011506/02/16 17:00:31  5-MIN KAIA 030000Z AUTO 17016G21KT 10SM CLR 27/11 A2993 3920 36 6200 160/16G21 RMK AO2 T02670106
24044KAIA AIA20160602170511506/02/16 17:05:31  5-MIN KAIA 030005Z AUTO 17016G22KT 10SM CLR 27/11 A2993 3920 36 6200 160/16G22 RMK AO2 T02670106
24044KAIA AIA20160602171011506/02/16 17:10:31  5-MIN KAIA 030010Z AUTO 17015G22KT 10SM CLR 27/11 A2993 3930 36 6200 160/15G22 RMK AO2 T02670106
24044KAIA AIA20160602171510906/02/16 17:15:31  5-MIN KAIA 030015Z AUTO 17015KT 10SM CLR 26/10 A2993 3930 36 6100 160/15 RMK AO2 T02610100
24044KAIA AIA20160602172011506/02/16 17:20:31  5-MIN KAIA 030020Z AUTO 18013G23KT 10SM CLR 26/10 A2993 3930 36 6100 170/13G23 RMK AO2 T02610100
24044KAIA AIA20160602172511506/02/16 17:25:31  5-MIN KAIA 030025Z AUTO 18015G23KT 10SM CLR 26/10 A2993 3920 36 6100 180/15G23 RMK AO2 T02610100
24044KAIA AIA20160602173011506/02/16 17:30:31  5-MIN KAIA 030030Z AUTO 18014G22KT 10SM CLR 26/10 A2993 3920 36 6100 170/14G22 RMK AO2 T02610100
24044KAIA AIA20160602173510906/02/16 17:35:31  5-MIN KAIA 030035Z AUTO 18015KT 10SM CLR 26/10 A2993 3920 36 6100 170/15 RMK AO2 T02610100
24044KAIA AIA20160602174010906/02/16 17:40:31  5-MIN KAIA 030040Z AUTO 18015KT 10SM CLR 26/09 A2993 3920 34 6100 170/15 RMK AO2 T02610094
24044KAIA AIA20160602174510906/02/16 17:45:31  5-MIN KAIA 030045Z AUTO 18018KT 10SM CLR 26/09 A2993 3920 34 6100 170/18 RMK AO2 T02610094
24044KAIA AIA20160602175012206/02/16 17:50:31  5-MIN KAIA 030050Z AUTO 18013G21KT 10SM CLR 26/09 A2993 3920 34 6100 170/13G21 RMK AO2 SLP103 T02610094
24044KAIA AIA20160602175511506/02/16 17:55:31  5-MIN KAIA 030055Z AUTO 18013G20KT 10SM CLR 26/09 A2993 3920 34 6100 170/13G20 RMK AO2 T02610094
24044KAIA AIA20160602180010906/02/16 18:00:31  5-MIN KAIA 030100Z AUTO 18014KT 10SM CLR 26/09 A2993 3920 35 6000 170/14 RMK AO2 T02560094
24044KAIA AIA20160602180510906/02/16 18:05:31  5-MIN KAIA 030105Z AUTO 18015KT 10SM CLR 26/09 A2993 3920 35 6000 170/15 RMK AO2 T02560094
24044KAIA AIA20160602181010906/02/16 18:10:31  5-MIN KAIA 030110Z AUTO 18014KT 10SM CLR 25/09 A2993 3920 35 6000 170/14 RMK AO2 T02500089
24044KAIA AIA20160602181510906/02/16 18:15:31  5-MIN KAIA 030115Z AUTO 18014KT 10SM CLR 25/09 A2993 3920 35 6000 170/14 RMK AO2 T02500089
24044KAIA AIA20160602182010906/02/16 18:20:31  5-MIN KAIA 030120Z AUTO 18012KT 10SM CLR 25/09 A2994 3920 35 6000 170/12 RMK AO2 T02500089
24044KAIA AIA20160602182510906/02/16 18:25:31  5-MIN KAIA 030125Z AUTO 17012KT 10SM CLR 24/09 A2994 3920 38 5900 170/12 RMK AO2 T02440094
24044KAIA AIA20160602183010906/02/16 18:30:31  5-MIN KAIA 030130Z AUTO 17013KT 10SM CLR 24/09 A2993 3920 39 5900 160/13 RMK AO2 T02390094
24044KAIA AIA20160603053511506/03/16 05:35:31  5-MIN KAIA 031235Z AUTO 01013G20KT 10SM CLR 15/10 A3001 3850 72 4800 360/13G20 RMK AO2 T01500100
24044KAIA AIA20160603054011706/03/16 05:40:31  5-MIN KAIA 031240Z AUTO 01013G20KT 10SM CLR 15/10 A3002 3850 72 4800 360/13G20 RMK AO2 T01500100 $
24044KAIA AIA20160603054511106/03/16 05:45:31  5-MIN KAIA 031245Z AUTO 01014KT 10SM CLR 15/10 A3002 3840 72 4800 360/14 RMK AO2 T01500100 $
24044KAIA AIA20160603055011806/03/16 05:50:31  5-MIN KAIA 031250Z AUTO 01011KT 10SM CLR 15/10 A3003 3840 72 4800 360/11 RMK AO2 SLP128 T01500100 $
24044KAIA AIA20160603055511806/03/16 05:55:31  5-MIN KAIA 031255Z AUTO 01011KT 10SM CLR 15/10 A3004 3830 72 4700 360/11 RMK AO2 PRESRR T01500100 $
24044KAIA AIA20160603060011106/03/16 06:00:31  5-MIN KAIA 031300Z AUTO 36011KT 10SM CLR 15/10 A3004 3820 72 4700 350/11 RMK AO2 T01500100 $
24044KAIA AIA20160603060511106/03/16 06:05:31  5-MIN KAIA 031305Z AUTO 35011KT 10SM CLR 15/10 A3005 3820 72 4700 340/11 RMK AO2 T01500100 $
24044KAIA AIA20160603061011106/03/16 06:10:31  5-MIN KAIA 031310Z AUTO 35011KT 10SM CLR 15/10 A3005 3810 72 4700 340/11 RMK AO2 T01500100 $
24044KAIA AIA20160603061511106/03/16 06:15:31  5-MIN KAIA 031315Z AUTO 35010KT 10SM CLR 15/10 A3005 3810 72 4700 340/10 RMK AO2 T01500100 $
24044KAIA AIA20160603062011106/03/16 06:20:31  5-MIN KAIA 031320Z AUTO 35010KT 10SM CLR 15/10 A3006 3810 72 4700 340/10 RMK AO2 T01500100 $
24044KAIA AIA20160603062511106/03/16 06:25:31  5-MIN KAIA 031325Z AUTO 35010KT 10SM CLR 15/10 A3006 3810 72 4700 340/10 RMK AO2 T01500100 $
24044KAIA AIA20160603063011106/03/16 06:30:31  5-MIN KAIA 031330Z AUTO 35010KT 10SM CLR 15/10 A3006 3810 72 4700 340/10 RMK AO2 T01500100 $
24044KAIA AIA20160603063511106/03/16 06:35:31  5-MIN KAIA 031335Z AUTO 35009KT 10SM CLR 15/10 A3006 3810 72 4700 340/09 RMK AO2 T01500100 $
24044KAIA AIA20160603064011106/03/16 06:40:31  5-MIN KAIA 031340Z AUTO 35009KT 10SM CLR 16/10 A3006 3800 69 4800 340/09 RMK AO2 T01560100 $
24044KAIA AIA20160603064511106/03/16 06:45:31  5-MIN KAIA 031345Z AUTO 35010KT 10SM CLR 16/11 A3006 3800 72 4800 340/10 RMK AO2 T01560106 $
24044KAIA AIA20160603065011806/03/16 06:50:31  5-MIN KAIA 031350Z AUTO 35010KT 10SM CLR 16/10 A3007 3800 69 4800 350/10 RMK AO2 SLP145 T01560100 $
24044KAIA AIA20160603065511106/03/16 06:55:31  5-MIN KAIA 031355Z AUTO 36010KT 10SM CLR 16/10 A3007 3800 67 4800 350/10 RMK AO2 T01610100 $
24044KAIA AIA20160603070011106/03/16 07:00:31  5-MIN KAIA 031400Z AUTO 36012KT 10SM CLR 16/10 A3007 3800 67 4800 350/12 RMK AO2 T01610100 $
24044KAIA AIA20160603070511106/03/16 07:05:31  5-MIN KAIA 031405Z AUTO 35011KT 10SM CLR 17/10 A3007 3800 64 4900 340/11 RMK AO2 T01670100 $
24044KAIA AIA20160603071011106/03/16 07:10:31  5-MIN KAIA 031410Z AUTO 35011KT 10SM CLR 17/10 A3007 3800 64 4900 340/11 RMK AO2 T01670100 $
24044KAIA AIA20160603071511106/03/16 07:15:31  5-MIN KAIA 031415Z AUTO 35011KT 10SM CLR 17/10 A3007 3790 62 5000 340/11 RMK AO2 T01720100 $
24044KAIA AIA20160603072010906/03/16 07:20:31  5-MIN KAIA 031420Z AUTO 34012KT 10SM CLR 17/11 A3008 3790 64 5000 330/12 RMK AO2 T01720106
24044KAIA AIA20160603072510906/03/16 07:25:31  5-MIN KAIA 031425Z AUTO 36010KT 10SM CLR 17/10 A3008 3790 62 5000 350/10 RMK AO2 T01720100
24044KAIA AIA20160603073010906/03/16 07:30:31  5-MIN KAIA 031430Z AUTO 35011KT 10SM CLR 18/10 A3008 3780 60 5000 340/11 RMK AO2 T01780100
24044KAIA AIA20160603073510906/03/16 07:35:31  5-MIN KAIA 031435Z AUTO 35011KT 10SM CLR 18/10 A3009 3780 60 5000 340/11 RMK AO2 T01780100
24044KAIA AIA20160603074010906/03/16 07:40:31  5-MIN KAIA 031440Z AUTO 34012KT 10SM CLR 18/10 A3009 3780 58 5100 330/12 RMK AO2 T01830100
24044KAIA AIA20160603074510906/03/16 07:45:31  5-MIN KAIA 031445Z AUTO 35013KT 10SM CLR 18/10 A3009 3780 60 5000 340/13 RMK AO2 T01780100
24044KAIA AIA20160603075012206/03/16 07:50:31  5-MIN KAIA 031450Z AUTO 34013KT 10SM CLR 18/10 A3009 3780 60 5000 330/13 RMK AO2 SLP155 T01780100 51034
24044KAIA AIA20160603075511106/03/16 07:55:31  5-MIN KAIA 031455Z AUTO 33014KT 10SM CLR 18/10 A3009 3780 58 5100 330/14 RMK AO2 T01830100 $
24044KAIA AIA20160603080011106/03/16 08:00:31  5-MIN KAIA 031500Z AUTO 34011KT 10SM CLR 18/10 A3009 3770 58 5100 330/11 RMK AO2 T01830100 $
24044KAIA AIA20160603080511106/03/16 08:05:31  5-MIN KAIA 031505Z AUTO 35012KT 10SM CLR 19/10 A3009 3770 56 5100 340/12 RMK AO2 T01890100 $
24044KAIA AIA20160603081011106/03/16 08:10:31  5-MIN KAIA 031510Z AUTO 34012KT 10SM CLR 19/10 A3010 3770 56 5100 340/12 RMK AO2 T01890100 $
24044KAIA AIA20160603081511106/03/16 08:15:31  5-MIN KAIA 031515Z AUTO 35012KT 10SM CLR 19/10 A3009 3770 54 5200 340/12 RMK AO2 T01940100 $
24044KAIA AIA20160603082011106/03/16 08:20:31  5-MIN KAIA 031520Z AUTO 36011KT 10SM CLR 19/10 A3010 3770 54 5200 350/11 RMK AO2 T01940100 $
24044KAIA AIA20160603082511106/03/16 08:25:31  5-MIN KAIA 031525Z AUTO 35012KT 10SM CLR 20/10 A3009 3770 52 5300 340/12 RMK AO2 T02000100 $
24044KAIA AIA20160603083011106/03/16 08:30:31  5-MIN KAIA 031530Z AUTO 35012KT 10SM CLR 20/10 A3009 3770 52 5200 340/12 RMK AO2 T02000100 $
24044KAIA AIA20160603083511106/03/16 08:35:31  5-MIN KAIA 031535Z AUTO 34012KT 10SM CLR 19/10 A3010 3770 54 5200 330/12 RMK AO2 T01940100 $
24044KAIA AIA20160603084011106/03/16 08:40:31  5-MIN KAIA 031540Z AUTO 34013KT 10SM CLR 20/10 A3010 3770 52 5200 330/13 RMK AO2 T02000100 $
24044KAIA AIA20160603084511106/03/16 08:45:31  5-MIN KAIA 031545Z AUTO 35010KT 10SM CLR 20/10 A3010 3770 52 5200 340/10 RMK AO2 T02000100 $
24044KAIA AIA20160603085011806/03/16 08:50:31  5-MIN KAIA 031550Z AUTO 33012KT 10SM CLR 21/11 A3010 3770 52 5300 320/12 RMK AO2 SLP155 T02060106 $
24044KAIA AIA20160603085511706/03/16 08:55:31  5-MIN KAIA 031555Z AUTO 34011G19KT 10SM CLR 21/11 A3010 3770 52 5300 330/11G19 RMK AO2 T02060106 $
24044KAIA AIA20160603090011706/03/16 09:00:31  5-MIN KAIA 031600Z AUTO 32011G19KT 10SM CLR 21/11 A3010 3770 52 5300 310/11G19 RMK AO2 T02060106 $
24044KAIA AIA20160603090511106/03/16 09:05:31  5-MIN KAIA 031605Z AUTO 34013KT 10SM CLR 21/11 A3010 3770 50 5400 340/13 RMK AO2 T02110106 $
24044KAIA AIA20160603091011106/03/16 09:10:31  5-MIN KAIA 031610Z AUTO 35011KT 10SM CLR 21/10 A3010 3770 48 5400 340/11 RMK AO2 T02110100 $
24044KAIA AIA20160603091511106/03/16 09:15:31  5-MIN KAIA 031615Z AUTO 34012KT 10SM CLR 22/11 A3010 3770 49 5400 330/12 RMK AO2 T02170106 $
24044KAIA AIA20160603092011106/03/16 09:20:31  5-MIN KAIA 031620Z AUTO 34012KT 10SM CLR 22/10 A3010 3770 47 5400 330/12 RMK AO2 T02170100 $
24044KAIA AIA20160603092511106/03/16 09:25:31  5-MIN KAIA 031625Z AUTO 33011KT 10SM CLR 22/10 A3010 3770 47 5400 320/11 RMK AO2 T02170100 $
24044KAIA AIA20160603093011706/03/16 09:30:31  5-MIN KAIA 031630Z AUTO 35011G19KT 10SM CLR 22/10 A3010 3770 47 5400 340/11G19 RMK AO2 T02170100 $
24044KAIA AIA20160603093511706/03/16 09:35:31  5-MIN KAIA 031635Z AUTO 32011G19KT 10SM CLR 22/10 A3010 3770 47 5400 320/11G19 RMK AO2 T02170100 $
24044KAIA AIA20160603094011106/03/16 09:40:31  5-MIN KAIA 031640Z AUTO 32012KT 10SM CLR 22/10 A3010 3770 45 5500 320/12 RMK AO2 T02220100 $
24044KAIA AIA20160603094511706/03/16 09:45:31  5-MIN KAIA 031645Z AUTO 35015G20KT 10SM CLR 22/10 A3010 3770 45 5500 340/15G20 RMK AO2 T02220100 $
24044KAIA AIA20160603095012406/03/16 09:50:31  5-MIN KAIA 031650Z AUTO 32010G20KT 10SM CLR 22/10 A3010 3770 45 5500 310/10G20 RMK AO2 SLP153 T02220100 $
24044KAIA AIA20160603095511706/03/16 09:55:31  5-MIN KAIA 031655Z AUTO 36012G18KT 10SM CLR 22/10 A3010 3770 45 5500 350/12G18 RMK AO2 T02220100 $
24044KAIA AIA20160603100011706/03/16 10:00:31  5-MIN KAIA 031700Z AUTO 34014G18KT 10SM CLR 23/09 A3010 3770 42 5500 330/14G18 RMK AO2 T02280094 $
24044KAIA AIA20160603100511106/03/16 10:05:31  5-MIN KAIA 031705Z AUTO 33013KT 10SM CLR 23/09 A3010 3770 42 5500 330/13 RMK AO2 T02280094 $
24044KAIA AIA20160603101011106/03/16 10:10:31  5-MIN KAIA 031710Z AUTO 33012KT 10SM CLR 23/09 A3010 3760 40 5500 320/12 RMK AO2 T02280089 $
24044KAIA AIA20160603101511706/03/16 10:15:31  5-MIN KAIA 031715Z AUTO 32008G17KT 10SM CLR 23/09 A3010 3770 42 5600 310/08G17 RMK AO2 T02280094 $
24044KAIA AIA20160603102011106/03/16 10:20:31  5-MIN KAIA 031720Z AUTO 33013KT 10SM CLR 23/09 A3010 3770 41 5600 330/13 RMK AO2 T02330094 $
24044KAIA AIA20160603102511106/03/16 10:25:31  5-MIN KAIA 031725Z AUTO 34010KT 10SM CLR 23/09 A3010 3770 41 5600 330/10 RMK AO2 T02330094 $
24044KAIA AIA20160603103011706/03/16 10:30:31  5-MIN KAIA 031730Z AUTO 35015G19KT 10SM CLR 23/09 A3010 3770 39 5600 340/15G19 RMK AO2 T02330089 $
24044KAIA AIA20160603103511706/03/16 10:35:31  5-MIN KAIA 031735Z AUTO 32014G21KT 10SM CLR 23/08 A3010 3770 38 5600 310/14G21 RMK AO2 T02330083 $
24044KAIA AIA20160603104011706/03/16 10:40:31  5-MIN KAIA 031740Z AUTO 32014G22KT 10SM CLR 24/08 A3010 3770 35 5700 310/14G22 RMK AO2 T02390078 $
24044KAIA AIA20160603104511706/03/16 10:45:31  5-MIN KAIA 031745Z AUTO 33015G22KT 10SM CLR 24/08 A3010 3770 35 5700 320/15G22 RMK AO2 T02390078 $
24044KAIA AIA20160603105014206/03/16 10:50:31  5-MIN KAIA 031750Z AUTO 35016G23KT 10SM CLR 24/07 A3010 3770 34 5700 340/16G23 RMK AO2 SLP154 T02390072 10239 20150 51031 $
24044KAIA AIA20160603105511706/03/16 10:55:31  5-MIN KAIA 031755Z AUTO 33019G23KT 10SM CLR 24/06 A3010 3770 31 5700 330/19G23 RMK AO2 T02390061 $
24044KAIA AIA20160603110013506/03/16 11:00:31  5-MIN KAIA 031800Z AUTO 34017G27KT 10SM CLR 24/07 A3010 3770 32 5700 330/17G27 RMK AO2 PK WND 32027/1800 T02390067 $
24044KAIA AIA20160603110513506/03/16 11:05:31  5-MIN KAIA 031805Z AUTO 33016G27KT 10SM CLR 24/06 A3010 3770 31 5700 320/16G27 RMK AO2 PK WND 32027/1800 T02390061 $
24044KAIA AIA20160603111013506/03/16 11:10:31  5-MIN KAIA 031810Z AUTO 35015G21KT 10SM CLR 24/07 A3010 3770 31 5700 340/15G21 RMK AO2 PK WND 32027/1800 T02440067 $
24044KAIA AIA20160603111513506/03/16 11:15:31  5-MIN KAIA 031815Z AUTO 36016G22KT 10SM CLR 24/06 A3010 3770 31 5700 350/16G22 RMK AO2 PK WND 32027/1800 T02390061 $
24044KAIA AIA20160603112013506/03/16 11:20:31  5-MIN KAIA 031820Z AUTO 34013G21KT 10SM CLR 24/07 A3010 3770 31 5700 330/13G21 RMK AO2 PK WND 32027/1800 T02440067 $
24044KAIA AIA20160603112512906/03/16 11:25:31  5-MIN KAIA 031825Z AUTO 35015KT 10SM CLR 24/07 A3010 3770 33 5700 340/15 RMK AO2 PK WND 32027/1800 T02440072 $
24044KAIA AIA20160603113013506/03/16 11:30:31  5-MIN KAIA 031830Z AUTO 33012G20KT 10SM CLR 24/07 A3010 3770 33 5700 330/12G20 RMK AO2 PK WND 32027/1800 T02440072 $
24044KAIA AIA20160603113513506/03/16 11:35:31  5-MIN KAIA 031835Z AUTO 35012G18KT 10SM CLR 24/07 A3010 3770 33 5700 350/12G18 RMK AO2 PK WND 32027/1800 T02440072 $
24044KAIA AIA20160603114013506/03/16 11:40:31  5-MIN KAIA 031840Z AUTO 34014G21KT 10SM CLR 24/07 A3010 3770 33 5700 330/14G21 RMK AO2 PK WND 32027/1800 T02440072 $
24044KAIA AIA20160603114513506/03/16 11:45:31  5-MIN KAIA 031845Z AUTO 35017G22KT 10SM CLR 25/07 A3010 3770 30 5800 350/17G22 RMK AO2 PK WND 32027/1800 T02500067 $
24044KAIA AIA20160603115014206/03/16 11:50:31  5-MIN KAIA 031850Z AUTO 34018G25KT 10SM CLR 24/06 A3010 3760 30 5700 330/18G25 RMK AO2 PK WND 32027/1800 SLP154 T02440061 $
24044KAIA AIA20160603115511706/03/16 11:55:31  5-MIN KAIA 031855Z AUTO 34013G25KT 10SM CLR 24/06 A3010 3760 30 5700 330/13G25 RMK AO2 T02440061 $
24044KAIA AIA20160603120011706/03/16 12:00:31  5-MIN KAIA 031900Z AUTO 35017G23KT 10SM CLR 24/06 A3010 3760 30 5700 340/17G23 RMK AO2 T02440061 $
24044KAIA AIA20160603120511106/03/16 12:05:31  5-MIN KAIA 031905Z AUTO 35014KT 10SM CLR 24/07 A3010 3770 31 5700 350/14 RMK AO2 T02440067 $
24044KAIA AIA20160603121011706/03/16 12:10:31  5-MIN KAIA 031910Z AUTO 34018G25KT 10SM CLR 25/07 A3010 3760 30 5800 330/18G25 RMK AO2 T02500067 $
24044KAIA AIA20160603121511706/03/16 12:15:31  5-MIN KAIA 031915Z AUTO 32018G25KT 10SM CLR 25/07 A3011 3760 30 5800 310/18G25 RMK AO2 T02500067 $
24044KAIA AIA20160603122011706/03/16 12:20:31  5-MIN KAIA 031920Z AUTO 34016G22KT 10SM CLR 25/07 A3011 3760 31 5800 330/16G22 RMK AO2 T02500072 $
24044KAIA AIA20160603122511706/03/16 12:25:31  5-MIN KAIA 031925Z AUTO 33018G24KT 10SM CLR 25/07 A3010 3760 31 5800 320/18G24 RMK AO2 T02500072 $
24044KAIA AIA20160603123011706/03/16 12:30:31  5-MIN KAIA 031930Z AUTO 32016G24KT 10SM CLR 24/07 A3011 3760 31 5700 310/16G24 RMK AO2 T02440067 $
24044KAIA AIA20160603123511706/03/16 12:35:31  5-MIN KAIA 031935Z AUTO 30010G22KT 10SM CLR 25/07 A3011 3760 31 5800 290/10G22 RMK AO2 T02500072 $
24044KAIA AIA20160603124011706/03/16 12:40:31  5-MIN KAIA 031940Z AUTO 33017G24KT 10SM CLR 25/07 A3011 3760 31 5800 320/17G24 RMK AO2 T02500072 $
24044KAIA AIA20160603124511706/03/16 12:45:31  5-MIN KAIA 031945Z AUTO 33014G24KT 10SM CLR 25/07 A3011 3760 31 5800 320/14G24 RMK AO2 T02500072 $
24044KAIA AIA20160603125012406/03/16 12:50:31  5-MIN KAIA 031950Z AUTO 31015G20KT 10SM CLR 25/07 A3010 3760 31 5800 300/15G20 RMK AO2 SLP153 T02500072 $
24044KAIA AIA20160603125511706/03/16 12:55:31  5-MIN KAIA 031955Z AUTO 32014G20KT 10SM CLR 25/07 A3010 3760 31 5800 310/14G20 RMK AO2 T02500072 $
24044KAIA AIA20160603130011106/03/16 13:00:31  5-MIN KAIA 032000Z AUTO 32016KT 10SM CLR 24/07 A3010 3770 31 5700 310/16 RMK AO2 T02440067 $
24044KAIA AIA20160603130511106/03/16 13:05:31  5-MIN KAIA 032005Z AUTO 33014KT 10SM CLR 25/08 A3010 3760 33 5800 320/14 RMK AO2 T02500078 $
24044KAIA AIA20160603131011106/03/16 13:10:31  5-MIN KAIA 032010Z AUTO 34017KT 10SM CLR 26/08 A3011 3760 32 5900 330/17 RMK AO2 T02560078 $
24044KAIA AIA20160603131512006/03/16 13:15:31  5-MIN KAIA 032015Z AUTO 32012G21KT 10SM FEW075 25/07 A3010 3770 30 5800 320/12G21 RMK AO2 T02500067 $
24044KAIA AIA20160603132013806/03/16 13:20:31  5-MIN KAIA 032020Z AUTO 32015G26KT 10SM FEW075 26/08 A3010 3760 32 5900 310/15G26 RMK AO2 PK WND 34026/2018 T02560078 $
24044KAIA AIA20160603132513506/03/16 13:25:31  5-MIN KAIA 032025Z AUTO 33015G26KT 10SM CLR 25/07 A3011 3760 31 5800 320/15G26 RMK AO2 PK WND 34026/2018 T02500072 $
24044KAIA AIA20160603133013806/03/16 13:30:31  5-MIN KAIA 032030Z AUTO 32015G23KT 10SM FEW080 25/07 A3010 3770 31 5800 320/15G23 RMK AO2 PK WND 34026/2018 T02500072 $
24044KAIA AIA20160603133513806/03/16 13:35:31  5-MIN KAIA 032035Z AUTO 34017G24KT 10SM FEW075 25/07 A3010 3770 31 5800 330/17G24 RMK AO2 PK WND 34026/2018 T02500072 $
24044KAIA AIA20160603134013806/03/16 13:40:31  5-MIN KAIA 032040Z AUTO 34014G24KT 10SM SCT075 26/08 A3010 3770 32 5900 330/14G24 RMK AO2 PK WND 34026/2018 T02560078 $
24044KAIA AIA20160603134513806/03/16 13:45:31  5-MIN KAIA 032045Z AUTO 33019G24KT 10SM SCT075 26/08 A3011 3760 32 5900 320/19G24 RMK AO2 PK WND 34026/2018 T02560078 $
24044KAIA AIA20160603135015106/03/16 13:50:31  5-MIN KAIA 032050Z AUTO 33015G24KT 10SM FEW075 26/07 A3010 3760 30 5900 320/15G24 RMK AO2 PK WND 34026/2018 SLP156 T02560072 50003 $
24044KAIA AIA20160603135512006/03/16 13:55:31  5-MIN KAIA 032055Z AUTO 34015G21KT 10SM FEW075 26/07 A3011 3760 30 5900 330/15G21 RMK AO2 T02560072 $
24044KAIA AIA20160603140011806/03/16 14:00:31  5-MIN KAIA 032100Z AUTO 32014G21KT 10SM FEW075 25/07 A3010 3770 31 5800 310/14G21 RMK AO2 T02500072
24044KAIA AIA20160603140511806/03/16 14:05:31  5-MIN KAIA 032105Z AUTO 33017G23KT 10SM FEW075 26/07 A3010 3760 30 5900 320/17G23 RMK AO2 T02560072
24044KAIA AIA20160603141011506/03/16 14:10:31  5-MIN KAIA 032110Z AUTO 33016G23KT 10SM CLR 25/07 A3010 3760 31 5800 320/16G23 RMK AO2 T02500072
24044KAIA AIA20160603141511806/03/16 14:15:31  5-MIN KAIA 032115Z AUTO 32013G23KT 10SM FEW075 24/07 A3010 3760 33 5700 310/13G23 RMK AO2 T02440072
24044KAIA AIA20160603142011206/03/16 14:20:31  5-MIN KAIA 032120Z AUTO 31007KT 10SM SCT075 24/07 A3010 3770 33 5700 310/07 RMK AO2 T02440072
24044KAIA AIA20160603142511806/03/16 14:25:31  5-MIN KAIA 032125Z AUTO 33015G22KT 10SM SCT075 24/07 A3011 3760 33 5700 330/15G22 RMK AO2 T02440072
24044KAIA AIA20160603143011806/03/16 14:30:31  5-MIN KAIA 032130Z AUTO 32013G22KT 10SM FEW075 24/07 A3010 3760 33 5700 310/13G22 RMK AO2 T02440072
24044KAIA AIA20160603143511806/03/16 14:35:31  5-MIN KAIA 032135Z AUTO 33016G22KT 10SM FEW075 26/07 A3011 3760 30 5900 320/16G22 RMK AO2 T02560072
24044KAIA AIA20160603144011806/03/16 14:40:31  5-MIN KAIA 032140Z AUTO 34012G21KT 10SM FEW075 26/07 A3010 3760 30 5900 330/12G21 RMK AO2 T02560072
24044KAIA AIA20160603144511806/03/16 14:45:31  5-MIN KAIA 032145Z AUTO 34018G25KT 10SM FEW075 26/08 A3010 3760 32 5900 330/18G25 RMK AO2 T02560078
24044KAIA AIA20160603145012206/03/16 14:50:31  5-MIN KAIA 032150Z AUTO 34013G25KT 10SM CLR 24/07 A3010 3760 31 5700 330/13G25 RMK AO2 SLP160 T02440067
24044KAIA AIA20160603145511506/03/16 14:55:31  5-MIN KAIA 032155Z AUTO 36015G19KT 10SM CLR 24/07 A3010 3770 31 5700 350/15G19 RMK AO2 T02440067
24044KAIA AIA20160603150011806/03/16 15:00:31  5-MIN KAIA 032200Z AUTO 33015G20KT 10SM FEW085 26/07 A3010 3770 30 5900 320/15G20 RMK AO2 T02560072
24044KAIA AIA20160603150511206/03/16 15:05:31  5-MIN KAIA 032205Z AUTO 33014KT 10SM FEW085 25/07 A3010 3760 31 5800 320/14 RMK AO2 T02500072
24044KAIA AIA20160603151011206/03/16 15:10:31  5-MIN KAIA 032210Z AUTO 33011KT 10SM FEW080 25/07 A3010 3770 30 5800 330/11 RMK AO2 T02500067
24044KAIA AIA20160603151511806/03/16 15:15:31  5-MIN KAIA 032215Z AUTO 35017G22KT 10SM SCT080 26/07 A3010 3770 29 5900 340/17G22 RMK AO2 T02560067
24044KAIA AIA20160603152011806/03/16 15:20:31  5-MIN KAIA 032220Z AUTO 35014G22KT 10SM SCT080 26/07 A3010 3760 29 5900 340/14G22 RMK AO2 T02560067
24044KAIA AIA20160603152511806/03/16 15:25:31  5-MIN KAIA 032225Z AUTO 34012G21KT 10SM FEW080 24/07 A3010 3760 31 5700 340/12G21 RMK AO2 T02440067
24044KAIA AIA20160603153011206/03/16 15:30:31  5-MIN KAIA 032230Z AUTO 35016KT 10SM FEW080 25/07 A3010 3760 30 5800 340/16 RMK AO2 T02500067
24044KAIA AIA20160603153511806/03/16 15:35:31  5-MIN KAIA 032235Z AUTO 33015G23KT 10SM FEW080 25/06 A3011 3760 29 5800 330/15G23 RMK AO2 T02500061
24044KAIA AIA20160603154011806/03/16 15:40:31  5-MIN KAIA 032240Z AUTO 36016G23KT 10SM SCT080 25/07 A3011 3760 30 5800 350/16G23 RMK AO2 T02500067
24044KAIA AIA20160603154511206/03/16 15:45:31  5-MIN KAIA 032245Z AUTO 36016KT 10SM SCT080 25/06 A3010 3760 29 5800 350/16 RMK AO2 T02500061
24044KAIA AIA20160603155012506/03/16 15:50:31  5-MIN KAIA 032250Z AUTO 35018G23KT 10SM SCT080 24/06 A3010 3760 31 5700 340/18G23 RMK AO2 SLP158 T02390061
24044KAIA AIA20160603155511806/03/16 15:55:31  5-MIN KAIA 032255Z AUTO 34014G23KT 10SM FEW080 23/06 A3011 3760 32 5600 340/14G23 RMK AO2 T02330061
24044KAIA AIA20160603160011806/03/16 16:00:31  5-MIN KAIA 032300Z AUTO 34012G19KT 10SM FEW080 23/06 A3011 3760 32 5600 330/12G19 RMK AO2 T02330061
24044KAIA AIA20160603160511806/03/16 16:05:31  5-MIN KAIA 032305Z AUTO 35014G20KT 10SM FEW080 24/06 A3011 3760 29 5700 340/14G20 RMK AO2 T02440056
24044KAIA AIA20160603161011206/03/16 16:10:31  5-MIN KAIA 032310Z AUTO 33015KT 10SM FEW080 24/06 A3011 3760 30 5700 330/15 RMK AO2 T02390056
24044KAIA AIA20160603161510906/03/16 16:15:31  5-MIN KAIA 032315Z AUTO 34014KT 10SM CLR 24/06 A3011 3760 30 5700 330/14 RMK AO2 T02390056
24044KAIA AIA20160603162011506/03/16 16:20:31  5-MIN KAIA 032320Z AUTO 34015G20KT 10SM CLR 24/06 A3011 3760 30 5700 330/15G20 RMK AO2 T02440061
24044KAIA AIA20160603162511506/03/16 16:25:31  5-MIN KAIA 032325Z AUTO 34017G22KT 10SM CLR 25/06 A3011 3760 28 5800 330/17G22 RMK AO2 T02500056
24044KAIA AIA20160603163011506/03/16 16:30:31  5-MIN KAIA 032330Z AUTO 35014G23KT 10SM CLR 24/05 A3011 3760 28 5700 340/14G23 RMK AO2 T02440050
24044KAIA AIA20160603163511506/03/16 16:35:31  5-MIN KAIA 032335Z AUTO 35014G23KT 10SM CLR 24/06 A3011 3760 30 5700 340/14G23 RMK AO2 T02390056
24044KAIA AIA20160603164011506/03/16 16:40:31  5-MIN KAIA 032340Z AUTO 34017G21KT 10SM CLR 23/04 A3011 3760 29 5600 330/17G21 RMK AO2 T02330044
24044KAIA AIA20160603164511506/03/16 16:45:31  5-MIN KAIA 032345Z AUTO 34014G23KT 10SM CLR 24/04 A3011 3760 28 5700 340/14G23 RMK AO2 T02390044
24044KAIA AIA20160603165014006/03/16 16:50:31  5-MIN KAIA 032350Z AUTO 35016G23KT 10SM CLR 24/05 A3011 3760 28 5700 340/16G23 RMK AO2 SLP159 T02440050 10261 20228 51001
24044KAIA AIA20160603165511506/03/16 16:55:31  5-MIN KAIA 032355Z AUTO 35017G23KT 10SM CLR 24/04 A3011 3760 27 5700 350/17G23 RMK AO2 T02440044
24044KAIA AIA20160603170011506/03/16 17:00:31  5-MIN KAIA 040000Z AUTO 35014G23KT 10SM CLR 24/04 A3011 3760 27 5700 340/14G23 RMK AO2 T02440044
24044KAIA AIA20160603170510906/03/16 17:05:31  5-MIN KAIA 040005Z AUTO 34016KT 10SM CLR 24/04 A3011 3760 28 5700 340/16 RMK AO2 T02390044
24044KAIA AIA20160603171011506/03/16 17:10:31  5-MIN KAIA 040010Z AUTO 34015G21KT 10SM CLR 23/04 A3011 3760 30 5500 330/15G21 RMK AO2 T02280044
24044KAIA AIA20160603171510906/03/16 17:15:31  5-MIN KAIA 040015Z AUTO 34015KT 10SM CLR 23/04 A3011 3760 29 5600 330/15 RMK AO2 T02330044
24044KAIA AIA20160603172010906/03/16 17:20:31  5-MIN KAIA 040020Z AUTO 34014KT 10SM CLR 23/04 A3011 3760 30 5500 340/14 RMK AO2 T02280044
24044KAIA AIA20160603172511506/03/16 17:25:31  5-MIN KAIA 040025Z AUTO 34011G20KT 10SM CLR 23/05 A3011 3760 31 5500 330/11G20 RMK AO2 T02280050
24044KAIA AIA20160603173010906/03/16 17:30:31  5-MIN KAIA 040030Z AUTO 34011KT 10SM CLR 23/06 A3011 3760 32 5500 340/11 RMK AO2 T02280056
24044KAIA AIA20160603173510906/03/16 17:35:31  5-MIN KAIA 040035Z AUTO 34015KT 10SM CLR 23/05 A3012 3750 30 5600 340/15 RMK AO2 T02330050
24044KAIA AIA20160603174010906/03/16 17:40:31  5-MIN KAIA 040040Z AUTO 34014KT 10SM CLR 23/05 A3012 3750 31 5500 330/14 RMK AO2 T02280050
24044KAIA AIA20160603174511506/03/16 17:45:31  5-MIN KAIA 040045Z AUTO 34014G21KT 10SM CLR 23/05 A3012 3750 31 5500 330/14G21 RMK AO2 T02280050
24044KAIA AIA20160603175012206/03/16 17:50:31  5-MIN KAIA 040050Z AUTO 34015G21KT 10SM CLR 23/04 A3012 3750 29 5600 340/15G21 RMK AO2 SLP163 T02330044
24044KAIA AIA20160603175510906/03/16 17:55:31  5-MIN KAIA 040055Z AUTO 35012KT 10SM CLR 23/04 A3012 3750 30 5500 340/12 RMK AO2 T02280044
24044KAIA AIA20160603180010906/03/16 18:00:31  5-MIN KAIA 040100Z AUTO 36012KT 10SM CLR 22/04 A3012 3750 31 5500 350/12 RMK AO2 T02220044
24044KAIA AIA20160603180510906/03/16 18:05:31  5-MIN KAIA 040105Z AUTO 34015KT 10SM CLR 22/04 A3012 3750 31 5500 340/15 RMK AO2 T02220044
24044KAIA AIA20160603181010906/03/16 18:10:31  5-MIN KAIA 040110Z AUTO 35017KT 10SM CLR 22/04 A3012 3750 30 5500 340/17 RMK AO2 T02220039
24044KAIA AIA20160603181510906/03/16 18:15:31  5-MIN KAIA 040115Z AUTO 35014KT 10SM CLR 22/04 A3012 3750 30 5500 340/14 RMK AO2 T02220039
24044KAIA AIA20160603182010906/03/16 18:20:31  5-MIN KAIA 040120Z AUTO 35014KT 10SM CLR 22/03 A3012 3750 28 5500 340/14 RMK AO2 T02220033
24044KAIA AIA20160603182510906/03/16 18:25:31  5-MIN KAIA 040125Z AUTO 35012KT 10SM CLR 22/03 A3012 3750 28 5500 340/12 RMK AO2 T02220033
24044KAIA AIA20160603183010906/03/16 18:30:31  5-MIN KAIA 040130Z AUTO 34011KT 10SM CLR 22/04 A3013 3740 31 5400 340/11 RMK AO2 T02170039
24044KAIA AIA20160603183510906/03/16 18:35:31  5-MIN KAIA 040135Z AUTO 34011KT 10SM CLR 22/03 A3013 3740 28 5500 340/11 RMK AO2 T02220033
24044KAIA AIA20160603184010906/03/16 18:40:31  5-MIN KAIA 040140Z AUTO 35010KT 10SM CLR 22/04 A3013 3740 30 5500 340/10 RMK AO2 T02220039
24044KAIA AIA20160603184510906/03/16 18:45:31  5-MIN KAIA 040145Z AUTO 34010KT 10SM CLR 22/04 A3013 3740 31 5400 340/10 RMK AO2 T02170039
24044KAIA AIA20160603185011606/03/16 18:50:31  5-MIN KAIA 040150Z AUTO 34009KT 10SM CLR 21/04 A3013 3740 33 5300 340/09 RMK AO2 SLP171 T02110044
24044KAIA AIA20160603185510906/03/16 18:55:31  5-MIN KAIA 040155Z AUTO 34008KT 10SM CLR 21/04 A3013 3740 33 5300 330/08 RMK AO2 T02110044
24044KAIA AIA20160603190010906/03/16 19:00:31  5-MIN KAIA 040200Z AUTO 34007KT 10SM CLR 21/04 A3013 3740 34 5300 330/07 RMK AO2 T02060044
24044KAIA AIA20160603190510906/03/16 19:05:31  5-MIN KAIA 040205Z AUTO 34008KT 10SM CLR 20/04 A3014 3740 35 5200 330/08 RMK AO2 T02000044
24044KAIA AIA20160603191010906/03/16 19:10:31  5-MIN KAIA 040210Z AUTO 34007KT 10SM CLR 19/04 A3013 3740 37 5100 330/07 RMK AO2 T01940044
24044KAIA AIA20160603191510906/03/16 19:15:31  5-MIN KAIA 040215Z AUTO 34008KT 10SM CLR 19/04 A3013 3740 37 5100 340/08 RMK AO2 T01940044
24044KAIA AIA20160603192010906/03/16 19:20:31  5-MIN KAIA 040220Z AUTO 34009KT 10SM CLR 19/04 A3014 3730 36 5100 330/09 RMK AO2 T01890039
24044KAIA AIA20160603192510906/03/16 19:25:31  5-MIN KAIA 040225Z AUTO 34009KT 10SM CLR 18/04 A3014 3730 38 5000 330/09 RMK AO2 T01830039
24044KAIA AIA20160603193010906/03/16 19:30:31  5-MIN KAIA 040230Z AUTO 34009KT 10SM CLR 18/04 A3014 3730 38 5000 330/09 RMK AO2 T01830039
24044KAIA AIA20160603193510906/03/16 19:35:31  5-MIN KAIA 040235Z AUTO 34008KT 10SM CLR 18/04 A3014 3730 39 4900 330/08 RMK AO2 T01780039
24044KAIA AIA20160603194010906/03/16 19:40:31  5-MIN KAIA 040240Z AUTO 34007KT 10SM CLR 17/04 A3014 3730 41 4900 330/07 RMK AO2 T01720039
24044KAIA AIA20160603194510906/03/16 19:45:31  5-MIN KAIA 040245Z AUTO 34007KT 10SM CLR 17/04 A3014 3730 42 4800 330/07 RMK AO2 T01670039
24044KAIA AIA20160603195012206/03/16 19:50:31  5-MIN KAIA 040250Z AUTO 33007KT 10SM CLR 17/04 A3015 3730 44 4800 320/07 RMK AO2 SLP179 T01670044 53002
24044KAIA AIA20160603195510906/03/16 19:55:31  5-MIN KAIA 040255Z AUTO 35009KT 10SM CLR 16/04 A3015 3720 44 4700 340/09 RMK AO2 T01610039
24044KAIA AIA20160603200010906/03/16 20:00:31  5-MIN KAIA 040300Z AUTO 36010KT 10SM CLR 17/04 A3016 3720 41 4900 350/10 RMK AO2 T01720039
24044KAIA AIA20160603200510906/03/16 20:05:31  5-MIN KAIA 040305Z AUTO 36009KT 10SM CLR 17/03 A3016 3720 39 4900 360/09 RMK AO2 T01720033
24044KAIA AIA20160603201010906/03/16 20:10:31  5-MIN KAIA 040310Z AUTO 36008KT 10SM CLR 16/04 A3016 3710 44 4700 350/08 RMK AO2 T01610039
24044KAIA AIA20160603201510906/03/16 20:15:31  5-MIN KAIA 040315Z AUTO 36007KT 10SM CLR 16/04 A3017 3710 47 4700 350/07 RMK AO2 T01560044
24044KAIA AIA20160603202010906/03/16 20:20:31  5-MIN KAIA 040320Z AUTO 36007KT 10SM CLR 15/04 A3017 3700 49 4600 360/07 RMK AO2 T01500044
24044KAIA AIA20160603202510906/03/16 20:25:31  5-MIN KAIA 040325Z AUTO 36008KT 10SM CLR 14/05 A3017 3700 53 4500 350/08 RMK AO2 T01440050
24044KAIA AIA20160603203010906/03/16 20:30:31  5-MIN KAIA 040330Z AUTO 01008KT 10SM CLR 14/05 A3018 3700 55 4500 360/08 RMK AO2 T01390050
24044KAIA AIA20160603203510906/03/16 20:35:31  5-MIN KAIA 040335Z AUTO 02009KT 10SM CLR 14/05 A3018 3700 53 4500 010/09 RMK AO2 T01440050
24044KAIA AIA20160603204010906/03/16 20:40:31  5-MIN KAIA 040340Z AUTO 02008KT 10SM CLR 14/05 A3018 3690 53 4500 010/08 RMK AO2 T01440050
24044KAIA AIA20160603204510906/03/16 20:45:31  5-MIN KAIA 040345Z AUTO 01007KT 10SM CLR 14/05 A3018 3690 55 4500 360/07 RMK AO2 T01390050
24044KAIA AIA20160603205011606/03/16 20:50:31  5-MIN KAIA 040350Z AUTO 01006KT 10SM CLR 13/06 A3019 3690 59 4400 360/06 RMK AO2 SLP193 T01330056
24044KAIA AIA20160603205511206/03/16 20:55:31  5-MIN KAIA 040355Z AUTO 01007KT 10SM FEW110 13/05 A3019 3690 57 4400 010/07 RMK AO2 T01330050
24044KAIA AIA20160603210011206/03/16 21:00:31  5-MIN KAIA 040400Z AUTO 02007KT 10SM SCT110 14/05 A3019 3680 55 4400 010/07 RMK AO2 T01390050
24044KAIA AIA20160603210511206/03/16 21:05:31  5-MIN KAIA 040405Z AUTO 02007KT 10SM BKN110 14/06 A3019 3680 57 4400 010/07 RMK AO2 T01390056
24044KAIA AIA20160603211011206/03/16 21:10:31  5-MIN KAIA 040410Z AUTO 02005KT 10SM BKN110 14/06 A3019 3680 57 4400 010/05 RMK AO2 T01390056
24044KAIA AIA20160603211511206/03/16 21:15:31  5-MIN KAIA 040415Z AUTO 02005KT 10SM BKN110 14/06 A3019 3680 57 4400 010/05 RMK AO2 T01390056
24044KAIA AIA20160603212011206/03/16 21:20:31  5-MIN KAIA 040420Z AUTO 02004KT 10SM OVC110 14/06 A3020 3680 55 4500 020/04 RMK AO2 T01440056
24044KAIA AIA20160603212511206/03/16 21:25:31  5-MIN KAIA 040425Z AUTO 04004KT 10SM OVC120 14/06 A3019 3680 55 4500 030/04 RMK AO2 T01440056
24044KAIA AIA20160603213011206/03/16 21:30:31  5-MIN KAIA 040430Z AUTO 00000KT 10SM OVC120 13/07 A3020 3680 66 4300 000/00 RMK AO2 T01280067
24044KAIA AIA20160603213511206/03/16 21:35:31  5-MIN KAIA 040435Z AUTO 00000KT 10SM OVC120 12/07 A3020 3680 68 4200 000/00 RMK AO2 T01220067
24044KAIA AIA20160603214011206/03/16 21:40:31  5-MIN KAIA 040440Z AUTO 00000KT 10SM OVC120 12/07 A3020 3680 71 4200 000/00 RMK AO2 T01170067
24044KAIA AIA20160603214511206/03/16 21:45:31  5-MIN KAIA 040445Z AUTO 00000KT 10SM OVC120 12/07 A3020 3670 71 4200 000/00 RMK AO2 T01170067
24044KAIA AIA20160603215011906/03/16 21:50:31  5-MIN KAIA 040450Z AUTO 00000KT 10SM OVC120 12/07 A3020 3670 74 4200 000/00 RMK AO2 SLP199 T01170072
24044KAIA AIA20160603215511206/03/16 21:55:31  5-MIN KAIA 040455Z AUTO 00000KT 10SM OVC120 12/07 A3020 3670 74 4200 000/00 RMK AO2 T01170072
24044KAIA AIA20160603220011206/03/16 22:00:31  5-MIN KAIA 040500Z AUTO 00000KT 10SM OVC120 12/08 A3021 3670 77 4200 000/00 RMK AO2 T01170078
24044KAIA AIA20160603220511206/03/16 22:05:31  5-MIN KAIA 040505Z AUTO 00000KT 10SM OVC120 12/08 A3021 3670 77 4200 000/00 RMK AO2 T01170078
24044KAIA AIA20160603221011206/03/16 22:10:31  5-MIN KAIA 040510Z AUTO 00000KT 10SM OVC120 12/08 A3021 3670 77 4200 000/00 RMK AO2 T01170078
24044KAIA AIA20160603221511206/03/16 22:15:31  5-MIN KAIA 040515Z AUTO 27003KT 10SM OVC120 12/08 A3021 3670 77 4200 260/03 RMK AO2 T01170078
24044KAIA AIA20160603222011206/03/16 22:20:31  5-MIN KAIA 040520Z AUTO 26003KT 10SM OVC120 12/08 A3021 3670 77 4200 260/03 RMK AO2 T01170078
24044KAIA AIA20160603222511206/03/16 22:25:31  5-MIN KAIA 040525Z AUTO 26004KT 10SM OVC120 12/08 A3021 3670 77 4200 250/04 RMK AO2 T01170078
24044KAIA AIA20160603223011206/03/16 22:30:31  5-MIN KAIA 040530Z AUTO 26004KT 10SM OVC120 12/08 A3021 3670 77 4200 250/04 RMK AO2 T01170078
24044KAIA AIA20160603223511206/03/16 22:35:31  5-MIN KAIA 040535Z AUTO 26004KT 10SM OVC120 12/08 A3021 3670 77 4200 250/04 RMK AO2 T01170078
24044KAIA AIA20160603224011206/03/16 22:40:31  5-MIN KAIA 040540Z AUTO 26004KT 10SM OVC120 12/08 A3021 3660 77 4200 260/04 RMK AO2 T01170078
24044KAIA AIA20160603224511206/03/16 22:45:31  5-MIN KAIA 040545Z AUTO 26005KT 10SM OVC120 12/08 A3022 3660 77 4200 250/05 RMK AO2 T01170078
24044KAIA AIA20160603225013706/03/16 22:50:31  5-MIN KAIA 040550Z AUTO 26005KT 10SM BKN120 12/08 A3022 3660 77 4200 250/05 RMK AO2 SLP202 T01170078 10244 20117 53012
24044KAIA AIA20160603225511206/03/16 22:55:31  5-MIN KAIA 040555Z AUTO 26006KT 10SM BKN120 12/08 A3022 3660 77 4200 250/06 RMK AO2 T01170078
24044KAIA AIA20160603230011206/03/16 23:00:31  5-MIN KAIA 040600Z AUTO 26006KT 10SM BKN120 12/08 A3022 3660 77 4200 250/06 RMK AO2 T01170078
24044KAIA AIA20160603230511206/03/16 23:05:31  5-MIN KAIA 040605Z AUTO 26007KT 10SM BKN120 12/08 A3022 3660 77 4200 250/07 RMK AO2 T01170078
24044KAIA AIA20160603231011206/03/16 23:10:31  5-MIN KAIA 040610Z AUTO 26006KT 10SM OVC120 12/08 A3022 3650 77 4100 260/06 RMK AO2 T01170078
24044KAIA AIA20160603231511206/03/16 23:15:31  5-MIN KAIA 040615Z AUTO 27006KT 10SM OVC120 12/08 A3022 3660 77 4200 260/06 RMK AO2 T01170078
24044KAIA AIA20160603232011206/03/16 23:20:31  5-MIN KAIA 040620Z AUTO 28005KT 10SM OVC120 12/08 A3022 3660 77 4200 280/05 RMK AO2 T01170078
24044KAIA AIA20160603232511206/03/16 23:25:31  5-MIN KAIA 040625Z AUTO 30005KT 10SM OVC120 12/08 A3022 3660 77 4200 290/05 RMK AO2 T01170078
24044KAIA AIA20160603233011206/03/16 23:30:31  5-MIN KAIA 040630Z AUTO 29004KT 10SM OVC120 12/08 A3022 3660 77 4200 280/04 RMK AO2 T01170078
24044KAIA AIA20160603233511206/03/16 23:35:31  5-MIN KAIA 040635Z AUTO 28006KT 10SM OVC110 12/08 A3022 3650 77 4200 270/06 RMK AO2 T01170078
24044KAIA AIA20160603234011206/03/16 23:40:31  5-MIN KAIA 040640Z AUTO 26006KT 10SM OVC120 12/08 A3022 3650 77 4200 260/06 RMK AO2 T01170078
24044KAIA AIA20160603234511206/03/16 23:45:31  5-MIN KAIA 040645Z AUTO 27007KT 10SM OVC120 12/08 A3022 3660 77 4200 260/07 RMK AO2 T01170078
24044KAIA AIA20160603235012906/03/16 23:50:31  5-MIN KAIA 040650Z AUTO 27007KT 10SM OVC110 11/08 A3023 3650 80 4100 270/07 RMK AO2 SLP205 T01110078 402610111
24044KAIA AIA20160603235511206/03/16 23:55:31  5-MIN KAIA 040655Z AUTO 28006KT 10SM OVC120 11/07 A3023 3650 80 4000 280/06 RMK AO2 T01060072
24044KAIA AIA20160604000011206/04/16 00:00:31  5-MIN KAIA 040700Z AUTO 29006KT 10SM BKN120 11/07 A3023 3650 80 4000 280/06 RMK AO2 T01060072
24044KAIA AIA20160604000511206/04/16 00:05:31  5-MIN KAIA 040705Z AUTO 28005KT 10SM SCT110 10/07 A3022 3650 83 4000 280/05 RMK AO2 T01000072
24044KAIA AIA20160604001011206/04/16 00:10:31  5-MIN KAIA 040710Z AUTO 29006KT 10SM SCT110 09/07 A3022 3650 83 3900 280/06 RMK AO2 T00940067
24044KAIA AIA20160604001511206/04/16 00:15:31  5-MIN KAIA 040715Z AUTO 27008KT 10SM FEW110 09/07 A3023 3650 83 3900 260/08 RMK AO2 T00940067
24044KAIA AIA20160604002011206/04/16 00:20:31  5-MIN KAIA 040720Z AUTO 28007KT 10SM SCT110 09/07 A3023 3650 83 3900 270/07 RMK AO2 T00940067
24044KAIA AIA20160604002511206/04/16 00:25:31  5-MIN KAIA 040725Z AUTO 28008KT 10SM FEW110 09/07 A3023 3650 83 3900 280/08 RMK AO2 T00940067
24044KAIA AIA20160604003011206/04/16 00:30:31  5-MIN KAIA 040730Z AUTO 29007KT 10SM SCT110 09/07 A3023 3650 83 3900 280/07 RMK AO2 T00940067
24044KAIA AIA20160604003511206/04/16 00:35:31  5-MIN KAIA 040735Z AUTO 28008KT 10SM SCT110 09/06 A3023 3650 79 3900 270/08 RMK AO2 T00940061
24044KAIA AIA20160604004011206/04/16 00:40:31  5-MIN KAIA 040740Z AUTO 28007KT 10SM SCT110 09/06 A3023 3650 79 3900 270/07 RMK AO2 T00940061
24044KAIA AIA20160604004511206/04/16 00:45:31  5-MIN KAIA 040745Z AUTO 28006KT 10SM FEW110 09/06 A3023 3650 83 3800 270/06 RMK AO2 T00890061
24044KAIA AIA20160604005011906/04/16 00:50:31  5-MIN KAIA 040750Z AUTO 28006KT 10SM FEW110 09/06 A3023 3650 83 3800 270/06 RMK AO2 SLP208 T00890061
24044KAIA AIA20160604005511206/04/16 00:55:31  5-MIN KAIA 040755Z AUTO 27008KT 10SM FEW110 09/06 A3023 3650 79 3800 260/08 RMK AO2 T00890056
24044KAIA AIA20160604010010906/04/16 01:00:31  5-MIN KAIA 040800Z AUTO 27008KT 10SM CLR 08/06 A3023 3650 82 3800 260/08 RMK AO2 T00830056
24044KAIA AIA20160604010510906/04/16 01:05:31  5-MIN KAIA 040805Z AUTO 27008KT 10SM CLR 08/06 A3023 3650 86 3700 260/08 RMK AO2 T00780056
24044KAIA AIA20160604011010906/04/16 01:10:31  5-MIN KAIA 040810Z AUTO 28008KT 10SM CLR 08/06 A3023 3650 86 3700 270/08 RMK AO2 T00780056
24044KAIA AIA20160604011511206/04/16 01:15:31  5-MIN KAIA 040815Z AUTO 28007KT 10SM FEW100 08/05 A3023 3650 82 3700 270/07 RMK AO2 T00780050
24044KAIA AIA20160604012011206/04/16 01:20:31  5-MIN KAIA 040820Z AUTO 28007KT 10SM SCT100 08/05 A3023 3650 82 3700 270/07 RMK AO2 T00780050
24044KAIA AIA20160604012511206/04/16 01:25:31  5-MIN KAIA 040825Z AUTO 28007KT 10SM SCT100 08/05 A3023 3650 82 3700 270/07 RMK AO2 T00780050
24044KAIA AIA20160604013011206/04/16 01:30:31  5-MIN KAIA 040830Z AUTO 27007KT 10SM FEW100 07/05 A3023 3650 86 3600 270/07 RMK AO2 T00720050
24044KAIA AIA20160604013511206/04/16 01:35:31  5-MIN KAIA 040835Z AUTO 28007KT 10SM FEW100 07/05 A3023 3650 86 3600 270/07 RMK AO2 T00720050
24044KAIA AIA20160604014011206/04/16 01:40:31  5-MIN KAIA 040840Z AUTO 29004KT 10SM SCT100 07/05 A3023 3650 89 3600 280/04 RMK AO2 T00670050
24044KAIA AIA20160604014511206/04/16 01:45:31  5-MIN KAIA 040845Z AUTO 28005KT 10SM FEW100 07/05 A3023 3650 89 3600 280/05 RMK AO2 T00670050
24044KAIA AIA20160604015012506/04/16 01:50:31  5-MIN KAIA 040850Z AUTO 29007KT 10SM FEW100 07/05 A3023 3650 89 3600 280/07 RMK AO2 SLP211 T00670050 51021
24044KAIA AIA20160604015511206/04/16 01:55:31  5-MIN KAIA 040855Z AUTO 29007KT 10SM FEW100 08/05 A3023 3650 82 3700 280/07 RMK AO2 T00780050
24044KAIA AIA20160604020011206/04/16 02:00:31  5-MIN KAIA 040900Z AUTO 29007KT 10SM FEW100 07/05 A3023 3650 86 3600 280/07 RMK AO2 T00720050
24044KAIA AIA20160604020511206/04/16 02:05:31  5-MIN KAIA 040905Z AUTO 28007KT 10SM FEW100 07/05 A3023 3640 89 3500 270/07 RMK AO2 T00670050
24044KAIA AIA20160604021010906/04/16 02:10:31  5-MIN KAIA 040910Z AUTO 28006KT 10SM CLR 06/04 A3023 3650 89 3500 270/06 RMK AO2 T00610044
24044KAIA AIA20160604021510906/04/16 02:15:31  5-MIN KAIA 040915Z AUTO 28007KT 10SM CLR 06/04 A3023 3650 89 3500 270/07 RMK AO2 T00610044
24044KAIA AIA20160604022010906/04/16 02:20:31  5-MIN KAIA 040920Z AUTO 28007KT 10SM CLR 06/04 A3023 3650 89 3500 270/07 RMK AO2 T00610044
24044KAIA AIA20160604022510906/04/16 02:25:31  5-MIN KAIA 040925Z AUTO 28006KT 10SM CLR 06/04 A3023 3650 92 3400 270/06 RMK AO2 T00560044
24044KAIA AIA20160604023010906/04/16 02:30:31  5-MIN KAIA 040930Z AUTO 28007KT 10SM CLR 05/04 A3023 3650 92 3400 270/07 RMK AO2 T00500039
24044KAIA AIA20160604023510906/04/16 02:35:31  5-MIN KAIA 040935Z AUTO 27008KT 10SM CLR 06/04 A3023 3650 92 3400 260/08 RMK AO2 T00560044
24044KAIA AIA20160604024010906/04/16 02:40:31  5-MIN KAIA 040940Z AUTO 27009KT 10SM CLR 06/04 A3023 3640 89 3500 270/09 RMK AO2 T00610044
24044KAIA AIA20160604024510906/04/16 02:45:31  5-MIN KAIA 040945Z AUTO 27008KT 10SM CLR 06/05 A3023 3650 93 3500 270/08 RMK AO2 T00610050
24044KAIA AIA20160604025011606/04/16 02:50:31  5-MIN KAIA 040950Z AUTO 28008KT 10SM CLR 06/04 A3023 3650 89 3500 270/08 RMK AO2 SLP213 T00610044
24044KAIA AIA20160604025510906/04/16 02:55:31  5-MIN KAIA 040955Z AUTO 28008KT 10SM CLR 06/04 A3023 3650 89 3500 270/08 RMK AO2 T00610044
24044KAIA AIA20160604030010906/04/16 03:00:31  5-MIN KAIA 041000Z AUTO 27007KT 10SM CLR 06/04 A3023 3650 89 3500 270/07 RMK AO2 T00610044
24044KAIA AIA20160604030510906/04/16 03:05:31  5-MIN KAIA 041005Z AUTO 28008KT 10SM CLR 06/04 A3023 3650 92 3400 270/08 RMK AO2 T00560044
24044KAIA AIA20160604031010906/04/16 03:10:31  5-MIN KAIA 041010Z AUTO 28007KT 10SM CLR 06/04 A3023 3650 89 3500 270/07 RMK AO2 T00610044
24044KAIA AIA20160604031510906/04/16 03:15:31  5-MIN KAIA 041015Z AUTO 28007KT 10SM CLR 06/04 A3023 3650 89 3500 270/07 RMK AO2 T00610044
24044KAIA AIA20160604032010906/04/16 03:20:31  5-MIN KAIA 041020Z AUTO 28007KT 10SM CLR 06/04 A3023 3650 92 3400 270/07 RMK AO2 T00560044
24044KAIA AIA20160604032510906/04/16 03:25:31  5-MIN KAIA 041025Z AUTO 28008KT 10SM CLR 06/04 A3023 3650 92 3400 270/08 RMK AO2 T00560044
24044KAIA AIA20160604033010906/04/16 03:30:31  5-MIN KAIA 041030Z AUTO 28008KT 10SM CLR 06/04 A3023 3650 89 3500 270/08 RMK AO2 T00610044
24044KAIA AIA20160604033510906/04/16 03:35:31  5-MIN KAIA 041035Z AUTO 28007KT 10SM CLR 06/04 A3023 3650 89 3500 280/07 RMK AO2 T00610044
24044KAIA AIA20160604034010906/04/16 03:40:31  5-MIN KAIA 041040Z AUTO 28007KT 10SM CLR 06/04 A3023 3640 89 3500 270/07 RMK AO2 T00610044
24044KAIA AIA20160604034510906/04/16 03:45:31  5-MIN KAIA 041045Z AUTO 29006KT 10SM CLR 06/04 A3024 3640 92 3400 280/06 RMK AO2 T00560044
24044KAIA AIA20160604035011606/04/16 03:50:31  5-MIN KAIA 041050Z AUTO 29007KT 10SM CLR 06/04 A3024 3640 89 3500 280/07 RMK AO2 SLP217 T00610044
24044KAIA AIA20160604035510906/04/16 03:55:31  5-MIN KAIA 041055Z AUTO 28007KT 10SM CLR 06/04 A3024 3640 89 3500 270/07 RMK AO2 T00610044
24044KAIA AIA20160604040010906/04/16 04:00:31  5-MIN KAIA 041100Z AUTO 28007KT 10SM CLR 06/04 A3024 3640 92 3400 280/07 RMK AO2 T00560044
24044KAIA AIA20160604040510906/04/16 04:05:31  5-MIN KAIA 041105Z AUTO 29007KT 10SM CLR 06/04 A3024 3640 89 3400 280/07 RMK AO2 T00560039
24044KAIA AIA20160604041010906/04/16 04:10:31  5-MIN KAIA 041110Z AUTO 29008KT 10SM CLR 06/04 A3024 3640 92 3400 280/08 RMK AO2 T00560044
24044KAIA AIA20160604041510906/04/16 04:15:31  5-MIN KAIA 041115Z AUTO 28008KT 10SM CLR 06/04 A3024 3640 92 3400 280/08 RMK AO2 T00560044
24044KAIA AIA20160604042010906/04/16 04:20:31  5-MIN KAIA 041120Z AUTO 29008KT 10SM CLR 06/04 A3024 3640 89 3400 280/08 RMK AO2 T00560039
24044KAIA AIA20160604042510906/04/16 04:25:31  5-MIN KAIA 041125Z AUTO 29007KT 10SM CLR 05/04 A3024 3640 92 3300 280/07 RMK AO2 T00500039
24044KAIA AIA20160604043010906/04/16 04:30:31  5-MIN KAIA 041130Z AUTO 28007KT 10SM CLR 05/04 A3024 3640 92 3300 270/07 RMK AO2 T00500039
24044KAIA AIA20160604043510906/04/16 04:35:31  5-MIN KAIA 041135Z AUTO 28006KT 10SM CLR 05/04 A3024 3640 92 3300 270/06 RMK AO2 T00500039
24044KAIA AIA20160604044010906/04/16 04:40:31  5-MIN KAIA 041140Z AUTO 28006KT 10SM CLR 05/04 A3024 3640 92 3300 270/06 RMK AO2 T00500039
24044KAIA AIA20160604044510906/04/16 04:45:31  5-MIN KAIA 041145Z AUTO 28007KT 10SM CLR 06/04 A3025 3630 89 3400 270/07 RMK AO2 T00560039
24044KAIA AIA20160604045013406/04/16 04:50:31  5-MIN KAIA 041150Z AUTO 27008KT 10SM CLR 06/04 A3025 3630 89 3400 270/08 RMK AO2 SLP220 T00560039 10117 20050 51003
24044KAIA AIA20160604045510906/04/16 04:55:31  5-MIN KAIA 041155Z AUTO 27007KT 10SM CLR 06/04 A3025 3630 89 3500 270/07 RMK AO2 T00610044
24044KAIA AIA20160604050010906/04/16 05:00:31  5-MIN KAIA 041200Z AUTO 27008KT 10SM CLR 06/05 A3025 3630 93 3500 260/08 RMK AO2 T00610050
24044KAIA AIA20160604050510906/04/16 05:05:31  5-MIN KAIA 041205Z AUTO 27006KT 10SM CLR 07/05 A3025 3630 89 3500 260/06 RMK AO2 T00670050
24044KAIA AIA20160604051010906/04/16 05:10:31  5-MIN KAIA 041210Z AUTO 27007KT 10SM CLR 07/05 A3025 3630 89 3500 260/07 RMK AO2 T00670050
24044KAIA AIA20160604051512706/04/16 05:15:31  5-MIN KAIA 041215Z AUTO 27008KT 260V010 10SM CLR 07/06 A3025 3630 89 3600 260/08 250V360 RMK AO2 T00720056 $
24044KAIA AIA20160604052011106/04/16 05:20:31  5-MIN KAIA 041220Z AUTO 27008KT 10SM CLR 08/06 A3025 3630 86 3700 260/08 RMK AO2 T00780056 $
24044KAIA AIA20160604052511106/04/16 05:25:31  5-MIN KAIA 041225Z AUTO 27008KT 10SM CLR 08/06 A3025 3630 86 3700 260/08 RMK AO2 T00830061 $
24044KAIA AIA20160604053011106/04/16 05:30:31  5-MIN KAIA 041230Z AUTO 27009KT 10SM CLR 09/06 A3025 3630 83 3800 270/09 RMK AO2 T00890061 $
24044KAIA AIA20160604053511106/04/16 05:35:31  5-MIN KAIA 041235Z AUTO 28010KT 10SM CLR 09/06 A3026 3630 83 3800 270/10 RMK AO2 T00890061 $
24044KAIA AIA20160604054011106/04/16 05:40:31  5-MIN KAIA 041240Z AUTO 27010KT 10SM CLR 09/06 A3025 3630 79 3900 270/10 RMK AO2 T00940061 $
24044KAIA AIA20160604054511106/04/16 05:45:31  5-MIN KAIA 041245Z AUTO 27010KT 10SM CLR 10/06 A3026 3630 77 3900 270/10 RMK AO2 T01000061 $
24044KAIA AIA20160604055011806/04/16 05:50:31  5-MIN KAIA 041250Z AUTO 28009KT 10SM CLR 10/07 A3025 3630 80 3900 270/09 RMK AO2 SLP218 T01000067 $
24044KAIA AIA20160604055511106/04/16 05:55:31  5-MIN KAIA 041255Z AUTO 28010KT 10SM CLR 11/07 A3026 3630 74 4000 270/10 RMK AO2 T01110067 $
24044KAIA AIA20160604060011106/04/16 06:00:31  5-MIN KAIA 041300Z AUTO 28010KT 10SM CLR 11/06 A3026 3630 71 4100 270/10 RMK AO2 T01110061 $
24044KAIA AIA20160604060511106/04/16 06:05:31  5-MIN KAIA 041305Z AUTO 28008KT 10SM CLR 12/07 A3025 3630 71 4100 270/08 RMK AO2 T01170067 $
24044KAIA AIA20160604061011106/04/16 06:10:31  5-MIN KAIA 041310Z AUTO 28009KT 10SM CLR 12/07 A3026 3620 71 4100 270/09 RMK AO2 T01170067 $
24044KAIA AIA20160604061511106/04/16 06:15:31  5-MIN KAIA 041315Z AUTO 28008KT 10SM CLR 12/07 A3026 3620 68 4200 280/08 RMK AO2 T01220067 $
24044KAIA AIA20160604062011106/04/16 06:20:31  5-MIN KAIA 041320Z AUTO 28009KT 10SM CLR 13/07 A3026 3620 66 4200 270/09 RMK AO2 T01280067 $
24044KAIA AIA20160604062511106/04/16 06:25:31  5-MIN KAIA 041325Z AUTO 27009KT 10SM CLR 13/07 A3026 3620 66 4300 270/09 RMK AO2 T01330072 $
24044KAIA AIA20160604063011106/04/16 06:30:31  5-MIN KAIA 041330Z AUTO 28009KT 10SM CLR 14/07 A3026 3620 64 4400 270/09 RMK AO2 T01390072 $
24044KAIA AIA20160604063511106/04/16 06:35:31  5-MIN KAIA 041335Z AUTO 29008KT 10SM CLR 14/07 A3026 3620 61 4400 280/08 RMK AO2 T01440072 $
24044KAIA AIA20160604064011106/04/16 06:40:31  5-MIN KAIA 041340Z AUTO 29010KT 10SM CLR 15/07 A3026 3620 59 4500 280/10 RMK AO2 T01500072 $
24044KAIA AIA20160604064511106/04/16 06:45:31  5-MIN KAIA 041345Z AUTO 29010KT 10SM CLR 15/07 A3026 3620 59 4500 280/10 RMK AO2 T01500072 $
24044KAIA AIA20160604065011806/04/16 06:50:31  5-MIN KAIA 041350Z AUTO 29010KT 10SM CLR 16/07 A3026 3620 55 4600 280/10 RMK AO2 SLP216 T01560067 $
24044KAIA AIA20160604065511106/04/16 06:55:31  5-MIN KAIA 041355Z AUTO 29009KT 10SM CLR 16/07 A3026 3620 57 4600 280/09 RMK AO2 T01560072 $
24044KAIA AIA20160604070011106/04/16 07:00:31  5-MIN KAIA 041400Z AUTO 29008KT 10SM CLR 17/07 A3026 3620 53 4700 290/08 RMK AO2 T01670072 $
24044KAIA AIA20160604070511106/04/16 07:05:31  5-MIN KAIA 041405Z AUTO 29009KT 10SM CLR 17/07 A3026 3620 51 4700 280/09 RMK AO2 T01670067 $
24044KAIA AIA20160604071011106/04/16 07:10:31  5-MIN KAIA 041410Z AUTO 30008KT 10SM CLR 17/07 A3026 3620 51 4700 290/08 RMK AO2 T01720072 $
24044KAIA AIA20160604071511106/04/16 07:15:31  5-MIN KAIA 041415Z AUTO 30008KT 10SM CLR 18/08 A3026 3620 51 4800 290/08 RMK AO2 T01780078 $
24044KAIA AIA20160604072011106/04/16 07:20:31  5-MIN KAIA 041420Z AUTO 29009KT 10SM CLR 18/07 A3026 3620 46 4900 290/09 RMK AO2 T01830067 $
24044KAIA AIA20160604072511106/04/16 07:25:31  5-MIN KAIA 041425Z AUTO 31011KT 10SM CLR 19/06 A3026 3620 43 4900 310/11 RMK AO2 T01890061 $
24044KAIA AIA20160604073011106/04/16 07:30:31  5-MIN KAIA 041430Z AUTO 30008KT 10SM CLR 19/07 A3026 3620 44 4900 300/08 RMK AO2 T01890067 $
24044KAIA AIA20160604073511106/04/16 07:35:31  5-MIN KAIA 041435Z AUTO 31008KT 10SM CLR 19/06 A3026 3620 41 5000 300/08 RMK AO2 T01940061 $
24044KAIA AIA20160604074011106/04/16 07:40:31  5-MIN KAIA 041440Z AUTO 31009KT 10SM CLR 20/07 A3026 3620 41 5100 300/09 RMK AO2 T02000067 $
24044KAIA AIA20160604074511106/04/16 07:45:31  5-MIN KAIA 041445Z AUTO 30010KT 10SM CLR 20/06 A3026 3620 40 5100 290/10 RMK AO2 T02000061 $
24044KAIA AIA20160604075012406/04/16 07:50:31  5-MIN KAIA 041450Z AUTO 32009KT 10SM CLR 20/06 A3026 3620 40 5100 310/09 RMK AO2 SLP216 T02000061 53005 $
24044KAIA AIA20160604075511106/04/16 07:55:31  5-MIN KAIA 041455Z AUTO 34012KT 10SM CLR 21/06 A3026 3620 38 5100 330/12 RMK AO2 T02060061 $
24044KAIA AIA20160604080011706/04/16 08:00:31  5-MIN KAIA 041500Z AUTO 32013G18KT 10SM CLR 21/05 A3026 3620 35 5100 310/13G18 RMK AO2 T02060050 $
24044KAIA AIA20160604080511106/04/16 08:05:31  5-MIN KAIA 041505Z AUTO 33012KT 10SM CLR 21/06 A3026 3620 37 5100 320/12 RMK AO2 T02060056 $
24044KAIA AIA20160604081011706/04/16 08:10:31  5-MIN KAIA 041510Z AUTO 32016G22KT 10SM CLR 21/05 A3026 3620 34 5200 320/16G22 RMK AO2 T02110050 $
24044KAIA AIA20160604081511706/04/16 08:15:31  5-MIN KAIA 041515Z AUTO 34013G22KT 10SM CLR 21/05 A3026 3620 34 5200 330/13G22 RMK AO2 T02110050 $
24044KAIA AIA20160604082011106/04/16 08:20:31  5-MIN KAIA 041520Z AUTO 33013KT 10SM CLR 21/05 A3026 3630 34 5200 330/13 RMK AO2 T02110050 $
24044KAIA AIA20160604082511706/04/16 08:25:31  5-MIN KAIA 041525Z AUTO 33012G20KT 10SM CLR 21/05 A3026 3630 34 5200 320/12G20 RMK AO2 T02110050 $
24044KAIA AIA20160604083011706/04/16 08:30:31  5-MIN KAIA 041530Z AUTO 33014G21KT 10SM CLR 21/05 A3026 3630 34 5200 320/14G21 RMK AO2 T02110050 $
24044KAIA AIA20160604083511706/04/16 08:35:31  5-MIN KAIA 041535Z AUTO 34012G21KT 10SM CLR 22/05 A3026 3630 33 5300 330/12G21 RMK AO2 T02170050 $
24044KAIA AIA20160604084011106/04/16 08:40:31  5-MIN KAIA 041540Z AUTO 33014KT 10SM CLR 22/05 A3026 3620 33 5300 320/14 RMK AO2 T02170050 $
24044KAIA AIA20160604084511706/04/16 08:45:31  5-MIN KAIA 041545Z AUTO 35018G23KT 10SM CLR 22/04 A3026 3620 31 5300 340/18G23 RMK AO2 T02220044 $
24044KAIA AIA20160604085012406/04/16 08:50:31  5-MIN KAIA 041550Z AUTO 35017G23KT 10SM CLR 22/04 A3026 3630 31 5300 340/17G23 RMK AO2 SLP215 T02170039 $
24044KAIA AIA20160604085511706/04/16 08:55:31  5-MIN KAIA 041555Z AUTO 33016G23KT 10SM CLR 22/04 A3026 3620 32 5300 330/16G23 RMK AO2 T02170044 $
24044KAIA AIA20160604090011706/04/16 09:00:31  5-MIN KAIA 041600Z AUTO 35014G21KT 10SM CLR 22/04 A3025 3630 32 5300 340/14G21 RMK AO2 T02170044 $
24044KAIA AIA20160604090511706/04/16 09:05:31  5-MIN KAIA 041605Z AUTO 35015G22KT 10SM CLR 22/04 A3025 3630 32 5300 340/15G22 RMK AO2 T02170044 $
24044KAIA AIA20160604091011706/04/16 09:10:31  5-MIN KAIA 041610Z AUTO 35018G24KT 10SM CLR 22/04 A3025 3630 31 5300 340/18G24 RMK AO2 T02220044 $
24044KAIA AIA20160604091511706/04/16 09:15:31  5-MIN KAIA 041615Z AUTO 34013G24KT 10SM CLR 22/04 A3025 3630 30 5300 330/13G24 RMK AO2 T02220039 $
24044KAIA AIA20160604092011706/04/16 09:20:31  5-MIN KAIA 041620Z AUTO 36013G22KT 10SM CLR 22/04 A3025 3630 31 5300 350/13G22 RMK AO2 T02220044 $
24044KAIA AIA20160604092511706/04/16 09:25:31  5-MIN KAIA 041625Z AUTO 35017G24KT 10SM CLR 23/05 A3025 3630 31 5400 340/17G24 RMK AO2 T02280050 $
24044KAIA AIA20160604093011706/04/16 09:30:31  5-MIN KAIA 041630Z AUTO 36016G24KT 10SM CLR 22/04 A3025 3630 31 5300 350/16G24 RMK AO2 T02220044 $
24044KAIA AIA20160604093511706/04/16 09:35:31  5-MIN KAIA 041635Z AUTO 36014G22KT 10SM CLR 22/05 A3025 3630 32 5300 350/14G22 RMK AO2 T02220050 $
24044KAIA AIA20160604094011706/04/16 09:40:31  5-MIN KAIA 041640Z AUTO 35011G22KT 10SM CLR 23/06 A3025 3630 32 5400 350/11G22 RMK AO2 T02280056 $
24044KAIA AIA20160604094511706/04/16 09:45:31  5-MIN KAIA 041645Z AUTO 36016G22KT 10SM CLR 23/05 A3024 3640 31 5400 350/16G22 RMK AO2 T02280050 $
24044KAIA AIA20160604095012406/04/16 09:50:31  5-MIN KAIA 041650Z AUTO 36016G22KT 10SM CLR 23/05 A3024 3640 31 5400 350/16G22 RMK AO2 SLP213 T02280050 $
24044KAIA AIA20160604095511706/04/16 09:55:31  5-MIN KAIA 041655Z AUTO 35015G22KT 10SM CLR 23/05 A3024 3640 31 5400 340/15G22 RMK AO2 T02280050 $
24044KAIA AIA20160604100011706/04/16 10:00:31  5-MIN KAIA 041700Z AUTO 36015G23KT 10SM CLR 23/05 A3024 3640 31 5400 350/15G23 RMK AO2 T02280050 $
24044KAIA AIA20160604100511706/04/16 10:05:31  5-MIN KAIA 041705Z AUTO 35016G23KT 10SM CLR 23/05 A3024 3640 31 5400 340/16G23 RMK AO2 T02280050 $
24044KAIA AIA20160604101011706/04/16 10:10:31  5-MIN KAIA 041710Z AUTO 34016G23KT 10SM CLR 23/04 A3024 3640 30 5400 330/16G23 RMK AO2 T02280044 $
24044KAIA AIA20160604101511706/04/16 10:15:31  5-MIN KAIA 041715Z AUTO 35011G23KT 10SM CLR 23/05 A3024 3640 31 5400 340/11G23 RMK AO2 T02280050 $
24044KAIA AIA20160604102011706/04/16 10:20:31  5-MIN KAIA 041720Z AUTO 34017G22KT 10SM CLR 23/04 A3024 3640 30 5400 330/17G22 RMK AO2 T02280044 $
24044KAIA AIA20160604102511106/04/16 10:25:31  5-MIN KAIA 041725Z AUTO 33014KT 10SM CLR 23/04 A3024 3640 30 5400 320/14 RMK AO2 T02280044 $
24044KAIA AIA20160604103011706/04/16 10:30:31  5-MIN KAIA 041730Z AUTO 35015G22KT 10SM CLR 23/05 A3024 3640 30 5500 340/15G22 RMK AO2 T02330050 $
24044KAIA AIA20160604103511706/04/16 10:35:31  5-MIN KAIA 041735Z AUTO 33013G22KT 10SM CLR 23/05 A3024 3640 30 5500 320/13G22 RMK AO2 T02330050 $
24044KAIA AIA20160604104011106/04/16 10:40:31  5-MIN KAIA 041740Z AUTO 33013KT 10SM CLR 23/06 A3024 3640 31 5500 320/13 RMK AO2 T02330056 $
24044KAIA AIA20160604104511106/04/16 10:45:31  5-MIN KAIA 041745Z AUTO 34015KT 10SM CLR 23/05 A3024 3640 30 5500 330/15 RMK AO2 T02330050 $
24044KAIA AIA20160604105014206/04/16 10:50:31  5-MIN KAIA 041750Z AUTO 35015G20KT 10SM CLR 23/06 A3024 3640 31 5500 340/15G20 RMK AO2 SLP208 T02330056 10233 20056 51004 $
24044KAIA AIA20160604105511706/04/16 10:55:31  5-MIN KAIA 041755Z AUTO 33012G22KT 10SM CLR 23/05 A3024 3640 30 5500 330/12G22 RMK AO2 T02330050 $
24044KAIA AIA20160604110011706/04/16 11:00:31  5-MIN KAIA 041800Z AUTO 32016G21KT 10SM CLR 23/05 A3024 3640 30 5500 310/16G21 RMK AO2 T02330050 $
24044KAIA AIA20160604110511706/04/16 11:05:31  5-MIN KAIA 041805Z AUTO 33015G21KT 10SM CLR 23/06 A3023 3640 31 5500 330/15G21 RMK AO2 T02330056 $
24044KAIA AIA20160604111011706/04/16 11:10:31  5-MIN KAIA 041810Z AUTO 33015G20KT 10SM CLR 23/06 A3023 3650 31 5500 320/15G20 RMK AO2 T02330056 $
24044KAIA AIA20160604111511706/04/16 11:15:31  5-MIN KAIA 041815Z AUTO 34016G24KT 10SM CLR 24/05 A3023 3650 29 5500 330/16G24 RMK AO2 T02390050 $
24044KAIA AIA20160604112011706/04/16 11:20:31  5-MIN KAIA 041820Z AUTO 35015G24KT 10SM CLR 24/05 A3023 3650 29 5500 340/15G24 RMK AO2 T02390050 $
24044KAIA AIA20160604112513306/04/16 11:25:31  5-MIN KAIA 041825Z AUTO 34010G23KT 310V010 10SM CLR 24/05 A3023 3650 29 5500 330/10G23 300V360 RMK AO2 T02390050 $
24044KAIA AIA20160604113011706/04/16 11:30:31  5-MIN KAIA 041830Z AUTO 34018G23KT 10SM CLR 24/06 A3023 3650 30 5500 330/18G23 RMK AO2 T02390056 $
24044KAIA AIA20160604113511706/04/16 11:35:31  5-MIN KAIA 041835Z AUTO 33017G23KT 10SM CLR 24/06 A3022 3660 30 5500 320/17G23 RMK AO2 T02390056 $
24044KAIA AIA20160604114011706/04/16 11:40:31  5-MIN KAIA 041840Z AUTO 34016G21KT 10SM CLR 24/06 A3022 3660 30 5600 330/16G21 RMK AO2 T02440061 $
24044KAIA AIA20160604114511106/04/16 11:45:31  5-MIN KAIA 041845Z AUTO 34016KT 10SM CLR 24/06 A3022 3660 30 5500 330/16 RMK AO2 T02390056 $
24044KAIA AIA20160604115012406/04/16 11:50:31  5-MIN KAIA 041850Z AUTO 34016G22KT 10SM CLR 24/06 A3022 3660 30 5500 330/16G22 RMK AO2 SLP203 T02390056 $
24044KAIA AIA20160604115511706/04/16 11:55:31  5-MIN KAIA 041855Z AUTO 32011G22KT 10SM CLR 24/06 A3022 3660 30 5500 310/11G22 RMK AO2 T02390056 $
24044KAIA AIA20160604120011706/04/16 12:00:31  5-MIN KAIA 041900Z AUTO 33014G19KT 10SM CLR 24/05 A3022 3660 29 5500 320/14G19 RMK AO2 T02390050 $
24044KAIA AIA20160604120511706/04/16 12:05:31  5-MIN KAIA 041905Z AUTO 32013G19KT 10SM CLR 24/05 A3022 3660 29 5500 310/13G19 RMK AO2 T02390050 $
24044KAIA AIA20160604121011706/04/16 12:10:31  5-MIN KAIA 041910Z AUTO 34013G19KT 10SM CLR 24/06 A3021 3660 29 5600 330/13G19 RMK AO2 T02440056 $
24044KAIA AIA20160604121512706/04/16 12:15:31  5-MIN KAIA 041915Z AUTO 35012KT 310V010 10SM CLR 24/06 A3021 3670 29 5600 340/12 300V360 RMK AO2 T02440056 $
24044KAIA AIA20160604122011706/04/16 12:20:31  5-MIN KAIA 041920Z AUTO 35016G22KT 10SM CLR 24/04 A3021 3670 27 5600 340/16G22 RMK AO2 T02440044 $
24044KAIA AIA20160604122511706/04/16 12:25:31  5-MIN KAIA 041925Z AUTO 34013G22KT 10SM CLR 24/05 A3021 3670 28 5600 330/13G22 RMK AO2 T02440050 $
24044KAIA AIA20160604123011706/04/16 12:30:31  5-MIN KAIA 041930Z AUTO 30013G20KT 10SM CLR 24/05 A3021 3670 28 5600 290/13G20 RMK AO2 T02440050 $
24044KAIA AIA20160604123511106/04/16 12:35:31  5-MIN KAIA 041935Z AUTO 33011KT 10SM CLR 24/05 A3020 3670 28 5600 330/11 RMK AO2 T02440050 $
24044KAIA AIA20160604124011706/04/16 12:40:31  5-MIN KAIA 041940Z AUTO 34010G20KT 10SM CLR 24/06 A3020 3670 29 5600 330/10G20 RMK AO2 T02440056 $
24044KAIA AIA20160604124511706/04/16 12:45:31  5-MIN KAIA 041945Z AUTO 31015G21KT 10SM CLR 25/06 A3020 3680 29 5700 310/15G21 RMK AO2 T02500061 $
24044KAIA AIA20160604125012406/04/16 12:50:31  5-MIN KAIA 041950Z AUTO 36014G22KT 10SM CLR 24/05 A3020 3680 28 5600 350/14G22 RMK AO2 SLP199 T02440050 $
24044KAIA AIA20160604125511706/04/16 12:55:31  5-MIN KAIA 041955Z AUTO 35017G23KT 10SM CLR 25/05 A3020 3680 27 5700 340/17G23 RMK AO2 T02500050 $
24044KAIA AIA20160604130011706/04/16 13:00:31  5-MIN KAIA 042000Z AUTO 35012G23KT 10SM CLR 25/06 A3020 3680 28 5700 340/12G23 RMK AO2 T02500056 $
24044KAIA AIA20160604130511706/04/16 13:05:31  5-MIN KAIA 042005Z AUTO 33014G20KT 10SM CLR 25/06 A3020 3680 28 5700 320/14G20 RMK AO2 T02500056 $
24044KAIA AIA20160604131011706/04/16 13:10:31  5-MIN KAIA 042010Z AUTO 33013G20KT 10SM CLR 24/06 A3020 3680 30 5600 320/13G20 RMK AO2 T02440061 $
24044KAIA AIA20160604131511706/04/16 13:15:31  5-MIN KAIA 042015Z AUTO 35014G21KT 10SM CLR 26/07 A3020 3680 29 5800 340/14G21 RMK AO2 T02560067 $
24044KAIA AIA20160604132011706/04/16 13:20:31  5-MIN KAIA 042020Z AUTO 32014G22KT 10SM CLR 25/06 A3020 3680 29 5700 320/14G22 RMK AO2 T02500061 $
24044KAIA AIA20160604132513306/04/16 13:25:31  5-MIN KAIA 042025Z AUTO 31015G22KT 290V360 10SM CLR 25/06 A3019 3680 29 5700 300/15G22 280V350 RMK AO2 T02500061 $
24044KAIA AIA20160604133011706/04/16 13:30:31  5-MIN KAIA 042030Z AUTO 33017G21KT 10SM CLR 25/06 A3019 3680 29 5700 320/17G21 RMK AO2 T02500061 $
24044KAIA AIA20160604133511706/04/16 13:35:31  5-MIN KAIA 042035Z AUTO 32018G21KT 10SM CLR 25/06 A3020 3680 29 5700 310/18G21 RMK AO2 T02500061 $
24044KAIA AIA20160604134011706/04/16 13:40:31  5-MIN KAIA 042040Z AUTO 34013G19KT 10SM CLR 24/06 A3019 3680 30 5600 330/13G19 RMK AO2 T02440061 $
24044KAIA AIA20160604134511706/04/16 13:45:31  5-MIN KAIA 042045Z AUTO 32015G19KT 10SM CLR 24/06 A3019 3680 30 5600 310/15G19 RMK AO2 T02440061 $
24044KAIA AIA20160604135012406/04/16 13:50:31  5-MIN KAIA 042050Z AUTO 34018KT 10SM CLR 25/06 A3019 3680 29 5700 330/18 RMK AO2 SLP198 T02500061 58007 $
24044KAIA AIA20160604135511106/04/16 13:55:31  5-MIN KAIA 042055Z AUTO 35013KT 10SM CLR 25/06 A3019 3680 28 5700 340/13 RMK AO2 T02500056 $
24044KAIA AIA20160604140011706/04/16 14:00:31  5-MIN KAIA 042100Z AUTO 36012G20KT 10SM CLR 25/06 A3019 3690 29 5700 350/12G20 RMK AO2 T02500061 $
24044KAIA AIA20160604140511706/04/16 14:05:31  5-MIN KAIA 042105Z AUTO 33013G19KT 10SM CLR 25/06 A3019 3690 29 5700 320/13G19 RMK AO2 T02500061 $
24044KAIA AIA20160604141011106/04/16 14:10:31  5-MIN KAIA 042110Z AUTO 33015KT 10SM CLR 25/06 A3019 3690 28 5700 320/15 RMK AO2 T02500056 $
24044KAIA AIA20160604141511706/04/16 14:15:31  5-MIN KAIA 042115Z AUTO 34011G21KT 10SM CLR 25/06 A3019 3690 28 5700 330/11G21 RMK AO2 T02500056 $
24044KAIA AIA20160604142011706/04/16 14:20:31  5-MIN KAIA 042120Z AUTO 32015G19KT 10SM CLR 25/06 A3019 3690 29 5700 320/15G19 RMK AO2 T02500061 $
24044KAIA AIA20160604142511706/04/16 14:25:31  5-MIN KAIA 042125Z AUTO 35012G19KT 10SM CLR 26/07 A3018 3690 29 5800 340/12G19 RMK AO2 T02560067 $
24044KAIA AIA20160604143011706/04/16 14:30:31  5-MIN KAIA 042130Z AUTO 35015G21KT 10SM CLR 26/06 A3018 3690 28 5800 340/15G21 RMK AO2 T02560061 $
24044KAIA AIA20160604143511706/04/16 14:35:31  5-MIN KAIA 042135Z AUTO 34016G21KT 10SM CLR 26/06 A3018 3690 27 5800 330/16G21 RMK AO2 T02560056 $
24044KAIA AIA20160604144011706/04/16 14:40:31  5-MIN KAIA 042140Z AUTO 32011G21KT 10SM CLR 25/06 A3018 3700 28 5700 310/11G21 RMK AO2 T02500056 $
24044KAIA AIA20160604144511106/04/16 14:45:31  5-MIN KAIA 042145Z AUTO 33009KT 10SM CLR 25/06 A3018 3700 28 5700 330/09 RMK AO2 T02500056 $
24044KAIA AIA20160604145013406/04/16 14:50:31  5-MIN KAIA 042150Z AUTO 34008KT 310V010 10SM CLR 26/06 A3017 3700 27 5800 330/08 300V360 RMK AO2 SLP191 T02560056 $
24044KAIA AIA20160604145511706/04/16 14:55:31  5-MIN KAIA 042155Z AUTO 34011G21KT 10SM CLR 26/06 A3017 3700 27 5800 330/11G21 RMK AO2 T02560056 $
24044KAIA AIA20160604150011706/04/16 15:00:31  5-MIN KAIA 042200Z AUTO 35012G21KT 10SM CLR 26/06 A3017 3700 27 5800 340/12G21 RMK AO2 T02560056 $
24044KAIA AIA20160604150511706/04/16 15:05:31  5-MIN KAIA 042205Z AUTO 35012G16KT 10SM CLR 26/06 A3017 3700 27 5800 340/12G16 RMK AO2 T02560056 $
24044KAIA AIA20160604151011706/04/16 15:10:31  5-MIN KAIA 042210Z AUTO 33012G20KT 10SM CLR 26/06 A3017 3710 28 5800 320/12G20 RMK AO2 T02560061 $
24044KAIA AIA20160604151511706/04/16 15:15:31  5-MIN KAIA 042215Z AUTO 36014G20KT 10SM CLR 26/06 A3017 3710 28 5800 350/14G20 RMK AO2 T02560061 $
24044KAIA AIA20160604152011706/04/16 15:20:31  5-MIN KAIA 042220Z AUTO 35015G21KT 10SM CLR 26/05 A3017 3710 26 5800 340/15G21 RMK AO2 T02560050 $
24044KAIA AIA20160604152511706/04/16 15:25:31  5-MIN KAIA 042225Z AUTO 35010G21KT 10SM CLR 26/06 A3016 3710 27 5800 340/10G21 RMK AO2 T02560056 $
24044KAIA AIA20160604153011706/04/16 15:30:31  5-MIN KAIA 042230Z AUTO 34011G16KT 10SM CLR 26/06 A3016 3710 27 5800 340/11G16 RMK AO2 T02560056 $
24044KAIA AIA20160604153511706/04/16 15:35:31  5-MIN KAIA 042235Z AUTO 33013G19KT 10SM CLR 26/05 A3016 3710 26 5800 320/13G19 RMK AO2 T02560050 $
24044KAIA AIA20160604154011706/04/16 15:40:31  5-MIN KAIA 042240Z AUTO 35011G18KT 10SM CLR 26/04 A3016 3710 25 5800 350/11G18 RMK AO2 T02560044 $
24044KAIA AIA20160604154511706/04/16 15:45:31  5-MIN KAIA 042245Z AUTO 33009G18KT 10SM CLR 26/05 A3016 3710 26 5800 320/09G18 RMK AO2 T02560050 $
24044KAIA AIA20160604155011806/04/16 15:50:31  5-MIN KAIA 042250Z AUTO 35010KT 10SM CLR 26/05 A3016 3710 26 5800 340/10 RMK AO2 SLP187 T02560050 $
24044KAIA AIA20160604155511106/04/16 15:55:31  5-MIN KAIA 042255Z AUTO 36008KT 10SM CLR 26/05 A3016 3710 26 5800 350/08 RMK AO2 T02560050 $
24044KAIA AIA20160604160011106/04/16 16:00:31  5-MIN KAIA 042300Z AUTO 34013KT 10SM CLR 26/06 A3016 3710 26 5900 330/13 RMK AO2 T02610056 $
24044KAIA AIA20160604160511106/04/16 16:05:31  5-MIN KAIA 042305Z AUTO 33011KT 10SM CLR 26/06 A3016 3710 27 5800 320/11 RMK AO2 T02560056 $
24044KAIA AIA20160604161009706/04/16 16:10:31  5-MIN KAIA 042310Z  CLR 26/06 A3016 3720 27 5800 360/11G18 RMK AO2 T02560056 $
24044KAIA AIA20160604162513306/04/16 16:25:31  5-MIN KAIA 042325Z AUTO 36009KT 10SM CLR 26/06 A3015 3720 28 5800 350/09 RMK AO2 T02560 010/12 RMK AO2 T02390072 $
24044KAIA AIA20160604172511106/04/16 17:25:31  5-MIN KAIA 050025Z AUTO 03012KT 10SM CLR 24/07 A3016 3720 32 5600 020/12 RMK AO2 T02390067 $
24044KAIA AIA20160604173011106/04/16 17:30:31  5-MIN KAIA 050030Z AUTO 02014KT 10SM CLR 24/07 A3016 3720 34 5600 010/14 RMK AO2 T02390072 $
24044KAIA AIA20160604173515006/04/16 17:35:31  5-MIN KAIA 050035Z AUTO 02012KT 10SM CLR 23/07 A3016 3710 35 5500 020/12 RMK AO2 T02330072 $3710 38 5300 010/10 RMK AO2 T02110067 $
24044KAIA AIA20160604184011106/04/16 18:40:31  5-MIN KAIA 050140Z AUTO 02009KT 10SM CLR 21/07 A3017 3700 40 5200 010/09 RMK AO2 T02060067 $
24044KAIA AIA20160604184511106/04/16 18:45:31  5-MIN KAIA 050145Z AUTO 02009KT 10SM CLR 21/07 A3017 3710 40 5200 010/09 RMK AO2 T02060067 $
24044KAIA AIA20160604185011806/04/16 18:50:31  5-MIN KAIA 050150Z AUTO 02009KT 10SM CLR 20/07 A3017 3710 43 5200 010/09 RMK AO2 SLP184 T02000072 $
24044KAIA AIA20160604185511106/04/16 18:55:31  5-MIN KAIA 050155Z AUTO 02010KT 10SM CLR 19/07 A3017 3710 44 5100 010/10 RMK AO2 T01940072 $
24044KAIA AIA20160604190011106/04/16 19:00:31  5-MIN KAIA 050200Z AUTO 02009KT 10SM CLR 19/07 A3017 3710 46 5000 010/09 RMK AO2 T01890072 $
24044KAIA AIA20160604190511106/04/16 19:05:31  5-MIN KAIA 050205Z AUTO 02008KT 10SM CLR 19/07 A3017 3700 46 5000 010/08 RMK AO2 T01890072 $
24044KAIA AIA20160604191011106/04/16 19:10:31  5-MIN KAIA 050210Z AUTO 02007KT 10SM CLR 18/07 A3017 3700 48 5000 020/07 RMK AO2 T01830072 $
24044KAIA AIA20160604191511106/04/16 19:15:31  5-MIN KAIA 050215Z AUTO 02008KT 10SM CLR 17/07 A3017 3700 51 4800 020/08 RMK AO2 T01720072 $
24044KAIA AIA20160604192011106/04/16 19:20:31  5-MIN KAIA 050220Z AUTO 02008KT 10SM CLR 17/07 A3017 3700 51 4800 010/08 RMK AO2 T01720072 $
24044KAIA AIA20160604192511106/04/16 19:25:31  5-MIN KAIA 050225Z AUTO 02008KT 10SM CLR 17/07 A3017 3700 53 4800 010/08 RMK AO2 T01670072 $
24044KAIA AIA20160604193011106/04/16 19:30:31  5-MIN KAIA 050230Z AUTO 02008KT 10SM CLR 16/07 A3017 3700 55 4700 010/08 RMK AO2 T01610072 $
24044KAIA AIA20160604193511106/04/16 19:35:31  5-MIN KAIA 050235Z AUTO 03007KT 10SM CLR 16/07 A3017 3700 55 4700 020/07 RMK AO2 T01610072 $
24044KAIA AIA20160604194011106/04/16 19:40:31  5-MIN KAIA 050240Z AUTO 03006KT 10SM CLR 16/07 A3017 3700 53 4700 030/06 RMK AO2 T01610067 $
24044KAIA AIA20160604194511106/04/16 19:45:31  5-MIN KAIA 050245Z AUTO 04005KT 10SM CLR 16/07 A3017 3700 53 4700 030/05 RMK AO2 T01610067 $
24044KAIA AIA20160604195012406/04/16 19:50:31  5-MIN KAIA 050250Z AUTO 05004KT 10SM CLR 16/06 A3017 3700 51 4700 040/04 RMK AO2 SLP185 T01610061 56012 $
24044KAIA AIA20160604195511106/04/16 19:55:31  5-MIN KAIA 050255Z AUTO 05004KT 10SM CLR 16/06 A3017 3700 49 4700 050/04 RMK AO2 T01610056 $
24044KAIA AIA20160604200011106/04/16 20:00:31  5-MIN KAIA 050300Z AUTO 05005KT 10SM CLR 16/06 A3017 3700 51 4700 040/05 RMK AO2 T01560056 $
24044KAIA AIA20160604200511106/04/16 20:05:31  5-MIN KAIA 050305Z AUTO 04005KT 10SM CLR 15/06 A3017 3700 53 4600 030/05 RMK AO2 T01500056 $
24044KAIA AIA20160604201011106/04/16 20:10:31  5-MIN KAIA 050310Z AUTO 03006KT 10SM CLR 14/06 A3018 3700 55 4500 020/06 RMK AO2 T01440056 $
24044KAIA AIA20160604201511106/04/16 20:15:31  5-MIN KAIA 050315Z AUTO 03008KT 10SM CLR 14/06 A3018 3690 57 4500 020/08 RMK AO2 T01390056 $
24044KAIA AIA20160604202011106/04/16 20:20:31  5-MIN KAIA 050320Z AUTO 03009KT 10SM CLR 13/05 A3018 3690 59 4300 020/09 RMK AO2 T01280050 $
24044KAIA AIA20160604202511106/04/16 20:25:31  5-MIN KAIA 050325Z AUTO 03009KT 10SM CLR 13/05 A3019 3690 57 4400 020/09 RMK AO2 T01330050 $
24044KAIA AIA20160604203011106/04/16 20:30:31  5-MIN KAIA 050330Z AUTO 03008KT 10SM CLR 13/05 A3019 3690 57 4400 030/08 RMK AO2 T01330050 $
24044KAIA AIA20160604203511106/04/16 20:35:31  5-MIN KAIA 050335Z AUTO 03008KT 10SM CLR 13/05 A3019 3690 57 4400 030/08 RMK AO2 T01330050 $
24044KAIA AIA20160604204011106/04/16 20:40:31  5-MIN KAIA 050340Z AUTO 03009KT 10SM CLR 13/06 A3019 3690 59 4400 030/09 RMK AO2 T01330056 $
24044KAIA AIA20160604204511106/04/16 20:45:31  5-MIN KAIA 050345Z AUTO 03010KT 10SM CLR 13/06 A3019 3690 61 4300 020/10 RMK AO2 T01280056 $
24044KAIA AIA20160604205011806/04/16 20:50:31  5-MIN KAIA 050350Z AUTO 04010KT 10SM CLR 13/06 A3019 3690 61 4300 030/10 RMK AO2 SLP193 T01280056 $
24044KAIA AIA20160604205511106/04/16 20:55:31  5-MIN KAIA 050355Z AUTO 04009KT 10SM CLR 12/06 A3019 3690 63 4300 030/09 RMK AO2 T01220056 $
24044KAIA AIA20160604210011106/04/16 21:00:31  5-MIN KAIA 050400Z AUTO 04008KT 10SM CLR 12/06 A3019 3690 66 4200 030/08 RMK AO2 T01170056 $
24044KAIA AIA20160604210511106/04/16 21:05:31  5-MIN KAIA 050405Z AUTO 04008KT 10SM CLR 12/06 A3019 3680 66 4200 030/08 RMK AO2 T01170056 $
24044KAIA AIA20160604211011106/04/16 21:10:31  5-MIN KAIA 050410Z AUTO 04007KT 10SM CLR 12/06 A3019 3680 68 4200 030/07 RMK AO2 T01170061 $
24044KAIA AIA20160604211511106/04/16 21:15:31  5-MIN KAIA 050415Z AUTO 03006KT 10SM CLR 12/06 A3019 3680 66 4200 020/06 RMK AO2 T01170056 $
24044KAIA AIA20160604212011106/04/16 21:20:31  5-MIN KAIA 050420Z AUTO 00000KT 10SM CLR 11/06 A3019 3680 68 4100 000/00 RMK AO2 T01110056 $
24044KAIA AIA20160604212511106/04/16 21:25:31  5-MIN KAIA 050425Z AUTO 00000KT 10SM CLR 11/06 A3019 3680 68 4100 000/00 RMK AO2 T01110056 $
24044KAIA AIA20160604213011106/04/16 21:30:31  5-MIN KAIA 050430Z AUTO 00000KT 10SM CLR 10/06 A3019 3680 74 4000 000/00 RMK AO2 T01000056 $
24044KAIA AIA20160604213511106/04/16 21:35:31  5-MIN KAIA 050435Z AUTO 00000KT 10SM CLR 11/06 A3019 3680 71 4100 000/00 RMK AO2 T01060056 $
24044KAIA AIA20160604214011106/04/16 21:40:31  5-MIN KAIA 050440Z AUTO 00000KT 10SM CLR 09/05 A3019 3680 76 3900 000/00 RMK AO2 T00890050 $
24044KAIA AIA20160604214511106/04/16 21:45:31  5-MIN KAIA 050445Z AUTO 24004KT 10SM CLR 07/04 A3020 3680 82 3700 230/04 RMK AO2 T00720044 $
24044KAIA AIA20160604215011806/04/16 21:50:31  5-MIN KAIA 050450Z AUTO 24005KT 10SM CLR 07/05 A3020 3680 86 3700 230/05 RMK AO2 SLP203 T00720050 $
24044KAIA AIA20160604215511106/04/16 21:55:31  5-MIN KAIA 050455Z AUTO 24005KT 10SM CLR 07/05 A3020 3680 86 3700 230/05 RMK AO2 T00720050 $
24044KAIA AIA20160604220011106/04/16 22:00:31  5-MIN KAIA 050500Z AUTO 25005KT 10SM CLR 07/05 A3020 3680 86 3700 240/05 RMK AO2 T00720050 $
24044KAIA AIA20160604220511106/04/16 22:05:31  5-MIN KAIA 050505Z AUTO 27004KT 10SM CLR 07/04 A3019 3680 86 3600 260/04 RMK AO2 T00670044 $
24044KAIA AIA20160604221011106/04/16 22:10:31  5-MIN KAIA 050510Z AUTO 28003KT 10SM CLR 07/04 A3019 3690 86 3600 270/03 RMK AO2 T00670044 $
24044KAIA AIA20160604221511106/04/16 22:15:31  5-MIN KAIA 050515Z AUTO 29003KT 10SM CLR 07/05 A3019 3690 86 3700 280/03 RMK AO2 T00720050 $
24044KAIA AIA20160604222011106/04/16 22:20:31  5-MIN KAIA 050520Z AUTO 29003KT 10SM CLR 08/05 A3019 3690 82 3700 280/03 RMK AO2 T00780050 $
24044KAIA AIA20160604222511106/04/16 22:25:31  5-MIN KAIA 050525Z AUTO 30003KT 10SM CLR 09/05 A3019 3690 76 3900 290/03 RMK AO2 T00890050 $
24044KAIA AIA20160604223011106/04/16 22:30:31  5-MIN KAIA 050530Z AUTO 31003KT 10SM CLR 09/06 A3019 3690 76 3900 300/03 RMK AO2 T00940056 $
24044KAIA AIA20160604223511106/04/16 22:35:31  5-MIN KAIA 050535Z AUTO 28003KT 10SM CLR 09/06 A3019 3690 79 3900 270/03 RMK AO2 T00940061 $
24044KAIA AIA20160604224011106/04/16 22:40:31  5-MIN KAIA 050540Z AUTO 25005KT 10SM CLR 07/04 A3019 3690 86 3600 250/05 RMK AO2 T00670044 $
24044KAIA AIA20160604224511106/04/16 22:45:31  5-MIN KAIA 050545Z AUTO 26006KT 10SM CLR 06/04 A3019 3680 89 3500 250/06 RMK AO2 T00560039 $
24044KAIA AIA20160604225013606/04/16 22:50:31  5-MIN KAIA 050550Z AUTO 27005KT 10SM CLR 06/04 A3019 3680 89 3500 260/05 RMK AO2 SLP202 T00560039 10244 20056 51005 $
24044KAIA AIA20160604225511106/04/16 22:55:31  5-MIN KAIA 050555Z AUTO 28005KT 10SM CLR 06/04 A3019 3690 89 3500 270/05 RMK AO2 T00610044 $
24044KAIA AIA20160604230011106/04/16 23:00:31  5-MIN KAIA 050600Z AUTO 30003KT 10SM CLR 07/04 A3019 3690 82 3700 290/03 RMK AO2 T00720044 $
24044KAIA AIA20160604230511106/04/16 23:05:31  5-MIN KAIA 050605Z AUTO 27004KT 10SM CLR 07/04 A3019 3690 82 3700 270/04 RMK AO2 T00720044 $
24044KAIA AIA20160604231011106/04/16 23:10:31  5-MIN KAIA 050610Z AUTO 27004KT 10SM CLR 07/04 A3019 3690 86 3600 260/04 RMK AO2 T00670044 $
24044KAIA AIA20160604231511106/04/16 23:15:31  5-MIN KAIA 050615Z AUTO 26006KT 10SM CLR 06/04 A3018 3690 86 3500 260/06 RMK AO2 T00610039 $
24044KAIA AIA20160604232011106/04/16 23:20:31  5-MIN KAIA 050620Z AUTO 27007KT 10SM CLR 05/03 A3018 3690 89 3400 260/07 RMK AO2 T00500033 $
24044KAIA AIA20160604232511106/04/16 23:25:31  5-MIN KAIA 050625Z AUTO 27007KT 10SM CLR 05/03 A3018 3690 89 3400 270/07 RMK AO2 T00500033 $
24044KAIA AIA20160604233011106/04/16 23:30:31  5-MIN KAIA 050630Z AUTO 28007KT 10SM CLR 05/03 A3018 3690 89 3400 270/07 RMK AO2 T00500033 $
24044KAIA AIA20160604233511106/04/16 23:35:31  5-MIN KAIA 050635Z AUTO 27009KT 10SM CLR 05/03 A3019 3690 89 3400 260/09 RMK AO2 T00500033 $
24044KAIA AIA20160604234011106/04/16 23:40:31  5-MIN KAIA 050640Z AUTO 27008KT 10SM CLR 06/04 A3019 3690 89 3500 260/08 RMK AO2 T00560039 $
24044KAIA AIA20160604234511106/04/16 23:45:31  5-MIN KAIA 050645Z AUTO 28007KT 10SM CLR 06/04 A3018 3690 89 3500 280/07 RMK AO2 T00560039 $
24044KAIA AIA20160604235012806/04/16 23:50:31  5-MIN KAIA 050650Z AUTO 30007KT 10SM CLR 06/04 A3018 3690 86 3500 290/07 RMK AO2 SLP198 T00610039 402610050 $
24044KAIA AIA20160604235511106/04/16 23:55:31  5-MIN KAIA 050655Z AUTO 30006KT 10SM CLR 07/04 A3018 3690 86 3600 290/06 RMK AO2 T00670044 $
24044KAIA AIA20160605000011106/05/16 00:00:31  5-MIN KAIA 050700Z AUTO 30005KT 10SM CLR 07/04 A3018 3690 82 3700 290/05 RMK AO2 T00720044 $
24044KAIA AIA20160605000511106/05/16 00:05:31  5-MIN KAIA 050705Z AUTO 30005KT 10SM CLR 08/05 A3018 3690 82 3700 290/05 RMK AO2 T00780050 $
24044KAIA AIA20160605001011106/05/16 00:10:31  5-MIN KAIA 050710Z AUTO 30003KT 10SM CLR 08/05 A3018 3700 82 3700 290/03 RMK AO2 T00780050 $
24044KAIA AIA20160605001511106/05/16 00:15:31  5-MIN KAIA 050715Z AUTO 30003KT 10SM CLR 07/04 A3018 3700 86 3600 300/03 RMK AO2 T00670044 $
24044KAIA AIA20160605002011106/05/16 00:20:31  5-MIN KAIA 050720Z AUTO 00000KT 10SM CLR 06/04 A3017 3700 89 3500 000/00 RMK AO2 T00560039 $
24044KAIA AIA20160605002511106/05/16 00:25:31  5-MIN KAIA 050725Z AUTO 00000KT 10SM CLR 05/03 A3017 3700 89 3400 000/00 RMK AO2 T00500033 $
24044KAIA AIA20160605003011106/05/16 00:30:31  5-MIN KAIA 050730Z AUTO 00000KT 10SM CLR 04/02 A3017 3700 89 3300 000/00 RMK AO2 T00390022 $
24044KAIA AIA20160605003511106/05/16 00:35:31  5-MIN KAIA 050735Z AUTO 00000KT 10SM CLR 04/02 A3017 3700 89 3300 000/00 RMK AO2 T00390022 $
24044KAIA AIA20160605004011106/05/16 00:40:31  5-MIN KAIA 050740Z AUTO 00000KT 10SM CLR 04/02 A3017 3700 89 3300 000/00 RMK AO2 T00390022 $
24044KAIA AIA20160605004511106/05/16 00:45:31  5-MIN KAIA 050745Z AUTO 00000KT 10SM CLR 04/02 A3017 3700 85 3400 000/00 RMK AO2 T00440022 $
24044KAIA AIA20160605005011806/05/16 00:50:31  5-MIN KAIA 050750Z AUTO 00000KT 10SM CLR 05/03 A3017 3700 85 3400 000/00 RMK AO2 SLP193 T00500028 $
24044KAIA AIA20160605005511106/05/16 00:55:31  5-MIN KAIA 050755Z AUTO 00000KT 10SM CLR 05/03 A3017 3700 85 3400 000/00 RMK AO2 T00500028 $
24044KAIA AIA20160605010011106/05/16 01:00:31  5-MIN KAIA 050800Z AUTO 00000KT 10SM CLR 06/03 A3017 3700 85 3500 000/00 RMK AO2 T00560033 $
24044KAIA AIA20160605010511106/05/16 01:05:31  5-MIN KAIA 050805Z AUTO 00000KT 10SM CLR 06/03 A3017 3700 85 3500 000/00 RMK AO2 T00560033 $
24044KAIA AIA20160605011011106/05/16 01:10:31  5-MIN KAIA 050810Z AUTO 00000KT 10SM CLR 06/03 A3017 3700 85 3500 000/00 RMK AO2 T00560033 $
24044KAIA AIA20160605011511106/05/16 01:15:31  5-MIN KAIA 050815Z AUTO 00000KT 10SM CLR 06/03 A3017 3710 85 3500 000/00 RMK AO2 T00560033 $
24044KAIA AIA20160605012011106/05/16 01:20:31  5-MIN KAIA 050820Z AUTO 00000KT 10SM CLR 06/03 A3017 3710 82 3600 000/00 RMK AO2 T00610033 $
24044KAIA AIA20160605012510106/05/16 01:25:31  5-MIN KAIA 050825Z AUTO 10SM CLR 05/03 A3017 3710 85 3400 M /M RMK AO2 T00500028 $
24044KAIA AIA20160605013011106/05/16 01:30:31  5-MIN KAIA 050830Z AUTO 26004KT 10SM CLR 04/03 A3017 3710 89 3400 250/04 RMK AO2 T00440028 $
24044KAIA AIA20160605013511106/05/16 01:35:31  5-MIN KAIA 050835Z AUTO 26006KT 10SM CLR 04/03 A3017 3710 92 3300 250/06 RMK AO2 T00390028 $
24044KAIA AIA20160605014011106/05/16 01:40:31  5-MIN KAIA 050840Z AUTO 25006KT 10SM CLR 03/03 A3017 3710 96 3200 240/06 RMK AO2 T00330028 $
24044KAIA AIA20160605014511106/05/16 01:45:31  5-MIN KAIA 050845Z AUTO 26006KT 10SM CLR 03/03 A3017 3710 96 3200 250/06 RMK AO2 T00330028 $
24044KAIA AIA20160605015012406/05/16 01:50:31  5-MIN KAIA 050850Z AUTO 27006KT 10SM CLR 03/02 A3016 3710 92 3200 260/06 RMK AO2 SLP193 T00330022 50005 $
24044KAIA AIA20160605015511106/05/16 01:55:31  5-MIN KAIA 050855Z AUTO 27007KT 10SM CLR 03/02 A3016 3710 92 3200 260/07 RMK AO2 T00330022 $
24044KAIA AIA20160605020011106/05/16 02:00:31  5-MIN KAIA 050900Z AUTO 28008KT 10SM CLR 03/02 A3016 3710 92 3200 270/08 RMK AO2 T00330022 $
24044KAIA AIA20160605020511106/05/16 02:05:31  5-MIN KAIA 050905Z AUTO 27009KT 10SM CLR 04/03 A3016 3710 92 3300 260/09 RMK AO2 T00390028 $
24044KAIA AIA20160605021011106/05/16 02:10:31  5-MIN KAIA 050910Z AUTO 28008KT 10SM CLR 04/03 A3016 3720 92 3300 270/08 RMK AO2 T00390028 $
24044KAIA AIA20160605021511106/05/16 02:15:31  5-MIN KAIA 050915Z AUTO 28007KT 10SM CLR 04/03 A3015 3720 92 3400 270/07 RMK AO2 T00440033 $
24044KAIA AIA20160605022011106/05/16 02:20:31  5-MIN KAIA 050920Z AUTO 28006KT 10SM CLR 04/03 A3015 3720 92 3400 280/06 RMK AO2 T00440033 $
24044KAIA AIA20160605022511106/05/16 02:25:31  5-MIN KAIA 050925Z AUTO 27005KT 10SM CLR 04/03 A3015 3720 92 3400 270/05 RMK AO2 T00440033 $
24044KAIA AIA20160605023011106/05/16 02:30:31  5-MIN KAIA 050930Z AUTO 29005KT 10SM CLR 04/03 A3015 3720 92 3300 280/05 RMK AO2 T00390028 $
24044KAIA AIA20160605124010906/05/16 12:40:31  5-MIN KAIA 051940Z AUTO VRB04KT 10SM CLR 27/06 A3006 3800 25 6100 VRB/04 RMK AO2 T02720061
24044KAIA AIA20160605124510906/05/16 12:45:31  5-MIN KAIA 051945Z AUTO 33005KT 10SM CLR 27/07 A3006 3800 26 6100 320/05 RMK AO2 T02720067
24044KAIA AIA20160605125011606/05/16 12:50:31  5-MIN KAIA 051950Z AUTO 26006KT 10SM CLR 27/07 A3006 3810 26 6100 250/06 RMK AO2 SLP152 T02720067
24044KAIA AIA20160605125510906/05/16 12:55:31  5-MIN KAIA 051955Z AUTO 33006KT 10SM CLR 27/07 A3006 3810 27 6100 320/06 RMK AO2 T02720072
24044KAIA AIA20160605130010906/05/16 13:00:31  5-MIN KAIA 052000Z AUTO VRB06KT 10SM CLR 28/07 A3006 3810 26 6200 VRB/06 RMK AO2 T02780067
24044KAIA AIA20160605130510906/05/16 13:05:31  5-MIN KAIA 052005Z AUTO VRB04KT 10SM CLR 28/07 A3005 3810 26 6200 VRB/04 RMK AO2 T02780067
24044KAIA AIA20160605131010906/05/16 13:10:31  5-MIN KAIA 052010Z AUTO 00000KT 10SM CLR 27/06 A3005 3810 25 6100 000/00 RMK AO2 T02720061
24044KAIA AIA20160605132011806/05/16 13:20:31  5-MIN KAIA 052020Z AUTO 24008KT 200V330 28/08 A3005 3810 28 6200 230/08 190V320 RMK AO2 T02780078 $
24044KAIA AIA20160605132511306/05/16 13:25:31  5-MIN KAIA 052025Z AUTO 27006G14KT 10SM 28/07 A3005 3810 25 6200 270/06G14 RMK AO2 T02830067 $
24044KAIA AIA20160605133012306/05/16 13:30:31  5-MIN KAIA 052030Z AUTO 29007KT 250V330 10SM 28/07 A3005 3820 26 6200 280/07 240V320 RMK AO2 T02780067 $
24044KAIA AIA20160605133510706/05/16 13:35:31  5-MIN KAIA 052035Z AUTO VRB03KT 10SM 27/06 A3005 3820 25 6100 VRB/03 RMK AO2 T02720061 $
24044KAIA AIA20160605134010706/05/16 13:40:31  5-MIN KAIA 052040Z AUTO 29006KT 10SM 28/07 A3004 3820 26 6200 280/06 RMK AO2 T02780067 $
24044KAIA AIA20160605134512906/05/16 13:45:31  5-MIN KAIA 052045Z AUTO 35010G17KT 300V020 10SM 28/07 A3005 3820 27 6200 340/10G17 290V010 RMK AO2 T02780072 $
24044KAIA AIA20160605135012406/05/16 13:50:31  5-MIN KAIA 052050Z AUTO VRB04G17KT 10SM CLR 28/07 A3004 3820 25 6200 VRB/04G17 RMK AO2 SLP146 T02830067 $
24044KAIA AIA20160605135512706/05/16 13:55:31  5-MIN KAIA 052055Z AUTO 34007KT 310V010 10SM CLR 28/07 A3004 3820 26 6200 330/07 300V360 RMK AO2 T02830072 $
24044KAIA AIA20160605140011106/05/16 14:00:31  5-MIN KAIA 052100Z AUTO 30006KT 10SM CLR 28/07 A3004 3820 25 6200 290/06 RMK AO2 T02830067 $
24044KAIA AIA20160605140511106/05/16 14:05:31  5-MIN KAIA 052105Z AUTO 33004KT 10SM CLR 28/06 A3004 3820 24 6200 320/04 RMK AO2 T02780056 $
24044KAIA AIA20160605141011106/05/16 14:10:31  5-MIN KAIA 052110Z AUTO VRB05KT 10SM CLR 27/06 A3004 3820 24 6100 VRB/05 RMK AO2 T02720056 $
24044KAIA AIA20160605141511106/05/16 14:15:31  5-MIN KAIA 052115Z AUTO VRB06KT 10SM CLR 28/06 A3004 3820 25 6200 VRB/06 RMK AO2 T02780061 $
24044KAIA AIA20160605142011106/05/16 14:20:31  5-MIN KAIA 052120Z AUTO 31006KT 10SM CLR 27/06 A3004 3830 25 6100 310/06 RMK AO2 T02720061 $
24044KAIA AIA20160605142510106/05/16 14:25:31  5-MIN KAIA 052125Z AUTO 10SM CLR 28/06 A3003 3830 25 6200 M /M RMK AO2 T02780061 $
24044KAIA AIA20160605143011106/05/16 14:30:31  5-MIN KAIA 052130Z AUTO 05005KT 10SM CLR 28/07 A3003 3830 25 6200 040/05 RMK AO2 T02830067 $
24044KAIA AIA20160605143511106/05/16 14:35:31  5-MIN KAIA 052135Z AUTO 00000KT 10SM CLR 28/06 A3003 3830 24 6200 000/00 RMK AO2 T02830061 $
24044KAIA AIA20160605144010106/05/16 14:40:31  5-MIN KAIA 052140Z AUTO 10SM CLR 29/07 A3003 3830 25 6300 M /M RMK AO2 T02890072 $
24044KAIA AIA20160605144511106/05/16 14:45:31  5-MIN KAIA 052145Z AUTO 02007KT 10SM CLR 28/07 A3003 3830 25 6200 010/07 RMK AO2 T02830067 $
24044KAIA AIA20160605145011806/05/16 14:50:31  5-MIN KAIA 052150Z AUTO VRB03KT 10SM CLR 28/06 A3003 3830 24 6200 VRB/03 RMK AO2 SLP142 T02830061 $
24044KAIA AIA20160605145511106/05/16 14:55:31  5-MIN KAIA 052155Z AUTO VRB03KT 10SM CLR 28/07 A3003 3830 26 6200 VRB/03 RMK AO2 T02830072 $
24044KAIA AIA20160605150011106/05/16 15:00:31  5-MIN KAIA 052200Z AUTO 00000KT 10SM CLR 28/06 A3003 3830 25 6200 000/00 RMK AO2 T02780061 $
24044KAIA AIA20160605150511106/05/16 15:05:31  5-MIN KAIA 052205Z AUTO 01006KT 10SM CLR 29/07 A3003 3840 25 6300 010/06 RMK AO2 T02890072 $
24044KAIA AIA20160605151011106/05/16 15:10:31  5-MIN KAIA 052210Z AUTO 01006KT 10SM CLR 29/07 A3002 3840 24 6300 360/06 RMK AO2 T02890067 $
24044KAIA AIA20160605151511406/05/16 15:15:31  5-MIN KAIA 052215Z AUTO 32006KT 10SM FEW100 28/07 A3002 3840 25 6200 310/06 RMK AO2 T02830067 $
24044KAIA AIA20160605152011406/05/16 15:20:31  5-MIN KAIA 052220Z AUTO 05008KT 10SM SCT100 29/07 A3002 3840 25 6300 040/08 RMK AO2 T02890072 $
24044KAIA AIA20160605152511406/05/16 15:25:31  5-MIN KAIA 052225Z AUTO 04008KT 10SM SCT100 28/07 A3002 3840 25 6300 030/08 RMK AO2 T02830067 $
24044KAIA AIA20160605153011406/05/16 15:30:31  5-MIN KAIA 052230Z AUTO 03008KT 10SM FEW095 28/07 A3002 3840 25 6300 020/08 RMK AO2 T02830067 $
24044KAIA AIA20160605153511406/05/16 15:35:31  5-MIN KAIA 052235Z AUTO 00000KT 10SM SCT095 28/06 A3002 3840 24 6300 000/00 RMK AO2 T02830061 $
24044KAIA AIA20160605154011406/05/16 15:40:31  5-MIN KAIA 052240Z AUTO VRB03KT 10SM SCT095 28/07 A3002 3840 25 6300 VRB/03 RMK AO2 T02830067 $
24044KAIA AIA20160605154511406/05/16 15:45:31  5-MIN KAIA 052245Z AUTO 02007KT 10SM FEW095 28/06 A3002 3840 24 6300 010/07 RMK AO2 T02830061 $
24044KAIA AIA20160605155012706/05/16 15:50:31  5-MIN KAIA 052250Z AUTO 04007G14KT 10SM FEW095 28/07 A3002 3840 25 6300 030/07G14 RMK AO2 SLP138 T02830067 $
24044KAIA AIA20160605155511406/05/16 15:55:31  5-MIN KAIA 052255Z AUTO 01011KT 10SM FEW095 28/07 A3002 3840 25 6300 360/11 RMK AO2 T02830067 $
24044KAIA AIA20160605160011406/05/16 16:00:31  5-MIN KAIA 052300Z AUTO 36007KT 10SM FEW095 28/06 A3002 3840 25 6200 350/07 RMK AO2 T02780061 $
24044KAIA AIA20160605160511106/05/16 16:05:31  5-MIN KAIA 052305Z AUTO 04007KT 10SM CLR 28/06 A3002 3840 25 6200 030/07 RMK AO2 T02780061 $
24044KAIA AIA20160605161011706/05/16 16:10:31  5-MIN KAIA 052310Z AUTO 02008G14KT 10SM CLR 28/07 A3002 3840 25 6300 010/08G14 RMK AO2 T02830067 $
24044KAIA AIA20160605161511706/05/16 16:15:31  5-MIN KAIA 052315Z AUTO 05008G14KT 10SM CLR 28/07 A3002 3840 25 6300 040/08G14 RMK AO2 T02830067 $
24044KAIA AIA20160605162011706/05/16 16:20:31  5-MIN KAIA 052320Z AUTO 02012G16KT 10SM CLR 28/07 A3002 3840 26 6200 010/12G16 RMK AO2 T02780067 $
24044KAIA AIA20160605162511706/05/16 16:25:31  5-MIN KAIA 052325Z AUTO 03008G16KT 10SM CLR 28/07 A3002 3840 26 6200 020/08G16 RMK AO2 T02780067 $
24044KAIA AIA20160605163011106/05/16 16:30:31  5-MIN KAIA 052330Z AUTO 02011KT 10SM CLR 28/07 A3002 3840 27 6200 010/11 RMK AO2 T02780072 $
24044KAIA AIA20160605163511106/05/16 16:35:31  5-MIN KAIA 052335Z AUTO 01008KT 10SM CLR 28/07 A3002 3840 26 6200 360/08 RMK AO2 T02780067 $
24044KAIA AIA20160605164011106/05/16 16:40:31  5-MIN KAIA 052340Z AUTO 01008KT 10SM CLR 28/07 A3002 3840 26 6200 360/08 RMK AO2 T02780067 $
24044KAIA AIA20160605164511706/05/16 16:45:31  5-MIN KAIA 052345Z AUTO 01012G17KT 10SM CLR 28/07 A3002 3840 27 6200 360/12G17 RMK AO2 T02780072 $
24044KAIA AIA20160605165013606/05/16 16:50:31  5-MIN KAIA 052350Z AUTO 01008G17KT 10SM CLR 27/07 A3002 3840 27 6100 010/08G17 RMK AO2 SLP138 T02720072 10289 20250 $
24044KAIA AIA20160605165511106/05/16 16:55:31  5-MIN KAIA 052355Z AUTO 01009KT 10SM CLR 27/07 A3002 3840 27 6100 360/09 RMK AO2 T02720072 $
24044KAIA AIA20160605170011106/05/16 17:00:31  5-MIN KAIA 060000Z AUTO 02011KT 10SM CLR 27/07 A3002 3840 26 6100 010/11 RMK AO2 T02720067 $
24044KAIA AIA20160605170511106/05/16 17:05:31  5-MIN KAIA 060005Z AUTO 01011KT 10SM CLR 27/07 A3002 3850 26 6100 360/11 RMK AO2 T02720067 $
24044KAIA AIA20160605171011106/05/16 17:10:31  5-MIN KAIA 060010Z AUTO 02009KT 10SM CLR 27/07 A3002 3850 27 6100 010/09 RMK AO2 T02670067 $
24044KAIA AIA20160605171511106/05/16 17:15:31  5-MIN KAIA 060015Z AUTO 03013KT 10SM CLR 27/07 A3002 3850 28 6100 020/13 RMK AO2 T02670072 $
24044KAIA AIA20160605172011106/05/16 17:20:31  5-MIN KAIA 060020Z AUTO 02011KT 10SM CLR 27/07 A3002 3850 27 6100 010/11 RMK AO2 T02670067 $
24044KAIA AIA20160605172511106/05/16 17:25:31  5-MIN KAIA 060025Z AUTO 02012KT 10SM CLR 27/07 A3002 3850 27 6100 010/12 RMK AO2 T02670067 $
24044KAIA AIA20160605173011106/05/16 17:30:31  5-MIN KAIA 060030Z AUTO 03011KT 10SM CLR 26/07 A3002 3840 28 6000 020/11 RMK AO2 T02610067 $
24044KAIA AIA20160605173511106/05/16 17:35:31  5-MIN KAIA 060035Z AUTO 02011KT 10SM CLR 26/07 A3002 3840 28 6000 020/11 RMK AO2 T02610067 $
24044KAIA AIA20160605174011106/05/16 17:40:31  5-MIN KAIA 060040Z AUTO 02012KT 10SM CLR 26/07 A3002 3840 28 6000 010/12 RMK AO2 T02610067 $
24044KAIA AIA20160605174511106/05/16 17:45:31  5-MIN KAIA 060045Z AUTO 03012KT 10SM CLR 26/06 A3002 3840 27 6000 020/12 RMK AO2 T02610061 $
24044KAIA AIA20160605175011806/05/16 17:50:31  5-MIN KAIA 060050Z AUTO 02011KT 10SM CLR 26/06 A3002 3840 28 5900 010/11 RMK AO2 SLP135 T02560061 $
24044KAIA AIA20160605175511106/05/16 17:55:31  5-MIN KAIA 060055Z AUTO 02009KT 10SM CLR 26/06 A3002 3840 28 5900 010/09 RMK AO2 T02560061 $
24044KAIA AIA20160605180011106/05/16 18:00:31  5-MIN KAIA 060100Z AUTO 02010KT 10SM CLR 26/07 A3002 3840 29 5900 010/10 RMK AO2 T02560067 $
24044KAIA AIA20160605180511106/05/16 18:05:31  5-MIN KAIA 060105Z AUTO 02009KT 10SM CLR 25/07 A3002 3840 30 5900 010/09 RMK AO2 T02500067 $
24044KAIA AIA20160605181011106/05/16 18:10:31  5-MIN KAIA 060110Z AUTO 02009KT 10SM CLR 25/07 A3002 3840 30 5900 010/09 RMK AO2 T02500067 $
24044KAIA AIA20160605181511106/05/16 18:15:31  5-MIN KAIA 060115Z AUTO 02008KT 10SM CLR 24/07 A3003 3840 33 5800 010/08 RMK AO2 T02440072 $
24044KAIA AIA20160605182011106/05/16 18:20:31  5-MIN KAIA 060120Z AUTO 02009KT 10SM CLR 24/07 A3003 3840 33 5800 010/09 RMK AO2 T02440072 $
24044KAIA AIA20160605182511106/05/16 18:25:31  5-MIN KAIA 060125Z AUTO 02009KT 10SM CLR 24/07 A3003 3840 32 5800 010/09 RMK AO2 T02390067 $
24044KAIA AIA20160605183011106/05/16 18:30:31  5-MIN KAIA 060130Z AUTO 03008KT 10SM CLR 23/07 A3003 3840 35 5700 020/08 RMK AO2 T02330072 $
24044KAIA AIA20160605183511106/05/16 18:35:31  5-MIN KAIA 060135Z AUTO 03007KT 10SM CLR 23/08 A3003 3830 37 5600 020/07 RMK AO2 T02280078 $
24044KAIA AIA20160605184011106/05/16 18:40:31  5-MIN KAIA 060140Z AUTO 03007KT 10SM CLR 22/08 A3003 3830 40 5600 020/07 RMK AO2 T02220083 $
24044KAIA AIA20160605184511106/05/16 18:45:31  5-MIN KAIA 060145Z AUTO 03006KT 10SM CLR 22/08 A3003 3830 40 5600 020/06 RMK AO2 T02220083 $
24044KAIA AIA20160605185011806/05/16 18:50:31  5-MIN KAIA 060150Z AUTO 04005KT 10SM CLR 22/09 A3003 3830 43 5500 030/05 RMK AO2 SLP136 T02170089 $
24044KAIA AIA20160605185511106/05/16 18:55:31  5-MIN KAIA 060155Z AUTO 04005KT 10SM CLR 22/08 A3003 3830 42 5500 030/05 RMK AO2 T02170083 $
24044KAIA AIA20160605190011106/05/16 19:00:31  5-MIN KAIA 060200Z AUTO 03006KT 10SM CLR 21/08 A3003 3830 42 5400 020/06 RMK AO2 T02110078 $
24044KAIA AIA20160605190511106/05/16 19:05:31  5-MIN KAIA 060205Z AUTO 03005KT 10SM CLR 21/08 A3004 3830 42 5400 020/05 RMK AO2 T02110078 $
24044KAIA AIA20160605191011106/05/16 19:10:31  5-MIN KAIA 060210Z AUTO 03006KT 10SM CLR 21/08 A3004 3830 43 5400 030/06 RMK AO2 T02060078 $
24044KAIA AIA20160605191511106/05/16 19:15:31  5-MIN KAIA 060215Z AUTO 06006KT 10SM CLR 20/08 A3004 3820 45 5300 060/06 RMK AO2 T02000078 $
24044KAIA AIA20160605192011106/05/16 19:20:31  5-MIN KAIA 060220Z AUTO 05007KT 10SM CLR 19/07 A3004 3820 44 5200 040/07 RMK AO2 T01940072 $
24044KAIA AIA20160605192511106/05/16 19:25:31  5-MIN KAIA 060225Z AUTO 05007KT 10SM CLR 19/07 A3004 3820 44 5200 050/07 RMK AO2 T01940072 $
24044KAIA AIA20160605193011106/05/16 19:30:31  5-MIN KAIA 060230Z AUTO 05007KT 10SM CLR 19/08 A3004 3820 48 5200 040/07 RMK AO2 T01890078 $
24044KAIA AIA20160605193511106/05/16 19:35:31  5-MIN KAIA 060235Z AUTO 05007KT 10SM CLR 18/08 A3004 3820 50 5100 040/07 RMK AO2 T01830078 $
24044KAIA AIA20160605194011106/05/16 19:40:31  5-MIN KAIA 060240Z AUTO 05007KT 10SM CLR 18/08 A3004 3820 51 5100 040/07 RMK AO2 T01780078 $
24044KAIA AIA20160605194511106/05/16 19:45:31  5-MIN KAIA 060245Z AUTO 06006KT 10SM CLR 18/08 A3004 3820 51 5100 050/06 RMK AO2 T01780078 $
24044KAIA AIA20160605195012406/05/16 19:50:31  5-MIN KAIA 060250Z AUTO 07006KT 10SM CLR 18/08 A3004 3820 51 5100 060/06 RMK AO2 SLP137 T01780078 56008 $
24044KAIA AIA20160605195511106/05/16 19:55:31  5-MIN KAIA 060255Z AUTO 10004KT 10SM CLR 14/08 A3004 3820 64 4700 090/04 RMK AO2 T01440078 $
24044KAIA AIA20160605200011106/05/16 20:00:31  5-MIN KAIA 060300Z AUTO 10005KT 10SM CLR 14/08 A3005 3820 64 4700 090/05 RMK AO2 T01440078 $
24044KAIA AIA20160605200511106/05/16 20:05:31  5-MIN KAIA 060305Z AUTO 09004KT 10SM CLR 16/08 A3005 3820 59 4800 080/04 RMK AO2 T01560078 $
24044KAIA AIA20160605201011106/05/16 20:10:31  5-MIN KAIA 060310Z AUTO 09005KT 10SM CLR 16/08 A3005 3810 57 4900 090/05 RMK AO2 T01610078 $
24044KAIA AIA20160605201511106/05/16 20:15:31  5-MIN KAIA 060315Z AUTO 08005KT 10SM CLR 17/08 A3005 3810 55 4900 070/05 RMK AO2 T01670078 $
24044KAIA AIA20160605202011106/05/16 20:20:31  5-MIN KAIA 060320Z AUTO 10004KT 10SM CLR 15/08 A3005 3810 62 4700 090/04 RMK AO2 T01500078 $
24044KAIA AIA20160605202511106/05/16 20:25:31  5-MIN KAIA 060325Z AUTO 09004KT 10SM CLR 15/08 A3006 3810 62 4700 090/04 RMK AO2 T01500078 $
24044KAIA AIA20160605203011106/05/16 20:30:31  5-MIN KAIA 060330Z AUTO 10003KT 10SM CLR 15/08 A3006 3810 62 4700 090/03 RMK AO2 T01500078 $
24044KAIA AIA20160605203511106/05/16 20:35:31  5-MIN KAIA 060335Z AUTO 13003KT 10SM CLR 13/08 A3006 3810 69 4500 120/03 RMK AO2 T01330078 $
24044KAIA AIA20160605204011006/05/16 20:40:31  5-MIN KAIA 060340Z AUTO 12003KT 9SM CLR 13/08 A3006 3810 69 4500 110/03 RMK AO2 T01330078 $
24044KAIA AIA20160605204511006/05/16 20:45:31  5-MIN KAIA 060345Z AUTO 10003KT 9SM CLR 14/08 A3006 3810 66 4600 090/03 RMK AO2 T01390078 $
24044KAIA AIA20160605205011806/05/16 20:50:31  5-MIN KAIA 060350Z AUTO 09003KT 10SM CLR 14/08 A3006 3810 64 4700 080/03 RMK AO2 SLP145 T01440078 $
24044KAIA AIA20160605205511106/05/16 20:55:31  5-MIN KAIA 060355Z AUTO 09003KT 10SM CLR 15/08 A3005 3810 62 4700 080/03 RMK AO2 T01500078 $
24044KAIA AIA20160605210011106/05/16 21:00:31  5-MIN KAIA 060400Z AUTO 09003KT 10SM CLR 16/08 A3006 3810 59 4800 080/03 RMK AO2 T01560078 $
24044KAIA AIA20160605210511106/05/16 21:05:31  5-MIN KAIA 060405Z AUTO 09003KT 10SM CLR 15/08 A3006 3810 62 4700 090/03 RMK AO2 T01500078 $
24044KAIA AIA20160605211011106/05/16 21:10:31  5-MIN KAIA 060410Z AUTO 18005KT 10SM CLR 13/08 A3006 3800 69 4500 170/05 RMK AO2 T01330078 $
24044KAIA AIA20160605211511106/05/16 21:15:31  5-MIN KAIA 060415Z AUTO 17003KT 10SM CLR 13/07 A3006 3800 69 4500 170/03 RMK AO2 T01280072 $
24044KAIA AIA20160605212011106/05/16 21:20:31  5-MIN KAIA 060420Z AUTO 14003KT 10SM CLR 13/07 A3006 3810 69 4500 130/03 RMK AO2 T01280072 $
24044KAIA AIA20160605212511106/05/16 21:25:31  5-MIN KAIA 060425Z AUTO 18003KT 10SM CLR 13/07 A3006 3810 66 4500 170/03 RMK AO2 T01330072 $
24044KAIA AIA20160605213011106/05/16 21:30:31  5-MIN KAIA 060430Z AUTO 00000KT 10SM CLR 13/07 A3006 3810 66 4500 000/00 RMK AO2 T01330072 $
24044KAIA AIA20160605213511106/05/16 21:35:31  5-MIN KAIA 060435Z AUTO 16004KT 10SM CLR 13/07 A3006 3810 66 4500 150/04 RMK AO2 T01330072 $
24044KAIA AIA20160605214011106/05/16 21:40:31  5-MIN KAIA 060440Z AUTO 16004KT 10SM CLR 13/07 A3006 3810 66 4500 150/04 RMK AO2 T01330072 $
24044KAIA AIA20160605214511106/05/16 21:45:31  5-MIN KAIA 060445Z AUTO 17003KT 10SM CLR 13/07 A3006 3810 69 4500 160/03 RMK AO2 T01280072 $
24044KAIA AIA20160605215011806/05/16 21:50:31  5-MIN KAIA 060450Z AUTO 20004KT 10SM CLR 12/07 A3005 3810 71 4400 190/04 RMK AO2 SLP144 T01220072 $
24044KAIA AIA20160605215511106/05/16 21:55:31  5-MIN KAIA 060455Z AUTO 20004KT 10SM CLR 10/07 A3005 3810 80 4100 190/04 RMK AO2 T01000067 $
24044KAIA AIA20160605220011106/05/16 22:00:31  5-MIN KAIA 060500Z AUTO 19004KT 10SM CLR 09/07 A3005 3810 86 4000 180/04 RMK AO2 T00890067 $
24044KAIA AIA20160605220511106/05/16 22:05:31  5-MIN KAIA 060505Z AUTO 20004KT 10SM CLR 09/07 A3005 3810 83 4100 190/04 RMK AO2 T00940067 $
24044KAIA AIA20160605221011106/05/16 22:10:31  5-MIN KAIA 060510Z AUTO 00000KT 10SM CLR 09/07 A3006 3810 83 4100 000/00 RMK AO2 T00940067 $
24044KAIA AIA20160605221511106/05/16 22:15:31  5-MIN KAIA 060515Z AUTO 00000KT 10SM CLR 11/07 A3006 3810 77 4200 000/00 RMK AO2 T01060067 $
24044KAIA AIA20160605222011106/05/16 22:20:31  5-MIN KAIA 060520Z AUTO 00000KT 10SM CLR 11/07 A3006 3810 74 4300 000/00 RMK AO2 T01110067 $
24044KAIA AIA20160605222511106/05/16 22:25:31  5-MIN KAIA 060525Z AUTO 00000KT 10SM CLR 12/07 A3006 3810 71 4400 000/00 RMK AO2 T01220072 $
24044KAIA AIA20160605223011106/05/16 22:30:31  5-MIN KAIA 060530Z AUTO 00000KT 10SM CLR 12/07 A3006 3810 71 4300 000/00 RMK AO2 T01170067 $
24044KAIA AIA20160605223511106/05/16 22:35:31  5-MIN KAIA 060535Z AUTO 14003KT 10SM CLR 12/07 A3006 3810 74 4300 130/03 RMK AO2 T01170072 $
24044KAIA AIA20160605224011106/05/16 22:40:31  5-MIN KAIA 060540Z AUTO 13003KT 10SM CLR 12/07 A3006 3810 71 4400 130/03 RMK AO2 T01220072 $
24044KAIA AIA20160605224511106/05/16 22:45:31  5-MIN KAIA 060545Z AUTO 00000KT 10SM CLR 12/07 A3006 3810 74 4300 000/00 RMK AO2 T01170072 $
24044KAIA AIA20160605225013606/05/16 22:50:31  5-MIN KAIA 060550Z AUTO 00000KT 10SM CLR 12/07 A3005 3810 71 4400 000/00 RMK AO2 SLP144 T01220072 10278 20089 53008 $
24044KAIA AIA20160605225511106/05/16 22:55:31  5-MIN KAIA 060555Z AUTO 14003KT 10SM CLR 13/07 A3005 3810 69 4500 130/03 RMK AO2 T01280072 $
24044KAIA AIA20160605230011106/05/16 23:00:31  5-MIN KAIA 060600Z AUTO 15003KT 10SM CLR 13/07 A3005 3810 69 4500 140/03 RMK AO2 T01280072 $
24044KAIA AIA20160605230511106/05/16 23:05:31  5-MIN KAIA 060605Z AUTO 00000KT 10SM CLR 12/07 A3005 3820 71 4400 000/00 RMK AO2 T01220072 $
24044KAIA AIA20160605231011106/05/16 23:10:31  5-MIN KAIA 060610Z AUTO 00000KT 10SM CLR 12/07 A3005 3820 71 4400 000/00 RMK AO2 T01220072 $
24044KAIA AIA20160605231511106/05/16 23:15:31  5-MIN KAIA 060615Z AUTO 00000KT 10SM CLR 12/07 A3005 3820 71 4400 000/00 RMK AO2 T01220072 $
24044KAIA AIA20160605232011106/05/16 23:20:31  5-MIN KAIA 060620Z AUTO 00000KT 10SM CLR 13/07 A3005 3820 69 4500 000/00 RMK AO2 T01280072 $
24044KAIA AIA20160605232511106/05/16 23:25:31  5-MIN KAIA 060625Z AUTO 00000KT 10SM CLR 13/07 A3005 3820 69 4500 000/00 RMK AO2 T01280072 $
24044KAIA AIA20160605233011106/05/16 23:30:31  5-MIN KAIA 060630Z AUTO 00000KT 10SM CLR 13/07 A3005 3820 66 4500 000/00 RMK AO2 T01330072 $
24044KAIA AIA20160605233511106/05/16 23:35:31  5-MIN KAIA 060635Z AUTO 00000KT 10SM CLR 13/07 A3005 3820 69 4500 000/00 RMK AO2 T01280072 $
24044KAIA AIA20160605234011106/05/16 23:40:31  5-MIN KAIA 060640Z AUTO 00000KT 10SM CLR 12/07 A3005 3820 71 4400 000/00 RMK AO2 T01220072 $
24044KAIA AIA20160605234511106/05/16 23:45:31  5-MIN KAIA 060645Z AUTO 00000KT 10SM CLR 12/07 A3005 3820 74 4400 000/00 RMK AO2 T01170072 $
24044KAIA AIA20160605235012806/05/16 23:50:31  5-MIN KAIA 060650Z AUTO 00000KT 10SM CLR 11/07 A3005 3820 77 4300 000/00 RMK AO2 SLP140 T01110072 402890028 $
24044KAIA AIA20160605235511106/05/16 23:55:31  5-MIN KAIA 060655Z AUTO 00000KT 10SM CLR 12/07 A3005 3820 74 4400 000/00 RMK AO2 T01170072 $
24044KAIA AIA20160606000011106/06/16 00:00:31  5-MIN KAIA 060700Z AUTO 00000KT 10SM CLR 12/07 A3005 3820 74 4400 000/00 RMK AO2 T01170072 $
24044KAIA AIA20160606000511106/06/16 00:05:31  5-MIN KAIA 060705Z AUTO 00000KT 10SM CLR 11/07 A3005 3820 77 4300 000/00 RMK AO2 T01110072 $
24044KAIA AIA20160606001011106/06/16 00:10:31  5-MIN KAIA 060710Z AUTO 00000KT 10SM CLR 11/07 A3005 3820 77 4300 000/00 RMK AO2 T01110072 $
24044KAIA AIA20160606001511106/06/16 00:15:31  5-MIN KAIA 060715Z AUTO 00000KT 10SM CLR 12/07 A3005 3820 74 4300 000/00 RMK AO2 T01170072 $
24044KAIA AIA20160606002011106/06/16 00:20:31  5-MIN KAIA 060720Z AUTO 00000KT 10SM CLR 11/07 A3005 3820 77 4200 000/00 RMK AO2 T01060067 $
24044KAIA AIA20160606002511106/06/16 00:25:31  5-MIN KAIA 060725Z AUTO 00000KT 10SM CLR 11/07 A3005 3820 77 4200 000/00 RMK AO2 T01060067 $
24044KAIA AIA20160606003011106/06/16 00:30:31  5-MIN KAIA 060730Z AUTO 00000KT 10SM CLR 09/07 A3005 3810 83 4100 000/00 RMK AO2 T00940067 $
24044KAIA AIA20160606003511106/06/16 00:35:31  5-MIN KAIA 060735Z AUTO 00000KT 10SM CLR 09/07 A3005 3810 83 4100 000/00 RMK AO2 T00940067 $
24044KAIA AIA20160606004011106/06/16 00:40:31  5-MIN KAIA 060740Z AUTO 00000KT 10SM CLR 09/07 A3005 3810 83 4100 000/00 RMK AO2 T00940067 $
24044KAIA AIA20160606004511106/06/16 00:45:31  5-MIN KAIA 060745Z AUTO 34003KT 10SM CLR 10/07 A3005 3810 80 4200 330/03 RMK AO2 T01000067 $
24044KAIA AIA20160606005011806/06/16 00:50:31  5-MIN KAIA 060750Z AUTO 33004KT 10SM CLR 10/07 A3005 3820 83 4200 330/04 RMK AO2 SLP141 T01000072 $
24044KAIA AIA20160606005511106/06/16 00:55:31  5-MIN KAIA 060755Z AUTO 32003KT 10SM CLR 11/07 A3005 3820 80 4200 310/03 RMK AO2 T01060072 $
24044KAIA AIA20160606010011106/06/16 01:00:31  5-MIN KAIA 060800Z AUTO 00000KT 10SM CLR 11/07 A3005 3820 80 4200 000/00 RMK AO2 T01060072 $
24044KAIA AIA20160606010511106/06/16 01:05:31  5-MIN KAIA 060805Z AUTO 00000KT 10SM CLR 11/07 A3005 3820 80 4200 000/00 RMK AO2 T01060072 $
24044KAIA AIA20160606011011106/06/16 01:10:31  5-MIN KAIA 060810Z AUTO 33003KT 10SM CLR 11/07 A3005 3820 77 4300 330/03 RMK AO2 T01110072 $
24044KAIA AIA20160606011511106/06/16 01:15:31  5-MIN KAIA 060815Z AUTO 34004KT 10SM CLR 12/07 A3005 3820 74 4300 330/04 RMK AO2 T01170072 $
24044KAIA AIA20160606012011106/06/16 01:20:31  5-MIN KAIA 060820Z AUTO 32003KT 10SM CLR 11/07 A3005 3820 77 4300 320/03 RMK AO2 T01110072 $
24044KAIA AIA20160606012511106/06/16 01:25:31  5-MIN KAIA 060825Z AUTO 32003KT 10SM CLR 12/08 A3005 3820 77 4400 320/03 RMK AO2 T01170078 $
24044KAIA AIA20160606013011106/06/16 01:30:31  5-MIN KAIA 060830Z AUTO 32003KT 10SM CLR 12/08 A3005 3820 77 4400 310/03 RMK AO2 T01170078 $
24044KAIA AIA20160606013511106/06/16 01:35:31  5-MIN KAIA 060835Z AUTO 35004KT 10SM CLR 11/07 A3005 3820 77 4300 340/04 RMK AO2 T01110072 $
24044KAIA AIA20160606014011106/06/16 01:40:31  5-MIN KAIA 060840Z AUTO 01004KT 10SM CLR 11/07 A3005 3820 77 4300 360/04 RMK AO2 T01110072 $
24044KAIA AIA20160606014511106/06/16 01:45:31  5-MIN KAIA 060845Z AUTO 01006KT 10SM CLR 11/07 A3005 3820 80 4200 360/06 RMK AO2 T01060072 $
24044KAIA AIA20160606015012406/06/16 01:50:31  5-MIN KAIA 060850Z AUTO 36006KT 10SM CLR 11/07 A3005 3820 80 4200 350/06 RMK AO2 SLP138 T01060072 50003 $
24044KAIA AIA20160606015511106/06/16 01:55:31  5-MIN KAIA 060855Z AUTO 35005KT 10SM CLR 10/07 A3004 3820 83 4200 350/05 RMK AO2 T01000072 $
24044KAIA AIA20160606020011106/06/16 02:00:31  5-MIN KAIA 060900Z AUTO 35006KT 10SM CLR 11/07 A3004 3820 80 4200 350/06 RMK AO2 T01060072 $
24044KAIA AIA20160606020511106/06/16 02:05:31  5-MIN KAIA 060905Z AUTO 36006KT 10SM CLR 11/08 A3004 3820 83 4200 350/06 RMK AO2 T01060078 $
24044KAIA AIA20160606021011106/06/16 02:10:31  5-MIN KAIA 060910Z AUTO 36005KT 10SM CLR 11/08 A3004 3820 83 4200 350/05 RMK AO2 T01060078 $
24044KAIA AIA20160606021511106/06/16 02:15:31  5-MIN KAIA 060915Z AUTO 36006KT 10SM CLR 10/07 A3004 3820 83 4200 350/06 RMK AO2 T01000072 $
24044KAIA AIA20160606022011106/06/16 02:20:31  5-MIN KAIA 060920Z AUTO 01007KT 10SM CLR 10/07 A3004 3820 83 4200 010/07 RMK AO2 T01000072 $
24044KAIA AIA20160606022511106/06/16 02:25:31  5-MIN KAIA 060925Z AUTO 02007KT 10SM CLR 10/07 A3004 3820 83 4200 010/07 RMK AO2 T01000072 $
24044KAIA AIA20160606023011106/06/16 02:30:31  5-MIN KAIA 060930Z AUTO 02007KT 10SM CLR 10/07 A3004 3830 83 4200 010/07 RMK AO2 T01000072 $
24044KAIA AIA20160606023511106/06/16 02:35:31  5-MIN KAIA 060935Z AUTO 02007KT 10SM CLR 10/08 A3004 3830 86 4200 010/07 RMK AO2 T01000078 $
24044KAIA AIA20160606024011106/06/16 02:40:31  5-MIN KAIA 060940Z AUTO 02007KT 10SM CLR 10/07 A3004 3830 83 4200 010/07 RMK AO2 T01000072 $
24044KAIA AIA20160606024511106/06/16 02:45:31  5-MIN KAIA 060945Z AUTO 02007KT 10SM CLR 10/07 A3004 3830 83 4200 010/07 RMK AO2 T01000072 $
24044KAIA AIA20160606025011806/06/16 02:50:31  5-MIN KAIA 060950Z AUTO 01007KT 10SM CLR 10/07 A3003 3830 83 4200 360/07 RMK AO2 SLP134 T01000072 $
24044KAIA AIA20160606025511106/06/16 02:55:31  5-MIN KAIA 060955Z AUTO 02008KT 10SM CLR 10/07 A3003 3830 83 4200 010/08 RMK AO2 T01000072 $
24044KAIA AIA20160606030011106/06/16 03:00:31  5-MIN KAIA 061000Z AUTO 02007KT 10SM CLR 10/07 A3003 3830 83 4200 010/07 RMK AO2 T01000072 $
24044KAIA AIA20160606030511106/06/16 03:05:31  5-MIN KAIA 061005Z AUTO 03005KT 10SM CLR 10/07 A3003 3830 83 4200 020/05 RMK AO2 T01000072 $
24044KAIA AIA20160606031011106/06/16 03:10:31  5-MIN KAIA 061010Z AUTO 01003KT 10SM CLR 09/07 A3003 3830 86 4100 010/03 RMK AO2 T00940072 $
24044KAIA AIA20160606031511106/06/16 03:15:31  5-MIN KAIA 061015Z AUTO 02004KT 10SM CLR 09/07 A3003 3830 86 4100 010/04 RMK AO2 T00940072 $
24044KAIA AIA20160606032011106/06/16 03:20:31  5-MIN KAIA 061020Z AUTO 02003KT 10SM CLR 09/07 A3003 3830 86 4100 010/03 RMK AO2 T00940072 $
24044KAIA AIA20160606032511106/06/16 03:25:31  5-MIN KAIA 061025Z AUTO 02003KT 10SM CLR 09/07 A3003 3830 89 4000 010/03 RMK AO2 T00890072 $
24044KAIA AIA20160606033011106/06/16 03:30:31  5-MIN KAIA 061030Z AUTO 02004KT 10SM CLR 09/07 A3003 3830 86 4100 010/04 RMK AO2 T00940072 $
24044KAIA AIA20160606033511106/06/16 03:35:31  5-MIN KAIA 061035Z AUTO 02003KT 10SM CLR 09/07 A3003 3830 86 4100 010/03 RMK AO2 T00940072 $
24044KAIA AIA20160606034011106/06/16 03:40:31  5-MIN KAIA 061040Z AUTO 02004KT 10SM CLR 09/07 A3003 3830 86 4100 010/04 RMK AO2 T00940072 $
24044KAIA AIA20160606034511106/06/16 03:45:31  5-MIN KAIA 061045Z AUTO 02004KT 10SM CLR 09/07 A3003 3830 86 4100 020/04 RMK AO2 T00940072 $
24044KAIA AIA20160606035011806/06/16 03:50:31  5-MIN KAIA 061050Z AUTO 00000KT 10SM CLR 09/07 A3003 3830 86 4100 000/00 RMK AO2 SLP133 T00940072 $
24044KAIA AIA20160606035511106/06/16 03:55:31  5-MIN KAIA 061055Z AUTO 00000KT 10SM CLR 09/07 A3003 3830 86 4000 000/00 RMK AO2 T00890067 $
24044KAIA AIA20160606040011106/06/16 04:00:31  5-MIN KAIA 061100Z AUTO 00000KT 10SM CLR 09/07 A3003 3830 83 4100 000/00 RMK AO2 T00940067 $
24044KAIA AIA20160606040511106/06/16 04:05:31  5-MIN KAIA 061105Z AUTO 00000KT 10SM CLR 08/07 A3003 3830 89 4000 000/00 RMK AO2 T00830067 $
24044KAIA AIA20160606041011106/06/16 04:10:31  5-MIN KAIA 061110Z AUTO 36003KT 10SM CLR 09/07 A3003 3830 86 4000 360/03 RMK AO2 T00890067 $
24044KAIA AIA20160606041511106/06/16 04:15:31  5-MIN KAIA 061115Z AUTO 36003KT 10SM CLR 09/07 A3003 3830 86 4000 350/03 RMK AO2 T00890067 $
24044KAIA AIA20160606042011106/06/16 04:20:31  5-MIN KAIA 061120Z AUTO 36003KT 10SM CLR 09/07 A3003 3830 83 4100 350/03 RMK AO2 T00940067 $
24044KAIA AIA20160606042511106/06/16 04:25:31  5-MIN KAIA 061125Z AUTO 35003KT 10SM CLR 09/07 A3003 3830 83 4100 340/03 RMK AO2 T00940067 $
24044KAIA AIA20160606043011106/06/16 04:30:31  5-MIN KAIA 061130Z AUTO 35003KT 10SM CLR 09/07 A3003 3830 86 4000 340/03 RMK AO2 T00890067 $
24044KAIA AIA20160606043511106/06/16 04:35:31  5-MIN KAIA 061135Z AUTO 00000KT 10SM CLR 07/06 A3003 3830 89 3800 000/00 RMK AO2 T00720056 $
24044KAIA AIA20160606044010106/06/16 04:40:31  5-MIN KAIA 061140Z AUTO 10SM CLR 08/06 A3003 3830 89 3900 M /M RMK AO2 T00780061 $
24044KAIA AIA20160606044510106/06/16 04:45:31  5-MIN KAIA 061145Z AUTO 10SM CLR 08/06 A3003 3830 86 4000 M /M RMK AO2 T00830061 $
24044KAIA AIA20160606045012606/06/16 04:50:31  5-MIN KAIA 061150Z AUTO 10SM CLR 09/07 A3003 3830 86 4000 M /M RMK AO2 SLP137 T00890067 10133 20072 56002 $
24044KAIA AIA20160606045510106/06/16 04:55:31  5-MIN KAIA 061155Z AUTO 10SM CLR 10/08 A3003 3830 86 4200 M /M RMK AO2 T01000078 $
24044KAIA AIA20160606050010106/06/16 05:00:31  5-MIN KAIA 061200Z AUTO 10SM CLR 11/08 A3003 3830 83 4200 M /M RMK AO2 T01060078 $
24044KAIA AIA20160606050510106/06/16 05:05:31  5-MIN KAIA 061205Z AUTO 10SM CLR 11/08 A3004 3830 80 4300 M /M RMK AO2 T01110078 $
24044KAIA AIA20160606051010106/06/16 05:10:31  5-MIN KAIA 061210Z AUTO 10SM CLR 11/08 A3004 3820 83 4300 M /M RMK AO2 T01110083 $
24044KAIA AIA20160606051510106/06/16 05:15:31  5-MIN KAIA 061215Z AUTO 10SM CLR 12/08 A3004 3820 80 4400 M /M RMK AO2 T01170083 $
24044KAIA AIA20160606052010106/06/16 05:20:31  5-MIN KAIA 061220Z AUTO 10SM CLR 12/08 A3004 3820 80 4400 M /M RMK AO2 T01170083 $
24044KAIA AIA20160606052510106/06/16 05:25:31  5-MIN KAIA 061225Z AUTO 10SM CLR 12/08 A3004 3820 77 4400 M /M RMK AO2 T01220083 $
24044KAIA AIA20160606053010106/06/16 05:30:31  5-MIN KAIA 061230Z AUTO 10SM CLR 13/09 A3004 3820 77 4500 M /M RMK AO2 T01280089 $
24044KAIA AIA20160606053510106/06/16 05:35:31  5-MIN KAIA 061235Z AUTO 10SM CLR 13/09 A3004 3820 74 4500 M /M RMK AO2 T01330089 $
24044KAIA AIA20160606054010106/06/16 05:40:31  5-MIN KAIA 061240Z AUTO 10SM CLR 13/09 A3004 3820 74 4500 M /M RMK AO2 T01330089 $
24044KAIA AIA20160606054510106/06/16 05:45:31  5-MIN KAIA 061245Z AUTO 10SM CLR 14/09 A3004 3820 74 4600 M /M RMK AO2 T01390094 $
24044KAIA AIA20160606055010806/06/16 05:50:31  5-MIN KAIA 061250Z AUTO 10SM CLR 14/09 A3005 3820 69 4700 M /M RMK AO2 SLP137 T01440089 $
24044KAIA AIA20160606055510106/06/16 05:55:31  5-MIN KAIA 061255Z AUTO 10SM CLR 14/09 A3005 3820 69 4700 M /M RMK AO2 T01440089 $
24044KAIA AIA20160606060010106/06/16 06:00:31  5-MIN KAIA 061300Z AUTO 10SM CLR 15/09 A3005 3810 66 4700 M /M RMK AO2 T01500089 $
24044KAIA AIA20160606060510106/06/16 06:05:31  5-MIN KAIA 061305Z AUTO 10SM CLR 15/09 A3005 3810 66 4700 M /M RMK AO2 T01500089 $
24044KAIA AIA20160606061010106/06/16 06:10:31  5-MIN KAIA 061310Z AUTO 10SM CLR 15/09 A3005 3810 66 4700 M /M RMK AO2 T01500089 $
24044KAIA AIA20160606061510106/06/16 06:15:31  5-MIN KAIA 061315Z AUTO 10SM CLR 16/09 A3005 3810 64 4800 M /M RMK AO2 T01560089 $
24044KAIA AIA20160606062010106/06/16 06:20:31  5-MIN KAIA 061320Z AUTO 10SM CLR 16/08 A3005 3810 62 4800 M /M RMK AO2 T01560083 $
24044KAIA AIA20160606062510106/06/16 06:25:31  5-MIN KAIA 061325Z AUTO 10SM CLR 16/09 A3005 3810 62 4900 M /M RMK AO2 T01610089 $
24044KAIA AIA20160606063010106/06/16 06:30:31  5-MIN KAIA 061330Z AUTO 10SM CLR 16/09 A3006 3810 62 4900 M /M RMK AO2 T01610089 $
24044KAIA AIA20160606063509906/06/16 06:35:31  5-MIN KAIA 061335Z AUTO 10SM CLR 16/09 A3006 3810 62 4800 M /M RMK AO2 T01610089
24044KAIA AIA20160606064010906/06/16 06:40:31  5-MIN KAIA 061340Z AUTO 01010KT 10SM CLR 17/09 A3006 3810 60 4900 360/10 RMK AO2 T01670089
24044KAIA AIA20160606064510906/06/16 06:45:31  5-MIN KAIA 061345Z AUTO 02008KT 10SM CLR 17/09 A3006 3810 60 4900 020/08 RMK AO2 T01670089
24044KAIA AIA20160606065011606/06/16 06:50:31  5-MIN KAIA 061350Z AUTO 02010KT 10SM CLR 17/09 A3006 3800 60 5000 010/10 RMK AO2 SLP143 T01720094
24044KAIA AIA20160606065510906/06/16 06:55:31  5-MIN KAIA 061355Z AUTO 01008KT 10SM CLR 17/09 A3006 3800 60 5000 360/08 RMK AO2 T01720094
24044KAIA AIA20160606070010906/06/16 07:00:31  5-MIN KAIA 061400Z AUTO 02008KT 10SM CLR 18/09 A3007 3800 58 5000 010/08 RMK AO2 T01780094
24044KAIA AIA20160606070510906/06/16 07:05:31  5-MIN KAIA 061405Z AUTO 02008KT 10SM CLR 18/09 A3007 3800 56 5100 010/08 RMK AO2 T01830094
24044KAIA AIA20160606071010906/06/16 07:10:31  5-MIN KAIA 061410Z AUTO 02007KT 10SM CLR 19/10 A3007 3800 56 5200 010/07 RMK AO2 T01890100
24044KAIA AIA20160606071510906/06/16 07:15:31  5-MIN KAIA 061415Z AUTO 05009KT 10SM CLR 19/09 A3007 3800 52 5200 040/09 RMK AO2 T01940094
24044KAIA AIA20160606072010906/06/16 07:20:31  5-MIN KAIA 061420Z AUTO 04009KT 10SM CLR 19/09 A3007 3800 50 5200 040/09 RMK AO2 T01940089
24044KAIA AIA20160606072510906/06/16 07:25:31  5-MIN KAIA 061425Z AUTO 04009KT 10SM CLR 20/09 A3007 3800 48 5300 030/09 RMK AO2 T02000089
24044KAIA AIA20160606073010906/06/16 07:30:31  5-MIN KAIA 061430Z AUTO 05008KT 10SM CLR 21/09 A3007 3790 48 5300 040/08 RMK AO2 T02060094
24044KAIA AIA20160606073510906/06/16 07:35:31  5-MIN KAIA 061435Z AUTO 06005KT 10SM CLR 21/09 A3007 3800 48 5300 060/05 RMK AO2 T02060094
24044KAIA AIA20160606074010906/06/16 07:40:31  5-MIN KAIA 061440Z AUTO 06008KT 10SM CLR 21/09 A3007 3800 47 5400 050/08 RMK AO2 T02110094
24044KAIA AIA20160606074510906/06/16 07:45:31  5-MIN KAIA 061445Z AUTO 07009KT 10SM CLR 22/09 A3007 3790 45 5500 060/09 RMK AO2 T02170094
24044KAIA AIA20160606075012206/06/16 07:50:31  5-MIN KAIA 061450Z AUTO 06010KT 10SM CLR 22/09 A3007 3790 43 5500 050/10 RMK AO2 SLP147 T02170089 55003
24044KAIA AIA20160606075510906/06/16 07:55:31  5-MIN KAIA 061455Z AUTO 05009KT 10SM CLR 22/09 A3007 3790 43 5500 040/09 RMK AO2 T02220094
24044KAIA AIA20160606080010906/06/16 08:00:31  5-MIN KAIA 061500Z AUTO 07011KT 10SM CLR 22/09 A3008 3790 43 5500 060/11 RMK AO2 T02220094
24044KAIA AIA20160606080510906/06/16 08:05:31  5-MIN KAIA 061505Z AUTO 06011KT 10SM CLR 22/09 A3007 3790 43 5500 050/11 RMK AO2 T02220094
24044KAIA AIA20160606081010906/06/16 08:10:31  5-MIN KAIA 061510Z AUTO 07011KT 10SM CLR 22/09 A3007 3790 42 5500 070/11 RMK AO2 T02220089
24044KAIA AIA20160606081510906/06/16 08:15:31  5-MIN KAIA 061515Z AUTO 08011KT 10SM CLR 23/09 A3007 3790 40 5600 070/11 RMK AO2 T02280089
24044KAIA AIA20160606082010906/06/16 08:20:31  5-MIN KAIA 061520Z AUTO 07011KT 10SM CLR 23/09 A3007 3790 40 5600 070/11 RMK AO2 T02280089
24044KAIA AIA20160606082510906/06/16 08:25:31  5-MIN KAIA 061525Z AUTO 07011KT 10SM CLR 23/09 A3007 3790 39 5600 060/11 RMK AO2 T02330089
24044KAIA AIA20160606083011106/06/16 08:30:31  5-MIN KAIA 061530Z AUTO 07011KT 10SM CLR 23/09 A3007 3800 39 5600 060/11 RMK AO2 T02330089 $
24044KAIA AIA20160606083511106/06/16 08:35:31  5-MIN KAIA 061535Z AUTO 06013KT 10SM CLR 23/09 A3007 3800 39 5600 050/13 RMK AO2 T02330089 $
24044KAIA AIA20160606084011106/06/16 08:40:31  5-MIN KAIA 061540Z AUTO 04013KT 10SM CLR 23/09 A3007 3790 39 5600 040/13 RMK AO2 T02330089 $
24044KAIA AIA20160606084511106/06/16 08:45:31  5-MIN KAIA 061545Z AUTO 06013KT 10SM CLR 23/09 A3007 3800 39 5600 050/13 RMK AO2 T02330089 $
24044KAIA AIA20160606085011806/06/16 08:50:31  5-MIN KAIA 061550Z AUTO 05011KT 10SM CLR 24/09 A3007 3790 39 5700 040/11 RMK AO2 SLP147 T02390094 $
24044KAIA AIA20160606085511706/06/16 08:55:31  5-MIN KAIA 061555Z AUTO 06011G19KT 10SM CLR 24/09 A3007 3790 39 5700 050/11G19 RMK AO2 T02390094 $
24044KAIA AIA20160606090011706/06/16 09:00:31  5-MIN KAIA 061600Z AUTO 06012G19KT 10SM CLR 24/09 A3007 3790 38 5700 050/12G19 RMK AO2 T02390089 $
24044KAIA AIA20160606090511106/06/16 09:05:31  5-MIN KAIA 061605Z AUTO 05011KT 10SM CLR 24/09 A3007 3790 38 5700 040/11 RMK AO2 T02390089 $
24044KAIA AIA20160606091011106/06/16 09:10:31  5-MIN KAIA 061610Z AUTO 04012KT 10SM CLR 24/08 A3007 3790 36 5700 030/12 RMK AO2 T02390083 $
24044KAIA AIA20160606091511106/06/16 09:15:31  5-MIN KAIA 061615Z AUTO 05012KT 10SM CLR 24/08 A3007 3790 35 5700 040/12 RMK AO2 T02390078 $
24044KAIA AIA20160606092011106/06/16 09:20:31  5-MIN KAIA 061620Z AUTO 05011KT 10SM CLR 24/08 A3007 3790 36 5700 040/11 RMK AO2 T02390083 $
24044KAIA AIA20160606092511106/06/16 09:25:31  5-MIN KAIA 061625Z AUTO 05014KT 10SM CLR 24/08 A3007 3790 34 5800 040/14 RMK AO2 T02440078 $
24044KAIA AIA20160606093011106/06/16 09:30:31  5-MIN KAIA 061630Z AUTO 06012KT 10SM CLR 24/08 A3007 3790 34 5800 050/12 RMK AO2 T02440078 $
24044KAIA AIA20160606093511106/06/16 09:35:31  5-MIN KAIA 061635Z AUTO 03014KT 10SM CLR 25/08 A3008 3790 33 5800 030/14 RMK AO2 T02500078 $
24044KAIA AIA20160606094011106/06/16 09:40:31  5-MIN KAIA 061640Z AUTO 03014KT 10SM CLR 24/07 A3008 3790 33 5800 020/14 RMK AO2 T02440072 $
24044KAIA AIA20160606094511106/06/16 09:45:31  5-MIN KAIA 061645Z AUTO 04014KT 10SM CLR 24/07 A3008 3790 33 5800 030/14 RMK AO2 T02440072 $
24044KAIA AIA20160606095011806/06/16 09:50:31  5-MIN KAIA 061650Z AUTO 04014KT 10SM CLR 24/07 A3008 3790 33 5800 040/14 RMK AO2 SLP152 T02440072 $
24044KAIA AIA20160606095511106/06/16 09:55:31  5-MIN KAIA 061655Z AUTO 06012KT 10SM CLR 24/08 A3008 3790 34 5800 060/12 RMK AO2 T02440078 $
24044KAIA AIA20160606100011106/06/16 10:00:31  5-MIN KAIA 061700Z AUTO 07011KT 10SM CLR 24/07 A3008 3790 33 5800 060/11 RMK AO2 T02440072 $
24044KAIA AIA20160606100511106/06/16 10:05:31  5-MIN KAIA 061705Z AUTO 03013KT 10SM CLR 25/08 A3008 3790 33 5800 020/13 RMK AO2 T02500078 $
24044KAIA AIA20160606101011106/06/16 10:10:31  5-MIN KAIA 061710Z AUTO 05012KT 10SM CLR 25/07 A3008 3790 31 5800 040/12 RMK AO2 T02500072 $
24044KAIA AIA20160606101511106/06/16 10:15:31  5-MIN KAIA 061715Z AUTO 04013KT 10SM CLR 25/07 A3008 3790 31 5800 030/13 RMK AO2 T02500072 $
24044KAIA AIA20160606102011106/06/16 10:20:31  5-MIN KAIA 061720Z AUTO 06011KT 10SM CLR 25/07 A3008 3790 31 5800 050/11 RMK AO2 T02500072 $
24044KAIA AIA20160606102511706/06/16 10:25:31  5-MIN KAIA 061725Z AUTO 04012G18KT 10SM CLR 25/08 A3008 3790 33 5800 030/12G18 RMK AO2 T02500078 $
24044KAIA AIA20160606103011706/06/16 10:30:31  5-MIN KAIA 061730Z AUTO 04014G18KT 10SM CLR 25/08 A3008 3790 34 5800 030/14G18 RMK AO2 T02500083 $
24044KAIA AIA20160606103511106/06/16 10:35:31  5-MIN KAIA 061735Z AUTO 05013KT 10SM CLR 25/08 A3008 3780 34 5800 040/13 RMK AO2 T02500083 $
24044KAIA AIA20160606104011706/06/16 10:40:31  5-MIN KAIA 061740Z AUTO 05013G20KT 10SM CLR 25/08 A3008 3780 34 5800 040/13G20 RMK AO2 T02500083 $
24044KAIA AIA20160606104511106/06/16 10:45:31  5-MIN KAIA 061745Z AUTO 05015KT 10SM CLR 25/08 A3008 3780 34 5800 050/15 RMK AO2 T02500083 $
24044KAIA AIA20160606105014206/06/16 10:50:31  5-MIN KAIA 061750Z AUTO 04015G18KT 10SM CLR 25/08 A3008 3780 34 5800 030/15G18 RMK AO2 SLP153 T02500083 10250 20100 51012 $
24044KAIA AIA20160606105511706/06/16 10:55:31  5-MIN KAIA 061755Z AUTO 06013G19KT 10SM CLR 25/08 A3008 3780 34 5800 050/13G19 RMK AO2 T02500083 $
24044KAIA AIA20160606110011106/06/16 11:00:31  5-MIN KAIA 061800Z AUTO 05012KT 10SM CLR 24/08 A3008 3780 34 5800 040/12 RMK AO2 T02440078 $
24044KAIA AIA20160606110511106/06/16 11:05:31  5-MIN KAIA 061805Z AUTO 03013KT 10SM CLR 25/08 A3008 3780 34 5800 030/13 RMK AO2 T02500083 $
24044KAIA AIA20160606111011106/06/16 11:10:31  5-MIN KAIA 061810Z AUTO 05012KT 10SM CLR 25/08 A3008 3780 34 5800 040/12 RMK AO2 T02500083 $
24044KAIA AIA20160606111511706/06/16 11:15:31  5-MIN KAIA 061815Z AUTO 04008G17KT 10SM CLR 25/08 A3009 3780 33 5800 030/08G17 RMK AO2 T02500078 $
24044KAIA AIA20160606112011706/06/16 11:20:31  5-MIN KAIA 061820Z AUTO 04010G17KT 10SM CLR 25/08 A3008 3780 33 5800 030/10G17 RMK AO2 T02500078 $
24044KAIA AIA20160606214011106/06/16 21:40:31  5-MIN KAIA 070440Z AUTO 10003KT 10SM CLR 13/07 A3009 3780 66 4400 090/03 RMK AO2 T01280067 $
24044KAIA AIA20160606214511106/06/16 21:45:31  5-MIN KAIA 070445Z AUTO 12003KT 10SM CLR 13/07 A3009 3780 66 4400 110/03 RMK AO2 T01280067 $
24044KAIA AIA20160606215011806/06/16 21:50:31  5-MIN KAIA 070450Z AUTO 09003KT 10SM CLR 13/07 A3009 3780 66 4400 090/03 RMK AO2 SLP154 T01280067 $
24044KAIA AIA20160606215511106/06/16 21:55:31  5-MIN KAIA 070455Z AUTO 09003KT 10SM CLR 13/07 A3009 3780 66 4400 090/03 RMK AO2 T01280067 $
24044KAIA AIA20160606220011106/06/16 22:00:31  5-MIN KAIA 070500Z AUTO 12004KT 10SM CLR 13/07 A3009 3770 66 4400 110/04 RMK AO2 T01280067 $
24044KAIA AIA20160606220511106/06/16 22:05:31  5-MIN KAIA 070505Z AUTO 12004KT 10SM CLR 13/07 A3009 3770 66 4400 110/04 RMK AO2 T01280067 $
24044KAIA AIA20160606221011106/06/16 22:10:31  5-MIN KAIA 070510Z AUTO 12003KT 10SM CLR 13/07 A3009 3770 66 4400 110/03 RMK AO2 T01280067 $
24044KAIA AIA20160606221511106/06/16 22:15:31  5-MIN KAIA 070515Z AUTO 12004KT 10SM CLR 13/07 A3009 3770 66 4400 110/04 RMK AO2 T01280067 $
24044KAIA AIA20160606222011106/06/16 22:20:31  5-MIN KAIA 070520Z AUTO 12004KT 10SM CLR 13/07 A3009 3770 66 4400 110/04 RMK AO2 T01280067 $
24044KAIA AIA20160606222511106/06/16 22:25:31  5-MIN KAIA 070525Z AUTO 11003KT 10SM CLR 13/07 A3009 3770 66 4400 100/03 RMK AO2 T01280067 $
24044KAIA AIA20160606223011106/06/16 22:30:31  5-MIN KAIA 070530Z AUTO 12004KT 10SM CLR 12/07 A3009 3770 68 4400 110/04 RMK AO2 T01220067 $
24044KAIA AIA20160606223511106/06/16 22:35:31  5-MIN KAIA 070535Z AUTO 13004KT 10SM CLR 12/07 A3009 3780 68 4400 130/04 RMK AO2 T01220067 $
24044KAIA AIA20160606224011106/06/16 22:40:31  5-MIN KAIA 070540Z AUTO 13006KT 10SM CLR 12/07 A3009 3780 71 4300 120/06 RMK AO2 T01170067 $
24044KAIA AIA20160606224511106/06/16 22:45:31  5-MIN KAIA 070545Z AUTO 13007KT 10SM CLR 12/06 A3009 3770 68 4300 120/07 RMK AO2 T01170061 $
24044KAIA AIA20160606225013606/06/16 22:50:31  5-MIN KAIA 070550Z AUTO 12005KT 10SM CLR 11/06 A3009 3780 71 4200 110/05 RMK AO2 SLP156 T01110061 10256 20111 53009 $
24044KAIA AIA20160606225511106/06/16 22:55:31  5-MIN KAIA 070555Z AUTO 12005KT 10SM CLR 11/06 A3009 3780 74 4200 110/05 RMK AO2 T01060061 $
24044KAIA AIA20160606230011106/06/16 23:00:31  5-MIN KAIA 070600Z AUTO 11005KT 10SM CLR 11/06 A3009 3780 74 4200 100/05 RMK AO2 T01060061 $
24044KAIA AIA20160606230511106/06/16 23:05:31  5-MIN KAIA 070605Z AUTO 12005KT 10SM CLR 11/06 A3009 3780 71 4200 110/05 RMK AO2 T01110061 $
24044KAIA AIA20160606231011106/06/16 23:10:31  5-MIN KAIA 070610Z AUTO 11005KT 10SM CLR 11/06 A3008 3780 74 4200 110/05 RMK AO2 T01060061 $
24044KAIA AIA20160606231511106/06/16 23:15:31  5-MIN KAIA 070615Z AUTO 12005KT 10SM CLR 11/07 A3008 3790 77 4200 120/05 RMK AO2 T01060067 $
24044KAIA AIA20160606232011106/06/16 23:20:31  5-MIN KAIA 070620Z AUTO 13005KT 10SM CLR 10/06 A3008 3790 77 4100 120/05 RMK AO2 T01000061 $
24044KAIA AIA20160606232511106/06/16 23:25:31  5-MIN KAIA 070625Z AUTO 14005KT 10SM CLR 10/06 A3008 3790 77 4100 130/05 RMK AO2 T01000061 $
24044KAIA AIA20160606233011106/06/16 23:30:31  5-MIN KAIA 070630Z AUTO 13005KT 10SM CLR 11/06 A3008 3790 74 4200 120/05 RMK AO2 T01060061 $
24044KAIA AIA20160606233511106/06/16 23:35:31  5-MIN KAIA 070635Z AUTO 14006KT 10SM CLR 11/06 A3008 3790 71 4300 130/06 RMK AO2 T01110061 $
24044KAIA AIA20160606234011106/06/16 23:40:31  5-MIN KAIA 070640Z AUTO 14008KT 10SM CLR 10/06 A3008 3790 77 4100 130/08 RMK AO2 T01000061 $
24044KAIA AIA20160606234511106/06/16 23:45:31  5-MIN KAIA 070645Z AUTO 13007KT 10SM CLR 09/06 A3008 3790 79 4100 130/07 RMK AO2 T00940061 $
24044KAIA AIA20160606235012806/06/16 23:50:31  5-MIN KAIA 070650Z AUTO 13007KT 10SM CLR 10/06 A3008 3790 77 4100 130/07 RMK AO2 SLP153 T01000061 402720072 $
24044KAIA AIA20160606235511106/06/16 23:55:31  5-MIN KAIA 070655Z AUTO 14006KT 10SM CLR 10/06 A3008 3790 77 4100 130/06 RMK AO2 T01000061 $
24044KAIA AIA20160607000011106/07/16 00:00:31  5-MIN KAIA 070700Z AUTO 15006KT 10SM CLR 10/07 A3008 3790 80 4100 140/06 RMK AO2 T01000067 $
24044KAIA AIA20160607000511406/07/16 00:05:31  5-MIN KAIA 070705Z AUTO 16008KT 10SM FEW100 10/07 A3008 3780 80 4100 150/08 RMK AO2 T01000067 $
24044KAIA AIA20160607001011406/07/16 00:10:31  5-MIN KAIA 070710Z AUTO 16005KT 10SM FEW100 10/07 A3009 3780 80 4100 160/05 RMK AO2 T01000067 $
24044KAIA AIA20160607001511406/07/16 00:15:31  5-MIN KAIA 070715Z AUTO 18003KT 10SM FEW100 10/07 A3009 3780 80 4100 170/03 RMK AO2 T01000067 $
24044KAIA AIA20160607002011406/07/16 00:20:31  5-MIN KAIA 070720Z AUTO 17004KT 10SM FEW100 11/07 A3009 3780 77 4200 160/04 RMK AO2 T01060067 $
24044KAIA AIA20160607002511406/07/16 00:25:31  5-MIN KAIA 070725Z AUTO 00000KT 10SM FEW100 11/07 A3008 3780 74 4200 000/00 RMK AO2 T01110067 $
24044KAIA AIA20160607003011406/07/16 00:30:31  5-MIN KAIA 070730Z AUTO 15004KT 10SM FEW100 11/07 A3008 3780 77 4200 140/04 RMK AO2 T01110072 $
24044KAIA AIA20160607003511106/07/16 00:35:31  5-MIN KAIA 070735Z AUTO 15004KT 10SM CLR 11/07 A3008 3790 77 4200 140/04 RMK AO2 T01060067 $
24044KAIA AIA20160607004011106/07/16 00:40:31  5-MIN KAIA 070740Z AUTO 15006KT 10SM CLR 11/07 A3008 3790 77 4200 140/06 RMK AO2 T01060067 $
24044KAIA AIA20160607004511106/07/16 00:45:31  5-MIN KAIA 070745Z AUTO 17007KT 10SM CLR 10/07 A3008 3790 80 4100 160/07 RMK AO2 T01000067 $
24044KAIA AIA20160607005011806/07/16 00:50:31  5-MIN KAIA 070750Z AUTO 16007KT 10SM CLR 09/07 A3008 3780 86 4000 160/07 RMK AO2 SLP155 T00890067 $
24044KAIA AIA20160607005511106/07/16 00:55:31  5-MIN KAIA 070755Z AUTO 16008KT 10SM CLR 09/07 A3008 3790 83 4100 150/08 RMK AO2 T00940067 $
24044KAIA AIA20160607010011106/07/16 01:00:31  5-MIN KAIA 070800Z AUTO 17008KT 10SM CLR 09/07 A3008 3790 83 4100 160/08 RMK AO2 T00940067 $
24044KAIA AIA20160607010511106/07/16 01:05:31  5-MIN KAIA 070805Z AUTO 17007KT 10SM CLR 09/07 A3008 3790 86 4000 170/07 RMK AO2 T00890067 $
24044KAIA AIA20160607011011106/07/16 01:10:31  5-MIN KAIA 070810Z AUTO 16006KT 10SM CLR 09/07 A3007 3790 86 4000 160/06 RMK AO2 T00890067 $
24044KAIA AIA20160607011511106/07/16 01:15:31  5-MIN KAIA 070815Z AUTO 15006KT 10SM CLR 09/07 A3007 3800 86 4000 140/06 RMK AO2 T00890067 $
24044KAIA AIA20160607012011106/07/16 01:20:31  5-MIN KAIA 070820Z AUTO 16007KT 10SM CLR 09/07 A3007 3800 86 4000 150/07 RMK AO2 T00890067 $
24044KAIA AIA20160607012511106/07/16 01:25:31  5-MIN KAIA 070825Z AUTO 15007KT 10SM CLR 09/07 A3006 3800 86 4000 140/07 RMK AO2 T00890067 $
24044KAIA AIA20160607013011106/07/16 01:30:31  5-MIN KAIA 070830Z AUTO 14006KT 10SM CLR 09/07 A3006 3810 86 4000 130/06 RMK AO2 T00890067 $
24044KAIA AIA20160607013511106/07/16 01:35:31  5-MIN KAIA 070835Z AUTO 13008KT 10SM CLR 09/07 A3005 3810 86 4000 120/08 RMK AO2 T00890067 $
24044KAIA AIA20160607014011106/07/16 01:40:31  5-MIN KAIA 070840Z AUTO 12007KT 10SM CLR 09/07 A3005 3820 83 4100 110/07 RMK AO2 T00940067 $
24044KAIA AIA20160607014511106/07/16 01:45:31  5-MIN KAIA 070845Z AUTO 12008KT 10SM CLR 09/07 A3005 3820 83 4100 110/08 RMK AO2 T00940067 $
24044KAIA AIA20160607015012406/07/16 01:50:31  5-MIN KAIA 070850Z AUTO 11008KT 10SM CLR 10/07 A3004 3820 80 4200 100/08 RMK AO2 SLP140 T01000067 51009 $
24044KAIA AIA20160607015511106/07/16 01:55:31  5-MIN KAIA 070855Z AUTO 11009KT 10SM CLR 09/07 A3004 3820 86 4100 100/09 RMK AO2 T00940072 $
24044KAIA AIA20160607020011106/07/16 02:00:31  5-MIN KAIA 070900Z AUTO 11009KT 10SM CLR 10/07 A3004 3830 83 4200 100/09 RMK AO2 T01000072 $
24044KAIA AIA20160607020511106/07/16 02:05:31  5-MIN KAIA 070905Z AUTO 12009KT 10SM CLR 10/07 A3004 3830 83 4200 110/09 RMK AO2 T01000072 $
24044KAIA AIA20160607021011106/07/16 02:10:31  5-MIN KAIA 070910Z AUTO 12007KT 10SM CLR 10/07 A3003 3830 83 4200 110/07 RMK AO2 T01000072 $
24044KAIA AIA20160607021511106/07/16 02:15:31  5-MIN KAIA 070915Z AUTO 12006KT 10SM CLR 09/07 A3003 3830 86 4100 110/06 RMK AO2 T00940072 $
24044KAIA AIA20160607022011106/07/16 02:20:31  5-MIN KAIA 070920Z AUTO 11007KT 10SM CLR 09/07 A3003 3830 86 4100 110/07 RMK AO2 T00940072 $
24044KAIA AIA20160607022511106/07/16 02:25:31  5-MIN KAIA 070925Z AUTO 11006KT 10SM CLR 09/07 A3003 3830 86 4100 100/06 RMK AO2 T00940072 $
24044KAIA AIA20160607023011106/07/16 02:30:31  5-MIN KAIA 070930Z AUTO 12006KT 10SM CLR 09/07 A3003 3830 86 4100 110/06 RMK AO2 T00940072 $
24044KAIA AIA20160607023511106/07/16 02:35:31  5-MIN KAIA 070935Z AUTO 12006KT 10SM CLR 09/07 A3003 3830 86 4000 110/06 RMK AO2 T00890067 $
24044KAIA AIA20160607024011106/07/16 02:40:31  5-MIN KAIA 070940Z AUTO 12006KT 10SM CLR 09/07 A3003 3830 86 4000 110/06 RMK AO2 T00890067 $
24044KAIA AIA20160607024511106/07/16 02:45:31  5-MIN KAIA 070945Z AUTO 13006KT 10SM CLR 09/07 A3003 3830 86 4000 120/06 RMK AO2 T00890067 $
24044KAIA AIA20160607025011806/07/16 02:50:31  5-MIN KAIA 070950Z AUTO 13006KT 10SM CLR 09/07 A3003 3830 86 4000 120/06 RMK AO2 SLP137 T00890067 $
24044KAIA AIA20160607025511106/07/16 02:55:31  5-MIN KAIA 070955Z AUTO 13005KT 10SM CLR 09/07 A3003 3830 86 4000 120/05 RMK AO2 T00890067 $
24044KAIA AIA20160607030011106/07/16 03:00:31  5-MIN KAIA 071000Z AUTO 14007KT 10SM CLR 09/07 A3003 3830 86 4000 130/07 RMK AO2 T00890067 $
24044KAIA AIA20160607030511106/07/16 03:05:31  5-MIN KAIA 071005Z AUTO 14007KT 10SM CLR 09/07 A3003 3830 86 4000 130/07 RMK AO2 T00890067 $
24044KAIA AIA20160607031011106/07/16 03:10:31  5-MIN KAIA 071010Z AUTO 14008KT 10SM CLR 09/07 A3003 3830 86 4000 130/08 RMK AO2 T00890067 $
24044KAIA AIA20160607031511106/07/16 03:15:31  5-MIN KAIA 071015Z AUTO 14007KT 10SM CLR 09/07 A3003 3830 86 4000 130/07 RMK AO2 T00890067 $
24044KAIA AIA20160607032011106/07/16 03:20:31  5-MIN KAIA 071020Z AUTO 14007KT 10SM CLR 09/07 A3003 3830 86 4000 130/07 RMK AO2 T00890067 $
24044KAIA AIA20160607032511106/07/16 03:25:31  5-MIN KAIA 071025Z AUTO 15008KT 10SM CLR 08/07 A3003 3840 89 4000 140/08 RMK AO2 T00830067 $
24044KAIA AIA20160607033011106/07/16 03:30:31  5-MIN KAIA 071030Z AUTO 15008KT 10SM CLR 08/07 A3003 3830 93 3900 140/08 RMK AO2 T00780067 $
24044KAIA AIA20160607033511106/07/16 03:35:31  5-MIN KAIA 071035Z AUTO 16008KT 10SM CLR 08/06 A3003 3840 89 3900 150/08 RMK AO2 T00780061 $
24044KAIA AIA20160607034011106/07/16 03:40:31  5-MIN KAIA 071040Z AUTO 16009KT 10SM CLR 08/06 A3003 3840 89 3900 150/09 RMK AO2 T00780061 $
24044KAIA AIA20160607034511106/07/16 03:45:31  5-MIN KAIA 071045Z AUTO 16008KT 10SM CLR 08/07 A3003 3840 89 4000 150/08 RMK AO2 T00830067 $
24044KAIA AIA20160607035011806/07/16 03:50:31  5-MIN KAIA 071050Z AUTO 16008KT 10SM CLR 08/07 A3003 3840 89 4000 150/08 RMK AO2 SLP136 T00830067 $
24044KAIA AIA20160607035511106/07/16 03:55:31  5-MIN KAIA 071055Z AUTO 15009KT 10SM CLR 09/07 A3003 3830 86 4000 150/09 RMK AO2 T00890067 $
24044KAIA AIA20160607040011106/07/16 04:00:31  5-MIN KAIA 071100Z AUTO 15009KT 10SM CLR 09/07 A3003 3830 89 4000 140/09 RMK AO2 T00890072 $
24044KAIA AIA20160607040511106/07/16 04:05:31  5-MIN KAIA 071105Z AUTO 15009KT 10SM CLR 09/07 A3003 3830 86 4100 140/09 RMK AO2 T00940072 $
24044KAIA AIA20160607041011106/07/16 04:10:31  5-MIN KAIA 071110Z AUTO 15009KT 10SM CLR 09/07 A3003 3830 86 4100 140/09 RMK AO2 T00940072 $
24044KAIA AIA20160607041511106/07/16 04:15:31  5-MIN KAIA 071115Z AUTO 14008KT 10SM CLR 09/07 A3003 3830 86 4100 130/08 RMK AO2 T00940072 $
24044KAIA AIA20160607042011106/07/16 04:20:31  5-MIN KAIA 071120Z AUTO 14008KT 10SM CLR 09/07 A3003 3830 86 4100 140/08 RMK AO2 T00940072 $
24044KAIA AIA20160607042511106/07/16 04:25:31  5-MIN KAIA 071125Z AUTO 15009KT 10SM CLR 09/08 A3003 3840 89 4100 140/09 RMK AO2 T00940078 $
24044KAIA AIA20160607043011106/07/16 04:30:31  5-MIN KAIA 071130Z AUTO 15009KT 10SM CLR 09/08 A3003 3840 89 4100 140/09 RMK AO2 T00940078 $
24044KAIA AIA20160607043511106/07/16 04:35:31  5-MIN KAIA 071135Z AUTO 15009KT 10SM CLR 10/08 A3003 3840 86 4200 140/09 RMK AO2 T01000078 $
24044KAIA AIA20160607044011106/07/16 04:40:31  5-MIN KAIA 071140Z AUTO 15010KT 10SM CLR 10/08 A3003 3830 86 4200 140/10 RMK AO2 T01000078 $
24044KAIA AIA20160607044511106/07/16 04:45:31  5-MIN KAIA 071145Z AUTO 15010KT 10SM CLR 10/08 A3003 3830 86 4200 140/10 RMK AO2 T01000078 $
24044KAIA AIA20160607045013606/07/16 04:50:31  5-MIN KAIA 071150Z AUTO 15010KT 10SM CLR 10/08 A3003 3840 89 4200 150/10 RMK AO2 SLP136 T01000083 10111 20078 58015 $
24044KAIA AIA20160607045511106/07/16 04:55:31  5-MIN KAIA 071155Z AUTO 15009KT 10SM CLR 11/08 A3003 3830 86 4200 150/09 RMK AO2 T01060083 $
24044KAIA AIA20160607050011106/07/16 05:00:31  5-MIN KAIA 071200Z AUTO 16010KT 10SM CLR 11/08 A3003 3840 86 4200 150/10 RMK AO2 T01060083 $
24044KAIA AIA20160607050511106/07/16 05:05:31  5-MIN KAIA 071205Z AUTO 16009KT 10SM CLR 11/08 A3003 3840 83 4300 150/09 RMK AO2 T01110083 $
24044KAIA AIA20160607051011106/07/16 05:10:31  5-MIN KAIA 071210Z AUTO 16009KT 10SM CLR 11/08 A3003 3830 83 4300 150/09 RMK AO2 T01110083 $
24044KAIA AIA20160607051511106/07/16 05:15:31  5-MIN KAIA 071215Z AUTO 16009KT 10SM CLR 11/09 A3003 3830 86 4300 150/09 RMK AO2 T01110089 $
24044KAIA AIA20160607052011106/07/16 05:20:31  5-MIN KAIA 071220Z AUTO 16009KT 10SM CLR 12/09 A3003 3830 83 4400 150/09 RMK AO2 T01170089 $
24044KAIA AIA20160607052511106/07/16 05:25:31  5-MIN KAIA 071225Z AUTO 16010KT 10SM CLR 12/09 A3003 3830 83 4400 150/10 RMK AO2 T01170089 $
24044KAIA AIA20160607053011106/07/16 05:30:31  5-MIN KAIA 071230Z AUTO 16010KT 10SM CLR 12/09 A3003 3830 83 4400 150/10 RMK AO2 T01220094 $
24044KAIA AIA20160607053511106/07/16 05:35:31  5-MIN KAIA 071235Z AUTO 16010KT 10SM CLR 12/09 A3003 3830 83 4400 150/10 RMK AO2 T01220094 $
24044KAIA AIA20160607054011106/07/16 05:40:31  5-MIN KAIA 071240Z AUTO 16010KT 10SM CLR 13/09 A3003 3830 80 4500 150/10 RMK AO2 T01280094 $
24044KAIA AIA20160607054511106/07/16 05:45:31  5-MIN KAIA 071245Z AUTO 16011KT 10SM CLR 13/09 A3003 3830 77 4600 150/11 RMK AO2 T01330094 $
24044KAIA AIA20160607055011806/07/16 05:50:31  5-MIN KAIA 071250Z AUTO 16011KT 10SM CLR 14/10 A3003 3830 77 4600 160/11 RMK AO2 SLP134 T01390100 $
24044KAIA AIA20160607055511106/07/16 05:55:31  5-MIN KAIA 071255Z AUTO 16013KT 10SM CLR 14/09 A3003 3830 72 4700 160/13 RMK AO2 T01440094 $
24044KAIA AIA20160607060011106/07/16 06:00:31  5-MIN KAIA 071300Z AUTO 16014KT 10SM CLR 14/09 A3003 3830 72 4700 160/14 RMK AO2 T01440094 $
24044KAIA AIA20160607060511106/07/16 06:05:31  5-MIN KAIA 071305Z AUTO 16014KT 10SM CLR 15/09 A3002 3840 69 4800 160/14 RMK AO2 T01500094 $
24044KAIA AIA20160607061011106/07/16 06:10:31  5-MIN KAIA 071310Z AUTO 16015KT 10SM CLR 16/10 A3002 3840 69 4800 160/15 RMK AO2 T01560100 $
24044KAIA AIA20160607061511106/07/16 06:15:31  5-MIN KAIA 071315Z AUTO 17017KT 10SM CLR 16/10 A3002 3840 69 4800 160/17 RMK AO2 T01560100 $
24044KAIA AIA20160607062011706/07/16 06:20:31  5-MIN KAIA 071320Z AUTO 16013G21KT 10SM CLR 16/10 A3002 3840 67 4900 160/13G21 RMK AO2 T01610100 $
24044KAIA AIA20160607062511106/07/16 06:25:31  5-MIN KAIA 071325Z AUTO 17015KT 10SM CLR 16/10 A3002 3840 67 4900 160/15 RMK AO2 T01610100 $
24044KAIA AIA20160607063011106/07/16 06:30:31  5-MIN KAIA 071330Z AUTO 16014KT 10SM CLR 17/10 A3002 3840 64 5000 150/14 RMK AO2 T01670100 $
24044KAIA AIA20160607063511106/07/16 06:35:31  5-MIN KAIA 071335Z AUTO 16015KT 10SM CLR 17/10 A3002 3840 62 5000 160/15 RMK AO2 T01720100 $
24044KAIA AIA20160607064011106/07/16 06:40:31  5-MIN KAIA 071340Z AUTO 17017KT 10SM CLR 17/10 A3002 3840 62 5000 170/17 RMK AO2 T01720100 $
24044KAIA AIA20160607064511106/07/16 06:45:31  5-MIN KAIA 071345Z AUTO 17016KT 10SM CLR 18/10 A3002 3840 60 5100 160/16 RMK AO2 T01780100 $
24044KAIA AIA20160607065011806/07/16 06:50:31  5-MIN KAIA 071350Z AUTO 17018KT 10SM CLR 18/09 A3002 3840 58 5100 160/18 RMK AO2 SLP129 T01780094 $
24044KAIA AIA20160607065510906/07/16 06:55:31  5-MIN KAIA 071355Z AUTO 18019KT 10SM CLR 18/09 A3002 3840 56 5100 170/19 RMK AO2 T01830094
24044KAIA AIA20160607070013306/07/16 07:00:31  5-MIN KAIA 071400Z AUTO 18019G26KT 10SM CLR 18/09 A3003 3840 56 5100 170/19G26 RMK AO2 PK WND 18026/1359 T01830094
24044KAIA AIA20160607070513306/07/16 07:05:31  5-MIN KAIA 071405Z AUTO 17018G26KT 10SM CLR 18/09 A3003 3830 56 5100 160/18G26 RMK AO2 PK WND 18026/1359 T01830094
24044KAIA AIA20160607071013306/07/16 07:10:31  5-MIN KAIA 071410Z AUTO 17020G26KT 10SM CLR 18/09 A3003 3830 56 5100 170/20G26 RMK AO2 PK WND 17026/1410 T01830094
24044KAIA AIA20160607071513306/07/16 07:15:31  5-MIN KAIA 071415Z AUTO 17018G26KT 10SM CLR 18/09 A3003 3830 56 5100 170/18G26 RMK AO2 PK WND 17026/1410 T01830094
24044KAIA AIA20160607072013306/07/16 07:20:31  5-MIN KAIA 071420Z AUTO 18018G24KT 10SM CLR 19/09 A3003 3830 54 5200 170/18G24 RMK AO2 PK WND 17026/1410 T01890094
24044KAIA AIA20160607072513306/07/16 07:25:31  5-MIN KAIA 071425Z AUTO 18017G24KT 10SM CLR 19/09 A3003 3830 54 5200 170/17G24 RMK AO2 PK WND 17026/1410 T01890094
24044KAIA AIA20160607073013306/07/16 07:30:31  5-MIN KAIA 071430Z AUTO 16015G23KT 10SM CLR 19/09 A3003 3830 54 5200 160/15G23 RMK AO2 PK WND 17026/1410 T01890094
24044KAIA AIA20160607073512706/07/16 07:35:31  5-MIN KAIA 071435Z AUTO 17017KT 10SM CLR 19/09 A3003 3830 54 5200 160/17 RMK AO2 PK WND 17026/1410 T01890094
24044KAIA AIA20160607074013306/07/16 07:40:31  5-MIN KAIA 071440Z AUTO 17016G22KT 10SM CLR 19/10 A3003 3830 54 5300 160/16G22 RMK AO2 PK WND 17026/1410 T01940100
24044KAIA AIA20160607074513306/07/16 07:45:31  5-MIN KAIA 071445Z AUTO 18015G22KT 10SM CLR 19/09 A3003 3830 52 5300 170/15G22 RMK AO2 PK WND 17026/1410 T01940094
24044KAIA AIA20160607075014006/07/16 07:50:31  5-MIN KAIA 071450Z AUTO 17016KT 10SM CLR 19/09 A3003 3830 52 5300 160/16 RMK AO2 PK WND 17026/1410 SLP137 T01940094 56004
24044KAIA AIA20160607075510906/07/16 07:55:31  5-MIN KAIA 071455Z AUTO 18017KT 10SM CLR 20/10 A3003 3830 52 5300 170/17 RMK AO2 T02000100
24044KAIA AIA20160607080010906/07/16 08:00:31  5-MIN KAIA 071500Z AUTO 17016KT 10SM CLR 20/10 A3003 3830 52 5300 170/16 RMK AO2 T02000100
24044KAIA AIA20160607080511506/07/16 08:05:31  5-MIN KAIA 071505Z AUTO 17019G24KT 10SM CLR 21/10 A3003 3830 50 5400 160/19G24 RMK AO2 T02060100
24044KAIA AIA20160607081011506/07/16 08:10:31  5-MIN KAIA 071510Z AUTO 18019G24KT 10SM CLR 20/10 A3003 3830 52 5300 170/19G24 RMK AO2 T02000100
24044KAIA AIA20160607081511506/07/16 08:15:31  5-MIN KAIA 071515Z AUTO 17020G25KT 10SM CLR 21/10 A3003 3830 50 5400 160/20G25 RMK AO2 T02060100
24044KAIA AIA20160607082011506/07/16 08:20:31  5-MIN KAIA 071520Z AUTO 17018G25KT 10SM CLR 20/10 A3003 3830 52 5300 160/18G25 RMK AO2 T02000100
24044KAIA AIA20160607082511506/07/16 08:25:31  5-MIN KAIA 071525Z AUTO 18017G25KT 10SM CLR 21/10 A3003 3830 50 5400 170/17G25 RMK AO2 T02060100
24044KAIA AIA20160607083010906/07/16 08:30:31  5-MIN KAIA 071530Z AUTO 19018KT 10SM CLR 21/10 A3003 3840 48 5400 190/18 RMK AO2 T02110100
24044KAIA AIA20160607083511506/07/16 08:35:31  5-MIN KAIA 071535Z AUTO 19018G23KT 10SM CLR 21/10 A3003 3840 50 5400 180/18G23 RMK AO2 T02060100
24044KAIA AIA20160607084011506/07/16 08:40:31  5-MIN KAIA 071540Z AUTO 19017G24KT 10SM CLR 21/11 A3003 3840 50 5500 180/17G24 RMK AO2 T02110106
24044KAIA AIA20160607084511506/07/16 08:45:31  5-MIN KAIA 071545Z AUTO 19018G24KT 10SM CLR 21/10 A3002 3840 48 5500 180/18G24 RMK AO2 T02110100
24044KAIA AIA20160607085012206/07/16 08:50:31  5-MIN KAIA 071550Z AUTO 19017G24KT 10SM CLR 21/10 A3002 3840 48 5500 180/17G24 RMK AO2 SLP136 T02110100
24044KAIA AIA20160607085511506/07/16 08:55:31  5-MIN KAIA 071555Z AUTO 19017G25KT 10SM CLR 22/10 A3002 3840 47 5500 180/17G25 RMK AO2 T02170100
24044KAIA AIA20160607090011506/07/16 09:00:31  5-MIN KAIA 071600Z AUTO 18018G25KT 10SM CLR 22/10 A3001 3850 47 5500 170/18G25 RMK AO2 T02170100
24044KAIA AIA20160607090511506/07/16 09:05:31  5-MIN KAIA 071605Z AUTO 18017G23KT 10SM CLR 22/11 A3001 3860 47 5600 180/17G23 RMK AO2 T02220106
24044KAIA AIA20160607091011506/07/16 09:10:31  5-MIN KAIA 071610Z AUTO 18018G24KT 10SM CLR 22/10 A3001 3850 45 5600 170/18G24 RMK AO2 T02220100
24044KAIA AIA20160607091511506/07/16 09:15:31  5-MIN KAIA 071615Z AUTO 19020G24KT 10SM CLR 22/10 A3001 3850 45 5600 180/20G24 RMK AO2 T02220100
24044KAIA AIA20160607092011506/07/16 09:20:31  5-MIN KAIA 071620Z AUTO 18017G24KT 10SM CLR 22/10 A3001 3860 45 5600 170/17G24 RMK AO2 T02220100
24044KAIA AIA20160607092511506/07/16 09:25:31  5-MIN KAIA 071625Z AUTO 18017G22KT 10SM CLR 22/10 A3000 3860 45 5600 170/17G22 RMK AO2 T02220100
24044KAIA AIA20160607093011506/07/16 09:30:31  5-MIN KAIA 071630Z AUTO 17016G22KT 10SM CLR 23/11 A3000 3860 45 5700 160/16G22 RMK AO2 T02280106
24044KAIA AIA20160607093511506/07/16 09:35:31  5-MIN KAIA 071635Z AUTO 18019G23KT 10SM CLR 23/11 A3000 3860 44 5700 180/19G23 RMK AO2 T02330106
24044KAIA AIA20160607094011506/07/16 09:40:31  5-MIN KAIA 071640Z AUTO 19016G23KT 10SM CLR 23/10 A3000 3860 44 5700 180/16G23 RMK AO2 T02280100
24044KAIA AIA20160607094510906/07/16 09:45:31  5-MIN KAIA 071645Z AUTO 18015KT 10SM CLR 23/11 A3000 3860 44 5700 170/15 RMK AO2 T02330106
24044KAIA AIA20160607095011606/07/16 09:50:31  5-MIN KAIA 071650Z AUTO 18017KT 10SM CLR 23/11 A3000 3860 44 5700 180/17 RMK AO2 SLP125 T02330106
24044KAIA AIA20160607095511506/07/16 09:55:31  5-MIN KAIA 071655Z AUTO 19014G22KT 10SM CLR 23/11 A2999 3870 44 5700 180/14G22 RMK AO2 T02330106
24044KAIA AIA20160607100011506/07/16 10:00:31  5-MIN KAIA 071700Z AUTO 17014G20KT 10SM CLR 24/11 A3000 3860 44 5800 160/14G20 RMK AO2 T02390111
24044KAIA AIA20160607100511506/07/16 10:05:31  5-MIN KAIA 071705Z AUTO 17016G23KT 10SM CLR 24/11 A2999 3870 44 5800 160/16G23 RMK AO2 T02390111
24044KAIA AIA20160607101011506/07/16 10:10:31  5-MIN KAIA 071710Z AUTO 18016G24KT 10SM CLR 24/11 A2999 3870 44 5800 170/16G24 RMK AO2 T02390111
24044KAIA AIA20160607101511506/07/16 10:15:31  5-MIN KAIA 071715Z AUTO 17014G24KT 10SM CLR 24/11 A2999 3870 44 5800 160/14G24 RMK AO2 T02390111
24044KAIA AIA20160607102011506/07/16 10:20:31  5-MIN KAIA 071720Z AUTO 18017G22KT 10SM CLR 24/11 A2999 3870 44 5800 170/17G22 RMK AO2 T02390111
24044KAIA AIA20160607102511506/07/16 10:25:31  5-MIN KAIA 071725Z AUTO 19017G22KT 10SM CLR 24/11 A2999 3870 42 5900 180/17G22 RMK AO2 T02440111
24044KAIA AIA20160607103011506/07/16 10:30:31  5-MIN KAIA 071730Z AUTO 18013G20KT 10SM CLR 24/11 A2998 3880 42 5900 170/13G20 RMK AO2 T02440111
24044KAIA AIA20160607103511506/07/16 10:35:31  5-MIN KAIA 071735Z AUTO 19017G23KT 10SM CLR 24/11 A2998 3880 44 5800 180/17G23 RMK AO2 T02390111
24044KAIA AIA20160607104011506/07/16 10:40:31  5-MIN KAIA 071740Z AUTO 19015G23KT 10SM CLR 24/11 A2998 3880 42 5900 180/15G23 RMK AO2 T02440111
24044KAIA AIA20160607104511506/07/16 10:45:31  5-MIN KAIA 071745Z AUTO 18015G23KT 10SM CLR 25/11 A2998 3880 41 5900 170/15G23 RMK AO2 T02500111
24044KAIA AIA20160607105014006/07/16 10:50:31  5-MIN KAIA 071750Z AUTO 18017G21KT 10SM CLR 25/12 A2998 3880 43 5900 170/17G21 RMK AO2 SLP118 T02500117 10250 20106 55000
24044KAIA AIA20160607105511506/07/16 10:55:31  5-MIN KAIA 071755Z AUTO 19012G21KT 10SM CLR 25/12 A2998 3880 43 5900 180/12G21 RMK AO2 T02500117
24044KAIA AIA20160607110011506/07/16 11:00:31  5-MIN KAIA 071800Z AUTO 18016G24KT 10SM CLR 26/12 A2997 3880 41 6000 170/16G24 RMK AO2 T02560117
24044KAIA AIA20160607110511506/07/16 11:05:31  5-MIN KAIA 071805Z AUTO 17018G24KT 10SM CLR 26/12 A2997 3890 41 6000 170/18G24 RMK AO2 T02560117
24044KAIA AIA20160607111011506/07/16 11:10:31  5-MIN KAIA 071810Z AUTO 19015G22KT 10SM CLR 26/11 A2997 3880 40 6000 180/15G22 RMK AO2 T02560111
24044KAIA AIA20160607111510906/07/16 11:15:31  5-MIN KAIA 071815Z AUTO 18017KT 10SM CLR 26/11 A2997 3890 40 6000 170/17 RMK AO2 T02560111
24044KAIA AIA20160607112011506/07/16 11:20:31  5-MIN KAIA 071820Z AUTO 16016G22KT 10SM CLR 26/11 A2997 3890 40 6000 150/16G22 RMK AO2 T02560111
24044KAIA AIA20160607112511506/07/16 11:25:31  5-MIN KAIA 071825Z AUTO 18012G25KT 10SM CLR 26/11 A2997 3890 40 6000 170/12G25 RMK AO2 T02560111
24044KAIA AIA20160607113011506/07/16 11:30:31  5-MIN KAIA 071830Z AUTO 18016G25KT 10SM CLR 26/11 A2997 3890 38 6100 170/16G25 RMK AO2 T02610111
24044KAIA AIA20160607113511506/07/16 11:35:31  5-MIN KAIA 071835Z AUTO 18016G23KT 10SM CLR 26/11 A2996 3900 38 6100 170/16G23 RMK AO2 T02610111
24044KAIA AIA20160607114011506/07/16 11:40:31  5-MIN KAIA 071840Z AUTO 18017G24KT 10SM CLR 26/11 A2997 3890 38 6100 170/17G24 RMK AO2 T02610111
24044KAIA AIA20160607114511506/07/16 11:45:31  5-MIN KAIA 071845Z AUTO 18015G24KT 10SM CLR 26/11 A2996 3900 38 6100 170/15G24 RMK AO2 T02610111
24044KAIA AIA20160607115012206/07/16 11:50:31  5-MIN KAIA 071850Z AUTO 19017G24KT 10SM CLR 27/11 A2996 3900 37 6100 180/17G24 RMK AO2 SLP111 T02670111
24044KAIA AIA20160607115511506/07/16 11:55:31  5-MIN KAIA 071855Z AUTO 19014G24KT 10SM CLR 27/11 A2996 3900 37 6100 180/14G24 RMK AO2 T02670111
24044KAIA AIA20160607120011506/07/16 12:00:31  5-MIN KAIA 071900Z AUTO 16016G25KT 10SM CLR 27/12 A2996 3900 38 6100 150/16G25 RMK AO2 T02670117
24044KAIA AIA20160607120511506/07/16 12:05:31  5-MIN KAIA 071905Z AUTO 17014G25KT 10SM CLR 27/11 A2995 3900 37 6100 170/14G25 RMK AO2 T02670111
24044KAIA AIA20160607121011506/07/16 12:10:31  5-MIN KAIA 071910Z AUTO 18015G23KT 10SM CLR 27/12 A2995 3910 37 6200 180/15G23 RMK AO2 T02720117
24044KAIA AIA20160607121511506/07/16 12:15:31  5-MIN KAIA 071915Z AUTO 18017G23KT 10SM CLR 27/11 A2995 3910 36 6200 170/17G23 RMK AO2 T02720111
24044KAIA AIA20160607122011506/07/16 12:20:31  5-MIN KAIA 071920Z AUTO 18016G23KT 10SM CLR 27/11 A2995 3910 36 6200 170/16G23 RMK AO2 T02720111
24044KAIA AIA20160607122511506/07/16 12:25:31  5-MIN KAIA 071925Z AUTO 17019G22KT 10SM CLR 27/12 A2994 3910 37 6200 160/19G22 RMK AO2 T02720117
24044KAIA AIA20160607123011506/07/16 12:30:31  5-MIN KAIA 071930Z AUTO 18016G25KT 10SM CLR 27/11 A2994 3910 36 6200 170/16G25 RMK AO2 T02720111
24044KAIA AIA20160607123511506/07/16 12:35:31  5-MIN KAIA 071935Z AUTO 17013G25KT 10SM CLR 28/12 A2994 3910 36 6300 160/13G25 RMK AO2 T02780117
24044KAIA AIA20160607124011506/07/16 12:40:31  5-MIN KAIA 071940Z AUTO 18016G25KT 10SM CLR 28/12 A2994 3910 36 6300 170/16G25 RMK AO2 T02780117
24044KAIA AIA20160607124511506/07/16 12:45:31  5-MIN KAIA 071945Z AUTO 18017G21KT 10SM CLR 28/12 A2994 3920 36 6300 180/17G21 RMK AO2 T02780117
24044KAIA AIA20160607125012206/07/16 12:50:31  5-MIN KAIA 071950Z AUTO 19014G19KT 10SM CLR 28/11 A2994 3920 35 6300 180/14G19 RMK AO2 SLP104 T02780111
24044KAIA AIA20160607125511506/07/16 12:55:31  5-MIN KAIA 071955Z AUTO 18013G20KT 10SM CLR 28/12 A2994 3920 35 6300 170/13G20 RMK AO2 T02830117
24044KAIA AIA20160607130011506/07/16 13:00:31  5-MIN KAIA 072000Z AUTO 19014G23KT 10SM CLR 28/12 A2994 3920 35 6300 180/14G23 RMK AO2 T02830117
24044KAIA AIA20160607130511506/07/16 13:05:31  5-MIN KAIA 072005Z AUTO 16016G23KT 10SM CLR 28/12 A2993 3920 36 6300 150/16G23 RMK AO2 T02780117
24044KAIA AIA20160607131011506/07/16 13:10:31  5-MIN KAIA 072010Z AUTO 18018G21KT 10SM CLR 28/12 A2993 3920 35 6400 170/18G21 RMK AO2 T02830117
24044KAIA AIA20160607131510906/07/16 13:15:31  5-MIN KAIA 072015Z AUTO 18015KT 10SM CLR 28/12 A2993 3920 35 6400 180/15 RMK AO2 T02830117
24044KAIA AIA20160607132011506/07/16 13:20:31  5-MIN KAIA 072020Z AUTO 17014G20KT 10SM CLR 28/12 A2993 3930 35 6400 160/14G20 RMK AO2 T02830117
24044KAIA AIA20160607132511506/07/16 13:25:31  5-MIN KAIA 072025Z AUTO 19016G20KT 10SM CLR 28/12 A2993 3930 35 6400 190/16G20 RMK AO2 T02830117
24044KAIA AIA20160607133011506/07/16 13:30:31  5-MIN KAIA 072030Z AUTO 18015G22KT 10SM CLR 28/11 A2992 3930 33 6400 170/15G22 RMK AO2 T02830111
24044KAIA AIA20160607133511506/07/16 13:35:31  5-MIN KAIA 072035Z AUTO 16010G22KT 10SM CLR 28/12 A2992 3940 35 6400 150/10G22 RMK AO2 T02830117
24044KAIA AIA20160607134011506/07/16 13:40:31  5-MIN KAIA 072040Z AUTO 17014G21KT 10SM CLR 28/12 A2992 3930 35 6400 160/14G21 RMK AO2 T02830117
24044KAIA AIA20160607134511506/07/16 13:45:31  5-MIN KAIA 072045Z AUTO 17011G22KT 10SM CLR 28/12 A2992 3940 35 6400 170/11G22 RMK AO2 T02830117
24044KAIA AIA20160607135012806/07/16 13:50:31  5-MIN KAIA 072050Z AUTO 18015G22KT 10SM CLR 29/12 A2992 3940 35 6400 170/15G22 RMK AO2 SLP093 T02890122 58015
24044KAIA AIA20160607135511506/07/16 13:55:31  5-MIN KAIA 072055Z AUTO 18010G20KT 10SM CLR 28/11 A2991 3940 33 6400 170/10G20 RMK AO2 T02830111
24044KAIA AIA20160607140011506/07/16 14:00:31  5-MIN KAIA 072100Z AUTO 19012G19KT 10SM CLR 29/12 A2991 3940 34 6400 180/12G19 RMK AO2 T02890117
24044KAIA AIA20160607140511506/07/16 14:05:31  5-MIN KAIA 072105Z AUTO 17014G21KT 10SM CLR 29/12 A2991 3940 34 6400 160/14G21 RMK AO2 T02890117
24044KAIA AIA20160607141011506/07/16 14:10:31  5-MIN KAIA 072110Z AUTO 18013G21KT 10SM CLR 28/12 A2991 3940 35 6400 170/13G21 RMK AO2 T02830117
24044KAIA AIA20160607141511506/07/16 14:15:31  5-MIN KAIA 072115Z AUTO 17014G23KT 10SM CLR 29/12 A2991 3940 34 6400 160/14G23 RMK AO2 T02890117
24044KAIA AIA20160607142011506/07/16 14:20:31  5-MIN KAIA 072120Z AUTO 18015G24KT 10SM CLR 29/11 A2991 3950 32 6400 170/15G24 RMK AO2 T02890111
24044KAIA AIA20160607142511506/07/16 14:25:31  5-MIN KAIA 072125Z AUTO 17012G24KT 10SM CLR 28/11 A2991 3950 33 6400 170/12G24 RMK AO2 T02830111
24044KAIA AIA20160607143011506/07/16 14:30:31  5-MIN KAIA 072130Z AUTO 19015G22KT 10SM CLR 29/12 A2991 3940 34 6400 190/15G22 RMK AO2 T02890117
24044KAIA AIA20160607143511506/07/16 14:35:31  5-MIN KAIA 072135Z AUTO 17015G22KT 10SM CLR 29/11 A2991 3950 32 6400 160/15G22 RMK AO2 T02890111
24044KAIA AIA20160607144011506/07/16 14:40:31  5-MIN KAIA 072140Z AUTO 17013G24KT 10SM CLR 29/11 A2990 3950 32 6400 160/13G24 RMK AO2 T02890111
24044KAIA AIA20160607144511506/07/16 14:45:31  5-MIN KAIA 072145Z AUTO 17012G24KT 10SM CLR 29/12 A2990 3950 34 6400 160/12G24 RMK AO2 T02890117
24044KAIA AIA20160607145011606/07/16 14:50:31  5-MIN KAIA 072150Z AUTO 19014KT 10SM CLR 29/12 A2990 3950 34 6400 180/14 RMK AO2 SLP088 T02890117
24044KAIA AIA20160607145511506/07/16 14:55:31  5-MIN KAIA 072155Z AUTO 19012G20KT 10SM CLR 29/11 A2990 3960 32 6500 180/12G20 RMK AO2 T02890111
24044KAIA AIA20160607150011506/07/16 15:00:31  5-MIN KAIA 072200Z AUTO 16012G20KT 10SM CLR 28/11 A2990 3960 33 6400 150/12G20 RMK AO2 T02830111
24044KAIA AIA20160607150511506/07/16 15:05:31  5-MIN KAIA 072205Z AUTO 17014G21KT 10SM CLR 29/12 A2989 3960 34 6500 160/14G21 RMK AO2 T02890117
24044KAIA AIA20160607151011506/07/16 15:10:31  5-MIN KAIA 072210Z AUTO 16015G21KT 10SM CLR 29/12 A2989 3960 34 6500 150/15G21 RMK AO2 T02890117
24044KAIA AIA20160607151511506/07/16 15:15:31  5-MIN KAIA 072215Z AUTO 19015G22KT 10SM CLR 29/12 A2990 3960 34 6500 190/15G22 RMK AO2 T02890117
24044KAIA AIA20160607152011506/07/16 15:20:31  5-MIN KAIA 072220Z AUTO 17011G22KT 10SM CLR 29/11 A2989 3960 32 6500 160/11G22 RMK AO2 T02890111
24044KAIA AIA20160607152511506/07/16 15:25:31  5-MIN KAIA 072225Z AUTO 18016G21KT 10SM CLR 29/12 A2989 3960 34 6500 170/16G21 RMK AO2 T02890117
24044KAIA AIA20160607153011506/07/16 15:30:31  5-MIN KAIA 072230Z AUTO 17013G21KT 10SM CLR 29/12 A2989 3960 34 6500 160/13G21 RMK AO2 T02890117
24044KAIA AIA20160607153511506/07/16 15:35:31  5-MIN KAIA 072235Z AUTO 17013G19KT 10SM CLR 29/12 A2990 3960 34 6500 170/13G19 RMK AO2 T02890117
24044KAIA AIA20160607154011506/07/16 15:40:31  5-MIN KAIA 072240Z AUTO 18013G20KT 10SM CLR 29/12 A2990 3960 34 6500 180/13G20 RMK AO2 T02940122
24044KAIA AIA20160607154511506/07/16 15:45:31  5-MIN KAIA 072245Z AUTO 17017G21KT 10SM CLR 28/12 A2990 3960 35 6400 160/17G21 RMK AO2 T02830117
24044KAIA AIA20160607155011606/07/16 15:50:31  5-MIN KAIA 072250Z AUTO 18015KT 10SM CLR 28/12 A2989 3960 35 6400 170/15 RMK AO2 SLP089 T02830117
24044KAIA AIA20160607155510906/07/16 15:55:31  5-MIN KAIA 072255Z AUTO 16017KT 10SM CLR 28/12 A2989 3960 35 6400 150/17 RMK AO2 T02830117
24044KAIA AIA20160607160011506/07/16 16:00:31  5-MIN KAIA 072300Z AUTO 18014G21KT 10SM CLR 28/12 A2989 3960 35 6400 170/14G21 RMK AO2 T02830117
24044KAIA AIA20160607160511506/07/16 16:05:31  5-MIN KAIA 072305Z AUTO 16017G21KT 10SM CLR 28/12 A2990 3960 35 6400 160/17G21 RMK AO2 T02830117
24044KAIA AIA20160607161011506/07/16 16:10:31  5-MIN KAIA 072310Z AUTO 16012G22KT 10SM CLR 28/12 A2989 3960 35 6400 160/12G22 RMK AO2 T02830117
24044KAIA AIA20160607161511506/07/16 16:15:31  5-MIN KAIA 072315Z AUTO 19013G22KT 10SM CLR 28/12 A2989 3960 35 6400 190/13G22 RMK AO2 T02830117
24044KAIA AIA20160607162010906/07/16 16:20:31  5-MIN KAIA 072320Z AUTO 17016KT 10SM CLR 28/11 A2989 3960 33 6400 160/16 RMK AO2 T02830111
24044KAIA AIA20160607162511506/07/16 16:25:31  5-MIN KAIA 072325Z AUTO 16017G22KT 10SM CLR 28/12 A2989 3960 35 6400 160/17G22 RMK AO2 T02830117
24044KAIA AIA20160607163011506/07/16 16:30:31  5-MIN KAIA 072330Z AUTO 18017G25KT 10SM CLR 28/12 A2989 3960 35 6400 170/17G25 RMK AO2 T02830117
24044KAIA AIA20160607163511506/07/16 16:35:31  5-MIN KAIA 072335Z AUTO 17017G25KT 10SM CLR 28/12 A2989 3970 35 6400 160/17G25 RMK AO2 T02830117
24044KAIA AIA20160607164011506/07/16 16:40:31  5-MIN KAIA 072340Z AUTO 19017G22KT 10SM CLR 28/11 A2989 3960 35 6300 180/17G22 RMK AO2 T02780111
24044KAIA AIA20160607164510906/07/16 16:45:31  5-MIN KAIA 072345Z AUTO 18013KT 10SM CLR 27/12 A2989 3960 37 6300 170/13 RMK AO2 T02720117
24044KAIA AIA20160607165013406/07/16 16:50:31  5-MIN KAIA 072350Z AUTO 17015KT 10SM CLR 27/12 A2988 3970 37 6300 160/15 RMK AO2 SLP081 T02720117 10294 20250 58019
24044KAIA AIA20160607165510906/07/16 16:55:31  5-MIN KAIA 072355Z AUTO 18014KT 10SM CLR 27/12 A2988 3980 38 6200 180/14 RMK AO2 T02670117
24044KAIA AIA20160607170010906/07/16 17:00:31  5-MIN KAIA 080000Z AUTO 18014KT 10SM CLR 27/12 A2988 3970 38 6200 170/14 RMK AO2 T02670117
24044KAIA AIA20160607170510906/07/16 17:05:31  5-MIN KAIA 080005Z AUTO 18016KT 10SM CLR 27/12 A2988 3970 38 6200 170/16 RMK AO2 T02670117
24044KAIA AIA20160607171010906/07/16 17:10:31  5-MIN KAIA 080010Z AUTO 18015KT 10SM CLR 27/12 A2987 3980 37 6300 170/15 RMK AO2 T02720117
24044KAIA AIA20160607171510906/07/16 17:15:31  5-MIN KAIA 080015Z AUTO 17016KT 10SM CLR 27/12 A2987 3980 37 6300 160/16 RMK AO2 T02720117
24044KAIA AIA20160607172011506/07/16 17:20:31  5-MIN KAIA 080020Z AUTO 18013G21KT 10SM CLR 27/12 A2987 3980 38 6200 170/13G21 RMK AO2 T02670117
24044KAIA AIA20160607172511506/07/16 17:25:31  5-MIN KAIA 080025Z AUTO 18017G20KT 10SM CLR 27/12 A2987 3980 37 6300 170/17G20 RMK AO2 T02720117
24044KAIA AIA20160607173010906/07/16 17:30:31  5-MIN KAIA 080030Z AUTO 18015KT 10SM CLR 27/12 A2987 3980 37 6300 170/15 RMK AO2 T02720117
24044KAIA AIA20160607173510906/07/16 17:35:31  5-MIN KAIA 080035Z AUTO 18017KT 10SM CLR 27/12 A2987 3980 38 6200 170/17 RMK AO2 T02670117
24044KAIA AIA20160607174010906/07/16 17:40:31  5-MIN KAIA 080040Z AUTO 18016KT 10SM CLR 27/12 A2988 3980 38 6200 170/16 RMK AO2 T02670117
24044KAIA AIA20160607174510906/07/16 17:45:31  5-MIN KAIA 080045Z AUTO 18017KT 10SM CLR 27/12 A2988 3970 38 6200 170/17 RMK AO2 T02670117
24044KAIA AIA20160607175012206/07/16 17:50:31  5-MIN KAIA 080050Z AUTO 18015G21KT 10SM CLR 27/12 A2988 3970 38 6200 170/15G21 RMK AO2 SLP078 T02670117
24044KAIA AIA20160607175511506/07/16 17:55:31  5-MIN KAIA 080055Z AUTO 18015G21KT 10SM CLR 27/12 A2988 3970 38 6200 170/15G21 RMK AO2 T02670117
24044KAIA AIA20160607180011506/07/16 18:00:31  5-MIN KAIA 080100Z AUTO 18016G21KT 10SM CLR 26/12 A2988 3970 43 6100 170/16G21 RMK AO2 T02560122
24044KAIA AIA20160607180510906/07/16 18:05:31  5-MIN KAIA 080105Z AUTO 17012KT 10SM CLR 25/12 A2989 3970 44 6000 170/12 RMK AO2 T02500122
24044KAIA AIA20160607181010906/07/16 18:10:31  5-MIN KAIA 080110Z AUTO 18011KT 10SM CLR 24/12 A2989 3970 46 6000 170/11 RMK AO2 T02440122
24044KAIA AIA20160607181510906/07/16 18:15:31  5-MIN KAIA 080115Z AUTO 17011KT 10SM CLR 24/12 A2989 3970 46 6000 170/11 RMK AO2 T02440122
24044KAIA AIA20160607182010906/07/16 18:20:31  5-MIN KAIA 080120Z AUTO 18010KT 10SM CLR 24/12 A2989 3970 47 5900 170/10 RMK AO2 T02390122
24044KAIA AIA20160607182510906/07/16 18:25:31  5-MIN KAIA 080125Z AUTO 18011KT 10SM CLR 24/12 A2989 3970 47 5900 170/11 RMK AO2 T02390122
24044KAIA AIA20160607183010906/07/16 18:30:31  5-MIN KAIA 080130Z AUTO 17010KT 10SM CLR 23/12 A2989 3960 49 5900 160/10 RMK AO2 T02330122
24044KAIA AIA20160607183510906/07/16 18:35:31  5-MIN KAIA 080135Z AUTO 17009KT 10SM CLR 23/13 A2989 3960 51 5900 160/09 RMK AO2 T02330128
24044KAIA AIA20160607184010906/07/16 18:40:31  5-MIN KAIA 080140Z AUTO 17009KT 10SM CLR 23/13 A2989 3970 53 5800 160/09 RMK AO2 T02280128
24044KAIA AIA20160607184510906/07/16 18:45:31  5-MIN KAIA 080145Z AUTO 16009KT 10SM CLR 22/13 A2989 3960 54 5700 160/09 RMK AO2 T02220128
24044KAIA AIA20160607185011606/07/16 18:50:31  5-MIN KAIA 080150Z AUTO 17009KT 10SM CLR 22/13 A2989 3960 54 5700 160/09 RMK AO2 SLP082 T02220128
24044KAIA AIA20160607185510906/07/16 18:55:31  5-MIN KAIA 080155Z AUTO 16008KT 10SM CLR 22/13 A2989 3970 58 5700 160/08 RMK AO2 T02170133
24044KAIA AIA20160607190010906/07/16 19:00:31  5-MIN KAIA 080200Z AUTO 16008KT 10SM CLR 21/13 A2988 3970 61 5600 150/08 RMK AO2 T02110133
24044KAIA AIA20160607190510906/07/16 19:05:31  5-MIN KAIA 080205Z AUTO 15008KT 10SM CLR 21/13 A2988 3970 63 5500 150/08 RMK AO2 T02060133
24044KAIA AIA20160607191010906/07/16 19:10:31  5-MIN KAIA 080210Z AUTO 15007KT 10SM CLR 19/13 A2988 3970 67 5400 150/07 RMK AO2 T01940133
24044KAIA AIA20160607191510906/07/16 19:15:31  5-MIN KAIA 080215Z AUTO 16008KT 10SM CLR 19/13 A2989 3970 67 5400 150/08 RMK AO2 T01940133
24044KAIA AIA20160607192010906/07/16 19:20:31  5-MIN KAIA 080220Z AUTO 16008KT 10SM CLR 19/13 A2989 3970 67 5400 150/08 RMK AO2 T01940133
24044KAIA AIA20160607192510906/07/16 19:25:31  5-MIN KAIA 080225Z AUTO 16008KT 10SM CLR 19/13 A2988 3970 67 5400 150/08 RMK AO2 T01940133
24044KAIA AIA20160607193010906/07/16 19:30:31  5-MIN KAIA 080230Z AUTO 16008KT 10SM CLR 19/13 A2988 3970 70 5400 150/08 RMK AO2 T01890133
24044KAIA AIA20160607193510906/07/16 19:35:31  5-MIN KAIA 080235Z AUTO 16008KT 10SM CLR 18/13 A2988 3970 72 5300 150/08 RMK AO2 T01830133
24044KAIA AIA20160607194010906/07/16 19:40:31  5-MIN KAIA 080240Z AUTO 16008KT 10SM CLR 18/13 A2988 3970 75 5200 150/08 RMK AO2 T01780133
24044KAIA AIA20160607194510906/07/16 19:45:31  5-MIN KAIA 080245Z AUTO 16008KT 10SM CLR 18/13 A2988 3970 72 5200 150/08 RMK AO2 T01780128
24044KAIA AIA20160607195012206/07/16 19:50:31  5-MIN KAIA 080250Z AUTO 16008KT 10SM CLR 17/13 A2988 3970 78 5200 150/08 RMK AO2 SLP085 T01720133 56012
24044KAIA AIA20160607195510906/07/16 19:55:31  5-MIN KAIA 080255Z AUTO 16008KT 10SM CLR 18/13 A2988 3970 75 5200 150/08 RMK AO2 T01780133
24044KAIA AIA20160607200010906/07/16 20:00:31  5-MIN KAIA 080300Z AUTO 16008KT 10SM CLR 18/13 A2989 3970 75 5200 150/08 RMK AO2 T01780133
24044KAIA AIA20160607200510906/07/16 20:05:31  5-MIN KAIA 080305Z AUTO 16008KT 10SM CLR 18/13 A2989 3970 75 5200 150/08 RMK AO2 T01780133
24044KAIA AIA20160607201010906/07/16 20:10:31  5-MIN KAIA 080310Z AUTO 15008KT 10SM CLR 18/13 A2989 3960 75 5200 150/08 RMK AO2 T01780133
24044KAIA AIA20160607201510906/07/16 20:15:31  5-MIN KAIA 080315Z AUTO 15008KT 10SM CLR 17/13 A2989 3960 78 5200 150/08 RMK AO2 T01720133
24044KAIA AIA20160607202010906/07/16 20:20:31  5-MIN KAIA 080320Z AUTO 15008KT 10SM CLR 17/13 A2989 3960 78 5200 150/08 RMK AO2 T01720133
24044KAIA AIA20160608173511206/08/16 17:35:31  5-MIN KAIA 090035Z AUTO 25004KT 10SM FEW100 26/12 A2982 4030 41 6200 240/04 RMK AO2 T02560117
24044KAIA AIA20160608174011206/08/16 17:40:31  5-MIN KAIA 090040Z AUTO 26004KT 10SM FEW100 26/13 A2982 4030 44 6200 260/04 RMK AO2 T02560128
24044KAIA AIA20160608174511206/08/16 17:45:31  5-MIN KAIA 090045Z AUTO 27003KT 10SM FEW100 26/13 A2982 4030 44 6200 260/03 RMK AO2 T02560128
24044KAIA AIA20160608175011906/08/16 17:50:31  5-MIN KAIA 090050Z AUTO 00000KT 10SM FEW100 27/12 A2981 4030 40 6300 000/00 RMK AO2 SLP053 T02670122
24044KAIA AIA20160608175511206/08/16 17:55:31  5-MIN KAIA 090055Z AUTO 00000KT 10SM FEW100 27/12 A2981 4030 40 6300 000/00 RMK AO2 T02670122
24044KAIA AIA20160608180010906/08/16 18:00:31  5-MIN KAIA 090100Z AUTO 34004KT 10SM CLR 26/13 A2982 4030 43 6200 330/04 RMK AO2 T02610128
24044KAIA AIA20160608180510906/08/16 18:05:31  5-MIN KAIA 090105Z AUTO 04005KT 10SM CLR 25/13 A2982 4030 48 6100 030/05 RMK AO2 T02500133
24044KAIA AIA20160608181008506/08/16 18:10:31  5-MIN KAIA 090110Z AUTO 03005KT CLR M M M M /M RMK AO2 T02440133 $
24044KAIA AIA20160608181510206/08/16 18:15:31  5-MIN KAIA 090115Z AUTO 35004KT 26/12 A2982 4020 41 6200 340/04 RMK AO2 T02560117 $
24044KAIA AIA20160608182010706/08/16 18:20:31  5-MIN KAIA 090120Z AUTO 36003KT 10SM 26/11 A2983 4020 38 6200 350/03 RMK AO2 T02610111 $
24044KAIA AIA20160608182510706/08/16 18:25:31  5-MIN KAIA 090125Z AUTO 00000KT 10SM 26/11 A2983 4020 40 6200 000/00 RMK AO2 T02560111 $
24044KAIA AIA20160608183010706/08/16 18:30:31  5-MIN KAIA 090130Z AUTO 00000KT 10SM 26/11 A2983 4020 40 6200 000/00 RMK AO2 T02560111 $
24044KAIA AIA20160608183510706/08/16 18:35:31  5-MIN KAIA 090135Z AUTO 07004KT 10SM 25/12 A2983 4020 43 6100 060/04 RMK AO2 T02500117 $
24044KAIA AIA20160608184010706/08/16 18:40:31  5-MIN KAIA 090140Z AUTO 07005KT 10SM 24/12 A2984 4010 44 6000 060/05 RMK AO2 T02440117 $
24044KAIA AIA20160608184511106/08/16 18:45:31  5-MIN KAIA 090145Z AUTO 08005KT 10SM CLR 24/12 A2984 4010 44 6000 070/05 RMK AO2 T02440117 $
24044KAIA AIA20160608185011806/08/16 18:50:31  5-MIN KAIA 090150Z AUTO 09004KT 10SM CLR 23/12 A2984 4010 51 5800 090/04 RMK AO2 SLP060 T02280122 $
24044KAIA AIA20160608185511406/08/16 18:55:31  5-MIN KAIA 090155Z AUTO 05003KT 10SM SCT120 23/12 A2984 4010 51 5800 040/03 RMK AO2 T02280122 $
24044KAIA AIA20160608190011406/08/16 19:00:31  5-MIN KAIA 090200Z AUTO 04003KT 10SM SCT120 23/12 A2984 4010 47 5900 030/03 RMK AO2 T02330117 $
24044KAIA AIA20160608190511406/08/16 19:05:31  5-MIN KAIA 090205Z AUTO 04003KT 10SM FEW120 23/12 A2984 4010 47 5900 030/03 RMK AO2 T02330117 $
24044KAIA AIA20160608191011406/08/16 19:10:31  5-MIN KAIA 090210Z AUTO 04003KT 10SM FEW120 23/12 A2984 4010 49 5800 030/03 RMK AO2 T02280117 $
24044KAIA AIA20160608191511406/08/16 19:15:31  5-MIN KAIA 090215Z AUTO 00000KT 10SM FEW120 23/12 A2984 4010 49 5800 000/00 RMK AO2 T02280117 $
24044KAIA AIA20160608192011406/08/16 19:20:31  5-MIN KAIA 090220Z AUTO 00000KT 10SM FEW120 22/12 A2984 4010 54 5700 000/00 RMK AO2 T02170122 $
24044KAIA AIA20160608192511106/08/16 19:25:31  5-MIN KAIA 090225Z AUTO 00000KT 10SM CLR 22/13 A2984 4010 56 5700 000/00 RMK AO2 T02170128 $
24044KAIA AIA20160608193011106/08/16 19:30:31  5-MIN KAIA 090230Z AUTO 00000KT 10SM CLR 22/12 A2984 4010 52 5800 000/00 RMK AO2 T02220122 $
24044KAIA AIA20160608193511106/08/16 19:35:31  5-MIN KAIA 090235Z AUTO 00000KT 10SM CLR 21/13 A2984 4010 58 5700 000/00 RMK AO2 T02110128 $
24044KAIA AIA20160608194011106/08/16 19:40:31  5-MIN KAIA 090240Z AUTO 00000KT 10SM CLR 20/13 A2984 4010 65 5500 000/00 RMK AO2 T02000133 $
24044KAIA AIA20160608194511106/08/16 19:45:31  5-MIN KAIA 090245Z AUTO 03003KT 10SM CLR 22/13 A2984 4010 56 5700 020/03 RMK AO2 T02170128 $
24044KAIA AIA20160608195011806/08/16 19:50:31  5-MIN KAIA 090250Z AUTO 01003KT 10SM CLR 22/13 A2984 4010 56 5700 360/03 RMK AO2 SLP056 T02170128 $
24044KAIA AIA20160608195511106/08/16 19:55:31  5-MIN KAIA 090255Z AUTO 00000KT 10SM CLR 21/13 A2984 4010 60 5600 000/00 RMK AO2 T02060128 $
24044KAIA AIA20160608200011106/08/16 20:00:31  5-MIN KAIA 090300Z AUTO 00000KT 10SM CLR 20/12 A2984 4010 60 5500 000/00 RMK AO2 T02000122 $
24044KAIA AIA20160608200511406/08/16 20:05:31  5-MIN KAIA 090305Z AUTO 00000KT 10SM FEW100 21/12 A2984 4010 54 5700 000/00 RMK AO2 T02110117 $
24044KAIA AIA20160608201011406/08/16 20:10:31  5-MIN KAIA 090310Z AUTO 00000KT 10SM SCT100 21/11 A2984 4010 52 5700 000/00 RMK AO2 T02110111 $
24044KAIA AIA20160608201511406/08/16 20:15:31  5-MIN KAIA 090315Z AUTO 00000KT 10SM BKN100 20/12 A2984 4000 58 5500 000/00 RMK AO2 T02000117 $
24044KAIA AIA20160608202011406/08/16 20:20:31  5-MIN KAIA 090320Z AUTO 32011KT 10SM BKN100 18/13 A2985 4000 70 5300 310/11 RMK AO2 T01830128 $
24044KAIA AIA20160608202511406/08/16 20:25:31  5-MIN KAIA 090325Z AUTO 01009KT 10SM SCT100 21/12 A2985 4000 56 5600 360/09 RMK AO2 T02060117 $
24044KAIA AIA20160608203011406/08/16 20:30:31  5-MIN KAIA 090330Z AUTO 36006KT 10SM SCT100 21/12 A2985 4000 56 5600 350/06 RMK AO2 T02060117 $
24044KAIA AIA20160608203511406/08/16 20:35:31  5-MIN KAIA 090335Z AUTO 33006KT 10SM SCT100 20/12 A2985 4000 58 5500 320/06 RMK AO2 T02000117 $
24044KAIA AIA20160608204011406/08/16 20:40:31  5-MIN KAIA 090340Z AUTO 35005KT 10SM FEW100 20/12 A2985 4000 58 5500 340/05 RMK AO2 T02000117 $
24044KAIA AIA20160608204511106/08/16 20:45:31  5-MIN KAIA 090345Z AUTO 01004KT 10SM CLR 20/12 A2985 4000 58 5500 360/04 RMK AO2 T02000117 $
24044KAIA AIA20160608205011806/08/16 20:50:31  5-MIN KAIA 090350Z AUTO 01005KT 10SM CLR 20/12 A2985 4000 58 5500 360/05 RMK AO2 SLP061 T02000117 $
24044KAIA AIA20160608205511106/08/16 20:55:31  5-MIN KAIA 090355Z AUTO 01005KT 10SM CLR 19/12 A2985 4000 60 5500 360/05 RMK AO2 T01940117 $
24044KAIA AIA20160608210011106/08/16 21:00:31  5-MIN KAIA 090400Z AUTO 02007KT 10SM CLR 20/12 A2985 4000 58 5500 020/07 RMK AO2 T02000117 $
24044KAIA AIA20160608210511106/08/16 21:05:31  5-MIN KAIA 090405Z AUTO 03006KT 10SM CLR 19/12 A2985 4000 60 5500 020/06 RMK AO2 T01940117 $
24044KAIA AIA20160608211011106/08/16 21:10:31  5-MIN KAIA 090410Z AUTO 02004KT 10SM CLR 19/12 A2985 4000 62 5400 010/04 RMK AO2 T01890117 $
24044KAIA AIA20160608211511106/08/16 21:15:31  5-MIN KAIA 090415Z AUTO 00000KT 10SM CLR 18/12 A2985 4000 65 5300 000/00 RMK AO2 T01830117 $
24044KAIA AIA20160608212011106/08/16 21:20:31  5-MIN KAIA 090420Z AUTO 00000KT 10SM CLR 17/12 A2985 4000 69 5200 000/00 RMK AO2 T01720117 $
24044KAIA AIA20160608212511106/08/16 21:25:31  5-MIN KAIA 090425Z AUTO 00000KT 10SM CLR 17/12 A2985 4000 72 5100 000/00 RMK AO2 T01670117 $
24044KAIA AIA20160608213011106/08/16 21:30:31  5-MIN KAIA 090430Z AUTO 00000KT 10SM CLR 16/12 A2985 4000 77 5000 000/00 RMK AO2 T01560117 $
24044KAIA AIA20160608213510106/08/16 21:35:31  5-MIN KAIA 090435Z AUTO 10SM CLR 16/12 A2985 4000 77 5000 M /M RMK AO2 T01560117 $
24044KAIA AIA20160608214011106/08/16 21:40:31  5-MIN KAIA 090440Z AUTO 19007KT 10SM CLR 16/12 A2985 4000 77 5100 180/07 RMK AO2 T01610122 $
24044KAIA AIA20160608214511106/08/16 21:45:31  5-MIN KAIA 090445Z AUTO 20006KT 10SM CLR 16/12 A2985 4000 77 5100 190/06 RMK AO2 T01610122 $
24044KAIA AIA20160608215011806/08/16 21:50:31  5-MIN KAIA 090450Z AUTO 20004KT 10SM CLR 17/12 A2985 4000 72 5100 190/04 RMK AO2 SLP062 T01670117 $
24044KAIA AIA20160608215511106/08/16 21:55:31  5-MIN KAIA 090455Z AUTO 24004KT 10SM CLR 16/12 A2985 4000 77 5000 230/04 RMK AO2 T01560117 $
24044KAIA AIA20160608220011106/08/16 22:00:31  5-MIN KAIA 090500Z AUTO 24004KT 10SM CLR 16/12 A2985 4000 80 5000 230/04 RMK AO2 T01560122 $
24044KAIA AIA20160608220511106/08/16 22:05:31  5-MIN KAIA 090505Z AUTO 28004KT 10SM CLR 16/12 A2984 4000 80 5000 270/04 RMK AO2 T01560122 $
24044KAIA AIA20160608221011106/08/16 22:10:31  5-MIN KAIA 090510Z AUTO 27004KT 10SM CLR 16/12 A2984 4010 77 5100 260/04 RMK AO2 T01610122 $
24044KAIA AIA20160608221511106/08/16 22:15:31  5-MIN KAIA 090515Z AUTO 00000KT 10SM CLR 16/12 A2984 4010 75 5100 000/00 RMK AO2 T01610117 $
24044KAIA AIA20160608222011106/08/16 22:20:31  5-MIN KAIA 090520Z AUTO 00000KT 10SM CLR 16/12 A2984 4010 75 5100 000/00 RMK AO2 T01610117 $
24044KAIA AIA20160608222511106/08/16 22:25:31  5-MIN KAIA 090525Z AUTO 21003KT 10SM CLR 16/12 A2984 4010 75 5100 200/03 RMK AO2 T01610117 $
24044KAIA AIA20160608223011106/08/16 22:30:31  5-MIN KAIA 090530Z AUTO 00000KT 10SM CLR 17/12 A2984 4010 72 5200 000/00 RMK AO2 T01670117 $
24044KAIA AIA20160608223511106/08/16 22:35:31  5-MIN KAIA 090535Z AUTO 25003KT 10SM CLR 16/12 A2984 4010 75 5100 240/03 RMK AO2 T01610117 $
24044KAIA AIA20160608224011106/08/16 22:40:31  5-MIN KAIA 090540Z AUTO 24007KT 10SM CLR 15/12 A2984 4010 80 5000 230/07 RMK AO2 T01500117 $
24044KAIA AIA20160608224511106/08/16 22:45:31  5-MIN KAIA 090545Z AUTO 24010KT 10SM CLR 15/12 A2984 4000 80 5000 230/10 RMK AO2 T01500117 $
24044KAIA AIA20160608225013006/08/16 22:50:31  5-MIN KAIA 090550Z AUTO 27006KT 10SM CLR 15/12 A2984 4010 80 5000 260/06 RMK AO2 SLP061 T01500117 10267 20150 $
24044KAIA AIA20160608225511106/08/16 22:55:31  5-MIN KAIA 090555Z AUTO 31007KT 10SM CLR 15/12 A2984 4010 83 5000 300/07 RMK AO2 T01500122 $
24044KAIA AIA20160608230011106/08/16 23:00:31  5-MIN KAIA 090600Z AUTO 29005KT 10SM CLR 16/12 A2984 4010 77 5100 280/05 RMK AO2 T01610122 $
24044KAIA AIA20160608230511106/08/16 23:05:31  5-MIN KAIA 090605Z AUTO 29006KT 10SM CLR 16/12 A2984 4010 80 5000 280/06 RMK AO2 T01560122 $
24044KAIA AIA20160608231011106/08/16 23:10:31  5-MIN KAIA 090610Z AUTO 30007KT 10SM CLR 16/12 A2984 4010 80 5000 290/07 RMK AO2 T01560122 $
24044KAIA AIA20160608231511106/08/16 23:15:31  5-MIN KAIA 090615Z AUTO 30005KT 10SM CLR 16/12 A2984 4010 77 5100 290/05 RMK AO2 T01610122 $
24044KAIA AIA20160608232011106/08/16 23:20:31  5-MIN KAIA 090620Z AUTO 28006KT 10SM CLR 16/12 A2984 4010 80 5000 280/06 RMK AO2 T01560122 $
24044KAIA AIA20160608232511106/08/16 23:25:31  5-MIN KAIA 090625Z AUTO 30006KT 10SM CLR 15/12 A2983 4010 83 5000 290/06 RMK AO2 T01500122 $
24044KAIA AIA20160608233011106/08/16 23:30:31  5-MIN KAIA 090630Z AUTO 31005KT 10SM CLR 16/12 A2983 4020 80 5000 300/05 RMK AO2 T01560122 $
24044KAIA AIA20160608233511106/08/16 23:35:31  5-MIN KAIA 090635Z AUTO 32004KT 10SM CLR 16/12 A2983 4020 80 5000 310/04 RMK AO2 T01560122 $
24044KAIA AIA20160608234011106/08/16 23:40:31  5-MIN KAIA 090640Z AUTO 31005KT 10SM CLR 16/12 A2983 4020 75 5100 300/05 RMK AO2 T01610117 $
24044KAIA AIA20160608234511106/08/16 23:45:31  5-MIN KAIA 090645Z AUTO 30004KT 10SM CLR 16/12 A2983 4020 77 5000 290/04 RMK AO2 T01560117 $
24044KAIA AIA20160608235012806/08/16 23:50:31  5-MIN KAIA 090650Z AUTO 27003KT 10SM CLR 16/12 A2983 4020 77 5000 260/03 RMK AO2 SLP053 T01560117 403330089 $
24044KAIA AIA20160608235511106/08/16 23:55:31  5-MIN KAIA 090655Z AUTO 26005KT 10SM CLR 14/12 A2983 4020 86 4900 250/05 RMK AO2 T01390117 $
24044KAIA AIA20160609000011106/09/16 00:00:31  5-MIN KAIA 090700Z AUTO 27005KT 10SM CLR 13/11 A2983 4020 86 4800 260/05 RMK AO2 T01330111 $
24044KAIA AIA20160609000511106/09/16 00:05:31  5-MIN KAIA 090705Z AUTO 25003KT 10SM CLR 13/11 A2983 4020 89 4700 240/03 RMK AO2 T01280111 $
24044KAIA AIA20160609001011106/09/16 00:10:31  5-MIN KAIA 090710Z AUTO 29005KT 10SM CLR 12/11 A2983 4020 93 4700 280/05 RMK AO2 T01220111 $
24044KAIA AIA20160609001511106/09/16 00:15:31  5-MIN KAIA 090715Z AUTO 00000KT 10SM CLR 13/11 A2983 4020 89 4700 000/00 RMK AO2 T01280111 $
24044KAIA AIA20160609002011106/09/16 00:20:31  5-MIN KAIA 090720Z AUTO 18003KT 10SM CLR 13/11 A2983 4020 89 4700 170/03 RMK AO2 T01280111 $
24044KAIA AIA20160609002511106/09/16 00:25:31  5-MIN KAIA 090725Z AUTO 22003KT 10SM CLR 12/11 A2983 4020 89 4700 220/03 RMK AO2 T01220106 $
24044KAIA AIA20160609003011106/09/16 00:30:31  5-MIN KAIA 090730Z AUTO 27003KT 10SM CLR 13/11 A2983 4020 89 4700 260/03 RMK AO2 T01280111 $
24044KAIA AIA20160609003511106/09/16 00:35:31  5-MIN KAIA 090735Z AUTO 27003KT 10SM CLR 12/11 A2983 4020 93 4700 260/03 RMK AO2 T01220111 $
24044KAIA AIA20160609004011106/09/16 00:40:31  5-MIN KAIA 090740Z AUTO 26004KT 10SM CLR 12/11 A2983 4020 89 4700 250/04 RMK AO2 T01220106 $
24044KAIA AIA20160609004511106/09/16 00:45:31  5-MIN KAIA 090745Z AUTO 25005KT 10SM CLR 12/11 A2983 4020 89 4700 240/05 RMK AO2 T01220106 $
24044KAIA AIA20160609005011806/09/16 00:50:31  5-MIN KAIA 090750Z AUTO 26004KT 10SM CLR 12/11 A2983 4020 89 4700 250/04 RMK AO2 SLP056 T01220106 $
24044KAIA AIA20160609005511106/09/16 00:55:31  5-MIN KAIA 090755Z AUTO 25006KT 10SM CLR 12/11 A2983 4020 89 4700 240/06 RMK AO2 T01220106 $
24044KAIA AIA20160609010011106/09/16 01:00:31  5-MIN KAIA 090800Z AUTO 26007KT 10SM CLR 12/11 A2983 4020 93 4600 260/07 RMK AO2 T01170106 $
24044KAIA AIA20160609010512706/09/16 01:05:31  5-MIN KAIA 090805Z AUTO 20009KT 170V240 10SM CLR 12/11 A2983 4020 89 4700 200/09 160V230 RMK AO2 T01220106 $
24044KAIA AIA20160609011011106/09/16 01:10:31  5-MIN KAIA 090810Z AUTO 23006KT 10SM CLR 13/11 A2983 4020 86 4800 220/06 RMK AO2 T01330111 $
24044KAIA AIA20160609011511106/09/16 01:15:31  5-MIN KAIA 090815Z AUTO 21009KT 10SM CLR 13/11 A2983 4020 86 4800 210/09 RMK AO2 T01330111 $
24044KAIA AIA20160609012011106/09/16 01:20:31  5-MIN KAIA 090820Z AUTO 20005KT 10SM CLR 13/11 A2983 4020 86 4800 190/05 RMK AO2 T01330111 $
24044KAIA AIA20160609012511106/09/16 01:25:31  5-MIN KAIA 090825Z AUTO 21004KT 10SM CLR 14/12 A2983 4020 86 4900 200/04 RMK AO2 T01390117 $
24044KAIA AIA20160609013011106/09/16 01:30:31  5-MIN KAIA 090830Z AUTO 17007KT 10SM CLR 13/11 A2984 4010 89 4700 160/07 RMK AO2 T01280111 $
24044KAIA AIA20160609013511106/09/16 01:35:31  5-MIN KAIA 090835Z AUTO 18005KT 10SM CLR 13/11 A2983 4020 86 4800 170/05 RMK AO2 T01330111 $
24044KAIA AIA20160609014011106/09/16 01:40:31  5-MIN KAIA 090840Z AUTO 00000KT 10SM CLR 13/11 A2983 4020 86 4800 000/00 RMK AO2 T01330111 $
24044KAIA AIA20160609014511106/09/16 01:45:31  5-MIN KAIA 090845Z AUTO 13003KT 10SM CLR 13/11 A2983 4020 86 4800 120/03 RMK AO2 T01330111 $
24044KAIA AIA20160609015012406/09/16 01:50:31  5-MIN KAIA 090850Z AUTO 11003KT 10SM CLR 14/11 A2983 4010 83 4800 100/03 RMK AO2 SLP056 T01390111 50002 $
24044KAIA AIA20160609015511106/09/16 01:55:31  5-MIN KAIA 090855Z AUTO 00000KT 10SM CLR 13/11 A2983 4020 86 4800 000/00 RMK AO2 T01330111 $
24044KAIA AIA20160609020011106/09/16 02:00:31  5-MIN KAIA 090900Z AUTO 00000KT 10SM CLR 14/11 A2983 4020 83 4900 000/00 RMK AO2 T01390111 $
24044KAIA AIA20160609020511106/09/16 02:05:31  5-MIN KAIA 090905Z AUTO 00000KT 10SM CLR 13/11 A2983 4020 89 4700 000/00 RMK AO2 T01280111 $
24044KAIA AIA20160609021011106/09/16 02:10:31  5-MIN KAIA 090910Z AUTO 00000KT 10SM CLR 13/11 A2983 4020 86 4800 000/00 RMK AO2 T01330111 $
24044KAIA AIA20160609021511106/09/16 02:15:31  5-MIN KAIA 090915Z AUTO 00000KT 10SM CLR 13/11 A2983 4020 83 4800 000/00 RMK AO2 T01330106 $
24044KAIA AIA20160609022011106/09/16 02:20:31  5-MIN KAIA 090920Z AUTO 00000KT 10SM CLR 13/11 A2983 4020 86 4700 000/00 RMK AO2 T01280106 $
24044KAIA AIA20160609022511106/09/16 02:25:31  5-MIN KAIA 090925Z AUTO 00000KT 10SM CLR 13/11 A2983 4020 86 4700 000/00 RMK AO2 T01280106 $
24044KAIA AIA20160609023011106/09/16 02:30:31  5-MIN KAIA 090930Z AUTO 34003KT 10SM CLR 13/11 A2982 4020 83 4800 330/03 RMK AO2 T01330106 $
24044KAIA AIA20160609023511106/09/16 02:35:31  5-MIN KAIA 090935Z AUTO 00000KT 10SM CLR 13/11 A2983 4020 89 4700 000/00 RMK AO2 T01280111 $
24044KAIA AIA20160609024011106/09/16 02:40:31  5-MIN KAIA 090940Z AUTO 34005KT 10SM CLR 13/11 A2983 4020 89 4700 340/05 RMK AO2 T01280111 $
24044KAIA AIA20160609024511106/09/16 02:45:31  5-MIN KAIA 090945Z AUTO 34006KT 10SM CLR 13/11 A2983 4020 89 4700 330/06 RMK AO2 T01280111 $
24044KAIA AIA20160609025011806/09/16 02:50:31  5-MIN KAIA 090950Z AUTO 32007KT 10SM CLR 12/11 A2984 4010 93 4700 310/07 RMK AO2 SLP059 T01220111 $
24044KAIA AIA20160609025511106/09/16 02:55:31  5-MIN KAIA 090955Z AUTO 32004KT 10SM CLR 13/11 A2983 4010 89 4700 310/04 RMK AO2 T01280111 $
24044KAIA AIA20160609030011106/09/16 03:00:31  5-MIN KAIA 091000Z AUTO 00000KT 10SM CLR 13/11 A2984 4010 89 4700 000/00 RMK AO2 T01280111 $
24044KAIA AIA20160609030511106/09/16 03:05:31  5-MIN KAIA 091005Z AUTO 00000KT 10SM CLR 12/11 A2984 4010 89 4700 000/00 RMK AO2 T01220106 $
24044KAIA AIA20160609031011106/09/16 03:10:31  5-MIN KAIA 091010Z AUTO 00000KT 10SM CLR 11/10 A2983 4010 93 4500 000/00 RMK AO2 T01110100 $
24044KAIA AIA20160609031511106/09/16 03:15:31  5-MIN KAIA 091015Z AUTO 03003KT 10SM CLR 12/10 A2983 4020 89 4600 020/03 RMK AO2 T01170100 $
24044KAIA AIA20160609032011106/09/16 03:20:31  5-MIN KAIA 091020Z AUTO 33003KT 10SM CLR 12/10 A2983 4020 89 4600 330/03 RMK AO2 T01170100 $
24044KAIA AIA20160609032511106/09/16 03:25:31  5-MIN KAIA 091025Z AUTO 35003KT 10SM CLR 12/11 A2983 4020 89 4700 340/03 RMK AO2 T01220106 $
24044KAIA AIA20160609033011106/09/16 03:30:31  5-MIN KAIA 091030Z AUTO 00000KT 10SM CLR 12/11 A2983 4020 93 4600 000/00 RMK AO2 T01170106 $
24044KAIA AIA20160609033511106/09/16 03:35:31  5-MIN KAIA 091035Z AUTO 29003KT 10SM CLR 11/10 A2983 4010 93 4500 280/03 RMK AO2 T01110100 $
24044KAIA AIA20160609034011106/09/16 03:40:31  5-MIN KAIA 091040Z AUTO 29004KT 10SM CLR 11/09 A2983 4020 93 4500 280/04 RMK AO2 T01060094 $
24044KAIA AIA20160609034511106/09/16 03:45:31  5-MIN KAIA 091045Z AUTO 28004KT 10SM CLR 11/09 A2983 4020 93 4500 270/04 RMK AO2 T01060094 $
24044KAIA AIA20160609035011806/09/16 03:50:31  5-MIN KAIA 091050Z AUTO 00000KT 10SM CLR 10/09 A2983 4020 93 4400 000/00 RMK AO2 SLP063 T01000089 $
24044KAIA AIA20160609035511106/09/16 03:55:31  5-MIN KAIA 091055Z AUTO 00000KT 10SM CLR 10/09 A2983 4010 93 4400 000/00 RMK AO2 T01000089 $
24044KAIA AIA20160609040011106/09/16 04:00:31  5-MIN KAIA 091100Z AUTO 29003KT 10SM CLR 10/09 A2984 4010 93 4400 290/03 RMK AO2 T01000089 $
24044KAIA AIA20160609040511106/09/16 04:05:31  5-MIN KAIA 091105Z AUTO 26003KT 10SM CLR 11/09 A2984 4010 93 4500 250/03 RMK AO2 T01060094 $
24044KAIA AIA20160609041011106/09/16 04:10:31  5-MIN KAIA 091110Z AUTO 22004KT 10SM CLR 11/09 A2984 4010 93 4500 220/04 RMK AO2 T01060094 $
24044KAIA AIA20160609041511106/09/16 04:15:31  5-MIN KAIA 091115Z AUTO 26004KT 10SM CLR 11/09 A2984 4010 93 4500 250/04 RMK AO2 T01060094 $
24044KAIA AIA20160609042011106/09/16 04:20:31  5-MIN KAIA 091120Z AUTO 27007KT 10SM CLR 11/10 A2984 4000 96 4500 260/07 RMK AO2 T01060100 $
24044KAIA AIA20160609042511106/09/16 04:25:31  5-MIN KAIA 091125Z AUTO 28005KT 10SM CLR 09/09 A2984 4010 96 4300 270/05 RMK AO2 T00940089 $
24044KAIA AIA20160609043011106/09/16 04:30:31  5-MIN KAIA 091130Z AUTO 27006KT 10SM CLR 10/09 A2984 4010 96 4400 260/06 RMK AO2 T01000094 $
24044KAIA AIA20160609043511106/09/16 04:35:31  5-MIN KAIA 091135Z AUTO 27005KT 10SM CLR 09/09 A2984 4010 96 4300 260/05 RMK AO2 T00940089 $
24044KAIA AIA20160609044011106/09/16 04:40:31  5-MIN KAIA 091140Z AUTO 25005KT 10SM CLR 10/09 A2985 4000 96 4400 240/05 RMK AO2 T01000094 $
24044KAIA AIA20160609044511106/09/16 04:45:31  5-MIN KAIA 091145Z AUTO 25005KT 10SM CLR 10/09 A2985 4000 96 4400 240/05 RMK AO2 T01000094 $
24044KAIA AIA20160609045013606/09/16 04:50:31  5-MIN KAIA 091150Z AUTO 25006KT 10SM CLR 11/09 A2985 4000 93 4400 240/06 RMK AO2 SLP072 T01060094 10161 20094 55003 $
24044KAIA AIA20160609045511106/09/16 04:55:31  5-MIN KAIA 091155Z AUTO 28006KT 10SM CLR 11/09 A2985 4000 93 4400 270/06 RMK AO2 T01060094 $
24044KAIA AIA20160609050011106/09/16 05:00:31  5-MIN KAIA 091200Z AUTO 27006KT 10SM CLR 11/10 A2985 4000 96 4400 270/06 RMK AO2 T01060100 $
24044KAIA AIA20160609050511106/09/16 05:05:31  5-MIN KAIA 091205Z AUTO 27007KT 10SM CLR 12/11 A2985 4000 93 4600 270/07 RMK AO2 T01170106 $
24044KAIA AIA20160609051011106/09/16 05:10:31  5-MIN KAIA 091210Z AUTO 28006KT 10SM CLR 12/11 A2985 4000 93 4600 270/06 RMK AO2 T01220111 $
24044KAIA AIA20160609051511106/09/16 05:15:31  5-MIN KAIA 091215Z AUTO 29006KT 10SM CLR 13/12 A2985 4000 93 4700 280/06 RMK AO2 T01280117 $
24044KAIA AIA20160609052011106/09/16 05:20:31  5-MIN KAIA 091220Z AUTO 29006KT 10SM CLR 13/12 A2985 4000 93 4800 280/06 RMK AO2 T01330122 $
24044KAIA AIA20160609052511106/09/16 05:25:31  5-MIN KAIA 091225Z AUTO 30006KT 10SM CLR 14/12 A2985 4000 86 4900 290/06 RMK AO2 T01440122 $
24044KAIA AIA20160609053011106/09/16 05:30:31  5-MIN KAIA 091230Z AUTO 30005KT 10SM CLR 15/13 A2985 4000 86 5000 290/05 RMK AO2 T01500128 $
24044KAIA AIA20160609053511106/09/16 05:35:31  5-MIN KAIA 091235Z AUTO 30006KT 10SM CLR 15/13 A2985 4000 86 5000 290/06 RMK AO2 T01500128 $
24044KAIA AIA20160609054011106/09/16 05:40:31  5-MIN KAIA 091240Z AUTO 30004KT 10SM CLR 16/13 A2985 4000 86 5000 290/04 RMK AO2 T01560133 $
24044KAIA AIA20160609054511106/09/16 05:45:31  5-MIN KAIA 091245Z AUTO 30004KT 10SM CLR 16/13 A2985 4000 83 5000 300/04 RMK AO2 T01560128 $
24044KAIA AIA20160609055011806/09/16 05:50:31  5-MIN KAIA 091250Z AUTO 30003KT 10SM CLR 16/13 A2985 4000 80 5100 290/03 RMK AO2 SLP066 T01610128 $
24044KAIA AIA20160609055511106/09/16 05:55:31  5-MIN KAIA 091255Z AUTO 30003KT 10SM CLR 16/13 A2985 4000 83 5100 290/03 RMK AO2 T01610133 $
24044KAIA AIA20160609060011106/09/16 06:00:31  5-MIN KAIA 091300Z AUTO 29004KT 10SM CLR 17/13 A2985 4000 80 5100 290/04 RMK AO2 T01670133 $
24044KAIA AIA20160609060511106/09/16 06:05:31  5-MIN KAIA 091305Z AUTO 30005KT 10SM CLR 17/13 A2985 4000 78 5200 290/05 RMK AO2 T01720133 $
24044KAIA AIA20160609061011106/09/16 06:10:31  5-MIN KAIA 091310Z AUTO 30005KT 10SM CLR 18/13 A2985 4000 75 5300 290/05 RMK AO2 T01780133 $
24044KAIA AIA20160609061510906/09/16 06:15:31  5-MIN KAIA 091315Z AUTO 29005KT 10SM CLR 18/13 A2985 4000 75 5300 290/05 RMK AO2 T01780133
24044KAIA AIA20160609062010906/09/16 06:20:31  5-MIN KAIA 091320Z AUTO 29005KT 10SM CLR 18/14 A2985 4000 75 5300 280/05 RMK AO2 T01830139
24044KAIA AIA20160609062510906/09/16 06:25:31  5-MIN KAIA 091325Z AUTO 29005KT 10SM CLR 19/14 A2985 4000 72 5400 280/05 RMK AO2 T01890139
24044KAIA AIA20160609063010906/09/16 06:30:31  5-MIN KAIA 091330Z AUTO 29004KT 10SM CLR 19/14 A2985 4000 72 5400 280/04 RMK AO2 T01890139
24044KAIA AIA20160609063510906/09/16 06:35:31  5-MIN KAIA 091335Z AUTO 30006KT 10SM CLR 19/14 A2985 3990 70 5500 290/06 RMK AO2 T01940139
24044KAIA AIA20160609064010906/09/16 06:40:31  5-MIN KAIA 091340Z AUTO 30006KT 10SM CLR 20/14 A2985 4000 67 5500 290/06 RMK AO2 T02000139
24044KAIA AIA20160609064510906/09/16 06:45:31  5-MIN KAIA 091345Z AUTO 30005KT 10SM CLR 21/14 A2985 4000 65 5600 290/05 RMK AO2 T02060139
24044KAIA AIA20160609065011606/09/16 06:50:31  5-MIN KAIA 091350Z AUTO 30006KT 10SM CLR 21/14 A2985 4000 63 5600 290/06 RMK AO2 SLP064 T02110139
24044KAIA AIA20160609065510906/09/16 06:55:31  5-MIN KAIA 091355Z AUTO 30008KT 10SM CLR 22/14 A2985 4000 61 5700 290/08 RMK AO2 T02170139
24044KAIA AIA20160609070010906/09/16 07:00:31  5-MIN KAIA 091400Z AUTO 30007KT 10SM CLR 22/13 A2985 4000 58 5700 290/07 RMK AO2 T02170133
24044KAIA AIA20160609070510906/09/16 07:05:31  5-MIN KAIA 091405Z AUTO 30007KT 10SM CLR 22/13 A2985 4000 56 5800 290/07 RMK AO2 T02220133
24044KAIA AIA20160609071010906/09/16 07:10:31  5-MIN KAIA 091410Z AUTO 30006KT 10SM CLR 23/14 A2985 4000 57 5800 290/06 RMK AO2 T02280139
24044KAIA AIA20160609071510906/09/16 07:15:31  5-MIN KAIA 091415Z AUTO 29004KT 10SM CLR 23/13 A2985 4000 55 5800 280/04 RMK AO2 T02280133
24044KAIA AIA20160609072010906/09/16 07:20:31  5-MIN KAIA 091420Z AUTO 32003KT 10SM CLR 23/13 A2986 3990 53 5900 310/03 RMK AO2 T02330133
24044KAIA AIA20160609072510906/09/16 07:25:31  5-MIN KAIA 091425Z AUTO 30005KT 10SM CLR 24/14 A2986 3990 53 5900 290/05 RMK AO2 T02390139
24044KAIA AIA20160609073010906/09/16 07:30:31  5-MIN KAIA 091430Z AUTO VRB04KT 10SM CLR 24/14 A2986 3990 53 5900 VRB/04 RMK AO2 T02390139
24044KAIA AIA20160609073510906/09/16 07:35:31  5-MIN KAIA 091435Z AUTO 30004KT 10SM CLR 24/14 A2986 3990 51 6000 290/04 RMK AO2 T02440139
24044KAIA AIA20160609074010906/09/16 07:40:31  5-MIN KAIA 091440Z AUTO 31003KT 10SM CLR 24/14 A2986 3990 51 6000 310/03 RMK AO2 T02440139
24044KAIA AIA20160609074510906/09/16 07:45:31  5-MIN KAIA 091445Z AUTO 00000KT 10SM CLR 25/14 A2986 3990 49 6100 000/00 RMK AO2 T02500139
24044KAIA AIA20160609075012206/09/16 07:50:31  5-MIN KAIA 091450Z AUTO 00000KT 10SM CLR 26/14 A2986 3990 48 6100 000/00 RMK AO2 SLP062 T02560139 53005
24044KAIA AIA20160609075510906/09/16 07:55:31  5-MIN KAIA 091455Z AUTO 00000KT 10SM CLR 26/14 A2986 3990 48 6100 000/00 RMK AO2 T02560139
24044KAIA AIA20160609080010906/09/16 08:00:31  5-MIN KAIA 091500Z AUTO 00000KT 10SM CLR 26/13 A2986 3990 46 6100 000/00 RMK AO2 T02560133
24044KAIA AIA20160609080510906/09/16 08:05:31  5-MIN KAIA 091505Z AUTO VRB03KT 10SM CLR 27/13 A2986 3990 43 6300 VRB/03 RMK AO2 T02670133
24044KAIA AIA20160609081010906/09/16 08:10:31  5-MIN KAIA 091510Z AUTO 34004KT 10SM CLR 27/13 A2986 3990 43 6300 340/04 RMK AO2 T02670133
24044KAIA AIA20160609081510906/09/16 08:15:31  5-MIN KAIA 091515Z AUTO 32003KT 10SM CLR 27/13 A2985 3990 43 6300 310/03 RMK AO2 T02670133
24044KAIA AIA20160609082010906/09/16 08:20:31  5-MIN KAIA 091520Z AUTO VRB03KT 10SM CLR 27/14 A2985 4000 45 6300 VRB/03 RMK AO2 T02670139
24044KAIA AIA20160609082510906/09/16 08:25:31  5-MIN KAIA 091525Z AUTO 00000KT 10SM CLR 27/13 A2986 3990 42 6300 000/00 RMK AO2 T02720133
24044KAIA AIA20160609083010906/09/16 08:30:31  5-MIN KAIA 091530Z AUTO 00000KT 10SM CLR 27/13 A2986 3990 40 6300 000/00 RMK AO2 T02720128
24044KAIA AIA20160609083510906/09/16 08:35:31  5-MIN KAIA 091535Z AUTO 00000KT 10SM CLR 27/13 A2986 3990 42 6300 000/00 RMK AO2 T02720133
24044KAIA AIA20160609084010906/09/16 08:40:31  5-MIN KAIA 091540Z AUTO 00000KT 10SM CLR 28/13 A2986 3990 40 6400 000/00 RMK AO2 T02780133
24044KAIA AIA20160609084510906/09/16 08:45:31  5-MIN KAIA 091545Z AUTO 00000KT 10SM CLR 28/13 A2986 3990 39 6400 000/00 RMK AO2 T02830133
24044KAIA AIA20160609085011606/09/16 08:50:31  5-MIN KAIA 091550Z AUTO 34003KT 10SM CLR 28/14 A2985 4000 40 6400 330/03 RMK AO2 SLP060 T02830139
24044KAIA AIA20160609085510906/09/16 08:55:31  5-MIN KAIA 091555Z AUTO 00000KT 10SM CLR 28/13 A2985 4000 39 6400 000/00 RMK AO2 T02830133
24044KAIA AIA20160609090011106/09/16 09:00:31  5-MIN KAIA 091600Z AUTO 00000KT 6SM HZ CLR 29/13 A2985 4000 36 6500 000/00 RMK AO2 T02890128
24044KAIA AIA20160609090511106/09/16 09:05:31  5-MIN KAIA 091605Z AUTO 00000KT 6SM HZ CLR 29/13 A2985 4000 38 6500 000/00 RMK AO2 T02890133
24044KAIA AIA20160609091010906/09/16 09:10:31  5-MIN KAIA 091610Z AUTO 00000KT 10SM CLR 29/13 A2985 4000 36 6600 000/00 RMK AO2 T02940133
24044KAIA AIA20160609091510906/09/16 09:15:31  5-MIN KAIA 091615Z AUTO 00000KT 10SM CLR 29/12 A2985 4000 34 6600 000/00 RMK AO2 T02940122
24044KAIA AIA20160609092010906/09/16 09:20:31  5-MIN KAIA 091620Z AUTO 00000KT 10SM CLR 30/12 A2985 4000 33 6600 000/00 RMK AO2 T03000122
24044KAIA AIA20160609092510906/09/16 09:25:31  5-MIN KAIA 091625Z AUTO 00000KT 10SM CLR 30/12 A2986 3990 33 6600 000/00 RMK AO2 T03000122
24044KAIA AIA20160609093010906/09/16 09:30:31  5-MIN KAIA 091630Z AUTO 26003KT 10SM CLR 30/12 A2986 3990 33 6600 260/03 RMK AO2 T03000122
24044KAIA AIA20160609093510906/09/16 09:35:31  5-MIN KAIA 091635Z AUTO 00000KT 10SM CLR 30/12 A2986 3990 33 6600 000/00 RMK AO2 T03000122
24044KAIA AIA20160609094010906/09/16 09:40:31  5-MIN KAIA 091640Z AUTO 24005KT 10SM CLR 31/12 A2986 3990 30 6700 230/05 RMK AO2 T03060117
24044KAIA AIA20160609094510906/09/16 09:45:31  5-MIN KAIA 091645Z AUTO 00000KT 10SM CLR 30/11 A2986 3990 30 6600 000/00 RMK AO2 T03000111
24044KAIA AIA20160609095011606/09/16 09:50:31  5-MIN KAIA 091650Z AUTO 26004KT 10SM CLR 31/12 A2986 3990 30 6700 250/04 RMK AO2 SLP062 T03060117
24044KAIA AIA20160609095510906/09/16 09:55:31  5-MIN KAIA 091655Z AUTO 29004KT 10SM CLR 31/11 A2986 3990 28 6700 280/04 RMK AO2 T03110111
24044KAIA AIA20160609100010906/09/16 10:00:31  5-MIN KAIA 091700Z AUTO 27005KT 10SM CLR 31/11 A2986 3990 28 6700 260/05 RMK AO2 T03110111
24044KAIA AIA20160609100510906/09/16 10:05:31  5-MIN KAIA 091705Z AUTO 19004KT 10SM CLR 31/11 A2986 3990 27 6700 190/04 RMK AO2 T03110106
24044KAIA AIA20160609101010906/09/16 10:10:31  5-MIN KAIA 091710Z AUTO 00000KT 10SM CLR 31/10 A2985 3990 27 6700 000/00 RMK AO2 T03060100
24044KAIA AIA20160609101510906/09/16 10:15:31  5-MIN KAIA 091715Z AUTO 00000KT 10SM CLR 32/11 A2985 4000 26 6800 000/00 RMK AO2 T03170106
24044KAIA AIA20160609102010906/09/16 10:20:31  5-MIN KAIA 091720Z AUTO 26004KT 10SM CLR 32/11 A2985 4000 26 6900 250/04 RMK AO2 T03220106
24044KAIA AIA20160609102510906/09/16 10:25:31  5-MIN KAIA 091725Z AUTO 28005KT 10SM CLR 32/11 A2985 4000 26 6900 270/05 RMK AO2 T03220106
24044KAIA AIA20160609103010906/09/16 10:30:31  5-MIN KAIA 091730Z AUTO VRB05KT 10SM CLR 32/11 A2985 4000 26 6800 VRB/05 RMK AO2 T03170106
24044KAIA AIA20160609103510906/09/16 10:35:31  5-MIN KAIA 091735Z AUTO 30003KT 10SM CLR 32/10 A2985 4000 25 6800 290/03 RMK AO2 T03170100
24044KAIA AIA20160609104010906/09/16 10:40:31  5-MIN KAIA 091740Z AUTO VRB03KT 10SM CLR 32/09 A2985 4000 25 6800 VRB/03 RMK AO2 T03170094
24044KAIA AIA20160609104509906/09/16 10:45:31  5-MIN KAIA 091745Z AUTO 10SM CLR 32/10 A2985 4000 25 6800 M /M RMK AO2 T03170100
24044KAIA AIA20160609105013406/09/16 10:50:31  5-MIN KAIA 091750Z AUTO 23004KT 10SM CLR 32/11 A2985 4000 26 6900 220/04 RMK AO2 SLP058 T03220106 10322 20106 53002
24044KAIA AIA20160609105510906/09/16 10:55:31  5-MIN KAIA 091755Z AUTO VRB04KT 10SM CLR 32/11 A2985 4000 26 6800 VRB/04 RMK AO2 T03170106
24044KAIA AIA20160609110010906/09/16 11:00:31  5-MIN KAIA 091800Z AUTO VRB04KT 10SM CLR 32/10 A2985 4000 25 6900 VRB/04 RMK AO2 T03220100
24044KAIA AIA20160609110510906/09/16 11:05:31  5-MIN KAIA 091805Z AUTO 00000KT 10SM CLR 33/11 A2984 4000 25 6900 000/00 RMK AO2 T03280106
24044KAIA AIA20160609111010906/09/16 11:10:31  5-MIN KAIA 091810Z AUTO 00000KT 10SM CLR 32/09 A2984 4010 25 6800 000/00 RMK AO2 T03170094
24044KAIA AIA20160609111509906/09/16 11:15:31  5-MIN KAIA 091815Z AUTO 10SM CLR 32/11 A2984 4010 26 6900 M /M RMK AO2 T03220106
24044KAIA AIA20160609112010906/09/16 11:20:31  5-MIN KAIA 091820Z AUTO VRB04KT 10SM CLR 32/10 A2984 4010 25 6900 VRB/04 RMK AO2 T03220100
24044KAIA AIA20160609112510906/09/16 11:25:31  5-MIN KAIA 091825Z AUTO 15008KT 10SM CLR 32/10 A2984 4010 25 6900 150/08 RMK AO2 T03220100
24044KAIA AIA20160609113010906/09/16 11:30:31  5-MIN KAIA 091830Z AUTO 14005KT 10SM CLR 33/11 A2984 4010 25 6900 130/05 RMK AO2 T03280106
24044KAIA AIA20160609113510906/09/16 11:35:31  5-MIN KAIA 091835Z AUTO 13008KT 10SM CLR 33/10 A2984 4010 24 6900 120/08 RMK AO2 T03280100
24044KAIA AIA20160609114010906/09/16 11:40:31  5-MIN KAIA 091840Z AUTO 12007KT 10SM CLR 33/10 A2984 4010 24 6900 110/07 RMK AO2 T03280100
24044KAIA AIA20160609114510906/09/16 11:45:31  5-MIN KAIA 091845Z AUTO 11007KT 10SM CLR 33/10 A2983 4020 24 6900 100/07 RMK AO2 T03280100
24044KAIA AIA20160609115011606/09/16 11:50:31  5-MIN KAIA 091850Z AUTO 14004KT 10SM CLR 33/10 A2983 4020 24 6900 130/04 RMK AO2 SLP052 T03280100
24044KAIA AIA20160609115510906/09/16 11:55:31  5-MIN KAIA 091855Z AUTO VRB04KT 10SM CLR 33/11 A2983 4020 25 6900 VRB/04 RMK AO2 T03280106
24044KAIA AIA20160609120010906/09/16 12:00:31  5-MIN KAIA 091900Z AUTO 19004KT 10SM CLR 32/10 A2983 4020 25 6900 180/04 RMK AO2 T03220100
24044KAIA AIA20160609120510906/09/16 12:05:31  5-MIN KAIA 091905Z AUTO 17009KT 10SM CLR 32/11 A2983 4020 26 6800 170/09 RMK AO2 T03170106
24044KAIA AIA20160609121010906/09/16 12:10:31  5-MIN KAIA 091910Z AUTO VRB03KT 10SM CLR 32/10 A2983 4020 25 6800 VRB/03 RMK AO2 T03170100
24044KAIA AIA20160609121510906/09/16 12:15:31  5-MIN KAIA 091915Z AUTO VRB03KT 10SM CLR 33/11 A2983 4020 25 6900 VRB/03 RMK AO2 T03280106
24044KAIA AIA20160609122010906/09/16 12:20:31  5-MIN KAIA 091920Z AUTO VRB04KT 10SM CLR 33/11 A2983 4020 25 6900 VRB/04 RMK AO2 T03280106
24044KAIA AIA20160609122510906/09/16 12:25:31  5-MIN KAIA 091925Z AUTO 13005KT 10SM CLR 32/10 A2983 4020 25 6800 120/05 RMK AO2 T03170100
24044KAIA AIA20160609123011206/09/16 12:30:31  5-MIN KAIA 091930Z AUTO 10003KT 10SM FEW095 31/11 A2983 4020 28 6800 090/03 RMK AO2 T03110111
24044KAIA AIA20160609123511206/09/16 12:35:31  5-MIN KAIA 091935Z AUTO 11004KT 10SM FEW095 31/11 A2983 4020 27 6800 110/04 RMK AO2 T03110106
24044KAIA AIA20160609124011206/09/16 12:40:31  5-MIN KAIA 091940Z AUTO VRB03KT 10SM FEW100 32/11 A2982 4020 27 6800 VRB/03 RMK AO2 T03170111
24044KAIA AIA20160609124511206/09/16 12:45:31  5-MIN KAIA 091945Z AUTO 13003KT 10SM FEW095 32/11 A2982 4020 26 6800 120/03 RMK AO2 T03170106
24044KAIA AIA20160609125010906/09/16 12:50:31  5-MIN KAIA 091950Z AUTO 10SM FEW095 33/11 A2982 4020 25 6900 M /M RMK AO2 SLP053 T03280106
24044KAIA AIA20160609125511206/09/16 12:55:31  5-MIN KAIA 091955Z AUTO 14007KT 10SM FEW095 33/11 A2982 4020 25 6900 130/07 RMK AO2 T03280106
24044KAIA AIA20160609130010906/09/16 13:00:31  5-MIN KAIA 092000Z AUTO VRB03KT 10SM CLR 33/11 A2982 4020 24 7000 VRB/03 RMK AO2 T03330106
24044KAIA AIA20160609130509906/09/16 13:05:31  5-MIN KAIA 092005Z AUTO 10SM CLR 33/11 A2982 4030 24 7000 M /M RMK AO2 T03330106
24044KAIA AIA20160609131010906/09/16 13:10:31  5-MIN KAIA 092010Z AUTO 15004KT 10SM CLR 32/10 A2982 4030 25 6800 150/04 RMK AO2 T03170100
24044KAIA AIA20160609131510906/09/16 13:15:31  5-MIN KAIA 092015Z AUTO 00000KT 10SM CLR 32/09 A2982 4030 25 6800 000/00 RMK AO2 T03170094
24044KAIA AIA20160609132010906/09/16 13:20:31  5-MIN KAIA 092020Z AUTO 15007KT 10SM CLR 31/11 A2982 4030 28 6800 140/07 RMK AO2 T03110111
24044KAIA AIA20160609132510206/09/16 13:25:31  5-MIN KAIA 092025Z AUTO 10SM FEW110 32/10 A2982 4030 25 6800 M /M RMK AO2 T03170100
24044KAIA AIA20160609133011206/09/16 13:30:31  5-MIN KAIA 092030Z AUTO 12006KT 10SM FEW110 32/11 A2982 4030 26 6800 110/06 RMK AO2 T03170106
24044KAIA AIA20160609133511206/09/16 13:35:31  5-MIN KAIA 092035Z AUTO 09003KT 10SM FEW100 33/11 A2982 4030 25 7000 080/03 RMK AO2 T03280106
24044KAIA AIA20160609134011206/09/16 13:40:31  5-MIN KAIA 092040Z AUTO VRB04KT 10SM SCT100 33/10 A2982 4030 24 7000 VRB/04 RMK AO2 T03280100
24044KAIA AIA20160609134511206/09/16 13:45:31  5-MIN KAIA 092045Z AUTO VRB05KT 10SM SCT100 33/11 A2982 4030 25 7000 VRB/05 RMK AO2 T03330111
24044KAIA AIA20160609135012506/09/16 13:50:31  5-MIN KAIA 092050Z AUTO 18007KT 10SM FEW100 34/11 A2982 4030 24 7100 170/07 RMK AO2 SLP047 T03390111 58003
24044KAIA AIA20160609135511206/09/16 13:55:31  5-MIN KAIA 092055Z AUTO VRB03KT 10SM FEW100 33/10 A2982 4030 23 7000 VRB/03 RMK AO2 T03330100
24044KAIA AIA20160609140011206/09/16 14:00:31  5-MIN KAIA 092100Z AUTO VRB05KT 10SM FEW100 34/11 A2982 4030 24 7100 VRB/05 RMK AO2 T03390111
24044KAIA AIA20160609140511206/09/16 14:05:31  5-MIN KAIA 092105Z AUTO 15006KT 10SM FEW100 33/10 A2982 4030 23 7000 140/06 RMK AO2 T03330100
24044KAIA AIA20160609141010906/09/16 14:10:31  5-MIN KAIA 092110Z AUTO VRB04KT 10SM CLR 34/11 A2982 4030 23 7100 VRB/04 RMK AO2 T03390106
24044KAIA AIA20160609141510906/09/16 14:15:31  5-MIN KAIA 092115Z AUTO VRB04KT 10SM CLR 33/11 A2981 4030 24 7000 VRB/04 RMK AO2 T03330106
24044KAIA AIA20160609142011206/09/16 14:20:31  5-MIN KAIA 092120Z AUTO 13004KT 10SM FEW100 33/10 A2981 4030 23 7000 120/04 RMK AO2 T03330100
24044KAIA AIA20160609142511206/09/16 14:25:31  5-MIN KAIA 092125Z AUTO 16008KT 10SM FEW100 33/11 A2981 4030 25 7000 160/08 RMK AO2 T03330111
24044KAIA AIA20160609143011206/09/16 14:30:31  5-MIN KAIA 092130Z AUTO 15007KT 10SM FEW100 33/11 A2981 4030 25 7000 140/07 RMK AO2 T03280106
24044KAIA AIA20160609143511206/09/16 14:35:31  5-MIN KAIA 092135Z AUTO 23007KT 10SM SCT100 32/11 A2981 4030 26 6800 220/07 RMK AO2 T03170106
24044KAIA AIA20160609144011206/09/16 14:40:31  5-MIN KAIA 092140Z AUTO 23004KT 10SM SCT100 31/11 A2981 4040 28 6700 220/04 RMK AO2 T03060106
24044KAIA AIA20160609144511206/09/16 14:45:31  5-MIN KAIA 092145Z AUTO 24006KT 10SM FEW100 31/12 A2981 4040 30 6700 230/06 RMK AO2 T03060117
24044KAIA AIA20160609145011906/09/16 14:50:31  5-MIN KAIA 092150Z AUTO 18005KT 10SM FEW100 31/11 A2981 4040 29 6700 180/05 RMK AO2 SLP050 T03060111
24044KAIA AIA20160609145511206/09/16 14:55:31  5-MIN KAIA 092155Z AUTO 17005KT 10SM FEW095 31/11 A2981 4040 28 6700 160/05 RMK AO2 T03060106
24044KAIA AIA20160609150011206/09/16 15:00:31  5-MIN KAIA 092200Z AUTO 14006KT 10SM FEW095 32/11 A2980 4040 27 6900 130/06 RMK AO2 T03220111
24044KAIA AIA20160609150510906/09/16 15:05:31  5-MIN KAIA 092205Z AUTO 00000KT 10SM CLR 33/10 A2980 4040 23 7000 000/00 RMK AO2 T03330100
24044KAIA AIA20160609151010906/09/16 15:10:31  5-MIN KAIA 092210Z AUTO 11004KT 10SM CLR 33/10 A2980 4040 23 7000 100/04 RMK AO2 T03330100
24044KAIA AIA20160609151510906/09/16 15:15:31  5-MIN KAIA 092215Z AUTO VRB04KT 10SM CLR 33/10 A2980 4040 23 7000 VRB/04 RMK AO2 T03330100
24044KAIA AIA20160609152010906/09/16 15:20:31  5-MIN KAIA 092220Z AUTO 12005KT 10SM CLR 33/11 A2980 4050 24 7000 110/05 RMK AO2 T03330106
24044KAIA AIA20160609152510906/09/16 15:25:31  5-MIN KAIA 092225Z AUTO 19006KT 10SM CLR 33/11 A2980 4050 25 7000 180/06 RMK AO2 T03280106
24044KAIA AIA20160609153010906/09/16 15:30:31  5-MIN KAIA 092230Z AUTO 17006KT 10SM CLR 31/10 A2980 4050 26 6800 160/06 RMK AO2 T03110100
24044KAIA AIA20160609153510906/09/16 15:35:31  5-MIN KAIA 092235Z AUTO 00000KT 10SM CLR 33/09 A2980 4050 23 7000 000/00 RMK AO2 T03280094
24044KAIA AIA20160609154009906/09/16 15:40:31  5-MIN KAIA 092240Z AUTO 10SM CLR 34/09 A2979 4050 21 7100 M /M RMK AO2 T03390089
24044KAIA AIA20160609154510906/09/16 15:45:31  5-MIN KAIA 092245Z AUTO 15004KT 10SM CLR 33/10 A2979 4050 23 7000 140/04 RMK AO2 T03330100
24044KAIA AIA20160609155011906/09/16 15:50:31  5-MIN KAIA 092250Z AUTO 15004KT 10SM FEW100 33/10 A2979 4050 23 7000 140/04 RMK AO2 SLP045 T03330100
24044KAIA AIA20160609155511206/09/16 15:55:31  5-MIN KAIA 092255Z AUTO VRB04KT 10SM FEW100 33/11 A2979 4050 24 7000 VRB/04 RMK AO2 T03330106
24044KAIA AIA20160609160010906/09/16 16:00:31  5-MIN KAIA 092300Z AUTO 16005KT 10SM CLR 33/10 A2979 4050 23 7000 150/05 RMK AO2 T03330100
24044KAIA AIA20160609160510906/09/16 16:05:31  5-MIN KAIA 092305Z AUTO 00000KT 10SM CLR 33/09 A2979 4050 22 7000 000/00 RMK AO2 T03330094
24044KAIA AIA20160609161009906/09/16 16:10:31  5-MIN KAIA 092310Z AUTO 10SM CLR 33/09 A2979 4060 22 7000 M /M RMK AO2 T03330094
24044KAIA AIA20160609161510906/09/16 16:15:31  5-MIN KAIA 092315Z AUTO 24005KT 10SM CLR 33/09 A2979 4060 22 7000 230/05 RMK AO2 T03330094
24044KAIA AIA20160609162010906/09/16 16:20:31  5-MIN KAIA 092320Z AUTO 16007KT 10SM CLR 33/11 A2979 4060 24 7000 150/07 RMK AO2 T03330106
24044KAIA AIA20160609162510906/09/16 16:25:31  5-MIN KAIA 092325Z AUTO 22007KT 10SM CLR 33/11 A2979 4050 25 7000 210/07 RMK AO2 T03280106
24044KAIA AIA20160609163010906/09/16 16:30:31  5-MIN KAIA 092330Z AUTO 20007KT 10SM CLR 33/10 A2979 4060 24 7000 190/07 RMK AO2 T03280100
24044KAIA AIA20160609163510906/09/16 16:35:31  5-MIN KAIA 092335Z AUTO 27004KT 10SM CLR 33/09 A2979 4060 22 7000 260/04 RMK AO2 T03330094
24044KAIA AIA20160609164010906/09/16 16:40:31  5-MIN KAIA 092340Z AUTO 22006KT 10SM CLR 33/09 A2978 4060 23 7000 210/06 RMK AO2 T03280094
24044KAIA AIA20160609164510906/09/16 16:45:31  5-MIN KAIA 092345Z AUTO 16006KT 10SM CLR 33/10 A2978 4060 24 7000 150/06 RMK AO2 T03280100
24044KAIA AIA20160609165013406/09/16 16:50:31  5-MIN KAIA 092350Z AUTO 18008KT 10SM CLR 33/10 A2978 4060 24 7000 170/08 RMK AO2 SLP042 T03280100 10339 20306 56009
24044KAIA AIA20160609165510906/09/16 16:55:31  5-MIN KAIA 092355Z AUTO 21004KT 10SM CLR 33/10 A2978 4060 24 7000 200/04 RMK AO2 T03280100
24044KAIA AIA20160609170010906/09/16 17:00:31  5-MIN KAIA 100000Z AUTO VRB05KT 10SM CLR 33/10 A2978 4060 24 7000 VRB/05 RMK AO2 T03280100
24044KAIA AIA20160609170510906/09/16 17:05:31  5-MIN KAIA 100005Z AUTO 14008KT 10SM CLR 32/11 A2978 4070 26 6900 130/08 RMK AO2 T03220106
24044KAIA AIA20160609171010906/09/16 17:10:31  5-MIN KAIA 100010Z AUTO 20005KT 10SM CLR 32/11 A2978 4070 26 6900 190/05 RMK AO2 T03220106
24044KAIA AIA20160609171510906/09/16 17:15:31  5-MIN KAIA 100015Z AUTO 15006KT 10SM CLR 32/11 A2978 4070 27 6900 140/06 RMK AO2 T03220111
24044KAIA AIA20160609172010906/09/16 17:20:31  5-MIN KAIA 100020Z AUTO 18006KT 10SM CLR 32/11 A2977 4070 27 6900 170/06 RMK AO2 T03220111
24044KAIA AIA20160609172510906/09/16 17:25:31  5-MIN KAIA 100025Z AUTO 17004KT 10SM CLR 32/11 A2977 4070 27 6900 160/04 RMK AO2 T03170111
24044KAIA AIA20160609173010906/09/16 17:30:31  5-MIN KAIA 100030Z AUTO 19009KT 10SM CLR 32/11 A2977 4070 27 6900 180/09 RMK AO2 T03170111
24044KAIA AIA20160609173510906/09/16 17:35:31  5-MIN KAIA 100035Z AUTO 19008KT 10SM CLR 32/10 A2977 4070 25 6900 190/08 RMK AO2 T03170100
24044KAIA AIA20160609174010906/09/16 17:40:31  5-MIN KAIA 100040Z AUTO 16007KT 10SM CLR 31/12 A2977 4070 29 6800 150/07 RMK AO2 T03110117
24044KAIA AIA20160609174510906/09/16 17:45:31  5-MIN KAIA 100045Z AUTO 16006KT 10SM CLR 31/13 A2977 4070 33 6800 160/06 RMK AO2 T03060128
24044KAIA AIA20160609175011606/09/16 17:50:31  5-MIN KAIA 100050Z AUTO 16008KT 10SM CLR 31/13 A2977 4070 33 6800 150/08 RMK AO2 SLP034 T03060128
24044KAIA AIA20160609175510906/09/16 17:55:31  5-MIN KAIA 100055Z AUTO 16007KT 10SM CLR 30/13 A2977 4070 35 6700 160/07 RMK AO2 T03000133
24044KAIA AIA20160609180010906/09/16 18:00:31  5-MIN KAIA 100100Z AUTO 16007KT 10SM CLR 30/13 A2977 4070 35 6700 150/07 RMK AO2 T03000133
24044KAIA AIA20160609180510906/09/16 18:05:31  5-MIN KAIA 100105Z AUTO 17008KT 10SM CLR 29/13 A2977 4070 36 6700 170/08 RMK AO2 T02940133
24044KAIA AIA20160609181010906/09/16 18:10:31  5-MIN KAIA 100110Z AUTO 17008KT 10SM CLR 29/12 A2977 4070 34 6600 160/08 RMK AO2 T02940122
24044KAIA AIA20160609181510906/09/16 18:15:31  5-MIN KAIA 100115Z AUTO 17007KT 10SM CLR 29/12 A2977 4070 35 6600 160/07 RMK AO2 T02890122
24044KAIA AIA20160609182010906/09/16 18:20:31  5-MIN KAIA 100120Z AUTO 17007KT 10SM CLR 28/12 A2977 4070 36 6500 160/07 RMK AO2 T02830122
24044KAIA AIA20160609182510906/09/16 18:25:31  5-MIN KAIA 100125Z AUTO 17006KT 10SM CLR 28/13 A2977 4070 39 6500 170/06 RMK AO2 T02780128
24044KAIA AIA20160609183010906/09/16 18:30:31  5-MIN KAIA 100130Z AUTO 17007KT 10SM CLR 28/13 A2977 4070 40 6500 170/07 RMK AO2 T02780133
24044KAIA AIA20160609183510906/09/16 18:35:31  5-MIN KAIA 100135Z AUTO 18007KT 10SM CLR 27/13 A2977 4070 42 6400 170/07 RMK AO2 T02720133
24044KAIA AIA20160609184010906/09/16 18:40:31  5-MIN KAIA 100140Z AUTO 18008KT 10SM CLR 27/13 A2977 4070 43 6300 170/08 RMK AO2 T02670133
24044KAIA AIA20160609184510906/09/16 18:45:31  5-MIN KAIA 100145Z AUTO 18007KT 10SM CLR 26/13 A2978 4070 43 6300 170/07 RMK AO2 T02610128
24044KAIA AIA20160609185011606/09/16 18:50:31  5-MIN KAIA 100150Z AUTO 18007KT 10SM CLR 26/13 A2978 4070 46 6200 170/07 RMK AO2 SLP036 T02560133
24044KAIA AIA20160609185510906/09/16 18:55:31  5-MIN KAIA 100155Z AUTO 18006KT 10SM CLR 25/13 A2978 4070 48 6200 170/06 RMK AO2 T02500133
24044KAIA AIA20160609190010906/09/16 19:00:31  5-MIN KAIA 100200Z AUTO 18007KT 10SM CLR 25/13 A2978 4060 48 6200 170/07 RMK AO2 T02500133
24044KAIA AIA20160609190510906/09/16 19:05:31  5-MIN KAIA 100205Z AUTO 18007KT 10SM CLR 24/13 A2978 4060 51 6000 170/07 RMK AO2 T02390133
24044KAIA AIA20160609191010906/09/16 19:10:31  5-MIN KAIA 100210Z AUTO 18008KT 10SM CLR 24/13 A2978 4060 49 6000 170/08 RMK AO2 T02390128
24044KAIA AIA20160609191510906/09/16 19:15:31  5-MIN KAIA 100215Z AUTO 17009KT 10SM CLR 23/13 A2978 4070 53 5900 160/09 RMK AO2 T02280128
24044KAIA AIA20160609192010906/09/16 19:20:31  5-MIN KAIA 100220Z AUTO 17009KT 10SM CLR 22/13 A2978 4070 56 5800 160/09 RMK AO2 T02170128
24044KAIA AIA20160609192510906/09/16 19:25:31  5-MIN KAIA 100225Z AUTO 16008KT 10SM CLR 21/13 A2978 4060 61 5700 150/08 RMK AO2 T02110133
24044KAIA AIA20160609193010906/09/16 19:30:31  5-MIN KAIA 100230Z AUTO 17008KT 10SM CLR 21/14 A2978 4060 63 5700 160/08 RMK AO2 T02110139
24044KAIA AIA20160609193510906/09/16 19:35:31  5-MIN KAIA 100235Z AUTO 17008KT 10SM CLR 21/14 A2978 4060 65 5700 160/08 RMK AO2 T02110144
24044KAIA AIA20160609194010906/09/16 19:40:31  5-MIN KAIA 100240Z AUTO 17009KT 10SM CLR 21/14 A2978 4060 67 5700 170/09 RMK AO2 T02060144
24044KAIA AIA20160609194510906/09/16 19:45:31  5-MIN KAIA 100245Z AUTO 18008KT 10SM CLR 21/14 A2979 4060 65 5700 170/08 RMK AO2 T02060139
24044KAIA AIA20160609195012206/09/16 19:50:31  5-MIN KAIA 100250Z AUTO 18008KT 10SM CLR 21/13 A2979 4060 63 5700 170/08 RMK AO2 SLP039 T02060133 56010
24044KAIA AIA20160609195510906/09/16 19:55:31  5-MIN KAIA 100255Z AUTO 18008KT 10SM CLR 20/13 A2979 4060 65 5600 170/08 RMK AO2 T02000133
24044KAIA AIA20160609200010906/09/16 20:00:31  5-MIN KAIA 100300Z AUTO 18008KT 10SM CLR 20/13 A2979 4060 63 5600 170/08 RMK AO2 T02000128
24044KAIA AIA20160609200510906/09/16 20:05:31  5-MIN KAIA 100305Z AUTO 18009KT 10SM CLR 20/13 A2979 4060 63 5600 170/09 RMK AO2 T02000128
24044KAIA AIA20160609201010906/09/16 20:10:31  5-MIN KAIA 100310Z AUTO 18009KT 10SM CLR 21/13 A2979 4050 61 5700 170/09 RMK AO2 T02110133
24044KAIA AIA20160609201510906/09/16 20:15:31  5-MIN KAIA 100315Z AUTO 18009KT 10SM CLR 22/13 A2979 4050 56 5800 170/09 RMK AO2 T02220133
24044KAIA AIA20160609202010906/09/16 20:20:31  5-MIN KAIA 100320Z AUTO 17008KT 10SM CLR 22/13 A2980 4050 56 5800 170/08 RMK AO2 T02170128
24044KAIA AIA20160609202510906/09/16 20:25:31  5-MIN KAIA 100325Z AUTO 17008KT 10SM CLR 21/13 A2980 4050 60 5600 160/08 RMK AO2 T02060128
24044KAIA AIA20160609203010906/09/16 20:30:31  5-MIN KAIA 100330Z AUTO 17008KT 10SM CLR 19/13 A2980 4040 67 5500 160/08 RMK AO2 T01940133
24044KAIA AIA20160609203510906/09/16 20:35:31  5-MIN KAIA 100335Z AUTO 16009KT 10SM CLR 19/13 A2981 4040 67 5500 160/09 RMK AO2 T01940133
24044KAIA AIA20160609204010906/09/16 20:40:31  5-MIN KAIA 100340Z AUTO 16009KT 10SM CLR 19/13 A2981 4030 67 5500 150/09 RMK AO2 T01940133
24044KAIA AIA20160609204510906/09/16 20:45:31  5-MIN KAIA 100345Z AUTO 17009KT 10SM CLR 19/13 A2982 4030 67 5500 160/09 RMK AO2 T01940133
24044KAIA AIA20160609205011606/09/16 20:50:31  5-MIN KAIA 100350Z AUTO 17009KT 10SM CLR 19/13 A2982 4030 70 5400 160/09 RMK AO2 SLP048 T01890133
24044KAIA AIA20160609205510906/09/16 20:55:31  5-MIN KAIA 100355Z AUTO 16009KT 10SM CLR 19/13 A2982 4030 67 5400 160/09 RMK AO2 T01890128
24044KAIA AIA20160609210010906/09/16 21:00:31  5-MIN KAIA 100400Z AUTO 16009KT 10SM CLR 19/13 A2982 4030 65 5500 150/09 RMK AO2 T01940128
24044KAIA AIA20160609210510906/09/16 21:05:31  5-MIN KAIA 100405Z AUTO 17009KT 10SM CLR 20/13 A2982 4020 63 5600 160/09 RMK AO2 T02000128
24044KAIA AIA20160609211010906/09/16 21:10:31  5-MIN KAIA 100410Z AUTO 17009KT 10SM CLR 20/13 A2983 4020 63 5600 160/09 RMK AO2 T02000128
24044KAIA AIA20160609211510906/09/16 21:15:31  5-MIN KAIA 100415Z AUTO 17008KT 10SM CLR 20/13 A2983 4020 63 5500 160/08 RMK AO2 T02000128
24044KAIA AIA20160609212010906/09/16 21:20:31  5-MIN KAIA 100420Z AUTO 17008KT 10SM CLR 20/13 A2983 4020 63 5600 160/08 RMK AO2 T02000128
24044KAIA AIA20160609212510906/09/16 21:25:31  5-MIN KAIA 100425Z AUTO 17007KT 10SM CLR 19/13 A2983 4020 65 5500 160/07 RMK AO2 T01940128
24044KAIA AIA20160609213010906/09/16 21:30:31  5-MIN KAIA 100430Z AUTO 17006KT 10SM CLR 19/13 A2983 4020 67 5400 160/06 RMK AO2 T01890128
24044KAIA AIA20160609213510906/09/16 21:35:31  5-MIN KAIA 100435Z AUTO 16007KT 10SM CLR 19/13 A2983 4020 67 5400 150/07 RMK AO2 T01890128
24044KAIA AIA20160609214010906/09/16 21:40:31  5-MIN KAIA 100440Z AUTO 17007KT 10SM CLR 18/13 A2983 4020 70 5400 160/07 RMK AO2 T01830128
24044KAIA AIA20160609214510906/09/16 21:45:31  5-MIN KAIA 100445Z AUTO 17007KT 10SM CLR 18/13 A2983 4020 70 5400 160/07 RMK AO2 T01830128
24044KAIA AIA20160609215011606/09/16 21:50:31  5-MIN KAIA 100450Z AUTO 16007KT 10SM CLR 18/13 A2983 4020 72 5300 150/07 RMK AO2 SLP053 T01780128
24044KAIA AIA20160609215510906/09/16 21:55:31  5-MIN KAIA 100455Z AUTO 16008KT 10SM CLR 18/12 A2983 4020 69 5300 160/08 RMK AO2 T01780122
24044KAIA AIA20160609220010906/09/16 22:00:31  5-MIN KAIA 100500Z AUTO 16008KT 10SM CLR 18/12 A2983 4020 69 5300 160/08 RMK AO2 T01780122
24044KAIA AIA20160609220510906/09/16 22:05:31  5-MIN KAIA 100505Z AUTO 17008KT 10SM CLR 17/13 A2983 4010 75 5200 160/08 RMK AO2 T01720128
24044KAIA AIA20160609221010906/09/16 22:10:31  5-MIN KAIA 100510Z AUTO 17007KT 10SM CLR 17/13 A2983 4020 75 5200 160/07 RMK AO2 T01720128
24044KAIA AIA20160609221510906/09/16 22:15:31  5-MIN KAIA 100515Z AUTO 17008KT 10SM CLR 17/13 A2983 4020 75 5200 160/08 RMK AO2 T01720128
24044KAIA AIA20160609222010906/09/16 22:20:31  5-MIN KAIA 100520Z AUTO 17007KT 10SM CLR 17/13 A2983 4020 77 5200 160/07 RMK AO2 T01670128
24044KAIA AIA20160609222510906/09/16 22:25:31  5-MIN KAIA 100525Z AUTO 18006KT 10SM CLR 17/13 A2983 4010 77 5200 170/06 RMK AO2 T01670128
24044KAIA AIA20160609223010906/09/16 22:30:31  5-MIN KAIA 100530Z AUTO 18007KT 10SM CLR 17/13 A2984 4010 75 5200 180/07 RMK AO2 T01720128
24044KAIA AIA20160609223510906/09/16 22:35:31  5-MIN KAIA 100535Z AUTO 18008KT 10SM CLR 17/13 A2984 4010 75 5200 180/08 RMK AO2 T01720128
24044KAIA AIA20160609224010906/09/16 22:40:31  5-MIN KAIA 100540Z AUTO 18008KT 10SM CLR 18/12 A2984 4010 69 5300 180/08 RMK AO2 T01780122
24044KAIA AIA20160609224510906/09/16 22:45:31  5-MIN KAIA 100545Z AUTO 22004KT 10SM CLR 17/13 A2984 4010 75 5200 210/04 RMK AO2 T01720128
24044KAIA AIA20160609225013406/09/16 22:50:31  5-MIN KAIA 100550Z AUTO 25005KT 10SM CLR 16/12 A2984 4010 77 5100 250/05 RMK AO2 SLP055 T01610122 10328 20161 53001
24044KAIA AIA20160609225510906/09/16 22:55:31  5-MIN KAIA 100555Z AUTO 22005KT 10SM CLR 17/12 A2984 4010 75 5200 220/05 RMK AO2 T01670122
24044KAIA AIA20160609230010906/09/16 23:00:31  5-MIN KAIA 100600Z AUTO 25003KT 10SM CLR 17/12 A2984 4010 72 5200 240/03 RMK AO2 T01720122
24044KAIA AIA20160609230510906/09/16 23:05:31  5-MIN KAIA 100605Z AUTO 00000KT 10SM CLR 17/12 A2984 4010 72 5200 000/00 RMK AO2 T01720122
24044KAIA AIA20160609231010906/09/16 23:10:31  5-MIN KAIA 100610Z AUTO 00000KT 10SM CLR 18/12 A2984 4010 69 5300 000/00 RMK AO2 T01780122
24044KAIA AIA20160609231510906/09/16 23:15:31  5-MIN KAIA 100615Z AUTO 00000KT 10SM CLR 17/12 A2984 4010 72 5200 000/00 RMK AO2 T01720122
24044KAIA AIA20160609232010906/09/16 23:20:31  5-MIN KAIA 100620Z AUTO 35003KT 10SM CLR 17/12 A2984 4010 72 5200 340/03 RMK AO2 T01720122
24044KAIA AIA20160609232511206/09/16 23:25:31  5-MIN KAIA 100625Z AUTO 35005KT 10SM FEW120 18/12 A2985 4000 69 5300 340/05 RMK AO2 T01780122
24044KAIA AIA20160609233011206/09/16 23:30:31  5-MIN KAIA 100630Z AUTO 01011KT 10SM SCT110 18/13 A2984 4000 70 5300 360/11 RMK AO2 T01830128
24044KAIA AIA20160609233512306/09/16 23:35:31  5-MIN KAIA 100635Z AUTO 01009KT 10SM FEW110 19/13 A2985 4000 65 5500 010/09 RMK AO2 LTG DSNT N T01940128
24044KAIA AIA20160609234012306/09/16 23:40:31  5-MIN KAIA 100640Z AUTO 34011KT 10SM FEW110 21/12 A2985 3990 56 5600 340/11 RMK AO2 LTG DSNT N T02060117
24044KAIA AIA20160609234512306/09/16 23:45:31  5-MIN KAIA 100645Z AUTO 36011KT 10SM FEW110 22/11 A2986 3990 50 5700 350/11 RMK AO2 LTG DSNT N T02170111
24044KAIA AIA20160609235012906/09/16 23:50:31  5-MIN KAIA 100650Z AUTO 03007KT 10SM FEW110 22/12 A2986 3990 52 5700 020/07 RMK AO2 SLP054 T02170117 403390094
24044KAIA AIA20160609235511206/09/16 23:55:31  5-MIN KAIA 100655Z AUTO 31005KT 10SM FEW110 22/11 A2986 3990 49 5800 300/05 RMK AO2 T02220111
24044KAIA AIA20160610000010906/10/16 00:00:31  5-MIN KAIA 100700Z AUTO 35005KT 10SM CLR 21/12 A2985 4000 54 5700 340/05 RMK AO2 T02110117
24044KAIA AIA20160610000510906/10/16 00:05:31  5-MIN KAIA 100705Z AUTO 36004KT 10SM CLR 21/12 A2985 4000 56 5600 360/04 RMK AO2 T02060117
24044KAIA AIA20160610001010906/10/16 00:10:31  5-MIN KAIA 100710Z AUTO 00000KT 10SM CLR 21/12 A2985 4000 56 5600 000/00 RMK AO2 T02060117
24044KAIA AIA20160610001510906/10/16 00:15:31  5-MIN KAIA 100715Z AUTO 30003KT 10SM CLR 21/11 A2985 4000 54 5600 300/03 RMK AO2 T02060111
24044KAIA AIA20160610002010906/10/16 00:20:31  5-MIN KAIA 100720Z AUTO 08004KT 10SM CLR 21/11 A2985 4000 54 5600 070/04 RMK AO2 T02060111
24044KAIA AIA20160610002510906/10/16 00:25:31  5-MIN KAIA 100725Z AUTO 08007KT 10SM CLR 20/11 A2984 4000 56 5500 070/07 RMK AO2 T02000111
24044KAIA AIA20160610003010906/10/16 00:30:31  5-MIN KAIA 100730Z AUTO 10008KT 10SM CLR 19/11 A2984 4010 60 5400 090/08 RMK AO2 T01890111
24044KAIA AIA20160610003510906/10/16 00:35:31  5-MIN KAIA 100735Z AUTO 09010KT 10SM CLR 19/11 A2984 4010 60 5400 080/10 RMK AO2 T01890111
24044KAIA AIA20160610004010906/10/16 00:40:31  5-MIN KAIA 100740Z AUTO 10007KT 10SM CLR 19/11 A2984 4010 60 5400 090/07 RMK AO2 T01890111
24044KAIA AIA20160610004510906/10/16 00:45:31  5-MIN KAIA 100745Z AUTO 12006KT 10SM CLR 19/11 A2984 4010 60 5400 110/06 RMK AO2 T01890111
24044KAIA AIA20160610005011606/10/16 00:50:31  5-MIN KAIA 100750Z AUTO 10008KT 10SM CLR 19/11 A2983 4010 60 5400 090/08 RMK AO2 SLP048 T01890111
24044KAIA AIA20160610005510906/10/16 00:55:31  5-MIN KAIA 100755Z AUTO 11010KT 10SM CLR 21/11 A2984 4010 54 5600 100/10 RMK AO2 T02060111
24044KAIA AIA20160610010010906/10/16 01:00:31  5-MIN KAIA 100800Z AUTO VRB04KT 10SM CLR 20/11 A2984 4010 56 5500 VRB/04 RMK AO2 T02000111
24044KAIA AIA20160610010510906/10/16 01:05:31  5-MIN KAIA 100805Z AUTO 09007KT 10SM CLR 21/11 A2984 4010 52 5600 080/07 RMK AO2 T02060106
24044KAIA AIA20160610011010906/10/16 01:10:31  5-MIN KAIA 100810Z AUTO 11006KT 10SM CLR 21/11 A2984 4010 52 5600 100/06 RMK AO2 T02060106
24044KAIA AIA20160610011510906/10/16 01:15:31  5-MIN KAIA 100815Z AUTO 12006KT 10SM CLR 19/11 A2984 4010 56 5500 120/06 RMK AO2 T01940106
24044KAIA AIA20160610012010906/10/16 01:20:31  5-MIN KAIA 100820Z AUTO 00000KT 10SM CLR 18/11 A2984 4010 60 5400 000/00 RMK AO2 T01830106
24044KAIA AIA20160610012510906/10/16 01:25:31  5-MIN KAIA 100825Z AUTO 12006KT 10SM CLR 19/11 A2984 4010 58 5400 110/06 RMK AO2 T01890106
24044KAIA AIA20160610013010906/10/16 01:30:31  5-MIN KAIA 100830Z AUTO 10004KT 10SM CLR 19/11 A2983 4010 58 5400 100/04 RMK AO2 T01890106
24044KAIA AIA20160610013510906/10/16 01:35:31  5-MIN KAIA 100835Z AUTO 11004KT 10SM CLR 18/11 A2983 4020 60 5400 100/04 RMK AO2 T01830106
24044KAIA AIA20160610014010906/10/16 01:40:31  5-MIN KAIA 100840Z AUTO 11005KT 10SM CLR 18/11 A2983 4020 60 5400 100/05 RMK AO2 T01830106
24044KAIA AIA20160610014510906/10/16 01:45:31  5-MIN KAIA 100845Z AUTO 07004KT 10SM CLR 18/11 A2983 4020 62 5300 060/04 RMK AO2 T01780106
24044KAIA AIA20160610015012206/10/16 01:50:31  5-MIN KAIA 100850Z AUTO 06003KT 10SM CLR 17/11 A2983 4020 64 5200 050/03 RMK AO2 SLP048 T01720106 51017
24044KAIA AIA20160610015510906/10/16 01:55:31  5-MIN KAIA 100855Z AUTO 08003KT 10SM CLR 17/11 A2983 4020 64 5200 070/03 RMK AO2 T01720106
24044KAIA AIA20160610020010906/10/16 02:00:31  5-MIN KAIA 100900Z AUTO 09004KT 10SM CLR 17/11 A2983 4020 64 5200 090/04 RMK AO2 T01720106
24044KAIA AIA20160610020510906/10/16 02:05:31  5-MIN KAIA 100905Z AUTO 09004KT 10SM CLR 18/11 A2982 4020 64 5300 080/04 RMK AO2 T01780111
24044KAIA AIA20160610021010906/10/16 02:10:31  5-MIN KAIA 100910Z AUTO 13004KT 10SM CLR 17/11 A2982 4020 67 5200 120/04 RMK AO2 T01720111
24044KAIA AIA20160610021510906/10/16 02:15:31  5-MIN KAIA 100915Z AUTO 12005KT 10SM CLR 17/11 A2982 4030 67 5200 120/05 RMK AO2 T01720111
24044KAIA AIA20160610022010906/10/16 02:20:31  5-MIN KAIA 100920Z AUTO 12007KT 10SM CLR 16/11 A2982 4030 69 5100 110/07 RMK AO2 T01610106
24044KAIA AIA20160610022510906/10/16 02:25:31  5-MIN KAIA 100925Z AUTO 13005KT 10SM CLR 16/11 A2983 4020 69 5100 130/05 RMK AO2 T01610106
24044KAIA AIA20160610023010906/10/16 02:30:31  5-MIN KAIA 100930Z AUTO 18003KT 10SM CLR 17/11 A2983 4020 67 5200 170/03 RMK AO2 T01720111
24044KAIA AIA20160610023510906/10/16 02:35:31  5-MIN KAIA 100935Z AUTO 00000KT 10SM CLR 16/11 A2983 4020 72 5000 000/00 RMK AO2 T01560106
24044KAIA AIA20160610024010906/10/16 02:40:31  5-MIN KAIA 100940Z AUTO 15003KT 10SM CLR 16/11 A2983 4020 72 5100 150/03 RMK AO2 T01610111
24044KAIA AIA20160610024510906/10/16 02:45:31  5-MIN KAIA 100945Z AUTO 17003KT 10SM CLR 16/11 A2983 4020 74 5000 160/03 RMK AO2 T01560111
24044KAIA AIA20160610025011606/10/16 02:50:31  5-MIN KAIA 100950Z AUTO 15004KT 10SM CLR 14/11 A2983 4020 77 4900 140/04 RMK AO2 SLP055 T01440106
24044KAIA AIA20160610025510906/10/16 02:55:31  5-MIN KAIA 100955Z AUTO 00000KT 10SM CLR 13/10 A2983 4010 83 4700 000/00 RMK AO2 T01280100
24044KAIA AIA20160610030010906/10/16 03:00:31  5-MIN KAIA 101000Z AUTO 00000KT 10SM CLR 13/10 A2983 4010 80 4800 000/00 RMK AO2 T01330100
24044KAIA AIA20160610030510906/10/16 03:05:31  5-MIN KAIA 101005Z AUTO 00000KT 10SM CLR 14/10 A2984 4010 77 4800 000/00 RMK AO2 T01390100
24044KAIA AIA20160610031010906/10/16 03:10:31  5-MIN KAIA 101010Z AUTO 00000KT 10SM CLR 12/09 A2984 4010 83 4700 000/00 RMK AO2 T01220094
24044KAIA AIA20160610031510906/10/16 03:15:31  5-MIN KAIA 101015Z AUTO 26005KT 10SM CLR 12/09 A2984 4010 86 4600 250/05 RMK AO2 T01170094
24044KAIA AIA20160610032010906/10/16 03:20:31  5-MIN KAIA 101020Z AUTO 24004KT 10SM CLR 12/09 A2984 4010 86 4600 230/04 RMK AO2 T01170094
24044KAIA AIA20160610032510906/10/16 03:25:31  5-MIN KAIA 101025Z AUTO 28003KT 10SM CLR 12/09 A2984 4010 86 4600 270/03 RMK AO2 T01170094
24044KAIA AIA20160610033010906/10/16 03:30:31  5-MIN KAIA 101030Z AUTO 25004KT 10SM CLR 12/09 A2984 4010 83 4600 240/04 RMK AO2 T01220094
24044KAIA AIA20160610033510906/10/16 03:35:31  5-MIN KAIA 101035Z AUTO 27004KT 10SM CLR 12/09 A2985 4000 83 4600 260/04 RMK AO2 T01170089
24044KAIA AIA20160610034010906/10/16 03:40:31  5-MIN KAIA 101040Z AUTO 25004KT 10SM CLR 11/09 A2985 4000 86 4500 240/04 RMK AO2 T01110089
24044KAIA AIA20160610034510906/10/16 03:45:31  5-MIN KAIA 101045Z AUTO 24003KT 10SM CLR 11/09 A2985 4000 86 4500 230/03 RMK AO2 T01110089
24044KAIA AIA20160610035011606/10/16 03:50:31  5-MIN KAIA 101050Z AUTO 26003KT 10SM CLR 12/09 A2985 4000 83 4600 250/03 RMK AO2 SLP061 T01170089
24044KAIA AIA20160610035510906/10/16 03:55:31  5-MIN KAIA 101055Z AUTO 26006KT 10SM CLR 11/09 A2985 4000 86 4500 250/06 RMK AO2 T01110089
24044KAIA AIA20160610040010906/10/16 04:00:31  5-MIN KAIA 101100Z AUTO 28008KT 10SM CLR 10/09 A2985 4000 93 4400 270/08 RMK AO2 T01000089
24044KAIA AIA20160610040510906/10/16 04:05:31  5-MIN KAIA 101105Z AUTO 27008KT 10SM CLR 11/09 A2985 3990 89 4400 270/08 RMK AO2 T01060089
24044KAIA AIA20160610041010906/10/16 04:10:31  5-MIN KAIA 101110Z AUTO 28004KT 10SM CLR 11/09 A2986 3990 93 4400 280/04 RMK AO2 T01060094
24044KAIA AIA20160610041510906/10/16 04:15:31  5-MIN KAIA 101115Z AUTO 28005KT 10SM CLR 11/09 A2986 3990 93 4400 270/05 RMK AO2 T01060094
24044KAIA AIA20160610042010906/10/16 04:20:31  5-MIN KAIA 101120Z AUTO 28007KT 10SM CLR 11/09 A2987 3980 93 4400 270/07 RMK AO2 T01060094
24044KAIA AIA20160610042510906/10/16 04:25:31  5-MIN KAIA 101125Z AUTO 28007KT 10SM CLR 11/09 A2987 3980 93 4400 270/07 RMK AO2 T01060094
24044KAIA AIA20160610043010906/10/16 04:30:31  5-MIN KAIA 101130Z AUTO 26009KT 10SM CLR 11/09 A2987 3980 93 4400 250/09 RMK AO2 T01060094
24044KAIA AIA20160610043510906/10/16 04:35:31  5-MIN KAIA 101135Z AUTO 27007KT 10SM CLR 11/09 A2988 3970 93 4400 260/07 RMK AO2 T01060094
24044KAIA AIA20160610044010906/10/16 04:40:31  5-MIN KAIA 101140Z AUTO 28007KT 10SM CLR 11/09 A2988 3970 93 4400 270/07 RMK AO2 T01060094
24044KAIA AIA20160610044510906/10/16 04:45:31  5-MIN KAIA 101145Z AUTO 28006KT 10SM CLR 11/09 A2988 3970 89 4500 270/06 RMK AO2 T01110094
24044KAIA AIA20160610045014706/10/16 04:50:31  5-MIN KAIA 101150Z AUTO 35011G16KT 10SM CLR 11/10 A2990 3950 93 4400 340/11G16 RMK AO2 PRESRR SLP083 T01110100 10222 20100 58004
24044KAIA AIA20160610045511506/10/16 04:55:31  5-MIN KAIA 101155Z AUTO VRB05G16KT 10SM CLR 13/11 A2989 3960 86 4700 VRB/05G16 RMK AO2 T01330111
24044KAIA AIA20160610050010906/10/16 05:00:31  5-MIN KAIA 101200Z AUTO 01005KT 10SM CLR 15/12 A2990 3960 80 4900 360/05 RMK AO2 T01500117
24044KAIA AIA20160610050510906/10/16 05:05:31  5-MIN KAIA 101205Z AUTO 01006KT 10SM CLR 16/12 A2990 3950 77 5000 010/06 RMK AO2 T01560117
24044KAIA AIA20160610051010906/10/16 05:10:31  5-MIN KAIA 101210Z AUTO 01007KT 10SM CLR 16/12 A2991 3950 77 5000 360/07 RMK AO2 T01560117
24044KAIA AIA20160610051510906/10/16 05:15:31  5-MIN KAIA 101215Z AUTO 03006KT 10SM CLR 16/12 A2991 3940 80 5000 020/06 RMK AO2 T01560122
24044KAIA AIA20160610052010906/10/16 05:20:31  5-MIN KAIA 101220Z AUTO 02008KT 10SM CLR 16/12 A2991 3940 77 4900 020/08 RMK AO2 T01560117
24044KAIA AIA20160610052510906/10/16 05:25:31  5-MIN KAIA 101225Z AUTO 02008KT 10SM CLR 16/12 A2992 3940 75 5000 020/08 RMK AO2 T01610117
24044KAIA AIA20160610053010906/10/16 05:30:31  5-MIN KAIA 101230Z AUTO 04009KT 10SM CLR 17/12 A2992 3940 72 5100 030/09 RMK AO2 T01670117
24044KAIA AIA20160610053510906/10/16 05:35:31  5-MIN KAIA 101235Z AUTO 03007KT 10SM CLR 17/12 A2992 3940 72 5100 020/07 RMK AO2 T01720122
24044KAIA AIA20160610054010906/10/16 05:40:31  5-MIN KAIA 101240Z AUTO 02008KT 10SM CLR 18/12 A2992 3930 69 5200 010/08 RMK AO2 T01780122
24044KAIA AIA20160610054510906/10/16 05:45:31  5-MIN KAIA 101245Z AUTO 02006KT 10SM CLR 18/12 A2992 3930 67 5300 010/06 RMK AO2 T01830122
24044KAIA AIA20160610055011606/10/16 05:50:31  5-MIN KAIA 101250Z AUTO 01006KT 10SM CLR 18/12 A2993 3930 67 5300 010/06 RMK AO2 SLP085 T01830122
24044KAIA AIA20160610055510906/10/16 05:55:31  5-MIN KAIA 101255Z AUTO 36006KT 10SM CLR 18/12 A2993 3930 67 5300 350/06 RMK AO2 T01830122
24044KAIA AIA20160610060010906/10/16 06:00:31  5-MIN KAIA 101300Z AUTO 36006KT 10SM CLR 19/12 A2993 3920 65 5300 350/06 RMK AO2 T01890122
24044KAIA AIA20160610060510906/10/16 06:05:31  5-MIN KAIA 101305Z AUTO 35005KT 10SM CLR 19/13 A2993 3920 67 5300 350/05 RMK AO2 T01890128
24044KAIA AIA20160610061010906/10/16 06:10:31  5-MIN KAIA 101310Z AUTO 36004KT 10SM CLR 19/13 A2993 3920 65 5400 350/04 RMK AO2 T01940128
24044KAIA AIA20160610061510906/10/16 06:15:31  5-MIN KAIA 101315Z AUTO 04005KT 10SM CLR 20/13 A2993 3930 63 5400 030/05 RMK AO2 T02000128
24044KAIA AIA20160610062010906/10/16 06:20:31  5-MIN KAIA 101320Z AUTO 02005KT 10SM CLR 21/13 A2993 3920 60 5500 020/05 RMK AO2 T02060128
24044KAIA AIA20160610062510906/10/16 06:25:31  5-MIN KAIA 101325Z AUTO 02007KT 10SM CLR 21/13 A2993 3920 60 5500 010/07 RMK AO2 T02060128
24044KAIA AIA20160610063010906/10/16 06:30:31  5-MIN KAIA 101330Z AUTO 03004KT 10SM CLR 21/13 A2993 3930 58 5600 020/04 RMK AO2 T02110128
24044KAIA AIA20160610063510906/10/16 06:35:31  5-MIN KAIA 101335Z AUTO 05004KT 10SM CLR 22/13 A2993 3920 56 5600 050/04 RMK AO2 T02170128
24044KAIA AIA20160610064010906/10/16 06:40:31  5-MIN KAIA 101340Z AUTO 04004KT 10SM CLR 22/13 A2994 3920 54 5700 030/04 RMK AO2 T02220128
24044KAIA AIA20160610064510906/10/16 06:45:31  5-MIN KAIA 101345Z AUTO 03003KT 10SM CLR 22/12 A2994 3920 52 5700 020/03 RMK AO2 T02220122
24044KAIA AIA20160610065011606/10/16 06:50:31  5-MIN KAIA 101350Z AUTO 04003KT 10SM CLR 23/12 A2994 3920 51 5700 030/03 RMK AO2 SLP090 T02280122
24044KAIA AIA20160610065510906/10/16 06:55:31  5-MIN KAIA 101355Z AUTO 04004KT 10SM CLR 23/12 A2994 3910 51 5700 030/04 RMK AO2 T02280122
24044KAIA AIA20160610070010906/10/16 07:00:31  5-MIN KAIA 101400Z AUTO 00000KT 10SM CLR 23/13 A2994 3910 53 5700 000/00 RMK AO2 T02280128
24044KAIA AIA20160610070510906/10/16 07:05:31  5-MIN KAIA 101405Z AUTO 04003KT 10SM CLR 23/13 A2994 3910 51 5800 040/03 RMK AO2 T02330128
24044KAIA AIA20160610071010906/10/16 07:10:31  5-MIN KAIA 101410Z AUTO 05004KT 10SM CLR 23/12 A2994 3910 49 5800 040/04 RMK AO2 T02330122
24044KAIA AIA20160610071510906/10/16 07:15:31  5-MIN KAIA 101415Z AUTO 02004KT 10SM CLR 24/13 A2994 3910 49 5900 010/04 RMK AO2 T02390128
24044KAIA AIA20160610072010906/10/16 07:20:31  5-MIN KAIA 101420Z AUTO 03004KT 10SM CLR 24/13 A2994 3910 49 5800 020/04 RMK AO2 T02390128
24044KAIA AIA20160610072510906/10/16 07:25:31  5-MIN KAIA 101425Z AUTO 03003KT 10SM CLR 24/13 A2994 3910 49 5900 030/03 RMK AO2 T02440133
24044KAIA AIA20160610073010906/10/16 07:30:31  5-MIN KAIA 101430Z AUTO 03004KT 10SM CLR 24/13 A2995 3910 49 5800 020/04 RMK AO2 T02390128
24044KAIA AIA20160610073510906/10/16 07:35:31  5-MIN KAIA 101435Z AUTO 01006KT 10SM CLR 24/13 A2995 3910 49 5800 010/06 RMK AO2 T02390128
24044KAIA AIA20160610074010906/10/16 07:40:31  5-MIN KAIA 101440Z AUTO 36008KT 10SM CLR 24/13 A2995 3910 49 5900 350/08 RMK AO2 T02440133
24044KAIA AIA20160610074510906/10/16 07:45:31  5-MIN KAIA 101445Z AUTO 02007KT 10SM CLR 25/14 A2995 3910 49 6000 010/07 RMK AO2 T02500139
24044KAIA AIA20160610075012206/10/16 07:50:31  5-MIN KAIA 101450Z AUTO 01008KT 10SM CLR 25/14 A2995 3910 49 6000 360/08 RMK AO2 SLP097 T02500139 53020
24044KAIA AIA20160610075510906/10/16 07:55:31  5-MIN KAIA 101455Z AUTO 36009KT 10SM CLR 25/14 A2995 3900 51 6000 360/09 RMK AO2 T02500144
24044KAIA AIA20160610080010906/10/16 08:00:31  5-MIN KAIA 101500Z AUTO 01008KT 10SM CLR 25/14 A2995 3900 51 6000 360/08 RMK AO2 T02500144
24044KAIA AIA20160610080510906/10/16 08:05:31  5-MIN KAIA 101505Z AUTO 01007KT 10SM CLR 26/14 A2996 3900 48 6000 360/07 RMK AO2 T02560139
24044KAIA AIA20160610081010906/10/16 08:10:31  5-MIN KAIA 101510Z AUTO 03007KT 10SM CLR 26/14 A2996 3900 48 6100 020/07 RMK AO2 T02610144
24044KAIA AIA20160610081510906/10/16 08:15:31  5-MIN KAIA 101515Z AUTO 04008KT 10SM CLR 26/14 A2996 3900 46 6100 040/08 RMK AO2 T02610139
24044KAIA AIA20160610082010906/10/16 08:20:31  5-MIN KAIA 101520Z AUTO 04008KT 10SM CLR 27/13 A2996 3900 43 6100 030/08 RMK AO2 T02670133
24044KAIA AIA20160610082510806/10/16 08:25:31  5-MIN KAIA 101525Z AUTO VRB05KT 9SM CLR 27/13 A2996 3890 43 6100 VRB/05 RMK AO2 T02670133
24044KAIA AIA20160610083010806/10/16 08:30:31  5-MIN KAIA 101530Z AUTO 03007KT 9SM CLR 27/13 A2996 3900 42 6200 020/07 RMK AO2 T02720133
24044KAIA AIA20160610083510906/10/16 08:35:31  5-MIN KAIA 101535Z AUTO 05009KT 10SM CLR 27/13 A2996 3900 42 6200 040/09 RMK AO2 T02720133
24044KAIA AIA20160610084010906/10/16 08:40:31  5-MIN KAIA 101540Z AUTO 06011KT 10SM CLR 27/13 A2995 3910 42 6200 050/11 RMK AO2 T02720133
24044KAIA AIA20160610084510906/10/16 08:45:31  5-MIN KAIA 101545Z AUTO 06011KT 10SM CLR 28/13 A2995 3900 39 6300 050/11 RMK AO2 T02780128
24044KAIA AIA20160610085011606/10/16 08:50:31  5-MIN KAIA 101550Z AUTO 06014KT 10SM CLR 28/12 A2995 3910 36 6300 060/14 RMK AO2 SLP095 T02830122
24044KAIA AIA20160610085510906/10/16 08:55:31  5-MIN KAIA 101555Z AUTO 07014KT 10SM CLR 28/12 A2994 3910 37 6300 060/14 RMK AO2 T02780122
24044KAIA AIA20160610090011506/10/16 09:00:31  5-MIN KAIA 101600Z AUTO 07013G18KT 10SM CLR 28/12 A2995 3910 36 6300 060/13G18 RMK AO2 T02830122
24044KAIA AIA20160610090511506/10/16 09:05:31  5-MIN KAIA 101605Z AUTO 07010G18KT 10SM CLR 29/12 A2995 3910 35 6400 060/10G18 RMK AO2 T02890122
24044KAIA AIA20160610091012506/10/16 09:10:31  5-MIN KAIA 101610Z AUTO 08008KT 050V110 10SM CLR 28/12 A2995 3910 37 6300 070/08 040V100 RMK AO2 T02780122
24044KAIA AIA20160610091510906/10/16 09:15:31  5-MIN KAIA 101615Z AUTO 07007KT 10SM CLR 28/12 A2995 3900 36 6300 070/07 RMK AO2 T02830122
24044KAIA AIA20160610092010906/10/16 09:20:31  5-MIN KAIA 101620Z AUTO 07005KT 10SM CLR 28/12 A2996 3900 36 6300 070/05 RMK AO2 T02830122
24044KAIA AIA20160610092510906/10/16 09:25:31  5-MIN KAIA 101625Z AUTO 06007KT 10SM CLR 28/12 A2996 3900 37 6300 050/07 RMK AO2 T02780122
24044KAIA AIA20160610093010906/10/16 09:30:31  5-MIN KAIA 101630Z AUTO 08005KT 10SM CLR 28/13 A2995 3910 37 6300 070/05 RMK AO2 T02830128
24044KAIA AIA20160610093510906/10/16 09:35:31  5-MIN KAIA 101635Z AUTO 08007KT 10SM CLR 29/13 A2995 3910 36 6400 070/07 RMK AO2 T02890128
24044KAIA AIA20160610094010906/10/16 09:40:31  5-MIN KAIA 101640Z AUTO 05007KT 10SM CLR 29/13 A2995 3910 36 6400 040/07 RMK AO2 T02890128
24044KAIA AIA20160610094510906/10/16 09:45:31  5-MIN KAIA 101645Z AUTO 04006KT 10SM CLR 28/12 A2995 3900 36 6300 030/06 RMK AO2 T02830122
24044KAIA AIA20160610095011606/10/16 09:50:31  5-MIN KAIA 101650Z AUTO 05006KT 10SM CLR 29/13 A2995 3910 36 6400 040/06 RMK AO2 SLP096 T02890128
24044KAIA AIA20160610095510906/10/16 09:55:31  5-MIN KAIA 101655Z AUTO 04007KT 10SM CLR 29/13 A2995 3910 38 6400 040/07 RMK AO2 T02890133
24044KAIA AIA20160610100010906/10/16 10:00:31  5-MIN KAIA 101700Z AUTO 06009KT 10SM CLR 29/13 A2995 3910 38 6400 050/09 RMK AO2 T02890133
24044KAIA AIA20160610100510906/10/16 10:05:31  5-MIN KAIA 101705Z AUTO 05010KT 10SM CLR 29/13 A2995 3910 36 6400 040/10 RMK AO2 T02890128
24044KAIA AIA20160610101010906/10/16 10:10:31  5-MIN KAIA 101710Z AUTO 06011KT 10SM CLR 30/12 A2995 3910 33 6500 050/11 RMK AO2 T03000122
24044KAIA AIA20160610101510906/10/16 10:15:31  5-MIN KAIA 101715Z AUTO 06010KT 10SM CLR 31/13 A2995 3910 33 6600 050/10 RMK AO2 T03060128
24044KAIA AIA20160610102010906/10/16 10:20:31  5-MIN KAIA 101720Z AUTO 09009KT 10SM CLR 31/13 A2995 3910 33 6600 080/09 RMK AO2 T03060128
24044KAIA AIA20160610102510906/10/16 10:25:31  5-MIN KAIA 101725Z AUTO 06006KT 10SM CLR 31/13 A2995 3910 33 6600 050/06 RMK AO2 T03060128
24044KAIA AIA20160610103010906/10/16 10:30:31  5-MIN KAIA 101730Z AUTO 08009KT 10SM CLR 31/12 A2995 3900 32 6600 070/09 RMK AO2 T03060122
24044KAIA AIA20160610103510906/10/16 10:35:31  5-MIN KAIA 101735Z AUTO VRB05KT 10SM CLR 31/13 A2996 3900 33 6600 VRB/05 RMK AO2 T03060128
24044KAIA AIA20160610104010906/10/16 10:40:31  5-MIN KAIA 101740Z AUTO VRB06KT 10SM CLR 31/13 A2995 3900 33 6600 VRB/06 RMK AO2 T03060128
24044KAIA AIA20160610104510906/10/16 10:45:31  5-MIN KAIA 101745Z AUTO 10009KT 10SM CLR 32/13 A2995 3910 31 6700 090/09 RMK AO2 T03170128
24044KAIA AIA20160610105015006/10/16 10:50:31  5-MIN KAIA 101750Z AUTO 09007KT 050V130 10SM CLR 31/12 A2995 3910 31 6600 080/07 040V120 RMK AO2 SLP095 T03110122 10317 20128 51018
24044KAIA AIA20160610105510906/10/16 10:55:31  5-MIN KAIA 101755Z AUTO 05006KT 10SM CLR 32/12 A2995 3900 30 6700 050/06 RMK AO2 T03170122
24044KAIA AIA20160610110010906/10/16 11:00:31  5-MIN KAIA 101800Z AUTO 10007KT 10SM CLR 32/12 A2995 3900 30 6700 090/07 RMK AO2 T03170122
24044KAIA AIA20160610110510906/10/16 11:05:31  5-MIN KAIA 101805Z AUTO 07008KT 10SM CLR 32/12 A2995 3900 30 6700 070/08 RMK AO2 T03170122
24044KAIA AIA20160610111012506/10/16 11:10:31  5-MIN KAIA 101810Z AUTO 09008KT 060V130 10SM CLR 32/12 A2995 3910 30 6700 090/08 050V120 RMK AO2 T03170122
24044KAIA AIA20160610111511506/10/16 11:15:31  5-MIN KAIA 101815Z AUTO 11007G14KT 10SM CLR 32/12 A2995 3910 30 6700 110/07G14 RMK AO2 T03170122
24044KAIA AIA20160610112010906/10/16 11:20:31  5-MIN KAIA 101820Z AUTO VRB04KT 10SM CLR 32/13 A2995 3910 30 6700 VRB/04 RMK AO2 T03220128
24044KAIA AIA20160610112510906/10/16 11:25:31  5-MIN KAIA 101825Z AUTO 07007KT 10SM CLR 32/12 A2995 3910 29 6700 070/07 RMK AO2 T03220122
24044KAIA AIA20160610113010906/10/16 11:30:31  5-MIN KAIA 101830Z AUTO 08008KT 10SM CLR 32/12 A2995 3910 29 6700 070/08 RMK AO2 T03220122
24044KAIA AIA20160610113510906/10/16 11:35:31  5-MIN KAIA 101835Z AUTO 08006KT 10SM CLR 32/12 A2995 3910 29 6700 080/06 RMK AO2 T03220122
24044KAIA AIA20160610114010906/10/16 11:40:31  5-MIN KAIA 101840Z AUTO 07008KT 10SM CLR 33/12 A2995 3910 27 6800 060/08 RMK AO2 T03280117
24044KAIA AIA20160610114510906/10/16 11:45:31  5-MIN KAIA 101845Z AUTO VRB04KT 10SM CLR 32/12 A2995 3910 28 6700 VRB/04 RMK AO2 T03220117
24044KAIA AIA20160610115010606/10/16 11:50:31  5-MIN KAIA 101850Z AUTO 10SM CLR 33/12 A2995 3910 28 6800 M /M RMK AO2 SLP086 T03280122
24044KAIA AIA20160610115510906/10/16 11:55:31  5-MIN KAIA 101855Z AUTO 07008KT 10SM CLR 33/13 A2995 3910 28 6900 060/08 RMK AO2 T03330128
24044KAIA AIA20160610120010906/10/16 12:00:31  5-MIN KAIA 101900Z AUTO 05006KT 10SM CLR 32/12 A2995 3910 30 6700 040/06 RMK AO2 T03170122
24044KAIA AIA20160610120510906/10/16 12:05:31  5-MIN KAIA 101905Z AUTO 05006KT 10SM CLR 33/13 A2994 3910 29 6800 040/06 RMK AO2 T03280128
24044KAIA AIA20160610121010906/10/16 12:10:31  5-MIN KAIA 101910Z AUTO 06007KT 10SM CLR 33/13 A2994 3910 28 6900 050/07 RMK AO2 T03330128
24044KAIA AIA20160610121510906/10/16 12:15:31  5-MIN KAIA 101915Z AUTO 07008KT 10SM CLR 33/13 A2994 3920 28 6900 070/08 RMK AO2 T03330128
24044KAIA AIA20160610122010906/10/16 12:20:31  5-MIN KAIA 101920Z AUTO 06006KT 10SM CLR 33/12 A2994 3910 27 6900 060/06 RMK AO2 T03330122
24044KAIA AIA20160610122511506/10/16 12:25:31  5-MIN KAIA 101925Z AUTO 09007G15KT 10SM CLR 33/12 A2994 3910 27 6900 080/07G15 RMK AO2 T03330122
24044KAIA AIA20160610123013106/10/16 12:30:31  5-MIN KAIA 101930Z AUTO 07007G15KT 040V110 10SM CLR 34/12 A2994 3920 26 6900 070/07G15 030V100 RMK AO2 T03390122
24044KAIA AIA20160610123510906/10/16 12:35:31  5-MIN KAIA 101935Z AUTO 04006KT 10SM CLR 33/12 A2994 3910 28 6800 030/06 RMK AO2 T03280122
24044KAIA AIA20160610124010906/10/16 12:40:31  5-MIN KAIA 101940Z AUTO VRB03KT 10SM CLR 34/12 A2994 3910 26 6900 VRB/03 RMK AO2 T03390122
24044KAIA AIA20160610124510906/10/16 12:45:31  5-MIN KAIA 101945Z AUTO VRB05KT 10SM CLR 34/12 A2994 3920 25 6900 VRB/05 RMK AO2 T03390117
24044KAIA AIA20160610125011606/10/16 12:50:31  5-MIN KAIA 101950Z AUTO 13007KT 10SM CLR 33/11 A2994 3920 25 6900 120/07 RMK AO2 SLP085 T03330111
24044KAIA AIA20160610125510906/10/16 12:55:31  5-MIN KAIA 101955Z AUTO 00000KT 10SM CLR 33/11 A2994 3920 26 6800 000/00 RMK AO2 T03280111
24044KAIA AIA20160610130009906/10/16 13:00:31  5-MIN KAIA 102000Z AUTO 10SM CLR 34/12 A2994 3920 26 6900 M /M RMK AO2 T03390122
24044KAIA AIA20160610130510906/10/16 13:05:31  5-MIN KAIA 102005Z AUTO 05008KT 10SM CLR 34/12 A2994 3920 25 7000 040/08 RMK AO2 T03440122
24044KAIA AIA20160610131010906/10/16 13:10:31  5-MIN KAIA 102010Z AUTO 11004KT 10SM CLR 34/12 A2994 3920 26 6900 100/04 RMK AO2 T03390122
24044KAIA AIA20160610131509906/10/16 13:15:31  5-MIN KAIA 102015Z AUTO 10SM CLR 34/11 A2994 3920 23 6900 M /M RMK AO2 T03390106
24044KAIA AIA20160610132010906/10/16 13:20:31  5-MIN KAIA 102020Z AUTO 16005KT 10SM CLR 34/09 A2994 3920 21 7000 150/05 RMK AO2 T03440094
24044KAIA AIA20160610132510906/10/16 13:25:31  5-MIN KAIA 102025Z AUTO VRB03KT 10SM CLR 34/09 A2993 3920 21 6900 VRB/03 RMK AO2 T03390089
24044KAIA AIA20160610133010906/10/16 13:30:31  5-MIN KAIA 102030Z AUTO VRB03KT 10SM CLR 34/09 A2993 3920 20 7000 VRB/03 RMK AO2 T03440089
24044KAIA AIA20160610133510906/10/16 13:35:31  5-MIN KAIA 102035Z AUTO VRB05KT 10SM CLR 34/11 A2993 3920 24 6900 VRB/05 RMK AO2 T03390111
24044KAIA AIA20160610134010906/10/16 13:40:31  5-MIN KAIA 102040Z AUTO 01005KT 10SM CLR 34/11 A2993 3920 23 7000 010/05 RMK AO2 T03440111
24044KAIA AIA20160610134510906/10/16 13:45:31  5-MIN KAIA 102045Z AUTO 07009KT 10SM CLR 34/11 A2993 3930 23 7000 060/09 RMK AO2 T03440111
24044KAIA AIA20160610135012206/10/16 13:50:31  5-MIN KAIA 102050Z AUTO 04007KT 10SM CLR 34/11 A2993 3920 23 7000 030/07 RMK AO2 SLP082 T03440111 55000
24044KAIA AIA20160610135510906/10/16 13:55:31  5-MIN KAIA 102055Z AUTO VRB03KT 10SM CLR 34/11 A2993 3930 23 7000 VRB/03 RMK AO2 T03440106
24044KAIA AIA20160610140009906/10/16 14:00:31  5-MIN KAIA 102100Z AUTO 10SM CLR 35/11 A2993 3930 23 7100 M /M RMK AO2 T03500111
24044KAIA AIA20160610140510906/10/16 14:05:31  5-MIN KAIA 102105Z AUTO 03010KT 10SM CLR 36/11 A2993 3930 21 7100 020/10 RMK AO2 T03560106
24044KAIA AIA20160610141010906/10/16 14:10:31  5-MIN KAIA 102110Z AUTO 03009KT 10SM CLR 35/09 A2993 3930 19 7100 020/09 RMK AO2 T03500089
24044KAIA AIA20160610141510906/10/16 14:15:31  5-MIN KAIA 102115Z AUTO 08006KT 10SM CLR 35/10 A2992 3930 21 7100 070/06 RMK AO2 T03500100
24044KAIA AIA20160610142010906/10/16 14:20:31  5-MIN KAIA 102120Z AUTO 06005KT 10SM CLR 35/09 A2992 3930 20 7100 050/05 RMK AO2 T03500094
24044KAIA AIA20160610142510906/10/16 14:25:31  5-MIN KAIA 102125Z AUTO 09007KT 10SM CLR 35/09 A2992 3930 19 7100 080/07 RMK AO2 T03500089
24044KAIA AIA20160610143010906/10/16 14:30:31  5-MIN KAIA 102130Z AUTO 00000KT 10SM CLR 35/08 A2992 3930 19 7100 000/00 RMK AO2 T03500083
24044KAIA AIA20160610143510906/10/16 14:35:31  5-MIN KAIA 102135Z AUTO 06006KT 10SM CLR 36/09 A2992 3930 20 7100 050/06 RMK AO2 T03560094
24044KAIA AIA20160610144010906/10/16 14:40:31  5-MIN KAIA 102140Z AUTO 06010KT 10SM CLR 36/08 A2992 3940 17 7100 050/10 RMK AO2 T03560078
24044KAIA AIA20160610144510906/10/16 14:45:31  5-MIN KAIA 102145Z AUTO 06009KT 10SM CLR 35/07 A2992 3940 17 7100 050/09 RMK AO2 T03500072
24044KAIA AIA20160610145011606/10/16 14:50:31  5-MIN KAIA 102150Z AUTO 10007KT 10SM CLR 35/07 A2992 3940 17 7100 090/07 RMK AO2 SLP080 T03500072
24044KAIA AIA20160610145510906/10/16 14:55:31  5-MIN KAIA 102155Z AUTO VRB03KT 10SM CLR 34/06 A2992 3940 16 7000 VRB/03 RMK AO2 T03440056
24044KAIA AIA20160610150010906/10/16 15:00:31  5-MIN KAIA 102200Z AUTO VRB04KT 10SM CLR 35/07 A2992 3940 17 7100 VRB/04 RMK AO2 T03500067
24044KAIA AIA20160610150510906/10/16 15:05:31  5-MIN KAIA 102205Z AUTO VRB03KT 10SM CLR 35/09 A2991 3940 19 7100 VRB/03 RMK AO2 T03500089
24044KAIA AIA20160610151010906/10/16 15:10:31  5-MIN KAIA 102210Z AUTO 11006KT 10SM CLR 35/09 A2991 3940 19 7100 100/06 RMK AO2 T03500089
24044KAIA AIA20160610151510906/10/16 15:15:31  5-MIN KAIA 102215Z AUTO 12008KT 10SM CLR 35/08 A2991 3940 19 7100 110/08 RMK AO2 T03500083
24044KAIA AIA20160610152010906/10/16 15:20:31  5-MIN KAIA 102220Z AUTO 13005KT 10SM CLR 35/07 A2991 3940 17 7100 120/05 RMK AO2 T03500072
24044KAIA AIA20160610152510906/10/16 15:25:31  5-MIN KAIA 102225Z AUTO VRB04KT 10SM CLR 35/07 A2991 3940 17 7100 VRB/04 RMK AO2 T03500067
24044KAIA AIA20160610153010906/10/16 15:30:31  5-MIN KAIA 102230Z AUTO 15005KT 10SM CLR 36/07 A2991 3940 16 7100 150/05 RMK AO2 T03560067
24044KAIA AIA20160610153510906/10/16 15:35:31  5-MIN KAIA 102235Z AUTO 11009KT 10SM CLR 35/07 A2991 3950 17 7100 100/09 RMK AO2 T03500072
24044KAIA AIA20160610154010906/10/16 15:40:31  5-MIN KAIA 102240Z AUTO 10004KT 10SM CLR 35/06 A2991 3950 16 7100 090/04 RMK AO2 T03500061
24044KAIA AIA20160610154510906/10/16 15:45:31  5-MIN KAIA 102245Z AUTO 00000KT 10SM CLR 35/05 A2990 3950 15 7100 000/00 RMK AO2 T03500050
24044KAIA AIA20160610155011606/10/16 15:50:31  5-MIN KAIA 102250Z AUTO 00000KT 10SM CLR 35/06 A2990 3950 16 7100 000/00 RMK AO2 SLP079 T03500061
24044KAIA AIA20160610155510906/10/16 15:55:31  5-MIN KAIA 102255Z AUTO 15006KT 10SM CLR 35/06 A2990 3950 16 7100 140/06 RMK AO2 T03500061
24044KAIA AIA20160610160010906/10/16 16:00:31  5-MIN KAIA 102300Z AUTO 16004KT 10SM CLR 34/07 A2990 3950 19 7000 150/04 RMK AO2 T03390072
24044KAIA AIA20160610160510906/10/16 16:05:31  5-MIN KAIA 102305Z AUTO 11003KT 10SM CLR 34/08 A2990 3950 19 7000 100/03 RMK AO2 T03440083
24044KAIA AIA20160610161010906/10/16 16:10:31  5-MIN KAIA 102310Z AUTO VRB04KT 10SM CLR 34/07 A2990 3950 18 7000 VRB/04 RMK AO2 T03440072
24044KAIA AIA20160610161510906/10/16 16:15:31  5-MIN KAIA 102315Z AUTO 10008KT 10SM CLR 34/07 A2990 3950 19 7000 090/08 RMK AO2 T03390072
24044KAIA AIA20160610162010906/10/16 16:20:31  5-MIN KAIA 102320Z AUTO 10006KT 10SM CLR 34/07 A2990 3950 17 7000 090/06 RMK AO2 T03440067
24044KAIA AIA20160610162510906/10/16 16:25:31  5-MIN KAIA 102325Z AUTO 11003KT 10SM CLR 34/04 A2990 3950 15 7000 100/03 RMK AO2 T03440044
24044KAIA AIA20160610163010906/10/16 16:30:31  5-MIN KAIA 102330Z AUTO 00000KT 10SM CLR 34/06 A2990 3950 16 7000 000/00 RMK AO2 T03440056
24044KAIA AIA20160610163510906/10/16 16:35:31  5-MIN KAIA 102335Z AUTO VRB03KT 10SM CLR 34/06 A2991 3950 16 7000 VRB/03 RMK AO2 T03440056
24044KAIA AIA20160610164010906/10/16 16:40:31  5-MIN KAIA 102340Z AUTO 11004KT 10SM CLR 33/09 A2991 3950 23 6900 110/04 RMK AO2 T03280094
24044KAIA AIA20160610164510906/10/16 16:45:31  5-MIN KAIA 102345Z AUTO 12003KT 10SM CLR 32/11 A2991 3950 26 6800 110/03 RMK AO2 T03220106
24044KAIA AIA20160610165013406/10/16 16:50:31  5-MIN KAIA 102350Z AUTO 12003KT 10SM CLR 32/11 A2991 3950 27 6800 110/03 RMK AO2 SLP084 T03220111 10356 20311 58007
24044KAIA AIA20160610165510906/10/16 16:55:31  5-MIN KAIA 102355Z AUTO 12003KT 10SM CLR 32/12 A2991 3950 29 6800 110/03 RMK AO2 T03220122
24044KAIA AIA20160610170010906/10/16 17:00:31  5-MIN KAIA 110000Z AUTO 13003KT 10SM CLR 32/12 A2991 3950 30 6700 120/03 RMK AO2 T03170122
24044KAIA AIA20160610170510906/10/16 17:05:31  5-MIN KAIA 110005Z AUTO 13004KT 10SM CLR 32/13 A2991 3950 31 6700 130/04 RMK AO2 T03170128
24044KAIA AIA20160610171010906/10/16 17:10:31  5-MIN KAIA 110010Z AUTO 15004KT 10SM CLR 31/14 A2990 3950 37 6600 140/04 RMK AO2 T03060144
24044KAIA AIA20160610171510906/10/16 17:15:31  5-MIN KAIA 110015Z AUTO 15004KT 10SM CLR 31/14 A2990 3950 37 6600 140/04 RMK AO2 T03060144
24044KAIA AIA20160610172010906/10/16 17:20:31  5-MIN KAIA 110020Z AUTO 15004KT 10SM CLR 31/16 A2990 3950 38 6700 140/04 RMK AO2 T03110156
24044KAIA AIA20160610172510906/10/16 17:25:31  5-MIN KAIA 110025Z AUTO 14003KT 10SM CLR 31/16 A2990 3950 38 6700 130/03 RMK AO2 T03110156
24044KAIA AIA20160610173010906/10/16 17:30:31  5-MIN KAIA 110030Z AUTO 13003KT 10SM CLR 32/16 A2990 3950 38 6700 120/03 RMK AO2 T03170161
24044KAIA AIA20160610173510906/10/16 17:35:31  5-MIN KAIA 110035Z AUTO 00000KT 10SM CLR 31/17 A2990 3950 42 6700 000/00 RMK AO2 T03110172
24044KAIA AIA20160610174010906/10/16 17:40:31  5-MIN KAIA 110040Z AUTO 06006KT 10SM CLR 31/17 A2990 3950 42 6600 050/06 RMK AO2 T03060167
24044KAIA AIA20160610174510906/10/16 17:45:31  5-MIN KAIA 110045Z AUTO 13008KT 10SM CLR 30/14 A2990 3960 36 6600 120/08 RMK AO2 T03000139
24044KAIA AIA20160610175011606/10/16 17:50:31  5-MIN KAIA 110050Z AUTO 13009KT 10SM CLR 28/13 A2990 3950 39 6400 120/09 RMK AO2 SLP078 T02830133
24044KAIA AIA20160610175510906/10/16 17:55:31  5-MIN KAIA 110055Z AUTO 12010KT 10SM CLR 29/12 A2990 3950 35 6400 110/10 RMK AO2 T02890122
24044KAIA AIA20160610180010906/10/16 18:00:31  5-MIN KAIA 110100Z AUTO 12008KT 10SM CLR 28/12 A2990 3950 36 6400 110/08 RMK AO2 T02830122
24044KAIA AIA20160610180510906/10/16 18:05:31  5-MIN KAIA 110105Z AUTO 13008KT 10SM CLR 28/13 A2990 3950 39 6300 120/08 RMK AO2 T02780128
24044KAIA AIA20160610181010906/10/16 18:10:31  5-MIN KAIA 110110Z AUTO 13007KT 10SM CLR 28/13 A2990 3950 40 6300 120/07 RMK AO2 T02780133
24044KAIA AIA20160610181510906/10/16 18:15:31  5-MIN KAIA 110115Z AUTO 11005KT 10SM CLR 28/13 A2990 3950 40 6300 100/05 RMK AO2 T02780133
24044KAIA AIA20160610182010906/10/16 18:20:31  5-MIN KAIA 110120Z AUTO 11006KT 10SM CLR 28/13 A2990 3950 39 6300 100/06 RMK AO2 T02780128
24044KAIA AIA20160610182510906/10/16 18:25:31  5-MIN KAIA 110125Z AUTO 10007KT 10SM CLR 28/12 A2990 3950 37 6300 090/07 RMK AO2 T02780122
24044KAIA AIA20160610183010906/10/16 18:30:31  5-MIN KAIA 110130Z AUTO 10008KT 10SM CLR 27/13 A2990 3950 41 6200 090/08 RMK AO2 T02670128
24044KAIA AIA20160610183510906/10/16 18:35:31  5-MIN KAIA 110135Z AUTO 10008KT 10SM CLR 27/13 A2991 3950 41 6200 090/08 RMK AO2 T02670128
24044KAIA AIA20160610184010906/10/16 18:40:31  5-MIN KAIA 110140Z AUTO 10008KT 10SM CLR 26/13 A2991 3940 43 6100 090/08 RMK AO2 T02610128
24044KAIA AIA20160610184510906/10/16 18:45:31  5-MIN KAIA 110145Z AUTO 10007KT 10SM CLR 26/13 A2991 3940 44 6100 100/07 RMK AO2 T02560128
24044KAIA AIA20160610185011606/10/16 18:50:31  5-MIN KAIA 110150Z AUTO 11007KT 10SM CLR 25/13 A2992 3940 46 6000 100/07 RMK AO2 SLP083 T02500128
24044KAIA AIA20160610185510906/10/16 18:55:31  5-MIN KAIA 110155Z AUTO 11007KT 10SM CLR 24/13 A2992 3930 47 5900 110/07 RMK AO2 T02440128
24044KAIA AIA20160610190010906/10/16 19:00:31  5-MIN KAIA 110200Z AUTO 12007KT 10SM CLR 24/13 A2992 3930 49 5900 110/07 RMK AO2 T02440133
24044KAIA AIA20160610190510906/10/16 19:05:31  5-MIN KAIA 110205Z AUTO 13008KT 10SM CLR 24/13 A2992 3930 47 5900 120/08 RMK AO2 T02440128
24044KAIA AIA20160610191010906/10/16 19:10:31  5-MIN KAIA 110210Z AUTO 12008KT 10SM CLR 24/13 A2993 3930 47 5900 110/08 RMK AO2 T02440128
24044KAIA AIA20160610191510906/10/16 19:15:31  5-MIN KAIA 110215Z AUTO 12009KT 10SM CLR 24/13 A2993 3930 47 5900 110/09 RMK AO2 T02440128
24044KAIA AIA20160610192010906/10/16 19:20:31  5-MIN KAIA 110220Z AUTO 12009KT 10SM CLR 24/12 A2993 3930 46 5900 120/09 RMK AO2 T02440122
24044KAIA AIA20160610192510906/10/16 19:25:31  5-MIN KAIA 110225Z AUTO 13007KT 10SM CLR 24/12 A2993 3920 47 5900 120/07 RMK AO2 T02390122
24044KAIA AIA20160610193010906/10/16 19:30:31  5-MIN KAIA 110230Z AUTO 13008KT 10SM CLR 23/12 A2993 3920 49 5800 120/08 RMK AO2 T02330122
24044KAIA AIA20160610193510906/10/16 19:35:31  5-MIN KAIA 110235Z AUTO 13010KT 10SM CLR 24/12 A2993 3920 46 5900 120/10 RMK AO2 T02390117
24044KAIA AIA20160610194010906/10/16 19:40:31  5-MIN KAIA 110240Z AUTO 13011KT 10SM CLR 26/11 A2994 3920 38 6000 120/11 RMK AO2 T02560106
24044KAIA AIA20160610194510906/10/16 19:45:31  5-MIN KAIA 110245Z AUTO 13011KT 10SM CLR 26/10 A2994 3920 37 6000 120/11 RMK AO2 T02560100
24044KAIA AIA20160610195012206/10/16 19:50:31  5-MIN KAIA 110250Z AUTO 14010KT 10SM CLR 26/11 A2994 3920 38 6000 130/10 RMK AO2 SLP087 T02560106 55007
24044KAIA AIA20160610195511506/10/16 19:55:31  5-MIN KAIA 110255Z AUTO 13019G23KT 10SM CLR 27/09 A2994 3910 33 6200 120/19G23 RMK AO2 T02670094
24044KAIA AIA20160610200011506/10/16 20:00:31  5-MIN KAIA 110300Z AUTO 13016G25KT 10SM CLR 27/09 A2995 3910 32 6200 120/16G25 RMK AO2 T02720094
24044KAIA AIA20160610200511506/10/16 20:05:31  5-MIN KAIA 110305Z AUTO 12015G25KT 10SM CLR 27/10 A2995 3900 34 6100 120/15G25 RMK AO2 T02670100
24044KAIA AIA20160610201010906/10/16 20:10:31  5-MIN KAIA 110310Z AUTO 13015KT 10SM CLR 27/11 A2996 3900 36 6100 120/15 RMK AO2 T02670106
24044KAIA AIA20160610201510906/10/16 20:15:31  5-MIN KAIA 110315Z AUTO 13012KT 10SM CLR 26/11 A2996 3900 37 6100 130/12 RMK AO2 T02610106
24044KAIA AIA20160610202010906/10/16 20:20:31  5-MIN KAIA 110320Z AUTO 14012KT 10SM CLR 26/11 A2996 3900 40 6000 130/12 RMK AO2 T02560111
24044KAIA AIA20160610202510906/10/16 20:25:31  5-MIN KAIA 110325Z AUTO 14011KT 10SM CLR 25/12 A2996 3900 43 6000 130/11 RMK AO2 T02500117
24044KAIA AIA20160610203010906/10/16 20:30:31  5-MIN KAIA 110330Z AUTO 14011KT 10SM CLR 25/12 A2996 3900 43 6000 130/11 RMK AO2 T02500117
24044KAIA AIA20160610203510906/10/16 20:35:31  5-MIN KAIA 110335Z AUTO 14011KT 10SM CLR 25/12 A2996 3900 43 6000 130/11 RMK AO2 T02500117
24044KAIA AIA20160610204010906/10/16 20:40:31  5-MIN KAIA 110340Z AUTO 14012KT 10SM CLR 25/12 A2996 3900 43 6000 130/12 RMK AO2 T02500117
24044KAIA AIA20160610204510906/10/16 20:45:31  5-MIN KAIA 110345Z AUTO 14011KT 10SM CLR 24/12 A2996 3900 44 5900 130/11 RMK AO2 T02440117
24044KAIA AIA20160610205011606/10/16 20:50:31  5-MIN KAIA 110350Z AUTO 15012KT 10SM CLR 24/12 A2996 3900 46 5900 140/12 RMK AO2 SLP090 T02440122
24044KAIA AIA20160610205510906/10/16 20:55:31  5-MIN KAIA 110355Z AUTO 14014KT 10SM CLR 24/12 A2996 3900 46 5900 140/14 RMK AO2 T02440122
24044KAIA AIA20160610210010906/10/16 21:00:31  5-MIN KAIA 110400Z AUTO 14014KT 10SM CLR 24/13 A2995 3900 47 5900 130/14 RMK AO2 T02440128
24044KAIA AIA20160610210512106/10/16 21:05:31  5-MIN KAIA 110405Z AUTO 14013KT 10SM CLR 24/13 A2995 3900 49 5800 130/13 RMK AO2 LTG DSNT SW T02390128
24044KAIA AIA20160610211012106/10/16 21:10:31  5-MIN KAIA 110410Z AUTO 14011KT 10SM CLR 23/13 A2995 3910 51 5800 130/11 RMK AO2 LTG DSNT SW T02330128
24044KAIA AIA20160610211512106/10/16 21:15:31  5-MIN KAIA 110415Z AUTO 14013KT 10SM CLR 23/13 A2995 3910 51 5800 140/13 RMK AO2 LTG DSNT SW T02330128
24044KAIA AIA20160610212010906/10/16 21:20:31  5-MIN KAIA 110420Z AUTO 15012KT 10SM CLR 23/13 A2995 3910 51 5800 140/12 RMK AO2 T02330128
24044KAIA AIA20160610212510906/10/16 21:25:31  5-MIN KAIA 110425Z AUTO 15011KT 10SM CLR 23/12 A2995 3900 49 5800 140/11 RMK AO2 T02330122
24044KAIA AIA20160610213010906/10/16 21:30:31  5-MIN KAIA 110430Z AUTO 14010KT 10SM CLR 23/12 A2996 3900 51 5700 140/10 RMK AO2 T02280122
24044KAIA AIA20160610213510906/10/16 21:35:31  5-MIN KAIA 110435Z AUTO 15011KT 10SM CLR 23/11 A2996 3900 47 5700 140/11 RMK AO2 T02280111
24044KAIA AIA20160610214010906/10/16 21:40:31  5-MIN KAIA 110440Z AUTO 15011KT 10SM CLR 23/11 A2996 3900 47 5700 140/11 RMK AO2 T02280111
24044KAIA AIA20160610214510906/10/16 21:45:31  5-MIN KAIA 110445Z AUTO 15009KT 10SM CLR 23/11 A2996 3900 47 5700 140/09 RMK AO2 T02280111
24044KAIA AIA20160610215011606/10/16 21:50:31  5-MIN KAIA 110450Z AUTO 16008KT 10SM CLR 22/11 A2996 3900 49 5600 150/08 RMK AO2 SLP094 T02220111
24044KAIA AIA20160610215510906/10/16 21:55:31  5-MIN KAIA 110455Z AUTO 16010KT 10SM CLR 22/11 A2996 3900 49 5600 150/10 RMK AO2 T02220111
24044KAIA AIA20160610220010906/10/16 22:00:31  5-MIN KAIA 110500Z AUTO 16009KT 10SM CLR 22/11 A2996 3900 49 5600 150/09 RMK AO2 T02220111
24044KAIA AIA20160610220510906/10/16 22:05:31  5-MIN KAIA 110505Z AUTO 16009KT 10SM CLR 22/11 A2996 3900 47 5600 150/09 RMK AO2 T02220106
24044KAIA AIA20160610221010906/10/16 22:10:31  5-MIN KAIA 110510Z AUTO 16010KT 10SM CLR 22/11 A2996 3900 47 5600 150/10 RMK AO2 T02220106
24044KAIA AIA20160610221510906/10/16 22:15:31  5-MIN KAIA 110515Z AUTO 16010KT 10SM CLR 22/11 A2996 3900 47 5600 160/10 RMK AO2 T02220106
24044KAIA AIA20160610222010906/10/16 22:20:31  5-MIN KAIA 110520Z AUTO 17009KT 10SM CLR 22/11 A2997 3890 47 5600 160/09 RMK AO2 T02220106
24044KAIA AIA20160610222510906/10/16 22:25:31  5-MIN KAIA 110525Z AUTO 19010KT 10SM CLR 23/11 A2998 3880 45 5700 180/10 RMK AO2 T02280106
24044KAIA AIA20160610223010906/10/16 22:30:31  5-MIN KAIA 110530Z AUTO 21009KT 10SM CLR 23/10 A2998 3880 44 5700 210/09 RMK AO2 T02280100
24044KAIA AIA20160610223510906/10/16 22:35:31  5-MIN KAIA 110535Z AUTO 21010KT 10SM CLR 23/10 A2998 3880 44 5700 200/10 RMK AO2 T02280100
24044KAIA AIA20160610224010906/10/16 22:40:31  5-MIN KAIA 110540Z AUTO 18009KT 10SM CLR 23/09 A2998 3880 42 5700 170/09 RMK AO2 T02280094
24044KAIA AIA20160610224510906/10/16 22:45:31  5-MIN KAIA 110545Z AUTO 20012KT 10SM CLR 23/09 A2999 3870 41 5700 200/12 RMK AO2 T02330094
24044KAIA AIA20160610225013406/10/16 22:50:31  5-MIN KAIA 110550Z AUTO 20011KT 10SM CLR 23/09 A2998 3880 41 5700 190/11 RMK AO2 SLP099 T02330094 10322 20217 53011
24044KAIA AIA20160610225510906/10/16 22:55:31  5-MIN KAIA 110555Z AUTO 19010KT 10SM CLR 24/09 A2998 3880 39 5800 180/10 RMK AO2 T02390094
24044KAIA AIA20160610230010906/10/16 23:00:31  5-MIN KAIA 110600Z AUTO 20009KT 10SM CLR 24/09 A2998 3880 39 5800 190/09 RMK AO2 T02390094
24044KAIA AIA20160610230510906/10/16 23:05:31  5-MIN KAIA 110605Z AUTO 19011KT 10SM CLR 24/10 A2998 3880 41 5800 180/11 RMK AO2 T02390100
24044KAIA AIA20160610231010906/10/16 23:10:31  5-MIN KAIA 110610Z AUTO 19011KT 10SM CLR 24/10 A2998 3880 41 5800 180/11 RMK AO2 T02390100
24044KAIA AIA20160610231510906/10/16 23:15:31  5-MIN KAIA 110615Z AUTO 19011KT 10SM CLR 24/10 A2998 3880 41 5800 180/11 RMK AO2 T02390100
24044KAIA AIA20160610232010906/10/16 23:20:31  5-MIN KAIA 110620Z AUTO 19012KT 10SM CLR 24/11 A2998 3880 42 5800 180/12 RMK AO2 T02390106
24044KAIA AIA20160610232510906/10/16 23:25:31  5-MIN KAIA 110625Z AUTO 19014KT 10SM CLR 24/11 A2998 3880 42 5800 180/14 RMK AO2 T02390106
24044KAIA AIA20160610233010906/10/16 23:30:31  5-MIN KAIA 110630Z AUTO 18014KT 10SM CLR 24/11 A2998 3880 41 5900 170/14 RMK AO2 T02440106
24044KAIA AIA20160610233510906/10/16 23:35:31  5-MIN KAIA 110635Z AUTO 18013KT 10SM CLR 24/11 A2998 3880 41 5900 170/13 RMK AO2 T02440106
24044KAIA AIA20160610234010906/10/16 23:40:31  5-MIN KAIA 110640Z AUTO 18011KT 10SM CLR 24/11 A2998 3880 44 5800 170/11 RMK AO2 T02390111
24044KAIA AIA20160610234510906/10/16 23:45:31  5-MIN KAIA 110645Z AUTO 18012KT 10SM CLR 24/11 A2997 3880 44 5800 170/12 RMK AO2 T02390111
24044KAIA AIA20160610235012606/10/16 23:50:31  5-MIN KAIA 110650Z AUTO 17014KT 10SM CLR 24/11 A2997 3890 42 5900 160/14 RMK AO2 SLP090 T02440111 403560100
24044KAIA AIA20160610235510906/10/16 23:55:31  5-MIN KAIA 110655Z AUTO 17014KT 10SM CLR 25/12 A2997 3890 43 5900 160/14 RMK AO2 T02500117
24044KAIA AIA20160611000010906/11/16 00:00:31  5-MIN KAIA 110700Z AUTO 17014KT 10SM CLR 25/12 A2996 3900 43 6000 160/14 RMK AO2 T02500117
24044KAIA AIA20160611000510906/11/16 00:05:31  5-MIN KAIA 110705Z AUTO 17014KT 10SM CLR 25/12 A2996 3900 43 6000 160/14 RMK AO2 T02500117
24044KAIA AIA20160611001011506/11/16 00:10:31  5-MIN KAIA 110710Z AUTO 16013G21KT 10SM CLR 24/12 A2996 3900 46 5900 150/13G21 RMK AO2 T02440122
24044KAIA AIA20160611001510906/11/16 00:15:31  5-MIN KAIA 110715Z AUTO 17012KT 10SM CLR 24/12 A2995 3900 46 5900 160/12 RMK AO2 T02440122
24044KAIA AIA20160611002010906/11/16 00:20:31  5-MIN KAIA 110720Z AUTO 17010KT 10SM CLR 24/12 A2995 3910 46 5900 160/10 RMK AO2 T02440122
24044KAIA AIA20160611002510906/11/16 00:25:31  5-MIN KAIA 110725Z AUTO 17009KT 10SM CLR 24/12 A2995 3910 47 5800 160/09 RMK AO2 T02390122
24044KAIA AIA20160611003010906/11/16 00:30:31  5-MIN KAIA 110730Z AUTO 18009KT 10SM CLR 24/12 A2995 3910 47 5800 170/09 RMK AO2 T02390122
24044KAIA AIA20160611003510906/11/16 00:35:31  5-MIN KAIA 110735Z AUTO 18009KT 10SM CLR 23/12 A2995 3910 49 5800 170/09 RMK AO2 T02330122
24044KAIA AIA20160611004010906/11/16 00:40:31  5-MIN KAIA 110740Z AUTO 17007KT 10SM CLR 23/12 A2995 3910 49 5800 160/07 RMK AO2 T02330122
24044KAIA AIA20160611004510906/11/16 00:45:31  5-MIN KAIA 110745Z AUTO 16007KT 10SM CLR 23/13 A2995 3910 53 5700 160/07 RMK AO2 T02280128
24044KAIA AIA20160611005011606/11/16 00:50:31  5-MIN KAIA 110750Z AUTO 15007KT 10SM CLR 22/13 A2995 3910 54 5700 150/07 RMK AO2 SLP084 T02220128
24044KAIA AIA20160611005510906/11/16 00:55:31  5-MIN KAIA 110755Z AUTO 15008KT 10SM CLR 22/13 A2994 3910 54 5700 140/08 RMK AO2 T02220128
24044KAIA AIA20160611010010906/11/16 01:00:31  5-MIN KAIA 110800Z AUTO 13007KT 10SM CLR 22/13 A2994 3910 58 5600 120/07 RMK AO2 T02170133
24044KAIA AIA20160611010510906/11/16 01:05:31  5-MIN KAIA 110805Z AUTO 14005KT 10SM CLR 21/13 A2994 3910 61 5500 130/05 RMK AO2 T02110133
24044KAIA AIA20160611011010906/11/16 01:10:31  5-MIN KAIA 110810Z AUTO 00000KT 10SM CLR 21/13 A2994 3920 61 5500 000/00 RMK AO2 T02110133
24044KAIA AIA20160611011510906/11/16 01:15:31  5-MIN KAIA 110815Z AUTO 00000KT 10SM CLR 21/13 A2994 3920 61 5600 000/00 RMK AO2 T02110133
24044KAIA AIA20160611012010906/11/16 01:20:31  5-MIN KAIA 110820Z AUTO 00000KT 10SM CLR 21/13 A2994 3920 61 5600 000/00 RMK AO2 T02110133
24044KAIA AIA20160611012510906/11/16 01:25:31  5-MIN KAIA 110825Z AUTO 00000KT 10SM CLR 21/13 A2993 3920 61 5600 000/00 RMK AO2 T02110133
24044KAIA AIA20160611013010906/11/16 01:30:31  5-MIN KAIA 110830Z AUTO 18005KT 10SM CLR 21/13 A2994 3920 63 5500 170/05 RMK AO2 T02060133
24044KAIA AIA20160611013510906/11/16 01:35:31  5-MIN KAIA 110835Z AUTO 18007KT 10SM CLR 20/13 A2994 3920 65 5400 170/07 RMK AO2 T02000133
24044KAIA AIA20160611014010906/11/16 01:40:31  5-MIN KAIA 110840Z AUTO 18005KT 10SM CLR 20/13 A2993 3930 65 5400 170/05 RMK AO2 T02000133
24044KAIA AIA20160611014510906/11/16 01:45:31  5-MIN KAIA 110845Z AUTO 17005KT 10SM CLR 21/13 A2993 3930 63 5500 160/05 RMK AO2 T02060133
24044KAIA AIA20160611015012206/11/16 01:50:31  5-MIN KAIA 110850Z AUTO 16005KT 10SM CLR 20/13 A2992 3930 65 5400 150/05 RMK AO2 SLP077 T02000133 53011
24044KAIA AIA20160611015510906/11/16 01:55:31  5-MIN KAIA 110855Z AUTO 14005KT 10SM CLR 20/13 A2992 3930 65 5400 130/05 RMK AO2 T02000133
24044KAIA AIA20160611020010906/11/16 02:00:31  5-MIN KAIA 110900Z AUTO 13005KT 10SM CLR 19/13 A2992 3940 70 5300 130/05 RMK AO2 T01890133
24044KAIA AIA20160611020510906/11/16 02:05:31  5-MIN KAIA 110905Z AUTO 13009KT 10SM CLR 19/13 A2992 3930 70 5300 130/09 RMK AO2 T01890133
24044KAIA AIA20160611021010906/11/16 02:10:31  5-MIN KAIA 110910Z AUTO 14008KT 10SM CLR 18/13 A2992 3930 72 5300 130/08 RMK AO2 T01830133
24044KAIA AIA20160611021510906/11/16 02:15:31  5-MIN KAIA 110915Z AUTO 14007KT 10SM CLR 19/13 A2992 3930 70 5300 130/07 RMK AO2 T01890133
24044KAIA AIA20160611022010906/11/16 02:20:31  5-MIN KAIA 110920Z AUTO 15005KT 10SM CLR 19/13 A2992 3930 65 5400 140/05 RMK AO2 T01940128
24044KAIA AIA20160611022510906/11/16 02:25:31  5-MIN KAIA 110925Z AUTO 14004KT 10SM CLR 19/13 A2992 3930 65 5400 130/04 RMK AO2 T01940128
24044KAIA AIA20160611023010906/11/16 02:30:31  5-MIN KAIA 110930Z AUTO 13003KT 10SM CLR 19/13 A2992 3930 65 5400 120/03 RMK AO2 T01940128
24044KAIA AIA20160611023510906/11/16 02:35:31  5-MIN KAIA 110935Z AUTO 12003KT 10SM CLR 21/12 A2992 3930 56 5500 120/03 RMK AO2 T02060117
24044KAIA AIA20160611024010906/11/16 02:40:31  5-MIN KAIA 110940Z AUTO 09003KT 10SM CLR 21/12 A2992 3930 56 5500 080/03 RMK AO2 T02060117
24044KAIA AIA20160611024510906/11/16 02:45:31  5-MIN KAIA 110945Z AUTO 10003KT 10SM CLR 21/12 A2992 3930 56 5500 090/03 RMK AO2 T02060117
24044KAIA AIA20160611025011606/11/16 02:50:31  5-MIN KAIA 110950Z AUTO 09006KT 10SM CLR 20/12 A2992 3930 58 5400 090/06 RMK AO2 SLP076 T02000117
24044KAIA AIA20160611025510906/11/16 02:55:31  5-MIN KAIA 110955Z AUTO 09006KT 10SM CLR 19/12 A2992 3930 62 5400 080/06 RMK AO2 T01940122
24044KAIA AIA20160611030010906/11/16 03:00:31  5-MIN KAIA 111000Z AUTO 11007KT 10SM CLR 19/12 A2993 3930 62 5400 100/07 RMK AO2 T01940122
24044KAIA AIA20160611030510906/11/16 03:05:31  5-MIN KAIA 111005Z AUTO 12006KT 10SM CLR 19/13 A2993 3930 67 5300 110/06 RMK AO2 T01890128
24044KAIA AIA20160611031010906/11/16 03:10:31  5-MIN KAIA 111010Z AUTO 12007KT 10SM CLR 18/13 A2993 3920 70 5200 110/07 RMK AO2 T01830128
24044KAIA AIA20160611031510906/11/16 03:15:31  5-MIN KAIA 111015Z AUTO 14005KT 10SM CLR 19/13 A2993 3920 67 5300 130/05 RMK AO2 T01890128
24044KAIA AIA20160611032010906/11/16 03:20:31  5-MIN KAIA 111020Z AUTO 13005KT 10SM CLR 19/13 A2993 3920 65 5400 120/05 RMK AO2 T01940128
24044KAIA AIA20160611032510906/11/16 03:25:31  5-MIN KAIA 111025Z AUTO 15003KT 10SM CLR 19/13 A2993 3920 65 5400 150/03 RMK AO2 T01940128
24044KAIA AIA20160611033010906/11/16 03:30:31  5-MIN KAIA 111030Z AUTO 13003KT 10SM CLR 18/12 A2993 3930 69 5200 120/03 RMK AO2 T01780122
24044KAIA AIA20160611033510906/11/16 03:35:31  5-MIN KAIA 111035Z AUTO 13003KT 10SM CLR 19/13 A2993 3920 67 5300 120/03 RMK AO2 T01890128
24044KAIA AIA20160611034010906/11/16 03:40:31  5-MIN KAIA 111040Z AUTO 08004KT 10SM CLR 17/12 A2993 3930 75 5100 070/04 RMK AO2 T01670122
24044KAIA AIA20160611034510906/11/16 03:45:31  5-MIN KAIA 111045Z AUTO 15003KT 10SM CLR 17/13 A2993 3920 77 5100 140/03 RMK AO2 T01670128
24044KAIA AIA20160611035011606/11/16 03:50:31  5-MIN KAIA 111050Z AUTO 12005KT 10SM CLR 18/13 A2993 3930 70 5200 110/05 RMK AO2 SLP080 T01830128
24044KAIA AIA20160611035510906/11/16 03:55:31  5-MIN KAIA 111055Z AUTO 13006KT 10SM CLR 18/13 A2993 3930 70 5200 120/06 RMK AO2 T01830128
24044KAIA AIA20160611040010906/11/16 04:00:31  5-MIN KAIA 111100Z AUTO 13006KT 10SM CLR 19/13 A2993 3930 67 5300 120/06 RMK AO2 T01890128
24044KAIA AIA20160611040510906/11/16 04:05:31  5-MIN KAIA 111105Z AUTO 17006KT 10SM CLR 18/13 A2993 3920 70 5200 160/06 RMK AO2 T01830128
24044KAIA AIA20160611041010906/11/16 04:10:31  5-MIN KAIA 111110Z AUTO VRB03KT 10SM CLR 17/13 A2993 3920 75 5100 VRB/03 RMK AO2 T01720128
24044KAIA AIA20160611041510906/11/16 04:15:31  5-MIN KAIA 111115Z AUTO 00000KT 10SM CLR 16/13 A2993 3920 80 5000 000/00 RMK AO2 T01610128
24044KAIA AIA20160611042010906/11/16 04:20:31  5-MIN KAIA 111120Z AUTO 00000KT 10SM CLR 18/13 A2993 3920 72 5200 000/00 RMK AO2 T01780128
24044KAIA AIA20160611042510906/11/16 04:25:31  5-MIN KAIA 111125Z AUTO 00000KT 10SM CLR 18/13 A2993 3920 72 5200 000/00 RMK AO2 T01780128
24044KAIA AIA20160611043010906/11/16 04:30:31  5-MIN KAIA 111130Z AUTO 11003KT 10SM CLR 18/13 A2993 3920 72 5200 110/03 RMK AO2 T01780128
24044KAIA AIA20160611043510906/11/16 04:35:31  5-MIN KAIA 111135Z AUTO 12005KT 10SM CLR 18/13 A2993 3920 72 5200 110/05 RMK AO2 T01780128
24044KAIA AIA20160611044010906/11/16 04:40:31  5-MIN KAIA 111140Z AUTO 11005KT 10SM CLR 19/13 A2993 3920 67 5300 110/05 RMK AO2 T01890128
24044KAIA AIA20160611044510906/11/16 04:45:31  5-MIN KAIA 111145Z AUTO 11006KT 10SM CLR 18/13 A2993 3920 72 5200 100/06 RMK AO2 T01830133
24044KAIA AIA20160611045013406/11/16 04:50:31  5-MIN KAIA 111150Z AUTO 13005KT 10SM CLR 19/13 A2993 3920 67 5300 130/05 RMK AO2 SLP084 T01890128 10250 20161 58018
24044KAIA AIA20160611045510906/11/16 04:55:31  5-MIN KAIA 111155Z AUTO 13005KT 10SM CLR 19/13 A2993 3920 70 5300 120/05 RMK AO2 T01890133
24044KAIA AIA20160611050010906/11/16 05:00:31  5-MIN KAIA 111200Z AUTO 11007KT 10SM CLR 19/13 A2993 3920 65 5400 100/07 RMK AO2 T01940128
24044KAIA AIA20160611050510906/11/16 05:05:31  5-MIN KAIA 111205Z AUTO 12005KT 10SM CLR 21/13 A2993 3920 63 5500 120/05 RMK AO2 T02060133
24044KAIA AIA20160611051010906/11/16 05:10:31  5-MIN KAIA 111210Z AUTO 14005KT 10SM CLR 21/13 A2994 3920 61 5600 130/05 RMK AO2 T02110133
24044KAIA AIA20160611051510906/11/16 05:15:31  5-MIN KAIA 111215Z AUTO 18004KT 10SM CLR 22/13 A2994 3920 56 5700 170/04 RMK AO2 T02220133
24044KAIA AIA20160611052010906/11/16 05:20:31  5-MIN KAIA 111220Z AUTO 16005KT 10SM CLR 22/13 A2993 3920 56 5700 160/05 RMK AO2 T02220133
24044KAIA AIA20160611052510906/11/16 05:25:31  5-MIN KAIA 111225Z AUTO 14008KT 10SM CLR 22/13 A2994 3920 54 5700 130/08 RMK AO2 T02220128
24044KAIA AIA20160611151510906/11/16 15:15:31  5-MIN KAIA 112215Z AUTO 16014KT 10SM CLR 35/09 A2989 3960 19 7100 150/14 RMK AO2 T03500089
24044KAIA AIA20160611152011506/11/16 15:20:31  5-MIN KAIA 112220Z AUTO 14019G25KT 10SM CLR 34/08 A2989 3960 19 7000 130/19G25 RMK AO2 T03440078
24044KAIA AIA20160611152511506/11/16 15:25:31  5-MIN KAIA 112225Z AUTO 14017G25KT 10SM CLR 34/08 A2989 3960 19 7100 130/17G25 RMK AO2 T03440083
24044KAIA AIA20160611153011506/11/16 15:30:31  5-MIN KAIA 112230Z AUTO 14016G25KT 10SM CLR 34/09 A2989 3970 20 7100 130/16G25 RMK AO2 T03440089
24044KAIA AIA20160611153511506/11/16 15:35:31  5-MIN KAIA 112235Z AUTO 15019G25KT 10SM CLR 34/09 A2989 3970 21 7100 140/19G25 RMK AO2 T03440094
24044KAIA AIA20160611154010906/11/16 15:40:31  5-MIN KAIA 112240Z AUTO 14017KT 10SM CLR 34/09 A2989 3970 20 7100 130/17 RMK AO2 T03440089
24044KAIA AIA20160611154511506/11/16 15:45:31  5-MIN KAIA 112245Z AUTO 15016G23KT 10SM CLR 34/09 A2988 3970 22 7000 140/16G23 RMK AO2 T03390094
24044KAIA AIA20160611155012206/11/16 15:50:31  5-MIN KAIA 112250Z AUTO 16016G23KT 10SM CLR 34/10 A2988 3970 22 7000 150/16G23 RMK AO2 SLP065 T03390100
24044KAIA AIA20160611155511506/11/16 15:55:31  5-MIN KAIA 112255Z AUTO 17018G24KT 10SM CLR 34/09 A2988 3970 22 7000 160/18G24 RMK AO2 T03390094
24044KAIA AIA20160611160011506/11/16 16:00:31  5-MIN KAIA 112300Z AUTO 14015G24KT 10SM CLR 34/11 A2988 3970 23 7000 140/15G24 RMK AO2 T03390106
24044KAIA AIA20160611160511506/11/16 16:05:31  5-MIN KAIA 112305Z AUTO 15019G23KT 10SM CLR 34/11 A2988 3970 23 7000 140/19G23 RMK AO2 T03390106
24044KAIA AIA20160611161011506/11/16 16:10:31  5-MIN KAIA 112310Z AUTO 14017G23KT 10SM CLR 33/10 A2988 3970 23 6900 130/17G23 RMK AO2 T03330100
24044KAIA AIA20160611161511506/11/16 16:15:31  5-MIN KAIA 112315Z AUTO 16016G21KT 10SM CLR 33/11 A2988 3970 25 6900 160/16G21 RMK AO2 T03330111
24044KAIA AIA20160611162011506/11/16 16:20:31  5-MIN KAIA 112320Z AUTO 17015G21KT 10SM CLR 33/11 A2988 3970 24 6900 160/15G21 RMK AO2 T03330106
24044KAIA AIA20160611162510906/11/16 16:25:31  5-MIN KAIA 112325Z AUTO 16015KT 10SM CLR 33/11 A2988 3980 24 6900 150/15 RMK AO2 T03330106
24044KAIA AIA20160611163011506/11/16 16:30:31  5-MIN KAIA 112330Z AUTO 16017G22KT 10SM CLR 33/10 A2987 3980 24 6900 150/17G22 RMK AO2 T03280100
24044KAIA AIA20160611163511506/11/16 16:35:31  5-MIN KAIA 112335Z AUTO 16015G22KT 10SM CLR 32/11 A2987 3980 26 6800 150/15G22 RMK AO2 T03220106
24044KAIA AIA20160611164010906/11/16 16:40:31  5-MIN KAIA 112340Z AUTO 16014KT 10SM CLR 32/12 A2987 3980 28 6800 150/14 RMK AO2 T03220117
24044KAIA AIA20160611164510906/11/16 16:45:31  5-MIN KAIA 112345Z AUTO 15015KT 10SM CLR 32/12 A2987 3980 28 6800 150/15 RMK AO2 T03220117
24044KAIA AIA20160611165014006/11/16 16:50:31  5-MIN KAIA 112350Z AUTO 16015KT 10SM CLR 32/12 A2987 3980 28 6800 150/15 RMK AO2 SLP064 60000 T03220117 10356 20322 56012
24044KAIA AIA20160611165510906/11/16 16:55:31  5-MIN KAIA 112355Z AUTO 16015KT 10SM CLR 32/12 A2987 3980 29 6800 150/15 RMK AO2 T03170117
24044KAIA AIA20160611170010906/11/16 17:00:31  5-MIN KAIA 120000Z AUTO 16014KT 10SM CLR 32/11 A2987 3980 27 6800 150/14 RMK AO2 T03170111
24044KAIA AIA20160611170510906/11/16 17:05:31  5-MIN KAIA 120005Z AUTO 16015KT 10SM CLR 32/12 A2987 3980 29 6800 150/15 RMK AO2 T03170117
24044KAIA AIA20160611171010906/11/16 17:10:31  5-MIN KAIA 120010Z AUTO 16013KT 10SM CLR 31/11 A2987 3980 28 6700 150/13 RMK AO2 T03110111
24044KAIA AIA20160611171510906/11/16 17:15:31  5-MIN KAIA 120015Z AUTO 16013KT 10SM CLR 31/11 A2987 3980 28 6700 150/13 RMK AO2 T03110111
24044KAIA AIA20160611172010906/11/16 17:20:31  5-MIN KAIA 120020Z AUTO 16011KT 10SM CLR 31/12 A2987 3980 29 6700 150/11 RMK AO2 T03110117
24044KAIA AIA20160611172510906/11/16 17:25:31  5-MIN KAIA 120025Z AUTO 15012KT 10SM CLR 31/12 A2987 3980 29 6700 150/12 RMK AO2 T03110117
24044KAIA AIA20160611173010906/11/16 17:30:31  5-MIN KAIA 120030Z AUTO 15011KT 10SM CLR 31/12 A2987 3980 31 6700 140/11 RMK AO2 T03110122
24044KAIA AIA20160611173510906/11/16 17:35:31  5-MIN KAIA 120035Z AUTO 15012KT 10SM CLR 31/13 A2987 3980 32 6700 150/12 RMK AO2 T03110128
24044KAIA AIA20160611174010906/11/16 17:40:31  5-MIN KAIA 120040Z AUTO 16013KT 10SM CLR 31/13 A2987 3980 32 6700 150/13 RMK AO2 T03110128
24044KAIA AIA20160611174510906/11/16 17:45:31  5-MIN KAIA 120045Z AUTO 15010KT 10SM CLR 31/13 A2987 3980 33 6700 140/10 RMK AO2 T03110133
24044KAIA AIA20160611175011606/11/16 17:50:31  5-MIN KAIA 120050Z AUTO 15012KT 10SM CLR 32/13 A2987 3980 31 6800 150/12 RMK AO2 SLP060 T03170128
24044KAIA AIA20160611175510906/11/16 17:55:31  5-MIN KAIA 120055Z AUTO 15011KT 10SM CLR 31/13 A2987 3980 32 6700 140/11 RMK AO2 T03110128
24044KAIA AIA20160611180010906/11/16 18:00:31  5-MIN KAIA 120100Z AUTO 15011KT 10SM CLR 32/13 A2987 3980 31 6800 140/11 RMK AO2 T03170128
24044KAIA AIA20160611180510906/11/16 18:05:31  5-MIN KAIA 120105Z AUTO 15014KT 10SM CLR 31/12 A2987 3980 31 6700 150/14 RMK AO2 T03110122
24044KAIA AIA20160611181010906/11/16 18:10:31  5-MIN KAIA 120110Z AUTO 15012KT 10SM CLR 31/13 A2987 3980 32 6700 150/12 RMK AO2 T03110128
24044KAIA AIA20160611181510906/11/16 18:15:31  5-MIN KAIA 120115Z AUTO 16013KT 10SM CLR 31/13 A2988 3980 33 6700 150/13 RMK AO2 T03060128
24044KAIA AIA20160611182010906/11/16 18:20:31  5-MIN KAIA 120120Z AUTO 15012KT 10SM CLR 30/13 A2988 3970 34 6600 140/12 RMK AO2 T03000128
24044KAIA AIA20160611182510906/11/16 18:25:31  5-MIN KAIA 120125Z AUTO 16011KT 10SM CLR 29/13 A2988 3970 35 6500 150/11 RMK AO2 T02940128
24044KAIA AIA20160611183010906/11/16 18:30:31  5-MIN KAIA 120130Z AUTO 16011KT 10SM CLR 29/13 A2988 3970 36 6500 150/11 RMK AO2 T02890128
24044KAIA AIA20160611183510906/11/16 18:35:31  5-MIN KAIA 120135Z AUTO 16011KT 10SM CLR 29/13 A2989 3970 38 6500 150/11 RMK AO2 T02890133
24044KAIA AIA20160611184010906/11/16 18:40:31  5-MIN KAIA 120140Z AUTO 16010KT 10SM CLR 29/13 A2989 3960 38 6500 150/10 RMK AO2 T02890133
24044KAIA AIA20160611184510906/11/16 18:45:31  5-MIN KAIA 120145Z AUTO 15010KT 10SM CLR 28/14 A2989 3960 40 6400 150/10 RMK AO2 T02830139
24044KAIA AIA20160611185011606/11/16 18:50:31  5-MIN KAIA 120150Z AUTO 15009KT 10SM CLR 28/14 A2989 3960 42 6300 140/09 RMK AO2 SLP068 T02780139
24044KAIA AIA20160611185510906/11/16 18:55:31  5-MIN KAIA 120155Z AUTO 15009KT 10SM CLR 28/14 A2989 3960 42 6300 140/09 RMK AO2 T02780139
24044KAIA AIA20160611190010906/11/16 19:00:31  5-MIN KAIA 120200Z AUTO 15009KT 10SM CLR 27/14 A2989 3960 43 6300 140/09 RMK AO2 T02720139
24044KAIA AIA20160611190510906/11/16 19:05:31  5-MIN KAIA 120205Z AUTO 15009KT 10SM CLR 27/14 A2990 3960 43 6300 140/09 RMK AO2 T02720139
24044KAIA AIA20160611191010906/11/16 19:10:31  5-MIN KAIA 120210Z AUTO 15009KT 10SM CLR 27/14 A2990 3960 45 6200 140/09 RMK AO2 T02670139
24044KAIA AIA20160611191510906/11/16 19:15:31  5-MIN KAIA 120215Z AUTO 15008KT 10SM CLR 27/14 A2990 3960 46 6200 140/08 RMK AO2 T02670144
24044KAIA AIA20160611192010906/11/16 19:20:31  5-MIN KAIA 120220Z AUTO 15008KT 10SM CLR 26/14 A2990 3960 49 6100 140/08 RMK AO2 T02560144
24044KAIA AIA20160611192510906/11/16 19:25:31  5-MIN KAIA 120225Z AUTO 15007KT 10SM CLR 25/14 A2990 3960 51 6000 140/07 RMK AO2 T02500144
24044KAIA AIA20160611193010906/11/16 19:30:31  5-MIN KAIA 120230Z AUTO 15008KT 10SM CLR 25/14 A2990 3960 51 6000 140/08 RMK AO2 T02500144
24044KAIA AIA20160611193510906/11/16 19:35:31  5-MIN KAIA 120235Z AUTO 15008KT 10SM CLR 24/15 A2990 3950 55 6000 140/08 RMK AO2 T02440150
24044KAIA AIA20160611194010906/11/16 19:40:31  5-MIN KAIA 120240Z AUTO 16009KT 10SM CLR 25/15 A2990 3950 53 6000 150/09 RMK AO2 T02500150
24044KAIA AIA20160611194510906/11/16 19:45:31  5-MIN KAIA 120245Z AUTO 15011KT 10SM CLR 26/14 A2990 3950 48 6100 150/11 RMK AO2 T02610144
24044KAIA AIA20160611195012206/11/16 19:50:31  5-MIN KAIA 120250Z AUTO 16012KT 10SM CLR 27/14 A2990 3950 46 6200 150/12 RMK AO2 SLP069 T02670144 56013
24044KAIA AIA20160611195510906/11/16 19:55:31  5-MIN KAIA 120255Z AUTO 16012KT 10SM CLR 27/14 A2990 3950 46 6200 150/12 RMK AO2 T02670144
24044KAIA AIA20160611200010906/11/16 20:00:31  5-MIN KAIA 120300Z AUTO 16011KT 10SM CLR 27/14 A2990 3950 46 6200 150/11 RMK AO2 T02670144
24044KAIA AIA20160611200510906/11/16 20:05:31  5-MIN KAIA 120305Z AUTO 16010KT 10SM CLR 26/14 A2990 3950 48 6100 150/10 RMK AO2 T02610144
24044KAIA AIA20160611201010906/11/16 20:10:31  5-MIN KAIA 120310Z AUTO 16011KT 10SM CLR 26/14 A2991 3950 48 6100 150/11 RMK AO2 T02610144
24044KAIA AIA20160611201510906/11/16 20:15:31  5-MIN KAIA 120315Z AUTO 16011KT 10SM CLR 26/14 A2991 3940 48 6100 150/11 RMK AO2 T02610144
24044KAIA AIA20160611202010906/11/16 20:20:31  5-MIN KAIA 120320Z AUTO 16011KT 10SM CLR 26/14 A2992 3940 48 6100 150/11 RMK AO2 T02610144
24044KAIA AIA20160611202510906/11/16 20:25:31  5-MIN KAIA 120325Z AUTO 16011KT 10SM CLR 26/14 A2992 3930 48 6100 150/11 RMK AO2 T02610144
24044KAIA AIA20160611203010906/11/16 20:30:31  5-MIN KAIA 120330Z AUTO 16011KT 10SM CLR 26/14 A2993 3930 49 6100 150/11 RMK AO2 T02560144
24044KAIA AIA20160611203510906/11/16 20:35:31  5-MIN KAIA 120335Z AUTO 16010KT 10SM CLR 26/14 A2993 3930 49 6100 150/10 RMK AO2 T02560144
24044KAIA AIA20160611204010906/11/16 20:40:31  5-MIN KAIA 120340Z AUTO 16011KT 10SM CLR 26/14 A2993 3930 49 6100 150/11 RMK AO2 T02560144
24044KAIA AIA20160611204510906/11/16 20:45:31  5-MIN KAIA 120345Z AUTO 15010KT 10SM CLR 26/14 A2993 3920 49 6000 150/10 RMK AO2 T02560144
24044KAIA AIA20160611205011606/11/16 20:50:31  5-MIN KAIA 120350Z AUTO 15010KT 10SM CLR 25/15 A2993 3920 53 6000 150/10 RMK AO2 SLP078 T02500150
24044KAIA AIA20160611205510906/11/16 20:55:31  5-MIN KAIA 120355Z AUTO 15010KT 10SM CLR 24/15 A2993 3920 55 5900 140/10 RMK AO2 T02440150
24044KAIA AIA20160611210010906/11/16 21:00:31  5-MIN KAIA 120400Z AUTO 15012KT 10SM CLR 25/15 A2993 3920 53 6000 150/12 RMK AO2 T02500150
24044KAIA AIA20160611210510906/11/16 21:05:31  5-MIN KAIA 120405Z AUTO 15013KT 10SM CLR 25/15 A2993 3920 53 6000 150/13 RMK AO2 T02500150
24044KAIA AIA20160611211010906/11/16 21:10:31  5-MIN KAIA 120410Z AUTO 15012KT 10SM CLR 25/15 A2994 3920 53 6000 150/12 RMK AO2 T02500150
24044KAIA AIA20160611211510906/11/16 21:15:31  5-MIN KAIA 120415Z AUTO 16014KT 10SM CLR 25/15 A2994 3920 53 6000 150/14 RMK AO2 T02500150
24044KAIA AIA20160611212010906/11/16 21:20:31  5-MIN KAIA 120420Z AUTO 15015KT 10SM CLR 25/15 A2994 3920 53 6000 140/15 RMK AO2 T02500150
24044KAIA AIA20160611212510906/11/16 21:25:31  5-MIN KAIA 120425Z AUTO 15015KT 10SM CLR 25/16 A2993 3920 55 6000 140/15 RMK AO2 T02500156
24044KAIA AIA20160611213010906/11/16 21:30:31  5-MIN KAIA 120430Z AUTO 15015KT 10SM CLR 25/15 A2994 3920 53 6000 140/15 RMK AO2 T02500150
24044KAIA AIA20160611213511506/11/16 21:35:31  5-MIN KAIA 120435Z AUTO 15014G21KT 10SM CLR 25/15 A2994 3920 53 6000 150/14G21 RMK AO2 T02500150
24044KAIA AIA20160611214011506/11/16 21:40:31  5-MIN KAIA 120440Z AUTO 16013G21KT 10SM CLR 25/15 A2994 3920 53 6000 150/13G21 RMK AO2 T02500150
24044KAIA AIA20160611214510906/11/16 21:45:31  5-MIN KAIA 120445Z AUTO 16013KT 10SM CLR 25/15 A2994 3920 53 6000 150/13 RMK AO2 T02500150
24044KAIA AIA20160611215011606/11/16 21:50:31  5-MIN KAIA 120450Z AUTO 16014KT 10SM CLR 24/15 A2994 3920 55 5900 150/14 RMK AO2 SLP081 T02440150
24044KAIA AIA20160611215510906/11/16 21:55:31  5-MIN KAIA 120455Z AUTO 16015KT 10SM CLR 24/15 A2995 3910 55 5900 150/15 RMK AO2 T02440150
24044KAIA AIA20160611220011206/11/16 22:00:31  5-MIN KAIA 120500Z AUTO 17013KT 10SM SCT110 25/16 A2995 3900 55 6000 160/13 RMK AO2 T02500156
24044KAIA AIA20160611220511206/11/16 22:05:31  5-MIN KAIA 120505Z AUTO 18012KT 10SM SCT110 25/16 A2996 3900 55 6000 170/12 RMK AO2 T02500156
24044KAIA AIA20160611221012606/11/16 22:10:31  5-MIN KAIA 120510Z AUTO 21011KT 10SM SCT085 BKN110 25/16 A2997 3890 55 5900 200/11 RMK AO2 PRESRR T02500156
24044KAIA AIA20160611221511906/11/16 22:15:31  5-MIN KAIA 120515Z AUTO 22009KT 10SM BKN090 BKN110 24/15 A2997 3890 55 5900 210/09 RMK AO2 T02440150
24044KAIA AIA20160611222011906/11/16 22:20:31  5-MIN KAIA 120520Z AUTO 21008KT 10SM BKN090 BKN110 24/15 A2997 3890 55 5900 200/08 RMK AO2 T02440150
24044KAIA AIA20160611222511906/11/16 22:25:31  5-MIN KAIA 120525Z AUTO 21005KT 10SM BKN090 OVC110 24/16 A2997 3890 59 5800 210/05 RMK AO2 T02390156
24044KAIA AIA20160611223011906/11/16 22:30:31  5-MIN KAIA 120530Z AUTO 18004KT 10SM BKN090 BKN110 24/16 A2997 3890 59 5800 180/04 RMK AO2 T02390156
24044KAIA AIA20160611223511906/11/16 22:35:31  5-MIN KAIA 120535Z AUTO 20005KT 10SM BKN090 BKN110 24/16 A2997 3890 59 5800 190/05 RMK AO2 T02390156
24044KAIA AIA20160611224012806/11/16 22:40:31  5-MIN KAIA 120540Z AUTO 19006KT 10SM TS BKN090 BKN110 24/16 A2997 3890 59 5800 180/06 RMK AO2 TSB40 T02390156
24044KAIA AIA20160611224514306/11/16 22:45:31  5-MIN KAIA 120545Z AUTO 20006KT 10SM -TSRA BKN090 BKN110 24/16 A2997 3890 61 5800 190/06 RMK AO2 RAB43 TSB40 P0000 T02390161
24044KAIA AIA20160611225017406/11/16 22:50:31  5-MIN KAIA 120550Z AUTO 19009KT 10SM TS SCT090 BKN110 24/16 A2997 3890 61 5800 190/09 RMK AO2 RAB43E50 TSB40 SLP090 P0000 60000 T02390161 10317 20233 53009
24044KAIA AIA20160611225512506/11/16 22:55:31  5-MIN KAIA 120555Z AUTO 20008KT 10SM SCT090 BKN110 24/16 A2997 3890 57 5900 190/08 RMK AO2 TSE55 T02440156
24044KAIA AIA20160611230012706/11/16 23:00:31  5-MIN KAIA 120600Z AUTO 19010KT 10SM FEW090 SCT110 24/16 A2997 3890 57 5900 180/10 RMK AO2 TSE0555 T02440156
24044KAIA AIA20160611230512706/11/16 23:05:31  5-MIN KAIA 120605Z AUTO 18011KT 10SM FEW090 SCT110 24/15 A2997 3890 55 5900 170/11 RMK AO2 TSE0555 T02440150
24044KAIA AIA20160611231012006/11/16 23:10:31  5-MIN KAIA 120610Z AUTO 18011KT 10SM SCT110 24/15 A2996 3890 55 5900 170/11 RMK AO2 TSE0555 T02440150
24044KAIA AIA20160611231512706/11/16 23:15:31  5-MIN KAIA 120615Z AUTO 17012KT 10SM FEW100 FEW120 24/15 A2996 3900 55 5900 160/12 RMK AO2 TSE0555 T02440150
24044KAIA AIA20160611232012006/11/16 23:20:31  5-MIN KAIA 120620Z AUTO 16013KT 10SM FEW120 24/15 A2996 3900 57 5800 160/13 RMK AO2 TSE0555 T02390150
24044KAIA AIA20160611232512006/11/16 23:25:31  5-MIN KAIA 120625Z AUTO 16014KT 10SM FEW110 24/15 A2996 3900 57 5800 150/14 RMK AO2 TSE0555 T02390150
24044KAIA AIA20160611233012006/11/16 23:30:31  5-MIN KAIA 120630Z AUTO 16013KT 10SM FEW120 24/15 A2996 3900 57 5800 160/13 RMK AO2 TSE0555 T02390150
24044KAIA AIA20160611233511706/11/16 23:35:31  5-MIN KAIA 120635Z AUTO 16012KT 10SM CLR 24/15 A2995 3900 57 5800 150/12 RMK AO2 TSE0555 T02390150
24044KAIA AIA20160611234011706/11/16 23:40:31  5-MIN KAIA 120640Z AUTO 16011KT 10SM CLR 23/15 A2995 3900 59 5800 150/11 RMK AO2 TSE0555 T02330150
24044KAIA AIA20160611234511706/11/16 23:45:31  5-MIN KAIA 120645Z AUTO 17012KT 10SM CLR 23/15 A2995 3900 59 5800 160/12 RMK AO2 TSE0555 T02330150
24044KAIA AIA20160611235013406/11/16 23:50:31  5-MIN KAIA 120650Z AUTO 17010KT 10SM CLR 23/15 A2995 3900 59 5800 160/10 RMK AO2 TSE0555 SLP084 T02330150 403560161
24044KAIA AIA20160611235510906/11/16 23:55:31  5-MIN KAIA 120655Z AUTO 18010KT 10SM CLR 23/15 A2995 3910 59 5800 170/10 RMK AO2 T02330150
24044KAIA AIA20160612000010906/12/16 00:00:31  5-MIN KAIA 120700Z AUTO 18009KT 10SM CLR 23/14 A2995 3910 59 5700 170/09 RMK AO2 T02280144
24044KAIA AIA20160612000510906/12/16 00:05:31  5-MIN KAIA 120705Z AUTO 18009KT 10SM CLR 23/14 A2995 3900 59 5700 170/09 RMK AO2 T02280144
24044KAIA AIA20160612001010906/12/16 00:10:31  5-MIN KAIA 120710Z AUTO 18009KT 10SM CLR 23/14 A2995 3910 59 5700 170/09 RMK AO2 T02280144
24044KAIA AIA20160612001510906/12/16 00:15:31  5-MIN KAIA 120715Z AUTO 18008KT 10SM CLR 22/14 A2995 3910 61 5700 170/08 RMK AO2 T02220144
24044KAIA AIA20160612002010906/12/16 00:20:31  5-MIN KAIA 120720Z AUTO 17008KT 10SM CLR 22/14 A2995 3910 63 5600 170/08 RMK AO2 T02170144
24044KAIA AIA20160612002510906/12/16 00:25:31  5-MIN KAIA 120725Z AUTO 17007KT 10SM CLR 22/14 A2995 3910 63 5600 160/07 RMK AO2 T02170144
24044KAIA AIA20160612003010906/12/16 00:30:31  5-MIN KAIA 120730Z AUTO 18006KT 10SM CLR 21/14 A2996 3900 65 5500 170/06 RMK AO2 T02110144
24044KAIA AIA20160612003510906/12/16 00:35:31  5-MIN KAIA 120735Z AUTO 21005KT 10SM CLR 21/14 A2996 3900 67 5500 200/05 RMK AO2 T02060144
24044KAIA AIA20160612004010906/12/16 00:40:31  5-MIN KAIA 120740Z AUTO 20005KT 10SM CLR 21/15 A2996 3900 70 5500 190/05 RMK AO2 T02060150
24044KAIA AIA20160612004510906/12/16 00:45:31  5-MIN KAIA 120745Z AUTO 19004KT 10SM CLR 21/14 A2996 3900 65 5500 180/04 RMK AO2 T02110144
24044KAIA AIA20160612005011606/12/16 00:50:31  5-MIN KAIA 120750Z AUTO 17005KT 10SM CLR 21/14 A2996 3900 67 5500 160/05 RMK AO2 SLP089 T02060144
24044KAIA AIA20160612005512106/12/16 00:55:31  5-MIN KAIA 120755Z AUTO 15003KT 10SM CLR 19/14 A2996 3890 72 5300 140/03 RMK AO2 LTG DSNT SE T01940144
24044KAIA AIA20160612010012106/12/16 01:00:31  5-MIN KAIA 120800Z AUTO 00000KT 10SM CLR 19/14 A2996 3890 72 5300 000/00 RMK AO2 LTG DSNT SE T01940144
24044KAIA AIA20160612010512106/12/16 01:05:31  5-MIN KAIA 120805Z AUTO 08003KT 10SM CLR 19/14 A2997 3890 75 5300 070/03 RMK AO2 LTG DSNT SE T01890144
24044KAIA AIA20160612011010906/12/16 01:10:31  5-MIN KAIA 120810Z AUTO 10004KT 10SM CLR 19/14 A2997 3890 75 5300 090/04 RMK AO2 T01890144
24044KAIA AIA20160612011510906/12/16 01:15:31  5-MIN KAIA 120815Z AUTO 13005KT 10SM CLR 19/14 A2998 3880 75 5300 120/05 RMK AO2 T01890144
24044KAIA AIA20160612012010906/12/16 01:20:31  5-MIN KAIA 120820Z AUTO 13005KT 10SM CLR 18/14 A2997 3880 78 5200 130/05 RMK AO2 T01830144
24044KAIA AIA20160612012510906/12/16 01:25:31  5-MIN KAIA 120825Z AUTO 12005KT 10SM CLR 18/14 A2997 3890 78 5200 110/05 RMK AO2 T01830144
24044KAIA AIA20160612013012006/12/16 01:30:31  5-MIN KAIA 120830Z AUTO 14006KT 10SM CLR 18/14 A2997 3880 78 5200 130/06 RMK AO2 LTG DSNT S T01830144
24044KAIA AIA20160612013512706/12/16 01:35:31  5-MIN KAIA 120835Z AUTO 16005KT 10SM CLR 18/14 A2997 3880 78 5200 150/05 RMK AO2 LTG DSNT SE AND S T01830144
24044KAIA AIA20160612014012706/12/16 01:40:31  5-MIN KAIA 120840Z AUTO 18005KT 10SM CLR 18/14 A2997 3880 78 5200 170/05 RMK AO2 LTG DSNT SE AND S T01830144
24044KAIA AIA20160612014512706/12/16 01:45:31  5-MIN KAIA 120845Z AUTO 18003KT 10SM CLR 18/14 A2997 3890 78 5200 170/03 RMK AO2 LTG DSNT SE AND S T01830144
24044KAIA AIA20160612015013406/12/16 01:50:31  5-MIN KAIA 120850Z AUTO 00000KT 10SM CLR 18/14 A2996 3900 81 5100 000/00 RMK AO2 LTG DSNT SE SLP092 T01780144 51021
24044KAIA AIA20160612015512106/12/16 01:55:31  5-MIN KAIA 120855Z AUTO 00000KT 10SM CLR 18/15 A2996 3890 81 5200 000/00 RMK AO2 LTG DSNT SE T01830150
24044KAIA AIA20160612020012706/12/16 02:00:31  5-MIN KAIA 120900Z AUTO 00000KT 10SM CLR 18/15 A2996 3900 83 5100 000/00 RMK AO2 LTG DSNT SE AND S T01780150
24044KAIA AIA20160612020512706/12/16 02:05:31  5-MIN KAIA 120905Z AUTO 00000KT 10SM CLR 19/15 A2996 3900 78 5300 000/00 RMK AO2 LTG DSNT SE AND S T01890150
24044KAIA AIA20160612021012006/12/16 02:10:31  5-MIN KAIA 120910Z AUTO 00000KT 10SM CLR 18/15 A2995 3900 81 5200 000/00 RMK AO2 LTG DSNT S T01830150
24044KAIA AIA20160612021510906/12/16 02:15:31  5-MIN KAIA 120915Z AUTO 10004KT 10SM CLR 18/14 A2995 3910 78 5200 090/04 RMK AO2 T01830144
24044KAIA AIA20160612022010906/12/16 02:20:31  5-MIN KAIA 120920Z AUTO 13006KT 10SM CLR 17/14 A2995 3900 83 5000 120/06 RMK AO2 T01670139
24044KAIA AIA20160612022510906/12/16 02:25:31  5-MIN KAIA 120925Z AUTO 15006KT 10SM CLR 16/14 A2996 3900 90 4900 140/06 RMK AO2 T01560139
24044KAIA AIA20160612023010906/12/16 02:30:31  5-MIN KAIA 120930Z AUTO 13005KT 10SM CLR 15/13 A2995 3910 90 4800 120/05 RMK AO2 T01500133
24044KAIA AIA20160612023510906/12/16 02:35:31  5-MIN KAIA 120935Z AUTO 14004KT 10SM CLR 16/14 A2995 3910 90 4900 130/04 RMK AO2 T01560139
24044KAIA AIA20160612024010906/12/16 02:40:31  5-MIN KAIA 120940Z AUTO 16004KT 10SM CLR 17/14 A2995 3910 83 5000 150/04 RMK AO2 T01670139
24044KAIA AIA20160612024510906/12/16 02:45:31  5-MIN KAIA 120945Z AUTO 16006KT 10SM CLR 17/14 A2995 3910 86 5000 150/06 RMK AO2 T01670144
24044KAIA AIA20160612025011606/12/16 02:50:31  5-MIN KAIA 120950Z AUTO 15007KT 10SM CLR 17/14 A2995 3900 83 5000 140/07 RMK AO2 SLP090 T01670139
24044KAIA AIA20160612025510906/12/16 02:55:31  5-MIN KAIA 120955Z AUTO 14007KT 10SM CLR 16/14 A2995 3900 86 5000 140/07 RMK AO2 T01610139
24044KAIA AIA20160612030010906/12/16 03:00:31  5-MIN KAIA 121000Z AUTO 17006KT 10SM CLR 15/14 A2996 3900 93 4800 160/06 RMK AO2 T01500139
24044KAIA AIA20160612030510906/12/16 03:05:31  5-MIN KAIA 121005Z AUTO 15005KT 10SM CLR 16/14 A2995 3900 90 4900 140/05 RMK AO2 T01560139
24044KAIA AIA20160612031010906/12/16 03:10:31  5-MIN KAIA 121010Z AUTO 15005KT 10SM CLR 16/14 A2995 3900 86 5000 150/05 RMK AO2 T01610139
24044KAIA AIA20160612133511106/12/16 13:35:31  5-MIN KAIA 122035Z AUTO 01010KT 10SM CLR 27/16 A3009 3780 50 6000 010/10 RMK AO2 T02670156 $
24044KAIA AIA20160612134011106/12/16 13:40:31  5-MIN KAIA 122040Z AUTO 35008KT 10SM CLR 27/15 A3008 3780 48 6000 350/08 RMK AO2 T02670150 $
24044KAIA AIA20160612134511106/12/16 13:45:31  5-MIN KAIA 122045Z AUTO 03008KT 10SM CLR 27/15 A3008 3790 46 6100 020/08 RMK AO2 T02720150 $
24044KAIA AIA20160612135012406/12/16 13:50:31  5-MIN KAIA 122050Z AUTO 04007KT 10SM CLR 27/15 A3008 3790 48 6000 030/07 RMK AO2 SLP142 T02670150 51011 $
24044KAIA AIA20160612135511106/12/16 13:55:31  5-MIN KAIA 122055Z AUTO 04007KT 10SM CLR 27/16 A3007 3790 48 6100 030/07 RMK AO2 T02720156 $
24044KAIA AIA20160612140011106/12/16 14:00:31  5-MIN KAIA 122100Z AUTO 01010KT 10SM CLR 27/15 A3007 3800 46 6100 360/10 RMK AO2 T02720150 $
24044KAIA AIA20160612140511106/12/16 14:05:31  5-MIN KAIA 122105Z AUTO 01008KT 10SM CLR 27/15 A3007 3800 46 6100 010/08 RMK AO2 T02720150 $
24044KAIA AIA20160612141011106/12/16 14:10:31  5-MIN KAIA 122110Z AUTO 02007KT 10SM CLR 28/15 A3007 3800 45 6100 010/07 RMK AO2 T02780150 $
24044KAIA AIA20160612141511106/12/16 14:15:31  5-MIN KAIA 122115Z AUTO 36009KT 10SM CLR 28/15 A3007 3800 45 6100 350/09 RMK AO2 T02780150 $
24044KAIA AIA20160612142011106/12/16 14:20:31  5-MIN KAIA 122120Z AUTO 36009KT 10SM CLR 27/16 A3006 3800 48 6100 350/09 RMK AO2 T02720156 $
24044KAIA AIA20160612142511106/12/16 14:25:31  5-MIN KAIA 122125Z AUTO 36010KT 10SM CLR 28/15 A3006 3810 45 6100 350/10 RMK AO2 T02780150 $
24044KAIA AIA20160612143011106/12/16 14:30:31  5-MIN KAIA 122130Z AUTO 02010KT 10SM CLR 28/16 A3006 3800 45 6200 010/10 RMK AO2 T02830156 $
24044KAIA AIA20160612143511106/12/16 14:35:31  5-MIN KAIA 122135Z AUTO 04009KT 10SM CLR 29/16 A3006 3800 45 6300 030/09 RMK AO2 T02890161 $
24044KAIA AIA20160612144011106/12/16 14:40:31  5-MIN KAIA 122140Z AUTO 04011KT 10SM CLR 28/16 A3006 3800 48 6100 030/11 RMK AO2 T02780161 $
24044KAIA AIA20160612144511106/12/16 14:45:31  5-MIN KAIA 122145Z AUTO 02008KT 10SM CLR 28/16 A3006 3800 48 6100 020/08 RMK AO2 T02780161 $
24044KAIA AIA20160612145011806/12/16 14:50:31  5-MIN KAIA 122150Z AUTO 03007KT 10SM CLR 27/16 A3007 3800 50 6100 020/07 RMK AO2 SLP138 T02720161 $
24044KAIA AIA20160612145511706/12/16 14:55:31  5-MIN KAIA 122155Z AUTO 04008G15KT 10SM CLR 27/16 A3007 3800 48 6100 040/08G15 RMK AO2 T02720156 $
24044KAIA AIA20160612150011106/12/16 15:00:31  5-MIN KAIA 122200Z AUTO 04011KT 10SM CLR 28/16 A3007 3800 48 6100 030/11 RMK AO2 T02780161 $
24044KAIA AIA20160612150511106/12/16 15:05:31  5-MIN KAIA 122205Z AUTO 06010KT 10SM CLR 28/16 A3006 3800 47 6200 050/10 RMK AO2 T02830161 $
24044KAIA AIA20160612151011106/12/16 15:10:31  5-MIN KAIA 122210Z AUTO 03010KT 10SM CLR 28/16 A3006 3800 45 6200 020/10 RMK AO2 T02830156 $
24044KAIA AIA20160612151511106/12/16 15:15:31  5-MIN KAIA 122215Z AUTO 02010KT 10SM CLR 27/15 A3007 3800 46 6100 010/10 RMK AO2 T02720150 $
24044KAIA AIA20160612152011106/12/16 15:20:31  5-MIN KAIA 122220Z AUTO 03011KT 10SM CLR 27/15 A3007 3800 46 6100 030/11 RMK AO2 T02720150 $
24044KAIA AIA20160612152511106/12/16 15:25:31  5-MIN KAIA 122225Z AUTO 04012KT 10SM CLR 28/15 A3007 3790 43 6200 030/12 RMK AO2 T02830150 $
24044KAIA AIA20160612153011106/12/16 15:30:31  5-MIN KAIA 122230Z AUTO 06014KT 10SM CLR 28/14 A3008 3790 43 6100 050/14 RMK AO2 T02780144 $
24044KAIA AIA20160612153511106/12/16 15:35:31  5-MIN KAIA 122235Z AUTO 05012KT 10SM CLR 28/14 A3007 3790 43 6100 040/12 RMK AO2 T02780144 $
24044KAIA AIA20160612154011106/12/16 15:40:31  5-MIN KAIA 122240Z AUTO 06014KT 10SM CLR 29/15 A3008 3790 42 6200 050/14 RMK AO2 T02890150 $
24044KAIA AIA20160612154511106/12/16 15:45:31  5-MIN KAIA 122245Z AUTO 05012KT 10SM CLR 28/14 A3007 3790 42 6200 050/12 RMK AO2 T02830144 $
24044KAIA AIA20160612155011806/12/16 15:50:31  5-MIN KAIA 122250Z AUTO 06013KT 10SM CLR 28/14 A3008 3790 43 6100 050/13 RMK AO2 SLP143 T02780144 $
24044KAIA AIA20160612155511106/12/16 15:55:31  5-MIN KAIA 122255Z AUTO 05010KT 10SM CLR 27/14 A3008 3790 45 6100 050/10 RMK AO2 T02720144 $
24044KAIA AIA20160612160011106/12/16 16:00:31  5-MIN KAIA 122300Z AUTO 07013KT 10SM CLR 27/14 A3008 3790 45 6100 060/13 RMK AO2 T02720144 $
24044KAIA AIA20160612160511106/12/16 16:05:31  5-MIN KAIA 122305Z AUTO 06013KT 10SM CLR 27/14 A3008 3790 45 6100 050/13 RMK AO2 T02720144 $
24044KAIA AIA20160612161011106/12/16 16:10:31  5-MIN KAIA 122310Z AUTO 06015KT 10SM CLR 27/14 A3008 3790 45 6100 050/15 RMK AO2 T02720144 $
24044KAIA AIA20160612161511106/12/16 16:15:31  5-MIN KAIA 122315Z AUTO 06012KT 10SM CLR 27/14 A3008 3790 46 6000 050/12 RMK AO2 T02670144 $
24044KAIA AIA20160612162011106/12/16 16:20:31  5-MIN KAIA 122320Z AUTO 06011KT 10SM CLR 27/14 A3008 3780 46 6000 050/11 RMK AO2 T02670144 $
24044KAIA AIA20160612162511106/12/16 16:25:31  5-MIN KAIA 122325Z AUTO 05012KT 10SM CLR 27/14 A3009 3780 45 6100 040/12 RMK AO2 T02720144 $
24044KAIA AIA20160612163011106/12/16 16:30:31  5-MIN KAIA 122330Z AUTO 05011KT 10SM CLR 27/14 A3009 3780 45 6100 040/11 RMK AO2 T02720144 $
24044KAIA AIA20160612163511106/12/16 16:35:31  5-MIN KAIA 122335Z AUTO 06012KT 10SM CLR 27/14 A3009 3780 45 6100 050/12 RMK AO2 T02720144 $
24044KAIA AIA20160612164011106/12/16 16:40:31  5-MIN KAIA 122340Z AUTO 06014KT 10SM CLR 28/14 A3009 3780 43 6100 050/14 RMK AO2 T02780144 $
24044KAIA AIA20160612164511106/12/16 16:45:31  5-MIN KAIA 122345Z AUTO 04013KT 10SM CLR 28/14 A3009 3780 43 6100 040/13 RMK AO2 T02780144 $
24044KAIA AIA20160612165013606/12/16 16:50:31  5-MIN KAIA 122350Z AUTO 05013KT 10SM CLR 28/15 A3009 3780 45 6100 050/13 RMK AO2 SLP145 T02780150 10289 20250 58005 $
24044KAIA AIA20160612165511106/12/16 16:55:31  5-MIN KAIA 122355Z AUTO 06013KT 10SM CLR 28/15 A3009 3770 45 6100 060/13 RMK AO2 T02780150 $
24044KAIA AIA20160612170011106/12/16 17:00:31  5-MIN KAIA 130000Z AUTO 05015KT 10SM CLR 27/15 A3009 3770 46 6000 040/15 RMK AO2 T02720150 $
24044KAIA AIA20160612170511106/12/16 17:05:31  5-MIN KAIA 130005Z AUTO 06014KT 10SM CLR 27/14 A3010 3770 46 6000 050/14 RMK AO2 T02670144 $
24044KAIA AIA20160612171011106/12/16 17:10:31  5-MIN KAIA 130010Z AUTO 06014KT 10SM CLR 26/15 A3010 3770 50 5900 050/14 RMK AO2 T02610150 $
24044KAIA AIA20160612171511106/12/16 17:15:31  5-MIN KAIA 130015Z AUTO 06014KT 10SM CLR 26/15 A3010 3770 50 5900 050/14 RMK AO2 T02610150 $
24044KAIA AIA20160612172011106/12/16 17:20:31  5-MIN KAIA 130020Z AUTO 06014KT 10SM CLR 26/15 A3010 3760 50 5900 060/14 RMK AO2 T02610150 $
24044KAIA AIA20160612172511406/12/16 17:25:31  5-MIN KAIA 130025Z AUTO 07013KT 10SM FEW049 26/15 A3011 3760 50 5900 060/13 RMK AO2 T02610150 $
24044KAIA AIA20160612173011406/12/16 17:30:31  5-MIN KAIA 130030Z AUTO 08012KT 10SM FEW049 26/15 A3011 3760 51 5900 070/12 RMK AO2 T02560150 $
24044KAIA AIA20160612173511106/12/16 17:35:31  5-MIN KAIA 130035Z AUTO 08013KT 10SM CLR 26/15 A3011 3760 51 5900 070/13 RMK AO2 T02560150 $
24044KAIA AIA20160612174011106/12/16 17:40:31  5-MIN KAIA 130040Z AUTO 07013KT 10SM CLR 26/15 A3011 3760 51 5900 060/13 RMK AO2 T02560150 $
24044KAIA AIA20160612174512206/12/16 17:45:31  5-MIN KAIA 130045Z AUTO 07011KT 10SM CLR 26/15 A3010 3770 51 5900 060/11 RMK AO2 LTG DSNT W T02560150 $
24044KAIA AIA20160612175012906/12/16 17:50:31  5-MIN KAIA 130050Z AUTO 08013KT 10SM CLR 26/15 A3010 3770 50 5900 070/13 RMK AO2 LTG DSNT W SLP147 T02610150 $
24044KAIA AIA20160612175512506/12/16 17:55:31  5-MIN KAIA 130055Z AUTO 09017KT 10SM FEW047 26/15 A3009 3780 50 5900 080/17 RMK AO2 LTG DSNT W T02610150 $
24044KAIA AIA20160612180013206/12/16 18:00:31  5-MIN KAIA 130100Z AUTO 09017KT 10SM SCT045 SCT060 26/15 A3008 3780 51 5900 080/17 RMK AO2 LTG DSNT W T02560150 $
24044KAIA AIA20160612180513206/12/16 18:05:31  5-MIN KAIA 130105Z AUTO 11017KT 10SM SCT045 SCT060 24/16 A3008 3780 59 5800 100/17 RMK AO2 LTG DSNT W T02440161 $
24044KAIA AIA20160612181012506/12/16 18:10:31  5-MIN KAIA 130110Z AUTO 10017KT 10SM SCT045 24/16 A3008 3780 61 5700 090/17 RMK AO2 LTG DSNT W T02390161 $
24044KAIA AIA20160612181511406/12/16 18:15:31  5-MIN KAIA 130115Z AUTO 09012KT 10SM FEW045 24/16 A3008 3790 61 5700 080/12 RMK AO2 T02390161 $
24044KAIA AIA20160612182011406/12/16 18:20:31  5-MIN KAIA 130120Z AUTO 09014KT 10SM FEW045 23/16 A3008 3790 63 5600 080/14 RMK AO2 T02330161 $
24044KAIA AIA20160612182511406/12/16 18:25:31  5-MIN KAIA 130125Z AUTO 09014KT 10SM FEW045 23/16 A3008 3790 61 5600 080/14 RMK AO2 T02330156 $
24044KAIA AIA20160612183012806/12/16 18:30:31  5-MIN KAIA 130130Z AUTO 09010G19KT 10SM CLR 23/16 A3009 3780 63 5600 080/10G19 RMK AO2 LTG DSNT W T02330161 $
24044KAIA AIA20160612183512906/12/16 18:35:31  5-MIN KAIA 130135Z AUTO 09009KT 10SM CLR 23/16 A3010 3760 65 5500 080/09 RMK AO2 LTG DSNT W PRESRR T02280161 $
24044KAIA AIA20160612184012906/12/16 18:40:31  5-MIN KAIA 130140Z AUTO 09009KT 10SM CLR 23/16 A3011 3760 63 5500 080/09 RMK AO2 LTG DSNT W PRESRR T02280156 $
24044KAIA AIA20160612184512206/12/16 18:45:31  5-MIN KAIA 130145Z AUTO 09010KT 10SM CLR 23/16 A3011 3760 63 5500 080/10 RMK AO2 LTG DSNT W T02280156 $
24044KAIA AIA20160612185012906/12/16 18:50:31  5-MIN KAIA 130150Z AUTO 09011KT 10SM CLR 23/16 A3011 3760 63 5500 080/11 RMK AO2 LTG DSNT W SLP152 T02280156 $
24044KAIA AIA20160612185512206/12/16 18:55:31  5-MIN KAIA 130155Z AUTO 08008KT 10SM CLR 23/16 A3012 3750 65 5500 070/08 RMK AO2 LTG DSNT W T02280161 $
24044KAIA AIA20160612190012206/12/16 19:00:31  5-MIN KAIA 130200Z AUTO 08007KT 10SM CLR 22/16 A3012 3750 68 5500 070/07 RMK AO2 LTG DSNT W T02220161 $
24044KAIA AIA20160612190512906/12/16 19:05:31  5-MIN KAIA 130205Z AUTO 08006KT 10SM CLR 22/16 A3013 3740 65 5500 070/06 RMK AO2 LTG DSNT SW AND W T02220156 $
24044KAIA AIA20160612191012606/12/16 19:10:31  5-MIN KAIA 130210Z AUTO 10005KT 10SM CLR 22/16 A3013 3740 70 5400 090/05 RMK AO2 LTG DSNT SW-NW T02170161 $
24044KAIA AIA20160612191513306/12/16 19:15:31  5-MIN KAIA 130215Z AUTO 12006KT 10SM CLR 22/16 A3014 3730 70 5400 110/06 RMK AO2 LTG DSNT SW-NW PRESRR T02170161 $
24044KAIA AIA20160612192012606/12/16 19:20:31  5-MIN KAIA 130220Z AUTO 11008KT 10SM CLR 21/17 A3014 3730 75 5300 110/08 RMK AO2 LTG DSNT SW-NW T02110167 $
24044KAIA AIA20160612192512906/12/16 19:25:31  5-MIN KAIA 130225Z AUTO 13008KT 10SM CLR 21/17 A3015 3730 75 5300 120/08 RMK AO2 LTG DSNT SW AND W T02110167 $
24044KAIA AIA20160612193012906/12/16 19:30:31  5-MIN KAIA 130230Z AUTO 13010KT 10SM CLR 21/17 A3015 3720 75 5300 120/10 RMK AO2 LTG DSNT SW AND W T02110167 $
24044KAIA AIA20160612193512906/12/16 19:35:31  5-MIN KAIA 130235Z AUTO 14008KT 10SM CLR 21/17 A3016 3710 78 5300 130/08 RMK AO2 LTG DSNT SW AND W T02110172 $
24044KAIA AIA20160612194012906/12/16 19:40:31  5-MIN KAIA 130240Z AUTO 14010KT 10SM CLR 21/18 A3016 3710 81 5300 130/10 RMK AO2 LTG DSNT SW AND W T02110178 $
24044KAIA AIA20160612194512906/12/16 19:45:31  5-MIN KAIA 130245Z AUTO 14008KT 10SM CLR 21/18 A3017 3710 81 5300 130/08 RMK AO2 LTG DSNT SW AND W T02110178 $
24044KAIA AIA20160612195013706/12/16 19:50:31  5-MIN KAIA 130250Z AUTO 15007KT 10SM CLR 21/18 A3017 3700 84 5200 140/07 RMK AO2 LTG DSNT S-W SLP173 T02060178 53006 $
24044KAIA AIA20160612195512406/12/16 19:55:31  5-MIN KAIA 130255Z AUTO 15006KT 10SM CLR 21/18 A3017 3700 84 5200 140/06 RMK AO2 LTG DSNT S-W T02060178 $
24044KAIA AIA20160612200012706/12/16 20:00:31  5-MIN KAIA 130300Z AUTO 17004KT 10SM FEW080 21/18 A3018 3700 84 5200 160/04 RMK AO2 LTG DSNT S-W T02060178 $
24044KAIA AIA20160612200512806/12/16 20:05:31  5-MIN KAIA 130305Z AUTO 21003KT 10SM SCT075 21/18 A3019 3690 84 5200 200/03 RMK AO2 LTG DSNT S-NW T02060178 $
24044KAIA AIA20160612201013506/12/16 20:10:31  5-MIN KAIA 130310Z AUTO 24004KT 10SM SCT075 BKN100 21/18 A3019 3680 84 5200 230/04 RMK AO2 LTG DSNT S-NW T02060178 $
24044KAIA AIA20160612201515606/12/16 20:15:31  5-MIN KAIA 130315Z AUTO 24004KT 10SM VCTS -RA SCT075 BKN095 20/18 A3019 3690 87 5100 240/04 RMK AO2 LTG DSNT S-NW RAB12 P0000 T02000178 $
24044KAIA AIA20160612202015606/12/16 20:20:31  5-MIN KAIA 130320Z AUTO 00000KT 10SM VCTS -RA SCT080 BKN095 20/18 A3019 3690 87 5100 000/00 RMK AO2 LTG DSNT S-NW RAB12 P0000 T02000178 $
24044KAIA AIA20160612202515706/12/16 20:25:31  5-MIN KAIA 130325Z AUTO 19003KT 10SM VCTS -RA BKN080 OVC095 21/18 A3018 3690 87 5200 180/03 RMK AO2 LTG DSNT ALQDS RAB12 P0000 T02060183 $
24044KAIA AIA20160612203015706/12/16 20:30:31  5-MIN KAIA 130330Z AUTO 00000KT 10SM VCTS -RA FEW075 OVC100 20/18 A3020 3680 90 5100 000/00 RMK AO2 LTG DSNT ALQDS RAB12 P0001 T02000183 $
24044KAIA AIA20160612203515706/12/16 20:35:31  5-MIN KAIA 130335Z AUTO 21004KT 10SM VCTS -RA FEW070 OVC100 20/18 A3020 3680 90 5100 210/04 RMK AO2 LTG DSNT ALQDS RAB12 P0001 T02000183 $
24044KAIA AIA20160612204016706/12/16 20:40:31  5-MIN KAIA 130340Z AUTO 25009KT 10SM -TSRA FEW070 BKN100 19/18 A3021 3660 93 5100 240/09 RMK AO2 LTG DSNT ALQDS RAB12 TSB40 PRESRR P0001 T01940183 $
24044KAIA AIA20160612204517306/12/16 20:45:31  5-MIN KAIA 130345Z AUTO 27017G24KT 10SM -TSRA FEW024 BKN100 18/16 A3022 3660 90 4900 260/17G24 RMK AO2 LTG DSNT ALQDS RAB12 TSB40 PRESRR P0001 T01780161 $
24044KAIA AIA20160612205019806/12/16 20:50:31  5-MIN KAIA 130350Z AUTO 29019G26KT 10SM TS SCT026 SCT055 BKN100 17/14 A3022 3660 80 4800 290/19G26 RMK AO2 PK WND 28026/0346 LTG DSNT ALQDS RAB12E48 TSB40 SLP191 P0001 T01720139 $
24044KAIA AIA20160612205518106/12/16 20:55:31  5-MIN KAIA 130355Z AUTO 30015G26KT 10SM VCTS -RA FEW026 SCT055 BKN100 18/13 A3021 3660 75 4900 290/15G26 RMK AO2 WSHFT 0341 LTG DSNT ALQDS TSE55 P0000 T01780133 $
24044KAIA AIA20160612210017706/12/16 21:00:31  5-MIN KAIA 130400Z AUTO 31012KT 10SM VCTS -RA FEW026 SCT060 BKN100 17/13 A3021 3670 77 4700 300/12 RMK AO2 WSHFT 0341 LTG DSNT ALQDS TSE0355 P0000 T01670128 $
24044KAIA AIA20160612210517606/12/16 21:05:31  5-MIN KAIA 130405Z AUTO 30013KT 9SM VCTS -RA FEW026 SCT048 OVC100 17/13 A3022 3660 75 4800 290/13 RMK AO2 WSHFT 0341 LTG DSNT ALQDS TSE0355 P0001 T01720128 $
24044KAIA AIA20160612211019806/12/16 21:10:31  5-MIN KAIA 130410Z AUTO 30020G27KT 5SM VCTS RA FEW026 BKN043 OVC095 17/12 A3022 3650 72 4800 300/20G27 RMK AO2 PK WND 30027/0407 WSHFT 0341 LTG DSNT SE-W TSE0355 P0004 T01720122 $
24044KAIA AIA20160612211519906/12/16 21:15:31  5-MIN KAIA 130415Z AUTO 30014G27KT 6SM VCTS -RA FEW034 BKN075 OVC095 18/12 A3022 3660 67 4900 290/14G27 RMK AO2 PK WND 30027/0407 WSHFT 0341 LTG DSNT SE-W TSE0355 P0004 T01780117 $
24044KAIA AIA20160612212019506/12/16 21:20:31  5-MIN KAIA 130420Z AUTO 29012KT 10SM VCTS -RA FEW036 SCT075 OVC100 18/12 A3022 3660 65 4900 280/12 RMK AO2 PK WND 30027/0407 WSHFT 0341 LTG DSNT SE-SW TSE0355 P0005 T01830117 $
24044KAIA AIA20160612212518806/12/16 21:25:31  5-MIN KAIA 130425Z AUTO 29015KT 8SM RA FEW042 FEW070 OVC100 17/13 A3021 3670 75 4800 280/15 RMK AO2 PK WND 30027/0407 WSHFT 0341 LTG DSNT SE-SW TSE0355 P0006 T01720128 $
24044KAIA AIA20160612213018106/12/16 21:30:31  5-MIN KAIA 130430Z AUTO 28015KT 6SM RA FEW037 OVC100 17/13 A3020 3670 77 4800 270/15 RMK AO2 PK WND 30027/0407 WSHFT 0341 LTG DSNT SE-SW TSE0355 P0007 T01670128 $
24044KAIA AIA20160612213519506/12/16 21:35:31  5-MIN KAIA 130435Z AUTO 26016KT 7SM RA FEW040 FEW070 OVC110 17/13 A3019 3680 77 4800 250/16 RMK AO2 PK WND 30027/0407 WSHFT 0341 LTG DSNT SE-SW TSE0355 PRESFR P0008 T01670128 $
24044KAIA AIA20160612214018906/12/16 21:40:31  5-MIN KAIA 130440Z AUTO 27013KT 9SM -RA FEW036 FEW075 OVC110 16/13 A3019 3690 80 4700 260/13 RMK AO2 PK WND 30027/0407 WSHFT 0341 LTG DSNT SE-SW TSE0355 P0009 T01610128 $
24044KAIA AIA20160612214518306/12/16 21:45:31  5-MIN KAIA 130445Z AUTO 27013KT 10SM -RA FEW036 OVC110 17/13 A3019 3690 77 4800 260/13 RMK AO2 PK WND 30027/0407 WSHFT 0341 LTG DSNT SE-SW TSE0355 P0009 T01670128 $
24044KAIA AIA20160612215019606/12/16 21:50:31  5-MIN KAIA 130450Z AUTO 29017G22KT 10SM -RA SCT043 OVC110 17/13 A3019 3680 80 4800 280/17G22 RMK AO2 PK WND 30027/0407 WSHFT 0341 LTG DSNT SE-SW TSE0355 SLP183 P0010 T01670133 $
24044KAIA AIA20160612215515106/12/16 21:55:31  5-MIN KAIA 130455Z AUTO 29014G22KT 9SM -RA SCT043 OVC110 17/13 A3020 3680 77 4800 280/14G22 RMK AO2 LTG DSNT SE-SW P0000 T01670128 $
24044KAIA AIA20160612220014706/12/16 22:00:31  5-MIN KAIA 130500Z AUTO 30005KT 7SM RA SCT043 OVC110 16/13 A3020 3680 83 4700 290/05 RMK AO2 LTG DSNT SE AND S P0001 T01610133 $
24044KAIA AIA20160612220514106/12/16 22:05:31  5-MIN KAIA 130505Z AUTO 24006KT 7SM -RA FEW045 OVC110 16/13 A3020 3680 83 4700 230/06 RMK AO2 LTG DSNT S P0001 T01610133 $
24044KAIA AIA20160612221014106/12/16 22:10:31  5-MIN KAIA 130510Z AUTO 23010KT 9SM -RA FEW045 OVC100 16/13 A3020 3680 80 4700 220/10 RMK AO2 LTG DSNT S P0002 T01610128 $
24044KAIA AIA20160612221514206/12/16 22:15:31  5-MIN KAIA 130515Z AUTO 16007KT 10SM -RA FEW046 OVC100 16/13 A3019 3690 83 4700 150/07 RMK AO2 LTG DSNT S P0002 T01610133 $
24044KAIA AIA20160612222013506/12/16 22:20:31  5-MIN KAIA 130520Z AUTO 16010KT 10SM -RA OVC100 16/13 A3018 3700 86 4600 160/10 RMK AO2 LTG DSNT S P0002 T01560133 $
24044KAIA AIA20160612222513706/12/16 22:25:31  5-MIN KAIA 130525Z AUTO 14015G20KT 10SM -RA OVC100 16/13 A3016 3710 83 4700 140/15G20 RMK AO2 PRESFR P0002 T01610133 $
24044KAIA AIA20160612223013706/12/16 22:30:31  5-MIN KAIA 130530Z AUTO 17011G20KT 10SM -RA OVC100 17/12 A3015 3720 72 4900 160/11G20 RMK AO2 PRESFR P0002 T01720122 $
24044KAIA AIA20160612223513706/12/16 22:35:31  5-MIN KAIA 130535Z AUTO 18015G18KT 10SM -RA OVC100 17/12 A3014 3730 75 4800 170/15G18 RMK AO2 PRESFR P0003 T01670122 $
24044KAIA AIA20160612224013106/12/16 22:40:31  5-MIN KAIA 130540Z AUTO 20018KT 10SM -RA OVC100 17/12 A3013 3740 75 4800 200/18 RMK AO2 PRESFR P0003 T01670122 $
24044KAIA AIA20160612224514806/12/16 22:45:31  5-MIN KAIA 130545Z AUTO 22020G25KT 10SM -RA OVC100 17/12 A3011 3750 75 4800 210/20G25 RMK AO2 WSHFT 0530 PRESFR P0003 T01670122 $
24044KAIA AIA20160612225017906/12/16 22:50:31  5-MIN KAIA 130550Z AUTO 22018G25KT 10SM -RA OVC100 17/12 A3010 3760 69 4900 210/18G25 RMK AO2 WSHFT 0530 PRESFR SLP153 P0003 60014 T01720117 10283 20156 58020 $
24044KAIA AIA20160612225513806/12/16 22:55:31  5-MIN KAIA 130555Z AUTO 21017KT 10SM -RA FEW055 OVC110 18/12 A3009 3780 67 5000 200/17 RMK AO2 PRESFR P0000 T01780117 $
24044KAIA AIA20160612230014206/12/16 23:00:31  5-MIN KAIA 130600Z AUTO 21018KT 10SM FEW055 BKN110 19/11 A3008 3780 60 5100 200/18 RMK AO2 RAE0559 PRESFR P0000 T01890111 $
24044KAIA AIA20160612230513506/12/16 23:05:31  5-MIN KAIA 130605Z AUTO 21019KT 10SM FEW055 BKN110 19/11 A3008 3790 58 5100 200/19 RMK AO2 RAE0559 P0000 T01890106 $
24044KAIA AIA20160612231013506/12/16 23:10:31  5-MIN KAIA 130610Z AUTO 21017KT 10SM FEW055 SCT110 18/11 A3008 3790 62 5100 210/17 RMK AO2 RAE0559 P0000 T01830111 $
24044KAIA AIA20160612231513506/12/16 23:15:31  5-MIN KAIA 130615Z AUTO 22014KT 10SM FEW055 FEW110 18/11 A3008 3790 64 5000 220/14 RMK AO2 RAE0559 P0000 T01780111 $
24044KAIA AIA20160612232013506/12/16 23:20:31  5-MIN KAIA 130620Z AUTO 22013KT 10SM FEW055 FEW120 18/12 A3007 3790 67 5000 210/13 RMK AO2 RAE0559 P0000 T01780117 $
24044KAIA AIA20160612232512806/12/16 23:25:31  5-MIN KAIA 130625Z AUTO 23012KT 10SM FEW120 18/12 A3008 3790 67 5000 220/12 RMK AO2 RAE0559 P0000 T01780117 $
24044KAIA AIA20160612233012806/12/16 23:30:31  5-MIN KAIA 130630Z AUTO 24011KT 10SM FEW120 18/12 A3008 3790 67 5000 230/11 RMK AO2 RAE0559 P0000 T01780117 $
24044KAIA AIA20160612233512806/12/16 23:35:31  5-MIN KAIA 130635Z AUTO 25014KT 10SM FEW120 17/12 A3008 3790 69 5000 240/14 RMK AO2 RAE0559 P0000 T01720117 $
24044KAIA AIA20160612234013406/12/16 23:40:31  5-MIN KAIA 130640Z AUTO 25017G21KT 10SM FEW120 18/12 A3008 3790 67 5000 240/17G21 RMK AO2 RAE0559 P0000 T01780117 $
24044KAIA AIA20160612234512806/12/16 23:45:31  5-MIN KAIA 130645Z AUTO 26016KT 10SM SCT120 18/11 A3008 3780 62 5100 260/16 RMK AO2 RAE0559 P0000 T01830111 $
24044KAIA AIA20160612235014506/12/16 23:50:31  5-MIN KAIA 130650Z AUTO 27016KT 10SM SCT110 19/11 A3009 3780 60 5100 260/16 RMK AO2 RAE0559 SLP144 P0000 T01890111 402890144 $
24044KAIA AIA20160612235511406/12/16 23:55:31  5-MIN KAIA 130655Z AUTO 28014KT 10SM BKN110 19/12 A3009 3780 62 5100 280/14 RMK AO2 T01890117 $
24044KAIA AIA20160613000012106/13/16 00:00:31  5-MIN KAIA 130700Z AUTO 29015KT 10SM FEW085 BKN110 19/12 A3009 3780 62 5100 280/15 RMK AO2 T01890117 $
24044KAIA AIA20160613000512806/13/16 00:05:31  5-MIN KAIA 130705Z AUTO 28015KT 10SM FEW060 SCT075 BKN110 19/12 A3009 3780 62 5100 280/15 RMK AO2 T01890117 $
24044KAIA AIA20160613001012806/13/16 00:10:31  5-MIN KAIA 130710Z AUTO 30016KT 10SM SCT055 BKN080 OVC120 18/12 A3009 3780 65 5100 290/16 RMK AO2 T01830117 $
24044KAIA AIA20160613001515206/13/16 00:15:31  5-MIN KAIA 130715Z AUTO 33022G27KT 10SM SCT055 BKN075 OVC120 18/12 A3009 3780 69 5000 320/22G27 RMK AO2 PK WND 33027/0715 T01780122 $
24044KAIA AIA20160613002016806/13/16 00:20:31  5-MIN KAIA 130720Z AUTO 33022G29KT 10SM -RA SCT055 BKN080 OVC110 18/12 A3007 3790 65 5100 320/22G29 RMK AO2 PK WND 33029/0716 RAB20 P0000 T01830117 $
24044KAIA AIA20160613002516806/13/16 00:25:31  5-MIN KAIA 130725Z AUTO 32022G30KT 10SM -RA SCT050 BKN080 BKN110 18/12 A3008 3780 69 5000 310/22G30 RMK AO2 PK WND 32030/0722 RAB20 P0001 T01780122 $
24044KAIA AIA20160613003016806/13/16 00:30:31  5-MIN KAIA 130730Z AUTO 33020G30KT 10SM -RA FEW050 SCT075 BKN110 17/13 A3009 3780 75 4900 320/20G30 RMK AO2 PK WND 32030/0722 RAB20 P0001 T01720128 $
24044KAIA AIA20160613003516706/13/16 00:35:31  5-MIN KAIA 130735Z AUTO 34021G28KT 10SM FEW050 SCT075 SCT110 17/13 A3009 3770 77 4900 330/21G28 RMK AO2 PK WND 32030/0722 RAB20E33 P0001 T01670128 $
24044KAIA AIA20160613004016706/13/16 00:40:31  5-MIN KAIA 130740Z AUTO 34020G28KT 10SM FEW048 FEW075 SCT110 17/13 A3010 3770 80 4900 330/20G28 RMK AO2 PK WND 32030/0722 RAB20E33 P0001 T01670133 $
24044KAIA AIA20160613004515306/13/16 00:45:31  5-MIN KAIA 130745Z AUTO 35021G27KT 10SM FEW110 16/14 A3010 3760 86 4800 340/21G27 RMK AO2 PK WND 32030/0722 RAB20E33 P0001 T01610139 $
24044KAIA AIA20160613005015706/13/16 00:50:31  5-MIN KAIA 130750Z AUTO 36017G27KT 10SM CLR 16/14 A3011 3760 86 4800 350/17G27 RMK AO2 PK WND 32030/0722 RAB20E33 SLP156 P0001 T01610139 $
24044KAIA AIA20160613005511806/13/16 00:55:31  5-MIN KAIA 130755Z AUTO 36016KT 10SM CLR 16/14 A3012 3750 86 4800 360/16 RMK AO2 PRESRR T01610139 $
24044KAIA AIA20160613010011806/13/16 01:00:31  5-MIN KAIA 130800Z AUTO 36016KT 10SM CLR 16/14 A3013 3740 86 4800 350/16 RMK AO2 PRESRR T01610139 $
24044KAIA AIA20160613010511706/13/16 01:05:31  5-MIN KAIA 130805Z AUTO 36019G23KT 10SM CLR 16/14 A3012 3750 86 4800 350/19G23 RMK AO2 T01610139 $
24044KAIA AIA20160613011011706/13/16 01:10:31  5-MIN KAIA 130810Z AUTO 35016G23KT 10SM CLR 16/14 A3012 3750 90 4700 350/16G23 RMK AO2 T01560139 $
24044KAIA AIA20160613011511106/13/16 01:15:31  5-MIN KAIA 130815Z AUTO 35018KT 10SM CLR 16/14 A3012 3750 90 4700 340/18 RMK AO2 T01560139 $
24044KAIA AIA20160613012011106/13/16 01:20:31  5-MIN KAIA 130820Z AUTO 36014KT 10SM CLR 16/14 A3012 3750 90 4700 350/14 RMK AO2 T01560139 $
24044KAIA AIA20160613012511106/13/16 01:25:31  5-MIN KAIA 130825Z AUTO 36015KT 10SM CLR 16/14 A3013 3740 90 4700 350/15 RMK AO2 T01560139 $
24044KAIA AIA20160613013011106/13/16 01:30:31  5-MIN KAIA 130830Z AUTO 36014KT 10SM CLR 16/14 A3013 3740 90 4700 350/14 RMK AO2 T01560139 $
24044KAIA AIA20160613013511106/13/16 01:35:31  5-MIN KAIA 130835Z AUTO 35013KT 10SM CLR 15/14 A3013 3740 93 4600 340/13 RMK AO2 T01500139 $
24044KAIA AIA20160613014011106/13/16 01:40:31  5-MIN KAIA 130840Z AUTO 35014KT 10SM CLR 15/14 A3013 3740 93 4600 340/14 RMK AO2 T01500139 $
24044KAIA AIA20160613014511106/13/16 01:45:31  5-MIN KAIA 130845Z AUTO 35013KT 10SM CLR 15/14 A3013 3740 93 4600 340/13 RMK AO2 T01500139 $
24044KAIA AIA20160613015013006/13/16 01:50:31  5-MIN KAIA 130850Z AUTO 35012KT 10SM CLR 15/14 A3013 3740 93 4600 340/12 RMK AO2 SLP161 60001 T01500139 56036 $
24044KAIA AIA20160613015511106/13/16 01:55:31  5-MIN KAIA 130855Z AUTO 35012KT 10SM CLR 15/14 A3013 3740 93 4600 340/12 RMK AO2 T01500139 $
24044KAIA AIA20160613020011106/13/16 02:00:31  5-MIN KAIA 130900Z AUTO 36011KT 10SM CLR 15/14 A3012 3750 93 4600 350/11 RMK AO2 T01500139 $
24044KAIA AIA20160613020511106/13/16 02:05:31  5-MIN KAIA 130905Z AUTO 36009KT 10SM CLR 15/14 A3013 3750 93 4600 360/09 RMK AO2 T01500139 $
24044KAIA AIA20160613021011106/13/16 02:10:31  5-MIN KAIA 130910Z AUTO 36010KT 10SM CLR 15/14 A3012 3750 93 4700 360/10 RMK AO2 T01500139 $
24044KAIA AIA20160613021511106/13/16 02:15:31  5-MIN KAIA 130915Z AUTO 36010KT 10SM CLR 14/14 A3012 3750 96 4600 360/10 RMK AO2 T01440139 $
24044KAIA AIA20160613022011106/13/16 02:20:31  5-MIN KAIA 130920Z AUTO 36010KT 10SM CLR 14/14 A3011 3750 96 4600 350/10 RMK AO2 T01440139 $
24044KAIA AIA20160613022511106/13/16 02:25:31  5-MIN KAIA 130925Z AUTO 35009KT 10SM CLR 14/14 A3011 3760 96 4600 340/09 RMK AO2 T01440139 $
24044KAIA AIA20160613023011106/13/16 02:30:31  5-MIN KAIA 130930Z AUTO 36008KT 10SM CLR 14/14 A3011 3760 96 4600 350/08 RMK AO2 T01440139 $
24044KAIA AIA20160613023511106/13/16 02:35:31  5-MIN KAIA 130935Z AUTO 01007KT 10SM CLR 14/13 A3011 3760 93 4600 360/07 RMK AO2 T01440133 $
24044KAIA AIA20160613024011106/13/16 02:40:31  5-MIN KAIA 130940Z AUTO 36008KT 10SM CLR 14/13 A3011 3750 93 4600 350/08 RMK AO2 T01440133 $
24044KAIA AIA20160613024511106/13/16 02:45:31  5-MIN KAIA 130945Z AUTO 01006KT 10SM CLR 14/13 A3011 3760 93 4600 360/06 RMK AO2 T01440133 $
24044KAIA AIA20160613025011806/13/16 02:50:31  5-MIN KAIA 130950Z AUTO 02006KT 10SM CLR 14/13 A3012 3750 96 4500 020/06 RMK AO2 SLP159 T01390133 $
24044KAIA AIA20160613025511106/13/16 02:55:31  5-MIN KAIA 130955Z AUTO 03005KT 10SM CLR 14/13 A3012 3750 96 4500 020/05 RMK AO2 T01390133 $
24044KAIA AIA20160613030011106/13/16 03:00:31  5-MIN KAIA 131000Z AUTO 04004KT 10SM CLR 14/13 A3011 3760 96 4500 040/04 RMK AO2 T01390133 $
24044KAIA AIA20160613030511106/13/16 03:05:31  5-MIN KAIA 131005Z AUTO 06005KT 10SM CLR 13/13 A3011 3760 96 4500 050/05 RMK AO2 T01330128 $
24044KAIA AIA20160613031011506/13/16 03:10:31  5-MIN KAIA 131010Z AUTO 06003KT 10SM FEW007 13/13 A3012 3750 100 4500 060/03 RMK AO2 T01330133 $
24044KAIA AIA20160613031511406/13/16 03:15:31  5-MIN KAIA 131015Z AUTO 06003KT 10SM SCT007 13/13 A3012 3750 96 4500 050/03 RMK AO2 T01330128 $
24044KAIA AIA20160613032011406/13/16 03:20:31  5-MIN KAIA 131020Z AUTO 09003KT 10SM BKN007 14/13 A3012 3750 93 4500 090/03 RMK AO2 T01390128 $
24044KAIA AIA20160613032511406/13/16 03:25:31  5-MIN KAIA 131025Z AUTO 12005KT 10SM BKN007 13/13 A3012 3750 96 4500 110/05 RMK AO2 T01330128 $
24044KAIA AIA20160613033011406/13/16 03:30:31  5-MIN KAIA 131030Z AUTO 13005KT 10SM BKN007 13/13 A3012 3750 96 4500 120/05 RMK AO2 T01330128 $
24044KAIA AIA20160613033511506/13/16 03:35:31  5-MIN KAIA 131035Z AUTO 13004KT 10SM OVC006 13/13 A3012 3750 100 4500 120/04 RMK AO2 T01330133 $
24044KAIA AIA20160613034011406/13/16 03:40:31  5-MIN KAIA 131040Z AUTO 17004KT 10SM OVC006 13/13 A3013 3740 96 4500 170/04 RMK AO2 T01330128 $
24044KAIA AIA20160613034511406/13/16 03:45:31  5-MIN KAIA 131045Z AUTO 21006KT 10SM OVC006 14/13 A3013 3740 96 4500 200/06 RMK AO2 T01390133 $
24044KAIA AIA20160613035012206/13/16 03:50:31  5-MIN KAIA 131050Z AUTO 22006KT 10SM OVC006 14/14 A3013 3740 100 4500 210/06 RMK AO2 SLP163 T01390139 $
24044KAIA AIA20160613035511406/13/16 03:55:31  5-MIN KAIA 131055Z AUTO 22006KT 10SM OVC006 14/14 A3013 3740 96 4600 210/06 RMK AO2 T01440139 $
24044KAIA AIA20160613040011406/13/16 04:00:31  5-MIN KAIA 131100Z AUTO 22006KT 10SM OVC006 14/14 A3013 3740 96 4600 210/06 RMK AO2 T01440139 $
24044KAIA AIA20160613040511406/13/16 04:05:31  5-MIN KAIA 131105Z AUTO 23006KT 10SM OVC006 14/14 A3014 3730 96 4600 230/06 RMK AO2 T01440139 $
24044KAIA AIA20160613041011406/13/16 04:10:31  5-MIN KAIA 131110Z AUTO 22006KT 10SM OVC006 14/14 A3014 3730 96 4600 220/06 RMK AO2 T01440139 $
24044KAIA AIA20160613041511506/13/16 04:15:31  5-MIN KAIA 131115Z AUTO 21006KT 10SM OVC006 14/14 A3013 3740 100 4600 200/06 RMK AO2 T01440144 $
24044KAIA AIA20160613042011506/13/16 04:20:31  5-MIN KAIA 131120Z AUTO 21006KT 10SM OVC006 14/14 A3013 3740 100 4600 200/06 RMK AO2 T01440144 $
24044KAIA AIA20160613042511506/13/16 04:25:31  5-MIN KAIA 131125Z AUTO 21005KT 10SM BKN006 14/14 A3013 3740 100 4600 200/05 RMK AO2 T01440144 $
24044KAIA AIA20160613043012206/13/16 04:30:31  5-MIN KAIA 131130Z AUTO 22006KT 10SM BKN007 BKN120 14/14 A3014 3730 100 4600 220/06 RMK AO2 T01440144 $
24044KAIA AIA20160613043512206/13/16 04:35:31  5-MIN KAIA 131135Z AUTO 22005KT 10SM BKN007 BKN110 14/14 A3013 3740 100 4600 210/05 RMK AO2 T01440144 $
24044KAIA AIA20160613044012206/13/16 04:40:31  5-MIN KAIA 131140Z AUTO 22005KT 10SM SCT007 BKN110 14/14 A3013 3740 100 4600 210/05 RMK AO2 T01440144 $
24044KAIA AIA20160613044512906/13/16 04:45:31  5-MIN KAIA 131145Z AUTO 19004KT 10SM FEW007 SCT080 BKN110 14/14 A3013 3740 100 4600 190/04 RMK AO2 T01440144 $
24044KAIA AIA20160613045016606/13/16 04:50:31  5-MIN KAIA 131150Z AUTO 18005KT 10SM FEW007 SCT080 BKN110 14/14 A3013 3740 100 4600 180/05 RMK AO2 SLP163 60001 70015 T01440144 10189 20133 53009 $
24044KAIA AIA20160613045512206/13/16 04:55:31  5-MIN KAIA 131155Z AUTO 21003KT 10SM FEW080 BKN100 14/14 A3013 3740 100 4600 200/03 RMK AO2 T01440144 $
24044KAIA AIA20160613050012206/13/16 05:00:31  5-MIN KAIA 131200Z AUTO 19004KT 10SM FEW080 OVC100 14/14 A3013 3740 100 4600 190/04 RMK AO2 T01440144 $
24044KAIA AIA20160613050512106/13/16 05:05:31  5-MIN KAIA 131205Z AUTO 25003KT 10SM FEW080 OVC100 15/14 A3014 3730 93 4600 240/03 RMK AO2 T01500139 $
24044KAIA AIA20160613051012106/13/16 05:10:31  5-MIN KAIA 131210Z AUTO 28007KT 10SM FEW080 OVC100 15/14 A3015 3730 93 4600 280/07 RMK AO2 T01500139 $
24044KAIA AIA20160613051511406/13/16 05:15:31  5-MIN KAIA 131215Z AUTO 29006KT 10SM OVC100 15/14 A3015 3730 96 4600 280/06 RMK AO2 T01500144 $
24044KAIA AIA20160613052011406/13/16 05:20:31  5-MIN KAIA 131220Z AUTO 27004KT 10SM OVC100 15/14 A3014 3730 96 4600 260/04 RMK AO2 T01500144 $
24044KAIA AIA20160613052511406/13/16 05:25:31  5-MIN KAIA 131225Z AUTO 25003KT 10SM OVC100 15/14 A3014 3730 96 4600 250/03 RMK AO2 T01500144 $
24044KAIA AIA20160613053011406/13/16 05:30:31  5-MIN KAIA 131230Z AUTO 26003KT 10SM OVC100 15/14 A3014 3730 96 4600 260/03 RMK AO2 T01500144 $
24044KAIA AIA20160613053511406/13/16 05:35:31  5-MIN KAIA 131235Z AUTO 00000KT 10SM OVC100 15/14 A3013 3740 96 4600 000/00 RMK AO2 T01500144 $
24044KAIA AIA20160613054011406/13/16 05:40:31  5-MIN KAIA 131240Z AUTO 18003KT 10SM OVC095 15/14 A3013 3740 96 4600 180/03 RMK AO2 T01500144 $
24044KAIA AIA20160613054511406/13/16 05:45:31  5-MIN KAIA 131245Z AUTO 19003KT 10SM OVC095 16/15 A3013 3740 96 4700 180/03 RMK AO2 T01560150 $
24044KAIA AIA20160613055012106/13/16 05:50:31  5-MIN KAIA 131250Z AUTO 19004KT 10SM OVC095 16/15 A3012 3750 96 4700 180/04 RMK AO2 SLP160 T01560150 $
24044KAIA AIA20160613055511406/13/16 05:55:31  5-MIN KAIA 131255Z AUTO 18004KT 10SM OVC095 16/15 A3012 3750 96 4700 170/04 RMK AO2 T01560150 $
24044KAIA AIA20160613060011406/13/16 06:00:31  5-MIN KAIA 131300Z AUTO 19003KT 10SM OVC095 16/15 A3012 3750 96 4700 190/03 RMK AO2 T01560150 $
24044KAIA AIA20160613060511406/13/16 06:05:31  5-MIN KAIA 131305Z AUTO 25005KT 10SM BKN095 16/15 A3012 3750 93 4800 240/05 RMK AO2 T01610150 $
24044KAIA AIA20160613061011406/13/16 06:10:31  5-MIN KAIA 131310Z AUTO 27005KT 10SM BKN090 16/15 A3012 3750 93 4800 260/05 RMK AO2 T01610150 $
24044KAIA AIA20160613061511406/13/16 06:15:31  5-MIN KAIA 131315Z AUTO 25007KT 10SM SCT090 16/15 A3012 3750 93 4800 240/07 RMK AO2 T01610150 $
24044KAIA AIA20160613062011406/13/16 06:20:31  5-MIN KAIA 131320Z AUTO 24006KT 10SM SCT090 17/15 A3012 3750 90 4800 230/06 RMK AO2 T01670150 $
24044KAIA AIA20160613062511206/13/16 06:25:31  5-MIN KAIA 131325Z AUTO 24006KT 10SM FEW090 17/15 A3012 3750 90 4800 230/06 RMK AO2 T01670150
24044KAIA AIA20160613063011206/13/16 06:30:31  5-MIN KAIA 131330Z AUTO 23006KT 10SM FEW090 17/15 A3011 3750 90 4800 220/06 RMK AO2 T01670150
24044KAIA AIA20160613063510906/13/16 06:35:31  5-MIN KAIA 131335Z AUTO 23006KT 10SM CLR 17/15 A3012 3750 87 4900 220/06 RMK AO2 T01720150
24044KAIA AIA20160613064010906/13/16 06:40:31  5-MIN KAIA 131340Z AUTO 23007KT 10SM CLR 18/16 A3011 3760 87 5000 220/07 RMK AO2 T01780156
24044KAIA AIA20160613064510906/13/16 06:45:31  5-MIN KAIA 131345Z AUTO 23008KT 10SM CLR 18/16 A3011 3760 87 5000 220/08 RMK AO2 T01780156
24044KAIA AIA20160613065011606/13/16 06:50:31  5-MIN KAIA 131350Z AUTO 21007KT 10SM CLR 18/16 A3011 3750 84 5000 210/07 RMK AO2 SLP159 T01830156
24044KAIA AIA20160613065510906/13/16 06:55:31  5-MIN KAIA 131355Z AUTO 20007KT 10SM CLR 18/16 A3011 3760 84 5000 200/07 RMK AO2 T01830156
24044KAIA AIA20160613070010906/13/16 07:00:31  5-MIN KAIA 131400Z AUTO 20007KT 10SM CLR 19/16 A3011 3760 81 5100 190/07 RMK AO2 T01890156
24044KAIA AIA20160613070510906/13/16 07:05:31  5-MIN KAIA 131405Z AUTO 19008KT 10SM CLR 19/16 A3011 3760 81 5100 180/08 RMK AO2 T01890156
24044KAIA AIA20160613071010906/13/16 07:10:31  5-MIN KAIA 131410Z AUTO 20007KT 10SM CLR 19/16 A3011 3760 81 5200 190/07 RMK AO2 T01940161
24044KAIA AIA20160613071510906/13/16 07:15:31  5-MIN KAIA 131415Z AUTO 22007KT 10SM CLR 19/16 A3011 3760 81 5200 210/07 RMK AO2 T01940161
24044KAIA AIA20160613072010906/13/16 07:20:31  5-MIN KAIA 131420Z AUTO 20009KT 10SM CLR 19/16 A3010 3760 81 5200 190/09 RMK AO2 T01940161
24044KAIA AIA20160613072510906/13/16 07:25:31  5-MIN KAIA 131425Z AUTO 19009KT 10SM CLR 20/16 A3010 3770 78 5200 180/09 RMK AO2 T02000161
24044KAIA AIA20160613073010906/13/16 07:30:31  5-MIN KAIA 131430Z AUTO 19007KT 10SM CLR 21/16 A3010 3770 75 5300 180/07 RMK AO2 T02060161
24044KAIA AIA20160613073510906/13/16 07:35:31  5-MIN KAIA 131435Z AUTO 19006KT 10SM CLR 21/16 A3010 3770 75 5300 180/06 RMK AO2 T02060161
24044KAIA AIA20160613074010906/13/16 07:40:31  5-MIN KAIA 131440Z AUTO 18005KT 10SM CLR 21/16 A3010 3770 75 5300 170/05 RMK AO2 T02060161
24044KAIA AIA20160613074510906/13/16 07:45:31  5-MIN KAIA 131445Z AUTO 19005KT 10SM CLR 21/16 A3010 3770 73 5400 180/05 RMK AO2 T02110161
24044KAIA AIA20160613075012206/13/16 07:50:31  5-MIN KAIA 131450Z AUTO 19005KT 10SM CLR 22/16 A3010 3770 70 5400 180/05 RMK AO2 SLP153 T02170161 53001
24044KAIA AIA20160613075510906/13/16 07:55:31  5-MIN KAIA 131455Z AUTO VRB04KT 10SM CLR 22/16 A3010 3770 68 5400 VRB/04 RMK AO2 T02170156
24044KAIA AIA20160613080010906/13/16 08:00:31  5-MIN KAIA 131500Z AUTO 19004KT 10SM CLR 22/15 A3010 3770 65 5400 180/04 RMK AO2 T02170150
24044KAIA AIA20160613080510906/13/16 08:05:31  5-MIN KAIA 131505Z AUTO 23005KT 10SM CLR 22/14 A3010 3770 61 5500 220/05 RMK AO2 T02220144
24044KAIA AIA20160613081010906/13/16 08:10:31  5-MIN KAIA 131510Z AUTO VRB03KT 10SM CLR 22/14 A3009 3770 61 5500 VRB/03 RMK AO2 T02220144
24044KAIA AIA20160613081510906/13/16 08:15:31  5-MIN KAIA 131515Z AUTO 21004KT 10SM CLR 23/14 A3009 3770 59 5600 210/04 RMK AO2 T02280144
24044KAIA AIA20160613082010906/13/16 08:20:31  5-MIN KAIA 131520Z AUTO 21004KT 10SM CLR 23/14 A3009 3780 59 5600 200/04 RMK AO2 T02280144
24044KAIA AIA20160613082510906/13/16 08:25:31  5-MIN KAIA 131525Z AUTO VRB04KT 10SM CLR 23/14 A3009 3780 57 5600 VRB/04 RMK AO2 T02330144
24044KAIA AIA20160613083010906/13/16 08:30:31  5-MIN KAIA 131530Z AUTO VRB03KT 10SM CLR 23/14 A3009 3780 57 5600 VRB/03 RMK AO2 T02280139
24044KAIA AIA20160613083510906/13/16 08:35:31  5-MIN KAIA 131535Z AUTO 17004KT 10SM CLR 23/14 A3009 3780 55 5600 160/04 RMK AO2 T02330139
24044KAIA AIA20160613084010906/13/16 08:40:31  5-MIN KAIA 131540Z AUTO 00000KT 10SM CLR 23/13 A3009 3780 55 5600 000/00 RMK AO2 T02280133
24044KAIA AIA20160613084510906/13/16 08:45:31  5-MIN KAIA 131545Z AUTO 00000KT 10SM CLR 23/13 A3008 3780 53 5600 000/00 RMK AO2 T02330133
24044KAIA AIA20160613085011606/13/16 08:50:31  5-MIN KAIA 131550Z AUTO VRB05KT 10SM CLR 23/13 A3008 3790 53 5600 VRB/05 RMK AO2 SLP147 T02330133
24044KAIA AIA20160613085510906/13/16 08:55:31  5-MIN KAIA 131555Z AUTO VRB05KT 10SM CLR 23/13 A3008 3780 53 5600 VRB/05 RMK AO2 T02330133
24044KAIA AIA20160613090010906/13/16 09:00:31  5-MIN KAIA 131600Z AUTO VRB04KT 10SM CLR 24/14 A3009 3780 53 5700 VRB/04 RMK AO2 T02390139
24044KAIA AIA20160613090510906/13/16 09:05:31  5-MIN KAIA 131605Z AUTO VRB05KT 10SM CLR 24/14 A3009 3780 51 5800 VRB/05 RMK AO2 T02440139
24044KAIA AIA20160613091010906/13/16 09:10:31  5-MIN KAIA 131610Z AUTO 15006KT 10SM CLR 24/14 A3008 3780 51 5800 140/06 RMK AO2 T02440139
24044KAIA AIA20160613091510906/13/16 09:15:31  5-MIN KAIA 131615Z AUTO VRB04KT 10SM CLR 24/14 A3008 3780 53 5700 VRB/04 RMK AO2 T02390139
24044KAIA AIA20160613092010906/13/16 09:20:31  5-MIN KAIA 131620Z AUTO VRB05KT 10SM CLR 24/13 A3008 3790 51 5700 VRB/05 RMK AO2 T02390133
24044KAIA AIA20160613092510906/13/16 09:25:31  5-MIN KAIA 131625Z AUTO 18007KT 10SM CLR 24/13 A3008 3790 49 5800 170/07 RMK AO2 T02440133
24044KAIA AIA20160613093010906/13/16 09:30:31  5-MIN KAIA 131630Z AUTO 17005KT 10SM CLR 24/14 A3007 3790 51 5800 160/05 RMK AO2 T02440139
24044KAIA AIA20160613093510906/13/16 09:35:31  5-MIN KAIA 131635Z AUTO VRB03KT 10SM CLR 24/14 A3007 3790 51 5800 VRB/03 RMK AO2 T02440139
24044KAIA AIA20160613094010906/13/16 09:40:31  5-MIN KAIA 131640Z AUTO 18006KT 10SM CLR 24/14 A3007 3800 51 5800 170/06 RMK AO2 T02440139
24044KAIA AIA20160613094509906/13/16 09:45:31  5-MIN KAIA 131645Z AUTO 10SM CLR 24/14 A3007 3800 53 5800 M /M RMK AO2 T02440144
24044KAIA AIA20160613095011606/13/16 09:50:31  5-MIN KAIA 131650Z AUTO 14005KT 10SM CLR 25/15 A3007 3800 53 5800 130/05 RMK AO2 SLP142 T02500150
24044KAIA AIA20160613095509906/13/16 09:55:31  5-MIN KAIA 131655Z AUTO 10SM CLR 24/14 A3007 3800 53 5800 M /M RMK AO2 T02440144
24044KAIA AIA20160613100010906/13/16 10:00:31  5-MIN KAIA 131700Z AUTO 21009KT 10SM CLR 25/13 A3007 3800 48 5800 200/09 RMK AO2 T02500133
24044KAIA AIA20160613100510906/13/16 10:05:31  5-MIN KAIA 131705Z AUTO 16008KT 10SM CLR 26/13 A3007 3800 46 5900 150/08 RMK AO2 T02560133
24044KAIA AIA20160613101010906/13/16 10:10:31  5-MIN KAIA 131710Z AUTO 14007KT 10SM CLR 25/13 A3006 3800 46 5800 130/07 RMK AO2 T02500128
24044KAIA AIA20160613101510906/13/16 10:15:31  5-MIN KAIA 131715Z AUTO 17008KT 10SM CLR 26/13 A3007 3800 44 5900 160/08 RMK AO2 T02560128
24044KAIA AIA20160613102010906/13/16 10:20:31  5-MIN KAIA 131720Z AUTO 19006KT 10SM CLR 26/13 A3006 3800 46 5900 190/06 RMK AO2 T02560133
24044KAIA AIA20160613102509906/13/16 10:25:31  5-MIN KAIA 131725Z AUTO 10SM CLR 26/13 A3006 3810 46 5900 M /M RMK AO2 T02560133
24044KAIA AIA20160613103010906/13/16 10:30:31  5-MIN KAIA 131730Z AUTO 11006KT 10SM CLR 26/13 A3005 3810 46 5900 110/06 RMK AO2 T02560133
24044KAIA AIA20160613103512506/13/16 10:35:31  5-MIN KAIA 131735Z AUTO 20008KT 160V220 10SM CLR 26/14 A3005 3810 46 6000 190/08 150V210 RMK AO2 T02610139
24044KAIA AIA20160613104010906/13/16 10:40:31  5-MIN KAIA 131740Z AUTO 21008KT 10SM CLR 26/13 A3005 3820 46 5900 200/08 RMK AO2 T02560133
24044KAIA AIA20160613104511206/13/16 10:45:31  5-MIN KAIA 131745Z AUTO 18007KT 10SM FEW046 26/14 A3004 3820 48 5900 170/07 RMK AO2 T02560139
24044KAIA AIA20160613105015306/13/16 10:50:31  5-MIN KAIA 131750Z AUTO 20007KT 100V260 10SM FEW046 26/14 A3004 3820 46 6000 190/07 090V250 RMK AO2 SLP132 T02610139 10261 20144 58009
24044KAIA AIA20160613105512806/13/16 10:55:31  5-MIN KAIA 131755Z AUTO 20009KT 180V250 10SM FEW046 26/13 A3004 3820 46 5900 190/09 170V240 RMK AO2 T02560133
24044KAIA AIA20160613110011206/13/16 11:00:31  5-MIN KAIA 131800Z AUTO 19009KT 10SM FEW046 26/13 A3004 3820 44 6000 190/09 RMK AO2 T02610133
24044KAIA AIA20160613110512806/13/16 11:05:31  5-MIN KAIA 131805Z AUTO 20007KT 180V240 10SM FEW046 26/13 A3004 3830 43 6000 190/07 170V230 RMK AO2 T02610128
24044KAIA AIA20160613111010906/13/16 11:10:31  5-MIN KAIA 131810Z AUTO VRB05KT 10SM CLR 26/13 A3003 3830 44 6000 VRB/05 RMK AO2 T02610133
24044KAIA AIA20160613111510906/13/16 11:15:31  5-MIN KAIA 131815Z AUTO VRB05KT 10SM CLR 26/13 A3003 3830 43 6000 VRB/05 RMK AO2 T02610128
24044KAIA AIA20160613112010906/13/16 11:20:31  5-MIN KAIA 131820Z AUTO VRB04KT 10SM CLR 26/13 A3003 3830 44 6000 VRB/04 RMK AO2 T02610133
24044KAIA AIA20160613112510906/13/16 11:25:31  5-MIN KAIA 131825Z AUTO 17006KT 10SM CLR 26/13 A3003 3840 44 6000 160/06 RMK AO2 T02610133
24044KAIA AIA20160613113010906/13/16 11:30:31  5-MIN KAIA 131830Z AUTO VRB04KT 10SM CLR 26/13 A3002 3840 44 5900 VRB/04 RMK AO2 T02560128
24044KAIA AIA20160613113510906/13/16 11:35:31  5-MIN KAIA 131835Z AUTO VRB06KT 10SM CLR 27/13 A3002 3840 43 6100 VRB/06 RMK AO2 T02670133
24044KAIA AIA20160613114010906/13/16 11:40:31  5-MIN KAIA 131840Z AUTO VRB04KT 10SM CLR 27/13 A3002 3840 43 6100 VRB/04 RMK AO2 T02670133
24044KAIA AIA20160613114510906/13/16 11:45:31  5-MIN KAIA 131845Z AUTO 15007KT 10SM CLR 27/14 A3001 3850 45 6100 140/07 RMK AO2 T02670139
24044KAIA AIA20160613115011606/13/16 11:50:31  5-MIN KAIA 131850Z AUTO 16008KT 10SM CLR 27/14 A3001 3850 45 6100 150/08 RMK AO2 SLP118 T02670139
24044KAIA AIA20160613115511506/13/16 11:55:31  5-MIN KAIA 131855Z AUTO VRB05G15KT 10SM CLR 27/14 A3001 3850 45 6100 VRB/05G15 RMK AO2 T02670139
24044KAIA AIA20160613120011506/13/16 12:00:31  5-MIN KAIA 131900Z AUTO VRB06G15KT 10SM CLR 27/14 A3001 3850 45 6100 VRB/06G15 RMK AO2 T02670139
24044KAIA AIA20160613120510906/13/16 12:05:31  5-MIN KAIA 131905Z AUTO VRB06KT 10SM CLR 27/14 A3000 3860 43 6100 VRB/06 RMK AO2 T02720139
24044KAIA AIA20160613121011806/13/16 12:10:31  5-MIN KAIA 131910Z AUTO 20007G15KT 10SM FEW050 27/14 A3001 3850 43 6100 200/07G15 RMK AO2 T02720139
24044KAIA AIA20160613121511506/13/16 12:15:31  5-MIN KAIA 131915Z AUTO 13008G15KT 10SM CLR 27/14 A3000 3860 43 6100 130/08G15 RMK AO2 T02720139
24044KAIA AIA20160613122010906/13/16 12:20:31  5-MIN KAIA 131920Z AUTO 17008KT 10SM CLR 27/14 A3000 3860 43 6100 170/08 RMK AO2 T02720139
24044KAIA AIA20160613122510906/13/16 12:25:31  5-MIN KAIA 131925Z AUTO 18006KT 10SM CLR 28/14 A3000 3860 43 6200 180/06 RMK AO2 T02780144
24044KAIA AIA20160613123010906/13/16 12:30:31  5-MIN KAIA 131930Z AUTO 18009KT 10SM CLR 27/13 A3000 3860 42 6200 180/09 RMK AO2 T02720133
24044KAIA AIA20160613123511506/13/16 12:35:31  5-MIN KAIA 131935Z AUTO 19009G17KT 10SM CLR 28/13 A3000 3860 37 6300 180/09G17 RMK AO2 T02830128
24044KAIA AIA20160613124011506/13/16 12:40:31  5-MIN KAIA 131940Z AUTO 20009G17KT 10SM CLR 28/13 A3000 3860 39 6300 190/09G17 RMK AO2 T02830133
24044KAIA AIA20160613124510906/13/16 12:45:31  5-MIN KAIA 131945Z AUTO VRB04KT 10SM CLR 27/13 A2999 3870 42 6200 VRB/04 RMK AO2 T02720133
24044KAIA AIA20160613125012206/13/16 12:50:31  5-MIN KAIA 131950Z AUTO 16011G16KT 10SM CLR 28/13 A2999 3870 37 6300 150/11G16 RMK AO2 SLP112 T02830128
24044KAIA AIA20160613125510906/13/16 12:55:31  5-MIN KAIA 131955Z AUTO 16014KT 10SM CLR 28/13 A2999 3870 37 6300 150/14 RMK AO2 T02830128
24044KAIA AIA20160613130011506/13/16 13:00:31  5-MIN KAIA 132000Z AUTO 20007G17KT 10SM CLR 28/13 A2998 3880 37 6300 190/07G17 RMK AO2 T02830128
24044KAIA AIA20160613130512806/13/16 13:05:31  5-MIN KAIA 132005Z AUTO 13008KT 100V170 10SM FEW060 27/13 A2998 3880 40 6200 130/08 090V160 RMK AO2 T02720128
24044KAIA AIA20160613131011806/13/16 13:10:31  5-MIN KAIA 132010Z AUTO 17013G17KT 10SM FEW060 29/13 A2998 3880 36 6400 160/13G17 RMK AO2 T02890128
24044KAIA AIA20160613131511806/13/16 13:15:31  5-MIN KAIA 132015Z AUTO 19007G17KT 10SM FEW060 28/12 A2997 3890 36 6300 180/07G17 RMK AO2 T02830122
24044KAIA AIA20160613132011806/13/16 13:20:31  5-MIN KAIA 132020Z AUTO 15009G18KT 10SM FEW060 29/12 A2997 3890 34 6400 140/09G18 RMK AO2 T02890117
24044KAIA AIA20160613132511806/13/16 13:25:31  5-MIN KAIA 132025Z AUTO 18011G18KT 10SM FEW060 29/13 A2997 3890 36 6400 170/11G18 RMK AO2 T02890128
24044KAIA AIA20160613133011806/13/16 13:30:31  5-MIN KAIA 132030Z AUTO 19012G20KT 10SM FEW060 29/13 A2997 3890 36 6400 180/12G20 RMK AO2 T02890128
24044KAIA AIA20160613133515206/13/16 13:35:31  5-MIN KAIA 132035Z AUTO 16016G27KT 120V190 10SM FEW060 29/13 A2997 3890 35 6400 160/16G27 110V180 RMK AO2 PK WND 14027/2034 T02940128
24044KAIA AIA20160613134013606/13/16 13:40:31  5-MIN KAIA 132040Z AUTO 17014G27KT 10SM FEW065 29/13 A2996 3900 35 6400 160/14G27 RMK AO2 PK WND 14027/2034 T02940128
24044KAIA AIA20160613134513606/13/16 13:45:31  5-MIN KAIA 132045Z AUTO 14014G21KT 10SM FEW065 28/13 A2996 3900 37 6300 130/14G21 RMK AO2 PK WND 14027/2034 T02830128
24044KAIA AIA20160613135014306/13/16 13:50:31  5-MIN KAIA 132050Z AUTO 15013KT 10SM FEW060 28/13 A2996 3900 39 6300 140/13 RMK AO2 PK WND 14027/2034 SLP102 T02780128 58018
24044KAIA AIA20160613135511206/13/16 13:55:31  5-MIN KAIA 132055Z AUTO 19014KT 10SM FEW060 29/13 A2996 3900 36 6400 180/14 RMK AO2 T02890128
24044KAIA AIA20160613140011206/13/16 14:00:31  5-MIN KAIA 132100Z AUTO 20012KT 10SM SCT060 29/13 A2995 3900 35 6400 190/12 RMK AO2 T02940128
24044KAIA AIA20160613140512906/13/16 14:05:31  5-MIN KAIA 132105Z AUTO 19014G18KT 10SM SCT060 30/13 A2995 3900 35 6500 180/14G18 RMK AO2 WSHFT 2051 T03000133
24044KAIA AIA20160613141012906/13/16 14:10:31  5-MIN KAIA 132110Z AUTO 17010G18KT 10SM SCT060 29/14 A2995 3910 38 6500 160/10G18 RMK AO2 WSHFT 2051 T02940139
24044KAIA AIA20160613141512306/13/16 14:15:31  5-MIN KAIA 132115Z AUTO 15011KT 10SM SCT060 29/14 A2995 3910 38 6500 140/11 RMK AO2 WSHFT 2051 T02940139
24044KAIA AIA20160613142012906/13/16 14:20:31  5-MIN KAIA 132120Z AUTO 20014G21KT 10SM BKN060 29/13 A2995 3910 38 6400 190/14G21 RMK AO2 WSHFT 2051 T02890133
24044KAIA AIA20160613142512906/13/16 14:25:31  5-MIN KAIA 132125Z AUTO 16014G21KT 10SM BKN060 29/13 A2995 3910 36 6500 150/14G21 RMK AO2 WSHFT 2051 T02940133
24044KAIA AIA20160613143014306/13/16 14:30:31  5-MIN KAIA 132130Z AUTO 15015G22KT 10SM SCT060 BKN075 BKN110 28/13 A2994 3920 37 6300 140/15G22 RMK AO2 WSHFT 2051 T02830128
24044KAIA AIA20160613143513606/13/16 14:35:31  5-MIN KAIA 132135Z AUTO 19015G22KT 10SM BKN065 BKN110 28/13 A2994 3920 37 6300 180/15G22 RMK AO2 WSHFT 2051 T02830128
24044KAIA AIA20160613144013606/13/16 14:40:31  5-MIN KAIA 132140Z AUTO 18016G21KT 10SM BKN065 BKN100 28/12 A2993 3920 35 6300 180/16G21 RMK AO2 WSHFT 2051 T02830117
24044KAIA AIA20160613144512906/13/16 14:45:31  5-MIN KAIA 132145Z AUTO 18014G23KT 10SM SCT065 29/12 A2993 3930 34 6500 170/14G23 RMK AO2 WSHFT 2051 T02940122
24044KAIA AIA20160613145013606/13/16 14:50:31  5-MIN KAIA 132150Z AUTO 18017G24KT 10SM SCT070 29/12 A2992 3930 35 6400 180/17G24 RMK AO2 WSHFT 2051 SLP090 T02890122
24044KAIA AIA20160613145512506/13/16 14:55:31  5-MIN KAIA 132155Z AUTO 18016G24KT 10SM SCT070 BKN100 28/12 A2992 3940 36 6400 170/16G24 RMK AO2 T02830122
24044KAIA AIA20160613150012506/13/16 15:00:31  5-MIN KAIA 132200Z AUTO 17014G23KT 10SM SCT070 SCT100 29/12 A2991 3940 34 6500 170/14G23 RMK AO2 T02940122
24044KAIA AIA20160613150511806/13/16 15:05:31  5-MIN KAIA 132205Z AUTO 17016G22KT 10SM FEW070 28/12 A2991 3940 36 6300 160/16G22 RMK AO2 T02780117
24044KAIA AIA20160613151011806/13/16 15:10:31  5-MIN KAIA 132210Z AUTO 17017G23KT 10SM FEW070 29/12 A2991 3950 34 6500 160/17G23 RMK AO2 T02940122
24044KAIA AIA20160613151511806/13/16 15:15:31  5-MIN KAIA 132215Z AUTO 17019G23KT 10SM FEW070 30/13 A2990 3950 34 6600 160/19G23 RMK AO2 T03000128
24044KAIA AIA20160613152011806/13/16 15:20:31  5-MIN KAIA 132220Z AUTO 16017G23KT 10SM FEW070 29/12 A2990 3960 34 6500 150/17G23 RMK AO2 T02940122
24044KAIA AIA20160613152511806/13/16 15:25:31  5-MIN KAIA 132225Z AUTO 17016G22KT 10SM FEW070 29/12 A2989 3960 34 6500 160/16G22 RMK AO2 T02940122
24044KAIA AIA20160613153011806/13/16 15:30:31  5-MIN KAIA 132230Z AUTO 17015G20KT 10SM FEW070 29/12 A2989 3970 34 6500 160/15G20 RMK AO2 T02940122
24044KAIA AIA20160613153511806/13/16 15:35:31  5-MIN KAIA 132235Z AUTO 19013G20KT 10SM FEW070 29/12 A2988 3970 35 6500 180/13G20 RMK AO2 T02890122
24044KAIA AIA20160613154011506/13/16 15:40:31  5-MIN KAIA 132240Z AUTO 17013G22KT 10SM CLR 29/13 A2988 3970 35 6500 160/13G22 RMK AO2 T02940128
24044KAIA AIA20160613154511506/13/16 15:45:31  5-MIN KAIA 132245Z AUTO 19014G22KT 10SM CLR 29/12 A2988 3970 35 6500 180/14G22 RMK AO2 T02890122
24044KAIA AIA20160613155012506/13/16 15:50:31  5-MIN KAIA 132250Z AUTO 19017G20KT 10SM FEW070 29/12 A2988 3970 34 6500 180/17G20 RMK AO2 SLP076 T02890117
24044KAIA AIA20160613155511806/13/16 15:55:31  5-MIN KAIA 132255Z AUTO 19013G20KT 10SM FEW070 29/12 A2988 3970 34 6500 180/13G20 RMK AO2 T02890117
24044KAIA AIA20160613160011806/13/16 16:00:31  5-MIN KAIA 132300Z AUTO 19016G19KT 10SM FEW065 29/12 A2988 3970 35 6500 180/16G19 RMK AO2 T02890122
24044KAIA AIA20160613160511806/13/16 16:05:31  5-MIN KAIA 132305Z AUTO 21014G19KT 10SM FEW065 29/13 A2987 3980 36 6500 210/14G19 RMK AO2 T02890128
24044KAIA AIA20160613161011806/13/16 16:10:31  5-MIN KAIA 132310Z AUTO 21014G19KT 10SM FEW065 29/14 A2988 3970 39 6500 210/14G19 RMK AO2 T02890139
24044KAIA AIA20160613161511806/13/16 16:15:31  5-MIN KAIA 132315Z AUTO 19013G21KT 10SM FEW065 28/14 A2988 3980 40 6400 180/13G21 RMK AO2 T02830139
24044KAIA AIA20160613162011506/13/16 16:20:31  5-MIN KAIA 132320Z AUTO 21012G21KT 10SM CLR 28/14 A2987 3980 40 6400 200/12G21 RMK AO2 T02830139
24044KAIA AIA20160613162511506/13/16 16:25:31  5-MIN KAIA 132325Z AUTO 22012G19KT 10SM CLR 28/14 A2987 3980 40 6400 210/12G19 RMK AO2 T02830139
24044KAIA AIA20160613163010906/13/16 16:30:31  5-MIN KAIA 132330Z AUTO 20012KT 10SM CLR 28/14 A2988 3980 40 6400 190/12 RMK AO2 T02830139
24044KAIA AIA20160613163510906/13/16 16:35:31  5-MIN KAIA 132335Z AUTO 22013KT 10SM CLR 28/14 A2987 3980 42 6400 210/13 RMK AO2 T02780139
24044KAIA AIA20160613164010906/13/16 16:40:31  5-MIN KAIA 132340Z AUTO 23012KT 10SM CLR 28/14 A2987 3980 42 6400 220/12 RMK AO2 T02780139
24044KAIA AIA20160613164510906/13/16 16:45:31  5-MIN KAIA 132345Z AUTO 23011KT 10SM CLR 28/14 A2987 3980 42 6400 220/11 RMK AO2 T02780139
24044KAIA AIA20160613165013406/13/16 16:50:31  5-MIN KAIA 132350Z AUTO 25010KT 10SM CLR 28/14 A2987 3980 42 6400 240/10 RMK AO2 SLP071 T02780139 10300 20256 57026
24044KAIA AIA20160613165510906/13/16 16:55:31  5-MIN KAIA 132355Z AUTO 25011KT 10SM CLR 28/14 A2987 3980 43 6400 240/11 RMK AO2 T02780144
24044KAIA AIA20160613170010906/13/16 17:00:31  5-MIN KAIA 140000Z AUTO 24006KT 10SM CLR 27/14 A2987 3980 43 6300 230/06 RMK AO2 T02720139
24044KAIA AIA20160613170510906/13/16 17:05:31  5-MIN KAIA 140005Z AUTO 26008KT 10SM CLR 27/14 A2986 3990 43 6300 250/08 RMK AO2 T02720139
24044KAIA AIA20160613171010906/13/16 17:10:31  5-MIN KAIA 140010Z AUTO 25009KT 10SM CLR 27/14 A2986 3990 43 6300 240/09 RMK AO2 T02720139
24044KAIA AIA20160613171510906/13/16 17:15:31  5-MIN KAIA 140015Z AUTO 24010KT 10SM CLR 27/14 A2986 3990 43 6300 230/10 RMK AO2 T02720139
24044KAIA AIA20160613172010906/13/16 17:20:31  5-MIN KAIA 140020Z AUTO 25006KT 10SM CLR 27/14 A2986 3990 43 6300 240/06 RMK AO2 T02720139
24044KAIA AIA20160613172510906/13/16 17:25:31  5-MIN KAIA 140025Z AUTO 24008KT 10SM CLR 27/14 A2986 3990 45 6300 240/08 RMK AO2 T02720144
24044KAIA AIA20160613173010906/13/16 17:30:31  5-MIN KAIA 140030Z AUTO 24010KT 10SM CLR 27/14 A2986 3990 46 6200 230/10 RMK AO2 T02670144
24044KAIA AIA20160613173510906/13/16 17:35:31  5-MIN KAIA 140035Z AUTO 23009KT 10SM CLR 27/14 A2987 3980 45 6200 230/09 RMK AO2 T02670139
24044KAIA AIA20160613174010906/13/16 17:40:31  5-MIN KAIA 140040Z AUTO 24009KT 10SM CLR 26/14 A2987 3990 46 6200 230/09 RMK AO2 T02610139
24044KAIA AIA20160613174510906/13/16 17:45:31  5-MIN KAIA 140045Z AUTO 24009KT 10SM CLR 26/14 A2986 3990 46 6200 230/09 RMK AO2 T02610139
24044KAIA AIA20160613175011606/13/16 17:50:31  5-MIN KAIA 140050Z AUTO 24008KT 10SM CLR 26/14 A2987 3980 48 6200 230/08 RMK AO2 SLP071 T02610144
24044KAIA AIA20160613175510906/13/16 17:55:31  5-MIN KAIA 140055Z AUTO 24009KT 10SM CLR 26/14 A2987 3980 49 6100 230/09 RMK AO2 T02560144
24044KAIA AIA20160613180010906/13/16 18:00:31  5-MIN KAIA 140100Z AUTO 24009KT 10SM CLR 26/14 A2987 3980 49 6100 230/09 RMK AO2 T02560144
24044KAIA AIA20160613180512706/13/16 18:05:31  5-MIN KAIA 140105Z AUTO 23009KT 10SM CLR 26/14 A2986 3990 49 6100 220/09 RMK AO2 LTG DSNT S AND NW T02560144
24044KAIA AIA20160613181012306/13/16 18:10:31  5-MIN KAIA 140110Z AUTO 23009KT 10SM CLR 26/14 A2986 3990 49 6100 230/09 RMK AO2 LTG DSNT S-NW T02560144
24044KAIA AIA20160613181512306/13/16 18:15:31  5-MIN KAIA 140115Z AUTO 23007KT 10SM CLR 25/14 A2985 4000 51 6100 230/07 RMK AO2 LTG DSNT S-NW T02500144
24044KAIA AIA20160613182012306/13/16 18:20:31  5-MIN KAIA 140120Z AUTO 23007KT 10SM CLR 25/14 A2985 4000 51 6100 230/07 RMK AO2 LTG DSNT S-NW T02500144
24044KAIA AIA20160613182512606/13/16 18:25:31  5-MIN KAIA 140125Z AUTO 24007KT 10SM FEW110 25/14 A2985 4000 51 6100 240/07 RMK AO2 LTG DSNT S-NW T02500144
24044KAIA AIA20160613183013306/13/16 18:30:31  5-MIN KAIA 140130Z AUTO 25006KT 10SM FEW090 FEW110 24/14 A2985 4000 53 6000 240/06 RMK AO2 LTG DSNT S-NW T02440144
24044KAIA AIA20160613183513306/13/16 18:35:31  5-MIN KAIA 140135Z AUTO 26005KT 10SM SCT090 SCT110 24/15 A2986 3990 57 6000 250/05 RMK AO2 LTG DSNT S-NW T02390150
24044KAIA AIA20160613184014006/13/16 18:40:31  5-MIN KAIA 140140Z AUTO 26005KT 10SM FEW065 BKN090 BKN110 24/16 A2985 3990 59 6000 260/05 RMK AO2 LTG DSNT S-NW T02390156
24044KAIA AIA20160613184514006/13/16 18:45:31  5-MIN KAIA 140145Z AUTO 27006KT 10SM FEW065 BKN090 BKN110 24/15 A2985 4000 57 6000 260/06 RMK AO2 LTG DSNT S-NW T02390150
24044KAIA AIA20160613185012906/13/16 18:50:31  5-MIN KAIA 140150Z AUTO 27007KT 10SM VCTS FEW060 BKN090 23/15 A2985 4000 59 5900 260/07 RMK AO2 LTG DSNT ALQDS
24044KAIA AIA20160613185517006/13/16 18:55:31  5-MIN KAIA 140155Z AUTO 27019G27KT 10SM VCTS SCT060 BKN075 OVC095 23/15 A2987 3980 59 5900 260/19G27 RMK AO2 PK WND 28027/0155 LTG DSNT ALQDS T02330150
24044KAIA AIA20160613190019906/13/16 19:00:31  5-MIN KAIA 140200Z AUTO 28016G30KT 7SM -TSRA FEW023 BKN060 OVC090 21/13 A2991 3940 60 5500 280/16G30 RMK AO2 PK WND 28030/0158 LTG DSNT ALQDS RAB0159 TSB0157 PRESRR P0001 T02060128
24044KAIA AIA20160613190519206/13/16 19:05:31  5-MIN KAIA 140205Z AUTO 28012G30KT 3SM +TSRA FEW019 BKN055 OVC095 18/14 A2992 3940 75 5300 270/12G30 RMK AO2 PK WND 28030/0158 LTG DSNT ALQDS RAB0159 TSB0157 P0005 T01830139
24044KAIA AIA20160613191020206/13/16 19:10:31  5-MIN KAIA 140210Z AUTO 29012KT 2 1/2SM +TSRA FEW019 BKN055 OVC075 18/14 A2991 3950 78 5200 280/12 RMK AO2 PK WND 28030/0158 VIS 1 1/2V4 LTG DSNT ALQDS RAB0159 TSB0157 P0007 T01780139
24044KAIA AIA20160613191518606/13/16 19:15:31  5-MIN KAIA 140215Z AUTO 29009KT 4SM -TSRA FEW019 BKN065 OVC100 18/14 A2991 3940 81 5200 280/09 RMK AO2 PK WND 28030/0158 LTG DSNT ALQDS RAB0159 TSB0157 P0008 T01780144
24044KAIA AIA20160613192018706/13/16 19:20:31  5-MIN KAIA 140220Z AUTO 34006KT 10SM -TSRA FEW019 BKN085 OVC100 18/14 A2992 3930 81 5200 330/06 RMK AO2 PK WND 28030/0158 LTG DSNT ALQDS RAB0159 TSB0157 P0008 T01780144
24044KAIA AIA20160613192518706/13/16 19:25:31  5-MIN KAIA 140225Z AUTO 05014KT 10SM -TSRA FEW019 BKN075 OVC095 18/15 A2993 3930 83 5200 050/14 RMK AO2 PK WND 28030/0158 LTG DSNT ALQDS RAB0159 TSB0157 P0008 T01780150
24044KAIA AIA20160613193019206/13/16 19:30:31  5-MIN KAIA 140230Z AUTO 10012G21KT 10SM TS SCT050 BKN075 OVC095 17/15 A2993 3920 87 5100 090/12G21 RMK AO2 PK WND 28030/0158 LTG DSNT NE-S RAB0159E29 TSB0157 P0008 T01720150
24044KAIA AIA20160613193519206/13/16 19:35:31  5-MIN KAIA 140235Z AUTO 10008G21KT 10SM -TSRA SCT055 BKN070 OVC095 17/15 A2993 3920 87 5100 090/08G21 RMK AO2 PK WND 28030/0158 LTG DSNT NE-S RAB0159 TSB0157 P0008 T01720150
24044KAIA AIA20160613194019206/13/16 19:40:31  5-MIN KAIA 140240Z AUTO 05010KT 10SM VCTS -RA FEW049 BKN075 OVC095 17/15 A2992 3930 87 5100 040/10 RMK AO2 PK WND 28030/0158 LTG DSNT NE-S RAB0159 TSB0157E37 P0008 T01720150
24044KAIA AIA20160613194518706/13/16 19:45:31  5-MIN KAIA 140245Z AUTO 04014KT 10SM -RA SCT060 SCT075 OVC100 16/15 A2992 3940 93 5000 030/14 RMK AO2 PK WND 28030/0158 LTG DSNT NE-S RAB0159 TSB0157E37 P0008 T01610150
24044KAIA AIA20160613195017706/13/16 19:50:31  5-MIN KAIA 140250Z AUTO 03013KT 10SM -RA SCT060 SCT075 OVC100 16/15 A2992 3940 93 5000 020/13 RMK AO2 PK WND 28030/0158 LTG DSNT NE-S RAB0159 TSB0157E37 P0009
24044KAIA AIA20160613195515406/13/16 19:55:31  5-MIN KAIA 140255Z AUTO 03010KT 10SM -RA FEW060 OVC100 16/15 A2991 3940 93 5000 020/10 RMK AO2 WSHFT 0240 LTG DSNT NE-S P0000 T01610150
24044KAIA AIA20160613200016406/13/16 20:00:31  5-MIN KAIA 140300Z AUTO 03008KT 10SM -TSRA FEW060 OVC100 16/15 A2992 3930 93 5000 020/08 RMK AO2 WSHFT 0240 LTG DSNT NE-S TSB0258 P0000 T01610150
24044KAIA AIA20160613200515706/13/16 20:05:31  5-MIN KAIA 140305Z AUTO 05009KT 10SM -TSRA OVC100 16/15 A2993 3930 93 5000 040/09 RMK AO2 WSHFT 0240 LTG DSNT NE-S TSB0258 P0000 T01610150
24044KAIA AIA20160613201015806/13/16 20:10:31  5-MIN KAIA 140310Z AUTO 07010KT 10SM -TSRA OVC100 16/15 A2994 3920 93 5000 060/10 RMK AO2 WSHFT 0240 LTG DSNT NE-SE TSB0258 P0001 T01610150
24044KAIA AIA20160613201515906/13/16 20:15:31  5-MIN KAIA 140315Z AUTO 08010KT 10SM -RA OVC100 16/15 A2994 3920 93 5000 070/10 RMK AO2 WSHFT 0240 LTG DSNT NE-SE TSB0258E13 P0001 T01610150
24044KAIA AIA20160613202015906/13/16 20:20:31  5-MIN KAIA 140320Z AUTO 07014KT 10SM -RA OVC095 16/15 A2994 3910 93 5000 060/14 RMK AO2 WSHFT 0240 LTG DSNT NE-SE TSB0258E13 P0001 T01610150
24044KAIA AIA20160613202516606/13/16 20:25:31  5-MIN KAIA 140325Z AUTO 07012KT 10SM -RA SCT080 OVC100 16/15 A2994 3910 93 5000 070/12 RMK AO2 WSHFT 0240 LTG DSNT NE-SE TSB0258E13 P0001 T01610150
24044KAIA AIA20160613203017506/13/16 20:30:31  5-MIN KAIA 140330Z AUTO 09011G18KT 10SM -RA BKN090 OVC110 16/15 A2995 3910 93 5000 080/11G18 RMK AO2 WSHFT 0240 LTG DSNT NE AND E TSB0258E13 P0002 T01610150
24044KAIA AIA20160613203516806/13/16 20:35:31  5-MIN KAIA 140335Z AUTO 11010KT 10SM RA FEW010 SCT060 OVC095 16/14 A2995 3910 93 4900 100/10 RMK AO2 WSHFT 0240 LTG DSNT E TSB0258E13 P0003 T01560144
24044KAIA AIA20160613204015706/13/16 20:40:31  5-MIN KAIA 140340Z AUTO 10011KT 9SM -RA FEW010 SCT060 OVC090 16/15 A2994 3910 96 4900 090/11 RMK AO2 WSHFT 0240 TSB0258E13 P0004 T01560150
24044KAIA AIA20160613204515606/13/16 20:45:31  5-MIN KAIA 140345Z AUTO 09010KT 7SM RA FEW010 SCT060 OVC085 16/14 A2993 3920 93 4900 080/10 RMK AO2 WSHFT 0240 TSB0258E13 P0007 T01560144
24044KAIA AIA20160613205016706/13/16 20:50:31  5-MIN KAIA 140350Z AUTO 10009KT 5SM +RA BR FEW010 SCT060 OVC090 16/15 A2994 3910 96 4900 090/09 RMK AO2 WSHFT 0240 TSB0258E13 SLP102 P0009 T01560150
24044KAIA AIA20160613205513806/13/16 20:55:31  5-MIN KAIA 140355Z AUTO 11008KT 6SM -RA BR FEW010 SCT060 OVC090 16/15 A2994 3910 96 4900 100/08 RMK AO2 P0000 T01560150
24044KAIA AIA20160613210014806/13/16 21:00:31  5-MIN KAIA 140400Z AUTO 10008KT 10SM -RA SCT010 BKN060 OVC085 16/15 A2993 3920 96 4900 090/08 RMK AO2 LTG DSNT NE P0001 T01560150
24044KAIA AIA20160613210514806/13/16 21:05:31  5-MIN KAIA 140405Z AUTO 09006KT 10SM -RA SCT010 BKN060 OVC085 16/15 A2994 3920 96 4900 090/06 RMK AO2 LTG DSNT NE P0002 T01560150
24044KAIA AIA20160613211014806/13/16 21:10:31  5-MIN KAIA 140410Z AUTO 08006KT 10SM -RA SCT010 BKN044 OVC085 16/15 A2994 3920 96 4900 070/06 RMK AO2 LTG DSNT NE P0002 T01560150
24044KAIA AIA20160613211513606/13/16 21:15:31  5-MIN KAIA 140415Z AUTO 08008KT 10SM -RA SCT010 BKN070 OVC100 16/15 A2994 3920 96 4900 070/08 RMK AO2 P0002 T01560150
24044KAIA AIA20160613212013606/13/16 21:20:31  5-MIN KAIA 140420Z AUTO VRB03KT 10SM -RA SCT010 BKN070 OVC085 16/15 A2995 3910 96 4900 VRB/03 RMK AO2 P0002 T01560150
24044KAIA AIA20160613212513806/13/16 21:25:31  5-MIN KAIA 140425Z AUTO 35005KT 10SM BKN010 BKN070 OVC100 16/15 A2995 3910 96 4900 340/05 RMK AO2 RAE22 P0002 T01560150
24044KAIA AIA20160613213014406/13/16 21:30:31  5-MIN KAIA 140430Z AUTO 03005KT 9SM -RA BKN009 BKN049 OVC070 16/15 A2993 3920 96 4900 020/05 RMK AO2 RAE22B30 P0003 T01560150
24044KAIA AIA20160613213514306/13/16 21:35:31  5-MIN KAIA 140435Z AUTO 03005KT 8SM RA BKN009 BKN041 OVC070 16/15 A2993 3920 96 4900 020/05 RMK AO2 RAE22B30 P0004 T01560150
24044KAIA AIA20160613214013706/13/16 21:40:31  5-MIN KAIA 140440Z AUTO 36006KT 9SM -RA BKN009 OVC070 16/15 A2994 3920 96 4900 350/06 RMK AO2 RAE22B30 P0004 T01560150
24044KAIA AIA20160613214513706/13/16 21:45:31  5-MIN KAIA 140445Z AUTO 35007KT 10SM SCT009 OVC070 16/15 A2994 3920 96 4900 340/07 RMK AO2 RAE22B30E45 P0004 T01560150
24044KAIA AIA20160613215014406/13/16 21:50:31  5-MIN KAIA 140450Z AUTO 36006KT 10SM BKN009 OVC070 16/15 A2994 3920 96 4900 350/06 RMK AO2 RAE22B30E45 SLP097 P0004 T01560150
24044KAIA AIA20160613215511906/13/16 21:55:31  5-MIN KAIA 140455Z AUTO 36006KT 10SM BKN009 OVC070 16/15 A2993 3920 96 4900 360/06 RMK AO2 T01560150
24044KAIA AIA20160613220011906/13/16 22:00:31  5-MIN KAIA 140500Z AUTO 02006KT 10SM BKN009 OVC070 16/15 A2993 3930 96 4900 010/06 RMK AO2 T01560150
24044KAIA AIA20160613220511906/13/16 22:05:31  5-MIN KAIA 140505Z AUTO 01008KT 10SM BKN009 OVC065 16/15 A2993 3930 96 4900 360/08 RMK AO2 T01560150
24044KAIA AIA20160613221011906/13/16 22:10:31  5-MIN KAIA 140510Z AUTO 01009KT 10SM BKN009 OVC065 16/15 A2993 3930 96 4900 010/09 RMK AO2 T01560150
24044KAIA AIA20160613221511206/13/16 22:15:31  5-MIN KAIA 140515Z AUTO 01008KT 10SM OVC009 16/15 A2993 3920 96 4900 010/08 RMK AO2 T01560150
24044KAIA AIA20160613222011206/13/16 22:20:31  5-MIN KAIA 140520Z AUTO 01010KT 10SM OVC008 16/15 A2993 3920 96 4900 360/10 RMK AO2 T01560150
24044KAIA AIA20160613222511206/13/16 22:25:31  5-MIN KAIA 140525Z AUTO 01009KT 10SM OVC008 16/14 A2994 3920 93 4900 360/09 RMK AO2 T01560144
24044KAIA AIA20160613223011206/13/16 22:30:31  5-MIN KAIA 140530Z AUTO 01009KT 10SM OVC008 16/14 A2994 3920 93 4900 360/09 RMK AO2 T01560144
24044KAIA AIA20160613223511206/13/16 22:35:31  5-MIN KAIA 140535Z AUTO 02009KT 10SM OVC008 16/14 A2993 3920 93 4900 020/09 RMK AO2 T01560144
24044KAIA AIA20160613224011206/13/16 22:40:31  5-MIN KAIA 140540Z AUTO 02009KT 10SM OVC008 16/14 A2993 3920 93 4900 010/09 RMK AO2 T01560144
24044KAIA AIA20160613224511206/13/16 22:45:31  5-MIN KAIA 140545Z AUTO 02010KT 10SM OVC008 16/14 A2993 3930 93 4900 020/10 RMK AO2 T01560144
24044KAIA AIA20160613225014306/13/16 22:50:31  5-MIN KAIA 140550Z AUTO 03011KT 10SM OVC008 16/14 A2992 3930 93 4900 020/11 RMK AO2 SLP091 60022 T01560144 10256 20156 50019
24044KAIA AIA20160613225511206/13/16 22:55:31  5-MIN KAIA 140555Z AUTO 03009KT 10SM OVC008 16/14 A2992 3930 93 4900 020/09 RMK AO2 T01560144
24044KAIA AIA20160613230013106/13/16 23:00:31  5-MIN KAIA 140600Z AUTO 03009KT 10SM BKN008 BKN120 16/14 A2992 3930 93 4900 020/09 RMK AO2 LTG DSNT SE T01560144
24044KAIA AIA20160613230513106/13/16 23:05:31  5-MIN KAIA 140605Z AUTO 05007KT 10SM BKN008 BKN120 16/14 A2992 3930 93 4900 040/07 RMK AO2 LTG DSNT SE T01560144
24044KAIA AIA20160613231013706/13/16 23:10:31  5-MIN KAIA 140610Z AUTO 06009KT 10SM SCT008 BKN120 16/14 A2992 3940 93 4900 050/09 RMK AO2 LTG DSNT SE AND S T01560144
24044KAIA AIA20160613231513006/13/16 23:15:31  5-MIN KAIA 140615Z AUTO 07008KT 10SM SCT008 BKN120 16/14 A2991 3940 93 5000 060/08 RMK AO2 LTG DSNT S T01560144
24044KAIA AIA20160613232013006/13/16 23:20:31  5-MIN KAIA 140620Z AUTO 09008KT 10SM SCT008 OVC120 16/14 A2991 3940 93 5000 080/08 RMK AO2 LTG DSNT S T01560144
24044KAIA AIA20160614093510906/14/16 09:35:31  5-MIN KAIA 141635Z AUTO 28013KT 10SM CLR 24/08 A2981 4040 35 6100 270/13 RMK AO2 T02440083
24044KAIA AIA20160614094010906/14/16 09:40:31  5-MIN KAIA 141640Z AUTO 29014KT 10SM CLR 24/08 A2981 4040 35 6100 280/14 RMK AO2 T02440083
24044KAIA AIA20160614094511506/14/16 09:45:31  5-MIN KAIA 141645Z AUTO 28012G19KT 10SM CLR 24/09 A2981 4040 36 6100 270/12G19 RMK AO2 T02440089
24044KAIA AIA20160614095012206/14/16 09:50:31  5-MIN KAIA 141650Z AUTO 28014G20KT 10SM CLR 24/09 A2981 4040 36 6100 270/14G20 RMK AO2 SLP054 T02440089
24044KAIA AIA20160614095511506/14/16 09:55:31  5-MIN KAIA 141655Z AUTO 28014G20KT 10SM CLR 24/08 A2981 4040 35 6100 280/14G20 RMK AO2 T02440083
24044KAIA AIA20160614100010906/14/16 10:00:31  5-MIN KAIA 141700Z AUTO 27014KT 10SM CLR 25/09 A2981 4040 35 6100 260/14 RMK AO2 T02500089
24044KAIA AIA20160614100510906/14/16 10:05:31  5-MIN KAIA 141705Z AUTO 26014KT 10SM CLR 25/09 A2981 4040 37 6100 250/14 RMK AO2 T02500094
24044KAIA AIA20160614101011506/14/16 10:10:31  5-MIN KAIA 141710Z AUTO 29016G20KT 10SM CLR 25/08 A2980 4040 34 6100 280/16G20 RMK AO2 T02500083
24044KAIA AIA20160614101511506/14/16 10:15:31  5-MIN KAIA 141715Z AUTO 28012G20KT 10SM CLR 25/09 A2980 4040 35 6100 270/12G20 RMK AO2 T02500089
24044KAIA AIA20160614102010906/14/16 10:20:31  5-MIN KAIA 141720Z AUTO 28013KT 10SM CLR 25/08 A2980 4040 34 6100 270/13 RMK AO2 T02500083
24044KAIA AIA20160614102511506/14/16 10:25:31  5-MIN KAIA 141725Z AUTO 29016G21KT 10SM CLR 25/08 A2980 4040 34 6100 280/16G21 RMK AO2 T02500083
24044KAIA AIA20160614103011506/14/16 10:30:31  5-MIN KAIA 141730Z AUTO 28012G21KT 10SM CLR 25/08 A2980 4040 34 6100 270/12G21 RMK AO2 T02500083
24044KAIA AIA20160614103511506/14/16 10:35:31  5-MIN KAIA 141735Z AUTO 29013G22KT 10SM CLR 26/08 A2980 4050 33 6200 280/13G22 RMK AO2 T02560083
24044KAIA AIA20160614104011506/14/16 10:40:31  5-MIN KAIA 141740Z AUTO 27017G22KT 10SM CLR 26/08 A2980 4050 33 6200 270/17G22 RMK AO2 T02560083
24044KAIA AIA20160614104511506/14/16 10:45:31  5-MIN KAIA 141745Z AUTO 29013G21KT 10SM CLR 26/08 A2980 4050 32 6200 280/13G21 RMK AO2 T02560078
24044KAIA AIA20160614105013406/14/16 10:50:31  5-MIN KAIA 141750Z AUTO 28013KT 10SM CLR 26/08 A2980 4050 32 6300 270/13 RMK AO2 SLP048 T02610083 10261 20128 58009
24044KAIA AIA20160614105511506/14/16 10:55:31  5-MIN KAIA 141755Z AUTO 28013G21KT 10SM CLR 26/08 A2980 4050 31 6300 270/13G21 RMK AO2 T02610078
24044KAIA AIA20160614110011506/14/16 11:00:31  5-MIN KAIA 141800Z AUTO 27017G23KT 10SM CLR 26/09 A2980 4050 33 6300 270/17G23 RMK AO2 T02610089
24044KAIA AIA20160614110511506/14/16 11:05:31  5-MIN KAIA 141805Z AUTO 29011G23KT 10SM CLR 26/08 A2980 4050 32 6300 280/11G23 RMK AO2 T02610083
24044KAIA AIA20160614111011506/14/16 11:10:31  5-MIN KAIA 141810Z AUTO 27010G20KT 10SM CLR 26/08 A2980 4050 31 6300 260/10G20 RMK AO2 T02610078
24044KAIA AIA20160614111511306/14/16 11:15:31  5-MIN KAIA 141815Z AUTO 28013G22KT 10SM 26/08 A2980 4050 31 6300 270/13G22 RMK AO2 T02610078 $
24044KAIA AIA20160614112011306/14/16 11:20:31  5-MIN KAIA 141820Z AUTO 27014G22KT 10SM 26/08 A2979 4050 31 6300 260/14G22 RMK AO2 T02610078 $
24044KAIA AIA20160614112511306/14/16 11:25:31  5-MIN KAIA 141825Z AUTO 28009G20KT 10SM 27/08 A2979 4050 29 6300 280/09G20 RMK AO2 T02670078 $
24044KAIA AIA20160614113011306/14/16 11:30:31  5-MIN KAIA 141830Z AUTO 25013G17KT 10SM 27/07 A2979 4050 28 6300 240/13G17 RMK AO2 T02670072 $
24044KAIA AIA20160614113510706/14/16 11:35:31  5-MIN KAIA 141835Z AUTO 26016KT 10SM 27/07 A2979 4050 28 6300 260/16 RMK AO2 T02670072 $
24044KAIA AIA20160614114011306/14/16 11:40:31  5-MIN KAIA 141840Z AUTO 27010G19KT 10SM 27/06 A2979 4060 26 6300 260/10G19 RMK AO2 T02670061 $
24044KAIA AIA20160614114511306/14/16 11:45:31  5-MIN KAIA 141845Z AUTO 29012G19KT 10SM 27/07 A2979 4060 27 6400 280/12G19 RMK AO2 T02720072 $
24044KAIA AIA20160614115012006/14/16 11:50:31  5-MIN KAIA 141850Z AUTO 27016G19KT 10SM 26/06 A2979 4060 26 6300 260/16G19 RMK AO2 SLP045 T02610056 $
24044KAIA AIA20160614115510706/14/16 11:55:31  5-MIN KAIA 141855Z AUTO 26015KT 10SM 27/06 A2979 4060 25 6300 260/15 RMK AO2 T02670056 $
24044KAIA AIA20160614120011306/14/16 12:00:31  5-MIN KAIA 141900Z AUTO 25013G21KT 10SM 27/06 A2979 4060 25 6300 240/13G21 RMK AO2 T02670056 $
24044KAIA AIA20160614120511306/14/16 12:05:31  5-MIN KAIA 141905Z AUTO 29011G21KT 10SM 27/06 A2979 4060 25 6400 280/11G21 RMK AO2 T02720061 $
24044KAIA AIA20160614121011306/14/16 12:10:31  5-MIN KAIA 141910Z AUTO 27011G19KT 10SM 26/06 A2979 4060 27 6300 260/11G19 RMK AO2 T02610061 $
24044KAIA AIA20160614121511306/14/16 12:15:31  5-MIN KAIA 141915Z AUTO 29015G20KT 10SM 26/06 A2979 4060 27 6300 280/15G20 RMK AO2 T02610061 $
24044KAIA AIA20160614122011306/14/16 12:20:31  5-MIN KAIA 141920Z AUTO 28013G20KT 10SM 27/06 A2979 4060 24 6400 280/13G20 RMK AO2 T02720056 $
24044KAIA AIA20160614122511306/14/16 12:25:31  5-MIN KAIA 141925Z AUTO 25013G20KT 10SM 27/06 A2979 4060 24 6400 250/13G20 RMK AO2 T02720056 $
24044KAIA AIA20160614123011306/14/16 12:30:31  5-MIN KAIA 141930Z AUTO 28012G19KT 10SM 27/06 A2978 4060 25 6400 270/12G19 RMK AO2 T02720061 $
24044KAIA AIA20160614123511306/14/16 12:35:31  5-MIN KAIA 141935Z AUTO 28015G19KT 10SM 28/06 A2978 4060 24 6500 270/15G19 RMK AO2 T02780056 $
24044KAIA AIA20160614124010706/14/16 12:40:31  5-MIN KAIA 141940Z AUTO 28014KT 10SM 27/04 A2978 4070 23 6400 280/14 RMK AO2 T02720044 $
24044KAIA AIA20160614124511406/14/16 12:45:31  5-MIN KAIA 141945Z AUTO 28015KT 10SM FEW090 27/06 A2978 4070 25 6300 280/15 RMK AO2 T02670056 $
24044KAIA AIA20160614125012406/14/16 12:50:31  5-MIN KAIA 141950Z AUTO 27016G21KT 10SM CLR 28/05 A2978 4070 23 6500 260/16G21 RMK AO2 SLP039 T02780050 $
24044KAIA AIA20160614125511706/14/16 12:55:31  5-MIN KAIA 141955Z AUTO 27012G21KT 10SM CLR 28/05 A2978 4070 23 6500 260/12G21 RMK AO2 T02780050 $
24044KAIA AIA20160614130012006/14/16 13:00:31  5-MIN KAIA 142000Z AUTO 26018G22KT 10SM FEW095 28/05 A2978 4060 23 6500 250/18G22 RMK AO2 T02780050 $
24044KAIA AIA20160614130512006/14/16 13:05:31  5-MIN KAIA 142005Z AUTO 26014G22KT 10SM FEW095 28/06 A2978 4060 23 6500 260/14G22 RMK AO2 T02830056 $
24044KAIA AIA20160614131011706/14/16 13:10:31  5-MIN KAIA 142010Z AUTO 26012G21KT 10SM CLR 28/06 A2978 4060 24 6500 250/12G21 RMK AO2 T02780056 $
24044KAIA AIA20160614131511106/14/16 13:15:31  5-MIN KAIA 142015Z AUTO 24014KT 10SM CLR 28/06 A2978 4060 24 6500 240/14 RMK AO2 T02780056 $
24044KAIA AIA20160614132011706/14/16 13:20:31  5-MIN KAIA 142020Z AUTO 24014G21KT 10SM CLR 28/06 A2978 4070 24 6500 230/14G21 RMK AO2 T02780056 $
24044KAIA AIA20160614132511706/14/16 13:25:31  5-MIN KAIA 142025Z AUTO 25012G21KT 10SM CLR 28/06 A2978 4070 25 6500 240/12G21 RMK AO2 T02780061 $
24044KAIA AIA20160614133011706/14/16 13:30:31  5-MIN KAIA 142030Z AUTO 26015G23KT 10SM CLR 28/06 A2978 4070 23 6500 250/15G23 RMK AO2 T02830056 $
24044KAIA AIA20160614133511706/14/16 13:35:31  5-MIN KAIA 142035Z AUTO 26016G23KT 10SM CLR 28/06 A2977 4070 23 6500 250/16G23 RMK AO2 T02830056 $
24044KAIA AIA20160614134011706/14/16 13:40:31  5-MIN KAIA 142040Z AUTO 29012G21KT 10SM CLR 28/06 A2978 4070 23 6500 280/12G21 RMK AO2 T02830056 $
24044KAIA AIA20160614134511106/14/16 13:45:31  5-MIN KAIA 142045Z AUTO 28011KT 10SM CLR 28/06 A2977 4070 24 6500 270/11 RMK AO2 T02830061 $
24044KAIA AIA20160614135012406/14/16 13:50:31  5-MIN KAIA 142050Z AUTO 29011KT 10SM CLR 29/06 A2977 4070 22 6600 280/11 RMK AO2 SLP038 T02890056 58004 $
24044KAIA AIA20160614135511706/14/16 13:55:31  5-MIN KAIA 142055Z AUTO 25010G18KT 10SM CLR 28/06 A2977 4070 23 6500 240/10G18 RMK AO2 T02830056 $
24044KAIA AIA20160614140011706/14/16 14:00:31  5-MIN KAIA 142100Z AUTO 26009G18KT 10SM CLR 28/05 A2977 4070 23 6500 250/09G18 RMK AO2 T02780050 $
24044KAIA AIA20160614140511706/14/16 14:05:31  5-MIN KAIA 142105Z AUTO 26014G19KT 10SM CLR 28/06 A2977 4080 23 6500 250/14G19 RMK AO2 T02830056 $
24044KAIA AIA20160614141011106/14/16 14:10:31  5-MIN KAIA 142110Z AUTO 27016KT 10SM CLR 29/06 A2977 4070 22 6600 260/16 RMK AO2 T02890056 $
24044KAIA AIA20160614141511706/14/16 14:15:31  5-MIN KAIA 142115Z AUTO 27011G21KT 10SM CLR 28/05 A2977 4080 22 6500 270/11G21 RMK AO2 T02830050 $
24044KAIA AIA20160614142011106/14/16 14:20:31  5-MIN KAIA 142120Z AUTO 28011KT 10SM CLR 29/06 A2977 4080 22 6600 270/11 RMK AO2 T02890056 $
24044KAIA AIA20160614142511706/14/16 14:25:31  5-MIN KAIA 142125Z AUTO 26014G20KT 10SM CLR 29/06 A2977 4080 22 6600 250/14G20 RMK AO2 T02890056 $
24044KAIA AIA20160614143011706/14/16 14:30:31  5-MIN KAIA 142130Z AUTO 27013G20KT 10SM CLR 29/06 A2977 4070 22 6600 260/13G20 RMK AO2 T02890056 $
24044KAIA AIA20160614143511706/14/16 14:35:31  5-MIN KAIA 142135Z AUTO 26009G17KT 10SM CLR 29/06 A2977 4080 22 6600 260/09G17 RMK AO2 T02890056 $
24044KAIA AIA20160614144011706/14/16 14:40:31  5-MIN KAIA 142140Z AUTO 27011G17KT 10SM CLR 29/06 A2977 4080 22 6600 260/11G17 RMK AO2 T02890056 $
24044KAIA AIA20160614144511406/14/16 14:45:31  5-MIN KAIA 142145Z AUTO 29012KT 10SM FEW100 29/05 A2976 4080 21 6600 280/12 RMK AO2 T02890050 $
24044KAIA AIA20160614145012706/14/16 14:50:31  5-MIN KAIA 142150Z AUTO 30013G19KT 10SM FEW100 29/05 A2976 4080 21 6600 290/13G19 RMK AO2 SLP035 T02890050 $
24044KAIA AIA20160614145512006/14/16 14:55:31  5-MIN KAIA 142155Z AUTO 29010G19KT 10SM FEW110 28/05 A2976 4080 23 6500 280/10G19 RMK AO2 T02780050 $
24044KAIA AIA20160614150011406/14/16 15:00:31  5-MIN KAIA 142200Z AUTO 29010KT 10SM SCT100 28/05 A2976 4080 22 6500 280/10 RMK AO2 T02830050 $
24044KAIA AIA20160614150512006/14/16 15:05:31  5-MIN KAIA 142205Z AUTO 26015G20KT 10SM BKN100 29/06 A2976 4080 22 6600 250/15G20 RMK AO2 T02890056 $
24044KAIA AIA20160614151012006/14/16 15:10:31  5-MIN KAIA 142210Z AUTO 27014G22KT 10SM BKN100 29/06 A2976 4080 23 6600 260/14G22 RMK AO2 T02890061 $
24044KAIA AIA20160614151512006/14/16 15:15:31  5-MIN KAIA 142215Z AUTO 26015G22KT 10SM BKN100 29/06 A2976 4080 22 6600 250/15G22 RMK AO2 T02890056 $
24044KAIA AIA20160614152011406/14/16 15:20:31  5-MIN KAIA 142220Z AUTO 26011KT 10SM BKN100 27/06 A2976 4080 25 6400 250/11 RMK AO2 T02720061 $
24044KAIA AIA20160614152511406/14/16 15:25:31  5-MIN KAIA 142225Z AUTO 27016KT 10SM BKN100 28/06 A2976 4080 24 6500 270/16 RMK AO2 T02780056 $
24044KAIA AIA20160614153011406/14/16 15:30:31  5-MIN KAIA 142230Z AUTO 27011KT 10SM SCT110 27/06 A2976 4080 25 6400 270/11 RMK AO2 T02670056 $
24044KAIA AIA20160614153511406/14/16 15:35:31  5-MIN KAIA 142235Z AUTO 30011KT 10SM SCT100 27/06 A2976 4090 25 6400 290/11 RMK AO2 T02720061 $
24044KAIA AIA20160614154014506/14/16 15:40:31  5-MIN KAIA 142240Z AUTO 30018G29KT 10SM BKN100 BKN110 29/06 A2976 4080 22 6600 290/18G29 RMK AO2 PK WND 29029/2236 T02890056 $
24044KAIA AIA20160614154514506/14/16 15:45:31  5-MIN KAIA 142245Z AUTO 30013G29KT 10SM SCT100 SCT110 28/05 A2976 4080 23 6500 290/13G29 RMK AO2 PK WND 29029/2236 T02780050 $
24044KAIA AIA20160614155013706/14/16 15:50:31  5-MIN KAIA 142250Z AUTO 31012KT 10SM FEW100 29/04 A2976 4080 20 6600 300/12 RMK AO2 PK WND 29029/2236 SLP032 T02890044
24044KAIA AIA20160614155511206/14/16 15:55:31  5-MIN KAIA 142255Z AUTO 28016KT 10SM FEW100 28/04 A2976 4080 22 6500 280/16 RMK AO2 T02780044
24044KAIA AIA20160614160011206/14/16 16:00:31  5-MIN KAIA 142300Z AUTO 29014KT 10SM FEW100 29/04 A2976 4080 20 6600 280/14 RMK AO2 T02890044
24044KAIA AIA20160614160511806/14/16 16:05:31  5-MIN KAIA 142305Z AUTO 28016G20KT 10SM FEW100 29/04 A2976 4080 20 6600 270/16G20 RMK AO2 T02890044
24044KAIA AIA20160614161011506/14/16 16:10:31  5-MIN KAIA 142310Z AUTO 29016G21KT 10SM CLR 28/04 A2976 4080 20 6500 280/16G21 RMK AO2 T02830039
24044KAIA AIA20160614161511506/14/16 16:15:31  5-MIN KAIA 142315Z AUTO 28017G21KT 10SM CLR 28/04 A2976 4080 20 6500 270/17G21 RMK AO2 T02830039
24044KAIA AIA20160614162011506/14/16 16:20:31  5-MIN KAIA 142320Z AUTO 27016G21KT 10SM CLR 28/04 A2976 4080 21 6500 270/16G21 RMK AO2 T02780039
24044KAIA AIA20160614162510906/14/16 16:25:31  5-MIN KAIA 142325Z AUTO 28011KT 10SM CLR 28/04 A2976 4080 21 6500 270/11 RMK AO2 T02830044
24044KAIA AIA20160614163011206/14/16 16:30:31  5-MIN KAIA 142330Z AUTO 31012KT 10SM FEW110 29/04 A2976 4080 20 6600 300/12 RMK AO2 T02890044
24044KAIA AIA20160614163511206/14/16 16:35:31  5-MIN KAIA 142335Z AUTO 29009KT 10SM SCT100 28/04 A2976 4080 21 6500 280/09 RMK AO2 T02830044
24044KAIA AIA20160614164011206/14/16 16:40:31  5-MIN KAIA 142340Z AUTO 28013KT 10SM FEW100 28/05 A2976 4080 23 6500 270/13 RMK AO2 T02780050
24044KAIA AIA20160614164511206/14/16 16:45:31  5-MIN KAIA 142345Z AUTO 27011KT 10SM FEW100 27/06 A2976 4080 25 6400 260/11 RMK AO2 T02670056
24044KAIA AIA20160614165013706/14/16 16:50:31  5-MIN KAIA 142350Z AUTO 26008KT 10SM FEW100 27/06 A2976 4080 26 6400 250/08 RMK AO2 SLP038 T02670061 10294 20256 56007
24044KAIA AIA20160614165511206/14/16 16:55:31  5-MIN KAIA 142355Z AUTO 25009KT 10SM SCT110 28/06 A2976 4080 23 6500 240/09 RMK AO2 T02830056
24044KAIA AIA20160614170011206/14/16 17:00:31  5-MIN KAIA 150000Z AUTO 26007KT 10SM SCT110 28/06 A2976 4080 25 6500 250/07 RMK AO2 T02780061
24044KAIA AIA20160614170511206/14/16 17:05:31  5-MIN KAIA 150005Z AUTO 26009KT 10SM FEW110 28/06 A2976 4080 25 6500 250/09 RMK AO2 T02780061
24044KAIA AIA20160614171011206/14/16 17:10:31  5-MIN KAIA 150010Z AUTO 27009KT 10SM FEW110 27/06 A2976 4080 25 6400 260/09 RMK AO2 T02720061
24044KAIA AIA20160614171511206/14/16 17:15:31  5-MIN KAIA 150015Z AUTO 27013KT 10SM FEW100 28/06 A2977 4080 24 6500 260/13 RMK AO2 T02780056
24044KAIA AIA20160614172011206/14/16 17:20:31  5-MIN KAIA 150020Z AUTO 27009KT 10SM FEW100 28/06 A2977 4080 24 6500 260/09 RMK AO2 T02780056
24044KAIA AIA20160614172510906/14/16 17:25:31  5-MIN KAIA 150025Z AUTO 27008KT 10SM CLR 28/07 A2977 4080 26 6500 260/08 RMK AO2 T02780067
24044KAIA AIA20160614173010906/14/16 17:30:31  5-MIN KAIA 150030Z AUTO 27007KT 10SM CLR 28/06 A2977 4080 25 6500 260/07 RMK AO2 T02780061
24044KAIA AIA20160614173510906/14/16 17:35:31  5-MIN KAIA 150035Z AUTO 28008KT 10SM CLR 27/07 A2977 4080 26 6400 270/08 RMK AO2 T02720067
24044KAIA AIA20160614174010906/14/16 17:40:31  5-MIN KAIA 150040Z AUTO 27010KT 10SM CLR 27/07 A2977 4080 26 6400 260/10 RMK AO2 T02720067
24044KAIA AIA20160614174510906/14/16 17:45:31  5-MIN KAIA 150045Z AUTO 27008KT 10SM CLR 27/06 A2977 4070 25 6400 260/08 RMK AO2 T02720061
24044KAIA AIA20160614175011606/14/16 17:50:31  5-MIN KAIA 150050Z AUTO 26007KT 10SM CLR 27/07 A2977 4070 27 6400 250/07 RMK AO2 SLP038 T02670067
24044KAIA AIA20160614175510906/14/16 17:55:31  5-MIN KAIA 150055Z AUTO 26007KT 10SM CLR 26/08 A2977 4070 31 6300 250/07 RMK AO2 T02610078
24044KAIA AIA20160614180010906/14/16 18:00:31  5-MIN KAIA 150100Z AUTO 26006KT 10SM CLR 26/08 A2977 4070 32 6300 250/06 RMK AO2 T02610083
24044KAIA AIA20160614180510906/14/16 18:05:31  5-MIN KAIA 150105Z AUTO 26006KT 10SM CLR 26/09 A2978 4070 33 6300 250/06 RMK AO2 T02610089
24044KAIA AIA20160614181010906/14/16 18:10:31  5-MIN KAIA 150110Z AUTO 25005KT 10SM CLR 26/10 A2978 4070 37 6200 240/05 RMK AO2 T02560100
24044KAIA AIA20160614181510906/14/16 18:15:31  5-MIN KAIA 150115Z AUTO 24004KT 10SM CLR 26/11 A2978 4070 40 6200 230/04 RMK AO2 T02560111
24044KAIA AIA20160614182010906/14/16 18:20:31  5-MIN KAIA 150120Z AUTO 25004KT 10SM CLR 25/12 A2978 4070 43 6200 240/04 RMK AO2 T02500117
24044KAIA AIA20160614182510906/14/16 18:25:31  5-MIN KAIA 150125Z AUTO 24005KT 10SM CLR 25/12 A2978 4060 43 6200 230/05 RMK AO2 T02500117
24044KAIA AIA20160614183010906/14/16 18:30:31  5-MIN KAIA 150130Z AUTO 23005KT 10SM CLR 24/11 A2978 4060 42 6100 230/05 RMK AO2 T02440111
24044KAIA AIA20160614183510906/14/16 18:35:31  5-MIN KAIA 150135Z AUTO 22005KT 10SM CLR 24/12 A2978 4060 46 6000 220/05 RMK AO2 T02390117
24044KAIA AIA20160614184010906/14/16 18:40:31  5-MIN KAIA 150140Z AUTO 22006KT 10SM CLR 23/11 A2978 4060 45 6000 210/06 RMK AO2 T02330111
24044KAIA AIA20160614184510906/14/16 18:45:31  5-MIN KAIA 150145Z AUTO 21005KT 10SM CLR 23/11 A2978 4060 45 6000 210/05 RMK AO2 T02330111
24044KAIA AIA20160614185011606/14/16 18:50:31  5-MIN KAIA 150150Z AUTO 22004KT 10SM CLR 24/11 A2978 4060 42 6000 210/04 RMK AO2 SLP044 T02390106
24044KAIA AIA20160614185510906/14/16 18:55:31  5-MIN KAIA 150155Z AUTO 22004KT 10SM CLR 24/11 A2978 4060 42 6000 210/04 RMK AO2 T02390106
24044KAIA AIA20160614190010906/14/16 19:00:31  5-MIN KAIA 150200Z AUTO 21004KT 10SM CLR 24/11 A2979 4060 42 6000 200/04 RMK AO2 T02390106
24044KAIA AIA20160614190510906/14/16 19:05:31  5-MIN KAIA 150205Z AUTO 21003KT 10SM CLR 22/11 A2979 4060 49 5800 200/03 RMK AO2 T02220111
24044KAIA AIA20160614191010906/14/16 19:10:31  5-MIN KAIA 150210Z AUTO 21004KT 10SM CLR 23/09 A2979 4060 41 6000 200/04 RMK AO2 T02330094
24044KAIA AIA20160614191510906/14/16 19:15:31  5-MIN KAIA 150215Z AUTO 21003KT 10SM CLR 23/09 A2979 4060 39 6000 210/03 RMK AO2 T02330089
24044KAIA AIA20160614192010906/14/16 19:20:31  5-MIN KAIA 150220Z AUTO 22005KT 10SM CLR 23/09 A2979 4050 40 5900 210/05 RMK AO2 T02280089
24044KAIA AIA20160614192510906/14/16 19:25:31  5-MIN KAIA 150225Z AUTO 22005KT 10SM CLR 22/09 A2979 4050 43 5800 220/05 RMK AO2 T02170089
24044KAIA AIA20160614193010906/14/16 19:30:31  5-MIN KAIA 150230Z AUTO 22005KT 10SM CLR 21/09 A2979 4050 48 5700 210/05 RMK AO2 T02060094
24044KAIA AIA20160614193510906/14/16 19:35:31  5-MIN KAIA 150235Z AUTO 22005KT 10SM CLR 21/10 A2980 4050 50 5600 210/05 RMK AO2 T02060100
24044KAIA AIA20160614194010906/14/16 19:40:31  5-MIN KAIA 150240Z AUTO 21005KT 10SM CLR 21/10 A2980 4050 50 5600 200/05 RMK AO2 T02060100
24044KAIA AIA20160614194510906/14/16 19:45:31  5-MIN KAIA 150245Z AUTO 22005KT 10SM CLR 21/09 A2980 4050 48 5600 210/05 RMK AO2 T02060094
24044KAIA AIA20160614195012206/14/16 19:50:31  5-MIN KAIA 150250Z AUTO 21005KT 10SM CLR 21/08 A2980 4050 43 5700 210/05 RMK AO2 SLP048 T02110083 55004
24044KAIA AIA20160614195510906/14/16 19:55:31  5-MIN KAIA 150255Z AUTO 21005KT 10SM CLR 21/08 A2980 4050 43 5700 200/05 RMK AO2 T02110083
24044KAIA AIA20160614200010906/14/16 20:00:31  5-MIN KAIA 150300Z AUTO 21004KT 10SM CLR 20/09 A2980 4040 50 5600 200/04 RMK AO2 T02000094
24044KAIA AIA20160614200510906/14/16 20:05:31  5-MIN KAIA 150305Z AUTO 20004KT 10SM CLR 18/10 A2981 4040 58 5400 200/04 RMK AO2 T01830100
24044KAIA AIA20160614201010906/14/16 20:10:31  5-MIN KAIA 150310Z AUTO 18003KT 10SM CLR 18/10 A2981 4040 58 5400 170/03 RMK AO2 T01830100
24044KAIA AIA20160614201510906/14/16 20:15:31  5-MIN KAIA 150315Z AUTO 00000KT 10SM CLR 18/10 A2981 4040 60 5300 000/00 RMK AO2 T01780100
24044KAIA AIA20160614202010906/14/16 20:20:31  5-MIN KAIA 150320Z AUTO 19003KT 10SM CLR 18/11 A2981 4040 62 5300 180/03 RMK AO2 T01780106
24044KAIA AIA20160614202510906/14/16 20:25:31  5-MIN KAIA 150325Z AUTO 00000KT 10SM CLR 18/10 A2981 4030 58 5400 000/00 RMK AO2 T01830100
24044KAIA AIA20160614203010906/14/16 20:30:31  5-MIN KAIA 150330Z AUTO 00000KT 10SM CLR 18/10 A2981 4030 60 5300 000/00 RMK AO2 T01780100
24044KAIA AIA20160614203510906/14/16 20:35:31  5-MIN KAIA 150335Z AUTO 17003KT 10SM CLR 17/10 A2982 4030 62 5300 170/03 RMK AO2 T01720100
24044KAIA AIA20160614204010906/14/16 20:40:31  5-MIN KAIA 150340Z AUTO 17004KT 10SM CLR 17/10 A2982 4030 62 5200 160/04 RMK AO2 T01720100
24044KAIA AIA20160614204510906/14/16 20:45:31  5-MIN KAIA 150345Z AUTO 17005KT 10SM CLR 17/09 A2982 4030 62 5200 160/05 RMK AO2 T01670094
24044KAIA AIA20160614205011606/14/16 20:50:31  5-MIN KAIA 150350Z AUTO 17005KT 10SM CLR 17/09 A2982 4030 62 5200 160/05 RMK AO2 SLP059 T01670094
24044KAIA AIA20160614205510906/14/16 20:55:31  5-MIN KAIA 150355Z AUTO 17006KT 10SM CLR 16/09 A2982 4030 64 5100 160/06 RMK AO2 T01610094
24044KAIA AIA20160614210010906/14/16 21:00:31  5-MIN KAIA 150400Z AUTO 18007KT 10SM CLR 15/11 A2982 4020 74 5000 170/07 RMK AO2 T01500106
24044KAIA AIA20160614210510906/14/16 21:05:31  5-MIN KAIA 150405Z AUTO 18006KT 10SM CLR 14/11 A2983 4020 80 4900 170/06 RMK AO2 T01440111
24044KAIA AIA20160614211010906/14/16 21:10:31  5-MIN KAIA 150410Z AUTO 18006KT 10SM CLR 14/11 A2983 4020 80 4900 180/06 RMK AO2 T01440111
24044KAIA AIA20160614211510906/14/16 21:15:31  5-MIN KAIA 150415Z AUTO 20004KT 10SM CLR 14/11 A2983 4020 80 4900 190/04 RMK AO2 T01440111
24044KAIA AIA20160614212010906/14/16 21:20:31  5-MIN KAIA 150420Z AUTO 23004KT 10SM CLR 14/11 A2983 4020 77 4900 220/04 RMK AO2 T01440106
24044KAIA AIA20160614212510906/14/16 21:25:31  5-MIN KAIA 150425Z AUTO 22005KT 10SM CLR 16/10 A2983 4020 69 5000 210/05 RMK AO2 T01560100
24044KAIA AIA20160614213010906/14/16 21:30:31  5-MIN KAIA 150430Z AUTO 22006KT 10SM CLR 16/09 A2983 4020 67 5000 220/06 RMK AO2 T01560094
24044KAIA AIA20160615073010906/15/16 07:30:31  5-MIN KAIA 151430Z AUTO 19004KT 10SM CLR 23/11 A2993 3930 45 5800 180/04 RMK AO2 T02330111
24044KAIA AIA20160615073510906/15/16 07:35:31  5-MIN KAIA 151435Z AUTO VRB03KT 10SM CLR 24/11 A2993 3930 42 5900 VRB/03 RMK AO2 T02390106
24044KAIA AIA20160615074010906/15/16 07:40:31  5-MIN KAIA 151440Z AUTO 23006KT 10SM CLR 24/11 A2993 3930 42 5900 220/06 RMK AO2 T02440111
24044KAIA AIA20160615074510906/15/16 07:45:31  5-MIN KAIA 151445Z AUTO 19003KT 10SM CLR 24/11 A2993 3930 41 5900 180/03 RMK AO2 T02440106
24044KAIA AIA20160615075012206/15/16 07:50:31  5-MIN KAIA 151450Z AUTO 20005KT 10SM CLR 26/11 A2993 3930 40 6100 190/05 RMK AO2 SLP088 T02560111 53009
24044KAIA AIA20160615075510906/15/16 07:55:31  5-MIN KAIA 151455Z AUTO 21007KT 10SM CLR 26/10 A2993 3920 36 6100 200/07 RMK AO2 T02610100
24044KAIA AIA20160615080010906/15/16 08:00:31  5-MIN KAIA 151500Z AUTO 22006KT 10SM CLR 26/09 A2993 3920 34 6100 220/06 RMK AO2 T02610094
24044KAIA AIA20160615080510906/15/16 08:05:31  5-MIN KAIA 151505Z AUTO 21004KT 10SM CLR 27/10 A2993 3930 34 6200 200/04 RMK AO2 T02670100
24044KAIA AIA20160615081010906/15/16 08:10:31  5-MIN KAIA 151510Z AUTO 22006KT 10SM CLR 27/09 A2993 3930 33 6200 210/06 RMK AO2 T02670094
24044KAIA AIA20160615081510906/15/16 08:15:31  5-MIN KAIA 151515Z AUTO 24004KT 10SM CLR 26/09 A2993 3930 33 6100 240/04 RMK AO2 T02610089
24044KAIA AIA20160615082010906/15/16 08:20:31  5-MIN KAIA 151520Z AUTO 21006KT 10SM CLR 27/09 A2993 3930 32 6200 200/06 RMK AO2 T02720094
24044KAIA AIA20160615082510906/15/16 08:25:31  5-MIN KAIA 151525Z AUTO 19005KT 10SM CLR 27/09 A2993 3930 32 6200 180/05 RMK AO2 T02720094
24044KAIA AIA20160615083010906/15/16 08:30:31  5-MIN KAIA 151530Z AUTO 22006KT 10SM CLR 27/09 A2992 3930 32 6200 210/06 RMK AO2 T02720094
24044KAIA AIA20160615083510906/15/16 08:35:31  5-MIN KAIA 151535Z AUTO 20005KT 10SM CLR 28/10 A2992 3930 32 6300 190/05 RMK AO2 T02780100
24044KAIA AIA20160615084010906/15/16 08:40:31  5-MIN KAIA 151540Z AUTO 19007KT 10SM CLR 28/09 A2992 3930 31 6300 190/07 RMK AO2 T02780094
24044KAIA AIA20160615084510906/15/16 08:45:31  5-MIN KAIA 151545Z AUTO 18005KT 10SM CLR 28/09 A2992 3930 30 6400 180/05 RMK AO2 T02830094
24044KAIA AIA20160615085011606/15/16 08:50:31  5-MIN KAIA 151550Z AUTO 18005KT 10SM CLR 28/09 A2992 3930 30 6400 180/05 RMK AO2 SLP087 T02830094
24044KAIA AIA20160615085510906/15/16 08:55:31  5-MIN KAIA 151555Z AUTO 19008KT 10SM CLR 28/09 A2992 3930 29 6400 180/08 RMK AO2 T02830089
24044KAIA AIA20160615090010906/15/16 09:00:31  5-MIN KAIA 151600Z AUTO 21006KT 10SM CLR 28/09 A2992 3930 29 6400 200/06 RMK AO2 T02830089
24044KAIA AIA20160615090510906/15/16 09:05:31  5-MIN KAIA 151605Z AUTO 21006KT 10SM CLR 28/08 A2992 3930 28 6400 210/06 RMK AO2 T02830083
24044KAIA AIA20160615091010906/15/16 09:10:31  5-MIN KAIA 151610Z AUTO 21007KT 10SM CLR 29/08 A2992 3930 27 6400 200/07 RMK AO2 T02890083
24044KAIA AIA20160615091510906/15/16 09:15:31  5-MIN KAIA 151615Z AUTO 22008KT 10SM CLR 29/08 A2992 3940 26 6500 220/08 RMK AO2 T02940083
24044KAIA AIA20160615092010906/15/16 09:20:31  5-MIN KAIA 151620Z AUTO 17008KT 10SM CLR 29/08 A2992 3930 25 6500 170/08 RMK AO2 T02940078
24044KAIA AIA20160615092510906/15/16 09:25:31  5-MIN KAIA 151625Z AUTO 19006KT 10SM CLR 29/08 A2992 3940 25 6500 180/06 RMK AO2 T02940078
24044KAIA AIA20160615093010906/15/16 09:30:31  5-MIN KAIA 151630Z AUTO 19008KT 10SM CLR 30/07 A2992 3930 23 6500 180/08 RMK AO2 T03000072
24044KAIA AIA20160615093510906/15/16 09:35:31  5-MIN KAIA 151635Z AUTO 19009KT 10SM CLR 31/07 A2992 3930 22 6600 180/09 RMK AO2 T03060067
24044KAIA AIA20160615094010906/15/16 09:40:31  5-MIN KAIA 151640Z AUTO 18010KT 10SM CLR 31/07 A2992 3930 22 6600 170/10 RMK AO2 T03060067
24044KAIA AIA20160615094510906/15/16 09:45:31  5-MIN KAIA 151645Z AUTO 21009KT 10SM CLR 31/07 A2992 3930 22 6600 200/09 RMK AO2 T03060067
24044KAIA AIA20160615095011606/15/16 09:50:31  5-MIN KAIA 151650Z AUTO 20013KT 10SM CLR 31/07 A2992 3940 22 6600 190/13 RMK AO2 SLP085 T03060067
24044KAIA AIA20160615095510906/15/16 09:55:31  5-MIN KAIA 151655Z AUTO 19009KT 10SM CLR 31/07 A2992 3940 22 6600 190/09 RMK AO2 T03060067
24044KAIA AIA20160615100011506/15/16 10:00:31  5-MIN KAIA 151700Z AUTO 19009G15KT 10SM CLR 31/07 A2992 3940 21 6700 180/09G15 RMK AO2 T03110067
24044KAIA AIA20160615100510906/15/16 10:05:31  5-MIN KAIA 151705Z AUTO 17009KT 10SM CLR 31/07 A2992 3940 22 6700 160/09 RMK AO2 T03110072
24044KAIA AIA20160615101011506/15/16 10:10:31  5-MIN KAIA 151710Z AUTO 17010G17KT 10SM CLR 31/06 A2992 3930 19 6700 160/10G17 RMK AO2 T03110056
24044KAIA AIA20160615101511506/15/16 10:15:31  5-MIN KAIA 151715Z AUTO 19012G17KT 10SM CLR 32/06 A2992 3940 19 6700 180/12G17 RMK AO2 T03170056
24044KAIA AIA20160615102010906/15/16 10:20:31  5-MIN KAIA 151720Z AUTO 20011KT 10SM CLR 31/05 A2992 3940 19 6700 190/11 RMK AO2 T03110050
24044KAIA AIA20160615102510906/15/16 10:25:31  5-MIN KAIA 151725Z AUTO 18009KT 10SM CLR 31/05 A2992 3940 19 6700 170/09 RMK AO2 T03110050
24044KAIA AIA20160615103010906/15/16 10:30:31  5-MIN KAIA 151730Z AUTO 17009KT 10SM CLR 32/06 A2991 3940 20 6700 160/09 RMK AO2 T03170061
24044KAIA AIA20160615103510906/15/16 10:35:31  5-MIN KAIA 151735Z AUTO 17013KT 10SM CLR 32/05 A2991 3940 18 6700 160/13 RMK AO2 T03170050
24044KAIA AIA20160615104011506/15/16 10:40:31  5-MIN KAIA 151740Z AUTO 19014G18KT 10SM CLR 32/04 A2992 3940 17 6700 190/14G18 RMK AO2 T03170044
24044KAIA AIA20160615104511506/15/16 10:45:31  5-MIN KAIA 151745Z AUTO 17009G18KT 10SM CLR 32/04 A2991 3940 17 6700 160/09G18 RMK AO2 T03170039
24044KAIA AIA20160615105014006/15/16 10:50:31  5-MIN KAIA 151750Z AUTO 17010G17KT 10SM CLR 32/04 A2992 3940 17 6700 160/10G17 RMK AO2 SLP084 T03170044 10317 20111 51010
24044KAIA AIA20160615105511506/15/16 10:55:31  5-MIN KAIA 151755Z AUTO 18009G19KT 10SM CLR 32/06 A2991 3940 18 6800 170/09G19 RMK AO2 T03220056
24044KAIA AIA20160615110011506/15/16 11:00:31  5-MIN KAIA 151800Z AUTO 19011G19KT 10SM CLR 32/05 A2991 3940 18 6700 180/11G19 RMK AO2 T03170050
24044KAIA AIA20160615110510906/15/16 11:05:31  5-MIN KAIA 151805Z AUTO 19012KT 10SM CLR 32/05 A2992 3940 18 6700 190/12 RMK AO2 T03170050
24044KAIA AIA20160615111010906/15/16 11:10:31  5-MIN KAIA 151810Z AUTO 17013KT 10SM CLR 32/06 A2991 3940 18 6800 160/13 RMK AO2 T03220056
24044KAIA AIA20160615111510906/15/16 11:15:31  5-MIN KAIA 151815Z AUTO 16013KT 10SM CLR 32/06 A2991 3950 18 6800 160/13 RMK AO2 T03220056
24044KAIA AIA20160615112010906/15/16 11:20:31  5-MIN KAIA 151820Z AUTO 16012KT 10SM CLR 32/06 A2991 3950 18 6800 150/12 RMK AO2 T03220056
24044KAIA AIA20160615112510906/15/16 11:25:31  5-MIN KAIA 151825Z AUTO 18013KT 10SM CLR 32/06 A2991 3940 18 6800 170/13 RMK AO2 T03220056
24044KAIA AIA20160615113011506/15/16 11:30:31  5-MIN KAIA 151830Z AUTO 16012G20KT 10SM CLR 32/06 A2991 3940 20 6700 150/12G20 RMK AO2 T03170061
24044KAIA AIA20160615113511506/15/16 11:35:31  5-MIN KAIA 151835Z AUTO 18013G21KT 10SM CLR 32/06 A2991 3940 19 6800 180/13G21 RMK AO2 T03220061
24044KAIA AIA20160615114011506/15/16 11:40:31  5-MIN KAIA 151840Z AUTO 16016G21KT 10SM CLR 32/07 A2991 3940 20 6800 160/16G21 RMK AO2 T03220067
24044KAIA AIA20160615114511506/15/16 11:45:31  5-MIN KAIA 151845Z AUTO 18013G21KT 10SM CLR 32/07 A2991 3940 20 6800 170/13G21 RMK AO2 T03220067
24044KAIA AIA20160615115012206/15/16 11:50:31  5-MIN KAIA 151850Z AUTO 17015G21KT 10SM CLR 32/06 A2991 3940 18 6800 160/15G21 RMK AO2 SLP083 T03220056
24044KAIA AIA20160615115511506/15/16 11:55:31  5-MIN KAIA 151855Z AUTO 17014G21KT 10SM CLR 33/06 A2991 3950 18 6900 160/14G21 RMK AO2 T03280061
24044KAIA AIA20160615120011506/15/16 12:00:31  5-MIN KAIA 151900Z AUTO 17017G22KT 10SM CLR 32/07 A2991 3950 20 6800 160/17G22 RMK AO2 T03220067
24044KAIA AIA20160615120511506/15/16 12:05:31  5-MIN KAIA 151905Z AUTO 17015G22KT 10SM CLR 32/07 A2991 3950 20 6800 160/15G22 RMK AO2 T03220072
24044KAIA AIA20160615121010906/15/16 12:10:31  5-MIN KAIA 151910Z AUTO 15015KT 10SM CLR 32/07 A2991 3950 20 6800 140/15 RMK AO2 T03220067
24044KAIA AIA20160615121511506/15/16 12:15:31  5-MIN KAIA 151915Z AUTO 15014G20KT 10SM CLR 32/07 A2990 3950 20 6800 150/14G20 RMK AO2 T03220072
24044KAIA AIA20160615122010906/15/16 12:20:31  5-MIN KAIA 151920Z AUTO 15014KT 10SM CLR 32/08 A2990 3950 21 6800 140/14 RMK AO2 T03220078
24044KAIA AIA20160615122510906/15/16 12:25:31  5-MIN KAIA 151925Z AUTO 19013KT 10SM CLR 33/07 A2990 3950 20 6900 180/13 RMK AO2 T03280072
24044KAIA AIA20160615123011506/15/16 12:30:31  5-MIN KAIA 151930Z AUTO 18013G18KT 10SM CLR 33/06 A2990 3950 18 6900 170/13G18 RMK AO2 T03280061
24044KAIA AIA20160615123511506/15/16 12:35:31  5-MIN KAIA 151935Z AUTO 19012G18KT 10SM CLR 33/07 A2990 3960 20 6900 180/12G18 RMK AO2 T03280072
24044KAIA AIA20160615124011506/15/16 12:40:31  5-MIN KAIA 151940Z AUTO 16015G25KT 10SM CLR 32/08 A2990 3960 21 6800 150/15G25 RMK AO2 T03220078
24044KAIA AIA20160615124511506/15/16 12:45:31  5-MIN KAIA 151945Z AUTO 15013G25KT 10SM CLR 33/08 A2990 3960 21 6900 140/13G25 RMK AO2 T03280083
24044KAIA AIA20160615125012206/15/16 12:50:31  5-MIN KAIA 151950Z AUTO 16014G20KT 10SM CLR 33/08 A2989 3960 21 6900 150/14G20 RMK AO2 SLP080 T03280083
24044KAIA AIA20160615125511506/15/16 12:55:31  5-MIN KAIA 151955Z AUTO 16017G24KT 10SM CLR 33/08 A2989 3960 20 6900 150/17G24 RMK AO2 T03330078
24044KAIA AIA20160615130011506/15/16 13:00:31  5-MIN KAIA 152000Z AUTO 18015G24KT 10SM CLR 33/07 A2989 3960 18 6900 180/15G24 RMK AO2 T03330067
24044KAIA AIA20160615130510906/15/16 13:05:31  5-MIN KAIA 152005Z AUTO 15010KT 10SM CLR 33/07 A2989 3960 19 6900 150/10 RMK AO2 T03330072
24044KAIA AIA20160615131011506/15/16 13:10:31  5-MIN KAIA 152010Z AUTO 18011G22KT 10SM CLR 33/07 A2989 3960 19 6900 170/11G22 RMK AO2 T03280067
24044KAIA AIA20160615131511506/15/16 13:15:31  5-MIN KAIA 152015Z AUTO 17013G22KT 10SM CLR 32/07 A2989 3960 20 6800 160/13G22 RMK AO2 T03220067
24044KAIA AIA20160615132011506/15/16 13:20:31  5-MIN KAIA 152020Z AUTO 17015G22KT 10SM CLR 32/07 A2989 3970 20 6800 160/15G22 RMK AO2 T03170067
24044KAIA AIA20160615132511506/15/16 13:25:31  5-MIN KAIA 152025Z AUTO 16012G23KT 10SM CLR 32/07 A2989 3970 20 6800 150/12G23 RMK AO2 T03220067
24044KAIA AIA20160615133011506/15/16 13:30:31  5-MIN KAIA 152030Z AUTO 17012G21KT 10SM CLR 32/07 A2989 3970 20 6800 160/12G21 RMK AO2 T03170067
24044KAIA AIA20160615133511506/15/16 13:35:31  5-MIN KAIA 152035Z AUTO 16014G22KT 10SM CLR 32/08 A2989 3970 22 6800 150/14G22 RMK AO2 T03170078
24044KAIA AIA20160615134011506/15/16 13:40:31  5-MIN KAIA 152040Z AUTO 18013G22KT 10SM CLR 31/07 A2988 3970 21 6700 170/13G22 RMK AO2 T03110067
24044KAIA AIA20160615134511506/15/16 13:45:31  5-MIN KAIA 152045Z AUTO 19016G20KT 10SM CLR 32/07 A2989 3960 21 6800 180/16G20 RMK AO2 T03170072
24044KAIA AIA20160615135012806/15/16 13:50:31  5-MIN KAIA 152050Z AUTO 19012G20KT 10SM CLR 32/08 A2988 3970 21 6800 180/12G20 RMK AO2 SLP077 T03220078 56005
24044KAIA AIA20160615135511506/15/16 13:55:31  5-MIN KAIA 152055Z AUTO 16015G24KT 10SM CLR 33/09 A2988 3970 22 6900 150/15G24 RMK AO2 T03280089
24044KAIA AIA20160615140011506/15/16 14:00:31  5-MIN KAIA 152100Z AUTO 16015G24KT 10SM CLR 33/09 A2988 3970 22 6900 160/15G24 RMK AO2 T03330094
24044KAIA AIA20160615140511506/15/16 14:05:31  5-MIN KAIA 152105Z AUTO 16016G20KT 10SM CLR 32/09 A2988 3970 25 6800 150/16G20 RMK AO2 T03170094
24044KAIA AIA20160615141011506/15/16 14:10:31  5-MIN KAIA 152110Z AUTO 15015G22KT 10SM CLR 33/10 A2988 3970 24 6900 140/15G22 RMK AO2 T03280100
24044KAIA AIA20160615141511506/15/16 14:15:31  5-MIN KAIA 152115Z AUTO 14016G22KT 10SM CLR 32/09 A2987 3980 25 6800 130/16G22 RMK AO2 T03170094
24044KAIA AIA20160615142011506/15/16 14:20:31  5-MIN KAIA 152120Z AUTO 16017G25KT 10SM CLR 33/09 A2987 3980 22 6900 150/17G25 RMK AO2 T03280089
24044KAIA AIA20160615142511506/15/16 14:25:31  5-MIN KAIA 152125Z AUTO 15017G25KT 10SM CLR 33/09 A2988 3970 22 6900 150/17G25 RMK AO2 T03280089
24044KAIA AIA20160615143011506/15/16 14:30:31  5-MIN KAIA 152130Z AUTO 16017G25KT 10SM CLR 33/09 A2987 3980 22 7000 150/17G25 RMK AO2 T03330094
24044KAIA AIA20160615143511506/15/16 14:35:31  5-MIN KAIA 152135Z AUTO 14014G23KT 10SM CLR 33/09 A2987 3980 22 7000 140/14G23 RMK AO2 T03330094
24044KAIA AIA20160615144011506/15/16 14:40:31  5-MIN KAIA 152140Z AUTO 14014G24KT 10SM CLR 33/09 A2987 3980 22 6900 130/14G24 RMK AO2 T03280089
24044KAIA AIA20160615144511506/15/16 14:45:31  5-MIN KAIA 152145Z AUTO 16015G25KT 10SM CLR 33/09 A2987 3980 22 7000 150/15G25 RMK AO2 T03330094
24044KAIA AIA20160615145014006/15/16 14:50:31  5-MIN KAIA 152150Z AUTO 15021G27KT 10SM CLR 33/09 A2987 3980 22 7000 140/21G27 RMK AO2 PK WND 15027/2150 SLP072 T03330094
24044KAIA AIA20160615145511506/15/16 14:55:31  5-MIN KAIA 152155Z AUTO 15016G27KT 10SM CLR 33/09 A2986 3990 22 6900 140/16G27 RMK AO2 T03280089
24044KAIA AIA20160615150010906/15/16 15:00:31  5-MIN KAIA 152200Z AUTO 15017KT 10SM CLR 33/09 A2986 3990 22 6900 140/17 RMK AO2 T03280089
24044KAIA AIA20160615150511506/15/16 15:05:31  5-MIN KAIA 152205Z AUTO 16017G23KT 10SM CLR 33/09 A2986 3990 23 6900 150/17G23 RMK AO2 T03280094
24044KAIA AIA20160615151011506/15/16 15:10:31  5-MIN KAIA 152210Z AUTO 16015G24KT 10SM CLR 33/09 A2986 3990 23 6900 160/15G24 RMK AO2 T03280094
24044KAIA AIA20160615151511506/15/16 15:15:31  5-MIN KAIA 152215Z AUTO 16014G25KT 10SM CLR 33/10 A2986 3990 24 6900 160/14G25 RMK AO2 T03280100
24044KAIA AIA20160615152011806/15/16 15:20:31  5-MIN KAIA 152220Z AUTO 17018G25KT 10SM FEW095 33/11 A2986 3990 25 6900 160/18G25 RMK AO2 T03280106
24044KAIA AIA20160615152511806/15/16 15:25:31  5-MIN KAIA 152225Z AUTO 16018G23KT 10SM FEW095 33/11 A2986 3990 25 6900 150/18G23 RMK AO2 T03280106
24044KAIA AIA20160615153011506/15/16 15:30:31  5-MIN KAIA 152230Z AUTO 15014G25KT 10SM CLR 33/11 A2986 3990 26 6900 150/14G25 RMK AO2 T03280111
24044KAIA AIA20160615153511506/15/16 15:35:31  5-MIN KAIA 152235Z AUTO 15014G25KT 10SM CLR 33/12 A2985 4000 27 6900 140/14G25 RMK AO2 T03280117
24044KAIA AIA20160615154011506/15/16 15:40:31  5-MIN KAIA 152240Z AUTO 16016G22KT 10SM CLR 33/11 A2986 3990 26 6900 150/16G22 RMK AO2 T03280111
24044KAIA AIA20160615154510906/15/16 15:45:31  5-MIN KAIA 152245Z AUTO 16013KT 10SM CLR 33/11 A2985 4000 25 6900 150/13 RMK AO2 T03280106
24044KAIA AIA20160615155011606/15/16 15:50:31  5-MIN KAIA 152250Z AUTO 16015KT 10SM CLR 33/11 A2985 4000 26 6900 150/15 RMK AO2 SLP067 T03280111
24044KAIA AIA20160615155510906/15/16 15:55:31  5-MIN KAIA 152255Z AUTO 16017KT 10SM CLR 33/11 A2985 4000 25 6900 150/17 RMK AO2 T03280106
24044KAIA AIA20160615160011506/15/16 16:00:31  5-MIN KAIA 152300Z AUTO 17015G23KT 10SM CLR 33/11 A2985 4000 25 6900 160/15G23 RMK AO2 T03280106
24044KAIA AIA20160615160511506/15/16 16:05:31  5-MIN KAIA 152305Z AUTO 13016G23KT 10SM CLR 32/11 A2984 4010 26 6900 130/16G23 RMK AO2 T03220106
24044KAIA AIA20160615161011506/15/16 16:10:31  5-MIN KAIA 152310Z AUTO 16015G20KT 10SM CLR 33/11 A2984 4010 25 6900 150/15G20 RMK AO2 T03280106
24044KAIA AIA20160615161511506/15/16 16:15:31  5-MIN KAIA 152315Z AUTO 15016G22KT 10SM CLR 33/11 A2984 4010 25 6900 140/16G22 RMK AO2 T03280106
24044KAIA AIA20160615162010906/15/16 16:20:31  5-MIN KAIA 152320Z AUTO 15014KT 10SM CLR 32/11 A2984 4010 27 6800 150/14 RMK AO2 T03170111
24044KAIA AIA20160615162511506/15/16 16:25:31  5-MIN KAIA 152325Z AUTO 15017G22KT 10SM CLR 33/11 A2984 4010 26 6900 140/17G22 RMK AO2 T03280111
24044KAIA AIA20160615163011506/15/16 16:30:31  5-MIN KAIA 152330Z AUTO 14013G24KT 10SM CLR 32/11 A2984 4010 27 6800 130/13G24 RMK AO2 T03170111
24044KAIA AIA20160615163511506/15/16 16:35:31  5-MIN KAIA 152335Z AUTO 16016G24KT 10SM CLR 32/11 A2983 4010 27 6800 150/16G24 RMK AO2 T03170111
24044KAIA AIA20160615164011506/15/16 16:40:31  5-MIN KAIA 152340Z AUTO 16011G20KT 10SM CLR 31/11 A2983 4020 29 6700 150/11G20 RMK AO2 T03060111
24044KAIA AIA20160615164510906/15/16 16:45:31  5-MIN KAIA 152345Z AUTO 15012KT 10SM CLR 32/12 A2983 4020 29 6800 150/12 RMK AO2 T03170117
24044KAIA AIA20160615165014006/15/16 16:50:31  5-MIN KAIA 152350Z AUTO 15014G21KT 10SM CLR 32/11 A2983 4020 27 6900 140/14G21 RMK AO2 SLP057 T03220111 10333 20306 58011
24044KAIA AIA20160615165511506/15/16 16:55:31  5-MIN KAIA 152355Z AUTO 16013G21KT 10SM CLR 32/11 A2983 4020 27 6800 150/13G21 RMK AO2 T03170111
24044KAIA AIA20160615170011206/15/16 17:00:31  5-MIN KAIA 160000Z AUTO 16012KT 10SM FEW110 32/11 A2983 4020 26 6800 150/12 RMK AO2 T03170106
24044KAIA AIA20160615170511206/15/16 17:05:31  5-MIN KAIA 160005Z AUTO 15013KT 10SM FEW100 32/11 A2983 4020 27 6900 150/13 RMK AO2 T03220111
24044KAIA AIA20160615171011206/15/16 17:10:31  5-MIN KAIA 160010Z AUTO 15014KT 10SM FEW100 32/11 A2983 4020 27 6800 140/14 RMK AO2 T03170111
24044KAIA AIA20160615171511806/15/16 17:15:31  5-MIN KAIA 160015Z AUTO 15015G22KT 10SM FEW100 32/11 A2983 4020 27 6800 140/15G22 RMK AO2 T03170111
24044KAIA AIA20160615172011806/15/16 17:20:31  5-MIN KAIA 160020Z AUTO 14015G22KT 10SM SCT100 32/11 A2982 4020 27 6800 130/15G22 RMK AO2 T03170111
24044KAIA AIA20160615172511206/15/16 17:25:31  5-MIN KAIA 160025Z AUTO 15013KT 10SM SCT100 32/12 A2983 4020 29 6800 140/13 RMK AO2 T03170117
24044KAIA AIA20160615173011806/15/16 17:30:31  5-MIN KAIA 160030Z AUTO 15014G18KT 10SM FEW100 32/12 A2982 4020 30 6800 140/14G18 RMK AO2 T03170122
24044KAIA AIA20160615173511806/15/16 17:35:31  5-MIN KAIA 160035Z AUTO 14014G21KT 10SM FEW100 31/12 A2982 4030 29 6800 130/14G21 RMK AO2 T03110117
24044KAIA AIA20160615174011806/15/16 17:40:31  5-MIN KAIA 160040Z AUTO 14013G21KT 10SM FEW100 31/12 A2982 4030 29 6800 130/13G21 RMK AO2 T03110117
24044KAIA AIA20160615174511806/15/16 17:45:31  5-MIN KAIA 160045Z AUTO 14017G21KT 10SM FEW100 31/12 A2982 4030 31 6800 130/17G21 RMK AO2 T03110122
24044KAIA AIA20160615175012206/15/16 17:50:31  5-MIN KAIA 160050Z AUTO 14014G21KT 10SM CLR 31/12 A2982 4030 32 6700 140/14G21 RMK AO2 SLP050 T03060122
24044KAIA AIA20160615175510906/15/16 17:55:31  5-MIN KAIA 160055Z AUTO 15012KT 10SM CLR 31/12 A2982 4030 32 6700 140/12 RMK AO2 T03060122
24044KAIA AIA20160615180010906/15/16 18:00:31  5-MIN KAIA 160100Z AUTO 14013KT 10SM CLR 30/13 A2982 4030 34 6700 130/13 RMK AO2 T03000128
24044KAIA AIA20160615180510906/15/16 18:05:31  5-MIN KAIA 160105Z AUTO 14012KT 10SM CLR 30/13 A2982 4030 34 6700 130/12 RMK AO2 T03000128
24044KAIA AIA20160615181010906/15/16 18:10:31  5-MIN KAIA 160110Z AUTO 14013KT 10SM CLR 29/13 A2982 4030 35 6600 130/13 RMK AO2 T02940128
24044KAIA AIA20160615181510906/15/16 18:15:31  5-MIN KAIA 160115Z AUTO 14012KT 10SM CLR 29/13 A2982 4030 35 6600 130/12 RMK AO2 T02940128
24044KAIA AIA20160615182010906/15/16 18:20:31  5-MIN KAIA 160120Z AUTO 14012KT 10SM CLR 29/13 A2982 4030 36 6600 130/12 RMK AO2 T02940133
24044KAIA AIA20160615182510906/15/16 18:25:31  5-MIN KAIA 160125Z AUTO 14010KT 10SM CLR 29/13 A2982 4030 38 6500 130/10 RMK AO2 T02890133
24044KAIA AIA20160615183010906/15/16 18:30:31  5-MIN KAIA 160130Z AUTO 14010KT 10SM CLR 28/14 A2982 4030 40 6500 130/10 RMK AO2 T02830139
24044KAIA AIA20160615183510906/15/16 18:35:31  5-MIN KAIA 160135Z AUTO 14011KT 10SM CLR 28/13 A2982 4030 39 6500 130/11 RMK AO2 T02830133
24044KAIA AIA20160615184010906/15/16 18:40:31  5-MIN KAIA 160140Z AUTO 14010KT 10SM CLR 28/13 A2982 4030 39 6500 130/10 RMK AO2 T02830133
24044KAIA AIA20160615184510906/15/16 18:45:31  5-MIN KAIA 160145Z AUTO 14009KT 10SM CLR 27/14 A2982 4030 43 6400 130/09 RMK AO2 T02720139
24044KAIA AIA20160615185011606/15/16 18:50:31  5-MIN KAIA 160150Z AUTO 13008KT 10SM CLR 27/14 A2982 4030 45 6300 120/08 RMK AO2 SLP049 T02670139
24044KAIA AIA20160615185510906/15/16 18:55:31  5-MIN KAIA 160155Z AUTO 13009KT 10SM CLR 26/14 A2982 4030 46 6200 120/09 RMK AO2 T02610139
24044KAIA AIA20160615190010906/15/16 19:00:31  5-MIN KAIA 160200Z AUTO 12009KT 10SM CLR 26/14 A2982 4030 46 6200 110/09 RMK AO2 T02610139
24044KAIA AIA20160615190510906/15/16 19:05:31  5-MIN KAIA 160205Z AUTO 13011KT 10SM CLR 27/14 A2982 4030 45 6300 120/11 RMK AO2 T02670139
24044KAIA AIA20160615191010906/15/16 19:10:31  5-MIN KAIA 160210Z AUTO 13011KT 10SM CLR 27/14 A2982 4020 45 6300 120/11 RMK AO2 T02670139
24044KAIA AIA20160615191510906/15/16 19:15:31  5-MIN KAIA 160215Z AUTO 12011KT 10SM CLR 27/14 A2983 4020 45 6300 120/11 RMK AO2 T02670139
24044KAIA AIA20160615192010906/15/16 19:20:31  5-MIN KAIA 160220Z AUTO 12009KT 10SM CLR 26/14 A2983 4020 46 6200 120/09 RMK AO2 T02610139
24044KAIA AIA20160615192510906/15/16 19:25:31  5-MIN KAIA 160225Z AUTO 13010KT 10SM CLR 26/14 A2983 4020 49 6200 120/10 RMK AO2 T02560144
24044KAIA AIA20160616034510906/16/16 03:45:31  5-MIN KAIA 161045Z AUTO 17006KT 10SM CLR 16/15 A2980 4050 93 5100 160/06 RMK AO2 T01610150
24044KAIA AIA20160616035011606/16/16 03:50:31  5-MIN KAIA 161050Z AUTO 15007KT 10SM CLR 16/15 A2980 4040 93 5100 140/07 RMK AO2 SLP042 T01610150
24044KAIA AIA20160616035510906/16/16 03:55:31  5-MIN KAIA 161055Z AUTO 15007KT 10SM CLR 16/15 A2980 4040 93 5100 150/07 RMK AO2 T01610150
24044KAIA AIA20160616040010906/16/16 04:00:31  5-MIN KAIA 161100Z AUTO 14010KT 10SM CLR 16/15 A2980 4050 93 5100 140/10 RMK AO2 T01610150
24044KAIA AIA20160616040510906/16/16 04:05:31  5-MIN KAIA 161105Z AUTO 15009KT 10SM CLR 17/16 A2980 4040 93 5200 140/09 RMK AO2 T01670156
24044KAIA AIA20160616041010906/16/16 04:10:31  5-MIN KAIA 161110Z AUTO 16008KT 10SM CLR 17/16 A2981 4040 93 5200 150/08 RMK AO2 T01670156
24044KAIA AIA20160616041510906/16/16 04:15:31  5-MIN KAIA 161115Z AUTO 16007KT 10SM CLR 17/16 A2981 4030 93 5200 150/07 RMK AO2 T01670156
24044KAIA AIA20160616042010906/16/16 04:20:31  5-MIN KAIA 161120Z AUTO 18005KT 10SM CLR 17/16 A2982 4030 93 5200 170/05 RMK AO2 T01670156
24044KAIA AIA20160616042510906/16/16 04:25:31  5-MIN KAIA 161125Z AUTO 16003KT 10SM CLR 16/16 A2981 4030 96 5100 160/03 RMK AO2 T01610156
24044KAIA AIA20160616043010906/16/16 04:30:31  5-MIN KAIA 161130Z AUTO VRB03KT 10SM CLR 16/16 A2981 4030 96 5100 VRB/03 RMK AO2 T01610156
24044KAIA AIA20160616043510906/16/16 04:35:31  5-MIN KAIA 161135Z AUTO 00000KT 10SM CLR 16/15 A2982 4020 93 5100 000/00 RMK AO2 T01610150
24044KAIA AIA20160616044010906/16/16 04:40:31  5-MIN KAIA 161140Z AUTO 33004KT 10SM CLR 16/15 A2982 4030 96 5100 320/04 RMK AO2 T01560150
24044KAIA AIA20160616044510906/16/16 04:45:31  5-MIN KAIA 161145Z AUTO 00000KT 10SM CLR 16/15 A2982 4030 93 5100 000/00 RMK AO2 T01610150
24044KAIA AIA20160616045013406/16/16 04:50:31  5-MIN KAIA 161150Z AUTO 13006KT 10SM CLR 16/15 A2982 4030 96 5100 130/06 RMK AO2 SLP049 T01560150 10217 20156 56010
24044KAIA AIA20160616045510806/16/16 04:55:31  5-MIN KAIA 161155Z AUTO 15008KT 9SM CLR 16/16 A2982 4030 96 5100 140/08 RMK AO2 T01610156
24044KAIA AIA20160616050010806/16/16 05:00:31  5-MIN KAIA 161200Z AUTO 16009KT 9SM CLR 16/16 A2982 4030 96 5100 150/09 RMK AO2 T01610156
24044KAIA AIA20160616050510806/16/16 05:05:31  5-MIN KAIA 161205Z AUTO 16008KT 9SM CLR 17/16 A2983 4020 96 5200 150/08 RMK AO2 T01670161
24044KAIA AIA20160616051010806/16/16 05:10:31  5-MIN KAIA 161210Z AUTO 16007KT 9SM CLR 17/16 A2982 4030 93 5200 160/07 RMK AO2 T01720161
24044KAIA AIA20160616051510806/16/16 05:15:31  5-MIN KAIA 161215Z AUTO 16008KT 9SM CLR 17/17 A2982 4030 96 5200 150/08 RMK AO2 T01720167
24044KAIA AIA20160616052010906/16/16 05:20:31  5-MIN KAIA 161220Z AUTO 15008KT 10SM CLR 18/17 A2982 4030 93 5300 150/08 RMK AO2 T01780167
24044KAIA AIA20160616052510906/16/16 05:25:31  5-MIN KAIA 161225Z AUTO 16007KT 10SM CLR 18/17 A2982 4020 93 5300 160/07 RMK AO2 T01780167
24044KAIA AIA20160616053010906/16/16 05:30:31  5-MIN KAIA 161230Z AUTO 17007KT 10SM CLR 18/17 A2982 4020 90 5400 160/07 RMK AO2 T01830167
24044KAIA AIA20160616053510906/16/16 05:35:31  5-MIN KAIA 161235Z AUTO 17008KT 10SM CLR 18/17 A2982 4020 93 5400 160/08 RMK AO2 T01830172
24044KAIA AIA20160616054010906/16/16 05:40:31  5-MIN KAIA 161240Z AUTO 17008KT 10SM CLR 19/17 A2983 4020 90 5400 160/08 RMK AO2 T01890172
24044KAIA AIA20160616054510906/16/16 05:45:31  5-MIN KAIA 161245Z AUTO 17008KT 10SM CLR 19/17 A2983 4020 90 5400 170/08 RMK AO2 T01890172
24044KAIA AIA20160616055011606/16/16 05:50:31  5-MIN KAIA 161250Z AUTO 18006KT 10SM CLR 19/17 A2983 4020 87 5500 170/06 RMK AO2 SLP049 T01940172
24044KAIA AIA20160616055510906/16/16 05:55:31  5-MIN KAIA 161255Z AUTO 19006KT 10SM CLR 19/17 A2983 4020 87 5500 180/06 RMK AO2 T01940172
24044KAIA AIA20160616060010906/16/16 06:00:31  5-MIN KAIA 161300Z AUTO 18005KT 10SM CLR 20/17 A2983 4020 84 5600 170/05 RMK AO2 T02000172
24044KAIA AIA20160616060510906/16/16 06:05:31  5-MIN KAIA 161305Z AUTO 18005KT 10SM CLR 20/17 A2983 4020 84 5500 170/05 RMK AO2 T02000172
24044KAIA AIA20160616061010906/16/16 06:10:31  5-MIN KAIA 161310Z AUTO 18005KT 10SM CLR 21/17 A2983 4020 78 5600 170/05 RMK AO2 T02060167
24044KAIA AIA20160616061510906/16/16 06:15:31  5-MIN KAIA 161315Z AUTO 18006KT 10SM CLR 21/17 A2983 4020 78 5600 170/06 RMK AO2 T02060167
24044KAIA AIA20160616062010906/16/16 06:20:31  5-MIN KAIA 161320Z AUTO 19006KT 10SM CLR 21/16 A2983 4020 73 5700 180/06 RMK AO2 T02110161
24044KAIA AIA20160616062507306/16/16 06:25:31  5-MIN KAIA 161325Z AUTO 19007KT M M M 180/07 RMK AO2 $
24044KAIA AIA20160616063010206/16/16 06:30:31  5-MIN KAIA 161330Z AUTO 19006KT 22/16 A2983 4020 70 5700 180/06 RMK AO2 T02170161 $
24044KAIA AIA20160616063510706/16/16 06:35:31  5-MIN KAIA 161335Z AUTO 19008KT 10SM 22/16 A2983 4020 68 5700 180/08 RMK AO2 T02170156 $
24044KAIA AIA20160616064010706/16/16 06:40:31  5-MIN KAIA 161340Z AUTO 19006KT 10SM 22/16 A2983 4020 65 5800 180/06 RMK AO2 T02220156 $
24044KAIA AIA20160616064510706/16/16 06:45:31  5-MIN KAIA 161345Z AUTO 20006KT 10SM 22/16 A2983 4020 65 5800 200/06 RMK AO2 T02220156 $
24044KAIA AIA20160616065011206/16/16 06:50:31  5-MIN KAIA 161350Z AUTO 20006KT 10SM 23/15 A2983 4020 61 5900 190/06 RMK AO2 SLP050 T02280150
24044KAIA AIA20160616065510906/16/16 06:55:31  5-MIN KAIA 161355Z AUTO 19006KT 10SM CLR 23/14 A2983 4020 59 5900 180/06 RMK AO2 T02280144
24044KAIA AIA20160616070010906/16/16 07:00:31  5-MIN KAIA 161400Z AUTO 19006KT 10SM CLR 23/14 A2983 4020 59 5900 180/06 RMK AO2 T02280144
24044KAIA AIA20160616070510906/16/16 07:05:31  5-MIN KAIA 161405Z AUTO 20006KT 10SM CLR 23/14 A2983 4020 57 5900 190/06 RMK AO2 T02330144
24044KAIA AIA20160616071010906/16/16 07:10:31  5-MIN KAIA 161410Z AUTO 21006KT 10SM CLR 23/14 A2983 4020 57 5900 200/06 RMK AO2 T02330144
24044KAIA AIA20160616071510906/16/16 07:15:31  5-MIN KAIA 161415Z AUTO 18005KT 10SM CLR 23/14 A2983 4020 57 5900 170/05 RMK AO2 T02330144
24044KAIA AIA20160616072010906/16/16 07:20:31  5-MIN KAIA 161420Z AUTO 20004KT 10SM CLR 24/14 A2983 4010 53 6000 190/04 RMK AO2 T02390139
24044KAIA AIA20160616072510906/16/16 07:25:31  5-MIN KAIA 161425Z AUTO 22005KT 10SM CLR 24/14 A2984 4010 53 6000 210/05 RMK AO2 T02390139
24044KAIA AIA20160616073010906/16/16 07:30:31  5-MIN KAIA 161430Z AUTO 22005KT 10SM CLR 24/13 A2983 4010 51 6000 220/05 RMK AO2 T02390133
24044KAIA AIA20160616073510906/16/16 07:35:31  5-MIN KAIA 161435Z AUTO 23003KT 10SM CLR 24/13 A2983 4020 49 6000 220/03 RMK AO2 T02440133
24044KAIA AIA20160616074010906/16/16 07:40:31  5-MIN KAIA 161440Z AUTO 23005KT 10SM CLR 24/13 A2983 4020 49 6000 220/05 RMK AO2 T02440133
24044KAIA AIA20160616074510906/16/16 07:45:31  5-MIN KAIA 161445Z AUTO VRB05KT 10SM CLR 25/13 A2983 4020 48 6100 VRB/05 RMK AO2 T02500133
24044KAIA AIA20160616075011606/16/16 07:50:31  5-MIN KAIA 161450Z AUTO 00000KT 10SM CLR 25/13 A2983 4020 48 6100 000/00 RMK AO2 SLP051 T02500133
24044KAIA AIA20160616075510906/16/16 07:55:31  5-MIN KAIA 161455Z AUTO 22005KT 10SM CLR 25/13 A2983 4010 48 6100 210/05 RMK AO2 T02500133
24044KAIA AIA20160616080010906/16/16 08:00:31  5-MIN KAIA 161500Z AUTO 23003KT 10SM CLR 25/13 A2983 4010 48 6100 220/03 RMK AO2 T02500133
24044KAIA AIA20160616080510906/16/16 08:05:31  5-MIN KAIA 161505Z AUTO 00000KT 10SM CLR 26/13 A2983 4010 46 6200 000/00 RMK AO2 T02560133
24044KAIA AIA20160616081010906/16/16 08:10:31  5-MIN KAIA 161510Z AUTO VRB03KT 10SM CLR 26/13 A2983 4010 46 6200 VRB/03 RMK AO2 T02560133
24044KAIA AIA20160616081510906/16/16 08:15:31  5-MIN KAIA 161515Z AUTO 19003KT 10SM CLR 26/13 A2984 4010 44 6200 190/03 RMK AO2 T02610133
24044KAIA AIA20160616082010906/16/16 08:20:31  5-MIN KAIA 161520Z AUTO 00000KT 10SM CLR 26/13 A2983 4010 43 6200 000/00 RMK AO2 T02610128
24044KAIA AIA20160616082510906/16/16 08:25:31  5-MIN KAIA 161525Z AUTO 24003KT 10SM CLR 27/13 A2984 4010 41 6300 230/03 RMK AO2 T02670128
24044KAIA AIA20160616083010906/16/16 08:30:31  5-MIN KAIA 161530Z AUTO VRB03KT 10SM CLR 27/13 A2983 4020 43 6300 VRB/03 RMK AO2 T02670133
24044KAIA AIA20160616083510906/16/16 08:35:31  5-MIN KAIA 161535Z AUTO 14003KT 10SM CLR 27/14 A2983 4020 45 6300 130/03 RMK AO2 T02670139
24044KAIA AIA20160616084010906/16/16 08:40:31  5-MIN KAIA 161540Z AUTO 00000KT 10SM CLR 27/13 A2983 4020 40 6300 000/00 RMK AO2 T02720128
24044KAIA AIA20160616084510906/16/16 08:45:31  5-MIN KAIA 161545Z AUTO VRB03KT 10SM CLR 28/14 A2983 4020 42 6400 VRB/03 RMK AO2 T02780139
24044KAIA AIA20160616085011606/16/16 08:50:31  5-MIN KAIA 161550Z AUTO VRB03KT 10SM CLR 28/14 A2983 4010 40 6500 VRB/03 RMK AO2 SLP051 T02830139
24044KAIA AIA20160616085510906/16/16 08:55:31  5-MIN KAIA 161555Z AUTO 12003KT 10SM CLR 28/14 A2984 4010 40 6500 120/03 RMK AO2 T02830139
24044KAIA AIA20160616090010906/16/16 09:00:31  5-MIN KAIA 161600Z AUTO VRB03KT 10SM CLR 28/13 A2984 4010 40 6400 VRB/03 RMK AO2 T02780133
24044KAIA AIA20160616090510906/16/16 09:05:31  5-MIN KAIA 161605Z AUTO VRB04KT 10SM CLR 29/14 A2984 4010 39 6500 VRB/04 RMK AO2 T02890139
24044KAIA AIA20160616091010906/16/16 09:10:31  5-MIN KAIA 161610Z AUTO 11004KT 10SM CLR 28/14 A2984 4010 40 6500 110/04 RMK AO2 T02830139
24044KAIA AIA20160616091510906/16/16 09:15:31  5-MIN KAIA 161615Z AUTO VRB04KT 10SM CLR 29/14 A2984 4010 39 6500 VRB/04 RMK AO2 T02890139
24044KAIA AIA20160616092010906/16/16 09:20:31  5-MIN KAIA 161620Z AUTO 19004KT 10SM CLR 29/13 A2984 4010 38 6500 180/04 RMK AO2 T02890133
24044KAIA AIA20160616092510906/16/16 09:25:31  5-MIN KAIA 161625Z AUTO 00000KT 10SM CLR 29/12 A2984 4010 34 6600 000/00 RMK AO2 T02940122
24044KAIA AIA20160616093010906/16/16 09:30:31  5-MIN KAIA 161630Z AUTO 00000KT 10SM CLR 30/12 A2984 4010 33 6600 000/00 RMK AO2 T03000122
24044KAIA AIA20160616093510906/16/16 09:35:31  5-MIN KAIA 161635Z AUTO 00000KT 10SM CLR 31/11 A2984 4010 29 6700 000/00 RMK AO2 T03060111
24044KAIA AIA20160616094010906/16/16 09:40:31  5-MIN KAIA 161640Z AUTO 00000KT 10SM CLR 31/11 A2984 4010 28 6700 000/00 RMK AO2 T03060106
24044KAIA AIA20160616094510906/16/16 09:45:31  5-MIN KAIA 161645Z AUTO VRB03KT 10SM CLR 31/09 A2984 4010 26 6700 VRB/03 RMK AO2 T03060094
24044KAIA AIA20160616095011606/16/16 09:50:31  5-MIN KAIA 161650Z AUTO 00000KT 10SM CLR 31/10 A2984 4000 26 6700 000/00 RMK AO2 SLP051 T03110100
24044KAIA AIA20160616095510906/16/16 09:55:31  5-MIN KAIA 161655Z AUTO 00000KT 10SM CLR 31/09 A2984 4000 25 6700 000/00 RMK AO2 T03110094
24044KAIA AIA20160616100010906/16/16 10:00:31  5-MIN KAIA 161700Z AUTO 00000KT 10SM CLR 32/10 A2984 4010 25 6800 000/00 RMK AO2 T03170100
24044KAIA AIA20160616100510906/16/16 10:05:31  5-MIN KAIA 161705Z AUTO 07003KT 10SM CLR 31/09 A2984 4010 24 6700 060/03 RMK AO2 T03110089
24044KAIA AIA20160616101010906/16/16 10:10:31  5-MIN KAIA 161710Z AUTO 00000KT 10SM CLR 32/09 A2984 4000 24 6800 000/00 RMK AO2 T03170089
24044KAIA AIA20160616101510906/16/16 10:15:31  5-MIN KAIA 161715Z AUTO 00000KT 10SM CLR 32/08 A2984 4010 23 6800 000/00 RMK AO2 T03170083
24044KAIA AIA20160616102010906/16/16 10:20:31  5-MIN KAIA 161720Z AUTO 00000KT 10SM CLR 32/09 A2984 4010 23 6900 000/00 RMK AO2 T03220089
24044KAIA AIA20160616102510906/16/16 10:25:31  5-MIN KAIA 161725Z AUTO 00000KT 10SM CLR 32/08 A2984 4010 21 6900 000/00 RMK AO2 T03220078
24044KAIA AIA20160616103010906/16/16 10:30:31  5-MIN KAIA 161730Z AUTO VRB03KT 10SM CLR 33/09 A2984 4010 23 6900 VRB/03 RMK AO2 T03280094
24044KAIA AIA20160616103510906/16/16 10:35:31  5-MIN KAIA 161735Z AUTO VRB05KT 10SM CLR 33/08 A2984 4010 21 6900 VRB/05 RMK AO2 T03280078
24044KAIA AIA20160616104009906/16/16 10:40:31  5-MIN KAIA 161740Z AUTO 10SM CLR 33/08 A2984 4010 21 6900 M /M RMK AO2 T03280083
24044KAIA AIA20160616104510906/16/16 10:45:31  5-MIN KAIA 161745Z AUTO VRB03KT 10SM CLR 32/07 A2984 4010 20 6900 VRB/03 RMK AO2 T03220072
24044KAIA AIA20160616105012806/16/16 10:50:31  5-MIN KAIA 161750Z AUTO 03004KT 10SM CLR 33/08 A2984 4010 21 6900 030/04 RMK AO2 SLP049 T03280083 10328 20161
24044KAIA AIA20160616105510906/16/16 10:55:31  5-MIN KAIA 161755Z AUTO VRB03KT 10SM CLR 33/08 A2984 4010 21 7000 VRB/03 RMK AO2 T03330083
24044KAIA AIA20160616110010906/16/16 11:00:31  5-MIN KAIA 161800Z AUTO 00000KT 10SM CLR 33/07 A2984 4010 19 7000 000/00 RMK AO2 T03330072
24044KAIA AIA20160616110510906/16/16 11:05:31  5-MIN KAIA 161805Z AUTO 05004KT 10SM CLR 34/08 A2984 4010 20 7000 040/04 RMK AO2 T03390083
24044KAIA AIA20160616111010906/16/16 11:10:31  5-MIN KAIA 161810Z AUTO VRB04KT 10SM CLR 34/08 A2984 4010 20 7000 VRB/04 RMK AO2 T03390083
24044KAIA AIA20160616111510906/16/16 11:15:31  5-MIN KAIA 161815Z AUTO 30004KT 10SM CLR 33/08 A2984 4010 21 7000 300/04 RMK AO2 T03330083
24044KAIA AIA20160616112010906/16/16 11:20:31  5-MIN KAIA 161820Z AUTO VRB03KT 10SM CLR 33/08 A2984 4010 20 7000 VRB/03 RMK AO2 T03330078
24044KAIA AIA20160616112510906/16/16 11:25:31  5-MIN KAIA 161825Z AUTO VRB06KT 10SM CLR 34/07 A2984 4010 18 7100 VRB/06 RMK AO2 T03440072
24044KAIA AIA20160616113010906/16/16 11:30:31  5-MIN KAIA 161830Z AUTO 35006KT 10SM CLR 34/05 A2984 4010 16 7000 340/06 RMK AO2 T03390050
24044KAIA AIA20160616113510906/16/16 11:35:31  5-MIN KAIA 161835Z AUTO VRB05KT 10SM CLR 34/06 A2984 4010 16 7000 VRB/05 RMK AO2 T03390056
24044KAIA AIA20160616114010906/16/16 11:40:31  5-MIN KAIA 161840Z AUTO 00000KT 10SM CLR 34/05 A2984 4010 16 7000 000/00 RMK AO2 T03390050
24044KAIA AIA20160616114510906/16/16 11:45:31  5-MIN KAIA 161845Z AUTO VRB05KT 10SM CLR 34/05 A2984 4010 16 7000 VRB/05 RMK AO2 T03390050
24044KAIA AIA20160616115011606/16/16 11:50:31  5-MIN KAIA 161850Z AUTO 00000KT 10SM CLR 34/05 A2984 4010 16 7000 000/00 RMK AO2 SLP049 T03390050
24044KAIA AIA20160616115510906/16/16 11:55:31  5-MIN KAIA 161855Z AUTO 01007KT 10SM CLR 34/06 A2984 4010 16 7100 360/07 RMK AO2 T03440056
24044KAIA AIA20160616120010906/16/16 12:00:31  5-MIN KAIA 161900Z AUTO VRB04KT 10SM CLR 34/05 A2984 4010 15 7100 VRB/04 RMK AO2 T03440050
24044KAIA AIA20160616120510906/16/16 12:05:31  5-MIN KAIA 161905Z AUTO VRB03KT 10SM CLR 34/04 A2984 4010 15 7000 VRB/03 RMK AO2 T03390039
24044KAIA AIA20160616121010906/16/16 12:10:31  5-MIN KAIA 161910Z AUTO 00000KT 10SM CLR 34/04 A2984 4010 15 7100 000/00 RMK AO2 T03440044
24044KAIA AIA20160616121510906/16/16 12:15:31  5-MIN KAIA 161915Z AUTO VRB03KT 10SM CLR 34/03 A2984 4010 14 7100 VRB/03 RMK AO2 T03390033
24044KAIA AIA20160616122010906/16/16 12:20:31  5-MIN KAIA 161920Z AUTO VRB03KT 10SM CLR 34/03 A2984 4010 14 7100 VRB/03 RMK AO2 T03390033
24044KAIA AIA20160616122509906/16/16 12:25:31  5-MIN KAIA 161925Z AUTO 10SM CLR 34/05 A2984 4010 15 7100 M /M RMK AO2 T03440050
24044KAIA AIA20160616123010906/16/16 12:30:31  5-MIN KAIA 161930Z AUTO 32006KT 10SM CLR 35/04 A2984 4010 14 7200 310/06 RMK AO2 T03500044
24044KAIA AIA20160616123510906/16/16 12:35:31  5-MIN KAIA 161935Z AUTO 33004KT 10SM CLR 34/04 A2983 4010 14 7100 330/04 RMK AO2 T03440039
24044KAIA AIA20160616124010906/16/16 12:40:31  5-MIN KAIA 161940Z AUTO 00000KT 10SM CLR 34/03 A2983 4010 14 7100 000/00 RMK AO2 T03440033
24044KAIA AIA20160616124509906/16/16 12:45:31  5-MIN KAIA 161945Z AUTO 10SM CLR 35/03 A2983 4010 13 7200 M /M RMK AO2 T03500033
24044KAIA AIA20160616125011606/16/16 12:50:31  5-MIN KAIA 161950Z AUTO 34008KT 10SM CLR 34/03 A2983 4010 14 7100 330/08 RMK AO2 SLP048 T03440033
24044KAIA AIA20160616125510906/16/16 12:55:31  5-MIN KAIA 161955Z AUTO VRB04KT 10SM CLR 35/04 A2984 4010 14 7200 VRB/04 RMK AO2 T03500039
24044KAIA AIA20160616130010906/16/16 13:00:31  5-MIN KAIA 162000Z AUTO 32006KT 10SM CLR 35/04 A2983 4010 14 7200 310/06 RMK AO2 T03500039
24044KAIA AIA20160616130510906/16/16 13:05:31  5-MIN KAIA 162005Z AUTO VRB04KT 10SM CLR 35/03 A2983 4010 13 7200 VRB/04 RMK AO2 T03500033
24044KAIA AIA20160616131010906/16/16 13:10:31  5-MIN KAIA 162010Z AUTO 00000KT 10SM CLR 34/02 A2983 4010 13 7100 000/00 RMK AO2 T03440022
24044KAIA AIA20160616131510906/16/16 13:15:31  5-MIN KAIA 162015Z AUTO 36004KT 10SM CLR 36/03 A2983 4020 13 7200 350/04 RMK AO2 T03560033
24044KAIA AIA20160616132010906/16/16 13:20:31  5-MIN KAIA 162020Z AUTO 00000KT 10SM CLR 35/02 A2983 4010 12 7200 000/00 RMK AO2 T03500017
24044KAIA AIA20160616132510906/16/16 13:25:31  5-MIN KAIA 162025Z AUTO 00000KT 10SM CLR 34/01 A2983 4020 12 7100 000/00 RMK AO2 T03440011
24044KAIA AIA20160616133010906/16/16 13:30:31  5-MIN KAIA 162030Z AUTO 07004KT 10SM CLR 35/03 A2983 4010 13 7200 060/04 RMK AO2 T03500028
24044KAIA AIA20160616133510906/16/16 13:35:31  5-MIN KAIA 162035Z AUTO 00000KT 10SM CLR 36/02 A2983 4020 12 7200 000/00 RMK AO2 T03560022
24044KAIA AIA20160616134009906/16/16 13:40:31  5-MIN KAIA 162040Z AUTO 10SM CLR 36/01 A2983 4010 11 7300 M /M RMK AO2 T03610011
24044KAIA AIA20160616134510906/16/16 13:45:31  5-MIN KAIA 162045Z AUTO 03008KT 10SM CLR 36/01 A2983 4010 10 7200 020/08 RMK AO2 T03560006
24044KAIA AIA20160616135012206/16/16 13:50:31  5-MIN KAIA 162050Z AUTO 03007KT 10SM CLR 36/01 A2983 4010 11 7300 020/07 RMK AO2 SLP047 T03610011 50002
24044KAIA AIA20160616135510906/16/16 13:55:31  5-MIN KAIA 162055Z AUTO VRB04KT 10SM CLR 36/01 A2984 4010 10 7200 VRB/04 RMK AO2 T03560006
24044KAIA AIA20160616140010906/16/16 14:00:31  5-MIN KAIA 162100Z AUTO 35006KT 10SM CLR 36/01 A2984 4010 10 7200 340/06 RMK AO2 T03560006
24044KAIA AIA20160616140510906/16/16 14:05:31  5-MIN KAIA 162105Z AUTO 01006KT 10SM CLR 36/01 A2984 4010 10 7200 010/06 RMK AO2 T03560006
24044KAIA AIA20160616141010906/16/16 14:10:31  5-MIN KAIA 162110Z AUTO 04005KT 10SM CLR 36/01 A2983 4010 10 7200 040/05 RMK AO2 T03560006
24044KAIA AIA20160616141510906/16/16 14:15:31  5-MIN KAIA 162115Z AUTO VRB05KT 10SM CLR 35/01 A2983 4010 11 7200 VRB/05 RMK AO2 T03500006
24044KAIA AIA20160616142010906/16/16 14:20:31  5-MIN KAIA 162120Z AUTO 00000KT 10SM CLR 36/02 A2983 4020 11 7300 000/00 RMK AO2 T03610022
24044KAIA AIA20160616142510906/16/16 14:25:31  5-MIN KAIA 162125Z AUTO 00000KT 10SM CLR 35/01 A2983 4020 11 7200 000/00 RMK AO2 T03500006
24044KAIA AIA20160616143009906/16/16 14:30:31  5-MIN KAIA 162130Z AUTO 10SM CLR 36/02 A2983 4020 11 7200 M /M RMK AO2 T03560017
24044KAIA AIA20160616143510906/16/16 14:35:31  5-MIN KAIA 162135Z AUTO VRB03KT 10SM CLR 36/01 A2983 4020 11 7300 VRB/03 RMK AO2 T03610011
24044KAIA AIA20160616144010906/16/16 14:40:31  5-MIN KAIA 162140Z AUTO 10005KT 10SM CLR 35/03 A2983 4020 13 7200 090/05 RMK AO2 T03500028
24044KAIA AIA20160616144510906/16/16 14:45:31  5-MIN KAIA 162145Z AUTO 00000KT 10SM CLR 35/01 A2983 4020 11 7200 000/00 RMK AO2 T03500011
24044KAIA AIA20160616145011606/16/16 14:50:31  5-MIN KAIA 162150Z AUTO 15005KT 10SM CLR 35/03 A2983 4020 13 7200 140/05 RMK AO2 SLP047 T03500028
24044KAIA AIA20160616145510906/16/16 14:55:31  5-MIN KAIA 162155Z AUTO 15004KT 10SM CLR 35/02 A2983 4020 12 7200 140/04 RMK AO2 T03500022
24044KAIA AIA20160616150010906/16/16 15:00:31  5-MIN KAIA 162200Z AUTO VRB03KT 10SM CLR 35/02 A2983 4020 12 7200 VRB/03 RMK AO2 T03500022
24044KAIA AIA20160616150509906/16/16 15:05:31  5-MIN KAIA 162205Z AUTO 10SM CLR 36/04 A2983 4020 13 7200 M /M RMK AO2 T03560039
24044KAIA AIA20160616151010906/16/16 15:10:31  5-MIN KAIA 162210Z AUTO 10005KT 10SM CLR 35/03 A2983 4020 13 7200 090/05 RMK AO2 T03500028
24044KAIA AIA20160616151510906/16/16 15:15:31  5-MIN KAIA 162215Z AUTO 10008KT 10SM CLR 35/03 A2983 4020 13 7200 090/08 RMK AO2 T03500028
24044KAIA AIA20160616152010906/16/16 15:20:31  5-MIN KAIA 162220Z AUTO 18003KT 10SM CLR 35/03 A2983 4010 13 7200 170/03 RMK AO2 T03500028
24044KAIA AIA20160616152510906/16/16 15:25:31  5-MIN KAIA 162225Z AUTO 10006KT 10SM CLR 35/03 A2983 4010 13 7200 100/06 RMK AO2 T03500033
24044KAIA AIA20160616153010906/16/16 15:30:31  5-MIN KAIA 162230Z AUTO 00000KT 10SM CLR 36/03 A2984 4010 12 7200 000/00 RMK AO2 T03560028
24044KAIA AIA20160616153510906/16/16 15:35:31  5-MIN KAIA 162235Z AUTO 24004KT 10SM CLR 36/03 A2984 4010 13 7200 230/04 RMK AO2 T03560033
24044KAIA AIA20160616154010906/16/16 15:40:31  5-MIN KAIA 162240Z AUTO 17006KT 10SM CLR 36/04 A2983 4020 13 7200 160/06 RMK AO2 T03560039
24044KAIA AIA20160616154510906/16/16 15:45:31  5-MIN KAIA 162245Z AUTO 19006KT 10SM CLR 35/03 A2984 4010 13 7200 180/06 RMK AO2 T03500033
24044KAIA AIA20160616155011606/16/16 15:50:31  5-MIN KAIA 162250Z AUTO 10007KT 10SM CLR 35/05 A2984 4010 15 7200 100/07 RMK AO2 SLP051 T03500050
24044KAIA AIA20160616155510906/16/16 15:55:31  5-MIN KAIA 162255Z AUTO 11012KT 10SM CLR 35/06 A2984 4010 15 7200 100/12 RMK AO2 T03500056
24044KAIA AIA20160616160010906/16/16 16:00:31  5-MIN KAIA 162300Z AUTO 10011KT 10SM CLR 34/06 A2984 4010 16 7100 090/11 RMK AO2 T03440056
24044KAIA AIA20160616160510906/16/16 16:05:31  5-MIN KAIA 162305Z AUTO 11007KT 10SM CLR 34/06 A2984 4010 16 7100 100/07 RMK AO2 T03440056
24044KAIA AIA20160616161010906/16/16 16:10:31  5-MIN KAIA 162310Z AUTO 13009KT 10SM CLR 34/06 A2984 4010 17 7100 120/09 RMK AO2 T03440061
24044KAIA AIA20160616161510906/16/16 16:15:31  5-MIN KAIA 162315Z AUTO 11009KT 10SM CLR 34/06 A2984 4010 16 7100 100/09 RMK AO2 T03440056
24044KAIA AIA20160616162010906/16/16 16:20:31  5-MIN KAIA 162320Z AUTO 12007KT 10SM CLR 34/06 A2984 4010 16 7100 110/07 RMK AO2 T03440056
24044KAIA AIA20160616162510906/16/16 16:25:31  5-MIN KAIA 162325Z AUTO 10004KT 10SM CLR 34/05 A2984 4010 15 7100 090/04 RMK AO2 T03440050
24044KAIA AIA20160616163010906/16/16 16:30:31  5-MIN KAIA 162330Z AUTO 10007KT 10SM CLR 34/05 A2984 4010 15 7100 090/07 RMK AO2 T03440050
24044KAIA AIA20160616163510906/16/16 16:35:31  5-MIN KAIA 162335Z AUTO VRB06KT 10SM CLR 34/06 A2984 4010 16 7100 VRB/06 RMK AO2 T03440056
24044KAIA AIA20160616164010906/16/16 16:40:31  5-MIN KAIA 162340Z AUTO 13008KT 10SM CLR 34/06 A2984 4010 17 7000 120/08 RMK AO2 T03390061
24044KAIA AIA20160616164510906/16/16 16:45:31  5-MIN KAIA 162345Z AUTO 13007KT 10SM CLR 34/06 A2984 4010 16 7000 120/07 RMK AO2 T03390056
24044KAIA AIA20160616165013406/16/16 16:50:31  5-MIN KAIA 162350Z AUTO 12006KT 10SM CLR 34/05 A2984 4010 16 7000 120/06 RMK AO2 SLP053 T03390050 10361 20328 55002
24044KAIA AIA20160616165510906/16/16 16:55:31  5-MIN KAIA 162355Z AUTO 14010KT 10SM CLR 34/05 A2984 4010 16 7000 130/10 RMK AO2 T03390050
24044KAIA AIA20160616170010906/16/16 17:00:31  5-MIN KAIA 170000Z AUTO 14006KT 10SM CLR 33/05 A2984 4010 16 7000 130/06 RMK AO2 T03330050
24044KAIA AIA20160616170510906/16/16 17:05:31  5-MIN KAIA 170005Z AUTO 13008KT 10SM CLR 32/06 A2984 4010 18 6900 130/08 RMK AO2 T03220056
24044KAIA AIA20160616171010906/16/16 17:10:31  5-MIN KAIA 170010Z AUTO 14006KT 10SM CLR 33/06 A2984 4010 18 6900 130/06 RMK AO2 T03280056
24044KAIA AIA20160616171510906/16/16 17:15:31  5-MIN KAIA 170015Z AUTO 15008KT 10SM CLR 33/06 A2984 4000 18 6900 140/08 RMK AO2 T03280061
24044KAIA AIA20160616172010906/16/16 17:20:31  5-MIN KAIA 170020Z AUTO 14008KT 10SM CLR 33/06 A2984 4000 18 6900 130/08 RMK AO2 T03280056
24044KAIA AIA20160616172510906/16/16 17:25:31  5-MIN KAIA 170025Z AUTO 14006KT 10SM CLR 33/07 A2984 4010 20 6900 130/06 RMK AO2 T03280072
24044KAIA AIA20160616173010906/16/16 17:30:31  5-MIN KAIA 170030Z AUTO 14006KT 10SM CLR 33/08 A2984 4000 21 6900 130/06 RMK AO2 T03280078
24044KAIA AIA20160616173510906/16/16 17:35:31  5-MIN KAIA 170035Z AUTO 14007KT 10SM CLR 33/07 A2984 4000 19 6900 140/07 RMK AO2 T03280067
24044KAIA AIA20160616174010906/16/16 17:40:31  5-MIN KAIA 170040Z AUTO 14007KT 10SM CLR 32/07 A2984 4000 20 6900 140/07 RMK AO2 T03220067
24044KAIA AIA20160616174510906/16/16 17:45:31  5-MIN KAIA 170045Z AUTO 15006KT 10SM CLR 32/08 A2985 4000 22 6900 140/06 RMK AO2 T03220083
24044KAIA AIA20160616175011606/16/16 17:50:31  5-MIN KAIA 170050Z AUTO 15006KT 10SM CLR 32/09 A2985 4000 25 6800 150/06 RMK AO2 SLP055 T03170094
24044KAIA AIA20160616175510906/16/16 17:55:31  5-MIN KAIA 170055Z AUTO 15007KT 10SM CLR 32/09 A2985 4000 25 6800 140/07 RMK AO2 T03170094
24044KAIA AIA20160616180010906/16/16 18:00:31  5-MIN KAIA 170100Z AUTO 16006KT 10SM CLR 31/11 A2985 4000 27 6700 150/06 RMK AO2 T03110106
24044KAIA AIA20160616180510906/16/16 18:05:31  5-MIN KAIA 170105Z AUTO 16007KT 10SM CLR 31/11 A2985 4000 28 6700 150/07 RMK AO2 T03060106
24044KAIA AIA20160616181010906/16/16 18:10:31  5-MIN KAIA 170110Z AUTO 16006KT 10SM CLR 31/11 A2985 4000 28 6700 150/06 RMK AO2 T03060106
24044KAIA AIA20160616181510906/16/16 18:15:31  5-MIN KAIA 170115Z AUTO 15009KT 10SM CLR 30/12 A2985 4000 31 6600 140/09 RMK AO2 T03000117
24044KAIA AIA20160616182010906/16/16 18:20:31  5-MIN KAIA 170120Z AUTO 16008KT 10SM CLR 30/13 A2985 3990 34 6600 150/08 RMK AO2 T03000128
24044KAIA AIA20160616182510906/16/16 18:25:31  5-MIN KAIA 170125Z AUTO 16008KT 10SM CLR 29/14 A2986 3990 38 6600 150/08 RMK AO2 T02940139
24044KAIA AIA20160616183010906/16/16 18:30:31  5-MIN KAIA 170130Z AUTO 16008KT 10SM CLR 29/14 A2986 3990 40 6500 150/08 RMK AO2 T02890144
24044KAIA AIA20160616183510906/16/16 18:35:31  5-MIN KAIA 170135Z AUTO 16009KT 10SM CLR 29/14 A2986 3990 40 6500 150/09 RMK AO2 T02890144
24044KAIA AIA20160616184010906/16/16 18:40:31  5-MIN KAIA 170140Z AUTO 16008KT 10SM CLR 28/15 A2986 3990 43 6400 150/08 RMK AO2 T02830150
24044KAIA AIA20160616184510906/16/16 18:45:31  5-MIN KAIA 170145Z AUTO 16008KT 10SM CLR 28/15 A2986 3990 45 6400 150/08 RMK AO2 T02780150
24044KAIA AIA20160616185011606/16/16 18:50:31  5-MIN KAIA 170150Z AUTO 16008KT 10SM CLR 28/15 A2986 3990 45 6400 150/08 RMK AO2 SLP060 T02780150
24044KAIA AIA20160616185510906/16/16 18:55:31  5-MIN KAIA 170155Z AUTO 16008KT 10SM CLR 27/15 A2986 3990 48 6200 150/08 RMK AO2 T02670150
24044KAIA AIA20160616190010906/16/16 19:00:31  5-MIN KAIA 170200Z AUTO 16007KT 10SM CLR 26/15 A2986 3990 50 6200 150/07 RMK AO2 T02610150
24044KAIA AIA20160616190510906/16/16 19:05:31  5-MIN KAIA 170205Z AUTO 16007KT 10SM CLR 26/15 A2986 3990 51 6100 160/07 RMK AO2 T02560150
24044KAIA AIA20160616191010906/16/16 19:10:31  5-MIN KAIA 170210Z AUTO 17007KT 10SM CLR 25/15 A2987 3990 53 6100 160/07 RMK AO2 T02500150
24044KAIA AIA20160616191510906/16/16 19:15:31  5-MIN KAIA 170215Z AUTO 18007KT 10SM CLR 24/15 A2987 3980 55 6000 170/07 RMK AO2 T02440150
24044KAIA AIA20160616192010906/16/16 19:20:31  5-MIN KAIA 170220Z AUTO 16007KT 10SM CLR 24/15 A2987 3980 57 5900 160/07 RMK AO2 T02390150
24044KAIA AIA20160616192510906/16/16 19:25:31  5-MIN KAIA 170225Z AUTO 16006KT 10SM CLR 23/15 A2987 3980 59 5900 150/06 RMK AO2 T02330150
24044KAIA AIA20160616193010906/16/16 19:30:31  5-MIN KAIA 170230Z AUTO 15007KT 10SM CLR 23/15 A2987 3980 61 5800 140/07 RMK AO2 T02280150
24044KAIA AIA20160616193510906/16/16 19:35:31  5-MIN KAIA 170235Z AUTO 15009KT 10SM CLR 22/15 A2987 3980 63 5700 140/09 RMK AO2 T02220150
24044KAIA AIA20160616194010906/16/16 19:40:31  5-MIN KAIA 170240Z AUTO 16008KT 10SM CLR 22/15 A2987 3980 63 5700 150/08 RMK AO2 T02220150
24044KAIA AIA20160616194510906/16/16 19:45:31  5-MIN KAIA 170245Z AUTO 16009KT 10SM CLR 22/15 A2988 3980 63 5700 150/09 RMK AO2 T02220150
24044KAIA AIA20160616195012206/16/16 19:50:31  5-MIN KAIA 170250Z AUTO 16009KT 10SM CLR 22/14 A2988 3970 61 5700 150/09 RMK AO2 SLP069 T02220144 53002
24044KAIA AIA20160616195510906/16/16 19:55:31  5-MIN KAIA 170255Z AUTO 17009KT 10SM CLR 22/14 A2988 3970 63 5700 160/09 RMK AO2 T02170144
24044KAIA AIA20160616200010906/16/16 20:00:31  5-MIN KAIA 170300Z AUTO 17008KT 10SM CLR 22/14 A2988 3970 63 5700 160/08 RMK AO2 T02170144
24044KAIA AIA20160616200510906/16/16 20:05:31  5-MIN KAIA 170305Z AUTO 17008KT 10SM CLR 22/14 A2988 3970 63 5700 160/08 RMK AO2 T02170144
24044KAIA AIA20160616201010906/16/16 20:10:31  5-MIN KAIA 170310Z AUTO 18008KT 10SM CLR 22/14 A2989 3970 63 5700 170/08 RMK AO2 T02170144
24044KAIA AIA20160616201510906/16/16 20:15:31  5-MIN KAIA 170315Z AUTO 18009KT 10SM CLR 22/14 A2989 3960 63 5700 170/09 RMK AO2 T02170144
24044KAIA AIA20160616202010906/16/16 20:20:31  5-MIN KAIA 170320Z AUTO 18009KT 10SM CLR 21/14 A2989 3960 65 5600 170/09 RMK AO2 T02110144
24044KAIA AIA20160616202510906/16/16 20:25:31  5-MIN KAIA 170325Z AUTO 18008KT 10SM CLR 21/14 A2989 3960 63 5600 180/08 RMK AO2 T02110139
24044KAIA AIA20160616203010906/16/16 20:30:31  5-MIN KAIA 170330Z AUTO 18008KT 10SM CLR 21/14 A2989 3960 63 5600 170/08 RMK AO2 T02110139
24044KAIA AIA20160616203510906/16/16 20:35:31  5-MIN KAIA 170335Z AUTO 18009KT 10SM CLR 21/13 A2990 3960 63 5500 170/09 RMK AO2 T02060133
24044KAIA AIA20160616204010906/16/16 20:40:31  5-MIN KAIA 170340Z AUTO 17009KT 10SM CLR 21/13 A2990 3950 63 5500 170/09 RMK AO2 T02060133
24044KAIA AIA20160616204510906/16/16 20:45:31  5-MIN KAIA 170345Z AUTO 18008KT 10SM CLR 20/13 A2990 3950 65 5500 170/08 RMK AO2 T02000133
24044KAIA AIA20160616205011606/16/16 20:50:31  5-MIN KAIA 170350Z AUTO 18008KT 10SM CLR 21/13 A2990 3950 61 5600 170/08 RMK AO2 SLP074 T02110133
24044KAIA AIA20160616205510906/16/16 20:55:31  5-MIN KAIA 170355Z AUTO 18008KT 10SM CLR 20/13 A2990 3950 65 5500 170/08 RMK AO2 T02000133
24044KAIA AIA20160616210010906/16/16 21:00:31  5-MIN KAIA 170400Z AUTO 18008KT 10SM CLR 20/13 A2990 3950 65 5500 170/08 RMK AO2 T02000133
24044KAIA AIA20160616210510906/16/16 21:05:31  5-MIN KAIA 170405Z AUTO 18007KT 10SM CLR 20/13 A2991 3950 63 5500 170/07 RMK AO2 T02000128
24044KAIA AIA20160616211010906/16/16 21:10:31  5-MIN KAIA 170410Z AUTO 18007KT 10SM CLR 19/13 A2991 3950 65 5400 170/07 RMK AO2 T01940128
24044KAIA AIA20160616211510906/16/16 21:15:31  5-MIN KAIA 170415Z AUTO 18006KT 10SM CLR 19/13 A2991 3950 67 5400 170/06 RMK AO2 T01940133
24044KAIA AIA20160616212010906/16/16 21:20:31  5-MIN KAIA 170420Z AUTO 19005KT 10SM CLR 19/13 A2991 3940 67 5400 180/05 RMK AO2 T01940133
24044KAIA AIA20160616212510906/16/16 21:25:31  5-MIN KAIA 170425Z AUTO 22003KT 10SM CLR 19/13 A2991 3940 65 5400 210/03 RMK AO2 T01940128
24044KAIA AIA20160616213010906/16/16 21:30:31  5-MIN KAIA 170430Z AUTO 00000KT 10SM CLR 19/13 A2991 3940 67 5300 000/00 RMK AO2 T01890128
24044KAIA AIA20160616213510906/16/16 21:35:31  5-MIN KAIA 170435Z AUTO 00000KT 10SM CLR 19/13 A2991 3940 70 5300 000/00 RMK AO2 T01890133
24044KAIA AIA20160616214010906/16/16 21:40:31  5-MIN KAIA 170440Z AUTO 29003KT 10SM CLR 19/14 A2992 3940 72 5300 280/03 RMK AO2 T01890139
24044KAIA AIA20160616214510906/16/16 21:45:31  5-MIN KAIA 170445Z AUTO 30003KT 10SM CLR 18/13 A2992 3940 75 5200 290/03 RMK AO2 T01780133
24044KAIA AIA20160616215011606/16/16 21:50:31  5-MIN KAIA 170450Z AUTO 30008KT 10SM CLR 18/13 A2992 3940 72 5300 290/08 RMK AO2 SLP081 T01830133
24044KAIA AIA20160616215510906/16/16 21:55:31  5-MIN KAIA 170455Z AUTO 30006KT 10SM CLR 17/13 A2992 3940 78 5100 290/06 RMK AO2 T01720133
24044KAIA AIA20160616220010906/16/16 22:00:31  5-MIN KAIA 170500Z AUTO 31005KT 10SM CLR 18/13 A2992 3940 72 5300 300/05 RMK AO2 T01830133
24044KAIA AIA20160616220510906/16/16 22:05:31  5-MIN KAIA 170505Z AUTO 32005KT 10SM CLR 18/13 A2992 3930 72 5300 310/05 RMK AO2 T01830133
24044KAIA AIA20160616221010906/16/16 22:10:31  5-MIN KAIA 170510Z AUTO 34006KT 10SM CLR 18/14 A2992 3930 78 5200 330/06 RMK AO2 T01780139
24044KAIA AIA20160616221510906/16/16 22:15:31  5-MIN KAIA 170515Z AUTO 32004KT 10SM CLR 17/14 A2992 3930 80 5100 310/04 RMK AO2 T01720139
24044KAIA AIA20160616222010906/16/16 22:20:31  5-MIN KAIA 170520Z AUTO 31003KT 10SM CLR 18/14 A2993 3930 78 5200 300/03 RMK AO2 T01780139
24044KAIA AIA20160616222510906/16/16 22:25:31  5-MIN KAIA 170525Z AUTO 34003KT 10SM CLR 18/14 A2993 3930 78 5200 340/03 RMK AO2 T01780139
24044KAIA AIA20160616223010906/16/16 22:30:31  5-MIN KAIA 170530Z AUTO 00000KT 10SM CLR 17/13 A2993 3930 78 5100 000/00 RMK AO2 T01720133
24044KAIA AIA20160616223510906/16/16 22:35:31  5-MIN KAIA 170535Z AUTO 33003KT 10SM CLR 18/13 A2993 3930 75 5200 320/03 RMK AO2 T01780133
24044KAIA AIA20160616224010906/16/16 22:40:31  5-MIN KAIA 170540Z AUTO 00000KT 10SM CLR 17/13 A2993 3920 80 5100 000/00 RMK AO2 T01670133
24044KAIA AIA20160616224510906/16/16 22:45:31  5-MIN KAIA 170545Z AUTO 28003KT 10SM CLR 17/13 A2993 3920 78 5100 270/03 RMK AO2 T01720133
24044KAIA AIA20160616225013406/16/16 22:50:31  5-MIN KAIA 170550Z AUTO 29004KT 10SM CLR 17/13 A2993 3920 78 5100 280/04 RMK AO2 SLP085 T01720133 10339 20167 53011
24044KAIA AIA20160616225510906/16/16 22:55:31  5-MIN KAIA 170555Z AUTO 29003KT 10SM CLR 16/12 A2993 3920 77 5000 290/03 RMK AO2 T01610122
24044KAIA AIA20160616230010906/16/16 23:00:31  5-MIN KAIA 170600Z AUTO 00000KT 10SM CLR 16/12 A2993 3920 80 4900 000/00 RMK AO2 T01560122
24044KAIA AIA20160616230510906/16/16 23:05:31  5-MIN KAIA 170605Z AUTO 00000KT 10SM CLR 16/12 A2994 3920 80 4900 000/00 RMK AO2 T01560122
24044KAIA AIA20160616231010906/16/16 23:10:31  5-MIN KAIA 170610Z AUTO 31003KT 10SM CLR 15/13 A2994 3920 86 4900 300/03 RMK AO2 T01500128
24044KAIA AIA20160616231510906/16/16 23:15:31  5-MIN KAIA 170615Z AUTO 00000KT 10SM CLR 14/12 A2994 3920 90 4700 000/00 RMK AO2 T01390122
24044KAIA AIA20160616232010906/16/16 23:20:31  5-MIN KAIA 170620Z AUTO 00000KT 10SM CLR 14/12 A2994 3920 86 4700 000/00 RMK AO2 T01390117
24044KAIA AIA20160616232510906/16/16 23:25:31  5-MIN KAIA 170625Z AUTO 00000KT 10SM CLR 14/12 A2994 3920 86 4800 000/00 RMK AO2 T01440122
24044KAIA AIA20160616233010906/16/16 23:30:31  5-MIN KAIA 170630Z AUTO 00000KT 10SM CLR 14/12 A2994 3920 90 4700 000/00 RMK AO2 T01390122
24044KAIA AIA20160616233510906/16/16 23:35:31  5-MIN KAIA 170635Z AUTO 00000KT 10SM CLR 14/12 A2994 3920 90 4700 000/00 RMK AO2 T01390122
24044KAIA AIA20160616234010906/16/16 23:40:31  5-MIN KAIA 170640Z AUTO 28003KT 10SM CLR 14/12 A2994 3920 90 4700 270/03 RMK AO2 T01390122
24044KAIA AIA20160616234510906/16/16 23:45:31  5-MIN KAIA 170645Z AUTO 27003KT 10SM CLR 15/13 A2994 3920 86 4900 260/03 RMK AO2 T01500128
24044KAIA AIA20160616235012606/16/16 23:50:31  5-MIN KAIA 170650Z AUTO 27003KT 10SM CLR 16/13 A2994 3920 83 4900 260/03 RMK AO2 SLP087 T01560128 403610139
24044KAIA AIA20160616235510906/16/16 23:55:31  5-MIN KAIA 170655Z AUTO 29004KT 10SM CLR 14/12 A2994 3920 83 4800 280/04 RMK AO2 T01440117
24044KAIA AIA20160617000010906/17/16 00:00:31  5-MIN KAIA 170700Z AUTO 27004KT 10SM CLR 13/11 A2994 3920 86 4700 270/04 RMK AO2 T01330111
24044KAIA AIA20160617000510906/17/16 00:05:31  5-MIN KAIA 170705Z AUTO 26003KT 10SM CLR 13/11 A2994 3920 89 4600 250/03 RMK AO2 T01280111
24044KAIA AIA20160617001010906/17/16 00:10:31  5-MIN KAIA 170710Z AUTO 28004KT 10SM CLR 14/11 A2994 3920 83 4700 270/04 RMK AO2 T01390111
24044KAIA AIA20160617001510906/17/16 00:15:31  5-MIN KAIA 170715Z AUTO 28004KT 10SM CLR 13/11 A2994 3920 86 4700 270/04 RMK AO2 T01330111
24044KAIA AIA20160617002010906/17/16 00:20:31  5-MIN KAIA 170720Z AUTO 27004KT 10SM CLR 13/11 A2994 3910 86 4700 260/04 RMK AO2 T01330111
24044KAIA AIA20160617002510906/17/16 00:25:31  5-MIN KAIA 170725Z AUTO 23004KT 10SM CLR 13/11 A2994 3910 86 4600 220/04 RMK AO2 T01280106
24044KAIA AIA20160617003010906/17/16 00:30:31  5-MIN KAIA 170730Z AUTO 24004KT 10SM CLR 12/11 A2995 3910 89 4500 230/04 RMK AO2 T01220106
24044KAIA AIA20160617003509906/17/16 00:35:31  5-MIN KAIA 170735Z AUTO 10SM CLR 13/11 A2995 3900 86 4600 M /M RMK AO2 T01280106
24044KAIA AIA20160617004010906/17/16 00:40:31  5-MIN KAIA 170740Z AUTO 14004KT 10SM CLR 14/11 A2996 3900 83 4700 140/04 RMK AO2 T01390111
24044KAIA AIA20160617004510906/17/16 00:45:31  5-MIN KAIA 170745Z AUTO 12008KT 10SM CLR 15/11 A2996 3900 77 4800 120/08 RMK AO2 T01500111
24044KAIA AIA20160617005011606/17/16 00:50:31  5-MIN KAIA 170750Z AUTO 14004KT 10SM CLR 16/11 A2996 3900 74 4900 140/04 RMK AO2 SLP093 T01560111
24044KAIA AIA20160617005510906/17/16 00:55:31  5-MIN KAIA 170755Z AUTO 17005KT 10SM CLR 15/11 A2995 3900 74 4800 170/05 RMK AO2 T01500106
24044KAIA AIA20160617010010906/17/16 01:00:31  5-MIN KAIA 170800Z AUTO 15003KT 10SM CLR 16/11 A2995 3900 69 5000 150/03 RMK AO2 T01610106
24044KAIA AIA20160617010510906/17/16 01:05:31  5-MIN KAIA 170805Z AUTO 17004KT 10SM CLR 17/11 A2995 3900 67 5000 160/04 RMK AO2 T01670106
24044KAIA AIA20160617011010906/17/16 01:10:31  5-MIN KAIA 170810Z AUTO 19003KT 10SM CLR 17/11 A2995 3910 67 5000 180/03 RMK AO2 T01670106
24044KAIA AIA20160617011510906/17/16 01:15:31  5-MIN KAIA 170815Z AUTO 16004KT 10SM CLR 19/10 A2995 3910 54 5300 150/04 RMK AO2 T01940100
24044KAIA AIA20160617012010906/17/16 01:20:31  5-MIN KAIA 170820Z AUTO 16004KT 10SM CLR 17/10 A2995 3900 64 5000 150/04 RMK AO2 T01670100
24044KAIA AIA20160617012510906/17/16 01:25:31  5-MIN KAIA 170825Z AUTO 00000KT 10SM CLR 15/10 A2995 3900 72 4800 000/00 RMK AO2 T01500100
24044KAIA AIA20160617013010906/17/16 01:30:31  5-MIN KAIA 170830Z AUTO 00000KT 10SM CLR 16/10 A2995 3900 67 5000 000/00 RMK AO2 T01610100
24044KAIA AIA20160617013510906/17/16 01:35:31  5-MIN KAIA 170835Z AUTO 00000KT 10SM CLR 16/10 A2995 3900 67 5000 000/00 RMK AO2 T01610100
24044KAIA AIA20160617014010906/17/16 01:40:31  5-MIN KAIA 170840Z AUTO 00000KT 10SM CLR 16/10 A2995 3900 67 5000 000/00 RMK AO2 T01610100
24044KAIA AIA20160617014510906/17/16 01:45:31  5-MIN KAIA 170845Z AUTO 28003KT 10SM CLR 14/10 A2995 3900 74 4800 270/03 RMK AO2 T01440100
24044KAIA AIA20160617015012206/17/16 01:50:31  5-MIN KAIA 170850Z AUTO 28007KT 10SM CLR 14/09 A2995 3900 74 4700 270/07 RMK AO2 SLP093 T01390094 51017
24044KAIA AIA20160617015510906/17/16 01:55:31  5-MIN KAIA 170855Z AUTO 29009KT 10SM CLR 13/09 A2995 3900 80 4600 280/09 RMK AO2 T01280094
24044KAIA AIA20160617020010906/17/16 02:00:31  5-MIN KAIA 170900Z AUTO 29007KT 10SM CLR 13/09 A2996 3900 77 4600 290/07 RMK AO2 T01330094
24044KAIA AIA20160617020510906/17/16 02:05:31  5-MIN KAIA 170905Z AUTO 29008KT 10SM CLR 13/09 A2996 3900 77 4600 290/08 RMK AO2 T01330094
24044KAIA AIA20160617021010906/17/16 02:10:31  5-MIN KAIA 170910Z AUTO 30009KT 10SM CLR 14/09 A2996 3900 74 4700 290/09 RMK AO2 T01390094
24044KAIA AIA20160617021510906/17/16 02:15:31  5-MIN KAIA 170915Z AUTO 29008KT 10SM CLR 14/09 A2996 3900 74 4700 290/08 RMK AO2 T01390094
24044KAIA AIA20160617022010906/17/16 02:20:31  5-MIN KAIA 170920Z AUTO 29007KT 10SM CLR 14/09 A2996 3900 74 4700 280/07 RMK AO2 T01390094
24044KAIA AIA20160617022510906/17/16 02:25:31  5-MIN KAIA 170925Z AUTO 29008KT 10SM CLR 13/09 A2996 3890 80 4600 280/08 RMK AO2 T01280094
24044KAIA AIA20160617023010906/17/16 02:30:31  5-MIN KAIA 170930Z AUTO 30009KT 10SM CLR 13/09 A2996 3890 77 4600 290/09 RMK AO2 T01330094
24044KAIA AIA20160617023510906/17/16 02:35:31  5-MIN KAIA 170935Z AUTO 29008KT 10SM CLR 13/09 A2996 3890 77 4600 280/08 RMK AO2 T01330094
24044KAIA AIA20160617024010906/17/16 02:40:31  5-MIN KAIA 170940Z AUTO 29008KT 10SM CLR 13/09 A2997 3890 77 4600 280/08 RMK AO2 T01280089
24044KAIA AIA20160617024510906/17/16 02:45:31  5-MIN KAIA 170945Z AUTO 30007KT 10SM CLR 13/09 A2997 3890 77 4600 290/07 RMK AO2 T01280089
24044KAIA AIA20160617025011606/17/16 02:50:31  5-MIN KAIA 170950Z AUTO 29007KT 10SM CLR 12/09 A2997 3890 80 4500 280/07 RMK AO2 SLP100 T01220089
24044KAIA AIA20160617025510906/17/16 02:55:31  5-MIN KAIA 170955Z AUTO 28004KT 10SM CLR 12/09 A2997 3890 80 4500 280/04 RMK AO2 T01220089
24044KAIA AIA20160617030010906/17/16 03:00:31  5-MIN KAIA 171000Z AUTO 29006KT 10SM CLR 13/09 A2997 3890 77 4600 280/06 RMK AO2 T01280089
24044KAIA AIA20160617030510906/17/16 03:05:31  5-MIN KAIA 171005Z AUTO 30005KT 10SM CLR 12/09 A2997 3880 80 4500 300/05 RMK AO2 T01220089
24044KAIA AIA20160617031010906/17/16 03:10:31  5-MIN KAIA 171010Z AUTO 31003KT 10SM CLR 12/09 A2998 3880 80 4500 300/03 RMK AO2 T01220089
24044KAIA AIA20160617031510906/17/16 03:15:31  5-MIN KAIA 171015Z AUTO 06003KT 10SM CLR 12/09 A2998 3880 80 4500 050/03 RMK AO2 T01220089
24044KAIA AIA20160617032010906/17/16 03:20:31  5-MIN KAIA 171020Z AUTO 00000KT 10SM CLR 12/08 A2999 3870 77 4500 000/00 RMK AO2 T01220083
24044KAIA AIA20160617032510906/17/16 03:25:31  5-MIN KAIA 171025Z AUTO 00000KT 10SM CLR 13/08 A2998 3880 74 4600 000/00 RMK AO2 T01280083
24044KAIA AIA20160617033010906/17/16 03:30:31  5-MIN KAIA 171030Z AUTO 00000KT 10SM CLR 13/08 A2999 3870 74 4500 000/00 RMK AO2 T01280083
24044KAIA AIA20160617033510906/17/16 03:35:31  5-MIN KAIA 171035Z AUTO 00000KT 10SM CLR 12/08 A2999 3870 77 4500 000/00 RMK AO2 T01220083
24044KAIA AIA20160617034010906/17/16 03:40:31  5-MIN KAIA 171040Z AUTO 00000KT 10SM CLR 12/08 A3000 3860 77 4500 000/00 RMK AO2 T01220083
24044KAIA AIA20160617034510906/17/16 03:45:31  5-MIN KAIA 171045Z AUTO 00000KT 10SM CLR 12/08 A3000 3860 77 4500 000/00 RMK AO2 T01220083
24044KAIA AIA20160617035011606/17/16 03:50:31  5-MIN KAIA 171050Z AUTO 00000KT 10SM CLR 12/08 A3000 3860 77 4500 000/00 RMK AO2 SLP113 T01220083
24044KAIA AIA20160617035510906/17/16 03:55:31  5-MIN KAIA 171055Z AUTO 00000KT 10SM CLR 12/08 A3001 3850 80 4400 000/00 RMK AO2 T01170083
24044KAIA AIA20160617040010906/17/16 04:00:31  5-MIN KAIA 171100Z AUTO 29005KT 10SM CLR 11/08 A3001 3850 83 4300 280/05 RMK AO2 T01110083
24044KAIA AIA20160617040510906/17/16 04:05:31  5-MIN KAIA 171105Z AUTO 30005KT 10SM CLR 11/08 A3001 3850 83 4300 290/05 RMK AO2 T01110083
24044KAIA AIA20160617041010906/17/16 04:10:31  5-MIN KAIA 171110Z AUTO 31005KT 10SM CLR 11/08 A3001 3850 83 4300 300/05 RMK AO2 T01110083
24044KAIA AIA20160617041510906/17/16 04:15:31  5-MIN KAIA 171115Z AUTO 33005KT 10SM CLR 12/09 A3001 3850 83 4400 320/05 RMK AO2 T01170089
24044KAIA AIA20160617042010906/17/16 04:20:31  5-MIN KAIA 171120Z AUTO 36003KT 10SM CLR 11/09 A3002 3840 86 4300 350/03 RMK AO2 T01110089
24044KAIA AIA20160617042510906/17/16 04:25:31  5-MIN KAIA 171125Z AUTO 00000KT 10SM CLR 10/08 A3002 3840 89 4200 000/00 RMK AO2 T01000083
24044KAIA AIA20160617043010906/17/16 04:30:31  5-MIN KAIA 171130Z AUTO 15003KT 10SM CLR 09/08 A3003 3830 93 4100 140/03 RMK AO2 T00940083
24044KAIA AIA20160617043510906/17/16 04:35:31  5-MIN KAIA 171135Z AUTO 00000KT 10SM CLR 11/08 A3003 3830 86 4200 000/00 RMK AO2 T01060083
24044KAIA AIA20160617044010906/17/16 04:40:31  5-MIN KAIA 171140Z AUTO 35006KT 10SM CLR 11/08 A3003 3830 86 4200 340/06 RMK AO2 T01060083
24044KAIA AIA20160617044510906/17/16 04:45:31  5-MIN KAIA 171145Z AUTO 35008KT 10SM CLR 13/09 A3003 3830 80 4500 340/08 RMK AO2 T01280094
24044KAIA AIA20160617045013406/17/16 04:50:31  5-MIN KAIA 171150Z AUTO 36008KT 10SM CLR 15/10 A3003 3830 72 4800 350/08 RMK AO2 SLP122 T01500100 10194 20094 51006
24044KAIA AIA20160617045510906/17/16 04:55:31  5-MIN KAIA 171155Z AUTO 36009KT 10SM CLR 16/11 A3004 3830 72 4800 350/09 RMK AO2 T01560106
24044KAIA AIA20160617050010906/17/16 05:00:31  5-MIN KAIA 171200Z AUTO 35009KT 10SM CLR 16/11 A3004 3820 74 4800 350/09 RMK AO2 T01560111
24044KAIA AIA20160617050510906/17/16 05:05:31  5-MIN KAIA 171205Z AUTO 35010KT 10SM CLR 16/12 A3004 3820 75 4900 350/10 RMK AO2 T01610117
24044KAIA AIA20160617051010906/17/16 05:10:31  5-MIN KAIA 171210Z AUTO 36011KT 10SM CLR 17/12 A3004 3820 75 4900 350/11 RMK AO2 T01670122
24044KAIA AIA20160617051510906/17/16 05:15:31  5-MIN KAIA 171215Z AUTO 36011KT 10SM CLR 17/13 A3005 3820 75 5000 350/11 RMK AO2 T01720128
24044KAIA AIA20160617052010906/17/16 05:20:31  5-MIN KAIA 171220Z AUTO 36013KT 10SM CLR 17/13 A3005 3820 78 5000 360/13 RMK AO2 T01720133
24044KAIA AIA20160617052511506/17/16 05:25:31  5-MIN KAIA 171225Z AUTO 36017G23KT 10SM CLR 18/14 A3005 3820 78 5000 360/17G23 RMK AO2 T01780139
24044KAIA AIA20160617053011506/17/16 05:30:31  5-MIN KAIA 171230Z AUTO 36017G23KT 10SM CLR 18/14 A3005 3820 78 5000 360/17G23 RMK AO2 T01780139
24044KAIA AIA20160617053511506/17/16 05:35:31  5-MIN KAIA 171235Z AUTO 36017G22KT 10SM CLR 18/14 A3005 3810 78 5100 360/17G22 RMK AO2 T01830144
24044KAIA AIA20160617054010906/17/16 05:40:31  5-MIN KAIA 171240Z AUTO 36016KT 10SM CLR 18/14 A3006 3810 78 5100 360/16 RMK AO2 T01830144
24044KAIA AIA20160617054511506/17/16 05:45:31  5-MIN KAIA 171245Z AUTO 36017G22KT 10SM CLR 19/14 A3006 3810 75 5200 360/17G22 RMK AO2 T01890144
24044KAIA AIA20160617055012206/17/16 05:50:31  5-MIN KAIA 171250Z AUTO 36018G25KT 10SM CLR 19/14 A3006 3810 75 5200 350/18G25 RMK AO2 SLP129 T01890144
24044KAIA AIA20160617055513306/17/16 05:55:31  5-MIN KAIA 171255Z AUTO 36018G26KT 10SM CLR 19/14 A3006 3800 75 5200 350/18G26 RMK AO2 PK WND 36026/1254 T01890144
24044KAIA AIA20160617060013306/17/16 06:00:31  5-MIN KAIA 171300Z AUTO 36021G26KT 10SM CLR 19/14 A3006 3800 75 5200 350/21G26 RMK AO2 PK WND 36026/1254 T01890144
24044KAIA AIA20160617060513306/17/16 06:05:31  5-MIN KAIA 171305Z AUTO 01020G26KT 10SM CLR 19/14 A3007 3800 75 5200 360/20G26 RMK AO2 PK WND 36026/1254 T01890144
24044KAIA AIA20160617061013306/17/16 06:10:31  5-MIN KAIA 171310Z AUTO 01023G30KT 10SM CLR 19/14 A3007 3800 72 5200 360/23G30 RMK AO2 PK WND 01030/1310 T01940144
24044KAIA AIA20160617061513306/17/16 06:15:31  5-MIN KAIA 171315Z AUTO 01022G30KT 10SM CLR 19/14 A3008 3790 75 5100 360/22G30 RMK AO2 PK WND 01030/1310 T01890144
24044KAIA AIA20160617062013306/17/16 06:20:31  5-MIN KAIA 171320Z AUTO 01023G29KT 10SM CLR 19/14 A3008 3790 72 5200 010/23G29 RMK AO2 PK WND 01030/1310 T01940144
24044KAIA AIA20160617062513306/17/16 06:25:31  5-MIN KAIA 171325Z AUTO 02020G29KT 10SM CLR 19/14 A3008 3780 72 5200 020/20G29 RMK AO2 PK WND 01030/1310 T01940144
24044KAIA AIA20160617063013306/17/16 06:30:31  5-MIN KAIA 171330Z AUTO 02022G30KT 10SM CLR 19/14 A3009 3780 70 5200 010/22G30 RMK AO2 PK WND 01030/1310 T01940139
24044KAIA AIA20160617063513306/17/16 06:35:31  5-MIN KAIA 171335Z AUTO 02021G30KT 10SM CLR 19/14 A3010 3770 70 5200 010/21G30 RMK AO2 PK WND 01030/1310 T01940139
24044KAIA AIA20160617064013306/17/16 06:40:31  5-MIN KAIA 171340Z AUTO 03021G28KT 10SM CLR 19/14 A3010 3770 70 5200 020/21G28 RMK AO2 PK WND 01030/1310 T01940139
24044KAIA AIA20160617064513306/17/16 06:45:31  5-MIN KAIA 171345Z AUTO 02022G30KT 10SM CLR 19/13 A3010 3760 67 5200 010/22G30 RMK AO2 PK WND 01030/1310 T01940133
24044KAIA AIA20160617065014006/17/16 06:50:31  5-MIN KAIA 171350Z AUTO 02020G31KT 10SM CLR 19/13 A3011 3760 67 5200 010/20G31 RMK AO2 PK WND 02031/1347 SLP148 T01940133
24044KAIA AIA20160617065513306/17/16 06:55:31  5-MIN KAIA 171355Z AUTO 02021G31KT 10SM CLR 20/13 A3011 3760 65 5200 010/21G31 RMK AO2 PK WND 02026/1354 T02000133
24044KAIA AIA20160617070013306/17/16 07:00:31  5-MIN KAIA 171400Z AUTO 02017G26KT 10SM CLR 20/13 A3011 3760 65 5200 010/17G26 RMK AO2 PK WND 02026/1354 T02000133
24044KAIA AIA20160617070513306/17/16 07:05:31  5-MIN KAIA 171405Z AUTO 01020G27KT 10SM CLR 20/13 A3011 3760 65 5200 360/20G27 RMK AO2 PK WND 01027/1404 T02000133
24044KAIA AIA20160617071013506/17/16 07:10:31  5-MIN KAIA 171410Z AUTO 02021G27KT 10SM CLR 20/13 A3012 3750 63 5200 010/21G27 RMK AO2 PK WND 01027/1404 T02000128 $
24044KAIA AIA20160617071513506/17/16 07:15:31  5-MIN KAIA 171415Z AUTO 02019G27KT 10SM CLR 20/13 A3012 3750 63 5200 010/19G27 RMK AO2 PK WND 03027/1413 T02000128 $
24044KAIA AIA20160617072013506/17/16 07:20:31  5-MIN KAIA 171420Z AUTO 01019G27KT 10SM CLR 21/13 A3012 3750 60 5300 010/19G27 RMK AO2 PK WND 03027/1413 T02060128 $
24044KAIA AIA20160617072512906/17/16 07:25:31  5-MIN KAIA 171425Z AUTO 01019KT 10SM CLR 21/13 A3012 3750 60 5300 010/19 RMK AO2 PK WND 03027/1413 T02060128 $
24044KAIA AIA20160617073013506/17/16 07:30:31  5-MIN KAIA 171430Z AUTO 02019G25KT 10SM CLR 21/13 A3012 3750 60 5300 010/19G25 RMK AO2 PK WND 03027/1413 T02060128 $
24044KAIA AIA20160617073513506/17/16 07:35:31  5-MIN KAIA 171435Z AUTO 01020G27KT 10SM CLR 21/13 A3012 3750 60 5300 010/20G27 RMK AO2 PK WND 02027/1431 T02060128 $
24044KAIA AIA20160617074013506/17/16 07:40:31  5-MIN KAIA 171440Z AUTO 02018G27KT 10SM CLR 21/13 A3013 3740 58 5300 010/18G27 RMK AO2 PK WND 02027/1431 T02110128 $
24044KAIA AIA20160617074513506/17/16 07:45:31  5-MIN KAIA 171445Z AUTO 02022G27KT 10SM CLR 21/12 A3013 3740 56 5300 010/22G27 RMK AO2 PK WND 03027/1444 T02110122 $
24044KAIA AIA20160617075014806/17/16 07:50:31  5-MIN KAIA 171450Z AUTO 02019G27KT 10SM CLR 21/12 A3013 3740 56 5300 010/19G27 RMK AO2 PK WND 03027/1444 SLP162 T02110122 53025 $
24044KAIA AIA20160617075513506/17/16 07:55:31  5-MIN KAIA 171455Z AUTO 01022G26KT 10SM CLR 21/12 A3013 3740 56 5300 010/22G26 RMK AO2 PK WND 02026/1454 T02110122 $
24044KAIA AIA20160617080013506/17/16 08:00:31  5-MIN KAIA 171500Z AUTO 01018G26KT 10SM CLR 21/12 A3013 3740 56 5300 360/18G26 RMK AO2 PK WND 02026/1454 T02110122 $
24044KAIA AIA20160617080513506/17/16 08:05:31  5-MIN KAIA 171505Z AUTO 01019G25KT 10SM CLR 22/12 A3013 3740 54 5400 360/19G25 RMK AO2 PK WND 02026/1454 T02170122 $
24044KAIA AIA20160617081013506/17/16 08:10:31  5-MIN KAIA 171510Z AUTO 02022G26KT 10SM CLR 22/12 A3012 3750 54 5400 010/22G26 RMK AO2 PK WND 01026/1509 T02170122 $
24044KAIA AIA20160617081513506/17/16 08:15:31  5-MIN KAIA 171515Z AUTO 02023G28KT 10SM CLR 22/12 A3013 3750 54 5400 010/23G28 RMK AO2 PK WND 01028/1513 T02170122 $
24044KAIA AIA20160617082013506/17/16 08:20:31  5-MIN KAIA 171520Z AUTO 03022G28KT 10SM CLR 22/13 A3012 3750 54 5500 020/22G28 RMK AO2 PK WND 02028/1519 T02220128 $
24044KAIA AIA20160617082513506/17/16 08:25:31  5-MIN KAIA 171525Z AUTO 02019G28KT 10SM CLR 22/13 A3012 3750 54 5500 010/19G28 RMK AO2 PK WND 02028/1519 T02220128 $
24044KAIA AIA20160617083012906/17/16 08:30:31  5-MIN KAIA 171530Z AUTO 02018KT 10SM CLR 22/13 A3012 3750 54 5500 010/18 RMK AO2 PK WND 02028/1519 T02220128 $
24044KAIA AIA20160617083513506/17/16 08:35:31  5-MIN KAIA 171535Z AUTO 02020G24KT 10SM CLR 22/13 A3012 3750 54 5500 010/20G24 RMK AO2 PK WND 02028/1519 T02220128 $
24044KAIA AIA20160617084012906/17/16 08:40:31  5-MIN KAIA 171540Z AUTO 02020KT 10SM CLR 23/13 A3013 3740 53 5500 020/20 RMK AO2 PK WND 02028/1519 T02280128 $
24044KAIA AIA20160617084513506/17/16 08:45:31  5-MIN KAIA 171545Z AUTO 02018G24KT 10SM CLR 23/13 A3013 3740 53 5500 010/18G24 RMK AO2 PK WND 02028/1519 T02280128 $
24044KAIA AIA20160617085014206/17/16 08:50:31  5-MIN KAIA 171550Z AUTO 02019G24KT 10SM CLR 23/13 A3013 3740 53 5600 010/19G24 RMK AO2 PK WND 02028/1519 SLP159 T02330133 $
24044KAIA AIA20160617085511706/17/16 08:55:31  5-MIN KAIA 171555Z AUTO 01018G25KT 10SM CLR 23/13 A3013 3740 53 5600 010/18G25 RMK AO2 T02330133 $
24044KAIA AIA20160617090011506/17/16 09:00:31  5-MIN KAIA 171600Z AUTO 01019G25KT 10SM CLR 23/13 A3013 3740 53 5600 360/19G25 RMK AO2 T02330133
24044KAIA AIA20160617090510906/17/16 09:05:31  5-MIN KAIA 171605Z AUTO 02019KT 10SM CLR 23/13 A3012 3750 53 5600 010/19 RMK AO2 T02330133
24044KAIA AIA20160617091010906/17/16 09:10:31  5-MIN KAIA 171610Z AUTO 02017KT 10SM CLR 24/13 A3013 3740 51 5600 020/17 RMK AO2 T02390133
24044KAIA AIA20160617091510906/17/16 09:15:31  5-MIN KAIA 171615Z AUTO 03017KT 10SM CLR 24/14 A3013 3740 53 5600 020/17 RMK AO2 T02390139
24044KAIA AIA20160617092010906/17/16 09:20:31  5-MIN KAIA 171620Z AUTO 03015KT 10SM CLR 24/14 A3013 3740 51 5700 020/15 RMK AO2 T02440139
24044KAIA AIA20160617092510906/17/16 09:25:31  5-MIN KAIA 171625Z AUTO 02015KT 10SM CLR 25/14 A3013 3740 49 5800 010/15 RMK AO2 T02500139
24044KAIA AIA20160617093011506/17/16 09:30:31  5-MIN KAIA 171630Z AUTO 03015G24KT 10SM CLR 25/14 A3013 3740 49 5800 020/15G24 RMK AO2 T02500139
24044KAIA AIA20160617093511506/17/16 09:35:31  5-MIN KAIA 171635Z AUTO 03016G24KT 10SM CLR 25/14 A3013 3740 51 5800 030/16G24 RMK AO2 T02500144
24044KAIA AIA20160617094011506/17/16 09:40:31  5-MIN KAIA 171640Z AUTO 04018G23KT 10SM CLR 25/14 A3013 3740 51 5800 040/18G23 RMK AO2 T02500144
24044KAIA AIA20160617094510906/17/16 09:45:31  5-MIN KAIA 171645Z AUTO 04019KT 10SM CLR 25/14 A3013 3740 51 5800 030/19 RMK AO2 T02500144
24044KAIA AIA20160617095011606/17/16 09:50:31  5-MIN KAIA 171650Z AUTO 03016KT 10SM CLR 26/14 A3013 3740 49 5800 020/16 RMK AO2 SLP160 T02560144
24044KAIA AIA20160617095510906/17/16 09:55:31  5-MIN KAIA 171655Z AUTO 04016KT 10SM CLR 26/15 A3013 3740 51 5800 030/16 RMK AO2 T02560150
24044KAIA AIA20160617100011506/17/16 10:00:31  5-MIN KAIA 171700Z AUTO 04017G23KT 10SM CLR 26/15 A3013 3740 50 5900 030/17G23 RMK AO2 T02610150
24044KAIA AIA20160617100511506/17/16 10:05:31  5-MIN KAIA 171705Z AUTO 04015G23KT 10SM CLR 26/15 A3013 3740 51 5800 030/15G23 RMK AO2 T02560150
24044KAIA AIA20160617101010906/17/16 10:10:31  5-MIN KAIA 171710Z AUTO 03017KT 10SM CLR 26/15 A3013 3740 50 5900 020/17 RMK AO2 T02610150
24044KAIA AIA20160617101511506/17/16 10:15:31  5-MIN KAIA 171715Z AUTO 04018G25KT 10SM CLR 26/15 A3013 3740 50 5900 040/18G25 RMK AO2 T02610150
24044KAIA AIA20160617102011506/17/16 10:20:31  5-MIN KAIA 171720Z AUTO 05018G25KT 10SM CLR 26/15 A3013 3740 50 5900 040/18G25 RMK AO2 T02610150
24044KAIA AIA20160617102511506/17/16 10:25:31  5-MIN KAIA 171725Z AUTO 05017G25KT 10SM CLR 26/15 A3013 3740 50 5900 040/17G25 RMK AO2 T02610150
24044KAIA AIA20160617103011506/17/16 10:30:31  5-MIN KAIA 171730Z AUTO 04014G23KT 10SM CLR 27/15 A3013 3740 48 5900 030/14G23 RMK AO2 T02670150
24044KAIA AIA20160617103511506/17/16 10:35:31  5-MIN KAIA 171735Z AUTO 05017G23KT 10SM CLR 26/15 A3013 3740 50 5900 040/17G23 RMK AO2 T02610150
24044KAIA AIA20160617104011506/17/16 10:40:31  5-MIN KAIA 171740Z AUTO 05018G24KT 10SM CLR 26/15 A3013 3740 50 5900 050/18G24 RMK AO2 T02610150
24044KAIA AIA20160617104511506/17/16 10:45:31  5-MIN KAIA 171745Z AUTO 06017G24KT 10SM CLR 27/15 A3013 3740 48 5900 050/17G24 RMK AO2 T02670150
24044KAIA AIA20160617105014006/17/16 10:50:31  5-MIN KAIA 171750Z AUTO 05017G23KT 10SM CLR 27/16 A3013 3740 48 6000 040/17G23 RMK AO2 SLP162 T02720156 10272 20156 51028
24044KAIA AIA20160617105511506/17/16 10:55:31  5-MIN KAIA 171755Z AUTO 06016G23KT 10SM CLR 27/16 A3013 3740 50 5900 050/16G23 RMK AO2 T02670156
24044KAIA AIA20160617110010906/17/16 11:00:31  5-MIN KAIA 171800Z AUTO 06017KT 10SM CLR 27/16 A3013 3740 48 6000 050/17 RMK AO2 T02720156
24044KAIA AIA20160617110510906/17/16 11:05:31  5-MIN KAIA 171805Z AUTO 06018KT 10SM CLR 27/16 A3013 3740 50 5900 050/18 RMK AO2 T02670156
24044KAIA AIA20160617111011506/17/16 11:10:31  5-MIN KAIA 171810Z AUTO 06015G22KT 10SM CLR 27/16 A3013 3740 48 6000 060/15G22 RMK AO2 T02720156
24044KAIA AIA20160617111511506/17/16 11:15:31  5-MIN KAIA 171815Z AUTO 04016G23KT 10SM CLR 27/16 A3013 3740 48 6000 030/16G23 RMK AO2 T02720156
24044KAIA AIA20160617112011506/17/16 11:20:31  5-MIN KAIA 171820Z AUTO 04017G23KT 10SM CLR 27/16 A3013 3740 48 6000 030/17G23 RMK AO2 T02720156
24044KAIA AIA20160617112511506/17/16 11:25:31  5-MIN KAIA 171825Z AUTO 05015G22KT 10SM CLR 27/16 A3013 3740 48 6000 040/15G22 RMK AO2 T02720156
24044KAIA AIA20160617113010906/17/16 11:30:31  5-MIN KAIA 171830Z AUTO 04016KT 10SM CLR 27/16 A3013 3740 48 6000 030/16 RMK AO2 T02720156
24044KAIA AIA20160617113511506/17/16 11:35:31  5-MIN KAIA 171835Z AUTO 04013G22KT 10SM CLR 27/16 A3013 3740 48 6000 030/13G22 RMK AO2 T02720156
24044KAIA AIA20160617114011506/17/16 11:40:31  5-MIN KAIA 171840Z AUTO 03015G22KT 10SM CLR 28/16 A3013 3740 48 6100 020/15G22 RMK AO2 T02780161
24044KAIA AIA20160617114511506/17/16 11:45:31  5-MIN KAIA 171845Z AUTO 06014G22KT 10SM CLR 28/16 A3013 3740 48 6100 050/14G22 RMK AO2 T02780161
24044KAIA AIA20160617115012206/17/16 11:50:31  5-MIN KAIA 171850Z AUTO 04017G21KT 10SM CLR 28/16 A3013 3740 46 6100 030/17G21 RMK AO2 SLP161 T02780156
24044KAIA AIA20160617115511506/17/16 11:55:31  5-MIN KAIA 171855Z AUTO 04016G22KT 10SM CLR 28/16 A3013 3740 46 6100 030/16G22 RMK AO2 T02780156
24044KAIA AIA20160617120011506/17/16 12:00:31  5-MIN KAIA 171900Z AUTO 05014G22KT 10SM CLR 28/16 A3013 3740 47 6100 040/14G22 RMK AO2 T02830161
24044KAIA AIA20160617120511506/17/16 12:05:31  5-MIN KAIA 171905Z AUTO 05014G20KT 10SM CLR 28/16 A3012 3750 47 6100 050/14G20 RMK AO2 T02830161
24044KAIA AIA20160617121011506/17/16 12:10:31  5-MIN KAIA 171910Z AUTO 04016G23KT 10SM CLR 28/16 A3012 3750 47 6100 030/16G23 RMK AO2 T02830161
24044KAIA AIA20160617121511506/17/16 12:15:31  5-MIN KAIA 171915Z AUTO 06012G23KT 10SM CLR 28/16 A3012 3750 47 6100 050/12G23 RMK AO2 T02830161
24044KAIA AIA20160617122011506/17/16 12:20:31  5-MIN KAIA 171920Z AUTO 06018G22KT 10SM CLR 28/16 A3013 3740 47 6100 050/18G22 RMK AO2 T02830161
24044KAIA AIA20160617122511506/17/16 12:25:31  5-MIN KAIA 171925Z AUTO 04014G21KT 10SM CLR 28/16 A3013 3740 47 6100 030/14G21 RMK AO2 T02830161
24044KAIA AIA20160617123010906/17/16 12:30:31  5-MIN KAIA 171930Z AUTO 05011KT 10SM CLR 28/16 A3013 3740 47 6100 040/11 RMK AO2 T02830161
24044KAIA AIA20160617123510906/17/16 12:35:31  5-MIN KAIA 171935Z AUTO 06012KT 10SM CLR 29/16 A3013 3740 44 6300 050/12 RMK AO2 T02940161
24044KAIA AIA20160617124010906/17/16 12:40:31  5-MIN KAIA 171940Z AUTO 05012KT 10SM CLR 28/16 A3013 3740 47 6100 040/12 RMK AO2 T02830161
24044KAIA AIA20160617124511506/17/16 12:45:31  5-MIN KAIA 171945Z AUTO 05013G22KT 10SM CLR 29/16 A3013 3740 44 6200 040/13G22 RMK AO2 T02940161
24044KAIA AIA20160617125013806/17/16 12:50:31  5-MIN KAIA 171950Z AUTO 03011G22KT 360V070 10SM CLR 29/16 A3013 3740 44 6300 030/11G22 350V060 RMK AO2 SLP158 T02940161
24044KAIA AIA20160617125511506/17/16 12:55:31  5-MIN KAIA 171955Z AUTO 07015G21KT 10SM CLR 29/16 A3013 3740 44 6300 060/15G21 RMK AO2 T02940161
24044KAIA AIA20160617130011506/17/16 13:00:31  5-MIN KAIA 172000Z AUTO 08014G21KT 10SM CLR 29/16 A3012 3750 45 6200 070/14G21 RMK AO2 T02890161
24044KAIA AIA20160617130511506/17/16 13:05:31  5-MIN KAIA 172005Z AUTO 05011G20KT 10SM CLR 29/16 A3013 3740 45 6200 040/11G20 RMK AO2 T02890161
24044KAIA AIA20160617131010906/17/16 13:10:31  5-MIN KAIA 172010Z AUTO 08011KT 10SM CLR 29/16 A3012 3750 44 6300 070/11 RMK AO2 T02940161
24044KAIA AIA20160617131511506/17/16 13:15:31  5-MIN KAIA 172015Z AUTO 06014G20KT 10SM CLR 29/16 A3013 3750 44 6300 060/14G20 RMK AO2 T02940161
24044KAIA AIA20160617132011506/17/16 13:20:31  5-MIN KAIA 172020Z AUTO 06014G21KT 10SM CLR 29/16 A3012 3750 44 6300 050/14G21 RMK AO2 T02940161
24044KAIA AIA20160617132511506/17/16 13:25:31  5-MIN KAIA 172025Z AUTO 04013G21KT 10SM CLR 29/16 A3013 3740 44 6300 030/13G21 RMK AO2 T02940161
24044KAIA AIA20160617133010906/17/16 13:30:31  5-MIN KAIA 172030Z AUTO 07014KT 10SM CLR 29/16 A3013 3740 45 6200 060/14 RMK AO2 T02890161
24044KAIA AIA20160617133511206/17/16 13:35:31  5-MIN KAIA 172035Z AUTO 06013KT 10SM FEW046 29/16 A3013 3740 45 6200 060/13 RMK AO2 T02890161
24044KAIA AIA20160617134010906/17/16 13:40:31  5-MIN KAIA 172040Z AUTO 06012KT 10SM CLR 29/16 A3013 3740 45 6200 050/12 RMK AO2 T02890161
24044KAIA AIA20160617134511506/17/16 13:45:31  5-MIN KAIA 172045Z AUTO 07014G20KT 10SM CLR 29/16 A3013 3740 44 6300 060/14G20 RMK AO2 T02940161
24044KAIA AIA20160617135012806/17/16 13:50:31  5-MIN KAIA 172050Z AUTO 05013G20KT 10SM CLR 29/16 A3013 3740 44 6300 040/13G20 RMK AO2 SLP160 T02940161 53000
24044KAIA AIA20160617135513106/17/16 13:55:31  5-MIN KAIA 172055Z AUTO 06012G20KT 040V100 10SM CLR 29/16 A3013 3740 44 6300 060/12G20 030V090 RMK AO2 T02940161
24044KAIA AIA20160617140011506/17/16 14:00:31  5-MIN KAIA 172100Z AUTO 05013G19KT 10SM CLR 29/16 A3012 3750 44 6300 040/13G19 RMK AO2 T02940161
24044KAIA AIA20160617140510906/17/16 14:05:31  5-MIN KAIA 172105Z AUTO 04013KT 10SM CLR 30/16 A3012 3750 42 6300 030/13 RMK AO2 T03000161
24044KAIA AIA20160617141010906/17/16 14:10:31  5-MIN KAIA 172110Z AUTO 07013KT 10SM CLR 30/16 A3012 3750 42 6300 060/13 RMK AO2 T03000161
24044KAIA AIA20160617141510906/17/16 14:15:31  5-MIN KAIA 172115Z AUTO 06014KT 10SM CLR 29/16 A3012 3750 42 6300 060/14 RMK AO2 T02940156
24044KAIA AIA20160617142010906/17/16 14:20:31  5-MIN KAIA 172120Z AUTO 06013KT 10SM CLR 29/16 A3012 3750 44 6300 050/13 RMK AO2 T02940161
24044KAIA AIA20160617142510906/17/16 14:25:31  5-MIN KAIA 172125Z AUTO 09013KT 10SM CLR 30/16 A3012 3750 42 6300 080/13 RMK AO2 T03000161
24044KAIA AIA20160617143010906/17/16 14:30:31  5-MIN KAIA 172130Z AUTO 07013KT 10SM CLR 29/16 A3012 3750 44 6300 060/13 RMK AO2 T02940161
24044KAIA AIA20160617143510906/17/16 14:35:31  5-MIN KAIA 172135Z AUTO 07014KT 10SM CLR 30/16 A3012 3750 42 6300 060/14 RMK AO2 T03000161
24044KAIA AIA20160617144010906/17/16 14:40:31  5-MIN KAIA 172140Z AUTO 07016KT 10SM CLR 29/16 A3011 3760 44 6300 070/16 RMK AO2 T02940161
24044KAIA AIA20160617144511506/17/16 14:45:31  5-MIN KAIA 172145Z AUTO 08011G19KT 10SM CLR 29/16 A3012 3750 44 6300 070/11G19 RMK AO2 T02940161
24044KAIA AIA20160617145011606/17/16 14:50:31  5-MIN KAIA 172150Z AUTO 05013KT 10SM CLR 30/16 A3011 3750 42 6300 040/13 RMK AO2 SLP157 T03000161
24044KAIA AIA20160617145510906/17/16 14:55:31  5-MIN KAIA 172155Z AUTO 05014KT 10SM CLR 29/16 A3011 3760 44 6300 040/14 RMK AO2 T02940161
24044KAIA AIA20160617150010906/17/16 15:00:31  5-MIN KAIA 172200Z AUTO 08010KT 10SM CLR 30/16 A3011 3760 42 6300 070/10 RMK AO2 T03000161
24044KAIA AIA20160617150510906/17/16 15:05:31  5-MIN KAIA 172205Z AUTO 05014KT 10SM CLR 30/16 A3011 3760 42 6300 050/14 RMK AO2 T03000161
24044KAIA AIA20160617151011506/17/16 15:10:31  5-MIN KAIA 172210Z AUTO 09012G20KT 10SM CLR 30/16 A3011 3760 42 6300 080/12G20 RMK AO2 T03000161
24044KAIA AIA20160617151510906/17/16 15:15:31  5-MIN KAIA 172215Z AUTO 06012KT 10SM CLR 30/16 A3011 3760 42 6300 050/12 RMK AO2 T03000161
24044KAIA AIA20160617152011506/17/16 15:20:31  5-MIN KAIA 172220Z AUTO 05014G18KT 10SM CLR 30/16 A3010 3770 42 6300 040/14G18 RMK AO2 T03000161
24044KAIA AIA20160617152510906/17/16 15:25:31  5-MIN KAIA 172225Z AUTO 05013KT 10SM CLR 30/17 A3010 3770 44 6300 040/13 RMK AO2 T03000167
24044KAIA AIA20160617153010906/17/16 15:30:31  5-MIN KAIA 172230Z AUTO 03014KT 10SM CLR 30/17 A3010 3770 44 6300 030/14 RMK AO2 T03000167
24044KAIA AIA20160617153511506/17/16 15:35:31  5-MIN KAIA 172235Z AUTO 07014G21KT 10SM CLR 30/17 A3010 3770 44 6300 070/14G21 RMK AO2 T03000167
24044KAIA AIA20160617154011506/17/16 15:40:31  5-MIN KAIA 172240Z AUTO 07013G21KT 10SM CLR 30/17 A3009 3780 44 6400 070/13G21 RMK AO2 T03000167
24044KAIA AIA20160617154510906/17/16 15:45:31  5-MIN KAIA 172245Z AUTO 05011KT 10SM CLR 30/17 A3009 3780 44 6400 040/11 RMK AO2 T03000167
24044KAIA AIA20160617155011606/17/16 15:50:31  5-MIN KAIA 172250Z AUTO 06016KT 10SM CLR 30/17 A3009 3780 44 6400 050/16 RMK AO2 SLP149 T03000167
24044KAIA AIA20160617155510906/17/16 15:55:31  5-MIN KAIA 172255Z AUTO 06014KT 10SM CLR 29/17 A3009 3780 45 6300 050/14 RMK AO2 T02940167
24044KAIA AIA20160617160010906/17/16 16:00:31  5-MIN KAIA 172300Z AUTO 04013KT 10SM CLR 30/17 A3008 3780 44 6400 030/13 RMK AO2 T03000167
24044KAIA AIA20160617160510906/17/16 16:05:31  5-MIN KAIA 172305Z AUTO 05012KT 10SM CLR 30/17 A3008 3780 44 6400 040/12 RMK AO2 T03000167
24044KAIA AIA20160617161011506/17/16 16:10:31  5-MIN KAIA 172310Z AUTO 08013G21KT 10SM CLR 29/17 A3008 3790 45 6300 070/13G21 RMK AO2 T02940167
24044KAIA AIA20160617161511506/17/16 16:15:31  5-MIN KAIA 172315Z AUTO 09012G21KT 10SM CLR 29/17 A3008 3790 45 6300 080/12G21 RMK AO2 T02940167
24044KAIA AIA20160617162010906/17/16 16:20:31  5-MIN KAIA 172320Z AUTO 06013KT 10SM CLR 29/17 A3008 3790 45 6300 050/13 RMK AO2 T02940167
24044KAIA AIA20160617162510906/17/16 16:25:31  5-MIN KAIA 172325Z AUTO 06012KT 10SM CLR 29/17 A3008 3790 45 6300 060/12 RMK AO2 T02940167
24044KAIA AIA20160617163010906/17/16 16:30:31  5-MIN KAIA 172330Z AUTO 07014KT 10SM CLR 29/17 A3007 3790 45 6300 060/14 RMK AO2 T02940167
24044KAIA AIA20160617163510906/17/16 16:35:31  5-MIN KAIA 172335Z AUTO 05013KT 10SM CLR 29/17 A3007 3790 45 6300 040/13 RMK AO2 T02940167
24044KAIA AIA20160617164010906/17/16 16:40:31  5-MIN KAIA 172340Z AUTO 05012KT 10SM CLR 29/17 A3007 3800 45 6300 040/12 RMK AO2 T02940167
24044KAIA AIA20160617164510906/17/16 16:45:31  5-MIN KAIA 172345Z AUTO 06013KT 10SM CLR 29/17 A3007 3800 45 6300 050/13 RMK AO2 T02940167
24044KAIA AIA20160617165013406/17/16 16:50:31  5-MIN KAIA 172350Z AUTO 06016KT 10SM CLR 29/17 A3007 3800 45 6300 050/16 RMK AO2 SLP138 T02940167 10306 20267 56002
24044KAIA AIA20160617165510906/17/16 16:55:31  5-MIN KAIA 172355Z AUTO 06013KT 10SM CLR 29/17 A3007 3800 47 6300 050/13 RMK AO2 T02890167
24044KAIA AIA20160617170010906/17/16 17:00:31  5-MIN KAIA 180000Z AUTO 07011KT 10SM CLR 29/17 A3006 3800 47 6300 060/11 RMK AO2 T02890167
24044KAIA AIA20160617170510906/17/16 17:05:31  5-MIN KAIA 180005Z AUTO 07014KT 10SM CLR 29/17 A3006 3800 47 6300 060/14 RMK AO2 T02890167
24044KAIA AIA20160617171011506/17/16 17:10:31  5-MIN KAIA 180010Z AUTO 06013G17KT 10SM CLR 28/17 A3006 3800 48 6200 050/13G17 RMK AO2 T02830167
24044KAIA AIA20160617171510906/17/16 17:15:31  5-MIN KAIA 180015Z AUTO 06013KT 10SM CLR 29/17 A3006 3800 47 6300 050/13 RMK AO2 T02890167
24044KAIA AIA20160617172010906/17/16 17:20:31  5-MIN KAIA 180020Z AUTO 06013KT 10SM CLR 28/17 A3006 3800 48 6200 050/13 RMK AO2 T02830167
24044KAIA AIA20160617172510906/17/16 17:25:31  5-MIN KAIA 180025Z AUTO 06012KT 10SM CLR 28/16 A3006 3810 47 6200 050/12 RMK AO2 T02830161
24044KAIA AIA20160617173010906/17/16 17:30:31  5-MIN KAIA 180030Z AUTO 06013KT 10SM CLR 28/17 A3006 3810 48 6200 050/13 RMK AO2 T02830167
24044KAIA AIA20160617173510906/17/16 17:35:31  5-MIN KAIA 180035Z AUTO 06011KT 10SM CLR 28/17 A3006 3800 48 6200 050/11 RMK AO2 T02830167
24044KAIA AIA20160617174010906/17/16 17:40:31  5-MIN KAIA 180040Z AUTO 06010KT 10SM CLR 28/16 A3006 3800 48 6100 050/10 RMK AO2 T02780161
24044KAIA AIA20160617174510906/17/16 17:45:31  5-MIN KAIA 180045Z AUTO 07011KT 10SM CLR 28/17 A3006 3800 50 6100 060/11 RMK AO2 T02780167
24044KAIA AIA20160617175011606/17/16 17:50:31  5-MIN KAIA 180050Z AUTO 07012KT 10SM CLR 28/16 A3006 3800 48 6100 060/12 RMK AO2 SLP134 T02780161
24044KAIA AIA20160617175510906/17/16 17:55:31  5-MIN KAIA 180055Z AUTO 06010KT 10SM CLR 27/16 A3006 3800 50 6100 050/10 RMK AO2 T02720161
24044KAIA AIA20160617180010906/17/16 18:00:31  5-MIN KAIA 180100Z AUTO 06011KT 10SM CLR 27/16 A3006 3800 52 6000 050/11 RMK AO2 T02670161
24044KAIA AIA20160617180510906/17/16 18:05:31  5-MIN KAIA 180105Z AUTO 05009KT 10SM CLR 26/16 A3006 3800 53 6000 040/09 RMK AO2 T02610161
24044KAIA AIA20160617181010906/17/16 18:10:31  5-MIN KAIA 180110Z AUTO 05010KT 10SM CLR 26/16 A3007 3800 53 6000 040/10 RMK AO2 T02610161
24044KAIA AIA20160617181510906/17/16 18:15:31  5-MIN KAIA 180115Z AUTO 05010KT 10SM CLR 26/16 A3007 3800 55 5900 040/10 RMK AO2 T02560161
24044KAIA AIA20160617182010906/17/16 18:20:31  5-MIN KAIA 180120Z AUTO 06010KT 10SM CLR 26/16 A3007 3800 55 5900 050/10 RMK AO2 T02560161
24044KAIA AIA20160617182510906/17/16 18:25:31  5-MIN KAIA 180125Z AUTO 06010KT 10SM CLR 26/16 A3007 3800 55 5900 050/10 RMK AO2 T02560161
24044KAIA AIA20160617183010906/17/16 18:30:31  5-MIN KAIA 180130Z AUTO 07009KT 10SM CLR 26/16 A3007 3800 55 5900 060/09 RMK AO2 T02560161
24044KAIA AIA20160617183510906/17/16 18:35:31  5-MIN KAIA 180135Z AUTO 06009KT 10SM CLR 26/16 A3007 3790 55 5900 050/09 RMK AO2 T02560161
24044KAIA AIA20160617184010906/17/16 18:40:31  5-MIN KAIA 180140Z AUTO 05008KT 10SM CLR 26/16 A3008 3790 55 5900 050/08 RMK AO2 T02560161
24044KAIA AIA20160617184510906/17/16 18:45:31  5-MIN KAIA 180145Z AUTO 05008KT 10SM CLR 26/17 A3008 3790 57 5900 040/08 RMK AO2 T02560167
24044KAIA AIA20160617185011606/17/16 18:50:31  5-MIN KAIA 180150Z AUTO 06008KT 10SM CLR 25/17 A3008 3790 59 5800 050/08 RMK AO2 SLP143 T02500167
24044KAIA AIA20160617185510906/17/16 18:55:31  5-MIN KAIA 180155Z AUTO 06008KT 10SM CLR 25/17 A3008 3790 59 5800 050/08 RMK AO2 T02500167
24044KAIA AIA20160617190010906/17/16 19:00:31  5-MIN KAIA 180200Z AUTO 06007KT 10SM CLR 25/17 A3008 3790 59 5800 050/07 RMK AO2 T02500167
24044KAIA AIA20160617190510906/17/16 19:05:31  5-MIN KAIA 180205Z AUTO 05007KT 10SM CLR 24/17 A3008 3780 61 5800 050/07 RMK AO2 T02440167
24044KAIA AIA20160617191010906/17/16 19:10:31  5-MIN KAIA 180210Z AUTO 06007KT 10SM CLR 24/17 A3008 3780 63 5700 050/07 RMK AO2 T02390167
24044KAIA AIA20160617191510906/17/16 19:15:31  5-MIN KAIA 180215Z AUTO 06005KT 10SM CLR 24/17 A3009 3780 63 5700 050/05 RMK AO2 T02390167
24044KAIA AIA20160617192010906/17/16 19:20:31  5-MIN KAIA 180220Z AUTO 06006KT 10SM CLR 23/17 A3009 3780 66 5600 050/06 RMK AO2 T02330167
24044KAIA AIA20160617192510906/17/16 19:25:31  5-MIN KAIA 180225Z AUTO 06006KT 10SM CLR 23/17 A3009 3780 68 5600 050/06 RMK AO2 T02280167
24044KAIA AIA20160617193010906/17/16 19:30:31  5-MIN KAIA 180230Z AUTO 05006KT 10SM CLR 23/17 A3009 3780 68 5600 040/06 RMK AO2 T02280167
24044KAIA AIA20160617193510906/17/16 19:35:31  5-MIN KAIA 180235Z AUTO 05007KT 10SM CLR 22/17 A3009 3770 70 5500 040/07 RMK AO2 T02220167
24044KAIA AIA20160617194010906/17/16 19:40:31  5-MIN KAIA 180240Z AUTO 06007KT 10SM CLR 22/17 A3010 3770 73 5400 050/07 RMK AO2 T02170167
24044KAIA AIA20160617194510906/17/16 19:45:31  5-MIN KAIA 180245Z AUTO 07007KT 10SM CLR 22/17 A3010 3770 73 5400 060/07 RMK AO2 T02170167
24044KAIA AIA20160617195012206/17/16 19:50:31  5-MIN KAIA 180250Z AUTO 08007KT 10SM CLR 22/17 A3011 3760 73 5400 070/07 RMK AO2 SLP154 T02170167 58018
24044KAIA AIA20160617195510906/17/16 19:55:31  5-MIN KAIA 180255Z AUTO 08007KT 10SM CLR 22/17 A3011 3760 73 5400 070/07 RMK AO2 T02170167
24044KAIA AIA20160617200010906/17/16 20:00:31  5-MIN KAIA 180300Z AUTO 08006KT 10SM CLR 21/17 A3011 3750 75 5400 070/06 RMK AO2 T02110167
24044KAIA AIA20160617200510906/17/16 20:05:31  5-MIN KAIA 180305Z AUTO 08007KT 10SM CLR 21/17 A3012 3750 75 5300 070/07 RMK AO2 T02110167
24044KAIA AIA20160617201010906/17/16 20:10:31  5-MIN KAIA 180310Z AUTO 07006KT 10SM CLR 21/17 A3012 3750 75 5300 060/06 RMK AO2 T02110167
24044KAIA AIA20160617201510906/17/16 20:15:31  5-MIN KAIA 180315Z AUTO 07005KT 10SM CLR 21/17 A3012 3750 75 5300 060/05 RMK AO2 T02110167
24044KAIA AIA20160617202010906/17/16 20:20:31  5-MIN KAIA 180320Z AUTO 07006KT 10SM CLR 21/17 A3013 3740 78 5300 060/06 RMK AO2 T02110172
24044KAIA AIA20160617202510906/17/16 20:25:31  5-MIN KAIA 180325Z AUTO 06006KT 10SM CLR 21/17 A3013 3740 78 5300 050/06 RMK AO2 T02110172
24044KAIA AIA20160617203010906/17/16 20:30:31  5-MIN KAIA 180330Z AUTO 05007KT 10SM CLR 21/17 A3012 3750 75 5300 040/07 RMK AO2 T02110167
24044KAIA AIA20160617203510906/17/16 20:35:31  5-MIN KAIA 180335Z AUTO 03009KT 10SM CLR 21/17 A3013 3740 81 5300 030/09 RMK AO2 T02060172
24044KAIA AIA20160617204010906/17/16 20:40:31  5-MIN KAIA 180340Z AUTO 04006KT 10SM CLR 21/17 A3014 3740 78 5300 030/06 RMK AO2 T02110172
24044KAIA AIA20160617204510906/17/16 20:45:31  5-MIN KAIA 180345Z AUTO 08006KT 10SM CLR 21/17 A3015 3720 81 5200 070/06 RMK AO2 T02060172
24044KAIA AIA20160617205011606/17/16 20:50:31  5-MIN KAIA 180350Z AUTO 06008KT 10SM CLR 21/17 A3015 3720 81 5200 050/08 RMK AO2 SLP168 T02060172
24044KAIA AIA20160617205510906/17/16 20:55:31  5-MIN KAIA 180355Z AUTO 07008KT 10SM CLR 21/17 A3015 3720 78 5300 060/08 RMK AO2 T02110172
24044KAIA AIA20160617210011206/17/16 21:00:31  5-MIN KAIA 180400Z AUTO 07008KT 10SM SCT043 21/17 A3016 3710 78 5300 060/08 RMK AO2 T02110172
24044KAIA AIA20160617210511206/17/16 21:05:31  5-MIN KAIA 180405Z AUTO 07006KT 10SM BKN043 22/17 A3017 3710 75 5400 060/06 RMK AO2 T02170172
24044KAIA AIA20160617211011906/17/16 21:10:31  5-MIN KAIA 180410Z AUTO 08008KT 10SM BKN040 BKN047 22/18 A3017 3700 75 5400 070/08 RMK AO2 T02220178
24044KAIA AIA20160617211511906/17/16 21:15:31  5-MIN KAIA 180415Z AUTO 08009KT 10SM BKN038 BKN047 23/18 A3017 3700 73 5500 080/09 RMK AO2 T02280178
24044KAIA AIA20160617212011906/17/16 21:20:31  5-MIN KAIA 180420Z AUTO 09009KT 10SM BKN038 OVC047 23/18 A3017 3700 73 5500 080/09 RMK AO2 T02280178
24044KAIA AIA20160617212511906/17/16 21:25:31  5-MIN KAIA 180425Z AUTO 09011KT 10SM BKN038 OVC046 23/18 A3017 3700 73 5500 080/11 RMK AO2 T02280178
24044KAIA AIA20160617213011206/17/16 21:30:31  5-MIN KAIA 180430Z AUTO 09009KT 10SM OVC038 23/18 A3017 3710 73 5500 080/09 RMK AO2 T02280178
24044KAIA AIA20160617213511206/17/16 21:35:31  5-MIN KAIA 180435Z AUTO 08006KT 10SM BKN036 23/18 A3016 3710 73 5500 070/06 RMK AO2 T02280178
24044KAIA AIA20160617214011206/17/16 21:40:31  5-MIN KAIA 180440Z AUTO 08005KT 10SM BKN036 22/18 A3016 3710 75 5400 070/05 RMK AO2 T02220178
24044KAIA AIA20160617214511206/17/16 21:45:31  5-MIN KAIA 180445Z AUTO 08005KT 10SM SCT036 22/18 A3015 3720 75 5400 070/05 RMK AO2 T02220178
24044KAIA AIA20160617215011906/17/16 21:50:31  5-MIN KAIA 180450Z AUTO 07004KT 10SM FEW036 22/17 A3015 3720 75 5400 060/04 RMK AO2 SLP164 T02170172
24044KAIA AIA20160617215511206/17/16 21:55:31  5-MIN KAIA 180455Z AUTO 07004KT 10SM SCT038 22/17 A3016 3720 75 5400 060/04 RMK AO2 T02170172
24044KAIA AIA20160617220010906/17/16 22:00:31  5-MIN KAIA 180500Z AUTO 10SM FEW029 SCT041 22/18 A3017 3700 78 5300 M /M RMK AO2 T02170178
24044KAIA AIA20160617220514306/17/16 22:05:31  5-MIN KAIA 180505Z AUTO 15023G30KT 10SM BKN031 BKN041 22/14 A3017 3700 63 5300 140/23G30 RMK AO2 PK WND 14030/0503 T02170144
24044KAIA AIA20160617221015006/17/16 22:10:31  5-MIN KAIA 180510Z AUTO 16016G30KT 10SM FEW028 BKN033 BKN041 21/13 A3017 3700 61 5300 150/16G30 RMK AO2 PK WND 14030/0503 T02110133
24044KAIA AIA20160617221514406/17/16 22:15:31  5-MIN KAIA 180515Z AUTO 16014KT 10SM SCT031 BKN044 BKN060 21/13 A3018 3700 63 5200 150/14 RMK AO2 PK WND 14030/0503 T02060133
24044KAIA AIA20160617222015006/17/16 22:20:31  5-MIN KAIA 180520Z AUTO 16016G22KT 10SM SCT031 SCT044 BKN070 21/13 A3018 3700 63 5200 160/16G22 RMK AO2 PK WND 14030/0503 T02060133
24044KAIA AIA20160617222515006/17/16 22:25:31  5-MIN KAIA 180525Z AUTO 16014G22KT 10SM SCT031 SCT044 BKN070 21/13 A3017 3700 63 5200 150/14G22 RMK AO2 PK WND 14030/0503 T02060133
24044KAIA AIA20160617223015006/17/16 22:30:31  5-MIN KAIA 180530Z AUTO 15013G20KT 10SM FEW032 FEW045 SCT070 20/13 A3017 3700 65 5200 140/13G20 RMK AO2 PK WND 14030/0503 T02000133
24044KAIA AIA20160617223513706/17/16 22:35:31  5-MIN KAIA 180535Z AUTO 15009KT 10SM FEW037 FEW070 19/13 A3017 3700 67 5100 150/09 RMK AO2 PK WND 14030/0503 T01940133
24044KAIA AIA20160617224013606/17/16 22:40:31  5-MIN KAIA 180540Z AUTO 16012G17KT 10SM FEW070 19/13 A3017 3700 67 5100 150/12G17 RMK AO2 PK WND 14030/0503 T01940133
24044KAIA AIA20160617224513306/17/16 22:45:31  5-MIN KAIA 180545Z AUTO 15013G19KT 10SM CLR 19/13 A3017 3710 67 5100 140/13G19 RMK AO2 PK WND 14030/0503 T01940133
24044KAIA AIA20160617225015806/17/16 22:50:31  5-MIN KAIA 180550Z AUTO 15011G19KT 10SM CLR 19/13 A3017 3710 70 5000 140/11G19 RMK AO2 PK WND 14030/0503 SLP171 T01890133 10289 20189 53013
24044KAIA AIA20160617225510906/17/16 22:55:31  5-MIN KAIA 180555Z AUTO 16009KT 10SM CLR 19/13 A3016 3710 70 5000 150/09 RMK AO2 T01890133
24044KAIA AIA20160617230010906/17/16 23:00:31  5-MIN KAIA 180600Z AUTO 15009KT 10SM CLR 19/13 A3016 3710 70 5000 140/09 RMK AO2 T01890133
24044KAIA AIA20160617230510906/17/16 23:05:31  5-MIN KAIA 180605Z AUTO 13009KT 10SM CLR 18/13 A3017 3710 72 5000 130/09 RMK AO2 T01830133
24044KAIA AIA20160617231010906/17/16 23:10:31  5-MIN KAIA 180610Z AUTO 15010KT 10SM CLR 18/13 A3017 3700 75 4900 140/10 RMK AO2 T01780133
24044KAIA AIA20160617231510906/17/16 23:15:31  5-MIN KAIA 180615Z AUTO 16011KT 10SM CLR 18/13 A3017 3700 75 4900 150/11 RMK AO2 T01780133
24044KAIA AIA20160617232010906/17/16 23:20:31  5-MIN KAIA 180620Z AUTO 15009KT 10SM CLR 18/13 A3017 3710 75 4900 150/09 RMK AO2 T01780133
24044KAIA AIA20160617232510906/17/16 23:25:31  5-MIN KAIA 180625Z AUTO 16009KT 10SM CLR 18/13 A3017 3710 75 4900 150/09 RMK AO2 T01780133
24044KAIA AIA20160617233010906/17/16 23:30:31  5-MIN KAIA 180630Z AUTO 17010KT 10SM CLR 18/13 A3017 3710 75 4900 160/10 RMK AO2 T01780133
24044KAIA AIA20160617233510906/17/16 23:35:31  5-MIN KAIA 180635Z AUTO 17010KT 10SM CLR 18/13 A3017 3710 72 4900 170/10 RMK AO2 T01780128
24044KAIA AIA20160617234010906/17/16 23:40:31  5-MIN KAIA 180640Z AUTO 18010KT 10SM CLR 18/13 A3017 3710 72 4900 170/10 RMK AO2 T01780128
24044KAIA AIA20160617234510906/17/16 23:45:31  5-MIN KAIA 180645Z AUTO 18010KT 10SM CLR 18/13 A3016 3710 72 4900 170/10 RMK AO2 T01780128
24044KAIA AIA20160617235012606/17/16 23:50:31  5-MIN KAIA 180650Z AUTO 18009KT 10SM CLR 17/13 A3016 3710 75 4900 170/09 RMK AO2 SLP170 T01720128 403060094
24044KAIA AIA20160617235510906/17/16 23:55:31  5-MIN KAIA 180655Z AUTO 16009KT 10SM CLR 17/13 A3017 3710 75 4900 150/09 RMK AO2 T01720128
24044KAIA AIA20160618000010906/18/16 00:00:31  5-MIN KAIA 180700Z AUTO 17007KT 10SM CLR 17/13 A3017 3710 75 4900 160/07 RMK AO2 T01720128
24044KAIA AIA20160618000510906/18/16 00:05:31  5-MIN KAIA 180705Z AUTO 17007KT 10SM CLR 17/13 A3017 3700 75 4800 160/07 RMK AO2 T01720128
24044KAIA AIA20160618001010906/18/16 00:10:31  5-MIN KAIA 180710Z AUTO 17006KT 10SM CLR 17/13 A3018 3700 77 4800 170/06 RMK AO2 T01670128
24044KAIA AIA20160618001510906/18/16 00:15:31  5-MIN KAIA 180715Z AUTO 18006KT 10SM CLR 17/13 A3017 3700 77 4800 170/06 RMK AO2 T01670128
24044KAIA AIA20160618002010906/18/16 00:20:31  5-MIN KAIA 180720Z AUTO 19006KT 10SM CLR 16/13 A3017 3700 80 4700 180/06 RMK AO2 T01610128
24044KAIA AIA20160618002510906/18/16 00:25:31  5-MIN KAIA 180725Z AUTO 20006KT 10SM CLR 16/13 A3017 3700 80 4700 190/06 RMK AO2 T01610128
24044KAIA AIA20160618003010906/18/16 00:30:31  5-MIN KAIA 180730Z AUTO 20005KT 10SM CLR 16/13 A3018 3700 80 4700 200/05 RMK AO2 T01610128
24044KAIA AIA20160618003510906/18/16 00:35:31  5-MIN KAIA 180735Z AUTO 22007KT 10SM CLR 16/13 A3018 3690 83 4600 220/07 RMK AO2 T01560128
24044KAIA AIA20160618004010906/18/16 00:40:31  5-MIN KAIA 180740Z AUTO 22006KT 10SM CLR 16/13 A3018 3690 83 4600 210/06 RMK AO2 T01560128
24044KAIA AIA20160618013010906/18/16 01:30:31  5-MIN KAIA 180830Z AUTO 25005KT 10SM CLR 14/12 A3019 3680 86 4500 240/05 RMK AO2 T01440122
24044KAIA AIA20160618013510906/18/16 01:35:31  5-MIN KAIA 180835Z AUTO 26004KT 10SM CLR 14/13 A3019 3680 90 4500 250/04 RMK AO2 T01440128
24044KAIA AIA20160618014010906/18/16 01:40:31  5-MIN KAIA 180840Z AUTO 25003KT 10SM CLR 14/13 A3019 3680 90 4500 240/03 RMK AO2 T01440128
24044KAIA AIA20160618014510906/18/16 01:45:31  5-MIN KAIA 180845Z AUTO 24003KT 10SM CLR 14/13 A3019 3680 90 4500 240/03 RMK AO2 T01440128
24044KAIA AIA20160618015012206/18/16 01:50:31  5-MIN KAIA 180850Z AUTO 24003KT 10SM CLR 15/13 A3019 3690 86 4600 230/03 RMK AO2 SLP181 T01500128 51016
24044KAIA AIA20160618015510906/18/16 01:55:31  5-MIN KAIA 180855Z AUTO 24003KT 10SM CLR 15/13 A3018 3690 86 4600 230/03 RMK AO2 T01500128
24044KAIA AIA20160618020010906/18/16 02:00:31  5-MIN KAIA 180900Z AUTO 25004KT 10SM CLR 15/13 A3019 3690 86 4600 240/04 RMK AO2 T01500128
24044KAIA AIA20160618020510906/18/16 02:05:31  5-MIN KAIA 180905Z AUTO 25004KT 10SM CLR 14/12 A3018 3690 90 4500 250/04 RMK AO2 T01390122
24044KAIA AIA20160618021010906/18/16 02:10:31  5-MIN KAIA 180910Z AUTO 27004KT 10SM CLR 14/12 A3018 3690 90 4500 260/04 RMK AO2 T01390122
24044KAIA AIA20160618021510606/18/16 02:15:31  5-MIN KAIA 180915Z AUTO 10SM CLR 14/12 A3022 3660 86 4500 M /M RMK AO2 PRESRR T01440122
24044KAIA AIA20160618022011506/18/16 02:20:31  5-MIN KAIA 180920Z AUTO 10015G18KT 10SM CLR 16/13 A3023 3650 83 4600 090/15G18 RMK AO2 T01560128
24044KAIA AIA20160618022510906/18/16 02:25:31  5-MIN KAIA 180925Z AUTO 11011KT 10SM CLR 16/13 A3023 3650 83 4700 100/11 RMK AO2 T01610133
24044KAIA AIA20160618023010906/18/16 02:30:31  5-MIN KAIA 180930Z AUTO 11009KT 10SM CLR 16/13 A3023 3650 86 4600 110/09 RMK AO2 T01560133
24044KAIA AIA20160618023510906/18/16 02:35:31  5-MIN KAIA 180935Z AUTO 11008KT 10SM CLR 15/13 A3023 3650 90 4500 110/08 RMK AO2 T01500133
24044KAIA AIA20160618024010906/18/16 02:40:31  5-MIN KAIA 180940Z AUTO 11006KT 10SM CLR 15/13 A3023 3650 90 4500 100/06 RMK AO2 T01500133
24044KAIA AIA20160618024510906/18/16 02:45:31  5-MIN KAIA 180945Z AUTO 10007KT 10SM CLR 14/13 A3023 3650 90 4500 090/07 RMK AO2 T01440128
24044KAIA AIA20160618025011606/18/16 02:50:31  5-MIN KAIA 180950Z AUTO 10009KT 10SM CLR 15/13 A3023 3650 86 4500 100/09 RMK AO2 SLP194 T01500128
24044KAIA AIA20160618025510906/18/16 02:55:31  5-MIN KAIA 180955Z AUTO 11009KT 10SM CLR 15/13 A3023 3640 86 4500 100/09 RMK AO2 T01500128
24044KAIA AIA20160618030010906/18/16 03:00:31  5-MIN KAIA 181000Z AUTO 11010KT 10SM CLR 15/13 A3023 3650 86 4500 100/10 RMK AO2 T01500128
24044KAIA AIA20160618030510906/18/16 03:05:31  5-MIN KAIA 181005Z AUTO 10009KT 10SM CLR 15/13 A3024 3640 90 4500 090/09 RMK AO2 T01500133
24044KAIA AIA20160618031010906/18/16 03:10:31  5-MIN KAIA 181010Z AUTO 10009KT 10SM CLR 15/13 A3024 3640 90 4500 100/09 RMK AO2 T01500133
24044KAIA AIA20160618031510906/18/16 03:15:31  5-MIN KAIA 181015Z AUTO 10010KT 10SM CLR 15/13 A3025 3630 90 4500 090/10 RMK AO2 T01500133
24044KAIA AIA20160618032010906/18/16 03:20:31  5-MIN KAIA 181020Z AUTO 10010KT 10SM CLR 15/13 A3024 3640 90 4500 100/10 RMK AO2 T01500133
24044KAIA AIA20160618032510906/18/16 03:25:31  5-MIN KAIA 181025Z AUTO 11010KT 10SM CLR 15/13 A3024 3640 90 4500 100/10 RMK AO2 T01500133
24044KAIA AIA20160618033010906/18/16 03:30:31  5-MIN KAIA 181030Z AUTO 11012KT 10SM CLR 15/13 A3024 3640 90 4500 100/12 RMK AO2 T01500133
24044KAIA AIA20160618033510906/18/16 03:35:31  5-MIN KAIA 181035Z AUTO 11012KT 10SM CLR 15/13 A3024 3640 86 4500 100/12 RMK AO2 T01500128
24044KAIA AIA20160618034010906/18/16 03:40:31  5-MIN KAIA 181040Z AUTO 11012KT 10SM CLR 15/13 A3024 3640 86 4500 110/12 RMK AO2 T01500128
24044KAIA AIA20160618034510906/18/16 03:45:31  5-MIN KAIA 181045Z AUTO 11010KT 10SM CLR 14/13 A3024 3640 90 4500 110/10 RMK AO2 T01440128
24044KAIA AIA20160618035011606/18/16 03:50:31  5-MIN KAIA 181050Z AUTO 11011KT 10SM CLR 14/13 A3024 3640 90 4400 100/11 RMK AO2 SLP200 T01440128
24044KAIA AIA20160618035510906/18/16 03:55:31  5-MIN KAIA 181055Z AUTO 12009KT 10SM CLR 14/13 A3024 3640 90 4400 110/09 RMK AO2 T01440128
24044KAIA AIA20160618040010906/18/16 04:00:31  5-MIN KAIA 181100Z AUTO 11010KT 10SM CLR 14/13 A3025 3630 90 4400 110/10 RMK AO2 T01440128
24044KAIA AIA20160618040510906/18/16 04:05:31  5-MIN KAIA 181105Z AUTO 11010KT 10SM CLR 14/13 A3025 3630 90 4400 100/10 RMK AO2 T01440128
24044KAIA AIA20160618041010906/18/16 04:10:31  5-MIN KAIA 181110Z AUTO 12010KT 10SM CLR 14/13 A3025 3630 93 4400 110/10 RMK AO2 T01440133
24044KAIA AIA20160618041510906/18/16 04:15:31  5-MIN KAIA 181115Z AUTO 12011KT 10SM CLR 14/13 A3025 3630 93 4400 110/11 RMK AO2 T01440133
24044KAIA AIA20160618042010906/18/16 04:20:31  5-MIN KAIA 181120Z AUTO 12012KT 10SM CLR 14/13 A3026 3630 93 4400 120/12 RMK AO2 T01440133
24044KAIA AIA20160618042510906/18/16 04:25:31  5-MIN KAIA 181125Z AUTO 13014KT 10SM CLR 14/13 A3026 3620 93 4400 120/14 RMK AO2 T01440133
24044KAIA AIA20160618043010906/18/16 04:30:31  5-MIN KAIA 181130Z AUTO 14013KT 10SM CLR 14/13 A3026 3620 93 4400 130/13 RMK AO2 T01440133
24044KAIA AIA20160618043511206/18/16 04:35:31  5-MIN KAIA 181135Z AUTO 13012KT 10SM FEW012 14/13 A3026 3620 93 4400 130/12 RMK AO2 T01440133
24044KAIA AIA20160618044011206/18/16 04:40:31  5-MIN KAIA 181140Z AUTO 14011KT 10SM FEW012 14/13 A3026 3620 93 4400 130/11 RMK AO2 T01440133
24044KAIA AIA20160618044511206/18/16 04:45:31  5-MIN KAIA 181145Z AUTO 14012KT 10SM FEW012 14/14 A3026 3620 96 4400 130/12 RMK AO2 T01440139
24044KAIA AIA20160618045013706/18/16 04:50:31  5-MIN KAIA 181150Z AUTO 14012KT 10SM SCT013 15/14 A3026 3620 93 4500 130/12 RMK AO2 SLP205 T01500139 10189 20139 53007
24044KAIA AIA20160618045511206/18/16 04:55:31  5-MIN KAIA 181155Z AUTO 15011KT 10SM SCT013 15/14 A3026 3620 93 4500 140/11 RMK AO2 T01500139
24044KAIA AIA20160618050011206/18/16 05:00:31  5-MIN KAIA 181200Z AUTO 14011KT 10SM BKN013 15/14 A3026 3620 93 4500 140/11 RMK AO2 T01500139
24044KAIA AIA20160618050511206/18/16 05:05:31  5-MIN KAIA 181205Z AUTO 15010KT 10SM BKN013 16/14 A3026 3620 90 4600 140/10 RMK AO2 T01560139
24044KAIA AIA20160618051011206/18/16 05:10:31  5-MIN KAIA 181210Z AUTO 15010KT 10SM BKN013 16/14 A3026 3620 93 4600 140/10 RMK AO2 T01560144
24044KAIA AIA20160618051511206/18/16 05:15:31  5-MIN KAIA 181215Z AUTO 15012KT 10SM BKN013 16/14 A3025 3630 93 4600 140/12 RMK AO2 T01560144
24044KAIA AIA20160618052011206/18/16 05:20:31  5-MIN KAIA 181220Z AUTO 14017KT 10SM BKN012 16/14 A3026 3620 90 4600 130/17 RMK AO2 T01610144
24044KAIA AIA20160618052511806/18/16 05:25:31  5-MIN KAIA 181225Z AUTO 15016G21KT 10SM OVC012 16/14 A3026 3620 90 4600 140/16G21 RMK AO2 T01610144
24044KAIA AIA20160618053011206/18/16 05:30:31  5-MIN KAIA 181230Z AUTO 15019KT 10SM OVC011 16/14 A3026 3630 86 4600 140/19 RMK AO2 T01610139
24044KAIA AIA20160618053511206/18/16 05:35:31  5-MIN KAIA 181235Z AUTO 15015KT 10SM OVC011 16/14 A3026 3620 86 4600 150/15 RMK AO2 T01610139
24044KAIA AIA20160618054011206/18/16 05:40:31  5-MIN KAIA 181240Z AUTO 16016KT 10SM OVC011 16/14 A3026 3620 90 4600 150/16 RMK AO2 T01610144
24044KAIA AIA20160618054511206/18/16 05:45:31  5-MIN KAIA 181245Z AUTO 16014KT 10SM OVC011 16/14 A3026 3620 86 4600 150/14 RMK AO2 T01610139
24044KAIA AIA20160618055012506/18/16 05:50:31  5-MIN KAIA 181250Z AUTO 16017G22KT 10SM OVC011 16/14 A3026 3620 86 4600 150/17G22 RMK AO2 SLP207 T01610139
24044KAIA AIA20160618055511806/18/16 05:55:31  5-MIN KAIA 181255Z AUTO 15016G22KT 10SM OVC011 16/14 A3026 3620 86 4600 140/16G22 RMK AO2 T01610139
24044KAIA AIA20160618060011206/18/16 06:00:31  5-MIN KAIA 181300Z AUTO 14016KT 10SM OVC011 17/14 A3027 3620 83 4700 130/16 RMK AO2 T01670139
24044KAIA AIA20160618060511206/18/16 06:05:31  5-MIN KAIA 181305Z AUTO 15017KT 10SM BKN010 17/14 A3027 3610 83 4700 140/17 RMK AO2 T01670139
24044KAIA AIA20160618061011206/18/16 06:10:31  5-MIN KAIA 181310Z AUTO 15017KT 10SM BKN010 17/14 A3027 3610 83 4700 140/17 RMK AO2 T01670139
24044KAIA AIA20160618061511206/18/16 06:15:31  5-MIN KAIA 181315Z AUTO 16014KT 10SM BKN010 17/14 A3027 3610 83 4700 150/14 RMK AO2 T01670139
24044KAIA AIA20160618062011206/18/16 06:20:31  5-MIN KAIA 181320Z AUTO 16016KT 10SM BKN010 17/14 A3027 3610 83 4700 150/16 RMK AO2 T01670139
24044KAIA AIA20160618062511206/18/16 06:25:31  5-MIN KAIA 181325Z AUTO 15015KT 10SM BKN010 17/14 A3027 3610 80 4700 140/15 RMK AO2 T01720139
24044KAIA AIA20160618063012406/18/16 06:30:31  5-MIN KAIA 181330Z AUTO 16016KT 10SM BKN010 17/14 A3027 3610 80 4700 160/16 RMK AO2 CIG 009V013 T01720139
24044KAIA AIA20160618063512406/18/16 06:35:31  5-MIN KAIA 181335Z AUTO 16016KT 10SM BKN010 17/14 A3028 3610 80 4700 150/16 RMK AO2 CIG 009V013 T01720139
24044KAIA AIA20160618064011206/18/16 06:40:31  5-MIN KAIA 181340Z AUTO 16016KT 10SM BKN010 17/14 A3028 3610 80 4700 150/16 RMK AO2 T01720139
24044KAIA AIA20160618064511806/18/16 06:45:31  5-MIN KAIA 181345Z AUTO 15016G20KT 10SM BKN010 17/14 A3028 3600 80 4700 150/16G20 RMK AO2 T01720139
24044KAIA AIA20160618065012506/18/16 06:50:31  5-MIN KAIA 181350Z AUTO 16014G20KT 10SM BKN011 18/14 A3028 3600 78 4800 150/14G20 RMK AO2 SLP213 T01780139
24044KAIA AIA20160618065511206/18/16 06:55:31  5-MIN KAIA 181355Z AUTO 16015KT 10SM BKN011 17/14 A3028 3610 80 4700 150/15 RMK AO2 T01720139
24044KAIA AIA20160618070011206/18/16 07:00:31  5-MIN KAIA 181400Z AUTO 16015KT 10SM BKN012 18/14 A3028 3610 78 4800 160/15 RMK AO2 T01780139
24044KAIA AIA20160618070511206/18/16 07:05:31  5-MIN KAIA 181405Z AUTO 17015KT 10SM BKN012 17/14 A3027 3610 80 4700 160/15 RMK AO2 T01720139
24044KAIA AIA20160618071011206/18/16 07:10:31  5-MIN KAIA 181410Z AUTO 17017KT 10SM BKN012 18/14 A3027 3610 75 4900 160/17 RMK AO2 T01830139
24044KAIA AIA20160618071511206/18/16 07:15:31  5-MIN KAIA 181415Z AUTO 16017KT 10SM BKN012 18/14 A3027 3610 78 4800 160/17 RMK AO2 T01780139
24044KAIA AIA20160618072011206/18/16 07:20:31  5-MIN KAIA 181420Z AUTO 17017KT 10SM SCT013 19/14 A3027 3610 72 4900 160/17 RMK AO2 T01890139
24044KAIA AIA20160618072511206/18/16 07:25:31  5-MIN KAIA 181425Z AUTO 17016KT 10SM FEW013 18/14 A3028 3610 75 4900 160/16 RMK AO2 T01830139
24044KAIA AIA20160618073011206/18/16 07:30:31  5-MIN KAIA 181430Z AUTO 17015KT 10SM FEW013 19/14 A3027 3610 72 4900 160/15 RMK AO2 T01890139
24044KAIA AIA20160618073511506/18/16 07:35:31  5-MIN KAIA 181435Z AUTO 17015G22KT 10SM CLR 19/14 A3027 3610 72 5000 160/15G22 RMK AO2 T01940144
24044KAIA AIA20160618074011506/18/16 07:40:31  5-MIN KAIA 181440Z AUTO 17018G22KT 10SM CLR 19/14 A3027 3610 70 5000 160/18G22 RMK AO2 T01940139
24044KAIA AIA20160618074510906/18/16 07:45:31  5-MIN KAIA 181445Z AUTO 16016KT 10SM CLR 19/14 A3027 3620 70 5000 150/16 RMK AO2 T01940139
24044KAIA AIA20160618075012806/18/16 07:50:31  5-MIN KAIA 181450Z AUTO 17017G23KT 10SM CLR 20/14 A3026 3620 67 5100 160/17G23 RMK AO2 SLP209 T02000139 51022
24044KAIA AIA20160618075511506/18/16 07:55:31  5-MIN KAIA 181455Z AUTO 18015G23KT 10SM CLR 20/14 A3026 3620 67 5100 170/15G23 RMK AO2 T02000139
24044KAIA AIA20160618080010906/18/16 08:00:31  5-MIN KAIA 181500Z AUTO 18014KT 10SM CLR 20/14 A3027 3620 67 5100 180/14 RMK AO2 T02000139
24044KAIA AIA20160618080510906/18/16 08:05:31  5-MIN KAIA 181505Z AUTO 17016KT 10SM CLR 21/14 A3026 3620 67 5100 170/16 RMK AO2 T02060144
24044KAIA AIA20160618081010906/18/16 08:10:31  5-MIN KAIA 181510Z AUTO 16015KT 10SM CLR 20/14 A3026 3620 70 5100 160/15 RMK AO2 T02000144
24044KAIA AIA20160618081511506/18/16 08:15:31  5-MIN KAIA 181515Z AUTO 17015G22KT 10SM CLR 21/14 A3026 3620 65 5100 160/15G22 RMK AO2 T02060139
24044KAIA AIA20160618082011506/18/16 08:20:31  5-MIN KAIA 181520Z AUTO 17016G22KT 10SM CLR 21/14 A3025 3630 65 5100 160/16G22 RMK AO2 T02060139
24044KAIA AIA20160618082510906/18/16 08:25:31  5-MIN KAIA 181525Z AUTO 18017KT 10SM CLR 21/14 A3025 3630 63 5200 170/17 RMK AO2 T02110139
24044KAIA AIA20160618083010906/18/16 08:30:31  5-MIN KAIA 181530Z AUTO 17017KT 10SM CLR 21/14 A3025 3630 65 5100 160/17 RMK AO2 T02060139
24044KAIA AIA20160618083510906/18/16 08:35:31  5-MIN KAIA 181535Z AUTO 18018KT 10SM CLR 21/14 A3025 3630 63 5200 170/18 RMK AO2 T02110139
24044KAIA AIA20160618084011506/18/16 08:40:31  5-MIN KAIA 181540Z AUTO 17018G23KT 10SM CLR 22/14 A3026 3630 61 5300 160/18G23 RMK AO2 T02170139
24044KAIA AIA20160618084511506/18/16 08:45:31  5-MIN KAIA 181545Z AUTO 18017G24KT 10SM CLR 22/14 A3025 3630 61 5300 170/17G24 RMK AO2 T02170139
24044KAIA AIA20160618085012206/18/16 08:50:31  5-MIN KAIA 181550Z AUTO 17016G24KT 10SM CLR 22/14 A3025 3630 59 5300 160/16G24 RMK AO2 SLP202 T02220139
24044KAIA AIA20160618085511506/18/16 08:55:31  5-MIN KAIA 181555Z AUTO 17016G22KT 10SM CLR 22/14 A3024 3640 61 5300 170/16G22 RMK AO2 T02220144
24044KAIA AIA20160618090011506/18/16 09:00:31  5-MIN KAIA 181600Z AUTO 18016G23KT 10SM CLR 23/14 A3025 3630 57 5400 170/16G23 RMK AO2 T02280139
24044KAIA AIA20160618090511506/18/16 09:05:31  5-MIN KAIA 181605Z AUTO 18015G23KT 10SM CLR 23/14 A3025 3630 59 5400 170/15G23 RMK AO2 T02280144
24044KAIA AIA20160618091011506/18/16 09:10:31  5-MIN KAIA 181610Z AUTO 19015G20KT 10SM CLR 23/14 A3025 3630 57 5400 180/15G20 RMK AO2 T02280139
24044KAIA AIA20160618091511506/18/16 09:15:31  5-MIN KAIA 181615Z AUTO 17013G20KT 10SM CLR 23/14 A3024 3640 57 5500 160/13G20 RMK AO2 T02330144
24044KAIA AIA20160618092011506/18/16 09:20:31  5-MIN KAIA 181620Z AUTO 17014G20KT 10SM CLR 23/14 A3024 3640 55 5500 160/14G20 RMK AO2 T02330139
24044KAIA AIA20160618092511506/18/16 09:25:31  5-MIN KAIA 181625Z AUTO 17016G20KT 10SM CLR 24/14 A3024 3640 55 5500 160/16G20 RMK AO2 T02390144
24044KAIA AIA20160618093010906/18/16 09:30:31  5-MIN KAIA 181630Z AUTO 19014KT 10SM CLR 24/14 A3024 3640 53 5500 180/14 RMK AO2 T02390139
24044KAIA AIA20160618093510906/18/16 09:35:31  5-MIN KAIA 181635Z AUTO 17014KT 10SM CLR 24/14 A3024 3640 53 5500 160/14 RMK AO2 T02390139
24044KAIA AIA20160618094010906/18/16 09:40:31  5-MIN KAIA 181640Z AUTO 19014KT 10SM CLR 24/14 A3024 3640 51 5600 190/14 RMK AO2 T02440139
24044KAIA AIA20160618094511506/18/16 09:45:31  5-MIN KAIA 181645Z AUTO 18017G23KT 10SM CLR 25/14 A3024 3640 49 5600 170/17G23 RMK AO2 T02500139
24044KAIA AIA20160618095012206/18/16 09:50:31  5-MIN KAIA 181650Z AUTO 18015G23KT 10SM CLR 24/14 A3024 3640 51 5600 170/15G23 RMK AO2 SLP195 T02440139
24044KAIA AIA20160618095511506/18/16 09:55:31  5-MIN KAIA 181655Z AUTO 18014G21KT 10SM CLR 24/14 A3023 3650 51 5600 170/14G21 RMK AO2 T02440139
24044KAIA AIA20160618100011506/18/16 10:00:31  5-MIN KAIA 181700Z AUTO 19014G24KT 10SM CLR 25/14 A3023 3640 49 5600 180/14G24 RMK AO2 T02500139
24044KAIA AIA20160618100511506/18/16 10:05:31  5-MIN KAIA 181705Z AUTO 18015G24KT 10SM CLR 25/14 A3023 3650 49 5600 170/15G24 RMK AO2 T02500139
24044KAIA AIA20160618101011506/18/16 10:10:31  5-MIN KAIA 181710Z AUTO 18018G23KT 10SM CLR 25/14 A3023 3650 49 5700 170/18G23 RMK AO2 T02500139
24044KAIA AIA20160618101511506/18/16 10:15:31  5-MIN KAIA 181715Z AUTO 17016G23KT 10SM CLR 25/14 A3023 3650 51 5700 160/16G23 RMK AO2 T02500144
24044KAIA AIA20160618102010906/18/16 10:20:31  5-MIN KAIA 181720Z AUTO 19016KT 10SM CLR 26/14 A3023 3650 49 5700 180/16 RMK AO2 T02560144
24044KAIA AIA20160618102511506/18/16 10:25:31  5-MIN KAIA 181725Z AUTO 18018G23KT 10SM CLR 26/14 A3023 3650 49 5700 170/18G23 RMK AO2 T02560144
24044KAIA AIA20160618103011506/18/16 10:30:31  5-MIN KAIA 181730Z AUTO 19017G23KT 10SM CLR 26/14 A3022 3660 49 5700 180/17G23 RMK AO2 T02560144
24044KAIA AIA20160618103511506/18/16 10:35:31  5-MIN KAIA 181735Z AUTO 18015G23KT 10SM CLR 26/14 A3023 3650 48 5800 170/15G23 RMK AO2 T02610144
24044KAIA AIA20160618104010906/18/16 10:40:31  5-MIN KAIA 181740Z AUTO 18017KT 10SM CLR 26/14 A3022 3660 48 5800 170/17 RMK AO2 T02610144
24044KAIA AIA20160618104511506/18/16 10:45:31  5-MIN KAIA 181745Z AUTO 17017G22KT 10SM CLR 26/14 A3022 3660 48 5800 170/17G22 RMK AO2 T02610144
24044KAIA AIA20160618105014006/18/16 10:50:31  5-MIN KAIA 181750Z AUTO 18014G22KT 10SM CLR 27/14 A3022 3660 46 5800 170/14G22 RMK AO2 SLP190 T02670144 10267 20150 50003
24044KAIA AIA20160618105511506/18/16 10:55:31  5-MIN KAIA 181755Z AUTO 17015G20KT 10SM CLR 27/14 A3022 3660 46 5900 160/15G20 RMK AO2 T02670144
24044KAIA AIA20160618110011506/18/16 11:00:31  5-MIN KAIA 181800Z AUTO 19015G20KT 10SM CLR 27/14 A3021 3660 45 5900 180/15G20 RMK AO2 T02720144
24044KAIA AIA20160618110510906/18/16 11:05:31  5-MIN KAIA 181805Z AUTO 19015KT 10SM CLR 27/14 A3022 3660 45 5900 190/15 RMK AO2 T02720144
24044KAIA AIA20160618111010906/18/16 11:10:31  5-MIN KAIA 181810Z AUTO 18015KT 10SM CLR 27/14 A3021 3670 45 5900 180/15 RMK AO2 T02720144
24044KAIA AIA20160618111511506/18/16 11:15:31  5-MIN KAIA 181815Z AUTO 17013G20KT 10SM CLR 28/14 A3021 3670 43 6000 170/13G20 RMK AO2 T02780144
24044KAIA AIA20160618112011506/18/16 11:20:31  5-MIN KAIA 181820Z AUTO 17013G19KT 10SM CLR 28/14 A3021 3670 43 6000 170/13G19 RMK AO2 T02780144
24044KAIA AIA20160618112511506/18/16 11:25:31  5-MIN KAIA 181825Z AUTO 19014G19KT 10SM CLR 28/14 A3021 3670 43 6000 180/14G19 RMK AO2 T02780144
24044KAIA AIA20160618113010906/18/16 11:30:31  5-MIN KAIA 181830Z AUTO 16012KT 10SM CLR 28/15 A3020 3680 43 6100 150/12 RMK AO2 T02830150
24044KAIA AIA20160618113510906/18/16 11:35:31  5-MIN KAIA 181835Z AUTO 17012KT 10SM CLR 29/15 A3020 3680 42 6100 160/12 RMK AO2 T02890150
24044KAIA AIA20160618114011506/18/16 11:40:31  5-MIN KAIA 181840Z AUTO 19015G19KT 10SM CLR 29/14 A3020 3680 39 6200 180/15G19 RMK AO2 T02940144
24044KAIA AIA20160618114511506/18/16 11:45:31  5-MIN KAIA 181845Z AUTO 18015G22KT 10SM CLR 29/14 A3019 3680 40 6100 180/15G22 RMK AO2 T02890144
24044KAIA AIA20160618115012206/18/16 11:50:31  5-MIN KAIA 181850Z AUTO 18014G22KT 10SM CLR 29/14 A3019 3680 39 6200 170/14G22 RMK AO2 SLP180 T02940144
24044KAIA AIA20160618115511506/18/16 11:55:31  5-MIN KAIA 181855Z AUTO 19011G21KT 10SM CLR 29/14 A3019 3680 39 6200 180/11G21 RMK AO2 T02940144
24044KAIA AIA20160618120011506/18/16 12:00:31  5-MIN KAIA 181900Z AUTO 18014G21KT 10SM CLR 29/14 A3019 3690 39 6200 170/14G21 RMK AO2 T02940144
24044KAIA AIA20160618120511506/18/16 12:05:31  5-MIN KAIA 181905Z AUTO 19012G20KT 10SM CLR 30/14 A3019 3690 36 6200 180/12G20 RMK AO2 T03000139
24044KAIA AIA20160618121011506/18/16 12:10:31  5-MIN KAIA 181910Z AUTO 18015G19KT 10SM CLR 30/14 A3018 3690 38 6200 170/15G19 RMK AO2 T03000144
24044KAIA AIA20160618121511506/18/16 12:15:31  5-MIN KAIA 181915Z AUTO 17013G19KT 10SM CLR 29/14 A3018 3690 39 6200 160/13G19 RMK AO2 T02940144
24044KAIA AIA20160618122011506/18/16 12:20:31  5-MIN KAIA 181920Z AUTO 19011G21KT 10SM CLR 30/14 A3018 3690 38 6300 180/11G21 RMK AO2 T03000144
24044KAIA AIA20160618122511506/18/16 12:25:31  5-MIN KAIA 181925Z AUTO 18014G21KT 10SM CLR 30/14 A3018 3700 38 6300 170/14G21 RMK AO2 T03000144
24044KAIA AIA20160618123011506/18/16 12:30:31  5-MIN KAIA 181930Z AUTO 18016G19KT 10SM CLR 31/14 A3018 3700 37 6300 180/16G19 RMK AO2 T03060144
24044KAIA AIA20160618123511506/18/16 12:35:31  5-MIN KAIA 181935Z AUTO 18014G22KT 10SM CLR 31/14 A3017 3700 35 6400 170/14G22 RMK AO2 T03110144
24044KAIA AIA20160618124011506/18/16 12:40:31  5-MIN KAIA 181940Z AUTO 19013G22KT 10SM CLR 31/14 A3017 3700 37 6300 180/13G22 RMK AO2 T03060144
24044KAIA AIA20160618124510906/18/16 12:45:31  5-MIN KAIA 181945Z AUTO 18015KT 10SM CLR 31/14 A3017 3700 35 6400 170/15 RMK AO2 T03110144
24044KAIA AIA20160618125012206/18/16 12:50:31  5-MIN KAIA 181950Z AUTO 19013G19KT 10SM CLR 31/14 A3017 3710 35 6400 180/13G19 RMK AO2 SLP172 T03110144
24044KAIA AIA20160618125511506/18/16 12:55:31  5-MIN KAIA 181955Z AUTO 20014G20KT 10SM CLR 31/14 A3017 3700 35 6400 190/14G20 RMK AO2 T03110144
24044KAIA AIA20160618130011506/18/16 13:00:31  5-MIN KAIA 182000Z AUTO 20011G20KT 10SM CLR 31/14 A3016 3710 34 6400 190/11G20 RMK AO2 T03110139
24044KAIA AIA20160618130511506/18/16 13:05:31  5-MIN KAIA 182005Z AUTO 19013G20KT 10SM CLR 32/14 A3016 3710 34 6400 180/13G20 RMK AO2 T03170144
24044KAIA AIA20160618131011506/18/16 13:10:31  5-MIN KAIA 182010Z AUTO 20010G20KT 10SM CLR 32/14 A3016 3710 33 6500 190/10G20 RMK AO2 T03170139
24044KAIA AIA20160618131511506/18/16 13:15:31  5-MIN KAIA 182015Z AUTO 19014G18KT 10SM CLR 32/14 A3016 3720 34 6500 190/14G18 RMK AO2 T03170144
24044KAIA AIA20160618132011506/18/16 13:20:31  5-MIN KAIA 182020Z AUTO 19010G18KT 10SM CLR 32/14 A3015 3720 33 6500 180/10G18 RMK AO2 T03220144
24044KAIA AIA20160618132511706/18/16 13:25:31  5-MIN KAIA 182025Z AUTO 18011G20KT 10SM CLR 33/14 A3015 3720 32 6600 180/11G20 RMK AO2 T03280144 $
24044KAIA AIA20160619214011106/19/16 21:40:31  5-MIN KAIA 200440Z AUTO 06005KT 10SM CLR 21/16 A3019 3680 75 5200 050/05 RMK AO2 T02060161 $
24044KAIA AIA20160619214511106/19/16 21:45:31  5-MIN KAIA 200445Z AUTO 06005KT 10SM CLR 21/16 A3019 3680 75 5200 060/05 RMK AO2 T02060161 $
24044KAIA AIA20160619215011806/19/16 21:50:31  5-MIN KAIA 200450Z AUTO 07005KT 10SM CLR 21/16 A3019 3680 75 5200 060/05 RMK AO2 SLP173 T02060161 $
24044KAIA AIA20160619215511106/19/16 21:55:31  5-MIN KAIA 200455Z AUTO 06005KT 10SM CLR 20/16 A3019 3680 78 5100 050/05 RMK AO2 T02000161 $
24044KAIA AIA20160619220011106/19/16 22:00:31  5-MIN KAIA 200500Z AUTO 05006KT 10SM CLR 20/16 A3019 3680 78 5100 050/06 RMK AO2 T02000161 $
24044KAIA AIA20160619220511106/19/16 22:05:31  5-MIN KAIA 200505Z AUTO 05007KT 10SM CLR 19/16 A3020 3680 81 5100 040/07 RMK AO2 T01940161 $
24044KAIA AIA20160619221011106/19/16 22:10:31  5-MIN KAIA 200510Z AUTO 03007KT 10SM CLR 19/16 A3020 3680 81 5100 030/07 RMK AO2 T01940161 $
24044KAIA AIA20160619221511106/19/16 22:15:31  5-MIN KAIA 200515Z AUTO 02007KT 10SM CLR 19/16 A3020 3680 81 5100 020/07 RMK AO2 T01940161 $
24044KAIA AIA20160619222011106/19/16 22:20:31  5-MIN KAIA 200520Z AUTO 04007KT 10SM CLR 19/16 A3020 3680 81 5100 030/07 RMK AO2 T01940161 $
24044KAIA AIA20160619222511106/19/16 22:25:31  5-MIN KAIA 200525Z AUTO 04007KT 10SM CLR 19/17 A3020 3670 84 5100 030/07 RMK AO2 T01940167 $
24044KAIA AIA20160619223011106/19/16 22:30:31  5-MIN KAIA 200530Z AUTO 02006KT 10SM CLR 19/16 A3020 3670 84 5000 010/06 RMK AO2 T01890161 $
24044KAIA AIA20160619223511106/19/16 22:35:31  5-MIN KAIA 200535Z AUTO 03005KT 10SM CLR 19/16 A3020 3670 84 5000 020/05 RMK AO2 T01890161 $
24044KAIA AIA20160619224011106/19/16 22:40:31  5-MIN KAIA 200540Z AUTO 04005KT 10SM CLR 19/16 A3020 3670 84 5000 030/05 RMK AO2 T01890161 $
24044KAIA AIA20160619224511106/19/16 22:45:31  5-MIN KAIA 200545Z AUTO 03005KT 10SM CLR 19/16 A3020 3670 84 5000 020/05 RMK AO2 T01890161 $
24044KAIA AIA20160619225013606/19/16 22:50:31  5-MIN KAIA 200550Z AUTO 02005KT 10SM CLR 18/16 A3021 3670 87 4900 020/05 RMK AO2 SLP176 T01830161 10339 20183 52016 $
24044KAIA AIA20160619225511106/19/16 22:55:31  5-MIN KAIA 200555Z AUTO 02006KT 10SM CLR 18/16 A3021 3670 87 4900 020/06 RMK AO2 T01830161 $
24044KAIA AIA20160619230011106/19/16 23:00:31  5-MIN KAIA 200600Z AUTO 03006KT 10SM CLR 18/16 A3021 3670 87 4900 020/06 RMK AO2 T01830161 $
24044KAIA AIA20160619230511106/19/16 23:05:31  5-MIN KAIA 200605Z AUTO 04007KT 10SM CLR 18/16 A3021 3670 87 4900 030/07 RMK AO2 T01830161 $
24044KAIA AIA20160619231011106/19/16 23:10:31  5-MIN KAIA 200610Z AUTO 05007KT 10SM CLR 18/16 A3021 3670 87 4900 040/07 RMK AO2 T01830161 $
24044KAIA AIA20160619231511106/19/16 23:15:31  5-MIN KAIA 200615Z AUTO 04005KT 10SM CLR 18/16 A3021 3670 84 4900 030/05 RMK AO2 T01830156 $
24044KAIA AIA20160619232011106/19/16 23:20:31  5-MIN KAIA 200620Z AUTO 03005KT 10SM CLR 18/16 A3021 3670 87 4900 030/05 RMK AO2 T01780156 $
24044KAIA AIA20160619232511106/19/16 23:25:31  5-MIN KAIA 200625Z AUTO 04006KT 10SM CLR 18/16 A3021 3670 87 4900 030/06 RMK AO2 T01830161 $
24044KAIA AIA20160619233011106/19/16 23:30:31  5-MIN KAIA 200630Z AUTO 05005KT 10SM CLR 18/16 A3021 3670 87 4900 040/05 RMK AO2 T01830161 $
24044KAIA AIA20160619233511106/19/16 23:35:31  5-MIN KAIA 200635Z AUTO 05006KT 10SM CLR 18/16 A3021 3670 87 4900 040/06 RMK AO2 T01830161 $
24044KAIA AIA20160619234011106/19/16 23:40:31  5-MIN KAIA 200640Z AUTO 04006KT 10SM CLR 18/16 A3021 3670 84 4900 040/06 RMK AO2 T01830156 $
24044KAIA AIA20160619234511106/19/16 23:45:31  5-MIN KAIA 200645Z AUTO 04007KT 10SM CLR 18/16 A3021 3670 87 4900 040/07 RMK AO2 T01780156 $
24044KAIA AIA20160619235012806/19/16 23:50:31  5-MIN KAIA 200650Z AUTO 04007KT 10SM CLR 18/16 A3021 3670 87 4900 030/07 RMK AO2 SLP178 T01780156 403720161 $
24044KAIA AIA20160619235511106/19/16 23:55:31  5-MIN KAIA 200655Z AUTO 04007KT 10SM CLR 18/16 A3021 3670 87 4900 030/07 RMK AO2 T01780156 $
24044KAIA AIA20160620000011106/20/16 00:00:31  5-MIN KAIA 200700Z AUTO 03007KT 10SM CLR 18/16 A3021 3670 87 4900 020/07 RMK AO2 T01780156 $
24044KAIA AIA20160620000511106/20/16 00:05:31  5-MIN KAIA 200705Z AUTO 03006KT 10SM CLR 18/16 A3021 3670 87 4900 030/06 RMK AO2 T01830161 $
24044KAIA AIA20160620001011106/20/16 00:10:31  5-MIN KAIA 200710Z AUTO 04007KT 10SM CLR 18/16 A3021 3670 90 4900 030/07 RMK AO2 T01780161 $
24044KAIA AIA20160620001511106/20/16 00:15:31  5-MIN KAIA 200715Z AUTO 05008KT 10SM CLR 18/16 A3021 3670 87 4900 040/08 RMK AO2 T01780156 $
24044KAIA AIA20160620002011106/20/16 00:20:31  5-MIN KAIA 200720Z AUTO 05008KT 10SM CLR 18/16 A3021 3670 87 4900 040/08 RMK AO2 T01830161 $
24044KAIA AIA20160620002511106/20/16 00:25:31  5-MIN KAIA 200725Z AUTO 05008KT 10SM CLR 19/16 A3021 3670 84 5000 050/08 RMK AO2 T01890161 $
24044KAIA AIA20160620003011106/20/16 00:30:31  5-MIN KAIA 200730Z AUTO 05006KT 10SM CLR 19/16 A3021 3670 84 5000 050/06 RMK AO2 T01890161 $
24044KAIA AIA20160620003511106/20/16 00:35:31  5-MIN KAIA 200735Z AUTO 06005KT 10SM CLR 18/16 A3021 3670 87 4900 050/05 RMK AO2 T01830161 $
24044KAIA AIA20160620004011106/20/16 00:40:31  5-MIN KAIA 200740Z AUTO 07005KT 10SM CLR 18/16 A3021 3670 87 4900 060/05 RMK AO2 T01830161 $
24044KAIA AIA20160620004511106/20/16 00:45:31  5-MIN KAIA 200745Z AUTO 07007KT 10SM CLR 19/16 A3021 3660 84 5000 060/07 RMK AO2 T01890161 $
24044KAIA AIA20160620005011806/20/16 00:50:31  5-MIN KAIA 200750Z AUTO 07006KT 10SM CLR 19/17 A3022 3660 84 5000 060/06 RMK AO2 SLP177 T01940167 $
24044KAIA AIA20160620005511106/20/16 00:55:31  5-MIN KAIA 200755Z AUTO 05007KT 10SM CLR 19/17 A3022 3660 84 5000 050/07 RMK AO2 T01940167 $
24044KAIA AIA20160620010011106/20/16 01:00:31  5-MIN KAIA 200800Z AUTO 03007KT 10SM CLR 19/17 A3022 3660 87 5000 020/07 RMK AO2 T01890167 $
24044KAIA AIA20160620010511106/20/16 01:05:31  5-MIN KAIA 200805Z AUTO 02007KT 10SM CLR 18/17 A3022 3650 90 4900 010/07 RMK AO2 T01830167 $
24044KAIA AIA20160620011011106/20/16 01:10:31  5-MIN KAIA 200810Z AUTO 02007KT 10SM CLR 18/17 A3022 3650 90 4900 010/07 RMK AO2 T01830167 $
24044KAIA AIA20160620011511106/20/16 01:15:31  5-MIN KAIA 200815Z AUTO 01007KT 10SM CLR 18/16 A3023 3650 87 4900 010/07 RMK AO2 T01830161 $
24044KAIA AIA20160620012011106/20/16 01:20:31  5-MIN KAIA 200820Z AUTO 01006KT 10SM CLR 18/16 A3023 3650 90 4800 360/06 RMK AO2 T01780161 $
24044KAIA AIA20160620012511106/20/16 01:25:31  5-MIN KAIA 200825Z AUTO 01008KT 10SM CLR 17/16 A3023 3650 90 4800 360/08 RMK AO2 T01720156 $
24044KAIA AIA20160620013011106/20/16 01:30:31  5-MIN KAIA 200830Z AUTO 01008KT 10SM CLR 17/16 A3023 3650 93 4800 010/08 RMK AO2 T01720161 $
24044KAIA AIA20160620013511106/20/16 01:35:31  5-MIN KAIA 200835Z AUTO 01008KT 10SM CLR 17/16 A3023 3650 93 4800 360/08 RMK AO2 T01720161 $
24044KAIA AIA20160620014011106/20/16 01:40:31  5-MIN KAIA 200840Z AUTO 02009KT 10SM CLR 18/16 A3023 3650 90 4800 010/09 RMK AO2 T01780161 $
24044KAIA AIA20160620014511106/20/16 01:45:31  5-MIN KAIA 200845Z AUTO 02009KT 10SM CLR 18/16 A3023 3640 90 4800 010/09 RMK AO2 T01780161 $
24044KAIA AIA20160620015012406/20/16 01:50:31  5-MIN KAIA 200850Z AUTO 02009KT 10SM CLR 18/16 A3024 3640 87 4900 010/09 RMK AO2 SLP187 T01830161 51017 $
24044KAIA AIA20160620015511106/20/16 01:55:31  5-MIN KAIA 200855Z AUTO 02009KT 10SM CLR 18/16 A3024 3640 90 4800 010/09 RMK AO2 T01780161 $
24044KAIA AIA20160620020011106/20/16 02:00:31  5-MIN KAIA 200900Z AUTO 02009KT 10SM CLR 18/16 A3024 3640 90 4800 010/09 RMK AO2 T01780161 $
24044KAIA AIA20160620020511106/20/16 02:05:31  5-MIN KAIA 200905Z AUTO 02008KT 10SM CLR 18/16 A3024 3640 90 4800 010/08 RMK AO2 T01780161 $
24044KAIA AIA20160620021011106/20/16 02:10:31  5-MIN KAIA 200910Z AUTO 02008KT 10SM CLR 18/16 A3024 3640 90 4800 010/08 RMK AO2 T01780161 $
24044KAIA AIA20160620021511106/20/16 02:15:31  5-MIN KAIA 200915Z AUTO 02009KT 10SM CLR 18/16 A3024 3640 90 4800 010/09 RMK AO2 T01780161 $
24044KAIA AIA20160620022011106/20/16 02:20:31  5-MIN KAIA 200920Z AUTO 03011KT 10SM CLR 18/16 A3024 3640 87 4900 030/11 RMK AO2 T01830161 $
24044KAIA AIA20160620022511106/20/16 02:25:31  5-MIN KAIA 200925Z AUTO 03011KT 10SM CLR 18/17 A3024 3640 90 4900 020/11 RMK AO2 T01830167 $
24044KAIA AIA20160620023011106/20/16 02:30:31  5-MIN KAIA 200930Z AUTO 02010KT 10SM CLR 18/16 A3024 3640 87 4900 020/10 RMK AO2 T01830161 $
24044KAIA AIA20160620023511106/20/16 02:35:31  5-MIN KAIA 200935Z AUTO 02008KT 10SM CLR 18/16 A3025 3630 90 4800 010/08 RMK AO2 T01780161 $
24044KAIA AIA20160620024011106/20/16 02:40:31  5-MIN KAIA 200940Z AUTO 02011KT 10SM CLR 18/16 A3025 3630 90 4800 010/11 RMK AO2 T01780161 $
24044KAIA AIA20160620024511106/20/16 02:45:31  5-MIN KAIA 200945Z AUTO 02011KT 10SM CLR 17/16 A3025 3630 93 4800 010/11 RMK AO2 T01720161 $
24044KAIA AIA20160620025011806/20/16 02:50:31  5-MIN KAIA 200950Z AUTO 03013KT 10SM CLR 17/16 A3026 3620 93 4800 020/13 RMK AO2 SLP195 T01720161 $
24044KAIA AIA20160620025511106/20/16 02:55:31  5-MIN KAIA 200955Z AUTO 03014KT 10SM CLR 18/16 A3026 3620 90 4800 030/14 RMK AO2 T01780161 $
24044KAIA AIA20160620030011106/20/16 03:00:31  5-MIN KAIA 201000Z AUTO 04014KT 10SM CLR 18/16 A3026 3620 87 4800 030/14 RMK AO2 T01780156 $
24044KAIA AIA20160620030512006/20/16 03:05:31  5-MIN KAIA 201005Z AUTO 04015G21KT 10SM FEW031 18/15 A3027 3620 83 4800 040/15G21 RMK AO2 T01780150 $
24044KAIA AIA20160620031012006/20/16 03:10:31  5-MIN KAIA 201010Z AUTO 04015G21KT 10SM SCT031 18/14 A3027 3620 78 4800 030/15G21 RMK AO2 T01780139 $
24044KAIA AIA20160620031512006/20/16 03:15:31  5-MIN KAIA 201015Z AUTO 04015G22KT 10SM SCT031 18/13 A3027 3610 75 4800 030/15G22 RMK AO2 T01780133 $
24044KAIA AIA20160620032012006/20/16 03:20:31  5-MIN KAIA 201020Z AUTO 04015G22KT 10SM SCT031 17/13 A3027 3610 75 4700 030/15G22 RMK AO2 T01720128 $
24044KAIA AIA20160620032511406/20/16 03:25:31  5-MIN KAIA 201025Z AUTO 04015KT 10SM SCT031 17/12 A3027 3610 69 4700 030/15 RMK AO2 T01720117 $
24044KAIA AIA20160620033011406/20/16 03:30:31  5-MIN KAIA 201030Z AUTO 04015KT 10SM SCT032 17/11 A3028 3610 67 4700 040/15 RMK AO2 T01720111 $
24044KAIA AIA20160620033512006/20/16 03:35:31  5-MIN KAIA 201035Z AUTO 04012G21KT 10SM BKN032 17/11 A3028 3600 67 4700 030/12G21 RMK AO2 T01720111 $
24044KAIA AIA20160620034011406/20/16 03:40:31  5-MIN KAIA 201040Z AUTO 04014KT 10SM SCT032 17/11 A3028 3600 67 4700 030/14 RMK AO2 T01720111 $
24044KAIA AIA20160620034511406/20/16 03:45:31  5-MIN KAIA 201045Z AUTO 04013KT 10SM SCT032 17/12 A3028 3600 69 4700 030/13 RMK AO2 T01720117 $
24044KAIA AIA20160620035012106/20/16 03:50:31  5-MIN KAIA 201050Z AUTO 04015KT 10SM BKN033 17/11 A3028 3600 67 4700 030/15 RMK AO2 SLP204 T01720111 $
24044KAIA AIA20160620035512106/20/16 03:55:31  5-MIN KAIA 201055Z AUTO 04014KT 10SM FEW026 BKN033 17/11 A3029 3600 67 4700 030/14 RMK AO2 T01720111 $
24044KAIA AIA20160620040012106/20/16 04:00:31  5-MIN KAIA 201100Z AUTO 05014KT 10SM FEW026 BKN033 17/10 A3029 3600 62 4700 040/14 RMK AO2 T01720100 $
24044KAIA AIA20160620040512106/20/16 04:05:31  5-MIN KAIA 201105Z AUTO 04018KT 10SM SCT026 BKN033 18/09 A3029 3600 58 4800 030/18 RMK AO2 T01780094 $
24044KAIA AIA20160620041012106/20/16 04:10:31  5-MIN KAIA 201110Z AUTO 04017KT 10SM BKN026 OVC033 18/09 A3029 3600 55 4800 030/17 RMK AO2 T01780089 $
24044KAIA AIA20160620041512106/20/16 04:15:31  5-MIN KAIA 201115Z AUTO 04016KT 10SM BKN026 OVC033 17/08 A3029 3590 55 4700 030/16 RMK AO2 T01720083 $
24044KAIA AIA20160620042012106/20/16 04:20:31  5-MIN KAIA 201120Z AUTO 04015KT 10SM BKN026 OVC033 18/08 A3029 3590 51 4800 030/15 RMK AO2 T01780078 $
24044KAIA AIA20160620042512106/20/16 04:25:31  5-MIN KAIA 201125Z AUTO 04016KT 10SM BKN026 OVC033 18/08 A3029 3590 51 4800 030/16 RMK AO2 T01780078 $
24044KAIA AIA20160620043011406/20/16 04:30:31  5-MIN KAIA 201130Z AUTO 04015KT 10SM OVC029 18/08 A3030 3590 51 4800 030/15 RMK AO2 T01780078 $
24044KAIA AIA20160620043511406/20/16 04:35:31  5-MIN KAIA 201135Z AUTO 04013KT 10SM OVC029 18/08 A3030 3590 53 4800 040/13 RMK AO2 T01780083 $
24044KAIA AIA20160620044012006/20/16 04:40:31  5-MIN KAIA 201140Z AUTO 04013G21KT 10SM OVC029 18/08 A3031 3580 53 4800 030/13G21 RMK AO2 T01780083 $
24044KAIA AIA20160620044512006/20/16 04:45:31  5-MIN KAIA 201145Z AUTO 04014G21KT 10SM OVC029 18/08 A3031 3570 53 4800 040/14G21 RMK AO2 T01780083 $
24044KAIA AIA20160620045011006/20/16 04:50:31  5-MIN KAIA 201150Z AUTO 04013G20KT 10SM OVC031 18/08 A3031 3570 53 4800 030/13G20 RMK AO2 $
24044KAIA AIA20160620045512006/20/16 04:55:31  5-MIN KAIA 201155Z AUTO 04016G21KT 10SM OVC031 18/08 A3031 3570 51 4800 030/16G21 RMK AO2 T01780078 $
24044KAIA AIA20160620050012006/20/16 05:00:31  5-MIN KAIA 201200Z AUTO 05017G22KT 10SM OVC031 18/08 A3032 3570 51 4700 040/17G22 RMK AO2 T01780078 $
24044KAIA AIA20160620050512006/20/16 05:05:31  5-MIN KAIA 201205Z AUTO 05015G22KT 10SM OVC031 18/07 A3032 3560 49 4700 040/15G22 RMK AO2 T01780072 $
24044KAIA AIA20160620051011406/20/16 05:10:31  5-MIN KAIA 201210Z AUTO 05019KT 10SM OVC032 18/07 A3032 3560 48 4700 040/19 RMK AO2 T01780067 $
24044KAIA AIA20160620051511406/20/16 05:15:31  5-MIN KAIA 201215Z AUTO 05016KT 10SM OVC032 18/06 A3032 3560 46 4700 040/16 RMK AO2 T01780061 $
24044KAIA AIA20160620052011406/20/16 05:20:31  5-MIN KAIA 201220Z AUTO 05014KT 10SM OVC032 18/07 A3033 3560 48 4700 040/14 RMK AO2 T01780067 $
24044KAIA AIA20160620052511406/20/16 05:25:31  5-MIN KAIA 201225Z AUTO 05015KT 10SM OVC033 18/07 A3033 3560 48 4700 040/15 RMK AO2 T01780067 $
24044KAIA AIA20160620053011406/20/16 05:30:31  5-MIN KAIA 201230Z AUTO 05017KT 10SM OVC033 18/07 A3033 3560 48 4700 040/17 RMK AO2 T01780067 $
24044KAIA AIA20160620053512006/20/16 05:35:31  5-MIN KAIA 201235Z AUTO 05015G22KT 10SM OVC033 18/06 A3033 3550 46 4700 040/15G22 RMK AO2 T01780061 $
24044KAIA AIA20160620054012006/20/16 05:40:31  5-MIN KAIA 201240Z AUTO 05017G22KT 10SM OVC033 18/06 A3033 3550 44 4700 040/17G22 RMK AO2 T01780056 $
24044KAIA AIA20160620054513806/20/16 05:45:31  5-MIN KAIA 201245Z AUTO 05015G27KT 10SM OVC033 18/05 A3034 3550 42 4700 040/15G27 RMK AO2 PK WND 06027/1243 T01780050 $
24044KAIA AIA20160620055014506/20/16 05:50:31  5-MIN KAIA 201250Z AUTO 05017G27KT 10SM OVC034 18/05 A3034 3550 42 4700 040/17G27 RMK AO2 PK WND 06027/1243 SLP226 T01780050 $
24044KAIA AIA20160620055512006/20/16 05:55:31  5-MIN KAIA 201255Z AUTO 05018G24KT 10SM OVC034 18/04 A3034 3550 41 4700 040/18G24 RMK AO2 T01780044 $
24044KAIA AIA20160620060013806/20/16 06:00:31  5-MIN KAIA 201300Z AUTO 05022G26KT 10SM OVC035 18/04 A3034 3550 41 4700 040/22G26 RMK AO2 PK WND 05026/1300 T01780044 $
24044KAIA AIA20160620060513806/20/16 06:05:31  5-MIN KAIA 201305Z AUTO 05019G26KT 10SM OVC035 18/04 A3035 3540 41 4700 040/19G26 RMK AO2 PK WND 05026/1300 T01780044 $
24044KAIA AIA20160620061013206/20/16 06:10:31  5-MIN KAIA 201310Z AUTO 05016KT 10SM OVC035 18/04 A3035 3540 39 4700 040/16 RMK AO2 PK WND 05026/1300 T01780039 $
24044KAIA AIA20160620061513206/20/16 06:15:31  5-MIN KAIA 201315Z AUTO 05015KT 10SM OVC035 18/04 A3035 3540 39 4700 040/15 RMK AO2 PK WND 05026/1300 T01780039 $
24044KAIA AIA20160620062013206/20/16 06:20:31  5-MIN KAIA 201320Z AUTO 04018KT 10SM OVC035 18/04 A3035 3540 38 4800 040/18 RMK AO2 PK WND 05026/1300 T01830039 $
24044KAIA AIA20160620062513206/20/16 06:25:31  5-MIN KAIA 201325Z AUTO 05019KT 10SM OVC035 18/04 A3035 3540 38 4800 040/19 RMK AO2 PK WND 05026/1300 T01830039 $
24044KAIA AIA20160620063013806/20/16 06:30:31  5-MIN KAIA 201330Z AUTO 05015G24KT 10SM OVC037 18/04 A3036 3530 38 4800 040/15G24 RMK AO2 PK WND 05026/1300 T01830039 $
24044KAIA AIA20160620063513806/20/16 06:35:31  5-MIN KAIA 201335Z AUTO 05019G23KT 10SM OVC039 18/04 A3036 3530 38 4800 040/19G23 RMK AO2 PK WND 05026/1300 T01830039 $
24044KAIA AIA20160620064013806/20/16 06:40:31  5-MIN KAIA 201340Z AUTO 05015G23KT 10SM OVC039 18/03 A3036 3530 36 4800 040/15G23 RMK AO2 PK WND 05026/1300 T01830033 $
24044KAIA AIA20160620064513806/20/16 06:45:31  5-MIN KAIA 201345Z AUTO 05018G22KT 10SM OVC039 18/03 A3036 3530 36 4800 040/18G22 RMK AO2 PK WND 05026/1300 T01830033 $
24044KAIA AIA20160620065014306/20/16 06:50:31  5-MIN KAIA 201350Z AUTO 05018G25KT 10SM OVC039 19/03 A3037 3520 35 4800 040/18G25 RMK AO2 PK WND 05026/1300 SLP240 T01890033
24044KAIA AIA20160620065511806/20/16 06:55:31  5-MIN KAIA 201355Z AUTO 05020G25KT 10SM OVC039 18/03 A3037 3520 35 4800 040/20G25 RMK AO2 T01830028
24044KAIA AIA20160620070011206/20/16 07:00:31  5-MIN KAIA 201400Z AUTO 05019KT 10SM OVC039 18/03 A3037 3520 35 4700 040/19 RMK AO2 T01830028
24044KAIA AIA20160620070511806/20/16 07:05:31  5-MIN KAIA 201405Z AUTO 05017G25KT 10SM OVC039 18/03 A3037 3520 35 4700 040/17G25 RMK AO2 T01830028
24044KAIA AIA20160620071011806/20/16 07:10:31  5-MIN KAIA 201410Z AUTO 05015G25KT 10SM OVC039 19/03 A3038 3510 35 4800 040/15G25 RMK AO2 T01890033
24044KAIA AIA20160620071511206/20/16 07:15:31  5-MIN KAIA 201415Z AUTO 05017KT 10SM OVC039 19/03 A3038 3510 35 4800 040/17 RMK AO2 T01890033
24044KAIA AIA20160620072011806/20/16 07:20:31  5-MIN KAIA 201420Z AUTO 05020G25KT 10SM OVC039 19/03 A3038 3510 34 4800 040/20G25 RMK AO2 T01890028
24044KAIA AIA20160620072511806/20/16 07:25:31  5-MIN KAIA 201425Z AUTO 05019G25KT 10SM OVC039 19/03 A3038 3510 34 4800 040/19G25 RMK AO2 T01890028
24044KAIA AIA20160620073011206/20/16 07:30:31  5-MIN KAIA 201430Z AUTO 05020KT 10SM OVC039 19/02 A3038 3510 32 4800 040/20 RMK AO2 T01890022
24044KAIA AIA20160620073511206/20/16 07:35:31  5-MIN KAIA 201435Z AUTO 05019KT 10SM OVC039 19/03 A3038 3510 34 4800 040/19 RMK AO2 T01890028
24044KAIA AIA20160620074011806/20/16 07:40:31  5-MIN KAIA 201440Z AUTO 05018G25KT 10SM OVC039 19/02 A3038 3510 32 4800 040/18G25 RMK AO2 T01890022
24044KAIA AIA20160620074511206/20/16 07:45:31  5-MIN KAIA 201445Z AUTO 04019KT 10SM OVC040 19/03 A3038 3510 33 4900 040/19 RMK AO2 T01940028
24044KAIA AIA20160620075012506/20/16 07:50:31  5-MIN KAIA 201450Z AUTO 05015KT 10SM OVC043 19/03 A3038 3510 34 4900 040/15 RMK AO2 SLP249 T01940033 53023
24044KAIA AIA20160620075511906/20/16 07:55:31  5-MIN KAIA 201455Z AUTO 04014KT 10SM BKN043 OVC050 19/04 A3039 3510 35 4900 040/14 RMK AO2 T01940039
24044KAIA AIA20160620080011206/20/16 08:00:31  5-MIN KAIA 201500Z AUTO 05013KT 10SM OVC045 20/04 A3039 3510 34 4900 040/13 RMK AO2 T02000039
24044KAIA AIA20160620080511806/20/16 08:05:31  5-MIN KAIA 201505Z AUTO 05017G22KT 10SM OVC045 20/04 A3039 3500 34 4900 050/17G22 RMK AO2 T02000039
24044KAIA AIA20160620081011206/20/16 08:10:31  5-MIN KAIA 201510Z AUTO 05016KT 10SM OVC047 21/04 A3039 3500 33 5000 040/16 RMK AO2 T02060039
24044KAIA AIA20160620081511206/20/16 08:15:31  5-MIN KAIA 201515Z AUTO 05013KT 10SM OVC047 21/04 A3039 3500 34 5000 050/13 RMK AO2 T02060044
24044KAIA AIA20160620082011206/20/16 08:20:31  5-MIN KAIA 201520Z AUTO 05015KT 10SM OVC049 20/04 A3039 3500 35 4900 050/15 RMK AO2 T02000044
24044KAIA AIA20160620082511206/20/16 08:25:31  5-MIN KAIA 201525Z AUTO 05017KT 10SM OVC047 21/03 A3039 3500 32 5000 040/17 RMK AO2 T02060033
24044KAIA AIA20160620083011206/20/16 08:30:31  5-MIN KAIA 201530Z AUTO 05018KT 10SM OVC047 21/04 A3039 3500 33 5000 040/18 RMK AO2 T02060039
24044KAIA AIA20160620083511206/20/16 08:35:31  5-MIN KAIA 201535Z AUTO 06017KT 10SM OVC045 21/03 A3039 3500 32 5000 050/17 RMK AO2 T02060033
24044KAIA AIA20160620084011206/20/16 08:40:31  5-MIN KAIA 201540Z AUTO 06017KT 10SM OVC045 21/04 A3039 3500 33 5000 050/17 RMK AO2 T02060039
24044KAIA AIA20160620084511206/20/16 08:45:31  5-MIN KAIA 201545Z AUTO 06016KT 10SM OVC043 21/04 A3039 3500 33 5000 050/16 RMK AO2 T02060039
24044KAIA AIA20160620085011906/20/16 08:50:31  5-MIN KAIA 201550Z AUTO 06014KT 10SM OVC043 21/04 A3039 3500 33 5000 050/14 RMK AO2 SLP253 T02060039
24044KAIA AIA20160620085511206/20/16 08:55:31  5-MIN KAIA 201555Z AUTO 05015KT 10SM OVC043 21/04 A3039 3500 33 5000 040/15 RMK AO2 T02110044
24044KAIA AIA20160620090011906/20/16 09:00:31  5-MIN KAIA 201600Z AUTO 06014KT 10SM BKN043 OVC050 22/04 A3039 3500 32 5100 050/14 RMK AO2 T02170044
24044KAIA AIA20160620090511206/20/16 09:05:31  5-MIN KAIA 201605Z AUTO 07013KT 10SM OVC045 22/04 A3039 3500 32 5100 060/13 RMK AO2 T02170044
24044KAIA AIA20160620091011206/20/16 09:10:31  5-MIN KAIA 201610Z AUTO 06015KT 10SM OVC047 22/04 A3039 3500 32 5100 050/15 RMK AO2 T02170044
24044KAIA AIA20160620091511206/20/16 09:15:31  5-MIN KAIA 201615Z AUTO 07016KT 10SM OVC047 22/04 A3039 3500 32 5100 070/16 RMK AO2 T02170044
24044KAIA AIA20160620092011206/20/16 09:20:31  5-MIN KAIA 201620Z AUTO 06012KT 10SM OVC049 22/04 A3039 3500 31 5200 050/12 RMK AO2 T02220044
24044KAIA AIA20160620092511206/20/16 09:25:31  5-MIN KAIA 201625Z AUTO 06015KT 10SM OVC049 22/04 A3039 3500 31 5200 050/15 RMK AO2 T02220044
24044KAIA AIA20160620093011206/20/16 09:30:31  5-MIN KAIA 201630Z AUTO 06013KT 10SM OVC049 22/04 A3039 3500 31 5200 050/13 RMK AO2 T02220044
24044KAIA AIA20160620093511206/20/16 09:35:31  5-MIN KAIA 201635Z AUTO 06014KT 10SM BKN050 23/04 A3039 3500 30 5200 050/14 RMK AO2 T02280044
24044KAIA AIA20160620192510906/20/16 19:25:31  5-MIN KAIA 210225Z AUTO 15008KT 10SM CLR 19/11 A3024 3640 60 5000 150/08 RMK AO2 T01890111
24044KAIA AIA20160620193010906/20/16 19:30:31  5-MIN KAIA 210230Z AUTO 16009KT 10SM CLR 18/11 A3024 3640 62 4900 150/09 RMK AO2 T01830111
24044KAIA AIA20160620193510906/20/16 19:35:31  5-MIN KAIA 210235Z AUTO 15010KT 10SM CLR 18/11 A3024 3640 60 4900 150/10 RMK AO2 T01830106
24044KAIA AIA20160620194010906/20/16 19:40:31  5-MIN KAIA 210240Z AUTO 15009KT 10SM CLR 18/11 A3023 3640 60 4900 140/09 RMK AO2 T01830106
24044KAIA AIA20160620194510906/20/16 19:45:31  5-MIN KAIA 210245Z AUTO 15008KT 10SM CLR 18/11 A3024 3640 62 4800 140/08 RMK AO2 T01780106
24044KAIA AIA20160620195012206/20/16 19:50:31  5-MIN KAIA 210250Z AUTO 15008KT 10SM CLR 17/11 A3024 3640 64 4800 150/08 RMK AO2 SLP209 T01720106 56023
24044KAIA AIA20160620195510906/20/16 19:55:31  5-MIN KAIA 210255Z AUTO 16008KT 10SM CLR 17/11 A3024 3640 64 4800 150/08 RMK AO2 T01720106
24044KAIA AIA20160620200010906/20/16 20:00:31  5-MIN KAIA 210300Z AUTO 16008KT 10SM CLR 17/11 A3024 3640 64 4800 150/08 RMK AO2 T01720106
24044KAIA AIA20160620200510906/20/16 20:05:31  5-MIN KAIA 210305Z AUTO 16007KT 10SM CLR 17/11 A3024 3640 69 4700 160/07 RMK AO2 T01670111
24044KAIA AIA20160620201010906/20/16 20:10:31  5-MIN KAIA 210310Z AUTO 16008KT 10SM CLR 17/11 A3024 3640 67 4800 150/08 RMK AO2 T01720111
24044KAIA AIA20160620201510906/20/16 20:15:31  5-MIN KAIA 210315Z AUTO 16007KT 10SM CLR 17/11 A3024 3640 69 4700 150/07 RMK AO2 T01670111
24044KAIA AIA20160620202010906/20/16 20:20:31  5-MIN KAIA 210320Z AUTO 15007KT 10SM CLR 17/11 A3024 3640 69 4700 150/07 RMK AO2 T01670111
24044KAIA AIA20160620202510906/20/16 20:25:31  5-MIN KAIA 210325Z AUTO 16008KT 10SM CLR 17/11 A3024 3640 69 4700 150/08 RMK AO2 T01670111
24044KAIA AIA20160620203010906/20/16 20:30:31  5-MIN KAIA 210330Z AUTO 15008KT 10SM CLR 16/11 A3024 3640 72 4600 150/08 RMK AO2 T01610111
24044KAIA AIA20160620203510906/20/16 20:35:31  5-MIN KAIA 210335Z AUTO 16008KT 10SM CLR 16/11 A3025 3630 72 4600 150/08 RMK AO2 T01610111
24044KAIA AIA20160620204010906/20/16 20:40:31  5-MIN KAIA 210340Z AUTO 16009KT 10SM CLR 16/11 A3025 3630 72 4600 150/09 RMK AO2 T01610111
24044KAIA AIA20160620204510906/20/16 20:45:31  5-MIN KAIA 210345Z AUTO 16009KT 10SM CLR 16/11 A3025 3630 74 4600 150/09 RMK AO2 T01560111
24044KAIA AIA20160620205011606/20/16 20:50:31  5-MIN KAIA 210350Z AUTO 16009KT 10SM CLR 17/11 A3025 3630 69 4700 150/09 RMK AO2 SLP209 T01670111
24044KAIA AIA20160620205510906/20/16 20:55:31  5-MIN KAIA 210355Z AUTO 15009KT 10SM CLR 16/11 A3025 3630 74 4600 150/09 RMK AO2 T01560111
24044KAIA AIA20160620210010906/20/16 21:00:31  5-MIN KAIA 210400Z AUTO 15009KT 10SM CLR 16/12 A3025 3630 77 4600 150/09 RMK AO2 T01560117
24044KAIA AIA20160620210510906/20/16 21:05:31  5-MIN KAIA 210405Z AUTO 15009KT 10SM CLR 16/12 A3025 3630 77 4600 140/09 RMK AO2 T01560117
24044KAIA AIA20160620211010906/20/16 21:10:31  5-MIN KAIA 210410Z AUTO 16010KT 10SM CLR 15/11 A3025 3630 77 4500 150/10 RMK AO2 T01500111
24044KAIA AIA20160620211510906/20/16 21:15:31  5-MIN KAIA 210415Z AUTO 16010KT 10SM CLR 16/12 A3025 3630 77 4600 150/10 RMK AO2 T01560117
24044KAIA AIA20160620212010906/20/16 21:20:31  5-MIN KAIA 210420Z AUTO 15009KT 10SM CLR 16/12 A3024 3640 75 4600 140/09 RMK AO2 T01610117
24044KAIA AIA20160620212510906/20/16 21:25:31  5-MIN KAIA 210425Z AUTO 14008KT 10SM CLR 16/12 A3024 3640 77 4600 140/08 RMK AO2 T01560117
24044KAIA AIA20160620213010906/20/16 21:30:31  5-MIN KAIA 210430Z AUTO 15008KT 10SM CLR 15/11 A3024 3640 77 4500 140/08 RMK AO2 T01500111
24044KAIA AIA20160620213510906/20/16 21:35:31  5-MIN KAIA 210435Z AUTO 15007KT 10SM CLR 14/11 A3024 3640 80 4500 140/07 RMK AO2 T01440111
24044KAIA AIA20160620214010906/20/16 21:40:31  5-MIN KAIA 210440Z AUTO 15007KT 10SM CLR 14/11 A3024 3640 80 4400 140/07 RMK AO2 T01390106
24044KAIA AIA20160620214510906/20/16 21:45:31  5-MIN KAIA 210445Z AUTO 16009KT 10SM CLR 13/11 A3023 3640 83 4300 150/09 RMK AO2 T01330106
24044KAIA AIA20160620215011606/20/16 21:50:31  5-MIN KAIA 210450Z AUTO 16009KT 10SM CLR 15/12 A3023 3650 80 4500 150/09 RMK AO2 SLP205 T01500117
24044KAIA AIA20160620215510906/20/16 21:55:31  5-MIN KAIA 210455Z AUTO 16009KT 10SM CLR 16/12 A3023 3650 75 4700 150/09 RMK AO2 T01610117
24044KAIA AIA20160620220010906/20/16 22:00:31  5-MIN KAIA 210500Z AUTO 17008KT 10SM CLR 16/12 A3023 3650 77 4600 160/08 RMK AO2 T01560117
24044KAIA AIA20160620220510906/20/16 22:05:31  5-MIN KAIA 210505Z AUTO 16008KT 10SM CLR 16/12 A3023 3650 77 4600 150/08 RMK AO2 T01560117
24044KAIA AIA20160620221010906/20/16 22:10:31  5-MIN KAIA 210510Z AUTO 16008KT 10SM CLR 16/12 A3023 3650 77 4600 150/08 RMK AO2 T01560117
24044KAIA AIA20160620221510906/20/16 22:15:31  5-MIN KAIA 210515Z AUTO 17009KT 10SM CLR 15/12 A3023 3650 80 4500 160/09 RMK AO2 T01500117
24044KAIA AIA20160620222010906/20/16 22:20:31  5-MIN KAIA 210520Z AUTO 17010KT 10SM CLR 16/12 A3023 3650 80 4600 160/10 RMK AO2 T01560122
24044KAIA AIA20160620222510906/20/16 22:25:31  5-MIN KAIA 210525Z AUTO 16009KT 10SM CLR 16/12 A3023 3650 80 4600 150/09 RMK AO2 T01560122
24044KAIA AIA20160620223010906/20/16 22:30:31  5-MIN KAIA 210530Z AUTO 15009KT 10SM CLR 16/12 A3023 3650 80 4600 140/09 RMK AO2 T01560122
24044KAIA AIA20160620223510906/20/16 22:35:31  5-MIN KAIA 210535Z AUTO 16009KT 10SM CLR 16/12 A3022 3650 77 4600 150/09 RMK AO2 T01560117
24044KAIA AIA20160620224010906/20/16 22:40:31  5-MIN KAIA 210540Z AUTO 16009KT 10SM CLR 16/12 A3022 3660 77 4600 160/09 RMK AO2 T01560117
24044KAIA AIA20160620224510906/20/16 22:45:31  5-MIN KAIA 210545Z AUTO 16008KT 10SM CLR 16/12 A3022 3660 77 4600 150/08 RMK AO2 T01560117
24044KAIA AIA20160620225013406/20/16 22:50:31  5-MIN KAIA 210550Z AUTO 15008KT 10SM CLR 16/12 A3022 3660 77 4600 140/08 RMK AO2 SLP198 T01560117 10272 20133 56003
24044KAIA AIA20160620225510906/20/16 22:55:31  5-MIN KAIA 210555Z AUTO 14007KT 10SM CLR 16/12 A3022 3660 77 4600 130/07 RMK AO2 T01560117
24044KAIA AIA20160620230010906/20/16 23:00:31  5-MIN KAIA 210600Z AUTO 13006KT 10SM CLR 16/12 A3022 3660 77 4600 120/06 RMK AO2 T01560117
24044KAIA AIA20160620230510906/20/16 23:05:31  5-MIN KAIA 210605Z AUTO 13006KT 10SM CLR 16/11 A3022 3660 74 4600 120/06 RMK AO2 T01560111
24044KAIA AIA20160620231010906/20/16 23:10:31  5-MIN KAIA 210610Z AUTO 13005KT 10SM CLR 16/11 A3021 3660 74 4600 120/05 RMK AO2 T01560111
24044KAIA AIA20160620231510906/20/16 23:15:31  5-MIN KAIA 210615Z AUTO 14006KT 10SM CLR 15/11 A3021 3660 77 4500 130/06 RMK AO2 T01500111
24044KAIA AIA20160620232010906/20/16 23:20:31  5-MIN KAIA 210620Z AUTO 13005KT 10SM CLR 15/11 A3021 3660 77 4500 120/05 RMK AO2 T01500111
24044KAIA AIA20160620232510906/20/16 23:25:31  5-MIN KAIA 210625Z AUTO 14005KT 10SM CLR 15/11 A3021 3660 77 4500 130/05 RMK AO2 T01500111
24044KAIA AIA20160620233010906/20/16 23:30:31  5-MIN KAIA 210630Z AUTO 14004KT 10SM CLR 16/11 A3021 3670 74 4600 130/04 RMK AO2 T01560111
24044KAIA AIA20160620233510906/20/16 23:35:31  5-MIN KAIA 210635Z AUTO 16006KT 10SM CLR 15/11 A3021 3670 77 4600 150/06 RMK AO2 T01500111
24044KAIA AIA20160620234010906/20/16 23:40:31  5-MIN KAIA 210640Z AUTO 15007KT 10SM CLR 15/11 A3021 3670 77 4600 150/07 RMK AO2 T01500111
24044KAIA AIA20160620234510906/20/16 23:45:31  5-MIN KAIA 210645Z AUTO 15007KT 10SM CLR 15/11 A3021 3670 77 4600 150/07 RMK AO2 T01500111
24044KAIA AIA20160620235012606/20/16 23:50:31  5-MIN KAIA 210650Z AUTO 15008KT 10SM CLR 15/11 A3020 3670 77 4600 140/08 RMK AO2 SLP192 T01500111 402780133
24044KAIA AIA20160620235510906/20/16 23:55:31  5-MIN KAIA 210655Z AUTO 16007KT 10SM CLR 15/11 A3020 3680 77 4600 150/07 RMK AO2 T01500111
24044KAIA AIA20160621000010906/21/16 00:00:31  5-MIN KAIA 210700Z AUTO 16007KT 10SM CLR 15/11 A3020 3680 77 4600 150/07 RMK AO2 T01500111
24044KAIA AIA20160621000510906/21/16 00:05:31  5-MIN KAIA 210705Z AUTO 17007KT 10SM CLR 15/11 A3020 3680 77 4600 160/07 RMK AO2 T01500111
24044KAIA AIA20160621001010906/21/16 00:10:31  5-MIN KAIA 210710Z AUTO 17008KT 10SM CLR 15/11 A3020 3680 77 4600 160/08 RMK AO2 T01500111
24044KAIA AIA20160621001510906/21/16 00:15:31  5-MIN KAIA 210715Z AUTO 16008KT 10SM CLR 15/11 A3019 3680 77 4600 160/08 RMK AO2 T01500111
24044KAIA AIA20160621002010906/21/16 00:20:31  5-MIN KAIA 210720Z AUTO 17009KT 10SM CLR 15/11 A3019 3690 77 4600 160/09 RMK AO2 T01500111
24044KAIA AIA20160621002510906/21/16 00:25:31  5-MIN KAIA 210725Z AUTO 16009KT 10SM CLR 16/11 A3019 3690 74 4600 150/09 RMK AO2 T01560111
24044KAIA AIA20160621003010906/21/16 00:30:31  5-MIN KAIA 210730Z AUTO 16009KT 10SM CLR 16/11 A3018 3690 74 4600 150/09 RMK AO2 T01560111
24044KAIA AIA20160621003510906/21/16 00:35:31  5-MIN KAIA 210735Z AUTO 16009KT 10SM CLR 16/11 A3018 3690 74 4600 160/09 RMK AO2 T01560111
24044KAIA AIA20160621004010906/21/16 00:40:31  5-MIN KAIA 210740Z AUTO 16008KT 10SM CLR 16/11 A3018 3700 74 4700 160/08 RMK AO2 T01560111
24044KAIA AIA20160621004510906/21/16 00:45:31  5-MIN KAIA 210745Z AUTO 17008KT 10SM CLR 15/11 A3018 3700 77 4600 160/08 RMK AO2 T01500111
24044KAIA AIA20160621005011606/21/16 00:50:31  5-MIN KAIA 210750Z AUTO 17008KT 10SM CLR 16/11 A3018 3700 74 4700 160/08 RMK AO2 SLP181 T01560111
24044KAIA AIA20160621005510906/21/16 00:55:31  5-MIN KAIA 210755Z AUTO 17007KT 10SM CLR 16/11 A3017 3700 74 4700 160/07 RMK AO2 T01560111
24044KAIA AIA20160621010010906/21/16 01:00:31  5-MIN KAIA 210800Z AUTO 16007KT 10SM CLR 15/11 A3017 3700 77 4600 150/07 RMK AO2 T01500111
24044KAIA AIA20160621010510906/21/16 01:05:31  5-MIN KAIA 210805Z AUTO 16007KT 10SM CLR 15/11 A3017 3700 77 4600 150/07 RMK AO2 T01500111
24044KAIA AIA20160621011010906/21/16 01:10:31  5-MIN KAIA 210810Z AUTO 16007KT 10SM CLR 15/11 A3017 3700 77 4600 150/07 RMK AO2 T01500111
24044KAIA AIA20160621011510906/21/16 01:15:31  5-MIN KAIA 210815Z AUTO 16008KT 10SM CLR 14/11 A3017 3700 80 4500 150/08 RMK AO2 T01440111
24044KAIA AIA20160621012010906/21/16 01:20:31  5-MIN KAIA 210820Z AUTO 16008KT 10SM CLR 14/11 A3017 3700 80 4500 150/08 RMK AO2 T01440111
24044KAIA AIA20160621012510906/21/16 01:25:31  5-MIN KAIA 210825Z AUTO 16007KT 10SM CLR 14/11 A3017 3710 80 4500 150/07 RMK AO2 T01440111
24044KAIA AIA20160621013010906/21/16 01:30:31  5-MIN KAIA 210830Z AUTO 15007KT 10SM CLR 15/11 A3016 3710 77 4600 150/07 RMK AO2 T01500111
24044KAIA AIA20160621013510906/21/16 01:35:31  5-MIN KAIA 210835Z AUTO 16008KT 10SM CLR 14/11 A3016 3710 80 4500 150/08 RMK AO2 T01440111
24044KAIA AIA20160621014010906/21/16 01:40:31  5-MIN KAIA 210840Z AUTO 16009KT 10SM CLR 15/11 A3016 3720 77 4600 150/09 RMK AO2 T01500111
24044KAIA AIA20160621014510906/21/16 01:45:31  5-MIN KAIA 210845Z AUTO 16010KT 10SM CLR 15/11 A3015 3720 77 4600 150/10 RMK AO2 T01500111
24044KAIA AIA20160621015012206/21/16 01:50:31  5-MIN KAIA 210850Z AUTO 16010KT 10SM CLR 15/11 A3015 3720 77 4600 150/10 RMK AO2 SLP170 T01500111 58006
24044KAIA AIA20160621015510906/21/16 01:55:31  5-MIN KAIA 210855Z AUTO 16009KT 10SM CLR 15/11 A3015 3720 77 4600 150/09 RMK AO2 T01500111
24044KAIA AIA20160621020010906/21/16 02:00:31  5-MIN KAIA 210900Z AUTO 16009KT 10SM CLR 15/11 A3015 3720 77 4600 150/09 RMK AO2 T01500111
24044KAIA AIA20160621020510906/21/16 02:05:31  5-MIN KAIA 210905Z AUTO 15007KT 10SM CLR 15/11 A3015 3720 77 4600 140/07 RMK AO2 T01500111
24044KAIA AIA20160621021010906/21/16 02:10:31  5-MIN KAIA 210910Z AUTO 13005KT 10SM CLR 14/11 A3015 3720 80 4600 120/05 RMK AO2 T01440111
24044KAIA AIA20160621021510906/21/16 02:15:31  5-MIN KAIA 210915Z AUTO 12006KT 10SM CLR 14/11 A3015 3720 83 4500 120/06 RMK AO2 T01390111
24044KAIA AIA20160621022010906/21/16 02:20:31  5-MIN KAIA 210920Z AUTO 13007KT 10SM CLR 13/11 A3015 3730 86 4400 130/07 RMK AO2 T01330111
24044KAIA AIA20160621022510906/21/16 02:25:31  5-MIN KAIA 210925Z AUTO 14007KT 10SM CLR 13/11 A3014 3730 86 4400 130/07 RMK AO2 T01330111
24044KAIA AIA20160621023010906/21/16 02:30:31  5-MIN KAIA 210930Z AUTO 14006KT 10SM CLR 13/11 A3014 3730 86 4400 130/06 RMK AO2 T01330111
24044KAIA AIA20160621023510906/21/16 02:35:31  5-MIN KAIA 210935Z AUTO 14005KT 10SM CLR 13/11 A3014 3730 86 4400 130/05 RMK AO2 T01330111
24044KAIA AIA20160621024010906/21/16 02:40:31  5-MIN KAIA 210940Z AUTO 13006KT 10SM CLR 14/11 A3014 3730 83 4500 120/06 RMK AO2 T01390111
24044KAIA AIA20160621024510906/21/16 02:45:31  5-MIN KAIA 210945Z AUTO 14006KT 10SM CLR 13/11 A3014 3730 86 4400 140/06 RMK AO2 T01330111
24044KAIA AIA20160621025011606/21/16 02:50:31  5-MIN KAIA 210950Z AUTO 16007KT 10SM CLR 13/11 A3014 3730 86 4400 150/07 RMK AO2 SLP167 T01330111
24044KAIA AIA20160621025510906/21/16 02:55:31  5-MIN KAIA 210955Z AUTO 16007KT 10SM CLR 13/11 A3014 3730 86 4400 150/07 RMK AO2 T01330111
24044KAIA AIA20160621030010906/21/16 03:00:31  5-MIN KAIA 211000Z AUTO 16007KT 10SM CLR 14/11 A3014 3730 83 4500 150/07 RMK AO2 T01390111
24044KAIA AIA20160621030510906/21/16 03:05:31  5-MIN KAIA 211005Z AUTO 16007KT 10SM CLR 14/11 A3014 3730 83 4500 160/07 RMK AO2 T01390111
24044KAIA AIA20160621031010906/21/16 03:10:31  5-MIN KAIA 211010Z AUTO 17007KT 10SM CLR 13/11 A3014 3740 86 4400 160/07 RMK AO2 T01330111
24044KAIA AIA20160621031510906/21/16 03:15:31  5-MIN KAIA 211015Z AUTO 16007KT 10SM CLR 13/11 A3014 3740 83 4400 160/07 RMK AO2 T01330106
24044KAIA AIA20160621032010906/21/16 03:20:31  5-MIN KAIA 211020Z AUTO 17005KT 10SM CLR 13/11 A3013 3740 83 4400 160/05 RMK AO2 T01330106
24044KAIA AIA20160621032510906/21/16 03:25:31  5-MIN KAIA 211025Z AUTO 17007KT 10SM CLR 13/11 A3013 3740 83 4400 160/07 RMK AO2 T01330106
24044KAIA AIA20160621033010906/21/16 03:30:31  5-MIN KAIA 211030Z AUTO 17006KT 10SM CLR 13/11 A3013 3740 83 4400 170/06 RMK AO2 T01330106
24044KAIA AIA20160621033510906/21/16 03:35:31  5-MIN KAIA 211035Z AUTO 16007KT 10SM CLR 13/11 A3013 3740 83 4400 160/07 RMK AO2 T01330106
24044KAIA AIA20160621034010906/21/16 03:40:31  5-MIN KAIA 211040Z AUTO 16006KT 10SM CLR 13/11 A3013 3740 83 4500 150/06 RMK AO2 T01330106
24044KAIA AIA20160621034510906/21/16 03:45:31  5-MIN KAIA 211045Z AUTO 14005KT 10SM CLR 13/11 A3013 3740 83 4500 130/05 RMK AO2 T01330106
24044KAIA AIA20160621035011606/21/16 03:50:31  5-MIN KAIA 211050Z AUTO 15007KT 10SM CLR 13/11 A3012 3750 86 4400 140/07 RMK AO2 SLP164 T01280106
24044KAIA AIA20160621035510906/21/16 03:55:31  5-MIN KAIA 211055Z AUTO 16005KT 10SM CLR 13/11 A3012 3750 86 4400 150/05 RMK AO2 T01280106
24044KAIA AIA20160621040010906/21/16 04:00:31  5-MIN KAIA 211100Z AUTO 16007KT 10SM CLR 12/10 A3012 3750 86 4300 150/07 RMK AO2 T01220100
24044KAIA AIA20160621040510906/21/16 04:05:31  5-MIN KAIA 211105Z AUTO 16007KT 10SM CLR 13/10 A3012 3750 83 4400 160/07 RMK AO2 T01280100
24044KAIA AIA20160621041010906/21/16 04:10:31  5-MIN KAIA 211110Z AUTO 17008KT 10SM CLR 13/11 A3012 3750 83 4500 160/08 RMK AO2 T01330106
24044KAIA AIA20160621041510906/21/16 04:15:31  5-MIN KAIA 211115Z AUTO 17008KT 10SM CLR 14/11 A3012 3750 80 4500 160/08 RMK AO2 T01390106
24044KAIA AIA20160621042010906/21/16 04:20:31  5-MIN KAIA 211120Z AUTO 17008KT 10SM CLR 14/11 A3012 3750 80 4500 160/08 RMK AO2 T01390106
24044KAIA AIA20160621042510906/21/16 04:25:31  5-MIN KAIA 211125Z AUTO 16008KT 10SM CLR 14/11 A3012 3750 80 4500 150/08 RMK AO2 T01390106
24044KAIA AIA20160621043010906/21/16 04:30:31  5-MIN KAIA 211130Z AUTO 17008KT 10SM CLR 14/11 A3011 3760 80 4500 160/08 RMK AO2 T01390106
24044KAIA AIA20160621043510906/21/16 04:35:31  5-MIN KAIA 211135Z AUTO 17007KT 10SM CLR 14/11 A3011 3760 80 4500 160/07 RMK AO2 T01390106
24044KAIA AIA20160621044010906/21/16 04:40:31  5-MIN KAIA 211140Z AUTO 16007KT 10SM CLR 14/11 A3011 3760 80 4500 160/07 RMK AO2 T01390106
24044KAIA AIA20160621044510906/21/16 04:45:31  5-MIN KAIA 211145Z AUTO 16006KT 10SM CLR 14/11 A3011 3760 80 4500 150/06 RMK AO2 T01390106
24044KAIA AIA20160621045013406/21/16 04:50:31  5-MIN KAIA 211150Z AUTO 14004KT 10SM CLR 14/11 A3011 3760 80 4500 130/04 RMK AO2 SLP159 T01390106 10156 20122 58021
24044KAIA AIA20160621045510906/21/16 04:55:31  5-MIN KAIA 211155Z AUTO 15005KT 10SM CLR 14/11 A3011 3760 83 4500 140/05 RMK AO2 T01390111
24044KAIA AIA20160621050010906/21/16 05:00:31  5-MIN KAIA 211200Z AUTO 16006KT 10SM CLR 14/11 A3011 3760 83 4500 150/06 RMK AO2 T01390111
24044KAIA AIA20160621050510906/21/16 05:05:31  5-MIN KAIA 211205Z AUTO 16005KT 10SM CLR 14/11 A3011 3760 83 4500 150/05 RMK AO2 T01390111
24044KAIA AIA20160621051010906/21/16 05:10:31  5-MIN KAIA 211210Z AUTO 15004KT 10SM CLR 14/11 A3011 3760 80 4600 140/04 RMK AO2 T01440111
24044KAIA AIA20160621051510906/21/16 05:15:31  5-MIN KAIA 211215Z AUTO 16004KT 10SM CLR 14/11 A3011 3760 80 4600 150/04 RMK AO2 T01440111
24044KAIA AIA20160621052010906/21/16 05:20:31  5-MIN KAIA 211220Z AUTO 17005KT 10SM CLR 15/12 A3011 3760 80 4700 160/05 RMK AO2 T01500117
24044KAIA AIA20160621052510906/21/16 05:25:31  5-MIN KAIA 211225Z AUTO 17006KT 10SM CLR 16/12 A3011 3760 77 4700 160/06 RMK AO2 T01560117
24044KAIA AIA20160621053010906/21/16 05:30:31  5-MIN KAIA 211230Z AUTO 17006KT 10SM CLR 16/12 A3011 3760 77 4700 160/06 RMK AO2 T01560117
24044KAIA AIA20160621053510906/21/16 05:35:31  5-MIN KAIA 211235Z AUTO 16005KT 10SM CLR 16/12 A3011 3760 75 4800 160/05 RMK AO2 T01610117
24044KAIA AIA20160621054010906/21/16 05:40:31  5-MIN KAIA 211240Z AUTO 17006KT 10SM CLR 16/12 A3011 3760 75 4800 160/06 RMK AO2 T01610117
24044KAIA AIA20160621054510906/21/16 05:45:31  5-MIN KAIA 211245Z AUTO 18008KT 10SM CLR 17/12 A3011 3760 72 4900 170/08 RMK AO2 T01670117
24044KAIA AIA20160621055011606/21/16 05:50:31  5-MIN KAIA 211250Z AUTO 18008KT 10SM CLR 17/12 A3011 3760 72 4900 170/08 RMK AO2 SLP156 T01670117
24044KAIA AIA20160621055510906/21/16 05:55:31  5-MIN KAIA 211255Z AUTO 19010KT 10SM CLR 17/12 A3011 3760 69 4900 180/10 RMK AO2 T01720117
24044KAIA AIA20160621060011806/21/16 06:00:31  5-MIN KAIA 211300Z AUTO 19010G15KT 10SM FEW024 17/12 A3011 3760 69 4900 180/10G15 RMK AO2 T01720117
24044KAIA AIA20160621060511206/21/16 06:05:31  5-MIN KAIA 211305Z AUTO 19011KT 10SM SCT024 18/12 A3011 3760 69 5000 180/11 RMK AO2 T01780122
24044KAIA AIA20160621061011206/21/16 06:10:31  5-MIN KAIA 211310Z AUTO 19012KT 10SM BKN024 18/12 A3011 3760 69 5000 180/12 RMK AO2 T01780122
24044KAIA AIA20160621061511206/21/16 06:15:31  5-MIN KAIA 211315Z AUTO 18012KT 10SM BKN024 18/12 A3011 3760 67 5000 180/12 RMK AO2 T01830122
24044KAIA AIA20160621062011206/21/16 06:20:31  5-MIN KAIA 211320Z AUTO 19012KT 10SM SCT024 19/12 A3011 3760 65 5100 180/12 RMK AO2 T01890122
24044KAIA AIA20160621062511206/21/16 06:25:31  5-MIN KAIA 211325Z AUTO 18011KT 10SM SCT024 19/12 A3011 3760 65 5100 170/11 RMK AO2 T01890122
24044KAIA AIA20160621063011206/21/16 06:30:31  5-MIN KAIA 211330Z AUTO 18011KT 10SM FEW024 19/13 A3010 3760 67 5100 170/11 RMK AO2 T01890128
24044KAIA AIA20160621063511206/21/16 06:35:31  5-MIN KAIA 211335Z AUTO 18012KT 10SM FEW024 19/13 A3010 3770 65 5200 170/12 RMK AO2 T01940128
24044KAIA AIA20160621064010906/21/16 06:40:31  5-MIN KAIA 211340Z AUTO 18011KT 10SM CLR 19/13 A3010 3770 65 5200 170/11 RMK AO2 T01940128
24044KAIA AIA20160621064510906/21/16 06:45:31  5-MIN KAIA 211345Z AUTO 19012KT 10SM CLR 19/13 A3010 3770 65 5200 180/12 RMK AO2 T01940128
24044KAIA AIA20160621065011606/21/16 06:50:31  5-MIN KAIA 211350Z AUTO 17013KT 10SM CLR 20/13 A3010 3770 65 5200 170/13 RMK AO2 SLP151 T02000133
24044KAIA AIA20160621065510906/21/16 06:55:31  5-MIN KAIA 211355Z AUTO 17014KT 10SM CLR 20/13 A3009 3770 65 5200 170/14 RMK AO2 T02000133
24044KAIA AIA20160621070010906/21/16 07:00:31  5-MIN KAIA 211400Z AUTO 18013KT 10SM CLR 20/13 A3009 3780 65 5300 170/13 RMK AO2 T02000133
24044KAIA AIA20160621070510906/21/16 07:05:31  5-MIN KAIA 211405Z AUTO 17012KT 10SM CLR 21/13 A3009 3780 63 5300 160/12 RMK AO2 T02060133
24044KAIA AIA20160621071010906/21/16 07:10:31  5-MIN KAIA 211410Z AUTO 18011KT 10SM CLR 21/13 A3008 3780 63 5300 170/11 RMK AO2 T02060133
24044KAIA AIA20160621071510906/21/16 07:15:31  5-MIN KAIA 211415Z AUTO 17012KT 10SM CLR 21/14 A3008 3780 63 5400 160/12 RMK AO2 T02110139
24044KAIA AIA20160621072011506/21/16 07:20:31  5-MIN KAIA 211420Z AUTO 18013G17KT 10SM CLR 21/13 A3009 3780 63 5300 180/13G17 RMK AO2 T02060133
24044KAIA AIA20160621164510906/21/16 16:45:31  5-MIN KAIA 212345Z AUTO 20015KT 10SM CLR 38/08 A2982 4030 16 7500 190/15 RMK AO2 T03780083
24044KAIA AIA20160621165013406/21/16 16:50:31  5-MIN KAIA 212350Z AUTO 19015KT 10SM CLR 38/09 A2981 4040 17 7500 180/15 RMK AO2 SLP040 T03780094 10383 20306 56028
24044KAIA AIA20160621165510906/21/16 16:55:31  5-MIN KAIA 212355Z AUTO 18014KT 10SM CLR 37/10 A2981 4040 19 7400 180/14 RMK AO2 T03720100
24044KAIA AIA20160621170010906/21/16 17:00:31  5-MIN KAIA 220000Z AUTO 19017KT 10SM CLR 37/11 A2980 4040 19 7400 180/17 RMK AO2 T03720106
24044KAIA AIA20160621170510906/21/16 17:05:31  5-MIN KAIA 220005Z AUTO 19017KT 10SM CLR 37/11 A2980 4040 19 7400 180/17 RMK AO2 T03720106
24044KAIA AIA20160621171011506/21/16 17:10:31  5-MIN KAIA 220010Z AUTO 18017G24KT 10SM CLR 37/10 A2980 4050 19 7400 170/17G24 RMK AO2 T03670100
24044KAIA AIA20160621171511506/21/16 17:15:31  5-MIN KAIA 220015Z AUTO 18016G24KT 10SM CLR 37/09 A2980 4050 18 7400 170/16G24 RMK AO2 T03670094
24044KAIA AIA20160621172011506/21/16 17:20:31  5-MIN KAIA 220020Z AUTO 19018G24KT 10SM CLR 37/09 A2980 4050 18 7400 180/18G24 RMK AO2 T03670094
24044KAIA AIA20160621172511506/21/16 17:25:31  5-MIN KAIA 220025Z AUTO 19017G24KT 10SM CLR 37/09 A2980 4050 18 7400 180/17G24 RMK AO2 T03670094
24044KAIA AIA20160621173011506/21/16 17:30:31  5-MIN KAIA 220030Z AUTO 18016G22KT 10SM CLR 37/09 A2980 4050 18 7400 180/16G22 RMK AO2 T03670089
24044KAIA AIA20160621173511506/21/16 17:35:31  5-MIN KAIA 220035Z AUTO 18017G22KT 10SM CLR 36/09 A2979 4050 18 7300 170/17G22 RMK AO2 T03610089
24044KAIA AIA20160621174010906/21/16 17:40:31  5-MIN KAIA 220040Z AUTO 18018KT 10SM CLR 36/09 A2979 4050 18 7300 180/18 RMK AO2 T03610089
24044KAIA AIA20160621174510906/21/16 17:45:31  5-MIN KAIA 220045Z AUTO 18015KT 10SM CLR 36/09 A2979 4050 18 7300 180/15 RMK AO2 T03610089
24044KAIA AIA20160621175011606/21/16 17:50:31  5-MIN KAIA 220050Z AUTO 18014KT 10SM CLR 36/09 A2979 4060 19 7300 170/14 RMK AO2 SLP033 T03560089
24044KAIA AIA20160621175510906/21/16 17:55:31  5-MIN KAIA 220055Z AUTO 18014KT 10SM CLR 36/09 A2979 4060 19 7300 170/14 RMK AO2 T03560089
24044KAIA AIA20160621180010906/21/16 18:00:31  5-MIN KAIA 220100Z AUTO 18015KT 10SM CLR 36/08 A2979 4060 18 7300 170/15 RMK AO2 T03560083
24044KAIA AIA20160621180510906/21/16 18:05:31  5-MIN KAIA 220105Z AUTO 18014KT 10SM CLR 35/08 A2979 4060 19 7200 170/14 RMK AO2 T03500083
24044KAIA AIA20160621181010906/21/16 18:10:31  5-MIN KAIA 220110Z AUTO 19014KT 10SM CLR 35/08 A2979 4060 19 7200 180/14 RMK AO2 T03500083
24044KAIA AIA20160621181510906/21/16 18:15:31  5-MIN KAIA 220115Z AUTO 19013KT 10SM CLR 34/08 A2979 4050 19 7200 180/13 RMK AO2 T03440078
24044KAIA AIA20160621182010906/21/16 18:20:31  5-MIN KAIA 220120Z AUTO 19013KT 10SM CLR 34/08 A2979 4050 19 7200 180/13 RMK AO2 T03440078
24044KAIA AIA20160621182510906/21/16 18:25:31  5-MIN KAIA 220125Z AUTO 19012KT 10SM CLR 34/08 A2979 4060 19 7100 180/12 RMK AO2 T03390078
24044KAIA AIA20160621183010906/21/16 18:30:31  5-MIN KAIA 220130Z AUTO 19011KT 10SM CLR 34/08 A2979 4050 20 7100 180/11 RMK AO2 T03390083
24044KAIA AIA20160621183510906/21/16 18:35:31  5-MIN KAIA 220135Z AUTO 19011KT 10SM CLR 33/08 A2979 4060 21 7000 180/11 RMK AO2 T03330083
24044KAIA AIA20160621184010906/21/16 18:40:31  5-MIN KAIA 220140Z AUTO 18010KT 10SM CLR 33/09 A2979 4060 21 7000 170/10 RMK AO2 T03330089
24044KAIA AIA20160621184510906/21/16 18:45:31  5-MIN KAIA 220145Z AUTO 18011KT 10SM CLR 33/09 A2979 4060 23 7000 170/11 RMK AO2 T03280094
24044KAIA AIA20160621185011606/21/16 18:50:31  5-MIN KAIA 220150Z AUTO 18010KT 10SM CLR 32/10 A2979 4060 25 6900 170/10 RMK AO2 SLP033 T03170100
24044KAIA AIA20160621185510906/21/16 18:55:31  5-MIN KAIA 220155Z AUTO 18010KT 10SM CLR 32/10 A2979 4060 25 6900 170/10 RMK AO2 T03170100
24044KAIA AIA20160621190010906/21/16 19:00:31  5-MIN KAIA 220200Z AUTO 19011KT 10SM CLR 31/11 A2979 4060 27 6800 180/11 RMK AO2 T03110106
24044KAIA AIA20160621190510906/21/16 19:05:31  5-MIN KAIA 220205Z AUTO 18012KT 10SM CLR 32/11 A2979 4060 27 6900 180/12 RMK AO2 T03170111
24044KAIA AIA20160621191010906/21/16 19:10:31  5-MIN KAIA 220210Z AUTO 18013KT 10SM CLR 31/12 A2979 4060 31 6800 180/13 RMK AO2 T03110122
24044KAIA AIA20160621191510906/21/16 19:15:31  5-MIN KAIA 220215Z AUTO 18013KT 10SM CLR 31/13 A2979 4060 33 6800 180/13 RMK AO2 T03110133
24044KAIA AIA20160621192010906/21/16 19:20:31  5-MIN KAIA 220220Z AUTO 18012KT 10SM CLR 31/14 A2979 4060 34 6800 180/12 RMK AO2 T03110139
24044KAIA AIA20160621192510906/21/16 19:25:31  5-MIN KAIA 220225Z AUTO 18011KT 10SM CLR 31/14 A2979 4060 37 6800 170/11 RMK AO2 T03060144
24044KAIA AIA20160621193010906/21/16 19:30:31  5-MIN KAIA 220230Z AUTO 18012KT 10SM CLR 31/15 A2978 4060 38 6800 170/12 RMK AO2 T03060150
24044KAIA AIA20160621193510906/21/16 19:35:31  5-MIN KAIA 220235Z AUTO 18012KT 10SM CLR 31/15 A2978 4060 38 6800 170/12 RMK AO2 T03060150
24044KAIA AIA20160621194010906/21/16 19:40:31  5-MIN KAIA 220240Z AUTO 18014KT 10SM CLR 31/16 A2978 4060 39 6800 170/14 RMK AO2 T03060156
24044KAIA AIA20160621194510906/21/16 19:45:31  5-MIN KAIA 220245Z AUTO 18013KT 10SM CLR 30/16 A2978 4060 41 6700 170/13 RMK AO2 T03000156
24044KAIA AIA20160621195012206/21/16 19:50:31  5-MIN KAIA 220250Z AUTO 18012KT 10SM CLR 29/16 A2979 4060 44 6600 170/12 RMK AO2 SLP032 T02940161 56032
24044KAIA AIA20160621195510906/21/16 19:55:31  5-MIN KAIA 220255Z AUTO 18010KT 10SM CLR 29/16 A2979 4060 44 6600 170/10 RMK AO2 T02940161
24044KAIA AIA20160621200010906/21/16 20:00:31  5-MIN KAIA 220300Z AUTO 18014KT 10SM CLR 29/16 A2979 4060 45 6600 180/14 RMK AO2 T02890161
24044KAIA AIA20160621200510906/21/16 20:05:31  5-MIN KAIA 220305Z AUTO 18013KT 10SM CLR 29/17 A2979 4060 45 6600 170/13 RMK AO2 T02940167
24044KAIA AIA20160621201010906/21/16 20:10:31  5-MIN KAIA 220310Z AUTO 18013KT 10SM CLR 29/17 A2979 4060 45 6600 170/13 RMK AO2 T02940167
24044KAIA AIA20160621201510906/21/16 20:15:31  5-MIN KAIA 220315Z AUTO 18012KT 10SM CLR 29/17 A2979 4060 47 6600 170/12 RMK AO2 T02890167
24044KAIA AIA20160621202010906/21/16 20:20:31  5-MIN KAIA 220320Z AUTO 19012KT 10SM CLR 29/17 A2979 4050 47 6600 180/12 RMK AO2 T02890167
24044KAIA AIA20160621202510906/21/16 20:25:31  5-MIN KAIA 220325Z AUTO 19013KT 10SM CLR 29/17 A2979 4050 47 6600 190/13 RMK AO2 T02890167
24044KAIA AIA20160621203010906/21/16 20:30:31  5-MIN KAIA 220330Z AUTO 20014KT 10SM CLR 29/17 A2980 4050 47 6600 190/14 RMK AO2 T02890167
24044KAIA AIA20160621203510906/21/16 20:35:31  5-MIN KAIA 220335Z AUTO 20012KT 10SM CLR 29/17 A2980 4050 47 6600 190/12 RMK AO2 T02890167
24044KAIA AIA20160621204010906/21/16 20:40:31  5-MIN KAIA 220340Z AUTO 20013KT 10SM CLR 29/17 A2980 4040 47 6600 190/13 RMK AO2 T02890167
24044KAIA AIA20160621204510906/21/16 20:45:31  5-MIN KAIA 220345Z AUTO 20013KT 10SM CLR 28/17 A2981 4040 48 6500 190/13 RMK AO2 T02830167
24044KAIA AIA20160621205011606/21/16 20:50:31  5-MIN KAIA 220350Z AUTO 22012KT 10SM CLR 28/17 A2981 4030 50 6500 210/12 RMK AO2 SLP041 T02830172
24044KAIA AIA20160621205510906/21/16 20:55:31  5-MIN KAIA 220355Z AUTO 22010KT 10SM CLR 28/17 A2981 4030 52 6400 210/10 RMK AO2 T02780172
24044KAIA AIA20160621210011506/21/16 21:00:31  5-MIN KAIA 220400Z AUTO 21015G20KT 10SM CLR 28/17 A2981 4040 48 6500 200/15G20 RMK AO2 T02830167
24044KAIA AIA20160621210510906/21/16 21:05:31  5-MIN KAIA 220405Z AUTO 21014KT 10SM CLR 29/17 A2981 4040 45 6600 200/14 RMK AO2 T02940167
24044KAIA AIA20160621211010906/21/16 21:10:31  5-MIN KAIA 220410Z AUTO 21015KT 10SM CLR 29/17 A2981 4040 45 6600 200/15 RMK AO2 T02940167
24044KAIA AIA20160621211510906/21/16 21:15:31  5-MIN KAIA 220415Z AUTO 21013KT 10SM CLR 29/17 A2981 4040 45 6600 200/13 RMK AO2 T02940167
24044KAIA AIA20160621212010906/21/16 21:20:31  5-MIN KAIA 220420Z AUTO 20012KT 10SM CLR 29/16 A2981 4040 45 6600 190/12 RMK AO2 T02890161
24044KAIA AIA20160621212510906/21/16 21:25:31  5-MIN KAIA 220425Z AUTO 21011KT 10SM CLR 29/16 A2980 4040 44 6600 200/11 RMK AO2 T02940161
24044KAIA AIA20160621213010906/21/16 21:30:31  5-MIN KAIA 220430Z AUTO 21010KT 10SM CLR 29/16 A2980 4050 45 6600 200/10 RMK AO2 T02890161
24044KAIA AIA20160621213510906/21/16 21:35:31  5-MIN KAIA 220435Z AUTO 20010KT 10SM CLR 29/16 A2980 4040 45 6600 190/10 RMK AO2 T02890161
24044KAIA AIA20160621214010906/21/16 21:40:31  5-MIN KAIA 220440Z AUTO 20013KT 10SM CLR 29/16 A2980 4050 45 6600 200/13 RMK AO2 T02890161
24044KAIA AIA20160621214510906/21/16 21:45:31  5-MIN KAIA 220445Z AUTO 21011KT 10SM CLR 28/16 A2980 4040 47 6500 200/11 RMK AO2 T02830161
24044KAIA AIA20160621215011606/21/16 21:50:31  5-MIN KAIA 220450Z AUTO 21011KT 10SM CLR 28/16 A2980 4040 47 6500 200/11 RMK AO2 SLP033 T02830161
24044KAIA AIA20160621215510906/21/16 21:55:31  5-MIN KAIA 220455Z AUTO 22009KT 10SM CLR 28/16 A2980 4040 48 6400 210/09 RMK AO2 T02780161
24044KAIA AIA20160621220010906/21/16 22:00:31  5-MIN KAIA 220500Z AUTO 22011KT 10SM CLR 27/16 A2980 4050 52 6300 210/11 RMK AO2 T02670161
24044KAIA AIA20160621220510906/21/16 22:05:31  5-MIN KAIA 220505Z AUTO 22010KT 10SM CLR 26/16 A2980 4050 53 6300 210/10 RMK AO2 T02610161
24044KAIA AIA20160621221010906/21/16 22:10:31  5-MIN KAIA 220510Z AUTO 22009KT 10SM CLR 26/16 A2980 4040 53 6200 220/09 RMK AO2 T02560156
24044KAIA AIA20160621221510906/21/16 22:15:31  5-MIN KAIA 220515Z AUTO 24009KT 10SM CLR 26/16 A2980 4040 53 6200 230/09 RMK AO2 T02560156
24044KAIA AIA20160621222010906/21/16 22:20:31  5-MIN KAIA 220520Z AUTO 23010KT 10SM CLR 24/15 A2980 4050 55 6100 220/10 RMK AO2 T02440150
24044KAIA AIA20160621222510906/21/16 22:25:31  5-MIN KAIA 220525Z AUTO 23009KT 10SM CLR 24/15 A2980 4050 57 6000 220/09 RMK AO2 T02390150
24044KAIA AIA20160621223010906/21/16 22:30:31  5-MIN KAIA 220530Z AUTO 22012KT 10SM CLR 23/15 A2980 4050 59 6000 220/12 RMK AO2 T02330150
24044KAIA AIA20160621223510906/21/16 22:35:31  5-MIN KAIA 220535Z AUTO 23009KT 10SM CLR 23/14 A2980 4050 59 5900 220/09 RMK AO2 T02280144
24044KAIA AIA20160621224010906/21/16 22:40:31  5-MIN KAIA 220540Z AUTO 24008KT 10SM CLR 22/14 A2980 4040 61 5800 230/08 RMK AO2 T02220144
24044KAIA AIA20160621224510906/21/16 22:45:31  5-MIN KAIA 220545Z AUTO 24009KT 10SM CLR 21/14 A2980 4040 63 5700 230/09 RMK AO2 T02110139
24044KAIA AIA20160621225013406/21/16 22:50:31  5-MIN KAIA 220550Z AUTO 24009KT 10SM CLR 22/13 A2981 4040 58 5800 240/09 RMK AO2 SLP039 T02170133 10372 20211 56007
24044KAIA AIA20160621225510906/21/16 22:55:31  5-MIN KAIA 220555Z AUTO 25006KT 10SM CLR 21/13 A2980 4040 58 5700 240/06 RMK AO2 T02110128
24044KAIA AIA20160621230010906/21/16 23:00:31  5-MIN KAIA 220600Z AUTO 24009KT 10SM CLR 21/12 A2980 4040 54 5700 230/09 RMK AO2 T02110117
24044KAIA AIA20160621230510906/21/16 23:05:31  5-MIN KAIA 220605Z AUTO 25008KT 10SM CLR 21/12 A2980 4040 56 5600 240/08 RMK AO2 T02060117
24044KAIA AIA20160621231010906/21/16 23:10:31  5-MIN KAIA 220610Z AUTO 25008KT 10SM CLR 21/11 A2980 4040 54 5600 240/08 RMK AO2 T02060111
24044KAIA AIA20160621231510906/21/16 23:15:31  5-MIN KAIA 220615Z AUTO 25008KT 10SM CLR 20/11 A2981 4040 54 5600 240/08 RMK AO2 T02000106
24044KAIA AIA20160621232010906/21/16 23:20:31  5-MIN KAIA 220620Z AUTO 26011KT 10SM CLR 21/10 A2981 4040 50 5600 250/11 RMK AO2 T02060100
24044KAIA AIA20160621232510906/21/16 23:25:31  5-MIN KAIA 220625Z AUTO 26011KT 10SM CLR 23/08 A2981 4030 39 5900 250/11 RMK AO2 T02280083
24044KAIA AIA20160621233010906/21/16 23:30:31  5-MIN KAIA 220630Z AUTO 24011KT 10SM CLR 23/08 A2982 4030 37 5900 230/11 RMK AO2 T02280078
24044KAIA AIA20160621233510906/21/16 23:35:31  5-MIN KAIA 220635Z AUTO 24009KT 10SM CLR 22/08 A2982 4030 42 5700 240/09 RMK AO2 T02170083
24044KAIA AIA20160621234010906/21/16 23:40:31  5-MIN KAIA 220640Z AUTO 25008KT 10SM CLR 21/08 A2982 4020 43 5700 240/08 RMK AO2 T02110083
24044KAIA AIA20160621234510906/21/16 23:45:31  5-MIN KAIA 220645Z AUTO 24008KT 10SM CLR 20/08 A2983 4020 46 5600 240/08 RMK AO2 T02000083
24044KAIA AIA20160621235012606/21/16 23:50:31  5-MIN KAIA 220650Z AUTO 24008KT 10SM CLR 20/08 A2983 4020 45 5500 230/08 RMK AO2 SLP047 T02000078 403830122
24044KAIA AIA20160621235510906/21/16 23:55:31  5-MIN KAIA 220655Z AUTO 29003KT 10SM CLR 19/08 A2984 4010 46 5500 280/03 RMK AO2 T01940078
24044KAIA AIA20160622000010906/22/16 00:00:31  5-MIN KAIA 220700Z AUTO 28005KT 10SM CLR 19/07 A2984 4010 44 5500 270/05 RMK AO2 T01940072
24044KAIA AIA20160622000510906/22/16 00:05:31  5-MIN KAIA 220705Z AUTO 27007KT 10SM CLR 19/07 A2984 4010 46 5400 260/07 RMK AO2 T01890072
24044KAIA AIA20160622001010906/22/16 00:10:31  5-MIN KAIA 220710Z AUTO 26010KT 10SM CLR 18/07 A2984 4010 48 5400 250/10 RMK AO2 T01830072
24044KAIA AIA20160622001510906/22/16 00:15:31  5-MIN KAIA 220715Z AUTO 27011KT 10SM CLR 18/07 A2984 4010 48 5300 260/11 RMK AO2 T01830072
24044KAIA AIA20160622002010906/22/16 00:20:31  5-MIN KAIA 220720Z AUTO 27009KT 10SM CLR 19/06 A2984 4010 41 5500 260/09 RMK AO2 T01940061
24044KAIA AIA20160622002510906/22/16 00:25:31  5-MIN KAIA 220725Z AUTO 26010KT 10SM CLR 20/06 A2984 4010 40 5500 250/10 RMK AO2 T02000061
24044KAIA AIA20160622003010906/22/16 00:30:31  5-MIN KAIA 220730Z AUTO 25010KT 10SM CLR 21/06 A2984 4010 37 5600 250/10 RMK AO2 T02060056
24044KAIA AIA20160622003510906/22/16 00:35:31  5-MIN KAIA 220735Z AUTO 25009KT 10SM CLR 20/06 A2985 4000 38 5500 250/09 RMK AO2 T02000056
24044KAIA AIA20160622004010906/22/16 00:40:31  5-MIN KAIA 220740Z AUTO 24010KT 10SM CLR 19/06 A2985 3990 41 5400 230/10 RMK AO2 T01890056
24044KAIA AIA20160622004510906/22/16 00:45:31  5-MIN KAIA 220745Z AUTO 25011KT 10SM CLR 19/06 A2986 3990 40 5400 240/11 RMK AO2 T01940056
24044KAIA AIA20160622005011606/22/16 00:50:31  5-MIN KAIA 220750Z AUTO 25010KT 10SM CLR 20/05 A2986 3990 37 5500 240/10 RMK AO2 SLP056 T02000050
24044KAIA AIA20160622005510906/22/16 00:55:31  5-MIN KAIA 220755Z AUTO 26009KT 10SM CLR 20/04 A2987 3980 35 5500 250/09 RMK AO2 T02000044
24044KAIA AIA20160622010011606/22/16 01:00:31  5-MIN KAIA 220800Z AUTO 28008KT 10SM CLR 19/05 A2988 3970 38 5400 270/08 RMK AO2 PRESRR T01940050
24044KAIA AIA20160622010511606/22/16 01:05:31  5-MIN KAIA 220805Z AUTO 26007KT 10SM CLR 19/05 A2989 3960 39 5400 260/07 RMK AO2 PRESRR T01890050
24044KAIA AIA20160622011011606/22/16 01:10:31  5-MIN KAIA 220810Z AUTO 24009KT 10SM CLR 18/05 A2990 3950 42 5200 240/09 RMK AO2 PRESRR T01780050
24044KAIA AIA20160622011510906/22/16 01:15:31  5-MIN KAIA 220815Z AUTO 25011KT 10SM CLR 18/06 A2990 3950 42 5300 240/11 RMK AO2 T01830056
24044KAIA AIA20160622012010906/22/16 01:20:31  5-MIN KAIA 220820Z AUTO 26010KT 10SM CLR 20/05 A2991 3940 37 5500 260/10 RMK AO2 T02000050
24044KAIA AIA20160622012510906/22/16 01:25:31  5-MIN KAIA 220825Z AUTO 30005KT 10SM CLR 19/06 A2991 3940 40 5400 290/05 RMK AO2 T01940056
24044KAIA AIA20160622013010906/22/16 01:30:31  5-MIN KAIA 220830Z AUTO 30007KT 10SM CLR 19/06 A2991 3940 40 5400 290/07 RMK AO2 T01940056
24044KAIA AIA20160622013510906/22/16 01:35:31  5-MIN KAIA 220835Z AUTO 31007KT 10SM CLR 20/06 A2991 3940 38 5500 300/07 RMK AO2 T02000056
24044KAIA AIA20160622014010906/22/16 01:40:31  5-MIN KAIA 220840Z AUTO 33009KT 10SM CLR 20/07 A2992 3930 43 5400 320/09 RMK AO2 T02000072
24044KAIA AIA20160622014510906/22/16 01:45:31  5-MIN KAIA 220845Z AUTO 34008KT 10SM CLR 21/09 A2993 3930 48 5500 330/08 RMK AO2 T02060094
24044KAIA AIA20160622015012506/22/16 01:50:31  5-MIN KAIA 220850Z AUTO 35010KT 10SM SCT026 21/12 A2994 3920 54 5600 350/10 RMK AO2 SLP078 T02110117 51006
24044KAIA AIA20160622015511806/22/16 01:55:31  5-MIN KAIA 220855Z AUTO 36010G16KT 10SM BKN026 22/15 A2994 3920 65 5600 350/10G16 RMK AO2 T02170150
24044KAIA AIA20160622020011206/22/16 02:00:31  5-MIN KAIA 220900Z AUTO 35011KT 10SM BKN025 22/16 A2994 3920 70 5600 340/11 RMK AO2 T02170161
24044KAIA AIA20160622020511206/22/16 02:05:31  5-MIN KAIA 220905Z AUTO 35011KT 10SM BKN025 22/17 A2994 3920 73 5700 340/11 RMK AO2 T02220172
24044KAIA AIA20160622021011806/22/16 02:10:31  5-MIN KAIA 220910Z AUTO 34017G21KT 10SM OVC025 22/16 A2995 3910 68 5600 340/17G21 RMK AO2 T02170156
24044KAIA AIA20160622021511206/22/16 02:15:31  5-MIN KAIA 220915Z AUTO 35014KT 10SM BKN025 21/14 A2995 3910 63 5500 340/14 RMK AO2 T02110139
24044KAIA AIA20160622022011806/22/16 02:20:31  5-MIN KAIA 220920Z AUTO 02015G24KT 10SM BKN025 21/14 A2995 3900 65 5500 010/15G24 RMK AO2 T02060139
24044KAIA AIA20160622022511806/22/16 02:25:31  5-MIN KAIA 220925Z AUTO 01017G24KT 10SM SCT025 21/10 A2996 3900 50 5500 360/17G24 RMK AO2 T02060100
24044KAIA AIA20160622023011806/22/16 02:30:31  5-MIN KAIA 220930Z AUTO 01011G23KT 10SM SCT025 20/09 A2996 3900 50 5400 360/11G23 RMK AO2 T02000094
24044KAIA AIA20160622023511206/22/16 02:35:31  5-MIN KAIA 220935Z AUTO 36009KT 10SM FEW025 19/09 A2996 3900 52 5300 350/09 RMK AO2 T01940094
24044KAIA AIA20160622024011506/22/16 02:40:31  5-MIN KAIA 220940Z AUTO 36015G21KT 10SM CLR 19/10 A2996 3900 54 5300 350/15G21 RMK AO2 T01940100
24044KAIA AIA20160622024511506/22/16 02:45:31  5-MIN KAIA 220945Z AUTO 36018G23KT 10SM CLR 19/08 A2996 3900 48 5300 350/18G23 RMK AO2 T01940083
24044KAIA AIA20160622025012206/22/16 02:50:31  5-MIN KAIA 220950Z AUTO 36015G23KT 10SM CLR 19/07 A2996 3900 44 5300 350/15G23 RMK AO2 SLP086 T01940072
24044KAIA AIA20160622025513306/22/16 02:55:31  5-MIN KAIA 220955Z AUTO 36020G26KT 10SM CLR 19/07 A2996 3900 43 5300 350/20G26 RMK AO2 PK WND 36026/0955 T01940067
24044KAIA AIA20160622030013306/22/16 03:00:31  5-MIN KAIA 221000Z AUTO 36019G28KT 10SM CLR 19/06 A2996 3900 40 5300 350/19G28 RMK AO2 PK WND 36028/0959 T01940056
24044KAIA AIA20160622030513306/22/16 03:05:31  5-MIN KAIA 221005Z AUTO 35015G28KT 10SM CLR 19/06 A2996 3890 41 5300 350/15G28 RMK AO2 PK WND 36028/0959 T01890056
24044KAIA AIA20160622031013306/22/16 03:10:31  5-MIN KAIA 221010Z AUTO 35017G25KT 10SM CLR 19/05 A2997 3890 39 5300 350/17G25 RMK AO2 PK WND 36028/0959 T01890050
24044KAIA AIA20160622031513306/22/16 03:15:31  5-MIN KAIA 221015Z AUTO 36019G25KT 10SM CLR 19/04 A2997 3880 38 5300 350/19G25 RMK AO2 PK WND 36028/0959 T01890044
24044KAIA AIA20160622032013306/22/16 03:20:31  5-MIN KAIA 221020Z AUTO 36017G27KT 10SM CLR 19/04 A2998 3880 36 5300 350/17G27 RMK AO2 PK WND 36028/0959 T01890039
24044KAIA AIA20160622032513306/22/16 03:25:31  5-MIN KAIA 221025Z AUTO 36019G27KT 10SM CLR 19/04 A2998 3880 36 5300 350/19G27 RMK AO2 PK WND 36028/0959 T01890039
24044KAIA AIA20160622033013306/22/16 03:30:31  5-MIN KAIA 221030Z AUTO 35017G26KT 10SM CLR 18/04 A2998 3880 38 5200 340/17G26 RMK AO2 PK WND 36028/0959 T01830039
24044KAIA AIA20160622033513306/22/16 03:35:31  5-MIN KAIA 221035Z AUTO 35016G24KT 10SM CLR 18/04 A2999 3870 38 5200 340/16G24 RMK AO2 PK WND 36028/0959 T01830039
24044KAIA AIA20160622034013306/22/16 03:40:31  5-MIN KAIA 221040Z AUTO 35016G22KT 10SM CLR 18/04 A2999 3870 38 5200 340/16G22 RMK AO2 PK WND 36028/0959 T01830039
24044KAIA AIA20160622034513306/22/16 03:45:31  5-MIN KAIA 221045Z AUTO 35018G24KT 10SM CLR 18/04 A2999 3870 39 5100 340/18G24 RMK AO2 PK WND 36028/0959 T01780039
24044KAIA AIA20160622035014006/22/16 03:50:31  5-MIN KAIA 221050Z AUTO 35018G25KT 10SM CLR 18/03 A2999 3870 38 5100 340/18G25 RMK AO2 PK WND 36028/0959 SLP099 T01780033
24044KAIA AIA20160622035511506/22/16 03:55:31  5-MIN KAIA 221055Z AUTO 35018G25KT 10SM CLR 18/03 A2999 3870 38 5100 340/18G25 RMK AO2 T01780033
24044KAIA AIA20160622040010906/22/16 04:00:31  5-MIN KAIA 221100Z AUTO 35017KT 10SM CLR 18/03 A3000 3860 38 5100 340/17 RMK AO2 T01780033
24044KAIA AIA20160622040510906/22/16 04:05:31  5-MIN KAIA 221105Z AUTO 35016KT 10SM CLR 18/03 A3000 3860 38 5100 340/16 RMK AO2 T01780033
24044KAIA AIA20160622041010906/22/16 04:10:31  5-MIN KAIA 221110Z AUTO 35018KT 10SM CLR 18/03 A3000 3860 36 5100 350/18 RMK AO2 T01780028
24044KAIA AIA20160622041510906/22/16 04:15:31  5-MIN KAIA 221115Z AUTO 35016KT 10SM CLR 17/03 A3000 3860 37 5000 350/16 RMK AO2 T01720028
24044KAIA AIA20160622042010906/22/16 04:20:31  5-MIN KAIA 221120Z AUTO 36016KT 10SM CLR 17/03 A3001 3860 37 5000 350/16 RMK AO2 T01720028
24044KAIA AIA20160622042511506/22/16 04:25:31  5-MIN KAIA 221125Z AUTO 36019G25KT 10SM CLR 17/03 A3001 3850 37 5000 350/19G25 RMK AO2 T01720028
24044KAIA AIA20160622043011506/22/16 04:30:31  5-MIN KAIA 221130Z AUTO 36017G25KT 10SM CLR 17/02 A3001 3850 36 5000 350/17G25 RMK AO2 T01720022
24044KAIA AIA20160622043511506/22/16 04:35:31  5-MIN KAIA 221135Z AUTO 01018G23KT 10SM CLR 17/02 A3001 3850 36 5000 360/18G23 RMK AO2 T01720022
24044KAIA AIA20160622044010906/22/16 04:40:31  5-MIN KAIA 221140Z AUTO 01017KT 10SM CLR 17/02 A3002 3840 36 5000 010/17 RMK AO2 T01720022
24044KAIA AIA20160622044512206/22/16 04:45:31  5-MIN KAIA 221145Z AUTO 01014G22KT 10SM CLR 17/02 A3003 3830 36 5000 360/14G22 RMK AO2 PRESRR T01720022
24044KAIA AIA20160622045014706/22/16 04:50:31  5-MIN KAIA 221150Z AUTO 36015G22KT 10SM CLR 17/03 A3004 3820 37 5000 360/15G22 RMK AO2 PRESRR SLP116 T01720028 10233 20172 53040
24044KAIA AIA20160622045512206/22/16 04:55:31  5-MIN KAIA 221155Z AUTO 34013G20KT 10SM CLR 17/02 A3005 3820 36 5000 330/13G20 RMK AO2 PRESRR T01720022
24044KAIA AIA20160622050010906/22/16 05:00:31  5-MIN KAIA 221200Z AUTO 34011KT 10SM CLR 17/03 A3005 3820 39 4900 330/11 RMK AO2 T01670028
24044KAIA AIA20160622050510906/22/16 05:05:31  5-MIN KAIA 221205Z AUTO 33011KT 10SM CLR 17/03 A3005 3810 39 4900 330/11 RMK AO2 T01670028
24044KAIA AIA20160622051010906/22/16 05:10:31  5-MIN KAIA 221210Z AUTO 34010KT 10SM CLR 17/03 A3005 3810 40 4900 330/10 RMK AO2 T01670033
24044KAIA AIA20160622051510906/22/16 05:15:31  5-MIN KAIA 221215Z AUTO 34009KT 10SM CLR 17/03 A3006 3810 40 4900 330/09 RMK AO2 T01670033
24044KAIA AIA20160622052010906/22/16 05:20:31  5-MIN KAIA 221220Z AUTO 35009KT 10SM CLR 17/03 A3006 3800 40 4900 340/09 RMK AO2 T01670033
24044KAIA AIA20160622052510906/22/16 05:25:31  5-MIN KAIA 221225Z AUTO 34009KT 10SM CLR 17/03 A3006 3800 40 4900 340/09 RMK AO2 T01670033
24044KAIA AIA20160622053010906/22/16 05:30:31  5-MIN KAIA 221230Z AUTO 34009KT 10SM CLR 17/04 A3007 3800 42 4900 330/09 RMK AO2 T01670039
24044KAIA AIA20160622053510906/22/16 05:35:31  5-MIN KAIA 221235Z AUTO 34009KT 10SM CLR 17/04 A3007 3800 41 5000 330/09 RMK AO2 T01720039
24044KAIA AIA20160622054010906/22/16 05:40:31  5-MIN KAIA 221240Z AUTO 33009KT 10SM CLR 17/04 A3007 3790 41 5000 320/09 RMK AO2 T01720039
24044KAIA AIA20160622054510906/22/16 05:45:31  5-MIN KAIA 221245Z AUTO 33008KT 10SM CLR 17/04 A3007 3790 42 5000 320/08 RMK AO2 T01720044
24044KAIA AIA20160622055011606/22/16 05:50:31  5-MIN KAIA 221250Z AUTO 34008KT 10SM CLR 17/04 A3007 3790 42 5000 330/08 RMK AO2 SLP131 T01720044
24044KAIA AIA20160622055510906/22/16 05:55:31  5-MIN KAIA 221255Z AUTO 35010KT 10SM CLR 17/04 A3008 3790 41 5000 340/10 RMK AO2 T01720039
24044KAIA AIA20160622060010906/22/16 06:00:31  5-MIN KAIA 221300Z AUTO 35012KT 10SM CLR 18/04 A3008 3790 39 5000 340/12 RMK AO2 T01780039
24044KAIA AIA20160622060510906/22/16 06:05:31  5-MIN KAIA 221305Z AUTO 35012KT 10SM CLR 18/04 A3008 3790 39 5000 340/12 RMK AO2 T01780039
24044KAIA AIA20160622061010906/22/16 06:10:31  5-MIN KAIA 221310Z AUTO 35010KT 10SM CLR 18/03 A3008 3790 38 5000 340/10 RMK AO2 T01780033
24044KAIA AIA20160622061510906/22/16 06:15:31  5-MIN KAIA 221315Z AUTO 35014KT 10SM CLR 18/03 A3008 3790 36 5100 350/14 RMK AO2 T01830033
24044KAIA AIA20160622062010906/22/16 06:20:31  5-MIN KAIA 221320Z AUTO 35013KT 10SM CLR 18/03 A3008 3790 36 5100 340/13 RMK AO2 T01830033
24044KAIA AIA20160622062511506/22/16 06:25:31  5-MIN KAIA 221325Z AUTO 35017G21KT 10SM CLR 18/03 A3008 3790 36 5100 340/17G21 RMK AO2 T01830033
24044KAIA AIA20160622063011506/22/16 06:30:31  5-MIN KAIA 221330Z AUTO 36012G22KT 10SM CLR 18/03 A3008 3790 36 5100 350/12G22 RMK AO2 T01830033
24044KAIA AIA20160622063511506/22/16 06:35:31  5-MIN KAIA 221335Z AUTO 36017G24KT 10SM CLR 19/03 A3008 3790 34 5100 350/17G24 RMK AO2 T01890028
24044KAIA AIA20160622064011506/22/16 06:40:31  5-MIN KAIA 221340Z AUTO 36016G24KT 10SM CLR 19/03 A3008 3780 34 5100 350/16G24 RMK AO2 T01890028
24044KAIA AIA20160622064511506/22/16 06:45:31  5-MIN KAIA 221345Z AUTO 35017G23KT 10SM CLR 19/02 A3008 3780 32 5100 340/17G23 RMK AO2 T01890022
24044KAIA AIA20160622065011606/22/16 06:50:31  5-MIN KAIA 221350Z AUTO 36019KT 10SM CLR 19/02 A3008 3780 31 5200 350/19 RMK AO2 SLP137 T01940022
24044KAIA AIA20160622065511506/22/16 06:55:31  5-MIN KAIA 221355Z AUTO 35020G25KT 10SM CLR 19/02 A3008 3780 31 5200 340/20G25 RMK AO2 T01940022
24044KAIA AIA20160622070013306/22/16 07:00:31  5-MIN KAIA 221400Z AUTO 35020G26KT 10SM CLR 19/02 A3009 3780 30 5200 350/20G26 RMK AO2 PK WND 36026/1358 T01940017
24044KAIA AIA20160622070513306/22/16 07:05:31  5-MIN KAIA 221405Z AUTO 36021G26KT 10SM CLR 19/02 A3009 3780 30 5200 350/21G26 RMK AO2 PK WND 36026/1358 T01940017
24044KAIA AIA20160622071013306/22/16 07:10:31  5-MIN KAIA 221410Z AUTO 36020G26KT 10SM CLR 19/02 A3009 3780 30 5200 350/20G26 RMK AO2 PK WND 36026/1358 T01940017
24044KAIA AIA20160622071513306/22/16 07:15:31  5-MIN KAIA 221415Z AUTO 36023G31KT 10SM CLR 20/02 A3009 3780 29 5300 350/23G31 RMK AO2 PK WND 36031/1415 T02000017
24044KAIA AIA20160622072013306/22/16 07:20:31  5-MIN KAIA 221420Z AUTO 36018G31KT 10SM CLR 20/01 A3009 3780 28 5300 350/18G31 RMK AO2 PK WND 36031/1415 T02000011
24044KAIA AIA20160622072513306/22/16 07:25:31  5-MIN KAIA 221425Z AUTO 36021G28KT 10SM CLR 21/01 A3009 3770 27 5300 350/21G28 RMK AO2 PK WND 36031/1415 T02060011
24044KAIA AIA20160622073013306/22/16 07:30:31  5-MIN KAIA 221430Z AUTO 36018G28KT 10SM CLR 21/01 A3010 3770 27 5300 350/18G28 RMK AO2 PK WND 36031/1415 T02060011
24044KAIA AIA20160622073513306/22/16 07:35:31  5-MIN KAIA 221435Z AUTO 36017G27KT 10SM CLR 21/01 A3010 3770 27 5300 350/17G27 RMK AO2 PK WND 36031/1415 T02060011
24044KAIA AIA20160622074013306/22/16 07:40:31  5-MIN KAIA 221440Z AUTO 36015G25KT 10SM CLR 21/02 A3010 3770 27 5400 350/15G25 RMK AO2 PK WND 36031/1415 T02110017
24044KAIA AIA20160622074513306/22/16 07:45:31  5-MIN KAIA 221445Z AUTO 36018G23KT 10SM CLR 21/02 A3010 3770 28 5400 350/18G23 RMK AO2 PK WND 36031/1415 T02110022
24044KAIA AIA20160622075014606/22/16 07:50:31  5-MIN KAIA 221450Z AUTO 35018G24KT 10SM CLR 21/02 A3010 3770 27 5400 340/18G24 RMK AO2 PK WND 36031/1415 SLP143 T02110017 53033
24044KAIA AIA20160622075513306/22/16 07:55:31  5-MIN KAIA 221455Z AUTO 36019G26KT 10SM CLR 21/02 A3010 3770 28 5400 350/19G26 RMK AO2 PK WND 36026/1454 T02110022
24044KAIA AIA20160622080013306/22/16 08:00:31  5-MIN KAIA 221500Z AUTO 35019G26KT 10SM CLR 21/03 A3010 3770 29 5400 340/19G26 RMK AO2 PK WND 36026/1454 T02110028
24044KAIA AIA20160622080513306/22/16 08:05:31  5-MIN KAIA 221505Z AUTO 35019G25KT 10SM CLR 22/02 A3010 3770 27 5400 340/19G25 RMK AO2 PK WND 36026/1454 T02170022
24044KAIA AIA20160622081013306/22/16 08:10:31  5-MIN KAIA 221510Z AUTO 01017G25KT 10SM CLR 22/03 A3010 3770 28 5400 360/17G25 RMK AO2 PK WND 36026/1454 T02170028
24044KAIA AIA20160622081513306/22/16 08:15:31  5-MIN KAIA 221515Z AUTO 36019G24KT 10SM CLR 22/02 A3010 3770 27 5400 360/19G24 RMK AO2 PK WND 36026/1454 T02170022
24044KAIA AIA20160622082012706/22/16 08:20:31  5-MIN KAIA 221520Z AUTO 36016KT 10SM CLR 22/03 A3010 3770 27 5500 350/16 RMK AO2 PK WND 36026/1454 T02220028
24044KAIA AIA20160622082513306/22/16 08:25:31  5-MIN KAIA 221525Z AUTO 35018G22KT 10SM CLR 22/03 A3010 3760 27 5500 340/18G22 RMK AO2 PK WND 36026/1454 T02220028
24044KAIA AIA20160622083013306/22/16 08:30:31  5-MIN KAIA 221530Z AUTO 35016G22KT 10SM CLR 22/03 A3010 3760 27 5500 340/16G22 RMK AO2 PK WND 36026/1454 T02220028
24044KAIA AIA20160622083513306/22/16 08:35:31  5-MIN KAIA 221535Z AUTO 36015G22KT 10SM CLR 22/03 A3010 3760 27 5500 350/15G22 RMK AO2 PK WND 36026/1454 T02220028
24044KAIA AIA20160622084013306/22/16 08:40:31  5-MIN KAIA 221540Z AUTO 36016G23KT 10SM CLR 22/02 A3010 3770 26 5500 360/16G23 RMK AO2 PK WND 36026/1454 T02220022
24044KAIA AIA20160622084513306/22/16 08:45:31  5-MIN KAIA 221545Z AUTO 35017G23KT 10SM CLR 23/03 A3010 3760 26 5500 340/17G23 RMK AO2 PK WND 36026/1454 T02280028
24044KAIA AIA20160622085014006/22/16 08:50:31  5-MIN KAIA 221550Z AUTO 01015G23KT 10SM CLR 23/02 A3010 3760 25 5500 360/15G23 RMK AO2 PK WND 36026/1454 SLP144 T02280022
24044KAIA AIA20160622085511506/22/16 08:55:31  5-MIN KAIA 221555Z AUTO 36013G23KT 10SM CLR 23/02 A3010 3760 25 5500 350/13G23 RMK AO2 T02280022
24044KAIA AIA20160622090011506/22/16 09:00:31  5-MIN KAIA 221600Z AUTO 36012G22KT 10SM CLR 23/03 A3011 3760 25 5600 360/12G22 RMK AO2 T02330028
24044KAIA AIA20160622090511506/22/16 09:05:31  5-MIN KAIA 221605Z AUTO 35013G22KT 10SM CLR 24/03 A3011 3760 25 5700 340/13G22 RMK AO2 T02390028
24044KAIA AIA20160622091010906/22/16 09:10:31  5-MIN KAIA 221610Z AUTO 36015KT 10SM CLR 23/03 A3011 3760 25 5600 350/15 RMK AO2 T02330028
24044KAIA AIA20160622091511506/22/16 09:15:31  5-MIN KAIA 221615Z AUTO 34015G21KT 10SM CLR 24/03 A3010 3760 26 5700 330/15G21 RMK AO2 T02390033
24044KAIA AIA20160622092011506/22/16 09:20:31  5-MIN KAIA 221620Z AUTO 36012G21KT 10SM CLR 24/03 A3011 3760 26 5700 350/12G21 RMK AO2 T02390033
24044KAIA AIA20160622092511506/22/16 09:25:31  5-MIN KAIA 221625Z AUTO 34014G19KT 10SM CLR 24/03 A3011 3760 25 5700 330/14G19 RMK AO2 T02390028
24044KAIA AIA20160622093010906/22/16 09:30:31  5-MIN KAIA 221630Z AUTO 34014KT 10SM CLR 24/03 A3011 3760 25 5700 340/14 RMK AO2 T02390028
24044KAIA AIA20160622093510906/22/16 09:35:31  5-MIN KAIA 221635Z AUTO 36014KT 10SM CLR 24/03 A3011 3760 24 5700 350/14 RMK AO2 T02440028
24044KAIA AIA20160622094010906/22/16 09:40:31  5-MIN KAIA 221640Z AUTO 36012KT 10SM CLR 24/03 A3011 3760 25 5700 350/12 RMK AO2 T02390028
24044KAIA AIA20160622094510906/22/16 09:45:31  5-MIN KAIA 221645Z AUTO 34013KT 10SM CLR 24/03 A3011 3760 26 5700 330/13 RMK AO2 T02390033
24044KAIA AIA20160622095011606/22/16 09:50:31  5-MIN KAIA 221650Z AUTO 33013KT 10SM CLR 24/04 A3011 3760 26 5700 330/13 RMK AO2 SLP144 T02440039
24044KAIA AIA20160622095510906/22/16 09:55:31  5-MIN KAIA 221655Z AUTO 35009KT 10SM CLR 24/03 A3011 3760 25 5700 340/09 RMK AO2 T02440033
24044KAIA AIA20160622100011506/22/16 10:00:31  5-MIN KAIA 221700Z AUTO 02011G19KT 10SM CLR 25/03 A3011 3760 24 5800 010/11G19 RMK AO2 T02500033
24044KAIA AIA20160622100511506/22/16 10:05:31  5-MIN KAIA 221705Z AUTO 33015G20KT 10SM CLR 25/03 A3011 3760 24 5800 330/15G20 RMK AO2 T02500033
24044KAIA AIA20160622101011506/22/16 10:10:31  5-MIN KAIA 221710Z AUTO 32011G20KT 10SM CLR 24/03 A3011 3760 25 5700 320/11G20 RMK AO2 T02440033
24044KAIA AIA20160622101510906/22/16 10:15:31  5-MIN KAIA 221715Z AUTO 32012KT 10SM CLR 25/03 A3011 3760 24 5800 320/12 RMK AO2 T02500033
24044KAIA AIA20160622102010906/22/16 10:20:31  5-MIN KAIA 221720Z AUTO 34010KT 10SM CLR 25/03 A3011 3760 24 5800 330/10 RMK AO2 T02500033
24044KAIA AIA20160622102510906/22/16 10:25:31  5-MIN KAIA 221725Z AUTO 34012KT 10SM CLR 25/03 A3011 3760 24 5800 330/12 RMK AO2 T02500033
24044KAIA AIA20160622103011506/22/16 10:30:31  5-MIN KAIA 221730Z AUTO 34010G16KT 10SM CLR 25/03 A3011 3760 24 5800 330/10G16 RMK AO2 T02500033
24044KAIA AIA20160622103511506/22/16 10:35:31  5-MIN KAIA 221735Z AUTO 35011G16KT 10SM CLR 24/03 A3011 3760 24 5700 340/11G16 RMK AO2 T02440028
24044KAIA AIA20160622104011506/22/16 10:40:31  5-MIN KAIA 221740Z AUTO 35009G18KT 10SM CLR 25/03 A3011 3760 24 5800 340/09G18 RMK AO2 T02500033
24044KAIA AIA20160622104511506/22/16 10:45:31  5-MIN KAIA 221745Z AUTO 34011G18KT 10SM CLR 26/03 A3011 3760 22 5900 330/11G18 RMK AO2 T02610033
24044KAIA AIA20160622105014006/22/16 10:50:31  5-MIN KAIA 221750Z AUTO 33010G15KT 10SM CLR 26/03 A3011 3760 23 5800 320/10G15 RMK AO2 SLP149 T02560033 10261 20167 51017
24044KAIA AIA20160622105512506/22/16 10:55:31  5-MIN KAIA 221755Z AUTO 34010KT 320V030 10SM CLR 26/03 A3011 3760 22 5900 330/10 310V020 RMK AO2 T02610033
24044KAIA AIA20160622110010906/22/16 11:00:31  5-MIN KAIA 221800Z AUTO 35011KT 10SM CLR 26/03 A3011 3760 23 5900 350/11 RMK AO2 T02560033
24044KAIA AIA20160622110510906/22/16 11:05:31  5-MIN KAIA 221805Z AUTO 33009KT 10SM CLR 26/03 A3010 3760 22 5900 320/09 RMK AO2 T02610033
24044KAIA AIA20160622111010906/22/16 11:10:31  5-MIN KAIA 221810Z AUTO 35010KT 10SM CLR 26/03 A3010 3760 22 5900 340/10 RMK AO2 T02610033
24044KAIA AIA20160622111511506/22/16 11:15:31  5-MIN KAIA 221815Z AUTO VRB04G15KT 10SM CLR 26/03 A3010 3770 23 5900 VRB/04G15 RMK AO2 T02560033
24044KAIA AIA20160622112009906/22/16 11:20:31  5-MIN KAIA 221820Z AUTO 10SM CLR 26/03 A3010 3760 22 5900 M /M RMK AO2 T02610033
24044KAIA AIA20160622112510906/22/16 11:25:31  5-MIN KAIA 221825Z AUTO 36006KT 10SM CLR 26/03 A3010 3760 21 5900 350/06 RMK AO2 T02610028
24044KAIA AIA20160622113010906/22/16 11:30:31  5-MIN KAIA 221830Z AUTO 31006KT 10SM CLR 26/03 A3010 3770 22 5900 310/06 RMK AO2 T02610033
24044KAIA AIA20160622113510906/22/16 11:35:31  5-MIN KAIA 221835Z AUTO 35007KT 10SM CLR 27/03 A3010 3770 22 6000 350/07 RMK AO2 T02670033
24044KAIA AIA20160622114010906/22/16 11:40:31  5-MIN KAIA 221840Z AUTO 34009KT 10SM CLR 27/04 A3010 3770 22 6000 330/09 RMK AO2 T02670039
24044KAIA AIA20160622114510906/22/16 11:45:31  5-MIN KAIA 221845Z AUTO VRB05KT 10SM CLR 27/04 A3010 3770 22 6000 VRB/05 RMK AO2 T02670039
24044KAIA AIA20160622115011606/22/16 11:50:31  5-MIN KAIA 221850Z AUTO VRB04KT 10SM CLR 27/03 A3010 3770 22 6000 VRB/04 RMK AO2 SLP147 T02670033
24044KAIA AIA20160622115509906/22/16 11:55:31  5-MIN KAIA 221855Z AUTO 10SM CLR 27/03 A3010 3770 22 6000 M /M RMK AO2 T02670033
24044KAIA AIA20160622120010906/22/16 12:00:31  5-MIN KAIA 221900Z AUTO VRB06KT 10SM CLR 27/04 A3010 3770 22 6000 VRB/06 RMK AO2 T02720039
24044KAIA AIA20160622120510906/22/16 12:05:31  5-MIN KAIA 221905Z AUTO VRB04KT 10SM CLR 28/04 A3010 3770 22 6100 VRB/04 RMK AO2 T02780044
24044KAIA AIA20160622121010906/22/16 12:10:31  5-MIN KAIA 221910Z AUTO VRB06KT 10SM CLR 28/04 A3010 3770 21 6100 VRB/06 RMK AO2 T02780039
24044KAIA AIA20160622121510906/22/16 12:15:31  5-MIN KAIA 221915Z AUTO 29005KT 10SM CLR 27/03 A3010 3770 22 6000 280/05 RMK AO2 T02670033
24044KAIA AIA20160622122010906/22/16 12:20:31  5-MIN KAIA 221920Z AUTO VRB03KT 10SM CLR 27/03 A3010 3770 22 6000 VRB/03 RMK AO2 T02670033
24044KAIA AIA20160622122510906/22/16 12:25:31  5-MIN KAIA 221925Z AUTO 30007KT 10SM CLR 27/04 A3010 3770 22 6000 290/07 RMK AO2 T02670039
24044KAIA AIA20160622123010906/22/16 12:30:31  5-MIN KAIA 221930Z AUTO VRB05KT 10SM CLR 27/04 A3010 3770 22 6000 VRB/05 RMK AO2 T02720039
24044KAIA AIA20160622123510906/22/16 12:35:31  5-MIN KAIA 221935Z AUTO VRB03KT 10SM CLR 27/04 A3009 3770 22 6000 VRB/03 RMK AO2 T02720039
24044KAIA AIA20160622124010906/22/16 12:40:31  5-MIN KAIA 221940Z AUTO 02004KT 10SM CLR 28/04 A3009 3770 21 6200 010/04 RMK AO2 T02830044
24044KAIA AIA20160622124510906/22/16 12:45:31  5-MIN KAIA 221945Z AUTO 00000KT 10SM CLR 27/04 A3009 3780 22 6100 000/00 RMK AO2 T02720039
24044KAIA AIA20160622125011606/22/16 12:50:31  5-MIN KAIA 221950Z AUTO 03006KT 10SM CLR 28/04 A3009 3780 22 6100 020/06 RMK AO2 SLP142 T02780044
24044KAIA AIA20160622125510906/22/16 12:55:31  5-MIN KAIA 221955Z AUTO VRB04KT 10SM CLR 28/04 A3009 3780 21 6200 VRB/04 RMK AO2 T02830044
24044KAIA AIA20160622130010906/22/16 13:00:31  5-MIN KAIA 222000Z AUTO VRB03KT 10SM CLR 28/04 A3009 3780 21 6100 VRB/03 RMK AO2 T02780039
24044KAIA AIA20160622130510906/22/16 13:05:31  5-MIN KAIA 222005Z AUTO 00000KT 10SM CLR 28/04 A3009 3780 22 6100 000/00 RMK AO2 T02780044
24044KAIA AIA20160622131009906/22/16 13:10:31  5-MIN KAIA 222010Z AUTO 10SM CLR 27/05 A3008 3780 24 6100 M /M RMK AO2 T02720050
24044KAIA AIA20160622131510906/22/16 13:15:31  5-MIN KAIA 222015Z AUTO VRB05KT 10SM CLR 28/04 A3008 3780 22 6100 VRB/05 RMK AO2 T02780044
24044KAIA AIA20160622132010906/22/16 13:20:31  5-MIN KAIA 222020Z AUTO 26007KT 10SM CLR 29/05 A3009 3780 21 6200 250/07 RMK AO2 T02890050
24044KAIA AIA20160622132510906/22/16 13:25:31  5-MIN KAIA 222025Z AUTO 28006KT 10SM CLR 28/05 A3008 3790 22 6200 280/06 RMK AO2 T02830050
24044KAIA AIA20160622133010906/22/16 13:30:31  5-MIN KAIA 222030Z AUTO VRB03KT 10SM CLR 28/05 A3008 3790 23 6100 VRB/03 RMK AO2 T02780050
24044KAIA AIA20160622133510906/22/16 13:35:31  5-MIN KAIA 222035Z AUTO VRB03KT 10SM CLR 28/05 A3008 3790 23 6100 VRB/03 RMK AO2 T02780050
24044KAIA AIA20160622134010906/22/16 13:40:31  5-MIN KAIA 222040Z AUTO 24005KT 10SM CLR 28/05 A3008 3790 22 6200 230/05 RMK AO2 T02830050
24044KAIA AIA20160622134510906/22/16 13:45:31  5-MIN KAIA 222045Z AUTO VRB03KT 10SM CLR 28/05 A3008 3790 22 6200 VRB/03 RMK AO2 T02830050
24044KAIA AIA20160622135012206/22/16 13:50:31  5-MIN KAIA 222050Z AUTO 24006KT 10SM CLR 28/06 A3008 3790 23 6200 230/06 RMK AO2 SLP135 T02830056 50002
24044KAIA AIA20160622135510906/22/16 13:55:31  5-MIN KAIA 222055Z AUTO VRB04KT 10SM CLR 28/05 A3007 3790 22 6200 VRB/04 RMK AO2 T02830050
24044KAIA AIA20160622140010906/22/16 14:00:31  5-MIN KAIA 222100Z AUTO 24003KT 10SM CLR 28/05 A3007 3790 23 6100 230/03 RMK AO2 T02780050
24044KAIA AIA20160622140510906/22/16 14:05:31  5-MIN KAIA 222105Z AUTO VRB05KT 10SM CLR 29/05 A3007 3790 21 6300 VRB/05 RMK AO2 T02890050
24044KAIA AIA20160622141010906/22/16 14:10:31  5-MIN KAIA 222110Z AUTO 24004KT 10SM CLR 29/05 A3007 3790 21 6300 230/04 RMK AO2 T02890050
24044KAIA AIA20160622141510906/22/16 14:15:31  5-MIN KAIA 222115Z AUTO 25006KT 10SM CLR 29/05 A3007 3790 21 6300 250/06 RMK AO2 T02890050
24044KAIA AIA20160622142010906/22/16 14:20:31  5-MIN KAIA 222120Z AUTO 00000KT 10SM CLR 29/05 A3007 3790 21 6300 000/00 RMK AO2 T02890050
24044KAIA AIA20160622142510906/22/16 14:25:31  5-MIN KAIA 222125Z AUTO VRB04KT 10SM CLR 29/06 A3007 3800 22 6300 VRB/04 RMK AO2 T02890056
24044KAIA AIA20160622143010906/22/16 14:30:31  5-MIN KAIA 222130Z AUTO 31006KT 10SM CLR 29/06 A3007 3800 21 6300 300/06 RMK AO2 T02940056
24044KAIA AIA20160622143510906/22/16 14:35:31  5-MIN KAIA 222135Z AUTO 31005KT 10SM CLR 29/05 A3007 3800 21 6300 300/05 RMK AO2 T02890050
24044KAIA AIA20160622144010906/22/16 14:40:31  5-MIN KAIA 222140Z AUTO 00000KT 10SM CLR 29/06 A3006 3800 22 6300 000/00 RMK AO2 T02890056
24044KAIA AIA20160622144510906/22/16 14:45:31  5-MIN KAIA 222145Z AUTO 29005KT 10SM CLR 29/06 A3006 3800 22 6300 280/05 RMK AO2 T02940061
24044KAIA AIA20160622145011606/22/16 14:50:31  5-MIN KAIA 222150Z AUTO 28004KT 10SM CLR 29/06 A3006 3810 22 6300 270/04 RMK AO2 SLP131 T02890056
24044KAIA AIA20160622145510906/22/16 14:55:31  5-MIN KAIA 222155Z AUTO 32004KT 10SM CLR 29/06 A3006 3810 22 6300 310/04 RMK AO2 T02890056
24044KAIA AIA20160622150010906/22/16 15:00:31  5-MIN KAIA 222200Z AUTO 03003KT 10SM CLR 29/05 A3006 3810 21 6300 020/03 RMK AO2 T02940050
24044KAIA AIA20160622150510906/22/16 15:05:31  5-MIN KAIA 222205Z AUTO VRB03KT 10SM CLR 30/06 A3006 3810 21 6400 VRB/03 RMK AO2 T03000056
24044KAIA AIA20160622151010906/22/16 15:10:31  5-MIN KAIA 222210Z AUTO 28006KT 10SM CLR 30/06 A3005 3810 21 6400 270/06 RMK AO2 T03000056
24044KAIA AIA20160622151510906/22/16 15:15:31  5-MIN KAIA 222215Z AUTO VRB04KT 10SM CLR 29/05 A3005 3810 21 6300 VRB/04 RMK AO2 T02940050
24044KAIA AIA20160622152010906/22/16 15:20:31  5-MIN KAIA 222220Z AUTO 27006KT 10SM CLR 29/05 A3005 3810 21 6300 260/06 RMK AO2 T02940050
24044KAIA AIA20160622152510906/22/16 15:25:31  5-MIN KAIA 222225Z AUTO VRB04KT 10SM CLR 29/04 A3005 3810 20 6300 VRB/04 RMK AO2 T02940044
24044KAIA AIA20160622153010906/22/16 15:30:31  5-MIN KAIA 222230Z AUTO 00000KT 10SM CLR 29/04 A3005 3810 19 6300 000/00 RMK AO2 T02940039
24044KAIA AIA20160622153510906/22/16 15:35:31  5-MIN KAIA 222235Z AUTO 26006KT 10SM CLR 29/04 A3005 3810 20 6300 250/06 RMK AO2 T02940044
24044KAIA AIA20160622154010906/22/16 15:40:31  5-MIN KAIA 222240Z AUTO 00000KT 10SM CLR 29/04 A3005 3820 19 6300 000/00 RMK AO2 T02940039
24044KAIA AIA20160622154510906/22/16 15:45:31  5-MIN KAIA 222245Z AUTO 32004KT 10SM CLR 30/04 A3005 3820 19 6400 310/04 RMK AO2 T03000044
24044KAIA AIA20160622155011606/22/16 15:50:31  5-MIN KAIA 222250Z AUTO 23004KT 10SM CLR 29/05 A3005 3820 21 6300 220/04 RMK AO2 SLP128 T02940050
24044KAIA AIA20160622155510906/22/16 15:55:31  5-MIN KAIA 222255Z AUTO 33005KT 10SM CLR 31/05 A3005 3820 19 6500 320/05 RMK AO2 T03060050
24044KAIA AIA20160622160010906/22/16 16:00:31  5-MIN KAIA 222300Z AUTO VRB04KT 10SM CLR 29/04 A3005 3820 20 6300 VRB/04 RMK AO2 T02940044
24044KAIA AIA20160622160510906/22/16 16:05:31  5-MIN KAIA 222305Z AUTO VRB03KT 10SM CLR 29/05 A3004 3820 21 6300 VRB/03 RMK AO2 T02940050
24044KAIA AIA20160622161010906/22/16 16:10:31  5-MIN KAIA 222310Z AUTO 35004KT 10SM CLR 30/04 A3004 3820 19 6400 340/04 RMK AO2 T03000044
24044KAIA AIA20160622161510906/22/16 16:15:31  5-MIN KAIA 222315Z AUTO 36005KT 10SM CLR 31/04 A3004 3820 19 6500 350/05 RMK AO2 T03060044
24044KAIA AIA20160622162010906/22/16 16:20:31  5-MIN KAIA 222320Z AUTO 35005KT 10SM CLR 30/04 A3004 3820 18 6400 340/05 RMK AO2 T03000039
24044KAIA AIA20160622162510906/22/16 16:25:31  5-MIN KAIA 222325Z AUTO VRB03KT 10SM CLR 30/04 A3004 3820 18 6400 VRB/03 RMK AO2 T03000039
24044KAIA AIA20160622163010906/22/16 16:30:31  5-MIN KAIA 222330Z AUTO 34004KT 10SM CLR 31/05 A3004 3820 19 6500 330/04 RMK AO2 T03060050
24044KAIA AIA20160622163510906/22/16 16:35:31  5-MIN KAIA 222335Z AUTO 00000KT 10SM CLR 30/04 A3004 3820 19 6400 000/00 RMK AO2 T03000044
24044KAIA AIA20160622164010906/22/16 16:40:31  5-MIN KAIA 222340Z AUTO 02004KT 10SM CLR 31/06 A3004 3820 20 6500 010/04 RMK AO2 T03060056
24044KAIA AIA20160622164510906/22/16 16:45:31  5-MIN KAIA 222345Z AUTO 08005KT 10SM CLR 30/04 A3005 3820 19 6400 070/05 RMK AO2 T03000044
24044KAIA AIA20160622165013406/22/16 16:50:31  5-MIN KAIA 222350Z AUTO 06004KT 10SM CLR 29/05 A3005 3820 21 6300 050/04 RMK AO2 SLP129 T02940050 10306 20256 58010
24044KAIA AIA20160622165510906/22/16 16:55:31  5-MIN KAIA 222355Z AUTO VRB03KT 10SM CLR 29/05 A3005 3820 21 6300 VRB/03 RMK AO2 T02940050
24044KAIA AIA20160622170010906/22/16 17:00:31  5-MIN KAIA 230000Z AUTO VRB03KT 10SM CLR 29/05 A3005 3820 21 6300 VRB/03 RMK AO2 T02940050
24044KAIA AIA20160622170510906/22/16 17:05:31  5-MIN KAIA 230005Z AUTO 13006KT 10SM CLR 29/05 A3005 3820 21 6300 120/06 RMK AO2 T02940050
24044KAIA AIA20160622171010906/22/16 17:10:31  5-MIN KAIA 230010Z AUTO 13007KT 10SM CLR 29/06 A3005 3820 21 6300 120/07 RMK AO2 T02940056
24044KAIA AIA20160622171510906/22/16 17:15:31  5-MIN KAIA 230015Z AUTO 15009KT 10SM CLR 29/06 A3005 3820 22 6300 140/09 RMK AO2 T02890056
24044KAIA AIA20160622172010906/22/16 17:20:31  5-MIN KAIA 230020Z AUTO 17010KT 10SM CLR 29/06 A3005 3820 22 6300 160/10 RMK AO2 T02890056
24044KAIA AIA20160622172510906/22/16 17:25:31  5-MIN KAIA 230025Z AUTO 17010KT 10SM CLR 29/05 A3005 3810 21 6300 160/10 RMK AO2 T02890050
24044KAIA AIA20160622173010906/22/16 17:30:31  5-MIN KAIA 230030Z AUTO 18008KT 10SM CLR 29/05 A3005 3810 21 6300 180/08 RMK AO2 T02890050
24044KAIA AIA20160622173510906/22/16 17:35:31  5-MIN KAIA 230035Z AUTO 18009KT 10SM CLR 29/06 A3005 3810 22 6300 170/09 RMK AO2 T02890056
24044KAIA AIA20160622174010906/22/16 17:40:31  5-MIN KAIA 230040Z AUTO 16008KT 10SM CLR 28/06 A3005 3810 23 6200 160/08 RMK AO2 T02830056
24044KAIA AIA20160622174510906/22/16 17:45:31  5-MIN KAIA 230045Z AUTO 19007KT 10SM CLR 28/06 A3006 3810 23 6200 180/07 RMK AO2 T02830056
24044KAIA AIA20160622175011606/22/16 17:50:31  5-MIN KAIA 230050Z AUTO 16005KT 10SM CLR 28/06 A3006 3810 23 6200 150/05 RMK AO2 SLP133 T02830056
24044KAIA AIA20160622175510906/22/16 17:55:31  5-MIN KAIA 230055Z AUTO 14006KT 10SM CLR 28/06 A3005 3810 25 6200 140/06 RMK AO2 T02780061
24044KAIA AIA20160622180010906/22/16 18:00:31  5-MIN KAIA 230100Z AUTO 16008KT 10SM CLR 28/07 A3006 3800 26 6100 150/08 RMK AO2 T02780067
24044KAIA AIA20160622180510906/22/16 18:05:31  5-MIN KAIA 230105Z AUTO 15007KT 10SM CLR 27/07 A3006 3800 27 6000 140/07 RMK AO2 T02670067
24044KAIA AIA20160622181010906/22/16 18:10:31  5-MIN KAIA 230110Z AUTO 17006KT 10SM CLR 26/07 A3006 3800 29 6000 160/06 RMK AO2 T02610072
24044KAIA AIA20160622181510906/22/16 18:15:31  5-MIN KAIA 230115Z AUTO 17008KT 10SM CLR 26/07 A3007 3800 30 5900 160/08 RMK AO2 T02560072
24044KAIA AIA20160622182010906/22/16 18:20:31  5-MIN KAIA 230120Z AUTO 17007KT 10SM CLR 26/07 A3007 3800 30 5900 160/07 RMK AO2 T02560072
24044KAIA AIA20160622182510906/22/16 18:25:31  5-MIN KAIA 230125Z AUTO 17008KT 10SM CLR 25/08 A3007 3800 33 5800 160/08 RMK AO2 T02500078
24044KAIA AIA20160622183010906/22/16 18:30:31  5-MIN KAIA 230130Z AUTO 16007KT 10SM CLR 26/07 A3007 3790 30 5900 160/07 RMK AO2 T02560072
24044KAIA AIA20160622183510906/22/16 18:35:31  5-MIN KAIA 230135Z AUTO 16008KT 10SM CLR 26/07 A3007 3790 30 5900 150/08 RMK AO2 T02560072
24044KAIA AIA20160622184010906/22/16 18:40:31  5-MIN KAIA 230140Z AUTO 16008KT 10SM CLR 25/07 A3007 3790 31 5800 150/08 RMK AO2 T02500072
24044KAIA AIA20160622184510906/22/16 18:45:31  5-MIN KAIA 230145Z AUTO 16008KT 10SM CLR 24/08 A3008 3790 34 5800 150/08 RMK AO2 T02440078
24044KAIA AIA20160622185011606/22/16 18:50:31  5-MIN KAIA 230150Z AUTO 16007KT 10SM CLR 24/08 A3008 3790 34 5800 160/07 RMK AO2 SLP142 T02440078
24044KAIA AIA20160622185510906/22/16 18:55:31  5-MIN KAIA 230155Z AUTO 17007KT 10SM CLR 23/08 A3008 3790 38 5600 160/07 RMK AO2 T02330083
24044KAIA AIA20160622190010906/22/16 19:00:31  5-MIN KAIA 230200Z AUTO 17006KT 10SM CLR 23/08 A3008 3790 39 5600 160/06 RMK AO2 T02280083
24044KAIA AIA20160622190510906/22/16 19:05:31  5-MIN KAIA 230205Z AUTO 17007KT 10SM CLR 22/09 A3008 3790 42 5500 160/07 RMK AO2 T02220089
24044KAIA AIA20160622191010906/22/16 19:10:31  5-MIN KAIA 230210Z AUTO 16005KT 10SM CLR 22/09 A3008 3790 43 5500 160/05 RMK AO2 T02170089
24044KAIA AIA20160622191510906/22/16 19:15:31  5-MIN KAIA 230215Z AUTO 17006KT 10SM CLR 22/09 A3008 3790 43 5500 160/06 RMK AO2 T02170089
24044KAIA AIA20160622192010906/22/16 19:20:31  5-MIN KAIA 230220Z AUTO 16007KT 10SM CLR 21/09 A3008 3790 45 5400 150/07 RMK AO2 T02110089
24044KAIA AIA20160622192510906/22/16 19:25:31  5-MIN KAIA 230225Z AUTO 16007KT 10SM CLR 21/09 A3008 3790 46 5300 150/07 RMK AO2 T02060089
24044KAIA AIA20160622193010906/22/16 19:30:31  5-MIN KAIA 230230Z AUTO 16006KT 10SM CLR 20/09 A3008 3790 48 5300 160/06 RMK AO2 T02000089
24044KAIA AIA20160622193510906/22/16 19:35:31  5-MIN KAIA 230235Z AUTO 17007KT 10SM CLR 20/09 A3008 3780 48 5300 160/07 RMK AO2 T02000089
24044KAIA AIA20160622194010906/22/16 19:40:31  5-MIN KAIA 230240Z AUTO 17006KT 10SM CLR 19/09 A3008 3780 50 5200 160/06 RMK AO2 T01940089
24044KAIA AIA20160622194510906/22/16 19:45:31  5-MIN KAIA 230245Z AUTO 17006KT 10SM CLR 20/08 A3009 3780 46 5300 160/06 RMK AO2 T02000083
24044KAIA AIA20160622195012206/22/16 19:50:31  5-MIN KAIA 230250Z AUTO 16006KT 10SM CLR 19/09 A3009 3780 50 5200 150/06 RMK AO2 SLP149 T01940089 56008
24044KAIA AIA20160622195510906/22/16 19:55:31  5-MIN KAIA 230255Z AUTO 16006KT 10SM CLR 19/08 A3009 3780 48 5200 150/06 RMK AO2 T01940083
24044KAIA AIA20160622200010906/22/16 20:00:31  5-MIN KAIA 230300Z AUTO 16006KT 10SM CLR 19/08 A3009 3780 50 5100 150/06 RMK AO2 T01890083
24044KAIA AIA20160622200510906/22/16 20:05:31  5-MIN KAIA 230305Z AUTO 16006KT 10SM CLR 19/08 A3009 3780 50 5100 150/06 RMK AO2 T01890083
24044KAIA AIA20160622201010906/22/16 20:10:31  5-MIN KAIA 230310Z AUTO 14005KT 10SM CLR 19/08 A3009 3780 50 5100 130/05 RMK AO2 T01890083
24044KAIA AIA20160622201510906/22/16 20:15:31  5-MIN KAIA 230315Z AUTO 12006KT 10SM CLR 19/08 A3009 3780 50 5100 110/06 RMK AO2 T01890083
24044KAIA AIA20160622202010906/22/16 20:20:31  5-MIN KAIA 230320Z AUTO 11006KT 10SM CLR 18/08 A3009 3780 50 5100 110/06 RMK AO2 T01830078
24044KAIA AIA20160622202510906/22/16 20:25:31  5-MIN KAIA 230325Z AUTO 12007KT 10SM CLR 18/08 A3009 3780 50 5100 110/07 RMK AO2 T01830078
24044KAIA AIA20160622203010906/22/16 20:30:31  5-MIN KAIA 230330Z AUTO 13007KT 10SM CLR 18/08 A3009 3770 50 5100 120/07 RMK AO2 T01830078
24044KAIA AIA20160622203510906/22/16 20:35:31  5-MIN KAIA 230335Z AUTO 14007KT 10SM CLR 18/08 A3009 3770 53 5000 130/07 RMK AO2 T01780083
24044KAIA AIA20160622204010906/22/16 20:40:31  5-MIN KAIA 230340Z AUTO 14007KT 10SM CLR 18/08 A3010 3770 53 5000 130/07 RMK AO2 T01780083
24044KAIA AIA20160622204510906/22/16 20:45:31  5-MIN KAIA 230345Z AUTO 14009KT 10SM CLR 18/09 A3010 3770 55 5000 130/09 RMK AO2 T01780089
24044KAIA AIA20160622205011606/22/16 20:50:31  5-MIN KAIA 230350Z AUTO 13007KT 10SM CLR 17/10 A3010 3770 62 4900 120/07 RMK AO2 SLP155 T01720100
24044KAIA AIA20160622205510906/22/16 20:55:31  5-MIN KAIA 230355Z AUTO 13007KT 10SM CLR 17/10 A3010 3770 62 4900 120/07 RMK AO2 T01720100
24044KAIA AIA20160622210010906/22/16 21:00:31  5-MIN KAIA 230400Z AUTO 11005KT 10SM CLR 18/09 A3010 3770 58 5000 100/05 RMK AO2 T01780094
24044KAIA AIA20160622210510906/22/16 21:05:31  5-MIN KAIA 230405Z AUTO 13007KT 10SM CLR 18/08 A3010 3770 52 5100 120/07 RMK AO2 T01830083
24044KAIA AIA20160622211010906/22/16 21:10:31  5-MIN KAIA 230410Z AUTO 10008KT 10SM CLR 18/08 A3010 3770 53 5000 100/08 RMK AO2 T01780083
24044KAIA AIA20160622211510906/22/16 21:15:31  5-MIN KAIA 230415Z AUTO 09008KT 10SM CLR 18/08 A3010 3770 53 5000 080/08 RMK AO2 T01780083
24044KAIA AIA20160622212010906/22/16 21:20:31  5-MIN KAIA 230420Z AUTO 12005KT 10SM CLR 17/09 A3010 3770 60 4900 110/05 RMK AO2 T01670089
24044KAIA AIA20160622212510906/22/16 21:25:31  5-MIN KAIA 230425Z AUTO 14006KT 10SM CLR 17/09 A3011 3760 60 4900 140/06 RMK AO2 T01670089
24044KAIA AIA20160622213010906/22/16 21:30:31  5-MIN KAIA 230430Z AUTO 15006KT 10SM CLR 16/08 A3011 3760 59 4800 150/06 RMK AO2 T01610083
24044KAIA AIA20160622213510906/22/16 21:35:31  5-MIN KAIA 230435Z AUTO 14007KT 10SM CLR 17/08 A3010 3770 57 4900 130/07 RMK AO2 T01670083
24044KAIA AIA20160622214010906/22/16 21:40:31  5-MIN KAIA 230440Z AUTO 15007KT 10SM CLR 16/08 A3010 3770 59 4800 140/07 RMK AO2 T01610083
24044KAIA AIA20160622214510906/22/16 21:45:31  5-MIN KAIA 230445Z AUTO 14007KT 10SM CLR 16/08 A3010 3770 59 4800 130/07 RMK AO2 T01610083
24044KAIA AIA20160622215011606/22/16 21:50:31  5-MIN KAIA 230450Z AUTO 14006KT 10SM CLR 16/09 A3010 3770 62 4800 130/06 RMK AO2 SLP155 T01610089
24044KAIA AIA20160622215510906/22/16 21:55:31  5-MIN KAIA 230455Z AUTO 13005KT 10SM CLR 17/09 A3010 3770 60 4900 120/05 RMK AO2 T01670089
24044KAIA AIA20160622220010906/22/16 22:00:31  5-MIN KAIA 230500Z AUTO 10005KT 10SM CLR 17/08 A3010 3770 57 4900 100/05 RMK AO2 T01670083
24044KAIA AIA20160622220510906/22/16 22:05:31  5-MIN KAIA 230505Z AUTO 11005KT 10SM CLR 17/08 A3010 3770 57 4900 100/05 RMK AO2 T01670083
24044KAIA AIA20160622221010906/22/16 22:10:31  5-MIN KAIA 230510Z AUTO 10006KT 10SM CLR 17/08 A3010 3770 57 4900 090/06 RMK AO2 T01670083
24044KAIA AIA20160622221510906/22/16 22:15:31  5-MIN KAIA 230515Z AUTO 07006KT 10SM CLR 16/09 A3010 3770 62 4800 070/06 RMK AO2 T01610089
24044KAIA AIA20160622222010906/22/16 22:20:31  5-MIN KAIA 230520Z AUTO 10007KT 10SM CLR 17/09 A3009 3780 60 4900 090/07 RMK AO2 T01670089
24044KAIA AIA20160622222510906/22/16 22:25:31  5-MIN KAIA 230525Z AUTO 10006KT 10SM CLR 17/09 A3009 3780 60 4900 100/06 RMK AO2 T01670089
24044KAIA AIA20160622223010906/22/16 22:30:31  5-MIN KAIA 230530Z AUTO 11006KT 10SM CLR 16/08 A3009 3780 59 4800 110/06 RMK AO2 T01610083
24044KAIA AIA20160622223510906/22/16 22:35:31  5-MIN KAIA 230535Z AUTO 12006KT 10SM CLR 16/08 A3009 3780 59 4800 110/06 RMK AO2 T01610083
24044KAIA AIA20160622224010906/22/16 22:40:31  5-MIN KAIA 230540Z AUTO 13006KT 10SM CLR 16/08 A3009 3780 59 4800 120/06 RMK AO2 T01610083
24044KAIA AIA20160622224510906/22/16 22:45:31  5-MIN KAIA 230545Z AUTO 14008KT 10SM CLR 16/08 A3008 3780 59 4800 130/08 RMK AO2 T01610083
24044KAIA AIA20160622225013406/22/16 22:50:31  5-MIN KAIA 230550Z AUTO 14007KT 10SM CLR 16/08 A3008 3780 62 4800 130/07 RMK AO2 SLP149 T01560083 10300 20156 51012
24044KAIA AIA20160622225510906/22/16 22:55:31  5-MIN KAIA 230555Z AUTO 10006KT 10SM CLR 16/08 A3008 3780 62 4800 090/06 RMK AO2 T01560083
24044KAIA AIA20160622230010906/22/16 23:00:31  5-MIN KAIA 230600Z AUTO 09006KT 10SM CLR 16/08 A3008 3780 59 4800 080/06 RMK AO2 T01610083
24044KAIA AIA20160622230510906/22/16 23:05:31  5-MIN KAIA 230605Z AUTO 11006KT 10SM CLR 16/08 A3008 3780 59 4800 100/06 RMK AO2 T01610083
24044KAIA AIA20160622231010906/22/16 23:10:31  5-MIN KAIA 230610Z AUTO 14006KT 10SM CLR 16/08 A3008 3780 62 4800 130/06 RMK AO2 T01560083
24044KAIA AIA20160622231510906/22/16 23:15:31  5-MIN KAIA 230615Z AUTO 14009KT 10SM CLR 15/08 A3008 3790 64 4700 140/09 RMK AO2 T01500083
24044KAIA AIA20160622232010906/22/16 23:20:31  5-MIN KAIA 230620Z AUTO 14009KT 10SM CLR 16/09 A3008 3790 62 4800 130/09 RMK AO2 T01610089
24044KAIA AIA20160622232510906/22/16 23:25:31  5-MIN KAIA 230625Z AUTO 14009KT 10SM CLR 16/09 A3007 3790 62 4800 130/09 RMK AO2 T01610089
24044KAIA AIA20160622233010906/22/16 23:30:31  5-MIN KAIA 230630Z AUTO 15009KT 10SM CLR 16/09 A3007 3800 62 4800 140/09 RMK AO2 T01610089
24044KAIA AIA20160622233510906/22/16 23:35:31  5-MIN KAIA 230635Z AUTO 14009KT 10SM CLR 17/08 A3007 3800 57 4900 130/09 RMK AO2 T01670083
24044KAIA AIA20160622234010906/22/16 23:40:31  5-MIN KAIA 230640Z AUTO 13008KT 10SM CLR 17/08 A3007 3800 57 4900 130/08 RMK AO2 T01670083
24044KAIA AIA20160622234510906/22/16 23:45:31  5-MIN KAIA 230645Z AUTO 13008KT 10SM CLR 16/08 A3007 3800 59 4800 130/08 RMK AO2 T01610083
24044KAIA AIA20160622235012606/22/16 23:50:31  5-MIN KAIA 230650Z AUTO 14007KT 10SM CLR 16/08 A3007 3800 59 4800 130/07 RMK AO2 SLP141 T01610083 403060150
24044KAIA AIA20160622235510906/22/16 23:55:31  5-MIN KAIA 230655Z AUTO 14007KT 10SM CLR 16/08 A3007 3790 59 4800 130/07 RMK AO2 T01610083
24044KAIA AIA20160623000010906/23/16 00:00:31  5-MIN KAIA 230700Z AUTO 14009KT 10SM CLR 17/08 A3007 3790 57 4900 130/09 RMK AO2 T01670083
24044KAIA AIA20160623000510906/23/16 00:05:31  5-MIN KAIA 230705Z AUTO 14008KT 10SM CLR 17/08 A3007 3800 55 5000 130/08 RMK AO2 T01720083
24044KAIA AIA20160623001010906/23/16 00:10:31  5-MIN KAIA 230710Z AUTO 13007KT 10SM CLR 17/08 A3007 3790 55 5000 130/07 RMK AO2 T01720083
24044KAIA AIA20160623001510906/23/16 00:15:31  5-MIN KAIA 230715Z AUTO 14008KT 10SM CLR 17/08 A3007 3790 57 4900 130/08 RMK AO2 T01670083
24044KAIA AIA20160623002010906/23/16 00:20:31  5-MIN KAIA 230720Z AUTO 15009KT 10SM CLR 17/08 A3008 3790 57 4900 140/09 RMK AO2 T01670083
24044KAIA AIA20160623002510906/23/16 00:25:31  5-MIN KAIA 230725Z AUTO 15009KT 10SM CLR 17/08 A3008 3790 57 4900 140/09 RMK AO2 T01670083
24044KAIA AIA20160623003010906/23/16 00:30:31  5-MIN KAIA 230730Z AUTO 14007KT 10SM CLR 17/08 A3008 3790 57 4900 140/07 RMK AO2 T01670083
24044KAIA AIA20160623003510906/23/16 00:35:31  5-MIN KAIA 230735Z AUTO 14005KT 10SM CLR 16/08 A3008 3790 59 4800 130/05 RMK AO2 T01610083
24044KAIA AIA20160623004010906/23/16 00:40:31  5-MIN KAIA 230740Z AUTO 12004KT 10SM CLR 16/08 A3008 3790 59 4800 110/04 RMK AO2 T01610083
24044KAIA AIA20160623004510906/23/16 00:45:31  5-MIN KAIA 230745Z AUTO 14007KT 10SM CLR 16/08 A3008 3790 59 4800 130/07 RMK AO2 T01610083
24044KAIA AIA20160623005011606/23/16 00:50:31  5-MIN KAIA 230750Z AUTO 15010KT 10SM CLR 16/08 A3008 3790 59 4800 140/10 RMK AO2 SLP143 T01610083
24044KAIA AIA20160623005510906/23/16 00:55:31  5-MIN KAIA 230755Z AUTO 14009KT 10SM CLR 17/08 A3008 3790 55 5000 130/09 RMK AO2 T01720083
24044KAIA AIA20160623010010906/23/16 01:00:31  5-MIN KAIA 230800Z AUTO 14009KT 10SM CLR 17/08 A3008 3780 55 4900 130/09 RMK AO2 T01720083
24044KAIA AIA20160623010510906/23/16 01:05:31  5-MIN KAIA 230805Z AUTO 14009KT 10SM CLR 17/08 A3008 3790 55 5000 130/09 RMK AO2 T01720083
24044KAIA AIA20160623011010906/23/16 01:10:31  5-MIN KAIA 230810Z AUTO 13009KT 10SM CLR 17/08 A3008 3790 55 5000 120/09 RMK AO2 T01720083
24044KAIA AIA20160623011510906/23/16 01:15:31  5-MIN KAIA 230815Z AUTO 13010KT 10SM CLR 17/08 A3008 3790 53 5000 120/10 RMK AO2 T01720078
24044KAIA AIA20160623012010906/23/16 01:20:31  5-MIN KAIA 230820Z AUTO 13009KT 10SM CLR 17/08 A3008 3790 53 5000 120/09 RMK AO2 T01720078
24044KAIA AIA20160623012510906/23/16 01:25:31  5-MIN KAIA 230825Z AUTO 12008KT 10SM CLR 17/08 A3007 3790 53 5000 110/08 RMK AO2 T01720078
24044KAIA AIA20160623013010906/23/16 01:30:31  5-MIN KAIA 230830Z AUTO 12007KT 10SM CLR 17/08 A3007 3790 53 5000 110/07 RMK AO2 T01720078
24044KAIA AIA20160623013510906/23/16 01:35:31  5-MIN KAIA 230835Z AUTO 12008KT 10SM CLR 17/08 A3008 3790 53 5000 110/08 RMK AO2 T01720078
24044KAIA AIA20160623014010906/23/16 01:40:31  5-MIN KAIA 230840Z AUTO 11008KT 10SM CLR 17/08 A3008 3790 53 5000 110/08 RMK AO2 T01720078
24044KAIA AIA20160623014510906/23/16 01:45:31  5-MIN KAIA 230845Z AUTO 11009KT 10SM CLR 17/08 A3008 3790 53 5000 100/09 RMK AO2 T01720078
24044KAIA AIA20160623015012206/23/16 01:50:31  5-MIN KAIA 230850Z AUTO 11009KT 10SM CLR 17/08 A3008 3790 53 5000 110/09 RMK AO2 SLP141 T01720078 50000
24044KAIA AIA20160623015510906/23/16 01:55:31  5-MIN KAIA 230855Z AUTO 11009KT 10SM CLR 17/08 A3008 3790 53 5000 110/09 RMK AO2 T01720078
24044KAIA AIA20160623020010906/23/16 02:00:31  5-MIN KAIA 230900Z AUTO 12009KT 10SM CLR 17/08 A3008 3790 57 4900 110/09 RMK AO2 T01670083
24044KAIA AIA20160623020510906/23/16 02:05:31  5-MIN KAIA 230905Z AUTO 12008KT 10SM CLR 17/08 A3008 3790 57 4900 110/08 RMK AO2 T01670083
24044KAIA AIA20160623021010906/23/16 02:10:31  5-MIN KAIA 230910Z AUTO 12008KT 10SM CLR 16/08 A3008 3790 59 4800 110/08 RMK AO2 T01560078
24044KAIA AIA20160623021510906/23/16 02:15:31  5-MIN KAIA 230915Z AUTO 12008KT 10SM CLR 15/08 A3008 3790 62 4700 120/08 RMK AO2 T01500078
24044KAIA AIA20160623022010906/23/16 02:20:31  5-MIN KAIA 230920Z AUTO 12008KT 10SM CLR 15/08 A3008 3790 62 4700 110/08 RMK AO2 T01500078
24044KAIA AIA20160623022510906/23/16 02:25:31  5-MIN KAIA 230925Z AUTO 12008KT 10SM CLR 14/08 A3008 3780 64 4600 120/08 RMK AO2 T01440078
24044KAIA AIA20160623023010906/23/16 02:30:31  5-MIN KAIA 230930Z AUTO 13008KT 10SM CLR 14/08 A3009 3780 64 4600 120/08 RMK AO2 T01440078
24044KAIA AIA20160623023510906/23/16 02:35:31  5-MIN KAIA 230935Z AUTO 13006KT 10SM CLR 14/08 A3009 3780 66 4600 120/06 RMK AO2 T01390078
24044KAIA AIA20160623024010906/23/16 02:40:31  5-MIN KAIA 230940Z AUTO 12005KT 10SM CLR 14/08 A3009 3780 66 4600 120/05 RMK AO2 T01390078
24044KAIA AIA20160624122510906/24/16 12:25:31  5-MIN KAIA 241925Z AUTO 21008KT 10SM CLR 36/07 A2989 3960 16 7200 200/08 RMK AO2 T03560067
24044KAIA AIA20160624123009906/24/16 12:30:31  5-MIN KAIA 241930Z AUTO 10SM CLR 35/06 A2989 3960 15 7100 M /M RMK AO2 T03500056
24044KAIA AIA20160624123510906/24/16 12:35:31  5-MIN KAIA 241935Z AUTO 13004KT 10SM CLR 34/06 A2988 3970 17 7100 120/04 RMK AO2 T03440061
24044KAIA AIA20160624124010906/24/16 12:40:31  5-MIN KAIA 241940Z AUTO VRB04KT 10SM CLR 34/04 A2989 3970 15 7100 VRB/04 RMK AO2 T03440044
24044KAIA AIA20160624124512506/24/16 12:45:31  5-MIN KAIA 241945Z AUTO 20009KT 170V250 10SM CLR 36/08 A2988 3970 17 7200 190/09 160V240 RMK AO2 T03610078
24044KAIA AIA20160624125012206/24/16 12:50:31  5-MIN KAIA 241950Z AUTO 20010G17KT 10SM CLR 36/09 A2988 3970 19 7200 190/10G17 RMK AO2 SLP065 T03560089
24044KAIA AIA20160624125513106/24/16 12:55:31  5-MIN KAIA 241955Z AUTO 23007G17KT 190V270 10SM CLR 36/09 A2988 3970 19 7200 220/07G17 180V260 RMK AO2 T03560089
24044KAIA AIA20160624130010906/24/16 13:00:31  5-MIN KAIA 242000Z AUTO 24010KT 10SM CLR 36/09 A2988 3970 19 7200 230/10 RMK AO2 T03560089
24044KAIA AIA20160624130511506/24/16 13:05:31  5-MIN KAIA 242005Z AUTO 24007G16KT 10SM CLR 35/08 A2988 3970 19 7100 230/07G16 RMK AO2 T03500083
24044KAIA AIA20160624131010906/24/16 13:10:31  5-MIN KAIA 242010Z AUTO VRB03KT 10SM CLR 35/08 A2988 3980 19 7100 VRB/03 RMK AO2 T03500083
24044KAIA AIA20160624131510906/24/16 13:15:31  5-MIN KAIA 242015Z AUTO 18010KT 10SM CLR 36/09 A2988 3970 19 7200 170/10 RMK AO2 T03560089
24044KAIA AIA20160624132010906/24/16 13:20:31  5-MIN KAIA 242020Z AUTO VRB04KT 10SM CLR 34/09 A2988 3980 21 7100 VRB/04 RMK AO2 T03440094
24044KAIA AIA20160624132510906/24/16 13:25:31  5-MIN KAIA 242025Z AUTO 17009KT 10SM CLR 35/09 A2987 3980 19 7100 160/09 RMK AO2 T03500089
24044KAIA AIA20160624133010906/24/16 13:30:31  5-MIN KAIA 242030Z AUTO 20008KT 10SM CLR 36/09 A2987 3980 19 7200 190/08 RMK AO2 T03560089
24044KAIA AIA20160624133510906/24/16 13:35:31  5-MIN KAIA 242035Z AUTO 21007KT 10SM CLR 36/09 A2987 3980 19 7200 200/07 RMK AO2 T03560089
24044KAIA AIA20160624134010906/24/16 13:40:31  5-MIN KAIA 242040Z AUTO 18008KT 10SM CLR 35/08 A2987 3980 19 7100 170/08 RMK AO2 T03500083
24044KAIA AIA20160624134510906/24/16 13:45:31  5-MIN KAIA 242045Z AUTO 15008KT 10SM CLR 36/08 A2986 3990 18 7200 140/08 RMK AO2 T03560083
24044KAIA AIA20160624135012206/24/16 13:50:31  5-MIN KAIA 242050Z AUTO 15011KT 10SM CLR 36/08 A2986 3990 18 7200 150/11 RMK AO2 SLP058 T03560083 58008
24044KAIA AIA20160624135511506/24/16 13:55:31  5-MIN KAIA 242055Z AUTO 16012G16KT 10SM CLR 36/07 A2986 3990 17 7200 150/12G16 RMK AO2 T03560072
24044KAIA AIA20160624140010906/24/16 14:00:31  5-MIN KAIA 242100Z AUTO 15009KT 10SM CLR 36/08 A2986 3990 17 7200 140/09 RMK AO2 T03560078
24044KAIA AIA20160624140510906/24/16 14:05:31  5-MIN KAIA 242105Z AUTO 18004KT 10SM CLR 34/07 A2986 3990 18 7100 170/04 RMK AO2 T03440072
24044KAIA AIA20160624141010906/24/16 14:10:31  5-MIN KAIA 242110Z AUTO 16005KT 10SM CLR 34/07 A2986 3990 18 7100 150/05 RMK AO2 T03440072
24044KAIA AIA20160624141510906/24/16 14:15:31  5-MIN KAIA 242115Z AUTO 15008KT 10SM CLR 34/07 A2986 3990 18 7100 150/08 RMK AO2 T03440072
24044KAIA AIA20160624142010906/24/16 14:20:31  5-MIN KAIA 242120Z AUTO 14007KT 10SM CLR 35/06 A2986 3990 16 7100 130/07 RMK AO2 T03500061
24044KAIA AIA20160624142510906/24/16 14:25:31  5-MIN KAIA 242125Z AUTO 17009KT 10SM CLR 36/06 A2986 3990 16 7200 170/09 RMK AO2 T03560061
24044KAIA AIA20160624143010906/24/16 14:30:31  5-MIN KAIA 242130Z AUTO 16008KT 10SM CLR 36/06 A2987 3980 15 7300 150/08 RMK AO2 T03610061
24044KAIA AIA20160624143510906/24/16 14:35:31  5-MIN KAIA 242135Z AUTO 17008KT 10SM CLR 36/06 A2987 3980 16 7200 160/08 RMK AO2 T03560061
24044KAIA AIA20160624144012506/24/16 14:40:31  5-MIN KAIA 242140Z AUTO 19007KT 140V210 10SM CLR 36/06 A2987 3980 15 7200 180/07 130V200 RMK AO2 T03560056
24044KAIA AIA20160624144510906/24/16 14:45:31  5-MIN KAIA 242145Z AUTO 17008KT 10SM CLR 35/05 A2987 3980 15 7100 160/08 RMK AO2 T03500050
24044KAIA AIA20160624145011606/24/16 14:50:31  5-MIN KAIA 242150Z AUTO 16008KT 10SM CLR 35/05 A2987 3980 15 7100 150/08 RMK AO2 SLP063 T03500050
24044KAIA AIA20160624145510906/24/16 14:55:31  5-MIN KAIA 242155Z AUTO 19014KT 10SM CLR 36/06 A2987 3980 15 7200 180/14 RMK AO2 T03560056
24044KAIA AIA20160624150011506/24/16 15:00:31  5-MIN KAIA 242200Z AUTO 17009G16KT 10SM CLR 36/06 A2987 3980 15 7200 160/09G16 RMK AO2 T03560056
24044KAIA AIA20160624150511506/24/16 15:05:31  5-MIN KAIA 242205Z AUTO 19013G17KT 10SM CLR 35/06 A2987 3980 15 7100 180/13G17 RMK AO2 T03500056
24044KAIA AIA20160624151011506/24/16 15:10:31  5-MIN KAIA 242210Z AUTO 21011G17KT 10SM CLR 35/06 A2987 3980 15 7100 200/11G17 RMK AO2 T03500056
24044KAIA AIA20160624151510906/24/16 15:15:31  5-MIN KAIA 242215Z AUTO 21009KT 10SM CLR 35/06 A2987 3980 15 7100 210/09 RMK AO2 T03500056
24044KAIA AIA20160624152010906/24/16 15:20:31  5-MIN KAIA 242220Z AUTO 21010KT 10SM CLR 35/05 A2987 3980 15 7100 210/10 RMK AO2 T03500050
24044KAIA AIA20160624152510906/24/16 15:25:31  5-MIN KAIA 242225Z AUTO 20010KT 10SM CLR 34/06 A2987 3980 17 7100 190/10 RMK AO2 T03440061
24044KAIA AIA20160624153010906/24/16 15:30:31  5-MIN KAIA 242230Z AUTO 21010KT 10SM CLR 34/07 A2987 3980 17 7100 200/10 RMK AO2 T03440067
24044KAIA AIA20160624153510906/24/16 15:35:31  5-MIN KAIA 242235Z AUTO 19010KT 10SM CLR 35/08 A2987 3980 18 7100 190/10 RMK AO2 T03500078
24044KAIA AIA20160624154011506/24/16 15:40:31  5-MIN KAIA 242240Z AUTO 21013G17KT 10SM CLR 34/08 A2987 3980 19 7100 200/13G17 RMK AO2 T03440083
24044KAIA AIA20160624154511506/24/16 15:45:31  5-MIN KAIA 242245Z AUTO 24010G17KT 10SM CLR 34/07 A2987 3980 17 7100 230/10G17 RMK AO2 T03440067
24044KAIA AIA20160624155011606/24/16 15:50:31  5-MIN KAIA 242250Z AUTO 23011KT 10SM CLR 35/07 A2987 3980 17 7100 220/11 RMK AO2 SLP065 T03500072
24044KAIA AIA20160624155510906/24/16 15:55:31  5-MIN KAIA 242255Z AUTO 24014KT 10SM CLR 36/07 A2987 3980 16 7200 230/14 RMK AO2 T03560067
24044KAIA AIA20160624160010906/24/16 16:00:31  5-MIN KAIA 242300Z AUTO 23014KT 10SM CLR 36/08 A2987 3980 17 7200 220/14 RMK AO2 T03560078
24044KAIA AIA20160624160511506/24/16 16:05:31  5-MIN KAIA 242305Z AUTO 27017G24KT 10SM CLR 36/08 A2988 3970 18 7200 270/17G24 RMK AO2 T03560083
24044KAIA AIA20160624161011806/24/16 16:10:31  5-MIN KAIA 242310Z AUTO 29015G24KT 10SM FEW110 32/06 A2988 3970 19 6800 280/15G24 RMK AO2 T03220061
24044KAIA AIA20160624161512306/24/16 16:15:31  5-MIN KAIA 242315Z AUTO 29012KT 10SM FEW110 32/07 A2987 3980 20 6800 280/12 RMK AO2 WSHFT 2259 T03220067
24044KAIA AIA20160624162012906/24/16 16:20:31  5-MIN KAIA 242320Z AUTO 30020G25KT 10SM FEW110 33/06 A2987 3980 18 6900 300/20G25 RMK AO2 WSHFT 2259 T03280061
24044KAIA AIA20160624162512906/24/16 16:25:31  5-MIN KAIA 242325Z AUTO 31018G25KT 10SM FEW100 32/06 A2987 3980 19 6800 310/18G25 RMK AO2 WSHFT 2259 T03220061
24044KAIA AIA20160624163012306/24/16 16:30:31  5-MIN KAIA 242330Z AUTO 30015KT 10SM SCT100 32/06 A2987 3980 20 6800 290/15 RMK AO2 WSHFT 2259 T03170061
24044KAIA AIA20160624163512306/24/16 16:35:31  5-MIN KAIA 242335Z AUTO 30011KT 10SM BKN110 32/07 A2987 3980 20 6800 290/11 RMK AO2 WSHFT 2259 T03170067
24044KAIA AIA20160624164012306/24/16 16:40:31  5-MIN KAIA 242340Z AUTO 31009KT 10SM SCT110 31/07 A2987 3980 21 6700 300/09 RMK AO2 WSHFT 2259 T03110067
24044KAIA AIA20160624164512306/24/16 16:45:31  5-MIN KAIA 242345Z AUTO 30010KT 10SM FEW110 31/07 A2987 3980 22 6700 290/10 RMK AO2 WSHFT 2259 T03060072
24044KAIA AIA20160624165014806/24/16 16:50:31  5-MIN KAIA 242350Z AUTO 30010KT 10SM FEW110 31/07 A2987 3990 22 6700 290/10 RMK AO2 WSHFT 2259 SLP067 T03060072 10361 20306 58016
24044KAIA AIA20160624165511206/24/16 16:55:31  5-MIN KAIA 242355Z AUTO 30010KT 10SM FEW110 31/08 A2986 3990 23 6700 290/10 RMK AO2 T03060078
24044KAIA AIA20160624170010906/24/16 17:00:31  5-MIN KAIA 250000Z AUTO 30009KT 10SM CLR 31/08 A2986 3990 23 6700 290/09 RMK AO2 T03060078
24044KAIA AIA20160624170510906/24/16 17:05:31  5-MIN KAIA 250005Z AUTO 30010KT 10SM CLR 30/08 A2986 3990 25 6600 290/10 RMK AO2 T03000083
24044KAIA AIA20160624171010906/24/16 17:10:31  5-MIN KAIA 250010Z AUTO 29009KT 10SM CLR 30/08 A2986 3990 24 6600 280/09 RMK AO2 T03000078
24044KAIA AIA20160624171510906/24/16 17:15:31  5-MIN KAIA 250015Z AUTO 29008KT 10SM CLR 30/08 A2986 3990 25 6600 280/08 RMK AO2 T03000083
24044KAIA AIA20160624172010906/24/16 17:20:31  5-MIN KAIA 250020Z AUTO 29008KT 10SM CLR 30/08 A2986 3990 25 6600 280/08 RMK AO2 T03000083
24044KAIA AIA20160624172510906/24/16 17:25:31  5-MIN KAIA 250025Z AUTO 29006KT 10SM CLR 30/09 A2986 3990 26 6600 280/06 RMK AO2 T03000089
24044KAIA AIA20160624173010906/24/16 17:30:31  5-MIN KAIA 250030Z AUTO 27007KT 10SM CLR 29/09 A2986 3990 28 6500 270/07 RMK AO2 T02940094
24044KAIA AIA20160624173510906/24/16 17:35:31  5-MIN KAIA 250035Z AUTO 27007KT 10SM CLR 29/09 A2986 3990 28 6600 260/07 RMK AO2 T02940094
24044KAIA AIA20160624174010906/24/16 17:40:31  5-MIN KAIA 250040Z AUTO 24006KT 10SM CLR 29/09 A2986 3990 29 6500 230/06 RMK AO2 T02890094
24044KAIA AIA20160624174510906/24/16 17:45:31  5-MIN KAIA 250045Z AUTO 20008KT 10SM CLR 29/09 A2985 4000 29 6500 190/08 RMK AO2 T02890094
24044KAIA AIA20160624175014606/24/16 17:50:31  5-MIN KAIA 250050Z AUTO VRB05G19KT 10SM FEW034 FEW049 FEW120 31/07 A2983 4020 22 6800 VRB/05G19 RMK AO2 PRESFR SLP049 T03110072
24044KAIA AIA20160624175510906/24/16 17:55:31  5-MIN KAIA 250055Z AUTO 10SM FEW039 FEW049 32/06 A2983 4020 20 6800 M /M RMK AO2 T03170061
24044KAIA AIA20160624180011806/24/16 18:00:31  5-MIN KAIA 250100Z AUTO 17009G14KT 10SM FEW041 31/09 A2983 4010 25 6700 160/09G14 RMK AO2 T03060089
24044KAIA AIA20160624180512806/24/16 18:05:31  5-MIN KAIA 250105Z AUTO 17012KT 130V190 10SM FEW039 31/08 A2983 4020 24 6700 160/12 120V180 RMK AO2 T03060083
24044KAIA AIA20160624181011206/24/16 18:10:31  5-MIN KAIA 250110Z AUTO 18012KT 10SM FEW039 32/03 A2983 4020 15 6900 170/12 RMK AO2 T03220028
24044KAIA AIA20160624181511206/24/16 18:15:31  5-MIN KAIA 250115Z AUTO 16009KT 10SM FEW039 31/06 A2983 4020 20 6700 150/09 RMK AO2 T03060056
24044KAIA AIA20160624182010906/24/16 18:20:31  5-MIN KAIA 250120Z AUTO 15010KT 10SM CLR 29/09 A2983 4020 29 6500 150/10 RMK AO2 T02890094
24044KAIA AIA20160624182510906/24/16 18:25:31  5-MIN KAIA 250125Z AUTO 16009KT 10SM CLR 28/11 A2983 4010 32 6500 150/09 RMK AO2 T02830106
24044KAIA AIA20160624183010906/24/16 18:30:31  5-MIN KAIA 250130Z AUTO 16010KT 10SM CLR 28/11 A2984 4010 33 6400 160/10 RMK AO2 T02780106
24044KAIA AIA20160624183510906/24/16 18:35:31  5-MIN KAIA 250135Z AUTO 17009KT 10SM CLR 28/10 A2983 4010 32 6400 160/09 RMK AO2 T02780100
24044KAIA AIA20160624184010906/24/16 18:40:31  5-MIN KAIA 250140Z AUTO 16008KT 10SM CLR 27/11 A2983 4010 34 6300 150/08 RMK AO2 T02720106
24044KAIA AIA20160624184510906/24/16 18:45:31  5-MIN KAIA 250145Z AUTO 17009KT 10SM CLR 27/11 A2984 4010 37 6300 160/09 RMK AO2 T02670111
24044KAIA AIA20160624185012706/24/16 18:50:31  5-MIN KAIA 250150Z AUTO 17009KT 10SM CLR 27/11 A2983 4010 37 6300 160/09 RMK AO2 LTG DSNT W SLP053 T02670111
24044KAIA AIA20160624185512006/24/16 18:55:31  5-MIN KAIA 250155Z AUTO 16009KT 10SM CLR 27/10 A2983 4020 34 6300 160/09 RMK AO2 LTG DSNT W T02670100
24044KAIA AIA20160624190012006/24/16 19:00:31  5-MIN KAIA 250200Z AUTO 16006KT 10SM CLR 27/11 A2983 4010 36 6300 150/06 RMK AO2 LTG DSNT W T02670106
24044KAIA AIA20160624190512006/24/16 19:05:31  5-MIN KAIA 250205Z AUTO 17006KT 10SM CLR 26/11 A2984 4010 37 6200 170/06 RMK AO2 LTG DSNT W T02610106
24044KAIA AIA20160624191012706/24/16 19:10:31  5-MIN KAIA 250210Z AUTO 21008KT 10SM CLR 26/11 A2985 4000 40 6100 200/08 RMK AO2 LTG DSNT SW AND W T02560111
24044KAIA AIA20160624191513406/24/16 19:15:31  5-MIN KAIA 250215Z AUTO 22008KT 10SM CLR 26/10 A2986 3990 36 6200 210/08 RMK AO2 LTG DSNT SW AND W PRESRR T02610100
24044KAIA AIA20160624192012806/24/16 19:20:31  5-MIN KAIA 250220Z AUTO 24012KT 10SM CLR 27/09 A2989 3960 33 6200 230/12 RMK AO2 LTG DSNT SW PRESRR T02670094
24044KAIA AIA20160624192515206/24/16 19:25:31  5-MIN KAIA 250225Z AUTO 26018G26KT 10SM CLR 27/10 A2990 3950 34 6200 250/18G26 RMK AO2 PK WND 26026/0223 LTG DSNT SW PRESRR T02670100
24044KAIA AIA20160624193015106/24/16 19:30:31  5-MIN KAIA 250230Z AUTO 27023G30KT 10SM CLR 28/09 A2990 3950 30 6300 260/23G30 RMK AO2 PK WND 27030/0229 LTG DSNT S AND SW T02780089
24044KAIA AIA20160624193516506/24/16 19:35:31  5-MIN KAIA 250235Z AUTO 26026G34KT 10SM FEW110 27/09 A2991 3950 31 6300 250/26G34 RMK AO2 PK WND 26034/0235 WSHFT 0218 LTG DSNT S AND SW T02720089
24044KAIA AIA20160624194017206/24/16 19:40:31  5-MIN KAIA 250240Z AUTO 26024G34KT 10SM FEW075 SCT110 27/09 A2990 3950 33 6200 250/24G34 RMK AO2 PK WND 26034/0235 WSHFT 0218 LTG DSNT S AND SW T02670094
24044KAIA AIA20160624194517206/24/16 19:45:31  5-MIN KAIA 250245Z AUTO 26022G36KT 10SM FEW075 SCT110 26/09 A2990 3950 34 6100 250/22G36 RMK AO2 PK WND 25036/0242 WSHFT 0218 LTG DSNT S AND SW T02610094
24044KAIA AIA20160624195019106/24/16 19:50:31  5-MIN KAIA 250250Z AUTO 26019G36KT 10SM FEW080 SCT110 26/09 A2990 3950 33 6100 260/19G36 RMK AO2 PK WND 25036/0242 WSHFT 0218 LTG DSNT N AND S AND SW SLP072 T02610089 50001
24044KAIA AIA20160624195516706/24/16 19:55:31  5-MIN KAIA 250255Z AUTO 26022G28KT 10SM FEW075 FEW110 27/08 A2991 3950 30 6300 250/22G28 RMK AO2 PK WND 26028/0255 LTG DSNT N AND S AND SW T02720083
24044KAIA AIA20160624200016706/24/16 20:00:31  5-MIN KAIA 250300Z AUTO 26026G38KT 10SM FEW075 FEW110 28/07 A2991 3950 27 6300 260/26G38 RMK AO2 PK WND 27038/0256 LTG DSNT N AND S AND SW T02780072
24044KAIA AIA20160624200516706/24/16 20:05:31  5-MIN KAIA 250305Z AUTO 26028G38KT 10SM FEW075 FEW110 28/07 A2991 3940 25 6400 260/28G38 RMK AO2 PK WND 27038/0256 LTG DSNT N AND S AND SW T02830067
24044KAIA AIA20160624201015706/24/16 20:10:31  5-MIN KAIA 250310Z AUTO 26019G35KT 10SM CLR 28/07 A2991 3940 27 6300 250/19G35 RMK AO2 PK WND 27038/0256 LTG DSNT N AND S AND SW T02780072
24044KAIA AIA20160624201515406/24/16 20:15:31  5-MIN KAIA 250315Z AUTO 27023G34KT 10SM FEW120 28/07 A2991 3940 26 6300 270/23G34 RMK AO2 PK WND 27038/0256 LTG DSNT NE AND S T02780067
24044KAIA AIA20160624202016806/24/16 20:20:31  5-MIN KAIA 250320Z AUTO 24025G41KT 10SM FEW080 SCT120 30/05 A2993 3930 20 6500 230/25G41 RMK AO2 PK WND 23041/0318 LTG DSNT NE AND E PRESRR T03000050
24044KAIA AIA20160624202517706/24/16 20:25:31  5-MIN KAIA 250325Z AUTO 22012G41KT 10SM -RA FEW085 BKN110 31/05 A2992 3940 19 6600 210/12G41 RMK AO2 PK WND 23041/0318 LTG DSNT NE AND E RAB24 P0000 T03060050
24044KAIA AIA20160624203018806/24/16 20:30:31  5-MIN KAIA 250330Z AUTO 21015G26KT 10SM -RA SCT090 BKN110 28/07 A2991 3940 25 6400 200/15G26 RMK AO2 PK WND 23041/0318 WSHFT 0314 LTG DSNT NE AND E RAB24 P0000 T02830067
24044KAIA AIA20160624203518706/24/16 20:35:31  5-MIN KAIA 250335Z AUTO 22011G26KT 10SM FEW090 BKN110 27/08 A2991 3940 31 6200 210/11G26 RMK AO2 PK WND 23041/0318 WSHFT 0314 LTG DSNT NE AND E RAB24E33 P0000 T02670083
24044KAIA AIA20160624204018106/24/16 20:40:31  5-MIN KAIA 250340Z AUTO 21013KT 10SM FEW085 SCT110 27/08 A2991 3950 31 6200 200/13 RMK AO2 PK WND 23041/0318 WSHFT 0314 LTG DSNT NE AND E RAB24E33 P0000 T02670083
24044KAIA AIA20160624204518106/24/16 20:45:31  5-MIN KAIA 250345Z AUTO 21011KT 10SM FEW090 SCT110 26/09 A2991 3950 33 6100 200/11 RMK AO2 PK WND 23041/0318 WSHFT 0314 LTG DSNT NE AND E RAB24E33 P0000 T02610089
24044KAIA AIA20160624205018106/24/16 20:50:31  5-MIN KAIA 250350Z AUTO 21009KT 10SM FEW090 FEW110 26/09 A2990 3950 33 6100 200/09 RMK AO2 PK WND 23041/0318 WSHFT 0314 LTG DSNT E RAB24E33 SLP069 P0000 T02610089
24044KAIA AIA20160624205512306/24/16 20:55:31  5-MIN KAIA 250355Z AUTO 22008KT 10SM FEW090 25/09 A2989 3960 35 6000 210/08 RMK AO2 LTG DSNT E T02500089
24044KAIA AIA20160624210012706/24/16 21:00:31  5-MIN KAIA 250400Z AUTO 20006KT 10SM CLR 24/09 A2988 3970 38 6000 190/06 RMK AO2 LTG DSNT E PRESFR T02440094
24044KAIA AIA20160624210512006/24/16 21:05:31  5-MIN KAIA 250405Z AUTO 18004KT 10SM CLR 24/09 A2988 3970 39 5900 170/04 RMK AO2 LTG DSNT E T02390094
24044KAIA AIA20160624211011606/24/16 21:10:31  5-MIN KAIA 250410Z AUTO 21003KT 10SM CLR 24/09 A2987 3980 39 5900 200/03 RMK AO2 PRESFR T02390094
24044KAIA AIA20160624211511606/24/16 21:15:31  5-MIN KAIA 250415Z AUTO 00000KT 10SM CLR 23/09 A2986 3990 41 5900 000/00 RMK AO2 PRESFR T02330094
24044KAIA AIA20160624212010906/24/16 21:20:31  5-MIN KAIA 250420Z AUTO 00000KT 10SM CLR 24/09 A2986 3990 36 6000 000/00 RMK AO2 T02440089
24044KAIA AIA20160624212510906/24/16 21:25:31  5-MIN KAIA 250425Z AUTO 00000KT 10SM CLR 24/09 A2986 3990 36 6000 000/00 RMK AO2 T02440089
24044KAIA AIA20160624213010906/24/16 21:30:31  5-MIN KAIA 250430Z AUTO 00000KT 10SM CLR 24/09 A2986 3990 36 6000 000/00 RMK AO2 T02440089
24044KAIA AIA20160624213510906/24/16 21:35:31  5-MIN KAIA 250435Z AUTO 00000KT 10SM CLR 24/09 A2986 3990 38 6000 000/00 RMK AO2 T02390089
24044KAIA AIA20160624214010906/24/16 21:40:31  5-MIN KAIA 250440Z AUTO 19003KT 10SM CLR 23/09 A2985 3990 39 5900 190/03 RMK AO2 T02330089
24044KAIA AIA20160624214510906/24/16 21:45:31  5-MIN KAIA 250445Z AUTO 18004KT 10SM CLR 24/08 A2985 4000 34 6000 170/04 RMK AO2 T02440078
24044KAIA AIA20160624215011606/24/16 21:50:31  5-MIN KAIA 250450Z AUTO 16004KT 10SM CLR 24/07 A2985 4000 34 6000 150/04 RMK AO2 SLP051 T02390072
24044KAIA AIA20160624215510906/24/16 21:55:31  5-MIN KAIA 250455Z AUTO 14005KT 10SM CLR 22/08 A2985 4000 39 5800 130/05 RMK AO2 T02220078
24044KAIA AIA20160624220010906/24/16 22:00:31  5-MIN KAIA 250500Z AUTO 15006KT 10SM CLR 21/08 A2985 4000 45 5600 140/06 RMK AO2 T02060083
24044KAIA AIA20160624220510906/24/16 22:05:31  5-MIN KAIA 250505Z AUTO 16006KT 10SM CLR 21/08 A2985 4000 43 5600 150/06 RMK AO2 T02110083
24044KAIA AIA20160624221010906/24/16 22:10:31  5-MIN KAIA 250510Z AUTO 16006KT 10SM CLR 21/08 A2985 4000 43 5600 150/06 RMK AO2 T02110083
24044KAIA AIA20160624221510906/24/16 22:15:31  5-MIN KAIA 250515Z AUTO 18004KT 10SM CLR 20/08 A2986 3990 46 5500 170/04 RMK AO2 T02000083
24044KAIA AIA20160624222010906/24/16 22:20:31  5-MIN KAIA 250520Z AUTO 21004KT 10SM CLR 21/08 A2986 3990 45 5600 200/04 RMK AO2 T02060083
24044KAIA AIA20160624222510906/24/16 22:25:31  5-MIN KAIA 250525Z AUTO 24003KT 10SM CLR 19/08 A2986 3990 48 5400 230/03 RMK AO2 T01940083
24044KAIA AIA20160624223010906/24/16 22:30:31  5-MIN KAIA 250530Z AUTO 22003KT 10SM CLR 19/08 A2986 3990 50 5400 220/03 RMK AO2 T01890083
24044KAIA AIA20160624223509906/24/16 22:35:31  5-MIN KAIA 250535Z AUTO 10SM CLR 19/08 A2987 3980 50 5400 M /M RMK AO2 T01890083
24044KAIA AIA20160624224010906/24/16 22:40:31  5-MIN KAIA 250540Z AUTO 13009KT 10SM CLR 20/09 A2987 3980 48 5500 120/09 RMK AO2 T02000089
24044KAIA AIA20160624224510906/24/16 22:45:31  5-MIN KAIA 250545Z AUTO 12011KT 10SM CLR 23/08 A2987 3980 39 5800 120/11 RMK AO2 T02280083
24044KAIA AIA20160624225014606/24/16 22:50:31  5-MIN KAIA 250550Z AUTO 12014G18KT 10SM CLR 24/09 A2987 3980 36 6000 110/14G18 RMK AO2 SLP055 60000 T02440089 10322 20189 53012
24044KAIA AIA20160624225510906/24/16 22:55:31  5-MIN KAIA 250555Z AUTO 12011KT 10SM CLR 24/09 A2987 3980 36 6000 120/11 RMK AO2 T02440089
24044KAIA AIA20160624230010906/24/16 23:00:31  5-MIN KAIA 250600Z AUTO 12012KT 10SM CLR 24/09 A2987 3980 39 5900 110/12 RMK AO2 T02390094
24044KAIA AIA20160624230510906/24/16 23:05:31  5-MIN KAIA 250605Z AUTO 12011KT 10SM CLR 23/09 A2987 3990 41 5900 120/11 RMK AO2 T02330094
24044KAIA AIA20160624231010906/24/16 23:10:31  5-MIN KAIA 250610Z AUTO 12009KT 10SM CLR 23/09 A2986 3990 41 5900 120/09 RMK AO2 T02330094
24044KAIA AIA20160624231510906/24/16 23:15:31  5-MIN KAIA 250615Z AUTO 13009KT 10SM CLR 23/09 A2987 3990 42 5800 120/09 RMK AO2 T02280094
24044KAIA AIA20160624232010906/24/16 23:20:31  5-MIN KAIA 250620Z AUTO 14008KT 10SM CLR 22/09 A2987 3980 43 5800 130/08 RMK AO2 T02220094
24044KAIA AIA20160624232510906/24/16 23:25:31  5-MIN KAIA 250625Z AUTO 15006KT 10SM CLR 22/09 A2987 3980 45 5700 140/06 RMK AO2 T02170094
24044KAIA AIA20160624233010906/24/16 23:30:31  5-MIN KAIA 250630Z AUTO 15006KT 10SM CLR 21/10 A2987 3980 50 5600 150/06 RMK AO2 T02060100
24044KAIA AIA20160624233510906/24/16 23:35:31  5-MIN KAIA 250635Z AUTO 16006KT 10SM CLR 20/10 A2986 3990 52 5500 150/06 RMK AO2 T02000100
24044KAIA AIA20160624234010906/24/16 23:40:31  5-MIN KAIA 250640Z AUTO 16007KT 10SM CLR 19/10 A2986 3990 54 5400 160/07 RMK AO2 T01940100
24044KAIA AIA20160624234510906/24/16 23:45:31  5-MIN KAIA 250645Z AUTO 17007KT 10SM CLR 19/10 A2986 3990 56 5400 160/07 RMK AO2 T01890100
24044KAIA AIA20160624235012606/24/16 23:50:31  5-MIN KAIA 250650Z AUTO 17008KT 10SM CLR 19/10 A2986 3990 56 5400 160/08 RMK AO2 SLP057 T01890100 403610133
24044KAIA AIA20160624235510906/24/16 23:55:31  5-MIN KAIA 250655Z AUTO 17008KT 10SM CLR 19/11 A2986 3990 58 5400 160/08 RMK AO2 T01890106
24044KAIA AIA20160625000010906/25/16 00:00:31  5-MIN KAIA 250700Z AUTO 20007KT 10SM CLR 19/11 A2986 3990 58 5400 190/07 RMK AO2 T01890106
24044KAIA AIA20160625000510906/25/16 00:05:31  5-MIN KAIA 250705Z AUTO 22007KT 10SM CLR 18/11 A2986 3990 60 5300 220/07 RMK AO2 T01830106
24044KAIA AIA20160625001010906/25/16 00:10:31  5-MIN KAIA 250710Z AUTO 20007KT 10SM CLR 18/10 A2986 3990 58 5300 190/07 RMK AO2 T01830100
24044KAIA AIA20160625001510906/25/16 00:15:31  5-MIN KAIA 250715Z AUTO 23006KT 10SM CLR 18/10 A2986 3990 60 5300 220/06 RMK AO2 T01780100
24044KAIA AIA20160625002010906/25/16 00:20:31  5-MIN KAIA 250720Z AUTO 21008KT 10SM CLR 18/10 A2986 3990 60 5300 200/08 RMK AO2 T01780100
24044KAIA AIA20160625002510906/25/16 00:25:31  5-MIN KAIA 250725Z AUTO 25008KT 10SM CLR 18/10 A2987 3980 60 5300 250/08 RMK AO2 T01780100
24044KAIA AIA20160625003010906/25/16 00:30:31  5-MIN KAIA 250730Z AUTO 22005KT 10SM CLR 17/11 A2987 3980 64 5200 210/05 RMK AO2 T01720106
24044KAIA AIA20160625003510906/25/16 00:35:31  5-MIN KAIA 250735Z AUTO 24004KT 10SM CLR 17/11 A2987 3980 64 5200 230/04 RMK AO2 T01720106
24044KAIA AIA20160625004010906/25/16 00:40:31  5-MIN KAIA 250740Z AUTO 17003KT 10SM CLR 17/11 A2987 3980 67 5100 160/03 RMK AO2 T01670106
24044KAIA AIA20160625004510906/25/16 00:45:31  5-MIN KAIA 250745Z AUTO 16005KT 10SM CLR 17/11 A2987 3980 69 5100 150/05 RMK AO2 T01670111
24044KAIA AIA20160625005011606/25/16 00:50:31  5-MIN KAIA 250750Z AUTO 22006KT 10SM CLR 18/11 A2988 3980 62 5300 210/06 RMK AO2 SLP061 T01830111
24044KAIA AIA20160625005510906/25/16 00:55:31  5-MIN KAIA 250755Z AUTO 25008KT 10SM CLR 18/11 A2988 3980 64 5200 240/08 RMK AO2 T01780111
24044KAIA AIA20160625010010906/25/16 01:00:31  5-MIN KAIA 250800Z AUTO 25008KT 10SM CLR 17/12 A2988 3980 69 5200 250/08 RMK AO2 T01720117
24044KAIA AIA20160625010510906/25/16 01:05:31  5-MIN KAIA 250805Z AUTO 26009KT 10SM CLR 17/12 A2988 3970 69 5200 250/09 RMK AO2 T01720117
24044KAIA AIA20160625011010906/25/16 01:10:31  5-MIN KAIA 250810Z AUTO 27010KT 10SM CLR 17/12 A2988 3970 69 5200 260/10 RMK AO2 T01720117
24044KAIA AIA20160625011510906/25/16 01:15:31  5-MIN KAIA 250815Z AUTO 28009KT 10SM CLR 17/11 A2989 3970 69 5100 270/09 RMK AO2 T01670111
24044KAIA AIA20160625012010906/25/16 01:20:31  5-MIN KAIA 250820Z AUTO 27007KT 10SM CLR 17/11 A2988 3970 69 5100 260/07 RMK AO2 T01670111
24044KAIA AIA20160625012510906/25/16 01:25:31  5-MIN KAIA 250825Z AUTO 26007KT 10SM CLR 17/12 A2988 3970 72 5100 250/07 RMK AO2 T01670117
24044KAIA AIA20160625013010906/25/16 01:30:31  5-MIN KAIA 250830Z AUTO 25009KT 10SM CLR 16/11 A2988 3970 72 5000 240/09 RMK AO2 T01610111
24044KAIA AIA20160625013510906/25/16 01:35:31  5-MIN KAIA 250835Z AUTO 25005KT 10SM CLR 16/12 A2988 3970 77 5000 240/05 RMK AO2 T01560117
24044KAIA AIA20160625014010906/25/16 01:40:31  5-MIN KAIA 250840Z AUTO 23006KT 10SM CLR 16/11 A2987 3980 74 5000 220/06 RMK AO2 T01560111
24044KAIA AIA20160625014510906/25/16 01:45:31  5-MIN KAIA 250845Z AUTO 23007KT 10SM CLR 16/11 A2987 3980 74 5000 220/07 RMK AO2 T01560111
24044KAIA AIA20160625015012206/25/16 01:50:31  5-MIN KAIA 250850Z AUTO 23009KT 10SM CLR 16/11 A2986 3990 74 5000 220/09 RMK AO2 SLP060 T01560111 55012
24044KAIA AIA20160625015510906/25/16 01:55:31  5-MIN KAIA 250855Z AUTO 24008KT 10SM CLR 16/12 A2986 3990 77 5000 230/08 RMK AO2 T01560117
24044KAIA AIA20160625020010906/25/16 02:00:31  5-MIN KAIA 250900Z AUTO 22009KT 10SM CLR 16/12 A2986 3990 77 5000 220/09 RMK AO2 T01560117
24044KAIA AIA20160625020510906/25/16 02:05:31  5-MIN KAIA 250905Z AUTO 24009KT 10SM CLR 16/12 A2986 3990 77 5000 230/09 RMK AO2 T01560117
24044KAIA AIA20160625021010906/25/16 02:10:31  5-MIN KAIA 250910Z AUTO 26007KT 10SM CLR 16/12 A2986 3990 75 5100 250/07 RMK AO2 T01610117
24044KAIA AIA20160625021510906/25/16 02:15:31  5-MIN KAIA 250915Z AUTO 29009KT 10SM CLR 17/12 A2987 3980 72 5100 280/09 RMK AO2 T01670117
24044KAIA AIA20160625022010906/25/16 02:20:31  5-MIN KAIA 250920Z AUTO 29010KT 10SM CLR 18/11 A2987 3980 64 5300 280/10 RMK AO2 T01780111
24044KAIA AIA20160625022510906/25/16 02:25:31  5-MIN KAIA 250925Z AUTO 30009KT 10SM CLR 17/11 A2987 3980 67 5200 290/09 RMK AO2 T01720111
24044KAIA AIA20160625023010906/25/16 02:30:31  5-MIN KAIA 250930Z AUTO 30010KT 10SM CLR 18/11 A2987 3980 64 5200 290/10 RMK AO2 T01780111
24044KAIA AIA20160625023510906/25/16 02:35:31  5-MIN KAIA 250935Z AUTO 30010KT 10SM CLR 18/11 A2987 3980 62 5300 290/10 RMK AO2 T01830111
24044KAIA AIA20160625024010906/25/16 02:40:31  5-MIN KAIA 250940Z AUTO 31012KT 10SM CLR 19/11 A2988 3970 60 5400 300/12 RMK AO2 T01890111
24044KAIA AIA20160625024510906/25/16 02:45:31  5-MIN KAIA 250945Z AUTO 31014KT 10SM CLR 20/10 A2988 3970 52 5500 300/14 RMK AO2 T02000100
24044KAIA AIA20160625025011606/25/16 02:50:31  5-MIN KAIA 250950Z AUTO 30013KT 10SM CLR 21/09 A2988 3970 47 5600 290/13 RMK AO2 SLP060 T02110094
24044KAIA AIA20160625025510906/25/16 02:55:31  5-MIN KAIA 250955Z AUTO 30013KT 10SM CLR 21/10 A2988 3970 48 5600 290/13 RMK AO2 T02110100
24044KAIA AIA20160625030010906/25/16 03:00:31  5-MIN KAIA 251000Z AUTO 29014KT 10SM CLR 21/10 A2988 3970 50 5600 290/14 RMK AO2 T02060100
24044KAIA AIA20160625030511506/25/16 03:05:31  5-MIN KAIA 251005Z AUTO 30015G20KT 10SM CLR 20/10 A2988 3970 52 5500 300/15G20 RMK AO2 T02000100
24044KAIA AIA20160625031011506/25/16 03:10:31  5-MIN KAIA 251010Z AUTO 32014G20KT 10SM CLR 20/10 A2987 3980 52 5500 310/14G20 RMK AO2 T02000100
24044KAIA AIA20160625031510906/25/16 03:15:31  5-MIN KAIA 251015Z AUTO 32014KT 10SM CLR 20/10 A2988 3970 52 5500 320/14 RMK AO2 T02000100
24044KAIA AIA20160625032011506/25/16 03:20:31  5-MIN KAIA 251020Z AUTO 32011G19KT 10SM CLR 19/10 A2988 3970 54 5400 310/11G19 RMK AO2 T01940100
24044KAIA AIA20160625032510906/25/16 03:25:31  5-MIN KAIA 251025Z AUTO 32013KT 10SM CLR 19/10 A2989 3960 54 5400 310/13 RMK AO2 T01940100
24044KAIA AIA20160625033011506/25/16 03:30:31  5-MIN KAIA 251030Z AUTO 32010G18KT 10SM CLR 19/09 A2989 3960 52 5400 310/10G18 RMK AO2 T01940094
24044KAIA AIA20160625033510906/25/16 03:35:31  5-MIN KAIA 251035Z AUTO 32008KT 10SM CLR 19/09 A2990 3960 54 5300 310/08 RMK AO2 T01890094
24044KAIA AIA20160625034010906/25/16 03:40:31  5-MIN KAIA 251040Z AUTO 32007KT 10SM CLR 19/09 A2990 3950 54 5300 310/07 RMK AO2 T01890094
24044KAIA AIA20160625034510906/25/16 03:45:31  5-MIN KAIA 251045Z AUTO 31007KT 10SM CLR 18/09 A2991 3940 56 5300 300/07 RMK AO2 T01830094
24044KAIA AIA20160625035011606/25/16 03:50:31  5-MIN KAIA 251050Z AUTO 30007KT 10SM CLR 18/09 A2991 3940 56 5300 290/07 RMK AO2 SLP076 T01830094
24044KAIA AIA20160625035510906/25/16 03:55:31  5-MIN KAIA 251055Z AUTO 30008KT 10SM CLR 18/09 A2992 3940 56 5300 290/08 RMK AO2 T01830094
24044KAIA AIA20160625040010906/25/16 04:00:31  5-MIN KAIA 251100Z AUTO 30010KT 10SM CLR 18/09 A2992 3940 56 5300 300/10 RMK AO2 T01830094
24044KAIA AIA20160625040510906/25/16 04:05:31  5-MIN KAIA 251105Z AUTO 32008KT 10SM CLR 18/09 A2992 3930 56 5300 310/08 RMK AO2 T01830094
24044KAIA AIA20160625041010906/25/16 04:10:31  5-MIN KAIA 251110Z AUTO 31008KT 10SM CLR 18/09 A2993 3920 58 5200 300/08 RMK AO2 T01780094
24044KAIA AIA20160625041511606/25/16 04:15:31  5-MIN KAIA 251115Z AUTO 33010KT 10SM CLR 18/09 A2994 3920 58 5200 330/10 RMK AO2 PRESRR T01780094
24044KAIA AIA20160625042010906/25/16 04:20:31  5-MIN KAIA 251120Z AUTO 33011KT 10SM CLR 18/09 A2994 3920 58 5200 320/11 RMK AO2 T01780094
24044KAIA AIA20160625042510906/25/16 04:25:31  5-MIN KAIA 251125Z AUTO 33011KT 10SM CLR 18/09 A2994 3920 56 5200 320/11 RMK AO2 T01830094
24044KAIA AIA20160625043010906/25/16 04:30:31  5-MIN KAIA 251130Z AUTO 33012KT 10SM CLR 18/09 A2993 3920 56 5200 320/12 RMK AO2 T01830094
24044KAIA AIA20160625043510906/25/16 04:35:31  5-MIN KAIA 251135Z AUTO 32009KT 10SM CLR 18/09 A2993 3930 56 5200 310/09 RMK AO2 T01830094
24044KAIA AIA20160625044010906/25/16 04:40:31  5-MIN KAIA 251140Z AUTO 34010KT 10SM CLR 18/09 A2993 3920 56 5200 330/10 RMK AO2 T01830094
24044KAIA AIA20160625044510906/25/16 04:45:31  5-MIN KAIA 251145Z AUTO 34012KT 10SM CLR 18/09 A2994 3920 56 5200 330/12 RMK AO2 T01830094
24044KAIA AIA20160625045013406/25/16 04:50:31  5-MIN KAIA 251150Z AUTO 34010KT 10SM CLR 18/09 A2994 3910 56 5200 330/10 RMK AO2 SLP090 T01830094 10244 20156 58001
24044KAIA AIA20160625045510906/25/16 04:55:31  5-MIN KAIA 251155Z AUTO 35011KT 10SM CLR 18/09 A2995 3910 56 5200 350/11 RMK AO2 T01830094
24044KAIA AIA20160625050011606/25/16 05:00:31  5-MIN KAIA 251200Z AUTO 36010KT 10SM CLR 18/09 A2996 3900 56 5200 350/10 RMK AO2 PRESRR T01830094
24044KAIA AIA20160625050512706/25/16 05:05:31  5-MIN KAIA 251205Z AUTO 35014G20KT 10SM VCTS CLR 18/09 A2997 3890 58 5100 340/14G20 RMK AO2 PRESRR T01780094
24044KAIA AIA20160625051013706/25/16 05:10:31  5-MIN KAIA 251210Z AUTO 35023G30KT 9SM VCTS CLR 18/09 A2996 3900 55 5200 340/23G30 RMK AO2 PK WND 34030/1208 T01780089
24044KAIA AIA20160625051513706/25/16 05:15:31  5-MIN KAIA 251215Z AUTO 35013G30KT 8SM VCTS CLR 17/09 A2997 3890 57 5100 340/13G30 RMK AO2 PK WND 34030/1208 T01720089
24044KAIA AIA20160625052013706/25/16 05:20:31  5-MIN KAIA 251220Z AUTO 34013G25KT 8SM VCTS CLR 17/09 A2998 3880 57 5100 340/13G25 RMK AO2 PK WND 34030/1208 T01720089
24044KAIA AIA20160625052513306/25/16 05:25:31  5-MIN KAIA 251225Z AUTO 35013KT 8SM CLR 17/09 A2999 3870 60 5000 350/13 RMK AO2 PK WND 34030/1208 PRESRR T01670089
24044KAIA AIA20160625053013206/25/16 05:30:31  5-MIN KAIA 251230Z AUTO 34011G18KT 8SM CLR 17/09 A3000 3860 60 5000 330/11G18 RMK AO2 PK WND 34030/1208 T01670089
24044KAIA AIA20160625053512606/25/16 05:35:31  5-MIN KAIA 251235Z AUTO 34012KT 8SM CLR 17/09 A3000 3860 60 5000 330/12 RMK AO2 PK WND 34030/1208 T01670089
24044KAIA AIA20160625054013206/25/16 05:40:31  5-MIN KAIA 251240Z AUTO 34016G19KT 8SM CLR 17/09 A3000 3860 60 5000 330/16G19 RMK AO2 PK WND 34030/1208 T01670089
24044KAIA AIA20160625054513206/25/16 05:45:31  5-MIN KAIA 251245Z AUTO 34010G19KT 8SM CLR 17/09 A3000 3860 62 5000 330/10G19 RMK AO2 PK WND 34030/1208 T01670094
24044KAIA AIA20160625055013306/25/16 05:50:31  5-MIN KAIA 251250Z AUTO 34009KT 9SM CLR 17/09 A3001 3850 60 5000 330/09 RMK AO2 PK WND 34030/1208 SLP114 T01670089
24044KAIA AIA20160625055510806/25/16 05:55:31  5-MIN KAIA 251255Z AUTO 34008KT 9SM CLR 17/09 A3002 3840 60 5000 330/08 RMK AO2 T01670089
24044KAIA AIA20160625060010806/25/16 06:00:31  5-MIN KAIA 251300Z AUTO 33009KT 9SM CLR 17/09 A3002 3840 60 5000 320/09 RMK AO2 T01670089
24044KAIA AIA20160625060510806/25/16 06:05:31  5-MIN KAIA 251305Z AUTO 33013KT 9SM CLR 16/09 A3002 3840 62 4900 320/13 RMK AO2 T01610089
24044KAIA AIA20160625061010806/25/16 06:10:31  5-MIN KAIA 251310Z AUTO 33012KT 9SM CLR 16/09 A3001 3850 62 4900 320/12 RMK AO2 T01610089
24044KAIA AIA20160625061510806/25/16 06:15:31  5-MIN KAIA 251315Z AUTO 33012KT 9SM CLR 16/09 A3002 3850 62 4900 320/12 RMK AO2 T01610089
24044KAIA AIA20160625062010806/25/16 06:20:31  5-MIN KAIA 251320Z AUTO 33010KT 9SM CLR 16/09 A3002 3840 62 4900 320/10 RMK AO2 T01610089
24044KAIA AIA20160625062510806/25/16 06:25:31  5-MIN KAIA 251325Z AUTO 32009KT 9SM CLR 16/09 A3002 3840 62 4900 320/09 RMK AO2 T01610089
24044KAIA AIA20160625063010806/25/16 06:30:31  5-MIN KAIA 251330Z AUTO 33008KT 8SM CLR 16/09 A3003 3840 62 4900 320/08 RMK AO2 T01610089
24044KAIA AIA20160625063510806/25/16 06:35:31  5-MIN KAIA 251335Z AUTO 33010KT 8SM CLR 17/09 A3003 3840 62 4900 320/10 RMK AO2 T01670094
24044KAIA AIA20160625064010806/25/16 06:40:31  5-MIN KAIA 251340Z AUTO 34010KT 8SM CLR 17/09 A3003 3830 60 4900 330/10 RMK AO2 T01670089
24044KAIA AIA20160625064510806/25/16 06:45:31  5-MIN KAIA 251345Z AUTO 33009KT 8SM CLR 17/09 A3003 3830 60 4900 320/09 RMK AO2 T01670089
24044KAIA AIA20160625065011506/25/16 06:50:31  5-MIN KAIA 251350Z AUTO 33008KT 8SM CLR 17/09 A3003 3830 60 4900 320/08 RMK AO2 SLP128 T01670089
24044KAIA AIA20160625065510806/25/16 06:55:31  5-MIN KAIA 251355Z AUTO 33008KT 8SM CLR 17/09 A3003 3830 60 5000 320/08 RMK AO2 T01720094
24044KAIA AIA20160625070010806/25/16 07:00:31  5-MIN KAIA 251400Z AUTO 33007KT 8SM CLR 17/09 A3003 3830 60 5000 320/07 RMK AO2 T01720094
24044KAIA AIA20160625070510806/25/16 07:05:31  5-MIN KAIA 251405Z AUTO 34005KT 8SM CLR 17/09 A3004 3830 60 5000 330/05 RMK AO2 T01720094
24044KAIA AIA20160625071010806/25/16 07:10:31  5-MIN KAIA 251410Z AUTO 34007KT 8SM CLR 18/09 A3003 3830 58 5100 330/07 RMK AO2 T01780094
24044KAIA AIA20160625071510806/25/16 07:15:31  5-MIN KAIA 251415Z AUTO 33009KT 8SM CLR 18/09 A3003 3830 55 5100 320/09 RMK AO2 T01780089
24044KAIA AIA20160625072010806/25/16 07:20:31  5-MIN KAIA 251420Z AUTO 34009KT 9SM CLR 18/09 A3004 3830 55 5100 330/09 RMK AO2 T01780089
24044KAIA AIA20160625072510806/25/16 07:25:31  5-MIN KAIA 251425Z AUTO 35009KT 9SM CLR 18/08 A3004 3820 53 5100 340/09 RMK AO2 T01780083
24044KAIA AIA20160625073010806/25/16 07:30:31  5-MIN KAIA 251430Z AUTO 35008KT 9SM CLR 18/08 A3004 3820 53 5100 340/08 RMK AO2 T01780083
24044KAIA AIA20160625073510906/25/16 07:35:31  5-MIN KAIA 251435Z AUTO 33008KT 10SM CLR 18/09 A3004 3820 54 5100 330/08 RMK AO2 T01830089
24044KAIA AIA20160625074010906/25/16 07:40:31  5-MIN KAIA 251440Z AUTO 35006KT 10SM CLR 18/09 A3004 3820 55 5100 340/06 RMK AO2 T01780089
24044KAIA AIA20160625074510906/25/16 07:45:31  5-MIN KAIA 251445Z AUTO 34009KT 10SM CLR 18/08 A3005 3810 53 5000 330/09 RMK AO2 T01780083
24044KAIA AIA20160625075012206/25/16 07:50:31  5-MIN KAIA 251450Z AUTO 34011KT 10SM CLR 18/08 A3005 3810 53 5000 330/11 RMK AO2 SLP134 T01780083 53025
24044KAIA AIA20160625075510906/25/16 07:55:31  5-MIN KAIA 251455Z AUTO 34011KT 10SM CLR 18/08 A3005 3820 53 5000 330/11 RMK AO2 T01780083
24044KAIA AIA20160625080010906/25/16 08:00:31  5-MIN KAIA 251500Z AUTO 33008KT 10SM CLR 18/08 A3005 3820 52 5100 330/08 RMK AO2 T01830083
24044KAIA AIA20160625080510906/25/16 08:05:31  5-MIN KAIA 251505Z AUTO 34010KT 10SM CLR 18/09 A3005 3820 54 5100 330/10 RMK AO2 T01830089
24044KAIA AIA20160625081010906/25/16 08:10:31  5-MIN KAIA 251510Z AUTO 34010KT 10SM CLR 19/09 A3005 3810 50 5200 330/10 RMK AO2 T01940089
24044KAIA AIA20160625081510906/25/16 08:15:31  5-MIN KAIA 251515Z AUTO 34010KT 10SM CLR 19/08 A3005 3810 50 5200 330/10 RMK AO2 T01890083
24044KAIA AIA20160625082010906/25/16 08:20:31  5-MIN KAIA 251520Z AUTO 36010KT 10SM CLR 19/08 A3005 3810 50 5200 360/10 RMK AO2 T01890083
24044KAIA AIA20160625082510906/25/16 08:25:31  5-MIN KAIA 251525Z AUTO 36010KT 10SM CLR 21/08 A3005 3810 45 5400 350/10 RMK AO2 T02060083
24044KAIA AIA20160625083011506/25/16 08:30:31  5-MIN KAIA 251530Z AUTO 01014G20KT 10SM CLR 21/08 A3005 3810 43 5400 360/14G20 RMK AO2 T02060078
24044KAIA AIA20160625083511506/25/16 08:35:31  5-MIN KAIA 251535Z AUTO 02015G20KT 10SM CLR 21/07 A3005 3810 40 5400 010/15G20 RMK AO2 T02110072
24044KAIA AIA20160625084010906/25/16 08:40:31  5-MIN KAIA 251540Z AUTO 02013KT 10SM CLR 21/08 A3005 3820 42 5400 020/13 RMK AO2 T02110078
24044KAIA AIA20160625084510906/25/16 08:45:31  5-MIN KAIA 251545Z AUTO 01012KT 10SM CLR 21/08 A3005 3820 42 5400 360/12 RMK AO2 T02110078
24044KAIA AIA20160625085011606/25/16 08:50:31  5-MIN KAIA 251550Z AUTO 02013KT 10SM CLR 22/08 A3005 3820 40 5500 010/13 RMK AO2 SLP128 T02170078
24044KAIA AIA20160625085510906/25/16 08:55:31  5-MIN KAIA 251555Z AUTO 01014KT 10SM CLR 22/08 A3005 3820 39 5500 010/14 RMK AO2 T02220078
24044KAIA AIA20160625090011506/25/16 09:00:31  5-MIN KAIA 251600Z AUTO 01013G20KT 10SM CLR 22/08 A3005 3810 39 5500 360/13G20 RMK AO2 T02220078
24044KAIA AIA20160625090511506/25/16 09:05:31  5-MIN KAIA 251605Z AUTO 02012G20KT 10SM CLR 23/08 A3005 3810 37 5600 010/12G20 RMK AO2 T02280078
24044KAIA AIA20160625091010906/25/16 09:10:31  5-MIN KAIA 251610Z AUTO 03009KT 10SM CLR 22/08 A3005 3810 39 5500 020/09 RMK AO2 T02220078
24044KAIA AIA20160625091511506/25/16 09:15:31  5-MIN KAIA 251615Z AUTO 03012G18KT 10SM CLR 23/08 A3005 3810 37 5600 020/12G18 RMK AO2 T02280078
24044KAIA AIA20160625092010906/25/16 09:20:31  5-MIN KAIA 251620Z AUTO 02011KT 10SM CLR 22/08 A3005 3810 39 5500 010/11 RMK AO2 T02220078
24044KAIA AIA20160625092512506/25/16 09:25:31  5-MIN KAIA 251625Z AUTO 36008KT 330V030 10SM CLR 22/08 A3005 3810 39 5500 350/08 320V020 RMK AO2 T02220078
24044KAIA AIA20160625093010906/25/16 09:30:31  5-MIN KAIA 251630Z AUTO 36011KT 10SM CLR 22/08 A3005 3810 40 5500 350/11 RMK AO2 T02220083
24044KAIA AIA20160625093510906/25/16 09:35:31  5-MIN KAIA 251635Z AUTO 36009KT 10SM CLR 22/08 A3006 3810 40 5500 350/09 RMK AO2 T02170078
24044KAIA AIA20160625094010906/25/16 09:40:31  5-MIN KAIA 251640Z AUTO 01012KT 10SM CLR 23/08 A3006 3810 38 5700 360/12 RMK AO2 T02330083
24044KAIA AIA20160625094510906/25/16 09:45:31  5-MIN KAIA 251645Z AUTO 01010KT 10SM CLR 23/08 A3006 3810 38 5700 360/10 RMK AO2 T02330083
24044KAIA AIA20160625095011606/25/16 09:50:31  5-MIN KAIA 251650Z AUTO 02009KT 10SM CLR 23/08 A3006 3810 39 5600 010/09 RMK AO2 SLP134 T02280083
24044KAIA AIA20160625095510906/25/16 09:55:31  5-MIN KAIA 251655Z AUTO 03012KT 10SM CLR 24/08 A3006 3810 36 5700 020/12 RMK AO2 T02390083
24044KAIA AIA20160625100010906/25/16 10:00:31  5-MIN KAIA 251700Z AUTO 35011KT 10SM CLR 24/08 A3006 3810 35 5800 340/11 RMK AO2 T02440083
24044KAIA AIA20160625100511506/25/16 10:05:31  5-MIN KAIA 251705Z AUTO 36009G16KT 10SM CLR 24/08 A3006 3810 35 5800 360/09G16 RMK AO2 T02440083
24044KAIA AIA20160625101011506/25/16 10:10:31  5-MIN KAIA 251710Z AUTO 01010G16KT 10SM CLR 24/08 A3006 3810 35 5700 360/10G16 RMK AO2 T02390078
24044KAIA AIA20160625101510906/25/16 10:15:31  5-MIN KAIA 251715Z AUTO 36012KT 10SM CLR 24/08 A3006 3810 36 5700 350/12 RMK AO2 T02390083
24044KAIA AIA20160625102010906/25/16 10:20:31  5-MIN KAIA 251720Z AUTO 36009KT 10SM CLR 24/08 A3006 3810 35 5800 350/09 RMK AO2 T02440083
24044KAIA AIA20160625102510906/25/16 10:25:31  5-MIN KAIA 251725Z AUTO 03010KT 10SM CLR 25/08 A3006 3810 34 5800 020/10 RMK AO2 T02500083
24044KAIA AIA20160625103010906/25/16 10:30:31  5-MIN KAIA 251730Z AUTO 36008KT 10SM CLR 25/08 A3005 3810 34 5900 360/08 RMK AO2 T02500083
24044KAIA AIA20160625103510906/25/16 10:35:31  5-MIN KAIA 251735Z AUTO 36007KT 10SM CLR 25/08 A3005 3810 34 5800 350/07 RMK AO2 T02500083
24044KAIA AIA20160625104011506/25/16 10:40:31  5-MIN KAIA 251740Z AUTO 02007G14KT 10SM CLR 24/08 A3005 3810 35 5800 010/07G14 RMK AO2 T02440083
24044KAIA AIA20160625104513106/25/16 10:45:31  5-MIN KAIA 251745Z AUTO 03011G15KT 350V050 10SM CLR 25/08 A3005 3810 34 5900 020/11G15 340V040 RMK AO2 T02500083
24044KAIA AIA20160625105014006/25/16 10:50:31  5-MIN KAIA 251750Z AUTO 33006G15KT 10SM CLR 25/08 A3005 3810 34 5900 320/06G15 RMK AO2 SLP127 T02500083 10256 20161 51031
24044KAIA AIA20160625105512506/25/16 10:55:31  5-MIN KAIA 251755Z AUTO 36007KT 320V040 10SM CLR 25/08 A3005 3810 34 5900 360/07 310V030 RMK AO2 T02500083
24044KAIA AIA20160625110011506/25/16 11:00:31  5-MIN KAIA 251800Z AUTO 34012G17KT 10SM CLR 26/08 A3005 3810 33 5900 330/12G17 RMK AO2 T02560083
24044KAIA AIA20160625110511506/25/16 11:05:31  5-MIN KAIA 251805Z AUTO 35007G17KT 10SM CLR 26/08 A3005 3810 32 5900 350/07G17 RMK AO2 T02560078
24044KAIA AIA20160625111010906/25/16 11:10:31  5-MIN KAIA 251810Z AUTO 34009KT 10SM CLR 26/08 A3005 3810 33 5900 330/09 RMK AO2 T02560083
24044KAIA AIA20160625111510906/25/16 11:15:31  5-MIN KAIA 251815Z AUTO 35008KT 10SM CLR 26/07 A3005 3810 29 6000 340/08 RMK AO2 T02610072
24044KAIA AIA20160625112011506/25/16 11:20:31  5-MIN KAIA 251820Z AUTO 35011G15KT 10SM CLR 26/08 A3006 3810 31 6000 340/11G15 RMK AO2 T02610078
24044KAIA AIA20160625112511506/25/16 11:25:31  5-MIN KAIA 251825Z AUTO 35007G15KT 10SM CLR 26/08 A3005 3810 31 6000 350/07G15 RMK AO2 T02610078
24044KAIA AIA20160625113011506/25/16 11:30:31  5-MIN KAIA 251830Z AUTO 33008G14KT 10SM CLR 26/08 A3005 3810 31 6000 320/08G14 RMK AO2 T02610078
24044KAIA AIA20160625113511506/25/16 11:35:31  5-MIN KAIA 251835Z AUTO 35008G14KT 10SM CLR 26/08 A3005 3810 31 6000 340/08G14 RMK AO2 T02610078
24044KAIA AIA20160625114010906/25/16 11:40:31  5-MIN KAIA 251840Z AUTO VRB03KT 10SM CLR 26/08 A3005 3810 32 5900 VRB/03 RMK AO2 T02560078
24044KAIA AIA20160625114510906/25/16 11:45:31  5-MIN KAIA 251845Z AUTO 32008KT 10SM CLR 26/07 A3005 3810 29 6000 310/08 RMK AO2 T02610072
24044KAIA AIA20160625115011606/25/16 11:50:31  5-MIN KAIA 251850Z AUTO 32010KT 10SM CLR 27/07 A3005 3810 28 6000 310/10 RMK AO2 SLP132 T02670072
24044KAIA AIA20160625115511506/25/16 11:55:31  5-MIN KAIA 251855Z AUTO 34010G15KT 10SM CLR 27/07 A3005 3810 28 6000 330/10G15 RMK AO2 T02670072
24044KAIA AIA20160625120011506/25/16 12:00:31  5-MIN KAIA 251900Z AUTO 33007G15KT 10SM CLR 27/07 A3005 3810 28 6000 320/07G15 RMK AO2 T02670072
24044KAIA AIA20160625120510906/25/16 12:05:31  5-MIN KAIA 251905Z AUTO 30009KT 10SM CLR 27/07 A3005 3810 28 6000 290/09 RMK AO2 T02670072
24044KAIA AIA20160625121011506/25/16 12:10:31  5-MIN KAIA 251910Z AUTO 35011G15KT 10SM CLR 27/07 A3005 3820 27 6100 350/11G15 RMK AO2 T02720072
24044KAIA AIA20160625121511506/25/16 12:15:31  5-MIN KAIA 251915Z AUTO 03006G15KT 10SM CLR 27/07 A3005 3820 28 6000 020/06G15 RMK AO2 T02670072
24044KAIA AIA20160625122012506/25/16 12:20:31  5-MIN KAIA 251920Z AUTO 34007KT 300V020 10SM CLR 27/07 A3005 3820 27 6100 330/07 290V010 RMK AO2 T02720072
24044KAIA AIA20160625122511506/25/16 12:25:31  5-MIN KAIA 251925Z AUTO 30011G16KT 10SM CLR 28/08 A3005 3820 28 6200 300/11G16 RMK AO2 T02780078
24044KAIA AIA20160625123011506/25/16 12:30:31  5-MIN KAIA 251930Z AUTO 30008G16KT 10SM CLR 27/07 A3005 3810 26 6100 290/08G16 RMK AO2 T02720067
24044KAIA AIA20160625123510906/25/16 12:35:31  5-MIN KAIA 251935Z AUTO VRB05KT 10SM CLR 28/07 A3005 3810 26 6200 VRB/05 RMK AO2 T02780067
24044KAIA AIA20160625124010906/25/16 12:40:31  5-MIN KAIA 251940Z AUTO VRB05KT 10SM CLR 27/07 A3005 3810 26 6100 VRB/05 RMK AO2 T02720067
24044KAIA AIA20160625124510906/25/16 12:45:31  5-MIN KAIA 251945Z AUTO 32009KT 10SM CLR 28/07 A3005 3810 25 6200 310/09 RMK AO2 T02830067
24044KAIA AIA20160625125011606/25/16 12:50:31  5-MIN KAIA 251950Z AUTO VRB04KT 10SM CLR 28/07 A3005 3820 26 6200 VRB/04 RMK AO2 SLP130 T02780067
24044KAIA AIA20160625125512506/25/16 12:55:31  5-MIN KAIA 251955Z AUTO 03007KT 350V060 10SM CLR 27/06 A3005 3820 25 6100 020/07 340V050 RMK AO2 T02720061
24044KAIA AIA20160625130012506/25/16 13:00:31  5-MIN KAIA 252000Z AUTO 36008KT 340V040 10SM CLR 28/07 A3005 3820 25 6200 350/08 330V030 RMK AO2 T02830067
24044KAIA AIA20160625130512506/25/16 13:05:31  5-MIN KAIA 252005Z AUTO 31007KT 280V340 10SM CLR 28/06 A3005 3820 25 6200 300/07 270V330 RMK AO2 T02780061
24044KAIA AIA20160625131010906/25/16 13:10:31  5-MIN KAIA 252010Z AUTO 31009KT 10SM CLR 28/06 A3005 3820 25 6200 300/09 RMK AO2 T02780061
24044KAIA AIA20160625131510906/25/16 13:15:31  5-MIN KAIA 252015Z AUTO 33009KT 10SM CLR 28/06 A3005 3820 24 6200 330/09 RMK AO2 T02830061
24044KAIA AIA20160625132009906/25/16 13:20:31  5-MIN KAIA 252020Z AUTO 10SM CLR 28/07 A3005 3820 25 6200 M /M RMK AO2 T02830067
24044KAIA AIA20160625132510906/25/16 13:25:31  5-MIN KAIA 252025Z AUTO VRB06KT 10SM CLR 28/07 A3005 3820 25 6200 VRB/06 RMK AO2 T02830067
24044KAIA AIA20160625133011506/25/16 13:30:31  5-MIN KAIA 252030Z AUTO 35013G17KT 10SM CLR 29/07 A3005 3820 24 6300 340/13G17 RMK AO2 T02890067
24044KAIA AIA20160625133511506/25/16 13:35:31  5-MIN KAIA 252035Z AUTO 35008G17KT 10SM CLR 28/07 A3005 3810 25 6200 340/08G17 RMK AO2 T02830067
24044KAIA AIA20160625134010906/25/16 13:40:31  5-MIN KAIA 252040Z AUTO 32008KT 10SM CLR 28/07 A3005 3810 26 6200 310/08 RMK AO2 T02830072
24044KAIA AIA20160625134510906/25/16 13:45:31  5-MIN KAIA 252045Z AUTO 33007KT 10SM CLR 28/07 A3005 3810 26 6200 320/07 RMK AO2 T02830072
24044KAIA AIA20160625135012206/25/16 13:50:31  5-MIN KAIA 252050Z AUTO 02007KT 10SM CLR 29/07 A3005 3820 25 6300 010/07 RMK AO2 SLP133 T02890072 50001
24044KAIA AIA20160625135511506/25/16 13:55:31  5-MIN KAIA 252055Z AUTO 35008G15KT 10SM CLR 29/07 A3004 3820 24 6300 340/08G15 RMK AO2 T02890067
24044KAIA AIA20160625140010906/25/16 14:00:31  5-MIN KAIA 252100Z AUTO 35010KT 10SM CLR 29/07 A3005 3820 23 6300 340/10 RMK AO2 T02940067
24044KAIA AIA20160625140511506/25/16 14:05:31  5-MIN KAIA 252105Z AUTO 35009G14KT 10SM CLR 29/07 A3005 3820 24 6300 340/09G14 RMK AO2 T02890067
24044KAIA AIA20160625141012506/25/16 14:10:31  5-MIN KAIA 252110Z AUTO 03009KT 350V070 10SM CLR 29/07 A3004 3820 23 6300 020/09 340V060 RMK AO2 T02940067
24044KAIA AIA20160625141510906/25/16 14:15:31  5-MIN KAIA 252115Z AUTO 01010KT 10SM CLR 29/06 A3005 3820 23 6300 360/10 RMK AO2 T02890061
24044KAIA AIA20160625142010906/25/16 14:20:31  5-MIN KAIA 252120Z AUTO VRB04KT 10SM CLR 29/06 A3004 3820 22 6300 VRB/04 RMK AO2 T02890056
24044KAIA AIA20160625142510906/25/16 14:25:31  5-MIN KAIA 252125Z AUTO 02004KT 10SM CLR 29/06 A3005 3820 22 6300 020/04 RMK AO2 T02940061
24044KAIA AIA20160625143011506/25/16 14:30:31  5-MIN KAIA 252130Z AUTO 34010G14KT 10SM CLR 29/06 A3005 3820 21 6300 330/10G14 RMK AO2 T02940056
24044KAIA AIA20160625143511506/25/16 14:35:31  5-MIN KAIA 252135Z AUTO 36006G14KT 10SM CLR 29/05 A3004 3820 21 6300 350/06G14 RMK AO2 T02940050
24044KAIA AIA20160625144010906/25/16 14:40:31  5-MIN KAIA 252140Z AUTO 34004KT 10SM CLR 29/05 A3004 3820 21 6300 330/04 RMK AO2 T02940050
24044KAIA AIA20160625144510906/25/16 14:45:31  5-MIN KAIA 252145Z AUTO 33014KT 10SM CLR 29/04 A3004 3820 19 6300 320/14 RMK AO2 T02940039
24044KAIA AIA20160625145012206/25/16 14:50:31  5-MIN KAIA 252150Z AUTO 35010G16KT 10SM CLR 29/03 A3005 3820 18 6300 340/10G16 RMK AO2 SLP124 T02940033
24044KAIA AIA20160625145510906/25/16 14:55:31  5-MIN KAIA 252155Z AUTO 36009KT 10SM CLR 29/03 A3005 3820 18 6300 350/09 RMK AO2 T02940033
24044KAIA AIA20160625150012506/25/16 15:00:31  5-MIN KAIA 252200Z AUTO 34007KT 310V020 10SM CLR 30/03 A3005 3820 18 6400 330/07 300V010 RMK AO2 T03000033
24044KAIA AIA20160625150510906/25/16 15:05:31  5-MIN KAIA 252205Z AUTO 35010KT 10SM CLR 30/03 A3005 3820 18 6400 340/10 RMK AO2 T03000033
24044KAIA AIA20160625151010906/25/16 15:10:31  5-MIN KAIA 252210Z AUTO 35012KT 10SM CLR 30/03 A3005 3820 17 6400 340/12 RMK AO2 T03000028
24044KAIA AIA20160625151510906/25/16 15:15:31  5-MIN KAIA 252215Z AUTO 01012KT 10SM CLR 30/02 A3005 3820 16 6400 010/12 RMK AO2 T03000022
24044KAIA AIA20160625152011506/25/16 15:20:31  5-MIN KAIA 252220Z AUTO 35010G18KT 10SM CLR 29/02 A3005 3810 17 6300 340/10G18 RMK AO2 T02940022
24044KAIA AIA20160625152510906/25/16 15:25:31  5-MIN KAIA 252225Z AUTO 03012KT 10SM CLR 29/02 A3005 3810 17 6300 020/12 RMK AO2 T02940022
24044KAIA AIA20160625153011506/25/16 15:30:31  5-MIN KAIA 252230Z AUTO 35008G14KT 10SM CLR 29/02 A3005 3810 17 6300 340/08G14 RMK AO2 T02940022
24044KAIA AIA20160625153511506/25/16 15:35:31  5-MIN KAIA 252235Z AUTO 36008G20KT 10SM CLR 30/03 A3005 3810 17 6400 350/08G20 RMK AO2 T03000028
24044KAIA AIA20160625154011506/25/16 15:40:31  5-MIN KAIA 252240Z AUTO 34012G20KT 10SM CLR 30/02 A3006 3810 16 6400 330/12G20 RMK AO2 T03000022
24044KAIA AIA20160625154510906/25/16 15:45:31  5-MIN KAIA 252245Z AUTO 33009KT 10SM CLR 30/02 A3006 3810 16 6400 320/09 RMK AO2 T03000022
24044KAIA AIA20160625155013206/25/16 15:50:31  5-MIN KAIA 252250Z AUTO 30008KT 260V350 10SM CLR 29/02 A3006 3810 17 6300 300/08 250V340 RMK AO2 SLP131 T02890022
24044KAIA AIA20160625155511506/25/16 15:55:31  5-MIN KAIA 252255Z AUTO 33008G14KT 10SM CLR 29/02 A3006 3810 17 6300 320/08G14 RMK AO2 T02940022
24044KAIA AIA20160625160010906/25/16 16:00:31  5-MIN KAIA 252300Z AUTO 34010KT 10SM CLR 29/02 A3006 3810 17 6300 330/10 RMK AO2 T02940022
24044KAIA AIA20160625160510906/25/16 16:05:31  5-MIN KAIA 252305Z AUTO 35007KT 10SM CLR 30/02 A3005 3810 16 6400 340/07 RMK AO2 T03000022
24044KAIA AIA20160625161010906/25/16 16:10:31  5-MIN KAIA 252310Z AUTO 35007KT 10SM CLR 29/02 A3005 3810 17 6300 340/07 RMK AO2 T02940022
24044KAIA AIA20160625161510906/25/16 16:15:31  5-MIN KAIA 252315Z AUTO 02006KT 10SM CLR 29/02 A3005 3820 16 6300 010/06 RMK AO2 T02940017
24044KAIA AIA20160625162010906/25/16 16:20:31  5-MIN KAIA 252320Z AUTO 35008KT 10SM CLR 29/02 A3005 3820 16 6300 340/08 RMK AO2 T02940017
24044KAIA AIA20160625162510906/25/16 16:25:31  5-MIN KAIA 252325Z AUTO 35007KT 10SM CLR 29/02 A3005 3820 16 6300 340/07 RMK AO2 T02940017
24044KAIA AIA20160625163010906/25/16 16:30:31  5-MIN KAIA 252330Z AUTO 01008KT 10SM CLR 29/02 A3004 3820 16 6300 010/08 RMK AO2 T02940017
24044KAIA AIA20160625163510906/25/16 16:35:31  5-MIN KAIA 252335Z AUTO 33006KT 10SM CLR 29/02 A3004 3820 17 6300 320/06 RMK AO2 T02890017
24044KAIA AIA20160625164010906/25/16 16:40:31  5-MIN KAIA 252340Z AUTO 33007KT 10SM CLR 29/02 A3004 3820 16 6300 320/07 RMK AO2 T02940017
24044KAIA AIA20160625164510906/25/16 16:45:31  5-MIN KAIA 252345Z AUTO 36009KT 10SM CLR 29/02 A3004 3830 17 6300 350/09 RMK AO2 T02890017
24044KAIA AIA20160625165013406/25/16 16:50:31  5-MIN KAIA 252350Z AUTO 34007KT 10SM CLR 29/02 A3004 3820 16 6300 330/07 RMK AO2 SLP125 T02940017 10300 20250 58002
24044KAIA AIA20160625165510906/25/16 16:55:31  5-MIN KAIA 252355Z AUTO 36011KT 10SM CLR 29/01 A3004 3830 16 6300 350/11 RMK AO2 T02890011
24044KAIA AIA20160625170010906/25/16 17:00:31  5-MIN KAIA 260000Z AUTO 01008KT 10SM CLR 29/01 A3004 3830 16 6400 360/08 RMK AO2 T02940011
24044KAIA AIA20160625170510906/25/16 17:05:31  5-MIN KAIA 260005Z AUTO 35010KT 10SM CLR 29/01 A3004 3820 16 6300 340/10 RMK AO2 T02890011
24044KAIA AIA20160625171010906/25/16 17:10:31  5-MIN KAIA 260010Z AUTO 35011KT 10SM CLR 29/01 A3004 3820 15 6300 340/11 RMK AO2 T02890006
24044KAIA AIA20160625171510906/25/16 17:15:31  5-MIN KAIA 260015Z AUTO 01009KT 10SM CLR 29/00 A3004 3820 15 6300 360/09 RMK AO2 T02890000
24044KAIA AIA20160625172010906/25/16 17:20:31  5-MIN KAIA 260020Z AUTO 02010KT 10SM CLR 28/01 A3004 3820 16 6200 010/10 RMK AO2 T02830006
24044KAIA AIA20160625172510906/25/16 17:25:31  5-MIN KAIA 260025Z AUTO 02008KT 10SM CLR 28/01 A3004 3820 17 6200 010/08 RMK AO2 T02830011
24044KAIA AIA20160625173010906/25/16 17:30:31  5-MIN KAIA 260030Z AUTO 03009KT 10SM CLR 28/02 A3005 3820 17 6200 020/09 RMK AO2 T02830017
24044KAIA AIA20160625173510906/25/16 17:35:31  5-MIN KAIA 260035Z AUTO 03008KT 10SM CLR 28/01 A3005 3820 17 6200 020/08 RMK AO2 T02780006
24044KAIA AIA20160625174010906/25/16 17:40:31  5-MIN KAIA 260040Z AUTO 03007KT 10SM CLR 28/01 A3005 3820 17 6200 020/07 RMK AO2 T02780011
24044KAIA AIA20160625174510906/25/16 17:45:31  5-MIN KAIA 260045Z AUTO 01008KT 10SM CLR 28/01 A3005 3820 17 6200 010/08 RMK AO2 T02780011
24044KAIA AIA20160625175011606/25/16 17:50:31  5-MIN KAIA 260050Z AUTO 02006KT 10SM CLR 27/02 A3005 3820 19 6000 010/06 RMK AO2 SLP133 T02670017
24044KAIA AIA20160625175510906/25/16 17:55:31  5-MIN KAIA 260055Z AUTO 01006KT 10SM CLR 27/03 A3005 3820 21 6000 010/06 RMK AO2 T02670028
24044KAIA AIA20160625180010906/25/16 18:00:31  5-MIN KAIA 260100Z AUTO 02006KT 10SM CLR 27/04 A3005 3820 22 6000 010/06 RMK AO2 T02670039
24044KAIA AIA20160625180510906/25/16 18:05:31  5-MIN KAIA 260105Z AUTO 02006KT 10SM CLR 27/03 A3005 3820 22 6000 010/06 RMK AO2 T02670033
24044KAIA AIA20160625181010906/25/16 18:10:31  5-MIN KAIA 260110Z AUTO 01005KT 10SM CLR 26/04 A3005 3820 23 6000 360/05 RMK AO2 T02610039
24044KAIA AIA20160625181510906/25/16 18:15:31  5-MIN KAIA 260115Z AUTO 02005KT 10SM CLR 27/04 A3004 3820 22 6000 010/05 RMK AO2 T02670039
24044KAIA AIA20160625182010906/25/16 18:20:31  5-MIN KAIA 260120Z AUTO 02005KT 10SM CLR 27/04 A3005 3820 23 6000 010/05 RMK AO2 T02670044
24044KAIA AIA20160625182510906/25/16 18:25:31  5-MIN KAIA 260125Z AUTO 01005KT 10SM CLR 27/05 A3005 3820 24 6000 010/05 RMK AO2 T02670050
24044KAIA AIA20160625183010906/25/16 18:30:31  5-MIN KAIA 260130Z AUTO 02005KT 10SM CLR 26/06 A3005 3820 26 6000 020/05 RMK AO2 T02610056
24044KAIA AIA20160625183510906/25/16 18:35:31  5-MIN KAIA 260135Z AUTO 04005KT 10SM CLR 26/06 A3005 3810 28 5900 030/05 RMK AO2 T02560061
24044KAIA AIA20160625184010906/25/16 18:40:31  5-MIN KAIA 260140Z AUTO 03003KT 10SM CLR 26/07 A3005 3820 29 5900 030/03 RMK AO2 T02560067
24044KAIA AIA20160625184510906/25/16 18:45:31  5-MIN KAIA 260145Z AUTO 04004KT 10SM CLR 25/07 A3005 3810 31 5900 040/04 RMK AO2 T02500072
24044KAIA AIA20160625185011606/25/16 18:50:31  5-MIN KAIA 260150Z AUTO 06004KT 10SM CLR 25/06 A3005 3810 29 5900 050/04 RMK AO2 SLP136 T02500061
24044KAIA AIA20160625185510906/25/16 18:55:31  5-MIN KAIA 260155Z AUTO 06004KT 10SM CLR 24/05 A3005 3810 28 5800 050/04 RMK AO2 T02440050
24044KAIA AIA20160625190010906/25/16 19:00:31  5-MIN KAIA 260200Z AUTO 04004KT 10SM CLR 24/06 A3006 3810 31 5700 030/04 RMK AO2 T02390061
24044KAIA AIA20160625190510906/25/16 19:05:31  5-MIN KAIA 260205Z AUTO 06005KT 10SM CLR 23/07 A3006 3800 33 5700 050/05 RMK AO2 T02330067
24044KAIA AIA20160625191010906/25/16 19:10:31  5-MIN KAIA 260210Z AUTO 35005KT 10SM CLR 23/07 A3006 3800 35 5600 350/05 RMK AO2 T02280067
24044KAIA AIA20160625191510906/25/16 19:15:31  5-MIN KAIA 260215Z AUTO 03004KT 10SM CLR 22/06 A3007 3800 35 5500 020/04 RMK AO2 T02220061
24044KAIA AIA20160625192010906/25/16 19:20:31  5-MIN KAIA 260220Z AUTO 03004KT 10SM CLR 23/06 A3007 3800 32 5600 030/04 RMK AO2 T02280056
24044KAIA AIA20160625192510906/25/16 19:25:31  5-MIN KAIA 260225Z AUTO 04004KT 10SM CLR 23/04 A3007 3790 29 5600 030/04 RMK AO2 T02330044
24044KAIA AIA20160625193010906/25/16 19:30:31  5-MIN KAIA 260230Z AUTO 04004KT 10SM CLR 23/04 A3008 3790 30 5600 030/04 RMK AO2 T02280044
24044KAIA AIA20160625193510906/25/16 19:35:31  5-MIN KAIA 260235Z AUTO VRB03KT 10SM CLR 22/05 A3008 3790 32 5500 VRB/03 RMK AO2 T02220050
24044KAIA AIA20160625194010906/25/16 19:40:31  5-MIN KAIA 260240Z AUTO 08004KT 10SM CLR 21/06 A3008 3780 38 5300 080/04 RMK AO2 T02060061
24044KAIA AIA20160625194510906/25/16 19:45:31  5-MIN KAIA 260245Z AUTO 15006KT 10SM CLR 18/06 A3008 3780 44 5000 140/06 RMK AO2 T01780056
24044KAIA AIA20160625195012206/25/16 19:50:31  5-MIN KAIA 260250Z AUTO 15005KT 10SM CLR 17/05 A3009 3780 44 4900 140/05 RMK AO2 SLP156 T01720050 58002
24044KAIA AIA20160625195510906/25/16 19:55:31  5-MIN KAIA 260255Z AUTO 16006KT 10SM CLR 18/04 A3009 3780 41 5000 150/06 RMK AO2 T01780044
24044KAIA AIA20160625200010906/25/16 20:00:31  5-MIN KAIA 260300Z AUTO 16006KT 10SM CLR 18/04 A3009 3770 41 5000 150/06 RMK AO2 T01780044
24044KAIA AIA20160625200510906/25/16 20:05:31  5-MIN KAIA 260305Z AUTO 16005KT 10SM CLR 18/04 A3009 3770 39 5100 150/05 RMK AO2 T01830044
24044KAIA AIA20160625201010906/25/16 20:10:31  5-MIN KAIA 260310Z AUTO 16006KT 10SM CLR 18/04 A3010 3770 41 5000 150/06 RMK AO2 T01780044
24044KAIA AIA20160625201510906/25/16 20:15:31  5-MIN KAIA 260315Z AUTO 16007KT 10SM CLR 17/05 A3010 3770 44 4900 150/07 RMK AO2 T01720050
24044KAIA AIA20160625202010906/25/16 20:20:31  5-MIN KAIA 260320Z AUTO 15006KT 10SM CLR 17/06 A3010 3770 49 4900 140/06 RMK AO2 T01670061
24044KAIA AIA20160625202510906/25/16 20:25:31  5-MIN KAIA 260325Z AUTO 16007KT 10SM CLR 16/07 A3010 3770 55 4700 150/07 RMK AO2 T01560067
24044KAIA AIA20160625203010906/25/16 20:30:31  5-MIN KAIA 260330Z AUTO 16007KT 10SM CLR 16/07 A3010 3770 57 4700 150/07 RMK AO2 T01560072
24044KAIA AIA20160625203510906/25/16 20:35:31  5-MIN KAIA 260335Z AUTO 15007KT 10SM CLR 15/07 A3010 3770 57 4700 140/07 RMK AO2 T01500067
24044KAIA AIA20160625204010906/25/16 20:40:31  5-MIN KAIA 260340Z AUTO 15007KT 10SM CLR 15/07 A3010 3770 57 4700 140/07 RMK AO2 T01500067
24044KAIA AIA20160625204510906/25/16 20:45:31  5-MIN KAIA 260345Z AUTO 15006KT 10SM CLR 16/07 A3010 3770 55 4700 140/06 RMK AO2 T01560067
24044KAIA AIA20160625205011606/25/16 20:50:31  5-MIN KAIA 260350Z AUTO 15006KT 10SM CLR 16/06 A3010 3770 53 4700 140/06 RMK AO2 SLP160 T01560061
24044KAIA AIA20160625205510906/25/16 20:55:31  5-MIN KAIA 260355Z AUTO 14006KT 10SM CLR 16/06 A3011 3760 51 4800 130/06 RMK AO2 T01610061
24044KAIA AIA20160625210010906/25/16 21:00:31  5-MIN KAIA 260400Z AUTO 16008KT 10SM CLR 16/07 A3011 3760 55 4700 160/08 RMK AO2 T01560067
24044KAIA AIA20160625210510906/25/16 21:05:31  5-MIN KAIA 260405Z AUTO 15005KT 10SM CLR 14/07 A3011 3760 59 4600 140/05 RMK AO2 T01440067
24044KAIA AIA20160625211010906/25/16 21:10:31  5-MIN KAIA 260410Z AUTO 14005KT 10SM CLR 15/06 A3011 3760 55 4700 140/05 RMK AO2 T01500061
24044KAIA AIA20160625211510906/25/16 21:15:31  5-MIN KAIA 260415Z AUTO 15004KT 10SM CLR 16/06 A3011 3760 53 4700 140/04 RMK AO2 T01560061
24044KAIA AIA20160625212010906/25/16 21:20:31  5-MIN KAIA 260420Z AUTO 16006KT 10SM CLR 15/06 A3011 3760 55 4700 150/06 RMK AO2 T01500061
24044KAIA AIA20160625212510906/25/16 21:25:31  5-MIN KAIA 260425Z AUTO 16006KT 10SM CLR 15/06 A3011 3760 55 4700 160/06 RMK AO2 T01500061
24044KAIA AIA20160625213010906/25/16 21:30:31  5-MIN KAIA 260430Z AUTO 17007KT 10SM CLR 14/06 A3011 3760 57 4500 160/07 RMK AO2 T01390056
24044KAIA AIA20160625213510906/25/16 21:35:31  5-MIN KAIA 260435Z AUTO 16005KT 10SM CLR 14/06 A3011 3760 55 4600 150/05 RMK AO2 T01440056
24044KAIA AIA20160625214010906/25/16 21:40:31  5-MIN KAIA 260440Z AUTO 07004KT 10SM CLR 13/05 A3012 3750 57 4500 070/04 RMK AO2 T01330050
24044KAIA AIA20160625214510906/25/16 21:45:31  5-MIN KAIA 260445Z AUTO 10003KT 10SM CLR 14/04 A3012 3750 51 4600 090/03 RMK AO2 T01440044
24044KAIA AIA20160625215011606/25/16 21:50:31  5-MIN KAIA 260450Z AUTO 00000KT 10SM CLR 14/04 A3012 3750 51 4600 000/00 RMK AO2 SLP165 T01440044
24044KAIA AIA20160625215510906/25/16 21:55:31  5-MIN KAIA 260455Z AUTO 14005KT 10SM CLR 14/04 A3012 3750 51 4600 140/05 RMK AO2 T01440044
24044KAIA AIA20160625220010906/25/16 22:00:31  5-MIN KAIA 260500Z AUTO 14006KT 10SM CLR 15/04 A3013 3740 47 4600 130/06 RMK AO2 T01500039
24044KAIA AIA20160625220510906/25/16 22:05:31  5-MIN KAIA 260505Z AUTO 14007KT 10SM CLR 14/04 A3013 3740 51 4600 140/07 RMK AO2 T01440044
24044KAIA AIA20160625221010906/25/16 22:10:31  5-MIN KAIA 260510Z AUTO 14009KT 10SM CLR 14/04 A3013 3740 52 4500 130/09 RMK AO2 T01390044
24044KAIA AIA20160625221510906/25/16 22:15:31  5-MIN KAIA 260515Z AUTO 15008KT 10SM CLR 14/05 A3014 3740 53 4600 140/08 RMK AO2 T01440050
24044KAIA AIA20160625222010906/25/16 22:20:31  5-MIN KAIA 260520Z AUTO 16007KT 10SM CLR 14/05 A3014 3730 53 4600 150/07 RMK AO2 T01440050
24044KAIA AIA20160625222510906/25/16 22:25:31  5-MIN KAIA 260525Z AUTO 18008KT 10SM CLR 14/05 A3014 3730 53 4600 170/08 RMK AO2 T01440050
24044KAIA AIA20160625223010906/25/16 22:30:31  5-MIN KAIA 260530Z AUTO 18007KT 10SM CLR 14/06 A3014 3730 55 4600 170/07 RMK AO2 T01440056
24044KAIA AIA20160625223510906/25/16 22:35:31  5-MIN KAIA 260535Z AUTO 18007KT 10SM CLR 14/06 A3014 3730 57 4500 170/07 RMK AO2 T01390056
24044KAIA AIA20160625224010906/25/16 22:40:31  5-MIN KAIA 260540Z AUTO 17006KT 10SM CLR 14/06 A3014 3730 57 4500 160/06 RMK AO2 T01390056
24044KAIA AIA20160625224510906/25/16 22:45:31  5-MIN KAIA 260545Z AUTO 18007KT 10SM CLR 13/06 A3014 3730 61 4400 170/07 RMK AO2 T01330061
24044KAIA AIA20160625225013406/25/16 22:50:31  5-MIN KAIA 260550Z AUTO 18007KT 10SM CLR 13/06 A3014 3730 61 4400 170/07 RMK AO2 SLP172 T01330061 10294 20133 53015
24044KAIA AIA20160625225510906/25/16 22:55:31  5-MIN KAIA 260555Z AUTO 19006KT 10SM CLR 14/07 A3014 3730 64 4500 180/06 RMK AO2 T01390072
24044KAIA AIA20160625230010906/25/16 23:00:31  5-MIN KAIA 260600Z AUTO 19007KT 10SM CLR 14/08 A3014 3730 64 4600 180/07 RMK AO2 T01440078
24044KAIA AIA20160625230510906/25/16 23:05:31  5-MIN KAIA 260605Z AUTO 18007KT 10SM CLR 16/08 A3014 3730 62 4700 180/07 RMK AO2 T01560083
24044KAIA AIA20160625231010906/25/16 23:10:31  5-MIN KAIA 260610Z AUTO 19008KT 10SM CLR 16/08 A3014 3730 62 4700 180/08 RMK AO2 T01560083
24044KAIA AIA20160625231510906/25/16 23:15:31  5-MIN KAIA 260615Z AUTO 19008KT 10SM CLR 16/09 A3015 3730 64 4700 180/08 RMK AO2 T01560089
24044KAIA AIA20160625232010906/25/16 23:20:31  5-MIN KAIA 260620Z AUTO 20009KT 10SM CLR 16/09 A3014 3730 62 4800 190/09 RMK AO2 T01610089
24044KAIA AIA20160625232510906/25/16 23:25:31  5-MIN KAIA 260625Z AUTO 19009KT 10SM CLR 17/09 A3015 3730 60 4800 190/09 RMK AO2 T01670089
24044KAIA AIA20160625233010906/25/16 23:30:31  5-MIN KAIA 260630Z AUTO 19008KT 10SM CLR 17/09 A3015 3720 62 4800 180/08 RMK AO2 T01670094
24044KAIA AIA20160625233510906/25/16 23:35:31  5-MIN KAIA 260635Z AUTO 18008KT 10SM CLR 16/09 A3015 3720 64 4700 170/08 RMK AO2 T01610094
24044KAIA AIA20160625234010906/25/16 23:40:31  5-MIN KAIA 260640Z AUTO 18007KT 10SM CLR 16/09 A3015 3720 67 4700 170/07 RMK AO2 T01560094
24044KAIA AIA20160625234510906/25/16 23:45:31  5-MIN KAIA 260645Z AUTO 18006KT 10SM CLR 15/09 A3015 3720 66 4600 170/06 RMK AO2 T01500089
24044KAIA AIA20160625235012606/25/16 23:50:31  5-MIN KAIA 260650Z AUTO 17006KT 10SM CLR 14/09 A3016 3720 71 4500 170/06 RMK AO2 SLP173 T01390089 403000133
24044KAIA AIA20160625235510906/25/16 23:55:31  5-MIN KAIA 260655Z AUTO 18007KT 10SM CLR 13/09 A3016 3710 74 4400 170/07 RMK AO2 T01330089
24044KAIA AIA20160626000010906/26/16 00:00:31  5-MIN KAIA 260700Z AUTO 18007KT 10SM CLR 13/09 A3016 3710 74 4400 170/07 RMK AO2 T01330089
24044KAIA AIA20160626000510906/26/16 00:05:31  5-MIN KAIA 260705Z AUTO 18006KT 10SM CLR 13/09 A3016 3710 74 4400 170/06 RMK AO2 T01330089
24044KAIA AIA20160626001010906/26/16 00:10:31  5-MIN KAIA 260710Z AUTO 18006KT 10SM CLR 13/09 A3016 3710 77 4400 170/06 RMK AO2 T01330094
24044KAIA AIA20160626001510906/26/16 00:15:31  5-MIN KAIA 260715Z AUTO 17005KT 10SM CLR 13/09 A3016 3710 80 4300 170/05 RMK AO2 T01280094
24044KAIA AIA20160626002010906/26/16 00:20:31  5-MIN KAIA 260720Z AUTO 17006KT 10SM CLR 12/09 A3017 3710 80 4300 160/06 RMK AO2 T01220089
24044KAIA AIA20160626002510906/26/16 00:25:31  5-MIN KAIA 260725Z AUTO 17006KT 10SM CLR 12/09 A3017 3710 83 4300 170/06 RMK AO2 T01220094
24044KAIA AIA20160626003010906/26/16 00:30:31  5-MIN KAIA 260730Z AUTO 18006KT 10SM CLR 13/09 A3017 3710 80 4300 170/06 RMK AO2 T01280094
24044KAIA AIA20160626003510906/26/16 00:35:31  5-MIN KAIA 260735Z AUTO 18007KT 10SM CLR 13/09 A3017 3710 80 4300 170/07 RMK AO2 T01280094
24044KAIA AIA20160626004010906/26/16 00:40:31  5-MIN KAIA 260740Z AUTO 17007KT 10SM CLR 13/10 A3017 3710 80 4400 170/07 RMK AO2 T01330100
24044KAIA AIA20160626004510906/26/16 00:45:31  5-MIN KAIA 260745Z AUTO 17007KT 10SM CLR 13/10 A3017 3710 80 4400 160/07 RMK AO2 T01330100
24044KAIA AIA20160626005011606/26/16 00:50:31  5-MIN KAIA 260750Z AUTO 18007KT 10SM CLR 13/10 A3017 3710 83 4300 170/07 RMK AO2 SLP177 T01280100
24044KAIA AIA20160626005510906/26/16 00:55:31  5-MIN KAIA 260755Z AUTO 18008KT 10SM CLR 13/10 A3017 3710 80 4400 180/08 RMK AO2 T01330100
24044KAIA AIA20160626010010906/26/16 01:00:31  5-MIN KAIA 260800Z AUTO 19008KT 10SM CLR 15/11 A3017 3710 74 4600 180/08 RMK AO2 T01500106
24044KAIA AIA20160626010510906/26/16 01:05:31  5-MIN KAIA 260805Z AUTO 20007KT 10SM CLR 15/11 A3017 3710 77 4600 190/07 RMK AO2 T01500111
24044KAIA AIA20160626011010906/26/16 01:10:31  5-MIN KAIA 260810Z AUTO 20006KT 10SM CLR 15/11 A3017 3710 77 4600 190/06 RMK AO2 T01500111
24044KAIA AIA20160626011510906/26/16 01:15:31  5-MIN KAIA 260815Z AUTO 20006KT 10SM CLR 15/11 A3017 3710 77 4600 190/06 RMK AO2 T01500111
24044KAIA AIA20160626012010906/26/16 01:20:31  5-MIN KAIA 260820Z AUTO 19006KT 10SM CLR 15/11 A3017 3710 77 4600 190/06 RMK AO2 T01500111
24044KAIA AIA20160626012510906/26/16 01:25:31  5-MIN KAIA 260825Z AUTO 19006KT 10SM CLR 15/11 A3017 3710 77 4600 180/06 RMK AO2 T01500111
24044KAIA AIA20160626013010906/26/16 01:30:31  5-MIN KAIA 260830Z AUTO 20006KT 10SM CLR 14/11 A3017 3710 80 4500 190/06 RMK AO2 T01440111
24044KAIA AIA20160626013510906/26/16 01:35:31  5-MIN KAIA 260835Z AUTO 20006KT 10SM CLR 14/11 A3017 3710 83 4500 190/06 RMK AO2 T01390111
24044KAIA AIA20160626014010906/26/16 01:40:31  5-MIN KAIA 260840Z AUTO 20007KT 10SM CLR 14/11 A3017 3710 80 4500 190/07 RMK AO2 T01440111
24044KAIA AIA20160626014510906/26/16 01:45:31  5-MIN KAIA 260845Z AUTO 19007KT 10SM CLR 14/11 A3017 3710 80 4500 180/07 RMK AO2 T01440111
24044KAIA AIA20160626015012206/26/16 01:50:31  5-MIN KAIA 260850Z AUTO 19006KT 10SM CLR 14/11 A3016 3710 83 4500 190/06 RMK AO2 SLP174 T01390111 53017
24044KAIA AIA20160626015510906/26/16 01:55:31  5-MIN KAIA 260855Z AUTO 20006KT 10SM CLR 14/11 A3016 3710 80 4500 190/06 RMK AO2 T01440111
24044KAIA AIA20160626020010906/26/16 02:00:31  5-MIN KAIA 260900Z AUTO 19006KT 10SM CLR 14/11 A3016 3710 80 4500 180/06 RMK AO2 T01440111
24044KAIA AIA20160626020510906/26/16 02:05:31  5-MIN KAIA 260905Z AUTO 19005KT 10SM CLR 14/11 A3016 3710 80 4500 180/05 RMK AO2 T01440111
24044KAIA AIA20160626021010906/26/16 02:10:31  5-MIN KAIA 260910Z AUTO 19006KT 10SM CLR 14/11 A3016 3710 80 4500 180/06 RMK AO2 T01440111
24044KAIA AIA20160626021510906/26/16 02:15:31  5-MIN KAIA 260915Z AUTO 18006KT 10SM CLR 14/11 A3016 3710 83 4500 170/06 RMK AO2 T01390111
24044KAIA AIA20160626022010906/26/16 02:20:31  5-MIN KAIA 260920Z AUTO 17006KT 10SM CLR 13/11 A3016 3710 86 4400 160/06 RMK AO2 T01280106
24044KAIA AIA20160626022510906/26/16 02:25:31  5-MIN KAIA 260925Z AUTO 16005KT 10SM CLR 13/11 A3016 3710 86 4400 160/05 RMK AO2 T01280106
24044KAIA AIA20160626023010906/26/16 02:30:31  5-MIN KAIA 260930Z AUTO 18004KT 10SM CLR 12/10 A3016 3710 86 4300 170/04 RMK AO2 T01220100
24044KAIA AIA20160626023510906/26/16 02:35:31  5-MIN KAIA 260935Z AUTO 00000KT 10SM CLR 13/10 A3016 3710 83 4400 000/00 RMK AO2 T01280100
24044KAIA AIA20160626024010906/26/16 02:40:31  5-MIN KAIA 260940Z AUTO 00000KT 10SM CLR 13/11 A3016 3710 83 4400 000/00 RMK AO2 T01330106
24044KAIA AIA20160626024510906/26/16 02:45:31  5-MIN KAIA 260945Z AUTO 13004KT 10SM CLR 13/11 A3016 3710 83 4400 120/04 RMK AO2 T01330106
24044KAIA AIA20160626025011606/26/16 02:50:31  5-MIN KAIA 260950Z AUTO 17003KT 10SM CLR 13/11 A3016 3710 86 4300 160/03 RMK AO2 SLP174 T01280106
24044KAIA AIA20160626025510906/26/16 02:55:31  5-MIN KAIA 260955Z AUTO 16003KT 10SM CLR 13/11 A3016 3710 86 4400 150/03 RMK AO2 T01280106
24044KAIA AIA20160626030010906/26/16 03:00:31  5-MIN KAIA 261000Z AUTO 15003KT 10SM CLR 12/11 A3016 3710 89 4300 150/03 RMK AO2 T01220106
24044KAIA AIA20160626030510906/26/16 03:05:31  5-MIN KAIA 261005Z AUTO 15003KT 10SM CLR 12/10 A3016 3710 89 4200 150/03 RMK AO2 T01170100
24044KAIA AIA20160626031010906/26/16 03:10:31  5-MIN KAIA 261010Z AUTO 18003KT 10SM CLR 12/10 A3016 3710 89 4200 170/03 RMK AO2 T01170100
24044KAIA AIA20160626031510906/26/16 03:15:31  5-MIN KAIA 261015Z AUTO 22003KT 10SM CLR 12/10 A3016 3710 89 4200 210/03 RMK AO2 T01170100
24044KAIA AIA20160626032010906/26/16 03:20:31  5-MIN KAIA 261020Z AUTO 23003KT 10SM CLR 12/10 A3016 3720 89 4200 220/03 RMK AO2 T01170100
24044KAIA AIA20160626032510906/26/16 03:25:31  5-MIN KAIA 261025Z AUTO 22004KT 10SM CLR 12/10 A3016 3720 89 4200 210/04 RMK AO2 T01170100
24044KAIA AIA20160626033010906/26/16 03:30:31  5-MIN KAIA 261030Z AUTO 21004KT 10SM CLR 13/11 A3016 3720 86 4400 200/04 RMK AO2 T01280106
24044KAIA AIA20160626033510906/26/16 03:35:31  5-MIN KAIA 261035Z AUTO 21003KT 10SM CLR 13/11 A3016 3720 86 4400 200/03 RMK AO2 T01280106
24044KAIA AIA20160626034010906/26/16 03:40:31  5-MIN KAIA 261040Z AUTO 00000KT 10SM CLR 12/11 A3015 3720 89 4300 000/00 RMK AO2 T01220106
24044KAIA AIA20160626034510906/26/16 03:45:31  5-MIN KAIA 261045Z AUTO 00000KT 10SM CLR 12/10 A3016 3720 86 4300 000/00 RMK AO2 T01220100
24044KAIA AIA20160626035011606/26/16 03:50:31  5-MIN KAIA 261050Z AUTO 00000KT 10SM CLR 12/10 A3015 3720 86 4300 000/00 RMK AO2 SLP173 T01220100
24044KAIA AIA20160626035510906/26/16 03:55:31  5-MIN KAIA 261055Z AUTO 00000KT 10SM CLR 12/11 A3016 3720 89 4300 000/00 RMK AO2 T01220106
24044KAIA AIA20160626040010906/26/16 04:00:31  5-MIN KAIA 261100Z AUTO 27003KT 10SM CLR 13/11 A3016 3720 86 4400 260/03 RMK AO2 T01280106
24044KAIA AIA20160626040510906/26/16 04:05:31  5-MIN KAIA 261105Z AUTO 30003KT 10SM CLR 13/11 A3016 3720 83 4400 290/03 RMK AO2 T01330106
24044KAIA AIA20160626041010906/26/16 04:10:31  5-MIN KAIA 261110Z AUTO 31003KT 10SM CLR 12/11 A3016 3720 89 4300 300/03 RMK AO2 T01220106
24044KAIA AIA20160626041510906/26/16 04:15:31  5-MIN KAIA 261115Z AUTO 00000KT 10SM CLR 12/10 A3016 3720 89 4200 000/00 RMK AO2 T01170100
24044KAIA AIA20160626042010906/26/16 04:20:31  5-MIN KAIA 261120Z AUTO 29003KT 10SM CLR 12/10 A3016 3720 86 4300 280/03 RMK AO2 T01220100
24044KAIA AIA20160626042510906/26/16 04:25:31  5-MIN KAIA 261125Z AUTO 00000KT 10SM CLR 12/10 A3016 3710 86 4300 000/00 RMK AO2 T01220100
24044KAIA AIA20160626043010906/26/16 04:30:31  5-MIN KAIA 261130Z AUTO 00000KT 10SM CLR 12/11 A3016 3710 89 4300 000/00 RMK AO2 T01220106
24044KAIA AIA20160626043510906/26/16 04:35:31  5-MIN KAIA 261135Z AUTO 00000KT 10SM CLR 12/10 A3016 3710 89 4200 000/00 RMK AO2 T01170100
24044KAIA AIA20160626044010906/26/16 04:40:31  5-MIN KAIA 261140Z AUTO 00000KT 10SM CLR 12/10 A3016 3710 89 4200 000/00 RMK AO2 T01170100
24044KAIA AIA20160626044510906/26/16 04:45:31  5-MIN KAIA 261145Z AUTO 00000KT 10SM CLR 11/09 A3017 3710 93 4100 000/00 RMK AO2 T01060094
24044KAIA AIA20160626045013406/26/16 04:50:31  5-MIN KAIA 261150Z AUTO 00000KT 10SM CLR 11/09 A3017 3700 93 4100 000/00 RMK AO2 SLP180 T01060094 10167 20106 50006
24044KAIA AIA20160626045510906/26/16 04:55:31  5-MIN KAIA 261155Z AUTO 25003KT 10SM CLR 11/10 A3017 3700 93 4100 240/03 RMK AO2 T01110100
24044KAIA AIA20160626050010906/26/16 05:00:31  5-MIN KAIA 261200Z AUTO 25003KT 10SM CLR 12/10 A3017 3700 89 4200 240/03 RMK AO2 T01170100
24044KAIA AIA20160626050510906/26/16 05:05:31  5-MIN KAIA 261205Z AUTO 26003KT 10SM CLR 12/11 A3017 3700 89 4300 260/03 RMK AO2 T01220106
24044KAIA AIA20160626051010906/26/16 05:10:31  5-MIN KAIA 261210Z AUTO 29004KT 10SM CLR 12/11 A3017 3700 89 4300 280/04 RMK AO2 T01220106
24044KAIA AIA20160626051510906/26/16 05:15:31  5-MIN KAIA 261215Z AUTO 29004KT 10SM CLR 13/11 A3017 3700 86 4300 290/04 RMK AO2 T01280106
24044KAIA AIA20160626052010906/26/16 05:20:31  5-MIN KAIA 261220Z AUTO 28003KT 10SM CLR 13/11 A3017 3700 86 4400 270/03 RMK AO2 T01330111
24044KAIA AIA20160626052510906/26/16 05:25:31  5-MIN KAIA 261225Z AUTO 27003KT 10SM CLR 14/12 A3017 3700 86 4500 260/03 RMK AO2 T01390117
24044KAIA AIA20160626053010906/26/16 05:30:31  5-MIN KAIA 261230Z AUTO 29003KT 10SM CLR 14/12 A3017 3700 83 4500 280/03 RMK AO2 T01440117
24044KAIA AIA20160626053510906/26/16 05:35:31  5-MIN KAIA 261235Z AUTO 00000KT 10SM CLR 15/12 A3017 3700 80 4600 000/00 RMK AO2 T01500117
24044KAIA AIA20160626054010906/26/16 05:40:31  5-MIN KAIA 261240Z AUTO 00000KT 10SM CLR 16/12 A3017 3700 80 4700 000/00 RMK AO2 T01560122
24044KAIA AIA20160626054510906/26/16 05:45:31  5-MIN KAIA 261245Z AUTO 00000KT 10SM CLR 16/12 A3017 3700 80 4700 000/00 RMK AO2 T01560122
24044KAIA AIA20160626055011606/26/16 05:50:31  5-MIN KAIA 261250Z AUTO 27003KT 10SM CLR 16/12 A3017 3700 77 4700 260/03 RMK AO2 SLP177 T01610122
24044KAIA AIA20160626055510906/26/16 05:55:31  5-MIN KAIA 261255Z AUTO 27003KT 10SM CLR 17/12 A3018 3700 75 4800 260/03 RMK AO2 T01670122
24044KAIA AIA20160626060010906/26/16 06:00:31  5-MIN KAIA 261300Z AUTO 00000KT 10SM CLR 17/12 A3018 3700 75 4800 000/00 RMK AO2 T01670122
24044KAIA AIA20160626060510906/26/16 06:05:31  5-MIN KAIA 261305Z AUTO 00000KT 10SM CLR 17/12 A3018 3700 72 4800 000/00 RMK AO2 T01720122
24044KAIA AIA20160626061010906/26/16 06:10:31  5-MIN KAIA 261310Z AUTO 00000KT 10SM CLR 18/13 A3018 3700 72 4900 000/00 RMK AO2 T01780128
24044KAIA AIA20160626061510906/26/16 06:15:31  5-MIN KAIA 261315Z AUTO 00000KT 10SM CLR 18/13 A3018 3700 72 4900 000/00 RMK AO2 T01780128
24044KAIA AIA20160626062010906/26/16 06:20:31  5-MIN KAIA 261320Z AUTO 00000KT 10SM CLR 18/12 A3018 3700 67 5000 000/00 RMK AO2 T01830122
24044KAIA AIA20160626062510906/26/16 06:25:31  5-MIN KAIA 261325Z AUTO 00000KT 10SM CLR 19/12 A3018 3690 65 5000 000/00 RMK AO2 T01890122
24044KAIA AIA20160626063010906/26/16 06:30:31  5-MIN KAIA 261330Z AUTO 00000KT 10SM CLR 19/12 A3018 3690 62 5100 000/00 RMK AO2 T01940122
24044KAIA AIA20160626063510906/26/16 06:35:31  5-MIN KAIA 261335Z AUTO 01004KT 10SM CLR 20/12 A3019 3690 60 5100 360/04 RMK AO2 T02000122
24044KAIA AIA20160626064010906/26/16 06:40:31  5-MIN KAIA 261340Z AUTO 03004KT 10SM CLR 20/13 A3018 3690 63 5100 020/04 RMK AO2 T02000128
24044KAIA AIA20160626064510906/26/16 06:45:31  5-MIN KAIA 261345Z AUTO 03004KT 10SM CLR 21/13 A3018 3690 60 5200 020/04 RMK AO2 T02060128
24044KAIA AIA20160626065011606/26/16 06:50:31  5-MIN KAIA 261350Z AUTO 03004KT 10SM CLR 21/13 A3018 3690 60 5200 020/04 RMK AO2 SLP178 T02060128
24044KAIA AIA20160626065510906/26/16 06:55:31  5-MIN KAIA 261355Z AUTO 02007KT 10SM CLR 21/13 A3019 3690 63 5200 020/07 RMK AO2 T02060133
24044KAIA AIA20160626070010906/26/16 07:00:31  5-MIN KAIA 261400Z AUTO 36006KT 10SM CLR 21/13 A3019 3690 63 5200 360/06 RMK AO2 T02060133
24044KAIA AIA20160626070510906/26/16 07:05:31  5-MIN KAIA 261405Z AUTO 02005KT 10SM CLR 21/13 A3019 3690 63 5200 020/05 RMK AO2 T02060133
24044KAIA AIA20160626071010906/26/16 07:10:31  5-MIN KAIA 261410Z AUTO 02006KT 10SM CLR 21/13 A3019 3690 61 5300 010/06 RMK AO2 T02110133
24044KAIA AIA20160626071510906/26/16 07:15:31  5-MIN KAIA 261415Z AUTO 02007KT 10SM CLR 21/13 A3019 3690 58 5300 010/07 RMK AO2 T02110128
24044KAIA AIA20160626072010906/26/16 07:20:31  5-MIN KAIA 261420Z AUTO 03005KT 10SM CLR 22/13 A3019 3690 56 5300 020/05 RMK AO2 T02170128
24044KAIA AIA20160626072510906/26/16 07:25:31  5-MIN KAIA 261425Z AUTO 01004KT 10SM CLR 22/13 A3019 3690 54 5400 360/04 RMK AO2 T02220128
24044KAIA AIA20160626073010906/26/16 07:30:31  5-MIN KAIA 261430Z AUTO 36005KT 10SM CLR 22/13 A3019 3690 54 5400 350/05 RMK AO2 T02220128
24044KAIA AIA20160626073510906/26/16 07:35:31  5-MIN KAIA 261435Z AUTO 36003KT 10SM CLR 22/12 A3019 3690 52 5400 350/03 RMK AO2 T02220122
24044KAIA AIA20160626074010906/26/16 07:40:31  5-MIN KAIA 261440Z AUTO 00000KT 10SM CLR 22/12 A3019 3690 51 5400 000/00 RMK AO2 T02220117
24044KAIA AIA20160626074510906/26/16 07:45:31  5-MIN KAIA 261445Z AUTO 00000KT 10SM CLR 23/12 A3019 3690 49 5500 000/00 RMK AO2 T02280117
24044KAIA AIA20160626075012206/26/16 07:50:31  5-MIN KAIA 261450Z AUTO VRB03KT 10SM CLR 23/12 A3019 3690 49 5500 VRB/03 RMK AO2 SLP185 T02330122 53002
24044KAIA AIA20160626075510906/26/16 07:55:31  5-MIN KAIA 261455Z AUTO VRB03KT 10SM CLR 23/13 A3019 3690 51 5500 VRB/03 RMK AO2 T02330128
24044KAIA AIA20160626080010906/26/16 08:00:31  5-MIN KAIA 261500Z AUTO 00000KT 10SM CLR 23/12 A3019 3690 49 5500 000/00 RMK AO2 T02330122
24044KAIA AIA20160626080510906/26/16 08:05:31  5-MIN KAIA 261505Z AUTO 07003KT 10SM CLR 23/12 A3019 3690 49 5500 060/03 RMK AO2 T02330122
24044KAIA AIA20160626081010906/26/16 08:10:31  5-MIN KAIA 261510Z AUTO VRB04KT 10SM CLR 24/12 A3019 3690 47 5600 VRB/04 RMK AO2 T02390122
24044KAIA AIA20160626081510906/26/16 08:15:31  5-MIN KAIA 261515Z AUTO 00000KT 10SM CLR 24/12 A3019 3690 47 5600 000/00 RMK AO2 T02390122
24044KAIA AIA20160626082010906/26/16 08:20:31  5-MIN KAIA 261520Z AUTO 35004KT 10SM CLR 24/12 A3018 3690 46 5600 340/04 RMK AO2 T02390117
24044KAIA AIA20160626082510906/26/16 08:25:31  5-MIN KAIA 261525Z AUTO VRB03KT 10SM CLR 24/12 A3018 3690 46 5600 VRB/03 RMK AO2 T02390117
24044KAIA AIA20160626083010906/26/16 08:30:31  5-MIN KAIA 261530Z AUTO 00000KT 10SM CLR 24/11 A3018 3690 42 5600 000/00 RMK AO2 T02440111
24044KAIA AIA20160626083510906/26/16 08:35:31  5-MIN KAIA 261535Z AUTO 00000KT 10SM CLR 25/11 A3018 3690 41 5700 000/00 RMK AO2 T02500111
24044KAIA AIA20160626084010906/26/16 08:40:31  5-MIN KAIA 261540Z AUTO VRB03KT 10SM CLR 25/11 A3018 3690 41 5700 VRB/03 RMK AO2 T02500111
24044KAIA AIA20160626084510906/26/16 08:45:31  5-MIN KAIA 261545Z AUTO VRB03KT 10SM CLR 26/11 A3018 3690 40 5800 VRB/03 RMK AO2 T02560111
24044KAIA AIA20160626085011606/26/16 08:50:31  5-MIN KAIA 261550Z AUTO 00000KT 10SM CLR 26/11 A3018 3690 38 5800 000/00 RMK AO2 SLP180 T02610111
24044KAIA AIA20160626085510906/26/16 08:55:31  5-MIN KAIA 261555Z AUTO 00000KT 10SM CLR 26/11 A3018 3690 38 5800 000/00 RMK AO2 T02610111
24044KAIA AIA20160626090010906/26/16 09:00:31  5-MIN KAIA 261600Z AUTO 14006KT 10SM CLR 27/09 A3018 3700 33 5900 140/06 RMK AO2 T02670094
24044KAIA AIA20160626090510906/26/16 09:05:31  5-MIN KAIA 261605Z AUTO VRB06KT 10SM CLR 27/09 A3018 3690 32 5900 VRB/06 RMK AO2 T02670089
24044KAIA AIA20160626091010906/26/16 09:10:31  5-MIN KAIA 261610Z AUTO VRB05KT 10SM CLR 27/08 A3018 3690 31 5900 VRB/05 RMK AO2 T02670083
24044KAIA AIA20160626091510906/26/16 09:15:31  5-MIN KAIA 261615Z AUTO VRB04KT 10SM CLR 27/08 A3018 3690 29 6000 VRB/04 RMK AO2 T02720078
24044KAIA AIA20160626092010906/26/16 09:20:31  5-MIN KAIA 261620Z AUTO VRB04KT 10SM CLR 27/08 A3018 3690 29 6000 VRB/04 RMK AO2 T02720078
24044KAIA AIA20160626092510906/26/16 09:25:31  5-MIN KAIA 261625Z AUTO 14006KT 10SM CLR 28/08 A3018 3700 29 6000 130/06 RMK AO2 T02780083
24044KAIA AIA20160626093010906/26/16 09:30:31  5-MIN KAIA 261630Z AUTO 17008KT 10SM CLR 28/08 A3018 3700 28 6000 160/08 RMK AO2 T02780078
24044KAIA AIA20160626093510906/26/16 09:35:31  5-MIN KAIA 261635Z AUTO VRB03KT 10SM CLR 28/08 A3018 3700 29 6000 VRB/03 RMK AO2 T02780083
24044KAIA AIA20160626094010906/26/16 09:40:31  5-MIN KAIA 261640Z AUTO 13009KT 10SM CLR 28/08 A3018 3700 27 6100 130/09 RMK AO2 T02830078
24044KAIA AIA20160626094510906/26/16 09:45:31  5-MIN KAIA 261645Z AUTO VRB04KT 10SM CLR 28/08 A3018 3700 27 6100 VRB/04 RMK AO2 T02830078
24044KAIA AIA20160626095011606/26/16 09:50:31  5-MIN KAIA 261650Z AUTO 11006KT 10SM CLR 28/07 A3018 3700 26 6100 100/06 RMK AO2 SLP178 T02830072
24044KAIA AIA20160626095509906/26/16 09:55:31  5-MIN KAIA 261655Z AUTO 10SM CLR 29/07 A3017 3700 25 6100 M /M RMK AO2 T02890072
24044KAIA AIA20160626100010906/26/16 10:00:31  5-MIN KAIA 261700Z AUTO 14011KT 10SM CLR 29/07 A3018 3700 25 6100 130/11 RMK AO2 T02890072
24044KAIA AIA20160626100510906/26/16 10:05:31  5-MIN KAIA 261705Z AUTO 14010KT 10SM CLR 29/07 A3017 3700 23 6200 130/10 RMK AO2 T02940067
24044KAIA AIA20160626101010906/26/16 10:10:31  5-MIN KAIA 261710Z AUTO 16009KT 10SM CLR 29/07 A3017 3700 24 6200 150/09 RMK AO2 T02940072
24044KAIA AIA20160626101510906/26/16 10:15:31  5-MIN KAIA 261715Z AUTO 14005KT 10SM CLR 29/07 A3017 3700 24 6200 130/05 RMK AO2 T02940072
24044KAIA AIA20160626102010906/26/16 10:20:31  5-MIN KAIA 261720Z AUTO 15012KT 10SM CLR 30/07 A3017 3700 22 6300 140/12 RMK AO2 T03000067
24044KAIA AIA20160626102511506/26/16 10:25:31  5-MIN KAIA 261725Z AUTO 15008G14KT 10SM CLR 30/07 A3017 3700 22 6300 150/08G14 RMK AO2 T03000067
24044KAIA AIA20160626103010906/26/16 10:30:31  5-MIN KAIA 261730Z AUTO 17008KT 10SM CLR 30/07 A3017 3700 22 6300 160/08 RMK AO2 T03000067
24044KAIA AIA20160626103510906/26/16 10:35:31  5-MIN KAIA 261735Z AUTO 12008KT 10SM CLR 29/07 A3017 3710 23 6200 120/08 RMK AO2 T02940067
24044KAIA AIA20160626104010906/26/16 10:40:31  5-MIN KAIA 261740Z AUTO VRB06KT 10SM CLR 29/07 A3017 3710 23 6200 VRB/06 RMK AO2 T02940067
24044KAIA AIA20160626104512506/26/16 10:45:31  5-MIN KAIA 261745Z AUTO 13009KT 100V160 10SM CLR 31/07 A3016 3710 22 6300 120/09 090V150 RMK AO2 T03060072
24044KAIA AIA20160626105014006/26/16 10:50:31  5-MIN KAIA 261750Z AUTO 16010G15KT 10SM CLR 31/07 A3016 3710 22 6300 150/10G15 RMK AO2 SLP173 T03060072 10311 20111 51006
24044KAIA AIA20160626105511506/26/16 10:55:31  5-MIN KAIA 261755Z AUTO 14008G15KT 10SM CLR 30/07 A3016 3710 22 6300 130/08G15 RMK AO2 T03000067
24044KAIA AIA20160626110011506/26/16 11:00:31  5-MIN KAIA 261800Z AUTO 14009G15KT 10SM CLR 30/06 A3016 3710 22 6300 130/09G15 RMK AO2 T03000061
24044KAIA AIA20160626110511506/26/16 11:05:31  5-MIN KAIA 261805Z AUTO 13011G17KT 10SM CLR 31/07 A3016 3710 22 6300 120/11G17 RMK AO2 T03060067
24044KAIA AIA20160626111011506/26/16 11:10:31  5-MIN KAIA 261810Z AUTO 11007G17KT 10SM CLR 31/07 A3016 3710 22 6300 110/07G17 RMK AO2 T03060067
24044KAIA AIA20160626111510906/26/16 11:15:31  5-MIN KAIA 261815Z AUTO 14013KT 10SM CLR 31/07 A3016 3720 22 6400 130/13 RMK AO2 T03110072
24044KAIA AIA20160626112011506/26/16 11:20:31  5-MIN KAIA 261820Z AUTO 12010G15KT 10SM CLR 31/07 A3016 3710 22 6400 110/10G15 RMK AO2 T03110072
24044KAIA AIA20160626112511506/26/16 11:25:31  5-MIN KAIA 261825Z AUTO 14010G17KT 10SM CLR 31/07 A3015 3720 22 6300 140/10G17 RMK AO2 T03060067
24044KAIA AIA20160626113011506/26/16 11:30:31  5-MIN KAIA 261830Z AUTO 12012G17KT 10SM CLR 32/06 A3016 3720 20 6500 120/12G17 RMK AO2 T03170061
24044KAIA AIA20160626113511506/26/16 11:35:31  5-MIN KAIA 261835Z AUTO 12011G17KT 10SM CLR 31/06 A3015 3720 19 6400 120/11G17 RMK AO2 T03110056
24044KAIA AIA20160626114011506/26/16 11:40:31  5-MIN KAIA 261840Z AUTO 15008G17KT 10SM CLR 32/06 A3016 3720 20 6500 140/08G17 RMK AO2 T03170061
24044KAIA AIA20160626114511506/26/16 11:45:31  5-MIN KAIA 261845Z AUTO 16012G18KT 10SM CLR 32/06 A3015 3720 20 6500 150/12G18 RMK AO2 T03170061
24044KAIA AIA20160626115012206/26/16 11:50:31  5-MIN KAIA 261850Z AUTO 17011G18KT 10SM CLR 32/05 A3016 3720 18 6500 160/11G18 RMK AO2 SLP168 T03170050
24044KAIA AIA20160626115511506/26/16 11:55:31  5-MIN KAIA 261855Z AUTO 15009G18KT 10SM CLR 31/06 A3015 3720 19 6400 150/09G18 RMK AO2 T03110056
24044KAIA AIA20160626120011506/26/16 12:00:31  5-MIN KAIA 261900Z AUTO 16012G18KT 10SM CLR 32/06 A3015 3720 19 6500 160/12G18 RMK AO2 T03170056
24044KAIA AIA20160626120511506/26/16 12:05:31  5-MIN KAIA 261905Z AUTO 15005G18KT 10SM CLR 31/06 A3015 3720 19 6400 150/05G18 RMK AO2 T03110056
24044KAIA AIA20160626121010906/26/16 12:10:31  5-MIN KAIA 261910Z AUTO 17009KT 10SM CLR 31/06 A3015 3720 19 6400 160/09 RMK AO2 T03110056
24044KAIA AIA20160626121511506/26/16 12:15:31  5-MIN KAIA 261915Z AUTO 17014G17KT 10SM CLR 32/06 A3015 3720 20 6500 160/14G17 RMK AO2 T03170061
24044KAIA AIA20160626122013106/26/16 12:20:31  5-MIN KAIA 261920Z AUTO 17009G17KT 140V210 10SM CLR 32/06 A3015 3720 20 6500 160/09G17 130V200 RMK AO2 T03170061
24044KAIA AIA20160626122510906/26/16 12:25:31  5-MIN KAIA 261925Z AUTO 18004KT 10SM CLR 31/06 A3014 3730 20 6400 170/04 RMK AO2 T03110061
24044KAIA AIA20160626123009906/26/16 12:30:31  5-MIN KAIA 261930Z AUTO 10SM CLR 32/07 A3014 3730 20 6500 M /M RMK AO2 T03170067
24044KAIA AIA20160626123512506/26/16 12:35:31  5-MIN KAIA 261935Z AUTO 16009KT 100V200 10SM CLR 32/07 A3015 3730 20 6500 150/09 090V190 RMK AO2 T03220072
24044KAIA AIA20160626124010906/26/16 12:40:31  5-MIN KAIA 261940Z AUTO 14007KT 10SM CLR 31/07 A3014 3730 21 6400 140/07 RMK AO2 T03110067
24044KAIA AIA20160626124511506/26/16 12:45:31  5-MIN KAIA 261945Z AUTO 14015G20KT 10SM CLR 32/07 A3014 3730 20 6500 130/15G20 RMK AO2 T03220072
24044KAIA AIA20160626125012206/26/16 12:50:31  5-MIN KAIA 261950Z AUTO 17014G20KT 10SM CLR 33/08 A3014 3730 21 6600 160/14G20 RMK AO2 SLP164 T03280078
24044KAIA AIA20160626125511506/26/16 12:55:31  5-MIN KAIA 261955Z AUTO 19010G18KT 10SM CLR 32/08 A3015 3730 21 6500 180/10G18 RMK AO2 T03220078
24044KAIA AIA20160626130011506/26/16 13:00:31  5-MIN KAIA 262000Z AUTO 15008G16KT 10SM CLR 32/08 A3014 3730 22 6500 140/08G16 RMK AO2 T03170078
24044KAIA AIA20160626130511806/26/16 13:05:31  5-MIN KAIA 262005Z AUTO 19013G22KT 10SM FEW100 32/08 A3015 3730 21 6500 180/13G22 RMK AO2 T03220078
24044KAIA AIA20160626131011806/26/16 13:10:31  5-MIN KAIA 262010Z AUTO 21009G22KT 10SM FEW100 33/07 A3014 3730 20 6600 200/09G22 RMK AO2 T03280072
24044KAIA AIA20160626131513106/26/16 13:15:31  5-MIN KAIA 262015Z AUTO 18007G20KT 120V210 10SM CLR 32/07 A3014 3730 20 6500 170/07G20 110V200 RMK AO2 T03220072
24044KAIA AIA20160626132011806/26/16 13:20:31  5-MIN KAIA 262020Z AUTO 17009G16KT 10SM FEW100 32/08 A3014 3730 21 6500 160/09G16 RMK AO2 T03220078
24044KAIA AIA20160626132511806/26/16 13:25:31  5-MIN KAIA 262025Z AUTO 17010G16KT 10SM FEW100 33/08 A3014 3730 21 6600 170/10G16 RMK AO2 T03280083
24044KAIA AIA20160626133011806/26/16 13:30:31  5-MIN KAIA 262030Z AUTO 16011G18KT 10SM SCT095 31/08 A3013 3740 23 6400 160/11G18 RMK AO2 T03110078
24044KAIA AIA20160626133511806/26/16 13:35:31  5-MIN KAIA 262035Z AUTO 16014G18KT 10SM BKN095 32/08 A3014 3730 21 6500 160/14G18 RMK AO2 T03220078
24044KAIA AIA20160626134011806/26/16 13:40:31  5-MIN KAIA 262040Z AUTO 21008G18KT 10SM BKN095 32/08 A3013 3740 22 6500 200/08G18 RMK AO2 T03170078
24044KAIA AIA20160626134511806/26/16 13:45:31  5-MIN KAIA 262045Z AUTO 15012G18KT 10SM BKN100 32/08 A3013 3740 22 6500 140/12G18 RMK AO2 T03220083
24044KAIA AIA20160626135013106/26/16 13:50:31  5-MIN KAIA 262050Z AUTO 18012G18KT 10SM BKN100 33/08 A3013 3740 21 6600 170/12G18 RMK AO2 SLP158 T03280083 57008
24044KAIA AIA20160626135513406/26/16 13:55:31  5-MIN KAIA 262055Z AUTO 14007G17KT 080V180 10SM BKN095 33/08 A3013 3740 21 6600 130/07G17 070V170 RMK AO2 T03280083
24044KAIA AIA20160626140011206/26/16 14:00:31  5-MIN KAIA 262100Z AUTO 16008KT 10SM SCT095 33/08 A3012 3750 21 6600 160/08 RMK AO2 T03280078
24044KAIA AIA20160626140511206/26/16 14:05:31  5-MIN KAIA 262105Z AUTO 19011KT 10SM FEW100 33/08 A3012 3750 21 6600 180/11 RMK AO2 T03280083
24044KAIA AIA20160626141013406/26/16 14:10:31  5-MIN KAIA 262110Z AUTO 18007G15KT 150V210 10SM FEW100 33/09 A3013 3740 22 6600 170/07G15 140V200 RMK AO2 T03280089
24044KAIA AIA20160626141511206/26/16 14:15:31  5-MIN KAIA 262115Z AUTO 14007KT 10SM FEW090 32/08 A3012 3750 23 6500 140/07 RMK AO2 T03170083
24044KAIA AIA20160626142011806/26/16 14:20:31  5-MIN KAIA 262120Z AUTO 20009G14KT 10SM FEW090 31/09 A3012 3750 25 6400 190/09G14 RMK AO2 T03060089
24044KAIA AIA20160626142512506/26/16 14:25:31  5-MIN KAIA 262125Z AUTO VRB04G14KT 10SM FEW090 SCT110 32/09 A3012 3750 24 6600 VRB/04G14 RMK AO2 T03220094
24044KAIA AIA20160626143010906/26/16 14:30:31  5-MIN KAIA 262130Z AUTO 10SM FEW090 SCT110 32/10 A3012 3750 25 6600 M /M RMK AO2 T03220100
24044KAIA AIA20160626143511206/26/16 14:35:31  5-MIN KAIA 262135Z AUTO 15012KT 10SM FEW095 32/10 A3012 3750 25 6600 140/12 RMK AO2 T03220100
24044KAIA AIA20160626144011906/26/16 14:40:31  5-MIN KAIA 262140Z AUTO 14007KT 10SM FEW095 SCT110 31/09 A3012 3750 25 6400 130/07 RMK AO2 T03110094
24044KAIA AIA20160626144511906/26/16 14:45:31  5-MIN KAIA 262145Z AUTO 13008KT 10SM FEW090 SCT110 32/10 A3011 3760 25 6500 130/08 RMK AO2 T03170100
24044KAIA AIA20160626145012606/26/16 14:50:31  5-MIN KAIA 262150Z AUTO 13006KT 10SM SCT090 SCT110 30/11 A3011 3760 29 6300 120/06 RMK AO2 SLP156 T03000106
24044KAIA AIA20160626145511906/26/16 14:55:31  5-MIN KAIA 262155Z AUTO 10007KT 10SM BKN090 BKN110 31/11 A3011 3760 29 6400 090/07 RMK AO2 T03060111
24044KAIA AIA20160626150011906/26/16 15:00:31  5-MIN KAIA 262200Z AUTO 11006KT 10SM BKN090 BKN110 31/11 A3011 3760 28 6500 110/06 RMK AO2 T03110111
24044KAIA AIA20160626150512506/26/16 15:05:31  5-MIN KAIA 262205Z AUTO 17012G17KT 10SM BKN090 BKN110 32/10 A3011 3760 25 6500 160/12G17 RMK AO2 T03170100
24044KAIA AIA20160626151011806/26/16 15:10:31  5-MIN KAIA 262210Z AUTO VRB06G17KT 10SM BKN095 31/09 A3011 3760 24 6500 VRB/06G17 RMK AO2 T03110089
24044KAIA AIA20160626151513906/26/16 15:15:31  5-MIN KAIA 262215Z AUTO 18007KT 120V220 10SM BKN095 32/09 A3010 3770 23 6600 170/07 110V210 RMK AO2 LTG DSNT E T03220089
24044KAIA AIA20160626152012306/26/16 15:20:31  5-MIN KAIA 262220Z AUTO 14007KT 10SM BKN095 32/10 A3010 3770 25 6600 130/07 RMK AO2 LTG DSNT E T03220100
24044KAIA AIA20160626152512306/26/16 15:25:31  5-MIN KAIA 262225Z AUTO VRB06KT 10SM BKN095 33/10 A3010 3770 24 6600 VRB/06 RMK AO2 LTG DSNT E T03280100
24044KAIA AIA20160626153011906/26/16 15:30:31  5-MIN KAIA 262230Z AUTO 21012KT 10SM SCT100 BKN110 33/09 A3010 3770 22 6600 200/12 RMK AO2 T03280089
24044KAIA AIA20160626153511906/26/16 15:35:31  5-MIN KAIA 262235Z AUTO 20010KT 10SM SCT100 SCT110 33/09 A3010 3770 22 6600 200/10 RMK AO2 T03280089
24044KAIA AIA20160626154012306/26/16 15:40:31  5-MIN KAIA 262240Z AUTO 20012KT 10SM FEW095 33/08 A3010 3770 21 6600 190/12 RMK AO2 LTG DSNT E T03280083
24044KAIA AIA20160626154512306/26/16 15:45:31  5-MIN KAIA 262245Z AUTO 21009KT 10SM FEW095 31/08 A3010 3770 23 6500 200/09 RMK AO2 LTG DSNT E T03110078
24044KAIA AIA20160626155012706/26/16 15:50:31  5-MIN KAIA 262250Z AUTO 24005KT 10SM CLR 31/08 A3010 3770 23 6400 230/05 RMK AO2 LTG DSNT E SLP151 T03060078
24044KAIA AIA20160626155511206/26/16 15:55:31  5-MIN KAIA 262255Z AUTO 21007KT 10SM FEW110 31/08 A3010 3770 23 6400 200/07 RMK AO2 T03060078
24044KAIA AIA20160626160010906/26/16 16:00:31  5-MIN KAIA 262300Z AUTO 17008KT 10SM CLR 31/10 A3009 3770 26 6500 160/08 RMK AO2 T03110100
24044KAIA AIA20160626160510906/26/16 16:05:31  5-MIN KAIA 262305Z AUTO 13007KT 10SM CLR 32/11 A3009 3770 26 6500 120/07 RMK AO2 T03170106
24044KAIA AIA20160626161011806/26/16 16:10:31  5-MIN KAIA 262310Z AUTO 13008G14KT 10SM FEW100 32/11 A3009 3780 27 6600 120/08G14 RMK AO2 T03220111
24044KAIA AIA20160626161513406/26/16 16:15:31  5-MIN KAIA 262315Z AUTO 14009G14KT 100V170 10SM FEW110 33/11 A3009 3780 25 6700 130/09G14 090V160 RMK AO2 T03280106
24044KAIA AIA20160626162012306/26/16 16:20:31  5-MIN KAIA 262320Z AUTO 22006KT 10SM FEW110 32/10 A3009 3780 25 6600 210/06 RMK AO2 LTG DSNT E T03220100
24044KAIA AIA20160626162512306/26/16 16:25:31  5-MIN KAIA 262325Z AUTO 15006KT 10SM FEW110 32/09 A3008 3780 25 6500 140/06 RMK AO2 LTG DSNT E T03170094
24044KAIA AIA20160626163012306/26/16 16:30:31  5-MIN KAIA 262330Z AUTO VRB03KT 10SM FEW110 31/09 A3008 3780 25 6500 VRB/03 RMK AO2 LTG DSNT E T03110094
24044KAIA AIA20160626163512306/26/16 16:35:31  5-MIN KAIA 262335Z AUTO 19006KT 10SM FEW110 31/09 A3008 3790 25 6400 180/06 RMK AO2 LTG DSNT E T03060089
24044KAIA AIA20160626164010906/26/16 16:40:31  5-MIN KAIA 262340Z AUTO 00000KT 10SM CLR 31/08 A3008 3790 24 6400 000/00 RMK AO2 T03060083
24044KAIA AIA20160626164511206/26/16 16:45:31  5-MIN KAIA 262345Z AUTO 22003KT 10SM FEW120 31/09 A3008 3790 26 6400 210/03 RMK AO2 T03060094
24044KAIA AIA20160626165014806/26/16 16:50:31  5-MIN KAIA 262350Z AUTO 00000KT 10SM SCT110 32/09 A3008 3790 25 6500 000/00 RMK AO2 LTG DSNT E SLP145 T03170094 10333 20300 58011
24044KAIA AIA20160626165512306/26/16 16:55:31  5-MIN KAIA 262355Z AUTO 26004KT 10SM FEW110 32/09 A3008 3790 23 6600 250/04 RMK AO2 LTG DSNT E T03220089
24044KAIA AIA20160626170012306/26/16 17:00:31  5-MIN KAIA 270000Z AUTO 00000KT 10SM FEW110 31/09 A3008 3790 24 6500 000/00 RMK AO2 LTG DSNT E T03110089
24044KAIA AIA20160626170511206/26/16 17:05:31  5-MIN KAIA 270005Z AUTO 35003KT 10SM FEW110 32/08 A3008 3790 21 6600 340/03 RMK AO2 T03220078
24044KAIA AIA20160626171011206/26/16 17:10:31  5-MIN KAIA 270010Z AUTO 00000KT 10SM SCT110 32/07 A3008 3790 20 6600 000/00 RMK AO2 T03220072
24044KAIA AIA20160626171511206/26/16 17:15:31  5-MIN KAIA 270015Z AUTO 00000KT 10SM SCT110 33/07 A3008 3790 19 6700 000/00 RMK AO2 T03330072
24044KAIA AIA20160626172012806/26/16 17:20:31  5-MIN KAIA 270020Z AUTO 21008KT 170V230 10SM SCT110 32/07 A3008 3790 20 6600 210/08 160V220 RMK AO2 T03220072
24044KAIA AIA20160626172511206/26/16 17:25:31  5-MIN KAIA 270025Z AUTO 00000KT 10SM SCT120 32/07 A3008 3790 20 6600 000/00 RMK AO2 T03220072
24044KAIA AIA20160626173011206/26/16 17:30:31  5-MIN KAIA 270030Z AUTO 22005KT 10SM SCT120 32/08 A3008 3790 21 6600 220/05 RMK AO2 T03220078
24044KAIA AIA20160626173511206/26/16 17:35:31  5-MIN KAIA 270035Z AUTO 26004KT 10SM SCT110 32/07 A3008 3790 20 6600 250/04 RMK AO2 T03220072
24044KAIA AIA20160626174011206/26/16 17:40:31  5-MIN KAIA 270040Z AUTO 24010KT 10SM SCT110 32/07 A3007 3790 20 6600 240/10 RMK AO2 T03220072
24044KAIA AIA20160626174511206/26/16 17:45:31  5-MIN KAIA 270045Z AUTO 28007KT 10SM SCT110 32/07 A3008 3790 20 6600 270/07 RMK AO2 T03220067
24044KAIA AIA20160626175011906/26/16 17:50:31  5-MIN KAIA 270050Z AUTO 27008KT 10SM FEW110 32/07 A3008 3790 20 6500 260/08 RMK AO2 SLP139 T03170067
24044KAIA AIA20160626175511806/26/16 17:55:31  5-MIN KAIA 270055Z AUTO 28010G18KT 10SM FEW110 32/06 A3008 3790 20 6500 270/10G18 RMK AO2 T03170061
24044KAIA AIA20160626180011806/26/16 18:00:31  5-MIN KAIA 270100Z AUTO 29009G18KT 10SM FEW110 32/03 A3008 3790 15 6500 290/09G18 RMK AO2 T03170028
24044KAIA AIA20160626180511206/26/16 18:05:31  5-MIN KAIA 270105Z AUTO 29009KT 10SM FEW110 31/03 A3008 3780 16 6500 290/09 RMK AO2 T03110028
24044KAIA AIA20160626181010906/26/16 18:10:31  5-MIN KAIA 270110Z AUTO 29009KT 10SM CLR 31/02 A3008 3780 15 6500 280/09 RMK AO2 T03110022
24044KAIA AIA20160626181510906/26/16 18:15:31  5-MIN KAIA 270115Z AUTO 29008KT 10SM CLR 31/02 A3009 3780 16 6400 280/08 RMK AO2 T03060022
24044KAIA AIA20160626182010906/26/16 18:20:31  5-MIN KAIA 270120Z AUTO 28008KT 10SM CLR 31/03 A3009 3780 16 6400 280/08 RMK AO2 T03060028
24044KAIA AIA20160626182510906/26/16 18:25:31  5-MIN KAIA 270125Z AUTO 30009KT 10SM CLR 30/03 A3009 3780 18 6400 290/09 RMK AO2 T03000033
24044KAIA AIA20160626183010906/26/16 18:30:31  5-MIN KAIA 270130Z AUTO 31009KT 10SM CLR 30/05 A3009 3780 20 6400 300/09 RMK AO2 T03000050
24044KAIA AIA20160626183510906/26/16 18:35:31  5-MIN KAIA 270135Z AUTO 33008KT 10SM CLR 29/07 A3009 3770 24 6300 320/08 RMK AO2 T02940072
24044KAIA AIA20160626184010906/26/16 18:40:31  5-MIN KAIA 270140Z AUTO 34009KT 10SM CLR 29/08 A3010 3770 25 6300 330/09 RMK AO2 T02940078
24044KAIA AIA20160626184510906/26/16 18:45:31  5-MIN KAIA 270145Z AUTO 34007KT 10SM CLR 29/09 A3010 3770 28 6200 330/07 RMK AO2 T02890089
24044KAIA AIA20160626185011606/26/16 18:50:31  5-MIN KAIA 270150Z AUTO 34008KT 10SM CLR 28/09 A3010 3770 30 6200 340/08 RMK AO2 SLP144 T02830094
24044KAIA AIA20160626185510906/26/16 18:55:31  5-MIN KAIA 270155Z AUTO 35009KT 10SM CLR 28/10 A3010 3770 32 6100 340/09 RMK AO2 T02780100
24044KAIA AIA20160626190010906/26/16 19:00:31  5-MIN KAIA 270200Z AUTO 34010KT 10SM CLR 28/10 A3010 3770 32 6100 330/10 RMK AO2 T02780100
24044KAIA AIA20160626190510906/26/16 19:05:31  5-MIN KAIA 270205Z AUTO 33007KT 10SM CLR 27/11 A3010 3770 34 6000 320/07 RMK AO2 T02720106
24044KAIA AIA20160626191010906/26/16 19:10:31  5-MIN KAIA 270210Z AUTO 04009KT 10SM CLR 26/11 A3010 3760 38 5900 030/09 RMK AO2 T02610111
24044KAIA AIA20160626191510906/26/16 19:15:31  5-MIN KAIA 270215Z AUTO 03006KT 10SM CLR 26/13 A3011 3760 44 5900 030/06 RMK AO2 T02560128
24044KAIA AIA20160626192010906/26/16 19:20:31  5-MIN KAIA 270220Z AUTO 07006KT 10SM CLR 24/14 A3011 3760 51 5700 070/06 RMK AO2 T02440139
24044KAIA AIA20160626192510906/26/16 19:25:31  5-MIN KAIA 270225Z AUTO 06006KT 10SM CLR 24/15 A3011 3760 57 5700 060/06 RMK AO2 T02390150
24044KAIA AIA20160626193010906/26/16 19:30:31  5-MIN KAIA 270230Z AUTO 08007KT 10SM CLR 23/15 A3011 3760 59 5600 070/07 RMK AO2 T02330150
24044KAIA AIA20160626193510906/26/16 19:35:31  5-MIN KAIA 270235Z AUTO 08008KT 10SM CLR 23/16 A3011 3760 63 5500 080/08 RMK AO2 T02280156
24044KAIA AIA20160626194010906/26/16 19:40:31  5-MIN KAIA 270240Z AUTO 10006KT 10SM CLR 22/16 A3012 3750 68 5400 090/06 RMK AO2 T02170156
24044KAIA AIA20160626194510906/26/16 19:45:31  5-MIN KAIA 270245Z AUTO 10006KT 10SM CLR 21/15 A3012 3750 68 5300 090/06 RMK AO2 T02110150
24044KAIA AIA20160626195012206/26/16 19:50:31  5-MIN KAIA 270250Z AUTO 09007KT 10SM CLR 21/15 A3012 3750 68 5300 090/07 RMK AO2 SLP156 T02110150 58015
24044KAIA AIA20160626195510906/26/16 19:55:31  5-MIN KAIA 270255Z AUTO 10006KT 10SM CLR 21/15 A3012 3750 70 5300 090/06 RMK AO2 T02060150
24044KAIA AIA20160626200010906/26/16 20:00:31  5-MIN KAIA 270300Z AUTO 10005KT 10SM CLR 21/15 A3012 3750 70 5300 090/05 RMK AO2 T02060150
24044KAIA AIA20160626200510906/26/16 20:05:31  5-MIN KAIA 270305Z AUTO 05009KT 10SM CLR 21/14 A3013 3740 67 5300 040/09 RMK AO2 T02060144
24044KAIA AIA20160626201010906/26/16 20:10:31  5-MIN KAIA 270310Z AUTO 08007KT 10SM CLR 20/14 A3013 3740 70 5200 070/07 RMK AO2 T02000144
24044KAIA AIA20160626201510906/26/16 20:15:31  5-MIN KAIA 270315Z AUTO 07007KT 10SM CLR 21/14 A3013 3740 67 5300 060/07 RMK AO2 T02060144
24044KAIA AIA20160626202010906/26/16 20:20:31  5-MIN KAIA 270320Z AUTO 07007KT 10SM CLR 19/14 A3014 3730 72 5100 060/07 RMK AO2 T01940144
24044KAIA AIA20160626202510906/26/16 20:25:31  5-MIN KAIA 270325Z AUTO 06008KT 10SM CLR 19/14 A3014 3730 70 5100 050/08 RMK AO2 T01940139
24044KAIA AIA20160626203010906/26/16 20:30:31  5-MIN KAIA 270330Z AUTO 05006KT 10SM CLR 19/14 A3015 3730 75 5100 040/06 RMK AO2 T01890144
24044KAIA AIA20160626203510906/26/16 20:35:31  5-MIN KAIA 270335Z AUTO 05010KT 10SM CLR 18/14 A3015 3720 78 5000 040/10 RMK AO2 T01830144
24044KAIA AIA20160626204010906/26/16 20:40:31  5-MIN KAIA 270340Z AUTO 06009KT 10SM CLR 19/14 A3016 3720 72 5100 050/09 RMK AO2 T01940144
24044KAIA AIA20160626204510906/26/16 20:45:31  5-MIN KAIA 270345Z AUTO 05009KT 10SM CLR 19/14 A3016 3710 72 5100 040/09 RMK AO2 T01940144
24044KAIA AIA20160626205011606/26/16 20:50:31  5-MIN KAIA 270350Z AUTO 06009KT 10SM CLR 19/15 A3016 3710 75 5100 050/09 RMK AO2 SLP171 T01940150
24044KAIA AIA20160626205510906/26/16 20:55:31  5-MIN KAIA 270355Z AUTO 06010KT 10SM CLR 20/15 A3017 3710 72 5200 050/10 RMK AO2 T02000150
24044KAIA AIA20160626210010906/26/16 21:00:31  5-MIN KAIA 270400Z AUTO 06011KT 10SM CLR 20/15 A3017 3700 72 5200 050/11 RMK AO2 T02000150
24044KAIA AIA20160626210510906/26/16 21:05:31  5-MIN KAIA 270405Z AUTO 06010KT 10SM CLR 21/15 A3017 3700 70 5200 050/10 RMK AO2 T02060150
24044KAIA AIA20160626211010906/26/16 21:10:31  5-MIN KAIA 270410Z AUTO 07011KT 10SM CLR 21/15 A3017 3700 70 5200 060/11 RMK AO2 T02060150
24044KAIA AIA20160626211510906/26/16 21:15:31  5-MIN KAIA 270415Z AUTO 06011KT 10SM CLR 21/15 A3018 3700 70 5200 050/11 RMK AO2 T02060150
24044KAIA AIA20160626212010906/26/16 21:20:31  5-MIN KAIA 270420Z AUTO 05010KT 10SM CLR 20/15 A3018 3700 72 5200 050/10 RMK AO2 T02000150
24044KAIA AIA20160626212510906/26/16 21:25:31  5-MIN KAIA 270425Z AUTO 06010KT 10SM CLR 20/15 A3018 3700 72 5200 050/10 RMK AO2 T02000150
24044KAIA AIA20160626213010906/26/16 21:30:31  5-MIN KAIA 270430Z AUTO 07012KT 10SM CLR 20/15 A3018 3690 72 5200 060/12 RMK AO2 T02000150
24044KAIA AIA20160626213510906/26/16 21:35:31  5-MIN KAIA 270435Z AUTO 08010KT 10SM CLR 20/14 A3018 3690 70 5200 070/10 RMK AO2 T02000144
24044KAIA AIA20160626214010906/26/16 21:40:31  5-MIN KAIA 270440Z AUTO 08011KT 10SM CLR 20/14 A3019 3690 70 5100 070/11 RMK AO2 T02000144
24044KAIA AIA20160626214510906/26/16 21:45:31  5-MIN KAIA 270445Z AUTO 07011KT 10SM CLR 20/14 A3019 3690 70 5100 060/11 RMK AO2 T02000144
24044KAIA AIA20160626215011606/26/16 21:50:31  5-MIN KAIA 270450Z AUTO 08010KT 10SM CLR 20/14 A3019 3690 70 5100 070/10 RMK AO2 SLP175 T02000144
24044KAIA AIA20160626215510906/26/16 21:55:31  5-MIN KAIA 270455Z AUTO 07011KT 10SM CLR 20/14 A3019 3690 70 5100 070/11 RMK AO2 T02000144
24044KAIA AIA20160626220010906/26/16 22:00:31  5-MIN KAIA 270500Z AUTO 08009KT 10SM CLR 19/14 A3019 3690 72 5100 070/09 RMK AO2 T01940144
24044KAIA AIA20160626220510906/26/16 22:05:31  5-MIN KAIA 270505Z AUTO 08008KT 10SM CLR 19/14 A3019 3690 72 5100 070/08 RMK AO2 T01940144
24044KAIA AIA20160626221010906/26/16 22:10:31  5-MIN KAIA 270510Z AUTO 07008KT 10SM CLR 19/14 A3019 3690 72 5100 070/08 RMK AO2 T01940144
24044KAIA AIA20160626221510906/26/16 22:15:31  5-MIN KAIA 270515Z AUTO 07007KT 10SM CLR 19/14 A3019 3690 75 5000 060/07 RMK AO2 T01890144
24044KAIA AIA20160626222010906/26/16 22:20:31  5-MIN KAIA 270520Z AUTO 07008KT 10SM CLR 19/14 A3019 3680 75 5000 060/08 RMK AO2 T01890144
24044KAIA AIA20160626222510906/26/16 22:25:31  5-MIN KAIA 270525Z AUTO 06008KT 10SM CLR 19/14 A3019 3680 72 5000 050/08 RMK AO2 T01890139
24044KAIA AIA20160626223010906/26/16 22:30:31  5-MIN KAIA 270530Z AUTO 06007KT 10SM CLR 19/14 A3019 3680 72 5000 050/07 RMK AO2 T01890139
24044KAIA AIA20160626223510906/26/16 22:35:31  5-MIN KAIA 270535Z AUTO 07008KT 10SM CLR 18/14 A3019 3680 75 5000 060/08 RMK AO2 T01830139
24044KAIA AIA20160626224010906/26/16 22:40:31  5-MIN KAIA 270540Z AUTO 07008KT 10SM CLR 19/14 A3019 3680 72 5000 060/08 RMK AO2 T01890139
24044KAIA AIA20160626224510906/26/16 22:45:31  5-MIN KAIA 270545Z AUTO 07008KT 10SM CLR 19/14 A3020 3680 72 5000 060/08 RMK AO2 T01890139
24044KAIA AIA20160626225013406/26/16 22:50:31  5-MIN KAIA 270550Z AUTO 05007KT 10SM CLR 18/14 A3020 3680 75 4900 050/07 RMK AO2 SLP178 T01830139 10333 20183 53012
24044KAIA AIA20160626225510906/26/16 22:55:31  5-MIN KAIA 270555Z AUTO 05008KT 10SM CLR 18/14 A3020 3680 78 4900 040/08 RMK AO2 T01830144
24044KAIA AIA20160626230010906/26/16 23:00:31  5-MIN KAIA 270600Z AUTO 06008KT 10SM CLR 18/14 A3020 3680 81 4900 050/08 RMK AO2 T01780144
24044KAIA AIA20160626230510906/26/16 23:05:31  5-MIN KAIA 270605Z AUTO 06008KT 10SM CLR 18/14 A3020 3680 81 4900 050/08 RMK AO2 T01780144
24044KAIA AIA20160626231010906/26/16 23:10:31  5-MIN KAIA 270610Z AUTO 07007KT 10SM CLR 18/14 A3020 3680 78 4900 060/07 RMK AO2 T01780139
24044KAIA AIA20160626231510906/26/16 23:15:31  5-MIN KAIA 270615Z AUTO 06007KT 10SM CLR 18/14 A3020 3680 78 4900 050/07 RMK AO2 T01780139
24044KAIA AIA20160626232010906/26/16 23:20:31  5-MIN KAIA 270620Z AUTO 06007KT 10SM CLR 17/14 A3020 3680 80 4800 060/07 RMK AO2 T01720139
24044KAIA AIA20160626232510906/26/16 23:25:31  5-MIN KAIA 270625Z AUTO 07008KT 10SM CLR 17/14 A3020 3680 80 4800 060/08 RMK AO2 T01720139
24044KAIA AIA20160626233010906/26/16 23:30:31  5-MIN KAIA 270630Z AUTO 08007KT 10SM CLR 17/14 A3020 3680 80 4800 070/07 RMK AO2 T01720139
24044KAIA AIA20160626233510906/26/16 23:35:31  5-MIN KAIA 270635Z AUTO 07007KT 10SM CLR 17/14 A3020 3680 83 4800 070/07 RMK AO2 T01670139
24044KAIA AIA20160626234010906/26/16 23:40:31  5-MIN KAIA 270640Z AUTO 07009KT 10SM CLR 17/14 A3020 3680 80 4800 070/09 RMK AO2 T01720139
24044KAIA AIA20160626234510906/26/16 23:45:31  5-MIN KAIA 270645Z AUTO 08010KT 10SM CLR 17/14 A3020 3680 80 4800 070/10 RMK AO2 T01720139
24044KAIA AIA20160626235012606/26/16 23:50:31  5-MIN KAIA 270650Z AUTO 08009KT 10SM CLR 17/14 A3019 3680 80 4800 070/09 RMK AO2 SLP178 T01720139 403330106
24044KAIA AIA20160626235510906/26/16 23:55:31  5-MIN KAIA 270655Z AUTO 07009KT 10SM CLR 17/14 A3019 3680 80 4800 070/09 RMK AO2 T01720139
24044KAIA AIA20160627000010906/27/16 00:00:31  5-MIN KAIA 270700Z AUTO 08009KT 10SM CLR 17/14 A3020 3680 80 4800 070/09 RMK AO2 T01720139
24044KAIA AIA20160627000510906/27/16 00:05:31  5-MIN KAIA 270705Z AUTO 08011KT 10SM CLR 17/14 A3020 3680 80 4800 070/11 RMK AO2 T01720139
24044KAIA AIA20160627001010906/27/16 00:10:31  5-MIN KAIA 270710Z AUTO 08009KT 10SM CLR 18/14 A3020 3680 78 4900 070/09 RMK AO2 T01780139
24044KAIA AIA20160627001510906/27/16 00:15:31  5-MIN KAIA 270715Z AUTO 08009KT 10SM CLR 18/14 A3020 3680 78 4900 070/09 RMK AO2 T01780139
24044KAIA AIA20160627002010906/27/16 00:20:31  5-MIN KAIA 270720Z AUTO 08010KT 10SM CLR 17/14 A3020 3680 80 4800 080/10 RMK AO2 T01720139
24044KAIA AIA20160627002510906/27/16 00:25:31  5-MIN KAIA 270725Z AUTO 09008KT 10SM CLR 17/14 A3020 3680 80 4800 080/08 RMK AO2 T01720139
24044KAIA AIA20160627003010906/27/16 00:30:31  5-MIN KAIA 270730Z AUTO 08009KT 10SM CLR 17/14 A3020 3680 80 4800 070/09 RMK AO2 T01720139
24044KAIA AIA20160627003510906/27/16 00:35:31  5-MIN KAIA 270735Z AUTO 08008KT 10SM CLR 17/14 A3020 3680 83 4800 080/08 RMK AO2 T01670139
24044KAIA AIA20160627004010906/27/16 00:40:31  5-MIN KAIA 270740Z AUTO 08009KT 10SM CLR 17/14 A3020 3680 83 4800 070/09 RMK AO2 T01670139
24044KAIA AIA20160627004510906/27/16 00:45:31  5-MIN KAIA 270745Z AUTO 07007KT 10SM CLR 17/14 A3020 3680 83 4800 070/07 RMK AO2 T01670139
24044KAIA AIA20160627005011606/27/16 00:50:31  5-MIN KAIA 270750Z AUTO 07007KT 10SM CLR 17/14 A3020 3680 83 4800 060/07 RMK AO2 SLP178 T01670139
24044KAIA AIA20160627005510906/27/16 00:55:31  5-MIN KAIA 270755Z AUTO 08006KT 10SM CLR 17/14 A3020 3670 83 4700 070/06 RMK AO2 T01670139
24044KAIA AIA20160627010010906/27/16 01:00:31  5-MIN KAIA 270800Z AUTO 08007KT 10SM CLR 17/14 A3020 3670 83 4700 070/07 RMK AO2 T01670139
24044KAIA AIA20160627010510906/27/16 01:05:31  5-MIN KAIA 270805Z AUTO 08009KT 10SM CLR 17/14 A3020 3670 83 4700 070/09 RMK AO2 T01670139
24044KAIA AIA20160627011010906/27/16 01:10:31  5-MIN KAIA 270810Z AUTO 08010KT 10SM CLR 16/14 A3021 3670 86 4700 080/10 RMK AO2 T01610139
24044KAIA AIA20160627011510906/27/16 01:15:31  5-MIN KAIA 270815Z AUTO 09008KT 10SM CLR 16/14 A3021 3670 86 4700 080/08 RMK AO2 T01610139
24044KAIA AIA20160627012010906/27/16 01:20:31  5-MIN KAIA 270820Z AUTO 10008KT 10SM CLR 16/14 A3021 3670 90 4700 090/08 RMK AO2 T01610144
24044KAIA AIA20160627012510906/27/16 01:25:31  5-MIN KAIA 270825Z AUTO 09008KT 10SM CLR 16/14 A3021 3670 90 4700 090/08 RMK AO2 T01610144
24044KAIA AIA20160627013010906/27/16 01:30:31  5-MIN KAIA 270830Z AUTO 10007KT 10SM CLR 16/14 A3021 3670 90 4700 090/07 RMK AO2 T01610144
24044KAIA AIA20160627013510906/27/16 01:35:31  5-MIN KAIA 270835Z AUTO 12008KT 10SM CLR 16/14 A3021 3670 90 4700 110/08 RMK AO2 T01610144
24044KAIA AIA20160627014010906/27/16 01:40:31  5-MIN KAIA 270840Z AUTO 11008KT 10SM CLR 16/14 A3021 3660 90 4700 100/08 RMK AO2 T01610144
24044KAIA AIA20160627014510906/27/16 01:45:31  5-MIN KAIA 270845Z AUTO 10009KT 10SM CLR 16/14 A3022 3660 90 4700 100/09 RMK AO2 T01610144
24044KAIA AIA20160627015012206/27/16 01:50:31  5-MIN KAIA 270850Z AUTO 11010KT 10SM CLR 16/14 A3022 3660 90 4700 100/10 RMK AO2 SLP185 T01610144 51024
24044KAIA AIA20160627015510906/27/16 01:55:31  5-MIN KAIA 270855Z AUTO 11009KT 10SM CLR 16/15 A3021 3660 93 4700 100/09 RMK AO2 T01610150
24044KAIA AIA20160627020010906/27/16 02:00:31  5-MIN KAIA 270900Z AUTO 11009KT 10SM CLR 16/15 A3022 3660 93 4700 100/09 RMK AO2 T01610150
24044KAIA AIA20160627020510906/27/16 02:05:31  5-MIN KAIA 270905Z AUTO 12011KT 10SM CLR 16/15 A3022 3660 93 4700 110/11 RMK AO2 T01610150
24044KAIA AIA20160627021010906/27/16 02:10:31  5-MIN KAIA 270910Z AUTO 12011KT 10SM CLR 17/15 A3021 3670 90 4700 110/11 RMK AO2 T01670150
24044KAIA AIA20160627021510906/27/16 02:15:31  5-MIN KAIA 270915Z AUTO 12011KT 10SM CLR 16/15 A3021 3660 93 4700 120/11 RMK AO2 T01610150
24044KAIA AIA20160627022010906/27/16 02:20:31  5-MIN KAIA 270920Z AUTO 12012KT 10SM CLR 16/15 A3022 3660 93 4700 110/12 RMK AO2 T01610150
24044KAIA AIA20160627022510906/27/16 02:25:31  5-MIN KAIA 270925Z AUTO 13013KT 10SM CLR 16/15 A3022 3660 93 4700 120/13 RMK AO2 T01610150
24044KAIA AIA20160627023010906/27/16 02:30:31  5-MIN KAIA 270930Z AUTO 13012KT 10SM CLR 16/15 A3022 3660 93 4700 120/12 RMK AO2 T01610150
24044KAIA AIA20160627023510906/27/16 02:35:31  5-MIN KAIA 270935Z AUTO 13012KT 10SM CLR 16/15 A3022 3660 93 4700 120/12 RMK AO2 T01610150
24044KAIA AIA20160627024010906/27/16 02:40:31  5-MIN KAIA 270940Z AUTO 14010KT 10SM CLR 16/15 A3022 3660 93 4700 130/10 RMK AO2 T01610150
24044KAIA AIA20160627024510906/27/16 02:45:31  5-MIN KAIA 270945Z AUTO 13010KT 10SM CLR 16/15 A3022 3660 93 4700 120/10 RMK AO2 T01610150
24044KAIA AIA20160627025011606/27/16 02:50:31  5-MIN KAIA 270950Z AUTO 13010KT 10SM CLR 16/15 A3022 3660 93 4700 120/10 RMK AO2 SLP189 T01610150
24044KAIA AIA20160627025510906/27/16 02:55:31  5-MIN KAIA 270955Z AUTO 13010KT 10SM CLR 16/15 A3022 3660 93 4700 130/10 RMK AO2 T01610150
24044KAIA AIA20160627030010906/27/16 03:00:31  5-MIN KAIA 271000Z AUTO 13009KT 10SM CLR 16/15 A3022 3660 93 4700 130/09 RMK AO2 T01610150
24044KAIA AIA20160627030510906/27/16 03:05:31  5-MIN KAIA 271005Z AUTO 13010KT 10SM CLR 16/15 A3022 3660 96 4600 120/10 RMK AO2 T01560150
24044KAIA AIA20160627031010906/27/16 03:10:31  5-MIN KAIA 271010Z AUTO 14011KT 10SM CLR 16/14 A3022 3660 93 4600 130/11 RMK AO2 T01560144
24044KAIA AIA20160627031511406/27/16 03:15:31  5-MIN KAIA 271015Z AUTO 13011KT 10SM CLR 16/14 A3022 3660 93 4600 130/11 RMK AO2 T01560144 TSNO
24044KAIA AIA20160627032011406/27/16 03:20:31  5-MIN KAIA 271020Z AUTO 14010KT 10SM CLR 16/14 A3022 3650 93 4600 130/10 RMK AO2 T01560144 TSNO
24044KAIA AIA20160627032511406/27/16 03:25:31  5-MIN KAIA 271025Z AUTO 14010KT 10SM CLR 16/14 A3023 3650 93 4600 130/10 RMK AO2 T01560144 TSNO
24044KAIA AIA20160627033010906/27/16 03:30:31  5-MIN KAIA 271030Z AUTO 14012KT 10SM CLR 16/14 A3023 3650 93 4600 130/12 RMK AO2 T01560144
24044KAIA AIA20160627033510906/27/16 03:35:31  5-MIN KAIA 271035Z AUTO 13012KT 10SM CLR 16/14 A3023 3650 93 4600 130/12 RMK AO2 T01560144
24044KAIA AIA20160627034010906/27/16 03:40:31  5-MIN KAIA 271040Z AUTO 14012KT 10SM CLR 16/14 A3023 3650 93 4600 130/12 RMK AO2 T01560144
24044KAIA AIA20160627034510906/27/16 03:45:31  5-MIN KAIA 271045Z AUTO 14014KT 10SM CLR 16/14 A3023 3650 93 4600 130/14 RMK AO2 T01560144
24044KAIA AIA20160627035011606/27/16 03:50:31  5-MIN KAIA 271050Z AUTO 14013KT 10SM CLR 15/14 A3023 3650 96 4500 130/13 RMK AO2 SLP194 T01500144
24044KAIA AIA20160627035510906/27/16 03:55:31  5-MIN KAIA 271055Z AUTO 14014KT 10SM CLR 15/14 A3023 3650 93 4500 130/14 RMK AO2 T01500139
24044KAIA AIA20160627040010906/27/16 04:00:31  5-MIN KAIA 271100Z AUTO 15014KT 10SM CLR 15/14 A3023 3650 93 4500 140/14 RMK AO2 T01500139
24044KAIA AIA20160627040510906/27/16 04:05:31  5-MIN KAIA 271105Z AUTO 14015KT 10SM CLR 15/14 A3023 3650 93 4500 130/15 RMK AO2 T01500139
24044KAIA AIA20160627041010906/27/16 04:10:31  5-MIN KAIA 271110Z AUTO 14015KT 10SM CLR 15/14 A3024 3640 93 4500 130/15 RMK AO2 T01500139
24044KAIA AIA20160627041510906/27/16 04:15:31  5-MIN KAIA 271115Z AUTO 15013KT 10SM CLR 15/14 A3023 3650 93 4500 140/13 RMK AO2 T01500139
24044KAIA AIA20160627042010906/27/16 04:20:31  5-MIN KAIA 271120Z AUTO 15015KT 10SM CLR 16/14 A3023 3650 90 4600 140/15 RMK AO2 T01560139
24044KAIA AIA20160627042510906/27/16 04:25:31  5-MIN KAIA 271125Z AUTO 15014KT 10SM CLR 16/14 A3023 3640 90 4600 140/14 RMK AO2 T01560139
24044KAIA AIA20160627043010906/27/16 04:30:31  5-MIN KAIA 271130Z AUTO 15016KT 10SM CLR 16/14 A3024 3640 90 4600 140/16 RMK AO2 T01560139
24044KAIA AIA20160627043510906/27/16 04:35:31  5-MIN KAIA 271135Z AUTO 15014KT 10SM CLR 16/14 A3024 3640 90 4600 140/14 RMK AO2 T01560139
24044KAIA AIA20160627044011506/27/16 04:40:31  5-MIN KAIA 271140Z AUTO 15016G22KT 10SM CLR 16/14 A3024 3640 90 4600 140/16G22 RMK AO2 T01560139
24044KAIA AIA20160627044511506/27/16 04:45:31  5-MIN KAIA 271145Z AUTO 15015G22KT 10SM CLR 16/14 A3024 3640 90 4600 140/15G22 RMK AO2 T01560139
24044KAIA AIA20160627045013406/27/16 04:50:31  5-MIN KAIA 271150Z AUTO 15015KT 10SM CLR 16/14 A3024 3640 93 4600 140/15 RMK AO2 SLP194 T01560144 10183 20150 53006
24044KAIA AIA20160627045511506/27/16 04:55:31  5-MIN KAIA 271155Z AUTO 15015G22KT 10SM CLR 16/14 A3024 3640 90 4600 140/15G22 RMK AO2 T01610144
24044KAIA AIA20160627050011506/27/16 05:00:31  5-MIN KAIA 271200Z AUTO 15015G22KT 10SM CLR 16/14 A3025 3630 86 4600 150/15G22 RMK AO2 T01610139
24044KAIA AIA20160627050510906/27/16 05:05:31  5-MIN KAIA 271205Z AUTO 15013KT 10SM CLR 16/14 A3025 3630 90 4600 140/13 RMK AO2 T01610144
24044KAIA AIA20160627051010906/27/16 05:10:31  5-MIN KAIA 271210Z AUTO 15014KT 10SM CLR 16/14 A3025 3630 90 4600 140/14 RMK AO2 T01610144
24044KAIA AIA20160627051510906/27/16 05:15:31  5-MIN KAIA 271215Z AUTO 15012KT 10SM CLR 17/14 A3025 3630 86 4700 140/12 RMK AO2 T01670144
24044KAIA AIA20160627052010906/27/16 05:20:31  5-MIN KAIA 271220Z AUTO 15012KT 10SM CLR 17/14 A3026 3630 86 4700 140/12 RMK AO2 T01670144
24044KAIA AIA20160627052510906/27/16 05:25:31  5-MIN KAIA 271225Z AUTO 15014KT 10SM CLR 17/14 A3026 3620 86 4700 140/14 RMK AO2 T01670144
24044KAIA AIA20160627053010906/27/16 05:30:31  5-MIN KAIA 271230Z AUTO 15013KT 10SM CLR 17/14 A3026 3620 83 4700 150/13 RMK AO2 T01720144
24044KAIA AIA20160627053510906/27/16 05:35:31  5-MIN KAIA 271235Z AUTO 15013KT 10SM CLR 17/14 A3026 3620 83 4700 140/13 RMK AO2 T01720144
24044KAIA AIA20160627054010906/27/16 05:40:31  5-MIN KAIA 271240Z AUTO 15014KT 10SM CLR 18/14 A3027 3620 81 4800 150/14 RMK AO2 T01780144
24044KAIA AIA20160627054510906/27/16 05:45:31  5-MIN KAIA 271245Z AUTO 16013KT 10SM CLR 18/14 A3026 3620 81 4800 150/13 RMK AO2 T01780144
24044KAIA AIA20160627055011606/27/16 05:50:31  5-MIN KAIA 271250Z AUTO 16013KT 10SM CLR 18/14 A3026 3620 78 4900 150/13 RMK AO2 SLP200 T01830144
24044KAIA AIA20160627055511506/27/16 05:55:31  5-MIN KAIA 271255Z AUTO 16017G20KT 10SM CLR 18/15 A3026 3620 81 4900 150/17G20 RMK AO2 T01830150
24044KAIA AIA20160627060011506/27/16 06:00:31  5-MIN KAIA 271300Z AUTO 16013G20KT 10SM CLR 19/15 A3027 3610 78 4900 150/13G20 RMK AO2 T01890150
24044KAIA AIA20160627060511506/27/16 06:05:31  5-MIN KAIA 271305Z AUTO 16014G20KT 10SM CLR 19/15 A3027 3610 78 4900 150/14G20 RMK AO2 T01890150
24044KAIA AIA20160627061010906/27/16 06:10:31  5-MIN KAIA 271310Z AUTO 16016KT 10SM CLR 19/15 A3028 3610 75 5000 150/16 RMK AO2 T01940150
24044KAIA AIA20160627061511506/27/16 06:15:31  5-MIN KAIA 271315Z AUTO 16017G22KT 10SM CLR 19/15 A3028 3610 75 5000 150/17G22 RMK AO2 T01940150
24044KAIA AIA20160627062011506/27/16 06:20:31  5-MIN KAIA 271320Z AUTO 16016G22KT 10SM CLR 19/16 A3028 3610 78 5000 150/16G22 RMK AO2 T01940156
24044KAIA AIA20160627062510906/27/16 06:25:31  5-MIN KAIA 271325Z AUTO 16016KT 10SM CLR 20/16 A3028 3610 75 5000 150/16 RMK AO2 T02000156
24044KAIA AIA20160627063010906/27/16 06:30:31  5-MIN KAIA 271330Z AUTO 16013KT 10SM CLR 21/16 A3028 3610 73 5100 150/13 RMK AO2 T02060156
24044KAIA AIA20160627063510906/27/16 06:35:31  5-MIN KAIA 271335Z AUTO 17016KT 10SM CLR 21/16 A3028 3610 73 5100 160/16 RMK AO2 T02060156
24044KAIA AIA20160627064010906/27/16 06:40:31  5-MIN KAIA 271340Z AUTO 16016KT 10SM CLR 21/16 A3028 3610 70 5200 150/16 RMK AO2 T02110156
24044KAIA AIA20160627064510906/27/16 06:45:31  5-MIN KAIA 271345Z AUTO 17015KT 10SM CLR 21/16 A3028 3600 73 5200 160/15 RMK AO2 T02110161
24044KAIA AIA20160627065011606/27/16 06:50:31  5-MIN KAIA 271350Z AUTO 17013KT 10SM CLR 22/16 A3028 3600 70 5200 160/13 RMK AO2 SLP205 T02170161
24044KAIA AIA20160627065511506/27/16 06:55:31  5-MIN KAIA 271355Z AUTO 17015G20KT 10SM CLR 22/16 A3028 3600 70 5200 160/15G20 RMK AO2 T02170161
24044KAIA AIA20160627070010906/27/16 07:00:31  5-MIN KAIA 271400Z AUTO 17018KT 10SM CLR 22/16 A3028 3600 70 5200 160/18 RMK AO2 T02170161
24044KAIA AIA20160627070510906/27/16 07:05:31  5-MIN KAIA 271405Z AUTO 17015KT 10SM CLR 22/16 A3028 3600 68 5300 160/15 RMK AO2 T02220161
24044KAIA AIA20160627071010906/27/16 07:10:31  5-MIN KAIA 271410Z AUTO 16017KT 10SM CLR 22/16 A3029 3600 68 5300 150/17 RMK AO2 T02220161
24044KAIA AIA20160627071511806/27/16 07:15:31  5-MIN KAIA 271415Z AUTO 17013G21KT 10SM FEW021 23/16 A3029 3590 65 5300 160/13G21 RMK AO2 T02280161
24044KAIA AIA20160627072011206/27/16 07:20:31  5-MIN KAIA 271420Z AUTO 17017KT 10SM FEW021 23/16 A3029 3590 65 5300 160/17 RMK AO2 T02280161
24044KAIA AIA20160627072511206/27/16 07:25:31  5-MIN KAIA 271425Z AUTO 17014KT 10SM SCT021 23/16 A3030 3590 65 5300 160/14 RMK AO2 T02280161
24044KAIA AIA20160627073011206/27/16 07:30:31  5-MIN KAIA 271430Z AUTO 17017KT 10SM BKN021 23/16 A3030 3590 65 5300 170/17 RMK AO2 T02280161
24044KAIA AIA20160627073511206/27/16 07:35:31  5-MIN KAIA 271435Z AUTO 17014KT 10SM BKN021 22/17 A3030 3590 70 5300 160/14 RMK AO2 T02220167
24044KAIA AIA20160627074011206/27/16 07:40:31  5-MIN KAIA 271440Z AUTO 18017KT 10SM BKN021 23/17 A3030 3590 66 5400 170/17 RMK AO2 T02330167
24044KAIA AIA20160627074511806/27/16 07:45:31  5-MIN KAIA 271445Z AUTO 19014G22KT 10SM BKN021 23/17 A3030 3580 68 5300 180/14G22 RMK AO2 T02280167
24044KAIA AIA20160627075010806/27/16 07:50:31  5-MIN KAIA 271450Z AUTO 18012G22KT 10SM SCT021 23/17 A3030 3590 68 5300 170/12G22 RMK AO2
24044KAIA AIA20160627075511206/27/16 07:55:31  5-MIN KAIA 271455Z AUTO 16013KT 10SM SCT021 23/17 A3029 3590 66 5400 150/13 RMK AO2 T02330167
24044KAIA AIA20160627080011206/27/16 08:00:31  5-MIN KAIA 271500Z AUTO 17012KT 10SM SCT021 24/17 A3029 3590 63 5500 170/12 RMK AO2 T02390167
24044KAIA AIA20160627080511206/27/16 08:05:31  5-MIN KAIA 271505Z AUTO 18009KT 10SM FEW021 24/17 A3030 3590 63 5500 170/09 RMK AO2 T02390167
24044KAIA AIA20160627081012506/27/16 08:10:31  5-MIN KAIA 271510Z AUTO 16012G17KT 10SM FEW022 SCT027 24/17 A3029 3590 63 5500 150/12G17 RMK AO2 T02390167
24044KAIA AIA20160627081511206/27/16 08:15:31  5-MIN KAIA 271515Z AUTO 15012KT 10SM SCT027 23/16 A3029 3590 63 5400 150/12 RMK AO2 T02330161
24044KAIA AIA20160627082011906/27/16 08:20:31  5-MIN KAIA 271520Z AUTO 14011KT 10SM FEW022 BKN027 24/16 A3030 3590 61 5500 130/11 RMK AO2 T02390161
24044KAIA AIA20160627082511206/27/16 08:25:31  5-MIN KAIA 271525Z AUTO 14011KT 10SM BKN027 23/16 A3030 3590 63 5400 130/11 RMK AO2 T02330161
24044KAIA AIA20160627083011206/27/16 08:30:31  5-MIN KAIA 271530Z AUTO 14013KT 10SM BKN027 23/16 A3030 3590 63 5400 130/13 RMK AO2 T02330161
24044KAIA AIA20160627083511806/27/16 08:35:31  5-MIN KAIA 271535Z AUTO 16008G17KT 10SM OVC027 23/16 A3030 3590 63 5400 150/08G17 RMK AO2 T02330161
24044KAIA AIA20160627084011206/27/16 08:40:31  5-MIN KAIA 271540Z AUTO 15013KT 10SM OVC027 23/16 A3029 3590 63 5400 140/13 RMK AO2 T02330161
24044KAIA AIA20160627084511206/27/16 08:45:31  5-MIN KAIA 271545Z AUTO 16010KT 10SM OVC029 23/16 A3030 3590 63 5400 150/10 RMK AO2 T02330161
24044KAIA AIA20160627085011906/27/16 08:50:31  5-MIN KAIA 271550Z AUTO 15012KT 10SM OVC029 23/16 A3029 3590 63 5400 140/12 RMK AO2 SLP219 T02330161
24044KAIA AIA20160627085511206/27/16 08:55:31  5-MIN KAIA 271555Z AUTO 15010KT 10SM OVC029 23/16 A3030 3590 63 5400 140/10 RMK AO2 T02330161
24044KAIA AIA20160627090011206/27/16 09:00:31  5-MIN KAIA 271600Z AUTO 16011KT 10SM OVC029 24/16 A3029 3590 61 5500 150/11 RMK AO2 T02390161
24044KAIA AIA20160627090511206/27/16 09:05:31  5-MIN KAIA 271605Z AUTO 14010KT 10SM OVC029 24/16 A3029 3590 61 5500 140/10 RMK AO2 T02390161
24044KAIA AIA20160627091011206/27/16 09:10:31  5-MIN KAIA 271610Z AUTO 15012KT 10SM OVC029 24/16 A3029 3590 61 5500 140/12 RMK AO2 T02390161
24044KAIA AIA20160627091511206/27/16 09:15:31  5-MIN KAIA 271615Z AUTO 16012KT 10SM OVC030 24/16 A3029 3590 61 5500 150/12 RMK AO2 T02390161
24044KAIA AIA20160627092011206/27/16 09:20:31  5-MIN KAIA 271620Z AUTO 16012KT 10SM OVC030 24/16 A3029 3600 59 5500 150/12 RMK AO2 T02440161
24044KAIA AIA20160627092511206/27/16 09:25:31  5-MIN KAIA 271625Z AUTO 16012KT 10SM OVC030 24/16 A3029 3600 61 5500 150/12 RMK AO2 T02390161
24044KAIA AIA20160627093011206/27/16 09:30:31  5-MIN KAIA 271630Z AUTO 15013KT 10SM OVC032 24/16 A3029 3600 59 5500 150/13 RMK AO2 T02440161
24044KAIA AIA20160627093511906/27/16 09:35:31  5-MIN KAIA 271635Z AUTO 16011KT 10SM BKN032 OVC041 24/16 A3029 3600 59 5500 150/11 RMK AO2 T02440161
24044KAIA AIA20160627094011906/27/16 09:40:31  5-MIN KAIA 271640Z AUTO 15011KT 10SM BKN032 OVC039 25/16 A3029 3600 57 5600 140/11 RMK AO2 T02500161
24044KAIA AIA20160627094511806/27/16 09:45:31  5-MIN KAIA 271645Z AUTO 15013G18KT 10SM OVC032 24/16 A3029 3600 59 5500 140/13G18 RMK AO2 T02440161
24044KAIA AIA20160627095012506/27/16 09:50:31  5-MIN KAIA 271650Z AUTO 17011G18KT 10SM OVC034 25/16 A3029 3600 57 5600 160/11G18 RMK AO2 SLP214 T02500161
24044KAIA AIA20160627095511806/27/16 09:55:31  5-MIN KAIA 271655Z AUTO 16012G19KT 10SM OVC034 25/16 A3029 3590 57 5600 150/12G19 RMK AO2 T02500161
24044KAIA AIA20160627100012506/27/16 10:00:31  5-MIN KAIA 271700Z AUTO 16013G20KT 10SM BKN034 OVC055 25/16 A3029 3600 57 5600 150/13G20 RMK AO2 T02500161
24044KAIA AIA20160627100512506/27/16 10:05:31  5-MIN KAIA 271705Z AUTO 17011G20KT 10SM BKN034 BKN055 25/16 A3029 3600 57 5600 160/11G20 RMK AO2 T02500161
24044KAIA AIA20160627101011906/27/16 10:10:31  5-MIN KAIA 271710Z AUTO 18012KT 10SM BKN034 BKN045 26/16 A3029 3600 55 5600 170/12 RMK AO2 T02560161
24044KAIA AIA20160627101511906/27/16 10:15:31  5-MIN KAIA 271715Z AUTO 16010KT 10SM BKN034 BKN045 26/16 A3029 3600 53 5700 150/10 RMK AO2 T02610161
24044KAIA AIA20160627102011906/27/16 10:20:31  5-MIN KAIA 271720Z AUTO 15011KT 10SM BKN036 OVC047 26/16 A3029 3590 53 5600 140/11 RMK AO2 T02560156
24044KAIA AIA20160627102511906/27/16 10:25:31  5-MIN KAIA 271725Z AUTO 14010KT 10SM BKN036 OVC047 26/16 A3029 3590 53 5700 130/10 RMK AO2 T02610161
24044KAIA AIA20160627103011906/27/16 10:30:31  5-MIN KAIA 271730Z AUTO 15012KT 10SM BKN038 OVC047 26/16 A3029 3590 51 5700 140/12 RMK AO2 T02610156
24044KAIA AIA20160627103511906/27/16 10:35:31  5-MIN KAIA 271735Z AUTO 15011KT 10SM BKN038 OVC047 26/16 A3029 3590 53 5600 140/11 RMK AO2 T02560156
24044KAIA AIA20160627104011206/27/16 10:40:31  5-MIN KAIA 271740Z AUTO 15009KT 10SM OVC040 26/16 A3029 3590 53 5600 140/09 RMK AO2 T02560156
24044KAIA AIA20160627104511206/27/16 10:45:31  5-MIN KAIA 271745Z AUTO 13006KT 10SM OVC040 26/16 A3029 3590 53 5600 120/06 RMK AO2 T02560156
24044KAIA AIA20160627105014306/27/16 10:50:31  5-MIN KAIA 271750Z AUTO 13006G14KT 10SM OVC041 26/16 A3029 3590 53 5600 130/06G14 RMK AO2 SLP217 T02560156 10261 20161 51016
24044KAIA AIA20160627105511806/27/16 10:55:31  5-MIN KAIA 271755Z AUTO 16006G14KT 10SM OVC041 26/15 A3029 3590 51 5600 150/06G14 RMK AO2 T02560150
24044KAIA AIA20160627110011206/27/16 11:00:31  5-MIN KAIA 271800Z AUTO 16007KT 10SM OVC041 26/15 A3029 3590 51 5600 150/07 RMK AO2 T02560150
24044KAIA AIA20160627110511906/27/16 11:05:31  5-MIN KAIA 271805Z AUTO 17007KT 10SM BKN042 OVC049 26/16 A3029 3590 51 5700 160/07 RMK AO2 T02610156
24044KAIA AIA20160627111012606/27/16 11:10:31  5-MIN KAIA 271810Z AUTO 17008KT 10SM BKN042 BKN049 OVC065 26/16 A3029 3600 51 5700 160/08 RMK AO2 T02610156
24044KAIA AIA20160627111511906/27/16 11:15:31  5-MIN KAIA 271815Z AUTO 16009KT 10SM BKN044 OVC065 26/16 A3028 3600 53 5700 150/09 RMK AO2 T02560156
24044KAIA AIA20160627112011906/27/16 11:20:31  5-MIN KAIA 271820Z AUTO 14010KT 10SM BKN046 OVC065 26/16 A3028 3600 53 5700 130/10 RMK AO2 T02560156
24044KAIA AIA20160627112511906/27/16 11:25:31  5-MIN KAIA 271825Z AUTO 14009KT 10SM BKN046 OVC060 26/16 A3028 3600 51 5700 130/09 RMK AO2 T02610156
24044KAIA AIA20160627113011906/27/16 11:30:31  5-MIN KAIA 271830Z AUTO 16007KT 10SM SCT046 BKN060 26/14 A3028 3610 46 5700 150/07 RMK AO2 T02610139
24044KAIA AIA20160627113512606/27/16 11:35:31  5-MIN KAIA 271835Z AUTO 14011KT 10SM SCT048 BKN060 BKN100 27/14 A3027 3610 46 5800 130/11 RMK AO2 T02670144
24044KAIA AIA20160627114012606/27/16 11:40:31  5-MIN KAIA 271840Z AUTO 15011KT 10SM SCT048 BKN060 BKN100 27/14 A3027 3610 45 5800 140/11 RMK AO2 T02670139
24044KAIA AIA20160627114512606/27/16 11:45:31  5-MIN KAIA 271845Z AUTO 16011KT 10SM FEW048 SCT060 BKN090 26/13 A3027 3610 44 5700 150/11 RMK AO2 T02610133
24044KAIA AIA20160627115013306/27/16 11:50:31  5-MIN KAIA 271850Z AUTO 17008KT 10SM SCT055 BKN090 BKN110 27/14 A3028 3610 46 5800 160/08 RMK AO2 SLP212 T02670144
24044KAIA AIA20160627115513806/27/16 11:55:31  5-MIN KAIA 271855Z AUTO 17010KT 10SM SCT055 BKN090 BKN110 26/14 A3028 3600 48 5700 160/10 RMK AO2 LTG DSNT SE T02610144
24044KAIA AIA20160627120014006/27/16 12:00:31  5-MIN KAIA 271900Z AUTO 17012KT 10SM TS BKN055 BKN090 26/14 A3028 3600 49 5700 160/12 RMK AO2 LTG DSNT SE TSB00 T02560144
24044KAIA AIA20160627120514006/27/16 12:05:31  5-MIN KAIA 271905Z AUTO 15010KT 10SM TS BKN055 BKN090 25/15 A3028 3600 53 5600 150/10 RMK AO2 LTG DSNT SE TSB00 T02500150
24044KAIA AIA20160627121016206/27/16 12:10:31  5-MIN KAIA 271910Z AUTO 14009KT 10SM -TSRA FEW028 BKN055 BKN100 26/18 A3027 3610 61 5700 130/09 RMK AO2 LTG DSNT SE RAB06 TSB00 P0000 T02560178
24044KAIA AIA20160627121516306/27/16 12:15:31  5-MIN KAIA 271915Z AUTO 13011KT 10SM -RA FEW030 BKN055 BKN100 26/18 A3027 3610 59 5700 120/11 RMK AO2 LTG DSNT SE RAB06 TSB00E15 P0000 T02610178
24044KAIA AIA20160627122016706/27/16 12:20:31  5-MIN KAIA 271920Z AUTO 12015G20KT 10SM VCTS -RA FEW030 BKN055 27/17 A3027 3610 53 5800 120/15G20 RMK AO2 LTG DSNT SE RAB06 TSB00E15 P0000 T02670167
24044KAIA AIA20160627122517206/27/16 12:25:31  5-MIN KAIA 271925Z AUTO 11012G20KT 10SM VCTS FEW030 SCT050 27/16 A3027 3620 50 5900 100/12G20 RMK AO2 LTG DSNT E AND SE RAB06E25 TSB00E15 P0000 T02720161
24044KAIA AIA20160627123016606/27/16 12:30:31  5-MIN KAIA 271930Z AUTO 12010KT 10SM VCTS FEW030 FEW050 27/14 A3026 3620 46 5800 110/10 RMK AO2 LTG DSNT E AND SE RAB06E25 TSB00E15 P0000 T02670144
24044KAIA AIA20160627123515706/27/16 12:35:31  5-MIN KAIA 271935Z AUTO 11010KT 10SM FEW030 SCT065 28/14 A3026 3620 43 5900 100/10 RMK AO2 LTG DSNT N-SE RAB06E25 TSB00E15 P0000 T02780144
24044KAIA AIA20160627124016106/27/16 12:40:31  5-MIN KAIA 271940Z AUTO 11012KT 10SM FEW032 SCT060 29/14 A3027 3620 40 6000 100/12 RMK AO2 LTG DSNT N AND SE RAB06E25 TSB00E15 P0000 T02890144
24044KAIA AIA20160627124515406/27/16 12:45:31  5-MIN KAIA 271945Z AUTO 11015KT 10SM SCT060 28/13 A3026 3620 39 6000 100/15 RMK AO2 LTG DSNT N AND SE RAB06E25 TSB00E15 P0000 T02830133
24044KAIA AIA20160627125014906/27/16 12:50:31  5-MIN KAIA 271950Z AUTO 11014KT 10SM VCTS BKN060 27/13 A3026 3620 42 5900 110/14 RMK AO2 LTG DSNT N AND SE RAB06E25 TSB00E15 P0000
24044KAIA AIA20160627125513706/27/16 12:55:31  5-MIN KAIA 271955Z AUTO 12013G18KT 10SM VCTS BKN060 28/13 A3026 3620 39 5900 110/13G18 RMK AO2 LTG DSNT N-SE T02780128
24044KAIA AIA20160627130013906/27/16 13:00:31  5-MIN KAIA 272000Z AUTO 13016KT 10SM VCTS BKN060 BKN075 28/13 A3026 3620 39 5900 130/16 RMK AO2 LTG DSNT ALQDS T02780128
24044KAIA AIA20160627130513306/27/16 13:05:31  5-MIN KAIA 272005Z AUTO 13014KT 10SM BKN060 BKN075 28/13 A3026 3620 37 6000 120/14 RMK AO2 LTG DSNT NE-S T02830128
24044KAIA AIA20160627131012606/27/16 13:10:31  5-MIN KAIA 272010Z AUTO 12014KT 10SM BKN060 28/13 A3026 3620 40 5900 110/14 RMK AO2 LTG DSNT NE-S T02780133
24044KAIA AIA20160627131513106/27/16 13:15:31  5-MIN KAIA 272015Z AUTO 12014KT 10SM BKN060 27/13 A3026 3620 40 5900 120/14 RMK AO2 LTG DSNT NE AND SE T02720128
24044KAIA AIA20160627132013006/27/16 13:20:31  5-MIN KAIA 272020Z AUTO 12013G20KT 10SM BKN060 28/13 A3026 3620 37 6000 120/13G20 RMK AO2 LTG DSNT SE T02830128
24044KAIA AIA20160627132513006/27/16 13:25:31  5-MIN KAIA 272025Z AUTO 13017G20KT 10SM BKN060 29/13 A3026 3620 36 6000 120/17G20 RMK AO2 LTG DSNT SE T02890128
24044KAIA AIA20160627133013006/27/16 13:30:31  5-MIN KAIA 272030Z AUTO 11016G23KT 10SM SCT060 28/14 A3025 3630 42 6000 100/16G23 RMK AO2 LTG DSNT SE T02830144
24044KAIA AIA20160627133513006/27/16 13:35:31  5-MIN KAIA 272035Z AUTO 11018G24KT 10SM SCT060 29/15 A3026 3630 42 6000 110/18G24 RMK AO2 LTG DSNT SE T02890150
24044KAIA AIA20160627134014806/27/16 13:40:31  5-MIN KAIA 272040Z AUTO 12021G26KT 10SM BKN060 28/14 A3026 3620 43 5900 110/21G26 RMK AO2 PK WND 11026/2040 LTG DSNT SE T02780144
24044KAIA AIA20160627134514806/27/16 13:45:31  5-MIN KAIA 272045Z AUTO 12020G26KT 10SM BKN060 26/14 A3026 3620 48 5700 110/20G26 RMK AO2 PK WND 11026/2040 LTG DSNT SE T02610144
24044KAIA AIA20160627135017506/27/16 13:50:31  5-MIN KAIA 272050Z AUTO 11019KT 10SM BKN060 BKN075 28/14 A3025 3630 43 5900 110/19 RMK AO2 PK WND 11026/2040 LTG DSNT SE AND NW SLP204 60000 T02780144 55001
24044KAIA AIA20160627135514406/27/16 13:55:31  5-MIN KAIA 272055Z AUTO 12021KT 10SM BKN060 BKN085 28/14 A3026 3630 40 6000 120/21 RMK AO2 LTG DSNT SE AND S AND NW T02830139
24044KAIA AIA20160627140014006/27/16 14:00:31  5-MIN KAIA 272100Z AUTO 10017G23KT 10SM SCT060 BKN085 27/14 A3025 3630 43 5900 090/17G23 RMK AO2 LTG DSNT ALQDS T02720139
24044KAIA AIA20160627140514706/27/16 14:05:31  5-MIN KAIA 272105Z AUTO 10015G23KT 10SM BKN060 BKN075 BKN090 27/14 A3025 3630 43 5900 090/15G23 RMK AO2 LTG DSNT ALQDS T02720139
24044KAIA AIA20160627141015006/27/16 14:10:31  5-MIN KAIA 272110Z AUTO 11015G23KT 10SM SCT060 SCT075 BKN090 28/13 A3024 3640 40 5900 100/15G23 RMK AO2 LTG DSNT N AND NW T02780133
24044KAIA AIA20160627141515006/27/16 14:15:31  5-MIN KAIA 272115Z AUTO 12019G23KT 10SM FEW055 SCT075 SCT090 28/14 A3024 3640 42 5900 110/19G23 RMK AO2 LTG DSNT N AND NW T02780139
24044KAIA AIA20160627142014306/27/16 14:20:31  5-MIN KAIA 272120Z AUTO 13020G23KT 10SM FEW055 SCT085 28/14 A3025 3630 42 5900 120/20G23 RMK AO2 LTG DSNT N AND NW T02780139
24044KAIA AIA20160627142513606/27/16 14:25:31  5-MIN KAIA 272125Z AUTO 13018G23KT 10SM SCT055 27/13 A3025 3630 43 5800 120/18G23 RMK AO2 LTG DSNT N AND NW T02670133
24044KAIA AIA20160627143013506/27/16 14:30:31  5-MIN KAIA 272130Z AUTO 12018KT 10SM VCTS SCT060 27/13 A3025 3630 43 5800 120/18 RMK AO2 LTG DSNT N AND NW T02670133
24044KAIA AIA20160627143513606/27/16 14:35:31  5-MIN KAIA 272135Z AUTO 13017KT 10SM VCTS FEW055 SCT070 28/14 A3025 3630 40 6000 120/17 RMK AO2 LTG DSNT NW T02830139
24044KAIA AIA20160627144014206/27/16 14:40:31  5-MIN KAIA 272140Z AUTO 14019G24KT 10SM VCTS FEW055 SCT070 28/13 A3025 3630 39 6000 130/19G24 RMK AO2 LTG DSNT NW T02830133
24044KAIA AIA20160627144514206/27/16 14:45:31  5-MIN KAIA 272145Z AUTO 13019G24KT 10SM VCTS SCT055 SCT070 28/14 A3025 3630 42 5900 120/19G24 RMK AO2 LTG DSNT NW T02780139
24044KAIA AIA20160627145012706/27/16 14:50:31  5-MIN KAIA 272150Z AUTO 12019G23KT 10SM SCT055 SCT070 28/13 A3025 3630 40 5900 110/19G23 RMK AO2 LTG DSNT NW
24044KAIA AIA20160627145514306/27/16 14:55:31  5-MIN KAIA 272155Z AUTO 13017G23KT 10SM SCT055 SCT070 26/13 A3026 3620 44 5700 120/17G23 RMK AO2 LTG DSNT W AND NW T02610133
24044KAIA AIA20160627150013706/27/16 15:00:31  5-MIN KAIA 272200Z AUTO 12017KT 10SM SCT055 BKN070 25/13 A3025 3630 48 5600 110/17 RMK AO2 LTG DSNT W AND NW T02500133
24044KAIA AIA20160627150513006/27/16 15:05:31  5-MIN KAIA 272205Z AUTO 12018KT 10SM BKN060 25/13 A3025 3630 48 5600 110/18 RMK AO2 LTG DSNT W AND NW T02500133
24044KAIA AIA20160627151013006/27/16 15:10:31  5-MIN KAIA 272210Z AUTO 13018KT 10SM SCT060 25/13 A3025 3630 48 5600 120/18 RMK AO2 LTG DSNT W AND NW T02500133
24044KAIA AIA20160627151514206/27/16 15:15:31  5-MIN KAIA 272215Z AUTO 13017KT 10SM VCTS FEW060 SCT070 24/13 A3024 3640 49 5600 120/17 RMK AO2 LTG DSNT W AND NW T02440133
24044KAIA AIA20160627152013506/27/16 15:20:31  5-MIN KAIA 272220Z AUTO 12017KT 10SM VCTS SCT060 BKN070 24/13 A3024 3640 49 5600 120/17 RMK AO2 LTG DSNT W T02440133
24044KAIA AIA20160627152514106/27/16 15:25:31  5-MIN KAIA 272225Z AUTO 12017G22KT 10SM VCTS SCT050 BKN070 24/13 A3023 3650 51 5500 110/17G22 RMK AO2 LTG DSNT W T02390133
24044KAIA AIA20160627153015706/27/16 15:30:31  5-MIN KAIA 272230Z AUTO 13016G22KT 10SM VCTS -RA SCT050 BKN070 23/14 A3024 3640 55 5500 120/16G22 RMK AO2 LTG DSNT W RAB26 P0000 T02330139
24044KAIA AIA20160627153515706/27/16 15:35:31  5-MIN KAIA 272235Z AUTO 13013G22KT 10SM VCTS -RA SCT055 BKN070 23/14 A3024 3640 57 5500 120/13G22 RMK AO2 LTG DSNT W RAB26 P0000 T02330144
24044KAIA AIA20160627154014006/27/16 15:40:31  5-MIN KAIA 272240Z AUTO 12014KT 10SM VCTS -RA SCT047 BKN070 24/14 A3024 3640 55 5500 120/14 RMK AO2 RAB26 P0000 T02390144
24044KAIA AIA20160627154516006/27/16 15:45:31  5-MIN KAIA 272245Z AUTO 12018G22KT 10SM -TSRA SCT047 BKN070 25/14 A3024 3640 51 5600 110/18G22 RMK AO2 LTG DSNT S RAB26 TSB45 P0000 T02500144
24044KAIA AIA20160627155015006/27/16 15:50:31  5-MIN KAIA 272250Z AUTO 13016G22KT 10SM TS FEW047 SCT070 26/14 A3025 3630 48 5800 120/16G22 RMK AO2 LTG DSNT S RAB26E50 TSB45 P0000
24044KAIA AIA20160627155514006/27/16 15:55:31  5-MIN KAIA 272255Z AUTO 11015KT 10SM TS FEW042 SCT070 27/14 A3025 3630 45 5800 100/15 RMK AO2 LTG DSNT S AND SW T02670139
24044KAIA AIA20160627160015406/27/16 16:00:31  5-MIN KAIA 272300Z AUTO 11019G24KT 10SM VCTS FEW042 FEW065 27/14 A3025 3630 45 5800 100/19G24 RMK AO2 LTG DSNT S AND SW TSE00 T02670139
24044KAIA AIA20160627160514406/27/16 16:05:31  5-MIN KAIA 272305Z AUTO 11015G24KT 10SM VCTS CLR 27/13 A3025 3630 43 5800 100/15G24 RMK AO2 LTG DSNT S AND SW TSE00 T02670133
24044KAIA AIA20160627161013706/27/16 16:10:31  5-MIN KAIA 272310Z AUTO 11017G24KT 10SM VCTS CLR 27/13 A3025 3630 43 5800 110/17G24 RMK AO2 LTG DSNT S TSE00 T02670133
24044KAIA AIA20160627161513206/27/16 16:15:31  5-MIN KAIA 272315Z AUTO 12017G24KT 10SM CLR 27/13 A3025 3630 43 5800 110/17G24 RMK AO2 LTG DSNT S TSE00 T02670133
24044KAIA AIA20160627162013206/27/16 16:20:31  5-MIN KAIA 272320Z AUTO 11018G23KT 10SM CLR 26/13 A3026 3630 44 5700 110/18G23 RMK AO2 LTG DSNT S TSE00 T02610133
24044KAIA AIA20160627162513206/27/16 16:25:31  5-MIN KAIA 272325Z AUTO 12017G23KT 10SM CLR 27/13 A3026 3620 43 5800 110/17G23 RMK AO2 LTG DSNT S TSE00 T02670133
24044KAIA AIA20160627163012606/27/16 16:30:31  5-MIN KAIA 272330Z AUTO 11014KT 10SM CLR 27/13 A3026 3620 41 5800 100/14 RMK AO2 LTG DSNT S TSE00 T02670128
24044KAIA AIA20160627163512106/27/16 16:35:31  5-MIN KAIA 272335Z AUTO 11017G22KT 10SM CLR 27/13 A3026 3630 43 5800 100/17G22 RMK AO2 TSE00 T02670133
24044KAIA AIA20160627164013206/27/16 16:40:31  5-MIN KAIA 272340Z AUTO 12016G22KT 10SM CLR 27/13 A3026 3620 41 5800 110/16G22 RMK AO2 LTG DSNT S TSE00 T02670128
24044KAIA AIA20160627164512606/27/16 16:45:31  5-MIN KAIA 272345Z AUTO 11018KT 10SM CLR 26/13 A3026 3620 43 5700 100/18 RMK AO2 LTG DSNT S TSE00 T02610128
24044KAIA AIA20160627165015706/27/16 16:50:31  5-MIN KAIA 272350Z AUTO 10015KT 10SM CLR 26/13 A3026 3620 43 5700 090/15 RMK AO2 LTG DSNT S TSE00 SLP206 60000 T02610128 10289 20233 56010
24044KAIA AIA20160627165512006/27/16 16:55:31  5-MIN KAIA 272355Z AUTO 11015KT 10SM CLR 26/13 A3026 3620 43 5700 100/15 RMK AO2 LTG DSNT S T02610128
24044KAIA AIA20160627170011506/27/16 17:00:31  5-MIN KAIA 280000Z AUTO 12017G21KT 10SM CLR 26/13 A3026 3620 43 5700 110/17G21 RMK AO2 T02610128
24044KAIA AIA20160627170511506/27/16 17:05:31  5-MIN KAIA 280005Z AUTO 12016G21KT 10SM CLR 26/13 A3026 3630 43 5700 110/16G21 RMK AO2 T02610128
24044KAIA AIA20160627171011506/27/16 17:10:31  5-MIN KAIA 280010Z AUTO 11016G22KT 10SM CLR 26/13 A3026 3620 43 5700 100/16G22 RMK AO2 T02610128
24044KAIA AIA20160627171511506/27/16 17:15:31  5-MIN KAIA 280015Z AUTO 12014G22KT 10SM CLR 26/13 A3026 3620 43 5700 110/14G22 RMK AO2 T02610128
24044KAIA AIA20160627172010906/27/16 17:20:31  5-MIN KAIA 280020Z AUTO 11018KT 10SM CLR 26/13 A3026 3620 44 5700 100/18 RMK AO2 T02560128
24044KAIA AIA20160627172510906/27/16 17:25:31  5-MIN KAIA 280025Z AUTO 12016KT 10SM CLR 26/13 A3026 3620 44 5700 110/16 RMK AO2 T02560128
24044KAIA AIA20160627173010906/27/16 17:30:31  5-MIN KAIA 280030Z AUTO 11016KT 10SM CLR 26/13 A3026 3620 44 5700 100/16 RMK AO2 T02560128
24044KAIA AIA20160627173510906/27/16 17:35:31  5-MIN KAIA 280035Z AUTO 11015KT 10SM CLR 26/13 A3026 3620 44 5700 110/15 RMK AO2 T02560128
24044KAIA AIA20160627174011506/27/16 17:40:31  5-MIN KAIA 280040Z AUTO 12014G21KT 10SM CLR 26/13 A3026 3620 44 5700 110/14G21 RMK AO2 T02560128
24044KAIA AIA20160627174511506/27/16 17:45:31  5-MIN KAIA 280045Z AUTO 11014G21KT 10SM CLR 26/13 A3026 3620 44 5700 100/14G21 RMK AO2 T02560128
24044KAIA AIA20160627175012206/27/16 17:50:31  5-MIN KAIA 280050Z AUTO 12013G21KT 10SM CLR 25/13 A3026 3620 46 5600 110/13G21 RMK AO2 SLP207 T02500128
24044KAIA AIA20160627175511506/27/16 17:55:31  5-MIN KAIA 280055Z AUTO 12016G21KT 10SM CLR 25/13 A3026 3620 46 5600 110/16G21 RMK AO2 T02500128
24044KAIA AIA20160627180011506/27/16 18:00:31  5-MIN KAIA 280100Z AUTO 12016G21KT 10SM CLR 25/13 A3026 3620 46 5600 110/16G21 RMK AO2 T02500128
24044KAIA AIA20160627180510906/27/16 18:05:31  5-MIN KAIA 280105Z AUTO 12014KT 10SM CLR 25/13 A3026 3620 46 5600 110/14 RMK AO2 T02500128
24044KAIA AIA20160627181010906/27/16 18:10:31  5-MIN KAIA 280110Z AUTO 12014KT 10SM CLR 24/13 A3026 3620 47 5600 110/14 RMK AO2 T02440128
24044KAIA AIA20160627181510906/27/16 18:15:31  5-MIN KAIA 280115Z AUTO 11013KT 10SM CLR 24/13 A3026 3620 47 5600 110/13 RMK AO2 T02440128
24044KAIA AIA20160627182010906/27/16 18:20:31  5-MIN KAIA 280120Z AUTO 12014KT 10SM CLR 24/13 A3026 3620 47 5600 110/14 RMK AO2 T02440128
24044KAIA AIA20160627182510906/27/16 18:25:31  5-MIN KAIA 280125Z AUTO 12014KT 10SM CLR 24/13 A3025 3630 49 5500 110/14 RMK AO2 T02390128
24044KAIA AIA20160627183010906/27/16 18:30:31  5-MIN KAIA 280130Z AUTO 12013KT 10SM CLR 24/13 A3025 3630 49 5500 120/13 RMK AO2 T02390128
24044KAIA AIA20160627183512006/27/16 18:35:31  5-MIN KAIA 280135Z AUTO 12013KT 10SM CLR 24/13 A3025 3630 49 5500 110/13 RMK AO2 LTG DSNT N T02390128
24044KAIA AIA20160627184012006/27/16 18:40:31  5-MIN KAIA 280140Z AUTO 12013KT 10SM CLR 23/13 A3025 3630 51 5400 120/13 RMK AO2 LTG DSNT N T02330128
24044KAIA AIA20160627184512706/27/16 18:45:31  5-MIN KAIA 280145Z AUTO 12011KT 10SM CLR 23/13 A3026 3620 51 5400 120/11 RMK AO2 LTG DSNT N AND NW T02330128
24044KAIA AIA20160627185013406/27/16 18:50:31  5-MIN KAIA 280150Z AUTO 12009KT 10SM CLR 23/13 A3027 3610 51 5400 120/09 RMK AO2 LTG DSNT N AND NW SLP207 T02330128
24044KAIA AIA20160627185512406/27/16 18:55:31  5-MIN KAIA 280155Z AUTO 13010KT 10SM CLR 23/13 A3027 3610 53 5400 120/10 RMK AO2 LTG DSNT NW-NE T02280128
24044KAIA AIA20160627190013706/27/16 19:00:31  5-MIN KAIA 280200Z AUTO 12009KT 10SM FEW085 23/13 A3028 3600 53 5400 120/09 RMK AO2 LTG DSNT N AND NE PRESRR T02280128
24044KAIA AIA20160627190513006/27/16 19:05:31  5-MIN KAIA 280205Z AUTO 13011KT 10SM SCT085 23/13 A3028 3600 55 5300 130/11 RMK AO2 LTG DSNT N AND NE T02280133
24044KAIA AIA20160627191012706/27/16 19:10:31  5-MIN KAIA 280210Z AUTO 13009KT 10SM FEW085 23/13 A3028 3600 55 5300 120/09 RMK AO2 LTG DSNT NW-NE T02280133
24044KAIA AIA20160627191512706/27/16 19:15:31  5-MIN KAIA 280215Z AUTO 13009KT 10SM FEW085 22/13 A3029 3600 56 5300 120/09 RMK AO2 LTG DSNT NW-NE T02220133
24044KAIA AIA20160627192012706/27/16 19:20:31  5-MIN KAIA 280220Z AUTO 13010KT 10SM FEW085 22/13 A3029 3600 56 5300 120/10 RMK AO2 LTG DSNT NW-NE T02220133
24044KAIA AIA20160627192513006/27/16 19:25:31  5-MIN KAIA 280225Z AUTO 14010KT 10SM FEW085 22/13 A3028 3600 58 5200 130/10 RMK AO2 LTG DSNT N AND NW T02170133
24044KAIA AIA20160627193013006/27/16 19:30:31  5-MIN KAIA 280230Z AUTO 15009KT 10SM FEW085 22/13 A3028 3600 58 5200 140/09 RMK AO2 LTG DSNT N AND NW T02170133
24044KAIA AIA20160627193512706/27/16 19:35:31  5-MIN KAIA 280235Z AUTO 14009KT 10SM CLR 21/13 A3028 3600 63 5100 130/09 RMK AO2 LTG DSNT N AND NW T02060133
24044KAIA AIA20160627194012406/27/16 19:40:31  5-MIN KAIA 280240Z AUTO 14010KT 10SM CLR 21/14 A3029 3600 63 5200 130/10 RMK AO2 LTG DSNT NW-NE T02110139
24044KAIA AIA20160627194512906/27/16 19:45:31  5-MIN KAIA 280245Z AUTO 14009KT 10SM VCTS CLR 21/14 A3028 3600 65 5100 130/09 RMK AO2 LTG DSNT NW-NE T02060139
24044KAIA AIA20160627195014206/27/16 19:50:31  5-MIN KAIA 280250Z AUTO 14008KT 10SM VCTS CLR 21/14 A3029 3590 63 5200 140/08 RMK AO2 LTG DSNT NW-NE SLP216 T02110139 53009
24044KAIA AIA20160627195513606/27/16 19:55:31  5-MIN KAIA 280255Z AUTO 10005KT 10SM VCTS CLR 21/14 A3031 3570 63 5100 090/05 RMK AO2 LTG DSNT NW-NE PRESRR T02110139
24044KAIA AIA20160627200014106/27/16 20:00:31  5-MIN KAIA 280300Z AUTO 03009KT 10SM FEW080 FEW095 21/13 A3033 3560 61 5100 020/09 RMK AO2 LTG DSNT NW-NE PRESRR T02110133
24044KAIA AIA20160627200514606/27/16 20:05:31  5-MIN KAIA 280305Z AUTO 04011KT 10SM VCTS FEW060 SCT080 SCT095 21/14 A3033 3560 63 5100 030/11 RMK AO2 LTG DSNT NW-NE T02110139
24044KAIA AIA20160627201014606/27/16 20:10:31  5-MIN KAIA 280310Z AUTO 07011KT 10SM VCTS FEW060 BKN075 BKN095 22/13 A3032 3560 58 5200 070/11 RMK AO2 LTG DSNT NW-NE T02170133
24044KAIA AIA20160627201513806/27/16 20:15:31  5-MIN KAIA 280315Z AUTO 08013KT 10SM VCTS FEW060 BKN075 22/13 A3032 3560 58 5200 070/13 RMK AO2 LTG DSNT NW-E T02170133
24044KAIA AIA20160627202014806/27/16 20:20:31  5-MIN KAIA 280320Z AUTO 03018G23KT 10SM TS SCT060 BKN075 22/13 A3034 3550 58 5200 030/18G23 RMK AO2 LTG DSNT NW-E TSB16 T02170133
24044KAIA AIA20160627202515506/27/16 20:25:31  5-MIN KAIA 280325Z AUTO 04017G23KT 10SM TS BKN060 OVC075 21/14 A3035 3540 65 5000 030/17G23 RMK AO2 LTG DSNT NW-E TSB16 PRESRR T02060139
24044KAIA AIA20160627203017106/27/16 20:30:31  5-MIN KAIA 280330Z AUTO 03016G24KT 10SM -TSRA BKN060 OVC075 20/14 A3037 3520 70 4900 020/16G24 RMK AO2 LTG DSNT ALQDS RAB27 TSB16 PRESRR P0000 T02000144
24044KAIA AIA20160627203519606/27/16 20:35:31  5-MIN KAIA 280335Z AUTO 01018G26KT 10SM -TSRA FEW042 BKN060 OVC075 19/15 A3038 3510 78 4800 360/18G26 RMK AO2 PK WND 01026/0335 LTG DSNT ALQDS RAB27 TSB16 PRESRR P0000 T01890150
24044KAIA AIA20160627204019406/27/16 20:40:31  5-MIN KAIA 280340Z AUTO 02015G26KT 7SM TSRA FEW042 BKN055 OVC075 18/15 A3039 3500 81 4700 020/15G26 RMK AO2 PK WND 01026/0335 LTG DSNT ALQDS RAB27 TSB16 PRESRR P0004 T01830150
24044KAIA AIA20160627204518706/27/16 20:45:31  5-MIN KAIA 280345Z AUTO 09011KT 2 1/2SM +TSRA BR FEW025 SCT042 OVC060 18/16 A3036 3530 87 4700 080/11 RMK AO2 PK WND 01026/0335 LTG DSNT E-S RAB27 TSB16 P0022 T01780156
24044KAIA AIA20160627205019506/27/16 20:50:31  5-MIN KAIA 280350Z AUTO 11020KT 1 3/4SM +TSRA BR SCT036 BKN045 OVC060 17/16 A3034 3550 90 4700 100/20 RMK AO2 PK WND 01026/0335 WSHFT 0335 LTG DSNT E-S RAB27 TSB16 PRESFR P0029
24044KAIA AIA20160627205517506/27/16 20:55:31  5-MIN KAIA 280355Z AUTO 10019KT 2 1/2SM +TSRA BR BKN046 BKN060 OVC075 17/16 A3033 3560 90 4700 090/19 RMK AO2 WSHFT 0340 LTG DSNT E-S PRESFR P0001 T01720156
24044KAIA AIA20160627210016806/27/16 21:00:31  5-MIN KAIA 280400Z AUTO 09017KT 5SM TSRA BR BKN041 BKN055 OVC075 17/16 A3033 3560 90 4700 080/17 RMK AO2 WSHFT 0340 LTG DSNT SE AND S P0002 T01720156
24044KAIA AIA20160627210517506/27/16 21:05:31  5-MIN KAIA 280405Z AUTO 09014KT 7SM VCTS -RA BKN034 BKN045 OVC060 17/16 A3033 3560 90 4700 080/14 RMK AO2 WSHFT 0340 LTG DSNT SE AND S TSE05 P0003 T01720156
24044KAIA AIA20160627211017506/27/16 21:10:31  5-MIN KAIA 280410Z AUTO 10015G21KT 10SM VCTS -RA BKN032 BKN075 17/16 A3032 3560 90 4700 090/15G21 RMK AO2 WSHFT 0340 LTG DSNT SE AND S TSE05 P0003 T01720156
24044KAIA AIA20160627211516906/27/16 21:15:31  5-MIN KAIA 280415Z AUTO 11013KT 10SM VCTS -RA SCT037 SCT075 18/15 A3033 3560 83 4700 100/13 RMK AO2 WSHFT 0340 LTG DSNT SE AND S TSE05 P0003 T01780150
24044KAIA AIA20160627212017106/27/16 21:20:31  5-MIN KAIA 280420Z AUTO 11012KT 10SM VCTS SCT034 SCT080 17/16 A3033 3550 90 4700 100/12 RMK AO2 WSHFT 0340 LTG DSNT SE AND S RAE17 TSE05 P0003 T01720156
24044KAIA AIA20160627212515906/27/16 21:25:31  5-MIN KAIA 280425Z AUTO 10010KT 10SM SCT029 18/15 A3034 3550 83 4700 090/10 RMK AO2 WSHFT 0340 LTG DSNT SE AND S RAE17 TSE05 P0003 T01780150
24044KAIA AIA20160627213015906/27/16 21:30:31  5-MIN KAIA 280430Z AUTO 12011KT 10SM FEW024 18/15 A3034 3550 83 4700 110/11 RMK AO2 WSHFT 0340 LTG DSNT SE AND S RAE17 TSE05 P0003 T01780150
24044KAIA AIA20160627213515606/27/16 21:35:31  5-MIN KAIA 280435Z AUTO 13012KT 10SM CLR 17/15 A3034 3550 87 4700 120/12 RMK AO2 WSHFT 0340 LTG DSNT SE AND S RAE17 TSE05 P0003 T01720150
24044KAIA AIA20160627214015606/27/16 21:40:31  5-MIN KAIA 280440Z AUTO 13012KT 10SM CLR 18/15 A3034 3550 83 4700 130/12 RMK AO2 WSHFT 0340 LTG DSNT SE AND S RAE17 TSE05 P0003 T01780150
24044KAIA AIA20160627214515606/27/16 21:45:31  5-MIN KAIA 280445Z AUTO 15009KT 10SM CLR 17/15 A3034 3550 87 4700 140/09 RMK AO2 WSHFT 0340 LTG DSNT SE AND S RAE17 TSE05 P0003 T01720150
24044KAIA AIA20160627215016306/27/16 21:50:31  5-MIN KAIA 280450Z AUTO 16008KT 10SM CLR 17/16 A3034 3550 90 4700 160/08 RMK AO2 WSHFT 0340 LTG DSNT SE AND S RAE17 TSE05 SLP235 P0003 T01720156
24044KAIA AIA20160627215512706/27/16 21:55:31  5-MIN KAIA 280455Z AUTO 18010KT 10SM CLR 17/16 A3033 3550 93 4600 170/10 RMK AO2 LTG DSNT SE AND S T01670156
24044KAIA AIA20160627220012706/27/16 22:00:31  5-MIN KAIA 280500Z AUTO 18010KT 10SM CLR 17/16 A3033 3560 93 4600 170/10 RMK AO2 LTG DSNT SE AND S T01670156
24044KAIA AIA20160627220512706/27/16 22:05:31  5-MIN KAIA 280505Z AUTO 18011KT 10SM CLR 17/16 A3032 3560 93 4600 170/11 RMK AO2 LTG DSNT SE AND S T01670156
24044KAIA AIA20160627221012906/27/16 22:10:31  5-MIN KAIA 280510Z AUTO 18011KT 10SM CLR 17/16 A3032 3560 93 4600 170/11 RMK AO2 LTG DSNT SE AND S T01670156 $
24044KAIA AIA20160627221512906/27/16 22:15:31  5-MIN KAIA 280515Z AUTO 18010KT 10SM CLR 17/16 A3032 3570 93 4600 170/10 RMK AO2 LTG DSNT SE AND S T01670156 $
24044KAIA AIA20160627222012206/27/16 22:20:31  5-MIN KAIA 280520Z AUTO 17010KT 10SM CLR 17/16 A3032 3570 93 4600 170/10 RMK AO2 LTG DSNT S T01670156 $
24044KAIA AIA20160627222512206/27/16 22:25:31  5-MIN KAIA 280525Z AUTO 18009KT 10SM CLR 17/16 A3032 3570 93 4600 170/09 RMK AO2 LTG DSNT S T01670156 $
24044KAIA AIA20160627223011106/27/16 22:30:31  5-MIN KAIA 280530Z AUTO 17010KT 10SM CLR 17/16 A3032 3570 93 4600 160/10 RMK AO2 T01670156 $
24044KAIA AIA20160627223511106/27/16 22:35:31  5-MIN KAIA 280535Z AUTO 17009KT 10SM CLR 17/15 A3032 3570 90 4600 160/09 RMK AO2 T01670150 $
24044KAIA AIA20160627224011106/27/16 22:40:31  5-MIN KAIA 280540Z AUTO 17010KT 10SM CLR 17/15 A3031 3570 90 4600 160/10 RMK AO2 T01670150 $
24044KAIA AIA20160627224511106/27/16 22:45:31  5-MIN KAIA 280545Z AUTO 18009KT 10SM CLR 16/15 A3032 3570 93 4600 170/09 RMK AO2 T01610150 $
24044KAIA AIA20160627225014206/27/16 22:50:31  5-MIN KAIA 280550Z AUTO 17007KT 10SM CLR 16/15 A3032 3570 93 4600 170/07 RMK AO2 SLP228 60033 T01610150 10261 20161 53012 $
24044KAIA AIA20160627225511106/27/16 22:55:31  5-MIN KAIA 280555Z AUTO 16007KT 10SM CLR 16/15 A3032 3570 93 4600 160/07 RMK AO2 T01610150 $
24044KAIA AIA20160627230012306/27/16 23:00:31  5-MIN KAIA 280600Z AUTO 16007KT 10SM CLR 16/15 A3032 3570 93 4600 150/07 RMK AO2 LTG DSNT SW T01610150 $
24044KAIA AIA20160627230512306/27/16 23:05:31  5-MIN KAIA 280605Z AUTO 17007KT 10SM CLR 16/15 A3032 3570 93 4600 160/07 RMK AO2 LTG DSNT SW T01610150 $
24044KAIA AIA20160627231012306/27/16 23:10:31  5-MIN KAIA 280610Z AUTO 18009KT 10SM CLR 16/15 A3031 3570 93 4600 170/09 RMK AO2 LTG DSNT SW T01610150 $
24044KAIA AIA20160627231511106/27/16 23:15:31  5-MIN KAIA 280615Z AUTO 18009KT 10SM CLR 16/15 A3031 3570 93 4600 170/09 RMK AO2 T01610150 $
24044KAIA AIA20160627232011106/27/16 23:20:31  5-MIN KAIA 280620Z AUTO 18010KT 10SM CLR 16/14 A3031 3580 90 4600 170/10 RMK AO2 T01610144 $
24044KAIA AIA20160627232511106/27/16 23:25:31  5-MIN KAIA 280625Z AUTO 18007KT 10SM CLR 16/14 A3030 3580 93 4500 170/07 RMK AO2 T01560144 $
24044KAIA AIA20160627233011106/27/16 23:30:31  5-MIN KAIA 280630Z AUTO 18009KT 10SM CLR 16/14 A3030 3580 93 4500 170/09 RMK AO2 T01560144 $
24044KAIA AIA20160627233511106/27/16 23:35:31  5-MIN KAIA 280635Z AUTO 17008KT 10SM CLR 16/14 A3030 3580 90 4500 170/08 RMK AO2 T01560139 $
24044KAIA AIA20160627234011106/27/16 23:40:31  5-MIN KAIA 280640Z AUTO 17008KT 10SM CLR 16/14 A3030 3590 90 4500 160/08 RMK AO2 T01560139 $
24044KAIA AIA20160627234511106/27/16 23:45:31  5-MIN KAIA 280645Z AUTO 17008KT 10SM CLR 16/14 A3030 3590 90 4500 160/08 RMK AO2 T01560139 $
24044KAIA AIA20160627235012806/27/16 23:50:31  5-MIN KAIA 280650Z AUTO 18009KT 10SM CLR 16/13 A3030 3580 86 4500 170/09 RMK AO2 SLP222 T01560133 402890150 $
24044KAIA AIA20160627235511106/27/16 23:55:31  5-MIN KAIA 280655Z AUTO 18007KT 10SM CLR 16/13 A3030 3590 86 4500 180/07 RMK AO2 T01560133 $
24044KAIA AIA20160628000011106/28/16 00:00:31  5-MIN KAIA 280700Z AUTO 18009KT 10SM CLR 16/13 A3030 3590 86 4500 170/09 RMK AO2 T01560133 $
24044KAIA AIA20160628000511106/28/16 00:05:31  5-MIN KAIA 280705Z AUTO 18008KT 10SM CLR 16/13 A3030 3590 86 4500 170/08 RMK AO2 T01560133 $
24044KAIA AIA20160628001011106/28/16 00:10:31  5-MIN KAIA 280710Z AUTO 17009KT 10SM CLR 16/13 A3030 3590 86 4500 170/09 RMK AO2 T01560133 $
24044KAIA AIA20160628001511106/28/16 00:15:31  5-MIN KAIA 280715Z AUTO 18009KT 10SM CLR 16/13 A3030 3590 83 4500 170/09 RMK AO2 T01560128 $
24044KAIA AIA20160628002011106/28/16 00:20:31  5-MIN KAIA 280720Z AUTO 19008KT 10SM CLR 15/13 A3030 3590 86 4500 180/08 RMK AO2 T01500128 $
24044KAIA AIA20160628002511106/28/16 00:25:31  5-MIN KAIA 280725Z AUTO 19007KT 10SM CLR 15/13 A3030 3590 86 4500 180/07 RMK AO2 T01500128 $
24044KAIA AIA20160628003011106/28/16 00:30:31  5-MIN KAIA 280730Z AUTO 19009KT 10SM CLR 15/13 A3029 3590 86 4500 180/09 RMK AO2 T01500128 $
24044KAIA AIA20160628003511106/28/16 00:35:31  5-MIN KAIA 280735Z AUTO 19009KT 10SM CLR 16/13 A3029 3590 83 4500 180/09 RMK AO2 T01560128 $
24044KAIA AIA20160628004011106/28/16 00:40:31  5-MIN KAIA 280740Z AUTO 20011KT 10SM CLR 16/13 A3029 3600 83 4500 190/11 RMK AO2 T01560128 $
24044KAIA AIA20160628004511106/28/16 00:45:31  5-MIN KAIA 280745Z AUTO 20011KT 10SM CLR 16/13 A3029 3600 83 4500 190/11 RMK AO2 T01560128 $
24044KAIA AIA20160628005011806/28/16 00:50:31  5-MIN KAIA 280750Z AUTO 20008KT 10SM CLR 16/13 A3029 3600 83 4500 190/08 RMK AO2 SLP216 T01560128 $
24044KAIA AIA20160628005511106/28/16 00:55:31  5-MIN KAIA 280755Z AUTO 19008KT 10SM CLR 16/13 A3029 3600 83 4500 180/08 RMK AO2 T01560128 $
24044KAIA AIA20160628010011106/28/16 01:00:31  5-MIN KAIA 280800Z AUTO 20007KT 10SM CLR 16/13 A3029 3600 86 4500 190/07 RMK AO2 T01560133 $
24044KAIA AIA20160628010511106/28/16 01:05:31  5-MIN KAIA 280805Z AUTO 18006KT 10SM CLR 16/13 A3028 3600 86 4500 170/06 RMK AO2 T01560133 $
24044KAIA AIA20160628011011106/28/16 01:10:31  5-MIN KAIA 280810Z AUTO 17005KT 10SM CLR 15/13 A3029 3600 86 4500 160/05 RMK AO2 T01500128 $
24044KAIA AIA20160628011511106/28/16 01:15:31  5-MIN KAIA 280815Z AUTO 14005KT 10SM CLR 14/13 A3028 3600 90 4400 140/05 RMK AO2 T01440128 $
24044KAIA AIA20160628012011106/28/16 01:20:31  5-MIN KAIA 280820Z AUTO 16004KT 10SM CLR 14/13 A3029 3600 90 4400 150/04 RMK AO2 T01440128 $
24044KAIA AIA20160628012511106/28/16 01:25:31  5-MIN KAIA 280825Z AUTO 15004KT 10SM CLR 15/13 A3029 3600 86 4500 140/04 RMK AO2 T01500128 $
24044KAIA AIA20160628013011106/28/16 01:30:31  5-MIN KAIA 280830Z AUTO 15005KT 10SM CLR 15/13 A3028 3600 86 4500 140/05 RMK AO2 T01500128 $
24044KAIA AIA20160628013511106/28/16 01:35:31  5-MIN KAIA 280835Z AUTO 15006KT 10SM CLR 14/13 A3028 3600 90 4400 140/06 RMK AO2 T01440128 $
24044KAIA AIA20160628014011106/28/16 01:40:31  5-MIN KAIA 280840Z AUTO 15005KT 10SM CLR 14/13 A3028 3600 93 4400 150/05 RMK AO2 T01440133 $
24044KAIA AIA20160628014511106/28/16 01:45:31  5-MIN KAIA 280845Z AUTO 15006KT 10SM CLR 14/13 A3028 3600 93 4400 150/06 RMK AO2 T01440133 $
24044KAIA AIA20160628015012406/28/16 01:50:31  5-MIN KAIA 280850Z AUTO 16006KT 10SM CLR 14/13 A3028 3610 93 4400 160/06 RMK AO2 SLP214 T01440133 50004 $
24044KAIA AIA20160628015511106/28/16 01:55:31  5-MIN KAIA 280855Z AUTO 18004KT 10SM CLR 14/13 A3028 3600 93 4400 170/04 RMK AO2 T01440133 $
24044KAIA AIA20160628020011106/28/16 02:00:31  5-MIN KAIA 280900Z AUTO 19006KT 10SM CLR 14/13 A3028 3600 93 4400 180/06 RMK AO2 T01440133 $
24044KAIA AIA20160628020511106/28/16 02:05:31  5-MIN KAIA 280905Z AUTO 19008KT 10SM CLR 16/14 A3028 3610 90 4500 180/08 RMK AO2 T01560139 $
24044KAIA AIA20160628021011106/28/16 02:10:31  5-MIN KAIA 280910Z AUTO 18007KT 10SM CLR 16/14 A3028 3610 93 4500 170/07 RMK AO2 T01560144 $
24044KAIA AIA20160628021511106/28/16 02:15:31  5-MIN KAIA 280915Z AUTO 18006KT 10SM CLR 16/14 A3028 3610 93 4500 180/06 RMK AO2 T01560144 $
24044KAIA AIA20160628022011106/28/16 02:20:31  5-MIN KAIA 280920Z AUTO 18007KT 10SM CLR 16/14 A3027 3610 93 4500 170/07 RMK AO2 T01560144 $
24044KAIA AIA20160628022511106/28/16 02:25:31  5-MIN KAIA 280925Z AUTO 18006KT 10SM CLR 16/14 A3027 3610 93 4500 170/06 RMK AO2 T01560144 $
24044KAIA AIA20160628023011106/28/16 02:30:31  5-MIN KAIA 280930Z AUTO 16005KT 10SM CLR 16/14 A3027 3610 93 4500 150/05 RMK AO2 T01560144 $
24044KAIA AIA20160628023511106/28/16 02:35:31  5-MIN KAIA 280935Z AUTO 12005KT 10SM CLR 15/14 A3027 3610 93 4500 110/05 RMK AO2 T01500139 $
24044KAIA AIA20160628024011106/28/16 02:40:31  5-MIN KAIA 280940Z AUTO 13004KT 10SM CLR 15/14 A3028 3610 93 4500 120/04 RMK AO2 T01500139 $
24044KAIA AIA20160628024511106/28/16 02:45:31  5-MIN KAIA 280945Z AUTO 14003KT 10SM CLR 15/14 A3028 3610 93 4500 140/03 RMK AO2 T01500139 $
24044KAIA AIA20160628025011806/28/16 02:50:31  5-MIN KAIA 280950Z AUTO 14003KT 10SM CLR 16/14 A3027 3610 90 4500 140/03 RMK AO2 SLP212 T01560139 $
24044KAIA AIA20160628025511106/28/16 02:55:31  5-MIN KAIA 280955Z AUTO 13004KT 10SM CLR 15/14 A3028 3610 93 4500 120/04 RMK AO2 T01500139 $
24044KAIA AIA20160628030011106/28/16 03:00:31  5-MIN KAIA 281000Z AUTO 13005KT 10SM CLR 15/14 A3028 3600 93 4500 120/05 RMK AO2 T01500139 $
24044KAIA AIA20160628030511106/28/16 03:05:31  5-MIN KAIA 281005Z AUTO 17005KT 10SM CLR 15/14 A3028 3610 93 4500 160/05 RMK AO2 T01500139 $
24044KAIA AIA20160628031011106/28/16 03:10:31  5-MIN KAIA 281010Z AUTO 17005KT 10SM CLR 15/14 A3027 3610 93 4500 160/05 RMK AO2 T01500139 $
24044KAIA AIA20160628031511106/28/16 03:15:31  5-MIN KAIA 281015Z AUTO 16004KT 10SM CLR 15/14 A3027 3610 93 4500 160/04 RMK AO2 T01500139 $
24044KAIA AIA20160628032011106/28/16 03:20:31  5-MIN KAIA 281020Z AUTO 18005KT 10SM CLR 15/14 A3027 3610 93 4500 170/05 RMK AO2 T01500139 $
24044KAIA AIA20160628032511106/28/16 03:25:31  5-MIN KAIA 281025Z AUTO 17005KT 10SM CLR 15/14 A3027 3610 93 4500 170/05 RMK AO2 T01500139 $
24044KAIA AIA20160628033011106/28/16 03:30:31  5-MIN KAIA 281030Z AUTO 17005KT 10SM CLR 15/14 A3027 3610 93 4500 160/05 RMK AO2 T01500139 $
24044KAIA AIA20160628033511106/28/16 03:35:31  5-MIN KAIA 281035Z AUTO 18006KT 10SM CLR 15/13 A3027 3610 90 4500 170/06 RMK AO2 T01500133 $
24044KAIA AIA20160628034011106/28/16 03:40:31  5-MIN KAIA 281040Z AUTO 18007KT 10SM CLR 15/14 A3028 3610 93 4500 170/07 RMK AO2 T01500139 $
24044KAIA AIA20160628034511106/28/16 03:45:31  5-MIN KAIA 281045Z AUTO 19007KT 10SM CLR 15/14 A3027 3610 93 4500 190/07 RMK AO2 T01500139 $
24044KAIA AIA20160628035011806/28/16 03:50:31  5-MIN KAIA 281050Z AUTO 18006KT 10SM CLR 15/14 A3027 3610 93 4500 170/06 RMK AO2 SLP214 T01500139 $
24044KAIA AIA20160628035511106/28/16 03:55:31  5-MIN KAIA 281055Z AUTO 19007KT 10SM CLR 15/14 A3027 3610 93 4500 180/07 RMK AO2 T01500139 $
24044KAIA AIA20160628040011106/28/16 04:00:31  5-MIN KAIA 281100Z AUTO 19006KT 10SM CLR 14/14 A3027 3610 96 4400 180/06 RMK AO2 T01440139 $
24044KAIA AIA20160628040511106/28/16 04:05:31  5-MIN KAIA 281105Z AUTO 18006KT 10SM CLR 14/14 A3027 3610 96 4400 170/06 RMK AO2 T01440139 $
24044KAIA AIA20160628041011106/28/16 04:10:31  5-MIN KAIA 281110Z AUTO 20004KT 10SM CLR 14/13 A3027 3610 93 4400 190/04 RMK AO2 T01440133 $
24044KAIA AIA20160628041511106/28/16 04:15:31  5-MIN KAIA 281115Z AUTO 17003KT 10SM CLR 14/13 A3028 3610 93 4400 160/03 RMK AO2 T01440133 $
24044KAIA AIA20160628042011106/28/16 04:20:31  5-MIN KAIA 281120Z AUTO 18003KT 10SM CLR 14/13 A3027 3610 93 4400 170/03 RMK AO2 T01440133 $
24044KAIA AIA20160628042511106/28/16 04:25:31  5-MIN KAIA 281125Z AUTO 21003KT 10SM CLR 14/13 A3027 3610 96 4400 200/03 RMK AO2 T01390133 $
24044KAIA AIA20160628043011106/28/16 04:30:31  5-MIN KAIA 281130Z AUTO 17003KT 10SM CLR 13/13 A3027 3610 96 4300 170/03 RMK AO2 T01330128 $
24044KAIA AIA20160628043511106/28/16 04:35:31  5-MIN KAIA 281135Z AUTO 18003KT 10SM CLR 14/13 A3027 3610 93 4400 170/03 RMK AO2 T01390128 $
24044KAIA AIA20160628044011106/28/16 04:40:31  5-MIN KAIA 281140Z AUTO 13003KT 10SM CLR 14/13 A3027 3610 96 4400 130/03 RMK AO2 T01390133 $
24044KAIA AIA20160628044511006/28/16 04:45:31  5-MIN KAIA 281145Z AUTO 09003KT 9SM CLR 14/13 A3028 3610 96 4300 080/03 RMK AO2 T01390133 $
24044KAIA AIA20160628045014106/28/16 04:50:31  5-MIN KAIA 281150Z AUTO 00000KT 9SM CLR 14/13 A3028 3610 93 4300 000/00 RMK AO2 SLP217 70033 T01390128 10161 20133 56012 $
24044KAIA AIA20160628045511006/28/16 04:55:31  5-MIN KAIA 281155Z AUTO 04003KT 8SM CLR 14/13 A3028 3600 93 4300 030/03 RMK AO2 T01390128 $
24044KAIA AIA20160628050011006/28/16 05:00:31  5-MIN KAIA 281200Z AUTO 03003KT 8SM CLR 14/13 A3029 3600 96 4300 020/03 RMK AO2 T01390133 $
24044KAIA AIA20160628050511006/28/16 05:05:31  5-MIN KAIA 281205Z AUTO 00000KT 9SM CLR 14/14 A3029 3600 96 4400 000/00 RMK AO2 T01440139 $
24044KAIA AIA20160628051011006/28/16 05:10:31  5-MIN KAIA 281210Z AUTO 07003KT 9SM CLR 15/14 A3029 3600 93 4500 070/03 RMK AO2 T01500139 $
24044KAIA AIA20160628051511106/28/16 05:15:31  5-MIN KAIA 281215Z AUTO 00000KT 10SM CLR 16/14 A3028 3600 90 4500 000/00 RMK AO2 T01560139 $
24044KAIA AIA20160628052011106/28/16 05:20:31  5-MIN KAIA 281220Z AUTO 00000KT 10SM CLR 16/14 A3028 3600 93 4500 000/00 RMK AO2 T01560144 $
24044KAIA AIA20160628052511106/28/16 05:25:31  5-MIN KAIA 281225Z AUTO 10004KT 10SM CLR 16/14 A3028 3600 90 4600 100/04 RMK AO2 T01610144 $
24044KAIA AIA20160628053011106/28/16 05:30:31  5-MIN KAIA 281230Z AUTO 07003KT 10SM CLR 16/14 A3028 3600 90 4600 060/03 RMK AO2 T01610144 $
24044KAIA AIA20160628053511106/28/16 05:35:31  5-MIN KAIA 281235Z AUTO 00000KT 10SM CLR 16/15 A3028 3600 93 4600 000/00 RMK AO2 T01610150 $
24044KAIA AIA20160628054011106/28/16 05:40:31  5-MIN KAIA 281240Z AUTO 00000KT 10SM CLR 17/15 A3028 3600 90 4700 000/00 RMK AO2 T01670150 $
24044KAIA AIA20160628054511106/28/16 05:45:31  5-MIN KAIA 281245Z AUTO 09003KT 10SM CLR 17/15 A3028 3600 87 4700 080/03 RMK AO2 T01720150 $
24044KAIA AIA20160628055011806/28/16 05:50:31  5-MIN KAIA 281250Z AUTO 09003KT 10SM CLR 17/15 A3028 3600 87 4700 080/03 RMK AO2 SLP215 T01720150 $
24044KAIA AIA20160628055511106/28/16 05:55:31  5-MIN KAIA 281255Z AUTO 09003KT 10SM CLR 18/16 A3028 3600 87 4800 080/03 RMK AO2 T01780156 $
24044KAIA AIA20160628060011106/28/16 06:00:31  5-MIN KAIA 281300Z AUTO 00000KT 10SM CLR 18/16 A3028 3610 87 4800 000/00 RMK AO2 T01780156 $
24044KAIA AIA20160628060511106/28/16 06:05:31  5-MIN KAIA 281305Z AUTO 00000KT 10SM CLR 18/16 A3028 3610 87 4800 000/00 RMK AO2 T01780156 $
24044KAIA AIA20160628061011106/28/16 06:10:31  5-MIN KAIA 281310Z AUTO 00000KT 10SM CLR 18/16 A3028 3610 87 4800 000/00 RMK AO2 T01780156 $
24044KAIA AIA20160628061510906/28/16 06:15:31  5-MIN KAIA 281315Z AUTO 00000KT 10SM CLR 18/16 A3028 3610 87 4900 000/00 RMK AO2 T01830161
24044KAIA AIA20160628062010906/28/16 06:20:31  5-MIN KAIA 281320Z AUTO 17004KT 10SM CLR 18/16 A3028 3600 87 4900 160/04 RMK AO2 T01830161
24044KAIA AIA20160628062510906/28/16 06:25:31  5-MIN KAIA 281325Z AUTO 19003KT 10SM CLR 18/16 A3028 3600 87 4900 180/03 RMK AO2 T01830161
24044KAIA AIA20160628063010906/28/16 06:30:31  5-MIN KAIA 281330Z AUTO 18003KT 10SM CLR 19/16 A3028 3600 84 4900 170/03 RMK AO2 T01890161
24044KAIA AIA20160628063510906/28/16 06:35:31  5-MIN KAIA 281335Z AUTO 18004KT 10SM CLR 19/17 A3029 3600 87 4900 170/04 RMK AO2 T01890167
24044KAIA AIA20160628064010906/28/16 06:40:31  5-MIN KAIA 281340Z AUTO 18004KT 10SM CLR 19/17 A3029 3590 84 5000 170/04 RMK AO2 T01940167
24044KAIA AIA20160628064510906/28/16 06:45:31  5-MIN KAIA 281345Z AUTO 21003KT 10SM CLR 19/17 A3029 3600 84 5000 200/03 RMK AO2 T01940167
24044KAIA AIA20160628065011606/28/16 06:50:31  5-MIN KAIA 281350Z AUTO 19005KT 10SM CLR 20/17 A3029 3590 84 5000 180/05 RMK AO2 SLP217 T02000172
24044KAIA AIA20160628065510906/28/16 06:55:31  5-MIN KAIA 281355Z AUTO 18004KT 10SM CLR 21/17 A3029 3590 81 5100 170/04 RMK AO2 T02060172
24044KAIA AIA20160628070010906/28/16 07:00:31  5-MIN KAIA 281400Z AUTO 19005KT 10SM CLR 21/17 A3029 3590 81 5100 180/05 RMK AO2 T02060172
24044KAIA AIA20160628070510906/28/16 07:05:31  5-MIN KAIA 281405Z AUTO 20008KT 10SM CLR 21/17 A3029 3590 78 5200 190/08 RMK AO2 T02110172
24044KAIA AIA20160628071010906/28/16 07:10:31  5-MIN KAIA 281410Z AUTO 19008KT 10SM CLR 22/17 A3029 3590 75 5200 180/08 RMK AO2 T02170172
24044KAIA AIA20160628071510906/28/16 07:15:31  5-MIN KAIA 281415Z AUTO 19009KT 10SM CLR 22/18 A3029 3600 75 5300 180/09 RMK AO2 T02220178
24044KAIA AIA20160628072010906/28/16 07:20:31  5-MIN KAIA 281420Z AUTO 20009KT 10SM CLR 22/17 A3029 3600 73 5300 190/09 RMK AO2 T02220172
24044KAIA AIA20160628072510906/28/16 07:25:31  5-MIN KAIA 281425Z AUTO 18009KT 10SM CLR 22/17 A3029 3590 73 5300 170/09 RMK AO2 T02220172
24044KAIA AIA20160628073010906/28/16 07:30:31  5-MIN KAIA 281430Z AUTO 19010KT 10SM CLR 23/17 A3029 3590 70 5300 180/10 RMK AO2 T02280172
24044KAIA AIA20160628073510906/28/16 07:35:31  5-MIN KAIA 281435Z AUTO 18010KT 10SM CLR 23/17 A3029 3590 70 5300 170/10 RMK AO2 T02280172
24044KAIA AIA20160628074010906/28/16 07:40:31  5-MIN KAIA 281440Z AUTO 17009KT 10SM CLR 23/17 A3029 3590 68 5400 160/09 RMK AO2 T02330172
24044KAIA AIA20160628074510906/28/16 07:45:31  5-MIN KAIA 281445Z AUTO 17012KT 10SM CLR 23/17 A3029 3590 68 5400 170/12 RMK AO2 T02330172
24044KAIA AIA20160628075012206/28/16 07:50:31  5-MIN KAIA 281450Z AUTO 13011KT 10SM CLR 23/17 A3029 3590 68 5400 120/11 RMK AO2 SLP217 T02330172 53001
24044KAIA AIA20160628075510906/28/16 07:55:31  5-MIN KAIA 281455Z AUTO 12010KT 10SM CLR 23/18 A3029 3590 73 5300 110/10 RMK AO2 T02280178
24044KAIA AIA20160628080010906/28/16 08:00:31  5-MIN KAIA 281500Z AUTO 11011KT 10SM CLR 22/18 A3029 3590 75 5300 100/11 RMK AO2 T02220178
24044KAIA AIA20160628080510906/28/16 08:05:31  5-MIN KAIA 281505Z AUTO 11007KT 10SM CLR 22/18 A3029 3590 75 5300 110/07 RMK AO2 T02220178
24044KAIA AIA20160628081010906/28/16 08:10:31  5-MIN KAIA 281510Z AUTO 12007KT 10SM CLR 22/18 A3029 3590 75 5300 110/07 RMK AO2 T02220178
24044KAIA AIA20160628081510906/28/16 08:15:31  5-MIN KAIA 281515Z AUTO 12010KT 10SM CLR 23/18 A3029 3590 73 5300 110/10 RMK AO2 T02280178
24044KAIA AIA20160628082010906/28/16 08:20:31  5-MIN KAIA 281520Z AUTO 11010KT 10SM CLR 23/18 A3029 3600 73 5300 100/10 RMK AO2 T02280178
24044KAIA AIA20160628082510906/28/16 08:25:31  5-MIN KAIA 281525Z AUTO 11009KT 10SM CLR 23/18 A3029 3600 73 5300 100/09 RMK AO2 T02280178
24044KAIA AIA20160628083010906/28/16 08:30:31  5-MIN KAIA 281530Z AUTO 11009KT 10SM CLR 23/18 A3028 3600 70 5400 100/09 RMK AO2 T02330178
24044KAIA AIA20160628083510906/28/16 08:35:31  5-MIN KAIA 281535Z AUTO 12008KT 10SM CLR 23/18 A3028 3600 70 5400 120/08 RMK AO2 T02330178
24044KAIA AIA20160628084011206/28/16 08:40:31  5-MIN KAIA 281540Z AUTO 12009KT 10SM FEW020 22/17 A3028 3600 73 5300 120/09 RMK AO2 T02220172
24044KAIA AIA20160628084511906/28/16 08:45:31  5-MIN KAIA 281545Z AUTO 14010KT 10SM SCT020 SCT030 23/18 A3028 3600 70 5400 130/10 RMK AO2 T02330178
24044KAIA AIA20160628085012606/28/16 08:50:31  5-MIN KAIA 281550Z AUTO 14012KT 10SM FEW020 SCT030 23/18 A3028 3610 70 5400 130/12 RMK AO2 SLP216 T02330178
24044KAIA AIA20160628085512506/28/16 08:55:31  5-MIN KAIA 281555Z AUTO 13009G18KT 10SM FEW020 SCT030 23/18 A3028 3600 70 5400 120/09G18 RMK AO2 T02330178
24044KAIA AIA20160628090012506/28/16 09:00:31  5-MIN KAIA 281600Z AUTO 12011G18KT 10SM FEW020 BKN030 24/18 A3028 3610 68 5500 120/11G18 RMK AO2 T02390178
24044KAIA AIA20160628090511906/28/16 09:05:31  5-MIN KAIA 281605Z AUTO 13011KT 10SM FEW020 BKN030 24/18 A3028 3610 66 5500 120/11 RMK AO2 T02440178
24044KAIA AIA20160628091011906/28/16 09:10:31  5-MIN KAIA 281610Z AUTO 12009KT 10SM FEW020 BKN030 24/18 A3027 3610 66 5500 110/09 RMK AO2 T02440178
24044KAIA AIA20160628091511206/28/16 09:15:31  5-MIN KAIA 281615Z AUTO 13010KT 10SM BKN030 24/18 A3027 3610 66 5500 120/10 RMK AO2 T02440178
24044KAIA AIA20160628092011206/28/16 09:20:31  5-MIN KAIA 281620Z AUTO 13013KT 10SM BKN028 24/18 A3026 3620 66 5600 120/13 RMK AO2 T02440178
24044KAIA AIA20160628092511206/28/16 09:25:31  5-MIN KAIA 281625Z AUTO 14013KT 10SM BKN028 25/18 A3027 3610 64 5600 130/13 RMK AO2 T02500178
24044KAIA AIA20160628093011206/28/16 09:30:31  5-MIN KAIA 281630Z AUTO 15014KT 10SM BKN028 25/18 A3026 3620 64 5600 140/14 RMK AO2 T02500178
24044KAIA AIA20160628093511806/28/16 09:35:31  5-MIN KAIA 281635Z AUTO 14009G17KT 10SM BKN028 24/18 A3026 3620 66 5600 130/09G17 RMK AO2 T02440178
24044KAIA AIA20160628094012506/28/16 09:40:31  5-MIN KAIA 281640Z AUTO 16013G17KT 10SM BKN028 BKN032 26/18 A3026 3620 61 5700 150/13G17 RMK AO2 T02560178
24044KAIA AIA20160628094511206/28/16 09:45:31  5-MIN KAIA 281645Z AUTO 16009KT 10SM SCT028 26/17 A3026 3620 57 5700 150/09 RMK AO2 T02610172
24044KAIA AIA20160628095011906/28/16 09:50:31  5-MIN KAIA 281650Z AUTO 15012KT 10SM FEW028 26/17 A3026 3620 57 5700 150/12 RMK AO2 SLP206 T02610172
24044KAIA AIA20160628095511906/28/16 09:55:31  5-MIN KAIA 281655Z AUTO 16013KT 10SM FEW027 SCT033 27/17 A3026 3620 55 5800 160/13 RMK AO2 T02670172
24044KAIA AIA20160628100011906/28/16 10:00:31  5-MIN KAIA 281700Z AUTO 16010KT 10SM FEW027 FEW033 26/17 A3026 3630 55 5700 160/10 RMK AO2 T02610167
24044KAIA AIA20160628100511206/28/16 10:05:31  5-MIN KAIA 281705Z AUTO 16010KT 10SM FEW033 27/17 A3026 3630 53 5800 150/10 RMK AO2 T02670167
24044KAIA AIA20160628101011206/28/16 10:10:31  5-MIN KAIA 281710Z AUTO 16011KT 10SM FEW035 27/17 A3025 3630 52 5900 160/11 RMK AO2 T02720167
24044KAIA AIA20160628101511806/28/16 10:15:31  5-MIN KAIA 281715Z AUTO 16013G19KT 10SM FEW035 27/16 A3025 3630 50 5900 150/13G19 RMK AO2 T02720161
24044KAIA AIA20160628102011806/28/16 10:20:31  5-MIN KAIA 281720Z AUTO 19014G20KT 10SM FEW035 27/16 A3025 3630 50 5900 180/14G20 RMK AO2 T02720161
24044KAIA AIA20160628102511506/28/16 10:25:31  5-MIN KAIA 281725Z AUTO 17016G20KT 10SM CLR 27/16 A3025 3630 50 5900 160/16G20 RMK AO2 T02720161
24044KAIA AIA20160628103010906/28/16 10:30:31  5-MIN KAIA 281730Z AUTO 18014KT 10SM CLR 27/16 A3025 3630 48 5900 170/14 RMK AO2 T02720156
24044KAIA AIA20160628103511506/28/16 10:35:31  5-MIN KAIA 281735Z AUTO 18014G20KT 10SM CLR 27/16 A3025 3630 48 5900 170/14G20 RMK AO2 T02720156
24044KAIA AIA20160628104011506/28/16 10:40:31  5-MIN KAIA 281740Z AUTO 19014G20KT 10SM CLR 28/16 A3025 3630 46 5900 180/14G20 RMK AO2 T02780156
24044KAIA AIA20160628104511506/28/16 10:45:31  5-MIN KAIA 281745Z AUTO 18012G19KT 10SM CLR 28/16 A3024 3640 48 5900 170/12G19 RMK AO2 T02780161
24044KAIA AIA20160628105014006/28/16 10:50:31  5-MIN KAIA 281750Z AUTO 18014G19KT 10SM CLR 28/16 A3024 3640 47 6000 170/14G19 RMK AO2 SLP199 T02830161 10283 20139 53003
24044KAIA AIA20160628105510906/28/16 10:55:31  5-MIN KAIA 281755Z AUTO 18016KT 10SM CLR 28/16 A3024 3640 47 6000 170/16 RMK AO2 T02830161
24044KAIA AIA20160628110010906/28/16 11:00:31  5-MIN KAIA 281800Z AUTO 18012KT 10SM CLR 28/16 A3023 3640 47 6000 170/12 RMK AO2 T02830161
24044KAIA AIA20160628110510906/28/16 11:05:31  5-MIN KAIA 281805Z AUTO 18010KT 10SM CLR 28/16 A3023 3640 47 6000 170/10 RMK AO2 T02830161
24044KAIA AIA20160628111010906/28/16 11:10:31  5-MIN KAIA 281810Z AUTO 17012KT 10SM CLR 29/17 A3023 3650 47 6100 160/12 RMK AO2 T02890167
24044KAIA AIA20160628111511506/28/16 11:15:31  5-MIN KAIA 281815Z AUTO 19009G19KT 10SM CLR 29/16 A3023 3650 45 6100 180/09G19 RMK AO2 T02890161
24044KAIA AIA20160628112011506/28/16 11:20:31  5-MIN KAIA 281820Z AUTO 16012G19KT 10SM CLR 29/16 A3023 3650 45 6100 160/12G19 RMK AO2 T02890161
24044KAIA AIA20160628112511506/28/16 11:25:31  5-MIN KAIA 281825Z AUTO 17010G18KT 10SM CLR 29/16 A3022 3660 44 6100 160/10G18 RMK AO2 T02940161
24044KAIA AIA20160628113011506/28/16 11:30:31  5-MIN KAIA 281830Z AUTO 16013G19KT 10SM CLR 29/16 A3022 3660 45 6100 150/13G19 RMK AO2 T02890161
24044KAIA AIA20160628113510906/28/16 11:35:31  5-MIN KAIA 281835Z AUTO 16015KT 10SM CLR 29/16 A3022 3660 44 6200 150/15 RMK AO2 T02940161
24044KAIA AIA20160628114011506/28/16 11:40:31  5-MIN KAIA 281840Z AUTO 18012G20KT 10SM CLR 30/16 A3022 3660 41 6200 170/12G20 RMK AO2 T03000156
24044KAIA AIA20160628114511506/28/16 11:45:31  5-MIN KAIA 281845Z AUTO 17016G20KT 10SM CLR 30/16 A3021 3660 41 6200 170/16G20 RMK AO2 T03000156
24044KAIA AIA20160628115012206/28/16 11:50:31  5-MIN KAIA 281850Z AUTO 19016G20KT 10SM CLR 29/15 A3022 3660 41 6200 180/16G20 RMK AO2 SLP189 T02940150
24044KAIA AIA20160628115511506/28/16 11:55:31  5-MIN KAIA 281855Z AUTO 18013G20KT 10SM CLR 30/16 A3021 3670 41 6200 180/13G20 RMK AO2 T03000156
24044KAIA AIA20160628120011506/28/16 12:00:31  5-MIN KAIA 281900Z AUTO 18014G21KT 10SM CLR 29/15 A3020 3670 41 6200 170/14G21 RMK AO2 T02940150
24044KAIA AIA20160628120511506/28/16 12:05:31  5-MIN KAIA 281905Z AUTO 18013G21KT 10SM CLR 30/15 A3020 3670 39 6200 170/13G21 RMK AO2 T03000150
24044KAIA AIA20160628121010906/28/16 12:10:31  5-MIN KAIA 281910Z AUTO 19014KT 10SM CLR 31/15 A3020 3670 38 6300 180/14 RMK AO2 T03060150
24044KAIA AIA20160628121511506/28/16 12:15:31  5-MIN KAIA 281915Z AUTO 17011G19KT 10SM CLR 31/15 A3020 3680 38 6300 160/11G19 RMK AO2 T03060150
24044KAIA AIA20160628122011506/28/16 12:20:31  5-MIN KAIA 281920Z AUTO 20014G19KT 10SM CLR 31/14 A3020 3680 35 6400 190/14G19 RMK AO2 T03110144
24044KAIA AIA20160628122511506/28/16 12:25:31  5-MIN KAIA 281925Z AUTO 19015G20KT 10SM CLR 31/14 A3019 3680 35 6400 180/15G20 RMK AO2 T03110144
24044KAIA AIA20160628123011506/28/16 12:30:31  5-MIN KAIA 281930Z AUTO 18010G20KT 10SM CLR 31/14 A3019 3680 37 6300 170/10G20 RMK AO2 T03060144
24044KAIA AIA20160628123511506/28/16 12:35:31  5-MIN KAIA 281935Z AUTO 18014G19KT 10SM CLR 31/15 A3019 3680 38 6300 170/14G19 RMK AO2 T03060150
24044KAIA AIA20160628124011506/28/16 12:40:31  5-MIN KAIA 281940Z AUTO 16012G18KT 10SM CLR 31/15 A3019 3690 38 6300 150/12G18 RMK AO2 T03060150
24044KAIA AIA20160628124511506/28/16 12:45:31  5-MIN KAIA 281945Z AUTO 20014G23KT 10SM CLR 32/15 A3018 3690 36 6400 190/14G23 RMK AO2 T03170150
24044KAIA AIA20160628125012206/28/16 12:50:31  5-MIN KAIA 281950Z AUTO 18012G23KT 10SM CLR 32/14 A3018 3690 34 6400 180/12G23 RMK AO2 SLP175 T03170144
24044KAIA AIA20160628125511506/28/16 12:55:31  5-MIN KAIA 281955Z AUTO 18017G22KT 10SM CLR 32/14 A3018 3690 34 6400 170/17G22 RMK AO2 T03170144
24044KAIA AIA20160628130011506/28/16 13:00:31  5-MIN KAIA 282000Z AUTO 19012G22KT 10SM CLR 31/14 A3018 3690 35 6400 190/12G22 RMK AO2 T03110144
24044KAIA AIA20160628130511506/28/16 13:05:31  5-MIN KAIA 282005Z AUTO 17013G19KT 10SM CLR 32/14 A3018 3700 32 6500 170/13G19 RMK AO2 T03220139
24044KAIA AIA20160628131011506/28/16 13:10:31  5-MIN KAIA 282010Z AUTO 15013G19KT 10SM CLR 32/14 A3017 3700 34 6400 140/13G19 RMK AO2 T03170144
24044KAIA AIA20160628131511506/28/16 13:15:31  5-MIN KAIA 282015Z AUTO 17016G20KT 10SM CLR 32/15 A3017 3700 36 6400 160/16G20 RMK AO2 T03170150
24044KAIA AIA20160628132011506/28/16 13:20:31  5-MIN KAIA 282020Z AUTO 18012G20KT 10SM CLR 32/13 A3017 3700 32 6400 180/12G20 RMK AO2 T03170133
24044KAIA AIA20160628132510906/28/16 13:25:31  5-MIN KAIA 282025Z AUTO 19015KT 10SM CLR 32/13 A3017 3710 31 6500 180/15 RMK AO2 T03220133
24044KAIA AIA20160628133010906/28/16 13:30:31  5-MIN KAIA 282030Z AUTO 18011KT 10SM CLR 32/14 A3016 3710 33 6500 170/11 RMK AO2 T03220144
24044KAIA AIA20160628133511506/28/16 13:35:31  5-MIN KAIA 282035Z AUTO 17015G21KT 10SM CLR 32/14 A3016 3710 33 6500 160/15G21 RMK AO2 T03220144
24044KAIA AIA20160628134011506/28/16 13:40:31  5-MIN KAIA 282040Z AUTO 16012G21KT 10SM CLR 33/14 A3016 3710 31 6600 150/12G21 RMK AO2 T03280139
24044KAIA AIA20160628134511506/28/16 13:45:31  5-MIN KAIA 282045Z AUTO 17015G21KT 10SM CLR 33/13 A3015 3720 30 6600 160/15G21 RMK AO2 T03280133
24044KAIA AIA20160628135012806/28/16 13:50:31  5-MIN KAIA 282050Z AUTO 17017G22KT 10SM CLR 32/14 A3015 3720 32 6500 160/17G22 RMK AO2 SLP166 T03220139 56012
24044KAIA AIA20160628135511506/28/16 13:55:31  5-MIN KAIA 282055Z AUTO 18017G22KT 10SM CLR 33/13 A3015 3720 30 6600 170/17G22 RMK AO2 T03280133
24044KAIA AIA20160628140011806/28/16 14:00:31  5-MIN KAIA 282100Z AUTO 18013G21KT 10SM FEW080 32/12 A3014 3730 28 6500 170/13G21 RMK AO2 T03220117
24044KAIA AIA20160628140511206/28/16 14:05:31  5-MIN KAIA 282105Z AUTO 17012KT 10SM FEW080 33/12 A3014 3730 28 6600 160/12 RMK AO2 T03280122
24044KAIA AIA20160628141011506/28/16 14:10:31  5-MIN KAIA 282110Z AUTO 17011G20KT 10SM CLR 33/13 A3014 3730 29 6600 160/11G20 RMK AO2 T03280128
24044KAIA AIA20160628141511506/28/16 14:15:31  5-MIN KAIA 282115Z AUTO 17016G21KT 10SM CLR 33/14 A3014 3740 31 6600 160/16G21 RMK AO2 T03280139
24044KAIA AIA20160628142011506/28/16 14:20:31  5-MIN KAIA 282120Z AUTO 16014G21KT 10SM CLR 33/13 A3013 3740 29 6600 150/14G21 RMK AO2 T03280128
24044KAIA AIA20160628142511506/28/16 14:25:31  5-MIN KAIA 282125Z AUTO 17013G22KT 10SM CLR 33/12 A3013 3740 28 6600 160/13G22 RMK AO2 T03280122
24044KAIA AIA20160628143011506/28/16 14:30:31  5-MIN KAIA 282130Z AUTO 17017G22KT 10SM CLR 33/13 A3013 3740 29 6600 170/17G22 RMK AO2 T03280128
24044KAIA AIA20160628143511506/28/16 14:35:31  5-MIN KAIA 282135Z AUTO 17014G21KT 10SM CLR 33/13 A3012 3750 29 6600 160/14G21 RMK AO2 T03280128
24044KAIA AIA20160628144011506/28/16 14:40:31  5-MIN KAIA 282140Z AUTO 18012G22KT 10SM CLR 33/12 A3012 3750 28 6600 180/12G22 RMK AO2 T03280122
24044KAIA AIA20160628144511506/28/16 14:45:31  5-MIN KAIA 282145Z AUTO 19010G22KT 10SM CLR 33/11 A3012 3750 26 6600 180/10G22 RMK AO2 T03280111
24044KAIA AIA20160628145012206/28/16 14:50:31  5-MIN KAIA 282150Z AUTO 15015G21KT 10SM CLR 33/12 A3011 3760 28 6600 140/15G21 RMK AO2 SLP149 T03280122
24044KAIA AIA20160628145511506/28/16 14:55:31  5-MIN KAIA 282155Z AUTO 16013G21KT 10SM CLR 33/13 A3010 3770 29 6600 160/13G21 RMK AO2 T03280128
24044KAIA AIA20160628150011506/28/16 15:00:31  5-MIN KAIA 282200Z AUTO 18013G21KT 10SM CLR 33/13 A3010 3770 28 6700 170/13G21 RMK AO2 T03330128
24044KAIA AIA20160628150511506/28/16 15:05:31  5-MIN KAIA 282205Z AUTO 19010G20KT 10SM CLR 33/11 A3009 3770 25 6700 180/10G20 RMK AO2 T03330111
24044KAIA AIA20160628151011506/28/16 15:10:31  5-MIN KAIA 282210Z AUTO 17014G21KT 10SM CLR 33/12 A3009 3780 27 6700 160/14G21 RMK AO2 T03330122
24044KAIA AIA20160628151511506/28/16 15:15:31  5-MIN KAIA 282215Z AUTO 16014G21KT 10SM CLR 33/12 A3009 3780 27 6700 150/14G21 RMK AO2 T03330122
24044KAIA AIA20160628152011206/28/16 15:20:31  5-MIN KAIA 282220Z AUTO 17015KT 10SM SCT085 33/12 A3009 3780 27 6700 170/15 RMK AO2 T03330122
24044KAIA AIA20160628152511206/28/16 15:25:31  5-MIN KAIA 282225Z AUTO 15017KT 10SM SCT090 33/12 A3008 3790 27 6700 140/17 RMK AO2 T03280117
24044KAIA AIA20160628153011806/28/16 15:30:31  5-MIN KAIA 282230Z AUTO 17018G23KT 10SM FEW090 32/12 A3008 3790 29 6500 160/18G23 RMK AO2 T03170117
24044KAIA AIA20160628153511806/28/16 15:35:31  5-MIN KAIA 282235Z AUTO 17013G25KT 10SM FEW090 33/12 A3007 3800 28 6700 160/13G25 RMK AO2 T03280122
24044KAIA AIA20160628154011806/28/16 15:40:31  5-MIN KAIA 282240Z AUTO 17015G25KT 10SM FEW090 33/12 A3006 3800 26 6700 170/15G25 RMK AO2 T03330117
24044KAIA AIA20160628154511806/28/16 15:45:31  5-MIN KAIA 282245Z AUTO 15019G25KT 10SM SCT090 33/12 A3007 3800 28 6700 150/19G25 RMK AO2 T03280122
24044KAIA AIA20160628155014306/28/16 15:50:31  5-MIN KAIA 282250Z AUTO 17018G26KT 10SM FEW095 33/12 A3006 3800 27 6700 160/18G26 RMK AO2 PK WND 17026/2247 SLP133 T03280117
24044KAIA AIA20160628155511506/28/16 15:55:31  5-MIN KAIA 282255Z AUTO 16020G26KT 10SM CLR 32/12 A3006 3800 29 6600 150/20G26 RMK AO2 T03220122
24044KAIA AIA20160628160011506/28/16 16:00:31  5-MIN KAIA 282300Z AUTO 15019G25KT 10SM CLR 31/12 A3006 3800 32 6400 140/19G25 RMK AO2 T03060122
24044KAIA AIA20160628160511506/28/16 16:05:31  5-MIN KAIA 282305Z AUTO 15017G25KT 10SM CLR 31/12 A3007 3800 32 6400 140/17G25 RMK AO2 T03060122
24044KAIA AIA20160628161011506/28/16 16:10:31  5-MIN KAIA 282310Z AUTO 16016G22KT 10SM CLR 31/12 A3007 3800 32 6400 150/16G22 RMK AO2 T03060122
24044KAIA AIA20160628161511506/28/16 16:15:31  5-MIN KAIA 282315Z AUTO 15020G25KT 10SM CLR 31/12 A3007 3800 32 6400 150/20G25 RMK AO2 T03060122
24044KAIA AIA20160628162011506/28/16 16:20:31  5-MIN KAIA 282320Z AUTO 16016G25KT 10SM CLR 31/12 A3007 3800 32 6400 150/16G25 RMK AO2 T03060122
24044KAIA AIA20160628162512606/28/16 16:25:31  5-MIN KAIA 282325Z AUTO 15018G25KT 10SM CLR 30/13 A3006 3800 34 6400 150/18G25 RMK AO2 LTG DSNT N T03000128
24044KAIA AIA20160628163013306/28/16 16:30:31  5-MIN KAIA 282330Z AUTO 16015G25KT 10SM CLR 29/13 A3006 3800 35 6300 150/15G25 RMK AO2 LTG DSNT N AND NW T02940128
24044KAIA AIA20160628163513306/28/16 16:35:31  5-MIN KAIA 282335Z AUTO 16018G24KT 10SM CLR 29/13 A3006 3810 36 6300 150/18G24 RMK AO2 LTG DSNT N AND NW T02940133
24044KAIA AIA20160628164012706/28/16 16:40:31  5-MIN KAIA 282340Z AUTO 16013KT 10SM CLR 29/14 A3005 3810 39 6300 150/13 RMK AO2 LTG DSNT N AND NW T02890139
24044KAIA AIA20160628164512706/28/16 16:45:31  5-MIN KAIA 282345Z AUTO 15014KT 10SM CLR 28/14 A3005 3810 40 6200 140/14 RMK AO2 LTG DSNT N AND NW T02830139
24044KAIA AIA20160628165015206/28/16 16:50:31  5-MIN KAIA 282350Z AUTO 15014KT 10SM CLR 28/14 A3005 3810 40 6200 150/14 RMK AO2 LTG DSNT N AND NW SLP136 T02830139 10333 20283 58027
24044KAIA AIA20160628165512706/28/16 16:55:31  5-MIN KAIA 282355Z AUTO 15013KT 10SM CLR 28/14 A3005 3810 40 6200 140/13 RMK AO2 LTG DSNT N AND NW T02830139
24044KAIA AIA20160628170013306/28/16 17:00:31  5-MIN KAIA 290000Z AUTO 16017G22KT 10SM CLR 28/14 A3006 3810 40 6200 150/17G22 RMK AO2 LTG DSNT N AND NW T02830139
24044KAIA AIA20160628170513506/28/16 17:05:31  5-MIN KAIA 290005Z AUTO 17017G22KT 10SM VCTS CLR 28/14 A3007 3800 40 6200 160/17G22 RMK AO2 LTG DSNT NW-NE T02830139
24044KAIA AIA20160628171016006/28/16 17:10:31  5-MIN KAIA 290010Z AUTO 22010G24KT 170V310 10SM VCTS FEW110 28/14 A3013 3740 42 6100 220/10G24 160V300 RMK AO2 LTG DSNT W-NE PRESRR T02830144
24044KAIA AIA20160628171516706/28/16 17:15:31  5-MIN KAIA 290015Z AUTO 35019G26KT 10SM VCTS SCT110 22/12 A3013 3740 52 5400 340/19G26 RMK AO2 PK WND 32026/0011 WSHFT 0001 LTG DSNT ALQDS T02170117
24044KAIA AIA20160628172020706/28/16 17:20:31  5-MIN KAIA 290020Z AUTO 01021G30KT 10SM -TSRA SCT060 SCT100 BKN120 19/12 A3014 3730 60 5100 360/21G30 RMK AO2 PK WND 01030/0020 WSHFT 0004 LTG DSNT ALQDS RAB18 TSB18 PRESRR P0000 T01940117
24044KAIA AIA20160628172519206/28/16 17:25:31  5-MIN KAIA 290025Z AUTO 03032G50KT 9SM -TSRA BKN060 BKN100 18/13 A3012 3750 72 5000 020/32G50 RMK AO2 PK WND 03050/0023 WSHFT 0008 LTG DSNT ALQDS RAB18 TSB18 P0000 T01780128
24044KAIA AIA20160628173020606/28/16 17:30:31  5-MIN KAIA 290030Z AUTO 01033G50KT 1 3/4SM +TSRA BR FEW031 BKN065 BKN095 16/14 A3016 3720 90 4700 360/33G50 RMK AO2 PK WND 03050/0023 WSHFT 0008 LTG DSNT ALQDS RAB18 TSB18 P0010 T01560139
24044KAIA AIA20160628173520206/28/16 17:35:31  5-MIN KAIA 290035Z AUTO 36028G42KT 1SM +TSRA BR SCT028 BKN065 OVC110 15/14 A3018 3700 93 4600 350/28G42 RMK AO2 PK WND 03050/0023 WSHFT 0008 LTG DSNT ALQDS RAB18 TSB18 P0023 T01500139
24044KAIA AIA20160628174019906/28/16 17:40:31  5-MIN KAIA 290040Z AUTO 01018G38KT 1 1/4SM +TSRA BR SCT030 OVC060 15/14 A3021 3670 93 4500 360/18G38 RMK AO2 PK WND 03050/0023 WSHFT 0008 LTG DSNT ALQDS RAB18 TSB18 P0029 T01500139
24044KAIA AIA20160628174519406/28/16 17:45:31  5-MIN KAIA 290045Z AUTO 03015G31KT 3SM TSRA BR SCT034 OVC060 16/13 A3025 3630 86 4600 030/15G31 RMK AO2 PK WND 03050/0023 WSHFT 0008 LTG DSNT ALQDS RAB18 TSB18 P0033 T01560133
24044KAIA AIA20160628175020206/28/16 17:50:31  5-MIN KAIA 290050Z AUTO 33020G30KT 3SM +TSRA BR BKN032 OVC060 16/13 A3030 3580 86 4500 320/20G30 RMK AO2 PK WND 03050/0023 WSHFT 0008 LTG DSNT ALQDS RAB18 TSB18 SLP235 P0043 T01560133
24044KAIA AIA20160628175516406/28/16 17:55:31  5-MIN KAIA 290055Z AUTO 33020G29KT 2 1/2SM TSRA BR FEW019 BKN032 OVC055 16/14 A3032 3560 90 4500 320/20G29 RMK AO2 LTG DSNT ALQDS P0002 T01560139
24044KAIA AIA20160628180019406/28/16 18:00:31  5-MIN KAIA 290100Z AUTO 31023G35KT 1 1/4SM +TSRA BR FEW019 BKN026 OVC055 16/14 A3037 3520 90 4400 300/23G35 RMK AO2 PK WND 31035/0057 WSHFT 0045 LTG DSNT ALQDS P0027 T01560139
24044KAIA AIA20160628180519206/28/16 18:05:31  5-MIN KAIA 290105Z AUTO 31021G35KT 3/4SM +TSRA BR BKN026 BKN049 OVC060 15/14 A3038 3510 93 4400 300/21G35 RMK AO2 PK WND 31035/0057 WSHFT 0045 LTG DSNT ALQDS P0039 T01500139
24044KAIA AIA20160628181018706/28/16 18:10:31  5-MIN KAIA 290110Z AUTO 30019G31KT 1 1/4SM +TSRA BR BKN028 OVC049 15/14 A3039 3500 93 4300 290/19G31 RMK AO2 PK WND 31035/0057 WSHFT 0045 LTG DSNT ALQDS P0050 T01500139
24044KAIA AIA20160628181518006/28/16 18:15:31  5-MIN KAIA 290115Z AUTO 32014G25KT 1 1/4SM +TSRA BR OVC028 15/14 A3040 3500 96 4300 310/14G25 RMK AO2 PK WND 31035/0057 WSHFT 0045 LTG DSNT ALQDS P0062 T01500144
24044KAIA AIA20160628182017406/28/16 18:20:31  5-MIN KAIA 290120Z AUTO 01014KT 1 1/2SM +TSRA BR OVC028 15/14 A3036 3530 96 4400 360/14 RMK AO2 PK WND 31035/0057 WSHFT 0045 LTG DSNT ALQDS P0069 T01500144
24044KAIA AIA20160628182518106/28/16 18:25:31  5-MIN KAIA 290125Z AUTO 01017KT 2 1/2SM +TSRA BR BKN033 OVC070 15/14 A3035 3540 93 4400 360/17 RMK AO2 PK WND 31035/0057 WSHFT 0045 LTG DSNT ALQDS P0072 T01500139
24044KAIA AIA20160628183018206/28/16 18:30:31  5-MIN KAIA 290130Z AUTO 01013G21KT 4SM TSRA BR BKN035 OVC075 15/14 A3033 3560 93 4400 360/13G21 RMK AO2 PK WND 31035/0057 WSHFT 0114 LTG DSNT ALQDS P0073 T01500139
24044KAIA AIA20160628183519206/28/16 18:35:31  5-MIN KAIA 290135Z AUTO 02019G27KT 6SM VCTS -RA BR BKN035 OVC080 16/14 A3029 3600 90 4500 010/19G27 RMK AO2 PK WND 31035/0057 WSHFT 0114 LTG DSNT ALQDS TSE33 P0073 T01560139
24044KAIA AIA20160628184019506/28/16 18:40:31  5-MIN KAIA 290140Z AUTO 04024G28KT 7SM VCTS -RA SCT035 BKN075 OVC100 16/13 A3023 3650 86 4600 030/24G28 RMK AO2 PK WND 31035/0057 WSHFT 0114 LTG DSNT E-SW TSE33 P0073 T01560133
24044KAIA AIA20160628184519606/28/16 18:45:31  5-MIN KAIA 290145Z AUTO 03023G30KT 7SM VCTS -RA FEW041 BKN075 OVC095 16/13 A3023 3650 86 4600 020/23G30 RMK AO2 PK WND 31035/0057 WSHFT 0114 LTG DSNT ALQDS TSE33 P0074 T01560133
24044KAIA AIA20160628185020306/28/16 18:50:31  5-MIN KAIA 290150Z AUTO 05023G31KT 8SM VCTS -RA FEW049 BKN075 OVC110 16/13 A3019 3680 83 4600 040/23G31 RMK AO2 PK WND 31035/0057 WSHFT 0114 LTG DSNT NE-SE TSE33 SLP194 P0074 T01560128
24044KAIA AIA20160628185518206/28/16 18:55:31  5-MIN KAIA 290155Z AUTO 06028G36KT 10SM -RA SCT075 BKN100 OVC120 16/13 A3013 3740 83 4700 060/28G36 RMK AO2 PK WND 06032/0154 LTG DSNT NE-SE PRESFR P0000 T01560128
24044KAIA AIA20160628190018506/28/16 19:00:31  5-MIN KAIA 290200Z AUTO 07026G40KT 10SM -RA FEW055 BKN095 OVC120 16/13 A3012 3750 83 4700 070/26G40 RMK AO2 PK WND 07040/0156 LTG DSNT E AND SE PRESFR P0000 T01560128
24044KAIA AIA20160628190517106/28/16 19:05:31  5-MIN KAIA 290205Z AUTO 08024G40KT 10SM -RA FEW075 SCT095 OVC110 16/13 A3013 3740 80 4800 070/24G40 RMK AO2 PK WND 07040/0156 LTG DSNT E P0000 T01610128
24044KAIA AIA20160628191016206/28/16 19:10:31  5-MIN KAIA 290210Z AUTO 09020G33KT 10SM FEW075 SCT095 BKN110 16/12 A3013 3740 77 4800 080/20G33 RMK AO2 PK WND 07040/0156 RAE08 P0000 T01610122
24044KAIA AIA20160628191516206/28/16 19:15:31  5-MIN KAIA 290215Z AUTO 13014G32KT 10SM FEW075 FEW095 BKN120 16/12 A3015 3720 77 4700 120/14G32 RMK AO2 PK WND 07040/0156 RAE08 P0000 T01610122
24044KAIA AIA20160628192017306/28/16 19:20:31  5-MIN KAIA 290220Z AUTO 16019G27KT 10SM FEW080 SCT120 16/12 A3016 3710 77 4700 150/19G27 RMK AO2 PK WND 07040/0156 WSHFT 0204 RAE08 PRESRR P0000 T01610122
24044KAIA AIA20160628192516606/28/16 19:25:31  5-MIN KAIA 290225Z AUTO 15014G24KT 10SM FEW110 16/12 A3018 3700 77 4700 140/14G24 RMK AO2 PK WND 07040/0156 WSHFT 0204 RAE08 PRESRR P0000 T01610122
24044KAIA AIA20160628193016006/28/16 19:30:31  5-MIN KAIA 290230Z AUTO 12010KT 10SM FEW110 16/12 A3019 3680 77 4700 110/10 RMK AO2 PK WND 07040/0156 WSHFT 0204 RAE08 PRESRR P0000 T01610122
24044KAIA AIA20160628193516006/28/16 19:35:31  5-MIN KAIA 290235Z AUTO 12010KT 10SM FEW120 17/12 A3020 3680 72 4800 120/10 RMK AO2 PK WND 07040/0156 WSHFT 0204 RAE08 PRESRR P0000 T01670117
24044KAIA AIA20160628194015006/28/16 19:40:31  5-MIN KAIA 290240Z AUTO 12006KT 10SM CLR 16/12 A3020 3670 77 4700 120/06 RMK AO2 PK WND 07040/0156 WSHFT 0204 RAE08 P0000 T01610122
24044KAIA AIA20160628194515006/28/16 19:45:31  5-MIN KAIA 290245Z AUTO 22004KT 10SM CLR 16/12 A3020 3680 80 4600 210/04 RMK AO2 PK WND 07040/0156 WSHFT 0204 RAE08 P0000 T01560122
24044KAIA AIA20160628195016906/28/16 19:50:31  5-MIN KAIA 290250Z AUTO 11007KT 10SM CLR 16/12 A3020 3680 75 4700 100/07 RMK AO2 PK WND 07040/0156 WSHFT 0204 RAE08 SLP191 P0000 60120 T01610117 56029
24044KAIA AIA20160628195510906/28/16 19:55:31  5-MIN KAIA 290255Z AUTO 17003KT 10SM CLR 16/12 A3019 3690 77 4700 170/03 RMK AO2 T01610122
24044KAIA AIA20160628200010906/28/16 20:00:31  5-MIN KAIA 290300Z AUTO 15004KT 10SM CLR 16/12 A3019 3690 77 4700 140/04 RMK AO2 T01610122
24044KAIA AIA20160628200510906/28/16 20:05:31  5-MIN KAIA 290305Z AUTO 12008KT 10SM CLR 16/12 A3018 3690 80 4600 110/08 RMK AO2 T01560122
24044KAIA AIA20160628201010906/28/16 20:10:31  5-MIN KAIA 290310Z AUTO 12008KT 10SM CLR 16/12 A3018 3690 80 4600 110/08 RMK AO2 T01560122
24044KAIA AIA20160628201510906/28/16 20:15:31  5-MIN KAIA 290315Z AUTO 15011KT 10SM CLR 15/12 A3018 3700 83 4600 140/11 RMK AO2 T01500122
24044KAIA AIA20160628202010906/28/16 20:20:31  5-MIN KAIA 290320Z AUTO 15008KT 10SM CLR 15/12 A3018 3700 83 4600 140/08 RMK AO2 T01500122
24044KAIA AIA20160628202510906/28/16 20:25:31  5-MIN KAIA 290325Z AUTO 14009KT 10SM CLR 16/12 A3018 3700 80 4700 130/09 RMK AO2 T01560122
24044KAIA AIA20160628203010906/28/16 20:30:31  5-MIN KAIA 290330Z AUTO 15009KT 10SM CLR 16/12 A3017 3710 80 4700 140/09 RMK AO2 T01560122
24044KAIA AIA20160628203510906/28/16 20:35:31  5-MIN KAIA 290335Z AUTO 16008KT 10SM CLR 16/12 A3017 3700 80 4700 150/08 RMK AO2 T01560122
24044KAIA AIA20160628204010906/28/16 20:40:31  5-MIN KAIA 290340Z AUTO 15008KT 10SM CLR 15/12 A3017 3700 83 4600 140/08 RMK AO2 T01500122
24044KAIA AIA20160628204510906/28/16 20:45:31  5-MIN KAIA 290345Z AUTO 16006KT 10SM CLR 15/13 A3017 3710 86 4600 150/06 RMK AO2 T01500128
24044KAIA AIA20160628205011606/28/16 20:50:31  5-MIN KAIA 290350Z AUTO 16007KT 10SM CLR 14/13 A3017 3710 90 4500 150/07 RMK AO2 SLP182 T01440128
24044KAIA AIA20160628205510906/28/16 20:55:31  5-MIN KAIA 290355Z AUTO 16007KT 10SM CLR 15/13 A3017 3710 86 4600 150/07 RMK AO2 T01500128
24044KAIA AIA20160628210010906/28/16 21:00:31  5-MIN KAIA 290400Z AUTO 17007KT 10SM CLR 14/13 A3017 3700 90 4500 160/07 RMK AO2 T01440128
24044KAIA AIA20160628210510906/28/16 21:05:31  5-MIN KAIA 290405Z AUTO 16009KT 10SM CLR 15/13 A3017 3710 86 4600 150/09 RMK AO2 T01500128
24044KAIA AIA20160628211010906/28/16 21:10:31  5-MIN KAIA 290410Z AUTO 16006KT 10SM CLR 15/13 A3017 3710 86 4600 150/06 RMK AO2 T01500128
24044KAIA AIA20160628211510906/28/16 21:15:31  5-MIN KAIA 290415Z AUTO 16006KT 10SM CLR 14/13 A3016 3710 90 4500 150/06 RMK AO2 T01440128
24044KAIA AIA20160628212010906/28/16 21:20:31  5-MIN KAIA 290420Z AUTO 14006KT 10SM CLR 14/13 A3016 3710 90 4500 130/06 RMK AO2 T01440128
24044KAIA AIA20160628212510906/28/16 21:25:31  5-MIN KAIA 290425Z AUTO 17006KT 10SM CLR 14/13 A3016 3710 90 4500 160/06 RMK AO2 T01440128
24044KAIA AIA20160628213010906/28/16 21:30:31  5-MIN KAIA 290430Z AUTO 17004KT 10SM CLR 14/13 A3016 3710 90 4500 170/04 RMK AO2 T01440128
24044KAIA AIA20160628213512106/28/16 21:35:31  5-MIN KAIA 290435Z AUTO 19004KT 10SM CLR 14/13 A3017 3700 93 4500 190/04 RMK AO2 LTG DSNT NW T01440133
24044KAIA AIA20160628214012806/28/16 21:40:31  5-MIN KAIA 290440Z AUTO 24007KT 10SM CLR 14/13 A3019 3690 93 4500 230/07 RMK AO2 LTG DSNT NW PRESRR T01440133
24044KAIA AIA20160628214513306/28/16 21:45:31  5-MIN KAIA 290445Z AUTO 25012KT 10SM VCTS CLR 14/13 A3022 3660 93 4500 240/12 RMK AO2 LTG DSNT NW PRESRR T01440133
24044KAIA AIA20160628215011106/28/16 21:50:31  5-MIN KAIA 290450Z AUTO 27011KT 10SM VCTS CLR 15/13 A3023 3650 90 4500 260/11 RMK AO2 PRESRR
24044KAIA AIA20160628215512406/28/16 21:55:31  5-MIN KAIA 290455Z AUTO 28009KT 10SM VCTS FEW110 15/13 A3023 3650 90 4500 280/09 RMK AO2 PRESRR T01500133
24044KAIA AIA20160628220014706/28/16 22:00:31  5-MIN KAIA 290500Z AUTO 28007KT 10SM -RA SCT085 SCT110 15/13 A3022 3660 90 4500 280/07 RMK AO2 LTG DSNT SE RAB00 P0000 T01500133
24044KAIA AIA20160628220514706/28/16 22:05:31  5-MIN KAIA 290505Z AUTO 22005KT 10SM -RA BKN085 BKN110 15/14 A3021 3670 93 4600 210/05 RMK AO2 LTG DSNT SE RAB00 P0000 T01500139
24044KAIA AIA20160628221015406/28/16 22:10:31  5-MIN KAIA 290510Z AUTO 21005KT 10SM -RA SCT075 BKN090 BKN110 14/14 A3022 3660 96 4500 200/05 RMK AO2 LTG DSNT SE RAB00 P0000 T01440139
24044KAIA AIA20160628221515406/28/16 22:15:31  5-MIN KAIA 290515Z AUTO 34004KT 10SM -RA SCT075 SCT090 BKN110 14/13 A3023 3650 93 4500 330/04 RMK AO2 LTG DSNT SE RAB00 P0000 T01440133
24044KAIA AIA20160628222015306/28/16 22:20:31  5-MIN KAIA 290520Z AUTO 00000KT 10SM FEW075 SCT090 SCT110 15/13 A3020 3670 90 4600 000/00 RMK AO2 LTG DSNT SE RAB00E16 P0000 T01500133
24044KAIA AIA20160628222515306/28/16 22:25:31  5-MIN KAIA 290525Z AUTO 16013KT 10SM FEW075 SCT090 SCT110 14/13 A3015 3720 93 4600 150/13 RMK AO2 LTG DSNT SE RAB00E16 P0000 T01440133
24044KAIA AIA20160628223013406/28/16 22:30:31  5-MIN KAIA 290530Z AUTO 19012KT 10SM FEW075 SCT110 14/13 A3017 3700 93 4500 180/12 RMK AO2 RAB00E16 P0000 T01440133
24044KAIA AIA20160628223513406/28/16 22:35:31  5-MIN KAIA 290535Z AUTO 21011KT 10SM FEW070 FEW110 14/13 A3017 3710 93 4500 210/11 RMK AO2 RAB00E16 P0000 T01440133
24044KAIA AIA20160628224012406/28/16 22:40:31  5-MIN KAIA 290540Z AUTO 20013KT 10SM CLR 14/13 A3016 3710 90 4500 190/13 RMK AO2 RAB00E16 P0000 T01440128
24044KAIA AIA20160628224512406/28/16 22:45:31  5-MIN KAIA 290545Z AUTO 20012KT 10SM CLR 14/13 A3016 3710 90 4500 190/12 RMK AO2 RAB00E16 P0000 T01440128
24044KAIA AIA20160628225015506/28/16 22:50:31  5-MIN KAIA 290550Z AUTO 20012KT 10SM CLR 14/13 A3016 3710 90 4500 190/12 RMK AO2 RAB00E16 SLP173 P0000 60120 T01440128 10283 20144 55033
24044KAIA AIA20160628225510906/28/16 22:55:31  5-MIN KAIA 290555Z AUTO 21012KT 10SM CLR 14/13 A3017 3710 90 4500 210/12 RMK AO2 T01440128
24044KAIA AIA20160628230010906/28/16 23:00:31  5-MIN KAIA 290600Z AUTO 21010KT 10SM CLR 14/13 A3016 3710 90 4500 200/10 RMK AO2 T01440128
24044KAIA AIA20160628230510906/28/16 23:05:31  5-MIN KAIA 290605Z AUTO 21010KT 10SM CLR 14/13 A3017 3710 90 4500 200/10 RMK AO2 T01440128
24044KAIA AIA20160628231010906/28/16 23:10:31  5-MIN KAIA 290610Z AUTO 22009KT 10SM CLR 14/13 A3017 3710 90 4500 210/09 RMK AO2 T01440128
24044KAIA AIA20160628231510906/28/16 23:15:31  5-MIN KAIA 290615Z AUTO 22010KT 10SM CLR 14/13 A3017 3710 90 4500 210/10 RMK AO2 T01440128
24044KAIA AIA20160628232010906/28/16 23:20:31  5-MIN KAIA 290620Z AUTO 22008KT 10SM CLR 14/12 A3017 3710 86 4500 210/08 RMK AO2 T01440122
24044KAIA AIA20160628232510906/28/16 23:25:31  5-MIN KAIA 290625Z AUTO 22007KT 10SM CLR 14/12 A3017 3710 86 4500 220/07 RMK AO2 T01440122
24044KAIA AIA20160628233010906/28/16 23:30:31  5-MIN KAIA 290630Z AUTO 21005KT 10SM CLR 14/13 A3017 3710 90 4500 210/05 RMK AO2 T01440128
24044KAIA AIA20160628233510906/28/16 23:35:31  5-MIN KAIA 290635Z AUTO 21006KT 10SM CLR 14/13 A3016 3710 90 4500 210/06 RMK AO2 T01440128
24044KAIA AIA20160628234010906/28/16 23:40:31  5-MIN KAIA 290640Z AUTO 20008KT 10SM CLR 14/13 A3017 3710 90 4500 190/08 RMK AO2 T01440128
24044KAIA AIA20160628234510906/28/16 23:45:31  5-MIN KAIA 290645Z AUTO 20008KT 10SM CLR 15/12 A3016 3710 83 4600 190/08 RMK AO2 T01500122
24044KAIA AIA20160628235012606/28/16 23:50:31  5-MIN KAIA 290650Z AUTO 20006KT 10SM CLR 15/12 A3016 3710 83 4600 190/06 RMK AO2 SLP173 T01500122 403330133
24044KAIA AIA20160628235510906/28/16 23:55:31  5-MIN KAIA 290655Z AUTO 21005KT 10SM CLR 15/12 A3017 3710 83 4600 200/05 RMK AO2 T01500122
24044KAIA AIA20160629000010906/29/16 00:00:31  5-MIN KAIA 290700Z AUTO 21008KT 10SM CLR 15/12 A3017 3710 83 4600 200/08 RMK AO2 T01500122
24044KAIA AIA20160629000510906/29/16 00:05:31  5-MIN KAIA 290705Z AUTO 20007KT 10SM CLR 15/12 A3018 3700 83 4600 190/07 RMK AO2 T01500122
24044KAIA AIA20160629001010906/29/16 00:10:31  5-MIN KAIA 290710Z AUTO 18006KT 10SM CLR 15/12 A3018 3690 83 4600 180/06 RMK AO2 T01500122
24044KAIA AIA20160629001510906/29/16 00:15:31  5-MIN KAIA 290715Z AUTO 19004KT 10SM CLR 15/12 A3019 3690 83 4600 180/04 RMK AO2 T01500122
24044KAIA AIA20160629002010906/29/16 00:20:31  5-MIN KAIA 290720Z AUTO 20005KT 10SM CLR 15/12 A3019 3690 80 4600 200/05 RMK AO2 T01500117
24044KAIA AIA20160629002510906/29/16 00:25:31  5-MIN KAIA 290725Z AUTO 21007KT 10SM CLR 14/12 A3019 3690 83 4500 200/07 RMK AO2 T01440117
24044KAIA AIA20160629003010906/29/16 00:30:31  5-MIN KAIA 290730Z AUTO 18004KT 10SM CLR 14/12 A3019 3690 83 4500 170/04 RMK AO2 T01440117
24044KAIA AIA20160629003510906/29/16 00:35:31  5-MIN KAIA 290735Z AUTO 00000KT 10SM CLR 14/12 A3020 3680 83 4500 000/00 RMK AO2 T01440117
24044KAIA AIA20160629004010906/29/16 00:40:31  5-MIN KAIA 290740Z AUTO 21003KT 10SM CLR 14/12 A3019 3680 83 4500 210/03 RMK AO2 T01440117
24044KAIA AIA20160629004510906/29/16 00:45:31  5-MIN KAIA 290745Z AUTO 23004KT 10SM CLR 14/12 A3019 3690 86 4500 230/04 RMK AO2 T01390117
24044KAIA AIA20160629005011606/29/16 00:50:31  5-MIN KAIA 290750Z AUTO 00000KT 10SM CLR 13/11 A3019 3690 86 4400 000/00 RMK AO2 SLP179 T01330111
24044KAIA AIA20160629005510906/29/16 00:55:31  5-MIN KAIA 290755Z AUTO 00000KT 10SM CLR 13/11 A3019 3690 86 4400 000/00 RMK AO2 T01330111
24044KAIA AIA20160629010010906/29/16 01:00:31  5-MIN KAIA 290800Z AUTO 28006KT 10SM CLR 13/11 A3019 3690 89 4300 270/06 RMK AO2 T01280111
24044KAIA AIA20160629010510906/29/16 01:05:31  5-MIN KAIA 290805Z AUTO 27003KT 10SM CLR 13/11 A3019 3690 86 4400 270/03 RMK AO2 T01330111
24044KAIA AIA20160629011010906/29/16 01:10:31  5-MIN KAIA 290810Z AUTO 26006KT 10SM CLR 13/12 A3019 3690 89 4400 260/06 RMK AO2 T01330117
24044KAIA AIA20160629011510906/29/16 01:15:31  5-MIN KAIA 290815Z AUTO 27007KT 10SM CLR 13/11 A3019 3690 89 4300 260/07 RMK AO2 T01280111
24044KAIA AIA20160629012010906/29/16 01:20:31  5-MIN KAIA 290820Z AUTO 28006KT 10SM CLR 13/11 A3018 3690 89 4300 270/06 RMK AO2 T01280111
24044KAIA AIA20160629012510906/29/16 01:25:31  5-MIN KAIA 290825Z AUTO 28004KT 10SM CLR 13/11 A3018 3700 89 4300 280/04 RMK AO2 T01280111
24044KAIA AIA20160629013010906/29/16 01:30:31  5-MIN KAIA 290830Z AUTO 29005KT 10SM CLR 13/11 A3018 3700 89 4300 280/05 RMK AO2 T01280111
24044KAIA AIA20160629013510906/29/16 01:35:31  5-MIN KAIA 290835Z AUTO 29006KT 10SM CLR 12/11 A3018 3700 93 4300 280/06 RMK AO2 T01220111
24044KAIA AIA20160629014010906/29/16 01:40:31  5-MIN KAIA 290840Z AUTO 31005KT 10SM CLR 13/11 A3018 3690 89 4300 300/05 RMK AO2 T01280111
24044KAIA AIA20160629014510906/29/16 01:45:31  5-MIN KAIA 290845Z AUTO 34004KT 10SM CLR 13/11 A3018 3690 89 4300 330/04 RMK AO2 T01280111
24044KAIA AIA20160629015012206/29/16 01:50:31  5-MIN KAIA 290850Z AUTO 34004KT 10SM CLR 13/11 A3018 3700 89 4300 330/04 RMK AO2 SLP175 T01280111 58001
24044KAIA AIA20160629015510906/29/16 01:55:31  5-MIN KAIA 290855Z AUTO 34003KT 10SM CLR 13/11 A3017 3700 89 4300 330/03 RMK AO2 T01280111
24044KAIA AIA20160629020010906/29/16 02:00:31  5-MIN KAIA 290900Z AUTO 00000KT 10SM CLR 12/11 A3017 3700 93 4300 000/00 RMK AO2 T01220111
24044KAIA AIA20160629020510906/29/16 02:05:31  5-MIN KAIA 290905Z AUTO 00000KT 10SM CLR 13/11 A3017 3700 89 4300 000/00 RMK AO2 T01280111
24044KAIA AIA20160629021010906/29/16 02:10:31  5-MIN KAIA 290910Z AUTO 07003KT 10SM CLR 12/11 A3018 3700 93 4300 070/03 RMK AO2 T01220111
24044KAIA AIA20160629021510906/29/16 02:15:31  5-MIN KAIA 290915Z AUTO 03003KT 10SM CLR 12/11 A3018 3690 93 4200 020/03 RMK AO2 T01170106
24044KAIA AIA20160629022010906/29/16 02:20:31  5-MIN KAIA 290920Z AUTO 00000KT 10SM CLR 12/11 A3018 3700 93 4200 000/00 RMK AO2 T01170106
24044KAIA AIA20160629022510906/29/16 02:25:31  5-MIN KAIA 290925Z AUTO 00000KT 10SM CLR 12/11 A3018 3690 93 4200 000/00 RMK AO2 T01170106
24044KAIA AIA20160629023010906/29/16 02:30:31  5-MIN KAIA 290930Z AUTO 08004KT 10SM CLR 11/10 A3019 3690 93 4100 080/04 RMK AO2 T01110100
24044KAIA AIA20160629023510906/29/16 02:35:31  5-MIN KAIA 290935Z AUTO 07003KT 10SM CLR 11/11 A3019 3690 96 4100 060/03 RMK AO2 T01110106
24044KAIA AIA20160629024010906/29/16 02:40:31  5-MIN KAIA 290940Z AUTO 03003KT 10SM CLR 12/11 A3019 3680 93 4200 020/03 RMK AO2 T01170106
24044KAIA AIA20160629024510906/29/16 02:45:31  5-MIN KAIA 290945Z AUTO 34005KT 10SM CLR 12/11 A3020 3680 93 4200 340/05 RMK AO2 T01170106
24044KAIA AIA20160629025011606/29/16 02:50:31  5-MIN KAIA 290950Z AUTO 34003KT 10SM CLR 12/11 A3020 3680 93 4200 330/03 RMK AO2 SLP184 T01170106
24044KAIA AIA20160629025510906/29/16 02:55:31  5-MIN KAIA 290955Z AUTO 00000KT 10SM CLR 12/11 A3020 3680 93 4200 000/00 RMK AO2 T01170106
24044KAIA AIA20160629030010906/29/16 03:00:31  5-MIN KAIA 291000Z AUTO 00000KT 10SM CLR 12/11 A3020 3680 96 4200 000/00 RMK AO2 T01170111
24044KAIA AIA20160629030510906/29/16 03:05:31  5-MIN KAIA 291005Z AUTO 00000KT 10SM CLR 11/11 A3019 3690 96 4100 000/00 RMK AO2 T01110106
24044KAIA AIA20160629031010906/29/16 03:10:31  5-MIN KAIA 291010Z AUTO 00000KT 10SM CLR 12/11 A3019 3690 93 4200 000/00 RMK AO2 T01170106
24044KAIA AIA20160629031510906/29/16 03:15:31  5-MIN KAIA 291015Z AUTO 00000KT 10SM CLR 11/11 A3018 3690 96 4100 000/00 RMK AO2 T01110106
24044KAIA AIA20160629032010906/29/16 03:20:31  5-MIN KAIA 291020Z AUTO 00000KT 10SM CLR 11/11 A3018 3700 96 4100 000/00 RMK AO2 T01110106
24044KAIA AIA20160629032510906/29/16 03:25:31  5-MIN KAIA 291025Z AUTO 00000KT 10SM CLR 11/11 A3018 3700 96 4100 000/00 RMK AO2 T01110106
24044KAIA AIA20160629033010906/29/16 03:30:31  5-MIN KAIA 291030Z AUTO 00000KT 10SM CLR 11/10 A3018 3700 96 4100 000/00 RMK AO2 T01060100
24044KAIA AIA20160629033510906/29/16 03:35:31  5-MIN KAIA 291035Z AUTO 00000KT 10SM CLR 11/10 A3017 3710 96 4100 000/00 RMK AO2 T01060100
24044KAIA AIA20160629034010906/29/16 03:40:31  5-MIN KAIA 291040Z AUTO 00000KT 10SM CLR 11/10 A3017 3710 96 4100 000/00 RMK AO2 T01060100
24044KAIA AIA20160629034510906/29/16 03:45:31  5-MIN KAIA 291045Z AUTO 00000KT 10SM CLR 11/10 A3017 3710 96 4100 000/00 RMK AO2 T01060100
24044KAIA AIA20160629035011606/29/16 03:50:31  5-MIN KAIA 291050Z AUTO 13005KT 10SM CLR 11/10 A3016 3710 96 4100 120/05 RMK AO2 SLP172 T01060100
24044KAIA AIA20160629035510906/29/16 03:55:31  5-MIN KAIA 291055Z AUTO 14004KT 10SM CLR 10/09 A3016 3720 96 4000 140/04 RMK AO2 T01000094
24044KAIA AIA20160629040010906/29/16 04:00:31  5-MIN KAIA 291100Z AUTO 15004KT 10SM CLR 10/09 A3015 3720 96 4000 140/04 RMK AO2 T01000094
24044KAIA AIA20160629040510906/29/16 04:05:31  5-MIN KAIA 291105Z AUTO 15004KT 10SM CLR 10/09 A3015 3720 96 4000 140/04 RMK AO2 T01000094
24044KAIA AIA20160629041010906/29/16 04:10:31  5-MIN KAIA 291110Z AUTO 12004KT 10SM CLR 10/09 A3015 3720 96 4000 120/04 RMK AO2 T01000094
24044KAIA AIA20160629041510906/29/16 04:15:31  5-MIN KAIA 291115Z AUTO 09003KT 10SM CLR 10/09 A3015 3720 96 4000 090/03 RMK AO2 T01000094
24044KAIA AIA20160629042010906/29/16 04:20:31  5-MIN KAIA 291120Z AUTO 11004KT 10SM CLR 11/10 A3015 3720 96 4100 100/04 RMK AO2 T01060100
24044KAIA AIA20160629042510906/29/16 04:25:31  5-MIN KAIA 291125Z AUTO 08007KT 10SM CLR 11/10 A3015 3720 96 4100 070/07 RMK AO2 T01060100
24044KAIA AIA20160629043010906/29/16 04:30:31  5-MIN KAIA 291130Z AUTO 08007KT 10SM CLR 11/10 A3015 3720 93 4200 070/07 RMK AO2 T01110100
24044KAIA AIA20160629043510906/29/16 04:35:31  5-MIN KAIA 291135Z AUTO 06004KT 10SM CLR 12/11 A3016 3710 93 4200 050/04 RMK AO2 T01170106
24044KAIA AIA20160629044011606/29/16 04:40:31  5-MIN KAIA 291140Z AUTO VRB04KT 10SM CLR 12/11 A3019 3690 96 4200 VRB/04 RMK AO2 PRESRR T01170111
24044KAIA AIA20160629044510906/29/16 04:45:31  5-MIN KAIA 291145Z AUTO 28003KT 10SM CLR 12/11 A3018 3700 96 4200 270/03 RMK AO2 T01170111
24044KAIA AIA20160629045014006/29/16 04:50:31  5-MIN KAIA 291150Z AUTO 29004KT 10SM CLR 12/11 A3018 3700 96 4200 280/04 RMK AO2 SLP183 70120 T01170111 10150 20100 50003
24044KAIA AIA20160629045510906/29/16 04:55:31  5-MIN KAIA 291155Z AUTO 29005KT 10SM CLR 12/11 A3018 3700 96 4200 290/05 RMK AO2 T01170111
24044KAIA AIA20160629050010906/29/16 05:00:31  5-MIN KAIA 291200Z AUTO 28004KT 10SM CLR 12/11 A3017 3700 96 4200 270/04 RMK AO2 T01170111
24044KAIA AIA20160629050511006/29/16 05:05:31  5-MIN KAIA 291205Z AUTO 00000KT 10SM CLR 11/11 A3017 3710 100 4100 000/00 RMK AO2 T01110111
24044KAIA AIA20160629051010906/29/16 05:10:31  5-MIN KAIA 291210Z AUTO 00000KT 10SM CLR 12/11 A3017 3710 96 4200 000/00 RMK AO2 T01170111
24044KAIA AIA20160629051510906/29/16 05:15:31  5-MIN KAIA 291215Z AUTO 00000KT 10SM CLR 12/11 A3016 3710 96 4200 000/00 RMK AO2 T01170111
24044KAIA AIA20160629052010906/29/16 05:20:31  5-MIN KAIA 291220Z AUTO 22003KT 10SM CLR 12/11 A3016 3710 96 4200 210/03 RMK AO2 T01170111
24044KAIA AIA20160629052510906/29/16 05:25:31  5-MIN KAIA 291225Z AUTO 20003KT 10SM CLR 12/11 A3016 3720 96 4200 190/03 RMK AO2 T01170111
24044KAIA AIA20160629053010906/29/16 05:30:31  5-MIN KAIA 291230Z AUTO 18003KT 10SM CLR 12/12 A3015 3720 96 4300 170/03 RMK AO2 T01220117
24044KAIA AIA20160629053510906/29/16 05:35:31  5-MIN KAIA 291235Z AUTO 00000KT 10SM CLR 13/12 A3015 3720 96 4400 000/00 RMK AO2 T01280122
24044KAIA AIA20160629054010906/29/16 05:40:31  5-MIN KAIA 291240Z AUTO 00000KT 10SM CLR 14/12 A3016 3710 90 4500 000/00 RMK AO2 T01390122
24044KAIA AIA20160629054510906/29/16 05:45:31  5-MIN KAIA 291245Z AUTO 00000KT 10SM CLR 14/12 A3016 3710 90 4500 000/00 RMK AO2 T01390122
24044KAIA AIA20160629055011606/29/16 05:50:31  5-MIN KAIA 291250Z AUTO 00000KT 10SM CLR 14/12 A3016 3710 90 4500 000/00 RMK AO2 SLP190 T01390122
24044KAIA AIA20160629055510906/29/16 05:55:31  5-MIN KAIA 291255Z AUTO 12003KT 10SM CLR 14/13 A3015 3720 93 4500 110/03 RMK AO2 T01390128
24044KAIA AIA20160629060010906/29/16 06:00:31  5-MIN KAIA 291300Z AUTO 11003KT 10SM CLR 14/13 A3015 3720 90 4600 100/03 RMK AO2 T01440128
24044KAIA AIA20160629060510906/29/16 06:05:31  5-MIN KAIA 291305Z AUTO 12003KT 10SM CLR 14/13 A3015 3720 90 4600 110/03 RMK AO2 T01440128
24044KAIA AIA20160629061010906/29/16 06:10:31  5-MIN KAIA 291310Z AUTO 13003KT 10SM CLR 15/13 A3015 3720 90 4600 120/03 RMK AO2 T01500133
24044KAIA AIA20160629061510906/29/16 06:15:31  5-MIN KAIA 291315Z AUTO 14004KT 10SM CLR 16/13 A3014 3730 86 4700 130/04 RMK AO2 T01560133
24044KAIA AIA20160629062010906/29/16 06:20:31  5-MIN KAIA 291320Z AUTO 13004KT 10SM CLR 16/13 A3014 3730 86 4700 120/04 RMK AO2 T01560133
24044KAIA AIA20160629062510906/29/16 06:25:31  5-MIN KAIA 291325Z AUTO 15004KT 10SM CLR 16/13 A3014 3730 83 4800 140/04 RMK AO2 T01610133
24044KAIA AIA20160629063010906/29/16 06:30:31  5-MIN KAIA 291330Z AUTO 17005KT 10SM CLR 16/13 A3014 3730 83 4800 160/05 RMK AO2 T01610133
24044KAIA AIA20160629063510906/29/16 06:35:31  5-MIN KAIA 291335Z AUTO 18005KT 10SM CLR 16/13 A3014 3730 83 4800 180/05 RMK AO2 T01610133
24044KAIA AIA20160629064010906/29/16 06:40:31  5-MIN KAIA 291340Z AUTO 20004KT 10SM CLR 17/13 A3014 3730 80 4800 190/04 RMK AO2 T01670133
24044KAIA AIA20160629064510906/29/16 06:45:31  5-MIN KAIA 291345Z AUTO 20004KT 10SM CLR 17/14 A3014 3730 80 4900 190/04 RMK AO2 T01720139
24044KAIA AIA20160629065011606/29/16 06:50:31  5-MIN KAIA 291350Z AUTO 21005KT 10SM CLR 17/14 A3014 3730 80 4900 200/05 RMK AO2 SLP178 T01720139
24044KAIA AIA20160629065510906/29/16 06:55:31  5-MIN KAIA 291355Z AUTO 20005KT 10SM CLR 18/14 A3014 3730 78 4900 200/05 RMK AO2 T01780139
24044KAIA AIA20160629070010906/29/16 07:00:31  5-MIN KAIA 291400Z AUTO 18005KT 10SM CLR 18/14 A3015 3730 75 5000 170/05 RMK AO2 T01830139
24044KAIA AIA20160629070510906/29/16 07:05:31  5-MIN KAIA 291405Z AUTO 25003KT 10SM CLR 18/14 A3015 3720 75 5000 240/03 RMK AO2 T01830139
24044KAIA AIA20160629071010906/29/16 07:10:31  5-MIN KAIA 291410Z AUTO 25003KT 10SM CLR 19/14 A3016 3720 72 5100 240/03 RMK AO2 T01890139
24044KAIA AIA20160629071510906/29/16 07:15:31  5-MIN KAIA 291415Z AUTO VRB04KT 10SM CLR 19/13 A3016 3720 70 5100 VRB/04 RMK AO2 T01890133
24044KAIA AIA20160629072010906/29/16 07:20:31  5-MIN KAIA 291420Z AUTO 23005KT 10SM CLR 19/14 A3015 3720 72 5100 220/05 RMK AO2 T01890139
24044KAIA AIA20160629072510906/29/16 07:25:31  5-MIN KAIA 291425Z AUTO VRB03KT 10SM CLR 19/14 A3015 3720 72 5100 VRB/03 RMK AO2 T01890139
24044KAIA AIA20160629073010906/29/16 07:30:31  5-MIN KAIA 291430Z AUTO 33004KT 10SM CLR 19/14 A3016 3720 70 5100 320/04 RMK AO2 T01940139
24044KAIA AIA20160629073510906/29/16 07:35:31  5-MIN KAIA 291435Z AUTO 00000KT 10SM CLR 20/14 A3016 3720 67 5200 000/00 RMK AO2 T02000139
24044KAIA AIA20160629074010906/29/16 07:40:31  5-MIN KAIA 291440Z AUTO 00000KT 10SM CLR 20/13 A3015 3720 65 5200 000/00 RMK AO2 T02000133
24044KAIA AIA20160629074510906/29/16 07:45:31  5-MIN KAIA 291445Z AUTO VRB03KT 10SM CLR 20/13 A3016 3720 65 5200 VRB/03 RMK AO2 T02000133
24044KAIA AIA20160629075012206/29/16 07:50:31  5-MIN KAIA 291450Z AUTO 01004KT 10SM CLR 21/13 A3016 3710 61 5300 360/04 RMK AO2 SLP179 T02110133 53001
24044KAIA AIA20160629075510906/29/16 07:55:31  5-MIN KAIA 291455Z AUTO 00000KT 10SM CLR 21/13 A3016 3720 60 5200 000/00 RMK AO2 T02060128
24044KAIA AIA20160629080010906/29/16 08:00:31  5-MIN KAIA 291500Z AUTO 29004KT 10SM CLR 21/13 A3015 3720 60 5200 280/04 RMK AO2 T02060128
24044KAIA AIA20160629080510906/29/16 08:05:31  5-MIN KAIA 291505Z AUTO VRB03KT 10SM CLR 21/13 A3016 3720 61 5300 VRB/03 RMK AO2 T02110133
24044KAIA AIA20160629081010906/29/16 08:10:31  5-MIN KAIA 291510Z AUTO 00000KT 10SM CLR 21/13 A3015 3720 61 5300 000/00 RMK AO2 T02110133
24044KAIA AIA20160629081510906/29/16 08:15:31  5-MIN KAIA 291515Z AUTO VRB03KT 10SM CLR 21/13 A3015 3720 61 5300 VRB/03 RMK AO2 T02110133
24044KAIA AIA20160629082010906/29/16 08:20:31  5-MIN KAIA 291520Z AUTO 35004KT 10SM CLR 21/13 A3016 3720 61 5300 340/04 RMK AO2 T02110133
24044KAIA AIA20160629082510906/29/16 08:25:31  5-MIN KAIA 291525Z AUTO 00000KT 10SM CLR 21/13 A3015 3720 58 5300 000/00 RMK AO2 T02110128
24044KAIA AIA20160629083010906/29/16 08:30:31  5-MIN KAIA 291530Z AUTO VRB05KT 10SM CLR 22/13 A3016 3720 58 5400 VRB/05 RMK AO2 T02170133
24044KAIA AIA20160629083510906/29/16 08:35:31  5-MIN KAIA 291535Z AUTO VRB03KT 10SM CLR 22/13 A3016 3710 58 5400 VRB/03 RMK AO2 T02170133
24044KAIA AIA20160629084010906/29/16 08:40:31  5-MIN KAIA 291540Z AUTO 35005KT 10SM CLR 22/13 A3016 3710 56 5400 350/05 RMK AO2 T02220133
24044KAIA AIA20160629084510906/29/16 08:45:31  5-MIN KAIA 291545Z AUTO VRB04KT 10SM CLR 22/13 A3016 3710 56 5400 VRB/04 RMK AO2 T02220133
24044KAIA AIA20160629085011606/29/16 08:50:31  5-MIN KAIA 291550Z AUTO VRB03KT 10SM CLR 22/13 A3016 3710 58 5400 VRB/03 RMK AO2 SLP180 T02170133
24044KAIA AIA20160629085510906/29/16 08:55:31  5-MIN KAIA 291555Z AUTO VRB03KT 10SM CLR 23/13 A3016 3720 55 5500 VRB/03 RMK AO2 T02280133
24044KAIA AIA20160629090010906/29/16 09:00:31  5-MIN KAIA 291600Z AUTO 30003KT 10SM CLR 22/13 A3016 3720 56 5400 290/03 RMK AO2 T02220133
24044KAIA AIA20160629090510906/29/16 09:05:31  5-MIN KAIA 291605Z AUTO 30003KT 10SM CLR 23/13 A3016 3720 55 5500 290/03 RMK AO2 T02280133
24044KAIA AIA20160629091010906/29/16 09:10:31  5-MIN KAIA 291610Z AUTO 00000KT 10SM CLR 23/13 A3016 3720 55 5500 000/00 RMK AO2 T02280133
24044KAIA AIA20160629091510906/29/16 09:15:31  5-MIN KAIA 291615Z AUTO VRB04KT 10SM CLR 23/13 A3015 3720 53 5500 VRB/04 RMK AO2 T02280128
24044KAIA AIA20160629092010906/29/16 09:20:31  5-MIN KAIA 291620Z AUTO 00000KT 10SM CLR 23/13 A3015 3720 53 5600 000/00 RMK AO2 T02330133
24044KAIA AIA20160629092510906/29/16 09:25:31  5-MIN KAIA 291625Z AUTO 00000KT 10SM CLR 23/13 A3016 3720 53 5600 000/00 RMK AO2 T02330133
24044KAIA AIA20160629093010906/29/16 09:30:31  5-MIN KAIA 291630Z AUTO 00000KT 10SM CLR 22/13 A3016 3710 54 5400 000/00 RMK AO2 T02220128
24044KAIA AIA20160629093510906/29/16 09:35:31  5-MIN KAIA 291635Z AUTO 01004KT 10SM CLR 24/13 A3016 3720 51 5600 360/04 RMK AO2 T02390133
24044KAIA AIA20160629094010906/29/16 09:40:31  5-MIN KAIA 291640Z AUTO 00000KT 10SM CLR 24/13 A3016 3720 51 5600 000/00 RMK AO2 T02390133
24044KAIA AIA20160629094510906/29/16 09:45:31  5-MIN KAIA 291645Z AUTO VRB05KT 10SM CLR 24/13 A3016 3720 51 5600 VRB/05 RMK AO2 T02390133
24044KAIA AIA20160629095011606/29/16 09:50:31  5-MIN KAIA 291650Z AUTO 22005KT 10SM CLR 24/14 A3016 3710 53 5600 210/05 RMK AO2 SLP177 T02390139
24044KAIA AIA20160629095510906/29/16 09:55:31  5-MIN KAIA 291655Z AUTO 24003KT 10SM CLR 24/13 A3016 3710 51 5600 230/03 RMK AO2 T02390133
24044KAIA AIA20160629100010906/29/16 10:00:31  5-MIN KAIA 291700Z AUTO 00000KT 10SM CLR 24/13 A3016 3710 51 5600 000/00 RMK AO2 T02390133
24044KAIA AIA20160629100510906/29/16 10:05:31  5-MIN KAIA 291705Z AUTO 00000KT 10SM CLR 24/14 A3016 3710 51 5700 000/00 RMK AO2 T02440139
24044KAIA AIA20160629101010906/29/16 10:10:31  5-MIN KAIA 291710Z AUTO 20005KT 10SM CLR 25/14 A3016 3710 49 5700 200/05 RMK AO2 T02500139
24044KAIA AIA20160629101510906/29/16 10:15:31  5-MIN KAIA 291715Z AUTO 00000KT 10SM CLR 24/14 A3016 3720 51 5700 000/00 RMK AO2 T02440139
24044KAIA AIA20160629102010906/29/16 10:20:31  5-MIN KAIA 291720Z AUTO 26004KT 10SM CLR 26/14 A3015 3720 48 5800 250/04 RMK AO2 T02560139
24044KAIA AIA20160629102510906/29/16 10:25:31  5-MIN KAIA 291725Z AUTO VRB03KT 10SM CLR 25/14 A3015 3720 49 5700 VRB/03 RMK AO2 T02500139
24044KAIA AIA20160629103010906/29/16 10:30:31  5-MIN KAIA 291730Z AUTO 00000KT 10SM CLR 25/14 A3015 3720 49 5700 000/00 RMK AO2 T02500139
24044KAIA AIA20160629103510906/29/16 10:35:31  5-MIN KAIA 291735Z AUTO 00000KT 10SM CLR 27/15 A3015 3720 48 5900 000/00 RMK AO2 T02670150
24044KAIA AIA20160629104010906/29/16 10:40:31  5-MIN KAIA 291740Z AUTO VRB03KT 10SM CLR 26/14 A3015 3720 48 5800 VRB/03 RMK AO2 T02560139
24044KAIA AIA20160629104510906/29/16 10:45:31  5-MIN KAIA 291745Z AUTO 33004KT 10SM CLR 26/14 A3015 3720 48 5800 320/04 RMK AO2 T02560139
24044KAIA AIA20160629105013406/29/16 10:50:31  5-MIN KAIA 291750Z AUTO 00000KT 10SM CLR 26/14 A3015 3720 46 5900 000/00 RMK AO2 SLP172 T02610139 10267 20111 55007
24044KAIA AIA20160629105510906/29/16 10:55:31  5-MIN KAIA 291755Z AUTO 31006KT 10SM CLR 26/14 A3015 3720 48 5900 310/06 RMK AO2 T02610144
24044KAIA AIA20160629110010906/29/16 11:00:31  5-MIN KAIA 291800Z AUTO VRB03KT 10SM CLR 27/14 A3015 3720 45 5900 VRB/03 RMK AO2 T02670139
24044KAIA AIA20160629110510906/29/16 11:05:31  5-MIN KAIA 291805Z AUTO 32003KT 10SM CLR 27/14 A3015 3720 45 5900 310/03 RMK AO2 T02670139
24044KAIA AIA20160629111010906/29/16 11:10:31  5-MIN KAIA 291810Z AUTO VRB03KT 10SM CLR 27/14 A3015 3720 46 5900 VRB/03 RMK AO2 T02670144
24044KAIA AIA20160629111510906/29/16 11:15:31  5-MIN KAIA 291815Z AUTO VRB05KT 10SM CLR 27/14 A3015 3720 43 6000 VRB/05 RMK AO2 T02720139
24044KAIA AIA20160629112010906/29/16 11:20:31  5-MIN KAIA 291820Z AUTO 36005KT 10SM CLR 27/12 A3015 3720 37 6000 360/05 RMK AO2 T02720117
24044KAIA AIA20160629112510906/29/16 11:25:31  5-MIN KAIA 291825Z AUTO 02005KT 10SM CLR 27/12 A3015 3720 39 6000 010/05 RMK AO2 T02720122
24044KAIA AIA20160629113010906/29/16 11:30:31  5-MIN KAIA 291830Z AUTO VRB03KT 10SM CLR 27/13 A3015 3720 40 6000 VRB/03 RMK AO2 T02720128
24044KAIA AIA20160629113510906/29/16 11:35:31  5-MIN KAIA 291835Z AUTO 02006KT 10SM CLR 28/13 A3015 3720 39 6000 010/06 RMK AO2 T02780128
24044KAIA AIA20160629114010906/29/16 11:40:31  5-MIN KAIA 291840Z AUTO 01007KT 10SM CLR 28/13 A3015 3720 40 6000 010/07 RMK AO2 T02780133
24044KAIA AIA20160629114510906/29/16 11:45:31  5-MIN KAIA 291845Z AUTO VRB04KT 10SM CLR 28/13 A3015 3720 40 6000 VRB/04 RMK AO2 T02780133
24044KAIA AIA20160629115010606/29/16 11:50:31  5-MIN KAIA 291850Z AUTO 10SM CLR 27/14 A3015 3720 43 6000 M /M RMK AO2 SLP169 T02720139
24044KAIA AIA20160629115512506/29/16 11:55:31  5-MIN KAIA 291855Z AUTO 04008KT 010V080 10SM CLR 28/14 A3015 3720 43 6000 030/08 360V070 RMK AO2 T02780144
24044KAIA AIA20160629120010906/29/16 12:00:31  5-MIN KAIA 291900Z AUTO VRB05KT 10SM CLR 28/13 A3015 3730 40 6000 VRB/05 RMK AO2 T02780133
24044KAIA AIA20160629120510906/29/16 12:05:31  5-MIN KAIA 291905Z AUTO 03008KT 10SM CLR 28/13 A3015 3730 40 6100 020/08 RMK AO2 T02780133
24044KAIA AIA20160629121010906/29/16 12:10:31  5-MIN KAIA 291910Z AUTO VRB04KT 10SM CLR 28/13 A3014 3730 40 6100 VRB/04 RMK AO2 T02780133
24044KAIA AIA20160629121510906/29/16 12:15:31  5-MIN KAIA 291915Z AUTO VRB04KT 10SM CLR 28/13 A3014 3730 39 6100 VRB/04 RMK AO2 T02830133
24044KAIA AIA20160629122010906/29/16 12:20:31  5-MIN KAIA 291920Z AUTO 06006KT 10SM CLR 28/13 A3014 3740 37 6100 060/06 RMK AO2 T02830128
24044KAIA AIA20160629122509906/29/16 12:25:31  5-MIN KAIA 291925Z AUTO 10SM CLR 28/12 A3013 3740 37 6100 M /M RMK AO2 T02780122
24044KAIA AIA20160629123010906/29/16 12:30:31  5-MIN KAIA 291930Z AUTO VRB06KT 10SM CLR 28/12 A3014 3740 36 6100 VRB/06 RMK AO2 T02830122
24044KAIA AIA20160629123510906/29/16 12:35:31  5-MIN KAIA 291935Z AUTO VRB04KT 10SM CLR 29/12 A3014 3740 35 6200 VRB/04 RMK AO2 T02890122
24044KAIA AIA20160629124010906/29/16 12:40:31  5-MIN KAIA 291940Z AUTO VRB03KT 10SM CLR 29/12 A3014 3740 35 6200 VRB/03 RMK AO2 T02890122
24044KAIA AIA20160629124510906/29/16 12:45:31  5-MIN KAIA 291945Z AUTO 14004KT 10SM CLR 28/12 A3013 3740 36 6100 140/04 RMK AO2 T02830122
24044KAIA AIA20160629125010606/29/16 12:50:31  5-MIN KAIA 291950Z AUTO 10SM CLR 29/13 A3013 3740 36 6200 M /M RMK AO2 SLP162 T02890128
24044KAIA AIA20160629125510906/29/16 12:55:31  5-MIN KAIA 291955Z AUTO VRB04KT 10SM CLR 29/13 A3012 3750 36 6200 VRB/04 RMK AO2 T02890128
24044KAIA AIA20160629130010906/29/16 13:00:31  5-MIN KAIA 292000Z AUTO VRB06KT 10SM CLR 29/13 A3012 3750 36 6200 VRB/06 RMK AO2 T02890128
24044KAIA AIA20160629130510906/29/16 13:05:31  5-MIN KAIA 292005Z AUTO 07006KT 10SM CLR 29/12 A3012 3750 35 6200 060/06 RMK AO2 T02890122
24044KAIA AIA20160629131010906/29/16 13:10:31  5-MIN KAIA 292010Z AUTO 04006KT 10SM CLR 29/12 A3012 3750 34 6300 030/06 RMK AO2 T02940122
24044KAIA AIA20160629131509906/29/16 13:15:31  5-MIN KAIA 292015Z AUTO 10SM CLR 29/12 A3011 3760 34 6200 M /M RMK AO2 T02890117
24044KAIA AIA20160629132010906/29/16 13:20:31  5-MIN KAIA 292020Z AUTO 09008KT 10SM CLR 29/12 A3011 3760 34 6300 080/08 RMK AO2 T02940122
24044KAIA AIA20160629132510906/29/16 13:25:31  5-MIN KAIA 292025Z AUTO 07009KT 10SM CLR 29/12 A3011 3760 33 6300 070/09 RMK AO2 T02940117
24044KAIA AIA20160629133010906/29/16 13:30:31  5-MIN KAIA 292030Z AUTO 08005KT 10SM CLR 29/12 A3010 3760 33 6300 070/05 RMK AO2 T02940117
24044KAIA AIA20160629133510906/29/16 13:35:31  5-MIN KAIA 292035Z AUTO 07008KT 10SM CLR 29/12 A3010 3770 33 6300 060/08 RMK AO2 T02940117
24044KAIA AIA20160629134010906/29/16 13:40:31  5-MIN KAIA 292040Z AUTO 10007KT 10SM CLR 29/11 A3010 3770 31 6300 090/07 RMK AO2 T02940111
24044KAIA AIA20160629134510906/29/16 13:45:31  5-MIN KAIA 292045Z AUTO 12008KT 10SM CLR 29/11 A3010 3770 31 6300 110/08 RMK AO2 T02940111
24044KAIA AIA20160629135012206/29/16 13:50:31  5-MIN KAIA 292050Z AUTO 00000KT 10SM CLR 29/11 A3009 3780 30 6300 000/00 RMK AO2 SLP149 T02940106 58001
24044KAIA AIA20160629135509906/29/16 13:55:31  5-MIN KAIA 292055Z AUTO 10SM CLR 29/11 A3009 3780 31 6300 M /M RMK AO2 T02940111
24044KAIA AIA20160629140010906/29/16 14:00:31  5-MIN KAIA 292100Z AUTO 12009KT 10SM CLR 29/13 A3009 3780 35 6300 110/09 RMK AO2 T02940128
24044KAIA AIA20160629140510906/29/16 14:05:31  5-MIN KAIA 292105Z AUTO VRB05KT 10SM CLR 29/12 A3008 3780 35 6200 VRB/05 RMK AO2 T02890122
24044KAIA AIA20160629141010906/29/16 14:10:31  5-MIN KAIA 292110Z AUTO 15009KT 10SM CLR 29/12 A3008 3780 34 6300 140/09 RMK AO2 T02940122
24044KAIA AIA20160629141510906/29/16 14:15:31  5-MIN KAIA 292115Z AUTO 09009KT 10SM CLR 29/12 A3008 3790 33 6300 080/09 RMK AO2 T02940117
24044KAIA AIA20160629142010906/29/16 14:20:31  5-MIN KAIA 292120Z AUTO VRB03KT 10SM CLR 29/12 A3008 3790 34 6300 VRB/03 RMK AO2 T02940122
24044KAIA AIA20160629142510906/29/16 14:25:31  5-MIN KAIA 292125Z AUTO 12009KT 10SM CLR 29/12 A3008 3790 33 6300 110/09 RMK AO2 T02940117
24044KAIA AIA20160629143010906/29/16 14:30:31  5-MIN KAIA 292130Z AUTO 09008KT 10SM CLR 29/11 A3007 3790 31 6300 080/08 RMK AO2 T02940111
24044KAIA AIA20160629143510906/29/16 14:35:31  5-MIN KAIA 292135Z AUTO VRB06KT 10SM CLR 29/11 A3007 3790 30 6300 VRB/06 RMK AO2 T02940106
24044KAIA AIA20160629144010906/29/16 14:40:31  5-MIN KAIA 292140Z AUTO 10006KT 10SM CLR 30/11 A3007 3790 29 6400 090/06 RMK AO2 T03000106
24044KAIA AIA20160629144510906/29/16 14:45:31  5-MIN KAIA 292145Z AUTO VRB04KT 10SM CLR 30/11 A3007 3790 29 6400 VRB/04 RMK AO2 T03000106
24044KAIA AIA20160629145010606/29/16 14:50:31  5-MIN KAIA 292150Z AUTO 10SM CLR 31/12 A3007 3790 30 6400 M /M RMK AO2 SLP143 T03060117
24044KAIA AIA20160629145510906/29/16 14:55:31  5-MIN KAIA 292155Z AUTO 17004KT 10SM CLR 29/11 A3008 3790 31 6300 160/04 RMK AO2 T02940111
24044KAIA AIA20160629150010906/29/16 15:00:31  5-MIN KAIA 292200Z AUTO 13007KT 10SM CLR 29/11 A3008 3790 31 6300 120/07 RMK AO2 T02940111
24044KAIA AIA20160629150510906/29/16 15:05:31  5-MIN KAIA 292205Z AUTO VRB05KT 10SM CLR 30/12 A3007 3790 31 6400 VRB/05 RMK AO2 T03000117
24044KAIA AIA20160629151010906/29/16 15:10:31  5-MIN KAIA 292210Z AUTO 12008KT 10SM CLR 30/11 A3007 3790 30 6400 120/08 RMK AO2 T03000111
24044KAIA AIA20160629151510906/29/16 15:15:31  5-MIN KAIA 292215Z AUTO VRB05KT 10SM CLR 29/11 A3007 3790 30 6300 VRB/05 RMK AO2 T02940106
24044KAIA AIA20160629152010906/29/16 15:20:31  5-MIN KAIA 292220Z AUTO 06006KT 10SM CLR 30/11 A3007 3790 29 6400 050/06 RMK AO2 T03000106
24044KAIA AIA20160629152510906/29/16 15:25:31  5-MIN KAIA 292225Z AUTO 06005KT 10SM CLR 30/10 A3007 3790 28 6400 060/05 RMK AO2 T03000100
24044KAIA AIA20160629153010906/29/16 15:30:31  5-MIN KAIA 292230Z AUTO 08003KT 10SM CLR 30/10 A3008 3790 28 6400 070/03 RMK AO2 T03000100
24044KAIA AIA20160629153510906/29/16 15:35:31  5-MIN KAIA 292235Z AUTO 09005KT 10SM CLR 31/11 A3008 3790 28 6400 090/05 RMK AO2 T03060106
24044KAIA AIA20160629154010906/29/16 15:40:31  5-MIN KAIA 292240Z AUTO 08006KT 10SM CLR 29/11 A3008 3790 30 6300 080/06 RMK AO2 T02940106
24044KAIA AIA20160629154510906/29/16 15:45:31  5-MIN KAIA 292245Z AUTO 09006KT 10SM CLR 28/11 A3007 3790 32 6200 080/06 RMK AO2 T02830106
24044KAIA AIA20160629155011606/29/16 15:50:31  5-MIN KAIA 292250Z AUTO 07006KT 10SM CLR 29/11 A3007 3790 31 6300 060/06 RMK AO2 SLP147 T02890106
24044KAIA AIA20160629155510906/29/16 15:55:31  5-MIN KAIA 292255Z AUTO 07004KT 10SM CLR 29/11 A3008 3790 32 6200 070/04 RMK AO2 T02890111
24044KAIA AIA20160629160010906/29/16 16:00:31  5-MIN KAIA 292300Z AUTO 09004KT 10SM CLR 29/11 A3008 3790 32 6200 080/04 RMK AO2 T02890111
24044KAIA AIA20160629160510906/29/16 16:05:31  5-MIN KAIA 292305Z AUTO 08005KT 10SM CLR 28/11 A3008 3790 32 6200 080/05 RMK AO2 T02830106
24044KAIA AIA20160629161010906/29/16 16:10:31  5-MIN KAIA 292310Z AUTO 09005KT 10SM CLR 29/11 A3008 3790 31 6200 080/05 RMK AO2 T02890106
24044KAIA AIA20160629161510906/29/16 16:15:31  5-MIN KAIA 292315Z AUTO 10006KT 10SM CLR 30/11 A3007 3790 30 6400 090/06 RMK AO2 T03000111
24044KAIA AIA20160629162010906/29/16 16:20:31  5-MIN KAIA 292320Z AUTO 11007KT 10SM CLR 30/11 A3007 3800 29 6400 100/07 RMK AO2 T03000106
24044KAIA AIA20160629162510906/29/16 16:25:31  5-MIN KAIA 292325Z AUTO 15007KT 10SM CLR 29/12 A3007 3800 34 6300 140/07 RMK AO2 T02890117
24044KAIA AIA20160629163010906/29/16 16:30:31  5-MIN KAIA 292330Z AUTO 14007KT 10SM CLR 28/12 A3007 3800 35 6200 130/07 RMK AO2 T02830117
24044KAIA AIA20160629163510906/29/16 16:35:31  5-MIN KAIA 292335Z AUTO 13006KT 10SM CLR 28/12 A3007 3800 36 6200 120/06 RMK AO2 T02830122
24044KAIA AIA20160629164010906/29/16 16:40:31  5-MIN KAIA 292340Z AUTO 14007KT 10SM CLR 28/12 A3007 3800 36 6200 130/07 RMK AO2 T02830122
24044KAIA AIA20160629164510906/29/16 16:45:31  5-MIN KAIA 292345Z AUTO 15005KT 10SM CLR 28/12 A3007 3800 37 6100 140/05 RMK AO2 T02780122
24044KAIA AIA20160629165013406/29/16 16:50:31  5-MIN KAIA 292350Z AUTO 15005KT 10SM CLR 28/13 A3007 3800 37 6200 140/05 RMK AO2 SLP145 T02830128 10306 20261 58019
24044KAIA AIA20160629165510906/29/16 16:55:31  5-MIN KAIA 292355Z AUTO 14005KT 10SM CLR 28/12 A3007 3790 36 6200 130/05 RMK AO2 T02830122
24044KAIA AIA20160629170010906/29/16 17:00:31  5-MIN KAIA 300000Z AUTO 14005KT 10SM CLR 28/13 A3007 3800 37 6200 140/05 RMK AO2 T02830128
24044KAIA AIA20160629170510906/29/16 17:05:31  5-MIN KAIA 300005Z AUTO 14006KT 10SM CLR 28/12 A3007 3800 37 6100 140/06 RMK AO2 T02780122
24044KAIA AIA20160629171010906/29/16 17:10:31  5-MIN KAIA 300010Z AUTO 14004KT 10SM CLR 28/13 A3007 3800 40 6100 140/04 RMK AO2 T02780133
24044KAIA AIA20160629171510906/29/16 17:15:31  5-MIN KAIA 300015Z AUTO 15004KT 10SM CLR 28/14 A3007 3800 42 6100 140/04 RMK AO2 T02780139
24044KAIA AIA20160629172010906/29/16 17:20:31  5-MIN KAIA 300020Z AUTO 14005KT 10SM CLR 28/13 A3007 3800 40 6100 130/05 RMK AO2 T02780133
24044KAIA AIA20160629172510906/29/16 17:25:31  5-MIN KAIA 300025Z AUTO 15005KT 10SM CLR 27/14 A3007 3800 43 6100 140/05 RMK AO2 T02720139
24044KAIA AIA20160629173010906/29/16 17:30:31  5-MIN KAIA 300030Z AUTO 15004KT 10SM CLR 27/14 A3007 3800 45 6100 140/04 RMK AO2 T02720144
24044KAIA AIA20160629173510906/29/16 17:35:31  5-MIN KAIA 300035Z AUTO 14005KT 10SM CLR 27/15 A3006 3800 48 6000 130/05 RMK AO2 T02670150
24044KAIA AIA20160629174010906/29/16 17:40:31  5-MIN KAIA 300040Z AUTO 14005KT 10SM CLR 27/14 A3006 3800 46 6000 130/05 RMK AO2 T02670144
24044KAIA AIA20160629174510906/29/16 17:45:31  5-MIN KAIA 300045Z AUTO 14004KT 10SM CLR 27/14 A3006 3800 46 6000 130/04 RMK AO2 T02670144
24044KAIA AIA20160629175011606/29/16 17:50:31  5-MIN KAIA 300050Z AUTO 12003KT 10SM CLR 27/15 A3006 3810 48 6000 120/03 RMK AO2 SLP139 T02670150
24044KAIA AIA20160629175510906/29/16 17:55:31  5-MIN KAIA 300055Z AUTO 14004KT 10SM CLR 28/15 A3005 3810 43 6200 130/04 RMK AO2 T02830150
24044KAIA AIA20160629180010906/29/16 18:00:31  5-MIN KAIA 300100Z AUTO 14004KT 10SM CLR 28/13 A3005 3820 39 6200 130/04 RMK AO2 T02830133
24044KAIA AIA20160629180510906/29/16 18:05:31  5-MIN KAIA 300105Z AUTO 13004KT 10SM CLR 28/14 A3005 3820 40 6200 120/04 RMK AO2 T02830139
24044KAIA AIA20160629181010906/29/16 18:10:31  5-MIN KAIA 300110Z AUTO 13005KT 10SM CLR 27/13 A3005 3820 40 6100 120/05 RMK AO2 T02720128
24044KAIA AIA20160629181510906/29/16 18:15:31  5-MIN KAIA 300115Z AUTO 13005KT 10SM CLR 27/12 A3004 3820 40 6000 120/05 RMK AO2 T02670122
24044KAIA AIA20160629182010906/29/16 18:20:31  5-MIN KAIA 300120Z AUTO 13006KT 10SM CLR 26/13 A3005 3820 46 5900 120/06 RMK AO2 T02560133
24044KAIA AIA20160629182510906/29/16 18:25:31  5-MIN KAIA 300125Z AUTO 13004KT 10SM CLR 25/14 A3005 3810 49 5900 120/04 RMK AO2 T02500139
24044KAIA AIA20160629183010906/29/16 18:30:31  5-MIN KAIA 300130Z AUTO 14004KT 10SM CLR 25/14 A3005 3810 49 5900 130/04 RMK AO2 T02500139
24044KAIA AIA20160629183510906/29/16 18:35:31  5-MIN KAIA 300135Z AUTO 15006KT 10SM CLR 24/14 A3005 3810 53 5800 140/06 RMK AO2 T02440144
24044KAIA AIA20160629184010906/29/16 18:40:31  5-MIN KAIA 300140Z AUTO 14006KT 10SM CLR 24/15 A3005 3810 55 5800 130/06 RMK AO2 T02440150
24044KAIA AIA20160629184510906/29/16 18:45:31  5-MIN KAIA 300145Z AUTO 15006KT 10SM CLR 25/15 A3005 3810 53 5800 140/06 RMK AO2 T02500150
24044KAIA AIA20160629185011606/29/16 18:50:31  5-MIN KAIA 300150Z AUTO 15006KT 10SM CLR 24/15 A3005 3810 57 5700 140/06 RMK AO2 SLP138 T02390150
24044KAIA AIA20160629185510906/29/16 18:55:31  5-MIN KAIA 300155Z AUTO 15007KT 10SM CLR 24/16 A3006 3810 59 5700 140/07 RMK AO2 T02390156
24044KAIA AIA20160629190010906/29/16 19:00:31  5-MIN KAIA 300200Z AUTO 16006KT 10SM CLR 23/16 A3006 3810 61 5700 160/06 RMK AO2 T02330156
24044KAIA AIA20160629190510906/29/16 19:05:31  5-MIN KAIA 300205Z AUTO 17006KT 10SM CLR 23/16 A3006 3800 65 5600 160/06 RMK AO2 T02280161
24044KAIA AIA20160629191010906/29/16 19:10:31  5-MIN KAIA 300210Z AUTO 17006KT 10SM CLR 23/16 A3006 3800 65 5600 160/06 RMK AO2 T02280161
24044KAIA AIA20160629191510906/29/16 19:15:31  5-MIN KAIA 300215Z AUTO 17008KT 10SM CLR 23/16 A3007 3800 65 5600 160/08 RMK AO2 T02280161
24044KAIA AIA20160629192010906/29/16 19:20:31  5-MIN KAIA 300220Z AUTO 17007KT 10SM CLR 22/16 A3007 3800 68 5500 160/07 RMK AO2 T02220161
24044KAIA AIA20160629192510906/29/16 19:25:31  5-MIN KAIA 300225Z AUTO 17008KT 10SM CLR 22/16 A3007 3800 68 5500 160/08 RMK AO2 T02220161
24044KAIA AIA20160629193010906/29/16 19:30:31  5-MIN KAIA 300230Z AUTO 18007KT 10SM CLR 22/16 A3007 3800 70 5500 170/07 RMK AO2 T02170161
24044KAIA AIA20160629193510906/29/16 19:35:31  5-MIN KAIA 300235Z AUTO 18007KT 10SM CLR 22/17 A3007 3800 73 5500 170/07 RMK AO2 T02170167
24044KAIA AIA20160629194010906/29/16 19:40:31  5-MIN KAIA 300240Z AUTO 18008KT 10SM CLR 22/16 A3007 3790 70 5500 180/08 RMK AO2 T02170161
24044KAIA AIA20160629194510906/29/16 19:45:31  5-MIN KAIA 300245Z AUTO 19008KT 10SM CLR 22/16 A3007 3790 65 5500 180/08 RMK AO2 T02220156
24044KAIA AIA20160629195012206/29/16 19:50:31  5-MIN KAIA 300250Z AUTO 19009KT 10SM CLR 23/15 A3008 3790 61 5600 180/09 RMK AO2 SLP142 T02280150 56005
24044KAIA AIA20160629195510906/29/16 19:55:31  5-MIN KAIA 300255Z AUTO 19009KT 10SM CLR 23/16 A3007 3790 61 5600 180/09 RMK AO2 T02330156
24044KAIA AIA20160629200010906/29/16 20:00:31  5-MIN KAIA 300300Z AUTO 19009KT 10SM CLR 24/16 A3008 3790 59 5700 180/09 RMK AO2 T02390156
24044KAIA AIA20160629200511206/29/16 20:05:31  5-MIN KAIA 300305Z AUTO 19010KT 10SM FEW110 24/16 A3008 3790 59 5700 190/10 RMK AO2 T02390156
24044KAIA AIA20160629201011206/29/16 20:10:31  5-MIN KAIA 300310Z AUTO 21010KT 10SM FEW120 24/16 A3008 3790 59 5700 200/10 RMK AO2 T02390156
24044KAIA AIA20160629201511206/29/16 20:15:31  5-MIN KAIA 300315Z AUTO 21011KT 10SM FEW120 24/16 A3008 3790 59 5700 200/11 RMK AO2 T02390156
24044KAIA AIA20160629202011206/29/16 20:20:31  5-MIN KAIA 300320Z AUTO 22009KT 10SM FEW120 23/16 A3008 3790 61 5600 210/09 RMK AO2 T02330156
24044KAIA AIA20160629202511206/29/16 20:25:31  5-MIN KAIA 300325Z AUTO 22008KT 10SM FEW120 23/16 A3007 3790 63 5600 210/08 RMK AO2 T02280156
24044KAIA AIA20160629203011206/29/16 20:30:31  5-MIN KAIA 300330Z AUTO 23007KT 10SM FEW120 23/15 A3008 3790 61 5600 220/07 RMK AO2 T02280150
24044KAIA AIA20160629203511206/29/16 20:35:31  5-MIN KAIA 300335Z AUTO 23007KT 10SM FEW120 22/14 A3008 3790 61 5500 220/07 RMK AO2 T02220144
24044KAIA AIA20160629204011206/29/16 20:40:31  5-MIN KAIA 300340Z AUTO 23005KT 10SM FEW120 22/14 A3008 3790 63 5500 220/05 RMK AO2 T02170144
24044KAIA AIA20160629204510906/29/16 20:45:31  5-MIN KAIA 300345Z AUTO 23003KT 10SM CLR 22/14 A3008 3790 63 5500 230/03 RMK AO2 T02170144
24044KAIA AIA20160629205011906/29/16 20:50:31  5-MIN KAIA 300350Z AUTO 01003KT 10SM FEW110 21/14 A3009 3780 65 5400 360/03 RMK AO2 SLP147 T02110144
24044KAIA AIA20160629205511206/29/16 20:55:31  5-MIN KAIA 300355Z AUTO 03010KT 10SM SCT110 21/14 A3009 3770 65 5400 020/10 RMK AO2 T02110144
24044KAIA AIA20160629210011906/29/16 21:00:31  5-MIN KAIA 300400Z AUTO 05014KT 10SM SCT110 21/16 A3010 3770 70 5400 050/14 RMK AO2 PRESRR T02110156
24044KAIA AIA20160629210511906/29/16 21:05:31  5-MIN KAIA 300405Z AUTO 06009KT 10SM SCT110 22/14 A3011 3760 63 5400 050/09 RMK AO2 PRESRR T02170144
24044KAIA AIA20160629211011906/29/16 21:10:31  5-MIN KAIA 300410Z AUTO 04014KT 10SM SCT110 22/14 A3012 3750 63 5400 030/14 RMK AO2 PRESRR T02170144
24044KAIA AIA20160629211513706/29/16 21:15:31  5-MIN KAIA 300415Z AUTO 06015G20KT 10SM SCT110 20/14 A3013 3740 67 5200 050/15G20 RMK AO2 LTG DSNT NW PRESRR T02000139
24044KAIA AIA20160629212013006/29/16 21:20:31  5-MIN KAIA 300420Z AUTO 07014G20KT 10SM FEW110 19/13 A3012 3750 67 5200 060/14G20 RMK AO2 LTG DSNT NW T01940133
24044KAIA AIA20160629212513006/29/16 21:25:31  5-MIN KAIA 300425Z AUTO 07015G20KT 10SM FEW110 19/13 A3012 3750 67 5100 070/15G20 RMK AO2 LTG DSNT NW T01890128
24044KAIA AIA20160629213013606/29/16 21:30:31  5-MIN KAIA 300430Z AUTO 08015G23KT 10SM FEW110 18/13 A3012 3750 70 5000 070/15G23 RMK AO2 LTG DSNT W AND NW T01830128
24044KAIA AIA20160629213512906/29/16 21:35:31  5-MIN KAIA 300435Z AUTO 07015G23KT 10SM CLR 18/13 A3013 3740 70 5000 060/15G23 RMK AO2 LTG DSNT W-NE T01830128
24044KAIA AIA20160629214012906/29/16 21:40:31  5-MIN KAIA 300440Z AUTO 07018G24KT 10SM CLR 18/13 A3014 3730 70 5000 070/18G24 RMK AO2 LTG DSNT W-NE T01830128
24044KAIA AIA20160629214513006/29/16 21:45:31  5-MIN KAIA 300445Z AUTO 08013G24KT 10SM CLR 18/12 A3014 3730 67 5000 070/13G24 RMK AO2 LTG DSNT ALQDS T01830122
24044KAIA AIA20160629215013706/29/16 21:50:31  5-MIN KAIA 300450Z AUTO 07015G20KT 10SM CLR 18/12 A3014 3730 69 4900 060/15G20 RMK AO2 LTG DSNT ALQDS SLP167 T01780122
24044KAIA AIA20160629215512706/29/16 21:55:31  5-MIN KAIA 300455Z AUTO 07014KT 10SM SCT045 18/12 A3014 3730 67 5000 060/14 RMK AO2 LTG DSNT ALQDS T01830122
24044KAIA AIA20160629220012706/29/16 22:00:31  5-MIN KAIA 300500Z AUTO 07012KT 10SM BKN047 18/12 A3015 3720 67 5000 060/12 RMK AO2 LTG DSNT ALQDS T01830122
24044KAIA AIA20160629220513306/29/16 22:05:31  5-MIN KAIA 300505Z AUTO 08015G20KT 10SM BKN047 18/12 A3015 3720 67 5000 070/15G20 RMK AO2 LTG DSNT ALQDS T01830122
24044KAIA AIA20160629221013306/29/16 22:10:31  5-MIN KAIA 300510Z AUTO 06012G20KT 10SM BKN047 18/12 A3015 3720 67 5000 050/12G20 RMK AO2 LTG DSNT ALQDS T01830122
24044KAIA AIA20160629221513206/29/16 22:15:31  5-MIN KAIA 300515Z AUTO 10015KT 10SM VCTS BKN047 18/12 A3014 3730 67 5000 090/15 RMK AO2 LTG DSNT ALQDS T01830122
24044KAIA AIA20160629222014606/29/16 22:20:31  5-MIN KAIA 300520Z AUTO 10012KT 10SM VCTS BKN048 BKN055 OVC075 18/12 A3014 3730 67 5000 090/12 RMK AO2 LTG DSNT ALQDS T01830122
24044KAIA AIA20160629222517906/29/16 22:25:31  5-MIN KAIA 300525Z AUTO 34011G22KT 300V090 10SM TS BKN048 BKN070 OVC095 18/12 A3020 3680 67 4900 330/11G22 290V080 RMK AO2 LTG DSNT ALQDS TSB21 PRESRR T01830122
24044KAIA AIA20160629223017406/29/16 22:30:31  5-MIN KAIA 300530Z AUTO 31020G27KT 10SM TS FEW027 BKN048 OVC090 18/13 A3020 3680 70 4900 300/20G27 RMK AO2 PK WND 33027/0530 LTG DSNT ALQDS TSB21 T01830128
24044KAIA AIA20160629223520506/29/16 22:35:31  5-MIN KAIA 300535Z AUTO 02009G32KT 320V090 10SM -TSRA FEW027 BKN050 OVC090 19/12 A3021 3670 65 5000 010/09G32 310V080 RMK AO2 PK WND 31032/0532 LTG DSNT ALQDS RAB31 TSB21 P0000 T01890122
24044KAIA AIA20160629224018806/29/16 22:40:31  5-MIN KAIA 300540Z AUTO 31013G32KT 9SM -TSRA SCT031 BKN050 OVC090 18/13 A3021 3670 75 4900 300/13G32 RMK AO2 PK WND 31032/0532 LTG DSNT ALQDS RAB31 TSB21 P0001 T01780133
24044KAIA AIA20160629224518806/29/16 22:45:31  5-MIN KAIA 300545Z AUTO 35011G24KT 3SM +TSRA FEW033 BKN055 OVC075 17/14 A3020 3670 83 4800 340/11G24 RMK AO2 PK WND 31032/0532 LTG DSNT ALQDS RAB31 TSB21 P0008 T01670139
24044KAIA AIA20160629225017906/29/16 22:50:31  5-MIN KAIA 300550Z AUTO 03007KT 2 1/2SM +TSRA BR FEW031 BKN041 OVC070 16/14 A3019 3690 86 4700 020/07 RMK AO2 PK WND 31032/0532 LTG DSNT ALQDS RAB31 TSB21 P0014
24044KAIA AIA20160629225515706/29/16 22:55:31  5-MIN KAIA 300555Z AUTO 02008KT 2 1/2SM +TSRA BR FEW031 BKN045 OVC065 16/14 A3019 3690 93 4600 010/08 RMK AO2 LTG DSNT N-E P0002 T01560144
24044KAIA AIA20160629230015306/29/16 23:00:31  5-MIN KAIA 300600Z AUTO 02008KT 3SM TSRA BR FEW033 BKN047 OVC080 16/14 A3019 3690 93 4600 020/08 RMK AO2 LTG DSNT N-SE P0004 T01560144
24044KAIA AIA20160629230515306/29/16 23:05:31  5-MIN KAIA 300605Z AUTO 34008KT 5SM TSRA BR FEW035 BKN047 OVC095 16/14 A3020 3680 90 4700 330/08 RMK AO2 LTG DSNT N-SE P0005 T01610144
24044KAIA AIA20160629231015206/29/16 23:10:31  5-MIN KAIA 300610Z AUTO 36007KT 7SM -TSRA SCT044 BKN080 OVC095 16/14 A3019 3680 90 4700 350/07 RMK AO2 LTG DSNT ALQDS P0006 T01610144
24044KAIA AIA20160629231515206/29/16 23:15:31  5-MIN KAIA 300615Z AUTO 02009KT 8SM -TSRA FEW046 BKN080 OVC100 16/14 A3019 3680 90 4700 010/09 RMK AO2 LTG DSNT ALQDS P0006 T01610144
24044KAIA AIA20160629232016106/29/16 23:20:31  5-MIN KAIA 300620Z AUTO 35007KT 9SM VCTS -RA FEW055 SCT070 OVC090 16/14 A3019 3690 90 4700 340/07 RMK AO2 LTG DSNT ALQDS TSE20 P0007 T01610144
24044KAIA AIA20160629232515906/29/16 23:25:31  5-MIN KAIA 300625Z AUTO 34004KT 8SM VCTS RA BKN080 OVC100 16/15 A3017 3700 93 4700 330/04 RMK AO2 LTG DSNT NE-S TSE20 PRESFR P0008 T01610150
24044KAIA AIA20160629233014606/29/16 23:30:31  5-MIN KAIA 300630Z AUTO 31006KT 8SM VCTS -RA OVC090 16/15 A3018 3690 93 4700 300/06 RMK AO2 LTG DSNT NE-S TSE20 P0009 T01610150
24044KAIA AIA20160629233515206/29/16 23:35:31  5-MIN KAIA 300635Z AUTO 33006KT 7SM VCTS RA FEW070 OVC090 16/14 A3018 3700 93 4700 320/06 RMK AO2 LTG DSNT NE-S TSE20 P0010 T01560144
24044KAIA AIA20160629234015006/29/16 23:40:31  5-MIN KAIA 300640Z AUTO VRB05KT 5SM RA BR SCT070 OVC090 16/14 A3018 3700 93 4600 VRB/05 RMK AO2 LTG DSNT NE-S TSE20 P0012 T01560144
24044KAIA AIA20160629234515806/29/16 23:45:31  5-MIN KAIA 300645Z AUTO 06006KT 5SM +RA BR FEW060 SCT070 OVC090 16/14 A3017 3700 93 4700 050/06 RMK AO2 LTG DSNT NE-S TSE20 P0015 T01560144
24044KAIA AIA20160629235017506/29/16 23:50:31  5-MIN KAIA 300650Z AUTO 02006KT 6SM -RA BR FEW060 FEW070 OVC095 16/15 A3016 3710 96 4700 010/06 RMK AO2 LTG DSNT NE-S TSE20 SLP172 P0015 T01560150 403060100
24044KAIA AIA20160629235515806/29/16 23:55:31  5-MIN KAIA 300655Z AUTO 04008KT 10SM -RA FEW065 FEW080 OVC100 16/15 A3015 3720 96 4700 030/08 RMK AO2 LTG DSNT NE-SE PRESFR P0000 T01560150
24044KAIA AIA20160630000016106/30/16 00:00:31  5-MIN KAIA 300700Z AUTO 07009KT 10SM -RA FEW065 FEW080 OVC100 16/14 A3013 3740 93 4700 060/09 RMK AO2 LTG DSNT E AND SE PRESFR P0001 T01560144
24044KAIA AIA20160630000516106/30/16 00:05:31  5-MIN KAIA 300705Z AUTO 08008KT 10SM -RA FEW060 FEW080 OVC100 16/14 A3011 3760 93 4700 070/08 RMK AO2 LTG DSNT E AND SE PRESFR P0001 T01560144
24044KAIA AIA20160630001015406/30/16 00:10:31  5-MIN KAIA 300710Z AUTO 07008KT 10SM -RA FEW060 FEW080 OVC100 16/14 A3012 3750 93 4700 060/08 RMK AO2 LTG DSNT E AND SE P0001 T01560144
24044KAIA AIA20160630001514906/30/16 00:15:31  5-MIN KAIA 300715Z AUTO 07006KT 10SM FEW080 BKN100 16/14 A3012 3750 93 4700 060/06 RMK AO2 LTG DSNT E AND SE RAE11 P0001 T01560144
24044KAIA AIA20160630002014906/30/16 00:20:31  5-MIN KAIA 300720Z AUTO 08006KT 10SM FEW080 BKN100 16/14 A3012 3750 93 4700 070/06 RMK AO2 LTG DSNT E AND SE RAE11 P0001 T01560144
24044KAIA AIA20160630002514306/30/16 00:25:31  5-MIN KAIA 300725Z AUTO 13010KT 10SM FEW080 SCT100 16/14 A3011 3760 93 4700 120/10 RMK AO2 LTG DSNT SE RAE11 P0001 T01560144
24044KAIA AIA20160630003014306/30/16 00:30:31  5-MIN KAIA 300730Z AUTO 13010KT 10SM FEW080 SCT110 16/14 A3012 3750 93 4700 120/10 RMK AO2 LTG DSNT SE RAE11 P0001 T01560144
24044KAIA AIA20160630003514306/30/16 00:35:31  5-MIN KAIA 300735Z AUTO 13011KT 10SM FEW080 BKN110 16/14 A3012 3750 93 4700 120/11 RMK AO2 LTG DSNT SE RAE11 P0001 T01560144
24044KAIA AIA20160630004012406/30/16 00:40:31  5-MIN KAIA 300740Z AUTO 13011KT 10SM BKN110 16/14 A3012 3750 93 4700 130/11 RMK AO2 RAE11 P0001 T01560144
24044KAIA AIA20160630004512406/30/16 00:45:31  5-MIN KAIA 300745Z AUTO 13011KT 10SM BKN110 16/14 A3012 3750 93 4700 130/11 RMK AO2 RAE11 P0001 T01560144
24044KAIA AIA20160630005013806/30/16 00:50:31  5-MIN KAIA 300750Z AUTO 13012KT 10SM FEW070 BKN110 16/14 A3012 3750 93 4700 120/12 RMK AO2 RAE11 SLP158 P0001 T01560144
24044KAIA AIA20160630005511906/30/16 00:55:31  5-MIN KAIA 300755Z AUTO 13013KT 10SM FEW070 OVC110 16/14 A3010 3770 93 4700 120/13 RMK AO2 T01560144
24044KAIA AIA20160630010011906/30/16 01:00:31  5-MIN KAIA 300800Z AUTO 14014KT 10SM OVC110 16/14 A3010 3770 93 4700 130/14 RMK AO2 PRESFR T01560144
24044KAIA AIA20160630010511906/30/16 01:05:31  5-MIN KAIA 300805Z AUTO 12009KT 10SM FEW065 BKN110 16/14 A3011 3760 93 4700 110/09 RMK AO2 T01560144
24044KAIA AIA20160630011011906/30/16 01:10:31  5-MIN KAIA 300810Z AUTO 07004KT 10SM FEW065 BKN100 16/14 A3012 3750 93 4700 060/04 RMK AO2 T01560144
24044KAIA AIA20160630011511206/30/16 01:15:31  5-MIN KAIA 300815Z AUTO 09005KT 10SM SCT110 16/14 A3012 3750 93 4700 080/05 RMK AO2 T01560144
24044KAIA AIA20160630012011206/30/16 01:20:31  5-MIN KAIA 300820Z AUTO 09004KT 10SM SCT110 16/14 A3013 3740 93 4700 090/04 RMK AO2 T01560144
24044KAIA AIA20160630012511206/30/16 01:25:31  5-MIN KAIA 300825Z AUTO 10004KT 10SM FEW110 16/14 A3013 3740 93 4700 090/04 RMK AO2 T01560144
24044KAIA AIA20160630013011206/30/16 01:30:31  5-MIN KAIA 300830Z AUTO 12003KT 10SM FEW120 15/14 A3013 3740 96 4600 110/03 RMK AO2 T01500144
24044KAIA AIA20160630013510906/30/16 01:35:31  5-MIN KAIA 300835Z AUTO 12005KT 10SM CLR 15/14 A3012 3750 93 4700 120/05 RMK AO2 T01500139
24044KAIA AIA20160630014010906/30/16 01:40:31  5-MIN KAIA 300840Z AUTO 11006KT 10SM CLR 15/14 A3012 3750 93 4700 110/06 RMK AO2 T01500139
24044KAIA AIA20160630014510906/30/16 01:45:31  5-MIN KAIA 300845Z AUTO 00000KT 10SM CLR 15/14 A3012 3750 93 4700 000/00 RMK AO2 T01500139
24044KAIA AIA20160630015012806/30/16 01:50:31  5-MIN KAIA 300850Z AUTO 00000KT 10SM CLR 15/14 A3012 3750 93 4700 000/00 RMK AO2 SLP156 60016 T01500139 53034
24044KAIA AIA20160630015510906/30/16 01:55:31  5-MIN KAIA 300855Z AUTO 00000KT 10SM CLR 15/14 A3012 3750 93 4700 000/00 RMK AO2 T01500139
24044KAIA AIA20160630020010906/30/16 02:00:31  5-MIN KAIA 300900Z AUTO 00000KT 10SM CLR 15/14 A3012 3750 93 4700 000/00 RMK AO2 T01500139
24044KAIA AIA20160630020510906/30/16 02:05:31  5-MIN KAIA 300905Z AUTO 00000KT 10SM CLR 14/14 A3012 3750 96 4600 000/00 RMK AO2 T01440139
24044KAIA AIA20160630021010906/30/16 02:10:31  5-MIN KAIA 300910Z AUTO 00000KT 10SM CLR 14/13 A3012 3750 96 4500 000/00 RMK AO2 T01390133
24044KAIA AIA20160630021510906/30/16 02:15:31  5-MIN KAIA 300915Z AUTO 00000KT 10SM CLR 14/13 A3012 3750 96 4500 000/00 RMK AO2 T01390133
24044KAIA AIA20160630022010906/30/16 02:20:31  5-MIN KAIA 300920Z AUTO 00000KT 10SM CLR 14/14 A3012 3750 96 4600 000/00 RMK AO2 T01440139
24044KAIA AIA20160630022511006/30/16 02:25:31  5-MIN KAIA 300925Z AUTO 00000KT 10SM CLR 14/14 A3012 3750 100 4500 000/00 RMK AO2 T01390139
24044KAIA AIA20160630023010906/30/16 02:30:31  5-MIN KAIA 300930Z AUTO 26003KT 10SM CLR 14/13 A3012 3750 96 4500 260/03 RMK AO2 T01390133
24044KAIA AIA20160630023510906/30/16 02:35:31  5-MIN KAIA 300935Z AUTO 25004KT 10SM CLR 13/13 A3011 3750 96 4500 240/04 RMK AO2 T01330128
24044KAIA AIA20160630024011006/30/16 02:40:31  5-MIN KAIA 300940Z AUTO 25004KT 10SM CLR 13/13 A3011 3760 100 4400 240/04 RMK AO2 T01280128
24044KAIA AIA20160630024510906/30/16 02:45:31  5-MIN KAIA 300945Z AUTO 26005KT 10SM CLR 13/12 A3011 3760 96 4400 250/05 RMK AO2 T01280122
24044KAIA AIA20160630025011706/30/16 02:50:31  5-MIN KAIA 300950Z AUTO 25006KT 10SM CLR 12/12 A3011 3760 100 4300 240/06 RMK AO2 SLP155 T01220122
24044KAIA AIA20160630025510906/30/16 02:55:31  5-MIN KAIA 300955Z AUTO 25006KT 10SM CLR 12/12 A3011 3760 96 4300 240/06 RMK AO2 T01220117
24044KAIA AIA20160630030010906/30/16 03:00:31  5-MIN KAIA 301000Z AUTO 25007KT 10SM CLR 12/12 A3011 3760 96 4300 250/07 RMK AO2 T01220117
24044KAIA AIA20160630030510906/30/16 03:05:31  5-MIN KAIA 301005Z AUTO 26006KT 10SM CLR 12/12 A3011 3760 96 4300 250/06 RMK AO2 T01220117
24044KAIA AIA20160630031010906/30/16 03:10:31  5-MIN KAIA 301010Z AUTO 25005KT 10SM CLR 12/12 A3011 3760 96 4300 240/05 RMK AO2 T01220117
24044KAIA AIA20160630031510906/30/16 03:15:31  5-MIN KAIA 301015Z AUTO 30003KT 10SM CLR 12/12 A3011 3750 96 4300 290/03 RMK AO2 T01220117
24044KAIA AIA20160630032010906/30/16 03:20:31  5-MIN KAIA 301020Z AUTO 01005KT 10SM CLR 13/12 A3012 3750 96 4400 360/05 RMK AO2 T01280122
24044KAIA AIA20160630032510906/30/16 03:25:31  5-MIN KAIA 301025Z AUTO 32005KT 10SM CLR 13/13 A3013 3740 96 4500 310/05 RMK AO2 T01330128
24044KAIA AIA20160630033010906/30/16 03:30:31  5-MIN KAIA 301030Z AUTO 34003KT 10SM CLR 13/13 A3013 3740 96 4500 330/03 RMK AO2 T01330128
24044KAIA AIA20160630033510906/30/16 03:35:31  5-MIN KAIA 301035Z AUTO 33004KT 10SM CLR 13/13 A3013 3740 96 4400 320/04 RMK AO2 T01330128
24044KAIA AIA20160630034010906/30/16 03:40:31  5-MIN KAIA 301040Z AUTO 34006KT 10SM CLR 13/13 A3013 3740 96 4400 330/06 RMK AO2 T01330128
24044KAIA AIA20160630034510906/30/16 03:45:31  5-MIN KAIA 301045Z AUTO 35004KT 10SM CLR 13/13 A3014 3730 96 4400 340/04 RMK AO2 T01330128
24044KAIA AIA20160630035011606/30/16 03:50:31  5-MIN KAIA 301050Z AUTO 01005KT 10SM CLR 13/13 A3014 3730 96 4400 010/05 RMK AO2 SLP165 T01330128
24044KAIA AIA20160630035510906/30/16 03:55:31  5-MIN KAIA 301055Z AUTO 35004KT 10SM CLR 13/13 A3014 3730 96 4400 350/04 RMK AO2 T01330128
24044KAIA AIA20160630040010906/30/16 04:00:31  5-MIN KAIA 301100Z AUTO 00000KT 10SM CLR 13/13 A3014 3730 96 4400 000/00 RMK AO2 T01330128
24044KAIA AIA20160630040510906/30/16 04:05:31  5-MIN KAIA 301105Z AUTO 36003KT 10SM CLR 13/13 A3014 3730 96 4400 360/03 RMK AO2 T01330128
24044KAIA AIA20160630041010906/30/16 04:10:31  5-MIN KAIA 301110Z AUTO 36004KT 10SM CLR 13/13 A3014 3730 96 4400 350/04 RMK AO2 T01330128
24044KAIA AIA20160630041510906/30/16 04:15:31  5-MIN KAIA 301115Z AUTO 35004KT 10SM CLR 13/13 A3015 3730 96 4400 340/04 RMK AO2 T01330128
24044KAIA AIA20160630042010906/30/16 04:20:31  5-MIN KAIA 301120Z AUTO 34004KT 10SM CLR 13/13 A3015 3720 96 4400 330/04 RMK AO2 T01330128
24044KAIA AIA20160630042511006/30/16 04:25:31  5-MIN KAIA 301125Z AUTO 34005KT 10SM CLR 13/13 A3015 3720 100 4400 330/05 RMK AO2 T01280128
24044KAIA AIA20160630043010906/30/16 04:30:31  5-MIN KAIA 301130Z AUTO 33004KT 10SM CLR 13/13 A3016 3720 96 4400 330/04 RMK AO2 T01330128
24044KAIA AIA20160630043510906/30/16 04:35:31  5-MIN KAIA 301135Z AUTO 34005KT 10SM CLR 13/13 A3016 3720 96 4400 330/05 RMK AO2 T01330128
24044KAIA AIA20160630044010906/30/16 04:40:31  5-MIN KAIA 301140Z AUTO 34004KT 10SM CLR 13/13 A3016 3720 96 4400 330/04 RMK AO2 T01330128
24044KAIA AIA20160630044510906/30/16 04:45:31  5-MIN KAIA 301145Z AUTO 00000KT 10SM CLR 14/13 A3016 3710 93 4500 000/00 RMK AO2 T01390128
24044KAIA AIA20160630045014606/30/16 04:50:31  5-MIN KAIA 301150Z AUTO 01003KT 10SM CLR 14/13 A3016 3710 96 4500 360/03 RMK AO2 SLP173 60016 70033 T01390133 10161 20122 55021
24044KAIA AIA20160630045510906/30/16 04:55:31  5-MIN KAIA 301155Z AUTO 36004KT 10SM CLR 14/13 A3016 3710 96 4500 350/04 RMK AO2 T01390133
24044KAIA AIA20160630050010906/30/16 05:00:31  5-MIN KAIA 301200Z AUTO 00000KT 10SM CLR 14/13 A3016 3710 96 4500 000/00 RMK AO2 T01390133
24044KAIA AIA20160630050510906/30/16 05:05:31  5-MIN KAIA 301205Z AUTO 00000KT 10SM CLR 14/13 A3017 3710 96 4500 000/00 RMK AO2 T01390133
24044KAIA AIA20160630051010906/30/16 05:10:31  5-MIN KAIA 301210Z AUTO 34004KT 10SM CLR 14/13 A3017 3710 96 4500 330/04 RMK AO2 T01390133
24044KAIA AIA20160630051510906/30/16 05:15:31  5-MIN KAIA 301215Z AUTO 33004KT 10SM CLR 14/13 A3016 3710 93 4500 330/04 RMK AO2 T01440133
24044KAIA AIA20160630052010906/30/16 05:20:31  5-MIN KAIA 301220Z AUTO 00000KT 10SM CLR 15/14 A3016 3710 93 4600 000/00 RMK AO2 T01500139
24044KAIA AIA20160630052510906/30/16 05:25:31  5-MIN KAIA 301225Z AUTO 00000KT 10SM CLR 15/14 A3016 3710 93 4600 000/00 RMK AO2 T01500139
24044KAIA AIA20160630053010906/30/16 05:30:31  5-MIN KAIA 301230Z AUTO 00000KT 10SM CLR 15/14 A3016 3710 93 4600 000/00 RMK AO2 T01500139
24044KAIA AIA20160630053510906/30/16 05:35:31  5-MIN KAIA 301235Z AUTO 00000KT 10SM CLR 15/14 A3016 3710 96 4600 000/00 RMK AO2 T01500144
24044KAIA AIA20160630054010906/30/16 05:40:31  5-MIN KAIA 301240Z AUTO 00000KT 10SM CLR 15/14 A3016 3710 96 4600 000/00 RMK AO2 T01500144
24044KAIA AIA20160630054510906/30/16 05:45:31  5-MIN KAIA 301245Z AUTO 00000KT 10SM CLR 15/14 A3017 3710 96 4600 000/00 RMK AO2 T01500144
24044KAIA AIA20160630055011606/30/16 05:50:31  5-MIN KAIA 301250Z AUTO 24003KT 10SM CLR 16/14 A3017 3710 93 4700 230/03 RMK AO2 SLP175 T01560144
24044KAIA AIA20160630055510906/30/16 05:55:31  5-MIN KAIA 301255Z AUTO 00000KT 10SM CLR 16/14 A3017 3710 93 4700 000/00 RMK AO2 T01560144
24044KAIA AIA20160630060010906/30/16 06:00:31  5-MIN KAIA 301300Z AUTO 00000KT 10SM CLR 16/14 A3017 3700 93 4700 000/00 RMK AO2 T01560144
24044KAIA AIA20160630060510906/30/16 06:05:31  5-MIN KAIA 301305Z AUTO 00000KT 10SM CLR 16/15 A3017 3700 93 4700 000/00 RMK AO2 T01610150
24044KAIA AIA20160630061010906/30/16 06:10:31  5-MIN KAIA 301310Z AUTO 00000KT 10SM CLR 16/15 A3017 3700 93 4700 000/00 RMK AO2 T01610150
24044KAIA AIA20160630061510906/30/16 06:15:31  5-MIN KAIA 301315Z AUTO 34003KT 10SM CLR 17/15 A3017 3700 90 4800 330/03 RMK AO2 T01670150
24044KAIA AIA20160630062010906/30/16 06:20:31  5-MIN KAIA 301320Z AUTO 32003KT 10SM CLR 17/14 A3018 3700 86 4800 310/03 RMK AO2 T01670144
24044KAIA AIA20160630062510906/30/16 06:25:31  5-MIN KAIA 301325Z AUTO 35006KT 10SM CLR 17/15 A3018 3700 87 4800 340/06 RMK AO2 T01720150
24044KAIA AIA20160630063010906/30/16 06:30:31  5-MIN KAIA 301330Z AUTO 34005KT 10SM CLR 17/15 A3018 3700 87 4800 330/05 RMK AO2 T01720150
24044KAIA AIA20160630063511206/30/16 06:35:31  5-MIN KAIA 301335Z AUTO 36005KT 10SM FEW010 17/15 A3018 3690 87 4800 350/05 RMK AO2 T01720150
24044KAIA AIA20160630064011206/30/16 06:40:31  5-MIN KAIA 301340Z AUTO 33006KT 10SM SCT010 17/15 A3018 3700 87 4800 320/06 RMK AO2 T01720150
24044KAIA AIA20160630064511206/30/16 06:45:31  5-MIN KAIA 301345Z AUTO 32005KT 10SM SCT010 17/15 A3018 3690 87 4800 310/05 RMK AO2 T01720150
24044KAIA AIA20160630065011906/30/16 06:50:31  5-MIN KAIA 301350Z AUTO 34007KT 10SM FEW010 17/14 A3018 3690 83 4800 330/07 RMK AO2 SLP182 T01720144
24044KAIA AIA20160630065511206/30/16 06:55:31  5-MIN KAIA 301355Z AUTO 36004KT 10SM FEW010 18/15 A3018 3690 83 4900 350/04 RMK AO2 T01780150
24044KAIA AIA20160630070011206/30/16 07:00:31  5-MIN KAIA 301400Z AUTO 32003KT 10SM FEW010 18/15 A3018 3690 83 4900 310/03 RMK AO2 T01780150
24044KAIA AIA20160630070511206/30/16 07:05:31  5-MIN KAIA 301405Z AUTO 34006KT 10SM FEW010 18/15 A3018 3690 81 5000 330/06 RMK AO2 T01830150
24044KAIA AIA20160630071010906/30/16 07:10:31  5-MIN KAIA 301410Z AUTO 32004KT 10SM CLR 18/14 A3018 3690 78 5000 310/04 RMK AO2 T01830144
24044KAIA AIA20160630071510906/30/16 07:15:31  5-MIN KAIA 301415Z AUTO VRB04KT 10SM CLR 18/15 A3019 3690 81 5000 VRB/04 RMK AO2 T01830150
24044KAIA AIA20160630072010906/30/16 07:20:31  5-MIN KAIA 301420Z AUTO 34005KT 10SM CLR 18/15 A3019 3690 81 5000 330/05 RMK AO2 T01830150
24044KAIA AIA20160630072510906/30/16 07:25:31  5-MIN KAIA 301425Z AUTO VRB04KT 10SM CLR 18/15 A3019 3680 81 5000 VRB/04 RMK AO2 T01830150
24044KAIA AIA20160630073011206/30/16 07:30:31  5-MIN KAIA 301430Z AUTO 34004KT 10SM FEW015 19/15 A3019 3680 78 5000 340/04 RMK AO2 T01890150
24044KAIA AIA20160630073511206/30/16 07:35:31  5-MIN KAIA 301435Z AUTO 32004KT 10SM FEW015 19/15 A3019 3690 78 5000 310/04 RMK AO2 T01890150
24044KAIA AIA20160630074011206/30/16 07:40:31  5-MIN KAIA 301440Z AUTO 35005KT 10SM FEW015 19/15 A3019 3680 78 5000 340/05 RMK AO2 T01890150
24044KAIA AIA20160630074511206/30/16 07:45:31  5-MIN KAIA 301445Z AUTO 32006KT 10SM FEW015 19/15 A3020 3680 75 5100 310/06 RMK AO2 T01940150
24044KAIA AIA20160630075012506/30/16 07:50:31  5-MIN KAIA 301450Z AUTO 33004KT 10SM FEW015 19/15 A3020 3680 78 5000 320/04 RMK AO2 SLP185 T01890150 53014
24044KAIA AIA20160630075511206/30/16 07:55:31  5-MIN KAIA 301455Z AUTO 34007KT 10SM FEW015 19/16 A3020 3680 78 5100 340/07 RMK AO2 T01940156
24044KAIA AIA20160630080011206/30/16 08:00:31  5-MIN KAIA 301500Z AUTO 34007KT 10SM FEW015 19/16 A3019 3680 78 5100 330/07 RMK AO2 T01940156
24044KAIA AIA20160630080511206/30/16 08:05:31  5-MIN KAIA 301505Z AUTO 32007KT 10SM FEW015 20/15 A3019 3680 72 5100 310/07 RMK AO2 T02000150
24044KAIA AIA20160630081011206/30/16 08:10:31  5-MIN KAIA 301510Z AUTO 33008KT 10SM FEW015 20/15 A3019 3680 72 5100 320/08 RMK AO2 T02000150
24044KAIA AIA20160630081511206/30/16 08:15:31  5-MIN KAIA 301515Z AUTO 34009KT 10SM FEW015 20/15 A3019 3680 72 5100 330/09 RMK AO2 T02000150
24044KAIA AIA20160630082010906/30/16 08:20:31  5-MIN KAIA 301520Z AUTO 33009KT 10SM CLR 21/15 A3019 3680 70 5200 320/09 RMK AO2 T02060150
24044KAIA AIA20160630082510906/30/16 08:25:31  5-MIN KAIA 301525Z AUTO 35008KT 10SM CLR 21/16 A3019 3680 73 5200 340/08 RMK AO2 T02060156
24044KAIA AIA20160630083010906/30/16 08:30:31  5-MIN KAIA 301530Z AUTO 35007KT 10SM CLR 20/15 A3019 3690 72 5100 340/07 RMK AO2 T02000150
24044KAIA AIA20160630083510906/30/16 08:35:31  5-MIN KAIA 301535Z AUTO 01006KT 10SM CLR 20/16 A3019 3690 75 5100 360/06 RMK AO2 T02000156
24044KAIA AIA20160630084010906/30/16 08:40:31  5-MIN KAIA 301540Z AUTO 34008KT 10SM CLR 21/15 A3019 3690 70 5200 330/08 RMK AO2 T02060150
24044KAIA AIA20160630084510906/30/16 08:45:31  5-MIN KAIA 301545Z AUTO 01008KT 10SM CLR 21/16 A3019 3690 70 5300 360/08 RMK AO2 T02110156
24044KAIA AIA20160630085011606/30/16 08:50:31  5-MIN KAIA 301550Z AUTO 35008KT 10SM CLR 22/15 A3019 3690 65 5300 350/08 RMK AO2 SLP182 T02170150
24044KAIA AIA20160630085510906/30/16 08:55:31  5-MIN KAIA 301555Z AUTO 35006KT 10SM CLR 21/15 A3019 3690 68 5300 340/06 RMK AO2 T02110150
24044KAIA AIA20160630090010906/30/16 09:00:31  5-MIN KAIA 301600Z AUTO 36007KT 10SM CLR 22/15 A3019 3690 65 5300 360/07 RMK AO2 T02170150
24044KAIA AIA20160630090511206/30/16 09:05:31  5-MIN KAIA 301605Z AUTO 35010KT 10SM FEW022 21/15 A3019 3690 68 5300 340/10 RMK AO2 T02110150
24044KAIA AIA20160630091011206/30/16 09:10:31  5-MIN KAIA 301610Z AUTO 35009KT 10SM FEW022 22/15 A3019 3680 65 5300 340/09 RMK AO2 T02170150
24044KAIA AIA20160630091510906/30/16 09:15:31  5-MIN KAIA 301615Z AUTO 36007KT 10SM CLR 22/15 A3019 3690 65 5300 360/07 RMK AO2 T02170150
24044KAIA AIA20160630092010906/30/16 09:20:31  5-MIN KAIA 301620Z AUTO 33009KT 10SM CLR 22/15 A3019 3690 65 5300 320/09 RMK AO2 T02170150
24044KAIA AIA20160630092510906/30/16 09:25:31  5-MIN KAIA 301625Z AUTO 01004KT 10SM CLR 22/15 A3019 3690 63 5400 360/04 RMK AO2 T02220150
24044KAIA AIA20160630093010906/30/16 09:30:31  5-MIN KAIA 301630Z AUTO 36007KT 10SM CLR 23/15 A3019 3690 61 5500 350/07 RMK AO2 T02280150
24044KAIA AIA20160630093510906/30/16 09:35:31  5-MIN KAIA 301635Z AUTO 01007KT 10SM CLR 23/15 A3019 3690 61 5500 360/07 RMK AO2 T02280150
24044KAIA AIA20160630094010906/30/16 09:40:31  5-MIN KAIA 301640Z AUTO VRB05KT 10SM CLR 23/15 A3019 3690 59 5500 VRB/05 RMK AO2 T02330150
24044KAIA AIA20160630094510906/30/16 09:45:31  5-MIN KAIA 301645Z AUTO 02007KT 10SM CLR 23/15 A3019 3690 59 5500 020/07 RMK AO2 T02330150
24044KAIA AIA20160630095011606/30/16 09:50:31  5-MIN KAIA 301650Z AUTO 01008KT 10SM CLR 23/14 A3019 3690 59 5500 360/08 RMK AO2 SLP184 T02280144
24044KAIA AIA20160630095510906/30/16 09:55:31  5-MIN KAIA 301655Z AUTO 01007KT 10SM CLR 23/14 A3019 3690 57 5500 360/07 RMK AO2 T02330144
24044KAIA AIA20160630100010906/30/16 10:00:31  5-MIN KAIA 301700Z AUTO 01007KT 10SM CLR 23/14 A3019 3690 57 5500 360/07 RMK AO2 T02330144
24044KAIA AIA20160630100511206/30/16 10:05:31  5-MIN KAIA 301705Z AUTO 02010KT 10SM FEW032 23/14 A3019 3680 57 5400 010/10 RMK AO2 T02280139
24044KAIA AIA20160630101011206/30/16 10:10:31  5-MIN KAIA 301710Z AUTO 02007KT 10SM FEW032 23/14 A3019 3680 55 5500 020/07 RMK AO2 T02330139
24044KAIA AIA20160630101513406/30/16 10:15:31  5-MIN KAIA 301715Z AUTO 36010G16KT 330V040 10SM FEW034 24/14 A3019 3680 53 5600 350/10G16 320V030 RMK AO2 T02440144
24044KAIA AIA20160630102011806/30/16 10:20:31  5-MIN KAIA 301720Z AUTO 01011G16KT 10SM FEW034 24/14 A3020 3680 55 5600 360/11G16 RMK AO2 T02390144
24044KAIA AIA20160630102511206/30/16 10:25:31  5-MIN KAIA 301725Z AUTO 02012KT 10SM SCT034 23/14 A3020 3680 55 5500 010/12 RMK AO2 T02330139
24044KAIA AIA20160630103011206/30/16 10:30:31  5-MIN KAIA 301730Z AUTO 36012KT 10SM SCT034 23/14 A3020 3680 55 5500 360/12 RMK AO2 T02330139
24044KAIA AIA20160630103511906/30/16 10:35:31  5-MIN KAIA 301735Z AUTO 02009KT 10SM SCT035 BKN120 23/13 A3020 3680 53 5500 020/09 RMK AO2 T02330133
24044KAIA AIA20160630104011906/30/16 10:40:31  5-MIN KAIA 301740Z AUTO 02010KT 10SM FEW035 BKN120 24/13 A3020 3680 51 5600 010/10 RMK AO2 T02390133
24044KAIA AIA20160630104512506/30/16 10:45:31  5-MIN KAIA 301745Z AUTO 01011G16KT 10SM FEW035 BKN120 24/13 A3020 3680 49 5600 360/11G16 RMK AO2 T02440133
24044KAIA AIA20160630105014406/30/16 10:50:31  5-MIN KAIA 301750Z AUTO 01011KT 10SM FEW035 BKN120 24/13 A3020 3680 49 5600 010/11 RMK AO2 SLP189 T02440133 10250 20139 53010
24044KAIA AIA20160630105511206/30/16 10:55:31  5-MIN KAIA 301755Z AUTO 01009KT 10SM BKN120 24/13 A3020 3680 49 5600 360/09 RMK AO2 T02390128
24044KAIA AIA20160630110011206/30/16 11:00:31  5-MIN KAIA 301800Z AUTO 01009KT 10SM BKN120 24/13 A3020 3670 49 5600 360/09 RMK AO2 T02440133
24044KAIA AIA20160630110511906/30/16 11:05:31  5-MIN KAIA 301805Z AUTO 36009KT 10SM FEW040 BKN120 24/13 A3020 3670 51 5600 350/09 RMK AO2 T02390133
24044KAIA AIA20160630111011906/30/16 11:10:31  5-MIN KAIA 301810Z AUTO 36011KT 10SM FEW040 BKN120 24/13 A3020 3670 49 5600 350/11 RMK AO2 T02440133
24044KAIA AIA20160630111511906/30/16 11:15:31  5-MIN KAIA 301815Z AUTO 35012KT 10SM FEW040 BKN120 24/13 A3020 3680 47 5600 350/12 RMK AO2 T02440128
24044KAIA AIA20160630112011906/30/16 11:20:31  5-MIN KAIA 301820Z AUTO 36010KT 10SM FEW041 BKN120 25/13 A3020 3680 46 5700 350/10 RMK AO2 T02500128
24044KAIA AIA20160630112511906/30/16 11:25:31  5-MIN KAIA 301825Z AUTO 35009KT 10SM FEW041 SCT120 25/12 A3020 3680 44 5700 340/09 RMK AO2 T02500122
24044KAIA AIA20160630113011906/30/16 11:30:31  5-MIN KAIA 301830Z AUTO 01011KT 10SM FEW043 FEW120 24/12 A3020 3680 46 5600 360/11 RMK AO2 T02440122
24044KAIA AIA20160630113512506/30/16 11:35:31  5-MIN KAIA 301835Z AUTO 02011G16KT 10SM FEW045 FEW120 26/13 A3020 3680 44 5800 010/11G16 RMK AO2 T02560128
24044KAIA AIA20160630114011206/30/16 11:40:31  5-MIN KAIA 301840Z AUTO 01013KT 10SM FEW045 26/13 A3019 3680 44 5800 360/13 RMK AO2 T02560128
24044KAIA AIA20160630114511206/30/16 11:45:31  5-MIN KAIA 301845Z AUTO 02012KT 10SM FEW045 26/13 A3019 3680 44 5800 010/12 RMK AO2 T02610133
24044KAIA AIA20160630115012506/30/16 11:50:31  5-MIN KAIA 301850Z AUTO 02012G18KT 10SM FEW045 26/13 A3019 3690 44 5800 010/12G18 RMK AO2 SLP183 T02610133
24044KAIA AIA20160630115511206/30/16 11:55:31  5-MIN KAIA 301855Z AUTO 02011KT 10SM FEW045 25/12 A3019 3690 44 5700 010/11 RMK AO2 T02500122
24044KAIA AIA20160630120011206/30/16 12:00:31  5-MIN KAIA 301900Z AUTO 03011KT 10SM FEW045 25/13 A3019 3690 46 5700 020/11 RMK AO2 T02500128
24044KAIA AIA20160630120511206/30/16 12:05:31  5-MIN KAIA 301905Z AUTO 02011KT 10SM FEW120 25/13 A3019 3690 46 5700 010/11 RMK AO2 T02500128
24044KAIA AIA20160630121011206/30/16 12:10:31  5-MIN KAIA 301910Z AUTO 03012KT 10SM FEW120 26/13 A3019 3690 44 5800 030/12 RMK AO2 T02610133
24044KAIA AIA20160630121511806/30/16 12:15:31  5-MIN KAIA 301915Z AUTO 03010G19KT 10SM FEW120 26/13 A3019 3680 44 5800 020/10G19 RMK AO2 T02560128
24044KAIA AIA20160630122011806/30/16 12:20:31  5-MIN KAIA 301920Z AUTO 02012G19KT 10SM SCT120 25/12 A3019 3690 44 5700 010/12G19 RMK AO2 T02500122
24044KAIA AIA20160630122513406/30/16 12:25:31  5-MIN KAIA 301925Z AUTO 03012G20KT 340V060 10SM FEW120 25/12 A3019 3690 44 5700 020/12G20 330V050 RMK AO2 T02500122
24044KAIA AIA20160630123011806/30/16 12:30:31  5-MIN KAIA 301930Z AUTO 01009G20KT 10SM SCT120 25/12 A3019 3680 44 5700 360/09G20 RMK AO2 T02500122
24044KAIA AIA20160630123511206/30/16 12:35:31  5-MIN KAIA 301935Z AUTO 02009KT 10SM SCT120 25/12 A3019 3690 44 5700 010/09 RMK AO2 T02500122
24044KAIA AIA20160630124011206/30/16 12:40:31  5-MIN KAIA 301940Z AUTO 04012KT 10SM BKN120 25/12 A3019 3690 44 5700 030/12 RMK AO2 T02500122
24044KAIA AIA20160630124511206/30/16 12:45:31  5-MIN KAIA 301945Z AUTO 06013KT 10SM SCT120 26/12 A3019 3680 41 5800 050/13 RMK AO2 T02560117
24044KAIA AIA20160630125011906/30/16 12:50:31  5-MIN KAIA 301950Z AUTO 04010KT 10SM SCT120 26/12 A3019 3680 43 5800 030/10 RMK AO2 SLP186 T02560122
24044KAIA AIA20160630125511206/30/16 12:55:31  5-MIN KAIA 301955Z AUTO 06013KT 10SM SCT120 26/12 A3019 3680 41 5800 050/13 RMK AO2 T02610122
24044KAIA AIA20160630130012506/30/16 13:00:31  5-MIN KAIA 302000Z AUTO 06015G20KT 10SM FEW050 SCT120 26/12 A3019 3690 41 5800 050/15G20 RMK AO2 T02560117
24044KAIA AIA20160630130512506/30/16 13:05:31  5-MIN KAIA 302005Z AUTO 05012G20KT 10SM FEW050 FEW120 26/12 A3019 3690 41 5800 040/12G20 RMK AO2 T02560117
24044KAIA AIA20160630131011506/30/16 13:10:31  5-MIN KAIA 302010Z AUTO 04013G18KT 10SM CLR 25/12 A3019 3690 43 5700 030/13G18 RMK AO2 T02500117
24044KAIA AIA20160630131511506/30/16 13:15:31  5-MIN KAIA 302015Z AUTO 05013G18KT 10SM CLR 25/12 A3019 3690 44 5700 040/13G18 RMK AO2 T02500122
24044KAIA AIA20160630132010906/30/16 13:20:31  5-MIN KAIA 302020Z AUTO 04012KT 10SM CLR 24/12 A3019 3690 46 5600 030/12 RMK AO2 T02440122
24044KAIA AIA20160630132510906/30/16 13:25:31  5-MIN KAIA 302025Z AUTO 05012KT 10SM CLR 24/12 A3019 3690 44 5600 040/12 RMK AO2 T02440117
24044KAIA AIA20160630133010906/30/16 13:30:31  5-MIN KAIA 302030Z AUTO 05010KT 10SM CLR 24/12 A3019 3690 44 5600 040/10 RMK AO2 T02440117
24044KAIA AIA20160630133511206/30/16 13:35:31  5-MIN KAIA 302035Z AUTO 04011KT 10SM FEW050 24/12 A3019 3690 44 5600 030/11 RMK AO2 T02440117
24044KAIA AIA20160630134011206/30/16 13:40:31  5-MIN KAIA 302040Z AUTO 02013KT 10SM FEW050 24/12 A3019 3680 44 5600 010/13 RMK AO2 T02440117
24044KAIA AIA20160630134511806/30/16 13:45:31  5-MIN KAIA 302045Z AUTO 02016G20KT 10SM FEW050 24/12 A3019 3680 46 5600 020/16G20 RMK AO2 T02440122
24044KAIA AIA20160630135012506/30/16 13:50:31  5-MIN KAIA 302050Z AUTO 02017KT 10SM FEW050 24/13 A3019 3680 49 5600 010/17 RMK AO2 SLP189 T02390128 53002
24044KAIA AIA20160630135511206/30/16 13:55:31  5-MIN KAIA 302055Z AUTO 04017KT 10SM FEW050 23/13 A3019 3680 51 5500 030/17 RMK AO2 T02330128
24044KAIA AIA20160630140011806/30/16 14:00:31  5-MIN KAIA 302100Z AUTO 03018G23KT 10SM FEW050 23/12 A3019 3680 51 5400 020/18G23 RMK AO2 T02280122
24044KAIA AIA20160630140510906/30/16 14:05:31  5-MIN KAIA 302105Z AUTO 05017KT 10SM CLR 23/12 A3019 3680 49 5500 040/17 RMK AO2 T02330122
24044KAIA AIA20160630141010906/30/16 14:10:31  5-MIN KAIA 302110Z AUTO 04016KT 10SM CLR 23/12 A3019 3680 49 5500 040/16 RMK AO2 T02330122
24044KAIA AIA20160630141510906/30/16 14:15:31  5-MIN KAIA 302115Z AUTO 04020KT 10SM CLR 23/12 A3020 3680 51 5400 030/20 RMK AO2 T02280122
24044KAIA AIA20160630142011506/30/16 14:20:31  5-MIN KAIA 302120Z AUTO 04016G23KT 10SM CLR 23/12 A3019 3680 51 5400 030/16G23 RMK AO2 T02280122
24044KAIA AIA20160630142511506/30/16 14:25:31  5-MIN KAIA 302125Z AUTO 04017G21KT 10SM CLR 23/12 A3019 3680 51 5400 030/17G21 RMK AO2 T02280122
24044KAIA AIA20160630143010906/30/16 14:30:31  5-MIN KAIA 302130Z AUTO 05015KT 10SM CLR 23/12 A3020 3680 51 5400 040/15 RMK AO2 T02280122
24044KAIA AIA20160630143510906/30/16 14:35:31  5-MIN KAIA 302135Z AUTO 04013KT 10SM CLR 23/13 A3019 3680 53 5400 040/13 RMK AO2 T02280128
24044KAIA AIA20160630144011206/30/16 14:40:31  5-MIN KAIA 302140Z AUTO 04015KT 10SM FEW120 23/12 A3019 3680 49 5500 030/15 RMK AO2 T02330122
24044KAIA AIA20160630144511206/30/16 14:45:31  5-MIN KAIA 302145Z AUTO 05015KT 10SM SCT120 23/12 A3019 3680 51 5500 050/15 RMK AO2 T02280122
24044KAIA AIA20160630145011906/30/16 14:50:31  5-MIN KAIA 302150Z AUTO 05012KT 10SM SCT120 23/12 A3019 3690 51 5500 040/12 RMK AO2 SLP191 T02280122
24044KAIA AIA20160630145511206/30/16 14:55:31  5-MIN KAIA 302155Z AUTO 05013KT 10SM SCT120 22/12 A3019 3690 52 5400 040/13 RMK AO2 T02220122
24044KAIA AIA20160630150011206/30/16 15:00:31  5-MIN KAIA 302200Z AUTO 05012KT 10SM BKN120 22/12 A3018 3690 51 5400 050/12 RMK AO2 T02220117
24044KAIA AIA20160630150511206/30/16 15:05:31  5-MIN KAIA 302205Z AUTO 07011KT 10SM BKN120 23/12 A3018 3690 49 5500 060/11 RMK AO2 T02280117
24044KAIA AIA20160630151011206/30/16 15:10:31  5-MIN KAIA 302210Z AUTO 05013KT 10SM BKN120 23/12 A3018 3690 49 5500 050/13 RMK AO2 T02280117
24044KAIA AIA20160630151511206/30/16 15:15:31  5-MIN KAIA 302215Z AUTO 04014KT 10SM BKN110 23/10 A3018 3700 44 5500 030/14 RMK AO2 T02280100
24044KAIA AIA20160630152011206/30/16 15:20:31  5-MIN KAIA 302220Z AUTO 05014KT 10SM BKN110 22/09 A3018 3690 43 5400 040/14 RMK AO2 T02220094
24044KAIA AIA20160630152511206/30/16 15:25:31  5-MIN KAIA 302225Z AUTO 04013KT 10SM BKN110 22/10 A3018 3690 45 5400 040/13 RMK AO2 T02220100
24044KAIA AIA20160630153011206/30/16 15:30:31  5-MIN KAIA 302230Z AUTO 05014KT 10SM BKN110 22/11 A3018 3690 49 5300 040/14 RMK AO2 T02170106
24044KAIA AIA20160630153511206/30/16 15:35:31  5-MIN KAIA 302235Z AUTO 05015KT 10SM OVC110 22/11 A3018 3700 49 5300 050/15 RMK AO2 T02170106
24044KAIA AIA20160630154011206/30/16 15:40:31  5-MIN KAIA 302240Z AUTO 06012KT 10SM OVC110 22/10 A3017 3700 47 5300 050/12 RMK AO2 T02170100
24044KAIA AIA20160630154511206/30/16 15:45:31  5-MIN KAIA 302245Z AUTO 07013KT 10SM OVC110 22/11 A3017 3700 49 5300 060/13 RMK AO2 T02170106
24044KAIA AIA20160630155011906/30/16 15:50:31  5-MIN KAIA 302250Z AUTO 08013KT 10SM OVC110 22/11 A3017 3700 50 5300 070/13 RMK AO2 SLP187 T02170111
24044KAIA AIA20160630155511206/30/16 15:55:31  5-MIN KAIA 302255Z AUTO 07012KT 10SM OVC110 21/11 A3017 3700 52 5300 060/12 RMK AO2 T02110111
24044KAIA AIA20160630160011206/30/16 16:00:31  5-MIN KAIA 302300Z AUTO 08014KT 10SM OVC110 21/10 A3017 3710 48 5300 070/14 RMK AO2 T02110100
24044KAIA AIA20160630160511206/30/16 16:05:31  5-MIN KAIA 302305Z AUTO 07014KT 10SM OVC110 22/11 A3017 3710 49 5400 060/14 RMK AO2 T02170106
24044KAIA AIA20160630161011206/30/16 16:10:31  5-MIN KAIA 302310Z AUTO 07013KT 10SM OVC110 22/11 A3017 3710 50 5400 060/13 RMK AO2 T02170111
24044KAIA AIA20160630161511206/30/16 16:15:31  5-MIN KAIA 302315Z AUTO 04013KT 10SM OVC110 22/12 A3017 3710 52 5400 030/13 RMK AO2 T02170117
24044KAIA AIA20160630162011206/30/16 16:20:31  5-MIN KAIA 302320Z AUTO 06010KT 10SM BKN110 21/12 A3017 3700 54 5300 050/10 RMK AO2 T02110117
24044KAIA AIA20160630162511206/30/16 16:25:31  5-MIN KAIA 302325Z AUTO 05011KT 10SM BKN110 22/12 A3017 3710 52 5400 050/11 RMK AO2 T02170117
24044KAIA AIA20160630163011206/30/16 16:30:31  5-MIN KAIA 302330Z AUTO 07011KT 10SM SCT110 22/11 A3017 3710 50 5400 060/11 RMK AO2 T02170111
24044KAIA AIA20160630163511206/30/16 16:35:31  5-MIN KAIA 302335Z AUTO 07011KT 10SM SCT100 22/11 A3016 3710 49 5400 070/11 RMK AO2 T02220111
24044KAIA AIA20160630164011206/30/16 16:40:31  5-MIN KAIA 302340Z AUTO 05010KT 10SM SCT100 22/11 A3016 3710 49 5400 040/10 RMK AO2 T02220111
24044KAIA AIA20160630164511206/30/16 16:45:31  5-MIN KAIA 302345Z AUTO 06009KT 10SM FEW095 22/11 A3016 3710 47 5400 050/09 RMK AO2 T02220106
24044KAIA AIA20160630165013706/30/16 16:50:31  5-MIN KAIA 302350Z AUTO 05007KT 10SM FEW095 22/11 A3017 3710 47 5400 040/07 RMK AO2 SLP183 T02220106 10261 20211 55003
24044KAIA AIA20160630165511206/30/16 16:55:31  5-MIN KAIA 302355Z AUTO 05008KT 10SM FEW095 22/11 A3017 3710 47 5400 050/08 RMK AO2 T02220106
24044KAIA AIA20160630170011206/30/16 17:00:31  5-MIN KAIA 010000Z AUTO 06006KT 10SM FEW095 22/11 A3017 3710 49 5400 050/06 RMK AO2 T02170106
24044KAIA AIA20160630170510906/30/16 17:05:31  5-MIN KAIA 010005Z AUTO 06006KT 10SM CLR 22/11 A3017 3700 50 5400 050/06 RMK AO2 T02170111
24044KAIA AIA20160630171010906/30/16 17:10:31  5-MIN KAIA 010010Z AUTO 04004KT 10SM CLR 22/11 A3017 3710 49 5400 030/04 RMK AO2 T02220111
24044KAIA AIA20160630171510906/30/16 17:15:31  5-MIN KAIA 010015Z AUTO 05004KT 10SM CLR 22/11 A3017 3710 49 5400 040/04 RMK AO2 T02220111
24044KAIA AIA20160630172010906/30/16 17:20:31  5-MIN KAIA 010020Z AUTO 03004KT 10SM CLR 22/11 A3017 3710 47 5400 020/04 RMK AO2 T02220106
24044KAIA AIA20160630172510906/30/16 17:25:31  5-MIN KAIA 010025Z AUTO 08005KT 10SM CLR 22/11 A3017 3710 49 5400 070/05 RMK AO2 T02170106
24044KAIA AIA20160630173010906/30/16 17:30:31  5-MIN KAIA 010030Z AUTO 05004KT 10SM CLR 22/11 A3017 3700 49 5400 040/04 RMK AO2 T02170106
24044KAIA AIA20160630173510906/30/16 17:35:31  5-MIN KAIA 010035Z AUTO 06004KT 10SM CLR 22/11 A3017 3710 49 5400 050/04 RMK AO2 T02220111
24044KAIA AIA20160630174010906/30/16 17:40:31  5-MIN KAIA 010040Z AUTO 06007KT 10SM CLR 22/11 A3017 3700 50 5300 060/07 RMK AO2 T02170111
24044KAIA AIA20160630174510906/30/16 17:45:31  5-MIN KAIA 010045Z AUTO 08006KT 10SM CLR 22/11 A3017 3700 49 5300 070/06 RMK AO2 T02170106
24044KAIA AIA20160630175011606/30/16 17:50:31  5-MIN KAIA 010050Z AUTO 08008KT 10SM CLR 22/11 A3017 3700 49 5300 070/08 RMK AO2 SLP184 T02170106
24044KAIA AIA20160630175510906/30/16 17:55:31  5-MIN KAIA 010055Z AUTO 07009KT 10SM CLR 22/11 A3017 3700 49 5300 060/09 RMK AO2 T02170106
24044KAIA AIA20160630180010906/30/16 18:00:31  5-MIN KAIA 010100Z AUTO 08007KT 10SM CLR 22/11 A3018 3700 49 5300 080/07 RMK AO2 T02170106
24044KAIA AIA20160630180510906/30/16 18:05:31  5-MIN KAIA 010105Z AUTO 08008KT 10SM CLR 21/11 A3018 3700 50 5300 070/08 RMK AO2 T02110106
24044KAIA AIA20160630181011206/30/16 18:10:31  5-MIN KAIA 010110Z AUTO 08007KT 10SM FEW095 21/10 A3018 3690 48 5300 070/07 RMK AO2 T02110100
24044KAIA AIA20160630181511206/30/16 18:15:31  5-MIN KAIA 010115Z AUTO 08007KT 10SM SCT095 21/10 A3018 3690 48 5300 070/07 RMK AO2 T02110100
24044KAIA AIA20160630182011206/30/16 18:20:31  5-MIN KAIA 010120Z AUTO 09007KT 10SM BKN095 21/10 A3018 3690 50 5200 080/07 RMK AO2 T02060100
24044KAIA AIA20160630182511206/30/16 18:25:31  5-MIN KAIA 010125Z AUTO 09006KT 10SM BKN095 21/11 A3019 3690 52 5200 080/06 RMK AO2 T02060106
24044KAIA AIA20160630183011206/30/16 18:30:31  5-MIN KAIA 010130Z AUTO 09007KT 10SM BKN095 21/11 A3019 3690 54 5200 090/07 RMK AO2 T02060111
24044KAIA AIA20160630183511206/30/16 18:35:31  5-MIN KAIA 010135Z AUTO 10007KT 10SM OVC090 21/11 A3019 3690 54 5200 090/07 RMK AO2 T02060111
24044KAIA AIA20160630184011206/30/16 18:40:31  5-MIN KAIA 010140Z AUTO 10007KT 10SM OVC090 21/11 A3019 3690 54 5200 090/07 RMK AO2 T02060111
24044KAIA AIA20160630184511206/30/16 18:45:31  5-MIN KAIA 010145Z AUTO 10006KT 10SM OVC095 20/11 A3019 3690 56 5100 090/06 RMK AO2 T02000111
24044KAIA AIA20160630185011906/30/16 18:50:31  5-MIN KAIA 010150Z AUTO 09006KT 10SM OVC095 20/11 A3019 3690 56 5100 080/06 RMK AO2 SLP189 T02000111
24044KAIA AIA20160630185511206/30/16 18:55:31  5-MIN KAIA 010155Z AUTO 09006KT 10SM OVC095 20/12 A3019 3690 58 5100 080/06 RMK AO2 T02000117
24044KAIA AIA20160630190011206/30/16 19:00:31  5-MIN KAIA 010200Z AUTO 10005KT 10SM BKN095 19/12 A3019 3690 60 5100 090/05 RMK AO2 T01940117
24044KAIA AIA20160630190511206/30/16 19:05:31  5-MIN KAIA 010205Z AUTO 11006KT 10SM BKN095 19/12 A3019 3690 65 5000 100/06 RMK AO2 T01890122
24044KAIA AIA20160630191011206/30/16 19:10:31  5-MIN KAIA 010210Z AUTO 11005KT 10SM SCT100 18/12 A3019 3690 67 5000 110/05 RMK AO2 T01830122
24044KAIA AIA20160630191511206/30/16 19:15:31  5-MIN KAIA 010215Z AUTO 12006KT 10SM FEW100 18/12 A3019 3690 69 4900 110/06 RMK AO2 T01780122
24044KAIA AIA20160630192011206/30/16 19:20:31  5-MIN KAIA 010220Z AUTO 13007KT 10SM FEW100 18/12 A3019 3690 69 4900 120/07 RMK AO2 T01780122
24044KAIA AIA20160630192510906/30/16 19:25:31  5-MIN KAIA 010225Z AUTO 12007KT 10SM CLR 17/12 A3019 3690 72 4800 110/07 RMK AO2 T01720122
24044KAIA AIA20160630193010906/30/16 19:30:31  5-MIN KAIA 010230Z AUTO 11007KT 10SM CLR 17/12 A3019 3690 69 4800 110/07 RMK AO2 T01720117
24044KAIA AIA20160630193510906/30/16 19:35:31  5-MIN KAIA 010235Z AUTO 11006KT 10SM CLR 17/12 A3019 3690 72 4800 100/06 RMK AO2 T01720122
24044KAIA AIA20160630194010906/30/16 19:40:31  5-MIN KAIA 010240Z AUTO 11006KT 10SM CLR 17/12 A3019 3690 75 4800 110/06 RMK AO2 T01670122
24044KAIA AIA20160630194510906/30/16 19:45:31  5-MIN KAIA 010245Z AUTO 12006KT 10SM CLR 17/12 A3019 3690 75 4800 110/06 RMK AO2 T01670122
24044KAIA AIA20160630195012206/30/16 19:50:31  5-MIN KAIA 010250Z AUTO 11006KT 10SM CLR 16/12 A3019 3690 77 4700 100/06 RMK AO2 SLP191 T01610122 57008
24044KAIA AIA20160630195510906/30/16 19:55:31  5-MIN KAIA 010255Z AUTO 12007KT 10SM CLR 16/12 A3019 3690 77 4700 110/07 RMK AO2 T01610122
24044KAIA AIA20160630200010906/30/16 20:00:31  5-MIN KAIA 010300Z AUTO 11006KT 10SM CLR 16/12 A3019 3690 77 4700 100/06 RMK AO2 T01610122
24044KAIA AIA20160630200510906/30/16 20:05:31  5-MIN KAIA 010305Z AUTO 12005KT 10SM CLR 16/12 A3019 3690 80 4600 110/05 RMK AO2 T01560122
24044KAIA AIA20160630201010906/30/16 20:10:31  5-MIN KAIA 010310Z AUTO 12005KT 10SM CLR 16/12 A3019 3680 80 4600 110/05 RMK AO2 T01560122
24044KAIA AIA20160630201510906/30/16 20:15:31  5-MIN KAIA 010315Z AUTO 13005KT 10SM CLR 16/12 A3019 3680 80 4600 120/05 RMK AO2 T01560122
24044KAIA AIA20160630202010906/30/16 20:20:31  5-MIN KAIA 010320Z AUTO 12005KT 10SM CLR 16/12 A3019 3680 80 4600 110/05 RMK AO2 T01560122
24044KAIA AIA20160630202510906/30/16 20:25:31  5-MIN KAIA 010325Z AUTO 13005KT 10SM CLR 16/12 A3020 3680 77 4700 120/05 RMK AO2 T01610122
24044KAIA AIA20160630203010906/30/16 20:30:31  5-MIN KAIA 010330Z AUTO 13006KT 10SM CLR 16/12 A3020 3680 80 4600 130/06 RMK AO2 T01560122
24044KAIA AIA20160630203510906/30/16 20:35:31  5-MIN KAIA 010335Z AUTO 15003KT 10SM CLR 16/12 A3020 3680 80 4600 140/03 RMK AO2 T01560122
24044KAIA AIA20160630204010906/30/16 20:40:31  5-MIN KAIA 010340Z AUTO 14004KT 10SM CLR 15/12 A3020 3680 83 4600 130/04 RMK AO2 T01500122
24044KAIA AIA20160630204510906/30/16 20:45:31  5-MIN KAIA 010345Z AUTO 12003KT 10SM CLR 16/12 A3020 3680 80 4600 120/03 RMK AO2 T01560122
24044KAIA AIA20160630205011606/30/16 20:50:31  5-MIN KAIA 010350Z AUTO 12005KT 10SM CLR 17/12 A3020 3680 75 4800 110/05 RMK AO2 SLP191 T01670122
24044KAIA AIA20160630205510906/30/16 20:55:31  5-MIN KAIA 010355Z AUTO 12005KT 10SM CLR 15/13 A3020 3680 86 4600 120/05 RMK AO2 T01500128
24044KAIA AIA20160630210010906/30/16 21:00:31  5-MIN KAIA 010400Z AUTO 13006KT 10SM CLR 15/13 A3020 3680 86 4600 120/06 RMK AO2 T01500128
24044KAIA AIA20160630210510906/30/16 21:05:31  5-MIN KAIA 010405Z AUTO 13005KT 10SM CLR 14/13 A3020 3680 90 4500 120/05 RMK AO2 T01440128
24044KAIA AIA20160630211010906/30/16 21:10:31  5-MIN KAIA 010410Z AUTO 12004KT 10SM CLR 14/13 A3019 3680 90 4500 110/04 RMK AO2 T01440128
24044KAIA AIA20160630211510906/30/16 21:15:31  5-MIN KAIA 010415Z AUTO 11004KT 10SM CLR 15/13 A3019 3680 86 4600 100/04 RMK AO2 T01500128
24044KAIA AIA20160630212010906/30/16 21:20:31  5-MIN KAIA 010420Z AUTO 12005KT 10SM CLR 14/13 A3019 3680 90 4500 120/05 RMK AO2 T01440128
24044KAIA AIA20160630212510906/30/16 21:25:31  5-MIN KAIA 010425Z AUTO 12006KT 10SM CLR 14/13 A3019 3690 90 4500 110/06 RMK AO2 T01440128
24044KAIA AIA20160630213010906/30/16 21:30:31  5-MIN KAIA 010430Z AUTO 13006KT 10SM CLR 14/13 A3019 3690 90 4500 120/06 RMK AO2 T01440128
24044KAIA AIA20160630213510906/30/16 21:35:31  5-MIN KAIA 010435Z AUTO 14006KT 10SM CLR 14/12 A3019 3690 90 4400 130/06 RMK AO2 T01390122
24044KAIA AIA20160630214010906/30/16 21:40:31  5-MIN KAIA 010440Z AUTO 14005KT 10SM CLR 14/12 A3019 3680 90 4400 140/05 RMK AO2 T01390122
24044KAIA AIA20160630223510906/30/16 22:35:31  5-MIN KAIA 010535Z AUTO 00000KT 10SM CLR 14/12 A3019 3690 86 4500 000/00 RMK AO2 T01440122
24044KAIA AIA20160630224010906/30/16 22:40:31  5-MIN KAIA 010540Z AUTO 09003KT 10SM CLR 14/12 A3019 3690 90 4400 080/03 RMK AO2 T01390122
24044KAIA AIA20160630224510906/30/16 22:45:31  5-MIN KAIA 010545Z AUTO 09003KT 10SM CLR 14/12 A3019 3690 90 4400 080/03 RMK AO2 T01390122
24044KAIA AIA20160630225013406/30/16 22:50:31  5-MIN KAIA 010550Z AUTO 09004KT 10SM CLR 14/13 A3019 3690 90 4500 080/04 RMK AO2 SLP187 T01440128 10222 20133 50006
24044KAIA AIA20160630225510906/30/16 22:55:31  5-MIN KAIA 010555Z AUTO 11003KT 10SM CLR 14/13 A3019 3690 90 4500 100/03 RMK AO2 T01440128
24044KAIA AIA20160630230010906/30/16 23:00:31  5-MIN KAIA 010600Z AUTO 12003KT 10SM CLR 14/12 A3019 3690 90 4400 110/03 RMK AO2 T01390122
24044KAIA AIA20160630230510906/30/16 23:05:31  5-MIN KAIA 010605Z AUTO 12003KT 10SM CLR 14/12 A3019 3690 90 4400 110/03 RMK AO2 T01390122
24044KAIA AIA20160630231010906/30/16 23:10:31  5-MIN KAIA 010610Z AUTO 12004KT 10SM CLR 14/12 A3019 3690 90 4400 110/04 RMK AO2 T01390122
24044KAIA AIA20160630231510906/30/16 23:15:31  5-MIN KAIA 010615Z AUTO 12003KT 10SM CLR 14/12 A3019 3680 86 4500 120/03 RMK AO2 T01440122
24044KAIA AIA20160630232011206/30/16 23:20:31  5-MIN KAIA 010620Z AUTO 11003KT 10SM FEW075 14/12 A3019 3680 86 4500 100/03 RMK AO2 T01440122
24044KAIA AIA20160630232511206/30/16 23:25:31  5-MIN KAIA 010625Z AUTO 11004KT 10SM SCT075 14/12 A3019 3680 86 4500 100/04 RMK AO2 T01440122
24044KAIA AIA20160630233011206/30/16 23:30:31  5-MIN KAIA 010630Z AUTO 00000KT 10SM BKN075 14/12 A3019 3680 86 4500 000/00 RMK AO2 T01440122
24044KAIA AIA20160630233511206/30/16 23:35:31  5-MIN KAIA 010635Z AUTO 17004KT 10SM BKN075 14/12 A3019 3680 86 4500 160/04 RMK AO2 T01440122
24044KAIA AIA20160630234011206/30/16 23:40:31  5-MIN KAIA 010640Z AUTO 16007KT 10SM BKN075 14/12 A3019 3680 90 4400 150/07 RMK AO2 T01390122
24044KAIA AIA20160630234511206/30/16 23:45:31  5-MIN KAIA 010645Z AUTO 17006KT 10SM BKN075 14/12 A3019 3680 90 4400 160/06 RMK AO2 T01390122
24044KAIA AIA20160630235012906/30/16 23:50:31  5-MIN KAIA 010650Z AUTO 15006KT 10SM BKN075 14/13 A3019 3680 93 4400 140/06 RMK AO2 SLP188 T01390128 402610122
24044KAIA AIA20160630235511206/30/16 23:55:31  5-MIN KAIA 010655Z AUTO 14007KT 10SM BKN080 14/13 A3019 3680 90 4500 140/07 RMK AO2 T01440128
