53144K9L2 9L220160301034010203/01/16 03:40:31  5-MIN K9L2 011140Z AUTO 00000KT 10SM CLR 06/M02 A3010 2140 57 1600 000/00 RMK AO2 $
53144K9L2 9L220160301034510203/01/16 03:45:31  5-MIN K9L2 011145Z AUTO 00000KT 10SM CLR 06/M02 A3010 2140 57 1600 000/00 RMK AO2 $
53144K9L2 9L220160301035010203/01/16 03:50:31  5-MIN K9L2 011150Z AUTO 00000KT 10SM CLR 06/M02 A3010 2140 57 1600 000/00 RMK AO2 $
53144K9L2 9L220160301035513703/01/16 03:55:31  5-MIN K9L2 011155Z AUTO 00000KT 10SM CLR 06/M02 A3010 2140 57 1600 000/00 RMK AO2 SLP187 T00611017 10156 20061 53002 $
53144K9L2 9L220160301040010203/01/16 04:00:31  5-MIN K9L2 011200Z AUTO 35003KT 10SM CLR 06/M02 A3010 2130 57 1600 340/03 RMK AO2 $
53144K9L2 9L220160301040510203/01/16 04:05:31  5-MIN K9L2 011205Z AUTO 36003KT 10SM CLR 06/M02 A3010 2130 57 1600 350/03 RMK AO2 $
53144K9L2 9L220160301041010203/01/16 04:10:31  5-MIN K9L2 011210Z AUTO 36003KT 10SM CLR 06/M02 A3010 2130 57 1600 350/03 RMK AO2 $
53144K9L2 9L220160301041510203/01/16 04:15:31  5-MIN K9L2 011215Z AUTO 36003KT 10SM CLR 06/M02 A3011 2130 59 1500 340/03 RMK AO2 $
53144K9L2 9L220160301042010203/01/16 04:20:31  5-MIN K9L2 011220Z AUTO 36003KT 10SM CLR 06/M02 A3011 2130 59 1500 340/03 RMK AO2 $
53144K9L2 9L220160301042510203/01/16 04:25:31  5-MIN K9L2 011225Z AUTO 36003KT 10SM CLR 06/M02 A3011 2130 59 1500 350/03 RMK AO2 $
53144K9L2 9L220160301043010203/01/16 04:30:31  5-MIN K9L2 011230Z AUTO 00000KT 10SM CLR 06/M02 A3011 2130 59 1500 000/00 RMK AO2 $
53144K9L2 9L220160301043510203/01/16 04:35:31  5-MIN K9L2 011235Z AUTO 00000KT 10SM CLR 06/M02 A3011 2130 59 1500 000/00 RMK AO2 $
53144K9L2 9L220160301044010203/01/16 04:40:31  5-MIN K9L2 011240Z AUTO 00000KT 10SM CLR 06/M02 A3011 2120 59 1500 000/00 RMK AO2 $
53144K9L2 9L220160301044510203/01/16 04:45:31  5-MIN K9L2 011245Z AUTO 00000KT 10SM CLR 06/M02 A3011 2120 59 1500 000/00 RMK AO2 $
53144K9L2 9L220160301045010203/01/16 04:50:31  5-MIN K9L2 011250Z AUTO 00000KT 10SM CLR 05/M02 A3012 2120 59 1500 000/00 RMK AO2 $
53144K9L2 9L220160301045511903/01/16 04:55:31  5-MIN K9L2 011255Z AUTO 00000KT 10SM CLR 06/M02 A3012 2120 57 1500 000/00 RMK AO2 SLP194 T00561022 $
53144K9L2 9L220160301050010203/01/16 05:00:31  5-MIN K9L2 011300Z AUTO 00000KT 10SM CLR 05/M02 A3012 2120 59 1500 000/00 RMK AO2 $
53144K9L2 9L220160301050510203/01/16 05:05:31  5-MIN K9L2 011305Z AUTO 35003KT 10SM CLR 05/M02 A3012 2120 59 1500 340/03 RMK AO2 $
53144K9L2 9L220160301051010203/01/16 05:10:31  5-MIN K9L2 011310Z AUTO 01003KT 10SM CLR 05/M02 A3012 2120 59 1500 350/03 RMK AO2 $
53144K9L2 9L220160301051510203/01/16 05:15:31  5-MIN K9L2 011315Z AUTO 01003KT 10SM CLR 06/M02 A3012 2120 57 1500 360/03 RMK AO2 $
53144K9L2 9L220160301052010203/01/16 05:20:31  5-MIN K9L2 011320Z AUTO 01004KT 10SM CLR 05/M02 A3012 2120 59 1500 360/04 RMK AO2 $
53144K9L2 9L220160301052510203/01/16 05:25:31  5-MIN K9L2 011325Z AUTO 36003KT 10SM CLR 05/M02 A3012 2120 59 1500 350/03 RMK AO2 $
53144K9L2 9L220160301053010203/01/16 05:30:31  5-MIN K9L2 011330Z AUTO 00000KT 10SM CLR 05/M02 A3012 2120 59 1500 000/00 RMK AO2 $
53144K9L2 9L220160301053510203/01/16 05:35:31  5-MIN K9L2 011335Z AUTO 00000KT 10SM CLR 05/M02 A3012 2120 59 1500 000/00 RMK AO2 $
53144K9L2 9L220160301054010203/01/16 05:40:31  5-MIN K9L2 011340Z AUTO 00000KT 10SM CLR 05/M02 A3012 2120 59 1500 000/00 RMK AO2 $
53144K9L2 9L220160301054510203/01/16 05:45:31  5-MIN K9L2 011345Z AUTO 00000KT 10SM CLR 04/M03 A3012 2120 59 1400 000/00 RMK AO2 $
53144K9L2 9L220160301055010203/01/16 05:50:31  5-MIN K9L2 011350Z AUTO 29004KT 10SM CLR 04/M03 A3012 2120 59 1400 280/04 RMK AO2 $
53144K9L2 9L220160301055511903/01/16 05:55:31  5-MIN K9L2 011355Z AUTO 29004KT 10SM CLR 04/M03 A3012 2110 59 1400 280/04 RMK AO2 SLP201 T00441028 $
53144K9L2 9L220160301060010203/01/16 06:00:31  5-MIN K9L2 011400Z AUTO 29004KT 10SM CLR 04/M03 A3013 2110 59 1400 280/04 RMK AO2 $
53144K9L2 9L220160301060510203/01/16 06:05:31  5-MIN K9L2 011405Z AUTO 28005KT 10SM CLR 05/M03 A3013 2110 57 1500 270/05 RMK AO2 $
53144K9L2 9L220160301061010203/01/16 06:10:31  5-MIN K9L2 011410Z AUTO 29004KT 10SM CLR 05/M03 A3013 2110 57 1500 270/04 RMK AO2 $
53144K9L2 9L220160301061510203/01/16 06:15:31  5-MIN K9L2 011415Z AUTO 30004KT 10SM CLR 05/M03 A3013 2110 57 1500 280/04 RMK AO2 $
53144K9L2 9L220160301062010203/01/16 06:20:31  5-MIN K9L2 011420Z AUTO 30004KT 10SM CLR 06/M03 A3013 2110 55 1500 290/04 RMK AO2 $
53144K9L2 9L220160301062510203/01/16 06:25:31  5-MIN K9L2 011425Z AUTO 29004KT 10SM CLR 06/M03 A3013 2110 55 1500 280/04 RMK AO2 $
53144K9L2 9L220160301063010203/01/16 06:30:31  5-MIN K9L2 011430Z AUTO 29004KT 10SM CLR 06/M03 A3013 2110 55 1500 280/04 RMK AO2 $
53144K9L2 9L220160301063510203/01/16 06:35:31  5-MIN K9L2 011435Z AUTO 28006KT 10SM CLR 06/M03 A3013 2110 55 1500 270/06 RMK AO2 $
53144K9L2 9L220160301064010203/01/16 06:40:31  5-MIN K9L2 011440Z AUTO 28005KT 10SM CLR 06/M03 A3013 2110 55 1500 270/05 RMK AO2 $
53144K9L2 9L220160301064510203/01/16 06:45:31  5-MIN K9L2 011445Z AUTO 29007KT 10SM CLR 06/M03 A3014 2100 55 1500 280/07 RMK AO2 $
53144K9L2 9L220160301065010203/01/16 06:50:31  5-MIN K9L2 011450Z AUTO 29006KT 10SM CLR 06/M02 A3014 2100 55 1600 280/06 RMK AO2 $
53144K9L2 9L220160301065512503/01/16 06:55:31  5-MIN K9L2 011455Z AUTO 28006KT 10SM CLR 07/M02 A3014 2100 51 1700 270/06 RMK AO2 SLP204 T00721022 51002 $
53144K9L2 9L220160301070010203/01/16 07:00:31  5-MIN K9L2 011500Z AUTO 29004KT 10SM CLR 07/M02 A3014 2100 51 1700 280/04 RMK AO2 $
53144K9L2 9L220160301070510203/01/16 07:05:31  5-MIN K9L2 011505Z AUTO 29003KT 10SM CLR 08/M02 A3014 2100 49 1800 270/03 RMK AO2 $
53144K9L2 9L220160301071010203/01/16 07:10:31  5-MIN K9L2 011510Z AUTO 00000KT 10SM CLR 08/M02 A3014 2100 47 1800 000/00 RMK AO2 $
53144K9L2 9L220160301071510203/01/16 07:15:31  5-MIN K9L2 011515Z AUTO 04003KT 10SM CLR 08/M02 A3014 2100 49 1800 030/03 RMK AO2 $
53144K9L2 9L220160301072010203/01/16 07:20:31  5-MIN K9L2 011520Z AUTO 00000KT 10SM CLR 08/M02 A3014 2100 51 1800 000/00 RMK AO2 $
53144K9L2 9L220160301072510203/01/16 07:25:31  5-MIN K9L2 011525Z AUTO 00000KT 10SM CLR 08/M02 A3014 2100 51 1800 000/00 RMK AO2 $
53144K9L2 9L220160301073010203/01/16 07:30:31  5-MIN K9L2 011530Z AUTO 00000KT 10SM CLR 09/M02 A3014 2100 47 1900 000/00 RMK AO2 $
53144K9L2 9L220160301073510203/01/16 07:35:31  5-MIN K9L2 011535Z AUTO 00000KT 10SM CLR 09/M02 A3015 2090 47 1900 000/00 RMK AO2 $
53144K9L2 9L220160301074010203/01/16 07:40:31  5-MIN K9L2 011540Z AUTO 00000KT 10SM CLR 09/M02 A3015 2090 45 2000 000/00 RMK AO2 $
53144K9L2 9L220160301074510203/01/16 07:45:31  5-MIN K9L2 011545Z AUTO 00000KT 10SM CLR 09/M02 A3015 2090 45 2000 000/00 RMK AO2 $
53144K9L2 9L220160301075010203/01/16 07:50:31  5-MIN K9L2 011550Z AUTO 00000KT 10SM CLR 11/M01 A3014 2100 44 2100 000/00 RMK AO2 $
53144K9L2 9L220160301075511903/01/16 07:55:31  5-MIN K9L2 011555Z AUTO 00000KT 10SM CLR 11/M01 A3014 2100 44 2100 000/00 RMK AO2 SLP204 T01061011 $
53144K9L2 9L220160301080010103/01/16 08:00:31  5-MIN K9L2 011600Z AUTO 00000KT 9SM CLR 11/M01 A3015 2100 42 2200 000/00 RMK AO2 $
53144K9L2 9L220160301080510403/01/16 08:05:31  5-MIN K9L2 011605Z AUTO 00000KT 6SM HZ CLR 11/M02 A3015 2090 41 2200 000/00 RMK AO2 $
53144K9L2 9L220160301081010403/01/16 08:10:31  5-MIN K9L2 011610Z AUTO 00000KT 6SM HZ CLR 11/M02 A3015 2090 41 2200 000/00 RMK AO2 $
53144K9L2 9L220160301081510203/01/16 08:15:31  5-MIN K9L2 011615Z AUTO 00000KT 10SM CLR 11/M02 A3015 2090 41 2200 000/00 RMK AO2 $
53144K9L2 9L220160301082010203/01/16 08:20:31  5-MIN K9L2 011620Z AUTO 00000KT 10SM CLR 12/M02 A3015 2090 38 2200 000/00 RMK AO2 $
53144K9L2 9L220160301082510203/01/16 08:25:31  5-MIN K9L2 011625Z AUTO 00000KT 10SM CLR 12/M03 A3015 2090 36 2200 000/00 RMK AO2 $
53144K9L2 9L220160301083010103/01/16 08:30:31  5-MIN K9L2 011630Z AUTO 00000KT 9SM CLR 12/M03 A3016 2080 35 2300 000/00 RMK AO2 $
53144K9L2 9L220160301083510103/01/16 08:35:31  5-MIN K9L2 011635Z AUTO 00000KT 9SM CLR 12/M03 A3016 2080 35 2300 000/00 RMK AO2 $
53144K9L2 9L220160301084010203/01/16 08:40:31  5-MIN K9L2 011640Z AUTO 00000KT 10SM CLR 13/M03 A3016 2080 33 2300 000/00 RMK AO2 $
53144K9L2 9L220160301084510203/01/16 08:45:31  5-MIN K9L2 011645Z AUTO 00000KT 10SM CLR 13/M02 A3016 2080 35 2300 000/00 RMK AO2 $
53144K9L2 9L220160301085010103/01/16 08:50:31  5-MIN K9L2 011650Z AUTO 00000KT 9SM CLR 13/M02 A3016 2080 35 2300 000/00 RMK AO2 $
53144K9L2 9L220160301085511803/01/16 08:55:31  5-MIN K9L2 011655Z AUTO 00000KT 9SM CLR 13/M02 A3016 2080 34 2400 000/00 RMK AO2 SLP209 T01331022 $
53144K9L2 9L220160301090010203/01/16 09:00:31  5-MIN K9L2 011700Z AUTO 00000KT 10SM CLR 14/M02 A3016 2080 32 2500 000/00 RMK AO2 $
53144K9L2 9L220160301090510203/01/16 09:05:31  5-MIN K9L2 011705Z AUTO 00000KT 10SM CLR 14/M02 A3016 2080 31 2500 000/00 RMK AO2 $
53144K9L2 9L220160301091010203/01/16 09:10:31  5-MIN K9L2 011710Z AUTO 00000KT 10SM CLR 15/M03 A3016 2080 29 2600 000/00 RMK AO2 $
53144K9L2 9L220160301091510203/01/16 09:15:31  5-MIN K9L2 011715Z AUTO 00000KT 10SM CLR 15/M03 A3016 2080 28 2600 000/00 RMK AO2 $
53144K9L2 9L220160301092010203/01/16 09:20:31  5-MIN K9L2 011720Z AUTO 00000KT 10SM CLR 16/M03 A3016 2080 27 2700 000/00 RMK AO2 $
53144K9L2 9L220160301092510203/01/16 09:25:31  5-MIN K9L2 011725Z AUTO 00000KT 10SM CLR 16/M03 A3016 2080 27 2700 000/00 RMK AO2 $
53144K9L2 9L220160301093010203/01/16 09:30:31  5-MIN K9L2 011730Z AUTO 00000KT 10SM CLR 16/M04 A3016 2080 26 2700 000/00 RMK AO2 $
53144K9L2 9L220160301093510203/01/16 09:35:31  5-MIN K9L2 011735Z AUTO 00000KT 10SM CLR 15/M04 A3016 2080 27 2600 000/00 RMK AO2 $
53144K9L2 9L220160301094010203/01/16 09:40:31  5-MIN K9L2 011740Z AUTO 00000KT 10SM CLR 16/M04 A3016 2080 26 2700 000/00 RMK AO2 $
53144K9L2 9L220160301094510203/01/16 09:45:31  5-MIN K9L2 011745Z AUTO 00000KT 10SM CLR 16/M04 A3016 2080 26 2700 000/00 RMK AO2 $
53144K9L2 9L220160301095010203/01/16 09:50:31  5-MIN K9L2 011750Z AUTO 00000KT 10SM CLR 16/M03 A3016 2080 27 2700 000/00 RMK AO2 $
53144K9L2 9L220160301095513703/01/16 09:55:31  5-MIN K9L2 011755Z AUTO 00000KT 10SM CLR 16/M03 A3016 2080 27 2700 000/00 RMK AO2 SLP209 T01611028 10161 20044 51012 $
53144K9L2 9L220160301100010203/01/16 10:00:31  5-MIN K9L2 011800Z AUTO 00000KT 10SM CLR 17/M03 A3016 2080 25 2800 000/00 RMK AO2 $
53144K9L2 9L220160301100510203/01/16 10:05:31  5-MIN K9L2 011805Z AUTO 00000KT 10SM CLR 17/M03 A3016 2080 25 2900 000/00 RMK AO2 $
53144K9L2 9L220160301101010203/01/16 10:10:31  5-MIN K9L2 011810Z AUTO 14003KT 10SM CLR 18/M03 A3016 2080 23 2900 130/03 RMK AO2 $
53144K9L2 9L220160301101510203/01/16 10:15:31  5-MIN K9L2 011815Z AUTO 16003KT 10SM CLR 18/M04 A3016 2080 21 2900 150/03 RMK AO2 $
53144K9L2 9L220160301102010203/01/16 10:20:31  5-MIN K9L2 011820Z AUTO 17003KT 10SM CLR 18/M04 A3016 2090 21 3000 160/03 RMK AO2 $
53144K9L2 9L220160301102510203/01/16 10:25:31  5-MIN K9L2 011825Z AUTO 17003KT 10SM CLR 18/M04 A3015 2090 21 3000 150/03 RMK AO2 $
53144K9L2 9L220160301103010203/01/16 10:30:31  5-MIN K9L2 011830Z AUTO 16004KT 10SM CLR 18/M04 A3015 2090 21 3000 150/04 RMK AO2 $
53144K9L2 9L220160301103510203/01/16 10:35:31  5-MIN K9L2 011835Z AUTO 15004KT 10SM CLR 19/M04 A3015 2090 20 3100 140/04 RMK AO2 $
53144K9L2 9L220160301104010203/01/16 10:40:31  5-MIN K9L2 011840Z AUTO 15003KT 10SM CLR 19/M04 A3015 2090 20 3100 140/03 RMK AO2 $
53144K9L2 9L220160301104510203/01/16 10:45:31  5-MIN K9L2 011845Z AUTO 16004KT 10SM CLR 19/M04 A3015 2090 20 3100 150/04 RMK AO2 $
53144K9L2 9L220160301105010203/01/16 10:50:31  5-MIN K9L2 011850Z AUTO 15003KT 10SM CLR 19/M04 A3015 2100 20 3100 140/03 RMK AO2 $
53144K9L2 9L220160301105511903/01/16 10:55:31  5-MIN K9L2 011855Z AUTO 15003KT 10SM CLR 19/M04 A3014 2100 19 3100 140/03 RMK AO2 SLP201 T01941044 $
53144K9L2 9L220160301110010203/01/16 11:00:31  5-MIN K9L2 011900Z AUTO VRB03KT 10SM CLR 19/M04 A3014 2100 19 3100 VRB/03 RMK AO2 $
53144K9L2 9L220160301110510203/01/16 11:05:31  5-MIN K9L2 011905Z AUTO 17003KT 10SM CLR 20/M04 A3014 2100 19 3200 150/03 RMK AO2 $
53144K9L2 9L220160301111010203/01/16 11:10:31  5-MIN K9L2 011910Z AUTO 17003KT 10SM CLR 20/M03 A3014 2100 20 3200 160/03 RMK AO2 $
53144K9L2 9L220160301111510203/01/16 11:15:31  5-MIN K9L2 011915Z AUTO 00000KT 10SM CLR 20/M03 A3014 2100 20 3200 000/00 RMK AO2 $
53144K9L2 9L220160301112010203/01/16 11:20:31  5-MIN K9L2 011920Z AUTO VRB03KT 10SM CLR 21/M03 A3014 2100 19 3300 VRB/03 RMK AO2 $
53144K9L2 9L220160301112510203/01/16 11:25:31  5-MIN K9L2 011925Z AUTO 00000KT 10SM CLR 21/M03 A3013 2110 20 3300 000/00 RMK AO2 $
53144K9L2 9L220160301113010203/01/16 11:30:31  5-MIN K9L2 011930Z AUTO 18003KT 10SM CLR 21/M03 A3013 2110 20 3300 170/03 RMK AO2 $
53144K9L2 9L220160301113510203/01/16 11:35:31  5-MIN K9L2 011935Z AUTO 16003KT 10SM CLR 21/M03 A3013 2110 20 3300 150/03 RMK AO2 $
53144K9L2 9L220160301114010203/01/16 11:40:31  5-MIN K9L2 011940Z AUTO VRB03KT 10SM CLR 21/M03 A3013 2110 20 3300 VRB/03 RMK AO2 $
53144K9L2 9L220160301114510203/01/16 11:45:31  5-MIN K9L2 011945Z AUTO 16003KT 10SM CLR 22/M03 A3013 2110 19 3400 140/03 RMK AO2 $
53144K9L2 9L220160301115010203/01/16 11:50:31  5-MIN K9L2 011950Z AUTO 00000KT 10SM CLR 22/M03 A3012 2110 19 3400 000/00 RMK AO2 $
53144K9L2 9L220160301115511903/01/16 11:55:31  5-MIN K9L2 011955Z AUTO 00000KT 10SM CLR 22/M03 A3012 2120 19 3400 000/00 RMK AO2 SLP193 T02171028 $
53144K9L2 9L220160301120010203/01/16 12:00:31  5-MIN K9L2 012000Z AUTO 00000KT 10SM CLR 22/M03 A3012 2120 18 3500 000/00 RMK AO2 $
53144K9L2 9L220160301120510203/01/16 12:05:31  5-MIN K9L2 012005Z AUTO 12003KT 10SM CLR 22/M03 A3011 2120 18 3500 110/03 RMK AO2 $
53144K9L2 9L220160301121010203/01/16 12:10:31  5-MIN K9L2 012010Z AUTO 15003KT 10SM CLR 23/M03 A3011 2130 18 3600 140/03 RMK AO2 $
53144K9L2 9L220160301121510203/01/16 12:15:31  5-MIN K9L2 012015Z AUTO 14003KT 10SM CLR 23/M03 A3011 2130 18 3600 120/03 RMK AO2 $
53144K9L2 9L220160301122010203/01/16 12:20:31  5-MIN K9L2 012020Z AUTO 11003KT 10SM CLR 23/M03 A3010 2130 17 3600 100/03 RMK AO2 $
53144K9L2 9L220160301122510203/01/16 12:25:31  5-MIN K9L2 012025Z AUTO VRB03KT 10SM CLR 23/M03 A3010 2140 17 3600 VRB/03 RMK AO2 $
53144K9L2 9L220160301123010203/01/16 12:30:31  5-MIN K9L2 012030Z AUTO 15003KT 10SM CLR 23/M03 A3010 2140 17 3600 130/03 RMK AO2 $
53144K9L2 9L220160301123510203/01/16 12:35:31  5-MIN K9L2 012035Z AUTO 00000KT 10SM CLR 24/M03 A3009 2150 16 3700 000/00 RMK AO2 $
53144K9L2 9L220160301124010203/01/16 12:40:31  5-MIN K9L2 012040Z AUTO VRB03KT 10SM CLR 24/M03 A3009 2150 16 3700 VRB/03 RMK AO2 $
53144K9L2 9L220160301124510203/01/16 12:45:31  5-MIN K9L2 012045Z AUTO 00000KT 10SM CLR 24/M03 A3009 2150 16 3700 000/00 RMK AO2 $
53144K9L2 9L220160301125010203/01/16 12:50:31  5-MIN K9L2 012050Z AUTO 14003KT 10SM CLR 24/M03 A3008 2150 16 3700 120/03 RMK AO2 $
53144K9L2 9L220160301125512503/01/16 12:55:31  5-MIN K9L2 012055Z AUTO 15005KT 10SM CLR 24/M03 A3008 2160 16 3800 140/05 RMK AO2 SLP178 T02441028 51007 $
53144K9L2 9L220160301130010203/01/16 13:00:31  5-MIN K9L2 012100Z AUTO 17004KT 10SM CLR 24/M03 A3007 2160 16 3800 160/04 RMK AO2 $
53144K9L2 9L220160301130510203/01/16 13:05:31  5-MIN K9L2 012105Z AUTO 16004KT 10SM CLR 25/M03 A3007 2160 15 3800 150/04 RMK AO2 $
53144K9L2 9L220160301131010203/01/16 13:10:31  5-MIN K9L2 012110Z AUTO 15004KT 10SM CLR 25/M03 A3007 2170 15 3800 140/04 RMK AO2 $
53144K9L2 9L220160301131510203/01/16 13:15:31  5-MIN K9L2 012115Z AUTO 18004KT 10SM CLR 25/M03 A3006 2170 15 3900 170/04 RMK AO2 $
53144K9L2 9L220160301132010203/01/16 13:20:31  5-MIN K9L2 012120Z AUTO VRB03KT 10SM CLR 26/M03 A3006 2170 14 3900 VRB/03 RMK AO2 $
53144K9L2 9L220160301132510203/01/16 13:25:31  5-MIN K9L2 012125Z AUTO 15003KT 10SM CLR 26/M03 A3006 2180 14 3900 130/03 RMK AO2 $
53144K9L2 9L220160301133010203/01/16 13:30:31  5-MIN K9L2 012130Z AUTO VRB03KT 10SM CLR 26/M03 A3006 2180 14 4000 VRB/03 RMK AO2 $
53144K9L2 9L220160301133510203/01/16 13:35:31  5-MIN K9L2 012135Z AUTO 15005KT 10SM CLR 26/M03 A3005 2180 14 4000 140/05 RMK AO2 $
53144K9L2 9L220160301134010203/01/16 13:40:31  5-MIN K9L2 012140Z AUTO 14005KT 10SM CLR 26/M03 A3005 2180 14 4000 130/05 RMK AO2 $
53144K9L2 9L220160301134510203/01/16 13:45:31  5-MIN K9L2 012145Z AUTO 16006KT 10SM CLR 27/M03 A3004 2190 13 4100 150/06 RMK AO2 $
53144K9L2 9L220160301135010203/01/16 13:50:31  5-MIN K9L2 012150Z AUTO 17007KT 10SM CLR 27/M04 A3004 2190 12 4100 160/07 RMK AO2 $
53144K9L2 9L220160301135511903/01/16 13:55:31  5-MIN K9L2 012155Z AUTO 17007KT 10SM CLR 28/M04 A3004 2190 12 4200 160/07 RMK AO2 SLP164 T02781039 $
53144K9L2 9L220160301140010203/01/16 14:00:31  5-MIN K9L2 012200Z AUTO 18005KT 10SM CLR 28/M04 A3004 2190 12 4200 170/05 RMK AO2 $
53144K9L2 9L220160301140510203/01/16 14:05:31  5-MIN K9L2 012205Z AUTO 19007KT 10SM CLR 28/M04 A3004 2200 12 4200 180/07 RMK AO2 $
53144K9L2 9L220160301141010203/01/16 14:10:31  5-MIN K9L2 012210Z AUTO 20006KT 10SM CLR 28/M04 A3004 2200 12 4300 190/06 RMK AO2 $
53144K9L2 9L220160301141512403/01/16 14:15:31  5-MIN K9L2 012215Z AUTO 21010G18KT 130V250 10SM CLR 28/M04 A3003 2200 11 4300 200/10G18 120V240 RMK AO2 $
53144K9L2 9L220160301142010803/01/16 14:20:31  5-MIN K9L2 012220Z AUTO 22012G18KT 10SM CLR 29/M05 A3003 2200 10 4300 210/12G18 RMK AO2 $
53144K9L2 9L220160301142510803/01/16 14:25:31  5-MIN K9L2 012225Z AUTO 23010G16KT 10SM CLR 29/M06 A3003 2200 10 4400 220/10G16 RMK AO2 $
53144K9L2 9L220160301143010203/01/16 14:30:31  5-MIN K9L2 012230Z AUTO 24011KT 10SM CLR 29/M05 A3003 2200 10 4400 230/11 RMK AO2 $
53144K9L2 9L220160301143510803/01/16 14:35:31  5-MIN K9L2 012235Z AUTO 25012G17KT 10SM CLR 29/M04 A3003 2200 10 4400 240/12G17 RMK AO2 $
53144K9L2 9L220160301144010803/01/16 14:40:31  5-MIN K9L2 012240Z AUTO 25009G17KT 10SM CLR 29/M04 A3003 2200 11 4300 240/09G17 RMK AO2 $
53144K9L2 9L220160301144510203/01/16 14:45:31  5-MIN K9L2 012245Z AUTO 23012KT 10SM CLR 29/M04 A3003 2200 11 4400 210/12 RMK AO2 $
53144K9L2 9L220160301145010803/01/16 14:50:31  5-MIN K9L2 012250Z AUTO 25006G15KT 10SM CLR 29/M04 A3003 2200 11 4300 240/06G15 RMK AO2 $
53144K9L2 9L220160301145511903/01/16 14:55:31  5-MIN K9L2 012255Z AUTO 23008KT 10SM CLR 29/M04 A3003 2200 11 4400 220/08 RMK AO2 SLP158 T02941039 $
53144K9L2 9L220160301150010203/01/16 15:00:31  5-MIN K9L2 012300Z AUTO 25010KT 10SM CLR 29/M03 A3003 2200 11 4400 240/10 RMK AO2 $
53144K9L2 9L220160301150510803/01/16 15:05:31  5-MIN K9L2 012305Z AUTO 29011G17KT 10SM CLR 29/M03 A3003 2200 12 4300 280/11G17 RMK AO2 $
53144K9L2 9L220160301151010803/01/16 15:10:31  5-MIN K9L2 012310Z AUTO 29014G20KT 10SM CLR 29/M03 A3003 2200 11 4400 280/14G20 RMK AO2 $
53144K9L2 9L220160301151510803/01/16 15:15:31  5-MIN K9L2 012315Z AUTO 29011G20KT 10SM CLR 29/M03 A3003 2200 12 4300 270/11G20 RMK AO2 $
53144K9L2 9L220160301152010203/01/16 15:20:31  5-MIN K9L2 012320Z AUTO 29014KT 10SM CLR 29/M03 A3003 2200 12 4300 270/14 RMK AO2 $
53144K9L2 9L220160301152510203/01/16 15:25:31  5-MIN K9L2 012325Z AUTO 28009KT 10SM CLR 29/M03 A3003 2200 12 4300 270/09 RMK AO2 $
53144K9L2 9L220160301153010803/01/16 15:30:31  5-MIN K9L2 012330Z AUTO 29012G18KT 10SM CLR 28/M03 A3003 2200 12 4300 270/12G18 RMK AO2 $
53144K9L2 9L220160301153510803/01/16 15:35:31  5-MIN K9L2 012335Z AUTO 28016G20KT 10SM CLR 28/M03 A3003 2200 12 4300 270/16G20 RMK AO2 $
53144K9L2 9L220160301154010203/01/16 15:40:31  5-MIN K9L2 012340Z AUTO 29014KT 10SM CLR 28/M04 A3004 2200 12 4300 280/14 RMK AO2 $
53144K9L2 9L220160301154510203/01/16 15:45:31  5-MIN K9L2 012345Z AUTO 30015KT 10SM CLR 28/M04 A3004 2200 12 4300 290/15 RMK AO2 $
53144K9L2 9L220160301155010803/01/16 15:50:31  5-MIN K9L2 012350Z AUTO 29015G20KT 10SM CLR 28/M04 A3004 2190 11 4200 280/15G20 RMK AO2 $
53144K9L2 9L220160301155514303/01/16 15:55:31  5-MIN K9L2 012355Z AUTO 29017G21KT 10SM CLR 28/M04 A3004 2190 11 4200 270/17G21 RMK AO2 SLP164 T02781044 10294 20161 58027 $
53144K9L2 9L220160301160010203/01/16 16:00:31  5-MIN K9L2 020000Z AUTO 29018KT 10SM CLR 28/M04 A3004 2190 11 4200 270/18 RMK AO2 $
53144K9L2 9L220160301160510203/01/16 16:05:31  5-MIN K9L2 020005Z AUTO 29016KT 10SM CLR 28/M04 A3004 2190 12 4200 280/16 RMK AO2 $
53144K9L2 9L220160301161010203/01/16 16:10:31  5-MIN K9L2 020010Z AUTO 29015KT 10SM CLR 27/M04 A3004 2190 12 4100 280/15 RMK AO2 $
53144K9L2 9L220160301161510803/01/16 16:15:31  5-MIN K9L2 020015Z AUTO 30017G22KT 10SM CLR 27/M04 A3004 2190 12 4100 280/17G22 RMK AO2 $
53144K9L2 9L220160301162010803/01/16 16:20:31  5-MIN K9L2 020020Z AUTO 29017G22KT 10SM CLR 27/M04 A3004 2190 12 4100 280/17G22 RMK AO2 $
53144K9L2 9L220160301162510203/01/16 16:25:31  5-MIN K9L2 020025Z AUTO 29017KT 10SM CLR 27/M05 A3004 2190 12 4100 280/17 RMK AO2 $
53144K9L2 9L220160301163010203/01/16 16:30:31  5-MIN K9L2 020030Z AUTO 29017KT 10SM CLR 27/M05 A3004 2190 12 4100 280/17 RMK AO2 $
53144K9L2 9L220160301163510203/01/16 16:35:31  5-MIN K9L2 020035Z AUTO 28017KT 10SM CLR 26/M05 A3004 2190 12 4000 270/17 RMK AO2 $
53144K9L2 9L220160301164010203/01/16 16:40:31  5-MIN K9L2 020040Z AUTO 29017KT 10SM CLR 26/M05 A3004 2190 12 4000 270/17 RMK AO2 $
53144K9L2 9L220160301164510803/01/16 16:45:31  5-MIN K9L2 020045Z AUTO 29015G22KT 10SM CLR 26/M05 A3004 2190 13 3900 280/15G22 RMK AO2 $
53144K9L2 9L220160301165010803/01/16 16:50:31  5-MIN K9L2 020050Z AUTO 29015G21KT 10SM CLR 26/M05 A3005 2190 13 3900 270/15G21 RMK AO2 $
53144K9L2 9L220160301165511903/01/16 16:55:31  5-MIN K9L2 020055Z AUTO 28014KT 10SM CLR 26/M04 A3005 2190 14 3900 260/14 RMK AO2 SLP170 T02561039 $
53144K9L2 9L220160301170010203/01/16 17:00:31  5-MIN K9L2 020100Z AUTO 28015KT 10SM CLR 25/M04 A3005 2190 14 3900 260/15 RMK AO2 $
53144K9L2 9L220160301170510803/01/16 17:05:31  5-MIN K9L2 020105Z AUTO 28015G20KT 10SM CLR 25/M04 A3005 2180 14 3900 270/15G20 RMK AO2 $
53144K9L2 9L220160301171010803/01/16 17:10:31  5-MIN K9L2 020110Z AUTO 28015G20KT 10SM CLR 24/M04 A3005 2180 14 3800 260/15G20 RMK AO2 $
53144K9L2 9L220160301171510203/01/16 17:15:31  5-MIN K9L2 020115Z AUTO 27013KT 10SM CLR 24/M04 A3005 2180 15 3800 260/13 RMK AO2 $
53144K9L2 9L220160301172010203/01/16 17:20:31  5-MIN K9L2 020120Z AUTO 28013KT 10SM CLR 24/M04 A3005 2180 15 3700 260/13 RMK AO2 $
53144K9L2 9L220160301172510203/01/16 17:25:31  5-MIN K9L2 020125Z AUTO 28015KT 10SM CLR 23/M03 A3005 2180 16 3700 260/15 RMK AO2 $
53144K9L2 9L220160301173010203/01/16 17:30:31  5-MIN K9L2 020130Z AUTO 28013KT 10SM CLR 23/M03 A3005 2180 16 3700 260/13 RMK AO2 $
53144K9L2 9L220160301173510203/01/16 17:35:31  5-MIN K9L2 020135Z AUTO 28013KT 10SM CLR 23/M03 A3006 2180 17 3600 270/13 RMK AO2 $
53144K9L2 9L220160301174010203/01/16 17:40:31  5-MIN K9L2 020140Z AUTO 28015KT 10SM CLR 23/M03 A3006 2180 17 3600 270/15 RMK AO2 $
53144K9L2 9L220160301174510203/01/16 17:45:31  5-MIN K9L2 020145Z AUTO 28014KT 10SM CLR 22/M03 A3006 2170 17 3500 270/14 RMK AO2 $
53144K9L2 9L220160301175010203/01/16 17:50:31  5-MIN K9L2 020150Z AUTO 28015KT 10SM CLR 22/M03 A3006 2170 17 3500 270/15 RMK AO2 $
53144K9L2 9L220160301175511903/01/16 17:55:31  5-MIN K9L2 020155Z AUTO 28013KT 10SM CLR 22/M03 A3007 2170 18 3500 260/13 RMK AO2 SLP179 T02171033 $
53144K9L2 9L220160301180010203/01/16 18:00:31  5-MIN K9L2 020200Z AUTO 28014KT 10SM CLR 22/M03 A3007 2170 19 3500 270/14 RMK AO2 $
53144K9L2 9L220160301180510203/01/16 18:05:31  5-MIN K9L2 020205Z AUTO 28015KT 10SM CLR 22/M03 A3006 2170 18 3500 270/15 RMK AO2 $
53144K9L2 9L220160301181010203/01/16 18:10:31  5-MIN K9L2 020210Z AUTO 28015KT 10SM CLR 22/M03 A3007 2170 18 3500 270/15 RMK AO2 $
53144K9L2 9L220160301181510203/01/16 18:15:31  5-MIN K9L2 020215Z AUTO 28013KT 10SM CLR 21/M03 A3007 2170 19 3400 270/13 RMK AO2 $
53144K9L2 9L220160301182010203/01/16 18:20:31  5-MIN K9L2 020220Z AUTO 28013KT 10SM CLR 21/M03 A3007 2160 19 3400 270/13 RMK AO2 $
53144K9L2 9L220160301182510203/01/16 18:25:31  5-MIN K9L2 020225Z AUTO 28012KT 10SM CLR 21/M03 A3007 2160 20 3300 270/12 RMK AO2 $
53144K9L2 9L220160301183010203/01/16 18:30:31  5-MIN K9L2 020230Z AUTO 28013KT 10SM CLR 21/M03 A3007 2160 20 3300 270/13 RMK AO2 $
53144K9L2 9L220160301183510203/01/16 18:35:31  5-MIN K9L2 020235Z AUTO 28014KT 10SM CLR 21/M02 A3007 2160 21 3300 270/14 RMK AO2 $
53144K9L2 9L220160301184010203/01/16 18:40:31  5-MIN K9L2 020240Z AUTO 28015KT 10SM CLR 20/M02 A3007 2160 22 3300 270/15 RMK AO2 $
53144K9L2 9L220160301184510203/01/16 18:45:31  5-MIN K9L2 020245Z AUTO 28014KT 10SM CLR 20/M02 A3007 2160 22 3300 270/14 RMK AO2 $
53144K9L2 9L220160301185010203/01/16 18:50:31  5-MIN K9L2 020250Z AUTO 28014KT 10SM CLR 20/M02 A3007 2160 22 3300 270/14 RMK AO2 $
53144K9L2 9L220160301185512503/01/16 18:55:31  5-MIN K9L2 020255Z AUTO 27013KT 10SM CLR 20/M02 A3008 2160 23 3300 260/13 RMK AO2 SLP181 T02001017 55012 $
53144K9L2 9L220160301190010203/01/16 19:00:31  5-MIN K9L2 020300Z AUTO 28013KT 10SM CLR 19/M02 A3007 2160 24 3200 270/13 RMK AO2 $
53144K9L2 9L220160301190510203/01/16 19:05:31  5-MIN K9L2 020305Z AUTO 27010KT 10SM CLR 19/M02 A3007 2160 24 3200 260/10 RMK AO2 $
53144K9L2 9L220160301191010203/01/16 19:10:31  5-MIN K9L2 020310Z AUTO 27010KT 10SM CLR 19/M02 A3007 2160 24 3200 260/10 RMK AO2 $
53144K9L2 9L220160301191510203/01/16 19:15:31  5-MIN K9L2 020315Z AUTO 27011KT 10SM CLR 19/M01 A3007 2160 25 3200 260/11 RMK AO2 $
53144K9L2 9L220160301192010203/01/16 19:20:31  5-MIN K9L2 020320Z AUTO 27010KT 10SM CLR 19/M01 A3008 2160 25 3100 250/10 RMK AO2 $
53144K9L2 9L220160301192510203/01/16 19:25:31  5-MIN K9L2 020325Z AUTO 27012KT 10SM CLR 19/M01 A3008 2160 25 3100 260/12 RMK AO2 $
53144K9L2 9L220160301193010203/01/16 19:30:31  5-MIN K9L2 020330Z AUTO 27013KT 10SM CLR 19/M01 A3008 2160 25 3100 260/13 RMK AO2 $
53144K9L2 9L220160301193510203/01/16 19:35:31  5-MIN K9L2 020335Z AUTO 27013KT 10SM CLR 19/M01 A3008 2160 25 3100 250/13 RMK AO2 $
53144K9L2 9L220160301194010203/01/16 19:40:31  5-MIN K9L2 020340Z AUTO 27012KT 10SM CLR 19/M01 A3008 2160 25 3100 260/12 RMK AO2 $
53144K9L2 9L220160301194510203/01/16 19:45:31  5-MIN K9L2 020345Z AUTO 27013KT 10SM CLR 19/M01 A3008 2160 25 3100 260/13 RMK AO2 $
53144K9L2 9L220160301195010203/01/16 19:50:31  5-MIN K9L2 020350Z AUTO 27014KT 10SM CLR 19/M02 A3008 2160 24 3100 250/14 RMK AO2 $
53144K9L2 9L220160301195511903/01/16 19:55:31  5-MIN K9L2 020355Z AUTO 27013KT 10SM CLR 18/M02 A3008 2150 25 3100 250/13 RMK AO2 SLP183 T01831017 $
53144K9L2 9L220160301200010203/01/16 20:00:31  5-MIN K9L2 020400Z AUTO 26014KT 10SM CLR 18/M02 A3008 2150 25 3100 250/14 RMK AO2 $
53144K9L2 9L220160301200510203/01/16 20:05:31  5-MIN K9L2 020405Z AUTO 26013KT 10SM CLR 18/M02 A3009 2150 25 3100 250/13 RMK AO2 $
53144K9L2 9L220160301201010203/01/16 20:10:31  5-MIN K9L2 020410Z AUTO 27012KT 10SM CLR 18/M02 A3008 2150 25 3100 260/12 RMK AO2 $
53144K9L2 9L220160301201510203/01/16 20:15:31  5-MIN K9L2 020415Z AUTO 26014KT 10SM CLR 18/M02 A3008 2150 25 3100 250/14 RMK AO2 $
53144K9L2 9L220160301202010203/01/16 20:20:31  5-MIN K9L2 020420Z AUTO 26014KT 10SM CLR 18/M02 A3008 2150 25 3100 250/14 RMK AO2 $
53144K9L2 9L220160301202510203/01/16 20:25:31  5-MIN K9L2 020425Z AUTO 26013KT 10SM CLR 18/M02 A3008 2150 25 3100 240/13 RMK AO2 $
53144K9L2 9L220160301203010203/01/16 20:30:31  5-MIN K9L2 020430Z AUTO 26012KT 10SM CLR 18/M02 A3009 2150 24 3100 240/12 RMK AO2 $
53144K9L2 9L220160301203510203/01/16 20:35:31  5-MIN K9L2 020435Z AUTO 25008KT 10SM CLR 18/M02 A3009 2150 24 3100 230/08 RMK AO2 $
53144K9L2 9L220160301204010203/01/16 20:40:31  5-MIN K9L2 020440Z AUTO 23008KT 10SM CLR 18/M02 A3009 2150 25 3000 210/08 RMK AO2 $
53144K9L2 9L220160301204510203/01/16 20:45:31  5-MIN K9L2 020445Z AUTO 23009KT 10SM CLR 17/M03 A3009 2150 25 2900 210/09 RMK AO2 $
53144K9L2 9L220160301205010203/01/16 20:50:31  5-MIN K9L2 020450Z AUTO 22007KT 10SM CLR 17/M03 A3009 2150 24 2900 210/07 RMK AO2 $
53144K9L2 9L220160301205511903/01/16 20:55:31  5-MIN K9L2 020455Z AUTO 21004KT 10SM CLR 16/M03 A3009 2140 27 2700 190/04 RMK AO2 SLP187 T01561033 $
53144K9L2 9L220160301210010203/01/16 21:00:31  5-MIN K9L2 020500Z AUTO 20005KT 10SM CLR 14/M03 A3009 2140 29 2600 180/05 RMK AO2 $
53144K9L2 9L220160301210510203/01/16 21:05:31  5-MIN K9L2 020505Z AUTO 19006KT 10SM CLR 14/M03 A3009 2140 29 2600 180/06 RMK AO2 $
53144K9L2 9L220160301211010203/01/16 21:10:31  5-MIN K9L2 020510Z AUTO 21004KT 10SM CLR 14/M03 A3009 2140 29 2600 190/04 RMK AO2 $
53144K9L2 9L220160301211510203/01/16 21:15:31  5-MIN K9L2 020515Z AUTO 07004KT 10SM CLR 14/M03 A3009 2140 29 2600 060/04 RMK AO2 $
53144K9L2 9L220160301212010203/01/16 21:20:31  5-MIN K9L2 020520Z AUTO VRB04KT 10SM CLR 15/M03 A3009 2140 28 2700 VRB/04 RMK AO2 $
53144K9L2 9L220160301212510203/01/16 21:25:31  5-MIN K9L2 020525Z AUTO 00000KT 10SM CLR 17/M03 A3009 2140 25 2900 000/00 RMK AO2 $
53144K9L2 9L220160301213010203/01/16 21:30:31  5-MIN K9L2 020530Z AUTO 25005KT 10SM CLR 17/M03 A3009 2140 24 2900 230/05 RMK AO2 $
53144K9L2 9L220160301213510203/01/16 21:35:31  5-MIN K9L2 020535Z AUTO 24004KT 10SM CLR 17/M03 A3009 2140 24 2900 230/04 RMK AO2 $
53144K9L2 9L220160301214010203/01/16 21:40:31  5-MIN K9L2 020540Z AUTO 23004KT 10SM CLR 17/M03 A3009 2150 24 2900 210/04 RMK AO2 $
53144K9L2 9L220160301214510203/01/16 21:45:31  5-MIN K9L2 020545Z AUTO 21005KT 10SM CLR 17/M03 A3009 2150 24 2900 190/05 RMK AO2 $
53144K9L2 9L220160301215010203/01/16 21:50:31  5-MIN K9L2 020550Z AUTO 22007KT 10SM CLR 16/M03 A3009 2150 26 2800 200/07 RMK AO2 $
53144K9L2 9L220160301215513703/01/16 21:55:31  5-MIN K9L2 020555Z AUTO 22008KT 10SM CLR 16/M03 A3009 2150 27 2800 210/08 RMK AO2 SLP183 T01561033 10278 20144 53012 $
53144K9L2 9L220160301220010203/01/16 22:00:31  5-MIN K9L2 020600Z AUTO 22007KT 10SM CLR 16/M03 A3008 2150 27 2800 210/07 RMK AO2 $
53144K9L2 9L220160301220510203/01/16 22:05:31  5-MIN K9L2 020605Z AUTO 23009KT 10SM CLR 15/M03 A3008 2150 28 2700 210/09 RMK AO2 $
53144K9L2 9L220160301221010203/01/16 22:10:31  5-MIN K9L2 020610Z AUTO 23011KT 10SM CLR 16/M03 A3008 2160 28 2800 210/11 RMK AO2 $
53144K9L2 9L220160301221510203/01/16 22:15:31  5-MIN K9L2 020615Z AUTO 23013KT 10SM CLR 16/M03 A3007 2160 28 2800 220/13 RMK AO2 $
53144K9L2 9L220160301222010203/01/16 22:20:31  5-MIN K9L2 020620Z AUTO 22011KT 10SM CLR 16/M03 A3007 2160 27 2800 200/11 RMK AO2 $
53144K9L2 9L220160301222510203/01/16 22:25:31  5-MIN K9L2 020625Z AUTO 20011KT 10SM CLR 15/M03 A3007 2160 29 2700 190/11 RMK AO2 $
53144K9L2 9L220160301223010203/01/16 22:30:31  5-MIN K9L2 020630Z AUTO 20011KT 10SM CLR 14/M02 A3007 2160 31 2600 180/11 RMK AO2 $
53144K9L2 9L220160301223510203/01/16 22:35:31  5-MIN K9L2 020635Z AUTO 20010KT 10SM CLR 14/M02 A3007 2160 33 2600 190/10 RMK AO2 $
53144K9L2 9L220160301224010203/01/16 22:40:31  5-MIN K9L2 020640Z AUTO 20008KT 10SM CLR 14/M02 A3007 2160 33 2600 190/08 RMK AO2 $
53144K9L2 9L220160301224510203/01/16 22:45:31  5-MIN K9L2 020645Z AUTO 19009KT 10SM CLR 14/M02 A3008 2160 34 2600 180/09 RMK AO2 $
53144K9L2 9L220160301225010203/01/16 22:50:31  5-MIN K9L2 020650Z AUTO 19008KT 10SM CLR 14/M02 A3008 2150 33 2600 180/08 RMK AO2 $
53144K9L2 9L220160301225511903/01/16 22:55:31  5-MIN K9L2 020655Z AUTO 19008KT 10SM CLR 14/M02 A3008 2160 34 2600 170/08 RMK AO2 SLP179 T01391017 $
53144K9L2 9L220160301230010203/01/16 23:00:31  5-MIN K9L2 020700Z AUTO 18008KT 10SM CLR 14/M02 A3008 2160 34 2600 170/08 RMK AO2 $
53144K9L2 9L220160301230510203/01/16 23:05:31  5-MIN K9L2 020705Z AUTO 19009KT 10SM CLR 13/M02 A3007 2160 36 2400 180/09 RMK AO2 $
53144K9L2 9L220160301231010203/01/16 23:10:31  5-MIN K9L2 020710Z AUTO 19009KT 10SM CLR 13/M02 A3007 2160 35 2500 180/09 RMK AO2 $
53144K9L2 9L220160301231510203/01/16 23:15:31  5-MIN K9L2 020715Z AUTO 20010KT 10SM CLR 13/M02 A3007 2160 35 2500 180/10 RMK AO2 $
53144K9L2 9L220160301232010203/01/16 23:20:31  5-MIN K9L2 020720Z AUTO 20010KT 10SM CLR 14/M02 A3007 2170 32 2600 180/10 RMK AO2 $
53144K9L2 9L220160301232510203/01/16 23:25:31  5-MIN K9L2 020725Z AUTO 21009KT 10SM CLR 13/M02 A3007 2170 34 2500 190/09 RMK AO2 $
53144K9L2 9L220160301233010203/01/16 23:30:31  5-MIN K9L2 020730Z AUTO 21007KT 10SM CLR 13/M02 A3007 2160 34 2500 190/07 RMK AO2 $
53144K9L2 9L220160301233510203/01/16 23:35:31  5-MIN K9L2 020735Z AUTO 21009KT 10SM CLR 13/M03 A3007 2160 32 2500 190/09 RMK AO2 $
53144K9L2 9L220160301234010203/01/16 23:40:31  5-MIN K9L2 020740Z AUTO 20007KT 10SM CLR 13/M03 A3007 2160 32 2500 190/07 RMK AO2 $
53144K9L2 9L220160301234510203/01/16 23:45:31  5-MIN K9L2 020745Z AUTO 20006KT 10SM CLR 13/M03 A3007 2170 33 2400 190/06 RMK AO2 $
53144K9L2 9L220160301235010203/01/16 23:50:31  5-MIN K9L2 020750Z AUTO 22004KT 10SM CLR 13/M03 A3007 2160 32 2500 200/04 RMK AO2 $
53144K9L2 9L220160301235512903/01/16 23:55:31  5-MIN K9L2 020755Z AUTO 21005KT 10SM CLR 14/M03 A3007 2160 30 2600 200/05 RMK AO2 SLP174 T01391033 402940044 $
53144K9L2 9L220160302000010203/02/16 00:00:31  5-MIN K9L2 020800Z AUTO 00000KT 10SM CLR 13/M03 A3007 2160 31 2500 000/00 RMK AO2 $
53144K9L2 9L220160302000510203/02/16 00:05:31  5-MIN K9L2 020805Z AUTO 10003KT 10SM CLR 13/M03 A3007 2160 31 2500 090/03 RMK AO2 $
53144K9L2 9L220160302001010203/02/16 00:10:31  5-MIN K9L2 020810Z AUTO 10006KT 10SM CLR 13/M03 A3007 2170 31 2500 090/06 RMK AO2 $
53144K9L2 9L220160302001510203/02/16 00:15:31  5-MIN K9L2 020815Z AUTO 00000KT 10SM CLR 15/M04 A3007 2170 27 2700 000/00 RMK AO2 $
53144K9L2 9L220160302002010203/02/16 00:20:31  5-MIN K9L2 020820Z AUTO 06006KT 10SM CLR 14/M04 A3007 2160 29 2600 040/06 RMK AO2 $
53144K9L2 9L220160302002510203/02/16 00:25:31  5-MIN K9L2 020825Z AUTO VRB03KT 10SM CLR 13/M04 A3007 2160 30 2500 VRB/03 RMK AO2 $
53144K9L2 9L220160302003010203/02/16 00:30:31  5-MIN K9L2 020830Z AUTO 00000KT 10SM CLR 15/M04 A3007 2170 27 2700 000/00 RMK AO2 $
53144K9L2 9L220160302003510203/02/16 00:35:31  5-MIN K9L2 020835Z AUTO VRB05KT 10SM CLR 16/M04 A3006 2170 24 2800 VRB/05 RMK AO2 $
53144K9L2 9L220160302004010203/02/16 00:40:31  5-MIN K9L2 020840Z AUTO 00000KT 10SM CLR 16/M04 A3006 2170 24 2800 000/00 RMK AO2 $
53144K9L2 9L220160302004510203/02/16 00:45:31  5-MIN K9L2 020845Z AUTO 00000KT 10SM CLR 16/M04 A3006 2170 24 2800 000/00 RMK AO2 $
53144K9L2 9L220160302005010203/02/16 00:50:31  5-MIN K9L2 020850Z AUTO 00000KT 10SM CLR 16/M04 A3006 2170 24 2800 000/00 RMK AO2 $
53144K9L2 9L220160302005512503/02/16 00:55:31  5-MIN K9L2 020855Z AUTO 00000KT 10SM CLR 15/M04 A3006 2170 25 2700 000/00 RMK AO2 SLP169 T01501044 50004 $
53144K9L2 9L220160302010010203/02/16 01:00:31  5-MIN K9L2 020900Z AUTO 00000KT 10SM CLR 16/M04 A3006 2170 25 2800 000/00 RMK AO2 $
53144K9L2 9L220160302010510203/02/16 01:05:31  5-MIN K9L2 020905Z AUTO 21005KT 10SM CLR 15/M04 A3006 2180 25 2700 200/05 RMK AO2 $
53144K9L2 9L220160302011010203/02/16 01:10:31  5-MIN K9L2 020910Z AUTO 22009KT 10SM CLR 15/M04 A3006 2180 25 2700 210/09 RMK AO2 $
53144K9L2 9L220160302011510203/02/16 01:15:31  5-MIN K9L2 020915Z AUTO 23005KT 10SM CLR 16/M05 A3006 2170 23 2800 220/05 RMK AO2 $
53144K9L2 9L220160302012010203/02/16 01:20:31  5-MIN K9L2 020920Z AUTO 24004KT 10SM CLR 16/M05 A3006 2170 24 2800 220/04 RMK AO2 $
53144K9L2 9L220160302012510203/02/16 01:25:31  5-MIN K9L2 020925Z AUTO 26004KT 10SM CLR 17/M05 A3006 2170 22 2900 250/04 RMK AO2 $
53144K9L2 9L220160302013010203/02/16 01:30:31  5-MIN K9L2 020930Z AUTO 00000KT 10SM CLR 16/M05 A3006 2170 24 2800 000/00 RMK AO2 $
53144K9L2 9L220160302013510203/02/16 01:35:31  5-MIN K9L2 020935Z AUTO 15009KT 10SM CLR 12/M03 A3006 2170 33 2400 140/09 RMK AO2 $
53144K9L2 9L220160302014010203/02/16 01:40:31  5-MIN K9L2 020940Z AUTO 15011KT 10SM CLR 12/M03 A3006 2170 35 2300 140/11 RMK AO2 $
53144K9L2 9L220160302014511803/02/16 01:45:31  5-MIN K9L2 020945Z AUTO 19007KT 160V240 10SM CLR 12/M03 A3006 2180 35 2400 170/07 150V230 RMK AO2 $
53144K9L2 9L220160302015012403/02/16 01:50:31  5-MIN K9L2 020950Z AUTO 22008G15KT 190V270 10SM CLR 13/M04 A3005 2180 30 2500 210/08G15 180V260 RMK AO2 $
53144K9L2 9L220160302015512503/02/16 01:55:31  5-MIN K9L2 020955Z AUTO VRB05G15KT 10SM CLR 17/M04 A3006 2180 23 2900 VRB/05G15 RMK AO2 SLP164 T01671044 $
53144K9L2 9L220160302020011803/02/16 02:00:31  5-MIN K9L2 021000Z AUTO 28007KT 250V340 10SM CLR 16/M04 A3006 2180 25 2800 270/07 240V330 RMK AO2 $
53144K9L2 9L220160302020510203/02/16 02:05:31  5-MIN K9L2 021005Z AUTO 13008KT 10SM CLR 14/M04 A3005 2180 28 2700 120/08 RMK AO2 $
53144K9L2 9L220160302021010203/02/16 02:10:31  5-MIN K9L2 021010Z AUTO 14010KT 10SM CLR 13/M03 A3005 2180 32 2500 120/10 RMK AO2 $
53144K9L2 9L220160302021510203/02/16 02:15:31  5-MIN K9L2 021015Z AUTO 14005KT 10SM CLR 13/M03 A3005 2180 32 2500 130/05 RMK AO2 $
53144K9L2 9L220160302022010203/02/16 02:20:31  5-MIN K9L2 021020Z AUTO 15009KT 10SM CLR 14/M04 A3005 2180 29 2600 130/09 RMK AO2 $
53144K9L2 9L220160302022510203/02/16 02:25:31  5-MIN K9L2 021025Z AUTO 18007KT 10SM CLR 14/M03 A3005 2190 30 2600 170/07 RMK AO2 $
53144K9L2 9L220160302023010203/02/16 02:30:31  5-MIN K9L2 021030Z AUTO 21011KT 10SM CLR 14/M04 A3004 2190 28 2700 190/11 RMK AO2 $
53144K9L2 9L220160302023510203/02/16 02:35:31  5-MIN K9L2 021035Z AUTO 20009KT 10SM CLR 15/M04 A3004 2190 25 2700 180/09 RMK AO2 $
53144K9L2 9L220160302024010203/02/16 02:40:31  5-MIN K9L2 021040Z AUTO 23009KT 10SM CLR 14/M04 A3005 2190 26 2700 210/09 RMK AO2 $
53144K9L2 9L220160302024510203/02/16 02:45:31  5-MIN K9L2 021045Z AUTO 23008KT 10SM CLR 14/M04 A3005 2190 26 2700 220/08 RMK AO2 $
53144K9L2 9L220160302025010203/02/16 02:50:31  5-MIN K9L2 021050Z AUTO 21008KT 10SM CLR 14/M04 A3005 2190 27 2600 200/08 RMK AO2 $
53144K9L2 9L220160302105010203/02/16 10:50:31  5-MIN K9L2 021850Z AUTO 04010KT 10SM CLR 26/M03 A3007 2160 15 3900 030/10 RMK AO2 $
53144K9L2 9L220160302105511903/02/16 10:55:31  5-MIN K9L2 021855Z AUTO 05010KT 10SM CLR 26/M03 A3007 2160 15 3900 030/10 RMK AO2 SLP172 T02561028 $
53144K9L2 9L220160302110010203/02/16 11:00:31  5-MIN K9L2 021900Z AUTO 05008KT 10SM CLR 25/M03 A3007 2160 15 3800 040/08 RMK AO2 $
53144K9L2 9L220160302110510203/02/16 11:05:31  5-MIN K9L2 021905Z AUTO 03010KT 10SM CLR 26/M03 A3007 2160 15 3900 020/10 RMK AO2 $
53144K9L2 9L220160302111010203/02/16 11:10:31  5-MIN K9L2 021910Z AUTO 04009KT 10SM CLR 26/M03 A3008 2160 15 3900 030/09 RMK AO2 $
53144K9L2 9L220160302111510203/02/16 11:15:31  5-MIN K9L2 021915Z AUTO 04008KT 10SM CLR 26/M03 A3007 2160 15 3900 030/08 RMK AO2 $
53144K9L2 9L220160302112010203/02/16 11:20:31  5-MIN K9L2 021920Z AUTO 06008KT 10SM CLR 25/M03 A3007 2160 15 3800 050/08 RMK AO2 $
53144K9L2 9L220160302112510203/02/16 11:25:31  5-MIN K9L2 021925Z AUTO 05009KT 10SM CLR 25/M03 A3007 2160 15 3800 030/09 RMK AO2 $
53144K9L2 9L220160302113010203/02/16 11:30:31  5-MIN K9L2 021930Z AUTO 05008KT 10SM CLR 26/M02 A3007 2160 16 3900 030/08 RMK AO2 $
53144K9L2 9L220160302113510203/02/16 11:35:31  5-MIN K9L2 021935Z AUTO 04008KT 10SM CLR 25/M02 A3007 2160 16 3800 030/08 RMK AO2 $
53144K9L2 9L220160302114010203/02/16 11:40:31  5-MIN K9L2 021940Z AUTO 07007KT 10SM CLR 26/M03 A3007 2160 15 3900 050/07 RMK AO2 $
53144K9L2 9L220160302114510203/02/16 11:45:31  5-MIN K9L2 021945Z AUTO 08006KT 10SM CLR 25/M03 A3007 2160 15 3800 060/06 RMK AO2 $
53144K9L2 9L220160302115010203/02/16 11:50:31  5-MIN K9L2 021950Z AUTO 06006KT 10SM CLR 25/M03 A3007 2170 15 3800 040/06 RMK AO2 $
53144K9L2 9L220160302115511903/02/16 11:55:31  5-MIN K9L2 021955Z AUTO 04004KT 10SM CLR 26/M04 A3007 2170 13 3900 030/04 RMK AO2 SLP171 T02561044 $
53144K9L2 9L220160302120010203/02/16 12:00:31  5-MIN K9L2 022000Z AUTO 01007KT 10SM CLR 27/M06 A3007 2170 11 4000 360/07 RMK AO2 $
53144K9L2 9L220160302120510203/02/16 12:05:31  5-MIN K9L2 022005Z AUTO VRB04KT 10SM CLR 26/M07 A3006 2170 10 4000 VRB/04 RMK AO2 $
53144K9L2 9L220160302121010203/02/16 12:10:31  5-MIN K9L2 022010Z AUTO 36005KT 10SM CLR 26/M08 A3006 2180 10 4000 340/05 RMK AO2 $
53144K9L2 9L220160302121510203/02/16 12:15:31  5-MIN K9L2 022015Z AUTO 00000KT 10SM CLR 26/M07 A3005 2180 10 4000 000/00 RMK AO2 $
53144K9L2 9L220160302122010203/02/16 12:20:31  5-MIN K9L2 022020Z AUTO 36005KT 10SM CLR 26/M08 A3005 2180 10 4000 340/05 RMK AO2 $
53144K9L2 9L220160302122510203/02/16 12:25:31  5-MIN K9L2 022025Z AUTO 33006KT 10SM CLR 27/M07 A3005 2180 10 4100 310/06 RMK AO2 $
53144K9L2 9L220160302123010203/02/16 12:30:31  5-MIN K9L2 022030Z AUTO VRB03KT 10SM CLR 26/M07 A3005 2190 10 4000 VRB/03 RMK AO2 $
53144K9L2 9L220160302123510203/02/16 12:35:31  5-MIN K9L2 022035Z AUTO 00000KT 10SM CLR 27/M07 A3004 2190 10 4100 000/00 RMK AO2 $
53144K9L2 9L220160302124010203/02/16 12:40:31  5-MIN K9L2 022040Z AUTO VRB03KT 10SM CLR 26/M07 A3004 2190 10 4000 VRB/03 RMK AO2 $
53144K9L2 9L220160302124510203/02/16 12:45:31  5-MIN K9L2 022045Z AUTO 00000KT 10SM CLR 26/M07 A3004 2190 10 4000 000/00 RMK AO2 $
53144K9L2 9L220160302125010203/02/16 12:50:31  5-MIN K9L2 022050Z AUTO VRB03KT 10SM CLR 27/M07 A3004 2190 10 4100 VRB/03 RMK AO2 $
53144K9L2 9L220160302125512503/02/16 12:55:31  5-MIN K9L2 022055Z AUTO 00000KT 10SM CLR 27/M07 A3003 2200 10 4100 000/00 RMK AO2 SLP158 T02671072 51001 $
53144K9L2 9L220160302130010203/02/16 13:00:31  5-MIN K9L2 022100Z AUTO 00000KT 10SM CLR 26/M07 A3003 2200 10 4000 000/00 RMK AO2 $
53144K9L2 9L220160302130510203/02/16 13:05:31  5-MIN K9L2 022105Z AUTO 00000KT 10SM CLR 27/M08 A3003 2200 09 4100 000/00 RMK AO2 $
53144K9L2 9L220160302131010203/02/16 13:10:31  5-MIN K9L2 022110Z AUTO 27005KT 10SM CLR 27/M09 A3003 2200 09 4100 260/05 RMK AO2 $
53144K9L2 9L220160302131510203/02/16 13:15:31  5-MIN K9L2 022115Z AUTO 28005KT 10SM CLR 27/M09 A3003 2200 09 4100 260/05 RMK AO2 $
53144K9L2 9L220160302132010203/02/16 13:20:31  5-MIN K9L2 022120Z AUTO 27005KT 10SM CLR 27/M08 A3003 2200 09 4100 260/05 RMK AO2 $
53144K9L2 9L220160302132510203/02/16 13:25:31  5-MIN K9L2 022125Z AUTO VRB03KT 10SM CLR 27/M09 A3002 2210 08 4100 VRB/03 RMK AO2 $
53144K9L2 9L220160302133010203/02/16 13:30:31  5-MIN K9L2 022130Z AUTO VRB03KT 10SM CLR 27/M08 A3002 2210 09 4100 VRB/03 RMK AO2 $
53144K9L2 9L220160302133510203/02/16 13:35:31  5-MIN K9L2 022135Z AUTO 31005KT 10SM CLR 27/M08 A3002 2210 09 4100 300/05 RMK AO2 $
53144K9L2 9L220160302134010203/02/16 13:40:31  5-MIN K9L2 022140Z AUTO VRB05KT 10SM CLR 28/M08 A3002 2210 09 4200 VRB/05 RMK AO2 $
53144K9L2 9L220160302134510203/02/16 13:45:31  5-MIN K9L2 022145Z AUTO 27003KT 10SM CLR 28/M08 A3002 2210 09 4200 260/03 RMK AO2 $
53144K9L2 9L220160302135010203/02/16 13:50:31  5-MIN K9L2 022150Z AUTO 22003KT 10SM CLR 27/M08 A3002 2210 09 4100 200/03 RMK AO2 $
53144K9L2 9L220160302135511903/02/16 13:55:31  5-MIN K9L2 022155Z AUTO 00000KT 10SM CLR 28/M08 A3002 2210 09 4200 000/00 RMK AO2 SLP150 T02781078 $
53144K9L2 9L220160302140010203/02/16 14:00:31  5-MIN K9L2 022200Z AUTO 00000KT 10SM CLR 28/M08 A3002 2210 09 4200 000/00 RMK AO2 $
53144K9L2 9L220160302140510203/02/16 14:05:31  5-MIN K9L2 022205Z AUTO 00000KT 10SM CLR 28/M08 A3001 2220 08 4200 000/00 RMK AO2 $
53144K9L2 9L220160302141010203/02/16 14:10:31  5-MIN K9L2 022210Z AUTO VRB03KT 10SM CLR 29/M08 A3001 2220 08 4300 VRB/03 RMK AO2 $
53144K9L2 9L220160302141510203/02/16 14:15:31  5-MIN K9L2 022215Z AUTO 36005KT 10SM CLR 29/M09 A3001 2220 07 4300 350/05 RMK AO2 $
53144K9L2 9L220160302142010203/02/16 14:20:31  5-MIN K9L2 022220Z AUTO 29006KT 10SM CLR 29/M10 A3001 2220 07 4300 280/06 RMK AO2 $
53144K9L2 9L220160302142510203/02/16 14:25:31  5-MIN K9L2 022225Z AUTO 29006KT 10SM CLR 28/M13 A3001 2220 06 4300 280/06 RMK AO2 $
53144K9L2 9L220160302143010203/02/16 14:30:31  5-MIN K9L2 022230Z AUTO 28010KT 10SM CLR 28/M13 A3001 2220 06 4300 270/10 RMK AO2 $
53144K9L2 9L220160302143510803/02/16 14:35:31  5-MIN K9L2 022235Z AUTO 29011G16KT 10SM CLR 28/M13 A3001 2220 06 4300 280/11G16 RMK AO2 $
53144K9L2 9L220160302144010203/02/16 14:40:31  5-MIN K9L2 022240Z AUTO 29012KT 10SM CLR 29/M13 A3001 2220 06 4300 270/12 RMK AO2 $
53144K9L2 9L220160302144510203/02/16 14:45:31  5-MIN K9L2 022245Z AUTO 29011KT 10SM CLR 28/M12 A3001 2220 06 4300 280/11 RMK AO2 $
53144K9L2 9L220160302145010203/02/16 14:50:31  5-MIN K9L2 022250Z AUTO 29013KT 10SM CLR 29/M12 A3001 2220 06 4300 270/13 RMK AO2 $
53144K9L2 9L220160302145511903/02/16 14:55:31  5-MIN K9L2 022255Z AUTO 29011KT 10SM CLR 29/M11 A3001 2220 06 4300 280/11 RMK AO2 SLP147 T02891111 $
53144K9L2 9L220160302150010803/02/16 15:00:31  5-MIN K9L2 022300Z AUTO 28012G17KT 10SM CLR 29/M11 A3001 2220 06 4300 260/12G17 RMK AO2 $
53144K9L2 9L220160302150510803/02/16 15:05:31  5-MIN K9L2 022305Z AUTO 29010G17KT 10SM CLR 28/M11 A3001 2220 07 4300 280/10G17 RMK AO2 $
53144K9L2 9L220160302151010203/02/16 15:10:31  5-MIN K9L2 022310Z AUTO 28009KT 10SM CLR 28/M11 A3000 2220 07 4300 270/09 RMK AO2 $
53144K9L2 9L220160302151510803/02/16 15:15:31  5-MIN K9L2 022315Z AUTO 28011G16KT 10SM CLR 29/M11 A3000 2220 06 4300 270/11G16 RMK AO2 $
53144K9L2 9L220160302152010803/02/16 15:20:31  5-MIN K9L2 022320Z AUTO 28013G18KT 10SM CLR 29/M12 A3000 2230 06 4300 260/13G18 RMK AO2 $
53144K9L2 9L220160302152510803/02/16 15:25:31  5-MIN K9L2 022325Z AUTO 29011G18KT 10SM CLR 29/M12 A3000 2230 06 4400 270/11G18 RMK AO2 $
53144K9L2 9L220160302153010803/02/16 15:30:31  5-MIN K9L2 022330Z AUTO 29014G19KT 10SM CLR 28/M12 A3000 2230 06 4300 280/14G19 RMK AO2 $
53144K9L2 9L220160302153510203/02/16 15:35:31  5-MIN K9L2 022335Z AUTO 28012KT 10SM CLR 28/M12 A3000 2230 06 4200 270/12 RMK AO2 $
53144K9L2 9L220160302154010803/02/16 15:40:31  5-MIN K9L2 022340Z AUTO 28013G18KT 10SM CLR 28/M12 A3000 2230 06 4300 270/13G18 RMK AO2 $
53144K9L2 9L220160302154510203/02/16 15:45:31  5-MIN K9L2 022345Z AUTO 28014KT 10SM CLR 28/M13 A3000 2230 06 4200 270/14 RMK AO2 $
53144K9L2 9L220160302155010203/02/16 15:50:31  5-MIN K9L2 022350Z AUTO 28017KT 10SM CLR 28/M12 A3000 2230 06 4200 260/17 RMK AO2 $
53144K9L2 9L220160302155513703/02/16 15:55:31  5-MIN K9L2 022355Z AUTO 28017KT 10SM CLR 28/M13 A3000 2230 06 4200 270/17 RMK AO2 SLP148 T02781128 10294 20244 58010 $
53144K9L2 9L220160302160010803/02/16 16:00:31  5-MIN K9L2 030000Z AUTO 28016G22KT 10SM CLR 28/M12 A3000 2230 06 4200 270/16G22 RMK AO2 $
53144K9L2 9L220160302160510803/02/16 16:05:31  5-MIN K9L2 030005Z AUTO 28018G22KT 10SM CLR 27/M12 A3000 2230 06 4200 270/18G22 RMK AO2 $
53144K9L2 9L220160302161010803/02/16 16:10:31  5-MIN K9L2 030010Z AUTO 29019G23KT 10SM CLR 27/M12 A3000 2230 07 4200 270/19G23 RMK AO2 $
53144K9L2 9L220160302161510803/02/16 16:15:31  5-MIN K9L2 030015Z AUTO 28016G23KT 10SM CLR 27/M12 A3000 2230 07 4100 270/16G23 RMK AO2 $
53144K9L2 9L220160302162010203/02/16 16:20:31  5-MIN K9L2 030020Z AUTO 29018KT 10SM CLR 27/M11 A3000 2230 07 4100 270/18 RMK AO2 $
53144K9L2 9L220160302162510203/02/16 16:25:31  5-MIN K9L2 030025Z AUTO 29016KT 10SM CLR 26/M11 A3000 2230 08 4000 270/16 RMK AO2 $
53144K9L2 9L220160302163010203/02/16 16:30:31  5-MIN K9L2 030030Z AUTO 29018KT 10SM CLR 26/M12 A3001 2220 07 4000 280/18 RMK AO2 $
53144K9L2 9L220160302163510803/02/16 16:35:31  5-MIN K9L2 030035Z AUTO 29015G22KT 10SM CLR 26/M12 A3001 2220 07 4000 280/15G22 RMK AO2 $
53144K9L2 9L220160302164010203/02/16 16:40:31  5-MIN K9L2 030040Z AUTO 28016KT 10SM CLR 25/M12 A3001 2220 08 3900 270/16 RMK AO2 $
53144K9L2 9L220160302164510203/02/16 16:45:31  5-MIN K9L2 030045Z AUTO 28016KT 10SM CLR 25/M12 A3001 2220 08 3900 270/16 RMK AO2 $
53144K9L2 9L220160302165010203/02/16 16:50:31  5-MIN K9L2 030050Z AUTO 29014KT 10SM CLR 25/M11 A3001 2220 08 3900 270/14 RMK AO2 $
53144K9L2 9L220160302165511903/02/16 16:55:31  5-MIN K9L2 030055Z AUTO 29010KT 10SM CLR 24/M11 A3001 2220 08 3800 270/10 RMK AO2 SLP157 T02441111 $
53144K9L2 9L220160302170010203/02/16 17:00:31  5-MIN K9L2 030100Z AUTO 28009KT 10SM CLR 24/M11 A3001 2220 09 3800 270/09 RMK AO2 $
53144K9L2 9L220160302170510203/02/16 17:05:31  5-MIN K9L2 030105Z AUTO 28010KT 10SM CLR 24/M11 A3001 2220 09 3800 270/10 RMK AO2 $
53144K9L2 9L220160302171010803/02/16 17:10:31  5-MIN K9L2 030110Z AUTO 28012G18KT 10SM CLR 24/M11 A3001 2220 09 3800 270/12G18 RMK AO2 $
53144K9L2 9L220160302171510203/02/16 17:15:31  5-MIN K9L2 030115Z AUTO 28013KT 10SM CLR 23/M11 A3002 2210 09 3700 260/13 RMK AO2 $
53144K9L2 9L220160302172010203/02/16 17:20:31  5-MIN K9L2 030120Z AUTO 27015KT 10SM CLR 23/M11 A3002 2210 09 3700 260/15 RMK AO2 $
53144K9L2 9L220160302172510203/02/16 17:25:31  5-MIN K9L2 030125Z AUTO 27012KT 10SM CLR 23/M11 A3002 2210 09 3700 250/12 RMK AO2 $
53144K9L2 9L220160302173010203/02/16 17:30:31  5-MIN K9L2 030130Z AUTO 27015KT 10SM CLR 23/M11 A3002 2210 10 3700 260/15 RMK AO2 $
53144K9L2 9L220160302173510203/02/16 17:35:31  5-MIN K9L2 030135Z AUTO 28013KT 10SM CLR 23/M11 A3002 2210 10 3600 260/13 RMK AO2 $
53144K9L2 9L220160302174010203/02/16 17:40:31  5-MIN K9L2 030140Z AUTO 28018KT 10SM CLR 22/M11 A3002 2210 10 3600 260/18 RMK AO2 $
53144K9L2 9L220160302174510203/02/16 17:45:31  5-MIN K9L2 030145Z AUTO 28017KT 10SM CLR 22/M10 A3002 2210 10 3600 260/17 RMK AO2 $
53144K9L2 9L220160302175010203/02/16 17:50:31  5-MIN K9L2 030150Z AUTO 27015KT 10SM CLR 22/M10 A3003 2210 10 3600 260/15 RMK AO2 $
53144K9L2 9L220160302175512503/02/16 17:55:31  5-MIN K9L2 030155Z AUTO 28017G23KT 10SM CLR 22/M11 A3003 2200 10 3600 260/17G23 RMK AO2 SLP162 T02221106 $
53144K9L2 9L220160302180010803/02/16 18:00:31  5-MIN K9L2 030200Z AUTO 27015G23KT 10SM CLR 22/M12 A3003 2200 09 3500 260/15G23 RMK AO2 $
53144K9L2 9L220160302180510203/02/16 18:05:31  5-MIN K9L2 030205Z AUTO 27016KT 10SM CLR 22/M12 A3003 2200 09 3500 260/16 RMK AO2 $
53144K9L2 9L220160302181010203/02/16 18:10:31  5-MIN K9L2 030210Z AUTO 26014KT 10SM CLR 21/M12 A3003 2200 09 3500 250/14 RMK AO2 $
53144K9L2 9L220160302181510203/02/16 18:15:31  5-MIN K9L2 030215Z AUTO 26013KT 10SM CLR 21/M13 A3003 2200 09 3400 250/13 RMK AO2 $
53144K9L2 9L220160302182010203/02/16 18:20:31  5-MIN K9L2 030220Z AUTO 26014KT 10SM CLR 21/M12 A3004 2190 10 3400 250/14 RMK AO2 $
53144K9L2 9L220160302182510203/02/16 18:25:31  5-MIN K9L2 030225Z AUTO 26013KT 10SM CLR 21/M11 A3004 2190 10 3400 250/13 RMK AO2 $
53144K9L2 9L220160302183010203/02/16 18:30:31  5-MIN K9L2 030230Z AUTO 25013KT 10SM CLR 21/M09 A3004 2190 12 3400 240/13 RMK AO2 $
53144K9L2 9L220160302183510203/02/16 18:35:31  5-MIN K9L2 030235Z AUTO 24011KT 10SM CLR 21/M08 A3004 2190 13 3400 230/11 RMK AO2 $
53144K9L2 9L220160302184010203/02/16 18:40:31  5-MIN K9L2 030240Z AUTO 24009KT 10SM CLR 20/M08 A3005 2190 14 3300 230/09 RMK AO2 $
53144K9L2 9L220160302184510203/02/16 18:45:31  5-MIN K9L2 030245Z AUTO 24007KT 10SM CLR 21/M08 A3005 2190 13 3400 220/07 RMK AO2 $
53144K9L2 9L220160302185010203/02/16 18:50:31  5-MIN K9L2 030250Z AUTO 24007KT 10SM CLR 20/M08 A3005 2190 14 3300 230/07 RMK AO2 $
53144K9L2 9L220160302185512503/02/16 18:55:31  5-MIN K9L2 030255Z AUTO 25007KT 10SM CLR 20/M08 A3005 2180 14 3300 230/07 RMK AO2 SLP170 T02001083 56011 $
53144K9L2 9L220160302190010203/02/16 19:00:31  5-MIN K9L2 030300Z AUTO 24009KT 10SM CLR 20/M08 A3005 2180 14 3300 230/09 RMK AO2 $
53144K9L2 9L220160302190510203/02/16 19:05:31  5-MIN K9L2 030305Z AUTO 24008KT 10SM CLR 20/M08 A3005 2180 14 3300 220/08 RMK AO2 $
53144K9L2 9L220160302191010203/02/16 19:10:31  5-MIN K9L2 030310Z AUTO 24010KT 10SM CLR 19/M09 A3005 2180 14 3200 230/10 RMK AO2 $
53144K9L2 9L220160302191510203/02/16 19:15:31  5-MIN K9L2 030315Z AUTO 25012KT 10SM CLR 20/M10 A3005 2180 12 3300 230/12 RMK AO2 $
53144K9L2 9L220160302192010203/02/16 19:20:31  5-MIN K9L2 030320Z AUTO 25013KT 10SM CLR 20/M11 A3005 2180 12 3300 240/13 RMK AO2 $
53144K9L2 9L220160302192510203/02/16 19:25:31  5-MIN K9L2 030325Z AUTO 25014KT 10SM CLR 20/M11 A3005 2190 11 3300 240/14 RMK AO2 $
53144K9L2 9L220160302193010203/02/16 19:30:31  5-MIN K9L2 030330Z AUTO 25015KT 10SM CLR 20/M11 A3005 2190 11 3300 240/15 RMK AO2 $
53144K9L2 9L220160302193510203/02/16 19:35:31  5-MIN K9L2 030335Z AUTO 25015KT 10SM CLR 20/M12 A3005 2180 11 3300 240/15 RMK AO2 $
53144K9L2 9L220160302194010203/02/16 19:40:31  5-MIN K9L2 030340Z AUTO 25014KT 10SM CLR 21/M12 A3005 2180 10 3400 230/14 RMK AO2 $
53144K9L2 9L220160302194510203/02/16 19:45:31  5-MIN K9L2 030345Z AUTO 25014KT 10SM CLR 20/M12 A3005 2180 10 3300 240/14 RMK AO2 $
53144K9L2 9L220160302195010203/02/16 19:50:31  5-MIN K9L2 030350Z AUTO 26014KT 10SM CLR 20/M12 A3005 2180 11 3300 240/14 RMK AO2 $
53144K9L2 9L220160302195511903/02/16 19:55:31  5-MIN K9L2 030355Z AUTO 26014KT 10SM CLR 20/M12 A3005 2180 11 3300 240/14 RMK AO2 SLP173 T02001117 $
53144K9L2 9L220160302200010203/02/16 20:00:31  5-MIN K9L2 030400Z AUTO 24011KT 10SM CLR 20/M12 A3006 2170 10 3300 220/11 RMK AO2 $
53144K9L2 9L220160302200510203/02/16 20:05:31  5-MIN K9L2 030405Z AUTO 23009KT 10SM CLR 19/M12 A3006 2170 11 3200 220/09 RMK AO2 $
53144K9L2 9L220160302201010203/02/16 20:10:31  5-MIN K9L2 030410Z AUTO 23008KT 10SM CLR 19/M13 A3006 2170 10 3200 220/08 RMK AO2 $
53144K9L2 9L220160302201510203/02/16 20:15:31  5-MIN K9L2 030415Z AUTO 23008KT 10SM CLR 19/M13 A3006 2170 10 3200 220/08 RMK AO2 $
53144K9L2 9L220160302202010203/02/16 20:20:31  5-MIN K9L2 030420Z AUTO 24008KT 10SM CLR 19/M13 A3006 2170 10 3200 230/08 RMK AO2 $
53144K9L2 9L220160302202510203/02/16 20:25:31  5-MIN K9L2 030425Z AUTO 24008KT 10SM CLR 18/M13 A3006 2170 10 3100 230/08 RMK AO2 $
53144K9L2 9L220160302203010203/02/16 20:30:31  5-MIN K9L2 030430Z AUTO 24007KT 10SM CLR 18/M13 A3006 2170 10 3100 230/07 RMK AO2 $
53144K9L2 9L220160302203510203/02/16 20:35:31  5-MIN K9L2 030435Z AUTO 24009KT 10SM CLR 18/M13 A3006 2170 10 3100 230/09 RMK AO2 $
53144K9L2 9L220160302204010203/02/16 20:40:31  5-MIN K9L2 030440Z AUTO 26009KT 10SM CLR 18/M13 A3007 2170 10 3100 240/09 RMK AO2 $
53144K9L2 9L220160302204510203/02/16 20:45:31  5-MIN K9L2 030445Z AUTO 26010KT 10SM CLR 19/M13 A3007 2170 10 3200 250/10 RMK AO2 $
53144K9L2 9L220160302205010203/02/16 20:50:31  5-MIN K9L2 030450Z AUTO 26011KT 10SM CLR 18/M13 A3007 2170 10 3100 250/11 RMK AO2 $
53144K9L2 9L220160302205511903/02/16 20:55:31  5-MIN K9L2 030455Z AUTO 26010KT 10SM CLR 18/M13 A3007 2170 11 3100 250/10 RMK AO2 SLP170 T01831128 $
53144K9L2 9L220160302210010203/02/16 21:00:31  5-MIN K9L2 030500Z AUTO 28006KT 10SM CLR 18/M13 A3007 2170 11 3000 270/06 RMK AO2 $
53144K9L2 9L220160302210510203/02/16 21:05:31  5-MIN K9L2 030505Z AUTO 27006KT 10SM CLR 17/M12 A3006 2170 12 3000 260/06 RMK AO2 $
53144K9L2 9L220160302211010203/02/16 21:10:31  5-MIN K9L2 030510Z AUTO 25009KT 10SM CLR 18/M12 A3006 2170 12 3000 240/09 RMK AO2 $
53144K9L2 9L220160302211510203/02/16 21:15:31  5-MIN K9L2 030515Z AUTO 26007KT 10SM CLR 18/M13 A3007 2170 11 3000 250/07 RMK AO2 $
53144K9L2 9L220160302212010203/02/16 21:20:31  5-MIN K9L2 030520Z AUTO 27005KT 10SM CLR 18/M13 A3007 2170 11 3000 260/05 RMK AO2 $
53144K9L2 9L220160302212510203/02/16 21:25:31  5-MIN K9L2 030525Z AUTO 26007KT 10SM CLR 17/M13 A3007 2170 12 3000 250/07 RMK AO2 $
53144K9L2 9L220160302213010203/02/16 21:30:31  5-MIN K9L2 030530Z AUTO 31007KT 10SM CLR 17/M13 A3007 2170 12 2900 300/07 RMK AO2 $
53144K9L2 9L220160302213510203/02/16 21:35:31  5-MIN K9L2 030535Z AUTO 29009KT 10SM CLR 17/M12 A3007 2170 12 2900 280/09 RMK AO2 $
53144K9L2 9L220160302214010203/02/16 21:40:31  5-MIN K9L2 030540Z AUTO 29009KT 10SM CLR 17/M12 A3007 2170 12 2900 270/09 RMK AO2 $
53144K9L2 9L220160302214510203/02/16 21:45:31  5-MIN K9L2 030545Z AUTO 28008KT 10SM CLR 17/M12 A3007 2170 13 3000 270/08 RMK AO2 $
53144K9L2 9L220160302215010203/02/16 21:50:31  5-MIN K9L2 030550Z AUTO 28008KT 10SM CLR 17/M12 A3007 2170 13 2900 270/08 RMK AO2 $
53144K9L2 9L220160302215513703/02/16 21:55:31  5-MIN K9L2 030555Z AUTO 28008KT 10SM CLR 17/M11 A3007 2160 14 2900 270/08 RMK AO2 SLP171 T01671111 10278 20161 53016 $
53144K9L2 9L220160302220010203/02/16 22:00:31  5-MIN K9L2 030600Z AUTO 28007KT 10SM CLR 17/M11 A3007 2160 14 2900 270/07 RMK AO2 $
53144K9L2 9L220160302220510203/02/16 22:05:31  5-MIN K9L2 030605Z AUTO 27006KT 10SM CLR 16/M11 A3007 2160 15 2800 250/06 RMK AO2 $
53144K9L2 9L220160302221010203/02/16 22:10:31  5-MIN K9L2 030610Z AUTO 24005KT 10SM CLR 16/M11 A3007 2160 15 2800 230/05 RMK AO2 $
53144K9L2 9L220160302221510203/02/16 22:15:31  5-MIN K9L2 030615Z AUTO 25004KT 10SM CLR 15/M11 A3007 2160 16 2700 240/04 RMK AO2 $
53144K9L2 9L220160302222010203/02/16 22:20:31  5-MIN K9L2 030620Z AUTO 27005KT 10SM CLR 15/M11 A3007 2160 16 2700 260/05 RMK AO2 $
53144K9L2 9L220160302222510203/02/16 22:25:31  5-MIN K9L2 030625Z AUTO 25004KT 10SM CLR 14/M10 A3007 2160 17 2600 240/04 RMK AO2 $
53144K9L2 9L220160302223010203/02/16 22:30:31  5-MIN K9L2 030630Z AUTO 16004KT 10SM CLR 14/M10 A3007 2160 17 2600 140/04 RMK AO2 $
53144K9L2 9L220160302223510203/02/16 22:35:31  5-MIN K9L2 030635Z AUTO 15005KT 10SM CLR 15/M10 A3007 2160 17 2700 130/05 RMK AO2 $
53144K9L2 9L220160302224010203/02/16 22:40:31  5-MIN K9L2 030640Z AUTO 16006KT 10SM CLR 14/M10 A3007 2170 18 2600 150/06 RMK AO2 $
53144K9L2 9L220160302224510203/02/16 22:45:31  5-MIN K9L2 030645Z AUTO 16007KT 10SM CLR 14/M10 A3007 2170 17 2600 150/07 RMK AO2 $
53144K9L2 9L220160303090010003/03/16 09:00:31  5-MIN K9L2 031700Z AUTO 16007KT 9SM CLR 17/00 A3008 2160 31 3000 140/07 RMK AO2 $
53144K9L2 9L220160303090510003/03/16 09:05:31  5-MIN K9L2 031705Z AUTO 17006KT 7SM CLR 17/00 A3008 2160 31 3000 160/06 RMK AO2 $
53144K9L2 9L220160303091010103/03/16 09:10:31  5-MIN K9L2 031710Z AUTO 17008KT 8SM CLR 18/M01 A3007 2160 28 3000 150/08 RMK AO2 $
53144K9L2 9L220160303091510203/03/16 09:15:31  5-MIN K9L2 031715Z AUTO 17007KT 10SM CLR 18/M01 A3007 2160 27 3000 150/07 RMK AO2 $
53144K9L2 9L220160303092010203/03/16 09:20:31  5-MIN K9L2 031720Z AUTO 17007KT 10SM CLR 18/M01 A3007 2160 27 3100 150/07 RMK AO2 $
53144K9L2 9L220160303092510203/03/16 09:25:31  5-MIN K9L2 031725Z AUTO 17007KT 10SM CLR 19/M01 A3007 2170 25 3200 160/07 RMK AO2 $
53144K9L2 9L220160303093010203/03/16 09:30:31  5-MIN K9L2 031730Z AUTO 17007KT 10SM CLR 19/M01 A3007 2170 25 3200 160/07 RMK AO2 $
53144K9L2 9L220160303093510203/03/16 09:35:31  5-MIN K9L2 031735Z AUTO 16007KT 10SM CLR 19/M01 A3007 2170 25 3200 150/07 RMK AO2 $
53144K9L2 9L220160303094010203/03/16 09:40:31  5-MIN K9L2 031740Z AUTO 16006KT 10SM CLR 20/M01 A3007 2170 25 3300 150/06 RMK AO2 $
53144K9L2 9L220160303094510203/03/16 09:45:31  5-MIN K9L2 031745Z AUTO 16007KT 10SM CLR 20/M01 A3007 2160 25 3300 140/07 RMK AO2 $
53144K9L2 9L220160303095010203/03/16 09:50:31  5-MIN K9L2 031750Z AUTO 15007KT 10SM CLR 20/M01 A3007 2160 25 3300 140/07 RMK AO2 $
53144K9L2 9L220160303095513703/03/16 09:55:31  5-MIN K9L2 031755Z AUTO 15008KT 10SM CLR 21/M01 A3007 2160 23 3300 140/08 RMK AO2 SLP173 T02061011 10206 20050 53008 $
53144K9L2 9L220160303100010203/03/16 10:00:31  5-MIN K9L2 031800Z AUTO 14008KT 10SM CLR 21/M01 A3007 2170 23 3300 130/08 RMK AO2 $
53144K9L2 9L220160303100510203/03/16 10:05:31  5-MIN K9L2 031805Z AUTO 16006KT 10SM CLR 21/M02 A3007 2170 21 3400 140/06 RMK AO2 $
53144K9L2 9L220160303101010203/03/16 10:10:31  5-MIN K9L2 031810Z AUTO 18005KT 10SM CLR 22/M03 A3007 2170 19 3500 170/05 RMK AO2 $
53144K9L2 9L220160303101510203/03/16 10:15:31  5-MIN K9L2 031815Z AUTO 18008KT 10SM CLR 22/M04 A3007 2170 17 3500 170/08 RMK AO2 $
53144K9L2 9L220160303102010203/03/16 10:20:31  5-MIN K9L2 031820Z AUTO 18009KT 10SM CLR 22/M04 A3006 2170 16 3500 160/09 RMK AO2 $
53144K9L2 9L220160303102510203/03/16 10:25:31  5-MIN K9L2 031825Z AUTO 18009KT 10SM CLR 23/M05 A3006 2170 15 3600 170/09 RMK AO2 $
53144K9L2 9L220160303103010203/03/16 10:30:31  5-MIN K9L2 031830Z AUTO 18010KT 10SM CLR 23/M04 A3006 2170 16 3600 170/10 RMK AO2 $
53144K9L2 9L220160303103510203/03/16 10:35:31  5-MIN K9L2 031835Z AUTO 19010KT 10SM CLR 23/M04 A3006 2170 16 3600 170/10 RMK AO2 $
53144K9L2 9L220160303104010203/03/16 10:40:31  5-MIN K9L2 031840Z AUTO 19010KT 10SM CLR 23/M05 A3006 2170 14 3700 180/10 RMK AO2 $
53144K9L2 9L220160303104510203/03/16 10:45:31  5-MIN K9L2 031845Z AUTO 19009KT 10SM CLR 23/M06 A3006 2180 13 3700 180/09 RMK AO2 $
53144K9L2 9L220160303105010203/03/16 10:50:31  5-MIN K9L2 031850Z AUTO 20008KT 10SM CLR 24/M06 A3006 2180 13 3700 190/08 RMK AO2 $
53144K9L2 9L220160303105511903/03/16 10:55:31  5-MIN K9L2 031855Z AUTO 21008KT 10SM CLR 24/M07 A3005 2180 12 3800 200/08 RMK AO2 SLP167 T02441067 $
53144K9L2 9L220160303110011803/03/16 11:00:31  5-MIN K9L2 031900Z AUTO 20008KT 160V230 10SM CLR 24/M07 A3005 2180 12 3800 180/08 150V220 RMK AO2 $
53144K9L2 9L220160303110512403/03/16 11:05:31  5-MIN K9L2 031905Z AUTO 21009G19KT 180V240 10SM CLR 24/M07 A3005 2190 11 3800 190/09G19 170V230 RMK AO2 $
53144K9L2 9L220160303111010803/03/16 11:10:31  5-MIN K9L2 031910Z AUTO 21010G19KT 10SM CLR 24/M07 A3005 2190 11 3800 200/10G19 RMK AO2 $
53144K9L2 9L220160303111510203/03/16 11:15:31  5-MIN K9L2 031915Z AUTO 22012KT 10SM CLR 25/M08 A3005 2190 10 3900 200/12 RMK AO2 $
53144K9L2 9L220160303112010203/03/16 11:20:31  5-MIN K9L2 031920Z AUTO 20009KT 10SM CLR 25/M08 A3004 2190 10 3900 190/09 RMK AO2 $
53144K9L2 9L220160303112510803/03/16 11:25:31  5-MIN K9L2 031925Z AUTO 24011G15KT 10SM CLR 26/M09 A3004 2190 09 3900 220/11G15 RMK AO2 $
53144K9L2 9L220160303113010203/03/16 11:30:31  5-MIN K9L2 031930Z AUTO 22011KT 10SM CLR 26/M09 A3004 2190 09 3900 210/11 RMK AO2 $
53144K9L2 9L220160303113510203/03/16 11:35:31  5-MIN K9L2 031935Z AUTO 21012KT 10SM CLR 26/M10 A3004 2190 09 3900 200/12 RMK AO2 $
53144K9L2 9L220160303114010203/03/16 11:40:31  5-MIN K9L2 031940Z AUTO 22013KT 10SM CLR 26/M10 A3004 2190 09 3900 210/13 RMK AO2 $
53144K9L2 9L220160303114510203/03/16 11:45:31  5-MIN K9L2 031945Z AUTO 23013KT 10SM CLR 25/M09 A3004 2190 09 3900 220/13 RMK AO2 $
53144K9L2 9L220160303115010203/03/16 11:50:31  5-MIN K9L2 031950Z AUTO 22011KT 10SM CLR 26/M09 A3004 2200 09 3900 210/11 RMK AO2 $
53144K9L2 9L220160303115512503/03/16 11:55:31  5-MIN K9L2 031955Z AUTO 20010G18KT 10SM CLR 26/M08 A3003 2200 10 3900 180/10G18 RMK AO2 SLP160 T02561083 $
53144K9L2 9L220160303120010203/03/16 12:00:31  5-MIN K9L2 032000Z AUTO 21013KT 10SM CLR 26/M09 A3003 2200 09 4000 190/13 RMK AO2 $
53144K9L2 9L220160303120510803/03/16 12:05:31  5-MIN K9L2 032005Z AUTO 22013G17KT 10SM CLR 26/M09 A3003 2200 09 4000 210/13G17 RMK AO2 $
53144K9L2 9L220160303121010803/03/16 12:10:31  5-MIN K9L2 032010Z AUTO 21012G16KT 10SM CLR 26/M09 A3003 2210 09 4000 190/12G16 RMK AO2 $
53144K9L2 9L220160303121510203/03/16 12:15:31  5-MIN K9L2 032015Z AUTO 21010KT 10SM CLR 26/M10 A3002 2210 08 4000 200/10 RMK AO2 $
53144K9L2 9L220160303122010803/03/16 12:20:31  5-MIN K9L2 032020Z AUTO 22012G16KT 10SM CLR 26/M09 A3002 2210 09 4000 200/12G16 RMK AO2 $
53144K9L2 9L220160303122510803/03/16 12:25:31  5-MIN K9L2 032025Z AUTO 24014G18KT 10SM CLR 27/M09 A3002 2210 09 4100 220/14G18 RMK AO2 $
53144K9L2 9L220160303123010203/03/16 12:30:31  5-MIN K9L2 032030Z AUTO 22013KT 10SM CLR 27/M08 A3001 2220 09 4100 200/13 RMK AO2 $
53144K9L2 9L220160303123510803/03/16 12:35:31  5-MIN K9L2 032035Z AUTO 22011G19KT 10SM CLR 26/M08 A3001 2220 09 4000 210/11G19 RMK AO2 $
53144K9L2 9L220160303124010803/03/16 12:40:31  5-MIN K9L2 032040Z AUTO 22011G16KT 10SM CLR 27/M08 A3001 2220 09 4100 210/11G16 RMK AO2 $
53144K9L2 9L220160303124510803/03/16 12:45:31  5-MIN K9L2 032045Z AUTO 22012G18KT 10SM CLR 27/M08 A3001 2220 09 4100 210/12G18 RMK AO2 $
53144K9L2 9L220160303125010803/03/16 12:50:31  5-MIN K9L2 032050Z AUTO 23009G18KT 10SM CLR 27/M09 A3000 2230 09 4100 210/09G18 RMK AO2 $
53144K9L2 9L220160303125512503/03/16 12:55:31  5-MIN K9L2 032055Z AUTO 23008KT 10SM CLR 27/M10 A3000 2230 08 4100 220/08 RMK AO2 SLP147 T02671100 50000 $
53144K9L2 9L220160303130010203/03/16 13:00:31  5-MIN K9L2 032100Z AUTO 22007KT 10SM CLR 27/M11 A3000 2230 08 4100 210/07 RMK AO2 $
53144K9L2 9L220160303130511803/03/16 13:05:31  5-MIN K9L2 032105Z AUTO 21007KT 180V250 10SM CLR 27/M11 A3000 2230 07 4100 200/07 170V240 RMK AO2 $
53144K9L2 9L220160303131010203/03/16 13:10:31  5-MIN K9L2 032110Z AUTO 21008KT 10SM CLR 27/M11 A2999 2230 07 4200 190/08 RMK AO2 $
53144K9L2 9L220160303131510803/03/16 13:15:31  5-MIN K9L2 032115Z AUTO 21013G16KT 10SM CLR 27/M12 A2999 2240 06 4200 200/13G16 RMK AO2 $
53144K9L2 9L220160303132010803/03/16 13:20:31  5-MIN K9L2 032120Z AUTO 21013G16KT 10SM CLR 27/M13 A2999 2240 06 4200 200/13G16 RMK AO2 $
53144K9L2 9L220160303132510803/03/16 13:25:31  5-MIN K9L2 032125Z AUTO 22010G17KT 10SM CLR 27/M13 A2999 2240 06 4200 210/10G17 RMK AO2 $
53144K9L2 9L220160303133010803/03/16 13:30:31  5-MIN K9L2 032130Z AUTO 22014G19KT 10SM CLR 27/M13 A2999 2240 06 4200 210/14G19 RMK AO2 $
53144K9L2 9L220160303133510803/03/16 13:35:31  5-MIN K9L2 032135Z AUTO 21014G19KT 10SM CLR 27/M13 A2998 2240 06 4200 200/14G19 RMK AO2 $
53144K9L2 9L220160303134010803/03/16 13:40:31  5-MIN K9L2 032140Z AUTO 21015G19KT 10SM CLR 27/M13 A2998 2250 06 4200 200/15G19 RMK AO2 $
53144K9L2 9L220160303134510803/03/16 13:45:31  5-MIN K9L2 032145Z AUTO 21015G19KT 10SM CLR 27/M13 A2998 2250 06 4200 190/15G19 RMK AO2 $
53144K9L2 9L220160303135010803/03/16 13:50:31  5-MIN K9L2 032150Z AUTO 21013G19KT 10SM CLR 27/M12 A2998 2250 07 4100 200/13G19 RMK AO2 $
53144K9L2 9L220160303135511903/03/16 13:55:31  5-MIN K9L2 032155Z AUTO 22015KT 10SM CLR 27/M12 A2998 2250 07 4200 210/15 RMK AO2 SLP141 T02721117 $
53144K9L2 9L220160303140010203/03/16 14:00:31  5-MIN K9L2 032200Z AUTO 20014KT 10SM CLR 27/M12 A2998 2250 07 4100 190/14 RMK AO2 $
53144K9L2 9L220160303140510203/03/16 14:05:31  5-MIN K9L2 032205Z AUTO 22012KT 10SM CLR 27/M12 A2998 2250 07 4100 200/12 RMK AO2 $
53144K9L2 9L220160303141010803/03/16 14:10:31  5-MIN K9L2 032210Z AUTO 23015G19KT 10SM CLR 27/M12 A2998 2250 07 4100 210/15G19 RMK AO2 $
53144K9L2 9L220160303141510803/03/16 14:15:31  5-MIN K9L2 032215Z AUTO 22013G20KT 10SM CLR 27/M11 A2997 2250 07 4100 210/13G20 RMK AO2 $
53144K9L2 9L220160303142010803/03/16 14:20:31  5-MIN K9L2 032220Z AUTO 22016G21KT 10SM CLR 27/M11 A2997 2250 07 4200 200/16G21 RMK AO2 $
53144K9L2 9L220160303142510803/03/16 14:25:31  5-MIN K9L2 032225Z AUTO 23016G21KT 10SM CLR 27/M11 A2998 2250 07 4200 220/16G21 RMK AO2 $
53144K9L2 9L220160303143010803/03/16 14:30:31  5-MIN K9L2 032230Z AUTO 23012G19KT 10SM CLR 27/M10 A2998 2250 08 4100 220/12G19 RMK AO2 $
53144K9L2 9L220160303143510803/03/16 14:35:31  5-MIN K9L2 032235Z AUTO 24014G20KT 10SM CLR 27/M10 A2997 2250 08 4200 220/14G20 RMK AO2 $
53144K9L2 9L220160303144010803/03/16 14:40:31  5-MIN K9L2 032240Z AUTO 23018G22KT 10SM CLR 27/M09 A2997 2250 08 4100 210/18G22 RMK AO2 $
53144K9L2 9L220160303144510203/03/16 14:45:31  5-MIN K9L2 032245Z AUTO 23016KT 10SM CLR 27/M09 A2997 2250 08 4100 210/16 RMK AO2 $
53144K9L2 9L220160303145010203/03/16 14:50:31  5-MIN K9L2 032250Z AUTO 21016KT 10SM CLR 26/M09 A2997 2260 09 4100 200/16 RMK AO2 $
53144K9L2 9L220160303145511903/03/16 14:55:31  5-MIN K9L2 032255Z AUTO 21017KT 10SM CLR 26/M09 A2997 2260 09 4100 200/17 RMK AO2 SLP138 T02611094 $
53144K9L2 9L220160303150010803/03/16 15:00:31  5-MIN K9L2 032300Z AUTO 22016G22KT 10SM CLR 26/M09 A2997 2250 09 4100 210/16G22 RMK AO2 $
53144K9L2 9L220160303150510803/03/16 15:05:31  5-MIN K9L2 032305Z AUTO 23016G22KT 10SM CLR 26/M08 A2997 2250 09 4100 210/16G22 RMK AO2 $
53144K9L2 9L220160303151010203/03/16 15:10:31  5-MIN K9L2 032310Z AUTO 23016KT 10SM CLR 26/M08 A2997 2250 09 4100 210/16 RMK AO2 $
53144K9L2 9L220160303151510203/03/16 15:15:31  5-MIN K9L2 032315Z AUTO 23018KT 10SM CLR 26/M08 A2997 2250 10 4000 210/18 RMK AO2 $
53144K9L2 9L220160303152010203/03/16 15:20:31  5-MIN K9L2 032320Z AUTO 22016KT 10SM CLR 26/M07 A2997 2260 11 4000 200/16 RMK AO2 $
53144K9L2 9L220160303152510203/03/16 15:25:31  5-MIN K9L2 032325Z AUTO 22016KT 10SM CLR 26/M07 A2997 2250 11 4000 210/16 RMK AO2 $
53144K9L2 9L220160303153010803/03/16 15:30:31  5-MIN K9L2 032330Z AUTO 22018G23KT 10SM CLR 26/M07 A2997 2250 11 4000 210/18G23 RMK AO2 $
53144K9L2 9L220160303153510803/03/16 15:35:31  5-MIN K9L2 032335Z AUTO 22017G23KT 10SM CLR 26/M07 A2997 2250 11 4000 210/17G23 RMK AO2 $
53144K9L2 9L220160303154010803/03/16 15:40:31  5-MIN K9L2 032340Z AUTO 22014G22KT 10SM CLR 25/M07 A2997 2250 11 4000 210/14G22 RMK AO2 $
53144K9L2 9L220160303154510203/03/16 15:45:31  5-MIN K9L2 032345Z AUTO 23018KT 10SM CLR 25/M07 A2997 2260 11 4000 210/18 RMK AO2 $
53144K9L2 9L220160303155010203/03/16 15:50:31  5-MIN K9L2 032350Z AUTO 23018KT 10SM CLR 25/M08 A2997 2260 10 4000 220/18 RMK AO2 $
53144K9L2 9L220160303155514303/03/16 15:55:31  5-MIN K9L2 032355Z AUTO 23019G24KT 10SM CLR 25/M08 A2997 2260 10 4000 220/19G24 RMK AO2 SLP138 T02501078 10278 20206 58021 $
53144K9L2 9L220160303160010803/03/16 16:00:31  5-MIN K9L2 040000Z AUTO 23019G24KT 10SM CLR 24/M07 A2997 2260 11 3900 220/19G24 RMK AO2 $
53144K9L2 9L220160303160510803/03/16 16:05:31  5-MIN K9L2 040005Z AUTO 23019G24KT 10SM CLR 24/M07 A2997 2260 11 3900 210/19G24 RMK AO2 $
53144K9L2 9L220160303161010803/03/16 16:10:31  5-MIN K9L2 040010Z AUTO 22017G24KT 10SM CLR 24/M07 A2997 2260 12 3900 210/17G24 RMK AO2 $
53144K9L2 9L220160303161510803/03/16 16:15:31  5-MIN K9L2 040015Z AUTO 23018G22KT 10SM CLR 24/M06 A2997 2260 12 3900 210/18G22 RMK AO2 $
53144K9L2 9L220160303162010803/03/16 16:20:31  5-MIN K9L2 040020Z AUTO 23017G22KT 10SM CLR 24/M07 A2997 2260 12 3900 220/17G22 RMK AO2 $
53144K9L2 9L220160303162510203/03/16 16:25:31  5-MIN K9L2 040025Z AUTO 23016KT 10SM CLR 24/M06 A2997 2260 13 3800 220/16 RMK AO2 $
53144K9L2 9L220160303163010203/03/16 16:30:31  5-MIN K9L2 040030Z AUTO 23017KT 10SM CLR 24/M06 A2997 2260 13 3800 220/17 RMK AO2 $
53144K9L2 9L220160303163510203/03/16 16:35:31  5-MIN K9L2 040035Z AUTO 23016KT 10SM CLR 23/M04 A2997 2260 16 3800 210/16 RMK AO2 $
53144K9L2 9L220160303164010803/03/16 16:40:31  5-MIN K9L2 040040Z AUTO 23014G21KT 10SM CLR 23/M04 A2997 2250 16 3800 220/14G21 RMK AO2 $
53144K9L2 9L220160303164510803/03/16 16:45:31  5-MIN K9L2 040045Z AUTO 23011G21KT 10SM CLR 23/M04 A2998 2250 15 3800 220/11G21 RMK AO2 $
53144K9L2 9L220160303165010203/03/16 16:50:31  5-MIN K9L2 040050Z AUTO 23014KT 10SM CLR 23/M06 A2997 2250 14 3700 220/14 RMK AO2 $
53144K9L2 9L220160303165512503/03/16 16:55:31  5-MIN K9L2 040055Z AUTO 23015G20KT 10SM CLR 23/M05 A2997 2250 15 3700 220/15G20 RMK AO2 SLP144 T02281050 $
53144K9L2 9L220160303170010803/03/16 17:00:31  5-MIN K9L2 040100Z AUTO 23018G24KT 10SM CLR 23/M07 A2997 2250 13 3700 220/18G24 RMK AO2 $
53144K9L2 9L220160303170510803/03/16 17:05:31  5-MIN K9L2 040105Z AUTO 23016G24KT 10SM CLR 22/M08 A2998 2250 12 3600 220/16G24 RMK AO2 $
53144K9L2 9L220160303171010803/03/16 17:10:31  5-MIN K9L2 040110Z AUTO 24018G25KT 10SM CLR 22/M08 A2998 2250 12 3600 220/18G25 RMK AO2 $
53144K9L2 9L220160303171510803/03/16 17:15:31  5-MIN K9L2 040115Z AUTO 23015G25KT 10SM CLR 22/M09 A2998 2250 11 3600 220/15G25 RMK AO2 $
53144K9L2 9L220160303172010803/03/16 17:20:31  5-MIN K9L2 040120Z AUTO 25016G25KT 10SM CLR 22/M09 A2998 2240 12 3600 230/16G25 RMK AO2 $
53144K9L2 9L220160303172510803/03/16 17:25:31  5-MIN K9L2 040125Z AUTO 25016G22KT 10SM CLR 22/M09 A2999 2240 12 3600 240/16G22 RMK AO2 $
53144K9L2 9L220160303173010803/03/16 17:30:31  5-MIN K9L2 040130Z AUTO 25015G22KT 10SM CLR 21/M09 A2999 2240 12 3500 240/15G22 RMK AO2 $
53144K9L2 9L220160303173510803/03/16 17:35:31  5-MIN K9L2 040135Z AUTO 25013G22KT 10SM CLR 21/M09 A2999 2240 12 3400 240/13G22 RMK AO2 $
53144K9L2 9L220160303174010803/03/16 17:40:31  5-MIN K9L2 040140Z AUTO 25015G22KT 10SM CLR 21/M09 A2999 2240 13 3400 240/15G22 RMK AO2 $
53144K9L2 9L220160303174510203/03/16 17:45:31  5-MIN K9L2 040145Z AUTO 25014KT 10SM CLR 21/M09 A2999 2240 13 3400 240/14 RMK AO2 $
53144K9L2 9L220160303175010203/03/16 17:50:31  5-MIN K9L2 040150Z AUTO 25013KT 10SM CLR 20/M09 A3000 2230 13 3400 240/13 RMK AO2 $
53144K9L2 9L220160303175511903/03/16 17:55:31  5-MIN K9L2 040155Z AUTO 25015KT 10SM CLR 20/M10 A2999 2230 12 3400 240/15 RMK AO2 SLP155 T02001100 $
53144K9L2 9L220160303180010203/03/16 18:00:31  5-MIN K9L2 040200Z AUTO 25014KT 10SM CLR 20/M11 A3000 2230 12 3400 240/14 RMK AO2 $
53144K9L2 9L220160303180510203/03/16 18:05:31  5-MIN K9L2 040205Z AUTO 26013KT 10SM CLR 19/M10 A3000 2230 12 3300 240/13 RMK AO2 $
53144K9L2 9L220160303181010203/03/16 18:10:31  5-MIN K9L2 040210Z AUTO 26013KT 10SM CLR 19/M09 A3000 2230 13 3300 240/13 RMK AO2 $
53144K9L2 9L220160303181510203/03/16 18:15:31  5-MIN K9L2 040215Z AUTO 25013KT 10SM CLR 19/M09 A3000 2230 14 3300 230/13 RMK AO2 $
53144K9L2 9L220160303182010803/03/16 18:20:31  5-MIN K9L2 040220Z AUTO 26011G19KT 10SM CLR 19/M07 A3000 2230 16 3200 250/11G19 RMK AO2 $
53144K9L2 9L220160303182510203/03/16 18:25:31  5-MIN K9L2 040225Z AUTO 26010KT 10SM CLR 19/M06 A3000 2230 18 3200 250/10 RMK AO2 $
53144K9L2 9L220160303183010203/03/16 18:30:31  5-MIN K9L2 040230Z AUTO 27008KT 10SM CLR 18/M05 A3000 2230 20 3200 250/08 RMK AO2 $
53144K9L2 9L220160303183510203/03/16 18:35:31  5-MIN K9L2 040235Z AUTO 26009KT 10SM CLR 18/M05 A3000 2230 20 3100 250/09 RMK AO2 $
53144K9L2 9L220160303184010203/03/16 18:40:31  5-MIN K9L2 040240Z AUTO 26010KT 10SM CLR 18/M03 A3000 2230 23 3100 240/10 RMK AO2 $
53144K9L2 9L220160303184510203/03/16 18:45:31  5-MIN K9L2 040245Z AUTO 26012KT 10SM CLR 18/M01 A3000 2230 27 3100 250/12 RMK AO2 $
53144K9L2 9L220160303185010203/03/16 18:50:31  5-MIN K9L2 040250Z AUTO 26010KT 10SM CLR 18/M01 A3001 2220 28 3100 250/10 RMK AO2 $
53144K9L2 9L220160303185512403/03/16 18:55:31  5-MIN K9L2 040255Z AUTO 25009KT 10SM CLR 17/00 A3001 2220 31 3000 240/09 RMK AO2 SLP161 T01720000 56010 $
53144K9L2 9L220160303190010103/03/16 19:00:31  5-MIN K9L2 040300Z AUTO 26010KT 10SM CLR 17/00 A3001 2220 31 3000 250/10 RMK AO2 $
53144K9L2 9L220160303190510103/03/16 19:05:31  5-MIN K9L2 040305Z AUTO 26010KT 10SM CLR 17/01 A3000 2220 32 3000 250/10 RMK AO2 $
53144K9L2 9L220160303191010103/03/16 19:10:31  5-MIN K9L2 040310Z AUTO 25010KT 10SM CLR 17/00 A3001 2220 32 3000 240/10 RMK AO2 $
53144K9L2 9L220160303191510103/03/16 19:15:31  5-MIN K9L2 040315Z AUTO 25010KT 10SM CLR 17/00 A3001 2220 32 3000 240/10 RMK AO2 $
53144K9L2 9L220160303192010103/03/16 19:20:31  5-MIN K9L2 040320Z AUTO 25009KT 10SM CLR 17/00 A3001 2220 32 3000 240/09 RMK AO2 $
53144K9L2 9L220160303192510203/03/16 19:25:31  5-MIN K9L2 040325Z AUTO 25010KT 10SM CLR 16/M01 A3001 2220 32 2900 230/10 RMK AO2 $
53144K9L2 9L220160303193010203/03/16 19:30:31  5-MIN K9L2 040330Z AUTO 26011KT 10SM CLR 17/M01 A3001 2220 31 3000 250/11 RMK AO2 $
53144K9L2 9L220160303193510203/03/16 19:35:31  5-MIN K9L2 040335Z AUTO 26010KT 10SM CLR 16/M01 A3001 2220 32 2900 250/10 RMK AO2 $
53144K9L2 9L220160303194010203/03/16 19:40:31  5-MIN K9L2 040340Z AUTO 26011KT 10SM CLR 16/M01 A3001 2220 32 2900 250/11 RMK AO2 $
53144K9L2 9L220160303194510203/03/16 19:45:31  5-MIN K9L2 040345Z AUTO 26010KT 10SM CLR 16/M01 A3001 2220 32 2900 240/10 RMK AO2 $
53144K9L2 9L220160303195010203/03/16 19:50:31  5-MIN K9L2 040350Z AUTO 26011KT 10SM CLR 16/M01 A3001 2220 32 2900 240/11 RMK AO2 $
53144K9L2 9L220160303195511903/03/16 19:55:31  5-MIN K9L2 040355Z AUTO 25007KT 10SM CLR 16/M01 A3001 2220 32 2900 240/07 RMK AO2 SLP158 T01611006 $
53144K9L2 9L220160303200010203/03/16 20:00:31  5-MIN K9L2 040400Z AUTO 25008KT 10SM CLR 16/M01 A3001 2220 30 2900 230/08 RMK AO2 $
53144K9L2 9L220160303200510203/03/16 20:05:31  5-MIN K9L2 040405Z AUTO 23006KT 10SM CLR 16/M01 A3001 2220 30 2900 220/06 RMK AO2 $
53144K9L2 9L220160303201010203/03/16 20:10:31  5-MIN K9L2 040410Z AUTO 25007KT 10SM CLR 16/M01 A3001 2220 33 2800 230/07 RMK AO2 $
53144K9L2 9L220160303201510103/03/16 20:15:31  5-MIN K9L2 040415Z AUTO 24006KT 10SM CLR 16/00 A3001 2220 34 2800 230/06 RMK AO2 $
53144K9L2 9L220160303202010103/03/16 20:20:31  5-MIN K9L2 040420Z AUTO 24006KT 10SM CLR 16/00 A3001 2220 34 2800 230/06 RMK AO2 $
53144K9L2 9L220160303202510203/03/16 20:25:31  5-MIN K9L2 040425Z AUTO 23006KT 10SM CLR 16/M01 A3001 2220 33 2800 220/06 RMK AO2 $
53144K9L2 9L220160303203010103/03/16 20:30:31  5-MIN K9L2 040430Z AUTO 22005KT 10SM CLR 16/00 A3001 2220 34 2800 210/05 RMK AO2 $
53144K9L2 9L220160303203510103/03/16 20:35:31  5-MIN K9L2 040435Z AUTO 23006KT 10SM CLR 16/01 A3001 2220 36 2800 220/06 RMK AO2 $
53144K9L2 9L220160303204010103/03/16 20:40:31  5-MIN K9L2 040440Z AUTO 23005KT 10SM CLR 16/01 A3001 2220 36 2800 210/05 RMK AO2 $
53144K9L2 9L220160303204510103/03/16 20:45:31  5-MIN K9L2 040445Z AUTO 23005KT 10SM CLR 16/00 A3002 2210 34 2800 220/05 RMK AO2 $
53144K9L2 9L220160303205010203/03/16 20:50:31  5-MIN K9L2 040450Z AUTO 23007KT 10SM CLR 16/M01 A3002 2210 31 2800 220/07 RMK AO2 $
53144K9L2 9L220160303205511903/03/16 20:55:31  5-MIN K9L2 040455Z AUTO 22006KT 10SM CLR 16/M02 A3002 2210 29 2900 200/06 RMK AO2 SLP158 T01611017 $
53144K9L2 9L220160303210010203/03/16 21:00:31  5-MIN K9L2 040500Z AUTO 20005KT 10SM CLR 16/M02 A3002 2210 30 2800 190/05 RMK AO2 $
53144K9L2 9L220160303210510203/03/16 21:05:31  5-MIN K9L2 040505Z AUTO VRB03KT 10SM CLR 16/M01 A3002 2210 33 2800 VRB/03 RMK AO2 $
53144K9L2 9L220160303211010203/03/16 21:10:31  5-MIN K9L2 040510Z AUTO 00000KT 10SM CLR 16/M01 A3002 2210 31 2800 000/00 RMK AO2 $
53144K9L2 9L220160303211510203/03/16 21:15:31  5-MIN K9L2 040515Z AUTO 00000KT 10SM CLR 16/M01 A3002 2210 31 2800 000/00 RMK AO2 $
53144K9L2 9L220160303212010203/03/16 21:20:31  5-MIN K9L2 040520Z AUTO 00000KT 10SM CLR 16/M01 A3002 2210 31 2800 000/00 RMK AO2 $
53144K9L2 9L220160303212510203/03/16 21:25:31  5-MIN K9L2 040525Z AUTO 21004KT 10SM CLR 16/M01 A3002 2210 33 2800 200/04 RMK AO2 $
53144K9L2 9L220160303213010203/03/16 21:30:31  5-MIN K9L2 040530Z AUTO 00000KT 10SM CLR 15/M01 A3002 2210 34 2800 000/00 RMK AO2 $
53144K9L2 9L220160303213510103/03/16 21:35:31  5-MIN K9L2 040535Z AUTO 00000KT 10SM CLR 15/00 A3002 2210 35 2800 000/00 RMK AO2 $
53144K9L2 9L220160303214010103/03/16 21:40:31  5-MIN K9L2 040540Z AUTO 00000KT 10SM CLR 15/00 A3002 2210 35 2800 000/00 RMK AO2 $
53144K9L2 9L220160303214510103/03/16 21:45:31  5-MIN K9L2 040545Z AUTO 17005KT 10SM CLR 14/01 A3002 2210 38 2700 160/05 RMK AO2 $
53144K9L2 9L220160303215010103/03/16 21:50:31  5-MIN K9L2 040550Z AUTO 19006KT 10SM CLR 14/02 A3002 2210 41 2700 180/06 RMK AO2 $
53144K9L2 9L220160303215513603/03/16 21:55:31  5-MIN K9L2 040555Z AUTO VRB04KT 10SM CLR 14/02 A3002 2210 41 2700 VRB/04 RMK AO2 SLP157 T01440017 10250 20144 53012 $
53144K9L2 9L220160303220010103/03/16 22:00:31  5-MIN K9L2 040600Z AUTO VRB06KT 10SM CLR 14/02 A3002 2210 43 2600 VRB/06 RMK AO2 $
53144K9L2 9L220160303220510103/03/16 22:05:31  5-MIN K9L2 040605Z AUTO 20006KT 10SM CLR 14/02 A3002 2210 43 2600 180/06 RMK AO2 $
53144K9L2 9L220160303221010103/03/16 22:10:31  5-MIN K9L2 040610Z AUTO 18008KT 10SM CLR 13/02 A3002 2210 46 2600 170/08 RMK AO2 $
53144K9L2 9L220160303221510103/03/16 22:15:31  5-MIN K9L2 040615Z AUTO 19008KT 10SM CLR 13/03 A3002 2210 48 2600 170/08 RMK AO2 $
53144K9L2 9L220160303222010103/03/16 22:20:31  5-MIN K9L2 040620Z AUTO 20009KT 10SM CLR 13/03 A3002 2210 50 2500 180/09 RMK AO2 $
53144K9L2 9L220160303222510103/03/16 22:25:31  5-MIN K9L2 040625Z AUTO 21009KT 10SM CLR 13/02 A3002 2210 48 2500 190/09 RMK AO2 $
53144K9L2 9L220160303223010103/03/16 22:30:31  5-MIN K9L2 040630Z AUTO 22009KT 10SM CLR 13/02 A3002 2210 48 2500 210/09 RMK AO2 $
53144K9L2 9L220160303223510103/03/16 22:35:31  5-MIN K9L2 040635Z AUTO 22007KT 10SM CLR 13/02 A3002 2210 45 2600 210/07 RMK AO2 $
53144K9L2 9L220160303224010103/03/16 22:40:31  5-MIN K9L2 040640Z AUTO 24003KT 10SM CLR 13/02 A3002 2210 46 2500 230/03 RMK AO2 $
53144K9L2 9L220160303224510103/03/16 22:45:31  5-MIN K9L2 040645Z AUTO 04003KT 10SM CLR 12/01 A3002 2210 46 2400 030/03 RMK AO2 $
53144K9L2 9L220160303225010103/03/16 22:50:31  5-MIN K9L2 040650Z AUTO 04003KT 10SM CLR 12/01 A3002 2210 48 2400 030/03 RMK AO2 $
53144K9L2 9L220160303225511803/03/16 22:55:31  5-MIN K9L2 040655Z AUTO 36003KT 10SM CLR 12/01 A3003 2210 46 2400 340/03 RMK AO2 SLP158 T01170006 $
53144K9L2 9L220160303230010203/03/16 23:00:31  5-MIN K9L2 040700Z AUTO VRB03KT 10SM CLR 12/M01 A3002 2210 41 2400 VRB/03 RMK AO2 $
53144K9L2 9L220160303230510203/03/16 23:05:31  5-MIN K9L2 040705Z AUTO 24003KT 10SM CLR 13/M01 A3002 2210 36 2600 230/03 RMK AO2 $
53144K9L2 9L220160303231010203/03/16 23:10:31  5-MIN K9L2 040710Z AUTO 19004KT 10SM CLR 13/M01 A3002 2210 36 2600 180/04 RMK AO2 $
53144K9L2 9L220160303231510103/03/16 23:15:31  5-MIN K9L2 040715Z AUTO 20004KT 10SM CLR 13/00 A3002 2210 41 2500 190/04 RMK AO2 $
53144K9L2 9L220160303232010103/03/16 23:20:31  5-MIN K9L2 040720Z AUTO 00000KT 10SM CLR 13/00 A3002 2210 41 2500 000/00 RMK AO2 $
53144K9L2 9L220160303232510203/03/16 23:25:31  5-MIN K9L2 040725Z AUTO 23004KT 10SM CLR 13/M01 A3002 2210 39 2500 220/04 RMK AO2 $
53144K9L2 9L220160303233010103/03/16 23:30:31  5-MIN K9L2 040730Z AUTO 22007KT 10SM CLR 13/01 A3002 2210 41 2600 210/07 RMK AO2 $
53144K9L2 9L220160303233510103/03/16 23:35:31  5-MIN K9L2 040735Z AUTO 22007KT 10SM CLR 13/00 A3002 2210 40 2600 200/07 RMK AO2 $
53144K9L2 9L220160303234010103/03/16 23:40:31  5-MIN K9L2 040740Z AUTO 00000KT 10SM CLR 13/01 A3002 2210 43 2500 000/00 RMK AO2 $
53144K9L2 9L220160303234510203/03/16 23:45:31  5-MIN K9L2 040745Z AUTO VRB03KT 10SM CLR 12/M01 A3002 2210 41 2400 VRB/03 RMK AO2 $
53144K9L2 9L220160303235010203/03/16 23:50:31  5-MIN K9L2 040750Z AUTO 00000KT 10SM CLR 12/M01 A3002 2210 39 2400 000/00 RMK AO2 $
53144K9L2 9L220160303235512903/03/16 23:55:31  5-MIN K9L2 040755Z AUTO VRB03KT 10SM CLR 13/M01 A3001 2220 38 2500 VRB/03 RMK AO2 SLP153 T01281011 402780050 $
53144K9L2 9L220160304000010203/04/16 00:00:31  5-MIN K9L2 040800Z AUTO 26006KT 10SM CLR 13/M01 A3001 2220 36 2600 240/06 RMK AO2 $
53144K9L2 9L220160304000510203/04/16 00:05:31  5-MIN K9L2 040805Z AUTO 24008KT 10SM CLR 13/M01 A3001 2220 38 2500 220/08 RMK AO2 $
53144K9L2 9L220160304001010203/04/16 00:10:31  5-MIN K9L2 040810Z AUTO 25006KT 10SM CLR 14/M02 A3001 2220 34 2600 230/06 RMK AO2 $
53144K9L2 9L220160304001510203/04/16 00:15:31  5-MIN K9L2 040815Z AUTO 26004KT 10SM CLR 13/M02 A3001 2220 34 2600 250/04 RMK AO2 $
53144K9L2 9L220160304002010203/04/16 00:20:31  5-MIN K9L2 040820Z AUTO 26003KT 10SM CLR 13/M02 A3002 2210 34 2600 250/03 RMK AO2 $
53144K9L2 9L220160304002510203/04/16 00:25:31  5-MIN K9L2 040825Z AUTO 27005KT 10SM CLR 12/M02 A3002 2210 36 2400 250/05 RMK AO2 $
53144K9L2 9L220160304003010203/04/16 00:30:31  5-MIN K9L2 040830Z AUTO 24006KT 10SM CLR 13/M02 A3002 2210 35 2500 230/06 RMK AO2 $
53144K9L2 9L220160304003510203/04/16 00:35:31  5-MIN K9L2 040835Z AUTO 25004KT 10SM CLR 13/M02 A3001 2220 35 2500 240/04 RMK AO2 $
53144K9L2 9L220160304004010203/04/16 00:40:31  5-MIN K9L2 040840Z AUTO 25005KT 10SM CLR 12/M02 A3002 2210 36 2400 240/05 RMK AO2 $
53144K9L2 9L220160304004510203/04/16 00:45:31  5-MIN K9L2 040845Z AUTO 26004KT 10SM CLR 11/M02 A3002 2210 39 2300 250/04 RMK AO2 $
53144K9L2 9L220160304005010203/04/16 00:50:31  5-MIN K9L2 040850Z AUTO 25004KT 10SM CLR 11/M02 A3001 2220 39 2300 240/04 RMK AO2 $
53144K9L2 9L220160304005512503/04/16 00:55:31  5-MIN K9L2 040855Z AUTO 22003KT 10SM CLR 11/M02 A3002 2220 39 2300 210/03 RMK AO2 SLP154 T01111022 53004 $
53144K9L2 9L220160304010010203/04/16 01:00:31  5-MIN K9L2 040900Z AUTO 00000KT 10SM CLR 11/M03 A3001 2220 37 2300 000/00 RMK AO2 $
53144K9L2 9L220160304010510203/04/16 01:05:31  5-MIN K9L2 040905Z AUTO 00000KT 10SM CLR 11/M03 A3001 2220 37 2300 000/00 RMK AO2 $
53144K9L2 9L220160304011010203/04/16 01:10:31  5-MIN K9L2 040910Z AUTO 19003KT 10SM CLR 11/M03 A3001 2220 36 2300 180/03 RMK AO2 $
53144K9L2 9L220160304011510203/04/16 01:15:31  5-MIN K9L2 040915Z AUTO 17003KT 10SM CLR 11/M04 A3001 2220 36 2300 160/03 RMK AO2 $
53144K9L2 9L220160304012010203/04/16 01:20:31  5-MIN K9L2 040920Z AUTO 18005KT 10SM CLR 12/M05 A3001 2220 30 2400 170/05 RMK AO2 $
53144K9L2 9L220160304012510203/04/16 01:25:31  5-MIN K9L2 040925Z AUTO 19008KT 10SM CLR 12/M04 A3000 2230 32 2400 180/08 RMK AO2 $
53144K9L2 9L220160304013010203/04/16 01:30:31  5-MIN K9L2 040930Z AUTO 19007KT 10SM CLR 12/M04 A3001 2220 33 2400 180/07 RMK AO2 $
53144K9L2 9L220160304013510203/04/16 01:35:31  5-MIN K9L2 040935Z AUTO 19009KT 10SM CLR 12/M03 A3000 2220 35 2400 170/09 RMK AO2 $
53144K9L2 9L220160304014010203/04/16 01:40:31  5-MIN K9L2 040940Z AUTO 20010KT 10SM CLR 12/M02 A3000 2220 38 2400 180/10 RMK AO2 $
53144K9L2 9L220160304014510203/04/16 01:45:31  5-MIN K9L2 040945Z AUTO 19008KT 10SM CLR 12/M02 A3000 2230 39 2400 180/08 RMK AO2 $
53144K9L2 9L220160304015010203/04/16 01:50:31  5-MIN K9L2 040950Z AUTO 19006KT 10SM CLR 11/M02 A3000 2230 40 2300 170/06 RMK AO2 $
53144K9L2 9L220160304015511903/04/16 01:55:31  5-MIN K9L2 040955Z AUTO 18007KT 10SM CLR 10/M02 A3000 2230 42 2200 170/07 RMK AO2 SLP148 T01001022 $
53144K9L2 9L220160304020010203/04/16 02:00:31  5-MIN K9L2 041000Z AUTO 18009KT 10SM CLR 10/M02 A2999 2240 44 2200 170/09 RMK AO2 $
53144K9L2 9L220160304020510203/04/16 02:05:31  5-MIN K9L2 041005Z AUTO 18009KT 10SM CLR 09/M02 A2999 2240 45 2100 170/09 RMK AO2 $
53144K9L2 9L220160304021010203/04/16 02:10:31  5-MIN K9L2 041010Z AUTO 19008KT 10SM CLR 10/M02 A2999 2240 44 2200 180/08 RMK AO2 $
53144K9L2 9L220160304021510203/04/16 02:15:31  5-MIN K9L2 041015Z AUTO 18008KT 10SM CLR 10/M02 A2999 2240 44 2200 170/08 RMK AO2 $
53144K9L2 9L220160304022010203/04/16 02:20:31  5-MIN K9L2 041020Z AUTO 18007KT 10SM CLR 09/M02 A2999 2240 45 2100 170/07 RMK AO2 $
53144K9L2 9L220160304022510203/04/16 02:25:31  5-MIN K9L2 041025Z AUTO 18007KT 10SM CLR 09/M01 A2999 2240 47 2100 170/07 RMK AO2 $
53144K9L2 9L220160304023010203/04/16 02:30:31  5-MIN K9L2 041030Z AUTO 19007KT 10SM CLR 09/M01 A2999 2240 49 2100 180/07 RMK AO2 $
53144K9L2 9L220160304023510203/04/16 02:35:31  5-MIN K9L2 041035Z AUTO 19006KT 10SM CLR 09/M01 A2999 2240 49 2100 180/06 RMK AO2 $
53144K9L2 9L220160304024010203/04/16 02:40:31  5-MIN K9L2 041040Z AUTO 18004KT 10SM CLR 09/M01 A2999 2240 49 2100 170/04 RMK AO2 $
53144K9L2 9L220160304024510203/04/16 02:45:31  5-MIN K9L2 041045Z AUTO 18005KT 10SM CLR 09/M01 A2999 2240 51 2100 170/05 RMK AO2 $
53144K9L2 9L220160304025010203/04/16 02:50:31  5-MIN K9L2 041050Z AUTO 18006KT 10SM CLR 09/M01 A2999 2240 51 2100 170/06 RMK AO2 $
53144K9L2 9L220160304025511803/04/16 02:55:31  5-MIN K9L2 041055Z AUTO 17007KT 10SM CLR 09/00 A2998 2240 53 2100 160/07 RMK AO2 SLP145 T00890000 $
53144K9L2 9L220160304030010103/04/16 03:00:31  5-MIN K9L2 041100Z AUTO 17007KT 10SM CLR 09/00 A2998 2250 53 2100 160/07 RMK AO2 $
53144K9L2 9L220160304030510103/04/16 03:05:31  5-MIN K9L2 041105Z AUTO 18008KT 10SM CLR 09/01 A2998 2250 53 2200 160/08 RMK AO2 $
53144K9L2 9L220160304031010103/04/16 03:10:31  5-MIN K9L2 041110Z AUTO 17007KT 10SM CLR 09/01 A2998 2250 53 2200 160/07 RMK AO2 $
53144K9L2 9L220160304031510103/04/16 03:15:31  5-MIN K9L2 041115Z AUTO 18009KT 10SM CLR 09/01 A2997 2250 53 2200 170/09 RMK AO2 $
53144K9L2 9L220160304032010103/04/16 03:20:31  5-MIN K9L2 041120Z AUTO 18009KT 10SM CLR 09/01 A2997 2260 53 2200 170/09 RMK AO2 $
53144K9L2 9L220160304032510103/04/16 03:25:31  5-MIN K9L2 041125Z AUTO 19009KT 10SM CLR 09/01 A2997 2260 56 2100 170/09 RMK AO2 $
53144K9L2 9L220160304033010103/04/16 03:30:31  5-MIN K9L2 041130Z AUTO 19008KT 10SM CLR 09/01 A2997 2260 56 2100 180/08 RMK AO2 $
53144K9L2 9L220160304033510103/04/16 03:35:31  5-MIN K9L2 041135Z AUTO 20005KT 10SM CLR 09/01 A2997 2250 56 2100 180/05 RMK AO2 $
53144K9L2 9L220160304034010103/04/16 03:40:31  5-MIN K9L2 041140Z AUTO 17007KT 10SM CLR 09/01 A2997 2260 56 2100 160/07 RMK AO2 $
53144K9L2 9L220160304034510103/04/16 03:45:31  5-MIN K9L2 041145Z AUTO 18008KT 10SM CLR 09/01 A2997 2260 56 2100 170/08 RMK AO2 $
53144K9L2 9L220160304035010103/04/16 03:50:31  5-MIN K9L2 041150Z AUTO 18009KT 10SM CLR 09/01 A2996 2270 56 2100 170/09 RMK AO2 $
53144K9L2 9L220160304035513603/04/16 03:55:31  5-MIN K9L2 041155Z AUTO 18008KT 10SM CLR 08/01 A2996 2270 60 2000 170/08 RMK AO2 SLP138 T00830011 10144 20083 58002 $
53144K9L2 9L220160304040010103/04/16 04:00:31  5-MIN K9L2 041200Z AUTO 19004KT 10SM CLR 08/01 A2997 2260 60 2000 170/04 RMK AO2 $
53144K9L2 9L220160304040510103/04/16 04:05:31  5-MIN K9L2 041205Z AUTO 00000KT 10SM CLR 08/01 A2997 2260 60 2000 000/00 RMK AO2 $
53144K9L2 9L220160304041010103/04/16 04:10:31  5-MIN K9L2 041210Z AUTO 00000KT 10SM CLR 08/01 A2997 2260 60 2000 000/00 RMK AO2 $
53144K9L2 9L220160304041510103/04/16 04:15:31  5-MIN K9L2 041215Z AUTO 18004KT 10SM CLR 07/01 A2997 2260 62 1900 170/04 RMK AO2 $
53144K9L2 9L220160304042010103/04/16 04:20:31  5-MIN K9L2 041220Z AUTO 20004KT 10SM CLR 08/01 A2996 2260 60 2000 190/04 RMK AO2 $
53144K9L2 9L220160304042510103/04/16 04:25:31  5-MIN K9L2 041225Z AUTO 00000KT 10SM CLR 07/00 A2996 2270 60 1900 000/00 RMK AO2 $
53144K9L2 9L220160304043010103/04/16 04:30:31  5-MIN K9L2 041230Z AUTO 00000KT 10SM CLR 07/00 A2996 2260 62 1800 000/00 RMK AO2 $
53144K9L2 9L220160304043510103/04/16 04:35:31  5-MIN K9L2 041235Z AUTO 36003KT 10SM CLR 07/00 A2997 2260 62 1800 340/03 RMK AO2 $
53144K9L2 9L220160304044010203/04/16 04:40:31  5-MIN K9L2 041240Z AUTO 02006KT 10SM CLR 06/M01 A2997 2260 65 1700 010/06 RMK AO2 $
53144K9L2 9L220160304044510103/04/16 04:45:31  5-MIN K9L2 041245Z AUTO 04004KT 10SM CLR 06/00 A2997 2250 67 1700 030/04 RMK AO2 $
53144K9L2 9L220160304045010103/04/16 04:50:31  5-MIN K9L2 041250Z AUTO 04003KT 10SM CLR 06/00 A2997 2250 67 1700 030/03 RMK AO2 $
53144K9L2 9L220160304045511803/04/16 04:55:31  5-MIN K9L2 041255Z AUTO 00000KT 10SM CLR 06/00 A2997 2250 67 1700 000/00 RMK AO2 SLP146 T00560000 $
53144K9L2 9L220160304050010103/04/16 05:00:31  5-MIN K9L2 041300Z AUTO 00000KT 10SM CLR 06/00 A2998 2250 65 1800 000/00 RMK AO2 $
53144K9L2 9L220160304050510203/04/16 05:05:31  5-MIN K9L2 041305Z AUTO 00000KT 10SM CLR 05/M01 A2998 2250 67 1600 000/00 RMK AO2 $
53144K9L2 9L220160304051010203/04/16 05:10:31  5-MIN K9L2 041310Z AUTO 00000KT 10SM CLR 05/M01 A2998 2250 67 1600 000/00 RMK AO2 $
53144K9L2 9L220160304051510203/04/16 05:15:31  5-MIN K9L2 041315Z AUTO 00000KT 10SM CLR 04/M01 A2998 2250 67 1600 000/00 RMK AO2 $
53144K9L2 9L220160304052010203/04/16 05:20:31  5-MIN K9L2 041320Z AUTO 00000KT 10SM CLR 04/M01 A2998 2250 70 1500 000/00 RMK AO2 $
53144K9L2 9L220160304052510203/04/16 05:25:31  5-MIN K9L2 041325Z AUTO 00000KT 10SM CLR 04/M02 A2998 2250 67 1500 000/00 RMK AO2 $
53144K9L2 9L220160304053010203/04/16 05:30:31  5-MIN K9L2 041330Z AUTO 33003KT 10SM CLR 04/M01 A2998 2240 70 1500 320/03 RMK AO2 $
53144K9L2 9L220160304053510203/04/16 05:35:31  5-MIN K9L2 041335Z AUTO 32004KT 10SM CLR 04/M01 A2998 2240 70 1500 310/04 RMK AO2 $
53144K9L2 9L220160304054010203/04/16 05:40:31  5-MIN K9L2 041340Z AUTO 34004KT 10SM CLR 04/M01 A2999 2240 70 1500 330/04 RMK AO2 $
53144K9L2 9L220160304054510203/04/16 05:45:31  5-MIN K9L2 041345Z AUTO 33003KT 10SM CLR 04/M01 A2999 2240 70 1500 320/03 RMK AO2 $
53144K9L2 9L220160304055010203/04/16 05:50:31  5-MIN K9L2 041350Z AUTO 34004KT 10SM CLR 04/M01 A2999 2240 70 1500 330/04 RMK AO2 $
53144K9L2 9L220160304055511903/04/16 05:55:31  5-MIN K9L2 041355Z AUTO 33004KT 10SM CLR 04/M01 A2999 2240 70 1500 310/04 RMK AO2 SLP154 T00391011 $
53144K9L2 9L220160304060010203/04/16 06:00:31  5-MIN K9L2 041400Z AUTO 33004KT 10SM CLR 04/M01 A2999 2240 70 1500 310/04 RMK AO2 $
53144K9L2 9L220160304060510203/04/16 06:05:31  5-MIN K9L2 041405Z AUTO 33006KT 10SM CLR 04/M01 A2999 2240 70 1500 320/06 RMK AO2 $
53144K9L2 9L220160304061010203/04/16 06:10:31  5-MIN K9L2 041410Z AUTO 32003KT 10SM CLR 04/M01 A2999 2240 70 1500 300/03 RMK AO2 $
53144K9L2 9L220160304061510203/04/16 06:15:31  5-MIN K9L2 041415Z AUTO 32004KT 10SM CLR 04/M01 A2999 2240 70 1500 310/04 RMK AO2 $
53144K9L2 9L220160304062010203/04/16 06:20:31  5-MIN K9L2 041420Z AUTO 32005KT 10SM CLR 04/M01 A2999 2240 70 1500 310/05 RMK AO2 $
53144K9L2 9L220160304062510203/04/16 06:25:31  5-MIN K9L2 041425Z AUTO 33004KT 10SM CLR 04/M02 A2999 2240 64 1500 320/04 RMK AO2 $
53144K9L2 9L220160304063010203/04/16 06:30:31  5-MIN K9L2 041430Z AUTO 34006KT 10SM CLR 04/M02 A2999 2230 67 1500 320/06 RMK AO2 $
53144K9L2 9L220160304063510203/04/16 06:35:31  5-MIN K9L2 041435Z AUTO 33006KT 10SM CLR 04/M02 A3000 2230 67 1500 320/06 RMK AO2 $
53144K9L2 9L220160304064010203/04/16 06:40:31  5-MIN K9L2 041440Z AUTO 34006KT 10SM CLR 04/M02 A3000 2230 64 1500 320/06 RMK AO2 $
53144K9L2 9L220160304064510203/04/16 06:45:31  5-MIN K9L2 041445Z AUTO 33004KT 10SM CLR 05/M01 A3000 2230 64 1600 310/04 RMK AO2 $
53144K9L2 9L220160304065010203/04/16 06:50:31  5-MIN K9L2 041450Z AUTO 33004KT 10SM CLR 06/M01 A3000 2230 62 1700 320/04 RMK AO2 $
53144K9L2 9L220160304065512503/04/16 06:55:31  5-MIN K9L2 041455Z AUTO 32004KT 10SM CLR 06/M01 A3000 2230 60 1700 310/04 RMK AO2 SLP159 T00611011 58017 $
53144K9L2 9L220160304070010203/04/16 07:00:31  5-MIN K9L2 041500Z AUTO 33004KT 10SM CLR 07/M01 A3000 2230 57 1800 320/04 RMK AO2 $
53144K9L2 9L220160304070510203/04/16 07:05:31  5-MIN K9L2 041505Z AUTO 33003KT 10SM CLR 07/M01 A3000 2230 57 1900 320/03 RMK AO2 $
53144K9L2 9L220160304071010203/04/16 07:10:31  5-MIN K9L2 041510Z AUTO 33003KT 10SM CLR 08/M01 A3000 2230 55 1900 310/03 RMK AO2 $
53144K9L2 9L220160304071510103/04/16 07:15:31  5-MIN K9L2 041515Z AUTO 33003KT 10SM CLR 08/00 A3001 2220 55 2000 320/03 RMK AO2 $
53144K9L2 9L220160304072010103/04/16 07:20:31  5-MIN K9L2 041520Z AUTO 00000KT 10SM CLR 08/00 A3001 2220 55 2000 000/00 RMK AO2 $
53144K9L2 9L220160304072510103/04/16 07:25:31  5-MIN K9L2 041525Z AUTO 00000KT 10SM CLR 09/01 A3001 2220 56 2100 000/00 RMK AO2 $
53144K9L2 9L220160304073010103/04/16 07:30:31  5-MIN K9L2 041530Z AUTO 00000KT 10SM CLR 09/01 A3002 2210 53 2100 000/00 RMK AO2 $
53144K9L2 9L220160304073510103/04/16 07:35:31  5-MIN K9L2 041535Z AUTO 00000KT 10SM CLR 10/01 A3002 2210 52 2200 000/00 RMK AO2 $
53144K9L2 9L220160304074010103/04/16 07:40:31  5-MIN K9L2 041540Z AUTO 00000KT 10SM CLR 10/01 A3001 2220 52 2200 000/00 RMK AO2 $
53144K9L2 9L220160304074510103/04/16 07:45:31  5-MIN K9L2 041545Z AUTO 00000KT 10SM CLR 10/01 A3002 2210 52 2200 000/00 RMK AO2 $
53144K9L2 9L220160304075010103/04/16 07:50:31  5-MIN K9L2 041550Z AUTO 00000KT 10SM CLR 11/01 A3002 2210 50 2200 000/00 RMK AO2 $
53144K9L2 9L220160304075511803/04/16 07:55:31  5-MIN K9L2 041555Z AUTO 00000KT 10SM CLR 11/01 A3002 2210 50 2200 000/00 RMK AO2 SLP164 T01060006 $
53144K9L2 9L220160305160012803/05/16 16:00:31  5-MIN K9L2 060000Z AUTO 23020G29KT 10SM FEW100 16/08 A2991 2310 59 3000 210/20G29 RMK AO2 PK WND 23026/2359 $
53144K9L2 9L220160305160512803/05/16 16:05:31  5-MIN K9L2 060005Z AUTO 23018G26KT 10SM FEW100 16/08 A2992 2310 59 3000 210/18G26 RMK AO2 PK WND 22026/0001 $
53144K9L2 9L220160305161012803/05/16 16:10:31  5-MIN K9L2 060010Z AUTO 23020G26KT 10SM FEW100 16/08 A2992 2310 59 3000 220/20G26 RMK AO2 PK WND 24026/0009 $
53144K9L2 9L220160305161512503/05/16 16:15:31  5-MIN K9L2 060015Z AUTO 23023G26KT 10SM CLR 16/08 A2991 2310 59 3000 210/23G26 RMK AO2 PK WND 23026/0015 $
53144K9L2 9L220160305162012503/05/16 16:20:31  5-MIN K9L2 060020Z AUTO 22023G28KT 10SM CLR 16/08 A2991 2310 57 3000 210/23G28 RMK AO2 PK WND 22028/0020 $
53144K9L2 9L220160305162512503/05/16 16:25:31  5-MIN K9L2 060025Z AUTO 22023G28KT 10SM CLR 16/07 A2991 2310 55 3000 210/23G28 RMK AO2 PK WND 22028/0025 $
53144K9L2 9L220160305163012503/05/16 16:30:31  5-MIN K9L2 060030Z AUTO 23018G28KT 10SM CLR 16/07 A2992 2310 55 3000 210/18G28 RMK AO2 PK WND 22028/0025 $
53144K9L2 9L220160305163512503/05/16 16:35:31  5-MIN K9L2 060035Z AUTO 22022G29KT 10SM CLR 16/07 A2991 2320 55 3000 210/22G29 RMK AO2 PK WND 22029/0035 $
53144K9L2 9L220160305164012503/05/16 16:40:31  5-MIN K9L2 060040Z AUTO 22027G32KT 10SM CLR 16/07 A2990 2320 55 3000 210/27G32 RMK AO2 PK WND 22032/0039 $
53144K9L2 9L220160305164512503/05/16 16:45:31  5-MIN K9L2 060045Z AUTO 22022G32KT 10SM CLR 16/07 A2991 2320 55 3000 200/22G32 RMK AO2 PK WND 22032/0039 $
53144K9L2 9L220160305165012503/05/16 16:50:31  5-MIN K9L2 060050Z AUTO 22016G30KT 10SM CLR 16/07 A2991 2310 55 3000 210/16G30 RMK AO2 PK WND 22032/0039 $
53144K9L2 9L220160305165514203/05/16 16:55:31  5-MIN K9L2 060055Z AUTO 23020G25KT 10SM CLR 16/07 A2991 2310 55 3000 220/20G25 RMK AO2 PK WND 22032/0039 SLP125 T01610072 $
53144K9L2 9L220160305170010703/05/16 17:00:31  5-MIN K9L2 060100Z AUTO 24017G25KT 10SM CLR 16/07 A2992 2300 55 3000 220/17G25 RMK AO2 $
53144K9L2 9L220160305170510703/05/16 17:05:31  5-MIN K9L2 060105Z AUTO 23017G25KT 10SM CLR 16/07 A2992 2310 55 3000 220/17G25 RMK AO2 $
53144K9L2 9L220160305171012803/05/16 17:10:31  5-MIN K9L2 060110Z AUTO 23021G28KT 10SM FEW080 16/07 A2992 2300 57 2900 220/21G28 RMK AO2 PK WND 24028/0109 $
53144K9L2 9L220160305171512803/05/16 17:15:31  5-MIN K9L2 060115Z AUTO 22019G28KT 10SM FEW080 16/07 A2992 2300 57 2900 210/19G28 RMK AO2 PK WND 24028/0109 $
53144K9L2 9L220160305172012803/05/16 17:20:31  5-MIN K9L2 060120Z AUTO 23017G24KT 10SM FEW080 16/07 A2992 2300 57 2900 220/17G24 RMK AO2 PK WND 24028/0109 $
53144K9L2 9L220160305172512203/05/16 17:25:31  5-MIN K9L2 060125Z AUTO 23018KT 10SM FEW080 16/07 A2992 2300 57 2900 220/18 RMK AO2 PK WND 24028/0109 $
53144K9L2 9L220160305173013503/05/16 17:30:31  5-MIN K9L2 060130Z AUTO 22018G25KT 10SM FEW060 SCT090 16/08 A2992 2310 59 2900 210/18G25 RMK AO2 PK WND 24028/0109 $
53144K9L2 9L220160305173513503/05/16 17:35:31  5-MIN K9L2 060135Z AUTO 23018G25KT 10SM FEW060 BKN090 16/08 A2993 2300 59 2900 220/18G25 RMK AO2 PK WND 24028/0109 $
53144K9L2 9L220160305174014203/05/16 17:40:31  5-MIN K9L2 060140Z AUTO 23016G25KT 10SM FEW060 SCT080 SCT100 16/08 A2993 2300 59 2900 220/16G25 RMK AO2 PK WND 24028/0109 $
53144K9L2 9L220160305174512803/05/16 17:45:31  5-MIN K9L2 060145Z AUTO 24015G26KT 10SM FEW060 15/08 A2993 2300 62 2900 220/15G26 RMK AO2 PK WND 24028/0109 $
53144K9L2 9L220160305175012803/05/16 17:50:31  5-MIN K9L2 060150Z AUTO 24016G26KT 10SM FEW060 15/08 A2993 2300 62 2900 220/16G26 RMK AO2 PK WND 24028/0109 $
53144K9L2 9L220160305175514503/05/16 17:55:31  5-MIN K9L2 060155Z AUTO 23017G23KT 10SM FEW060 15/08 A2993 2300 62 2900 220/17G23 RMK AO2 PK WND 24028/0109 SLP131 T01500078 $
53144K9L2 9L220160305180010403/05/16 18:00:31  5-MIN K9L2 060200Z AUTO 23017KT 10SM FEW080 15/08 A2993 2290 64 2900 220/17 RMK AO2 $
53144K9L2 9L220160305180510103/05/16 18:05:31  5-MIN K9L2 060205Z AUTO 24016KT 10SM CLR 15/08 A2993 2290 64 2900 220/16 RMK AO2 $
53144K9L2 9L220160305181010103/05/16 18:10:31  5-MIN K9L2 060210Z AUTO 24013KT 10SM CLR 15/08 A2993 2290 64 2900 220/13 RMK AO2 $
53144K9L2 9L220160305181510103/05/16 18:15:31  5-MIN K9L2 060215Z AUTO 23016KT 10SM CLR 15/08 A2992 2300 64 2900 220/16 RMK AO2 $
53144K9L2 9L220160305182010103/05/16 18:20:31  5-MIN K9L2 060220Z AUTO 24016KT 10SM CLR 15/08 A2993 2300 64 2900 230/16 RMK AO2 $
53144K9L2 9L220160305182510703/05/16 18:25:31  5-MIN K9L2 060225Z AUTO 24017G24KT 10SM CLR 15/08 A2993 2300 64 2900 230/17G24 RMK AO2 $
53144K9L2 9L220160305183010703/05/16 18:30:31  5-MIN K9L2 060230Z AUTO 24017G24KT 10SM CLR 15/08 A2993 2290 64 2900 230/17G24 RMK AO2 $
53144K9L2 9L220160305183510103/05/16 18:35:31  5-MIN K9L2 060235Z AUTO 24018KT 10SM CLR 15/08 A2993 2300 64 2900 230/18 RMK AO2 $
53144K9L2 9L220160305184010703/05/16 18:40:31  5-MIN K9L2 060240Z AUTO 24015G21KT 10SM CLR 15/08 A2993 2290 64 2900 220/15G21 RMK AO2 $
53144K9L2 9L220160305184510103/05/16 18:45:31  5-MIN K9L2 060245Z AUTO 23019KT 10SM CLR 15/08 A2993 2290 64 2900 220/19 RMK AO2 $
53144K9L2 9L220160305185010703/05/16 18:50:31  5-MIN K9L2 060250Z AUTO 23018G24KT 10SM CLR 15/08 A2993 2290 64 2900 210/18G24 RMK AO2 $
53144K9L2 9L220160305185513003/05/16 18:55:31  5-MIN K9L2 060255Z AUTO 23017G24KT 10SM CLR 15/08 A2994 2290 64 2900 220/17G24 RMK AO2 SLP135 T01500083 56016 $
53144K9L2 9L220160305190010703/05/16 19:00:31  5-MIN K9L2 060300Z AUTO 23016G23KT 10SM CLR 15/08 A2994 2280 64 2800 220/16G23 RMK AO2 $
53144K9L2 9L220160305190510103/05/16 19:05:31  5-MIN K9L2 060305Z AUTO 23016KT 10SM CLR 15/08 A2994 2280 64 2800 220/16 RMK AO2 $
53144K9L2 9L220160305191010103/05/16 19:10:31  5-MIN K9L2 060310Z AUTO 23017KT 10SM CLR 15/08 A2995 2280 64 2800 220/17 RMK AO2 $
53144K9L2 9L220160305191510103/05/16 19:15:31  5-MIN K9L2 060315Z AUTO 23017KT 10SM CLR 15/08 A2995 2280 64 2800 220/17 RMK AO2 $
53144K9L2 9L220160305192010103/05/16 19:20:31  5-MIN K9L2 060320Z AUTO 23012KT 10SM CLR 15/08 A2995 2280 64 2800 210/12 RMK AO2 $
53144K9L2 9L220160305192510103/05/16 19:25:31  5-MIN K9L2 060325Z AUTO 23012KT 10SM CLR 15/08 A2995 2280 64 2800 210/12 RMK AO2 $
53144K9L2 9L220160305193010103/05/16 19:30:31  5-MIN K9L2 060330Z AUTO 23012KT 10SM CLR 14/08 A2995 2270 66 2800 220/12 RMK AO2 $
53144K9L2 9L220160305193510103/05/16 19:35:31  5-MIN K9L2 060335Z AUTO 23011KT 10SM CLR 15/08 A2996 2270 64 2800 220/11 RMK AO2 $
53144K9L2 9L220160305194010403/05/16 19:40:31  5-MIN K9L2 060340Z AUTO 22009KT 10SM FEW018 15/08 A2996 2270 64 2800 210/09 RMK AO2 $
53144K9L2 9L220160305194511003/05/16 19:45:31  5-MIN K9L2 060345Z AUTO 22008G16KT 10SM FEW018 15/08 A2996 2270 64 2800 210/08G16 RMK AO2 $
53144K9L2 9L220160305195011003/05/16 19:50:31  5-MIN K9L2 060350Z AUTO 23008G16KT 10SM FEW100 15/08 A2996 2270 64 2800 220/08G16 RMK AO2 $
53144K9L2 9L220160305195512703/05/16 19:55:31  5-MIN K9L2 060355Z AUTO 24012G15KT 10SM FEW100 14/08 A2996 2270 66 2800 230/12G15 RMK AO2 SLP140 T01440083 $
53144K9L2 9L220160305200010403/05/16 20:00:31  5-MIN K9L2 060400Z AUTO 25011KT 10SM FEW100 14/08 A2996 2270 66 2800 240/11 RMK AO2 $
53144K9L2 9L220160305200511003/05/16 20:05:31  5-MIN K9L2 060405Z AUTO 25013G18KT 10SM FEW100 14/08 A2996 2270 66 2800 240/13G18 RMK AO2 $
53144K9L2 9L220160305201011003/05/16 20:10:31  5-MIN K9L2 060410Z AUTO 24013G18KT 10SM FEW100 14/08 A2995 2270 66 2800 230/13G18 RMK AO2 $
53144K9L2 9L220160305201510403/05/16 20:15:31  5-MIN K9L2 060415Z AUTO 25016KT 10SM FEW100 14/08 A2995 2270 66 2800 240/16 RMK AO2 $
53144K9L2 9L220160305202010403/05/16 20:20:31  5-MIN K9L2 060420Z AUTO 25016KT 10SM FEW100 14/08 A2995 2280 66 2800 230/16 RMK AO2 $
53144K9L2 9L220160305202510403/05/16 20:25:31  5-MIN K9L2 060425Z AUTO 25014KT 10SM FEW100 14/08 A2995 2280 66 2800 240/14 RMK AO2 $
53144K9L2 9L220160305203010103/05/16 20:30:31  5-MIN K9L2 060430Z AUTO 25012KT 10SM CLR 14/08 A2995 2280 66 2800 240/12 RMK AO2 $
53144K9L2 9L220160305203510103/05/16 20:35:31  5-MIN K9L2 060435Z AUTO 25012KT 10SM CLR 14/08 A2995 2280 66 2800 240/12 RMK AO2 $
53144K9L2 9L220160305204010103/05/16 20:40:31  5-MIN K9L2 060440Z AUTO 26012KT 10SM CLR 14/08 A2995 2280 66 2800 250/12 RMK AO2 $
53144K9L2 9L220160305204510103/05/16 20:45:31  5-MIN K9L2 060445Z AUTO 26012KT 10SM CLR 14/08 A2994 2280 69 2700 250/12 RMK AO2 $
53144K9L2 9L220160305205010103/05/16 20:50:31  5-MIN K9L2 060450Z AUTO 26013KT 10SM CLR 14/08 A2994 2280 69 2700 250/13 RMK AO2 $
53144K9L2 9L220160305205511803/05/16 20:55:31  5-MIN K9L2 060455Z AUTO 26011KT 10SM CLR 14/08 A2993 2290 69 2700 250/11 RMK AO2 SLP131 T01390083 $
53144K9L2 9L220160305210010103/05/16 21:00:31  5-MIN K9L2 060500Z AUTO 26012KT 10SM CLR 14/08 A2994 2290 69 2700 250/12 RMK AO2 $
53144K9L2 9L220160305210510103/05/16 21:05:31  5-MIN K9L2 060505Z AUTO 25012KT 10SM CLR 14/08 A2994 2290 69 2700 240/12 RMK AO2 $
53144K9L2 9L220160305211010103/05/16 21:10:31  5-MIN K9L2 060510Z AUTO 25013KT 10SM CLR 14/08 A2994 2280 69 2700 230/13 RMK AO2 $
53144K9L2 9L220160305211510103/05/16 21:15:31  5-MIN K9L2 060515Z AUTO 26011KT 10SM CLR 14/08 A2994 2280 66 2800 250/11 RMK AO2 $
53144K9L2 9L220160305212010103/05/16 21:20:31  5-MIN K9L2 060520Z AUTO 26010KT 10SM CLR 14/08 A2994 2280 69 2700 250/10 RMK AO2 $
53144K9L2 9L220160305212510703/05/16 21:25:31  5-MIN K9L2 060525Z AUTO 25012G17KT 10SM CLR 14/08 A2995 2280 69 2700 240/12G17 RMK AO2 $
53144K9L2 9L220160305213010703/05/16 21:30:31  5-MIN K9L2 060530Z AUTO 24015G19KT 10SM CLR 14/08 A2994 2280 66 2800 220/15G19 RMK AO2 $
53144K9L2 9L220160305213510703/05/16 21:35:31  5-MIN K9L2 060535Z AUTO 24015G23KT 10SM CLR 14/08 A2994 2280 66 2800 220/15G23 RMK AO2 $
53144K9L2 9L220160305214010703/05/16 21:40:31  5-MIN K9L2 060540Z AUTO 24016G23KT 10SM CLR 14/08 A2995 2280 66 2800 230/16G23 RMK AO2 $
53144K9L2 9L220160305214510103/05/16 21:45:31  5-MIN K9L2 060545Z AUTO 24016KT 10SM CLR 14/08 A2995 2280 66 2800 220/16 RMK AO2 $
53144K9L2 9L220160305215010703/05/16 21:50:31  5-MIN K9L2 060550Z AUTO 23017G24KT 10SM CLR 14/08 A2995 2280 66 2800 220/17G24 RMK AO2 $
53144K9L2 9L220160305215516003/05/16 21:55:31  5-MIN K9L2 060555Z AUTO 24020G26KT 10SM CLR 14/08 A2995 2280 66 2800 220/20G26 RMK AO2 PK WND 23026/0555 SLP136 T01440083 10161 20139 53009 $
53144K9L2 9L220160305220012503/05/16 22:00:31  5-MIN K9L2 060600Z AUTO 24022G27KT 10SM CLR 14/08 A2995 2270 66 2800 230/22G27 RMK AO2 PK WND 24027/0600 $
53144K9L2 9L220160305220512503/05/16 22:05:31  5-MIN K9L2 060605Z AUTO 24019G27KT 10SM CLR 14/08 A2995 2270 66 2800 220/19G27 RMK AO2 PK WND 24027/0602 $
53144K9L2 9L220160305221012503/05/16 22:10:31  5-MIN K9L2 060610Z AUTO 24021G27KT 10SM CLR 14/08 A2996 2270 66 2800 220/21G27 RMK AO2 PK WND 23027/0610 $
53144K9L2 9L220160305221512503/05/16 22:15:31  5-MIN K9L2 060615Z AUTO 24019G27KT 10SM CLR 14/08 A2995 2270 66 2800 230/19G27 RMK AO2 PK WND 24027/0611 $
53144K9L2 9L220160305222012503/05/16 22:20:31  5-MIN K9L2 060620Z AUTO 24017G27KT 10SM CLR 14/08 A2995 2270 69 2700 220/17G27 RMK AO2 PK WND 24027/0611 $
53144K9L2 9L220160305222512503/05/16 22:25:31  5-MIN K9L2 060625Z AUTO 23018G24KT 10SM CLR 14/08 A2995 2280 69 2700 220/18G24 RMK AO2 PK WND 24027/0611 $
53144K9L2 9L220160305223012503/05/16 22:30:31  5-MIN K9L2 060630Z AUTO 24015G24KT 10SM CLR 14/08 A2995 2270 69 2700 220/15G24 RMK AO2 PK WND 24027/0611 $
53144K9L2 9L220160305223511903/05/16 22:35:31  5-MIN K9L2 060635Z AUTO 24015KT 10SM CLR 14/08 A2995 2270 66 2800 230/15 RMK AO2 PK WND 24027/0611 $
53144K9L2 9L220160305224011903/05/16 22:40:31  5-MIN K9L2 060640Z AUTO 24014KT 10SM CLR 14/08 A2995 2270 66 2800 230/14 RMK AO2 PK WND 24027/0611 $
53144K9L2 9L220160305224511903/05/16 22:45:31  5-MIN K9L2 060645Z AUTO 25015KT 10SM CLR 14/08 A2996 2270 66 2800 240/15 RMK AO2 PK WND 24027/0611 $
53144K9L2 9L220160305225012203/05/16 22:50:31  5-MIN K9L2 060650Z AUTO 25012KT 10SM FEW090 14/08 A2996 2270 69 2700 240/12 RMK AO2 PK WND 24027/0611 $
53144K9L2 9L220160305225513903/05/16 22:55:31  5-MIN K9L2 060655Z AUTO 25012KT 10SM FEW090 14/08 A2995 2270 69 2700 240/12 RMK AO2 PK WND 24027/0611 SLP137 T01390083 $
53144K9L2 9L220160305230010103/05/16 23:00:31  5-MIN K9L2 060700Z AUTO 23014KT 10SM CLR 14/08 A2995 2270 69 2700 220/14 RMK AO2 $
53144K9L2 9L220160305230510703/05/16 23:05:31  5-MIN K9L2 060705Z AUTO 22017G21KT 10SM CLR 14/08 A2995 2280 69 2700 210/17G21 RMK AO2 $
53144K9L2 9L220160305231010703/05/16 23:10:31  5-MIN K9L2 060710Z AUTO 23017G22KT 10SM CLR 14/08 A2995 2270 69 2700 220/17G22 RMK AO2 $
53144K9L2 9L220160305231510703/05/16 23:15:31  5-MIN K9L2 060715Z AUTO 23014G22KT 10SM CLR 14/08 A2995 2270 69 2700 220/14G22 RMK AO2 $
53144K9L2 9L220160305232010103/05/16 23:20:31  5-MIN K9L2 060720Z AUTO 23014KT 10SM CLR 14/08 A2995 2280 69 2700 210/14 RMK AO2 $
53144K9L2 9L220160305232510403/05/16 23:25:31  5-MIN K9L2 060725Z AUTO 23013KT 10SM FEW100 14/08 A2995 2280 69 2700 210/13 RMK AO2 $
53144K9L2 9L220160305233010403/05/16 23:30:31  5-MIN K9L2 060730Z AUTO 24010KT 10SM SCT095 14/08 A2995 2270 69 2700 230/10 RMK AO2 $
53144K9L2 9L220160305233510403/05/16 23:35:31  5-MIN K9L2 060735Z AUTO 24012KT 10SM BKN090 14/08 A2995 2270 69 2700 230/12 RMK AO2 $
53144K9L2 9L220160305234010403/05/16 23:40:31  5-MIN K9L2 060740Z AUTO 25010KT 10SM BKN090 14/08 A2995 2270 69 2700 240/10 RMK AO2 $
53144K9L2 9L220160305234510403/05/16 23:45:31  5-MIN K9L2 060745Z AUTO 26010KT 10SM BKN090 13/08 A2995 2270 71 2600 250/10 RMK AO2 $
53144K9L2 9L220160305235010403/05/16 23:50:31  5-MIN K9L2 060750Z AUTO 25011KT 10SM BKN090 13/08 A2994 2280 71 2700 240/11 RMK AO2 $
53144K9L2 9L220160305235513103/05/16 23:55:31  5-MIN K9L2 060755Z AUTO 25010KT 10SM BKN090 13/08 A2994 2280 71 2700 240/10 RMK AO2 SLP135 T01330083 401830111 $
53144K9L2 9L220160306000011103/06/16 00:00:31  5-MIN K9L2 060800Z AUTO 24010KT 10SM FEW080 BKN095 13/08 A2994 2280 71 2700 230/10 RMK AO2 $
53144K9L2 9L220160306000510403/06/16 00:05:31  5-MIN K9L2 060805Z AUTO 24012KT 10SM BKN090 13/08 A2994 2280 71 2700 230/12 RMK AO2 $
53144K9L2 9L220160306001011103/06/16 00:10:31  5-MIN K9L2 060810Z AUTO 24011KT 10SM BKN080 BKN095 13/08 A2994 2290 71 2700 220/11 RMK AO2 $
53144K9L2 9L220160306001511103/06/16 00:15:31  5-MIN K9L2 060815Z AUTO 24012KT 10SM BKN080 BKN095 13/08 A2993 2300 69 2700 220/12 RMK AO2 $
53144K9L2 9L220160306002011803/06/16 00:20:31  5-MIN K9L2 060820Z AUTO 23011KT 10SM BKN080 OVC095 13/08 A2992 2300 69 2700 220/11 RMK AO2 PRESFR $
53144K9L2 9L220160306002510403/06/16 00:25:31  5-MIN K9L2 060825Z AUTO 24012KT 10SM OVC075 13/08 A2992 2300 69 2700 230/12 RMK AO2 $
53144K9L2 9L220160306003011703/06/16 00:30:31  5-MIN K9L2 060830Z AUTO 23016G20KT 10SM SCT060 OVC080 13/08 A2992 2300 69 2700 220/16G20 RMK AO2 $
53144K9L2 9L220160306003511703/06/16 00:35:31  5-MIN K9L2 060835Z AUTO 24020G24KT 10SM BKN060 OVC080 13/08 A2995 2280 69 2700 230/20G24 RMK AO2 $
53144K9L2 9L220160306004012403/06/16 00:40:31  5-MIN K9L2 060840Z AUTO 24017G24KT 10SM FEW050 BKN060 OVC075 13/08 A2994 2290 69 2700 230/17G24 RMK AO2 $
53144K9L2 9L220160306004511703/06/16 00:45:31  5-MIN K9L2 060845Z AUTO 23019G24KT 10SM FEW050 OVC070 13/08 A2994 2290 69 2700 220/19G24 RMK AO2 $
53144K9L2 9L220160306005011703/06/16 00:50:31  5-MIN K9L2 060850Z AUTO 23018G24KT 10SM BKN060 OVC070 13/08 A2993 2290 69 2700 220/18G24 RMK AO2 $
53144K9L2 9L220160306005516203/06/16 00:55:31  5-MIN K9L2 060855Z AUTO 23018G24KT 10SM -RA BKN060 OVC070 13/08 A2993 2290 69 2700 220/18G24 RMK AO2 RAB51 SLP131 P0000 60000 T01330078 51004 $
53144K9L2 9L220160306010012703/06/16 01:00:31  5-MIN K9L2 060900Z AUTO 24017G24KT 10SM -RA BKN060 OVC070 13/08 A2994 2280 69 2700 230/17G24 RMK AO2 P0000 $
53144K9L2 9L220160306010512703/06/16 01:05:31  5-MIN K9L2 060905Z AUTO 24020G25KT 10SM -RA BKN060 OVC070 13/08 A2995 2280 71 2600 220/20G25 RMK AO2 P0000 $
53144K9L2 9L220160306011013803/06/16 01:10:31  5-MIN K9L2 060910Z AUTO 23020G29KT 10SM -RA OVC065 13/07 A2995 2280 66 2700 220/20G29 RMK AO2 PK WND 23029/0907 P0000 $
53144K9L2 9L220160306011515103/06/16 01:15:31  5-MIN K9L2 060915Z AUTO 23020G29KT 9SM -RA FEW026 SCT050 OVC065 13/07 A2995 2280 69 2600 220/20G29 RMK AO2 PK WND 23029/0907 P0000 $
53144K9L2 9L220160306012014403/06/16 01:20:31  5-MIN K9L2 060920Z AUTO 22017G28KT 8SM -RA SCT050 OVC060 12/08 A2992 2300 74 2600 200/17G28 RMK AO2 PK WND 23029/0907 P0000 $
53144K9L2 9L220160306012515903/06/16 01:25:31  5-MIN K9L2 060925Z AUTO 20022G30KT 10SM -RA FEW046 BKN060 OVC095 12/08 A2989 2330 74 2600 190/22G30 RMK AO2 PK WND 20030/0924 PRESFR P0000 $
53144K9L2 9L220160306013015203/06/16 01:30:31  5-MIN K9L2 060930Z AUTO 21022G30KT 10SM -RA FEW038 BKN060 OVC090 12/07 A2990 2330 71 2600 200/22G30 RMK AO2 PK WND 20030/0924 P0000 $
53144K9L2 9L220160306013515403/06/16 01:35:31  5-MIN K9L2 060935Z AUTO 22015G27KT 10SM FEW042 SCT065 BKN090 12/07 A2990 2320 71 2500 210/15G27 RMK AO2 PK WND 20030/0924 RAE33 P0000 $
53144K9L2 9L220160306014015403/06/16 01:40:31  5-MIN K9L2 060940Z AUTO 23013G22KT 10SM FEW042 SCT060 SCT090 12/07 A2991 2320 71 2500 220/13G22 RMK AO2 PK WND 20030/0924 RAE33 P0000 $
53144K9L2 9L220160306014514703/06/16 01:45:31  5-MIN K9L2 060945Z AUTO 25015G20KT 10SM FEW060 SCT090 12/07 A2990 2320 71 2500 240/15G20 RMK AO2 PK WND 20030/0924 RAE33 P0000 $
53144K9L2 9L220160306015013403/06/16 01:50:31  5-MIN K9L2 060950Z AUTO 26014KT 10SM FEW090 12/06 A2990 2320 68 2500 250/14 RMK AO2 PK WND 20030/0924 RAE33 P0000 $
53144K9L2 9L220160306015514803/06/16 01:55:31  5-MIN K9L2 060955Z AUTO 26015KT 10SM CLR 12/06 A2990 2320 68 2500 240/15 RMK AO2 PK WND 20030/0924 RAE33 SLP119 P0000 T01170061 $
53144K9L2 9L220160306020010103/06/16 02:00:31  5-MIN K9L2 061000Z AUTO 25015KT 10SM CLR 12/06 A2990 2320 68 2500 230/15 RMK AO2 $
53144K9L2 9L220160306020510703/06/16 02:05:31  5-MIN K9L2 061005Z AUTO 24017G25KT 10SM CLR 12/07 A2990 2320 71 2500 230/17G25 RMK AO2 $
53144K9L2 9L220160306021010703/06/16 02:10:31  5-MIN K9L2 061010Z AUTO 25015G25KT 10SM CLR 12/06 A2989 2330 68 2500 240/15G25 RMK AO2 $
53144K9L2 9L220160306021511003/06/16 02:15:31  5-MIN K9L2 061015Z AUTO 24010G19KT 10SM FEW065 12/06 A2989 2340 68 2500 230/10G19 RMK AO2 $
53144K9L2 9L220160306022011103/06/16 02:20:31  5-MIN K9L2 061020Z AUTO 23012KT 10SM FEW065 SCT100 11/07 A2988 2340 74 2500 210/12 RMK AO2 $
53144K9L2 9L220160306022511103/06/16 02:25:31  5-MIN K9L2 061025Z AUTO 23013KT 10SM FEW048 SCT100 12/07 A2988 2340 71 2500 220/13 RMK AO2 $
53144K9L2 9L220160306023013403/06/16 02:30:31  5-MIN K9L2 061030Z AUTO 23014KT 10SM -RA FEW050 SCT060 BKN100 12/07 A2987 2340 71 2500 210/14 RMK AO2 RAB29 P0000 $
53144K9L2 9L220160306023512703/06/16 02:35:31  5-MIN K9L2 061035Z AUTO 22015KT 10SM -RA BKN055 BKN100 12/07 A2987 2350 71 2500 210/15 RMK AO2 RAB29 P0000 $
53144K9L2 9L220160306024012703/06/16 02:40:31  5-MIN K9L2 061040Z AUTO 22016KT 10SM -RA BKN055 BKN100 12/07 A2988 2340 71 2500 210/16 RMK AO2 RAB29 P0000 $
53144K9L2 9L220160306024513403/06/16 02:45:31  5-MIN K9L2 061045Z AUTO 23016KT 10SM -RA FEW028 SCT050 BKN060 12/06 A2988 2340 66 2600 210/16 RMK AO2 RAB29 P0000 $
53144K9L2 9L220160306025013303/06/16 02:50:31  5-MIN K9L2 061050Z AUTO 23014KT 10SM SCT028 BKN055 BKN095 12/06 A2988 2340 66 2600 220/14 RMK AO2 RAB29E46 P0000 $
53144K9L2 9L220160306025515003/06/16 02:55:31  5-MIN K9L2 061055Z AUTO 22013KT 10SM SCT028 SCT050 BKN060 12/06 A2987 2350 68 2500 210/13 RMK AO2 RAB29E46 SLP109 P0000 T01170061 $
53144K9L2 9L220160306030011803/06/16 03:00:31  5-MIN K9L2 061100Z AUTO 23013KT 10SM FEW021 SCT028 BKN060 12/06 A2987 2350 66 2600 210/13 RMK AO2 $
53144K9L2 9L220160306030513403/06/16 03:05:31  5-MIN K9L2 061105Z AUTO 23011KT 10SM -RA FEW021 SCT028 BKN055 12/06 A2987 2350 68 2500 220/11 RMK AO2 RAB05 P0000 $
53144K9L2 9L220160306031013403/06/16 03:10:31  5-MIN K9L2 061110Z AUTO 24009KT 10SM -RA SCT021 BKN030 BKN036 12/06 A2987 2350 68 2500 220/09 RMK AO2 RAB05 P0000 $
53144K9L2 9L220160306031513403/06/16 03:15:31  5-MIN K9L2 061115Z AUTO 24010KT 10SM -RA SCT021 BKN030 BKN060 12/07 A2988 2340 71 2500 220/10 RMK AO2 RAB05 P0000 $
53144K9L2 9L220160306032013403/06/16 03:20:31  5-MIN K9L2 061120Z AUTO 24009KT 10SM -RA BKN021 BKN033 BKN060 12/07 A2988 2340 71 2500 230/09 RMK AO2 RAB05 P0000 $
53144K9L2 9L220160306032513303/06/16 03:25:31  5-MIN K9L2 061125Z AUTO 24010KT 10SM BKN021 BKN033 OVC055 12/07 A2988 2340 71 2500 230/10 RMK AO2 RAB05E23 P0000 $
53144K9L2 9L220160306033013303/06/16 03:30:31  5-MIN K9L2 061130Z AUTO 24010KT 10SM BKN021 BKN030 OVC050 12/07 A2987 2340 71 2500 230/10 RMK AO2 RAB05E23 P0000 $
53144K9L2 9L220160306033512603/06/16 03:35:31  5-MIN K9L2 061135Z AUTO 24012KT 10SM BKN021 OVC050 12/07 A2988 2340 71 2500 230/12 RMK AO2 RAB05E23 P0000 $
53144K9L2 9L220160306034011903/06/16 03:40:31  5-MIN K9L2 061140Z AUTO 24013KT 10SM OVC021 12/07 A2988 2340 71 2500 230/13 RMK AO2 RAB05E23 P0000 $
53144K9L2 9L220160306034512603/06/16 03:45:31  5-MIN K9L2 061145Z AUTO 24011KT 10SM -RA OVC021 12/07 A2987 2350 71 2500 220/11 RMK AO2 RAB05E23B45 P0001 $
53144K9L2 9L220160306035014003/06/16 03:50:31  5-MIN K9L2 061150Z AUTO 23010KT 10SM -RA BKN021 BKN028 OVC049 11/07 A2986 2360 74 2500 220/10 RMK AO2 RAB05E23B45 P0001 $
53144K9L2 9L220160306035518003/06/16 03:55:31  5-MIN K9L2 061155Z AUTO 22010KT 10SM -RA BKN021 OVC049 11/07 A2986 2360 77 2500 210/10 RMK AO2 RAB05E23B45 SLP107 P0001 60001 70001 T01110072 10144 20111 58005 $
53144K9L2 9L220160306040012803/06/16 04:00:31  5-MIN K9L2 061200Z AUTO 24009KT 10SM -RA SCT019 SCT024 OVC049 11/07 A2986 2360 77 2500 220/09 RMK AO2 P0000 $
53144K9L2 9L220160306040512103/06/16 04:05:31  5-MIN K9L2 061205Z AUTO 24010KT 10SM -RA SCT021 OVC055 11/07 A2986 2350 80 2400 230/10 RMK AO2 P0000 $
53144K9L2 9L220160306041013003/06/16 04:10:31  5-MIN K9L2 061210Z AUTO 25011KT 10SM FEW021 BKN055 BKN070 11/07 A2987 2350 80 2400 230/11 RMK AO2 RAE07 P0000 $
53144K9L2 9L220160306041512303/06/16 04:15:31  5-MIN K9L2 061215Z AUTO 25013KT 10SM SCT055 BKN070 11/07 A2988 2340 80 2400 240/13 RMK AO2 RAE07 P0000 $
53144K9L2 9L220160306042012103/06/16 04:20:31  5-MIN K9L2 061220Z AUTO 25012KT 10SM -RA SCT050 OVC070 11/07 A2988 2340 77 2500 240/12 RMK AO2 P0000 $
53144K9L2 9L220160306042512003/06/16 04:25:31  5-MIN K9L2 061225Z AUTO 25009KT 9SM -RA SCT050 OVC065 11/07 A2987 2350 80 2400 240/09 RMK AO2 P0001 $
53144K9L2 9L220160306043012803/06/16 04:30:31  5-MIN K9L2 061230Z AUTO 26008KT 10SM -RA FEW048 BKN060 OVC070 11/08 A2987 2350 83 2400 240/08 RMK AO2 P0001 $
53144K9L2 9L220160306043512803/06/16 04:35:31  5-MIN K9L2 061235Z AUTO 26009KT 10SM -RA FEW048 BKN055 OVC075 11/08 A2987 2350 83 2400 240/09 RMK AO2 P0001 $
53144K9L2 9L220160306044012803/06/16 04:40:31  5-MIN K9L2 061240Z AUTO 25012KT 10SM -RA BKN048 BKN060 OVC095 11/08 A2987 2350 83 2400 240/12 RMK AO2 P0001 $
53144K9L2 9L220160306044512803/06/16 04:45:31  5-MIN K9L2 061245Z AUTO 25012KT 10SM -RA FEW022 BKN046 OVC060 11/08 A2987 2350 83 2400 240/12 RMK AO2 P0002 $
53144K9L2 9L220160306045013003/06/16 04:50:31  5-MIN K9L2 061250Z AUTO 25012KT 10SM FEW022 BKN050 OVC060 11/08 A2987 2350 83 2400 240/12 RMK AO2 RAE46 P0002 $
53144K9L2 9L220160306045514703/06/16 04:55:31  5-MIN K9L2 061255Z AUTO 25011KT 10SM FEW022 BKN050 OVC060 11/08 A2986 2350 83 2400 240/11 RMK AO2 RAE46 SLP110 P0002 T01060078 $
53144K9L2 9L220160306050011803/06/16 05:00:31  5-MIN K9L2 061300Z AUTO 25009KT 10SM FEW022 BKN049 OVC060 11/08 A2986 2360 83 2400 240/09 RMK AO2 $
53144K9L2 9L220160306050511803/06/16 05:05:31  5-MIN K9L2 061305Z AUTO 26011KT 10SM FEW022 BKN038 OVC065 11/08 A2986 2360 83 2400 250/11 RMK AO2 $
53144K9L2 9L220160306051013403/06/16 05:10:31  5-MIN K9L2 061310Z AUTO 26012KT 10SM -RA FEW022 BKN046 OVC060 11/08 A2986 2360 83 2400 240/12 RMK AO2 RAB08 P0000 $
53144K9L2 9L220160306051513403/06/16 05:15:31  5-MIN K9L2 061315Z AUTO 26010KT 10SM -RA FEW030 BKN046 OVC060 11/08 A2986 2360 83 2400 240/10 RMK AO2 RAB08 P0000 $
53144K9L2 9L220160306052013403/06/16 05:20:31  5-MIN K9L2 061320Z AUTO 26010KT 10SM -RA SCT029 BKN038 OVC055 11/08 A2985 2370 83 2400 250/10 RMK AO2 RAB08 P0000 $
53144K9L2 9L220160306052513403/06/16 05:25:31  5-MIN K9L2 061325Z AUTO 26010KT 10SM -RA FEW027 BKN035 OVC055 11/08 A2985 2370 83 2400 240/10 RMK AO2 RAB08 P0000 $
53144K9L2 9L220160306053013303/06/16 05:30:31  5-MIN K9L2 061330Z AUTO 25011KT 10SM SCT027 BKN035 OVC055 11/08 A2985 2370 83 2400 230/11 RMK AO2 RAB08E28 P0000 $
53144K9L2 9L220160306053513403/06/16 05:35:31  5-MIN K9L2 061335Z AUTO 24011KT 10SM -RA BKN025 BKN030 OVC055 11/08 A2985 2370 83 2400 230/11 RMK AO2 RAB08 P0000 $
53144K9L2 9L220160306054013403/06/16 05:40:31  5-MIN K9L2 061340Z AUTO 23011KT 10SM -RA BKN027 BKN032 OVC055 11/08 A2984 2370 83 2400 220/11 RMK AO2 RAB08 P0000 $
53144K9L2 9L220160306054512703/06/16 05:45:31  5-MIN K9L2 061345Z AUTO 24013KT 10SM -RA SCT027 OVC050 11/08 A2985 2370 83 2400 220/13 RMK AO2 RAB08 P0000 $
53144K9L2 9L220160306055013403/06/16 05:50:31  5-MIN K9L2 061350Z AUTO 23012KT 10SM -RA SCT027 BKN050 OVC055 11/08 A2984 2380 80 2500 220/12 RMK AO2 RAB08 P0000 $
53144K9L2 9L220160306055515103/06/16 05:55:31  5-MIN K9L2 061355Z AUTO 23012KT 10SM -RA SCT025 BKN040 OVC055 11/08 A2985 2370 83 2400 220/12 RMK AO2 RAB08 SLP105 P0000 T01060078 $
53144K9L2 9L220160306060012803/06/16 06:00:31  5-MIN K9L2 061400Z AUTO 24014KT 10SM -RA SCT025 BKN042 BKN049 11/08 A2985 2360 83 2400 230/14 RMK AO2 P0000 $
53144K9L2 9L220160306060512803/06/16 06:05:31  5-MIN K9L2 061405Z AUTO 25012KT 10SM -RA FEW022 BKN047 OVC055 11/08 A2986 2360 80 2500 230/12 RMK AO2 P0000 $
53144K9L2 9L220160306061012803/06/16 06:10:31  5-MIN K9L2 061410Z AUTO 25013KT 10SM -RA FEW013 BKN024 OVC055 11/08 A2986 2360 80 2500 230/13 RMK AO2 P0000 $
53144K9L2 9L220160306061513003/06/16 06:15:31  5-MIN K9L2 061415Z AUTO 25012KT 10SM SCT013 BKN022 OVC042 11/08 A2986 2350 80 2500 230/12 RMK AO2 RAE13 P0000 $
53144K9L2 9L220160306062012803/06/16 06:20:31  5-MIN K9L2 061420Z AUTO 26010KT 10SM -RA SCT013 BKN018 OVC038 11/08 A2986 2360 80 2500 240/10 RMK AO2 P0000 $
53144K9L2 9L220160306062512803/06/16 06:25:31  5-MIN K9L2 061425Z AUTO 27012KT 10SM -RA FEW005 BKN012 OVC042 11/08 A2987 2350 83 2500 250/12 RMK AO2 P0000 $
53144K9L2 9L220160306063013003/06/16 06:30:31  5-MIN K9L2 061430Z AUTO 27015KT 10SM SCT005 BKN014 OVC030 11/08 A2987 2350 83 2500 250/15 RMK AO2 RAE27 P0000 $
53144K9L2 9L220160306063513003/06/16 06:35:31  5-MIN K9L2 061435Z AUTO 27016KT 10SM SCT001 BKN006 OVC026 11/08 A2987 2340 83 2500 260/16 RMK AO2 RAE27 P0000 $
53144K9L2 9L220160306064012703/06/16 06:40:31  5-MIN K9L2 061440Z AUTO 28016KT 4SM -RA BKN001 BKN006 OVC017 10/07 A2988 2340 83 2300 270/16 RMK AO2 P0001 $
53144K9L2 9L220160306064514503/06/16 06:45:31  5-MIN K9L2 061445Z AUTO 28014KT 2 1/2SM RA BR BKN001 BKN006 OVC011 09/07 A2988 2340 86 2300 270/14 RMK AO2 VIS 1 1/2V5 P0003 $
53144K9L2 9L220160306065013503/06/16 06:50:31  5-MIN K9L2 061450Z AUTO 27013KT 2SM +RA BR BKN001 OVC006 09/07 A2988 2340 86 2300 260/13 RMK AO2 VIS 1 1/4V3 P0006 $
53144K9L2 9L220160306065516303/06/16 06:55:31  5-MIN K9L2 061455Z AUTO 27013KT 1 1/2SM +RA BR BKN001 BKN006 OVC023 09/07 A2988 2340 86 2300 260/13 RMK AO2 SLP117 P0008 60010 T00940072 53006 $
53144K9L2 9L220160306070013403/06/16 07:00:31  5-MIN K9L2 061500Z AUTO 27013KT 1 3/4SM +RA BR BKN001 BKN006 OVC025 09/07 A2988 2340 86 2300 260/13 RMK AO2 P0003 $
53144K9L2 9L220160306070512603/06/16 07:05:31  5-MIN K9L2 061505Z AUTO 28010KT 2SM RA SCT001 BKN006 OVC025 09/07 A2987 2350 83 2300 260/10 RMK AO2 P0004 $
53144K9L2 9L220160306071012703/06/16 07:10:31  5-MIN K9L2 061510Z AUTO 28012KT 4SM -RA SCT003 BKN027 OVC048 09/07 A2987 2350 83 2300 270/12 RMK AO2 P0004 $
53144K9L2 9L220160306071513003/06/16 07:15:31  5-MIN K9L2 061515Z AUTO 27011KT 10SM SCT003 BKN035 OVC050 09/07 A2987 2350 83 2300 260/11 RMK AO2 RAE15 P0004 $
53144K9L2 9L220160306072013003/06/16 07:20:31  5-MIN K9L2 061520Z AUTO 27012KT 10SM FEW005 BKN033 OVC060 09/06 A2987 2350 79 2300 260/12 RMK AO2 RAE15 P0004 $
53144K9L2 9L220160306072513003/06/16 07:25:31  5-MIN K9L2 061525Z AUTO 27013KT 10SM FEW006 BKN033 OVC060 09/06 A2987 2350 79 2300 260/13 RMK AO2 RAE15 P0004 $
53144K9L2 9L220160306073013003/06/16 07:30:31  5-MIN K9L2 061530Z AUTO 26013KT 10SM FEW008 SCT021 BKN033 10/06 A2987 2350 74 2300 250/13 RMK AO2 RAE15 P0004 $
53144K9L2 9L220160306073513003/06/16 07:35:31  5-MIN K9L2 061535Z AUTO 27015KT 10SM SCT023 BKN038 BKN048 10/05 A2988 2340 71 2300 250/15 RMK AO2 RAE15 P0004 $
53144K9L2 9L220160306074013003/06/16 07:40:31  5-MIN K9L2 061540Z AUTO 27013KT 10SM SCT023 BKN038 BKN060 10/06 A2988 2340 74 2300 250/13 RMK AO2 RAE15 P0004 $
53144K9L2 9L220160306074513003/06/16 07:45:31  5-MIN K9L2 061545Z AUTO 27013KT 10SM FEW023 SCT027 BKN060 10/05 A2988 2340 71 2300 250/13 RMK AO2 RAE15 P0004 $
53144K9L2 9L220160306075011603/06/16 07:50:31  5-MIN K9L2 061550Z AUTO 26012KT 10SM SCT023 10/05 A2988 2340 71 2300 250/12 RMK AO2 RAE15 P0004 $
53144K9L2 9L220160306075514003/06/16 07:55:31  5-MIN K9L2 061555Z AUTO 27015KT 10SM FEW023 SCT027 11/05 A2988 2340 68 2400 250/15 RMK AO2 RAE15 SLP117 P0004 T01060050 $
53144K9L2 9L220160306080011803/06/16 08:00:31  5-MIN K9L2 061600Z AUTO 26013KT 10SM SCT004 SCT023 SCT027 11/06 A2989 2330 71 2400 250/13 RMK AO2 $
53144K9L2 9L220160306080511603/06/16 08:05:31  5-MIN K9L2 061605Z AUTO 26012KT 10SM BKN004 11/06 A2989 2330 68 2500 250/12 RMK AO2 CIG 001V007 $
53144K9L2 9L220160306081011603/06/16 08:10:31  5-MIN K9L2 061610Z AUTO 26014KT 10SM BKN004 11/06 A2990 2330 68 2400 250/14 RMK AO2 CIG 001V007 $
53144K9L2 9L220160306081511603/06/16 08:15:31  5-MIN K9L2 061615Z AUTO 25011KT 10SM BKN004 11/06 A2990 2320 68 2400 240/11 RMK AO2 CIG 001V007 $
53144K9L2 9L220160306082013003/06/16 08:20:31  5-MIN K9L2 061620Z AUTO 26013KT 10SM BKN004 BKN016 BKN021 12/07 A2990 2320 71 2500 240/13 RMK AO2 CIG 001V007 $
53144K9L2 9L220160306082513003/06/16 08:25:31  5-MIN K9L2 061625Z AUTO 26013KT 10SM BKN004 BKN016 OVC023 12/07 A2991 2320 71 2500 250/13 RMK AO2 CIG 001V008 $
53144K9L2 9L220160306083011803/06/16 08:30:31  5-MIN K9L2 061630Z AUTO 24016KT 10SM FEW004 SCT007 BKN016 12/07 A2991 2320 74 2500 230/16 RMK AO2 $
53144K9L2 9L220160306083512403/06/16 08:35:31  5-MIN K9L2 061635Z AUTO 26011G19KT 10SM FEW004 SCT016 BKN022 12/07 A2992 2310 74 2500 240/11G19 RMK AO2 $
53144K9L2 9L220160306084012403/06/16 08:40:31  5-MIN K9L2 061640Z AUTO 28019G24KT 10SM FEW004 SCT016 BKN022 12/06 A2992 2300 63 2600 260/19G24 RMK AO2 $
53144K9L2 9L220160306084512403/06/16 08:45:31  5-MIN K9L2 061645Z AUTO 27018G24KT 10SM FEW016 SCT020 BKN025 12/04 A2992 2300 61 2500 250/18G24 RMK AO2 $
53144K9L2 9L220160306085014203/06/16 08:50:31  5-MIN K9L2 061650Z AUTO 26015G26KT 10SM FEW016 SCT023 BKN042 12/04 A2992 2300 58 2500 250/15G26 RMK AO2 PK WND 27026/1647 $
53144K9L2 9L220160306085515203/06/16 08:55:31  5-MIN K9L2 061655Z AUTO 27019G26KT 10SM FEW023 SCT042 12/04 A2993 2300 59 2500 260/19G26 RMK AO2 PK WND 27026/1647 SLP131 T01220044 $
53144K9L2 9L220160306090012803/06/16 09:00:31  5-MIN K9L2 061700Z AUTO 27023G27KT 10SM FEW023 12/03 A2993 2300 56 2500 260/23G27 RMK AO2 PK WND 27027/1700 $
53144K9L2 9L220160306090512803/06/16 09:05:31  5-MIN K9L2 061705Z AUTO 28019G27KT 10SM FEW024 12/03 A2992 2300 54 2500 260/19G27 RMK AO2 PK WND 27027/1700 $
53144K9L2 9L220160306091012803/06/16 09:10:31  5-MIN K9L2 061710Z AUTO 28024G30KT 10SM FEW042 12/03 A2992 2300 54 2600 270/24G30 RMK AO2 PK WND 29030/1709 $
53144K9L2 9L220160306091512803/06/16 09:15:31  5-MIN K9L2 061715Z AUTO 28024G31KT 10SM FEW042 12/03 A2992 2300 52 2500 270/24G31 RMK AO2 PK WND 28031/1711 $
53144K9L2 9L220160306092012503/06/16 09:20:31  5-MIN K9L2 061720Z AUTO 28025G31KT 10SM CLR 13/03 A2993 2290 50 2600 270/25G31 RMK AO2 PK WND 28031/1711 $
53144K9L2 9L220160306092512503/06/16 09:25:31  5-MIN K9L2 061725Z AUTO 28027G32KT 10SM CLR 13/03 A2993 2290 50 2600 260/27G32 RMK AO2 PK WND 28032/1724 $
53144K9L2 9L220160306093012503/06/16 09:30:31  5-MIN K9L2 061730Z AUTO 27022G32KT 10SM CLR 13/03 A2993 2290 50 2600 260/22G32 RMK AO2 PK WND 28032/1726 $
53144K9L2 9L220160306093512503/06/16 09:35:31  5-MIN K9L2 061735Z AUTO 27024G32KT 10SM CLR 13/03 A2994 2290 50 2600 260/24G32 RMK AO2 PK WND 28032/1726 $
53144K9L2 9L220160306094012503/06/16 09:40:31  5-MIN K9L2 061740Z AUTO 28028G36KT 10SM CLR 12/03 A2994 2290 52 2500 260/28G36 RMK AO2 PK WND 28036/1739 $
53144K9L2 9L220160306094512503/06/16 09:45:31  5-MIN K9L2 061745Z AUTO 28027G36KT 10SM CLR 13/03 A2994 2290 52 2600 260/27G36 RMK AO2 PK WND 28036/1739 $
53144K9L2 9L220160306095012503/06/16 09:50:31  5-MIN K9L2 061750Z AUTO 28024G32KT 10SM CLR 13/03 A2994 2280 50 2600 260/24G32 RMK AO2 PK WND 28036/1739 $
53144K9L2 9L220160306095516603/06/16 09:55:31  5-MIN K9L2 061755Z AUTO 27022G31KT 10SM CLR 13/02 A2994 2280 48 2600 260/22G31 RMK AO2 PK WND 28036/1739 SLP136 60014 T01280022 10128 20094 53006 $
53144K9L2 9L220160306100012503/06/16 10:00:31  5-MIN K9L2 061800Z AUTO 27025G30KT 10SM CLR 13/02 A2994 2290 48 2600 260/25G30 RMK AO2 PK WND 26030/1800 $
53144K9L2 9L220160306100512503/06/16 10:05:31  5-MIN K9L2 061805Z AUTO 27026G31KT 10SM CLR 13/03 A2994 2290 48 2700 250/26G31 RMK AO2 PK WND 27031/1804 $
53144K9L2 9L220160306101012503/06/16 10:10:31  5-MIN K9L2 061810Z AUTO 27026G32KT 10SM CLR 13/02 A2994 2290 46 2700 250/26G32 RMK AO2 PK WND 27032/1808 $
53144K9L2 9L220160306101512503/06/16 10:15:31  5-MIN K9L2 061815Z AUTO 27025G33KT 10SM CLR 13/02 A2993 2290 46 2700 260/25G33 RMK AO2 PK WND 28033/1815 $
53144K9L2 9L220160306102012503/06/16 10:20:31  5-MIN K9L2 061820Z AUTO 27024G33KT 10SM CLR 13/02 A2994 2290 46 2700 260/24G33 RMK AO2 PK WND 28033/1816 $
53144K9L2 9L220160306102512503/06/16 10:25:31  5-MIN K9L2 061825Z AUTO 27025G33KT 10SM CLR 14/02 A2994 2290 43 2700 260/25G33 RMK AO2 PK WND 27033/1825 $
53144K9L2 9L220160306103012503/06/16 10:30:31  5-MIN K9L2 061830Z AUTO 27023G33KT 10SM CLR 14/02 A2994 2290 43 2700 260/23G33 RMK AO2 PK WND 27033/1825 $
53144K9L2 9L220160306103512503/06/16 10:35:31  5-MIN K9L2 061835Z AUTO 27027G33KT 10SM CLR 14/01 A2993 2290 41 2700 250/27G33 RMK AO2 PK WND 27033/1835 $
53144K9L2 9L220160306104012503/06/16 10:40:31  5-MIN K9L2 061840Z AUTO 27027G33KT 10SM CLR 14/01 A2993 2300 41 2700 260/27G33 RMK AO2 PK WND 27033/1835 $
53144K9L2 9L220160306104512503/06/16 10:45:31  5-MIN K9L2 061845Z AUTO 26025G34KT 10SM CLR 14/01 A2993 2300 41 2700 250/25G34 RMK AO2 PK WND 27034/1841 $
53144K9L2 9L220160306105012503/06/16 10:50:31  5-MIN K9L2 061850Z AUTO 26025G34KT 10SM CLR 14/01 A2993 2300 40 2800 250/25G34 RMK AO2 PK WND 27034/1841 $
53144K9L2 9L220160306105514203/06/16 10:55:31  5-MIN K9L2 061855Z AUTO 27024G30KT 10SM CLR 14/01 A2994 2290 40 2800 250/24G30 RMK AO2 PK WND 27034/1841 SLP134 T01440011 $
53144K9L2 9L220160306110012503/06/16 11:00:31  5-MIN K9L2 061900Z AUTO 28027G34KT 10SM CLR 15/01 A2995 2280 37 2800 260/27G34 RMK AO2 PK WND 26034/1900 $
53144K9L2 9L220160306110512503/06/16 11:05:31  5-MIN K9L2 061905Z AUTO 27027G34KT 10SM CLR 14/00 A2995 2270 37 2800 260/27G34 RMK AO2 PK WND 28034/1903 $
53144K9L2 9L220160306111013203/06/16 11:10:31  5-MIN K9L2 061910Z AUTO 29023G34KT 10SM CLR 14/00 A2996 2270 37 2800 270/23G34 RMK AO2 PK WND 27034/1907 PRESRR $
53144K9L2 9L220160306111512503/06/16 11:15:31  5-MIN K9L2 061915Z AUTO 29026G34KT 10SM CLR 14/01 A2996 2270 40 2800 280/26G34 RMK AO2 PK WND 27034/1907 $
53144K9L2 9L220160306112013203/06/16 11:20:31  5-MIN K9L2 061920Z AUTO 30023G37KT 10SM CLR 13/03 A2997 2260 48 2600 290/23G37 RMK AO2 PK WND 31037/1917 PRESRR $
53144K9L2 9L220160306112512503/06/16 11:25:31  5-MIN K9L2 061925Z AUTO 30023G37KT 10SM CLR 13/02 A2997 2260 46 2600 290/23G37 RMK AO2 PK WND 31037/1917 $
53144K9L2 9L220160306113012503/06/16 11:30:31  5-MIN K9L2 061930Z AUTO 30022G31KT 10SM CLR 13/02 A2998 2250 46 2600 290/22G31 RMK AO2 PK WND 31037/1917 $
53144K9L2 9L220160306113512503/06/16 11:35:31  5-MIN K9L2 061935Z AUTO 30024G31KT 10SM CLR 14/02 A2997 2250 45 2700 280/24G31 RMK AO2 PK WND 31037/1917 $
53144K9L2 9L220160306114012503/06/16 11:40:31  5-MIN K9L2 061940Z AUTO 30023G31KT 10SM CLR 14/02 A2997 2250 43 2700 290/23G31 RMK AO2 PK WND 31037/1917 $
53144K9L2 9L220160306114512503/06/16 11:45:31  5-MIN K9L2 061945Z AUTO 30026G33KT 10SM CLR 14/02 A2997 2250 45 2700 280/26G33 RMK AO2 PK WND 31037/1917 $
53144K9L2 9L220160306115012503/06/16 11:50:31  5-MIN K9L2 061950Z AUTO 28022G33KT 10SM CLR 13/03 A2997 2250 48 2600 270/22G33 RMK AO2 PK WND 31037/1917 $
53144K9L2 9L220160306115514203/06/16 11:55:31  5-MIN K9L2 061955Z AUTO 28021G26KT 10SM CLR 13/03 A2998 2250 48 2600 270/21G26 RMK AO2 PK WND 31037/1917 SLP148 T01330028 $
53144K9L2 9L220160306120012503/06/16 12:00:31  5-MIN K9L2 062000Z AUTO 28023G27KT 10SM CLR 13/02 A2997 2250 46 2600 270/23G27 RMK AO2 PK WND 28027/2000 $
53144K9L2 9L220160306120512503/06/16 12:05:31  5-MIN K9L2 062005Z AUTO 28019G28KT 10SM CLR 13/02 A2997 2260 46 2600 270/19G28 RMK AO2 PK WND 29028/2001 $
53144K9L2 9L220160306121012503/06/16 12:10:31  5-MIN K9L2 062010Z AUTO 29022G28KT 10SM CLR 13/02 A2997 2260 46 2600 280/22G28 RMK AO2 PK WND 30028/2008 $
53144K9L2 9L220160306121512503/06/16 12:15:31  5-MIN K9L2 062015Z AUTO 29018G28KT 10SM CLR 13/02 A2997 2260 45 2600 280/18G28 RMK AO2 PK WND 30028/2008 $
53144K9L2 9L220160306122012503/06/16 12:20:31  5-MIN K9L2 062020Z AUTO 27021G26KT 10SM CLR 13/02 A2997 2260 46 2600 260/21G26 RMK AO2 PK WND 30028/2008 $
53144K9L2 9L220160306122512503/06/16 12:25:31  5-MIN K9L2 062025Z AUTO 26019G26KT 10SM CLR 13/02 A2996 2270 45 2600 250/19G26 RMK AO2 PK WND 30028/2008 $
53144K9L2 9L220160306123012503/06/16 12:30:31  5-MIN K9L2 062030Z AUTO 27023G29KT 10SM CLR 14/02 A2995 2270 43 2700 260/23G29 RMK AO2 PK WND 27029/2030 $
53144K9L2 9L220160306123513203/06/16 12:35:31  5-MIN K9L2 062035Z AUTO 27025G32KT 10SM CLR 14/01 A2995 2280 38 2800 260/25G32 RMK AO2 PK WND 26032/2035 PRESFR $
53144K9L2 9L220160306124012503/06/16 12:40:31  5-MIN K9L2 062040Z AUTO 27026G32KT 10SM CLR 14/01 A2994 2280 38 2800 250/26G32 RMK AO2 PK WND 28032/2036 $
53144K9L2 9L220160306124512503/06/16 12:45:31  5-MIN K9L2 062045Z AUTO 28025G32KT 10SM CLR 14/01 A2994 2280 40 2700 260/25G32 RMK AO2 PK WND 26032/2042 $
53144K9L2 9L220160306125012503/06/16 12:50:31  5-MIN K9L2 062050Z AUTO 26022G32KT 10SM CLR 14/01 A2995 2280 38 2800 250/22G32 RMK AO2 PK WND 26032/2042 $
53144K9L2 9L220160306125514803/06/16 12:55:31  5-MIN K9L2 062055Z AUTO 28023G31KT 10SM CLR 14/01 A2995 2280 40 2700 270/23G31 RMK AO2 PK WND 26032/2042 SLP137 T01390006 53019 $
53144K9L2 9L220160306130012503/06/16 13:00:31  5-MIN K9L2 062100Z AUTO 29023G30KT 10SM CLR 14/01 A2994 2280 41 2700 270/23G30 RMK AO2 PK WND 29029/2100 $
53144K9L2 9L220160306130512503/06/16 13:05:31  5-MIN K9L2 062105Z AUTO 28020G30KT 10SM CLR 14/02 A2994 2290 41 2800 270/20G30 RMK AO2 PK WND 29029/2100 $
53144K9L2 9L220160306131012503/06/16 13:10:31  5-MIN K9L2 062110Z AUTO 28021G30KT 10SM CLR 14/01 A2993 2290 40 2800 270/21G30 RMK AO2 PK WND 29030/2107 $
53144K9L2 9L220160306131512503/06/16 13:15:31  5-MIN K9L2 062115Z AUTO 28024G30KT 10SM CLR 14/01 A2993 2300 40 2800 270/24G30 RMK AO2 PK WND 28030/2115 $
53144K9L2 9L220160306132012503/06/16 13:20:31  5-MIN K9L2 062120Z AUTO 28029G34KT 10SM CLR 14/01 A2993 2290 40 2800 260/29G34 RMK AO2 PK WND 27034/2120 $
53144K9L2 9L220160306132512503/06/16 13:25:31  5-MIN K9L2 062125Z AUTO 27028G35KT 10SM CLR 14/01 A2994 2290 41 2700 260/28G35 RMK AO2 PK WND 26035/2124 $
53144K9L2 9L220160306133012503/06/16 13:30:31  5-MIN K9L2 062130Z AUTO 27025G35KT 10SM CLR 14/01 A2994 2290 41 2700 250/25G35 RMK AO2 PK WND 26035/2124 $
53144K9L2 9L220160306133512503/06/16 13:35:31  5-MIN K9L2 062135Z AUTO 27026G31KT 10SM CLR 14/01 A2994 2290 41 2700 260/26G31 RMK AO2 PK WND 26035/2124 $
53144K9L2 9L220160306134012503/06/16 13:40:31  5-MIN K9L2 062140Z AUTO 27025G31KT 10SM CLR 14/01 A2993 2290 41 2700 260/25G31 RMK AO2 PK WND 26035/2124 $
53144K9L2 9L220160306134512503/06/16 13:45:31  5-MIN K9L2 062145Z AUTO 28023G31KT 10SM CLR 14/01 A2993 2290 41 2700 270/23G31 RMK AO2 PK WND 26035/2124 $
53144K9L2 9L220160306135012503/06/16 13:50:31  5-MIN K9L2 062150Z AUTO 27029G36KT 10SM CLR 14/01 A2994 2290 41 2700 260/29G36 RMK AO2 PK WND 28036/2148 $
53144K9L2 9L220160306135514203/06/16 13:55:31  5-MIN K9L2 062155Z AUTO 28021G36KT 10SM CLR 14/01 A2994 2280 41 2700 260/21G36 RMK AO2 PK WND 28036/2148 SLP138 T01390011 $
53144K9L2 9L220160306140012503/06/16 14:00:31  5-MIN K9L2 062200Z AUTO 28023G31KT 10SM CLR 14/01 A2995 2280 40 2700 260/23G31 RMK AO2 PK WND 28030/2159 $
53144K9L2 9L220160306140512603/06/16 14:05:31  5-MIN K9L2 062205Z AUTO 27025G31KT 10SM CLR 14/M01 A2994 2280 37 2700 250/25G31 RMK AO2 PK WND 28031/2205 $
53144K9L2 9L220160306141012603/06/16 14:10:31  5-MIN K9L2 062210Z AUTO 26024G31KT 10SM CLR 14/M01 A2994 2280 37 2700 250/24G31 RMK AO2 PK WND 26031/2210 $
53144K9L2 9L220160306141512603/06/16 14:15:31  5-MIN K9L2 062215Z AUTO 26023G32KT 10SM CLR 14/M01 A2994 2290 37 2700 250/23G32 RMK AO2 PK WND 25032/2215 $
53144K9L2 9L220160306142012603/06/16 14:20:31  5-MIN K9L2 062220Z AUTO 27025G34KT 10SM CLR 14/M01 A2993 2290 37 2700 260/25G34 RMK AO2 PK WND 27034/2219 $
53144K9L2 9L220160306142512503/06/16 14:25:31  5-MIN K9L2 062225Z AUTO 27021G34KT 10SM CLR 14/00 A2993 2290 38 2700 250/21G34 RMK AO2 PK WND 27034/2219 $
53144K9L2 9L220160306143012503/06/16 14:30:31  5-MIN K9L2 062230Z AUTO 27024G32KT 10SM CLR 14/00 A2993 2290 37 2800 260/24G32 RMK AO2 PK WND 27034/2219 $
53144K9L2 9L220160306143017503/06/16 14:30:31  5-MIN K9L2 062230Z AUTO 27024G32KT 10SM CLR 14/00 A2993 2290 37 2800 260/24G32 RMK AO2 PK WND 27034/2219 $2290 37 2800 260/23G32 RMK AO2 PK WND 27034/2219 $
53144K9L2 9L220160306143512503/06/16 14:35:31  5-MIN K9L2 062235Z AUTO 28021G32KT 10SM CLR 14/00 A2994 2290 38 2700 270/21G32 RMK AO2 PK WND 27034/2219 $
53144K9L2 9L220160306144012503/06/16 14:40:31  5-MIN K9L2 062240Z AUTO 28023G32KT 10SM CLR 14/00 A2994 2290 37 2800 260/23G32 RMK AO2 PK WND 27034/2219 $
53144K9L2 9L220160306144506903/06/16 14:45:31  5-MIN K9L2 062245Z AUTO 28022G32KT 10SM CLR 14/00 
53144K9L2 9L220160306144512503/06/16 14:45:31  5-MIN K9L2 062245Z AUTO 28022G32KT 10SM CLR 14/00 A2994 2280 38 2700 270/22G32 RMK AO2 PK WND 27034/2219 $
53144K9L2 9L220160306145012503/06/16 14:50:31  5-MIN K9L2 062250Z AUTO 28020G31KT 10SM CLR 14/00 A2994 2280 38 2700 270/20G31 RMK AO2 PK WND 27034/2219 $
53144K9L2 9L220160306145019203/06/16 14:50:31  5-MIN K9L2 062250Z AUTO 28020G31KT 10SM CLR 14/00 A2994 2280 38 2700 270/20G31 RMK AO2 PK WND 27034/2219 $2290 38 2700 280/27G31 RMK AO2 PK WND 27034/2219 SLP137 T01390000 $
53144K9L2 9L220160306145514203/06/16 14:55:31  5-MIN K9L2 062255Z AUTO 29027G31KT 10SM CLR 14/00 A2994 2290 38 2700 280/27G31 RMK AO2 PK WND 27034/2219 SLP137 T01390000 $
53144K9L2 9L220160306160028703/06/16 16:00:31  5-MIN K9L2`070000Z AUTO 27025G31KT 10SM FEW038 14/M01 A2993 2290 37 2700 250/25G31 RMK AO2 PK WND 27031/0000 $A2993 2290 37 2700 260/23G31 RMK AO2 PK WND 27031/0000 $ 2300 35 2700 250/26G35 RMK AO2 PK WND 26035/0009 $ 2310 35 2800 240/27G35 RMK AO2 PK WND 26035/0009 $
53144K9L2 9L220160306162027903/06/16 16:20:31  5-MIN K9L2 070020Z AUTO 25027G36KT 10SM CLR 13/M0! A2991 2310 36 2700 240/27G36 RMK AO2 PK WND 24036/0018 $ 2310 36 2700 230/22G36 RMK AO2 PK WND 24036/0018 $ 2310 38 2600 240/25G34 RMK AO2 PK WND 24036/0018 $ 2300 38 2600 240/22G34 RMK AO2 PK WND 24036/0018 $
53144K9L2 9L220160306164012603/06/16 16:40:31  5-MIN K9L2 070040Z AUTO 25024G31KT 10SM CLR 13/M0! A2992 2300 38 2600 240/24G31 RMK AO2 PK WND 24036/0018 $
53144K9L2 9L220160306164525203/06/16 16:45:31  5-MIN K9L2 070045Z AUTO 28018G31KT 10SM CLR 13/M0! A2994 2290 38 2600 260/18G31 RMK AO2 PK WND 24036/0018 PRESRR $ 2290 36 2600 250/18G31 RMK AO2 PK WND 24036/0018 $ 2290 38 2600 260/18G31 RMK AO2 PK WND 24036/0018 SLP137 T01281011 $
53144K9L2 9L220160306170010803/06/16 17:00:31  5-MIN K9L2 070100Z AUTO 28019G26KT 10SM CLR 13/M01 A2993 2290 38 2600 27 +19G26 R]K AO2 $
53144K9L2 9L220160306170510803/06/16 17:05:31  5-MIN K9L2 070105Z AUTO 28019G25KT 10SM CLR 12/M01 A2993 2300 39 2500 270/19G25 RMK AO2 $
53144K9L2 9L220160306171010803/06/16 17:10:31  5-MIN K9L2 070110Z AUTO 28015G24KT 10SM CLR 12/M01 A2992 2300 39 2500 270/15G24 RMK AO2 $
53144K9L2 9L220160306171515903/06/16 17:15:31  5-MIN K9L2 070115Z AUTO 27021G25KT 10SM CLR 12/M01 A2992 2310 39 2600 260/21G25 RMK AO2 $ 2310 38 2600 270/20G27 RMK AO2 PK WND 27027/0116 $
53144K9L2 9L220160306172512603/06/16 17:25:31  5-MIN K9L2 070125Z AUTO 27022G28KT 10SM CLR 12/M01 A2991 2310 39 2600 260/22G28 RMK AO2 PK WND 27028/0124 $
53144K9L2 9L220160306173022803/06/16 17:30:31  5-MIN K9L2 070130Z AUTO 27024G28KT 1pSM CLR 12/M01 A2992 2310 39 2600 250/24G28 RMK AO2 PK WND 27028/0130 $ 2300 39 2600 250/18G28 RMK AO2 PK WND 27028/0130 $ 2300 39 2600 250/16G24 RMK AO2 PK WND 27028/0130 $
53144K9L2 9L220160306174512603/06/16 17:45:31  5-MIN K9L2 070145Z AUTO 26017G24KT 10SM CLR 12/M01 A2992 2300 39 2600 240/17G24 RMK AO2 PK WND 27028/0130 $
53144K9L2 9L220160306175019403/06/16 17:50:31  5-MIN K9L2 070150Z AUTO 26018G24KT 10SM CLR 12/M01 A2992 2310 41 2500 250/18G24 RMK AO2 PK WND 27028/0130 $ 2300 41 2500 250/14G24 RMK AO2 PK WND 27028/0130 SLP132 T01171011 $
53144K9L2 9L220160306180010803/06/16 18:00:31  5-MIN K9L2 070200Z AUTO 26014G21KT 10SM CLR 12/M01 A2992 2300 41 2500 250/14G21 RMK AO2 $
53144K9L2 9L220160306180510803/06/16 18:05:31  5-MIN K9L2 070205Z AUTO 25012G21KT 10SM CLR 11/M01 A2992 2300 44 2400 240/12G21 RMK AO2 $
53144K9L2 9L220160306180517003/06/16 18:05:31  5-MIN K9L2 070205Z AUTO 25012G21KT 10SM CLR 11/M01 A2992 2300 42 2400 240/16G24 RMK AO2 $ 2300 42 2400 230/13G24 RMK AO2 $2300 44 2400 240/12 RMK AO2 $
53144K9L2 9L220160306181010803/06/16 18:10:31  5-MIN K9L2 070210Z AUTO 26013G19KT 10SM CLR 11/M01 A2992 2300 44 2400 250/13G19 RMK AO2 $
53144K9L2 9L220160306181510803/06/16 18:15:31  5-MIN K9L2 070215Z AUTO 25016G24KT 10SM CLR 11/M01 A2992 2300 42 2400 240/16G24 RMK AO2 $
53144K9L2 9L220160306182010803/06/16 18:20:31  5-MIN K9L2 070220Z AUTO 24013G24KT 10SM CLR 11/M01 A2992 2300 42 2400 230/13G24 RMK AO2 $
53144K9L2 9L220160306182510203/06/16 18:25:31  5-MIN K9L2 070225Z AUTO 26012KT 10SM CLR 11/M01 A2992 2300 44 2400 240/12 RMK AO2 $
53144K9L2 9L220160306183010803/06/16 18:30:31  5-MIN K9L2 070230Z AUTO 25009G19KT 10SM CLR 11/M01 A2993 2300 44 2400 240/09G19 RMK AO2 $
53144K9L2 9L220160306183510203/06/16 18:35:31  5-MIN K9L2 070235Z AUTO 26011KT 10SM CLR 11/M01 A2993 2300 46 2300 240/11 RMK AO2 $
53144K9L2 9L220160306184007503/06/16 18:40:31  5-MIN K9L2 070240Z AUTO 25015G21KT 10SM CLR 11/M01 A2993
53144K9L2 9L220160306184019503/06/16 18:40:31  5-MIN K9L2 070240Z AUTO 25015G21KT 10SM CLR 11/M01 A2993 2290 44 2400 230/15G21 RMK AO2 $2290 48 2300 240/17G23 RMK AO2 $2290 48 2300 240/19G23 RMK AO2 SLP139 T01060000 58003 $
53144K9L2 9L220160306184513003/06/16 18:45:31  5-MIN K9L2 070245Z AUTO 25016G22KT 10SM CLR 11/00 A2993 2290 48 2300 240/19G23 RMK AO2 SLP139 T01060000 58003 $
53144K9L2 9L220160306190013903/06/16 19:00:31  5-MIN K9L2 070300Z AUTO 26020G25KT 10SM CLR 11/00 A2993 2290 48 22x0 250/20G25 RMK AO2 $2290 46 2400 250/17G25 RMK AO2 $
53144K9L2 9L220160306190023203/06/16 19:00:31  5-MIN K9L2 070300Z AUTO 26020G25KT 10SM CLR 11/00 A2993 2290 48 2300 250/20G25 RMK AO2 $2290 48 2300 260/20G25 RMK AO2 $2290 48 2300 260/14G25 RMK AO2 $2290 48 2300 260/14 RMK AO2 $2280 48 2300 270/07G19 RMK AO2 $
53144K9L2 9L220160306191025803/06/16 19:10:31  5-MIN K9L2 070310Z AUTO 28020G25KT 10SM CLR 11/00 A2993 2290 48 2300 260/14G25 RMK AO2 $03/2280`41 2300 270/07G19 RMK AO2 $2270 52 2300 000/00 RMK AO2 $2270 50 2300 000/00 RMK AO2 $2270 50 2300 VRB/03 RMK AO2 $2270 52 2200 250/05 RMK AO2 $
53144K9L2 9L220160306193010103/06/16 19:30:31  5-MIN K9L2 070330Z AUTO 00000KT 10SM CLR 11/00 A2994 2280 48 2300 000/00 RMK AO2 $
53144K9L2 9L220160306194510103/06/16 19:45:31  5-MIN K9L2 070345Z AUTO  0000KT 10SM CLR 11/01 A2995 2270 50 2300 000/00 RMK AO2 $
53144K9L2 9L220160306195014703/06/16 19:50:31  5-MIN K9L2 070350Z AUTO VRB03KT 10SM CLR 11/01 A2996 2270 50 2300 VRB/03 RMK AO2 $2270 50 2300 VRB/05 RMK AO2 SLP147 T01060006 $
53144K9L2 9L220160306200010103/06/16 20:00:31  5-MIN K9L2 070400Z AUTO 28004KT 10SM CLR 10/01 A2996 2270 52 "200 260/04 RMK AO2 $
53144K9L2 9L220160306200513003/06/16 20:05:31  5-MIN K9L2 070405Z AUTO 26005KT 10SM CLR 10/01 A2996 2270 52 2200 250/05 RMK AO2 $2270 52 2200 250/05 RMK AO2 $
53144K9L2 9L220160306201510103/06/16 20:15:31  5-MIN K9L2 070415Z AUTO 25008KT 10SM CLR 10/01 A2995 2270 52 2300 240/08 RMK AO2 $
53144K9L2 9L220160306201510103/06/16 20:15:31  5-MIN K9L2 070415Z AUTO 25008KT 10SM CLR 10/01 A2995 2280 58 2100 VRB/05 RMK AO2 $
53144K9L2 9L220160306202010103/06/16 20:20:31  5-MIN K9L2 070420Z AUTO 22004KT 10SM CLR 09/01 A2995 2280 56 2200 200/04 RMK AO2 $
53144K9L2 9L220160306202510103/06/16 20:25:31  5-MIN K9L2 070425Z AUTO 25004KT 10SM CLR 09/01 A2995 2280 56 2200 230/04 RMK AO2 $
53144K9L2 9L220160306203015903/06/16 20:30:31  5-MIN K9L2 070430Z AUTO 26004KT 10SM CLR 09/01 A2995 2280 58 2100 250/04 RMK AO2 $2280 58 2100 VRB/05 RMK AO2 $2280 56 2200 220/12 RMK AO2 $
53144K9L2 9L220160306204510103/06/16 20:45:31  5-MIN K9L2 070445Z AUTO 25009KT 10SM CLR 09/01 A2995 2280 56 2200 240/09 RMK AO2 $
53144K9L2 9L220160306204513003/06/16 20:45:31  5-MIN K9L2 070445Z AUTO 25009KT 10SM CLR p9&01 A2995 2280 56 2200 240/09 RMK AO2 $2280 56 2200 230/14 RMK AO2 $
53144K9L2 9L220160306205017603/06/16 20:50:31  5-MIN K9L2 070450Z AUTO 25012KT 10SM CLR 09/01 A2995 2280 56 2200 240/12 RMK AO2 $2280 56 2200 230/13 RMK AO2 SLP140 T00940011 $2280 56 2200 230/14 RMK AO2 $
53144K9L2 9L220160306210510103/06/16 21:05:31  5-MIN K9L2 070505Z AUTO 24014KT 10SM CLR 09/01 A2994 2280 56 2200 230/14 RMK AO2 $
53144K9L2 9L220160306211010103/06/16 21:10:31  5-MIN K9L2 070510Z AUTO 25015KT 10SM CLR 10/01 A2994 2280 54 2300 240/15 RMK AO2 $
53144K9L2 9L220160306211013003/06/16 21:10:31  5-MIN K9L2 070510Z AUTO 25015KT 10SM CLR 10/01 A2994 2280 54 2300 240/15 RMK AO2 $2280 54 2300 260/13 RMK AO2 $
53144K9L2 9L220160306211513003/06/16 21:15:31  5-MIN K9L2 070515Z AUTO 27013KT 10SM CLR 10/01 A2994 2280 54 2300 260/13 RMK AO2 $2280 56 2200 270/12 RMK AO2 $
53144K9L2 9L220160306212013003/06/16 21:20:31  5-MIN K9L2 070520Z AUTO 29012KT 10SM CLR 09/01 A2994 2280 56 2200 270/12 RMK AO2 $2280 58 2100 280/11 RMK AO2 $
53144K9L2 9L220160306212507103/06/16 21:25:31  5-MIN K9L2 070525Z AUTO 29011KT 10SM CLR 09/01 A2994
53144K9L2 9L220160306213010103/06/16 21:30:31  5-MIN K9L2 070530Z AUTO 28009KT 10SM CLR 09/01 A2994 2280 58 2100 270/09 RMK AO2 $
53144K9L2 9L220160306213510103/06/16 21:35:31  5-MIN K9L2 070535Z AUTO 26007KT 10SM CLR 08/01 A2994 2280 60 2100 250/07 RMK AO2 $
53144K9L2 9L220160306213518803/06/16 21:35:31  5-MIN K9L2 070535Z AUTO 26007KT 10SM CLR 08/01 A2994 2280 60 2100 250/07 RMK AO2 $2280 60 2100 240/08 RMK AO2 $2280 60 2100 240/08 RMK AO2 $2280 60 2100 240/10 RMK AO2 $
53144K9L2 9L220160306214013003/06/16 21:40:31  5-MIN K9L2 070540Z AUTO 26008KT 10SM CLR 08/01 A2994 2280 60 2100 240/08 RMK AO2 $2280 60 2100 240/08 RMK AO2 $
53144K9L2 9L220160306215010103/06/16 21:50:31  5-MIN K9L2 070550Z AUTO 25010KT 10SM CLR 08/01 A2994 2280 60 2100 240/10 RMK AO2 $
53144K9L2 9L220160306215507203/06/16 21:55:31  5-MIN K9L2 070555Z AUTO 25010KT 10SM CLR 08/01 A2994 
53144K9L2 9L220160306215516503/06/16 21:55:31  5-MIN K9L2 070555Z AUTO 25010KT 10SM CLR 08/01 A2994 2290 60 2100 240/10 RMK AO2 SLP139 T00830011 10139 20083 55000 $2290 60 2100 230/09 RMK AO2 $
53144K9L2 9L220160306220510103/06/16 22:05:31  5-MIN K9L2 070605Z AUTO 25008KT 10SM CLR 08/01 A2993 2290 62 2000 230/08 RMK AO2 $
53144K9L2 9L220160306220515903/06/16 22:05:31  5-MIN K9L2 070605Z AUTO 25008KT 10SM CLR 08/01 A2993 2290 62 2000 230/08 RMK AO2 $2300 62 2000 240/10 RMK AO2 $2300 62 2000 250/10 RMK AO2 $
53144K9L2 9L220160306221013003/06/16 22:10:31  5-MIN K9L2 070610Z AUTO 25010KT 10SM CLR 08/01 A2993 2300 62 2000 240/10 RMK AO2 $2300 62 2000 250/10 RMK AO2 $
53144K9L2 9L220160306222013003/06/16 22:20:31  5-MIN K9L2 070620Z AUTO 26011KT 10SM CLR 08/01 A2992 2300 60 2100 250/11 RMK AO2 $2300 60 2100 250/10 RMK AO2 $
53144K9L2 9L220160306222013003/06/16 22:20:31  5-MIN K9L2 070620Z AUTO 26011KT 10SM CLR 08/01 A2992 2300 60 2100 250/11 RMK AO2 $2300 60 2100 250/12 RMK AO2 $
53144K9L2 9L220160306223010103/06/16 22:30:31  5-MIN K9L2 070630Z AUTO 27011KT 10SM CLR 08/01 A2992 2300 60 2100 250/11 RMK AO2 $
53144K9L2 9L220160306223510103/06/16 22:35:31  5-MIN K9L2 070635Z AUTO 26010KT 10SM CLR 08/01 A2992 2300 60 2100 250/10 RMK AO2 $
53144K9L2 9L220160306224013003/06/16 22:40:31  5-MIN K9L2 070640Z AUTO 26010KT 10SM CLR 08/01 A2992 2310 60 2100 240/10 RMK AO2 $2310 62 2000 240/09 RMK AO2 $
53144K9L2 9L220160306224013003/06/16 22:40:31  5-MIN K9L2 070640Z AUTO 26010KT 10SM CLR 08/01 A2992 2310 60 2100 240/10 RMK AO2 $23q0)62 2000 240/08 RMK AO2 $
53144K9L2 9L220160306225010103/06/16 22:50:31  5-MIN K9L2 070650Z AUTO 25008KT 10SM CLR 08/01 A2992 2310 62 2000 240/08 RMK AO2 $
53144K9L2 9L220160306225507203/06/16 22:55:31  5-MIN K9L2 070655Z AUTO 26009KT 10SM CLR 08/01 A2992 
53144K9L2 9L220160306225511803/06/16 22:55:31  5-MIN K9L2 070655Z AUTO 26009KT 10SM CLR 08/01 A2992 2310 62 2000 250/09 RMK AO2 SLP131 T00780011 $
53144K9L2 9L220160306230024603/06/16 23:00:31  5-MIN K9L2 070700Z AUTO 26010KT 10SM CLR 08/01 A2991 2310 62 2000 240/10 RMK AO2 $2310 62 2000 240/09 RMK AO2 $2310 62 2000 240/08 RMK AO2 $2310 65 2000 230/07 RMK AO2 $2310 65 2000 230/07 RMK AO2 $2320 67 1900 220/07 RMK AO2 $
53144K9L2 9L220160306230513003/06/16 23:05:31  5-MIN K9L2 070705Z AUTO 26009KT 10SM CLR 08/01 A2991 2310 62 2000 240/08 RMK AO2 $2310 65 2000 230/07 RMK AO2 $
53144K9L2 9L220160306233013003/06/16 23:30:31  5-MIN K9L2 070730Z AUTO 24006KT 10SM CLR 07/01 A2991 2320 65 2000 220/06 RMK AO2 $2320 67 1900 220/07 RMK AO2 $
53144K9L2 9L220160306234015903/06/16 23:40:31  5-MIN K9L2 070740Z AUTO 24007KT 10SM CLR 07/01 A2990 2320 67 1900 240/07 RMK AO2 $2330 67 1900 220/10 RMK AO2 $2330 67 1900 220/10 RMK AO2 $
53144K9L2 9L220160306234515703/06/16 23:45:31  5-MIN K9L2 070745Z AUTO 25007KT 10SM CLR 07/01 A2990 2330 70 1900 240/08 RMK AO2 $2330 67 1900 240/10 RMK AO2 SLP124 T00670011 401500061 $
53144K9L2 9L220160307000010103/07/16 00:00:31  5-MIN K9L2 070800Z AUTO 25009KT 10SM CLR 07/01 A2989 2330 67 1900 240/09 RMK AO2 $
53144K9L2 9L220160307000513003/07/16 00:05:31  5-MIN K9L2 070805Z AUTO 25009KT 10SM CLR 07/01 A2989 2330 67 1900 230/09 RMK AO2 $2330 V7 1900 230/09 RMK AO2 $
53144K9L2 9L220160307001510103/07/16 00:15:31  5-MIN K9L2 070815Z AUTO 23010KT 10SM CLR 07/01 A2989 2330 67 1900 220/10 RMK AO2 $
53144K9L2 9L220160307002010103/07/16 00:20:31  5-MIN K9L2 070820Z AUTO 23010KT 10SM CLR 07/01 A2989 2330 67 1900 220/11 RMK AO2 $
53144K9L2 9L220160307003010103/07/16 00:30:31  5-MIN K9L2 070830Z AUTO 23009KT 10SM CLR 07/01 A2990 2320 65 2000 230/12 RMK AO2 $
53144K9L2 9L220160307003015903/07/16 00:30:31  5-MIN K9L2 070830Z AUTO 23009KT 10SM CLR 07/01 A2990 2320 67 1900 220/09 RMK AO2 $2320 65 2000 230/10 RMK AO2 $2320 65 2000 230/12 RMK AO2 $
53144K9L2 9L220160307004510103/07/16 00:45:31  5-MIN K9L2 070845Z AUTO 26011KT 10SM CLR 07/02 A2989 2330 68 2000 240/11 RMK AO2 $
53144K9L2 9L220160307005007203/07/16 00:50:31  5-MIN K9L2 070850Z AUTO 26009KT 10SM CLR 07/01 A2989 
53144K9L2 9L220160307005015303/07/16 00:50:31  5-MIN K9L2 070850Z AUTO 26009KT 10SM CLR 07/01 A2989 2330 65 2000 250/09 RMK AO2 $2330 67 1900 250/09 RMK AO2 SLP122 T00670011 50001 $
53144K9L2 9L220160307005507203/07/16 00:55:31  5-MIN K9L2 070855Z AUTO 27009KT 10SM CLR 07/01 A2989 
53144K9L2 9L220160307010010103/07/16 01:00:31  5-MIN K9L2 070900Z AUTO 27009KT 10SM CLR 07/02 A2989 2330 70 1900 260/09 RIK AO2 $
53144K9L2 9L220160307010513003/07/16 01:05:31  5-MIN K9L2 070905Z AUTO 28008KT 10SM CLR 07/02 A2988 2340 73 1900 240/07 RMK AO2 $2340 73 2000 230/10 RMK AO2 $
53144K9L2 9L220160307011013003/07/16 01:10:31  5-MIN K9L2 070910Z AUTO 25007KT 10SM CLR 06/02 A2988 2340 73 1900 240/07 RMK AO2 $2340 73 2000 230/10 RMK AO2 $
53144K9L2 9L220160307012013003/07/16 01:20:31  5-MIN K9L2 070920Z AUTO 24011KT 10SM CLR 08/03 A2988 2340 70 2100 230/11 RMK AO2 $2340 73 2100 230/10 RMK AO2 $
53144K9L2 9L220160307012035003/07/16 01:20:31  5-MIN K9L2 070920Z AUTO 24011KT 10SM CLR 08/03 A2988 2340 70 2100 230/11 RMK AO2 $2350 73 2100 240/08 RMK AO2 $2350 76 2000 240/07 RMK AO2 $2350 73 2000 230/08 RMK AO2 $2350 73 2100 230/10 RMK AO2 $2350 76 2000 230/08 RMK AO2 SLP114 T00720033 $2360 76 2000 230/08 RMK AO2 $2370 73 2100 230/09 RMK AO2 $2370 76 2100 230/11 RMK AO2 $
53144K9L2 9L220160307013010103/07/16 01:30:31  5-MIN K9L2 070930Z AUTO 25009KT 10SM CLR 08/03 A2988 2340 73 2100 230/09 RMK AO2 $
53144K9L2 9L220160307013510103/07/16 01:35:31  5-MIN K9L2 070935Z AUTO 25008KT 10SM CLR 08/03 A2987 2350 73 2100 240/08 RMK AO2 $
53144K9L2 9L220160307014010103/07/16 01:40:31  5-MIN K9L2 070940Z AUTO 25007KT 10SM CLR 07/03 A2987 2350 76 2000 240/07 RMK AO2 $
53144K9L2 9L220160307014510103/07/16 01:45:31  5-MIN K9L2 070945Z AUTO 25008KT 10SM CLR 07/03 A2987 2350 73 2000 230/08 RMK AO2 $
53144K9L2 9L220160307015010103/07/16 01:50:31  5-MIN K9L2 070950Z AUTO 250!0KT 10SM CLR 08/03 A2987 2350 73 2100 230/10 RMK AO2 $
53144K9L2 9L220160307015511803/07/16 01:55:31  5-MIN K9L2 070955Z AUTO 25008KT 10SM CLR 07/03 A2986 2350 76 2000 230/08 RMK AO2 SLP114 T00720033 $
53144K9L2 9L220160307020010103/07/16 02:00:31  5-MIN K9L2 071000Z AUTO 24008KT 10SM CLR 07/03 A2986 2360 76 2000 230/08 RMK AO2 $
53144K9L2 9L220160307022510103/07/16 02:25:31  5-MIN K9L2 071025Z AUTO 24010KT 10SM CLR 08/04 A2985 2370 76 2100 220/10 RMK AO2 $
53144K9L2 9L220160307023010103/07/16 02:30:31  5-MIN K9L2 071030Z AUTO 23010KT 10SM CLR 07/04 A2984 2370 79 2000 220/10 RMK AO2 $
53144K9L2 9L220160307023510403/07/16 02:35:31  5-MIN K9L2 071035Z AUTO 23015G19KT 10SM CLR 08/04 A2984 2380 73 2100 220/18 RMK AO2 $
53144K9L2 9L220160307030010103/07/16 03:00:31  5-MIN K9L2 071100Z AUTO 24012KT 10SM CLR 07/03 A2983 2380 73 2100 230/12 RMK AO2 $
53144K9L2 9L220160307030510103/07/16 03:05:31  5-MIN K9L2 071105Z AUTO 24013KT 10SM CLR 07/03 A2983 2390 73 2100 220/13 RMK AO2 $
53144K9L2 9L220160307031010103/07/16 03:10:31  5-MIN K9L2 071110Z AUTO 24014KT 10SM CLR 07/03 A2983 2390 73 2100 230/14 RMK AO2 $
53144K9L2 9L220160307031523203/07/16 03:15:31  5-MIN K9L2 071115Z AUTO 24016G21KT 10SM CLR 08/03 A2982 2390 73 2100 220/16G21 RMK AO2 $2390 73 2100 220/15G23 RMK AO2 $2400 73 2100 220/15G23 RMK AO2 $2400 76 2100 210/16G22 RMK AO2 $2400 76 2100 220/16 RMK AO2 $
53144K9L2 9L220160307034510103/07/16 03:45:31  5-MIN K9L2 071145Z AUTO 23015KT 10SM CLR 07/03 A2981 2400 76 2100 220/15 RMK AO2 $
53144K9L2 9L220160307035012203/07/16 03:50:31  5-MIN K9L2 071150Z AUTO 22017KT 10SM CLR 07/03 A2981 2400 70 2100 210/19G26 RMK AO2 PK WND 23026/1200 $
53144K9L2 9L220160307040512503/07/16 04:05:31  5-MIN K9L2 071205Z AUTO 23019G26KT 10SM CLR 07/02 A2981 2400 70 2100 220/19G26 RMK AO2 PK WND 23026/1200 $
53144K9L2 9L220160307041022203/07/16 04:10:31  5-MIN K9L2 071210Z AUTO 23015G24KT 10SM CLR 07/02 A2981 2400 73 2000 220/15G24 RMK AO2 PK WND 23026/1200 $2400 73 2000 220/14G20 RMK AO2 PK WND 23026/1200 $2400 73 2000 230/14 RMK AO2 PK WND 23026/1200 $
53144K9L2 9L220160307042516603/07/16 04:25:31  5-MIN K9L2 071225Z AUTO 24012KT 10SM CLR 07/02 A2981 2400 73 2000 230/12 RMK AO2 PK WND 23026/1200 $2410 73 2000 220/14 RMK AO2 PK WND 23026/1200 $
53144K9L2 9L220160307043511903/07/16 04:35:31  5-MIN K9L2 071235Z AUTO 23013KT 10SM CLR 07/02 A2980 2410 70 2000 220/13 RMK AO2 PK WND 23026/1200 $
53144K9L2 9L220160307044019503/07/16 04:40:31  5-MIN K9L2 071240Z AUTO 23012KT 10SM CLR 07/02 A2980 2410 70 2000 210/11 RMK AO2 PK WND 23026/1200 $2420 70 2000 210/11 RMK AO2 PK WND 23026/1200 $2420 70 2000 210/09 RMK AO2 $
53144K9L2 9L220160307050513303/07/16 05:05:31  5-MIN K9L2 071305Z AUTO 22011KT 10SM FEW100 07/02 A2980 2420 70 2000 210/11 RMK AO2 $2420 70 2000 200/11 RMK AO2 $
53144K9L2 9L220160307051510403/07/16 05:15:31  5-MIN K9L2 071315Z AUTO 22011KT 10SM FEW100 07/02 A2979 2420 70 2000 200/11 RMK AO2 $
53144K9L2 9L220160307052010403/07/16 05:20:31  5-MIN K9L2 071320Z AUTO 22010KT 10SM SCT095 07/02 A2979 2420 68 2100 210/10 RMK AO2 $
53144K9L2 9L220160307052013303/07/16 05:20:31  5-MIN K9L2 071320Z AUTO 22010KT 10SM SCT095 07/02 A2979 2420 68 2100 210/10 RMK AO2 $2430 68 2100 210/10 RMK AO2 $
53144K9L2 9L220160307052510403/07/16 05:25:31  5-MIN K9L2 071325Z AUTO 22010KT 10SM BKN095 07/02 A2979 2430 68 2100 210/10 RMK AO2 $
53144K9L2 9L220160307053010403/07/16 05:30:31  5-MIN K9L2 071330Z AUTO 21011KT 10SM BKN095 07/02 A2978 2430 70 2100 200/11 RMK AO2 $
53144K9L2 9L220160307053013303/07/16 05:30:31  5-MIN K9L2 071330Z AUTO 21011KT 10SM BKN095 07/02 A2978 2430 70 2100 200/11 RMK AO2 $2440 70 2100 200/11 RMK AO2 $
53144K9L2 9L220160307053510403/07/16 05:35:31  5-MIN K9L2 071335Z AUTO 21011KT 10SM BKN095 07/02 A2978 2430 70 2100 200/11 RMK AO2 $
53144K9L2 9L220160307054010403/07/16 05:40:31  5-MIN K9L2 071340Z AUTO 21011KT 10SM BKN090 07/02 A2978 2440 70 2100 200/11 RMK AO2 $
53144K9L2 9L220160307054510403/07/16 05:45:31  5-MIN K9L2 071345Z AUTO 21012KT 10SM OVC090 07/02 A2977 2440 70 2100 200/12 RMK AO2 $
53144K9L2 9L220160307055010403/07/16 05:50:31  5-MIN K9L2 071350Z AUTO 21010KT 10SM OVC090 07/02 A2977 2440 70 2100 200/10 RMK AO2 $
53144K9L2 9L220160307055507503/07/16 05:55:31  5-MIN K9L2 071355Z AUTO 20010KT 10SM OVC090 07/02 A2977 
53144K9L2 9L220160307055512103/07/16 05:55:31  5-MIN K9L2 071355Z AUTO 20010KT 10SM OVC090 07/02 A2977 2440 70 2100 190/10 RMK AO2 SLP083 T00720022 $
53144K9L2 9L220160307060010403/07/16 06:00:31  5-MIN K9L2 071400Z AUTO 20010KT 10SM OVC090 07/02 A2977 2440 70 2100 190/10 RMK AO2 $
53144K9L2 9L220160307060510403/07/16 06:05:31  5-MIN K9L2 071405Z AUTO 21008KT 10SM OVC090 07/02 A2977 2440 70 2100 200/08 RMK AO2 $
53144K9L2 9L220160307061010403/07/16 06:10:31  5-MIN K9L2 071410Z AUTO 21008KT 10SM OVC090 07/02 A2977 2440 70 2100 200/08 RMK AO2 $
53144K9L2 9L220160307061511103/07/16 06:15:31  5-MIN K9L2 071415Z AUTO 21008KT 10SM SCT075 OVC095 07/03 A2977 2440 73 2100 190/08 RMK AO2 $
53144K9L2 9L220160307062010403/07/16 06:20:31  5-MIN K9L2 071420Z AUTO 21008KT 10SM OVC085 07/03 A2977 2440 73 2100 200/08 RMK AO2 $
53144K9L2 9L220160307062510403/07/16 06:25:31  5-MIN K9L2 071425Z AUTO 22008KT 10SM OVC090 07/03 A2977 2440 73 2100 200/08 RMK AO2 $
53144K9L2 9L220160307063011103/07/16 06:30:31  5-MIN K9L2 071430Z AUTO 21007KT 10SM FEW075 OVC090 07/03 A2977 2440 73 2100 200/07 RMK AO2 $
53144K9L2 9L220160307063511103/07/16 06:35:31  5-MIN K9L2 071435Z AUTO 22008KT 10SM FEW012 BKN090 07/03 A2977 2440 73 2100 210/08 RMK AO2 $
53144K9L2 9L220160307064011103/07/16 06:40:31  5-MIN K9L2 071440Z AUTO 23008KT 10SM SCT012 OVC085 07/03 A2977 2440 73 2100 220/08 RMK AO2 $
53144K9L2 9L220160307064511103/07/16 06:45:31  5-MIN K9L2 071445Z AUTO 24006KT 10SM FEW012 OVC090 07/03 A2977 2440 73 2100 230/06 RMK AO2 $
53144K9L2 9L220160307065011103/07/16 06:50:31  5-MIN K9L2 071450Z AUTO 25006KT 10SM FEW012 BKN090 08/03 A2977 2440 70 2200 230/06 RMK AO2 $
53144K9L2 9L220160307065513403/07/16 06:55:31  5-MIN K9L2 071455Z AUTO 26006KT 10SM FEW012 BKN090 08/03 A2977 2440 70 2200 250/06 RMK AO2 SLP082 T00780028 57025 $
53144K9L2 9L220160307070011103/07/16 07:00:31  5-MIN K9L2 071500Z AUTO 25007KT 10SM FEW012 BKN090 08/03 A2977 2440 70 2200 240/07 RMK AO2 $
53144K9L2 9L220160307070511703/07/16 07:05:31  5-MIN K9L2 071505Z AUTO 23010G14KT 10SM FEW011 BKN090 08/03 A2977 2440 70 2200 220/10G14 RMK AO2 $
53144K9L2 9L220160307071011103/07/16 07:10:31  5-MIN K9L2 071510Z AUTO 24011KT 10SM FEW055 BKN090 08/03 A2977 2440 70 2200 230/11 RMK AO2 $
53144K9L2 9L220160307071514003/07/16 07:15:31  5-MIN K9L2 071515Z AUTO 25014G18KT 10SM -RA FEW047 SCT055 BKN090 08/03 A2977 2440 68 2300 230/14G18 RMK AO2 RAB14 P0000 $
53144K9L2 9L220160307072013903/07/16 07:20:31  5-MIN K9L2 071520Z AUTO 25016G20KT 9SM -RA FEW024 BKN048 OVC090 08/03 A2977 2440 73 2200 240/16G20 RMK AO2 RAB14 P0000 $
53144K9L2 9L220160307072513903/07/16 07:25:31  5-MIN K9L2 071525Z AUTO 24014G22KT 9SM -RA FEW024 BKN045 OVC090 08/03 A2978 2430 73 2200 230/14G22 RMK AO2 RAB14 P0000 $
53144K9L2 9L220160307073013903/07/16 07:30:31  5-MIN K9L2 071530Z AUTO 26018G22KT 6SM -RA FEW001 BKN043 OVC090 07/04 A2979 2420 79 2100 250/18G22 RMK AO2 RAB14 P0001 $
53144K9L2 9L220160307073514503/07/16 07:35:31  5-MIN K9L2 071535Z AUTO 24017G25KT 3SM RA SCT003 BKN041 OVC049 07/04 A2980 2410 79 2100 230/17G25 RMK AO2 RAB14 PRESRR P0002 $
53144K9L2 9L220160307074013803/07/16 07:40:31  5-MIN K9L2 071540Z AUTO 26015G25KT 3SM RA SCT003 BKN023 OVC038 07/04 A2980 2410 79 2100 240/15G25 RMK AO2 RAB14 P0003 $
53144K9L2 9L220160307074513803/07/16 07:45:31  5-MIN K9L2 071545Z AUTO 26018G24KT 4SM RA BKN001 BKN020 OVC034 07/03 A2980 2410 79 2000 240/18G24 RMK AO2 RAB14 P0004 $
53144K9L2 9L220160307075013903/07/16 07:50:31  5-MIN K9L2 071550Z AUTO 26018G24KT 6SM -RA BKN001 BKN011 OVC030 06/03 A2980 2410 82 2000 250/18G24 RMK AO2 RAB14 P0004 $
53144K9L2 9L220160307075515603/07/16 07:55:31  5-MIN K9L2 071555Z AUTO 25017G23KT 7SM -RA SCT001 SCT013 OVC028 06/03 A2981 2410 79 2000 240/17G23 RMK AO2 RAB14 SLP098 P0005 T00610028 $
53144K9L2 9L220160307080012703/07/16 08:00:31  5-MIN K9L2 071600Z AUTO 25015KT 8SM -RA FEW001 SCT013 OVC028 06/02 A2980 2410 79 1900 240/15 RMK AO2 P0000 $
53144K9L2 9L220160307080512703/07/16 08:05:31  5-MIN K9L2 071605Z AUTO 25011KT 7SM -RA FEW001 SCT013 OVC028 06/02 A2980 2410 79 1900 240/11 RMK AO2 P0001 $
53144K9L2 9L220160307081012503/07/16 08:10:31  5-MIN K9L2 071610Z AUTO 26011G16KT 6SM RA FEW001 OVC028 06/02 A2980 2420 79 1900 250/11G16 RMK AO2 P0002 $
53144K9L2 9L220160307081512603/07/16 08:15:31  5-MIN K9L2 071615Z AUTO 26011G16KT 6SM -RA FEW012 OVC026 06/02 A2980 2420 79 1900 240/11G16 RMK AO2 P0002 $
53144K9L2 9L220160307082011303/07/16 08:20:31  5-MIN K9L2 071620Z AUTO 23010KT 8SM -RA OVC026 06/02 A2979 2420 79 1900 210/10 RMK AO2 P0003 $
53144K9L2 9L220160307082511303/07/16 08:25:31  5-MIN K9L2 071625Z AUTO 22011KT 9SM -RA OVC026 05/02 A2979 2420 82 1800 210/11 RMK AO2 P0003 $
53144K9L2 9L220160307083011303/07/16 08:30:31  5-MIN K9L2 071630Z AUTO 21011KT 8SM -RA OVC026 05/02 A2979 2420 82 1800 200/11 RMK AO2 P0003 $
53144K9L2 9L220160307083511303/07/16 08:35:31  5-MIN K9L2 071635Z AUTO 22011KT 8SM -RA OVC026 05/02 A2980 2420 82 1800 200/11 RMK AO2 P0004 $
53144K9L2 9L220160307084012003/07/16 08:40:31  5-MIN K9L2 071640Z AUTO 21011KT 8SM -RA FEW016 OVC026 05/02 A2980 2420 82 1800 200/11 RMK AO2 P0004 $
53144K9L2 9L220160307084512003/07/16 08:45:31  5-MIN K9L2 071645Z AUTO 21009KT 8SM -RA FEW016 OVC026 05/02 A2979 2430 82 1800 190/09 RMK AO2 P0004 $
53144K9L2 9L220160307085012003/07/16 08:50:31  5-MIN K9L2 071650Z AUTO 21006KT 9SM -RA FEW016 OVC028 05/02 A2978 2430 82 1800 200/06 RMK AO2 P0004 $
53144K9L2 9L220160307085513803/07/16 08:55:31  5-MIN K9L2 071655Z AUTO 20006KT 10SM -RA FEW016 OVC032 05/02 A2978 2430 82 1900 190/06 RMK AO2 SLP090 P0004 T00500022 $
53144K9L2 9L220160307090012303/07/16 09:00:31  5-MIN K9L2 071700Z AUTO 20008KT 10SM FEW016 OVC036 06/02 A2978 2430 79 1900 190/08 RMK AO2 RAE00 P0000 $
53144K9L2 9L220160307090512303/07/16 09:05:31  5-MIN K9L2 071705Z AUTO 19008KT 10SM FEW016 OVC040 06/02 A2978 2440 79 1900 180/08 RMK AO2 RAE00 P0000 $
53144K9L2 9L220160307091012303/07/16 09:10:31  5-MIN K9L2 071710Z AUTO 18012KT 10SM BKN035 OVC046 06/03 A2978 2430 82 1900 170/12 RMK AO2 RAE00 P0000 $
53144K9L2 9L220160307091513003/07/16 09:15:31  5-MIN K9L2 071715Z AUTO 19013KT 10SM FEW030 BKN045 OVC055 06/03 A2978 2430 82 1900 170/13 RMK AO2 RAE00 P0000 $
53144K9L2 9L220160307092013003/07/16 09:20:31  5-MIN K9L2 071720Z AUTO 19016KT 10SM FEW031 BKN050 OVC060 06/03 A2979 2430 82 1900 180/16 RMK AO2 RAE00 P0000 $
53144K9L2 9L220160307092513003/07/16 09:25:31  5-MIN K9L2 071725Z AUTO 19017KT 10SM FEW001 BKN037 OVC060 05/02 A2979 2430 82 1800 180/17 RMK AO2 RAE00 P0000 $
53144K9L2 9L220160307093013003/07/16 09:30:31  5-MIN K9L2 071730Z AUTO 18016KT 10SM SCT001 BKN037 OVC060 05/02 A2979 2430 82 1800 170/16 RMK AO2 RAE00 P0000 $
53144K9L2 9L220160307093513003/07/16 09:35:31  5-MIN K9L2 071735Z AUTO 18015KT 10SM SCT001 BKN049 OVC060 04/02 A2979 2430 85 1800 170/15 RMK AO2 RAE00 P0000 $
53144K9L2 9L220160307094013003/07/16 09:40:31  5-MIN K9L2 071740Z AUTO 18017KT 10SM FEW001 BKN049 OVC055 04/02 A2979 2430 85 1800 170/17 RMK AO2 RAE00 P0000 $
53144K9L2 9L220160307094513003/07/16 09:45:31  5-MIN K9L2 071745Z AUTO 18017KT 10SM SCT001 SCT040 OVC049 05/02 A2979 2420 82 1800 170/17 RMK AO2 RAE00 P0000 $
53144K9L2 9L220160307095012303/07/16 09:50:31  5-MIN K9L2 071750Z AUTO 18018KT 10SM SCT001 OVC049 05/02 A2979 2420 82 1800 170/18 RMK AO2 RAE00 P0000 $
53144K9L2 9L220160307095516403/07/16 09:55:31  5-MIN K9L2 071755Z AUTO 19016KT 10SM SCT001 OVC049 06/03 A2979 2430 82 1900 180/16 RMK AO2 RAE00 SLP093 P0000 60009 T00560028 10083 20044 56013 $
53144K9L2 9L220160307100011803/07/16 10:00:31  5-MIN K9L2 071800Z AUTO 19015KT 10SM FEW001 BKN049 OVC060 06/03 A2978 2430 82 1900 180/15 RMK AO2 $
53144K9L2 9L220160307100511803/07/16 10:05:31  5-MIN K9L2 071805Z AUTO 19015KT 10SM FEW001 BKN055 OVC070 06/03 A2978 2430 79 2000 180/15 RMK AO2 $
53144K9L2 9L220160307101011803/07/16 10:10:31  5-MIN K9L2 071810Z AUTO 19015KT 10SM FEW001 BKN055 OVC075 06/03 A2979 2430 79 2000 180/15 RMK AO2 $
53144K9L2 9L220160307101511803/07/16 10:15:31  5-MIN K9L2 071815Z AUTO 20013KT 10SM FEW001 SCT055 OVC070 07/03 A2978 2430 79 2000 190/13 RMK AO2 $
53144K9L2 9L220160307102011803/07/16 10:20:31  5-MIN K9L2 071820Z AUTO 20015KT 10SM FEW001 SCT055 OVC070 07/03 A2979 2430 76 2100 180/15 RMK AO2 $
53144K9L2 9L220160307102511103/07/16 10:25:31  5-MIN K9L2 071825Z AUTO 20011KT 10SM FEW055 OVC070 08/03 A2978 2430 73 2200 190/11 RMK AO2 $
53144K9L2 9L220160307103011003/07/16 10:30:31  5-MIN K9L2 071830Z AUTO 22011G19KT 10SM OVC070 08/03 A2978 2430 73 2200 210/11G19 RMK AO2 $
53144K9L2 9L220160307103510403/07/16 10:35:31  5-MIN K9L2 071835Z AUTO 22011KT 10SM BKN070 08/03 A2978 2440 68 2300 200/11 RMK AO2 $
53144K9L2 9L220160307104011003/07/16 10:40:31  5-MIN K9L2 071840Z AUTO 23010G18KT 10SM BKN070 09/03 A2978 2440 65 2300 220/10G18 RMK AO2 $
53144K9L2 9L220160307104511703/07/16 10:45:31  5-MIN K9L2 071845Z AUTO 24014G24KT 10SM FEW012 BKN070 09/02 A2977 2440 63 2300 220/14G24 RMK AO2 $
53144K9L2 9L220160307105011703/07/16 10:50:31  5-MIN K9L2 071850Z AUTO 24013G24KT 10SM FEW012 BKN070 09/02 A2977 2440 58 2400 230/13G24 RMK AO2 $
53144K9L2 9L220160307105512103/07/16 10:55:31  5-MIN K9L2 071855Z AUTO 25012KT 10SM SCT070 09/02 A2977 2440 60 2300 230/12 RMK AO2 SLP085 T00890017 $
53144K9L2 9L220160307110011703/07/16 11:00:31  5-MIN K9L2 071900Z AUTO 24012G17KT 10SM FEW028 SCT075 10/02 A2977 2440 56 2500 220/12G17 RMK AO2 $
53144K9L2 9L220160307110511003/07/16 11:05:31  5-MIN K9L2 071905Z AUTO 23012G17KT 10SM FEW026 10/02 A2977 2450 58 2500 220/12G17 RMK AO2 $
53144K9L2 9L220160307111010403/07/16 11:10:31  5-MIN K9L2 071910Z AUTO 22014KT 10SM FEW010 11/03 A2977 2440 58 2500 200/14 RMK AO2 $
53144K9L2 9L220160307111510403/07/16 11:15:31  5-MIN K9L2 071915Z AUTO 22013KT 10SM FEW024 10/02 A2976 2450 58 2500 200/13 RMK AO2 $
53144K9L2 9L220160307112011703/07/16 11:20:31  5-MIN K9L2 071920Z AUTO 24015G22KT 10SM FEW019 SCT030 11/02 A2977 2450 54 2500 230/15G22 RMK AO2 $
53144K9L2 9L220160307112512403/07/16 11:25:31  5-MIN K9L2 071925Z AUTO 25012G22KT 10SM FEW017 SCT030 SCT043 10/01 A2977 2440 54 2500 240/12G22 RMK AO2 $
53144K9L2 9L220160307113011103/07/16 11:30:31  5-MIN K9L2 071930Z AUTO 26011KT 10SM FEW022 SCT043 10/00 A2977 2450 49 2500 250/11 RMK AO2 $
53144K9L2 9L220160307113511703/07/16 11:35:31  5-MIN K9L2 071935Z AUTO 28013G20KT 10SM FEW017 SCT043 10/00 A2977 2450 49 2500 270/13G20 RMK AO2 $
53144K9L2 9L220160307114011003/07/16 11:40:31  5-MIN K9L2 071940Z AUTO 24011G20KT 10SM FEW024 10/00 A2976 2450 49 2500 230/11G20 RMK AO2 $
53144K9L2 9L220160307114511003/07/16 11:45:31  5-MIN K9L2 071945Z AUTO 25008G19KT 10SM FEW043 10/00 A2976 2450 49 2500 240/08G19 RMK AO2 $
53144K9L2 9L220160307115011003/07/16 11:50:31  5-MIN K9L2 071950Z AUTO 26013G16KT 10SM FEW043 11/01 A2976 2450 50 2500 250/13G16 RMK AO2 $
53144K9L2 9L220160307115512703/07/16 11:55:31  5-MIN K9L2 071955Z AUTO 27013G19KT 10SM FEW043 11/01 A2975 2460 52 2500 260/13G19 RMK AO2 SLP078 T01060011 $
53144K9L2 9L220160307120010703/07/16 12:00:31  5-MIN K9L2 072000Z AUTO 26013G19KT 10SM CLR 11/01 A2975 2460 50 2600 250/13G19 RMK AO2 $
53144K9L2 9L220160307120510103/07/16 12:05:31  5-MIN K9L2 072005Z AUTO 27016KT 10SM CLR 11/01 A2974 2470 50 2600 260/16 RMK AO2 $
53144K9L2 9L220160307121010703/07/16 12:10:31  5-MIN K9L2 072010Z AUTO 26018G22KT 10SM CLR 11/01 A2974 2470 48 2600 250/18G22 RMK AO2 $
53144K9L2 9L220160307121510703/07/16 12:15:31  5-MIN K9L2 072015Z AUTO 26019G23KT 10SM CLR 12/00 A2974 2470 44 2700 250/19G23 RMK AO2 $
53144K9L2 9L220160307122010703/07/16 12:20:31  5-MIN K9L2 072020Z AUTO 25015G23KT 10SM CLR 12/00 A2974 2470 44 2700 240/15G23 RMK AO2 $
53144K9L2 9L220160307122510703/07/16 12:25:31  5-MIN K9L2 072025Z AUTO 25016G22KT 10SM CLR 11/00 A2973 2480 46 2600 240/16G22 RMK AO2 $
53144K9L2 9L220160307123010103/07/16 12:30:31  5-MIN K9L2 072030Z AUTO 26018KT 10SM CLR 12/00 A2973 2480 44 2700 250/18 RMK AO2 $
53144K9L2 9L220160307123510203/07/16 12:35:31  5-MIN K9L2 072035Z AUTO 26016KT 10SM CLR 11/M01 A2972 2480 44 2600 250/16 RMK AO2 $
53144K9L2 9L220160307124010803/07/16 12:40:31  5-MIN K9L2 072040Z AUTO 25015G21KT 10SM CLR 12/M01 A2972 2490 42 2700 230/15G21 RMK AO2 $
53144K9L2 9L220160307124510203/07/16 12:45:31  5-MIN K9L2 072045Z AUTO 24015KT 10SM CLR 12/M02 A2972 2490 39 2700 230/15 RMK AO2 $
53144K9L2 9L220160307125010803/07/16 12:50:31  5-MIN K9L2 072050Z AUTO 24017G22KT 10SM CLR 12/M01 A2972 2490 42 2700 230/17G22 RMK AO2 $
53144K9L2 9L220160307125514903/07/16 12:55:31  5-MIN K9L2 072055Z AUTO 25019G26KT 10SM CLR 12/M01 A2972 2490 42 2700 240/19G26 RMK AO2 PK WND 26026/2053 SLP066 T01171006 55006 $
53144K9L2 9L220160307130010803/07/16 13:00:31  5-MIN K9L2 072100Z AUTO 24014G26KT 10SM CLR 12/M01 A2972 2490 41 2700 230/14G26 RMK AO2 $
53144K9L2 9L220160307131010803/07/16 13:10:31  5-MIN K9L2 072110Z AUTO 25012G21KT 10SM CLR 12/M01 A2971 2500 39 2800 240/12G21 RMK AO2 $
53144K9L2 9L220160307131510803/07/16 13:15:31  5-MIN K9L2 072115Z AUTO 25013G18KT 10SM CLR 12/M01 A2971 2500 41 2700 240/13G18 RMK AO2 $
53144K9L2 9L220160307132010803/07/16 13:20:31  5-MIN K9L2 072120Z AUTO 24012G18KT 10SM CLR 12/M02 A2971 2500 39 2700 230/12G18 RMK AO2 $
53144K9L2 9L220160307132510803/07/16 13:25:31  5-MIN K9L2 072125Z AUTO 26012G18KT 10SM CLR 12/M01 A2971 2500 41 2700 250/12G18 RMK AO2 $
53144K9L2 9L220160307133010803/07/16 13:30:31  5-MIN K9L2 072130Z AUTO 25009G18KT 10SM CLR 12/M01 A2971 2500 41 2700 240/09G18 RMK AO2 $
53144K9L2 9L220160307133510803/07/16 13:35:31  5-MIN K9L2 072135Z AUTO 23007G16KT 10SM CLR 12/M01 A2970 2500 41 2700 220/07G16 RMK AO2 $
53144K9L2 9L220160307134010203/07/16 13:40:31  5-MIN K9L2 072140Z AUTO VRB06KT 10SM CLR 11/M02 A2970 2500 41 2700 VRB/06 RMK AO2 $
53144K9L2 9L220160307134510803/07/16 13:45:31  5-MIN K9L2 072145Z AUTO 24010G14KT 10SM CLR 12/M01 A2970 2510 41 2800 220/10G14 RMK AO2 $
53144K9L2 9L220160307135010203/07/16 13:50:31  5-MIN K9L2 072150Z AUTO 23010KT 10SM CLR 12/M01 A2969 2510 42 2700 220/10 RMK AO2 $
53144K9L2 9L220160307135511903/07/16 13:55:31  5-MIN K9L2 072155Z AUTO 27013KT 10SM CLR 11/M01 A2969 2510 44 2700 260/13 RMK AO2 SLP057 T01111006 $
53144K9L2 9L220160307140010203/07/16 14:00:31  5-MIN K9L2 072200Z AUTO 26008KT 10SM CLR 12/M01 A2970 2510 42 2700 240/08 RMK AO2 $
53144K9L2 9L220160307140510503/07/16 14:05:31  5-MIN K9L2 072205Z AUTO 27008KT 10SM FEW026 12/M01 A2969 2510 42 2700 250/08 RMK AO2 $
53144K9L2 9L220160307141010203/07/16 14:10:31  5-MIN K9L2 072210Z AUTO 26010KT 10SM CLR 12/M01 A2969 2520 41 2800 250/10 RMK AO2 $
53144K9L2 9L220160307141510503/07/16 14:15:31  5-MIN K9L2 072215Z AUTO 21004KT 10SM FEW028 12/M01 A2969 2510 41 2700 190/04 RMK AO2 $
53144K9L2 9L220160307142010503/07/16 14:20:31  5-MIN K9L2 072220Z AUTO 21005KT 10SM FEW030 12/M01 A2969 2520 41 2800 200/05 RMK AO2 $
53144K9L2 9L220160307142511103/07/16 14:25:31  5-MIN K9L2 072225Z AUTO 21007G14KT 10SM SCT030 12/M01 A2969 2520 39 2800 200/07G14 RMK AO2 $
53144K9L2 9L220160307143011103/07/16 14:30:31  5-MIN K9L2 072230Z AUTO 25012G15KT 10SM FEW030 12/M01 A2969 2520 41 2800 240/12G15 RMK AO2 $
53144K9L2 9L220160307143511203/07/16 14:35:31  5-MIN K9L2 072235Z AUTO 23010KT 10SM FEW030 SCT038 13/M02 A2968 2520 36 2900 210/10 RMK AO2 $
53144K9L2 9L220160307144011203/07/16 14:40:31  5-MIN K9L2 072240Z AUTO 25011KT 10SM FEW030 SCT038 13/M01 A2968 2520 38 2900 230/11 RMK AO2 $
53144K9L2 9L220160307144512103/07/16 14:45:31  5-MIN K9L2 072245Z AUTO 24007KT 210V270 10SM FEW032 12/M02 A2968 2530 38 2800 230/07 200V260 RMK AO2 $
53144K9L2 9L220160307145010503/07/16 14:50:31  5-MIN K9L2 072250Z AUTO 28012KT 10SM FEW032 13/M01 A2968 2520 38 2900 270/12 RMK AO2 $
53144K9L2 9L220160307145512803/07/16 14:55:31  5-MIN K9L2 072255Z AUTO 28013G17KT 10SM FEW038 13/M01 A2968 2520 38 2900 270/13G17 RMK AO2 SLP051 T01281011 $
53144K9L2 9L220160307150010503/07/16 15:00:31  5-MIN K9L2 072300Z AUTO 27010KT 10SM FEW038 13/M01 A2968 2520 39 2900 260/10 RMK AO2 $
53144K9L2 9L220160307150510803/07/16 15:05:31  5-MIN K9L2 072305Z AUTO 28012G17KT 10SM CLR 12/M01 A2968 2520 39 2800 260/12G17 RMK AO2 $
53144K9L2 9L220160307151010803/07/16 15:10:31  5-MIN K9L2 072310Z AUTO 26011G17KT 10SM CLR 12/M02 A2968 2520 38 2800 250/11G17 RMK AO2 $
53144K9L2 9L220160307151510203/07/16 15:15:31  5-MIN K9L2 072315Z AUTO 27009KT 10SM CLR 12/M02 A2968 2530 38 2800 260/09 RMK AO2 $
53144K9L2 9L220160307152010803/07/16 15:20:31  5-MIN K9L2 072320Z AUTO 27013G18KT 10SM CLR 12/M02 A2968 2530 38 2800 260/13G18 RMK AO2 $
53144K9L2 9L220160307152510803/07/16 15:25:31  5-MIN K9L2 072325Z AUTO 27012G18KT 10SM CLR 12/M02 A2968 2530 38 2800 260/12G18 RMK AO2 $
53144K9L2 9L220160307153010203/07/16 15:30:31  5-MIN K9L2 072330Z AUTO 25008KT 10SM CLR 12/M02 A2968 2530 38 2800 230/08 RMK AO2 $
53144K9L2 9L220160307153510503/07/16 15:35:31  5-MIN K9L2 072335Z AUTO 25010KT 10SM FEW034 12/M01 A2968 2530 39 2800 240/10 RMK AO2 $
53144K9L2 9L220160307154011003/07/16 15:40:31  5-MIN K9L2 072340Z AUTO 23015G19KT 10SM SCT032 12/00 A2968 2530 43 2800 220/15G19 RMK AO2 $
53144K9L2 9L220160307154511703/07/16 15:45:31  5-MIN K9L2 072345Z AUTO 23017G24KT 10SM FEW013 BKN032 12/02 A2968 2530 52 2800 220/17G24 RMK AO2 $
53144K9L2 9L220160307155011703/07/16 15:50:31  5-MIN K9L2 072350Z AUTO 22018G24KT 10SM FEW013 BKN032 12/02 A2968 2530 50 2800 210/18G24 RMK AO2 $
53144K9L2 9L220160307155515203/07/16 15:55:31  5-MIN K9L2 072355Z AUTO 23018G24KT 10SM FEW013 BKN030 12/02 A2968 2530 50 2800 220/18G24 RMK AO2 SLP051 T01170017 10128 20056 58022 $
53144K9L2 9L220160307160011003/07/16 16:00:31  5-MIN K9L2 080000Z AUTO 23018G25KT 10SM BKN030 11/02 A2968 2530 52 2700 210/18G25 RMK AO2 $
53144K9L2 9L220160307160511003/07/16 16:05:31  5-MIN K9L2 080005Z AUTO 22017G25KT 10SM SCT030 11/02 A2968 2530 52 2700 210/17G25 RMK AO2 $
53144K9L2 9L220160307161011003/07/16 16:10:31  5-MIN K9L2 080010Z AUTO 22015G24KT 10SM FEW030 11/02 A2967 2530 52 2700 210/15G24 RMK AO2 $
53144K9L2 9L220160307161511003/07/16 16:15:31  5-MIN K9L2 080015Z AUTO 23016G23KT 10SM FEW030 11/02 A2968 2530 52 2700 220/16G23 RMK AO2 $
53144K9L2 9L220160307162010403/07/16 16:20:31  5-MIN K9L2 080020Z AUTO 23015KT 10SM FEW030 10/02 A2968 2530 56 2600 210/15 RMK AO2 $
53144K9L2 9L220160307162510403/07/16 16:25:31  5-MIN K9L2 080025Z AUTO 23014KT 10SM FEW025 10/02 A2968 2530 56 2600 210/14 RMK AO2 $
53144K9L2 9L220160307163010403/07/16 16:30:31  5-MIN K9L2 080030Z AUTO 23017KT 10SM FEW025 10/02 A2968 2520 58 2600 210/17 RMK AO2 $
53144K9L2 9L220160307163511003/07/16 16:35:31  5-MIN K9L2 080035Z AUTO 22018G22KT 10SM FEW025 10/02 A2968 2520 56 2600 210/18G22 RMK AO2 $
53144K9L2 9L220160307164011703/07/16 16:40:31  5-MIN K9L2 080040Z AUTO 22018G22KT 10SM FEW025 SCT030 10/02 A2968 2520 56 2600 210/18G22 RMK AO2 $
53144K9L2 9L220160307164510403/07/16 16:45:31  5-MIN K9L2 080045Z AUTO 23016KT 10SM FEW030 10/02 A2968 2520 56 2600 210/16 RMK AO2 $
53144K9L2 9L220160307165011003/07/16 16:50:31  5-MIN K9L2 080050Z AUTO 23017G22KT 10SM FEW030 09/02 A2968 2520 58 2500 220/17G22 RMK AO2 $
53144K9L2 9L220160307165512703/07/16 16:55:31  5-MIN K9L2 080055Z AUTO 22016G22KT 10SM FEW030 09/02 A2968 2520 60 2400 210/16G22 RMK AO2 SLP056 T00890017 $
53144K9L2 9L220160307170011003/07/16 17:00:31  5-MIN K9L2 080100Z AUTO 22015G22KT 10SM FEW030 09/02 A2968 2520 60 2400 210/15G22 RMK AO2 $
53144K9L2 9L220160307170511003/07/16 17:05:31  5-MIN K9L2 080105Z AUTO 22015G22KT 10SM FEW030 09/02 A2968 2520 60 2400 210/15G22 RMK AO2 $
53144K9L2 9L220160307171010103/07/16 17:10:31  5-MIN K9L2 080110Z AUTO 23015KT 10SM CLR 09/02 A2969 2520 60 2400 220/15 RMK AO2 $
53144K9L2 9L220160307171510103/07/16 17:15:31  5-MIN K9L2 080115Z AUTO 23013KT 10SM CLR 09/02 A2969 2520 60 2400 210/13 RMK AO2 $
53144K9L2 9L220160307171510103/07/16 17:15:31  5-MIN K9L2 080115Z AUTO 23013KT 10SM CLR 09/02 A2969 2520 60 2400 220/13 RMK AO2 $
53144K9L2 9L220160307172510103/07/16 17:25:31  5-MIN K9L2 080125Z AUTO 24014KT 10SM CLR 09/02 A2969 2510 60 2400 220/14 RMK AO2 $
53144K9L2 9L220160307173010103/07/16 17:30:31  5-MIN K9L2 080130Z AUTO 23012KT 10SM CLR 09/02 A2969 2510 60 2400 210/12 RMK AO2 $
53144K9L2 9L220160307173510103/07/16 17:35:31  5-MIN K9L2 080135Z AUTO 23012KT 10SM CLR 09/02 A2970 2510 60 2400 220/12 RMK AO2 $
53144K9L2 9L220160307174513003/07/16 17:45:31  5-MIN K9L2 080145Z AUTO 24013KT 10SM CLR 08/02 A2970 2510 63 2300 220/13 RMK AO2 $2510 63 2300 220/12 RMK AO2 $
53144K9L2 9L220160307175511803/07/16 17:55:31  5-MIN K9L2 080155Z AUTO 23010KT 10SM CLR 08/02 A2970 2510 63 2300 220/10 RMK AO2 SLP062 T00830017 $
53144K9L2 9L220160307180010103/07/16 18:00:31  5-MIN K9L2 080200Z AUTO 23009KT 10SM CLR 08/02 A2970 2510 63 2300 220/09 RMK AO2 $
53144K9L2 9L220160307180510103/07/16 18:05:31  5-MIN K9L2 080205Z AUTO 23009KT 10SM CLR 08/02 A2970 2510 63 2300 220/09 RMK AO2 $
53144K9L2 9L220160307181010103/07/16 18:10:31  5-MIN K9L2 080210Z AUTO 23009KT 10SM CLR 08/02 A2970 2500 63 2300 220/09 RMK AO2 $
53144K9L2 9L220160307181510103/07/16 18:15:31  5-MIN K9L2 080215Z AUTO 23008KT 10SM CLR 08/02 A2971 2500 63 2300 220/08 RMK AO2 $
53144K9L2 9L220160307182010103/07/16 18:20:31  5-MIN K9L2 080220Z AUTO 25010KT 10SM CLR 08/01 A2971 2500 60 2300 240/10 RMK AO2 $
53144K9L2 9L220160307182510103/07/16 18:25:31  5-MIN K9L2 080225Z AUTO 25008KT 10SM CLR 08/00 A2971 2500 55 2300 240/08 RMK AO2 $
53144K9L2 9L220160307183013003/07/16 18:30:31  5-MIN K9L2 080230Z AUTO 25009KT 10SM CLR 08/00 A2971 2500 58 2300 240/09 RMK AO2 $2500 58 2300 240/10 RMK AO2 $
53144K9L2 9L220160307184013003/07/16 18:40:31  5-MIN K9L2 080240Z AUTO 25008KT 10SM CLR 08/00 A2971 2500 58 2300 230/08 RMK AO2 $2490 58 2300 240/09 RMK AO2 $
53144K9L2 9L220160307185010103/07/16 18:50:31  5-MIN K9L2 080250Z AUTO 26010KT 10SM CLR 07/00 A2972 2490 60 2200 240/10 RMK AO2 $
53144K9L2 9L220160307185512403/07/16 18:55:31  5-MIN K9L2 080255Z AUTO 26009KT 10SM CLR 07/00 A2972 2490 60 2200 250/09 RMK AO2 SLP067 T00720000 56013 $
53144K9L2 9L220160307190010103/07/16 19:00:31  5-MIN K9L2 080300Z AUTO 25007KT 10SM CLR 07/00 A2972 2490 60 2200 240/07 RMK AO2 $
53144K9L2 9L220160307190510103/07/16 19:05:31  5-MIN K9L2 080305Z AUTO 25007KT 10SM CLR 07/00 A2972 2490 60 2200 240/07 RMK AO2 $
53144K9L2 9L220160307191010103/07/16 19:10:31  5-MIN K9L2 080310Z AUTO 25006KT 10SM CLR 07/01 A2972 2480 62 2200 240/06 RMK AO2 $
53144K9L2 9L220160307191510103/07/16 19:15:31  5-MIN K9L2 080315Z AUTO 25005KT 10SM CLR 07/01 A2973 2480 62 2200 240/05 RMK AO2 $
53144K9L2 9L220160307192010103/07/16 19:20:31  5-MIN K9L2 080320Z AUTO 25004KT 10SM CLR 07/01 A2973 2480 62 2200 240/04 RMK AO2 $
53144K9L2 9L220160307192510403/07/16 19:25:31  5-MIN K9L2 080325Z AUTO 26005KT 10SM FEW075 07/01 A2973 2480 65 2100 240/05 RMK AO2 $
53144K9L2 9L220160307193010403/07/16 19:30:31  5-MIN K9L2 080330Z AUTO 26005KT 10SM SCT070 07/01 A2973 2480 62 2200 250/05 RMK AO2 $
53144K9L2 9L220160307193510403/07/16 19:35:31  5-MIN K9L2 080335Z AUTO 28005KT 10SM BKN070 07/01 A2973 2480 62 2200 260/05 RMK AO2 $
53144K9L2 9L220160307194010403/07/16 19:40:31  5-MIN K9L2 080340Z AUTO 28005KT 10SM BKN070 07/01 A2973 2480 62 2200 270/05 RMK AO2 $
53144K9L2 9L220160307194510403/07/16 19:45:31  5-MIN K9L2 080345Z AUTO 28005KT 10SM BKN070 07/01 A2974 2470 62 2200 270/05 RMK AO2 $
53144K9L2 9L220160307195010403/07/16 19:50:31  5-MIN K9L2 080350Z AUTO 28005KT 10SM OVC070 07/01 A2974 2470 62 2200 270/05 RMK AO2 $
53144K9L2 9L220160307195512103/07/16 19:55:31  5-MIN K9L2 080355Z AUTO 28004KT 10SM OVC070 07/01 A2974 2470 62 2200 270/04 RMK AO2 SLP078 T00720006 $
53144K9L2 9L220160307200013303/07/16 20:00:31  5-MIN K9L2 080400Z AUTO 28004KT 10SM OVC065 08/01 A2974 2460 62 2200 280/04 RMK AO2 $2460 60 2200 280/04 RMK AO2 $
53144K9L2 9L220160307201510403/07/16 20:15:31  5-MIN K9L2 080415Z AUTO`39005KT 10SM OVC065 08/01 A2975 2460 60 2200 290/05 RMK AO2 $
53144K9L2 9L220160307202010403/07/16 20:20:31  5-MIN K9L2 080420Z AUTO 31004KT 10SM OVC065 08/01 A2975 2460 60 2200 300/04 RMK AO2 $
53144K9L2 9L220160307202510403/07/16 20:25:31  5-MIN K9L2 080425Z AUTO 32006KT 10SM OVC070 08/00 A2975 2460 55 2300 310/06 RMK AO2 $
53144K9L2 9L220160307203010503/07/16 20:30:31  5-MIN K9L2 080430Z AUTO 32007KT 10SM OVC070 08/M01 A2976 2460 53 2300 310/07 RMK AO2 $
53144K9L2 9L220160307203511203/07/16 20:35:31  5-MIN K9L2 080435Z AUTO 33010KT 10SM FEW046 OVC070 09/M01 A2976 2450 51 2300 310/10 RMK AO2 $
53144K9L2 9L220160307204011203/07/16 20:40:31  5-MIN K9L2 080440Z AUTO 33011KT 10SM FEW046 OVC070 09/M01 A2976 2450 51 2300 310/11 RMK AO2 $
53144K9L2 9L220160307204511103/07/16 20:45:31  5-MIN K9L2 080445Z AUTO 32013G18KT 10SM OVC070 09/M01 A2976 2450 51 2300 310/13G18 RMK AO2 $
53144K9L2 9L220160307205011803/07/16 20:50:31  5-MIN K9L2 080450Z AUTO 32012G18KT 10SM FEW046 OVC070 09/M01 A2976 2450 51 2300 310/12G18 RMK AO2 $
53144K9L2 9L220160307205512903/07/16 20:55:31  5-MIN K9L2 080455Z AUTO 32014KT 10SM FEW046 OVC070 09/M01 A2976 2450 51 2300 310/14 RMK AO2 SLP084 T00891006 $
53144K9L2 9L220160307210011103/07/16 21:00:31  5-MIN K9L2 080500Z AUTO 32015G19KT 10SM OVC070 09/M01 A2976 2450 51 2300 310/15G19 RMK AO2 $
53144K9L2 9L220160307210511103/07/16 21:05:31  5-MIN K9L2 080505Z AUTO 32014G19KT 10SM OVC070 08/M01 A2977 2440 53 2300 310/14G19 RMK AO2 $
53144K9L2 9L220160307211011703/07/16 21:10:31  5-MIN K9L2 080510Z AUTO 32014G19KT 10SM FEW045 OVC070 08/00 A2977 2440 55 2300 300/14G19 RMK AO2 $
53144K9L2 9L220160307211511103/07/16 21:15:31  5-MIN K9L2 080515Z AUTO 32015KT 10SM FEW045 OVC065 08/00 A2977 2440 55 2300 300/15 RMK AO2 $
53144K9L2 9L220160307212011103/07/16 21:20:31  5-MIN K9L2 080520Z AUTO 32011KT 10SM FEW045 BKN065 08/00 A2978 2440 55 2300 300/11 RMK AO2 $
53144K9L2 9L220160307212511103/07/16 21:25:31  5-MIN K9L2 080525Z AUTO 32011KT 10SM FEW045 BKN065 08/00 A2978 2430 55 2300 310/11 RMK AO2 $
53144K9L2 9L220160307213011103/07/16 21:30:31  5-MIN K9L2 080530Z AUTO 33013KT 10SM FEW045 SCT060 08/00 A2978 2430 55 2200 310/13 RMK AO2 $
53144K9L2 9L220160307213511103/07/16 21:35:31  5-MIN K9L2 080535Z AUTO 33013KT 10SM FEW045 SCT060 08/00 A2978 2430 58 2200 320/13 RMK AO2 $
53144K9L2 9L220160307214010403/07/16 21:40:31  5-MIN K9L2 080540Z AUTO 33012KT 10SM FEW060 08/00 A2979 2430 58 2200 320/12 RMK AO2 $
53144K9L2 9L220160307214510103/07/16 21:45:31  5-MIN K9L2 080545Z AUTO 33010KT 10SM CLR 08/00 A2979 2420 58 2200 320/10 RMK AO2 $
53144K9L2 9L220160307215010103/07/16 21:50:31  5-MIN K9L2 080550Z AUTO 33009KT 10SM CLR 08/00 A2979 2420 58 2200 310/09 RMK AO2 $
53144K9L2 9L220160307215516803/07/16 21:55:31  5-MIN K9L2 080555Z AUTO 33011KT 10SM CLR 08/00 A2980 2420 58 2200 320/11 RMK AO2 SLP097 T00780000 10117 20067 53012 $2420 58 2200 310/12G17 RMK AO2 $
53144K9L2 9L220160307220510103/07/16 22:05:31  5-MIN K9L2 080605Z AUTO 33011KT 10SM CLR 08/00 A2980 2420 58 2200 320/11 RMK AO2 $
53144K9L2 9L220160307221010103/07/16 22:10:31  5-MIN K9L2 080610Z AUTO 34010KT 10SM CLR 07/00 A2980 2410 60 2100 330/10 RMK AO2 $
53144K9L2 9L220160307221510103/07/16 22:15:31  5-MIN K9L2 080615Z AUTO 33011KT 10SM CLR 07/00 A2980 2410 60 2100 320/11 RMK AO2 $
53144K9L2 9L220160307222010103/07/16 22:20:31  5-MIN K9L2 080620Z AUTO 33010KT 10SM CLR 07/00 A2981 2410 60 2100 320/10 RMK AO2 $
53144K9L2 9L220160307222510103/07/16 22:25:31  5-MIN K9L2 080625Z AUTO 33010KT 10SM CLR 07/00 A2981 2410 60 2100 320/10 RMK AO2 $
53144K9L2 9L220160307223010103/07/16 22:30:31  5-MIN K9L2 080630Z AUTO 34009KT 10SM CLR 07/00 A2981 2400 60 2100 320/09 RMK AO2 $
53144K9L2 9L220160307223510103/07/16 22:35:31  5-MIN K9L2 080635Z AUTO 34008KT 10SM CLR 07/00 A2981 2400 62 2000 330/08 RMK AO2 $
53144K9L2 9L220160307224010103/07/16 22:40:31  5-MIN K9L2 080640Z AUTO 35008KT 10SM CLR 07/00 A2981 2400 62 2000 330/08 RMK AO2 $
53144K9L2 9L220160307224510103/07/16 22:45:31  5-MIN K9L2 080645Z AUTO 35007KT 10SM CLR 07/00 A2982 2400 62 2000 340/07 RMK AO2 $
53144K9L2 9L220160307225010103/07/16 22:50:31  5-MIN K9L2 080650Z AUTO 34009KT 10SM CLR 07/00 A2982 2400 62 2000 330/09 RMK AO2 $
53144K9L2 9L220160307225511803/07/16 22:55:31  5-MIN K9L2 080655Z AUTO 34009KT 10SM CLR 07/00 A2982 2390 62 2000 330/09 RMK AO2 SLP104 T00670000 $
53144K9L2 9L220160307230010103/07/16 23:00:31  5-MIN K9L2 080700Z AUTO 33010KT 10SM CLR 06/00 A2982 2390 65 1900 320/10 RMK AO2 $
53144K9L2 9L220160307230510103/07/16 23:05:31  5-MIN K9L2 080705Z AUTO 33009KT 10SM CLR 07/00 A2982 2390 62 2000 320/09 RMK AO2 $
53144K9L2 9L220160307231010103/07/16 23:10:31  5-MIN K9L2 080710Z AUTO 34009KT 10SM CLR 06/00 A2982 2390 65 1900 330/09 RMK AO2 $
53144K9L2 9L220160307231510103/07/16 23:15:31  5-MIN K9L2 080715Z AUTO 34010KT 10SM CLR 06/00 A2982 2390 65 1900 320/10 RMK AO2 $
53144K9L2 9L220160307232010103/07/16 23:20:31  5-MIN K9L2 080720Z AUTO 34011KT 10SM CLR 07/00 A2983 2390 62 2000 320/11 RMK AO2 $
53144K9L2 9L220160307232510103/07/16 23:25:31  5-MIN K9L2 080725Z AUTO 33010KT 10SM CLR 07/00 A2983 2390 62 2000 320/10 RMK AO2 $
53144K9L2 9L220160307233010103/07/16 23:30:31  5-MIN K9L2 080730Z AUTO 33010KT 10SM CLR 06/00 A2983 2390 65 1900 310/10 RMK AO2 $
53144K9L2 9L220160307233510103/07/16 23:35:31  5-MIN K9L2 080735Z AUTO 33009KT 10SM CLR 06/00 A2983 2390 65 1900 310/09 RMK AO2 $
53144K9L2 9L220160307234010103/07/16 23:40:31  5-MIN K9L2 080740Z AUTO 33007KT 10SM CLR 06/00 A2983 2390 65 1900 310/07 RMK AO2 $
53144K9L2 9L220160307234510103/07/16 23:45:31  5-MIN K9L2 080745Z AUTO 32008KT 10SM CLR 06/00 A2983 2380 65 1900 310/08 RMK AO2 $
53144K9L2 9L220160307235010103/07/16 23:50:31  5-MIN K9L2 080750Z AUTO 32008KT 10SM CLR 07/00 A2984 2380 62 2000 310/08 RMK AO2 $
53144K9L2 9L220160307235515703/07/16 23:55:31  5-MIN K9L2 080755Z AUTO 31007KT 10SM CLR 07/00 A2984 2380 62 2000 300/07 RMK AO2 SLP107 T00670000 401280044 $2380 65 1900 270/05 RMK AO2 $
53144K9L2 9L220160308000510103/08/16 00:05:31  5-MIN K9L2 080805Z AUTO 29004KT 10SM CLR 05/00 A2984 2380 70 1800 280/04 RMK AO2 $
53144K9L2 9L220160308001010203/08/16 00:10:31  5-MIN K9L2 080810Z AUTO 30003KT 10SM CLR 05/M01 A2984 2380 67 1800 290/03 RMK AO2 $
53144K9L2 9L220160308001510203/08/16 00:15:31  5-MIN K9L2 080815Z AUTO 00000KT 10SM CLR 05/M01 A2984 2380 67 1800 000/00 RMK AO2 $
53144K9L2 9L220160308002010203/08/16 00:20:31  5-MIN K9L2 080820Z AUTO 00000KT 10SM CLR 05/M01 A2985 2370 67 1800 000/00 RMK AO2 $
53144K9L2 9L220160308002510203/08/16 00:25:31  5-MIN K9L2 080825Z AUTO 00000KT 10SM CLR 05/M01 A2985 2370 67 1800 000/00 RMK AO2 $
53144K9L2 9L220160308003010203/08/16 00:30:31  5-MIN K9L2 080830Z AUTO 00000KT 10SM CLR 05/M01 A2985 2370 67 1800 000/00 RMK AO2 $
53144K9L2 9L220160308003510203/08/16 00:35:31  5-MIN K9L2 080835Z AUTO 00000KT 10SM CLR 06/M01 A2985 2370 65 1800 000/00 RMK AO2 $
53144K9L2 9L220160308004010203/08/16 00:40:31  5-MIN K9L2 080840Z AUTO 00000KT 10SM CLR 05/M01 A2985 2370 67 1800 000/00 RMK AO2 $
53144K9L2 9L220160308004510103/08/16 00:45:31  5-MIN K9L2 080845Z AUTO 00000KT 10SM CLR 05/00 A2985 2370 70 1800 000/00 RMK AO2 $
53144K9L2 9L220160308005010203/08/16 00:50:31  5-MIN K9L2 080850Z AUTO 00000KT 10SM CLR 04/M01 A2986 2360 70 1700 000/00 RMK AO2 $
53144K9L2 9L220160308005512503/08/16 00:55:31  5-MIN K9L2 080855Z AUTO 00000KT 10SM CLR 04/M01 A2986 2360 70 1700 000/00 RMK AO2 SLP116 T00441006 53025 $
53144K9L2 9L220160308010010203/08/16 01:00:31  5-MIN K9L2 080900Z AUTO 00000KT 10SM CLR 05/M01 A2986 2360 67 1800 000/00 RMK AO2 $
53144K9L2 9L220160308010510203/08/16 01:05:31  5-MIN K9L2 080905Z AUTO 00000KT 10SM CLR 04/M01 A2986 2360 70 1700 000/00 RMK AO2 $
53144K9L2 9L220160308011010203/08/16 01:10:31  5-MIN K9L2 080910Z AUTO 00000KT 10SM CLR 04/M01 A2987 2350 70 1700 000/00 RMK AO2 $
53144K9L2 9L220160308011510203/08/16 01:15:31  5-MIN K9L2 080915Z AUTO 00000KT 10SM CLR 04/M01 A2987 2350 70 1700 000/00 RMK AO2 $
53144K9L2 9L220160308012010203/08/16 01:20:31  5-MIN K9L2 080920Z AUTO 00000KT 10SM CLR 04/M01 A2986 2350 73 1600 000/00 RMK AO2 $
53144K9L2 9L220160308012510203/08/16 01:25:31  5-MIN K9L2 080925Z AUTO 00000KT 10SM CLR 04/M01 A2986 2360 73 1600 000/00 RMK AO2 $
53144K9L2 9L220160308013010203/08/16 01:30:31  5-MIN K9L2 080930Z AUTO 00000KT 10SM CLR 04/M01 A2986 2360 73 1600 000/00 RMK AO2 $
53144K9L2 9L220160308013510203/08/16 01:35:31  5-MIN K9L2 080935Z AUTO 00000KT 10SM CLR 04/M01 A2986 2360 73 1600 000/00 RMK AO2 $
53144K9L2 9L220160308014010203/08/16 01:40:31  5-MIN K9L2 080940Z AUTO 00000KT 10SM CLR 03/M01 A2986 2360 76 1600 000/00 RMK AO2 $
53144K9L2 9L220160308014510203/08/16 01:45:31  5-MIN K9L2 080945Z AUTO 00000KT 10SM CLR 03/M01 A2986 2360 76 1600 000/00 RMK AO2 $
53144K9L2 9L220160308015010203/08/16 01:50:31  5-MIN K9L2 080950Z AUTO 00000KT 10SM CLR 03/M01 A2986 2360 72 1600 000/00 RMK AO2 $
53144K9L2 9L220160308015511903/08/16 01:55:31  5-MIN K9L2 080955Z AUTO 00000KT 10SM CLR 03/M01 A2986 2350 79 1500 000/00 RMK AO2 SLP120 T00281006 $
53144K9L2 9L220160308020010203/08/16 02:00:31  5-MIN K9L2 081000Z AUTO 31003KT 10SM CLR 03/M01 A2987 2350 75 1500 290/03 RMK AO2 $
53144K9L2 9L220160308020510203/08/16 02:05:31  5-MIN K9L2 081005Z AUTO 31005KT 10SM CLR 03/M01 A2987 2350 76 1500 290/05 RMK AO2 $
53144K9L2 9L220160308021010203/08/16 02:10:31  5-MIN K9L2 081010Z AUTO 29006KT 10SM CLR 03/M01 A2987 2350 76 1500 280/06 RMK AO2 $
53144K9L2 9L220160308021510103/08/16 02:15:31  5-MIN K9L2 081015Z AUTO 29007KT 10SM CLR 04/00 A2987 2350 76 1600 280/07 RMK AO2 $
53144K9L2 9L220160308022010103/08/16 02:20:31  5-MIN K9L2 081020Z AUTO 29007KT 10SM CLR 04/00 A2988 2340 76 1600 270/07 RMK AO2 $
53144K9L2 9L220160308022510103/08/16 02:25:31  5-MIN K9L2 081025Z AUTO 29007KT 10SM CLR 04/00 A2988 2340 76 1600 280/07 RMK AO2 $
53144K9L2 9L220160308023010103/08/16 02:30:31  5-MIN K9L2 081030Z AUTO 29006KT 10SM CLR 04/00 A2987 2350 76 1600 280/06 RMK AO2 $
53144K9L2 9L220160308023510103/08/16 02:35:31  5-MIN K9L2 081035Z AUTO 29007KT 10SM CLR 04/00 A2988 2340 76 1600 280/07 RMK AO2 $
53144K9L2 9L220160308024010103/08/16 02:40:31  5-MIN K9L2 081040Z AUTO 29006KT 10SM CLR 04/00 A2988 2340 76 1600 270/06 RMK AO2 $
53144K9L2 9L220160308024510103/08/16 02:45:31  5-MIN K9L2 081045Z AUTO 28005KT 10SM CLR 04/00 A2988 2340 76 1600 270/05 RMK AO2 $
53144K9L2 9L220160308025010203/08/16 02:50:31  5-MIN K9L2 081050Z AUTO 28007KT 10SM CLR 04/M01 A2988 2340 73 1600 270/07 RMK AO2 $
53144K9L2 9L220160308025511903/08/16 02:55:31  5-MIN K9L2 081055Z AUTO 29006KT 10SM CLR 04/M01 A2988 2340 73 1600 280/06 RMK AO2 SLP122 T00391006 $
53144K9L2 9L220160308030010203/08/16 03:00:31  5-MIN K9L2 081100Z AUTO 30006KT 10SM CLR 04/M01 A2988 2340 73 1600 290/06 RMK AO2 $
53144K9L2 9L220160308030510203/08/16 03:05:31  5-MIN K9L2 081105Z AUTO 30005KT 10SM CLR 03/M01 A2988 2340 76 1500 290/05 RMK AO2 $
53144K9L2 9L220160308031010203/08/16 03:10:31  5-MIN K9L2 081110Z AUTO 30005KT 10SM CLR 03/M01 A2988 2340 76 1500 290/05 RMK AO2 $
53144K9L2 9L220160308031510203/08/16 03:15:31  5-MIN K9L2 081115Z AUTO 00000KT 10SM CLR 03/M01 A2988 2340 76 1500 000/00 RMK AO2 $
53144K9L2 9L220160308032010203/08/16 03:20:31  5-MIN K9L2 081120Z AUTO 00000KT 10SM CLR 03/M01 A2988 2340 79 1500 000/00 RMK AO2 $
53144K9L2 9L220160308032510203/08/16 03:25:31  5-MIN K9L2 081125Z AUTO 00000KT 10SM CLR 03/M01 A2989 2340 79 1500 000/00 RMK AO2 $
53144K9L2 9L220160308033010203/08/16 03:30:31  5-MIN K9L2 081130Z AUTO 00000KT 10SM CLR 03/M01 A2989 2330 79 1500 000/00 RMK AO2 $
53144K9L2 9L220160308033510203/08/16 03:35:31  5-MIN K9L2 081135Z AUTO 00000KT 10SM CLR 03/M01 A2988 2340 79 1500 000/00 RMK AO2 $
53144K9L2 9L220160308034010203/08/16 03:40:31  5-MIN K9L2 081140Z AUTO 00000KT 10SM CLR 03/M01 A2988 2340 76 1500 000/00 RMK AO2 $
53144K9L2 9L220160308034510203/08/16 03:45:31  5-MIN K9L2 081145Z AUTO 00000KT 10SM CLR 03/M01 A2988 2340 79 1500 000/00 RMK AO2 $
53144K9L2 9L220160308035010903/08/16 03:50:31  5-MIN K9L2 081150Z AUTO 07003KT 10SM CLR 02/M01 A2989 2330 78 1400 050/03 RMK AO2 FZRANO $
53144K9L2 9L220160308035515003/08/16 03:55:31  5-MIN K9L2 081155Z AUTO 11005KT 10SM CLR 02/M02 A2989 2330 75 1400 090/05 RMK AO2 SLP129 70009 T00221017 10078 20017 51021 FZRANO $
53144K9L2 9L220160308040010903/08/16 04:00:31  5-MIN K9L2 081200Z AUTO 11004KT 10SM CLR 02/M02 A2989 2330 75 1400 090/04 RMK AO2 FZRANO $
53144K9L2 9L220160308040510903/08/16 04:05:31  5-MIN K9L2 081205Z AUTO 11003KT 10SM CLR 02/M02 A2989 2330 78 1300 100/03 RMK AO2 FZRANO $
53144K9L2 9L220160308041010903/08/16 04:10:31  5-MIN K9L2 081210Z AUTO 00000KT 10SM CLR 02/M02 A2990 2320 78 1300 000/00 RMK AO2 FZRANO $
53144K9L2 9L220160308041510903/08/16 04:15:31  5-MIN K9L2 081215Z AUTO 15003KT 10SM CLR 02/M02 A2990 2320 78 1300 140/03 RMK AO2 FZRANO $
53144K9L2 9L220160308042010903/08/16 04:20:31  5-MIN K9L2 081220Z AUTO 16004KT 10SM CLR 02/M02 A2990 2320 78 1300 150/04 RMK AO2 FZRANO $
53144K9L2 9L220160308042510903/08/16 04:25:31  5-MIN K9L2 081225Z AUTO 16003KT 10SM CLR 02/M02 A2991 2310 78 1300 150/03 RMK AO2 FZRANO $
53144K9L2 9L220160308043010903/08/16 04:30:31  5-MIN K9L2 081230Z AUTO 00000KT 10SM CLR 01/M02 A2991 2310 82 1200 000/00 RMK AO2 FZRANO $
53144K9L2 9L220160308043510903/08/16 04:35:31  5-MIN K9L2 081235Z AUTO 19004KT 10SM CLR 01/M02 A2991 2310 82 1200 180/04 RMK AO2 FZRANO $
53144K9L2 9L220160308044010903/08/16 04:40:31  5-MIN K9L2 081240Z AUTO 18004KT 10SM CLR 01/M02 A2991 2310 82 1200 170/04 RMK AO2 FZRANO $
53144K9L2 9L220160308044510903/08/16 04:45:31  5-MIN K9L2 081245Z AUTO 21003KT 10SM CLR 01/M02 A2992 2300 78 1200 200/03 RMK AO2 FZRANO $
53144K9L2 9L220160308045010903/08/16 04:50:31  5-MIN K9L2 081250Z AUTO 20004KT 10SM CLR 01/M02 A2992 2300 78 1200 180/04 RMK AO2 FZRANO $
53144K9L2 9L220160308045512603/08/16 04:55:31  5-MIN K9L2 081255Z AUTO 19004KT 10SM CLR 01/M02 A2992 2300 78 1200 170/04 RMK AO2 SLP142 T00111022 FZRANO $
53144K9L2 9L220160308050010903/08/16 05:00:31  5-MIN K9L2 081300Z AUTO 21003KT 10SM CLR 01/M02 A2992 2300 78 1200 200/03 RMK AO2 FZRANO $
53144K9L2 9L220160309083510103/09/16 08:35:31  5-MIN K9L2 091635Z AUTO 08003KT 10SM CLR 11/01 A3009 2150 50 2200 070/03 RMK AO2 $
53144K9L2 9L220160309084010103/09/16 08:40:31  5-MIN K9L2 091640Z AUTO 00000KT 10SM CLR 11/01 A3009 2140 48 2200 000/00 RMK AO2 $
53144K9L2 9L220160309084510103/09/16 08:45:31  5-MIN K9L2 091645Z AUTO 00000KT 10SM CLR 11/01 A3009 2150 48 2200 000/00 RMK AO2 $
53144K9L2 9L220160309085010103/09/16 08:50:31  5-MIN K9L2 091650Z AUTO 16003KT 10SM CLR 11/00 A3009 2150 46 2200 150/03 RMK AO2 $
53144K9L2 9L220160309085511803/09/16 08:55:31  5-MIN K9L2 091655Z AUTO 00000KT 10SM CLR 11/01 A3009 2140 50 2200 000/00 RMK AO2 SLP192 T01060006 $
53144K9L2 9L220160309090010103/09/16 09:00:31  5-MIN K9L2 091700Z AUTO 00000KT 10SM CLR 11/01 A3009 2140 48 2200 000/00 RMK AO2 $
53144K9L2 9L220160309090510103/09/16 09:05:31  5-MIN K9L2 091705Z AUTO 00000KT 10SM CLR 11/00 A3009 2140 46 2200 000/00 RMK AO2 $
53144K9L2 9L220160309091010103/09/16 09:10:31  5-MIN K9L2 091710Z AUTO 00000KT 10SM CLR 12/00 A3010 2140 44 2300 000/00 RMK AO2 $
53144K9L2 9L220160309091510103/09/16 09:15:31  5-MIN K9L2 091715Z AUTO 16003KT 10SM CLR 12/01 A3010 2140 46 2300 140/03 RMK AO2 $
53144K9L2 9L220160309092010103/09/16 09:20:31  5-MIN K9L2 091720Z AUTO 00000KT 10SM CLR 12/01 A3010 2130 44 2300 000/00 RMK AO2 $
53144K9L2 9L220160309092510103/09/16 09:25:31  5-MIN K9L2 091725Z AUTO 00000KT 10SM CLR 12/01 A3011 2130 44 2300 000/00 RMK AO2 $
53144K9L2 9L220160309093010103/09/16 09:30:31  5-MIN K9L2 091730Z AUTO 00000KT 10SM CLR 12/01 A3010 2130 44 2300 000/00 RMK AO2 $
53144K9L2 9L220160309093510103/09/16 09:35:31  5-MIN K9L2 091735Z AUTO 14003KT 10SM CLR 12/01 A3010 2130 44 2300 130/03 RMK AO2 $
53144K9L2 9L220160309094010103/09/16 09:40:31  5-MIN K9L2 091740Z AUTO 19003KT 10SM CLR 13/01 A3010 2140 43 2400 180/03 RMK AO2 $
53144K9L2 9L220160309094510103/09/16 09:45:31  5-MIN K9L2 091745Z AUTO 16003KT 10SM CLR 13/01 A3010 2130 43 2400 150/03 RMK AO2 $
53144K9L2 9L220160309095010103/09/16 09:50:31  5-MIN K9L2 091750Z AUTO 18003KT 10SM CLR 13/01 A3010 2140 43 2400 170/03 RMK AO2 $
53144K9L2 9L220160309095513603/09/16 09:55:31  5-MIN K9L2 091755Z AUTO 00000KT 10SM CLR 13/00 A3010 2140 41 2400 000/00 RMK AO2 SLP193 T01280000 10128 20028 53023 $
53144K9L2 9L220160309100010103/09/16 10:00:31  5-MIN K9L2 091800Z AUTO 00000KT 10SM CLR 13/01 A3010 2130 41 2500 000/00 RMK AO2 $
53144K9L2 9L220160309100510103/09/16 10:05:31  5-MIN K9L2 091805Z AUTO 16003KT 10SM CLR 13/01 A3010 2130 41 2500 150/03 RMK AO2 $
53144K9L2 9L220160309101010103/09/16 10:10:31  5-MIN K9L2 091810Z AUTO 14003KT 10SM CLR 14/01 A3010 2140 40 2500 120/03 RMK AO2 $
53144K9L2 9L220160309101510103/09/16 10:15:31  5-MIN K9L2 091815Z AUTO 15004KT 10SM CLR 14/01 A3010 2140 40 2500 140/04 RMK AO2 $
53144K9L2 9L220160309102010103/09/16 10:20:31  5-MIN K9L2 091820Z AUTO 00000KT 10SM CLR 14/01 A3010 2140 40 2500 000/00 RMK AO2 $
53144K9L2 9L220160309102510103/09/16 10:25:31  5-MIN K9L2 091825Z AUTO 00000KT 10SM CLR 14/01 A3010 2140 38 2600 000/00 RMK AO2 $
53144K9L2 9L220160309103010103/09/16 10:30:31  5-MIN K9L2 091830Z AUTO 15004KT 10SM CLR 14/01 A3010 2130 38 2600 140/04 RMK AO2 $
53144K9L2 9L220160309103510103/09/16 10:35:31  5-MIN K9L2 091835Z AUTO 00000KT 10SM CLR 14/01 A3010 2130 40 2600 000/00 RMK AO2 $
53144K9L2 9L220160309104010103/09/16 10:40:31  5-MIN K9L2 091840Z AUTO 00000KT 10SM CLR 15/01 A3010 2130 38 2700 000/00 RMK AO2 $
53144K9L2 9L220160309104510103/09/16 10:45:31  5-MIN K9L2 091845Z AUTO 00000KT 10SM CLR 16/01 A3010 2140 37 2700 000/00 RMK AO2 $
53144K9L2 9L220160309105010103/09/16 10:50:31  5-MIN K9L2 091850Z AUTO 00000KT 10SM CLR 16/01 A3010 2140 37 2700 000/00 RMK AO2 $
53144K9L2 9L220160309105511803/09/16 10:55:31  5-MIN K9L2 091855Z AUTO 12003KT 10SM CLR 16/01 A3010 2140 37 2700 110/03 RMK AO2 SLP191 T01560011 $
53144K9L2 9L220160309110010103/09/16 11:00:31  5-MIN K9L2 091900Z AUTO 00000KT 10SM CLR 16/01 A3010 2140 36 2800 000/00 RMK AO2 $
53144K9L2 9L220160309110510103/09/16 11:05:31  5-MIN K9L2 091905Z AUTO 00000KT 10SM CLR 17/01 A3010 2140 32 2900 000/00 RMK AO2 $
53144K9L2 9L220160309111010103/09/16 11:10:31  5-MIN K9L2 091910Z AUTO 00000KT 10SM CLR 17/01 A3009 2140 33 2900 000/00 RMK AO2 $
53144K9L2 9L220160309111510103/09/16 11:15:31  5-MIN K9L2 091915Z AUTO 00000KT 10SM CLR 17/01 A3009 2140 34 2900 000/00 RMK AO2 $
53144K9L2 9L220160309112010103/09/16 11:20:31  5-MIN K9L2 091920Z AUTO 11003KT 10SM CLR 17/01 A3009 2150 32 2900 100/03 RMK AO2 $
53144K9L2 9L220160309112510103/09/16 11:25:31  5-MIN K9L2 091925Z AUTO 00000KT 10SM CLR 17/00 A3009 2140 31 2900 000/00 RMK AO2 $
53144K9L2 9L220160309113010103/09/16 11:30:31  5-MIN K9L2 091930Z AUTO 12003KT 10SM CLR 18/00 A3009 2140 29 3100 110/03 RMK AO2 $
53144K9L2 9L220160309113510103/09/16 11:35:31  5-MIN K9L2 091935Z AUTO 00000KT 10SM CLR 17/00 A3009 2140 31 2900 000/00 RMK AO2 $
53144K9L2 9L220160309114010103/09/16 11:40:31  5-MIN K9L2 091940Z AUTO 00000KT 10SM CLR 18/00 A3009 2150 29 3100 000/00 RMK AO2 $
53144K9L2 9L220160309114510203/09/16 11:45:31  5-MIN K9L2 091945Z AUTO 00000KT 10SM CLR 18/M01 A3009 2150 27 3100 000/00 RMK AO2 $
53144K9L2 9L220160309115010203/09/16 11:50:31  5-MIN K9L2 091950Z AUTO 00000KT 10SM CLR 18/M01 A3008 2150 26 3100 000/00 RMK AO2 $
53144K9L2 9L220160309115511903/09/16 11:55:31  5-MIN K9L2 091955Z AUTO 00000KT 10SM CLR 19/M02 A3008 2160 24 3100 000/00 RMK AO2 SLP182 T01891017 $
53144K9L2 9L220160309120010203/09/16 12:00:31  5-MIN K9L2 092000Z AUTO 00000KT 10SM CLR 19/M02 A3008 2160 24 3100 000/00 RMK AO2 $
53144K9L2 9L220160309120510203/09/16 12:05:31  5-MIN K9L2 092005Z AUTO 00000KT 10SM CLR 19/M02 A3008 2160 23 3100 000/00 RMK AO2 $
53144K9L2 9L220160309121010203/09/16 12:10:31  5-MIN K9L2 092010Z AUTO 00000KT 10SM CLR 19/M03 A3008 2160 22 3100 000/00 RMK AO2 $
53144K9L2 9L220160309121510203/09/16 12:15:31  5-MIN K9L2 092015Z AUTO 16003KT 10SM CLR 19/M03 A3007 2160 22 3200 140/03 RMK AO2 $
53144K9L2 9L220160309122010203/09/16 12:20:31  5-MIN K9L2 092020Z AUTO 00000KT 10SM CLR 19/M03 A3007 2160 22 3200 000/00 RMK AO2 $
53144K9L2 9L220160309122510203/09/16 12:25:31  5-MIN K9L2 092025Z AUTO 00000KT 10SM CLR 18/M03 A3007 2160 23 3100 000/00 RMK AO2 $
53144K9L2 9L220160309123010203/09/16 12:30:31  5-MIN K9L2 092030Z AUTO 19003KT 10SM CLR 19/M02 A3007 2170 23 3200 170/03 RMK AO2 $
53144K9L2 9L220160309123510203/09/16 12:35:31  5-MIN K9L2 092035Z AUTO 19004KT 10SM CLR 19/M02 A3007 2170 23 3200 180/04 RMK AO2 $
53144K9L2 9L220160309124010203/09/16 12:40:31  5-MIN K9L2 092040Z AUTO 18004KT 10SM CLR 19/M02 A3007 2170 23 3200 170/04 RMK AO2 $
53144K9L2 9L220160309124510203/09/16 12:45:31  5-MIN K9L2 092045Z AUTO 00000KT 10SM CLR 19/M02 A3006 2170 23 3200 000/00 RMK AO2 $
53144K9L2 9L220160309125010203/09/16 12:50:31  5-MIN K9L2 092050Z AUTO VRB03KT 10SM CLR 19/M03 A3006 2170 22 3200 VRB/03 RMK AO2 $
53144K9L2 9L220160309125512503/09/16 12:55:31  5-MIN K9L2 092055Z AUTO 00000KT 10SM CLR 20/M03 A3006 2170 21 3300 000/00 RMK AO2 SLP175 T02001028 51013 $
53144K9L2 9L220160309130010203/09/16 13:00:31  5-MIN K9L2 092100Z AUTO 20005KT 10SM CLR 20/M03 A3006 2170 21 3300 180/05 RMK AO2 $
53144K9L2 9L220160309130510203/09/16 13:05:31  5-MIN K9L2 092105Z AUTO 18004KT 10SM CLR 20/M03 A3006 2170 20 3300 160/04 RMK AO2 $
53144K9L2 9L220160309131010203/09/16 13:10:31  5-MIN K9L2 092110Z AUTO 00000KT 10SM CLR 20/M03 A3006 2180 20 3300 000/00 RMK AO2 $
53144K9L2 9L220160309131510203/09/16 13:15:31  5-MIN K9L2 092115Z AUTO 19004KT 10SM CLR 21/M03 A3005 2180 20 3400 170/04 RMK AO2 $
53144K9L2 9L220160309132010203/09/16 13:20:31  5-MIN K9L2 092120Z AUTO VRB03KT 10SM CLR 20/M03 A3005 2180 21 3300 VRB/03 RMK AO2 $
53144K9L2 9L220160309132510203/09/16 13:25:31  5-MIN K9L2 092125Z AUTO 16004KT 10SM CLR 21/M02 A3005 2190 21 3400 140/04 RMK AO2 $
53144K9L2 9L220160309133010203/09/16 13:30:31  5-MIN K9L2 092130Z AUTO 16004KT 10SM CLR 20/M02 A3004 2190 22 3300 150/04 RMK AO2 $
53144K9L2 9L220160309133510203/09/16 13:35:31  5-MIN K9L2 092135Z AUTO VRB03KT 10SM CLR 20/M03 A3004 2190 21 3300 VRB/03 RMK AO2 $
53144K9L2 9L220160309134010203/09/16 13:40:31  5-MIN K9L2 092140Z AUTO 19003KT 10SM CLR 20/M02 A3004 2190 22 3300 170/03 RMK AO2 $
53144K9L2 9L220160309134510203/09/16 13:45:31  5-MIN K9L2 092145Z AUTO 00000KT 10SM CLR 21/M02 A3004 2190 20 3400 000/00 RMK AO2 $
53144K9L2 9L220160309135010203/09/16 13:50:31  5-MIN K9L2 092150Z AUTO 00000KT 10SM CLR 21/M02 A3004 2190 21 3400 000/00 RMK AO2 $
53144K9L2 9L220160309135511903/09/16 13:55:31  5-MIN K9L2 092155Z AUTO VRB03KT 10SM CLR 21/M02 A3004 2190 22 3400 VRB/03 RMK AO2 SLP169 T02061017 $
53144K9L2 9L220160309140010203/09/16 14:00:31  5-MIN K9L2 092200Z AUTO 17003KT 10SM CLR 21/M02 A3004 2200 22 3400 160/03 RMK AO2 $
53144K9L2 9L220160309140510203/09/16 14:05:31  5-MIN K9L2 092205Z AUTO 17003KT 10SM CLR 21/M02 A3003 2200 22 3400 160/03 RMK AO2 $
53144K9L2 9L220160309141010203/09/16 14:10:31  5-MIN K9L2 092210Z AUTO 15004KT 10SM CLR 21/M02 A3003 2200 22 3400 140/04 RMK AO2 $
53144K9L2 9L220160309141510203/09/16 14:15:31  5-MIN K9L2 092215Z AUTO 16003KT 10SM CLR 21/M01 A3003 2200 23 3400 140/03 RMK AO2 $
53144K9L2 9L220160309142010203/09/16 14:20:31  5-MIN K9L2 092220Z AUTO VRB03KT 10SM CLR 21/M01 A3003 2200 23 3400 VRB/03 RMK AO2 $
53144K9L2 9L220160309142510203/09/16 14:25:31  5-MIN K9L2 092225Z AUTO 15005KT 10SM CLR 21/M02 A3003 2200 21 3500 140/05 RMK AO2 $
53144K9L2 9L220160309143010203/09/16 14:30:31  5-MIN K9L2 092230Z AUTO 16004KT 10SM CLR 21/M02 A3003 2200 21 3500 150/04 RMK AO2 $
53144K9L2 9L220160309143510203/09/16 14:35:31  5-MIN K9L2 092235Z AUTO 14004KT 10SM CLR 21/M02 A3003 2200 21 3500 130/04 RMK AO2 $
53144K9L2 9L220160309144010203/09/16 14:40:31  5-MIN K9L2 092240Z AUTO 19004KT 10SM CLR 21/M02 A3003 2200 20 3500 170/04 RMK AO2 $
53144K9L2 9L220160309144510203/09/16 14:45:31  5-MIN K9L2 092245Z AUTO 17004KT 10SM CLR 21/M02 A3003 2200 20 3500 160/04 RMK AO2 $
53144K9L2 9L220160309145010203/09/16 14:50:31  5-MIN K9L2 092250Z AUTO 19004KT 10SM CLR 21/M02 A3003 2200 21 3500 180/04 RMK AO2 $
53144K9L2 9L220160309145511903/09/16 14:55:31  5-MIN K9L2 092255Z AUTO 19003KT 10SM CLR 22/M02 A3003 2200 20 3500 180/03 RMK AO2 SLP165 T02171017 $
53144K9L2 9L220160309150010203/09/16 15:00:31  5-MIN K9L2 092300Z AUTO 17004KT 10SM CLR 21/M02 A3002 2210 21 3500 160/04 RMK AO2 $
53144K9L2 9L220160309150510203/09/16 15:05:31  5-MIN K9L2 092305Z AUTO VRB04KT 10SM CLR 22/M02 A3002 2210 20 3500 VRB/04 RMK AO2 $
53144K9L2 9L220160309151010203/09/16 15:10:31  5-MIN K9L2 092310Z AUTO 14003KT 10SM CLR 22/M02 A3002 2210 20 3500 130/03 RMK AO2 $
53144K9L2 9L220160309151510203/09/16 15:15:31  5-MIN K9L2 092315Z AUTO VRB03KT 10SM CLR 21/M02 A3002 2210 21 3500 VRB/03 RMK AO2 $
53144K9L2 9L220160309152010203/09/16 15:20:31  5-MIN K9L2 092320Z AUTO 00000KT 10SM CLR 21/M02 A3002 2210 21 3500 000/00 RMK AO2 $
53144K9L2 9L220160309152510203/09/16 15:25:31  5-MIN K9L2 092325Z AUTO 16003KT 10SM CLR 21/M02 A3003 2210 21 3500 150/03 RMK AO2 $
53144K9L2 9L220160309153010203/09/16 15:30:31  5-MIN K9L2 092330Z AUTO 16003KT 10SM CLR 21/M01 A3003 2200 22 3500 150/03 RMK AO2 $
53144K9L2 9L220160309153510203/09/16 15:35:31  5-MIN K9L2 092335Z AUTO 00000KT 10SM CLR 22/M01 A3003 2210 21 3500 000/00 RMK AO2 $
53144K9L2 9L220160309154010203/09/16 15:40:31  5-MIN K9L2 092340Z AUTO 18003KT 10SM CLR 22/M01 A3002 2210 21 3500 160/03 RMK AO2 $
53144K9L2 9L220160309154510203/09/16 15:45:31  5-MIN K9L2 092345Z AUTO 00000KT 10SM CLR 21/M01 A3002 2210 22 3500 000/00 RMK AO2 $
53144K9L2 9L220160309155010203/09/16 15:50:31  5-MIN K9L2 092350Z AUTO 17004KT 10SM CLR 21/M01 A3002 2210 22 3500 150/04 RMK AO2 $
53144K9L2 9L220160309155513703/09/16 15:55:31  5-MIN K9L2 092355Z AUTO 16005KT 10SM CLR 22/M01 A3002 2210 21 3500 150/05 RMK AO2 SLP165 T02171011 10217 20128 58013 $
53144K9L2 9L220160309160010203/09/16 16:00:31  5-MIN K9L2 100000Z AUTO 16006KT 10SM CLR 21/M01 A3002 2210 22 3500 150/06 RMK AO2 $
53144K9L2 9L220160309160510203/09/16 16:05:31  5-MIN K9L2 100005Z AUTO 15007KT 10SM CLR 22/M01 A3002 2210 21 3500 140/07 RMK AO2 $
53144K9L2 9L220160309161010203/09/16 16:10:31  5-MIN K9L2 100010Z AUTO 16004KT 10SM CLR 22/M01 A3003 2210 21 3500 140/04 RMK AO2 $
53144K9L2 9L220160309161510203/09/16 16:15:31  5-MIN K9L2 100015Z AUTO 13004KT 10SM CLR 21/M01 A3003 2210 22 3500 120/04 RMK AO2 $
53144K9L2 9L220160309162010203/09/16 16:20:31  5-MIN K9L2 100020Z AUTO 13005KT 10SM CLR 21/M01 A3003 2210 22 3500 120/05 RMK AO2 $
53144K9L2 9L220160309162510203/09/16 16:25:31  5-MIN K9L2 100025Z AUTO 15003KT 10SM CLR 21/M01 A3003 2200 22 3500 130/03 RMK AO2 $
53144K9L2 9L220160309163010203/09/16 16:30:31  5-MIN K9L2 100030Z AUTO 15006KT 10SM CLR 21/M01 A3003 2210 22 3500 140/06 RMK AO2 $
53144K9L2 9L220160309163510203/09/16 16:35:31  5-MIN K9L2 100035Z AUTO 15003KT 10SM CLR 21/M01 A3003 2200 22 3500 140/03 RMK AO2 $
53144K9L2 9L220160309164010203/09/16 16:40:31  5-MIN K9L2 100040Z AUTO 16004KT 10SM CLR 21/M01 A3003 2200 22 3500 150/04 RMK AO2 $
53144K9L2 9L220160309164510203/09/16 16:45:31  5-MIN K9L2 100045Z AUTO 15004KT 10SM CLR 21/M01 A3003 2200 22 3500 140/04 RMK AO2 $
53144K9L2 9L220160309165010203/09/16 16:50:31  5-MIN K9L2 100050Z AUTO 15005KT 10SM CLR 22/M01 A3003 2200 21 3500 140/05 RMK AO2 $
53144K9L2 9L220160309165511903/09/16 16:55:31  5-MIN K9L2 100055Z AUTO 17004KT 10SM CLR 22/M01 A3003 2200 21 3500 150/04 RMK AO2 SLP168 T02171011 $
53144K9L2 9L220160309170010203/09/16 17:00:31  5-MIN K9L2 100100Z AUTO 17004KT 10SM CLR 21/M01 A3003 2200 22 3500 160/04 RMK AO2 $
53144K9L2 9L220160309170510203/09/16 17:05:31  5-MIN K9L2 100105Z AUTO 16005KT 10SM CLR 22/M01 A3003 2200 21 3500 150/05 RMK AO2 $
53144K9L2 9L220160309171010203/09/16 17:10:31  5-MIN K9L2 100110Z AUTO 23004KT 10SM CLR 21/M01 A3003 2200 22 3400 220/04 RMK AO2 $
53144K9L2 9L220160309171510103/09/16 17:15:31  5-MIN K9L2 100115Z AUTO 24006KT 10SM CLR 21/02 A3003 2200 27 3400 220/06 RMK AO2 $
53144K9L2 9L220160309172010103/09/16 17:20:31  5-MIN K9L2 100120Z AUTO 23005KT 10SM CLR 21/03 A3003 2200 30 3400 220/05 RMK AO2 $
53144K9L2 9L220160309172510103/09/16 17:25:31  5-MIN K9L2 100125Z AUTO 23006KT 10SM CLR 21/03 A3003 2200 30 3400 220/06 RMK AO2 $
53144K9L2 9L220160309173010103/09/16 17:30:31  5-MIN K9L2 100130Z AUTO 23007KT 10SM CLR 21/03 A3003 2200 30 3400 220/07 RMK AO2 $
53144K9L2 9L220160309173510103/09/16 17:35:31  5-MIN K9L2 100135Z AUTO 25006KT 10SM CLR 20/03 A3004 2200 31 3300 240/06 RMK AO2 $
53144K9L2 9L220160309174010103/09/16 17:40:31  5-MIN K9L2 100140Z AUTO 26006KT 10SM CLR 20/03 A3004 2200 31 3300 250/06 RMK AO2 $
53144K9L2 9L220160309174510103/09/16 17:45:31  5-MIN K9L2 100145Z AUTO 26006KT 10SM CLR 19/03 A3004 2190 33 3300 250/06 RMK AO2 $
53144K9L2 9L220160309175010103/09/16 17:50:31  5-MIN K9L2 100150Z AUTO 25006KT 10SM CLR 19/02 A3004 2190 31 3300 240/06 RMK AO2 $
53144K9L2 9L220160309175511803/09/16 17:55:31  5-MIN K9L2 100155Z AUTO 24004KT 10SM CLR 19/02 A3004 2190 31 3300 230/04 RMK AO2 SLP172 T01940022 $
53144K9L2 9L220160309180010103/09/16 18:00:31  5-MIN K9L2 100200Z AUTO 26004KT 10SM CLR 19/02 A3004 2190 32 3200 250/04 RMK AO2 $
53144K9L2 9L220160309180510103/09/16 18:05:31  5-MIN K9L2 100205Z AUTO 26005KT 10SM CLR 18/02 A3004 2190 34 3100 250/05 RMK AO2 $
53144K9L2 9L220160309181010103/09/16 18:10:31  5-MIN K9L2 100210Z AUTO 25004KT 10SM CLR 18/02 A3004 2190 34 3100 240/04 RMK AO2 $
53144K9L2 9L220160309181510103/09/16 18:15:31  5-MIN K9L2 100215Z AUTO 26004KT 10SM CLR 18/02 A3004 2190 34 3100 250/04 RMK AO2 $
53144K9L2 9L220160309182010103/09/16 18:20:31  5-MIN K9L2 100220Z AUTO 26005KT 10SM CLR 18/02 A3004 2190 34 3100 250/05 RMK AO2 $
53144K9L2 9L220160309182510103/09/16 18:25:31  5-MIN K9L2 100225Z AUTO 28005KT 10SM CLR 18/02 A3005 2190 35 3100 270/05 RMK AO2 $
53144K9L2 9L220160309183010103/09/16 18:30:31  5-MIN K9L2 100230Z AUTO 30007KT 10SM CLR 17/02 A3005 2180 36 3000 290/07 RMK AO2 $
53144K9L2 9L220160309183510103/09/16 18:35:31  5-MIN K9L2 100235Z AUTO 31008KT 10SM CLR 18/02 A3005 2190 35 3100 300/08 RMK AO2 $
53144K9L2 9L220160309184010103/09/16 18:40:31  5-MIN K9L2 100240Z AUTO 30007KT 10SM CLR 18/02 A3005 2180 35 3100 290/07 RMK AO2 $
53144K9L2 9L220160309184510103/09/16 18:45:31  5-MIN K9L2 100245Z AUTO 29007KT 10SM CLR 17/02 A3005 2180 36 3000 280/07 RMK AO2 $
53144K9L2 9L220160309185010103/09/16 18:50:31  5-MIN K9L2 100250Z AUTO 28008KT 10SM CLR 17/02 A3006 2180 36 3000 260/08 RMK AO2 $
53144K9L2 9L220160309185512403/09/16 18:55:31  5-MIN K9L2 100255Z AUTO 27006KT 10SM CLR 17/02 A3006 2180 36 3000 260/06 RMK AO2 SLP178 T01720022 56012 $
53144K9L2 9L220160309190010103/09/16 19:00:31  5-MIN K9L2 100300Z AUTO 28005KT 10SM CLR 17/02 A3006 2180 37 2900 270/05 RMK AO2 $
53144K9L2 9L220160309190510103/09/16 19:05:31  5-MIN K9L2 100305Z AUTO 29006KT 10SM CLR 17/02 A3006 2180 37 2900 280/06 RMK AO2 $
53144K9L2 9L220160309191010103/09/16 19:10:31  5-MIN K9L2 100310Z AUTO 30006KT 10SM CLR 16/02 A3006 2180 39 2800 290/06 RMK AO2 $
53144K9L2 9L220160309191510103/09/16 19:15:31  5-MIN K9L2 100315Z AUTO 29005KT 10SM CLR 16/02 A3006 2170 40 2800 280/05 RMK AO2 $
53144K9L2 9L220160309192010103/09/16 19:20:31  5-MIN K9L2 100320Z AUTO 00000KT 10SM CLR 16/02 A3006 2170 40 2800 000/00 RMK AO2 $
53144K9L2 9L220160309192510103/09/16 19:25:31  5-MIN K9L2 100325Z AUTO 15005KT 10SM CLR 16/02 A3007 2170 40 2800 130/05 RMK AO2 $
53144K9L2 9L220160309193010103/09/16 19:30:31  5-MIN K9L2 100330Z AUTO 18006KT 10SM CLR 16/02 A3007 2170 39 2800 170/06 RMK AO2 $
53144K9L2 9L220160309193510103/09/16 19:35:31  5-MIN K9L2 100335Z AUTO VRB05KT 10SM CLR 16/02 A3007 2160 39 2800 VRB/05 RMK AO2 $
53144K9L2 9L220160309194010103/09/16 19:40:31  5-MIN K9L2 100340Z AUTO VRB05KT 10SM CLR 16/02 A3007 2160 39 2800 VRB/05 RMK AO2 $
53144K9L2 9L220160309194510103/09/16 19:45:31  5-MIN K9L2 100345Z AUTO 27005KT 10SM CLR 16/02 A3007 2160 39 2800 250/05 RMK AO2 $
53144K9L2 9L220160309195010103/09/16 19:50:31  5-MIN K9L2 100350Z AUTO 29006KT 10SM CLR 16/02 A3007 2160 40 2800 270/06 RMK AO2 $
53144K9L2 9L220160309195511803/09/16 19:55:31  5-MIN K9L2 100355Z AUTO 29007KT 10SM CLR 15/02 A3007 2160 42 2700 280/07 RMK AO2 SLP184 T01500022 $
53144K9L2 9L220160309200010103/09/16 20:00:31  5-MIN K9L2 100400Z AUTO 29008KT 10SM CLR 15/02 A3007 2160 42 2700 280/08 RMK AO2 $
53144K9L2 9L220160309200510103/09/16 20:05:31  5-MIN K9L2 100405Z AUTO 29010KT 10SM CLR 15/02 A3007 2160 42 2700 280/10 RMK AO2 $
53144K9L2 9L220160309201010103/09/16 20:10:31  5-MIN K9L2 100410Z AUTO 29011KT 10SM CLR 14/03 A3007 2160 45 2600 280/11 RMK AO2 $
53144K9L2 9L220160309201510103/09/16 20:15:31  5-MIN K9L2 100415Z AUTO 29012KT 10SM CLR 14/03 A3007 2160 45 2600 270/12 RMK AO2 $
53144K9L2 9L220160309202010103/09/16 20:20:31  5-MIN K9L2 100420Z AUTO 29011KT 10SM CLR 14/03 A3007 2160 45 2600 270/11 RMK AO2 $
53144K9L2 9L220160309202510103/09/16 20:25:31  5-MIN K9L2 100425Z AUTO VRB05KT 10SM CLR 14/03 A3008 2150 45 2600 VRB/05 RMK AO2 $
53144K9L2 9L220160309203010103/09/16 20:30:31  5-MIN K9L2 100430Z AUTO 11004KT 10SM CLR 14/03 A3008 2150 45 2600 100/04 RMK AO2 $
53144K9L2 9L220160309203510103/09/16 20:35:31  5-MIN K9L2 100435Z AUTO 13005KT 10SM CLR 15/02 A3008 2150 42 2700 110/05 RMK AO2 $
53144K9L2 9L220160309204010103/09/16 20:40:31  5-MIN K9L2 100440Z AUTO VRB06KT 10SM CLR 16/02 A3008 2150 40 2800 VRB/06 RMK AO2 $
53144K9L2 9L220160309204510103/09/16 20:45:31  5-MIN K9L2 100445Z AUTO 28008KT 10SM CLR 15/02 A3008 2150 42 2700 270/08 RMK AO2 $
53144K9L2 9L220160309205010103/09/16 20:50:31  5-MIN K9L2 100450Z AUTO 29010KT 10SM CLR 15/02 A3008 2150 42 2700 270/10 RMK AO2 $
53144K9L2 9L220160309205511803/09/16 20:55:31  5-MIN K9L2 100455Z AUTO 30007KT 10SM CLR 15/02 A3009 2150 42 2700 290/07 RMK AO2 SLP187 T01500022 $
53144K9L2 9L220160309210010103/09/16 21:00:31  5-MIN K9L2 100500Z AUTO 30005KT 10SM CLR 14/02 A3009 2150 43 2600 290/05 RMK AO2 $
53144K9L2 9L220160309210510103/09/16 21:05:31  5-MIN K9L2 100505Z AUTO 00000KT 10SM CLR 14/02 A3009 2140 45 2600 000/00 RMK AO2 $
53144K9L2 9L220160309211010103/09/16 21:10:31  5-MIN K9L2 100510Z AUTO 12007KT 10SM CLR 14/02 A3009 2140 43 2600 110/07 RMK AO2 $
53144K9L2 9L220160309211510103/09/16 21:15:31  5-MIN K9L2 100515Z AUTO VRB04KT 10SM CLR 16/02 A3009 2150 40 2700 VRB/04 RMK AO2 $
53144K9L2 9L220160309212010103/09/16 21:20:31  5-MIN K9L2 100520Z AUTO VRB04KT 10SM CLR 16/02 A3009 2150 40 2700 VRB/04 RMK AO2 $
53144K9L2 9L220160309212510103/09/16 21:25:31  5-MIN K9L2 100525Z AUTO 00000KT 10SM CLR 16/02 A3009 2140 40 2700 000/00 RMK AO2 $
53144K9L2 9L220160309213010103/09/16 21:30:31  5-MIN K9L2 100530Z AUTO 00000KT 10SM CLR 16/02 A3009 2150 40 2700 000/00 RMK AO2 $
53144K9L2 9L220160309213510103/09/16 21:35:31  5-MIN K9L2 100535Z AUTO 20007KT 10SM CLR 15/02 A3009 2140 42 2700 190/07 RMK AO2 $
53144K9L2 9L220160309214010103/09/16 21:40:31  5-MIN K9L2 100540Z AUTO 24008KT 10SM CLR 14/02 A3009 2140 43 2600 230/08 RMK AO2 $
53144K9L2 9L220160309214510103/09/16 21:45:31  5-MIN K9L2 100545Z AUTO 28010KT 10SM CLR 14/02 A3009 2150 43 2600 260/10 RMK AO2 $
53144K9L2 9L220160309215010103/09/16 21:50:31  5-MIN K9L2 100550Z AUTO 28010KT 10SM CLR 14/02 A3009 2150 43 2600 260/10 RMK AO2 $
53144K9L2 9L220160309215513603/09/16 21:55:31  5-MIN K9L2 100555Z AUTO 27007KT 10SM CLR 14/02 A3009 2140 43 2600 260/07 RMK AO2 SLP188 T01440022 10217 20139 53010 $
53144K9L2 9L220160309220010103/09/16 22:00:31  5-MIN K9L2 100600Z AUTO 18012KT 10SM CLR 14/02 A3010 2140 45 2500 160/12 RMK AO2 $
53144K9L2 9L220160309220510703/09/16 22:05:31  5-MIN K9L2 100605Z AUTO VRB05G14KT 10SM CLR 14/02 A3010 2130 45 2500 VRB/05G14 RMK AO2 $
53144K9L2 9L220160309221010103/09/16 22:10:31  5-MIN K9L2 100610Z AUTO VRB04KT 10SM CLR 16/02 A3010 2130 40 2700 VRB/04 RMK AO2 $
53144K9L2 9L220160309221510103/09/16 22:15:31  5-MIN K9L2 100615Z AUTO 19005KT 10SM CLR 15/02 A3010 2130 42 2700 180/05 RMK AO2 $
53144K9L2 9L220160309222010103/09/16 22:20:31  5-MIN K9L2 100620Z AUTO 23005KT 10SM CLR 14/02 A3010 2140 43 2600 220/05 RMK AO2 $
53144K9L2 9L220160309222510103/09/16 22:25:31  5-MIN K9L2 100625Z AUTO 27008KT 10SM CLR 14/02 A3009 2140 45 2500 260/08 RMK AO2 $
53144K9L2 9L220160309223010103/09/16 22:30:31  5-MIN K9L2 100630Z AUTO 25005KT 10SM CLR 14/02 A3010 2140 45 2500 240/05 RMK AO2 $
53144K9L2 9L220160309223510103/09/16 22:35:31  5-MIN K9L2 100635Z AUTO 21004KT 10SM CLR 14/03 A3010 2140 47 2500 190/04 RMK AO2 $
53144K9L2 9L220160309224010103/09/16 22:40:31  5-MIN K9L2 100640Z AUTO 20007KT 10SM CLR 13/03 A3010 2140 48 2500 190/07 RMK AO2 $
53144K9L2 9L220160309224510103/09/16 22:45:31  5-MIN K9L2 100645Z AUTO VRB04KT 10SM CLR 14/02 A3010 2130 43 2600 VRB/04 RMK AO2 $
53144K9L2 9L220160309225010703/09/16 22:50:31  5-MIN K9L2 100650Z AUTO 14010G15KT 10SM CLR 13/02 A3011 2130 46 2500 130/10G15 RMK AO2 $
53144K9L2 9L220160309225512403/09/16 22:55:31  5-MIN K9L2 100655Z AUTO 22005G15KT 10SM CLR 13/03 A3010 2130 48 2500 210/05G15 RMK AO2 SLP191 T01330028 $
53144K9L2 9L220160309230010103/09/16 23:00:31  5-MIN K9L2 100700Z AUTO 25007KT 10SM CLR 13/03 A3010 2140 48 2500 240/07 RMK AO2 $
53144K9L2 9L220160309230510103/09/16 23:05:31  5-MIN K9L2 100705Z AUTO 25008KT 10SM CLR 12/03 A3010 2140 52 2300 240/08 RMK AO2 $
53144K9L2 9L220160309231010103/09/16 23:10:31  5-MIN K9L2 100710Z AUTO 22006KT 10SM CLR 12/03 A3010 2130 52 2300 200/06 RMK AO2 $
53144K9L2 9L220160309231510103/09/16 23:15:31  5-MIN K9L2 100715Z AUTO 20005KT 10SM CLR 12/03 A3011 2130 54 2300 190/05 RMK AO2 $
53144K9L2 9L220160309232010103/09/16 23:20:31  5-MIN K9L2 100720Z AUTO 19005KT 10SM CLR 12/03 A3011 2130 54 2300 170/05 RMK AO2 $
53144K9L2 9L220160309232510103/09/16 23:25:31  5-MIN K9L2 100725Z AUTO 16005KT 10SM CLR 12/03 A3011 2130 54 2300 150/05 RMK AO2 $
53144K9L2 9L220160309233010103/09/16 23:30:31  5-MIN K9L2 100730Z AUTO 15007KT 10SM CLR 12/03 A3011 2130 54 2300 140/07 RMK AO2 $
53144K9L2 9L220160309233510103/09/16 23:35:31  5-MIN K9L2 100735Z AUTO 20004KT 10SM CLR 12/03 A3011 2130 52 2300 190/04 RMK AO2 $
53144K9L2 9L220160309234010103/09/16 23:40:31  5-MIN K9L2 100740Z AUTO 16006KT 10SM CLR 12/03 A3011 2130 54 2300 150/06 RMK AO2 $
53144K9L2 9L220160309234510103/09/16 23:45:31  5-MIN K9L2 100745Z AUTO 17006KT 10SM CLR 12/03 A3011 2130 54 2300 160/06 RMK AO2 $
53144K9L2 9L220160309235010103/09/16 23:50:31  5-MIN K9L2 100750Z AUTO 20007KT 10SM CLR 12/03 A3011 2130 54 2300 180/07 RMK AO2 $
53144K9L2 9L220160309235512803/09/16 23:55:31  5-MIN K9L2 100755Z AUTO 20006KT 10SM CLR 12/03 A3010 2130 54 2300 190/06 RMK AO2 SLP190 T01170028 402170028 $
53144K9L2 9L220160310000010103/10/16 00:00:31  5-MIN K9L2 100800Z AUTO 22006KT 10SM CLR 11/03 A3011 2130 56 2200 200/06 RMK AO2 $
53144K9L2 9L220160310000510103/10/16 00:05:31  5-MIN K9L2 100805Z AUTO 21007KT 10SM CLR 11/03 A3010 2130 58 2200 200/07 RMK AO2 $
53144K9L2 9L220160310001010103/10/16 00:10:31  5-MIN K9L2 100810Z AUTO 18004KT 10SM CLR 11/03 A3011 2130 58 2200 170/04 RMK AO2 $
53144K9L2 9L220160310001511703/10/16 00:15:31  5-MIN K9L2 100815Z AUTO 11007KT 080V150 10SM CLR 11/03 A3011 2120 58 2200 100/07 070V140 RMK AO2 $
53144K9L2 9L220160310002010103/10/16 00:20:31  5-MIN K9L2 100820Z AUTO 18006KT 10SM CLR 11/03 A3011 2130 58 2200 160/06 RMK AO2 $
53144K9L2 9L220160310002510103/10/16 00:25:31  5-MIN K9L2 100825Z AUTO 17004KT 10SM CLR 11/03 A3011 2130 58 2200 150/04 RMK AO2 $
53144K9L2 9L220160310003010103/10/16 00:30:31  5-MIN K9L2 100830Z AUTO 18005KT 10SM CLR 11/03 A3011 2130 58 2200 170/05 RMK AO2 $
53144K9L2 9L220160310003510103/10/16 00:35:31  5-MIN K9L2 100835Z AUTO 19007KT 10SM CLR 11/03 A3011 2130 61 2100 180/07 RMK AO2 $
53144K9L2 9L220160310004010103/10/16 00:40:31  5-MIN K9L2 100840Z AUTO 20006KT 10SM CLR 11/03 A3010 2130 61 2100 190/06 RMK AO2 $
53144K9L2 9L220160310004510103/10/16 00:45:31  5-MIN K9L2 100845Z AUTO 20004KT 10SM CLR 11/03 A3010 2130 61 2100 190/04 RMK AO2 $
53144K9L2 9L220160310005010103/10/16 00:50:31  5-MIN K9L2 100850Z AUTO 18003KT 10SM CLR 11/03 A3010 2130 61 2100 170/03 RMK AO2 $
53144K9L2 9L220160310005512403/10/16 00:55:31  5-MIN K9L2 100855Z AUTO 16003KT 10SM CLR 11/03 A3010 2130 61 2100 150/03 RMK AO2 SLP189 T01060033 51013 $
53144K9L2 9L220160310010010103/10/16 01:00:31  5-MIN K9L2 100900Z AUTO 00000KT 10SM CLR 10/03 A3010 2130 60 2100 000/00 RMK AO2 $
53144K9L2 9L220160310010510103/10/16 01:05:31  5-MIN K9L2 100905Z AUTO 13003KT 10SM CLR 10/03 A3011 2130 60 2100 120/03 RMK AO2 $
53144K9L2 9L220160310011010103/10/16 01:10:31  5-MIN K9L2 100910Z AUTO 19003KT 10SM CLR 10/03 A3010 2130 60 2100 180/03 RMK AO2 $
53144K9L2 9L220160310011510103/10/16 01:15:31  5-MIN K9L2 100915Z AUTO 19003KT 10SM CLR 10/03 A3010 2130 60 2100 180/03 RMK AO2 $
53144K9L2 9L220160310012010103/10/16 01:20:31  5-MIN K9L2 100920Z AUTO 00000KT 10SM CLR 09/03 A3010 2140 63 2000 000/00 RMK AO2 $
53144K9L2 9L220160310012510103/10/16 01:25:31  5-MIN K9L2 100925Z AUTO 00000KT 10SM CLR 10/03 A3010 2140 60 2100 000/00 RMK AO2 $
53144K9L2 9L220160310013010103/10/16 01:30:31  5-MIN K9L2 100930Z AUTO 13004KT 10SM CLR 10/03 A3010 2140 60 2100 120/04 RMK AO2 $
53144K9L2 9L220160310013510103/10/16 01:35:31  5-MIN K9L2 100935Z AUTO 14003KT 10SM CLR 10/03 A3010 2140 60 2100 120/03 RMK AO2 $
53144K9L2 9L220160310014010103/10/16 01:40:31  5-MIN K9L2 100940Z AUTO 17004KT 10SM CLR 10/03 A3010 2140 60 2100 160/04 RMK AO2 $
53144K9L2 9L220160310014510103/10/16 01:45:31  5-MIN K9L2 100945Z AUTO 16004KT 10SM CLR 09/02 A3010 2140 60 2000 140/04 RMK AO2 $
53144K9L2 9L220160310015010103/10/16 01:50:31  5-MIN K9L2 100950Z AUTO 19004KT 10SM CLR 10/02 A3010 2140 58 2100 170/04 RMK AO2 $
53144K9L2 9L220160310015511803/10/16 01:55:31  5-MIN K9L2 100955Z AUTO 20004KT 10SM CLR 09/02 A3009 2140 63 2000 190/04 RMK AO2 SLP186 T00890022 $
53144K9L2 9L220160310020010103/10/16 02:00:31  5-MIN K9L2 101000Z AUTO 21004KT 10SM CLR 08/02 A3009 2140 65 1900 190/04 RMK AO2 $
53144K9L2 9L220160310020510103/10/16 02:05:31  5-MIN K9L2 101005Z AUTO 19005KT 10SM CLR 08/02 A3009 2150 65 1900 180/05 RMK AO2 $
53144K9L2 9L220160310021010103/10/16 02:10:31  5-MIN K9L2 101010Z AUTO 23003KT 10SM CLR 08/02 A3009 2150 65 1900 210/03 RMK AO2 $
53144K9L2 9L220160310021510103/10/16 02:15:31  5-MIN K9L2 101015Z AUTO 23003KT 10SM CLR 08/02 A3009 2150 68 1800 220/03 RMK AO2 $
53144K9L2 9L220160310022010103/10/16 02:20:31  5-MIN K9L2 101020Z AUTO 00000KT 10SM CLR 08/02 A3009 2150 68 1800 000/00 RMK AO2 $
53144K9L2 9L220160310022510103/10/16 02:25:31  5-MIN K9L2 101025Z AUTO 00000KT 10SM CLR 08/02 A3009 2150 68 1800 000/00 RMK AO2 $
53144K9L2 9L220160310023010103/10/16 02:30:31  5-MIN K9L2 101030Z AUTO 00000KT 10SM CLR 07/02 A3009 2150 70 1800 000/00 RMK AO2 $
53144K9L2 9L220160310023510103/10/16 02:35:31  5-MIN K9L2 101035Z AUTO 00000KT 10SM CLR 07/02 A3009 2150 70 1800 000/00 RMK AO2 $
53144K9L2 9L220160310024010103/10/16 02:40:31  5-MIN K9L2 101040Z AUTO 00000KT 10SM CLR 07/02 A3008 2150 70 1800 000/00 RMK AO2 $
53144K9L2 9L220160310024510103/10/16 02:45:31  5-MIN K9L2 101045Z AUTO 00000KT 10SM CLR 07/02 A3008 2160 70 1800 000/00 RMK AO2 $
53144K9L2 9L220160310025010103/10/16 02:50:31  5-MIN K9L2 101050Z AUTO 00000KT 10SM CLR 07/02 A3008 2160 73 1700 000/00 RMK AO2 $
53144K9L2 9L220160310025511803/10/16 02:55:31  5-MIN K9L2 101055Z AUTO 00000KT 10SM CLR 07/02 A3007 2160 73 1700 000/00 RMK AO2 SLP180 T00670022 $
53144K9L2 9L220160310030010103/10/16 03:00:31  5-MIN K9L2 101100Z AUTO 00000KT 10SM CLR 07/02 A3007 2170 73 1700 000/00 RMK AO2 $
53144K9L2 9L220160310030510103/10/16 03:05:31  5-MIN K9L2 101105Z AUTO 00000KT 10SM CLR 07/02 A3007 2170 70 1700 000/00 RMK AO2 $
53144K9L2 9L220160310031010103/10/16 03:10:31  5-MIN K9L2 101110Z AUTO 00000KT 10SM CLR 06/02 A3007 2160 73 1700 000/00 RMK AO2 $
53144K9L2 9L220160310031510103/10/16 03:15:31  5-MIN K9L2 101115Z AUTO 00000KT 10SM CLR 06/02 A3007 2170 73 1700 000/00 RMK AO2 $
53144K9L2 9L220160310032010103/10/16 03:20:31  5-MIN K9L2 101120Z AUTO 00000KT 10SM CLR 06/02 A3007 2160 76 1600 000/00 RMK AO2 $
53144K9L2 9L220160310032510103/10/16 03:25:31  5-MIN K9L2 101125Z AUTO 29003KT 10SM CLR 05/01 A3008 2160 76 1500 280/03 RMK AO2 $
53144K9L2 9L220160310033010103/10/16 03:30:31  5-MIN K9L2 101130Z AUTO 30003KT 10SM CLR 06/02 A3008 2160 76 1600 280/03 RMK AO2 $
53144K9L2 9L220160310033510103/10/16 03:35:31  5-MIN K9L2 101135Z AUTO 30003KT 10SM CLR 06/02 A3008 2160 76 1600 290/03 RMK AO2 $
53144K9L2 9L220160310034010103/10/16 03:40:31  5-MIN K9L2 101140Z AUTO 00000KT 10SM CLR 06/02 A3008 2160 76 1600 000/00 RMK AO2 $
53144K9L2 9L220160310034510103/10/16 03:45:31  5-MIN K9L2 101145Z AUTO 00000KT 10SM CLR 06/02 A3008 2160 76 1600 000/00 RMK AO2 $
53144K9L2 9L220160310035010103/10/16 03:50:31  5-MIN K9L2 101150Z AUTO 00000KT 10SM CLR 05/01 A3008 2160 76 1500 000/00 RMK AO2 $
53144K9L2 9L220160310035513603/10/16 03:55:31  5-MIN K9L2 101155Z AUTO 00000KT 10SM CLR 05/01 A3008 2160 76 1500 000/00 RMK AO2 SLP183 T00500011 10156 20050 50002 $
53144K9L2 9L220160310040010103/10/16 04:00:31  5-MIN K9L2 101200Z AUTO 00000KT 10SM CLR 05/01 A3008 2160 76 1500 000/00 RMK AO2 $
53144K9L2 9L220160310040510103/10/16 04:05:31  5-MIN K9L2 101205Z AUTO 00000KT 10SM CLR 05/01 A3008 2160 76 1500 000/00 RMK AO2 $
53144K9L2 9L220160310041010103/10/16 04:10:31  5-MIN K9L2 101210Z AUTO 33003KT 10SM CLR 05/01 A3007 2160 76 1500 310/03 RMK AO2 $
53144K9L2 9L220160310041510103/10/16 04:15:31  5-MIN K9L2 101215Z AUTO 33003KT 10SM CLR 04/01 A3007 2160 79 1400 320/03 RMK AO2 $
53144K9L2 9L220160310042010103/10/16 04:20:31  5-MIN K9L2 101220Z AUTO 00000KT 10SM CLR 04/01 A3007 2160 79 1400 000/00 RMK AO2 $
53144K9L2 9L220160310042510103/10/16 04:25:31  5-MIN K9L2 101225Z AUTO 36003KT 10SM CLR 05/01 A3007 2160 76 1500 340/03 RMK AO2 $
53144K9L2 9L220160310043010103/10/16 04:30:31  5-MIN K9L2 101230Z AUTO 01003KT 10SM CLR 04/01 A3008 2160 79 1400 360/03 RMK AO2 $
53144K9L2 9L220160310043510103/10/16 04:35:31  5-MIN K9L2 101235Z AUTO 00000KT 10SM CLR 04/01 A3008 2160 76 1400 000/00 RMK AO2 $
53144K9L2 9L220160310044010103/10/16 04:40:31  5-MIN K9L2 101240Z AUTO 00000KT 10SM CLR 04/01 A3008 2160 76 1400 000/00 RMK AO2 $
53144K9L2 9L220160310044510103/10/16 04:45:31  5-MIN K9L2 101245Z AUTO 00000KT 10SM CLR 04/01 A3008 2160 79 1400 000/00 RMK AO2 $
53144K9L2 9L220160310045010103/10/16 04:50:31  5-MIN K9L2 101250Z AUTO 00000KT 10SM CLR 04/01 A3008 2160 79 1400 000/00 RMK AO2 $
53144K9L2 9L220160310045511803/10/16 04:55:31  5-MIN K9L2 101255Z AUTO 00000KT 10SM CLR 04/01 A3008 2150 76 1400 000/00 RMK AO2 SLP185 T00440006 $
53144K9L2 9L220160310050010103/10/16 05:00:31  5-MIN K9L2 101300Z AUTO 00000KT 10SM CLR 04/01 A3008 2160 79 1400 000/00 RMK AO2 $
53144K9L2 9L220160310050510103/10/16 05:05:31  5-MIN K9L2 101305Z AUTO 00000KT 10SM CLR 04/01 A3008 2150 79 1400 000/00 RMK AO2 $
53144K9L2 9L220160310051010103/10/16 05:10:31  5-MIN K9L2 101310Z AUTO 00000KT 10SM CLR 04/01 A3008 2150 79 1400 000/00 RMK AO2 $
53144K9L2 9L220160310051510103/10/16 05:15:31  5-MIN K9L2 101315Z AUTO 00000KT 10SM CLR 04/01 A3008 2150 76 1400 000/00 RMK AO2 $
53144K9L2 9L220160310052010103/10/16 05:20:31  5-MIN K9L2 101320Z AUTO 00000KT 10SM CLR 04/01 A3008 2150 79 1400 000/00 RMK AO2 $
53144K9L2 9L220160310052510103/10/16 05:25:31  5-MIN K9L2 101325Z AUTO 00000KT 10SM CLR 04/01 A3008 2150 79 1400 000/00 RMK AO2 $
53144K9L2 9L220160310053010103/10/16 05:30:31  5-MIN K9L2 101330Z AUTO 00000KT 10SM CLR 04/01 A3008 2150 76 1400 000/00 RMK AO2 $
53144K9L2 9L220160310053510103/10/16 05:35:31  5-MIN K9L2 101335Z AUTO 00000KT 10SM CLR 04/01 A3008 2150 79 1400 000/00 RMK AO2 $
53144K9L2 9L220160310054010103/10/16 05:40:31  5-MIN K9L2 101340Z AUTO 00000KT 10SM CLR 04/01 A3008 2150 76 1400 000/00 RMK AO2 $
53144K9L2 9L220160310054510103/10/16 05:45:31  5-MIN K9L2 101345Z AUTO 00000KT 10SM CLR 04/01 A3008 2150 76 1400 000/00 RMK AO2 $
53144K9L2 9L220160310055010103/10/16 05:50:31  5-MIN K9L2 101350Z AUTO 00000KT 10SM CLR 04/01 A3008 2150 79 1400 000/00 RMK AO2 $
53144K9L2 9L220160313020010103/13/16 02:00:31  5-MIN K9L2 131000Z AUTO 25016KT 10SM CLR 09/02 A3006 2170 58 2100 240/16 RMK AO2 $
53144K9L2 9L220160313020510103/13/16 02:05:31  5-MIN K9L2 131005Z AUTO 25014KT 10SM CLR 09/02 A3006 2170 58 2100 240/14 RMK AO2 $
53144K9L2 9L220160313021010103/13/16 02:10:31  5-MIN K9L2 131010Z AUTO 25016KT 10SM CLR 09/02 A3006 2170 58 2100 240/16 RMK AO2 $
53144K9L2 9L220160313021510103/13/16 02:15:31  5-MIN K9L2 131015Z AUTO 25015KT 10SM CLR 09/02 A3006 2170 58 2100 240/15 RMK AO2 $
53144K9L2 9L220160313022010703/13/16 02:20:31  5-MIN K9L2 131020Z AUTO 26018G24KT 10SM CLR 09/02 A3006 2170 58 2100 240/18G24 RMK AO2 $
53144K9L2 9L220160313022510703/13/16 02:25:31  5-MIN K9L2 131025Z AUTO 25018G24KT 10SM CLR 09/02 A3007 2170 58 2100 240/18G24 RMK AO2 $
53144K9L2 9L220160313023010103/13/16 02:30:31  5-MIN K9L2 131030Z AUTO 25016KT 10SM CLR 09/02 A3007 2170 58 2100 240/16 RMK AO2 $
53144K9L2 9L220160313023510103/13/16 02:35:31  5-MIN K9L2 131035Z AUTO 25016KT 10SM CLR 09/02 A3007 2160 58 2100 230/16 RMK AO2 $
53144K9L2 9L220160313024010703/13/16 02:40:31  5-MIN K9L2 131040Z AUTO 25016G24KT 10SM CLR 09/02 A3007 2170 58 2100 240/16G24 RMK AO2 $
53144K9L2 9L220160313024510703/13/16 02:45:31  5-MIN K9L2 131045Z AUTO 26016G24KT 10SM CLR 09/02 A3006 2170 58 2100 240/16G24 RMK AO2 $
53144K9L2 9L220160313025012503/13/16 02:50:31  5-MIN K9L2 131050Z AUTO 26018G26KT 10SM CLR 09/02 A3006 2180 58 2100 250/18G26 RMK AO2 PK WND 26026/1047 $
53144K9L2 9L220160313025514203/13/16 02:55:31  5-MIN K9L2 131055Z AUTO 26016G26KT 10SM CLR 09/02 A3006 2180 58 2100 240/16G26 RMK AO2 PK WND 26026/1047 SLP177 T00940017 $
53144K9L2 9L220160313030010103/13/16 03:00:31  5-MIN K9L2 131100Z AUTO 24015KT 10SM CLR 09/02 A3006 2180 58 2100 230/15 RMK AO2 $
53144K9L2 9L220160313030510703/13/16 03:05:31  5-MIN K9L2 131105Z AUTO 25019G24KT 10SM CLR 09/02 A3006 2180 63 2000 230/19G24 RMK AO2 $
53144K9L2 9L220160313031010703/13/16 03:10:31  5-MIN K9L2 131110Z AUTO 24017G24KT 10SM CLR 09/02 A3006 2170 60 2000 230/17G24 RMK AO2 $
53144K9L2 9L220160313031510103/13/16 03:15:31  5-MIN K9L2 131115Z AUTO 24018KT 10SM CLR 09/02 A3006 2170 63 2000 230/18 RMK AO2 $
53144K9L2 9L220160313032010103/13/16 03:20:31  5-MIN K9L2 131120Z AUTO 24018KT 10SM CLR 09/02 A3006 2170 63 2000 220/18 RMK AO2 $
53144K9L2 9L220160313032510103/13/16 03:25:31  5-MIN K9L2 131125Z AUTO 24017KT 10SM CLR 09/02 A3006 2170 63 2000 220/17 RMK AO2 $
53144K9L2 9L220160313033010703/13/16 03:30:31  5-MIN K9L2 131130Z AUTO 23018G24KT 10SM CLR 09/02 A3005 2180 60 2100 220/18G24 RMK AO2 $
53144K9L2 9L220160313033512503/13/16 03:35:31  5-MIN K9L2 131135Z AUTO 24020G28KT 10SM CLR 09/02 A3006 2180 60 2100 220/20G28 RMK AO2 PK WND 24028/1135 $
53144K9L2 9L220160313034012503/13/16 03:40:31  5-MIN K9L2 131140Z AUTO 24017G28KT 10SM CLR 09/02 A3005 2180 60 2100 230/17G28 RMK AO2 PK WND 24028/1135 $
53144K9L2 9L220160313034512503/13/16 03:45:31  5-MIN K9L2 131145Z AUTO 24020G27KT 10SM CLR 10/02 A3005 2180 58 2100 230/20G27 RMK AO2 PK WND 24028/1135 $
53144K9L2 9L220160313035012503/13/16 03:50:31  5-MIN K9L2 131150Z AUTO 25020G27KT 10SM CLR 09/02 A3005 2180 60 2100 240/20G27 RMK AO2 PK WND 24028/1135 $
53144K9L2 9L220160313035516003/13/16 03:55:31  5-MIN K9L2 131155Z AUTO 26022G27KT 10SM CLR 09/02 A3005 2180 60 2100 240/22G27 RMK AO2 PK WND 24028/1135 SLP176 T00940022 10106 20089 56008 $
53144K9L2 9L220160313040012503/13/16 04:00:31  5-MIN K9L2 131200Z AUTO 26021G28KT 10SM CLR 09/02 A3005 2180 60 2100 250/21G28 RMK AO2 PK WND 26027/1157 $
53144K9L2 9L220160313040512503/13/16 04:05:31  5-MIN K9L2 131205Z AUTO 26022G28KT 10SM CLR 09/02 A3005 2180 60 2100 250/22G28 RMK AO2 PK WND 26027/1204 $
53144K9L2 9L220160313041012503/13/16 04:10:31  5-MIN K9L2 131210Z AUTO 26020G27KT 10SM CLR 10/02 A3006 2180 58 2100 240/20G27 RMK AO2 PK WND 26027/1204 $
53144K9L2 9L220160313041512503/13/16 04:15:31  5-MIN K9L2 131215Z AUTO 26017G26KT 10SM CLR 09/02 A3006 2170 60 2100 240/17G26 RMK AO2 PK WND 26027/1204 $
53144K9L2 9L220160313042012503/13/16 04:20:31  5-MIN K9L2 131220Z AUTO 26019G25KT 10SM CLR 10/02 A3006 2170 58 2100 240/19G25 RMK AO2 PK WND 26027/1204 $
53144K9L2 9L220160313042511903/13/16 04:25:31  5-MIN K9L2 131225Z AUTO 26018KT 10SM CLR 09/02 A3006 2180 60 2100 250/18 RMK AO2 PK WND 26027/1204 $
53144K9L2 9L220160313043011903/13/16 04:30:31  5-MIN K9L2 131230Z AUTO 26015KT 10SM CLR 09/02 A3006 2170 60 2100 240/15 RMK AO2 PK WND 26027/1204 $
53144K9L2 9L220160313043511903/13/16 04:35:31  5-MIN K9L2 131235Z AUTO 26014KT 10SM CLR 09/02 A3007 2170 60 2100 240/14 RMK AO2 PK WND 26027/1204 $
53144K9L2 9L220160313044011903/13/16 04:40:31  5-MIN K9L2 131240Z AUTO 26015KT 10SM CLR 09/02 A3007 2170 60 2100 240/15 RMK AO2 PK WND 26027/1204 $
53144K9L2 9L220160313044511903/13/16 04:45:31  5-MIN K9L2 131245Z AUTO 25013KT 10SM CLR 09/02 A3007 2160 60 2100 240/13 RMK AO2 PK WND 26027/1204 $
53144K9L2 9L220160313045012503/13/16 04:50:31  5-MIN K9L2 131250Z AUTO 24012G20KT 10SM CLR 09/02 A3007 2160 60 2100 230/12G20 RMK AO2 PK WND 26027/1204 $
53144K9L2 9L220160313045514203/13/16 04:55:31  5-MIN K9L2 131255Z AUTO 25014G21KT 10SM CLR 09/02 A3007 2170 60 2100 230/14G21 RMK AO2 PK WND 26027/1204 SLP182 T00940022 $
53144K9L2 9L220160313050010703/13/16 05:00:31  5-MIN K9L2 131300Z AUTO 24013G21KT 10SM CLR 09/02 A3007 2160 60 2100 230/13G21 RMK AO2 $
53144K9L2 9L220160313050510103/13/16 05:05:31  5-MIN K9L2 131305Z AUTO 23013KT 10SM CLR 09/02 A3007 2160 60 2100 220/13 RMK AO2 $
53144K9L2 9L220160313051010703/13/16 05:10:31  5-MIN K9L2 131310Z AUTO 22010G19KT 10SM CLR 09/02 A3007 2160 60 2000 210/10G19 RMK AO2 $
53144K9L2 9L220160313051510103/13/16 05:15:31  5-MIN K9L2 131315Z AUTO 23009KT 10SM CLR 09/02 A3007 2160 63 2000 210/09 RMK AO2 $
53144K9L2 9L220160313052010103/13/16 05:20:31  5-MIN K9L2 131320Z AUTO 22009KT 10SM CLR 09/02 A3007 2160 63 2000 200/09 RMK AO2 $
53144K9L2 9L220160313052510103/13/16 05:25:31  5-MIN K9L2 131325Z AUTO 23009KT 10SM CLR 09/02 A3008 2160 63 2000 210/09 RMK AO2 $
53144K9L2 9L220160313053010103/13/16 05:30:31  5-MIN K9L2 131330Z AUTO 23009KT 10SM CLR 09/02 A3008 2160 63 2000 210/09 RMK AO2 $
53144K9L2 9L220160313053510103/13/16 05:35:31  5-MIN K9L2 131335Z AUTO 24006KT 10SM CLR 09/02 A3008 2160 63 2000 230/06 RMK AO2 $
53144K9L2 9L220160313054010103/13/16 05:40:31  5-MIN K9L2 131340Z AUTO 20005KT 10SM CLR 08/02 A3008 2160 65 1900 190/05 RMK AO2 $
53144K9L2 9L220160313054510103/13/16 05:45:31  5-MIN K9L2 131345Z AUTO 22003KT 10SM CLR 08/02 A3008 2150 65 1900 210/03 RMK AO2 $
53144K9L2 9L220160313055010103/13/16 05:50:31  5-MIN K9L2 131350Z AUTO 00000KT 10SM CLR 09/02 A3008 2150 63 2000 000/00 RMK AO2 $
53144K9L2 9L220160313055511803/13/16 05:55:31  5-MIN K9L2 131355Z AUTO 00000KT 10SM CLR 09/02 A3008 2150 63 2000 000/00 RMK AO2 SLP189 T00890022 $
53144K9L2 9L220160313060010103/13/16 06:00:31  5-MIN K9L2 131400Z AUTO 18004KT 10SM CLR 08/02 A3009 2150 65 1900 170/04 RMK AO2 $
53144K9L2 9L220160313060510103/13/16 06:05:31  5-MIN K9L2 131405Z AUTO 19003KT 10SM CLR 08/02 A3009 2150 65 1900 170/03 RMK AO2 $
53144K9L2 9L220160313061010103/13/16 06:10:31  5-MIN K9L2 131410Z AUTO VRB03KT 10SM CLR 08/02 A3009 2150 65 1900 VRB/03 RMK AO2 $
53144K9L2 9L220160313061510103/13/16 06:15:31  5-MIN K9L2 131415Z AUTO 27009KT 10SM CLR 09/02 A3009 2150 63 2000 260/09 RMK AO2 $
53144K9L2 9L220160313062010103/13/16 06:20:31  5-MIN K9L2 131420Z AUTO 21006KT 10SM CLR 09/02 A3009 2150 63 2000 190/06 RMK AO2 $
53144K9L2 9L220160313062510103/13/16 06:25:31  5-MIN K9L2 131425Z AUTO 22006KT 10SM CLR 09/02 A3009 2150 63 2000 210/06 RMK AO2 $
53144K9L2 9L220160313063010103/13/16 06:30:31  5-MIN K9L2 131430Z AUTO 22009KT 10SM CLR 09/02 A3009 2150 63 2000 210/09 RMK AO2 $
53144K9L2 9L220160313063510103/13/16 06:35:31  5-MIN K9L2 131435Z AUTO 23011KT 10SM CLR 09/02 A3009 2150 63 2000 210/11 RMK AO2 $
53144K9L2 9L220160313064010703/13/16 06:40:31  5-MIN K9L2 131440Z AUTO 22014G23KT 10SM CLR 09/02 A3009 2150 60 2000 200/14G23 RMK AO2 $
53144K9L2 9L220160313064510703/13/16 06:45:31  5-MIN K9L2 131445Z AUTO 23011G23KT 10SM CLR 10/02 A3009 2140 58 2100 210/11G23 RMK AO2 $
53144K9L2 9L220160313065010703/13/16 06:50:31  5-MIN K9L2 131450Z AUTO 21013G22KT 10SM CLR 10/02 A3009 2150 58 2100 200/13G22 RMK AO2 $
53144K9L2 9L220160313065513003/13/16 06:55:31  5-MIN K9L2 131455Z AUTO 23013G18KT 10SM CLR 10/02 A3009 2140 58 2100 210/13G18 RMK AO2 SLP192 T01000022 56009 $
53144K9L2 9L220160313070010703/13/16 07:00:31  5-MIN K9L2 131500Z AUTO 24008G19KT 10SM CLR 10/02 A3009 2140 58 2100 230/08G19 RMK AO2 $
53144K9L2 9L220160313070510703/13/16 07:05:31  5-MIN K9L2 131505Z AUTO 20010G19KT 10SM CLR 10/02 A3009 2140 58 2100 190/10G19 RMK AO2 $
53144K9L2 9L220160313071010103/13/16 07:10:31  5-MIN K9L2 131510Z AUTO 17007KT 10SM CLR 08/03 A3010 2140 68 1900 160/07 RMK AO2 $
53144K9L2 9L220160313071510103/13/16 07:15:31  5-MIN K9L2 131515Z AUTO 17009KT 10SM CLR 08/03 A3010 2140 68 1900 160/09 RMK AO2 $
53144K9L2 9L220160313072010103/13/16 07:20:31  5-MIN K9L2 131520Z AUTO VRB03KT 10SM CLR 08/03 A3010 2140 68 1900 VRB/03 RMK AO2 $
53144K9L2 9L220160313072510103/13/16 07:25:31  5-MIN K9L2 131525Z AUTO 00000KT 10SM CLR 10/03 A3010 2140 60 2100 000/00 RMK AO2 $
53144K9L2 9L220160313073010103/13/16 07:30:31  5-MIN K9L2 131530Z AUTO 24008KT 10SM CLR 11/03 A3010 2140 58 2100 220/08 RMK AO2 $
53144K9L2 9L220160313073510703/13/16 07:35:31  5-MIN K9L2 131535Z AUTO 25012G17KT 10SM CLR 11/03 A3010 2140 56 2200 240/12G17 RMK AO2 $
53144K9L2 9L220160313074010703/13/16 07:40:31  5-MIN K9L2 131540Z AUTO 25007G17KT 10SM CLR 11/03 A3010 2130 56 2200 240/07G17 RMK AO2 $
53144K9L2 9L220160313074512303/13/16 07:45:31  5-MIN K9L2 131545Z AUTO 23010G19KT 190V260 10SM CLR 11/03 A3010 2130 58 2200 220/10G19 180V250 RMK AO2 $
53144K9L2 9L220160313075010703/13/16 07:50:31  5-MIN K9L2 131550Z AUTO 26013G19KT 10SM CLR 11/03 A3010 2140 58 2200 250/13G19 RMK AO2 $
53144K9L2 9L220160313075512403/13/16 07:55:31  5-MIN K9L2 131555Z AUTO 26013G19KT 10SM CLR 12/03 A3010 2140 56 2300 250/13G19 RMK AO2 SLP192 T01170033 $
53144K9L2 9L220160313080010103/13/16 08:00:31  5-MIN K9L2 131600Z AUTO 26015KT 10SM CLR 12/03 A3009 2140 56 2300 240/15 RMK AO2 $
53144K9L2 9L220160313080512303/13/16 08:05:31  5-MIN K9L2 131605Z AUTO 24007G19KT 210V270 10SM CLR 12/03 A3010 2140 56 2300 230/07G19 200V260 RMK AO2 $
53144K9L2 9L220160313081010703/13/16 08:10:31  5-MIN K9L2 131610Z AUTO 26014G19KT 10SM CLR 12/03 A3010 2140 54 2300 240/14G19 RMK AO2 $
53144K9L2 9L220160313081512503/13/16 08:15:31  5-MIN K9L2 131615Z AUTO 27020G26KT 10SM CLR 12/03 A3010 2140 54 2400 260/20G26 RMK AO2 PK WND 28026/1615 $
53144K9L2 9L220160313082012503/13/16 08:20:31  5-MIN K9L2 131620Z AUTO 27017G26KT 10SM CLR 12/03 A3010 2140 54 2300 260/17G26 RMK AO2 PK WND 28026/1615 $
53144K9L2 9L220160313082511903/13/16 08:25:31  5-MIN K9L2 131625Z AUTO 26016KT 10SM CLR 13/03 A3010 2140 52 2400 250/16 RMK AO2 PK WND 28026/1615 $
53144K9L2 9L220160313083012503/13/16 08:30:31  5-MIN K9L2 131630Z AUTO 27017G22KT 10SM CLR 13/03 A3010 2140 52 2400 260/17G22 RMK AO2 PK WND 28026/1615 $
53144K9L2 9L220160313083512503/13/16 08:35:31  5-MIN K9L2 131635Z AUTO 26014G24KT 10SM CLR 13/03 A3010 2140 52 2400 250/14G24 RMK AO2 PK WND 28026/1615 $
53144K9L2 9L220160313084012503/13/16 08:40:31  5-MIN K9L2 131640Z AUTO 27020G26KT 10SM CLR 13/03 A3009 2140 48 2500 260/20G26 RMK AO2 PK WND 27026/1640 $
53144K9L2 9L220160313084512503/13/16 08:45:31  5-MIN K9L2 131645Z AUTO 27021G27KT 10SM CLR 13/03 A3009 2150 48 2500 260/21G27 RMK AO2 PK WND 28027/1645 $
53144K9L2 9L220160313085012503/13/16 08:50:31  5-MIN K9L2 131650Z AUTO 27021G27KT 10SM CLR 13/03 A3009 2150 48 2500 260/21G27 RMK AO2 PK WND 27027/1646 $
53144K9L2 9L220160313085514203/13/16 08:55:31  5-MIN K9L2 131655Z AUTO 26018G27KT 10SM CLR 13/03 A3009 2150 48 2500 250/18G27 RMK AO2 PK WND 27027/1646 SLP190 T01330028 $
53144K9L2 9L220160313090010703/13/16 09:00:31  5-MIN K9L2 131700Z AUTO 26017G24KT 10SM CLR 14/03 A3009 2150 48 2600 250/17G24 RMK AO2 $
53144K9L2 9L220160313090510703/13/16 09:05:31  5-MIN K9L2 131705Z AUTO 26017G24KT 10SM CLR 14/03 A3009 2150 48 2600 250/17G24 RMK AO2 $
53144K9L2 9L220160313091012503/13/16 09:10:31  5-MIN K9L2 131710Z AUTO 27017G26KT 10SM CLR 14/03 A3009 2150 48 2600 250/17G26 RMK AO2 PK WND 26026/1708 $
53144K9L2 9L220160313091512503/13/16 09:15:31  5-MIN K9L2 131715Z AUTO 26016G26KT 10SM CLR 14/03 A3009 2150 48 2600 240/16G26 RMK AO2 PK WND 26026/1708 $
53144K9L2 9L220160313092012503/13/16 09:20:31  5-MIN K9L2 131720Z AUTO 27016G22KT 10SM CLR 14/03 A3008 2150 48 2600 250/16G22 RMK AO2 PK WND 26026/1708 $
53144K9L2 9L220160313092512503/13/16 09:25:31  5-MIN K9L2 131725Z AUTO 26016G21KT 10SM CLR 14/03 A3008 2150 47 2600 240/16G21 RMK AO2 PK WND 26026/1708 $
53144K9L2 9L220160313093012503/13/16 09:30:31  5-MIN K9L2 131730Z AUTO 26018G23KT 10SM CLR 14/04 A3008 2150 49 2600 250/18G23 RMK AO2 PK WND 26026/1708 $
53144K9L2 9L220160313093512503/13/16 09:35:31  5-MIN K9L2 131735Z AUTO 27019G23KT 10SM CLR 14/03 A3008 2150 47 2600 250/19G23 RMK AO2 PK WND 26026/1708 $
53144K9L2 9L220160313094012503/13/16 09:40:31  5-MIN K9L2 131740Z AUTO 26017G22KT 10SM CLR 14/03 A3008 2150 47 2600 250/17G22 RMK AO2 PK WND 26026/1708 $
53144K9L2 9L220160313094512503/13/16 09:45:31  5-MIN K9L2 131745Z AUTO 27015G22KT 10SM CLR 15/03 A3008 2150 45 2700 250/15G22 RMK AO2 PK WND 26026/1708 $
53144K9L2 9L220160313095012503/13/16 09:50:31  5-MIN K9L2 131750Z AUTO 26014G22KT 10SM CLR 15/03 A3008 2150 45 2700 250/14G22 RMK AO2 PK WND 26026/1708 $
53144K9L2 9L220160313095516003/13/16 09:55:31  5-MIN K9L2 131755Z AUTO 27015G21KT 10SM CLR 15/04 A3008 2150 47 2700 250/15G21 RMK AO2 PK WND 26026/1708 SLP186 T01500039 10150 20078 51014 $
53144K9L2 9L220160313100010703/13/16 10:00:31  5-MIN K9L2 131800Z AUTO 27016G23KT 10SM CLR 15/04 A3008 2150 47 2700 260/16G23 RMK AO2 $
53144K9L2 9L220160313100510703/13/16 10:05:31  5-MIN K9L2 131805Z AUTO 25016G23KT 10SM CLR 15/04 A3008 2150 47 2700 240/16G23 RMK AO2 $
53144K9L2 9L220160313101010703/13/16 10:10:31  5-MIN K9L2 131810Z AUTO 26016G23KT 10SM CLR 15/04 A3008 2160 47 2700 240/16G23 RMK AO2 $
53144K9L2 9L220160313101510703/13/16 10:15:31  5-MIN K9L2 131815Z AUTO 25016G23KT 10SM CLR 16/04 A3008 2160 45 2800 240/16G23 RMK AO2 $
53144K9L2 9L220160313102010703/13/16 10:20:31  5-MIN K9L2 131820Z AUTO 27014G22KT 10SM CLR 16/04 A3008 2160 45 2800 250/14G22 RMK AO2 $
53144K9L2 9L220160313102510703/13/16 10:25:31  5-MIN K9L2 131825Z AUTO 25014G22KT 10SM CLR 16/04 A3008 2160 45 2800 240/14G22 RMK AO2 $
53144K9L2 9L220160313103010703/13/16 10:30:31  5-MIN K9L2 131830Z AUTO 25015G22KT 10SM CLR 16/03 A3007 2160 42 2800 240/15G22 RMK AO2 $
53144K9L2 9L220160313103510103/13/16 10:35:31  5-MIN K9L2 131835Z AUTO 26015KT 10SM CLR 16/03 A3007 2160 43 2800 240/15 RMK AO2 $
53144K9L2 9L220160313104010103/13/16 10:40:31  5-MIN K9L2 131840Z AUTO 26014KT 10SM CLR 16/04 A3007 2160 44 2800 240/14 RMK AO2 $
53144K9L2 9L220160313104510703/13/16 10:45:31  5-MIN K9L2 131845Z AUTO 27018G25KT 10SM CLR 16/04 A3007 2170 44 2800 260/18G25 RMK AO2 $
53144K9L2 9L220160313105010703/13/16 10:50:31  5-MIN K9L2 131850Z AUTO 27021G25KT 10SM CLR 16/04 A3007 2160 44 2800 260/21G25 RMK AO2 $
53144K9L2 9L220160313105512403/13/16 10:55:31  5-MIN K9L2 131855Z AUTO 27019G25KT 10SM CLR 16/04 A3007 2170 44 2800 250/19G25 RMK AO2 SLP180 T01610039 $
53144K9L2 9L220160313110010103/13/16 11:00:31  5-MIN K9L2 131900Z AUTO 28017KT 10SM CLR 16/04 A3007 2170 44 2800 270/17 RMK AO2 $
53144K9L2 9L220160313110512503/13/16 11:05:31  5-MIN K9L2 131905Z AUTO 28021G26KT 10SM CLR 16/04 A3007 2170 44 2800 260/21G26 RMK AO2 PK WND 27026/1904 $
53144K9L2 9L220160313111012503/13/16 11:10:31  5-MIN K9L2 131910Z AUTO 28023G28KT 10SM CLR 17/04 A3007 2170 42 2900 260/23G28 RMK AO2 PK WND 28028/1908 $
53144K9L2 9L220160313111512503/13/16 11:15:31  5-MIN K9L2 131915Z AUTO 27021G28KT 10SM CLR 16/04 A3006 2170 44 2800 260/21G28 RMK AO2 PK WND 28028/1908 $
53144K9L2 9L220160313112012503/13/16 11:20:31  5-MIN K9L2 131920Z AUTO 27022G28KT 10SM CLR 17/04 A3007 2170 42 2900 260/22G28 RMK AO2 PK WND 27028/1917 $
53144K9L2 9L220160313112512503/13/16 11:25:31  5-MIN K9L2 131925Z AUTO 28023G30KT 10SM CLR 17/04 A3007 2160 42 2900 270/23G30 RMK AO2 PK WND 28030/1925 $
53144K9L2 9L220160313113012503/13/16 11:30:31  5-MIN K9L2 131930Z AUTO 28020G30KT 10SM CLR 16/04 A3007 2160 44 2800 270/20G30 RMK AO2 PK WND 28030/1925 $
53144K9L2 9L220160313113512503/13/16 11:35:31  5-MIN K9L2 131935Z AUTO 28025G31KT 10SM CLR 16/04 A3007 2170 44 2800 270/25G31 RMK AO2 PK WND 28031/1933 $
53144K9L2 9L220160313114012503/13/16 11:40:31  5-MIN K9L2 131940Z AUTO 28022G31KT 10SM CLR 16/04 A3007 2170 44 2800 270/22G31 RMK AO2 PK WND 28031/1933 $
53144K9L2 9L220160313114512503/13/16 11:45:31  5-MIN K9L2 131945Z AUTO 28023G31KT 10SM CLR 16/04 A3007 2170 44 2800 270/23G31 RMK AO2 PK WND 28031/1942 $
53144K9L2 9L220160313115012503/13/16 11:50:31  5-MIN K9L2 131950Z AUTO 28021G31KT 10SM CLR 16/04 A3006 2170 44 2800 260/21G31 RMK AO2 PK WND 28031/1942 $
53144K9L2 9L220160313115514203/13/16 11:55:31  5-MIN K9L2 131955Z AUTO 28022G30KT 10SM CLR 16/04 A3007 2170 44 2800 270/22G30 RMK AO2 PK WND 28031/1942 SLP179 T01610039 $
53144K9L2 9L220160313120012503/13/16 12:00:31  5-MIN K9L2 132000Z AUTO 28020G30KT 10SM CLR 16/04 A3006 2170 44 2800 270/20G30 RMK AO2 PK WND 28028/1957 $
53144K9L2 9L220160313120512503/13/16 12:05:31  5-MIN K9L2 132005Z AUTO 29023G29KT 10SM CLR 16/04 A3006 2180 44 2800 270/23G29 RMK AO2 PK WND 28028/1957 $
53144K9L2 9L220160313121012503/13/16 12:10:31  5-MIN K9L2 132010Z AUTO 28023G28KT 10SM CLR 17/04 A3006 2180 42 2900 270/23G28 RMK AO2 PK WND 29028/2008 $
53144K9L2 9L220160313121512503/13/16 12:15:31  5-MIN K9L2 132015Z AUTO 28021G28KT 10SM CLR 16/04 A3006 2170 44 2800 270/21G28 RMK AO2 PK WND 29028/2008 $
53144K9L2 9L220160313122012503/13/16 12:20:31  5-MIN K9L2 132020Z AUTO 28025G31KT 10SM CLR 16/04 A3006 2180 45 2800 270/25G31 RMK AO2 PK WND 28031/2020 $
53144K9L2 9L220160313122512503/13/16 12:25:31  5-MIN K9L2 132025Z AUTO 29022G31KT 10SM CLR 15/04 A3006 2180 47 2700 280/22G31 RMK AO2 PK WND 28031/2020 $
53144K9L2 9L220160313123012503/13/16 12:30:31  5-MIN K9L2 132030Z AUTO 28021G28KT 10SM CLR 16/04 A3006 2170 45 2800 270/21G28 RMK AO2 PK WND 28031/2020 $
53144K9L2 9L220160313123512503/13/16 12:35:31  5-MIN K9L2 132035Z AUTO 28019G28KT 10SM CLR 16/04 A3006 2180 44 2900 260/19G28 RMK AO2 PK WND 28031/2020 $
53144K9L2 9L220160313124012503/13/16 12:40:31  5-MIN K9L2 132040Z AUTO 29022G28KT 10SM CLR 16/04 A3006 2180 44 2900 270/22G28 RMK AO2 PK WND 28031/2020 $
53144K9L2 9L220160313124512503/13/16 12:45:31  5-MIN K9L2 132045Z AUTO 29021G27KT 10SM CLR 17/04 A3005 2180 42 2900 280/21G27 RMK AO2 PK WND 28031/2020 $
53144K9L2 9L220160313125012503/13/16 12:50:31  5-MIN K9L2 132050Z AUTO 29021G27KT 10SM CLR 17/04 A3005 2180 42 3000 270/21G27 RMK AO2 PK WND 28031/2020 $
53144K9L2 9L220160313125514803/13/16 12:55:31  5-MIN K9L2 132055Z AUTO 29023G29KT 10SM CLR 17/04 A3005 2180 42 2900 270/23G29 RMK AO2 PK WND 28031/2020 SLP174 T01670039 58004 $
53144K9L2 9L220160313130012503/13/16 13:00:31  5-MIN K9L2 132100Z AUTO 29019G29KT 10SM CLR 17/04 A3005 2190 42 2900 270/19G29 RMK AO2 PK WND 29027/2057 $
53144K9L2 9L220160313130512503/13/16 13:05:31  5-MIN K9L2 132105Z AUTO 28019G27KT 10SM CLR 17/04 A3004 2190 42 2900 270/19G27 RMK AO2 PK WND 29027/2057 $
53144K9L2 9L220160313131012503/13/16 13:10:31  5-MIN K9L2 132110Z AUTO 28019G26KT 10SM CLR 17/04 A3004 2190 42 2900 270/19G26 RMK AO2 PK WND 29027/2057 $
53144K9L2 9L220160313131512503/13/16 13:15:31  5-MIN K9L2 132115Z AUTO 28017G26KT 10SM CLR 17/04 A3004 2190 42 2900 260/17G26 RMK AO2 PK WND 29027/2057 $
53144K9L2 9L220160313132012503/13/16 13:20:31  5-MIN K9L2 132120Z AUTO 27019G24KT 10SM CLR 17/04 A3004 2190 42 2900 260/19G24 RMK AO2 PK WND 29027/2057 $
53144K9L2 9L220160313132511903/13/16 13:25:31  5-MIN K9L2 132125Z AUTO 28018KT 10SM CLR 17/03 A3004 2190 40 2900 270/18 RMK AO2 PK WND 29027/2057 $
53144K9L2 9L220160313133012503/13/16 13:30:31  5-MIN K9L2 132130Z AUTO 28022G27KT 10SM CLR 17/04 A3004 2190 42 2900 270/22G27 RMK AO2 PK WND 29027/2129 $
53144K9L2 9L220160313133512503/13/16 13:35:31  5-MIN K9L2 132135Z AUTO 28021G27KT 10SM CLR 17/03 A3004 2190 40 2900 270/21G27 RMK AO2 PK WND 28027/2133 $
53144K9L2 9L220160313134012503/13/16 13:40:31  5-MIN K9L2 132140Z AUTO 28022G28KT 10SM CLR 17/04 A3004 2190 41 3000 270/22G28 RMK AO2 PK WND 28028/2139 $
53144K9L2 9L220160313134512503/13/16 13:45:31  5-MIN K9L2 132145Z AUTO 28021G28KT 10SM CLR 17/04 A3004 2190 41 3000 270/21G28 RMK AO2 PK WND 29028/2144 $
53144K9L2 9L220160313135012503/13/16 13:50:31  5-MIN K9L2 132150Z AUTO 28021G28KT 10SM CLR 17/04 A3004 2200 41 3000 270/21G28 RMK AO2 PK WND 29028/2144 $
53144K9L2 9L220160313135514203/13/16 13:55:31  5-MIN K9L2 132155Z AUTO 28018G27KT 10SM CLR 17/03 A3003 2200 39 3000 270/18G27 RMK AO2 PK WND 29028/2144 SLP167 T01720033 $
53144K9L2 9L220160313140010703/13/16 14:00:31  5-MIN K9L2 132200Z AUTO 27018G27KT 10SM CLR 18/03 A3003 2210 38 3100 260/18G27 RMK AO2 $
53144K9L2 9L220160313140512503/13/16 14:05:31  5-MIN K9L2 132205Z AUTO 27017G26KT 10SM CLR 17/03 A3002 2210 39 3000 260/17G26 RMK AO2 PK WND 28026/2201 $
53144K9L2 9L220160313141012803/13/16 14:10:31  5-MIN K9L2 132210Z AUTO 27018G30KT 10SM FEW029 17/03 A3002 2210 39 3000 250/18G30 RMK AO2 PK WND 26030/2207 $
53144K9L2 9L220160313141512803/13/16 14:15:31  5-MIN K9L2 132215Z AUTO 24018G30KT 10SM SCT029 17/03 A3003 2200 37 3000 230/18G30 RMK AO2 PK WND 26030/2207 $
53144K9L2 9L220160313142012803/13/16 14:20:31  5-MIN K9L2 132220Z AUTO 25021G25KT 10SM SCT029 18/02 A3002 2210 35 3100 230/21G25 RMK AO2 PK WND 26030/2207 $
53144K9L2 9L220160313142512803/13/16 14:25:31  5-MIN K9L2 132225Z AUTO 25018G25KT 10SM FEW029 18/02 A3003 2200 34 3100 240/18G25 RMK AO2 PK WND 26030/2207 $
53144K9L2 9L220160313143012803/13/16 14:30:31  5-MIN K9L2 132230Z AUTO 25017G29KT 10SM FEW029 18/02 A3003 2200 35 3100 240/17G29 RMK AO2 PK WND 26030/2207 $
53144K9L2 9L220160313143512803/13/16 14:35:31  5-MIN K9L2 132235Z AUTO 26016G29KT 10SM FEW029 18/02 A3002 2210 35 3100 250/16G29 RMK AO2 PK WND 26030/2207 $
53144K9L2 9L220160313144012803/13/16 14:40:31  5-MIN K9L2 132240Z AUTO 23016G22KT 10SM SCT031 17/03 A3002 2210 37 3000 220/16G22 RMK AO2 PK WND 26030/2207 $
53144K9L2 9L220160313144512803/13/16 14:45:31  5-MIN K9L2 132245Z AUTO 24019G26KT 10SM FEW034 17/04 A3001 2220 41 3000 230/19G26 RMK AO2 PK WND 26030/2207 $
53144K9L2 9L220160313145012803/13/16 14:50:31  5-MIN K9L2 132250Z AUTO 23024G29KT 10SM FEW034 17/05 A3001 2220 44 3000 210/24G29 RMK AO2 PK WND 26030/2207 $
53144K9L2 9L220160313145514503/13/16 14:55:31  5-MIN K9L2 132255Z AUTO 25021G29KT 10SM FEW034 17/04 A3001 2220 44 3000 230/21G29 RMK AO2 PK WND 26030/2207 SLP161 T01670044 $
53144K9L2 9L220160313150012803/13/16 15:00:31  5-MIN K9L2 132300Z AUTO 23022G28KT 10SM FEW034 17/04 A3001 2220 44 3000 210/22G28 RMK AO2 PK WND 23027/2300 $
53144K9L2 9L220160313150512803/13/16 15:05:31  5-MIN K9L2 132305Z AUTO 23018G29KT 10SM FEW034 17/04 A3002 2210 44 3000 220/18G29 RMK AO2 PK WND 23029/2302 $
53144K9L2 9L220160313151012503/13/16 15:10:31  5-MIN K9L2 132310Z AUTO 24019G29KT 10SM CLR 17/04 A3003 2210 44 2900 230/19G29 RMK AO2 PK WND 23029/2302 $
53144K9L2 9L220160313151512803/13/16 15:15:31  5-MIN K9L2 132315Z AUTO 24022G28KT 10SM FEW026 16/05 A3002 2210 47 2900 220/22G28 RMK AO2 PK WND 23029/2302 $
53144K9L2 9L220160313152012803/13/16 15:20:31  5-MIN K9L2 132320Z AUTO 24022G28KT 10SM FEW028 16/05 A3002 2210 47 2900 220/22G28 RMK AO2 PK WND 23029/2302 $
53144K9L2 9L220160313152513503/13/16 15:25:31  5-MIN K9L2 132325Z AUTO 24018G28KT 10SM FEW028 SCT034 16/04 A3002 2210 45 2900 220/18G28 RMK AO2 PK WND 23029/2302 $
53144K9L2 9L220160313153013503/13/16 15:30:31  5-MIN K9L2 132330Z AUTO 23020G27KT 10SM FEW020 SCT031 16/04 A3002 2210 47 2800 210/20G27 RMK AO2 PK WND 23029/2302 $
53144K9L2 9L220160313153513503/13/16 15:35:31  5-MIN K9L2 132335Z AUTO 22020G27KT 10SM SCT023 BKN029 16/05 A3002 2210 49 2800 210/20G27 RMK AO2 PK WND 23029/2302 $
53144K9L2 9L220160313154013503/13/16 15:40:31  5-MIN K9L2 132340Z AUTO 22021G30KT 10SM FEW020 BKN027 16/05 A3002 2210 49 2800 210/21G30 RMK AO2 PK WND 23030/2338 $
53144K9L2 9L220160313154513503/13/16 15:45:31  5-MIN K9L2 132345Z AUTO 23020G30KT 10SM BKN023 BKN029 16/05 A3002 2210 49 2800 220/20G30 RMK AO2 PK WND 23030/2338 $
53144K9L2 9L220160313155013503/13/16 15:50:31  5-MIN K9L2 132350Z AUTO 23021G27KT 10SM FEW020 OVC027 16/05 A3002 2210 49 2800 220/21G27 RMK AO2 PK WND 23030/2338 $
53144K9L2 9L220160313155517003/13/16 15:55:31  5-MIN K9L2 132355Z AUTO 24020G26KT 10SM BKN024 OVC029 16/05 A3002 2210 49 2800 220/20G26 RMK AO2 PK WND 23030/2338 SLP166 T01560050 10183 20150 58010 $
53144K9L2 9L220160313160013503/13/16 16:00:31  5-MIN K9L2 140000Z AUTO 23021G27KT 10SM FEW020 OVC026 15/06 A3002 2210 53 2800 210/21G27 RMK AO2 PK WND 23027/0000 $
53144K9L2 9L220160313160513503/13/16 16:05:31  5-MIN K9L2 140005Z AUTO 23023G28KT 10SM FEW015 OVC026 15/06 A3002 2210 53 2800 220/23G28 RMK AO2 PK WND 23028/0004 $
53144K9L2 9L220160313161013503/13/16 16:10:31  5-MIN K9L2 140010Z AUTO 23021G28KT 10SM FEW015 OVC026 14/06 A3003 2210 55 2700 220/21G28 RMK AO2 PK WND 23028/0008 $
53144K9L2 9L220160313161513503/13/16 16:15:31  5-MIN K9L2 140015Z AUTO 23019G28KT 10SM FEW017 OVC026 15/06 A3002 2210 53 2800 210/19G28 RMK AO2 PK WND 21028/0012 $
53144K9L2 9L220160313162013503/13/16 16:20:31  5-MIN K9L2 140020Z AUTO 23023G29KT 10SM FEW016 OVC026 15/06 A3002 2210 53 2800 210/23G29 RMK AO2 PK WND 23029/0019 $
53144K9L2 9L220160313162513503/13/16 16:25:31  5-MIN K9L2 140025Z AUTO 23019G29KT 10SM FEW016 OVC026 14/06 A3002 2210 55 2700 210/19G29 RMK AO2 PK WND 23029/0019 $
53144K9L2 9L220160313163012803/13/16 16:30:31  5-MIN K9L2 140030Z AUTO 22020G29KT 10SM OVC024 14/06 A3002 2210 55 2700 210/20G29 RMK AO2 PK WND 22029/0028 $
53144K9L2 9L220160313163512803/13/16 16:35:31  5-MIN K9L2 140035Z AUTO 22021G29KT 10SM OVC024 14/06 A3002 2210 55 2700 210/21G29 RMK AO2 PK WND 22029/0028 $
53144K9L2 9L220160313164012803/13/16 16:40:31  5-MIN K9L2 140040Z AUTO 22019G33KT 10SM OVC024 14/06 A3002 2210 55 2700 210/19G33 RMK AO2 PK WND 21033/0036 $
53144K9L2 9L220160313164512803/13/16 16:45:31  5-MIN K9L2 140045Z AUTO 22021G33KT 10SM OVC022 14/06 A3002 2210 55 2700 210/21G33 RMK AO2 PK WND 21033/0036 $
53144K9L2 9L220160313165012803/13/16 16:50:31  5-MIN K9L2 140050Z AUTO 23024G29KT 10SM OVC022 14/06 A3002 2210 57 2600 210/24G29 RMK AO2 PK WND 21033/0036 $
53144K9L2 9L220160313165514503/13/16 16:55:31  5-MIN K9L2 140055Z AUTO 23017G29KT 10SM OVC022 14/06 A3003 2200 57 2600 220/17G29 RMK AO2 PK WND 21033/0036 SLP168 T01390056 $
53144K9L2 9L220160313170012803/13/16 17:00:31  5-MIN K9L2 140100Z AUTO 23021G27KT 10SM OVC022 14/06 A3003 2200 57 2600 210/21G27 RMK AO2 PK WND 23027/0058 $
53144K9L2 9L220160313170512803/13/16 17:05:31  5-MIN K9L2 140105Z AUTO 23023G29KT 10SM OVC020 13/06 A3003 2200 59 2600 210/23G29 RMK AO2 PK WND 23029/0105 $
53144K9L2 9L220160313171012803/13/16 17:10:31  5-MIN K9L2 140110Z AUTO 23022G31KT 10SM OVC020 13/06 A3003 2200 59 2600 210/22G31 RMK AO2 PK WND 22031/0107 $
53144K9L2 9L220160313171512803/13/16 17:15:31  5-MIN K9L2 140115Z AUTO 23022G31KT 10SM OVC020 13/06 A3003 2200 61 2600 210/22G31 RMK AO2 PK WND 22031/0107 $
53144K9L2 9L220160313172012803/13/16 17:20:31  5-MIN K9L2 140120Z AUTO 23023G32KT 10SM OVC020 13/06 A3003 2200 61 2600 210/23G32 RMK AO2 PK WND 23032/0117 $
53144K9L2 9L220160313172512803/13/16 17:25:31  5-MIN K9L2 140125Z AUTO 22022G32KT 10SM OVC020 13/06 A3003 2200 61 2600 210/22G32 RMK AO2 PK WND 23032/0117 $
53144K9L2 9L220160313173013503/13/16 17:30:31  5-MIN K9L2 140130Z AUTO 22023G27KT 10SM BKN020 OVC026 13/07 A3003 2200 64 2600 210/23G27 RMK AO2 PK WND 23032/0117 $
53144K9L2 9L220160313173513503/13/16 17:35:31  5-MIN K9L2 140135Z AUTO 23021G28KT 10SM BKN020 OVC026 13/07 A3004 2200 66 2500 210/21G28 RMK AO2 PK WND 23032/0117 $
53144K9L2 9L220160313174014203/13/16 17:40:31  5-MIN K9L2 140140Z AUTO 22022G29KT 10SM SCT020 BKN026 OVC031 13/07 A3003 2200 66 2500 210/22G29 RMK AO2 PK WND 23032/0117 $
53144K9L2 9L220160313174513503/13/16 17:45:31  5-MIN K9L2 140145Z AUTO 22023G29KT 10SM BKN022 OVC028 13/07 A3003 2200 66 2500 210/23G29 RMK AO2 PK WND 23032/0117 $
53144K9L2 9L220160313175013503/13/16 17:50:31  5-MIN K9L2 140150Z AUTO 23022G30KT 10SM BKN022 OVC028 13/07 A3003 2200 66 2500 210/22G30 RMK AO2 PK WND 23032/0117 $
53144K9L2 9L220160313175515203/13/16 17:55:31  5-MIN K9L2 140155Z AUTO 23019G30KT 10SM BKN022 OVC028 13/07 A3003 2200 69 2500 220/19G30 RMK AO2 PK WND 23032/0117 SLP171 T01280072 $
53144K9L2 9L220160313180011703/13/16 18:00:31  5-MIN K9L2 140200Z AUTO 23019G28KT 10SM BKN020 OVC028 13/07 A3004 2200 69 2500 210/19G28 RMK AO2 $
53144K9L2 9L220160313180511703/13/16 18:05:31  5-MIN K9L2 140205Z AUTO 23018G25KT 10SM BKN018 OVC023 13/07 A3004 2190 69 2500 210/18G25 RMK AO2 $
53144K9L2 9L220160313181011003/13/16 18:10:31  5-MIN K9L2 140210Z AUTO 23021G25KT 10SM OVC017 13/07 A3004 2200 69 2500 220/21G25 RMK AO2 $
53144K9L2 9L220160313181513503/13/16 18:15:31  5-MIN K9L2 140215Z AUTO 23018G28KT 10SM BKN016 OVC021 13/07 A3004 2200 69 2500 210/18G28 RMK AO2 PK WND 22028/0211 $
53144K9L2 9L220160313182012803/13/16 18:20:31  5-MIN K9L2 140220Z AUTO 23018G28KT 10SM OVC016 13/07 A3004 2190 69 2500 210/18G28 RMK AO2 PK WND 22028/0211 $
53144K9L2 9L220160313182512803/13/16 18:25:31  5-MIN K9L2 140225Z AUTO 23019G25KT 10SM OVC016 13/07 A3004 2190 69 2500 210/19G25 RMK AO2 PK WND 22028/0211 $
53144K9L2 9L220160313183012803/13/16 18:30:31  5-MIN K9L2 140230Z AUTO 23017G25KT 10SM OVC014 13/07 A3004 2190 69 2500 220/17G25 RMK AO2 PK WND 22028/0211 $
53144K9L2 9L220160313183512803/13/16 18:35:31  5-MIN K9L2 140235Z AUTO 22018G25KT 10SM OVC014 13/07 A3004 2200 69 2500 210/18G25 RMK AO2 PK WND 22028/0211 $
53144K9L2 9L220160313184012803/13/16 18:40:31  5-MIN K9L2 140240Z AUTO 23016G24KT 10SM OVC012 13/07 A3004 2190 69 2500 220/16G24 RMK AO2 PK WND 22028/0211 $
53144K9L2 9L220160313184512803/13/16 18:45:31  5-MIN K9L2 140245Z AUTO 22019G24KT 10SM OVC012 13/07 A3004 2190 69 2500 210/19G24 RMK AO2 PK WND 22028/0211 $
53144K9L2 9L220160313185013503/13/16 18:50:31  5-MIN K9L2 140250Z AUTO 22018G24KT 10SM BKN012 OVC019 13/07 A3004 2200 69 2500 210/18G24 RMK AO2 PK WND 22028/0211 $
53144K9L2 9L220160313185516503/13/16 18:55:31  5-MIN K9L2 140255Z AUTO 22016G24KT 10SM SCT010 BKN014 OVC025 13/08 A3004 2190 71 2500 210/16G24 RMK AO2 PK WND 22028/0211 SLP171 T01280078 55007 $
53144K9L2 9L220160313190011803/13/16 19:00:31  5-MIN K9L2 140300Z AUTO 22017KT 10SM SCT010 BKN014 OVC025 13/07 A3004 2190 69 2500 210/17 RMK AO2 $
53144K9L2 9L220160313190513503/13/16 19:05:31  5-MIN K9L2 140305Z AUTO 22017G26KT 10SM BKN012 OVC018 13/07 A3004 2190 69 2500 210/17G26 RMK AO2 PK WND 23026/0301 $
53144K9L2 9L220160313191013503/13/16 19:10:31  5-MIN K9L2 140310Z AUTO 22016G26KT 10SM BKN014 OVC023 13/08 A3005 2190 71 2500 200/16G26 RMK AO2 PK WND 23026/0301 $
53144K9L2 9L220160313191512903/13/16 19:15:31  5-MIN K9L2 140315Z AUTO 22016KT 10SM BKN014 OVC023 13/07 A3005 2180 69 2500 210/16 RMK AO2 PK WND 23026/0301 $
53144K9L2 9L220160313192012803/13/16 19:20:31  5-MIN K9L2 140320Z AUTO 22012G21KT 10SM OVC014 13/07 A3005 2180 69 2500 210/12G21 RMK AO2 PK WND 23026/0301 $
53144K9L2 9L220160313192512803/13/16 19:25:31  5-MIN K9L2 140325Z AUTO 22016G21KT 10SM OVC014 13/07 A3005 2190 69 2500 200/16G21 RMK AO2 PK WND 23026/0301 $
53144K9L2 9L220160313193012803/13/16 19:30:31  5-MIN K9L2 140330Z AUTO 22018G24KT 10SM OVC014 13/07 A3005 2190 69 2500 210/18G24 RMK AO2 PK WND 23026/0301 $
53144K9L2 9L220160313193513503/13/16 19:35:31  5-MIN K9L2 140335Z AUTO 22016G24KT 10SM BKN014 OVC021 13/07 A3005 2190 69 2500 210/16G24 RMK AO2 PK WND 23026/0301 $
53144K9L2 9L220160313194014203/13/16 19:40:31  5-MIN K9L2 140340Z AUTO 23016G23KT 10SM BKN014 BKN021 OVC028 13/07 A3005 2190 69 2500 210/16G23 RMK AO2 PK WND 23026/0301 $
53144K9L2 9L220160313194514203/13/16 19:45:31  5-MIN K9L2 140345Z AUTO 23017G24KT 10SM SCT013 BKN020 OVC028 13/07 A3004 2190 69 2500 210/17G24 RMK AO2 PK WND 23026/0301 $
53144K9L2 9L220160313195014203/13/16 19:50:31  5-MIN K9L2 140350Z AUTO 22016G24KT 10SM FEW013 BKN021 OVC031 13/07 A3005 2190 69 2500 210/16G24 RMK AO2 PK WND 23026/0301 $
53144K9L2 9L220160313195515903/13/16 19:55:31  5-MIN K9L2 140355Z AUTO 22018G23KT 10SM FEW013 BKN021 OVC027 13/07 A3005 2180 66 2500 210/18G23 RMK AO2 PK WND 23026/0301 SLP175 T01280067 $
53144K9L2 9L220160313200011703/13/16 20:00:31  5-MIN K9L2 140400Z AUTO 23015G23KT 10SM BKN023 OVC032 13/07 A3005 2180 66 2500 210/15G23 RMK AO2 $
53144K9L2 9L220160313200511703/13/16 20:05:31  5-MIN K9L2 140405Z AUTO 23019G25KT 10SM BKN023 OVC032 13/07 A3005 2180 66 2500 210/19G25 RMK AO2 $
53144K9L2 9L220160313201012403/13/16 20:10:31  5-MIN K9L2 140410Z AUTO 23016G25KT 10SM SCT021 BKN030 OVC036 13/07 A3005 2180 66 2500 220/16G25 RMK AO2 $
53144K9L2 9L220160313201512403/13/16 20:15:31  5-MIN K9L2 140415Z AUTO 24017G22KT 10SM SCT023 BKN030 OVC036 13/07 A3005 2180 66 2500 220/17G22 RMK AO2 $
53144K9L2 9L220160313202012403/13/16 20:20:31  5-MIN K9L2 140420Z AUTO 23017G22KT 10SM SCT023 BKN034 OVC060 13/07 A3005 2180 66 2500 220/17G22 RMK AO2 $
53144K9L2 9L220160313202511803/13/16 20:25:31  5-MIN K9L2 140425Z AUTO 24017KT 10SM FEW023 BKN029 OVC055 13/07 A3005 2180 66 2500 220/17 RMK AO2 $
53144K9L2 9L220160313203011103/13/16 20:30:31  5-MIN K9L2 140430Z AUTO 23016KT 10SM FEW020 OVC031 13/07 A3006 2180 66 2500 220/16 RMK AO2 $
53144K9L2 9L220160313203511103/13/16 20:35:31  5-MIN K9L2 140435Z AUTO 23016KT 10SM BKN031 BKN038 13/06 A3006 2180 63 2500 220/16 RMK AO2 $
53144K9L2 9L220160313204011703/13/16 20:40:31  5-MIN K9L2 140440Z AUTO 23012G21KT 10SM FEW026 BKN033 13/07 A3006 2180 66 2500 220/12G21 RMK AO2 $
53144K9L2 9L220160313204511103/13/16 20:45:31  5-MIN K9L2 140445Z AUTO 24014KT 10SM SCT024 BKN032 13/07 A3006 2180 66 2500 220/14 RMK AO2 $
53144K9L2 9L220160313205011703/13/16 20:50:31  5-MIN K9L2 140450Z AUTO 23016G20KT 10SM SCT024 BKN032 13/06 A3005 2180 63 2500 220/16G20 RMK AO2 $
53144K9L2 9L220160313205513403/13/16 20:55:31  5-MIN K9L2 140455Z AUTO 24014G20KT 10SM SCT026 BKN031 12/07 A3006 2180 68 2400 230/14G20 RMK AO2 SLP177 T01220067 $
53144K9L2 9L220160313210011103/13/16 21:00:31  5-MIN K9L2 140500Z AUTO 24012KT 10SM SCT026 SCT031 12/06 A3006 2180 66 2400 230/12 RMK AO2 $
53144K9L2 9L220160313210511103/13/16 21:05:31  5-MIN K9L2 140505Z AUTO 23012KT 10SM FEW023 SCT029 12/06 A3005 2180 66 2400 220/12 RMK AO2 $
53144K9L2 9L220160313211010403/13/16 21:10:31  5-MIN K9L2 140510Z AUTO 23012KT 10SM FEW023 12/06 A3005 2180 66 2400 220/12 RMK AO2 $
53144K9L2 9L220160313211510403/13/16 21:15:31  5-MIN K9L2 140515Z AUTO 23012KT 10SM FEW028 12/06 A3005 2180 66 2400 220/12 RMK AO2 $
53144K9L2 9L220160313212010403/13/16 21:20:31  5-MIN K9L2 140520Z AUTO 22010KT 10SM SCT028 12/06 A3005 2180 66 2400 210/10 RMK AO2 $
53144K9L2 9L220160313212510403/13/16 21:25:31  5-MIN K9L2 140525Z AUTO 21013KT 10SM SCT026 12/07 A3005 2180 71 2300 200/13 RMK AO2 $
53144K9L2 9L220160313213011003/13/16 21:30:31  5-MIN K9L2 140530Z AUTO 21014G19KT 10SM BKN026 11/07 A3005 2180 77 2300 200/14G19 RMK AO2 $
53144K9L2 9L220160313213510403/13/16 21:35:31  5-MIN K9L2 140535Z AUTO 21014KT 10SM BKN026 11/07 A3005 2180 77 2300 190/14 RMK AO2 $
53144K9L2 9L220160313214011703/13/16 21:40:31  5-MIN K9L2 140540Z AUTO 21013G20KT 10SM SCT024 BKN029 11/07 A3005 2180 77 2300 200/13G20 RMK AO2 $
53144K9L2 9L220160313214511003/13/16 21:45:31  5-MIN K9L2 140545Z AUTO 22013G18KT 10SM BKN026 11/07 A3005 2180 77 2300 200/13G18 RMK AO2 $
53144K9L2 9L220160313215011003/13/16 21:50:31  5-MIN K9L2 140550Z AUTO 22013G18KT 10SM BKN025 11/07 A3005 2180 77 2300 200/13G18 RMK AO2 $
53144K9L2 9L220160313215515203/13/16 21:55:31  5-MIN K9L2 140555Z AUTO 22013G20KT 10SM BKN023 BKN028 11/07 A3005 2180 77 2300 200/13G20 RMK AO2 SLP175 T01110072 10156 20111 51003 $
53144K9L2 9L220160313220010403/13/16 22:00:31  5-MIN K9L2 140600Z AUTO 21015KT 10SM BKN023 11/07 A3005 2180 77 2300 200/15 RMK AO2 $
53144K9L2 9L220160313220511703/13/16 22:05:31  5-MIN K9L2 140605Z AUTO 21015G22KT 10SM BKN023 BKN027 12/07 A3005 2180 74 2300 200/15G22 RMK AO2 $
53144K9L2 9L220160313221011703/13/16 22:10:31  5-MIN K9L2 140610Z AUTO 21016G22KT 10SM BKN023 BKN028 11/07 A3005 2180 77 2300 200/16G22 RMK AO2 $
53144K9L2 9L220160313221511103/13/16 22:15:31  5-MIN K9L2 140615Z AUTO 21015KT 10SM SCT021 BKN028 11/07 A3005 2180 77 2300 200/15 RMK AO2 $
53144K9L2 9L220160313222011803/13/16 22:20:31  5-MIN K9L2 140620Z AUTO 22015KT 10SM FEW017 SCT021 BKN028 11/07 A3005 2180 77 2300 200/15 RMK AO2 $
53144K9L2 9L220160313222511103/13/16 22:25:31  5-MIN K9L2 140625Z AUTO 22014KT 10SM FEW018 SCT025 11/07 A3005 2180 77 2300 200/14 RMK AO2 $
53144K9L2 9L220160313223011703/13/16 22:30:31  5-MIN K9L2 140630Z AUTO 22016G21KT 10SM FEW018 SCT025 11/07 A3005 2190 77 2300 200/16G21 RMK AO2 $
53144K9L2 9L220160313223511003/13/16 22:35:31  5-MIN K9L2 140635Z AUTO 22015G21KT 10SM FEW026 11/07 A3005 2190 77 2300 200/15G21 RMK AO2 $
53144K9L2 9L220160313224010403/13/16 22:40:31  5-MIN K9L2 140640Z AUTO 22015KT 10SM FEW026 11/07 A3005 2190 77 2300 210/15 RMK AO2 $
53144K9L2 9L220160313224510103/13/16 22:45:31  5-MIN K9L2 140645Z AUTO 22015KT 10SM CLR 11/07 A3005 2180 77 2300 210/15 RMK AO2 $
53144K9L2 9L220160313225010103/13/16 22:50:31  5-MIN K9L2 140650Z AUTO 22015KT 10SM CLR 11/07 A3005 2180 77 2300 210/15 RMK AO2 $
53144K9L2 9L220160313225511803/13/16 22:55:31  5-MIN K9L2 140655Z AUTO 22014KT 10SM CLR 11/07 A3005 2180 77 2300 210/14 RMK AO2 SLP173 T01110072 $
53144K9L2 9L220160313230010103/13/16 23:00:31  5-MIN K9L2 140700Z AUTO 23014KT 10SM CLR 11/07 A3005 2180 77 2300 210/14 RMK AO2 $
53144K9L2 9L220160313230510103/13/16 23:05:31  5-MIN K9L2 140705Z AUTO 22015KT 10SM CLR 11/07 A3005 2190 77 2300 210/15 RMK AO2 $
53144K9L2 9L220160313231010703/13/16 23:10:31  5-MIN K9L2 140710Z AUTO 23013G21KT 10SM CLR 11/07 A3005 2180 77 2300 210/13G21 RMK AO2 $
53144K9L2 9L220160313231510403/13/16 23:15:31  5-MIN K9L2 140715Z AUTO 23014KT 10SM FEW017 11/07 A3005 2180 74 2300 220/14 RMK AO2 $
53144K9L2 9L220160313232010403/13/16 23:20:31  5-MIN K9L2 140720Z AUTO 22013KT 10SM FEW017 11/07 A3005 2180 74 2300 210/13 RMK AO2 $
53144K9L2 9L220160313232510403/13/16 23:25:31  5-MIN K9L2 140725Z AUTO 23013KT 10SM FEW017 11/07 A3005 2180 74 2300 220/13 RMK AO2 $
53144K9L2 9L220160313233010403/13/16 23:30:31  5-MIN K9L2 140730Z AUTO 23011KT 10SM FEW017 11/07 A3005 2180 74 2300 210/11 RMK AO2 $
53144K9L2 9L220160313233510403/13/16 23:35:31  5-MIN K9L2 140735Z AUTO 23014KT 10SM FEW017 11/07 A3005 2180 74 2300 220/14 RMK AO2 $
53144K9L2 9L220160313234011803/13/16 23:40:31  5-MIN K9L2 140740Z AUTO 23013KT 10SM FEW017 SCT025 SCT049 11/07 A3005 2180 74 2300 220/13 RMK AO2 $
53144K9L2 9L220160313234511803/13/16 23:45:31  5-MIN K9L2 140745Z AUTO 23013KT 10SM FEW017 SCT023 SCT049 11/07 A3005 2180 74 2300 220/13 RMK AO2 $
53144K9L2 9L220160313235011103/13/16 23:50:31  5-MIN K9L2 140750Z AUTO 23013KT 10SM FEW017 SCT025 11/07 A3005 2180 74 2300 220/13 RMK AO2 $
53144K9L2 9L220160313235513803/13/16 23:55:31  5-MIN K9L2 140755Z AUTO 23014KT 10SM FEW017 BKN025 11/07 A3005 2180 74 2300 220/14 RMK AO2 SLP173 T01110067 401830078 $
53144K9L2 9L220160314000011103/14/16 00:00:31  5-MIN K9L2 140800Z AUTO 23014KT 10SM FEW015 BKN025 11/07 A3005 2180 74 2300 220/14 RMK AO2 $
53144K9L2 9L220160314000511103/14/16 00:05:31  5-MIN K9L2 140805Z AUTO 24013KT 10SM FEW017 BKN025 11/07 A3005 2180 74 2300 220/13 RMK AO2 $
53144K9L2 9L220160314001011103/14/16 00:10:31  5-MIN K9L2 140810Z AUTO 24014KT 10SM FEW017 BKN023 11/07 A3005 2190 74 2300 230/14 RMK AO2 $
53144K9L2 9L220160314001511103/14/16 00:15:31  5-MIN K9L2 140815Z AUTO 24014KT 10SM FEW017 BKN023 11/07 A3004 2190 74 2300 220/14 RMK AO2 $
53144K9L2 9L220160314002011103/14/16 00:20:31  5-MIN K9L2 140820Z AUTO 23013KT 10SM SCT020 BKN025 11/07 A3004 2190 74 2300 220/13 RMK AO2 $
53144K9L2 9L220160314002511103/14/16 00:25:31  5-MIN K9L2 140825Z AUTO 24015KT 10SM SCT020 BKN025 11/07 A3004 2190 74 2300 230/15 RMK AO2 $
53144K9L2 9L220160314003011103/14/16 00:30:31  5-MIN K9L2 140830Z AUTO 24016KT 10SM SCT020 SCT025 11/07 A3004 2190 74 2300 220/16 RMK AO2 $
53144K9L2 9L220160314003510403/14/16 00:35:31  5-MIN K9L2 140835Z AUTO 24015KT 10SM FEW020 11/07 A3004 2190 74 2300 220/15 RMK AO2 $
53144K9L2 9L220160314004010403/14/16 00:40:31  5-MIN K9L2 140840Z AUTO 24016KT 10SM SCT018 11/07 A3004 2190 74 2300 230/16 RMK AO2 $
53144K9L2 9L220160314004510403/14/16 00:45:31  5-MIN K9L2 140845Z AUTO 24014KT 10SM SCT018 11/07 A3004 2190 74 2300 220/14 RMK AO2 $
53144K9L2 9L220160314005010403/14/16 00:50:31  5-MIN K9L2 140850Z AUTO 24014KT 10SM SCT018 11/07 A3004 2190 74 2300 230/14 RMK AO2 $
53144K9L2 9L220160314005512703/14/16 00:55:31  5-MIN K9L2 140855Z AUTO 24016KT 10SM SCT018 11/07 A3004 2190 74 2300 230/16 RMK AO2 SLP171 T01110067 50005 $
53144K9L2 9L220160314010010403/14/16 01:00:31  5-MIN K9L2 140900Z AUTO 24018KT 10SM FEW018 11/07 A3004 2190 74 2300 220/18 RMK AO2 $
53144K9L2 9L220160314150012503/14/16 15:00:31  5-MIN K9L2 142300Z AUTO 27031G41KT 10SM CLR 18/02 A3001 2220 34 3200 260/31G41 RMK AO2 PK WND 28041/2258 $
53144K9L2 9L220160314150512503/14/16 15:05:31  5-MIN K9L2 142305Z AUTO 27028G41KT 10SM CLR 18/02 A3001 2220 34 3200 260/28G41 RMK AO2 PK WND 28041/2258 $
53144K9L2 9L220160314151012503/14/16 15:10:31  5-MIN K9L2 142310Z AUTO 27031G39KT 10SM CLR 18/03 A3000 2230 35 3200 260/31G39 RMK AO2 PK WND 28041/2258 $
53144K9L2 9L220160314151512503/14/16 15:15:31  5-MIN K9L2 142315Z AUTO 27033G40KT 10SM CLR 18/03 A3000 2230 36 3100 260/33G40 RMK AO2 PK WND 28041/2258 $
53144K9L2 9L220160314152012503/14/16 15:20:31  5-MIN K9L2 142320Z AUTO 27032G40KT 10SM CLR 18/03 A3000 2230 38 3100 260/32G40 RMK AO2 PK WND 28041/2258 $
53144K9L2 9L220160314152512503/14/16 15:25:31  5-MIN K9L2 142325Z AUTO 27032G41KT 10SM CLR 18/03 A3000 2230 38 3100 260/32G41 RMK AO2 PK WND 27041/2324 $
53144K9L2 9L220160314153012503/14/16 15:30:31  5-MIN K9L2 142330Z AUTO 27031G41KT 10SM CLR 17/03 A3000 2230 37 3000 260/31G41 RMK AO2 PK WND 27041/2324 $
53144K9L2 9L220160314153512503/14/16 15:35:31  5-MIN K9L2 142335Z AUTO 28027G40KT 10SM CLR 18/03 A3001 2220 38 3100 260/27G40 RMK AO2 PK WND 27041/2324 $
53144K9L2 9L220160314154012503/14/16 15:40:31  5-MIN K9L2 142340Z AUTO 27029G38KT 10SM CLR 18/03 A3000 2220 38 3100 260/29G38 RMK AO2 PK WND 27041/2324 $
53144K9L2 9L220160314154512503/14/16 15:45:31  5-MIN K9L2 142345Z AUTO 28026G38KT 10SM CLR 18/03 A3001 2220 38 3100 260/26G38 RMK AO2 PK WND 27041/2324 $
53144K9L2 9L220160314155012503/14/16 15:50:31  5-MIN K9L2 142350Z AUTO 28030G36KT 10SM CLR 18/03 A3001 2220 38 3100 270/30G36 RMK AO2 PK WND 27041/2324 $
53144K9L2 9L220160314155516003/14/16 15:55:31  5-MIN K9L2 142355Z AUTO 28027G36KT 10SM CLR 18/03 A3001 2220 38 3100 270/27G36 RMK AO2 PK WND 27041/2324 SLP158 T01780033 10194 20172 58010 $
53144K9L2 9L220160314160012503/14/16 16:00:31  5-MIN K9L2 150000Z AUTO 28024G33KT 10SM CLR 18/03 A3001 2220 38 3100 270/24G33 RMK AO2 PK WND 28033/2357 $
53144K9L2 9L220160314160512503/14/16 16:05:31  5-MIN K9L2 150005Z AUTO 28026G33KT 10SM CLR 18/03 A3001 2220 38 3100 270/26G33 RMK AO2 PK WND 28033/2357 $
53144K9L2 9L220160314161012503/14/16 16:10:31  5-MIN K9L2 150010Z AUTO 28023G33KT 10SM CLR 17/03 A3001 2220 39 3000 270/23G33 RMK AO2 PK WND 27033/0008 $
53144K9L2 9L220160314161512503/14/16 16:15:31  5-MIN K9L2 150015Z AUTO 28024G33KT 10SM CLR 18/03 A3001 2220 38 3100 260/24G33 RMK AO2 PK WND 27033/0008 $
53144K9L2 9L220160314162012503/14/16 16:20:31  5-MIN K9L2 150020Z AUTO 28025G32KT 10SM CLR 17/03 A3001 2220 39 3000 260/25G32 RMK AO2 PK WND 27033/0008 $
53144K9L2 9L220160314162512503/14/16 16:25:31  5-MIN K9L2 150025Z AUTO 28023G32KT 10SM CLR 17/03 A3001 2220 39 3000 260/23G32 RMK AO2 PK WND 27033/0008 $
53144K9L2 9L220160314163012503/14/16 16:30:31  5-MIN K9L2 150030Z AUTO 28024G29KT 10SM CLR 18/03 A3001 2220 38 3100 270/24G29 RMK AO2 PK WND 27033/0008 $
53144K9L2 9L220160314163512503/14/16 16:35:31  5-MIN K9L2 150035Z AUTO 27022G29KT 10SM CLR 17/03 A3001 2220 39 3000 260/22G29 RMK AO2 PK WND 27033/0008 $
53144K9L2 9L220160314164012503/14/16 16:40:31  5-MIN K9L2 150040Z AUTO 28021G29KT 10SM CLR 17/03 A3001 2220 39 3000 260/21G29 RMK AO2 PK WND 27033/0008 $
53144K9L2 9L220160314164512503/14/16 16:45:31  5-MIN K9L2 150045Z AUTO 28023G29KT 10SM CLR 17/03 A3001 2220 39 3000 260/23G29 RMK AO2 PK WND 27033/0008 $
53144K9L2 9L220160314165012503/14/16 16:50:31  5-MIN K9L2 150050Z AUTO 28021G28KT 10SM CLR 17/03 A3001 2220 39 3000 260/21G28 RMK AO2 PK WND 27033/0008 $
53144K9L2 9L220160314165514203/14/16 16:55:31  5-MIN K9L2 150055Z AUTO 28020G27KT 10SM CLR 17/03 A3001 2220 39 3000 260/20G27 RMK AO2 PK WND 27033/0008 SLP159 T01720033 $
53144K9L2 9L220160314170012503/14/16 17:00:31  5-MIN K9L2 150100Z AUTO 27022G30KT 10SM CLR 17/03 A3001 2220 40 3000 260/22G30 RMK AO2 PK WND 28030/0057 $
53144K9L2 9L220160314170512503/14/16 17:05:31  5-MIN K9L2 150105Z AUTO 27021G30KT 10SM CLR 17/03 A3001 2220 40 3000 260/21G30 RMK AO2 PK WND 28030/0057 $
53144K9L2 9L220160314171012503/14/16 17:10:31  5-MIN K9L2 150110Z AUTO 27018G29KT 10SM CLR 17/03 A3001 2220 40 3000 260/18G29 RMK AO2 PK WND 28030/0057 $
53144K9L2 9L220160314171512503/14/16 17:15:31  5-MIN K9L2 150115Z AUTO 27021G29KT 10SM CLR 16/03 A3001 2220 42 2900 260/21G29 RMK AO2 PK WND 28030/0057 $
53144K9L2 9L220160314172012503/14/16 17:20:31  5-MIN K9L2 150120Z AUTO 27020G26KT 10SM CLR 16/03 A3002 2210 42 2900 260/20G26 RMK AO2 PK WND 28030/0057 $
53144K9L2 9L220160314172512503/14/16 17:25:31  5-MIN K9L2 150125Z AUTO 27018G26KT 10SM CLR 16/03 A3002 2210 42 2900 260/18G26 RMK AO2 PK WND 28030/0057 $
53144K9L2 9L220160314173012503/14/16 17:30:31  5-MIN K9L2 150130Z AUTO 27019G26KT 10SM CLR 16/03 A3002 2210 42 2900 260/19G26 RMK AO2 PK WND 28030/0057 $
53144K9L2 9L220160314173512503/14/16 17:35:31  5-MIN K9L2 150135Z AUTO 27020G25KT 10SM CLR 16/03 A3002 2210 43 2800 260/20G25 RMK AO2 PK WND 28030/0057 $
53144K9L2 9L220160314174012503/14/16 17:40:31  5-MIN K9L2 150140Z AUTO 27018G24KT 10SM CLR 16/03 A3002 2210 43 2800 260/18G24 RMK AO2 PK WND 28030/0057 $
53144K9L2 9L220160314174511903/14/16 17:45:31  5-MIN K9L2 150145Z AUTO 27019KT 10SM CLR 15/03 A3002 2210 45 2800 260/19 RMK AO2 PK WND 28030/0057 $
53144K9L2 9L220160314175011903/14/16 17:50:31  5-MIN K9L2 150150Z AUTO 27019KT 10SM CLR 15/03 A3002 2210 45 2800 260/19 RMK AO2 PK WND 28030/0057 $
53144K9L2 9L220160314175513603/14/16 17:55:31  5-MIN K9L2 150155Z AUTO 27017KT 10SM CLR 15/03 A3002 2210 45 2800 250/17 RMK AO2 PK WND 28030/0057 SLP163 T01500033 $
53144K9L2 9L220160314180010103/14/16 18:00:31  5-MIN K9L2 150200Z AUTO 27015KT 10SM CLR 14/03 A3002 2210 47 2700 250/15 RMK AO2 $
53144K9L2 9L220160314180510103/14/16 18:05:31  5-MIN K9L2 150205Z AUTO 26015KT 10SM CLR 14/03 A3002 2210 47 2700 250/15 RMK AO2 $
53144K9L2 9L220160314181010103/14/16 18:10:31  5-MIN K9L2 150210Z AUTO 27015KT 10SM CLR 14/03 A3002 2210 47 2700 250/15 RMK AO2 $
53144K9L2 9L220160314181510103/14/16 18:15:31  5-MIN K9L2 150215Z AUTO 25015KT 10SM CLR 14/03 A3003 2200 47 2700 240/15 RMK AO2 $
53144K9L2 9L220160314182010103/14/16 18:20:31  5-MIN K9L2 150220Z AUTO 26014KT 10SM CLR 14/03 A3002 2210 48 2600 250/14 RMK AO2 $
53144K9L2 9L220160314182510103/14/16 18:25:31  5-MIN K9L2 150225Z AUTO 26015KT 10SM CLR 14/03 A3002 2210 48 2600 250/15 RMK AO2 $
53144K9L2 9L220160314183010103/14/16 18:30:31  5-MIN K9L2 150230Z AUTO 26013KT 10SM CLR 14/03 A3003 2200 48 2600 250/13 RMK AO2 $
53144K9L2 9L220160314183510103/14/16 18:35:31  5-MIN K9L2 150235Z AUTO 26013KT 10SM CLR 14/03 A3003 2200 48 2600 250/13 RMK AO2 $
53144K9L2 9L220160314184010103/14/16 18:40:31  5-MIN K9L2 150240Z AUTO 26012KT 10SM CLR 14/04 A3003 2200 50 2600 250/12 RMK AO2 $
53144K9L2 9L220160314184510103/14/16 18:45:31  5-MIN K9L2 150245Z AUTO 26011KT 10SM CLR 13/04 A3003 2200 52 2600 250/11 RMK AO2 $
53144K9L2 9L220160314185010103/14/16 18:50:31  5-MIN K9L2 150250Z AUTO 26011KT 10SM CLR 13/03 A3003 2200 50 2600 250/11 RMK AO2 $
53144K9L2 9L220160314185512403/14/16 18:55:31  5-MIN K9L2 150255Z AUTO 26011KT 10SM CLR 13/03 A3003 2200 50 2600 250/11 RMK AO2 SLP167 T01330033 58007 $
53144K9L2 9L220160314190010103/14/16 19:00:31  5-MIN K9L2 150300Z AUTO 26010KT 10SM CLR 13/03 A3003 2200 50 2600 250/10 RMK AO2 $
53144K9L2 9L220160314190510103/14/16 19:05:31  5-MIN K9L2 150305Z AUTO 27010KT 10SM CLR 13/03 A3003 2200 50 2600 250/10 RMK AO2 $
53144K9L2 9L220160314191010103/14/16 19:10:31  5-MIN K9L2 150310Z AUTO 27009KT 10SM CLR 13/03 A3003 2200 50 2600 260/09 RMK AO2 $
53144K9L2 9L220160314191510103/14/16 19:15:31  5-MIN K9L2 150315Z AUTO 27010KT 10SM CLR 13/03 A3003 2200 50 2600 260/10 RMK AO2 $
53144K9L2 9L220160314192010103/14/16 19:20:31  5-MIN K9L2 150320Z AUTO 27009KT 10SM CLR 13/03 A3003 2200 50 2600 260/09 RMK AO2 $
53144K9L2 9L220160314192510103/14/16 19:25:31  5-MIN K9L2 150325Z AUTO 27007KT 10SM CLR 13/03 A3004 2200 52 2500 260/07 RMK AO2 $
53144K9L2 9L220160314193010103/14/16 19:30:31  5-MIN K9L2 150330Z AUTO 27007KT 10SM CLR 13/03 A3004 2190 52 2500 260/07 RMK AO2 $
53144K9L2 9L220160314193510103/14/16 19:35:31  5-MIN K9L2 150335Z AUTO 28007KT 10SM CLR 13/03 A3004 2190 52 2500 260/07 RMK AO2 $
53144K9L2 9L220160314194010103/14/16 19:40:31  5-MIN K9L2 150340Z AUTO 28006KT 10SM CLR 13/03 A3004 2190 52 2500 260/06 RMK AO2 $
53144K9L2 9L220160314194510103/14/16 19:45:31  5-MIN K9L2 150345Z AUTO 28004KT 10SM CLR 13/03 A3005 2190 52 2500 270/04 RMK AO2 $
53144K9L2 9L220160314195010103/14/16 19:50:31  5-MIN K9L2 150350Z AUTO 00000KT 10SM CLR 12/03 A3005 2180 54 2400 000/00 RMK AO2 $
53144K9L2 9L220160314195511803/14/16 19:55:31  5-MIN K9L2 150355Z AUTO 00000KT 10SM CLR 12/03 A3005 2180 54 2400 000/00 RMK AO2 SLP174 T01220033 $
53144K9L2 9L220160314200010103/14/16 20:00:31  5-MIN K9L2 150400Z AUTO 00000KT 10SM CLR 12/03 A3006 2180 54 2400 000/00 RMK AO2 $
53144K9L2 9L220160314200510103/14/16 20:05:31  5-MIN K9L2 150405Z AUTO 17003KT 10SM CLR 12/03 A3006 2170 54 2400 160/03 RMK AO2 $
53144K9L2 9L220160314201010103/14/16 20:10:31  5-MIN K9L2 150410Z AUTO 20003KT 10SM CLR 13/03 A3006 2170 52 2500 190/03 RMK AO2 $
53144K9L2 9L220160314201510103/14/16 20:15:31  5-MIN K9L2 150415Z AUTO 19004KT 10SM CLR 13/03 A3006 2170 52 2500 180/04 RMK AO2 $
53144K9L2 9L220160314202010103/14/16 20:20:31  5-MIN K9L2 150420Z AUTO 00000KT 10SM CLR 13/03 A3006 2170 52 2500 000/00 RMK AO2 $
53144K9L2 9L220160314202510103/14/16 20:25:31  5-MIN K9L2 150425Z AUTO 23004KT 10SM CLR 12/03 A3006 2170 54 2400 220/04 RMK AO2 $
53144K9L2 9L220160314203010103/14/16 20:30:31  5-MIN K9L2 150430Z AUTO 00000KT 10SM CLR 13/03 A3006 2170 52 2500 000/00 RMK AO2 $
53144K9L2 9L220160314203510103/14/16 20:35:31  5-MIN K9L2 150435Z AUTO 00000KT 10SM CLR 12/03 A3007 2170 54 2400 000/00 RMK AO2 $
53144K9L2 9L220160314204010103/14/16 20:40:31  5-MIN K9L2 150440Z AUTO 19003KT 10SM CLR 12/03 A3007 2160 56 2300 180/03 RMK AO2 $
53144K9L2 9L220160314204510103/14/16 20:45:31  5-MIN K9L2 150445Z AUTO 18006KT 10SM CLR 12/03 A3007 2160 56 2300 160/06 RMK AO2 $
53144K9L2 9L220160314205010103/14/16 20:50:31  5-MIN K9L2 150450Z AUTO 17006KT 10SM CLR 12/03 A3007 2160 54 2400 160/06 RMK AO2 $
53144K9L2 9L220160314205511803/14/16 20:55:31  5-MIN K9L2 150455Z AUTO 19006KT 10SM CLR 12/03 A3007 2160 54 2400 180/06 RMK AO2 SLP179 T01220033 $
53144K9L2 9L220160314210010103/14/16 21:00:31  5-MIN K9L2 150500Z AUTO 19005KT 10SM CLR 11/03 A3007 2160 58 2200 180/05 RMK AO2 $
53144K9L2 9L220160314210510103/14/16 21:05:31  5-MIN K9L2 150505Z AUTO 18006KT 10SM CLR 11/03 A3007 2160 58 2200 170/06 RMK AO2 $
53144K9L2 9L220160314211010103/14/16 21:10:31  5-MIN K9L2 150510Z AUTO 19007KT 10SM CLR 12/03 A3008 2160 56 2300 170/07 RMK AO2 $
53144K9L2 9L220160314211510103/14/16 21:15:31  5-MIN K9L2 150515Z AUTO 20005KT 10SM CLR 11/03 A3008 2160 58 2200 180/05 RMK AO2 $
53144K9L2 9L220160314212010103/14/16 21:20:31  5-MIN K9L2 150520Z AUTO 19006KT 10SM CLR 11/03 A3008 2160 58 2200 180/06 RMK AO2 $
53144K9L2 9L220160314212510103/14/16 21:25:31  5-MIN K9L2 150525Z AUTO 19007KT 10SM CLR 11/03 A3008 2160 58 2200 180/07 RMK AO2 $
53144K9L2 9L220160314213010103/14/16 21:30:31  5-MIN K9L2 150530Z AUTO 19005KT 10SM CLR 11/03 A3008 2160 61 2200 170/05 RMK AO2 $
53144K9L2 9L220160314213510103/14/16 21:35:31  5-MIN K9L2 150535Z AUTO 19004KT 10SM CLR 11/04 A3008 2150 63 2200 180/04 RMK AO2 $
53144K9L2 9L220160314214010103/14/16 21:40:31  5-MIN K9L2 150540Z AUTO 19006KT 10SM CLR 11/04 A3008 2160 63 2200 180/06 RMK AO2 $
53144K9L2 9L220160314214510103/14/16 21:45:31  5-MIN K9L2 150545Z AUTO 20005KT 10SM CLR 11/04 A3008 2150 63 2200 190/05 RMK AO2 $
53144K9L2 9L220160314215010103/14/16 21:50:31  5-MIN K9L2 150550Z AUTO 20005KT 10SM CLR 11/04 A3008 2150 63 2200 180/05 RMK AO2 $
53144K9L2 9L220160314215513603/14/16 21:55:31  5-MIN K9L2 150555Z AUTO 20005KT 10SM CLR 10/03 A3008 2150 63 2100 190/05 RMK AO2 SLP184 T01000033 10178 20100 53007 $
53144K9L2 9L220160314220010103/14/16 22:00:31  5-MIN K9L2 150600Z AUTO 25003KT 10SM CLR 10/03 A3008 2150 63 2100 230/03 RMK AO2 $
53144K9L2 9L220160314220510103/14/16 22:05:31  5-MIN K9L2 150605Z AUTO 00000KT 10SM CLR 09/03 A3008 2150 65 2000 000/00 RMK AO2 $
53144K9L2 9L220160314221010103/14/16 22:10:31  5-MIN K9L2 150610Z AUTO 00000KT 10SM CLR 09/03 A3008 2150 68 2000 000/00 RMK AO2 $
53144K9L2 9L220160314221510103/14/16 22:15:31  5-MIN K9L2 150615Z AUTO 00000KT 10SM CLR 09/03 A3009 2150 68 2000 000/00 RMK AO2 $
53144K9L2 9L220160314222010103/14/16 22:20:31  5-MIN K9L2 150620Z AUTO 00000KT 10SM CLR 09/03 A3009 2150 68 2000 000/00 RMK AO2 $
53144K9L2 9L220160314222510103/14/16 22:25:31  5-MIN K9L2 150625Z AUTO 00000KT 10SM CLR 08/03 A3009 2150 70 1900 000/00 RMK AO2 $
53144K9L2 9L220160314223010103/14/16 22:30:31  5-MIN K9L2 150630Z AUTO 00000KT 10SM CLR 08/03 A3009 2150 70 1800 000/00 RMK AO2 $
53144K9L2 9L220160314223510103/14/16 22:35:31  5-MIN K9L2 150635Z AUTO 00000KT 10SM CLR 08/03 A3009 2140 70 1900 000/00 RMK AO2 $
53144K9L2 9L220160314224010103/14/16 22:40:31  5-MIN K9L2 150640Z AUTO 00000KT 10SM CLR 08/03 A3009 2150 70 1800 000/00 RMK AO2 $
53144K9L2 9L220160314224510103/14/16 22:45:31  5-MIN K9L2 150645Z AUTO 00000KT 10SM CLR 07/03 A3009 2150 73 1800 000/00 RMK AO2 $
53144K9L2 9L220160314225010103/14/16 22:50:31  5-MIN K9L2 150650Z AUTO 36003KT 10SM CLR 07/03 A3009 2140 73 1800 340/03 RMK AO2 $
53144K9L2 9L220160314225511803/14/16 22:55:31  5-MIN K9L2 150655Z AUTO 00000KT 10SM CLR 07/03 A3009 2140 73 1800 000/00 RMK AO2 SLP190 T00720028 $
53144K9L2 9L220160314230010103/14/16 23:00:31  5-MIN K9L2 150700Z AUTO 00000KT 10SM CLR 07/03 A3009 2140 76 1700 000/00 RMK AO2 $
53144K9L2 9L220160314230510103/14/16 23:05:31  5-MIN K9L2 150705Z AUTO 00000KT 10SM CLR 07/03 A3009 2140 73 1800 000/00 RMK AO2 $
53144K9L2 9L220160314231010103/14/16 23:10:31  5-MIN K9L2 150710Z AUTO 00000KT 10SM CLR 07/03 A3009 2140 76 1700 000/00 RMK AO2 $
53144K9L2 9L220160314231510103/14/16 23:15:31  5-MIN K9L2 150715Z AUTO 00000KT 10SM CLR 07/02 A3009 2140 73 1700 000/00 RMK AO2 $
53144K9L2 9L220160314232010103/14/16 23:20:31  5-MIN K9L2 150720Z AUTO 00000KT 10SM CLR 07/02 A3009 2150 73 1700 000/00 RMK AO2 $
53144K9L2 9L220160314232510103/14/16 23:25:31  5-MIN K9L2 150725Z AUTO 35003KT 10SM CLR 06/02 A3009 2140 76 1600 330/03 RMK AO2 $
53144K9L2 9L220160314233010103/14/16 23:30:31  5-MIN K9L2 150730Z AUTO 35003KT 10SM CLR 06/02 A3009 2140 76 1600 340/03 RMK AO2 $
53144K9L2 9L220160314233510103/14/16 23:35:31  5-MIN K9L2 150735Z AUTO 00000KT 10SM CLR 07/02 A3009 2140 73 1700 000/00 RMK AO2 $
53144K9L2 9L220160314234010103/14/16 23:40:31  5-MIN K9L2 150740Z AUTO 00000KT 10SM CLR 07/03 A3009 2140 76 1700 000/00 RMK AO2 $
53144K9L2 9L220160314234510103/14/16 23:45:31  5-MIN K9L2 150745Z AUTO 00000KT 10SM CLR 07/02 A3009 2140 73 1700 000/00 RMK AO2 $
53144K9L2 9L220160314235010103/14/16 23:50:31  5-MIN K9L2 150750Z AUTO 00000KT 10SM CLR 07/03 A3009 2140 76 1700 000/00 RMK AO2 $
53144K9L2 9L220160314235512803/14/16 23:55:31  5-MIN K9L2 150755Z AUTO 00000KT 10SM CLR 07/02 A3009 2140 73 1700 000/00 RMK AO2 SLP190 T00670022 401940061 $
53144K9L2 9L220160315000010103/15/16 00:00:31  5-MIN K9L2 150800Z AUTO 00000KT 10SM CLR 07/03 A3009 2140 73 1800 000/00 RMK AO2 $
53144K9L2 9L220160315000510103/15/16 00:05:31  5-MIN K9L2 150805Z AUTO 00000KT 10SM CLR 07/02 A3009 2140 73 1700 000/00 RMK AO2 $
53144K9L2 9L220160315001010103/15/16 00:10:31  5-MIN K9L2 150810Z AUTO 31003KT 10SM CLR 06/02 A3009 2140 76 1600 290/03 RMK AO2 $
53144K9L2 9L220160315001510103/15/16 00:15:31  5-MIN K9L2 150815Z AUTO 00000KT 10SM CLR 06/02 A3009 2140 76 1600 000/00 RMK AO2 $
53144K9L2 9L220160315002010103/15/16 00:20:31  5-MIN K9L2 150820Z AUTO 34003KT 10SM CLR 06/02 A3009 2140 76 1600 330/03 RMK AO2 $
53144K9L2 9L220160315002510103/15/16 00:25:31  5-MIN K9L2 150825Z AUTO 00000KT 10SM CLR 06/02 A3009 2140 76 1600 000/00 RMK AO2 $
53144K9L2 9L220160315003010103/15/16 00:30:31  5-MIN K9L2 150830Z AUTO 34003KT 10SM CLR 06/02 A3009 2140 76 1600 330/03 RMK AO2 $
53144K9L2 9L220160315003510103/15/16 00:35:31  5-MIN K9L2 150835Z AUTO 35003KT 10SM CLR 06/02 A3009 2140 76 1600 340/03 RMK AO2 $
53144K9L2 9L220160315004010103/15/16 00:40:31  5-MIN K9L2 150840Z AUTO 00000KT 10SM CLR 06/02 A3009 2140 76 1600 000/00 RMK AO2 $
53144K9L2 9L220160315004510103/15/16 00:45:31  5-MIN K9L2 150845Z AUTO 02004KT 10SM CLR 06/02 A3010 2140 76 1600 010/04 RMK AO2 $
53144K9L2 9L220160315005010103/15/16 00:50:31  5-MIN K9L2 150850Z AUTO 04003KT 10SM CLR 06/02 A3010 2140 79 1600 020/03 RMK AO2 $
53144K9L2 9L220160315005512403/15/16 00:55:31  5-MIN K9L2 150855Z AUTO 02003KT 10SM CLR 06/02 A3010 2140 76 1600 360/03 RMK AO2 SLP192 T00560017 51017 $
53144K9L2 9L220160315010010103/15/16 01:00:31  5-MIN K9L2 150900Z AUTO 02003KT 10SM CLR 05/02 A3010 2140 79 1500 010/03 RMK AO2 $
53144K9L2 9L220160315010510103/15/16 01:05:31  5-MIN K9L2 150905Z AUTO 00000KT 10SM CLR 05/02 A3009 2140 79 1500 000/00 RMK AO2 $
53144K9L2 9L220160315011010103/15/16 01:10:31  5-MIN K9L2 150910Z AUTO 00000KT 10SM CLR 06/02 A3010 2140 76 1600 000/00 RMK AO2 $
53144K9L2 9L220160315011510103/15/16 01:15:31  5-MIN K9L2 150915Z AUTO 00000KT 10SM CLR 05/02 A3009 2140 79 1500 000/00 RMK AO2 $
53144K9L2 9L220160315012010103/15/16 01:20:31  5-MIN K9L2 150920Z AUTO 00000KT 10SM CLR 05/02 A3010 2140 79 1500 000/00 RMK AO2 $
53144K9L2 9L220160315012510103/15/16 01:25:31  5-MIN K9L2 150925Z AUTO 00000KT 10SM CLR 05/02 A3010 2140 79 1500 000/00 RMK AO2 $
53144K9L2 9L220160315013010103/15/16 01:30:31  5-MIN K9L2 150930Z AUTO 00000KT 10SM CLR 05/02 A3010 2140 79 1500 000/00 RMK AO2 $
53144K9L2 9L220160315013510103/15/16 01:35:31  5-MIN K9L2 150935Z AUTO 01004KT 10SM CLR 04/01 A3010 2140 79 1400 360/04 RMK AO2 $
53144K9L2 9L220160315014010103/15/16 01:40:31  5-MIN K9L2 150940Z AUTO 00000KT 10SM CLR 04/01 A3010 2140 79 1400 000/00 RMK AO2 $
53144K9L2 9L220160315014510103/15/16 01:45:31  5-MIN K9L2 150945Z AUTO 01003KT 10SM CLR 05/01 A3010 2140 76 1500 350/03 RMK AO2 $
53144K9L2 9L220160315015010103/15/16 01:50:31  5-MIN K9L2 150950Z AUTO VRB03KT 10SM CLR 04/01 A3009 2140 79 1400 VRB/03 RMK AO2 $
53144K9L2 9L220160315015511803/15/16 01:55:31  5-MIN K9L2 150955Z AUTO 00000KT 10SM CLR 05/01 A3009 2140 76 1500 000/00 RMK AO2 SLP190 T00500011 $
53144K9L2 9L220160315020010103/15/16 02:00:31  5-MIN K9L2 151000Z AUTO 06003KT 10SM CLR 04/01 A3009 2140 79 1400 050/03 RMK AO2 $
53144K9L2 9L220160315020510103/15/16 02:05:31  5-MIN K9L2 151005Z AUTO 00000KT 10SM CLR 05/01 A3009 2140 76 1500 000/00 RMK AO2 $
53144K9L2 9L220160315021010103/15/16 02:10:31  5-MIN K9L2 151010Z AUTO 00000KT 10SM CLR 04/01 A3009 2150 79 1400 000/00 RMK AO2 $
53144K9L2 9L220160315021510103/15/16 02:15:31  5-MIN K9L2 151015Z AUTO 00000KT 10SM CLR 04/01 A3009 2140 79 1400 000/00 RMK AO2 $
53144K9L2 9L220160315022010103/15/16 02:20:31  5-MIN K9L2 151020Z AUTO 00000KT 10SM CLR 04/01 A3009 2140 79 1400 000/00 RMK AO2 $
53144K9L2 9L220160315022510103/15/16 02:25:31  5-MIN K9L2 151025Z AUTO 00000KT 10SM CLR 04/01 A3009 2140 76 1400 000/00 RMK AO2 $
53144K9L2 9L220160315023010103/15/16 02:30:31  5-MIN K9L2 151030Z AUTO 00000KT 10SM CLR 04/01 A3009 2140 79 1400 000/00 RMK AO2 $
53144K9L2 9L220160315023510103/15/16 02:35:31  5-MIN K9L2 151035Z AUTO 00000KT 10SM CLR 04/01 A3009 2150 79 1400 000/00 RMK AO2 $
53144K9L2 9L220160315024010103/15/16 02:40:31  5-MIN K9L2 151040Z AUTO 00000KT 10SM CLR 03/01 A3009 2150 82 1300 000/00 RMK AO2 $
53144K9L2 9L220160315024510103/15/16 02:45:31  5-MIN K9L2 151045Z AUTO 00000KT 10SM CLR 03/01 A3009 2150 82 1300 000/00 RMK AO2 $
53144K9L2 9L220160315025010103/15/16 02:50:31  5-MIN K9L2 151050Z AUTO 00000KT 10SM CLR 03/00 A3009 2140 79 1300 000/00 RMK AO2 $
53144K9L2 9L220160315025511803/15/16 02:55:31  5-MIN K9L2 151055Z AUTO 28003KT 10SM CLR 03/01 A3009 2150 82 1300 270/03 RMK AO2 SLP191 T00330006 $
53144K9L2 9L220160315030010103/15/16 03:00:31  5-MIN K9L2 151100Z AUTO 00000KT 10SM CLR 03/01 A3009 2150 82 1300 000/00 RMK AO2 $
53144K9L2 9L220160315030510103/15/16 03:05:31  5-MIN K9L2 151105Z AUTO 00000KT 10SM CLR 03/01 A3009 2140 82 1300 000/00 RMK AO2 $
53144K9L2 9L220160315031010103/15/16 03:10:31  5-MIN K9L2 151110Z AUTO 00000KT 10SM CLR 03/01 A3009 2140 82 1300 000/00 RMK AO2 $
53144K9L2 9L220160315031510103/15/16 03:15:31  5-MIN K9L2 151115Z AUTO 00000KT 10SM CLR 03/01 A3009 2140 82 1300 000/00 RMK AO2 $
53144K9L2 9L220160315032010103/15/16 03:20:31  5-MIN K9L2 151120Z AUTO 00000KT 10SM CLR 03/01 A3009 2140 82 1300 000/00 RMK AO2 $
53144K9L2 9L220160315032510103/15/16 03:25:31  5-MIN K9L2 151125Z AUTO 00000KT 10SM CLR 03/00 A3009 2140 79 1300 000/00 RMK AO2 $
53144K9L2 9L220160315033010103/15/16 03:30:31  5-MIN K9L2 151130Z AUTO 00000KT 10SM CLR 03/00 A3009 2140 82 1200 000/00 RMK AO2 $
53144K9L2 9L220160315033510103/15/16 03:35:31  5-MIN K9L2 151135Z AUTO 00000KT 10SM CLR 03/00 A3009 2140 82 1200 000/00 RMK AO2 $
53144K9L2 9L220160315034010103/15/16 03:40:31  5-MIN K9L2 151140Z AUTO 00000KT 10SM CLR 03/00 A3009 2140 82 1200 000/00 RMK AO2 $
53144K9L2 9L220160315034510103/15/16 03:45:31  5-MIN K9L2 151145Z AUTO 00000KT 10SM CLR 03/00 A3009 2140 82 1200 000/00 RMK AO2 $
53144K9L2 9L220160315035010103/15/16 03:50:31  5-MIN K9L2 151150Z AUTO 00000KT 10SM CLR 03/00 A3009 2140 82 1200 000/00 RMK AO2 $
53144K9L2 9L220160315035513603/15/16 03:55:31  5-MIN K9L2 151155Z AUTO 00000KT 10SM CLR 03/00 A3009 2140 82 1200 000/00 RMK AO2 SLP193 T00280000 10100 20028 51004 $
53144K9L2 9L220160315040010103/15/16 04:00:31  5-MIN K9L2 151200Z AUTO 00000KT 10SM CLR 03/00 A3009 2140 82 1200 000/00 RMK AO2 $
53144K9L2 9L220160315040510803/15/16 04:05:31  5-MIN K9L2 151205Z AUTO 00000KT 10SM CLR 03/00 A3009 2120 85 1100 000/00 RMK AO2 FZRANO $
53144K9L2 9L220160315062010103/15/16 06:20:31  5-MIN K9L2 151420Z AUTO 00000KT 10SM CLR 03/00 A3012 2120 82 1200 000/00 RMK AO2 $
53144K9L2 9L220160315062510103/15/16 06:25:31  5-MIN K9L2 151425Z AUTO 00000KT 10SM CLR 03/00 A3012 2120 82 1200 000/00 RMK AO2 $
53144K9L2 9L220160315063010103/15/16 06:30:31  5-MIN K9L2 151430Z AUTO 00000KT 10SM CLR 03/00 A3012 2090 68 1800 000/00 RMK AO2 $
53144K9L2 9L220160315081510103/15/16 08:15:31  5-MIN K9L2 151615Z AUTO 00000KT 10SM CLR 08/02 A3015 2090 68 1800 000/00 RMK AO2 $
53144K9L2 9L220160315082010103/15/16 08:20:31  5-MIN K9L2 151620Z AUTO 00000KT 10SM CLR 08/02 A3014 2100 68 1800 000/00 RMK AO2 $
53144K9L2 9L220160315082510103/15/16 08:25:31  5-MIN K9L2 151625Z AUTO 12003KT 10SM CLR 08/02 A3014 2100 65 1800 100/03 RMK AO2 $
53144K9L2 9L220160315083010103/15/16 08:30:31  5-MIN K9L2 151630Z AUTO 00000KT 10SM CLR 08/02 A3014 2100 65 1800 000/00 RMK AO2 $
53144K9L2 9L220160315083510103/15/16 08:35:31  5-MIN K9L2 151635Z AUTO 00000KT 10SM CLR 08/02 A3015 2090 65 1800 000/00 RMK AO2 $
53144K9L2 9L220160315084010103/15/16 08:40:31  5-MIN K9L2 151640Z AUTO 00000KT 10SM CLR 09/02 A3015 2090 63 1900 000/00 RMK AO2 $
53144K9L2 9L220160315084510103/15/16 08:45:31  5-MIN K9L2 151645Z AUTO 00000KT 10SM CLR 09/02 A3015 2090 60 2000 000/00 RMK AO2 $
53144K9L2 9L220160315085010103/15/16 08:50:31  5-MIN K9L2 151650Z AUTO 00000KT 10SM CLR 09/02 A3015 2090 60 2000 000/00 RMK AO2 $
53144K9L2 9L220160315085511803/15/16 08:55:31  5-MIN K9L2 151655Z AUTO 00000KT 10SM CLR 09/02 A3015 2090 60 2000 000/00 RMK AO2 SLP211 T00940022 $
53144K9L2 9L220160315090010103/15/16 09:00:31  5-MIN K9L2 151700Z AUTO 00000KT 10SM CLR 10/02 A3015 2090 58 2000 000/00 RMK AO2 $
53144K9L2 9L220160315090510103/15/16 09:05:31  5-MIN K9L2 151705Z AUTO 00000KT 10SM CLR 10/02 A3015 2090 58 2000 000/00 RMK AO2 $
53144K9L2 9L220160315091010103/15/16 09:10:31  5-MIN K9L2 151710Z AUTO 00000KT 10SM CLR 10/02 A3015 2090 58 2000 000/00 RMK AO2 $
53144K9L2 9L220160315091510103/15/16 09:15:31  5-MIN K9L2 151715Z AUTO 00000KT 10SM CLR 11/02 A3015 2090 56 2100 000/00 RMK AO2 $
53144K9L2 9L220160315092010103/15/16 09:20:31  5-MIN K9L2 151720Z AUTO 00000KT 10SM CLR 11/02 A3015 2090 56 2100 000/00 RMK AO2 $
53144K9L2 9L220160315092510103/15/16 09:25:31  5-MIN K9L2 151725Z AUTO 18003KT 10SM CLR 11/02 A3015 2090 56 2100 170/03 RMK AO2 $
53144K9L2 9L220160315093010103/15/16 09:30:31  5-MIN K9L2 151730Z AUTO 00000KT 10SM CLR 11/02 A3015 2090 54 2200 000/00 RMK AO2 $
53144K9L2 9L220160315093510103/15/16 09:35:31  5-MIN K9L2 151735Z AUTO 16003KT 10SM CLR 12/02 A3015 2090 52 2200 150/03 RMK AO2 $
53144K9L2 9L220160315094010103/15/16 09:40:31  5-MIN K9L2 151740Z AUTO 00000KT 10SM CLR 12/02 A3015 2090 50 2300 000/00 RMK AO2 $
53144K9L2 9L220160315094510103/15/16 09:45:31  5-MIN K9L2 151745Z AUTO 00000KT 10SM CLR 12/02 A3015 2090 50 2300 000/00 RMK AO2 $
53144K9L2 9L220160315095010103/15/16 09:50:31  5-MIN K9L2 151750Z AUTO 17003KT 10SM CLR 13/02 A3015 2090 46 2400 160/03 RMK AO2 $
53144K9L2 9L220160315095513603/15/16 09:55:31  5-MIN K9L2 151755Z AUTO 13003KT 10SM CLR 13/02 A3015 2090 46 2400 120/03 RMK AO2 SLP210 T01280017 10128 20022 53013 $
53144K9L2 9L220160315100016003/15/16 10:00:31  5-MIN K9L2 151800Z AUTO 00000KT 10SM CLR 3/15/16 10:15:31  5-MIN K9L2 151815Z AUTO 15003KT 10SM CLR 13/02 A3015 2090 46 2400 130/03 RMK AO2 $
53144K9L2 9L220160315102010103/15/16 10:20:31  5-MIN K9L2 151820Z AUTO 00000KT 10SM CLR 13/02 A3015 2090 46 2400 000/00 RMK AO2 $
53144K9L2 9L220160315102510103/15/16 10:25:31  5-MIN K9L2 151825Z AUTO 00000KT 10SM CLR 14/02 A3014 2100 43 2500 000/00 RMK AO2 $
53144K9L2 9L220160315103010103/15/16 10:30:31  5-MIN K9L2 151830Z AUTO 00000KT 10SM CLR 14/02 A3014 2100 41 2600 000/00 RMK AO2 $
53144K9L2 9L220160315103510103/15/16 10:35:31  5-MIN K9L2 151835Z AUTO 11003KT 10SM CLR 14/02 A3014 2100 41 2600 090/03 RMK AO2 $
53144K9L2 9L220160315104010103/15/16 10:40:31  5-MIN K9L2 151840Z AUTO 09004KT 10SM CLR 15/02 A3014 2100 40 2600 080/04 RMK AO2 $
53144K9L2 9L220160315104510103/15/16 10:45:31  5-MIN K9L2 151845Z AUTO 00000KT 10SM CLR 15/02 A3014 2100 40 2600 000/00 RMK AO2 $
53144K9L2 9L220160315105012803/15/16 10:50:31  5-MIN K9L2 151850Z AUTO 14004KT 10SM CLR 15/02 A30 00000KT 10SM CLR 18/02 A3010 2130 35 3000 000/00 RMK AO2 $
53144K9L2 9L220160315122010103/15/16 12:20:31  5-MIN K9L2 152020Z AUTO 00000KT 10SM CLR 18/02 A3010 2130 33 3000 000/00 RMK AO2 $
53144K9L2 9L220160315122510103/15/16 12:25:31  5-MIN K9L2 152025Z AUTO 00000KT 10SM CLR 19/02 A3010 2140 31 3100 000/00 RMK AO2 $
53144K9L2 9L220160315123010103/15/16 12:30:31  5-MIN K9L2 152030Z AUTO 14004KT 10SM CLR 19/02 A3010 2140 32 3100 120/04 RMK AO2 $
53144K9L2 9L220160315123510103/15/16 12:35:31  5-MIN K9L2 152035Z AUTO 18003KT 10SM CLR 18/02 A3009 2140 32 3100 160/03 RMK AO2 $
53144K9L2 9L220160315124010103/15/16 12:40:31  5-MIN K9L2 152040Z AUTO 18003KT 10SM CLR 19/02 A3009 2150 32 3100 170/03 RMK AO2 $
53144K9L2 9L220160315124510103/15/16 12:45:31  5-MIN K9L2 152045Z AUTO 15004KT 10SM CLR 19/02 A3009 2150 31 3100 140/04 RMK AO2 $
53144K9L2 9L220160315125010103/15/16 12:50:31  5-MIN K9L2 152050Z AUTO 00000KT 10SM CLR 19/02 A3008 2150 31 3200 000/00 RMK AO2 $
53144K9L2 9L220160315125512403/15/16 12:55:31  5-MIN K9L2 152055Z AUTO VRB03KT 10SM CLR 19/02 A3008 2150 31 3200 VRB/03 RMK AO2 SLP185 T01940022 51005 $
53144K9L2 9L220160315130010103/15/16 13:00:31  5-MIN K9L2 152100Z AUTO 18003KT 10SM CLR 19/02 A3008 2160 31 3200 170/03 RMK AO2 $
53144K9L2 9L220160315130510103/15/16 13:05:31  5-MIN K9L2 152105Z AUTO 00000KT 10SM CLR 19/02 A3007 2160 31 3200 000/00 RMK AO2 $
53144K9L2 9L220160315131010103/15/16 13:10:31  5-MIN K9L2 152110Z AUTO VRB04KT 10SM CLR 20/02 A3007 2160 29 3300 VRB/04 RMK AO2 $
53144K9L2 9L220160315131510103/15/16 13:15:31  5-MIN K9L2 152115Z AUTO 00000KT 10SM CLR 20/02 A3007 2170 29 3300 000/00 RMK AO2 $
53144K9L2 9L220160315132008303/15/16 13:20:31  5-MIN K9L2 152120Z AUTO 10003KT 10SM CLR 20/02 A3007 (S) LISTED.
53144K9L2 9L220160316105511803/16/16 10:55:31  5-MIN K9L2 161855Z AUTO 00000KT 10SM CLR 19/00 A3010 2140 28 3100 000/00 RMK AO2 SLP188 T01890000 $
53144K9L2 9L220160316110010103/16/16 11:00:31  5-MIN K9L2 161900Z AUTO 00000KT 10SM CLR 19/01 A3010 2140 29 3100 000/00 RMK AO2 $
53144K9L2 9L220160316110510103/16/16 11:05:31  5-MIN K9L2 161905Z AUTO 00000KT 10SM CLR 19/01 A3009 2140 28 3200 000/00 RMK AO2 $
53144K9L2 9L220160316111010103/16/16 11:10:31  5-MIN K9L2 161910Z AUTO 00000KT 10SM CLR 19/01 A3009 2140 28 3200 000/00 RMK AO2 $
53144K9L2 9L220160316111510103/16/16 11:15:31  5-MIN K9L2 161915Z AUTO VRB03KT 10SM CLR 20/00 A3009 2150 26 3300 VRB/03 RMK AO2 $
53144K9L2 9L220160316112010103/16/16 11:20:31  5-MIN K9L2 161920Z AUTO 04005KT 10SM CLR 22/00 A3009 2150 23 3500 030/05 RMK AO2 $
53144K9L2 9L220160316112510103/16/16 11:25:31  5-MIN K9L2 161925Z AUTO 09003KT 10SM CLR 22/00 A3008 2150 23 3500 080/03 RMK AO2 $
53144K9L2 9L220160316113010103/16/16 11:30:31  5-MIN K9L2 161930Z AUTO 05004KT 10SM CLR 22/00 A3008 2160 22 3500 040/04 RMK AO2 $
53144K9L2 9L220160316113510203/16/16 11:35:31  5-MIN K9L2 161935Z AUTO 06005KT 10SM CLR 23/M01 A3008 2160 20 3600 050/05 RMK AO2 $
53144K9L2 9L220160316114010203/16/16 11:40:31  5-MIN K9L2 161940Z AUTO 05008KT 10SM CLR 23/M02 A3007 2160 19 3600 040/08 RMK AO2 $
53144K9L2 9L220160316114510203/16/16 11:45:31  5-MIN K9L2 161945Z AUTO 07007KT 10SM CLR 23/M02 A3007 2160 19 3600 060/07 RMK AO2 $
53144K9L2 9L220160316115010203/16/16 11:50:31  5-MIN K9L2 161950Z AUTO VRB04KT 10SM CLR 23/M02 A3007 2160 18 3600 VRB/04 RMK AO2 $
53144K9L2 9L220160316115511903/16/16 11:55:31  5-MIN K9L2 161955Z AUTO 00000KT 10SM CLR 23/M02 A3007 2170 18 3600 000/00 RMK AO2 SLP177 T02281022 $
53144K9L2 9L220160316120010203/16/16 12:00:31  5-MIN K9L2 162000Z AUTO 12004KT 10SM CLR 23/M03 A3006 2170 18 3600 100/04 RMK AO2 $
53144K9L2 9L220160316120510203/16/16 12:05:31  5-MIN K9L2 162005Z AUTO 05004KT 10SM CLR 23/M03 A3006 2170 18 3600 040/04 RMK AO2 $
53144K9L2 9L220160316121010203/16/16 12:10:31  5-MIN K9L2 162010Z AUTO VRB04KT 10SM CLR 23/M03 A3006 2180 17 3700 VRB/04 RMK AO2 $
53144K9L2 9L220160316121510203/16/16 12:15:31  5-MIN K9L2 162015Z AUTO VRB04KT 10SM CLR 24/M03 A3006 2180 16 3700 VRB/04 RMK AO2 $
53144K9L2 9L220160316122010203/16/16 12:20:31  5-MIN K9L2 162020Z AUTO 11004KT 10SM CLR 23/M03 A3005 2180 16 3700 090/04 RMK AO2 $
53144K9L2 9L220160316123009203/16/16 12:30:31  5-MIN K9L2 162030Z AUTO 00000KT A3005 M M M 000/00 RMK AO2 PWINO FZRANO $
53144K9L2 9L220160316123509303/16/16 12:35:31  5-MIN K9L2 162035Z AUTO VRB06KT 24/M05 A3005 2190 14 3700 VRB/06 RMK AO2 $
53144K9L2 9L220160316124009803/16/16 12:40:31  5-MIN K9L2 162040Z AUTO 11008KT 10SM 24/M06 A3004 2190 13 3800 100/08 RMK AO2 $
53144K9L2 9L220160316124509803/16/16 12:45:31  5-MIN K9L2 162045Z AUTO 07007KT 10SM 24/M06 A3004 2190 13 3800 060/07 RMK AO2 $
53144K9L2 9L220160316125009803/16/16 12:50:31  5-MIN K9L2 162050Z AUTO 11008KT 10SM 25/M06 A3004 2200 12 3900 100/08 RMK AO2 $
53144K9L2 9L220160316125512103/16/16 12:55:31  5-MIN K9L2 162055Z AUTO 12004KT 10SM 24/M06 A3003 2200 13 3800 110/04 RMK AO2 SLP164 6//// T02441056 $
53144K9L2 9L220160316130010803/16/16 13:00:31  5-MIN K9L2 162100Z AUTO 09008G14KT 10SM CLR 24/M06 A3003 2200 12 3800 070/08G14 RMK AO2 $
53144K9L2 9L220160316130510803/16/16 13:05:31  5-MIN K9L2 162105Z AUTO 08007G14KT 10SM CLR 24/M06 A3003 2200 12 3800 060/07G14 RMK AO2 $
53144K9L2 9L220160316131010203/16/16 13:10:31  5-MIN K9L2 162110Z AUTO 11006KT 10SM CLR 24/M07 A3003 2200 12 3800 090/06 RMK AO2 $
53144K9L2 9L220160316131512003/16/16 13:15:31  5-MIN K9L2 162115Z AUTO 09007KT 10SM CLR 25/M07 A3002 2210 11 3900 080/07 R0 11 3900 120/05 RMK AO2 $
53144K9L2 9L220160316134510803/16/16 13:45:31  5-MIN K9L2 162145Z AUTO 02007G22KT 10SM CLR 26/M06 A3001 2220 12 4000 010/07G22 RMK AO2 $
53144K9L2 9L220160316135010803/16/16 13:50:31  5-MIN K9L2 162150Z AUTO 09007G22KT 10SM CLR 26/M06 A3001 2220 12 4000 080/07G22 RMK AO2 $
53144K9L2 9L220160316135511903/16/16 13:55:31  5-MIN K9L2 162155Z AUTO 08004KT 10SM CLR 25/M07 A3000 2220 11 3900 060/04 RMK AO2 SLP155 T02501067 $
53144K9L2 9L220160316140010203/16/16 14:00:31  5-MIN K9L2 162200Z AUTO 10008KT 10SM CLR 26/M07 A3000 2230 11 4000 090/08 RMK AO2 $
53144K9L2 9L220160316140510203/16/16 14:05:31  5-MIN K9L2 162205Z AUTO 09008KT 10SM CLR 26/M07 A3000 2230 11 4000 070/08 RMK AO2 $
53144K9L2 9L220160316141010203/16/16 14:10:31  5-MIN K9L2 162210Z AUTO 06003KT 10SM CLR 25/M07 A3000 2230 11 3900 050/03 RMK AO2 $
53144K9L2 9L220160316141510203/16/16 14:15:31  5-MIN K9L2 162215Z AUTO 10006KT 10SM CLR 26/M06 A3000 2230 12 4000 090/06 RMK AO2 $
53144K9L2 9L220160316142010203/16/16 14:20:31  5-MIN K9L2 162220Z AUTO 08008KT 10SM CLR 25/M07 A3000 2230 11 3900 070/08 RMK AO2 $
53144K9L2 9L220160316142510203/16/16 14:25:31  5-MIN K9L2 162225Z AUTO 05006KT 10SM CLR 26/M07 A3000 2230 11 4000 040/06 RMK AO2 $
53144K9L2 9L220160316143010203/16/16 14:30:31  5-MIN K9L2 162230Z AUTO 07008KT 10SM CLR 26/M07 A2999 2230 11 4000 050/08 RMK AO2 $
53144K9L2 9L220160316143515503/16/16 14:35:31  5-MIN K9L2 162235Z AUTO VRB04KT 10SM CLR 26/M07 A2999 -MIN K9L2 162325Z AUTO 12006KT 10SM CLR 26/M07 A2998 2250 11 4000 100/06 RMK AO2 $
53144K9L2 9L220160316153010203/16/16 15:30:31  5-MIN K9L2 162330Z AUTO 12005KT 10SM CLR 26/M08 A2998 2250 10 4000 100/05 RMK AO2 $
53144K9L2 9L220160316153510203/16/16 15:35:31  5-MIN K9L2 162335Z AUTO 12005KT 10SM CLR 26/M07 A2998 2250 11 4000 110/05 RMK AO2 $
53144K9L2 9L220160316154010203/16/16 15:40:31  5-MIN K9L2 162340Z AUTO 00000KT 10SM CLR 26/M07 A2998 2250 11 4000 000/00 RMK AO2 $
53144K9L2 9L220160316154510203/16/16 15:45:31  5-MIN K9L2 162345Z AUTO 14007KT 10SM CLR 26/M07 A2997 2250 11 4000 120/07 RMK AO2 $
53144K9L2 9L220160316155011803/16/16 15:50:31  5-MIN K9L2 162350Z AUTO 08008KT 060V120 10SM CLR 26/M07 A2997 2250 11 4000 070/08 050V110 RMK AO2 $
53144K9L2 9L220160316155513703/16/16 15:55:31  5-MIN K9L2 162355Z AUTO 09004KT 10SM CLR 26/M07 A2997 2260 11 4000 080/04 RMK AO2 SLP145 6//// T02561072 10261 20150 $
53144K9L2 9L220160316160010203/16/16 16:00:31  5-MIN K9L2 170000Z AUTO 09004KT 10SM CLR 26/M08 A2997 2260 10 4000 080/04 RMK AO2 $
53144K9L2 9L220160316160510203/16/16 16:05:31  5-MIN K9L2 170005Z AUTO 12005KT 10SM CLR 26/M08 A2997 2260 10 4000 100/05 RMK AO2 $
53144K9L2 9L220160316161010203/16/16 16:10:31  5-MIN K9L2 170010Z AUTO 10004KT 10SM CLR 26/M08 A2997 2260 10 4000 090/04 RMK AO2 $
53144K9L2 9L220160316161510203/16/16 16:15:31  5-MIN K9L2 170015Z AUTO 14005KT 10SM CLR 26/M07 A2997 2260 11 4000 120/05 RMK AO2 $
53144K9L2 9L220160316162010203/16/16 16:20:31  5-MIN K9L2 170020Z AUTO 16005KT 10SM CLR 26/M07 A2997 2260 11 4000 140/05 RMK AO2 $
53144K9L2 9L220160316162510203/16/16 16:25:31  5-MIN K9L2 170025Z AUTO 16004KT 10SM CLR 25/M07 A2996 2260 11 4000 150/04 RMK AO2 $
53144K9L2 9L220160316163010203/16/16 16:30:31  5-MIN K9L2 170030Z AUTO 15005KT 10SM CLR 25/M07 A2996 2260 11 4000 140/05 RMK AO2 $
53144K9L2 9L220160316163516403/16/16 16:35:31  5-MIN K9L2 170035Z AUTO 14004KT 10SM CLR 25/M016/16 16:50:31  5-MIN K9L2 170050Z AUTO 15004KT 10SM CLR 25/M07 A2996 2260 11 4000 130/04 RMK AO2 $
53144K9L2 9L220160316165511903/16/16 16:55:31  5-MIN K9L2 170055Z AUTO 12004KT 10SM CLR 25/M08 A2996 2260 10 4000 110/04 RMK AO2 SLP142 T02501078 $
53144K9L2 9L220160316170010203/16/16 17:00:31  5-MIN K9L2 170100Z AUTO 10003KT 10SM CLR 25/M08 A2996 2260 10 4000 090/03 RMK AO2 $
53144K9L2 9L220160316170510203/16/16 17:05:31  5-MIN K9L2 170105Z AUTO 11004KT 10SM CLR 25/M08 A2996 2260 10 4000 090/04 RMK AO2 $
53144K9L2 9L220160316171010203/16/16 17:10:31  5-MIN K9L2 170110Z AUTO 11004KT 10SM CLR 25/M07 A2996 2260 11 4000 100/04 RMK AO2 $
53144K9L2 9L220160316171510203/16/16 17:15:31  5-MIN K9L2 170115Z AUTO 09004KT 10SM CLR 24/M07 A2996 2270 12 3900 080/04 RMK AO2 $
53144K9L2 9L220160316172010203/16/16 17:20:31  5-MIN K9L2 170120Z AUTO 00000KT 10SM CLR 24/M07 A2996 2270 11 3900 000/00 RMK AO2 $
53144K9L2 9L220160316172510203/16/16 17:25:31  5-MIN K9L2 170125Z AUTO 00000KT 10SM CLR 24/M07 A2996 2270 12 3900 000/00 RMK AO2 $
53144K9L2 9L220160316173010203/16/16 17:30:31  5-MIN K9L2 170130Z AUTO 00000KT 10SM CLR 24/M06 A2996 2270 13 3900 000/00 RMK AO2 $
53144K9L2 9L220160316173510203/16/16 17:35:31  5-MIN K9L2 170135Z AUTO 00000KT 10SM CLR 24/M06 A2996 2270 12 3900 000/00 RMK AO2 $
53144K9L2 9L220160316174013103/16/16 17:40:31  5-MIN K9L2 170140Z AUTO 00000KT 10SM CLR 24/M07 A2996 2270 12 3800 000/00 RMK AO2 $2270 16 3600 000/00 RMK AO2 $
53144K9L2 9L220160316182510203/16/16 18:25:31  5-MIN K9L2 170225Z AUTO 00000KT 10SM CLR 21/M05 A2996 2270 17 3500 000/00 RMK AO2 $
53144K9L2 9L220160316183010203/16/16 18:30:31  5-MIN K9L2 170230Z AUTO 00000KT 10SM CLR 20/M04 A2996 2270 19 3400 000/00 RMK AO2 $
53144K9L2 9L220160316183513103/16/16 18:35:31  5-MIN K9L2 170235Z AUTO 00000KT 10SM CLR 19/M03 A2996 2270 22 3300 000/00 RMK AO2 $2250 32 2700 010/08 RMK AO2 $
53144K9L2 9L220160316202010203/16/16 20:20:31  5-MIN K9L2 170420Z AUTO 02006KT 10SM CLR 14/M03 A2998 2250 30 2700 360/06 RMK AO2 $
53144K9L2 9L220160316202510203/16/16 20:25:31  5-MIN K9L2 170425Z AUTO 35007KT 10SM CLR 14/M03 A2998 2250 31 2700 340/07 RMK AO2 $
53144K9L2 9L220160316203010203/16/16 20:30:31  5-MIN K9L2 170430Z AUTO 33004KT 10SM CLR 13/M03 A2998 2240 32 2600 320/04 RMK AO2 $
53144K9L2 9L220160316203510203/16/16 20:35:31  5-MIN K9L2 170435Z AUTO 35005KT 10SM CLR 13/M02 A2998 2240 35 2500 340/05 RMK AO2 $
53144K9L2 9L220160316204010203/16/16 20:40:31  5-MIN K9L2 170440Z AUTO 35004KT 10SM CLR 13/M02 A2998 2240 34 2600 340/04 RMK AO2 $
53144K9L2 9L220160316204510203/16/16 20:45:31  5-MIN K9L2 170445Z AUTO 32003KT 10SM CLR 13/M02 A2998 2240 34 2600 310/03 RMK AO2 $
53144K9L2 9L220160316205010203/16/16 20:50:31  5-MIN K9L2 170450Z AUTO 31003KT 10SM CLR 13/M02 A2998 2240 35 2500 290/03 RMK AO2 $
53144K9L2 9L220160316205511903/16/16 20:55:31  5-MIN K9L2 170455Z AUTO 31004KT 10SM CLR 13/M02 A2998 2240 35 2500 290/04 RMK AO2 SLP153 T01281022 $
53144K9L2 9L220160316210010203/16/16 21:00:31  5-MIN K9L2 170500Z AUTO 31005KT 10SM CLR 12/M02 A2999 2240 36 2500 300/05 RMK AO2 $
53144K9L2 9L220160316210510203/16/16 21:05:31  5-MIN K9L2 170505Z AUTO 32004KT 10SM CLR 13/M03 A2999 2240 33 2500 310/04 RMK AO2 $
53144K9L2 9L220160316211010203/16/16 21:10:31  5-MIN K9L2 170510Z AUTO 31004KT 10SM CLR 13/M03 A2999 2240 33 2500 300/04 RMK AO2 $
53144K9L2 9L220160316211510203/16/16 21:15:31  5-MIN K9L2 170515Z AUTO 30004KT 10SM CLR 12/M03 A2999 2240 35 2500 290/04 RMK AO2 $
53144K9L2 9L220160316212010203/16/16 21:20:31  5-MIN K9L2 170520Z AUTO 30005KT 10SM CLR 12/M03 A2999 2240 36 2400 290/05 RMK AO2 $
53144K9L2 9L220160316212510203/16/16 21:25:31  5-MIN K9L2 170525Z AUTO 31004KT 10SM CLR 12/M03 A2999 2240 36 2400 300/04 RMK AO2 $
53144K9L2 9L220160316213010203/16/16 21:30:31  5-MIN K9L2 170530Z AUTO 30004KT 10SM CLR 12/M03 A2999 2240 35 2500 290/04 RMK AO2 $
53144K9L2 9L220160316213510203/16/16 21:35:31  5-MIN K9L2 170535Z AUTO 29004KT 10SM CLR 12/M03 A2999 2240 36 2400 280/04 RMK AO2 $
53144K9L2 9L220160316214010203/16/16 21:40:31  5-MIN K9L2 170540Z AUTO 29004KT 10SM CLR 12/M03 A2999 2240 36 2400 280/04 RMK AO2 $
53144K9L2 9L220160316214510203/16/16 21:45:31  5-MIN K9L2 170545Z AUTO 30004KT 10SM CLR 12/M03 A2999 2240 36 2400 290/04 RMK AO2 $
53144K9L2 9L220160316215010203/16/16 21:50:31  5-MIN K9L2 170550Z AUTO 32003KT 10SM CLR 12/M03 A2999 2240 36 2400 310/03 RMK AO2 $
53144K9L2 9L220160316215513703/16/16 21:55:31  5-MIN K9L2 170555Z AUTO 33003KT 10SM CLR 12/M03 A2999 2240 36 2400 310/03 RMK AO2 SLP154 T01171028 10256 20117 55002 $
53144K9L2 9L220160316220010203/16/16 22:00:31  5-MIN K9L2 170600Z AUTO 31004KT 10SM CLR 11/M02 A2999 2240 39 2300 300/04 RMK AO2 $
53144K9L2 9L220160316220510203/16/16 22:05:31  5-MIN K9L2 170605Z AUTO 32005KT 10SM CLR 11/M02 A2999 2230 40 2300 300/05 RMK AO2 $
53144K9L2 9L220160316221010203/16/16 22:10:31  5-MIN K9L2 170610Z AUTO 28005KT 10SM CLR 11/M02 A2999 2230 40 2300 270/05 RMK AO2 $
53144K9L2 9L220160316221510203/16/16 22:15:31  5-MIN K9L2 170615Z AUTO 29004KT 10SM CLR 11/M02 A2999 2230 40 2300 270/04 RMK AO2 $
53144K9L2 9L220160316222010203/16/16 22:20:31  5-MIN K9L2 170620Z AUTO 30004KT 10SM CLR 10/M02 A2999 2230 42 2200 290/04 RMK AO2 $
53144K9L2 9L220160316222510203/16/16 22:25:31  5-MIN K9L2 170625Z AUTO 32005KT 10SM CLR 09/M02 A2999 2230 44 2100 300/05 RMK AO2 $
53144K9L2 9L220160316223010203/16/16 22:30:31  5-MIN K9L2 170630Z AUTO 32003KT 10SM CLR 09/M02 A2999 2230 44 2100 310/03 RMK AO2 $
53144K9L2 9L220160316223510203/16/16 22:35:31  5-MIN K9L2 170635Z AUTO 33004KT 10SM CLR 09/M02 A2999 2240 47 2100 320/04 RMK AO2 $
53144K9L2 9L220160316224010203/16/16 22:40:31  5-MIN K9L2 170640Z AUTO 31004KT 10SM CLR 09/M02 A2999 2240 47 2100 300/04 RMK AO2 $
53144K9L2 9L220160316224510203/16/16 22:45:31  5-MIN K9L2 170645Z AUTO 31004KT 10SM CLR 09/M02 A2999 2240 45 2100 300/04 RMK AO2 $
53144K9L2 9L220160316225010203/16/16 22:50:31  5-MIN K9L2 170650Z AUTO 30005KT 10SM CLR 09/M01 A2999 2240 47 2100 290/05 RMK AO2 $
53144K9L2 9L220160316225511903/16/16 22:55:31  5-MIN K9L2 170655Z AUTO 30005KT 10SM CLR 10/M01 A2999 2240 46 2200 290/05 RMK AO2 SLP150 T01001011 $
53144K9L2 9L220160316230010203/16/16 23:00:31  5-MIN K9L2 170700Z AUTO 31004KT 10SM CLR 09/M01 A2999 2240 47 2100 290/04 RMK AO2 $
53144K9L2 9L220160316230510203/16/16 23:05:31  5-MIN K9L2 170705Z AUTO 30003KT 10SM CLR 09/M01 A2999 2240 47 2100 290/03 RMK AO2 $
53144K9L2 9L220160316231010203/16/16 23:10:31  5-MIN K9L2 170710Z AUTO 00000KT 10SM CLR 09/M01 A2999 2240 47 2100 000/00 RMK AO2 $
53144K9L2 9L220160316231510203/16/16 23:15:31  5-MIN K9L2 170715Z AUTO 00000KT 10SM CLR 09/M01 A2999 2240 47 2100 000/00 RMK AO2 $
53144K9L2 9L220160316232010203/16/16 23:20:31  5-MIN K9L2 170720Z AUTO 00000KT 10SM CLR 09/M01 A2999 2240 47 2100 000/00 RMK AO2 $
53144K9L2 9L220160316232510203/16/16 23:25:31  5-MIN K9L2 170725Z AUTO 00000KT 10SM CLR 09/M01 A2998 2240 49 2100 000/00 RMK AO2 $
53144K9L2 9L220160316233010203/16/16 23:30:31  5-MIN K9L2 170730Z AUTO 00000KT 10SM CLR 09/M01 A2999 2240 49 2100 000/00 RMK AO2 $
53144K9L2 9L220160316233510203/16/16 23:35:31  5-MIN K9L2 170735Z AUTO 00000KT 10SM CLR 09/M01 A2998 2240 49 2100 000/00 RMK AO2 $
53144K9L2 9L220160316234010203/16/16 23:40:31  5-MIN K9L2 170740Z AUTO 00000KT 10SM CLR 08/M02 A2998 2250 49 2000 000/00 RMK AO2 $
53144K9L2 9L220160316234510203/16/16 23:45:31  5-MIN K9L2 170745Z AUTO 00000KT 10SM CLR 08/M01 A2998 2240 51 2000 000/00 RMK AO2 $
53144K9L2 9L220160316235010203/16/16 23:50:31  5-MIN K9L2 170750Z AUTO 00000KT 10SM CLR 09/M01 A2998 2250 49 2100 000/00 RMK AO2 $
53144K9L2 9L220160316235512903/16/16 23:55:31  5-MIN K9L2 170755Z AUTO 00000KT 10SM CLR 08/M01 A2998 2250 51 2000 000/00 RMK AO2 SLP148 T00831011 402610022 $
53144K9L2 9L220160317000010203/17/16 00:00:31  5-MIN K9L2 170800Z AUTO 35003KT 10SM CLR 08/M02 A2998 2250 49 2000 330/03 RMK AO2 $
53144K9L2 9L220160317000506003/17/16 00:05:31  5-MIN K9L2 170805Z AUTO 36003KT 10SM CLR 
53144K9L2 9L220160317002010203/17/16 00:20:31  5-MIN K9L2 170820Z AUTO 00000KT 10SM CLR 08/M02 A2998 2250 51 2000 000/00 RMK AO2 $
53144K9L2 9L220160317002511703/17/16 00:25:31  5-MIN K9L2 170825Z AUTO 00000KT 10SM O 02003KT 10SM CLR 07/M02 A2997 2260 55 1800 010/03 RMK AO2 $
53144K9L2 9L220160317013010203/17/16 01:30:31  5-MIN K9L2 170930Z AUTO 03004KT 10SM CLR 07/M02 A2997 2260 55 1800 020/04 RMK AO2 $
53144K9L2 9L220160317013510203/17/16 01:35:31  5-MIN K9L2 170935Z AUTO 00000KT 10SM CLR 07/M02 A2997 2260 55 1800 000/00 RMK AO2 $
53144K9L2 9L220160317014013103/17/16 01:40:31  5-MIN K9L2 170940Z AUTO 00000KT 10SM CLR 07/M02 A2997 2260 55 1800 000/00 RMK AO2 $2270 57 1800 010/03 RMK AO2 $
53144K9L2 9L220160317025010203/17/16 02:50:31  5-MIN K9L2 171050Z AUTO 00000KT 10SM CLR 06/M02 A2996 2270 59 1700 000/00 RMK AO2 $
53144K9L2 9L220160317025511903/17/16 02:55:31  5-MIN K9L2 171055Z AUTO 00000KT 10SM CLR 05/M02 A2996 2270 62 1600 000/00 RMK AO2 SLP139 T00501017 $
53144K9L2 9L220160317030010203/17/16 03:00:31  5-MIN K9L2 171100Z AUTO 00000KT 10SM CLR 05/M02 A2996 2270 62 1600 000/00 RMK AO2 $
53144K9L2 9L220160317030510203/17/16 03:05:31  5-MIN K9L2 171105Z AUTO 00000KT 10SM CLR 05/M02 A2996 2270 62 1600 000/00 RMK AO2 $
53144K9L2 9L220160317031010203/17/16 03:10:31  5-MIN K9L2 171110Z AUTO 00000KT 10SM CLR 05/M02 A2996 2270 62 1600 000/00 RMK AO2 $
53144K9L2 9L220160317031510203/17/16 03:15:31  5-MIN K9L2 171115Z AUTO 00000KT 10SM CLR 05/M02 A2996 2270 62 1600 000/00 RMK AO2 $
53144K9L2 9L220160317032011903/17/16 03:20:31  5-MIN K9L2 171120Z AUTO 00000KT 10SM CLR 05000/00 RMK AO2 SLP140 7//// T00441017 10111 20044 56005 $
53144K9L2 9L220160317040010203/17/16 04:00:31  5-MIN K9L2 171200Z AUTO 00000KT 10SM CLR 04/M02 A2996 2270 64 1600 000/00 RMK AO2 $
53144K9L2 9L220160317040510203/17/16 04:05:31  5-MIN K9L2 171205Z AUTO 00000KT 10SM CLR 04/M02 A2996 2270 64 1600 000/00 RMK AO2 $
53144K9L2 9L220160317041010203/17/16 04:10:31  5-MIN K9L2 171210Z AUTO 00000KT 10SM CLR 04/M02 A2996 2270 64 1600 000/00 RMK AO2 $
53144K9L2 9L220160317041510203/17/16 04:15:31  5-MIN K9L2 171215Z AUTO 00000KT 10SM CLR 04/M02 A2996 2270 64 1600 000/00 RMK AO2 $
53144K9L2 9L220160317042010203/17/16 04:20:31  5-MIN K9L2 171220Z AUTO 00000KT 10SM CLR 04/M02 A2996 2270 64 1600 000/00 RMK AO2 $
53144K9L2 9L220160317042510203/17/16 04:25:31  5-MIN K9L2 171225Z AUTO 00000KT 10SM CLR 04/M02 A2996 2270 64 1600 000/00 RMK AO2 $
53144K9L2 9L220160317043010203/17/16 04:30:31  5-MIN K9L2 171230Z AUTO 00000KT 10SM CLR 04/M02 A2996 2270 64 1600 000/00 RMK AO2 $
53144K9L2 9L220160317043510203/17/16 04:35:31  5-MIN K9L2 171235Z AUTO 00000KT 10SM CLR 04/M02 A2996 2270 64 1600 000/00 RMK AO2 $
53144K9L2 9L220160317044010203/17/16 04:40:31  5-MIN K9L2 171240Z AUTO 00000KT 10SM CLR 04/M02 A2996 2270 67 1500 000/00 RMK AO2 $
53144K9L2 9L220160317044510203/17/16 04:45:31  5-MIN K9L2 171245Z AUTO 00000KT 10SM CLR 04/M02 A2996 2270 67 1500 000/00 RMK AO2 $
53144K9L2 9L220160317045010203/17/16 04:50:31  5-MIN K9L2 171250Z AUTO 00000KT 10SM CLR 04/M02 A2996 2270 67 1500 000/00 RMK AO2 $
53144K9L2 9L220160317045511903/17/16 04:55:31  5-MIN K9L2 171255Z AUTO 00000KT 10SM CLR 04/M02 A2996 2270 64 1500 000/00 RMK AO2 SLP141 T00391022 $
53144K9L2 9L220160317050010203/17/16 05:00:31  5-MIN K9L2 171300Z AUTO 00000KT 10SM CLR 04/M02 A2996 2260 64 1500 000/00 RMK AO2 $
53144K9L2 9L220160317050510203/17/16 05:05:31  5-MIN K9L2 171305Z AUTO 00000KT 10SM CLR 04/M02 A2996 2260 64 1500 000/00 RMK AO2 $
53144K9L2 9L220160317051010203/17/16 05:10:31  5-MIN K9L2 171310Z AUTO 00000KT 10SM CLR 03/M02 A2997 2260 67 1400 000/00 RMK AO2 $
53144K9L2 9L220160317051510203/17/16 05:15:31  5-MIN K9L2 171315Z AUTO 00000KT 10SM CLR 04/M02 A2997 2260 64 1500 000/00 RMK AO2 $
53144K9L2 9L220160317052010203/17/16 05:20:31  5-MIN K9L2 171320Z AUTO 00000KT 10SM CLR 03/M02 A2997 2260 67 1400 000/00 RMK AO2 $
53144K9L2 9L220160317052514803/17/16 05:25:31  5-MIN K9L2 171325Z AUTO 00000KT 10SM CLR 03/M02 A2997 2260 67 1400 000/00 RMK AO2 $2260 67 1400 000/00 RMK AO2 SLP145 T00331022 $
53144K9L2 9L220160317060010203/17/16 06:00:31  5-MIN K9L2 171400Z AUTO 00000KT 10SM CLR 03/M02 A2997 2260 67 1400 000/00 RMK AO2 $
53144K9L2 9L220160317060510203/17/16 06:05:31  5-MIN K9L2 171405Z AUTO 00000KT 10SM CLR 03/M02 A2997 2260 67 1400 000/00 RMK AO2 $
53144K9L2 9L220160317061010203/17/16 06:10:31  5-MIN K9L2 171410Z AUTO 00000KT 10SM CLR 03/M02 A2997 2260 67 1400 000/00 RMK AO2 $
53144K9L2 9L220160317061510203/17/16 06:15:31  5-MIN K9L2 171415Z AUTO 00000KT 10SM CLR 03/M02 A2997 2260 70 1400 000/00 RMK AO2 $
53144K9L2 9L220160317062010203/17/16 06:20:31  5-MIN K9L2 171420Z AUTO 00000KT 10SM CLR 03/M02 A2997 2260 70 1400 000/00 RMK AO2 $
53144K9L2 9L220160317062510203/17/16 06:25:31  5-MIN K9L2 171425Z AUTO 00000KT 10SM CLR 04/M02 A2997 2260 67 1500 000/00 RMK AO2 $
53144K9L2 9L220160317063009903/17/16 06:30:31  5-MIN K9L2 171430Z AUTO 00KT 10SM CLR 07/M01 A2998 2250 55 1900 000/00 RMK AO2 $
53144K9L2 9L220160317071010203/17/16 07:10:31  5-MIN K9L2 171510Z AUTO 00000KT 10SM CLR 07/M01 A2998 2250 55 1900 000/00 RMK AO2 $
53144K9L2 9L220160317071510203/17/16 07:15:31  5-MIN K9L2 171515Z AUTO 00000KT 10SM CLR 08/M01 A2998 2250 53 2000 000/00 RMK AO2 $
53144K9L2 9L220160317072016003/17/16 07:20:31  5-MIN K9L2 171520Z AUTO 00000KT 10SM CLR 08/M01 A2998 2250 53 2000 000/00 RMK AO2 $03/17/16 07:25:31  5-MIA2998 2240 51 2000 000/00 RMK AO2 $
53144K9L2 9L220160317074010203/17/16 07:40:31  5-MIN K9L2 171540Z AUTO 00000KT 10SM CLR 09/M01 A2998 2240 49 2100 000/00 RMK AO2 $
53144K9L2 9L220160317074510203/17/16 07:45:31  5-MIN K9L2 171545Z AUTO 00000KT 10SM CLR 09/M01 A2998 2240 49 2100 000/00 RMK AO2 $
53144K9L2 9L220160317075010203/17/16 07:50:31  5-MIN K9L2 171550Z AUTO 00000KT 10SM CLR 09/M01 A2998 2250 49 2100 000/00 RMK AO2 $
53144K9L2 9L220160317075511903/17/16 07:55:31  5-MIN K9L2 171555Z AUTO 00000KT 10SM CLR 09/M01 A2998 2240 47 2200 000/00 RMK AO2 SLP153 T00941011 $
53144K9L2 9L220160317080010203/17/16 08:00:31  5-MIN K9L2 171600Z AUTO 00000KT 10SM CLR 09/M01 A2998 2240 47 2200 000/00 RMK AO2 $
53144K9L2 9L220160317080510203/17/16 08:05:31  5-MIN K9L2 171605Z AUTO 00000KT 10SM CLR 09/M01 A2998 2240 47 2100 000/00 RMK AO2 $
53144K9L2 9L220160317081010203/17/16 08:10:31  5-MIN K9L2 171610Z AUTO 00000KT 10SM CLR 10/M01 A2999 2240 46 2200 000/00 RMK AO2 $
53144K9L2 9L220160317081510203/17/16 08:15:31  5-MIN K9L2 171615Z AUTO 00000KT 10SM CLR 10/M01 A2999 2240 47 2200 000/00 RMK AO2 $
53144K9L2 9L220160317082010203/17/16 08:20:31  5-MIN K9L2 171620Z AUTO 00000KT 10SM CLR 10/M01 A2999 2240 47 2200 000/00 RMK AO2 $
53144K9L2 9L220160317082510203/17/16 08:25:31  5-MIN K9L2 171625Z AUTO 00000KT 10SM CLR 11/M01 A2999 2240 46 2300 000/00 RMK AO2 $
53144K9L2 9L220160317083014603/17/16 08:30:31  5-MIN K9L2 171630Z AUTO 14003KT 10SM CLR 11/M01 A2999 2240 46  2250 34 3000 000/00 RMK AO2 SLP147 T01670011 10167 20033 53006 $
53144K9L2 9L220160317091510103/17/16 09:15:31  5-MIN K9L2 171715Z AUTO 00000KT 10SM CLR 14/01 A2998 2250 40 2700 000/00 RMK AO2 $
53144K9L2 9L220160317092010103/17/16 09:20:31  5-MIN K9L2 171720Z AUTO 00000KT 10SM CLR 14/01 A2998 2250 40 2700 000/00 RMK AO2 $
53144K9L2 9L220160317092510103/17/16 09:25:31  5-MIN K9L2 171725Z AUTO 00000KT 10SM CLR 14/01 A2998 2250 40 2700 000/00 RMK AO2 $
53144K9L2 9L220160317093010103/17/16 09:30:31  5-MIN K9L2 171730Z AUTO 00000KT 10SM CLR 14/01 A2998 2250 38 2700 000/00 RMK AO2 $
53144K9L2 9L220160317093510103/17/16 09:35:31  5-MIN K9L2 171735Z AUTO 00000KT 10SM CLR 15/01 A2998 2250 37 2800 000/00 RMK AO2 $
53144K9L2 9L220160317094010103/17/16 09:40:31  5-MIN K9L2 171740Z AUTO 00000KT 10SM CLR 16/01 A2998 2250 36 2900 000/00 RMK AO2 $
53144K9L2 9L220160317094510103/17/16 09:45:31  5-MIN K9L2 171745Z AUTO 00000KT 10SM CLR 16/01 A2998 2250 34 2900 000/00 RMK AO2 $
53144K9L2 9L220160317095010103/17/16 09:50:31  5-MIN K9L2 171750Z AUTO 00000KT 10SM CLR 16/01 A2998 2250 36 2900 000/00 RMK AO2 $
53144K9L2 9L220160317095513603/17/16 09:55:31  5-MIN K9L2 171755Z AUTO 00000KT 10SM CLR 17/01 A2998 2250 34 3000 000/00 RMK AO2 SLP147 T01670011 10167 20033 53006 $
53144K9L2 9L220160317100010103/17/16 10:00:31  5-MIN K9L2 171800Z AUTO 00000KT 10SM CLR 17/01 A2998 2250 34 3000 000/00 RMK AO2 $
53144K9L2 9L220160317100510103/17/16 10:05:31  5-MIN K9L2 171805Z AUTO 00000KT 10SM CLR 17/01 A2998 2250 33 3000 000/00 RMK AO2 $
53144K9L2 9L220160317101010103/17/16 10:10:31  5-MIN K9L2 171810Z AUTO 00000KT 10SM CLR 18/01 A2997 2250 31 3100 000/00 RMK AO2 $
53144K9L2 9L220160317101510103/17/16 10:15:31  5-MIN K9L2 171815Z AUTO 00000KT 10SM CLR 18/01 A2997 2250 31 3100 000/00 RMK AO2 $
53144K9L2 9L220160317102010103/17/16 10:20:31  5-MIN K9L2 171820Z AUTO 00000KT 10SM CLR 18/00 A2997 2260 29 3200 000/00 RMK AO2 $
53144K9L2 9L220160317102510103/17/16 10:25:31  5-MIN K9L2 171825Z AUTO 00000KT 10SM CLR 18/00 A2997 2260 29 3200 000/00 RMK AO2 $
53144K9L2 9L220160317103010103/17/16 10:30:31  5-MIN K9L2 171830Z AUTO 00000KT 10SM CLR 19/00 A2997 2260 28 3300 000/00 RMK AO2 $
53144K9L2 9L220160317103510103/17/16 10:35:31  5-MIN K9L2 171835Z AUTO 00000KT 10SM CLR 19/00 A2996 2260 28 3300 000/00 RMK AO2 $
53144K9L2 9L220160317104010103/17/16 10:40:31  5-MIN K9L2 171840Z AUTO 11003KT 10SM CLR 19/00 A2996 2260 27 3300 090/03 RMK AO2 $
53144K9L2 9L220160317104510103/17/16 10:45:31  5-MIN K9L2 171845Z AUTO 11003KT 10SM CLR 19/00 A2996 2270 27 3300 100/03 RMK AO2 $
53144K9L2 9L220160317105010203/17/16 10:50:31  5-MIN K9L2 171850Z AUTO 11004KT 10SM CLR 20/M01 A2996 2270 25 3400 100/04 RMK AO2 $
53144K9L2 9L220160317105511903/17/16 10:55:31  5-MIN K9L2 171855Z AUTO 10003KT 10SM CLR 21/M01 A2996 2270 24 3500 090/03 RMK AO2 SLP140 T02061006 $
53144K9L2 9L220160317110010203/17/16 11:00:31  5-MIN K9L2 171900Z AUTO 14004KT 10SM CLR 21/M01 A2996 2270 24 3500 130/04 RMK AO2 $
53144K9L2 9L220160317110510203/17/16 11:05:31  5-MIN K9L2 171905Z AUTO VRB03KT 10SM CLR 21/M01 A2996 2270 23 3500 VRB/03 RMK AO2 $
53144K9L2 9L220160317111016403/17/16 11:10:31  5-MIN K9L2 171910Z AUTO 11003KT 10SM CLR 22/M01 A29 11:25:31  5-MIN K9L2 171925Z AUTO 00000KT 10SM CLR 22/M01 A2995 2270 21 3600 000/00 RMK AO2 $
53144K9L2 9L220160317113016403/17/16 11:30:31  5-MIN K9L2 171930Z AUTO VRB03KT 10SM CLR 22/M027/16 11:45:31  5-MIN K9L2 171945Z AUTO 00000KT 10SM CLR 23/M04 A2994 2280 16 3700 000/00 RMK AO2 $
53144K9L2 9L220160317115010203/17/16 11:50:31  5-MIN K9L2 171950Z AUTO 10003KT 10SM CLR 23/M04 A2994 2280 16 3800 090/03 RMK AO2 $
53144K9L2 9L220160317115511903/17/16 11:55:31  5-MIN K9L2 171955Z AUTO 00000KT 10SM CLR 23/M05 A2994 2280 14 3800 000/00 RMK AO2 SLP132 T02331050 $
53144K9L2 9L220160317120010203/17/16 12:00:31  5-MIN K9L2 172000Z AUTO 00000KT 10SM CLR 23/M06 A2994 2290 13 3800 000/00 RMK AO2 $
53144K9L2 9L220160317120510203/17/16 12:05:31  5-MIN K9L2 172005Z AUTO 18003KT 10SM CLR 23/M06 A2994 2290 14 3800 170/03 RMK AO2 $
53144K9L2 9L220160317121010203/17/16 12:10:31  5-MIN K9L2 172010Z AUTO VRB03KT 10SM CLR 24/M06 A2993 2290 13 3900 VRB/03 RMK AO2 $
53144K9L2 9L220160317121510203/17/16 12:15:31  5-MIN K9L2 172015Z AUTO 00000KT 10SM CLR 24/M06 A2993 2290 13 3900 000/00 RMK AO2 $
53144K9L2 9L220160317122010203/17/16 12:20:31  5-MIN K9L2 172020Z AUTO VRB03KT 10SM CLR 24/M07 A2993 2290 12 3900 VRB/03 RMK AO2 $
53144K9L2 9L220160317122510203/17/16 12:25:31  5-MIN K9L2 172025Z AUTO 14003KT 10SM CLR 24/M07 A2993 2300 12 3900 130/03 RMK AO2 $
53144K9L2 9L220160317123010203/17/16 12:30:31  5-MIN K9L2 172030Z AUTO 11003KT 10SM CLR 24/M06 A2992 2300 13 3900 100/03 RMK AO2 $
53144K9L2 9L220160317123510203/17/16 12:35:31  5-MIN K9L2 172035Z AUTO 00000KT 10SM CLR 24/M06 A2992 2300 12 3900 000/00 RMK AO2 $
53144K9L2 9L220160317124010203/17/16 12:40:31  5-MIN K9L2 172040Z AUTO 16004KT 10SM CLR 24/M06 A2992 2300 13 4000 150/04 RMK AO2 $
53144K9L2 9L220160317124510203/17/16 12:45:31  5-MIN K9L2 172045Z AUTO 00000KT 10SM CLR 24/M06 A2992 2310 12 4000 000/00 RMK AO2 $
53144K9L2 9L220160317125010203/17/16 12:50:31  5-MIN K9L2 172050Z AUTO VRB04KT 10SM CLR 25/M06 A2991 2310 12 4000 VRB/04 RMK AO2 $
53144K9L2 9L220160317125512503/17/16 12:55:31  5-MIN K9L2 172055Z AUTO 13004KT 10SM CLR 25/M06 A2991 2310 12 4000 120/04 RMK AO2 SLP120 T02501061 58000 $
53144K9L2 9L220160317130010203/17/16 13:00:31  5-MIN K9L2 172100Z AUTO 14004KT 10SM CLR 25/M06 A2991 2320 12 4000 120/04 RMK AO2 $
53144K9L2 9L220160317130510203/17/16 13:05:31  5-MIN K9L2 172105Z AUTO VRB03KT 10SM CLR 26/M06 A2990 2320 12 4100 VRB/03 RMK AO2 $
53144K9L2 9L220160317131010203/17/16 13:10:31  5-MIN K9L2 172110Z AUTO 16004KT 10SM CLR 26/M07 A2990 2320 11 4100 150/04 RMK AO2 $
53144K9L2 9L220160317131506003/17/16 13:15:31  5-MIN K9L2 172115Z AUTO 15006KT 10SM CL $
53144K9L2 9L220160317133010203/17/16 13:30:31  5-MIN K9L2 172130Z AUTO 15004KT 10SM CLR 26/M05 A2989 2330 12 4200 130/04 RMK AO2 $
53144K9L2 9L220160317133510203/17/16 13:35:31  5-MIN K9L2 172135Z AUTO VRB03KT 10SM CLR 26/M04 A2989 2330 13 4100 VRB/03 RMK AO2 $
53144K9L2 9L220160317134010203/17/16 13:40:31  5-MIN K9L2 172140Z AUTO VRB04KT 10SM CLR 26/M04 A2989 2330 13 4200 VRB/04 RMK AO2 $
53144K9L2 9L220160317134510203/17/16 13:45:31  5-MIN K9L2 172145Z AUTO 10003KT 10SM CLR 27/M04 A2988 2340 13 4200 080/03 RMK AO2 $
53144K9L2 9L220160317135010203/17/16 13:50:31  5-MIN K9L2 172150Z AUTO 13005KT 10SM CLR 27/M04 A2988 2340 13 4200 110/05 RMK AO2 $
53144K9L2 9L220160317135511903/17/16 13:55:31  5-MIN K9L2 172155Z AUTO VRB04KT 10SM CLR 27/M04 A2988 2340 13 4200 VRB/04 RMK AO2 SLP110 T02671039 $
53144K9L2 9L220160317140010803/17/16 14:00:31  5-MIN K9L2 172200Z AUTO 25008G14KT 10SM CLR 27/M03 A2988 2340 13 4300 240/08G14 RMK AO2 $
53144K9L2 9L220160317140510803/17/16 14:05:31  5-MIN K9L2 172205Z AUTO 20008G14KT 10SM CLR 28/M03 A2988 2340 13 4400 190/08G14 RMK AO2 $
53144K9L2 9L220160317141010203/17/16 14:10:31  5-MIN K9L2 172210Z AUTO 19005KT 10SM CLR 27/M03 A2988 2340 13 4300 180/05 RMK AO2 $
53144K9L2 9L220160317141510203/17/16 14:15:31  5-MIN K9L2 172215Z AUTO 22006KT 10SM CLR 27/M03 A2987 2350 13 4300 200/06 RMK AO2 $
53144K9L2 9L220160317142010203/17/16 14:20:31  5-MIN K9L2 172220Z AUTO 19010KT 10SM CLR 27/M03 A2987 2350 13 4300 180/10 RMK AO2 $
53144K9L2 9L220160317142510203/17/16 14:25:31  5-MIN K9L2 172225Z AUTO 23007KT 10SM CLR 28/M02 A2987 2350 13 4400 220/07 RMK AO2 $
53144K9L2 9L220160317143010203/17/16 14:30:31  5-MIN K9L2 172230Z AUTO 21009KT 10SM CLR 28/M02 A2987 2350 13 4400 200/09 RMK AO2 $
53144K9L2 9L220160317143510803/17/16 14:35:31  5-MIN K9L2 172235Z AUTO 22007G15KT 10SM CLR 28/M02 A2987 2350 13 4400 200/07G15 RMK AO2 $
53144K9L2 9L220160317144010803/17/16 14:40:31  5-MIN K9L2 172240Z AUTO 23007G14KT 10SM CLR 28/M02 A2987 2350 13 4400 220/07G14 RMK AO2 $
53144K9L2 9L220160317144510803/17/16 14:45:31  5-MIN K9L2 172245Z AUTO 23008G14KT 10SM CLR 28/M02 A2987 2350 13 4400 220/08G14 RMK AO2 $
53144K9L2 9L220160317145010203/17/16 14:50:31  5-MIN K9L2 172250Z AUTO VRB06KT 10SM CLR 28/M03 A2987 2350 13 4400 VRB/06 RMK AO2 $
53144K9L2 9L220160317145511903/17/16 14:55:31  5-MIN K9L2 172255Z AUTO 26008KT 10SM CLR 28/M02 A2987 2350 14 4400 250/08 RMK AO2 SLP106 T02781017 $
53144K9L2 9L220160317150010203/17/16 15:00:31  5-MIN K9L2 172300Z AUTO 21006KT 10SM CLR 28/M02 A2986 2350 14 4400 200/06 RMK AO2 $
53144K9L2 9L220160317150510203/17/16 15:05:31  5-MIN K9L2 172305Z AUTO 24007KT 10SM CLR 28/M01 A2986 2350 15 4400 230/07 RMK AO2 $
53144K9L2 9L220160317151010203/17/16 15:10:31  5-MIN K9L2 172310Z AUTO 23010KT 10SM CLR 28/M01 A2986 2360 15 4400 210/10 RMK AO2 $
53144K9L2 9L220160317151510203/17/16 15:15:31  5-MIN K9L2 172315Z AUTO 23009KT 10SM CLR 28/M01 A2986 2360 15 4400 210/09 RMK AO2 $
53144K9L2 9L220160317152010803/17/16 15:20:31  5-MIN K9L2 172320Z AUTO 26010G17KT 10SM CLR 28/M01 A2986 2360 15 4400 240/10G17 RMK AO2 $
53144K9L2 9L220160317152510803/17/16 15:25:31  5-MIN K9L2 172325Z AUTO 24009G17KT 10SM CLR 28/M01 A2986 2360 15 4400 230/09G17 RMK AO2 $
53144K9L2 9L220160317153010803/17/16 15:30:31  5-MIN K9L2 172330Z AUTO 24010G15KT 10SM CLR 28/M01 A2986 2360 15 4400 230/10G15 RMK AO2 $
53144K9L2 9L220160317153510803/17/16 15:35:31  5-MIN K9L2 172335Z AUTO 24007G15KT 10SM CLR 28/M01 A2986 2360 15 4400 220/07G15 RMK AO2 $
53144K9L2 9L220160317154010803/17/16 15:40:31  5-MIN K9L2 172340Z AUTO 24013G17KT 10SM CLR 28/M01 A2986 2360 15 4400 230/13G17 RMK AO2 $
53144K9L2 9L220160317154510803/17/16 15:45:31  5-MIN K9L2 172345Z AUTO 25007G17KT 10SM CLR 28/M01 A2986 2360 15 4400 240/07G17 RMK AO2 $
53144K9L2 9L220160317155010203/17/16 15:50:31  5-MIN K9L2 172350Z AUTO 26007KT 10SM CLR 28/M01 A2986 2360 15 4400 250/07 RMK AO2 $
53144K9L2 9L220160317155513703/17/16 15:55:31  5-MIN K9L2 172355Z AUTO 26006KT 10SM CLR 27/M01 A2986 2360 16 4300 250/06 RMK AO2 SLP103 T02721006 10278 20167 58022 $
53144K9L2 9L220160317160010703/17/16 16:00:31  5-MIN K9L2 180000Z AUTO 23011G17KT 10SM CLR 28/00 A2985 2360 16 4400 210/11G17 RMK AO2 $
53144K9L2 9L220160317160510803/17/16 16:05:31  5-MIN K9L2 180005Z AUTO 24011G17KT 10SM CLR 28/M01 A2985 2370 15 4400 230/11G17 RMK AO2 $
53144K9L2 9L220160317161010103/17/16 16:10:31  5-MIN K9L2 180010Z AUTO 24010KT 10SM CLR 28/00 A2985 2360 16 4400 230/10 RMK AO2 $
53144K9L2 9L220160317161510703/17/16 16:15:31  5-MIN K9L2 180015Z AUTO 23013G19KT 10SM CLR 28/00 A2985 2370 16 4400 220/13G19 RMK AO2 $
53144K9L2 9L220160317162010703/17/16 16:20:31  5-MIN K9L2 180020Z AUTO 24013G19KT 10SM CLR 28/00 A2985 2370 16 4400 230/13G19 RMK AO2 $
53144K9L2 9L220160317162510103/17/16 16:25:31  5-MIN K9L2 180025Z AUTO 25011KT 10SM CLR 27/00 A2985 2370 16 4300 230/11 RMK AO2 $
53144K9L2 9L220160317163010103/17/16 16:30:31  5-MIN K9L2 180030Z AUTO 25013KT 10SM CLR 27/00 A2985 2370 16 4300 240/13 RMK AO2 $
53144K9L2 9L220160317163510103/17/16 16:35:31  5-MIN K9L2 180035Z AUTO 26012KT 10SM CLR 27/00 A2985 2360 16 4300 240/12 RMK AO2 $
53144K9L2 9L220160317164010703/17/16 16:40:31  5-MIN K9L2 180040Z AUTO 24015G19KT 10SM CLR 27/00 A2985 2370 16 4300 230/15G19 RMK AO2 $
53144K9L2 9L220160317164510703/17/16 16:45:31  5-MIN K9L2 180045Z AUTO 24013G19KT 10SM CLR 27/01 A2985 2370 18 4300 220/13G19 RMK AO2 $
53144K9L2 9L220160317165010103/17/16 16:50:31  5-MIN K9L2 180050Z AUTO 24014KT 10SM CLR 27/01 A2985 2360 18 4300 230/14 RMK AO2 $
53144K9L2 9L220160317165511803/17/16 16:55:31  5-MIN K9L2 180055Z AUTO 24014KT 10SM CLR 27/01 A2985 2370 18 4300 230/14 RMK AO2 SLP103 T02670011 $
53144K9L2 9L220160317170010103/17/16 17:00:31  5-MIN K9L2 180100Z AUTO 24013KT 10SM CLR 26/01 A2985 2370 19 4200 230/13 RMK AO2 $
53144K9L2 9L220160317170510103/17/16 17:05:31  5-MIN K9L2 180105Z AUTO 24013KT 10SM CLR 26/02 A2985 2370 20 4200 220/13 RMK AO2 $
53144K9L2 9L220160317171010103/17/16 17:10:31  5-MIN K9L2 180110Z AUTO 23012KT 10SM CLR 26/02 A2985 2370 20 4200 220/12 RMK AO2 $
53144K9L2 9L220160317171510803/17/16 17:15:31  5-MIN K9L2 180115Z AUTO 28012G20KT 10SM CLR 26/M01 A2986 2360 17 4100 270/12G20 RMK AO2 $
53144K9L2 9L220160317172010803/17/16 17:20:31  5-MIN K9L2 180120Z AUTO 28013G20KT 10SM CLR 25/M03 A2986 2360 15 4100 270/13G20 RMK AO2 $
53144K9L2 9L220160317172511303/17/16 17:25:31  5-MIN K9L2 180125Z AUTO 28013KT 10SM CLR 25/M03 A2986 2360 15 4100 270/13 RMK AO2 WSHFT 0109 $
53144K9L2 9L220160317173011303/17/16 17:30:31  5-MIN K9L2 180130Z AUTO 28011KT 10SM CLR 24/M03 A2986 2360 16 4000 270/11 RMK AO2 WSHFT 0109 $
53144K9L2 9L220160317173511903/17/16 17:35:31  5-MIN K9L2 180135Z AUTO 27012G17KT 10SM CLR 24/M02 A2986 2360 17 4000 260/12G17 RMK AO2 WSHFT 0109 $
53144K9L2 9L220160317174011903/17/16 17:40:31  5-MIN K9L2 180140Z AUTO 27016G20KT 10SM CLR 24/M03 A2985 2360 16 4000 260/16G20 RMK AO2 WSHFT 0109 $
53144K9L2 9L220160317174511903/17/16 17:45:31  5-MIN K9L2 180145Z AUTO 26012G20KT 10SM CLR 24/M03 A2986 2360 16 4000 250/12G20 RMK AO2 WSHFT 0109 $
53144K9L2 9L220160317175011903/17/16 17:50:31  5-MIN K9L2 180150Z AUTO 26015G20KT 10SM CLR 23/M02 A2986 2360 18 3900 250/15G20 RMK AO2 WSHFT 0109 $
53144K9L2 9L220160317175513003/17/16 17:55:31  5-MIN K9L2 180155Z AUTO 27015KT 10SM CLR 23/M02 A2986 2360 18 3800 250/15 RMK AO2 WSHFT 0109 SLP108 T02281022 $
53144K9L2 9L220160317180010203/17/16 18:00:31  5-MIN K9L2 180200Z AUTO 27016KT 10SM CLR 23/M02 A2986 2360 18 3800 260/16 RMK AO2 $
53144K9L2 9L220160317180510203/17/16 18:05:31  5-MIN K9L2 180205Z AUTO 26013KT 10SM CLR 22/M02 A2986 2360 19 3800 250/13 RMK AO2 $
53144K9L2 9L220160317181010203/17/16 18:10:31  5-MIN K9L2 180210Z AUTO 26014KT 10SM CLR 22/M02 A2986 2360 19 3800 250/14 RMK AO2 $
53144K9L2 9L220160317181509403/17/16 18:15:31  5-MIN K9L2 180215Z AUTO 10SM CLR 21/M02 A2987 2350 20 3600 240/15 RMK AO2 $
53144K9L2 9L220160317185512503/17/16 18:55:31  5-MIN K9L2 180255Z AUTO 25013KT 10SM CLR 21/M02 A2987 2350 20 3600 230/13 RMK AO2 SLP112 T02111022 56017 $
53144K9L2 9L220160317190010803/17/16 19:00:31  5-MIN K9L2 180300Z AUTO 25013G20KT 10SM CLR 21/M02 A2988 2340 20 3600 230/13G20 RMK AO2 $
53144K9L2 9L220160317190510203/17/16 19:05:31  5-MIN K9L2 180305Z AUTO 26016KT 10SM CLR 21/M02 A2988 2340 20 3600 240/16 RMK AO2 $
53144K9L2 9L220160317191010203/17/16 19:10:31  5-MIN K9L2 180310Z AUTO 26016KT 10SM CLR 21/M02 A2988 2340 21 3600 240/16 RMK AO2 $
53144K9L2 9L220160317191510203/17/16 19:15:31  5-MIN K9L2 180315Z AUTO 26016KT 10SM CLR 21/M02 A2988 2340 22 3600 240/16 RMK AO2 $
53144K9L2 9L220160317192010203/17/16 19:20:31  5-MIN K9L2 180320Z AUTO 26015KT 10SM CLR 21/M02 A2988 2340 22 3600 250/15 RMK AO2 $
53144K9L2 9L220160317192510203/17/16 19:25:31  5-MIN K9L2 180325Z AUTO 26017KT 10SM CLR 21/M02 A2988 2340 22 3600 250/17 RMK AO2 $
53144K9L2 9L220160317193010203/17/16 19:30:31  5-MIN K9L2 180330Z AUTO 26017KT 10SM CLR 21/M02 A2988 2340 22 3600 250/17 RMK AO2 $
53144K9L2 9L220160317193510803/17/16 19:35:31  5-MIN K9L2 180335Z AUTO 26016G23KT 10SM CLR 21/M02 A2988 2340 22 3600 250/16G23 RMK AO2 $
53144K9L2 9L220160317194010203/17/16 19:40:31  5-MIN K9L2 180340Z AUTO 25016KT 10SM CLR 21/M01 A2989 2330 23 3600 240/16 RMK AO2 $
53144K9L2 9L220160317194510203/17/16 19:45:31  5-MIN K9L2 180345Z AUTO 25016KT 10SM CLR 20/M01 A2989 2330 24 3500 240/16 RMK AO2 $
53144K9L2 9L220160317195010203/17/16 19:50:31  5-MIN K9L2 180350Z AUTO 25016KT 10SM CLR 20/M01 A2989 2330 24 3500 240/16 RMK AO2 $
53144K9L2 9L220160317195511903/17/16 19:55:31  5-MIN K9L2 180355Z AUTO 25016KT 10SM CLR 20/M01 A2989 2330 25 3500 240/16 RMK AO2 SLP116 T02001006 $
53144K9L2 9L220160317200010203/17/16 20:00:31  5-MIN K9L2 180400Z AUTO 24015KT 10SM CLR 20/M01 A2989 2330 25 3500 230/15 RMK AO2 $
53144K9L2 9L220160317200510203/17/16 20:05:31  5-MIN K9L2 180405Z AUTO 24013KT 10SM CLR 20/M01 A2989 2330 24 3500 230/13 RMK AO2 $
53144K9L2 9L220160317201010203/17/16 20:10:31  5-MIN K9L2 180410Z AUTO 24013KT 10SM CLR 20/M01 A2990 2320 25 3500 230/13 RMK AO2 $
53144K9L2 9L220160317201510203/17/16 20:15:31  5-MIN K9L2 180415Z AUTO 23011KT 10SM CLR 19/M01 A2990 2320 26 3400 220/11 RMK AO2 $
53144K9L2 9L220160317202010203/17/16 20:20:31  5-MIN K9L2 180420Z AUTO 23010KT 10SM CLR 19/M01 A2990 2320 26 3300 220/10 RMK AO2 $
53144K9L2 9L220160317202510203/17/16 20:25:31  5-MIN K9L2 180425Z AUTO 24011KT 10SM CLR 19/M01 A2990 2320 26 3300 220/11 RMK AO2 $
53144K9L2 9L220160317203010203/17/16 20:30:31  5-MIN K9L2 180430Z AUTO 24012KT 10SM CLR 19/M01 A2990 2320 26 3300 220/12 RMK AO2 $
53144K9L2 9L220160317203510203/17/16 20:35:31  5-MIN K9L2 180435Z AUTO 24010KT 10SM CLR 18/M01 A2990 2320 27 3300 230/10 RMK AO2 $
53144K9L2 9L220160317204010203/17/16 20:40:31  5-MIN K9L2 180440Z AUTO 24011KT 10SM CLR 18/M01 A2990 2320 27 3300 230/11 RMK AO2 $
53144K9L2 9L220160317204510203/17/16 20:45:31  5-MIN K9L2 180445Z AUTO 24010KT 10SM CLR 18/M01 A2991 2320 27 3300 230/10 RMK AO2 $
53144K9L2 9L220160317205010203/17/16 20:50:31  5-MIN K9L2 180450Z AUTO 25013KT 10SM CLR 18/M01 A2991 2320 27 3300 240/13 RMK AO2 $
53144K9L2 9L220160317205511903/17/16 20:55:31  5-MIN K9L2 180455Z AUTO 25014KT 10SM CLR 19/M01 A2991 2320 26 3400 240/14 RMK AO2 SLP120 T01941006 $
53144K9L2 9L220160317210010203/17/16 21:00:31  5-MIN K9L2 180500Z AUTO 23010KT 10SM CLR 19/M01 A2991 2310 25 3400 220/10 RMK AO2 $
53144K9L2 9L220160317210510203/17/16 21:05:31  5-MIN K9L2 180505Z AUTO 23013KT 10SM CLR 18/M01 A2991 2310 27 3300 220/13 RMK AO2 $
53144K9L2 9L220160317211010103/17/16 21:10:31  5-MIN K9L2 180510Z AUTO 23011KT 10SM CLR 18/00 A2991 2310 30 3200 220/11 RMK AO2 $
53144K9L2 9L220160317211510103/17/16 21:15:31  5-MIN K9L2 180515Z AUTO 24010KT 10SM CLR 18/00 A2991 2310 30 3200 220/10 RMK AO2 $
53144K9L2 9L220160317212010103/17/16 21:20:31  5-MIN K9L2 180520Z AUTO 24010KT 10SM CLR 18/01 A2991 2310 31 3200 230/10 RMK AO2 $
53144K9L2 9L220160317212510103/17/16 21:25:31  5-MIN K9L2 180525Z AUTO 24010KT 10SM CLR 18/01 A2991 2310 31 3200 230/10 RMK AO2 $
53144K9L2 9L220160317213010103/17/16 21:30:31  5-MIN K9L2 180530Z AUTO 25010KT 10SM CLR 18/01 A2991 2310 31 3200 230/10 RMK AO2 $
53144K9L2 9L220160317213510103/17/16 21:35:31  5-MIN K9L2 180535Z AUTO 25010KT 10SM CLR 18/00 A2991 2310 30 3200 230/10 RMK AO2 $
53144K9L2 9L220160317214010103/17/16 21:40:31  5-MIN K9L2 180540Z AUTO 25009KT 10SM CLR 18/00 A2991 2310 30 3200 240/09 RMK AO2 $
53144K9L2 9L220160317214510203/17/16 21:45:31  5-MIN K9L2 180545Z AUTO 25010KT 10SM CLR 17/00 A2991 2310 31 32800 180/08 RMK AO2 $
53144K9L2 9L220160317232510103/17/16 23:25:31  5-MIN K9L2 180725Z AUTO 20008KT 10SM CLR 14/02 A2991 2320 43 2800 180/08 RMK AO2 $
53144K9L2 9L220160317233010103/17/16 23:30:31  5-MIN K9L2 180730Z AUTO 20006KT 10SM CLR 14/02 A2991 2310 41 2800 190/06 RMK AO2 $
53144K9L2 9L220160317233510103/17/16 23:35:31  5-MIN K9L2 180735Z AUTO 19005KT 10SM CLR 13/01 A2991 2320 43 2700 180/05 RMK AO2 $
53144K9L2 9L220160317234010103/17/16 23:40:31  5-MIN K9L2 180740Z AUTO 18005KT 10SM CLR 13/02 A2991 2310 46 2600 170/05 RMK AO2 $
53144K9L2 9L220160317234510103/17/16 23:45:31  5-MIN K9L2 180745Z AUTO 20005KT 10SM CLR 13/02 A2990 2320 45 2700 180/05 RMK AO2 $
53144K9L2 9L220160317235010103/17/16 23:50:31  5-MIN K9L2 180750Z AUTO 23004KT 10SM CLR 13/01 A2990 2320 43 2700 220/04 RMK AO2 $
53144K9L2 9L220160317235515303/17/16 23:55:31  5-MIN K9L2 180755Z AUTO 24005KT 10SM CLR 16/00 A2991 2320 34 3000 230/05 RMK AO2 SLP116 T01560000 402780033 $053 2200 080/03 RMK AO2 $
53144K9L2 9L220160318025010103/18/16 02:50:31  5-MIN K9L2 181050Z AUTO 09003KT 10SM CLR 09/00 A2990 2320 53 2200 080/03 RMK AO2 $
53144K9L2 9L220160318025511803/18/16 02:55:31  5-MIN K9L2 181055Z AUTO 11004KT 10SM CLR 09/01 A2990 2330 53 2300 100/04 RMK AO2 SLP114 T00940006 $
53144K9L2 9L220160318030010103/18/16 03:00:31  5-MIN K9L2 181100Z AUTO 12003KT 10SM CLR 09/01 A2990 2320 53 2200 110/03 RMK AO2 $
53144K9L2 9L220160318030510103/18/16 03:05:31  5-MIN K9L2 181105Z AUTO 00000KT 10SM CLR 09/01 A2990 2320 53 2200 000/00 RMK AO2 $
53144K9L2 9L220160318031010103/18/16 03:10:31  5-MIN K9L2 181110Z AUTO 00000KT 10SM CLR 09/01 A2990 2320 53 2200 000/00 RMK AO2 $
53144K9L2 9L220160318031510103/18/16 03:15:31  5-MIN K9L2 181115Z AUTO 07003KT 10SM CLR 09/01 A2990 2320 56 2200 060/03 RMK AO2 $
53144K9L2 9L220160318032010103/18/16 03:20:31  5-MIN K9L2 181120Z AUTO 08003KT 10SM CLR 08/01 A2990 2320 58 2100 070/03 RMK AO2 $
53144K9L2 9L220160318034010103/18/16 03:40:31  5-MIN K9L2 181140Z AUTO 00000KT 10SM CLR 08/01 A2990 2320 62 2000 000/00 RMK AO2 $
53144K9L2 9L220160318034510103/18/16 03:45:31  5-MIN K9L2 181145Z AUTO 00000KT 10SM CLR 07/01 A2990 2320 62 2000 000/00 RMK AO2 $
53144K9L2 9L220160318035010103/18/16 03:50:31  5-MIN K9L2 181150Z AUTO 00000KT 10SM CLR 07/01 A2990 2320 65 1900 000/00 RMK AO2 $
53144K9L2 9L220160318035513603/18/16 03:55:31  5-MIN K9L2 181155Z AUTO 00000KT 10SM CLR 07/00 A2990 2320 62 1900 000/00 RMK AO2 SLP118 T00670000 10178 20067 58005 $
53144K9L2 9L220160318040010103/18/16 04:00:31  5-MIN K9L2 181200Z AUTO 00000KT 10SM CLR 07/01 A2990 2320 65 1900 000/00 RMK AO2 $
53144K9L2 9L220160318040510103/18/16 04:05:31  5-MIN K9L2 181205Z AUTO 00000KT 10SM CLR 07/01 A2990 2320 65 1900 000/00 RMK AO2 $
53144K9L2 9L220160318041010103/18/16 04:10:31  5-MIN K9L2 181210Z AUTO 01003KT 10SM CLR 07/01 A2990 2320 65 1900 360/03 RMK AO2 $
53144K9L2 9L220160318041510103/18/16 04:15:31  5-MIN K9L2 181215Z AUTO 02005KT 10SM CLR 06/01 A2991 2320 67 1800 010/05 RMK AO2 $
53144K9L2 9L220160318042010103/18/16 04:20:31  5-MIN K9L2 181220Z AUTO 05004KT 10SM CLR 06/01 A2991 2320 67 1800 030/04 RMK AO2 $
53144K9L2 9L220160318042510103/18/16 04:25:31  5-MIN K9L2 181225Z AUTO 07003KT 10SM CLR 06/01 A2990 2320 67 1800 060/03 RMK AO2 $
53144K9L2 9L220160318043014203/18/16 04:30:31  5-MIN K9L2 181230Z AUTO 00000KT 10SM CLR 07/01 A2990 2320 65 1900 000/00 RMK AO2R 06/01 A2992 2300 70 1800 350/04 RMK AO2 $
53144K9L2 9L220160318052510103/18/16 05:25:31  5-MIN K9L2 181325Z AUTO 36005KT 10SM CLR 06/01 A2993 2300 67 1800 340/05 RMK AO2 $
53144K9L2 9L220160318053010103/18/16 05:30:31  5-MIN K9L2 181330Z AUTO 34003KT 10SM CLR 06/01 A2993 2300 67 1800 330/03 RMK AO2 $
53144K9L2 9L220160318053510103/18/16 05:35:31  5-MIN K9L2 181335Z AUTO 00000KT 10SM CLR 06/01 A2993 2300 67 1800 000/00 RMK AO2 $
53144K9L2 9L220160318054010103/18/16 05:40:31  5-MIN K9L2 181340Z AUTO 01003KT 10SM CLR 06/01 A2993 2300 67 1800 360/03 RMK AO2 $
53144K9L2 9L220160318054510103/18/16 05:45:31  5-MIN K9L2 181345Z AUTO 36003KT 10SM CLR 06/01 A2993 2300 67 1800 340/03 RMK AO2 $
53144K9L2 9L220160318055010103/18/16 05:50:31  5-MIN K9L2 181350Z AUTO 01004KT 10SM CLR 06/01 A2993 2300 67 1800 350/04 RMK AO2 $
53144K9L2 9L220160318055511803/18/16 05:55:31  5-MIN K9L2 181355Z AUTO 36004KT 10SM CLR 06/01 A2992 2300 70 1800 350/04 RMK AO2 SLP129 T00560006 $
53144K9L2 9L220160318060010103/18/16 06:00:31  5-MIN K9L2 181400Z AUTO 00000KT 10SM CLR 06/01 A2992 2300 70 1800 000/00 RMK AO2 $
53144K9L2 9L220160318060510103/18/16 06:05:31  5-MIN K9L2 181405Z AUTO 00000KT 10SM CLR 06/00 A2993 2290 67 1700 000/00 RMK AO2 $
53144K9L2 9L220160318061010103/18/16 06:10:31  5-MIN K9L2 181410Z AUTO 34003KT 10SM CLR 05/00 A2993 2290 70 1700 330/03 RMK AO2 $
53144K9L2 9L220160318061510103/18/16 06:15:31  5-MIN K9L2 181415Z AUTO 33004KT 10SM CLR 06/01 A2994 2280 70 1700 320/04 RMK AO2 $
53144K9L2 9L220160318062010103/18/16 06:20:31  5-MIN K9L2 181420Z AUTO 34005KT 10SM CLR 06/01 A2994 2280 67 1800 330/05 RMK AO2 $
53144K9L2 9L220160318062510103/18/16 06:25:31  5-MIN K9L2 181425Z AUTO 36004KT 10SM CLR 07/01 A2994 2280 67 1900 340/04 RMK AO2 $
53144K9L2 9L220160318063010103/18/16 06:30:31  5-MIN K9L2 181430Z AUTO 35003KT 10SM CLR 07/01 A2995 2280 67 1900 340/03 RMK AO2 $
53144K9L2 9L220160318063510103/18/16 06:35:31  5-MIN K9L2 181435Z AUTO 35003KT 10SM CLR 07/01 A2995 2280 65 1900 330/03 RMK AO2 $
53144K9L2 9L220160318064010103/18/16 06:40:31  5-MIN K9L2 181440Z AUTO 34003KT 10SM CLR 08/01 A2995 2280 62 2000 320/03 RMK AO2 $
53144K9L2 9L220160318064510103/18/16 06:45:31  5-MIN K9L2 181445Z AUTO 00000KT 10SM CLR 08/02 A2995 2280 65 2000 000/00 RMK AO2 $
53144K9L2 9L220160318065014703/18/16 06:50:31  5-MIN K9L2 181450Z AUTO 00000KT 10SM CLR 08/02 A2995 2270 63 2100 000/00 RMK AO2 $2260 48 2700 000/00 RMK AO2 SLP140 T01390033 $
53144K9L2 9L220160318080010103/18/16 08:00:31  5-MIN K9L2 181600Z AUTO 00000KT 10SM CLR 14/03 A2997 2260 47 2800 000/00 RMK AO2 $
53144K9L2 9L220160318080510103/18/16 08:05:31  5-MIN K9L2 181605Z AUTO 04003KT 10SM CLR 14/03 A2997 2260 47 2800 030/03 RMK AO2 $
53144K9L2 9L220160318175010103/18/16 17:50:31  5-MIN K9L2 190150Z AUTO 28010KT 10SM CLR 24/02 A2991 2310 23 3900 270/10 RMK AO2 $
53144K9L2 9L220160318175511803/18/16 17:55:31  5-MIN K9L2 190155Z AUTO 28012KT 10SM CLR 23/02 A2991 2310 24 3800 270/12 RMK AO2 SLP125 T02330022 $
53144K9L2 9L220160318180010103/18/16 18:00:31  5-MIN K9L2 190200Z AUTO 28010KT 10SM CLR 23/02 A2992 2310 24 3800 270/10 RMK AO2 $
53144K9L2 9L220160318180510103/18/16 18:05:31  5-MIN K9L2 190205Z AUTO 27010KT 10SM CLR 23/02 A2992 2300 25 3800 260/10 RMK AO2 $
53144K9L2 9L220160318181010103/18/16 18:10:31  5-MIN K9L2 190210Z AUTO 27009KT 10SM CLR 22/02 A2992 2300 26 3700 250/09 RMK AO2 $
53144K9L2 9L220160318181510103/18/16 18:15:31  5-MIN K9L2 190215Z AUTO 27010KT 10SM CLR 22/03 A2992 2300 27 3700 250/10 RMK AO2 $
53144K9L2 9L220160318182010103/18/16 18:20:31  5-MIN K9L2 190220Z AUTO 27010KT 10SM CLR 22/03 A2992 2300 27 3700 250/10 RMK AO2 $
53144K9L2 9L220160318182510103/18/16 18:25:31  5-MIN K9L2 190225Z AUTO 27011KT 10SM CLR 22/03 A2992 2300 28 3600 260/11 RMK AO2 $
53144K9L2 9L220160318183010103/18/16 18:30:31  5-MIN K9L2 190230Z AUTO 27011KT 10SM CLR 22/02 A2992 2300 27 3600 260/11 RMK AO2 $
53144K9L2 9L220160318183510103/18/16 18:35:31  5-MIN K9L2 190235Z AUTO 27011KT 10SM CLR 22/02 A2992 2300 27 3600 260/11 RMK AO2 $
53144K9L2 9L220160318184010103/18/16 18:40:31  5-MIN K9L2 190240Z AUTO 27011KT 10SM CLR 21/03 A2993 2300 29 3600 260/11 RMK AO2 $
53144K9L2 9L220160318184510103/18/16 18:45:31  5-MIN K9L2 190245Z AUTO 27011KT 10SM CLR 21/03 A2993 2300 29 3600 260/11 RMK AO2 $
53144K9L2 9L220160318185010103/18/16 18:50:31  5-MIN K9L2 190250Z AUTO 27011KT 10SM CLR 21/03 A2993 2290 30 3500 260/11 RMK AO2 $
53144K9L2 9L220160318185512403/18/16 18:55:31  5-MIN K9L2 190255Z AUTO 27010KT 10SM CLR 21/03 A2993 2290 30 3500 260/10 RMK AO2 SLP130 T02060028 56010 $
53144K9L2 9L220160318190010103/18/16 19:00:31  5-MIN K9L2 190300Z AUTO 27010KT 10SM CLR 21/03 A2993 2290 30 3500 260/10 RMK AO2 $
53144K9L2 9L220160318190510103/18/16 19:05:31  5-MIN K9L2 190305Z AUTO 27009KT 10SM CLR 21/03 A2994 2290 30 3500 260/09 RMK AO2 $
53144K9L2 9L220160318191010103/18/16 19:10:31  5-MIN K9L2 190310Z AUTO 27010KT 10SM CLR 20/03 A2994 2290 31 3400 260/10 RMK AO2 $
53144K9L2 9L220160318191515603/18/16 19:15:31  5-MIN K9L2 190315Z AUTO 27010KT 10SM CLR 20/03 A2994 2290 31 3400 250/10 RMK AO2 $03/18/1SM CLR 20/03 A2994 2280 33 3400 250/08 RMK AO2 $
53144K9L2 9L220160318193515803/18/16 19:35:31  5-MIN K9L2 190335Z AUTO 26010KT 10SM CLR 20/03 A2994 2280 33 3400 250/10 RMK UTO 27012KT 10SM CLR 19/03 A2994 2280 34 3400 250/12 RMK AO2 $
53144K9L2 9L220160318195511803/18/16 19:55:31  5-MIN K9L2 190355Z AUTO 27012KT 10SM CLR 19/03 A2994 2280 34 3400 260/12 RMK AO2 SLP133 T01940033 $
53144K9L2 9L220160318200010103/18/16 20:00:31  5-MIN K9L2 190400Z AUTO 27013KT 10SM CLR 19/03 A2995 2280 34 3400 260/13 RMK AO2 $
53144K9L2 9L220160318200515403/18/16 20:05:31  5-MIN K9L2 190405Z AUTO 27011KT 10SM CLR 19/03 A2995 2280 34 3400 250/11 RMK AO2 $03/18260 30 3300 240/11G15 RMK AO2 SLP137 T01940017 $
53144K9L2 9L220160318210010103/18/16 21:00:31  5-MIN K9L2 190500Z AUTO 26009KT 10SM CLR 19/02 A2996 2260 30 3300 240/09 RMK AO2 $
53144K9L2 9L220160318210510103/18/16 21:05:31  5-MIN K9L2 190505Z AUTO 00000KT 10SM CLR 19/02 A2997 2260 31 3300 000/00 RMK AO2 $
53144K9L2 9L220160318211010103/18/16 21:10:31  5-MIN K9L2 190510Z AUTO 13007KT 10SM CLR 17/02 A2997 2260 35 3100 120/07 RMK AO2 $
53144K9L2 9L220160318211510103/18/16 21:15:31  5-MIN K9L2 190515Z AUTO 15009KT 10SM CLR 16/02 A2997 2260 37 2900 140/09 RMK AO2 $
53144K9L2 9L220160318212010103/18/16 21:20:31  5-MIN K9L2 190520Z AUTO 18005KT 10SM CLR 17/02 A2997 2260 36 3000 170/05 RMK AO2 $
53144K9L2 9L220160318212510103/18/16 21:25:31  5-MIN K9L2 190525Z AUTO 21008KT 10SM CLR 17/02 A2997 2260 35 3100 190/08 RMK AO2 $
53144K9L2 9L220160318213013003/18/16 21:30:31  5-MIN K9L2 190530Z AUTO 20009KT 10SM CLR 17/02 A2997 2260 36 3000 190/09 RMK AO2 $2250 38 2800 200/08 RMK AO2 $
53144K9L2 9L220160318221510103/18/16 22:15:31  5-MIN K9L2 190615Z AUTO 23008KT 10SM CLR 15/01 A2997 2250 38 2800 210/08 RMK AO2 $
53144K9L2 9L220160318222010103/18/16 22:20:31  5-MIN K9L2 190620Z AUTO 22007KT 10SM CLR 14/01 A2997 2260 40 2800 210/07 RMK AO2 $
53144K9L2 9L220160318222510103/18/16 22:25:31  5-MIN K9L2 190625Z AUTO 23007KT 10SM CLR 14/01 A2997 2260 41 2700 210/07 RMK AO2 $
53144K9L2 9L220160318223010103/18/16 22:30:31  5-MIN K9L2 190630Z AUTO 22005KT 10SM CLR 14/01 A2997 2250 41 2700 200/05 RMK AO2 $
53144K9L2 9L220160318223510103/18/16 22:35:31  5-MIN K9L2 190635Z AUTO 00000KT 10SM CLR 14/01 A2997 2250 40 2800 000/00 RMK AO2 $
53144K9L2 9L220160318224010103/18/16 22:40:31  5-MIN K9L2 190640Z AUTO 00000KT 10SM CLR 14/01 A2997 2250 41 2700 000/00 RMK AO2 $
53144K9L2 9L220160318224510103/18/16 22:45:31  5-MIN K9L2 190645Z AUTO 00000KT 10SM CLR 14/01 A2997 2260 41 2700 000/00 RMK AO2 $
53144K9L2 9L220160318225010103/18/16 22:50:31  5-MIN K9L2 190650Z AUTO 00000KT 10SM CLR 13/01 A2997 2260 43 2600 000/00 RMK AO2 $
53144K9L2 9L220160318225511803/18/16 22:55:31  5-MIN K9L2 190655Z AUTO 00000KT 10SM CLR 13/01 A2997 2260 43 2600 000/00 RMK AO2 SLP140 T01330011 $
53144K9L2 9L220160318230010103/18/16 23:00:31  5-MIN K9L2 190700Z AUTO 14003KT 10SM CLR 13/01 A2997 2250 43 2600 130/03 RMK AO2 $
53144K9L2 9L220160318230506703/18/16 23:05:31  5-MIN K9L2 190705Z AUTO 18 2000 000/00 RMK AO2 $
53144K9L2 9L220160319012010103/19/16 01:20:31  5-MIN K9L2 190920Z AUTO 00000KT 10SM CLR 08/01 A2997 2250 60 2000 000/00 RMK AO2 $
53144K9L2 9L220160319012510103/19/16 01:25:31  5-MIN K9L2 190925Z AUTO 00000KT 10SM CLR 08/01 A2997 2260 60 2000 000/00 RMK AO2 $
53144K9L2 9L220160319013010103/19/16 01:30:31  5-MIN K9L2 190930Z AUTO 00000KT 10SM CLR 08/01 A2997 2250 60 2000 000/00 RMK AO2 $
53144K9L2 9L220160319013514403/19/16 01:35:31  5-MIN K9L2 190935Z AUTO 00000KT 10SM CLR 07/01 A K9L2 191025Z AUTO 01005KT 10SM CLR 07/01 A2997 2260 62 1900 360/05 RMK AO2 $
53144K9L2 9L220160319023010103/19/16 02:30:31  5-MIN K9L2 191030Z AUTO 01004KT 10SM CLR 07/01 A2997 2260 62 1900 360/04 RMK AO2 $
53144K9L2 9L220160319023510103/19/16 02:35:31  5-MIN K9L2 191035Z AUTO 01006KT 10SM CLR 07/01 A2997 2260 62 1900 360/06 RMK AO2 $
53144K9L2 9L220160319024010103/19/16 02:40:31  5-MIN K9L2 191040Z AUTO 36004KT 10SM CLR 07/01 A2997 2260 62 1900 350/04 RMK AO2 $
53144K9L2 9L220160319024510103/19/16 02:45:31  5-MIN K9L2 191045Z AUTO 36004KT 10SM CLR 07/00 A2997 2260 62 1800 340/04 RMK AO2 $
53144K9L2 9L220160319025010103/19/16 02:50:31  5-MIN K9L2 191050Z AUTO 00000KT 10SM CLR 07/00 A2997 2260 62 1800 000/00 RMK AO2 $
53144K9L2 9L220160319025511803/19/16 02:55:31  5-MIN K9L2 191055Z AUTO 36004KT 10SM CLR 07/00 A2997 2260 62 1800 350/04 RMK AO2 SLP141 T00670000 $
53144K9L2 9L220160319030010103/19/16 03:00:31  5-MIN K9L2 191100Z AUTO 36005KT 10SM CLR 06/00 A2997 2260 65 1800 350/05 RMK AO2 $
53144K9L2 9L220160319030510103/19/16 03:05:31  5-MIN K9L2 191105Z AUTO 35004KT 10SM CLR 06/00 A2997 2260 65 1800 340/04 RMK AO2 $
53144K9L2 9L220160319031010103/19/16 03:10:31  5-MIN K9L2 191110Z AUTO 36003KT 10SM CLR 06/00 A2997 2260 65 1800 340/03 RMK AO2 $
53144K9L2 9L220160319031510103/19/16 03:15:31  5-MIN K9L2 191115Z AUTO 35004KT 10SM CLR 06/00 A2997 2260 65 1800 330/04 RMK AO2 $
53144K9L2 9L220160319032011403/19/16 03:20:31  5-MIN K9L2 191120Z AUTO 34003KT 10SM CL004KT 10SM CLR 06/00 A2997 2250 67 1700 310/04 RMK AO2 $
53144K9L2 9L220160319035010103/19/16 03:50:31  5-MIN K9L2 191150Z AUTO 32004KT 10SM CLR 06/00 A2997 2250 67 1700 310/04 RMK AO2 $
53144K9L2 9L220160319035513703/19/16 03:55:31  5-MIN K9L2 191155Z AUTO 33003KT 10SM CLR 05/M01 A2997 2250 67 1600 320/03 RMK AO2 SLP143 T00501006 10150 20050 53002 $
53144K9L2 9L220160319040010203/19/16 04:00:31  5-MIN K9L2 191200Z AUTO 00000KT 10SM CLR 05/M01 A2998 2240 70 1500 000/00 RMK AO2 $
53144K9L2 9L220160319045010203/19/16 04:50:31  5-MIN K9L2 191250Z AUTO 33003KT 10SM CLR 04/M01 A2999 2240 67 1500 320/03 RMK AO2 $
53144K9L2 9L220160319045511903/19/16 04:55:31  5-MIN K9L2 191255Z AUTO 34003KT 10SM CLR 04/M01 A2999 2240 67 1500 330/03 RMK AO2 SLP150 T00441011 $
53144K9L2 9L220160319050010203/19/16 05:00:31  5-MIN K9L2 191300Z AUTO 36003KT 10SM CLR 04/M01 A2999 2240 67 1500 350/03 RMK AO2 $
53144K9L2 9L220160319050510203/19/16 05:05:31  5-MIN K9L2 191305Z AUTO 00000KT 10SM CLR 04/M01 A2999 2240 67 1500 000/00 RMK AO2 $
53144K9L2 9L220160319051010203/19/16 05:10:31  5-MIN K9L2 191310Z AUTO 00000KT 10SM CLR 04/M01 A2999 2240 67 1500 000/00 RMK AO2 $
53144K9L2 9L220160319051510203/19/16 05:15:31  5-MIN K9L2 191315Z AUTO 29003KT 10SM CLR 04/M01 A2999 2240 67 1500 270/03 RMK AO2 $
53144K9L2 9L220160319052010203/19/16 05:20:31  5-MIN K9L2 191320Z AUTO 00000KT 10SM CLR 04/M01 A2999 2240 67 1500 000/00 RMK AO2 $
53144K9L2 9L220160319052510203/19/16 05:25:31  5-MIN K9L2 191325Z AUTO 00000KT 10SM CLR 05/M01 A2999 2240 64 1600 000/00 RMK AO2 $
53144K9L2 9L220160319053010203/19/16 05:30:31  5-MIN K9L2 191330Z AUTO 00000KT 10SM CLR 04/M01 A2999 2240 67 1500 000/00 RMK AO2 $
53144K9L2 9L220160319053510203/19/16 05:35:31  5-MIN K9L2 191335Z AUTO 00000KT 10SM CLR 04/M01 A2999 2230 67 1500 000/00 RMK AO2 $
53144K9L2 9L220160319054010203/19/16 05:40:31  5-MIN K9L2 191340Z AUTO 00000KT 10SM CLR 04/M01 A2999 2240 70 1500 000/00 RMK AO2 $
53144K9L2 9L220160319054510203/19/16 05:45:31  5-MIN K9L2 191345Z AUTO 00000KT 10SM CLR 04/M01 A3000 2230 70 1500 000/00 RMK AO2 $
53144K9L2 9L220160319055010203/19/16 05:50:31  5-MIN K9L2 191350Z AUTO 00000KT 10SM CLR 04/M01 A3000 2230 67 1500 000/00 RMK AO2 $
53144K9L2 9L220160319055511903/19/16 05:55:31  5-MIN K9L2 191355Z AUTO 00000KT 10SM CLR 04/M01 A3000 2230 67 1500 000/00 RMK AO2 SLP156 T00441011 $
53144K9L2 9L220160319060010203/19/16 06:00:31  5-MIN K9L2 191400Z AUTO 00000KT 10SM CLR 04/M01 A3000 2230 70 1500 000/00 RMK AO2 $
53144K9L2 9L220160319060510203/19/16 06:05:31  5-MIN K9L2 191405Z AUTO 00000KT 10SM CLR 04/M01 A3001 2220 67 1500 000/00 RMK AO2 $
53144K9L2 9L220160319061010203/19/16 06:10:31  5-MIN K9L2 191410Z AUTO 02003KT 10SM CLR 04/M01 A3000 2220 70 1500 010/03 RMK AO2 $
53144K9L2 9L220160319061510203/19/16 06:15:31  5-MIN K9L2 191415Z AUTO 00000KT 10SM CLR 04/M01 A3001 2220 70 1500 000/00 RMK AO2 $
53144K9L2 9L220160319062010203/19/16 06:20:31  5-MIN K9L2 191420Z AUTO 01003KT 10SM CLR 04/M01 A3001 2220 70 1500 360/03 RMK AO2 $
53144K9L2 9L220160319062510203/19/16 06:25:31  5-MIN K9L2 191425Z AUTO 00000KT 10SM CLR 05/M01 A3001 2220 67 1600 000/00 RMK AO2 $
53144K9L2 9L220160319063010103/19/16 06:30:31  5-MIN K9L2 191430Z AUTO 00000KT 10SM CLR 06/00 A3001 2220 67 1700 000/00 RMK AO2 $
53144K9L2 9L220160319063510103/19/16 06:35:31  5-MIN K9L2 191435Z AUTO 00000KT 10SM CLR 06/00 A3001 2220 65 1700 000/00 RMK AO2 $
53144K9L2 9L220160319064010103/19/16 06:40:31  5-MIN K9L2 191440Z AUTO 00000KT 10SM CLR 07/01 A3001 2220 65 1800 000/00 RMK AO2 $
53144K9L2 9L220160319064510103/19/16 06:45:31  5-MIN K9L2 191445Z AUTO 00000KT 10SM CLR 07/01 A3001 2220 65 1800 000/00 RMK AO2 $
53144K9L2 9L220160319065010103/19/16 06:50:31  5-MIN K9L2 191450Z AUTO 00000KT 10SM CLR 07/01 A3001 2220 62 1900 000/00 RMK AO2 $
53144K9L2 9L220160319065512403/19/16 06:55:31  5-MIN K9L2 191455Z AUTO 00000KT 10SM CLR 08/01 A3001 2220 62 1900 000/00 RMK AO2 SLP160 T00780011 55000 $
53144K9L2 9L220160319070010103/19/16 07:00:31  5-MIN K9L2 191500Z AUTO 00000KT 10SM CLR 08/01 A3001 2220 60 2000 000/00 RMK AO2 $
53144K9L2 9L220160319070510103/19/16 07:05:31  5-MIN K9L2 191505Z AUTO 00000KT 10SM CLR 08/01 A3001 2220 60 2000 000/00 RMK AO2 $
53144K9L2 9L220160319071010103/19/16 07:10:31  5-MIN K9L2 191510Z AUTO 00000KT 10SM CLR 09/01 A3002 2210 58 2000 000/00 RMK AO2 $
53144K9L2 9L220160319071510103/19/16 07:15:31  5-MIN K9L2 191515Z AUTO 00000KT 10SM CLR 09/02 A3002 2210 58 2100 000/00 RMK AO2 $
53144K9L2 9L220160319072010103/19/16 07:20:31  5-MIN K9L2 191520Z AUTO 00000KT 10SM CLR 09/02 A3002 2210 58 2100 000/00 RMK AO2 $
53144K9L2 9L220160319072510103/19/16 07:25:31  5-MIN K9L2 191525Z AUTO 00000KT 10SM CLR 10/02 A3002 2210 56 2200 000/00 RMK AO2 $
53144K9L2 9L220160319073010103/19/16 07:30:31  5-MIN K9L2 191530Z AUTO 00000KT 10SM CLR 10/02 A3002 2210 56 2200 000/00 RMK AO2 $
53144K9L2 9L220160319073510103/19/16 07:35:31  5-MIN K9L2 191535Z AUTO 00000KT 10SM CLR 11/02 A3002 2210 54 2200 000/00 RMK AO2 $
53144K9L2 9L220160319074010103/19/16 07:40:31  5-MIN K9L2 191540Z AUTO 00000KT 10SM CLR 11/02 A3002 2210 54 2200 000/00 RMK AO2 $
53144K9L2 9L220160319074510103/19/16 07:45:31  5-MIN K9L2 191545Z AUTO 00000KT 10SM CLR 12/02 A3002 2210 50 2400 000/00 RMK AO2 $
53144K9L2 9L220160319075010103/19/16 07:50:31  5-MIN K9L2 191550Z AUTO 00000KT 10SM CLR 12/02 A3002 2210 50 2400 000/00 RMK AO2 $
53144K9L2 9L220160319075511803/19/16 07:55:31  5-MIN K9L2 191555Z AUTO 00000KT 10SM CLR 12/02 A3002 2210 50 2400 000/00 RMK AO2 SLP161 T01220022 $
53144K9L2 9L220160319080010103/19/16 08:00:31  5-MIN K9L2 191600Z AUTO 00000KT 10SM CLR 12/02 A3003 2210 50 2400 000/00 RMK AO2 $
53144K9L2 9L220160319080510103/19/16 08:05:31  5-MIN K9L2 191605Z AUTO 00000KT 10SM CLR 13/02 A3003 2200 48 2500 000/00 RMK AO2 $
53144K9L2 9L220160319081010103/19/16 08:10:31  5-MIN K9L2 191610Z AUTO 00000KT 10SM CLR 13/02 A3003 2200 46 2600 000/00 RMK AO2 $
53144K9L2 9L220160319081510103/19/16 08:15:31  5-MIN K9L2 191615Z AUTO 00000KT 10SM CLR 13/02 A3003 2200 48 2500 000/00 RMK AO2 $
53144K9L2 9L220160319082010103/19/16 08:20:31  5-MIN K9L2 191620Z AUTO 00000KT 10SM CLR 13/02 A3003 2200 46 2600 000/00 RMK AO2 $
53144K9L2 9L220160319082510103/19/16 08:25:31  5-MIN K9L2 191625Z AUTO 00000KT 10SM CLR 14/02 A3003 2200 43 2700 000/00 RMK AO2 $
53144K9L2 9L220160319083010103/19/16 08:30:31  5-MIN K9L2 191630Z AUTO 00000KT 10SM CLR 15/02 A3004 2200 42 2700 000/00 RMK AO2 $
53144K9L2 9L220160319083510103/19/16 08:35:31  5-MIN K9L2 191635Z AUTO 00000KT 10SM CLR 16/02 A3004 2200 40 2800 000/00 RMK AO2 $
53144K9L2 9L220160319084010103/19/16 08:40:31  5-MIN K9L2 191640Z AUTO 00000KT 10SM CLR 14/02 A3004 2200 43 2700 000/00 RMK AO2 $
53144K9L2 9L220160319084510103/19/16 08:45:31  5-MIN K9L2 191645Z AUTO 00000KT 10SM CLR 15/02 A3004 2200 42 2700 000/00 RMK AO2 $
53144K9L2 9L220160319085010103/19/16 08:50:31  5-MIN K9L2 191650Z AUTO 09003KT 10SM CLR 16/02 A3004 2190 40 2800 080/03 RMK AO2 $
53144K9L2 9L220160319085511803/19/16 08:55:31  5-MIN K9L2 191655Z AUTO 00000KT 10SM CLR 16/02 A3004 2190 40 2800 000/00 RMK AO2 SLP163 T01560022 $
53144K9L2 9L220160319090010103/19/16 09:00:31  5-MIN K9L2 191700Z AUTO 00000KT 10SM CLR 16/03 A3004 2190 42 2800 000/00 RMK AO2 $
53144K9L2 9L220160319090510103/19/16 09:05:31  5-MIN K9L2 191705Z AUTO 00000KT 10SM CLR 16/02 A3004 2190 39 2900 000/00 RMK AO2 $
53144K9L2 9L220160319091010103/19/16 09:10:31  5-MIN K9L2 191710Z AUTO 00000KT 10SM CLR 16/02 A3004 2190 39 2900 000/00 RMK AO2 $
53144K9L2 9L220160319091510103/19/16 09:15:31  5-MIN K9L2 191715Z AUTO 00000KT 10SM CLR 17/03 A3004 2190 39 2900 000/00 RMK AO2 $
53144K9L2 9L220160319092010103/19/16 09:20:31  5-MIN K9L2 191720Z AUTO 10003KT 10SM CLR 17/03 A3004 2190 37 3000 090/03 RMK AO2 $
53144K9L2 9L220160319092510103/19/16 09:25:31  5-MIN K9L2 191725Z AUTO 00000KT 10SM CLR 17/03 A3004 2190 37 3000 000/00 RMK AO2 $
53144K9L2 9L220160319093010103/19/16 09:30:31  5-MIN K9L2 191730Z AUTO 13004KT 10SM CLR 17/03 A3004 2190 37 3000 120/04 RMK AO2 $
53144K9L2 9L220160319093510103/19/16 09:35:31  5-MIN K9L2 191735Z AUTO 13004KT 10SM CLR 17/03 A3004 2190 37 3000 110/04 RMK AO2 $
53144K9L2 9L220160319094010103/19/16 09:40:31  5-MIN K9L2 191740Z AUTO 12003KT 10SM CLR 18/03 A3004 2190 36 3100 110/03 RMK AO2 $
53144K9L2 9L220160319094510103/19/16 09:45:31  5-MIN K9L2 191745Z AUTO 12003KT 10SM CLR 18/03 A3004 2190 35 3100 110/03 RMK AO2 $
53144K9L2 9L220160319095010103/19/16 09:50:31  5-MIN K9L2 191750Z AUTO 10003KT 10SM CLR 19/03 A3004 2190 34 3200 090/03 RMK AO2 $
53144K9L2 9L220160319095513603/19/16 09:55:31  5-MIN K9L2 191755Z AUTO 11003KT 10SM CLR 19/02 A3004 2200 32 3200 100/03 RMK AO2 SLP163 T01890022 10189 20039 53013 $
53144K9L2 9L220160319100010103/19/16 10:00:31  5-MIN K9L2 191800Z AUTO 12004KT 10SM CLR 19/02 A3003 2200 32 3200 110/04 RMK AO2 $
53144K9L2 9L220160319100510103/19/16 10:05:31  5-MIN K9L2 191805Z AUTO 12003KT 10SM CLR 19/02 A3004 2200 31 3300 100/03 RMK AO2 $
53144K9L2 9L220160319101010103/19/16 10:10:31  5-MIN K9L2 191810Z AUTO 12003KT 10SM CLR 20/02 A3003 2200 30 3300 110/03 RMK AO2 $
53144K9L2 9L220160319101510103/19/16 10:15:31  5-MIN K9L2 191815Z AUTO 14003KT 10SM CLR 19/02 A3003 2200 30 3300 130/03 RMK AO2 $
53144K9L2 9L220160319102010103/19/16 10:20:31  5-MIN K9L2 191820Z AUTO 00000KT 10SM CLR 21/02 A3003 2200 28 3400 000/00 RMK AO2 $
53144K9L2 9L220160319102510103/19/16 10:25:31  5-MIN K9L2 191825Z AUTO 10003KT 10SM CLR 21/02 A3003 2200 28 3400 090/03 RMK AO2 $
53144K9L2 9L220160319103010103/19/16 10:30:31  5-MIN K9L2 191830Z AUTO 13003KT 10SM CLR 21/02 A3003 2200 28 3400 110/03 RMK AO2 $
53144K9L2 9L220160319103510103/19/16 10:35:31  5-MIN K9L2 191835Z AUTO 12003KT 10SM CLR 21/02 A3003 2200 28 3400 110/03 RMK AO2 $
53144K9L2 9L220160319104010103/19/16 10:40:31  5-MIN K9L2 191840Z AUTO 11004KT 10SM CLR 22/01 A3003 2200 25 3500 090/04 RMK AO2 $
53144K9L2 9L220160319104510103/19/16 10:45:31  5-MIN K9L2 191845Z AUTO 00000KT 10SM CLR 22/01 A3003 2200 25 3500 000/00 RMK AO2 $
53144K9L2 9L220160319105010103/19/16 10:50:31  5-MIN K9L2 191850Z AUTO VRB03KT 10SM CLR 22/01 A3003 2200 25 3500 VRB/03 RMK AO2 $
53144K9L2 9L220160319105511803/19/16 10:55:31  5-MIN K9L2 191855Z AUTO 14003KT 10SM CLR 22/01 A3003 2200 25 3500 130/03 RMK AO2 SLP159 T02170011 $
53144K9L2 9L220160319110010103/19/16 11:00:31  5-MIN K9L2 191900Z AUTO 15004KT 10SM CLR 22/01 A3002 2210 24 3600 130/04 RMK AO2 $
53144K9L2 9L220160319110510103/19/16 11:05:31  5-MIN K9L2 191905Z AUTO 00000KT 10SM CLR 22/01 A3002 2210 25 3500 000/00 RMK AO2 $
53144K9L2 9L220160319111010103/19/16 11:10:31  5-MIN K9L2 191910Z AUTO 15004KT 10SM CLR 22/01 A3002 2210 24 3600 140/04 RMK AO2 $
53144K9L2 9L220160319111510103/19/16 11:15:31  5-MIN K9L2 191915Z AUTO 14003KT 10SM CLR 23/01 A3002 2210 23 3700 130/03 RMK AO2 $
53144K9L2 9L220160319112010103/19/16 11:20:31  5-MIN K9L2 191920Z AUTO 13004KT 10SM CLR 23/01 A3002 2210 23 3700 120/04 RMK AO2 $
53144K9L2 9L220160319112510103/19/16 11:25:31  5-MIN K9L2 191925Z AUTO 13004KT 10SM CLR 23/01 A3002 2210 23 3700 120/04 RMK AO2 $
53144K9L2 9L220160319113010103/19/16 11:30:31  5-MIN K9L2 191930Z AUTO 14003KT 10SM CLR 23/01 A3001 2220 22 3700 130/03 RMK AO2 $
53144K9L2 9L220160319113510103/19/16 11:35:31  5-MIN K9L2 191935Z AUTO 11004KT 10SM CLR 23/01 A3001 2220 22 3700 100/04 RMK AO2 $
53144K9L2 9L220160319114010103/19/16 11:40:31  5-MIN K9L2 191940Z AUTO 15005KT 10SM CLR 24/01 A3001 2220 21 3800 130/05 RMK AO2 $
53144K9L2 9L220160319114510103/19/16 11:45:31  5-MIN K9L2 191945Z AUTO VRB04KT 10SM CLR 24/00 A3001 2220 19 3900 VRB/04 RMK AO2 $
53144K9L2 9L220160319115010103/19/16 11:50:31  5-MIN K9L2 191950Z AUTO 16005KT 10SM CLR 24/00 A3001 2220 19 3900 150/05 RMK AO2 $
53144K9L2 9L220160319115511803/19/16 11:55:31  5-MIN K9L2 191955Z AUTO VRB04KT 10SM CLR 24/00 A3001 2220 20 3800 VRB/04 RMK AO2 SLP152 T02390000 $
53144K9L2 9L220160319120010103/19/16 12:00:31  5-MIN K9L2 192000Z AUTO 15005KT 10SM CLR 24/00 A3001 2220 19 3900 140/05 RMK AO2 $
53144K9L2 9L220160319120510103/19/16 12:05:31  5-MIN K9L2 192005Z AUTO 17005KT 10SM CLR 25/00 A3000 2230 19 3900 150/05 RMK AO2 $
53144K9L2 9L220160319121010103/19/16 12:10:31  5-MIN K9L2 192010Z AUTO 14004KT 10SM CLR 24/00 A3000 2230 19 3900 130/04 RMK AO2 $
53144K9L2 9L220160319121510103/19/16 12:15:31  5-MIN K9L2 192015Z AUTO 14005KT 10SM CLR 25/00 A3000 2230 19 3900 130/05 RMK AO2 $
53144K9L2 9L220160319122010103/19/16 12:20:31  5-MIN K9L2 192020Z AUTO 16004KT 10SM CLR 25/00 A3000 2230 19 3900 140/04 RMK AO2 $
53144K9L2 9L220160319122510203/19/16 12:25:31  5-MIN K9L2 192025Z AUTO 14004KT 10SM CLR 24/M01 A3000 2230 19 3900 130/04 RMK AO2 $
53144K9L2 9L220160319123010203/19/16 12:30:31  5-MIN K9L2 192030Z AUTO 00000KT 10SM CLR 25/M01 A2999 2230 17 3900 000/00 RMK AO2 $
53144K9L2 9L220160319123510203/19/16 12:35:31  5-MIN K9L2 192035Z AUTO VRB03KT 10SM CLR 25/M02 A2999 2240 16 3900 VRB/03 RMK AO2 $
53144K9L2 9L220160319124010203/19/16 12:40:31  5-MIN K9L2 192040Z AUTO 00000KT 10SM CLR 26/M01 A2999 2240 17 4000 000/00 RMK AO2 $
53144K9L2 9L220160319124510203/19/16 12:45:31  5-MIN K9L2 192045Z AUTO 15003KT 10SM CLR 26/M02 A2999 2240 16 4000 140/03 RMK AO2 $
53144K9L2 9L220160319125010203/19/16 12:50:31  5-MIN K9L2 192050Z AUTO 14005KT 10SM CLR 26/M02 A2998 2250 15 4100 120/05 RMK AO2 $
53144K9L2 9L220160319125512503/19/16 12:55:31  5-MIN K9L2 192055Z AUTO 16003KT 10SM CLR 26/M03 A2998 2250 14 4100 150/03 RMK AO2 SLP143 T02611033 50006 $
53144K9L2 9L220160319130010203/19/16 13:00:31  5-MIN K9L2 192100Z AUTO 16005KT 10SM CLR 27/M03 A2998 2250 14 4100 150/05 RMK AO2 $
53144K9L2 9L220160319130510203/19/16 13:05:31  5-MIN K9L2 192105Z AUTO 13005KT 10SM CLR 27/M04 A2998 2250 12 4100 120/05 RMK AO2 $
53144K9L2 9L220160319131010203/19/16 13:10:31  5-MIN K9L2 192110Z AUTO 16006KT 10SM CLR 27/M04 A2997 2250 12 4100 140/06 RMK AO2 $
53144K9L2 9L220160319131510203/19/16 13:15:31  5-MIN K9L2 192115Z AUTO 16007KT 10SM CLR 27/M05 A2997 2260 11 4200 150/07 RMK AO2 $
53144K9L2 9L220160319132010203/19/16 13:20:31  5-MIN K9L2 192120Z AUTO 17006KT 10SM CLR 27/M06 A2997 2260 11 4200 160/06 RMK AO2 $
53144K9L2 9L220160319132510203/19/16 13:25:31  5-MIN K9L2 192125Z AUTO 16005KT 10SM CLR 27/M06 A2997 2260 11 4200 150/05 RMK AO2 $
53144K9L2 9L220160319133010203/19/16 13:30:31  5-MIN K9L2 192130Z AUTO 16006KT 10SM CLR 28/M06 A2997 2260 10 4300 150/06 RMK AO2 $
53144K9L2 9L220160319133510203/19/16 13:35:31  5-MIN K9L2 192135Z AUTO 16006KT 10SM CLR 27/M06 A2997 2260 10 4200 150/06 RMK AO2 $
53144K9L2 9L220160319134010203/19/16 13:40:31  5-MIN K9L2 192140Z AUTO VRB06KT 10SM CLR 28/M07 A2997 2260 10 4300 VRB/06 RMK AO2 $
53144K9L2 9L220160319134510203/19/16 13:45:31  5-MIN K9L2 192145Z AUTO 17004KT 10SM CLR 27/M08 A2996 2260 09 4200 150/04 RMK AO2 $
53144K9L2 9L220160319135010203/19/16 13:50:31  5-MIN K9L2 192150Z AUTO 18006KT 10SM CLR 28/M07 A2996 2260 09 4300 160/06 RMK AO2 $
53144K9L2 9L220160319135511903/19/16 13:55:31  5-MIN K9L2 192155Z AUTO VRB03KT 10SM CLR 28/M08 A2996 2260 08 4300 VRB/03 RMK AO2 SLP136 T02781083 $
53144K9L2 9L220160319140010203/19/16 14:00:31  5-MIN K9L2 192200Z AUTO VRB03KT 10SM CLR 28/M08 A2996 2270 08 4300 VRB/03 RMK AO2 $
53144K9L2 9L220160319140510203/19/16 14:05:31  5-MIN K9L2 192205Z AUTO 18006KT 10SM CLR 28/M09 A2996 2270 08 4300 170/06 RMK AO2 $
53144K9L2 9L220160319141010803/19/16 14:10:31  5-MIN K9L2 192210Z AUTO 20007G14KT 10SM CLR 29/M11 A2995 2270 06 4400 190/07G14 RMK AO2 $
53144K9L2 9L220160319141510803/19/16 14:15:31  5-MIN K9L2 192215Z AUTO 20008G14KT 10SM CLR 29/M12 A2995 2270 06 4400 190/08G14 RMK AO2 $
53144K9L2 9L220160319142010203/19/16 14:20:31  5-MIN K9L2 192220Z AUTO 18006KT 10SM CLR 28/M13 A2995 2280 06 4300 170/06 RMK AO2 $
53144K9L2 9L220160319142510803/19/16 14:25:31  5-MIN K9L2 192225Z AUTO 20010G15KT 10SM CLR 29/M14 A2995 2280 05 4400 190/10G15 RMK AO2 $
53144K9L2 9L220160319143010803/19/16 14:30:31  5-MIN K9L2 192230Z AUTO 22007G15KT 10SM CLR 29/M13 A2995 2280 06 4400 210/07G15 RMK AO2 $
53144K9L2 9L220160319143510203/19/16 14:35:31  5-MIN K9L2 192235Z AUTO 23007KT 10SM CLR 28/M12 A2995 2280 06 4400 210/07 RMK AO2 $
53144K9L2 9L220160319144010803/19/16 14:40:31  5-MIN K9L2 192240Z AUTO 21011G15KT 10SM CLR 29/M11 A2995 2280 07 4400 200/11G15 RMK AO2 $
53144K9L2 9L220160319144510203/19/16 14:45:31  5-MIN K9L2 192245Z AUTO 21009KT 10SM CLR 28/M10 A2995 2280 07 4400 200/09 RMK AO2 $
53144K9L2 9L220160319145010203/19/16 14:50:31  5-MIN K9L2 192250Z AUTO 21006KT 10SM CLR 28/M10 A2994 2280 07 4400 190/06 RMK AO2 $
53144K9L2 9L220160319145513503/19/16 14:55:31  5-MIN K9L2 192255Z AUTO 21009KT 180V250 10SM CLR 28/M09 A2994 2280 08 4400 190/09 170V240 RMK AO2 SLP130 T02831089 $
53144K9L2 9L220160319150010203/19/16 15:00:31  5-MIN K9L2 192300Z AUTO 23008KT 10SM CLR 29/M08 A2994 2280 08 4400 210/08 RMK AO2 $
53144K9L2 9L220160319150510203/19/16 15:05:31  5-MIN K9L2 192305Z AUTO 21011KT 10SM CLR 29/M07 A2994 2280 09 4400 200/11 RMK AO2 $
53144K9L2 9L220160319151010803/19/16 15:10:31  5-MIN K9L2 192310Z AUTO 22012G17KT 10SM CLR 29/M08 A2994 2280 08 4400 210/12G17 RMK AO2 $
53144K9L2 9L220160319151510803/19/16 15:15:31  5-MIN K9L2 192315Z AUTO 22009G17KT 10SM CLR 29/M08 A2994 2280 08 4400 210/09G17 RMK AO2 $
53144K9L2 9L220160319152010203/19/16 15:20:31  5-MIN K9L2 192320Z AUTO 23009KT 10SM CLR 28/M08 A2994 2280 09 4400 220/09 RMK AO2 $
53144K9L2 9L220160319152510203/19/16 15:25:31  5-MIN K9L2 192325Z AUTO 21011KT 10SM CLR 28/M07 A2994 2290 09 4400 200/11 RMK AO2 $
53144K9L2 9L220160319153010203/19/16 15:30:31  5-MIN K9L2 192330Z AUTO 22013KT 10SM CLR 28/M06 A2994 2290 10 4400 210/13 RMK AO2 $
53144K9L2 9L220160319153510203/19/16 15:35:31  5-MIN K9L2 192335Z AUTO 26010KT 10SM CLR 28/M06 A2994 2290 10 4400 250/10 RMK AO2 $
53144K9L2 9L220160319154010203/19/16 15:40:31  5-MIN K9L2 192340Z AUTO 22015KT 10SM CLR 28/M05 A2994 2290 11 4400 210/15 RMK AO2 $
53144K9L2 9L220160319154510803/19/16 15:45:31  5-MIN K9L2 192345Z AUTO 24013G19KT 10SM CLR 28/M04 A2994 2290 12 4400 230/13G19 RMK AO2 $
53144K9L2 9L220160319155010803/19/16 15:50:31  5-MIN K9L2 192350Z AUTO 22013G19KT 10SM CLR 28/M04 A2994 2290 12 4400 210/13G19 RMK AO2 $
53144K9L2 9L220160319155513703/19/16 15:55:31  5-MIN K9L2 192355Z AUTO 23012KT 10SM CLR 28/M04 A2994 2290 12 4300 220/12 RMK AO2 SLP130 T02781039 10289 20189 58018 $
53144K9L2 9L220160319160010203/19/16 16:00:31  5-MIN K9L2 200000Z AUTO 22013KT 10SM CLR 28/M03 A2994 2290 12 4300 210/13 RMK AO2 $
53144K9L2 9L220160319160510203/19/16 16:05:31  5-MIN K9L2 200005Z AUTO 22013KT 10SM CLR 28/M03 A2994 2290 13 4300 210/13 RMK AO2 $
53144K9L2 9L220160319161010203/19/16 16:10:31  5-MIN K9L2 200010Z AUTO 24013KT 10SM CLR 28/M03 A2994 2290 13 4300 230/13 RMK AO2 $
53144K9L2 9L220160319161510803/19/16 16:15:31  5-MIN K9L2 200015Z AUTO 24011G19KT 10SM CLR 28/M02 A2994 2290 13 4300 220/11G19 RMK AO2 $
53144K9L2 9L220160319162010803/19/16 16:20:31  5-MIN K9L2 200020Z AUTO 23017G21KT 10SM CLR 27/M01 A2994 2290 15 4200 220/17G21 RMK AO2 $
53144K9L2 9L220160319162510803/19/16 16:25:31  5-MIN K9L2 200025Z AUTO 24016G22KT 10SM CLR 27/M01 A2994 2290 16 4200 220/16G22 RMK AO2 $
53144K9L2 9L220160319163010803/19/16 16:30:31  5-MIN K9L2 200030Z AUTO 22016G22KT 10SM CLR 27/M01 A2993 2290 16 4200 210/16G22 RMK AO2 $
53144K9L2 9L220160319163510103/19/16 16:35:31  5-MIN K9L2 200035Z AUTO 23016KT 10SM CLR 27/00 A2993 2290 16 4200 210/16 RMK AO2 $
53144K9L2 9L220160319164010103/19/16 16:40:31  5-MIN K9L2 200040Z AUTO 25016KT 10SM CLR 27/00 A2994 2290 16 4200 230/16 RMK AO2 $
53144K9L2 9L220160319164510103/19/16 16:45:31  5-MIN K9L2 200045Z AUTO 26014KT 10SM CLR 27/01 A2994 2290 17 4200 250/14 RMK AO2 $
53144K9L2 9L220160319165010103/19/16 16:50:31  5-MIN K9L2 200050Z AUTO 26010KT 10SM CLR 27/01 A2994 2290 18 4200 250/10 RMK AO2 $
53144K9L2 9L220160319165511803/19/16 16:55:31  5-MIN K9L2 200055Z AUTO 27013KT 10SM CLR 27/01 A2994 2280 18 4200 260/13 RMK AO2 SLP133 T02670006 $
53144K9L2 9L220160319170010103/19/16 17:00:31  5-MIN K9L2 200100Z AUTO 26013KT 10SM CLR 26/00 A2994 2280 18 4100 250/13 RMK AO2 $
53144K9L2 9L220160319170510103/19/16 17:05:31  5-MIN K9L2 200105Z AUTO 26011KT 10SM CLR 26/01 A2994 2280 18 4100 250/11 RMK AO2 $
53144K9L2 9L220160319171010103/19/16 17:10:31  5-MIN K9L2 200110Z AUTO 26013KT 10SM CLR 26/00 A2994 2280 18 4100 250/13 RMK AO2 $
53144K9L2 9L220160319171510103/19/16 17:15:31  5-MIN K9L2 200115Z AUTO 26014KT 10SM CLR 26/00 A2994 2280 18 4000 250/14 RMK AO2 $
53144K9L2 9L220160319172010203/19/16 17:20:31  5-MIN K9L2 200120Z AUTO 24014KT 10SM CLR 26/M02 A2995 2280 15 4000 230/14 RMK AO2 $
53144K9L2 9L220160319172510203/19/16 17:25:31  5-MIN K9L2 200125Z AUTO 24015KT 10SM CLR 25/M02 A2995 2280 16 4000 230/15 RMK AO2 $
53144K9L2 9L220160319173010203/19/16 17:30:31  5-MIN K9L2 200130Z AUTO 24014KT 10SM CLR 24/M03 A2995 2280 16 3900 230/14 RMK AO2 $
53144K9L2 9L220160319173510203/19/16 17:35:31  5-MIN K9L2 200135Z AUTO 24012KT 10SM CLR 24/M03 A2995 2280 15 3900 230/12 RMK AO2 $
53144K9L2 9L220160319174010203/19/16 17:40:31  5-MIN K9L2 200140Z AUTO 24010KT 10SM CLR 24/M03 A2995 2270 16 3900 230/10 RMK AO2 $
53144K9L2 9L220160319174510203/19/16 17:45:31  5-MIN K9L2 200145Z AUTO 24012KT 10SM CLR 24/M03 A2995 2270 16 3900 230/12 RMK AO2 $
53144K9L2 9L220160319175010203/19/16 17:50:31  5-MIN K9L2 200150Z AUTO 25010KT 10SM CLR 23/M03 A2995 2270 17 3800 240/10 RMK AO2 $
53144K9L2 9L220160319175511903/19/16 17:55:31  5-MIN K9L2 200155Z AUTO 26009KT 10SM CLR 23/M03 A2995 2270 17 3800 250/09 RMK AO2 SLP139 T02331028 $
53144K9L2 9L220160319180010203/19/16 18:00:31  5-MIN K9L2 200200Z AUTO 26009KT 10SM CLR 23/M03 A2995 2270 16 3800 250/09 RMK AO2 $
53144K9L2 9L220160319180510203/19/16 18:05:31  5-MIN K9L2 200205Z AUTO 26009KT 10SM CLR 23/M03 A2995 2270 17 3700 250/09 RMK AO2 $
53144K9L2 9L220160319181010203/19/16 18:10:31  5-MIN K9L2 200210Z AUTO 26008KT 10SM CLR 22/M03 A2996 2270 17 3700 250/08 RMK AO2 $
53144K9L2 9L220160319181510203/19/16 18:15:31  5-MIN K9L2 200215Z AUTO 24005KT 10SM CLR 22/M03 A2996 2270 18 3600 230/05 RMK AO2 $
53144K9L2 9L220160319182010203/19/16 18:20:31  5-MIN K9L2 200220Z AUTO 24006KT 10SM CLR 21/M03 A2996 2270 20 3500 230/06 RMK AO2 $
53144K9L2 9L220160319182510203/19/16 18:25:31  5-MIN K9L2 200225Z AUTO 23005KT 10SM CLR 21/M03 A2996 2270 20 3500 220/05 RMK AO2 $
53144K9L2 9L220160319183010203/19/16 18:30:31  5-MIN K9L2 200230Z AUTO 23005KT 10SM CLR 21/M02 A2996 2270 21 3500 220/05 RMK AO2 $
53144K9L2 9L220160319183510203/19/16 18:35:31  5-MIN K9L2 200235Z AUTO 23006KT 10SM CLR 21/M02 A2996 2270 22 3500 220/06 RMK AO2 $
53144K9L2 9L220160319184010203/19/16 18:40:31  5-MIN K9L2 200240Z AUTO 23006KT 10SM CLR 20/M02 A2996 2260 22 3400 220/06 RMK AO2 $
53144K9L2 9L220160319184510203/19/16 18:45:31  5-MIN K9L2 200245Z AUTO 23007KT 10SM CLR 20/M03 A2996 2260 20 3400 220/07 RMK AO2 $
53144K9L2 9L220160319185010203/19/16 18:50:31  5-MIN K9L2 200250Z AUTO 23006KT 10SM CLR 20/M04 A2996 2260 19 3400 220/06 RMK AO2 $
53144K9L2 9L220160319185512503/19/16 18:55:31  5-MIN K9L2 200255Z AUTO 23006KT 10SM CLR 19/M04 A2996 2260 20 3300 210/06 RMK AO2 SLP143 T01941039 56013 $
53144K9L2 9L220160319190010203/19/16 19:00:31  5-MIN K9L2 200300Z AUTO 22005KT 10SM CLR 19/M04 A2997 2260 21 3300 200/05 RMK AO2 $
53144K9L2 9L220160319190510203/19/16 19:05:31  5-MIN K9L2 200305Z AUTO 20006KT 10SM CLR 19/M04 A2997 2260 21 3300 190/06 RMK AO2 $
53144K9L2 9L220160319191010203/19/16 19:10:31  5-MIN K9L2 200310Z AUTO 20007KT 10SM CLR 19/M04 A2997 2260 21 3300 190/07 RMK AO2 $
53144K9L2 9L220160319191510203/19/16 19:15:31  5-MIN K9L2 200315Z AUTO 21007KT 10SM CLR 19/M04 A2997 2260 21 3300 190/07 RMK AO2 $
53144K9L2 9L220160319192010203/19/16 19:20:31  5-MIN K9L2 200320Z AUTO 21006KT 10SM CLR 18/M04 A2997 2260 21 3200 190/06 RMK AO2 $
53144K9L2 9L220160319192510203/19/16 19:25:31  5-MIN K9L2 200325Z AUTO 24007KT 10SM CLR 18/M05 A2997 2250 20 3200 230/07 RMK AO2 $
53144K9L2 9L220160319193010203/19/16 19:30:31  5-MIN K9L2 200330Z AUTO 23007KT 10SM CLR 19/M06 A2998 2250 18 3300 220/07 RMK AO2 $
53144K9L2 9L220160319193510203/19/16 19:35:31  5-MIN K9L2 200335Z AUTO 25012KT 10SM CLR 20/M06 A2997 2250 17 3400 240/12 RMK AO2 $
53144K9L2 9L220160319194010203/19/16 19:40:31  5-MIN K9L2 200340Z AUTO 25010KT 10SM CLR 20/M05 A2998 2250 18 3400 230/10 RMK AO2 $
53144K9L2 9L220160319194510203/19/16 19:45:31  5-MIN K9L2 200345Z AUTO 25007KT 10SM CLR 19/M05 A2998 2250 18 3300 240/07 RMK AO2 $
53144K9L2 9L220160319195010203/19/16 19:50:31  5-MIN K9L2 200350Z AUTO 25007KT 10SM CLR 19/M05 A2998 2250 18 3300 240/07 RMK AO2 $
53144K9L2 9L220160319195511903/19/16 19:55:31  5-MIN K9L2 200355Z AUTO 26007KT 10SM CLR 19/M04 A2998 2250 20 3300 240/07 RMK AO2 SLP147 T01891044 $
53144K9L2 9L220160319200010203/19/16 20:00:31  5-MIN K9L2 200400Z AUTO 25009KT 10SM CLR 19/M04 A2998 2250 20 3300 240/09 RMK AO2 $
53144K9L2 9L220160319200510203/19/16 20:05:31  5-MIN K9L2 200405Z AUTO 26011KT 10SM CLR 19/M04 A2998 2240 21 3300 250/11 RMK AO2 $
53144K9L2 9L220160319201010203/19/16 20:10:31  5-MIN K9L2 200410Z AUTO 26009KT 10SM CLR 18/M04 A2999 2240 21 3200 240/09 RMK AO2 $
53144K9L2 9L220160319201510203/19/16 20:15:31  5-MIN K9L2 200415Z AUTO 25010KT 10SM CLR 18/M03 A2999 2240 22 3200 240/10 RMK AO2 $
53144K9L2 9L220160319202010203/19/16 20:20:31  5-MIN K9L2 200420Z AUTO 25008KT 10SM CLR 18/M03 A2999 2240 22 3200 240/08 RMK AO2 $
53144K9L2 9L220160319202510203/19/16 20:25:31  5-MIN K9L2 200425Z AUTO 24006KT 10SM CLR 18/M03 A2999 2230 23 3100 230/06 RMK AO2 $
53144K9L2 9L220160319203010203/19/16 20:30:31  5-MIN K9L2 200430Z AUTO 24006KT 10SM CLR 18/M04 A3000 2230 22 3100 230/06 RMK AO2 $
53144K9L2 9L220160319203510203/19/16 20:35:31  5-MIN K9L2 200435Z AUTO 24006KT 10SM CLR 17/M03 A3000 2230 24 3000 230/06 RMK AO2 $
53144K9L2 9L220160319204010203/19/16 20:40:31  5-MIN K9L2 200440Z AUTO 24005KT 10SM CLR 17/M03 A2999 2230 24 3000 220/05 RMK AO2 $
53144K9L2 9L220160319204510203/19/16 20:45:31  5-MIN K9L2 200445Z AUTO 24006KT 10SM CLR 17/M03 A2999 2230 25 3000 230/06 RMK AO2 $
53144K9L2 9L220160319205010203/19/16 20:50:31  5-MIN K9L2 200450Z AUTO 24008KT 10SM CLR 17/M03 A2999 2230 25 3000 230/08 RMK AO2 $
53144K9L2 9L220160319205511903/19/16 20:55:31  5-MIN K9L2 200455Z AUTO 24009KT 10SM CLR 17/M03 A2999 2230 25 3000 230/09 RMK AO2 SLP150 T01721028 $
53144K9L2 9L220160319210010203/19/16 21:00:31  5-MIN K9L2 200500Z AUTO 24011KT 10SM CLR 18/M03 A3000 2230 24 3100 230/11 RMK AO2 $
53144K9L2 9L220160319210510203/19/16 21:05:31  5-MIN K9L2 200505Z AUTO 24010KT 10SM CLR 18/M03 A3000 2230 23 3100 230/10 RMK AO2 $
53144K9L2 9L220160319211010203/19/16 21:10:31  5-MIN K9L2 200510Z AUTO 24009KT 10SM CLR 18/M04 A3000 2230 21 3200 230/09 RMK AO2 $
53144K9L2 9L220160319211510203/19/16 21:15:31  5-MIN K9L2 200515Z AUTO 23008KT 10SM CLR 18/M04 A3000 2230 21 3200 220/08 RMK AO2 $
53144K9L2 9L220160319212010203/19/16 21:20:31  5-MIN K9L2 200520Z AUTO 23007KT 10SM CLR 18/M04 A3000 2230 21 3100 220/07 RMK AO2 $
53144K9L2 9L220160319212510203/19/16 21:25:31  5-MIN K9L2 200525Z AUTO 22006KT 10SM CLR 17/M04 A3000 2230 22 3000 210/06 RMK AO2 $
53144K9L2 9L220160319213010203/19/16 21:30:31  5-MIN K9L2 200530Z AUTO 22006KT 10SM CLR 17/M04 A3000 2230 23 3000 210/06 RMK AO2 $
53144K9L2 9L220160319213510203/19/16 21:35:31  5-MIN K9L2 200535Z AUTO 21006KT 10SM CLR 17/M04 A3000 2230 23 3000 200/06 RMK AO2 $
53144K9L2 9L220160319214010203/19/16 21:40:31  5-MIN K9L2 200540Z AUTO 22007KT 10SM CLR 16/M04 A3000 2230 24 2900 210/07 RMK AO2 $
53144K9L2 9L220160319214510203/19/16 21:45:31  5-MIN K9L2 200545Z AUTO 23008KT 10SM CLR 17/M04 A3000 2230 23 3000 210/08 RMK AO2 $
53144K9L2 9L220160319215010203/19/16 21:50:31  5-MIN K9L2 200550Z AUTO 22007KT 10SM CLR 17/M04 A3000 2230 23 3000 210/07 RMK AO2 $
53144K9L2 9L220160319215513703/19/16 21:55:31  5-MIN K9L2 200555Z AUTO 23007KT 10SM CLR 17/M04 A3000 2220 23 3000 220/07 RMK AO2 SLP152 T01671044 10278 20161 53009 $
53144K9L2 9L220160319220010203/19/16 22:00:31  5-MIN K9L2 200600Z AUTO 23006KT 10SM CLR 17/M04 A3001 2220 24 3000 220/06 RMK AO2 $
53144K9L2 9L220160319220510203/19/16 22:05:31  5-MIN K9L2 200605Z AUTO 24007KT 10SM CLR 16/M04 A3000 2230 25 2900 230/07 RMK AO2 $
53144K9L2 9L220160319221010203/19/16 22:10:31  5-MIN K9L2 200610Z AUTO 24008KT 10SM CLR 17/M03 A3000 2230 25 3000 230/08 RMK AO2 $
53144K9L2 9L220160319221510203/19/16 22:15:31  5-MIN K9L2 200615Z AUTO 25006KT 10SM CLR 16/M03 A3001 2220 26 2900 230/06 RMK AO2 $
53144K9L2 9L220160319222010203/19/16 22:20:31  5-MIN K9L2 200620Z AUTO 25003KT 10SM CLR 16/M03 A3001 2220 27 2800 240/03 RMK AO2 $
53144K9L2 9L220160319222510203/19/16 22:25:31  5-MIN K9L2 200625Z AUTO 00000KT 10SM CLR 15/M04 A3001 2220 27 2800 000/00 RMK AO2 $
53144K9L2 9L220160319223010203/19/16 22:30:31  5-MIN K9L2 200630Z AUTO VRB03KT 10SM CLR 15/M04 A3001 2220 27 2800 VRB/03 RMK AO2 $
53144K9L2 9L220160319223510203/19/16 22:35:31  5-MIN K9L2 200635Z AUTO 25005KT 10SM CLR 16/M03 A3000 2230 26 2900 240/05 RMK AO2 $
53144K9L2 9L220160319224010203/19/16 22:40:31  5-MIN K9L2 200640Z AUTO 25007KT 10SM CLR 16/M03 A3000 2230 27 2900 240/07 RMK AO2 $
53144K9L2 9L220160319224510203/19/16 22:45:31  5-MIN K9L2 200645Z AUTO 25009KT 10SM CLR 16/M02 A3000 2230 29 2900 240/09 RMK AO2 $
53144K9L2 9L220160319225010203/19/16 22:50:31  5-MIN K9L2 200650Z AUTO 25010KT 10SM CLR 17/M01 A3000 2230 29 3000 240/10 RMK AO2 $
53144K9L2 9L220160319225511903/19/16 22:55:31  5-MIN K9L2 200655Z AUTO 25009KT 10SM CLR 17/M01 A3000 2230 29 3000 240/09 RMK AO2 SLP149 T01721006 $
53144K9L2 9L220160319230010203/19/16 23:00:31  5-MIN K9L2 200700Z AUTO 26007KT 10SM CLR 17/M01 A3000 2230 29 3000 240/07 RMK AO2 $
53144K9L2 9L220160319230510203/19/16 23:05:31  5-MIN K9L2 200705Z AUTO 03004KT 10SM CLR 16/M01 A3001 2220 31 2800 020/04 RMK AO2 $
53144K9L2 9L220160319231010203/19/16 23:10:31  5-MIN K9L2 200710Z AUTO 02005KT 10SM CLR 13/M03 A3001 2220 32 2600 010/05 RMK AO2 $
53144K9L2 9L220160319231510203/19/16 23:15:31  5-MIN K9L2 200715Z AUTO 02006KT 10SM CLR 14/M02 A3001 2220 34 2600 010/06 RMK AO2 $
53144K9L2 9L220160319232010203/19/16 23:20:31  5-MIN K9L2 200720Z AUTO 03006KT 10SM CLR 13/M02 A3001 2220 34 2600 020/06 RMK AO2 $
53144K9L2 9L220160319232510203/19/16 23:25:31  5-MIN K9L2 200725Z AUTO VRB05KT 10SM CLR 16/M01 A3001 2220 33 2800 VRB/05 RMK AO2 $
53144K9L2 9L220160319233010103/19/16 23:30:31  5-MIN K9L2 200730Z AUTO 35004KT 10SM CLR 16/00 A3001 2220 33 2900 340/04 RMK AO2 $
53144K9L2 9L220160319233510103/19/16 23:35:31  5-MIN K9L2 200735Z AUTO VRB06KT 10SM CLR 17/01 A3001 2220 32 3000 VRB/06 RMK AO2 $
53144K9L2 9L220160319234010103/19/16 23:40:31  5-MIN K9L2 200740Z AUTO VRB05KT 10SM CLR 18/01 A3001 2220 31 3100 VRB/05 RMK AO2 $
53144K9L2 9L220160319234510103/19/16 23:45:31  5-MIN K9L2 200745Z AUTO 27006KT 10SM CLR 18/01 A3001 2220 31 3100 260/06 RMK AO2 $
53144K9L2 9L220160319235010103/19/16 23:50:31  5-MIN K9L2 200750Z AUTO VRB03KT 10SM CLR 17/01 A3001 2220 33 3000 VRB/03 RMK AO2 $
53144K9L2 9L220160319235512803/19/16 23:55:31  5-MIN K9L2 200755Z AUTO VRB03KT 10SM CLR 14/00 A3001 2220 37 2700 VRB/03 RMK AO2 SLP152 T01440000 402890039 $
53144K9L2 9L220160320000010103/20/16 00:00:31  5-MIN K9L2 200800Z AUTO VRB03KT 10SM CLR 16/01 A3001 2220 36 2800 VRB/03 RMK AO2 $
53144K9L2 9L220160320000510103/20/16 00:05:31  5-MIN K9L2 200805Z AUTO 00000KT 10SM CLR 15/01 A3001 2220 37 2800 000/00 RMK AO2 $
53144K9L2 9L220160320001010103/20/16 00:10:31  5-MIN K9L2 200810Z AUTO VRB03KT 10SM CLR 15/01 A3001 2220 37 2800 VRB/03 RMK AO2 $
53144K9L2 9L220160320001510103/20/16 00:15:31  5-MIN K9L2 200815Z AUTO 00000KT 10SM CLR 14/01 A3001 2220 41 2600 000/00 RMK AO2 $
53144K9L2 9L220160320002010103/20/16 00:20:31  5-MIN K9L2 200820Z AUTO VRB05KT 10SM CLR 14/01 A3001 2220 40 2700 VRB/05 RMK AO2 $
53144K9L2 9L220160320002510103/20/16 00:25:31  5-MIN K9L2 200825Z AUTO VRB04KT 10SM CLR 14/01 A3001 2220 41 2600 VRB/04 RMK AO2 $
53144K9L2 9L220160320003010103/20/16 00:30:31  5-MIN K9L2 200830Z AUTO 14004KT 10SM CLR 13/01 A3001 2220 43 2600 120/04 RMK AO2 $
53144K9L2 9L220160320003510103/20/16 00:35:31  5-MIN K9L2 200835Z AUTO 13006KT 10SM CLR 13/02 A3001 2220 45 2600 110/06 RMK AO2 $
53144K9L2 9L220160320004010103/20/16 00:40:31  5-MIN K9L2 200840Z AUTO VRB05KT 10SM CLR 14/02 A3002 2210 43 2600 VRB/05 RMK AO2 $
53144K9L2 9L220160320004510103/20/16 00:45:31  5-MIN K9L2 200845Z AUTO 12003KT 10SM CLR 14/02 A3002 2210 43 2600 110/03 RMK AO2 $
53144K9L2 9L220160320005010103/20/16 00:50:31  5-MIN K9L2 200850Z AUTO 12004KT 10SM CLR 13/02 A3002 2210 45 2600 110/04 RMK AO2 $
53144K9L2 9L220160320005512403/20/16 00:55:31  5-MIN K9L2 200855Z AUTO 12005KT 10SM CLR 13/02 A3002 2210 46 2500 110/05 RMK AO2 SLP155 T01280017 51013 $
53144K9L2 9L220160320010010103/20/16 01:00:31  5-MIN K9L2 200900Z AUTO 13004KT 10SM CLR 13/02 A3002 2210 45 2600 110/04 RMK AO2 $
53144K9L2 9L220160320010510103/20/16 01:05:31  5-MIN K9L2 200905Z AUTO 00000KT 10SM CLR 13/02 A3002 2210 45 2600 000/00 RMK AO2 $
53144K9L2 9L220160320011010103/20/16 01:10:31  5-MIN K9L2 200910Z AUTO 00000KT 10SM CLR 13/01 A3002 2210 44 2500 000/00 RMK AO2 $
53144K9L2 9L220160320011510103/20/16 01:15:31  5-MIN K9L2 200915Z AUTO 11005KT 10SM CLR 12/01 A3002 2210 46 2400 100/05 RMK AO2 $
53144K9L2 9L220160320012010103/20/16 01:20:31  5-MIN K9L2 200920Z AUTO 13007KT 10SM CLR 12/01 A3002 2210 46 2400 120/07 RMK AO2 $
53144K9L2 9L220160320012510103/20/16 01:25:31  5-MIN K9L2 200925Z AUTO 14006KT 10SM CLR 12/02 A3002 2210 48 2400 130/06 RMK AO2 $
53144K9L2 9L220160320013010103/20/16 01:30:31  5-MIN K9L2 200930Z AUTO 15008KT 10SM CLR 12/02 A3002 2210 48 2400 130/08 RMK AO2 $
53144K9L2 9L220160320013510103/20/16 01:35:31  5-MIN K9L2 200935Z AUTO 15007KT 10SM CLR 12/02 A3002 2210 48 2400 140/07 RMK AO2 $
53144K9L2 9L220160320014010103/20/16 01:40:31  5-MIN K9L2 200940Z AUTO 15006KT 10SM CLR 12/02 A3001 2220 48 2400 140/06 RMK AO2 $
53144K9L2 9L220160320014510103/20/16 01:45:31  5-MIN K9L2 200945Z AUTO 00000KT 10SM CLR 12/02 A3001 2220 50 2400 000/00 RMK AO2 $
53144K9L2 9L220160320015010103/20/16 01:50:31  5-MIN K9L2 200950Z AUTO 00000KT 10SM CLR 12/02 A3001 2220 48 2400 000/00 RMK AO2 $
53144K9L2 9L220160320015511803/20/16 01:55:31  5-MIN K9L2 200955Z AUTO 00000KT 10SM CLR 11/01 A3001 2220 50 2300 000/00 RMK AO2 SLP151 T01110011 $
53144K9L2 9L220160320020010103/20/16 02:00:31  5-MIN K9L2 201000Z AUTO 00000KT 10SM CLR 11/01 A3001 2220 50 2300 000/00 RMK AO2 $
53144K9L2 9L220160320020510103/20/16 02:05:31  5-MIN K9L2 201005Z AUTO 00000KT 10SM CLR 11/01 A3001 2220 50 2300 000/00 RMK AO2 $
53144K9L2 9L220160320021010103/20/16 02:10:31  5-MIN K9L2 201010Z AUTO 18003KT 10SM CLR 12/02 A3001 2220 50 2400 160/03 RMK AO2 $
53144K9L2 9L220160320021510103/20/16 02:15:31  5-MIN K9L2 201015Z AUTO 00000KT 10SM CLR 12/01 A3000 2220 48 2400 000/00 RMK AO2 $
53144K9L2 9L220160320022010103/20/16 02:20:31  5-MIN K9L2 201020Z AUTO 20003KT 10SM CLR 12/02 A3000 2230 50 2400 190/03 RMK AO2 $
53144K9L2 9L220160320022510103/20/16 02:25:31  5-MIN K9L2 201025Z AUTO 18003KT 10SM CLR 11/02 A3000 2230 52 2300 160/03 RMK AO2 $
53144K9L2 9L220160320023010103/20/16 02:30:31  5-MIN K9L2 201030Z AUTO VRB03KT 10SM CLR 11/02 A3000 2230 52 2300 VRB/03 RMK AO2 $
53144K9L2 9L220160320023510103/20/16 02:35:31  5-MIN K9L2 201035Z AUTO 00000KT 10SM CLR 10/01 A3000 2230 54 2200 000/00 RMK AO2 $
53144K9L2 9L220160320024010103/20/16 02:40:31  5-MIN K9L2 201040Z AUTO VRB03KT 10SM CLR 09/01 A3000 2230 56 2100 VRB/03 RMK AO2 $
53144K9L2 9L220160320024510103/20/16 02:45:31  5-MIN K9L2 201045Z AUTO 00000KT 10SM CLR 09/01 A3000 2230 56 2100 000/00 RMK AO2 $
53144K9L2 9L220160320025010103/20/16 02:50:31  5-MIN K9L2 201050Z AUTO 00000KT 10SM CLR 10/01 A3000 2230 54 2200 000/00 RMK AO2 $
53144K9L2 9L220160320025511803/20/16 02:55:31  5-MIN K9L2 201055Z AUTO 00000KT 10SM CLR 10/01 A3000 2230 54 2200 000/00 RMK AO2 SLP149 T01000011 $
53144K9L2 9L220160320030010103/20/16 03:00:31  5-MIN K9L2 201100Z AUTO 17003KT 10SM CLR 09/01 A3000 2230 56 2100 160/03 RMK AO2 $
53144K9L2 9L220160320030510103/20/16 03:05:31  5-MIN K9L2 201105Z AUTO 00000KT 10SM CLR 09/01 A3000 2230 56 2100 000/00 RMK AO2 $
53144K9L2 9L220160320031010103/20/16 03:10:31  5-MIN K9L2 201110Z AUTO 00000KT 10SM CLR 09/01 A3000 2230 56 2100 000/00 RMK AO2 $
53144K9L2 9L220160320031510103/20/16 03:15:31  5-MIN K9L2 201115Z AUTO 00000KT 10SM CLR 09/01 A3000 2230 56 2100 000/00 RMK AO2 $
53144K9L2 9L220160320032010103/20/16 03:20:31  5-MIN K9L2 201120Z AUTO 00000KT 10SM CLR 08/01 A3000 2230 58 2000 000/00 RMK AO2 $
53144K9L2 9L220160320032510103/20/16 03:25:31  5-MIN K9L2 201125Z AUTO 00000KT 10SM CLR 08/00 A3000 2230 58 1900 000/00 RMK AO2 $
53144K9L2 9L220160320033010103/20/16 03:30:31  5-MIN K9L2 201130Z AUTO 00000KT 10SM CLR 07/00 A3000 2230 60 1900 000/00 RMK AO2 $
53144K9L2 9L220160320033510103/20/16 03:35:31  5-MIN K9L2 201135Z AUTO 00000KT 10SM CLR 07/00 A3000 2230 60 1900 000/00 RMK AO2 $
53144K9L2 9L220160320034010103/20/16 03:40:31  5-MIN K9L2 201140Z AUTO 01006KT 10SM CLR 07/00 A3000 2230 60 1900 350/06 RMK AO2 $
53144K9L2 9L220160320034510103/20/16 03:45:31  5-MIN K9L2 201145Z AUTO 02004KT 10SM CLR 07/00 A3000 2230 62 1800 010/04 RMK AO2 $
53144K9L2 9L220160320035010103/20/16 03:50:31  5-MIN K9L2 201150Z AUTO 03003KT 10SM CLR 07/00 A3001 2220 62 1800 010/03 RMK AO2 $
53144K9L2 9L220160320035513603/20/16 03:55:31  5-MIN K9L2 201155Z AUTO 03004KT 10SM CLR 06/00 A3001 2220 65 1700 020/04 RMK AO2 SLP153 T00610000 10178 20061 53005 $
53144K9L2 9L220160320040010203/20/16 04:00:31  5-MIN K9L2 201200Z AUTO 04005KT 10SM CLR 06/M01 A3001 2220 62 1700 030/05 RMK AO2 $
53144K9L2 9L220160320040510203/20/16 04:05:31  5-MIN K9L2 201205Z AUTO 04005KT 10SM CLR 06/M01 A3001 2220 62 1700 030/05 RMK AO2 $
53144K9L2 9L220160320041010203/20/16 04:10:31  5-MIN K9L2 201210Z AUTO 04004KT 10SM CLR 06/M01 A3001 2220 62 1700 030/04 RMK AO2 $
53144K9L2 9L220160320041510203/20/16 04:15:31  5-MIN K9L2 201215Z AUTO 03004KT 10SM CLR 06/M01 A3001 2220 62 1700 020/04 RMK AO2 $
53144K9L2 9L220160320042010103/20/16 04:20:31  5-MIN K9L2 201220Z AUTO 04004KT 10SM CLR 07/00 A3001 2220 62 1800 030/04 RMK AO2 $
53144K9L2 9L220160320042510103/20/16 04:25:31  5-MIN K9L2 201225Z AUTO 04005KT 10SM CLR 07/00 A3002 2210 62 1800 030/05 RMK AO2 $
53144K9L2 9L220160320043010103/20/16 04:30:31  5-MIN K9L2 201230Z AUTO 05004KT 10SM CLR 07/00 A3002 2210 62 1800 040/04 RMK AO2 $
53144K9L2 9L220160320043510103/20/16 04:35:31  5-MIN K9L2 201235Z AUTO 07004KT 10SM CLR 07/00 A3001 2220 62 1800 050/04 RMK AO2 $
53144K9L2 9L220160320044010103/20/16 04:40:31  5-MIN K9L2 201240Z AUTO 00000KT 10SM CLR 07/00 A3002 2220 62 1800 000/00 RMK AO2 $
53144K9L2 9L220160320044510103/20/16 04:45:31  5-MIN K9L2 201245Z AUTO 00000KT 10SM CLR 07/00 A3001 2220 62 1800 000/00 RMK AO2 $
53144K9L2 9L220160320045010103/20/16 04:50:31  5-MIN K9L2 201250Z AUTO 00000KT 10SM CLR 07/00 A3002 2210 62 1800 000/00 RMK AO2 $
53144K9L2 9L220160320045511903/20/16 04:55:31  5-MIN K9L2 201255Z AUTO 00000KT 10SM CLR 06/M01 A3002 2210 62 1700 000/00 RMK AO2 SLP159 T00611006 $
53144K9L2 9L220160320050010103/20/16 05:00:31  5-MIN K9L2 201300Z AUTO 00000KT 10SM CLR 06/00 A3002 2210 65 1700 000/00 RMK AO2 $
53144K9L2 9L220160320050510103/20/16 05:05:31  5-MIN K9L2 201305Z AUTO 00000KT 10SM CLR 06/00 A3002 2210 65 1700 000/00 RMK AO2 $
53144K9L2 9L220160320051010103/20/16 05:10:31  5-MIN K9L2 201310Z AUTO 00000KT 10SM CLR 06/00 A3002 2210 65 1700 000/00 RMK AO2 $
53144K9L2 9L220160320051510203/20/16 05:15:31  5-MIN K9L2 201315Z AUTO 00000KT 10SM CLR 06/M01 A3002 2210 65 1600 000/00 RMK AO2 $
53144K9L2 9L220160320052010203/20/16 05:20:31  5-MIN K9L2 201320Z AUTO 00000KT 10SM CLR 06/M01 A3002 2210 65 1600 000/00 RMK AO2 $
53144K9L2 9L220160320052510103/20/16 05:25:31  5-MIN K9L2 201325Z AUTO 34003KT 10SM CLR 06/00 A3002 2210 67 1600 330/03 RMK AO2 $
53144K9L2 9L220160320053010103/20/16 05:30:31  5-MIN K9L2 201330Z AUTO 33003KT 10SM CLR 06/00 A3002 2210 67 1600 320/03 RMK AO2 $
53144K9L2 9L220160320053510103/20/16 05:35:31  5-MIN K9L2 201335Z AUTO 34003KT 10SM CLR 06/00 A3002 2210 67 1600 330/03 RMK AO2 $
53144K9L2 9L220160320054010103/20/16 05:40:31  5-MIN K9L2 201340Z AUTO 36004KT 10SM CLR 06/00 A3002 2210 67 1600 350/04 RMK AO2 $
53144K9L2 9L220160320054510103/20/16 05:45:31  5-MIN K9L2 201345Z AUTO 00000KT 10SM CLR 05/00 A3003 2210 70 1600 000/00 RMK AO2 $
53144K9L2 9L220160320055010103/20/16 05:50:31  5-MIN K9L2 201350Z AUTO 35004KT 10SM CLR 05/00 A3003 2200 70 1600 340/04 RMK AO2 $
53144K9L2 9L220160320055511903/20/16 05:55:31  5-MIN K9L2 201355Z AUTO 33003KT 10SM CLR 05/M01 A3003 2200 67 1600 320/03 RMK AO2 SLP166 T00501006 $
53144K9L2 9L220160320060010103/20/16 06:00:31  5-MIN K9L2 201400Z AUTO 00000KT 10SM CLR 05/00 A3004 2200 70 1600 000/00 RMK AO2 $
53144K9L2 9L220160320060510103/20/16 06:05:31  5-MIN K9L2 201405Z AUTO 00000KT 10SM CLR 06/00 A3004 2200 67 1600 000/00 RMK AO2 $
53144K9L2 9L220160320061010103/20/16 06:10:31  5-MIN K9L2 201410Z AUTO 00000KT 10SM CLR 06/00 A3004 2190 67 1600 000/00 RMK AO2 $
53144K9L2 9L220160320061510103/20/16 06:15:31  5-MIN K9L2 201415Z AUTO 00000KT 10SM CLR 06/00 A3004 2190 67 1600 000/00 RMK AO2 $
53144K9L2 9L220160320062010103/20/16 06:20:31  5-MIN K9L2 201420Z AUTO 00000KT 10SM CLR 06/00 A3004 2190 65 1700 000/00 RMK AO2 $
53144K9L2 9L220160320062510103/20/16 06:25:31  5-MIN K9L2 201425Z AUTO 00000KT 10SM CLR 06/01 A3004 2190 67 1700 000/00 RMK AO2 $
53144K9L2 9L220160320063010103/20/16 06:30:31  5-MIN K9L2 201430Z AUTO 01003KT 10SM CLR 07/01 A3004 2190 62 1800 360/03 RMK AO2 $
53144K9L2 9L220160320063510103/20/16 06:35:31  5-MIN K9L2 201435Z AUTO 00000KT 10SM CLR 07/01 A3004 2190 62 1800 000/00 RMK AO2 $
53144K9L2 9L220160320064010103/20/16 06:40:31  5-MIN K9L2 201440Z AUTO 00000KT 10SM CLR 07/01 A3004 2190 62 1800 000/00 RMK AO2 $
53144K9L2 9L220160320064510103/20/16 06:45:31  5-MIN K9L2 201445Z AUTO 00000KT 10SM CLR 08/01 A3004 2190 60 1900 000/00 RMK AO2 $
53144K9L2 9L220160320065010103/20/16 06:50:31  5-MIN K9L2 201450Z AUTO 00000KT 10SM CLR 08/01 A3004 2190 58 1900 000/00 RMK AO2 $
53144K9L2 9L220160320065512403/20/16 06:55:31  5-MIN K9L2 201455Z AUTO 00000KT 10SM CLR 09/01 A3004 2190 58 2000 000/00 RMK AO2 SLP170 T00890011 55004 $
53144K9L2 9L220160320070010103/20/16 07:00:31  5-MIN K9L2 201500Z AUTO 00000KT 10SM CLR 10/01 A3005 2190 54 2100 000/00 RMK AO2 $
53144K9L2 9L220160320070510103/20/16 07:05:31  5-MIN K9L2 201505Z AUTO 00000KT 10SM CLR 10/01 A3005 2190 54 2100 000/00 RMK AO2 $
53144K9L2 9L220160320071010103/20/16 07:10:31  5-MIN K9L2 201510Z AUTO 00000KT 10SM CLR 11/02 A3005 2190 54 2200 000/00 RMK AO2 $
53144K9L2 9L220160320071510103/20/16 07:15:31  5-MIN K9L2 201515Z AUTO 00000KT 10SM CLR 11/02 A3005 2190 54 2200 000/00 RMK AO2 $
53144K9L2 9L220160320072010103/20/16 07:20:31  5-MIN K9L2 201520Z AUTO 00000KT 10SM CLR 11/02 A3005 2180 54 2200 000/00 RMK AO2 $
53144K9L2 9L220160320072510103/20/16 07:25:31  5-MIN K9L2 201525Z AUTO 00000KT 10SM CLR 11/02 A3005 2180 52 2300 000/00 RMK AO2 $
53144K9L2 9L220160320073010103/20/16 07:30:31  5-MIN K9L2 201530Z AUTO 00000KT 10SM CLR 12/02 A3005 2180 52 2300 000/00 RMK AO2 $
53144K9L2 9L220160320073510103/20/16 07:35:31  5-MIN K9L2 201535Z AUTO 00000KT 10SM CLR 12/02 A3006 2180 52 2300 000/00 RMK AO2 $
53144K9L2 9L220160320074010103/20/16 07:40:31  5-MIN K9L2 201540Z AUTO 00000KT 10SM CLR 12/02 A3006 2180 52 2300 000/00 RMK AO2 $
53144K9L2 9L220160320074510103/20/16 07:45:31  5-MIN K9L2 201545Z AUTO 00000KT 10SM CLR 12/02 A3006 2180 50 2400 000/00 RMK AO2 $
53144K9L2 9L220160320075010103/20/16 07:50:31  5-MIN K9L2 201550Z AUTO 00000KT 10SM CLR 12/02 A3006 2180 50 2400 000/00 RMK AO2 $
53144K9L2 9L220160320075511803/20/16 07:55:31  5-MIN K9L2 201555Z AUTO 00000KT 10SM CLR 13/03 A3006 2170 50 2500 000/00 RMK AO2 SLP173 T01280028 $
53144K9L2 9L220160320080010103/20/16 08:00:31  5-MIN K9L2 201600Z AUTO 00000KT 10SM CLR 13/03 A3006 2170 48 2500 000/00 RMK AO2 $
53144K9L2 9L220160320080510103/20/16 08:05:31  5-MIN K9L2 201605Z AUTO 00000KT 10SM CLR 14/03 A3006 2170 48 2600 000/00 RMK AO2 $
53144K9L2 9L220160320081010103/20/16 08:10:31  5-MIN K9L2 201610Z AUTO 07003KT 10SM CLR 14/03 A3006 2170 48 2600 060/03 RMK AO2 $
53144K9L2 9L220160320081510103/20/16 08:15:31  5-MIN K9L2 201615Z AUTO 07004KT 10SM CLR 14/03 A3006 2170 48 2600 060/04 RMK AO2 $
53144K9L2 9L220160320082010103/20/16 08:20:31  5-MIN K9L2 201620Z AUTO 07004KT 10SM CLR 14/03 A3006 2170 47 2600 060/04 RMK AO2 $
53144K9L2 9L220160320082510103/20/16 08:25:31  5-MIN K9L2 201625Z AUTO 09004KT 10SM CLR 14/03 A3006 2170 47 2600 070/04 RMK AO2 $
53144K9L2 9L220160320083010103/20/16 08:30:31  5-MIN K9L2 201630Z AUTO 09004KT 10SM CLR 15/03 A3007 2170 45 2700 080/04 RMK AO2 $
53144K9L2 9L220160320083510103/20/16 08:35:31  5-MIN K9L2 201635Z AUTO 10003KT 10SM CLR 16/03 A3006 2170 43 2800 090/03 RMK AO2 $
53144K9L2 9L220160320084010103/20/16 08:40:31  5-MIN K9L2 201640Z AUTO 09003KT 10SM CLR 16/04 A3006 2170 44 2800 080/03 RMK AO2 $
53144K9L2 9L220160320084510103/20/16 08:45:31  5-MIN K9L2 201645Z AUTO 00000KT 10SM CLR 17/04 A3006 2170 42 2900 000/00 RMK AO2 $
53144K9L2 9L220160320085010103/20/16 08:50:31  5-MIN K9L2 201650Z AUTO 00000KT 10SM CLR 17/04 A3006 2170 41 3000 000/00 RMK AO2 $
53144K9L2 9L220160320085511803/20/16 08:55:31  5-MIN K9L2 201655Z AUTO 00000KT 10SM CLR 18/04 A3006 2170 39 3000 000/00 RMK AO2 SLP171 T01780039 $
53144K9L2 9L220160320090010103/20/16 09:00:31  5-MIN K9L2 201700Z AUTO 00000KT 10SM CLR 18/04 A3006 2170 38 3100 000/00 RMK AO2 $
53144K9L2 9L220160320090510103/20/16 09:05:31  5-MIN K9L2 201705Z AUTO 00000KT 10SM CLR 18/04 A3006 2170 38 3100 000/00 RMK AO2 $
53144K9L2 9L220160320091010103/20/16 09:10:31  5-MIN K9L2 201710Z AUTO 00000KT 10SM CLR 19/04 A3006 2180 36 3200 000/00 RMK AO2 $
53144K9L2 9L220160320091510103/20/16 09:15:31  5-MIN K9L2 201715Z AUTO 15003KT 10SM CLR 19/04 A3006 2180 35 3200 140/03 RMK AO2 $
53144K9L2 9L220160320092010103/20/16 09:20:31  5-MIN K9L2 201720Z AUTO 16003KT 10SM CLR 19/04 A3006 2180 35 3200 140/03 RMK AO2 $
53144K9L2 9L220160320092510103/20/16 09:25:31  5-MIN K9L2 201725Z AUTO 15004KT 10SM CLR 20/04 A3006 2180 34 3300 140/04 RMK AO2 $
53144K9L2 9L220160320093010103/20/16 09:30:31  5-MIN K9L2 201730Z AUTO VRB06KT 10SM CLR 22/03 A3005 2180 29 3500 VRB/06 RMK AO2 $
53144K9L2 9L220160320093510103/20/16 09:35:31  5-MIN K9L2 201735Z AUTO 22007KT 10SM CLR 23/02 A3005 2180 25 3600 200/07 RMK AO2 $
53144K9L2 9L220160320094010103/20/16 09:40:31  5-MIN K9L2 201740Z AUTO 20010KT 10SM CLR 23/02 A3005 2180 25 3600 190/10 RMK AO2 $
53144K9L2 9L220160320094510103/20/16 09:45:31  5-MIN K9L2 201745Z AUTO 20011KT 10SM CLR 23/02 A3005 2180 25 3600 190/11 RMK AO2 $
53144K9L2 9L220160320095010103/20/16 09:50:31  5-MIN K9L2 201750Z AUTO 21009KT 10SM CLR 23/02 A3005 2180 25 3600 200/09 RMK AO2 $
53144K9L2 9L220160320095513603/20/16 09:55:31  5-MIN K9L2 201755Z AUTO 21011KT 10SM CLR 23/02 A3005 2180 24 3600 200/11 RMK AO2 SLP164 T02280017 10228 20050 52012 $
53144K9L2 9L220160320100010103/20/16 10:00:31  5-MIN K9L2 201800Z AUTO 20010KT 10SM CLR 23/02 A3005 2180 24 3700 190/10 RMK AO2 $
53144K9L2 9L220160320100510103/20/16 10:05:31  5-MIN K9L2 201805Z AUTO 22011KT 10SM CLR 23/02 A3005 2180 24 3700 210/11 RMK AO2 $
53144K9L2 9L220160320101010103/20/16 10:10:31  5-MIN K9L2 201810Z AUTO 21010KT 10SM CLR 23/02 A3005 2180 24 3700 200/10 RMK AO2 $
53144K9L2 9L220160320101510103/20/16 10:15:31  5-MIN K9L2 201815Z AUTO 20011KT 10SM CLR 23/01 A3005 2180 23 3700 180/11 RMK AO2 $
53144K9L2 9L220160320102010103/20/16 10:20:31  5-MIN K9L2 201820Z AUTO 22011KT 10SM CLR 24/01 A3005 2180 22 3700 210/11 RMK AO2 $
53144K9L2 9L220160320102510103/20/16 10:25:31  5-MIN K9L2 201825Z AUTO 23009KT 10SM CLR 24/01 A3005 2180 21 3700 220/09 RMK AO2 $
53144K9L2 9L220160320103010103/20/16 10:30:31  5-MIN K9L2 201830Z AUTO 21010KT 10SM CLR 24/01 A3005 2180 21 3700 200/10 RMK AO2 $
53144K9L2 9L220160320103510103/20/16 10:35:31  5-MIN K9L2 201835Z AUTO 22009KT 10SM CLR 24/01 A3005 2180 21 3700 210/09 RMK AO2 $
53144K9L2 9L220160320104010103/20/16 10:40:31  5-MIN K9L2 201840Z AUTO 22010KT 10SM CLR 24/01 A3005 2180 20 3800 210/10 RMK AO2 $
53144K9L2 9L220160320104511703/20/16 10:45:31  5-MIN K9L2 201845Z AUTO 22008KT 200V270 10SM CLR 24/01 A3005 2180 21 3700 210/08 190V260 RMK AO2 $
53144K9L2 9L220160320105010103/20/16 10:50:31  5-MIN K9L2 201850Z AUTO 22010KT 10SM CLR 24/01 A3005 2180 20 3800 200/10 RMK AO2 $
53144K9L2 9L220160320105511803/20/16 10:55:31  5-MIN K9L2 201855Z AUTO 22010KT 10SM CLR 24/00 A3005 2180 19 3800 210/10 RMK AO2 SLP163 T02440000 $
53144K9L2 9L220160320110010103/20/16 11:00:31  5-MIN K9L2 201900Z AUTO 22010KT 10SM CLR 24/00 A3005 2190 19 3800 200/10 RMK AO2 $
53144K9L2 9L220160320110510103/20/16 11:05:31  5-MIN K9L2 201905Z AUTO 23013KT 10SM CLR 24/01 A3005 2190 21 3800 220/13 RMK AO2 $
53144K9L2 9L220160320111010103/20/16 11:10:31  5-MIN K9L2 201910Z AUTO 22011KT 10SM CLR 25/01 A3005 2190 20 3900 210/11 RMK AO2 $
53144K9L2 9L220160320111510703/20/16 11:15:31  5-MIN K9L2 201915Z AUTO 24008G16KT 10SM CLR 25/00 A3004 2190 19 3900 230/08G16 RMK AO2 $
53144K9L2 9L220160320112010703/20/16 11:20:31  5-MIN K9L2 201920Z AUTO 22012G17KT 10SM CLR 26/00 A3004 2190 18 3900 210/12G17 RMK AO2 $
53144K9L2 9L220160320112510803/20/16 11:25:31  5-MIN K9L2 201925Z AUTO 24011G17KT 10SM CLR 26/M01 A3004 2190 17 3900 230/11G17 RMK AO2 $
53144K9L2 9L220160320113010203/20/16 11:30:31  5-MIN K9L2 201930Z AUTO 23009KT 10SM CLR 26/M01 A3004 2190 16 4000 210/09 RMK AO2 $
53144K9L2 9L220160320113510803/20/16 11:35:31  5-MIN K9L2 201935Z AUTO 22012G17KT 10SM CLR 26/M01 A3004 2190 16 4000 210/12G17 RMK AO2 $
53144K9L2 9L220160320114010803/20/16 11:40:31  5-MIN K9L2 201940Z AUTO 23009G17KT 10SM CLR 26/M02 A3004 2200 16 3900 220/09G17 RMK AO2 $
53144K9L2 9L220160320114512403/20/16 11:45:31  5-MIN K9L2 201945Z AUTO 23013G22KT 180V260 10SM CLR 26/M02 A3003 2200 16 4000 220/13G22 170V250 RMK AO2 $
53144K9L2 9L220160320115010803/20/16 11:50:31  5-MIN K9L2 201950Z AUTO 21008G22KT 10SM CLR 27/M01 A3003 2200 16 4100 200/08G22 RMK AO2 $
53144K9L2 9L220160320115511903/20/16 11:55:31  5-MIN K9L2 201955Z AUTO 23008KT 10SM CLR 27/M02 A3003 2200 15 4100 220/08 RMK AO2 SLP157 T02671017 $
53144K9L2 9L220160320120010803/20/16 12:00:31  5-MIN K9L2 202000Z AUTO 24010G16KT 10SM CLR 27/M03 A3003 2200 13 4100 230/10G16 RMK AO2 $
53144K9L2 9L220160320120510803/20/16 12:05:31  5-MIN K9L2 202005Z AUTO 24014G19KT 10SM CLR 27/M03 A3003 2200 13 4100 220/14G19 RMK AO2 $
53144K9L2 9L220160320121010803/20/16 12:10:31  5-MIN K9L2 202010Z AUTO 24012G19KT 10SM CLR 27/M03 A3003 2210 13 4100 220/12G19 RMK AO2 $
53144K9L2 9L220160320121510203/20/16 12:15:31  5-MIN K9L2 202015Z AUTO 24011KT 10SM CLR 27/M03 A3002 2210 13 4100 230/11 RMK AO2 $
53144K9L2 9L220160320122010803/20/16 12:20:31  5-MIN K9L2 202020Z AUTO 23009G19KT 10SM CLR 27/M03 A3002 2210 14 4100 220/09G19 RMK AO2 $
53144K9L2 9L220160320122510803/20/16 12:25:31  5-MIN K9L2 202025Z AUTO 21013G21KT 10SM CLR 27/M03 A3002 2210 13 4100 200/13G21 RMK AO2 $
53144K9L2 9L220160320123010803/20/16 12:30:31  5-MIN K9L2 202030Z AUTO 22015G21KT 10SM CLR 27/M03 A3002 2210 13 4200 210/15G21 RMK AO2 $
53144K9L2 9L220160320123510803/20/16 12:35:31  5-MIN K9L2 202035Z AUTO 22012G21KT 10SM CLR 27/M04 A3002 2210 12 4200 210/12G21 RMK AO2 $
53144K9L2 9L220160320124010803/20/16 12:40:31  5-MIN K9L2 202040Z AUTO 23014G21KT 10SM CLR 27/M04 A3002 2220 12 4200 220/14G21 RMK AO2 $
53144K9L2 9L220160320124510803/20/16 12:45:31  5-MIN K9L2 202045Z AUTO 23014G19KT 10SM CLR 28/M04 A3001 2220 12 4200 210/14G19 RMK AO2 $
53144K9L2 9L220160320125010803/20/16 12:50:31  5-MIN K9L2 202050Z AUTO 23016G22KT 10SM CLR 28/M03 A3001 2220 12 4200 220/16G22 RMK AO2 $
53144K9L2 9L220160320125513103/20/16 12:55:31  5-MIN K9L2 202055Z AUTO 22015G22KT 10SM CLR 28/M03 A3001 2220 13 4200 200/15G22 RMK AO2 SLP149 T02781028 50001 $
53144K9L2 9L220160320130010803/20/16 13:00:31  5-MIN K9L2 202100Z AUTO 23012G22KT 10SM CLR 28/M03 A3001 2220 13 4200 220/12G22 RMK AO2 $
53144K9L2 9L220160320130510803/20/16 13:05:31  5-MIN K9L2 202105Z AUTO 21016G22KT 10SM CLR 27/M03 A3001 2220 13 4200 200/16G22 RMK AO2 $
53144K9L2 9L220160320131010803/20/16 13:10:31  5-MIN K9L2 202110Z AUTO 22016G21KT 10SM CLR 28/M02 A3000 2230 13 4200 200/16G21 RMK AO2 $
53144K9L2 9L220160320131510803/20/16 13:15:31  5-MIN K9L2 202115Z AUTO 24012G21KT 10SM CLR 28/M03 A3000 2230 12 4200 230/12G21 RMK AO2 $
53144K9L2 9L220160320132010803/20/16 13:20:31  5-MIN K9L2 202120Z AUTO 21013G20KT 10SM CLR 28/M03 A3000 2230 13 4200 200/13G20 RMK AO2 $
53144K9L2 9L220160320132510803/20/16 13:25:31  5-MIN K9L2 202125Z AUTO 21014G20KT 10SM CLR 28/M02 A3000 2230 13 4200 200/14G20 RMK AO2 $
53144K9L2 9L220160320133010203/20/16 13:30:31  5-MIN K9L2 202130Z AUTO 23013KT 10SM CLR 28/M02 A3000 2230 13 4200 210/13 RMK AO2 $
53144K9L2 9L220160320133510803/20/16 13:35:31  5-MIN K9L2 202135Z AUTO 23015G20KT 10SM CLR 28/M03 A3000 2230 13 4300 220/15G20 RMK AO2 $
53144K9L2 9L220160320134010803/20/16 13:40:31  5-MIN K9L2 202140Z AUTO 23016G22KT 10SM CLR 28/M03 A2999 2240 13 4300 210/16G22 RMK AO2 $
53144K9L2 9L220160320134510803/20/16 13:45:31  5-MIN K9L2 202145Z AUTO 22016G22KT 10SM CLR 29/M03 A2999 2240 12 4400 210/16G22 RMK AO2 $
53144K9L2 9L220160320135010803/20/16 13:50:31  5-MIN K9L2 202150Z AUTO 22018G21KT 10SM CLR 28/M02 A2999 2240 14 4300 210/18G21 RMK AO2 $
53144K9L2 9L220160320135512503/20/16 13:55:31  5-MIN K9L2 202155Z AUTO 23019G24KT 10SM CLR 28/M02 A2999 2240 14 4200 220/19G24 RMK AO2 SLP145 T02781017 $
53144K9L2 9L220160320140010803/20/16 14:00:31  5-MIN K9L2 202200Z AUTO 23017G24KT 10SM CLR 27/M02 A2999 2240 15 4200 220/17G24 RMK AO2 $
53144K9L2 9L220160320140510203/20/16 14:05:31  5-MIN K9L2 202205Z AUTO 22019KT 10SM CLR 27/M01 A2999 2240 15 4200 210/19 RMK AO2 $
53144K9L2 9L220160320141010203/20/16 14:10:31  5-MIN K9L2 202210Z AUTO 23018KT 10SM CLR 27/M02 A2999 2240 15 4200 210/18 RMK AO2 $
53144K9L2 9L220160320141510803/20/16 14:15:31  5-MIN K9L2 202215Z AUTO 22017G23KT 10SM CLR 27/M02 A2999 2240 15 4200 210/17G23 RMK AO2 $
53144K9L2 9L220160320142010803/20/16 14:20:31  5-MIN K9L2 202220Z AUTO 22018G25KT 10SM CLR 27/M01 A2999 2240 16 4100 210/18G25 RMK AO2 $
53144K9L2 9L220160320142510803/20/16 14:25:31  5-MIN K9L2 202225Z AUTO 21020G25KT 10SM CLR 27/M01 A2998 2240 16 4100 200/20G25 RMK AO2 $
53144K9L2 9L220160320143012003/20/16 14:30:31  5-MIN K9L2 202230Z AUTO 21022KT 10SM CLR 27/M01 A2998 2240 16 4100 200/22 RMK AO2 PK WND 21026/2230 $
53144K9L2 9L220160320143512003/20/16 14:35:31  5-MIN K9L2 202235Z AUTO 21021KT 10SM CLR 27/M01 A2999 2240 16 4100 200/21 RMK AO2 PK WND 22026/2233 $
53144K9L2 9L220160320144012603/20/16 14:40:31  5-MIN K9L2 202240Z AUTO 21020G26KT 10SM CLR 26/M01 A2998 2240 17 4100 200/20G26 RMK AO2 PK WND 22026/2233 $
53144K9L2 9L220160320144512603/20/16 14:45:31  5-MIN K9L2 202245Z AUTO 22017G25KT 10SM CLR 27/M01 A2999 2240 16 4100 210/17G25 RMK AO2 PK WND 22026/2233 $
53144K9L2 9L220160320145012603/20/16 14:50:31  5-MIN K9L2 202250Z AUTO 21020G25KT 10SM CLR 26/M01 A2998 2240 16 4100 200/20G25 RMK AO2 PK WND 22026/2233 $
53144K9L2 9L220160320145513703/20/16 14:55:31  5-MIN K9L2 202255Z AUTO 21021KT 10SM CLR 27/M01 A2998 2240 16 4100 200/21 RMK AO2 PK WND 21026/2252 SLP143 T02671006 $
53144K9L2 9L220160320150010703/20/16 15:00:31  5-MIN K9L2 202300Z AUTO 23016G26KT 10SM CLR 27/00 A2999 2240 17 4100 220/16G26 RMK AO2 $
53144K9L2 9L220160320150510103/20/16 15:05:31  5-MIN K9L2 202305Z AUTO 23018KT 10SM CLR 26/01 A2999 2240 18 4100 210/18 RMK AO2 $
53144K9L2 9L220160320151010703/20/16 15:10:31  5-MIN K9L2 202310Z AUTO 22021G25KT 10SM CLR 26/02 A2998 2240 20 4100 210/21G25 RMK AO2 $
53144K9L2 9L220160320151510703/20/16 15:15:31  5-MIN K9L2 202315Z AUTO 22018G25KT 10SM CLR 26/02 A2998 2240 21 4100 210/18G25 RMK AO2 $
53144K9L2 9L220160320152010703/20/16 15:20:31  5-MIN K9L2 202320Z AUTO 23019G23KT 10SM CLR 26/02 A2998 2240 21 4100 210/19G23 RMK AO2 $
53144K9L2 9L220160320152510703/20/16 15:25:31  5-MIN K9L2 202325Z AUTO 24020G24KT 10SM CLR 26/03 A2999 2240 21 4100 230/20G24 RMK AO2 $
53144K9L2 9L220160320153010703/20/16 15:30:31  5-MIN K9L2 202330Z AUTO 22019G24KT 10SM CLR 26/03 A2998 2240 22 4100 210/19G24 RMK AO2 $
53144K9L2 9L220160320153512503/20/16 15:35:31  5-MIN K9L2 202335Z AUTO 23019G26KT 10SM CLR 26/03 A2998 2240 22 4100 220/19G26 RMK AO2 PK WND 25026/2335 $
53144K9L2 9L220160320154012503/20/16 15:40:31  5-MIN K9L2 202340Z AUTO 24019G26KT 10SM CLR 26/02 A2999 2240 21 4100 220/19G26 RMK AO2 PK WND 25026/2335 $
53144K9L2 9L220160320154512503/20/16 15:45:31  5-MIN K9L2 202345Z AUTO 23016G25KT 10SM CLR 26/02 A2999 2240 21 4000 220/16G25 RMK AO2 PK WND 25026/2335 $
53144K9L2 9L220160320155012503/20/16 15:50:31  5-MIN K9L2 202350Z AUTO 23021G25KT 10SM CLR 26/03 A2998 2240 22 4000 210/21G25 RMK AO2 PK WND 25026/2335 $
53144K9L2 9L220160320155516003/20/16 15:55:31  5-MIN K9L2 202355Z AUTO 23018G25KT 10SM CLR 25/02 A2999 2240 22 3900 220/18G25 RMK AO2 PK WND 25026/2335 SLP149 T02500022 10289 20228 58014 $
53144K9L2 9L220160320160010103/20/16 16:00:31  5-MIN K9L2 210000Z AUTO 23019KT 10SM CLR 25/02 A2999 2240 22 3900 220/19 RMK AO2 $
53144K9L2 9L220160320160510703/20/16 16:05:31  5-MIN K9L2 210005Z AUTO 23021G25KT 10SM CLR 25/02 A2999 2240 21 3900 220/21G25 RMK AO2 $
53144K9L2 9L220160320161010703/20/16 16:10:31  5-MIN K9L2 210010Z AUTO 23017G25KT 10SM CLR 25/02 A2999 2240 22 3900 220/17G25 RMK AO2 $
53144K9L2 9L220160320161510703/20/16 16:15:31  5-MIN K9L2 210015Z AUTO 23020G25KT 10SM CLR 25/02 A2999 2240 21 3900 220/20G25 RMK AO2 $
53144K9L2 9L220160320162010703/20/16 16:20:31  5-MIN K9L2 210020Z AUTO 23018G25KT 10SM CLR 24/01 A2999 2240 21 3900 220/18G25 RMK AO2 $
53144K9L2 9L220160320162510703/20/16 16:25:31  5-MIN K9L2 210025Z AUTO 23018G25KT 10SM CLR 24/01 A2999 2240 20 3900 220/18G25 RMK AO2 $
53144K9L2 9L220160320163010703/20/16 16:30:31  5-MIN K9L2 210030Z AUTO 24018G25KT 10SM CLR 24/01 A2999 2240 21 3900 220/18G25 RMK AO2 $
53144K9L2 9L220160320163512503/20/16 16:35:31  5-MIN K9L2 210035Z AUTO 23018G26KT 10SM CLR 24/00 A2999 2230 19 3900 220/18G26 RMK AO2 PK WND 24026/0032 $
53144K9L2 9L220160320164012503/20/16 16:40:31  5-MIN K9L2 210040Z AUTO 23021G28KT 10SM CLR 24/01 A2999 2240 21 3800 210/21G28 RMK AO2 PK WND 23028/0039 $
53144K9L2 9L220160320164512503/20/16 16:45:31  5-MIN K9L2 210045Z AUTO 23019G28KT 10SM CLR 24/01 A3000 2230 21 3800 210/19G28 RMK AO2 PK WND 23028/0039 $
53144K9L2 9L220160320165012503/20/16 16:50:31  5-MIN K9L2 210050Z AUTO 23021G26KT 10SM CLR 24/01 A3000 2230 22 3800 210/21G26 RMK AO2 PK WND 23028/0039 $
53144K9L2 9L220160320165514203/20/16 16:55:31  5-MIN K9L2 210055Z AUTO 23019G27KT 10SM CLR 23/01 A3000 2230 23 3700 220/19G27 RMK AO2 PK WND 23028/0039 SLP152 T02330011 $
53144K9L2 9L220160320170010703/20/16 17:00:31  5-MIN K9L2 210100Z AUTO 24017G27KT 10SM CLR 23/02 A3000 2230 24 3700 220/17G27 RMK AO2 $
53144K9L2 9L220160320170512503/20/16 17:05:31  5-MIN K9L2 210105Z AUTO 23020G26KT 10SM CLR 23/02 A3000 2230 24 3700 220/20G26 RMK AO2 PK WND 23026/0103 $
53144K9L2 9L220160320171012503/20/16 17:10:31  5-MIN K9L2 210110Z AUTO 23019G26KT 10SM CLR 23/02 A3000 2230 25 3700 220/19G26 RMK AO2 PK WND 23026/0106 $
53144K9L2 9L220160320171512503/20/16 17:15:31  5-MIN K9L2 210115Z AUTO 23018G26KT 10SM CLR 23/02 A3000 2230 25 3700 220/18G26 RMK AO2 PK WND 23026/0106 $
53144K9L2 9L220160320172012503/20/16 17:20:31  5-MIN K9L2 210120Z AUTO 23020G25KT 10SM CLR 23/03 A3000 2230 26 3700 220/20G25 RMK AO2 PK WND 23026/0106 $
53144K9L2 9L220160320172512503/20/16 17:25:31  5-MIN K9L2 210125Z AUTO 23018G25KT 10SM CLR 22/03 A3000 2230 27 3600 210/18G25 RMK AO2 PK WND 23026/0106 $
53144K9L2 9L220160320173012503/20/16 17:30:31  5-MIN K9L2 210130Z AUTO 23016G24KT 10SM CLR 22/03 A3001 2220 27 3600 210/16G24 RMK AO2 PK WND 23026/0106 $
53144K9L2 9L220160320173512503/20/16 17:35:31  5-MIN K9L2 210135Z AUTO 23017G23KT 10SM CLR 22/02 A3001 2220 26 3600 220/17G23 RMK AO2 PK WND 23026/0106 $
53144K9L2 9L220160320174012503/20/16 17:40:31  5-MIN K9L2 210140Z AUTO 23015G22KT 10SM CLR 22/02 A3001 2220 27 3500 220/15G22 RMK AO2 PK WND 23026/0106 $
53144K9L2 9L220160320174512503/20/16 17:45:31  5-MIN K9L2 210145Z AUTO 23016G24KT 10SM CLR 22/02 A3001 2220 27 3500 220/16G24 RMK AO2 PK WND 23026/0106 $
53144K9L2 9L220160320175012503/20/16 17:50:31  5-MIN K9L2 210150Z AUTO 23015G24KT 10SM CLR 22/02 A3001 2220 27 3500 220/15G24 RMK AO2 PK WND 23026/0106 $
53144K9L2 9L220160320175514203/20/16 17:55:31  5-MIN K9L2 210155Z AUTO 23016G24KT 10SM CLR 21/02 A3001 2220 28 3500 220/16G24 RMK AO2 PK WND 23026/0106 SLP161 T02110022 $
53144K9L2 9L220160320180010703/20/16 18:00:31  5-MIN K9L2 210200Z AUTO 23014G22KT 10SM CLR 21/02 A3001 2220 28 3500 220/14G22 RMK AO2 $
53144K9L2 9L220160320180510703/20/16 18:05:31  5-MIN K9L2 210205Z AUTO 23014G22KT 10SM CLR 21/03 A3002 2210 30 3400 220/14G22 RMK AO2 $
53144K9L2 9L220160320181010703/20/16 18:10:31  5-MIN K9L2 210210Z AUTO 23013G22KT 10SM CLR 21/03 A3002 2210 32 3400 220/13G22 RMK AO2 $
53144K9L2 9L220160320181510703/20/16 18:15:31  5-MIN K9L2 210215Z AUTO 23015G20KT 10SM CLR 21/03 A3002 2210 30 3400 220/15G20 RMK AO2 $
53144K9L2 9L220160320182010103/20/16 18:20:31  5-MIN K9L2 210220Z AUTO 24014KT 10SM CLR 20/03 A3002 2210 31 3300 230/14 RMK AO2 $
53144K9L2 9L220160320182510703/20/16 18:25:31  5-MIN K9L2 210225Z AUTO 26011G18KT 10SM CLR 20/03 A3003 2210 31 3300 250/11G18 RMK AO2 $
53144K9L2 9L220160320183010703/20/16 18:30:31  5-MIN K9L2 210230Z AUTO 26009G18KT 10SM CLR 19/02 A3003 2200 31 3300 250/09G18 RMK AO2 $
53144K9L2 9L220160320183510103/20/16 18:35:31  5-MIN K9L2 210235Z AUTO 25010KT 10SM CLR 19/02 A3003 2200 30 3300 240/10 RMK AO2 $
53144K9L2 9L220160320184010103/20/16 18:40:31  5-MIN K9L2 210240Z AUTO 25011KT 10SM CLR 19/02 A3003 2200 30 3300 240/11 RMK AO2 $
53144K9L2 9L220160320184510103/20/16 18:45:31  5-MIN K9L2 210245Z AUTO 25009KT 10SM CLR 19/02 A3003 2200 31 3200 240/09 RMK AO2 $
53144K9L2 9L220160320185010103/20/16 18:50:31  5-MIN K9L2 210250Z AUTO 25009KT 10SM CLR 19/02 A3004 2200 31 3200 240/09 RMK AO2 $
53144K9L2 9L220160320185512403/20/16 18:55:31  5-MIN K9L2 210255Z AUTO 24009KT 10SM CLR 19/02 A3004 2190 31 3200 230/09 RMK AO2 SLP169 T01890017 55006 $
53144K9L2 9L220160320190010103/20/16 19:00:31  5-MIN K9L2 210300Z AUTO 25009KT 10SM CLR 18/02 A3004 2190 32 3100 230/09 RMK AO2 $
53144K9L2 9L220160320190510103/20/16 19:05:31  5-MIN K9L2 210305Z AUTO 25008KT 10SM CLR 18/02 A3005 2190 32 3100 230/08 RMK AO2 $
53144K9L2 9L220160320191010103/20/16 19:10:31  5-MIN K9L2 210310Z AUTO 24008KT 10SM CLR 18/02 A3005 2190 32 3100 230/08 RMK AO2 $
53144K9L2 9L220160320191510103/20/16 19:15:31  5-MIN K9L2 210315Z AUTO 24010KT 10SM CLR 18/01 A3005 2190 31 3100 230/10 RMK AO2 $
53144K9L2 9L220160320192010103/20/16 19:20:31  5-MIN K9L2 210320Z AUTO 25011KT 10SM CLR 18/01 A3005 2180 30 3100 230/11 RMK AO2 $
53144K9L2 9L220160320192510103/20/16 19:25:31  5-MIN K9L2 210325Z AUTO 25012KT 10SM CLR 18/00 A3005 2180 29 3100 230/12 RMK AO2 $
53144K9L2 9L220160320193010203/20/16 19:30:31  5-MIN K9L2 210330Z AUTO 24012KT 10SM CLR 18/M01 A3005 2180 26 3100 230/12 RMK AO2 $
53144K9L2 9L220160320193510203/20/16 19:35:31  5-MIN K9L2 210335Z AUTO 24011KT 10SM CLR 18/M01 A3005 2180 26 3100 230/11 RMK AO2 $
53144K9L2 9L220160320194010203/20/16 19:40:31  5-MIN K9L2 210340Z AUTO 25009KT 10SM CLR 18/M01 A3005 2180 26 3100 240/09 RMK AO2 $
53144K9L2 9L220160320194510203/20/16 19:45:31  5-MIN K9L2 210345Z AUTO 25009KT 10SM CLR 18/M01 A3005 2180 27 3000 230/09 RMK AO2 $
53144K9L2 9L220160320195010203/20/16 19:50:31  5-MIN K9L2 210350Z AUTO 25010KT 10SM CLR 18/M01 A3005 2180 28 3000 230/10 RMK AO2 $
53144K9L2 9L220160320195511903/20/16 19:55:31  5-MIN K9L2 210355Z AUTO 24012KT 10SM CLR 18/M01 A3005 2180 28 3000 230/12 RMK AO2 SLP172 T01781006 $
53144K9L2 9L220160320200010103/20/16 20:00:31  5-MIN K9L2 210400Z AUTO 24011KT 10SM CLR 18/00 A3005 2180 30 3000 230/11 RMK AO2 $
53144K9L2 9L220160320200510103/20/16 20:05:31  5-MIN K9L2 210405Z AUTO 24011KT 10SM CLR 18/00 A3005 2180 30 3000 230/11 RMK AO2 $
53144K9L2 9L220160320201010103/20/16 20:10:31  5-MIN K9L2 210410Z AUTO 24010KT 10SM CLR 18/00 A3005 2180 30 3000 230/10 RMK AO2 $
53144K9L2 9L220160320201510103/20/16 20:15:31  5-MIN K9L2 210415Z AUTO 24012KT 10SM CLR 18/00 A3006 2180 30 3000 230/12 RMK AO2 $
53144K9L2 9L220160320202010103/20/16 20:20:31  5-MIN K9L2 210420Z AUTO 24011KT 10SM CLR 18/01 A3006 2180 31 3000 230/11 RMK AO2 $
53144K9L2 9L220160320202510103/20/16 20:25:31  5-MIN K9L2 210425Z AUTO 24011KT 10SM CLR 18/01 A3006 2180 32 3000 230/11 RMK AO2 $
53144K9L2 9L220160320203010103/20/16 20:30:31  5-MIN K9L2 210430Z AUTO 24010KT 10SM CLR 18/01 A3006 2170 32 3000 230/10 RMK AO2 $
53144K9L2 9L220160320203510103/20/16 20:35:31  5-MIN K9L2 210435Z AUTO 24011KT 10SM CLR 17/01 A3006 2170 33 3000 230/11 RMK AO2 $
53144K9L2 9L220160320204010103/20/16 20:40:31  5-MIN K9L2 210440Z AUTO 24011KT 10SM CLR 17/01 A3006 2170 33 3000 220/11 RMK AO2 $
53144K9L2 9L220160320204510103/20/16 20:45:31  5-MIN K9L2 210445Z AUTO 24010KT 10SM CLR 17/02 A3006 2170 35 3000 230/10 RMK AO2 $
53144K9L2 9L220160320205010103/20/16 20:50:31  5-MIN K9L2 210450Z AUTO 25008KT 10SM CLR 17/02 A3006 2170 35 3000 240/08 RMK AO2 $
53144K9L2 9L220160320205511803/20/16 20:55:31  5-MIN K9L2 210455Z AUTO 25008KT 10SM CLR 17/02 A3007 2170 36 2900 240/08 RMK AO2 SLP174 T01670017 $
53144K9L2 9L220160320210010103/20/16 21:00:31  5-MIN K9L2 210500Z AUTO 24010KT 10SM CLR 17/02 A3007 2170 36 2900 230/10 RMK AO2 $
53144K9L2 9L220160320210510103/20/16 21:05:31  5-MIN K9L2 210505Z AUTO 24009KT 10SM CLR 17/02 A3007 2170 37 2900 220/09 RMK AO2 $
53144K9L2 9L220160320211010103/20/16 21:10:31  5-MIN K9L2 210510Z AUTO 24008KT 10SM CLR 17/02 A3007 2160 37 2900 230/08 RMK AO2 $
53144K9L2 9L220160320211510103/20/16 21:15:31  5-MIN K9L2 210515Z AUTO 24008KT 10SM CLR 16/02 A3007 2160 39 2800 230/08 RMK AO2 $
53144K9L2 9L220160320212010103/20/16 21:20:31  5-MIN K9L2 210520Z AUTO 24007KT 10SM CLR 16/02 A3007 2160 39 2800 230/07 RMK AO2 $
53144K9L2 9L220160320212510103/20/16 21:25:31  5-MIN K9L2 210525Z AUTO 24007KT 10SM CLR 16/02 A3007 2160 39 2800 230/07 RMK AO2 $
53144K9L2 9L220160320213010103/20/16 21:30:31  5-MIN K9L2 210530Z AUTO 24007KT 10SM CLR 16/03 A3007 2160 40 2800 220/07 RMK AO2 $
53144K9L2 9L220160320213510103/20/16 21:35:31  5-MIN K9L2 210535Z AUTO 24009KT 10SM CLR 16/03 A3007 2160 40 2800 230/09 RMK AO2 $
53144K9L2 9L220160320214010103/20/16 21:40:31  5-MIN K9L2 210540Z AUTO 24009KT 10SM CLR 16/03 A3007 2160 40 2800 230/09 RMK AO2 $
53144K9L2 9L220160320214510103/20/16 21:45:31  5-MIN K9L2 210545Z AUTO 24008KT 10SM CLR 16/03 A3007 2160 40 2800 230/08 RMK AO2 $
53144K9L2 9L220160320215010103/20/16 21:50:31  5-MIN K9L2 210550Z AUTO 24007KT 10SM CLR 16/03 A3007 2160 42 2800 220/07 RMK AO2 $
53144K9L2 9L220160320215513603/20/16 21:55:31  5-MIN K9L2 210555Z AUTO 24008KT 10SM CLR 16/03 A3007 2160 43 2800 220/08 RMK AO2 SLP172 T01560033 10250 20156 53017 $
53144K9L2 9L220160320220010103/20/16 22:00:31  5-MIN K9L2 210600Z AUTO 24008KT 10SM CLR 16/03 A3007 2170 43 2800 220/08 RMK AO2 $
53144K9L2 9L220160320220510103/20/16 22:05:31  5-MIN K9L2 210605Z AUTO 24008KT 10SM CLR 16/03 A3007 2160 43 2800 220/08 RMK AO2 $
53144K9L2 9L220160320221010103/20/16 22:10:31  5-MIN K9L2 210610Z AUTO 24008KT 10SM CLR 16/03 A3007 2160 43 2800 230/08 RMK AO2 $
53144K9L2 9L220160320221510103/20/16 22:15:31  5-MIN K9L2 210615Z AUTO 24009KT 10SM CLR 16/03 A3007 2160 43 2800 230/09 RMK AO2 $
53144K9L2 9L220160320222010103/20/16 22:20:31  5-MIN K9L2 210620Z AUTO 24009KT 10SM CLR 16/04 A3007 2160 45 2800 230/09 RMK AO2 $
53144K9L2 9L220160320222510103/20/16 22:25:31  5-MIN K9L2 210625Z AUTO 25008KT 10SM CLR 16/04 A3007 2160 45 2800 230/08 RMK AO2 $
53144K9L2 9L220160320223010103/20/16 22:30:31  5-MIN K9L2 210630Z AUTO 24008KT 10SM CLR 16/04 A3007 2170 45 2800 230/08 RMK AO2 $
53144K9L2 9L220160320223510103/20/16 22:35:31  5-MIN K9L2 210635Z AUTO 25008KT 10SM CLR 16/04 A3007 2170 45 2800 230/08 RMK AO2 $
53144K9L2 9L220160320224010103/20/16 22:40:31  5-MIN K9L2 210640Z AUTO 24008KT 10SM CLR 16/04 A3007 2170 45 2800 230/08 RMK AO2 $
53144K9L2 9L220160320224510103/20/16 22:45:31  5-MIN K9L2 210645Z AUTO 24009KT 10SM CLR 16/04 A3007 2170 47 2800 230/09 RMK AO2 $
53144K9L2 9L220160320225010103/20/16 22:50:31  5-MIN K9L2 210650Z AUTO 24009KT 10SM CLR 16/04 A3007 2170 47 2800 230/09 RMK AO2 $
53144K9L2 9L220160320225511803/20/16 22:55:31  5-MIN K9L2 210655Z AUTO 24009KT 10SM CLR 15/04 A3007 2170 49 2700 220/09 RMK AO2 SLP171 T01500044 $
53144K9L2 9L220160320230010103/20/16 23:00:31  5-MIN K9L2 210700Z AUTO 24010KT 10SM CLR 15/04 A3007 2170 49 2700 230/10 RMK AO2 $
53144K9L2 9L220160320230510103/20/16 23:05:31  5-MIN K9L2 210705Z AUTO 24010KT 10SM CLR 15/04 A3007 2170 49 2700 230/10 RMK AO2 $
53144K9L2 9L220160320231010103/20/16 23:10:31  5-MIN K9L2 210710Z AUTO 25009KT 10SM CLR 15/04 A3007 2160 47 2700 230/09 RMK AO2 $
53144K9L2 9L220160320231510103/20/16 23:15:31  5-MIN K9L2 210715Z AUTO 25009KT 10SM CLR 15/04 A3007 2160 47 2700 230/09 RMK AO2 $
53144K9L2 9L220160320232010103/20/16 23:20:31  5-MIN K9L2 210720Z AUTO 24010KT 10SM CLR 15/04 A3007 2160 49 2700 230/10 RMK AO2 $
53144K9L2 9L220160320232510103/20/16 23:25:31  5-MIN K9L2 210725Z AUTO 24009KT 10SM CLR 15/04 A3007 2170 49 2700 230/09 RMK AO2 $
53144K9L2 9L220160320233010103/20/16 23:30:31  5-MIN K9L2 210730Z AUTO 25009KT 10SM CLR 15/04 A3007 2170 49 2700 230/09 RMK AO2 $
53144K9L2 9L220160320233510103/20/16 23:35:31  5-MIN K9L2 210735Z AUTO 24009KT 10SM CLR 15/05 A3007 2170 51 2700 230/09 RMK AO2 $
53144K9L2 9L220160320234010103/20/16 23:40:31  5-MIN K9L2 210740Z AUTO 24007KT 10SM CLR 14/05 A3007 2170 53 2600 230/07 RMK AO2 $
53144K9L2 9L220160320234510103/20/16 23:45:31  5-MIN K9L2 210745Z AUTO 24006KT 10SM CLR 14/05 A3007 2170 53 2600 230/06 RMK AO2 $
53144K9L2 9L220160320235010103/20/16 23:50:31  5-MIN K9L2 210750Z AUTO 24006KT 10SM CLR 14/05 A3006 2170 55 2600 230/06 RMK AO2 $
53144K9L2 9L220160320235512803/20/16 23:55:31  5-MIN K9L2 210755Z AUTO 23006KT 10SM CLR 14/05 A3006 2170 55 2600 220/06 RMK AO2 SLP168 T01390050 402890050 $
53144K9L2 9L220160321000010103/21/16 00:00:31  5-MIN K9L2 210800Z AUTO 24006KT 10SM CLR 14/05 A3006 2170 55 2600 220/06 RMK AO2 $
53144K9L2 9L220160321000510103/21/16 00:05:31  5-MIN K9L2 210805Z AUTO 24007KT 10SM CLR 14/05 A3006 2170 55 2600 230/07 RMK AO2 $
53144K9L2 9L220160321001010103/21/16 00:10:31  5-MIN K9L2 210810Z AUTO 23005KT 10SM CLR 14/05 A3006 2170 55 2600 220/05 RMK AO2 $
53144K9L2 9L220160321001510103/21/16 00:15:31  5-MIN K9L2 210815Z AUTO 19005KT 10SM CLR 13/05 A3006 2170 57 2500 180/05 RMK AO2 $
53144K9L2 9L220160321002010103/21/16 00:20:31  5-MIN K9L2 210820Z AUTO 19007KT 10SM CLR 13/04 A3006 2170 56 2500 180/07 RMK AO2 $
53144K9L2 9L220160321002510103/21/16 00:25:31  5-MIN K9L2 210825Z AUTO 20007KT 10SM CLR 13/04 A3006 2170 56 2500 180/07 RMK AO2 $
53144K9L2 9L220160321003010103/21/16 00:30:31  5-MIN K9L2 210830Z AUTO 20007KT 10SM CLR 13/05 A3006 2170 59 2500 190/07 RMK AO2 $
53144K9L2 9L220160321003510103/21/16 00:35:31  5-MIN K9L2 210835Z AUTO 20006KT 10SM CLR 13/05 A3006 2170 59 2500 190/06 RMK AO2 $
53144K9L2 9L220160321004010103/21/16 00:40:31  5-MIN K9L2 210840Z AUTO 21005KT 10SM CLR 13/05 A3006 2170 59 2500 200/05 RMK AO2 $
53144K9L2 9L220160321004510103/21/16 00:45:31  5-MIN K9L2 210845Z AUTO 21003KT 10SM CLR 13/05 A3006 2170 57 2500 200/03 RMK AO2 $
53144K9L2 9L220160321005010103/21/16 00:50:31  5-MIN K9L2 210850Z AUTO 00000KT 10SM CLR 13/05 A3006 2170 57 2500 000/00 RMK AO2 $
53144K9L2 9L220160321005512403/21/16 00:55:31  5-MIN K9L2 210855Z AUTO 00000KT 10SM CLR 13/05 A3006 2170 59 2500 000/00 RMK AO2 SLP168 T01280050 51009 $
53144K9L2 9L220160321010010103/21/16 01:00:31  5-MIN K9L2 210900Z AUTO 27006KT 10SM CLR 13/06 A3006 2170 61 2500 250/06 RMK AO2 $
53144K9L2 9L220160321010510103/21/16 01:05:31  5-MIN K9L2 210905Z AUTO 26008KT 10SM CLR 13/06 A3006 2180 61 2500 240/08 RMK AO2 $
53144K9L2 9L220160321011010103/21/16 01:10:31  5-MIN K9L2 210910Z AUTO 25010KT 10SM CLR 13/06 A3006 2180 59 2500 240/10 RMK AO2 $
53144K9L2 9L220160321011510103/21/16 01:15:31  5-MIN K9L2 210915Z AUTO 25012KT 10SM CLR 13/06 A3005 2180 59 2500 240/12 RMK AO2 $
53144K9L2 9L220160321012010103/21/16 01:20:31  5-MIN K9L2 210920Z AUTO 25013KT 10SM CLR 14/06 A3005 2180 57 2600 230/13 RMK AO2 $
53144K9L2 9L220160321012510103/21/16 01:25:31  5-MIN K9L2 210925Z AUTO 25013KT 10SM CLR 14/06 A3005 2180 57 2600 240/13 RMK AO2 $
53144K9L2 9L220160321013010103/21/16 01:30:31  5-MIN K9L2 210930Z AUTO 25011KT 10SM CLR 14/06 A3005 2180 57 2600 240/11 RMK AO2 $
53144K9L2 9L220160321013510103/21/16 01:35:31  5-MIN K9L2 210935Z AUTO 26011KT 10SM CLR 14/06 A3005 2180 57 2600 240/11 RMK AO2 $
53144K9L2 9L220160321014010103/21/16 01:40:31  5-MIN K9L2 210940Z AUTO 26010KT 10SM CLR 13/06 A3005 2180 59 2500 250/10 RMK AO2 $
53144K9L2 9L220160321014510103/21/16 01:45:31  5-MIN K9L2 210945Z AUTO 27009KT 10SM CLR 13/06 A3005 2180 59 2500 250/09 RMK AO2 $
53144K9L2 9L220160321015010103/21/16 01:50:31  5-MIN K9L2 210950Z AUTO 26010KT 10SM CLR 13/06 A3005 2180 61 2500 250/10 RMK AO2 $
53144K9L2 9L220160321015511803/21/16 01:55:31  5-MIN K9L2 210955Z AUTO 26010KT 10SM CLR 13/06 A3005 2180 59 2500 250/10 RMK AO2 SLP163 T01330056 $
53144K9L2 9L220160321020010103/21/16 02:00:31  5-MIN K9L2 211000Z AUTO 26010KT 10SM CLR 13/06 A3005 2190 59 2500 250/10 RMK AO2 $
53144K9L2 9L220160321020510103/21/16 02:05:31  5-MIN K9L2 211005Z AUTO 27009KT 10SM CLR 13/06 A3005 2190 59 2500 260/09 RMK AO2 $
53144K9L2 9L220160321021010103/21/16 02:10:31  5-MIN K9L2 211010Z AUTO 26012KT 10SM CLR 13/06 A3005 2190 59 2500 250/12 RMK AO2 $
53144K9L2 9L220160321021510103/21/16 02:15:31  5-MIN K9L2 211015Z AUTO 25012KT 10SM CLR 13/05 A3004 2190 57 2500 240/12 RMK AO2 $
53144K9L2 9L220160321022010103/21/16 02:20:31  5-MIN K9L2 211020Z AUTO 25012KT 10SM CLR 14/05 A3004 2190 55 2600 240/12 RMK AO2 $
53144K9L2 9L220160321022510103/21/16 02:25:31  5-MIN K9L2 211025Z AUTO 25012KT 10SM CLR 14/05 A3004 2190 55 2600 240/12 RMK AO2 $
53144K9L2 9L220160321023010103/21/16 02:30:31  5-MIN K9L2 211030Z AUTO 24014KT 10SM CLR 14/05 A3004 2190 53 2700 230/14 RMK AO2 $
53144K9L2 9L220160321023510103/21/16 02:35:31  5-MIN K9L2 211035Z AUTO 25011KT 10SM CLR 14/05 A3004 2190 53 2700 240/11 RMK AO2 $
53144K9L2 9L220160321024010103/21/16 02:40:31  5-MIN K9L2 211040Z AUTO 25012KT 10SM CLR 14/05 A3004 2190 55 2600 230/12 RMK AO2 $
53144K9L2 9L220160321024510103/21/16 02:45:31  5-MIN K9L2 211045Z AUTO 25012KT 10SM CLR 14/05 A3004 2190 55 2600 230/12 RMK AO2 $
53144K9L2 9L220160321025010103/21/16 02:50:31  5-MIN K9L2 211050Z AUTO 25010KT 10SM CLR 13/05 A3004 2190 57 2500 230/10 RMK AO2 $
53144K9L2 9L220160321025511803/21/16 02:55:31  5-MIN K9L2 211055Z AUTO 24010KT 10SM CLR 13/05 A3004 2190 57 2500 230/10 RMK AO2 SLP160 T01330050 $
53144K9L2 9L220160321030010103/21/16 03:00:31  5-MIN K9L2 211100Z AUTO 24010KT 10SM CLR 13/05 A3004 2200 59 2500 230/10 RMK AO2 $
53144K9L2 9L220160321030510103/21/16 03:05:31  5-MIN K9L2 211105Z AUTO 24010KT 10SM CLR 13/05 A3004 2190 59 2500 230/10 RMK AO2 $
53144K9L2 9L220160321031010103/21/16 03:10:31  5-MIN K9L2 211110Z AUTO 24009KT 10SM CLR 13/05 A3004 2200 59 2500 230/09 RMK AO2 $
53144K9L2 9L220160321031510103/21/16 03:15:31  5-MIN K9L2 211115Z AUTO 24009KT 10SM CLR 13/05 A3004 2190 59 2500 230/09 RMK AO2 $
53144K9L2 9L220160321032010103/21/16 03:20:31  5-MIN K9L2 211120Z AUTO 24009KT 10SM CLR 12/05 A3004 2190 61 2400 230/09 RMK AO2 $
53144K9L2 9L220160321032510103/21/16 03:25:31  5-MIN K9L2 211125Z AUTO 24008KT 10SM CLR 12/05 A3004 2190 61 2400 230/08 RMK AO2 $
53144K9L2 9L220160321033010103/21/16 03:30:31  5-MIN K9L2 211130Z AUTO 24009KT 10SM CLR 12/05 A3004 2190 61 2400 230/09 RMK AO2 $
53144K9L2 9L220160321033510103/21/16 03:35:31  5-MIN K9L2 211135Z AUTO 24008KT 10SM CLR 12/05 A3004 2190 61 2400 230/08 RMK AO2 $
53144K9L2 9L220160321034010103/21/16 03:40:31  5-MIN K9L2 211140Z AUTO 24008KT 10SM CLR 12/05 A3004 2190 61 2400 230/08 RMK AO2 $
53144K9L2 9L220160321034510103/21/16 03:45:31  5-MIN K9L2 211145Z AUTO 24008KT 10SM CLR 12/05 A3004 2190 63 2400 230/08 RMK AO2 $
53144K9L2 9L220160321035010103/21/16 03:50:31  5-MIN K9L2 211150Z AUTO 24007KT 10SM CLR 12/05 A3004 2190 63 2400 230/07 RMK AO2 $
53144K9L2 9L220160321035513603/21/16 03:55:31  5-MIN K9L2 211155Z AUTO 24007KT 10SM CLR 12/05 A3004 2190 63 2300 220/07 RMK AO2 SLP163 T01170050 10156 20117 56003 $
53144K9L2 9L220160321040010103/21/16 04:00:31  5-MIN K9L2 211200Z AUTO 23006KT 10SM CLR 12/05 A3004 2190 63 2300 220/06 RMK AO2 $
53144K9L2 9L220160321040510103/21/16 04:05:31  5-MIN K9L2 211205Z AUTO 23006KT 10SM CLR 12/04 A3004 2190 61 2300 220/06 RMK AO2 $
53144K9L2 9L220160321041010103/21/16 04:10:31  5-MIN K9L2 211210Z AUTO 22006KT 10SM CLR 12/04 A3004 2190 61 2300 210/06 RMK AO2 $
53144K9L2 9L220160321041510103/21/16 04:15:31  5-MIN K9L2 211215Z AUTO 22006KT 10SM CLR 11/04 A3004 2190 63 2300 200/06 RMK AO2 $
53144K9L2 9L220160321042010103/21/16 04:20:31  5-MIN K9L2 211220Z AUTO 22005KT 10SM CLR 11/04 A3004 2190 63 2300 210/05 RMK AO2 $
53144K9L2 9L220160321042510103/21/16 04:25:31  5-MIN K9L2 211225Z AUTO 21005KT 10SM CLR 11/04 A3004 2190 66 2200 200/05 RMK AO2 $
53144K9L2 9L220160321043010103/21/16 04:30:31  5-MIN K9L2 211230Z AUTO 20005KT 10SM CLR 11/04 A3004 2190 66 2200 190/05 RMK AO2 $
53144K9L2 9L220160321043510103/21/16 04:35:31  5-MIN K9L2 211235Z AUTO 19006KT 10SM CLR 10/04 A3004 2190 65 2200 180/06 RMK AO2 $
53144K9L2 9L220160321044010103/21/16 04:40:31  5-MIN K9L2 211240Z AUTO 20006KT 10SM CLR 11/04 A3004 2190 63 2200 190/06 RMK AO2 $
53144K9L2 9L220160321044510103/21/16 04:45:31  5-MIN K9L2 211245Z AUTO 20006KT 10SM CLR 11/04 A3004 2190 66 2200 190/06 RMK AO2 $
53144K9L2 9L220160321045010103/21/16 04:50:31  5-MIN K9L2 211250Z AUTO 21006KT 10SM CLR 11/04 A3004 2190 66 2200 200/06 RMK AO2 $
53144K9L2 9L220160321045511803/21/16 04:55:31  5-MIN K9L2 211255Z AUTO 21006KT 10SM CLR 11/04 A3004 2190 66 2200 200/06 RMK AO2 SLP165 T01060044 $
53144K9L2 9L220160321050010103/21/16 05:00:31  5-MIN K9L2 211300Z AUTO 21006KT 10SM CLR 11/04 A3004 2190 66 2200 200/06 RMK AO2 $
53144K9L2 9L220160321050510103/21/16 05:05:31  5-MIN K9L2 211305Z AUTO 21005KT 10SM CLR 11/04 A3004 2190 66 2200 200/05 RMK AO2 $
53144K9L2 9L220160321051010103/21/16 05:10:31  5-MIN K9L2 211310Z AUTO 20006KT 10SM CLR 10/04 A3004 2190 68 2200 190/06 RMK AO2 $
53144K9L2 9L220160321051510103/21/16 05:15:31  5-MIN K9L2 211315Z AUTO 20005KT 10SM CLR 10/04 A3004 2190 65 2100 190/05 RMK AO2 $
53144K9L2 9L220160321052010103/21/16 05:20:31  5-MIN K9L2 211320Z AUTO 19006KT 10SM CLR 10/04 A3004 2190 65 2100 180/06 RMK AO2 $
53144K9L2 9L220160321052510103/21/16 05:25:31  5-MIN K9L2 211325Z AUTO 19007KT 10SM CLR 11/04 A3004 2190 63 2200 180/07 RMK AO2 $
53144K9L2 9L220160321053010103/21/16 05:30:31  5-MIN K9L2 211330Z AUTO 20008KT 10SM CLR 11/04 A3004 2190 63 2300 190/08 RMK AO2 $
53144K9L2 9L220160321053510103/21/16 05:35:31  5-MIN K9L2 211335Z AUTO 20007KT 10SM CLR 11/04 A3005 2190 63 2300 190/07 RMK AO2 $
53144K9L2 9L220160321054010103/21/16 05:40:31  5-MIN K9L2 211340Z AUTO 19007KT 10SM CLR 11/04 A3005 2190 63 2300 180/07 RMK AO2 $
53144K9L2 9L220160321054510103/21/16 05:45:31  5-MIN K9L2 211345Z AUTO 18008KT 10SM CLR 11/04 A3005 2190 66 2200 170/08 RMK AO2 $
53144K9L2 9L220160321055010103/21/16 05:50:31  5-MIN K9L2 211350Z AUTO 18009KT 10SM CLR 10/04 A3005 2190 68 2100 170/09 RMK AO2 $
53144K9L2 9L220160321055511803/21/16 05:55:31  5-MIN K9L2 211355Z AUTO 19009KT 10SM CLR 10/04 A3005 2190 68 2100 170/09 RMK AO2 SLP170 T01000044 $
53144K9L2 9L220160321060010103/21/16 06:00:31  5-MIN K9L2 211400Z AUTO 20009KT 10SM CLR 10/04 A3005 2180 68 2100 180/09 RMK AO2 $
53144K9L2 9L220160321060510103/21/16 06:05:31  5-MIN K9L2 211405Z AUTO 20009KT 10SM CLR 10/04 A3005 2180 68 2100 180/09 RMK AO2 $
53144K9L2 9L220160321061010103/21/16 06:10:31  5-MIN K9L2 211410Z AUTO 19009KT 10SM CLR 11/04 A3005 2180 66 2200 180/09 RMK AO2 $
53144K9L2 9L220160321061510103/21/16 06:15:31  5-MIN K9L2 211415Z AUTO 19008KT 10SM CLR 11/05 A3005 2180 68 2200 180/08 RMK AO2 $
53144K9L2 9L220160321062010103/21/16 06:20:31  5-MIN K9L2 211420Z AUTO 19008KT 10SM CLR 10/05 A3005 2180 71 2100 170/08 RMK AO2 $
53144K9L2 9L220160321062510103/21/16 06:25:31  5-MIN K9L2 211425Z AUTO 19008KT 10SM CLR 10/04 A3006 2180 68 2100 180/08 RMK AO2 $
53144K9L2 9L220160321063010103/21/16 06:30:31  5-MIN K9L2 211430Z AUTO 20007KT 10SM CLR 11/05 A3006 2180 68 2200 190/07 RMK AO2 $
53144K9L2 9L220160321063510103/21/16 06:35:31  5-MIN K9L2 211435Z AUTO 22005KT 10SM CLR 11/05 A3006 2180 68 2200 200/05 RMK AO2 $
53144K9L2 9L220160321064010103/21/16 06:40:31  5-MIN K9L2 211440Z AUTO 23006KT 10SM CLR 12/06 A3006 2180 63 2400 220/06 RMK AO2 $
53144K9L2 9L220160321064510103/21/16 06:45:31  5-MIN K9L2 211445Z AUTO 23006KT 10SM CLR 13/06 A3006 2180 61 2500 220/06 RMK AO2 $
53144K9L2 9L220160321065010103/21/16 06:50:31  5-MIN K9L2 211450Z AUTO 23006KT 10SM CLR 13/06 A3006 2180 61 2500 210/06 RMK AO2 $
53144K9L2 9L220160321065512403/21/16 06:55:31  5-MIN K9L2 211455Z AUTO 22007KT 10SM CLR 14/06 A3006 2180 59 2600 210/07 RMK AO2 SLP172 T01390061 55006 $
53144K9L2 9L220160321070010103/21/16 07:00:31  5-MIN K9L2 211500Z AUTO 23006KT 10SM CLR 14/06 A3006 2180 59 2600 220/06 RMK AO2 $
53144K9L2 9L220160321070510103/21/16 07:05:31  5-MIN K9L2 211505Z AUTO 24008KT 10SM CLR 14/06 A3006 2180 55 2700 230/08 RMK AO2 $
53144K9L2 9L220160321071010103/21/16 07:10:31  5-MIN K9L2 211510Z AUTO 20008KT 10SM CLR 14/06 A3006 2180 55 2700 190/08 RMK AO2 $
53144K9L2 9L220160321071510103/21/16 07:15:31  5-MIN K9L2 211515Z AUTO 20009KT 10SM CLR 13/07 A3006 2180 64 2500 180/09 RMK AO2 $
53144K9L2 9L220160321072010103/21/16 07:20:31  5-MIN K9L2 211520Z AUTO 20008KT 10SM CLR 13/07 A3006 2180 64 2500 190/08 RMK AO2 $
53144K9L2 9L220160321072510103/21/16 07:25:31  5-MIN K9L2 211525Z AUTO 22009KT 10SM CLR 14/06 A3006 2180 57 2700 200/09 RMK AO2 $
53144K9L2 9L220160321073010103/21/16 07:30:31  5-MIN K9L2 211530Z AUTO 21008KT 10SM CLR 14/07 A3006 2180 59 2700 200/08 RMK AO2 $
53144K9L2 9L220160321073510103/21/16 07:35:31  5-MIN K9L2 211535Z AUTO 22010KT 10SM CLR 15/06 A3006 2180 55 2700 210/10 RMK AO2 $
53144K9L2 9L220160321074010103/21/16 07:40:31  5-MIN K9L2 211540Z AUTO 22011KT 10SM CLR 16/06 A3006 2170 53 2800 200/11 RMK AO2 $
53144K9L2 9L220160321074510103/21/16 07:45:31  5-MIN K9L2 211545Z AUTO 22010KT 10SM CLR 16/06 A3006 2170 53 2800 210/10 RMK AO2 $
53144K9L2 9L220160321075010103/21/16 07:50:31  5-MIN K9L2 211550Z AUTO 22010KT 10SM CLR 16/06 A3006 2170 51 2800 200/10 RMK AO2 $
53144K9L2 9L220160321075511803/21/16 07:55:31  5-MIN K9L2 211555Z AUTO 21008KT 10SM CLR 16/06 A3006 2170 51 2800 200/08 RMK AO2 SLP173 T01610061 $
53144K9L2 9L220160321080010103/21/16 08:00:31  5-MIN K9L2 211600Z AUTO 21010KT 10SM CLR 16/06 A3006 2170 51 2800 200/10 RMK AO2 $
53144K9L2 9L220160321080510103/21/16 08:05:31  5-MIN K9L2 211605Z AUTO 21009KT 10SM CLR 17/06 A3006 2170 49 2900 190/09 RMK AO2 $
53144K9L2 9L220160321081010103/21/16 08:10:31  5-MIN K9L2 211610Z AUTO 22010KT 10SM CLR 17/06 A3006 2170 49 2900 200/10 RMK AO2 $
53144K9L2 9L220160321081510103/21/16 08:15:31  5-MIN K9L2 211615Z AUTO 21010KT 10SM CLR 17/06 A3007 2170 49 2900 200/10 RMK AO2 $
53144K9L2 9L220160321082010103/21/16 08:20:31  5-MIN K9L2 211620Z AUTO 21012KT 10SM CLR 17/06 A3007 2170 47 3000 200/12 RMK AO2 $
53144K9L2 9L220160321082510103/21/16 08:25:31  5-MIN K9L2 211625Z AUTO 22013KT 10SM CLR 17/06 A3007 2170 47 3000 200/13 RMK AO2 $
53144K9L2 9L220160321083010103/21/16 08:30:31  5-MIN K9L2 211630Z AUTO 22012KT 10SM CLR 17/06 A3007 2170 47 3000 210/12 RMK AO2 $
53144K9L2 9L220160321083510103/21/16 08:35:31  5-MIN K9L2 211635Z AUTO 23011KT 10SM CLR 18/06 A3007 2170 46 3000 220/11 RMK AO2 $
53144K9L2 9L220160321084010103/21/16 08:40:31  5-MIN K9L2 211640Z AUTO 23010KT 10SM CLR 18/06 A3007 2170 46 3000 210/10 RMK AO2 $
53144K9L2 9L220160321084510103/21/16 08:45:31  5-MIN K9L2 211645Z AUTO 23011KT 10SM CLR 18/06 A3007 2170 46 3000 210/11 RMK AO2 $
53144K9L2 9L220160321085010103/21/16 08:50:31  5-MIN K9L2 211650Z AUTO 22011KT 10SM CLR 18/06 A3007 2170 44 3100 210/11 RMK AO2 $
53144K9L2 9L220160321085511803/21/16 08:55:31  5-MIN K9L2 211655Z AUTO 23012KT 10SM CLR 18/06 A3007 2160 44 3100 210/12 RMK AO2 SLP174 T01830061 $
53144K9L2 9L220160321090010703/21/16 09:00:31  5-MIN K9L2 211700Z AUTO 23010G17KT 10SM CLR 18/06 A3007 2160 42 3100 220/10G17 RMK AO2 $
53144K9L2 9L220160321090510103/21/16 09:05:31  5-MIN K9L2 211705Z AUTO 23012KT 10SM CLR 19/06 A3007 2160 43 3200 210/12 RMK AO2 $
53144K9L2 9L220160321091010103/21/16 09:10:31  5-MIN K9L2 211710Z AUTO 21011KT 10SM CLR 19/06 A3007 2160 43 3200 200/11 RMK AO2 $
53144K9L2 9L220160321091510103/21/16 09:15:31  5-MIN K9L2 211715Z AUTO 23011KT 10SM CLR 19/06 A3007 2160 43 3200 210/11 RMK AO2 $
53144K9L2 9L220160321092010103/21/16 09:20:31  5-MIN K9L2 211720Z AUTO 24011KT 10SM CLR 19/05 A3007 2160 38 3200 230/11 RMK AO2 $
53144K9L2 9L220160321092510103/21/16 09:25:31  5-MIN K9L2 211725Z AUTO 24012KT 10SM CLR 19/05 A3007 2160 38 3200 230/12 RMK AO2 $
53144K9L2 9L220160321093010703/21/16 09:30:31  5-MIN K9L2 211730Z AUTO 23012G17KT 10SM CLR 19/05 A3007 2160 38 3200 220/12G17 RMK AO2 $
53144K9L2 9L220160321093510703/21/16 09:35:31  5-MIN K9L2 211735Z AUTO 25012G16KT 10SM CLR 19/05 A3007 2160 38 3200 230/12G16 RMK AO2 $
53144K9L2 9L220160321094010703/21/16 09:40:31  5-MIN K9L2 211740Z AUTO 24014G19KT 10SM CLR 20/05 A3007 2160 37 3300 230/14G19 RMK AO2 $
53144K9L2 9L220160321094510703/21/16 09:45:31  5-MIN K9L2 211745Z AUTO 26012G19KT 10SM CLR 21/05 A3007 2160 35 3300 240/12G19 RMK AO2 $
53144K9L2 9L220160321095010103/21/16 09:50:31  5-MIN K9L2 211750Z AUTO 24013KT 10SM CLR 21/04 A3007 2160 33 3300 230/13 RMK AO2 $
53144K9L2 9L220160321095513603/21/16 09:55:31  5-MIN K9L2 211755Z AUTO 25012KT 10SM CLR 21/04 A3007 2160 34 3300 240/12 RMK AO2 SLP174 T02060044 10206 20100 53005 $
53144K9L2 9L220160321100010103/21/16 10:00:31  5-MIN K9L2 211800Z AUTO 26011KT 10SM CLR 21/04 A3007 2160 33 3300 250/11 RMK AO2 $
53144K9L2 9L220160321100510103/21/16 10:05:31  5-MIN K9L2 211805Z AUTO 26013KT 10SM CLR 21/04 A3007 2160 33 3300 250/13 RMK AO2 $
53144K9L2 9L220160321101010103/21/16 10:10:31  5-MIN K9L2 211810Z AUTO 25009KT 10SM CLR 21/04 A3007 2170 33 3300 240/09 RMK AO2 $
53144K9L2 9L220160321101510703/21/16 10:15:31  5-MIN K9L2 211815Z AUTO 24012G19KT 10SM CLR 21/04 A3007 2170 32 3400 220/12G19 RMK AO2 $
53144K9L2 9L220160321102010703/21/16 10:20:31  5-MIN K9L2 211820Z AUTO 25012G19KT 10SM CLR 21/04 A3007 2170 32 3400 230/12G19 RMK AO2 $
53144K9L2 9L220160321102510703/21/16 10:25:31  5-MIN K9L2 211825Z AUTO 25015G19KT 10SM CLR 21/04 A3006 2170 32 3400 240/15G19 RMK AO2 $
53144K9L2 9L220160321103010703/21/16 10:30:31  5-MIN K9L2 211830Z AUTO 26012G19KT 10SM CLR 22/03 A3006 2170 29 3500 240/12G19 RMK AO2 $
53144K9L2 9L220160321103510703/21/16 10:35:31  5-MIN K9L2 211835Z AUTO 25012G18KT 10SM CLR 22/03 A3006 2170 29 3500 240/12G18 RMK AO2 $
53144K9L2 9L220160321104010103/21/16 10:40:31  5-MIN K9L2 211840Z AUTO 27014KT 10SM CLR 22/03 A3006 2180 28 3500 250/14 RMK AO2 $
53144K9L2 9L220160321104510703/21/16 10:45:31  5-MIN K9L2 211845Z AUTO 26012G17KT 10SM CLR 22/03 A3006 2180 27 3500 250/12G17 RMK AO2 $
53144K9L2 9L220160321105010703/21/16 10:50:31  5-MIN K9L2 211850Z AUTO 27009G17KT 10SM CLR 22/03 A3005 2180 28 3600 250/09G17 RMK AO2 $
53144K9L2 9L220160321105514003/21/16 10:55:31  5-MIN K9L2 211855Z AUTO 25008G16KT 220V290 10SM CLR 22/03 A3005 2180 29 3500 240/08G16 210V280 RMK AO2 SLP167 T02170033 $
53144K9L2 9L220160321110010703/21/16 11:00:31  5-MIN K9L2 211900Z AUTO 27011G19KT 10SM CLR 22/03 A3005 2190 27 3600 250/11G19 RMK AO2 $
53144K9L2 9L220160321110510703/21/16 11:05:31  5-MIN K9L2 211905Z AUTO 22011G19KT 10SM CLR 22/02 A3005 2190 27 3500 210/11G19 RMK AO2 $
53144K9L2 9L220160321111010703/21/16 11:10:31  5-MIN K9L2 211910Z AUTO 23015G25KT 10SM CLR 22/02 A3004 2190 25 3600 220/15G25 RMK AO2 $
53144K9L2 9L220160321111510703/21/16 11:15:31  5-MIN K9L2 211915Z AUTO 23016G25KT 10SM CLR 22/02 A3004 2190 26 3600 210/16G25 RMK AO2 $
53144K9L2 9L220160321112010703/21/16 11:20:31  5-MIN K9L2 211920Z AUTO 22016G22KT 10SM CLR 22/02 A3004 2190 26 3600 210/16G22 RMK AO2 $
53144K9L2 9L220160321112510103/21/16 11:25:31  5-MIN K9L2 211925Z AUTO 22017KT 10SM CLR 22/03 A3004 2200 27 3600 200/17 RMK AO2 $
53144K9L2 9L220160321113010703/21/16 11:30:31  5-MIN K9L2 211930Z AUTO 23014G21KT 10SM CLR 22/03 A3004 2190 27 3600 220/14G21 RMK AO2 $
53144K9L2 9L220160321113510703/21/16 11:35:31  5-MIN K9L2 211935Z AUTO 23016G23KT 10SM CLR 22/02 A3004 2200 26 3600 220/16G23 RMK AO2 $
53144K9L2 9L220160321114010703/21/16 11:40:31  5-MIN K9L2 211940Z AUTO 22015G23KT 10SM CLR 23/03 A3003 2200 26 3600 210/15G23 RMK AO2 $
53144K9L2 9L220160321114510103/21/16 11:45:31  5-MIN K9L2 211945Z AUTO 23015KT 10SM CLR 23/02 A3003 2200 25 3600 220/15 RMK AO2 $
53144K9L2 9L220160321115010703/21/16 11:50:31  5-MIN K9L2 211950Z AUTO 22017G23KT 10SM CLR 23/03 A3003 2200 27 3600 210/17G23 RMK AO2 $
53144K9L2 9L220160321115512403/21/16 11:55:31  5-MIN K9L2 211955Z AUTO 22015G23KT 10SM CLR 23/03 A3002 2210 26 3600 210/15G23 RMK AO2 SLP157 T02280028 $
53144K9L2 9L220160321120010703/21/16 12:00:31  5-MIN K9L2 212000Z AUTO 22014G25KT 10SM CLR 23/03 A3002 2210 27 3700 210/14G25 RMK AO2 $
53144K9L2 9L220160321120510703/21/16 12:05:31  5-MIN K9L2 212005Z AUTO 22017G25KT 10SM CLR 23/03 A3002 2210 26 3700 210/17G25 RMK AO2 $
53144K9L2 9L220160321121012503/21/16 12:10:31  5-MIN K9L2 212010Z AUTO 23015G29KT 10SM CLR 23/03 A3002 2210 27 3700 210/15G29 RMK AO2 PK WND 21029/2007 $
53144K9L2 9L220160321121512503/21/16 12:15:31  5-MIN K9L2 212015Z AUTO 22015G29KT 10SM CLR 23/03 A3001 2220 26 3700 210/15G29 RMK AO2 PK WND 21029/2007 $
53144K9L2 9L220160321122012503/21/16 12:20:31  5-MIN K9L2 212020Z AUTO 22017G22KT 10SM CLR 23/03 A3001 2220 26 3700 210/17G22 RMK AO2 PK WND 21029/2007 $
53144K9L2 9L220160321122512503/21/16 12:25:31  5-MIN K9L2 212025Z AUTO 21016G22KT 10SM CLR 23/03 A3001 2220 26 3700 200/16G22 RMK AO2 PK WND 21029/2007 $
53144K9L2 9L220160321123012503/21/16 12:30:31  5-MIN K9L2 212030Z AUTO 23018G25KT 10SM CLR 23/03 A3001 2220 26 3700 210/18G25 RMK AO2 PK WND 21029/2007 $
53144K9L2 9L220160321123512503/21/16 12:35:31  5-MIN K9L2 212035Z AUTO 22018G25KT 10SM CLR 23/03 A3000 2230 27 3700 210/18G25 RMK AO2 PK WND 21029/2007 $
53144K9L2 9L220160321124012503/21/16 12:40:31  5-MIN K9L2 212040Z AUTO 21019G25KT 10SM CLR 23/03 A3000 2230 27 3700 200/19G25 RMK AO2 PK WND 21029/2007 $
53144K9L2 9L220160321124512503/21/16 12:45:31  5-MIN K9L2 212045Z AUTO 23019G25KT 10SM CLR 23/04 A3000 2230 29 3700 220/19G25 RMK AO2 PK WND 21029/2007 $
53144K9L2 9L220160321125011903/21/16 12:50:31  5-MIN K9L2 212050Z AUTO 23018KT 10SM CLR 23/04 A3000 2230 29 3700 220/18 RMK AO2 PK WND 21029/2007 $
53144K9L2 9L220160321125514803/21/16 12:55:31  5-MIN K9L2 212055Z AUTO 22019G25KT 10SM CLR 23/04 A3000 2230 29 3700 210/19G25 RMK AO2 PK WND 21029/2007 SLP149 T02280039 51004 $
53144K9L2 9L220160321130012503/21/16 13:00:31  5-MIN K9L2 212100Z AUTO 23020G26KT 10SM CLR 23/04 A3000 2230 29 3700 210/20G26 RMK AO2 PK WND 22026/2100 $
53144K9L2 9L220160321130512503/21/16 13:05:31  5-MIN K9L2 212105Z AUTO 23020G26KT 10SM CLR 23/04 A3000 2230 29 3700 220/20G26 RMK AO2 PK WND 22026/2100 $
53144K9L2 9L220160321131012503/21/16 13:10:31  5-MIN K9L2 212110Z AUTO 23021G27KT 10SM CLR 22/04 A2999 2240 30 3600 210/21G27 RMK AO2 PK WND 22027/2110 $
53144K9L2 9L220160321131512503/21/16 13:15:31  5-MIN K9L2 212115Z AUTO 23023G29KT 10SM CLR 22/04 A2999 2240 31 3600 220/23G29 RMK AO2 PK WND 24029/2114 $
53144K9L2 9L220160321132012503/21/16 13:20:31  5-MIN K9L2 212120Z AUTO 23020G29KT 10SM CLR 22/04 A2999 2240 31 3600 210/20G29 RMK AO2 PK WND 24029/2114 $
53144K9L2 9L220160321132512503/21/16 13:25:31  5-MIN K9L2 212125Z AUTO 24022G29KT 10SM CLR 23/04 A2999 2240 30 3700 220/22G29 RMK AO2 PK WND 22029/2122 $
53144K9L2 9L220160321133012503/21/16 13:30:31  5-MIN K9L2 212130Z AUTO 23022G29KT 10SM CLR 22/04 A2999 2240 30 3600 220/22G29 RMK AO2 PK WND 22029/2122 $
53144K9L2 9L220160321133512503/21/16 13:35:31  5-MIN K9L2 212135Z AUTO 23021G27KT 10SM CLR 22/04 A2999 2240 31 3600 220/21G27 RMK AO2 PK WND 22029/2122 $
53144K9L2 9L220160321134012503/21/16 13:40:31  5-MIN K9L2 212140Z AUTO 23022G27KT 10SM CLR 22/04 A2999 2240 31 3600 220/22G27 RMK AO2 PK WND 22029/2122 $
53144K9L2 9L220160321134512503/21/16 13:45:31  5-MIN K9L2 212145Z AUTO 23020G28KT 10SM CLR 22/04 A2999 2240 32 3600 220/20G28 RMK AO2 PK WND 22029/2122 $
53144K9L2 9L220160321135012503/21/16 13:50:31  5-MIN K9L2 212150Z AUTO 23021G28KT 10SM CLR 22/04 A2999 2240 31 3600 210/21G28 RMK AO2 PK WND 22029/2122 $
53144K9L2 9L220160321135514203/21/16 13:55:31  5-MIN K9L2 212155Z AUTO 24021G27KT 10SM CLR 22/04 A2999 2240 31 3600 220/21G27 RMK AO2 PK WND 22029/2122 SLP146 T02220044 $
53144K9L2 9L220160321140012503/21/16 14:00:31  5-MIN K9L2 212200Z AUTO 23023G29KT 10SM CLR 22/04 A2998 2240 32 3600 220/23G29 RMK AO2 PK WND 24028/2159 $
53144K9L2 9L220160321140512503/21/16 14:05:31  5-MIN K9L2 212205Z AUTO 23020G29KT 10SM CLR 22/05 A2999 2240 32 3600 220/20G29 RMK AO2 PK WND 24028/2159 $
53144K9L2 9L220160321141012503/21/16 14:10:31  5-MIN K9L2 212210Z AUTO 23020G27KT 10SM CLR 22/05 A2998 2250 32 3600 220/20G27 RMK AO2 PK WND 24028/2159 $
53144K9L2 9L220160321141512503/21/16 14:15:31  5-MIN K9L2 212215Z AUTO 23019G25KT 10SM CLR 22/05 A2998 2250 32 3600 210/19G25 RMK AO2 PK WND 24028/2159 $
53144K9L2 9L220160321142012503/21/16 14:20:31  5-MIN K9L2 212220Z AUTO 23020G25KT 10SM CLR 22/05 A2998 2250 32 3600 220/20G25 RMK AO2 PK WND 24028/2159 $
53144K9L2 9L220160321142512503/21/16 14:25:31  5-MIN K9L2 212225Z AUTO 24021G26KT 10SM CLR 22/05 A2998 2250 32 3600 230/21G26 RMK AO2 PK WND 24028/2159 $
53144K9L2 9L220160321143012503/21/16 14:30:31  5-MIN K9L2 212230Z AUTO 24022G26KT 10SM CLR 22/06 A2998 2250 33 3600 230/22G26 RMK AO2 PK WND 24028/2159 $
53144K9L2 9L220160321143512503/21/16 14:35:31  5-MIN K9L2 212235Z AUTO 24020G27KT 10SM CLR 22/05 A2998 2250 32 3600 220/20G27 RMK AO2 PK WND 24028/2159 $
53144K9L2 9L220160321144012503/21/16 14:40:31  5-MIN K9L2 212240Z AUTO 24021G27KT 10SM CLR 22/05 A2998 2250 32 3600 230/21G27 RMK AO2 PK WND 24028/2159 $
53144K9L2 9L220160321144512503/21/16 14:45:31  5-MIN K9L2 212245Z AUTO 23018G29KT 10SM CLR 22/05 A2998 2250 32 3600 220/18G29 RMK AO2 PK WND 23029/2242 $
53144K9L2 9L220160321145012503/21/16 14:50:31  5-MIN K9L2 212250Z AUTO 26017G29KT 10SM CLR 22/04 A2997 2250 31 3600 250/17G29 RMK AO2 PK WND 23029/2242 $
53144K9L2 9L220160321145514203/21/16 14:55:31  5-MIN K9L2 212255Z AUTO 26015G26KT 10SM CLR 22/04 A2997 2250 30 3600 240/15G26 RMK AO2 PK WND 23029/2242 SLP140 T02220039 $
53144K9L2 9L220160321150010703/21/16 15:00:31  5-MIN K9L2 212300Z AUTO 23020G25KT 10SM CLR 22/05 A2997 2260 32 3600 210/20G25 RMK AO2 $
53144K9L2 9L220160321150512503/21/16 15:05:31  5-MIN K9L2 212305Z AUTO 25019G26KT 10SM CLR 22/05 A2997 2250 32 3600 240/19G26 RMK AO2 PK WND 24026/2302 $
53144K9L2 9L220160321151012503/21/16 15:10:31  5-MIN K9L2 212310Z AUTO 23019G28KT 10SM CLR 22/06 A2997 2260 34 3600 220/19G28 RMK AO2 PK WND 23028/2306 $
53144K9L2 9L220160321151512503/21/16 15:15:31  5-MIN K9L2 212315Z AUTO 24018G29KT 10SM CLR 22/06 A2997 2260 34 3600 230/18G29 RMK AO2 PK WND 23029/2315 $
53144K9L2 9L220160321152012503/21/16 15:20:31  5-MIN K9L2 212320Z AUTO 27017G29KT 10SM CLR 22/04 A2997 2260 31 3600 260/17G29 RMK AO2 PK WND 23029/2315 $
53144K9L2 9L220160321152512503/21/16 15:25:31  5-MIN K9L2 212325Z AUTO 26014G23KT 10SM CLR 22/04 A2998 2250 32 3600 250/14G23 RMK AO2 PK WND 23029/2315 $
53144K9L2 9L220160321153012503/21/16 15:30:31  5-MIN K9L2 212330Z AUTO 28014G22KT 10SM CLR 21/04 A2998 2250 33 3500 270/14G22 RMK AO2 PK WND 23029/2315 $
53144K9L2 9L220160321153512503/21/16 15:35:31  5-MIN K9L2 212335Z AUTO 25017G24KT 10SM CLR 22/06 A2997 2260 34 3600 230/17G24 RMK AO2 PK WND 23029/2315 $
53144K9L2 9L220160321154012503/21/16 15:40:31  5-MIN K9L2 212340Z AUTO 25016G24KT 10SM CLR 22/05 A2997 2250 33 3600 240/16G24 RMK AO2 PK WND 23029/2315 $
53144K9L2 9L220160321154512803/21/16 15:45:31  5-MIN K9L2 212345Z AUTO 25017G22KT 10SM FEW029 22/04 A2997 2260 32 3600 240/17G22 RMK AO2 PK WND 23029/2315 $
53144K9L2 9L220160321155012803/21/16 15:50:31  5-MIN K9L2 212350Z AUTO 27019G24KT 10SM FEW029 21/04 A2997 2250 33 3500 260/19G24 RMK AO2 PK WND 23029/2315 $
53144K9L2 9L220160321155516303/21/16 15:55:31  5-MIN K9L2 212355Z AUTO 28019G25KT 10SM FEW029 21/04 A2997 2260 34 3500 270/19G25 RMK AO2 PK WND 23029/2315 SLP142 T02060044 10233 20206 58024 $
53144K9L2 9L220160321160012803/21/16 16:00:31  5-MIN K9L2 220000Z AUTO 28021G27KT 10SM FEW029 20/04 A2997 2260 35 3400 270/21G27 RMK AO2 PK WND 28027/0000 $
53144K9L2 9L220160321160512803/21/16 16:05:31  5-MIN K9L2 220005Z AUTO 29022G27KT 10SM FEW029 20/04 A2997 2260 35 3400 280/22G27 RMK AO2 PK WND 28027/0000 $
53144K9L2 9L220160321161012803/21/16 16:10:31  5-MIN K9L2 220010Z AUTO 28018G26KT 10SM FEW029 21/04 A2997 2260 34 3500 270/18G26 RMK AO2 PK WND 28027/0000 $
53144K9L2 9L220160321161512503/21/16 16:15:31  5-MIN K9L2 220015Z AUTO 28019G26KT 10SM CLR 20/04 A2997 2260 35 3400 270/19G26 RMK AO2 PK WND 28027/0000 $
53144K9L2 9L220160321162012503/21/16 16:20:31  5-MIN K9L2 220020Z AUTO 29021G27KT 10SM CLR 19/04 A2997 2260 37 3300 280/21G27 RMK AO2 PK WND 29027/0019 $
53144K9L2 9L220160321162512803/21/16 16:25:31  5-MIN K9L2 220025Z AUTO 29020G27KT 10SM FEW032 19/04 A2997 2260 37 3300 280/20G27 RMK AO2 PK WND 29027/0024 $
53144K9L2 9L220160321163012803/21/16 16:30:31  5-MIN K9L2 220030Z AUTO 29021G27KT 10SM FEW032 20/04 A2997 2260 35 3400 270/21G27 RMK AO2 PK WND 29027/0024 $
53144K9L2 9L220160321163512803/21/16 16:35:31  5-MIN K9L2 220035Z AUTO 28020G27KT 10SM FEW030 20/04 A2997 2260 35 3400 270/20G27 RMK AO2 PK WND 29027/0031 $
53144K9L2 9L220160321164012803/21/16 16:40:31  5-MIN K9L2 220040Z AUTO 28018G27KT 10SM FEW030 19/04 A2997 2260 37 3300 270/18G27 RMK AO2 PK WND 29027/0031 $
53144K9L2 9L220160321164512803/21/16 16:45:31  5-MIN K9L2 220045Z AUTO 28018G24KT 10SM FEW030 19/04 A2997 2260 38 3300 270/18G24 RMK AO2 PK WND 29027/0031 $
53144K9L2 9L220160321165012803/21/16 16:50:31  5-MIN K9L2 220050Z AUTO 29018G24KT 10SM FEW030 19/04 A2997 2260 38 3300 270/18G24 RMK AO2 PK WND 29027/0031 $
53144K9L2 9L220160321165514503/21/16 16:55:31  5-MIN K9L2 220055Z AUTO 29018G23KT 10SM FEW030 19/04 A2997 2260 38 3300 280/18G23 RMK AO2 PK WND 29027/0031 SLP143 T01890044 $
53144K9L2 9L220160321170011003/21/16 17:00:31  5-MIN K9L2 220100Z AUTO 29018G23KT 10SM FEW030 19/04 A2997 2260 38 3300 270/18G23 RMK AO2 $
53144K9L2 9L220160321170510703/21/16 17:05:31  5-MIN K9L2 220105Z AUTO 29017G23KT 10SM CLR 18/05 A2997 2260 41 3200 270/17G23 RMK AO2 $
53144K9L2 9L220160321171010703/21/16 17:10:31  5-MIN K9L2 220110Z AUTO 29017G24KT 10SM CLR 18/05 A2997 2260 41 3200 270/17G24 RMK AO2 $
53144K9L2 9L220160321171510703/21/16 17:15:31  5-MIN K9L2 220115Z AUTO 28019G24KT 10SM CLR 18/05 A2997 2260 41 3200 270/19G24 RMK AO2 $
53144K9L2 9L220160321172010703/21/16 17:20:31  5-MIN K9L2 220120Z AUTO 28016G25KT 10SM CLR 18/05 A2997 2260 42 3100 270/16G25 RMK AO2 $
53144K9L2 9L220160321172510703/21/16 17:25:31  5-MIN K9L2 220125Z AUTO 28015G25KT 10SM CLR 18/05 A2997 2260 42 3100 260/15G25 RMK AO2 $
53144K9L2 9L220160321173010103/21/16 17:30:31  5-MIN K9L2 220130Z AUTO 28014KT 10SM CLR 18/05 A2997 2260 42 3100 270/14 RMK AO2 $
53144K9L2 9L220160321173510703/21/16 17:35:31  5-MIN K9L2 220135Z AUTO 27014G17KT 10SM CLR 18/05 A2997 2260 42 3100 260/14G17 RMK AO2 $
53144K9L2 9L220160321174010703/21/16 17:40:31  5-MIN K9L2 220140Z AUTO 27015G21KT 10SM CLR 18/05 A2997 2260 42 3100 260/15G21 RMK AO2 $
53144K9L2 9L220160321174510103/21/16 17:45:31  5-MIN K9L2 220145Z AUTO 28016KT 10SM CLR 18/05 A2997 2260 42 3100 270/16 RMK AO2 $
53144K9L2 9L220160321175010103/21/16 17:50:31  5-MIN K9L2 220150Z AUTO 28016KT 10SM CLR 17/06 A2997 2260 46 3100 260/16 RMK AO2 $
53144K9L2 9L220160321175512403/21/16 17:55:31  5-MIN K9L2 220155Z AUTO 28014G21KT 10SM CLR 17/06 A2997 2260 46 3100 260/14G21 RMK AO2 SLP145 T01720056 $
53144K9L2 9L220160321180010703/21/16 18:00:31  5-MIN K9L2 220200Z AUTO 28015G21KT 10SM CLR 17/06 A2997 2260 46 3100 260/15G21 RMK AO2 $
53144K9L2 9L220160321180510703/21/16 18:05:31  5-MIN K9L2 220205Z AUTO 27016G22KT 10SM CLR 17/06 A2997 2260 47 3000 260/16G22 RMK AO2 $
53144K9L2 9L220160321181010703/21/16 18:10:31  5-MIN K9L2 220210Z AUTO 27016G23KT 10SM CLR 17/06 A2997 2250 49 3000 260/16G23 RMK AO2 $
53144K9L2 9L220160321181511003/21/16 18:15:31  5-MIN K9L2 220215Z AUTO 26014G23KT 10SM FEW026 16/06 A2997 2250 49 2900 250/14G23 RMK AO2 $
53144K9L2 9L220160321182011003/21/16 18:20:31  5-MIN K9L2 220220Z AUTO 27017G20KT 10SM FEW026 16/06 A2997 2250 49 2900 260/17G20 RMK AO2 $
53144K9L2 9L220160321182511003/21/16 18:25:31  5-MIN K9L2 220225Z AUTO 26016G23KT 10SM FEW026 16/05 A2998 2250 47 2900 250/16G23 RMK AO2 $
53144K9L2 9L220160321183011003/21/16 18:30:31  5-MIN K9L2 220230Z AUTO 26015G23KT 10SM FEW026 16/05 A2998 2250 49 2900 250/15G23 RMK AO2 $
53144K9L2 9L220160321183511003/21/16 18:35:31  5-MIN K9L2 220235Z AUTO 27015G23KT 10SM FEW026 16/05 A2998 2250 49 2900 260/15G23 RMK AO2 $
53144K9L2 9L220160321184011003/21/16 18:40:31  5-MIN K9L2 220240Z AUTO 27016G23KT 10SM FEW026 16/05 A2998 2250 49 2900 250/16G23 RMK AO2 $
53144K9L2 9L220160321184510103/21/16 18:45:31  5-MIN K9L2 220245Z AUTO 26016KT 10SM CLR 15/04 A2998 2250 49 2800 250/16 RMK AO2 $
53144K9L2 9L220160321185010703/21/16 18:50:31  5-MIN K9L2 220250Z AUTO 27016G22KT 10SM CLR 15/04 A2998 2250 49 2800 260/16G22 RMK AO2 $
53144K9L2 9L220160321185513003/21/16 18:55:31  5-MIN K9L2 220255Z AUTO 27017G22KT 10SM CLR 15/04 A2998 2250 47 2800 260/17G22 RMK AO2 SLP148 T01500039 56009 $
53144K9L2 9L220160321190010703/21/16 19:00:31  5-MIN K9L2 220300Z AUTO 27019G25KT 10SM CLR 15/04 A2998 2240 47 2800 260/19G25 RMK AO2 $
53144K9L2 9L220160321190512503/21/16 19:05:31  5-MIN K9L2 220305Z AUTO 27019G27KT 10SM CLR 14/04 A2998 2240 49 2700 260/19G27 RMK AO2 PK WND 28027/0303 $
53144K9L2 9L220160321191012503/21/16 19:10:31  5-MIN K9L2 220310Z AUTO 27020G27KT 10SM CLR 14/04 A2999 2240 49 2700 260/20G27 RMK AO2 PK WND 28027/0310 $
53144K9L2 9L220160321191512503/21/16 19:15:31  5-MIN K9L2 220315Z AUTO 28020G27KT 10SM CLR 14/04 A2999 2240 49 2700 270/20G27 RMK AO2 PK WND 28027/0310 $
53144K9L2 9L220160321192012503/21/16 19:20:31  5-MIN K9L2 220320Z AUTO 28018G26KT 10SM CLR 14/04 A2999 2240 49 2700 260/18G26 RMK AO2 PK WND 28027/0310 $
53144K9L2 9L220160321192512503/21/16 19:25:31  5-MIN K9L2 220325Z AUTO 28020G27KT 10SM CLR 14/03 A2999 2240 47 2700 270/20G27 RMK AO2 PK WND 28027/0325 $
53144K9L2 9L220160321193012503/21/16 19:30:31  5-MIN K9L2 220330Z AUTO 28021G27KT 10SM CLR 14/03 A2999 2240 45 2700 270/21G27 RMK AO2 PK WND 28027/0330 $
53144K9L2 9L220160321193512503/21/16 19:35:31  5-MIN K9L2 220335Z AUTO 28020G28KT 10SM CLR 14/02 A2999 2240 43 2700 260/20G28 RMK AO2 PK WND 28028/0335 $
53144K9L2 9L220160321194012503/21/16 19:40:31  5-MIN K9L2 220340Z AUTO 27018G28KT 10SM CLR 14/02 A2999 2240 43 2700 260/18G28 RMK AO2 PK WND 28028/0335 $
53144K9L2 9L220160321194512503/21/16 19:45:31  5-MIN K9L2 220345Z AUTO 27021G27KT 10SM CLR 14/02 A2999 2240 41 2700 260/21G27 RMK AO2 PK WND 28028/0335 $
53144K9L2 9L220160321195012503/21/16 19:50:31  5-MIN K9L2 220350Z AUTO 27018G27KT 10SM CLR 14/01 A3000 2230 40 2700 260/18G27 RMK AO2 PK WND 28028/0335 $
53144K9L2 9L220160321195513603/21/16 19:55:31  5-MIN K9L2 220355Z AUTO 27018KT 10SM CLR 14/02 A3000 2230 43 2700 260/18 RMK AO2 PK WND 28028/0335 SLP154 T01390017 $
53144K9L2 9L220160321200011003/21/16 20:00:31  5-MIN K9L2 220400Z AUTO 27019G25KT 10SM FEW031 14/02 A3000 2230 41 2700 260/19G25 RMK AO2 $
53144K9L2 9L220160321200511003/21/16 20:05:31  5-MIN K9L2 220405Z AUTO 27018G25KT 10SM FEW033 14/02 A3000 2230 43 2700 260/18G25 RMK AO2 $
53144K9L2 9L220160321201011003/21/16 20:10:31  5-MIN K9L2 220410Z AUTO 27019G24KT 10SM FEW033 14/02 A3000 2230 45 2700 260/19G24 RMK AO2 $
53144K9L2 9L220160321201512803/21/16 20:15:31  5-MIN K9L2 220415Z AUTO 27019G26KT 10SM SCT033 14/03 A3000 2230 47 2700 260/19G26 RMK AO2 PK WND 28026/0415 $
53144K9L2 9L220160321202012803/21/16 20:20:31  5-MIN K9L2 220420Z AUTO 28020G27KT 10SM SCT033 14/03 A3000 2230 47 2700 260/20G27 RMK AO2 PK WND 28027/0418 $
53144K9L2 9L220160321202512803/21/16 20:25:31  5-MIN K9L2 220425Z AUTO 27020G27KT 10SM SCT033 14/03 A3000 2220 47 2700 260/20G27 RMK AO2 PK WND 28027/0418 $
53144K9L2 9L220160321203012803/21/16 20:30:31  5-MIN K9L2 220430Z AUTO 27017G26KT 10SM BKN033 14/03 A3001 2220 47 2600 250/17G26 RMK AO2 PK WND 28027/0418 $
53144K9L2 9L220160321203512803/21/16 20:35:31  5-MIN K9L2 220435Z AUTO 27016G26KT 10SM BKN035 14/03 A3001 2220 47 2600 250/16G26 RMK AO2 PK WND 28027/0418 $
53144K9L2 9L220160321204012803/21/16 20:40:31  5-MIN K9L2 220440Z AUTO 27015G22KT 10SM BKN035 14/03 A3001 2220 47 2600 250/15G22 RMK AO2 PK WND 28027/0418 $
53144K9L2 9L220160321204512803/21/16 20:45:31  5-MIN K9L2 220445Z AUTO 27019G24KT 10SM BKN035 14/03 A3001 2220 47 2600 260/19G24 RMK AO2 PK WND 28027/0418 $
53144K9L2 9L220160321205012803/21/16 20:50:31  5-MIN K9L2 220450Z AUTO 26015G24KT 10SM BKN035 13/03 A3001 2220 48 2600 250/15G24 RMK AO2 PK WND 28027/0418 $
53144K9L2 9L220160321205514503/21/16 20:55:31  5-MIN K9L2 220455Z AUTO 26014G24KT 10SM OVC035 13/03 A3001 2220 48 2600 250/14G24 RMK AO2 PK WND 28027/0418 SLP156 T01330028 $
53144K9L2 9L220160321210010403/21/16 21:00:31  5-MIN K9L2 220500Z AUTO 27015KT 10SM OVC035 13/03 A3001 2220 48 2600 260/15 RMK AO2 $
53144K9L2 9L220160321210511003/21/16 21:05:31  5-MIN K9L2 220505Z AUTO 27017G21KT 10SM BKN035 13/02 A3001 2220 46 2600 260/17G21 RMK AO2 $
53144K9L2 9L220160321211011003/21/16 21:10:31  5-MIN K9L2 220510Z AUTO 27016G22KT 10SM BKN035 13/02 A3001 2220 48 2500 250/16G22 RMK AO2 $
53144K9L2 9L220160321211511003/21/16 21:15:31  5-MIN K9L2 220515Z AUTO 27016G25KT 10SM BKN035 13/02 A3001 2220 48 2500 250/16G25 RMK AO2 $
53144K9L2 9L220160321212011003/21/16 21:20:31  5-MIN K9L2 220520Z AUTO 27015G25KT 10SM SCT035 13/02 A3001 2220 48 2500 250/15G25 RMK AO2 $
53144K9L2 9L220160321212510403/21/16 21:25:31  5-MIN K9L2 220525Z AUTO 26015KT 10SM SCT035 13/02 A3001 2220 48 2500 250/15 RMK AO2 $
53144K9L2 9L220160321213010403/21/16 21:30:31  5-MIN K9L2 220530Z AUTO 27016KT 10SM FEW035 13/02 A3001 2220 48 2500 260/16 RMK AO2 $
53144K9L2 9L220160321213511003/21/16 21:35:31  5-MIN K9L2 220535Z AUTO 26016G22KT 10SM FEW035 12/02 A3001 2220 50 2400 250/16G22 RMK AO2 $
53144K9L2 9L220160321214010703/21/16 21:40:31  5-MIN K9L2 220540Z AUTO 26018G24KT 10SM CLR 12/02 A3001 2220 50 2400 250/18G24 RMK AO2 $
53144K9L2 9L220160321214510703/21/16 21:45:31  5-MIN K9L2 220545Z AUTO 27019G24KT 10SM CLR 12/02 A3001 2220 50 2500 250/19G24 RMK AO2 $
53144K9L2 9L220160321215010703/21/16 21:50:31  5-MIN K9L2 220550Z AUTO 27018G24KT 10SM CLR 12/02 A3001 2220 50 2500 250/18G24 RMK AO2 $
53144K9L2 9L220160322074012603/22/16 07:40:31  5-MIN K9L2 221540Z AUTO 27030G39KT 10SM CLR 11/M01 A3000 2230 44 2300 260/30G39 RMK AO2 PK WND 28041/1527 $
53144K9L2 9L220160322074512603/22/16 07:45:31  5-MIN K9L2 221545Z AUTO 27028G39KT 10SM CLR 11/M01 A3000 2230 44 2300 260/28G39 RMK AO2 PK WND 28041/1527 $
53144K9L2 9L220160322075012603/22/16 07:50:31  5-MIN K9L2 221550Z AUTO 27025G38KT 10SM CLR 11/M01 A3001 2220 44 2300 260/25G38 RMK AO2 PK WND 28041/1527 $
53144K9L2 9L220160322075514303/22/16 07:55:31  5-MIN K9L2 221555Z AUTO 27027G38KT 10SM CLR 11/M01 A3001 2220 44 2300 260/27G38 RMK AO2 PK WND 28041/1527 SLP162 T01111006 $
53144K9L2 9L220160322080012603/22/16 08:00:31  5-MIN K9L2 221600Z AUTO 27021G38KT 10SM CLR 11/M01 A3002 2210 44 2300 260/21G38 RMK AO2 PK WND 28034/1557 $
53144K9L2 9L220160322080512503/22/16 08:05:31  5-MIN K9L2 221605Z AUTO 27023G34KT 10SM CLR 12/00 A3002 2210 44 2400 260/23G34 RMK AO2 PK WND 28034/1557 $
53144K9L2 9L220160322081012603/22/16 08:10:31  5-MIN K9L2 221610Z AUTO 28019G30KT 10SM CLR 12/M01 A3003 2210 42 2400 270/19G30 RMK AO2 PK WND 28034/1557 $
53144K9L2 9L220160322081512603/22/16 08:15:31  5-MIN K9L2 221615Z AUTO 28020G27KT 10SM CLR 12/M01 A3003 2210 42 2400 260/20G27 RMK AO2 PK WND 28034/1557 $
53144K9L2 9L220160322082012603/22/16 08:20:31  5-MIN K9L2 221620Z AUTO 27023G30KT 10SM CLR 12/M01 A3002 2210 42 2400 260/23G30 RMK AO2 PK WND 28034/1557 $
53144K9L2 9L220160322082512603/22/16 08:25:31  5-MIN K9L2 221625Z AUTO 28022G32KT 10SM CLR 12/M01 A3003 2210 42 2400 270/22G32 RMK AO2 PK WND 28034/1557 $
53144K9L2 9L220160322083012603/22/16 08:30:31  5-MIN K9L2 221630Z AUTO 28024G32KT 10SM CLR 12/M01 A3003 2200 41 2400 260/24G32 RMK AO2 PK WND 28034/1557 $
53144K9L2 9L220160322083512603/22/16 08:35:31  5-MIN K9L2 221635Z AUTO 27024G32KT 10SM CLR 12/M01 A3002 2210 42 2400 260/24G32 RMK AO2 PK WND 28034/1557 $
53144K9L2 9L220160322084012603/22/16 08:40:31  5-MIN K9L2 221640Z AUTO 29018G31KT 10SM CLR 12/M01 A3003 2200 39 2400 280/18G31 RMK AO2 PK WND 28034/1557 $
53144K9L2 9L220160322084512603/22/16 08:45:31  5-MIN K9L2 221645Z AUTO 28022G28KT 10SM CLR 13/M01 A3003 2200 38 2500 270/22G28 RMK AO2 PK WND 28034/1557 $
53144K9L2 9L220160322085012603/22/16 08:50:31  5-MIN K9L2 221650Z AUTO 28025G33KT 10SM CLR 12/M01 A3004 2200 39 2400 260/25G33 RMK AO2 PK WND 28034/1557 $
53144K9L2 9L220160322085514303/22/16 08:55:31  5-MIN K9L2 221655Z AUTO 27025G33KT 10SM CLR 12/M01 A3004 2190 39 2400 260/25G33 RMK AO2 PK WND 28034/1557 SLP172 T01221011 $
53144K9L2 9L220160322090012603/22/16 09:00:31  5-MIN K9L2 221700Z AUTO 27020G31KT 10SM CLR 12/M01 A3004 2190 39 2400 260/20G31 RMK AO2 PK WND 27028/1659 $
53144K9L2 9L220160322090512603/22/16 09:05:31  5-MIN K9L2 221705Z AUTO 28017G29KT 10SM CLR 13/M02 A3004 2190 36 2500 260/17G29 RMK AO2 PK WND 27028/1659 $
53144K9L2 9L220160322091012603/22/16 09:10:31  5-MIN K9L2 221710Z AUTO 27024G31KT 10SM CLR 13/M01 A3004 2190 38 2500 260/24G31 RMK AO2 PK WND 28031/1710 $
53144K9L2 9L220160322091512603/22/16 09:15:31  5-MIN K9L2 221715Z AUTO 28023G31KT 10SM CLR 13/M02 A3004 2190 36 2500 270/23G31 RMK AO2 PK WND 28031/1710 $
53144K9L2 9L220160322092012603/22/16 09:20:31  5-MIN K9L2 221720Z AUTO 27021G30KT 10SM CLR 13/M02 A3004 2190 36 2500 260/21G30 RMK AO2 PK WND 28031/1710 $
53144K9L2 9L220160322092512603/22/16 09:25:31  5-MIN K9L2 221725Z AUTO 27023G30KT 10SM CLR 13/M02 A3004 2190 35 2500 260/23G30 RMK AO2 PK WND 28031/1710 $
53144K9L2 9L220160322093012603/22/16 09:30:31  5-MIN K9L2 221730Z AUTO 27022G30KT 10SM CLR 13/M02 A3004 2190 35 2500 250/22G30 RMK AO2 PK WND 28031/1710 $
53144K9L2 9L220160322093512603/22/16 09:35:31  5-MIN K9L2 221735Z AUTO 27022G28KT 10SM CLR 14/M02 A3004 2190 34 2600 260/22G28 RMK AO2 PK WND 28031/1710 $
53144K9L2 9L220160322094012603/22/16 09:40:31  5-MIN K9L2 221740Z AUTO 26020G28KT 10SM CLR 13/M02 A3005 2190 35 2500 250/20G28 RMK AO2 PK WND 28031/1710 $
53144K9L2 9L220160322094512603/22/16 09:45:31  5-MIN K9L2 221745Z AUTO 26024G32KT 10SM CLR 13/M02 A3005 2190 36 2500 250/24G32 RMK AO2 PK WND 26032/1742 $
53144K9L2 9L220160322095012603/22/16 09:50:31  5-MIN K9L2 221750Z AUTO 26021G32KT 10SM CLR 13/M02 A3005 2180 36 2500 250/21G32 RMK AO2 PK WND 27032/1746 $
53144K9L2 9L220160322095516103/22/16 09:55:31  5-MIN K9L2 221755Z AUTO 27024G32KT 10SM CLR 13/M02 A3004 2190 36 2500 260/24G32 RMK AO2 PK WND 27032/1755 SLP173 T01281017 10139 20094 53006 $
53144K9L2 9L220160322100012603/22/16 10:00:31  5-MIN K9L2 221800Z AUTO 26022G32KT 10SM CLR 13/M02 A3004 2190 36 2500 250/22G32 RMK AO2 PK WND 26030/1757 $
53144K9L2 9L220160322100512603/22/16 10:05:31  5-MIN K9L2 221805Z AUTO 27027G33KT 10SM CLR 13/M02 A3004 2190 36 2500 260/27G33 RMK AO2 PK WND 27033/1803 $
53144K9L2 9L220160322101012603/22/16 10:10:31  5-MIN K9L2 221810Z AUTO 27027G33KT 10SM CLR 13/M02 A3004 2190 36 2500 260/27G33 RMK AO2 PK WND 27033/1808 $
53144K9L2 9L220160322101512603/22/16 10:15:31  5-MIN K9L2 221815Z AUTO 27028G35KT 10SM CLR 13/M02 A3004 2190 35 2500 250/28G35 RMK AO2 PK WND 26035/1815 $
53144K9L2 9L220160322102012603/22/16 10:20:31  5-MIN K9L2 221820Z AUTO 27029G36KT 10SM CLR 13/M02 A3005 2180 35 2500 260/29G36 RMK AO2 PK WND 26036/1816 $
53144K9L2 9L220160322102512603/22/16 10:25:31  5-MIN K9L2 221825Z AUTO 27027G36KT 10SM CLR 13/M02 A3005 2180 35 2500 260/27G36 RMK AO2 PK WND 26036/1816 $
53144K9L2 9L220160322103012603/22/16 10:30:31  5-MIN K9L2 221830Z AUTO 27029G36KT 10SM CLR 14/M02 A3005 2180 34 2600 250/29G36 RMK AO2 PK WND 27036/1829 $
53144K9L2 9L220160322103512603/22/16 10:35:31  5-MIN K9L2 221835Z AUTO 27026G36KT 10SM CLR 14/M02 A3005 2180 32 2600 250/26G36 RMK AO2 PK WND 27036/1829 $
53144K9L2 9L220160322104012603/22/16 10:40:31  5-MIN K9L2 221840Z AUTO 27027G37KT 10SM CLR 13/M02 A3005 2180 34 2500 260/27G37 RMK AO2 PK WND 27037/1838 $
53144K9L2 9L220160322104512603/22/16 10:45:31  5-MIN K9L2 221845Z AUTO 26026G37KT 10SM CLR 14/M02 A3005 2180 32 2600 250/26G37 RMK AO2 PK WND 27037/1838 $
53144K9L2 9L220160322105015103/22/16 10:50:31  5-MIN K9L2 221850Z AUTO 27026G33KT 10SM CLR 14/M02 A27G34KT 10SM CLR 14/M03 A3004 2190 30 2700 250/27G34 RMK AO2 PK WND 28034/1906 $
53144K9L2 9L220160322111512603/22/16 11:15:31  5-MIN K9L2 221915Z AUTO 27028G34KT 10SM CLR 14/M03 A3004 2190 30 2700 260/28G34 RMK AO2 PK WND 28034/1906 $
53144K9L2 9L220160322112012603/22/16 11:20:31  5-MIN K9L2 221920Z AUTO 27027G35KT 10SM CLR 14/M03 A3003 2200 29 2700 250/27G35 RMK AO2 PK WND 28035/1918 $
53144K9L2 9L220160322112513303/22/16 11:25:31  5-MIN K9L2 221925Z AUTO 26032G38KT 10SM CLR 15/M03 A3002 2210 28 2800 250/32G38 RMK AO2 PK WND 27038/1924 PRESFR $
53144K9L2 9L220160322113012603/22/16 11:30:31  5-MIN K9L2 221930Z AUTO 26032G38KT 10SM CLR 14/M03 A3001 2220 29 2700 250/32G38 RMK AO2 PK WND 26038/1929 $
53144K9L2 9L220160322113512603/22/16 11:35:31  5-MIN K9L2 221935Z AUTO 26029G38KT 10SM CLR 14/M03 A3001 2220 30 2700 250/29G38 RMK AO2 PK WND 26038/1933 $
53144K9L2 9L220160322114012603/22/16 11:40:31  5-MIN K9L2 221940Z AUTO 26030G40KT 10SM CLR 14/M03 A3001 2220 30 2700 250/30G40 RMK AO2 PK WND 25040/1940 $
53144K9L2 9L220160322114512603/22/16 11:45:31  5-MIN K9L2 221945Z AUTO 26032G41KT 10SM CLR 14/M03 A3001 2220 30 2700 250/32G41 RMK AO2 PK WND 27041/1941 $
53144K9L2 9L220160322115012603/22/16 11:50:31  5-MIN K9L2 221950Z AUTO 26027G41KT 10SM CLR 14/M03 A3002 2210 30 2700 250/27G41 RMK AO2 PK WND 27041/1941 $
53144K9L2 9L220160322115514303/22/16 11:55:31  5-MIN K9L2 221955Z AUTO 26030G39KT 10SM CLR 14/M03 A3002 2210 30 2700 250/30G39 RMK AO2 PK WND 27041/1941 SLP165 T01441028 $
53144K9L2 9L220160322120012603/22/16 12:00:31  5-MIN K9L2 222000Z AUTO 26028G39KT 10SM CLR 14/M03 A3002 2210 30 2700 240/28G39 RMK AO2 PK WND 26037/1957 $
53144K9L2 9L220160322120512603/22/16 12:05:31  5-MIN K9L2 222005Z AUTO 25026G37KT 10SM CLR 15/M03 A3002 2210 29 2800 240/26G37 RMK AO2 PK WND 26037/1957 $
53144K9L2 9L220160322121012603/22/16 12:10:31  5-MIN K9L2 222010Z AUTO 26028G36KT 10SM CLR 15/M03 A3001 2220 29 2800 240/28G36 RMK AO2 PK WND 26037/1957 $
53144K9L2 9L220160322121512603/22/16 12:15:31  5-MIN K9L2 222015Z AUTO 25029G38KT 10SM CLR 15/M03 A3001 2220 29 2800 240/29G38 RMK AO2 PK WND 25038/2015 $
53144K9L2 9L220160322122012603/22/16 12:20:31  5-MIN K9L2 222020Z AUTO 25026G38KT 10SM CLR 16/M03 A3000 2220 28 2800 240/26G38 RMK AO2 PK WND 25038/2015 $
53144K9L2 9L220160322122512603/22/16 12:25:31  5-MIN K9L2 222025Z AUTO 27026G36KT 10SM CLR 16/M03 A3000 2230 27 2800 250/26G36 RMK AO2 PK WND 25038/2015 $
53144K9L2 9L220160322123012603/22/16 12:30:31  5-MIN K9L2 222030Z AUTO 26027G35KT 10SM CLR 16/M03 A3000 2230 26 2900 240/27G35 RMK AO2 PK WND 25038/2015 $
53144K9L2 9L220160322123512603/22/16 12:35:31  5-MIN K9L2 222035Z AUTO 25029G37KT 10SM CLR 16/M03 A3000 2230 27 2800 230/29G37 RMK AO2 PK WND 25038/2015 $
53144K9L2 9L220160322124012603/22/16 12:40:31  5-MIN K9L2 222040Z AUTO 25028G37KT 10SM CLR 16/M03 A3000 2230 28 2800 240/28G37 RMK AO2 PK WND 25038/2015 $
53144K9L2 9L220160322124512603/22/16 12:45:31  5-MIN K9L2 222045Z AUTO 26026G37KT 10SM CLR 16/M03 A3001 2220 27 2800 240/26G37 RMK AO2 PK WND 25038/2015 $
53144K9L2 9L220160322125012603/22/16 12:50:31  5-MIN K9L2 222050Z AUTO 25019G34KT 10SM CLR 16/M03 A3001 2220 27 2800 240/19G34 RMK AO2 PK WND 25038/2015 $
53144K9L2 9L220160322125514903/22/16 12:55:31  5-MIN K9L2 222055Z AUTO 26020G31KT 10SM CLR 16/M03 A3001 2220 26 2900 240/20G31 RMK AO2 PK WND 25038/2015 SLP161 T01611033 51022 $
53144K9L2 9L220160322130012603/22/16 13:00:31  5-MIN K9L2 222100Z AUTO 25022G29KT 10SM CLR 16/M03 A3001 2220 26 2900 240/22G29 RMK AO2 PK WND 25029/2059 $
53144K9L2 9L220160322130512603/22/16 13:05:31  5-MIN K9L2 222105Z AUTO 25015G29KT 10SM CLR 16/M03 A3002 2220 26 2900 240/15G29 RMK AO2 PK WND 25029/2059 $
53144K9L2 9L220160322131012603/22/16 13:10:31  5-MIN K9L2 222110Z AUTO 27019G27KT 10SM CLR 16/M03 A3002 2210 26 2900 250/19G27 RMK AO2 PK WND 25029/2059 $
53144K9L2 9L220160322131512603/22/16 13:15:31  5-MIN K9L2 222115Z AUTO 26019G29KT 10SM CLR 17/M03 A3001 2220 25 3000 240/19G29 RMK AO2 PK WND 27029/2115 $
53144K9L2 9L220160322132012603/22/16 13:20:31  5-MIN K9L2 222120Z AUTO 26019G29KT 10SM CLR 16/M03 A3001 2220 27 2900 240/19G29 RMK AO2 PK WND 27029/2116 $
53144K9L2 9L220160322132512603/22/16 13:25:31  5-MIN K9L2 222125Z AUTO 27023G29KT 10SM CLR 16/M03 A3001 2220 26 2900 260/23G29 RMK AO2 PK WND 29029/2124 $
53144K9L2 9L220160322133012603/22/16 13:30:31  5-MIN K9L2 222130Z AUTO 26018G29KT 10SM CLR 16/M03 A3001 2220 27 2800 250/18G29 RMK AO2 PK WND 26029/2127 $
53144K9L2 9L220160322133512603/22/16 13:35:31  5-MIN K9L2 222135Z AUTO 27023G31KT 10SM CLR 16/M03 A3000 2230 26 2900 260/23G31 RMK AO2 PK WND 28031/2134 $
53144K9L2 9L220160322134012603/22/16 13:40:31  5-MIN K9L2 222140Z AUTO 27024G31KT 10SM CLR 16/M03 A3000 2230 26 2900 260/24G31 RMK AO2 PK WND 28031/2134 $
53144K9L2 9L220160322134512603/22/16 13:45:31  5-MIN K9L2 222145Z AUTO 28023G30KT 10SM CLR 16/M03 A3000 2230 26 2900 270/23G30 RMK AO2 PK WND 28031/2134 $
53144K9L2 9L220160322135012603/22/16 13:50:31  5-MIN K9L2 222150Z AUTO 27028G36KT 10SM CLR 16/M03 A3000 2230 28 2900 260/28G36 RMK AO2 PK WND 28036/2150 $
53144K9L2 9L220160322135514303/22/16 13:55:31  5-MIN K9L2 222155Z AUTO 28025G36KT 10SM CLR 16/M03 A2999 2240 26 2900 270/25G36 RMK AO2 PK WND 28036/2150 SLP153 T01611033 $
53144K9L2 9L220160322140012603/22/16 14:00:31  5-MIN K9L2 222200Z AUTO 28025G33KT 10SM CLR 16/M03 A2999 2240 26 2900 270/25G33 RMK AO2 PK WND 28032/2200 $
53144K9L2 9L220160322140513403/22/16 14:05:31  5-MIN K9L2 222205Z AUTO 29030G36KT 10SM CLR 16/M03 A2998 2250 26 2900 270/30G 270/32G42 RMK AO2 PK WND 29042/2221 $
53144K9L2 9L220160322143012603/22/16 14:30:31  5-MIN K9L2 222230Z AUTO 29033G42KT 10SM CLR 16/M03 A2996 2260 28 2900 270/33G42 RMK AO2 PK WND 29042/2221 $
53144K9L2 9L220160322143512603/22/16 14:35:31  5-MIN K9L2 222235Z AUTO 28032G42KT 10SM CLR 16/M03 A2996 2270 28 2900 270/32G42 RMK AO2 PK WND 29042/2235 $
53144K9L2 9L220160322144012603/22/16 14:40:31  5-MIN K9L2 222240Z AUTO 29031G44KT 10SM CLR 16/M03 A2996 2270 28 2900 270/31G44 RMK AO2 PK WND 28044/2236 $
53144K9L2 9L220160322144512603/22/16 14:45:31  5-MIN K9L2 222245Z AUTO 29035G44KT 10SM CLR 16/M03 A2995 2270 28 2900 270/35G44 RMK AO2 PK WND 28044/2236 $
53144K9L2 9L220160322145012603/22/16 14:50:31  5-MIN K9L2 222250Z AUTO 28035G44KT 10SM CLR 16/M03 A2995 2270 28 2900 260/35G44 RMK AO2 PK WND 28044/2249 $
53144K9L2 9L220160322145514303/22/16 14:55:31  5-MIN K9L2 222255Z AUTO 29030G44KT 10SM CLR 16/M03 A2995 2270 28 2900 270/30G44 RMK AO2 PK WND 28044/2249 SLP141 T01561028 $
53144K9L2 9L220160322150012603/22/16 15:00:31  5-MIN K9L2 222300Z AUTO 29035G44KT 10SM CLR 16/M03 A2995 2270 27 2900 270/35G44 RMK AO2 PK WND 29044/2300 $
53144K9L2 9L220160322150512603/22/16 15:05:31  5-MIN K9L2 222305Z AUTO 28032G44KT 10SM CLR 16/M03 A2995 2270 26 3000 270/32G44 RMK AO2 PK WND 29044/2300 $
53144K9L2 9L220160322151012603/22/16 15:10:31  5-MIN K9L2 222310Z AUTO 28031G43KT 10SM CLR 16/M04 A2995 2270 26 2900 270/31G43 RMK AO2 PK WND 29044/2300 $
53144K9L2 9L220160322151512603/22/16 15:15:31  5-MIN K9L2 222315Z AUTO 28032G42KT 10SM CLR 16/M04 A2995 2270 26 2900 270/32G42 RMK AO2 PK WND 29044/2300 $
53144K9L2 9L220160322152012603/22/16 15:20:31  5-MIN K9L2 222320Z AUTO 28035G43KT 10SM CLR 16/M04 A2995 2280 26 2900 270/35G43 RMK AO2 PK WND 29044/2300 $
53144K9L2 9L220160322152512603/22/16 15:25:31  5-MIN K9L2 222325Z AUTO 28032G43KT 10SM CLR 15/M04 A2995 2280 27 2800 270/32G43 RMK AO2 PK WND 29044/2300 $
53144K9L2 9L220160322153012603/22/16 15:30:31  5-MIN K9L2 222330Z AUTO 28034G42KT 10SM CLR 15/M04 A2995 2270 27 2800 260/34G42 RMK AO2 PK WND 29044/2300 $
53144K9L2 9L220160322153512603/22/16 15:35:31  5-MIN K9L2 222335Z AUTO 28031G41KT 10SM CLR 15/M04 A2995 2270 25 2800 270/31G41 RMK AO2 PK WND 29044/2300 $
53144K9L2 9L220160322154012603/22/16 15:40:31  5-MIN K9L2 222340Z AUTO 28033G40KT 10SM CLR 15/M04 A2995 2270 27 2800 260/33G40 RMK AO2 PK WND 29044/2300 $
53144K9L2 9L220160322154512603/22/16 15:45:31  5-MIN K9L2 222345Z AUTO 28028G39KT 10SM CLR 15/M04 A2996 2270 27 2800 260/28G39 RMK AO2 PK WND 29044/2300 $
53144K9L2 9L220160322155012603/22/16 15:50:31  5-MIN K9L2 222350Z AUTO 28030G39KT 10SM CLR 15/M04 A2996 2270 27 2800 270/30G39 RMK AO2 PK WND 29044/2300 $
53144K9L2 9L220160322155516103/22/16 15:55:31  5-MIN K9L2 222355Z AUTO 28025G38KT 10SM CLR 15/M04 A2996 2270 27 2800 270/25G38 RMK AO2 PK WND 29044/2300 SLP144 T01501039 10167 20128 58010 $
53144K9L2 9L220160322160012603/22/16 16:00:31  5-MIN K9L2 230000Z AUTO 28030G39KT 10SM CLR 15/M04 A2996 2260 27 2800 270/30G39 RMK AO2 PK WND 27038/0000 $
53144K9L2 9L220160322160512603/22/16 16:05:31  5-MIN K9L2 230005Z AUTO 29027G39KT 10SM CLR 15/M04 A2996 2260 27 2800 270/27G39 RMK AO2 PK WND 27038/0000 $
53144K9L2 9L220160322161013003/22/16 16:10:31  5-MIN K9L2 230010Z AUTOAUTO 28031G38KT 10SM CLR 15/M04 A2996 2260 25 2800 270/31G38 RMK AO2 PK WND 29038/0020 $
53144K9L2 9L220160322162512603/22/16 16:25:31  5-MIN K9L2 230025Z AUTO 28031G39KT 10SM CLR 14/M04 A2996 2260 26 2800 270/31G39 RMK AO2 PK WND 28039/0023 $
53144K9L2 9L220160322163012603/22/16 16:30:31  5-MIN K9L2 230030Z AUTO 28028G39KT 10SM CLR 14/M04 A2997 2260 26 2800 270/28G39 RMK AO2 PK WND 28039/0023 $
53144K9L2 9L220160322163512603/22/16 16:35:31  5-MIN K9L2 230035Z AUTO 29028G36KT 10SM CLR 14/M04 A2996 2260 28 2800 280/28G36 RMK AO2 PK WND 28039/0023 $
53144K9L2 9L220160322164012603/22/16 16:40:31  5-MIN K9L2 230040Z AUTO 28028G36KT 10SM CLR 14/M04 A2997 2260 28 2800 270/28G36 RMK AO2 PK WND 28039/0023 $
53144K9L2 9L220160322164512603/22/16 16:45:31  5-MIN K9L2 230045Z AUTO 28026G36KT 10SM CLR 14/M04 A2997 2260 28 2800 270/26G36 RMK AO2 PK WND 28039/0023 $
53144K9L2 9L220160322165012603/22/16 16:50:31  5-MIN K9L2 230050Z AUTO 29027G34KT 10SM CLR 14/M04 A2997 2260 28 2800 270/27G34 RMK AO2 PK WND 28039/0023 $
53144K9L2 9L220160322165514303/22/16 16:55:31  5-MIN K9L2 230055Z AUTO 28026G37KT 10SM CLR 14/M04 A2997 2260 29 2700 270/26G37 RMK AO2 PK WND 28039/0023 SLP147 T01391039 $
53144K9L2 9L220160322170012603/22/16 17:00:31  5-MIN K9L2 230100Z AUTO 28028G37KT 10SM CLR 14/M04 A2997 2260 29 2700 270/28G37 RMK AO2 PK WND 28036/0057 $
53144K9L2 9L220160322170512603/22/16 17:05:31  5-MIN K9L2 230105Z AUTO 28027G36KT 10SM CLR 14/M04 A2997 2260 27 2700 270/27G36 RMK AO2 PK WND 28036/0057 $
53144K9L2 9L220160322171012603/22/16 17:10:31  5-MIN K9L2 230110Z AUTO 28026G35KT 10SM CLR 14/M04 A2997 2260 27 2700 270/26G35 RMK AO2 PK WND 28036/0057 $
53144K9L2 9L220160322171512603/22/16 17:15:31  5-MIN K9L2 230115Z AUTO 28023G35KT 10SM CLR 14/M04 A2997 2260 29 2700 270/23G35 RMK AO2 PK WND 28036/0057 $
53144K9L2 9L220160322172012603/22/16 17:20:31  5-MIN K9L2 230120Z AUTO 28025G32KT 10SM CLR 13/M04 A2997 2260 30 2600 260/25G32 RMK AO2 PK WND 28036/0057 $
53144K9L2 9L220160322172512603/22/16 17:25:31  5-MIN K9L2 230125Z AUTO 28026G34KT 10SM CLR 13/M04 A2997 2260 30 2600 270/26G34 RMK AO2 PK WND 28036/0057 $
53144K9L2 9L220160322173012603/22/16 17:30:31  5-MIN K9L2 230130Z AUTO 28028G34KT 10SM CLR 13/M04 A2997 2260 30 2600 270/28G34 RMK AO2 PK WND 28036/0057 $
53144K9L2 9L220160322173512603/22/16 17:35:31  5-MIN K9L2 230135Z AUTO 28026G34KT 10SM CLR 13/M04 A2997 2260 30 2600 270/26G34 RMK AO2 PK WND 28036/0057 $
53144K9L2 9L220160322174012603/22/16 17:40:31  5-MIN K9L2 230140Z AUTO 28024G33KT 10SM CLR 13/M04 A2997 2260 31 2600 270/24G33 RMK AO2 PK WND 28036/0057 $
53144K9L2 9L220160322174512603/22/16 17:45:31  5-MIN K9L2 230145Z AUTO 28023G33KT 10SM CLR 13/M04 A2997 2260 31 2600 270/23G33 RMK AO2 PK WND 28036/0057 $
53144K9L2 9L220160322175012603/22/16 17:50:31  5-MIN K9L2 230150Z AUTO 28024G33KT 10SM CLR 13/M04 A2997 2250 30 2600 270/24G33 RMK AO2 PK WND 28036/0057 $
53144K9L2 9L220160322175514303/22/16 17:55:31  5-MIN K9L2 230155Z AUTO 28022G31KT 10SM CLR 12/M04 A2997 2250 32 2500 270/22G31 RMK AO2 PK WND 28036/0057 SLP151 T01221039 $
53144K9L2 9L220160322180012603/22/16 18:00:31  5-MIN K9L2 230200Z AUTO 28021G30KT 10SM CLR 12/M04 A2997 2250 32 2500 270/21G30 RMK AO2 PK WND 28030/0200 $
53144K9L2 9L220160322180512603/22/16 18:05:31  5-MIN K9L2 230205Z AUTO 28023G31KT 10SM CLR 12/M04 A2997 2250 32 2500 270/23G31 RMK AO2 PK WND 28031/0201 $
53144K9L2 9L220160322181012603/22/16 18:10:31  5-MIN K9L2 230210Z AUTO 29020G31KT 10SM CLR 12/M04 A2998 2250 32 2500 270/20G31 RMK AO2 PK WND 28031/0201 $
53144K9L2 9L220160322181512603/22/16 18:15:31  5-MIN K9L2 230215Z AUTO 29021G29KT 10SM CLR 12/M04 A2998 2250 31 2500 270/21G29 RMK AO2 PK WND 28031/0201 $
53144K9L2 9L220160322182012603/22/16 18:20:31  5-MIN K9L2 230220Z AUTO 28018G28KT 10SM CLR 12/M04 A2998 2250 32 2400 270/18G28 RMK AO2 PK WND 28031/0201 $
53144K9L2 9L220160322182512603/22/16 18:25:31  5-MIN K9L2 230225Z AUTO 28020G26KT 10SM CLR 12/M04 A2998 2250 33 2400 270/20G26 RMK AO2 PK WND 28031/0201 $
53144K9L2 9L220160322183012603/22/16 18:30:31  5-MIN K9L2 230230Z AUTO 28019G26KT 10SM CLR 12/M03 A2998 2240 35 2400 270/19G26 RMK AO2 PK WND 28031/0201 $
53144K9L2 9L220160322183512603/22/16 18:35:31  5-MIN K9L2 230235Z AUTO 28017G26KT 10SM CLR 12/M03 A2999 2240 35 2400 260/17G26 RMK AO2 PK WND 28031/0201 $
53144K9L2 9L220160322184012003/22/16 18:40:31  5-MIN K9L2 230240Z AUTO 28016KT 10SM CLR 12/M03 A2999 2240 35 2400 260/16 RMK AO2 PK WND 28031/0201 $
53144K9L2 9L220160322184512003/22/16 18:45:31  5-MIN K9L2 230245Z AUTO 28015KT 10SM CLR 12/M03 A2999 2240 35 2400 260/15 RMK AO2 PK WND 28031/0201 $
53144K9L2 9L220160322185012003/22/16 18:50:31  5-MIN K9L2 230250Z AUTO 28014KT 10SM CLR 11/M03 A2999 2240 36 2300 270/14 RMK AO2 PK WND 28031/0201 $
53144K9L2 9L220160322185514303/22/16 18:55:31  5-MIN K9L2 230255Z AUTO 28013KT 10SM CLR 11/M04 A2999 2240 34 2300 270/13 RMK AO2 PK WND 28031/0201 SLP157 T01111039 55017 $
53144K9L2 9L220160322190010203/22/16 19:00:31  5-MIN K9L2 230300Z AUTO 28013KT 10SM CLR 11/M04 A2999 2230 34 2300 270/13 RMK AO2 $
53144K9L2 9L220160322190510203/22/16 19:05:31  5-MIN K9L2 230305Z AUTO 28013KT 10SM CLR 11/M04 A3000 2230 34 2300 270/13 RMK AO2 $
53144K9L2 9L220160322191010203/22/16 19:10:31  5-MIN K9L2 230310Z AUTO 28012KT 10SM CLR 11/M04 A3000 2230 34 2300 270/12 RMK AO2 $
53144K9L2 9L220160322191510203/22/16 19:15:31  5-MIN K9L2 230315Z AUTO 28012KT 10SM CLR 11/M04 A3000 2230 34 2300 270/12 RMK AO2 $
53144K9L2 9L220160322192010203/22/16 19:20:31  5-MIN K9L2 230320Z AUTO 28010KT 10SM CLR 11/M04 A3001 2220 34 2300 270/10 RMK AO2 $
53144K9L2 9L220160322192510203/22/16 19:25:31  5-MIN K9L2 230325Z AUTO 29010KT 10SM CLR 11/M04 A3001 2220 34 2300 270/10 RMK AO2 $
53144K9L2 9L220160322193010203/22/16 19:30:31  5-MIN K9L2 230330Z AUTO 28009KT 10SM CLR 11/M04 A3001 2220 34 2300 270/09 RMK AO2 $
53144K9L2 9L220160322193510203/22/16 19:35:31  5-MIN K9L2 230335Z AUTO 29009KT 10SM CLR 11/M04 A3001 2220 34 2300 280/09 RMK AO2 $
53144K9L2 9L220160323055010803/23/16 05:50:31  5-MIN K9L2 231350Z AUTO 04003KT 10SM CLR 00/M06 A3019 2050 63 800 020/03 RMK AO2 FZRANO $
53144K9L2 9L220160323055512503/23/16 05:55:31  5-MIN K9L2 231355Z AUTO 00000KT 10SM CLR 00/M06 A3019 2060 63 800 000/00 RMK AO2 SLP233 T00001061 FZRANO $
53144K9L2 9L220160323060010903/23/16 06:00:31  5-MIN K9L2 231400Z AUTO 00000KT 10SM CLR M01/M07 A3019 2050 63 700 000/00 RMK AO2 FZRANO $
53144K9L2 9L220160323060510903/23/16 06:05:31  5-MIN K9L2 231405Z AUTO 00000KT 10SM CLR M01/M06 A3020 2050 66 700 000/00 RMK AO2 FZRANO $
53144K9L2 9L220160323061010903/23/16 06:10:31  5-MIN K9L2 231410Z AUTO 00000KT 10SM CLR M01/M06 A3020 2040 66 700 000/00 RMK AO2 FZRANO $
53144K9L2 9L220160323061510803/23/16 06:15:31  5-MIN K9L2 231415Z AUTO 33003KT 10SM CLR 01/M06 A3020 2050 61 800 320/03 RMK AO2 FZRANO $
53144K9L2 9L220160323062010803/23/16 06:20:31  5-MIN K9L2 231420Z AUTO 32005KT 10SM CLR 01/M06 A3020 2050 61 900 310/05 RMK AO2 FZRANO $
53144K9L2 9L220160323062510803/23/16 06:25:31  5-MIN K9L2 231425Z AUTO 29003KT 10SM CLR 01/M06 A3020 2040 61 900 280/03 RMK AO2 FZRANO $
53144K9L2 9L220160323063010803/23/16 06:30:31  5-MIN K9L2 231430Z AUTO 29005KT 10SM CLR 01/M06 A3020 2040 61 900 280/05 RMK AO2 FZRANO $
53144K9L2 9L220160323063510903/23/16 06:35:31  5-MIN K9L2 231435Z AUTO 31004KT 10SM CLR 02/M06 A3021 2040 56 1000 290/04 RMK AO2 FZRANO $
53144K9L2 9L220160323064010203/23/16 06:40:31  5-MIN K9L2 231440Z AUTO 30003KT 10SM CLR 03/M05 A3021 2040 56 1100 290/03 RMK AO2 $
53144K9L2 9L220160323064510203/23/16 06:45:31  5-MIN K9L2 231445Z AUTO 29003KT 10SM CLR 03/M06 A3021 2040 52 1200 280/03 RMK AO2 $
53144K9L2 9L220160323065010203/23/16 06:50:31  5-MIN K9L2 231450Z AUTO 28003KT 10SM CLR 04/M06 A3021 2030 48 1300 270/03 RMK AO2 $
53144K9L2 9L220160323065512503/23/16 06:55:31  5-MIN K9L2 231455Z AUTO 00000KT 10SM CLR 05/M06 A3021 2030 46 1400 000/00 RMK AO2 SLP238 T00501056 53006 $
53144K9L2 9L220160323070010203/23/16 07:00:31  5-MIN K9L2 231500Z AUTO 33003KT 10SM CLR 06/M06 A3021 2030 44 1400 310/03 RMK AO2 $
53144K9L2 9L220160323070510203/23/16 07:05:31  5-MIN K9L2 231505Z AUTO 33003KT 10SM CLR 07/M06 A3021 2030 41 1600 320/03 RMK AO2 $
53144K9L2 9L220160323071010203/23/16 07:10:31  5-MIN K9L2 231510Z AUTO 34004KT 10SM CLR 07/M06 A3022 2030 40 1600 330/04 RMK AO2 $
53144K9L2 9L220160323071510203/23/16 07:15:31  5-MIN K9L2 231515Z AUTO VRB03KT 10SM CLR 08/M06 A3022 2020 38 1700 VRB/03 RMK AO2 $
53144K9L2 9L220160323072010203/23/16 07:20:31  5-MIN K9L2 231520Z AUTO 00000KT 10SM CLR 05/M06 A3023 2020 46 1300 000/00 RMK AO2 $
53144K9L2 9L220160323072510203/23/16 07:25:31  5-MIN K9L2 231525Z AUTO 00000KT 10SM CLR 05/M06 A3023 2020 46 1300 000/00 RMK AO2 $
53144K9L2 9L220160323073010203/23/16 07:30:31  5-MIN K9L2 231530Z AUTO 00000KT 10SM CLR 04/M06 A3023 2020 48 1300 000/00 RMK AO2 $
53144K9L2 9L220160323073510203/23/16 07:35:31  5-MIN K9L2 231535Z AUTO 00000KT 10SM CLR 05/M06 A3023 2020 46 1300 000/00 RMK AO2 $
53144K9L2 9L220160323074010203/23/16 07:40:31  5-MIN K9L2 231540Z AUTO 00000KT 10SM CLR 06/M06 A3023 2010 43 1500 000/00 RMK AO2 $
53144K9L2 9L220160323074510203/23/16 07:45:31  5-MIN K9L2 231545Z AUTO 00000KT 10SM CLR 07/M06 A3023 2020 41 1500 000/00 RMK AO2 $
53144K9L2 9L220160323075010203/23/16 07:50:31  5-MIN K9L2 231550Z AUTO 00000KT 10SM CLR 07/M05 A3023 2020 41 1600 000/00 RMK AO2 $
53144K9L2 9L220160323075511903/23/16 07:55:31  5-MIN K9L2 231555Z AUTO 14006KT 10SM CLR 07/M05 A3024 2010 43 1500 130/06 RMK AO2 SLP245 T00671050 $
53144K9L2 9L220160323080010203/23/16 08:00:31  5-MIN K9L2 231600Z AUTO 15006KT 10SM CLR 06/M05 A3024 2010 45 1500 140/06 RMK AO2 $
53144K9L2 9L220160323080510203/23/16 08:05:31  5-MIN K9L2 231605Z AUTO 00000KT 10SM CLR 07/M05 A3024 2010 41 1600 000/00 RMK AO2 $
53144K9L2 9L220160323081010203/23/16 08:10:31  5-MIN K9L2 231610Z AUTO 16003KT 10SM CLR 07/M06 A3024 2010 40 1600 150/03 RMK AO2 $
53144K9L2 9L220160323081510203/23/16 08:15:31  5-MIN K9L2 231615Z AUTO 18004KT 10SM CLR 08/M05 A3024 2010 40 1700 170/04 RMK AO2 $
53144K9L2 9L220160323082010203/23/16 08:20:31  5-MIN K9L2 231620Z AUTO 00000KT 10SM CLR 08/M05 A3024 2010 40 1700 000/00 RMK AO2 $
53144K9L2 9L220160323082510203/23/16 08:25:31  5-MIN K9L2 231625Z AUTO 00000KT 10SM CLR 08/M05 A3024 2000 38 1700 000/00 RMK AO2 $
53144K9L2 9L220160323083010203/23/16 08:30:31  5-MIN K9L2 231630Z AUTO 00000KT 10SM CLR 09/M06 A3025 2000 34 1800 000/00 RMK AO2 $
53144K9L2 9L220160323083510203/23/16 08:35:31  5-MIN K9L2 231635Z AUTO 00000KT 10SM CLR 10/M06 A3025 2000 31 1900 000/00 RMK AO2 $
53144K9L2 9L220160323084010203/23/16 08:40:31  5-MIN K9L2 231640Z AUTO 00000KT 10SM CLR 11/M07 A3025 2000 29 2000 000/00 RMK AO2 $
53144K9L2 9L220160323084510203/23/16 08:45:31  5-MIN K9L2 231645Z AUTO 00000KT 10SM CLR 11/M07 A3025 2000 28 2000 000/00 RMK AO2 $
53144K9L2 9L220160323085010203/23/16 08:50:31  5-MIN K9L2 231650Z AUTO 16004KT 10SM CLR 11/M07 A3025 2000 28 2000 140/04 RMK AO2 $
53144K9L2 9L220160323085511903/23/16 08:55:31  5-MIN K9L2 231655Z AUTO 17003KT 10SM CLR 11/M06 A3025 2000 30 2000 160/03 RMK AO2 SLP249 T01061061 $
53144K9L2 9L220160323090010203/23/16 09:00:31  5-MIN K9L2 231700Z AUTO 00000KT 10SM CLR 11/M07 A3026 1990 27 2000 000/00 RMK AO2 $
53144K9L2 9L220160323090510203/23/16 09:05:31  5-MIN K9L2 231705Z AUTO 15003KT 10SM CLR 12/M08 A3026 1990 24 2100 140/03 RMK AO2 $
53144K9L2 9L220160323091010203/23/16 09:10:31  5-MIN K9L2 231710Z AUTO 15003KT 10SM CLR 12/M08 A3026 1990 24 2100 140/03 RMK AO2 $
53144K9L2 9L220160323091510203/23/16 09:15:31  5-MIN K9L2 231715Z AUTO 14004KT 10SM CLR 12/M09 A3026 1990 22 2200 130/04 RMK AO2 $
53144K9L2 9L220160323092010203/23/16 09:20:31  5-MIN K9L2 231720Z AUTO 14005KT 10SM CLR 13/M09 A3026 1990 21 2200 120/05 RMK AO2 $
53144K9L2 9L220160323092510203/23/16 09:25:31  5-MIN K9L2 231725Z AUTO 15004KT 10SM CLR 12/M09 A3026 1990 22 2200 130/04 RMK AO2 $
53144K9L2 9L220160323093010203/23/16 09:30:31  5-MIN K9L2 231730Z AUTO 18007KT 10SM CLR 13/M08 A3026 1990 23 2200 170/07 RMK AO2 $
53144K9L2 9L220160323093510203/23/16 09:35:31  5-MIN K9L2 231735Z AUTO 18005KT 10SM CLR 13/M08 A3026 1990 21 2300 170/05 RMK AO2 $
53144K9L2 9L220160323094010203/23/16 09:40:31  5-MIN K9L2 231740Z AUTO 17004KT 10SM CLR 13/M09 A3027 1980 20 2300 160/04 RMK AO2 $
53144K9L2 9L220160323094510203/23/16 09:45:31  5-MIN K9L2 231745Z AUTO 00000KT 10SM CLR 13/M09 A3027 1990 19 2300 000/00 RMK AO2 $
53144K9L2 9L220160323095010203/23/16 09:50:31  5-MIN K9L2 231750Z AUTO 20003KT 10SM CLR 13/M10 A3026 1990 19 2300 180/03 RMK AO2 $
53144K9L2 9L220160323095513703/23/16 09:55:31  5-MIN K9L2 231755Z AUTO 16004KT 10SM CLR 14/M11 A3026 1990 17 2400 140/04 RMK AO2 SLP251 T01391106 10139 21011 53015 $
53144K9L2 9L220160323100010203/23/16 10:00:31  5-MIN K9L2 231800Z AUTO 00000KT 10SM CLR 14/M10 A3027 1980 18 2400 000/00 RMK AO2 $
53144K9L2 9L220160323100510203/23/16 10:05:31  5-MIN K9L2 231805Z AUTO 17004KT 10SM CLR 15/M09 A3026 1990 17 2500 150/04 RMK AO2 $
53144K9L2 9L220160323101010203/23/16 10:10:31  5-MIN K9L2 231810Z AUTO VRB04KT 10SM CLR 14/M10 A3026 1990 17 2400 VRB/04 RMK AO2 $
53144K9L2 9L220160323101510203/23/16 10:15:31  5-MIN K9L2 231815Z AUTO 00000KT 10SM CLR 15/M11 A3026 1990 16 2500 000/00 RMK AO2 $
53144K9L2 9L220160323102010203/23/16 10:20:31  5-MIN K9L2 231820Z AUTO 19006KT 10SM CLR 15/M10 A3026 1990 17 2500 170/06 RMK AO2 $
53144K9L2 9L220160323102510203/23/16 10:25:31  5-MIN K9L2 231825Z AUTO 19007KT 10SM CLR 16/M10 A3026 1990 16 2600 170/07 RMK AO2 $
53144K9L2 9L220160323103010203/23/16 10:30:31  5-MIN K9L2 231830Z AUTO 20008KT 10SM CLR 16/M10 A3026 1990 16 2600 190/08 RMK AO2 $
53144K9L2 9L220160323103510203/23/16 10:35:31  5-MIN K9L2 231835Z AUTO VRB04KT 10SM CLR 16/M11 A3026 1990 15 2600 VRB/04 RMK AO2 $
53144K9L2 9L220160323104010203/23/16 10:40:31  5-MIN K9L2 231840Z AUTO 17005KT 10SM CLR 16/M11 A3026 1990 15 2600 160/05 RMK AO2 $
53144K9L2 9L220160323104510203/23/16 10:45:31  5-MIN K9L2 231845Z AUTO VRB04KT 10SM CLR 16/M11 A3026 1990 15 2600 VRB/04 RMK AO2 $
53144K9L2 9L220160323105010203/23/16 10:50:31  5-MIN K9L2 231850Z AUTO 00000KT 10SM CLR 16/M11 A3026 1990 15 2600 000/00 RMK AO2 $
53144K9L2 9L220160323105511903/23/16 10:55:31  5-MIN K9L2 231855Z AUTO 15005KT 10SM CLR 16/M11 A3026 1990 14 2600 140/05 RMK AO2 SLP251 T01611111 $
53144K9L2 9L220160323110010203/23/16 11:00:31  5-MIN K9L2 231900Z AUTO 00000KT 10SM CLR 16/M11 A3026 1990 14 2600 000/00 RMK AO2 $
53144K9L2 9L220160323110510203/23/16 11:05:31  5-MIN K9L2 231905Z AUTO 01010KT 10SM CLR 18/M13 A3025 2000 11 2800 350/10 RMK AO2 $
53144K9L2 9L220160323111010803/23/16 11:10:31  5-MIN K9L2 231910Z AUTO 05012G16KT 10SM CLR 18/M14 A3025 2000 10 2900 040/12G16 RMK AO2 $
53144K9L2 9L220160323111510803/23/16 11:15:31  5-MIN K9L2 231915Z AUTO 06007G16KT 10SM CLR 18/M14 A3025 2000 10 2900 050/07G16 RMK AO2 $
53144K9L2 9L220160323112010203/23/16 11:20:31  5-MIN K9L2 231920Z AUTO 02009KT 10SM CLR 18/M14 A3025 2000 10 2900 360/09 RMK AO2 $
53144K9L2 9L220160323112510803/23/16 11:25:31  5-MIN K9L2 231925Z AUTO 06012G18KT 10SM CLR 18/M14 A3025 2000 10 2900 050/12G18 RMK AO2 $
53144K9L2 9L220160323113010803/23/16 11:30:31  5-MIN K9L2 231930Z AUTO 04011G18KT 10SM CLR 19/M14 A3025 2000 09 3000 020/11G18 RMK AO2 $
53144K9L2 9L220160323113510803/23/16 11:35:31  5-MIN K9L2 231935Z AUTO 04013G16KT 10SM CLR 19/M14 A3025 2000 09 3000 030/13G16 RMK AO2 $
53144K9L2 9L220160323114010803/23/16 11:40:31  5-MIN K9L2 231940Z AUTO 05011G16KT 10SM CLR 19/M14 A3025 2000 09 3000 030/11G16 RMK AO2 $
53144K9L2 9L220160323114510803/23/16 11:45:31  5-MIN K9L2 231945Z AUTO 09007G15KT 10SM CLR 18/M14 A3024 2010 09 2900 080/07G15 RMK AO2 $
53144K9L2 9L220160323115010203/23/16 11:50:31  5-MIN K9L2 231950Z AUTO VRB06KT 10SM CLR 18/M14 A3024 2010 10 2900 VRB/06 RMK AO2 $
53144K9L2 9L220160323115511903/23/16 11:55:31  5-MIN K9L2 231955Z AUTO 05007KT 10SM CLR 19/M14 A3024 2010 09 3000 040/07 RMK AO2 SLP242 T01891139 $
53144K9L2 9L220160323120010803/23/16 12:00:31  5-MIN K9L2 232000Z AUTO 02011G14KT 10SM CLR 19/M15 A3024 2010 09 3000 010/11G14 RMK AO2 $
53144K9L2 9L220160323120510803/23/16 12:05:31  5-MIN K9L2 232005Z AUTO 04009G14KT 10SM CLR 19/M15 A3024 2010 08 3000 020/09G14 RMK AO2 $
53144K9L2 9L220160323121010203/23/16 12:10:31  5-MIN K9L2 232010Z AUTO 07008KT 10SM CLR 19/M14 A3024 2010 09 3000 050/08 RMK AO2 $
53144K9L2 9L220160323121510803/23/16 12:15:31  5-MIN K9L2 232015Z AUTO 04009G15KT 10SM CLR 19/M14 A3024 2010 09 3000 030/09G15 RMK AO2 $
53144K9L2 9L220160323122010803/23/16 12:20:31  5-MIN K9L2 232020Z AUTO 07009G15KT 10SM CLR 19/M14 A3024 2010 09 3000 060/09G15 RMK AO2 $
53144K9L2 9L220160323122510203/23/16 12:25:31  5-MIN K9L2 232025Z AUTO VRB04KT 10SM CLR 19/M16 A3024 2010 08 3000 VRB/04 RMK AO2 $
53144K9L2 9L220160323123010203/23/16 12:30:31  5-MIN K9L2 232030Z AUTO VRB05KT 10SM CLR 18/M15 A3023 2020 09 2900 VRB/05 RMK AO2 $
53144K9L2 9L220160323123511803/23/16 12:35:31  5-MIN K9L2 232035Z AUTO 07008KT 040V100 10SM CLR 20/M16 A3023 2020 08 3100 060/08 030V090 RMK AO2 $
53144K9L2 9L220160323124010203/23/16 12:40:31  5-MIN K9L2 232040Z AUTO 09007KT 10SM CLR 19/M16 A3023 2020 08 3000 070/07 RMK AO2 $
53144K9L2 9L220160323124510203/23/16 12:45:31  5-MIN K9L2 232045Z AUTO 07006KT 10SM CLR 19/M16 A3022 2020 08 3000 060/06 RMK AO2 $
53144K9L2 9L220160323125010203/23/16 12:50:31  5-MIN K9L2 232050Z AUTO VRB04KT 10SM CLR 18/M15 A3022 2020 09 2900 VRB/04 RMK AO2 $
53144K9L2 9L220160323125512503/23/16 12:55:31  5-MIN K9L2 232055Z AUTO 08008KT 10SM CLR 18/M15 A3022 2030 09 2900 070/08 RMK AO2 SLP234 T01831150 51016 $
53144K9L2 9L220160323130010203/23/16 13:00:31  5-MIN K9L2 232100Z AUTO 06008KT 10SM CLR 19/M15 A3022 2030 08 3000 050/08 RMK AO2 $
53144K9L2 9L220160323130510203/23/16 13:05:31  5-MIN K9L2 232105Z AUTO VRB04KT 10SM CLR 19/M15 A3022 2030 08 3100 VRB/04 RMK AO2 $
53144K9L2 9L220160323131010203/23/16 13:10:31  5-MIN K9L2 232110Z AUTO VRB04KT 10SM CLR 19/M15 A3021 2030 09 3000 VRB/04 RMK AO2 $
53144K9L2 9L220160323131510203/23/16 13:15:31  5-MIN K9L2 232115Z AUTO 07009KT 10SM CLR 20/M14 A3021 2030 08 3100 060/09 RMK AO2 $
53144K9L2 9L220160323132010203/23/16 13:20:31  5-MIN K9L2 232120Z AUTO 13005KT 10SM CLR 19/M15 A3021 2040 08 3100 120/05 RMK AO2 $
53144K9L2 9L220160323132510203/23/16 13:25:31  5-MIN K9L2 232125Z AUTO 13004KT 10SM CLR 19/M15 A3021 2040 09 3000 110/04 RMK AO2 $
53144K9L2 9L220160323133010203/23/16 13:30:31  5-MIN K9L2 232130Z AUTO 00000KT 10SM CLR 18/M15 A3021 2040 09 2900 000/00 RMK AO2 $
53144K9L2 9L220160323133510203/23/16 13:35:31  5-MIN K9L2 232135Z AUTO VRB03KT 10SM CLR 19/M16 A3020 2040 08 3000 VRB/03 RMK AO2 $
53144K9L2 9L220160323134010203/23/16 13:40:31  5-MIN K9L2 232140Z AUTO 14004KT 10SM CLR 19/M15 A3020 2040 09 3000 130/04 RMK AO2 $
53144K9L2 9L220160323134510203/23/16 13:45:31  5-MIN K9L2 232145Z AUTO 06008KT 10SM CLR 19/M16 A3020 2040 08 3100 050/08 RMK AO2 $
53144K9L2 9L220160323135010203/23/16 13:50:31  5-MIN K9L2 232150Z AUTO 08007KT 10SM CLR 20/M15 A3020 2040 08 3100 070/07 RMK AO2 $
53144K9L2 9L220160323135511903/23/16 13:55:31  5-MIN K9L2 232155Z AUTO 05004KT 10SM CLR 19/M15 A3020 2040 08 3100 040/04 RMK AO2 SLP228 T01941150 $
53144K9L2 9L220160323140010203/23/16 14:00:31  5-MIN K9L2 232200Z AUTO 09004KT 10SM CLR 19/M15 A3020 2040 09 3000 080/04 RMK AO2 $
53144K9L2 9L220160323140510203/23/16 14:05:31  5-MIN K9L2 232205Z AUTO 14006KT 10SM CLR 19/M14 A3020 2050 09 3000 120/06 RMK AO2 $
53144K9L2 9L220160323141010203/23/16 14:10:31  5-MIN K9L2 232210Z AUTO 11004KT 10SM CLR 19/M15 A3020 2050 09 3000 100/04 RMK AO2 $
53144K9L2 9L220160323141510203/23/16 14:15:31  5-MIN K9L2 232215Z AUTO VRB03KT 10SM CLR 19/M16 A3020 2050 08 3100 VRB/03 RMK AO2 $
53144K9L2 9L220160323142010203/23/16 14:20:31  5-MIN K9L2 232220Z AUTO 00000KT 10SM CLR 19/M16 A3020 2050 08 3100 000/00 RMK AO2 $
53144K9L2 9L220160323142510203/23/16 14:25:31  5-MIN K9L2 232225Z AUTO 14006KT 10SM CLR 19/M16 A3020 2050 08 3000 130/06 RMK AO2 $
53144K9L2 9L220160323143010203/23/16 14:30:31  5-MIN K9L2 232230Z AUTO 09005KT 10SM CLR 20/M15 A3020 2050 08 3100 080/05 RMK AO2 $
53144K9L2 9L220160323143510203/23/16 14:35:31  5-MIN K9L2 232235Z AUTO 09006KT 10SM CLR 20/M16 A3020 2050 07 3100 080/06 RMK AO2 $
53144K9L2 9L220160323144010203/23/16 14:40:31  5-MIN K9L2 232240Z AUTO 00000KT 10SM CLR 19/M16 A3020 2050 08 3100 000/00 RMK AO2 $
53144K9L2 9L220160323144510203/23/16 14:45:31  5-MIN K9L2 232245Z AUTO 13005KT 10SM CLR 20/M15 A3020 2050 08 3100 120/05 RMK AO2 $
53144K9L2 9L220160323145010203/23/16 14:50:31  5-MIN K9L2 232250Z AUTO VRB03KT 10SM CLR 20/M15 A3020 2050 08 3100 VRB/03 RMK AO2 $
53144K9L2 9L220160323145511903/23/16 14:55:31  5-MIN K9L2 232255Z AUTO 17005KT 10SM CLR 20/M14 A3019 2050 08 3100 160/05 RMK AO2 SLP227 T02001144 $
53144K9L2 9L220160323150010203/23/16 15:00:31  5-MIN K9L2 232300Z AUTO 16008KT 10SM CLR 20/M14 A3019 2050 08 3100 150/08 RMK AO2 $
53144K9L2 9L220160323150510203/23/16 15:05:31  5-MIN K9L2 232305Z AUTO 17007KT 10SM CLR 19/M14 A3019 2050 09 3100 160/07 RMK AO2 $
53144K9L2 9L220160323151010203/23/16 15:10:31  5-MIN K9L2 232310Z AUTO 18007KT 10SM CLR 19/M15 A3019 2060 08 3100 170/07 RMK AO2 $
53144K9L2 9L220160323151510203/23/16 15:15:31  5-MIN K9L2 232315Z AUTO 19007KT 10SM CLR 19/M15 A3019 2050 08 3100 180/07 RMK AO2 $
53144K9L2 9L220160323152010203/23/16 15:20:31  5-MIN K9L2 232320Z AUTO 19006KT 10SM CLR 19/M15 A3019 2050 08 3100 180/06 RMK AO2 $
53144K9L2 9L220160323152510203/23/16 15:25:31  5-MIN K9L2 232325Z AUTO 21006KT 10SM CLR 19/M15 A3019 2050 08 3100 200/06 RMK AO2 $
53144K9L2 9L220160323153010203/23/16 15:30:31  5-MIN K9L2 232330Z AUTO 18005KT 10SM CLR 20/M15 A3019 2060 08 3100 160/05 RMK AO2 $
53144K9L2 9L220160323153510203/23/16 15:35:31  5-MIN K9L2 232335Z AUTO 19005KT 10SM CLR 19/M15 A3019 2060 09 3000 170/05 RMK AO2 $
53144K9L2 9L220160323154010203/23/16 15:40:31  5-MIN K9L2 232340Z AUTO 20004KT 10SM CLR 19/M15 A3019 2060 08 3100 190/04 RMK AO2 $
53144K9L2 9L220160323154510203/23/16 15:45:31  5-MIN K9L2 232345Z AUTO 20006KT 10SM CLR 19/M15 A3019 2060 08 3100 190/06 RMK AO2 $
53144K9L2 9L220160323155010203/23/16 15:50:31  5-MIN K9L2 232350Z AUTO 21005KT 10SM CLR 19/M16 A3019 2060 08 3100 200/05 RMK AO2 $
53144K9L2 9L220160323155513703/23/16 15:55:31  5-MIN K9L2 232355Z AUTO 20005KT 10SM CLR 19/M15 A3019 2060 08 3100 190/05 RMK AO2 SLP223 T01941150 10200 20139 58014 $
53144K9L2 9L220160323160010203/23/16 16:00:31  5-MIN K9L2 240000Z AUTO VRB03KT 10SM CLR 19/M15 A3019 2060 08 3100 VRB/03 RMK AO2 $
53144K9L2 9L220160323160510203/23/16 16:05:31  5-MIN K9L2 240005Z AUTO 00000KT 10SM CLR 19/M16 A3019 2060 08 3100 000/00 RMK AO2 $
53144K9L2 9L220160323161010203/23/16 16:10:31  5-MIN K9L2 240010Z AUTO 22005KT 10SM CLR 19/M15 A3019 2060 08 3100 210/05 RMK AO2 $
53144K9L2 9L220160323161510203/23/16 16:15:31  5-MIN K9L2 240015Z AUTO 19006KT 10SM CLR 20/M15 A3018 2060 08 3200 180/06 RMK AO2 $
53144K9L2 9L220160323162010203/23/16 16:20:31  5-MIN K9L2 240020Z AUTO 18007KT 10SM CLR 19/M15 A3018 2060 08 3100 160/07 RMK AO2 $
53144K9L2 9L220160323162510203/23/16 16:25:31  5-MIN K9L2 240025Z AUTO 19005KT 10SM CLR 19/M15 A3018 2060 08 3100 180/05 RMK AO2 $
53144K9L2 9L220160323163010203/23/16 16:30:31  5-MIN K9L2 240030Z AUTO 20005KT 10SM CLR 19/M15 A3018 2060 08 3100 190/05 RMK AO2 $
53144K9L2 9L220160323163510203/23/16 16:35:31  5-MIN K9L2 240035Z AUTO VRB04KT 10SM CLR 19/M15 A3018 2060 08 3100 VRB/04 RMK AO2 $
53144K9L2 9L220160323164010203/23/16 16:40:31  5-MIN K9L2 240040Z AUTO 18004KT 10SM CLR 19/M15 A3018 2060 08 3100 160/04 RMK AO2 $
53144K9L2 9L220160323164510203/23/16 16:45:31  5-MIN K9L2 240045Z AUTO 18004KT 10SM CLR 19/M15 A3018 2060 08 3100 160/04 RMK AO2 $
53144K9L2 9L220160323165010203/23/16 16:50:31  5-MIN K9L2 240050Z AUTO 20004KT 10SM CLR 19/M15 A3018 2060 09 3000 180/04 RMK AO2 $
53144K9L2 9L220160323165511903/23/16 16:55:31  5-MIN K9L2 240055Z AUTO 20004KT 10SM CLR 19/M15 A3018 2060 09 3000 180/04 RMK AO2 SLP224 T01891150 $
53144K9L2 9L220160323170010203/23/16 17:00:31  5-MIN K9L2 240100Z AUTO 18003KT 10SM CLR 19/M15 A3018 2060 09 3000 170/03 RMK AO2 $
53144K9L2 9L220160323170510203/23/16 17:05:31  5-MIN K9L2 240105Z AUTO 18004KT 10SM CLR 19/M15 A3018 2060 09 3000 160/04 RMK AO2 $
53144K9L2 9L220160323171010203/23/16 17:10:31  5-MIN K9L2 240110Z AUTO 18005KT 10SM CLR 19/M15 A3018 2060 09 3000 170/05 RMK AO2 $
53144K9L2 9L220160323171510203/23/16 17:15:31  5-MIN K9L2 240115Z AUTO 19005KT 10SM CLR 19/M14 A3018 2060 09 3000 170/05 RMK AO2 $
53144K9L2 9L220160323172010203/23/16 17:20:31  5-MIN K9L2 240120Z AUTO 19004KT 10SM CLR 18/M14 A3018 2060 09 3000 180/04 RMK AO2 $
53144K9L2 9L220160323172510203/23/16 17:25:31  5-MIN K9L2 240125Z AUTO 19004KT 10SM CLR 18/M14 A3018 2060 09 3000 180/04 RMK AO2 $
53144K9L2 9L220160323173010203/23/16 17:30:31  5-MIN K9L2 240130Z AUTO 20004KT 10SM CLR 18/M14 A3018 2060 10 2900 190/04 RMK AO2 $
53144K9L2 9L220160323173510203/23/16 17:35:31  5-MIN K9L2 240135Z AUTO 20004KT 10SM CLR 18/M14 A3019 2060 10 2900 190/04 RMK AO2 $
53144K9L2 9L220160323174010203/23/16 17:40:31  5-MIN K9L2 240140Z AUTO 20003KT 10SM CLR 18/M13 A3019 2060 11 2900 180/03 RMK AO2 $
53144K9L2 9L220160323174510203/23/16 17:45:31  5-MIN K9L2 240145Z AUTO 19004KT 10SM CLR 17/M13 A3018 2060 12 2800 180/04 RMK AO2 $
53144K9L2 9L220160324034510903/24/16 03:45:31  5-MIN K9L2 241145Z AUTO 00000KT 10SM CLR 02/M05 A3018 2070 61 1000 000/00 RMK AO2 FZRANO $
53144K9L2 9L220160324035010903/24/16 03:50:31  5-MIN K9L2 241150Z AUTO 00000KT 10SM CLR 02/M04 A3018 2070 61 1100 000/00 RMK AO2 FZRANO $
53144K9L2 9L220160324035514403/24/16 03:55:31  5-MIN K9L2 241155Z AUTO 00000KT 10SM CLR 02/M04 A3018 2070 64 1000 000/00 RMK AO2 SLP221 T00171044 10094 20011 55000 FZRANO $
53144K9L2 9L220160324040010903/24/16 04:00:31  5-MIN K9L2 241200Z AUTO 00000KT 10SM CLR 02/M04 A3017 2070 64 1000 000/00 RMK AO2 FZRANO $
53144K9L2 9L220160324040510903/24/16 04:05:31  5-MIN K9L2 241205Z AUTO 00000KT 10SM CLR 02/M04 A3017 2070 61 1100 000/00 RMK AO2 FZRANO $
53144K9L2 9L220160324041010903/24/16 04:10:31  5-MIN K9L2 241210Z AUTO 00000KT 10SM CLR 02/M05 A3018 2070 61 1000 000/00 RMK AO2 FZRANO $
53144K9L2 9L220160324041510803/24/16 04:15:31  5-MIN K9L2 241215Z AUTO 00000KT 10SM CLR 01/M06 A3018 2070 63 800 000/00 RMK AO2 FZRANO $
53144K9L2 9L220160324042010803/24/16 04:20:31  5-MIN K9L2 241220Z AUTO 00000KT 10SM CLR 01/M06 A3017 2070 63 900 000/00 RMK AO2 FZRANO $
53144K9L2 9L220160324042510803/24/16 04:25:31  5-MIN K9L2 241225Z AUTO 00000KT 10SM CLR 01/M06 A3017 2070 63 900 000/00 RMK AO2 FZRANO $
53144K9L2 9L220160324043010803/24/16 04:30:31  5-MIN K9L2 241230Z AUTO 00000KT 10SM CLR 01/M05 A3017 2070 66 900 000/00 RMK AO2 FZRANO $
53144K9L2 9L220160324043510803/24/16 04:35:31  5-MIN K9L2 241235Z AUTO 00000KT 10SM CLR 01/M06 A3017 2070 63 900 000/00 RMK AO2 FZRANO $
53144K9L2 9L220160324044010803/24/16 04:40:31  5-MIN K9L2 241240Z AUTO 00000KT 10SM CLR 01/M06 A3018 2070 63 900 000/00 RMK AO2 FZRANO $
53144K9L2 9L220160324044510803/24/16 04:45:31  5-MIN K9L2 241245Z AUTO 00000KT 10SM CLR 01/M06 A3018 2070 63 800 000/00 RMK AO2 FZRANO $
53144K9L2 9L220160324045010803/24/16 04:50:31  5-MIN K9L2 241250Z AUTO 00000KT 10SM CLR 01/M06 A3018 2070 63 900 000/00 RMK AO2 FZRANO $
53144K9L2 9L220160324045512503/24/16 04:55:31  5-MIN K9L2 241255Z AUTO 30003KT 10SM CLR 01/M06 A3018 2070 63 900 290/03 RMK AO2 SLP222 T00061056 FZRANO $
53144K9L2 9L220160324050010803/24/16 05:00:31  5-MIN K9L2 241300Z AUTO 30003KT 10SM CLR 00/M06 A3018 2070 66 800 290/03 RMK AO2 FZRANO $
53144K9L2 9L220160324050510803/24/16 05:05:31  5-MIN K9L2 241305Z AUTO 00000KT 10SM CLR 00/M06 A3018 2070 66 800 000/00 RMK AO2 FZRANO $
53144K9L2 9L220160324051010803/24/16 05:10:31  5-MIN K9L2 241310Z AUTO 31003KT 10SM CLR 01/M05 A3018 2070 66 900 300/03 RMK AO2 FZRANO $
53144K9L2 9L220160324051510803/24/16 05:15:31  5-MIN K9L2 241315Z AUTO 00000KT 10SM CLR 00/M06 A3018 2070 66 800 000/00 RMK AO2 FZRANO $
53144K9L2 9L220160324052010803/24/16 05:20:31  5-MIN K9L2 241320Z AUTO 00000KT 10SM CLR 00/M06 A3018 2070 66 800 000/00 RMK AO2 FZRANO $
53144K9L2 9L220160324052510803/24/16 05:25:31  5-MIN K9L2 241325Z AUTO 00000KT 10SM CLR 00/M06 A3017 2070 66 800 000/00 RMK AO2 FZRANO $
53144K9L2 9L220160324053010803/24/16 05:30:31  5-MIN K9L2 241330Z AUTO 00000KT 10SM CLR 00/M06 A3017 2070 66 800 000/00 RMK AO2 FZRANO $
53144K9L2 9L220160324053510803/24/16 05:35:31  5-MIN K9L2 241335Z AUTO 00000KT 10SM CLR 01/M06 A3018 2070 63 900 000/00 RMK AO2 FZRANO $
53144K9L2 9L220160324054010803/24/16 05:40:31  5-MIN K9L2 241340Z AUTO 00000KT 10SM CLR 01/M05 A3018 2070 66 900 000/00 RMK AO2 FZRANO $
53144K9L2 9L220160324054510803/24/16 05:45:31  5-MIN K9L2 241345Z AUTO 00000KT 10SM CLR 00/M06 A3018 2060 66 800 000/00 RMK AO2 FZRANO $
53144K9L2 9L220160324055010803/24/16 05:50:31  5-MIN K9L2 241350Z AUTO 00000KT 10SM CLR 00/M06 A3018 2070 66 800 000/00 RMK AO2 FZRANO $
53144K9L2 9L220160324055512503/24/16 05:55:31  5-MIN K9L2 241355Z AUTO 00000KT 10SM CLR 01/M06 A3018 2070 63 800 000/00 RMK AO2 SLP225 T00061056 FZRANO $
53144K9L2 9L220160324060010803/24/16 06:00:31  5-MIN K9L2 241400Z AUTO 00000KT 10SM CLR 01/M05 A3018 2060 66 800 000/00 RMK AO2 FZRANO $
53144K9L2 9L220160324060510803/24/16 06:05:31  5-MIN K9L2 241405Z AUTO 00000KT 10SM CLR 00/M06 A3018 2060 66 800 000/00 RMK AO2 FZRANO $
53144K9L2 9L220160324061010803/24/16 06:10:31  5-MIN K9L2 241410Z AUTO 00000KT 10SM CLR 01/M05 A3018 2060 66 800 000/00 RMK AO2 FZRANO $
53144K9L2 9L220160324061510803/24/16 06:15:31  5-MIN K9L2 241415Z AUTO 00000KT 10SM CLR 01/M04 A3018 2060 66 900 000/00 RMK AO2 FZRANO $
53144K9L2 9L220160324062010903/24/16 06:20:31  5-MIN K9L2 241420Z AUTO 00000KT 10SM CLR 02/M04 A3018 2060 64 1000 000/00 RMK AO2 FZRANO $
53144K9L2 9L220160324062510903/24/16 06:25:31  5-MIN K9L2 241425Z AUTO 00000KT 10SM CLR 02/M04 A3018 2060 64 1100 000/00 RMK AO2 FZRANO $
53144K9L2 9L220160324063010903/24/16 06:30:31  5-MIN K9L2 241430Z AUTO 00000KT 10SM CLR 02/M03 A3018 2060 67 1100 000/00 RMK AO2 FZRANO $
53144K9L2 9L220160324063510203/24/16 06:35:31  5-MIN K9L2 241435Z AUTO 00000KT 10SM CLR 03/M03 A3018 2060 64 1100 000/00 RMK AO2 $
53144K9L2 9L220160324064010203/24/16 06:40:31  5-MIN K9L2 241440Z AUTO 00000KT 10SM CLR 03/M03 A3018 2060 61 1200 000/00 RMK AO2 $
53144K9L2 9L220160324064510203/24/16 06:45:31  5-MIN K9L2 241445Z AUTO 00000KT 10SM CLR 04/M03 A3019 2060 62 1200 000/00 RMK AO2 $
53144K9L2 9L220160324065010203/24/16 06:50:31  5-MIN K9L2 241450Z AUTO 00000KT 10SM CLR 04/M03 A3019 2060 59 1300 000/00 RMK AO2 $
53144K9L2 9L220160324065512503/24/16 06:55:31  5-MIN K9L2 241455Z AUTO 00000KT 10SM CLR 05/M02 A3019 2060 59 1400 000/00 RMK AO2 SLP228 T00501022 56010 $
53144K9L2 9L220160324070010203/24/16 07:00:31  5-MIN K9L2 241500Z AUTO 00000KT 10SM CLR 05/M02 A3019 2060 59 1400 000/00 RMK AO2 $
53144K9L2 9L220160324070510203/24/16 07:05:31  5-MIN K9L2 241505Z AUTO 00000KT 10SM CLR 06/M02 A3019 2060 57 1500 000/00 RMK AO2 $
53144K9L2 9L220160324071010203/24/16 07:10:31  5-MIN K9L2 241510Z AUTO 00000KT 10SM CLR 06/M02 A3019 2050 57 1400 000/00 RMK AO2 $
53144K9L2 9L220160324071510203/24/16 07:15:31  5-MIN K9L2 241515Z AUTO 00000KT 10SM CLR 06/M02 A3019 2060 55 1500 000/00 RMK AO2 $
53144K9L2 9L220160324072010203/24/16 07:20:31  5-MIN K9L2 241520Z AUTO 00000KT 10SM CLR 07/M02 A3019 2050 53 1600 000/00 RMK AO2 $
53144K9L2 9L220160324072510203/24/16 07:25:31  5-MIN K9L2 241525Z AUTO 00000KT 10SM CLR 07/M02 A3019 2050 55 1600 000/00 RMK AO2 $
53144K9L2 9L220160324073010203/24/16 07:30:31  5-MIN K9L2 241530Z AUTO 00000KT 10SM CLR 07/M02 A3019 2060 55 1600 000/00 RMK AO2 $
53144K9L2 9L220160324073510203/24/16 07:35:31  5-MIN K9L2 241535Z AUTO 00000KT 10SM CLR 07/M02 A3019 2050 55 1600 000/00 RMK AO2 $
53144K9L2 9L220160324074010203/24/16 07:40:31  5-MIN K9L2 241540Z AUTO 00000KT 10SM CLR 07/M02 A3019 2050 53 1600 000/00 RMK AO2 $
53144K9L2 9L220160324074510203/24/16 07:45:31  5-MIN K9L2 241545Z AUTO 00000KT 10SM CLR 08/M02 A3019 2050 51 1700 000/00 RMK AO2 $
53144K9L2 9L220160324075010203/24/16 07:50:31  5-MIN K9L2 241550Z AUTO 00000KT 10SM CLR 08/M02 A3019 2050 51 1700 000/00 RMK AO2 $
53144K9L2 9L220160324075511903/24/16 07:55:31  5-MIN K9L2 241555Z AUTO 00000KT 10SM CLR 08/M01 A3019 2050 51 1800 000/00 RMK AO2 SLP226 T00831011 $
53144K9L2 9L220160324080010203/24/16 08:00:31  5-MIN K9L2 241600Z AUTO 00000KT 10SM CLR 08/M01 A3019 2050 51 1800 000/00 RMK AO2 $
53144K9L2 9L220160324080510203/24/16 08:05:31  5-MIN K9L2 241605Z AUTO 00000KT 10SM CLR 09/M01 A3019 2050 49 1800 000/00 RMK AO2 $
53144K9L2 9L220160324081010203/24/16 08:10:31  5-MIN K9L2 241610Z AUTO 00000KT 10SM CLR 09/M01 A3019 2050 47 1900 000/00 RMK AO2 $
53144K9L2 9L220160324081510203/24/16 08:15:31  5-MIN K9L2 241615Z AUTO 00000KT 10SM CLR 09/M01 A3019 2060 47 1900 000/00 RMK AO2 $
53144K9L2 9L220160324082010203/24/16 08:20:31  5-MIN K9L2 241620Z AUTO 00000KT 10SM CLR 11/M01 A3019 2060 44 2100 000/00 RMK AO2 $
53144K9L2 9L220160324082510203/24/16 08:25:31  5-MIN K9L2 241625Z AUTO 00000KT 10SM CLR 10/M01 A3019 2060 46 2000 000/00 RMK AO2 $
53144K9L2 9L220160324083010203/24/16 08:30:31  5-MIN K9L2 241630Z AUTO 00000KT 10SM CLR 10/M01 A3018 2060 46 2000 000/00 RMK AO2 $
53144K9L2 9L220160324083510203/24/16 08:35:31  5-MIN K9L2 241635Z AUTO 00000KT 10SM CLR 10/M01 A3019 2060 46 2000 000/00 RMK AO2 $
53144K9L2 9L220160324084010203/24/16 08:40:31  5-MIN K9L2 241640Z AUTO 00000KT 10SM CLR 10/M01 A3019 2060 46 2000 000/00 RMK AO2 $
53144K9L2 9L220160324084510203/24/16 08:45:31  5-MIN K9L2 241645Z AUTO 00000KT 10SM CLR 11/M01 A3019 2060 44 2000 000/00 RMK AO2 $
53144K9L2 9L220160324085010203/24/16 08:50:31  5-MIN K9L2 241650Z AUTO 00000KT 10SM CLR 11/M01 A3019 2050 44 2000 000/00 RMK AO2 $
53144K9L2 9L220160324085511903/24/16 08:55:31  5-MIN K9L2 241655Z AUTO 00000KT 10SM CLR 11/M01 A3019 2050 44 2000 000/00 RMK AO2 SLP226 T01061011 $
53144K9L2 9L220160324090010203/24/16 09:00:31  5-MIN K9L2 241700Z AUTO 00000KT 10SM CLR 11/M01 A3019 2050 42 2100 000/00 RMK AO2 $
53144K9L2 9L220160324090510203/24/16 09:05:31  5-MIN K9L2 241705Z AUTO 00000KT 10SM CLR 11/M01 A3019 2050 42 2100 000/00 RMK AO2 $
53144K9L2 9L220160324091010203/24/16 09:10:31  5-MIN K9L2 241710Z AUTO 12003KT 10SM CLR 12/M01 A3019 2060 41 2200 110/03 RMK AO2 $
53144K9L2 9L220160324091510203/24/16 09:15:31  5-MIN K9L2 241715Z AUTO 00000KT 10SM CLR 12/M01 A3019 2060 41 2200 000/00 RMK AO2 $
53144K9L2 9L220160324092010203/24/16 09:20:31  5-MIN K9L2 241720Z AUTO 15003KT 10SM CLR 12/M01 A3019 2060 39 2200 140/03 RMK AO2 $
53144K9L2 9L220160324092510203/24/16 09:25:31  5-MIN K9L2 241725Z AUTO 00000KT 10SM CLR 13/M01 A3019 2060 39 2300 000/00 RMK AO2 $
53144K9L2 9L220160324093010203/24/16 09:30:31  5-MIN K9L2 241730Z AUTO 00000KT 10SM CLR 13/M01 A3019 2060 39 2300 000/00 RMK AO2 $
53144K9L2 9L220160324093510203/24/16 09:35:31  5-MIN K9L2 241735Z AUTO 16003KT 10SM CLR 13/M01 A3019 2060 39 2300 150/03 RMK AO2 $
53144K9L2 9L220160324094010203/24/16 09:40:31  5-MIN K9L2 241740Z AUTO 16004KT 10SM CLR 13/M01 A3019 2060 38 2400 150/04 RMK AO2 $
53144K9L2 9L220160324094510203/24/16 09:45:31  5-MIN K9L2 241745Z AUTO 16004KT 10SM CLR 13/M01 A3018 2060 38 2400 150/04 RMK AO2 $
53144K9L2 9L220160324095010203/24/16 09:50:31  5-MIN K9L2 241750Z AUTO 17004KT 10SM CLR 13/M01 A3018 2060 38 2400 160/04 RMK AO2 $
53144K9L2 9L220160324095513703/24/16 09:55:31  5-MIN K9L2 241755Z AUTO 16004KT 10SM CLR 14/M01 A3018 2060 37 2400 150/04 RMK AO2 SLP222 T01391006 10139 20000 53004 $
53144K9L2 9L220160324100010203/24/16 10:00:31  5-MIN K9L2 241800Z AUTO 16003KT 10SM CLR 14/M01 A3018 2060 35 2500 150/03 RMK AO2 $
53144K9L2 9L220160324100510203/24/16 10:05:31  5-MIN K9L2 241805Z AUTO 15003KT 10SM CLR 14/M01 A3018 2060 34 2500 140/03 RMK AO2 $
53144K9L2 9L220160324101010203/24/16 10:10:31  5-MIN K9L2 241810Z AUTO 18004KT 10SM CLR 15/M02 A3018 2060 31 2600 170/04 RMK AO2 $
53144K9L2 9L220160324101510203/24/16 10:15:31  5-MIN K9L2 241815Z AUTO 17004KT 10SM CLR 15/M02 A3018 2060 31 2600 160/04 RMK AO2 $
53144K9L2 9L220160324102010203/24/16 10:20:31  5-MIN K9L2 241820Z AUTO 16004KT 10SM CLR 15/M02 A3018 2070 31 2600 150/04 RMK AO2 $
53144K9L2 9L220160324102510203/24/16 10:25:31  5-MIN K9L2 241825Z AUTO 16003KT 10SM CLR 15/M02 A3017 2070 31 2600 140/03 RMK AO2 $
53144K9L2 9L220160324103010203/24/16 10:30:31  5-MIN K9L2 241830Z AUTO 15005KT 10SM CLR 16/M02 A3017 2070 30 2700 140/05 RMK AO2 $
53144K9L2 9L220160324103510203/24/16 10:35:31  5-MIN K9L2 241835Z AUTO 16005KT 10SM CLR 16/M02 A3017 2080 29 2700 140/05 RMK AO2 $
53144K9L2 9L220160324104010203/24/16 10:40:31  5-MIN K9L2 241840Z AUTO 15005KT 10SM CLR 17/M02 A3017 2080 28 2800 140/05 RMK AO2 $
53144K9L2 9L220160324104510203/24/16 10:45:31  5-MIN K9L2 241845Z AUTO 15005KT 10SM CLR 17/M02 A3016 2080 27 2800 140/05 RMK AO2 $
53144K9L2 9L220160324105010203/24/16 10:50:31  5-MIN K9L2 241850Z AUTO 16003KT 10SM CLR 17/M02 A3016 2080 27 2800 150/03 RMK AO2 $
53144K9L2 9L220160324105511903/24/16 10:55:31  5-MIN K9L2 241855Z AUTO 16003KT 10SM CLR 17/M02 A3016 2080 26 2900 140/03 RMK AO2 SLP212 T01721022 $
53144K9L2 9L220160324110010203/24/16 11:00:31  5-MIN K9L2 241900Z AUTO 00000KT 10SM CLR 17/M03 A3016 2080 25 2900 000/00 RMK AO2 $
53144K9L2 9L220160324110510203/24/16 11:05:31  5-MIN K9L2 241905Z AUTO VRB04KT 10SM CLR 17/M03 A3016 2080 25 2900 VRB/04 RMK AO2 $
53144K9L2 9L220160324111010203/24/16 11:10:31  5-MIN K9L2 241910Z AUTO 17003KT 10SM CLR 17/M03 A3015 2090 25 2900 160/03 RMK AO2 $
53144K9L2 9L220160324111510203/24/16 11:15:31  5-MIN K9L2 241915Z AUTO 14003KT 10SM CLR 17/M03 A3015 2090 24 2900 130/03 RMK AO2 $
53144K9L2 9L220160324112010203/24/16 11:20:31  5-MIN K9L2 241920Z AUTO VRB03KT 10SM CLR 18/M03 A3015 2090 23 2900 VRB/03 RMK AO2 $
53144K9L2 9L220160324112510203/24/16 11:25:31  5-MIN K9L2 241925Z AUTO 19003KT 10SM CLR 18/M03 A3015 2090 22 3000 180/03 RMK AO2 $
53144K9L2 9L220160324113010203/24/16 11:30:31  5-MIN K9L2 241930Z AUTO 16004KT 10SM CLR 18/M03 A3015 2100 22 3000 150/04 RMK AO2 $
53144K9L2 9L220160324113510203/24/16 11:35:31  5-MIN K9L2 241935Z AUTO 00000KT 10SM CLR 19/M04 A3014 2100 21 3100 000/00 RMK AO2 $
53144K9L2 9L220160324114010203/24/16 11:40:31  5-MIN K9L2 241940Z AUTO 17004KT 10SM CLR 19/M04 A3014 2100 21 3100 160/04 RMK AO2 $
53144K9L2 9L220160324114510203/24/16 11:45:31  5-MIN K9L2 241945Z AUTO 17004KT 10SM CLR 19/M04 A3014 2100 19 3100 150/04 RMK AO2 $
53144K9L2 9L220160324115010203/24/16 11:50:31  5-MIN K9L2 241950Z AUTO 15004KT 10SM CLR 20/M05 A3013 2110 18 3200 140/04 RMK AO2 $
53144K9L2 9L220160324115511903/24/16 11:55:31  5-MIN K9L2 241955Z AUTO VRB05KT 10SM CLR 20/M06 A3013 2110 17 3200 VRB/05 RMK AO2 SLP200 T02001056 $
53144K9L2 9L220160324120010203/24/16 12:00:31  5-MIN K9L2 242000Z AUTO 16004KT 10SM CLR 20/M07 A3013 2110 16 3200 150/04 RMK AO2 $
53144K9L2 9L220160324120510203/24/16 12:05:31  5-MIN K9L2 242005Z AUTO 15004KT 10SM CLR 20/M08 A3012 2120 14 3200 140/04 RMK AO2 $
53144K9L2 9L220160324121010203/24/16 12:10:31  5-MIN K9L2 242010Z AUTO 16004KT 10SM CLR 21/M06 A3012 2120 16 3300 150/04 RMK AO2 $
53144K9L2 9L220160324121510203/24/16 12:15:31  5-MIN K9L2 242015Z AUTO 17005KT 10SM CLR 21/M07 A3011 2120 15 3300 160/05 RMK AO2 $
53144K9L2 9L220160324122010203/24/16 12:20:31  5-MIN K9L2 242020Z AUTO 16005KT 10SM CLR 21/M07 A3011 2130 15 3300 150/05 RMK AO2 $
53144K9L2 9L220160324122510203/24/16 12:25:31  5-MIN K9L2 242025Z AUTO 18006KT 10SM CLR 22/M07 A3011 2130 14 3400 160/06 RMK AO2 $
53144K9L2 9L220160324123010203/24/16 12:30:31  5-MIN K9L2 242030Z AUTO 17005KT 10SM CLR 21/M07 A3010 2130 15 3400 160/05 RMK AO2 $
53144K9L2 9L220160324123510203/24/16 12:35:31  5-MIN K9L2 242035Z AUTO 18005KT 10SM CLR 22/M07 A3010 2130 14 3400 170/05 RMK AO2 $
53144K9L2 9L220160324124010203/24/16 12:40:31  5-MIN K9L2 242040Z AUTO 16005KT 10SM CLR 22/M07 A3010 2140 14 3400 150/05 RMK AO2 $
53144K9L2 9L220160324124510203/24/16 12:45:31  5-MIN K9L2 242045Z AUTO 16005KT 10SM CLR 22/M07 A3009 2140 13 3400 150/05 RMK AO2 $
53144K9L2 9L220160324125010203/24/16 12:50:31  5-MIN K9L2 242050Z AUTO 16005KT 10SM CLR 22/M07 A3009 2140 14 3400 140/05 RMK AO2 $
53144K9L2 9L220160324125512503/24/16 12:55:31  5-MIN K9L2 242055Z AUTO 15006KT 10SM CLR 22/M07 A3009 2150 14 3500 130/06 RMK AO2 SLP185 T02221067 58001 $
53144K9L2 9L220160324130010203/24/16 13:00:31  5-MIN K9L2 242100Z AUTO 13004KT 10SM CLR 22/M07 A3009 2150 14 3500 110/04 RMK AO2 $
53144K9L2 9L220160324130510203/24/16 13:05:31  5-MIN K9L2 242105Z AUTO 16006KT 10SM CLR 23/M07 A3008 2150 13 3600 150/06 RMK AO2 $
53144K9L2 9L220160324131010203/24/16 13:10:31  5-MIN K9L2 242110Z AUTO VRB03KT 10SM CLR 22/M08 A3008 2150 12 3500 VRB/03 RMK AO2 $
53144K9L2 9L220160324131510203/24/16 13:15:31  5-MIN K9L2 242115Z AUTO 17005KT 10SM CLR 23/M09 A3008 2160 11 3600 160/05 RMK AO2 $
53144K9L2 9L220160324132010203/24/16 13:20:31  5-MIN K9L2 242120Z AUTO 18005KT 10SM CLR 23/M09 A3008 2160 11 3600 170/05 RMK AO2 $
53144K9L2 9L220160324132510203/24/16 13:25:31  5-MIN K9L2 242125Z AUTO 19005KT 10SM CLR 23/M09 A3007 2160 11 3600 180/05 RMK AO2 $
53144K9L2 9L220160324133010203/24/16 13:30:31  5-MIN K9L2 242130Z AUTO 18004KT 10SM CLR 23/M09 A3007 2160 11 3600 170/04 RMK AO2 $
53144K9L2 9L220160324133510203/24/16 13:35:31  5-MIN K9L2 242135Z AUTO 15004KT 10SM CLR 23/M09 A3007 2160 11 3600 140/04 RMK AO2 $
53144K9L2 9L220160324134010203/24/16 13:40:31  5-MIN K9L2 242140Z AUTO 15005KT 10SM CLR 23/M10 A3007 2170 10 3600 140/05 RMK AO2 $
53144K9L2 9L220160324134510203/24/16 13:45:31  5-MIN K9L2 242145Z AUTO 16005KT 10SM CLR 23/M09 A3006 2170 11 3600 140/05 RMK AO2 $
53144K9L2 9L220160324135010203/24/16 13:50:31  5-MIN K9L2 242150Z AUTO 16006KT 10SM CLR 23/M09 A3006 2170 11 3700 150/06 RMK AO2 $
53144K9L2 9L220160324135511903/24/16 13:55:31  5-MIN K9L2 242155Z AUTO VRB03KT 10SM CLR 23/M09 A3006 2180 10 3700 VRB/03 RMK AO2 SLP176 T02331094 $
53144K9L2 9L220160324140010203/24/16 14:00:31  5-MIN K9L2 242200Z AUTO 16005KT 10SM CLR 23/M09 A3005 2180 10 3700 140/05 RMK AO2 $
53144K9L2 9L220160324140510203/24/16 14:05:31  5-MIN K9L2 242205Z AUTO 14007KT 10SM CLR 24/M09 A3005 2190 10 3700 130/07 RMK AO2 $
53144K9L2 9L220160324141010203/24/16 14:10:31  5-MIN K9L2 242210Z AUTO 17005KT 10SM CLR 24/M08 A3004 2190 11 3700 150/05 RMK AO2 $
53144K9L2 9L220160324141510203/24/16 14:15:31  5-MIN K9L2 242215Z AUTO 17007KT 10SM CLR 23/M08 A3004 2190 11 3700 160/07 RMK AO2 $
53144K9L2 9L220160324142010203/24/16 14:20:31  5-MIN K9L2 242220Z AUTO VRB04KT 10SM CLR 23/M08 A3004 2190 12 3700 VRB/04 RMK AO2 $
53144K9L2 9L220160324142510203/24/16 14:25:31  5-MIN K9L2 242225Z AUTO 00000KT 10SM CLR 23/M08 A3003 2200 12 3700 000/00 RMK AO2 $
53144K9L2 9L220160324143010203/24/16 14:30:31  5-MIN K9L2 242230Z AUTO VRB03KT 10SM CLR 23/M08 A3003 2200 12 3700 VRB/03 RMK AO2 $
53144K9L2 9L220160324143510203/24/16 14:35:31  5-MIN K9L2 242235Z AUTO 12005KT 10SM CLR 24/M08 A3003 2200 11 3800 110/05 RMK AO2 $
53144K9L2 9L220160324144010203/24/16 14:40:31  5-MIN K9L2 242240Z AUTO 12006KT 10SM CLR 24/M08 A3002 2210 11 3800 110/06 RMK AO2 $
53144K9L2 9L220160324144510203/24/16 14:45:31  5-MIN K9L2 242245Z AUTO 00000KT 10SM CLR 24/M07 A3002 2210 12 3800 000/00 RMK AO2 $
53144K9L2 9L220160324145010803/24/16 14:50:31  5-MIN K9L2 242250Z AUTO 23011G14KT 10SM CLR 24/M04 A3002 2210 15 3800 220/11G14 RMK AO2 $
53144K9L2 9L220160324145512503/24/16 14:55:31  5-MIN K9L2 242255Z AUTO 26012G17KT 10SM CLR 24/M01 A3001 2220 19 3800 240/12G17 RMK AO2 SLP160 T02441006 $
53144K9L2 9L220160324150010103/24/16 15:00:31  5-MIN K9L2 242300Z AUTO 26012KT 10SM CLR 24/00 A3001 2220 19 3800 240/12 RMK AO2 $
53144K9L2 9L220160324150511203/24/16 15:05:31  5-MIN K9L2 242305Z AUTO 26011KT 10SM CLR 24/00 A3001 2220 20 3800 240/11 RMK AO2 WSHFT 2250 $
53144K9L2 9L220160324151011803/24/16 15:10:31  5-MIN K9L2 242310Z AUTO 24013G18KT 10SM CLR 24/01 A3001 2220 21 3800 230/13G18 RMK AO2 WSHFT 2250 $
53144K9L2 9L220160324151511803/24/16 15:15:31  5-MIN K9L2 242315Z AUTO 25010G18KT 10SM CLR 23/01 A3001 2220 22 3700 240/10G18 RMK AO2 WSHFT 2250 $
53144K9L2 9L220160324152011203/24/16 15:20:31  5-MIN K9L2 242320Z AUTO 24013KT 10SM CLR 23/00 A3000 2230 21 3700 220/13 RMK AO2 WSHFT 2250 $
53144K9L2 9L220160324152511203/24/16 15:25:31  5-MIN K9L2 242325Z AUTO 24013KT 10SM CLR 23/01 A3000 2230 22 3700 230/13 RMK AO2 WSHFT 2250 $
53144K9L2 9L220160324153011203/24/16 15:30:31  5-MIN K9L2 242330Z AUTO 24010KT 10SM CLR 23/01 A3000 2230 22 3700 230/10 RMK AO2 WSHFT 2250 $
53144K9L2 9L220160324153511203/24/16 15:35:31  5-MIN K9L2 242335Z AUTO 23008KT 10SM CLR 23/01 A2999 2230 22 3700 220/08 RMK AO2 WSHFT 2250 $
53144K9L2 9L220160324154011203/24/16 15:40:31  5-MIN K9L2 242340Z AUTO 27007KT 10SM CLR 23/01 A2999 2240 22 3700 250/07 RMK AO2 WSHFT 2250 $
53144K9L2 9L220160325015010103/25/16 01:50:31  5-MIN K9L2 250950Z AUTO 08003KT 10SM CLR 09/00 A2998 2250 53 2100 070/03 RMK AO2 $
53144K9L2 9L220160325015511803/25/16 01:55:31  5-MIN K9L2 250955Z AUTO 06003KT 10SM CLR 09/00 A2998 2250 53 2100 050/03 RMK AO2 SLP145 T00890000 $
53144K9L2 9L220160325020010103/25/16 02:00:31  5-MIN K9L2 251000Z AUTO 00000KT 10SM CLR 08/00 A2998 2250 55 2000 000/00 RMK AO2 $
53144K9L2 9L220160325020510203/25/16 02:05:31  5-MIN K9L2 251005Z AUTO 00000KT 10SM CLR 09/M01 A2998 2250 51 2100 000/00 RMK AO2 $
53144K9L2 9L220160325021010203/25/16 02:10:31  5-MIN K9L2 251010Z AUTO 03003KT 10SM CLR 08/M01 A2998 2250 53 2000 010/03 RMK AO2 $
53144K9L2 9L220160325021510203/25/16 02:15:31  5-MIN K9L2 251015Z AUTO 03003KT 10SM CLR 07/M01 A2997 2250 55 1900 020/03 RMK AO2 $
53144K9L2 9L220160325022010203/25/16 02:20:31  5-MIN K9L2 251020Z AUTO 03004KT 10SM CLR 07/M01 A2997 2250 57 1800 020/04 RMK AO2 $
53144K9L2 9L220160325022510203/25/16 02:25:31  5-MIN K9L2 251025Z AUTO 02003KT 10SM CLR 07/M01 A2997 2250 57 1800 010/03 RMK AO2 $
53144K9L2 9L220160325023010203/25/16 02:30:31  5-MIN K9L2 251030Z AUTO 00000KT 10SM CLR 06/M02 A2998 2250 57 1800 000/00 RMK AO2 $
53144K9L2 9L220160325023510203/25/16 02:35:31  5-MIN K9L2 251035Z AUTO 34003KT 10SM CLR 06/M02 A2998 2250 59 1700 330/03 RMK AO2 $
53144K9L2 9L220160325024010203/25/16 02:40:31  5-MIN K9L2 251040Z AUTO 36004KT 10SM CLR 06/M01 A2998 2250 60 1800 350/04 RMK AO2 $
53144K9L2 9L220160325024510203/25/16 02:45:31  5-MIN K9L2 251045Z AUTO 34004KT 10SM CLR 06/M01 A2998 2250 60 1800 330/04 RMK AO2 $
53144K9L2 9L220160325025010203/25/16 02:50:31  5-MIN K9L2 251050Z AUTO 01004KT 10SM CLR 06/M01 A2998 2250 60 1800 360/04 RMK AO2 $
53144K9L2 9L220160325025511903/25/16 02:55:31  5-MIN K9L2 251055Z AUTO 36004KT 10SM CLR 06/M01 A2997 2250 62 1700 350/04 RMK AO2 SLP145 T00561011 $
53144K9L2 9L220160325030010203/25/16 03:00:31  5-MIN K9L2 251100Z AUTO 01005KT 10SM CLR 06/M01 A2997 2250 62 1700 360/05 RMK AO2 $
53144K9L2 9L220160325030510203/25/16 03:05:31  5-MIN K9L2 251105Z AUTO 01004KT 10SM CLR 06/M01 A2997 2250 62 1700 360/04 RMK AO2 $
53144K9L2 9L220160325031010203/25/16 03:10:31  5-MIN K9L2 251110Z AUTO 01003KT 10SM CLR 06/M01 A2997 2260 62 1700 360/03 RMK AO2 $
53144K9L2 9L220160325031510203/25/16 03:15:31  5-MIN K9L2 251115Z AUTO 03003KT 10SM CLR 06/M01 A2997 2260 62 1700 020/03 RMK AO2 $
53144K9L2 9L220160325032010203/25/16 03:20:31  5-MIN K9L2 251120Z AUTO 00000KT 10SM CLR 06/M01 A2997 2260 62 1700 000/00 RMK AO2 $
53144K9L2 9L220160325032510203/25/16 03:25:31  5-MIN K9L2 251125Z AUTO 00000KT 10SM CLR 06/M01 A2997 2260 62 1700 000/00 RMK AO2 $
53144K9L2 9L220160325033010203/25/16 03:30:31  5-MIN K9L2 251130Z AUTO 00000KT 10SM CLR 06/M01 A2997 2260 62 1700 000/00 RMK AO2 $
53144K9L2 9L220160325033510203/25/16 03:35:31  5-MIN K9L2 251135Z AUTO 00000KT 10SM CLR 06/M01 A2997 2260 62 1700 000/00 RMK AO2 $
53144K9L2 9L220160325034010203/25/16 03:40:31  5-MIN K9L2 251140Z AUTO 00000KT 10SM CLR 06/M01 A2997 2260 62 1700 000/00 RMK AO2 $
53144K9L2 9L220160325034510203/25/16 03:45:31  5-MIN K9L2 251145Z AUTO 00000KT 10SM CLR 06/M01 A2997 2260 62 1700 000/00 RMK AO2 $
53144K9L2 9L220160325035010203/25/16 03:50:31  5-MIN K9L2 251150Z AUTO 01003KT 10SM CLR 05/M01 A2997 2250 64 1600 350/03 RMK AO2 $
53144K9L2 9L220160325035513703/25/16 03:55:31  5-MIN K9L2 251155Z AUTO 00000KT 10SM CLR 05/M01 A2997 2250 64 1600 000/00 RMK AO2 SLP146 T00501011 10144 20050 55004 $
53144K9L2 9L220160325040010203/25/16 04:00:31  5-MIN K9L2 251200Z AUTO 00000KT 10SM CLR 05/M01 A2997 2250 64 1600 000/00 RMK AO2 $
53144K9L2 9L220160325040510203/25/16 04:05:31  5-MIN K9L2 251205Z AUTO 00000KT 10SM CLR 05/M01 A2997 2260 64 1600 000/00 RMK AO2 $
53144K9L2 9L220160325041010203/25/16 04:10:31  5-MIN K9L2 251210Z AUTO 00000KT 10SM CLR 05/M01 A2997 2250 64 1600 000/00 RMK AO2 $
53144K9L2 9L220160325041510203/25/16 04:15:31  5-MIN K9L2 251215Z AUTO 29003KT 10SM CLR 04/M02 A2998 2250 64 1600 280/03 RMK AO2 $
53144K9L2 9L220160325042010203/25/16 04:20:31  5-MIN K9L2 251220Z AUTO 32004KT 10SM CLR 04/M02 A2998 2250 64 1600 310/04 RMK AO2 $
53144K9L2 9L220160325042510203/25/16 04:25:31  5-MIN K9L2 251225Z AUTO 00000KT 10SM CLR 04/M02 A2998 2250 64 1600 000/00 RMK AO2 $
53144K9L2 9L220160325043010203/25/16 04:30:31  5-MIN K9L2 251230Z AUTO 33003KT 10SM CLR 04/M02 A2998 2250 64 1600 310/03 RMK AO2 $
53144K9L2 9L220160325043510203/25/16 04:35:31  5-MIN K9L2 251235Z AUTO 00000KT 10SM CLR 04/M02 A2997 2250 64 1600 000/00 RMK AO2 $
53144K9L2 9L220160325044010203/25/16 04:40:31  5-MIN K9L2 251240Z AUTO 00000KT 10SM CLR 04/M02 A2998 2250 64 1600 000/00 RMK AO2 $
53144K9L2 9L220160325044510203/25/16 04:45:31  5-MIN K9L2 251245Z AUTO 00000KT 10SM CLR 04/M02 A2998 2250 67 1500 000/00 RMK AO2 $
53144K9L2 9L220160325045010203/25/16 04:50:31  5-MIN K9L2 251250Z AUTO 36003KT 10SM CLR 04/M02 A2998 2250 67 1500 340/03 RMK AO2 $
53144K9L2 9L220160325045511903/25/16 04:55:31  5-MIN K9L2 251255Z AUTO 34005KT 10SM CLR 04/M02 A2998 2250 67 1500 330/05 RMK AO2 SLP148 T00391017 $
53144K9L2 9L220160325050010203/25/16 05:00:31  5-MIN K9L2 251300Z AUTO 35003KT 10SM CLR 04/M02 A2997 2250 64 1600 330/03 RMK AO2 $
53144K9L2 9L220160325050510203/25/16 05:05:31  5-MIN K9L2 251305Z AUTO 03004KT 10SM CLR 04/M02 A2997 2250 64 1600 020/04 RMK AO2 $
53144K9L2 9L220160325051010203/25/16 05:10:31  5-MIN K9L2 251310Z AUTO 04004KT 10SM CLR 04/M01 A2997 2250 67 1600 030/04 RMK AO2 $
53144K9L2 9L220160325051510203/25/16 05:15:31  5-MIN K9L2 251315Z AUTO VRB03KT 10SM CLR 04/M02 A2997 2250 64 1600 VRB/03 RMK AO2 $
53144K9L2 9L220160325052010203/25/16 05:20:31  5-MIN K9L2 251320Z AUTO 00000KT 10SM CLR 05/M01 A2998 2250 64 1600 000/00 RMK AO2 $
53144K9L2 9L220160325052510203/25/16 05:25:31  5-MIN K9L2 251325Z AUTO 07004KT 10SM CLR 05/M01 A2998 2250 67 1600 060/04 RMK AO2 $
53144K9L2 9L220160325053010203/25/16 05:30:31  5-MIN K9L2 251330Z AUTO 00000KT 10SM CLR 05/M01 A2997 2250 67 1600 000/00 RMK AO2 $
53144K9L2 9L220160325053510203/25/16 05:35:31  5-MIN K9L2 251335Z AUTO 00000KT 10SM CLR 05/M01 A2998 2250 64 1600 000/00 RMK AO2 $
53144K9L2 9L220160325054010203/25/16 05:40:31  5-MIN K9L2 251340Z AUTO 00000KT 10SM CLR 04/M01 A2998 2250 67 1600 000/00 RMK AO2 $
53144K9L2 9L220160325054510203/25/16 05:45:31  5-MIN K9L2 251345Z AUTO 00000KT 10SM CLR 05/M01 A2998 2250 67 1600 000/00 RMK AO2 $
53144K9L2 9L220160325055010203/25/16 05:50:31  5-MIN K9L2 251350Z AUTO 00000KT 10SM CLR 04/M01 A2997 2250 67 1600 000/00 RMK AO2 $
53144K9L2 9L220160325055511903/25/16 05:55:31  5-MIN K9L2 251355Z AUTO 00000KT 10SM CLR 04/M01 A2997 2250 67 1600 000/00 RMK AO2 SLP149 T00441011 $
53144K9L2 9L220160325060010203/25/16 06:00:31  5-MIN K9L2 251400Z AUTO 00000KT 10SM CLR 04/M01 A2997 2250 67 1600 000/00 RMK AO2 $
53144K9L2 9L220160325060510203/25/16 06:05:31  5-MIN K9L2 251405Z AUTO 00000KT 10SM CLR 04/M01 A2998 2250 67 1600 000/00 RMK AO2 $
53144K9L2 9L220160325061010203/25/16 06:10:31  5-MIN K9L2 251410Z AUTO 00000KT 10SM CLR 04/M01 A2998 2250 67 1600 000/00 RMK AO2 $
53144K9L2 9L220160325061510203/25/16 06:15:31  5-MIN K9L2 251415Z AUTO 00000KT 10SM CLR 05/M01 A2998 2250 64 1600 000/00 RMK AO2 $
53144K9L2 9L220160325062010203/25/16 06:20:31  5-MIN K9L2 251420Z AUTO 00000KT 10SM CLR 05/M01 A2998 2250 64 1600 000/00 RMK AO2 $
53144K9L2 9L220160325062510203/25/16 06:25:31  5-MIN K9L2 251425Z AUTO 00000KT 10SM CLR 05/M01 A2998 2250 64 1600 000/00 RMK AO2 $
53144K9L2 9L220160325063010203/25/16 06:30:31  5-MIN K9L2 251430Z AUTO 00000KT 10SM CLR 06/M01 A2998 2250 65 1700 000/00 RMK AO2 $
53144K9L2 9L220160325063510103/25/16 06:35:31  5-MIN K9L2 251435Z AUTO 00000KT 10SM CLR 07/00 A2998 2240 62 1800 000/00 RMK AO2 $
53144K9L2 9L220160325064010103/25/16 06:40:31  5-MIN K9L2 251440Z AUTO 00000KT 10SM CLR 07/00 A2999 2240 60 1900 000/00 RMK AO2 $
53144K9L2 9L220160325064510103/25/16 06:45:31  5-MIN K9L2 251445Z AUTO 00000KT 10SM CLR 07/00 A2999 2240 60 1900 000/00 RMK AO2 $
53144K9L2 9L220160325065010103/25/16 06:50:31  5-MIN K9L2 251450Z AUTO 00000KT 10SM CLR 08/00 A2999 2240 58 1900 000/00 RMK AO2 $
53144K9L2 9L220160325065512403/25/16 06:55:31  5-MIN K9L2 251455Z AUTO 00000KT 10SM CLR 08/00 A2999 2240 58 1900 000/00 RMK AO2 SLP155 T00780000 56006 $
53144K9L2 9L220160325070010103/25/16 07:00:31  5-MIN K9L2 251500Z AUTO 31003KT 10SM CLR 08/01 A2999 2240 58 2000 300/03 RMK AO2 $
53144K9L2 9L220160325070510103/25/16 07:05:31  5-MIN K9L2 251505Z AUTO 32003KT 10SM CLR 09/01 A2999 2240 56 2100 310/03 RMK AO2 $
53144K9L2 9L220160325071010103/25/16 07:10:31  5-MIN K9L2 251510Z AUTO 32003KT 10SM CLR 09/01 A2999 2240 53 2100 310/03 RMK AO2 $
53144K9L2 9L220160325071510103/25/16 07:15:31  5-MIN K9L2 251515Z AUTO 00000KT 10SM CLR 10/01 A2999 2240 52 2200 000/00 RMK AO2 $
53144K9L2 9L220160325072010103/25/16 07:20:31  5-MIN K9L2 251520Z AUTO 00000KT 10SM CLR 11/01 A2999 2240 52 2300 000/00 RMK AO2 $
53144K9L2 9L220160325072510103/25/16 07:25:31  5-MIN K9L2 251525Z AUTO 00000KT 10SM CLR 11/01 A2999 2240 50 2300 000/00 RMK AO2 $
53144K9L2 9L220160325073010103/25/16 07:30:31  5-MIN K9L2 251530Z AUTO 00000KT 10SM CLR 11/01 A2999 2240 50 2300 000/00 RMK AO2 $
53144K9L2 9L220160325073510103/25/16 07:35:31  5-MIN K9L2 251535Z AUTO 07004KT 10SM CLR 10/00 A2999 2240 49 2200 060/04 RMK AO2 $
53144K9L2 9L220160325074010203/25/16 07:40:31  5-MIN K9L2 251540Z AUTO 00000KT 10SM CLR 11/M01 A2999 2240 46 2300 000/00 RMK AO2 $
53144K9L2 9L220160325074510103/25/16 07:45:31  5-MIN K9L2 251545Z AUTO 08003KT 10SM CLR 11/00 A2998 2240 48 2300 060/03 RMK AO2 $
53144K9L2 9L220160325075010103/25/16 07:50:31  5-MIN K9L2 251550Z AUTO 00000KT 10SM CLR 11/00 A2998 2240 46 2300 000/00 RMK AO2 $
53144K9L2 9L220160325075511803/25/16 07:55:31  5-MIN K9L2 251555Z AUTO 00000KT 10SM CLR 11/01 A2998 2250 48 2400 000/00 RMK AO2 SLP150 T01110006 $
53144K9L2 9L220160325080010103/25/16 08:00:31  5-MIN K9L2 251600Z AUTO 09003KT 10SM CLR 12/01 A2998 2250 46 2400 080/03 RMK AO2 $
53144K9L2 9L220160325080510103/25/16 08:05:31  5-MIN K9L2 251605Z AUTO 00000KT 10SM CLR 12/01 A2998 2240 48 2400 000/00 RMK AO2 $
53144K9L2 9L220160325081010103/25/16 08:10:31  5-MIN K9L2 251610Z AUTO 11003KT 10SM CLR 12/01 A2998 2240 46 2400 100/03 RMK AO2 $
53144K9L2 9L220160325081510103/25/16 08:15:31  5-MIN K9L2 251615Z AUTO 00000KT 10SM CLR 11/01 A2999 2240 48 2300 000/00 RMK AO2 $
53144K9L2 9L220160325082010103/25/16 08:20:31  5-MIN K9L2 251620Z AUTO 14003KT 10SM CLR 12/01 A2999 2240 48 2400 130/03 RMK AO2 $
53144K9L2 9L220160325082510103/25/16 08:25:31  5-MIN K9L2 251625Z AUTO 00000KT 10SM CLR 12/01 A2998 2250 48 2400 000/00 RMK AO2 $
53144K9L2 9L220160325083010103/25/16 08:30:31  5-MIN K9L2 251630Z AUTO 15003KT 10SM CLR 12/01 A2998 2250 48 2400 140/03 RMK AO2 $
53144K9L2 9L220160325083510103/25/16 08:35:31  5-MIN K9L2 251635Z AUTO 00000KT 10SM CLR 12/01 A2998 2250 46 2500 000/00 RMK AO2 $
53144K9L2 9L220160325084010103/25/16 08:40:31  5-MIN K9L2 251640Z AUTO 00000KT 10SM CLR 13/02 A2998 2250 46 2600 000/00 RMK AO2 $
53144K9L2 9L220160325084510103/25/16 08:45:31  5-MIN K9L2 251645Z AUTO 00000KT 10SM CLR 13/02 A2998 2250 46 2600 000/00 RMK AO2 $
53144K9L2 9L220160325085010103/25/16 08:50:31  5-MIN K9L2 251650Z AUTO 17003KT 10SM CLR 14/02 A2998 2250 45 2700 160/03 RMK AO2 $
53144K9L2 9L220160325085511803/25/16 08:55:31  5-MIN K9L2 251655Z AUTO 00000KT 10SM CLR 15/03 A2998 2250 43 2800 000/00 RMK AO2 SLP146 T01500028 $
53144K9L2 9L220160325090010103/25/16 09:00:31  5-MIN K9L2 251700Z AUTO 15004KT 10SM CLR 15/03 A2997 2250 43 2800 140/04 RMK AO2 $
53144K9L2 9L220160325090510103/25/16 09:05:31  5-MIN K9L2 251705Z AUTO 15003KT 10SM CLR 15/03 A2997 2250 43 2800 140/03 RMK AO2 $
53144K9L2 9L220160325091010103/25/16 09:10:31  5-MIN K9L2 251710Z AUTO 16003KT 10SM CLR 16/03 A2997 2250 43 2900 150/03 RMK AO2 $
53144K9L2 9L220160325091510103/25/16 09:15:31  5-MIN K9L2 251715Z AUTO 17005KT 10SM CLR 16/03 A2997 2250 42 2900 160/05 RMK AO2 $
53144K9L2 9L220160325092010103/25/16 09:20:31  5-MIN K9L2 251720Z AUTO 18005KT 10SM CLR 16/03 A2997 2250 42 2900 160/05 RMK AO2 $
53144K9L2 9L220160325092510103/25/16 09:25:31  5-MIN K9L2 251725Z AUTO 17004KT 10SM CLR 17/03 A2997 2260 40 3000 160/04 RMK AO2 $
53144K9L2 9L220160325093010103/25/16 09:30:31  5-MIN K9L2 251730Z AUTO 16003KT 10SM CLR 17/03 A2997 2260 40 3000 150/03 RMK AO2 $
53144K9L2 9L220160325093510103/25/16 09:35:31  5-MIN K9L2 251735Z AUTO VRB03KT 10SM CLR 17/03 A2997 2260 37 3100 VRB/03 RMK AO2 $
53144K9L2 9L220160325094010103/25/16 09:40:31  5-MIN K9L2 251740Z AUTO 00000KT 10SM CLR 17/03 A2997 2260 37 3100 000/00 RMK AO2 $
53144K9L2 9L220160325094510103/25/16 09:45:31  5-MIN K9L2 251745Z AUTO 00000KT 10SM CLR 17/02 A2997 2260 36 3100 000/00 RMK AO2 $
53144K9L2 9L220160325095010103/25/16 09:50:31  5-MIN K9L2 251750Z AUTO 19004KT 10SM CLR 18/02 A2997 2260 35 3100 180/04 RMK AO2 $
53144K9L2 9L220160325095513603/25/16 09:55:31  5-MIN K9L2 251755Z AUTO 00000KT 10SM CLR 18/02 A2996 2260 35 3100 000/00 RMK AO2 SLP141 T01780022 10178 20039 53005 $
53144K9L2 9L220160325100010103/25/16 10:00:31  5-MIN K9L2 251800Z AUTO VRB03KT 10SM CLR 18/02 A2996 2260 34 3200 VRB/03 RMK AO2 $
53144K9L2 9L220160325100510103/25/16 10:05:31  5-MIN K9L2 251805Z AUTO 13004KT 10SM CLR 19/02 A2996 2270 32 3300 120/04 RMK AO2 $
53144K9L2 9L220160325101010103/25/16 10:10:31  5-MIN K9L2 251810Z AUTO VRB04KT 10SM CLR 18/02 A2996 2270 34 3200 VRB/04 RMK AO2 $
53144K9L2 9L220160325101510103/25/16 10:15:31  5-MIN K9L2 251815Z AUTO VRB03KT 10SM CLR 19/02 A2996 2270 32 3300 VRB/03 RMK AO2 $
53144K9L2 9L220160325102010103/25/16 10:20:31  5-MIN K9L2 251820Z AUTO 13004KT 10SM CLR 19/02 A2996 2270 32 3300 120/04 RMK AO2 $
53144K9L2 9L220160325102510103/25/16 10:25:31  5-MIN K9L2 251825Z AUTO 15003KT 10SM CLR 19/02 A2995 2270 31 3300 140/03 RMK AO2 $
53144K9L2 9L220160325103010103/25/16 10:30:31  5-MIN K9L2 251830Z AUTO VRB03KT 10SM CLR 19/02 A2995 2270 30 3300 VRB/03 RMK AO2 $
53144K9L2 9L220160325103510103/25/16 10:35:31  5-MIN K9L2 251835Z AUTO 16003KT 10SM CLR 20/02 A2995 2270 30 3400 150/03 RMK AO2 $
53144K9L2 9L220160325104010103/25/16 10:40:31  5-MIN K9L2 251840Z AUTO VRB03KT 10SM CLR 19/02 A2995 2280 30 3400 VRB/03 RMK AO2 $
53144K9L2 9L220160325104510103/25/16 10:45:31  5-MIN K9L2 251845Z AUTO 16005KT 10SM CLR 20/02 A2995 2280 29 3400 150/05 RMK AO2 $
53144K9L2 9L220160325105010103/25/16 10:50:31  5-MIN K9L2 251850Z AUTO 16003KT 10SM CLR 20/02 A2994 2280 29 3400 140/03 RMK AO2 $
53144K9L2 9L220160325105511803/25/16 10:55:31  5-MIN K9L2 251855Z AUTO 15003KT 10SM CLR 20/02 A2994 2280 29 3400 130/03 RMK AO2 SLP133 T02000017 $
53144K9L2 9L220160325110010103/25/16 11:00:31  5-MIN K9L2 251900Z AUTO 16003KT 10SM CLR 20/02 A2994 2280 29 3400 150/03 RMK AO2 $
53144K9L2 9L220160325110510103/25/16 11:05:31  5-MIN K9L2 251905Z AUTO 00000KT 10SM CLR 21/02 A2994 2290 28 3500 000/00 RMK AO2 $
53144K9L2 9L220160325111010103/25/16 11:10:31  5-MIN K9L2 251910Z AUTO 00000KT 10SM CLR 21/02 A2993 2290 28 3500 000/00 RMK AO2 $
53144K9L2 9L220160325111510103/25/16 11:15:31  5-MIN K9L2 251915Z AUTO 15004KT 10SM CLR 21/01 A2993 2290 26 3600 140/04 RMK AO2 $
53144K9L2 9L220160325112010103/25/16 11:20:31  5-MIN K9L2 251920Z AUTO 16004KT 10SM CLR 21/01 A2993 2290 26 3600 150/04 RMK AO2 $
53144K9L2 9L220160325112510103/25/16 11:25:31  5-MIN K9L2 251925Z AUTO 18003KT 10SM CLR 22/01 A2993 2300 24 3600 160/03 RMK AO2 $
53144K9L2 9L220160325113010103/25/16 11:30:31  5-MIN K9L2 251930Z AUTO 00000KT 10SM CLR 22/00 A2992 2300 23 3600 000/00 RMK AO2 $
53144K9L2 9L220160325113510103/25/16 11:35:31  5-MIN K9L2 251935Z AUTO 14004KT 10SM CLR 22/01 A2992 2300 23 3700 120/04 RMK AO2 $
53144K9L2 9L220160325114010103/25/16 11:40:31  5-MIN K9L2 251940Z AUTO 11005KT 10SM CLR 22/01 A2992 2300 23 3700 090/05 RMK AO2 $
53144K9L2 9L220160325114510103/25/16 11:45:31  5-MIN K9L2 251945Z AUTO 13005KT 10SM CLR 23/01 A2992 2310 22 3800 110/05 RMK AO2 $
53144K9L2 9L220160325115010103/25/16 11:50:31  5-MIN K9L2 251950Z AUTO 16006KT 10SM CLR 23/00 A2991 2310 22 3800 140/06 RMK AO2 $
53144K9L2 9L220160325115511803/25/16 11:55:31  5-MIN K9L2 251955Z AUTO VRB03KT 10SM CLR 23/00 A2991 2310 22 3800 VRB/03 RMK AO2 SLP119 T02280000 $
53144K9L2 9L220160325120010103/25/16 12:00:31  5-MIN K9L2 252000Z AUTO 00000KT 10SM CLR 24/00 A2991 2310 20 3900 000/00 RMK AO2 $
53144K9L2 9L220160325120510103/25/16 12:05:31  5-MIN K9L2 252005Z AUTO 16007KT 10SM CLR 23/00 A2990 2320 21 3800 150/07 RMK AO2 $
53144K9L2 9L220160325121010103/25/16 12:10:31  5-MIN K9L2 252010Z AUTO 15004KT 10SM CLR 24/01 A2990 2320 21 3900 140/04 RMK AO2 $
53144K9L2 9L220160325121510103/25/16 12:15:31  5-MIN K9L2 252015Z AUTO 15003KT 10SM CLR 23/00 A2990 2320 21 3900 140/03 RMK AO2 $
53144K9L2 9L220160325122010103/25/16 12:20:31  5-MIN K9L2 252020Z AUTO VRB04KT 10SM CLR 24/01 A2989 2330 21 3900 VRB/04 RMK AO2 $
53144K9L2 9L220160325122510103/25/16 12:25:31  5-MIN K9L2 252025Z AUTO 15007KT 10SM CLR 24/00 A2989 2330 19 4000 140/07 RMK AO2 $
53144K9L2 9L220160325123010203/25/16 12:30:31  5-MIN K9L2 252030Z AUTO VRB06KT 10SM CLR 24/M01 A2988 2340 19 4000 VRB/06 RMK AO2 $
53144K9L2 9L220160325123510703/25/16 12:35:31  5-MIN K9L2 252035Z AUTO 23010G14KT 10SM CLR 26/01 A2988 2340 19 4100 220/10G14 RMK AO2 $
53144K9L2 9L220160325124010703/25/16 12:40:31  5-MIN K9L2 252040Z AUTO 23009G16KT 10SM CLR 25/01 A2988 2340 20 4100 220/09G16 RMK AO2 $
53144K9L2 9L220160325124510703/25/16 12:45:31  5-MIN K9L2 252045Z AUTO 23011G16KT 10SM CLR 25/01 A2988 2340 20 4100 220/11G16 RMK AO2 $
53144K9L2 9L220160325125010703/25/16 12:50:31  5-MIN K9L2 252050Z AUTO 23012G16KT 10SM CLR 25/01 A2988 2340 20 4100 210/12G16 RMK AO2 $
53144K9L2 9L220160325125513003/25/16 12:55:31  5-MIN K9L2 252055Z AUTO 22009G15KT 10SM CLR 25/00 A2987 2350 19 4100 210/09G15 RMK AO2 SLP107 T02500000 58007 $
53144K9L2 9L220160325130011703/25/16 13:00:31  5-MIN K9L2 252100Z AUTO 24008KT 220V300 10SM CLR 26/00 A2987 2350 18 4100 230/08 210V290 RMK AO2 $
53144K9L2 9L220160325130510203/25/16 13:05:31  5-MIN K9L2 252105Z AUTO 24005KT 10SM CLR 24/M01 A2987 2350 19 4000 220/05 RMK AO2 $
53144K9L2 9L220160325131010203/25/16 13:10:31  5-MIN K9L2 252110Z AUTO 22008KT 10SM CLR 25/M02 A2987 2350 17 4100 210/08 RMK AO2 $
53144K9L2 9L220160325131510703/25/16 13:15:31  5-MIN K9L2 252115Z AUTO 26015G18KT 10SM CLR 25/00 A2986 2350 19 4100 240/15G18 RMK AO2 $
53144K9L2 9L220160325132010703/25/16 13:20:31  5-MIN K9L2 252120Z AUTO 24011G18KT 10SM CLR 26/00 A2986 2360 18 4100 230/11G18 RMK AO2 $
53144K9L2 9L220160325132512403/25/16 13:25:31  5-MIN K9L2 252125Z AUTO 23009G17KT 190V250 10SM CLR 26/M02 A2986 2360 16 4100 220/09G17 180V240 RMK AO2 $
53144K9L2 9L220160325133010803/25/16 13:30:31  5-MIN K9L2 252130Z AUTO 27005G14KT 10SM CLR 24/M01 A2986 2360 18 4000 260/05G14 RMK AO2 $
53144K9L2 9L220160325133510803/25/16 13:35:31  5-MIN K9L2 252135Z AUTO 26014G18KT 10SM CLR 26/M02 A2985 2360 16 4200 250/14G18 RMK AO2 $
53144K9L2 9L220160325134010803/25/16 13:40:31  5-MIN K9L2 252140Z AUTO 25012G18KT 10SM CLR 26/M02 A2985 2370 16 4200 240/12G18 RMK AO2 $
53144K9L2 9L220160325134510803/25/16 13:45:31  5-MIN K9L2 252145Z AUTO 25011G18KT 10SM CLR 26/M02 A2985 2370 15 4200 240/11G18 RMK AO2 $
53144K9L2 9L220160325135010803/25/16 13:50:31  5-MIN K9L2 252150Z AUTO 29009G19KT 10SM CLR 26/M03 A2985 2370 15 4200 270/09G19 RMK AO2 $
53144K9L2 9L220160325135512503/25/16 13:55:31  5-MIN K9L2 252155Z AUTO 27012G19KT 10SM CLR 26/M03 A2985 2370 14 4200 250/12G19 RMK AO2 SLP098 T02611028 $
53144K9L2 9L220160325140010203/25/16 14:00:31  5-MIN K9L2 252200Z AUTO 28014KT 10SM CLR 26/M03 A2984 2370 14 4200 270/14 RMK AO2 $
53144K9L2 9L220160325140510803/25/16 14:05:31  5-MIN K9L2 252205Z AUTO 28012G18KT 10SM CLR 26/M02 A2984 2380 16 4200 270/12G18 RMK AO2 $
53144K9L2 9L220160325141010803/25/16 14:10:31  5-MIN K9L2 252210Z AUTO 29009G18KT 10SM CLR 26/M03 A2984 2380 15 4200 280/09G18 RMK AO2 $
53144K9L2 9L220160325141510803/25/16 14:15:31  5-MIN K9L2 252215Z AUTO 28010G15KT 10SM CLR 26/M04 A2984 2380 14 4200 270/10G15 RMK AO2 $
53144K9L2 9L220160325142010203/25/16 14:20:31  5-MIN K9L2 252220Z AUTO 28010KT 10SM CLR 26/M03 A2983 2390 15 4200 260/10 RMK AO2 $
53144K9L2 9L220160325142510803/25/16 14:25:31  5-MIN K9L2 252225Z AUTO 27015G20KT 10SM CLR 25/M01 A2983 2390 17 4100 260/15G20 RMK AO2 $
53144K9L2 9L220160325143010803/25/16 14:30:31  5-MIN K9L2 252230Z AUTO 27014G20KT 10SM CLR 24/M01 A2983 2390 19 4100 260/14G20 RMK AO2 $
53144K9L2 9L220160325143510203/25/16 14:35:31  5-MIN K9L2 252235Z AUTO 28015KT 10SM CLR 24/M01 A2983 2390 19 4100 270/15 RMK AO2 $
53144K9L2 9L220160325144010803/25/16 14:40:31  5-MIN K9L2 252240Z AUTO 26013G20KT 10SM CLR 24/M01 A2983 2390 19 4000 250/13G20 RMK AO2 $
53144K9L2 9L220160325144510203/25/16 14:45:31  5-MIN K9L2 252245Z AUTO 26012KT 10SM CLR 24/M02 A2983 2390 18 4000 250/12 RMK AO2 $
53144K9L2 9L220160325145010203/25/16 14:50:31  5-MIN K9L2 252250Z AUTO 27012KT 10SM CLR 24/M02 A2983 2390 18 4000 260/12 RMK AO2 $
53144K9L2 9L220160325145511903/25/16 14:55:31  5-MIN K9L2 252255Z AUTO 27013KT 10SM CLR 24/M02 A2982 2390 18 4000 260/13 RMK AO2 SLP093 T02391017 $
53144K9L2 9L220160325150010203/25/16 15:00:31  5-MIN K9L2 252300Z AUTO 26014KT 10SM CLR 24/M02 A2982 2400 17 4100 250/14 RMK AO2 $
53144K9L2 9L220160325150510203/25/16 15:05:31  5-MIN K9L2 252305Z AUTO 26012KT 10SM CLR 24/M03 A2982 2400 16 4100 250/12 RMK AO2 $
53144K9L2 9L220160325151010203/25/16 15:10:31  5-MIN K9L2 252310Z AUTO 27014KT 10SM CLR 24/M02 A2981 2400 17 4100 260/14 RMK AO2 $
53144K9L2 9L220160325151510203/25/16 15:15:31  5-MIN K9L2 252315Z AUTO 27012KT 10SM CLR 24/M02 A2981 2400 17 4100 260/12 RMK AO2 $
53144K9L2 9L220160325152010203/25/16 15:20:31  5-MIN K9L2 252320Z AUTO 26013KT 10SM CLR 25/M02 A2981 2410 17 4100 250/13 RMK AO2 $
53144K9L2 9L220160325152510203/25/16 15:25:31  5-MIN K9L2 252325Z AUTO 26011KT 10SM CLR 24/M02 A2981 2410 17 4100 250/11 RMK AO2 $
53144K9L2 9L220160325153010203/25/16 15:30:31  5-MIN K9L2 252330Z AUTO 26011KT 10SM CLR 24/M01 A2981 2410 18 4100 250/11 RMK AO2 $
53144K9L2 9L220160325153510203/25/16 15:35:31  5-MIN K9L2 252335Z AUTO 28012KT 10SM CLR 24/M01 A2981 2410 19 4100 270/12 RMK AO2 $
53144K9L2 9L220160325154010203/25/16 15:40:31  5-MIN K9L2 252340Z AUTO 28013KT 10SM CLR 24/M01 A2981 2410 18 4100 270/13 RMK AO2 $
53144K9L2 9L220160325154510203/25/16 15:45:31  5-MIN K9L2 252345Z AUTO 27013KT 10SM CLR 24/M01 A2980 2410 19 4100 250/13 RMK AO2 $
53144K9L2 9L220160325155010803/25/16 15:50:31  5-MIN K9L2 252350Z AUTO 27016G22KT 10SM CLR 24/M01 A2980 2410 18 4100 250/16G22 RMK AO2 $
53144K9L2 9L220160325155514203/25/16 15:55:31  5-MIN K9L2 252355Z AUTO 26018G23KT 10SM CLR 24/00 A2980 2420 19 4100 240/18G23 RMK AO2 SLP084 T02440000 10261 20178 58029 $
53144K9L2 9L220160325160010703/25/16 16:00:31  5-MIN K9L2 260000Z AUTO 25017G23KT 10SM CLR 24/01 A2979 2420 21 4000 240/17G23 RMK AO2 $
53144K9L2 9L220160325160510103/25/16 16:05:31  5-MIN K9L2 260005Z AUTO 25018KT 10SM CLR 24/01 A2979 2420 21 4000 240/18 RMK AO2 $
53144K9L2 9L220160325161010103/25/16 16:10:31  5-MIN K9L2 260010Z AUTO 25017KT 10SM CLR 24/00 A2979 2420 20 4000 240/17 RMK AO2 $
53144K9L2 9L220160325161510103/25/16 16:15:31  5-MIN K9L2 260015Z AUTO 26018KT 10SM CLR 23/00 A2979 2420 21 4000 250/18 RMK AO2 $
53144K9L2 9L220160325162010703/25/16 16:20:31  5-MIN K9L2 260020Z AUTO 25018G24KT 10SM CLR 23/00 A2979 2420 21 4000 230/18G24 RMK AO2 $
53144K9L2 9L220160325162510703/25/16 16:25:31  5-MIN K9L2 260025Z AUTO 26018G24KT 10SM CLR 24/00 A2979 2420 20 4000 250/18G24 RMK AO2 $
53144K9L2 9L220160325163010203/25/16 16:30:31  5-MIN K9L2 260030Z AUTO 27016KT 10SM CLR 23/M01 A2979 2420 20 4000 260/16 RMK AO2 $
53144K9L2 9L220160325163510103/25/16 16:35:31  5-MIN K9L2 260035Z AUTO 27017KT 10SM CLR 23/00 A2979 2420 21 4000 250/17 RMK AO2 $
53144K9L2 9L220160325164010703/25/16 16:40:31  5-MIN K9L2 260040Z AUTO 27016G22KT 10SM CLR 23/01 A2979 2420 22 4000 250/16G22 RMK AO2 $
53144K9L2 9L220160325164510703/25/16 16:45:31  5-MIN K9L2 260045Z AUTO 26017G23KT 10SM CLR 23/01 A2979 2430 22 3900 250/17G23 RMK AO2 $
53144K9L2 9L220160325165010103/25/16 16:50:31  5-MIN K9L2 260050Z AUTO 26017KT 10SM CLR 23/00 A2979 2430 22 3900 250/17 RMK AO2 $
53144K9L2 9L220160325165511803/25/16 16:55:31  5-MIN K9L2 260055Z AUTO 25018KT 10SM CLR 23/00 A2979 2430 22 3900 240/18 RMK AO2 SLP083 T02280000 $
53144K9L2 9L220160325170010103/25/16 17:00:31  5-MIN K9L2 260100Z AUTO 25017KT 10SM CLR 22/01 A2979 2430 23 3900 240/17 RMK AO2 $
53144K9L2 9L220160325170510703/25/16 17:05:31  5-MIN K9L2 260105Z AUTO 26021G25KT 10SM CLR 22/01 A2978 2430 25 3800 240/21G25 RMK AO2 $
53144K9L2 9L220160325171010703/25/16 17:10:31  5-MIN K9L2 260110Z AUTO 26019G25KT 10SM CLR 22/01 A2978 2430 25 3800 250/19G25 RMK AO2 $
53144K9L2 9L220160325171510703/25/16 17:15:31  5-MIN K9L2 260115Z AUTO 26018G24KT 10SM CLR 21/02 A2979 2430 27 3700 250/18G24 RMK AO2 $
53144K9L2 9L220160325172010703/25/16 17:20:31  5-MIN K9L2 260120Z AUTO 26019G24KT 10SM CLR 21/01 A2979 2430 26 3700 250/19G24 RMK AO2 $
53144K9L2 9L220160325172510703/25/16 17:25:31  5-MIN K9L2 260125Z AUTO 26017G24KT 10SM CLR 21/01 A2979 2430 27 3700 250/17G24 RMK AO2 $
53144K9L2 9L220160325173010703/25/16 17:30:31  5-MIN K9L2 260130Z AUTO 26016G22KT 10SM CLR 21/02 A2979 2430 28 3700 250/16G22 RMK AO2 $
53144K9L2 9L220160325173510703/25/16 17:35:31  5-MIN K9L2 260135Z AUTO 27017G23KT 10SM CLR 20/01 A2979 2430 28 3600 260/17G23 RMK AO2 $
53144K9L2 9L220160325174010703/25/16 17:40:31  5-MIN K9L2 260140Z AUTO 27018G23KT 10SM CLR 20/01 A2979 2430 28 3600 250/18G23 RMK AO2 $
53144K9L2 9L220160325174510103/25/16 17:45:31  5-MIN K9L2 260145Z AUTO 26016KT 10SM CLR 20/01 A2978 2430 28 3600 250/16 RMK AO2 $
53144K9L2 9L220160325175010703/25/16 17:50:31  5-MIN K9L2 260150Z AUTO 27018G23KT 10SM CLR 19/02 A2978 2430 30 3500 250/18G23 RMK AO2 $
53144K9L2 9L220160325175511803/25/16 17:55:31  5-MIN K9L2 260155Z AUTO 27018KT 10SM CLR 19/02 A2978 2430 30 3500 250/18 RMK AO2 SLP082 T01940017 $
53144K9L2 9L220160325180010703/25/16 18:00:31  5-MIN K9L2 260200Z AUTO 27018G25KT 10SM CLR 19/01 A2978 2440 30 3500 250/18G25 RMK AO2 $
53144K9L2 9L220160325180512503/25/16 18:05:31  5-MIN K9L2 260205Z AUTO 27019G26KT 10SM CLR 19/02 A2978 2440 31 3500 260/19G26 RMK AO2 PK WND 27026/0204 $
53144K9L2 9L220160325181012503/25/16 18:10:31  5-MIN K9L2 260210Z AUTO 27020G26KT 10SM CLR 18/02 A2978 2430 34 3400 260/20G26 RMK AO2 PK WND 27026/0204 $
53144K9L2 9L220160325181512503/25/16 18:15:31  5-MIN K9L2 260215Z AUTO 26019G25KT 10SM CLR 18/02 A2978 2430 34 3400 250/19G25 RMK AO2 PK WND 27026/0204 $
53144K9L2 9L220160325182012503/25/16 18:20:31  5-MIN K9L2 260220Z AUTO 26017G25KT 10SM CLR 18/03 A2978 2430 36 3400 250/17G25 RMK AO2 PK WND 27026/0204 $
53144K9L2 9L220160325182511903/25/16 18:25:31  5-MIN K9L2 260225Z AUTO 25017KT 10SM CLR 18/03 A2979 2430 36 3300 240/17 RMK AO2 PK WND 27026/0204 $
53144K9L2 9L220160325183012503/25/16 18:30:31  5-MIN K9L2 260230Z AUTO 25014G23KT 10SM CLR 17/03 A2979 2420 37 3300 230/14G23 RMK AO2 PK WND 27026/0204 $
53144K9L2 9L220160325183512503/25/16 18:35:31  5-MIN K9L2 260235Z AUTO 24015G22KT 10SM CLR 17/03 A2979 2420 37 3300 230/15G22 RMK AO2 PK WND 27026/0204 $
53144K9L2 9L220160325184012503/25/16 18:40:31  5-MIN K9L2 260240Z AUTO 24013G20KT 10SM CLR 17/03 A2979 2420 37 3300 230/13G20 RMK AO2 PK WND 27026/0204 $
53144K9L2 9L220160325184512503/25/16 18:45:31  5-MIN K9L2 260245Z AUTO 24014G20KT 10SM CLR 17/03 A2979 2420 37 3300 230/14G20 RMK AO2 PK WND 27026/0204 $
53144K9L2 9L220160325185011903/25/16 18:50:31  5-MIN K9L2 260250Z AUTO 25013KT 10SM CLR 17/03 A2979 2420 37 3300 240/13 RMK AO2 PK WND 27026/0204 $
53144K9L2 9L220160325185514203/25/16 18:55:31  5-MIN K9L2 260255Z AUTO 26015KT 10SM CLR 17/03 A2979 2420 37 3300 240/15 RMK AO2 PK WND 27026/0204 SLP087 T01720028 56024 $
53144K9L2 9L220160325190010103/25/16 19:00:31  5-MIN K9L2 260300Z AUTO 26015KT 10SM CLR 17/02 A2979 2420 36 3300 250/15 RMK AO2 $
53144K9L2 9L220160325190510103/25/16 19:05:31  5-MIN K9L2 260305Z AUTO 26015KT 10SM CLR 17/02 A2979 2420 36 3300 240/15 RMK AO2 $
53144K9L2 9L220160325191010103/25/16 19:10:31  5-MIN K9L2 260310Z AUTO 25013KT 10SM CLR 17/02 A2980 2420 36 3300 240/13 RMK AO2 $
53144K9L2 9L220160325191510103/25/16 19:15:31  5-MIN K9L2 260315Z AUTO 25013KT 10SM CLR 17/02 A2980 2420 37 3200 240/13 RMK AO2 $
53144K9L2 9L220160325192010103/25/16 19:20:31  5-MIN K9L2 260320Z AUTO 26013KT 10SM CLR 17/02 A2980 2420 37 3200 250/13 RMK AO2 $
53144K9L2 9L220160325192510103/25/16 19:25:31  5-MIN K9L2 260325Z AUTO 26011KT 10SM CLR 17/02 A2980 2410 37 3200 250/11 RMK AO2 $
53144K9L2 9L220160325193010103/25/16 19:30:31  5-MIN K9L2 260330Z AUTO 26013KT 10SM CLR 17/02 A2981 2410 37 3200 250/13 RMK AO2 $
53144K9L2 9L220160325193510103/25/16 19:35:31  5-MIN K9L2 260335Z AUTO 26012KT 10SM CLR 17/02 A2981 2410 37 3200 250/12 RMK AO2 $
53144K9L2 9L220160325194010103/25/16 19:40:31  5-MIN K9L2 260340Z AUTO 26013KT 10SM CLR 17/02 A2981 2410 37 3200 250/13 RMK AO2 $
53144K9L2 9L220160325194510103/25/16 19:45:31  5-MIN K9L2 260345Z AUTO 26013KT 10SM CLR 17/02 A2981 2410 37 3200 250/13 RMK AO2 $
53144K9L2 9L220160325195010103/25/16 19:50:31  5-MIN K9L2 260350Z AUTO 26012KT 10SM CLR 17/02 A2981 2410 37 3200 250/12 RMK AO2 $
53144K9L2 9L220160325195511803/25/16 19:55:31  5-MIN K9L2 260355Z AUTO 25012KT 10SM CLR 17/02 A2981 2400 36 3200 240/12 RMK AO2 SLP091 T01670017 $
53144K9L2 9L220160325200010103/25/16 20:00:31  5-MIN K9L2 260400Z AUTO 26014KT 10SM CLR 17/02 A2981 2400 36 3200 240/14 RMK AO2 $
53144K9L2 9L220160325200510103/25/16 20:05:31  5-MIN K9L2 260405Z AUTO 25013KT 10SM CLR 17/02 A2981 2400 36 3200 240/13 RMK AO2 $
53144K9L2 9L220160325201010103/25/16 20:10:31  5-MIN K9L2 260410Z AUTO 26013KT 10SM CLR 17/01 A2982 2400 34 3200 240/13 RMK AO2 $
53144K9L2 9L220160325201510103/25/16 20:15:31  5-MIN K9L2 260415Z AUTO 25010KT 10SM CLR 16/02 A2982 2400 37 3100 240/10 RMK AO2 $
53144K9L2 9L220160325202010103/25/16 20:20:31  5-MIN K9L2 260420Z AUTO 25012KT 10SM CLR 16/02 A2982 2390 37 3100 240/12 RMK AO2 $
53144K9L2 9L220160325202510103/25/16 20:25:31  5-MIN K9L2 260425Z AUTO 25011KT 10SM CLR 16/02 A2982 2400 37 3100 230/11 RMK AO2 $
53144K9L2 9L220160325203010103/25/16 20:30:31  5-MIN K9L2 260430Z AUTO 25012KT 10SM CLR 17/01 A2982 2390 34 3200 230/12 RMK AO2 $
53144K9L2 9L220160325203510103/25/16 20:35:31  5-MIN K9L2 260435Z AUTO 25011KT 10SM CLR 16/01 A2982 2390 36 3100 240/11 RMK AO2 $
53144K9L2 9L220160325204010703/25/16 20:40:31  5-MIN K9L2 260440Z AUTO 27012G18KT 10SM CLR 17/01 A2982 2390 33 3200 250/12G18 RMK AO2 $
53144K9L2 9L220160325204510103/25/16 20:45:31  5-MIN K9L2 260445Z AUTO 26014KT 10SM CLR 16/01 A2982 2400 36 3100 250/14 RMK AO2 $
53144K9L2 9L220160325205010103/25/16 20:50:31  5-MIN K9L2 260450Z AUTO 26015KT 10SM CLR 16/02 A2982 2400 37 3100 250/15 RMK AO2 $
53144K9L2 9L220160325205511803/25/16 20:55:31  5-MIN K9L2 260455Z AUTO 26014KT 10SM CLR 16/02 A2982 2400 37 3100 250/14 RMK AO2 SLP092 T01610017 $
53144K9L2 9L220160325210010103/25/16 21:00:31  5-MIN K9L2 260500Z AUTO 26012KT 10SM CLR 16/02 A2982 2390 39 3100 250/12 RMK AO2 $
53144K9L2 9L220160325210510103/25/16 21:05:31  5-MIN K9L2 260505Z AUTO 26013KT 10SM CLR 16/02 A2982 2390 39 3100 250/13 RMK AO2 $
53144K9L2 9L220160325211010103/25/16 21:10:31  5-MIN K9L2 260510Z AUTO 26013KT 10SM CLR 16/02 A2982 2400 39 3100 250/13 RMK AO2 $
53144K9L2 9L220160325211510103/25/16 21:15:31  5-MIN K9L2 260515Z AUTO 27013KT 10SM CLR 16/02 A2981 2400 40 3100 250/13 RMK AO2 $
53144K9L2 9L220160325212010103/25/16 21:20:31  5-MIN K9L2 260520Z AUTO 27015KT 10SM CLR 16/02 A2981 2400 40 3100 260/15 RMK AO2 $
53144K9L2 9L220160325212510703/25/16 21:25:31  5-MIN K9L2 260525Z AUTO 27016G20KT 10SM CLR 16/02 A2981 2400 40 3100 260/16G20 RMK AO2 $
53144K9L2 9L220160325213010103/25/16 21:30:31  5-MIN K9L2 260530Z AUTO 27016KT 10SM CLR 16/02 A2981 2400 40 3100 260/16 RMK AO2 $
53144K9L2 9L220160325213510103/25/16 21:35:31  5-MIN K9L2 260535Z AUTO 27014KT 10SM CLR 16/02 A2981 2400 40 3100 250/14 RMK AO2 $
53144K9L2 9L220160325214010103/25/16 21:40:31  5-MIN K9L2 260540Z AUTO 26012KT 10SM CLR 16/02 A2981 2400 40 3100 250/12 RMK AO2 $
53144K9L2 9L220160325214510103/25/16 21:45:31  5-MIN K9L2 260545Z AUTO 26013KT 10SM CLR 16/02 A2982 2400 40 3100 250/13 RMK AO2 $
53144K9L2 9L220160325215010103/25/16 21:50:31  5-MIN K9L2 260550Z AUTO 26014KT 10SM CLR 16/02 A2982 2400 40 3100 250/14 RMK AO2 $
53144K9L2 9L220160325215513603/25/16 21:55:31  5-MIN K9L2 260555Z AUTO 27012KT 10SM CLR 16/02 A2982 2400 40 3100 250/12 RMK AO2 SLP088 T01560022 10239 20156 55001 $
53144K9L2 9L220160325220010103/25/16 22:00:31  5-MIN K9L2 260600Z AUTO 28016KT 10SM CLR 16/02 A2981 2400 39 3100 270/16 RMK AO2 $
53144K9L2 9L220160325220510103/25/16 22:05:31  5-MIN K9L2 260605Z AUTO 27013KT 10SM CLR 16/02 A2981 2400 39 3100 250/13 RMK AO2 $
53144K9L2 9L220160325221010103/25/16 22:10:31  5-MIN K9L2 260610Z AUTO 26013KT 10SM CLR 15/02 A2982 2400 40 3000 250/13 RMK AO2 $
53144K9L2 9L220160325221510103/25/16 22:15:31  5-MIN K9L2 260615Z AUTO 26010KT 10SM CLR 15/02 A2982 2400 40 3000 240/10 RMK AO2 $
53144K9L2 9L220160325222010103/25/16 22:20:31  5-MIN K9L2 260620Z AUTO 25011KT 10SM CLR 15/02 A2982 2400 40 3000 240/11 RMK AO2 $
53144K9L2 9L220160325222510103/25/16 22:25:31  5-MIN K9L2 260625Z AUTO 24010KT 10SM CLR 15/02 A2982 2390 40 3000 230/10 RMK AO2 $
53144K9L2 9L220160325223010103/25/16 22:30:31  5-MIN K9L2 260630Z AUTO 25010KT 10SM CLR 15/01 A2982 2390 38 3000 240/10 RMK AO2 $
53144K9L2 9L220160325223510103/25/16 22:35:31  5-MIN K9L2 260635Z AUTO 26011KT 10SM CLR 15/01 A2982 2400 38 3000 240/11 RMK AO2 $
53144K9L2 9L220160325224010103/25/16 22:40:31  5-MIN K9L2 260640Z AUTO 26011KT 10SM CLR 15/01 A2982 2400 38 3000 250/11 RMK AO2 $
53144K9L2 9L220160325224510103/25/16 22:45:31  5-MIN K9L2 260645Z AUTO 26010KT 10SM CLR 15/01 A2982 2400 38 3000 240/10 RMK AO2 $
53144K9L2 9L220160325225010103/25/16 22:50:31  5-MIN K9L2 260650Z AUTO 26009KT 10SM CLR 15/01 A2982 2400 38 3000 250/09 RMK AO2 $
53144K9L2 9L220160325225511803/25/16 22:55:31  5-MIN K9L2 260655Z AUTO 26010KT 10SM CLR 15/01 A2982 2400 37 3000 250/10 RMK AO2 SLP087 T01500006 $
53144K9L2 9L220160325230010103/25/16 23:00:31  5-MIN K9L2 260700Z AUTO 27010KT 10SM CLR 15/01 A2982 2400 37 3000 250/10 RMK AO2 $
53144K9L2 9L220160325230510103/25/16 23:05:31  5-MIN K9L2 260705Z AUTO 26010KT 10SM CLR 14/01 A2982 2400 38 2900 240/10 RMK AO2 $
53144K9L2 9L220160325231010103/25/16 23:10:31  5-MIN K9L2 260710Z AUTO 26009KT 10SM CLR 14/01 A2982 2390 40 2900 250/09 RMK AO2 $
53144K9L2 9L220160325231510103/25/16 23:15:31  5-MIN K9L2 260715Z AUTO 27009KT 10SM CLR 14/02 A2982 2400 41 2900 250/09 RMK AO2 $
53144K9L2 9L220160325232010103/25/16 23:20:31  5-MIN K9L2 260720Z AUTO 27010KT 10SM CLR 14/02 A2982 2400 41 2900 260/10 RMK AO2 $
53144K9L2 9L220160325232510103/25/16 23:25:31  5-MIN K9L2 260725Z AUTO 28008KT 10SM CLR 14/02 A2982 2400 43 2900 260/08 RMK AO2 $
53144K9L2 9L220160325233010103/25/16 23:30:31  5-MIN K9L2 260730Z AUTO 26008KT 10SM CLR 13/02 A2982 2400 45 2800 250/08 RMK AO2 $
53144K9L2 9L220160325233510103/25/16 23:35:31  5-MIN K9L2 260735Z AUTO 26005KT 10SM CLR 13/02 A2982 2390 46 2800 250/05 RMK AO2 $
53144K9L2 9L220160325234010103/25/16 23:40:31  5-MIN K9L2 260740Z AUTO 27005KT 10SM CLR 13/02 A2982 2390 46 2800 260/05 RMK AO2 $
53144K9L2 9L220160325234510103/25/16 23:45:31  5-MIN K9L2 260745Z AUTO 28005KT 10SM CLR 13/02 A2982 2390 48 2700 270/05 RMK AO2 $
53144K9L2 9L220160325235010103/25/16 23:50:31  5-MIN K9L2 260750Z AUTO 27004KT 10SM CLR 12/02 A2982 2390 48 2700 250/04 RMK AO2 $
53144K9L2 9L220160325235512803/25/16 23:55:31  5-MIN K9L2 260755Z AUTO 25003KT 10SM CLR 12/02 A2982 2400 48 2700 240/03 RMK AO2 SLP088 T01220017 402610039 $
53144K9L2 9L220160326000010103/26/16 00:00:31  5-MIN K9L2 260800Z AUTO 27003KT 10SM CLR 12/02 A2982 2400 48 2700 260/03 RMK AO2 $
53144K9L2 9L220160326000510103/26/16 00:05:31  5-MIN K9L2 260805Z AUTO 28004KT 10SM CLR 12/02 A2982 2400 50 2600 260/04 RMK AO2 $
53144K9L2 9L220160326001010103/26/16 00:10:31  5-MIN K9L2 260810Z AUTO 28005KT 10SM CLR 11/02 A2982 2400 52 2500 270/05 RMK AO2 $
53144K9L2 9L220160326001510103/26/16 00:15:31  5-MIN K9L2 260815Z AUTO 00000KT 10SM CLR 11/02 A2982 2400 52 2500 000/00 RMK AO2 $
53144K9L2 9L220160326002010103/26/16 00:20:31  5-MIN K9L2 260820Z AUTO 00000KT 10SM CLR 11/02 A2982 2390 52 2500 000/00 RMK AO2 $
53144K9L2 9L220160326002510103/26/16 00:25:31  5-MIN K9L2 260825Z AUTO 16003KT 10SM CLR 12/01 A2982 2390 48 2600 140/03 RMK AO2 $
53144K9L2 9L220160326003010103/26/16 00:30:31  5-MIN K9L2 260830Z AUTO 00000KT 10SM CLR 12/02 A2982 2390 50 2600 000/00 RMK AO2 $
53144K9L2 9L220160326003510103/26/16 00:35:31  5-MIN K9L2 260835Z AUTO 00000KT 10SM CLR 12/02 A2982 2390 48 2700 000/00 RMK AO2 $
53144K9L2 9L220160326004010103/26/16 00:40:31  5-MIN K9L2 260840Z AUTO 00000KT 10SM CLR 11/01 A2982 2390 52 2500 000/00 RMK AO2 $
53144K9L2 9L220160326004510103/26/16 00:45:31  5-MIN K9L2 260845Z AUTO 36005KT 10SM CLR 11/01 A2982 2390 52 2500 340/05 RMK AO2 $
53144K9L2 9L220160326005010103/26/16 00:50:31  5-MIN K9L2 260850Z AUTO 00000KT 10SM CLR 10/01 A2982 2390 54 2400 000/00 RMK AO2 $
53144K9L2 9L220160326005512403/26/16 00:55:31  5-MIN K9L2 260855Z AUTO 03003KT 10SM CLR 10/01 A2982 2390 54 2400 010/03 RMK AO2 SLP090 T01000011 50007 $
53144K9L2 9L220160326010010103/26/16 01:00:31  5-MIN K9L2 260900Z AUTO 03003KT 10SM CLR 09/01 A2983 2390 56 2300 010/03 RMK AO2 $
53144K9L2 9L220160326010510103/26/16 01:05:31  5-MIN K9L2 260905Z AUTO 02003KT 10SM CLR 10/01 A2983 2390 54 2400 360/03 RMK AO2 $
53144K9L2 9L220160326011010103/26/16 01:10:31  5-MIN K9L2 260910Z AUTO 03003KT 10SM CLR 09/01 A2982 2390 56 2300 020/03 RMK AO2 $
53144K9L2 9L220160326011510103/26/16 01:15:31  5-MIN K9L2 260915Z AUTO 02003KT 10SM CLR 09/01 A2982 2390 56 2300 010/03 RMK AO2 $
53144K9L2 9L220160326012010103/26/16 01:20:31  5-MIN K9L2 260920Z AUTO 02004KT 10SM CLR 09/01 A2983 2390 56 2300 010/04 RMK AO2 $
53144K9L2 9L220160326012510103/26/16 01:25:31  5-MIN K9L2 260925Z AUTO 35005KT 10SM CLR 09/01 A2983 2390 56 2300 340/05 RMK AO2 $
53144K9L2 9L220160326013010103/26/16 01:30:31  5-MIN K9L2 260930Z AUTO 01003KT 10SM CLR 09/01 A2983 2390 56 2300 350/03 RMK AO2 $
53144K9L2 9L220160326013510103/26/16 01:35:31  5-MIN K9L2 260935Z AUTO 34003KT 10SM CLR 09/01 A2983 2390 58 2300 330/03 RMK AO2 $
53144K9L2 9L220160326014010103/26/16 01:40:31  5-MIN K9L2 260940Z AUTO 01003KT 10SM CLR 09/01 A2982 2390 58 2300 360/03 RMK AO2 $
53144K9L2 9L220160326014510103/26/16 01:45:31  5-MIN K9L2 260945Z AUTO 00000KT 10SM CLR 09/01 A2983 2390 56 2300 000/00 RMK AO2 $
53144K9L2 9L220160326015010103/26/16 01:50:31  5-MIN K9L2 260950Z AUTO 00000KT 10SM CLR 09/01 A2983 2390 56 2300 000/00 RMK AO2 $
53144K9L2 9L220160326015511803/26/16 01:55:31  5-MIN K9L2 260955Z AUTO 00000KT 10SM CLR 09/01 A2983 2390 56 2300 000/00 RMK AO2 SLP090 T00890006 $
53144K9L2 9L220160326020010103/26/16 02:00:31  5-MIN K9L2 261000Z AUTO 06003KT 10SM CLR 09/01 A2983 2390 56 2300 040/03 RMK AO2 $
53144K9L2 9L220160326020510103/26/16 02:05:31  5-MIN K9L2 261005Z AUTO 00000KT 10SM CLR 08/01 A2983 2390 58 2200 000/00 RMK AO2 $
53144K9L2 9L220160326021010103/26/16 02:10:31  5-MIN K9L2 261010Z AUTO 00000KT 10SM CLR 08/01 A2983 2390 60 2100 000/00 RMK AO2 $
53144K9L2 9L220160326021510103/26/16 02:15:31  5-MIN K9L2 261015Z AUTO 00000KT 10SM CLR 08/01 A2983 2390 60 2100 000/00 RMK AO2 $
53144K9L2 9L220160326022010103/26/16 02:20:31  5-MIN K9L2 261020Z AUTO 00000KT 10SM CLR 07/00 A2983 2390 60 2100 000/00 RMK AO2 $
53144K9L2 9L220160326022510103/26/16 02:25:31  5-MIN K9L2 261025Z AUTO 00000KT 10SM CLR 08/01 A2983 2390 60 2100 000/00 RMK AO2 $
53144K9L2 9L220160326023010103/26/16 02:30:31  5-MIN K9L2 261030Z AUTO 00000KT 10SM CLR 07/00 A2983 2390 60 2100 000/00 RMK AO2 $
53144K9L2 9L220160326023510103/26/16 02:35:31  5-MIN K9L2 261035Z AUTO 35003KT 10SM CLR 07/00 A2983 2390 60 2100 340/03 RMK AO2 $
53144K9L2 9L220160326024010103/26/16 02:40:31  5-MIN K9L2 261040Z AUTO 35003KT 10SM CLR 07/00 A2983 2390 60 2100 340/03 RMK AO2 $
53144K9L2 9L220160326024510103/26/16 02:45:31  5-MIN K9L2 261045Z AUTO 00000KT 10SM CLR 07/00 A2983 2380 60 2100 000/00 RMK AO2 $
53144K9L2 9L220160326025010103/26/16 02:50:31  5-MIN K9L2 261050Z AUTO 01003KT 10SM CLR 07/00 A2983 2380 60 2100 350/03 RMK AO2 $
53144K9L2 9L220160326025511803/26/16 02:55:31  5-MIN K9L2 261055Z AUTO 00000KT 10SM CLR 07/00 A2983 2380 62 2000 000/00 RMK AO2 SLP096 T00670000 $
53144K9L2 9L220160326030010103/26/16 03:00:31  5-MIN K9L2 261100Z AUTO 01003KT 10SM CLR 07/00 A2983 2380 62 2000 360/03 RMK AO2 $
53144K9L2 9L220160326030510103/26/16 03:05:31  5-MIN K9L2 261105Z AUTO 02003KT 10SM CLR 07/00 A2983 2380 62 2000 360/03 RMK AO2 $
53144K9L2 9L220160326031010203/26/16 03:10:31  5-MIN K9L2 261110Z AUTO 00000KT 10SM CLR 06/M01 A2983 2380 62 1900 000/00 RMK AO2 $
53144K9L2 9L220160326031510103/26/16 03:15:31  5-MIN K9L2 261115Z AUTO 00000KT 10SM CLR 06/00 A2984 2380 65 1900 000/00 RMK AO2 $
53144K9L2 9L220160326032010103/26/16 03:20:31  5-MIN K9L2 261120Z AUTO 00000KT 10SM CLR 06/00 A2984 2380 65 1900 000/00 RMK AO2 $
53144K9L2 9L220160326032510103/26/16 03:25:31  5-MIN K9L2 261125Z AUTO 02003KT 10SM CLR 06/00 A2984 2380 65 1900 010/03 RMK AO2 $
53144K9L2 9L220160326033010103/26/16 03:30:31  5-MIN K9L2 261130Z AUTO 00000KT 10SM CLR 06/00 A2984 2380 65 1900 000/00 RMK AO2 $
53144K9L2 9L220160326033510103/26/16 03:35:31  5-MIN K9L2 261135Z AUTO 03005KT 10SM CLR 06/00 A2984 2380 65 1900 010/05 RMK AO2 $
53144K9L2 9L220160326034010103/26/16 03:40:31  5-MIN K9L2 261140Z AUTO VRB04KT 10SM CLR 06/00 A2984 2380 65 1900 VRB/04 RMK AO2 $
53144K9L2 9L220160326034510103/26/16 03:45:31  5-MIN K9L2 261145Z AUTO 06003KT 10SM CLR 06/00 A2984 2380 65 1900 040/03 RMK AO2 $
53144K9L2 9L220160326035010103/26/16 03:50:31  5-MIN K9L2 261150Z AUTO VRB03KT 10SM CLR 06/00 A2984 2380 65 1900 VRB/03 RMK AO2 $
53144K9L2 9L220160326035513603/26/16 03:55:31  5-MIN K9L2 261155Z AUTO 00000KT 10SM CLR 07/01 A2984 2380 65 2000 000/00 RMK AO2 SLP099 T00670006 10156 20061 53003 $
53144K9L2 9L220160326040010103/26/16 04:00:31  5-MIN K9L2 261200Z AUTO 10003KT 10SM CLR 06/00 A2984 2370 65 1900 090/03 RMK AO2 $
53144K9L2 9L220160326040510103/26/16 04:05:31  5-MIN K9L2 261205Z AUTO 00000KT 10SM CLR 06/01 A2984 2370 67 1900 000/00 RMK AO2 $
53144K9L2 9L220160326041010103/26/16 04:10:31  5-MIN K9L2 261210Z AUTO 10003KT 10SM CLR 07/00 A2985 2370 62 2000 090/03 RMK AO2 $
53144K9L2 9L220160326041510103/26/16 04:15:31  5-MIN K9L2 261215Z AUTO 00000KT 10SM CLR 06/00 A2985 2370 65 1900 000/00 RMK AO2 $
53144K9L2 9L220160326042010103/26/16 04:20:31  5-MIN K9L2 261220Z AUTO 00000KT 10SM CLR 06/00 A2985 2370 65 1900 000/00 RMK AO2 $
53144K9L2 9L220160326042510103/26/16 04:25:31  5-MIN K9L2 261225Z AUTO 00000KT 10SM CLR 06/00 A2985 2370 65 1900 000/00 RMK AO2 $
53144K9L2 9L220160326043010103/26/16 04:30:31  5-MIN K9L2 261230Z AUTO 00000KT 10SM CLR 06/00 A2985 2370 65 1900 000/00 RMK AO2 $
53144K9L2 9L220160326043510103/26/16 04:35:31  5-MIN K9L2 261235Z AUTO 01003KT 10SM CLR 06/00 A2985 2370 67 1800 360/03 RMK AO2 $
53144K9L2 9L220160326044010103/26/16 04:40:31  5-MIN K9L2 261240Z AUTO 00000KT 10SM CLR 06/00 A2985 2370 67 1800 000/00 RMK AO2 $
53144K9L2 9L220160326044510203/26/16 04:45:31  5-MIN K9L2 261245Z AUTO 02004KT 10SM CLR 05/M01 A2985 2360 67 1800 360/04 RMK AO2 $
53144K9L2 9L220160326045010203/26/16 04:50:31  5-MIN K9L2 261250Z AUTO 01003KT 10SM CLR 05/M01 A2986 2360 67 1800 360/03 RMK AO2 $
53144K9L2 9L220160326045511803/26/16 04:55:31  5-MIN K9L2 261255Z AUTO 04003KT 10SM CLR 05/00 A2986 2360 70 1800 020/03 RMK AO2 SLP107 T00500000 $
53144K9L2 9L220160326050010203/26/16 05:00:31  5-MIN K9L2 261300Z AUTO 04004KT 10SM CLR 06/M01 A2986 2360 65 1800 020/04 RMK AO2 $
53144K9L2 9L220160326050510203/26/16 05:05:31  5-MIN K9L2 261305Z AUTO 06004KT 10SM CLR 06/M01 A2986 2360 65 1800 050/04 RMK AO2 $
53144K9L2 9L220160326051010103/26/16 05:10:31  5-MIN K9L2 261310Z AUTO 00000KT 10SM CLR 06/00 A2987 2350 65 1900 000/00 RMK AO2 $
53144K9L2 9L220160326051510103/26/16 05:15:31  5-MIN K9L2 261315Z AUTO 00000KT 10SM CLR 06/00 A2987 2350 65 1900 000/00 RMK AO2 $
53144K9L2 9L220160326052010103/26/16 05:20:31  5-MIN K9L2 261320Z AUTO 00000KT 10SM CLR 07/01 A2987 2350 65 1900 000/00 RMK AO2 $
53144K9L2 9L220160326052510103/26/16 05:25:31  5-MIN K9L2 261325Z AUTO 00000KT 10SM CLR 07/01 A2987 2350 65 2000 000/00 RMK AO2 $
53144K9L2 9L220160326053010103/26/16 05:30:31  5-MIN K9L2 261330Z AUTO 00000KT 10SM CLR 08/01 A2988 2340 62 2100 000/00 RMK AO2 $
53144K9L2 9L220160326053510103/26/16 05:35:31  5-MIN K9L2 261335Z AUTO 00000KT 10SM CLR 07/01 A2988 2340 65 2000 000/00 RMK AO2 $
53144K9L2 9L220160326054010103/26/16 05:40:31  5-MIN K9L2 261340Z AUTO 00000KT 10SM CLR 07/01 A2988 2340 65 2000 000/00 RMK AO2 $
53144K9L2 9L220160326054510103/26/16 05:45:31  5-MIN K9L2 261345Z AUTO 00000KT 10SM CLR 06/01 A2989 2330 70 1900 000/00 RMK AO2 $
53144K9L2 9L220160326055010103/26/16 05:50:31  5-MIN K9L2 261350Z AUTO 00000KT 10SM CLR 06/01 A2989 2330 70 1900 000/00 RMK AO2 $
53144K9L2 9L220160326055511803/26/16 05:55:31  5-MIN K9L2 261355Z AUTO 00000KT 10SM CLR 06/01 A2989 2330 70 1900 000/00 RMK AO2 SLP120 T00610011 $
53144K9L2 9L220160326060010103/26/16 06:00:31  5-MIN K9L2 261400Z AUTO 00000KT 10SM CLR 06/01 A2989 2330 70 1800 000/00 RMK AO2 $
53144K9L2 9L220160326060510103/26/16 06:05:31  5-MIN K9L2 261405Z AUTO 00000KT 10SM CLR 06/01 A2990 2320 70 1800 000/00 RMK AO2 $
53144K9L2 9L220160326061010103/26/16 06:10:31  5-MIN K9L2 261410Z AUTO VRB04KT 10SM CLR 06/01 A2990 2320 70 1800 VRB/04 RMK AO2 $
53144K9L2 9L220160326061510103/26/16 06:15:31  5-MIN K9L2 261415Z AUTO VRB05KT 10SM CLR 06/01 A2990 2320 70 1800 VRB/05 RMK AO2 $
53144K9L2 9L220160326062010103/26/16 06:20:31  5-MIN K9L2 261420Z AUTO VRB06KT 10SM CLR 07/02 A2991 2310 68 2000 VRB/06 RMK AO2 $
53144K9L2 9L220160326062510103/26/16 06:25:31  5-MIN K9L2 261425Z AUTO 00000KT 10SM CLR 09/03 A2991 2310 65 2200 000/00 RMK AO2 $
53144K9L2 9L220160326063010103/26/16 06:30:31  5-MIN K9L2 261430Z AUTO 00000KT 10SM CLR 09/03 A2991 2310 65 2200 000/00 RMK AO2 $
53144K9L2 9L220160326063510103/26/16 06:35:31  5-MIN K9L2 261435Z AUTO 00000KT 10SM CLR 09/03 A2992 2310 65 2200 000/00 RMK AO2 $
53144K9L2 9L220160326064010103/26/16 06:40:31  5-MIN K9L2 261440Z AUTO 00000KT 10SM CLR 09/02 A2992 2300 63 2200 000/00 RMK AO2 $
53144K9L2 9L220160326064510103/26/16 06:45:31  5-MIN K9L2 261445Z AUTO 00000KT 10SM CLR 09/02 A2993 2300 63 2200 000/00 RMK AO2 $
53144K9L2 9L220160326065010103/26/16 06:50:31  5-MIN K9L2 261450Z AUTO 00000KT 10SM CLR 09/02 A2993 2300 63 2100 000/00 RMK AO2 $
53144K9L2 9L220160326065512403/26/16 06:55:31  5-MIN K9L2 261455Z AUTO 00000KT 10SM CLR 09/02 A2993 2290 63 2100 000/00 RMK AO2 SLP133 T00890022 53005 $
53144K9L2 9L220160326070010103/26/16 07:00:31  5-MIN K9L2 261500Z AUTO 00000KT 10SM CLR 09/02 A2993 2290 60 2200 000/00 RMK AO2 $
53144K9L2 9L220160326070510103/26/16 07:05:31  5-MIN K9L2 261505Z AUTO 00000KT 10SM CLR 09/03 A2994 2290 63 2200 000/00 RMK AO2 $
53144K9L2 9L220160326071010103/26/16 07:10:31  5-MIN K9L2 261510Z AUTO 00000KT 10SM CLR 10/03 A2994 2290 60 2300 000/00 RMK AO2 $
53144K9L2 9L220160326071510103/26/16 07:15:31  5-MIN K9L2 261515Z AUTO 00000KT 10SM CLR 10/03 A2994 2290 60 2300 000/00 RMK AO2 $
53144K9L2 9L220160326072010103/26/16 07:20:31  5-MIN K9L2 261520Z AUTO 00000KT 10SM CLR 11/03 A2994 2280 61 2300 000/00 RMK AO2 $
53144K9L2 9L220160326072510103/26/16 07:25:31  5-MIN K9L2 261525Z AUTO 00000KT 10SM CLR 11/03 A2994 2280 61 2300 000/00 RMK AO2 $
53144K9L2 9L220160326073010103/26/16 07:30:31  5-MIN K9L2 261530Z AUTO 00000KT 10SM CLR 11/03 A2995 2280 58 2400 000/00 RMK AO2 $
53144K9L2 9L220160326073510103/26/16 07:35:31  5-MIN K9L2 261535Z AUTO 19003KT 10SM CLR 11/04 A2995 2280 61 2400 180/03 RMK AO2 $
53144K9L2 9L220160326074010103/26/16 07:40:31  5-MIN K9L2 261540Z AUTO 20003KT 10SM CLR 12/04 A2995 2280 58 2500 180/03 RMK AO2 $
53144K9L2 9L220160326074510103/26/16 07:45:31  5-MIN K9L2 261545Z AUTO 21003KT 10SM CLR 12/04 A2995 2270 59 2500 200/03 RMK AO2 $
53144K9L2 9L220160326075010103/26/16 07:50:31  5-MIN K9L2 261550Z AUTO 22003KT 10SM CLR 12/04 A2995 2270 56 2500 210/03 RMK AO2 $
53144K9L2 9L220160326075511803/26/16 07:55:31  5-MIN K9L2 261555Z AUTO 00000KT 10SM CLR 12/04 A2996 2270 59 2500 000/00 RMK AO2 SLP140 T01220044 $
53144K9L2 9L220160326080010103/26/16 08:00:31  5-MIN K9L2 261600Z AUTO 00000KT 10SM CLR 12/04 A2996 2270 59 2500 000/00 RMK AO2 $
53144K9L2 9L220160326080510103/26/16 08:05:31  5-MIN K9L2 261605Z AUTO 00000KT 10SM CLR 13/04 A2996 2270 56 2600 000/00 RMK AO2 $
53144K9L2 9L220160326081010103/26/16 08:10:31  5-MIN K9L2 261610Z AUTO 00000KT 10SM CLR 13/04 A2996 2270 56 2600 000/00 RMK AO2 $
53144K9L2 9L220160326081510103/26/16 08:15:31  5-MIN K9L2 261615Z AUTO 00000KT 10SM CLR 13/04 A2996 2260 56 2600 000/00 RMK AO2 $
53144K9L2 9L220160326082010103/26/16 08:20:31  5-MIN K9L2 261620Z AUTO 00000KT 10SM CLR 13/04 A2996 2260 54 2600 000/00 RMK AO2 $
53144K9L2 9L220160326082510103/26/16 08:25:31  5-MIN K9L2 261625Z AUTO 00000KT 10SM CLR 14/04 A2996 2260 52 2700 000/00 RMK AO2 $
53144K9L2 9L220160326083010103/26/16 08:30:31  5-MIN K9L2 261630Z AUTO 00000KT 10SM CLR 14/04 A2997 2260 52 2700 000/00 RMK AO2 $
53144K9L2 9L220160326083510103/26/16 08:35:31  5-MIN K9L2 261635Z AUTO 00000KT 10SM CLR 15/04 A2997 2260 49 2800 000/00 RMK AO2 $
53144K9L2 9L220160326084010103/26/16 08:40:31  5-MIN K9L2 261640Z AUTO 00000KT 10SM CLR 14/04 A2997 2260 51 2800 000/00 RMK AO2 $
53144K9L2 9L220160326084510103/26/16 08:45:31  5-MIN K9L2 261645Z AUTO 00000KT 10SM CLR 15/04 A2997 2260 49 2800 000/00 RMK AO2 $
53144K9L2 9L220160326085010103/26/16 08:50:31  5-MIN K9L2 261650Z AUTO 00000KT 10SM CLR 17/04 A2997 2260 42 3100 000/00 RMK AO2 $
53144K9L2 9L220160326085511803/26/16 08:55:31  5-MIN K9L2 261655Z AUTO VRB03KT 10SM CLR 17/04 A2997 2250 44 3000 VRB/03 RMK AO2 SLP142 T01670044 $
53144K9L2 9L220160326090010103/26/16 09:00:31  5-MIN K9L2 261700Z AUTO 00000KT 10SM CLR 16/04 A2997 2250 45 2900 000/00 RMK AO2 $
53144K9L2 9L220160326090510103/26/16 09:05:31  5-MIN K9L2 261705Z AUTO VRB03KT 10SM CLR 18/04 A2997 2250 39 3100 VRB/03 RMK AO2 $
53144K9L2 9L220160326091010103/26/16 09:10:31  5-MIN K9L2 261710Z AUTO VRB04KT 10SM CLR 19/03 A2998 2250 35 3300 VRB/04 RMK AO2 $
53144K9L2 9L220160326091510103/26/16 09:15:31  5-MIN K9L2 261715Z AUTO VRB03KT 10SM CLR 18/04 A2998 2250 39 3100 VRB/03 RMK AO2 $
53144K9L2 9L220160326092010103/26/16 09:20:31  5-MIN K9L2 261720Z AUTO 11004KT 10SM CLR 18/04 A2998 2250 39 3100 100/04 RMK AO2 $
53144K9L2 9L220160326092510103/26/16 09:25:31  5-MIN K9L2 261725Z AUTO 12004KT 10SM CLR 18/04 A2998 2250 38 3200 110/04 RMK AO2 $
53144K9L2 9L220160326093010103/26/16 09:30:31  5-MIN K9L2 261730Z AUTO 11005KT 10SM CLR 18/03 A2998 2250 36 3200 100/05 RMK AO2 $
53144K9L2 9L220160326093510103/26/16 09:35:31  5-MIN K9L2 261735Z AUTO 13005KT 10SM CLR 19/03 A2998 2250 34 3300 110/05 RMK AO2 $
53144K9L2 9L220160326094010103/26/16 09:40:31  5-MIN K9L2 261740Z AUTO 12004KT 10SM CLR 19/03 A2998 2250 34 3300 110/04 RMK AO2 $
53144K9L2 9L220160326094510103/26/16 09:45:31  5-MIN K9L2 261745Z AUTO 12005KT 10SM CLR 19/02 A2998 2250 32 3300 110/05 RMK AO2 $
53144K9L2 9L220160326095010103/26/16 09:50:31  5-MIN K9L2 261750Z AUTO VRB05KT 10SM CLR 19/01 A2998 2250 30 3300 VRB/05 RMK AO2 $
53144K9L2 9L220160326095513603/26/16 09:55:31  5-MIN K9L2 261755Z AUTO 10005KT 10SM CLR 19/00 A2998 2250 27 3300 090/05 RMK AO2 SLP143 T01940000 10200 20050 53028 $
53144K9L2 9L220160326100010203/26/16 10:00:31  5-MIN K9L2 261800Z AUTO 13006KT 10SM CLR 21/M01 A2998 2250 24 3400 120/06 RMK AO2 $
53144K9L2 9L220160326100510203/26/16 10:05:31  5-MIN K9L2 261805Z AUTO 12008KT 10SM CLR 21/M02 A2998 2250 22 3400 110/08 RMK AO2 $
53144K9L2 9L220160326101010203/26/16 10:10:31  5-MIN K9L2 261810Z AUTO 10006KT 10SM CLR 21/M04 A2998 2250 19 3400 080/06 RMK AO2 $
53144K9L2 9L220160326101510203/26/16 10:15:31  5-MIN K9L2 261815Z AUTO 11008KT 10SM CLR 21/M04 A2998 2250 18 3500 100/08 RMK AO2 $
53144K9L2 9L220160326102010203/26/16 10:20:31  5-MIN K9L2 261820Z AUTO 11007KT 10SM CLR 21/M04 A2998 2250 18 3500 100/07 RMK AO2 $
53144K9L2 9L220160326102510203/26/16 10:25:31  5-MIN K9L2 261825Z AUTO VRB03KT 10SM CLR 21/M04 A2998 2250 18 3400 VRB/03 RMK AO2 $
53144K9L2 9L220160326103010203/26/16 10:30:31  5-MIN K9L2 261830Z AUTO 08006KT 10SM CLR 21/M04 A2998 2250 17 3500 060/06 RMK AO2 $
53144K9L2 9L220160326103510803/26/16 10:35:31  5-MIN K9L2 261835Z AUTO 07009G14KT 10SM CLR 22/M05 A2998 2250 16 3600 060/09G14 RMK AO2 $
53144K9L2 9L220160326104010803/26/16 10:40:31  5-MIN K9L2 261840Z AUTO 08009G14KT 10SM CLR 22/M06 A2998 2250 15 3600 070/09G14 RMK AO2 $
53144K9L2 9L220160326104510203/26/16 10:45:31  5-MIN K9L2 261845Z AUTO 09010KT 10SM CLR 22/M06 A2998 2250 15 3600 080/10 RMK AO2 $
53144K9L2 9L220160326105010203/26/16 10:50:31  5-MIN K9L2 261850Z AUTO 05006KT 10SM CLR 22/M06 A2998 2250 15 3600 040/06 RMK AO2 $
53144K9L2 9L220160326105511903/26/16 10:55:31  5-MIN K9L2 261855Z AUTO 07008KT 10SM CLR 22/M07 A2998 2250 14 3600 060/08 RMK AO2 SLP142 T02171067 $
53144K9L2 9L220160326110010803/26/16 11:00:31  5-MIN K9L2 261900Z AUTO 07010G14KT 10SM CLR 22/M06 A2998 2250 14 3600 060/10G14 RMK AO2 $
53144K9L2 9L220160326110510803/26/16 11:05:31  5-MIN K9L2 261905Z AUTO 06010G18KT 10SM CLR 22/M07 A2997 2250 14 3600 050/10G18 RMK AO2 $
53144K9L2 9L220160326111010803/26/16 11:10:31  5-MIN K9L2 261910Z AUTO 07007G18KT 10SM CLR 22/M07 A2997 2250 14 3600 060/07G18 RMK AO2 $
53144K9L2 9L220160326111510803/26/16 11:15:31  5-MIN K9L2 261915Z AUTO 10005G16KT 10SM CLR 22/M07 A2997 2260 14 3600 080/05G16 RMK AO2 $
53144K9L2 9L220160326112010203/26/16 11:20:31  5-MIN K9L2 261920Z AUTO 08009KT 10SM CLR 23/M07 A2997 2260 13 3700 070/09 RMK AO2 $
53144K9L2 9L220160326112510203/26/16 11:25:31  5-MIN K9L2 261925Z AUTO 10011KT 10SM CLR 22/M07 A2997 2260 13 3600 080/11 RMK AO2 $
53144K9L2 9L220160326113010203/26/16 11:30:31  5-MIN K9L2 261930Z AUTO 10007KT 10SM CLR 22/M07 A2997 2260 13 3600 090/07 RMK AO2 $
53144K9L2 9L220160326113510803/26/16 11:35:31  5-MIN K9L2 261935Z AUTO 08011G16KT 10SM CLR 23/M07 A2997 2260 13 3700 070/11G16 RMK AO2 $
53144K9L2 9L220160326114010803/26/16 11:40:31  5-MIN K9L2 261940Z AUTO VRB05G16KT 10SM CLR 23/M07 A2997 2260 13 3700 VRB/05G16 RMK AO2 $
53144K9L2 9L220160326114510803/26/16 11:45:31  5-MIN K9L2 261945Z AUTO 09011G15KT 10SM CLR 23/M07 A2997 2260 13 3700 080/11G15 RMK AO2 $
53144K9L2 9L220160326115010203/26/16 11:50:31  5-MIN K9L2 261950Z AUTO 08007KT 10SM CLR 22/M08 A2997 2260 12 3700 060/07 RMK AO2 $
53144K9L2 9L220160326115512503/26/16 11:55:31  5-MIN K9L2 261955Z AUTO 11009G14KT 10SM CLR 23/M08 A2997 2260 12 3700 100/09G14 RMK AO2 SLP138 T02281078 $
53144K9L2 9L220160327200510103/27/16 20:05:31  5-MIN K9L2 280405Z AUTO 24014KT 10SM CLR 17/03 A2993 2300 37 3100 230/14 RMK AO2 $
53144K9L2 9L220160327201010103/27/16 20:10:31  5-MIN K9L2 280410Z AUTO 24014KT 10SM CLR 17/04 A2993 2300 41 3100 220/14 RMK AO2 $
53144K9L2 9L220160327201510103/27/16 20:15:31  5-MIN K9L2 280415Z AUTO 24014KT 10SM CLR 17/05 A2993 2300 44 3100 220/14 RMK AO2 $
53144K9L2 9L220160327202010103/27/16 20:20:31  5-MIN K9L2 280420Z AUTO 23015KT 10SM CLR 17/06 A2993 2300 49 3100 220/15 RMK AO2 $
53144K9L2 9L220160327202510103/27/16 20:25:31  5-MIN K9L2 280425Z AUTO 23013KT 10SM CLR 17/07 A2993 2300 51 3100 220/13 RMK AO2 $
53144K9L2 9L220160327203010103/27/16 20:30:31  5-MIN K9L2 280430Z AUTO 23014KT 10SM CLR 17/07 A2992 2300 53 3100 220/14 RMK AO2 $
53144K9L2 9L220160327203510103/27/16 20:35:31  5-MIN K9L2 280435Z AUTO 23014KT 10SM CLR 17/07 A2992 2300 51 3100 220/14 RMK AO2 $
53144K9L2 9L220160327204010103/27/16 20:40:31  5-MIN K9L2 280440Z AUTO 23013KT 10SM CLR 17/07 A2992 2300 51 3100 210/13 RMK AO2 $
53144K9L2 9L220160327204510103/27/16 20:45:31  5-MIN K9L2 280445Z AUTO 23014KT 10SM CLR 16/07 A2992 2300 53 3000 210/14 RMK AO2 $
53144K9L2 9L220160327205010103/27/16 20:50:31  5-MIN K9L2 280450Z AUTO 23014KT 10SM CLR 16/07 A2992 2300 53 3000 220/14 RMK AO2 $
53144K9L2 9L220160327205511803/27/16 20:55:31  5-MIN K9L2 280455Z AUTO 23014KT 10SM CLR 16/07 A2992 2300 53 3000 220/14 RMK AO2 SLP128 T01610067 $
53144K9L2 9L220160327210010103/27/16 21:00:31  5-MIN K9L2 280500Z AUTO 23012KT 10SM CLR 16/07 A2992 2300 53 3000 220/12 RMK AO2 $
53144K9L2 9L220160327210510103/27/16 21:05:31  5-MIN K9L2 280505Z AUTO 23012KT 10SM CLR 16/06 A2992 2300 53 2900 220/12 RMK AO2 $
53144K9L2 9L220160327211010103/27/16 21:10:31  5-MIN K9L2 280510Z AUTO 23011KT 10SM CLR 16/06 A2992 2300 53 2900 220/11 RMK AO2 $
53144K9L2 9L220160327211510103/27/16 21:15:31  5-MIN K9L2 280515Z AUTO 23011KT 10SM CLR 16/06 A2992 2300 51 2900 220/11 RMK AO2 $
53144K9L2 9L220160327212010103/27/16 21:20:31  5-MIN K9L2 280520Z AUTO 23011KT 10SM CLR 16/06 A2992 2300 51 2900 210/11 RMK AO2 $
53144K9L2 9L220160327212510103/27/16 21:25:31  5-MIN K9L2 280525Z AUTO 22010KT 10SM CLR 15/06 A2992 2300 53 2900 210/10 RMK AO2 $
53144K9L2 9L220160327213010103/27/16 21:30:31  5-MIN K9L2 280530Z AUTO 23010KT 10SM CLR 15/05 A2992 2300 51 2900 210/10 RMK AO2 $
53144K9L2 9L220160327213510103/27/16 21:35:31  5-MIN K9L2 280535Z AUTO 22011KT 10SM CLR 15/05 A2992 2300 51 2900 210/11 RMK AO2 $
53144K9L2 9L220160327214010103/27/16 21:40:31  5-MIN K9L2 280540Z AUTO 22010KT 10SM CLR 14/05 A2992 2300 53 2800 210/10 RMK AO2 $
53144K9L2 9L220160327214510103/27/16 21:45:31  5-MIN K9L2 280545Z AUTO 22012KT 10SM CLR 14/05 A2992 2310 53 2800 210/12 RMK AO2 $
53144K9L2 9L220160327215010103/27/16 21:50:31  5-MIN K9L2 280550Z AUTO 22011KT 10SM CLR 14/05 A2992 2310 53 2800 200/11 RMK AO2 $
53144K9L2 9L220160327215513603/27/16 21:55:31  5-MIN K9L2 280555Z AUTO 21011KT 10SM CLR 14/04 A2992 2310 51 2800 200/11 RMK AO2 SLP124 T01440044 10250 20144 56002 $
53144K9L2 9L220160327220010103/27/16 22:00:31  5-MIN K9L2 280600Z AUTO 21010KT 10SM CLR 14/04 A2992 2310 51 2800 200/10 RMK AO2 $
53144K9L2 9L220160327220510103/27/16 22:05:31  5-MIN K9L2 280605Z AUTO 21010KT 10SM CLR 14/04 A2992 2310 49 2800 200/10 RMK AO2 $
53144K9L2 9L220160327221010103/27/16 22:10:31  5-MIN K9L2 280610Z AUTO 21009KT 10SM CLR 14/04 A2992 2310 49 2800 200/09 RMK AO2 $
53144K9L2 9L220160327221510103/27/16 22:15:31  5-MIN K9L2 280615Z AUTO 20009KT 10SM CLR 14/03 A2991 2310 48 2800 190/09 RMK AO2 $
53144K9L2 9L220160327222010103/27/16 22:20:31  5-MIN K9L2 280620Z AUTO 20008KT 10SM CLR 14/03 A2991 2310 48 2800 190/08 RMK AO2 $
53144K9L2 9L220160327222510103/27/16 22:25:31  5-MIN K9L2 280625Z AUTO 21009KT 10SM CLR 14/03 A2991 2310 48 2800 200/09 RMK AO2 $
53144K9L2 9L220160327223010103/27/16 22:30:31  5-MIN K9L2 280630Z AUTO 22010KT 10SM CLR 13/03 A2991 2310 50 2700 210/10 RMK AO2 $
53144K9L2 9L220160327223510103/27/16 22:35:31  5-MIN K9L2 280635Z AUTO 22010KT 10SM CLR 13/03 A2991 2310 48 2700 210/10 RMK AO2 $
53144K9L2 9L220160327224010103/27/16 22:40:31  5-MIN K9L2 280640Z AUTO 22010KT 10SM CLR 13/03 A2991 2320 50 2700 200/10 RMK AO2 $
53144K9L2 9L220160327224510103/27/16 22:45:31  5-MIN K9L2 280645Z AUTO 22011KT 10SM CLR 13/03 A2991 2320 50 2700 210/11 RMK AO2 $
53144K9L2 9L220160327225010103/27/16 22:50:31  5-MIN K9L2 280650Z AUTO 22010KT 10SM CLR 14/03 A2991 2320 47 2800 210/10 RMK AO2 $
53144K9L2 9L220160327225511803/27/16 22:55:31  5-MIN K9L2 280655Z AUTO 23010KT 10SM CLR 14/02 A2991 2320 45 2800 220/10 RMK AO2 SLP118 T01390022 $
53144K9L2 9L220160327230010103/27/16 23:00:31  5-MIN K9L2 280700Z AUTO 23012KT 10SM CLR 14/02 A2990 2320 43 2800 210/12 RMK AO2 $
53144K9L2 9L220160327230510103/27/16 23:05:31  5-MIN K9L2 280705Z AUTO 23011KT 10SM CLR 14/02 A2990 2320 43 2800 210/11 RMK AO2 $
53144K9L2 9L220160327231010103/27/16 23:10:31  5-MIN K9L2 280710Z AUTO 23011KT 10SM CLR 14/02 A2990 2320 43 2800 210/11 RMK AO2 $
53144K9L2 9L220160327231510103/27/16 23:15:31  5-MIN K9L2 280715Z AUTO 22011KT 10SM CLR 14/02 A2990 2320 43 2800 210/11 RMK AO2 $
53144K9L2 9L220160327232010103/27/16 23:20:31  5-MIN K9L2 280720Z AUTO 23009KT 10SM CLR 14/02 A2990 2320 43 2800 210/09 RMK AO2 $
53144K9L2 9L220160327232510103/27/16 23:25:31  5-MIN K9L2 280725Z AUTO 22009KT 10SM CLR 14/02 A2990 2320 43 2800 210/09 RMK AO2 $
53144K9L2 9L220160327233010103/27/16 23:30:31  5-MIN K9L2 280730Z AUTO 22009KT 10SM CLR 14/02 A2990 2320 43 2800 210/09 RMK AO2 $
53144K9L2 9L220160327233510103/27/16 23:35:31  5-MIN K9L2 280735Z AUTO 22010KT 10SM CLR 14/02 A2990 2330 43 2800 210/10 RMK AO2 $
53144K9L2 9L220160327234010103/27/16 23:40:31  5-MIN K9L2 280740Z AUTO 22010KT 10SM CLR 14/02 A2990 2330 45 2800 210/10 RMK AO2 $
53144K9L2 9L220160327234510103/27/16 23:45:31  5-MIN K9L2 280745Z AUTO 22009KT 10SM CLR 14/02 A2989 2330 45 2800 210/09 RMK AO2 $
53144K9L2 9L220160327235010103/27/16 23:50:31  5-MIN K9L2 280750Z AUTO 22008KT 10SM CLR 14/02 A2989 2330 45 2800 210/08 RMK AO2 $
53144K9L2 9L220160327235512803/27/16 23:55:31  5-MIN K9L2 280755Z AUTO 23010KT 10SM CLR 14/02 A2989 2330 45 2800 210/10 RMK AO2 SLP112 T01390022 402780033 $
53144K9L2 9L220160328000010103/28/16 00:00:31  5-MIN K9L2 280800Z AUTO 23011KT 10SM CLR 14/02 A2989 2330 45 2800 220/11 RMK AO2 $
53144K9L2 9L220160328000510103/28/16 00:05:31  5-MIN K9L2 280805Z AUTO 23010KT 10SM CLR 14/02 A2989 2330 45 2800 220/10 RMK AO2 $
53144K9L2 9L220160328001010103/28/16 00:10:31  5-MIN K9L2 280810Z AUTO 24010KT 10SM CLR 14/02 A2989 2330 45 2800 220/10 RMK AO2 $
53144K9L2 9L220160328001510103/28/16 00:15:31  5-MIN K9L2 280815Z AUTO 23010KT 10SM CLR 13/02 A2989 2330 46 2700 220/10 RMK AO2 $
53144K9L2 9L220160328002010103/28/16 00:20:31  5-MIN K9L2 280820Z AUTO 24011KT 10SM CLR 14/02 A2989 2330 45 2800 220/11 RMK AO2 $
53144K9L2 9L220160328002510103/28/16 00:25:31  5-MIN K9L2 280825Z AUTO 24011KT 10SM CLR 14/02 A2989 2340 45 2800 220/11 RMK AO2 $
53144K9L2 9L220160328003010103/28/16 00:30:31  5-MIN K9L2 280830Z AUTO 24010KT 10SM CLR 13/03 A2989 2340 48 2700 230/10 RMK AO2 $
53144K9L2 9L220160328003510103/28/16 00:35:31  5-MIN K9L2 280835Z AUTO 24010KT 10SM CLR 13/03 A2988 2340 48 2700 230/10 RMK AO2 $
53144K9L2 9L220160328004010103/28/16 00:40:31  5-MIN K9L2 280840Z AUTO 24011KT 10SM CLR 13/03 A2988 2340 48 2700 230/11 RMK AO2 $
53144K9L2 9L220160328004510103/28/16 00:45:31  5-MIN K9L2 280845Z AUTO 24011KT 10SM CLR 13/03 A2988 2340 48 2700 230/11 RMK AO2 $
53144K9L2 9L220160328005010103/28/16 00:50:31  5-MIN K9L2 280850Z AUTO 24010KT 10SM CLR 13/03 A2988 2340 48 2700 230/10 RMK AO2 $
53144K9L2 9L220160328005512403/28/16 00:55:31  5-MIN K9L2 280855Z AUTO 24010KT 10SM CLR 13/03 A2988 2340 48 2700 220/10 RMK AO2 SLP106 T01330028 50001 $
53144K9L2 9L220160328010010103/28/16 01:00:31  5-MIN K9L2 280900Z AUTO 24010KT 10SM CLR 13/03 A2988 2340 50 2700 230/10 RMK AO2 $
53144K9L2 9L220160328010510103/28/16 01:05:31  5-MIN K9L2 280905Z AUTO 23011KT 10SM CLR 13/03 A2987 2340 50 2700 220/11 RMK AO2 $
53144K9L2 9L220160328011010103/28/16 01:10:31  5-MIN K9L2 280910Z AUTO 22011KT 10SM CLR 13/03 A2987 2350 50 2700 210/11 RMK AO2 $
53144K9L2 9L220160328011510103/28/16 01:15:31  5-MIN K9L2 280915Z AUTO 23012KT 10SM CLR 13/03 A2987 2350 50 2700 220/12 RMK AO2 $
53144K9L2 9L220160328012010103/28/16 01:20:31  5-MIN K9L2 280920Z AUTO 23013KT 10SM CLR 13/03 A2987 2350 52 2700 220/13 RMK AO2 $
53144K9L2 9L220160328012510103/28/16 01:25:31  5-MIN K9L2 280925Z AUTO 23012KT 10SM CLR 13/03 A2987 2350 52 2700 220/12 RMK AO2 $
53144K9L2 9L220160328013010103/28/16 01:30:31  5-MIN K9L2 280930Z AUTO 23012KT 10SM CLR 13/04 A2987 2350 54 2700 220/12 RMK AO2 $
53144K9L2 9L220160328013510103/28/16 01:35:31  5-MIN K9L2 280935Z AUTO 23011KT 10SM CLR 12/04 A2986 2350 56 2600 220/11 RMK AO2 $
53144K9L2 9L220160328014010103/28/16 01:40:31  5-MIN K9L2 280940Z AUTO 24010KT 10SM CLR 12/04 A2986 2350 59 2600 220/10 RMK AO2 $
53144K9L2 9L220160328014510103/28/16 01:45:31  5-MIN K9L2 280945Z AUTO 24011KT 10SM CLR 12/04 A2986 2360 59 2600 220/11 RMK AO2 $
53144K9L2 9L220160328015010103/28/16 01:50:31  5-MIN K9L2 280950Z AUTO 23009KT 10SM CLR 12/04 A2986 2360 59 2600 220/09 RMK AO2 $
53144K9L2 9L220160328015511803/28/16 01:55:31  5-MIN K9L2 280955Z AUTO 23010KT 10SM CLR 12/04 A2986 2360 56 2600 210/10 RMK AO2 SLP101 T01220039 $
53144K9L2 9L220160328020010103/28/16 02:00:31  5-MIN K9L2 281000Z AUTO 23009KT 10SM CLR 12/04 A2986 2360 58 2600 220/09 RMK AO2 $
53144K9L2 9L220160328020510103/28/16 02:05:31  5-MIN K9L2 281005Z AUTO 23010KT 10SM CLR 12/04 A2986 2360 58 2600 210/10 RMK AO2 $
53144K9L2 9L220160328021010103/28/16 02:10:31  5-MIN K9L2 281010Z AUTO 23009KT 10SM CLR 12/04 A2986 2360 58 2600 220/09 RMK AO2 $
53144K9L2 9L220160328021510103/28/16 02:15:31  5-MIN K9L2 281015Z AUTO 24008KT 10SM CLR 12/04 A2986 2360 58 2600 230/08 RMK AO2 $
53144K9L2 9L220160328022010103/28/16 02:20:31  5-MIN K9L2 281020Z AUTO 24007KT 10SM CLR 12/04 A2986 2360 58 2600 230/07 RMK AO2 $
53144K9L2 9L220160328022510103/28/16 02:25:31  5-MIN K9L2 281025Z AUTO 24007KT 10SM CLR 12/04 A2985 2360 61 2600 230/07 RMK AO2 $
53144K9L2 9L220160328023010103/28/16 02:30:31  5-MIN K9L2 281030Z AUTO 24008KT 10SM CLR 12/04 A2985 2370 59 2600 220/08 RMK AO2 $
53144K9L2 9L220160328023510103/28/16 02:35:31  5-MIN K9L2 281035Z AUTO 24010KT 10SM CLR 12/06 A2985 2370 63 2600 230/10 RMK AO2 $
53144K9L2 9L220160328024010103/28/16 02:40:31  5-MIN K9L2 281040Z AUTO 24011KT 10SM CLR 12/06 A2985 2370 63 2600 220/11 RMK AO2 $
53144K9L2 9L220160328024510103/28/16 02:45:31  5-MIN K9L2 281045Z AUTO 24011KT 10SM CLR 12/06 A2985 2370 63 2600 230/11 RMK AO2 $
53144K9L2 9L220160328025010103/28/16 02:50:31  5-MIN K9L2 281050Z AUTO 24009KT 10SM CLR 12/06 A2985 2370 63 2600 220/09 RMK AO2 $
53144K9L2 9L220160328025511803/28/16 02:55:31  5-MIN K9L2 281055Z AUTO 24010KT 10SM CLR 12/06 A2984 2370 63 2600 230/10 RMK AO2 SLP096 T01220056 $
53144K9L2 9L220160328030010103/28/16 03:00:31  5-MIN K9L2 281100Z AUTO 24012KT 10SM CLR 12/06 A2984 2370 63 2600 230/12 RMK AO2 $
53144K9L2 9L220160328030510103/28/16 03:05:31  5-MIN K9L2 281105Z AUTO 24014KT 10SM CLR 12/06 A2984 2380 63 2600 220/14 RMK AO2 $
53144K9L2 9L220160328031010103/28/16 03:10:31  5-MIN K9L2 281110Z AUTO 23017KT 10SM CLR 12/06 A2984 2380 63 2600 220/17 RMK AO2 $
53144K9L2 9L220160328031510103/28/16 03:15:31  5-MIN K9L2 281115Z AUTO 23017KT 10SM CLR 12/06 A2983 2380 63 2600 220/17 RMK AO2 $
53144K9L2 9L220160328032010103/28/16 03:20:31  5-MIN K9L2 281120Z AUTO 23017KT 10SM CLR 12/06 A2983 2380 63 2700 220/17 RMK AO2 $
53144K9L2 9L220160328032510103/28/16 03:25:31  5-MIN K9L2 281125Z AUTO 23017KT 10SM CLR 12/06 A2983 2390 68 2600 210/17 RMK AO2 $
53144K9L2 9L220160328033010103/28/16 03:30:31  5-MIN K9L2 281130Z AUTO 22017KT 10SM CLR 12/07 A2983 2390 71 2600 210/17 RMK AO2 $
53144K9L2 9L220160328033510103/28/16 03:35:31  5-MIN K9L2 281135Z AUTO 23016KT 10SM CLR 12/07 A2983 2390 71 2600 210/16 RMK AO2 $
53144K9L2 9L220160328034010103/28/16 03:40:31  5-MIN K9L2 281140Z AUTO 23017KT 10SM CLR 12/07 A2983 2390 74 2600 210/17 RMK AO2 $
53144K9L2 9L220160328034510103/28/16 03:45:31  5-MIN K9L2 281145Z AUTO 23017KT 10SM CLR 12/07 A2982 2390 74 2600 210/17 RMK AO2 $
53144K9L2 9L220160328035010103/28/16 03:50:31  5-MIN K9L2 281150Z AUTO 23016KT 10SM CLR 12/07 A2982 2390 71 2600 210/16 RMK AO2 $
53144K9L2 9L220160328035514203/28/16 03:55:31  5-MIN K9L2 281155Z AUTO 23019G22KT 10SM CLR 12/07 A2982 2400 71 2600 210/19G22 RMK AO2 SLP088 T01170067 10144 20117 58012 $
53144K9L2 9L220160328040010703/28/16 04:00:31  5-MIN K9L2 281200Z AUTO 23017G24KT 10SM CLR 12/07 A2982 2390 71 2600 210/17G24 RMK AO2 $
53144K9L2 9L220160328040510703/28/16 04:05:31  5-MIN K9L2 281205Z AUTO 23017G24KT 10SM CLR 12/07 A2982 2400 71 2600 220/17G24 RMK AO2 $
53144K9L2 9L220160328041010703/28/16 04:10:31  5-MIN K9L2 281210Z AUTO 23017G23KT 10SM CLR 12/07 A2982 2400 71 2600 210/17G23 RMK AO2 $
53144K9L2 9L220160328041510703/28/16 04:15:31  5-MIN K9L2 281215Z AUTO 23016G23KT 10SM CLR 12/07 A2982 2400 71 2600 220/16G23 RMK AO2 $
53144K9L2 9L220160328042010703/28/16 04:20:31  5-MIN K9L2 281220Z AUTO 23018G22KT 10SM CLR 12/07 A2982 2400 71 2600 220/18G22 RMK AO2 $
53144K9L2 9L220160328042510703/28/16 04:25:31  5-MIN K9L2 281225Z AUTO 23016G23KT 10SM CLR 12/07 A2982 2400 71 2600 220/16G23 RMK AO2 $
53144K9L2 9L220160328043010703/28/16 04:30:31  5-MIN K9L2 281230Z AUTO 23015G23KT 10SM CLR 12/07 A2982 2400 71 2600 220/15G23 RMK AO2 $
53144K9L2 9L220160328043510703/28/16 04:35:31  5-MIN K9L2 281235Z AUTO 23014G23KT 10SM CLR 12/07 A2982 2390 71 2600 220/14G23 RMK AO2 $
53144K9L2 9L220160328044010703/28/16 04:40:31  5-MIN K9L2 281240Z AUTO 24016G23KT 10SM CLR 12/07 A2982 2390 71 2600 220/16G23 RMK AO2 $
53144K9L2 9L220160328044510703/28/16 04:45:31  5-MIN K9L2 281245Z AUTO 24018G24KT 10SM CLR 12/07 A2982 2390 71 2600 220/18G24 RMK AO2 $
53144K9L2 9L220160328045010703/28/16 04:50:31  5-MIN K9L2 281250Z AUTO 24016G24KT 10SM CLR 12/07 A2983 2390 71 2600 230/16G24 RMK AO2 $
53144K9L2 9L220160328045512403/28/16 04:55:31  5-MIN K9L2 281255Z AUTO 24017G23KT 10SM CLR 12/07 A2983 2390 71 2600 220/17G23 RMK AO2 SLP091 T01170067 $
53144K9L2 9L220160328050010703/28/16 05:00:31  5-MIN K9L2 281300Z AUTO 23014G23KT 10SM CLR 12/07 A2983 2390 71 2600 220/14G23 RMK AO2 $
53144K9L2 9L220160328050510103/28/16 05:05:31  5-MIN K9L2 281305Z AUTO 24016KT 10SM CLR 12/07 A2983 2390 71 2600 220/16 RMK AO2 $
53144K9L2 9L220160328051010703/28/16 05:10:31  5-MIN K9L2 281310Z AUTO 24013G21KT 10SM CLR 12/07 A2983 2390 71 2600 230/13G21 RMK AO2 $
53144K9L2 9L220160328051510103/28/16 05:15:31  5-MIN K9L2 281315Z AUTO 25015KT 10SM CLR 12/07 A2983 2390 71 2600 230/15 RMK AO2 $
53144K9L2 9L220160328052010103/28/16 05:20:31  5-MIN K9L2 281320Z AUTO 24013KT 10SM CLR 12/07 A2983 2390 71 2600 230/13 RMK AO2 $
53144K9L2 9L220160328052510103/28/16 05:25:31  5-MIN K9L2 281325Z AUTO 24012KT 10SM CLR 12/07 A2983 2390 71 2600 230/12 RMK AO2 $
53144K9L2 9L220160328053010103/28/16 05:30:31  5-MIN K9L2 281330Z AUTO 24012KT 10SM CLR 12/07 A2983 2390 71 2600 230/12 RMK AO2 $
53144K9L2 9L220160328053510103/28/16 05:35:31  5-MIN K9L2 281335Z AUTO 24014KT 10SM CLR 12/07 A2983 2390 71 2600 230/14 RMK AO2 $
53144K9L2 9L220160328054010703/28/16 05:40:31  5-MIN K9L2 281340Z AUTO 25016G22KT 10SM CLR 12/07 A2983 2390 71 2600 230/16G22 RMK AO2 $
53144K9L2 9L220160328054510703/28/16 05:45:31  5-MIN K9L2 281345Z AUTO 24015G22KT 10SM CLR 12/06 A2982 2390 68 2600 230/15G22 RMK AO2 $
53144K9L2 9L220160328055010703/28/16 05:50:31  5-MIN K9L2 281350Z AUTO 25014G20KT 10SM CLR 12/06 A2983 2390 66 2600 240/14G20 RMK AO2 $
53144K9L2 9L220160328055511803/28/16 05:55:31  5-MIN K9L2 281355Z AUTO 25011KT 10SM CLR 12/05 A2982 2390 63 2600 230/11 RMK AO2 SLP092 T01170050 $
53144K9L2 9L220160328060010103/28/16 06:00:31  5-MIN K9L2 281400Z AUTO 24014KT 10SM CLR 12/05 A2982 2390 63 2600 230/14 RMK AO2 $
53144K9L2 9L220160328060510103/28/16 06:05:31  5-MIN K9L2 281405Z AUTO 24013KT 10SM CLR 12/05 A2982 2390 61 2700 230/13 RMK AO2 $
53144K9L2 9L220160328061010103/28/16 06:10:31  5-MIN K9L2 281410Z AUTO 24012KT 10SM CLR 12/05 A2982 2390 61 2700 230/12 RMK AO2 $
53144K9L2 9L220160328061510103/28/16 06:15:31  5-MIN K9L2 281415Z AUTO 25010KT 10SM CLR 12/05 A2982 2390 61 2700 230/10 RMK AO2 $
53144K9L2 9L220160328062010103/28/16 06:20:31  5-MIN K9L2 281420Z AUTO 25009KT 10SM CLR 12/05 A2982 2390 61 2700 240/09 RMK AO2 $
53144K9L2 9L220160328062510103/28/16 06:25:31  5-MIN K9L2 281425Z AUTO 25008KT 10SM CLR 12/06 A2982 2400 63 2700 240/08 RMK AO2 $
53144K9L2 9L220160328063010103/28/16 06:30:31  5-MIN K9L2 281430Z AUTO 26011KT 10SM CLR 12/06 A2982 2400 63 2700 240/11 RMK AO2 $
53144K9L2 9L220160328063510103/28/16 06:35:31  5-MIN K9L2 281435Z AUTO 26011KT 10SM CLR 12/06 A2982 2400 63 2700 250/11 RMK AO2 $
53144K9L2 9L220160328064010703/28/16 06:40:31  5-MIN K9L2 281440Z AUTO 26013G17KT 10SM CLR 12/06 A2981 2400 63 2700 250/13G17 RMK AO2 $
53144K9L2 9L220160328064510103/28/16 06:45:31  5-MIN K9L2 281445Z AUTO 27013KT 10SM CLR 12/06 A2982 2400 63 2700 250/13 RMK AO2 $
53144K9L2 9L220160328065010103/28/16 06:50:31  5-MIN K9L2 281450Z AUTO 27009KT 10SM CLR 12/05 A2982 2400 61 2700 260/09 RMK AO2 $
53144K9L2 9L220160328065512403/28/16 06:55:31  5-MIN K9L2 281455Z AUTO 27011KT 10SM CLR 13/04 A2981 2400 56 2700 260/11 RMK AO2 SLP089 T01280044 58019 $
53144K9L2 9L220160328070010103/28/16 07:00:31  5-MIN K9L2 281500Z AUTO 27013KT 10SM CLR 13/04 A2981 2400 52 2800 250/13 RMK AO2 $
53144K9L2 9L220160328070510103/28/16 07:05:31  5-MIN K9L2 281505Z AUTO 25010KT 10SM CLR 13/03 A2981 2400 50 2800 240/10 RMK AO2 $
53144K9L2 9L220160328071010703/28/16 07:10:31  5-MIN K9L2 281510Z AUTO 25014G18KT 10SM CLR 14/03 A2981 2400 48 2900 240/14G18 RMK AO2 $
53144K9L2 9L220160328071510703/28/16 07:15:31  5-MIN K9L2 281515Z AUTO 25020G25KT 10SM CLR 14/02 A2981 2400 45 2900 240/20G25 RMK AO2 $
53144K9L2 9L220160328072010703/28/16 07:20:31  5-MIN K9L2 281520Z AUTO 25018G25KT 10SM CLR 14/01 A2981 2400 41 2900 240/18G25 RMK AO2 $
53144K9L2 9L220160328072510703/28/16 07:25:31  5-MIN K9L2 281525Z AUTO 26018G24KT 10SM CLR 14/01 A2981 2410 41 2900 240/18G24 RMK AO2 $
53144K9L2 9L220160328073010703/28/16 07:30:31  5-MIN K9L2 281530Z AUTO 25017G23KT 10SM CLR 14/02 A2981 2400 43 2900 240/17G23 RMK AO2 $
53144K9L2 9L220160328073510703/28/16 07:35:31  5-MIN K9L2 281535Z AUTO 25016G22KT 10SM CLR 14/02 A2981 2400 45 2900 230/16G22 RMK AO2 $
53144K9L2 9L220160328074010703/28/16 07:40:31  5-MIN K9L2 281540Z AUTO 24017G22KT 10SM CLR 14/02 A2981 2400 41 2900 230/17G22 RMK AO2 $
53144K9L2 9L220160328074510703/28/16 07:45:31  5-MIN K9L2 281545Z AUTO 24015G22KT 10SM CLR 14/02 A2981 2400 43 2900 230/15G22 RMK AO2 $
53144K9L2 9L220160328075010103/28/16 07:50:31  5-MIN K9L2 281550Z AUTO 25014KT 10SM CLR 14/02 A2981 2400 41 2900 240/14 RMK AO2 $
53144K9L2 9L220160328075511803/28/16 07:55:31  5-MIN K9L2 281555Z AUTO 25011KT 10SM CLR 14/01 A2982 2400 40 2900 240/11 RMK AO2 SLP089 T01440011 $
53144K9L2 9L220160328080010103/28/16 08:00:31  5-MIN K9L2 281600Z AUTO 24015KT 10SM CLR 14/01 A2981 2400 40 2900 230/15 RMK AO2 $
53144K9L2 9L220160328180012903/28/16 18:00:31  5-MIN K9L2 290200Z AUTO 29021G33KT 10SM OVC060 12/M06 A2973 2480 28 2700 280/21G33 RMK AO2 PK WND 28033/0158 $
53144K9L2 9L220160328180512903/28/16 18:05:31  5-MIN K9L2 290205Z AUTO 29019G33KT 10SM OVC060 11/M06 A2973 2480 29 2600 280/19G33 RMK AO2 PK WND 28033/0158 $
53144K9L2 9L220160328181012903/28/16 18:10:31  5-MIN K9L2 290210Z AUTO 29019G28KT 10SM OVC060 11/M06 A2973 2480 30 2600 270/19G28 RMK AO2 PK WND 28033/0158 $
53144K9L2 9L220160328181512903/28/16 18:15:31  5-MIN K9L2 290215Z AUTO 29020G28KT 10SM OVC060 11/M06 A2974 2470 30 2600 270/20G28 RMK AO2 PK WND 28033/0158 $
53144K9L2 9L220160328182012903/28/16 18:20:31  5-MIN K9L2 290220Z AUTO 29020G25KT 10SM BKN065 11/M06 A2974 2470 30 2600 270/20G25 RMK AO2 PK WND 28033/0158 $
53144K9L2 9L220160328182512903/28/16 18:25:31  5-MIN K9L2 290225Z AUTO 28019G27KT 10SM BKN060 11/M06 A2974 2470 31 2600 270/19G27 RMK AO2 PK WND 28033/0158 $
53144K9L2 9L220160328183012903/28/16 18:30:31  5-MIN K9L2 290230Z AUTO 28020G27KT 10SM BKN060 11/M06 A2974 2470 31 2600 270/20G27 RMK AO2 PK WND 28033/0158 $
53144K9L2 9L220160328183512903/28/16 18:35:31  5-MIN K9L2 290235Z AUTO 28019G26KT 10SM BKN060 11/M06 A2974 2470 30 2600 270/19G26 RMK AO2 PK WND 28033/0158 $
53144K9L2 9L220160328184012903/28/16 18:40:31  5-MIN K9L2 290240Z AUTO 28017G24KT 10SM BKN060 11/M06 A2974 2470 31 2600 270/17G24 RMK AO2 PK WND 28033/0158 $
53144K9L2 9L220160328184512903/28/16 18:45:31  5-MIN K9L2 290245Z AUTO 28017G23KT 10SM BKN060 11/M06 A2974 2470 31 2600 270/17G23 RMK AO2 PK WND 28033/0158 $
53144K9L2 9L220160328185012303/28/16 18:50:31  5-MIN K9L2 290250Z AUTO 28017KT 10SM BKN060 10/M06 A2975 2460 33 2500 270/17 RMK AO2 PK WND 28033/0158 $
53144K9L2 9L220160328185515203/28/16 18:55:31  5-MIN K9L2 290255Z AUTO 29019G26KT 10SM SCT060 10/M06 A2975 2460 33 2500 280/19G26 RMK AO2 PK WND 28033/0158 SLP072 T01001056 55005 $
53144K9L2 9L220160328190012903/28/16 19:00:31  5-MIN K9L2 290300Z AUTO 29020G26KT 10SM BKN060 10/M06 A2975 2460 33 2500 270/20G26 RMK AO2 PK WND 28026/0259 $
53144K9L2 9L220160328190512903/28/16 19:05:31  5-MIN K9L2 290305Z AUTO 29020G26KT 10SM BKN060 10/M06 A2975 2460 33 2500 270/20G26 RMK AO2 PK WND 29026/0303 $
53144K9L2 9L220160328191012903/28/16 19:10:31  5-MIN K9L2 290310Z AUTO 28017G26KT 10SM BKN060 10/M06 A2976 2450 33 2500 270/17G26 RMK AO2 PK WND 29026/0303 $
53144K9L2 9L220160328191512903/28/16 19:15:31  5-MIN K9L2 290315Z AUTO 28020G25KT 10SM BKN060 10/M06 A2976 2450 33 2500 270/20G25 RMK AO2 PK WND 29026/0303 $
53144K9L2 9L220160328192012903/28/16 19:20:31  5-MIN K9L2 290320Z AUTO 28018G25KT 10SM OVC060 10/M06 A2976 2450 33 2500 270/18G25 RMK AO2 PK WND 29026/0303 $
53144K9L2 9L220160328192512903/28/16 19:25:31  5-MIN K9L2 290325Z AUTO 29015G25KT 10SM OVC060 10/M06 A2976 2450 33 2500 270/15G25 RMK AO2 PK WND 29026/0303 $
53144K9L2 9L220160328193012903/28/16 19:30:31  5-MIN K9L2 290330Z AUTO 29016G21KT 10SM OVC060 10/M06 A2976 2450 33 2500 270/16G21 RMK AO2 PK WND 29026/0303 $
53144K9L2 9L220160328193512903/28/16 19:35:31  5-MIN K9L2 290335Z AUTO 30015G21KT 10SM OVC060 10/M05 A2976 2450 34 2500 290/15G21 RMK AO2 PK WND 29026/0303 $
53144K9L2 9L220160328194012903/28/16 19:40:31  5-MIN K9L2 290340Z AUTO 30013G21KT 10SM OVC060 09/M05 A2977 2440 35 2400 280/13G21 RMK AO2 PK WND 29026/0303 $
53144K9L2 9L220160328194512303/28/16 19:45:31  5-MIN K9L2 290345Z AUTO 30012KT 10SM OVC060 09/M05 A2977 2450 35 2400 280/12 RMK AO2 PK WND 29026/0303 $
53144K9L2 9L220160328195012303/28/16 19:50:31  5-MIN K9L2 290350Z AUTO 30012KT 10SM OVC060 09/M05 A2977 2440 37 2300 280/12 RMK AO2 PK WND 29026/0303 $
53144K9L2 9L220160328195514003/28/16 19:55:31  5-MIN K9L2 290355Z AUTO 30009KT 10SM OVC065 09/M05 A2977 2440 35 2400 280/09 RMK AO2 PK WND 29026/0303 SLP080 T00941050 $
53144K9L2 9L220160328200010503/28/16 20:00:31  5-MIN K9L2 290400Z AUTO 29009KT 10SM OVC065 09/M05 A2977 2440 37 2300 280/09 RMK AO2 $
53144K9L2 9L220160328200510503/28/16 20:05:31  5-MIN K9L2 290405Z AUTO 29009KT 10SM BKN065 09/M05 A2977 2440 37 2300 280/09 RMK AO2 $
53144K9L2 9L220160328201010503/28/16 20:10:31  5-MIN K9L2 290410Z AUTO 29008KT 10SM BKN065 09/M05 A2977 2440 37 2300 280/08 RMK AO2 $
53144K9L2 9L220160328201510503/28/16 20:15:31  5-MIN K9L2 290415Z AUTO 29012KT 10SM BKN065 09/M05 A2977 2440 37 2300 280/12 RMK AO2 $
53144K9L2 9L220160328202010503/28/16 20:20:31  5-MIN K9L2 290420Z AUTO 27013KT 10SM SCT065 08/M05 A2977 2440 38 2300 260/13 RMK AO2 $
53144K9L2 9L220160328202510503/28/16 20:25:31  5-MIN K9L2 290425Z AUTO 26013KT 10SM FEW070 08/M04 A2977 2440 40 2300 250/13 RMK AO2 $
53144K9L2 9L220160328203010503/28/16 20:30:31  5-MIN K9L2 290430Z AUTO 26014KT 10SM FEW070 08/M04 A2977 2440 40 2300 240/14 RMK AO2 $
53144K9L2 9L220160328203510203/28/16 20:35:31  5-MIN K9L2 290435Z AUTO 25013KT 10SM CLR 08/M04 A2977 2440 40 2300 240/13 RMK AO2 $
53144K9L2 9L220160328204010203/28/16 20:40:31  5-MIN K9L2 290440Z AUTO 24013KT 10SM CLR 08/M04 A2977 2440 40 2300 230/13 RMK AO2 $
53144K9L2 9L220160328204510203/28/16 20:45:31  5-MIN K9L2 290445Z AUTO 23012KT 10SM CLR 08/M04 A2977 2440 41 2200 220/12 RMK AO2 $
53144K9L2 9L220160328205010203/28/16 20:50:31  5-MIN K9L2 290450Z AUTO 23013KT 10SM CLR 08/M04 A2977 2440 40 2300 220/13 RMK AO2 $
53144K9L2 9L220160328205511903/28/16 20:55:31  5-MIN K9L2 290455Z AUTO 22015KT 10SM CLR 08/M05 A2977 2440 40 2200 210/15 RMK AO2 SLP079 T00781050 $
53144K9L2 9L220160328210012803/28/16 21:00:31  5-MIN K9L2 290500Z AUTO 23014KT 10SM CLR 08/M05 A2977 2440 40 2200 220/14 RMK AO2 $0 41 2100 260/06 RMK AO2 $
53144K9L2 9L220160328220510203/28/16 22:05:31  5-MIN K9L2 290605Z AUTO 27009KT 10SM CLR 07/M04 A2978 2430 43 2100 260/09 RMK AO2 $
53144K9L2 9L220160328221010203/28/16 22:10:31  5-MIN K9L2 290610Z AUTO 28008KT 10SM CLR 07/M04 A2978 2430 43 2100 260/08 RMK AO2 $
53144K9L2 9L220160328221510203/28/16 22:15:31  5-MIN K9L2 290615Z AUTO 28008KT 10SM CLR 07/M04 A2979 2430 43 2100 260/08 RMK AO2 $
53144K9L2 9L220160328222013103/28/16 22:20:31  5-MIN K9L2 290620Z AUTO 26010KT 10 K9L2 290715Z AUTO 21007KT 10SM CLR 06/M03 A2978 2430 51 2000 200/07 RMK AO2 $
53144K9L2 9L220160328232010203/28/16 23:20:31  5-MIN K9L2 290720Z AUTO 21008KT 10SM CLR 06/M03 A2978 2430 55 1900 190/08 RMK AO2 $
53144K9L2 9L220160328232510203/28/16 23:25:31  5-MIN K9L2 290725Z AUTO 24008KT 10SM CLR 06/M03 A2978 2430 55 1900 220/08 RMK AO2 $
53144K9L2 9L220160328233010803/28/16 23:30:31  5-MIN K9L2 290730Z AUTO 24013G18KT 10SM CLR 07/M04 A2978 2430 47 2100 230/13G18 RMK AO2 $
53144K9L2 9L220160328233510803/28/16 23:35:31  5-MIN K9L2 290735Z AUTO 23008G18KT 10SM CLR 06/M04 A2978 2430 48 2000 210/08G18 RMK AO2 $
53144K9L2 9L220160328234010203/28/16 23:40:31  5-MIN K9L2 290740Z AUTO 22010KT 10SM CLR 06/M03 A2978 2440 55 1900 210/10 RMK AO2 $
53144K9L2 9L220160328234510203/28/16 23:45:31  5-MIN K9L2 290745Z AUTO 23012KT 10SM CLR 06/M03 A2977 2440 55 1900 220/12 RMK AO2 $
53144K9L2 9L220160328235010203/28/16 23:50:31  5-MIN K9L2 290750Z AUTO 23011KT 10SM CLR 05/M03 A2977 2440 57 1900 220/11 RMK AO2 $
53144K9L2 9L220160328235512903/28/16 23:55:31  5-MIN K9L2 290755Z AUTO 24012KT 10SM CLR 06/M03 A2977 2440 53 1900 230/12 RMK AO2 SLP079 T00561033 401890050 $
53144K9L2 9L220160329000010203/29/16 00:00:31  5-MIN K9L2 290800Z AUTO 24013KT 10SM CLR 06/M04 A2977 2440 48 2000 230/13 RMK AO2 $
53144K9L2 9L220160329000510203/29/16 00:05:31  5-MIN K9L2 290805Z AUTO 24014KT 10SM CLR 06/M04 A2977 2440 48 2000 230/14 RMK AO2 $
53144K9L2 9L220160329001010203/29/16 00:10:31  5-MIN K9L2 290810Z AUTO 24013KT 10SM CLR 06/M04 A2977 2440 48 2000 220/13 RMK AO2 $
53144K9L2 9L220160329001510203/29/16 00:15:31  5-MIN K9L2 290815Z AUTO 24013KT 10SM CLR 06/M03 A2977 2440 51 2000 230/13 RMK AO2 $
53144K9L2 9L220160329002010203/29/16 00:20:31  5-MIN K9L2 290820Z AUTO 23013KT 10SM CLR 06/M03 A2977 2440 51 2000 210/13 RMK AO2 $
53144K9L2 9L220160329002510203/29/16 00:25:31  5-MIN K9L2 290825Z AUTO 23013KT 10SM CLR 06/M03 A2977 2440 53 1900 210/13 RMK AO2 $
53144K9L2 9L220160329003010203/29/16 00:30:31  5-MIN K9L2 290830Z AUTO 23014KT 10SM CLR 06/M03 A2977 2450 55 1900 220/14 RMK AO2 $
53144K9L2 9L220160329003510203/29/16 00:35:31  5-MIN K9L2 290835Z AUTO 25017KT 10SM CLR 06/M03 A2977 2450 55 1900 240/17 RMK AO2 $
53144K9L2 9L220160329004010203/29/16 00:40:31  5-MIN K9L2 290840Z AUTO 24013KT 10SM CLR 06/M03 A2977 2450 55 1900 230/13 RMK AO2 $
53144K9L2 9L220160329004510203/29/16 00:45:31  5-MIN K9L2 290845Z AUTO 23015KT 10SM CLR 06/M03 A2976 2450 55 1900 220/15 RMK AO2 $
53144K9L2 9L220160329005010203/29/16 00:50:31  5-MIN K9L2 290850Z AUTO 23014KT 10SM CLR 06/M03 A2976 2450 53 1900 220/14 RMK AO2 $
53144K9L2 9L220160329005512503/29/16 00:55:31  5-MIN K9L2 290855Z AUTO 24015KT 10SM CLR 06/M03 A2976 2450 53 1900 220/15 RMK AO2 SLP076 T00561033 51009 $
53144K9L2 9L220160329010010803/29/16 01:00:31  5-MIN K9L2 290900Z AUTO 22010G20KT 10SM CLR 06/M03 A2977 2440 55 1900 200/10G20 RMK AO2 $
53144K9L2 9L220160329010510203/29/16 01:05:31  5-MIN K9L2 290905Z AUTO 19010KT 10SM CLR 06/M03 A2977 2440 55 1900 170/10 RMK AO2 $
53144K9L2 9L220160329011010503/29/16 01:10:31  5-MIN K9L2 290910Z AUTO 20011KT 10SM FEW042 05/M03 A2978 2440 57 1900 180/11 RMK AO2 $
53144K9L2 9L220160329011510503/29/16 01:15:31  5-MIN K9L2 290915Z AUTO 18013KT 10SM SCT042 05/M02 A2977 2440 59 1900 170/13 RMK AO2 $
53144K9L2 9L220160329012011203/29/16 01:20:31  5-MIN K9L2 290920Z AUTO 18015KT 10SM SCT037 BKN044 06/M02 A2977 2440 57 1900 170/15 RMK AO2 $
53144K9L2 9L220160329012510503/29/16 01:25:31  5-MIN K9L2 290925Z AUTO 17018KT 10SM BKN036 06/M02 A2976 2450 57 1900 160/18 RMK AO2 $
53144K9L2 9L220160329013011803/29/16 01:30:31  5-MIN K9L2 290930Z AUTO 18019G24KT 10SM BKN034 BKN044 06/M02 A2976 2450 55 2000 160/19G24 RMK AO2 $
53144K9L2 9L220160329013511203/29/16 01:35:31  5-MIN K9L2 290935Z AUTO 18018KT 10SM BKN036 OVC044 06/M03 A2977 2440 53 2000 170/18 RMK AO2 $
53144K9L2 9L220160329014011803/29/16 01:40:31  5-MIN K9L2 290940Z AUTO 18014G20KT 10SM BKN036 OVC044 07/M03 A2977 2440 49 2100 170/14G20 RMK AO2 $
53144K9L2 9L220160329014511803/29/16 01:45:31  5-MIN K9L2 290945Z AUTO 19013G21KT 10SM BKN034 OVC046 06/M03 A2977 2440 53 2000 170/13G21 RMK AO2 $
53144K9L2 9L220160329015011803/29/16 01:50:31  5-MIN K9L2 290950Z AUTO 19010G19KT 10SM BKN034 OVC046 07/M03 A2977 2440 49 2100 180/10G19 RMK AO2 $
53144K9L2 9L220160329015513503/29/16 01:55:31  5-MIN K9L2 290955Z AUTO 21014G19KT 10SM SCT034 BKN048 07/M03 A2977 2450 49 2100 200/14G19 RMK AO2 SLP078 T00671033 $
53144K9L2 9L220160329020011803/29/16 02:00:31  5-MIN K9L2 291000Z AUTO 21014G19KT 10SM FEW034 BKN046 07/M04 A2976 2450 47 2100 200/14G19 RMK AO2 $
53144K9L2 9L220160329020511803/29/16 02:05:31  5-MIN K9L2 291005Z AUTO 22014G19KT 10SM SCT036 BKN046 07/M04 A2976 2450 47 2100 210/14G19 RMK AO2 $
53144K9L2 9L220160329021011803/29/16 02:10:31  5-MIN K9L2 291010Z AUTO 22011G19KT 10SM SCT042 BKN050 07/M04 A2976 2450 47 2100 210/11G19 RMK AO2 $
53144K9L2 9L220160329021511803/29/16 02:15:31  5-MIN K9L2 291015Z AUTO 23012G19KT 10SM BKN045 BKN055 07/M04 A2976 2450 47 2100 210/12G19 RMK AO2 $
53144K9L2 9L220160329022010503/29/16 02:20:31  5-MIN K9L2 291020Z AUTO 25011KT 10SM SCT045 07/M04 A2976 2450 47 2100 240/11 RMK AO2 $
53144K9L2 9L220160329022511103/29/16 02:25:31  5-MIN K9L2 291025Z AUTO 25011G20KT 10SM SCT045 07/M04 A2976 2450 47 2100 240/11G20 RMK AO2 $
53144K9L2 9L220160329023011103/29/16 02:30:31  5-MIN K9L2 291030Z AUTO 24015G20KT 10SM FEW045 07/M04 A2976 2450 47 2100 230/15G20 RMK AO2 $
53144K9L2 9L220160329023510503/29/16 02:35:31  5-MIN K9L2 291035Z AUTO 24013KT 10SM FEW045 07/M04 A2975 2460 47 2100 230/13 RMK AO2 $
53144K9L2 9L220160329024011103/29/16 02:40:31  5-MIN K9L2 291040Z AUTO 24018G23KT 10SM FEW045 07/M03 A2975 2460 49 2100 230/18G23 RMK AO2 $
53144K9L2 9L220160329024510803/29/16 02:45:31  5-MIN K9L2 291045Z AUTO 25012G23KT 10SM CLR 07/M03 A2975 2460 49 2100 230/12G23 RMK AO2 $
53144K9L2 9L220160329025010803/29/16 02:50:31  5-MIN K9L2 291050Z AUTO 25014G21KT 10SM CLR 07/M03 A2975 2460 49 2100 230/14G21 RMK AO2 $
53144K9L2 9L220160329025512503/29/16 02:55:31  5-MIN K9L2 291055Z AUTO 25016G21KT 10SM CLR 07/M03 A2975 2460 49 2100 240/16G21 RMK AO2 SLP072 T00671033 $
53144K9L2 9L220160329030010803/29/16 03:00:31  5-MIN K9L2 291100Z AUTO 25015G21KT 10SM CLR 07/M03 A2975 2460 49 2100 240/15G21 RMK AO2 $
53144K9L2 9L220160329030510203/29/16 03:05:31  5-MIN K9L2 291105Z AUTO 25016KT 10SM CLR 06/M03 A2974 2470 51 2000 240/16 RMK AO2 $
53144K9L2 9L220160329031010203/29/16 03:10:31  5-MIN K9L2 291110Z AUTO 25014KT 10SM CLR 07/M03 A2975 2460 49 2100 240/14 RMK AO2 $
53144K9L2 9L220160329031510203/29/16 03:15:31  5-MIN K9L2 291115Z AUTO 25010KT 10SM CLR 06/M03 A2976 2460 51 2000 240/10 RMK AO2 $
53144K9L2 9L220160329032010203/29/16 03:20:31  5-MIN K9L2 291120Z AUTO 27009KT 10SM CLR 06/M03 A2976 2450 51 2000 250/09 RMK AO2 $
53144K9L2 9L220160329032510803/29/16 03:25:31  5-MIN K9L2 291125Z AUTO 25014G17KT 10SM CLR 06/M03 A2976 2450 53 2000 230/14G17 RMK AO2 $
53144K9L2 9L220160329033010803/29/16 03:30:31  5-MIN K9L2 291130Z AUTO 25014G20KT 10SM CLR 06/M03 A2976 2450 53 2000 230/14G20 RMK AO2 $
53144K9L2 9L220160329033510803/29/16 03:35:31  5-MIN K9L2 291135Z AUTO 26013G20KT 10SM CLR 06/M03 A2976 2450 53 2000 240/13G20 RMK AO2 $
53144K9L2 9L220160329034010803/29/16 03:40:31  5-MIN K9L2 291140Z AUTO 25009G17KT 10SM CLR 06/M03 A2976 2450 53 2000 240/09G17 RMK AO2 $
53144K9L2 9L220160329034510203/29/16 03:45:31  5-MIN K9L2 291145Z AUTO 23006KT 10SM CLR 06/M03 A2976 2450 51 2000 210/06 RMK AO2 $
53144K9L2 9L220160329035010203/29/16 03:50:31  5-MIN K9L2 291150Z AUTO 26006KT 10SM CLR 06/M03 A2977 2450 51 2000 240/06 RMK AO2 $
53144K9L2 9L220160329035513703/29/16 03:55:31  5-MIN K9L2 291155Z AUTO 23005KT 10SM CLR 06/M04 A2977 2440 48 2000 210/05 RMK AO2 SLP081 T00611039 10072 20050 58005 $
53144K9L2 9L220160329040010203/29/16 04:00:31  5-MIN K9L2 291200Z AUTO 30004KT 10SM CLR 06/M03 A2977 2450 53 1900 280/04 RMK AO2 $
53144K9L2 9L220160329040510203/29/16 04:05:31  5-MIN K9L2 291205Z AUTO VRB03KT 10SM CLR 06/M03 A2977 2440 51 2000 VRB/03 RMK AO2 $
53144K9L2 9L220160329041010203/29/16 04:10:31  5-MIN K9L2 291210Z AUTO 25007KT 10SM CLR 06/M04 A2977 2440 48 1900 240/07 RMK AO2 $
53144K9L2 9L220160329041510203/29/16 04:15:31  5-MIN K9L2 291215Z AUTO 25011KT 10SM CLR 05/M04 A2977 2440 50 1900 240/11 RMK AO2 $
53144K9L2 9L220160329042010203/29/16 04:20:31  5-MIN K9L2 291220Z AUTO 27009KT 10SM CLR 06/M04 A2977 2440 46 2000 260/09 RMK AO2 $
53144K9L2 9L220160329042510203/29/16 04:25:31  5-MIN K9L2 291225Z AUTO 27005KT 10SM CLR 06/M04 A2978 2430 46 2000 260/05 RMK AO2 $
53144K9L2 9L220160329043010203/29/16 04:30:31  5-MIN K9L2 291230Z AUTO 25008KT 10SM CLR 06/M04 A2978 2430 48 1900 240/08 RMK AO2 $
53144K9L2 9L220160329043510203/29/16 04:35:31  5-MIN K9L2 291235Z AUTO 21011KT 10SM CLR 06/M03 A2978 2430 51 2000 200/11 RMK AO2 $
53144K9L2 9L220160329044016903/29/16 04:40:31  5-MIN K9L2 291240Z AUTO 20014KT 10SM CLR 06/M03 A2978 2430 55 1900 190/14 RMK AO2 $0 21006G17KT 10SM CLR 06/M03 A2979 2430 55 1900 200/06G17 RMK AO2 $
53144K9L2 9L220160329045512803/29/16 04:55:31  5-MIN K9L2 291255Z AUTO 18010G17KT 10SM FEW036 06/M03 A2978 2430 55 1900 170/10G17 RMK AO2 SLP087 T00561028 $
53144K9L2 9L220160329050011103/29/16 05:00:31  5-MIN K9L2 291300Z AUTO 21011G17KT 10SM FEW036 06/M03 A2979 2430 53 2000 190/11G17 RMK AO2 $
53144K9L2 9L220160329050510803/29/16 05:05:31  5-MIN K9L2 291305Z AUTO 21006G17KT 10SM CLR 06/M03 A2979 2430 55 1900 200/06G17 RMK AO2 $
53144K9L2 9L220160329051010503/29/16 05:10:31  5-MIN K9L2 291310Z AUTO 26006KT 10SM FEW036 06/M03 A2979 2420 55 1900 250/06 RMK AO2 $
53144K9L2 9L220160329051510503/29/16 05:15:31  5-MIN K9L2 291315Z AUTO 25007KT 10SM FEW038 06/M03 A2980 2420 55 1900 230/07 RMK AO2 $
53144K9L2 9L220160329052010503/29/16 05:20:31  5-MIN K9L2 291320Z AUTO 24006KT 10SM SCT036 06/M03 A2980 2420 55 1900 220/06 RMK AO2 $
53144K9L2 9L220160329052510503/29/16 05:25:31  5-MIN K9L2 291325Z AUTO 23007KT 10SM FEW036 06/M03 A2980 2420 55 1900 210/07 RMK AO2 $
53144K9L2 9L220160329053010503/29/16 05:30:31  5-MIN K9L2 291330Z AUTO 21008KT 10SM FEW036 06/M03 A2980 2420 55 1900 200/08 RMK AO2 $
53144K9L2 9L220160329053510503/29/16 05:35:31  5-MIN K9L2 291335Z AUTO 20008KT 10SM FEW036 05/M03 A2980 2420 57 1800 190/08 RMK AO2 $
53144K9L2 9L220160329054010503/29/16 05:40:31  5-MIN K9L2 291340Z AUTO 22008KT 10SM FEW036 05/M03 A2980 2420 57 1800 200/08 RMK AO2 $
53144K9L2 9L220160329054510503/29/16 05:45:31  5-MIN K9L2 291345Z AUTO 23008KT 10SM FEW036 05/M03 A2980 2420 57 1800 220/08 RMK AO2 $
53144K9L2 9L220160329055010503/29/16 05:50:31  5-MIN K9L2 291350Z AUTO 24010KT 10SM FEW036 06/M03 A2980 2420 55 1900 220/10 RMK AO2 $
53144K9L2 9L220160329055512203/29/16 05:55:31  5-MIN K9L2 291355Z AUTO 24011KT 10SM FEW036 06/M03 A2980 2410 55 1900 230/11 RMK AO2 SLP095 T00561028 $
53144K9L2 9L220160329060010503/29/16 06:00:31  5-MIN K9L2 291400Z AUTO 24009KT 10SM FEW036 06/M02 A2980 2410 55 2000 230/09 RMK AO2 $
53144K9L2 9L220160329060510503/29/16 06:05:31  5-MIN K9L2 291405Z AUTO 25008KT 10SM FEW036 06/M02 A2980 2410 55 2000 240/08 RMK AO2 $
53144K9L2 9L220160329061010503/29/16 06:10:31  5-MIN K9L2 291410Z AUTO 26010KT 10SM FEW034 06/M02 A2981 2410 55 2000 250/10 RMK AO2 $
53144K9L2 9L220160329061510503/29/16 06:15:31  5-MIN K9L2 291415Z AUTO 27011KT 10SM FEW034 07/M02 A2981 2410 53 2000 260/11 RMK AO2 $
53144K9L2 9L220160329062010203/29/16 06:20:31  5-MIN K9L2 291420Z AUTO 26014KT 10SM CLR 07/M02 A2981 2410 53 2000 250/14 RMK AO2 $
53144K9L2 9L220160329062510803/29/16 06:25:31  5-MIN K9L2 291425Z AUTO 26012G17KT 10SM CLR 07/M02 A2981 2410 51 2100 250/12G17 RMK AO2 $
53144K9L2 9L220160329063010803/29/16 06:30:31  5-MIN K9L2 291430Z AUTO 27012G18KT 10SM CLR 07/M02 A2981 2410 51 2100 260/12G18 RMK AO2 $
53144K9L2 9L220160329063510803/29/16 06:35:31  5-MIN K9L2 291435Z AUTO 26019G24KT 10SM CLR 07/M02 A2980 2410 51 2100 250/19G24 RMK AO2 $
53144K9L2 9L220160329064012603/29/16 06:40:31  5-MIN K9L2 291440Z AUTO 27019G27KT 10SM CLR 08/M02 A2980 2410 49 2200 260/19G27 RMK AO2 PK WND 28027/1440 $
53144K9L2 9L220160329064512603/29/16 06:45:31  5-MIN K9L2 291445Z AUTO 27023G29KT 10SM CLR 08/M02 A2980 2410 49 2200 260/23G29 RMK AO2 PK WND 28029/1443 $
53144K9L2 9L220160329065012603/29/16 06:50:31  5-MIN K9L2 291450Z AUTO 28021G29KT 10SM CLR 08/M03 A2981 2410 45 2200 260/21G29 RMK AO2 PK WND 28029/1443 $
53144K9L2 9L220160329065514903/29/16 06:55:31  5-MIN K9L2 291455Z AUTO 27022G28KT 10SM CLR 08/M03 A2981 2400 43 2200 260/22G28 RMK AO2 PK WND 28029/1443 SLP097 T00831033 53003 $
53144K9L2 9L220160329070010803/29/16 07:00:31  5-MIN K9L2 291500Z AUTO 27018G28KT 10SM CLR 09/M03 A2981 2400 42 2300 250/18G28 RMK AO2 $
53144K9L2 9L220160329070512603/29/16 07:05:31  5-MIN K9L2 291505Z AUTO 27022G26KT 10SM CLR 09/M03 A2981 2400 42 2300 250/22G26 RMK AO2 PK WND 26026/1505 $
53144K9L2 9L220160329071012603/29/16 07:10:31  5-MIN K9L2 291510Z AUTO 27019G26KT 10SM CLR 09/M03 A2981 2400 42 2300 260/19G26 RMK AO2 PK WND 26026/1505 $
53144K9L2 9L220160329071512603/29/16 07:15:31  5-MIN K9L2 291515Z AUTO 26022G28KT 10SM CLR 09/M03 A2981 2400 40 2300 250/22G28 RMK AO2 PK WND 27028/1515 $
53144K9L2 9L220160329072012603/29/16 07:20:31  5-MIN K9L2 291520Z AUTO 26021G28KT 10SM CLR 09/M03 A2981 2400 40 2300 250/21G28 RMK AO2 PK WND 27028/1519 $
53144K9L2 9L220160329072512603/29/16 07:25:31  5-MIN K9L2 291525Z AUTO 26018G28KT 10SM CLR 09/M04 A2981 2400 39 2300 250/18G28 RMK AO2 PK WND 27028/1519 $
53144K9L2 9L220160329073012603/29/16 07:30:31  5-MIN K9L2 291530Z AUTO 26020G25KT 10SM CLR 09/M04 A2982 2400 39 2300 250/20G25 RMK AO2 PK WND 27028/1519 $
53144K9L2 9L220160329073512603/29/16 07:35:31  5-MIN K9L2 291535Z AUTO 25020G25KT 10SM CLR 09/M04 A2981 2400 39 2300 240/20G25 RMK AO2 PK WND 27028/1519 $
53144K9L2 9L220160329074012003/29/16 07:40:31  5-MIN K9L2 291540Z AUTO 26018KT 10SM CLR 10/M04 A2981 2400 37 2400 250/18 RMK AO2 PK WND 27028/1519 $
53144K9L2 9L220160329074512003/29/16 07:45:31  5-MIN K9L2 291545Z AUTO 25020KT 10SM CLR 10/M04 A2981 2400 37 2400 240/20 RMK AO2 PK WND 27028/1519 $
53144K9L2 9L220160329075012003/29/16 07:50:31  5-MIN K9L2 291550Z AUTO 27020KT 10SM CLR 10/M04 A2981 2400 37 2400 250/20 RMK AO2 PK WND 27028/1519 $
53144K9L2 9L220160329075513703/29/16 07:55:31  5-MIN K9L2 291555Z AUTO 26018KT 10SM CLR 10/M04 A2982 2400 37 2400 250/18 RMK AO2 PK WND 27028/1519 SLP098 T01001039 $
53144K9L2 9L220160329080012603/29/16 08:00:31  5-MIN K9L2 291600Z AUTO 26022G26KT 10SM CLR 10/M04 A2982 2400 37 2400 240/22G26 RMK AO2 PK WND 26026/1559 $
53144K9L2 9L220160329080512603/29/16 08:05:31  5-MIN K9L2 291605Z AUTO 26019G26KT 10SM CLR 10/M03 A2982 2390 39 2400 250/19G26 RMK AO2 PK WND 26026/1559 $
53144K9L2 9L220160329081012003/29/16 08:10:31  5-MIN K9L2 291610Z AUTO 26021KT 10SM CLR 10/M04 A2983 2390 37 2400 240/21 RMK AO2 PK WND 26026/1559 $
53144K9L2 9L220160329081512603/29/16 08:15:31  5-MIN K9L2 291615Z AUTO 25020G24KT 10SM CLR 10/M04 A2982 2390 37 2400 240/20G24 RMK AO2 PK WND 26026/1559 $
53144K9L2 9L220160329082012603/29/16 08:20:31  5-MIN K9L2 291620Z AUTO 26018G24KT 10SM CLR 11/M03 A2983 2390 37 2500 240/18G24 RMK AO2 PK WND 26026/1559 $
53144K9L2 9L220160329082512003/29/16 08:25:31  5-MIN K9L2 291625Z AUTO 28017KT 10SM CLR 11/M03 A2983 2390 37 2500 260/17 RMK AO2 PK WND 26026/1559 $
53144K9L2 9L220160329083012003/29/16 08:30:31  5-MIN K9L2 291630Z AUTO 27018KT 10SM CLR 11/M03 A2983 2390 37 2500 260/18 RMK AO2 PK WND 26026/1559 $
53144K9L2 9L220160329083512003/29/16 08:35:31  5-MIN K9L2 291635Z AUTO 27021KT 10SM CLR 11/M03 A2983 2390 37 2500 260/21 RMK AO2 PK WND 26026/1559 $
53144K9L2 9L220160329084012003/29/16 08:40:31  5-MIN K9L2 291640Z AUTO 27019KT 10SM CLR 11/M03 A2983 2390 37 2500 260/19 RMK AO2 PK WND 26026/1559 $
53144K9L2 9L220160329084512603/29/16 08:45:31  5-MIN K9L2 291645Z AUTO 27020G27KT 10SM CLR 11/M03 A2982 2390 37 2500 260/20G27 RMK AO2 PK WND 26027/1645 $
53144K9L2 9L220160329085012603/29/16 08:50:31  5-MIN K9L2 291650Z AUTO 27019G27KT 10SM CLR 11/M03 A2983 2390 36 2500 260/19G27 RMK AO2 PK WND 26027/1645 $
53144K9L2 9L220160329085514303/29/16 08:55:31  5-MIN K9L2 291655Z AUTO 26019G25KT 10SM CLR 11/M03 A2983 2390 36 2500 250/19G25 RMK AO2 PK WND 26027/1645 SLP102 T01111033 $
53144K9L2 9L220160329090010803/29/16 09:00:31  5-MIN K9L2 291700Z AUTO 27019G25KT 10SM CLR 11/M04 A2983 2390 34 2500 250/19G25 RMK AO2 $
53144K9L2 9L220160329090512603/29/16 09:05:31  5-MIN K9L2 291705Z AUTO 28019G26KT 10SM CLR 11/M04 A2983 2390 34 2500 270/19G26 RMK AO2 PK WND 27026/1701 $
53144K9L2 9L220160329091012603/29/16 09:10:31  5-MIN K9L2 291710Z AUTO 27019G26KT 10SM CLR 11/M04 A2983 2390 34 2500 260/19G26 RMK AO2 PK WND 27026/1701 $
53144K9L2 9L220160329091512603/29/16 09:15:31  5-MIN K9L2 291715Z AUTO 28017G27KT 10SM CLR 12/M04 A2983 2380 33 2600 270/17G27 RMK AO2 PK WND 25027/1711 $
53144K9L2 9L220160329092012603/29/16 09:20:31  5-MIN K9L2 291720Z AUTO 27020G27KT 10SM CLR 12/M04 A2983 2380 33 2600 260/20G27 RMK AO2 PK WND 27027/1718 $
53144K9L2 9L220160329092512603/29/16 09:25:31  5-MIN K9L2 291725Z AUTO 26019G27KT 10SM CLR 12/M04 A2983 2390 32 2700 250/19G27 RMK AO2 PK WND 27027/1718 $
53144K9L2 9L220160329093012603/29/16 09:30:31  5-MIN K9L2 291730Z AUTO 27017G25KT 10SM CLR 12/M04 A2983 2380 32 2600 250/17G25 RMK AO2 PK WND 27027/1718 $
53144K9L2 9L220160329093512603/29/16 09:35:31  5-MIN K9L2 291735Z AUTO 26020G26KT 10SM CLR 12/M04 A2983 2390 32 2600 250/20G26 RMK AO2 PK WND 27027/1718 $
53144K9L2 9L220160329094012603/29/16 09:40:31  5-MIN K9L2 291740Z AUTO 25021G26KT 10SM CLR 12/M04 A2983 2390 31 2700 240/21G26 RMK AO2 PK WND 27027/1718 $
53144K9L2 9L220160329094512603/29/16 09:45:31  5-MIN K9L2 291745Z AUTO 25019G27KT 10SM CLR 13/M04 A2983 2390 30 2700 240/19G27 RMK AO2 PK WND 25027/1741 $
53144K9L2 9L220160329095012603/29/16 09:50:31  5-MIN K9L2 291750Z AUTO 26021G27KT 10SM CLR 12/M04 A2983 2390 31 2700 250/21G27 RMK AO2 PK WND 25027/1741 $
53144K9L2 9L220160329095516103/29/16 09:55:31  5-MIN K9L2 291755Z AUTO 27017G26KT 10SM CLR 12/M04 A2983 2390 31 2700 250/17G26 RMK AO2 PK WND 25027/1741 SLP103 T01221044 10128 20050 51013 $
53144K9L2 9L220160329100010803/29/16 10:00:31  5-MIN K9L2 291800Z AUTO 27020G24KT 10SM CLR 12/M04 A2983 2390 31 2700 260/20G24 RMK AO2 $
53144K9L2 9L220160329100512603/29/16 10:05:31  5-MIN K9L2 291805Z AUTO 28018G29KT 10SM CLR 12/M04 A2983 2380 31 2700 270/18G29 RMK AO2 PK WND 26029/1801 $
53144K9L2 9L220160329101012603/29/16 10:10:31  5-MIN K9L2 291810Z AUTO 27021G29KT 10SM CLR 13/M04 A2983 2380 30 2700 260/21G29 RMK AO2 PK WND 26029/1801 $
53144K9L2 9L220160329101512603/29/16 10:15:31  5-MIN K9L2 291815Z AUTO 27020G26KT 10SM CLR 13/M05 A2983 2380 28 2700 260/20G26 RMK AO2 PK WND 26029/1801 $
53144K9L2 9L220160329102012003/29/16 10:20:31  5-MIN K9L2 291820Z AUTO 28020KT 10SM CLR 13/M04 A2983 2380 30 2700 270/20 RMK AO2 PK WND 26029/1801 $
53144K9L2 9L220160329102512603/29/16 10:25:31  5-MIN K9L2 291825Z AUTO 28020G26KT 10SM CLR 13/M05 A2983 2380 28 2700 260/20G26 RMK AO2 PK WND 26029/1801 $
53144K9L2 9L220160329103012603/29/16 10:30:31  5-MIN K9L2 291830Z AUTO 28018G26KT 10SM CLR 13/M05 A2983 2380 28 2700 260/18G26 RMK AO2 PK WND 26029/1801 $
53144K9L2 9L220160329103512603/29/16 10:35:31  5-MIN K9L2 291835Z AUTO 28016G24KT 10SM CLR 13/M05 A2983 2380 27 2800 270/16G24 RMK AO2 PK WND 26029/1801 $
53144K9L2 9L220160329104012603/29/16 10:40:31  5-MIN K9L2 291840Z AUTO 28022G27KT 10SM CLR 13/M05 A2983 2380 27 2800 270/22G27 RMK AO2 PK WND 26029/1801 $
53144K9L2 9L220160329104512603/29/16 10:45:31  5-MIN K9L2 291845Z AUTO 28020G27KT 10SM CLR 13/M05 A2983 2390 28 2700 270/20G27 RMK AO2 PK WND 26029/1801 $
53144K9L2 9L220160329105012603/29/16 10:50:31  5-MIN K9L2 291850Z AUTO 28019G25KT 10SM CLR 13/M05 A2983 2390 27 2800 270/19G25 RMK AO2 PK WND 26029/1801 $
53144K9L2 9L220160329105514303/29/16 10:55:31  5-MIN K9L2 291855Z AUTO 27022G27KT 10SM CLR 13/M05 A2983 2390 27 2800 260/22G27 RMK AO2 PK WND 26029/1801 SLP101 T01331050 $
53144K9L2 9L220160329110010803/29/16 11:00:31  5-MIN K9L2 291900Z AUTO 26019G27KT 10SM CLR 14/M04 A2983 2390 27 2900 250/19G27 RMK AO2 $
53144K9L2 9L220160329110510803/29/16 11:05:31  5-MIN K9L2 291905Z AUTO 27019G24KT 10SM CLR 14/M05 A2983 2390 26 2800 260/19G24 RMK AO2 $
53144K9L2 9L220160329111012603/29/16 11:10:31  5-MIN K9L2 291910Z AUTO 26018G26KT 10SM CLR 14/M05 A2983 2390 26 2900 250/18G26 RMK AO2 PK WND 28026/1906 $
53144K9L2 9L220160329111512603/29/16 11:15:31  5-MIN K9L2 291915Z AUTO 27020G26KT 10SM CLR 14/M06 A2983 2390 25 2900 260/20G26 RMK AO2 PK WND 26026/1911 $
53144K9L2 9L220160329112012603/29/16 11:20:31  5-MIN K9L2 291920Z AUTO 27019G26KT 10SM CLR 14/M06 A2982 2390 24 2900 260/19G26 RMK AO2 PK WND 27026/1916 $
53144K9L2 9L220160329112512603/29/16 11:25:31  5-MIN K9L2 291925Z AUTO 27020G26KT 10SM CLR 14/M06 A2982 2400 25 2900 250/20G26 RMK AO2 PK WND 26026/1924 $
53144K9L2 9L220160329113012603/29/16 11:30:31  5-MIN K9L2 291930Z AUTO 29016G26KT 10SM CLR 14/M06 A2982 2390 23 2900 280/16G26 RMK AO2 PK WND 26026/1924 $
53144K9L2 9L220160329113512603/29/16 11:35:31  5-MIN K9L2 291935Z AUTO 27017G24KT 10SM CLR 14/M05 A2982 2400 26 2900 250/17G24 RMK AO2 PK WND 26026/1924 $
53144K9L2 9L220160329114012603/29/16 11:40:31  5-MIN K9L2 291940Z AUTO 27017G26KT 10SM CLR 14/M06 A2982 2400 23 2900 260/17G26 RMK AO2 PK WND 27026/1937 $
53144K9L2 9L220160329114512603/29/16 11:45:31  5-MIN K9L2 291945Z AUTO 28016G26KT 10SM CLR 14/M07 A2982 2400 22 2900 270/16G26 RMK AO2 PK WND 28026/1942 $
53144K9L2 9L220160329115012603/29/16 11:50:31  5-MIN K9L2 291950Z AUTO 27020G26KT 10SM CLR 14/M07 A2981 2400 22 2900 260/20G26 RMK AO2 PK WND 28026/1942 $
53144K9L2 9L220160329115514303/29/16 11:55:31  5-MIN K9L2 291955Z AUTO 28020G27KT 10SM CLR 14/M07 A2981 2410 22 2900 260/20G27 RMK AO2 PK WND 27027/1954 SLP096 T01441067 $
53144K9L2 9L220160329120010803/29/16 12:00:31  5-MIN K9L2 292000Z AUTO 27017G27KT 10SM CLR 14/M07 A2981 2410 22 2900 260/17G27 RMK AO2 $
53144K9L2 9L220160329120512603/29/16 12:05:31  5-MIN K9L2 292005Z AUTO 28018G27KT 10SM CLR 14/M07 A2981 2410 21 2900 260/18G27 RMK AO2 PK WND 27027/2002 $
53144K9L2 9L220160329121012603/29/16 12:10:31  5-MIN K9L2 292010Z AUTO 27021G27KT 10SM CLR 16/M07 A2980 2410 20 3100 260/21G27 RMK AO2 PK WND 27027/2008 $
53144K9L2 9L220160329121512603/29/16 12:15:31  5-MIN K9L2 292015Z AUTO 28021G28KT 10SM CLR 16/M08 A2980 2410 19 3100 260/21G28 RMK AO2 PK WND 27028/2014 $
53144K9L2 9L220160329122012603/29/16 12:20:31  5-MIN K9L2 292020Z AUTO 28019G28KT 10SM CLR 15/M09 A2980 2410 18 3000 260/19G28 RMK AO2 PK WND 27028/2014 $
53144K9L2 9L220160329122512603/29/16 12:25:31  5-MIN K9L2 292025Z AUTO 28019G26KT 10SM CLR 16/M08 A2980 2420 18 3100 260/19G26 RMK AO2 PK WND 27028/2014 $
53144K9L2 9L220160329123012603/29/16 12:30:31  5-MIN K9L2 292030Z AUTO 28021G28KT 10SM CLR 16/M09 A2979 2420 17 3100 260/21G28 RMK AO2 PK WND 27028/2026 $
53144K9L2 9L220160329123512603/29/16 12:35:31  5-MIN K9L2 292035Z AUTO 27024G28KT 10SM CLR 16/M09 A2979 2420 17 3100 260/24G28 RMK AO2 PK WND 27028/2035 $
53144K9L2 9L220160329124012603/29/16 12:40:31  5-MIN K9L2 292040Z AUTO 27021G28KT 10SM CLR 16/M09 A2979 2420 17 3100 260/21G28 RMK AO2 PK WND 28028/2040 $
53144K9L2 9L220160329124512603/29/16 12:45:31  5-MIN K9L2 292045Z AUTO 28020G29KT 10SM CLR 16/M09 A2979 2420 17 3100 260/20G29 RMK AO2 PK WND 26029/2042 $
53144K9L2 9L220160329125012603/29/16 12:50:31  5-MIN K9L2 292050Z AUTO 27024G30KT 10SM CLR 16/M09 A2979 2420 17 3100 260/24G30 RMK AO2 PK WND 27030/2050 $
53144K9L2 9L220160329125514903/29/16 12:55:31  5-MIN K9L2 292055Z AUTO 28020G30KT 10SM CLR 16/M09 A2979 2420 17 3100 260/20G30 RMK AO2 PK WND 27030/2050 SLP089 T01561089 51006 $
53144K9L2 9L220160329130012603/29/16 13:00:31  5-MIN K9L2 292100Z AUTO 28022G33KT 10SM CLR 16/M09 A2979 2420 17 3100 260/22G33 RMK AO2 PK WND 28033/2059 $
53144K9L2 9L220160329130512603/29/16 13:05:31  5-MIN K9L2 292105Z AUTO 27018G33KT 10SM CLR 16/M09 A2979 2420 17 3100 250/18G33 RMK AO2 PK WND 28033/2059 $
53144K9L2 9L220160329131012603/29/16 13:10:31  5-MIN K9L2 292110Z AUTO 28021G30KT 10SM CLR 16/M09 A2979 2420 17 3100 270/21G30 RMK AO2 PK WND 28033/2059 $
53144K9L2 9L220160329131512603/29/16 13:15:31  5-MIN K9L2 292115Z AUTO 28019G28KT 10SM CLR 16/M09 A2979 2420 17 3100 270/19G28 RMK AO2 PK WND 28033/2059 $
53144K9L2 9L220160329132012603/29/16 13:20:31  5-MIN K9L2 292120Z AUTO 27020G28KT 10SM CLR 16/M09 A2979 2420 17 3200 260/20G28 RMK AO2 PK WND 28033/2059 $
53144K9L2 9L220160329132512603/29/16 13:25:31  5-MIN K9L2 292125Z AUTO 28020G26KT 10SM CLR 15/M09 A2979 2430 18 3000 260/20G26 RMK AO2 PK WND 28033/2059 $
53144K9L2 9L220160329133012603/29/16 13:30:31  5-MIN K9L2 292130Z AUTO 28016G26KT 10SM CLR 14/M09 A2979 2430 18 3000 270/16G26 RMK AO2 PK WND 28033/2059 $
53144K9L2 9L220160329133512603/29/16 13:35:31  5-MIN K9L2 292135Z AUTO 28022G29KT 10SM CLR 16/M10 A2979 2430 16 3100 270/22G29 RMK AO2 PK WND 28033/2059 $
53144K9L2 9L220160329134012603/29/16 13:40:31  5-MIN K9L2 292140Z AUTO 26020G29KT 10SM CLR 15/M10 A2978 2430 17 3000 250/20G29 RMK AO2 PK WND 28033/2059 $
53144K9L2 9L220160329134512603/29/16 13:45:31  5-MIN K9L2 292145Z AUTO 29020G27KT 10SM CLR 16/M11 A2978 2430 15 3200 280/20G27 RMK AO2 PK WND 28033/2059 $
53144K9L2 9L220160329135012603/29/16 13:50:31  5-MIN K9L2 292150Z AUTO 28019G27KT 10SM CLR 16/M11 A2978 2430 15 3100 260/19G27 RMK AO2 PK WND 28033/2059 $
53144K9L2 9L220160329135514303/29/16 13:55:31  5-MIN K9L2 292155Z AUTO 28021G26KT 10SM CLR 16/M11 A2978 2430 15 3100 270/21G26 RMK AO2 PK WND 28033/2059 SLP084 T01561106 $
53144K9L2 9L220160329140012603/29/16 14:00:31  5-MIN K9L2 292200Z AUTO 29018G27KT 10SM CLR 16/M12 A2978 2430 14 3100 280/18G27 RMK AO2 PK WND 29027/2158 $
53144K9L2 9L220160329140512603/29/16 14:05:31  5-MIN K9L2 292205Z AUTO 28022G29KT 10SM CLR 16/M10 A2978 2430 16 3100 270/22G29 RMK AO2 PK WND 28029/2204 $
53144K9L2 9L220160329141012603/29/16 14:10:31  5-MIN K9L2 292210Z AUTO 28022G29KT 10SM CLR 16/M11 A2978 2440 15 3100 260/22G29 RMK AO2 PK WND 28029/2204 $
53144K9L2 9L220160329141512603/29/16 14:15:31  5-MIN K9L2 292215Z AUTO 27020G28KT 10SM CLR 16/M11 A2978 2440 15 3100 260/20G28 RMK AO2 PK WND 28029/2204 $
53144K9L2 9L220160329142012603/29/16 14:20:31  5-MIN K9L2 292220Z AUTO 29021G26KT 10SM CLR 16/M11 A2978 2430 15 3100 280/21G26 RMK AO2 PK WND 28029/2204 $
53144K9L2 9L220160329142512603/29/16 14:25:31  5-MIN K9L2 292225Z AUTO 29021G26KT 10SM CLR 16/M11 A2978 2440 15 3100 270/21G26 RMK AO2 PK WND 28029/2204 $
53144K9L2 9L220160329143012603/29/16 14:30:31  5-MIN K9L2 292230Z AUTO 29021G26KT 10SM CLR 16/M11 A2977 2440 15 3100 270/21G26 RMK AO2 PK WND 28029/2204 $
53144K9L2 9L220160329143512603/29/16 14:35:31  5-MIN K9L2 292235Z AUTO 28017G26KT 10SM CLR 15/M10 A2977 2440 17 3000 270/17G26 RMK AO2 PK WND 28029/2204 $
53144K9L2 9L220160329144012603/29/16 14:40:31  5-MIN K9L2 292240Z AUTO 30020G26KT 10SM CLR 16/M11 A2977 2450 15 3100 290/20G26 RMK AO2 PK WND 28029/2204 $
53144K9L2 9L220160329144512603/29/16 14:45:31  5-MIN K9L2 292245Z AUTO 30020G29KT 10SM CLR 16/M11 A2976 2450 15 3100 290/20G29 RMK AO2 PK WND 30029/2245 $
53144K9L2 9L220160329145012603/29/16 14:50:31  5-MIN K9L2 292250Z AUTO 29020G29KT 10SM CLR 16/M11 A2977 2440 14 3200 270/20G29 RMK AO2 PK WND 30029/2245 $
53144K9L2 9L220160329145514303/29/16 14:55:31  5-MIN K9L2 292255Z AUTO 29017G25KT 10SM CLR 16/M12 A2977 2440 14 3100 280/17G25 RMK AO2 PK WND 30029/2245 SLP079 T01561117 $
53144K9L2 9L220160329150012603/29/16 15:00:31  5-MIN K9L2 292300Z AUTO 29021G26KT 10SM CLR 16/M12 A2977 2450 13 3100 280/21G26 RMK AO2 PK WND 29026/2259 $
53144K9L2 9L220160329150512603/29/16 15:05:31  5-MIN K9L2 292305Z AUTO 30020G26KT 10SM CLR 16/M12 A2977 2450 13 3100 280/20G26 RMK AO2 PK WND 29026/2259 $
53144K9L2 9L220160329151012603/29/16 15:10:31  5-MIN K9L2 292310Z AUTO 29019G26KT 10SM CLR 16/M11 A2976 2450 15 3100 280/19G26 RMK AO2 PK WND 28026/2310 $
53144K9L2 9L220160329151512603/29/16 15:15:31  5-MIN K9L2 292315Z AUTO 28017G26KT 10SM CLR 16/M11 A2977 2450 15 3100 270/17G26 RMK AO2 PK WND 28026/2310 $
53144K9L2 9L220160329152012603/29/16 15:20:31  5-MIN K9L2 292320Z AUTO 28019G27KT 10SM CLR 16/M11 A2977 2440 15 3100 270/19G27 RMK AO2 PK WND 27027/2318 $
53144K9L2 9L220160329152512603/29/16 15:25:31  5-MIN K9L2 292325Z AUTO 30019G27KT 10SM CLR 16/M11 A2977 2440 15 3100 280/19G27 RMK AO2 PK WND 27027/2318 $
53144K9L2 9L220160329153012603/29/16 15:30:31  5-MIN K9L2 292330Z AUTO 30017G27KT 10SM CLR 15/M11 A2977 2440 15 3000 290/17G27 RMK AO2 PK WND 30027/2328 $
53144K9L2 9L220160329153512603/29/16 15:35:31  5-MIN K9L2 292335Z AUTO 29019G27KT 10SM CLR 16/M11 A2977 2440 15 3100 280/19G27 RMK AO2 PK WND 30027/2328 $
53144K9L2 9L220160329154012603/29/16 15:40:31  5-MIN K9L2 292340Z AUTO 29020G27KT 10SM CLR 15/M12 A2977 2440 15 3000 280/20G27 RMK AO2 PK WND 29027/2340 $
53144K9L2 9L220160329154512603/29/16 15:45:31  5-MIN K9L2 292345Z AUTO 30018G27KT 10SM CLR 15/M11 A2977 2440 15 3000 280/18G27 RMK AO2 PK WND 29027/2340 $
53144K9L2 9L220160329155012603/29/16 15:50:31  5-MIN K9L2 292350Z AUTO 29021G26KT 10SM CLR 15/M11 A2977 2440 16 3000 280/21G26 RMK AO2 PK WND 29027/2340 $
53144K9L2 9L220160329155516103/29/16 15:55:31  5-MIN K9L2 292355Z AUTO 30019G26KT 10SM CLR 15/M11 A2977 2440 16 3000 290/19G26 RMK AO2 PK WND 29027/2340 SLP081 T01501106 10161 20122 58012 $
53144K9L2 9L220160329160012603/29/16 16:00:31  5-MIN K9L2 300000Z AUTO 29019G26KT 10SM CLR 15/M12 A2977 2440 15 3000 280/19G26 RMK AO2 PK WND 28026/2358 $
53144K9L2 9L220160329160512603/29/16 16:05:31  5-MIN K9L2 300005Z AUTO 29019G27KT 10SM CLR 15/M11 A2977 2440 15 3000 280/19G27 RMK AO2 PK WND 29027/0004 $
53144K9L2 9L220160329161012603/29/16 16:10:31  5-MIN K9L2 300010Z AUTO 29022G27KT 10SM CLR 15/M11 A2977 2440 16 3000 270/22G27 RMK AO2 PK WND 29027/0009 $
53144K9L2 9L220160329161512603/29/16 16:15:31  5-MIN K9L2 300015Z AUTO 29021G27KT 10SM CLR 14/M11 A2977 2440 16 3000 280/21G27 RMK AO2 PK WND 29027/0009 $
53144K9L2 9L220160329162012603/29/16 16:20:31  5-MIN K9L2 300020Z AUTO 29021G28KT 10SM CLR 14/M11 A2977 2440 16 3000 270/21G28 RMK AO2 PK WND 29028/0018 $
53144K9L2 9L220160329162512603/29/16 16:25:31  5-MIN K9L2 300025Z AUTO 29021G28KT 10SM CLR 15/M11 A2977 2440 15 3000 270/21G28 RMK AO2 PK WND 29028/0018 $
53144K9L2 9L220160329163012603/29/16 16:30:31  5-MIN K9L2 300030Z AUTO 29022G26KT 10SM CLR 14/M11 A2977 2440 16 3000 270/22G26 RMK AO2 PK WND 29028/0018 $
53144K9L2 9L220160329163512603/29/16 16:35:31  5-MIN K9L2 300035Z AUTO 29018G25KT 10SM CLR 14/M11 A2977 2440 16 3000 270/18G25 RMK AO2 PK WND 29028/0018 $
53144K9L2 9L220160329164012603/29/16 16:40:31  5-MIN K9L2 300040Z AUTO 29020G25KT 10SM CLR 14/M11 A2977 2440 16 3000 270/20G25 RMK AO2 PK WND 29028/0018 $
53144K9L2 9L220160329164507903/29/16 16:45:31  5-MIN K9L2 300045Z AUTO 29018KT 10SM C00 260/18G24 RMK AO2 $
53144K9L2 9L220160329164512003/29/16 16:45:31  5-MIN K9L2 300045Z AUTO 29018KT 10SM CLR 14/M11 A2977 2440 16 3000 280/18 RMK AO2 PK WND 29028/0018 $
53144K9L2 9L220160329165012603/29/16 16:50:31  5-MIN K9L2 300050Z AUTO 28019G25KT 10SM CLR 14/M11 A2977 2440 16 2900 270/19G25 RMK AO2 PK WND 29028/0018 $
53144K9L2 9L220160329172010203/29/16 17:20:31  5-MIN K9L2 300120Z AUTO 27017KT 10SM CLR 14/M09 A2977 2440 20 2900 260/17 RMK AO2 $
53144K9L2 9L220160329172510803/29/16 17:25:31  5-MIN K9L2 300125Z AUTO 27020G24KT 10SM CLR 13/M09 A2977 2440 20 2800 260/20G24 RMK AO2 $
53144K9L2 9L220160329173010203/29/16 17:30:31  5-MIN K9L2 300130Z AUTO 27019KT 10SM CLR 13/M09 A2978 2430 19 2800 260/19 RMK AO2 $
53144K9L2 9L220160329173509703/29/16 17:35:31  5-MIN K9L2 300135Z AUTO 27019G2R 12/M09 A2978 2430 22 2600 240/11G19 RMK AO2 $
53144K9L2 9L220160329182510203/29/16 18:25:31  5-MIN K9L2 300225Z AUTO 26013KT 10SM CLR 12/M09 A2979 2430 23 2600 250/13 RMK AO2 $
53144K9L2 9L220160329183010203/29/16 18:30:31  5-MIN K9L2 300230Z AUTO 26014KT 10SM CLR 12/M08 A2979 2430 24 2600 240/14 RMK AO2 $
53144K9L2 9L220160329183510203/29/16 18:35:31  5-MIN K9L2 300235Z AUTO 25015KT 10SM CLR 11/M08 A2979 2430 26 2600 240/15 RMK AO2 $
53144K9L2 9L220160329184010203/29/16 18:40:31  5-MIN K9L2 300240Z AUTO 26015KT 10SM CLR 11/M07 A2979 2430 27 2600 250/15 RMK AO2 $
53144K9L2 9L220160329184510203/29/16 18:45:31  5-MIN K9L2 300245Z AUTO 25014KT 10SM CLR 11/M07 A2979 2430 27 2600 240/14 RMK AO2 $
53144K9L2 9L220160329185010203/29/16 18:50:31  5-MIN K9L2 300250Z AUTO 25013KT 10SM CLR 11/M07 A2979 2420 28 2600 240/13 RMK AO2 $
53144K9L2 9L220160329185513203/29/16 18:55:31  5-MIN K9L2 300255Z AUTO 26014KT 10SM CLR 11/M07 A2979 2420 28 2600 240/14 RMK AO2 SLP390 40 2300 240/13 RMK AO2 $
53144K9L2 9L220160329203510203/29/16 20:35:31  5-MIN K9L2 300435Z AUTO 25012KT 10SM CLR 09/M03 A2982 2390 40 2300 240/12 RMK AO2 $
53144K9L2 9L220160329204010203/29/16 20:40:31  5-MIN K9L2 300440Z AUTO 26013KT 10SM CLR 09/M03 A2982 2390 40 2300 240/13 RMK AO2 $
53144K9L2 9L220160329204510203/29/16 20:45:31  5-MIN K9L2 300445Z AUTO 25013KT 10SM CLR 09/M03 A2983 2390 42 2300 240/13 RMK AO2 $
53144K9L2 9L220160329205009303/29/16 20:50:31  5-MIN K9L2 300450Z AUTO 26013KT 10/M03 A2983 2380 43 2300 240/11 RMK AO2 $
53144K9L2 9L220160329213010203/29/16 21:30:31  5-MIN K9L2 300530Z AUTO 25009KT 10SM CLR 09/M03 A2984 2380 43 2300 240/09 RMK AO2 $
53144K9L2 9L220160329213510203/29/16 21:35:31  5-MIN K9L2 300535Z AUTO 25009KT 10SM CLR 08/M03 A2983 2380 45 2200 230/09 RMK AO2 $
53144K9L2 9L220160329214010203/29/16 21:40:31  5-MIN K9L2 300540Z AUTO 25008KT 10SM CLR 08/M03 A2983 2390 45 2200 240/08 RMK AO2 $
53144K9L2 9L220160329214510203/29/16 21:45:31  5-MIN K9L2 300545Z AUTO 26010KT 10SM CLR 08/M02 A2983 2390 47 2200 240/10 RMK AO2 $
53144K9L2 9L220160329215010203/29/16 21:50:31  5-MIN K9L2 300550Z AUTO 25011KT 10SM CLR 08/M02 A2983 2390 47 2200 240/11 RMK AO2 $
53144K9L2 9L220160329215513703/29/16 21:55:31  5-MIN K9L2 300555Z AUTO 25009KT 10SM CLR 08/M02 A2983 2380 47 2200 240/09 RMK AO2 SLP103 T00831022 10150 20083 53007 $
53144K9L2 9L220160329220010203/29/16 22:00:31  5-MIN K9L2 300600Z AUTO 24009KT 10SM CLR 08/M02 A2983 2380 47 2200 230/09 RMK AO2 $
53144K9L2 9L220160329220510203/29/16 22:05:31  5-MIN K9L2 300605Z AUTO 24007KT 10SM CLR 08/M03 A2984 2380 45 2200 230/07 RMK AO2 $
53144K9L2 9L220160329221010203/29/16 22:10:31  5-MIN K9L2 300610Z AUTO 25010KT 10SM CLR 08/M03 A2984 2380 47 2100 230/10 RMK AO2 $
53144K9L2 9L220160329221510203/29/16 22:15:31  5-MIN K9L2 300615Z AUTO 24008KT 10SM CLR 08/M03 A2984 2380 47 2100 230/08 RMK AO2 $
53144K9L2 9L220160329222010203/29/16 22:20:31  5-MIN K9L2 300620Z AUTO 23008KT 10SM CLR 08/M03 A2984 2380 47 2100 220/08 RMK AO2 $
53144K9L2 9L220160329222510203/29/16 22:25:31  5-MIN K9L2 300625Z AUTO 23008KT 10SM CLR 08/M03 A2984 2380 47 2100 210/08 RMK AO2 $
53144K9L2 9L220160329223010203/29/16 22:30:31  5-MIN K9L2 300630Z AUTO 23007KT 10SM CLR 07/M03 A2984 2380 49 2000 210/07 RMK AO2 $
53144K9L2 9L220160329223510203/29/16 22:35:31  5-MIN K9L2 300635Z AUTO 22007KT 10SM CLR 07/M03 A2984 2380 49 2000 210/07 RMK AO2 $
53144K9L2 9L220160329224010203/29/16 22:40:31  5-MIN K9L2 300640Z AUTO 22007KT 10SM CLR 07/M03 A2984 2380 49 2000 210/07 RMK AO2 $
53144K9L2 9L220160329224510203/29/16 22:45:31  5-MIN K9L2 300645Z AUTO 22006KT 10SM CLR 07/M03 A2984 2370 49 2000 210/06 RMK AO2 $
53144K9L2 9L220160329225010203/29/16 22:50:31  5-MIN K9L2 300650Z AUTO 21006KT 10SM CLR 07/M03 A2984 2370 49 2000 200/06 RMK AO2 $
53144K9L2 9L220160329225511903/29/16 22:55:31  5-MIN K9L2 300655Z AUTO 21007KT 10SM CLR 07/M03 A2984 2380 49 2000 200/07 RMK AO2 SLP106 T00721028 $
53144K9L2 9L220160329230010203/29/16 23:00:31  5-MIN K9L2 300700Z AUTO 21007KT 10SM CLR 07/M03 A2984 2370 47 2000 200/07 RMK AO2 $
53144K9L2 9L220160329230510203/29/16 23:05:31  5-MIN K9L2 300705Z AUTO 22007KT 10SM CLR 07/M03 A2984 2370 49 2000 210/07 RMK AO2 $
53144K9L2 9L220160329231010203/29/16 23:10:31  5-MIN K9L2 300710Z AUTO 23008KT 10SM CLR 07/M03 A2984 2370 49 2000 220/08 RMK AO2 $
53144K9L2 9L220160329231510203/29/16 23:15:31  5-MIN K9L2 300715Z AUTO 22007KT 10SM CLR 07/M03 A2984 2370 49 2000 200/07 RMK AO2 $
53144K9L2 9L220160329232010203/29/16 23:20:31  5-MIN K9L2 300720Z AUTO 22007KT 10SM CLR 07/M03 A2984 2370 49 2000 210/07 RMK AO2 $
53144K9L2 9L220160329232510203/29/16 23:25:31  5-MIN K9L2 300725Z AUTO 23009KT 10SM CLR 07/M03 A2984 2370 49 2000 210/09 RMK AO2 $
53144K9L2 9L220160329233010203/29/16 23:30:31  5-MIN K9L2 300730Z AUTO 23009KT 10SM CLR 07/M03 A2984 2380 49 2000 210/09 RMK AO2 $
53144K9L2 9L220160329233510203/29/16 23:35:31  5-MIN K9L2 300735Z AUTO 21007KT 10SM CLR 07/M03 A2984 2370 49 2000 200/07 RMK AO2 $
53144K9L2 9L220160329234010203/29/16 23:40:31  5-MIN K9L2 300740Z AUTO 21009KT 10SM CLR 06/M03 A2984 2380 53 1800 190/09 RMK AO2 $
53144K9L2 9L220160329234510203/29/16 23:45:31  5-MIN K9L2 300745Z AUTO 20008KT 10SM CLR 06/M03 A2984 2380 53 1800 190/08 RMK AO2 $
53144K9L2 9L220160329235010203/29/16 23:50:31  5-MIN K9L2 300750Z AUTO 20009KT 10SM CLR 06/M03 A2984 2380 53 1800 190/09 RMK AO2 $
53144K9L2 9L220160329235512903/29/16 23:55:31  5-MIN K9L2 300755Z AUTO 21009KT 10SM CLR 06/M03 A2984 2370 53 1800 190/09 RMK AO2 SLP108 T00561033 401610050 $
53144K9L2 9L220160330000010203/30/16 00:00:31  5-MIN K9L2 300800Z AUTO 20008KT 10SM CLR 05/M03 A2985 2370 55 1800 190/08 RMK AO2 $
53144K9L2 9L220160330000510203/30/16 00:05:31  5-MIN K9L2 300805Z AUTO 21008KT 10SM CLR 05/M03 A2985 2370 55 1800 200/08 RMK AO2 $
53144K9L2 9L220160330001010203/30/16 00:10:31  5-MIN K9L2 300810Z AUTO 21008KT 10SM CLR 05/M03 A2985 2370 55 1800 200/08 RMK AO2 $
53144K9L2 9L220160330001510203/30/16 00:15:31  5-MIN K9L2 300815Z AUTO 21008KT 10SM CLR 06/M03 A2985 2370 55 1800 200/08 RMK AO2 $
53144K9L2 9L220160330002010203/30/16 00:20:31  5-MIN K9L2 300820Z AUTO 21007KT 10SM CLR 05/M03 A2985 2370 57 1800 190/07 RMK AO2 $
53144K9L2 9L220160330002510203/30/16 00:25:31  5-MIN K9L2 300825Z AUTO 20010KT 10SM CLR 05/M03 A2985 2370 57 1800 190/10 RMK AO2 $
53144K9L2 9L220160330003010203/30/16 00:30:31  5-MIN K9L2 300830Z AUTO 22011KT 10SM CLR 05/M03 A2985 2370 55 1800 210/11 RMK AO2 $
53144K9L2 9L220160330003510203/30/16 00:35:31  5-MIN K9L2 300835Z AUTO 22009KT 10SM CLR 05/M03 A2985 2370 57 1800 210/09 RMK AO2 $
53144K9L2 9L220160330004010203/30/16 00:40:31  5-MIN K9L2 300840Z AUTO 20008KT 10SM CLR 05/M03 A2985 2370 57 1800 190/08 RMK AO2 $
53144K9L2 9L220160330004510203/30/16 00:45:31  5-MIN K9L2 300845Z AUTO 21008KT 10SM CLR 05/M03 A2985 2370 55 1800 190/08 RMK AO2 $
53144K9L2 9L220160330005010203/30/16 00:50:31  5-MIN K9L2 300850Z AUTO 22010KT 10SM CLR 05/M03 A2985 2370 55 1800 200/10 RMK AO2 $
53144K9L2 9L220160330005512503/30/16 00:55:31  5-MIN K9L2 300855Z AUTO 21008KT 10SM CLR 05/M03 A2985 2370 57 1800 200/08 RMK AO2 SLP108 T00501028 51013 $
53144K9L2 9L220160330010010203/30/16 01:00:31  5-MIN K9L2 300900Z AUTO 21007KT 10SM CLR 05/M03 A2985 2370 57 1800 200/07 RMK AO2 $
53144K9L2 9L220160330010510203/30/16 01:05:31  5-MIN K9L2 300905Z AUTO 20008KT 10SM CLR 04/M03 A2985 2370 59 1700 190/08 RMK AO2 $
53144K9L2 9L220160330011010203/30/16 01:10:31  5-MIN K9L2 300910Z AUTO 20009KT 10SM CLR 04/M03 A2985 2370 59 1700 190/09 RMK AO2 $
53144K9L2 9L220160330011510203/30/16 01:15:31  5-MIN K9L2 300915Z AUTO 22009KT 10SM CLR 05/M03 A2985 2370 57 1800 200/09 RMK AO2 $
53144K9L2 9L220160330012010203/30/16 01:20:31  5-MIN K9L2 300920Z AUTO 22008KT 10SM CLR 05/M03 A2985 2370 57 1800 210/08 RMK AO2 $
53144K9L2 9L220160330012510203/30/16 01:25:31  5-MIN K9L2 300925Z AUTO 22008KT 10SM CLR 05/M03 A2985 2370 57 1800 210/08 RMK AO2 $
53144K9L2 9L220160330013014403/30/16 01:30:31  5-MIN K9L2 300930Z AUTO 21006KT 10SM CLR 05/M03 A2985 2370 57 1800 200/06 RMK AO2 $03/30/16 01:35:31  5-MI SLP108 T00501022 $
53144K9L2 9L220160330025511903/30/16 02:55:31  5-MIN K9L2 301055Z AUTO 21006KT 10SM CLR 05/M02 A2985 2370 59 1800 200/06 RMK AO2 SLP108 T00501022 $
53144K9L2 9L220160330030010203/30/16 03:00:31  5-MIN K9L2 301100Z AUTO 20007KT 10SM CLR 05/M02 A2985 2370 59 1800 190/07 RMK AO2 $
53144K9L2 9L220160330030510203/30/16 03:05:31  5-MIN K9L2 301105Z AUTO 20007KT 10SM CLR 05/M02 A2985 2370 59 1800 190/07 RMK AO2 $
53144K9L2 9L220160330031010203/30/16 03:10:31  5-MIN K9L2 301110Z AUTO 20006KT 10SM CLR 04/M02 A2985 2370 62 1700 190/06 RMK AO2 $
53144K9L2 9L220160330031510203/30/16 03:15:31  5-MIN K9L2 301115Z AUTO 20006KT 10SM CLR 04/M02 A2985 2370 62 1700 180/06 RMK AO2 $
53144K9L2 9L220160330032010203/30/16 03:20:31  5-MIN K9L2 301120Z AUTO 20006KT 10SM CLR 04/M02 A2985 2360 62 1700 180/06 RMK AO2 $
53144K9L2 9L220160330032510203/30/16 03:25:31  5-MIN K9L2 301125Z AUTO 20005KT 10SM CLR 04/M02 A2985 2360 62 1700 190/05 RMK AO2 $
53144K9L2 9L220160330033010203/30/16 03:30:31  5-MIN K9L2 301130Z AUTO 21004KT 10SM CLR 04/M02 A2986 2360 64 1700 200/04 RMK AO2 $
53144K9L2 9L220160330033510203/30/16 03:35:31  5-MIN K9L2 301135Z AUTO 22003KT 10SM CLR 04/M02 A2986 2360 64 1700 210/03 RMK AO2 $
53144K9L2 9L220160330034010203/30/16 03:40:31  5-MIN K9L2 301140Z AUTO 00000KT 10SM CLR 04/M02 A2986 2360 64 1700 000/00 RMK AO2 $
53144K9L2 9L220160330034510203/30/16 03:45:31  5-MIN K9L2 301145Z AUTO 24005KT 10SM CLR 04/M02 A2986 2360 62 1700 230/05 RMK AO2 $
53144K9L2 9L220160330035010203/30/16 03:50:31  5-MIN K9L2 301150Z AUTO 27005KT 10SM CLR 04/M02 A2986 2360 62 1700 260/05 RMK AO2 $
53144K9L2 9L220160330035513703/30/16 03:55:31  5-MIN K9L2 301155Z AUTO 00000KT 10SM CLR 04/M02 A2986 2360 62 1700 000/00 RMK AO2 SLP115 T00441022 10083 20039 51005 $
53144K9L2 9L220160330040010203/30/16 04:00:31  5-MIN K9L2 301200Z AUTO 00000KT 10SM CLR 04/M02 A2986 2350 62 1700 000/00 RMK AO2 $
53144K9L2 9L220160330040510203/30/16 04:05:31  5-MIN K9L2 301205Z AUTO 27003KT 10SM CLR 04/M03 A2987 2350 59 1700 260/03 RMK AO2 $
53144K9L2 9L220160330041010203/30/16 04:10:31  5-MIN K9L2 301210Z AUTO 28003KT 10SM CLR 04/M03 A2987 2350 59 1700 270/03 RMK AO2 $
53144K9L2 9L220160330041510203/30/16 04:15:31  5-MIN K9L2 301215Z AUTO 00000KT 10SM CLR 04/M03 A2987 2350 62 1600 000/00 RMK AO2 $
53144K9L2 9L220160330042010203/30/16 04:20:31  5-MIN K9L2 301220Z AUTO 03003KT 10SM CLR 03/M03 A2987 2350 61 1500 020/03 RMK AO2 $
53144K9L2 9L220160330042510203/30/16 04:25:31  5-MIN K9L2 301225Z AUTO VRB04KT 10SM CLR 03/M03 A2987 2350 61 1500 VRB/04 RMK AO2 $
53144K9L2 9L220160330043010203/30/16 04:30:31  5-MIN K9L2 301230Z AUTO 03003KT 10SM CLR 03/M03 A2987 2350 64 1500 020/03 RMK AO2 $
53144K9L2 9L220160330043510203/30/16 04:35:31  5-MIN K9L2 301235Z AUTO 00000KT 10SM CLR 03/M03 A2987 2350 64 1500 000/00 RMK AO2 $
53144K9L2 9L220160330044010203/30/16 04:40:31  5-MIN K9L2 301240Z AUTO 00000KT 10SM CLR 03/M03 A2988 2340 64 1500 000/00 RMK AO2 $
53144K9L2 9L220160330044510203/30/16 04:45:31  5-MIN K9L2 301245Z AUTO 03003KT 10SM CLR 03/M03 A2988 2340 61 1500 020/03 RMK AO2 $
53144K9L2 9L220160330045010203/30/16 04:50:31  5-MIN K9L2 301250Z AUTO 00000KT 10SM CLR 03/M03 A2988 2340 64 1500 000/00 RMK AO2 $
53144K9L2 9L220160330045511903/30/16 04:55:31  5-MIN K9L2 301255Z AUTO 00000KT 10SM CLR 04/M02 A2988 2340 62 1700 000/00 RMK AO2 SLP121 T00441022 $
53144K9L2 9L220160330050010203/30/16 05:00:31  5-MIN K9L2 301300Z AUTO 00000KT 10SM CLR 05/M02 A2988 2340 59 1700 000/00 RMK AO2 $
53144K9L2 9L220160330050510203/30/16 05:05:31  5-MIN K9L2 301305Z AUTO 00000KT 10SM CLR 04/M02 A2988 2340 62 1700 000/00 RMK AO2 $
53144K9L2 9L220160330051010203/30/16 05:10:31  5-MIN K9L2 301310Z AUTO 00000KT 10SM CLR 05/M02 A2988 2340 59 1700 000/00 RMK AO2 $
53144K9L2 9L220160330051510203/30/16 05:15:31  5-MIN K9L2 301315Z AUTO 00000KT 10SM CLR 05/M02 A2988 2340 62 1700 000/00 RMK AO2 $
53144K9L2 9L220160330052010203/30/16 05:20:31  5-MIN K9L2 301320Z AUTO 00000KT 10SM CLR 04/M02 A2989 2330 64 1600 000/00 RMK AO2 $
53144K9L2 9L220160330052510203/30/16 05:25:31  5-MIN K9L2 301325Z AUTO 00000KT 10SM CLR 04/M02 A2989 2330 62 1700 000/00 RMK AO2 $
53144K9L2 9L220160330053010903/30/16 05:30:31  5-MIN K9L2 301330Z AUTO 02004KT 10SM CLR 02/M03 A2989 2330 67 1400 360/04 RMK AO2 FZRANO $
53144K9L2 9L220160330053510903/30/16 05:35:31  5-MIN K9L2 301335Z AUTO 03004KT 10SM CLR 02/M04 A2989 2330 66 1300 020/04 RMK AO2 FZRANO $
53144K9L2 9L220160330054010903/30/16 05:40:31  5-MIN K9L2 301340Z AUTO 02003KT 10SM CLR 02/M04 A2989 2330 66 1300 010/03 RMK AO2 FZRANO $
53144K9L2 9L220160330054510903/30/16 05:45:31  5-MIN K9L2 301345Z AUTO 03004KT 10SM CLR 02/M04 A2989 2330 66 1300 020/04 RMK AO2 FZRANO $
53144K9L2 9L220160330055010903/30/16 05:50:31  5-MIN K9L2 301350Z AUTO 03004KT 10SM CLR 02/M04 A2990 2330 66 1300 020/04 RMK AO2 FZRANO $
53144K9L2 9L220160330055512603/30/16 05:55:31  5-MIN K9L2 301355Z AUTO 04005KT 10SM CLR 01/M04 A2990 2320 69 1200 030/05 RMK AO2 SLP131 T00111039 FZRANO $
53144K9L2 9L220160330060010903/30/16 06:00:31  5-MIN K9L2 301400Z AUTO 03005KT 10SM CLR 02/M04 A2990 2320 66 1300 020/05 RMK AO2 FZRANO $
53144K9L2 9L220160330060510903/30/16 06:05:31  5-MIN K9L2 301405Z AUTO 05005KT 10SM CLR 02/M03 A2990 2320 69 1300 040/05 RMK AO2 FZRANO $
53144K9L2 9L220160330061010903/30/16 06:10:31  5-MIN K9L2 301410Z AUTO 06004KT 10SM CLR 02/M03 A2991 2320 69 1300 040/04 RMK AO2 FZRANO $
53144K9L2 9L220160330061510903/30/16 06:15:31  5-MIN K9L2 301415Z AUTO 04004KT 10SM CLR 02/M03 A2991 2320 67 1400 020/04 RMK AO2 FZRANO $
53144K9L2 9L220160330062010903/30/16 06:20:31  5-MIN K9L2 301420Z AUTO 00000KT 10SM CLR 02/M03 A2991 2310 67 1400 000/00 RMK AO2 FZRANO $
53144K9L2 9L220160330062510203/30/16 06:25:31  5-MIN K9L2 301425Z AUTO 07004KT 10SM CLR 03/M03 A2991 2310 64 1400 050/04 RMK AO2 $
53144K9L2 9L220160330063010203/30/16 06:30:31  5-MIN K9L2 301430Z AUTO 00000KT 10SM CLR 03/M03 A2991 2310 64 1400 000/00 RMK AO2 $
53144K9L2 9L220160330063510203/30/16 06:35:31  5-MIN K9L2 301435Z AUTO 06003KT 10SM CLR 03/M03 A2991 2310 64 1400 050/03 RMK AO2 $
53144K9L2 9L220160330064010203/30/16 06:40:31  5-MIN K9L2 301440Z AUTO 05003KT 10SM CLR 03/M03 A2991 2310 67 1400 040/03 RMK AO2 $
53144K9L2 9L220160330064510203/30/16 06:45:31  5-MIN K9L2 301445Z AUTO 05003KT 10SM CLR 03/M03 A2992 2310 67 1400 040/03 RMK AO2 $
53144K9L2 9L220160330065010203/30/16 06:50:31  5-MIN K9L2 301450Z AUTO 00000KT 10SM CLR 04/M03 A2992 2300 62 1600 000/00 RMK AO2 $
53144K9L2 9L220160330065512503/30/16 06:55:31  5-MIN K9L2 301455Z AUTO 00000KT 10SM CLR 04/M03 A2992 2300 62 1600 000/00 RMK AO2 SLP138 T00391028 53005 $
53144K9L2 9L220160330070010203/30/16 07:00:31  5-MIN K9L2 301500Z AUTO 12003KT 10SM CLR 04/M02 A2992 2300 64 1600 100/03 RMK AO2 $
53144K9L2 9L220160330070510203/30/16 07:05:31  5-MIN K9L2 301505Z AUTO 00000KT 10SM CLR 04/M02 A2992 2300 64 1600 000/00 RMK AO2 $
53144K9L2 9L220160330071010203/30/16 07:10:31  5-MIN K9L2 301510Z AUTO 00000KT 10SM CLR 04/M02 A2993 2300 62 1600 000/00 RMK AO2 $
53144K9L2 9L220160330071510203/30/16 07:15:31  5-MIN K9L2 301515Z AUTO 15003KT 10SM CLR 05/M02 A2992 2300 62 1700 130/03 RMK AO2 $
53144K9L2 9L220160330072010203/30/16 07:20:31  5-MIN K9L2 301520Z AUTO 17004KT 10SM CLR 05/M02 A2992 2300 62 1700 160/04 RMK AO2 $
53144K9L2 9L220160330072510203/30/16 07:25:31  5-MIN K9L2 301525Z AUTO 17005KT 10SM CLR 05/M01 A2992 2300 64 1700 160/05 RMK AO2 $
53144K9L2 9L220160330073010203/30/16 07:30:31  5-MIN K9L2 301530Z AUTO 18005KT 10SM CLR 06/M01 A2993 2300 62 1700 160/05 RMK AO2 $
53144K9L2 9L220160330073510203/30/16 07:35:31  5-MIN K9L2 301535Z AUTO 18004KT 10SM CLR 06/M01 A2993 2290 62 1700 170/04 RMK AO2 $
53144K9L2 9L220160330074010203/30/16 07:40:31  5-MIN K9L2 301540Z AUTO 18004KT 10SM CLR 06/M01 A2993 2290 62 1800 160/04 RMK AO2 $
53144K9L2 9L220160330074510203/30/16 07:45:31  5-MIN K9L2 301545Z AUTO 17005KT 10SM CLR 06/M01 A2993 2290 62 1800 150/05 RMK AO2 $
53144K9L2 9L220160330075010203/30/16 07:50:31  5-MIN K9L2 301550Z AUTO 17004KT 10SM CLR 07/M01 A2993 2290 60 1900 160/04 RMK AO2 $
53144K9L2 9L220160330075511903/30/16 07:55:31  5-MIN K9L2 301555Z AUTO 00000KT 10SM CLR 07/M01 A2993 2290 60 1900 000/00 RMK AO2 SLP142 T00671006 $
53144K9L2 9L220160330080010203/30/16 08:00:31  5-MIN K9L2 301600Z AUTO 00000KT 10SM CLR 07/M01 A2994 2290 60 1900 000/00 RMK AO2 $
53144K9L2 9L220160330080510203/30/16 08:05:31  5-MIN K9L2 301605Z AUTO 00000KT 10SM CLR 07/M01 A2994 2290 60 1900 000/00 RMK AO2 $
53144K9L2 9L220160330081010203/30/16 08:10:31  5-MIN K9L2 301610Z AUTO 00000KT 10SM CLR 07/M01 A2994 2290 57 1900 000/00 RMK AO2 $
53144K9L2 9L220160330081510203/30/16 08:15:31  5-MIN K9L2 301615Z AUTO 00000KT 10SM CLR 07/M01 A2994 2290 57 1900 000/00 RMK AO2 $
53144K9L2 9L220160330082010203/30/16 08:20:31  5-MIN K9L2 301620Z AUTO 00000KT 10SM CLR 08/M01 A2994 2290 55 2000 000/00 RMK AO2 $
53144K9L2 9L220160330082510203/30/16 08:25:31  5-MIN K9L2 301625Z AUTO 00000KT 10SM CLR 08/M01 A2994 2290 53 2100 000/00 RMK AO2 $
53144K9L2 9L220160330083010203/30/16 08:30:31  5-MIN K9L2 301630Z AUTO 00000KT 10SM CLR 08/M01 A2994 2290 53 2100 000/00 RMK AO2 $
53144K9L2 9L220160330083510203/30/16 08:35:31  5-MIN K9L2 301635Z AUTO 00000KT 10SM CLR 09/M01 A2994 2280 51 2100 000/00 RMK AO2 $
53144K9L2 9L220160330084010203/30/16 08:40:31  5-MIN K9L2 301640Z AUTO 00000KT 10SM CLR 09/M01 A2994 2280 49 2100 000/00 RMK AO2 $
53144K9L2 9L220160330084510203/30/16 08:45:31  5-MIN K9L2 301645Z AUTO 00000KT 10SM CLR 09/M01 A2994 2280 47 2200 000/00 RMK AO2 $
53144K9L2 9L220160330085010203/30/16 08:50:31  5-MIN K9L2 301650Z AUTO 16003KT 10SM CLR 09/M01 A2994 2280 47 2200 150/03 RMK AO2 $
53144K9L2 9L220160330085511903/30/16 08:55:31  5-MIN K9L2 301655Z AUTO 15003KT 10SM CLR 10/M02 A2995 2280 44 2300 140/03 RMK AO2 SLP143 T01001017 $
53144K9L2 9L220160330090010203/30/16 09:00:31  5-MIN K9L2 301700Z AUTO 14003KT 10SM CLR 10/M02 A2995 2280 44 2300 130/03 RMK AO2 $
53144K9L2 9L220160330090510203/30/16 09:05:31  5-MIN K9L2 301705Z AUTO 13003KT 10SM CLR 10/M02 A2995 2280 42 2300 120/03 RMK AO2 $
53144K9L2 9L220160330091010203/30/16 09:10:31  5-MIN K9L2 301710Z AUTO 14003KT 10SM CLR 10/M02 A2995 2280 42 2300 130/03 RMK AO2 $
53144K9L2 9L220160330091510203/30/16 09:15:31  5-MIN K9L2 301715Z AUTO 00000KT 10SM CLR 10/M02 A2995 2280 42 2300 000/00 RMK AO2 $
53144K9L2 9L220160330092010203/30/16 09:20:31  5-MIN K9L2 301720Z AUTO 15003KT 10SM CLR 10/M02 A2995 2270 42 2300 140/03 RMK AO2 $
53144K9L2 9L220160330092510203/30/16 09:25:31  5-MIN K9L2 301725Z AUTO 14003KT 10SM CLR 11/M03 A2995 2270 39 2300 130/03 RMK AO2 $
53144K9L2 9L220160330093010203/30/16 09:30:31  5-MIN K9L2 301730Z AUTO 00000KT 10SM CLR 11/M03 A2995 2270 39 2300 000/00 RMK AO2 $
53144K9L2 9L220160330093510203/30/16 09:35:31  5-MIN K9L2 301735Z AUTO 14004KT 10SM CLR 11/M03 A2995 2270 37 2400 130/04 RMK AO2 $
53144K9L2 9L220160330094010203/30/16 09:40:31  5-MIN K9L2 301740Z AUTO 18004KT 10SM CLR 11/M03 A2995 2270 37 2400 170/04 RMK AO2 $
53144K9L2 9L220160330094510203/30/16 09:45:31  5-MIN K9L2 301745Z AUTO 16003KT 10SM CLR 12/M03 A2995 2270 36 2400 150/03 RMK AO2 $
53144K9L2 9L220160330095010203/30/16 09:50:31  5-MIN K9L2 301750Z AUTO 00000KT 10SM CLR 12/M03 A2995 2270 36 2400 000/00 RMK AO2 $
53144K9L2 9L220160330095513703/30/16 09:55:31  5-MIN K9L2 301755Z AUTO 00000KT 10SM CLR 12/M03 A2995 2270 36 2400 000/00 RMK AO2 SLP145 T01171028 10117 20011 53018 $
53144K9L2 9L220160330100010203/30/16 10:00:31  5-MIN K9L2 301800Z AUTO 00000KT 10SM CLR 12/M03 A2995 2270 35 2500 000/00 RMK AO2 $
53144K9L2 9L220160330100510203/30/16 10:05:31  5-MIN K9L2 301805Z AUTO 00000KT 10SM CLR 12/M03 A2995 2270 35 2500 000/00 RMK AO2 $
53144K9L2 9L220160330101010203/30/16 10:10:31  5-MIN K9L2 301810Z AUTO 00000KT 10SM CLR 12/M03 A2995 2270 33 2500 000/00 RMK AO2 $
53144K9L2 9L220160330101510203/30/16 10:15:31  5-MIN K9L2 301815Z AUTO VRB03KT 10SM CLR 12/M03 A2995 2270 33 2500 VRB/03 RMK AO2 $
53144K9L2 9L220160330102010203/30/16 10:20:31  5-MIN K9L2 301820Z AUTO 00000KT 10SM CLR 13/M03 A2995 2270 31 2600 000/00 RMK AO2 $
53144K9L2 9L220160330102510203/30/16 10:25:31  5-MIN K9L2 301825Z AUTO 02004KT 10SM CLR 14/M04 A2995 2270 29 2700 010/04 RMK AO2 $
53144K9L2 9L220160330103010203/30/16 10:30:31  5-MIN K9L2 301830Z AUTO VRB03KT 10SM CLR 14/M04 A2995 2280 27 2700 VRB/03 RMK AO2 $
53144K9L2 9L220160330103510203/30/16 10:35:31  5-MIN K9L2 301835Z AUTO 00000KT 10SM CLR 14/M04 A2995 2280 27 2700 000/00 RMK AO2 $
53144K9L2 9L220160330104010203/30/16 10:40:31  5-MIN K9L2 301840Z AUTO VRB03KT 10SM CLR 14/M04 A2995 2280 28 2800 VRB/03 RMK AO2 $
53144K9L2 9L220160330104510203/30/16 10:45:31  5-MIN K9L2 301845Z AUTO 00000KT 10SM CLR 14/M04 A2995 2280 27 2700 000/00 RMK AO2 $
53144K9L2 9L220160330105010203/30/16 10:50:31  5-MIN K9L2 301850Z AUTO 13003KT 10SM CLR 14/M04 A2994 2280 27 2700 120/03 RMK AO2 $
53144K9L2 9L220160330105511903/30/16 10:55:31  5-MIN K9L2 301855Z AUTO 10005KT 10SM CLR 14/M04 A2994 2280 26 2800 080/05 RMK AO2 SLP140 T01441044 $
53144K9L2 9L220160330110010203/30/16 11:00:31  5-MIN K9L2 301900Z AUTO 00000KT 10SM CLR 14/M04 A2994 2280 29 2700 000/00 RMK AO2 $
53144K9L2 9L220160330110510203/30/16 11:05:31  5-MIN K9L2 301905Z AUTO VRB03KT 10SM CLR 14/M04 A2994 2280 28 2800 VRB/03 RMK AO2 $
53144K9L2 9L220160330111010203/30/16 11:10:31  5-MIN K9L2 301910Z AUTO 00000KT 10SM CLR 14/M04 A2994 2280 28 2800 000/00 RMK AO2 $
53144K9L2 9L220160330111510203/30/16 11:15:31  5-MIN K9L2 301915Z AUTO 11003KT 10SM CLR 15/M04 A2994 2280 25 2800 100/03 RMK AO2 $
53144K9L2 9L220160330112010203/30/16 11:20:31  5-MIN K9L2 301920Z AUTO VRB03KT 10SM CLR 14/M05 A2994 2280 25 2800 VRB/03 RMK AO2 $
53144K9L2 9L220160330112510203/30/16 11:25:31  5-MIN K9L2 301925Z AUTO VRB05KT 10SM CLR 15/M04 A2994 2290 25 2900 VRB/05 RMK AO2 $
53144K9L2 9L220160330113010203/30/16 11:30:31  5-MIN K9L2 301930Z AUTO VRB03KT 10SM CLR 16/M06 A2994 2290 23 2900 VRB/03 RMK AO2 $
53144K9L2 9L220160330113510203/30/16 11:35:31  5-MIN K9L2 301935Z AUTO VRB04KT 10SM CLR 16/M06 A2994 2290 23 2900 VRB/04 RMK AO2 $
53144K9L2 9L220160330114010203/30/16 11:40:31  5-MIN K9L2 301940Z AUTO 12003KT 10SM CLR 15/M06 A2994 2290 23 2900 110/03 RMK AO2 $
53144K9L2 9L220160330114510203/30/16 11:45:31  5-MIN K9L2 301945Z AUTO 17007KT 10SM CLR 15/M06 A2993 2290 22 2900 150/07 RMK AO2 $
53144K9L2 9L220160330115010203/30/16 11:50:31  5-MIN K9L2 301950Z AUTO 13005KT 10SM CLR 15/M07 A2993 2290 22 2900 120/05 RMK AO2 $
53144K9L2 9L220160330115512203/30/16 11:55:31  5-MIN K9L2 301955Z AUTO VRB03KT 10SM SCT090 16/M06 A2994 2290 22 2900 VRB/03 RMK AO2 SLP138 T01561061 $
53144K9L2 9L220160330120010503/30/16 12:00:31  5-MIN K9L2 302000Z AUTO VRB05KT 10SM BKN090 16/M06 A2993 2290 22 2900 VRB/05 RMK AO2 $
53144K9L2 9L220160330120510503/30/16 12:05:31  5-MIN K9L2 302005Z AUTO 20005KT 10SM BKN090 15/M07 A2993 2290 21 2900 190/05 RMK AO2 $
53144K9L2 9L220160330121010503/30/16 12:10:31  5-MIN K9L2 302010Z AUTO 12007KT 10SM BKN090 15/M07 A2993 2290 21 2900 100/07 RMK AO2 $
53144K9L2 9L220160330121510503/30/16 12:15:31  5-MIN K9L2 302015Z AUTO 17006KT 10SM OVC090 16/M07 A2993 2290 21 2900 160/06 RMK AO2 $
53144K9L2 9L220160330122010503/30/16 12:20:31  5-MIN K9L2 302020Z AUTO 18007KT 10SM OVC090 16/M07 A2993 2290 21 2900 170/07 RMK AO2 $
53144K9L2 9L220160330122510503/30/16 12:25:31  5-MIN K9L2 302025Z AUTO 17006KT 10SM OVC090 15/M07 A2993 2290 22 2900 160/06 RMK AO2 $
53144K9L2 9L220160330123010503/30/16 12:30:31  5-MIN K9L2 302030Z AUTO VRB03KT 10SM BKN090 15/M07 A2993 2290 21 2900 VRB/03 RMK AO2 $
53144K9L2 9L220160330123510503/30/16 12:35:31  5-MIN K9L2 302035Z AUTO 16006KT 10SM BKN090 15/M07 A2993 2300 21 2900 150/06 RMK AO2 $
53144K9L2 9L220160330124010503/30/16 12:40:31  5-MIN K9L2 302040Z AUTO 19004KT 10SM SCT090 16/M07 A2993 2300 21 2900 170/04 RMK AO2 $
53144K9L2 9L220160330124510503/30/16 12:45:31  5-MIN K9L2 302045Z AUTO VRB04KT 10SM SCT090 16/M07 A2992 2300 20 2900 VRB/04 RMK AO2 $
53144K9L2 9L220160330125010503/30/16 12:50:31  5-MIN K9L2 302050Z AUTO 15003KT 10SM FEW085 16/M07 A2992 2300 20 2900 140/03 RMK AO2 $
53144K9L2 9L220160330125512803/30/16 12:55:31  5-MIN K9L2 302055Z AUTO 14006KT 10SM FEW070 16/M07 A2992 2300 21 2900 130/06 RMK AO2 SLP134 T01561067 51010 $
53144K9L2 9L220160330130010503/30/16 13:00:31  5-MIN K9L2 302100Z AUTO VRB04KT 10SM FEW070 16/M07 A2992 2300 21 2900 VRB/04 RMK AO2 $
53144K9L2 9L220160330130510503/30/16 13:05:31  5-MIN K9L2 302105Z AUTO 18005KT 10SM FEW075 16/M07 A2992 2300 20 2900 160/05 RMK AO2 $
53144K9L2 9L220160330131010503/30/16 13:10:31  5-MIN K9L2 302110Z AUTO 00000KT 10SM SCT075 15/M07 A2992 2300 21 2900 000/00 RMK AO2 $
53144K9L2 9L220160330131510503/30/16 13:15:31  5-MIN K9L2 302115Z AUTO 13004KT 10SM BKN075 16/M07 A2992 2310 20 2900 120/04 RMK AO2 $
53144K9L2 9L220160330132010503/30/16 13:20:31  5-MIN K9L2 302120Z AUTO 00000KT 10SM BKN075 16/M07 A2991 2310 20 2900 000/00 RMK AO2 $
53144K9L2 9L220160330132510503/30/16 13:25:31  5-MIN K9L2 302125Z AUTO 00000KT 10SM BKN070 15/M07 A2991 2310 21 2900 000/00 RMK AO2 $
53144K9L2 9L220160330133010503/30/16 13:30:31  5-MIN K9L2 302130Z AUTO 00000KT 10SM BKN075 16/M07 A2991 2310 20 3000 000/00 RMK AO2 $
53144K9L2 9L220160330133510503/30/16 13:35:31  5-MIN K9L2 302135Z AUTO 17004KT 10SM BKN070 16/M07 A2991 2310 20 3000 150/04 RMK AO2 $
53144K9L2 9L220160330134010503/30/16 13:40:31  5-MIN K9L2 302140Z AUTO VRB03KT 10SM BKN070 16/M07 A2991 2310 20 3000 VRB/03 RMK AO2 $
53144K9L2 9L220160330134511203/30/16 13:45:31  5-MIN K9L2 302145Z AUTO 30008KT 10SM SCT065 BKN075 16/M08 A2991 2310 19 3000 290/08 RMK AO2 $
53144K9L2 9L220160330135010503/30/16 13:50:31  5-MIN K9L2 302150Z AUTO 26003KT 10SM BKN070 16/M08 A2991 2320 19 3000 250/03 RMK AO2 $
53144K9L2 9L220160330135512203/30/16 13:55:31  5-MIN K9L2 302155Z AUTO VRB04KT 10SM BKN070 16/M07 A2990 2320 20 3000 VRB/04 RMK AO2 SLP128 T01561072 $
53144K9L2 9L220160330140010503/30/16 14:00:31  5-MIN K9L2 302200Z AUTO 19006KT 10SM BKN065 16/M07 A2991 2320 20 3000 180/06 RMK AO2 $
53144K9L2 9L220160330140511203/30/16 14:05:31  5-MIN K9L2 302205Z AUTO 19004KT 10SM BKN065 BKN080 16/M07 A2991 2320 19 3000 180/04 RMK AO2 $
53144K9L2 9L220160330141011203/30/16 14:10:31  5-MIN K9L2 302210Z AUTO 19003KT 10SM BKN065 OVC085 16/M07 A2991 2320 19 3000 180/03 RMK AO2 $
53144K9L2 9L220160330141511203/30/16 14:15:31  5-MIN K9L2 302215Z AUTO 23005KT 10SM BKN070 OVC085 17/M08 A2990 2320 18 3100 220/05 RMK AO2 $
53144K9L2 9L220160330142011203/30/16 14:20:31  5-MIN K9L2 302220Z AUTO 21005KT 10SM BKN070 OVC080 17/M08 A2990 2320 18 3100 190/05 RMK AO2 $
53144K9L2 9L220160330142510503/30/16 14:25:31  5-MIN K9L2 302225Z AUTO 23006KT 10SM OVC070 17/M08 A2990 2320 18 3100 220/06 RMK AO2 $
53144K9L2 9L220160330143011203/30/16 14:30:31  5-MIN K9L2 302230Z AUTO 22005KT 10SM BKN070 OVC085 17/M08 A2990 2320 18 3100 210/05 RMK AO2 $
53144K9L2 9L220160330143511203/30/16 14:35:31  5-MIN K9L2 302235Z AUTO VRB04KT 10SM BKN070 OVC085 17/M08 A2990 2320 18 3100 VRB/04 RMK AO2 $
53144K9L2 9L220160330144010503/30/16 14:40:31  5-MIN K9L2 302240Z AUTO 22008KT 10SM OVC070 17/M08 A2990 2330 17 3200 210/08 RMK AO2 $
53144K9L2 9L220160330144512103/30/16 14:45:31  5-MIN K9L2 302245Z AUTO 29009KT 250V320 10SM OVC070 17/M08 A2990 2320 17 3200 270/09 240V310 RMK AO2 $
53144K9L2 9L220160330145011203/30/16 14:50:31  5-MIN K9L2 302250Z AUTO 32007KT 10SM BKN070 OVC085 17/M08 A2990 2320 17 3200 300/07 RMK AO2 $
53144K9L2 9L220160330145512903/30/16 14:55:31  5-MIN K9L2 302255Z AUTO VRB03KT 10SM BKN070 OVC090 17/M08 A2990 2320 18 3100 VRB/03 RMK AO2 SLP125 T01671078 $
53144K9L2 9L220160330150011203/30/16 15:00:31  5-MIN K9L2 302300Z AUTO 33004KT 10SM BKN070 OVC085 17/M08 A2990 2320 18 3100 320/04 RMK AO2 $
53144K9L2 9L220160330150511203/30/16 15:05:31  5-MIN K9L2 302305Z AUTO VRB04KT 10SM BKN070 OVC085 17/M08 A2990 2320 18 3100 VRB/04 RMK AO2 $
53144K9L2 9L220160330151011203/30/16 15:10:31  5-MIN K9L2 302310Z AUTO 19003KT 10SM BKN070 OVC085 17/M07 A2990 2320 18 3200 180/03 RMK AO2 $
53144K9L2 9L220160330151511203/30/16 15:15:31  5-MIN K9L2 302315Z AUTO 00000KT 10SM BKN070 OVC085 16/M08 A2990 2320 18 3000 000/00 RMK AO2 $
53144K9L2 9L220160330152010503/30/16 15:20:31  5-MIN K9L2 302320Z AUTO 29008KT 10SM OVC070 17/M07 A2990 2320 19 3100 270/08 RMK AO2 $
53144K9L2 9L220160330152510503/30/16 15:25:31  5-MIN K9L2 302325Z AUTO 27009KT 10SM OVC065 18/M07 A2990 2320 18 3200 260/09 RMK AO2 $
53144K9L2 9L220160330153010503/30/16 15:30:31  5-MIN K9L2 302330Z AUTO 00000KT 10SM OVC070 17/M07 A2989 2330 18 3200 000/00 RMK AO2 $
53144K9L2 9L220160330153510503/30/16 15:35:31  5-MIN K9L2 302335Z AUTO 26009KT 10SM BKN070 18/M07 A2990 2330 18 3200 250/09 RMK AO2 $
53144K9L2 9L220160330154011203/30/16 15:40:31  5-MIN K9L2 302340Z AUTO 26008KT 10SM BKN070 BKN085 17/M07 A2990 2320 19 3100 240/08 RMK AO2 $
53144K9L2 9L220160330154511203/30/16 15:45:31  5-MIN K9L2 302345Z AUTO 25011KT 10SM SCT070 BKN080 17/M07 A2990 2320 19 3100 240/11 RMK AO2 $
53144K9L2 9L220160330155011203/30/16 15:50:31  5-MIN K9L2 302350Z AUTO 25007KT 10SM FEW065 BKN080 17/M07 A2990 2320 19 3100 240/07 RMK AO2 $
53144K9L2 9L220160330155514003/30/16 15:55:31  5-MIN K9L2 302355Z AUTO 27009KT 10SM BKN080 16/M07 A2990 2320 20 3000 260/09 RMK AO2 SLP127 T01611067 10178 20122 58010 $
53144K9L2 9L220160330160011203/30/16 16:00:31  5-MIN K9L2 310000Z AUTO 23007KT 10SM FEW065 BKN080 16/M07 A2990 2320 20 3000 220/07 RMK AO2 $
53144K9L2 9L220160330160511203/30/16 16:05:31  5-MIN K9L2 310005Z AUTO 25007KT 10SM FEW065 OVC080 17/M06 A2991 2320 20 3100 230/07 RMK AO2 $
53144K9L2 9L220160330161011203/30/16 16:10:31  5-MIN K9L2 310010Z AUTO 00000KT 10SM FEW065 OVC080 16/M06 A2991 2320 21 3000 000/00 RMK AO2 $
53144K9L2 9L220160330161510503/30/16 16:15:31  5-MIN K9L2 310015Z AUTO 30004KT 10SM OVC075 16/M06 A2991 2310 21 3000 290/04 RMK AO2 $
53144K9L2 9L220160330162010503/30/16 16:20:31  5-MIN K9L2 310020Z AUTO 30005KT 10SM OVC070 16/M07 A2991 2320 20 3000 280/05 RMK AO2 $
53144K9L2 9L220160330162511203/30/16 16:25:31  5-MIN K9L2 310025Z AUTO 25006KT 10SM BKN070 OVC080 16/M07 A2991 2320 20 3000 240/06 RMK AO2 $
53144K9L2 9L220160330163011203/30/16 16:30:31  5-MIN K9L2 310030Z AUTO 29008KT 10SM BKN070 OVC080 16/M06 A2991 2310 22 3000 270/08 RMK AO2 $
53144K9L2 9L220160330163511803/30/16 16:35:31  5-MIN K9L2 310035Z AUTO 31011G17KT 10SM BKN070 OVC080 16/M05 A2991 2310 23 3000 290/11G17 RMK AO2 $
53144K9L2 9L220160330164011103/30/16 16:40:31  5-MIN K9L2 310040Z AUTO 33013G19KT 10SM OVC065 15/M02 A2991 2310 30 2900 320/13G19 RMK AO2 $
53144K9L2 9L220160330164512903/30/16 16:45:31  5-MIN K9L2 310045Z AUTO 33015G21KT 10SM BKN065 OVC080 15/M02 A2991 2310 31 2900 320/15G21 RMK AO2 WSHFT 0031 $
53144K9L2 9L220160330165012903/30/16 16:50:31  5-MIN K9L2 310050Z AUTO 32014G21KT 10SM BKN065 BKN080 15/M02 A2992 2310 30 2900 310/14G21 RMK AO2 WSHFT 0031 $
53144K9L2 9L220160330165513903/30/16 16:55:31  5-MIN K9L2 310055Z AUTO 32013G19KT 10SM SCT065 15/M03 A2992 2300 29 2900 310/13G19 RMK AO2 WSHFT 0031 SLP134 T01501028 $
53144K9L2 9L220160330170010503/30/16 17:00:31  5-MIN K9L2 310100Z AUTO 32013KT 10SM SCT065 16/M03 A2992 2300 28 2900 310/13 RMK AO2 $
53144K9L2 9L220160330170510503/30/16 17:05:31  5-MIN K9L2 310105Z AUTO 32012KT 10SM FEW065 16/M03 A2992 2300 28 2900 310/12 RMK AO2 $
53144K9L2 9L220160330171010503/30/16 17:10:31  5-MIN K9L2 310110Z AUTO 33012KT 10SM FEW060 15/M03 A2992 2300 29 2900 310/12 RMK AO2 $
53144K9L2 9L220160330171510203/30/16 17:15:31  5-MIN K9L2 310115Z AUTO 32013KT 10SM CLR 15/M03 A2993 2300 29 2900 310/13 RMK AO2 $
53144K9L2 9L220160330172010203/30/16 17:20:31  5-MIN K9L2 310120Z AUTO 34012KT 10SM CLR 15/M02 A2993 2300 30 2900 330/12 RMK AO2 $
53144K9L2 9L220160330172510203/30/16 17:25:31  5-MIN K9L2 310125Z AUTO 33012KT 10SM CLR 15/M02 A2993 2290 30 2900 310/12 RMK AO2 $
53144K9L2 9L220160330173010203/30/16 17:30:31  5-MIN K9L2 310130Z AUTO 34012KT 10SM CLR 15/M02 A2993 2290 30 2900 330/12 RMK AO2 $
53144K9L2 9L220160330173510203/30/16 17:35:31  5-MIN K9L2 310135Z AUTO 33009KT 10SM CLR 15/M03 A2993 2290 29 2900 320/09 RMK AO2 $
53144K9L2 9L220160330174010203/30/16 17:40:31  5-MIN K9L2 310140Z AUTO 34009KT 10SM CLR 15/M03 A2993 2290 29 2900 320/09 RMK AO2 $
53144K9L2 9L220160330174510503/30/16 17:45:31  5-MIN K9L2 310145Z AUTO 33009KT 10SM FEW085 15/M03 A2993 2290 29 2900 320/09 RMK AO2 $
53144K9L2 9L220160330175010503/30/16 17:50:31  5-MIN K9L2 310150Z AUTO 32008KT 10SM FEW085 14/M03 A2993 2290 30 2800 310/08 RMK AO2 $
53144K9L2 9L220160330175512203/30/16 17:55:31  5-MIN K9L2 310155Z AUTO 32008KT 10SM FEW080 14/M03 A2993 2290 30 2800 310/08 RMK AO2 SLP141 T01441028 $
53144K9L2 9L220160330180010503/30/16 18:00:31  5-MIN K9L2 310200Z AUTO 32008KT 10SM FEW085 14/M03 A2993 2290 30 2800 310/08 RMK AO2 $
53144K9L2 9L220160330180510503/30/16 18:05:31  5-MIN K9L2 310205Z AUTO 33007KT 10SM FEW085 14/M03 A2993 2290 31 2700 320/07 RMK AO2 $
53144K9L2 9L220160330181010503/30/16 18:10:31  5-MIN K9L2 310210Z AUTO 33006KT 10SM FEW085 14/M03 A2994 2290 31 2700 320/06 RMK AO2 $
53144K9L2 9L220160330181510503/30/16 18:15:31  5-MIN K9L2 310215Z AUTO 33006KT 10SM FEW080 13/M03 A2994 2290 32 2700 310/06 RMK AO2 $
53144K9L2 9L220160330182010203/30/16 18:20:31  5-MIN K9L2 310220Z AUTO 33007KT 10SM CLR 13/M03 A2994 2290 32 2700 310/07 RMK AO2 $
53144K9L2 9L220160330182510203/30/16 18:25:31  5-MIN K9L2 310225Z AUTO 33007KT 10SM CLR 13/M03 A2994 2290 32 2700 310/07 RMK AO2 $
53144K9L2 9L220160330183010203/30/16 18:30:31  5-MIN K9L2 310230Z AUTO 32007KT 10SM CLR 13/M03 A2994 2280 31 2700 310/07 RMK AO2 $
53144K9L2 9L220160330183510203/30/16 18:35:31  5-MIN K9L2 310235Z AUTO 32008KT 10SM CLR 13/M03 A2994 2280 31 2700 310/08 RMK AO2 $
53144K9L2 9L220160330184010203/30/16 18:40:31  5-MIN K9L2 310240Z AUTO 32006KT 10SM CLR 13/M03 A2994 2280 32 2700 310/06 RMK AO2 $
53144K9L2 9L220160330184510203/30/16 18:45:31  5-MIN K9L2 310245Z AUTO 32006KT 10SM CLR 13/M03 A2994 2280 33 2600 310/06 RMK AO2 $
53144K9L2 9L220160330185010203/30/16 18:50:31  5-MIN K9L2 310250Z AUTO 33005KT 10SM CLR 12/M03 A2995 2280 33 2500 310/05 RMK AO2 $
53144K9L2 9L220160330185512503/30/16 18:55:31  5-MIN K9L2 310255Z AUTO 32005KT 10SM CLR 12/M03 A2995 2280 35 2500 310/05 RMK AO2 SLP146 T01221028 55005 $
53144K9L2 9L220160330190010203/30/16 19:00:31  5-MIN K9L2 310300Z AUTO 33006KT 10SM CLR 12/M03 A2995 2280 36 2500 310/06 RMK AO2 $
53144K9L2 9L220160330190510203/30/16 19:05:31  5-MIN K9L2 310305Z AUTO 32006KT 10SM CLR 12/M03 A2995 2280 35 2500 310/06 RMK AO2 $
53144K9L2 9L220160330191010203/30/16 19:10:31  5-MIN K9L2 310310Z AUTO 33006KT 10SM CLR 12/M03 A2995 2270 36 2400 310/06 RMK AO2 $
53144K9L2 9L220160330191510203/30/16 19:15:31  5-MIN K9L2 310315Z AUTO 32006KT 10SM CLR 12/M03 A2996 2270 36 2400 310/06 RMK AO2 $
53144K9L2 9L220160330192010203/30/16 19:20:31  5-MIN K9L2 310320Z AUTO 32005KT 10SM CLR 12/M03 A2996 2270 36 2400 310/05 RMK AO2 $
53144K9L2 9L220160330192510203/30/16 19:25:31  5-MIN K9L2 310325Z AUTO 32005KT 10SM CLR 12/M03 A2996 2270 36 2400 310/05 RMK AO2 $
53144K9L2 9L220160330193010203/30/16 19:30:31  5-MIN K9L2 310330Z AUTO 32005KT 10SM CLR 12/M03 A2996 2270 35 2400 300/05 RMK AO2 $
53144K9L2 9L220160330193510203/30/16 19:35:31  5-MIN K9L2 310335Z AUTO 32006KT 10SM CLR 12/M03 A2996 2270 35 2400 310/06 RMK AO2 $
53144K9L2 9L220160330194010203/30/16 19:40:31  5-MIN K9L2 310340Z AUTO 32006KT 10SM CLR 12/M03 A2996 2260 35 2400 310/06 RMK AO2 $
53144K9L2 9L220160330194510203/30/16 19:45:31  5-MIN K9L2 310345Z AUTO 31007KT 10SM CLR 12/M03 A2996 2260 35 2400 300/07 RMK AO2 $
53144K9L2 9L220160330195010203/30/16 19:50:31  5-MIN K9L2 310350Z AUTO 31007KT 10SM CLR 12/M03 A2997 2260 35 2400 300/07 RMK AO2 $
53144K9L2 9L220160330195511903/30/16 19:55:31  5-MIN K9L2 310355Z AUTO 31007KT 10SM CLR 12/M03 A2997 2260 35 2400 300/07 RMK AO2 SLP152 T01171033 $
53144K9L2 9L220160330200010203/30/16 20:00:31  5-MIN K9L2 310400Z AUTO 32006KT 10SM CLR 11/M03 A2997 2250 36 2400 300/06 RMK AO2 $
53144K9L2 9L220160330200510203/30/16 20:05:31  5-MIN K9L2 310405Z AUTO 32007KT 10SM CLR 11/M03 A2997 2250 36 2400 310/07 RMK AO2 $
53144K9L2 9L220160330201010203/30/16 20:10:31  5-MIN K9L2 310410Z AUTO 31007KT 10SM CLR 11/M03 A2997 2250 36 2400 300/07 RMK AO2 $
53144K9L2 9L220160330201510203/30/16 20:15:31  5-MIN K9L2 310415Z AUTO 31006KT 10SM CLR 11/M03 A2998 2250 36 2400 300/06 RMK AO2 $
53144K9L2 9L220160330202010203/30/16 20:20:31  5-MIN K9L2 310420Z AUTO 32006KT 10SM CLR 11/M03 A2998 2250 37 2300 310/06 RMK AO2 $
53144K9L2 9L220160330202510203/30/16 20:25:31  5-MIN K9L2 310425Z AUTO 32006KT 10SM CLR 10/M03 A2998 2250 39 2200 310/06 RMK AO2 $
53144K9L2 9L220160330203010203/30/16 20:30:31  5-MIN K9L2 310430Z AUTO 33006KT 10SM CLR 10/M03 A2998 2250 40 2200 320/06 RMK AO2 $
53144K9L2 9L220160330203510203/30/16 20:35:31  5-MIN K9L2 310435Z AUTO 33008KT 10SM CLR 11/M03 A2998 2250 39 2300 320/08 RMK AO2 $
53144K9L2 9L220160330204010203/30/16 20:40:31  5-MIN K9L2 310440Z AUTO 33008KT 10SM CLR 11/M02 A2998 2240 39 2300 320/08 RMK AO2 $
53144K9L2 9L220160330204510203/30/16 20:45:31  5-MIN K9L2 310445Z AUTO 32007KT 10SM CLR 11/M02 A2999 2240 39 2300 300/07 RMK AO2 $
53144K9L2 9L220160330205010203/30/16 20:50:31  5-MIN K9L2 310450Z AUTO 30005KT 10SM CLR 11/M02 A2999 2240 40 2300 290/05 RMK AO2 $
53144K9L2 9L220160330205511903/30/16 20:55:31  5-MIN K9L2 310455Z AUTO 30006KT 10SM CLR 10/M03 A2999 2240 40 2200 280/06 RMK AO2 SLP158 T01001028 $
53144K9L2 9L220160330210010203/30/16 21:00:31  5-MIN K9L2 310500Z AUTO 30005KT 10SM CLR 10/M03 A2999 2240 40 2200 290/05 RMK AO2 $
53144K9L2 9L220160330210510203/30/16 21:05:31  5-MIN K9L2 310505Z AUTO 32006KT 10SM CLR 09/M03 A2999 2240 42 2100 300/06 RMK AO2 $
53144K9L2 9L220160330211010203/30/16 21:10:31  5-MIN K9L2 310510Z AUTO 33007KT 10SM CLR 11/M02 A2999 2240 40 2300 320/07 RMK AO2 $
53144K9L2 9L220160330211510203/30/16 21:15:31  5-MIN K9L2 310515Z AUTO 33009KT 10SM CLR 11/M02 A2999 2230 39 2300 320/09 RMK AO2 $
53144K9L2 9L220160330212010203/30/16 21:20:31  5-MIN K9L2 310520Z AUTO 33008KT 10SM CLR 11/M02 A2999 2230 39 2300 320/08 RMK AO2 $
53144K9L2 9L220160330212510203/30/16 21:25:31  5-MIN K9L2 310525Z AUTO 33008KT 10SM CLR 11/M02 A2999 2230 40 2300 320/08 RMK AO2 $
53144K9L2 9L220160330213010203/30/16 21:30:31  5-MIN K9L2 310530Z AUTO 34008KT 10SM CLR 11/M02 A2999 2240 40 2300 320/08 RMK AO2 $
53144K9L2 9L220160330213510203/30/16 21:35:31  5-MIN K9L2 310535Z AUTO 33007KT 10SM CLR 11/M02 A2999 2240 42 2300 320/07 RMK AO2 $
53144K9L2 9L220160330214010203/30/16 21:40:31  5-MIN K9L2 310540Z AUTO 33006KT 10SM CLR 11/M02 A2999 2240 42 2300 320/06 RMK AO2 $
53144K9L2 9L220160330214510203/30/16 21:45:31  5-MIN K9L2 310545Z AUTO 32005KT 10SM CLR 10/M02 A2999 2240 42 2200 310/05 RMK AO2 $
53144K9L2 9L220160330215010203/30/16 21:50:31  5-MIN K9L2 310550Z AUTO 31004KT 10SM CLR 10/M02 A2999 2240 42 2200 300/04 RMK AO2 $
53144K9L2 9L220160330215513703/30/16 21:55:31  5-MIN K9L2 310555Z AUTO 32004KT 10SM CLR 08/M03 A2999 2240 43 2000 310/04 RMK AO2 SLP159 T00831033 10167 20083 53014 $
53144K9L2 9L220160330220010203/30/16 22:00:31  5-MIN K9L2 310600Z AUTO 32005KT 10SM CLR 08/M03 A2999 2230 45 2000 310/05 RMK AO2 $
53144K9L2 9L220160330220510203/30/16 22:05:31  5-MIN K9L2 310605Z AUTO 34006KT 10SM CLR 10/M02 A3000 2230 42 2200 320/06 RMK AO2 $
53144K9L2 9L220160330221010203/30/16 22:10:31  5-MIN K9L2 310610Z AUTO 34007KT 10SM CLR 10/M02 A3000 2230 42 2200 330/07 RMK AO2 $
53144K9L2 9L220160330221510203/30/16 22:15:31  5-MIN K9L2 310615Z AUTO 34007KT 10SM CLR 10/M02 A3000 2230 42 2200 330/07 RMK AO2 $
53144K9L2 9L220160330222010203/30/16 22:20:31  5-MIN K9L2 310620Z AUTO 35006KT 10SM CLR 10/M02 A3000 2230 42 2200 330/06 RMK AO2 $
53144K9L2 9L220160330222510203/30/16 22:25:31  5-MIN K9L2 310625Z AUTO 33003KT 10SM CLR 10/M02 A3000 2230 42 2200 310/03 RMK AO2 $
53144K9L2 9L220160330223010203/30/16 22:30:31  5-MIN K9L2 310630Z AUTO 19005KT 10SM CLR 09/M03 A3001 2220 43 2100 180/05 RMK AO2 $
53144K9L2 9L220160330223510503/30/16 22:35:31  5-MIN K9L2 310635Z AUTO 21004KT 10SM FEW095 08/M03 A3001 2220 43 2000 200/04 RMK AO2 $
53144K9L2 9L220160330224010503/30/16 22:40:31  5-MIN K9L2 310640Z AUTO 21006KT 10SM SCT090 08/M03 A3001 2220 43 2000 200/06 RMK AO2 $
53144K9L2 9L220160330224510503/30/16 22:45:31  5-MIN K9L2 310645Z AUTO 21006KT 10SM BKN095 09/M03 A3001 2220 43 2100 200/06 RMK AO2 $
53144K9L2 9L220160330225010503/30/16 22:50:31  5-MIN K9L2 310650Z AUTO VRB03KT 10SM BKN095 09/M03 A3001 2220 42 2100 VRB/03 RMK AO2 $
53144K9L2 9L220160330225512203/30/16 22:55:31  5-MIN K9L2 310655Z AUTO 28004KT 10SM BKN090 11/M02 A3001 2220 40 2300 270/04 RMK AO2 SLP161 T01061022 $
53144K9L2 9L220160330230010503/30/16 23:00:31  5-MIN K9L2 310700Z AUTO 00000KT 10SM BKN090 11/M02 A3001 2220 39 2300 000/00 RMK AO2 $
53144K9L2 9L220160330230510503/30/16 23:05:31  5-MIN K9L2 310705Z AUTO VRB03KT 10SM SCT090 11/M02 A3001 2220 39 2300 VRB/03 RMK AO2 $
53144K9L2 9L220160330231010503/30/16 23:10:31  5-MIN K9L2 310710Z AUTO VRB03KT 10SM SCT095 12/M02 A3001 2220 38 2400 VRB/03 RMK AO2 $
53144K9L2 9L220160330231510503/30/16 23:15:31  5-MIN K9L2 310715Z AUTO 00000KT 10SM SCT095 12/M02 A3001 2220 38 2400 000/00 RMK AO2 $
53144K9L2 9L220160330232010503/30/16 23:20:31  5-MIN K9L2 310720Z AUTO 21004KT 10SM BKN095 09/M03 A3001 2220 40 2100 190/04 RMK AO2 $
53144K9L2 9L220160330232510503/30/16 23:25:31  5-MIN K9L2 310725Z AUTO 21005KT 10SM BKN095 09/M03 A3001 2220 42 2000 190/05 RMK AO2 $
53144K9L2 9L220160330233010503/30/16 23:30:31  5-MIN K9L2 310730Z AUTO 22004KT 10SM BKN095 08/M03 A3001 2220 43 2000 200/04 RMK AO2 $
53144K9L2 9L220160330233510503/30/16 23:35:31  5-MIN K9L2 310735Z AUTO 20003KT 10SM BKN095 08/M03 A3001 2220 43 2000 190/03 RMK AO2 $
53144K9L2 9L220160330234010503/30/16 23:40:31  5-MIN K9L2 310740Z AUTO 00000KT 10SM SCT095 08/M04 A3001 2220 43 1900 000/00 RMK AO2 $
53144K9L2 9L220160330234510503/30/16 23:45:31  5-MIN K9L2 310745Z AUTO 00000KT 10SM SCT095 08/M04 A3001 2220 43 1900 000/00 RMK AO2 $
53144K9L2 9L220160330235010503/30/16 23:50:31  5-MIN K9L2 310750Z AUTO 00000KT 10SM FEW095 08/M04 A3001 2220 43 1900 000/00 RMK AO2 $
53144K9L2 9L220160330235513203/30/16 23:55:31  5-MIN K9L2 310755Z AUTO 00000KT 10SM FEW095 08/M04 A3001 2220 43 1900 000/00 RMK AO2 SLP164 T00781039 401780011 $
53144K9L2 9L220160331000010203/31/16 00:00:31  5-MIN K9L2 310800Z AUTO 00000KT 10SM CLR 07/M04 A3001 2220 45 1800 000/00 RMK AO2 $
53144K9L2 9L220160331000510203/31/16 00:05:31  5-MIN K9L2 310805Z AUTO 00000KT 10SM CLR 07/M04 A3002 2220 45 1800 000/00 RMK AO2 $
53144K9L2 9L220160331001010203/31/16 00:10:31  5-MIN K9L2 310810Z AUTO 00000KT 10SM CLR 07/M04 A3002 2210 47 1800 000/00 RMK AO2 $
53144K9L2 9L220160331001510203/31/16 00:15:31  5-MIN K9L2 310815Z AUTO 00000KT 10SM CLR 07/M04 A3002 2210 45 1800 000/00 RMK AO2 $
53144K9L2 9L220160331002010203/31/16 00:20:31  5-MIN K9L2 310820Z AUTO 19003KT 10SM CLR 06/M04 A3002 2210 46 1700 170/03 RMK AO2 $
53144K9L2 9L220160331002510203/31/16 00:25:31  5-MIN K9L2 310825Z AUTO 00000KT 10SM CLR 06/M04 A3002 2210 46 1700 000/00 RMK AO2 $
53144K9L2 9L220160331003010203/31/16 00:30:31  5-MIN K9L2 310830Z AUTO 21004KT 10SM CLR 07/M04 A3002 2210 45 1800 200/04 RMK AO2 $
53144K9L2 9L220160331003510203/31/16 00:35:31  5-MIN K9L2 310835Z AUTO 22003KT 10SM CLR 07/M04 A3002 2210 47 1800 210/03 RMK AO2 $
53144K9L2 9L220160331004010203/31/16 00:40:31  5-MIN K9L2 310840Z AUTO 24004KT 10SM CLR 06/M04 A3002 2210 46 1700 220/04 RMK AO2 $
53144K9L2 9L220160331004510203/31/16 00:45:31  5-MIN K9L2 310845Z AUTO 00000KT 10SM CLR 06/M04 A3002 2210 48 1600 000/00 RMK AO2 $
53144K9L2 9L220160331005010203/31/16 00:50:31  5-MIN K9L2 310850Z AUTO 26004KT 10SM CLR 05/M04 A3002 2210 50 1600 250/04 RMK AO2 $
53144K9L2 9L220160331005512503/31/16 00:55:31  5-MIN K9L2 310855Z AUTO 30004KT 10SM CLR 06/M04 A3002 2210 48 1700 280/04 RMK AO2 SLP167 T00611039 51014 $
53144K9L2 9L220160331010010203/31/16 01:00:31  5-MIN K9L2 310900Z AUTO 00000KT 10SM CLR 06/M04 A3002 2210 50 1600 000/00 RMK AO2 $
53144K9L2 9L220160331010510203/31/16 01:05:31  5-MIN K9L2 310905Z AUTO 27003KT 10SM CLR 06/M04 A3002 2210 48 1700 260/03 RMK AO2 $
53144K9L2 9L220160331011010203/31/16 01:10:31  5-MIN K9L2 310910Z AUTO 00000KT 10SM CLR 06/M04 A3002 2210 48 1700 000/00 RMK AO2 $
53144K9L2 9L220160331011510203/31/16 01:15:31  5-MIN K9L2 310915Z AUTO 00000KT 10SM CLR 06/M04 A3003 2200 48 1700 000/00 RMK AO2 $
53144K9L2 9L220160331012010203/31/16 01:20:31  5-MIN K9L2 310920Z AUTO 16004KT 10SM CLR 06/M05 A3003 2200 46 1600 140/04 RMK AO2 $
53144K9L2 9L220160331012510203/31/16 01:25:31  5-MIN K9L2 310925Z AUTO 14003KT 10SM CLR 05/M06 A3003 2210 46 1600 120/03 RMK AO2 $
53144K9L2 9L220160331013010203/31/16 01:30:31  5-MIN K9L2 310930Z AUTO 18003KT 10SM CLR 05/M06 A3002 2210 46 1600 170/03 RMK AO2 $
53144K9L2 9L220160331013510203/31/16 01:35:31  5-MIN K9L2 310935Z AUTO 00000KT 10SM CLR 05/M05 A3002 2210 48 1600 000/00 RMK AO2 $
53144K9L2 9L220160331014010203/31/16 01:40:31  5-MIN K9L2 310940Z AUTO 00000KT 10SM CLR 05/M05 A3002 2210 48 1600 000/00 RMK AO2 $
53144K9L2 9L220160331014510203/31/16 01:45:31  5-MIN K9L2 310945Z AUTO 00000KT 10SM CLR 05/M05 A3002 2210 48 1600 000/00 RMK AO2 $
53144K9L2 9L220160331015010203/31/16 01:50:31  5-MIN K9L2 310950Z AUTO 00000KT 10SM CLR 05/M05 A3002 2210 48 1600 000/00 RMK AO2 $
53144K9L2 9L220160331015511903/31/16 01:55:31  5-MIN K9L2 310955Z AUTO 00000KT 10SM CLR 04/M06 A3002 2210 48 1500 000/00 RMK AO2 SLP169 T00441056 $
