04850KAOH AOH20160101000011301/01/16 00:00:31  5-MIN KAOH 010500Z AUTO 26012KT 9SM OVC015 M02/M04 A3024 680 81 -1100 270/12 RMK AO2 T10171044
04850KAOH AOH20160101000512101/01/16 00:05:31  5-MIN KAOH 010505Z AUTO 26014KT 10SM BKN017 OVC022 M02/M04 A3024 680 81 -1100 270/14 RMK AO2 T10171044
04850KAOH AOH20160101001012101/01/16 00:10:31  5-MIN KAOH 010510Z AUTO 26011KT 10SM BKN017 OVC022 M02/M04 A3024 680 81 -1100 260/11 RMK AO2 T10171044
04850KAOH AOH20160101001512101/01/16 00:15:31  5-MIN KAOH 010515Z AUTO 26016KT 10SM SCT015 OVC022 M02/M04 A3023 690 81 -1100 270/16 RMK AO2 T10171044
04850KAOH AOH20160101002012101/01/16 00:20:31  5-MIN KAOH 010520Z AUTO 26012KT 10SM SCT017 OVC024 M02/M04 A3023 690 81 -1100 260/12 RMK AO2 T10171044
04850KAOH AOH20160101002511401/01/16 00:25:31  5-MIN KAOH 010525Z AUTO 26014KT 10SM OVC023 M02/M05 A3022 700 78 -1100 260/14 RMK AO2 T10171050
04850KAOH AOH20160101003011401/01/16 00:30:31  5-MIN KAOH 010530Z AUTO 25013KT 10SM OVC024 M02/M05 A3022 700 78 -1100 250/13 RMK AO2 T10171050
04850KAOH AOH20160101003511401/01/16 00:35:31  5-MIN KAOH 010535Z AUTO 26011KT 10SM OVC024 M02/M04 A3022 700 81 -1100 260/11 RMK AO2 T10171044
04850KAOH AOH20160101004012101/01/16 00:40:31  5-MIN KAOH 010540Z AUTO 25013KT 10SM FEW018 OVC024 M02/M04 A3022 700 81 -1100 260/13 RMK AO2 T10171044
04850KAOH AOH20160101004512101/01/16 00:45:31  5-MIN KAOH 010545Z AUTO 25014KT 10SM SCT018 OVC024 M02/M04 A3022 700 81 -1100 260/14 RMK AO2 T10171044
04850KAOH AOH20160101005014601/01/16 00:50:31  5-MIN KAOH 010550Z AUTO 26014KT 10SM BKN018 OVC024 M02/M04 A3022 700 81 -1100 260/14 RMK AO2 SLP244 T10171044 11011 21017 58002
04850KAOH AOH20160101005512001/01/16 00:55:31  5-MIN KAOH 010555Z AUTO 26014KT 9SM BKN018 OVC026 M02/M04 A3022 710 81 -1100 270/14 RMK AO2 T10171044
04850KAOH AOH20160101010012001/01/16 01:00:31  5-MIN KAOH 010600Z AUTO 25013KT 9SM BKN016 OVC024 M02/M04 A3021 710 81 -1100 260/13 RMK AO2 T10171044
04850KAOH AOH20160101010511301/01/16 01:05:31  5-MIN KAOH 010605Z AUTO 25012KT 9SM OVC018 M02/M04 A3021 710 81 -1100 260/12 RMK AO2 T10171044
04850KAOH AOH20160101011011301/01/16 01:10:31  5-MIN KAOH 010610Z AUTO 25013KT 9SM OVC018 M02/M04 A3020 720 81 -1100 260/13 RMK AO2 T10171044
04850KAOH AOH20160101011511301/01/16 01:15:31  5-MIN KAOH 010615Z AUTO 26013KT 9SM OVC016 M02/M04 A3021 710 81 -1100 260/13 RMK AO2 T10171044
04850KAOH AOH20160101012011301/01/16 01:20:31  5-MIN KAOH 010620Z AUTO 25012KT 9SM OVC016 M02/M04 A3020 720 85 -1100 260/12 RMK AO2 T10171039
04850KAOH AOH20160101012511901/01/16 01:25:31  5-MIN KAOH 010625Z AUTO 25018G21KT 9SM OVC016 M02/M04 A3021 710 81 -1100 260/18G21 RMK AO2 T10171044
04850KAOH AOH20160101013012001/01/16 01:30:31  5-MIN KAOH 010630Z AUTO 25014G23KT 10SM OVC016 M02/M05 A3021 710 78 -1100 260/14G23 RMK AO2 T10171050
04850KAOH AOH20160101013512001/01/16 01:35:31  5-MIN KAOH 010635Z AUTO 25016G23KT 10SM OVC016 M02/M05 A3021 710 78 -1100 260/16G23 RMK AO2 T10171050
04850KAOH AOH20160101014011401/01/16 01:40:31  5-MIN KAOH 010640Z AUTO 26015KT 10SM OVC016 M02/M05 A3021 710 78 -1100 260/15 RMK AO2 T10171050
04850KAOH AOH20160101014511401/01/16 01:45:31  5-MIN KAOH 010645Z AUTO 25013KT 10SM OVC016 M02/M05 A3021 710 78 -1100 260/13 RMK AO2 T10171050
04850KAOH AOH20160101015012101/01/16 01:50:31  5-MIN KAOH 010650Z AUTO 26016KT 10SM OVC016 M02/M05 A3020 720 78 -1100 260/16 RMK AO2 SLP239 T10171050
04850KAOH AOH20160101015511401/01/16 01:55:31  5-MIN KAOH 010655Z AUTO 26016KT 10SM OVC016 M02/M05 A3020 720 78 -1100 270/16 RMK AO2 T10171050
04850KAOH AOH20160101020012001/01/16 02:00:31  5-MIN KAOH 010700Z AUTO 26015G22KT 10SM OVC017 M02/M05 A3020 720 78 -1100 270/15G22 RMK AO2 T10171050
04850KAOH AOH20160101020511401/01/16 02:05:31  5-MIN KAOH 010705Z AUTO 25014KT 10SM OVC017 M02/M05 A3020 720 78 -1100 260/14 RMK AO2 T10171050
04850KAOH AOH20160101021011401/01/16 02:10:31  5-MIN KAOH 010710Z AUTO 26013KT 10SM OVC017 M02/M05 A3020 720 78 -1100 260/13 RMK AO2 T10171050
04850KAOH AOH20160101021511401/01/16 02:15:31  5-MIN KAOH 010715Z AUTO 26014KT 10SM OVC017 M02/M04 A3020 720 81 -1100 260/14 RMK AO2 T10171044
04850KAOH AOH20160101022011401/01/16 02:20:31  5-MIN KAOH 010720Z AUTO 26013KT 10SM OVC017 M02/M05 A3020 720 78 -1100 270/13 RMK AO2 T10171050
04850KAOH AOH20160101022511401/01/16 02:25:31  5-MIN KAOH 010725Z AUTO 25013KT 10SM OVC015 M02/M04 A3020 720 81 -1100 260/13 RMK AO2 T10171044
04850KAOH AOH20160101023011401/01/16 02:30:31  5-MIN KAOH 010730Z AUTO 25013KT 10SM OVC015 M02/M04 A3020 720 81 -1100 260/13 RMK AO2 T10171044
04850KAOH AOH20160101023511401/01/16 02:35:31  5-MIN KAOH 010735Z AUTO 24013KT 10SM OVC015 M02/M04 A3020 720 81 -1100 250/13 RMK AO2 T10171044
04850KAOH AOH20160101024011401/01/16 02:40:31  5-MIN KAOH 010740Z AUTO 25015KT 10SM OVC015 M02/M05 A3020 720 81 -1100 250/15 RMK AO2 T10221050
04850KAOH AOH20160101024511401/01/16 02:45:31  5-MIN KAOH 010745Z AUTO 25015KT 10SM OVC015 M02/M05 A3020 720 81 -1100 250/15 RMK AO2 T10221050
04850KAOH AOH20160101025012101/01/16 02:50:31  5-MIN KAOH 010750Z AUTO 25016KT 10SM OVC015 M02/M06 A3021 720 78 -1100 250/16 RMK AO2 SLP239 T10221056
04850KAOH AOH20160101025512001/01/16 02:55:31  5-MIN KAOH 010755Z AUTO 25017G23KT 10SM OVC015 M02/M05 A3021 710 81 -1100 250/17G23 RMK AO2 T10221050
04850KAOH AOH20160101030012001/01/16 03:00:31  5-MIN KAOH 010800Z AUTO 25018G23KT 10SM OVC015 M02/M06 A3021 720 78 -1100 260/18G23 RMK AO2 T10221056
04850KAOH AOH20160101030511401/01/16 03:05:31  5-MIN KAOH 010805Z AUTO 24017KT 10SM OVC016 M02/M06 A3021 710 78 -1100 250/17 RMK AO2 T10221056
04850KAOH AOH20160101031011401/01/16 03:10:31  5-MIN KAOH 010810Z AUTO 25019KT 10SM OVC016 M02/M06 A3021 710 78 -1100 250/19 RMK AO2 T10221056
04850KAOH AOH20160101031511401/01/16 03:15:31  5-MIN KAOH 010815Z AUTO 25016KT 10SM OVC016 M02/M06 A3021 710 78 -1100 260/16 RMK AO2 T10221056
04850KAOH AOH20160101032011401/01/16 03:20:31  5-MIN KAOH 010820Z AUTO 25018KT 10SM OVC016 M02/M06 A3021 710 78 -1100 260/18 RMK AO2 T10221056
04850KAOH AOH20160101032512001/01/16 03:25:31  5-MIN KAOH 010825Z AUTO 25018G24KT 10SM OVC016 M02/M06 A3021 710 78 -1100 260/18G24 RMK AO2 T10221056
04850KAOH AOH20160101033012001/01/16 03:30:31  5-MIN KAOH 010830Z AUTO 25017G24KT 10SM OVC016 M02/M06 A3021 710 78 -1100 250/17G24 RMK AO2 T10221056
04850KAOH AOH20160101033512101/01/16 03:35:31  5-MIN KAOH 010835Z AUTO 25017KT 10SM BKN016 OVC029 M02/M06 A3020 720 78 -1100 260/17 RMK AO2 T10221056
04850KAOH AOH20160101034012101/01/16 03:40:31  5-MIN KAOH 010840Z AUTO 25017KT 10SM BKN017 OVC026 M02/M06 A3020 720 75 -1100 260/17 RMK AO2 T10221061
04850KAOH AOH20160101034512101/01/16 03:45:31  5-MIN KAOH 010845Z AUTO 26017KT 10SM SCT017 OVC026 M02/M06 A3020 720 75 -1100 260/17 RMK AO2 T10221061
04850KAOH AOH20160101035014101/01/16 03:50:31  5-MIN KAOH 010850Z AUTO 26016KT 10SM SCT017 BKN026 OVC031 M03/M06 A3020 720 78 -1200 270/16 RMK AO2 SLP237 T10281061 58009
04850KAOH AOH20160101035512801/01/16 03:55:31  5-MIN KAOH 010855Z AUTO 25015KT 10SM FEW019 BKN026 BKN031 M03/M06 A3020 720 78 -1200 250/15 RMK AO2 T10281061
04850KAOH AOH20160101040012701/01/16 04:00:31  5-MIN KAOH 010900Z AUTO 25016G23KT 10SM SCT022 BKN029 M03/M07 A3020 720 75 -1200 260/16G23 RMK AO2 T10281067
04850KAOH AOH20160101040512701/01/16 04:05:31  5-MIN KAOH 010905Z AUTO 25015G23KT 10SM SCT022 BKN027 M03/M07 A3020 720 78 -1300 260/15G23 RMK AO2 T10331067
04850KAOH AOH20160101041012101/01/16 04:10:31  5-MIN KAOH 010910Z AUTO 25013KT 10SM FEW022 SCT027 M03/M07 A3020 720 78 -1300 260/13 RMK AO2 T10331067
04850KAOH AOH20160101041512101/01/16 04:15:31  5-MIN KAOH 010915Z AUTO 25014KT 10SM FEW022 FEW027 M03/M07 A3019 730 78 -1300 260/14 RMK AO2 T10331067
04850KAOH AOH20160101042011401/01/16 04:20:31  5-MIN KAOH 010920Z AUTO 25013KT 10SM FEW022 M03/M07 A3019 730 78 -1300 250/13 RMK AO2 T10331067
04850KAOH AOH20160101042511401/01/16 04:25:31  5-MIN KAOH 010925Z AUTO 24012KT 10SM FEW022 M03/M07 A3019 730 78 -1300 250/12 RMK AO2 T10331067
04850KAOH AOH20160101043011101/01/16 04:30:31  5-MIN KAOH 010930Z AUTO 24013KT 10SM CLR M03/M07 A3019 730 78 -1300 250/13 RMK AO2 T10331067
04850KAOH AOH20160101043511101/01/16 04:35:31  5-MIN KAOH 010935Z AUTO 24013KT 10SM CLR M03/M07 A3019 730 74 -1300 240/13 RMK AO2 T10331072
04850KAOH AOH20160101044011101/01/16 04:40:31  5-MIN KAOH 010940Z AUTO 24012KT 10SM CLR M03/M07 A3019 730 74 -1300 250/12 RMK AO2 T10331072
04850KAOH AOH20160101044511101/01/16 04:45:31  5-MIN KAOH 010945Z AUTO 25011KT 10SM CLR M04/M07 A3019 730 78 -1300 260/11 RMK AO2 T10391072
04850KAOH AOH20160101045011801/01/16 04:50:31  5-MIN KAOH 010950Z AUTO 24011KT 10SM CLR M04/M07 A3019 730 78 -1300 250/11 RMK AO2 SLP234 T10391072
04850KAOH AOH20160101045511101/01/16 04:55:31  5-MIN KAOH 010955Z AUTO 24011KT 10SM CLR M04/M07 A3019 730 78 -1300 250/11 RMK AO2 T10391072
04850KAOH AOH20160101050011101/01/16 05:00:31  5-MIN KAOH 011000Z AUTO 24010KT 10SM CLR M04/M07 A3019 730 78 -1300 250/10 RMK AO2 T10391072
04850KAOH AOH20160101050511101/01/16 05:05:31  5-MIN KAOH 011005Z AUTO 24012KT 10SM CLR M04/M07 A3019 730 78 -1300 240/12 RMK AO2 T10391072
04850KAOH AOH20160101051011101/01/16 05:10:31  5-MIN KAOH 011010Z AUTO 24011KT 10SM CLR M04/M07 A3018 730 78 -1300 240/11 RMK AO2 T10391072
04850KAOH AOH20160101051511101/01/16 05:15:31  5-MIN KAOH 011015Z AUTO 24012KT 10SM CLR M04/M07 A3018 740 78 -1300 240/12 RMK AO2 T10391072
04850KAOH AOH20160101052011101/01/16 05:20:31  5-MIN KAOH 011020Z AUTO 24017KT 10SM CLR M04/M07 A3018 740 81 -1300 240/17 RMK AO2 T10391067
04850KAOH AOH20160101052511101/01/16 05:25:31  5-MIN KAOH 011025Z AUTO 24016KT 10SM CLR M04/M07 A3018 740 81 -1300 240/16 RMK AO2 T10391067
04850KAOH AOH20160101053011101/01/16 05:30:31  5-MIN KAOH 011030Z AUTO 24012KT 10SM CLR M04/M07 A3018 740 81 -1300 250/12 RMK AO2 T10391067
04850KAOH AOH20160101053511101/01/16 05:35:31  5-MIN KAOH 011035Z AUTO 24014KT 10SM CLR M04/M07 A3018 740 81 -1300 240/14 RMK AO2 T10391067
04850KAOH AOH20160101054011101/01/16 05:40:31  5-MIN KAOH 011040Z AUTO 24013KT 10SM CLR M04/M07 A3018 740 81 -1300 240/13 RMK AO2 T10391067
04850KAOH AOH20160101054511101/01/16 05:45:31  5-MIN KAOH 011045Z AUTO 23012KT 10SM CLR M03/M07 A3018 740 78 -1200 240/12 RMK AO2 T10331067
04850KAOH AOH20160101055012101/01/16 05:50:31  5-MIN KAOH 011050Z AUTO 24013KT 10SM FEW020 M03/M07 A3018 740 78 -1200 240/13 RMK AO2 SLP231 T10331067
04850KAOH AOH20160101055512001/01/16 05:55:31  5-MIN KAOH 011055Z AUTO 23011G18KT 10SM FEW018 M03/M07 A3018 740 78 -1200 240/11G18 RMK AO2 T10331067
04850KAOH AOH20160101060011401/01/16 06:00:31  5-MIN KAOH 011100Z AUTO 23010KT 10SM FEW018 M03/M07 A3018 740 78 -1200 230/10 RMK AO2 T10331067
04850KAOH AOH20160101060511401/01/16 06:05:31  5-MIN KAOH 011105Z AUTO 23011KT 10SM SCT018 M03/M07 A3018 740 78 -1200 240/11 RMK AO2 T10331067
04850KAOH AOH20160101061011401/01/16 06:10:31  5-MIN KAOH 011110Z AUTO 23013KT 10SM SCT019 M03/M06 A3018 740 81 -1200 240/13 RMK AO2 T10331061
04850KAOH AOH20160101191012001/01/16 19:10:31  5-MIN KAOH 020010Z AUTO 25013G21KT 10SM OVC019 M03/M07 A3019 730 74 -1300 250/13G21 RMK AO2 T10331072
04850KAOH AOH20160101191511401/01/16 19:15:31  5-MIN KAOH 020015Z AUTO 26015KT 10SM OVC020 M03/M07 A3019 730 74 -1300 260/15 RMK AO2 T10331072
04850KAOH AOH20160101192011401/01/16 19:20:31  5-MIN KAOH 020020Z AUTO 26013KT 10SM OVC020 M03/M07 A3019 730 74 -1300 260/13 RMK AO2 T10331072
04850KAOH AOH20160101192511401/01/16 19:25:31  5-MIN KAOH 020025Z AUTO 25011KT 10SM OVC020 M03/M07 A3019 730 74 -1300 250/11 RMK AO2 T10331072
04850KAOH AOH20160101193011401/01/16 19:30:31  5-MIN KAOH 020030Z AUTO 26011KT 10SM OVC020 M03/M07 A3019 730 74 -1300 260/11 RMK AO2 T10331072
04850KAOH AOH20160101193511401/01/16 19:35:31  5-MIN KAOH 020035Z AUTO 26014KT 10SM OVC020 M03/M07 A3019 730 74 -1300 270/14 RMK AO2 T10331072
04850KAOH AOH20160101194011401/01/16 19:40:31  5-MIN KAOH 020040Z AUTO 26014KT 10SM OVC020 M03/M07 A3019 730 74 -1300 260/14 RMK AO2 T10331072
04850KAOH AOH20160101194511401/01/16 19:45:31  5-MIN KAOH 020045Z AUTO 26012KT 10SM OVC020 M03/M07 A3019 730 74 -1300 260/12 RMK AO2 T10331072
04850KAOH AOH20160101195012101/01/16 19:50:31  5-MIN KAOH 020050Z AUTO 25012KT 10SM OVC019 M03/M07 A3019 730 74 -1300 250/12 RMK AO2 SLP235 T10331072
04850KAOH AOH20160101195511401/01/16 19:55:31  5-MIN KAOH 020055Z AUTO 25012KT 10SM OVC019 M03/M07 A3019 730 74 -1300 260/12 RMK AO2 T10331072
04850KAOH AOH20160101200011401/01/16 20:00:31  5-MIN KAOH 020100Z AUTO 25012KT 10SM OVC018 M03/M07 A3019 730 78 -1300 260/12 RMK AO2 T10331067
04850KAOH AOH20160101200511401/01/16 20:05:31  5-MIN KAOH 020105Z AUTO 25011KT 10SM OVC018 M03/M07 A3019 730 78 -1300 260/11 RMK AO2 T10331067
04850KAOH AOH20160101201011401/01/16 20:10:31  5-MIN KAOH 020110Z AUTO 24015KT 10SM OVC018 M03/M07 A3018 740 78 -1200 240/15 RMK AO2 T10331067
04850KAOH AOH20160101201511401/01/16 20:15:31  5-MIN KAOH 020115Z AUTO 25012KT 10SM OVC018 M03/M07 A3018 740 78 -1200 260/12 RMK AO2 T10331067
04850KAOH AOH20160101202011401/01/16 20:20:31  5-MIN KAOH 020120Z AUTO 24011KT 10SM OVC018 M03/M07 A3017 750 78 -1200 250/11 RMK AO2 T10331067
04850KAOH AOH20160101202512101/01/16 20:25:31  5-MIN KAOH 020125Z AUTO 23015KT 10SM OVC018 M03/M07 A3016 750 78 -1200 240/15 RMK AO2 PRESFR T10331067
04850KAOH AOH20160101203011401/01/16 20:30:31  5-MIN KAOH 020130Z AUTO 24013KT 10SM OVC017 M03/M07 A3017 750 74 -1200 250/13 RMK AO2 T10331072
04850KAOH AOH20160101203511401/01/16 20:35:31  5-MIN KAOH 020135Z AUTO 24013KT 10SM OVC017 M03/M07 A3017 750 78 -1200 250/13 RMK AO2 T10331067
04850KAOH AOH20160101204011401/01/16 20:40:31  5-MIN KAOH 020140Z AUTO 24011KT 10SM OVC017 M03/M07 A3017 750 78 -1200 250/11 RMK AO2 T10331067
04850KAOH AOH20160101204511401/01/16 20:45:31  5-MIN KAOH 020145Z AUTO 24013KT 10SM OVC017 M03/M07 A3017 750 78 -1200 250/13 RMK AO2 T10331067
04850KAOH AOH20160101205012701/01/16 20:50:31  5-MIN KAOH 020150Z AUTO 24017G22KT 10SM OVC017 M03/M07 A3017 750 78 -1200 250/17G22 RMK AO2 SLP230 T10331067
04850KAOH AOH20160101205512001/01/16 20:55:31  5-MIN KAOH 020155Z AUTO 24015G22KT 10SM OVC017 M03/M07 A3017 750 78 -1200 250/15G22 RMK AO2 T10331067
04850KAOH AOH20160101210011401/01/16 21:00:31  5-MIN KAOH 020200Z AUTO 24013KT 10SM OVC017 M03/M07 A3017 750 78 -1200 250/13 RMK AO2 T10331067
04850KAOH AOH20160101210511401/01/16 21:05:31  5-MIN KAOH 020205Z AUTO 25014KT 10SM OVC017 M03/M07 A3017 740 78 -1200 250/14 RMK AO2 T10331067
04850KAOH AOH20160101211011401/01/16 21:10:31  5-MIN KAOH 020210Z AUTO 24014KT 10SM OVC017 M03/M07 A3017 750 78 -1200 250/14 RMK AO2 T10331067
04850KAOH AOH20160101211511401/01/16 21:15:31  5-MIN KAOH 020215Z AUTO 25014KT 10SM OVC017 M03/M07 A3017 750 78 -1200 250/14 RMK AO2 T10331067
04850KAOH AOH20160101212011401/01/16 21:20:31  5-MIN KAOH 020220Z AUTO 25017KT 10SM OVC017 M03/M07 A3017 750 78 -1200 250/17 RMK AO2 T10331067
04850KAOH AOH20160101212512001/01/16 21:25:31  5-MIN KAOH 020225Z AUTO 25016G23KT 10SM OVC017 M03/M07 A3017 750 78 -1200 250/16G23 RMK AO2 T10331067
04850KAOH AOH20160101213012001/01/16 21:30:31  5-MIN KAOH 020230Z AUTO 24015G23KT 10SM OVC017 M03/M07 A3017 750 78 -1200 250/15G23 RMK AO2 T10331067
04850KAOH AOH20160101213511401/01/16 21:35:31  5-MIN KAOH 020235Z AUTO 24013KT 10SM OVC017 M03/M07 A3017 750 78 -1200 250/13 RMK AO2 T10331067
04850KAOH AOH20160101214011401/01/16 21:40:31  5-MIN KAOH 020240Z AUTO 24016KT 10SM OVC017 M03/M07 A3017 750 78 -1200 250/16 RMK AO2 T10331067
04850KAOH AOH20160101214511401/01/16 21:45:31  5-MIN KAOH 020245Z AUTO 24013KT 10SM OVC017 M03/M07 A3017 750 78 -1200 250/13 RMK AO2 T10331067
04850KAOH AOH20160101215012701/01/16 21:50:31  5-MIN KAOH 020250Z AUTO 24015KT 10SM OVC017 M03/M07 A3017 750 78 -1200 250/15 RMK AO2 SLP228 T10331067 51005
04850KAOH AOH20160101215511401/01/16 21:55:31  5-MIN KAOH 020255Z AUTO 25016KT 10SM OVC017 M03/M07 A3017 750 78 -1200 250/16 RMK AO2 T10331067
04850KAOH AOH20160101220011401/01/16 22:00:31  5-MIN KAOH 020300Z AUTO 25017KT 10SM OVC017 M03/M06 A3017 750 81 -1200 250/17 RMK AO2 T10331061
04850KAOH AOH20160101220512001/01/16 22:05:31  5-MIN KAOH 020305Z AUTO 24014G20KT 10SM OVC016 M03/M06 A3016 750 81 -1200 250/14G20 RMK AO2 T10331061
04850KAOH AOH20160101221011401/01/16 22:10:31  5-MIN KAOH 020310Z AUTO 24015KT 10SM OVC016 M03/M06 A3016 750 81 -1200 250/15 RMK AO2 T10331061
04850KAOH AOH20160101221511401/01/16 22:15:31  5-MIN KAOH 020315Z AUTO 24014KT 10SM OVC016 M03/M06 A3016 750 81 -1200 250/14 RMK AO2 T10331061
04850KAOH AOH20160101222011401/01/16 22:20:31  5-MIN KAOH 020320Z AUTO 24014KT 10SM OVC016 M03/M06 A3016 750 81 -1200 250/14 RMK AO2 T10331061
04850KAOH AOH20160101222511401/01/16 22:25:31  5-MIN KAOH 020325Z AUTO 24016KT 10SM BKN016 M03/M06 A3017 750 81 -1200 240/16 RMK AO2 T10331061
04850KAOH AOH20160101223011401/01/16 22:30:31  5-MIN KAOH 020330Z AUTO 24013KT 10SM BKN016 M03/M06 A3017 750 81 -1200 250/13 RMK AO2 T10331061
04850KAOH AOH20160101223511401/01/16 22:35:31  5-MIN KAOH 020335Z AUTO 25014KT 10SM SCT016 M03/M06 A3016 750 81 -1200 250/14 RMK AO2 T10331061
04850KAOH AOH20160101224011401/01/16 22:40:31  5-MIN KAOH 020340Z AUTO 24013KT 10SM SCT016 M03/M06 A3016 760 81 -1200 250/13 RMK AO2 T10331061
04850KAOH AOH20160101224511401/01/16 22:45:31  5-MIN KAOH 020345Z AUTO 24014KT 10SM FEW015 M03/M06 A3016 760 81 -1200 250/14 RMK AO2 T10331061
04850KAOH AOH20160101225012101/01/16 22:50:31  5-MIN KAOH 020350Z AUTO 24013KT 10SM FEW015 M03/M06 A3017 750 81 -1200 250/13 RMK AO2 SLP227 T10331061
04850KAOH AOH20160101225511101/01/16 22:55:31  5-MIN KAOH 020355Z AUTO 24010KT 10SM CLR M03/M06 A3017 750 81 -1200 250/10 RMK AO2 T10331061
04850KAOH AOH20160101230011101/01/16 23:00:31  5-MIN KAOH 020400Z AUTO 24010KT 10SM CLR M03/M06 A3016 750 81 -1200 250/10 RMK AO2 T10331061
04850KAOH AOH20160101230511101/01/16 23:05:31  5-MIN KAOH 020405Z AUTO 24012KT 10SM CLR M03/M06 A3016 750 78 -1200 240/12 RMK AO2 T10281061
04850KAOH AOH20160101231011101/01/16 23:10:31  5-MIN KAOH 020410Z AUTO 24014KT 10SM CLR M03/M06 A3016 760 78 -1200 240/14 RMK AO2 T10281061
04850KAOH AOH20160101231511101/01/16 23:15:31  5-MIN KAOH 020415Z AUTO 23012KT 10SM CLR M03/M06 A3016 760 78 -1200 240/12 RMK AO2 T10281061
04850KAOH AOH20160101232011101/01/16 23:20:31  5-MIN KAOH 020420Z AUTO 23012KT 10SM CLR M03/M06 A3016 760 81 -1200 230/12 RMK AO2 T10331061
04850KAOH AOH20160101232511101/01/16 23:25:31  5-MIN KAOH 020425Z AUTO 22010KT 10SM CLR M03/M06 A3016 760 81 -1200 220/10 RMK AO2 T10331061
04850KAOH AOH20160101233011101/01/16 23:30:31  5-MIN KAOH 020430Z AUTO 21010KT 10SM CLR M03/M06 A3015 760 81 -1200 220/10 RMK AO2 T10331061
04850KAOH AOH20160101233511101/01/16 23:35:31  5-MIN KAOH 020435Z AUTO 22010KT 10SM CLR M03/M06 A3015 760 81 -1200 230/10 RMK AO2 T10331061
04850KAOH AOH20160101234011101/01/16 23:40:31  5-MIN KAOH 020440Z AUTO 23011KT 10SM CLR M03/M06 A3016 760 81 -1200 230/11 RMK AO2 T10331061
04850KAOH AOH20160101234511101/01/16 23:45:31  5-MIN KAOH 020445Z AUTO 23012KT 10SM CLR M03/M06 A3016 760 81 -1200 240/12 RMK AO2 T10331061
04850KAOH AOH20160101235012801/01/16 23:50:31  5-MIN KAOH 020450Z AUTO 23011KT 10SM CLR M03/M06 A3016 760 81 -1200 240/11 RMK AO2 SLP225 T10331061 410171044
04850KAOH AOH20160101235511101/01/16 23:55:31  5-MIN KAOH 020455Z AUTO 23011KT 10SM CLR M03/M06 A3016 750 81 -1200 240/11 RMK AO2 T10331061
04850KAOH AOH20160102000011101/02/16 00:00:31  5-MIN KAOH 020500Z AUTO 23012KT 10SM CLR M03/M06 A3016 750 81 -1200 240/12 RMK AO2 T10331061
04850KAOH AOH20160102000511101/02/16 00:05:31  5-MIN KAOH 020505Z AUTO 23009KT 10SM CLR M03/M06 A3016 750 81 -1200 240/09 RMK AO2 T10331061
04850KAOH AOH20160102001011101/02/16 00:10:31  5-MIN KAOH 020510Z AUTO 23010KT 10SM CLR M03/M06 A3016 760 81 -1200 240/10 RMK AO2 T10331061
04850KAOH AOH20160102001511101/02/16 00:15:31  5-MIN KAOH 020515Z AUTO 23012KT 10SM CLR M04/M06 A3016 760 85 -1300 240/12 RMK AO2 T10391061
04850KAOH AOH20160102002011101/02/16 00:20:31  5-MIN KAOH 020520Z AUTO 23011KT 10SM CLR M03/M06 A3016 760 81 -1200 240/11 RMK AO2 T10331061
04850KAOH AOH20160102002511101/02/16 00:25:31  5-MIN KAOH 020525Z AUTO 23009KT 10SM CLR M04/M06 A3015 760 85 -1300 230/09 RMK AO2 T10391061
04850KAOH AOH20160102003011101/02/16 00:30:31  5-MIN KAOH 020530Z AUTO 23011KT 10SM CLR M04/M06 A3016 760 85 -1300 240/11 RMK AO2 T10391061
04850KAOH AOH20160102003511101/02/16 00:35:31  5-MIN KAOH 020535Z AUTO 23010KT 10SM CLR M04/M06 A3016 760 85 -1300 230/10 RMK AO2 T10391061
04850KAOH AOH20160102004011101/02/16 00:40:31  5-MIN KAOH 020540Z AUTO 22010KT 10SM CLR M04/M06 A3015 760 85 -1300 230/10 RMK AO2 T10391061
04850KAOH AOH20160102004511101/02/16 00:45:31  5-MIN KAOH 020545Z AUTO 23009KT 10SM CLR M04/M06 A3015 760 85 -1300 230/09 RMK AO2 T10391061
04850KAOH AOH20160102005013601/02/16 00:50:31  5-MIN KAOH 020550Z AUTO 22009KT 10SM CLR M04/M06 A3015 770 85 -1300 230/09 RMK AO2 SLP221 T10391061 11028 21039 58007
04850KAOH AOH20160102005511101/02/16 00:55:31  5-MIN KAOH 020555Z AUTO 23009KT 10SM CLR M04/M06 A3014 770 85 -1300 240/09 RMK AO2 T10391061
04850KAOH AOH20160102010011101/02/16 01:00:31  5-MIN KAOH 020600Z AUTO 22010KT 10SM CLR M04/M06 A3014 770 85 -1300 230/10 RMK AO2 T10391061
04850KAOH AOH20160102010511101/02/16 01:05:31  5-MIN KAOH 020605Z AUTO 22008KT 10SM CLR M04/M06 A3014 780 85 -1300 220/08 RMK AO2 T10391061
04850KAOH AOH20160102011011101/02/16 01:10:31  5-MIN KAOH 020610Z AUTO 21008KT 10SM CLR M04/M06 A3013 780 85 -1300 220/08 RMK AO2 T10391061
04850KAOH AOH20160102011511101/02/16 01:15:31  5-MIN KAOH 020615Z AUTO 22008KT 10SM CLR M04/M06 A3013 780 85 -1300 220/08 RMK AO2 T10391061
04850KAOH AOH20160102012011101/02/16 01:20:31  5-MIN KAOH 020620Z AUTO 21009KT 10SM CLR M04/M06 A3013 790 85 -1300 220/09 RMK AO2 T10391061
04850KAOH AOH20160102012511101/02/16 01:25:31  5-MIN KAOH 020625Z AUTO 22009KT 10SM CLR M04/M06 A3013 790 85 -1300 220/09 RMK AO2 T10391061
04850KAOH AOH20160102013011101/02/16 01:30:31  5-MIN KAOH 020630Z AUTO 22009KT 10SM CLR M04/M06 A3012 790 85 -1300 220/09 RMK AO2 T10391061
04850KAOH AOH20160102013511101/02/16 01:35:31  5-MIN KAOH 020635Z AUTO 22010KT 10SM CLR M04/M06 A3012 790 85 -1300 220/10 RMK AO2 T10391061
04850KAOH AOH20160102014011101/02/16 01:40:31  5-MIN KAOH 020640Z AUTO 22010KT 10SM CLR M04/M06 A3012 790 85 -1300 220/10 RMK AO2 T10391061
04850KAOH AOH20160102014511101/02/16 01:45:31  5-MIN KAOH 020645Z AUTO 21009KT 10SM CLR M04/M06 A3012 790 85 -1200 220/09 RMK AO2 T10391061
04850KAOH AOH20160102015011801/02/16 01:50:31  5-MIN KAOH 020650Z AUTO 21009KT 10SM CLR M04/M06 A3012 790 85 -1200 220/09 RMK AO2 SLP212 T10391061
04850KAOH AOH20160102015511101/02/16 01:55:31  5-MIN KAOH 020655Z AUTO 22009KT 10SM CLR M04/M06 A3012 790 85 -1200 220/09 RMK AO2 T10391061
04850KAOH AOH20160102020011101/02/16 02:00:31  5-MIN KAOH 020700Z AUTO 22009KT 10SM CLR M04/M06 A3012 800 85 -1200 230/09 RMK AO2 T10391061
04850KAOH AOH20160102020511101/02/16 02:05:31  5-MIN KAOH 020705Z AUTO 23010KT 10SM CLR M04/M06 A3012 790 85 -1200 230/10 RMK AO2 T10391061
04850KAOH AOH20160102021011101/02/16 02:10:31  5-MIN KAOH 020710Z AUTO 22010KT 10SM CLR M04/M06 A3012 790 85 -1200 230/10 RMK AO2 T10391061
04850KAOH AOH20160102021511101/02/16 02:15:31  5-MIN KAOH 020715Z AUTO 22010KT 10SM CLR M04/M06 A3012 790 85 -1200 230/10 RMK AO2 T10391061
04850KAOH AOH20160102022011101/02/16 02:20:31  5-MIN KAOH 020720Z AUTO 22008KT 10SM CLR M04/M06 A3012 790 85 -1200 220/08 RMK AO2 T10391061
04850KAOH AOH20160102022511101/02/16 02:25:31  5-MIN KAOH 020725Z AUTO 21009KT 10SM CLR M04/M06 A3012 790 85 -1200 220/09 RMK AO2 T10391061
04850KAOH AOH20160102023011101/02/16 02:30:31  5-MIN KAOH 020730Z AUTO 22009KT 10SM CLR M04/M06 A3012 790 85 -1200 220/09 RMK AO2 T10391061
04850KAOH AOH20160102023511101/02/16 02:35:31  5-MIN KAOH 020735Z AUTO 22008KT 10SM CLR M04/M06 A3012 790 85 -1200 230/08 RMK AO2 T10391061
04850KAOH AOH20160102024011101/02/16 02:40:31  5-MIN KAOH 020740Z AUTO 21009KT 10SM CLR M04/M06 A3011 800 85 -1200 220/09 RMK AO2 T10391061
04850KAOH AOH20160102024511101/02/16 02:45:31  5-MIN KAOH 020745Z AUTO 22010KT 10SM CLR M04/M06 A3011 800 85 -1200 220/10 RMK AO2 T10391061
04850KAOH AOH20160102025011801/02/16 02:50:31  5-MIN KAOH 020750Z AUTO 22010KT 10SM CLR M04/M06 A3011 800 85 -1200 220/10 RMK AO2 SLP210 T10391061
04850KAOH AOH20160102025511101/02/16 02:55:31  5-MIN KAOH 020755Z AUTO 22009KT 10SM CLR M04/M06 A3011 800 85 -1200 230/09 RMK AO2 T10391061
04850KAOH AOH20160102030011101/02/16 03:00:31  5-MIN KAOH 020800Z AUTO 22009KT 10SM CLR M04/M06 A3011 800 85 -1200 220/09 RMK AO2 T10391061
04850KAOH AOH20160102030511101/02/16 03:05:31  5-MIN KAOH 020805Z AUTO 21009KT 10SM CLR M04/M06 A3011 800 85 -1200 220/09 RMK AO2 T10391061
04850KAOH AOH20160102031011101/02/16 03:10:31  5-MIN KAOH 020810Z AUTO 22010KT 10SM CLR M04/M06 A3011 800 85 -1200 220/10 RMK AO2 T10391061
04850KAOH AOH20160102031511101/02/16 03:15:31  5-MIN KAOH 020815Z AUTO 22009KT 10SM CLR M04/M06 A3011 800 85 -1200 220/09 RMK AO2 T10391061
04850KAOH AOH20160102032011101/02/16 03:20:31  5-MIN KAOH 020820Z AUTO 22010KT 10SM CLR M04/M06 A3011 800 85 -1200 220/10 RMK AO2 T10391061
04850KAOH AOH20160102032511101/02/16 03:25:31  5-MIN KAOH 020825Z AUTO 22011KT 10SM CLR M03/M06 A3011 800 81 -1200 220/11 RMK AO2 T10331061
04850KAOH AOH20160102033011101/02/16 03:30:31  5-MIN KAOH 020830Z AUTO 22009KT 10SM CLR M03/M06 A3011 810 81 -1200 220/09 RMK AO2 T10331061
04850KAOH AOH20160102033511101/02/16 03:35:31  5-MIN KAOH 020835Z AUTO 22010KT 10SM CLR M03/M06 A3010 810 81 -1200 230/10 RMK AO2 T10331061
04850KAOH AOH20160102034011101/02/16 03:40:31  5-MIN KAOH 020840Z AUTO 22009KT 10SM CLR M03/M06 A3010 810 81 -1200 230/09 RMK AO2 T10331061
04850KAOH AOH20160102034511101/02/16 03:45:31  5-MIN KAOH 020845Z AUTO 22008KT 10SM CLR M03/M06 A3011 810 81 -1200 230/08 RMK AO2 T10331061
04850KAOH AOH20160102035012401/02/16 03:50:31  5-MIN KAOH 020850Z AUTO 22010KT 10SM CLR M04/M06 A3011 810 85 -1200 230/10 RMK AO2 SLP207 T10391061 58007
04850KAOH AOH20160102035511101/02/16 03:55:31  5-MIN KAOH 020855Z AUTO 22010KT 10SM CLR M04/M06 A3010 810 85 -1200 230/10 RMK AO2 T10391061
04850KAOH AOH20160102040011101/02/16 04:00:31  5-MIN KAOH 020900Z AUTO 22008KT 10SM CLR M04/M06 A3010 810 85 -1200 220/08 RMK AO2 T10391061
04850KAOH AOH20160102040511101/02/16 04:05:31  5-MIN KAOH 020905Z AUTO 21008KT 10SM CLR M04/M06 A3010 810 85 -1200 220/08 RMK AO2 T10391061
04850KAOH AOH20160102041011101/02/16 04:10:31  5-MIN KAOH 020910Z AUTO 22008KT 10SM CLR M04/M06 A3010 810 85 -1200 220/08 RMK AO2 T10391061
04850KAOH AOH20160102041511101/02/16 04:15:31  5-MIN KAOH 020915Z AUTO 22007KT 10SM CLR M04/M06 A3009 820 85 -1200 220/07 RMK AO2 T10391061
04850KAOH AOH20160102042011101/02/16 04:20:31  5-MIN KAOH 020920Z AUTO 22009KT 10SM CLR M04/M06 A3009 820 85 -1200 220/09 RMK AO2 T10391061
04850KAOH AOH20160102042511101/02/16 04:25:31  5-MIN KAOH 020925Z AUTO 22009KT 10SM CLR M04/M06 A3009 820 85 -1200 220/09 RMK AO2 T10391061
04850KAOH AOH20160102043011101/02/16 04:30:31  5-MIN KAOH 020930Z AUTO 22010KT 10SM CLR M03/M06 A3009 820 81 -1100 230/10 RMK AO2 T10331061
04850KAOH AOH20160102043511101/02/16 04:35:31  5-MIN KAOH 020935Z AUTO 23010KT 10SM CLR M03/M06 A3009 820 85 -1100 230/10 RMK AO2 T10331056
04850KAOH AOH20160102044011101/02/16 04:40:31  5-MIN KAOH 020940Z AUTO 23010KT 10SM CLR M03/M06 A3009 820 85 -1100 230/10 RMK AO2 T10331056
04850KAOH AOH20160102044511101/02/16 04:45:31  5-MIN KAOH 020945Z AUTO 23010KT 10SM CLR M03/M06 A3009 820 85 -1100 230/10 RMK AO2 T10331056
04850KAOH AOH20160102045011801/02/16 04:50:31  5-MIN KAOH 020950Z AUTO 23010KT 10SM CLR M03/M06 A3009 820 85 -1100 240/10 RMK AO2 SLP201 T10331056
04850KAOH AOH20160102045511101/02/16 04:55:31  5-MIN KAOH 020955Z AUTO 23011KT 10SM CLR M03/M06 A3009 820 85 -1100 240/11 RMK AO2 T10331056
04850KAOH AOH20160102050011101/02/16 05:00:31  5-MIN KAOH 021000Z AUTO 23011KT 10SM CLR M03/M06 A3008 830 85 -1100 240/11 RMK AO2 T10331056
04850KAOH AOH20160102050511101/02/16 05:05:31  5-MIN KAOH 021005Z AUTO 23012KT 10SM CLR M03/M06 A3008 830 81 -1100 240/12 RMK AO2 T10281056
04850KAOH AOH20160102051011101/02/16 05:10:31  5-MIN KAOH 021010Z AUTO 23011KT 10SM CLR M03/M06 A3008 830 85 -1100 240/11 RMK AO2 T10331056
04850KAOH AOH20160102051511101/02/16 05:15:31  5-MIN KAOH 021015Z AUTO 23010KT 10SM CLR M03/M06 A3008 830 85 -1100 240/10 RMK AO2 T10331056
04850KAOH AOH20160102052011101/02/16 05:20:31  5-MIN KAOH 021020Z AUTO 23010KT 10SM CLR M03/M06 A3008 830 85 -1100 240/10 RMK AO2 T10331056
04850KAOH AOH20160102052511101/02/16 05:25:31  5-MIN KAOH 021025Z AUTO 23010KT 10SM CLR M03/M06 A3008 830 85 -1100 230/10 RMK AO2 T10331056
04850KAOH AOH20160102053011101/02/16 05:30:31  5-MIN KAOH 021030Z AUTO 23011KT 10SM CLR M03/M06 A3008 830 85 -1100 240/11 RMK AO2 T10331056
04850KAOH AOH20160102053511101/02/16 05:35:31  5-MIN KAOH 021035Z AUTO 23012KT 10SM CLR M03/M06 A3008 830 85 -1100 240/12 RMK AO2 T10331056
04850KAOH AOH20160102054011101/02/16 05:40:31  5-MIN KAOH 021040Z AUTO 23012KT 10SM CLR M03/M06 A3008 830 85 -1100 240/12 RMK AO2 T10331056
04850KAOH AOH20160102054511101/02/16 05:45:31  5-MIN KAOH 021045Z AUTO 23011KT 10SM CLR M03/M06 A3009 820 85 -1100 240/11 RMK AO2 T10331056
04850KAOH AOH20160102055011801/02/16 05:50:31  5-MIN KAOH 021050Z AUTO 23011KT 10SM CLR M03/M06 A3009 830 85 -1100 240/11 RMK AO2 SLP200 T10331056
04850KAOH AOH20160102055511101/02/16 05:55:31  5-MIN KAOH 021055Z AUTO 23010KT 10SM CLR M03/M06 A3008 830 85 -1100 230/10 RMK AO2 T10331056
04850KAOH AOH20160102060011101/02/16 06:00:31  5-MIN KAOH 021100Z AUTO 23011KT 10SM CLR M03/M06 A3008 830 85 -1100 240/11 RMK AO2 T10331056
04850KAOH AOH20160102060511101/02/16 06:05:31  5-MIN KAOH 021105Z AUTO 23010KT 10SM CLR M03/M06 A3008 830 85 -1100 240/10 RMK AO2 T10331056
04850KAOH AOH20160102061011401/02/16 06:10:31  5-MIN KAOH 021110Z AUTO 23010KT 10SM SCT022 M03/M06 A3008 830 81 -1100 240/10 RMK AO2 T10281056
04850KAOH AOH20160102061511401/02/16 06:15:31  5-MIN KAOH 021115Z AUTO 23010KT 10SM BKN022 M03/M06 A3008 830 81 -1100 240/10 RMK AO2 T10281056
04850KAOH AOH20160102062011401/02/16 06:20:31  5-MIN KAOH 021120Z AUTO 23009KT 10SM SCT022 M03/M06 A3008 830 85 -1100 230/09 RMK AO2 T10331056
04850KAOH AOH20160102062511401/02/16 06:25:31  5-MIN KAOH 021125Z AUTO 23010KT 10SM SCT022 M03/M06 A3008 830 85 -1100 240/10 RMK AO2 T10331056
04850KAOH AOH20160102063011401/02/16 06:30:31  5-MIN KAOH 021130Z AUTO 23009KT 10SM BKN022 M03/M06 A3008 830 85 -1100 240/09 RMK AO2 T10331056
04850KAOH AOH20160102063511401/02/16 06:35:31  5-MIN KAOH 021135Z AUTO 23010KT 10SM SCT021 M03/M06 A3008 830 85 -1100 230/10 RMK AO2 T10331056
04850KAOH AOH20160102064011401/02/16 06:40:31  5-MIN KAOH 021140Z AUTO 23012KT 10SM FEW021 M03/M06 A3008 830 85 -1100 230/12 RMK AO2 T10331056
04850KAOH AOH20160102064511401/02/16 06:45:31  5-MIN KAOH 021145Z AUTO 23011KT 10SM FEW021 M03/M06 A3008 830 85 -1100 240/11 RMK AO2 T10331056
04850KAOH AOH20160102065013901/02/16 06:50:31  5-MIN KAOH 021150Z AUTO 24011KT 10SM FEW021 M03/M06 A3009 820 85 -1100 240/11 RMK AO2 SLP201 T10331056 11028 21039 56014
04850KAOH AOH20160102065511401/02/16 06:55:31  5-MIN KAOH 021155Z AUTO 24012KT 10SM FEW022 M03/M06 A3009 820 85 -1100 240/12 RMK AO2 T10331056
04850KAOH AOH20160102070011401/02/16 07:00:31  5-MIN KAOH 021200Z AUTO 24012KT 10SM FEW024 M03/M06 A3009 820 81 -1100 240/12 RMK AO2 T10281056
04850KAOH AOH20160102070511401/02/16 07:05:31  5-MIN KAOH 021205Z AUTO 24012KT 10SM SCT024 M03/M06 A3009 820 81 -1100 240/12 RMK AO2 T10281056
04850KAOH AOH20160102171510901/02/16 17:15:31  5-MIN KAOH 022215Z AUTO 23010KT 10SM CLR 01/M04 A3001 890 72 -600 230/10 RMK AO2 T00061039
04850KAOH AOH20160102172010901/02/16 17:20:31  5-MIN KAOH 022220Z AUTO 23008KT 10SM CLR 01/M04 A3001 890 72 -600 230/08 RMK AO2 T00061039
04850KAOH AOH20160102172510901/02/16 17:25:31  5-MIN KAOH 022225Z AUTO 23009KT 10SM CLR 01/M04 A3001 890 72 -600 240/09 RMK AO2 T00061039
04850KAOH AOH20160102173010901/02/16 17:30:31  5-MIN KAOH 022230Z AUTO 23012KT 10SM CLR 01/M04 A3001 890 72 -600 240/12 RMK AO2 T00061039
04850KAOH AOH20160102173510901/02/16 17:35:31  5-MIN KAOH 022235Z AUTO 23011KT 10SM CLR 01/M04 A3001 890 72 -600 240/11 RMK AO2 T00061039
04850KAOH AOH20160102174010901/02/16 17:40:31  5-MIN KAOH 022240Z AUTO 23010KT 10SM CLR 01/M04 A3001 890 72 -600 240/10 RMK AO2 T00061039
04850KAOH AOH20160102174510901/02/16 17:45:31  5-MIN KAOH 022245Z AUTO 23010KT 10SM CLR 01/M04 A3001 890 72 -600 230/10 RMK AO2 T00061039
04850KAOH AOH20160102175011601/02/16 17:50:31  5-MIN KAOH 022250Z AUTO 22011KT 10SM CLR 01/M04 A3001 890 72 -600 230/11 RMK AO2 SLP173 T00061039
04850KAOH AOH20160102175510901/02/16 17:55:31  5-MIN KAOH 022255Z AUTO 22011KT 10SM CLR 00/M04 A3001 900 75 -600 230/11 RMK AO2 T00001039
04850KAOH AOH20160102180010901/02/16 18:00:31  5-MIN KAOH 022300Z AUTO 22011KT 10SM CLR 01/M04 A3001 900 72 -600 230/11 RMK AO2 T00061039
04850KAOH AOH20160102180510901/02/16 18:05:31  5-MIN KAOH 022305Z AUTO 22010KT 10SM CLR 00/M04 A3001 900 75 -600 230/10 RMK AO2 T00001039
04850KAOH AOH20160102181010901/02/16 18:10:31  5-MIN KAOH 022310Z AUTO 22010KT 10SM CLR 00/M04 A3001 900 75 -600 230/10 RMK AO2 T00001039
04850KAOH AOH20160102181510901/02/16 18:15:31  5-MIN KAOH 022315Z AUTO 22011KT 10SM CLR 00/M04 A3001 900 75 -600 230/11 RMK AO2 T00001039
04850KAOH AOH20160102182010901/02/16 18:20:31  5-MIN KAOH 022320Z AUTO 22011KT 10SM CLR 00/M04 A3001 900 75 -600 230/11 RMK AO2 T00001039
04850KAOH AOH20160102182510901/02/16 18:25:31  5-MIN KAOH 022325Z AUTO 22012KT 10SM CLR 00/M04 A3001 900 75 -600 230/12 RMK AO2 T00001039
04850KAOH AOH20160102183010901/02/16 18:30:31  5-MIN KAOH 022330Z AUTO 23012KT 10SM CLR 01/M04 A3001 900 72 -600 230/12 RMK AO2 T00061039
04850KAOH AOH20160102183510901/02/16 18:35:31  5-MIN KAOH 022335Z AUTO 22012KT 10SM CLR 00/M04 A3000 900 75 -600 230/12 RMK AO2 T00001039
04850KAOH AOH20160102184010901/02/16 18:40:31  5-MIN KAOH 022340Z AUTO 22012KT 10SM CLR 01/M04 A3001 900 72 -600 230/12 RMK AO2 T00061039
04850KAOH AOH20160102184510901/02/16 18:45:31  5-MIN KAOH 022345Z AUTO 22012KT 10SM CLR 00/M04 A3000 900 75 -600 230/12 RMK AO2 T00001039
04850KAOH AOH20160102185013401/02/16 18:50:31  5-MIN KAOH 022350Z AUTO 22013KT 10SM CLR 00/M04 A3000 900 75 -600 230/13 RMK AO2 SLP170 T00001039 10011 21006 56016
04850KAOH AOH20160102185510901/02/16 18:55:31  5-MIN KAOH 022355Z AUTO 22012KT 10SM CLR 00/M04 A3000 900 75 -600 230/12 RMK AO2 T00001039
04850KAOH AOH20160102190010901/02/16 19:00:31  5-MIN KAOH 030000Z AUTO 22011KT 10SM CLR 00/M04 A3000 910 75 -600 230/11 RMK AO2 T00001039
04850KAOH AOH20160102190510901/02/16 19:05:31  5-MIN KAOH 030005Z AUTO 23013KT 10SM CLR 00/M04 A3000 910 75 -600 230/13 RMK AO2 T00001039
04850KAOH AOH20160102191010901/02/16 19:10:31  5-MIN KAOH 030010Z AUTO 23012KT 10SM CLR 00/M04 A3000 910 75 -600 230/12 RMK AO2 T00001039
04850KAOH AOH20160102191510901/02/16 19:15:31  5-MIN KAOH 030015Z AUTO 22011KT 10SM CLR 00/M04 A3000 910 75 -600 230/11 RMK AO2 T00001039
04850KAOH AOH20160102192010901/02/16 19:20:31  5-MIN KAOH 030020Z AUTO 22012KT 10SM CLR 00/M04 A3000 910 75 -600 230/12 RMK AO2 T00001039
04850KAOH AOH20160102192510901/02/16 19:25:31  5-MIN KAOH 030025Z AUTO 23011KT 10SM CLR 00/M04 A3000 900 75 -600 230/11 RMK AO2 T00001039
04850KAOH AOH20160102193010901/02/16 19:30:31  5-MIN KAOH 030030Z AUTO 23011KT 10SM CLR 00/M04 A3000 900 75 -600 240/11 RMK AO2 T00001039
04850KAOH AOH20160102193510901/02/16 19:35:31  5-MIN KAOH 030035Z AUTO 23011KT 10SM CLR 00/M04 A3000 910 75 -600 230/11 RMK AO2 T00001039
04850KAOH AOH20160102194010901/02/16 19:40:31  5-MIN KAOH 030040Z AUTO 23010KT 10SM CLR 00/M04 A2999 910 75 -600 230/10 RMK AO2 T00001039
04850KAOH AOH20160102194510901/02/16 19:45:31  5-MIN KAOH 030045Z AUTO 22013KT 10SM CLR 00/M04 A2999 910 75 -600 220/13 RMK AO2 T00001039
04850KAOH AOH20160102195011601/02/16 19:50:31  5-MIN KAOH 030050Z AUTO 21012KT 10SM CLR 00/M03 A2998 920 78 -600 220/12 RMK AO2 SLP163 T00001033
04850KAOH AOH20160102195510901/02/16 19:55:31  5-MIN KAOH 030055Z AUTO 22014KT 10SM CLR 00/M03 A2998 920 78 -600 220/14 RMK AO2 T00001033
04850KAOH AOH20160102200010901/02/16 20:00:31  5-MIN KAOH 030100Z AUTO 22013KT 10SM CLR 00/M03 A2998 920 78 -600 230/13 RMK AO2 T00001033
04850KAOH AOH20160102200510901/02/16 20:05:31  5-MIN KAOH 030105Z AUTO 22014KT 10SM CLR 00/M03 A2998 920 78 -600 230/14 RMK AO2 T00001033
04850KAOH AOH20160102201010901/02/16 20:10:31  5-MIN KAOH 030110Z AUTO 22013KT 10SM CLR 00/M03 A2998 920 78 -600 230/13 RMK AO2 T00001033
04850KAOH AOH20160102201510901/02/16 20:15:31  5-MIN KAOH 030115Z AUTO 22014KT 10SM CLR 00/M03 A2998 920 78 -600 230/14 RMK AO2 T00001033
04850KAOH AOH20160102202010901/02/16 20:20:31  5-MIN KAOH 030120Z AUTO 23013KT 10SM CLR 00/M03 A2998 920 78 -600 240/13 RMK AO2 T00001033
04850KAOH AOH20160102202510901/02/16 20:25:31  5-MIN KAOH 030125Z AUTO 24015KT 10SM CLR 00/M03 A2999 920 78 -600 240/15 RMK AO2 T00001033
04850KAOH AOH20160102203011501/02/16 20:30:31  5-MIN KAOH 030130Z AUTO 23014G20KT 10SM CLR 00/M03 A2999 920 78 -600 240/14G20 RMK AO2 T00001033
04850KAOH AOH20160102203510901/02/16 20:35:31  5-MIN KAOH 030135Z AUTO 23014KT 10SM CLR 00/M03 A2998 920 78 -600 240/14 RMK AO2 T00001033
04850KAOH AOH20160102204010901/02/16 20:40:31  5-MIN KAOH 030140Z AUTO 23015KT 10SM CLR 00/M03 A2998 920 78 -600 230/15 RMK AO2 T00001033
04850KAOH AOH20160102204511501/02/16 20:45:31  5-MIN KAOH 030145Z AUTO 22014G21KT 10SM CLR 00/M04 A2998 930 75 -600 230/14G21 RMK AO2 T00001039
04850KAOH AOH20160102205012201/02/16 20:50:31  5-MIN KAOH 030150Z AUTO 23013G21KT 10SM CLR 00/M04 A2997 930 75 -600 230/13G21 RMK AO2 SLP159 T00001039
04850KAOH AOH20160102205510901/02/16 20:55:31  5-MIN KAOH 030155Z AUTO 23013KT 10SM CLR 00/M04 A2997 930 75 -600 230/13 RMK AO2 T00001039
04850KAOH AOH20160102210010901/02/16 21:00:31  5-MIN KAOH 030200Z AUTO 22016KT 10SM CLR 00/M04 A2996 940 75 -600 230/16 RMK AO2 T00001039
04850KAOH AOH20160102210511501/02/16 21:05:31  5-MIN KAOH 030205Z AUTO 22013G21KT 10SM CLR 00/M04 A2996 940 75 -600 230/13G21 RMK AO2 T00001039
04850KAOH AOH20160102211011501/02/16 21:10:31  5-MIN KAOH 030210Z AUTO 22015G21KT 10SM CLR 00/M04 A2995 950 75 -600 230/15G21 RMK AO2 T00001039
04850KAOH AOH20160102211511501/02/16 21:15:31  5-MIN KAOH 030215Z AUTO 23013G21KT 10SM CLR 00/M04 A2995 950 75 -600 230/13G21 RMK AO2 T00001039
04850KAOH AOH20160102212010901/02/16 21:20:31  5-MIN KAOH 030220Z AUTO 22015KT 10SM CLR 00/M04 A2995 950 75 -600 230/15 RMK AO2 T00001039
04850KAOH AOH20160102212511501/02/16 21:25:31  5-MIN KAOH 030225Z AUTO 22014G21KT 10SM CLR 00/M04 A2995 950 75 -600 230/14G21 RMK AO2 T00001039
04850KAOH AOH20160102213010901/02/16 21:30:31  5-MIN KAOH 030230Z AUTO 23013KT 10SM CLR 00/M04 A2995 950 75 -600 230/13 RMK AO2 T00001039
04850KAOH AOH20160102213511501/02/16 21:35:31  5-MIN KAOH 030235Z AUTO 23013G21KT 10SM CLR 00/M04 A2994 960 75 -600 230/13G21 RMK AO2 T00001039
04850KAOH AOH20160102214011501/02/16 21:40:31  5-MIN KAOH 030240Z AUTO 22015G21KT 10SM CLR 00/M04 A2994 960 75 -600 230/15G21 RMK AO2 T00001039
04850KAOH AOH20160102214510901/02/16 21:45:31  5-MIN KAOH 030245Z AUTO 22013KT 10SM CLR 00/M04 A2994 960 75 -500 230/13 RMK AO2 T00001039
04850KAOH AOH20160102215012201/02/16 21:50:31  5-MIN KAOH 030250Z AUTO 22014KT 10SM CLR 00/M04 A2994 960 75 -600 230/14 RMK AO2 SLP150 T00001039 57008
04850KAOH AOH20160102215511501/02/16 21:55:31  5-MIN KAOH 030255Z AUTO 23013G21KT 10SM CLR 00/M04 A2994 960 75 -600 230/13G21 RMK AO2 T00001039
04850KAOH AOH20160102220011501/02/16 22:00:31  5-MIN KAOH 030300Z AUTO 23015G21KT 10SM CLR 00/M04 A2994 960 75 -500 240/15G21 RMK AO2 T00001039
04850KAOH AOH20160102220510901/02/16 22:05:31  5-MIN KAOH 030305Z AUTO 23015KT 10SM CLR 00/M04 A2994 960 75 -500 230/15 RMK AO2 T00001039
04850KAOH AOH20160102221010901/02/16 22:10:31  5-MIN KAOH 030310Z AUTO 22016KT 10SM CLR 00/M04 A2993 970 75 -500 230/16 RMK AO2 T00001039
04850KAOH AOH20160102221511501/02/16 22:15:31  5-MIN KAOH 030315Z AUTO 23016G21KT 10SM CLR 00/M04 A2993 970 75 -500 230/16G21 RMK AO2 T00001039
04850KAOH AOH20160102222011501/02/16 22:20:31  5-MIN KAOH 030320Z AUTO 23016G21KT 10SM CLR 00/M04 A2993 970 75 -500 240/16G21 RMK AO2 T00001039
04850KAOH AOH20160102222510901/02/16 22:25:31  5-MIN KAOH 030325Z AUTO 23016KT 10SM CLR 00/M04 A2993 970 75 -500 240/16 RMK AO2 T00001039
04850KAOH AOH20160102223010901/02/16 22:30:31  5-MIN KAOH 030330Z AUTO 23016KT 10SM CLR 00/M04 A2994 960 75 -500 240/16 RMK AO2 T00001039
04850KAOH AOH20160102223510901/02/16 22:35:31  5-MIN KAOH 030335Z AUTO 23015KT 10SM CLR 00/M04 A2994 960 75 -500 240/15 RMK AO2 T00001039
04850KAOH AOH20160102224010901/02/16 22:40:31  5-MIN KAOH 030340Z AUTO 23016KT 10SM CLR 00/M04 A2994 960 75 -500 240/16 RMK AO2 T00001039
04850KAOH AOH20160102224510901/02/16 22:45:31  5-MIN KAOH 030345Z AUTO 24016KT 10SM CLR 00/M04 A2994 960 75 -500 240/16 RMK AO2 T00001039
04850KAOH AOH20160102225011601/02/16 22:50:31  5-MIN KAOH 030350Z AUTO 23017KT 10SM CLR 00/M04 A2994 960 75 -500 240/17 RMK AO2 SLP147 T00001039
04850KAOH AOH20160102225510901/02/16 22:55:31  5-MIN KAOH 030355Z AUTO 23014KT 10SM CLR 00/M04 A2993 970 75 -500 240/14 RMK AO2 T00001039
04850KAOH AOH20160102230011001/02/16 23:00:31  5-MIN KAOH 030400Z AUTO 23015KT 10SM CLR M01/M04 A2993 970 78 -600 240/15 RMK AO2 T10061039
04850KAOH AOH20160102230511601/02/16 23:05:31  5-MIN KAOH 030405Z AUTO 22012G20KT 10SM CLR M01/M04 A2992 970 78 -600 230/12G20 RMK AO2 T10061039
04850KAOH AOH20160102231011601/02/16 23:10:31  5-MIN KAOH 030410Z AUTO 23014G20KT 10SM CLR M01/M04 A2993 970 78 -600 230/14G20 RMK AO2 T10061039
04850KAOH AOH20160102231511001/02/16 23:15:31  5-MIN KAOH 030415Z AUTO 22014KT 10SM CLR M01/M04 A2992 980 78 -600 230/14 RMK AO2 T10061039
04850KAOH AOH20160102232011001/02/16 23:20:31  5-MIN KAOH 030420Z AUTO 23014KT 10SM CLR M01/M04 A2993 970 78 -600 240/14 RMK AO2 T10061039
04850KAOH AOH20160102232511001/02/16 23:25:31  5-MIN KAOH 030425Z AUTO 23015KT 10SM CLR M01/M04 A2993 970 78 -600 240/15 RMK AO2 T10061039
04850KAOH AOH20160102233011001/02/16 23:30:31  5-MIN KAOH 030430Z AUTO 24014KT 10SM CLR M01/M04 A2993 970 78 -600 240/14 RMK AO2 T10061039
04850KAOH AOH20160102233511001/02/16 23:35:31  5-MIN KAOH 030435Z AUTO 23015KT 10SM CLR M01/M04 A2993 970 78 -600 240/15 RMK AO2 T10061039
04850KAOH AOH20160102234011001/02/16 23:40:31  5-MIN KAOH 030440Z AUTO 23014KT 10SM CLR M01/M04 A2993 970 78 -600 240/14 RMK AO2 T10061039
04850KAOH AOH20160102234511001/02/16 23:45:31  5-MIN KAOH 030445Z AUTO 24014KT 10SM CLR M01/M04 A2993 970 78 -600 250/14 RMK AO2 T10061039
04850KAOH AOH20160102235012701/02/16 23:50:31  5-MIN KAOH 030450Z AUTO 23013KT 10SM CLR M01/M04 A2993 970 78 -600 240/13 RMK AO2 SLP144 T10061039 400111039
04850KAOH AOH20160102235511001/02/16 23:55:31  5-MIN KAOH 030455Z AUTO 23014KT 10SM CLR M01/M04 A2993 970 78 -600 240/14 RMK AO2 T10061039
04850KAOH AOH20160103000011001/03/16 00:00:31  5-MIN KAOH 030500Z AUTO 24014KT 10SM CLR M01/M04 A2993 970 78 -600 250/14 RMK AO2 T10061039
04850KAOH AOH20160103000511001/03/16 00:05:31  5-MIN KAOH 030505Z AUTO 25014KT 10SM CLR M01/M04 A2994 960 78 -600 260/14 RMK AO2 T10061039
04850KAOH AOH20160103001011001/03/16 00:10:31  5-MIN KAOH 030510Z AUTO 25014KT 10SM CLR M01/M04 A2994 960 78 -600 260/14 RMK AO2 T10061039
04850KAOH AOH20160103001511001/03/16 00:15:31  5-MIN KAOH 030515Z AUTO 24017KT 10SM CLR M01/M04 A2993 970 78 -600 250/17 RMK AO2 T10061039
04850KAOH AOH20160103002012301/03/16 00:20:31  5-MIN KAOH 030520Z AUTO 22014G22KT 10SM CLR M01/M04 A2991 990 78 -600 230/14G22 RMK AO2 PRESFR T10061039
04850KAOH AOH20160103002511601/03/16 00:25:31  5-MIN KAOH 030525Z AUTO 23015G22KT 10SM CLR M01/M04 A2990 990 78 -600 230/15G22 RMK AO2 T10061039
04850KAOH AOH20160103003011501/03/16 00:30:31  5-MIN KAOH 030530Z AUTO 23017G22KT 10SM CLR 00/M04 A2990 990 75 -500 240/17G22 RMK AO2 T00001039
04850KAOH AOH20160103003511101/03/16 00:35:31  5-MIN KAOH 030535Z AUTO 22016KT 10SM CLR M01/M04 A2990 1000 78 -600 230/16 RMK AO2 T10061039
04850KAOH AOH20160103004011501/03/16 00:40:31  5-MIN KAOH 030540Z AUTO 23018G24KT 10SM CLR 00/M04 A2990 990 75 -500 240/18G24 RMK AO2 T00001039
04850KAOH AOH20160103004511501/03/16 00:45:31  5-MIN KAOH 030545Z AUTO 23018G24KT 10SM CLR 00/M04 A2990 990 75 -500 240/18G24 RMK AO2 T00001039
04850KAOH AOH20160103005014101/03/16 00:50:31  5-MIN KAOH 030550Z AUTO 24017G23KT 10SM CLR 00/M04 A2990 1000 75 -500 240/17G23 RMK AO2 SLP135 T00001039 10006 21006 58019
04850KAOH AOH20160103005511601/03/16 00:55:31  5-MIN KAOH 030555Z AUTO 24013G22KT 10SM CLR M01/M04 A2990 990 78 -600 250/13G22 RMK AO2 T10061039
04850KAOH AOH20160103010011001/03/16 01:00:31  5-MIN KAOH 030600Z AUTO 24014KT 10SM CLR M01/M04 A2990 990 78 -600 250/14 RMK AO2 T10061039
04850KAOH AOH20160103010511101/03/16 01:05:31  5-MIN KAOH 030605Z AUTO 24015KT 10SM CLR M01/M04 A2990 1000 78 -600 250/15 RMK AO2 T10061039
04850KAOH AOH20160103011011101/03/16 01:10:31  5-MIN KAOH 030610Z AUTO 24014KT 10SM CLR M01/M04 A2990 1000 78 -600 250/14 RMK AO2 T10061039
04850KAOH AOH20160103011511101/03/16 01:15:31  5-MIN KAOH 030615Z AUTO 24016KT 10SM CLR M01/M04 A2990 1000 78 -600 240/16 RMK AO2 T10061039
04850KAOH AOH20160103012011701/03/16 01:20:31  5-MIN KAOH 030620Z AUTO 24017G23KT 10SM CLR M01/M04 A2989 1000 78 -600 240/17G23 RMK AO2 T10061039
04850KAOH AOH20160103012511701/03/16 01:25:31  5-MIN KAOH 030625Z AUTO 24015G23KT 10SM CLR M01/M04 A2989 1010 78 -600 240/15G23 RMK AO2 T10061039
04850KAOH AOH20160103013011601/03/16 01:30:31  5-MIN KAOH 030630Z AUTO 23016G23KT 10SM CLR 00/M04 A2989 1010 75 -500 240/16G23 RMK AO2 T00001039
04850KAOH AOH20160103013511001/03/16 01:35:31  5-MIN KAOH 030635Z AUTO 23017KT 10SM CLR 00/M04 A2989 1010 75 -500 240/17 RMK AO2 T00001039
04850KAOH AOH20160103014011601/03/16 01:40:31  5-MIN KAOH 030640Z AUTO 24015G22KT 10SM CLR 00/M04 A2989 1010 75 -500 250/15G22 RMK AO2 T00001039
04850KAOH AOH20160103014511101/03/16 01:45:31  5-MIN KAOH 030645Z AUTO 24014KT 10SM CLR M01/M04 A2989 1000 78 -600 250/14 RMK AO2 T10061039
04850KAOH AOH20160103015011801/03/16 01:50:31  5-MIN KAOH 030650Z AUTO 25016KT 10SM CLR M01/M04 A2989 1010 78 -600 250/16 RMK AO2 SLP130 T10061039
04850KAOH AOH20160103015511101/03/16 01:55:31  5-MIN KAOH 030655Z AUTO 25015KT 10SM CLR M01/M04 A2989 1010 78 -600 250/15 RMK AO2 T10061039
04850KAOH AOH20160103020011701/03/16 02:00:31  5-MIN KAOH 030700Z AUTO 25014G22KT 10SM CLR M01/M04 A2989 1000 78 -600 250/14G22 RMK AO2 T10061039
04850KAOH AOH20160103020511701/03/16 02:05:31  5-MIN KAOH 030705Z AUTO 25015G22KT 10SM CLR M01/M04 A2989 1000 78 -600 250/15G22 RMK AO2 T10061039
04850KAOH AOH20160103021011701/03/16 02:10:31  5-MIN KAOH 030710Z AUTO 25015G21KT 10SM CLR M01/M04 A2989 1010 78 -600 250/15G21 RMK AO2 T10061039
04850KAOH AOH20160103021511701/03/16 02:15:31  5-MIN KAOH 030715Z AUTO 25016G21KT 10SM CLR M01/M04 A2989 1000 78 -600 260/16G21 RMK AO2 T10061039
04850KAOH AOH20160103022011101/03/16 02:20:31  5-MIN KAOH 030720Z AUTO 25013KT 10SM CLR M01/M04 A2989 1000 78 -600 260/13 RMK AO2 T10061039
04850KAOH AOH20160103022511101/03/16 02:25:31  5-MIN KAOH 030725Z AUTO 25014KT 10SM CLR M01/M04 A2989 1000 78 -600 250/14 RMK AO2 T10061039
04850KAOH AOH20160103023011101/03/16 02:30:31  5-MIN KAOH 030730Z AUTO 25015KT 10SM CLR M01/M04 A2989 1000 78 -600 260/15 RMK AO2 T10061039
04850KAOH AOH20160103023511101/03/16 02:35:31  5-MIN KAOH 030735Z AUTO 25015KT 10SM CLR M01/M04 A2990 1000 78 -600 260/15 RMK AO2 T10061039
04850KAOH AOH20160103024011101/03/16 02:40:31  5-MIN KAOH 030740Z AUTO 25014KT 10SM CLR M01/M04 A2990 1000 78 -600 260/14 RMK AO2 T10061039
04850KAOH AOH20160103024511101/03/16 02:45:31  5-MIN KAOH 030745Z AUTO 25015KT 10SM CLR M01/M04 A2990 1000 78 -600 260/15 RMK AO2 T10061039
04850KAOH AOH20160103025011801/03/16 02:50:31  5-MIN KAOH 030750Z AUTO 25015KT 10SM CLR M01/M04 A2989 1000 78 -600 260/15 RMK AO2 SLP132 T10061039
04850KAOH AOH20160103025511101/03/16 02:55:31  5-MIN KAOH 030755Z AUTO 25015KT 10SM CLR M01/M04 A2990 1000 81 -600 250/15 RMK AO2 T10111039
04850KAOH AOH20160103030011101/03/16 03:00:31  5-MIN KAOH 030800Z AUTO 25014KT 10SM CLR M01/M04 A2990 1000 81 -600 260/14 RMK AO2 T10111039
04850KAOH AOH20160103030511101/03/16 03:05:31  5-MIN KAOH 030805Z AUTO 25014KT 10SM CLR M01/M04 A2990 1000 81 -600 260/14 RMK AO2 T10111039
04850KAOH AOH20160103031011001/03/16 03:10:31  5-MIN KAOH 030810Z AUTO 25013KT 10SM CLR M01/M04 A2990 990 81 -600 260/13 RMK AO2 T10111039
04850KAOH AOH20160103031511001/03/16 03:15:31  5-MIN KAOH 030815Z AUTO 26013KT 10SM CLR M01/M04 A2990 990 81 -600 260/13 RMK AO2 T10111039
04850KAOH AOH20160103032011001/03/16 03:20:31  5-MIN KAOH 030820Z AUTO 26013KT 10SM CLR M01/M04 A2990 990 81 -600 260/13 RMK AO2 T10111039
04850KAOH AOH20160103032511001/03/16 03:25:31  5-MIN KAOH 030825Z AUTO 26013KT 10SM CLR M01/M04 A2990 990 81 -600 260/13 RMK AO2 T10111039
04850KAOH AOH20160103033011101/03/16 03:30:31  5-MIN KAOH 030830Z AUTO 26013KT 10SM CLR M01/M04 A2990 1000 78 -600 260/13 RMK AO2 T10111044
04850KAOH AOH20160103033511001/03/16 03:35:31  5-MIN KAOH 030835Z AUTO 26011KT 10SM CLR M01/M04 A2990 990 78 -600 270/11 RMK AO2 T10111044
04850KAOH AOH20160103034011001/03/16 03:40:31  5-MIN KAOH 030840Z AUTO 26012KT 10SM CLR M01/M04 A2991 990 78 -600 270/12 RMK AO2 T10111044
04850KAOH AOH20160103034511001/03/16 03:45:31  5-MIN KAOH 030845Z AUTO 26014KT 10SM CLR M01/M04 A2990 990 78 -600 260/14 RMK AO2 T10111044
04850KAOH AOH20160103035013201/03/16 03:50:31  5-MIN KAOH 030850Z AUTO 26014G20KT 10SM SCT022 M01/M04 A2990 990 78 -600 260/14G20 RMK AO2 SLP135 T10111044 58013
04850KAOH AOH20160103035511401/03/16 03:55:31  5-MIN KAOH 030855Z AUTO 26014KT 10SM BKN020 M01/M04 A2990 1000 81 -600 260/14 RMK AO2 T10111039
04850KAOH AOH20160103040011301/03/16 04:00:31  5-MIN KAOH 030900Z AUTO 26014KT 10SM BKN020 M01/M04 A2990 990 81 -600 270/14 RMK AO2 T10111039
04850KAOH AOH20160103040511301/03/16 04:05:31  5-MIN KAOH 030905Z AUTO 26014KT 10SM BKN020 M01/M04 A2990 990 81 -600 270/14 RMK AO2 T10111039
04850KAOH AOH20160103041011301/03/16 04:10:31  5-MIN KAOH 030910Z AUTO 26015KT 10SM OVC020 M01/M04 A2990 990 81 -600 270/15 RMK AO2 T10111039
04850KAOH AOH20160103041511301/03/16 04:15:31  5-MIN KAOH 030915Z AUTO 26015KT 10SM OVC020 M01/M04 A2991 990 81 -600 270/15 RMK AO2 T10111039
04850KAOH AOH20160103042011901/03/16 04:20:31  5-MIN KAOH 030920Z AUTO 26016G22KT 10SM OVC019 M01/M04 A2991 990 81 -600 270/16G22 RMK AO2 T10111039
04850KAOH AOH20160103042511901/03/16 04:25:31  5-MIN KAOH 030925Z AUTO 28018G22KT 10SM OVC019 M01/M04 A2991 990 81 -700 280/18G22 RMK AO2 T10111039
04850KAOH AOH20160103043011301/03/16 04:30:31  5-MIN KAOH 030930Z AUTO 27015KT 10SM OVC018 M01/M04 A2991 990 81 -700 280/15 RMK AO2 T10111039
04850KAOH AOH20160103043511901/03/16 04:35:31  5-MIN KAOH 030935Z AUTO 27015G21KT 10SM OVC018 M01/M04 A2991 990 81 -700 280/15G21 RMK AO2 T10111039
04850KAOH AOH20160103044011901/03/16 04:40:31  5-MIN KAOH 030940Z AUTO 27012G21KT 10SM OVC018 M01/M04 A2991 990 78 -600 280/12G21 RMK AO2 T10061039
04850KAOH AOH20160103044511901/03/16 04:45:31  5-MIN KAOH 030945Z AUTO 28018G24KT 10SM OVC017 M01/M04 A2991 980 81 -700 290/18G24 RMK AO2 T10111039
04850KAOH AOH20160103045012601/03/16 04:50:31  5-MIN KAOH 030950Z AUTO 28013G24KT 10SM OVC017 M01/M04 A2992 980 78 -700 280/13G24 RMK AO2 SLP140 T10111044
04850KAOH AOH20160103045511301/03/16 04:55:31  5-MIN KAOH 030955Z AUTO 29015KT 10SM OVC017 M01/M04 A2992 980 78 -700 300/15 RMK AO2 T10111044
04850KAOH AOH20160103050011301/03/16 05:00:31  5-MIN KAOH 031000Z AUTO 29013KT 10SM OVC017 M01/M04 A2992 980 78 -700 290/13 RMK AO2 T10111044
04850KAOH AOH20160103050511901/03/16 05:05:31  5-MIN KAOH 031005Z AUTO 29013G20KT 10SM OVC017 M01/M04 A2992 980 78 -700 300/13G20 RMK AO2 T10111044
04850KAOH AOH20160103051011901/03/16 05:10:31  5-MIN KAOH 031010Z AUTO 29014G20KT 10SM OVC017 M01/M04 A2992 980 78 -700 300/14G20 RMK AO2 T10111044
04850KAOH AOH20160104191511401/04/16 19:15:31  5-MIN KAOH 050015Z AUTO 05009KT 10SM FEW021 M06/M10 A3050 450 74 -2000 060/09 RMK AO2 T10611100
04850KAOH AOH20160104192012101/04/16 19:20:31  5-MIN KAOH 050020Z AUTO 05009KT 10SM FEW021 FEW044 M06/M11 A3050 450 71 -2000 060/09 RMK AO2 T10611106
04850KAOH AOH20160104192511401/04/16 19:25:31  5-MIN KAOH 050025Z AUTO 06007KT 10SM FEW044 M06/M11 A3050 450 71 -2000 060/07 RMK AO2 T10611106
04850KAOH AOH20160104193011401/04/16 19:30:31  5-MIN KAOH 050030Z AUTO 06008KT 10SM FEW044 M06/M10 A3050 450 74 -2000 060/08 RMK AO2 T10611100
04850KAOH AOH20160104193511401/04/16 19:35:31  5-MIN KAOH 050035Z AUTO 06007KT 10SM FEW044 M06/M11 A3050 450 71 -2000 070/07 RMK AO2 T10611106
04850KAOH AOH20160104194011401/04/16 19:40:31  5-MIN KAOH 050040Z AUTO 06007KT 10SM FEW043 M07/M10 A3050 450 77 -2000 070/07 RMK AO2 T10671100
04850KAOH AOH20160104194511401/04/16 19:45:31  5-MIN KAOH 050045Z AUTO 06007KT 10SM FEW043 M07/M10 A3050 440 77 -2000 070/07 RMK AO2 T10671100
04850KAOH AOH20160104195012101/04/16 19:50:31  5-MIN KAOH 050050Z AUTO 07006KT 10SM FEW043 M07/M10 A3050 440 77 -2000 070/06 RMK AO2 SLP344 T10671100
04850KAOH AOH20160104195511401/04/16 19:55:31  5-MIN KAOH 050055Z AUTO 06007KT 10SM FEW043 M07/M10 A3050 440 77 -2000 070/07 RMK AO2 T10671100
04850KAOH AOH20160104200011101/04/16 20:00:31  5-MIN KAOH 050100Z AUTO 06006KT 10SM CLR M07/M10 A3051 440 77 -2000 070/06 RMK AO2 T10671100
04850KAOH AOH20160104200511101/04/16 20:05:31  5-MIN KAOH 050105Z AUTO 06007KT 10SM CLR M07/M11 A3051 440 74 -2000 070/07 RMK AO2 T10671106
04850KAOH AOH20160104201011101/04/16 20:10:31  5-MIN KAOH 050110Z AUTO 06006KT 10SM CLR M07/M11 A3051 440 74 -2100 060/06 RMK AO2 T10671106
04850KAOH AOH20160104201511101/04/16 20:15:31  5-MIN KAOH 050115Z AUTO 06006KT 10SM CLR M07/M11 A3051 440 74 -2100 070/06 RMK AO2 T10671106
04850KAOH AOH20160104202011101/04/16 20:20:31  5-MIN KAOH 050120Z AUTO 06005KT 10SM CLR M07/M10 A3051 440 81 -2100 070/05 RMK AO2 T10721100
04850KAOH AOH20160104202511101/04/16 20:25:31  5-MIN KAOH 050125Z AUTO 06005KT 10SM CLR M07/M11 A3051 430 77 -2100 070/05 RMK AO2 T10721106
04850KAOH AOH20160104203011101/04/16 20:30:31  5-MIN KAOH 050130Z AUTO 07005KT 10SM CLR M07/M11 A3052 430 77 -2100 070/05 RMK AO2 T10721106
04850KAOH AOH20160104203511101/04/16 20:35:31  5-MIN KAOH 050135Z AUTO 06004KT 10SM CLR M07/M11 A3052 430 77 -2100 070/04 RMK AO2 T10721106
04850KAOH AOH20160104204011101/04/16 20:40:31  5-MIN KAOH 050140Z AUTO 07004KT 10SM CLR M07/M11 A3052 430 77 -2100 070/04 RMK AO2 T10721106
04850KAOH AOH20160104204511101/04/16 20:45:31  5-MIN KAOH 050145Z AUTO 07004KT 10SM CLR M08/M11 A3052 430 80 -2200 070/04 RMK AO2 T10781106
04850KAOH AOH20160104205011801/04/16 20:50:31  5-MIN KAOH 050150Z AUTO 07005KT 10SM CLR M07/M11 A3052 430 77 -2100 070/05 RMK AO2 SLP351 T10721106
04850KAOH AOH20160104205511101/04/16 20:55:31  5-MIN KAOH 050155Z AUTO 07004KT 10SM CLR M07/M11 A3052 430 77 -2100 070/04 RMK AO2 T10721106
04850KAOH AOH20160104210011101/04/16 21:00:31  5-MIN KAOH 050200Z AUTO 06004KT 10SM CLR M08/M11 A3052 430 80 -2200 070/04 RMK AO2 T10781106
04850KAOH AOH20160104210511101/04/16 21:05:31  5-MIN KAOH 050205Z AUTO 06004KT 10SM CLR M08/M11 A3052 430 80 -2200 060/04 RMK AO2 T10781106
04850KAOH AOH20160104211011101/04/16 21:10:31  5-MIN KAOH 050210Z AUTO 05003KT 10SM CLR M08/M11 A3052 420 80 -2200 060/03 RMK AO2 T10781106
04850KAOH AOH20160104211511101/04/16 21:15:31  5-MIN KAOH 050215Z AUTO 05004KT 10SM CLR M07/M11 A3052 430 77 -2100 060/04 RMK AO2 T10721106
04850KAOH AOH20160104212011101/04/16 21:20:31  5-MIN KAOH 050220Z AUTO 06004KT 10SM CLR M08/M11 A3052 420 80 -2200 060/04 RMK AO2 T10781106
04850KAOH AOH20160104212511101/04/16 21:25:31  5-MIN KAOH 050225Z AUTO 06004KT 10SM CLR M08/M11 A3052 420 80 -2200 070/04 RMK AO2 T10781106
04850KAOH AOH20160104213011101/04/16 21:30:31  5-MIN KAOH 050230Z AUTO 06004KT 10SM CLR M08/M11 A3052 430 84 -2300 060/04 RMK AO2 T10831106
04850KAOH AOH20160104213511101/04/16 21:35:31  5-MIN KAOH 050235Z AUTO 06004KT 10SM CLR M08/M11 A3053 420 80 -2200 060/04 RMK AO2 T10781106
04850KAOH AOH20160104214011101/04/16 21:40:31  5-MIN KAOH 050240Z AUTO 00000KT 10SM CLR M08/M11 A3053 420 80 -2200 000/00 RMK AO2 T10781106
04850KAOH AOH20160104214511101/04/16 21:45:31  5-MIN KAOH 050245Z AUTO 06003KT 10SM CLR M08/M11 A3053 420 80 -2200 060/03 RMK AO2 T10781106
04850KAOH AOH20160104215012401/04/16 21:50:31  5-MIN KAOH 050250Z AUTO 06004KT 10SM CLR M08/M11 A3053 420 80 -2200 060/04 RMK AO2 SLP354 T10781106 53030
04850KAOH AOH20160104215511101/04/16 21:55:31  5-MIN KAOH 050255Z AUTO 00000KT 10SM CLR M08/M11 A3053 410 80 -2200 000/00 RMK AO2 T10781106
04850KAOH AOH20160104220011101/04/16 22:00:31  5-MIN KAOH 050300Z AUTO 06003KT 10SM CLR M08/M11 A3054 410 80 -2200 060/03 RMK AO2 T10781106
04850KAOH AOH20160104220511101/04/16 22:05:31  5-MIN KAOH 050305Z AUTO 06004KT 10SM CLR M08/M11 A3054 410 80 -2200 060/04 RMK AO2 T10781106
04850KAOH AOH20160104221011101/04/16 22:10:31  5-MIN KAOH 050310Z AUTO 06004KT 10SM CLR M08/M11 A3054 410 80 -2300 070/04 RMK AO2 T10831111
04850KAOH AOH20160104221511101/04/16 22:15:31  5-MIN KAOH 050315Z AUTO 06004KT 10SM CLR M08/M11 A3054 410 80 -2300 070/04 RMK AO2 T10831111
04850KAOH AOH20160104222011101/04/16 22:20:31  5-MIN KAOH 050320Z AUTO 06004KT 10SM CLR M08/M11 A3054 410 80 -2300 070/04 RMK AO2 T10831111
04850KAOH AOH20160104222511101/04/16 22:25:31  5-MIN KAOH 050325Z AUTO 06004KT 10SM CLR M08/M11 A3054 410 80 -2300 070/04 RMK AO2 T10831111
04850KAOH AOH20160104223011101/04/16 22:30:31  5-MIN KAOH 050330Z AUTO 06005KT 10SM CLR M08/M11 A3054 410 80 -2300 070/05 RMK AO2 T10831111
04850KAOH AOH20160104223511101/04/16 22:35:31  5-MIN KAOH 050335Z AUTO 07004KT 10SM CLR M08/M11 A3054 410 80 -2300 080/04 RMK AO2 T10831111
04850KAOH AOH20160104224011101/04/16 22:40:31  5-MIN KAOH 050340Z AUTO 08004KT 10SM CLR M08/M11 A3054 410 80 -2300 080/04 RMK AO2 T10831111
04850KAOH AOH20160104224511101/04/16 22:45:31  5-MIN KAOH 050345Z AUTO 07004KT 10SM CLR M08/M11 A3054 410 80 -2300 080/04 RMK AO2 T10831111
04850KAOH AOH20160104225011801/04/16 22:50:31  5-MIN KAOH 050350Z AUTO 07004KT 10SM CLR M08/M11 A3054 410 80 -2300 080/04 RMK AO2 SLP357 T10831111
04850KAOH AOH20160104225511101/04/16 22:55:31  5-MIN KAOH 050355Z AUTO 07004KT 10SM CLR M09/M11 A3054 410 84 -2400 080/04 RMK AO2 T10891111
04850KAOH AOH20160104230011101/04/16 23:00:31  5-MIN KAOH 050400Z AUTO 08003KT 10SM CLR M09/M11 A3054 400 84 -2400 080/03 RMK AO2 T10891111
04850KAOH AOH20160104230511101/04/16 23:05:31  5-MIN KAOH 050405Z AUTO 08003KT 10SM CLR M08/M11 A3055 400 80 -2300 080/03 RMK AO2 T10831111
04850KAOH AOH20160104231011101/04/16 23:10:31  5-MIN KAOH 050410Z AUTO 07003KT 10SM CLR M08/M11 A3055 400 80 -2300 070/03 RMK AO2 T10831111
04850KAOH AOH20160104231511101/04/16 23:15:31  5-MIN KAOH 050415Z AUTO 06003KT 10SM CLR M08/M11 A3055 400 80 -2300 070/03 RMK AO2 T10831111
04850KAOH AOH20160104232011101/04/16 23:20:31  5-MIN KAOH 050420Z AUTO 05003KT 10SM CLR M08/M11 A3055 400 80 -2300 060/03 RMK AO2 T10831111
04850KAOH AOH20160104232511101/04/16 23:25:31  5-MIN KAOH 050425Z AUTO 04003KT 10SM CLR M08/M11 A3056 400 80 -2300 050/03 RMK AO2 T10831111
04850KAOH AOH20160104233011101/04/16 23:30:31  5-MIN KAOH 050430Z AUTO 00000KT 10SM CLR M08/M11 A3056 390 80 -2300 000/00 RMK AO2 T10831111
04850KAOH AOH20160104233511101/04/16 23:35:31  5-MIN KAOH 050435Z AUTO 06003KT 10SM CLR M08/M11 A3056 390 80 -2300 070/03 RMK AO2 T10831111
04850KAOH AOH20160104234011101/04/16 23:40:31  5-MIN KAOH 050440Z AUTO 00000KT 10SM CLR M08/M11 A3056 390 80 -2300 000/00 RMK AO2 T10831111
04850KAOH AOH20160104234511101/04/16 23:45:31  5-MIN KAOH 050445Z AUTO 06003KT 10SM CLR M08/M11 A3056 390 80 -2300 060/03 RMK AO2 T10831111
04850KAOH AOH20160104235012801/04/16 23:50:31  5-MIN KAOH 050450Z AUTO 00000KT 10SM CLR M09/M11 A3056 390 84 -2400 000/00 RMK AO2 SLP365 T10891111 410171089
04850KAOH AOH20160104235511101/04/16 23:55:31  5-MIN KAOH 050455Z AUTO 00000KT 10SM CLR M09/M11 A3056 390 84 -2400 000/00 RMK AO2 T10891111
04850KAOH AOH20160105000011101/05/16 00:00:31  5-MIN KAOH 050500Z AUTO 05003KT 10SM CLR M09/M11 A3056 390 84 -2400 060/03 RMK AO2 T10891111
04850KAOH AOH20160105000511101/05/16 00:05:31  5-MIN KAOH 050505Z AUTO 00000KT 10SM CLR M09/M11 A3056 390 84 -2400 000/00 RMK AO2 T10891111
04850KAOH AOH20160105001011101/05/16 00:10:31  5-MIN KAOH 050510Z AUTO 00000KT 10SM CLR M09/M11 A3056 390 84 -2400 000/00 RMK AO2 T10891111
04850KAOH AOH20160105001511101/05/16 00:15:31  5-MIN KAOH 050515Z AUTO 00000KT 10SM CLR M09/M11 A3056 390 84 -2400 000/00 RMK AO2 T10891111
04850KAOH AOH20160105002011101/05/16 00:20:31  5-MIN KAOH 050520Z AUTO 00000KT 10SM CLR M09/M11 A3056 390 84 -2400 000/00 RMK AO2 T10891111
04850KAOH AOH20160105002511101/05/16 00:25:31  5-MIN KAOH 050525Z AUTO 00000KT 10SM CLR M09/M12 A3056 390 80 -2400 000/00 RMK AO2 T10891117
04850KAOH AOH20160105003011101/05/16 00:30:31  5-MIN KAOH 050530Z AUTO 00000KT 10SM CLR M09/M12 A3056 390 80 -2400 000/00 RMK AO2 T10891117
04850KAOH AOH20160105003511101/05/16 00:35:31  5-MIN KAOH 050535Z AUTO 00000KT 10SM CLR M09/M12 A3056 390 80 -2400 000/00 RMK AO2 T10891117
04850KAOH AOH20160105004011101/05/16 00:40:31  5-MIN KAOH 050540Z AUTO 00000KT 10SM CLR M09/M12 A3056 390 80 -2400 000/00 RMK AO2 T10891117
04850KAOH AOH20160105004511101/05/16 00:45:31  5-MIN KAOH 050545Z AUTO 00000KT 10SM CLR M09/M12 A3055 400 80 -2400 000/00 RMK AO2 T10891117
04850KAOH AOH20160105005013601/05/16 00:50:31  5-MIN KAOH 050550Z AUTO 00000KT 10SM CLR M09/M12 A3055 400 84 -2500 000/00 RMK AO2 SLP363 T10941117 11056 21094 51016
04850KAOH AOH20160105005511101/05/16 00:55:31  5-MIN KAOH 050555Z AUTO 00000KT 10SM CLR M09/M11 A3055 400 84 -2400 000/00 RMK AO2 T10891111
04850KAOH AOH20160105010011101/05/16 01:00:31  5-MIN KAOH 050600Z AUTO 00000KT 10SM CLR M09/M12 A3055 400 84 -2500 000/00 RMK AO2 T10941117
04850KAOH AOH20160105010511101/05/16 01:05:31  5-MIN KAOH 050605Z AUTO 00000KT 10SM CLR M09/M12 A3055 400 84 -2500 000/00 RMK AO2 T10941117
04850KAOH AOH20160105011011101/05/16 01:10:31  5-MIN KAOH 050610Z AUTO 00000KT 10SM CLR M09/M12 A3055 400 84 -2500 000/00 RMK AO2 T10941117
04850KAOH AOH20160105011511101/05/16 01:15:31  5-MIN KAOH 050615Z AUTO 00000KT 10SM CLR M09/M12 A3055 400 84 -2500 000/00 RMK AO2 T10941117
04850KAOH AOH20160105012011101/05/16 01:20:31  5-MIN KAOH 050620Z AUTO 00000KT 10SM CLR M09/M12 A3055 400 84 -2500 000/00 RMK AO2 T10941117
04850KAOH AOH20160105012511101/05/16 01:25:31  5-MIN KAOH 050625Z AUTO 00000KT 10SM CLR M09/M12 A3055 400 84 -2500 000/00 RMK AO2 T10941117
04850KAOH AOH20160105013011101/05/16 01:30:31  5-MIN KAOH 050630Z AUTO 00000KT 10SM CLR M09/M12 A3055 400 84 -2500 000/00 RMK AO2 T10941117
04850KAOH AOH20160105013511601/05/16 01:35:31  5-MIN KAOH 050635Z AUTO 00000KT 10SM CLR M09/M12 A3055 400 84 -2500 000/00 RMK AO2 T10941117 TSNO
04850KAOH AOH20160105014011601/05/16 01:40:31  5-MIN KAOH 050640Z AUTO 00000KT 10SM CLR M09/M12 A3056 390 84 -2500 000/00 RMK AO2 T10941117 TSNO
04850KAOH AOH20160105014511601/05/16 01:45:31  5-MIN KAOH 050645Z AUTO 00000KT 10SM CLR M09/M12 A3056 390 84 -2500 000/00 RMK AO2 T10941117 TSNO
04850KAOH AOH20160105015012301/05/16 01:50:31  5-MIN KAOH 050650Z AUTO 00000KT 10SM CLR M09/M12 A3056 390 84 -2500 000/00 RMK AO2 SLP364 T10941117 TSNO
04850KAOH AOH20160105015511601/05/16 01:55:31  5-MIN KAOH 050655Z AUTO 09003KT 10SM CLR M10/M12 A3056 390 88 -2500 100/03 RMK AO2 T11001117 TSNO
04850KAOH AOH20160105020012201/05/16 02:00:31  5-MIN KAOH 050700Z AUTO 10003KT 10SM CLR M09/M11 A3056 390 88 -2500 100/03 RMK AO2 I1000 T10941111 TSNO
04850KAOH AOH20160105020512201/05/16 02:05:31  5-MIN KAOH 050705Z AUTO 00000KT 10SM CLR M10/M11 A3056 390 92 -2500 000/00 RMK AO2 I1000 T11001111 TSNO
04850KAOH AOH20160105021012201/05/16 02:10:31  5-MIN KAOH 050710Z AUTO 09003KT 10SM CLR M09/M11 A3056 390 88 -2500 100/03 RMK AO2 I1000 T10941111 TSNO
04850KAOH AOH20160105021512201/05/16 02:15:31  5-MIN KAOH 050715Z AUTO 00000KT 10SM CLR M09/M12 A3056 390 84 -2500 000/00 RMK AO2 I1000 T10941117 TSNO
04850KAOH AOH20160105022012201/05/16 02:20:31  5-MIN KAOH 050720Z AUTO 10003KT 10SM CLR M09/M12 A3056 390 84 -2500 100/03 RMK AO2 I1000 T10941117 TSNO
04850KAOH AOH20160105022512201/05/16 02:25:31  5-MIN KAOH 050725Z AUTO 00000KT 10SM CLR M09/M12 A3056 390 84 -2500 000/00 RMK AO2 I1000 T10941117 TSNO
04850KAOH AOH20160105023012201/05/16 02:30:31  5-MIN KAOH 050730Z AUTO 00000KT 10SM CLR M09/M12 A3056 390 84 -2500 000/00 RMK AO2 I1000 T10941117 TSNO
04850KAOH AOH20160105023512201/05/16 02:35:31  5-MIN KAOH 050735Z AUTO 00000KT 10SM CLR M09/M11 A3057 390 88 -2500 000/00 RMK AO2 I1000 T10941111 TSNO
04850KAOH AOH20160105024012201/05/16 02:40:31  5-MIN KAOH 050740Z AUTO 11003KT 10SM CLR M09/M12 A3056 390 84 -2500 110/03 RMK AO2 I1000 T10941117 TSNO
04850KAOH AOH20160105024512201/05/16 02:45:31  5-MIN KAOH 050745Z AUTO 10005KT 10SM CLR M10/M12 A3056 390 84 -2600 110/05 RMK AO2 I1000 T11001122 TSNO
04850KAOH AOH20160105025012901/05/16 02:50:31  5-MIN KAOH 050750Z AUTO 10003KT 10SM CLR M10/M12 A3056 390 84 -2600 110/03 RMK AO2 SLP365 I1000 T11001122 TSNO
04850KAOH AOH20160105025511601/05/16 02:55:31  5-MIN KAOH 050755Z AUTO 11003KT 10SM CLR M10/M12 A3056 390 88 -2600 110/03 RMK AO2 T11001117 TSNO
04850KAOH AOH20160105030011601/05/16 03:00:31  5-MIN KAOH 050800Z AUTO 11005KT 10SM CLR M09/M12 A3056 390 84 -2500 120/05 RMK AO2 T10941117 TSNO
04850KAOH AOH20160105030511601/05/16 03:05:31  5-MIN KAOH 050805Z AUTO 11005KT 10SM CLR M09/M12 A3056 390 84 -2500 120/05 RMK AO2 T10941117 TSNO
04850KAOH AOH20160105031011601/05/16 03:10:31  5-MIN KAOH 050810Z AUTO 10006KT 10SM CLR M09/M12 A3056 390 84 -2500 110/06 RMK AO2 T10941117 TSNO
04850KAOH AOH20160105031511601/05/16 03:15:31  5-MIN KAOH 050815Z AUTO 10005KT 10SM CLR M09/M12 A3056 390 84 -2500 110/05 RMK AO2 T10941117 TSNO
04850KAOH AOH20160105032011601/05/16 03:20:31  5-MIN KAOH 050820Z AUTO 11005KT 10SM CLR M09/M12 A3056 390 84 -2500 110/05 RMK AO2 T10941117 TSNO
04850KAOH AOH20160105032511601/05/16 03:25:31  5-MIN KAOH 050825Z AUTO 11005KT 10SM CLR M09/M12 A3056 390 84 -2500 110/05 RMK AO2 T10941117 TSNO
04850KAOH AOH20160105033011601/05/16 03:30:31  5-MIN KAOH 050830Z AUTO 11006KT 10SM CLR M09/M12 A3056 390 84 -2500 110/06 RMK AO2 T10941117 TSNO
04850KAOH AOH20160105033511601/05/16 03:35:31  5-MIN KAOH 050835Z AUTO 11006KT 10SM CLR M09/M12 A3056 390 84 -2500 110/06 RMK AO2 T10941117 TSNO
04850KAOH AOH20160105034011601/05/16 03:40:31  5-MIN KAOH 050840Z AUTO 10006KT 10SM CLR M09/M12 A3056 390 84 -2500 110/06 RMK AO2 T10941117 TSNO
04850KAOH AOH20160105034511601/05/16 03:45:31  5-MIN KAOH 050845Z AUTO 10006KT 10SM CLR M09/M12 A3055 400 84 -2500 110/06 RMK AO2 T10941117 TSNO
04850KAOH AOH20160105035013501/05/16 03:50:31  5-MIN KAOH 050850Z AUTO 10006KT 10SM CLR M09/M12 A3055 400 84 -2500 110/06 RMK AO2 SLP363 I3/// T10941117 50006 TSNO
04850KAOH AOH20160105035511601/05/16 03:55:31  5-MIN KAOH 050855Z AUTO 11006KT 10SM CLR M09/M12 A3055 400 84 -2500 110/06 RMK AO2 T10941117 TSNO
04850KAOH AOH20160105040011601/05/16 04:00:31  5-MIN KAOH 050900Z AUTO 11006KT 10SM CLR M09/M12 A3055 400 84 -2500 120/06 RMK AO2 T10941117 TSNO
04850KAOH AOH20160105040511601/05/16 04:05:31  5-MIN KAOH 050905Z AUTO 10005KT 10SM CLR M09/M12 A3055 400 84 -2500 110/05 RMK AO2 T10941117 TSNO
04850KAOH AOH20160105041011601/05/16 04:10:31  5-MIN KAOH 050910Z AUTO 10005KT 10SM CLR M09/M12 A3055 400 84 -2500 110/05 RMK AO2 T10941117 TSNO
04850KAOH AOH20160105041511601/05/16 04:15:31  5-MIN KAOH 050915Z AUTO 11005KT 10SM CLR M09/M12 A3055 400 84 -2500 110/05 RMK AO2 T10941117 TSNO
04850KAOH AOH20160105042011601/05/16 04:20:31  5-MIN KAOH 050920Z AUTO 10005KT 10SM CLR M09/M12 A3054 400 84 -2500 110/05 RMK AO2 T10941117 TSNO
04850KAOH AOH20160105042511601/05/16 04:25:31  5-MIN KAOH 050925Z AUTO 10005KT 10SM CLR M09/M12 A3055 400 84 -2500 110/05 RMK AO2 T10941117 TSNO
04850KAOH AOH20160105043011601/05/16 04:30:31  5-MIN KAOH 050930Z AUTO 10005KT 10SM CLR M09/M12 A3055 400 84 -2500 110/05 RMK AO2 T10941117 TSNO
04850KAOH AOH20160105043511601/05/16 04:35:31  5-MIN KAOH 050935Z AUTO 11006KT 10SM CLR M09/M12 A3055 400 84 -2500 120/06 RMK AO2 T10941117 TSNO
04850KAOH AOH20160105044011601/05/16 04:40:31  5-MIN KAOH 050940Z AUTO 11006KT 10SM CLR M09/M12 A3055 400 84 -2500 110/06 RMK AO2 T10941117 TSNO
04850KAOH AOH20160105044511601/05/16 04:45:31  5-MIN KAOH 050945Z AUTO 11005KT 10SM CLR M09/M12 A3055 400 84 -2500 110/05 RMK AO2 T10941117 TSNO
04850KAOH AOH20160105045012301/05/16 04:50:31  5-MIN KAOH 050950Z AUTO 11004KT 10SM CLR M09/M12 A3055 400 84 -2500 120/04 RMK AO2 SLP362 T10941117 TSNO
04850KAOH AOH20160105045511601/05/16 04:55:31  5-MIN KAOH 050955Z AUTO 11005KT 10SM CLR M09/M12 A3055 400 80 -2500 120/05 RMK AO2 T10941122 TSNO
04850KAOH AOH20160105050011101/05/16 05:00:31  5-MIN KAOH 051000Z AUTO 11004KT 10SM CLR M09/M12 A3056 390 80 -2500 120/04 RMK AO2 T10941122
04850KAOH AOH20160105050511101/05/16 05:05:31  5-MIN KAOH 051005Z AUTO 11003KT 10SM CLR M09/M12 A3055 400 80 -2500 120/03 RMK AO2 T10941122
04850KAOH AOH20160105051011601/05/16 05:10:31  5-MIN KAOH 051010Z AUTO 11003KT 10SM CLR M09/M12 A3056 390 80 -2500 110/03 RMK AO2 T10941122 TSNO
04850KAOH AOH20160105051511601/05/16 05:15:31  5-MIN KAOH 051015Z AUTO 10004KT 10SM CLR M10/M12 A3056 390 84 -2500 110/04 RMK AO2 T11001122 TSNO
04850KAOH AOH20160105052011601/05/16 05:20:31  5-MIN KAOH 051020Z AUTO 10004KT 10SM CLR M10/M12 A3056 390 84 -2500 110/04 RMK AO2 T11001122 TSNO
04850KAOH AOH20160105052511601/05/16 05:25:31  5-MIN KAOH 051025Z AUTO 11003KT 10SM CLR M10/M12 A3056 390 84 -2600 110/03 RMK AO2 T11001122 TSNO
04850KAOH AOH20160105053011601/05/16 05:30:31  5-MIN KAOH 051030Z AUTO 00000KT 10SM CLR M10/M13 A3057 390 80 -2600 000/00 RMK AO2 T11001128 TSNO
04850KAOH AOH20160105053511601/05/16 05:35:31  5-MIN KAOH 051035Z AUTO 13003KT 10SM CLR M10/M13 A3057 390 80 -2600 140/03 RMK AO2 T11001128 TSNO
04850KAOH AOH20160105054011101/05/16 05:40:31  5-MIN KAOH 051040Z AUTO 12005KT 10SM CLR M10/M13 A3057 390 80 -2600 130/05 RMK AO2 T11001128
04850KAOH AOH20160105054511101/05/16 05:45:31  5-MIN KAOH 051045Z AUTO 12004KT 10SM CLR M10/M13 A3057 390 80 -2600 130/04 RMK AO2 T11001128
04850KAOH AOH20160105055011801/05/16 05:50:31  5-MIN KAOH 051050Z AUTO 13004KT 10SM CLR M10/M13 A3057 380 80 -2600 140/04 RMK AO2 SLP368 T11001128
04850KAOH AOH20160105055511101/05/16 05:55:31  5-MIN KAOH 051055Z AUTO 14003KT 10SM CLR M11/M13 A3057 380 84 -2600 140/03 RMK AO2 T11061128
04850KAOH AOH20160105060011101/05/16 06:00:31  5-MIN KAOH 051100Z AUTO 15003KT 10SM CLR M11/M13 A3057 380 84 -2600 160/03 RMK AO2 T11061128
04850KAOH AOH20160105060511101/05/16 06:05:31  5-MIN KAOH 051105Z AUTO 16003KT 10SM CLR M10/M13 A3057 380 80 -2600 170/03 RMK AO2 T11001128
04850KAOH AOH20160105061011101/05/16 06:10:31  5-MIN KAOH 051110Z AUTO 00000KT 10SM CLR M10/M13 A3057 380 80 -2600 000/00 RMK AO2 T11001128
04850KAOH AOH20160105061511101/05/16 06:15:31  5-MIN KAOH 051115Z AUTO 00000KT 10SM CLR M10/M13 A3058 380 80 -2600 000/00 RMK AO2 T11001128
04850KAOH AOH20160105062011101/05/16 06:20:31  5-MIN KAOH 051120Z AUTO 14003KT 10SM CLR M10/M13 A3058 370 80 -2600 150/03 RMK AO2 T11001128
04850KAOH AOH20160105062511101/05/16 06:25:31  5-MIN KAOH 051125Z AUTO 15003KT 10SM CLR M11/M13 A3058 370 84 -2600 150/03 RMK AO2 T11061128
04850KAOH AOH20160105063011101/05/16 06:30:31  5-MIN KAOH 051130Z AUTO 14004KT 10SM CLR M11/M13 A3058 380 80 -2600 140/04 RMK AO2 T11061133
04850KAOH AOH20160105063511101/05/16 06:35:31  5-MIN KAOH 051135Z AUTO 14005KT 10SM CLR M11/M13 A3058 370 84 -2700 150/05 RMK AO2 T11111133
04850KAOH AOH20160105064011101/05/16 06:40:31  5-MIN KAOH 051140Z AUTO 14006KT 10SM CLR M11/M13 A3058 370 80 -2600 140/06 RMK AO2 T11061133
04850KAOH AOH20160105064511101/05/16 06:45:31  5-MIN KAOH 051145Z AUTO 14005KT 10SM CLR M11/M13 A3058 370 84 -2600 140/05 RMK AO2 T11061128
04850KAOH AOH20160105065014201/05/16 06:50:31  5-MIN KAOH 051150Z AUTO 14006KT 10SM CLR M11/M13 A3058 370 84 -2600 150/06 RMK AO2 SLP374 I6000 T11061128 11089 21111 50000
04850KAOH AOH20160105065511101/05/16 06:55:31  5-MIN KAOH 051155Z AUTO 15003KT 10SM CLR M10/M13 A3058 370 80 -2600 150/03 RMK AO2 T11001128
04850KAOH AOH20160105070011101/05/16 07:00:31  5-MIN KAOH 051200Z AUTO 15003KT 10SM CLR M11/M13 A3058 370 84 -2600 150/03 RMK AO2 T11061128
04850KAOH AOH20160105070511101/05/16 07:05:31  5-MIN KAOH 051205Z AUTO 16003KT 10SM CLR M11/M13 A3059 370 84 -2700 160/03 RMK AO2 T11061128
04850KAOH AOH20160105071011101/05/16 07:10:31  5-MIN KAOH 051210Z AUTO 00000KT 10SM CLR M10/M13 A3059 360 80 -2600 000/00 RMK AO2 T11001128
04850KAOH AOH20160105071511101/05/16 07:15:31  5-MIN KAOH 051215Z AUTO 00000KT 10SM CLR M10/M13 A3059 360 80 -2600 000/00 RMK AO2 T11001128
04850KAOH AOH20160105072011101/05/16 07:20:31  5-MIN KAOH 051220Z AUTO 16003KT 10SM CLR M10/M13 A3059 360 80 -2600 160/03 RMK AO2 T11001128
04850KAOH AOH20160105072511101/05/16 07:25:31  5-MIN KAOH 051225Z AUTO 15003KT 10SM CLR M11/M13 A3059 360 84 -2700 160/03 RMK AO2 T11061128
04850KAOH AOH20160105073011101/05/16 07:30:31  5-MIN KAOH 051230Z AUTO 14004KT 10SM CLR M11/M13 A3059 360 84 -2700 150/04 RMK AO2 T11061128
04850KAOH AOH20160105073511101/05/16 07:35:31  5-MIN KAOH 051235Z AUTO 15004KT 10SM CLR M11/M13 A3059 360 88 -2700 150/04 RMK AO2 T11111128
04850KAOH AOH20160105074011101/05/16 07:40:31  5-MIN KAOH 051240Z AUTO 16003KT 10SM CLR M11/M13 A3059 360 84 -2700 160/03 RMK AO2 T11111133
04850KAOH AOH20160105074511101/05/16 07:45:31  5-MIN KAOH 051245Z AUTO 16003KT 10SM CLR M11/M13 A3059 360 84 -2700 170/03 RMK AO2 T11061128
04850KAOH AOH20160105075011801/05/16 07:50:31  5-MIN KAOH 051250Z AUTO 16003KT 10SM CLR M11/M13 A3059 360 84 -2700 160/03 RMK AO2 SLP377 T11061128
04850KAOH AOH20160105075511101/05/16 07:55:31  5-MIN KAOH 051255Z AUTO 16003KT 10SM CLR M11/M13 A3059 360 84 -2700 170/03 RMK AO2 T11061128
04850KAOH AOH20160105080011101/05/16 08:00:31  5-MIN KAOH 051300Z AUTO 15003KT 10SM CLR M11/M13 A3059 360 88 -2700 160/03 RMK AO2 T11111128
04850KAOH AOH20160105080511101/05/16 08:05:31  5-MIN KAOH 051305Z AUTO 16003KT 10SM CLR M11/M13 A3059 360 84 -2700 170/03 RMK AO2 T11111133
04850KAOH AOH20160105081011101/05/16 08:10:31  5-MIN KAOH 051310Z AUTO 17003KT 10SM CLR M11/M13 A3059 360 84 -2700 170/03 RMK AO2 T11061128
04850KAOH AOH20160105081511101/05/16 08:15:31  5-MIN KAOH 051315Z AUTO 17003KT 10SM CLR M11/M13 A3059 360 84 -2700 170/03 RMK AO2 T11061128
04850KAOH AOH20160105082011101/05/16 08:20:31  5-MIN KAOH 051320Z AUTO 17003KT 10SM CLR M11/M13 A3059 360 84 -2700 180/03 RMK AO2 T11061128
04850KAOH AOH20160105082511101/05/16 08:25:31  5-MIN KAOH 051325Z AUTO 16003KT 10SM CLR M11/M13 A3059 360 84 -2700 170/03 RMK AO2 T11061128
04850KAOH AOH20160105083011101/05/16 08:30:31  5-MIN KAOH 051330Z AUTO 15003KT 10SM CLR M11/M13 A3059 360 84 -2700 160/03 RMK AO2 T11061128
04850KAOH AOH20160105083511101/05/16 08:35:31  5-MIN KAOH 051335Z AUTO 16004KT 10SM CLR M11/M13 A3059 360 84 -2700 170/04 RMK AO2 T11061128
04850KAOH AOH20160105084011101/05/16 08:40:31  5-MIN KAOH 051340Z AUTO 16004KT 10SM CLR M11/M12 A3059 360 88 -2700 170/04 RMK AO2 T11061122
04850KAOH AOH20160105084511101/05/16 08:45:31  5-MIN KAOH 051345Z AUTO 16004KT 10SM CLR M10/M12 A3059 360 84 -2600 160/04 RMK AO2 T11001122
04850KAOH AOH20160105085011801/05/16 08:50:31  5-MIN KAOH 051350Z AUTO 16004KT 10SM CLR M09/M12 A3059 360 84 -2500 170/04 RMK AO2 SLP378 T10941117
04850KAOH AOH20160105085511101/05/16 08:55:31  5-MIN KAOH 051355Z AUTO 16005KT 10SM CLR M09/M12 A3060 360 84 -2500 170/05 RMK AO2 T10941117
04850KAOH AOH20160105090011101/05/16 09:00:31  5-MIN KAOH 051400Z AUTO 17006KT 10SM CLR M09/M12 A3060 360 84 -2500 170/06 RMK AO2 T10941117
04850KAOH AOH20160105090511101/05/16 09:05:31  5-MIN KAOH 051405Z AUTO 17006KT 10SM CLR M09/M12 A3060 360 84 -2500 180/06 RMK AO2 T10941117
04850KAOH AOH20160105091011101/05/16 09:10:31  5-MIN KAOH 051410Z AUTO 17006KT 10SM CLR M09/M12 A3060 350 80 -2400 180/06 RMK AO2 T10891117
04850KAOH AOH20160105091511101/05/16 09:15:31  5-MIN KAOH 051415Z AUTO 17006KT 10SM CLR M09/M12 A3060 350 80 -2500 180/06 RMK AO2 T10891117
04850KAOH AOH20160105092011101/05/16 09:20:31  5-MIN KAOH 051420Z AUTO 17006KT 10SM CLR M08/M12 A3060 350 77 -2400 180/06 RMK AO2 T10831117
04850KAOH AOH20160105092511101/05/16 09:25:31  5-MIN KAOH 051425Z AUTO 17008KT 10SM CLR M08/M11 A3060 350 80 -2400 170/08 RMK AO2 T10831111
04850KAOH AOH20160105093011101/05/16 09:30:31  5-MIN KAOH 051430Z AUTO 17009KT 10SM CLR M08/M11 A3061 350 80 -2400 170/09 RMK AO2 T10831111
04850KAOH AOH20160105093511101/05/16 09:35:31  5-MIN KAOH 051435Z AUTO 18007KT 10SM CLR M08/M11 A3061 350 80 -2400 180/07 RMK AO2 T10831111
04850KAOH AOH20160105094011101/05/16 09:40:31  5-MIN KAOH 051440Z AUTO 17010KT 10SM CLR M08/M11 A3061 340 77 -2300 180/10 RMK AO2 T10781111
04850KAOH AOH20160105094511101/05/16 09:45:31  5-MIN KAOH 051445Z AUTO 17009KT 10SM CLR M08/M12 A3061 340 74 -2300 180/09 RMK AO2 T10781117
04850KAOH AOH20160105095012401/05/16 09:50:31  5-MIN KAOH 051450Z AUTO 17009KT 10SM CLR M08/M11 A3061 340 77 -2300 170/09 RMK AO2 SLP384 T10781111 53009
04850KAOH AOH20160105095511101/05/16 09:55:31  5-MIN KAOH 051455Z AUTO 17007KT 10SM CLR M08/M11 A3061 340 77 -2300 180/07 RMK AO2 T10781111
04850KAOH AOH20160105100011101/05/16 10:00:31  5-MIN KAOH 051500Z AUTO 18007KT 10SM CLR M08/M11 A3061 340 77 -2300 190/07 RMK AO2 T10781111
04850KAOH AOH20160105100511101/05/16 10:05:31  5-MIN KAOH 051505Z AUTO 17009KT 10SM CLR M07/M11 A3061 340 74 -2200 180/09 RMK AO2 T10721111
04850KAOH AOH20160105101011101/05/16 10:10:31  5-MIN KAOH 051510Z AUTO 17009KT 10SM CLR M08/M11 A3062 340 77 -2300 180/09 RMK AO2 T10781111
04850KAOH AOH20160105101511101/05/16 10:15:31  5-MIN KAOH 051515Z AUTO 17007KT 10SM CLR M07/M11 A3062 340 74 -2300 180/07 RMK AO2 T10721111
04850KAOH AOH20160105102011101/05/16 10:20:31  5-MIN KAOH 051520Z AUTO 19009KT 10SM CLR M07/M11 A3062 340 77 -2300 190/09 RMK AO2 T10721106
04850KAOH AOH20160105102511101/05/16 10:25:31  5-MIN KAOH 051525Z AUTO 18010KT 10SM CLR M07/M11 A3062 330 74 -2300 180/10 RMK AO2 T10721111
04850KAOH AOH20160105103011101/05/16 10:30:31  5-MIN KAOH 051530Z AUTO 17010KT 10SM CLR M07/M11 A3062 330 77 -2300 180/10 RMK AO2 T10721106
04850KAOH AOH20160105103511101/05/16 10:35:31  5-MIN KAOH 051535Z AUTO 18007KT 10SM CLR M07/M11 A3062 330 77 -2300 190/07 RMK AO2 T10721106
04850KAOH AOH20160105104011101/05/16 10:40:31  5-MIN KAOH 051540Z AUTO 17009KT 10SM CLR M07/M11 A3062 330 74 -2200 180/09 RMK AO2 T10671106
04850KAOH AOH20160105104511101/05/16 10:45:31  5-MIN KAOH 051545Z AUTO 17009KT 10SM CLR M07/M11 A3062 340 74 -2200 170/09 RMK AO2 T10671106
04850KAOH AOH20160105105011801/05/16 10:50:31  5-MIN KAOH 051550Z AUTO 17009KT 10SM CLR M07/M11 A3062 330 74 -2200 180/09 RMK AO2 SLP387 T10671106
04850KAOH AOH20160105105511101/05/16 10:55:31  5-MIN KAOH 051555Z AUTO 17008KT 10SM CLR M07/M11 A3062 330 74 -2200 180/08 RMK AO2 T10671106
04850KAOH AOH20160105110011101/05/16 11:00:31  5-MIN KAOH 051600Z AUTO 18009KT 10SM CLR M07/M11 A3062 330 74 -2200 180/09 RMK AO2 T10671106
04850KAOH AOH20160105110511101/05/16 11:05:31  5-MIN KAOH 051605Z AUTO 17008KT 10SM CLR M06/M11 A3062 340 71 -2100 180/08 RMK AO2 T10611106
04850KAOH AOH20160105111011101/05/16 11:10:31  5-MIN KAOH 051610Z AUTO 19008KT 10SM CLR M06/M11 A3062 340 71 -2100 200/08 RMK AO2 T10611106
04850KAOH AOH20160105111511101/05/16 11:15:31  5-MIN KAOH 051615Z AUTO 20010KT 10SM CLR M06/M11 A3062 330 71 -2100 200/10 RMK AO2 T10611106
04850KAOH AOH20160105112011101/05/16 11:20:31  5-MIN KAOH 051620Z AUTO 19009KT 10SM CLR M06/M11 A3062 340 71 -2100 200/09 RMK AO2 T10611106
04850KAOH AOH20160105112511101/05/16 11:25:31  5-MIN KAOH 051625Z AUTO 18008KT 10SM CLR M06/M11 A3062 330 71 -2100 190/08 RMK AO2 T10611106
04850KAOH AOH20160105113011101/05/16 11:30:31  5-MIN KAOH 051630Z AUTO 17009KT 10SM CLR M06/M11 A3062 330 68 -2000 170/09 RMK AO2 T10561106
04850KAOH AOH20160105113511101/05/16 11:35:31  5-MIN KAOH 051635Z AUTO 19008KT 10SM CLR M06/M10 A3062 340 71 -2000 200/08 RMK AO2 T10561100
04850KAOH AOH20160105114011101/05/16 11:40:31  5-MIN KAOH 051640Z AUTO 17009KT 10SM CLR M06/M11 A3062 340 68 -2000 170/09 RMK AO2 T10561106
04850KAOH AOH20160105114511101/05/16 11:45:31  5-MIN KAOH 051645Z AUTO 20009KT 10SM CLR M06/M11 A3062 340 68 -2000 210/09 RMK AO2 T10561106
04850KAOH AOH20160105115011801/05/16 11:50:31  5-MIN KAOH 051650Z AUTO 18008KT 10SM CLR M06/M11 A3061 340 68 -2000 190/08 RMK AO2 SLP384 T10561106
04850KAOH AOH20160105115511101/05/16 11:55:31  5-MIN KAOH 051655Z AUTO 17007KT 10SM CLR M05/M10 A3061 350 68 -2000 170/07 RMK AO2 T10501100
04850KAOH AOH20160105120011101/05/16 12:00:31  5-MIN KAOH 051700Z AUTO 19007KT 10SM CLR M05/M10 A3061 350 68 -2000 200/07 RMK AO2 T10501100
04850KAOH AOH20160105120512701/05/16 12:05:31  5-MIN KAOH 051705Z AUTO 21007KT 170V230 10SM CLR M05/M10 A3061 350 68 -2000 210/07 180V240 RMK AO2 T10501100
04850KAOH AOH20160105121011101/05/16 12:10:31  5-MIN KAOH 051710Z AUTO 21007KT 10SM CLR M05/M11 A3061 350 65 -1900 210/07 RMK AO2 T10501106
04850KAOH AOH20160105121511101/05/16 12:15:31  5-MIN KAOH 051715Z AUTO 18008KT 10SM CLR M04/M10 A3060 350 65 -1900 190/08 RMK AO2 T10441100
04850KAOH AOH20160105122011101/05/16 12:20:31  5-MIN KAOH 051720Z AUTO 19006KT 10SM CLR M04/M11 A3060 360 62 -1900 200/06 RMK AO2 T10441106
04850KAOH AOH20160105122511101/05/16 12:25:31  5-MIN KAOH 051725Z AUTO VRB05KT 10SM CLR M04/M11 A3059 360 62 -1900 VRB/05 RMK AO2 T10441106
04850KAOH AOH20160105123011101/05/16 12:30:31  5-MIN KAOH 051730Z AUTO 20007KT 10SM CLR M04/M11 A3059 370 60 -1800 210/07 RMK AO2 T10391106
04850KAOH AOH20160105123511101/05/16 12:35:31  5-MIN KAOH 051735Z AUTO 20006KT 10SM CLR M04/M11 A3059 370 60 -1800 200/06 RMK AO2 T10391106
04850KAOH AOH20160105124011101/05/16 12:40:31  5-MIN KAOH 051740Z AUTO 18007KT 10SM CLR M04/M10 A3058 370 63 -1800 190/07 RMK AO2 T10391100
04850KAOH AOH20160105124511101/05/16 12:45:31  5-MIN KAOH 051745Z AUTO 17005KT 10SM CLR M04/M11 A3058 370 60 -1800 170/05 RMK AO2 T10391106
04850KAOH AOH20160105125013601/05/16 12:50:31  5-MIN KAOH 051750Z AUTO 21006KT 10SM CLR M04/M11 A3058 370 60 -1800 220/06 RMK AO2 SLP372 T10391106 11039 21111 53010
04850KAOH AOH20160105125511101/05/16 12:55:31  5-MIN KAOH 051755Z AUTO 19006KT 10SM CLR M03/M11 A3058 380 57 -1700 200/06 RMK AO2 T10331106
04850KAOH AOH20160105130011101/05/16 13:00:31  5-MIN KAOH 051800Z AUTO 18007KT 10SM CLR M03/M11 A3057 380 57 -1700 190/07 RMK AO2 T10331106
04850KAOH AOH20160105130511101/05/16 13:05:31  5-MIN KAOH 051805Z AUTO 19006KT 10SM CLR M03/M11 A3057 380 57 -1700 200/06 RMK AO2 T10331106
04850KAOH AOH20160105131011101/05/16 13:10:31  5-MIN KAOH 051810Z AUTO 19007KT 10SM CLR M03/M11 A3057 390 57 -1700 200/07 RMK AO2 T10331106
04850KAOH AOH20160105131511101/05/16 13:15:31  5-MIN KAOH 051815Z AUTO VRB06KT 10SM CLR M03/M11 A3056 390 57 -1700 VRB/06 RMK AO2 T10331106
04850KAOH AOH20160105132011101/05/16 13:20:31  5-MIN KAOH 051820Z AUTO 17008KT 10SM CLR M03/M10 A3056 390 60 -1700 180/08 RMK AO2 T10331100
04850KAOH AOH20160105132511101/05/16 13:25:31  5-MIN KAOH 051825Z AUTO 19006KT 10SM CLR M03/M10 A3056 390 58 -1600 190/06 RMK AO2 T10281100
04850KAOH AOH20160105133011101/05/16 13:30:31  5-MIN KAOH 051830Z AUTO 18005KT 10SM CLR M03/M10 A3056 390 58 -1600 190/05 RMK AO2 T10281100
04850KAOH AOH20160105133511101/05/16 13:35:31  5-MIN KAOH 051835Z AUTO 18006KT 10SM CLR M03/M10 A3055 400 58 -1600 190/06 RMK AO2 T10281100
04850KAOH AOH20160105134011101/05/16 13:40:31  5-MIN KAOH 051840Z AUTO VRB04KT 10SM CLR M03/M10 A3055 400 58 -1600 VRB/04 RMK AO2 T10281100
04850KAOH AOH20160105134511101/05/16 13:45:31  5-MIN KAOH 051845Z AUTO VRB06KT 10SM CLR M02/M10 A3055 400 55 -1500 VRB/06 RMK AO2 T10221100
04850KAOH AOH20160105135011801/05/16 13:50:31  5-MIN KAOH 051850Z AUTO 20006KT 10SM CLR M03/M10 A3055 400 58 -1600 210/06 RMK AO2 SLP359 T10281100
04850KAOH AOH20160105135511101/05/16 13:55:31  5-MIN KAOH 051855Z AUTO 18006KT 10SM CLR M02/M10 A3055 400 55 -1500 190/06 RMK AO2 T10221100
04850KAOH AOH20160105140011101/05/16 14:00:31  5-MIN KAOH 051900Z AUTO 20007KT 10SM CLR M03/M10 A3054 410 58 -1600 200/07 RMK AO2 T10281100
04850KAOH AOH20160105140511101/05/16 14:05:31  5-MIN KAOH 051905Z AUTO 18006KT 10SM CLR M02/M11 A3054 410 53 -1500 180/06 RMK AO2 T10221106
04850KAOH AOH20160105141011101/05/16 14:10:31  5-MIN KAOH 051910Z AUTO 17007KT 10SM CLR M02/M10 A3054 410 55 -1500 180/07 RMK AO2 T10221100
04850KAOH AOH20160105141511101/05/16 14:15:31  5-MIN KAOH 051915Z AUTO 18005KT 10SM CLR M02/M11 A3054 410 53 -1500 190/05 RMK AO2 T10221106
04850KAOH AOH20160105142011101/05/16 14:20:31  5-MIN KAOH 051920Z AUTO 18006KT 10SM CLR M02/M11 A3053 420 53 -1500 180/06 RMK AO2 T10221106
04850KAOH AOH20160105142511101/05/16 14:25:31  5-MIN KAOH 051925Z AUTO 18006KT 10SM CLR M02/M11 A3053 420 53 -1500 180/06 RMK AO2 T10221106
04850KAOH AOH20160105143011101/05/16 14:30:31  5-MIN KAOH 051930Z AUTO 17007KT 10SM CLR M02/M11 A3053 420 51 -1400 170/07 RMK AO2 T10171106
04850KAOH AOH20160105143511101/05/16 14:35:31  5-MIN KAOH 051935Z AUTO 17006KT 10SM CLR M02/M11 A3052 420 51 -1400 180/06 RMK AO2 T10171106
04850KAOH AOH20160105144011101/05/16 14:40:31  5-MIN KAOH 051940Z AUTO 17008KT 10SM CLR M02/M11 A3052 430 51 -1400 180/08 RMK AO2 T10171106
04850KAOH AOH20160105144511101/05/16 14:45:31  5-MIN KAOH 051945Z AUTO 16007KT 10SM CLR M02/M11 A3052 430 51 -1400 160/07 RMK AO2 T10171106
04850KAOH AOH20160105145011801/05/16 14:50:31  5-MIN KAOH 051950Z AUTO 15009KT 10SM CLR M01/M10 A3052 430 51 -1400 160/09 RMK AO2 SLP350 T10111100
04850KAOH AOH20160105145511101/05/16 14:55:31  5-MIN KAOH 051955Z AUTO 16009KT 10SM CLR M02/M10 A3052 430 53 -1400 160/09 RMK AO2 T10171100
04850KAOH AOH20160105150011101/05/16 15:00:31  5-MIN KAOH 052000Z AUTO 16009KT 10SM CLR M02/M11 A3051 430 51 -1400 160/09 RMK AO2 T10171106
04850KAOH AOH20160105150511101/05/16 15:05:31  5-MIN KAOH 052005Z AUTO 15011KT 10SM CLR M01/M11 A3051 440 49 -1300 160/11 RMK AO2 T10111106
04850KAOH AOH20160105151011101/05/16 15:10:31  5-MIN KAOH 052010Z AUTO 16008KT 10SM CLR M01/M11 A3051 440 47 -1300 170/08 RMK AO2 T10111111
04850KAOH AOH20160105151511101/05/16 15:15:31  5-MIN KAOH 052015Z AUTO 17007KT 10SM CLR M01/M11 A3050 440 47 -1300 180/07 RMK AO2 T10111111
04850KAOH AOH20160105152011101/05/16 15:20:31  5-MIN KAOH 052020Z AUTO 16007KT 10SM CLR M01/M11 A3050 440 47 -1300 160/07 RMK AO2 T10111111
04850KAOH AOH20160105152511101/05/16 15:25:31  5-MIN KAOH 052025Z AUTO 15009KT 10SM CLR M01/M11 A3050 440 49 -1300 160/09 RMK AO2 T10111106
04850KAOH AOH20160105153011101/05/16 15:30:31  5-MIN KAOH 052030Z AUTO 17008KT 10SM CLR M01/M11 A3050 440 47 -1300 170/08 RMK AO2 T10111111
04850KAOH AOH20160105153511101/05/16 15:35:31  5-MIN KAOH 052035Z AUTO 17008KT 10SM CLR M01/M11 A3050 440 49 -1300 170/08 RMK AO2 T10111106
04850KAOH AOH20160105154011101/05/16 15:40:31  5-MIN KAOH 052040Z AUTO 16008KT 10SM CLR M01/M11 A3050 440 49 -1300 170/08 RMK AO2 T10111106
04850KAOH AOH20160105154511101/05/16 15:45:31  5-MIN KAOH 052045Z AUTO 15008KT 10SM CLR M01/M11 A3050 450 47 -1300 150/08 RMK AO2 T10061106
04850KAOH AOH20160105155012401/05/16 15:50:31  5-MIN KAOH 052050Z AUTO 16007KT 10SM CLR M01/M10 A3050 450 51 -1300 170/07 RMK AO2 SLP342 T10111100 58012
04850KAOH AOH20160105155511101/05/16 15:55:31  5-MIN KAOH 052055Z AUTO 17008KT 10SM CLR M01/M11 A3050 450 49 -1300 180/08 RMK AO2 T10111106
04850KAOH AOH20160105160011101/05/16 16:00:31  5-MIN KAOH 052100Z AUTO 15009KT 10SM CLR M01/M11 A3049 450 49 -1300 150/09 RMK AO2 T10111106
04850KAOH AOH20160105160511101/05/16 16:05:31  5-MIN KAOH 052105Z AUTO 15008KT 10SM CLR M01/M11 A3049 450 49 -1300 150/08 RMK AO2 T10111106
04850KAOH AOH20160105161011101/05/16 16:10:31  5-MIN KAOH 052110Z AUTO 15009KT 10SM CLR M01/M11 A3049 450 49 -1300 160/09 RMK AO2 T10111106
04850KAOH AOH20160105161511101/05/16 16:15:31  5-MIN KAOH 052115Z AUTO 17008KT 10SM CLR M01/M11 A3049 450 47 -1300 180/08 RMK AO2 T10111111
04850KAOH AOH20160105162011101/05/16 16:20:31  5-MIN KAOH 052120Z AUTO 16005KT 10SM CLR M01/M11 A3049 450 49 -1300 170/05 RMK AO2 T10111106
04850KAOH AOH20160105162511101/05/16 16:25:31  5-MIN KAOH 052125Z AUTO 17006KT 10SM CLR M01/M11 A3049 460 49 -1300 170/06 RMK AO2 T10111106
04850KAOH AOH20160105163011101/05/16 16:30:31  5-MIN KAOH 052130Z AUTO 16008KT 10SM CLR M01/M11 A3049 460 49 -1300 170/08 RMK AO2 T10111106
04850KAOH AOH20160105163511101/05/16 16:35:31  5-MIN KAOH 052135Z AUTO 16008KT 10SM CLR M01/M11 A3049 460 49 -1300 170/08 RMK AO2 T10111106
04850KAOH AOH20160105164011101/05/16 16:40:31  5-MIN KAOH 052140Z AUTO 17006KT 10SM CLR M01/M11 A3049 460 49 -1300 180/06 RMK AO2 T10111106
04850KAOH AOH20160105164511101/05/16 16:45:31  5-MIN KAOH 052145Z AUTO 17007KT 10SM CLR M02/M11 A3049 460 51 -1400 180/07 RMK AO2 T10171106
04850KAOH AOH20160105165011801/05/16 16:50:31  5-MIN KAOH 052150Z AUTO 17008KT 10SM CLR M02/M11 A3049 460 51 -1400 170/08 RMK AO2 SLP339 T10171106
04850KAOH AOH20160105165511101/05/16 16:55:31  5-MIN KAOH 052155Z AUTO 16007KT 10SM CLR M02/M10 A3049 460 53 -1400 170/07 RMK AO2 T10171100
04850KAOH AOH20160105170011101/05/16 17:00:31  5-MIN KAOH 052200Z AUTO 16007KT 10SM CLR M02/M11 A3048 460 51 -1400 170/07 RMK AO2 T10171106
04850KAOH AOH20160105170511101/05/16 17:05:31  5-MIN KAOH 052205Z AUTO 17007KT 10SM CLR M02/M10 A3048 460 53 -1400 170/07 RMK AO2 T10171100
04850KAOH AOH20160105171011101/05/16 17:10:31  5-MIN KAOH 052210Z AUTO 18006KT 10SM CLR M02/M11 A3048 460 51 -1400 180/06 RMK AO2 T10171106
04850KAOH AOH20160105171511101/05/16 17:15:31  5-MIN KAOH 052215Z AUTO 17005KT 10SM CLR M02/M11 A3048 460 53 -1500 180/05 RMK AO2 T10221106
04850KAOH AOH20160105172011101/05/16 17:20:31  5-MIN KAOH 052220Z AUTO 17005KT 10SM CLR M02/M10 A3048 460 55 -1500 180/05 RMK AO2 T10221100
04850KAOH AOH20160105172511101/05/16 17:25:31  5-MIN KAOH 052225Z AUTO 17005KT 10SM CLR M02/M11 A3048 460 53 -1400 170/05 RMK AO2 T10221106
04850KAOH AOH20160105173011101/05/16 17:30:31  5-MIN KAOH 052230Z AUTO 17004KT 10SM CLR M03/M10 A3048 460 58 -1500 170/04 RMK AO2 T10281100
04850KAOH AOH20160105173511101/05/16 17:35:31  5-MIN KAOH 052235Z AUTO 17005KT 10SM CLR M03/M09 A3048 470 60 -1500 170/05 RMK AO2 T10281094
04850KAOH AOH20160105174011101/05/16 17:40:31  5-MIN KAOH 052240Z AUTO 16005KT 10SM CLR M03/M09 A3047 470 63 -1600 170/05 RMK AO2 T10331094
04850KAOH AOH20160105174511101/05/16 17:45:31  5-MIN KAOH 052245Z AUTO 17005KT 10SM CLR M03/M09 A3047 470 65 -1600 170/05 RMK AO2 T10331089
04850KAOH AOH20160105175011801/05/16 17:50:31  5-MIN KAOH 052250Z AUTO 17004KT 10SM CLR M03/M09 A3047 470 65 -1600 170/04 RMK AO2 SLP336 T10331089
04850KAOH AOH20160105175511101/05/16 17:55:31  5-MIN KAOH 052255Z AUTO 18004KT 10SM CLR M03/M09 A3047 470 63 -1600 190/04 RMK AO2 T10331094
04850KAOH AOH20160105180011101/05/16 18:00:31  5-MIN KAOH 052300Z AUTO 17003KT 10SM CLR M03/M10 A3047 470 60 -1600 170/03 RMK AO2 T10331100
04850KAOH AOH20160105180511101/05/16 18:05:31  5-MIN KAOH 052305Z AUTO 18004KT 10SM CLR M03/M10 A3047 470 60 -1600 180/04 RMK AO2 T10331100
04850KAOH AOH20160105181011101/05/16 18:10:31  5-MIN KAOH 052310Z AUTO 19004KT 10SM CLR M03/M10 A3047 470 60 -1600 190/04 RMK AO2 T10331100
04850KAOH AOH20160105181511101/05/16 18:15:31  5-MIN KAOH 052315Z AUTO 18005KT 10SM CLR M03/M11 A3047 470 55 -1500 190/05 RMK AO2 T10281106
04850KAOH AOH20160105182011101/05/16 18:20:31  5-MIN KAOH 052320Z AUTO 18004KT 10SM CLR M03/M10 A3047 470 60 -1600 190/04 RMK AO2 T10331100
04850KAOH AOH20160105182511101/05/16 18:25:31  5-MIN KAOH 052325Z AUTO 17005KT 10SM CLR M03/M10 A3047 470 60 -1600 180/05 RMK AO2 T10331100
04850KAOH AOH20160105183011101/05/16 18:30:31  5-MIN KAOH 052330Z AUTO 17005KT 10SM CLR M04/M10 A3047 470 63 -1700 180/05 RMK AO2 T10391100
04850KAOH AOH20160105183511101/05/16 18:35:31  5-MIN KAOH 052335Z AUTO 18005KT 10SM CLR M04/M10 A3047 470 63 -1700 180/05 RMK AO2 T10391100
04850KAOH AOH20160105184011101/05/16 18:40:31  5-MIN KAOH 052340Z AUTO 17005KT 10SM CLR M04/M11 A3047 470 60 -1700 180/05 RMK AO2 T10391106
04850KAOH AOH20160105184511101/05/16 18:45:31  5-MIN KAOH 052345Z AUTO 17006KT 10SM CLR M04/M09 A3047 470 68 -1700 170/06 RMK AO2 T10441094
04850KAOH AOH20160105185013601/05/16 18:50:31  5-MIN KAOH 052350Z AUTO 16006KT 10SM CLR M04/M09 A3047 470 68 -1700 170/06 RMK AO2 SLP334 T10441094 11006 21044 56026
04850KAOH AOH20160105185511101/05/16 18:55:31  5-MIN KAOH 052355Z AUTO 17006KT 10SM CLR M04/M09 A3046 480 68 -1700 170/06 RMK AO2 T10441094
04850KAOH AOH20160105190011101/05/16 19:00:31  5-MIN KAOH 060000Z AUTO 16007KT 10SM CLR M04/M09 A3046 480 71 -1700 170/07 RMK AO2 T10441089
04850KAOH AOH20160105190511101/05/16 19:05:31  5-MIN KAOH 060005Z AUTO 16007KT 10SM CLR M04/M09 A3046 480 71 -1700 170/07 RMK AO2 T10441089
04850KAOH AOH20160105191011101/05/16 19:10:31  5-MIN KAOH 060010Z AUTO 16007KT 10SM CLR M04/M09 A3046 480 68 -1700 170/07 RMK AO2 T10441094
04850KAOH AOH20160105191511101/05/16 19:15:31  5-MIN KAOH 060015Z AUTO 16007KT 10SM CLR M04/M09 A3046 480 68 -1700 160/07 RMK AO2 T10441094
04850KAOH AOH20160105192011101/05/16 19:20:31  5-MIN KAOH 060020Z AUTO 15008KT 10SM CLR M04/M09 A3046 480 68 -1700 160/08 RMK AO2 T10441094
04850KAOH AOH20160105192511101/05/16 19:25:31  5-MIN KAOH 060025Z AUTO 15008KT 10SM CLR M04/M10 A3046 480 65 -1700 150/08 RMK AO2 T10441100
04850KAOH AOH20160105193011101/05/16 19:30:31  5-MIN KAOH 060030Z AUTO 14008KT 10SM CLR M04/M10 A3046 480 65 -1700 150/08 RMK AO2 T10441100
04850KAOH AOH20160105193511101/05/16 19:35:31  5-MIN KAOH 060035Z AUTO 14008KT 10SM CLR M04/M10 A3046 480 65 -1700 150/08 RMK AO2 T10441100
04850KAOH AOH20160105194011101/05/16 19:40:31  5-MIN KAOH 060040Z AUTO 15008KT 10SM CLR M04/M10 A3046 480 65 -1700 150/08 RMK AO2 T10441100
04850KAOH AOH20160105194511101/05/16 19:45:31  5-MIN KAOH 060045Z AUTO 15008KT 10SM CLR M04/M10 A3046 480 63 -1600 160/08 RMK AO2 T10391100
04850KAOH AOH20160105195011801/05/16 19:50:31  5-MIN KAOH 060050Z AUTO 15008KT 10SM CLR M04/M10 A3046 480 63 -1600 160/08 RMK AO2 SLP331 T10391100
04850KAOH AOH20160105195511101/05/16 19:55:31  5-MIN KAOH 060055Z AUTO 16008KT 10SM CLR M04/M10 A3046 480 65 -1700 160/08 RMK AO2 T10441100
04850KAOH AOH20160105200011101/05/16 20:00:31  5-MIN KAOH 060100Z AUTO 15008KT 10SM CLR M05/M09 A3046 490 71 -1800 160/08 RMK AO2 T10501094
04850KAOH AOH20160105200511101/05/16 20:05:31  5-MIN KAOH 060105Z AUTO 15009KT 10SM CLR M04/M10 A3045 490 65 -1700 160/09 RMK AO2 T10441100
04850KAOH AOH20160105201011101/05/16 20:10:31  5-MIN KAOH 060110Z AUTO 15009KT 10SM CLR M04/M10 A3045 490 65 -1700 160/09 RMK AO2 T10441100
04850KAOH AOH20160105201511101/05/16 20:15:31  5-MIN KAOH 060115Z AUTO 16009KT 10SM CLR M04/M10 A3045 490 65 -1700 160/09 RMK AO2 T10441100
04850KAOH AOH20160105202011101/05/16 20:20:31  5-MIN KAOH 060120Z AUTO 15009KT 10SM CLR M04/M10 A3045 490 65 -1700 160/09 RMK AO2 T10441100
04850KAOH AOH20160105202511101/05/16 20:25:31  5-MIN KAOH 060125Z AUTO 15009KT 10SM CLR M04/M10 A3045 490 65 -1700 160/09 RMK AO2 T10441100
04850KAOH AOH20160105203011101/05/16 20:30:31  5-MIN KAOH 060130Z AUTO 15010KT 10SM CLR M04/M10 A3045 490 65 -1700 160/10 RMK AO2 T10441100
04850KAOH AOH20160105203511101/05/16 20:35:31  5-MIN KAOH 060135Z AUTO 15009KT 10SM CLR M04/M10 A3045 490 65 -1700 160/09 RMK AO2 T10441100
04850KAOH AOH20160105204011101/05/16 20:40:31  5-MIN KAOH 060140Z AUTO 16009KT 10SM CLR M04/M10 A3045 490 65 -1700 160/09 RMK AO2 T10441100
04850KAOH AOH20160105204511101/05/16 20:45:31  5-MIN KAOH 060145Z AUTO 16007KT 10SM CLR M05/M10 A3045 490 68 -1800 160/07 RMK AO2 T10501100
04850KAOH AOH20160105205011801/05/16 20:50:31  5-MIN KAOH 060150Z AUTO 16008KT 10SM CLR M05/M10 A3045 490 68 -1800 160/08 RMK AO2 SLP329 T10501100
04850KAOH AOH20160105205511101/05/16 20:55:31  5-MIN KAOH 060155Z AUTO 16008KT 10SM CLR M05/M10 A3045 490 68 -1800 160/08 RMK AO2 T10501100
04850KAOH AOH20160105210011101/05/16 21:00:31  5-MIN KAOH 060200Z AUTO 16008KT 10SM CLR M05/M10 A3045 490 68 -1800 160/08 RMK AO2 T10501100
04850KAOH AOH20160105210511101/05/16 21:05:31  5-MIN KAOH 060205Z AUTO 16007KT 10SM CLR M06/M10 A3045 490 71 -1800 160/07 RMK AO2 T10561100
04850KAOH AOH20160105211011101/05/16 21:10:31  5-MIN KAOH 060210Z AUTO 16007KT 10SM CLR M06/M10 A3046 490 71 -1800 170/07 RMK AO2 T10561100
04850KAOH AOH20160105211511101/05/16 21:15:31  5-MIN KAOH 060215Z AUTO 17006KT 10SM CLR M05/M10 A3046 490 68 -1800 180/06 RMK AO2 T10501100
04850KAOH AOH20160105212011101/05/16 21:20:31  5-MIN KAOH 060220Z AUTO 17007KT 10SM CLR M05/M11 A3046 480 65 -1800 180/07 RMK AO2 T10501106
04850KAOH AOH20160105212511101/05/16 21:25:31  5-MIN KAOH 060225Z AUTO 17008KT 10SM CLR M05/M11 A3046 490 65 -1800 180/08 RMK AO2 T10501106
04850KAOH AOH20160105213011101/05/16 21:30:31  5-MIN KAOH 060230Z AUTO 17009KT 10SM CLR M05/M11 A3046 480 65 -1800 180/09 RMK AO2 T10501106
04850KAOH AOH20160105213511101/05/16 21:35:31  5-MIN KAOH 060235Z AUTO 17007KT 10SM CLR M05/M11 A3046 480 65 -1800 180/07 RMK AO2 T10501106
04850KAOH AOH20160105214011101/05/16 21:40:31  5-MIN KAOH 060240Z AUTO 17006KT 10SM CLR M06/M11 A3046 480 68 -1900 180/06 RMK AO2 T10561106
04850KAOH AOH20160105214511101/05/16 21:45:31  5-MIN KAOH 060245Z AUTO 18006KT 10SM CLR M06/M11 A3046 480 68 -1800 180/06 RMK AO2 T10561106
04850KAOH AOH20160105215012401/05/16 21:50:31  5-MIN KAOH 060250Z AUTO 17006KT 10SM CLR M06/M11 A3045 490 68 -1800 180/06 RMK AO2 SLP330 T10561106 56010
04850KAOH AOH20160105215511101/05/16 21:55:31  5-MIN KAOH 060255Z AUTO 17007KT 10SM CLR M06/M11 A3045 490 68 -1800 180/07 RMK AO2 T10561106
04850KAOH AOH20160105220011101/05/16 22:00:31  5-MIN KAOH 060300Z AUTO 17007KT 10SM CLR M06/M11 A3045 490 68 -1800 170/07 RMK AO2 T10561106
04850KAOH AOH20160105220511101/05/16 22:05:31  5-MIN KAOH 060305Z AUTO 16007KT 10SM CLR M06/M11 A3045 490 71 -1900 170/07 RMK AO2 T10611106
04850KAOH AOH20160105221011101/05/16 22:10:31  5-MIN KAOH 060310Z AUTO 16007KT 10SM CLR M06/M11 A3045 490 71 -1900 170/07 RMK AO2 T10611106
04850KAOH AOH20160105221511101/05/16 22:15:31  5-MIN KAOH 060315Z AUTO 17007KT 10SM CLR M06/M11 A3045 490 71 -1900 170/07 RMK AO2 T10611106
04850KAOH AOH20160105222011101/05/16 22:20:31  5-MIN KAOH 060320Z AUTO 16008KT 10SM CLR M06/M11 A3045 490 71 -1900 170/08 RMK AO2 T10611106
04850KAOH AOH20160105222511101/05/16 22:25:31  5-MIN KAOH 060325Z AUTO 17009KT 10SM CLR M06/M11 A3044 500 71 -1900 170/09 RMK AO2 T10611106
04850KAOH AOH20160105223011101/05/16 22:30:31  5-MIN KAOH 060330Z AUTO 16009KT 10SM CLR M06/M11 A3044 500 71 -1900 170/09 RMK AO2 T10611106
04850KAOH AOH20160105223511101/05/16 22:35:31  5-MIN KAOH 060335Z AUTO 16009KT 10SM CLR M06/M11 A3044 500 71 -1900 160/09 RMK AO2 T10611106
04850KAOH AOH20160105224011101/05/16 22:40:31  5-MIN KAOH 060340Z AUTO 16008KT 10SM CLR M06/M11 A3044 500 71 -1900 170/08 RMK AO2 T10611106
04850KAOH AOH20160105224511101/05/16 22:45:31  5-MIN KAOH 060345Z AUTO 16009KT 10SM CLR M06/M11 A3044 500 71 -1900 170/09 RMK AO2 T10611106
04850KAOH AOH20160105225011801/05/16 22:50:31  5-MIN KAOH 060350Z AUTO 16009KT 10SM CLR M06/M11 A3044 500 71 -1900 160/09 RMK AO2 SLP323 T10611106
04850KAOH AOH20160105225511101/05/16 22:55:31  5-MIN KAOH 060355Z AUTO 16009KT 10SM CLR M06/M11 A3044 500 71 -1900 160/09 RMK AO2 T10611106
04850KAOH AOH20160105230011101/05/16 23:00:31  5-MIN KAOH 060400Z AUTO 16010KT 10SM CLR M06/M11 A3044 500 71 -1900 170/10 RMK AO2 T10611106
04850KAOH AOH20160105230511101/05/16 23:05:31  5-MIN KAOH 060405Z AUTO 16010KT 10SM CLR M06/M11 A3044 500 71 -1900 170/10 RMK AO2 T10611106
04850KAOH AOH20160105231011101/05/16 23:10:31  5-MIN KAOH 060410Z AUTO 16010KT 10SM CLR M06/M11 A3043 510 71 -1900 170/10 RMK AO2 T10611106
04850KAOH AOH20160105231511101/05/16 23:15:31  5-MIN KAOH 060415Z AUTO 16010KT 10SM CLR M06/M11 A3043 510 71 -1900 170/10 RMK AO2 T10611106
04850KAOH AOH20160105232011101/05/16 23:20:31  5-MIN KAOH 060420Z AUTO 16010KT 10SM CLR M06/M11 A3043 510 71 -1900 170/10 RMK AO2 T10611106
04850KAOH AOH20160105232511101/05/16 23:25:31  5-MIN KAOH 060425Z AUTO 16010KT 10SM CLR M06/M11 A3043 510 68 -1900 170/10 RMK AO2 T10611111
04850KAOH AOH20160105233011101/05/16 23:30:31  5-MIN KAOH 060430Z AUTO 16010KT 10SM CLR M06/M11 A3043 510 71 -1900 170/10 RMK AO2 T10611106
04850KAOH AOH20160105233511101/05/16 23:35:31  5-MIN KAOH 060435Z AUTO 16011KT 10SM CLR M06/M11 A3042 520 71 -1900 170/11 RMK AO2 T10611106
04850KAOH AOH20160105234011101/05/16 23:40:31  5-MIN KAOH 060440Z AUTO 16010KT 10SM CLR M06/M11 A3042 520 71 -1900 170/10 RMK AO2 T10611106
04850KAOH AOH20160105234511101/05/16 23:45:31  5-MIN KAOH 060445Z AUTO 16010KT 10SM CLR M06/M11 A3042 510 68 -1900 170/10 RMK AO2 T10611111
04850KAOH AOH20160105235012801/05/16 23:50:31  5-MIN KAOH 060450Z AUTO 17010KT 10SM CLR M06/M11 A3043 510 68 -1900 170/10 RMK AO2 SLP319 T10611111 410061111
04850KAOH AOH20160105235511101/05/16 23:55:31  5-MIN KAOH 060455Z AUTO 17010KT 10SM CLR M06/M11 A3043 510 65 -1800 170/10 RMK AO2 T10561111
04850KAOH AOH20160106000011101/06/16 00:00:31  5-MIN KAOH 060500Z AUTO 17010KT 10SM CLR M06/M11 A3043 510 65 -1800 180/10 RMK AO2 T10561111
04850KAOH AOH20160106000511101/06/16 00:05:31  5-MIN KAOH 060505Z AUTO 17010KT 10SM CLR M06/M11 A3043 510 65 -1800 170/10 RMK AO2 T10561111
04850KAOH AOH20160106001011101/06/16 00:10:31  5-MIN KAOH 060510Z AUTO 16010KT 10SM CLR M06/M11 A3043 510 65 -1800 170/10 RMK AO2 T10561111
04850KAOH AOH20160106001511101/06/16 00:15:31  5-MIN KAOH 060515Z AUTO 17009KT 10SM CLR M06/M11 A3043 510 68 -1900 170/09 RMK AO2 T10611111
04850KAOH AOH20160106002011101/06/16 00:20:31  5-MIN KAOH 060520Z AUTO 17009KT 10SM CLR M06/M11 A3043 510 68 -1900 170/09 RMK AO2 T10611111
04850KAOH AOH20160106002511101/06/16 00:25:31  5-MIN KAOH 060525Z AUTO 17010KT 10SM CLR M06/M11 A3043 510 68 -1900 170/10 RMK AO2 T10611111
04850KAOH AOH20160106003011101/06/16 00:30:31  5-MIN KAOH 060530Z AUTO 17010KT 10SM CLR M06/M11 A3042 510 65 -1800 170/10 RMK AO2 T10561111
04850KAOH AOH20160106003511101/06/16 00:35:31  5-MIN KAOH 060535Z AUTO 17008KT 10SM CLR M06/M11 A3043 510 65 -1800 180/08 RMK AO2 T10561111
04850KAOH AOH20160106004011101/06/16 00:40:31  5-MIN KAOH 060540Z AUTO 17008KT 10SM CLR M06/M11 A3042 520 68 -1900 170/08 RMK AO2 T10611111
04850KAOH AOH20160106004511101/06/16 00:45:31  5-MIN KAOH 060545Z AUTO 17008KT 10SM CLR M06/M11 A3042 520 68 -1900 180/08 RMK AO2 T10611111
04850KAOH AOH20160106005013601/06/16 00:50:31  5-MIN KAOH 060550Z AUTO 17009KT 10SM CLR M06/M11 A3042 520 68 -1900 170/09 RMK AO2 SLP316 T10611111 11039 21061 55004
04850KAOH AOH20160106005511101/06/16 00:55:31  5-MIN KAOH 060555Z AUTO 16009KT 10SM CLR M07/M11 A3042 520 71 -1900 170/09 RMK AO2 T10671111
04850KAOH AOH20160106010011101/06/16 01:00:31  5-MIN KAOH 060600Z AUTO 16009KT 10SM CLR M07/M11 A3042 520 71 -1900 170/09 RMK AO2 T10671111
04850KAOH AOH20160106010511101/06/16 01:05:31  5-MIN KAOH 060605Z AUTO 16011KT 10SM CLR M06/M11 A3042 520 68 -1900 170/11 RMK AO2 T10611111
04850KAOH AOH20160106011011101/06/16 01:10:31  5-MIN KAOH 060610Z AUTO 16010KT 10SM CLR M06/M11 A3041 520 68 -1900 170/10 RMK AO2 T10611111
04850KAOH AOH20160106011511101/06/16 01:15:31  5-MIN KAOH 060615Z AUTO 17009KT 10SM CLR M06/M11 A3041 530 68 -1900 170/09 RMK AO2 T10611111
04850KAOH AOH20160106012011101/06/16 01:20:31  5-MIN KAOH 060620Z AUTO 17009KT 10SM CLR M06/M11 A3041 530 68 -1900 170/09 RMK AO2 T10611111
04850KAOH AOH20160106012511101/06/16 01:25:31  5-MIN KAOH 060625Z AUTO 17009KT 10SM CLR M06/M11 A3041 530 68 -1900 180/09 RMK AO2 T10611111
04850KAOH AOH20160106013011101/06/16 01:30:31  5-MIN KAOH 060630Z AUTO 17008KT 10SM CLR M06/M11 A3041 520 68 -1900 180/08 RMK AO2 T10611111
04850KAOH AOH20160106013511101/06/16 01:35:31  5-MIN KAOH 060635Z AUTO 17008KT 10SM CLR M06/M12 A3041 520 65 -1900 180/08 RMK AO2 T10611117
04850KAOH AOH20160106014011101/06/16 01:40:31  5-MIN KAOH 060640Z AUTO 17008KT 10SM CLR M06/M12 A3041 520 65 -1900 180/08 RMK AO2 T10611117
04850KAOH AOH20160106014511101/06/16 01:45:31  5-MIN KAOH 060645Z AUTO 18007KT 10SM CLR M06/M12 A3041 520 65 -1900 180/07 RMK AO2 T10611117
04850KAOH AOH20160106015011801/06/16 01:50:31  5-MIN KAOH 060650Z AUTO 17007KT 10SM CLR M06/M12 A3041 520 65 -1900 180/07 RMK AO2 SLP313 T10611117
04850KAOH AOH20160106015511101/06/16 01:55:31  5-MIN KAOH 060655Z AUTO 17007KT 10SM CLR M06/M12 A3041 530 65 -1900 180/07 RMK AO2 T10611117
04850KAOH AOH20160106020011101/06/16 02:00:31  5-MIN KAOH 060700Z AUTO 18006KT 10SM CLR M06/M12 A3041 520 65 -1900 180/06 RMK AO2 T10611117
04850KAOH AOH20160106020511101/06/16 02:05:31  5-MIN KAOH 060705Z AUTO 17007KT 10SM CLR M06/M12 A3041 520 65 -1900 180/07 RMK AO2 T10611117
04850KAOH AOH20160106021011101/06/16 02:10:31  5-MIN KAOH 060710Z AUTO 17007KT 10SM CLR M06/M12 A3041 530 65 -1900 180/07 RMK AO2 T10611117
04850KAOH AOH20160106021511101/06/16 02:15:31  5-MIN KAOH 060715Z AUTO 17008KT 10SM CLR M06/M12 A3041 530 65 -1900 180/08 RMK AO2 T10611117
04850KAOH AOH20160106022011101/06/16 02:20:31  5-MIN KAOH 060720Z AUTO 17007KT 10SM CLR M07/M12 A3041 530 68 -1900 180/07 RMK AO2 T10671117
04850KAOH AOH20160106022511101/06/16 02:25:31  5-MIN KAOH 060725Z AUTO 17007KT 10SM CLR M06/M12 A3041 530 65 -1900 180/07 RMK AO2 T10611117
04850KAOH AOH20160106023011101/06/16 02:30:31  5-MIN KAOH 060730Z AUTO 17007KT 10SM CLR M06/M12 A3041 530 65 -1900 180/07 RMK AO2 T10611117
04850KAOH AOH20160106023511101/06/16 02:35:31  5-MIN KAOH 060735Z AUTO 17006KT 10SM CLR M06/M12 A3041 530 65 -1900 180/06 RMK AO2 T10611117
04850KAOH AOH20160106024011101/06/16 02:40:31  5-MIN KAOH 060740Z AUTO 17006KT 10SM CLR M07/M12 A3041 530 68 -1900 180/06 RMK AO2 T10671117
04850KAOH AOH20160106024511101/06/16 02:45:31  5-MIN KAOH 060745Z AUTO 17007KT 10SM CLR M07/M12 A3041 530 68 -1900 180/07 RMK AO2 T10671117
04850KAOH AOH20160106025011801/06/16 02:50:31  5-MIN KAOH 060750Z AUTO 17007KT 10SM CLR M07/M12 A3041 530 68 -1900 180/07 RMK AO2 SLP311 T10671117
04850KAOH AOH20160106025511101/06/16 02:55:31  5-MIN KAOH 060755Z AUTO 17006KT 10SM CLR M07/M12 A3041 530 68 -1900 180/06 RMK AO2 T10671117
04850KAOH AOH20160106030011101/06/16 03:00:31  5-MIN KAOH 060800Z AUTO 17007KT 10SM CLR M07/M12 A3041 530 68 -1900 180/07 RMK AO2 T10671117
04850KAOH AOH20160106030511101/06/16 03:05:31  5-MIN KAOH 060805Z AUTO 17007KT 10SM CLR M07/M12 A3041 530 68 -1900 170/07 RMK AO2 T10671117
04850KAOH AOH20160106031011101/06/16 03:10:31  5-MIN KAOH 060810Z AUTO 17007KT 10SM CLR M07/M12 A3041 530 68 -1900 170/07 RMK AO2 T10671117
04850KAOH AOH20160106031511101/06/16 03:15:31  5-MIN KAOH 060815Z AUTO 17007KT 10SM CLR M07/M12 A3041 530 68 -1900 180/07 RMK AO2 T10671117
04850KAOH AOH20160106032011101/06/16 03:20:31  5-MIN KAOH 060820Z AUTO 17007KT 10SM CLR M07/M12 A3041 530 68 -1900 170/07 RMK AO2 T10671117
04850KAOH AOH20160106032511101/06/16 03:25:31  5-MIN KAOH 060825Z AUTO 17008KT 10SM CLR M07/M12 A3040 530 68 -1900 170/08 RMK AO2 T10671117
04850KAOH AOH20160106033011101/06/16 03:30:31  5-MIN KAOH 060830Z AUTO 17007KT 10SM CLR M07/M12 A3041 530 71 -2000 170/07 RMK AO2 T10721117
04850KAOH AOH20160106033511101/06/16 03:35:31  5-MIN KAOH 060835Z AUTO 17006KT 10SM CLR M07/M12 A3041 530 68 -1900 180/06 RMK AO2 T10671117
04850KAOH AOH20160106034011101/06/16 03:40:31  5-MIN KAOH 060840Z AUTO 17006KT 10SM CLR M07/M12 A3041 530 68 -1900 180/06 RMK AO2 T10671117
04850KAOH AOH20160106034511101/06/16 03:45:31  5-MIN KAOH 060845Z AUTO 17006KT 10SM CLR M07/M12 A3041 530 68 -1900 180/06 RMK AO2 T10671117
04850KAOH AOH20160106035012401/06/16 03:50:31  5-MIN KAOH 060850Z AUTO 18006KT 10SM CLR M07/M12 A3041 530 65 -1900 180/06 RMK AO2 SLP311 T10671122 56012
04850KAOH AOH20160106035511101/06/16 03:55:31  5-MIN KAOH 060855Z AUTO 17006KT 10SM CLR M07/M12 A3041 530 65 -1900 180/06 RMK AO2 T10671122
04850KAOH AOH20160106040011101/06/16 04:00:31  5-MIN KAOH 060900Z AUTO 18006KT 10SM CLR M07/M12 A3041 530 68 -2000 180/06 RMK AO2 T10721122
04850KAOH AOH20160106040511101/06/16 04:05:31  5-MIN KAOH 060905Z AUTO 18005KT 10SM CLR M07/M12 A3041 530 65 -1900 180/05 RMK AO2 T10671122
04850KAOH AOH20160106041011101/06/16 04:10:31  5-MIN KAOH 060910Z AUTO 17005KT 10SM CLR M07/M12 A3041 530 65 -1900 180/05 RMK AO2 T10671122
04850KAOH AOH20160106041511101/06/16 04:15:31  5-MIN KAOH 060915Z AUTO 17005KT 10SM CLR M07/M12 A3041 530 68 -2000 180/05 RMK AO2 T10721122
04850KAOH AOH20160106042011101/06/16 04:20:31  5-MIN KAOH 060920Z AUTO 17005KT 10SM CLR M07/M12 A3041 530 68 -2000 180/05 RMK AO2 T10721122
04850KAOH AOH20160106042511101/06/16 04:25:31  5-MIN KAOH 060925Z AUTO 17005KT 10SM CLR M07/M12 A3041 530 68 -2000 180/05 RMK AO2 T10721122
04850KAOH AOH20160106043011101/06/16 04:30:31  5-MIN KAOH 060930Z AUTO 17005KT 10SM CLR M07/M12 A3040 530 68 -2000 170/05 RMK AO2 T10721122
04850KAOH AOH20160106043511101/06/16 04:35:31  5-MIN KAOH 060935Z AUTO 17005KT 10SM CLR M08/M12 A3040 530 71 -2100 170/05 RMK AO2 T10781122
04850KAOH AOH20160106044011101/06/16 04:40:31  5-MIN KAOH 060940Z AUTO 17005KT 10SM CLR M08/M12 A3040 530 71 -2100 170/05 RMK AO2 T10781122
04850KAOH AOH20160106044511101/06/16 04:45:31  5-MIN KAOH 060945Z AUTO 17005KT 10SM CLR M08/M12 A3040 540 71 -2100 180/05 RMK AO2 T10781122
04850KAOH AOH20160106045011801/06/16 04:50:31  5-MIN KAOH 060950Z AUTO 17005KT 10SM CLR M08/M12 A3040 540 71 -2100 170/05 RMK AO2 SLP309 T10781122
04850KAOH AOH20160106045511101/06/16 04:55:31  5-MIN KAOH 060955Z AUTO 17006KT 10SM CLR M08/M12 A3040 540 71 -2100 180/06 RMK AO2 T10781122
04850KAOH AOH20160106050011101/06/16 05:00:31  5-MIN KAOH 061000Z AUTO 17006KT 10SM CLR M07/M12 A3040 540 68 -2000 180/06 RMK AO2 T10721122
04850KAOH AOH20160106050511101/06/16 05:05:31  5-MIN KAOH 061005Z AUTO 18007KT 10SM CLR M07/M12 A3040 540 68 -2000 180/07 RMK AO2 T10721122
04850KAOH AOH20160106051011101/06/16 05:10:31  5-MIN KAOH 061010Z AUTO 18007KT 10SM CLR M07/M12 A3040 540 68 -2000 180/07 RMK AO2 T10721122
04850KAOH AOH20160106051511101/06/16 05:15:31  5-MIN KAOH 061015Z AUTO 17007KT 10SM CLR M07/M12 A3039 540 68 -2000 180/07 RMK AO2 T10721122
04850KAOH AOH20160106052011101/06/16 05:20:31  5-MIN KAOH 061020Z AUTO 18007KT 10SM CLR M07/M12 A3039 540 65 -1900 180/07 RMK AO2 T10671122
04850KAOH AOH20160106052511101/06/16 05:25:31  5-MIN KAOH 061025Z AUTO 18007KT 10SM CLR M07/M12 A3039 540 65 -1900 180/07 RMK AO2 T10671122
04850KAOH AOH20160106053011101/06/16 05:30:31  5-MIN KAOH 061030Z AUTO 18007KT 10SM CLR M07/M12 A3039 540 65 -1900 190/07 RMK AO2 T10671122
04850KAOH AOH20160106053511101/06/16 05:35:31  5-MIN KAOH 061035Z AUTO 18009KT 10SM CLR M07/M12 A3039 540 65 -1900 190/09 RMK AO2 T10671122
04850KAOH AOH20160106054011101/06/16 05:40:31  5-MIN KAOH 061040Z AUTO 18008KT 10SM CLR M06/M12 A3039 540 62 -1800 190/08 RMK AO2 T10611122
04850KAOH AOH20160106054511101/06/16 05:45:31  5-MIN KAOH 061045Z AUTO 18008KT 10SM CLR M06/M12 A3039 540 62 -1800 190/08 RMK AO2 T10611122
04850KAOH AOH20160106055011801/06/16 05:50:31  5-MIN KAOH 061050Z AUTO 18007KT 10SM CLR M06/M12 A3039 540 62 -1900 190/07 RMK AO2 SLP307 T10611122
04850KAOH AOH20160106055511101/06/16 05:55:31  5-MIN KAOH 061055Z AUTO 19008KT 10SM CLR M06/M12 A3040 540 62 -1900 190/08 RMK AO2 T10611122
04850KAOH AOH20160106060011101/06/16 06:00:31  5-MIN KAOH 061100Z AUTO 19008KT 10SM CLR M06/M12 A3040 540 62 -1900 190/08 RMK AO2 T10611122
04850KAOH AOH20160106060511101/06/16 06:05:31  5-MIN KAOH 061105Z AUTO 19009KT 10SM CLR M06/M12 A3040 540 62 -1900 190/09 RMK AO2 T10611122
04850KAOH AOH20160106061011101/06/16 06:10:31  5-MIN KAOH 061110Z AUTO 19009KT 10SM CLR M06/M12 A3040 540 62 -1900 190/09 RMK AO2 T10611122
04850KAOH AOH20160106061511101/06/16 06:15:31  5-MIN KAOH 061115Z AUTO 19009KT 10SM CLR M06/M12 A3040 540 62 -1900 190/09 RMK AO2 T10611122
04850KAOH AOH20160106062011101/06/16 06:20:31  5-MIN KAOH 061120Z AUTO 19009KT 10SM CLR M06/M12 A3040 540 62 -1900 190/09 RMK AO2 T10611122
04850KAOH AOH20160106062511101/06/16 06:25:31  5-MIN KAOH 061125Z AUTO 18010KT 10SM CLR M06/M12 A3040 540 62 -1900 190/10 RMK AO2 T10611122
04850KAOH AOH20160106063011101/06/16 06:30:31  5-MIN KAOH 061130Z AUTO 18010KT 10SM CLR M06/M12 A3040 530 62 -1900 190/10 RMK AO2 T10611122
04850KAOH AOH20160106063511101/06/16 06:35:31  5-MIN KAOH 061135Z AUTO 18009KT 10SM CLR M06/M12 A3040 530 59 -1800 180/09 RMK AO2 T10561122
04850KAOH AOH20160106064011101/06/16 06:40:31  5-MIN KAOH 061140Z AUTO 18009KT 10SM CLR M06/M12 A3040 530 59 -1800 190/09 RMK AO2 T10561122
04850KAOH AOH20160106064511101/06/16 06:45:31  5-MIN KAOH 061145Z AUTO 18009KT 10SM CLR M06/M12 A3040 540 65 -1900 190/09 RMK AO2 T10611117
04850KAOH AOH20160106065013601/06/16 06:50:31  5-MIN KAOH 061150Z AUTO 18008KT 10SM CLR M06/M12 A3040 540 62 -1800 190/08 RMK AO2 SLP309 T10561117 11056 21078 56003
04850KAOH AOH20160106065511101/06/16 06:55:31  5-MIN KAOH 061155Z AUTO 18008KT 10SM CLR M06/M12 A3040 540 65 -1900 180/08 RMK AO2 T10611117
04850KAOH AOH20160106070011101/06/16 07:00:31  5-MIN KAOH 061200Z AUTO 18007KT 10SM CLR M06/M12 A3040 540 65 -1900 190/07 RMK AO2 T10611117
04850KAOH AOH20160106070511101/06/16 07:05:31  5-MIN KAOH 061205Z AUTO 18007KT 10SM CLR M06/M12 A3040 540 65 -1900 180/07 RMK AO2 T10611117
04850KAOH AOH20160106071011101/06/16 07:10:31  5-MIN KAOH 061210Z AUTO 18008KT 10SM CLR M06/M12 A3040 540 65 -1900 190/08 RMK AO2 T10611117
04850KAOH AOH20160106071511101/06/16 07:15:31  5-MIN KAOH 061215Z AUTO 18007KT 10SM CLR M06/M12 A3040 540 65 -1900 190/07 RMK AO2 T10611117
04850KAOH AOH20160106072011101/06/16 07:20:31  5-MIN KAOH 061220Z AUTO 18007KT 10SM CLR M06/M12 A3040 540 65 -1900 190/07 RMK AO2 T10611117
04850KAOH AOH20160106072511101/06/16 07:25:31  5-MIN KAOH 061225Z AUTO 18008KT 10SM CLR M06/M12 A3040 540 65 -1900 180/08 RMK AO2 T10611117
04850KAOH AOH20160106073011101/06/16 07:30:31  5-MIN KAOH 061230Z AUTO 18009KT 10SM CLR M06/M12 A3040 540 65 -1900 190/09 RMK AO2 T10611117
04850KAOH AOH20160106073511101/06/16 07:35:31  5-MIN KAOH 061235Z AUTO 18008KT 10SM CLR M06/M12 A3040 540 65 -1900 180/08 RMK AO2 T10611117
04850KAOH AOH20160106074011101/06/16 07:40:31  5-MIN KAOH 061240Z AUTO 18008KT 10SM CLR M06/M12 A3040 540 65 -1900 180/08 RMK AO2 T10611117
04850KAOH AOH20160106074511101/06/16 07:45:31  5-MIN KAOH 061245Z AUTO 18008KT 10SM CLR M06/M12 A3040 540 65 -1900 180/08 RMK AO2 T10611117
04850KAOH AOH20160106075011801/06/16 07:50:31  5-MIN KAOH 061250Z AUTO 17007KT 10SM CLR M07/M12 A3040 540 68 -1900 180/07 RMK AO2 SLP308 T10671117
04850KAOH AOH20160106075511101/06/16 07:55:31  5-MIN KAOH 061255Z AUTO 17008KT 10SM CLR M07/M12 A3040 540 68 -1900 180/08 RMK AO2 T10671117
04850KAOH AOH20160106080011101/06/16 08:00:31  5-MIN KAOH 061300Z AUTO 17008KT 10SM CLR M07/M12 A3040 540 68 -1900 180/08 RMK AO2 T10671117
04850KAOH AOH20160106080511101/06/16 08:05:31  5-MIN KAOH 061305Z AUTO 17008KT 10SM CLR M07/M12 A3040 540 68 -1900 180/08 RMK AO2 T10671117
04850KAOH AOH20160106081011101/06/16 08:10:31  5-MIN KAOH 061310Z AUTO 17008KT 10SM CLR M07/M12 A3040 540 68 -1900 180/08 RMK AO2 T10671117
04850KAOH AOH20160106081511101/06/16 08:15:31  5-MIN KAOH 061315Z AUTO 18009KT 10SM CLR M07/M12 A3040 540 68 -1900 180/09 RMK AO2 T10671117
04850KAOH AOH20160106082011101/06/16 08:20:31  5-MIN KAOH 061320Z AUTO 18008KT 10SM CLR M06/M12 A3040 540 65 -1900 180/08 RMK AO2 T10611117
04850KAOH AOH20160106082511101/06/16 08:25:31  5-MIN KAOH 061325Z AUTO 18009KT 10SM CLR M06/M12 A3040 540 65 -1900 180/09 RMK AO2 T10611117
04850KAOH AOH20160106083011101/06/16 08:30:31  5-MIN KAOH 061330Z AUTO 18008KT 10SM CLR M06/M11 A3040 540 68 -1900 180/08 RMK AO2 T10611111
04850KAOH AOH20160106083511101/06/16 08:35:31  5-MIN KAOH 061335Z AUTO 18008KT 10SM CLR M06/M11 A3040 540 68 -1900 180/08 RMK AO2 T10611111
04850KAOH AOH20160106084011101/06/16 08:40:31  5-MIN KAOH 061340Z AUTO 18008KT 10SM CLR M06/M11 A3040 540 68 -1900 190/08 RMK AO2 T10611111
04850KAOH AOH20160106084511101/06/16 08:45:31  5-MIN KAOH 061345Z AUTO 18008KT 10SM CLR M06/M11 A3040 540 65 -1800 180/08 RMK AO2 T10561111
04850KAOH AOH20160106085011801/06/16 08:50:31  5-MIN KAOH 061350Z AUTO 17007KT 10SM CLR M06/M11 A3040 540 65 -1800 180/07 RMK AO2 SLP308 T10561111
04850KAOH AOH20160106085511101/06/16 08:55:31  5-MIN KAOH 061355Z AUTO 18007KT 10SM CLR M06/M11 A3040 540 68 -1800 180/07 RMK AO2 T10561106
04850KAOH AOH20160106090011101/06/16 09:00:31  5-MIN KAOH 061400Z AUTO 17007KT 10SM CLR M05/M11 A3040 540 65 -1700 180/07 RMK AO2 T10501106
04850KAOH AOH20160106090511101/06/16 09:05:31  5-MIN KAOH 061405Z AUTO 18007KT 10SM CLR M05/M11 A3040 540 65 -1700 180/07 RMK AO2 T10501106
04850KAOH AOH20160106091011101/06/16 09:10:31  5-MIN KAOH 061410Z AUTO 18007KT 10SM CLR M05/M10 A3040 540 68 -1700 180/07 RMK AO2 T10501100
04850KAOH AOH20160106091511101/06/16 09:15:31  5-MIN KAOH 061415Z AUTO 18008KT 10SM CLR M04/M10 A3040 540 65 -1600 190/08 RMK AO2 T10441100
04850KAOH AOH20160106092011101/06/16 09:20:31  5-MIN KAOH 061420Z AUTO 18009KT 10SM CLR M04/M10 A3040 540 65 -1600 190/09 RMK AO2 T10441100
04850KAOH AOH20160106092511101/06/16 09:25:31  5-MIN KAOH 061425Z AUTO 18009KT 10SM CLR M04/M10 A3040 540 63 -1600 190/09 RMK AO2 T10391100
04850KAOH AOH20160106093011101/06/16 09:30:31  5-MIN KAOH 061430Z AUTO 19009KT 10SM CLR M04/M10 A3040 540 63 -1600 190/09 RMK AO2 T10391100
04850KAOH AOH20160106093511101/06/16 09:35:31  5-MIN KAOH 061435Z AUTO 19008KT 10SM CLR M03/M10 A3040 540 60 -1500 190/08 RMK AO2 T10331100
04850KAOH AOH20160106094011101/06/16 09:40:31  5-MIN KAOH 061440Z AUTO 19008KT 10SM CLR M03/M10 A3040 530 60 -1500 200/08 RMK AO2 T10331100
04850KAOH AOH20160106094511101/06/16 09:45:31  5-MIN KAOH 061445Z AUTO 19008KT 10SM CLR M03/M10 A3040 530 60 -1500 190/08 RMK AO2 T10331100
04850KAOH AOH20160106095012401/06/16 09:50:31  5-MIN KAOH 061450Z AUTO 19009KT 10SM CLR M03/M10 A3040 530 58 -1400 200/09 RMK AO2 SLP309 T10281100 55003
04850KAOH AOH20160106095511101/06/16 09:55:31  5-MIN KAOH 061455Z AUTO 19009KT 10SM CLR M03/M10 A3040 530 58 -1400 190/09 RMK AO2 T10281100
04850KAOH AOH20160106100011101/06/16 10:00:31  5-MIN KAOH 061500Z AUTO 19008KT 10SM CLR M03/M09 A3040 530 60 -1400 200/08 RMK AO2 T10281094
04850KAOH AOH20160106100511101/06/16 10:05:31  5-MIN KAOH 061505Z AUTO 19009KT 10SM CLR M03/M09 A3040 530 60 -1400 200/09 RMK AO2 T10281094
04850KAOH AOH20160106101011101/06/16 10:10:31  5-MIN KAOH 061510Z AUTO 19007KT 10SM CLR M03/M09 A3041 530 60 -1400 200/07 RMK AO2 T10281094
04850KAOH AOH20160106101511101/06/16 10:15:31  5-MIN KAOH 061515Z AUTO 19008KT 10SM CLR M02/M09 A3040 530 58 -1400 200/08 RMK AO2 T10221094
04850KAOH AOH20160106102011101/06/16 10:20:31  5-MIN KAOH 061520Z AUTO 20007KT 10SM CLR M02/M09 A3041 530 58 -1400 200/07 RMK AO2 T10221094
04850KAOH AOH20160106102511101/06/16 10:25:31  5-MIN KAOH 061525Z AUTO 19008KT 10SM CLR M02/M09 A3041 530 58 -1400 200/08 RMK AO2 T10221094
04850KAOH AOH20160106103011101/06/16 10:30:31  5-MIN KAOH 061530Z AUTO 19008KT 10SM CLR M02/M09 A3041 530 58 -1300 200/08 RMK AO2 T10171089
04850KAOH AOH20160106103511101/06/16 10:35:31  5-MIN KAOH 061535Z AUTO 20007KT 10SM CLR M02/M09 A3041 530 58 -1300 200/07 RMK AO2 T10171089
04850KAOH AOH20160106104011101/06/16 10:40:31  5-MIN KAOH 061540Z AUTO 20007KT 10SM CLR M02/M09 A3041 530 58 -1300 200/07 RMK AO2 T10171089
04850KAOH AOH20160106104511101/06/16 10:45:31  5-MIN KAOH 061545Z AUTO 21008KT 10SM CLR M01/M09 A3041 530 55 -1200 210/08 RMK AO2 T10111089
04850KAOH AOH20160106105011801/06/16 10:50:31  5-MIN KAOH 061550Z AUTO 20008KT 10SM CLR M01/M09 A3041 530 55 -1200 210/08 RMK AO2 SLP310 T10111089
04850KAOH AOH20160106105511101/06/16 10:55:31  5-MIN KAOH 061555Z AUTO 20007KT 10SM CLR M01/M08 A3040 530 56 -1100 200/07 RMK AO2 T10061083
04850KAOH AOH20160106110011101/06/16 11:00:31  5-MIN KAOH 061600Z AUTO 20008KT 10SM CLR M01/M08 A3040 540 56 -1100 200/08 RMK AO2 T10061083
04850KAOH AOH20160106110511101/06/16 11:05:31  5-MIN KAOH 061605Z AUTO 21009KT 10SM CLR M01/M08 A3040 540 56 -1100 210/09 RMK AO2 T10061083
04850KAOH AOH20160106111011001/06/16 11:10:31  5-MIN KAOH 061610Z AUTO 21009KT 10SM CLR 00/M08 A3040 540 53 -1100 220/09 RMK AO2 T00001083
04850KAOH AOH20160106111511001/06/16 11:15:31  5-MIN KAOH 061615Z AUTO 21008KT 10SM CLR 00/M08 A3040 540 53 -1100 220/08 RMK AO2 T00001083
04850KAOH AOH20160106112011001/06/16 11:20:31  5-MIN KAOH 061620Z AUTO 21009KT 10SM CLR 01/M08 A3040 540 54 -1000 210/09 RMK AO2 T00061078
04850KAOH AOH20160106112511001/06/16 11:25:31  5-MIN KAOH 061625Z AUTO 23007KT 10SM CLR 01/M08 A3040 540 54 -1000 230/07 RMK AO2 T00061078
04850KAOH AOH20160106113011001/06/16 11:30:31  5-MIN KAOH 061630Z AUTO 20008KT 10SM CLR 01/M08 A3039 540 54 -1000 210/08 RMK AO2 T00061078
04850KAOH AOH20160106113510901/06/16 11:35:31  5-MIN KAOH 061635Z AUTO 20008KT 10SM CLR 01/M08 A3039 550 51 -900 200/08 RMK AO2 T00111078
04850KAOH AOH20160106114010901/06/16 11:40:31  5-MIN KAOH 061640Z AUTO 19007KT 10SM CLR 01/M07 A3039 550 54 -900 200/07 RMK AO2 T00111072
04850KAOH AOH20160106114510901/06/16 11:45:31  5-MIN KAOH 061645Z AUTO 20007KT 10SM CLR 01/M07 A3038 550 54 -900 200/07 RMK AO2 T00111072
04850KAOH AOH20160106115011601/06/16 11:50:31  5-MIN KAOH 061650Z AUTO 20008KT 10SM CLR 02/M07 A3038 550 52 -800 210/08 RMK AO2 SLP301 T00171072
04850KAOH AOH20160106115510901/06/16 11:55:31  5-MIN KAOH 061655Z AUTO 22009KT 10SM CLR 02/M07 A3038 560 52 -800 230/09 RMK AO2 T00171072
04850KAOH AOH20160106120010901/06/16 12:00:31  5-MIN KAOH 061700Z AUTO 22008KT 10SM CLR 02/M07 A3038 560 52 -800 230/08 RMK AO2 T00171072
04850KAOH AOH20160106120510901/06/16 12:05:31  5-MIN KAOH 061705Z AUTO 21009KT 10SM CLR 02/M07 A3037 560 52 -800 210/09 RMK AO2 T00171072
04850KAOH AOH20160106121010901/06/16 12:10:31  5-MIN KAOH 061710Z AUTO 22009KT 10SM CLR 02/M07 A3037 560 52 -800 230/09 RMK AO2 T00171072
04850KAOH AOH20160106121510901/06/16 12:15:31  5-MIN KAOH 061715Z AUTO 22008KT 10SM CLR 02/M07 A3037 570 52 -800 220/08 RMK AO2 T00171072
04850KAOH AOH20160106122010901/06/16 12:20:31  5-MIN KAOH 061720Z AUTO 21009KT 10SM CLR 02/M07 A3037 570 50 -800 220/09 RMK AO2 T00221072
04850KAOH AOH20160106122510901/06/16 12:25:31  5-MIN KAOH 061725Z AUTO 21008KT 10SM CLR 02/M07 A3036 570 52 -800 220/08 RMK AO2 T00221067
04850KAOH AOH20160106123010901/06/16 12:30:31  5-MIN KAOH 061730Z AUTO 23008KT 10SM CLR 02/M07 A3036 580 50 -700 230/08 RMK AO2 T00221072
04850KAOH AOH20160106123510901/06/16 12:35:31  5-MIN KAOH 061735Z AUTO 22009KT 10SM CLR 02/M07 A3035 580 50 -700 230/09 RMK AO2 T00221072
04850KAOH AOH20160106124010901/06/16 12:40:31  5-MIN KAOH 061740Z AUTO 22007KT 10SM CLR 02/M07 A3035 580 52 -700 230/07 RMK AO2 T00221067
04850KAOH AOH20160106124510901/06/16 12:45:31  5-MIN KAOH 061745Z AUTO 21007KT 10SM CLR 02/M07 A3035 580 52 -700 220/07 RMK AO2 T00221067
04850KAOH AOH20160106125013401/06/16 12:50:31  5-MIN KAOH 061750Z AUTO 21008KT 10SM CLR 03/M07 A3035 580 50 -700 210/08 RMK AO2 SLP288 T00281067 10028 21067 53002
04850KAOH AOH20160106125510901/06/16 12:55:31  5-MIN KAOH 061755Z AUTO 22009KT 10SM CLR 03/M07 A3035 590 50 -700 220/09 RMK AO2 T00281067
04850KAOH AOH20160106130010901/06/16 13:00:31  5-MIN KAOH 061800Z AUTO 21007KT 10SM CLR 03/M07 A3034 590 50 -700 220/07 RMK AO2 T00281067
04850KAOH AOH20160106130510901/06/16 13:05:31  5-MIN KAOH 061805Z AUTO 22008KT 10SM CLR 03/M07 A3034 590 50 -700 230/08 RMK AO2 T00281067
04850KAOH AOH20160106131010901/06/16 13:10:31  5-MIN KAOH 061810Z AUTO 21008KT 10SM CLR 03/M07 A3034 590 50 -700 220/08 RMK AO2 T00281067
04850KAOH AOH20160106131510901/06/16 13:15:31  5-MIN KAOH 061815Z AUTO 22010KT 10SM CLR 03/M07 A3034 590 50 -700 230/10 RMK AO2 T00281067
04850KAOH AOH20160106132010901/06/16 13:20:31  5-MIN KAOH 061820Z AUTO 22009KT 10SM CLR 03/M07 A3034 590 48 -700 230/09 RMK AO2 T00281072
04850KAOH AOH20160106132510901/06/16 13:25:31  5-MIN KAOH 061825Z AUTO 21008KT 10SM CLR 03/M07 A3034 600 48 -600 220/08 RMK AO2 T00331067
04850KAOH AOH20160106133010901/06/16 13:30:31  5-MIN KAOH 061830Z AUTO 22009KT 10SM CLR 03/M07 A3033 600 48 -600 220/09 RMK AO2 T00331067
04850KAOH AOH20160106133510901/06/16 13:35:31  5-MIN KAOH 061835Z AUTO 22009KT 10SM CLR 03/M07 A3033 600 48 -600 230/09 RMK AO2 T00331067
04850KAOH AOH20160106134010901/06/16 13:40:31  5-MIN KAOH 061840Z AUTO 20010KT 10SM CLR 04/M07 A3033 600 46 -500 200/10 RMK AO2 T00391067
04850KAOH AOH20160106134510901/06/16 13:45:31  5-MIN KAOH 061845Z AUTO 21007KT 10SM CLR 03/M07 A3033 610 50 -600 210/07 RMK AO2 T00281067
04850KAOH AOH20160106135011601/06/16 13:50:31  5-MIN KAOH 061850Z AUTO 21007KT 10SM CLR 03/M07 A3032 610 50 -600 220/07 RMK AO2 SLP280 T00281067
04850KAOH AOH20160106135510901/06/16 13:55:31  5-MIN KAOH 061855Z AUTO 21007KT 10SM CLR 03/M06 A3032 610 52 -600 220/07 RMK AO2 T00281061
04850KAOH AOH20160106140010901/06/16 14:00:31  5-MIN KAOH 061900Z AUTO 20007KT 10SM CLR 03/M06 A3032 610 52 -600 210/07 RMK AO2 T00281061
04850KAOH AOH20160106140510901/06/16 14:05:31  5-MIN KAOH 061905Z AUTO 22007KT 10SM CLR 03/M06 A3031 610 50 -600 220/07 RMK AO2 T00331061
04850KAOH AOH20160106141010901/06/16 14:10:31  5-MIN KAOH 061910Z AUTO 20007KT 10SM CLR 03/M06 A3031 620 50 -600 210/07 RMK AO2 T00331061
04850KAOH AOH20160106141510901/06/16 14:15:31  5-MIN KAOH 061915Z AUTO 21007KT 10SM CLR 03/M06 A3031 620 50 -600 220/07 RMK AO2 T00331061
04850KAOH AOH20160106142010901/06/16 14:20:31  5-MIN KAOH 061920Z AUTO 20006KT 10SM CLR 03/M06 A3031 620 50 -600 210/06 RMK AO2 T00331061
04850KAOH AOH20160106142510901/06/16 14:25:31  5-MIN KAOH 061925Z AUTO 20008KT 10SM CLR 03/M06 A3031 620 50 -600 210/08 RMK AO2 T00331061
04850KAOH AOH20160106143010901/06/16 14:30:31  5-MIN KAOH 061930Z AUTO 22007KT 10SM CLR 03/M06 A3031 620 50 -600 230/07 RMK AO2 T00331061
04850KAOH AOH20160106143510901/06/16 14:35:31  5-MIN KAOH 061935Z AUTO 22008KT 10SM CLR 03/M06 A3030 620 50 -600 230/08 RMK AO2 T00331061
04850KAOH AOH20160106144010901/06/16 14:40:31  5-MIN KAOH 061940Z AUTO 22007KT 10SM CLR 03/M06 A3030 620 50 -600 220/07 RMK AO2 T00331061
04850KAOH AOH20160106144510901/06/16 14:45:31  5-MIN KAOH 061945Z AUTO 22009KT 10SM CLR 03/M07 A3031 620 48 -600 220/09 RMK AO2 T00331067
04850KAOH AOH20160106145011601/06/16 14:50:31  5-MIN KAOH 061950Z AUTO 23010KT 10SM CLR 03/M07 A3030 620 48 -600 240/10 RMK AO2 SLP273 T00331067
04850KAOH AOH20160106145510901/06/16 14:55:31  5-MIN KAOH 061955Z AUTO 23008KT 10SM CLR 03/M07 A3030 620 48 -500 240/08 RMK AO2 T00331067
04850KAOH AOH20160106150010901/06/16 15:00:31  5-MIN KAOH 062000Z AUTO 21006KT 10SM CLR 03/M06 A3030 630 50 -500 220/06 RMK AO2 T00331061
04850KAOH AOH20160106150510901/06/16 15:05:31  5-MIN KAOH 062005Z AUTO 20008KT 10SM CLR 03/M06 A3030 630 50 -500 210/08 RMK AO2 T00331061
04850KAOH AOH20160106151010901/06/16 15:10:31  5-MIN KAOH 062010Z AUTO 21006KT 10SM CLR 03/M06 A3030 630 50 -500 210/06 RMK AO2 T00331061
04850KAOH AOH20160106151510901/06/16 15:15:31  5-MIN KAOH 062015Z AUTO 21009KT 10SM CLR 03/M07 A3030 630 50 -600 220/09 RMK AO2 T00281067
04850KAOH AOH20160106152010901/06/16 15:20:31  5-MIN KAOH 062020Z AUTO 20006KT 10SM CLR 03/M06 A3030 630 52 -600 210/06 RMK AO2 T00281061
04850KAOH AOH20160106152510901/06/16 15:25:31  5-MIN KAOH 062025Z AUTO 19007KT 10SM CLR 03/M06 A3030 630 50 -500 200/07 RMK AO2 T00331061
04850KAOH AOH20160106153010901/06/16 15:30:31  5-MIN KAOH 062030Z AUTO 19006KT 10SM CLR 03/M06 A3030 630 52 -600 190/06 RMK AO2 T00281061
04850KAOH AOH20160106153510901/06/16 15:35:31  5-MIN KAOH 062035Z AUTO 19006KT 10SM CLR 03/M06 A3030 630 50 -500 190/06 RMK AO2 T00331061
04850KAOH AOH20160106154010901/06/16 15:40:31  5-MIN KAOH 062040Z AUTO 19007KT 10SM CLR 03/M06 A3030 630 52 -600 200/07 RMK AO2 T00281061
04850KAOH AOH20160106154510901/06/16 15:45:31  5-MIN KAOH 062045Z AUTO 19006KT 10SM CLR 03/M06 A3029 630 50 -500 200/06 RMK AO2 T00331061
04850KAOH AOH20160106155012201/06/16 15:50:31  5-MIN KAOH 062050Z AUTO 20006KT 10SM CLR 03/M06 A3029 630 50 -500 210/06 RMK AO2 SLP270 T00331061 58019
04850KAOH AOH20160106155510901/06/16 15:55:31  5-MIN KAOH 062055Z AUTO 19006KT 10SM CLR 03/M06 A3029 630 52 -600 190/06 RMK AO2 T00281061
04850KAOH AOH20160106160010901/06/16 16:00:31  5-MIN KAOH 062100Z AUTO 20007KT 10SM CLR 03/M06 A3029 630 52 -600 200/07 RMK AO2 T00281061
04850KAOH AOH20160106160510901/06/16 16:05:31  5-MIN KAOH 062105Z AUTO 20006KT 10SM CLR 03/M06 A3029 630 52 -600 200/06 RMK AO2 T00281061
04850KAOH AOH20160106161010901/06/16 16:10:31  5-MIN KAOH 062110Z AUTO 19004KT 10SM CLR 03/M06 A3029 630 52 -600 200/04 RMK AO2 T00281061
04850KAOH AOH20160106161510901/06/16 16:15:31  5-MIN KAOH 062115Z AUTO 19004KT 10SM CLR 03/M06 A3029 630 54 -600 190/04 RMK AO2 T00281056
04850KAOH AOH20160106162010901/06/16 16:20:31  5-MIN KAOH 062120Z AUTO 19005KT 10SM CLR 03/M06 A3029 630 54 -600 200/05 RMK AO2 T00281056
04850KAOH AOH20160106162510901/06/16 16:25:31  5-MIN KAOH 062125Z AUTO 19004KT 10SM CLR 02/M06 A3029 630 54 -700 200/04 RMK AO2 T00221061
04850KAOH AOH20160106163010901/06/16 16:30:31  5-MIN KAOH 062130Z AUTO 18004KT 10SM CLR 02/M06 A3029 640 56 -700 190/04 RMK AO2 T00221056
04850KAOH AOH20160106163510901/06/16 16:35:31  5-MIN KAOH 062135Z AUTO 18004KT 10SM CLR 02/M06 A3029 640 56 -700 190/04 RMK AO2 T00221056
04850KAOH AOH20160106164010901/06/16 16:40:31  5-MIN KAOH 062140Z AUTO 18004KT 10SM CLR 02/M06 A3029 640 56 -700 190/04 RMK AO2 T00221056
04850KAOH AOH20160106164510901/06/16 16:45:31  5-MIN KAOH 062145Z AUTO 18003KT 10SM CLR 02/M06 A3029 640 56 -700 180/03 RMK AO2 T00221056
04850KAOH AOH20160106165011601/06/16 16:50:31  5-MIN KAOH 062150Z AUTO 18003KT 10SM CLR 02/M06 A3029 640 56 -700 190/03 RMK AO2 SLP269 T00221056
04850KAOH AOH20160106165510901/06/16 16:55:31  5-MIN KAOH 062155Z AUTO 19004KT 10SM CLR 02/M06 A3029 640 56 -700 200/04 RMK AO2 T00221056
04850KAOH AOH20160106170010901/06/16 17:00:31  5-MIN KAOH 062200Z AUTO 18004KT 10SM CLR 02/M06 A3029 640 56 -700 180/04 RMK AO2 T00221056
04850KAOH AOH20160106170510901/06/16 17:05:31  5-MIN KAOH 062205Z AUTO 17004KT 10SM CLR 02/M05 A3029 640 61 -700 170/04 RMK AO2 T00171050
04850KAOH AOH20160106171010901/06/16 17:10:31  5-MIN KAOH 062210Z AUTO 17004KT 10SM CLR 01/M04 A3029 640 69 -800 180/04 RMK AO2 T00111039
04850KAOH AOH20160106171510901/06/16 17:15:31  5-MIN KAOH 062215Z AUTO 17003KT 10SM CLR 01/M04 A3029 640 69 -800 180/03 RMK AO2 T00111039
04850KAOH AOH20160106172010901/06/16 17:20:31  5-MIN KAOH 062220Z AUTO 16004KT 10SM CLR 01/M04 A3029 640 69 -800 160/04 RMK AO2 T00111039
04850KAOH AOH20160106172510901/06/16 17:25:31  5-MIN KAOH 062225Z AUTO 15004KT 10SM CLR 01/M04 A3029 640 72 -900 160/04 RMK AO2 T00061039
04850KAOH AOH20160106173010901/06/16 17:30:31  5-MIN KAOH 062230Z AUTO 15004KT 10SM CLR 00/M04 A3029 640 72 -900 160/04 RMK AO2 T00001044
04850KAOH AOH20160106173510901/06/16 17:35:31  5-MIN KAOH 062235Z AUTO 15004KT 10SM CLR 00/M04 A3029 640 72 -900 160/04 RMK AO2 T00001044
04850KAOH AOH20160106174010901/06/16 17:40:31  5-MIN KAOH 062240Z AUTO 15005KT 10SM CLR 00/M04 A3029 640 72 -900 160/05 RMK AO2 T00001044
04850KAOH AOH20160106174510901/06/16 17:45:31  5-MIN KAOH 062245Z AUTO 15005KT 10SM CLR 00/M05 A3028 640 69 -900 160/05 RMK AO2 T00001050
04850KAOH AOH20160106175011601/06/16 17:50:31  5-MIN KAOH 062250Z AUTO 15005KT 10SM CLR 00/M05 A3028 640 69 -900 160/05 RMK AO2 SLP267 T00001050
04850KAOH AOH20160106175510901/06/16 17:55:31  5-MIN KAOH 062255Z AUTO 15004KT 10SM CLR 00/M05 A3028 640 69 -900 160/04 RMK AO2 T00001050
04850KAOH AOH20160106180010901/06/16 18:00:31  5-MIN KAOH 062300Z AUTO 16004KT 10SM CLR 01/M05 A3028 640 66 -900 160/04 RMK AO2 T00061050
04850KAOH AOH20160106180510901/06/16 18:05:31  5-MIN KAOH 062305Z AUTO 15004KT 10SM CLR 01/M05 A3028 640 66 -900 160/04 RMK AO2 T00061050
04850KAOH AOH20160106181010901/06/16 18:10:31  5-MIN KAOH 062310Z AUTO 16004KT 10SM CLR 01/M05 A3028 640 66 -900 160/04 RMK AO2 T00061050
04850KAOH AOH20160106181510901/06/16 18:15:31  5-MIN KAOH 062315Z AUTO 15004KT 10SM CLR 01/M05 A3028 650 66 -900 160/04 RMK AO2 T00061050
04850KAOH AOH20160106182010901/06/16 18:20:31  5-MIN KAOH 062320Z AUTO 15004KT 10SM CLR 00/M05 A3028 650 69 -900 160/04 RMK AO2 T00001050
04850KAOH AOH20160106182510901/06/16 18:25:31  5-MIN KAOH 062325Z AUTO 16004KT 10SM CLR 00/M05 A3028 650 69 -900 160/04 RMK AO2 T00001050
04850KAOH AOH20160106183010901/06/16 18:30:31  5-MIN KAOH 062330Z AUTO 15004KT 10SM CLR 00/M05 A3028 650 69 -900 160/04 RMK AO2 T00001050
04850KAOH AOH20160106183510901/06/16 18:35:31  5-MIN KAOH 062335Z AUTO 16004KT 10SM CLR 00/M05 A3028 650 69 -900 160/04 RMK AO2 T00001050
04850KAOH AOH20160106184010901/06/16 18:40:31  5-MIN KAOH 062340Z AUTO 16005KT 10SM CLR 00/M05 A3028 650 69 -900 160/05 RMK AO2 T00001050
04850KAOH AOH20160106184510901/06/16 18:45:31  5-MIN KAOH 062345Z AUTO 16004KT 10SM CLR 00/M05 A3028 650 69 -900 160/04 RMK AO2 T00001050
04850KAOH AOH20160106185013401/06/16 18:50:31  5-MIN KAOH 062350Z AUTO 16004KT 10SM CLR 00/M05 A3028 650 69 -900 170/04 RMK AO2 SLP265 T00001050 10039 20000 56018
04850KAOH AOH20160106185510901/06/16 18:55:31  5-MIN KAOH 062355Z AUTO 16004KT 10SM CLR 00/M05 A3028 650 69 -900 170/04 RMK AO2 T00001050
04850KAOH AOH20160106190010901/06/16 19:00:31  5-MIN KAOH 070000Z AUTO 17004KT 10SM CLR 00/M05 A3028 650 69 -900 180/04 RMK AO2 T00001050
04850KAOH AOH20160106190510901/06/16 19:05:31  5-MIN KAOH 070005Z AUTO 16004KT 10SM CLR 00/M05 A3028 650 69 -900 170/04 RMK AO2 T00001050
04850KAOH AOH20160106191010901/06/16 19:10:31  5-MIN KAOH 070010Z AUTO 16004KT 10SM CLR 00/M05 A3028 650 69 -900 160/04 RMK AO2 T00001050
04850KAOH AOH20160106191510901/06/16 19:15:31  5-MIN KAOH 070015Z AUTO 15004KT 10SM CLR 00/M05 A3027 650 69 -900 160/04 RMK AO2 T00001050
04850KAOH AOH20160106192011101/06/16 19:20:31  5-MIN KAOH 070020Z AUTO 15005KT 10SM CLR M01/M05 A3027 650 72 -1000 160/05 RMK AO2 T10061050
04850KAOH AOH20160106192511101/06/16 19:25:31  5-MIN KAOH 070025Z AUTO 15004KT 10SM CLR M01/M06 A3027 650 69 -1000 160/04 RMK AO2 T10061056
04850KAOH AOH20160106193011101/06/16 19:30:31  5-MIN KAOH 070030Z AUTO 15004KT 10SM CLR M01/M06 A3027 650 69 -1000 150/04 RMK AO2 T10061056
04850KAOH AOH20160106193511101/06/16 19:35:31  5-MIN KAOH 070035Z AUTO 15005KT 10SM CLR M01/M06 A3027 650 69 -1000 160/05 RMK AO2 T10061056
04850KAOH AOH20160106194011101/06/16 19:40:31  5-MIN KAOH 070040Z AUTO 15004KT 10SM CLR M01/M06 A3028 650 69 -1000 160/04 RMK AO2 T10061056
04850KAOH AOH20160106194510901/06/16 19:45:31  5-MIN KAOH 070045Z AUTO 15004KT 10SM CLR 00/M06 A3028 650 66 -900 160/04 RMK AO2 T00001056
04850KAOH AOH20160106195011601/06/16 19:50:31  5-MIN KAOH 070050Z AUTO 15004KT 10SM CLR 00/M06 A3028 650 66 -900 160/04 RMK AO2 SLP266 T00001056
04850KAOH AOH20160106195511101/06/16 19:55:31  5-MIN KAOH 070055Z AUTO 15004KT 10SM CLR M01/M06 A3028 650 69 -1000 160/04 RMK AO2 T10061056
04850KAOH AOH20160106200011101/06/16 20:00:31  5-MIN KAOH 070100Z AUTO 15005KT 10SM CLR M01/M06 A3028 650 72 -1100 150/05 RMK AO2 T10111056
04850KAOH AOH20160106200511101/06/16 20:05:31  5-MIN KAOH 070105Z AUTO 15004KT 10SM CLR M01/M06 A3028 650 69 -1000 160/04 RMK AO2 T10061056
04850KAOH AOH20160106201011101/06/16 20:10:31  5-MIN KAOH 070110Z AUTO 15004KT 10SM CLR M01/M06 A3028 650 69 -1000 150/04 RMK AO2 T10061056
04850KAOH AOH20160106201511101/06/16 20:15:31  5-MIN KAOH 070115Z AUTO 15004KT 10SM CLR M01/M06 A3028 650 66 -1000 150/04 RMK AO2 T10061061
04850KAOH AOH20160106202011101/06/16 20:20:31  5-MIN KAOH 070120Z AUTO 15004KT 10SM CLR M01/M06 A3028 650 69 -1100 160/04 RMK AO2 T10111061
04850KAOH AOH20160106202511101/06/16 20:25:31  5-MIN KAOH 070125Z AUTO 15005KT 10SM CLR M01/M06 A3028 650 66 -1000 160/05 RMK AO2 T10061061
04850KAOH AOH20160106203011101/06/16 20:30:31  5-MIN KAOH 070130Z AUTO 15005KT 10SM CLR M01/M06 A3028 640 66 -1000 150/05 RMK AO2 T10061061
04850KAOH AOH20160106203511101/06/16 20:35:31  5-MIN KAOH 070135Z AUTO 15004KT 10SM CLR M01/M06 A3028 650 69 -1100 160/04 RMK AO2 T10111061
04850KAOH AOH20160106204011101/06/16 20:40:31  5-MIN KAOH 070140Z AUTO 15004KT 10SM CLR M01/M06 A3028 650 66 -1000 160/04 RMK AO2 T10061061
04850KAOH AOH20160106204511101/06/16 20:45:31  5-MIN KAOH 070145Z AUTO 15005KT 10SM CLR M01/M06 A3028 650 69 -1100 160/05 RMK AO2 T10111061
04850KAOH AOH20160106205011801/06/16 20:50:31  5-MIN KAOH 070150Z AUTO 15005KT 10SM CLR M01/M06 A3028 640 69 -1100 160/05 RMK AO2 SLP268 T10111061
04850KAOH AOH20160106205511101/06/16 20:55:31  5-MIN KAOH 070155Z AUTO 15004KT 10SM CLR M01/M06 A3028 640 72 -1100 160/04 RMK AO2 T10111056
04850KAOH AOH20160106210011101/06/16 21:00:31  5-MIN KAOH 070200Z AUTO 15005KT 10SM CLR M01/M06 A3028 640 69 -1100 150/05 RMK AO2 T10111061
04850KAOH AOH20160106210511101/06/16 21:05:31  5-MIN KAOH 070205Z AUTO 15005KT 10SM CLR M01/M06 A3028 650 72 -1100 150/05 RMK AO2 T10111056
04850KAOH AOH20160106211011101/06/16 21:10:31  5-MIN KAOH 070210Z AUTO 15005KT 10SM CLR M01/M06 A3028 650 72 -1100 160/05 RMK AO2 T10111056
04850KAOH AOH20160106211511101/06/16 21:15:31  5-MIN KAOH 070215Z AUTO 15006KT 10SM CLR M02/M06 A3028 650 75 -1200 150/06 RMK AO2 T10221061
04850KAOH AOH20160106212011101/06/16 21:20:31  5-MIN KAOH 070220Z AUTO 15006KT 10SM CLR M02/M07 A3028 650 69 -1100 160/06 RMK AO2 T10171067
04850KAOH AOH20160106212511101/06/16 21:25:31  5-MIN KAOH 070225Z AUTO 15006KT 10SM CLR M02/M06 A3028 650 72 -1100 160/06 RMK AO2 T10171061
04850KAOH AOH20160106213011101/06/16 21:30:31  5-MIN KAOH 070230Z AUTO 15006KT 10SM CLR M02/M06 A3028 650 72 -1100 160/06 RMK AO2 T10171061
04850KAOH AOH20160106213511101/06/16 21:35:31  5-MIN KAOH 070235Z AUTO 15006KT 10SM CLR M02/M06 A3028 650 75 -1200 160/06 RMK AO2 T10221061
04850KAOH AOH20160106214011101/06/16 21:40:31  5-MIN KAOH 070240Z AUTO 15006KT 10SM CLR M02/M06 A3028 650 75 -1200 160/06 RMK AO2 T10221061
04850KAOH AOH20160106214511101/06/16 21:45:31  5-MIN KAOH 070245Z AUTO 15006KT 10SM CLR M02/M06 A3028 650 72 -1100 160/06 RMK AO2 T10171061
04850KAOH AOH20160106215012401/06/16 21:50:31  5-MIN KAOH 070250Z AUTO 15006KT 10SM CLR M02/M07 A3028 650 72 -1200 160/06 RMK AO2 SLP264 T10221067 58005
04850KAOH AOH20160106215511101/06/16 21:55:31  5-MIN KAOH 070255Z AUTO 15006KT 10SM CLR M02/M07 A3027 650 72 -1200 160/06 RMK AO2 T10221067
04850KAOH AOH20160106220011101/06/16 22:00:31  5-MIN KAOH 070300Z AUTO 16006KT 10SM CLR M02/M07 A3027 650 69 -1100 160/06 RMK AO2 T10171067
04850KAOH AOH20160106220511101/06/16 22:05:31  5-MIN KAOH 070305Z AUTO 16006KT 10SM CLR M02/M07 A3027 650 72 -1200 160/06 RMK AO2 T10221067
04850KAOH AOH20160106221011101/06/16 22:10:31  5-MIN KAOH 070310Z AUTO 16006KT 10SM CLR M02/M07 A3027 650 72 -1200 170/06 RMK AO2 T10221067
04850KAOH AOH20160106221511101/06/16 22:15:31  5-MIN KAOH 070315Z AUTO 17005KT 10SM CLR M02/M07 A3027 650 69 -1100 180/05 RMK AO2 T10171067
04850KAOH AOH20160106222011101/06/16 22:20:31  5-MIN KAOH 070320Z AUTO 17004KT 10SM CLR M01/M07 A3027 650 66 -1100 170/04 RMK AO2 T10111067
04850KAOH AOH20160106222511101/06/16 22:25:31  5-MIN KAOH 070325Z AUTO 17005KT 10SM CLR M02/M07 A3027 650 69 -1100 170/05 RMK AO2 T10171067
04850KAOH AOH20160106223011101/06/16 22:30:31  5-MIN KAOH 070330Z AUTO 17004KT 10SM CLR M02/M07 A3027 650 69 -1100 180/04 RMK AO2 T10171067
04850KAOH AOH20160106223511101/06/16 22:35:31  5-MIN KAOH 070335Z AUTO 17004KT 10SM CLR M02/M07 A3027 660 69 -1100 170/04 RMK AO2 T10171067
04850KAOH AOH20160106224011101/06/16 22:40:31  5-MIN KAOH 070340Z AUTO 16004KT 10SM CLR M02/M06 A3027 660 75 -1200 170/04 RMK AO2 T10221061
04850KAOH AOH20160106224511101/06/16 22:45:31  5-MIN KAOH 070345Z AUTO 16004KT 10SM CLR M02/M06 A3027 660 75 -1200 170/04 RMK AO2 T10221061
04850KAOH AOH20160106225011801/06/16 22:50:31  5-MIN KAOH 070350Z AUTO 16004KT 10SM CLR M02/M07 A3026 660 72 -1200 160/04 RMK AO2 SLP260 T10221067
04850KAOH AOH20160106225511101/06/16 22:55:31  5-MIN KAOH 070355Z AUTO 15005KT 10SM CLR M03/M07 A3026 660 75 -1300 160/05 RMK AO2 T10281067
04850KAOH AOH20160106230011101/06/16 23:00:31  5-MIN KAOH 070400Z AUTO 16005KT 10SM CLR M03/M07 A3026 660 74 -1300 160/05 RMK AO2 T10331072
04850KAOH AOH20160106230511101/06/16 23:05:31  5-MIN KAOH 070405Z AUTO 16005KT 10SM CLR M03/M07 A3026 660 71 -1300 160/05 RMK AO2 T10281072
04850KAOH AOH20160106231011101/06/16 23:10:31  5-MIN KAOH 070410Z AUTO 16005KT 10SM CLR M02/M07 A3026 660 69 -1200 160/05 RMK AO2 T10221072
04850KAOH AOH20160106231511101/06/16 23:15:31  5-MIN KAOH 070415Z AUTO 17004KT 10SM CLR M02/M07 A3026 660 66 -1100 170/04 RMK AO2 T10171072
04850KAOH AOH20160106232011101/06/16 23:20:31  5-MIN KAOH 070420Z AUTO 17004KT 10SM CLR M01/M07 A3026 660 63 -1100 170/04 RMK AO2 T10111072
04850KAOH AOH20160106232511101/06/16 23:25:31  5-MIN KAOH 070425Z AUTO 16005KT 10SM CLR M01/M07 A3026 670 63 -1100 170/05 RMK AO2 T10111072
04850KAOH AOH20160106233011101/06/16 23:30:31  5-MIN KAOH 070430Z AUTO 15005KT 10SM CLR M02/M07 A3026 670 66 -1100 160/05 RMK AO2 T10171072
04850KAOH AOH20160106233511101/06/16 23:35:31  5-MIN KAOH 070435Z AUTO 16006KT 10SM CLR M02/M07 A3026 670 69 -1200 160/06 RMK AO2 T10221072
04850KAOH AOH20160106234011101/06/16 23:40:31  5-MIN KAOH 070440Z AUTO 16005KT 10SM CLR M02/M07 A3026 670 69 -1200 170/05 RMK AO2 T10221072
04850KAOH AOH20160106234511101/06/16 23:45:31  5-MIN KAOH 070445Z AUTO 16006KT 10SM CLR M02/M07 A3026 670 69 -1200 170/06 RMK AO2 T10221072
04850KAOH AOH20160106235012801/06/16 23:50:31  5-MIN KAOH 070450Z AUTO 16006KT 10SM CLR M03/M07 A3026 670 71 -1300 160/06 RMK AO2 SLP257 T10281072 400391078
04850KAOH AOH20160106235511101/06/16 23:55:31  5-MIN KAOH 070455Z AUTO 16006KT 10SM CLR M03/M07 A3025 670 71 -1300 160/06 RMK AO2 T10281072
04850KAOH AOH20160107000011101/07/16 00:00:31  5-MIN KAOH 070500Z AUTO 16007KT 10SM CLR M03/M07 A3025 670 71 -1300 160/07 RMK AO2 T10281072
04850KAOH AOH20160107000511101/07/16 00:05:31  5-MIN KAOH 070505Z AUTO 16008KT 10SM CLR M03/M07 A3025 670 71 -1300 160/08 RMK AO2 T10281072
04850KAOH AOH20160107001011101/07/16 00:10:31  5-MIN KAOH 070510Z AUTO 16009KT 10SM CLR M03/M07 A3025 670 71 -1300 160/09 RMK AO2 T10281072
04850KAOH AOH20160107001511101/07/16 00:15:31  5-MIN KAOH 070515Z AUTO 16007KT 10SM CLR M03/M07 A3025 670 71 -1300 170/07 RMK AO2 T10281072
04850KAOH AOH20160107002011101/07/16 00:20:31  5-MIN KAOH 070520Z AUTO 16007KT 10SM CLR M03/M07 A3025 670 71 -1300 170/07 RMK AO2 T10281072
04850KAOH AOH20160107002511101/07/16 00:25:31  5-MIN KAOH 070525Z AUTO 16008KT 10SM CLR M03/M07 A3025 670 74 -1300 160/08 RMK AO2 T10331072
04850KAOH AOH20160107003011101/07/16 00:30:31  5-MIN KAOH 070530Z AUTO 16008KT 10SM CLR M03/M07 A3025 680 74 -1300 160/08 RMK AO2 T10331072
04850KAOH AOH20160107003511101/07/16 00:35:31  5-MIN KAOH 070535Z AUTO 16008KT 10SM CLR M03/M07 A3025 680 74 -1300 160/08 RMK AO2 T10331072
04850KAOH AOH20160107004011101/07/16 00:40:31  5-MIN KAOH 070540Z AUTO 16008KT 10SM CLR M03/M07 A3025 680 74 -1300 170/08 RMK AO2 T10331072
04850KAOH AOH20160107004511101/07/16 00:45:31  5-MIN KAOH 070545Z AUTO 16008KT 10SM CLR M03/M07 A3024 680 74 -1300 170/08 RMK AO2 T10331072
04850KAOH AOH20160107005013601/07/16 00:50:31  5-MIN KAOH 070550Z AUTO 16008KT 10SM CLR M03/M07 A3024 680 74 -1300 170/08 RMK AO2 SLP251 T10331072 10000 21033 58001
04850KAOH AOH20160107005511101/07/16 00:55:31  5-MIN KAOH 070555Z AUTO 17007KT 10SM CLR M03/M07 A3024 680 71 -1200 170/07 RMK AO2 T10281072
04850KAOH AOH20160107010011101/07/16 01:00:31  5-MIN KAOH 070600Z AUTO 16007KT 10SM CLR M03/M07 A3024 680 71 -1200 170/07 RMK AO2 T10281072
04850KAOH AOH20160107010511101/07/16 01:05:31  5-MIN KAOH 070605Z AUTO 16008KT 10SM CLR M03/M07 A3024 690 74 -1300 160/08 RMK AO2 T10331072
04850KAOH AOH20160107011011101/07/16 01:10:31  5-MIN KAOH 070610Z AUTO 16008KT 10SM CLR M03/M07 A3023 690 74 -1300 160/08 RMK AO2 T10331072
04850KAOH AOH20160107011511101/07/16 01:15:31  5-MIN KAOH 070615Z AUTO 16008KT 10SM CLR M03/M07 A3023 690 71 -1200 160/08 RMK AO2 T10281072
04850KAOH AOH20160107012011101/07/16 01:20:31  5-MIN KAOH 070620Z AUTO 16009KT 10SM CLR M03/M07 A3023 690 71 -1200 160/09 RMK AO2 T10281072
04850KAOH AOH20160107012511101/07/16 01:25:31  5-MIN KAOH 070625Z AUTO 16008KT 10SM CLR M03/M07 A3023 690 71 -1200 170/08 RMK AO2 T10281072
04850KAOH AOH20160107013011101/07/16 01:30:31  5-MIN KAOH 070630Z AUTO 16008KT 10SM CLR M03/M07 A3023 690 74 -1300 170/08 RMK AO2 T10331072
04850KAOH AOH20160107013511101/07/16 01:35:31  5-MIN KAOH 070635Z AUTO 16007KT 10SM CLR M03/M08 A3023 690 71 -1300 170/07 RMK AO2 T10331078
04850KAOH AOH20160107014011101/07/16 01:40:31  5-MIN KAOH 070640Z AUTO 16007KT 10SM CLR M03/M08 A3023 690 71 -1300 170/07 RMK AO2 T10331078
04850KAOH AOH20160107014511101/07/16 01:45:31  5-MIN KAOH 070645Z AUTO 16007KT 10SM CLR M03/M08 A3022 700 71 -1300 160/07 RMK AO2 T10331078
04850KAOH AOH20160107015011801/07/16 01:50:31  5-MIN KAOH 070650Z AUTO 16007KT 10SM CLR M04/M08 A3022 700 74 -1400 170/07 RMK AO2 SLP246 T10391078
04850KAOH AOH20160107015511101/07/16 01:55:31  5-MIN KAOH 070655Z AUTO 16006KT 10SM CLR M03/M08 A3022 700 71 -1300 170/06 RMK AO2 T10331078
04850KAOH AOH20160107020011101/07/16 02:00:31  5-MIN KAOH 070700Z AUTO 16007KT 10SM CLR M04/M08 A3022 700 74 -1400 160/07 RMK AO2 T10391078
04850KAOH AOH20160107020511101/07/16 02:05:31  5-MIN KAOH 070705Z AUTO 16007KT 10SM CLR M04/M08 A3022 700 71 -1400 160/07 RMK AO2 T10391083
04850KAOH AOH20160107021011101/07/16 02:10:31  5-MIN KAOH 070710Z AUTO 16006KT 10SM CLR M03/M08 A3022 700 68 -1300 170/06 RMK AO2 T10331083
04850KAOH AOH20160107021511101/07/16 02:15:31  5-MIN KAOH 070715Z AUTO 16006KT 10SM CLR M03/M08 A3022 700 66 -1200 160/06 RMK AO2 T10281083
04850KAOH AOH20160107022011101/07/16 02:20:31  5-MIN KAOH 070720Z AUTO 16007KT 10SM CLR M03/M08 A3022 710 66 -1200 160/07 RMK AO2 T10281083
04850KAOH AOH20160107022511101/07/16 02:25:31  5-MIN KAOH 070725Z AUTO 16007KT 10SM CLR M04/M08 A3022 700 71 -1400 160/07 RMK AO2 T10391083
04850KAOH AOH20160107023011101/07/16 02:30:31  5-MIN KAOH 070730Z AUTO 16008KT 10SM CLR M03/M08 A3022 700 68 -1300 160/08 RMK AO2 T10331083
04850KAOH AOH20160107023511101/07/16 02:35:31  5-MIN KAOH 070735Z AUTO 16008KT 10SM CLR M03/M08 A3022 700 68 -1300 170/08 RMK AO2 T10331083
04850KAOH AOH20160107024011101/07/16 02:40:31  5-MIN KAOH 070740Z AUTO 16007KT 10SM CLR M03/M08 A3022 700 66 -1200 170/07 RMK AO2 T10281083
04850KAOH AOH20160107024511101/07/16 02:45:31  5-MIN KAOH 070745Z AUTO 16007KT 10SM CLR M03/M08 A3022 700 71 -1300 170/07 RMK AO2 T10331078
04850KAOH AOH20160107025011801/07/16 02:50:31  5-MIN KAOH 070750Z AUTO 16007KT 10SM CLR M03/M08 A3021 710 71 -1300 170/07 RMK AO2 SLP241 T10331078
04850KAOH AOH20160107025511101/07/16 02:55:31  5-MIN KAOH 070755Z AUTO 15007KT 10SM CLR M03/M08 A3021 710 71 -1300 160/07 RMK AO2 T10331078
04850KAOH AOH20160107030011101/07/16 03:00:31  5-MIN KAOH 070800Z AUTO 16007KT 10SM CLR M03/M08 A3021 710 71 -1300 160/07 RMK AO2 T10331078
04850KAOH AOH20160107030511101/07/16 03:05:31  5-MIN KAOH 070805Z AUTO 16006KT 10SM CLR M02/M08 A3021 710 66 -1100 170/06 RMK AO2 T10221078
04850KAOH AOH20160107031011101/07/16 03:10:31  5-MIN KAOH 070810Z AUTO 16006KT 10SM CLR M02/M08 A3021 710 66 -1100 170/06 RMK AO2 T10221078
04850KAOH AOH20160107031511101/07/16 03:15:31  5-MIN KAOH 070815Z AUTO 16007KT 10SM CLR M02/M08 A3021 710 66 -1100 170/07 RMK AO2 T10221078
04850KAOH AOH20160107201510901/07/16 20:15:31  5-MIN KAOH 080115Z AUTO 13005KT 10SM CLR 02/M06 A3009 820 59 -500 130/05 RMK AO2 T00171056
04850KAOH AOH20160107202010901/07/16 20:20:31  5-MIN KAOH 080120Z AUTO 12005KT 10SM CLR 01/M06 A3009 820 61 -600 130/05 RMK AO2 T00111056
04850KAOH AOH20160107202510901/07/16 20:25:31  5-MIN KAOH 080125Z AUTO 12004KT 10SM CLR 01/M04 A3009 820 69 -600 120/04 RMK AO2 T00061044
04850KAOH AOH20160107203010901/07/16 20:30:31  5-MIN KAOH 080130Z AUTO 12005KT 10SM CLR 01/M05 A3008 830 66 -600 130/05 RMK AO2 T00061050
04850KAOH AOH20160107203510901/07/16 20:35:31  5-MIN KAOH 080135Z AUTO 10003KT 10SM CLR 00/M04 A3008 830 75 -700 110/03 RMK AO2 T00001039
04850KAOH AOH20160107204010901/07/16 20:40:31  5-MIN KAOH 080140Z AUTO 11004KT 10SM CLR 01/M04 A3008 830 69 -600 120/04 RMK AO2 T00061044
04850KAOH AOH20160107204510901/07/16 20:45:31  5-MIN KAOH 080145Z AUTO 13004KT 10SM CLR 01/M04 A3008 830 69 -600 130/04 RMK AO2 T00061044
04850KAOH AOH20160107205011601/07/16 20:50:31  5-MIN KAOH 080150Z AUTO 13004KT 10SM CLR 01/M04 A3008 830 69 -600 140/04 RMK AO2 SLP197 T00061044
04850KAOH AOH20160107205510901/07/16 20:55:31  5-MIN KAOH 080155Z AUTO 13005KT 10SM CLR 01/M04 A3008 830 69 -600 140/05 RMK AO2 T00061044
04850KAOH AOH20160107210010901/07/16 21:00:31  5-MIN KAOH 080200Z AUTO 14006KT 10SM CLR 01/M05 A3008 830 66 -600 140/06 RMK AO2 T00061050
04850KAOH AOH20160107210510901/07/16 21:05:31  5-MIN KAOH 080205Z AUTO 14006KT 10SM CLR 01/M05 A3009 830 66 -600 150/06 RMK AO2 T00061050
04850KAOH AOH20160107211010901/07/16 21:10:31  5-MIN KAOH 080210Z AUTO 14006KT 10SM CLR 01/M05 A3009 830 64 -600 140/06 RMK AO2 T00111050
04850KAOH AOH20160107211510901/07/16 21:15:31  5-MIN KAOH 080215Z AUTO 14006KT 10SM CLR 01/M05 A3009 820 64 -600 140/06 RMK AO2 T00111050
04850KAOH AOH20160107212010901/07/16 21:20:31  5-MIN KAOH 080220Z AUTO 14008KT 10SM CLR 01/M05 A3009 820 64 -600 140/08 RMK AO2 T00111050
04850KAOH AOH20160107212510901/07/16 21:25:31  5-MIN KAOH 080225Z AUTO 14007KT 10SM CLR 01/M05 A3009 830 64 -600 150/07 RMK AO2 T00111050
04850KAOH AOH20160107213010901/07/16 21:30:31  5-MIN KAOH 080230Z AUTO 14007KT 10SM CLR 02/M05 A3008 830 61 -500 150/07 RMK AO2 T00171050
04850KAOH AOH20160107213510901/07/16 21:35:31  5-MIN KAOH 080235Z AUTO 13007KT 10SM CLR 02/M05 A3008 830 61 -500 140/07 RMK AO2 T00171050
04850KAOH AOH20160107214010901/07/16 21:40:31  5-MIN KAOH 080240Z AUTO 13007KT 10SM CLR 02/M05 A3008 830 61 -500 140/07 RMK AO2 T00171050
04850KAOH AOH20160107214510901/07/16 21:45:31  5-MIN KAOH 080245Z AUTO 13006KT 10SM CLR 01/M05 A3008 830 64 -600 140/06 RMK AO2 T00111050
04850KAOH AOH20160107215012201/07/16 21:50:31  5-MIN KAOH 080250Z AUTO 14006KT 10SM CLR 01/M05 A3008 830 64 -600 150/06 RMK AO2 SLP194 T00111050 55004
04850KAOH AOH20160107215510901/07/16 21:55:31  5-MIN KAOH 080255Z AUTO 14006KT 10SM CLR 01/M05 A3008 830 64 -600 150/06 RMK AO2 T00111050
04850KAOH AOH20160107220010901/07/16 22:00:31  5-MIN KAOH 080300Z AUTO 13007KT 10SM CLR 01/M05 A3007 840 64 -600 140/07 RMK AO2 T00111050
04850KAOH AOH20160107220510901/07/16 22:05:31  5-MIN KAOH 080305Z AUTO 13007KT 10SM CLR 01/M05 A3007 840 64 -600 140/07 RMK AO2 T00111050
04850KAOH AOH20160107221010901/07/16 22:10:31  5-MIN KAOH 080310Z AUTO 13008KT 10SM CLR 01/M05 A3006 850 64 -600 140/08 RMK AO2 T00111050
04850KAOH AOH20160107221510901/07/16 22:15:31  5-MIN KAOH 080315Z AUTO 14007KT 10SM CLR 01/M05 A3006 850 64 -500 140/07 RMK AO2 T00111050
04850KAOH AOH20160107222010901/07/16 22:20:31  5-MIN KAOH 080320Z AUTO 14008KT 10SM CLR 01/M05 A3006 850 64 -600 150/08 RMK AO2 T00111050
04850KAOH AOH20160107222510901/07/16 22:25:31  5-MIN KAOH 080325Z AUTO 14007KT 10SM CLR 02/M05 A3007 840 61 -500 150/07 RMK AO2 T00171050
04850KAOH AOH20160107223010901/07/16 22:30:31  5-MIN KAOH 080330Z AUTO 15007KT 10SM CLR 01/M05 A3006 850 64 -600 150/07 RMK AO2 T00111050
04850KAOH AOH20160107223510901/07/16 22:35:31  5-MIN KAOH 080335Z AUTO 15008KT 10SM CLR 01/M05 A3006 840 64 -600 150/08 RMK AO2 T00111050
04850KAOH AOH20160107224010901/07/16 22:40:31  5-MIN KAOH 080340Z AUTO 15008KT 10SM CLR 01/M05 A3007 840 64 -600 160/08 RMK AO2 T00111050
04850KAOH AOH20160107224510901/07/16 22:45:31  5-MIN KAOH 080345Z AUTO 14009KT 10SM CLR 01/M05 A3006 850 64 -600 150/09 RMK AO2 T00111050
04850KAOH AOH20160107225011601/07/16 22:50:31  5-MIN KAOH 080350Z AUTO 13008KT 10SM CLR 01/M05 A3006 850 64 -500 140/08 RMK AO2 SLP186 T00111050
04850KAOH AOH20160107225510901/07/16 22:55:31  5-MIN KAOH 080355Z AUTO 13008KT 10SM CLR 01/M04 A3006 850 69 -600 140/08 RMK AO2 T00061044
04850KAOH AOH20160107230010901/07/16 23:00:31  5-MIN KAOH 080400Z AUTO 14008KT 10SM CLR 01/M04 A3005 850 66 -500 140/08 RMK AO2 T00111044
04850KAOH AOH20160107230510901/07/16 23:05:31  5-MIN KAOH 080405Z AUTO 14007KT 10SM CLR 01/M04 A3005 860 66 -500 150/07 RMK AO2 T00111044
04850KAOH AOH20160107231010901/07/16 23:10:31  5-MIN KAOH 080410Z AUTO 14007KT 10SM CLR 01/M04 A3005 860 66 -500 150/07 RMK AO2 T00111044
04850KAOH AOH20160107231510901/07/16 23:15:31  5-MIN KAOH 080415Z AUTO 15007KT 10SM CLR 01/M04 A3005 850 66 -500 150/07 RMK AO2 T00111044
04850KAOH AOH20160107232010901/07/16 23:20:31  5-MIN KAOH 080420Z AUTO 14007KT 10SM CLR 01/M04 A3005 850 66 -500 150/07 RMK AO2 T00111044
04850KAOH AOH20160107232510901/07/16 23:25:31  5-MIN KAOH 080425Z AUTO 14007KT 10SM CLR 01/M04 A3005 860 66 -500 150/07 RMK AO2 T00111044
04850KAOH AOH20160107233010901/07/16 23:30:31  5-MIN KAOH 080430Z AUTO 14007KT 10SM CLR 01/M04 A3005 860 66 -500 150/07 RMK AO2 T00111044
04850KAOH AOH20160107233510901/07/16 23:35:31  5-MIN KAOH 080435Z AUTO 15007KT 10SM CLR 01/M04 A3005 850 66 -500 150/07 RMK AO2 T00111044
04850KAOH AOH20160107234010901/07/16 23:40:31  5-MIN KAOH 080440Z AUTO 15007KT 10SM CLR 01/M04 A3005 860 66 -500 160/07 RMK AO2 T00111044
04850KAOH AOH20160107234510901/07/16 23:45:31  5-MIN KAOH 080445Z AUTO 15006KT 10SM CLR 01/M04 A3005 860 66 -500 160/06 RMK AO2 T00111044
04850KAOH AOH20160107235012601/07/16 23:50:31  5-MIN KAOH 080450Z AUTO 15007KT 10SM CLR 01/M04 A3005 860 66 -500 150/07 RMK AO2 SLP183 T00111044 400831044
04850KAOH AOH20160107235510901/07/16 23:55:31  5-MIN KAOH 080455Z AUTO 14007KT 10SM CLR 01/M04 A3005 860 66 -500 150/07 RMK AO2 T00111044
04850KAOH AOH20160108000010901/08/16 00:00:31  5-MIN KAOH 080500Z AUTO 14007KT 10SM CLR 01/M04 A3004 860 66 -500 150/07 RMK AO2 T00111044
04850KAOH AOH20160108000510901/08/16 00:05:31  5-MIN KAOH 080505Z AUTO 14008KT 10SM CLR 01/M04 A3004 860 66 -500 150/08 RMK AO2 T00111044
04850KAOH AOH20160108001010901/08/16 00:10:31  5-MIN KAOH 080510Z AUTO 15007KT 10SM CLR 01/M04 A3004 860 66 -500 150/07 RMK AO2 T00111044
04850KAOH AOH20160108001510901/08/16 00:15:31  5-MIN KAOH 080515Z AUTO 14007KT 10SM CLR 01/M04 A3004 870 69 -500 150/07 RMK AO2 T00111039
04850KAOH AOH20160108002010901/08/16 00:20:31  5-MIN KAOH 080520Z AUTO 13007KT 10SM CLR 01/M04 A3003 870 69 -500 140/07 RMK AO2 T00111039
04850KAOH AOH20160108002510901/08/16 00:25:31  5-MIN KAOH 080525Z AUTO 14007KT 10SM CLR 01/M04 A3003 870 69 -500 140/07 RMK AO2 T00111039
04850KAOH AOH20160108003010901/08/16 00:30:31  5-MIN KAOH 080530Z AUTO 14006KT 10SM CLR 01/M04 A3003 880 69 -500 150/06 RMK AO2 T00111039
04850KAOH AOH20160108003510901/08/16 00:35:31  5-MIN KAOH 080535Z AUTO 13007KT 10SM CLR 01/M04 A3002 880 69 -500 140/07 RMK AO2 T00111039
04850KAOH AOH20160108004010901/08/16 00:40:31  5-MIN KAOH 080540Z AUTO 13006KT 10SM CLR 01/M04 A3002 880 69 -500 140/06 RMK AO2 T00111039
04850KAOH AOH20160108004510901/08/16 00:45:31  5-MIN KAOH 080545Z AUTO 13007KT 10SM CLR 01/M04 A3002 880 72 -600 130/07 RMK AO2 T00061039
04850KAOH AOH20160108005013401/08/16 00:50:31  5-MIN KAOH 080550Z AUTO 13007KT 10SM CLR 01/M04 A3002 880 72 -600 130/07 RMK AO2 SLP173 T00061039 10017 20000 58002
04850KAOH AOH20160108005510901/08/16 00:55:31  5-MIN KAOH 080555Z AUTO 13007KT 10SM CLR 01/M04 A3002 890 69 -500 130/07 RMK AO2 T00111039
04850KAOH AOH20160108010010901/08/16 01:00:31  5-MIN KAOH 080600Z AUTO 13005KT 10SM CLR 01/M03 A3002 880 75 -600 140/05 RMK AO2 T00061033
04850KAOH AOH20160108010510901/08/16 01:05:31  5-MIN KAOH 080605Z AUTO 14006KT 10SM CLR 00/M03 A3002 890 78 -600 140/06 RMK AO2 T00001033
04850KAOH AOH20160108011010901/08/16 01:10:31  5-MIN KAOH 080610Z AUTO 13006KT 10SM CLR 01/M04 A3002 890 72 -600 130/06 RMK AO2 T00061039
04850KAOH AOH20160108011510901/08/16 01:15:31  5-MIN KAOH 080615Z AUTO 13007KT 10SM CLR 01/M04 A3001 890 72 -600 130/07 RMK AO2 T00061039
04850KAOH AOH20160108012010901/08/16 01:20:31  5-MIN KAOH 080620Z AUTO 13007KT 10SM CLR 01/M04 A3001 890 72 -600 130/07 RMK AO2 T00061039
04850KAOH AOH20160108012510901/08/16 01:25:31  5-MIN KAOH 080625Z AUTO 14007KT 10SM CLR 01/M04 A3001 890 72 -600 150/07 RMK AO2 T00061039
04850KAOH AOH20160108013010901/08/16 01:30:31  5-MIN KAOH 080630Z AUTO 14007KT 10SM CLR 01/M04 A3001 890 69 -500 150/07 RMK AO2 T00111039
04850KAOH AOH20160108013510901/08/16 01:35:31  5-MIN KAOH 080635Z AUTO 14005KT 10SM CLR 01/M04 A3001 890 69 -500 150/05 RMK AO2 T00111039
04850KAOH AOH20160108014010901/08/16 01:40:31  5-MIN KAOH 080640Z AUTO 13005KT 10SM CLR 01/M04 A3001 890 72 -600 140/05 RMK AO2 T00061039
04850KAOH AOH20160108014510901/08/16 01:45:31  5-MIN KAOH 080645Z AUTO 13005KT 10SM CLR 01/M04 A3001 900 72 -600 130/05 RMK AO2 T00061039
04850KAOH AOH20160108015011601/08/16 01:50:31  5-MIN KAOH 080650Z AUTO 13005KT 10SM CLR 01/M04 A3001 900 72 -600 140/05 RMK AO2 SLP167 T00061039
04850KAOH AOH20160108015510901/08/16 01:55:31  5-MIN KAOH 080655Z AUTO 14005KT 10SM CLR 00/M04 A3000 900 75 -600 140/05 RMK AO2 T00001039
04850KAOH AOH20160108020010901/08/16 02:00:31  5-MIN KAOH 080700Z AUTO 13005KT 10SM CLR 00/M04 A3000 910 75 -600 130/05 RMK AO2 T00001039
04850KAOH AOH20160108020510901/08/16 02:05:31  5-MIN KAOH 080705Z AUTO 13005KT 10SM CLR 00/M03 A3000 900 78 -600 130/05 RMK AO2 T00001033
04850KAOH AOH20160108021010901/08/16 02:10:31  5-MIN KAOH 080710Z AUTO 13006KT 10SM CLR 00/M03 A3000 900 78 -600 140/06 RMK AO2 T00001033
04850KAOH AOH20160108021510901/08/16 02:15:31  5-MIN KAOH 080715Z AUTO 13006KT 10SM CLR 00/M04 A3000 910 75 -600 140/06 RMK AO2 T00001039
04850KAOH AOH20160108022010901/08/16 02:20:31  5-MIN KAOH 080720Z AUTO 12006KT 10SM CLR 01/M04 A2999 910 72 -500 130/06 RMK AO2 T00061039
04850KAOH AOH20160108022510901/08/16 02:25:31  5-MIN KAOH 080725Z AUTO 11004KT 10SM CLR 01/M03 A2999 910 75 -500 120/04 RMK AO2 T00061033
04850KAOH AOH20160108023010901/08/16 02:30:31  5-MIN KAOH 080730Z AUTO 11005KT 10SM CLR 00/M03 A2999 910 78 -600 120/05 RMK AO2 T00001033
04850KAOH AOH20160108023510901/08/16 02:35:31  5-MIN KAOH 080735Z AUTO 11006KT 10SM CLR 01/M03 A2999 920 75 -500 120/06 RMK AO2 T00061033
04850KAOH AOH20160108024010901/08/16 02:40:31  5-MIN KAOH 080740Z AUTO 11006KT 10SM CLR 01/M03 A2998 920 75 -500 120/06 RMK AO2 T00061033
04850KAOH AOH20160108024510901/08/16 02:45:31  5-MIN KAOH 080745Z AUTO 12005KT 10SM CLR 01/M03 A2998 920 75 -500 130/05 RMK AO2 T00061033
04850KAOH AOH20160108025011601/08/16 02:50:31  5-MIN KAOH 080750Z AUTO 12005KT 10SM CLR 01/M03 A2998 920 75 -500 120/05 RMK AO2 SLP160 T00061033
04850KAOH AOH20160108025510901/08/16 02:55:31  5-MIN KAOH 080755Z AUTO 13005KT 10SM CLR 01/M03 A2998 920 75 -500 140/05 RMK AO2 T00061033
04850KAOH AOH20160108030010901/08/16 03:00:31  5-MIN KAOH 080800Z AUTO 13003KT 10SM CLR 01/M03 A2998 920 75 -500 130/03 RMK AO2 T00061033
04850KAOH AOH20160108030510901/08/16 03:05:31  5-MIN KAOH 080805Z AUTO 00000KT 10SM CLR 00/M03 A2998 920 78 -600 000/00 RMK AO2 T00001033
04850KAOH AOH20160108031010901/08/16 03:10:31  5-MIN KAOH 080810Z AUTO 00000KT 10SM CLR 00/M03 A2998 920 78 -600 000/00 RMK AO2 T00001033
04850KAOH AOH20160108031510901/08/16 03:15:31  5-MIN KAOH 080815Z AUTO 11003KT 10SM CLR 00/M03 A2998 920 78 -600 120/03 RMK AO2 T00001033
04850KAOH AOH20160108032010901/08/16 03:20:31  5-MIN KAOH 080820Z AUTO 12003KT 10SM CLR 00/M03 A2998 920 78 -600 130/03 RMK AO2 T00001033
04850KAOH AOH20160108032510901/08/16 03:25:31  5-MIN KAOH 080825Z AUTO 14004KT 10SM CLR 01/M03 A2999 920 75 -500 150/04 RMK AO2 T00061033
04850KAOH AOH20160108033010901/08/16 03:30:31  5-MIN KAOH 080830Z AUTO 13003KT 10SM CLR 00/M03 A2998 920 78 -600 140/03 RMK AO2 T00001033
04850KAOH AOH20160108033510901/08/16 03:35:31  5-MIN KAOH 080835Z AUTO 13004KT 10SM CLR 00/M03 A2998 920 78 -600 130/04 RMK AO2 T00001033
04850KAOH AOH20160108034010901/08/16 03:40:31  5-MIN KAOH 080840Z AUTO 12003KT 10SM CLR 00/M03 A2998 920 78 -600 120/03 RMK AO2 T00001033
04850KAOH AOH20160108034510901/08/16 03:45:31  5-MIN KAOH 080845Z AUTO 09003KT 10SM CLR 00/M03 A2998 930 78 -600 100/03 RMK AO2 T00001033
04850KAOH AOH20160108035012501/08/16 03:50:31  5-MIN KAOH 080850Z AUTO 09004KT 10SM FEW049 00/M03 A2997 930 78 -600 090/04 RMK AO2 SLP157 T00001033 58019
04850KAOH AOH20160108035511201/08/16 03:55:31  5-MIN KAOH 080855Z AUTO 09004KT 10SM SCT049 00/M03 A2997 930 78 -600 100/04 RMK AO2 T00001033
04850KAOH AOH20160108040011201/08/16 04:00:31  5-MIN KAOH 080900Z AUTO 11003KT 10SM BKN047 00/M03 A2997 930 78 -600 110/03 RMK AO2 T00001033
04850KAOH AOH20160108040511201/08/16 04:05:31  5-MIN KAOH 080905Z AUTO 13004KT 10SM BKN047 00/M03 A2997 930 78 -600 130/04 RMK AO2 T00001033
04850KAOH AOH20160108041011201/08/16 04:10:31  5-MIN KAOH 080910Z AUTO 14005KT 10SM BKN045 00/M03 A2997 930 78 -600 140/05 RMK AO2 T00001033
04850KAOH AOH20160108041511201/08/16 04:15:31  5-MIN KAOH 080915Z AUTO 14007KT 10SM OVC045 01/M03 A2997 930 75 -500 140/07 RMK AO2 T00061033
04850KAOH AOH20160108042011201/08/16 04:20:31  5-MIN KAOH 080920Z AUTO 13006KT 10SM OVC043 01/M03 A2997 930 72 -400 140/06 RMK AO2 T00111033
04850KAOH AOH20160108042511201/08/16 04:25:31  5-MIN KAOH 080925Z AUTO 13006KT 10SM OVC043 02/M03 A2997 930 69 -400 140/06 RMK AO2 T00171033
04850KAOH AOH20160108043011901/08/16 04:30:31  5-MIN KAOH 080930Z AUTO 12006KT 10SM BKN041 OVC055 02/M03 A2997 940 69 -400 130/06 RMK AO2 T00171033
04850KAOH AOH20160108043511901/08/16 04:35:31  5-MIN KAOH 080935Z AUTO 12005KT 10SM BKN041 OVC055 02/M03 A2996 940 69 -400 130/05 RMK AO2 T00171033
04850KAOH AOH20160108044011901/08/16 04:40:31  5-MIN KAOH 080940Z AUTO 14005KT 10SM BKN041 OVC055 02/M03 A2996 940 69 -400 140/05 RMK AO2 T00171033
04850KAOH AOH20160108044511901/08/16 04:45:31  5-MIN KAOH 080945Z AUTO 13005KT 10SM BKN039 OVC055 02/M03 A2996 940 69 -400 140/05 RMK AO2 T00171033
04850KAOH AOH20160108045012601/08/16 04:50:31  5-MIN KAOH 080950Z AUTO 13006KT 10SM BKN037 OVC055 02/M03 A2996 940 67 -300 140/06 RMK AO2 SLP152 T00221033
04850KAOH AOH20160108045511901/08/16 04:55:31  5-MIN KAOH 080955Z AUTO 14005KT 10SM BKN037 OVC055 02/M03 A2996 940 67 -300 140/05 RMK AO2 T00221033
04850KAOH AOH20160108050011201/08/16 05:00:31  5-MIN KAOH 081000Z AUTO 14005KT 10SM OVC037 02/M03 A2996 940 67 -300 140/05 RMK AO2 T00221033
04850KAOH AOH20160108050511901/08/16 05:05:31  5-MIN KAOH 081005Z AUTO 14006KT 10SM BKN037 OVC060 02/M03 A2996 940 67 -300 140/06 RMK AO2 T00221033
04850KAOH AOH20160108051012601/08/16 05:10:31  5-MIN KAOH 081010Z AUTO 14006KT 10SM BKN036 BKN048 OVC060 02/M03 A2996 940 67 -300 140/06 RMK AO2 T00221033
04850KAOH AOH20160108051511901/08/16 05:15:31  5-MIN KAOH 081015Z AUTO 14006KT 10SM BKN036 OVC048 02/M03 A2996 940 67 -300 150/06 RMK AO2 T00221033
04850KAOH AOH20160108052011901/08/16 05:20:31  5-MIN KAOH 081020Z AUTO 14006KT 10SM BKN036 OVC048 02/M03 A2996 940 67 -300 150/06 RMK AO2 T00221033
04850KAOH AOH20160108052511901/08/16 05:25:31  5-MIN KAOH 081025Z AUTO 15006KT 10SM BKN036 OVC047 02/M03 A2996 940 67 -300 150/06 RMK AO2 T00221033
04850KAOH AOH20160108053011901/08/16 05:30:31  5-MIN KAOH 081030Z AUTO 15006KT 10SM BKN036 OVC047 02/M03 A2996 940 67 -300 150/06 RMK AO2 T00221033
04850KAOH AOH20160108053511201/08/16 05:35:31  5-MIN KAOH 081035Z AUTO 16004KT 10SM OVC038 02/M03 A2996 940 69 -300 170/04 RMK AO2 T00221028
04850KAOH AOH20160108054011201/08/16 05:40:31  5-MIN KAOH 081040Z AUTO 17004KT 10SM OVC038 02/M03 A2996 940 69 -300 170/04 RMK AO2 T00221028
04850KAOH AOH20160108054513301/08/16 05:45:31  5-MIN KAOH 081045Z AUTO 15006KT 7SM UP FEW023 OVC036 02/M03 A2996 940 72 -400 160/06 RMK AO2 UPB45 P0000 T00171028
04850KAOH AOH20160108055014901/08/16 05:50:31  5-MIN KAOH 081050Z AUTO 15006KT 5SM -RA SCT023 OVC036 02/M02 A2996 940 78 -400 150/06 RMK AO2 UPB45E47RAB47 SLP152 P0000 T00171017
04850KAOH AOH20160108055512801/08/16 05:55:31  5-MIN KAOH 081055Z AUTO 15006KT 5SM -RA SCT023 OVC036 02/M02 A2996 940 78 -400 150/06 RMK AO2 P0000 T00171017
04850KAOH AOH20160108060012801/08/16 06:00:31  5-MIN KAOH 081100Z AUTO 15005KT 6SM -RA SCT024 OVC036 02/M01 A2996 940 82 -400 160/05 RMK AO2 P0000 T00171011
04850KAOH AOH20160108060513101/08/16 06:05:31  5-MIN KAOH 081105Z AUTO 15005KT 6SM -RA BR SCT024 OVC032 01/M01 A2996 940 85 -400 160/05 RMK AO2 P0000 T00111011
04850KAOH AOH20160108061013101/08/16 06:10:31  5-MIN KAOH 081110Z AUTO 14007KT 6SM -RA BR BKN026 OVC032 02/M01 A2995 950 85 -400 140/07 RMK AO2 P0000 T00171006
04850KAOH AOH20160108061513301/08/16 06:15:31  5-MIN KAOH 081115Z AUTO 14007KT 4SM BR SCT023 OVC030 02/M01 A2995 950 85 -400 140/07 RMK AO2 RAE13 P0000 T00171006
04850KAOH AOH20160108062013001/08/16 06:20:31  5-MIN KAOH 081120Z AUTO 13005KT 4SM -RA BR BKN028 OVC033 02/00 A2995 950 89 -400 140/05 RMK AO2 P0000 T00170000
04850KAOH AOH20160108062512301/08/16 06:25:31  5-MIN KAOH 081125Z AUTO 15005KT 4SM -RA BR OVC028 02/01 A2995 950 92 -400 160/05 RMK AO2 P0000 T00170006
04850KAOH AOH20160108063013001/08/16 06:30:31  5-MIN KAOH 081130Z AUTO 16006KT 4SM -RA BR BKN028 OVC042 02/01 A2996 940 92 -400 170/06 RMK AO2 P0000 T00170006
04850KAOH AOH20160108063512301/08/16 06:35:31  5-MIN KAOH 081135Z AUTO 16008KT 3SM -RA BR OVC026 01/01 A2996 940 96 -400 170/08 RMK AO2 P0001 T00110006
04850KAOH AOH20160108064012901/08/16 06:40:31  5-MIN KAOH 081140Z AUTO 15007KT 2SM RA BR SCT021 OVC026 01/00 A2995 950 92 -400 160/07 RMK AO2 P0002 T00110000
04850KAOH AOH20160108064513401/08/16 06:45:31  5-MIN KAOH 081145Z AUTO 16007KT 1 3/4SM -RA BR FEW021 OVC026 01/01 A2995 950 96 -400 170/07 RMK AO2 P0003 T00110006
04850KAOH AOH20160108065012701/08/16 06:50:31  5-MIN KAOH 081150Z AUTO 16006KT 2SM -RA BR FEW021 BKN028 OVC038 01/01 A2995 950 96 -400 170/06 RMK AO2 P0004
04850KAOH AOH20160108065513301/08/16 06:55:31  5-MIN KAOH 081155Z AUTO 15006KT 2 1/2SM RA BR FEW023 OVC032 01/01 A2995 950 96 -400 160/06 RMK AO2 P0000 T00110006
04850KAOH AOH20160108070014101/08/16 07:00:31  5-MIN KAOH 081200Z AUTO 15006KT 2 1/2SM -RA BR FEW023 BKN030 OVC037 01/01 A2995 950 96 -400 150/06 RMK AO2 P0001 T00110006
04850KAOH AOH20160108070513701/08/16 07:05:31  5-MIN KAOH 081205Z AUTO 15006KT 3SM -RA BR FEW021 BKN028 OVC035 02/01 A2994 950 96 -300 160/06 RMK AO2 P0001 T00170011
04850KAOH AOH20160108071012301/08/16 07:10:31  5-MIN KAOH 081210Z AUTO 15007KT 5SM -RA BR OVC028 02/01 A2994 960 96 -300 150/07 RMK AO2 P0002 T00170011
04850KAOH AOH20160108071513001/08/16 07:15:31  5-MIN KAOH 081215Z AUTO 15007KT 6SM -RA BR BKN026 OVC033 02/01 A2994 960 92 -300 150/07 RMK AO2 P0002 T00220011
04850KAOH AOH20160108072012701/08/16 07:20:31  5-MIN KAOH 081220Z AUTO 15008KT 7SM -RA BKN026 OVC033 02/01 A2994 960 92 -300 160/08 RMK AO2 P0002 T00220011
04850KAOH AOH20160108072512701/08/16 07:25:31  5-MIN KAOH 081225Z AUTO 15008KT 7SM -RA BKN026 OVC033 02/01 A2994 960 92 -300 150/08 RMK AO2 P0002 T00220011
04850KAOH AOH20160108073013401/08/16 07:30:31  5-MIN KAOH 081230Z AUTO 14009KT 7SM -RA BKN026 BKN033 OVC049 02/01 A2994 960 92 -300 150/09 RMK AO2 P0003 T00220011
04850KAOH AOH20160108073513401/08/16 07:35:31  5-MIN KAOH 081235Z AUTO 15010KT 7SM -RA BKN028 BKN033 OVC049 02/01 A2994 960 92 -300 150/10 RMK AO2 P0003 T00220011
04850KAOH AOH20160108074013701/08/16 07:40:31  5-MIN KAOH 081240Z AUTO 15010KT 6SM -RA BR FEW021 BKN028 OVC035 02/01 A2994 960 92 -300 150/10 RMK AO2 P0003 T00220011
04850KAOH AOH20160108074513701/08/16 07:45:31  5-MIN KAOH 081245Z AUTO 15009KT 6SM -RA BR SCT021 BKN026 OVC049 02/01 A2994 960 92 -300 150/09 RMK AO2 P0004 T00220011
04850KAOH AOH20160108075014401/08/16 07:50:31  5-MIN KAOH 081250Z AUTO 14009KT 6SM -RA BR SCT020 BKN027 OVC049 02/01 A2994 960 92 -300 150/09 RMK AO2 SLP145 P0004 T00220011
04850KAOH AOH20160108075513701/08/16 07:55:31  5-MIN KAOH 081255Z AUTO 15009KT 6SM -RA BR SCT018 BKN041 OVC049 02/01 A2994 960 92 -300 150/09 RMK AO2 P0000 T00220011
04850KAOH AOH20160108080013701/08/16 08:00:31  5-MIN KAOH 081300Z AUTO 15008KT 6SM -RA BR SCT014 BKN020 OVC049 02/01 A2994 960 92 -300 150/08 RMK AO2 P0001 T00220011
04850KAOH AOH20160108080513701/08/16 08:05:31  5-MIN KAOH 081305Z AUTO 15009KT 5SM -RA BR BKN014 BKN020 OVC049 02/02 A2993 960 96 -300 150/09 RMK AO2 P0001 T00220017
04850KAOH AOH20160108081013701/08/16 08:10:31  5-MIN KAOH 081310Z AUTO 14009KT 5SM -RA BR BKN014 BKN020 OVC046 03/02 A2993 970 92 -200 150/09 RMK AO2 P0001 T00280017
04850KAOH AOH20160108151511401/08/16 15:15:31  5-MIN KAOH 082015Z AUTO 17009KT 3SM BR OVC004 06/06 A2981 1080 100 200 180/09 RMK AO2 T00560056
04850KAOH AOH20160108152011401/08/16 15:20:31  5-MIN KAOH 082020Z AUTO 17009KT 3SM BR OVC004 06/06 A2981 1080 100 200 170/09 RMK AO2 T00560056
04850KAOH AOH20160108152511401/08/16 15:25:31  5-MIN KAOH 082025Z AUTO 17008KT 3SM BR OVC004 06/06 A2981 1080 100 200 180/08 RMK AO2 T00560056
04850KAOH AOH20160108153013401/08/16 15:30:31  5-MIN KAOH 082030Z AUTO 17008KT 2 1/2SM -RA BR OVC004 06/06 A2981 1080 100 200 180/08 RMK AO2 RAB28 P0000 T00560056
04850KAOH AOH20160108153512901/08/16 15:35:31  5-MIN KAOH 082035Z AUTO 17008KT 2SM BR OVC003 06/06 A2981 1080 100 200 180/08 RMK AO2 RAB28E34 P0000 T00560056
04850KAOH AOH20160108154013301/08/16 15:40:31  5-MIN KAOH 082040Z AUTO 18007KT 1 3/4SM BR OVC003 06/06 A2981 1080 100 200 180/07 RMK AO2 RAB28E34 P0000 T00560056
04850KAOH AOH20160108154513301/08/16 15:45:31  5-MIN KAOH 082045Z AUTO 18007KT 1 3/4SM BR OVC003 06/06 A2981 1080 100 200 190/07 RMK AO2 RAB28E34 P0000 T00560056
04850KAOH AOH20160108155011901/08/16 15:50:31  5-MIN KAOH 082050Z AUTO 18007KT 2SM BR OVC003 06/06 A2981 1080 100 200 190/07 RMK AO2 RAB28E34 P0000
04850KAOH AOH20160108155511401/08/16 15:55:31  5-MIN KAOH 082055Z AUTO 18007KT 2SM BR OVC003 06/06 A2981 1080 100 200 190/07 RMK AO2 T00560056
04850KAOH AOH20160108160011801/08/16 16:00:31  5-MIN KAOH 082100Z AUTO 18007KT 1 3/4SM BR OVC003 06/06 A2981 1080 100 200 190/07 RMK AO2 T00560056
04850KAOH AOH20160108160511801/08/16 16:05:31  5-MIN KAOH 082105Z AUTO 18007KT 1 1/4SM BR OVC003 06/06 A2981 1080 100 200 180/07 RMK AO2 T00560056
04850KAOH AOH20160108161011601/08/16 16:10:31  5-MIN KAOH 082110Z AUTO 18006KT 3/4SM BR OVC003 06/06 A2981 1080 100 200 180/06 RMK AO2 T00560056
04850KAOH AOH20160108161511601/08/16 16:15:31  5-MIN KAOH 082115Z AUTO 18007KT 1/2SM FG OVC002 06/06 A2981 1080 100 200 190/07 RMK AO2 T00560056
04850KAOH AOH20160108162011601/08/16 16:20:31  5-MIN KAOH 082120Z AUTO 18007KT 1/2SM FG OVC002 06/06 A2981 1080 100 200 190/07 RMK AO2 T00560056
04850KAOH AOH20160108162511601/08/16 16:25:31  5-MIN KAOH 082125Z AUTO 18006KT 1/2SM FG OVC002 06/06 A2981 1080 100 200 190/06 RMK AO2 T00560056
04850KAOH AOH20160108163011601/08/16 16:30:31  5-MIN KAOH 082130Z AUTO 18007KT 1/2SM FG OVC002 06/06 A2981 1080 100 200 190/07 RMK AO2 T00560056
04850KAOH AOH20160108163511501/08/16 16:35:31  5-MIN KAOH 082135Z AUTO 18008KT 1/2SM FG VV003 06/06 A2981 1080 100 300 190/08 RMK AO2 T00610061
04850KAOH AOH20160108164011501/08/16 16:40:31  5-MIN KAOH 082140Z AUTO 18007KT 1/2SM FG VV003 06/06 A2981 1080 100 300 190/07 RMK AO2 T00610061
04850KAOH AOH20160108164511601/08/16 16:45:31  5-MIN KAOH 082145Z AUTO 18007KT 1/2SM FG OVC002 06/06 A2981 1080 100 300 180/07 RMK AO2 T00610061
04850KAOH AOH20160108165012301/08/16 16:50:31  5-MIN KAOH 082150Z AUTO 18008KT 3/4SM BR OVC002 06/06 A2981 1080 100 300 190/08 RMK AO2 SLP101 T00610061
04850KAOH AOH20160108165511601/08/16 16:55:31  5-MIN KAOH 082155Z AUTO 19008KT 3/4SM BR OVC002 06/06 A2981 1080 100 300 190/08 RMK AO2 T00610061
04850KAOH AOH20160108170011601/08/16 17:00:31  5-MIN KAOH 082200Z AUTO 18009KT 3/4SM BR OVC002 06/06 A2981 1080 100 300 190/09 RMK AO2 T00610061
04850KAOH AOH20160108170511601/08/16 17:05:31  5-MIN KAOH 082205Z AUTO 18008KT 3/4SM BR OVC002 06/06 A2981 1080 100 300 190/08 RMK AO2 T00610061
04850KAOH AOH20160108171011601/08/16 17:10:31  5-MIN KAOH 082210Z AUTO 19008KT 3/4SM BR OVC002 06/06 A2982 1070 100 300 200/08 RMK AO2 T00610061
04850KAOH AOH20160108171511601/08/16 17:15:31  5-MIN KAOH 082215Z AUTO 19008KT 1/2SM FG OVC002 06/06 A2982 1070 100 300 200/08 RMK AO2 T00610061
04850KAOH AOH20160108172011601/08/16 17:20:31  5-MIN KAOH 082220Z AUTO 19008KT 1/2SM FG OVC002 06/06 A2982 1070 100 300 200/08 RMK AO2 T00610061
04850KAOH AOH20160108172511601/08/16 17:25:31  5-MIN KAOH 082225Z AUTO 19008KT 1/2SM FG OVC002 06/06 A2982 1070 100 300 190/08 RMK AO2 T00610061
04850KAOH AOH20160108173011501/08/16 17:30:31  5-MIN KAOH 082230Z AUTO 20008KT 3/4SM BR VV003 06/06 A2982 1070 100 300 200/08 RMK AO2 T00610061
04850KAOH AOH20160108173511501/08/16 17:35:31  5-MIN KAOH 082235Z AUTO 19008KT 3/4SM BR VV003 06/06 A2982 1070 100 300 200/08 RMK AO2 T00610061
04850KAOH AOH20160108174011401/08/16 17:40:31  5-MIN KAOH 082240Z AUTO 20009KT 1SM BR OVC003 06/06 A2982 1070 100 300 210/09 RMK AO2 T00610061
04850KAOH AOH20160108174511801/08/16 17:45:31  5-MIN KAOH 082245Z AUTO 20007KT 1 1/4SM BR OVC003 06/06 A2982 1070 100 300 210/07 RMK AO2 T00610061
04850KAOH AOH20160108175010401/08/16 17:50:31  5-MIN KAOH 082250Z AUTO 20009KT 2SM BR OVC003 07/07 A2982 1070 100 400 200/09 RMK AO2
04850KAOH AOH20160108175512801/08/16 17:55:31  5-MIN KAOH 082255Z AUTO 20007KT 3SM BR BKN003 BKN007 OVC013 07/07 A2982 1070 100 400 200/07 RMK AO2 T00670067
04850KAOH AOH20160108180012101/08/16 18:00:31  5-MIN KAOH 082300Z AUTO 20008KT 4SM BR BKN003 OVC013 07/07 A2983 1070 100 400 210/08 RMK AO2 T00670067
04850KAOH AOH20160108180512101/08/16 18:05:31  5-MIN KAOH 082305Z AUTO 20007KT 4SM BR BKN003 OVC013 07/07 A2983 1070 100 400 210/07 RMK AO2 T00670067
04850KAOH AOH20160108181012801/08/16 18:10:31  5-MIN KAOH 082310Z AUTO 21007KT 4SM BR SCT003 BKN015 OVC019 07/07 A2983 1060 100 400 210/07 RMK AO2 T00670067
04850KAOH AOH20160108181512801/08/16 18:15:31  5-MIN KAOH 082315Z AUTO 20008KT 4SM BR FEW005 BKN013 OVC019 07/07 A2983 1060 100 400 210/08 RMK AO2 T00670067
04850KAOH AOH20160108182012801/08/16 18:20:31  5-MIN KAOH 082320Z AUTO 20008KT 5SM BR FEW005 SCT013 OVC019 07/07 A2983 1060 100 400 200/08 RMK AO2 T00670067
04850KAOH AOH20160108182512101/08/16 18:25:31  5-MIN KAOH 082325Z AUTO 19007KT 5SM BR FEW015 OVC019 07/07 A2983 1060 100 400 200/07 RMK AO2 T00670067
04850KAOH AOH20160108183011401/08/16 18:30:31  5-MIN KAOH 082330Z AUTO 19008KT 5SM BR OVC021 07/07 A2983 1060 100 300 200/08 RMK AO2 T00670067
04850KAOH AOH20160108183511401/08/16 18:35:31  5-MIN KAOH 082335Z AUTO 19007KT 5SM BR OVC021 07/07 A2983 1060 100 300 200/07 RMK AO2 T00670067
04850KAOH AOH20160108184012101/08/16 18:40:31  5-MIN KAOH 082340Z AUTO 19008KT 4SM BR FEW015 OVC022 07/07 A2984 1060 100 300 200/08 RMK AO2 T00670067
04850KAOH AOH20160108184513701/08/16 18:45:31  5-MIN KAOH 082345Z AUTO 19007KT 3SM -RA BR SCT016 OVC021 07/07 A2983 1060 100 300 200/07 RMK AO2 RAB43 P0000 T00670067
04850KAOH AOH20160108185017501/08/16 18:50:31  5-MIN KAOH 082350Z AUTO 18007KT 4SM -RA BR FEW014 BKN021 OVC031 07/07 A2983 1060 100 300 190/07 RMK AO2 RAB43 SLP109 P0000 60001 T00670067 10067 20056 55009
04850KAOH AOH20160108185512801/08/16 18:55:31  5-MIN KAOH 082355Z AUTO 18007KT 4SM BR FEW012 BKN023 OVC031 07/07 A2983 1060 100 300 190/07 RMK AO2 T00670067
04850KAOH AOH20160108190012801/08/16 19:00:31  5-MIN KAOH 090000Z AUTO 18006KT 4SM BR FEW016 BKN023 OVC031 07/07 A2983 1060 100 300 190/06 RMK AO2 T00670067
04850KAOH AOH20160108190512801/08/16 19:05:31  5-MIN KAOH 090005Z AUTO 18007KT 4SM BR FEW013 SCT023 OVC033 07/07 A2983 1060 100 300 190/07 RMK AO2 T00670067
04850KAOH AOH20160108191012801/08/16 19:10:31  5-MIN KAOH 090010Z AUTO 18007KT 4SM BR FEW013 FEW021 OVC033 07/07 A2984 1060 100 300 190/07 RMK AO2 T00670067
04850KAOH AOH20160108191512801/08/16 19:15:31  5-MIN KAOH 090015Z AUTO 18007KT 4SM BR FEW011 SCT023 OVC035 07/07 A2984 1060 100 300 190/07 RMK AO2 T00670067
04850KAOH AOH20160108192012801/08/16 19:20:31  5-MIN KAOH 090020Z AUTO 18007KT 4SM BR SCT009 SCT023 OVC033 07/07 A2984 1050 100 300 190/07 RMK AO2 T00670067
04850KAOH AOH20160108192512801/08/16 19:25:31  5-MIN KAOH 090025Z AUTO 18007KT 4SM BR SCT007 SCT011 OVC033 07/07 A2983 1060 100 300 180/07 RMK AO2 T00670067
04850KAOH AOH20160108193012801/08/16 19:30:31  5-MIN KAOH 090030Z AUTO 17008KT 4SM BR SCT007 SCT011 OVC033 07/07 A2983 1060 100 300 180/08 RMK AO2 T00670067
04850KAOH AOH20160108193512701/08/16 19:35:31  5-MIN KAOH 090035Z AUTO 16009KT 4SM BR SCT007 BKN011 OVC033 07/06 A2983 1060 96 400 170/09 RMK AO2 T00670061
04850KAOH AOH20160108194014001/08/16 19:40:31  5-MIN KAOH 090040Z AUTO 17009KT 3SM BR BKN005 BKN011 OVC033 06/06 A2983 1060 100 300 170/09 RMK AO2 CIG 004V009 T00610061
04850KAOH AOH20160108194513701/08/16 19:45:31  5-MIN KAOH 090045Z AUTO 17009KT 2 1/2SM BR BKN005 OVC033 06/06 A2983 1060 100 300 170/09 RMK AO2 CIG 004V008 T00610061
04850KAOH AOH20160108195012801/08/16 19:50:31  5-MIN KAOH 090050Z AUTO 16008KT 3SM BR BKN005 OVC033 06/06 A2983 1060 100 300 170/08 RMK AO2 SLP107 T00610061
04850KAOH AOH20160108195512101/08/16 19:55:31  5-MIN KAOH 090055Z AUTO 16009KT 3SM BR BKN005 OVC033 06/06 A2983 1060 100 300 170/09 RMK AO2 T00610061
04850KAOH AOH20160108200012501/08/16 20:00:31  5-MIN KAOH 090100Z AUTO 16009KT 2 1/2SM BR SCT004 OVC033 06/06 A2982 1070 100 300 170/09 RMK AO2 T00610061
04850KAOH AOH20160108200512701/08/16 20:05:31  5-MIN KAOH 090105Z AUTO 15010KT 2SM BR SCT004 BKN032 OVC039 06/06 A2982 1070 96 300 160/10 RMK AO2 T00610056
04850KAOH AOH20160108201012501/08/16 20:10:31  5-MIN KAOH 090110Z AUTO 15012KT 2 1/2SM BR FEW004 OVC036 06/06 A2982 1070 100 300 160/12 RMK AO2 T00610061
04850KAOH AOH20160108201512101/08/16 20:15:31  5-MIN KAOH 090115Z AUTO 16012KT 3SM BR FEW004 OVC036 06/06 A2982 1070 100 300 170/12 RMK AO2 T00610061
04850KAOH AOH20160108202011401/08/16 20:20:31  5-MIN KAOH 090120Z AUTO 16011KT 3SM BR OVC036 06/06 A2982 1070 100 300 170/11 RMK AO2 T00610061
04850KAOH AOH20160108202512501/08/16 20:25:31  5-MIN KAOH 090125Z AUTO 16011KT 2 1/2SM BR FEW030 OVC038 06/06 A2982 1070 100 300 170/11 RMK AO2 T00610061
04850KAOH AOH20160108203011401/08/16 20:30:31  5-MIN KAOH 090130Z AUTO 16009KT 2SM BR OVC038 06/06 A2982 1070 100 300 170/09 RMK AO2 T00610061
04850KAOH AOH20160108203512101/08/16 20:35:31  5-MIN KAOH 090135Z AUTO 16009KT 2SM BR FEW004 OVC037 06/06 A2982 1070 100 300 170/09 RMK AO2 T00610061
04850KAOH AOH20160108204012101/08/16 20:40:31  5-MIN KAOH 090140Z AUTO 16008KT 2SM BR SCT004 OVC037 06/06 A2982 1070 100 300 170/08 RMK AO2 T00610061
04850KAOH AOH20160108204512101/08/16 20:45:31  5-MIN KAOH 090145Z AUTO 17008KT 2SM BR BKN003 OVC037 07/07 A2982 1070 100 400 170/08 RMK AO2 T00670067
04850KAOH AOH20160108205013201/08/16 20:50:31  5-MIN KAOH 090150Z AUTO 17009KT 1 3/4SM BR BKN003 OVC037 07/07 A2983 1060 100 400 180/09 RMK AO2 SLP105 T00670067
04850KAOH AOH20160108205512101/08/16 20:55:31  5-MIN KAOH 090155Z AUTO 17007KT 2SM BR BKN003 OVC036 07/07 A2983 1070 100 400 180/07 RMK AO2 T00670067
04850KAOH AOH20160108210011401/08/16 21:00:31  5-MIN KAOH 090200Z AUTO 18007KT 2SM BR OVC003 07/07 A2983 1060 100 400 190/07 RMK AO2 T00670067
04850KAOH AOH20160108210511801/08/16 21:05:31  5-MIN KAOH 090205Z AUTO 17007KT 2 1/2SM BR OVC003 07/07 A2983 1060 100 400 180/07 RMK AO2 T00670067
04850KAOH AOH20160108211011801/08/16 21:10:31  5-MIN KAOH 090210Z AUTO 17007KT 2 1/2SM BR OVC003 07/07 A2983 1060 100 400 180/07 RMK AO2 T00670067
04850KAOH AOH20160108211511801/08/16 21:15:31  5-MIN KAOH 090215Z AUTO 17007KT 2 1/2SM BR OVC003 07/07 A2982 1070 100 400 180/07 RMK AO2 T00670067
04850KAOH AOH20160108212011801/08/16 21:20:31  5-MIN KAOH 090220Z AUTO 16007KT 2 1/2SM BR OVC003 07/07 A2982 1070 100 400 170/07 RMK AO2 T00670067
04850KAOH AOH20160108212511401/08/16 21:25:31  5-MIN KAOH 090225Z AUTO 16008KT 2SM BR OVC003 06/06 A2982 1070 100 300 170/08 RMK AO2 T00610061
04850KAOH AOH20160108213011801/08/16 21:30:31  5-MIN KAOH 090230Z AUTO 16008KT 1 3/4SM BR OVC004 06/06 A2982 1070 100 300 170/08 RMK AO2 T00610061
04850KAOH AOH20160108213511401/08/16 21:35:31  5-MIN KAOH 090235Z AUTO 15008KT 2SM BR OVC004 06/06 A2982 1070 100 300 160/08 RMK AO2 T00610061
04850KAOH AOH20160108214011401/08/16 21:40:31  5-MIN KAOH 090240Z AUTO 16008KT 2SM BR OVC004 06/06 A2982 1070 100 300 160/08 RMK AO2 T00610061
04850KAOH AOH20160108214511801/08/16 21:45:31  5-MIN KAOH 090245Z AUTO 16007KT 2 1/2SM BR OVC004 06/06 A2982 1070 100 300 170/07 RMK AO2 T00610061
04850KAOH AOH20160108215012701/08/16 21:50:31  5-MIN KAOH 090250Z AUTO 15007KT 2SM BR OVC004 06/06 A2982 1070 100 300 160/07 RMK AO2 SLP102 T00610061 53007
04850KAOH AOH20160108215512501/08/16 21:55:31  5-MIN KAOH 090255Z AUTO 17006KT 1 3/4SM BR BKN004 OVC026 06/06 A2982 1070 100 300 180/06 RMK AO2 T00610061
04850KAOH AOH20160108220012101/08/16 22:00:31  5-MIN KAOH 090300Z AUTO 17006KT 2SM BR BKN005 OVC026 06/06 A2982 1070 100 300 170/06 RMK AO2 T00610061
04850KAOH AOH20160108220512501/08/16 22:05:31  5-MIN KAOH 090305Z AUTO 16006KT 1 1/4SM BR BKN005 OVC026 06/06 A2982 1070 100 200 170/06 RMK AO2 T00560056
04850KAOH AOH20160108221012301/08/16 22:10:31  5-MIN KAOH 090310Z AUTO 16007KT 3/4SM BR BKN005 OVC024 06/06 A2982 1070 100 200 170/07 RMK AO2 T00560056
04850KAOH AOH20160108221511401/08/16 22:15:31  5-MIN KAOH 090315Z AUTO 17008KT 1SM BR OVC005 06/06 A2982 1070 100 200 170/08 RMK AO2 T00560056
04850KAOH AOH20160108222012101/08/16 22:20:31  5-MIN KAOH 090320Z AUTO 17009KT 2SM BR BKN005 OVC013 06/06 A2981 1080 100 300 180/09 RMK AO2 T00610061
04850KAOH AOH20160108222512701/08/16 22:25:31  5-MIN KAOH 090325Z AUTO 17009KT 3SM BR BKN005 BKN010 OVC015 07/06 A2982 1070 96 400 180/09 RMK AO2 T00670061
04850KAOH AOH20160108223012701/08/16 22:30:31  5-MIN KAOH 090330Z AUTO 18009KT 4SM BR BKN005 BKN010 OVC015 07/07 A2982 1070 96 400 190/09 RMK AO2 T00720067
04850KAOH AOH20160108223513201/08/16 22:35:31  5-MIN KAOH 090335Z AUTO 18008KT 4SM BR BKN005 OVC012 07/07 A2982 1070 96 400 180/08 RMK AO2 CIG 005V008 T00720067
04850KAOH AOH20160108224013201/08/16 22:40:31  5-MIN KAOH 090340Z AUTO 18008KT 4SM BR BKN007 OVC012 07/07 A2982 1070 96 400 190/08 RMK AO2 CIG 005V010 T00720067
04850KAOH AOH20160108224513201/08/16 22:45:31  5-MIN KAOH 090345Z AUTO 19007KT 4SM BR BKN007 OVC013 08/07 A2982 1070 96 500 190/07 RMK AO2 CIG 005V010 T00780072
04850KAOH AOH20160108225013901/08/16 22:50:31  5-MIN KAOH 090350Z AUTO 18007KT 4SM BR BKN007 OVC013 08/07 A2982 1070 96 500 190/07 RMK AO2 CIG 005V010 SLP102 T00780072
04850KAOH AOH20160108225513201/08/16 22:55:31  5-MIN KAOH 090355Z AUTO 19008KT 4SM BR BKN007 OVC011 08/07 A2982 1070 96 500 190/08 RMK AO2 CIG 005V010 T00780072
04850KAOH AOH20160108230012501/08/16 23:00:31  5-MIN KAOH 090400Z AUTO 18007KT 4SM BR OVC007 08/07 A2982 1070 96 500 190/07 RMK AO2 CIG 005V011 T00780072
04850KAOH AOH20160108230512501/08/16 23:05:31  5-MIN KAOH 090405Z AUTO 18007KT 4SM BR OVC007 08/07 A2982 1070 96 500 190/07 RMK AO2 CIG 005V012 T00780072
04850KAOH AOH20160108231013901/08/16 23:10:31  5-MIN KAOH 090410Z AUTO 19007KT 4SM BR BKN007 BKN027 OVC050 08/07 A2982 1070 96 500 190/07 RMK AO2 CIG 005V012 T00780072
04850KAOH AOH20160108231513901/08/16 23:15:31  5-MIN KAOH 090415Z AUTO 18008KT 4SM BR BKN009 BKN027 OVC050 08/07 A2981 1080 96 500 190/08 RMK AO2 CIG 005V017 T00780072
04850KAOH AOH20160108232013201/08/16 23:20:31  5-MIN KAOH 090420Z AUTO 19009KT 4SM BR BKN009 OVC050 08/07 A2981 1080 93 600 190/09 RMK AO2 CIG 006V017 T00830072
04850KAOH AOH20160108232513901/08/16 23:25:31  5-MIN KAOH 090425Z AUTO 19009KT 5SM BR BKN009 BKN016 OVC030 08/07 A2981 1080 93 600 200/09 RMK AO2 CIG 006V012 T00830072
04850KAOH AOH20160108233012701/08/16 23:30:31  5-MIN KAOH 090430Z AUTO 19008KT 5SM BR BKN007 BKN011 OVC030 08/07 A2981 1080 93 600 200/08 RMK AO2 T00830072
04850KAOH AOH20160108233514301/08/16 23:35:31  5-MIN KAOH 090435Z AUTO 19009KT 4SM -RA BR BKN007 BKN011 OVC031 08/08 A2981 1080 96 600 200/09 RMK AO2 RAB34 P0000 T00830078
04850KAOH AOH20160108234014801/08/16 23:40:31  5-MIN KAOH 090440Z AUTO 19010KT 4SM -RA BR BKN007 OVC028 08/08 A2981 1080 96 600 200/10 RMK AO2 RAB34 CIG 006V017 P0000 T00830078
04850KAOH AOH20160108234514801/08/16 23:45:31  5-MIN KAOH 090445Z AUTO 19009KT 5SM -RA BR BKN007 OVC014 08/08 A2981 1080 96 600 200/09 RMK AO2 RAB34 CIG 006V010 P0000 T00830078
04850KAOH AOH20160108235016401/08/16 23:50:31  5-MIN KAOH 090450Z AUTO 19009KT 5SM BR BKN007 OVC013 08/08 A2981 1080 96 600 200/09 RMK AO2 RAB34E49 CIG 006V010 SLP098 P0000 T00830078 400830000
04850KAOH AOH20160108235512501/08/16 23:55:31  5-MIN KAOH 090455Z AUTO 20007KT 5SM BR OVC009 08/08 A2981 1080 96 600 210/07 RMK AO2 CIG 006V014 T00830078
04850KAOH AOH20160109000015501/09/16 00:00:31  5-MIN KAOH 090500Z AUTO 21008KT 4SM -RA BR BKN009 BKN013 OVC019 08/08 A2981 1080 96 600 210/08 RMK AO2 RAB00 CIG 006V010 P0001 T00830078
04850KAOH AOH20160109000515901/09/16 00:05:31  5-MIN KAOH 090505Z AUTO 21008KT 2 1/2SM +RA BR BKN009 BKN013 OVC019 08/08 A2981 1080 96 600 210/08 RMK AO2 RAB00 CIG 006V010 P0004 T00830078
04850KAOH AOH20160109001015201/09/16 00:10:31  5-MIN KAOH 090510Z AUTO 21008KT 2 1/2SM -RA BR BKN009 OVC013 08/08 A2981 1080 96 600 220/08 RMK AO2 RAB00 CIG 006V010 P0004 T00830078
04850KAOH AOH20160109001514301/09/16 00:15:31  5-MIN KAOH 090515Z AUTO 19009KT 4SM -RA BR SCT007 BKN011 OVC016 08/08 A2981 1080 96 600 200/09 RMK AO2 RAB00 P0004 T00830078
04850KAOH AOH20160109002014901/09/16 00:20:31  5-MIN KAOH 090520Z AUTO 20012G18KT 4SM -RA BR SCT007 BKN011 OVC043 09/08 A2981 1080 93 600 210/12G18 RMK AO2 RAB00 P0004 T00890078
04850KAOH AOH20160109002514301/09/16 00:25:31  5-MIN KAOH 090525Z AUTO 20010KT 4SM -RA BR SCT007 BKN013 OVC048 09/08 A2981 1080 96 600 210/10 RMK AO2 RAB00 P0005 T00890083
04850KAOH AOH20160109003014301/09/16 00:30:31  5-MIN KAOH 090530Z AUTO 20009KT 4SM -RA BR SCT007 BKN015 OVC050 09/08 A2981 1080 96 600 200/09 RMK AO2 RAB00 P0005 T00890083
04850KAOH AOH20160109003514301/09/16 00:35:31  5-MIN KAOH 090535Z AUTO 20010KT 5SM -RA BR FEW007 BKN028 OVC039 09/08 A2981 1080 96 600 210/10 RMK AO2 RAB00 P0005 T00890083
04850KAOH AOH20160109004014301/09/16 00:40:31  5-MIN KAOH 090540Z AUTO 20009KT 6SM BR FEW012 BKN029 OVC047 08/08 A2981 1080 100 600 200/09 RMK AO2 RAB00E39 P0005 T00830083
04850KAOH AOH20160109004514201/09/16 00:45:31  5-MIN KAOH 090545Z AUTO 20010KT 6SM BR FEW013 BKN025 OVC047 08/08 A2981 1080 96 600 200/10 RMK AO2 RAB00E39 P0005 T00830078
04850KAOH AOH20160109005017301/09/16 00:50:31  5-MIN KAOH 090550Z AUTO 19010KT 6SM BR FEW013 BKN027 OVC070 08/08 A2981 1080 96 600 200/10 RMK AO2 RAB00E39 SLP099 P0005 60005 T00830078 10089 20056 58001
04850KAOH AOH20160109005512701/09/16 00:55:31  5-MIN KAOH 090555Z AUTO 20010KT 6SM BR SCT021 BKN030 OVC070 08/08 A2981 1080 96 600 210/10 RMK AO2 T00830078
04850KAOH AOH20160109010012701/09/16 01:00:31  5-MIN KAOH 090600Z AUTO 20009KT 6SM BR SCT021 BKN030 OVC070 08/08 A2981 1080 96 600 210/09 RMK AO2 T00830078
04850KAOH AOH20160109010512401/09/16 01:05:31  5-MIN KAOH 090605Z AUTO 21010KT 7SM SCT021 BKN030 OVC070 08/08 A2981 1080 96 600 210/10 RMK AO2 T00830078
04850KAOH AOH20160109011012401/09/16 01:10:31  5-MIN KAOH 090610Z AUTO 21010KT 7SM SCT023 BKN030 OVC070 08/08 A2981 1080 96 600 210/10 RMK AO2 T00830078
04850KAOH AOH20160109011512401/09/16 01:15:31  5-MIN KAOH 090615Z AUTO 21009KT 7SM SCT023 BKN030 OVC070 08/08 A2981 1080 96 600 210/09 RMK AO2 T00830078
04850KAOH AOH20160109012012401/09/16 01:20:31  5-MIN KAOH 090620Z AUTO 21009KT 8SM SCT023 BKN030 OVC070 08/08 A2981 1080 96 600 210/09 RMK AO2 T00830078
04850KAOH AOH20160109012512401/09/16 01:25:31  5-MIN KAOH 090625Z AUTO 21009KT 8SM SCT025 BKN031 OVC070 08/08 A2981 1080 96 600 210/09 RMK AO2 T00830078
04850KAOH AOH20160109013012401/09/16 01:30:31  5-MIN KAOH 090630Z AUTO 21009KT 8SM SCT026 BKN037 OVC070 08/08 A2981 1080 96 600 220/09 RMK AO2 T00830078
04850KAOH AOH20160109013512401/09/16 01:35:31  5-MIN KAOH 090635Z AUTO 21009KT 8SM FEW026 BKN038 OVC060 08/08 A2981 1080 96 600 210/09 RMK AO2 T00830078
04850KAOH AOH20160109014012401/09/16 01:40:31  5-MIN KAOH 090640Z AUTO 20009KT 8SM FEW025 BKN034 OVC060 08/08 A2981 1080 96 600 210/09 RMK AO2 T00830078
04850KAOH AOH20160109014512401/09/16 01:45:31  5-MIN KAOH 090645Z AUTO 21008KT 8SM FEW014 BKN034 OVC060 08/08 A2981 1080 96 600 210/08 RMK AO2 T00830078
04850KAOH AOH20160109015014701/09/16 01:50:31  5-MIN KAOH 090650Z AUTO 21007KT 8SM -RA FEW014 BKN034 OVC060 08/08 A2981 1080 96 600 210/07 RMK AO2 RAB48 SLP098 P0000 T00830078
04850KAOH AOH20160109015513401/09/16 01:55:31  5-MIN KAOH 090655Z AUTO 21009KT 8SM -RA SCT027 BKN036 OVC055 08/08 A2981 1080 96 600 220/09 RMK AO2 P0000 T00830078
04850KAOH AOH20160109020013401/09/16 02:00:31  5-MIN KAOH 090700Z AUTO 21008KT 9SM -RA FEW027 BKN050 OVC060 08/08 A2981 1080 96 600 220/08 RMK AO2 P0000 T00830078
04850KAOH AOH20160109020513601/09/16 02:05:31  5-MIN KAOH 090705Z AUTO 21008KT 9SM FEW027 BKN039 OVC060 08/07 A2981 1080 93 600 210/08 RMK AO2 RAE02 P0000 T00830072
04850KAOH AOH20160109021013601/09/16 02:10:31  5-MIN KAOH 090710Z AUTO 21007KT 9SM SCT027 BKN039 BKN049 08/07 A2981 1080 93 600 210/07 RMK AO2 RAE02 P0000 T00830072
04850KAOH AOH20160109021513601/09/16 02:15:31  5-MIN KAOH 090715Z AUTO 20008KT 8SM FEW027 SCT037 BKN049 08/07 A2981 1080 96 500 210/08 RMK AO2 RAE02 P0000 T00780072
04850KAOH AOH20160109022013601/09/16 02:20:31  5-MIN KAOH 090720Z AUTO 21008KT 8SM FEW027 SCT037 BKN049 08/07 A2981 1080 96 500 210/08 RMK AO2 RAE02 P0000 T00780072
04850KAOH AOH20160109022513601/09/16 02:25:31  5-MIN KAOH 090725Z AUTO 20007KT 7SM FEW027 BKN037 BKN048 08/07 A2981 1080 96 500 210/07 RMK AO2 RAE02 P0000 T00780072
04850KAOH AOH20160109023013601/09/16 02:30:31  5-MIN KAOH 090730Z AUTO 20008KT 7SM FEW027 BKN035 BKN046 08/07 A2981 1080 96 500 210/08 RMK AO2 RAE02 P0000 T00780072
04850KAOH AOH20160109023513601/09/16 02:35:31  5-MIN KAOH 090735Z AUTO 20008KT 7SM FEW027 SCT035 BKN048 08/07 A2981 1080 96 500 210/08 RMK AO2 RAE02 P0000 T00780072
04850KAOH AOH20160109024013601/09/16 02:40:31  5-MIN KAOH 090740Z AUTO 20008KT 7SM FEW028 SCT034 BKN046 08/07 A2981 1080 96 500 200/08 RMK AO2 RAE02 P0000 T00780072
04850KAOH AOH20160109024513601/09/16 02:45:31  5-MIN KAOH 090745Z AUTO 20009KT 7SM FEW021 BKN034 OVC045 08/07 A2981 1080 96 500 200/09 RMK AO2 RAE02 P0000 T00780072
04850KAOH AOH20160109025012601/09/16 02:50:31  5-MIN KAOH 090750Z AUTO 19007KT 7SM FEW019 BKN028 OVC045 08/07 A2981 1080 96 500 200/07 RMK AO2 RAE02 P0000
04850KAOH AOH20160109025512401/09/16 02:55:31  5-MIN KAOH 090755Z AUTO 20007KT 7SM FEW015 BKN028 OVC045 08/07 A2980 1090 96 500 200/07 RMK AO2 T00780072
04850KAOH AOH20160109030012401/09/16 03:00:31  5-MIN KAOH 090800Z AUTO 20007KT 7SM BKN020 BKN028 OVC047 08/07 A2980 1090 96 500 200/07 RMK AO2 T00780072
04850KAOH AOH20160109030512401/09/16 03:05:31  5-MIN KAOH 090805Z AUTO 19007KT 7SM SCT018 BKN023 OVC040 08/07 A2980 1090 96 500 200/07 RMK AO2 T00780072
04850KAOH AOH20160109031012401/09/16 03:10:31  5-MIN KAOH 090810Z AUTO 19006KT 7SM SCT016 BKN021 OVC028 08/07 A2981 1080 96 500 200/06 RMK AO2 T00780072
04850KAOH AOH20160109031512701/09/16 03:15:31  5-MIN KAOH 090815Z AUTO 19008KT 6SM BR BKN016 BKN021 OVC029 08/07 A2981 1080 96 500 200/08 RMK AO2 T00780072
04850KAOH AOH20160109032012701/09/16 03:20:31  5-MIN KAOH 090820Z AUTO 21007KT 6SM BR BKN016 BKN023 OVC050 08/07 A2981 1080 96 500 210/07 RMK AO2 T00780072
04850KAOH AOH20160109032512701/09/16 03:25:31  5-MIN KAOH 090825Z AUTO 21007KT 6SM BR BKN015 BKN023 OVC042 08/07 A2982 1070 96 500 210/07 RMK AO2 T00780072
04850KAOH AOH20160109033012001/09/16 03:30:31  5-MIN KAOH 090830Z AUTO 21008KT 6SM BR BKN015 OVC023 08/08 A2982 1070 96 600 220/08 RMK AO2 T00830078
04850KAOH AOH20160109033511301/09/16 03:35:31  5-MIN KAOH 090835Z AUTO 22006KT 6SM BR OVC013 08/07 A2983 1060 96 500 230/06 RMK AO2 T00780072
04850KAOH AOH20160109034012701/09/16 03:40:31  5-MIN KAOH 090840Z AUTO 23006KT 6SM BR BKN011 BKN017 OVC036 08/07 A2983 1060 96 500 240/06 RMK AO2 T00780072
04850KAOH AOH20160109034512001/09/16 03:45:31  5-MIN KAOH 090845Z AUTO 21008KT 6SM BR BKN013 OVC034 08/07 A2983 1060 96 500 220/08 RMK AO2 T00780072
04850KAOH AOH20160109035015501/09/16 03:50:31  5-MIN KAOH 090850Z AUTO 21008KT 5SM -RA BR BKN013 OVC032 08/07 A2983 1060 96 500 210/08 RMK AO2 RAB50 SLP106 P0000 60000 T00780072 55002
04850KAOH AOH20160109035513001/09/16 03:55:31  5-MIN KAOH 090855Z AUTO 21009KT 5SM -RA BR SCT011 OVC032 08/07 A2984 1050 96 500 210/09 RMK AO2 P0000 T00780072
04850KAOH AOH20160109040013701/09/16 04:00:31  5-MIN KAOH 090900Z AUTO 21009KT 4SM -RA BR SCT011 BKN030 OVC037 08/07 A2984 1050 96 500 210/09 RMK AO2 P0000 T00780072
04850KAOH AOH20160109040513701/09/16 04:05:31  5-MIN KAOH 090905Z AUTO 21009KT 3SM -RA BR FEW011 BKN030 OVC044 08/07 A2984 1050 96 500 220/09 RMK AO2 P0001 T00780072
04850KAOH AOH20160109041013701/09/16 04:10:31  5-MIN KAOH 090910Z AUTO 21009KT 3SM -RA BR FEW013 BKN030 OVC039 08/07 A2984 1060 96 500 220/09 RMK AO2 P0002 T00780072
04850KAOH AOH20160109041513701/09/16 04:15:31  5-MIN KAOH 090915Z AUTO 21008KT 4SM -RA BR SCT030 BKN039 OVC046 08/07 A2983 1060 96 500 220/08 RMK AO2 P0002 T00780072
04850KAOH AOH20160109042013701/09/16 04:20:31  5-MIN KAOH 090920Z AUTO 22008KT 5SM -RA BR SCT030 SCT041 OVC050 08/07 A2983 1070 96 500 230/08 RMK AO2 P0003 T00780072
04850KAOH AOH20160109042513701/09/16 04:25:31  5-MIN KAOH 090925Z AUTO 22009KT 6SM -RA BR FEW030 SCT038 OVC050 08/07 A2982 1070 93 500 220/09 RMK AO2 P0003 T00780067
04850KAOH AOH20160109043012701/09/16 04:30:31  5-MIN KAOH 090930Z AUTO 22008KT 7SM -RA FEW039 OVC050 08/07 A2983 1070 93 500 230/08 RMK AO2 P0003 T00780067
04850KAOH AOH20160109043513601/09/16 04:35:31  5-MIN KAOH 090935Z AUTO 21008KT 9SM FEW024 SCT039 OVC050 08/07 A2983 1060 93 500 220/08 RMK AO2 RAE35 P0003 T00780067
04850KAOH AOH20160109044012901/09/16 04:40:31  5-MIN KAOH 090940Z AUTO 21007KT 8SM SCT024 OVC050 08/07 A2983 1060 93 500 220/07 RMK AO2 RAE35 P0003 T00780067
04850KAOH AOH20160109044513601/09/16 04:45:31  5-MIN KAOH 090945Z AUTO 21007KT 8SM FEW024 BKN050 OVC055 07/07 A2983 1060 96 400 220/07 RMK AO2 RAE35 P0003 T00720067
04850KAOH AOH20160109045014301/09/16 04:50:31  5-MIN KAOH 090950Z AUTO 22008KT 8SM FEW024 SCT036 OVC050 07/07 A2984 1050 96 400 220/08 RMK AO2 RAE35 SLP109 P0003 T00720067
04850KAOH AOH20160109045512401/09/16 04:55:31  5-MIN KAOH 090955Z AUTO 21007KT 8SM SCT024 BKN036 OVC055 07/07 A2984 1050 96 400 220/07 RMK AO2 T00720067
04850KAOH AOH20160109050012401/09/16 05:00:31  5-MIN KAOH 091000Z AUTO 21009KT 8SM BKN022 BKN034 OVC050 07/07 A2984 1050 96 400 220/09 RMK AO2 T00720067
04850KAOH AOH20160109050512401/09/16 05:05:31  5-MIN KAOH 091005Z AUTO 21007KT 8SM SCT022 BKN034 OVC050 07/06 A2984 1050 93 400 220/07 RMK AO2 T00720061
04850KAOH AOH20160109051012401/09/16 05:10:31  5-MIN KAOH 091010Z AUTO 22006KT 8SM SCT022 BKN030 OVC050 07/06 A2984 1060 93 400 220/06 RMK AO2 T00720061
04850KAOH AOH20160109051512401/09/16 05:15:31  5-MIN KAOH 091015Z AUTO 21007KT 8SM SCT022 BKN030 OVC035 07/06 A2984 1050 93 400 220/07 RMK AO2 T00720061
04850KAOH AOH20160109052012401/09/16 05:20:31  5-MIN KAOH 091020Z AUTO 21007KT 8SM FEW016 BKN023 OVC030 07/06 A2984 1050 93 400 220/07 RMK AO2 T00720061
04850KAOH AOH20160109052512401/09/16 05:25:31  5-MIN KAOH 091025Z AUTO 22008KT 8SM SCT012 BKN021 OVC029 07/06 A2984 1050 93 400 220/08 RMK AO2 T00720061
04850KAOH AOH20160109053012401/09/16 05:30:31  5-MIN KAOH 091030Z AUTO 22007KT 8SM BKN012 BKN018 OVC029 07/06 A2984 1050 93 400 220/07 RMK AO2 T00720061
04850KAOH AOH20160109053512401/09/16 05:35:31  5-MIN KAOH 091035Z AUTO 22007KT 8SM BKN012 BKN018 OVC029 07/06 A2984 1050 93 400 220/07 RMK AO2 T00720061
04850KAOH AOH20160109054011701/09/16 05:40:31  5-MIN KAOH 091040Z AUTO 21004KT 8SM BKN011 OVC027 07/06 A2984 1050 93 400 210/04 RMK AO2 T00720061
04850KAOH AOH20160109054511701/09/16 05:45:31  5-MIN KAOH 091045Z AUTO 21005KT 7SM BKN011 OVC027 07/06 A2984 1050 93 400 210/05 RMK AO2 T00720061
04850KAOH AOH20160109055011401/09/16 05:50:31  5-MIN KAOH 091050Z AUTO 20005KT 7SM SCT011 BKN027 OVC060 07/06 A2984 1050 96 300 200/05 RMK AO2
04850KAOH AOH20160109055512401/09/16 05:55:31  5-MIN KAOH 091055Z AUTO 19005KT 7SM SCT011 BKN027 OVC055 07/06 A2984 1050 96 300 200/05 RMK AO2 T00670061
04850KAOH AOH20160109060012701/09/16 06:00:31  5-MIN KAOH 091100Z AUTO 19006KT 6SM BR FEW011 SCT027 OVC055 07/06 A2985 1040 96 300 200/06 RMK AO2 T00670061
04850KAOH AOH20160109060512701/09/16 06:05:31  5-MIN KAOH 091105Z AUTO 20006KT 6SM BR FEW011 BKN027 OVC055 07/06 A2985 1040 96 300 200/06 RMK AO2 T00670061
04850KAOH AOH20160109061012701/09/16 06:10:31  5-MIN KAOH 091110Z AUTO 20007KT 5SM BR BKN024 BKN029 OVC055 07/06 A2985 1040 96 300 210/07 RMK AO2 T00670061
04850KAOH AOH20160109061512001/09/16 06:15:31  5-MIN KAOH 091115Z AUTO 20007KT 5SM BR BKN024 OVC055 07/06 A2985 1040 93 400 210/07 RMK AO2 T00720061
04850KAOH AOH20160109062012001/09/16 06:20:31  5-MIN KAOH 091120Z AUTO 21006KT 5SM BR BKN024 OVC055 07/06 A2985 1040 93 400 210/06 RMK AO2 T00720061
04850KAOH AOH20160109062512001/09/16 06:25:31  5-MIN KAOH 091125Z AUTO 21006KT 5SM BR BKN023 OVC055 07/06 A2986 1040 93 400 210/06 RMK AO2 T00720061
04850KAOH AOH20160109063011301/09/16 06:30:31  5-MIN KAOH 091130Z AUTO 21006KT 5SM BR OVC023 07/06 A2986 1030 93 400 220/06 RMK AO2 T00720061
04850KAOH AOH20160109063512001/09/16 06:35:31  5-MIN KAOH 091135Z AUTO 21007KT 6SM BR BKN023 OVC038 07/06 A2986 1030 93 400 220/07 RMK AO2 T00720061
04850KAOH AOH20160109064012001/09/16 06:40:31  5-MIN KAOH 091140Z AUTO 21007KT 6SM BR BKN024 OVC028 07/06 A2987 1030 93 400 220/07 RMK AO2 T00720061
04850KAOH AOH20160109064512001/09/16 06:45:31  5-MIN KAOH 091145Z AUTO 22008KT 6SM BR BKN024 OVC028 07/06 A2987 1030 93 400 220/08 RMK AO2 T00720061
04850KAOH AOH20160109065015401/09/16 06:50:31  5-MIN KAOH 091150Z AUTO 21007KT 7SM BKN024 OVC030 07/06 A2987 1030 93 400 220/07 RMK AO2 SLP117 60003 70034 T00720061 10083 20067 53007
04850KAOH AOH20160109065511701/09/16 06:55:31  5-MIN KAOH 091155Z AUTO 21007KT 7SM BKN024 OVC030 07/06 A2987 1020 93 400 220/07 RMK AO2 T00720061
04850KAOH AOH20160109070012001/09/16 07:00:31  5-MIN KAOH 091200Z AUTO 21007KT 6SM BR BKN022 OVC030 07/07 A2987 1020 96 400 220/07 RMK AO2 T00720067
04850KAOH AOH20160109070512701/09/16 07:05:31  5-MIN KAOH 091205Z AUTO 21006KT 6SM BR BKN022 BKN028 OVC048 07/07 A2987 1020 96 400 220/06 RMK AO2 T00720067
04850KAOH AOH20160109071012701/09/16 07:10:31  5-MIN KAOH 091210Z AUTO 22007KT 6SM BR FEW014 BKN022 OVC048 07/07 A2987 1020 96 400 220/07 RMK AO2 T00720067
04850KAOH AOH20160109071512701/09/16 07:15:31  5-MIN KAOH 091215Z AUTO 20007KT 6SM BR FEW014 BKN020 OVC048 07/07 A2987 1020 96 400 210/07 RMK AO2 T00720067
04850KAOH AOH20160109072012701/09/16 07:20:31  5-MIN KAOH 091220Z AUTO 20007KT 5SM BR FEW012 SCT019 OVC048 07/07 A2988 1020 96 400 200/07 RMK AO2 T00720067
04850KAOH AOH20160109072512701/09/16 07:25:31  5-MIN KAOH 091225Z AUTO 21007KT 5SM BR FEW013 BKN018 OVC050 07/07 A2988 1020 96 400 210/07 RMK AO2 T00720067
04850KAOH AOH20160109073012701/09/16 07:30:31  5-MIN KAOH 091230Z AUTO 22006KT 5SM BR SCT011 BKN018 OVC050 07/07 A2988 1010 96 400 220/06 RMK AO2 T00720067
04850KAOH AOH20160109073512701/09/16 07:35:31  5-MIN KAOH 091235Z AUTO 21007KT 5SM BR FEW011 BKN016 OVC050 07/07 A2988 1020 96 400 220/07 RMK AO2 T00720067
04850KAOH AOH20160109074012701/09/16 07:40:31  5-MIN KAOH 091240Z AUTO 21006KT 5SM BR FEW010 BKN031 OVC050 07/07 A2988 1020 96 400 220/06 RMK AO2 T00720067
04850KAOH AOH20160109074512701/09/16 07:45:31  5-MIN KAOH 091245Z AUTO 21006KT 5SM BR FEW010 BKN031 OVC050 07/07 A2988 1020 96 400 220/06 RMK AO2 T00720067
04850KAOH AOH20160109075013401/09/16 07:50:31  5-MIN KAOH 091250Z AUTO 22006KT 5SM BR FEW010 BKN042 OVC050 07/07 A2988 1020 96 400 220/06 RMK AO2 SLP121 T00720067
04850KAOH AOH20160109075512701/09/16 07:55:31  5-MIN KAOH 091255Z AUTO 22006KT 4SM BR FEW012 SCT035 OVC050 07/07 A2987 1020 96 400 220/06 RMK AO2 T00720067
04850KAOH AOH20160109080012001/09/16 08:00:31  5-MIN KAOH 091300Z AUTO 22005KT 4SM BR FEW028 OVC050 07/06 A2987 1020 96 300 230/05 RMK AO2 T00670061
04850KAOH AOH20160109080512701/09/16 08:05:31  5-MIN KAOH 091305Z AUTO 22004KT 4SM BR FEW013 FEW034 OVC050 07/06 A2987 1020 96 300 230/04 RMK AO2 T00670061
04850KAOH AOH20160109081012001/09/16 08:10:31  5-MIN KAOH 091310Z AUTO 22004KT 3SM BR FEW013 OVC050 07/06 A2987 1020 96 300 230/04 RMK AO2 T00670061
04850KAOH AOH20160109081512401/09/16 08:15:31  5-MIN KAOH 091315Z AUTO 22003KT 2 1/2SM BR FEW012 OVC050 07/06 A2987 1020 96 300 220/03 RMK AO2 T00670061
04850KAOH AOH20160109082012401/09/16 08:20:31  5-MIN KAOH 091320Z AUTO 20003KT 2 1/2SM BR FEW012 OVC048 07/06 A2987 1020 96 300 210/03 RMK AO2 T00670061
04850KAOH AOH20160109082512401/09/16 08:25:31  5-MIN KAOH 091325Z AUTO 20004KT 2 1/2SM BR FEW012 OVC048 07/06 A2987 1020 96 300 200/04 RMK AO2 T00670061
04850KAOH AOH20160109083012401/09/16 08:30:31  5-MIN KAOH 091330Z AUTO 19004KT 2 1/2SM BR FEW012 OVC048 07/06 A2987 1020 96 300 200/04 RMK AO2 T00670061
04850KAOH AOH20160109083512401/09/16 08:35:31  5-MIN KAOH 091335Z AUTO 19005KT 2 1/2SM BR FEW012 OVC047 07/06 A2988 1020 96 300 200/05 RMK AO2 T00670061
04850KAOH AOH20160109084011701/09/16 08:40:31  5-MIN KAOH 091340Z AUTO 19005KT 2 1/2SM BR OVC047 07/06 A2988 1020 96 300 200/05 RMK AO2 T00670061
04850KAOH AOH20160109084511801/09/16 08:45:31  5-MIN KAOH 091345Z AUTO 18005KT 2 1/2SM BR OVC047 07/07 A2988 1020 100 300 190/05 RMK AO2 T00670067
04850KAOH AOH20160109085012101/09/16 08:50:31  5-MIN KAOH 091350Z AUTO 18004KT 2SM BR OVC047 07/07 A2988 1020 100 300 180/04 RMK AO2 SLP121 T00670067
04850KAOH AOH20160109085511801/09/16 08:55:31  5-MIN KAOH 091355Z AUTO 17004KT 1 1/4SM BR OVC047 06/06 A2988 1020 100 200 180/04 RMK AO2 T00610061
04850KAOH AOH20160109090011301/09/16 09:00:31  5-MIN KAOH 091400Z AUTO 18005KT 1SM BR BKN047 06/06 A2987 1020 96 200 190/05 RMK AO2 T00610056
04850KAOH AOH20160109090512401/09/16 09:05:31  5-MIN KAOH 091405Z AUTO 18005KT 1 1/4SM BR FEW008 BKN047 06/06 A2987 1020 96 200 180/05 RMK AO2 T00610056
04850KAOH AOH20160109091012501/09/16 09:10:31  5-MIN KAOH 091410Z AUTO 17005KT 1 1/2SM BR SCT008 BKN047 06/06 A2987 1020 100 200 180/05 RMK AO2 T00610061
04850KAOH AOH20160109091512501/09/16 09:15:31  5-MIN KAOH 091415Z AUTO 18005KT 1 1/2SM BR SCT010 BKN047 06/06 A2987 1020 100 200 190/05 RMK AO2 T00610061
04850KAOH AOH20160109092013101/09/16 09:20:31  5-MIN KAOH 091420Z AUTO 18005KT 1 3/4SM BR BKN010 BKN017 BKN047 07/06 A2988 1020 96 300 180/05 RMK AO2 T00670061
04850KAOH AOH20160109092512101/09/16 09:25:31  5-MIN KAOH 091425Z AUTO 18005KT 2SM BR BKN010 BKN017 07/07 A2988 1020 100 300 190/05 RMK AO2 T00670067
04850KAOH AOH20160109093012401/09/16 09:30:31  5-MIN KAOH 091430Z AUTO 18005KT 2 1/2SM BR BKN011 OVC017 07/07 A2988 1020 96 400 190/05 RMK AO2 T00720067
04850KAOH AOH20160109093512001/09/16 09:35:31  5-MIN KAOH 091435Z AUTO 19005KT 3SM BR BKN011 OVC017 07/07 A2987 1020 96 400 190/05 RMK AO2 T00720067
04850KAOH AOH20160109094011301/09/16 09:40:31  5-MIN KAOH 091440Z AUTO 18004KT 3SM BR OVC013 07/07 A2987 1020 96 400 190/04 RMK AO2 T00720067
04850KAOH AOH20160109094511301/09/16 09:45:31  5-MIN KAOH 091445Z AUTO 18005KT 3SM BR BKN013 07/07 A2987 1020 96 400 190/05 RMK AO2 T00720067
04850KAOH AOH20160109095012601/09/16 09:50:31  5-MIN KAOH 091450Z AUTO 18005KT 3SM BR BKN013 07/07 A2987 1020 96 400 190/05 RMK AO2 SLP119 T00720067 53011
04850KAOH AOH20160109095511301/09/16 09:55:31  5-MIN KAOH 091455Z AUTO 18004KT 3SM BR BKN013 08/07 A2987 1030 96 400 190/04 RMK AO2 T00780072
04850KAOH AOH20160109100011301/09/16 10:00:31  5-MIN KAOH 091500Z AUTO 19005KT 3SM BR BKN013 08/07 A2987 1020 96 400 200/05 RMK AO2 T00780072
04850KAOH AOH20160109100511301/09/16 10:05:31  5-MIN KAOH 091505Z AUTO 19005KT 3SM BR BKN013 08/07 A2988 1020 96 400 200/05 RMK AO2 T00780072
04850KAOH AOH20160109101012001/09/16 10:10:31  5-MIN KAOH 091510Z AUTO 20005KT 4SM BR BKN013 BKN018 08/07 A2988 1010 96 400 200/05 RMK AO2 T00780072
04850KAOH AOH20160109101512701/09/16 10:15:31  5-MIN KAOH 091515Z AUTO 20005KT 4SM BR BKN013 BKN018 BKN039 08/07 A2988 1010 96 400 200/05 RMK AO2 T00780072
04850KAOH AOH20160109102012701/09/16 10:20:31  5-MIN KAOH 091520Z AUTO 18005KT 4SM BR BKN013 BKN018 OVC039 08/07 A2988 1010 93 500 190/05 RMK AO2 T00830072
04850KAOH AOH20160109102512701/09/16 10:25:31  5-MIN KAOH 091525Z AUTO 19005KT 4SM BR SCT013 BKN020 OVC039 08/07 A2988 1010 93 500 190/05 RMK AO2 T00830072
04850KAOH AOH20160109103012701/09/16 10:30:31  5-MIN KAOH 091530Z AUTO 19005KT 4SM BR FEW013 BKN020 OVC039 08/07 A2988 1010 93 500 190/05 RMK AO2 T00830072
04850KAOH AOH20160109103512701/09/16 10:35:31  5-MIN KAOH 091535Z AUTO 18006KT 4SM BR SCT015 BKN020 OVC038 08/07 A2988 1010 93 500 190/06 RMK AO2 T00830072
04850KAOH AOH20160109104012701/09/16 10:40:31  5-MIN KAOH 091540Z AUTO 18006KT 4SM BR FEW006 BKN018 OVC038 08/07 A2988 1010 93 500 190/06 RMK AO2 T00830072
04850KAOH AOH20160109104512701/09/16 10:45:31  5-MIN KAOH 091545Z AUTO 19005KT 4SM BR SCT006 BKN015 OVC021 08/08 A2988 1010 96 500 200/05 RMK AO2 T00830078
04850KAOH AOH20160109105011001/09/16 10:50:31  5-MIN KAOH 091550Z AUTO 19005KT 4SM BR BKN006 OVC019 08/08 A2988 1010 96 500 200/05 RMK AO2
04850KAOH AOH20160109105512001/09/16 10:55:31  5-MIN KAOH 091555Z AUTO 19006KT 4SM BR BKN005 OVC019 08/08 A2988 1010 96 500 200/06 RMK AO2 T00830078
04850KAOH AOH20160109110012001/09/16 11:00:31  5-MIN KAOH 091600Z AUTO 19005KT 4SM BR BKN005 OVC019 08/08 A2988 1010 96 500 200/05 RMK AO2 T00830078
04850KAOH AOH20160109110511301/09/16 11:05:31  5-MIN KAOH 091605Z AUTO 18005KT 4SM BR OVC005 08/08 A2988 1020 96 500 190/05 RMK AO2 T00830078
04850KAOH AOH20160109111011301/09/16 11:10:31  5-MIN KAOH 091610Z AUTO 19005KT 4SM BR OVC005 09/08 A2987 1020 93 600 190/05 RMK AO2 T00890078
04850KAOH AOH20160109111511301/09/16 11:15:31  5-MIN KAOH 091615Z AUTO 19004KT 4SM BR OVC005 08/08 A2987 1020 96 500 200/04 RMK AO2 T00830078
04850KAOH AOH20160109112011301/09/16 11:20:31  5-MIN KAOH 091620Z AUTO 18004KT 4SM BR OVC005 09/08 A2987 1020 93 600 180/04 RMK AO2 T00890078
04850KAOH AOH20160109112512001/09/16 11:25:31  5-MIN KAOH 091625Z AUTO 17003KT 4SM BR BKN005 OVC019 09/08 A2986 1030 93 600 180/03 RMK AO2 T00890078
04850KAOH AOH20160109113012001/09/16 11:30:31  5-MIN KAOH 091630Z AUTO 17004KT 4SM BR BKN005 OVC019 09/08 A2986 1030 93 600 180/04 RMK AO2 T00890078
04850KAOH AOH20160109113512701/09/16 11:35:31  5-MIN KAOH 091635Z AUTO 17005KT 4SM BR BKN005 BKN010 OVC013 09/08 A2985 1040 93 600 170/05 RMK AO2 T00890078
04850KAOH AOH20160109114013901/09/16 11:40:31  5-MIN KAOH 091640Z AUTO 17004KT 5SM BR BKN005 OVC013 09/08 A2985 1050 93 600 170/04 RMK AO2 CIG 004V009 PRESFR T00890078
04850KAOH AOH20160109114513901/09/16 11:45:31  5-MIN KAOH 091645Z AUTO 17003KT 5SM BR SCT005 BKN010 OVC019 09/08 A2985 1050 93 600 180/03 RMK AO2 CIG 008V013 T00890078
04850KAOH AOH20160109115012701/09/16 11:50:31  5-MIN KAOH 091650Z AUTO 18005KT 5SM BR BKN005 OVC010 09/08 A2985 1040 93 600 190/05 RMK AO2 SLP112 T00890078
04850KAOH AOH20160109115513201/09/16 11:55:31  5-MIN KAOH 091655Z AUTO 19005KT 5SM BR BKN007 OVC011 09/08 A2986 1030 93 600 200/05 RMK AO2 CIG 005V009 T00890078
04850KAOH AOH20160109120013201/09/16 12:00:31  5-MIN KAOH 091700Z AUTO 20005KT 5SM BR BKN007 OVC012 09/08 A2986 1040 93 600 200/05 RMK AO2 CIG 005V010 T00890078
04850KAOH AOH20160109120513201/09/16 12:05:31  5-MIN KAOH 091705Z AUTO 21005KT 6SM BR BKN008 OVC012 09/08 A2986 1040 93 600 210/05 RMK AO2 CIG 005V010 T00890078
04850KAOH AOH20160109121013201/09/16 12:10:31  5-MIN KAOH 091710Z AUTO 21006KT 6SM BR BKN008 OVC012 09/08 A2985 1040 89 700 220/06 RMK AO2 CIG 005V010 T00940078
04850KAOH AOH20160109121512701/09/16 12:15:31  5-MIN KAOH 091715Z AUTO 22006KT 6SM BR FEW006 BKN012 OVC017 09/08 A2985 1040 89 700 220/06 RMK AO2 T00940078
04850KAOH AOH20160109122012001/09/16 12:20:31  5-MIN KAOH 091720Z AUTO 22005KT 6SM BR SCT009 OVC017 09/08 A2985 1040 89 700 220/05 RMK AO2 T00940078
04850KAOH AOH20160109122512001/09/16 12:25:31  5-MIN KAOH 091725Z AUTO 23006KT 6SM BR SCT011 OVC019 09/08 A2985 1040 89 700 240/06 RMK AO2 T00940078
04850KAOH AOH20160109123012001/09/16 12:30:31  5-MIN KAOH 091730Z AUTO 22006KT 6SM BR FEW011 OVC019 09/08 A2985 1040 89 700 220/06 RMK AO2 T00940078
04850KAOH AOH20160109123512001/09/16 12:35:31  5-MIN KAOH 091735Z AUTO 22007KT 6SM BR FEW011 BKN018 09/08 A2986 1040 89 700 230/07 RMK AO2 T00940078
04850KAOH AOH20160109124012001/09/16 12:40:31  5-MIN KAOH 091740Z AUTO 20006KT 6SM BR BKN015 OVC020 09/08 A2986 1040 89 700 210/06 RMK AO2 T00940078
04850KAOH AOH20160109124512701/09/16 12:45:31  5-MIN KAOH 091745Z AUTO 20005KT 6SM BR FEW012 BKN020 BKN043 09/08 A2985 1040 89 700 210/05 RMK AO2 T00940078
04850KAOH AOH20160109125015201/09/16 12:50:31  5-MIN KAOH 091750Z AUTO 19005KT 6SM BR FEW011 BKN020 OVC043 09/08 A2985 1040 89 700 190/05 RMK AO2 SLP111 T00940078 10094 20061 58000
04850KAOH AOH20160109125512701/09/16 12:55:31  5-MIN KAOH 091755Z AUTO 20005KT 6SM BR SCT014 BKN020 OVC043 09/08 A2985 1040 93 700 200/05 RMK AO2 T00940083
04850KAOH AOH20160109130012701/09/16 13:00:31  5-MIN KAOH 091800Z AUTO 18005KT 6SM BR FEW008 BKN014 OVC043 09/08 A2985 1050 93 700 190/05 RMK AO2 T00940083
04850KAOH AOH20160109130512701/09/16 13:05:31  5-MIN KAOH 091805Z AUTO 18007KT 6SM BR SCT008 BKN014 OVC043 09/08 A2985 1050 93 700 190/07 RMK AO2 T00940083
04850KAOH AOH20160109131012701/09/16 13:10:31  5-MIN KAOH 091810Z AUTO 19008KT 6SM BR SCT008 BKN014 OVC042 09/08 A2985 1050 89 700 190/08 RMK AO2 T00940078
04850KAOH AOH20160109131512001/09/16 13:15:31  5-MIN KAOH 091815Z AUTO 20007KT 6SM BR SCT010 OVC016 09/08 A2985 1040 89 700 210/07 RMK AO2 T00940078
04850KAOH AOH20160109132012001/09/16 13:20:31  5-MIN KAOH 091820Z AUTO 20006KT 6SM BR BKN010 OVC018 09/08 A2985 1050 89 700 210/06 RMK AO2 T00940078
04850KAOH AOH20160109132513601/09/16 13:25:31  5-MIN KAOH 091825Z AUTO 21007KT 180V240 6SM BR BKN010 OVC018 09/08 A2984 1050 89 700 220/07 190V250 RMK AO2 T00940078
04850KAOH AOH20160109133011701/09/16 13:30:31  5-MIN KAOH 091830Z AUTO 21007KT 7SM BKN011 OVC018 09/08 A2984 1050 89 700 220/07 RMK AO2 T00940078
04850KAOH AOH20160109133512401/09/16 13:35:31  5-MIN KAOH 091835Z AUTO 22006KT 7SM FEW009 BKN013 OVC047 09/08 A2983 1060 89 700 220/06 RMK AO2 T00940078
04850KAOH AOH20160109134012401/09/16 13:40:31  5-MIN KAOH 091840Z AUTO 21004KT 7SM SCT011 BKN016 OVC047 09/08 A2983 1060 89 700 220/04 RMK AO2 T00940078
04850KAOH AOH20160109134512401/09/16 13:45:31  5-MIN KAOH 091845Z AUTO 21005KT 7SM BKN012 BKN025 OVC049 09/08 A2983 1060 89 700 220/05 RMK AO2 T00940078
04850KAOH AOH20160109135011401/09/16 13:50:31  5-MIN KAOH 091850Z AUTO 22003KT 7SM SCT014 BKN025 OVC049 09/08 A2982 1070 89 700 230/03 RMK AO2
04850KAOH AOH20160109135512401/09/16 13:55:31  5-MIN KAOH 091855Z AUTO 00000KT 7SM SCT014 BKN023 OVC049 09/08 A2982 1070 89 700 000/00 RMK AO2 T00940078
04850KAOH AOH20160109140012701/09/16 14:00:31  5-MIN KAOH 091900Z AUTO 00000KT 6SM BR SCT014 BKN023 OVC049 09/08 A2981 1080 89 700 000/00 RMK AO2 T00940078
04850KAOH AOH20160109140512701/09/16 14:05:31  5-MIN KAOH 091905Z AUTO 00000KT 6SM BR BKN014 BKN023 OVC049 09/08 A2981 1080 89 700 000/00 RMK AO2 T00940078
04850KAOH AOH20160109141012001/09/16 14:10:31  5-MIN KAOH 091910Z AUTO 19003KT 6SM BR BKN012 OVC023 09/08 A2981 1080 89 700 200/03 RMK AO2 T00940078
04850KAOH AOH20160109141512701/09/16 14:15:31  5-MIN KAOH 091915Z AUTO 19003KT 6SM BR BKN012 BKN016 OVC023 09/08 A2982 1070 89 700 190/03 RMK AO2 T00940078
04850KAOH AOH20160109142012001/09/16 14:20:31  5-MIN KAOH 091920Z AUTO 19003KT 6SM BR BKN012 OVC021 09/08 A2982 1070 89 700 190/03 RMK AO2 T00940078
04850KAOH AOH20160109142511301/09/16 14:25:31  5-MIN KAOH 091925Z AUTO 20003KT 6SM BR OVC011 09/08 A2982 1070 89 700 200/03 RMK AO2 T00940078
04850KAOH AOH20160109143012501/09/16 14:30:31  5-MIN KAOH 091930Z AUTO 19003KT 6SM BR OVC011 09/08 A2982 1070 93 600 190/03 RMK AO2 CIG 008V013 T00890078
04850KAOH AOH20160109143512501/09/16 14:35:31  5-MIN KAOH 091935Z AUTO 18003KT 5SM BR OVC009 09/08 A2981 1080 93 600 180/03 RMK AO2 CIG 007V013 T00890078
04850KAOH AOH20160109144012501/09/16 14:40:31  5-MIN KAOH 091940Z AUTO 18003KT 5SM BR OVC009 09/08 A2981 1080 93 600 180/03 RMK AO2 CIG 007V011 T00890078
04850KAOH AOH20160109144514801/09/16 14:45:31  5-MIN KAOH 091945Z AUTO 17003KT 4SM -RA BR BKN009 OVC014 09/08 A2981 1080 93 600 170/03 RMK AO2 RAB41 CIG 007V012 P0000 T00890078
04850KAOH AOH20160109145015501/09/16 14:50:31  5-MIN KAOH 091950Z AUTO 17004KT 3SM -RA BR BKN009 OVC014 09/08 A2981 1080 93 600 180/04 RMK AO2 RAB41 CIG 007V012 SLP098 P0000 T00890078
04850KAOH AOH20160109145513501/09/16 14:55:31  5-MIN KAOH 091955Z AUTO 00000KT 3SM -RA BR OVC009 09/08 A2980 1090 93 700 000/00 RMK AO2 CIG 007V012 P0000 T00890078
04850KAOH AOH20160109150015601/09/16 15:00:31  5-MIN KAOH 092000Z AUTO 04004KT 3SM -RA BR BKN009 BKN015 OVC055 09/08 A2979 1100 93 700 050/04 RMK AO2 CIG 007V012 PRESFR P0000 T00890078
04850KAOH AOH20160109150513901/09/16 15:05:31  5-MIN KAOH 092005Z AUTO 04004KT 3SM BR SCT009 BKN015 OVC055 08/08 A2978 1100 96 600 040/04 RMK AO2 RAE02 P0000 T00830078
04850KAOH AOH20160109151014301/09/16 15:10:31  5-MIN KAOH 092010Z AUTO 00000KT 2 1/2SM BR SCT009 SCT013 OVC060 09/08 A2979 1100 93 700 000/00 RMK AO2 RAE02 P0000 T00890078
04850KAOH AOH20160109151513201/09/16 15:15:31  5-MIN KAOH 092015Z AUTO 11003KT 3SM BR FEW009 OVC060 09/08 A2979 1100 93 700 120/03 RMK AO2 RAE02 P0000 T00890078
04850KAOH AOH20160109152013601/09/16 15:20:31  5-MIN KAOH 092020Z AUTO 11004KT 2 1/2SM BR FEW009 OVC060 09/08 A2979 1100 93 700 120/04 RMK AO2 RAE02 P0000 T00890078
04850KAOH AOH20160109152512901/09/16 15:25:31  5-MIN KAOH 092025Z AUTO 12006KT 2 1/2SM BR OVC060 09/08 A2979 1100 93 700 130/06 RMK AO2 RAE02 P0000 T00890078
04850KAOH AOH20160109153012901/09/16 15:30:31  5-MIN KAOH 092030Z AUTO 12005KT 2 1/2SM BR BKN060 09/08 A2978 1110 96 700 120/05 RMK AO2 RAE02 P0000 T00890083
04850KAOH AOH20160109153513201/09/16 15:35:31  5-MIN KAOH 092035Z AUTO 11006KT 3SM BR BKN065 BKN090 09/08 A2978 1110 93 700 120/06 RMK AO2 RAE02 P0000 T00890078
04850KAOH AOH20160109154013901/09/16 15:40:31  5-MIN KAOH 092040Z AUTO 11007KT 3SM BR FEW009 BKN065 OVC090 09/08 A2977 1110 93 700 110/07 RMK AO2 RAE02 P0000 T00890078
04850KAOH AOH20160109154513901/09/16 15:45:31  5-MIN KAOH 092045Z AUTO 11005KT 3SM BR SCT009 BKN065 BKN085 09/08 A2977 1110 93 700 120/05 RMK AO2 RAE02 P0000 T00890078
04850KAOH AOH20160109155015801/09/16 15:50:31  5-MIN KAOH 092050Z AUTO 14007KT 4SM BR SCT008 BKN065 BKN085 09/08 A2978 1110 93 700 140/07 RMK AO2 RAE02 SLP085 P0000 60000 T00940083 58006
04850KAOH AOH20160109155512001/09/16 15:55:31  5-MIN KAOH 092055Z AUTO 14009KT 5SM BR SCT008 BKN085 09/08 A2977 1110 93 800 150/09 RMK AO2 T00940083
04850KAOH AOH20160109160012001/09/16 16:00:31  5-MIN KAOH 092100Z AUTO 14009KT 5SM BR SCT008 BKN085 09/08 A2977 1110 89 800 140/09 RMK AO2 T00940078
04850KAOH AOH20160109160512001/09/16 16:05:31  5-MIN KAOH 092105Z AUTO 13009KT 5SM BR SCT008 BKN085 09/08 A2977 1110 89 800 140/09 RMK AO2 T00940078
04850KAOH AOH20160109161012001/09/16 16:10:31  5-MIN KAOH 092110Z AUTO 13009KT 5SM BR BKN008 BKN080 09/08 A2977 1120 89 800 130/09 RMK AO2 T00940078
04850KAOH AOH20160109161512001/09/16 16:15:31  5-MIN KAOH 092115Z AUTO 14009KT 5SM BR BKN008 BKN085 09/08 A2977 1120 89 800 150/09 RMK AO2 T00940078
04850KAOH AOH20160109162012001/09/16 16:20:31  5-MIN KAOH 092120Z AUTO 13009KT 6SM BR BKN008 BKN085 09/08 A2977 1120 93 700 140/09 RMK AO2 T00890078
04850KAOH AOH20160109162513201/09/16 16:25:31  5-MIN KAOH 092125Z AUTO 14008KT 6SM BR BKN008 BKN030 09/08 A2977 1120 93 700 150/08 RMK AO2 CIG 007V012 T00890078
04850KAOH AOH20160109163013901/09/16 16:30:31  5-MIN KAOH 092130Z AUTO 15008KT 6SM BR BKN008 BKN012 OVC030 09/08 A2976 1120 93 700 150/08 RMK AO2 CIG 007V011 T00890078
04850KAOH AOH20160109163513901/09/16 16:35:31  5-MIN KAOH 092135Z AUTO 14007KT 6SM BR BKN008 BKN012 OVC030 09/08 A2976 1120 93 700 140/07 RMK AO2 CIG 007V011 T00890078
04850KAOH AOH20160109164012401/09/16 16:40:31  5-MIN KAOH 092140Z AUTO 13009KT 7SM SCT008 BKN012 OVC028 09/08 A2976 1130 93 700 140/09 RMK AO2 T00890078
04850KAOH AOH20160109164512401/09/16 16:45:31  5-MIN KAOH 092145Z AUTO 12009KT 7SM FEW008 BKN028 OVC120 09/08 A2975 1130 93 700 130/09 RMK AO2 T00890078
04850KAOH AOH20160109165013401/09/16 16:50:31  5-MIN KAOH 092150Z AUTO 12008KT 6SM BR SCT012 BKN028 OVC120 09/08 A2975 1140 93 700 120/08 RMK AO2 SLP077 T00890078
04850KAOH AOH20160109165512701/09/16 16:55:31  5-MIN KAOH 092155Z AUTO 11007KT 6SM BR FEW012 BKN028 OVC120 09/08 A2975 1140 93 700 120/07 RMK AO2 T00890078
04850KAOH AOH20160109170012701/09/16 17:00:31  5-MIN KAOH 092200Z AUTO 11007KT 5SM BR FEW012 SCT028 OVC120 08/07 A2974 1140 93 700 110/07 RMK AO2 T00830072
04850KAOH AOH20160109170512001/09/16 17:05:31  5-MIN KAOH 092205Z AUTO 11006KT 5SM BR FEW028 OVC120 08/07 A2974 1140 93 700 110/06 RMK AO2 T00830072
04850KAOH AOH20160109171011301/09/16 17:10:31  5-MIN KAOH 092210Z AUTO 11008KT 5SM BR OVC110 08/07 A2974 1140 93 700 110/08 RMK AO2 T00830072
04850KAOH AOH20160109171512001/09/16 17:15:31  5-MIN KAOH 092215Z AUTO 12009KT 4SM BR FEW007 OVC110 08/07 A2975 1140 93 700 120/09 RMK AO2 T00830072
04850KAOH AOH20160109172012001/09/16 17:20:31  5-MIN KAOH 092220Z AUTO 12009KT 3SM BR SCT005 OVC110 08/07 A2975 1140 93 600 120/09 RMK AO2 T00830072
04850KAOH AOH20160109172512001/09/16 17:25:31  5-MIN KAOH 092225Z AUTO 12009KT 3SM BR BKN005 OVC110 08/07 A2974 1140 93 700 120/09 RMK AO2 T00830072
04850KAOH AOH20160109173012001/09/16 17:30:31  5-MIN KAOH 092230Z AUTO 12010KT 4SM BR BKN004 OVC110 08/07 A2974 1140 93 700 130/10 RMK AO2 T00830072
04850KAOH AOH20160109173512001/09/16 17:35:31  5-MIN KAOH 092235Z AUTO 13011KT 4SM BR BKN004 OVC100 08/07 A2974 1140 93 700 130/11 RMK AO2 T00830072
04850KAOH AOH20160109174011301/09/16 17:40:31  5-MIN KAOH 092240Z AUTO 12009KT 4SM BR OVC004 08/07 A2974 1150 93 700 130/09 RMK AO2 T00830072
04850KAOH AOH20160109174511301/09/16 17:45:31  5-MIN KAOH 092245Z AUTO 12011KT 4SM BR OVC004 08/07 A2974 1150 96 600 130/11 RMK AO2 T00780072
04850KAOH AOH20160109175012001/09/16 17:50:31  5-MIN KAOH 092250Z AUTO 12009KT 3SM BR OVC004 08/07 A2974 1150 96 600 130/09 RMK AO2 SLP073 T00780072
04850KAOH AOH20160109175511301/09/16 17:55:31  5-MIN KAOH 092255Z AUTO 12010KT 3SM BR OVC003 08/07 A2973 1150 96 600 120/10 RMK AO2 T00780072
04850KAOH AOH20160109180011301/09/16 18:00:31  5-MIN KAOH 092300Z AUTO 13012KT 3SM BR OVC003 08/07 A2973 1150 96 600 130/12 RMK AO2 T00780072
04850KAOH AOH20160109180511301/09/16 18:05:31  5-MIN KAOH 092305Z AUTO 12010KT 4SM BR OVC003 08/07 A2973 1160 96 600 130/10 RMK AO2 T00780072
04850KAOH AOH20160109181011301/09/16 18:10:31  5-MIN KAOH 092310Z AUTO 13011KT 4SM BR OVC003 08/07 A2973 1160 96 600 130/11 RMK AO2 T00780072
04850KAOH AOH20160109181511301/09/16 18:15:31  5-MIN KAOH 092315Z AUTO 13007KT 4SM BR OVC003 08/07 A2973 1160 96 600 130/07 RMK AO2 T00780072
04850KAOH AOH20160109182011301/09/16 18:20:31  5-MIN KAOH 092320Z AUTO 13008KT 4SM BR OVC003 08/07 A2973 1160 96 600 140/08 RMK AO2 T00780072
04850KAOH AOH20160109182511301/09/16 18:25:31  5-MIN KAOH 092325Z AUTO 13009KT 4SM BR OVC003 08/07 A2973 1160 96 600 140/09 RMK AO2 T00780072
04850KAOH AOH20160109183011301/09/16 18:30:31  5-MIN KAOH 092330Z AUTO 14008KT 4SM BR OVC003 08/07 A2973 1150 96 600 140/08 RMK AO2 T00780072
04850KAOH AOH20160109183511301/09/16 18:35:31  5-MIN KAOH 092335Z AUTO 13010KT 3SM BR OVC003 08/07 A2973 1160 96 600 140/10 RMK AO2 T00780072
04850KAOH AOH20160109184011301/09/16 18:40:31  5-MIN KAOH 092340Z AUTO 13009KT 3SM BR OVC003 08/07 A2973 1160 96 600 140/09 RMK AO2 T00780072
04850KAOH AOH20160109184511701/09/16 18:45:31  5-MIN KAOH 092345Z AUTO 13008KT 2 1/2SM BR OVC003 08/07 A2972 1160 96 600 140/08 RMK AO2 T00780072
04850KAOH AOH20160109185014801/09/16 18:50:31  5-MIN KAOH 092350Z AUTO 13008KT 2 1/2SM BR OVC003 08/07 A2972 1160 96 600 140/08 RMK AO2 SLP068 60000 T00780072 10094 20078 58008
04850KAOH AOH20160109185511301/09/16 18:55:31  5-MIN KAOH 092355Z AUTO 13008KT 3SM BR OVC003 08/07 A2972 1160 96 600 140/08 RMK AO2 T00780072
04850KAOH AOH20160109190011301/09/16 19:00:31  5-MIN KAOH 100000Z AUTO 14008KT 3SM BR OVC003 08/07 A2972 1160 96 600 140/08 RMK AO2 T00780072
04850KAOH AOH20160109190511301/09/16 19:05:31  5-MIN KAOH 100005Z AUTO 13009KT 3SM BR OVC003 08/07 A2972 1160 96 600 140/09 RMK AO2 T00780072
04850KAOH AOH20160109191011301/09/16 19:10:31  5-MIN KAOH 100010Z AUTO 13008KT 3SM BR OVC003 08/07 A2972 1160 96 600 140/08 RMK AO2 T00780072
04850KAOH AOH20160109191511301/09/16 19:15:31  5-MIN KAOH 100015Z AUTO 14008KT 3SM BR OVC003 08/07 A2972 1170 96 600 140/08 RMK AO2 T00780072
04850KAOH AOH20160109192011301/09/16 19:20:31  5-MIN KAOH 100020Z AUTO 14008KT 3SM BR OVC003 08/07 A2972 1170 96 600 150/08 RMK AO2 T00780072
04850KAOH AOH20160109192511301/09/16 19:25:31  5-MIN KAOH 100025Z AUTO 14008KT 3SM BR OVC004 08/07 A2971 1170 96 600 140/08 RMK AO2 T00780072
04850KAOH AOH20160109193011301/09/16 19:30:31  5-MIN KAOH 100030Z AUTO 14007KT 3SM BR OVC004 08/07 A2971 1170 96 600 140/07 RMK AO2 T00780072
04850KAOH AOH20160109193511301/09/16 19:35:31  5-MIN KAOH 100035Z AUTO 13008KT 3SM BR OVC004 08/07 A2971 1170 96 600 140/08 RMK AO2 T00780072
04850KAOH AOH20160109194011701/09/16 19:40:31  5-MIN KAOH 100040Z AUTO 13009KT 2 1/2SM BR OVC004 08/07 A2971 1170 96 600 140/09 RMK AO2 T00780072
04850KAOH AOH20160109194511701/09/16 19:45:31  5-MIN KAOH 100045Z AUTO 13009KT 2 1/2SM BR OVC004 08/07 A2971 1170 96 600 140/09 RMK AO2 T00780072
04850KAOH AOH20160109195012401/09/16 19:50:31  5-MIN KAOH 100050Z AUTO 13009KT 2 1/2SM BR OVC004 08/07 A2970 1180 96 600 140/09 RMK AO2 SLP062 T00780072
04850KAOH AOH20160109195511701/09/16 19:55:31  5-MIN KAOH 100055Z AUTO 13009KT 2 1/2SM BR OVC004 08/07 A2970 1180 96 600 140/09 RMK AO2 T00780072
04850KAOH AOH20160109200011301/09/16 20:00:31  5-MIN KAOH 100100Z AUTO 13011KT 3SM BR OVC004 08/07 A2970 1180 96 600 130/11 RMK AO2 T00780072
04850KAOH AOH20160109200512501/09/16 20:05:31  5-MIN KAOH 100105Z AUTO 13009KT 3SM BR OVC004 08/07 A2970 1180 96 600 130/09 RMK AO2 CIG 003V007 T00780072
04850KAOH AOH20160109201012501/09/16 20:10:31  5-MIN KAOH 100110Z AUTO 13010KT 3SM BR OVC004 08/07 A2969 1190 96 600 130/10 RMK AO2 CIG 003V007 T00780072
04850KAOH AOH20160109201512501/09/16 20:15:31  5-MIN KAOH 100115Z AUTO 13009KT 4SM BR OVC005 08/07 A2969 1190 96 700 130/09 RMK AO2 CIG 003V007 T00780072
04850KAOH AOH20160109202011301/09/16 20:20:31  5-MIN KAOH 100120Z AUTO 12008KT 4SM BR OVC005 08/07 A2969 1200 96 700 130/08 RMK AO2 T00780072
04850KAOH AOH20160109202511301/09/16 20:25:31  5-MIN KAOH 100125Z AUTO 12008KT 4SM BR OVC005 08/07 A2968 1200 96 700 130/08 RMK AO2 T00780072
04850KAOH AOH20160109203011301/09/16 20:30:31  5-MIN KAOH 100130Z AUTO 12009KT 4SM BR OVC005 08/07 A2968 1200 96 700 130/09 RMK AO2 T00780072
04850KAOH AOH20160109203511301/09/16 20:35:31  5-MIN KAOH 100135Z AUTO 13008KT 4SM BR OVC006 08/07 A2968 1200 96 700 130/08 RMK AO2 T00780072
04850KAOH AOH20160109204011301/09/16 20:40:31  5-MIN KAOH 100140Z AUTO 13008KT 5SM BR OVC006 08/07 A2967 1210 93 700 130/08 RMK AO2 T00830072
04850KAOH AOH20160109204512001/09/16 20:45:31  5-MIN KAOH 100145Z AUTO 13009KT 5SM BR BKN006 OVC032 08/07 A2967 1210 93 700 130/09 RMK AO2 T00830072
04850KAOH AOH20160109205012701/09/16 20:50:31  5-MIN KAOH 100150Z AUTO 12009KT 5SM BR BKN006 OVC032 08/07 A2967 1210 96 700 130/09 RMK AO2 SLP048 T00780072
04850KAOH AOH20160109205512001/09/16 20:55:31  5-MIN KAOH 100155Z AUTO 12011KT 6SM BR BKN007 OVC032 08/07 A2966 1220 93 700 130/11 RMK AO2 T00830072
04850KAOH AOH20160109210012001/09/16 21:00:31  5-MIN KAOH 100200Z AUTO 13010KT 6SM BR SCT007 OVC032 08/07 A2966 1220 96 700 130/10 RMK AO2 T00780072
04850KAOH AOH20160109210512001/09/16 21:05:31  5-MIN KAOH 100205Z AUTO 12010KT 6SM BR FEW007 OVC032 08/07 A2965 1230 96 700 130/10 RMK AO2 T00780072
04850KAOH AOH20160109211012001/09/16 21:10:31  5-MIN KAOH 100210Z AUTO 12009KT 6SM BR FEW007 OVC032 08/07 A2965 1230 96 700 130/09 RMK AO2 T00780072
04850KAOH AOH20160109211512001/09/16 21:15:31  5-MIN KAOH 100215Z AUTO 12009KT 6SM BR FEW007 OVC032 08/07 A2965 1230 96 700 130/09 RMK AO2 T00780072
04850KAOH AOH20160109212011301/09/16 21:20:31  5-MIN KAOH 100220Z AUTO 12010KT 6SM BR OVC032 08/07 A2964 1230 96 700 130/10 RMK AO2 T00780072
04850KAOH AOH20160109212512001/09/16 21:25:31  5-MIN KAOH 100225Z AUTO 12010KT 6SM BR BKN032 OVC110 08/07 A2964 1240 96 700 130/10 RMK AO2 T00780072
04850KAOH AOH20160109213012001/09/16 21:30:31  5-MIN KAOH 100230Z AUTO 12010KT 6SM BR BKN032 OVC110 08/07 A2964 1240 93 700 130/10 RMK AO2 T00780067
04850KAOH AOH20160109213512001/09/16 21:35:31  5-MIN KAOH 100235Z AUTO 12009KT 6SM BR BKN032 OVC110 08/07 A2963 1240 93 700 130/09 RMK AO2 T00780067
04850KAOH AOH20160109214012001/09/16 21:40:31  5-MIN KAOH 100240Z AUTO 12010KT 6SM BR SCT032 OVC110 08/07 A2963 1250 93 700 130/10 RMK AO2 T00780067
04850KAOH AOH20160109214512001/09/16 21:45:31  5-MIN KAOH 100245Z AUTO 12010KT 5SM BR SCT032 OVC120 08/07 A2963 1250 93 700 120/10 RMK AO2 T00780067
04850KAOH AOH20160109215013301/09/16 21:50:31  5-MIN KAOH 100250Z AUTO 12009KT 5SM BR FEW032 OVC120 08/07 A2963 1250 93 700 130/09 RMK AO2 SLP035 T00780067 56008
04850KAOH AOH20160109215512001/09/16 21:55:31  5-MIN KAOH 100255Z AUTO 12009KT 5SM BR FEW032 OVC120 08/07 A2962 1250 93 700 130/09 RMK AO2 T00780067
04850KAOH AOH20160109220011301/09/16 22:00:31  5-MIN KAOH 100300Z AUTO 12009KT 5SM BR BKN120 08/07 A2962 1260 93 700 120/09 RMK AO2 T00780067
04850KAOH AOH20160109220511301/09/16 22:05:31  5-MIN KAOH 100305Z AUTO 12009KT 5SM BR BKN120 08/07 A2962 1260 93 700 130/09 RMK AO2 T00780067
04850KAOH AOH20160109221011301/09/16 22:10:31  5-MIN KAOH 100310Z AUTO 12009KT 5SM BR BKN120 08/07 A2961 1260 93 700 130/09 RMK AO2 T00780067
04850KAOH AOH20160109221511301/09/16 22:15:31  5-MIN KAOH 100315Z AUTO 13009KT 5SM BR BKN120 08/07 A2961 1270 93 700 130/09 RMK AO2 T00780067
04850KAOH AOH20160109222011301/09/16 22:20:31  5-MIN KAOH 100320Z AUTO 12009KT 5SM BR BKN120 08/07 A2961 1270 93 700 130/09 RMK AO2 T00780067
04850KAOH AOH20160109222511301/09/16 22:25:31  5-MIN KAOH 100325Z AUTO 13007KT 5SM BR BKN110 07/07 A2961 1270 96 700 130/07 RMK AO2 T00720067
04850KAOH AOH20160109223011301/09/16 22:30:31  5-MIN KAOH 100330Z AUTO 13007KT 5SM BR OVC110 08/07 A2960 1270 93 700 140/07 RMK AO2 T00780067
04850KAOH AOH20160109223512001/09/16 22:35:31  5-MIN KAOH 100335Z AUTO 13007KT 5SM BR FEW090 OVC110 07/07 A2960 1280 96 700 140/07 RMK AO2 T00720067
04850KAOH AOH20160109224012001/09/16 22:40:31  5-MIN KAOH 100340Z AUTO 13007KT 5SM BR BKN100 OVC110 07/07 A2959 1280 96 700 130/07 RMK AO2 T00720067
04850KAOH AOH20160109224512001/09/16 22:45:31  5-MIN KAOH 100345Z AUTO 13007KT 5SM BR BKN100 OVC110 07/07 A2959 1280 96 700 130/07 RMK AO2 T00720067
04850KAOH AOH20160109225012001/09/16 22:50:31  5-MIN KAOH 100350Z AUTO 13008KT 5SM BR OVC100 07/07 A2959 1290 96 700 130/08 RMK AO2 SLP022 T00720067
04850KAOH AOH20160109225511301/09/16 22:55:31  5-MIN KAOH 100355Z AUTO 12008KT 5SM BR OVC100 07/07 A2959 1290 96 700 130/08 RMK AO2 T00720067
04850KAOH AOH20160109230011301/09/16 23:00:31  5-MIN KAOH 100400Z AUTO 12007KT 5SM BR OVC095 07/07 A2958 1290 96 700 130/07 RMK AO2 T00720067
04850KAOH AOH20160109230511301/09/16 23:05:31  5-MIN KAOH 100405Z AUTO 12008KT 5SM BR OVC090 07/07 A2958 1300 96 700 130/08 RMK AO2 T00720067
04850KAOH AOH20160109231011301/09/16 23:10:31  5-MIN KAOH 100410Z AUTO 12007KT 5SM BR OVC090 07/07 A2957 1300 96 700 120/07 RMK AO2 T00720067
04850KAOH AOH20160109231511301/09/16 23:15:31  5-MIN KAOH 100415Z AUTO 12008KT 4SM BR OVC090 07/07 A2957 1310 96 700 120/08 RMK AO2 T00720067
04850KAOH AOH20160109232011301/09/16 23:20:31  5-MIN KAOH 100420Z AUTO 12008KT 4SM BR OVC085 07/07 A2956 1310 96 700 120/08 RMK AO2 T00720067
04850KAOH AOH20160109232511301/09/16 23:25:31  5-MIN KAOH 100425Z AUTO 12009KT 4SM BR OVC085 07/07 A2956 1310 96 700 120/09 RMK AO2 T00720067
04850KAOH AOH20160109233011301/09/16 23:30:31  5-MIN KAOH 100430Z AUTO 12010KT 4SM BR OVC080 07/07 A2956 1310 96 700 130/10 RMK AO2 T00720067
04850KAOH AOH20160109233511301/09/16 23:35:31  5-MIN KAOH 100435Z AUTO 12009KT 4SM BR OVC080 07/07 A2956 1310 96 700 130/09 RMK AO2 T00720067
04850KAOH AOH20160109234011301/09/16 23:40:31  5-MIN KAOH 100440Z AUTO 12009KT 4SM BR OVC080 07/07 A2956 1320 96 700 130/09 RMK AO2 T00720067
04850KAOH AOH20160109234511301/09/16 23:45:31  5-MIN KAOH 100445Z AUTO 13008KT 4SM BR OVC075 07/07 A2956 1320 96 700 140/08 RMK AO2 T00720067
04850KAOH AOH20160109235013701/09/16 23:50:31  5-MIN KAOH 100450Z AUTO 14009KT 4SM BR BKN070 OVC085 07/07 A2956 1310 96 700 140/09 RMK AO2 SLP012 T00720067 400940061
04850KAOH AOH20160109235512001/09/16 23:55:31  5-MIN KAOH 100455Z AUTO 14009KT 4SM BR SCT065 OVC080 07/07 A2956 1320 96 700 140/09 RMK AO2 T00720067
04850KAOH AOH20160110000012001/10/16 00:00:31  5-MIN KAOH 100500Z AUTO 13009KT 4SM BR FEW039 OVC075 07/07 A2955 1320 96 700 140/09 RMK AO2 T00720067
04850KAOH AOH20160110000512001/10/16 00:05:31  5-MIN KAOH 100505Z AUTO 14009KT 4SM BR SCT039 OVC070 07/07 A2955 1320 96 700 140/09 RMK AO2 T00720067
04850KAOH AOH20160110001012701/10/16 00:10:31  5-MIN KAOH 100510Z AUTO 13007KT 4SM BR BKN039 BKN060 OVC075 07/07 A2955 1320 96 700 140/07 RMK AO2 T00720067
04850KAOH AOH20160110001512701/10/16 00:15:31  5-MIN KAOH 100515Z AUTO 13007KT 5SM BR BKN039 BKN060 OVC080 07/07 A2954 1330 96 700 140/07 RMK AO2 T00720067
04850KAOH AOH20160110002012701/10/16 00:20:31  5-MIN KAOH 100520Z AUTO 13007KT 5SM BR BKN039 BKN060 OVC075 07/07 A2954 1330 96 800 140/07 RMK AO2 T00720067
04850KAOH AOH20160110002512001/10/16 00:25:31  5-MIN KAOH 100525Z AUTO 14007KT 5SM BR BKN040 OVC060 07/07 A2954 1330 96 800 140/07 RMK AO2 T00720067
04850KAOH AOH20160110003012001/10/16 00:30:31  5-MIN KAOH 100530Z AUTO 14008KT 6SM BR SCT040 OVC060 08/07 A2954 1340 93 800 150/08 RMK AO2 T00780067
04850KAOH AOH20160110003512001/10/16 00:35:31  5-MIN KAOH 100535Z AUTO 15007KT 6SM BR SCT040 OVC060 08/07 A2953 1340 93 800 150/07 RMK AO2 T00780067
04850KAOH AOH20160110004012401/10/16 00:40:31  5-MIN KAOH 100540Z AUTO 15007KT 7SM FEW028 SCT040 OVC060 08/07 A2953 1340 93 800 160/07 RMK AO2 T00780067
04850KAOH AOH20160110004512401/10/16 00:45:31  5-MIN KAOH 100545Z AUTO 15006KT 7SM SCT030 BKN042 OVC060 08/07 A2953 1340 93 800 160/06 RMK AO2 T00780067
04850KAOH AOH20160110005017401/10/16 00:50:31  5-MIN KAOH 100550Z AUTO 15007KT 6SM -RA BR BKN030 BKN042 OVC060 08/07 A2952 1350 93 800 160/07 RMK AO2 RAB47 SLP998 P0000 60000 T00780067 10083 20072 58032
04850KAOH AOH20160110005513701/10/16 00:55:31  5-MIN KAOH 100555Z AUTO 16006KT 6SM -RA BR SCT029 BKN034 OVC060 08/07 A2952 1350 93 800 160/06 RMK AO2 P0000 T00780067
04850KAOH AOH20160110010013001/10/16 01:00:31  5-MIN KAOH 100600Z AUTO 15006KT 5SM -RA BR SCT029 OVC037 08/07 A2951 1360 93 900 160/06 RMK AO2 P0001 T00780067
04850KAOH AOH20160110010513001/10/16 01:05:31  5-MIN KAOH 100605Z AUTO 15006KT 5SM -RA BR FEW029 OVC037 08/07 A2951 1360 93 900 160/06 RMK AO2 P0001 T00780067
04850KAOH AOH20160110011013001/10/16 01:10:31  5-MIN KAOH 100610Z AUTO 15005KT 4SM -RA BR SCT029 OVC037 08/07 A2951 1360 93 900 160/05 RMK AO2 P0002 T00780067
04850KAOH AOH20160110011513001/10/16 01:15:31  5-MIN KAOH 100615Z AUTO 15005KT 4SM -RA BR SCT029 OVC037 08/07 A2950 1370 93 900 160/05 RMK AO2 P0003 T00780067
04850KAOH AOH20160110012013701/10/16 01:20:31  5-MIN KAOH 100620Z AUTO 16006KT 4SM -RA BR FEW007 SCT029 OVC037 08/07 A2950 1370 93 900 160/06 RMK AO2 P0003 T00780067
04850KAOH AOH20160110012513701/10/16 01:25:31  5-MIN KAOH 100625Z AUTO 15005KT 4SM -RA BR FEW007 BKN029 OVC039 08/07 A2949 1380 93 900 160/05 RMK AO2 P0004 T00780067
04850KAOH AOH20160110013013701/10/16 01:30:31  5-MIN KAOH 100630Z AUTO 15006KT 4SM -RA BR BKN029 BKN039 OVC045 08/07 A2949 1380 93 900 160/06 RMK AO2 P0005 T00780067
04850KAOH AOH20160110013513701/10/16 01:35:31  5-MIN KAOH 100635Z AUTO 16007KT 4SM -RA BR FEW026 SCT033 OVC045 08/07 A2948 1380 93 900 160/07 RMK AO2 P0005 T00780067
04850KAOH AOH20160110014013701/10/16 01:40:31  5-MIN KAOH 100640Z AUTO 16006KT 5SM -RA BR FEW030 SCT036 OVC046 08/07 A2948 1390 93 900 160/06 RMK AO2 P0006 T00780067
04850KAOH AOH20160110014513701/10/16 01:45:31  5-MIN KAOH 100645Z AUTO 16005KT 5SM -RA BR FEW030 SCT044 OVC049 08/07 A2948 1390 93 900 170/05 RMK AO2 P0006 T00780067
04850KAOH AOH20160110015014401/10/16 01:50:31  5-MIN KAOH 100650Z AUTO 17006KT 5SM -RA BR FEW033 SCT044 OVC049 07/07 A2947 1390 96 800 170/06 RMK AO2 SLP984 P0007 T00720067
04850KAOH AOH20160110015513001/10/16 01:55:31  5-MIN KAOH 100655Z AUTO 16005KT 5SM -RA BR FEW036 OVC048 07/07 A2947 1400 96 800 160/05 RMK AO2 P0000 T00720067
04850KAOH AOH20160110020013701/10/16 02:00:31  5-MIN KAOH 100700Z AUTO 15004KT 5SM -RA BR FEW025 BKN045 OVC050 07/07 A2947 1400 96 800 160/04 RMK AO2 P0000 T00720067
04850KAOH AOH20160110020513701/10/16 02:05:31  5-MIN KAOH 100705Z AUTO 15004KT 5SM -RA BR SCT025 BKN045 OVC050 07/07 A2946 1400 96 800 150/04 RMK AO2 P0000 T00720067
04850KAOH AOH20160110021013701/10/16 02:10:31  5-MIN KAOH 100710Z AUTO 14003KT 5SM -RA BR SCT025 BKN037 OVC050 07/07 A2946 1410 96 800 150/03 RMK AO2 P0001 T00720067
04850KAOH AOH20160110021513701/10/16 02:15:31  5-MIN KAOH 100715Z AUTO 14003KT 5SM -RA BR BKN025 BKN037 OVC048 07/07 A2946 1410 96 800 150/03 RMK AO2 P0001 T00720067
04850KAOH AOH20160110022013701/10/16 02:20:31  5-MIN KAOH 100720Z AUTO 14003KT 5SM -RA BR SCT025 BKN037 OVC048 07/07 A2945 1410 96 900 140/03 RMK AO2 P0001 T00720067
04850KAOH AOH20160110022513701/10/16 02:25:31  5-MIN KAOH 100725Z AUTO 13003KT 5SM -RA BR SCT025 BKN037 OVC050 07/07 A2945 1410 96 900 130/03 RMK AO2 P0002 T00720067
04850KAOH AOH20160110023013701/10/16 02:30:31  5-MIN KAOH 100730Z AUTO 13003KT 5SM -RA BR FEW023 BKN028 OVC050 07/07 A2945 1420 96 900 140/03 RMK AO2 P0002 T00720067
04850KAOH AOH20160110023513701/10/16 02:35:31  5-MIN KAOH 100735Z AUTO 12003KT 5SM -RA BR FEW023 BKN037 OVC050 07/06 A2945 1420 93 900 130/03 RMK AO2 P0003 T00720061
04850KAOH AOH20160110024013701/10/16 02:40:31  5-MIN KAOH 100740Z AUTO 13004KT 4SM -RA BR SCT026 SCT039 OVC048 07/06 A2945 1420 96 800 140/04 RMK AO2 P0003 T00670061
04850KAOH AOH20160110024513701/10/16 02:45:31  5-MIN KAOH 100745Z AUTO 13004KT 4SM -RA BR FEW026 FEW037 OVC048 07/07 A2944 1420 96 900 130/04 RMK AO2 P0004 T00720067
04850KAOH AOH20160110025013701/10/16 02:50:31  5-MIN KAOH 100750Z AUTO 13004KT 4SM -RA BR FEW028 OVC048 07/07 A2944 1430 96 900 130/04 RMK AO2 SLP971 P0004 T00720067
04850KAOH AOH20160110025513001/10/16 02:55:31  5-MIN KAOH 100755Z AUTO 13004KT 4SM -RA BR FEW028 OVC046 07/07 A2944 1430 96 900 130/04 RMK AO2 P0000 T00720067
04850KAOH AOH20160110030012301/10/16 03:00:31  5-MIN KAOH 100800Z AUTO 12004KT 4SM -RA BR OVC048 07/07 A2943 1430 96 900 130/04 RMK AO2 P0000 T00720067
04850KAOH AOH20160110030512301/10/16 03:05:31  5-MIN KAOH 100805Z AUTO 12005KT 4SM -RA BR OVC048 07/07 A2943 1430 96 900 130/05 RMK AO2 P0001 T00720067
04850KAOH AOH20160110031012401/10/16 03:10:31  5-MIN KAOH 100810Z AUTO 13005KT 4SM -RA BR OVC046 07/07 A2943 1430 100 800 140/05 RMK AO2 P0001 T00670067
04850KAOH AOH20160110031512301/10/16 03:15:31  5-MIN KAOH 100815Z AUTO 13005KT 4SM -RA BR OVC044 07/07 A2943 1440 96 900 140/05 RMK AO2 P0002 T00720067
04850KAOH AOH20160110032012301/10/16 03:20:31  5-MIN KAOH 100820Z AUTO 13005KT 5SM -RA BR OVC044 07/07 A2942 1440 96 900 130/05 RMK AO2 P0003 T00720067
04850KAOH AOH20160110032512301/10/16 03:25:31  5-MIN KAOH 100825Z AUTO 13006KT 5SM -RA BR OVC044 07/07 A2942 1440 96 900 130/06 RMK AO2 P0003 T00720067
04850KAOH AOH20160110033013701/10/16 03:30:31  5-MIN KAOH 100830Z AUTO 13006KT 4SM -RA BR FEW018 BKN040 OVC047 07/07 A2942 1450 96 900 130/06 RMK AO2 P0004 T00720067
04850KAOH AOH20160110033513601/10/16 03:35:31  5-MIN KAOH 100835Z AUTO 12006KT 4SM RA BR FEW018 SCT026 OVC044 07/07 A2941 1450 96 900 130/06 RMK AO2 P0005 T00720067
04850KAOH AOH20160110034013701/10/16 03:40:31  5-MIN KAOH 100840Z AUTO 11006KT 4SM -RA BR FEW025 BKN043 OVC050 07/07 A2941 1450 96 900 120/06 RMK AO2 P0005 T00720067
04850KAOH AOH20160110034513701/10/16 03:45:31  5-MIN KAOH 100845Z AUTO 11004KT 3SM RA BR FEW025 FEW039 OVC046 07/07 A2941 1460 100 800 110/04 RMK AO2 P0006 T00670067
04850KAOH AOH20160110035013001/10/16 03:50:31  5-MIN KAOH 100850Z AUTO 11005KT 2 1/2SM RA BR FEW026 FEW039 OVC048 07/06 A2940 1460 96 800 110/05 RMK AO2 P0007
04850KAOH AOH20160110035513701/10/16 03:55:31  5-MIN KAOH 100855Z AUTO 11004KT 2SM -RA BR FEW026 FEW041 OVC048 07/06 A2940 1460 96 800 110/04 RMK AO2 P0000 T00670061
04850KAOH AOH20160110040013001/10/16 04:00:31  5-MIN KAOH 100900Z AUTO 10005KT 2SM -RA BR FEW024 OVC048 07/06 A2940 1470 96 900 110/05 RMK AO2 P0001 T00670061
04850KAOH AOH20160110040514001/10/16 04:05:31  5-MIN KAOH 100905Z AUTO 11003KT 1 3/4SM RA BR FEW010 FEW014 OVC048 07/06 A2939 1470 96 900 110/03 RMK AO2 P0002 T00670061
04850KAOH AOH20160110041014001/10/16 04:10:31  5-MIN KAOH 100910Z AUTO 10004KT 1 3/4SM RA BR SCT011 SCT016 OVC047 07/06 A2939 1470 96 900 110/04 RMK AO2 P0003 T00670061
04850KAOH AOH20160110041514001/10/16 04:15:31  5-MIN KAOH 100915Z AUTO 11003KT 1 3/4SM RA BR FEW010 BKN016 OVC045 07/06 A2939 1470 96 900 110/03 RMK AO2 P0004 T00670061
04850KAOH AOH20160110042013601/10/16 04:20:31  5-MIN KAOH 100920Z AUTO 11003KT 2SM RA BR FEW011 BKN018 OVC043 07/06 A2938 1480 96 900 110/03 RMK AO2 P0005 T00670061
04850KAOH AOH20160110042513801/10/16 04:25:31  5-MIN KAOH 100925Z AUTO 11003KT 2SM -RA BR FEW011 BKN018 OVC041 06/06 A2938 1480 100 800 110/03 RMK AO2 P0006 T00610061
04850KAOH AOH20160110043014201/10/16 04:30:31  5-MIN KAOH 100930Z AUTO 10004KT 1 3/4SM -RA BR SCT014 BKN018 OVC041 06/06 A2938 1480 100 800 110/04 RMK AO2 P0006 T00610061
04850KAOH AOH20160110043514101/10/16 04:35:31  5-MIN KAOH 100935Z AUTO 10003KT 1 3/4SM RA BR FEW011 SCT018 OVC041 06/06 A2937 1490 100 800 110/03 RMK AO2 P0007 T00610061
04850KAOH AOH20160110044014101/10/16 04:40:31  5-MIN KAOH 100940Z AUTO 10003KT 1 1/2SM RA BR FEW014 SCT019 OVC041 06/06 A2937 1490 100 800 100/03 RMK AO2 P0008 T00610061
04850KAOH AOH20160110111017801/10/16 11:10:31  5-MIN KAOH 101610Z AUTO 30022G33KT 4SM UP BR SCT016 BKN023 OVC047 M02/M03 A2964 1230 88 -400 310/22G33 RMK AO2 PK WND 30033/1558 UPB1555SNE1555 P0000 T10171033
04850KAOH AOH20160110111517501/10/16 11:15:31  5-MIN KAOH 101615Z AUTO 29025G32KT 8SM SCT018 BKN025 OVC049 M02/M03 A2965 1230 88 -400 300/25G32 RMK AO2 PK WND 30033/1558 UPB1555E14SNE1555 P0000 T10171033
04850KAOH AOH20160110112017501/10/16 11:20:31  5-MIN KAOH 101620Z AUTO 30023G32KT 8SM SCT018 BKN025 OVC049 M02/M03 A2965 1230 88 -400 310/23G32 RMK AO2 PK WND 30033/1558 UPB1555E14SNE1555 P0000 T10171033
04850KAOH AOH20160110112517501/10/16 11:25:31  5-MIN KAOH 101625Z AUTO 30026G34KT 7SM UP SCT021 BKN027 OVC048 M02/M04 A2966 1220 85 -400 300/26G34 RMK AO2 PK WND 29034/1624 UPB1555SNE1555 P0000 T10171039
04850KAOH AOH20160110113017101/10/16 11:30:31  5-MIN KAOH 101630Z AUTO 30025G36KT 3SM UP BR BKN025 OVC048 M02/M04 A2966 1220 85 -400 310/25G36 RMK AO2 PK WND 29036/1626 UPB1555SNE1555 P0000 T10171039
04850KAOH AOH20160110113516401/10/16 11:35:31  5-MIN KAOH 101635Z AUTO 30027G36KT 4SM UP BR OVC025 M02/M04 A2966 1220 85 -400 310/27G36 RMK AO2 PK WND 29036/1626 UPB1555SNE1555 P0000 T10171039
04850KAOH AOH20160110114016401/10/16 11:40:31  5-MIN KAOH 101640Z AUTO 30022G35KT 6SM BR OVC025 M02/M04 A2966 1210 85 -400 310/22G35 RMK AO2 PK WND 29036/1626 UPB1555E40SNE1555 P0000 T10171039
04850KAOH AOH20160110114516101/10/16 11:45:31  5-MIN KAOH 101645Z AUTO 31021G29KT 8SM OVC025 M02/M04 A2967 1210 85 -400 310/21G29 RMK AO2 PK WND 29036/1626 UPB1555E40SNE1555 P0000 T10171039
04850KAOH AOH20160110115016901/10/16 11:50:31  5-MIN KAOH 101650Z AUTO 30020G32KT 10SM OVC024 M02/M04 A2967 1210 85 -400 310/20G32 RMK AO2 PK WND 29036/1626 UPB1555E40SNE1555 SLP054 P0000 T10171039
04850KAOH AOH20160110115513801/10/16 11:55:31  5-MIN KAOH 101655Z AUTO 30024G33KT 10SM OVC024 M02/M03 A2967 1210 88 -400 310/24G33 RMK AO2 PK WND 30033/1655 T10171033
04850KAOH AOH20160110120013801/10/16 12:00:31  5-MIN KAOH 101700Z AUTO 30019G33KT 10SM OVC024 M02/M04 A2967 1210 85 -500 310/19G33 RMK AO2 PK WND 30033/1655 T10171039
04850KAOH AOH20160110120514401/10/16 12:05:31  5-MIN KAOH 101705Z AUTO 30025G33KT 8SM BKN022 OVC029 M02/M04 A2967 1210 85 -400 300/25G33 RMK AO2 PK WND 30033/1703 T10171039
04850KAOH AOH20160110121014401/10/16 12:10:31  5-MIN KAOH 101710Z AUTO 30023G33KT 8SM BKN022 OVC029 M02/M04 A2967 1210 85 -500 310/23G33 RMK AO2 PK WND 30033/1703 T10171039
04850KAOH AOH20160110121514501/10/16 12:15:31  5-MIN KAOH 101715Z AUTO 30020G30KT 10SM BKN022 OVC029 M02/M03 A2968 1200 88 -500 310/20G30 RMK AO2 PK WND 30033/1703 T10171033
04850KAOH AOH20160110122014501/10/16 12:20:31  5-MIN KAOH 101720Z AUTO 30019G26KT 10SM BKN020 OVC027 M02/M03 A2968 1200 88 -500 300/19G26 RMK AO2 PK WND 30033/1703 T10171033
04850KAOH AOH20160110122516001/10/16 12:25:31  5-MIN KAOH 101725Z AUTO 30022G30KT 10SM UP BKN020 OVC027 M02/M04 A2968 1200 85 -500 300/22G30 RMK AO2 PK WND 30033/1703 UPB25 P0000 T10171039
04850KAOH AOH20160110123015201/10/16 12:30:31  5-MIN KAOH 101730Z AUTO 30020G30KT 9SM UP OVC020 M02/M03 A2968 1200 88 -500 300/20G30 RMK AO2 PK WND 30033/1703 UPB25 P0000 T10171033
04850KAOH AOH20160110123516101/10/16 12:35:31  5-MIN KAOH 101735Z AUTO 30020G29KT 8SM -SN OVC020 M02/M04 A2968 1200 85 -500 300/20G29 RMK AO2 PK WND 30033/1703 UPB25E34SNB34 P0000 T10171039
04850KAOH AOH20160110124016101/10/16 12:40:31  5-MIN KAOH 101740Z AUTO 30015G25KT 7SM -SN OVC018 M02/M03 A2968 1200 88 -500 300/15G25 RMK AO2 PK WND 30033/1703 UPB25E34SNB34 P0000 T10171033
04850KAOH AOH20160110124516101/10/16 12:45:31  5-MIN KAOH 101745Z AUTO 29019KT 7SM UP BKN016 OVC021 M02/M03 A2968 1200 88 -500 300/19 RMK AO2 PK WND 30033/1703 UPB25SNB34E44 P0000 T10171033
04850KAOH AOH20160110125019801/10/16 12:50:31  5-MIN KAOH 101750Z AUTO 29019G29KT 8SM -SN OVC018 M02/M03 A2969 1190 88 -500 300/19G29 RMK AO2 PK WND 30033/1703 UPB25E50SNB34E44B50 SLP059 P0000 60012 T10171033 10022 21017 53059
04850KAOH AOH20160110125515701/10/16 12:55:31  5-MIN KAOH 101755Z AUTO 29026G33KT 4SM -SN BR BKN018 OVC024 M02/M03 A2969 1190 88 -500 290/26G33 RMK AO2 PK WND 28033/1754 P0000 T10171033
04850KAOH AOH20160110130015701/10/16 13:00:31  5-MIN KAOH 101800Z AUTO 29022G33KT 3SM -SN BR BKN016 OVC026 M02/M03 A2969 1190 88 -500 290/22G33 RMK AO2 PK WND 28033/1754 P0000 T10171033
04850KAOH AOH20160110130516401/10/16 13:05:31  5-MIN KAOH 101805Z AUTO 28024G30KT 3SM -SN BR SCT016 BKN022 OVC028 M02/M04 A2970 1180 85 -500 290/24G30 RMK AO2 PK WND 28033/1754 P0000 T10171039
04850KAOH AOH20160110131017401/10/16 13:10:31  5-MIN KAOH 101810Z AUTO 29024G30KT 4SM UP BR SCT018 BKN024 OVC028 M02/M04 A2970 1180 85 -500 300/24G30 RMK AO2 PK WND 28033/1754 UPB06SNE06 P0000 T10171039
04850KAOH AOH20160110131517401/10/16 13:15:31  5-MIN KAOH 101815Z AUTO 29023G36KT 4SM UP BR FEW018 BKN027 OVC034 M02/M04 A2971 1180 85 -600 300/23G36 RMK AO2 PK WND 30036/1811 UPB06SNE06 P0000 T10221044
04850KAOH AOH20160110132018101/10/16 13:20:31  5-MIN KAOH 101820Z AUTO 29024G36KT 3SM -SN BR FEW020 BKN027 OVC036 M02/M04 A2971 1170 85 -600 300/24G36 RMK AO2 PK WND 30036/1811 UPB06E19SNE06B19 P0000 T10221044
04850KAOH AOH20160110132517801/10/16 13:25:31  5-MIN KAOH 101825Z AUTO 29021G33KT 5SM -SN FEW020 BKN030 OVC038 M02/M04 A2972 1170 81 -500 300/21G33 RMK AO2 PK WND 30036/1811 UPB06E19SNE06B19 P0000 T10171044
04850KAOH AOH20160110133017801/10/16 13:30:31  5-MIN KAOH 101830Z AUTO 28022G29KT 7SM -SN FEW018 BKN030 OVC042 M02/M04 A2972 1170 81 -500 290/22G29 RMK AO2 PK WND 30036/1811 UPB06E19SNE06B19 P0000 T10171044
04850KAOH AOH20160110133519701/10/16 13:35:31  5-MIN KAOH 101835Z AUTO 28022G31KT 2 1/2SM -SN BR FEW018 BKN030 OVC036 M02/M04 A2972 1160 85 -600 280/22G31 RMK AO2 PK WND 30036/1811 VIS 1 1/4V5 UPB06E19SNE06B19 P0000 T10221044
04850KAOH AOH20160110134020101/10/16 13:40:31  5-MIN KAOH 101840Z AUTO 28021G31KT 1 1/2SM -SN BR SCT020 BKN027 OVC036 M02/M04 A2973 1160 85 -600 280/21G31 RMK AO2 PK WND 30036/1811 VIS 1 1/4V2 1/2 UPB06E19SNE06B19 P0000 T10221044
04850KAOH AOH20160110134519301/10/16 13:45:31  5-MIN KAOH 101845Z AUTO 28026G32KT 1 1/2SM -SN BR SCT020 BKN027 OVC034 M03/M04 A2973 1150 88 -700 280/26G32 RMK AO2 PK WND 30036/1811 VIS 1V3 UPB06E19SNE06B19 P0000 T10281044
04850KAOH AOH20160110135018801/10/16 13:50:31  5-MIN KAOH 101850Z AUTO 28024G33KT 1SM -SN BR FEW022 BKN029 OVC034 M03/M05 A2974 1150 85 -700 290/24G33 RMK AO2 PK WND 30036/1811 UPB06E19SNE06B19 SLP077 P0000 T10281050
04850KAOH AOH20160110135514801/10/16 13:55:31  5-MIN KAOH 101855Z AUTO 29017G33KT 3/4SM -SN BR FEW018 BKN024 OVC036 M03/M05 A2974 1150 88 -700 290/17G33 RMK AO2 P0000 T10331050
04850KAOH AOH20160110140016601/10/16 14:00:31  5-MIN KAOH 101900Z AUTO 29023G33KT 3/4SM -SN BR FEW020 BKN027 OVC036 M03/M06 A2974 1140 85 -700 290/23G33 RMK AO2 PK WND 29033/1900 P0000 T10331056
04850KAOH AOH20160110140516801/10/16 14:05:31  5-MIN KAOH 101905Z AUTO 28023G33KT 1 1/4SM -SN BR SCT020 BKN027 OVC034 M03/M05 A2975 1140 85 -700 290/23G33 RMK AO2 PK WND 29033/1900 P0000 T10281050
04850KAOH AOH20160110141017801/10/16 14:10:31  5-MIN KAOH 101910Z AUTO 28022G32KT 1 1/4SM -SN BR FEW020 BKN031 OVC040 M03/M06 A2975 1140 85 -700 290/22G32 RMK AO2 PK WND 29033/1900 VIS 3/4V3 P0000 T10331056
04850KAOH AOH20160110141516801/10/16 14:15:31  5-MIN KAOH 101915Z AUTO 28023G32KT 1 1/2SM -SN BR FEW018 BKN031 OVC038 M03/M06 A2975 1140 85 -700 290/23G32 RMK AO2 PK WND 29033/1900 P0000 T10331056
04850KAOH AOH20160110142016801/10/16 14:20:31  5-MIN KAOH 101920Z AUTO 28018G29KT 1 3/4SM -SN BR FEW018 BKN033 OVC040 M03/M06 A2975 1130 85 -800 290/18G29 RMK AO2 PK WND 29033/1900 P0000 T10331056
04850KAOH AOH20160110142516401/10/16 14:25:31  5-MIN KAOH 101925Z AUTO 28020G29KT 1SM -SN BR SCT018 BKN024 OVC040 M03/M05 A2976 1130 88 -800 290/20G29 RMK AO2 PK WND 29033/1900 P0000 T10331050
04850KAOH AOH20160110143015901/10/16 14:30:31  5-MIN KAOH 101930Z AUTO 27024G29KT 3/4SM -SN BR BKN018 OVC036 M03/M05 A2976 1130 88 -800 280/24G29 RMK AO2 PK WND 29033/1900 P0000 T10331050
04850KAOH AOH20160110143515901/10/16 14:35:31  5-MIN KAOH 101935Z AUTO 28020G29KT 3/4SM -SN BR BKN017 OVC036 M04/M06 A2976 1120 88 -800 290/20G29 RMK AO2 PK WND 29033/1900 P0000 T10391056
04850KAOH AOH20160110144016101/10/16 14:40:31  5-MIN KAOH 101940Z AUTO 29021G29KT 1 1/4SM -SN BR BKN017 OVC036 M04/M06 A2977 1120 88 -800 290/21G29 RMK AO2 PK WND 29033/1900 P0000 T10391056
04850KAOH AOH20160110144516601/10/16 14:45:31  5-MIN KAOH 101945Z AUTO 27025G31KT 2 1/2SM -SN BR OVC017 M04/M06 A2977 1120 85 -800 280/25G31 RMK AO2 PK WND 29033/1900 VIS 1 1/4V4 P0000 T10391061
04850KAOH AOH20160110145014801/10/16 14:50:31  5-MIN KAOH 101950Z AUTO 27025G33KT 1 3/4SM -SN BKN017 OVC022 M04/M07 A2977 1110 81 -800 280/25G33 RMK AO2 PK WND 29033/1900 P0000
04850KAOH AOH20160110145516101/10/16 14:55:31  5-MIN KAOH 101955Z AUTO 27032G40KT 2SM -SN BKN018 BKN025 OVC032 M04/M07 A2978 1110 81 -900 280/32G40 RMK AO2 PK WND 28040/1954 P0000 T10391067
04850KAOH AOH20160110150016101/10/16 15:00:31  5-MIN KAOH 102000Z AUTO 27028G40KT 4SM -SN SCT019 BKN026 OVC034 M04/M07 A2978 1110 78 -900 280/28G40 RMK AO2 PK WND 28040/1954 P0000 T10391072
04850KAOH AOH20160110150517101/10/16 15:05:31  5-MIN KAOH 102005Z AUTO 28025G39KT 7SM UP SCT019 SCT026 OVC036 M04/M07 A2979 1100 78 -900 280/25G39 RMK AO2 PK WND 28040/1954 UPB05SNE05 P0000 T10391072
04850KAOH AOH20160110151017101/10/16 15:10:31  5-MIN KAOH 102010Z AUTO 27029G34KT 9SM FEW021 SCT026 OVC036 M04/M07 A2979 1100 78 -900 280/29G34 RMK AO2 PK WND 28040/1954 UPB05E08SNE05 P0000 T10391072
04850KAOH AOH20160110151516501/10/16 15:15:31  5-MIN KAOH 102015Z AUTO 27024G34KT 10SM SCT026 OVC036 M04/M07 A2979 1100 78 -900 280/24G34 RMK AO2 PK WND 28040/1954 UPB05E08SNE05 P0000 T10391072
04850KAOH AOH20160110152017101/10/16 15:20:31  5-MIN KAOH 102020Z AUTO 28027G36KT 4SM -SN SCT026 OVC036 M04/M08 A2980 1090 78 -900 280/27G36 RMK AO2 PK WND 28040/1954 UPB05E08SNE05B20 P0000 T10441078
04850KAOH AOH20160110152519101/10/16 15:25:31  5-MIN KAOH 102025Z AUTO 28021G36KT 2SM -SN FEW020 SCT026 OVC038 M04/M08 A2980 1080 78 -1000 290/21G36 RMK AO2 PK WND 28040/1954 VIS 1 1/4V5 UPB05E08SNE05B20 P0000 T10441078
04850KAOH AOH20160110153018601/10/16 15:30:31  5-MIN KAOH 102030Z AUTO 27025G34KT 1 1/4SM -SN BR FEW018 BKN026 OVC038 M05/M07 A2981 1080 84 -1000 280/25G34 RMK AO2 PK WND 28040/1954 UPB05E08SNE05B20 P0000 T10501072
04850KAOH AOH20160110153518301/10/16 15:35:31  5-MIN KAOH 102035Z AUTO 27027G33KT 1 1/4SM -SN FEW018 BKN026 OVC037 M05/M08 A2981 1080 81 -1000 280/27G33 RMK AO2 PK WND 28040/1954 UPB05E08SNE05B20 P0000 T10501078
04850KAOH AOH20160110154017901/10/16 15:40:31  5-MIN KAOH 102040Z AUTO 27026G32KT 2SM -SN FEW018 BKN026 OVC037 M05/M08 A2982 1070 81 -1000 270/26G32 RMK AO2 PK WND 28040/1954 UPB05E08SNE05B20 P0000 T10501078
04850KAOH AOH20160110154518201/10/16 15:45:31  5-MIN KAOH 102045Z AUTO 26024G32KT 3SM -SN BR FEW018 BKN026 OVC031 M05/M07 A2982 1070 84 -1000 270/24G32 RMK AO2 PK WND 28040/1954 UPB05E08SNE05B20 P0000 T10501072
04850KAOH AOH20160110155020101/10/16 15:50:31  5-MIN KAOH 102050Z AUTO 26025G31KT 4SM -SN BR FEW018 BKN025 OVC035 M06/M07 A2983 1060 88 -1100 270/25G31 RMK AO2 PK WND 28040/1954 UPB05E08SNE05B20 SLP109 P0000 60000 T10561072 51039
04850KAOH AOH20160110155516501/10/16 15:55:31  5-MIN KAOH 102055Z AUTO 27022G31KT 6SM -SN BR FEW017 BKN024 OVC035 M06/M08 A2983 1060 84 -1100 280/22G31 RMK AO2 PK WND 26027/2055 P0000 T10561078
04850KAOH AOH20160110160016201/10/16 16:00:31  5-MIN KAOH 102100Z AUTO 27022G30KT 7SM -SN FEW018 BKN030 OVC035 M06/M08 A2983 1060 84 -1100 270/22G30 RMK AO2 PK WND 27027/2058 P0000 T10561078
04850KAOH AOH20160110160516501/10/16 16:05:31  5-MIN KAOH 102105Z AUTO 27022G27KT 5SM -SN BR FEW018 SCT025 OVC033 M06/M08 A2984 1060 84 -1100 270/22G27 RMK AO2 PK WND 27027/2058 P0000 T10561078
04850KAOH AOH20160110161016501/10/16 16:10:31  5-MIN KAOH 102110Z AUTO 26022G26KT 4SM -SN BR FEW018 BKN025 OVC033 M06/M08 A2984 1050 84 -1100 270/22G26 RMK AO2 PK WND 26027/2109 P0000 T10561078
04850KAOH AOH20160110161516501/10/16 16:15:31  5-MIN KAOH 102115Z AUTO 27020G27KT 4SM -SN BR SCT021 BKN028 OVC033 M06/M08 A2984 1050 84 -1100 280/20G27 RMK AO2 PK WND 26027/2109 P0000 T10561078
04850KAOH AOH20160110162016201/10/16 16:20:31  5-MIN KAOH 102120Z AUTO 27023G29KT 3SM -SN SCT023 BKN028 OVC034 M06/M08 A2985 1040 81 -1100 280/23G29 RMK AO2 PK WND 26029/2118 P0000 T10561083
04850KAOH AOH20160110162516501/10/16 16:25:31  5-MIN KAOH 102125Z AUTO 27021G29KT 2SM -SN BR BKN021 BKN028 OVC034 M06/M08 A2985 1040 84 -1200 280/21G29 RMK AO2 PK WND 27029/2121 P0000 T10611083
04850KAOH AOH20160110163016601/10/16 16:30:31  5-MIN KAOH 102130Z AUTO 27023G29KT 2 1/2SM -SN FEW021 BKN027 OVC034 M06/M09 A2986 1040 81 -1200 270/23G29 RMK AO2 PK WND 27029/2130 P0000 T10611089
04850KAOH AOH20160110163516201/10/16 16:35:31  5-MIN KAOH 102135Z AUTO 26022G29KT 4SM -SN FEW019 BKN027 OVC034 M06/M09 A2986 1030 81 -1200 270/22G29 RMK AO2 PK WND 27029/2130 P0000 T10611089
04850KAOH AOH20160110164016201/10/16 16:40:31  5-MIN KAOH 102140Z AUTO 27026G31KT 3SM -SN FEW019 BKN027 OVC034 M06/M09 A2986 1030 81 -1200 280/26G31 RMK AO2 PK WND 28031/2140 P0000 T10611089
04850KAOH AOH20160110164515501/10/16 16:45:31  5-MIN KAOH 102145Z AUTO 27023G31KT 4SM -SN FEW019 OVC028 M06/M09 A2987 1020 77 -1200 280/23G31 RMK AO2 PK WND 28031/2140 P0000 T10611094
04850KAOH AOH20160110165014501/10/16 16:50:31  5-MIN KAOH 102150Z AUTO 26024G31KT 3SM -SN SCT025 OVC030 M07/M09 A2988 1020 81 -1300 270/24G31 RMK AO2 PK WND 28031/2140 P0000
04850KAOH AOH20160110165514801/10/16 16:55:31  5-MIN KAOH 102155Z AUTO 28020G31KT 3SM -SN OVC028 M07/M09 A2988 1020 81 -1300 280/20G31 RMK AO2 PK WND 28026/2154 P0000 T10671094
04850KAOH AOH20160110170015501/10/16 17:00:31  5-MIN KAOH 102200Z AUTO 26021G31KT 4SM -SN BKN025 OVC030 M07/M09 A2988 1010 81 -1300 270/21G31 RMK AO2 PK WND 26026/2200 P0000 T10671094
04850KAOH AOH20160110170515501/10/16 17:05:31  5-MIN KAOH 102205Z AUTO 27021G29KT 5SM -SN BKN025 OVC030 M07/M09 A2989 1010 81 -1300 270/21G29 RMK AO2 PK WND 27029/2202 P0000 T10671094
04850KAOH AOH20160110171016901/10/16 17:10:31  5-MIN KAOH 102210Z AUTO 27024G30KT 2 1/2SM -SN BKN025 OVC030 M07/M09 A2989 1000 81 -1300 270/24G30 RMK AO2 PK WND 27030/2210 VIS 3/4V5 P0000 T10671094
04850KAOH AOH20160110171516701/10/16 17:15:31  5-MIN KAOH 102215Z AUTO 27021G30KT 3/4SM -SN BR FEW015 BKN026 OVC032 M07/M09 A2989 1000 84 -1300 270/21G30 RMK AO2 PK WND 27030/2210 P0000 T10671089
04850KAOH AOH20160110172016201/10/16 17:20:31  5-MIN KAOH 102220Z AUTO 27021KT 1/2SM SN FZFG FEW015 BKN026 OVC032 M07/M09 A2990 1000 84 -1300 280/21 RMK AO2 PK WND 27030/2210 P0000 T10671089
04850KAOH AOH20160110172516501/10/16 17:25:31  5-MIN KAOH 102225Z AUTO 27025G31KT 1SM -SN BR SCT021 BKN025 OVC032 M07/M09 A2990 1000 84 -1400 270/25G31 RMK AO2 PK WND 27031/2221 P0000 T10721094
04850KAOH AOH20160110173015701/10/16 17:30:31  5-MIN KAOH 102230Z AUTO 27024G31KT 1SM -SN BR BKN023 OVC032 M07/M09 A2990 990 84 -1400 270/24G31 RMK AO2 PK WND 27031/2221 P0000 T10721094
04850KAOH AOH20160110173516501/10/16 17:35:31  5-MIN KAOH 102235Z AUTO 27021G30KT 1 1/4SM -SN BKN021 BKN027 OVC032 M07/M09 A2991 990 81 -1400 280/21G30 RMK AO2 PK WND 27031/2221 P0000 T10671094
04850KAOH AOH20160110174017801/10/16 17:40:31  5-MIN KAOH 102240Z AUTO 27020G27KT 1 3/4SM -SN BR FEW016 BKN021 OVC030 M07/M09 A2991 990 84 -1400 270/20G27 RMK AO2 PK WND 27031/2221 VIS 3/4V4 P0000 T10721094
04850KAOH AOH20160110174517401/10/16 17:45:31  5-MIN KAOH 102245Z AUTO 27021G29KT 2SM -SN BR FEW016 SCT021 OVC030 M07/M09 A2991 990 84 -1400 270/21G29 RMK AO2 PK WND 27031/2221 VIS 3/4V5 P0000 T10721094
04850KAOH AOH20160110175014401/10/16 17:50:31  5-MIN KAOH 102250Z AUTO 27024G30KT 4SM -SN SCT021 OVC032 M07/M11 A2991 980 77 -1400 270/24G30 RMK AO2 PK WND 27031/2221 P0000
04850KAOH AOH20160110175515401/10/16 17:55:31  5-MIN KAOH 102255Z AUTO 28025G30KT 5SM -SN FEW021 OVC032 M07/M11 A2992 980 77 -1400 280/25G30 RMK AO2 PK WND 27030/2255 P0000 T10721106
04850KAOH AOH20160110180015401/10/16 18:00:31  5-MIN KAOH 102300Z AUTO 27019G29KT 6SM -SN FEW022 OVC034 M07/M11 A2992 980 74 -1400 280/19G29 RMK AO2 PK WND 27030/2255 P0000 T10721111
04850KAOH AOH20160110180514701/10/16 18:05:31  5-MIN KAOH 102305Z AUTO 27019G29KT 6SM -SN OVC034 M07/M11 A2992 980 74 -1400 280/19G29 RMK AO2 PK WND 27030/2255 P0000 T10721111
04850KAOH AOH20160110181015401/10/16 18:10:31  5-MIN KAOH 102310Z AUTO 27016G28KT 4SM -SN FEW024 OVC032 M07/M11 A2992 980 77 -1400 280/16G28 RMK AO2 PK WND 27030/2255 P0000 T10721106
04850KAOH AOH20160110181515401/10/16 18:15:31  5-MIN KAOH 102315Z AUTO 27019G28KT 3SM -SN FEW024 OVC032 M07/M10 A2992 970 81 -1500 270/19G28 RMK AO2 PK WND 27030/2255 P0000 T10721100
04850KAOH AOH20160110182015501/10/16 18:20:31  5-MIN KAOH 102320Z AUTO 27018KT 5SM -SN SCT022 SCT027 OVC032 M07/M10 A2993 970 81 -1500 270/18 RMK AO2 PK WND 27030/2255 P0000 T10721100
04850KAOH AOH20160110182515101/10/16 18:25:31  5-MIN KAOH 102325Z AUTO 26022KT 6SM -SN BR SCT024 OVC032 M08/M10 A2993 970 84 -1500 270/22 RMK AO2 PK WND 27030/2255 P0000 T10781100
04850KAOH AOH20160110183015701/10/16 18:30:31  5-MIN KAOH 102330Z AUTO 26019G26KT 5SM -SN BR BKN024 OVC032 M08/M10 A2993 970 84 -1500 270/19G26 RMK AO2 PK WND 27030/2255 P0000 T10781100
04850KAOH AOH20160110183515701/10/16 18:35:31  5-MIN KAOH 102335Z AUTO 25020G26KT 6SM -SN BR BKN022 OVC030 M08/M10 A2993 970 84 -1500 260/20G26 RMK AO2 PK WND 27030/2255 P0000 T10781100
04850KAOH AOH20160110184015701/10/16 18:40:31  5-MIN KAOH 102340Z AUTO 26018G26KT 3SM -SN BR BKN022 OVC030 M08/M10 A2994 960 84 -1500 260/18G26 RMK AO2 PK WND 27030/2255 P0000 T10781100
04850KAOH AOH20160110184515701/10/16 18:45:31  5-MIN KAOH 102345Z AUTO 26019G26KT 3SM -SN BR BKN022 OVC028 M08/M10 A2994 960 84 -1500 270/19G26 RMK AO2 PK WND 27030/2255 P0000 T10781100
04850KAOH AOH20160110185014501/10/16 18:50:31  5-MIN KAOH 102350Z AUTO 26019KT 7SM -SN SCT020 SCT026 OVC031 M08/M10 A2994 960 84 -1500 270/19 RMK AO2 PK WND 27030/2255 P0000
04850KAOH AOH20160110185514301/10/16 18:55:31  5-MIN KAOH 102355Z AUTO 26020G25KT 7SM -SN FEW020 SCT026 OVC031 M08/M11 A2994 960 84 -1600 260/20G25 RMK AO2 P0000 T10831106
04850KAOH AOH20160110190013001/10/16 19:00:31  5-MIN KAOH 110000Z AUTO 26020KT 7SM -SN SCT020 OVC031 M08/M11 A2994 960 84 -1600 270/20 RMK AO2 P0000 T10831106
04850KAOH AOH20160110190513601/10/16 19:05:31  5-MIN KAOH 110005Z AUTO 26015G24KT 9SM -SN FEW020 OVC031 M08/M11 A2995 950 80 -1500 260/15G24 RMK AO2 P0000 T10781106
04850KAOH AOH20160110191013801/10/16 19:10:31  5-MIN KAOH 110010Z AUTO 25017G21KT 9SM FEW020 OVC031 M08/M11 A2995 950 80 -1600 260/17G21 RMK AO2 SNE09 P0000 T10781106
04850KAOH AOH20160110191512601/10/16 19:15:31  5-MIN KAOH 110015Z AUTO 26020KT 10SM OVC031 M08/M11 A2995 950 84 -1600 260/20 RMK AO2 SNE09 P0000 T10831106
04850KAOH AOH20160110192012601/10/16 19:20:31  5-MIN KAOH 110020Z AUTO 26019KT 10SM OVC031 M08/M11 A2995 950 80 -1600 270/19 RMK AO2 SNE09 P0000 T10831111
04850KAOH AOH20160110192512601/10/16 19:25:31  5-MIN KAOH 110025Z AUTO 26018KT 10SM OVC031 M08/M11 A2996 950 80 -1600 270/18 RMK AO2 SNE09 P0000 T10831111
04850KAOH AOH20160110193013301/10/16 19:30:31  5-MIN KAOH 110030Z AUTO 25018KT 10SM -SN OVC031 M08/M11 A2996 940 80 -1600 260/18 RMK AO2 SNE09B29 P0000 T10831111
04850KAOH AOH20160110193513201/10/16 19:35:31  5-MIN KAOH 110035Z AUTO 25018KT 9SM -SN OVC031 M08/M11 A2996 940 80 -1600 260/18 RMK AO2 SNE09B29 P0000 T10831111
04850KAOH AOH20160110194013201/10/16 19:40:31  5-MIN KAOH 110040Z AUTO 26018KT 9SM -SN OVC030 M08/M11 A2996 940 80 -1600 260/18 RMK AO2 SNE09B29 P0000 T10831111
04850KAOH AOH20160110194513701/10/16 19:45:31  5-MIN KAOH 110045Z AUTO 26018G23KT 9SM OVC030 M08/M11 A2997 940 80 -1600 260/18G23 RMK AO2 SNE09B29E42 P0000 T10831111
04850KAOH AOH20160110195012201/10/16 19:50:31  5-MIN KAOH 110050Z AUTO 25019KT 10SM OVC028 M08/M11 A2997 930 80 -1600 260/19 RMK AO2 SNE09B29E42 P0000
04850KAOH AOH20160110195511401/10/16 19:55:31  5-MIN KAOH 110055Z AUTO 25020KT 10SM OVC028 M08/M12 A2997 930 77 -1600 260/20 RMK AO2 T10831117
04850KAOH AOH20160110200013201/10/16 20:00:31  5-MIN KAOH 110100Z AUTO 26021KT 10SM OVC028 M08/M12 A2997 930 77 -1700 270/21 RMK AO2 PK WND 25026/0058 T10831117
04850KAOH AOH20160110200515401/10/16 20:05:31  5-MIN KAOH 110105Z AUTO 25017G26KT 10SM -SN OVC028 M08/M11 A2998 930 80 -1700 250/17G26 RMK AO2 PK WND 25026/0058 SNB05 P0000 T10831111
04850KAOH AOH20160110201015401/10/16 20:10:31  5-MIN KAOH 110110Z AUTO 25019KT 9SM -SN FEW020 OVC028 M09/M11 A2998 920 84 -1700 260/19 RMK AO2 PK WND 25026/0058 SNB05 P0000 T10891111
04850KAOH AOH20160110201516301/10/16 20:15:31  5-MIN KAOH 110115Z AUTO 26018G26KT 6SM -SN BR FEW020 OVC027 M09/M11 A2998 920 84 -1700 260/18G26 RMK AO2 PK WND 25026/0113 SNB05 P0000 T10891111
04850KAOH AOH20160110202015601/10/16 20:20:31  5-MIN KAOH 110120Z AUTO 25021G26KT 4SM -SN BR OVC025 M09/M11 A2998 920 84 -1700 260/21G26 RMK AO2 PK WND 25026/0113 SNB05 P0000 T10891111
04850KAOH AOH20160110202515601/10/16 20:25:31  5-MIN KAOH 110125Z AUTO 25019G26KT 5SM -SN BR OVC025 M09/M11 A2998 920 84 -1700 260/19G26 RMK AO2 PK WND 25026/0113 SNB05 P0000 T10891111
04850KAOH AOH20160110203015301/10/16 20:30:31  5-MIN KAOH 110130Z AUTO 25017G26KT 8SM -SN OVC025 M09/M12 A2998 920 80 -1700 260/17G26 RMK AO2 PK WND 25026/0113 SNB05 P0000 T10891117
04850KAOH AOH20160110203515301/10/16 20:35:31  5-MIN KAOH 110135Z AUTO 26018G24KT 9SM -SN OVC025 M09/M12 A2998 920 80 -1700 260/18G24 RMK AO2 PK WND 25026/0113 SNB05 P0000 T10891117
04850KAOH AOH20160110204014701/10/16 20:40:31  5-MIN KAOH 110140Z AUTO 25022KT 9SM -SN OVC025 M09/M12 A2998 920 80 -1700 260/22 RMK AO2 PK WND 25026/0113 SNB05 P0000 T10891117
04850KAOH AOH20160110204516001/10/16 20:45:31  5-MIN KAOH 110145Z AUTO 26016G25KT 8SM -SN FEW020 OVC025 M09/M12 A2998 920 80 -1700 260/16G25 RMK AO2 PK WND 25026/0113 SNB05 P0000 T10891117
04850KAOH AOH20160110205016401/10/16 20:50:31  5-MIN KAOH 110150Z AUTO 25016KT 6SM -SN BR SCT020 OVC027 M09/M11 A2999 920 84 -1700 260/16 RMK AO2 PK WND 25026/0113 SNB05 SLP168 P0000 T10891111
04850KAOH AOH20160110205513301/10/16 20:55:31  5-MIN KAOH 110155Z AUTO 27016KT 3SM -SN BR SCT020 OVC026 M09/M11 A2999 920 84 -1700 280/16 RMK AO2 P0000 T10891111
04850KAOH AOH20160110210013001/10/16 21:00:31  5-MIN KAOH 110200Z AUTO 26016KT 4SM -SN FEW016 OVC024 M09/M12 A2999 920 80 -1700 270/16 RMK AO2 P0000 T10891117
04850KAOH AOH20160110210513001/10/16 21:05:31  5-MIN KAOH 110205Z AUTO 26018KT 4SM -SN BKN022 OVC027 M09/M12 A2999 910 80 -1700 270/18 RMK AO2 P0000 T10891117
04850KAOH AOH20160110211013701/10/16 21:10:31  5-MIN KAOH 110210Z AUTO 26014KT 1 3/4SM -SN BR SCT016 OVC022 M09/M11 A2999 910 88 -1800 260/14 RMK AO2 P0000 T10941111
04850KAOH AOH20160110211513701/10/16 21:15:31  5-MIN KAOH 110215Z AUTO 25019KT 1 1/2SM -SN BR BKN013 OVC022 M09/M12 A2999 910 84 -1800 260/19 RMK AO2 P0000 T10941117
04850KAOH AOH20160110212013701/10/16 21:20:31  5-MIN KAOH 110220Z AUTO 25016KT 2 1/2SM -SN BR BKN013 OVC022 M09/M12 A2999 910 84 -1800 260/16 RMK AO2 P0000 T10941117
04850KAOH AOH20160110212513001/10/16 21:25:31  5-MIN KAOH 110225Z AUTO 26020KT 7SM -SN SCT013 OVC022 M09/M12 A3000 910 80 -1800 260/20 RMK AO2 P0000 T10941122
04850KAOH AOH20160110213013201/10/16 21:30:31  5-MIN KAOH 110230Z AUTO 25019KT 9SM SCT013 OVC022 M09/M12 A3000 910 80 -1800 260/19 RMK AO2 SNE28 P0000 T10941122
04850KAOH AOH20160110213513901/10/16 21:35:31  5-MIN KAOH 110235Z AUTO 25018G25KT 10SM SCT013 OVC022 M10/M13 A3000 910 80 -1900 250/18G25 RMK AO2 SNE28 P0000 T11001128
04850KAOH AOH20160110214013601/10/16 21:40:31  5-MIN KAOH 110240Z AUTO 25016G24KT 9SM -SN FEW013 OVC022 M10/M13 A3000 900 80 -1900 250/16G24 RMK AO2 P0000 T11001128
04850KAOH AOH20160110214513601/10/16 21:45:31  5-MIN KAOH 110245Z AUTO 24018G24KT 7SM -SN BKN020 OVC025 M10/M13 A3000 900 80 -1900 250/18G24 RMK AO2 P0000 T11001128
04850KAOH AOH20160110215014201/10/16 21:50:31  5-MIN KAOH 110250Z AUTO 24020KT 8SM -SN OVC020 M10/M13 A3000 900 80 -1900 250/20 RMK AO2 SLP175 P0000 60000 T11001128 51037
04850KAOH AOH20160110215514701/10/16 21:55:31  5-MIN KAOH 110255Z AUTO 25021G26KT 9SM -SN OVC020 M10/M13 A3001 900 80 -1900 260/21G26 RMK AO2 PK WND 25026/0254 P0000 T11001128
04850KAOH AOH20160110220015101/10/16 22:00:31  5-MIN KAOH 110300Z AUTO 25018G26KT 9SM OVC020 M10/M13 A3001 900 80 -1900 260/18G26 RMK AO2 PK WND 25026/0254 SNE0256 P0000 T11001128
04850KAOH AOH20160110220514801/10/16 22:05:31  5-MIN KAOH 110305Z AUTO 26021KT 6SM HZ OVC020 M11/M13 A3001 900 80 -2000 260/21 RMK AO2 PK WND 25026/0254 SNE0256 P0000 T11061133
04850KAOH AOH20160110221014401/10/16 22:10:31  5-MIN KAOH 110310Z AUTO 25018KT 6SM -SN BR OVC019 M11/M13 A3001 900 84 -2000 260/18 RMK AO2 PK WND 25026/0254 P0000 T11061128
04850KAOH AOH20160110221514101/10/16 22:15:31  5-MIN KAOH 110315Z AUTO 25018KT 3SM -SN OVC019 M11/M13 A3001 900 80 -2000 250/18 RMK AO2 PK WND 25026/0254 P0000 T11061133
04850KAOH AOH20160110222014501/10/16 22:20:31  5-MIN KAOH 110320Z AUTO 25018KT 2 1/2SM -SN OVC019 M11/M13 A3001 900 80 -2000 250/18 RMK AO2 PK WND 25026/0254 P0000 T11061133
04850KAOH AOH20160110222514101/10/16 22:25:31  5-MIN KAOH 110325Z AUTO 25017KT 5SM -SN OVC019 M11/M14 A3001 900 80 -2100 250/17 RMK AO2 PK WND 25026/0254 P0000 T11111139
04850KAOH AOH20160110223014301/10/16 22:30:31  5-MIN KAOH 110330Z AUTO 26021KT 9SM OVC020 M11/M14 A3001 900 80 -2100 260/21 RMK AO2 PK WND 25026/0254 SNE30 P0000 T11111139
04850KAOH AOH20160110223514301/10/16 22:35:31  5-MIN KAOH 110335Z AUTO 26020KT 9SM BKN020 M11/M14 A3001 900 77 -2100 270/20 RMK AO2 PK WND 25026/0254 SNE30 P0000 T11111144
04850KAOH AOH20160110224014401/10/16 22:40:31  5-MIN KAOH 110340Z AUTO 26017KT 10SM BKN020 M11/M14 A3001 900 80 -2100 260/17 RMK AO2 PK WND 25026/0254 SNE30 P0000 T11111139
04850KAOH AOH20160110224515001/10/16 22:45:31  5-MIN KAOH 110345Z AUTO 26020KT 9SM FEW015 BKN020 M12/M14 A3001 890 84 -2100 260/20 RMK AO2 PK WND 25026/0254 SNE30 P0000 T11171139
04850KAOH AOH20160110225015701/10/16 22:50:31  5-MIN KAOH 110350Z AUTO 25016KT 7SM -SN BKN020 M11/M14 A3001 890 80 -2100 260/16 RMK AO2 PK WND 25026/0254 SNE30B47 SLP177 P0000 T11111139
04850KAOH AOH20160110225512301/10/16 22:55:31  5-MIN KAOH 110355Z AUTO 24017KT 6SM -SN BKN020 M11/M14 A3001 890 80 -2100 250/17 RMK AO2 P0000 T11111139
04850KAOH AOH20160110230012301/10/16 23:00:31  5-MIN KAOH 110400Z AUTO 25020KT 8SM -SN BKN020 M12/M14 A3001 890 80 -2100 260/20 RMK AO2 P0000 T11171144
04850KAOH AOH20160110230512501/10/16 23:05:31  5-MIN KAOH 110405Z AUTO 24018KT 8SM OVC020 M12/M14 A3001 890 80 -2100 250/18 RMK AO2 SNE03 P0000 T11171144
04850KAOH AOH20160112071516501/12/16 07:15:31  5-MIN KAOH 121215Z AUTO 29020G25KT 2 1/2SM -SN SCT017 SCT024 OVC050 M04/M07 A2970 1190 81 -800 300/20G25 RMK AO2 PK WND 27033/1155 P0000 T10441072
04850KAOH AOH20160112072016801/12/16 07:20:31  5-MIN KAOH 121220Z AUTO 29021G28KT 1 1/2SM -SN BR FEW019 SCT024 OVC050 M05/M07 A2970 1180 84 -900 290/21G28 RMK AO2 PK WND 27033/1155 P0000 T10501072
04850KAOH AOH20160112072516001/12/16 07:25:31  5-MIN KAOH 121225Z AUTO 29020KT 3/4SM -SN BR SCT019 SCT026 OVC048 M05/M07 A2970 1180 84 -900 290/20 RMK AO2 PK WND 27033/1155 P0000 T10501072
04850KAOH AOH20160112073016401/12/16 07:30:31  5-MIN KAOH 121230Z AUTO 28019G28KT 1SM -SN BR BKN020 BKN025 OVC044 M05/M07 A2970 1180 84 -900 290/19G28 RMK AO2 PK WND 27033/1155 P0000 T10501072
04850KAOH AOH20160112073516401/12/16 07:35:31  5-MIN KAOH 121235Z AUTO 29018G27KT 1SM -SN BR SCT020 BKN025 OVC042 M05/M07 A2970 1180 84 -900 290/18G27 RMK AO2 PK WND 27033/1155 P0000 T10501072
04850KAOH AOH20160112074016801/12/16 07:40:31  5-MIN KAOH 121240Z AUTO 29014G23KT 1 1/2SM -SN BR SCT020 BKN025 OVC040 M05/M07 A2970 1180 84 -900 290/14G23 RMK AO2 PK WND 27033/1155 P0000 T10501072
04850KAOH AOH20160112074516401/12/16 07:45:31  5-MIN KAOH 121245Z AUTO 30013G23KT 2SM -SN BR FEW014 BKN021 OVC036 M05/M07 A2971 1180 84 -900 300/13G23 RMK AO2 PK WND 27033/1155 P0000 T10501072
04850KAOH AOH20160112075017601/12/16 07:50:31  5-MIN KAOH 121250Z AUTO 29016G22KT 2 1/2SM -SN BR SCT014 BKN021 OVC038 M06/M08 A2971 1180 84 -1000 300/16G22 RMK AO2 PK WND 27033/1155 SLP073 P0000 T10561078
04850KAOH AOH20160112075514401/12/16 07:55:31  5-MIN KAOH 121255Z AUTO 29014G22KT 3SM -SN FEW014 BKN026 OVC045 M06/M08 A2971 1180 81 -1000 300/14G22 RMK AO2 P0000 T10561083
04850KAOH AOH20160112080013801/12/16 08:00:31  5-MIN KAOH 121300Z AUTO 29012KT 4SM -SN FEW014 SCT021 OVC045 M06/M08 A2971 1180 81 -1000 300/12 RMK AO2 P0000 T10561083
04850KAOH AOH20160112080513801/12/16 08:05:31  5-MIN KAOH 121305Z AUTO 29014KT 5SM -SN FEW014 SCT023 OVC047 M06/M08 A2970 1180 81 -1000 300/14 RMK AO2 P0000 T10561083
04850KAOH AOH20160112081014301/12/16 08:10:31  5-MIN KAOH 121310Z AUTO 29013KT 6SM BR FEW017 BKN047 OVC070 M06/M08 A2970 1180 84 -1000 300/13 RMK AO2 SNE10 P0000 T10611083
04850KAOH AOH20160112081514001/12/16 08:15:31  5-MIN KAOH 121315Z AUTO 29010KT 9SM FEW017 BKN049 OVC090 M06/M09 A2970 1180 81 -1000 290/10 RMK AO2 SNE10 P0000 T10611089
04850KAOH AOH20160112082014701/12/16 08:20:31  5-MIN KAOH 121320Z AUTO 29015G20KT 10SM FEW025 BKN049 OVC090 M06/M09 A2970 1180 77 -1000 300/15G20 RMK AO2 SNE10 P0000 T10611094
04850KAOH AOH20160112082514701/12/16 08:25:31  5-MIN KAOH 121325Z AUTO 29013G20KT 10SM FEW025 BKN080 OVC110 M06/M09 A2970 1180 77 -1100 290/13G20 RMK AO2 SNE10 P0000 T10611094
04850KAOH AOH20160112083014101/12/16 08:30:31  5-MIN KAOH 121330Z AUTO 28012KT 10SM FEW031 BKN075 OVC110 M06/M09 A2971 1180 77 -1100 290/12 RMK AO2 SNE10 P0000 T10611094
04850KAOH AOH20160112083514101/12/16 08:35:31  5-MIN KAOH 121335Z AUTO 28014KT 10SM FEW031 BKN050 OVC110 M06/M09 A2971 1180 77 -1100 290/14 RMK AO2 SNE10 P0000 T10611094
04850KAOH AOH20160112084014701/12/16 08:40:31  5-MIN KAOH 121340Z AUTO 28014G21KT 10SM FEW031 BKN050 OVC095 M06/M09 A2971 1170 77 -1100 290/14G21 RMK AO2 SNE10 P0000 T10611094
04850KAOH AOH20160112084514601/12/16 08:45:31  5-MIN KAOH 121345Z AUTO 29013G21KT 7SM FEW031 BKN048 OVC110 M06/M10 A2971 1180 74 -1100 290/13G21 RMK AO2 SNE10 P0000 T10611100
04850KAOH AOH20160112085016001/12/16 08:50:31  5-MIN KAOH 121350Z AUTO 29017G23KT 4SM -SN FEW031 BKN042 OVC080 M06/M10 A2971 1170 74 -1100 290/17G23 RMK AO2 SNE10B48 SLP074 P0000 T10611100
04850KAOH AOH20160112085514401/12/16 08:55:31  5-MIN KAOH 121355Z AUTO 29016G23KT 2SM -SN FEW022 BKN037 OVC050 M07/M09 A2971 1170 81 -1100 300/16G23 RMK AO2 P0000 T10671094
04850KAOH AOH20160112090014201/12/16 09:00:31  5-MIN KAOH 121400Z AUTO 29015KT 1 1/4SM -SN SCT020 BKN030 OVC048 M07/M09 A2971 1170 81 -1100 290/15 RMK AO2 P0000 T10671094
04850KAOH AOH20160112090513101/12/16 09:05:31  5-MIN KAOH 121405Z AUTO 29013KT 1SM -SN FEW020 OVC026 M07/M09 A2971 1170 81 -1100 290/13 RMK AO2 P0000 T10671094
04850KAOH AOH20160112091013601/12/16 09:10:31  5-MIN KAOH 121410Z AUTO 28011KT 3/4SM -SN BR FEW018 OVC022 M07/M09 A2971 1170 84 -1100 280/11 RMK AO2 P0000 T10671089
04850KAOH AOH20160112091512801/12/16 09:15:31  5-MIN KAOH 121415Z AUTO 28010KT 3/4SM -SN BR VV019 M07/M09 A2971 1170 84 -1100 290/10 RMK AO2 P0000 T10671089
04850KAOH AOH20160112092013401/12/16 09:20:31  5-MIN KAOH 121420Z AUTO 28009KT 1SM -SN BR SCT015 OVC020 M07/M09 A2971 1170 84 -1100 290/09 RMK AO2 P0000 T10671089
04850KAOH AOH20160112092513801/12/16 09:25:31  5-MIN KAOH 121425Z AUTO 28010KT 1 1/2SM -SN BR SCT014 OVC018 M07/M09 A2971 1170 84 -1100 290/10 RMK AO2 P0000 T10671089
04850KAOH AOH20160112093013101/12/16 09:30:31  5-MIN KAOH 121430Z AUTO 29013KT 1 1/2SM -SN BR OVC016 M07/M09 A2972 1160 84 -1100 290/13 RMK AO2 P0000 T10671089
04850KAOH AOH20160112093513801/12/16 09:35:31  5-MIN KAOH 121435Z AUTO 29010KT 1 1/4SM -SN BR BKN016 OVC020 M07/M09 A2972 1160 84 -1100 290/10 RMK AO2 P0000 T10671089
04850KAOH AOH20160112094012701/12/16 09:40:31  5-MIN KAOH 121440Z AUTO 29012KT 1SM -SN BR OVC016 M07/M09 A2972 1160 84 -1100 290/12 RMK AO2 P0000 T10671089
04850KAOH AOH20160112094512701/12/16 09:45:31  5-MIN KAOH 121445Z AUTO 28012KT 1SM -SN BR OVC016 M07/M09 A2972 1160 84 -1100 290/12 RMK AO2 P0000 T10671089
04850KAOH AOH20160112095015401/12/16 09:50:31  5-MIN KAOH 121450Z AUTO 29014KT 1 1/4SM -SN BKN016 OVC024 M07/M09 A2972 1160 81 -1100 290/14 RMK AO2 SLP079 P0000 60000 T10671094 53016
04850KAOH AOH20160112095513501/12/16 09:55:31  5-MIN KAOH 121455Z AUTO 29012KT 1 1/4SM -SN BKN016 OVC024 M07/M09 A2972 1160 81 -1100 290/12 RMK AO2 P0000 T10671094
04850KAOH AOH20160112100012701/12/16 10:00:31  5-MIN KAOH 121500Z AUTO 29013KT 1SM -SN BR OVC018 M07/M09 A2972 1160 84 -1100 300/13 RMK AO2 P0000 T10671089
04850KAOH AOH20160112100512901/12/16 10:05:31  5-MIN KAOH 121505Z AUTO 29014KT 3/4SM -SN BR OVC018 M07/M09 A2973 1160 84 -1200 290/14 RMK AO2 P0000 T10671089
04850KAOH AOH20160112101012901/12/16 10:10:31  5-MIN KAOH 121510Z AUTO 29017KT 3/4SM -SN BR OVC018 M07/M09 A2973 1150 84 -1200 290/17 RMK AO2 P0000 T10671089
04850KAOH AOH20160112101512901/12/16 10:15:31  5-MIN KAOH 121515Z AUTO 28015KT 1/2SM SN FZFG VV016 M07/M09 A2973 1150 84 -1200 290/15 RMK AO2 P0000 T10671089
04850KAOH AOH20160112102012901/12/16 10:20:31  5-MIN KAOH 121520Z AUTO 29014KT 1/2SM SN FZFG VV014 M07/M09 A2974 1150 84 -1200 290/14 RMK AO2 P0000 T10671089
04850KAOH AOH20160112102512901/12/16 10:25:31  5-MIN KAOH 121525Z AUTO 29014KT 1/2SM SN FZFG VV015 M07/M09 A2974 1150 84 -1200 290/14 RMK AO2 P0000 T10671089
04850KAOH AOH20160112103012801/12/16 10:30:31  5-MIN KAOH 121530Z AUTO 29014KT 3/4SM -SN BR VV017 M07/M09 A2974 1140 84 -1200 290/14 RMK AO2 P0000 T10671089
04850KAOH AOH20160112103512801/12/16 10:35:31  5-MIN KAOH 121535Z AUTO 29013KT 3/4SM -SN BR VV017 M07/M09 A2975 1140 84 -1200 300/13 RMK AO2 P0000 T10671089
04850KAOH AOH20160112104012601/12/16 10:40:31  5-MIN KAOH 121540Z AUTO 28013KT 1SM -SN BR VV018 M07/M09 A2975 1140 84 -1200 280/13 RMK AO2 P0000 T10671089
04850KAOH AOH20160112104514001/12/16 10:45:31  5-MIN KAOH 121545Z AUTO 28016G22KT 1SM -SN BR BKN021 OVC028 M07/M09 A2975 1140 84 -1200 290/16G22 RMK AO2 P0000 T10671089
04850KAOH AOH20160112105015801/12/16 10:50:31  5-MIN KAOH 121550Z AUTO 29018G24KT 1 1/4SM -SN BR FEW016 BKN023 OVC030 M07/M09 A2975 1130 84 -1200 290/18G24 RMK AO2 SLP089 P0000 T10671089
04850KAOH AOH20160112105515101/12/16 10:55:31  5-MIN KAOH 121555Z AUTO 29015G24KT 1 1/4SM -SN BR FEW016 BKN023 OVC034 M07/M09 A2975 1130 84 -1200 290/15G24 RMK AO2 P0000 T10671089
04850KAOH AOH20160112110015101/12/16 11:00:31  5-MIN KAOH 121600Z AUTO 28018G24KT 1 1/2SM -SN BR SCT016 BKN026 OVC034 M07/M09 A2976 1130 84 -1200 290/18G24 RMK AO2 P0000 T10671089
04850KAOH AOH20160112110515101/12/16 11:05:31  5-MIN KAOH 121605Z AUTO 28019G24KT 1 1/4SM -SN BR SCT016 BKN028 OVC034 M07/M09 A2976 1130 84 -1200 290/19G24 RMK AO2 P0000 T10671089
04850KAOH AOH20160112111016401/12/16 11:10:31  5-MIN KAOH 121610Z AUTO 29019G27KT 3/4SM -SN SCT016 BKN028 OVC035 M07/M09 A2976 1130 81 -1200 300/19G27 RMK AO2 PK WND 29027/1607 P0000 T10671094
04850KAOH AOH20160112111516401/12/16 11:15:31  5-MIN KAOH 121615Z AUTO 29017G31KT 3/4SM -SN SCT017 BKN027 OVC037 M07/M09 A2976 1120 81 -1200 290/17G31 RMK AO2 PK WND 30031/1612 P0000 T10671094
04850KAOH AOH20160112112016301/12/16 11:20:31  5-MIN KAOH 121620Z AUTO 28021G31KT 1/2SM SN FEW015 BKN036 OVC046 M07/M10 A2976 1120 81 -1300 290/21G31 RMK AO2 PK WND 30031/1612 P0000 T10721100
04850KAOH AOH20160112112516301/12/16 11:25:31  5-MIN KAOH 121625Z AUTO 28021G32KT 1/2SM SN FEW017 BKN039 OVC047 M07/M10 A2977 1120 81 -1300 290/21G32 RMK AO2 PK WND 29032/1625 P0000 T10721100
04850KAOH AOH20160112113016301/12/16 11:30:31  5-MIN KAOH 121630Z AUTO 29026G33KT 1/2SM SN FEW017 BKN039 OVC046 M07/M11 A2977 1120 77 -1300 290/26G33 RMK AO2 PK WND 29033/1630 P0000 T10721106
04850KAOH AOH20160112113516401/12/16 11:35:31  5-MIN KAOH 121635Z AUTO 28019G33KT 1/4SM +SN FEW017 BKN037 OVC046 M07/M11 A2977 1120 77 -1300 290/19G33 RMK AO2 PK WND 29033/1630 P0000 T10721106
04850KAOH AOH20160112114016401/12/16 11:40:31  5-MIN KAOH 121640Z AUTO 29019G32KT 3/4SM -SN FEW018 BKN039 OVC046 M07/M11 A2977 1110 77 -1300 290/19G32 RMK AO2 PK WND 29033/1630 P0000 T10721106
04850KAOH AOH20160112114517401/12/16 11:45:31  5-MIN KAOH 121645Z AUTO 29020G33KT 3/4SM UP FEW022 BKN035 OVC047 M07/M11 A2977 1110 77 -1300 290/20G33 RMK AO2 PK WND 29033/1630 UPB45SNE45 P0000 T10721106
04850KAOH AOH20160112115018101/12/16 11:50:31  5-MIN KAOH 121650Z AUTO 28023G33KT 3/4SM UP FEW022 BKN031 OVC049 M07/M11 A2977 1110 77 -1300 290/23G33 RMK AO2 PK WND 29033/1630 UPB45SNE45 SLP096 P0000 T10721106
04850KAOH AOH20160112115514401/12/16 11:55:31  5-MIN KAOH 121655Z AUTO 28018G28KT 1SM -SN FEW022 BKN031 OVC047 M07/M11 A2978 1110 77 -1300 290/18G28 RMK AO2 P0000 T10721106
04850KAOH AOH20160112120014801/12/16 12:00:31  5-MIN KAOH 121700Z AUTO 30019G27KT 1 1/4SM -SN SCT022 BKN031 OVC050 M07/M11 A2978 1110 74 -1300 300/19G27 RMK AO2 P0000 T10721111
04850KAOH AOH20160112120516601/12/16 12:05:31  5-MIN KAOH 121705Z AUTO 29018G25KT 1 3/4SM UP BKN024 BKN029 OVC050 M08/M11 A2978 1110 77 -1400 290/18G25 RMK AO2 VIS 1V3 UPB04SNE04 P0000 T10781111
04850KAOH AOH20160112121016601/12/16 12:10:31  5-MIN KAOH 121710Z AUTO 29018G24KT 2SM -SN BKN024 OVC031 M08/M12 A2978 1110 74 -1400 300/18G24 RMK AO2 VIS 1 1/4V4 UPB04E08SNE04B08 P0000 T10781117
04850KAOH AOH20160112121516101/12/16 12:15:31  5-MIN KAOH 121715Z AUTO 28021G24KT 1 3/4SM -SN BKN028 M08/M12 A2978 1110 74 -1400 290/21G24 RMK AO2 VIS 3/4V4 UPB04E08SNE04B08 P0000 T10781117
04850KAOH AOH20160112122017101/12/16 12:20:31  5-MIN KAOH 121720Z AUTO 29022G29KT 1SM UP BKN026 BKN031 M08/M12 A2978 1110 74 -1400 290/22G29 RMK AO2 PK WND 28029/1719 UPB04SNE04B08E18 P0000 T10781117
04850KAOH AOH20160112122518201/12/16 12:25:31  5-MIN KAOH 121725Z AUTO 29020G29KT 1 1/4SM -SN BKN026 OVC031 M08/M12 A2978 1100 74 -1400 290/20G29 RMK AO2 PK WND 28029/1719 UPB04E25SNE04B08E18B25 P0000 T10781117
04850KAOH AOH20160112123018001/12/16 12:30:31  5-MIN KAOH 121730Z AUTO 28022G27KT 3/4SM -SN BKN023 OVC029 M08/M11 A2978 1100 77 -1400 290/22G27 RMK AO2 PK WND 28029/1719 UPB04E25SNE04B08E18B25 P0000 T10781111
04850KAOH AOH20160112123519101/12/16 12:35:31  5-MIN KAOH 121735Z AUTO 29019G27KT 1/2SM SN FZFG SCT017 BKN023 OVC028 M08/M11 A2979 1100 84 -1400 290/19G27 RMK AO2 PK WND 28029/1719 UPB04E25SNE04B08E18B25 P0000 T10831106
04850KAOH AOH20160112124018401/12/16 12:40:31  5-MIN KAOH 121740Z AUTO 29021G26KT 1/4SM SN FZFG BKN017 OVC025 M08/M11 A2979 1100 84 -1400 300/21G26 RMK AO2 PK WND 28029/1719 UPB04E25SNE04B08E18B25 P0000 T10831106
04850KAOH AOH20160112124518601/12/16 12:45:31  5-MIN KAOH 121745Z AUTO 30025G29KT 1/2SM SN BKN017 BKN023 OVC029 M08/M11 A2979 1100 80 -1400 310/25G29 RMK AO2 PK WND 30029/1744 UPB04E25SNE04B08E18B25 P0000 T10831111
04850KAOH AOH20160112125021001/12/16 12:50:31  5-MIN KAOH 121750Z AUTO 29021G30KT 1/2SM SN BKN017 OVC024 M09/M12 A2980 1090 80 -1500 300/21G30 RMK AO2 PK WND 28030/1748 UPB04E25SNE04B08E18B25 SLP104 P0000 60000 T10891117 11039 21089 53006
04850KAOH AOH20160112125514301/12/16 12:55:31  5-MIN KAOH 121755Z AUTO 30017G30KT 1/2SM SN FZFG BKN017 OVC024 M09/M11 A2980 1090 84 -1500 300/17G30 RMK AO2 P0000 T10891111
04850KAOH AOH20160112130015701/12/16 13:00:31  5-MIN KAOH 121800Z AUTO 30022G26KT 3/4SM -SN BKN017 OVC024 M09/M12 A2980 1090 80 -1500 300/22G26 RMK AO2 PK WND 31026/1756 P0000 T10891117
04850KAOH AOH20160112130516301/12/16 13:05:31  5-MIN KAOH 121805Z AUTO 30017G26KT 1/2SM SN BKN017 BKN024 OVC032 M09/M12 A2981 1080 80 -1500 300/17G26 RMK AO2 PK WND 30026/1802 P0000 T10891117
04850KAOH AOH20160112131016001/12/16 13:10:31  5-MIN KAOH 121810Z AUTO 29021G26KT 3/4SM -SN BR BKN017 OVC024 M09/M11 A2981 1080 84 -1500 300/21G26 RMK AO2 PK WND 30026/1802 P0000 T10891111
04850KAOH AOH20160112131515701/12/16 13:15:31  5-MIN KAOH 121815Z AUTO 29020G27KT 3/4SM -SN BKN017 OVC026 M09/M12 A2981 1080 80 -1500 300/20G27 RMK AO2 PK WND 30027/1814 P0000 T10891117
04850KAOH AOH20160112132016401/12/16 13:20:31  5-MIN KAOH 121820Z AUTO 29023G29KT 3/4SM -SN SCT017 BKN026 BKN033 M09/M12 A2981 1080 77 -1500 290/23G29 RMK AO2 PK WND 29029/1818 P0000 T10891122
04850KAOH AOH20160112132517201/12/16 13:25:31  5-MIN KAOH 121825Z AUTO 30024G32KT 1SM UP SCT017 BKN025 OVC033 M09/M13 A2982 1070 74 -1500 300/24G32 RMK AO2 PK WND 30032/1823 UPB24SNE24 P0000 T10891128
04850KAOH AOH20160112133016501/12/16 13:30:31  5-MIN KAOH 121830Z AUTO 28023G32KT 1SM UP FEW015 BKN025 M09/M13 A2982 1070 74 -1600 290/23G32 RMK AO2 PK WND 30032/1823 UPB24SNE24 P0000 T10891128
04850KAOH AOH20160112133516501/12/16 13:35:31  5-MIN KAOH 121835Z AUTO 28023G29KT 1SM UP FEW017 BKN025 M09/M13 A2983 1060 70 -1600 290/23G29 RMK AO2 PK WND 30032/1823 UPB24SNE24 P0000 T10891133
04850KAOH AOH20160112134016701/12/16 13:40:31  5-MIN KAOH 121840Z AUTO 28023G30KT 1/2SM UP FEW012 BKN025 M09/M13 A2983 1060 77 -1600 290/23G30 RMK AO2 PK WND 30032/1823 UPB24SNE24 P0000 T10941128
04850KAOH AOH20160112134517401/12/16 13:45:31  5-MIN KAOH 121845Z AUTO 29019G32KT 3/4SM UP SCT016 BKN025 BKN033 M09/M13 A2983 1060 73 -1600 290/19G32 RMK AO2 PK WND 30032/1823 UPB24SNE24 P0000 T10941133
04850KAOH AOH20160112135017401/12/16 13:50:31  5-MIN KAOH 121850Z AUTO 28024G32KT 3/4SM UP SCT021 BKN030 M09/M13 A2984 1050 73 -1600 290/24G32 RMK AO2 PK WND 30032/1823 UPB24SNE24 SLP118 P0000 T10941133
04850KAOH AOH20160112135516801/12/16 13:55:31  5-MIN KAOH 121855Z AUTO 28023G30KT 3/4SM -SN SCT022 BKN031 M09/M13 A2984 1050 73 -1600 290/23G30 RMK AO2 PK WND 30028/1854 UPE54SNB54 P0000 T10941133
04850KAOH AOH20160112140017901/12/16 14:00:31  5-MIN KAOH 121900Z AUTO 28023G30KT 3/4SM -SN FEW022 BKN027 BKN033 M09/M13 A2985 1050 73 -1600 290/23G30 RMK AO2 PK WND 28030/1858 UPE1854SNB1854 P0000 T10941133
04850KAOH AOH20160112140517201/12/16 14:05:31  5-MIN KAOH 121905Z AUTO 29019G30KT 1SM UP FEW022 BKN027 OVC033 M09/M13 A2985 1040 73 -1700 300/19G30 RMK AO2 PK WND 28030/1858 SNB1854E04 P0000 T10941133
04850KAOH AOH20160112141016901/12/16 14:10:31  5-MIN KAOH 121910Z AUTO 29024G32KT 1 1/4SM UP BKN025 OVC033 M10/M14 A2985 1040 70 -1700 300/24G32 RMK AO2 PK WND 29032/1908 SNB1854E04 P0000 T11001144
04850KAOH AOH20160112141518601/12/16 14:15:31  5-MIN KAOH 121915Z AUTO 29021G32KT 1 1/2SM UP FEW022 BKN028 BKN033 M09/M14 A2985 1040 70 -1700 290/21G32 RMK AO2 PK WND 29032/1908 VIS 1/2V5 SNB1854E04 P0000 T10941139
04850KAOH AOH20160112142017201/12/16 14:20:31  5-MIN KAOH 121920Z AUTO 29022G27KT 2SM UP FEW020 BKN028 BKN033 M09/M14 A2986 1040 67 -1700 290/22G27 RMK AO2 PK WND 29032/1908 SNB1854E04 P0000 T10941144
04850KAOH AOH20160112142516901/12/16 14:25:31  5-MIN KAOH 121925Z AUTO 28023G29KT 1 1/4SM UP BKN025 BKN031 M09/M14 A2986 1030 70 -1700 290/23G29 RMK AO2 PK WND 29032/1908 SNB1854E04 P0000 T10941139
04850KAOH AOH20160112143016901/12/16 14:30:31  5-MIN KAOH 121930Z AUTO 29018G29KT 1 1/2SM UP SCT025 BKN031 M09/M14 A2986 1030 70 -1700 290/18G29 RMK AO2 PK WND 29032/1908 SNB1854E04 P0000 T10941139
04850KAOH AOH20160112143517701/12/16 14:35:31  5-MIN KAOH 121935Z AUTO 28022G27KT 1 3/4SM UP SCT020 BKN031 M10/M14 A2987 1030 70 -1700 290/22G27 RMK AO2 PK WND 29032/1908 VIS 1V4 SNB1854E04 P0000 T11001144
04850KAOH AOH20160112144017701/12/16 14:40:31  5-MIN KAOH 121940Z AUTO 28021G28KT 1 1/2SM UP SCT022 BKN029 M10/M14 A2987 1020 70 -1800 290/21G28 RMK AO2 PK WND 29032/1908 VIS 1V3 SNB1854E04 P0000 T11001144
04850KAOH AOH20160112144516501/12/16 14:45:31  5-MIN KAOH 121945Z AUTO 28022G30KT 2SM UP SCT025 BKN031 M10/M14 A2988 1020 70 -1800 290/22G30 RMK AO2 PK WND 29032/1908 SNB1854E04 P0000 T11001144
04850KAOH AOH20160112145016901/12/16 14:50:31  5-MIN KAOH 121950Z AUTO 28018G30KT 1 3/4SM UP BKN023 BKN031 M10/M14 A2988 1020 70 -1800 290/18G30 RMK AO2 PK WND 29032/1908 VIS 3/4V4 SNB1854E04 P0000
04850KAOH AOH20160112145515501/12/16 14:55:31  5-MIN KAOH 121955Z AUTO 29021G27KT 1 1/2SM -SN BKN021 BKN031 M10/M14 A2988 1010 73 -1800 290/21G27 RMK AO2 VIS 3/4V2 1/2 P0000 T11001139
04850KAOH AOH20160112150015301/12/16 15:00:31  5-MIN KAOH 122000Z AUTO 27021KT 1 3/4SM -SN BKN021 BKN027 M09/M14 A2989 1000 70 -1700 280/21 RMK AO2 PK WND 26026/2000 P0000 T10941139
04850KAOH AOH20160112150515901/12/16 15:05:31  5-MIN KAOH 122005Z AUTO 26021G32KT 1 1/4SM -SN BKN023 OVC027 M09/M13 A2990 1000 77 -1700 270/21G32 RMK AO2 PK WND 28032/2002 P0000 T10941128
04850KAOH AOH20160112151015601/12/16 15:10:31  5-MIN KAOH 122010Z AUTO 27022G32KT 3/4SM -SN OVC023 M09/M13 A2990 990 77 -1700 270/22G32 RMK AO2 PK WND 28032/2002 PRESRR P0000 T10941128
04850KAOH AOH20160112151517601/12/16 15:15:31  5-MIN KAOH 122015Z AUTO 27022G30KT 1SM BLSN BKN021 OVC027 M10/M13 A2991 990 80 -1800 270/22G30 RMK AO2 PK WND 28032/2002 UPB11E14SNE11 PRESRR P0000 T11001128
04850KAOH AOH20160112152017501/12/16 15:20:31  5-MIN KAOH 122020Z AUTO 27020G28KT 1 1/4SM -SN BKN023 OVC027 M10/M13 A2991 990 77 -1800 280/20G28 RMK AO2 PK WND 28032/2002 UPB11E14SNE11B16 P0000 T11001133
04850KAOH AOH20160112152517501/12/16 15:25:31  5-MIN KAOH 122025Z AUTO 27023G31KT 1 1/4SM -SN BKN023 OVC033 M10/M13 A2991 990 77 -1800 270/23G31 RMK AO2 PK WND 28032/2002 UPB11E14SNE11B16 P0000 T11001133
04850KAOH AOH20160112153017101/12/16 15:30:31  5-MIN KAOH 122030Z AUTO 27018G31KT 1SM -SN BKN023 OVC028 M10/M13 A2992 980 77 -1800 280/18G31 RMK AO2 PK WND 28032/2002 UPB11E14SNE11B16 P0000 T11001133
04850KAOH AOH20160112153517301/12/16 15:35:31  5-MIN KAOH 122035Z AUTO 27024G30KT 3/4SM -SN BKN024 OVC032 M10/M13 A2992 980 80 -1800 270/24G30 RMK AO2 PK WND 28032/2002 UPB11E14SNE11B16 P0000 T11001128
04850KAOH AOH20160112154017301/12/16 15:40:31  5-MIN KAOH 122040Z AUTO 28025G31KT 3/4SM -SN BKN024 OVC032 M10/M13 A2993 970 77 -1800 280/25G31 RMK AO2 PK WND 28032/2002 UPB11E14SNE11B16 P0000 T11001133
04850KAOH AOH20160112154518001/12/16 15:45:31  5-MIN KAOH 122045Z AUTO 27022G31KT 3/4SM -SN BKN024 OVC032 M11/M14 A2993 960 77 -1900 270/22G31 RMK AO2 PK WND 28032/2002 UPB11E14SNE11B16 PRESRR P0000 T11061139
04850KAOH AOH20160112155019601/12/16 15:50:31  5-MIN KAOH 122050Z AUTO 27023G31KT 3/4SM BLSN BKN024 OVC030 M11/M14 A2994 960 77 -1900 280/23G31 RMK AO2 PK WND 28032/2002 UPB11E14SNE11B16E47 SLP152 P0000 60000 T11061139 51025
04850KAOH AOH20160112155514901/12/16 15:55:31  5-MIN KAOH 122055Z AUTO 28023G31KT 1SM BLSN BKN025 OVC031 M11/M14 A2994 960 73 -1900 280/23G31 RMK AO2 PK WND 28029/2055 T11061144
04850KAOH AOH20160112160015301/12/16 16:00:31  5-MIN KAOH 122100Z AUTO 27020G29KT 1 3/4SM BLSN SCT023 OVC028 M10/M14 A2994 960 73 -1800 270/20G29 RMK AO2 PK WND 28029/2055 T11001139
04850KAOH AOH20160112160514601/12/16 16:05:31  5-MIN KAOH 122105Z AUTO 28024G30KT 1 3/4SM BLSN BKN026 M11/M14 A2995 950 77 -1900 290/24G30 RMK AO2 PK WND 28030/2104 T11061139
04850KAOH AOH20160112161015401/12/16 16:10:31  5-MIN KAOH 122110Z AUTO 27021G30KT 2SM BLSN BKN028 M11/M14 A2995 950 73 -1900 270/21G30 RMK AO2 PK WND 28030/2104 VIS 1 1/4V4 T11061144
04850KAOH AOH20160112161515601/12/16 16:15:31  5-MIN KAOH 122115Z AUTO 27023G29KT 1 1/4SM BLSN BKN025 M11/M14 A2995 950 77 -1900 270/23G29 RMK AO2 PK WND 28030/2104 VIS 1/2V4 T11061139
04850KAOH AOH20160112162015901/12/16 16:20:31  5-MIN KAOH 122120Z AUTO 27019G29KT 1SM BLSN BKN025 OVC029 M11/M14 A2996 940 73 -1900 280/19G29 RMK AO2 PK WND 28030/2104 VIS 1/2V4 T11061144
04850KAOH AOH20160112162515901/12/16 16:25:31  5-MIN KAOH 122125Z AUTO 27022G29KT 2SM BLSN BKN026 OVC030 M11/M14 A2996 940 73 -1900 270/22G29 RMK AO2 PK WND 28030/2104 VIS 3/4V5 T11061144
04850KAOH AOH20160112163014601/12/16 16:30:31  5-MIN KAOH 122130Z AUTO 27022G28KT 1 1/2SM BLSN BKN026 M11/M14 A2997 930 77 -2000 270/22G28 RMK AO2 PK WND 28030/2104 T11111144
04850KAOH AOH20160112163514001/12/16 16:35:31  5-MIN KAOH 122135Z AUTO 27022KT 1 1/2SM BLSN BKN024 M11/M14 A2997 930 77 -2000 280/22 RMK AO2 PK WND 28030/2104 T11111144
04850KAOH AOH20160112164015801/12/16 16:40:31  5-MIN KAOH 122140Z AUTO 27019G26KT 2 1/2SM BLSN BKN024 M11/M15 A2997 930 73 -2000 280/19G26 RMK AO2 PK WND 28030/2104 VIS 1 3/4V5 T11111150
04850KAOH AOH20160112164514201/12/16 16:45:31  5-MIN KAOH 122145Z AUTO 26022G27KT 3SM BLSN SCT024 M11/M15 A2997 930 73 -2000 270/22G27 RMK AO2 PK WND 28030/2104 T11111150
04850KAOH AOH20160112165013601/12/16 16:50:31  5-MIN KAOH 122150Z AUTO 27022G28KT 2 1/2SM BLSN FEW024 M12/M15 A2998 930 76 -2100 280/22G28 RMK AO2 PK WND 28030/2104
04850KAOH AOH20160112165512801/12/16 16:55:31  5-MIN KAOH 122155Z AUTO 27021G28KT 1 3/4SM BLSN FEW024 M12/M15 A2998 920 76 -2100 270/21G28 RMK AO2 T11171150
04850KAOH AOH20160112170011801/12/16 17:00:31  5-MIN KAOH 122200Z AUTO 27020KT 2SM BLSN FEW022 M12/M15 A2998 920 76 -2100 270/20 RMK AO2 T11171150
04850KAOH AOH20160112170515801/12/16 17:05:31  5-MIN KAOH 122205Z AUTO 27018G27KT 2 1/2SM BLSN FEW022 M12/M16 A2999 920 73 -2100 270/18G27 RMK AO2 PK WND 26027/2201 VIS 1 1/2V4 T11171156
04850KAOH AOH20160112171014001/12/16 17:10:31  5-MIN KAOH 122210Z AUTO 26018G27KT 3SM HZ FEW021 M12/M16 A2999 910 73 -2100 270/18G27 RMK AO2 PK WND 26027/2201 T11171156
04850KAOH AOH20160112171513401/12/16 17:15:31  5-MIN KAOH 122215Z AUTO 27020KT 4SM HZ FEW021 M12/M16 A2999 910 73 -2100 270/20 RMK AO2 PK WND 26027/2201 T11171156
04850KAOH AOH20160112172013401/12/16 17:20:31  5-MIN KAOH 122220Z AUTO 26016KT 5SM HZ FEW021 M12/M16 A3000 910 76 -2200 270/16 RMK AO2 PK WND 26027/2201 T11221156
04850KAOH AOH20160112172512801/12/16 17:25:31  5-MIN KAOH 122225Z AUTO 26017KT 7SM CLR M12/M16 A3000 900 76 -2200 270/17 RMK AO2 PK WND 26027/2201 T11221156
04850KAOH AOH20160112173012801/12/16 17:30:31  5-MIN KAOH 122230Z AUTO 26017KT 8SM CLR M12/M16 A3001 900 76 -2200 260/17 RMK AO2 PK WND 26027/2201 T11221156
04850KAOH AOH20160112173512801/12/16 17:35:31  5-MIN KAOH 122235Z AUTO 26016KT 8SM CLR M12/M16 A3001 890 76 -2200 260/16 RMK AO2 PK WND 26027/2201 T11221156
04850KAOH AOH20160112174013101/12/16 17:40:31  5-MIN KAOH 122240Z AUTO 26019KT 6SM HZ CLR M12/M16 A3002 890 73 -2200 270/19 RMK AO2 PK WND 26027/2201 T11221161
04850KAOH AOH20160112174513101/12/16 17:45:31  5-MIN KAOH 122245Z AUTO 26017KT 6SM HZ CLR M12/M16 A3002 880 73 -2200 260/17 RMK AO2 PK WND 26027/2201 T11221161
04850KAOH AOH20160112175014801/12/16 17:50:31  5-MIN KAOH 122250Z AUTO 26019G24KT 7SM CLR M12/M16 A3003 880 73 -2200 270/19G24 RMK AO2 PK WND 26027/2201 PRESRR SLP184 T11221161
04850KAOH AOH20160112175512301/12/16 17:55:31  5-MIN KAOH 122255Z AUTO 26016G24KT 7SM CLR M13/M16 A3003 870 76 -2300 260/16G24 RMK AO2 PRESRR T11281161
04850KAOH AOH20160112180011001/12/16 18:00:31  5-MIN KAOH 122300Z AUTO 26016KT 9SM CLR M13/M16 A3004 870 76 -2300 270/16 RMK AO2 T11281161
04850KAOH AOH20160112180511001/12/16 18:05:31  5-MIN KAOH 122305Z AUTO 25018KT 9SM CLR M13/M16 A3004 870 76 -2300 260/18 RMK AO2 T11281161
04850KAOH AOH20160112181011001/12/16 18:10:31  5-MIN KAOH 122310Z AUTO 26018KT 9SM CLR M13/M16 A3004 860 76 -2300 260/18 RMK AO2 T11281161
04850KAOH AOH20160112181511601/12/16 18:15:31  5-MIN KAOH 122315Z AUTO 26017G23KT 9SM CLR M13/M16 A3005 860 76 -2300 260/17G23 RMK AO2 T11281161
04850KAOH AOH20160112182011001/12/16 18:20:31  5-MIN KAOH 122320Z AUTO 25017KT 8SM CLR M13/M17 A3005 860 73 -2300 260/17 RMK AO2 T11281167
04850KAOH AOH20160112182511001/12/16 18:25:31  5-MIN KAOH 122325Z AUTO 25017KT 9SM CLR M13/M17 A3005 850 73 -2300 260/17 RMK AO2 T11281167
04850KAOH AOH20160112183011001/12/16 18:30:31  5-MIN KAOH 122330Z AUTO 25018KT 9SM CLR M13/M17 A3006 850 73 -2300 260/18 RMK AO2 T11281167
04850KAOH AOH20160112183511001/12/16 18:35:31  5-MIN KAOH 122335Z AUTO 25018KT 8SM CLR M13/M17 A3006 850 73 -2300 260/18 RMK AO2 T11281167
04850KAOH AOH20160112184011301/12/16 18:40:31  5-MIN KAOH 122340Z AUTO 25018KT 9SM FEW020 M13/M17 A3006 850 73 -2300 260/18 RMK AO2 T11281167
04850KAOH AOH20160112184511301/12/16 18:45:31  5-MIN KAOH 122345Z AUTO 25019KT 8SM SCT020 M13/M17 A3006 840 73 -2300 260/19 RMK AO2 T11281167
04850KAOH AOH20160112185010301/12/16 18:50:31  5-MIN KAOH 122350Z AUTO 25016KT 8SM BKN020 M13/M17 A3007 840 73 -2300 260/16 RMK AO2
04850KAOH AOH20160112185511301/12/16 18:55:31  5-MIN KAOH 122355Z AUTO 25018KT 9SM BKN020 M13/M17 A3007 840 73 -2300 260/18 RMK AO2 T11281167
04850KAOH AOH20160112190011401/12/16 19:00:31  5-MIN KAOH 130000Z AUTO 25016KT 10SM BKN019 M13/M17 A3007 840 76 -2400 260/16 RMK AO2 T11331167
04850KAOH AOH20160112190511301/12/16 19:05:31  5-MIN KAOH 130005Z AUTO 25019KT 8SM BKN019 M13/M16 A3007 840 80 -2400 250/19 RMK AO2 T11331161
04850KAOH AOH20160112191011301/12/16 19:10:31  5-MIN KAOH 130010Z AUTO 25018KT 7SM BKN017 M13/M16 A3007 830 80 -2400 250/18 RMK AO2 T11331161
04850KAOH AOH20160112191512001/12/16 19:15:31  5-MIN KAOH 130015Z AUTO 25017KT 8SM FEW010 OVC015 M13/M16 A3007 830 80 -2400 250/17 RMK AO2 T11331161
04850KAOH AOH20160112192012701/12/16 19:20:31  5-MIN KAOH 130020Z AUTO 25017KT 8SM FEW010 BKN015 BKN020 M13/M16 A3008 830 80 -2400 250/17 RMK AO2 T11331161
04850KAOH AOH20160112192512001/12/16 19:25:31  5-MIN KAOH 130025Z AUTO 25015KT 9SM BKN012 BKN020 M13/M16 A3008 830 80 -2400 260/15 RMK AO2 T11331161
04850KAOH AOH20160112193012001/12/16 19:30:31  5-MIN KAOH 130030Z AUTO 25016KT 9SM SCT010 BKN014 M13/M16 A3008 830 80 -2400 250/16 RMK AO2 T11331161
04850KAOH AOH20160112193511401/12/16 19:35:31  5-MIN KAOH 130035Z AUTO 24016KT 10SM BKN012 M13/M16 A3008 830 80 -2400 250/16 RMK AO2 T11331161
04850KAOH AOH20160112194011401/12/16 19:40:31  5-MIN KAOH 130040Z AUTO 25013KT 10SM BKN012 M13/M16 A3008 830 80 -2400 250/13 RMK AO2 T11331161
04850KAOH AOH20160112194511401/12/16 19:45:31  5-MIN KAOH 130045Z AUTO 25015KT 10SM SCT012 M13/M16 A3009 820 80 -2400 260/15 RMK AO2 T11331161
04850KAOH AOH20160112195010401/12/16 19:50:31  5-MIN KAOH 130050Z AUTO 25014KT 10SM SCT012 M13/M16 A3009 820 80 -2400 260/14 RMK AO2
04850KAOH AOH20160112195511401/12/16 19:55:31  5-MIN KAOH 130055Z AUTO 25014KT 10SM FEW013 M13/M16 A3009 820 80 -2500 260/14 RMK AO2 T11331161
04850KAOH AOH20160112200012101/12/16 20:00:31  5-MIN KAOH 130100Z AUTO 25013KT 10SM FEW013 FEW034 M13/M16 A3009 820 80 -2500 260/13 RMK AO2 T11331161
04850KAOH AOH20160112200512101/12/16 20:05:31  5-MIN KAOH 130105Z AUTO 25015KT 10SM FEW019 FEW034 M13/M16 A3009 820 80 -2500 260/15 RMK AO2 T11331161
04850KAOH AOH20160112201011401/12/16 20:10:31  5-MIN KAOH 130110Z AUTO 25014KT 10SM SCT034 M13/M16 A3010 820 76 -2400 260/14 RMK AO2 T11281161
04850KAOH AOH20160112201511401/12/16 20:15:31  5-MIN KAOH 130115Z AUTO 25016KT 10SM BKN034 M13/M16 A3010 820 80 -2400 260/16 RMK AO2 T11281156
04850KAOH AOH20160112202011401/12/16 20:20:31  5-MIN KAOH 130120Z AUTO 25015KT 10SM BKN034 M12/M16 A3010 810 76 -2300 260/15 RMK AO2 T11221156
04850KAOH AOH20160112202511401/12/16 20:25:31  5-MIN KAOH 130125Z AUTO 26015KT 10SM BKN034 M12/M16 A3010 810 76 -2300 260/15 RMK AO2 T11221156
04850KAOH AOH20160112203011401/12/16 20:30:31  5-MIN KAOH 130130Z AUTO 25015KT 10SM OVC034 M12/M16 A3010 810 76 -2300 260/15 RMK AO2 T11221156
04850KAOH AOH20160112203511401/12/16 20:35:31  5-MIN KAOH 130135Z AUTO 25016KT 10SM OVC034 M12/M16 A3010 810 76 -2300 260/16 RMK AO2 T11221156
04850KAOH AOH20160112204011401/12/16 20:40:31  5-MIN KAOH 130140Z AUTO 26016KT 10SM OVC034 M12/M16 A3011 810 76 -2300 260/16 RMK AO2 T11221156
04850KAOH AOH20160112204511401/12/16 20:45:31  5-MIN KAOH 130145Z AUTO 25015KT 10SM OVC034 M13/M16 A3011 810 80 -2400 260/15 RMK AO2 T11281156
04850KAOH AOH20160112205012101/12/16 20:50:31  5-MIN KAOH 130150Z AUTO 25014KT 10SM OVC034 M13/M16 A3011 810 80 -2400 260/14 RMK AO2 SLP213 T11281156
04850KAOH AOH20160112205511401/12/16 20:55:31  5-MIN KAOH 130155Z AUTO 25015KT 10SM BKN034 M13/M16 A3010 810 76 -2400 260/15 RMK AO2 T11281161
04850KAOH AOH20160112210011401/12/16 21:00:31  5-MIN KAOH 130200Z AUTO 25014KT 10SM BKN034 M13/M16 A3010 810 76 -2400 260/14 RMK AO2 T11281161
04850KAOH AOH20160112210511401/12/16 21:05:31  5-MIN KAOH 130205Z AUTO 25016KT 10SM BKN034 M13/M16 A3010 810 80 -2500 260/16 RMK AO2 T11331161
04850KAOH AOH20160112211011401/12/16 21:10:31  5-MIN KAOH 130210Z AUTO 25015KT 10SM BKN034 M13/M16 A3010 810 80 -2500 260/15 RMK AO2 T11331161
04850KAOH AOH20160112211511401/12/16 21:15:31  5-MIN KAOH 130215Z AUTO 25015KT 10SM BKN034 M13/M16 A3010 810 80 -2500 260/15 RMK AO2 T11331161
04850KAOH AOH20160112212011401/12/16 21:20:31  5-MIN KAOH 130220Z AUTO 26014KT 10SM SCT033 M13/M16 A3011 810 80 -2500 260/14 RMK AO2 T11331161
04850KAOH AOH20160112212511401/12/16 21:25:31  5-MIN KAOH 130225Z AUTO 25013KT 10SM SCT033 M13/M17 A3010 810 76 -2500 260/13 RMK AO2 T11331167
04850KAOH AOH20160112213011401/12/16 21:30:31  5-MIN KAOH 130230Z AUTO 25013KT 10SM FEW033 M13/M16 A3010 810 80 -2500 260/13 RMK AO2 T11331161
04850KAOH AOH20160112213511401/12/16 21:35:31  5-MIN KAOH 130235Z AUTO 25012KT 10SM FEW033 M14/M17 A3010 810 80 -2500 250/12 RMK AO2 T11391167
04850KAOH AOH20160112214011401/12/16 21:40:31  5-MIN KAOH 130240Z AUTO 25011KT 10SM FEW033 M14/M17 A3011 810 80 -2500 250/11 RMK AO2 T11391167
04850KAOH AOH20160112214511401/12/16 21:45:31  5-MIN KAOH 130245Z AUTO 25014KT 10SM FEW033 M14/M17 A3011 810 80 -2500 250/14 RMK AO2 T11391167
04850KAOH AOH20160112215012401/12/16 21:50:31  5-MIN KAOH 130250Z AUTO 25013KT 10SM CLR M14/M17 A3011 800 80 -2500 260/13 RMK AO2 SLP215 T11391167 51042
04850KAOH AOH20160112215511101/12/16 21:55:31  5-MIN KAOH 130255Z AUTO 25014KT 10SM CLR M14/M17 A3011 800 80 -2500 250/14 RMK AO2 T11391167
04850KAOH AOH20160112220011101/12/16 22:00:31  5-MIN KAOH 130300Z AUTO 25011KT 10SM CLR M14/M17 A3011 800 80 -2500 260/11 RMK AO2 T11391167
04850KAOH AOH20160112220511101/12/16 22:05:31  5-MIN KAOH 130305Z AUTO 25012KT 10SM CLR M14/M17 A3011 800 80 -2500 250/12 RMK AO2 T11391167
04850KAOH AOH20160112221011101/12/16 22:10:31  5-MIN KAOH 130310Z AUTO 25012KT 10SM CLR M14/M17 A3011 800 80 -2500 250/12 RMK AO2 T11391167
04850KAOH AOH20160112221511101/12/16 22:15:31  5-MIN KAOH 130315Z AUTO 25013KT 10SM CLR M14/M17 A3012 800 83 -2600 250/13 RMK AO2 T11441167
04850KAOH AOH20160112222011101/12/16 22:20:31  5-MIN KAOH 130320Z AUTO 24013KT 10SM CLR M14/M17 A3011 800 80 -2600 250/13 RMK AO2 T11391167
04850KAOH AOH20160112222511101/12/16 22:25:31  5-MIN KAOH 130325Z AUTO 25012KT 10SM CLR M14/M17 A3012 800 83 -2600 260/12 RMK AO2 T11441167
04850KAOH AOH20160112223011101/12/16 22:30:31  5-MIN KAOH 130330Z AUTO 25014KT 10SM CLR M14/M17 A3012 800 83 -2600 260/14 RMK AO2 T11441167
04850KAOH AOH20160112223511101/12/16 22:35:31  5-MIN KAOH 130335Z AUTO 25014KT 10SM CLR M14/M17 A3012 800 83 -2600 260/14 RMK AO2 T11441167
04850KAOH AOH20160112224011101/12/16 22:40:31  5-MIN KAOH 130340Z AUTO 25013KT 10SM CLR M14/M17 A3012 800 83 -2600 250/13 RMK AO2 T11441167
04850KAOH AOH20160112224511101/12/16 22:45:31  5-MIN KAOH 130345Z AUTO 25014KT 10SM CLR M14/M17 A3011 800 83 -2600 260/14 RMK AO2 T11441167
04850KAOH AOH20160112225011801/12/16 22:50:31  5-MIN KAOH 130350Z AUTO 25015KT 10SM CLR M14/M17 A3011 800 83 -2600 260/15 RMK AO2 SLP216 T11441167
04850KAOH AOH20160112225511101/12/16 22:55:31  5-MIN KAOH 130355Z AUTO 25014KT 10SM CLR M14/M17 A3012 800 83 -2600 250/14 RMK AO2 T11441167
04850KAOH AOH20160112230011101/12/16 23:00:31  5-MIN KAOH 130400Z AUTO 25013KT 10SM CLR M14/M17 A3012 800 80 -2600 250/13 RMK AO2 T11441172
04850KAOH AOH20160112230511101/12/16 23:05:31  5-MIN KAOH 130405Z AUTO 25012KT 10SM CLR M14/M17 A3012 800 80 -2600 250/12 RMK AO2 T11441172
04850KAOH AOH20160112231011101/12/16 23:10:31  5-MIN KAOH 130410Z AUTO 25012KT 10SM CLR M14/M17 A3012 800 80 -2600 250/12 RMK AO2 T11441172
04850KAOH AOH20160112231511101/12/16 23:15:31  5-MIN KAOH 130415Z AUTO 25011KT 10SM CLR M14/M17 A3012 800 80 -2600 250/11 RMK AO2 T11441172
04850KAOH AOH20160112232011101/12/16 23:20:31  5-MIN KAOH 130420Z AUTO 25013KT 10SM CLR M14/M17 A3012 800 80 -2600 250/13 RMK AO2 T11441172
04850KAOH AOH20160112232511101/12/16 23:25:31  5-MIN KAOH 130425Z AUTO 25013KT 10SM CLR M14/M17 A3012 790 80 -2600 250/13 RMK AO2 T11441172
04850KAOH AOH20160112233011001/12/16 23:30:31  5-MIN KAOH 130430Z AUTO 25012KT 9SM CLR M14/M17 A3012 790 80 -2600 250/12 RMK AO2 T11441172
04850KAOH AOH20160112233511001/12/16 23:35:31  5-MIN KAOH 130435Z AUTO 25010KT 9SM CLR M15/M17 A3012 800 83 -2700 250/10 RMK AO2 T11501172
04850KAOH AOH20160112234011001/12/16 23:40:31  5-MIN KAOH 130440Z AUTO 24012KT 9SM CLR M14/M17 A3012 800 80 -2600 250/12 RMK AO2 T11441172
04850KAOH AOH20160112234511101/12/16 23:45:31  5-MIN KAOH 130445Z AUTO 24012KT 10SM CLR M14/M17 A3012 800 80 -2600 240/12 RMK AO2 T11441172
04850KAOH AOH20160112235013101/12/16 23:50:31  5-MIN KAOH 130450Z AUTO 24013KT 10SM FEW010 M14/M17 A3012 800 80 -2600 240/13 RMK AO2 SLP217 T11441172 410111150
04850KAOH AOH20160112235511301/12/16 23:55:31  5-MIN KAOH 130455Z AUTO 24013KT 9SM SCT010 M14/M17 A3012 790 80 -2600 250/13 RMK AO2 T11441172
04850KAOH AOH20160113000011301/13/16 00:00:31  5-MIN KAOH 130500Z AUTO 24012KT 8SM BKN010 M14/M17 A3012 790 80 -2600 250/12 RMK AO2 T11441172
04850KAOH AOH20160113000511301/13/16 00:05:31  5-MIN KAOH 130505Z AUTO 24012KT 8SM BKN010 M15/M17 A3012 790 83 -2700 240/12 RMK AO2 T11501172
04850KAOH AOH20160113001011301/13/16 00:10:31  5-MIN KAOH 130510Z AUTO 24011KT 9SM BKN010 M15/M17 A3012 790 83 -2700 250/11 RMK AO2 T11501172
04850KAOH AOH20160113001511301/13/16 00:15:31  5-MIN KAOH 130515Z AUTO 24013KT 9SM BKN010 M15/M17 A3012 790 83 -2700 250/13 RMK AO2 T11501172
04850KAOH AOH20160113002011301/13/16 00:20:31  5-MIN KAOH 130520Z AUTO 24013KT 9SM BKN010 M15/M17 A3012 790 83 -2700 250/13 RMK AO2 T11501172
04850KAOH AOH20160113002511301/13/16 00:25:31  5-MIN KAOH 130525Z AUTO 24012KT 8SM OVC011 M15/M17 A3012 790 83 -2700 250/12 RMK AO2 T11501172
04850KAOH AOH20160113003011301/13/16 00:30:31  5-MIN KAOH 130530Z AUTO 24012KT 7SM OVC011 M15/M17 A3013 790 83 -2700 250/12 RMK AO2 T11501172
04850KAOH AOH20160113003511301/13/16 00:35:31  5-MIN KAOH 130535Z AUTO 24013KT 7SM OVC011 M15/M17 A3013 790 83 -2700 250/13 RMK AO2 T11501172
04850KAOH AOH20160113004011301/13/16 00:40:31  5-MIN KAOH 130540Z AUTO 24011KT 8SM OVC011 M15/M17 A3013 790 83 -2700 250/11 RMK AO2 T11501172
04850KAOH AOH20160113004511301/13/16 00:45:31  5-MIN KAOH 130545Z AUTO 25014KT 7SM OVC011 M15/M17 A3013 780 83 -2700 250/14 RMK AO2 T11501172
04850KAOH AOH20160113005013801/13/16 00:50:31  5-MIN KAOH 130550Z AUTO 25014KT 7SM OVC010 M15/M17 A3013 780 83 -2700 250/14 RMK AO2 SLP223 T11501172 11122 21150 53006
04850KAOH AOH20160113005511301/13/16 00:55:31  5-MIN KAOH 130555Z AUTO 25013KT 8SM OVC010 M15/M17 A3013 780 83 -2700 260/13 RMK AO2 T11501172
04850KAOH AOH20160113010011301/13/16 01:00:31  5-MIN KAOH 130600Z AUTO 25012KT 9SM OVC009 M15/M17 A3013 780 83 -2700 260/12 RMK AO2 T11501172
04850KAOH AOH20160113010511301/13/16 01:05:31  5-MIN KAOH 130605Z AUTO 25012KT 8SM OVC009 M15/M17 A3013 790 83 -2700 260/12 RMK AO2 T11501172
04850KAOH AOH20160113011011301/13/16 01:10:31  5-MIN KAOH 130610Z AUTO 25011KT 8SM OVC009 M15/M17 A3013 790 83 -2700 260/11 RMK AO2 T11501172
04850KAOH AOH20160113011511301/13/16 01:15:31  5-MIN KAOH 130615Z AUTO 25013KT 9SM BKN009 M15/M17 A3013 780 83 -2700 260/13 RMK AO2 T11501172
04850KAOH AOH20160113012011301/13/16 01:20:31  5-MIN KAOH 130620Z AUTO 24012KT 9SM BKN009 M15/M18 A3013 780 80 -2700 250/12 RMK AO2 T11501178
04850KAOH AOH20160113012511301/13/16 01:25:31  5-MIN KAOH 130625Z AUTO 25013KT 8SM OVC009 M15/M18 A3013 780 80 -2700 260/13 RMK AO2 T11501178
04850KAOH AOH20160113013011301/13/16 01:30:31  5-MIN KAOH 130630Z AUTO 25012KT 8SM OVC009 M15/M17 A3013 790 83 -2700 260/12 RMK AO2 T11501172
04850KAOH AOH20160113013511301/13/16 01:35:31  5-MIN KAOH 130635Z AUTO 26011KT 8SM BKN009 M16/M18 A3012 790 83 -2800 260/11 RMK AO2 T11561178
04850KAOH AOH20160113014011301/13/16 01:40:31  5-MIN KAOH 130640Z AUTO 25011KT 9SM BKN009 M16/M18 A3013 790 83 -2800 260/11 RMK AO2 T11561178
04850KAOH AOH20160113014511401/13/16 01:45:31  5-MIN KAOH 130645Z AUTO 25010KT 10SM SCT009 M16/M18 A3012 790 83 -2800 260/10 RMK AO2 T11561178
04850KAOH AOH20160113015012101/13/16 01:50:31  5-MIN KAOH 130650Z AUTO 26009KT 10SM SCT009 M16/M18 A3012 790 83 -2800 260/09 RMK AO2 SLP222 T11561178
04850KAOH AOH20160113015511401/13/16 01:55:31  5-MIN KAOH 130655Z AUTO 26010KT 10SM FEW009 M16/M18 A3013 790 83 -2800 270/10 RMK AO2 T11561178
04850KAOH AOH20160113020011101/13/16 02:00:31  5-MIN KAOH 130700Z AUTO 26010KT 10SM CLR M16/M18 A3013 780 83 -2800 260/10 RMK AO2 T11561178
04850KAOH AOH20160113020511101/13/16 02:05:31  5-MIN KAOH 130705Z AUTO 25009KT 10SM CLR M16/M18 A3013 780 79 -2800 260/09 RMK AO2 T11561183
04850KAOH AOH20160113021011101/13/16 02:10:31  5-MIN KAOH 130710Z AUTO 25009KT 10SM CLR M16/M18 A3014 780 79 -2800 260/09 RMK AO2 T11561183
04850KAOH AOH20160113021511101/13/16 02:15:31  5-MIN KAOH 130715Z AUTO 24009KT 10SM CLR M16/M18 A3014 770 79 -2800 250/09 RMK AO2 T11561183
04850KAOH AOH20160113022011101/13/16 02:20:31  5-MIN KAOH 130720Z AUTO 24009KT 10SM CLR M16/M18 A3014 770 79 -2800 240/09 RMK AO2 T11561183
04850KAOH AOH20160113022511101/13/16 02:25:31  5-MIN KAOH 130725Z AUTO 24009KT 10SM CLR M16/M18 A3015 770 83 -2800 250/09 RMK AO2 T11561178
04850KAOH AOH20160113023011101/13/16 02:30:31  5-MIN KAOH 130730Z AUTO 24008KT 10SM CLR M16/M18 A3015 770 79 -2800 250/08 RMK AO2 T11561183
04850KAOH AOH20160113023511101/13/16 02:35:31  5-MIN KAOH 130735Z AUTO 25010KT 10SM CLR M16/M18 A3015 760 83 -2900 250/10 RMK AO2 T11611183
04850KAOH AOH20160113024011101/13/16 02:40:31  5-MIN KAOH 130740Z AUTO 25010KT 10SM CLR M16/M18 A3015 760 83 -2900 260/10 RMK AO2 T11611183
04850KAOH AOH20160113024511101/13/16 02:45:31  5-MIN KAOH 130745Z AUTO 25011KT 10SM CLR M16/M18 A3015 760 83 -2900 260/11 RMK AO2 T11611183
04850KAOH AOH20160113025011801/13/16 02:50:31  5-MIN KAOH 130750Z AUTO 25011KT 10SM CLR M16/M18 A3015 760 83 -2900 250/11 RMK AO2 SLP232 T11611183
04850KAOH AOH20160113025511101/13/16 02:55:31  5-MIN KAOH 130755Z AUTO 25010KT 10SM CLR M16/M18 A3016 760 83 -2900 250/10 RMK AO2 T11611183
04850KAOH AOH20160113030011101/13/16 03:00:31  5-MIN KAOH 130800Z AUTO 24010KT 10SM CLR M16/M18 A3016 760 83 -2900 250/10 RMK AO2 T11611183
04850KAOH AOH20160113030511101/13/16 03:05:31  5-MIN KAOH 130805Z AUTO 25010KT 10SM CLR M16/M18 A3016 760 83 -2900 250/10 RMK AO2 T11611183
04850KAOH AOH20160113031011101/13/16 03:10:31  5-MIN KAOH 130810Z AUTO 24011KT 10SM CLR M16/M18 A3015 760 83 -2900 250/11 RMK AO2 T11611183
04850KAOH AOH20160113031511101/13/16 03:15:31  5-MIN KAOH 130815Z AUTO 25011KT 10SM CLR M16/M18 A3015 760 83 -2900 260/11 RMK AO2 T11611183
04850KAOH AOH20160113032011101/13/16 03:20:31  5-MIN KAOH 130820Z AUTO 25011KT 10SM CLR M16/M18 A3015 760 83 -2900 260/11 RMK AO2 T11611183
04850KAOH AOH20160113032511101/13/16 03:25:31  5-MIN KAOH 130825Z AUTO 25010KT 10SM CLR M16/M18 A3015 760 83 -2900 260/10 RMK AO2 T11611183
04850KAOH AOH20160113033011101/13/16 03:30:31  5-MIN KAOH 130830Z AUTO 25010KT 10SM CLR M16/M18 A3015 760 83 -2900 260/10 RMK AO2 T11611183
04850KAOH AOH20160113033511101/13/16 03:35:31  5-MIN KAOH 130835Z AUTO 25011KT 10SM CLR M16/M18 A3016 760 83 -2900 250/11 RMK AO2 T11611183
04850KAOH AOH20160113034011101/13/16 03:40:31  5-MIN KAOH 130840Z AUTO 25010KT 10SM CLR M16/M19 A3015 760 79 -2900 260/10 RMK AO2 T11611189
04850KAOH AOH20160113034511101/13/16 03:45:31  5-MIN KAOH 130845Z AUTO 25009KT 10SM CLR M16/M19 A3015 760 79 -2900 250/09 RMK AO2 T11611189
04850KAOH AOH20160113035012401/13/16 03:50:31  5-MIN KAOH 130850Z AUTO 24009KT 10SM CLR M16/M19 A3015 760 79 -2900 250/09 RMK AO2 SLP233 T11611189 53007
04850KAOH AOH20160113035511101/13/16 03:55:31  5-MIN KAOH 130855Z AUTO 24009KT 10SM CLR M16/M19 A3015 760 79 -2900 240/09 RMK AO2 T11611189
04850KAOH AOH20160113040011101/13/16 04:00:31  5-MIN KAOH 130900Z AUTO 24010KT 10SM CLR M16/M19 A3015 760 79 -2900 240/10 RMK AO2 T11611189
04850KAOH AOH20160113040511101/13/16 04:05:31  5-MIN KAOH 130905Z AUTO 24009KT 10SM CLR M16/M19 A3015 760 79 -2900 250/09 RMK AO2 T11611189
04850KAOH AOH20160113041011101/13/16 04:10:31  5-MIN KAOH 130910Z AUTO 24010KT 10SM CLR M16/M19 A3015 760 79 -2900 250/10 RMK AO2 T11611189
04850KAOH AOH20160113041511101/13/16 04:15:31  5-MIN KAOH 130915Z AUTO 24009KT 10SM CLR M17/M19 A3015 760 83 -3000 250/09 RMK AO2 T11671189
04850KAOH AOH20160113042011101/13/16 04:20:31  5-MIN KAOH 130920Z AUTO 24009KT 10SM CLR M17/M19 A3015 760 83 -3000 250/09 RMK AO2 T11671189
04850KAOH AOH20160113042511101/13/16 04:25:31  5-MIN KAOH 130925Z AUTO 25009KT 10SM CLR M17/M19 A3015 760 83 -3000 250/09 RMK AO2 T11671189
04850KAOH AOH20160113043011101/13/16 04:30:31  5-MIN KAOH 130930Z AUTO 25009KT 10SM CLR M17/M19 A3015 760 83 -3000 250/09 RMK AO2 T11671189
04850KAOH AOH20160113043511101/13/16 04:35:31  5-MIN KAOH 130935Z AUTO 25009KT 10SM CLR M17/M19 A3015 760 83 -3000 250/09 RMK AO2 T11671189
04850KAOH AOH20160113044011101/13/16 04:40:31  5-MIN KAOH 130940Z AUTO 24010KT 10SM CLR M17/M19 A3015 760 83 -3000 250/10 RMK AO2 T11671189
04850KAOH AOH20160113044511101/13/16 04:45:31  5-MIN KAOH 130945Z AUTO 25009KT 10SM CLR M17/M19 A3015 760 83 -3000 250/09 RMK AO2 T11671189
04850KAOH AOH20160113045011801/13/16 04:50:31  5-MIN KAOH 130950Z AUTO 25008KT 10SM CLR M17/M19 A3015 770 83 -3000 250/08 RMK AO2 SLP231 T11671189
04850KAOH AOH20160113045511101/13/16 04:55:31  5-MIN KAOH 130955Z AUTO 24009KT 10SM CLR M17/M19 A3015 770 79 -3000 250/09 RMK AO2 T11671194
04850KAOH AOH20160113050011101/13/16 05:00:31  5-MIN KAOH 131000Z AUTO 24009KT 10SM CLR M17/M19 A3015 770 83 -3000 250/09 RMK AO2 T11671189
04850KAOH AOH20160113050511101/13/16 05:05:31  5-MIN KAOH 131005Z AUTO 24008KT 10SM CLR M17/M19 A3015 770 83 -3000 250/08 RMK AO2 T11671189
04850KAOH AOH20160113051011101/13/16 05:10:31  5-MIN KAOH 131010Z AUTO 24007KT 10SM CLR M17/M19 A3014 770 83 -3000 250/07 RMK AO2 T11671189
04850KAOH AOH20160113051511101/13/16 05:15:31  5-MIN KAOH 131015Z AUTO 25007KT 10SM CLR M17/M19 A3014 770 83 -3000 250/07 RMK AO2 T11671189
04850KAOH AOH20160113052011101/13/16 05:20:31  5-MIN KAOH 131020Z AUTO 24008KT 10SM CLR M17/M19 A3015 770 83 -3000 240/08 RMK AO2 T11671189
04850KAOH AOH20160113052511101/13/16 05:25:31  5-MIN KAOH 131025Z AUTO 24008KT 10SM CLR M17/M19 A3015 770 83 -3000 240/08 RMK AO2 T11671189
04850KAOH AOH20160113053011101/13/16 05:30:31  5-MIN KAOH 131030Z AUTO 24008KT 10SM CLR M17/M19 A3015 770 79 -3000 240/08 RMK AO2 T11671194
04850KAOH AOH20160113053511101/13/16 05:35:31  5-MIN KAOH 131035Z AUTO 24010KT 10SM CLR M17/M19 A3015 770 79 -3000 240/10 RMK AO2 T11671194
04850KAOH AOH20160113054011101/13/16 05:40:31  5-MIN KAOH 131040Z AUTO 23009KT 10SM CLR M17/M19 A3015 770 83 -3000 240/09 RMK AO2 T11671189
04850KAOH AOH20160113054511101/13/16 05:45:31  5-MIN KAOH 131045Z AUTO 23010KT 10SM CLR M17/M19 A3015 770 83 -3000 240/10 RMK AO2 T11671189
04850KAOH AOH20160113055011801/13/16 05:50:31  5-MIN KAOH 131050Z AUTO 23010KT 10SM CLR M17/M19 A3015 760 83 -3000 240/10 RMK AO2 SLP233 T11671189
04850KAOH AOH20160113055511101/13/16 05:55:31  5-MIN KAOH 131055Z AUTO 23009KT 10SM CLR M17/M19 A3015 760 83 -3000 240/09 RMK AO2 T11671189
04850KAOH AOH20160113060011101/13/16 06:00:31  5-MIN KAOH 131100Z AUTO 24009KT 10SM CLR M17/M19 A3015 760 83 -3000 240/09 RMK AO2 T11671189
04850KAOH AOH20160113060511101/13/16 06:05:31  5-MIN KAOH 131105Z AUTO 23009KT 10SM CLR M17/M19 A3015 760 83 -3000 240/09 RMK AO2 T11671189
04850KAOH AOH20160113061011101/13/16 06:10:31  5-MIN KAOH 131110Z AUTO 23008KT 10SM CLR M17/M19 A3015 760 83 -3000 240/08 RMK AO2 T11671189
04850KAOH AOH20160113061511101/13/16 06:15:31  5-MIN KAOH 131115Z AUTO 23008KT 10SM CLR M17/M19 A3015 760 83 -3000 230/08 RMK AO2 T11671189
04850KAOH AOH20160113062011101/13/16 06:20:31  5-MIN KAOH 131120Z AUTO 23008KT 10SM CLR M17/M19 A3015 760 83 -3000 240/08 RMK AO2 T11671189
04850KAOH AOH20160113062511101/13/16 06:25:31  5-MIN KAOH 131125Z AUTO 24009KT 10SM CLR M17/M19 A3016 760 79 -3000 240/09 RMK AO2 T11671194
04850KAOH AOH20160113063011101/13/16 06:30:31  5-MIN KAOH 131130Z AUTO 23010KT 10SM CLR M17/M19 A3015 760 79 -3000 240/10 RMK AO2 T11671194
04850KAOH AOH20160113063511101/13/16 06:35:31  5-MIN KAOH 131135Z AUTO 23010KT 10SM CLR M17/M19 A3016 760 79 -3000 240/10 RMK AO2 T11671194
04850KAOH AOH20160113064011101/13/16 06:40:31  5-MIN KAOH 131140Z AUTO 23010KT 10SM CLR M17/M19 A3016 760 79 -3000 240/10 RMK AO2 T11671194
04850KAOH AOH20160113064511101/13/16 06:45:31  5-MIN KAOH 131145Z AUTO 24009KT 10SM CLR M17/M19 A3015 760 79 -3000 240/09 RMK AO2 T11671194
04850KAOH AOH20160113065013601/13/16 06:50:31  5-MIN KAOH 131150Z AUTO 24009KT 10SM CLR M17/M19 A3016 760 79 -3000 240/09 RMK AO2 SLP235 T11671194 11150 21167 50009
04850KAOH AOH20160113065511101/13/16 06:55:31  5-MIN KAOH 131155Z AUTO 24009KT 10SM CLR M17/M19 A3016 760 79 -3000 240/09 RMK AO2 T11671194
04850KAOH AOH20160113070011101/13/16 07:00:31  5-MIN KAOH 131200Z AUTO 24009KT 10SM CLR M17/M19 A3015 760 83 -3000 250/09 RMK AO2 T11721194
04850KAOH AOH20160113070511101/13/16 07:05:31  5-MIN KAOH 131205Z AUTO 24010KT 10SM CLR M17/M19 A3016 760 83 -3000 240/10 RMK AO2 T11721194
04850KAOH AOH20160113071011101/13/16 07:10:31  5-MIN KAOH 131210Z AUTO 24009KT 10SM CLR M17/M19 A3016 760 83 -3100 250/09 RMK AO2 T11721194
04850KAOH AOH20160113071511101/13/16 07:15:31  5-MIN KAOH 131215Z AUTO 24008KT 10SM CLR M17/M19 A3016 760 83 -3100 250/08 RMK AO2 T11721194
04850KAOH AOH20160113072011101/13/16 07:20:31  5-MIN KAOH 131220Z AUTO 24009KT 10SM CLR M17/M19 A3016 760 83 -3100 250/09 RMK AO2 T11721194
04850KAOH AOH20160113072511101/13/16 07:25:31  5-MIN KAOH 131225Z AUTO 24009KT 10SM CLR M17/M19 A3015 760 83 -3000 240/09 RMK AO2 T11721194
04850KAOH AOH20160113073011101/13/16 07:30:31  5-MIN KAOH 131230Z AUTO 24009KT 10SM CLR M17/M19 A3015 760 83 -3000 240/09 RMK AO2 T11721194
04850KAOH AOH20160113073511101/13/16 07:35:31  5-MIN KAOH 131235Z AUTO 24009KT 10SM CLR M17/M19 A3015 760 83 -3000 240/09 RMK AO2 T11721194
04850KAOH AOH20160113074011101/13/16 07:40:31  5-MIN KAOH 131240Z AUTO 23009KT 10SM CLR M17/M19 A3015 760 83 -3000 240/09 RMK AO2 T11721194
04850KAOH AOH20160113074511101/13/16 07:45:31  5-MIN KAOH 131245Z AUTO 24009KT 10SM CLR M17/M19 A3015 760 83 -3000 240/09 RMK AO2 T11721194
04850KAOH AOH20160113075011801/13/16 07:50:31  5-MIN KAOH 131250Z AUTO 24009KT 10SM CLR M17/M19 A3015 760 83 -3000 240/09 RMK AO2 SLP233 T11721194
04850KAOH AOH20160113075511101/13/16 07:55:31  5-MIN KAOH 131255Z AUTO 24009KT 10SM CLR M17/M19 A3015 760 83 -3000 250/09 RMK AO2 T11721194
04850KAOH AOH20160113080011101/13/16 08:00:31  5-MIN KAOH 131300Z AUTO 24008KT 10SM CLR M17/M19 A3015 760 83 -3000 250/08 RMK AO2 T11721194
04850KAOH AOH20160113080511101/13/16 08:05:31  5-MIN KAOH 131305Z AUTO 24008KT 10SM CLR M17/M19 A3016 760 83 -3100 240/08 RMK AO2 T11721194
04850KAOH AOH20160113081011101/13/16 08:10:31  5-MIN KAOH 131310Z AUTO 23009KT 10SM CLR M17/M19 A3016 760 83 -3100 240/09 RMK AO2 T11721194
04850KAOH AOH20160113081511101/13/16 08:15:31  5-MIN KAOH 131315Z AUTO 24009KT 10SM CLR M17/M19 A3016 760 83 -3000 240/09 RMK AO2 T11721194
04850KAOH AOH20160113082011101/13/16 08:20:31  5-MIN KAOH 131320Z AUTO 24007KT 10SM CLR M17/M19 A3015 760 83 -3000 250/07 RMK AO2 T11721194
04850KAOH AOH20160113082511101/13/16 08:25:31  5-MIN KAOH 131325Z AUTO 25008KT 10SM CLR M17/M19 A3015 760 83 -3000 250/08 RMK AO2 T11721194
04850KAOH AOH20160113083011101/13/16 08:30:31  5-MIN KAOH 131330Z AUTO 24007KT 10SM CLR M17/M19 A3015 760 83 -3000 240/07 RMK AO2 T11721194
04850KAOH AOH20160113083511101/13/16 08:35:31  5-MIN KAOH 131335Z AUTO 23008KT 10SM CLR M17/M19 A3015 760 83 -3000 240/08 RMK AO2 T11721194
04850KAOH AOH20160113084011101/13/16 08:40:31  5-MIN KAOH 131340Z AUTO 24008KT 10SM CLR M17/M19 A3015 760 83 -3000 240/08 RMK AO2 T11721194
04850KAOH AOH20160113084511101/13/16 08:45:31  5-MIN KAOH 131345Z AUTO 23007KT 10SM CLR M17/M19 A3015 760 79 -3000 240/07 RMK AO2 T11671194
04850KAOH AOH20160113085011801/13/16 08:50:31  5-MIN KAOH 131350Z AUTO 23007KT 10SM CLR M17/M19 A3015 760 79 -3000 230/07 RMK AO2 SLP233 T11671194
04850KAOH AOH20160113085511101/13/16 08:55:31  5-MIN KAOH 131355Z AUTO 24008KT 10SM CLR M17/M19 A3015 760 83 -3000 240/08 RMK AO2 T11671189
04850KAOH AOH20160113090011101/13/16 09:00:31  5-MIN KAOH 131400Z AUTO 24009KT 10SM CLR M17/M19 A3015 760 83 -3000 240/09 RMK AO2 T11671189
04850KAOH AOH20160113090511101/13/16 09:05:31  5-MIN KAOH 131405Z AUTO 23009KT 10SM CLR M17/M19 A3015 760 83 -3000 240/09 RMK AO2 T11671189
04850KAOH AOH20160113091011101/13/16 09:10:31  5-MIN KAOH 131410Z AUTO 23007KT 10SM CLR M17/M19 A3015 770 83 -3000 230/07 RMK AO2 T11671189
04850KAOH AOH20160113201512501/13/16 20:15:31  5-MIN KAOH 140115Z AUTO 20012KT 9SM OVC042 M07/M12 A2991 980 68 -1400 210/12 RMK AO2 SNE12 P0000 T10721122
04850KAOH AOH20160113202012601/13/16 20:20:31  5-MIN KAOH 140120Z AUTO 21010KT 10SM OVC042 M07/M12 A2992 980 68 -1400 210/10 RMK AO2 SNE12 P0000 T10721122
04850KAOH AOH20160113202512601/13/16 20:25:31  5-MIN KAOH 140125Z AUTO 21010KT 10SM OVC039 M07/M12 A2991 990 68 -1400 210/10 RMK AO2 SNE12 P0000 T10721122
04850KAOH AOH20160113203013301/13/16 20:30:31  5-MIN KAOH 140130Z AUTO 20011KT 10SM BKN035 OVC043 M07/M12 A2990 990 68 -1400 210/11 RMK AO2 SNE12 P0000 T10721122
04850KAOH AOH20160113203512701/13/16 20:35:31  5-MIN KAOH 140135Z AUTO 21011KT 10SM OVC035 M07/M12 A2990 1000 68 -1400 210/11 RMK AO2 SNE12 P0000 T10721122
04850KAOH AOH20160113204013401/13/16 20:40:31  5-MIN KAOH 140140Z AUTO 21012KT 10SM OVC035 M07/M12 A2989 1000 65 -1300 210/12 RMK AO2 SNE12 PRESFR P0000 T10671122
04850KAOH AOH20160113204512701/13/16 20:45:31  5-MIN KAOH 140145Z AUTO 21011KT 10SM OVC035 M07/M12 A2989 1010 65 -1300 210/11 RMK AO2 SNE12 P0000 T10671122
04850KAOH AOH20160113205014101/13/16 20:50:31  5-MIN KAOH 140150Z AUTO 20012KT 10SM OVC033 M07/M12 A2988 1010 65 -1300 210/12 RMK AO2 SNE12 PRESFR SLP137 P0000 T10671122
04850KAOH AOH20160113205511501/13/16 20:55:31  5-MIN KAOH 140155Z AUTO 20011KT 10SM OVC033 M07/M12 A2988 1020 68 -1300 210/11 RMK AO2 T10671117
04850KAOH AOH20160113210011501/13/16 21:00:31  5-MIN KAOH 140200Z AUTO 21012KT 10SM OVC033 M07/M12 A2988 1010 68 -1300 210/12 RMK AO2 T10671117
04850KAOH AOH20160113210512101/13/16 21:05:31  5-MIN KAOH 140205Z AUTO 20012G20KT 10SM OVC035 M07/M12 A2988 1020 68 -1300 210/12G20 RMK AO2 T10671117
04850KAOH AOH20160113211012101/13/16 21:10:31  5-MIN KAOH 140210Z AUTO 20013G20KT 10SM OVC035 M07/M12 A2987 1020 68 -1300 210/13G20 RMK AO2 T10671117
04850KAOH AOH20160113211511501/13/16 21:15:31  5-MIN KAOH 140215Z AUTO 21013KT 10SM OVC035 M07/M12 A2988 1020 68 -1300 220/13 RMK AO2 T10671117
04850KAOH AOH20160113212011501/13/16 21:20:31  5-MIN KAOH 140220Z AUTO 21012KT 10SM OVC035 M06/M12 A2988 1020 65 -1300 220/12 RMK AO2 T10611117
04850KAOH AOH20160113212512801/13/16 21:25:31  5-MIN KAOH 140225Z AUTO 20013G20KT 10SM BKN035 OVC045 M06/M12 A2988 1020 65 -1300 210/13G20 RMK AO2 T10611117
04850KAOH AOH20160113213012801/13/16 21:30:31  5-MIN KAOH 140230Z AUTO 21012G20KT 10SM BKN035 OVC045 M06/M12 A2988 1020 65 -1300 220/12G20 RMK AO2 T10611117
04850KAOH AOH20160113213512201/13/16 21:35:31  5-MIN KAOH 140235Z AUTO 21011KT 10SM BKN036 OVC045 M06/M11 A2988 1010 68 -1300 220/11 RMK AO2 T10611111
04850KAOH AOH20160113214012801/13/16 21:40:31  5-MIN KAOH 140240Z AUTO 22014G19KT 10SM BKN036 OVC045 M06/M11 A2988 1020 68 -1300 230/14G19 RMK AO2 T10611111
04850KAOH AOH20160113214512801/13/16 21:45:31  5-MIN KAOH 140245Z AUTO 21013G19KT 10SM BKN036 OVC046 M06/M11 A2987 1020 65 -1200 220/13G19 RMK AO2 T10561111
04850KAOH AOH20160113215014701/13/16 21:50:31  5-MIN KAOH 140250Z AUTO 21014G19KT 10SM BKN036 OVC046 M06/M11 A2987 1020 65 -1200 220/14G19 RMK AO2 SLP134 60000 T10561111 56027
04850KAOH AOH20160113215513501/13/16 21:55:31  5-MIN KAOH 140255Z AUTO 22014G21KT 10SM SCT037 BKN046 OVC055 M06/M11 A2987 1020 65 -1200 220/14G21 RMK AO2 T10561111
04850KAOH AOH20160113220013501/13/16 22:00:31  5-MIN KAOH 140300Z AUTO 21012G21KT 10SM SCT037 BKN046 OVC055 M06/M11 A2987 1030 65 -1200 220/12G21 RMK AO2 T10561111
04850KAOH AOH20160113220512201/13/16 22:05:31  5-MIN KAOH 140305Z AUTO 21013KT 10SM SCT037 OVC050 M06/M11 A2986 1030 65 -1200 220/13 RMK AO2 T10561111
04850KAOH AOH20160113221012201/13/16 22:10:31  5-MIN KAOH 140310Z AUTO 21014KT 10SM FEW037 OVC055 M06/M11 A2986 1040 65 -1200 210/14 RMK AO2 T10561111
04850KAOH AOH20160113221512901/13/16 22:15:31  5-MIN KAOH 140315Z AUTO 21013KT 10SM FEW037 BKN055 OVC070 M06/M11 A2986 1040 65 -1200 220/13 RMK AO2 T10561111
04850KAOH AOH20160113222012201/13/16 22:20:31  5-MIN KAOH 140320Z AUTO 22012KT 10SM BKN055 OVC070 M06/M11 A2986 1040 65 -1200 220/12 RMK AO2 T10561111
04850KAOH AOH20160113222512101/13/16 22:25:31  5-MIN KAOH 140325Z AUTO 22014G20KT 10SM OVC060 M06/M11 A2985 1040 65 -1200 220/14G20 RMK AO2 T10561111
04850KAOH AOH20160113223012101/13/16 22:30:31  5-MIN KAOH 140330Z AUTO 21011G20KT 10SM OVC060 M06/M11 A2985 1040 68 -1200 220/11G20 RMK AO2 T10561106
04850KAOH AOH20160113223511501/13/16 22:35:31  5-MIN KAOH 140335Z AUTO 22013KT 10SM OVC060 M06/M11 A2985 1040 68 -1200 220/13 RMK AO2 T10561106
04850KAOH AOH20160113224011501/13/16 22:40:31  5-MIN KAOH 140340Z AUTO 22013KT 10SM OVC060 M06/M11 A2985 1040 68 -1200 220/13 RMK AO2 T10561106
04850KAOH AOH20160113224511501/13/16 22:45:31  5-MIN KAOH 140345Z AUTO 22012KT 10SM OVC060 M05/M11 A2985 1040 65 -1100 220/12 RMK AO2 T10501106
04850KAOH AOH20160113225012201/13/16 22:50:31  5-MIN KAOH 140350Z AUTO 22014KT 10SM OVC060 M05/M11 A2985 1040 65 -1100 220/14 RMK AO2 SLP126 T10501106
04850KAOH AOH20160113225512101/13/16 22:55:31  5-MIN KAOH 140355Z AUTO 23014G20KT 10SM OVC060 M05/M11 A2985 1040 65 -1100 230/14G20 RMK AO2 T10501106
04850KAOH AOH20160113230011501/13/16 23:00:31  5-MIN KAOH 140400Z AUTO 22014KT 10SM OVC060 M05/M10 A2984 1050 68 -1100 220/14 RMK AO2 T10501100
04850KAOH AOH20160113230512101/13/16 23:05:31  5-MIN KAOH 140405Z AUTO 22017G23KT 10SM OVC060 M04/M10 A2984 1050 65 -1000 230/17G23 RMK AO2 T10441100
04850KAOH AOH20160113231011501/13/16 23:10:31  5-MIN KAOH 140410Z AUTO 22015KT 10SM OVC060 M04/M10 A2984 1050 65 -1000 230/15 RMK AO2 T10441100
04850KAOH AOH20160113231511501/13/16 23:15:31  5-MIN KAOH 140415Z AUTO 22015KT 10SM OVC060 M04/M10 A2984 1050 65 -1000 230/15 RMK AO2 T10441100
04850KAOH AOH20160113232011501/13/16 23:20:31  5-MIN KAOH 140420Z AUTO 22014KT 10SM OVC060 M04/M10 A2984 1050 65 -1000 230/14 RMK AO2 T10441100
04850KAOH AOH20160113232511501/13/16 23:25:31  5-MIN KAOH 140425Z AUTO 23016KT 10SM BKN060 M05/M10 A2984 1050 68 -1100 230/16 RMK AO2 T10501100
04850KAOH AOH20160113233011501/13/16 23:30:31  5-MIN KAOH 140430Z AUTO 23015KT 10SM BKN060 M05/M10 A2983 1060 68 -1100 230/15 RMK AO2 T10501100
04850KAOH AOH20160113233511501/13/16 23:35:31  5-MIN KAOH 140435Z AUTO 22016KT 10SM SCT060 M05/M10 A2983 1060 68 -1100 230/16 RMK AO2 T10501100
04850KAOH AOH20160113234011501/13/16 23:40:31  5-MIN KAOH 140440Z AUTO 22014KT 10SM FEW060 M05/M10 A2983 1060 68 -1100 230/14 RMK AO2 T10501100
04850KAOH AOH20160113234512101/13/16 23:45:31  5-MIN KAOH 140445Z AUTO 23014G23KT 10SM FEW060 M04/M10 A2983 1060 65 -1000 230/14G23 RMK AO2 T10441100
04850KAOH AOH20160113235013501/13/16 23:50:31  5-MIN KAOH 140450Z AUTO 23013G23KT 10SM CLR M04/M10 A2983 1060 65 -1000 240/13G23 RMK AO2 SLP120 T10441100 410441172
04850KAOH AOH20160113235511201/13/16 23:55:31  5-MIN KAOH 140455Z AUTO 23013KT 10SM CLR M04/M09 A2984 1050 68 -1000 240/13 RMK AO2 T10441094
04850KAOH AOH20160114000011801/14/16 00:00:31  5-MIN KAOH 140500Z AUTO 23015G20KT 10SM CLR M04/M09 A2984 1060 68 -1000 240/15G20 RMK AO2 T10441094
04850KAOH AOH20160114000511201/14/16 00:05:31  5-MIN KAOH 140505Z AUTO 23015KT 10SM CLR M04/M09 A2983 1060 68 -1000 240/15 RMK AO2 T10441094
04850KAOH AOH20160114001011201/14/16 00:10:31  5-MIN KAOH 140510Z AUTO 23013KT 10SM CLR M04/M09 A2983 1060 68 -1000 240/13 RMK AO2 T10441094
04850KAOH AOH20160114001511201/14/16 00:15:31  5-MIN KAOH 140515Z AUTO 23012KT 10SM CLR M04/M09 A2984 1060 68 -1000 240/12 RMK AO2 T10441094
04850KAOH AOH20160114002011201/14/16 00:20:31  5-MIN KAOH 140520Z AUTO 23015KT 10SM CLR M04/M09 A2983 1060 68 -1000 230/15 RMK AO2 T10441094
04850KAOH AOH20160114002511801/14/16 00:25:31  5-MIN KAOH 140525Z AUTO 23015G21KT 10SM CLR M04/M09 A2983 1060 68 -1000 240/15G21 RMK AO2 T10441094
04850KAOH AOH20160114003011801/14/16 00:30:31  5-MIN KAOH 140530Z AUTO 23013G21KT 10SM CLR M04/M09 A2983 1060 68 -1000 240/13G21 RMK AO2 T10441094
04850KAOH AOH20160114003511201/14/16 00:35:31  5-MIN KAOH 140535Z AUTO 22014KT 10SM CLR M04/M09 A2983 1060 68 -1000 230/14 RMK AO2 T10441094
04850KAOH AOH20160114004011201/14/16 00:40:31  5-MIN KAOH 140540Z AUTO 23013KT 10SM CLR M04/M09 A2983 1060 71 -1000 230/13 RMK AO2 T10441089
04850KAOH AOH20160114004511101/14/16 00:45:31  5-MIN KAOH 140545Z AUTO 22013KT 10SM CLR M04/M09 A2983 1060 68 -900 230/13 RMK AO2 T10391089
04850KAOH AOH20160114005014301/14/16 00:50:31  5-MIN KAOH 140550Z AUTO 23012KT 10SM CLR M04/M09 A2983 1060 71 -1000 230/12 RMK AO2 SLP117 60000 T10441089 11039 21083 58017
04850KAOH AOH20160114005511101/14/16 00:55:31  5-MIN KAOH 140555Z AUTO 23014KT 10SM CLR M04/M09 A2983 1060 68 -900 240/14 RMK AO2 T10391089
04850KAOH AOH20160114010011101/14/16 01:00:31  5-MIN KAOH 140600Z AUTO 24015KT 10SM CLR M04/M09 A2983 1060 68 -900 240/15 RMK AO2 T10391089
04850KAOH AOH20160114010511101/14/16 01:05:31  5-MIN KAOH 140605Z AUTO 24014KT 10SM CLR M04/M09 A2983 1060 68 -900 240/14 RMK AO2 T10391089
04850KAOH AOH20160114011011101/14/16 01:10:31  5-MIN KAOH 140610Z AUTO 23013KT 10SM CLR M04/M09 A2983 1060 68 -900 240/13 RMK AO2 T10391089
04850KAOH AOH20160114011511401/14/16 01:15:31  5-MIN KAOH 140615Z AUTO 23013KT 10SM FEW080 M04/M09 A2983 1060 68 -900 230/13 RMK AO2 T10391089
04850KAOH AOH20160114012011401/14/16 01:20:31  5-MIN KAOH 140620Z AUTO 23013KT 10SM FEW080 M04/M09 A2983 1060 68 -900 230/13 RMK AO2 T10391089
04850KAOH AOH20160114012511401/14/16 01:25:31  5-MIN KAOH 140625Z AUTO 23012KT 10SM FEW080 M04/M09 A2983 1060 68 -900 230/12 RMK AO2 T10391089
04850KAOH AOH20160114013011401/14/16 01:30:31  5-MIN KAOH 140630Z AUTO 22012KT 10SM FEW080 M04/M09 A2983 1060 68 -900 230/12 RMK AO2 T10391089
04850KAOH AOH20160114013511401/14/16 01:35:31  5-MIN KAOH 140635Z AUTO 23012KT 10SM FEW080 M04/M09 A2983 1060 68 -900 230/12 RMK AO2 T10391089
04850KAOH AOH20160114014011401/14/16 01:40:31  5-MIN KAOH 140640Z AUTO 23012KT 10SM FEW080 M04/M09 A2983 1060 68 -900 230/12 RMK AO2 T10391089
04850KAOH AOH20160114014511101/14/16 01:45:31  5-MIN KAOH 140645Z AUTO 23010KT 10SM CLR M04/M08 A2983 1060 71 -900 230/10 RMK AO2 T10391083
04850KAOH AOH20160114015011901/14/16 01:50:31  5-MIN KAOH 140650Z AUTO 22010KT 10SM CLR M04/M08 A2983 1060 74 -1000 230/10 RMK AO2 SLP119 T10441083
04850KAOH AOH20160114015511201/14/16 01:55:31  5-MIN KAOH 140655Z AUTO 22010KT 10SM CLR M04/M09 A2984 1050 71 -1000 230/10 RMK AO2 T10441089
04850KAOH AOH20160114020011201/14/16 02:00:31  5-MIN KAOH 140700Z AUTO 23010KT 10SM CLR M04/M08 A2984 1050 74 -1000 230/10 RMK AO2 T10441083
04850KAOH AOH20160114020511201/14/16 02:05:31  5-MIN KAOH 140705Z AUTO 22009KT 10SM CLR M04/M08 A2984 1050 74 -1000 230/09 RMK AO2 T10441083
04850KAOH AOH20160114021011101/14/16 02:10:31  5-MIN KAOH 140710Z AUTO 23010KT 10SM CLR M04/M08 A2984 1050 71 -900 240/10 RMK AO2 T10391083
04850KAOH AOH20160114021511101/14/16 02:15:31  5-MIN KAOH 140715Z AUTO 23010KT 10SM CLR M04/M08 A2984 1050 71 -900 230/10 RMK AO2 T10391083
04850KAOH AOH20160114022011101/14/16 02:20:31  5-MIN KAOH 140720Z AUTO 23011KT 10SM CLR M04/M08 A2984 1050 71 -900 230/11 RMK AO2 T10391083
04850KAOH AOH20160114022511101/14/16 02:25:31  5-MIN KAOH 140725Z AUTO 23010KT 10SM CLR M04/M08 A2984 1050 71 -900 230/10 RMK AO2 T10391083
04850KAOH AOH20160114023011101/14/16 02:30:31  5-MIN KAOH 140730Z AUTO 23010KT 10SM CLR M04/M08 A2984 1050 71 -900 230/10 RMK AO2 T10391083
04850KAOH AOH20160114023511101/14/16 02:35:31  5-MIN KAOH 140735Z AUTO 23009KT 10SM CLR M04/M08 A2984 1050 71 -900 230/09 RMK AO2 T10391083
04850KAOH AOH20160114024011101/14/16 02:40:31  5-MIN KAOH 140740Z AUTO 22009KT 10SM CLR M04/M08 A2984 1050 71 -900 230/09 RMK AO2 T10391083
04850KAOH AOH20160114024511101/14/16 02:45:31  5-MIN KAOH 140745Z AUTO 23009KT 10SM CLR M04/M08 A2984 1050 71 -900 230/09 RMK AO2 T10391083
04850KAOH AOH20160114025011801/14/16 02:50:31  5-MIN KAOH 140750Z AUTO 22011KT 10SM CLR M04/M08 A2984 1050 71 -900 220/11 RMK AO2 SLP120 T10391083
04850KAOH AOH20160114025511101/14/16 02:55:31  5-MIN KAOH 140755Z AUTO 23010KT 10SM CLR M04/M08 A2984 1050 74 -900 230/10 RMK AO2 T10391078
04850KAOH AOH20160114030011101/14/16 03:00:31  5-MIN KAOH 140800Z AUTO 23011KT 10SM CLR M04/M08 A2984 1050 74 -900 240/11 RMK AO2 T10391078
04850KAOH AOH20160114030511101/14/16 03:05:31  5-MIN KAOH 140805Z AUTO 22010KT 10SM CLR M03/M08 A2984 1050 71 -900 230/10 RMK AO2 T10331078
04850KAOH AOH20160114031011101/14/16 03:10:31  5-MIN KAOH 140810Z AUTO 22011KT 10SM CLR M03/M08 A2984 1050 71 -900 230/11 RMK AO2 T10331078
04850KAOH AOH20160114031511101/14/16 03:15:31  5-MIN KAOH 140815Z AUTO 22008KT 10SM CLR M04/M08 A2984 1050 74 -900 230/08 RMK AO2 T10391078
04850KAOH AOH20160114032011101/14/16 03:20:31  5-MIN KAOH 140820Z AUTO 22009KT 10SM CLR M04/M08 A2984 1050 74 -900 230/09 RMK AO2 T10391078
04850KAOH AOH20160114032511101/14/16 03:25:31  5-MIN KAOH 140825Z AUTO 22009KT 10SM CLR M04/M08 A2984 1050 74 -900 220/09 RMK AO2 T10391078
04850KAOH AOH20160114033011101/14/16 03:30:31  5-MIN KAOH 140830Z AUTO 21008KT 10SM CLR M04/M08 A2984 1050 74 -900 220/08 RMK AO2 T10391078
04850KAOH AOH20160114033511101/14/16 03:35:31  5-MIN KAOH 140835Z AUTO 21007KT 10SM CLR M04/M08 A2984 1050 74 -900 210/07 RMK AO2 T10391078
04850KAOH AOH20160114034011101/14/16 03:40:31  5-MIN KAOH 140840Z AUTO 21008KT 10SM CLR M04/M08 A2984 1050 74 -900 220/08 RMK AO2 T10391078
04850KAOH AOH20160114034511101/14/16 03:45:31  5-MIN KAOH 140845Z AUTO 22010KT 10SM CLR M04/M08 A2984 1050 74 -900 220/10 RMK AO2 T10391078
04850KAOH AOH20160114035012401/14/16 03:50:31  5-MIN KAOH 140850Z AUTO 21009KT 10SM CLR M04/M08 A2984 1050 74 -900 220/09 RMK AO2 SLP119 T10391078 56013
04850KAOH AOH20160114035511101/14/16 03:55:31  5-MIN KAOH 140855Z AUTO 20009KT 10SM CLR M04/M08 A2984 1060 74 -900 210/09 RMK AO2 T10391078
04850KAOH AOH20160114040011101/14/16 04:00:31  5-MIN KAOH 140900Z AUTO 20008KT 10SM CLR M04/M08 A2983 1060 74 -900 210/08 RMK AO2 T10391078
04850KAOH AOH20160114040511201/14/16 04:05:31  5-MIN KAOH 140905Z AUTO 19007KT 10SM CLR M04/M08 A2983 1060 74 -1000 200/07 RMK AO2 T10441083
04850KAOH AOH20160114041011201/14/16 04:10:31  5-MIN KAOH 140910Z AUTO 20008KT 10SM CLR M04/M08 A2983 1060 74 -1000 210/08 RMK AO2 T10441083
04850KAOH AOH20160114041511201/14/16 04:15:31  5-MIN KAOH 140915Z AUTO 20008KT 10SM CLR M04/M08 A2983 1060 74 -1000 210/08 RMK AO2 T10441083
04850KAOH AOH20160114042011201/14/16 04:20:31  5-MIN KAOH 140920Z AUTO 21009KT 10SM CLR M04/M08 A2984 1060 74 -1000 210/09 RMK AO2 T10441083
04850KAOH AOH20160114042511101/14/16 04:25:31  5-MIN KAOH 140925Z AUTO 21009KT 10SM CLR M04/M08 A2984 1050 74 -900 220/09 RMK AO2 T10391078
04850KAOH AOH20160114043011201/14/16 04:30:31  5-MIN KAOH 140930Z AUTO 21008KT 10SM CLR M04/M08 A2984 1050 78 -1000 220/08 RMK AO2 T10441078
04850KAOH AOH20160114043511201/14/16 04:35:31  5-MIN KAOH 140935Z AUTO 21008KT 10SM CLR M04/M08 A2984 1060 78 -1000 220/08 RMK AO2 T10441078
04850KAOH AOH20160114044011101/14/16 04:40:31  5-MIN KAOH 140940Z AUTO 22009KT 10SM CLR M04/M08 A2983 1060 74 -900 220/09 RMK AO2 T10391078
04850KAOH AOH20160114044511101/14/16 04:45:31  5-MIN KAOH 140945Z AUTO 21008KT 10SM CLR M04/M08 A2983 1060 74 -900 220/08 RMK AO2 T10391078
04850KAOH AOH20160114045011801/14/16 04:50:31  5-MIN KAOH 140950Z AUTO 21007KT 10SM CLR M04/M08 A2983 1060 74 -900 220/07 RMK AO2 SLP117 T10391078
04850KAOH AOH20160114045511101/14/16 04:55:31  5-MIN KAOH 140955Z AUTO 21007KT 10SM CLR M04/M08 A2983 1060 74 -900 220/07 RMK AO2 T10391078
04850KAOH AOH20160114050011101/14/16 05:00:31  5-MIN KAOH 141000Z AUTO 21007KT 10SM CLR M04/M08 A2983 1060 74 -900 220/07 RMK AO2 T10391078
04850KAOH AOH20160114050511101/14/16 05:05:31  5-MIN KAOH 141005Z AUTO 22009KT 10SM CLR M04/M08 A2984 1060 74 -900 220/09 RMK AO2 T10391078
04850KAOH AOH20160114051011101/14/16 05:10:31  5-MIN KAOH 141010Z AUTO 22009KT 10SM CLR M04/M07 A2983 1060 78 -900 220/09 RMK AO2 T10391072
04850KAOH AOH20160114051511101/14/16 05:15:31  5-MIN KAOH 141015Z AUTO 22009KT 10SM CLR M04/M07 A2983 1060 78 -900 220/09 RMK AO2 T10391072
04850KAOH AOH20160114052011101/14/16 05:20:31  5-MIN KAOH 141020Z AUTO 22009KT 10SM CLR M03/M07 A2984 1060 74 -800 220/09 RMK AO2 T10331072
04850KAOH AOH20160114052511101/14/16 05:25:31  5-MIN KAOH 141025Z AUTO 21009KT 10SM CLR M03/M07 A2984 1050 74 -900 220/09 RMK AO2 T10331072
04850KAOH AOH20160114053011101/14/16 05:30:31  5-MIN KAOH 141030Z AUTO 21010KT 10SM CLR M03/M07 A2984 1050 74 -900 220/10 RMK AO2 T10331072
04850KAOH AOH20160114053511101/14/16 05:35:31  5-MIN KAOH 141035Z AUTO 21008KT 10SM CLR M03/M07 A2983 1060 71 -800 220/08 RMK AO2 T10281072
04850KAOH AOH20160114054011101/14/16 05:40:31  5-MIN KAOH 141040Z AUTO 21008KT 10SM CLR M03/M07 A2984 1060 75 -800 220/08 RMK AO2 T10281067
04850KAOH AOH20160114054511101/14/16 05:45:31  5-MIN KAOH 141045Z AUTO 21009KT 10SM CLR M03/M07 A2984 1060 75 -800 220/09 RMK AO2 T10281067
04850KAOH AOH20160114055011801/14/16 05:50:31  5-MIN KAOH 141050Z AUTO 21009KT 10SM CLR M03/M07 A2983 1060 75 -800 210/09 RMK AO2 SLP117 T10281067
04850KAOH AOH20160114055511101/14/16 05:55:31  5-MIN KAOH 141055Z AUTO 21009KT 10SM CLR M03/M07 A2983 1060 75 -800 220/09 RMK AO2 T10281067
04850KAOH AOH20160114060011101/14/16 06:00:31  5-MIN KAOH 141100Z AUTO 20009KT 10SM CLR M03/M07 A2983 1060 75 -800 210/09 RMK AO2 T10281067
04850KAOH AOH20160114060511101/14/16 06:05:31  5-MIN KAOH 141105Z AUTO 21009KT 10SM CLR M03/M07 A2983 1060 75 -800 210/09 RMK AO2 T10281067
04850KAOH AOH20160114061011101/14/16 06:10:31  5-MIN KAOH 141110Z AUTO 20009KT 10SM CLR M03/M07 A2983 1060 75 -800 210/09 RMK AO2 T10281067
04850KAOH AOH20160114061511101/14/16 06:15:31  5-MIN KAOH 141115Z AUTO 20010KT 10SM CLR M03/M07 A2983 1060 75 -800 210/10 RMK AO2 T10281067
04850KAOH AOH20160114062011101/14/16 06:20:31  5-MIN KAOH 141120Z AUTO 21012KT 10SM CLR M03/M07 A2983 1060 75 -800 210/12 RMK AO2 T10281067
04850KAOH AOH20160114062511101/14/16 06:25:31  5-MIN KAOH 141125Z AUTO 20011KT 10SM CLR M03/M07 A2983 1060 75 -800 210/11 RMK AO2 T10281067
04850KAOH AOH20160114063011101/14/16 06:30:31  5-MIN KAOH 141130Z AUTO 20010KT 10SM CLR M03/M07 A2983 1060 75 -800 210/10 RMK AO2 T10281067
04850KAOH AOH20160114063511101/14/16 06:35:31  5-MIN KAOH 141135Z AUTO 21009KT 10SM CLR M03/M07 A2983 1060 75 -800 210/09 RMK AO2 T10281067
04850KAOH AOH20160114064011101/14/16 06:40:31  5-MIN KAOH 141140Z AUTO 21009KT 10SM CLR M03/M07 A2984 1060 75 -800 210/09 RMK AO2 T10281067
04850KAOH AOH20160114064511101/14/16 06:45:31  5-MIN KAOH 141145Z AUTO 20010KT 10SM CLR M03/M07 A2983 1060 75 -800 210/10 RMK AO2 T10281067
04850KAOH AOH20160114065013601/14/16 06:50:31  5-MIN KAOH 141150Z AUTO 21010KT 10SM CLR M03/M07 A2983 1060 75 -800 220/10 RMK AO2 SLP117 T10281067 11028 21044 50002
04850KAOH AOH20160114065511101/14/16 06:55:31  5-MIN KAOH 141155Z AUTO 21009KT 10SM CLR M03/M07 A2984 1060 75 -800 220/09 RMK AO2 T10281067
04850KAOH AOH20160114070011101/14/16 07:00:31  5-MIN KAOH 141200Z AUTO 20010KT 10SM CLR M03/M07 A2984 1060 75 -800 210/10 RMK AO2 T10281067
04850KAOH AOH20160114070511101/14/16 07:05:31  5-MIN KAOH 141205Z AUTO 20011KT 10SM CLR M03/M07 A2983 1060 75 -800 200/11 RMK AO2 T10281067
04850KAOH AOH20160114071011101/14/16 07:10:31  5-MIN KAOH 141210Z AUTO 19009KT 10SM CLR M03/M07 A2983 1060 75 -800 200/09 RMK AO2 T10281067
04850KAOH AOH20160114071511101/14/16 07:15:31  5-MIN KAOH 141215Z AUTO 19010KT 10SM CLR M03/M07 A2983 1060 75 -800 200/10 RMK AO2 T10281067
04850KAOH AOH20160114072011101/14/16 07:20:31  5-MIN KAOH 141220Z AUTO 18011KT 10SM CLR M03/M07 A2982 1070 78 -800 190/11 RMK AO2 T10331067
04850KAOH AOH20160114072511101/14/16 07:25:31  5-MIN KAOH 141225Z AUTO 19010KT 10SM CLR M03/M07 A2983 1070 78 -800 190/10 RMK AO2 T10331067
04850KAOH AOH20160114073011101/14/16 07:30:31  5-MIN KAOH 141230Z AUTO 19010KT 10SM CLR M03/M07 A2982 1070 78 -800 190/10 RMK AO2 T10331067
04850KAOH AOH20160114073511101/14/16 07:35:31  5-MIN KAOH 141235Z AUTO 19009KT 10SM CLR M03/M07 A2983 1070 78 -800 190/09 RMK AO2 T10331067
04850KAOH AOH20160114074011401/14/16 07:40:31  5-MIN KAOH 141240Z AUTO 19009KT 10SM FEW120 M03/M07 A2983 1060 78 -800 200/09 RMK AO2 T10331067
04850KAOH AOH20160114074511401/14/16 07:45:31  5-MIN KAOH 141245Z AUTO 19010KT 10SM FEW110 M03/M07 A2983 1060 78 -800 200/10 RMK AO2 T10331067
04850KAOH AOH20160114075012101/14/16 07:50:31  5-MIN KAOH 141250Z AUTO 20010KT 10SM FEW110 M03/M07 A2983 1060 78 -800 200/10 RMK AO2 SLP115 T10331067
04850KAOH AOH20160114075511401/14/16 07:55:31  5-MIN KAOH 141255Z AUTO 19009KT 10SM FEW120 M03/M07 A2982 1070 78 -800 190/09 RMK AO2 T10331067
04850KAOH AOH20160114080011401/14/16 08:00:31  5-MIN KAOH 141300Z AUTO 19009KT 10SM FEW120 M03/M07 A2982 1070 78 -800 200/09 RMK AO2 T10331067
04850KAOH AOH20160114080511401/14/16 08:05:31  5-MIN KAOH 141305Z AUTO 19011KT 10SM FEW110 M03/M07 A2982 1070 78 -800 200/11 RMK AO2 T10331067
04850KAOH AOH20160114081011401/14/16 08:10:31  5-MIN KAOH 141310Z AUTO 20009KT 10SM FEW110 M03/M07 A2982 1070 78 -800 200/09 RMK AO2 T10331067
04850KAOH AOH20160114181510801/14/16 18:15:31  5-MIN KAOH 142315Z AUTO 19011KT 10SM CLR 05/01 A2975 1140 73 200 200/11 RMK AO2 T00500006
04850KAOH AOH20160114182010801/14/16 18:20:31  5-MIN KAOH 142320Z AUTO 19012KT 10SM CLR 05/01 A2975 1130 76 200 200/12 RMK AO2 T00500011
04850KAOH AOH20160114182510801/14/16 18:25:31  5-MIN KAOH 142325Z AUTO 19011KT 10SM CLR 06/01 A2975 1130 73 300 200/11 RMK AO2 T00560011
04850KAOH AOH20160114183010801/14/16 18:30:31  5-MIN KAOH 142330Z AUTO 19011KT 10SM CLR 06/01 A2975 1130 73 300 200/11 RMK AO2 T00560011
04850KAOH AOH20160114183510801/14/16 18:35:31  5-MIN KAOH 142335Z AUTO 19011KT 10SM CLR 05/01 A2975 1130 76 200 200/11 RMK AO2 T00500011
04850KAOH AOH20160114184010801/14/16 18:40:31  5-MIN KAOH 142340Z AUTO 19011KT 10SM CLR 06/01 A2975 1130 73 300 200/11 RMK AO2 T00560011
04850KAOH AOH20160114184510801/14/16 18:45:31  5-MIN KAOH 142345Z AUTO 19011KT 10SM CLR 05/01 A2975 1130 76 200 200/11 RMK AO2 T00500011
04850KAOH AOH20160114185013301/14/16 18:50:31  5-MIN KAOH 142350Z AUTO 19011KT 10SM CLR 06/01 A2975 1130 73 300 200/11 RMK AO2 SLP083 T00560011 10056 20022 56012
04850KAOH AOH20160114185510801/14/16 18:55:31  5-MIN KAOH 142355Z AUTO 19011KT 10SM CLR 06/01 A2975 1130 73 300 200/11 RMK AO2 T00560011
04850KAOH AOH20160114190010801/14/16 19:00:31  5-MIN KAOH 150000Z AUTO 19011KT 10SM CLR 06/01 A2975 1130 73 300 200/11 RMK AO2 T00560011
04850KAOH AOH20160114190510801/14/16 19:05:31  5-MIN KAOH 150005Z AUTO 19011KT 10SM CLR 05/01 A2975 1130 76 200 200/11 RMK AO2 T00500011
04850KAOH AOH20160114191010801/14/16 19:10:31  5-MIN KAOH 150010Z AUTO 19012KT 10SM CLR 06/01 A2975 1130 73 300 190/12 RMK AO2 T00560011
04850KAOH AOH20160114191510801/14/16 19:15:31  5-MIN KAOH 150015Z AUTO 19010KT 10SM CLR 05/01 A2975 1130 76 200 190/10 RMK AO2 T00500011
04850KAOH AOH20160114192010801/14/16 19:20:31  5-MIN KAOH 150020Z AUTO 19009KT 10SM CLR 06/01 A2975 1130 73 300 200/09 RMK AO2 T00560011
04850KAOH AOH20160114192510801/14/16 19:25:31  5-MIN KAOH 150025Z AUTO 19009KT 10SM CLR 05/01 A2975 1130 76 200 200/09 RMK AO2 T00500011
04850KAOH AOH20160114193010801/14/16 19:30:31  5-MIN KAOH 150030Z AUTO 19009KT 10SM CLR 05/01 A2975 1140 76 200 190/09 RMK AO2 T00500011
04850KAOH AOH20160114193510801/14/16 19:35:31  5-MIN KAOH 150035Z AUTO 19010KT 10SM CLR 05/01 A2975 1140 76 200 190/10 RMK AO2 T00500011
04850KAOH AOH20160114194010801/14/16 19:40:31  5-MIN KAOH 150040Z AUTO 18009KT 10SM CLR 05/01 A2975 1140 76 200 190/09 RMK AO2 T00500011
04850KAOH AOH20160114194510801/14/16 19:45:31  5-MIN KAOH 150045Z AUTO 18009KT 10SM CLR 05/01 A2975 1140 76 200 190/09 RMK AO2 T00500011
04850KAOH AOH20160114195011501/14/16 19:50:31  5-MIN KAOH 150050Z AUTO 18009KT 10SM CLR 05/01 A2975 1140 76 200 190/09 RMK AO2 SLP081 T00500011
04850KAOH AOH20160114195510801/14/16 19:55:31  5-MIN KAOH 150055Z AUTO 18008KT 10SM CLR 04/01 A2975 1140 79 200 180/08 RMK AO2 T00440011
04850KAOH AOH20160114200010801/14/16 20:00:31  5-MIN KAOH 150100Z AUTO 18009KT 10SM CLR 04/01 A2974 1140 79 200 180/09 RMK AO2 T00440011
04850KAOH AOH20160114200510801/14/16 20:05:31  5-MIN KAOH 150105Z AUTO 18008KT 10SM CLR 04/01 A2974 1140 79 200 180/08 RMK AO2 T00440011
04850KAOH AOH20160114201010801/14/16 20:10:31  5-MIN KAOH 150110Z AUTO 18008KT 10SM CLR 04/01 A2974 1140 76 200 180/08 RMK AO2 T00440006
04850KAOH AOH20160114201510801/14/16 20:15:31  5-MIN KAOH 150115Z AUTO 18008KT 10SM CLR 04/01 A2974 1150 79 100 180/08 RMK AO2 T00390006
04850KAOH AOH20160114202010801/14/16 20:20:31  5-MIN KAOH 150120Z AUTO 18009KT 10SM CLR 04/01 A2974 1150 79 200 180/09 RMK AO2 T00440011
04850KAOH AOH20160114202510801/14/16 20:25:31  5-MIN KAOH 150125Z AUTO 18008KT 10SM CLR 04/01 A2974 1150 76 200 180/08 RMK AO2 T00440006
04850KAOH AOH20160114203010801/14/16 20:30:31  5-MIN KAOH 150130Z AUTO 18009KT 10SM CLR 04/01 A2974 1150 79 200 180/09 RMK AO2 T00440011
04850KAOH AOH20160114203510801/14/16 20:35:31  5-MIN KAOH 150135Z AUTO 18010KT 10SM CLR 04/01 A2974 1150 79 200 190/10 RMK AO2 T00440011
04850KAOH AOH20160114204010801/14/16 20:40:31  5-MIN KAOH 150140Z AUTO 18009KT 10SM CLR 04/01 A2974 1150 79 200 190/09 RMK AO2 T00440011
04850KAOH AOH20160114204510801/14/16 20:45:31  5-MIN KAOH 150145Z AUTO 18009KT 10SM CLR 04/01 A2974 1150 79 200 190/09 RMK AO2 T00440011
04850KAOH AOH20160114205011501/14/16 20:50:31  5-MIN KAOH 150150Z AUTO 18009KT 10SM CLR 05/01 A2973 1150 76 300 190/09 RMK AO2 SLP077 T00500011
04850KAOH AOH20160114205510801/14/16 20:55:31  5-MIN KAOH 150155Z AUTO 19009KT 10SM CLR 05/01 A2973 1150 76 300 190/09 RMK AO2 T00500011
04850KAOH AOH20160114210010801/14/16 21:00:31  5-MIN KAOH 150200Z AUTO 18010KT 10SM CLR 06/01 A2973 1160 73 300 190/10 RMK AO2 T00560011
04850KAOH AOH20160114210510801/14/16 21:05:31  5-MIN KAOH 150205Z AUTO 18010KT 10SM CLR 06/01 A2973 1160 73 300 190/10 RMK AO2 T00560011
04850KAOH AOH20160114211010801/14/16 21:10:31  5-MIN KAOH 150210Z AUTO 18009KT 10SM CLR 06/01 A2973 1160 73 300 190/09 RMK AO2 T00560011
04850KAOH AOH20160114211510801/14/16 21:15:31  5-MIN KAOH 150215Z AUTO 18009KT 10SM CLR 05/01 A2973 1160 76 300 190/09 RMK AO2 T00500011
04850KAOH AOH20160114212010801/14/16 21:20:31  5-MIN KAOH 150220Z AUTO 18009KT 10SM CLR 05/01 A2972 1160 76 300 190/09 RMK AO2 T00500011
04850KAOH AOH20160114212510801/14/16 21:25:31  5-MIN KAOH 150225Z AUTO 18009KT 10SM CLR 06/01 A2972 1160 73 300 190/09 RMK AO2 T00560011
04850KAOH AOH20160114213010801/14/16 21:30:31  5-MIN KAOH 150230Z AUTO 18009KT 10SM CLR 05/01 A2972 1160 76 300 190/09 RMK AO2 T00500011
04850KAOH AOH20160114213510801/14/16 21:35:31  5-MIN KAOH 150235Z AUTO 18010KT 10SM CLR 05/01 A2972 1160 76 300 190/10 RMK AO2 T00500011
04850KAOH AOH20160114214010801/14/16 21:40:31  5-MIN KAOH 150240Z AUTO 18010KT 10SM CLR 05/01 A2972 1160 76 300 190/10 RMK AO2 T00500011
04850KAOH AOH20160114214510801/14/16 21:45:31  5-MIN KAOH 150245Z AUTO 18012KT 10SM CLR 06/01 A2972 1160 73 300 190/12 RMK AO2 T00560011
04850KAOH AOH20160114215012101/14/16 21:50:31  5-MIN KAOH 150250Z AUTO 18011KT 10SM CLR 06/01 A2972 1170 73 300 190/11 RMK AO2 SLP070 T00560011 55000
04850KAOH AOH20160114215510801/14/16 21:55:31  5-MIN KAOH 150255Z AUTO 19011KT 10SM CLR 06/01 A2972 1170 73 300 190/11 RMK AO2 T00560011
04850KAOH AOH20160114220010801/14/16 22:00:31  5-MIN KAOH 150300Z AUTO 19011KT 10SM CLR 06/01 A2972 1170 73 300 190/11 RMK AO2 T00560011
04850KAOH AOH20160114220510801/14/16 22:05:31  5-MIN KAOH 150305Z AUTO 19011KT 10SM CLR 06/01 A2972 1170 70 400 190/11 RMK AO2 T00610011
04850KAOH AOH20160114221010801/14/16 22:10:31  5-MIN KAOH 150310Z AUTO 19012KT 10SM CLR 06/01 A2972 1170 70 400 190/12 RMK AO2 T00610011
04850KAOH AOH20160114221510801/14/16 22:15:31  5-MIN KAOH 150315Z AUTO 19011KT 10SM CLR 06/01 A2971 1170 70 400 190/11 RMK AO2 T00610011
04850KAOH AOH20160114222010801/14/16 22:20:31  5-MIN KAOH 150320Z AUTO 19011KT 10SM CLR 06/01 A2971 1170 70 400 200/11 RMK AO2 T00610011
04850KAOH AOH20160114222510801/14/16 22:25:31  5-MIN KAOH 150325Z AUTO 19011KT 10SM CLR 06/01 A2971 1170 70 400 190/11 RMK AO2 T00610011
04850KAOH AOH20160114223010801/14/16 22:30:31  5-MIN KAOH 150330Z AUTO 19011KT 10SM CLR 06/01 A2971 1170 70 400 190/11 RMK AO2 T00610011
04850KAOH AOH20160114223510801/14/16 22:35:31  5-MIN KAOH 150335Z AUTO 19012KT 10SM CLR 06/02 A2971 1170 73 400 200/12 RMK AO2 T00610017
04850KAOH AOH20160114224010801/14/16 22:40:31  5-MIN KAOH 150340Z AUTO 19011KT 10SM CLR 06/02 A2971 1170 73 400 200/11 RMK AO2 T00610017
04850KAOH AOH20160114224510801/14/16 22:45:31  5-MIN KAOH 150345Z AUTO 19011KT 10SM CLR 06/02 A2971 1170 73 400 190/11 RMK AO2 T00610017
04850KAOH AOH20160114225011501/14/16 22:50:31  5-MIN KAOH 150350Z AUTO 19011KT 10SM CLR 06/01 A2971 1170 70 400 190/11 RMK AO2 SLP066 T00610011
04850KAOH AOH20160114225510801/14/16 22:55:31  5-MIN KAOH 150355Z AUTO 19011KT 10SM CLR 06/01 A2971 1170 70 400 200/11 RMK AO2 T00610011
04850KAOH AOH20160114230010801/14/16 23:00:31  5-MIN KAOH 150400Z AUTO 19012KT 10SM CLR 06/01 A2971 1170 70 400 190/12 RMK AO2 T00610011
04850KAOH AOH20160114230510801/14/16 23:05:31  5-MIN KAOH 150405Z AUTO 19012KT 10SM CLR 06/01 A2971 1170 70 400 200/12 RMK AO2 T00610011
04850KAOH AOH20160114231010801/14/16 23:10:31  5-MIN KAOH 150410Z AUTO 19012KT 10SM CLR 06/01 A2971 1170 70 400 200/12 RMK AO2 T00610011
04850KAOH AOH20160114231510801/14/16 23:15:31  5-MIN KAOH 150415Z AUTO 19011KT 10SM CLR 06/01 A2971 1170 70 400 200/11 RMK AO2 T00610011
04850KAOH AOH20160114232010801/14/16 23:20:31  5-MIN KAOH 150420Z AUTO 19013KT 10SM CLR 06/01 A2971 1180 70 400 200/13 RMK AO2 T00610011
04850KAOH AOH20160114232510801/14/16 23:25:31  5-MIN KAOH 150425Z AUTO 19013KT 10SM CLR 06/01 A2971 1180 70 400 200/13 RMK AO2 T00610011
04850KAOH AOH20160114233010801/14/16 23:30:31  5-MIN KAOH 150430Z AUTO 19013KT 10SM CLR 06/01 A2970 1180 70 400 200/13 RMK AO2 T00610011
04850KAOH AOH20160114233510801/14/16 23:35:31  5-MIN KAOH 150435Z AUTO 19013KT 10SM CLR 06/01 A2970 1180 70 400 200/13 RMK AO2 T00610011
04850KAOH AOH20160114234010801/14/16 23:40:31  5-MIN KAOH 150440Z AUTO 19014KT 10SM CLR 07/01 A2970 1180 67 500 200/14 RMK AO2 T00670011
04850KAOH AOH20160114234510801/14/16 23:45:31  5-MIN KAOH 150445Z AUTO 19011KT 10SM CLR 06/01 A2970 1180 70 400 190/11 RMK AO2 T00610011
04850KAOH AOH20160114235012501/14/16 23:50:31  5-MIN KAOH 150450Z AUTO 19012KT 10SM CLR 07/01 A2970 1180 67 500 200/12 RMK AO2 SLP064 T00670011 400671044
04850KAOH AOH20160114235510801/14/16 23:55:31  5-MIN KAOH 150455Z AUTO 19013KT 10SM CLR 06/01 A2970 1180 70 400 190/13 RMK AO2 T00610011
04850KAOH AOH20160115000011401/15/16 00:00:31  5-MIN KAOH 150500Z AUTO 19011G19KT 10SM CLR 06/01 A2970 1180 67 400 200/11G19 RMK AO2 T00610006
04850KAOH AOH20160115000510801/15/16 00:05:31  5-MIN KAOH 150505Z AUTO 19012KT 10SM CLR 06/01 A2970 1180 67 400 200/12 RMK AO2 T00610006
04850KAOH AOH20160115001011401/15/16 00:10:31  5-MIN KAOH 150510Z AUTO 19013G20KT 10SM CLR 07/01 A2970 1180 65 500 200/13G20 RMK AO2 T00670006
04850KAOH AOH20160115001511401/15/16 00:15:31  5-MIN KAOH 150515Z AUTO 20011G20KT 10SM CLR 06/01 A2970 1180 67 400 200/11G20 RMK AO2 T00610006
04850KAOH AOH20160115002010801/15/16 00:20:31  5-MIN KAOH 150520Z AUTO 19011KT 10SM CLR 06/01 A2970 1180 67 400 200/11 RMK AO2 T00610006
04850KAOH AOH20160115002510801/15/16 00:25:31  5-MIN KAOH 150525Z AUTO 19011KT 10SM CLR 06/01 A2970 1180 67 400 200/11 RMK AO2 T00610006
04850KAOH AOH20160115003010801/15/16 00:30:31  5-MIN KAOH 150530Z AUTO 20013KT 10SM CLR 06/01 A2970 1190 67 400 210/13 RMK AO2 T00610006
04850KAOH AOH20160115003510801/15/16 00:35:31  5-MIN KAOH 150535Z AUTO 20013KT 10SM CLR 06/01 A2970 1190 67 400 200/13 RMK AO2 T00610006
04850KAOH AOH20160115004010801/15/16 00:40:31  5-MIN KAOH 150540Z AUTO 19012KT 10SM CLR 06/01 A2970 1190 67 400 200/12 RMK AO2 T00610006
04850KAOH AOH20160115004510801/15/16 00:45:31  5-MIN KAOH 150545Z AUTO 20012KT 10SM CLR 06/01 A2970 1190 67 400 200/12 RMK AO2 T00610006
04850KAOH AOH20160115005013901/15/16 00:50:31  5-MIN KAOH 150550Z AUTO 19014G19KT 10SM CLR 07/01 A2969 1190 65 500 200/14G19 RMK AO2 SLP061 T00670006 10067 20039 58012
04850KAOH AOH20160115005511401/15/16 00:55:31  5-MIN KAOH 150555Z AUTO 20013G19KT 10SM CLR 06/01 A2969 1190 67 400 210/13G19 RMK AO2 T00610006
04850KAOH AOH20160115010010801/15/16 01:00:31  5-MIN KAOH 150600Z AUTO 20013KT 10SM CLR 06/01 A2969 1190 67 400 200/13 RMK AO2 T00610006
04850KAOH AOH20160115010510801/15/16 01:05:31  5-MIN KAOH 150605Z AUTO 20011KT 10SM CLR 06/01 A2969 1190 67 400 210/11 RMK AO2 T00610006
04850KAOH AOH20160115011010801/15/16 01:10:31  5-MIN KAOH 150610Z AUTO 20011KT 10SM CLR 06/00 A2969 1190 65 400 200/11 RMK AO2 T00610000
04850KAOH AOH20160115011511401/15/16 01:15:31  5-MIN KAOH 150615Z AUTO 20011G20KT 10SM CLR 06/00 A2969 1190 65 400 210/11G20 RMK AO2 T00610000
04850KAOH AOH20160115012011401/15/16 01:20:31  5-MIN KAOH 150620Z AUTO 20012G21KT 10SM CLR 06/00 A2969 1190 65 400 200/12G21 RMK AO2 T00610000
04850KAOH AOH20160115012511401/15/16 01:25:31  5-MIN KAOH 150625Z AUTO 19013G21KT 10SM CLR 06/00 A2969 1190 65 400 200/13G21 RMK AO2 T00610000
04850KAOH AOH20160115013011401/15/16 01:30:31  5-MIN KAOH 150630Z AUTO 19013G19KT 10SM CLR 06/00 A2969 1190 65 400 200/13G19 RMK AO2 T00610000
04850KAOH AOH20160115013511401/15/16 01:35:31  5-MIN KAOH 150635Z AUTO 19014G19KT 10SM CLR 06/00 A2969 1200 65 500 190/14G19 RMK AO2 T00610000
04850KAOH AOH20160115014010801/15/16 01:40:31  5-MIN KAOH 150640Z AUTO 19013KT 10SM CLR 06/00 A2969 1190 65 400 190/13 RMK AO2 T00610000
04850KAOH AOH20160115014510801/15/16 01:45:31  5-MIN KAOH 150645Z AUTO 19012KT 10SM CLR 06/00 A2969 1190 67 400 200/12 RMK AO2 T00560000
04850KAOH AOH20160115015012101/15/16 01:50:31  5-MIN KAOH 150650Z AUTO 19010G19KT 10SM CLR 06/00 A2969 1190 67 400 200/10G19 RMK AO2 SLP060 T00560000
04850KAOH AOH20160115015511401/15/16 01:55:31  5-MIN KAOH 150655Z AUTO 19013G18KT 10SM CLR 06/00 A2969 1190 67 400 200/13G18 RMK AO2 T00560000
04850KAOH AOH20160115020010801/15/16 02:00:31  5-MIN KAOH 150700Z AUTO 19013KT 10SM CLR 06/00 A2969 1190 67 400 200/13 RMK AO2 T00560000
04850KAOH AOH20160115020510801/15/16 02:05:31  5-MIN KAOH 150705Z AUTO 19013KT 10SM CLR 06/00 A2969 1190 67 400 200/13 RMK AO2 T00560000
04850KAOH AOH20160115021010801/15/16 02:10:31  5-MIN KAOH 150710Z AUTO 19012KT 10SM CLR 06/00 A2969 1190 67 400 200/12 RMK AO2 T00560000
04850KAOH AOH20160115021510801/15/16 02:15:31  5-MIN KAOH 150715Z AUTO 19012KT 10SM CLR 06/00 A2969 1190 67 400 200/12 RMK AO2 T00560000
04850KAOH AOH20160115022010801/15/16 02:20:31  5-MIN KAOH 150720Z AUTO 19013KT 10SM CLR 06/00 A2969 1190 67 400 200/13 RMK AO2 T00560000
04850KAOH AOH20160115022510801/15/16 02:25:31  5-MIN KAOH 150725Z AUTO 19012KT 10SM CLR 06/00 A2969 1190 67 400 200/12 RMK AO2 T00560000
04850KAOH AOH20160115023011401/15/16 02:30:31  5-MIN KAOH 150730Z AUTO 19012G19KT 10SM CLR 06/00 A2969 1190 67 400 200/12G19 RMK AO2 T00560000
04850KAOH AOH20160115023510801/15/16 02:35:31  5-MIN KAOH 150735Z AUTO 19012KT 10SM CLR 06/00 A2969 1190 67 400 200/12 RMK AO2 T00560000
04850KAOH AOH20160115024010801/15/16 02:40:31  5-MIN KAOH 150740Z AUTO 19013KT 10SM CLR 05/00 A2969 1190 70 300 190/13 RMK AO2 T00500000
04850KAOH AOH20160115024510901/15/16 02:45:31  5-MIN KAOH 150745Z AUTO 19012KT 10SM CLR 06/M01 A2969 1190 65 400 190/12 RMK AO2 T00561006
04850KAOH AOH20160115025011601/15/16 02:50:31  5-MIN KAOH 150750Z AUTO 19012KT 10SM CLR 06/M01 A2969 1190 65 400 190/12 RMK AO2 SLP058 T00561006
04850KAOH AOH20160115025510901/15/16 02:55:31  5-MIN KAOH 150755Z AUTO 19012KT 10SM CLR 06/M01 A2968 1200 65 400 200/12 RMK AO2 T00561006
04850KAOH AOH20160115030010901/15/16 03:00:31  5-MIN KAOH 150800Z AUTO 19011KT 10SM CLR 06/M01 A2968 1200 65 400 200/11 RMK AO2 T00561006
04850KAOH AOH20160115030510901/15/16 03:05:31  5-MIN KAOH 150805Z AUTO 19012KT 10SM CLR 06/M01 A2968 1200 65 400 190/12 RMK AO2 T00561006
04850KAOH AOH20160115031010901/15/16 03:10:31  5-MIN KAOH 150810Z AUTO 19012KT 10SM CLR 06/M01 A2968 1200 65 400 190/12 RMK AO2 T00561006
04850KAOH AOH20160115031510901/15/16 03:15:31  5-MIN KAOH 150815Z AUTO 19011KT 10SM CLR 06/M01 A2968 1200 65 400 190/11 RMK AO2 T00561006
04850KAOH AOH20160115032010901/15/16 03:20:31  5-MIN KAOH 150820Z AUTO 19014KT 10SM CLR 06/M01 A2968 1200 65 400 200/14 RMK AO2 T00561006
04850KAOH AOH20160115032510901/15/16 03:25:31  5-MIN KAOH 150825Z AUTO 19011KT 10SM CLR 05/M01 A2968 1200 67 300 200/11 RMK AO2 T00501006
04850KAOH AOH20160115033010901/15/16 03:30:31  5-MIN KAOH 150830Z AUTO 19013KT 10SM CLR 05/M01 A2968 1200 67 300 190/13 RMK AO2 T00501006
04850KAOH AOH20160115033510901/15/16 03:35:31  5-MIN KAOH 150835Z AUTO 19012KT 10SM CLR 05/M01 A2967 1210 67 300 190/12 RMK AO2 T00501006
04850KAOH AOH20160115034010901/15/16 03:40:31  5-MIN KAOH 150840Z AUTO 18012KT 10SM CLR 05/M01 A2967 1210 67 300 190/12 RMK AO2 T00501006
04850KAOH AOH20160115034510901/15/16 03:45:31  5-MIN KAOH 150845Z AUTO 19011KT 10SM CLR 05/M01 A2967 1210 67 300 190/11 RMK AO2 T00501006
04850KAOH AOH20160115035012201/15/16 03:50:31  5-MIN KAOH 150850Z AUTO 19010KT 10SM CLR 05/M01 A2968 1200 67 300 190/10 RMK AO2 SLP054 T00501006 56007
04850KAOH AOH20160115035510901/15/16 03:55:31  5-MIN KAOH 150855Z AUTO 19011KT 10SM CLR 05/M01 A2967 1210 67 300 190/11 RMK AO2 T00501006
04850KAOH AOH20160115040010901/15/16 04:00:31  5-MIN KAOH 150900Z AUTO 18011KT 10SM CLR 05/M01 A2967 1210 67 300 190/11 RMK AO2 T00501006
04850KAOH AOH20160115040510901/15/16 04:05:31  5-MIN KAOH 150905Z AUTO 19010KT 10SM CLR 05/M01 A2967 1210 67 300 200/10 RMK AO2 T00501006
04850KAOH AOH20160115041010901/15/16 04:10:31  5-MIN KAOH 150910Z AUTO 19011KT 10SM CLR 05/M01 A2967 1210 67 300 200/11 RMK AO2 T00501006
04850KAOH AOH20160115041510901/15/16 04:15:31  5-MIN KAOH 150915Z AUTO 18013KT 10SM CLR 04/M01 A2966 1220 70 300 190/13 RMK AO2 T00441006
04850KAOH AOH20160115042010901/15/16 04:20:31  5-MIN KAOH 150920Z AUTO 19011KT 10SM CLR 04/M01 A2966 1220 70 300 200/11 RMK AO2 T00441006
04850KAOH AOH20160115042510901/15/16 04:25:31  5-MIN KAOH 150925Z AUTO 20009KT 10SM CLR 04/M01 A2966 1220 70 300 200/09 RMK AO2 T00441006
04850KAOH AOH20160115043010901/15/16 04:30:31  5-MIN KAOH 150930Z AUTO 18011KT 10SM CLR 04/M01 A2965 1230 70 300 190/11 RMK AO2 T00441006
04850KAOH AOH20160115043510901/15/16 04:35:31  5-MIN KAOH 150935Z AUTO 19013KT 10SM CLR 04/M01 A2965 1230 70 300 190/13 RMK AO2 T00441006
04850KAOH AOH20160115044010901/15/16 04:40:31  5-MIN KAOH 150940Z AUTO 18012KT 10SM CLR 04/M01 A2965 1230 70 300 190/12 RMK AO2 T00441006
04850KAOH AOH20160115044510901/15/16 04:45:31  5-MIN KAOH 150945Z AUTO 19012KT 10SM CLR 04/M01 A2965 1230 70 300 190/12 RMK AO2 T00441006
04850KAOH AOH20160115045011601/15/16 04:50:31  5-MIN KAOH 150950Z AUTO 19014KT 10SM CLR 05/M01 A2965 1230 67 400 190/14 RMK AO2 SLP045 T00501006
04850KAOH AOH20160115045510901/15/16 04:55:31  5-MIN KAOH 150955Z AUTO 19013KT 10SM CLR 05/M01 A2965 1230 67 400 200/13 RMK AO2 T00501006
04850KAOH AOH20160115050010901/15/16 05:00:31  5-MIN KAOH 151000Z AUTO 19015KT 10SM CLR 05/M01 A2965 1220 67 400 190/15 RMK AO2 T00501006
04850KAOH AOH20160115050510901/15/16 05:05:31  5-MIN KAOH 151005Z AUTO 19012KT 10SM CLR 05/M01 A2965 1230 67 400 190/12 RMK AO2 T00501006
04850KAOH AOH20160115051010901/15/16 05:10:31  5-MIN KAOH 151010Z AUTO 19013KT 10SM CLR 05/M01 A2965 1230 67 400 190/13 RMK AO2 T00501006
04850KAOH AOH20160115051510901/15/16 05:15:31  5-MIN KAOH 151015Z AUTO 19011KT 10SM CLR 05/M01 A2964 1230 67 400 190/11 RMK AO2 T00501006
04850KAOH AOH20160115052010901/15/16 05:20:31  5-MIN KAOH 151020Z AUTO 19011KT 10SM CLR 05/M01 A2964 1240 67 400 200/11 RMK AO2 T00501006
04850KAOH AOH20160115052510901/15/16 05:25:31  5-MIN KAOH 151025Z AUTO 18011KT 10SM CLR 05/M01 A2964 1240 67 400 190/11 RMK AO2 T00501006
04850KAOH AOH20160115053011201/15/16 05:30:31  5-MIN KAOH 151030Z AUTO 18013KT 10SM SCT040 05/M01 A2964 1230 67 400 190/13 RMK AO2 T00501006
04850KAOH AOH20160115053511201/15/16 05:35:31  5-MIN KAOH 151035Z AUTO 18012KT 10SM BKN040 04/M01 A2964 1240 70 300 190/12 RMK AO2 T00441006
04850KAOH AOH20160115054011201/15/16 05:40:31  5-MIN KAOH 151040Z AUTO 19012KT 10SM BKN042 05/M01 A2964 1240 67 400 190/12 RMK AO2 T00501006
04850KAOH AOH20160115054511201/15/16 05:45:31  5-MIN KAOH 151045Z AUTO 18012KT 10SM BKN044 05/M01 A2964 1240 67 400 190/12 RMK AO2 T00501006
04850KAOH AOH20160115055011901/15/16 05:50:31  5-MIN KAOH 151050Z AUTO 18011KT 10SM OVC044 04/M01 A2963 1240 70 300 190/11 RMK AO2 SLP040 T00441006
04850KAOH AOH20160115055511201/15/16 05:55:31  5-MIN KAOH 151055Z AUTO 18013KT 10SM OVC044 04/M01 A2963 1250 70 300 180/13 RMK AO2 T00441006
04850KAOH AOH20160115060011201/15/16 06:00:31  5-MIN KAOH 151100Z AUTO 17014KT 10SM OVC046 04/M01 A2963 1250 70 300 180/14 RMK AO2 T00441006
04850KAOH AOH20160115060511201/15/16 06:05:31  5-MIN KAOH 151105Z AUTO 18014KT 10SM OVC046 04/M01 A2963 1250 70 300 180/14 RMK AO2 T00441006
04850KAOH AOH20160115061011201/15/16 06:10:31  5-MIN KAOH 151110Z AUTO 18013KT 10SM OVC048 04/M01 A2963 1250 70 300 180/13 RMK AO2 T00441006
04850KAOH AOH20160115061511101/15/16 06:15:31  5-MIN KAOH 151115Z AUTO 18012KT 10SM OVC048 04/00 A2963 1250 73 300 190/12 RMK AO2 T00440000
04850KAOH AOH20160115062011101/15/16 06:20:31  5-MIN KAOH 151120Z AUTO 18013KT 10SM OVC050 04/00 A2963 1250 73 300 190/13 RMK AO2 T00440000
04850KAOH AOH20160115062511701/15/16 06:25:31  5-MIN KAOH 151125Z AUTO 18014G21KT 10SM OVC050 04/00 A2962 1250 73 300 180/14G21 RMK AO2 T00440000
04850KAOH AOH20160115063011701/15/16 06:30:31  5-MIN KAOH 151130Z AUTO 17012G21KT 10SM BKN050 04/00 A2962 1250 73 300 180/12G21 RMK AO2 T00440000
04850KAOH AOH20160115063511101/15/16 06:35:31  5-MIN KAOH 151135Z AUTO 17012KT 10SM BKN050 04/00 A2962 1260 73 300 180/12 RMK AO2 T00440000
04850KAOH AOH20160115064011201/15/16 06:40:31  5-MIN KAOH 151140Z AUTO 18010KT 10SM BKN050 04/M01 A2962 1260 70 300 180/10 RMK AO2 T00441006
04850KAOH AOH20160115064511901/15/16 06:45:31  5-MIN KAOH 151145Z AUTO 17010KT 10SM FEW043 SCT049 04/M01 A2961 1260 70 300 180/10 RMK AO2 T00441006
04850KAOH AOH20160115065014401/15/16 06:50:31  5-MIN KAOH 151150Z AUTO 17011KT 10SM FEW043 SCT049 04/M01 A2961 1270 70 300 180/11 RMK AO2 SLP031 T00441006 10061 20044 58006
04850KAOH AOH20160115065511901/15/16 06:55:31  5-MIN KAOH 151155Z AUTO 17011KT 10SM FEW043 SCT055 04/M01 A2961 1270 73 300 180/11 RMK AO2 T00391006
04850KAOH AOH20160115070011201/15/16 07:00:31  5-MIN KAOH 151200Z AUTO 17013KT 10SM FEW055 04/M01 A2961 1270 73 300 180/13 RMK AO2 T00391006
04850KAOH AOH20160115070511201/15/16 07:05:31  5-MIN KAOH 151205Z AUTO 17011KT 10SM FEW055 04/M01 A2961 1270 73 300 180/11 RMK AO2 T00391006
04850KAOH AOH20160115071011201/15/16 07:10:31  5-MIN KAOH 151210Z AUTO 17012KT 10SM FEW055 04/M01 A2960 1280 73 300 180/12 RMK AO2 T00391006
04850KAOH AOH20160115071511201/15/16 07:15:31  5-MIN KAOH 151215Z AUTO 17012KT 10SM FEW055 04/M01 A2960 1280 73 300 180/12 RMK AO2 T00391006
04850KAOH AOH20160115072011201/15/16 07:20:31  5-MIN KAOH 151220Z AUTO 18013KT 10SM SCT055 04/M01 A2960 1280 73 300 180/13 RMK AO2 T00391006
04850KAOH AOH20160115072511901/15/16 07:25:31  5-MIN KAOH 151225Z AUTO 18014KT 10SM FEW046 SCT055 04/M01 A2960 1280 73 300 180/14 RMK AO2 T00391006
04850KAOH AOH20160115073011901/15/16 07:30:31  5-MIN KAOH 151230Z AUTO 18012KT 10SM FEW046 SCT055 04/M01 A2960 1280 73 300 180/12 RMK AO2 T00391006
04850KAOH AOH20160115073511901/15/16 07:35:31  5-MIN KAOH 151235Z AUTO 18011KT 10SM FEW046 FEW055 04/M01 A2960 1280 73 300 180/11 RMK AO2 T00391006
04850KAOH AOH20160115074011901/15/16 07:40:31  5-MIN KAOH 151240Z AUTO 18012KT 10SM FEW046 FEW055 04/M01 A2959 1280 73 300 180/12 RMK AO2 T00391006
04850KAOH AOH20160115074511201/15/16 07:45:31  5-MIN KAOH 151245Z AUTO 18012KT 10SM FEW055 04/M01 A2959 1290 73 300 190/12 RMK AO2 T00391006
04850KAOH AOH20160115075011601/15/16 07:50:31  5-MIN KAOH 151250Z AUTO 18013KT 10SM CLR 04/M01 A2959 1290 73 300 190/13 RMK AO2 SLP024 T00391006
04850KAOH AOH20160115075510801/15/16 07:55:31  5-MIN KAOH 151255Z AUTO 18012KT 10SM CLR 04/00 A2958 1290 76 300 190/12 RMK AO2 T00390000
04850KAOH AOH20160115080010801/15/16 08:00:31  5-MIN KAOH 151300Z AUTO 18012KT 10SM CLR 04/00 A2958 1290 76 300 190/12 RMK AO2 T00390000
04850KAOH AOH20160115080511101/15/16 08:05:31  5-MIN KAOH 151305Z AUTO 18012KT 10SM FEW046 04/00 A2958 1290 73 400 180/12 RMK AO2 T00440000
04850KAOH AOH20160115081011101/15/16 08:10:31  5-MIN KAOH 151310Z AUTO 18012KT 10SM SCT046 04/00 A2959 1290 73 400 180/12 RMK AO2 T00440000
04850KAOH AOH20160115081511801/15/16 08:15:31  5-MIN KAOH 151315Z AUTO 17013KT 10SM SCT042 BKN049 04/00 A2958 1290 73 400 180/13 RMK AO2 T00440000
04850KAOH AOH20160115082011801/15/16 08:20:31  5-MIN KAOH 151320Z AUTO 17012KT 10SM SCT042 SCT049 04/00 A2958 1290 76 300 180/12 RMK AO2 T00390000
04850KAOH AOH20160115082511101/15/16 08:25:31  5-MIN KAOH 151325Z AUTO 17013KT 10SM SCT044 04/00 A2958 1290 76 300 180/13 RMK AO2 T00390000
04850KAOH AOH20160115083011801/15/16 08:30:31  5-MIN KAOH 151330Z AUTO 17012KT 10SM FEW044 SCT050 04/00 A2958 1290 76 300 180/12 RMK AO2 T00390000
04850KAOH AOH20160115083511801/15/16 08:35:31  5-MIN KAOH 151335Z AUTO 17014KT 10SM FEW040 BKN050 04/00 A2958 1300 76 300 180/14 RMK AO2 T00390000
04850KAOH AOH20160115084011801/15/16 08:40:31  5-MIN KAOH 151340Z AUTO 17012KT 10SM FEW040 BKN050 04/00 A2958 1300 76 300 180/12 RMK AO2 T00390000
04850KAOH AOH20160115084511801/15/16 08:45:31  5-MIN KAOH 151345Z AUTO 17013KT 10SM FEW042 BKN055 04/00 A2958 1300 73 400 180/13 RMK AO2 T00440000
04850KAOH AOH20160115085013201/15/16 08:50:31  5-MIN KAOH 151350Z AUTO 18011KT 10SM FEW042 BKN050 BKN060 04/01 A2958 1300 76 400 180/11 RMK AO2 SLP020 T00440006
04850KAOH AOH20160115085511801/15/16 08:55:31  5-MIN KAOH 151355Z AUTO 17012KT 10SM SCT040 OVC055 04/01 A2958 1300 76 400 180/12 RMK AO2 T00440006
04850KAOH AOH20160115090011801/15/16 09:00:31  5-MIN KAOH 151400Z AUTO 18013KT 10SM SCT040 OVC055 04/01 A2958 1290 76 400 180/13 RMK AO2 T00440006
04850KAOH AOH20160115090512501/15/16 09:05:31  5-MIN KAOH 151405Z AUTO 17013KT 10SM SCT040 BKN047 OVC060 04/01 A2958 1300 76 400 180/13 RMK AO2 T00440006
04850KAOH AOH20160115091012501/15/16 09:10:31  5-MIN KAOH 151410Z AUTO 17013KT 10SM SCT042 BKN049 OVC060 04/01 A2958 1300 76 400 180/13 RMK AO2 T00440006
04850KAOH AOH20160115091512501/15/16 09:15:31  5-MIN KAOH 151415Z AUTO 18012KT 10SM FEW040 SCT047 OVC060 04/01 A2958 1300 76 400 180/12 RMK AO2 T00440006
04850KAOH AOH20160115092012501/15/16 09:20:31  5-MIN KAOH 151420Z AUTO 17012KT 10SM FEW040 SCT049 OVC065 05/01 A2958 1300 73 400 180/12 RMK AO2 T00500006
04850KAOH AOH20160115092512501/15/16 09:25:31  5-MIN KAOH 151425Z AUTO 17013KT 10SM FEW040 FEW048 BKN065 05/01 A2958 1290 73 400 180/13 RMK AO2 T00500006
04850KAOH AOH20160115093012501/15/16 09:30:31  5-MIN KAOH 151430Z AUTO 17012KT 10SM FEW030 FEW047 BKN065 05/01 A2958 1300 73 400 180/12 RMK AO2 T00500006
04850KAOH AOH20160115093512501/15/16 09:35:31  5-MIN KAOH 151435Z AUTO 17012KT 10SM FEW028 SCT035 OVC065 05/01 A2958 1300 73 400 180/12 RMK AO2 T00500006
04850KAOH AOH20160115094012501/15/16 09:40:31  5-MIN KAOH 151440Z AUTO 17012KT 10SM SCT030 BKN034 OVC070 05/01 A2958 1300 73 400 180/12 RMK AO2 T00500006
04850KAOH AOH20160115094512501/15/16 09:45:31  5-MIN KAOH 151445Z AUTO 17013KT 10SM SCT028 BKN034 OVC070 05/01 A2957 1300 76 400 180/13 RMK AO2 T00500011
04850KAOH AOH20160115095013801/15/16 09:50:31  5-MIN KAOH 151450Z AUTO 17012KT 10SM SCT028 BKN034 BKN055 05/01 A2957 1300 76 400 180/12 RMK AO2 SLP019 T00500011 56022
04850KAOH AOH20160115095512501/15/16 09:55:31  5-MIN KAOH 151455Z AUTO 17013KT 10SM SCT028 BKN035 BKN070 05/01 A2957 1300 76 400 180/13 RMK AO2 T00500011
04850KAOH AOH20160115100011801/15/16 10:00:31  5-MIN KAOH 151500Z AUTO 17013KT 10SM BKN028 BKN035 05/01 A2958 1300 76 400 180/13 RMK AO2 T00500011
04850KAOH AOH20160115100511801/15/16 10:05:31  5-MIN KAOH 151505Z AUTO 17013KT 10SM BKN028 BKN035 06/01 A2958 1290 73 500 180/13 RMK AO2 T00560011
04850KAOH AOH20160115101011801/15/16 10:10:31  5-MIN KAOH 151510Z AUTO 18012KT 10SM BKN028 BKN080 06/01 A2958 1300 73 500 180/12 RMK AO2 T00560011
04850KAOH AOH20160115101512501/15/16 10:15:31  5-MIN KAOH 151515Z AUTO 18012KT 10SM SCT028 SCT033 BKN080 06/01 A2958 1300 73 500 180/12 RMK AO2 T00560011
04850KAOH AOH20160115102011801/15/16 10:20:31  5-MIN KAOH 151520Z AUTO 18012KT 10SM SCT028 BKN080 06/01 A2958 1300 73 500 180/12 RMK AO2 T00560011
04850KAOH AOH20160115102511801/15/16 10:25:31  5-MIN KAOH 151525Z AUTO 18012KT 10SM SCT028 BKN080 06/01 A2958 1290 73 500 180/12 RMK AO2 T00560011
04850KAOH AOH20160115103011801/15/16 10:30:31  5-MIN KAOH 151530Z AUTO 18012KT 10SM SCT028 BKN080 06/01 A2958 1300 73 500 180/12 RMK AO2 T00560011
04850KAOH AOH20160115103512501/15/16 10:35:31  5-MIN KAOH 151535Z AUTO 18012KT 10SM SCT028 SCT032 BKN080 06/01 A2958 1300 73 500 180/12 RMK AO2 T00560011
04850KAOH AOH20160115104011801/15/16 10:40:31  5-MIN KAOH 151540Z AUTO 18011KT 10SM SCT026 BKN080 06/01 A2957 1300 73 500 180/11 RMK AO2 T00560011
04850KAOH AOH20160115104511801/15/16 10:45:31  5-MIN KAOH 151545Z AUTO 18012KT 10SM BKN026 BKN085 06/01 A2958 1300 73 500 190/12 RMK AO2 T00560011
04850KAOH AOH20160115105011801/15/16 10:50:31  5-MIN KAOH 151550Z AUTO 18011KT 10SM BKN026 06/01 A2957 1300 70 600 190/11 RMK AO2 SLP018 T00610011
04850KAOH AOH20160115105511101/15/16 10:55:31  5-MIN KAOH 151555Z AUTO 18012KT 10SM BKN026 06/01 A2957 1300 70 600 190/12 RMK AO2 T00610011
04850KAOH AOH20160115110011701/15/16 11:00:31  5-MIN KAOH 151600Z AUTO 18012G19KT 10SM BKN026 06/01 A2957 1310 70 600 190/12G19 RMK AO2 T00610011
04850KAOH AOH20160115110511701/15/16 11:05:31  5-MIN KAOH 151605Z AUTO 18013G19KT 10SM OVC024 06/01 A2956 1310 70 600 190/13G19 RMK AO2 T00610011
04850KAOH AOH20160115111011701/15/16 11:10:31  5-MIN KAOH 151610Z AUTO 18012G19KT 10SM OVC024 06/01 A2956 1320 70 600 190/12G19 RMK AO2 T00610011
04850KAOH AOH20160115111511801/15/16 11:15:31  5-MIN KAOH 151615Z AUTO 18012KT 10SM OVC024 06/01 A2955 1320 70 600 180/12 RMK AO2 PRESFR T00610011
04850KAOH AOH20160115112011801/15/16 11:20:31  5-MIN KAOH 151620Z AUTO 17010KT 10SM BKN021 OVC026 06/01 A2955 1320 70 600 180/10 RMK AO2 T00610011
04850KAOH AOH20160115112511801/15/16 11:25:31  5-MIN KAOH 151625Z AUTO 18011KT 10SM BKN021 OVC027 07/01 A2954 1330 67 700 180/11 RMK AO2 T00670011
04850KAOH AOH20160115113011801/15/16 11:30:31  5-MIN KAOH 151630Z AUTO 18013KT 10SM BKN021 OVC028 07/01 A2954 1330 67 700 190/13 RMK AO2 T00670011
04850KAOH AOH20160115113513101/15/16 11:35:31  5-MIN KAOH 151635Z AUTO 19014G22KT 10SM BKN021 BKN030 OVC036 07/01 A2954 1330 67 700 190/14G22 RMK AO2 T00670011
04850KAOH AOH20160115114013101/15/16 11:40:31  5-MIN KAOH 151640Z AUTO 19012G22KT 10SM SCT021 BKN028 OVC036 07/01 A2954 1330 67 700 200/12G22 RMK AO2 T00670011
04850KAOH AOH20160115114512501/15/16 11:45:31  5-MIN KAOH 151645Z AUTO 19012KT 10SM BKN023 BKN028 OVC036 07/01 A2954 1330 67 700 200/12 RMK AO2 T00670011
04850KAOH AOH20160115115013201/15/16 11:50:31  5-MIN KAOH 151650Z AUTO 19013KT 10SM BKN023 BKN028 OVC036 07/01 A2954 1330 67 700 200/13 RMK AO2 SLP007 T00670011
04850KAOH AOH20160115115511801/15/16 11:55:31  5-MIN KAOH 151655Z AUTO 19013KT 10SM BKN023 OVC033 07/01 A2954 1340 67 700 190/13 RMK AO2 T00670011
04850KAOH AOH20160115120011801/15/16 12:00:31  5-MIN KAOH 151700Z AUTO 18014KT 10SM BKN023 OVC036 07/01 A2953 1340 65 700 190/14 RMK AO2 T00670006
04850KAOH AOH20160115120511101/15/16 12:05:31  5-MIN KAOH 151705Z AUTO 18013KT 10SM OVC023 06/01 A2952 1350 67 600 190/13 RMK AO2 T00610006
04850KAOH AOH20160115121011101/15/16 12:10:31  5-MIN KAOH 151710Z AUTO 19013KT 10SM OVC023 06/01 A2952 1350 67 600 190/13 RMK AO2 T00610006
04850KAOH AOH20160115121511701/15/16 12:15:31  5-MIN KAOH 151715Z AUTO 18013G20KT 10SM OVC023 06/01 A2952 1350 67 600 190/13G20 RMK AO2 T00610006
04850KAOH AOH20160115122011101/15/16 12:20:31  5-MIN KAOH 151720Z AUTO 19012KT 10SM OVC023 06/01 A2952 1350 67 600 190/12 RMK AO2 T00610006
04850KAOH AOH20160115122511101/15/16 12:25:31  5-MIN KAOH 151725Z AUTO 18014KT 10SM OVC023 06/01 A2951 1360 67 700 190/14 RMK AO2 T00610006
04850KAOH AOH20160115123011101/15/16 12:30:31  5-MIN KAOH 151730Z AUTO 18015KT 10SM OVC023 06/01 A2950 1370 67 700 190/15 RMK AO2 T00610006
04850KAOH AOH20160115123511701/15/16 12:35:31  5-MIN KAOH 151735Z AUTO 18015G22KT 10SM OVC023 06/01 A2950 1370 67 700 190/15G22 RMK AO2 T00610006
04850KAOH AOH20160115124011701/15/16 12:40:31  5-MIN KAOH 151740Z AUTO 19015G22KT 10SM OVC023 06/01 A2949 1370 67 700 190/15G22 RMK AO2 T00610006
04850KAOH AOH20160115124511101/15/16 12:45:31  5-MIN KAOH 151745Z AUTO 19014KT 10SM OVC024 06/01 A2949 1380 67 700 190/14 RMK AO2 T00610006
04850KAOH AOH20160115125014901/15/16 12:50:31  5-MIN KAOH 151750Z AUTO 19014G20KT 10SM BKN024 OVC034 06/00 A2949 1380 65 700 190/14G20 RMK AO2 SLP988 T00610000 10067 20039 56012
04850KAOH AOH20160115125511801/15/16 12:55:31  5-MIN KAOH 151755Z AUTO 19013KT 10SM BKN024 OVC034 06/00 A2948 1380 65 700 190/13 RMK AO2 T00610000
04850KAOH AOH20160115130013601/15/16 13:00:31  5-MIN KAOH 151800Z AUTO 18014KT 10SM -RA BKN024 OVC034 06/00 A2948 1390 65 700 190/14 RMK AO2 RAB1757 P0000 T00610000
04850KAOH AOH20160115130514301/15/16 13:05:31  5-MIN KAOH 151805Z AUTO 19012KT 10SM -RA SCT025 BKN034 OVC042 06/00 A2947 1390 67 600 190/12 RMK AO2 RAB1757 P0000 T00560000
04850KAOH AOH20160115131014301/15/16 13:10:31  5-MIN KAOH 151810Z AUTO 19013KT 10SM -RA SCT027 BKN036 OVC055 06/01 A2947 1390 70 600 190/13 RMK AO2 RAB1757 P0000 T00560006
04850KAOH AOH20160115131514301/15/16 13:15:31  5-MIN KAOH 151815Z AUTO 18013KT 10SM -RA SCT027 BKN036 OVC055 06/01 A2947 1400 70 600 190/13 RMK AO2 RAB1757 P0000 T00560006
04850KAOH AOH20160115132014201/15/16 13:20:31  5-MIN KAOH 151820Z AUTO 19014KT 10SM SCT027 BKN034 OVC055 06/01 A2946 1400 67 700 200/14 RMK AO2 RAB1757E20 P0000 T00610006
04850KAOH AOH20160115132514801/15/16 13:25:31  5-MIN KAOH 151825Z AUTO 19014G20KT 10SM FEW027 BKN042 OVC055 06/01 A2946 1400 67 700 200/14G20 RMK AO2 RAB1757E20 P0000 T00610006
04850KAOH AOH20160115133014301/15/16 13:30:31  5-MIN KAOH 151830Z AUTO 20014KT 10SM -RA FEW029 BKN050 OVC055 06/01 A2946 1400 67 700 200/14 RMK AO2 RAB1757 P0000 T00610006
04850KAOH AOH20160115133514301/15/16 13:35:31  5-MIN KAOH 151835Z AUTO 20013KT 10SM -RA SCT027 BKN050 OVC060 06/01 A2946 1400 70 600 200/13 RMK AO2 RAB1757 P0000 T00560006
04850KAOH AOH20160115134014301/15/16 13:40:31  5-MIN KAOH 151840Z AUTO 20012KT 10SM -RA FEW027 BKN049 OVC060 06/01 A2946 1410 70 600 200/12 RMK AO2 RAB1757 P0000 T00560006
04850KAOH AOH20160115134514201/15/16 13:45:31  5-MIN KAOH 151845Z AUTO 19012KT 10SM FEW027 BKN049 OVC060 06/01 A2946 1410 70 600 200/12 RMK AO2 RAB1757E43 P0000 T00560006
04850KAOH AOH20160115135014901/15/16 13:50:31  5-MIN KAOH 151850Z AUTO 19010KT 10SM FEW027 SCT049 OVC065 06/01 A2945 1410 70 700 200/10 RMK AO2 RAB1757E43 SLP978 P0000 T00560006
04850KAOH AOH20160115135512501/15/16 13:55:31  5-MIN KAOH 151855Z AUTO 18012KT 10SM FEW039 SCT049 OVC070 06/01 A2945 1420 67 700 190/12 RMK AO2 T00610006
04850KAOH AOH20160115140012501/15/16 14:00:31  5-MIN KAOH 151900Z AUTO 19013KT 10SM FEW026 SCT039 OVC070 07/00 A2945 1420 62 800 200/13 RMK AO2 T00670000
04850KAOH AOH20160115140512501/15/16 14:05:31  5-MIN KAOH 151905Z AUTO 19012KT 10SM SCT024 BKN046 OVC070 06/00 A2944 1420 65 700 200/12 RMK AO2 T00610000
04850KAOH AOH20160115141012501/15/16 14:10:31  5-MIN KAOH 151910Z AUTO 19011KT 10SM SCT024 BKN040 OVC070 07/00 A2944 1430 62 800 200/11 RMK AO2 T00670000
04850KAOH AOH20160115141512501/15/16 14:15:31  5-MIN KAOH 151915Z AUTO 19011KT 10SM SCT025 BKN060 OVC070 06/00 A2944 1430 65 700 200/11 RMK AO2 T00610000
04850KAOH AOH20160115142014101/15/16 14:20:31  5-MIN KAOH 151920Z AUTO 19012KT 10SM -RA SCT025 BKN035 OVC070 06/00 A2944 1430 65 700 200/12 RMK AO2 RAB19 P0000 T00610000
04850KAOH AOH20160115142514101/15/16 14:25:31  5-MIN KAOH 151925Z AUTO 19011KT 10SM -RA SCT025 BKN035 OVC060 06/00 A2944 1430 65 700 200/11 RMK AO2 RAB19 P0000 T00610000
04850KAOH AOH20160115143014101/15/16 14:30:31  5-MIN KAOH 151930Z AUTO 19010KT 10SM -RA FEW025 BKN035 OVC060 06/00 A2944 1430 65 700 200/10 RMK AO2 RAB19 P0000 T00610000
04850KAOH AOH20160115143514101/15/16 14:35:31  5-MIN KAOH 151935Z AUTO 20010KT 10SM -RA SCT023 BKN035 OVC060 06/01 A2943 1430 67 700 200/10 RMK AO2 RAB19 P0000 T00610006
04850KAOH AOH20160115144014101/15/16 14:40:31  5-MIN KAOH 151940Z AUTO 19012KT 10SM -RA SCT021 BKN035 OVC060 06/01 A2943 1430 67 700 200/12 RMK AO2 RAB19 P0000 T00610006
04850KAOH AOH20160115144514101/15/16 14:45:31  5-MIN KAOH 151945Z AUTO 20013KT 10SM -RA BKN021 BKN035 OVC060 06/01 A2943 1430 67 700 200/13 RMK AO2 RAB19 P0000 T00610006
04850KAOH AOH20160115145014701/15/16 14:50:31  5-MIN KAOH 151950Z AUTO 20012KT 8SM -RA BKN022 BKN036 OVC055 06/01 A2943 1430 73 700 200/12 RMK AO2 RAB19 SLP970 P0000 T00560011
04850KAOH AOH20160115145514001/15/16 14:55:31  5-MIN KAOH 151955Z AUTO 20012G18KT 7SM -RA SCT022 BKN038 OVC055 06/01 A2943 1430 73 700 200/12G18 RMK AO2 P0000 T00560011
04850KAOH AOH20160115150013401/15/16 15:00:31  5-MIN KAOH 152000Z AUTO 19012KT 7SM -RA SCT022 BKN045 OVC050 06/01 A2943 1430 73 700 200/12 RMK AO2 P0000 T00560011
04850KAOH AOH20160115150513401/15/16 15:05:31  5-MIN KAOH 152005Z AUTO 19013KT 7SM -RA SCT022 BKN041 OVC050 05/02 A2943 1430 79 600 200/13 RMK AO2 P0001 T00500017
04850KAOH AOH20160115151013401/15/16 15:10:31  5-MIN KAOH 152010Z AUTO 20014KT 7SM -RA FEW022 SCT041 OVC050 05/02 A2943 1440 79 600 200/14 RMK AO2 P0001 T00500017
04850KAOH AOH20160115151513401/15/16 15:15:31  5-MIN KAOH 152015Z AUTO 19012KT 6SM -RA FEW021 BKN046 OVC055 05/02 A2943 1440 82 600 200/12 RMK AO2 P0002 T00500022
04850KAOH AOH20160115152012701/15/16 15:20:31  5-MIN KAOH 152020Z AUTO 19012KT 6SM -RA BKN047 OVC055 05/02 A2943 1440 82 600 190/12 RMK AO2 P0002 T00500022
04850KAOH AOH20160115152512001/15/16 15:25:31  5-MIN KAOH 152025Z AUTO 19012KT 6SM -RA OVC049 05/02 A2943 1440 82 600 190/12 RMK AO2 P0003 T00500022
04850KAOH AOH20160115153012001/15/16 15:30:31  5-MIN KAOH 152030Z AUTO 19015KT 6SM -RA OVC050 05/02 A2943 1440 82 600 200/15 RMK AO2 P0004 T00500022
04850KAOH AOH20160115153513401/15/16 15:35:31  5-MIN KAOH 152035Z AUTO 19014KT 6SM -RA FEW018 SCT029 OVC050 05/02 A2943 1440 82 600 190/14 RMK AO2 P0004 T00500022
04850KAOH AOH20160115154013701/15/16 15:40:31  5-MIN KAOH 152040Z AUTO 19012KT 6SM -RA BR FEW018 SCT029 OVC050 04/03 A2943 1440 89 500 190/12 RMK AO2 P0005 T00440028
04850KAOH AOH20160115154513701/15/16 15:45:31  5-MIN KAOH 152045Z AUTO 18012KT 6SM -RA BR FEW018 BKN047 OVC055 04/03 A2942 1440 89 500 190/12 RMK AO2 P0005 T00440028
04850KAOH AOH20160115155015501/15/16 15:50:31  5-MIN KAOH 152050Z AUTO 18010KT 5SM RA BR FEW018 SCT027 OVC050 04/03 A2943 1440 89 500 190/10 RMK AO2 SLP969 P0006 60006 T00440028 58029
04850KAOH AOH20160115155513601/15/16 15:55:31  5-MIN KAOH 152055Z AUTO 18010KT 5SM RA BR SCT018 SCT027 OVC047 04/03 A2943 1440 89 500 190/10 RMK AO2 P0000 T00440028
04850KAOH AOH20160115160013701/15/16 16:00:31  5-MIN KAOH 152100Z AUTO 19013KT 6SM -RA BR SCT018 BKN036 OVC047 04/02 A2942 1440 85 500 190/13 RMK AO2 P0001 T00440022
04850KAOH AOH20160115160513701/15/16 16:05:31  5-MIN KAOH 152105Z AUTO 19012KT 5SM -RA BR SCT017 BKN030 OVC047 04/02 A2943 1440 85 500 190/12 RMK AO2 P0002 T00440022
04850KAOH AOH20160115161013001/15/16 16:10:31  5-MIN KAOH 152110Z AUTO 19012KT 5SM -RA BR BKN017 OVC048 04/03 A2943 1440 92 500 190/12 RMK AO2 P0003 T00390028
04850KAOH AOH20160115161512901/15/16 16:15:31  5-MIN KAOH 152115Z AUTO 19011KT 5SM RA BR BKN017 OVC048 04/03 A2943 1440 92 500 190/11 RMK AO2 P0003 T00390028
04850KAOH AOH20160115162013001/15/16 16:20:31  5-MIN KAOH 152120Z AUTO 19011KT 5SM -RA BR SCT017 OVC045 04/03 A2942 1440 92 500 200/11 RMK AO2 P0004 T00390028
04850KAOH AOH20160115162512901/15/16 16:25:31  5-MIN KAOH 152125Z AUTO 19011KT 5SM RA BR SCT017 OVC045 04/03 A2942 1440 92 500 190/11 RMK AO2 P0005 T00390028
04850KAOH AOH20160115163013701/15/16 16:30:31  5-MIN KAOH 152130Z AUTO 19011KT 5SM -RA BR FEW017 BKN042 OVC050 04/03 A2942 1440 92 500 200/11 RMK AO2 P0005 T00390028
04850KAOH AOH20160115163513701/15/16 16:35:31  5-MIN KAOH 152135Z AUTO 19011KT 6SM -RA BR FEW017 FEW034 OVC045 04/03 A2942 1440 89 600 200/11 RMK AO2 P0006 T00440028
04850KAOH AOH20160115164013701/15/16 16:40:31  5-MIN KAOH 152140Z AUTO 19011KT 6SM -RA BR FEW017 FEW031 OVC045 04/03 A2942 1440 89 600 200/11 RMK AO2 P0006 T00440028
04850KAOH AOH20160115164513501/15/16 16:45:31  5-MIN KAOH 152145Z AUTO 19012G18KT 5SM RA BR FEW025 OVC045 04/03 A2942 1440 89 600 200/12G18 RMK AO2 P0007 T00440028
04850KAOH AOH20160115165014301/15/16 16:50:31  5-MIN KAOH 152150Z AUTO 19012KT 3SM RA BR FEW018 BKN042 OVC050 04/03 A2942 1450 89 600 200/12 RMK AO2 SLP966 P0008 T00440028
04850KAOH AOH20160115165513601/15/16 16:55:31  5-MIN KAOH 152155Z AUTO 19011KT 4SM RA BR FEW018 BKN042 OVC050 04/03 A2942 1450 89 600 200/11 RMK AO2 P0000 T00440028
04850KAOH AOH20160115170013701/15/16 17:00:31  5-MIN KAOH 152200Z AUTO 19012KT 4SM -RA BR SCT018 BKN037 OVC045 04/03 A2942 1440 89 600 200/12 RMK AO2 P0001 T00440028
04850KAOH AOH20160115170513701/15/16 17:05:31  5-MIN KAOH 152205Z AUTO 20011KT 5SM -RA BR SCT018 BKN029 OVC041 04/03 A2942 1440 89 600 210/11 RMK AO2 P0002 T00440028
04850KAOH AOH20160115171013701/15/16 17:10:31  5-MIN KAOH 152210Z AUTO 20011KT 5SM -RA BR BKN016 BKN026 OVC039 04/03 A2942 1440 92 500 200/11 RMK AO2 P0002 T00390028
04850KAOH AOH20160115171513001/15/16 17:15:31  5-MIN KAOH 152215Z AUTO 19012KT 4SM -RA BR BKN016 OVC039 04/03 A2942 1440 92 500 200/12 RMK AO2 P0002 T00390028
04850KAOH AOH20160115172013001/15/16 17:20:31  5-MIN KAOH 152220Z AUTO 20012KT 4SM -RA BR BKN016 OVC039 04/03 A2943 1440 92 500 200/12 RMK AO2 P0003 T00390028
04850KAOH AOH20160115172512301/15/16 17:25:31  5-MIN KAOH 152225Z AUTO 20012KT 4SM -RA BR OVC016 04/03 A2943 1440 92 500 200/12 RMK AO2 P0003 T00390028
04850KAOH AOH20160115173012301/15/16 17:30:31  5-MIN KAOH 152230Z AUTO 20013KT 4SM -RA BR OVC016 04/03 A2943 1440 92 500 210/13 RMK AO2 P0003 T00390028
04850KAOH AOH20160115173512001/15/16 17:35:31  5-MIN KAOH 152235Z AUTO 19013KT 7SM -RA OVC016 04/03 A2942 1440 92 500 200/13 RMK AO2 P0003 T00390028
04850KAOH AOH20160115174012701/15/16 17:40:31  5-MIN KAOH 152240Z AUTO 18016G22KT 10SM -RA OVC016 04/03 A2942 1440 92 500 190/16G22 RMK AO2 P0003 T00390028
04850KAOH AOH20160115174512101/15/16 17:45:31  5-MIN KAOH 152245Z AUTO 19016KT 10SM -RA OVC016 04/03 A2943 1440 92 500 190/16 RMK AO2 P0003 T00390028
04850KAOH AOH20160115175012801/15/16 17:50:31  5-MIN KAOH 152250Z AUTO 19013KT 10SM -RA OVC016 04/03 A2943 1430 92 500 200/13 RMK AO2 SLP971 P0003 T00390028
04850KAOH AOH20160115175512101/15/16 17:55:31  5-MIN KAOH 152255Z AUTO 19010KT 10SM -RA OVC016 04/03 A2943 1430 92 500 200/10 RMK AO2 P0000 T00390028
04850KAOH AOH20160115180012101/15/16 18:00:31  5-MIN KAOH 152300Z AUTO 19009KT 10SM -RA OVC016 04/03 A2943 1430 92 500 190/09 RMK AO2 P0000 T00390028
04850KAOH AOH20160115180512301/15/16 18:05:31  5-MIN KAOH 152305Z AUTO 18011KT 10SM OVC014 04/03 A2943 1430 92 500 190/11 RMK AO2 RAE04 P0000 T00390028
04850KAOH AOH20160115181013001/15/16 18:10:31  5-MIN KAOH 152310Z AUTO 18011KT 10SM -RA OVC014 04/03 A2943 1430 92 500 190/11 RMK AO2 RAE04B10 P0000 T00390028
04850KAOH AOH20160115181513001/15/16 18:15:31  5-MIN KAOH 152315Z AUTO 19010KT 10SM -RA OVC014 04/03 A2944 1430 92 500 200/10 RMK AO2 RAE04B10 P0000 T00390028
04850KAOH AOH20160115182013601/15/16 18:20:31  5-MIN KAOH 152320Z AUTO 21008KT 8SM -RA BKN014 OVC018 04/03 A2944 1430 92 500 210/08 RMK AO2 RAE04B10 P0000 T00390028
04850KAOH AOH20160115182513901/15/16 18:25:31  5-MIN KAOH 152325Z AUTO 20008KT 6SM -RA BR SCT010 OVC014 04/03 A2944 1430 92 500 210/08 RMK AO2 RAE04B10 P0001 T00390028
04850KAOH AOH20160115183012901/15/16 18:30:31  5-MIN KAOH 152330Z AUTO 19009KT 7SM -RA OVC012 04/03 A2944 1430 92 500 200/09 RMK AO2 RAE04B10 P0001 T00390028
04850KAOH AOH20160115183513601/15/16 18:35:31  5-MIN KAOH 152335Z AUTO 21008KT 9SM -RA BKN012 OVC017 04/03 A2944 1430 92 500 220/08 RMK AO2 RAE04B10 P0001 T00390028
04850KAOH AOH20160115184013601/15/16 18:40:31  5-MIN KAOH 152340Z AUTO 19009KT 9SM -RA BKN012 OVC017 04/03 A2944 1430 92 500 200/09 RMK AO2 RAE04B10 P0001 T00390028
04850KAOH AOH20160115184512901/15/16 18:45:31  5-MIN KAOH 152345Z AUTO 19012KT 9SM -RA OVC012 04/03 A2944 1430 92 500 190/12 RMK AO2 RAE04B10 P0002 T00390028
04850KAOH AOH20160115185016001/15/16 18:50:31  5-MIN KAOH 152350Z AUTO 19011KT 8SM -RA OVC012 04/03 A2944 1430 92 500 200/11 RMK AO2 RAE04B10 SLP974 P0002 60021 T00390028 10067 20039 56008
04850KAOH AOH20160115185512001/15/16 18:55:31  5-MIN KAOH 152355Z AUTO 19011KT 7SM -RA OVC012 04/03 A2944 1430 92 500 200/11 RMK AO2 P0000 T00390028
04850KAOH AOH20160115190013601/15/16 19:00:31  5-MIN KAOH 160000Z AUTO 20012G19KT 6SM -RA BR SCT009 OVC014 04/03 A2944 1430 92 500 200/12G19 RMK AO2 P0001 T00390028
04850KAOH AOH20160115190513301/15/16 19:05:31  5-MIN KAOH 160005Z AUTO 20011G19KT 7SM -RA FEW009 OVC012 04/03 A2944 1430 92 500 210/11G19 RMK AO2 P0001 T00390028
04850KAOH AOH20160115191012701/15/16 19:10:31  5-MIN KAOH 160010Z AUTO 20012G18KT 10SM -RA OVC012 04/03 A2943 1430 96 500 200/12G18 RMK AO2 P0001 T00390033
04850KAOH AOH20160115191512301/15/16 19:15:31  5-MIN KAOH 160015Z AUTO 20011KT 10SM OVC012 04/03 A2944 1420 96 500 210/11 RMK AO2 RAE14 P0001 T00390033
04850KAOH AOH20160115192012101/15/16 19:20:31  5-MIN KAOH 160020Z AUTO 21010KT 10SM -RA OVC012 04/03 A2944 1420 96 500 220/10 RMK AO2 P0001 T00390033
04850KAOH AOH20160115192512701/15/16 19:25:31  5-MIN KAOH 160025Z AUTO 20010KT 8SM -RA FEW007 OVC012 04/03 A2944 1430 96 500 210/10 RMK AO2 P0001 T00390033
04850KAOH AOH20160115193012001/15/16 19:30:31  5-MIN KAOH 160030Z AUTO 20010KT 8SM -RA OVC012 04/03 A2944 1430 96 500 210/10 RMK AO2 P0001 T00390033
04850KAOH AOH20160115193512601/15/16 19:35:31  5-MIN KAOH 160035Z AUTO 20012G18KT 8SM -RA OVC010 04/03 A2944 1430 96 500 210/12G18 RMK AO2 P0001 T00390033
04850KAOH AOH20160115194013201/15/16 19:40:31  5-MIN KAOH 160040Z AUTO 20010KT 9SM -RA OVC010 04/03 A2944 1420 96 500 210/10 RMK AO2 CIG 006V014 P0001 T00390033
04850KAOH AOH20160115194513201/15/16 19:45:31  5-MIN KAOH 160045Z AUTO 20010KT 8SM -RA OVC010 04/03 A2944 1420 96 500 210/10 RMK AO2 CIG 006V014 P0001 T00390033
04850KAOH AOH20160115195012501/15/16 19:50:31  5-MIN KAOH 160050Z AUTO 21010KT 5SM -RA BR OVC007 04/03 A2945 1420 96 500 210/10 RMK AO2 CIG 006V012 P0001
04850KAOH AOH20160115195512501/15/16 19:55:31  5-MIN KAOH 160055Z AUTO 21009KT 3SM BR OVC007 04/03 A2944 1420 96 500 210/09 RMK AO2 CIG 005V011 T00390033
04850KAOH AOH20160115200012901/15/16 20:00:31  5-MIN KAOH 160100Z AUTO 21010KT 2 1/2SM BR OVC007 04/03 A2945 1420 96 500 210/10 RMK AO2 CIG 005V011 T00390033
04850KAOH AOH20160115200512901/15/16 20:05:31  5-MIN KAOH 160105Z AUTO 21009KT 2 1/2SM BR OVC007 04/03 A2945 1420 96 500 220/09 RMK AO2 CIG 004V010 T00390033
04850KAOH AOH20160115201012501/15/16 20:10:31  5-MIN KAOH 160110Z AUTO 21010KT 3SM BR OVC005 04/03 A2945 1420 96 500 220/10 RMK AO2 CIG 004V010 T00390033
04850KAOH AOH20160115201512901/15/16 20:15:31  5-MIN KAOH 160115Z AUTO 22011KT 2 1/2SM BR OVC005 04/03 A2945 1420 96 500 220/11 RMK AO2 CIG 004V007 T00390033
04850KAOH AOH20160115202011301/15/16 20:20:31  5-MIN KAOH 160120Z AUTO 22011KT 2SM BR OVC005 04/03 A2945 1420 96 500 220/11 RMK AO2 T00390033
04850KAOH AOH20160115202511301/15/16 20:25:31  5-MIN KAOH 160125Z AUTO 22012KT 2SM BR OVC005 04/03 A2945 1410 96 500 220/12 RMK AO2 T00390033
04850KAOH AOH20160115203011301/15/16 20:30:31  5-MIN KAOH 160130Z AUTO 22010KT 2SM BR OVC005 04/03 A2945 1410 96 400 230/10 RMK AO2 T00390033
04850KAOH AOH20160115203513001/15/16 20:35:31  5-MIN KAOH 160135Z AUTO 23011KT 2SM -RA BR OVC005 04/04 A2945 1410 100 400 240/11 RMK AO2 RAB32 P0000 T00390039
04850KAOH AOH20160115204013401/15/16 20:40:31  5-MIN KAOH 160140Z AUTO 23012KT 2 1/2SM -RA BR OVC004 04/04 A2945 1410 100 400 240/12 RMK AO2 RAB32 P0000 T00390039
04850KAOH AOH20160115204514101/15/16 20:45:31  5-MIN KAOH 160145Z AUTO 24011KT 3SM BR OVC004 04/04 A2945 1410 100 400 250/11 RMK AO2 RAB32E44 CIG 003V008 P0000 T00390039
04850KAOH AOH20160115205013601/15/16 20:50:31  5-MIN KAOH 160150Z AUTO 25010KT 4SM BR OVC004 04/04 A2945 1410 100 400 250/10 RMK AO2 RAB32E44 SLP979 P0000 T00390039
04850KAOH AOH20160115205512101/15/16 20:55:31  5-MIN KAOH 160155Z AUTO 23011KT 6SM BR BKN004 OVC009 04/04 A2945 1410 100 400 240/11 RMK AO2 T00390039
04850KAOH AOH20160115210013901/15/16 21:00:31  5-MIN KAOH 160200Z AUTO 23012KT 6SM BR BKN004 BKN011 OVC034 04/03 A2945 1420 92 500 240/12 RMK AO2 CIG 004V008 T00440033
04850KAOH AOH20160115210512901/15/16 21:05:31  5-MIN KAOH 160205Z AUTO 23009KT 7SM BKN005 OVC036 04/03 A2945 1420 92 500 230/09 RMK AO2 CIG 004V008 T00440033
04850KAOH AOH20160115211012901/15/16 21:10:31  5-MIN KAOH 160210Z AUTO 23007KT 7SM BKN005 OVC036 04/03 A2945 1420 96 500 230/07 RMK AO2 CIG 004V008 T00390033
04850KAOH AOH20160115211512001/15/16 21:15:31  5-MIN KAOH 160215Z AUTO 23009KT 6SM BR BKN005 OVC038 04/03 A2945 1420 96 500 240/09 RMK AO2 T00390033
04850KAOH AOH20160115212012001/15/16 21:20:31  5-MIN KAOH 160220Z AUTO 24010KT 6SM BR BKN005 OVC038 04/03 A2945 1410 96 500 240/10 RMK AO2 T00390033
04850KAOH AOH20160115212512001/15/16 21:25:31  5-MIN KAOH 160225Z AUTO 24010KT 6SM BR BKN005 OVC038 04/03 A2945 1410 96 500 240/10 RMK AO2 T00390033
04850KAOH AOH20160115213012001/15/16 21:30:31  5-MIN KAOH 160230Z AUTO 24010KT 6SM BR BKN005 OVC038 04/03 A2945 1410 96 500 240/10 RMK AO2 T00390033
04850KAOH AOH20160115213512001/15/16 21:35:31  5-MIN KAOH 160235Z AUTO 24010KT 6SM BR BKN005 OVC040 04/03 A2945 1410 96 500 250/10 RMK AO2 T00390033
04850KAOH AOH20160115214011301/15/16 21:40:31  5-MIN KAOH 160240Z AUTO 24010KT 6SM BR OVC005 04/03 A2945 1410 96 400 250/10 RMK AO2 T00390033
04850KAOH AOH20160115214511301/15/16 21:45:31  5-MIN KAOH 160245Z AUTO 23010KT 6SM BR OVC005 04/03 A2945 1420 96 500 240/10 RMK AO2 T00390033
04850KAOH AOH20160115215013901/15/16 21:50:31  5-MIN KAOH 160250Z AUTO 24009KT 5SM BR BKN005 OVC045 04/03 A2945 1410 96 400 250/09 RMK AO2 SLP979 60001 T00390033 53004
04850KAOH AOH20160115215512701/15/16 21:55:31  5-MIN KAOH 160255Z AUTO 24009KT 5SM BR BKN005 BKN016 OVC045 04/03 A2945 1410 96 400 250/09 RMK AO2 T00390033
04850KAOH AOH20160115220012701/15/16 22:00:31  5-MIN KAOH 160300Z AUTO 25009KT 5SM BR BKN005 BKN016 OVC045 04/03 A2945 1410 96 400 260/09 RMK AO2 T00390033
04850KAOH AOH20160115220512701/15/16 22:05:31  5-MIN KAOH 160305Z AUTO 25009KT 5SM BR BKN005 BKN011 OVC045 04/03 A2945 1410 96 400 250/09 RMK AO2 T00390033
04850KAOH AOH20160115221013201/15/16 22:10:31  5-MIN KAOH 160310Z AUTO 24008KT 5SM BR BKN007 OVC014 04/03 A2945 1410 96 400 250/08 RMK AO2 CIG 004V011 T00390033
04850KAOH AOH20160115221513201/15/16 22:15:31  5-MIN KAOH 160315Z AUTO 25010KT 5SM BR BKN007 OVC014 04/03 A2946 1410 96 400 260/10 RMK AO2 CIG 004V011 T00390033
04850KAOH AOH20160115222012101/15/16 22:20:31  5-MIN KAOH 160320Z AUTO 26011KT 5SM BR BKN005 OVC009 04/04 A2946 1410 100 400 260/11 RMK AO2 T00390039
04850KAOH AOH20160115222512101/15/16 22:25:31  5-MIN KAOH 160325Z AUTO 26012KT 4SM BR BKN005 OVC009 04/04 A2946 1410 100 400 270/12 RMK AO2 T00390039
04850KAOH AOH20160115223012101/15/16 22:30:31  5-MIN KAOH 160330Z AUTO 26012KT 3SM BR BKN005 OVC009 04/04 A2946 1410 100 400 270/12 RMK AO2 T00390039
04850KAOH AOH20160115223513001/15/16 22:35:31  5-MIN KAOH 160335Z AUTO 26011KT 2 1/2SM BR OVC003 04/04 A2946 1400 100 400 270/11 RMK AO2 CIG 002V006 T00390039
04850KAOH AOH20160115224014701/15/16 22:40:31  5-MIN KAOH 160340Z AUTO 29016G21KT 2SM -RA BR OVC003 04/03 A2947 1400 96 400 290/16G21 RMK AO2 RAB39 CIG 002V006 P0000 T00390033
04850KAOH AOH20160115224514001/15/16 22:45:31  5-MIN KAOH 160345Z AUTO 27017G25KT 2 1/2SM -RA BR OVC003 03/03 A2947 1400 100 300 280/17G25 RMK AO2 RAB39 P0000 T00280028
04850KAOH AOH20160115225015601/15/16 22:50:31  5-MIN KAOH 160350Z AUTO 27021G26KT 3SM -RA BR OVC003 02/02 A2947 1390 100 200 280/21G26 RMK AO2 PK WND 26026/0348 RAB39 CIG 002V007 P0000
04850KAOH AOH20160115225513101/15/16 22:55:31  5-MIN KAOH 160355Z AUTO 27017G26KT 4SM BR OVC003 02/02 A2948 1390 96 200 280/17G26 RMK AO2 CIG 002V007 T00220017
04850KAOH AOH20160115230015001/15/16 23:00:31  5-MIN KAOH 160400Z AUTO 28018G30KT 3SM BR OVC003 02/02 A2948 1390 100 100 280/18G30 RMK AO2 PK WND 26030/0357 CIG 002V007 T00170017
04850KAOH AOH20160115230515301/15/16 23:05:31  5-MIN KAOH 160405Z AUTO 28021G30KT 2 1/2SM BR OVC004 02/01 A2948 1390 96 100 280/21G30 RMK AO2 PK WND 26030/0357 CIG 002V007 T00170011
04850KAOH AOH20160115231014901/15/16 23:10:31  5-MIN KAOH 160410Z AUTO 28018G26KT 2SM BR OVC004 02/01 A2948 1390 96 100 280/18G26 RMK AO2 PK WND 26030/0357 CIG 002V007 T00170011
04850KAOH AOH20160115231514801/15/16 23:15:31  5-MIN KAOH 160415Z AUTO 27019KT 1 3/4SM BR OVC004 01/01 A2949 1380 100 100 280/19 RMK AO2 PK WND 26030/0357 CIG 002V007 T00110011
04850KAOH AOH20160115232014901/15/16 23:20:31  5-MIN KAOH 160420Z AUTO 27024G28KT 2SM BR OVC004 01/01 A2949 1380 96 100 280/24G28 RMK AO2 PK WND 26030/0357 CIG 002V008 T00110006
04850KAOH AOH20160115232515301/15/16 23:25:31  5-MIN KAOH 160425Z AUTO 27019G28KT 2 1/2SM BR OVC004 01/01 A2949 1370 96 100 280/19G28 RMK AO2 PK WND 26030/0357 CIG 002V008 T00110006
04850KAOH AOH20160115233014701/15/16 23:30:31  5-MIN KAOH 160430Z AUTO 28020KT 2 1/2SM BR OVC004 01/01 A2949 1370 96 100 290/20 RMK AO2 PK WND 26030/0357 CIG 002V008 T00110006
04850KAOH AOH20160115233514701/15/16 23:35:31  5-MIN KAOH 160435Z AUTO 27015G26KT 3SM BR OVC004 01/00 A2950 1370 96 0 270/15G26 RMK AO2 PK WND 26030/0357 CIG 002V008 T00060000
04850KAOH AOH20160115234014801/15/16 23:40:31  5-MIN KAOH 160440Z AUTO 27020G26KT 3SM BR OVC004 01/01 A2950 1370 100 0 280/20G26 RMK AO2 PK WND 26030/0357 CIG 002V008 T00060006
04850KAOH AOH20160115234515101/15/16 23:45:31  5-MIN KAOH 160445Z AUTO 27017G22KT 2 1/2SM BR OVC004 01/00 A2950 1370 96 0 270/17G22 RMK AO2 PK WND 26030/0357 CIG 002V008 T00060000
04850KAOH AOH20160115235015201/15/16 23:50:31  5-MIN KAOH 160450Z AUTO 27018G24KT 2SM BR OVC004 01/00 A2950 1370 96 0 270/18G24 RMK AO2 PK WND 26030/0357 SLP996 T00060000 400670006
04850KAOH AOH20160115235511701/15/16 23:55:31  5-MIN KAOH 160455Z AUTO 27018G24KT 2SM BR OVC004 01/00 A2950 1370 96 0 270/18G24 RMK AO2 T00060000
04850KAOH AOH20160116000011201/16/16 00:00:31  5-MIN KAOH 160500Z AUTO 27018KT 2SM BR OVC004 00/00 A2951 1360 100 0 270/18 RMK AO2 T00000000
04850KAOH AOH20160116000511201/16/16 00:05:31  5-MIN KAOH 160505Z AUTO 27016KT 2SM BR OVC004 00/00 A2951 1360 100 0 280/16 RMK AO2 T00000000
04850KAOH AOH20160116001011901/16/16 00:10:31  5-MIN KAOH 160510Z AUTO 27015KT 1 3/4SM BR OVC004 00/00 A2951 1360 100 -100 270/15 RMK AO2 T00000000
04850KAOH AOH20160116001512501/16/16 00:15:31  5-MIN KAOH 160515Z AUTO 27018G23KT 1 1/2SM BR OVC004 00/00 A2951 1360 100 -100 270/18G23 RMK AO2 T00000000
04850KAOH AOH20160116002011901/16/16 00:20:31  5-MIN KAOH 160520Z AUTO 27017KT 1 1/2SM BR OVC004 00/00 A2952 1350 100 -100 270/17 RMK AO2 T00000000
04850KAOH AOH20160116002511901/16/16 00:25:31  5-MIN KAOH 160525Z AUTO 26015KT 1 1/2SM BR OVC004 00/00 A2952 1350 100 -100 270/15 RMK AO2 T00000000
04850KAOH AOH20160116003011901/16/16 00:30:31  5-MIN KAOH 160530Z AUTO 26015KT 1 3/4SM BR OVC003 00/00 A2952 1350 100 -100 270/15 RMK AO2 T00000000
04850KAOH AOH20160116003512501/16/16 00:35:31  5-MIN KAOH 160535Z AUTO 26017G22KT 1 3/4SM BR OVC003 00/00 A2952 1350 100 -100 270/17G22 RMK AO2 T00000000
04850KAOH AOH20160116004012101/16/16 00:40:31  5-MIN KAOH 160540Z AUTO 26017G23KT 2SM BR OVC003 00/00 A2952 1350 100 -100 270/17G23 RMK AO2 T00000000
04850KAOH AOH20160116004512101/16/16 00:45:31  5-MIN KAOH 160545Z AUTO 26016G23KT 2SM BR OVC004 00/M01 A2953 1340 96 -100 270/16G23 RMK AO2 T00001006
04850KAOH AOH20160116005014601/16/16 00:50:31  5-MIN KAOH 160550Z AUTO 26015KT 2SM BR OVC004 00/M01 A2953 1340 96 -100 270/15 RMK AO2 SLP005 60001 T00001006 10044 20000 51005
04850KAOH AOH20160116005512101/16/16 00:55:31  5-MIN KAOH 160555Z AUTO 26016G22KT 2SM BR OVC004 00/M01 A2953 1340 96 -100 270/16G22 RMK AO2 T00001006
04850KAOH AOH20160116010012101/16/16 01:00:31  5-MIN KAOH 160600Z AUTO 26017G25KT 2SM BR OVC004 00/M01 A2953 1340 96 -100 270/17G25 RMK AO2 T00001006
04850KAOH AOH20160116010512101/16/16 01:05:31  5-MIN KAOH 160605Z AUTO 26015G25KT 2SM BR OVC004 00/M01 A2953 1340 96 -100 270/15G25 RMK AO2 T00001006
04850KAOH AOH20160116011011501/16/16 01:10:31  5-MIN KAOH 160610Z AUTO 27017KT 2SM BR OVC004 00/M01 A2953 1340 96 -100 270/17 RMK AO2 T00001006
04850KAOH AOH20160116011511901/16/16 01:15:31  5-MIN KAOH 160615Z AUTO 27018KT 2 1/2SM BR OVC004 00/M01 A2953 1340 96 -100 270/18 RMK AO2 T00001006
04850KAOH AOH20160116012011901/16/16 01:20:31  5-MIN KAOH 160620Z AUTO 26015KT 2 1/2SM BR OVC005 00/M01 A2953 1340 96 -100 270/15 RMK AO2 T00001006
04850KAOH AOH20160116012512101/16/16 01:25:31  5-MIN KAOH 160625Z AUTO 27015G22KT 3SM BR OVC005 00/M01 A2952 1350 96 -100 270/15G22 RMK AO2 T00001006
04850KAOH AOH20160116013011501/16/16 01:30:31  5-MIN KAOH 160630Z AUTO 27014KT 3SM BR OVC005 00/M01 A2952 1350 96 -100 280/14 RMK AO2 T00001006
04850KAOH AOH20160116013512101/16/16 01:35:31  5-MIN KAOH 160635Z AUTO 27015G22KT 3SM BR OVC005 00/M01 A2952 1350 96 -100 270/15G22 RMK AO2 T00001006
04850KAOH AOH20160116014011501/16/16 01:40:31  5-MIN KAOH 160640Z AUTO 27016KT 3SM BR OVC005 00/M01 A2952 1350 96 -100 280/16 RMK AO2 T00001006
04850KAOH AOH20160116014511501/16/16 01:45:31  5-MIN KAOH 160645Z AUTO 27015KT 4SM BR OVC005 00/M01 A2952 1350 96 -100 280/15 RMK AO2 T00001006
04850KAOH AOH20160116015012201/16/16 01:50:31  5-MIN KAOH 160650Z AUTO 28016KT 4SM BR OVC006 00/M01 A2952 1350 96 -100 280/16 RMK AO2 SLP004 T00001006
04850KAOH AOH20160116015512101/16/16 01:55:31  5-MIN KAOH 160655Z AUTO 27015G21KT 4SM BR OVC006 00/M01 A2953 1340 96 -100 280/15G21 RMK AO2 T00001006
04850KAOH AOH20160116020012101/16/16 02:00:31  5-MIN KAOH 160700Z AUTO 27015G21KT 4SM BR OVC006 00/M01 A2953 1340 96 -100 280/15G21 RMK AO2 T00001006
04850KAOH AOH20160116020511501/16/16 02:05:31  5-MIN KAOH 160705Z AUTO 27013KT 5SM BR OVC006 00/M01 A2953 1340 96 -100 280/13 RMK AO2 T00001006
04850KAOH AOH20160116021011501/16/16 02:10:31  5-MIN KAOH 160710Z AUTO 27016KT 4SM BR OVC006 00/00 A2953 1340 100 -100 280/16 RMK AO2 T00000000
04850KAOH AOH20160116021512101/16/16 02:15:31  5-MIN KAOH 160715Z AUTO 27017G21KT 5SM BR OVC006 00/M01 A2953 1340 96 -100 280/17G21 RMK AO2 T00001006
04850KAOH AOH20160116022011501/16/16 02:20:31  5-MIN KAOH 160720Z AUTO 27013KT 5SM BR OVC006 00/M01 A2953 1340 96 -100 280/13 RMK AO2 T00001006
04850KAOH AOH20160116022511501/16/16 02:25:31  5-MIN KAOH 160725Z AUTO 27014KT 5SM BR OVC006 00/M01 A2954 1330 96 -100 280/14 RMK AO2 T00001006
04850KAOH AOH20160116023011501/16/16 02:30:31  5-MIN KAOH 160730Z AUTO 28012KT 5SM BR OVC006 00/M01 A2954 1330 96 -100 290/12 RMK AO2 T00001006
04850KAOH AOH20160116023511501/16/16 02:35:31  5-MIN KAOH 160735Z AUTO 27015KT 5SM BR OVC006 00/M01 A2954 1330 96 -100 280/15 RMK AO2 T00001006
04850KAOH AOH20160116024011501/16/16 02:40:31  5-MIN KAOH 160740Z AUTO 28015KT 5SM BR OVC006 00/M01 A2954 1330 96 -100 280/15 RMK AO2 T00001006
04850KAOH AOH20160116024511501/16/16 02:45:31  5-MIN KAOH 160745Z AUTO 28014KT 5SM BR OVC006 00/M01 A2955 1320 96 -100 290/14 RMK AO2 T00001006
04850KAOH AOH20160116025012201/16/16 02:50:31  5-MIN KAOH 160750Z AUTO 27014KT 5SM BR OVC006 00/M01 A2955 1320 96 -100 280/14 RMK AO2 SLP013 T00001006
04850KAOH AOH20160116025511501/16/16 02:55:31  5-MIN KAOH 160755Z AUTO 27016KT 5SM BR OVC006 00/M01 A2955 1320 96 -100 270/16 RMK AO2 T00001006
04850KAOH AOH20160116030011501/16/16 03:00:31  5-MIN KAOH 160800Z AUTO 28013KT 5SM BR OVC006 00/00 A2955 1320 100 -100 280/13 RMK AO2 T00000000
04850KAOH AOH20160116030512101/16/16 03:05:31  5-MIN KAOH 160805Z AUTO 29016G23KT 5SM BR OVC006 00/M01 A2955 1330 96 -100 290/16G23 RMK AO2 T00001006
04850KAOH AOH20160116031011801/16/16 03:10:31  5-MIN KAOH 160810Z AUTO 27015G23KT 5SM BR OVC006 01/M01 A2955 1320 92 0 280/15G23 RMK AO2 T00061006
04850KAOH AOH20160116031511801/16/16 03:15:31  5-MIN KAOH 160815Z AUTO 28016G21KT 5SM BR OVC006 01/M01 A2956 1320 92 0 280/16G21 RMK AO2 T00061006
04850KAOH AOH20160116032011201/16/16 03:20:31  5-MIN KAOH 160820Z AUTO 29014KT 6SM BR OVC006 01/M01 A2955 1320 92 0 290/14 RMK AO2 T00061006
04850KAOH AOH20160116032511801/16/16 03:25:31  5-MIN KAOH 160825Z AUTO 28015G25KT 6SM BR OVC007 01/M01 A2956 1310 92 0 290/15G25 RMK AO2 T00061006
04850KAOH AOH20160116033011801/16/16 03:30:31  5-MIN KAOH 160830Z AUTO 28014G25KT 6SM BR OVC007 01/M01 A2956 1310 92 0 280/14G25 RMK AO2 T00061006
04850KAOH AOH20160116033511201/16/16 03:35:31  5-MIN KAOH 160835Z AUTO 28014KT 6SM BR OVC007 01/M01 A2956 1310 92 0 280/14 RMK AO2 T00061006
04850KAOH AOH20160116034011801/16/16 03:40:31  5-MIN KAOH 160840Z AUTO 27013G20KT 6SM BR OVC007 01/M01 A2957 1310 92 0 280/13G20 RMK AO2 T00061006
04850KAOH AOH20160116034512101/16/16 03:45:31  5-MIN KAOH 160845Z AUTO 28015G20KT 6SM BR OVC007 00/M01 A2957 1310 96 -100 290/15G20 RMK AO2 T00001006
04850KAOH AOH20160116035012501/16/16 03:50:31  5-MIN KAOH 160850Z AUTO 28016KT 6SM BR OVC007 01/M01 A2957 1300 92 0 280/16 RMK AO2 SLP020 T00061006 53017
04850KAOH AOH20160116035511501/16/16 03:55:31  5-MIN KAOH 160855Z AUTO 28013KT 6SM BR OVC007 00/M01 A2957 1300 96 -100 290/13 RMK AO2 T00001006
04850KAOH AOH20160116040011501/16/16 04:00:31  5-MIN KAOH 160900Z AUTO 28014KT 6SM BR OVC007 00/M01 A2958 1300 96 -100 290/14 RMK AO2 T00001006
04850KAOH AOH20160116040511501/16/16 04:05:31  5-MIN KAOH 160905Z AUTO 28016KT 6SM BR OVC006 00/M01 A2958 1290 96 -100 280/16 RMK AO2 T00001006
04850KAOH AOH20160116041011501/16/16 04:10:31  5-MIN KAOH 160910Z AUTO 27012KT 5SM BR OVC006 00/00 A2958 1290 100 -100 280/12 RMK AO2 T00000000
04850KAOH AOH20160116041512701/16/16 04:15:31  5-MIN KAOH 160915Z AUTO 27014KT 5SM BR OVC006 00/00 A2958 1290 100 -100 280/14 RMK AO2 CIG 005V009 T00000000
04850KAOH AOH20160116042012701/16/16 04:20:31  5-MIN KAOH 160920Z AUTO 27013KT 6SM BR OVC006 01/M01 A2959 1290 92 -100 280/13 RMK AO2 CIG 005V009 T00061006
04850KAOH AOH20160116042512401/16/16 04:25:31  5-MIN KAOH 160925Z AUTO 27011KT 7SM OVC006 01/M01 A2959 1290 92 -100 280/11 RMK AO2 CIG 005V009 T00061006
04850KAOH AOH20160116043012401/16/16 04:30:31  5-MIN KAOH 160930Z AUTO 27014KT 7SM OVC008 01/M01 A2959 1280 92 -100 280/14 RMK AO2 CIG 005V012 T00061006
04850KAOH AOH20160116043512401/16/16 04:35:31  5-MIN KAOH 160935Z AUTO 27017KT 8SM OVC008 01/M01 A2959 1280 92 -100 280/17 RMK AO2 CIG 005V012 T00061006
04850KAOH AOH20160116044012401/16/16 04:40:31  5-MIN KAOH 160940Z AUTO 27016KT 9SM OVC008 01/M01 A2960 1280 92 -100 280/16 RMK AO2 CIG 006V012 T00061006
04850KAOH AOH20160116044511901/16/16 04:45:31  5-MIN KAOH 160945Z AUTO 28017G25KT 10SM OVC008 01/M01 A2960 1280 89 -100 290/17G25 RMK AO2 T00061011
04850KAOH AOH20160116045012601/16/16 04:50:31  5-MIN KAOH 160950Z AUTO 28018G25KT 10SM OVC009 00/M01 A2960 1270 92 -200 290/18G25 RMK AO2 SLP031 T00001011
04850KAOH AOH20160116045511901/16/16 04:55:31  5-MIN KAOH 160955Z AUTO 29015G25KT 10SM OVC009 00/M01 A2961 1270 92 -200 290/15G25 RMK AO2 T00001011
04850KAOH AOH20160116050011901/16/16 05:00:31  5-MIN KAOH 161000Z AUTO 28017G25KT 10SM OVC009 00/M01 A2961 1260 92 -200 290/17G25 RMK AO2 T00001011
04850KAOH AOH20160116050511301/16/16 05:05:31  5-MIN KAOH 161005Z AUTO 29017KT 10SM OVC009 00/M01 A2961 1260 92 -200 290/17 RMK AO2 T00001011
04850KAOH AOH20160116051011201/16/16 05:10:31  5-MIN KAOH 161010Z AUTO 28017KT 9SM OVC008 00/M01 A2962 1260 92 -200 290/17 RMK AO2 T00001011
04850KAOH AOH20160116051511201/16/16 05:15:31  5-MIN KAOH 161015Z AUTO 29019KT 8SM OVC008 00/M01 A2962 1260 92 -200 290/19 RMK AO2 T00001011
04850KAOH AOH20160116052011801/16/16 05:20:31  5-MIN KAOH 161020Z AUTO 29015G24KT 8SM OVC007 00/M01 A2962 1250 92 -200 290/15G24 RMK AO2 T00001011
04850KAOH AOH20160116052511201/16/16 05:25:31  5-MIN KAOH 161025Z AUTO 28017KT 9SM OVC007 00/M01 A2963 1250 92 -200 290/17 RMK AO2 T00001011
04850KAOH AOH20160116053011901/16/16 05:30:31  5-MIN KAOH 161030Z AUTO 28015KT 9SM BKN007 OVC012 00/M01 A2963 1250 92 -200 290/15 RMK AO2 T00001011
04850KAOH AOH20160116053513201/16/16 05:35:31  5-MIN KAOH 161035Z AUTO 28016KT 10SM BKN007 OVC012 00/M01 A2963 1240 92 -200 290/16 RMK AO2 CIG 006V010 T00001011
04850KAOH AOH20160116054012001/16/16 05:40:31  5-MIN KAOH 161040Z AUTO 28012KT 10SM SCT007 OVC016 00/M01 A2964 1240 92 -200 290/12 RMK AO2 T00001011
04850KAOH AOH20160116054513201/16/16 05:45:31  5-MIN KAOH 161045Z AUTO 28014KT 10SM BKN009 OVC014 00/M01 A2964 1240 92 -200 290/14 RMK AO2 CIG 007V011 T00001011
04850KAOH AOH20160116055013801/16/16 05:50:31  5-MIN KAOH 161050Z AUTO 28012KT 8SM BKN009 OVC014 00/M01 A2964 1240 92 -200 280/12 RMK AO2 CIG 008V011 SLP044 T00001011
04850KAOH AOH20160116055513101/16/16 05:55:31  5-MIN KAOH 161055Z AUTO 27014KT 7SM BKN009 OVC016 00/M01 A2964 1230 92 -200 280/14 RMK AO2 CIG 007V012 T00001011
04850KAOH AOH20160116060011201/16/16 06:00:31  5-MIN KAOH 161100Z AUTO 29013KT 8SM OVC012 00/M01 A2964 1230 92 -200 290/13 RMK AO2 T00001011
04850KAOH AOH20160116060511901/16/16 06:05:31  5-MIN KAOH 161105Z AUTO 28016KT 9SM SCT009 OVC012 00/M02 A2964 1230 88 -200 290/16 RMK AO2 T00001017
04850KAOH AOH20160116061011901/16/16 06:10:31  5-MIN KAOH 161110Z AUTO 29015G23KT 10SM OVC012 00/M02 A2964 1230 88 -200 290/15G23 RMK AO2 T00001017
04850KAOH AOH20160116061512601/16/16 06:15:31  5-MIN KAOH 161115Z AUTO 29012G23KT 10SM SCT009 OVC012 00/M02 A2965 1230 88 -200 290/12G23 RMK AO2 T00001017
04850KAOH AOH20160116062011301/16/16 06:20:31  5-MIN KAOH 161120Z AUTO 29013KT 10SM OVC012 00/M02 A2965 1230 88 -200 290/13 RMK AO2 T00001017
04850KAOH AOH20160116062511301/16/16 06:25:31  5-MIN KAOH 161125Z AUTO 29015KT 10SM OVC012 00/M02 A2965 1230 88 -200 290/15 RMK AO2 T00001017
04850KAOH AOH20160116063011901/16/16 06:30:31  5-MIN KAOH 161130Z AUTO 28014G20KT 10SM OVC012 00/M02 A2965 1230 88 -200 290/14G20 RMK AO2 T00001017
04850KAOH AOH20160116063511301/16/16 06:35:31  5-MIN KAOH 161135Z AUTO 28013KT 10SM OVC012 00/M02 A2965 1230 88 -200 280/13 RMK AO2 T00001017
04850KAOH AOH20160116064011301/16/16 06:40:31  5-MIN KAOH 161140Z AUTO 28015KT 10SM OVC012 00/M02 A2966 1220 88 -200 290/15 RMK AO2 T00001017
04850KAOH AOH20160116064511301/16/16 06:45:31  5-MIN KAOH 161145Z AUTO 29014KT 10SM OVC011 00/M02 A2966 1220 88 -200 300/14 RMK AO2 T00001017
04850KAOH AOH20160116065014401/16/16 06:50:31  5-MIN KAOH 161150Z AUTO 28013KT 10SM OVC011 00/M02 A2966 1220 88 -200 290/13 RMK AO2 SLP052 70023 T00001017 10006 20000 53013
04850KAOH AOH20160116065511301/16/16 06:55:31  5-MIN KAOH 161155Z AUTO 28013KT 10SM OVC011 00/M02 A2967 1210 88 -200 290/13 RMK AO2 T00001017
04850KAOH AOH20160116070012001/16/16 07:00:31  5-MIN KAOH 161200Z AUTO 28012KT 10SM BKN011 OVC021 00/M02 A2967 1210 88 -200 290/12 RMK AO2 T00001017
04850KAOH AOH20160116070512701/16/16 07:05:31  5-MIN KAOH 161205Z AUTO 28012KT 10SM BKN013 BKN021 OVC028 00/M02 A2967 1210 88 -200 290/12 RMK AO2 T00001017
04850KAOH AOH20160116071012701/16/16 07:10:31  5-MIN KAOH 161210Z AUTO 28013KT 10SM BKN013 BKN019 OVC028 00/M02 A2967 1210 88 -200 290/13 RMK AO2 T00001017
04850KAOH AOH20160116071512701/16/16 07:15:31  5-MIN KAOH 161215Z AUTO 29015KT 10SM BKN013 BKN019 OVC028 00/M02 A2967 1210 88 -200 290/15 RMK AO2 T00001017
04850KAOH AOH20160116072012701/16/16 07:20:31  5-MIN KAOH 161220Z AUTO 29013KT 10SM SCT013 BKN021 OVC028 00/M02 A2968 1200 88 -200 290/13 RMK AO2 T00001017
04850KAOH AOH20160116072512701/16/16 07:25:31  5-MIN KAOH 161225Z AUTO 29012KT 10SM SCT013 BKN021 OVC028 00/M02 A2968 1200 88 -300 290/12 RMK AO2 T00001017
04850KAOH AOH20160116073012701/16/16 07:30:31  5-MIN KAOH 161230Z AUTO 29015KT 10SM SCT013 BKN021 OVC028 00/M02 A2969 1190 88 -300 290/15 RMK AO2 T00001017
04850KAOH AOH20160116073512701/16/16 07:35:31  5-MIN KAOH 161235Z AUTO 29014KT 10SM FEW013 BKN021 OVC028 00/M02 A2969 1190 88 -300 290/14 RMK AO2 T00001017
04850KAOH AOH20160116074012001/16/16 07:40:31  5-MIN KAOH 161240Z AUTO 28013KT 10SM SCT013 OVC020 00/M02 A2969 1190 88 -300 290/13 RMK AO2 T00001017
04850KAOH AOH20160116074512001/16/16 07:45:31  5-MIN KAOH 161245Z AUTO 29013KT 10SM SCT013 OVC020 00/M02 A2969 1190 88 -300 290/13 RMK AO2 T00001017
04850KAOH AOH20160116075013401/16/16 07:50:31  5-MIN KAOH 161250Z AUTO 28012KT 10SM FEW013 BKN020 OVC024 00/M02 A2970 1180 88 -300 290/12 RMK AO2 SLP063 T00001017
04850KAOH AOH20160116075512701/16/16 07:55:31  5-MIN KAOH 161255Z AUTO 28013KT 10SM FEW013 BKN020 OVC025 00/M02 A2970 1180 88 -300 290/13 RMK AO2 T00001017
04850KAOH AOH20160116080012001/16/16 08:00:31  5-MIN KAOH 161300Z AUTO 29014KT 10SM FEW012 OVC022 00/M02 A2970 1180 85 -300 290/14 RMK AO2 T00001022
04850KAOH AOH20160116080512001/16/16 08:05:31  5-MIN KAOH 161305Z AUTO 28014KT 10SM FEW012 OVC022 00/M02 A2970 1180 85 -300 290/14 RMK AO2 T00001022
04850KAOH AOH20160116081011301/16/16 08:10:31  5-MIN KAOH 161310Z AUTO 29013KT 10SM OVC022 00/M02 A2970 1180 85 -300 290/13 RMK AO2 T00001022
04850KAOH AOH20160116081512001/16/16 08:15:31  5-MIN KAOH 161315Z AUTO 28013KT 10SM BKN022 OVC026 00/M02 A2970 1180 85 -300 290/13 RMK AO2 T00001022
04850KAOH AOH20160116082012001/16/16 08:20:31  5-MIN KAOH 161320Z AUTO 28012KT 10SM FEW015 OVC022 00/M02 A2971 1180 85 -300 290/12 RMK AO2 T00001022
04850KAOH AOH20160116082512001/16/16 08:25:31  5-MIN KAOH 161325Z AUTO 29011KT 10SM SCT015 OVC021 00/M02 A2971 1170 85 -300 290/11 RMK AO2 T00001022
04850KAOH AOH20160116083012001/16/16 08:30:31  5-MIN KAOH 161330Z AUTO 29011KT 10SM BKN016 OVC021 00/M02 A2971 1170 85 -300 290/11 RMK AO2 T00001022
04850KAOH AOH20160116083512001/16/16 08:35:31  5-MIN KAOH 161335Z AUTO 28011KT 10SM BKN016 OVC021 00/M02 A2971 1170 85 -300 290/11 RMK AO2 T00001022
04850KAOH AOH20160116084011301/16/16 08:40:31  5-MIN KAOH 161340Z AUTO 29011KT 10SM OVC016 00/M02 A2972 1170 85 -300 290/11 RMK AO2 T00001022
04850KAOH AOH20160116084511301/16/16 08:45:31  5-MIN KAOH 161345Z AUTO 30014KT 10SM OVC016 00/M02 A2972 1160 85 -300 300/14 RMK AO2 T00001022
04850KAOH AOH20160116085012601/16/16 08:50:31  5-MIN KAOH 161350Z AUTO 30016G21KT 10SM OVC016 00/M02 A2972 1160 85 -300 300/16G21 RMK AO2 SLP072 T00001022
04850KAOH AOH20160116085511301/16/16 08:55:31  5-MIN KAOH 161355Z AUTO 29014KT 10SM OVC016 00/M02 A2972 1160 85 -300 300/14 RMK AO2 T00001022
04850KAOH AOH20160116090011301/16/16 09:00:31  5-MIN KAOH 161400Z AUTO 30014KT 10SM OVC018 00/M02 A2973 1160 85 -300 310/14 RMK AO2 T00001022
04850KAOH AOH20160116090511301/16/16 09:05:31  5-MIN KAOH 161405Z AUTO 30011KT 10SM OVC018 00/M02 A2973 1160 85 -300 300/11 RMK AO2 T00001022
04850KAOH AOH20160116091012001/16/16 09:10:31  5-MIN KAOH 161410Z AUTO 30011KT 10SM BKN016 OVC021 00/M02 A2973 1150 85 -300 300/11 RMK AO2 T00001022
04850KAOH AOH20160116091511301/16/16 09:15:31  5-MIN KAOH 161415Z AUTO 29014KT 10SM OVC016 00/M02 A2973 1150 85 -300 300/14 RMK AO2 T00001022
04850KAOH AOH20160116092013301/16/16 09:20:31  5-MIN KAOH 161420Z AUTO 30012G19KT 10SM BKN016 BKN021 OVC036 00/M02 A2974 1150 85 -300 300/12G19 RMK AO2 T00001022
04850KAOH AOH20160116092513301/16/16 09:25:31  5-MIN KAOH 161425Z AUTO 30015G20KT 10SM SCT016 BKN021 OVC034 00/M03 A2974 1150 81 -300 310/15G20 RMK AO2 T00001028
04850KAOH AOH20160116093012601/16/16 09:30:31  5-MIN KAOH 161430Z AUTO 29013G20KT 10SM SCT016 OVC034 00/M03 A2974 1140 81 -300 300/13G20 RMK AO2 T00001028
04850KAOH AOH20160116093512001/16/16 09:35:31  5-MIN KAOH 161435Z AUTO 30015KT 10SM SCT016 OVC034 00/M03 A2975 1140 81 -300 300/15 RMK AO2 T00001028
04850KAOH AOH20160116094012001/16/16 09:40:31  5-MIN KAOH 161440Z AUTO 30012KT 10SM SCT016 OVC033 00/M02 A2975 1140 85 -300 300/12 RMK AO2 T00001022
04850KAOH AOH20160116094512001/16/16 09:45:31  5-MIN KAOH 161445Z AUTO 30012KT 10SM FEW016 OVC033 00/M03 A2975 1130 81 -300 310/12 RMK AO2 T00001028
04850KAOH AOH20160116095013301/16/16 09:50:31  5-MIN KAOH 161450Z AUTO 29011KT 10SM FEW016 OVC031 00/M02 A2976 1130 85 -300 300/11 RMK AO2 SLP083 T00001022 51032
04850KAOH AOH20160116095512001/16/16 09:55:31  5-MIN KAOH 161455Z AUTO 29010KT 10SM FEW016 OVC031 00/M02 A2976 1130 85 -300 290/10 RMK AO2 T00001022
04850KAOH AOH20160116100012001/16/16 10:00:31  5-MIN KAOH 161500Z AUTO 29010KT 10SM SCT016 OVC031 00/M02 A2976 1130 85 -300 290/10 RMK AO2 T00001022
04850KAOH AOH20160116100512001/16/16 10:05:31  5-MIN KAOH 161505Z AUTO 29010KT 10SM FEW016 OVC029 00/M02 A2976 1120 85 -300 290/10 RMK AO2 T00001022
04850KAOH AOH20160116101012001/16/16 10:10:31  5-MIN KAOH 161510Z AUTO 28011KT 10SM FEW016 OVC029 00/M02 A2977 1120 85 -300 290/11 RMK AO2 T00001022
04850KAOH AOH20160116101512001/16/16 10:15:31  5-MIN KAOH 161515Z AUTO 28011KT 10SM SCT016 OVC027 00/M03 A2977 1120 81 -400 290/11 RMK AO2 T00001028
04850KAOH AOH20160116102012001/16/16 10:20:31  5-MIN KAOH 161520Z AUTO 29012KT 10SM FEW016 OVC027 00/M03 A2977 1120 81 -400 290/12 RMK AO2 T00001028
04850KAOH AOH20160116102512101/16/16 10:25:31  5-MIN KAOH 161525Z AUTO 28011KT 10SM FEW016 OVC027 M01/M02 A2977 1110 88 -400 290/11 RMK AO2 T10061022
04850KAOH AOH20160116103012101/16/16 10:30:31  5-MIN KAOH 161530Z AUTO 29010KT 10SM FEW016 OVC026 M01/M03 A2978 1110 85 -400 300/10 RMK AO2 T10061028
04850KAOH AOH20160116103512101/16/16 10:35:31  5-MIN KAOH 161535Z AUTO 30011KT 10SM FEW016 OVC026 M01/M02 A2978 1110 88 -400 300/11 RMK AO2 T10061022
04850KAOH AOH20160116104012101/16/16 10:40:31  5-MIN KAOH 161540Z AUTO 29012KT 10SM FEW014 OVC026 M01/M02 A2978 1110 88 -400 290/12 RMK AO2 T10061022
04850KAOH AOH20160116104511401/16/16 10:45:31  5-MIN KAOH 161545Z AUTO 28012KT 10SM OVC026 M01/M03 A2978 1110 85 -400 290/12 RMK AO2 T10061028
04850KAOH AOH20160116105012101/16/16 10:50:31  5-MIN KAOH 161550Z AUTO 29013KT 10SM OVC026 M01/M03 A2978 1100 85 -400 290/13 RMK AO2 SLP094 T10061028
04850KAOH AOH20160116105512101/16/16 10:55:31  5-MIN KAOH 161555Z AUTO 28012KT 10SM FEW017 OVC026 M01/M03 A2979 1100 85 -400 290/12 RMK AO2 T10061028
04850KAOH AOH20160116110012101/16/16 11:00:31  5-MIN KAOH 161600Z AUTO 29014KT 10SM FEW021 OVC026 M01/M03 A2979 1100 85 -400 290/14 RMK AO2 T10061028
04850KAOH AOH20160116110511401/16/16 11:05:31  5-MIN KAOH 161605Z AUTO 29011KT 10SM OVC026 M01/M03 A2979 1100 85 -400 290/11 RMK AO2 T10061028
04850KAOH AOH20160116111012001/16/16 11:10:31  5-MIN KAOH 161610Z AUTO 28010KT 10SM BKN026 OVC035 00/M03 A2979 1100 78 -400 290/10 RMK AO2 T00001033
04850KAOH AOH20160116111512701/16/16 11:15:31  5-MIN KAOH 161615Z AUTO 29012KT 10SM FEW021 BKN026 OVC035 00/M03 A2979 1100 78 -400 300/12 RMK AO2 T00001033
04850KAOH AOH20160116112012801/16/16 11:20:31  5-MIN KAOH 161620Z AUTO 30013KT 10SM FEW021 BKN026 OVC035 M01/M04 A2979 1100 78 -400 310/13 RMK AO2 T10061039
04850KAOH AOH20160116112511401/16/16 11:25:31  5-MIN KAOH 161625Z AUTO 30013KT 10SM OVC026 M01/M04 A2979 1100 78 -400 300/13 RMK AO2 T10061039
04850KAOH AOH20160116113011401/16/16 11:30:31  5-MIN KAOH 161630Z AUTO 30011KT 10SM OVC026 M01/M04 A2979 1100 78 -400 310/11 RMK AO2 T10061039
04850KAOH AOH20160116113512101/16/16 11:35:31  5-MIN KAOH 161635Z AUTO 29012KT 10SM BKN024 OVC029 M01/M03 A2979 1090 81 -500 300/12 RMK AO2 T10061033
04850KAOH AOH20160116114012101/16/16 11:40:31  5-MIN KAOH 161640Z AUTO 29009KT 10SM BKN024 OVC029 M01/M03 A2979 1100 81 -400 300/09 RMK AO2 T10061033
04850KAOH AOH20160116114512101/16/16 11:45:31  5-MIN KAOH 161645Z AUTO 29011KT 10SM BKN023 OVC028 M01/M03 A2979 1100 81 -400 300/11 RMK AO2 T10061033
04850KAOH AOH20160116115012101/16/16 11:50:31  5-MIN KAOH 161650Z AUTO 30010KT 10SM OVC025 M01/M03 A2979 1100 81 -400 300/10 RMK AO2 SLP097 T10061033
04850KAOH AOH20160116115512101/16/16 11:55:31  5-MIN KAOH 161655Z AUTO 30010KT 10SM SCT021 OVC027 M01/M03 A2979 1100 81 -400 300/10 RMK AO2 T10061033
04850KAOH AOH20160116120012101/16/16 12:00:31  5-MIN KAOH 161700Z AUTO 29010KT 10SM SCT023 OVC030 M01/M03 A2979 1100 81 -400 290/10 RMK AO2 T10061033
04850KAOH AOH20160116120512801/16/16 12:05:31  5-MIN KAOH 161705Z AUTO 29012KT 10SM FEW017 BKN027 OVC032 M01/M03 A2979 1100 85 -400 300/12 RMK AO2 T10061028
04850KAOH AOH20160116121012801/16/16 12:10:31  5-MIN KAOH 161710Z AUTO 28013KT 10SM FEW015 SCT020 OVC027 M01/M03 A2979 1100 85 -400 290/13 RMK AO2 T10061028
04850KAOH AOH20160116121512801/16/16 12:15:31  5-MIN KAOH 161715Z AUTO 28013KT 10SM FEW015 SCT020 OVC027 M01/M03 A2979 1100 85 -400 290/13 RMK AO2 T10061028
04850KAOH AOH20160116122012801/16/16 12:20:31  5-MIN KAOH 161720Z AUTO 28010KT 10SM FEW015 BKN026 OVC031 M01/M03 A2979 1100 85 -400 290/10 RMK AO2 T10061028
04850KAOH AOH20160116122513401/16/16 12:25:31  5-MIN KAOH 161725Z AUTO 28013G19KT 10SM FEW015 BKN026 OVC031 M01/M03 A2979 1100 85 -400 280/13G19 RMK AO2 T10061028
04850KAOH AOH20160116123013401/16/16 12:30:31  5-MIN KAOH 161730Z AUTO 29014G19KT 10SM FEW015 SCT021 OVC026 M01/M03 A2979 1100 81 -400 290/14G19 RMK AO2 T10061033
04850KAOH AOH20160116123512101/16/16 12:35:31  5-MIN KAOH 161735Z AUTO 29014KT 10SM FEW015 OVC024 M01/M03 A2979 1100 81 -400 290/14 RMK AO2 T10061033
04850KAOH AOH20160116124012701/16/16 12:40:31  5-MIN KAOH 161740Z AUTO 29012G20KT 10SM FEW020 OVC026 M01/M03 A2979 1100 81 -400 300/12G20 RMK AO2 T10061033
04850KAOH AOH20160116124512101/16/16 12:45:31  5-MIN KAOH 161745Z AUTO 29013KT 10SM FEW020 OVC026 M01/M03 A2979 1100 81 -400 290/13 RMK AO2 T10061033
04850KAOH AOH20160116125014601/16/16 12:50:31  5-MIN KAOH 161750Z AUTO 29012KT 10SM FEW020 OVC026 M01/M03 A2979 1100 81 -400 290/12 RMK AO2 SLP096 T10061033 10000 21006 52030
04850KAOH AOH20160116125512101/16/16 12:55:31  5-MIN KAOH 161755Z AUTO 29012KT 10SM FEW020 OVC026 M01/M03 A2979 1100 81 -400 290/12 RMK AO2 T10061033
04850KAOH AOH20160116130012101/16/16 13:00:31  5-MIN KAOH 161800Z AUTO 29012KT 10SM FEW019 OVC028 M01/M03 A2979 1100 81 -400 300/12 RMK AO2 T10061033
04850KAOH AOH20160116130512101/16/16 13:05:31  5-MIN KAOH 161805Z AUTO 29012KT 10SM SCT019 OVC028 M01/M03 A2979 1100 81 -400 290/12 RMK AO2 T10061033
04850KAOH AOH20160116131012801/16/16 13:10:31  5-MIN KAOH 161810Z AUTO 29015KT 10SM FEW017 BKN023 OVC028 M01/M04 A2979 1090 78 -400 300/15 RMK AO2 T10061039
04850KAOH AOH20160116131512101/16/16 13:15:31  5-MIN KAOH 161815Z AUTO 29013KT 10SM SCT021 OVC028 M01/M04 A2980 1090 78 -500 290/13 RMK AO2 T10061039
04850KAOH AOH20160116132012101/16/16 13:20:31  5-MIN KAOH 161820Z AUTO 29015KT 10SM SCT021 OVC028 M01/M04 A2980 1090 75 -500 300/15 RMK AO2 T10061044
04850KAOH AOH20160116132512801/16/16 13:25:31  5-MIN KAOH 161825Z AUTO 29012KT 10SM FEW018 BKN023 OVC030 M01/M04 A2980 1090 75 -500 290/12 RMK AO2 T10061044
04850KAOH AOH20160116133011401/16/16 13:30:31  5-MIN KAOH 161830Z AUTO 28012KT 10SM OVC025 M01/M04 A2980 1090 75 -500 280/12 RMK AO2 T10061044
04850KAOH AOH20160116133512101/16/16 13:35:31  5-MIN KAOH 161835Z AUTO 29013KT 10SM BKN025 OVC030 M01/M04 A2980 1090 75 -500 300/13 RMK AO2 T10061044
04850KAOH AOH20160116134012101/16/16 13:40:31  5-MIN KAOH 161840Z AUTO 29011KT 10SM BKN025 OVC030 M01/M04 A2980 1090 75 -500 290/11 RMK AO2 T10061044
04850KAOH AOH20160116134511401/16/16 13:45:31  5-MIN KAOH 161845Z AUTO 28014KT 10SM OVC024 M01/M04 A2980 1090 78 -500 290/14 RMK AO2 T10061039
04850KAOH AOH20160116135012101/16/16 13:50:31  5-MIN KAOH 161850Z AUTO 28013KT 10SM OVC024 M01/M04 A2980 1090 78 -500 290/13 RMK AO2 SLP100 T10061039
04850KAOH AOH20160116135511401/16/16 13:55:31  5-MIN KAOH 161855Z AUTO 28014KT 10SM OVC024 M01/M04 A2980 1090 75 -500 290/14 RMK AO2 T10061044
04850KAOH AOH20160116140011401/16/16 14:00:31  5-MIN KAOH 161900Z AUTO 29013KT 10SM OVC024 M01/M04 A2980 1090 75 -500 300/13 RMK AO2 T10061044
04850KAOH AOH20160116140511401/16/16 14:05:31  5-MIN KAOH 161905Z AUTO 29012KT 10SM OVC022 M01/M04 A2980 1090 75 -500 290/12 RMK AO2 T10061044
04850KAOH AOH20160116141011401/16/16 14:10:31  5-MIN KAOH 161910Z AUTO 30014KT 10SM OVC022 M01/M04 A2981 1080 78 -500 300/14 RMK AO2 T10061039
04850KAOH AOH20160116141511401/16/16 14:15:31  5-MIN KAOH 161915Z AUTO 30012KT 10SM OVC022 M01/M05 A2981 1080 75 -500 300/12 RMK AO2 T10111050
04850KAOH AOH20160116142011401/16/16 14:20:31  5-MIN KAOH 161920Z AUTO 30014KT 10SM OVC022 M01/M05 A2981 1080 75 -500 300/14 RMK AO2 T10111050
04850KAOH AOH20160116142511401/16/16 14:25:31  5-MIN KAOH 161925Z AUTO 30013KT 10SM OVC022 M01/M05 A2981 1080 75 -500 310/13 RMK AO2 T10111050
04850KAOH AOH20160116143011401/16/16 14:30:31  5-MIN KAOH 161930Z AUTO 30011KT 10SM OVC022 M01/M05 A2981 1080 75 -500 310/11 RMK AO2 T10111050
04850KAOH AOH20160116143511401/16/16 14:35:31  5-MIN KAOH 161935Z AUTO 30011KT 10SM OVC022 M01/M05 A2981 1080 75 -500 310/11 RMK AO2 T10111050
04850KAOH AOH20160116144011401/16/16 14:40:31  5-MIN KAOH 161940Z AUTO 30013KT 10SM OVC022 M01/M05 A2981 1080 75 -500 300/13 RMK AO2 T10111050
04850KAOH AOH20160116144511401/16/16 14:45:31  5-MIN KAOH 161945Z AUTO 30012KT 10SM OVC022 M01/M05 A2981 1080 75 -500 310/12 RMK AO2 T10111050
04850KAOH AOH20160116145012101/16/16 14:50:31  5-MIN KAOH 161950Z AUTO 31015KT 10SM OVC023 M01/M05 A2982 1070 75 -500 310/15 RMK AO2 SLP106 T10111050
04850KAOH AOH20160116145511401/16/16 14:55:31  5-MIN KAOH 161955Z AUTO 30011KT 10SM OVC023 M01/M05 A2982 1070 75 -500 310/11 RMK AO2 T10111050
04850KAOH AOH20160116150011401/16/16 15:00:31  5-MIN KAOH 162000Z AUTO 31012KT 10SM OVC023 M01/M05 A2982 1070 75 -500 320/12 RMK AO2 T10111050
04850KAOH AOH20160116150511401/16/16 15:05:31  5-MIN KAOH 162005Z AUTO 30011KT 10SM OVC023 M01/M05 A2982 1070 75 -500 310/11 RMK AO2 T10111050
04850KAOH AOH20160116151012001/16/16 15:10:31  5-MIN KAOH 162010Z AUTO 30013G19KT 10SM OVC023 M01/M05 A2982 1070 75 -600 310/13G19 RMK AO2 T10111050
04850KAOH AOH20160116151512701/16/16 15:15:31  5-MIN KAOH 162015Z AUTO 31014G19KT 10SM BKN023 OVC031 M01/M05 A2982 1070 75 -600 310/14G19 RMK AO2 T10111050
04850KAOH AOH20160116152013601/16/16 15:20:31  5-MIN KAOH 162020Z AUTO 29010KT 9SM -SN BKN023 OVC031 M01/M05 A2983 1060 75 -600 300/10 RMK AO2 SNB16 P0000 T10111050
04850KAOH AOH20160116152513501/16/16 15:25:31  5-MIN KAOH 162025Z AUTO 29013KT 9SM SCT024 OVC031 M01/M05 A2983 1060 75 -600 300/13 RMK AO2 SNB16E21 P0000 T10111050
04850KAOH AOH20160116153013601/16/16 15:30:31  5-MIN KAOH 162030Z AUTO 29011KT 10SM SCT024 OVC031 M01/M05 A2983 1060 75 -600 290/11 RMK AO2 SNB16E21 P0000 T10111050
04850KAOH AOH20160116153513601/16/16 15:35:31  5-MIN KAOH 162035Z AUTO 29011KT 10SM FEW024 OVC033 M01/M05 A2983 1060 75 -600 300/11 RMK AO2 SNB16E21 P0000 T10111050
04850KAOH AOH20160116154013601/16/16 15:40:31  5-MIN KAOH 162040Z AUTO 30013KT 10SM BKN029 OVC035 M01/M05 A2983 1060 75 -600 310/13 RMK AO2 SNB16E21 P0000 T10111050
04850KAOH AOH20160116154513601/16/16 15:45:31  5-MIN KAOH 162045Z AUTO 29012KT 10SM BKN028 OVC034 M01/M05 A2983 1060 75 -600 300/12 RMK AO2 SNB16E21 P0000 T10111050
04850KAOH AOH20160116155012601/16/16 15:50:31  5-MIN KAOH 162050Z AUTO 30010KT 10SM BKN029 OVC034 M01/M06 A2984 1050 72 -600 310/10 RMK AO2 SNB16E21 P0000
04850KAOH AOH20160116155512101/16/16 15:55:31  5-MIN KAOH 162055Z AUTO 31012KT 10SM BKN027 OVC034 M01/M06 A2984 1050 72 -600 320/12 RMK AO2 T10111056
04850KAOH AOH20160116160012101/16/16 16:00:31  5-MIN KAOH 162100Z AUTO 31012KT 10SM BKN027 OVC034 M01/M06 A2984 1050 72 -600 320/12 RMK AO2 T10111056
04850KAOH AOH20160116160511401/16/16 16:05:31  5-MIN KAOH 162105Z AUTO 31011KT 10SM OVC027 M01/M06 A2984 1050 72 -600 310/11 RMK AO2 T10111056
04850KAOH AOH20160116161011401/16/16 16:10:31  5-MIN KAOH 162110Z AUTO 31009KT 10SM OVC027 M01/M06 A2984 1050 72 -600 310/09 RMK AO2 T10111056
04850KAOH AOH20160116161511401/16/16 16:15:31  5-MIN KAOH 162115Z AUTO 30008KT 10SM OVC027 M01/M06 A2984 1050 72 -600 310/08 RMK AO2 T10111056
04850KAOH AOH20160116162011401/16/16 16:20:31  5-MIN KAOH 162120Z AUTO 29009KT 10SM OVC029 M01/M06 A2984 1050 72 -600 290/09 RMK AO2 T10111056
04850KAOH AOH20160116162511401/16/16 16:25:31  5-MIN KAOH 162125Z AUTO 30008KT 10SM OVC029 M01/M06 A2985 1050 72 -600 300/08 RMK AO2 T10111056
04850KAOH AOH20160116163011401/16/16 16:30:31  5-MIN KAOH 162130Z AUTO 30010KT 10SM OVC029 M01/M06 A2985 1040 72 -600 300/10 RMK AO2 T10111056
04850KAOH AOH20160116163511401/16/16 16:35:31  5-MIN KAOH 162135Z AUTO 31010KT 10SM OVC029 M01/M06 A2985 1040 69 -600 310/10 RMK AO2 T10111061
04850KAOH AOH20160116164011401/16/16 16:40:31  5-MIN KAOH 162140Z AUTO 30010KT 10SM OVC031 M01/M06 A2985 1040 72 -600 310/10 RMK AO2 T10111056
04850KAOH AOH20160116164511401/16/16 16:45:31  5-MIN KAOH 162145Z AUTO 29008KT 10SM OVC031 M01/M06 A2985 1040 72 -600 300/08 RMK AO2 T10111056
04850KAOH AOH20160116165012101/16/16 16:50:31  5-MIN KAOH 162150Z AUTO 29009KT 10SM OVC031 M01/M06 A2985 1040 69 -600 300/09 RMK AO2 SLP119 T10111061
04850KAOH AOH20160116165511401/16/16 16:55:31  5-MIN KAOH 162155Z AUTO 29009KT 10SM OVC031 M01/M06 A2986 1040 69 -600 300/09 RMK AO2 T10111061
04850KAOH AOH20160116170011401/16/16 17:00:31  5-MIN KAOH 162200Z AUTO 29008KT 10SM OVC033 M01/M06 A2986 1030 69 -600 290/08 RMK AO2 T10111061
04850KAOH AOH20160116170511401/16/16 17:05:31  5-MIN KAOH 162205Z AUTO 29008KT 10SM OVC033 M01/M06 A2986 1030 69 -600 290/08 RMK AO2 T10111061
04850KAOH AOH20160116171011401/16/16 17:10:31  5-MIN KAOH 162210Z AUTO 29008KT 10SM OVC033 M01/M06 A2986 1030 69 -600 290/08 RMK AO2 T10111061
04850KAOH AOH20160116171511401/16/16 17:15:31  5-MIN KAOH 162215Z AUTO 28006KT 10SM OVC033 M01/M06 A2986 1030 69 -600 280/06 RMK AO2 T10111061
04850KAOH AOH20160116172011401/16/16 17:20:31  5-MIN KAOH 162220Z AUTO 27009KT 10SM OVC032 M01/M06 A2987 1030 69 -600 280/09 RMK AO2 T10111061
04850KAOH AOH20160116172511401/16/16 17:25:31  5-MIN KAOH 162225Z AUTO 27009KT 10SM OVC029 M01/M06 A2987 1020 72 -600 280/09 RMK AO2 T10111056
04850KAOH AOH20160116173011401/16/16 17:30:31  5-MIN KAOH 162230Z AUTO 26011KT 10SM OVC031 M01/M06 A2987 1020 72 -600 260/11 RMK AO2 T10111056
04850KAOH AOH20160116173511401/16/16 17:35:31  5-MIN KAOH 162235Z AUTO 26011KT 10SM OVC031 M01/M06 A2987 1020 72 -600 260/11 RMK AO2 T10111056
04850KAOH AOH20160116174012101/16/16 17:40:31  5-MIN KAOH 162240Z AUTO 26009KT 10SM SCT029 OVC036 M01/M06 A2988 1020 72 -600 260/09 RMK AO2 T10111056
04850KAOH AOH20160116174512101/16/16 17:45:31  5-MIN KAOH 162245Z AUTO 26011KT 10SM SCT029 OVC036 M01/M06 A2988 1020 72 -600 260/11 RMK AO2 T10111056
04850KAOH AOH20160116175012801/16/16 17:50:31  5-MIN KAOH 162250Z AUTO 26010KT 10SM FEW029 OVC036 M01/M06 A2988 1020 69 -600 260/10 RMK AO2 SLP127 T10111061
04850KAOH AOH20160116175512101/16/16 17:55:31  5-MIN KAOH 162255Z AUTO 26009KT 10SM FEW029 OVC036 M01/M06 A2988 1020 69 -600 260/09 RMK AO2 T10111061
04850KAOH AOH20160116180011401/16/16 18:00:31  5-MIN KAOH 162300Z AUTO 26008KT 10SM OVC036 M01/M06 A2988 1020 72 -600 260/08 RMK AO2 T10111056
04850KAOH AOH20160116180511401/16/16 18:05:31  5-MIN KAOH 162305Z AUTO 25008KT 10SM OVC036 M01/M06 A2988 1020 72 -600 250/08 RMK AO2 T10111056
04850KAOH AOH20160116181011401/16/16 18:10:31  5-MIN KAOH 162310Z AUTO 26010KT 10SM OVC034 M01/M06 A2988 1020 69 -600 270/10 RMK AO2 T10111061
04850KAOH AOH20160116181511401/16/16 18:15:31  5-MIN KAOH 162315Z AUTO 26008KT 10SM OVC034 M01/M06 A2988 1020 69 -600 260/08 RMK AO2 T10111061
04850KAOH AOH20160116182012101/16/16 18:20:31  5-MIN KAOH 162320Z AUTO 27012KT 10SM BKN030 OVC037 M01/M06 A2988 1020 72 -600 270/12 RMK AO2 T10111056
04850KAOH AOH20160116182511401/16/16 18:25:31  5-MIN KAOH 162325Z AUTO 29007KT 10SM OVC032 M01/M06 A2988 1020 72 -600 290/07 RMK AO2 T10111056
04850KAOH AOH20160116183011401/16/16 18:30:31  5-MIN KAOH 162330Z AUTO 29009KT 10SM OVC030 M01/M06 A2988 1010 72 -600 300/09 RMK AO2 T10111056
04850KAOH AOH20160116183511401/16/16 18:35:31  5-MIN KAOH 162335Z AUTO 30007KT 10SM OVC030 M01/M05 A2988 1010 75 -600 300/07 RMK AO2 T10111050
04850KAOH AOH20160116184011401/16/16 18:40:31  5-MIN KAOH 162340Z AUTO 28006KT 10SM OVC030 M01/M05 A2988 1010 75 -600 290/06 RMK AO2 T10111050
04850KAOH AOH20160116184512101/16/16 18:45:31  5-MIN KAOH 162345Z AUTO 29007KT 10SM BKN027 OVC032 M01/M06 A2988 1010 72 -600 300/07 RMK AO2 T10111056
04850KAOH AOH20160116185014501/16/16 18:50:31  5-MIN KAOH 162350Z AUTO 29006KT 10SM OVC027 M01/M06 A2988 1010 72 -600 290/06 RMK AO2 SLP130 60000 T10111056 11006 21011 51015
04850KAOH AOH20160116185511401/16/16 18:55:31  5-MIN KAOH 162355Z AUTO 29009KT 10SM OVC027 M01/M06 A2988 1010 72 -600 300/09 RMK AO2 T10111056
04850KAOH AOH20160116190011401/16/16 19:00:31  5-MIN KAOH 170000Z AUTO 28010KT 10SM OVC027 M01/M06 A2988 1010 69 -600 280/10 RMK AO2 T10111061
04850KAOH AOH20160116190511401/16/16 19:05:31  5-MIN KAOH 170005Z AUTO 27006KT 10SM OVC027 M01/M06 A2988 1010 72 -600 270/06 RMK AO2 T10111056
04850KAOH AOH20160116191011401/16/16 19:10:31  5-MIN KAOH 170010Z AUTO 26011KT 10SM OVC027 M01/M06 A2989 1010 72 -600 270/11 RMK AO2 T10111056
04850KAOH AOH20160116191511401/16/16 19:15:31  5-MIN KAOH 170015Z AUTO 27010KT 10SM OVC027 M01/M06 A2989 1010 72 -600 270/10 RMK AO2 T10111056
04850KAOH AOH20160116192011401/16/16 19:20:31  5-MIN KAOH 170020Z AUTO 26012KT 10SM OVC027 M01/M06 A2989 1000 72 -600 270/12 RMK AO2 T10111056
04850KAOH AOH20160116192512101/16/16 19:25:31  5-MIN KAOH 170025Z AUTO 27013KT 10SM BKN026 OVC031 M01/M06 A2990 1000 69 -600 270/13 RMK AO2 T10111061
04850KAOH AOH20160116193011401/16/16 19:30:31  5-MIN KAOH 170030Z AUTO 26012KT 10SM OVC031 M01/M07 A2990 1000 66 -600 270/12 RMK AO2 T10111067
04850KAOH AOH20160116193511401/16/16 19:35:31  5-MIN KAOH 170035Z AUTO 25011KT 10SM OVC029 M01/M07 A2990 1000 66 -600 260/11 RMK AO2 T10111067
04850KAOH AOH20160116194011401/16/16 19:40:31  5-MIN KAOH 170040Z AUTO 26012KT 10SM OVC029 M01/M06 A2990 1000 69 -600 260/12 RMK AO2 T10111061
04850KAOH AOH20160116194511401/16/16 19:45:31  5-MIN KAOH 170045Z AUTO 26013KT 10SM OVC029 M01/M06 A2990 1000 69 -600 260/13 RMK AO2 T10111061
04850KAOH AOH20160116195012101/16/16 19:50:31  5-MIN KAOH 170050Z AUTO 27010KT 10SM OVC029 M01/M07 A2990 1000 66 -600 280/10 RMK AO2 SLP134 T10111067
04850KAOH AOH20160116195511401/16/16 19:55:31  5-MIN KAOH 170055Z AUTO 27009KT 10SM OVC029 M01/M06 A2990 1000 69 -600 270/09 RMK AO2 T10111061
04850KAOH AOH20160116200011401/16/16 20:00:31  5-MIN KAOH 170100Z AUTO 26010KT 10SM OVC029 M01/M06 A2990 1000 69 -600 270/10 RMK AO2 T10111061
04850KAOH AOH20160116200511401/16/16 20:05:31  5-MIN KAOH 170105Z AUTO 26011KT 10SM OVC029 M01/M06 A2989 1000 69 -600 270/11 RMK AO2 T10111061
04850KAOH AOH20160116201011401/16/16 20:10:31  5-MIN KAOH 170110Z AUTO 27011KT 10SM OVC029 M01/M07 A2989 1000 66 -600 280/11 RMK AO2 T10111067
04850KAOH AOH20160116201511401/16/16 20:15:31  5-MIN KAOH 170115Z AUTO 27013KT 10SM OVC029 M01/M06 A2989 1000 69 -600 270/13 RMK AO2 T10111061
04850KAOH AOH20160116202011401/16/16 20:20:31  5-MIN KAOH 170120Z AUTO 26013KT 10SM OVC030 M01/M07 A2989 1000 66 -600 270/13 RMK AO2 T10111067
04850KAOH AOH20160116202511401/16/16 20:25:31  5-MIN KAOH 170125Z AUTO 27012KT 10SM OVC030 M01/M07 A2989 1000 66 -600 280/12 RMK AO2 T10111067
04850KAOH AOH20160116203011401/16/16 20:30:31  5-MIN KAOH 170130Z AUTO 27013KT 10SM OVC030 M01/M07 A2989 1000 66 -600 280/13 RMK AO2 T10111067
04850KAOH AOH20160116203511401/16/16 20:35:31  5-MIN KAOH 170135Z AUTO 28013KT 10SM OVC031 M01/M07 A2989 1000 66 -600 290/13 RMK AO2 T10111067
04850KAOH AOH20160116204011401/16/16 20:40:31  5-MIN KAOH 170140Z AUTO 27011KT 10SM OVC031 M01/M07 A2989 1000 66 -600 280/11 RMK AO2 T10111067
04850KAOH AOH20160116204511401/16/16 20:45:31  5-MIN KAOH 170145Z AUTO 27013KT 10SM OVC031 M01/M07 A2989 1010 66 -600 280/13 RMK AO2 T10111067
04850KAOH AOH20160116205012101/16/16 20:50:31  5-MIN KAOH 170150Z AUTO 29012KT 10SM OVC031 M02/M07 A2989 1000 69 -700 290/12 RMK AO2 SLP132 T10171067
04850KAOH AOH20160116205511401/16/16 20:55:31  5-MIN KAOH 170155Z AUTO 27009KT 10SM OVC031 M01/M07 A2989 1000 66 -600 270/09 RMK AO2 T10111067
04850KAOH AOH20160116210011401/16/16 21:00:31  5-MIN KAOH 170200Z AUTO 26011KT 10SM OVC031 M02/M07 A2989 1000 69 -700 270/11 RMK AO2 T10171067
04850KAOH AOH20160116210511401/16/16 21:05:31  5-MIN KAOH 170205Z AUTO 25011KT 10SM OVC031 M02/M07 A2990 1000 69 -700 260/11 RMK AO2 T10171067
04850KAOH AOH20160116211011301/16/16 21:10:31  5-MIN KAOH 170210Z AUTO 26010KT 10SM OVC031 M02/M07 A2990 990 69 -700 260/10 RMK AO2 T10171067
04850KAOH AOH20160116211511301/16/16 21:15:31  5-MIN KAOH 170215Z AUTO 26011KT 10SM OVC031 M02/M07 A2990 990 69 -700 260/11 RMK AO2 T10171067
04850KAOH AOH20160116212011301/16/16 21:20:31  5-MIN KAOH 170220Z AUTO 26010KT 10SM OVC030 M01/M07 A2990 990 66 -600 270/10 RMK AO2 T10111067
04850KAOH AOH20160116212511301/16/16 21:25:31  5-MIN KAOH 170225Z AUTO 26008KT 10SM OVC030 M02/M07 A2990 990 69 -700 260/08 RMK AO2 T10171067
04850KAOH AOH20160116213011301/16/16 21:30:31  5-MIN KAOH 170230Z AUTO 26009KT 10SM OVC030 M02/M07 A2990 990 69 -700 270/09 RMK AO2 T10171067
04850KAOH AOH20160116213511301/16/16 21:35:31  5-MIN KAOH 170235Z AUTO 26007KT 10SM OVC030 M02/M06 A2990 990 72 -700 260/07 RMK AO2 T10171061
04850KAOH AOH20160116214011301/16/16 21:40:31  5-MIN KAOH 170240Z AUTO 26010KT 10SM OVC028 M02/M06 A2990 990 72 -700 260/10 RMK AO2 T10171061
04850KAOH AOH20160116214511301/16/16 21:45:31  5-MIN KAOH 170245Z AUTO 25010KT 10SM OVC028 M02/M06 A2990 990 72 -700 250/10 RMK AO2 T10171061
04850KAOH AOH20160116215012601/16/16 21:50:31  5-MIN KAOH 170250Z AUTO 26011KT 10SM OVC028 M02/M06 A2990 990 72 -700 270/11 RMK AO2 SLP136 T10171061 51009
04850KAOH AOH20160116215511301/16/16 21:55:31  5-MIN KAOH 170255Z AUTO 26009KT 10SM OVC028 M02/M06 A2991 990 72 -700 260/09 RMK AO2 T10171061
04850KAOH AOH20160116220011301/16/16 22:00:31  5-MIN KAOH 170300Z AUTO 25011KT 10SM OVC028 M02/M06 A2991 990 72 -700 260/11 RMK AO2 T10171061
04850KAOH AOH20160116220511301/16/16 22:05:31  5-MIN KAOH 170305Z AUTO 25011KT 10SM OVC028 M02/M07 A2991 990 69 -700 260/11 RMK AO2 T10171067
04850KAOH AOH20160116221011301/16/16 22:10:31  5-MIN KAOH 170310Z AUTO 25013KT 10SM OVC028 M02/M07 A2990 990 69 -700 250/13 RMK AO2 T10171067
04850KAOH AOH20160116221511301/16/16 22:15:31  5-MIN KAOH 170315Z AUTO 26010KT 10SM OVC030 M02/M07 A2990 990 66 -700 260/10 RMK AO2 T10171072
04850KAOH AOH20160116222012001/16/16 22:20:31  5-MIN KAOH 170320Z AUTO 24009KT 10SM BKN030 OVC035 M02/M07 A2990 990 66 -700 250/09 RMK AO2 T10171072
04850KAOH AOH20160116222511301/16/16 22:25:31  5-MIN KAOH 170325Z AUTO 24009KT 10SM OVC032 M02/M07 A2990 990 66 -700 240/09 RMK AO2 T10171072
04850KAOH AOH20160116223011301/16/16 22:30:31  5-MIN KAOH 170330Z AUTO 24009KT 10SM OVC034 M02/M08 A2990 990 63 -700 250/09 RMK AO2 T10171078
04850KAOH AOH20160116223511401/16/16 22:35:31  5-MIN KAOH 170335Z AUTO 24010KT 10SM OVC034 M02/M08 A2990 1000 63 -700 250/10 RMK AO2 T10171078
04850KAOH AOH20160116224011401/16/16 22:40:31  5-MIN KAOH 170340Z AUTO 23009KT 10SM OVC034 M02/M08 A2990 1000 63 -700 240/09 RMK AO2 T10171078
04850KAOH AOH20160116224511401/16/16 22:45:31  5-MIN KAOH 170345Z AUTO 22009KT 10SM OVC034 M02/M08 A2989 1000 63 -700 230/09 RMK AO2 T10171078
04850KAOH AOH20160116225012101/16/16 22:50:31  5-MIN KAOH 170350Z AUTO 24008KT 10SM OVC034 M02/M08 A2989 1000 63 -700 240/08 RMK AO2 SLP132 T10171078
04850KAOH AOH20160116225511401/16/16 22:55:31  5-MIN KAOH 170355Z AUTO 24009KT 10SM OVC034 M02/M07 A2989 1010 66 -700 250/09 RMK AO2 T10171072
04850KAOH AOH20160116230011401/16/16 23:00:31  5-MIN KAOH 170400Z AUTO 24008KT 10SM OVC034 M02/M07 A2988 1010 66 -700 250/08 RMK AO2 T10171072
04850KAOH AOH20160116230511401/16/16 23:05:31  5-MIN KAOH 170405Z AUTO 24008KT 10SM OVC034 M02/M07 A2988 1010 66 -700 250/08 RMK AO2 T10171072
04850KAOH AOH20160116231011401/16/16 23:10:31  5-MIN KAOH 170410Z AUTO 24009KT 10SM OVC032 M02/M07 A2988 1010 66 -700 250/09 RMK AO2 T10171072
04850KAOH AOH20160116231511401/16/16 23:15:31  5-MIN KAOH 170415Z AUTO 24011KT 10SM OVC032 M02/M07 A2988 1010 69 -700 250/11 RMK AO2 T10171067
04850KAOH AOH20160116232011401/16/16 23:20:31  5-MIN KAOH 170420Z AUTO 24010KT 10SM OVC030 M02/M07 A2988 1010 69 -700 240/10 RMK AO2 T10171067
04850KAOH AOH20160116232511401/16/16 23:25:31  5-MIN KAOH 170425Z AUTO 24009KT 10SM OVC030 M02/M07 A2988 1020 69 -700 240/09 RMK AO2 T10171067
04850KAOH AOH20160116233011401/16/16 23:30:31  5-MIN KAOH 170430Z AUTO 24009KT 10SM OVC028 M02/M07 A2988 1020 69 -700 250/09 RMK AO2 T10171067
04850KAOH AOH20160116233511401/16/16 23:35:31  5-MIN KAOH 170435Z AUTO 25008KT 10SM OVC028 M02/M07 A2988 1020 69 -700 250/08 RMK AO2 T10171067
04850KAOH AOH20160116234011401/16/16 23:40:31  5-MIN KAOH 170440Z AUTO 24010KT 10SM OVC026 M02/M07 A2988 1020 69 -700 250/10 RMK AO2 T10171067
04850KAOH AOH20160116234511401/16/16 23:45:31  5-MIN KAOH 170445Z AUTO 26014KT 10SM OVC024 M02/M06 A2988 1010 72 -700 270/14 RMK AO2 T10171061
04850KAOH AOH20160116235013101/16/16 23:50:31  5-MIN KAOH 170450Z AUTO 27014KT 10SM OVC024 M02/M06 A2988 1020 75 -700 270/14 RMK AO2 SLP128 T10171056 400061017
04850KAOH AOH20160116235511401/16/16 23:55:31  5-MIN KAOH 170455Z AUTO 27012KT 10SM OVC024 M02/M05 A2988 1020 78 -700 280/12 RMK AO2 T10171050
04850KAOH AOH20160117000012101/17/16 00:00:31  5-MIN KAOH 170500Z AUTO 26011KT 10SM BKN022 OVC027 M02/M05 A2988 1020 78 -700 270/11 RMK AO2 T10171050
04850KAOH AOH20160117000512101/17/16 00:05:31  5-MIN KAOH 170505Z AUTO 25014KT 10SM SCT018 OVC025 M02/M05 A2988 1010 81 -800 250/14 RMK AO2 T10221050
04850KAOH AOH20160117001012801/17/16 00:10:31  5-MIN KAOH 170510Z AUTO 25015KT 10SM FEW016 SCT020 OVC030 M02/M06 A2989 1010 78 -800 260/15 RMK AO2 T10221056
04850KAOH AOH20160117001512801/17/16 00:15:31  5-MIN KAOH 170515Z AUTO 25016KT 10SM FEW018 BKN026 OVC032 M02/M06 A2989 1010 75 -800 260/16 RMK AO2 T10221061
04850KAOH AOH20160117002012101/17/16 00:20:31  5-MIN KAOH 170520Z AUTO 25014KT 10SM FEW018 OVC032 M03/M06 A2989 1010 78 -800 260/14 RMK AO2 T10281061
04850KAOH AOH20160117002512101/17/16 00:25:31  5-MIN KAOH 170525Z AUTO 25012KT 10SM FEW016 OVC032 M03/M06 A2989 1010 78 -800 260/12 RMK AO2 T10281061
04850KAOH AOH20160117003012101/17/16 00:30:31  5-MIN KAOH 170530Z AUTO 25012KT 10SM FEW027 OVC032 M03/M07 A2989 1000 75 -800 260/12 RMK AO2 T10281067
04850KAOH AOH20160117003511401/17/16 00:35:31  5-MIN KAOH 170535Z AUTO 26011KT 10SM OVC032 M03/M07 A2989 1000 75 -800 270/11 RMK AO2 T10281067
04850KAOH AOH20160117004011401/17/16 00:40:31  5-MIN KAOH 170540Z AUTO 27011KT 10SM OVC032 M03/M06 A2989 1010 78 -800 270/11 RMK AO2 T10281061
04850KAOH AOH20160117004511401/17/16 00:45:31  5-MIN KAOH 170545Z AUTO 27012KT 10SM OVC033 M03/M06 A2989 1000 78 -800 270/12 RMK AO2 T10281061
04850KAOH AOH20160117005013901/17/16 00:50:31  5-MIN KAOH 170550Z AUTO 26011KT 10SM BKN033 M03/M06 A2989 1000 78 -800 270/11 RMK AO2 SLP132 T10281061 11011 21028 51007
04850KAOH AOH20160117005511401/17/16 00:55:31  5-MIN KAOH 170555Z AUTO 27013KT 10SM BKN033 M03/M06 A2989 1010 81 -900 270/13 RMK AO2 T10331061
04850KAOH AOH20160117010011401/17/16 01:00:31  5-MIN KAOH 170600Z AUTO 27011KT 10SM BKN033 M03/M06 A2989 1010 81 -900 270/11 RMK AO2 T10331061
04850KAOH AOH20160117010511401/17/16 01:05:31  5-MIN KAOH 170605Z AUTO 27011KT 10SM SCT033 M03/M06 A2989 1010 81 -900 270/11 RMK AO2 T10331061
04850KAOH AOH20160117011011501/17/16 01:10:31  5-MIN KAOH 170610Z AUTO 26011KT 10SM SCT033 M04/M07 A2989 1010 81 -1000 270/11 RMK AO2 T10391067
04850KAOH AOH20160117011511501/17/16 01:15:31  5-MIN KAOH 170615Z AUTO 26013KT 10SM FEW033 M04/M07 A2989 1010 81 -1000 270/13 RMK AO2 T10391067
04850KAOH AOH20160117012011501/17/16 01:20:31  5-MIN KAOH 170620Z AUTO 27012KT 10SM FEW033 M04/M07 A2989 1010 81 -1000 270/12 RMK AO2 T10391067
04850KAOH AOH20160117012511501/17/16 01:25:31  5-MIN KAOH 170625Z AUTO 26012KT 10SM FEW033 M04/M07 A2989 1010 81 -1000 270/12 RMK AO2 T10391067
04850KAOH AOH20160117013011201/17/16 01:30:31  5-MIN KAOH 170630Z AUTO 26012KT 10SM CLR M04/M07 A2990 1000 81 -1000 270/12 RMK AO2 T10391067
04850KAOH AOH20160117013511501/17/16 01:35:31  5-MIN KAOH 170635Z AUTO 26010KT 10SM FEW031 M04/M07 A2989 1000 81 -1000 260/10 RMK AO2 T10391067
04850KAOH AOH20160117014011501/17/16 01:40:31  5-MIN KAOH 170640Z AUTO 26010KT 10SM FEW031 M04/M07 A2989 1000 81 -1000 270/10 RMK AO2 T10391067
04850KAOH AOH20160117014511201/17/16 01:45:31  5-MIN KAOH 170645Z AUTO 26011KT 10SM CLR M04/M07 A2989 1000 81 -1000 260/11 RMK AO2 T10391067
04850KAOH AOH20160117015011901/17/16 01:50:31  5-MIN KAOH 170650Z AUTO 26009KT 10SM CLR M04/M07 A2989 1000 78 -1000 260/09 RMK AO2 SLP134 T10391072
04850KAOH AOH20160117015511201/17/16 01:55:31  5-MIN KAOH 170655Z AUTO 25009KT 10SM CLR M04/M07 A2990 1000 81 -1100 260/09 RMK AO2 T10441072
04850KAOH AOH20160117020011201/17/16 02:00:31  5-MIN KAOH 170700Z AUTO 25008KT 10SM CLR M04/M07 A2989 1000 81 -1100 250/08 RMK AO2 T10441072
04850KAOH AOH20160117020511201/17/16 02:05:31  5-MIN KAOH 170705Z AUTO 24007KT 10SM CLR M04/M07 A2989 1000 81 -1100 250/07 RMK AO2 T10441072
04850KAOH AOH20160117021011201/17/16 02:10:31  5-MIN KAOH 170710Z AUTO 25008KT 10SM CLR M04/M07 A2989 1000 81 -1100 250/08 RMK AO2 T10441072
04850KAOH AOH20160117021511201/17/16 02:15:31  5-MIN KAOH 170715Z AUTO 25009KT 10SM CLR M04/M07 A2989 1010 81 -1100 260/09 RMK AO2 T10441072
04850KAOH AOH20160117022011201/17/16 02:20:31  5-MIN KAOH 170720Z AUTO 25009KT 10SM CLR M04/M07 A2989 1010 81 -1100 260/09 RMK AO2 T10441072
04850KAOH AOH20160117022511201/17/16 02:25:31  5-MIN KAOH 170725Z AUTO 25009KT 10SM CLR M04/M07 A2988 1010 81 -1000 260/09 RMK AO2 T10441072
04850KAOH AOH20160117023011501/17/16 02:30:31  5-MIN KAOH 170730Z AUTO 25009KT 10SM FEW024 M04/M07 A2989 1010 81 -1000 260/09 RMK AO2 T10441072
04850KAOH AOH20160117023511501/17/16 02:35:31  5-MIN KAOH 170735Z AUTO 26010KT 10SM SCT024 M04/M07 A2989 1010 84 -1000 270/10 RMK AO2 T10441067
04850KAOH AOH20160117024011501/17/16 02:40:31  5-MIN KAOH 170740Z AUTO 26010KT 10SM BKN024 M04/M07 A2989 1010 81 -1000 260/10 RMK AO2 T10391067
04850KAOH AOH20160117024511501/17/16 02:45:31  5-MIN KAOH 170745Z AUTO 26012KT 10SM BKN022 M04/M07 A2989 1010 81 -1000 270/12 RMK AO2 T10391067
04850KAOH AOH20160117025012201/17/16 02:50:31  5-MIN KAOH 170750Z AUTO 26010KT 10SM BKN022 M04/M07 A2989 1000 81 -1000 260/10 RMK AO2 SLP134 T10391067
04850KAOH AOH20160117025511501/17/16 02:55:31  5-MIN KAOH 170755Z AUTO 26010KT 10SM OVC022 M04/M07 A2990 1000 81 -1000 270/10 RMK AO2 T10391067
04850KAOH AOH20160117030011501/17/16 03:00:31  5-MIN KAOH 170800Z AUTO 26011KT 10SM OVC022 M04/M07 A2989 1000 81 -1000 270/11 RMK AO2 T10391067
04850KAOH AOH20160117030511501/17/16 03:05:31  5-MIN KAOH 170805Z AUTO 26012KT 10SM OVC022 M04/M07 A2989 1010 81 -1000 270/12 RMK AO2 T10391067
04850KAOH AOH20160117031011501/17/16 03:10:31  5-MIN KAOH 170810Z AUTO 26012KT 10SM OVC022 M04/M07 A2988 1020 81 -1000 270/12 RMK AO2 T10391067
04850KAOH AOH20160117031512201/17/16 03:15:31  5-MIN KAOH 170815Z AUTO 27011KT 10SM OVC021 M04/M07 A2987 1020 81 -1000 280/11 RMK AO2 PRESFR T10391067
04850KAOH AOH20160117032011501/17/16 03:20:31  5-MIN KAOH 170820Z AUTO 27012KT 10SM OVC021 M04/M07 A2987 1020 81 -1000 280/12 RMK AO2 T10391067
04850KAOH AOH20160117032511501/17/16 03:25:31  5-MIN KAOH 170825Z AUTO 26011KT 10SM OVC021 M04/M07 A2987 1020 81 -1000 270/11 RMK AO2 T10391067
04850KAOH AOH20160117033011501/17/16 03:30:31  5-MIN KAOH 170830Z AUTO 26013KT 10SM OVC021 M04/M07 A2988 1020 78 -1000 260/13 RMK AO2 T10391072
04850KAOH AOH20160117033511501/17/16 03:35:31  5-MIN KAOH 170835Z AUTO 25010KT 10SM OVC019 M04/M07 A2988 1020 78 -1000 260/10 RMK AO2 T10391072
04850KAOH AOH20160117034011501/17/16 03:40:31  5-MIN KAOH 170840Z AUTO 25011KT 10SM OVC019 M04/M07 A2988 1020 78 -1000 260/11 RMK AO2 T10391072
04850KAOH AOH20160117034511501/17/16 03:45:31  5-MIN KAOH 170845Z AUTO 27010KT 10SM OVC019 M04/M07 A2987 1020 81 -1000 270/10 RMK AO2 T10391067
04850KAOH AOH20160117035012701/17/16 03:50:31  5-MIN KAOH 170850Z AUTO 25011KT 10SM OVC017 M04/M07 A2986 1030 81 -900 260/11 RMK AO2 SLP123 T10391067 55004
04850KAOH AOH20160117035511401/17/16 03:55:31  5-MIN KAOH 170855Z AUTO 26009KT 10SM OVC017 M04/M07 A2986 1040 81 -900 270/09 RMK AO2 T10391067
04850KAOH AOH20160117040011401/17/16 04:00:31  5-MIN KAOH 170900Z AUTO 26012KT 10SM OVC017 M04/M07 A2985 1040 81 -900 260/12 RMK AO2 T10391067
04850KAOH AOH20160117040511401/17/16 04:05:31  5-MIN KAOH 170905Z AUTO 26013KT 10SM OVC017 M04/M07 A2985 1040 81 -900 270/13 RMK AO2 T10391067
04850KAOH AOH20160117041011401/17/16 04:10:31  5-MIN KAOH 170910Z AUTO 27009KT 10SM OVC017 M04/M07 A2985 1040 81 -900 280/09 RMK AO2 T10391067
04850KAOH AOH20160117041511401/17/16 04:15:31  5-MIN KAOH 170915Z AUTO 25011KT 10SM OVC017 M04/M07 A2985 1040 81 -900 260/11 RMK AO2 T10391067
04850KAOH AOH20160117042011401/17/16 04:20:31  5-MIN KAOH 170920Z AUTO 26011KT 10SM OVC017 M04/M07 A2985 1040 78 -900 270/11 RMK AO2 T10391072
04850KAOH AOH20160117042511401/17/16 04:25:31  5-MIN KAOH 170925Z AUTO 25010KT 10SM OVC017 M04/M07 A2985 1040 81 -900 260/10 RMK AO2 T10391067
04850KAOH AOH20160117043011401/17/16 04:30:31  5-MIN KAOH 170930Z AUTO 25013KT 10SM OVC017 M04/M07 A2985 1050 78 -900 250/13 RMK AO2 T10391072
04850KAOH AOH20160117043511401/17/16 04:35:31  5-MIN KAOH 170935Z AUTO 26011KT 10SM OVC017 M04/M07 A2984 1050 78 -900 260/11 RMK AO2 T10391072
04850KAOH AOH20160117044011401/17/16 04:40:31  5-MIN KAOH 170940Z AUTO 26011KT 10SM OVC018 M04/M07 A2984 1050 81 -900 260/11 RMK AO2 T10391067
04850KAOH AOH20160117044511401/17/16 04:45:31  5-MIN KAOH 170945Z AUTO 26009KT 10SM OVC018 M04/M07 A2984 1050 78 -900 270/09 RMK AO2 T10391072
04850KAOH AOH20160117045012101/17/16 04:50:31  5-MIN KAOH 170950Z AUTO 26010KT 10SM OVC018 M04/M07 A2984 1050 81 -900 260/10 RMK AO2 SLP115 T10391067
04850KAOH AOH20160117045511401/17/16 04:55:31  5-MIN KAOH 170955Z AUTO 26011KT 10SM BKN020 M04/M07 A2984 1050 81 -900 270/11 RMK AO2 T10391067
04850KAOH AOH20160117050011401/17/16 05:00:31  5-MIN KAOH 171000Z AUTO 26013KT 10SM OVC020 M04/M07 A2984 1050 81 -900 270/13 RMK AO2 T10391067
04850KAOH AOH20160117050511401/17/16 05:05:31  5-MIN KAOH 171005Z AUTO 26010KT 10SM BKN020 M04/M07 A2983 1060 81 -900 270/10 RMK AO2 T10391067
04850KAOH AOH20160117051011401/17/16 05:10:31  5-MIN KAOH 171010Z AUTO 26011KT 10SM BKN020 M04/M07 A2984 1060 81 -900 260/11 RMK AO2 T10391067
04850KAOH AOH20160117051511401/17/16 05:15:31  5-MIN KAOH 171015Z AUTO 25010KT 10SM OVC018 M04/M07 A2984 1050 81 -900 260/10 RMK AO2 T10391067
04850KAOH AOH20160117052011401/17/16 05:20:31  5-MIN KAOH 171020Z AUTO 26011KT 10SM OVC018 M04/M07 A2984 1050 78 -900 260/11 RMK AO2 T10391072
04850KAOH AOH20160117052511401/17/16 05:25:31  5-MIN KAOH 171025Z AUTO 26011KT 10SM OVC018 M04/M07 A2984 1050 78 -900 270/11 RMK AO2 T10391072
04850KAOH AOH20160117053011401/17/16 05:30:31  5-MIN KAOH 171030Z AUTO 27012KT 10SM OVC018 M04/M07 A2985 1050 81 -900 280/12 RMK AO2 T10391067
04850KAOH AOH20160117053512101/17/16 05:35:31  5-MIN KAOH 171035Z AUTO 26010KT 10SM BKN018 OVC024 M04/M07 A2985 1040 81 -900 270/10 RMK AO2 T10391067
04850KAOH AOH20160117054012101/17/16 05:40:31  5-MIN KAOH 171040Z AUTO 26011KT 10SM BKN019 OVC024 M04/M07 A2985 1040 78 -900 260/11 RMK AO2 T10391072
04850KAOH AOH20160117054511401/17/16 05:45:31  5-MIN KAOH 171045Z AUTO 26012KT 10SM OVC019 M04/M07 A2985 1040 78 -900 270/12 RMK AO2 T10391072
04850KAOH AOH20160117055012101/17/16 05:50:31  5-MIN KAOH 171050Z AUTO 25012KT 10SM OVC019 M04/M07 A2986 1040 78 -900 260/12 RMK AO2 SLP122 T10391072
04850KAOH AOH20160117055511501/17/16 05:55:31  5-MIN KAOH 171055Z AUTO 25011KT 10SM OVC019 M04/M07 A2986 1030 78 -1000 260/11 RMK AO2 T10391072
04850KAOH AOH20160117060011501/17/16 06:00:31  5-MIN KAOH 171100Z AUTO 25012KT 10SM OVC020 M04/M07 A2986 1030 78 -1000 260/12 RMK AO2 T10391072
04850KAOH AOH20160117060511501/17/16 06:05:31  5-MIN KAOH 171105Z AUTO 25010KT 10SM OVC020 M04/M07 A2987 1030 78 -1000 250/10 RMK AO2 T10391072
04850KAOH AOH20160117061011501/17/16 06:10:31  5-MIN KAOH 171110Z AUTO 25012KT 10SM OVC018 M04/M07 A2987 1030 78 -1000 250/12 RMK AO2 T10391072
04850KAOH AOH20160117061511501/17/16 06:15:31  5-MIN KAOH 171115Z AUTO 25011KT 10SM OVC018 M04/M07 A2987 1030 81 -1000 250/11 RMK AO2 T10441072
04850KAOH AOH20160117062011501/17/16 06:20:31  5-MIN KAOH 171120Z AUTO 24010KT 10SM OVC018 M04/M07 A2987 1020 81 -1000 240/10 RMK AO2 T10441072
04850KAOH AOH20160117062511501/17/16 06:25:31  5-MIN KAOH 171125Z AUTO 24010KT 10SM OVC018 M04/M07 A2987 1020 81 -1000 240/10 RMK AO2 T10441072
04850KAOH AOH20160117063011501/17/16 06:30:31  5-MIN KAOH 171130Z AUTO 24009KT 10SM OVC018 M04/M07 A2987 1020 78 -1000 240/09 RMK AO2 T10391072
04850KAOH AOH20160117063511501/17/16 06:35:31  5-MIN KAOH 171135Z AUTO 24012KT 10SM OVC017 M04/M07 A2988 1020 81 -1000 250/12 RMK AO2 T10441072
04850KAOH AOH20160117064011501/17/16 06:40:31  5-MIN KAOH 171140Z AUTO 24011KT 10SM OVC017 M04/M07 A2988 1020 81 -1000 250/11 RMK AO2 T10441072
04850KAOH AOH20160117064511501/17/16 06:45:31  5-MIN KAOH 171145Z AUTO 26012KT 10SM OVC017 M04/M07 A2988 1020 78 -1000 270/12 RMK AO2 T10391072
04850KAOH AOH20160117065014001/17/16 06:50:31  5-MIN KAOH 171150Z AUTO 27013KT 10SM OVC018 M04/M07 A2988 1020 81 -1000 280/13 RMK AO2 SLP129 T10441072 11033 21044 58010
04850KAOH AOH20160117065511501/17/16 06:55:31  5-MIN KAOH 171155Z AUTO 27010KT 10SM OVC020 M04/M07 A2988 1020 81 -1000 280/10 RMK AO2 T10441072
04850KAOH AOH20160117070011501/17/16 07:00:31  5-MIN KAOH 171200Z AUTO 27011KT 10SM OVC020 M04/M08 A2988 1020 78 -1000 280/11 RMK AO2 T10441078
04850KAOH AOH20160117070511501/17/16 07:05:31  5-MIN KAOH 171205Z AUTO 28011KT 10SM OVC020 M04/M08 A2988 1020 78 -1000 280/11 RMK AO2 T10441078
04850KAOH AOH20160117071013701/17/16 07:10:31  5-MIN KAOH 171210Z AUTO 28011KT 9SM -SN BKN020 OVC024 M04/M08 A2988 1020 78 -1000 290/11 RMK AO2 SNB10 P0000 T10441078
04850KAOH AOH20160117071513001/17/16 07:15:31  5-MIN KAOH 171215Z AUTO 28009KT 8SM -SN OVC020 M04/M08 A2988 1020 78 -1000 280/09 RMK AO2 SNB10 P0000 T10441078
04850KAOH AOH20160117072013001/17/16 07:20:31  5-MIN KAOH 171220Z AUTO 28010KT 6SM -SN OVC020 M04/M08 A2988 1020 78 -1000 280/10 RMK AO2 SNB10 P0000 T10441078
04850KAOH AOH20160117072513001/17/16 07:25:31  5-MIN KAOH 171225Z AUTO 27011KT 6SM -SN OVC020 M04/M08 A2987 1020 78 -1000 280/11 RMK AO2 SNB10 P0000 T10441078
04850KAOH AOH20160117073013001/17/16 07:30:31  5-MIN KAOH 171230Z AUTO 27010KT 7SM -SN OVC019 M04/M08 A2987 1020 78 -1000 280/10 RMK AO2 SNB10 P0000 T10441078
04850KAOH AOH20160117073513001/17/16 07:35:31  5-MIN KAOH 171235Z AUTO 27010KT 7SM -SN OVC019 M04/M08 A2987 1020 78 -1000 280/10 RMK AO2 SNB10 P0000 T10441078
04850KAOH AOH20160117074013001/17/16 07:40:31  5-MIN KAOH 171240Z AUTO 26009KT 7SM -SN OVC018 M04/M08 A2987 1020 78 -1000 260/09 RMK AO2 SNB10 P0000 T10441078
04850KAOH AOH20160117074513001/17/16 07:45:31  5-MIN KAOH 171245Z AUTO 25009KT 7SM -SN OVC018 M04/M08 A2987 1020 78 -1000 260/09 RMK AO2 SNB10 P0000 T10441078
04850KAOH AOH20160117075014401/17/16 07:50:31  5-MIN KAOH 171250Z AUTO 26010KT 7SM -SN BKN017 OVC025 M04/M07 A2987 1020 81 -1000 260/10 RMK AO2 SNB10 SLP127 P0000 T10441072
04850KAOH AOH20160117075514001/17/16 07:55:31  5-MIN KAOH 171255Z AUTO 25012KT 9SM BKN017 BKN025 OVC095 M05/M08 A2987 1020 81 -1100 260/12 RMK AO2 SNE54 P0000 T10501078
04850KAOH AOH20160117080014301/17/16 08:00:31  5-MIN KAOH 171300Z AUTO 25012KT 10SM SCT017 BKN065 OVC095 M05/M08 A2987 1020 77 -1100 260/12 RMK AO2 SNE1254 P0000 T10501083
04850KAOH AOH20160117080513601/17/16 08:05:31  5-MIN KAOH 171305Z AUTO 25012KT 10SM SCT020 OVC070 M05/M08 A2987 1020 77 -1100 260/12 RMK AO2 SNE1254 P0000 T10501083
04850KAOH AOH20160117081014201/17/16 08:10:31  5-MIN KAOH 171310Z AUTO 26013KT 9SM FEW017 BKN025 OVC070 M05/M08 A2987 1020 81 -1100 260/13 RMK AO2 SNE1254 P0000 T10501078
04850KAOH AOH20160117081514201/17/16 08:15:31  5-MIN KAOH 171315Z AUTO 27011KT 8SM SCT025 BKN060 OVC075 M05/M08 A2987 1020 81 -1100 270/11 RMK AO2 SNE1254 P0000 T10501078
04850KAOH AOH20160117082014201/17/16 08:20:31  5-MIN KAOH 171320Z AUTO 26012KT 8SM SCT023 BKN050 OVC070 M05/M08 A2987 1020 81 -1100 270/12 RMK AO2 SNE1254 P0000 T10501078
04850KAOH AOH20160117082514901/17/16 08:25:31  5-MIN KAOH 171325Z AUTO 26014KT 6SM -SN FEW019 BKN046 OVC070 M05/M08 A2987 1020 81 -1100 270/14 RMK AO2 SNE1254B25 P0000 T10501078
04850KAOH AOH20160117083014901/17/16 08:30:31  5-MIN KAOH 171330Z AUTO 27014KT 4SM -SN SCT021 BKN040 OVC070 M05/M08 A2988 1020 81 -1100 270/14 RMK AO2 SNE1254B25 P0000 T10501078
04850KAOH AOH20160117083515301/17/16 08:35:31  5-MIN KAOH 171335Z AUTO 26011KT 2 1/2SM -SN FEW019 SCT025 OVC035 M05/M08 A2988 1020 81 -1100 270/11 RMK AO2 SNE1254B25 P0000 T10501078
04850KAOH AOH20160117084015301/17/16 08:40:31  5-MIN KAOH 171340Z AUTO 27011KT 1 3/4SM -SN FEW019 FEW026 OVC033 M05/M08 A2988 1020 81 -1100 280/11 RMK AO2 SNE1254B25 P0000 T10501078
04850KAOH AOH20160117084515301/17/16 08:45:31  5-MIN KAOH 171345Z AUTO 27012KT 1 1/2SM -SN FEW019 BKN031 OVC038 M05/M08 A2988 1020 81 -1100 280/12 RMK AO2 SNE1254B25 P0000 T10501078
04850KAOH AOH20160117085013201/17/16 08:50:31  5-MIN KAOH 171350Z AUTO 27012KT 2SM -SN FEW019 OVC031 M05/M08 A2988 1010 81 -1100 270/12 RMK AO2 SNE1254B25 P0000
04850KAOH AOH20160117085514201/17/16 08:55:31  5-MIN KAOH 171355Z AUTO 27011KT 2 1/2SM -SN FEW023 BKN030 OVC046 M05/M08 A2988 1010 81 -1100 280/11 RMK AO2 P0000 T10501078
04850KAOH AOH20160117090013801/17/16 09:00:31  5-MIN KAOH 171400Z AUTO 26012KT 2SM -SN FEW023 BKN028 OVC046 M05/M08 A2988 1010 81 -1100 260/12 RMK AO2 P0000 T10501078
04850KAOH AOH20160117090513801/17/16 09:05:31  5-MIN KAOH 171405Z AUTO 26010KT 1 1/2SM -SN BR BKN023 BKN028 M06/M08 A2988 1010 84 -1200 270/10 RMK AO2 P0000 T10561078
04850KAOH AOH20160117091013801/17/16 09:10:31  5-MIN KAOH 171410Z AUTO 26014KT 1 1/4SM -SN BR BKN023 OVC028 M06/M08 A2988 1010 84 -1200 260/14 RMK AO2 P0000 T10561078
04850KAOH AOH20160117091513801/17/16 09:15:31  5-MIN KAOH 171415Z AUTO 25015KT 1 1/2SM -SN BR BKN023 OVC028 M06/M08 A2989 1010 84 -1200 250/15 RMK AO2 P0000 T10561078
04850KAOH AOH20160117092013401/17/16 09:20:31  5-MIN KAOH 171420Z AUTO 24014KT 2SM -SN BR BKN021 OVC028 M06/M08 A2989 1010 84 -1200 250/14 RMK AO2 P0000 T10561078
04850KAOH AOH20160117092513801/17/16 09:25:31  5-MIN KAOH 171425Z AUTO 25011KT 2 1/2SM -SN BR BKN021 OVC028 M06/M07 A2989 1010 88 -1200 250/11 RMK AO2 P0000 T10561072
04850KAOH AOH20160117093015701/17/16 09:30:31  5-MIN KAOH 171430Z AUTO 25012KT 2 1/2SM -SN BR FEW015 BKN021 OVC028 M05/M07 A2989 1000 84 -1100 260/12 RMK AO2 VIS 1 3/4V3 P0000 T10501072
04850KAOH AOH20160117093513401/17/16 09:35:31  5-MIN KAOH 171435Z AUTO 26011KT 3SM -SN BR BKN019 OVC028 M05/M07 A2989 1000 84 -1100 270/11 RMK AO2 P0000 T10501072
04850KAOH AOH20160117094013401/17/16 09:40:31  5-MIN KAOH 171440Z AUTO 27014KT 5SM -SN BR BKN017 OVC028 M05/M07 A2989 1000 84 -1100 270/14 RMK AO2 P0000 T10501072
04850KAOH AOH20160117094513401/17/16 09:45:31  5-MIN KAOH 171445Z AUTO 27016KT 4SM -SN BR BKN013 OVC026 M06/M07 A2989 1000 88 -1200 270/16 RMK AO2 P0000 T10561072
04850KAOH AOH20160117095016001/17/16 09:50:31  5-MIN KAOH 171450Z AUTO 28014KT 3SM -SN BR SCT013 BKN018 OVC026 M06/M08 A2989 1000 84 -1200 280/14 RMK AO2 SLP135 P0000 60000 T10561078 53005
04850KAOH AOH20160117095513401/17/16 09:55:31  5-MIN KAOH 171455Z AUTO 27014KT 3SM -SN BR BKN013 OVC028 M06/M08 A2989 1000 84 -1200 270/14 RMK AO2 P0000 T10561078
04850KAOH AOH20160117100012701/17/16 10:00:31  5-MIN KAOH 171500Z AUTO 26012KT 3SM -SN BR OVC013 M06/M08 A2990 1000 84 -1200 270/12 RMK AO2 P0000 T10561078
04850KAOH AOH20160117100513101/17/16 10:05:31  5-MIN KAOH 171505Z AUTO 25016KT 4SM -SN BKN013 OVC021 M06/M08 A2990 1000 81 -1200 260/16 RMK AO2 P0000 T10561083
04850KAOH AOH20160117101014001/17/16 10:10:31  5-MIN KAOH 171510Z AUTO 26016KT 8SM BKN013 BKN021 OVC065 M06/M09 A2990 1000 74 -1200 260/16 RMK AO2 SNE10 P0000 T10561094
04850KAOH AOH20160117101514001/17/16 10:15:31  5-MIN KAOH 171515Z AUTO 26015KT 9SM SCT015 BKN050 OVC065 M06/M09 A2990 1000 74 -1200 270/15 RMK AO2 SNE10 P0000 T10561094
04850KAOH AOH20160117102013901/17/16 10:20:31  5-MIN KAOH 171520Z AUTO 26017KT 9SM SCT015 BKN041 OVC065 M06/M09 A2990 990 74 -1200 270/17 RMK AO2 SNE10 P0000 T10561094
04850KAOH AOH20160117102515001/17/16 10:25:31  5-MIN KAOH 171525Z AUTO 26014KT 2 1/2SM -SN FEW015 BKN037 OVC065 M06/M09 A2991 990 77 -1200 260/14 RMK AO2 SNE10B24 P0000 T10561089
04850KAOH AOH20160117103015001/17/16 10:30:31  5-MIN KAOH 171530Z AUTO 26015KT 1 1/2SM -SN SCT021 BKN028 OVC065 M06/M08 A2991 990 81 -1200 260/15 RMK AO2 SNE10B24 P0000 T10561083
04850KAOH AOH20160117103515301/17/16 10:35:31  5-MIN KAOH 171535Z AUTO 28014KT 1 1/4SM -SN BR FEW012 BKN025 OVC065 M06/M08 A2990 990 84 -1300 280/14 RMK AO2 SNE10B24 P0000 T10611083
04850KAOH AOH20160117104015101/17/16 10:40:31  5-MIN KAOH 171540Z AUTO 28013KT 3/4SM -SN BR SCT013 BKN019 OVC046 M06/M08 A2991 990 84 -1300 280/13 RMK AO2 SNE10B24 P0000 T10611083
04850KAOH AOH20160117104515101/17/16 10:45:31  5-MIN KAOH 171545Z AUTO 27014KT 3/4SM -SN BR BKN015 BKN021 OVC026 M06/M08 A2991 990 84 -1300 280/14 RMK AO2 SNE10B24 P0000 T10611083
04850KAOH AOH20160117105015101/17/16 10:50:31  5-MIN KAOH 171550Z AUTO 28016KT 3/4SM -SN BR BKN017 OVC023 M06/M08 A2991 990 84 -1300 280/16 RMK AO2 SNE10B24 SLP141 P0000 T10611083
04850KAOH AOH20160117105514001/17/16 10:55:31  5-MIN KAOH 171555Z AUTO 27017KT 1SM -SN BR FEW013 BKN019 OVC026 M07/M08 A2991 980 88 -1400 280/17 RMK AO2 P0000 T10671083
04850KAOH AOH20160117110014401/17/16 11:00:31  5-MIN KAOH 171600Z AUTO 27015KT 1 1/2SM -SN BR FEW013 BKN019 OVC036 M07/M09 A2991 980 84 -1400 280/15 RMK AO2 P0000 T10671089
04850KAOH AOH20160117110513301/17/16 11:05:31  5-MIN KAOH 171605Z AUTO 27017KT 1SM -SN BR BKN016 OVC021 M07/M09 A2992 980 84 -1400 280/17 RMK AO2 P0000 T10671089
04850KAOH AOH20160117111013301/17/16 11:10:31  5-MIN KAOH 171610Z AUTO 27013G22KT 3/4SM -SN BR VV017 M07/M09 A2992 980 84 -1400 280/13G22 RMK AO2 P0000 T10671089
04850KAOH AOH20160117111513501/17/16 11:15:31  5-MIN KAOH 171615Z AUTO 28013KT 3/4SM -SN BR BKN015 OVC020 M07/M08 A2992 980 88 -1400 290/13 RMK AO2 P0000 T10671083
04850KAOH AOH20160117112013501/17/16 11:20:31  5-MIN KAOH 171620Z AUTO 28015KT 3/4SM -SN BR BKN015 OVC026 M07/M08 A2992 980 88 -1400 280/15 RMK AO2 P0000 T10671083
04850KAOH AOH20160117112513501/17/16 11:25:31  5-MIN KAOH 171625Z AUTO 27015KT 3/4SM -SN BR BKN016 OVC026 M07/M09 A2992 980 84 -1400 280/15 RMK AO2 P0000 T10671089
04850KAOH AOH20160117113012701/17/16 11:30:31  5-MIN KAOH 171630Z AUTO 27013KT 3/4SM -SN BR VV015 M07/M09 A2992 980 84 -1400 280/13 RMK AO2 P0000 T10671089
04850KAOH AOH20160117113513501/17/16 11:35:31  5-MIN KAOH 171635Z AUTO 29013KT 3/4SM -SN BR SCT011 OVC015 M07/M09 A2992 980 88 -1400 300/13 RMK AO2 P0000 T10721089
04850KAOH AOH20160117114013401/17/16 11:40:31  5-MIN KAOH 171640Z AUTO 28015G20KT 3/4SM -SN BR OVC013 M07/M09 A2992 980 84 -1400 290/15G20 RMK AO2 P0000 T10721094
04850KAOH AOH20160117114512701/17/16 11:45:31  5-MIN KAOH 171645Z AUTO 27018KT 3/4SM -SN BR VV015 M07/M09 A2992 980 84 -1400 270/18 RMK AO2 P0000 T10721094
04850KAOH AOH20160117115012301/17/16 11:50:31  5-MIN KAOH 171650Z AUTO 28015KT 1SM -SN BR FEW012 OVC017 M08/M10 A2992 980 84 -1500 280/15 RMK AO2 P0000
04850KAOH AOH20160117115512601/17/16 11:55:31  5-MIN KAOH 171655Z AUTO 27016KT 1SM -SN BR OVC017 M08/M10 A2992 980 84 -1500 280/16 RMK AO2 P0000 T10781100
04850KAOH AOH20160117120013501/17/16 12:00:31  5-MIN KAOH 171700Z AUTO 28012KT 3/4SM -SN BR FEW010 OVC017 M08/M09 A2991 980 88 -1500 280/12 RMK AO2 P0000 T10781094
04850KAOH AOH20160117120512601/17/16 12:05:31  5-MIN KAOH 171705Z AUTO 28012KT 1SM -SN BR OVC016 M07/M09 A2991 990 84 -1400 290/12 RMK AO2 P0000 T10721094
04850KAOH AOH20160117121013001/17/16 12:10:31  5-MIN KAOH 171710Z AUTO 27014KT 1 1/4SM -SN BR OVC018 M07/M09 A2991 990 84 -1400 280/14 RMK AO2 P0000 T10721094
04850KAOH AOH20160117121514101/17/16 12:15:31  5-MIN KAOH 171715Z AUTO 28015KT 1 1/2SM -SN BKN016 BKN021 OVC032 M07/M10 A2991 990 81 -1400 280/15 RMK AO2 P0000 T10721100
04850KAOH AOH20160117122014401/17/16 12:20:31  5-MIN KAOH 171720Z AUTO 27015KT 1 3/4SM -SN BR SCT013 BKN018 OVC023 M07/M09 A2991 990 84 -1400 270/15 RMK AO2 P0000 T10721094
04850KAOH AOH20160117122513701/17/16 12:25:31  5-MIN KAOH 171725Z AUTO 27017KT 2SM -SN SCT013 BKN018 OVC031 M07/M10 A2990 990 81 -1400 270/17 RMK AO2 P0000 T10721100
04850KAOH AOH20160117123014101/17/16 12:30:31  5-MIN KAOH 171730Z AUTO 26014KT 2 1/2SM -SN SCT015 BKN026 OVC031 M08/M11 A2990 990 80 -1500 270/14 RMK AO2 P0000 T10781106
04850KAOH AOH20160117123514501/17/16 12:35:31  5-MIN KAOH 171735Z AUTO 27015KT 2 1/2SM -SN BR FEW013 SCT019 OVC026 M08/M10 A2990 1000 84 -1500 270/15 RMK AO2 P0000 T10781100
04850KAOH AOH20160117124013801/17/16 12:40:31  5-MIN KAOH 171740Z AUTO 28016KT 4SM -SN SCT017 BKN028 OVC038 M08/M11 A2990 1000 80 -1500 280/16 RMK AO2 P0000 T10781106
04850KAOH AOH20160117124513801/17/16 12:45:31  5-MIN KAOH 171745Z AUTO 27016KT 8SM -SN FEW015 BKN020 OVC037 M08/M11 A2990 1000 80 -1500 280/16 RMK AO2 P0000 T10781106
04850KAOH AOH20160117125017501/17/16 12:50:31  5-MIN KAOH 171750Z AUTO 26015G23KT 7SM -SN FEW017 SCT021 OVC026 M07/M11 A2990 1000 77 -1400 270/15G23 RMK AO2 SLP137 P0000 60000 T10721106 11044 21078 51007
04850KAOH AOH20160117125513101/17/16 12:55:31  5-MIN KAOH 171755Z AUTO 26018KT 5SM -SN FEW017 OVC026 M08/M11 A2989 1000 77 -1500 270/18 RMK AO2 P0000 T10781111
04850KAOH AOH20160117130013801/17/16 13:00:31  5-MIN KAOH 171800Z AUTO 27017KT 3SM -SN FEW017 BKN023 OVC027 M08/M11 A2989 1000 80 -1500 270/17 RMK AO2 P0000 T10781106
04850KAOH AOH20160117130513801/17/16 13:05:31  5-MIN KAOH 171805Z AUTO 27016KT 2SM -SN FEW018 BKN024 OVC030 M08/M11 A2989 1000 77 -1500 280/16 RMK AO2 P0000 T10781111
04850KAOH AOH20160117131013101/17/16 13:10:31  5-MIN KAOH 171810Z AUTO 28017KT 2SM -SN BKN022 OVC030 M08/M11 A2989 1000 77 -1500 290/17 RMK AO2 P0000 T10781111
04850KAOH AOH20160117131514801/17/16 13:15:31  5-MIN KAOH 171815Z AUTO 28019G23KT 1 3/4SM -SN BKN018 BKN023 OVC029 M08/M11 A2989 1000 77 -1500 280/19G23 RMK AO2 P0000 T10781111
04850KAOH AOH20160117132015901/17/16 13:20:31  5-MIN KAOH 171820Z AUTO 28016G26KT 1 1/2SM -SN BKN018 OVC025 M08/M11 A2989 1000 80 -1600 290/16G26 RMK AO2 PK WND 27026/1817 P0000 T10831111
04850KAOH AOH20160117132515901/17/16 13:25:31  5-MIN KAOH 171825Z AUTO 27018G26KT 1 1/4SM -SN BKN018 OVC025 M08/M11 A2989 1000 80 -1600 280/18G26 RMK AO2 PK WND 27026/1817 P0000 T10831111
04850KAOH AOH20160117133015301/17/16 13:30:31  5-MIN KAOH 171830Z AUTO 28018KT 1 3/4SM -SN BKN016 OVC022 M08/M12 A2990 1000 77 -1600 280/18 RMK AO2 PK WND 27026/1817 P0000 T10831117
04850KAOH AOH20160117133514201/17/16 13:35:31  5-MIN KAOH 171835Z AUTO 28016KT 2SM -SN OVC019 M09/M12 A2990 1000 80 -1600 280/16 RMK AO2 PK WND 27026/1817 P0000 T10891117
04850KAOH AOH20160117134015901/17/16 13:40:31  5-MIN KAOH 171840Z AUTO 27020G25KT 2 1/2SM -SN BKN017 OVC022 M09/M12 A2990 1000 77 -1600 280/20G25 RMK AO2 PK WND 27026/1817 P0000 T10891122
04850KAOH AOH20160117134515501/17/16 13:45:31  5-MIN KAOH 171845Z AUTO 28019G25KT 5SM -SN SCT017 OVC022 M09/M13 A2990 1000 74 -1600 280/19G25 RMK AO2 PK WND 27026/1817 P0000 T10891128
04850KAOH AOH20160117135013201/17/16 13:50:31  5-MIN KAOH 171850Z AUTO 27018KT 9SM -SN OVC022 M09/M13 A2990 1000 74 -1600 280/18 RMK AO2 PK WND 27026/1817 P0000
04850KAOH AOH20160117135513301/17/16 13:55:31  5-MIN KAOH 171855Z AUTO 27019KT 9SM FEW016 OVC022 M09/M13 A2990 1000 73 -1700 270/19 RMK AO2 SNE55 P0000 T10941133
04850KAOH AOH20160117140013501/17/16 14:00:31  5-MIN KAOH 171900Z AUTO 26018KT 9SM FEW017 OVC024 M09/M13 A2990 1000 74 -1600 260/18 RMK AO2 SNE1855 P0000 T10891128
04850KAOH AOH20160117140512901/17/16 14:05:31  5-MIN KAOH 171905Z AUTO 25018KT 10SM OVC024 M09/M13 A2990 1000 70 -1600 260/18 RMK AO2 SNE1855 P0000 T10891133
04850KAOH AOH20160117141012901/17/16 14:10:31  5-MIN KAOH 171910Z AUTO 25017KT 10SM OVC024 M09/M13 A2990 1000 70 -1600 260/17 RMK AO2 SNE1855 P0000 T10891133
04850KAOH AOH20160117141513601/17/16 14:15:31  5-MIN KAOH 171915Z AUTO 26014KT 10SM -SN OVC023 M09/M13 A2990 1000 70 -1600 270/14 RMK AO2 SNE1855B15 P0000 T10891133
04850KAOH AOH20160117142014101/17/16 14:20:31  5-MIN KAOH 171920Z AUTO 27018G22KT 8SM -SN OVC023 M09/M13 A2990 1000 73 -1700 280/18G22 RMK AO2 SNE1855B15 P0000 T10941133
04850KAOH AOH20160117142514101/17/16 14:25:31  5-MIN KAOH 171925Z AUTO 28018G24KT 7SM -SN OVC023 M09/M13 A2990 1000 73 -1700 290/18G24 RMK AO2 SNE1855B15 P0000 T10941133
04850KAOH AOH20160117143014001/17/16 14:30:31  5-MIN KAOH 171930Z AUTO 28012G24KT 7SM -SN OVC023 M10/M14 A2990 990 73 -1800 290/12G24 RMK AO2 SNE1855B15 P0000 T11001139
04850KAOH AOH20160117143514001/17/16 14:35:31  5-MIN KAOH 171935Z AUTO 27017G22KT 8SM -SN OVC022 M09/M14 A2991 990 70 -1700 270/17G22 RMK AO2 SNE1855B15 P0000 T10941139
04850KAOH AOH20160117144013301/17/16 14:40:31  5-MIN KAOH 171940Z AUTO 27014KT 9SM OVC022 M09/M14 A2991 990 70 -1700 280/14 RMK AO2 SNE1855B15E39 P0000 T10941139
04850KAOH AOH20160117144513401/17/16 14:45:31  5-MIN KAOH 171945Z AUTO 28015KT 6SM -SN OVC022 M10/M13 A2991 990 77 -1800 290/15 RMK AO2 SNE1855B15 P0000 T11001133
04850KAOH AOH20160117145014701/17/16 14:50:31  5-MIN KAOH 171950Z AUTO 27017G25KT 4SM -SN OVC022 M10/M13 A2991 990 77 -1800 270/17G25 RMK AO2 SNE1855B15 SLP144 P0000 T11001133
04850KAOH AOH20160117145512301/17/16 14:55:31  5-MIN KAOH 171955Z AUTO 27017KT 4SM -SN OVC022 M10/M13 A2991 980 77 -1800 280/17 RMK AO2 P0000 T11001133
04850KAOH AOH20160117150012301/17/16 15:00:31  5-MIN KAOH 172000Z AUTO 29015KT 8SM -SN OVC024 M10/M14 A2992 980 70 -1800 290/15 RMK AO2 P0000 T11001144
04850KAOH AOH20160117150512501/17/16 15:05:31  5-MIN KAOH 172005Z AUTO 26017KT 9SM OVC026 M10/M14 A2992 980 70 -1800 270/17 RMK AO2 SNE01 P0000 T11001144
04850KAOH AOH20160117151013201/17/16 15:10:31  5-MIN KAOH 172010Z AUTO 27016G24KT 10SM OVC026 M10/M14 A2992 980 70 -1800 280/16G24 RMK AO2 SNE01 P0000 T11001144
04850KAOH AOH20160117151513201/17/16 15:15:31  5-MIN KAOH 172015Z AUTO 26020G24KT 10SM OVC025 M10/M14 A2992 980 70 -1800 270/20G24 RMK AO2 SNE01 P0000 T11001144
04850KAOH AOH20160117152013201/17/16 15:20:31  5-MIN KAOH 172020Z AUTO 26021G24KT 10SM OVC025 M10/M15 A2993 970 67 -1800 270/21G24 RMK AO2 SNE01 P0000 T11001150
04850KAOH AOH20160117152512601/17/16 15:25:31  5-MIN KAOH 172025Z AUTO 27020KT 10SM OVC027 M11/M15 A2993 970 70 -1900 280/20 RMK AO2 SNE01 P0000 T11061150
04850KAOH AOH20160117153013201/17/16 15:30:31  5-MIN KAOH 172030Z AUTO 28018G25KT 10SM OVC027 M11/M15 A2993 970 70 -1900 280/18G25 RMK AO2 SNE01 P0000 T11061150
04850KAOH AOH20160117153512601/17/16 15:35:31  5-MIN KAOH 172035Z AUTO 27017KT 10SM OVC027 M11/M15 A2993 970 70 -1900 280/17 RMK AO2 SNE01 P0000 T11061150
04850KAOH AOH20160117154013201/17/16 15:40:31  5-MIN KAOH 172040Z AUTO 27016KT 9SM BKN027 OVC032 M11/M15 A2993 970 70 -1900 280/16 RMK AO2 SNE01 P0000 T11061150
04850KAOH AOH20160117154513901/17/16 15:45:31  5-MIN KAOH 172045Z AUTO 29016KT 6SM -SN BKN026 OVC032 M11/M16 A2993 970 70 -2000 300/16 RMK AO2 SNE01B42 P0000 T11111156
04850KAOH AOH20160117155015101/17/16 15:50:31  5-MIN KAOH 172050Z AUTO 29016KT 5SM -SN OVC026 M11/M16 A2994 960 70 -2000 300/16 RMK AO2 SNE01B42 SLP153 P0000 60000 T11111156 58001
04850KAOH AOH20160117155512301/17/16 15:55:31  5-MIN KAOH 172055Z AUTO 28014KT 6SM -SN OVC026 M11/M15 A2994 960 70 -1900 280/14 RMK AO2 P0000 T11061150
04850KAOH AOH20160117160013301/17/16 16:00:31  5-MIN KAOH 172100Z AUTO 28019G23KT 9SM OVC026 M11/M15 A2994 960 70 -1900 280/19G23 RMK AO2 SNE2059 P0000 T11061150
04850KAOH AOH20160117160513401/17/16 16:05:31  5-MIN KAOH 172105Z AUTO 29018G23KT 10SM OVC028 M11/M16 A2994 960 67 -2000 300/18G23 RMK AO2 SNE2059 P0000 T11111161
04850KAOH AOH20160117161013401/17/16 16:10:31  5-MIN KAOH 172110Z AUTO 27018G22KT 10SM OVC028 M11/M16 A2994 960 67 -2000 270/18G22 RMK AO2 SNE2059 P0000 T11111161
04850KAOH AOH20160117161512801/17/16 16:15:31  5-MIN KAOH 172115Z AUTO 28017KT 10SM OVC028 M11/M16 A2994 960 67 -2000 290/17 RMK AO2 SNE2059 P0000 T11111161
04850KAOH AOH20160117162012801/17/16 16:20:31  5-MIN KAOH 172120Z AUTO 27014KT 10SM OVC028 M11/M16 A2994 960 67 -2000 280/14 RMK AO2 SNE2059 P0000 T11111161
04850KAOH AOH20160117162513401/17/16 16:25:31  5-MIN KAOH 172125Z AUTO 28018G21KT 10SM OVC028 M11/M16 A2994 960 70 -2000 280/18G21 RMK AO2 SNE2059 P0000 T11111156
04850KAOH AOH20160117163012801/17/16 16:30:31  5-MIN KAOH 172130Z AUTO 27018KT 10SM OVC028 M11/M16 A2995 950 67 -2000 280/18 RMK AO2 SNE2059 P0000 T11111161
04850KAOH AOH20160117163512801/17/16 16:35:31  5-MIN KAOH 172135Z AUTO 27018KT 10SM OVC028 M11/M16 A2995 950 67 -2000 280/18 RMK AO2 SNE2059 P0000 T11111161
04850KAOH AOH20160117164012801/17/16 16:40:31  5-MIN KAOH 172140Z AUTO 29014KT 10SM OVC028 M11/M16 A2995 950 70 -2000 300/14 RMK AO2 SNE2059 P0000 T11111156
04850KAOH AOH20160117164513301/17/16 16:45:31  5-MIN KAOH 172145Z AUTO 29016G21KT 9SM OVC028 M11/M16 A2995 950 67 -2000 300/16G21 RMK AO2 SNE2059 P0000 T11111161
04850KAOH AOH20160117165014801/17/16 16:50:31  5-MIN KAOH 172150Z AUTO 28015G21KT 10SM BKN028 OVC035 M11/M16 A2995 950 67 -2000 290/15G21 RMK AO2 SNE2059 SLP157 P0000 T11111161
04850KAOH AOH20160117165514501/17/16 16:55:31  5-MIN KAOH 172155Z AUTO 29019G26KT 10SM BKN030 OVC036 M11/M17 A2995 950 64 -2000 300/19G26 RMK AO2 PK WND 29026/2154 T11111167
04850KAOH AOH20160117170014501/17/16 17:00:31  5-MIN KAOH 172200Z AUTO 30015G26KT 10SM BKN030 OVC038 M12/M17 A2995 950 67 -2100 310/15G26 RMK AO2 PK WND 29026/2154 T11171167
04850KAOH AOH20160117170514401/17/16 17:05:31  5-MIN KAOH 172205Z AUTO 28014G22KT 9SM BKN030 OVC038 M12/M17 A2995 950 67 -2100 290/14G22 RMK AO2 PK WND 29026/2154 T11171167
04850KAOH AOH20160117171015401/17/16 17:10:31  5-MIN KAOH 172210Z AUTO 30015KT 8SM -SN BKN030 OVC038 M12/M16 A2996 940 70 -2100 310/15 RMK AO2 PK WND 29026/2154 SNB10 P0000 T11171161
04850KAOH AOH20160117171515401/17/16 17:15:31  5-MIN KAOH 172215Z AUTO 30015KT 5SM -SN BKN028 OVC036 M12/M16 A2996 940 73 -2100 310/15 RMK AO2 PK WND 29026/2154 SNB10 P0000 T11171156
04850KAOH AOH20160117172015401/17/16 17:20:31  5-MIN KAOH 172220Z AUTO 28013KT 4SM -SN BKN028 OVC038 M12/M15 A2996 940 76 -2100 290/13 RMK AO2 PK WND 29026/2154 SNB10 P0000 T11171150
04850KAOH AOH20160117172516001/17/16 17:25:31  5-MIN KAOH 172225Z AUTO 29017G21KT 6SM -SN BKN028 OVC038 M12/M16 A2997 940 73 -2100 300/17G21 RMK AO2 PK WND 29026/2154 SNB10 P0000 T11171156
04850KAOH AOH20160117173015901/17/16 17:30:31  5-MIN KAOH 172230Z AUTO 29012G21KT 9SM SCT026 OVC038 M12/M16 A2997 930 70 -2100 290/12G21 RMK AO2 PK WND 29026/2154 SNB10E26 P0000 T11171161
04850KAOH AOH20160117173515901/17/16 17:35:31  5-MIN KAOH 172235Z AUTO 28017G21KT 8SM SCT026 OVC038 M12/M16 A2997 930 70 -2100 290/17G21 RMK AO2 PK WND 29026/2154 SNB10E26 P0000 T11171161
04850KAOH AOH20160117174015601/17/16 17:40:31  5-MIN KAOH 172240Z AUTO 29015KT 6SM HZ SCT028 OVC038 M12/M16 A2997 930 73 -2200 290/15 RMK AO2 PK WND 29026/2154 SNB10E26 P0000 T11221161
04850KAOH AOH20160117174515301/17/16 17:45:31  5-MIN KAOH 172245Z AUTO 29016KT 7SM SCT028 OVC038 M12/M17 A2997 930 70 -2200 300/16 RMK AO2 PK WND 29026/2154 SNB10E26 P0000 T11221167
04850KAOH AOH20160117175016701/17/16 17:50:31  5-MIN KAOH 172250Z AUTO 29015G22KT 10SM SCT028 BKN038 M12/M17 A2997 930 70 -2200 300/15G22 RMK AO2 PK WND 29026/2154 SNB10E26 SLP166 P0000 T11221167
04850KAOH AOH20160117175512701/17/16 17:55:31  5-MIN KAOH 172255Z AUTO 29016G23KT 10SM FEW028 BKN036 M12/M18 A2998 930 64 -2200 290/16G23 RMK AO2 T11221178
04850KAOH AOH20160117180012701/17/16 18:00:31  5-MIN KAOH 172300Z AUTO 29018G25KT 10SM FEW028 BKN036 M12/M18 A2998 920 64 -2200 300/18G25 RMK AO2 T11221178
04850KAOH AOH20160117180512701/17/16 18:05:31  5-MIN KAOH 172305Z AUTO 28017G25KT 10SM FEW028 SCT038 M12/M18 A2998 920 64 -2200 290/17G25 RMK AO2 T11221178
04850KAOH AOH20160117181012101/17/16 18:10:31  5-MIN KAOH 172310Z AUTO 29015KT 10SM FEW028 SCT038 M12/M18 A2998 920 64 -2200 300/15 RMK AO2 T11221178
04850KAOH AOH20160117181512101/17/16 18:15:31  5-MIN KAOH 172315Z AUTO 29016KT 10SM FEW030 SCT038 M12/M18 A2998 920 64 -2200 290/16 RMK AO2 T11221178
04850KAOH AOH20160117182012001/17/16 18:20:31  5-MIN KAOH 172320Z AUTO 29018G24KT 10SM FEW035 M12/M18 A2998 920 61 -2200 290/18G24 RMK AO2 T11221183
04850KAOH AOH20160117182512001/17/16 18:25:31  5-MIN KAOH 172325Z AUTO 29018G24KT 10SM FEW038 M13/M18 A2999 920 63 -2300 290/18G24 RMK AO2 T11281183
04850KAOH AOH20160117183012001/17/16 18:30:31  5-MIN KAOH 172330Z AUTO 28019G24KT 10SM FEW038 M13/M18 A2999 910 63 -2300 290/19G24 RMK AO2 T11281183
04850KAOH AOH20160117183511401/17/16 18:35:31  5-MIN KAOH 172335Z AUTO 28017KT 10SM FEW037 M13/M18 A2999 910 66 -2300 280/17 RMK AO2 T11281178
04850KAOH AOH20160117184012001/17/16 18:40:31  5-MIN KAOH 172340Z AUTO 28018G23KT 10SM FEW025 M13/M18 A2999 910 66 -2300 290/18G23 RMK AO2 T11281178
04850KAOH AOH20160117184512001/17/16 18:45:31  5-MIN KAOH 172345Z AUTO 28014G25KT 10SM FEW027 M13/M18 A2999 910 66 -2300 290/14G25 RMK AO2 T11281178
04850KAOH AOH20160117185015801/17/16 18:50:31  5-MIN KAOH 172350Z AUTO 29017G25KT 10SM SCT027 SCT038 M13/M18 A2999 910 66 -2300 300/17G25 RMK AO2 SLP174 60000 T11281178 11072 21128 53015
04850KAOH AOH20160117185512701/17/16 18:55:31  5-MIN KAOH 172355Z AUTO 29017G24KT 10SM FEW027 SCT040 M13/M18 A3000 910 66 -2300 290/17G24 RMK AO2 T11281178
04850KAOH AOH20160117190012701/17/16 19:00:31  5-MIN KAOH 180000Z AUTO 28020G25KT 10SM FEW027 BKN042 M13/M18 A3000 900 66 -2300 290/20G25 RMK AO2 T11281178
04850KAOH AOH20160117190512701/17/16 19:05:31  5-MIN KAOH 180005Z AUTO 27019G25KT 10SM SCT029 BKN042 M13/M18 A3000 900 66 -2300 280/19G25 RMK AO2 T11281178
04850KAOH AOH20160117191014901/17/16 19:10:31  5-MIN KAOH 180010Z AUTO 28016G24KT 8SM UP BKN029 OVC042 M13/M17 A3000 900 70 -2300 290/16G24 RMK AO2 UPB09SNB08E09 P0000 T11281172
04850KAOH AOH20160117191516301/17/16 19:15:31  5-MIN KAOH 180015Z AUTO 28019G24KT 7SM -SN SCT026 BKN031 OVC042 M13/M17 A3001 900 70 -2300 290/19G24 RMK AO2 UPB09E11SNB08E09B11 P0000 T11281172
04850KAOH AOH20160117192016301/17/16 19:20:31  5-MIN KAOH 180020Z AUTO 30018G25KT 5SM -SN SCT020 BKN031 OVC042 M13/M17 A3001 900 73 -2400 300/18G25 RMK AO2 UPB09E11SNB08E09B11 P0000 T11331172
04850KAOH AOH20160117192515601/17/16 19:25:31  5-MIN KAOH 180025Z AUTO 30014G25KT 4SM -SN SCT022 OVC031 M13/M17 A3001 890 73 -2300 300/14G25 RMK AO2 UPB09E11SNB08E09B11 P0000 T11281167
04850KAOH AOH20160117193015001/17/16 19:30:31  5-MIN KAOH 180030Z AUTO 30018KT 3SM -SN BKN022 OVC030 M13/M16 A3001 890 80 -2400 300/18 RMK AO2 UPB09E11SNB08E09B11 P0000 T11331161
04850KAOH AOH20160117193515001/17/16 19:35:31  5-MIN KAOH 180035Z AUTO 30018KT 2SM -SN BKN020 OVC030 M13/M16 A3002 890 80 -2400 310/18 RMK AO2 UPB09E11SNB08E09B11 P0000 T11331161
04850KAOH AOH20160117194016101/17/16 19:40:31  5-MIN KAOH 180040Z AUTO 30016KT 2 1/2SM -SN FEW017 BKN022 OVC030 M13/M17 A3002 890 76 -2400 310/16 RMK AO2 UPB09E11SNB08E09B11 P0000 T11331167
04850KAOH AOH20160117194515701/17/16 19:45:31  5-MIN KAOH 180045Z AUTO 30019KT 6SM -SN FEW018 BKN024 OVC036 M14/M17 A3002 880 76 -2400 310/19 RMK AO2 UPB09E11SNB08E09B11 P0000 T11391172
04850KAOH AOH20160117195014501/17/16 19:50:31  5-MIN KAOH 180050Z AUTO 30019G25KT 9SM SCT021 OVC029 M14/M18 A3003 880 69 -2500 310/19G25 RMK AO2 UPB09E11SNB08E09B11E46 P0000
04850KAOH AOH20160117195513401/17/16 19:55:31  5-MIN KAOH 180055Z AUTO 30014G25KT 10SM FEW021 BKN029 BKN035 M14/M18 A3003 870 69 -2500 300/14G25 RMK AO2 T11391183
04850KAOH AOH20160117200012701/17/16 20:00:31  5-MIN KAOH 180100Z AUTO 29016G21KT 10SM SCT029 BKN035 M14/M18 A3003 870 69 -2500 300/16G21 RMK AO2 T11391183
04850KAOH AOH20160117200511401/17/16 20:05:31  5-MIN KAOH 180105Z AUTO 29015KT 10SM SCT032 M14/M19 A3003 870 66 -2500 300/15 RMK AO2 T11391189
04850KAOH AOH20160117201011401/17/16 20:10:31  5-MIN KAOH 180110Z AUTO 29017KT 10SM SCT032 M14/M19 A3003 870 63 -2500 300/17 RMK AO2 T11391194
04850KAOH AOH20160117201511401/17/16 20:15:31  5-MIN KAOH 180115Z AUTO 29016KT 10SM FEW032 M14/M19 A3004 870 66 -2500 300/16 RMK AO2 T11441194
04850KAOH AOH20160117202011701/17/16 20:20:31  5-MIN KAOH 180120Z AUTO 30019G24KT 10SM CLR M14/M20 A3004 870 63 -2500 300/19G24 RMK AO2 T11441200
04850KAOH AOH20160117202511701/17/16 20:25:31  5-MIN KAOH 180125Z AUTO 29015G24KT 10SM CLR M14/M20 A3004 870 63 -2500 300/15G24 RMK AO2 T11441200
04850KAOH AOH20160117203011701/17/16 20:30:31  5-MIN KAOH 180130Z AUTO 30014G23KT 10SM CLR M14/M20 A3004 870 63 -2500 300/14G23 RMK AO2 T11441200
04850KAOH AOH20160117203511701/17/16 20:35:31  5-MIN KAOH 180135Z AUTO 29017G22KT 10SM CLR M14/M20 A3004 870 63 -2500 300/17G22 RMK AO2 T11441200
04850KAOH AOH20160117204011701/17/16 20:40:31  5-MIN KAOH 180140Z AUTO 28013G22KT 10SM CLR M14/M19 A3004 870 66 -2500 290/13G22 RMK AO2 T11441194
04850KAOH AOH20160117204511101/17/16 20:45:31  5-MIN KAOH 180145Z AUTO 29015KT 10SM CLR M14/M20 A3004 870 63 -2500 290/15 RMK AO2 T11441200
04850KAOH AOH20160117205012401/17/16 20:50:31  5-MIN KAOH 180150Z AUTO 29014G22KT 10SM CLR M14/M20 A3004 860 63 -2500 300/14G22 RMK AO2 SLP191 T11441200
04850KAOH AOH20160117205511701/17/16 20:55:31  5-MIN KAOH 180155Z AUTO 29016G21KT 10SM CLR M14/M20 A3005 860 63 -2500 290/16G21 RMK AO2 T11441200
04850KAOH AOH20160117210011101/17/16 21:00:31  5-MIN KAOH 180200Z AUTO 29016KT 10SM CLR M14/M20 A3005 860 63 -2600 290/16 RMK AO2 T11441200
04850KAOH AOH20160117210511701/17/16 21:05:31  5-MIN KAOH 180205Z AUTO 28013G21KT 10SM CLR M14/M20 A3005 860 63 -2600 290/13G21 RMK AO2 T11441200
04850KAOH AOH20160117211011701/17/16 21:10:31  5-MIN KAOH 180210Z AUTO 28014G22KT 10SM CLR M14/M20 A3005 860 63 -2600 290/14G22 RMK AO2 T11441200
04850KAOH AOH20160117211511701/17/16 21:15:31  5-MIN KAOH 180215Z AUTO 29014G22KT 10SM CLR M14/M20 A3005 860 63 -2600 290/14G22 RMK AO2 T11441200
04850KAOH AOH20160117212011701/17/16 21:20:31  5-MIN KAOH 180220Z AUTO 28017G22KT 10SM CLR M14/M21 A3005 860 60 -2600 290/17G22 RMK AO2 T11441206
04850KAOH AOH20160117212511701/17/16 21:25:31  5-MIN KAOH 180225Z AUTO 28019G24KT 10SM CLR M14/M20 A3005 860 63 -2600 280/19G24 RMK AO2 T11441200
04850KAOH AOH20160117213011701/17/16 21:30:31  5-MIN KAOH 180230Z AUTO 28014G24KT 10SM CLR M14/M20 A3005 850 63 -2600 290/14G24 RMK AO2 T11441200
04850KAOH AOH20160117213511101/17/16 21:35:31  5-MIN KAOH 180235Z AUTO 27013KT 10SM CLR M14/M19 A3006 850 66 -2600 280/13 RMK AO2 T11441194
04850KAOH AOH20160117214011101/17/16 21:40:31  5-MIN KAOH 180240Z AUTO 27013KT 10SM CLR M14/M19 A3006 850 66 -2600 280/13 RMK AO2 T11441194
04850KAOH AOH20160117214511101/17/16 21:45:31  5-MIN KAOH 180245Z AUTO 27015KT 10SM CLR M14/M19 A3006 850 66 -2600 280/15 RMK AO2 T11441194
04850KAOH AOH20160117215013001/17/16 21:50:31  5-MIN KAOH 180250Z AUTO 27017KT 10SM CLR M14/M19 A3006 850 66 -2600 270/17 RMK AO2 SLP199 60000 T11441194 53019
04850KAOH AOH20160117215511101/17/16 21:55:31  5-MIN KAOH 180255Z AUTO 27016KT 10SM CLR M14/M19 A3007 840 66 -2600 280/16 RMK AO2 T11441194
04850KAOH AOH20160117220011101/17/16 22:00:31  5-MIN KAOH 180300Z AUTO 27016KT 10SM CLR M14/M19 A3007 840 66 -2600 270/16 RMK AO2 T11441194
04850KAOH AOH20160117220511101/17/16 22:05:31  5-MIN KAOH 180305Z AUTO 27012KT 10SM CLR M14/M19 A3007 840 66 -2600 270/12 RMK AO2 T11441194
04850KAOH AOH20160117221011101/17/16 22:10:31  5-MIN KAOH 180310Z AUTO 26016KT 10SM CLR M14/M19 A3007 840 69 -2600 260/16 RMK AO2 T11441189
04850KAOH AOH20160117221511101/17/16 22:15:31  5-MIN KAOH 180315Z AUTO 26015KT 10SM CLR M14/M19 A3007 840 69 -2600 270/15 RMK AO2 T11441189
04850KAOH AOH20160117222011101/17/16 22:20:31  5-MIN KAOH 180320Z AUTO 27014KT 10SM CLR M14/M19 A3007 840 69 -2600 270/14 RMK AO2 T11441189
04850KAOH AOH20160117222511101/17/16 22:25:31  5-MIN KAOH 180325Z AUTO 26014KT 10SM CLR M14/M19 A3007 840 69 -2600 270/14 RMK AO2 T11441189
04850KAOH AOH20160117223011701/17/16 22:30:31  5-MIN KAOH 180330Z AUTO 26016G21KT 10SM CLR M14/M19 A3007 840 69 -2600 270/16G21 RMK AO2 T11441189
04850KAOH AOH20160117223511101/17/16 22:35:31  5-MIN KAOH 180335Z AUTO 26014KT 10SM CLR M14/M19 A3007 830 69 -2600 270/14 RMK AO2 T11441189
04850KAOH AOH20160117224011101/17/16 22:40:31  5-MIN KAOH 180340Z AUTO 26014KT 10SM CLR M14/M19 A3007 840 69 -2600 270/14 RMK AO2 T11441189
04850KAOH AOH20160117224511101/17/16 22:45:31  5-MIN KAOH 180345Z AUTO 26015KT 10SM CLR M14/M19 A3008 830 69 -2600 270/15 RMK AO2 T11441189
04850KAOH AOH20160117225011801/17/16 22:50:31  5-MIN KAOH 180350Z AUTO 26015KT 10SM CLR M14/M19 A3008 830 69 -2600 270/15 RMK AO2 SLP203 T11441189
04850KAOH AOH20160117225511101/17/16 22:55:31  5-MIN KAOH 180355Z AUTO 26014KT 10SM CLR M14/M19 A3008 830 69 -2600 270/14 RMK AO2 T11441189
04850KAOH AOH20160117230011101/17/16 23:00:31  5-MIN KAOH 180400Z AUTO 26015KT 10SM CLR M14/M19 A3008 830 69 -2600 270/15 RMK AO2 T11441189
04850KAOH AOH20160117230511101/17/16 23:05:31  5-MIN KAOH 180405Z AUTO 26013KT 10SM CLR M14/M19 A3008 830 69 -2600 260/13 RMK AO2 T11441189
04850KAOH AOH20160117231011101/17/16 23:10:31  5-MIN KAOH 180410Z AUTO 26014KT 10SM CLR M14/M19 A3008 830 69 -2600 270/14 RMK AO2 T11441189
04850KAOH AOH20160117231511101/17/16 23:15:31  5-MIN KAOH 180415Z AUTO 27013KT 10SM CLR M14/M19 A3008 830 69 -2600 270/13 RMK AO2 T11441189
04850KAOH AOH20160117232011101/17/16 23:20:31  5-MIN KAOH 180420Z AUTO 27014KT 10SM CLR M14/M19 A3008 830 69 -2600 270/14 RMK AO2 T11441189
04850KAOH AOH20160117232511101/17/16 23:25:31  5-MIN KAOH 180425Z AUTO 26016KT 10SM CLR M14/M19 A3008 830 69 -2600 270/16 RMK AO2 T11441189
04850KAOH AOH20160117233011101/17/16 23:30:31  5-MIN KAOH 180430Z AUTO 26014KT 10SM CLR M14/M19 A3009 820 69 -2600 270/14 RMK AO2 T11441189
04850KAOH AOH20160117233511101/17/16 23:35:31  5-MIN KAOH 180435Z AUTO 26018KT 10SM CLR M14/M19 A3009 820 66 -2600 270/18 RMK AO2 T11441194
04850KAOH AOH20160117234011101/17/16 23:40:31  5-MIN KAOH 180440Z AUTO 27018KT 10SM CLR M14/M19 A3009 820 66 -2600 280/18 RMK AO2 T11441194
04850KAOH AOH20160117234511101/17/16 23:45:31  5-MIN KAOH 180445Z AUTO 26015KT 10SM CLR M14/M19 A3009 820 66 -2600 270/15 RMK AO2 T11441194
04850KAOH AOH20160117235012801/17/16 23:50:31  5-MIN KAOH 180450Z AUTO 27016KT 10SM CLR M15/M19 A3009 820 69 -2700 270/16 RMK AO2 SLP210 T11501194 410171150
04850KAOH AOH20160117235511101/17/16 23:55:31  5-MIN KAOH 180455Z AUTO 26017KT 10SM CLR M15/M19 A3009 820 69 -2700 270/17 RMK AO2 T11501194
04850KAOH AOH20160118000011101/18/16 00:00:31  5-MIN KAOH 180500Z AUTO 27018KT 10SM CLR M15/M19 A3009 820 69 -2700 280/18 RMK AO2 T11501194
04850KAOH AOH20160118000511101/18/16 00:05:31  5-MIN KAOH 180505Z AUTO 26013KT 10SM CLR M15/M19 A3009 820 69 -2700 270/13 RMK AO2 T11501194
04850KAOH AOH20160118001011101/18/16 00:10:31  5-MIN KAOH 180510Z AUTO 27015KT 10SM CLR M15/M19 A3010 820 69 -2700 270/15 RMK AO2 T11501194
04850KAOH AOH20160118001511101/18/16 00:15:31  5-MIN KAOH 180515Z AUTO 27015KT 10SM CLR M15/M19 A3010 820 69 -2700 270/15 RMK AO2 T11501194
04850KAOH AOH20160118002011101/18/16 00:20:31  5-MIN KAOH 180520Z AUTO 26012KT 10SM CLR M15/M19 A3010 810 69 -2700 260/12 RMK AO2 T11501194
04850KAOH AOH20160118002511101/18/16 00:25:31  5-MIN KAOH 180525Z AUTO 26017KT 10SM CLR M15/M19 A3010 810 69 -2700 270/17 RMK AO2 T11501194
04850KAOH AOH20160118003011101/18/16 00:30:31  5-MIN KAOH 180530Z AUTO 27014KT 10SM CLR M15/M19 A3010 810 69 -2700 270/14 RMK AO2 T11501194
04850KAOH AOH20160118003511101/18/16 00:35:31  5-MIN KAOH 180535Z AUTO 25014KT 10SM CLR M15/M19 A3010 810 69 -2700 260/14 RMK AO2 T11501194
04850KAOH AOH20160118004011101/18/16 00:40:31  5-MIN KAOH 180540Z AUTO 25015KT 10SM CLR M15/M19 A3010 810 72 -2700 260/15 RMK AO2 T11501189
04850KAOH AOH20160118004511101/18/16 00:45:31  5-MIN KAOH 180545Z AUTO 25014KT 10SM CLR M15/M19 A3010 810 69 -2700 260/14 RMK AO2 T11501194
04850KAOH AOH20160118005014201/18/16 00:50:31  5-MIN KAOH 180550Z AUTO 25015KT 10SM CLR M15/M19 A3010 810 69 -2700 260/15 RMK AO2 SLP212 60000 T11501194 11128 21150 51022
04850KAOH AOH20160118005511101/18/16 00:55:31  5-MIN KAOH 180555Z AUTO 25015KT 10SM CLR M15/M19 A3010 810 69 -2700 260/15 RMK AO2 T11501194
04850KAOH AOH20160118010011101/18/16 01:00:31  5-MIN KAOH 180600Z AUTO 25014KT 10SM CLR M15/M19 A3010 810 69 -2700 260/14 RMK AO2 T11501194
04850KAOH AOH20160118010511101/18/16 01:05:31  5-MIN KAOH 180605Z AUTO 25014KT 10SM CLR M15/M19 A3010 810 69 -2700 260/14 RMK AO2 T11501194
04850KAOH AOH20160118011011101/18/16 01:10:31  5-MIN KAOH 180610Z AUTO 26014KT 10SM CLR M15/M19 A3010 810 69 -2700 260/14 RMK AO2 T11501194
04850KAOH AOH20160118011511101/18/16 01:15:31  5-MIN KAOH 180615Z AUTO 26015KT 10SM CLR M16/M19 A3010 810 72 -2800 260/15 RMK AO2 T11561194
04850KAOH AOH20160118012011101/18/16 01:20:31  5-MIN KAOH 180620Z AUTO 26016KT 10SM CLR M15/M19 A3010 810 69 -2700 260/16 RMK AO2 T11501194
04850KAOH AOH20160118012511101/18/16 01:25:31  5-MIN KAOH 180625Z AUTO 25014KT 10SM CLR M16/M20 A3010 810 69 -2800 260/14 RMK AO2 T11561200
04850KAOH AOH20160118013011101/18/16 01:30:31  5-MIN KAOH 180630Z AUTO 25013KT 10SM CLR M16/M19 A3011 810 72 -2800 260/13 RMK AO2 T11561194
04850KAOH AOH20160118013511701/18/16 01:35:31  5-MIN KAOH 180635Z AUTO 26017G21KT 10SM CLR M16/M20 A3010 810 69 -2800 260/17G21 RMK AO2 T11561200
04850KAOH AOH20160118014011101/18/16 01:40:31  5-MIN KAOH 180640Z AUTO 26015KT 10SM CLR M16/M20 A3010 810 69 -2800 270/15 RMK AO2 T11561200
04850KAOH AOH20160118014511101/18/16 01:45:31  5-MIN KAOH 180645Z AUTO 26016KT 10SM CLR M16/M20 A3011 810 69 -2800 260/16 RMK AO2 T11561200
04850KAOH AOH20160118015011801/18/16 01:50:31  5-MIN KAOH 180650Z AUTO 25014KT 10SM CLR M16/M20 A3011 800 69 -2800 260/14 RMK AO2 SLP216 T11561200
04850KAOH AOH20160118015511701/18/16 01:55:31  5-MIN KAOH 180655Z AUTO 25014G19KT 10SM CLR M16/M20 A3011 800 69 -2800 260/14G19 RMK AO2 T11561200
04850KAOH AOH20160118020011701/18/16 02:00:31  5-MIN KAOH 180700Z AUTO 25013G19KT 10SM CLR M16/M20 A3011 800 69 -2800 260/13G19 RMK AO2 T11561200
04850KAOH AOH20160118020511701/18/16 02:05:31  5-MIN KAOH 180705Z AUTO 25016G20KT 10SM CLR M16/M20 A3011 800 69 -2800 260/16G20 RMK AO2 T11561200
04850KAOH AOH20160118021012001/18/16 02:10:31  5-MIN KAOH 180710Z AUTO 25012G20KT 10SM FEW047 M16/M20 A3011 800 69 -2800 260/12G20 RMK AO2 T11561200
04850KAOH AOH20160118021511401/18/16 02:15:31  5-MIN KAOH 180715Z AUTO 26015KT 10SM FEW047 M16/M20 A3011 800 69 -2800 260/15 RMK AO2 T11561200
04850KAOH AOH20160118022011401/18/16 02:20:31  5-MIN KAOH 180720Z AUTO 26015KT 10SM FEW047 M16/M20 A3012 800 69 -2800 260/15 RMK AO2 T11561200
04850KAOH AOH20160118022511401/18/16 02:25:31  5-MIN KAOH 180725Z AUTO 25013KT 10SM FEW047 M16/M19 A3012 800 72 -2800 260/13 RMK AO2 T11561194
04850KAOH AOH20160118023011401/18/16 02:30:31  5-MIN KAOH 180730Z AUTO 25013KT 10SM FEW047 M16/M20 A3012 800 69 -2800 260/13 RMK AO2 T11561200
04850KAOH AOH20160118023511401/18/16 02:35:31  5-MIN KAOH 180735Z AUTO 26013KT 10SM FEW047 M16/M20 A3012 790 69 -2800 260/13 RMK AO2 T11561200
04850KAOH AOH20160118024011101/18/16 02:40:31  5-MIN KAOH 180740Z AUTO 26014KT 10SM CLR M16/M20 A3012 790 69 -2800 260/14 RMK AO2 T11561200
04850KAOH AOH20160118024511101/18/16 02:45:31  5-MIN KAOH 180745Z AUTO 26013KT 10SM CLR M16/M19 A3012 790 72 -2800 270/13 RMK AO2 T11561194
04850KAOH AOH20160118025011801/18/16 02:50:31  5-MIN KAOH 180750Z AUTO 26017KT 10SM CLR M16/M19 A3012 790 72 -2800 260/17 RMK AO2 SLP220 T11561194
04850KAOH AOH20160118025511101/18/16 02:55:31  5-MIN KAOH 180755Z AUTO 26014KT 10SM CLR M16/M20 A3012 790 69 -2800 270/14 RMK AO2 T11561200
04850KAOH AOH20160118030011101/18/16 03:00:31  5-MIN KAOH 180800Z AUTO 25016KT 10SM CLR M16/M20 A3012 790 69 -2800 260/16 RMK AO2 T11561200
04850KAOH AOH20160118030511101/18/16 03:05:31  5-MIN KAOH 180805Z AUTO 26014KT 10SM CLR M16/M20 A3012 790 69 -2800 260/14 RMK AO2 T11561200
04850KAOH AOH20160118031011101/18/16 03:10:31  5-MIN KAOH 180810Z AUTO 26016KT 10SM CLR M16/M20 A3012 790 69 -2800 260/16 RMK AO2 T11561200
04850KAOH AOH20160118031511101/18/16 03:15:31  5-MIN KAOH 180815Z AUTO 27015KT 10SM CLR M16/M20 A3012 790 69 -2800 270/15 RMK AO2 T11561200
04850KAOH AOH20160118032011101/18/16 03:20:31  5-MIN KAOH 180820Z AUTO 26015KT 10SM CLR M16/M20 A3012 790 72 -2900 270/15 RMK AO2 T11611200
04850KAOH AOH20160118032511101/18/16 03:25:31  5-MIN KAOH 180825Z AUTO 27016KT 10SM CLR M16/M20 A3012 790 72 -2900 270/16 RMK AO2 T11611200
04850KAOH AOH20160118033011101/18/16 03:30:31  5-MIN KAOH 180830Z AUTO 26015KT 10SM CLR M16/M19 A3012 790 76 -2900 270/15 RMK AO2 T11611194
04850KAOH AOH20160118033511101/18/16 03:35:31  5-MIN KAOH 180835Z AUTO 26014KT 10SM CLR M16/M19 A3012 790 76 -2900 270/14 RMK AO2 T11611194
04850KAOH AOH20160118034011101/18/16 03:40:31  5-MIN KAOH 180840Z AUTO 26016KT 10SM CLR M16/M19 A3012 790 76 -2900 260/16 RMK AO2 T11611194
04850KAOH AOH20160118034511101/18/16 03:45:31  5-MIN KAOH 180845Z AUTO 26015KT 10SM CLR M16/M19 A3012 790 76 -2900 260/15 RMK AO2 T11611194
04850KAOH AOH20160118035012401/18/16 03:50:31  5-MIN KAOH 180850Z AUTO 26015KT 10SM CLR M16/M19 A3012 790 76 -2900 270/15 RMK AO2 SLP222 T11611194 51012
04850KAOH AOH20160118035511101/18/16 03:55:31  5-MIN KAOH 180855Z AUTO 26013KT 10SM CLR M16/M19 A3012 790 76 -2900 260/13 RMK AO2 T11611194
04850KAOH AOH20160118040011101/18/16 04:00:31  5-MIN KAOH 180900Z AUTO 26014KT 10SM CLR M16/M19 A3012 790 76 -2900 270/14 RMK AO2 T11611194
04850KAOH AOH20160118040511101/18/16 04:05:31  5-MIN KAOH 180905Z AUTO 26013KT 10SM CLR M16/M19 A3012 790 76 -2900 260/13 RMK AO2 T11611194
04850KAOH AOH20160118041011101/18/16 04:10:31  5-MIN KAOH 180910Z AUTO 26014KT 10SM CLR M16/M19 A3012 790 76 -2900 270/14 RMK AO2 T11611194
04850KAOH AOH20160118041511101/18/16 04:15:31  5-MIN KAOH 180915Z AUTO 26013KT 10SM CLR M16/M19 A3012 790 76 -2900 260/13 RMK AO2 T11611194
04850KAOH AOH20160118042011101/18/16 04:20:31  5-MIN KAOH 180920Z AUTO 26014KT 10SM CLR M16/M19 A3012 790 76 -2900 260/14 RMK AO2 T11611194
04850KAOH AOH20160118042511101/18/16 04:25:31  5-MIN KAOH 180925Z AUTO 26016KT 10SM CLR M16/M20 A3012 790 72 -2900 270/16 RMK AO2 T11611200
04850KAOH AOH20160118043011101/18/16 04:30:31  5-MIN KAOH 180930Z AUTO 26012KT 10SM CLR M16/M20 A3012 790 72 -2900 270/12 RMK AO2 T11611200
04850KAOH AOH20160118043511101/18/16 04:35:31  5-MIN KAOH 180935Z AUTO 26013KT 10SM CLR M16/M19 A3012 790 76 -2900 260/13 RMK AO2 T11611194
04850KAOH AOH20160118044011101/18/16 04:40:31  5-MIN KAOH 180940Z AUTO 26014KT 10SM CLR M16/M19 A3012 790 76 -2900 270/14 RMK AO2 T11611194
04850KAOH AOH20160118044511101/18/16 04:45:31  5-MIN KAOH 180945Z AUTO 26014KT 10SM CLR M16/M19 A3012 790 76 -2900 260/14 RMK AO2 T11611194
04850KAOH AOH20160118045011801/18/16 04:50:31  5-MIN KAOH 180950Z AUTO 26013KT 10SM CLR M16/M20 A3012 790 72 -2900 260/13 RMK AO2 SLP221 T11611200
04850KAOH AOH20160118045511101/18/16 04:55:31  5-MIN KAOH 180955Z AUTO 26012KT 10SM CLR M16/M19 A3012 790 76 -2900 260/12 RMK AO2 T11611194
04850KAOH AOH20160118050011101/18/16 05:00:31  5-MIN KAOH 181000Z AUTO 25012KT 10SM CLR M17/M19 A3012 790 79 -2900 260/12 RMK AO2 T11671194
04850KAOH AOH20160118050511101/18/16 05:05:31  5-MIN KAOH 181005Z AUTO 25012KT 10SM CLR M17/M20 A3012 790 76 -2900 260/12 RMK AO2 T11671200
04850KAOH AOH20160118051011101/18/16 05:10:31  5-MIN KAOH 181010Z AUTO 26014KT 10SM CLR M17/M20 A3012 790 76 -2900 260/14 RMK AO2 T11671200
04850KAOH AOH20160118051511101/18/16 05:15:31  5-MIN KAOH 181015Z AUTO 26013KT 10SM CLR M17/M19 A3012 790 79 -2900 270/13 RMK AO2 T11671194
04850KAOH AOH20160118052011101/18/16 05:20:31  5-MIN KAOH 181020Z AUTO 26012KT 10SM CLR M17/M19 A3012 790 79 -2900 270/12 RMK AO2 T11671194
04850KAOH AOH20160118052511101/18/16 05:25:31  5-MIN KAOH 181025Z AUTO 26013KT 10SM CLR M17/M19 A3013 790 79 -2900 270/13 RMK AO2 T11671194
04850KAOH AOH20160118053011101/18/16 05:30:31  5-MIN KAOH 181030Z AUTO 26013KT 10SM CLR M17/M19 A3013 790 79 -2900 260/13 RMK AO2 T11671194
04850KAOH AOH20160118053511101/18/16 05:35:31  5-MIN KAOH 181035Z AUTO 26014KT 10SM CLR M17/M19 A3013 790 79 -2900 270/14 RMK AO2 T11671194
04850KAOH AOH20160118054011101/18/16 05:40:31  5-MIN KAOH 181040Z AUTO 26013KT 10SM CLR M17/M19 A3013 780 79 -2900 260/13 RMK AO2 T11671194
04850KAOH AOH20160118054511101/18/16 05:45:31  5-MIN KAOH 181045Z AUTO 26016KT 10SM CLR M17/M20 A3013 780 76 -2900 270/16 RMK AO2 T11671200
04850KAOH AOH20160118055011801/18/16 05:50:31  5-MIN KAOH 181050Z AUTO 27015KT 10SM CLR M16/M21 A3013 780 69 -2900 270/15 RMK AO2 SLP225 T11611206
04850KAOH AOH20160118055511101/18/16 05:55:31  5-MIN KAOH 181055Z AUTO 27013KT 10SM CLR M16/M20 A3013 780 72 -2900 280/13 RMK AO2 T11611200
04850KAOH AOH20160118060011101/18/16 06:00:31  5-MIN KAOH 181100Z AUTO 26012KT 10SM CLR M16/M20 A3013 780 72 -2900 270/12 RMK AO2 T11611200
04850KAOH AOH20160118060511101/18/16 06:05:31  5-MIN KAOH 181105Z AUTO 26014KT 10SM CLR M17/M20 A3014 780 76 -3000 270/14 RMK AO2 T11671200
04850KAOH AOH20160118061011101/18/16 06:10:31  5-MIN KAOH 181110Z AUTO 26014KT 10SM CLR M17/M20 A3014 780 76 -3000 270/14 RMK AO2 T11671200
04850KAOH AOH20160118061511101/18/16 06:15:31  5-MIN KAOH 181115Z AUTO 27014KT 10SM CLR M17/M21 A3014 780 72 -3000 270/14 RMK AO2 T11671206
04850KAOH AOH20160118062011101/18/16 06:20:31  5-MIN KAOH 181120Z AUTO 26013KT 10SM CLR M17/M21 A3014 770 72 -3000 270/13 RMK AO2 T11671206
04850KAOH AOH20160118062511101/18/16 06:25:31  5-MIN KAOH 181125Z AUTO 27017KT 10SM CLR M17/M21 A3014 770 72 -3000 270/17 RMK AO2 T11671206
04850KAOH AOH20160118063011101/18/16 06:30:31  5-MIN KAOH 181130Z AUTO 26015KT 10SM CLR M17/M21 A3014 770 72 -3000 270/15 RMK AO2 T11671206
04850KAOH AOH20160118063511101/18/16 06:35:31  5-MIN KAOH 181135Z AUTO 26013KT 10SM CLR M17/M21 A3014 770 72 -3000 270/13 RMK AO2 T11671206
04850KAOH AOH20160118064011101/18/16 06:40:31  5-MIN KAOH 181140Z AUTO 26016KT 10SM CLR M17/M21 A3014 770 72 -3000 270/16 RMK AO2 T11671206
04850KAOH AOH20160118064511101/18/16 06:45:31  5-MIN KAOH 181145Z AUTO 27011KT 10SM CLR M17/M20 A3015 770 76 -3000 270/11 RMK AO2 T11671200
04850KAOH AOH20160118065013601/18/16 06:50:31  5-MIN KAOH 181150Z AUTO 25010KT 10SM CLR M17/M20 A3015 770 76 -3000 260/10 RMK AO2 SLP231 T11671200 11150 21167 51007
04850KAOH AOH20160118065511101/18/16 06:55:31  5-MIN KAOH 181155Z AUTO 25011KT 10SM CLR M17/M20 A3015 770 76 -3000 260/11 RMK AO2 T11671200
04850KAOH AOH20160118070011101/18/16 07:00:31  5-MIN KAOH 181200Z AUTO 26012KT 10SM CLR M17/M20 A3015 770 76 -3000 260/12 RMK AO2 T11671200
04850KAOH AOH20160118070511101/18/16 07:05:31  5-MIN KAOH 181205Z AUTO 25014KT 10SM CLR M17/M20 A3015 770 76 -3000 260/14 RMK AO2 T11671200
04850KAOH AOH20160118071011101/18/16 07:10:31  5-MIN KAOH 181210Z AUTO 25012KT 10SM CLR M17/M20 A3015 770 76 -3000 260/12 RMK AO2 T11671200
04850KAOH AOH20160118071511101/18/16 07:15:31  5-MIN KAOH 181215Z AUTO 26013KT 10SM CLR M17/M20 A3015 760 76 -3000 260/13 RMK AO2 T11671200
04850KAOH AOH20160118072011101/18/16 07:20:31  5-MIN KAOH 181220Z AUTO 25015KT 10SM CLR M17/M20 A3016 760 76 -3000 260/15 RMK AO2 T11671200
04850KAOH AOH20160118072511101/18/16 07:25:31  5-MIN KAOH 181225Z AUTO 26016KT 10SM CLR M17/M20 A3016 760 76 -3000 270/16 RMK AO2 T11671200
04850KAOH AOH20160118073011101/18/16 07:30:31  5-MIN KAOH 181230Z AUTO 25010KT 10SM CLR M17/M20 A3016 750 76 -3000 260/10 RMK AO2 T11671200
04850KAOH AOH20160118073511101/18/16 07:35:31  5-MIN KAOH 181235Z AUTO 25013KT 10SM CLR M17/M20 A3016 760 76 -3000 250/13 RMK AO2 T11671200
04850KAOH AOH20160118074011101/18/16 07:40:31  5-MIN KAOH 181240Z AUTO 25012KT 10SM CLR M17/M20 A3016 750 76 -3000 260/12 RMK AO2 T11671200
04850KAOH AOH20160118074511101/18/16 07:45:31  5-MIN KAOH 181245Z AUTO 24010KT 10SM CLR M17/M20 A3016 750 76 -3000 250/10 RMK AO2 T11671200
04850KAOH AOH20160118075011801/18/16 07:50:31  5-MIN KAOH 181250Z AUTO 24010KT 10SM CLR M17/M20 A3016 750 76 -3000 250/10 RMK AO2 SLP237 T11671200
04850KAOH AOH20160118075511101/18/16 07:55:31  5-MIN KAOH 181255Z AUTO 24009KT 10SM CLR M17/M20 A3017 750 76 -3000 250/09 RMK AO2 T11671200
04850KAOH AOH20160118080011101/18/16 08:00:31  5-MIN KAOH 181300Z AUTO 24010KT 10SM CLR M17/M20 A3017 750 76 -3000 250/10 RMK AO2 T11671200
04850KAOH AOH20160118080511101/18/16 08:05:31  5-MIN KAOH 181305Z AUTO 24010KT 10SM CLR M17/M20 A3017 750 76 -3000 250/10 RMK AO2 T11671200
04850KAOH AOH20160118081011101/18/16 08:10:31  5-MIN KAOH 181310Z AUTO 24010KT 10SM CLR M17/M20 A3017 750 76 -3000 250/10 RMK AO2 T11671200
04850KAOH AOH20160118081511101/18/16 08:15:31  5-MIN KAOH 181315Z AUTO 24012KT 10SM CLR M17/M20 A3017 750 76 -3000 250/12 RMK AO2 T11671200
04850KAOH AOH20160118082011101/18/16 08:20:31  5-MIN KAOH 181320Z AUTO 24011KT 10SM CLR M17/M20 A3017 750 76 -3000 240/11 RMK AO2 T11671200
04850KAOH AOH20160118082511101/18/16 08:25:31  5-MIN KAOH 181325Z AUTO 24011KT 10SM CLR M17/M20 A3017 750 76 -3000 250/11 RMK AO2 T11671200
04850KAOH AOH20160118083011101/18/16 08:30:31  5-MIN KAOH 181330Z AUTO 24012KT 10SM CLR M17/M20 A3017 750 76 -3000 250/12 RMK AO2 T11671200
04850KAOH AOH20160118083511101/18/16 08:35:31  5-MIN KAOH 181335Z AUTO 24014KT 10SM CLR M17/M20 A3017 740 76 -3000 250/14 RMK AO2 T11671200
04850KAOH AOH20160118084011101/18/16 08:40:31  5-MIN KAOH 181340Z AUTO 24013KT 10SM CLR M17/M20 A3018 740 76 -3000 250/13 RMK AO2 T11671200
04850KAOH AOH20160118084511101/18/16 08:45:31  5-MIN KAOH 181345Z AUTO 24014KT 10SM CLR M17/M20 A3018 740 76 -3000 250/14 RMK AO2 T11671200
04850KAOH AOH20160118085011801/18/16 08:50:31  5-MIN KAOH 181350Z AUTO 25013KT 10SM CLR M17/M20 A3018 740 76 -3000 260/13 RMK AO2 SLP244 T11671200
04850KAOH AOH20160118085511101/18/16 08:55:31  5-MIN KAOH 181355Z AUTO 25015KT 10SM CLR M17/M20 A3018 740 76 -3000 260/15 RMK AO2 T11671200
04850KAOH AOH20160118090011101/18/16 09:00:31  5-MIN KAOH 181400Z AUTO 25015KT 10SM CLR M17/M20 A3018 730 76 -3000 250/15 RMK AO2 T11671200
04850KAOH AOH20160118090511101/18/16 09:05:31  5-MIN KAOH 181405Z AUTO 25017KT 10SM CLR M17/M20 A3019 730 76 -3000 260/17 RMK AO2 T11671200
04850KAOH AOH20160118091011101/18/16 09:10:31  5-MIN KAOH 181410Z AUTO 25018KT 10SM CLR M17/M20 A3019 730 76 -3000 250/18 RMK AO2 T11671200
04850KAOH AOH20160118091511101/18/16 09:15:31  5-MIN KAOH 181415Z AUTO 26015KT 10SM CLR M17/M20 A3019 730 76 -3000 260/15 RMK AO2 T11671200
04850KAOH AOH20160118092011101/18/16 09:20:31  5-MIN KAOH 181420Z AUTO 25017KT 10SM CLR M17/M20 A3019 730 76 -3000 260/17 RMK AO2 T11671200
04850KAOH AOH20160118092511101/18/16 09:25:31  5-MIN KAOH 181425Z AUTO 25015KT 10SM CLR M16/M20 A3019 730 72 -2900 260/15 RMK AO2 T11611200
04850KAOH AOH20160118093011101/18/16 09:30:31  5-MIN KAOH 181430Z AUTO 25014KT 10SM CLR M16/M20 A3019 720 72 -2900 260/14 RMK AO2 T11611200
04850KAOH AOH20160118093511101/18/16 09:35:31  5-MIN KAOH 181435Z AUTO 26015KT 10SM CLR M16/M19 A3020 720 76 -2900 260/15 RMK AO2 T11611194
04850KAOH AOH20160118094011101/18/16 09:40:31  5-MIN KAOH 181440Z AUTO 26017KT 10SM CLR M16/M19 A3020 720 76 -2900 260/17 RMK AO2 T11611194
04850KAOH AOH20160118094511101/18/16 09:45:31  5-MIN KAOH 181445Z AUTO 25014KT 10SM CLR M16/M20 A3020 720 69 -2900 260/14 RMK AO2 T11561200
04850KAOH AOH20160118095012401/18/16 09:50:31  5-MIN KAOH 181450Z AUTO 26014KT 10SM CLR M16/M19 A3020 720 72 -2900 260/14 RMK AO2 SLP250 T11561194 53009
04850KAOH AOH20160118095511101/18/16 09:55:31  5-MIN KAOH 181455Z AUTO 26015KT 10SM CLR M16/M19 A3020 720 72 -2900 270/15 RMK AO2 T11561194
04850KAOH AOH20160118100011101/18/16 10:00:31  5-MIN KAOH 181500Z AUTO 25017KT 10SM CLR M16/M19 A3020 720 76 -2900 260/17 RMK AO2 T11561189
04850KAOH AOH20160118100511101/18/16 10:05:31  5-MIN KAOH 181505Z AUTO 26017KT 10SM CLR M16/M19 A3021 710 72 -2900 260/17 RMK AO2 T11561194
04850KAOH AOH20160118101011101/18/16 10:10:31  5-MIN KAOH 181510Z AUTO 25016KT 10SM CLR M16/M19 A3021 710 72 -2900 250/16 RMK AO2 T11561194
04850KAOH AOH20160118101511101/18/16 10:15:31  5-MIN KAOH 181515Z AUTO 25014KT 10SM CLR M15/M19 A3020 720 72 -2800 260/14 RMK AO2 T11501189
04850KAOH AOH20160118102011101/18/16 10:20:31  5-MIN KAOH 181520Z AUTO 24016KT 10SM CLR M15/M19 A3021 710 69 -2800 250/16 RMK AO2 T11501194
04850KAOH AOH20160118102511101/18/16 10:25:31  5-MIN KAOH 181525Z AUTO 24016KT 10SM CLR M15/M19 A3021 710 72 -2800 250/16 RMK AO2 T11501189
04850KAOH AOH20160118103011101/18/16 10:30:31  5-MIN KAOH 181530Z AUTO 24015KT 10SM CLR M15/M19 A3021 710 72 -2800 240/15 RMK AO2 T11501189
04850KAOH AOH20160118103511101/18/16 10:35:31  5-MIN KAOH 181535Z AUTO 24019KT 10SM CLR M15/M19 A3022 700 72 -2800 250/19 RMK AO2 T11501189
04850KAOH AOH20160118104011101/18/16 10:40:31  5-MIN KAOH 181540Z AUTO 25015KT 10SM CLR M15/M19 A3022 700 72 -2800 260/15 RMK AO2 T11501189
04850KAOH AOH20160118104511101/18/16 10:45:31  5-MIN KAOH 181545Z AUTO 24015KT 10SM CLR M14/M19 A3022 700 69 -2700 250/15 RMK AO2 T11441189
04850KAOH AOH20160118105011801/18/16 10:50:31  5-MIN KAOH 181550Z AUTO 26017KT 10SM CLR M15/M19 A3022 700 72 -2800 260/17 RMK AO2 SLP257 T11501189
04850KAOH AOH20160118105511101/18/16 10:55:31  5-MIN KAOH 181555Z AUTO 25017KT 10SM CLR M14/M18 A3022 700 73 -2700 250/17 RMK AO2 T11441183
04850KAOH AOH20160118110011101/18/16 11:00:31  5-MIN KAOH 181600Z AUTO 25016KT 10SM CLR M14/M19 A3022 700 69 -2700 250/16 RMK AO2 T11441189
04850KAOH AOH20160118110511101/18/16 11:05:31  5-MIN KAOH 181605Z AUTO 26015KT 10SM CLR M14/M18 A3022 700 73 -2700 260/15 RMK AO2 T11441183
04850KAOH AOH20160118111011101/18/16 11:10:31  5-MIN KAOH 181610Z AUTO 25017KT 10SM CLR M14/M18 A3022 700 73 -2700 250/17 RMK AO2 T11441183
04850KAOH AOH20160118111511101/18/16 11:15:31  5-MIN KAOH 181615Z AUTO 25015KT 10SM CLR M14/M18 A3022 700 73 -2700 260/15 RMK AO2 T11441183
04850KAOH AOH20160118112011101/18/16 11:20:31  5-MIN KAOH 181620Z AUTO 26015KT 10SM CLR M14/M18 A3022 700 73 -2700 270/15 RMK AO2 T11391178
04850KAOH AOH20160118112511101/18/16 11:25:31  5-MIN KAOH 181625Z AUTO 26014KT 10SM CLR M14/M18 A3022 700 73 -2700 270/14 RMK AO2 T11391178
04850KAOH AOH20160118113011101/18/16 11:30:31  5-MIN KAOH 181630Z AUTO 24015KT 10SM CLR M14/M18 A3022 700 73 -2700 250/15 RMK AO2 T11391178
04850KAOH AOH20160118113511101/18/16 11:35:31  5-MIN KAOH 181635Z AUTO 25015KT 10SM CLR M13/M18 A3022 700 69 -2600 260/15 RMK AO2 T11331178
04850KAOH AOH20160118114011101/18/16 11:40:31  5-MIN KAOH 181640Z AUTO 25015KT 10SM CLR M13/M18 A3022 700 69 -2600 250/15 RMK AO2 T11331178
04850KAOH AOH20160118114511101/18/16 11:45:31  5-MIN KAOH 181645Z AUTO 25016KT 10SM CLR M13/M18 A3021 710 69 -2600 250/16 RMK AO2 T11331178
04850KAOH AOH20160118115012101/18/16 11:50:31  5-MIN KAOH 181650Z AUTO 26017KT 10SM FEW021 M13/M18 A3021 710 69 -2600 260/17 RMK AO2 SLP253 T11331178
04850KAOH AOH20160118115511401/18/16 11:55:31  5-MIN KAOH 181655Z AUTO 25013KT 10SM FEW021 M13/M17 A3021 710 73 -2600 260/13 RMK AO2 T11331172
04850KAOH AOH20160118120011401/18/16 12:00:31  5-MIN KAOH 181700Z AUTO 25015KT 10SM FEW021 M13/M17 A3021 710 73 -2600 260/15 RMK AO2 T11331172
04850KAOH AOH20160118120511401/18/16 12:05:31  5-MIN KAOH 181705Z AUTO 24015KT 10SM SCT021 M13/M17 A3021 710 73 -2600 250/15 RMK AO2 T11331172
04850KAOH AOH20160118121011401/18/16 12:10:31  5-MIN KAOH 181710Z AUTO 24016KT 10SM SCT021 M13/M17 A3021 710 70 -2500 250/16 RMK AO2 T11281172
04850KAOH AOH20160118121511401/18/16 12:15:31  5-MIN KAOH 181715Z AUTO 25016KT 10SM BKN021 M13/M17 A3021 710 73 -2600 250/16 RMK AO2 T11331172
04850KAOH AOH20160118122011401/18/16 12:20:31  5-MIN KAOH 181720Z AUTO 26014KT 10SM SCT021 M13/M17 A3021 710 73 -2500 270/14 RMK AO2 T11281167
04850KAOH AOH20160118122511401/18/16 12:25:31  5-MIN KAOH 181725Z AUTO 25016KT 10SM SCT021 M13/M17 A3021 710 73 -2500 260/16 RMK AO2 T11281167
04850KAOH AOH20160118123011401/18/16 12:30:31  5-MIN KAOH 181730Z AUTO 25017KT 10SM BKN021 M13/M17 A3020 720 70 -2500 250/17 RMK AO2 T11281172
04850KAOH AOH20160118123511401/18/16 12:35:31  5-MIN KAOH 181735Z AUTO 24017KT 10SM BKN021 M13/M17 A3020 720 73 -2500 250/17 RMK AO2 T11281167
04850KAOH AOH20160118124011401/18/16 12:40:31  5-MIN KAOH 181740Z AUTO 25015KT 10SM SCT020 M13/M17 A3020 720 73 -2500 260/15 RMK AO2 T11281167
04850KAOH AOH20160118124511401/18/16 12:45:31  5-MIN KAOH 181745Z AUTO 26015KT 10SM FEW020 M13/M17 A3020 720 73 -2500 270/15 RMK AO2 T11281167
04850KAOH AOH20160118125013901/18/16 12:50:31  5-MIN KAOH 181750Z AUTO 26016KT 10SM FEW020 M12/M17 A3020 720 70 -2400 270/16 RMK AO2 SLP248 T11221167 11122 21167 53018
04850KAOH AOH20160118125511401/18/16 12:55:31  5-MIN KAOH 181755Z AUTO 26012KT 10SM SCT022 M13/M17 A3019 720 73 -2500 260/12 RMK AO2 T11281167
04850KAOH AOH20160118130012001/18/16 13:00:31  5-MIN KAOH 181800Z AUTO 25014G20KT 10SM SCT022 M12/M16 A3020 720 73 -2400 260/14G20 RMK AO2 T11221161
04850KAOH AOH20160118130512001/18/16 13:05:31  5-MIN KAOH 181805Z AUTO 26013G20KT 10SM BKN024 M12/M16 A3019 720 73 -2400 260/13G20 RMK AO2 T11221161
04850KAOH AOH20160118131012001/18/16 13:10:31  5-MIN KAOH 181810Z AUTO 25014G20KT 10SM BKN024 M12/M17 A3019 730 70 -2400 250/14G20 RMK AO2 T11221167
04850KAOH AOH20160118131511401/18/16 13:15:31  5-MIN KAOH 181815Z AUTO 26014KT 10SM BKN024 M12/M16 A3019 730 73 -2400 260/14 RMK AO2 T11221161
04850KAOH AOH20160118132011401/18/16 13:20:31  5-MIN KAOH 181820Z AUTO 25016KT 10SM BKN024 M12/M16 A3019 730 70 -2300 260/16 RMK AO2 T11171161
04850KAOH AOH20160118132511401/18/16 13:25:31  5-MIN KAOH 181825Z AUTO 25015KT 10SM BKN024 M12/M16 A3019 730 70 -2300 260/15 RMK AO2 T11171161
04850KAOH AOH20160118133011401/18/16 13:30:31  5-MIN KAOH 181830Z AUTO 28011KT 10SM BKN024 M12/M16 A3019 730 70 -2300 290/11 RMK AO2 T11171161
04850KAOH AOH20160118133511401/18/16 13:35:31  5-MIN KAOH 181835Z AUTO 25014KT 10SM SCT024 M12/M16 A3019 730 70 -2300 260/14 RMK AO2 T11171161
04850KAOH AOH20160118134011401/18/16 13:40:31  5-MIN KAOH 181840Z AUTO 26016KT 10SM SCT026 M12/M16 A3019 730 70 -2300 260/16 RMK AO2 T11171161
04850KAOH AOH20160118134511401/18/16 13:45:31  5-MIN KAOH 181845Z AUTO 27014KT 10SM SCT026 M12/M17 A3019 730 67 -2300 270/14 RMK AO2 T11171167
04850KAOH AOH20160118135012101/18/16 13:50:31  5-MIN KAOH 181850Z AUTO 27014KT 10SM SCT026 M12/M17 A3019 730 67 -2300 270/14 RMK AO2 SLP244 T11171167
04850KAOH AOH20160118135511401/18/16 13:55:31  5-MIN KAOH 181855Z AUTO 26016KT 10SM FEW026 M12/M17 A3019 730 67 -2300 260/16 RMK AO2 T11171167
04850KAOH AOH20160118140011401/18/16 14:00:31  5-MIN KAOH 181900Z AUTO 26016KT 10SM FEW026 M11/M17 A3019 730 64 -2300 260/16 RMK AO2 T11111167
04850KAOH AOH20160118140511401/18/16 14:05:31  5-MIN KAOH 181905Z AUTO 26015KT 10SM FEW027 M11/M17 A3019 730 64 -2300 260/15 RMK AO2 T11111167
04850KAOH AOH20160118141011401/18/16 14:10:31  5-MIN KAOH 181910Z AUTO 25014KT 10SM FEW027 M11/M17 A3019 730 64 -2300 250/14 RMK AO2 T11111167
04850KAOH AOH20160118141512001/18/16 14:15:31  5-MIN KAOH 181915Z AUTO 24016G20KT 10SM SCT027 M11/M16 A3019 730 67 -2200 250/16G20 RMK AO2 T11061156
04850KAOH AOH20160118142012001/18/16 14:20:31  5-MIN KAOH 181920Z AUTO 26018G23KT 10SM FEW027 M11/M17 A3019 730 64 -2300 270/18G23 RMK AO2 T11111167
04850KAOH AOH20160118142511401/18/16 14:25:31  5-MIN KAOH 181925Z AUTO 26017KT 10SM FEW027 M11/M17 A3018 730 61 -2300 270/17 RMK AO2 T11111172
04850KAOH AOH20160118143011401/18/16 14:30:31  5-MIN KAOH 181930Z AUTO 25013KT 10SM FEW029 M11/M17 A3018 730 64 -2300 250/13 RMK AO2 T11111167
04850KAOH AOH20160118143512001/18/16 14:35:31  5-MIN KAOH 181935Z AUTO 25017G23KT 10SM SCT029 M11/M17 A3019 730 61 -2300 250/17G23 RMK AO2 T11111172
04850KAOH AOH20160118144011401/18/16 14:40:31  5-MIN KAOH 181940Z AUTO 25019KT 10SM SCT029 M11/M17 A3019 730 61 -2300 260/19 RMK AO2 T11111172
04850KAOH AOH20160118144511401/18/16 14:45:31  5-MIN KAOH 181945Z AUTO 25017KT 10SM FEW030 M12/M18 A3019 730 61 -2300 260/17 RMK AO2 T11171178
04850KAOH AOH20160118145012101/18/16 14:50:31  5-MIN KAOH 181950Z AUTO 26016KT 10SM FEW030 M12/M18 A3019 730 61 -2300 270/16 RMK AO2 SLP244 T11171178
04850KAOH AOH20160118145511401/18/16 14:55:31  5-MIN KAOH 181955Z AUTO 27015KT 10SM FEW030 M12/M18 A3019 730 61 -2300 280/15 RMK AO2 T11171178
04850KAOH AOH20160118150011401/18/16 15:00:31  5-MIN KAOH 182000Z AUTO 26015KT 10SM FEW030 M11/M18 A3019 730 58 -2300 260/15 RMK AO2 T11111178
04850KAOH AOH20160118150511101/18/16 15:05:31  5-MIN KAOH 182005Z AUTO 26016KT 10SM CLR M11/M17 A3019 730 61 -2300 260/16 RMK AO2 T11111172
04850KAOH AOH20160118151011101/18/16 15:10:31  5-MIN KAOH 182010Z AUTO 24016KT 10SM CLR M11/M18 A3018 730 58 -2300 250/16 RMK AO2 T11111178
04850KAOH AOH20160118151511101/18/16 15:15:31  5-MIN KAOH 182015Z AUTO 25017KT 10SM CLR M11/M18 A3019 730 58 -2300 260/17 RMK AO2 T11111178
04850KAOH AOH20160118152011701/18/16 15:20:31  5-MIN KAOH 182020Z AUTO 25018G23KT 10SM CLR M12/M18 A3019 730 58 -2300 260/18G23 RMK AO2 T11171183
04850KAOH AOH20160118152511701/18/16 15:25:31  5-MIN KAOH 182025Z AUTO 27015G23KT 10SM CLR M11/M18 A3019 730 55 -2300 270/15G23 RMK AO2 T11111183
04850KAOH AOH20160118153011101/18/16 15:30:31  5-MIN KAOH 182030Z AUTO 27014KT 10SM CLR M12/M18 A3019 730 61 -2300 280/14 RMK AO2 T11171178
04850KAOH AOH20160118153511701/18/16 15:35:31  5-MIN KAOH 182035Z AUTO 25017G21KT 10SM CLR M11/M18 A3019 730 55 -2300 260/17G21 RMK AO2 T11111183
04850KAOH AOH20160118154011701/18/16 15:40:31  5-MIN KAOH 182040Z AUTO 27018G22KT 10SM CLR M12/M18 A3019 730 58 -2300 270/18G22 RMK AO2 T11171183
04850KAOH AOH20160118154511701/18/16 15:45:31  5-MIN KAOH 182045Z AUTO 26015G22KT 10SM CLR M12/M18 A3019 730 61 -2300 270/15G22 RMK AO2 T11171178
04850KAOH AOH20160118155012401/18/16 15:50:31  5-MIN KAOH 182050Z AUTO 27016KT 10SM CLR M12/M18 A3019 730 58 -2300 280/16 RMK AO2 SLP246 T11171183 58002
04850KAOH AOH20160118155511101/18/16 15:55:31  5-MIN KAOH 182055Z AUTO 27018KT 10SM CLR M12/M18 A3019 720 58 -2300 270/18 RMK AO2 T11171183
04850KAOH AOH20160118160011101/18/16 16:00:31  5-MIN KAOH 182100Z AUTO 27016KT 10SM CLR M12/M18 A3020 720 58 -2400 280/16 RMK AO2 T11171183
04850KAOH AOH20160118160511101/18/16 16:05:31  5-MIN KAOH 182105Z AUTO 26018KT 10SM CLR M12/M18 A3020 720 58 -2400 270/18 RMK AO2 T11171183
04850KAOH AOH20160118161011101/18/16 16:10:31  5-MIN KAOH 182110Z AUTO 26017KT 10SM CLR M12/M18 A3020 720 61 -2400 270/17 RMK AO2 T11171178
04850KAOH AOH20160118161511101/18/16 16:15:31  5-MIN KAOH 182115Z AUTO 28018KT 10SM CLR M12/M18 A3020 720 58 -2400 280/18 RMK AO2 T11171183
04850KAOH AOH20160118162011701/18/16 16:20:31  5-MIN KAOH 182120Z AUTO 26018G22KT 10SM CLR M12/M18 A3020 720 61 -2400 270/18G22 RMK AO2 T11171178
04850KAOH AOH20160118162511101/18/16 16:25:31  5-MIN KAOH 182125Z AUTO 25019KT 10SM CLR M12/M19 A3020 720 58 -2400 260/19 RMK AO2 T11221189
04850KAOH AOH20160118163011101/18/16 16:30:31  5-MIN KAOH 182130Z AUTO 26017KT 10SM CLR M12/M18 A3020 720 61 -2400 260/17 RMK AO2 T11221183
04850KAOH AOH20160118163511101/18/16 16:35:31  5-MIN KAOH 182135Z AUTO 27015KT 10SM CLR M12/M18 A3020 720 61 -2400 280/15 RMK AO2 T11221183
04850KAOH AOH20160118164011101/18/16 16:40:31  5-MIN KAOH 182140Z AUTO 27016KT 10SM CLR M12/M18 A3020 720 61 -2400 280/16 RMK AO2 T11221183
04850KAOH AOH20160118164511101/18/16 16:45:31  5-MIN KAOH 182145Z AUTO 27014KT 10SM CLR M12/M18 A3021 710 61 -2400 270/14 RMK AO2 T11221183
04850KAOH AOH20160118165011801/18/16 16:50:31  5-MIN KAOH 182150Z AUTO 27017KT 10SM CLR M12/M18 A3021 710 61 -2400 280/17 RMK AO2 SLP251 T11221183
04850KAOH AOH20160118165511101/18/16 16:55:31  5-MIN KAOH 182155Z AUTO 27015KT 10SM CLR M12/M18 A3021 710 61 -2400 270/15 RMK AO2 T11221183
04850KAOH AOH20160118170011101/18/16 17:00:31  5-MIN KAOH 182200Z AUTO 26016KT 10SM CLR M13/M18 A3021 710 63 -2500 270/16 RMK AO2 T11281183
04850KAOH AOH20160118170511101/18/16 17:05:31  5-MIN KAOH 182205Z AUTO 27018KT 10SM CLR M13/M18 A3021 710 63 -2500 270/18 RMK AO2 T11281183
04850KAOH AOH20160118171011101/18/16 17:10:31  5-MIN KAOH 182210Z AUTO 26017KT 10SM CLR M13/M18 A3021 710 63 -2500 270/17 RMK AO2 T11281183
04850KAOH AOH20160118171511101/18/16 17:15:31  5-MIN KAOH 182215Z AUTO 25017KT 10SM CLR M13/M18 A3022 710 63 -2500 250/17 RMK AO2 T11281183
04850KAOH AOH20160118172011101/18/16 17:20:31  5-MIN KAOH 182220Z AUTO 25018KT 10SM CLR M13/M19 A3022 710 60 -2500 260/18 RMK AO2 T11281189
04850KAOH AOH20160118172511101/18/16 17:25:31  5-MIN KAOH 182225Z AUTO 25016KT 10SM CLR M13/M18 A3022 710 66 -2600 260/16 RMK AO2 T11331183
04850KAOH AOH20160118173011101/18/16 17:30:31  5-MIN KAOH 182230Z AUTO 26016KT 10SM CLR M13/M19 A3021 710 63 -2600 260/16 RMK AO2 T11331189
04850KAOH AOH20160118173511101/18/16 17:35:31  5-MIN KAOH 182235Z AUTO 25015KT 10SM CLR M13/M19 A3021 710 63 -2600 260/15 RMK AO2 T11331189
04850KAOH AOH20160118174011401/18/16 17:40:31  5-MIN KAOH 182240Z AUTO 25015KT 10SM FEW029 M13/M19 A3022 710 63 -2600 260/15 RMK AO2 T11331189
04850KAOH AOH20160118174511401/18/16 17:45:31  5-MIN KAOH 182245Z AUTO 26014KT 10SM FEW029 M13/M19 A3022 700 63 -2600 270/14 RMK AO2 T11331189
04850KAOH AOH20160118175012101/18/16 17:50:31  5-MIN KAOH 182250Z AUTO 26016KT 10SM FEW028 M13/M18 A3022 700 66 -2600 270/16 RMK AO2 SLP256 T11331183
04850KAOH AOH20160118175511401/18/16 17:55:31  5-MIN KAOH 182255Z AUTO 26014KT 10SM FEW028 M13/M19 A3022 700 63 -2600 270/14 RMK AO2 T11331189
04850KAOH AOH20160118180011401/18/16 18:00:31  5-MIN KAOH 182300Z AUTO 26013KT 10SM FEW028 M13/M19 A3022 700 63 -2600 260/13 RMK AO2 T11331189
04850KAOH AOH20160118180511101/18/16 18:05:31  5-MIN KAOH 182305Z AUTO 25016KT 10SM CLR M13/M19 A3022 700 63 -2600 260/16 RMK AO2 T11331189
04850KAOH AOH20160118181011101/18/16 18:10:31  5-MIN KAOH 182310Z AUTO 26013KT 10SM CLR M14/M19 A3023 700 66 -2700 270/13 RMK AO2 T11391189
04850KAOH AOH20160118181511101/18/16 18:15:31  5-MIN KAOH 182315Z AUTO 26017KT 10SM CLR M13/M19 A3023 700 63 -2600 270/17 RMK AO2 T11331189
04850KAOH AOH20160118182011101/18/16 18:20:31  5-MIN KAOH 182320Z AUTO 25016KT 10SM CLR M14/M19 A3023 690 66 -2700 260/16 RMK AO2 T11391189
04850KAOH AOH20160118182511101/18/16 18:25:31  5-MIN KAOH 182325Z AUTO 25012KT 10SM CLR M14/M19 A3023 690 66 -2700 260/12 RMK AO2 T11391189
04850KAOH AOH20160118183011101/18/16 18:30:31  5-MIN KAOH 182330Z AUTO 26014KT 10SM CLR M14/M18 A3023 690 69 -2700 260/14 RMK AO2 T11391183
04850KAOH AOH20160118183511101/18/16 18:35:31  5-MIN KAOH 182335Z AUTO 26013KT 10SM CLR M14/M18 A3023 690 69 -2700 260/13 RMK AO2 T11391183
04850KAOH AOH20160118184011101/18/16 18:40:31  5-MIN KAOH 182340Z AUTO 26015KT 10SM CLR M14/M18 A3023 690 69 -2700 270/15 RMK AO2 T11391183
04850KAOH AOH20160118184511101/18/16 18:45:31  5-MIN KAOH 182345Z AUTO 26013KT 10SM CLR M14/M18 A3023 690 69 -2700 270/13 RMK AO2 T11391183
04850KAOH AOH20160118185013601/18/16 18:50:31  5-MIN KAOH 182350Z AUTO 26012KT 10SM CLR M14/M18 A3024 690 69 -2700 260/12 RMK AO2 SLP262 T11391183 11106 21139 55002
04850KAOH AOH20160118185511101/18/16 18:55:31  5-MIN KAOH 182355Z AUTO 26013KT 10SM CLR M14/M18 A3024 680 69 -2700 260/13 RMK AO2 T11391183
04850KAOH AOH20160118190011101/18/16 19:00:31  5-MIN KAOH 190000Z AUTO 26013KT 10SM CLR M14/M18 A3024 690 69 -2700 270/13 RMK AO2 T11391183
04850KAOH AOH20160118190511101/18/16 19:05:31  5-MIN KAOH 190005Z AUTO 26014KT 10SM CLR M14/M18 A3024 680 69 -2700 260/14 RMK AO2 T11391183
04850KAOH AOH20160118191011101/18/16 19:10:31  5-MIN KAOH 190010Z AUTO 26013KT 10SM CLR M14/M18 A3024 690 69 -2700 270/13 RMK AO2 T11391183
04850KAOH AOH20160118191511101/18/16 19:15:31  5-MIN KAOH 190015Z AUTO 26013KT 10SM CLR M14/M18 A3024 680 69 -2700 270/13 RMK AO2 T11391183
04850KAOH AOH20160118192011101/18/16 19:20:31  5-MIN KAOH 190020Z AUTO 27013KT 10SM CLR M14/M19 A3024 680 66 -2700 280/13 RMK AO2 T11391189
04850KAOH AOH20160118192511101/18/16 19:25:31  5-MIN KAOH 190025Z AUTO 26014KT 10SM CLR M14/M18 A3024 680 69 -2700 270/14 RMK AO2 T11391183
04850KAOH AOH20160118193011101/18/16 19:30:31  5-MIN KAOH 190030Z AUTO 27014KT 10SM CLR M14/M19 A3025 680 66 -2700 270/14 RMK AO2 T11391189
04850KAOH AOH20160118193511101/18/16 19:35:31  5-MIN KAOH 190035Z AUTO 27014KT 10SM CLR M14/M19 A3025 680 66 -2700 270/14 RMK AO2 T11391189
04850KAOH AOH20160118194011101/18/16 19:40:31  5-MIN KAOH 190040Z AUTO 26015KT 10SM CLR M14/M19 A3025 670 66 -2700 270/15 RMK AO2 T11391189
04850KAOH AOH20160118194511101/18/16 19:45:31  5-MIN KAOH 190045Z AUTO 26016KT 10SM CLR M14/M19 A3025 670 66 -2700 270/16 RMK AO2 T11391189
04850KAOH AOH20160118195011801/18/16 19:50:31  5-MIN KAOH 190050Z AUTO 26013KT 10SM CLR M14/M19 A3025 670 66 -2700 270/13 RMK AO2 SLP268 T11391189
04850KAOH AOH20160118195511101/18/16 19:55:31  5-MIN KAOH 190055Z AUTO 26011KT 10SM CLR M14/M18 A3025 670 69 -2700 270/11 RMK AO2 T11391183
04850KAOH AOH20160118200011101/18/16 20:00:31  5-MIN KAOH 190100Z AUTO 26012KT 10SM CLR M14/M18 A3026 670 69 -2700 260/12 RMK AO2 T11391183
04850KAOH AOH20160118200511101/18/16 20:05:31  5-MIN KAOH 190105Z AUTO 26013KT 10SM CLR M14/M19 A3026 670 66 -2700 270/13 RMK AO2 T11391189
04850KAOH AOH20160118201011101/18/16 20:10:31  5-MIN KAOH 190110Z AUTO 26015KT 10SM CLR M14/M18 A3026 670 69 -2700 260/15 RMK AO2 T11391183
04850KAOH AOH20160118201511101/18/16 20:15:31  5-MIN KAOH 190115Z AUTO 26013KT 10SM CLR M14/M19 A3026 670 66 -2700 270/13 RMK AO2 T11391189
04850KAOH AOH20160118202011101/18/16 20:20:31  5-MIN KAOH 190120Z AUTO 26013KT 10SM CLR M14/M18 A3026 670 73 -2800 270/13 RMK AO2 T11441183
04850KAOH AOH20160118202511101/18/16 20:25:31  5-MIN KAOH 190125Z AUTO 26014KT 10SM CLR M14/M18 A3026 670 73 -2800 270/14 RMK AO2 T11441183
04850KAOH AOH20160118203011101/18/16 20:30:31  5-MIN KAOH 190130Z AUTO 26015KT 10SM CLR M14/M18 A3026 660 73 -2800 270/15 RMK AO2 T11441183
04850KAOH AOH20160118203511101/18/16 20:35:31  5-MIN KAOH 190135Z AUTO 26013KT 10SM CLR M14/M18 A3026 660 73 -2800 270/13 RMK AO2 T11441183
04850KAOH AOH20160118204011101/18/16 20:40:31  5-MIN KAOH 190140Z AUTO 25016KT 10SM CLR M14/M19 A3026 660 69 -2800 260/16 RMK AO2 T11441189
04850KAOH AOH20160118204511101/18/16 20:45:31  5-MIN KAOH 190145Z AUTO 26012KT 10SM CLR M14/M18 A3026 660 73 -2800 270/12 RMK AO2 T11441183
04850KAOH AOH20160118205011801/18/16 20:50:31  5-MIN KAOH 190150Z AUTO 26013KT 10SM CLR M14/M18 A3026 660 73 -2800 270/13 RMK AO2 SLP271 T11441183
04850KAOH AOH20160118205511101/18/16 20:55:31  5-MIN KAOH 190155Z AUTO 26014KT 10SM CLR M14/M19 A3026 660 69 -2800 270/14 RMK AO2 T11441189
04850KAOH AOH20160118210011101/18/16 21:00:31  5-MIN KAOH 190200Z AUTO 26013KT 10SM CLR M14/M19 A3026 660 69 -2800 260/13 RMK AO2 T11441189
04850KAOH AOH20160118210511101/18/16 21:05:31  5-MIN KAOH 190205Z AUTO 25012KT 10SM CLR M14/M19 A3026 660 69 -2800 260/12 RMK AO2 T11441189
04850KAOH AOH20160118211011101/18/16 21:10:31  5-MIN KAOH 190210Z AUTO 26012KT 10SM CLR M14/M19 A3027 660 69 -2800 260/12 RMK AO2 T11441189
04850KAOH AOH20160118211511101/18/16 21:15:31  5-MIN KAOH 190215Z AUTO 26012KT 10SM CLR M14/M19 A3027 660 69 -2800 260/12 RMK AO2 T11441189
04850KAOH AOH20160118212011101/18/16 21:20:31  5-MIN KAOH 190220Z AUTO 26014KT 10SM CLR M14/M18 A3027 660 73 -2800 270/14 RMK AO2 T11441183
04850KAOH AOH20160118212511101/18/16 21:25:31  5-MIN KAOH 190225Z AUTO 26013KT 10SM CLR M14/M19 A3027 660 69 -2800 270/13 RMK AO2 T11441189
04850KAOH AOH20160118213011101/18/16 21:30:31  5-MIN KAOH 190230Z AUTO 26013KT 10SM CLR M14/M19 A3027 660 69 -2800 270/13 RMK AO2 T11441189
04850KAOH AOH20160118213511101/18/16 21:35:31  5-MIN KAOH 190235Z AUTO 26013KT 10SM CLR M14/M19 A3027 650 69 -2800 270/13 RMK AO2 T11441189
04850KAOH AOH20160118214011101/18/16 21:40:31  5-MIN KAOH 190240Z AUTO 26013KT 10SM CLR M14/M19 A3027 650 69 -2800 270/13 RMK AO2 T11441189
04850KAOH AOH20160118214511101/18/16 21:45:31  5-MIN KAOH 190245Z AUTO 26013KT 10SM CLR M14/M19 A3028 650 69 -2800 270/13 RMK AO2 T11441189
04850KAOH AOH20160118215012401/18/16 21:50:31  5-MIN KAOH 190250Z AUTO 26011KT 10SM CLR M14/M19 A3028 650 69 -2800 270/11 RMK AO2 SLP275 T11441189 53015
04850KAOH AOH20160118215511101/18/16 21:55:31  5-MIN KAOH 190255Z AUTO 26013KT 10SM CLR M14/M19 A3028 650 69 -2800 270/13 RMK AO2 T11441189
04850KAOH AOH20160118220011101/18/16 22:00:31  5-MIN KAOH 190300Z AUTO 26012KT 10SM CLR M14/M19 A3028 650 69 -2800 260/12 RMK AO2 T11441189
04850KAOH AOH20160118220511101/18/16 22:05:31  5-MIN KAOH 190305Z AUTO 26013KT 10SM CLR M14/M19 A3028 650 69 -2800 260/13 RMK AO2 T11441189
04850KAOH AOH20160118221011101/18/16 22:10:31  5-MIN KAOH 190310Z AUTO 26012KT 10SM CLR M14/M19 A3028 650 69 -2800 270/12 RMK AO2 T11441189
04850KAOH AOH20160118221511101/18/16 22:15:31  5-MIN KAOH 190315Z AUTO 26012KT 10SM CLR M14/M19 A3027 650 69 -2800 260/12 RMK AO2 T11441189
04850KAOH AOH20160118222011101/18/16 22:20:31  5-MIN KAOH 190320Z AUTO 26010KT 10SM CLR M14/M18 A3027 650 73 -2800 270/10 RMK AO2 T11441183
04850KAOH AOH20160118222511101/18/16 22:25:31  5-MIN KAOH 190325Z AUTO 26011KT 10SM CLR M14/M18 A3027 650 73 -2800 260/11 RMK AO2 T11441183
04850KAOH AOH20160118223011101/18/16 22:30:31  5-MIN KAOH 190330Z AUTO 26011KT 10SM CLR M14/M18 A3027 650 73 -2800 270/11 RMK AO2 T11441183
04850KAOH AOH20160118223511101/18/16 22:35:31  5-MIN KAOH 190335Z AUTO 26010KT 10SM CLR M14/M18 A3028 650 73 -2800 260/10 RMK AO2 T11441183
04850KAOH AOH20160118224011401/18/16 22:40:31  5-MIN KAOH 190340Z AUTO 26011KT 10SM FEW025 M14/M18 A3028 650 73 -2800 260/11 RMK AO2 T11441183
04850KAOH AOH20160118224511401/18/16 22:45:31  5-MIN KAOH 190345Z AUTO 26009KT 10SM FEW025 M14/M18 A3028 650 73 -2800 260/09 RMK AO2 T11441183
04850KAOH AOH20160118225012101/18/16 22:50:31  5-MIN KAOH 190350Z AUTO 26010KT 10SM FEW025 M14/M18 A3028 650 73 -2800 260/10 RMK AO2 SLP276 T11441183
04850KAOH AOH20160118225511401/18/16 22:55:31  5-MIN KAOH 190355Z AUTO 26010KT 10SM FEW024 M14/M18 A3028 640 73 -2800 270/10 RMK AO2 T11441183
04850KAOH AOH20160118230011401/18/16 23:00:31  5-MIN KAOH 190400Z AUTO 26011KT 10SM FEW024 M14/M18 A3028 640 73 -2800 260/11 RMK AO2 T11441183
04850KAOH AOH20160118230511401/18/16 23:05:31  5-MIN KAOH 190405Z AUTO 26011KT 10SM SCT023 M14/M18 A3028 640 73 -2800 270/11 RMK AO2 T11441183
04850KAOH AOH20160118231012101/18/16 23:10:31  5-MIN KAOH 190410Z AUTO 26009KT 10SM SCT023 SCT029 M14/M18 A3029 640 76 -2800 260/09 RMK AO2 T11441178
04850KAOH AOH20160118231512101/18/16 23:15:31  5-MIN KAOH 190415Z AUTO 26009KT 10SM SCT023 BKN029 M14/M18 A3029 640 76 -2800 260/09 RMK AO2 T11441178
04850KAOH AOH20160118232012101/18/16 23:20:31  5-MIN KAOH 190420Z AUTO 27009KT 10SM SCT023 BKN029 M14/M18 A3029 640 76 -2800 270/09 RMK AO2 T11441178
04850KAOH AOH20160118232512101/18/16 23:25:31  5-MIN KAOH 190425Z AUTO 26009KT 10SM BKN022 BKN029 M14/M18 A3029 640 76 -2800 260/09 RMK AO2 T11441178
04850KAOH AOH20160118233012001/18/16 23:30:31  5-MIN KAOH 190430Z AUTO 26008KT 7SM BKN022 OVC029 M14/M18 A3028 640 76 -2800 260/08 RMK AO2 T11441178
04850KAOH AOH20160118233512301/18/16 23:35:31  5-MIN KAOH 190435Z AUTO 26008KT 6SM HZ SCT020 OVC029 M14/M17 A3028 640 80 -2800 260/08 RMK AO2 T11441172
04850KAOH AOH20160118234012001/18/16 23:40:31  5-MIN KAOH 190440Z AUTO 26007KT 8SM SCT020 OVC027 M14/M17 A3028 640 80 -2800 270/07 RMK AO2 T11441172
04850KAOH AOH20160118234512001/18/16 23:45:31  5-MIN KAOH 190445Z AUTO 27006KT 9SM BKN020 OVC027 M14/M17 A3028 640 80 -2800 280/06 RMK AO2 T11441172
04850KAOH AOH20160118235013701/18/16 23:50:31  5-MIN KAOH 190450Z AUTO 27008KT 9SM BKN020 OVC027 M14/M17 A3028 650 80 -2800 280/08 RMK AO2 SLP275 T11441172 411061167
04850KAOH AOH20160118235512001/18/16 23:55:31  5-MIN KAOH 190455Z AUTO 28008KT 8SM BKN018 OVC027 M14/M17 A3028 640 80 -2800 290/08 RMK AO2 T11441172
04850KAOH AOH20160119000012001/19/16 00:00:31  5-MIN KAOH 190500Z AUTO 28008KT 7SM BKN018 OVC027 M14/M17 A3028 640 80 -2800 290/08 RMK AO2 T11441172
04850KAOH AOH20160119000512001/19/16 00:05:31  5-MIN KAOH 190505Z AUTO 28011KT 8SM SCT018 BKN027 M14/M17 A3029 640 76 -2800 290/11 RMK AO2 T11391172
04850KAOH AOH20160119001012101/19/16 00:10:31  5-MIN KAOH 190510Z AUTO 29010KT 10SM SCT018 BKN027 M14/M17 A3029 640 80 -2800 290/10 RMK AO2 T11441172
04850KAOH AOH20160120081512801/20/16 08:15:31  5-MIN KAOH 201315Z AUTO 12005KT 3/4SM -SN BR OVC021 M09/M12 A3025 680 84 -2100 120/05 RMK AO2 P0001 T10941117
04850KAOH AOH20160120082013001/20/16 08:20:31  5-MIN KAOH 201320Z AUTO 11006KT 1 1/4SM -SN BR OVC025 M09/M12 A3024 680 84 -2100 120/06 RMK AO2 P0001 T10941117
04850KAOH AOH20160120082513001/20/16 08:25:31  5-MIN KAOH 201325Z AUTO 12006KT 1 3/4SM -SN BR OVC029 M09/M12 A3024 680 84 -2100 120/06 RMK AO2 P0001 T10941117
04850KAOH AOH20160120083012601/20/16 08:30:31  5-MIN KAOH 201330Z AUTO 12005KT 2SM -SN BR OVC031 M09/M12 A3024 680 84 -2100 120/05 RMK AO2 P0001 T10941117
04850KAOH AOH20160120083513001/20/16 08:35:31  5-MIN KAOH 201335Z AUTO 12006KT 2 1/2SM -SN BR OVC033 M09/M12 A3024 680 84 -2100 120/06 RMK AO2 P0001 T10941117
04850KAOH AOH20160120084012601/20/16 08:40:31  5-MIN KAOH 201340Z AUTO 12006KT 2SM -SN BR OVC035 M09/M12 A3024 680 84 -2100 120/06 RMK AO2 P0001 T10941117
04850KAOH AOH20160120084512601/20/16 08:45:31  5-MIN KAOH 201345Z AUTO 11005KT 2SM -SN BR OVC035 M09/M12 A3024 680 84 -2100 120/05 RMK AO2 P0001 T10941117
04850KAOH AOH20160120085013301/20/16 08:50:31  5-MIN KAOH 201350Z AUTO 11005KT 2SM -SN BR OVC035 M09/M12 A3024 690 84 -2100 120/05 RMK AO2 SLP258 P0001 T10941117
04850KAOH AOH20160120085512601/20/16 08:55:31  5-MIN KAOH 201355Z AUTO 11005KT 2SM -SN BR OVC033 M09/M12 A3024 680 84 -2100 120/05 RMK AO2 P0000 T10941117
04850KAOH AOH20160120090012601/20/16 09:00:31  5-MIN KAOH 201400Z AUTO 11005KT 2SM -SN BR OVC033 M09/M12 A3024 690 84 -2100 110/05 RMK AO2 P0000 T10941117
04850KAOH AOH20160120090513301/20/16 09:05:31  5-MIN KAOH 201405Z AUTO 11005KT 2SM -SN BR BKN031 OVC040 M09/M11 A3024 680 88 -2100 120/05 RMK AO2 P0000 T10941111
04850KAOH AOH20160120091013301/20/16 09:10:31  5-MIN KAOH 201410Z AUTO 12006KT 2SM -SN BR BKN031 OVC040 M09/M12 A3024 680 84 -2100 120/06 RMK AO2 P0000 T10941117
04850KAOH AOH20160120091512301/20/16 09:15:31  5-MIN KAOH 201415Z AUTO 10005KT 2SM -SN OVC033 M09/M12 A3024 680 80 -2000 110/05 RMK AO2 P0000 T10891117
04850KAOH AOH20160120092013701/20/16 09:20:31  5-MIN KAOH 201420Z AUTO 10005KT 2 1/2SM -SN BR BKN033 OVC041 M09/M11 A3024 680 84 -2000 100/05 RMK AO2 P0000 T10891111
04850KAOH AOH20160120092513701/20/16 09:25:31  5-MIN KAOH 201425Z AUTO 10005KT 2 1/2SM -SN BR BKN033 OVC043 M09/M11 A3024 690 84 -2000 100/05 RMK AO2 P0000 T10891111
04850KAOH AOH20160120093013001/20/16 09:30:31  5-MIN KAOH 201430Z AUTO 10006KT 2 1/2SM -SN BR OVC035 M09/M11 A3024 690 84 -2000 110/06 RMK AO2 P0000 T10891111
04850KAOH AOH20160120093513701/20/16 09:35:31  5-MIN KAOH 201435Z AUTO 11006KT 2 1/2SM -SN BR BKN035 OVC045 M09/M11 A3023 690 84 -2000 110/06 RMK AO2 P0000 T10891111
04850KAOH AOH20160120094013701/20/16 09:40:31  5-MIN KAOH 201440Z AUTO 11006KT 2 1/2SM -SN BR BKN037 OVC044 M09/M11 A3023 690 84 -2000 120/06 RMK AO2 P0000 T10891111
04850KAOH AOH20160120094513001/20/16 09:45:31  5-MIN KAOH 201445Z AUTO 12006KT 2SM -SN BKN035 OVC043 M09/M12 A3023 690 80 -2000 130/06 RMK AO2 P0000 T10891117
04850KAOH AOH20160120095014901/20/16 09:50:31  5-MIN KAOH 201450Z AUTO 11005KT 2SM -SN BKN038 OVC050 M09/M12 A3023 690 80 -2000 120/05 RMK AO2 SLP255 P0000 60001 T10891117 56019
04850KAOH AOH20160120095513301/20/16 09:55:31  5-MIN KAOH 201455Z AUTO 10007KT 2SM -SN BR BKN036 OVC050 M09/M11 A3023 700 84 -2000 110/07 RMK AO2 P0000 T10891111
04850KAOH AOH20160120100013001/20/16 10:00:31  5-MIN KAOH 201500Z AUTO 11007KT 2SM -SN BKN040 OVC050 M09/M12 A3022 700 80 -2000 120/07 RMK AO2 P0000 T10891117
04850KAOH AOH20160120100513001/20/16 10:05:31  5-MIN KAOH 201505Z AUTO 11006KT 2SM -SN BKN040 OVC050 M09/M12 A3022 700 80 -2000 120/06 RMK AO2 P0000 T10891117
04850KAOH AOH20160120101013701/20/16 10:10:31  5-MIN KAOH 201510Z AUTO 12006KT 2 1/2SM -SN BR BKN042 OVC050 M09/M11 A3022 700 84 -2000 130/06 RMK AO2 P0000 T10891111
04850KAOH AOH20160120101513001/20/16 10:15:31  5-MIN KAOH 201515Z AUTO 12008KT 2SM -SN BKN039 OVC050 M09/M12 A3022 700 80 -2000 130/08 RMK AO2 P0000 T10891117
04850KAOH AOH20160120102013301/20/16 10:20:31  5-MIN KAOH 201520Z AUTO 11006KT 2SM -SN BR SCT036 OVC046 M09/M11 A3022 700 84 -2000 120/06 RMK AO2 P0000 T10891111
04850KAOH AOH20160120102513301/20/16 10:25:31  5-MIN KAOH 201525Z AUTO 13006KT 2SM -SN BR BKN039 OVC048 M09/M11 A3022 700 84 -2000 130/06 RMK AO2 P0000 T10891111
04850KAOH AOH20160120103013701/20/16 10:30:31  5-MIN KAOH 201530Z AUTO 14006KT 1 3/4SM -SN BR BKN036 OVC045 M09/M11 A3022 700 84 -2000 140/06 RMK AO2 P0000 T10891111
04850KAOH AOH20160120103513301/20/16 10:35:31  5-MIN KAOH 201535Z AUTO 13007KT 2SM -SN BR BKN034 OVC043 M09/M11 A3022 700 84 -2000 130/07 RMK AO2 P0000 T10891111
04850KAOH AOH20160120104013301/20/16 10:40:31  5-MIN KAOH 201540Z AUTO 13006KT 2SM -SN BR BKN034 OVC043 M09/M11 A3022 700 84 -2000 140/06 RMK AO2 P0000 T10891111
04850KAOH AOH20160120104513001/20/16 10:45:31  5-MIN KAOH 201545Z AUTO 13004KT 2SM -SN BKN036 OVC045 M08/M11 A3022 700 80 -1900 140/04 RMK AO2 P0000 T10831111
04850KAOH AOH20160120105013001/20/16 10:50:31  5-MIN KAOH 201550Z AUTO 12004KT 2SM -SN OVC038 M08/M11 A3022 700 80 -1900 130/04 RMK AO2 SLP253 P0000 T10831111
04850KAOH AOH20160120105514601/20/16 10:55:31  5-MIN KAOH 201555Z AUTO 12005KT 2SM -SN FEW012 OVC038 M08/M11 A3022 700 80 -1900 120/05 RMK AO2 VIS 1 1/2V2 1/2 P0000 T10831111
04850KAOH AOH20160120110013401/20/16 11:00:31  5-MIN KAOH 201600Z AUTO 12005KT 1 3/4SM -SN FEW012 OVC039 M08/M11 A3022 700 80 -1900 120/05 RMK AO2 P0000 T10831111
04850KAOH AOH20160120110513401/20/16 11:05:31  5-MIN KAOH 201605Z AUTO 12006KT 1 3/4SM -SN FEW012 OVC039 M08/M11 A3022 700 80 -1900 130/06 RMK AO2 P0000 T10831111
04850KAOH AOH20160120111013001/20/16 11:10:31  5-MIN KAOH 201610Z AUTO 14005KT 2SM -SN FEW012 OVC039 M08/M11 A3022 700 80 -1900 150/05 RMK AO2 P0000 T10831111
04850KAOH AOH20160120111513001/20/16 11:15:31  5-MIN KAOH 201615Z AUTO 14004KT 2SM -SN FEW012 OVC037 M08/M11 A3022 700 80 -1900 150/04 RMK AO2 P0000 T10831111
04850KAOH AOH20160120112014101/20/16 11:20:31  5-MIN KAOH 201620Z AUTO 11003KT 1 3/4SM -SN FEW012 BKN037 OVC043 M08/M11 A3022 700 80 -1900 110/03 RMK AO2 P0000 T10831111
04850KAOH AOH20160120112513401/20/16 11:25:31  5-MIN KAOH 201625Z AUTO 11003KT 1 1/2SM -SN FEW012 OVC037 M08/M11 A3022 700 80 -1900 110/03 RMK AO2 P0000 T10831111
04850KAOH AOH20160120113013401/20/16 11:30:31  5-MIN KAOH 201630Z AUTO 00000KT 1 1/2SM -SN FEW012 OVC035 M08/M11 A3021 710 80 -1900 000/00 RMK AO2 P0000 T10831111
04850KAOH AOH20160120113513401/20/16 11:35:31  5-MIN KAOH 201635Z AUTO 15003KT 1 1/2SM -SN FEW012 OVC033 M08/M11 A3021 710 80 -1900 150/03 RMK AO2 P0000 T10781106
04850KAOH AOH20160120114013401/20/16 11:40:31  5-MIN KAOH 201640Z AUTO 14005KT 1 1/2SM -SN FEW012 OVC033 M08/M11 A3021 710 80 -1900 150/05 RMK AO2 P0000 T10831111
04850KAOH AOH20160120114514101/20/16 11:45:31  5-MIN KAOH 201645Z AUTO 15004KT 1 1/2SM -SN SCT012 BKN031 OVC039 M08/M11 A3021 710 80 -1900 160/04 RMK AO2 P0000 T10831111
04850KAOH AOH20160120115014801/20/16 11:50:31  5-MIN KAOH 201650Z AUTO 16003KT 1 3/4SM -SN FEW012 BKN031 OVC041 M08/M11 A3021 710 80 -1900 170/03 RMK AO2 SLP248 P0000 T10831111
04850KAOH AOH20160120115514101/20/16 11:55:31  5-MIN KAOH 201655Z AUTO 00000KT 1 3/4SM -SN FEW012 BKN030 OVC039 M08/M11 A3021 710 80 -1900 000/00 RMK AO2 P0000 T10831111
04850KAOH AOH20160120120013401/20/16 12:00:31  5-MIN KAOH 201700Z AUTO 00000KT 1 3/4SM -SN SCT012 OVC032 M08/M11 A3021 710 80 -1900 000/00 RMK AO2 P0000 T10831111
04850KAOH AOH20160120120514101/20/16 12:05:31  5-MIN KAOH 201705Z AUTO 15003KT 1 3/4SM -SN SCT012 BKN032 OVC041 M08/M11 A3020 720 80 -1900 160/03 RMK AO2 P0000 T10831111
04850KAOH AOH20160120121014101/20/16 12:10:31  5-MIN KAOH 201710Z AUTO 00000KT 1 3/4SM -SN SCT013 BKN032 OVC041 M08/M11 A3020 720 77 -1800 000/00 RMK AO2 P0000 T10781111
04850KAOH AOH20160120121514101/20/16 12:15:31  5-MIN KAOH 201715Z AUTO 13003KT 1 3/4SM -SN SCT013 BKN032 OVC041 M08/M11 A3019 730 77 -1800 130/03 RMK AO2 P0000 T10781111
04850KAOH AOH20160120122014101/20/16 12:20:31  5-MIN KAOH 201720Z AUTO 15003KT 1 3/4SM -SN SCT013 BKN030 OVC040 M08/M11 A3019 730 80 -1900 160/03 RMK AO2 P0000 T10831111
04850KAOH AOH20160120122513401/20/16 12:25:31  5-MIN KAOH 201725Z AUTO 15004KT 1 3/4SM -SN SCT013 OVC032 M08/M11 A3019 730 80 -1900 160/04 RMK AO2 P0000 T10831111
04850KAOH AOH20160120123013001/20/16 12:30:31  5-MIN KAOH 201730Z AUTO 14003KT 2SM -SN FEW013 OVC032 M08/M12 A3019 730 77 -1900 150/03 RMK AO2 P0000 T10831117
04850KAOH AOH20160120123513001/20/16 12:35:31  5-MIN KAOH 201735Z AUTO 17003KT 2SM -SN FEW013 OVC032 M08/M11 A3018 730 80 -1900 170/03 RMK AO2 P0000 T10831111
04850KAOH AOH20160120124013001/20/16 12:40:31  5-MIN KAOH 201740Z AUTO 20003KT 2SM -SN FEW013 OVC032 M08/M11 A3018 730 80 -1900 210/03 RMK AO2 P0000 T10831111
04850KAOH AOH20160120124513001/20/16 12:45:31  5-MIN KAOH 201745Z AUTO 00000KT 2SM -SN BKN032 OVC040 M08/M11 A3018 740 80 -1900 000/00 RMK AO2 P0000 T10831111
04850KAOH AOH20160120125018001/20/16 12:50:31  5-MIN KAOH 201750Z AUTO 00000KT 2SM -SN BR BKN032 OVC041 M08/M11 A3018 740 84 -1900 000/00 RMK AO2 VIS 1 1/2V2 1/2 SLP238 P0000 60001 T10831106 11078 21094 58007
04850KAOH AOH20160120125513301/20/16 12:55:31  5-MIN KAOH 201755Z AUTO 00000KT 2SM -SN BR BKN032 OVC041 M08/M11 A3018 740 84 -1900 000/00 RMK AO2 P0000 T10831106
04850KAOH AOH20160120130013001/20/16 13:00:31  5-MIN KAOH 201800Z AUTO 00000KT 2SM -SN BKN032 OVC041 M08/M11 A3017 740 77 -1800 000/00 RMK AO2 P0000 T10781111
04850KAOH AOH20160120130513001/20/16 13:05:31  5-MIN KAOH 201805Z AUTO 00000KT 2SM -SN BKN034 OVC041 M08/M11 A3017 750 77 -1800 000/00 RMK AO2 P0000 T10781111
04850KAOH AOH20160120131013401/20/16 13:10:31  5-MIN KAOH 201810Z AUTO 00000KT 2 1/2SM -SN BKN034 OVC041 M08/M11 A3017 750 80 -1900 000/00 RMK AO2 P0000 T10831111
04850KAOH AOH20160120131513401/20/16 13:15:31  5-MIN KAOH 201815Z AUTO 00000KT 2 1/2SM -SN BKN034 OVC045 M08/M11 A3017 750 80 -1900 000/00 RMK AO2 P0000 T10831111
04850KAOH AOH20160120132013001/20/16 13:20:31  5-MIN KAOH 201820Z AUTO 00000KT 3SM -SN BKN037 OVC047 M08/M11 A3017 750 80 -1800 000/00 RMK AO2 P0000 T10781106
04850KAOH AOH20160120132513001/20/16 13:25:31  5-MIN KAOH 201825Z AUTO 00000KT 3SM -SN BKN039 OVC049 M08/M11 A3016 760 77 -1800 000/00 RMK AO2 P0000 T10781111
04850KAOH AOH20160120133013001/20/16 13:30:31  5-MIN KAOH 201830Z AUTO 00000KT 3SM -SN BKN037 OVC049 M08/M11 A3016 760 77 -1800 000/00 RMK AO2 P0000 T10781111
04850KAOH AOH20160120133514401/20/16 13:35:31  5-MIN KAOH 201835Z AUTO 00000KT 2 1/2SM -SN BR BKN035 BKN042 OVC049 M08/M11 A3015 760 84 -1900 000/00 RMK AO2 P0000 T10831106
04850KAOH AOH20160120134014001/20/16 13:40:31  5-MIN KAOH 201840Z AUTO 00000KT 2SM -SN BR FEW028 BKN035 OVC045 M08/M11 A3015 760 84 -1900 000/00 RMK AO2 P0000 T10831106
04850KAOH AOH20160120134512301/20/16 13:45:31  5-MIN KAOH 201845Z AUTO 00000KT 2SM -SN OVC033 M08/M11 A3015 760 80 -1800 000/00 RMK AO2 P0000 T10781106
04850KAOH AOH20160120135014101/20/16 13:50:31  5-MIN KAOH 201850Z AUTO 00000KT 1 3/4SM -SN BKN029 OVC036 M08/M11 A3015 770 80 -1800 000/00 RMK AO2 SLP228 P0000 T10781106
04850KAOH AOH20160120135513701/20/16 13:55:31  5-MIN KAOH 201855Z AUTO 29003KT 2SM -SN BKN029 BKN037 OVC045 M08/M11 A3015 760 80 -1800 300/03 RMK AO2 P0000 T10781106
04850KAOH AOH20160120140013401/20/16 14:00:31  5-MIN KAOH 201900Z AUTO 00000KT 2 1/2SM -SN BKN033 OVC045 M08/M11 A3015 770 80 -1800 000/00 RMK AO2 P0000 T10781106
04850KAOH AOH20160120140513001/20/16 14:05:31  5-MIN KAOH 201905Z AUTO 00000KT 3SM -SN FEW027 OVC035 M08/M11 A3015 770 80 -1800 000/00 RMK AO2 P0000 T10781106
04850KAOH AOH20160120141013401/20/16 14:10:31  5-MIN KAOH 201910Z AUTO 00000KT 2 1/2SM -SN BKN032 OVC039 M08/M11 A3015 770 80 -1800 000/00 RMK AO2 P0000 T10781106
04850KAOH AOH20160120141513701/20/16 14:15:31  5-MIN KAOH 201915Z AUTO 00000KT 2SM -SN FEW017 BKN028 OVC037 M08/M11 A3014 780 80 -1800 000/00 RMK AO2 P0000 T10781106
04850KAOH AOH20160120142014101/20/16 14:20:31  5-MIN KAOH 201920Z AUTO 31003KT 1 3/4SM -SN FEW017 BKN028 OVC037 M08/M11 A3014 770 80 -1800 310/03 RMK AO2 P0000 T10781106
04850KAOH AOH20160120142514401/20/16 14:25:31  5-MIN KAOH 201925Z AUTO 00000KT 1 3/4SM -SN BR FEW019 BKN030 OVC037 M08/M10 A3014 770 84 -1800 000/00 RMK AO2 P0000 T10781100
04850KAOH AOH20160120143014401/20/16 14:30:31  5-MIN KAOH 201930Z AUTO 00000KT 1 1/2SM -SN BR SCT017 BKN028 OVC037 M08/M10 A3014 780 84 -1800 000/00 RMK AO2 P0000 T10781100
04850KAOH AOH20160120143513401/20/16 14:35:31  5-MIN KAOH 201935Z AUTO 00000KT 1 1/2SM -SN BKN017 OVC028 M07/M11 A3014 780 77 -1700 000/00 RMK AO2 P0000 T10721106
04850KAOH AOH20160120144013401/20/16 14:40:31  5-MIN KAOH 201940Z AUTO 00000KT 1 1/2SM -SN BKN015 OVC026 M07/M10 A3014 780 81 -1700 000/00 RMK AO2 P0000 T10721100
04850KAOH AOH20160120144513401/20/16 14:45:31  5-MIN KAOH 201945Z AUTO 00000KT 1 3/4SM -SN BKN017 OVC028 M07/M10 A3014 780 81 -1700 000/00 RMK AO2 P0000 T10721100
04850KAOH AOH20160120145012001/20/16 14:50:31  5-MIN KAOH 201950Z AUTO 00000KT 2SM -SN BKN017 OVC030 M07/M10 A3014 780 81 -1700 000/00 RMK AO2 P0000
04850KAOH AOH20160120145512301/20/16 14:55:31  5-MIN KAOH 201955Z AUTO 02003KT 2SM -SN OVC015 M07/M10 A3014 780 81 -1700 030/03 RMK AO2 P0000 T10721100
04850KAOH AOH20160120150012701/20/16 15:00:31  5-MIN KAOH 202000Z AUTO 02003KT 1 3/4SM -SN OVC015 M07/M10 A3014 780 81 -1700 030/03 RMK AO2 P0000 T10721100
04850KAOH AOH20160120150512301/20/16 15:05:31  5-MIN KAOH 202005Z AUTO 34004KT 2SM -SN OVC015 M07/M10 A3014 780 81 -1700 350/04 RMK AO2 P0000 T10721100
04850KAOH AOH20160120151012301/20/16 15:10:31  5-MIN KAOH 202010Z AUTO 34005KT 2SM -SN OVC013 M07/M10 A3014 780 81 -1700 350/05 RMK AO2 P0000 T10721100
04850KAOH AOH20160120151512701/20/16 15:15:31  5-MIN KAOH 202015Z AUTO 33006KT 2 1/2SM -SN OVC013 M07/M10 A3014 770 81 -1700 340/06 RMK AO2 P0000 T10721100
04850KAOH AOH20160120152012701/20/16 15:20:31  5-MIN KAOH 202020Z AUTO 35007KT 2 1/2SM -SN OVC013 M07/M10 A3015 770 81 -1700 350/07 RMK AO2 P0000 T10721100
04850KAOH AOH20160120152512301/20/16 15:25:31  5-MIN KAOH 202025Z AUTO 34007KT 3SM -SN OVC013 M07/M11 A3015 770 77 -1700 350/07 RMK AO2 P0000 T10721106
04850KAOH AOH20160120153012301/20/16 15:30:31  5-MIN KAOH 202030Z AUTO 34005KT 3SM -SN OVC015 M07/M10 A3015 770 81 -1700 350/05 RMK AO2 P0000 T10721100
04850KAOH AOH20160120153512301/20/16 15:35:31  5-MIN KAOH 202035Z AUTO 36006KT 3SM -SN OVC015 M07/M11 A3015 770 77 -1700 360/06 RMK AO2 P0000 T10721106
04850KAOH AOH20160120154012301/20/16 15:40:31  5-MIN KAOH 202040Z AUTO 35006KT 3SM -SN OVC015 M08/M11 A3015 770 80 -1800 360/06 RMK AO2 P0000 T10781106
04850KAOH AOH20160120154512301/20/16 15:45:31  5-MIN KAOH 202045Z AUTO 36005KT 4SM -SN OVC016 M07/M11 A3014 770 77 -1700 360/05 RMK AO2 P0000 T10721106
04850KAOH AOH20160120155014201/20/16 15:50:31  5-MIN KAOH 202050Z AUTO 35005KT 4SM -SN OVC016 M08/M11 A3015 770 80 -1800 360/05 RMK AO2 SLP226 P0000 60000 T10781106 58016
04850KAOH AOH20160120155512301/20/16 15:55:31  5-MIN KAOH 202055Z AUTO 34006KT 4SM -SN OVC016 M07/M11 A3015 770 77 -1700 350/06 RMK AO2 P0000 T10721106
04850KAOH AOH20160120160012301/20/16 16:00:31  5-MIN KAOH 202100Z AUTO 34007KT 4SM -SN OVC016 M08/M11 A3015 770 80 -1800 350/07 RMK AO2 P0000 T10781106
04850KAOH AOH20160120160512301/20/16 16:05:31  5-MIN KAOH 202105Z AUTO 33006KT 5SM -SN OVC016 M08/M11 A3015 760 80 -1800 340/06 RMK AO2 P0000 T10781106
04850KAOH AOH20160120161012801/20/16 16:10:31  5-MIN KAOH 202110Z AUTO 35006KT 5SM HZ OVC016 M08/M11 A3015 770 80 -1800 360/06 RMK AO2 SNE08 P0000 T10781106
04850KAOH AOH20160120161512801/20/16 16:15:31  5-MIN KAOH 202115Z AUTO 35007KT 6SM HZ OVC016 M08/M11 A3015 770 77 -1800 360/07 RMK AO2 SNE08 P0000 T10781111
04850KAOH AOH20160120162012801/20/16 16:20:31  5-MIN KAOH 202120Z AUTO 35005KT 6SM HZ OVC016 M08/M11 A3015 770 77 -1800 360/05 RMK AO2 SNE08 P0000 T10781111
04850KAOH AOH20160120162512501/20/16 16:25:31  5-MIN KAOH 202125Z AUTO 33005KT 7SM OVC016 M08/M11 A3015 760 77 -1800 340/05 RMK AO2 SNE08 P0000 T10781111
04850KAOH AOH20160120163012501/20/16 16:30:31  5-MIN KAOH 202130Z AUTO 32006KT 9SM OVC016 M08/M11 A3016 760 77 -1800 330/06 RMK AO2 SNE08 P0000 T10781111
04850KAOH AOH20160120163512601/20/16 16:35:31  5-MIN KAOH 202135Z AUTO 32006KT 10SM OVC016 M08/M11 A3016 760 77 -1800 320/06 RMK AO2 SNE08 P0000 T10781111
04850KAOH AOH20160120164013301/20/16 16:40:31  5-MIN KAOH 202140Z AUTO 32005KT 10SM BKN018 OVC055 M08/M12 A3016 760 77 -1900 330/05 RMK AO2 SNE08 P0000 T10831117
04850KAOH AOH20160120164513301/20/16 16:45:31  5-MIN KAOH 202145Z AUTO 32005KT 10SM BKN018 OVC055 M08/M12 A3016 760 77 -1900 320/05 RMK AO2 SNE08 P0000 T10831117
04850KAOH AOH20160120165014001/20/16 16:50:31  5-MIN KAOH 202150Z AUTO 33006KT 10SM BKN018 OVC055 M08/M11 A3016 750 80 -1900 330/06 RMK AO2 SNE08 SLP231 P0000 T10831111
04850KAOH AOH20160120165512001/20/16 16:55:31  5-MIN KAOH 202155Z AUTO 34007KT 9SM BKN016 OVC055 M08/M11 A3016 750 77 -1800 350/07 RMK AO2 T10781111
04850KAOH AOH20160120170012101/20/16 17:00:31  5-MIN KAOH 202200Z AUTO 33005KT 10SM BKN016 OVC055 M08/M11 A3016 760 77 -1800 340/05 RMK AO2 T10781111
04850KAOH AOH20160120170512101/20/16 17:05:31  5-MIN KAOH 202205Z AUTO 33007KT 10SM BKN016 OVC055 M08/M11 A3017 750 77 -1800 340/07 RMK AO2 T10781111
04850KAOH AOH20160120171012101/20/16 17:10:31  5-MIN KAOH 202210Z AUTO 33006KT 10SM BKN016 BKN050 M08/M12 A3017 750 77 -1900 340/06 RMK AO2 T10831117
04850KAOH AOH20160120171511401/20/16 17:15:31  5-MIN KAOH 202215Z AUTO 32006KT 10SM BKN016 M08/M12 A3017 750 77 -1900 330/06 RMK AO2 T10831117
04850KAOH AOH20160120172011401/20/16 17:20:31  5-MIN KAOH 202220Z AUTO 32006KT 10SM BKN016 M09/M12 A3017 750 77 -2000 330/06 RMK AO2 T10891122
04850KAOH AOH20160120172511401/20/16 17:25:31  5-MIN KAOH 202225Z AUTO 31005KT 10SM BKN016 M09/M12 A3017 750 80 -2000 320/05 RMK AO2 T10891117
04850KAOH AOH20160120173011301/20/16 17:30:31  5-MIN KAOH 202230Z AUTO 31005KT 9SM BKN016 M09/M12 A3017 740 80 -2000 310/05 RMK AO2 T10891117
04850KAOH AOH20160120173511301/20/16 17:35:31  5-MIN KAOH 202235Z AUTO 31005KT 9SM BKN017 M08/M11 A3018 740 80 -1900 320/05 RMK AO2 T10831111
04850KAOH AOH20160120174011301/20/16 17:40:31  5-MIN KAOH 202240Z AUTO 33005KT 9SM BKN017 M08/M11 A3018 740 77 -1800 340/05 RMK AO2 T10781111
04850KAOH AOH20160120174511401/20/16 17:45:31  5-MIN KAOH 202245Z AUTO 35007KT 10SM OVC017 M08/M11 A3018 740 77 -1800 350/07 RMK AO2 T10781111
04850KAOH AOH20160120175012101/20/16 17:50:31  5-MIN KAOH 202250Z AUTO 32008KT 10SM OVC017 M08/M11 A3018 740 77 -1800 330/08 RMK AO2 SLP237 T10781111
04850KAOH AOH20160120175511401/20/16 17:55:31  5-MIN KAOH 202255Z AUTO 31007KT 10SM OVC017 M08/M11 A3018 740 77 -1800 320/07 RMK AO2 T10781111
04850KAOH AOH20160120180011401/20/16 18:00:31  5-MIN KAOH 202300Z AUTO 32006KT 10SM OVC016 M08/M11 A3019 730 80 -1900 330/06 RMK AO2 T10831111
04850KAOH AOH20160120180511401/20/16 18:05:31  5-MIN KAOH 202305Z AUTO 33006KT 10SM BKN016 M09/M12 A3019 730 80 -2000 330/06 RMK AO2 T10891117
04850KAOH AOH20160120181011401/20/16 18:10:31  5-MIN KAOH 202310Z AUTO 33005KT 10SM BKN016 M09/M12 A3019 730 80 -2100 330/05 RMK AO2 T10941122
04850KAOH AOH20160120181511401/20/16 18:15:31  5-MIN KAOH 202315Z AUTO 33005KT 10SM SCT016 M09/M13 A3019 730 77 -2100 340/05 RMK AO2 T10941128
04850KAOH AOH20160120182011401/20/16 18:20:31  5-MIN KAOH 202320Z AUTO 33004KT 10SM FEW016 M10/M13 A3019 730 80 -2100 340/04 RMK AO2 T11001128
04850KAOH AOH20160120182511401/20/16 18:25:31  5-MIN KAOH 202325Z AUTO 34004KT 10SM FEW016 M10/M13 A3019 730 80 -2100 340/04 RMK AO2 T11001128
04850KAOH AOH20160120183011101/20/16 18:30:31  5-MIN KAOH 202330Z AUTO 33003KT 10SM CLR M11/M13 A3020 720 84 -2200 340/03 RMK AO2 T11061128
04850KAOH AOH20160120183511101/20/16 18:35:31  5-MIN KAOH 202335Z AUTO 34003KT 10SM CLR M10/M13 A3020 720 80 -2100 350/03 RMK AO2 T11001128
04850KAOH AOH20160120184011101/20/16 18:40:31  5-MIN KAOH 202340Z AUTO 00000KT 10SM CLR M10/M13 A3020 720 80 -2100 000/00 RMK AO2 T11001128
04850KAOH AOH20160120184511401/20/16 18:45:31  5-MIN KAOH 202345Z AUTO 32003KT 10SM FEW019 M10/M13 A3021 710 80 -2100 320/03 RMK AO2 T11001128
04850KAOH AOH20160120185014501/20/16 18:50:31  5-MIN KAOH 202350Z AUTO 30003KT 10SM SCT019 M10/M12 A3021 710 84 -2100 310/03 RMK AO2 SLP248 60000 T11001122 11067 21106 55011
04850KAOH AOH20160120185511401/20/16 18:55:31  5-MIN KAOH 202355Z AUTO 31003KT 10SM BKN019 M11/M12 A3021 710 88 -2200 320/03 RMK AO2 T11061122
04850KAOH AOH20160120190011401/20/16 19:00:31  5-MIN KAOH 210000Z AUTO 30003KT 10SM BKN019 M10/M12 A3022 710 88 -2200 310/03 RMK AO2 T11001117
04850KAOH AOH20160120190511401/20/16 19:05:31  5-MIN KAOH 210005Z AUTO 33003KT 10SM BKN019 M09/M12 A3022 700 84 -2100 330/03 RMK AO2 T10941117
04850KAOH AOH20160120191011401/20/16 19:10:31  5-MIN KAOH 210010Z AUTO 33003KT 10SM OVC019 M09/M12 A3021 710 84 -2100 330/03 RMK AO2 T10941117
04850KAOH AOH20160120191511401/20/16 19:15:31  5-MIN KAOH 210015Z AUTO 00000KT 10SM OVC018 M09/M12 A3022 700 80 -2000 000/00 RMK AO2 T10891117
04850KAOH AOH20160120192011401/20/16 19:20:31  5-MIN KAOH 210020Z AUTO 34003KT 10SM OVC018 M09/M11 A3022 700 84 -2000 350/03 RMK AO2 T10891111
04850KAOH AOH20160120192511401/20/16 19:25:31  5-MIN KAOH 210025Z AUTO 00000KT 10SM OVC018 M09/M11 A3022 700 84 -2000 000/00 RMK AO2 T10891111
04850KAOH AOH20160120193011401/20/16 19:30:31  5-MIN KAOH 210030Z AUTO 00000KT 10SM OVC018 M08/M11 A3022 700 80 -1900 000/00 RMK AO2 T10831111
04850KAOH AOH20160120193511401/20/16 19:35:31  5-MIN KAOH 210035Z AUTO 00000KT 10SM OVC018 M08/M11 A3022 700 80 -1900 000/00 RMK AO2 T10831111
04850KAOH AOH20160120194011401/20/16 19:40:31  5-MIN KAOH 210040Z AUTO 00000KT 10SM OVC018 M08/M11 A3021 710 80 -1900 000/00 RMK AO2 T10831111
04850KAOH AOH20160120194511401/20/16 19:45:31  5-MIN KAOH 210045Z AUTO 00000KT 10SM OVC018 M08/M11 A3021 710 80 -1900 000/00 RMK AO2 T10831111
04850KAOH AOH20160120195012101/20/16 19:50:31  5-MIN KAOH 210050Z AUTO 00000KT 10SM OVC018 M08/M12 A3021 710 77 -1900 000/00 RMK AO2 SLP249 T10831117
04850KAOH AOH20160120195511401/20/16 19:55:31  5-MIN KAOH 210055Z AUTO 00000KT 10SM OVC018 M08/M12 A3021 710 77 -1900 000/00 RMK AO2 T10831117
04850KAOH AOH20160120200011401/20/16 20:00:31  5-MIN KAOH 210100Z AUTO 00000KT 10SM OVC018 M08/M12 A3021 710 77 -1900 000/00 RMK AO2 T10831117
04850KAOH AOH20160120200511401/20/16 20:05:31  5-MIN KAOH 210105Z AUTO 01003KT 10SM OVC018 M09/M12 A3021 710 80 -2000 020/03 RMK AO2 T10891117
04850KAOH AOH20160120201011401/20/16 20:10:31  5-MIN KAOH 210110Z AUTO 36003KT 10SM OVC017 M09/M12 A3021 710 80 -2000 360/03 RMK AO2 T10891117
04850KAOH AOH20160120201511401/20/16 20:15:31  5-MIN KAOH 210115Z AUTO 35003KT 10SM OVC017 M09/M12 A3021 710 80 -2100 350/03 RMK AO2 T10941122
04850KAOH AOH20160120202011401/20/16 20:20:31  5-MIN KAOH 210120Z AUTO 00000KT 10SM OVC016 M09/M12 A3022 700 80 -2000 000/00 RMK AO2 T10891117
04850KAOH AOH20160120202511401/20/16 20:25:31  5-MIN KAOH 210125Z AUTO 00000KT 10SM OVC016 M09/M12 A3022 700 80 -2000 000/00 RMK AO2 T10891117
04850KAOH AOH20160120203011401/20/16 20:30:31  5-MIN KAOH 210130Z AUTO 00000KT 10SM OVC016 M09/M12 A3022 700 80 -2100 000/00 RMK AO2 T10941122
04850KAOH AOH20160120203511401/20/16 20:35:31  5-MIN KAOH 210135Z AUTO 31003KT 10SM OVC016 M10/M12 A3022 700 84 -2200 310/03 RMK AO2 T11001122
04850KAOH AOH20160120204011401/20/16 20:40:31  5-MIN KAOH 210140Z AUTO 29003KT 10SM OVC016 M09/M12 A3022 700 84 -2100 290/03 RMK AO2 T10941117
04850KAOH AOH20160120204511401/20/16 20:45:31  5-MIN KAOH 210145Z AUTO 00000KT 10SM BKN016 M09/M12 A3022 700 84 -2100 000/00 RMK AO2 T10941117
04850KAOH AOH20160120205012101/20/16 20:50:31  5-MIN KAOH 210150Z AUTO 30003KT 10SM BKN016 M09/M12 A3022 700 84 -2100 300/03 RMK AO2 SLP252 T10941117
04850KAOH AOH20160120205511401/20/16 20:55:31  5-MIN KAOH 210155Z AUTO 00000KT 10SM SCT016 M11/M13 A3022 700 88 -2300 000/00 RMK AO2 T11111128
04850KAOH AOH20160120210011401/20/16 21:00:31  5-MIN KAOH 210200Z AUTO 24003KT 10SM SCT016 M10/M12 A3023 690 84 -2200 250/03 RMK AO2 T11001122
04850KAOH AOH20160120210511401/20/16 21:05:31  5-MIN KAOH 210205Z AUTO 24003KT 10SM FEW016 M11/M12 A3023 690 88 -2200 240/03 RMK AO2 T11061122
04850KAOH AOH20160120211011001/20/16 21:10:31  5-MIN KAOH 210210Z AUTO 24005KT 9SM CLR M11/M12 A3024 680 88 -2300 250/05 RMK AO2 T11061122
04850KAOH AOH20160120211511001/20/16 21:15:31  5-MIN KAOH 210215Z AUTO 25005KT 9SM CLR M11/M12 A3024 680 92 -2300 250/05 RMK AO2 T11111122
04850KAOH AOH20160120212011001/20/16 21:20:31  5-MIN KAOH 210220Z AUTO 25005KT 9SM CLR M11/M12 A3024 680 88 -2300 250/05 RMK AO2 T11061122
04850KAOH AOH20160120212511001/20/16 21:25:31  5-MIN KAOH 210225Z AUTO 25005KT 9SM CLR M11/M12 A3024 680 88 -2300 250/05 RMK AO2 T11061122
04850KAOH AOH20160120213011001/20/16 21:30:31  5-MIN KAOH 210230Z AUTO 25006KT 9SM CLR M11/M13 A3025 680 84 -2300 250/06 RMK AO2 T11061128
04850KAOH AOH20160120213511001/20/16 21:35:31  5-MIN KAOH 210235Z AUTO 24005KT 9SM CLR M11/M13 A3024 680 84 -2300 240/05 RMK AO2 T11061128
04850KAOH AOH20160120214011001/20/16 21:40:31  5-MIN KAOH 210240Z AUTO 23006KT 8SM CLR M11/M13 A3025 680 88 -2300 240/06 RMK AO2 T11111128
04850KAOH AOH20160120214511001/20/16 21:45:31  5-MIN KAOH 210245Z AUTO 23006KT 8SM CLR M11/M13 A3025 680 88 -2300 240/06 RMK AO2 T11111128
04850KAOH AOH20160120215012301/20/16 21:50:31  5-MIN KAOH 210250Z AUTO 23006KT 8SM CLR M11/M13 A3025 670 88 -2300 230/06 RMK AO2 SLP263 T11111128 53022
04850KAOH AOH20160120215511001/20/16 21:55:31  5-MIN KAOH 210255Z AUTO 23006KT 8SM CLR M11/M13 A3025 670 88 -2300 240/06 RMK AO2 T11111128
04850KAOH AOH20160120220011001/20/16 22:00:31  5-MIN KAOH 210300Z AUTO 23007KT 8SM CLR M11/M13 A3026 670 88 -2300 240/07 RMK AO2 T11111128
04850KAOH AOH20160120220511001/20/16 22:05:31  5-MIN KAOH 210305Z AUTO 23007KT 8SM CLR M11/M13 A3026 660 84 -2400 240/07 RMK AO2 T11111133
04850KAOH AOH20160120221011001/20/16 22:10:31  5-MIN KAOH 210310Z AUTO 24007KT 8SM CLR M11/M13 A3026 660 84 -2400 240/07 RMK AO2 T11111133
04850KAOH AOH20160120221511001/20/16 22:15:31  5-MIN KAOH 210315Z AUTO 23005KT 8SM CLR M11/M13 A3026 660 88 -2400 240/05 RMK AO2 T11111128
04850KAOH AOH20160120222011001/20/16 22:20:31  5-MIN KAOH 210320Z AUTO 24005KT 8SM CLR M11/M13 A3026 670 88 -2300 240/05 RMK AO2 T11111128
04850KAOH AOH20160120222511001/20/16 22:25:31  5-MIN KAOH 210325Z AUTO 23003KT 8SM CLR M11/M13 A3026 670 88 -2300 240/03 RMK AO2 T11111128
04850KAOH AOH20160120223011001/20/16 22:30:31  5-MIN KAOH 210330Z AUTO 24003KT 8SM CLR M12/M13 A3026 670 91 -2500 250/03 RMK AO2 T11221133
04850KAOH AOH20160120223511001/20/16 22:35:31  5-MIN KAOH 210335Z AUTO 24003KT 7SM CLR M13/M14 A3026 670 91 -2600 240/03 RMK AO2 T11281139
04850KAOH AOH20160120224011001/20/16 22:40:31  5-MIN KAOH 210340Z AUTO 23003KT 7SM CLR M13/M14 A3026 660 87 -2600 230/03 RMK AO2 T11281144
04850KAOH AOH20160120224511301/20/16 22:45:31  5-MIN KAOH 210345Z AUTO 22005KT 6SM BR CLR M13/M14 A3027 660 87 -2600 230/05 RMK AO2 T11281144
04850KAOH AOH20160120225012001/20/16 22:50:31  5-MIN KAOH 210350Z AUTO 22005KT 6SM BR CLR M12/M14 A3027 650 87 -2500 220/05 RMK AO2 SLP270 T11221139
04850KAOH AOH20160120225511001/20/16 22:55:31  5-MIN KAOH 210355Z AUTO 21006KT 7SM CLR M11/M13 A3027 650 88 -2400 220/06 RMK AO2 T11111128
04850KAOH AOH20160120230011001/20/16 23:00:31  5-MIN KAOH 210400Z AUTO 20003KT 7SM CLR M12/M13 A3027 660 91 -2400 210/03 RMK AO2 T11171128
04850KAOH AOH20160120230511301/20/16 23:05:31  5-MIN KAOH 210405Z AUTO 00000KT 6SM BR CLR M13/M14 A3026 660 91 -2600 000/00 RMK AO2 T11331144
04850KAOH AOH20160120231011301/20/16 23:10:31  5-MIN KAOH 210410Z AUTO 00000KT 6SM BR CLR M13/M14 A3026 660 87 -2600 000/00 RMK AO2 T11281144
04850KAOH AOH20160120231511301/20/16 23:15:31  5-MIN KAOH 210415Z AUTO 00000KT 6SM BR CLR M13/M15 A3026 660 87 -2600 000/00 RMK AO2 T11331150
04850KAOH AOH20160120232011301/20/16 23:20:31  5-MIN KAOH 210420Z AUTO 00000KT 6SM BR CLR M13/M15 A3026 660 87 -2600 000/00 RMK AO2 T11331150
04850KAOH AOH20160120232511301/20/16 23:25:31  5-MIN KAOH 210425Z AUTO 00000KT 6SM BR CLR M14/M15 A3026 670 91 -2700 000/00 RMK AO2 T11391150
04850KAOH AOH20160120233011301/20/16 23:30:31  5-MIN KAOH 210430Z AUTO 00000KT 6SM BR CLR M14/M15 A3026 670 91 -2700 000/00 RMK AO2 T11391150
04850KAOH AOH20160120233511301/20/16 23:35:31  5-MIN KAOH 210435Z AUTO 00000KT 5SM BR CLR M14/M16 A3026 670 87 -2800 000/00 RMK AO2 T11441161
04850KAOH AOH20160120234011301/20/16 23:40:31  5-MIN KAOH 210440Z AUTO 00000KT 5SM BR CLR M15/M17 A3026 660 87 -2900 000/00 RMK AO2 T11501167
04850KAOH AOH20160120234511301/20/16 23:45:31  5-MIN KAOH 210445Z AUTO 19003KT 5SM BR CLR M14/M16 A3027 660 87 -2800 200/03 RMK AO2 T11441161
04850KAOH AOH20160120235013601/20/16 23:50:31  5-MIN KAOH 210450Z AUTO 21003KT 4SM BR CLR M14/M15 A3027 650 91 -2700 220/03 RMK AO2 SLP271 I1000 T11391150 410671150
04850KAOH AOH20160120235511301/20/16 23:55:31  5-MIN KAOH 210455Z AUTO 22003KT 5SM BR CLR M13/M15 A3027 650 87 -2700 220/03 RMK AO2 T11331150
04850KAOH AOH20160121000011301/21/16 00:00:31  5-MIN KAOH 210500Z AUTO 21003KT 5SM BR CLR M13/M14 A3028 650 91 -2600 210/03 RMK AO2 T11281139
04850KAOH AOH20160121000511301/21/16 00:05:31  5-MIN KAOH 210505Z AUTO 22003KT 5SM BR CLR M13/M14 A3028 650 91 -2600 220/03 RMK AO2 T11281139
04850KAOH AOH20160121001011301/21/16 00:10:31  5-MIN KAOH 210510Z AUTO 00000KT 5SM BR CLR M13/M14 A3028 650 87 -2600 000/00 RMK AO2 T11281144
04850KAOH AOH20160121001511301/21/16 00:15:31  5-MIN KAOH 210515Z AUTO 00000KT 5SM BR CLR M14/M15 A3028 650 91 -2700 000/00 RMK AO2 T11391150
04850KAOH AOH20160121002011901/21/16 00:20:31  5-MIN KAOH 210520Z AUTO 00000KT 4SM BR CLR M13/M15 A3028 650 87 -2700 000/00 RMK AO2 I1000 T11331150
04850KAOH AOH20160121002511901/21/16 00:25:31  5-MIN KAOH 210525Z AUTO 00000KT 4SM BR CLR M14/M15 A3027 650 91 -2700 000/00 RMK AO2 I1000 T11391150
04850KAOH AOH20160121003011901/21/16 00:30:31  5-MIN KAOH 210530Z AUTO 00000KT 4SM BR CLR M14/M16 A3027 660 91 -2800 000/00 RMK AO2 I1000 T11441156
04850KAOH AOH20160121003511901/21/16 00:35:31  5-MIN KAOH 210535Z AUTO 00000KT 4SM BR CLR M14/M16 A3026 660 87 -2800 000/00 RMK AO2 I1000 T11441161
04850KAOH AOH20160121004011901/21/16 00:40:31  5-MIN KAOH 210540Z AUTO 00000KT 5SM BR CLR M15/M17 A3026 660 83 -2900 000/00 RMK AO2 I1000 T11501172
04850KAOH AOH20160121004511901/21/16 00:45:31  5-MIN KAOH 210545Z AUTO 00000KT 5SM BR CLR M15/M16 A3026 660 91 -2900 000/00 RMK AO2 I1000 T11501161
04850KAOH AOH20160121005015001/21/16 00:50:31  5-MIN KAOH 210550Z AUTO 00000KT 5SM BR CLR M15/M17 A3026 660 87 -2900 000/00 RMK AO2 SLP268 I1000 I6000 T11501167 11083 21156 53014
04850KAOH AOH20160121005511301/21/16 00:55:31  5-MIN KAOH 210555Z AUTO 00000KT 6SM BR CLR M15/M17 A3026 660 87 -2900 000/00 RMK AO2 T11501167
04850KAOH AOH20160121010011301/21/16 01:00:31  5-MIN KAOH 210600Z AUTO 00000KT 5SM BR CLR M15/M17 A3026 660 87 -2900 000/00 RMK AO2 T11501167
04850KAOH AOH20160121010511301/21/16 01:05:31  5-MIN KAOH 210605Z AUTO 00000KT 5SM BR CLR M15/M17 A3027 660 87 -2900 000/00 RMK AO2 T11501167
04850KAOH AOH20160121011011301/21/16 01:10:31  5-MIN KAOH 210610Z AUTO 20003KT 5SM BR CLR M14/M16 A3027 650 87 -2700 210/03 RMK AO2 T11391156
04850KAOH AOH20160121011511301/21/16 01:15:31  5-MIN KAOH 210615Z AUTO 20004KT 4SM BR CLR M14/M15 A3028 650 91 -2700 210/04 RMK AO2 T11391150
04850KAOH AOH20160121012011301/21/16 01:20:31  5-MIN KAOH 210620Z AUTO 21004KT 4SM BR CLR M14/M15 A3028 650 91 -2700 220/04 RMK AO2 T11391150
04850KAOH AOH20160121012511301/21/16 01:25:31  5-MIN KAOH 210625Z AUTO 21004KT 5SM BR CLR M14/M15 A3028 640 91 -2700 210/04 RMK AO2 T11391150
04850KAOH AOH20160121013011301/21/16 01:30:31  5-MIN KAOH 210630Z AUTO 20004KT 5SM BR CLR M13/M15 A3028 640 87 -2700 210/04 RMK AO2 T11331150
04850KAOH AOH20160121013511901/21/16 01:35:31  5-MIN KAOH 210635Z AUTO 19004KT 5SM BR CLR M13/M14 A3028 640 91 -2700 200/04 RMK AO2 I1000 T11331144
04850KAOH AOH20160121014011901/21/16 01:40:31  5-MIN KAOH 210640Z AUTO 19003KT 5SM BR CLR M13/M14 A3029 640 91 -2700 200/03 RMK AO2 I1000 T11331144
04850KAOH AOH20160121014511901/21/16 01:45:31  5-MIN KAOH 210645Z AUTO 20003KT 5SM BR CLR M13/M15 A3029 640 87 -2700 200/03 RMK AO2 I1000 T11331150
04850KAOH AOH20160121015012601/21/16 01:50:31  5-MIN KAOH 210650Z AUTO 00000KT 5SM BR CLR M14/M15 A3029 640 91 -2800 000/00 RMK AO2 SLP276 I1000 T11391150
04850KAOH AOH20160121015511301/21/16 01:55:31  5-MIN KAOH 210655Z AUTO 21003KT 5SM BR CLR M14/M16 A3029 640 87 -2800 220/03 RMK AO2 T11391156
04850KAOH AOH20160121020011301/21/16 02:00:31  5-MIN KAOH 210700Z AUTO 00000KT 5SM BR CLR M13/M16 A3029 640 83 -2700 000/00 RMK AO2 T11331156
04850KAOH AOH20160121020511301/21/16 02:05:31  5-MIN KAOH 210705Z AUTO 20003KT 5SM BR CLR M13/M15 A3029 640 87 -2700 210/03 RMK AO2 T11331150
04850KAOH AOH20160121021011301/21/16 02:10:31  5-MIN KAOH 210710Z AUTO 00000KT 5SM BR CLR M14/M15 A3029 640 91 -2800 000/00 RMK AO2 T11391150
04850KAOH AOH20160121021511301/21/16 02:15:31  5-MIN KAOH 210715Z AUTO 00000KT 5SM BR CLR M14/M16 A3029 640 87 -2800 000/00 RMK AO2 T11391156
04850KAOH AOH20160121022011301/21/16 02:20:31  5-MIN KAOH 210720Z AUTO 00000KT 5SM BR CLR M14/M16 A3029 630 87 -2800 000/00 RMK AO2 T11441161
04850KAOH AOH20160121022511301/21/16 02:25:31  5-MIN KAOH 210725Z AUTO 22003KT 5SM BR CLR M14/M16 A3030 630 83 -2800 230/03 RMK AO2 T11391161
04850KAOH AOH20160121023011301/21/16 02:30:31  5-MIN KAOH 210730Z AUTO 22004KT 5SM BR CLR M14/M16 A3030 630 87 -2800 230/04 RMK AO2 T11391156
04850KAOH AOH20160121023511301/21/16 02:35:31  5-MIN KAOH 210735Z AUTO 23005KT 5SM BR CLR M13/M15 A3031 620 87 -2700 230/05 RMK AO2 T11331150
04850KAOH AOH20160121024011301/21/16 02:40:31  5-MIN KAOH 210740Z AUTO 22005KT 5SM BR CLR M13/M14 A3031 620 91 -2700 230/05 RMK AO2 T11331144
04850KAOH AOH20160121024511901/21/16 02:45:31  5-MIN KAOH 210745Z AUTO 22004KT 5SM BR CLR M13/M14 A3031 620 91 -2600 230/04 RMK AO2 I1000 T11281139
04850KAOH AOH20160121025012601/21/16 02:50:31  5-MIN KAOH 210750Z AUTO 21005KT 5SM BR CLR M13/M14 A3031 620 87 -2600 220/05 RMK AO2 SLP283 I1000 T11281144
04850KAOH AOH20160121025511301/21/16 02:55:31  5-MIN KAOH 210755Z AUTO 21004KT 5SM BR CLR M13/M14 A3031 620 87 -2600 220/04 RMK AO2 T11281144
04850KAOH AOH20160121030011301/21/16 03:00:31  5-MIN KAOH 210800Z AUTO 20004KT 5SM BR CLR M13/M14 A3031 620 91 -2700 210/04 RMK AO2 T11331144
04850KAOH AOH20160121030511301/21/16 03:05:31  5-MIN KAOH 210805Z AUTO 20003KT 6SM BR CLR M14/M15 A3031 620 91 -2800 210/03 RMK AO2 T11391150
04850KAOH AOH20160121031011301/21/16 03:10:31  5-MIN KAOH 210810Z AUTO 19003KT 6SM BR CLR M14/M16 A3031 620 87 -2800 200/03 RMK AO2 T11391156
04850KAOH AOH20160121031511301/21/16 03:15:31  5-MIN KAOH 210815Z AUTO 19003KT 5SM BR CLR M15/M17 A3030 620 87 -2900 200/03 RMK AO2 T11501167
04850KAOH AOH20160121032011301/21/16 03:20:31  5-MIN KAOH 210820Z AUTO 00000KT 5SM BR CLR M15/M17 A3030 630 87 -2900 000/00 RMK AO2 T11501167
04850KAOH AOH20160121032511301/21/16 03:25:31  5-MIN KAOH 210825Z AUTO 00000KT 5SM BR CLR M15/M17 A3030 630 87 -2900 000/00 RMK AO2 T11501167
04850KAOH AOH20160121033011301/21/16 03:30:31  5-MIN KAOH 210830Z AUTO 00000KT 5SM BR CLR M15/M16 A3030 630 91 -2900 000/00 RMK AO2 T11501161
04850KAOH AOH20160121033511301/21/16 03:35:31  5-MIN KAOH 210835Z AUTO 00000KT 5SM BR CLR M15/M16 A3029 630 91 -2900 000/00 RMK AO2 T11501161
04850KAOH AOH20160121034011301/21/16 03:40:31  5-MIN KAOH 210840Z AUTO 15003KT 6SM BR CLR M15/M17 A3029 640 87 -2900 160/03 RMK AO2 T11501167
04850KAOH AOH20160121034511301/21/16 03:45:31  5-MIN KAOH 210845Z AUTO 16003KT 6SM BR CLR M16/M17 A3029 630 87 -3000 170/03 RMK AO2 T11561172
04850KAOH AOH20160121035013201/21/16 03:50:31  5-MIN KAOH 210850Z AUTO 00000KT 6SM BR CLR M16/M17 A3029 630 87 -3000 000/00 RMK AO2 SLP279 I3/// T11561172 50003
04850KAOH AOH20160121035511301/21/16 03:55:31  5-MIN KAOH 210855Z AUTO 00000KT 5SM BR CLR M16/M17 A3029 630 87 -3000 000/00 RMK AO2 T11561172
04850KAOH AOH20160121040011301/21/16 04:00:31  5-MIN KAOH 210900Z AUTO 00000KT 5SM BR CLR M16/M17 A3029 640 87 -3000 000/00 RMK AO2 T11561172
04850KAOH AOH20160121040511301/21/16 04:05:31  5-MIN KAOH 210905Z AUTO 00000KT 4SM BR CLR M15/M17 A3029 640 87 -2900 000/00 RMK AO2 T11501167
04850KAOH AOH20160121041011301/21/16 04:10:31  5-MIN KAOH 210910Z AUTO 16003KT 4SM BR CLR M15/M17 A3029 640 87 -2900 160/03 RMK AO2 T11501167
04850KAOH AOH20160121041511301/21/16 04:15:31  5-MIN KAOH 210915Z AUTO 14004KT 5SM BR CLR M16/M18 A3028 640 87 -3000 150/04 RMK AO2 T11611178
04850KAOH AOH20160121042011301/21/16 04:20:31  5-MIN KAOH 210920Z AUTO 14004KT 6SM BR CLR M16/M18 A3028 650 83 -3000 150/04 RMK AO2 T11561178
04850KAOH AOH20160121042511301/21/16 04:25:31  5-MIN KAOH 210925Z AUTO 13004KT 6SM BR CLR M16/M18 A3028 650 87 -3000 140/04 RMK AO2 T11611178
04850KAOH AOH20160121043011301/21/16 04:30:31  5-MIN KAOH 210930Z AUTO 14004KT 6SM BR CLR M16/M18 A3028 650 83 -3000 150/04 RMK AO2 T11561178
04850KAOH AOH20160121043511301/21/16 04:35:31  5-MIN KAOH 210935Z AUTO 14003KT 6SM BR CLR M16/M17 A3027 650 87 -3000 150/03 RMK AO2 T11561172
04850KAOH AOH20160121044011301/21/16 04:40:31  5-MIN KAOH 210940Z AUTO 15003KT 5SM BR CLR M16/M17 A3027 650 87 -3000 160/03 RMK AO2 T11561172
04850KAOH AOH20160121044511301/21/16 04:45:31  5-MIN KAOH 210945Z AUTO 15004KT 5SM BR CLR M15/M17 A3028 650 87 -2900 160/04 RMK AO2 T11501167
04850KAOH AOH20160121045012001/21/16 04:50:31  5-MIN KAOH 210950Z AUTO 16004KT 5SM BR CLR M15/M17 A3028 650 87 -2900 170/04 RMK AO2 SLP274 T11501167
04850KAOH AOH20160121045511301/21/16 04:55:31  5-MIN KAOH 210955Z AUTO 15004KT 5SM BR CLR M15/M17 A3028 650 87 -2900 160/04 RMK AO2 T11501167
04850KAOH AOH20160121050011301/21/16 05:00:31  5-MIN KAOH 211000Z AUTO 17003KT 5SM BR CLR M16/M17 A3028 650 87 -3000 180/03 RMK AO2 T11561172
04850KAOH AOH20160121050511301/21/16 05:05:31  5-MIN KAOH 211005Z AUTO 00000KT 5SM BR CLR M15/M17 A3028 640 83 -2900 000/00 RMK AO2 T11501172
04850KAOH AOH20160121051011301/21/16 05:10:31  5-MIN KAOH 211010Z AUTO 00000KT 6SM BR CLR M16/M18 A3029 640 83 -3000 000/00 RMK AO2 T11561178
04850KAOH AOH20160121051511301/21/16 05:15:31  5-MIN KAOH 211015Z AUTO 00000KT 6SM BR CLR M15/M17 A3029 640 83 -2900 000/00 RMK AO2 T11501172
04850KAOH AOH20160121052011301/21/16 05:20:31  5-MIN KAOH 211020Z AUTO 00000KT 6SM BR CLR M15/M17 A3029 640 87 -2900 000/00 RMK AO2 T11501167
04850KAOH AOH20160121052511301/21/16 05:25:31  5-MIN KAOH 211025Z AUTO 00000KT 5SM BR CLR M16/M17 A3029 630 91 -3000 000/00 RMK AO2 T11561167
04850KAOH AOH20160121053011301/21/16 05:30:31  5-MIN KAOH 211030Z AUTO 00000KT 5SM BR CLR M15/M17 A3030 630 87 -2900 000/00 RMK AO2 T11501167
04850KAOH AOH20160121053511301/21/16 05:35:31  5-MIN KAOH 211035Z AUTO 19003KT 5SM BR CLR M15/M17 A3030 630 87 -2900 200/03 RMK AO2 T11501167
04850KAOH AOH20160121054011301/21/16 05:40:31  5-MIN KAOH 211040Z AUTO 00000KT 5SM BR CLR M15/M17 A3030 620 87 -2900 000/00 RMK AO2 T11501167
04850KAOH AOH20160121054511301/21/16 05:45:31  5-MIN KAOH 211045Z AUTO 19004KT 6SM BR CLR M14/M17 A3031 620 83 -2800 190/04 RMK AO2 T11441167
04850KAOH AOH20160121055012001/21/16 05:50:31  5-MIN KAOH 211050Z AUTO 19005KT 5SM BR CLR M14/M16 A3031 620 87 -2800 190/05 RMK AO2 SLP283 T11391156
04850KAOH AOH20160121055511301/21/16 05:55:31  5-MIN KAOH 211055Z AUTO 19006KT 5SM BR CLR M14/M16 A3031 620 87 -2800 200/06 RMK AO2 T11391156
04850KAOH AOH20160121060011301/21/16 06:00:31  5-MIN KAOH 211100Z AUTO 19005KT 5SM BR CLR M14/M16 A3031 620 87 -2800 200/05 RMK AO2 T11391156
04850KAOH AOH20160121060511301/21/16 06:05:31  5-MIN KAOH 211105Z AUTO 19004KT 5SM BR CLR M14/M16 A3031 620 91 -2900 190/04 RMK AO2 T11441156
04850KAOH AOH20160121061011301/21/16 06:10:31  5-MIN KAOH 211110Z AUTO 18005KT 5SM BR CLR M15/M17 A3031 620 87 -2900 190/05 RMK AO2 T11501167
04850KAOH AOH20160121061511301/21/16 06:15:31  5-MIN KAOH 211115Z AUTO 18005KT 6SM BR CLR M15/M17 A3031 620 87 -2900 190/05 RMK AO2 T11501167
04850KAOH AOH20160121062011301/21/16 06:20:31  5-MIN KAOH 211120Z AUTO 18005KT 6SM BR CLR M15/M17 A3031 620 87 -2900 180/05 RMK AO2 T11501167
04850KAOH AOH20160121062511301/21/16 06:25:31  5-MIN KAOH 211125Z AUTO 18005KT 6SM BR CLR M15/M16 A3031 620 91 -2900 190/05 RMK AO2 T11501161
04850KAOH AOH20160121063011301/21/16 06:30:31  5-MIN KAOH 211130Z AUTO 18005KT 6SM BR CLR M15/M16 A3031 620 91 -2900 180/05 RMK AO2 T11501161
04850KAOH AOH20160121063511301/21/16 06:35:31  5-MIN KAOH 211135Z AUTO 17004KT 6SM BR CLR M14/M16 A3031 620 87 -2900 170/04 RMK AO2 T11441161
04850KAOH AOH20160121064011301/21/16 06:40:31  5-MIN KAOH 211140Z AUTO 16004KT 6SM BR CLR M14/M16 A3031 620 87 -2900 170/04 RMK AO2 T11441161
04850KAOH AOH20160121064511301/21/16 06:45:31  5-MIN KAOH 211145Z AUTO 16003KT 6SM BR CLR M15/M17 A3031 620 87 -2900 160/03 RMK AO2 T11501167
04850KAOH AOH20160121065015001/21/16 06:50:31  5-MIN KAOH 211150Z AUTO 15004KT 6SM BR CLR M15/M16 A3031 610 91 -2900 160/04 RMK AO2 SLP287 70001 I6000 T11501161 11128 21161 50010
04850KAOH AOH20160121065511301/21/16 06:55:31  5-MIN KAOH 211155Z AUTO 17003KT 6SM BR CLR M15/M17 A3032 610 87 -2900 170/03 RMK AO2 T11501167
04850KAOH AOH20160121070011301/21/16 07:00:31  5-MIN KAOH 211200Z AUTO 00000KT 6SM BR CLR M15/M17 A3032 610 87 -2900 000/00 RMK AO2 T11501167
04850KAOH AOH20160121070511301/21/16 07:05:31  5-MIN KAOH 211205Z AUTO 00000KT 6SM BR CLR M14/M17 A3033 600 83 -2900 000/00 RMK AO2 T11441167
04850KAOH AOH20160121071011301/21/16 07:10:31  5-MIN KAOH 211210Z AUTO 00000KT 5SM BR CLR M14/M17 A3033 600 83 -2900 000/00 RMK AO2 T11441167
04850KAOH AOH20160121171511101/21/16 17:15:31  5-MIN KAOH 212215Z AUTO 17003KT 10SM CLR M06/M10 A3031 620 71 -1700 180/03 RMK AO2 T10561100
04850KAOH AOH20160121172011101/21/16 17:20:31  5-MIN KAOH 212220Z AUTO 18003KT 10SM CLR M06/M10 A3031 620 71 -1700 180/03 RMK AO2 T10561100
04850KAOH AOH20160121172511101/21/16 17:25:31  5-MIN KAOH 212225Z AUTO 17003KT 10SM CLR M06/M10 A3031 620 71 -1700 170/03 RMK AO2 T10561100
04850KAOH AOH20160121173011101/21/16 17:30:31  5-MIN KAOH 212230Z AUTO 16003KT 10SM CLR M06/M10 A3031 620 71 -1700 170/03 RMK AO2 T10561100
04850KAOH AOH20160121173511101/21/16 17:35:31  5-MIN KAOH 212235Z AUTO 00000KT 10SM CLR M06/M10 A3031 620 71 -1700 000/00 RMK AO2 T10561100
04850KAOH AOH20160121174011101/21/16 17:40:31  5-MIN KAOH 212240Z AUTO 00000KT 10SM CLR M06/M10 A3031 620 74 -1700 000/00 RMK AO2 T10611100
04850KAOH AOH20160121174511101/21/16 17:45:31  5-MIN KAOH 212245Z AUTO 00000KT 10SM CLR M06/M10 A3031 620 74 -1700 000/00 RMK AO2 T10611100
04850KAOH AOH20160121175011801/21/16 17:50:31  5-MIN KAOH 212250Z AUTO 00000KT 10SM CLR M06/M10 A3031 620 74 -1800 000/00 RMK AO2 SLP283 T10611100
04850KAOH AOH20160121175511101/21/16 17:55:31  5-MIN KAOH 212255Z AUTO 04003KT 10SM CLR M06/M10 A3030 620 74 -1700 050/03 RMK AO2 T10611100
04850KAOH AOH20160121180011101/21/16 18:00:31  5-MIN KAOH 212300Z AUTO 05003KT 10SM CLR M07/M10 A3031 620 77 -1800 060/03 RMK AO2 T10671100
04850KAOH AOH20160121180511101/21/16 18:05:31  5-MIN KAOH 212305Z AUTO 07003KT 10SM CLR M07/M10 A3031 620 77 -1800 080/03 RMK AO2 T10671100
04850KAOH AOH20160121181011101/21/16 18:10:31  5-MIN KAOH 212310Z AUTO 08003KT 10SM CLR M07/M10 A3031 620 77 -1800 080/03 RMK AO2 T10671100
04850KAOH AOH20160121181511101/21/16 18:15:31  5-MIN KAOH 212315Z AUTO 08003KT 10SM CLR M07/M10 A3030 630 77 -1800 090/03 RMK AO2 T10671100
04850KAOH AOH20160121182011001/21/16 18:20:31  5-MIN KAOH 212320Z AUTO 08004KT 9SM CLR M08/M11 A3029 630 80 -2000 090/04 RMK AO2 T10781106
04850KAOH AOH20160121182511001/21/16 18:25:31  5-MIN KAOH 212325Z AUTO 07004KT 9SM CLR M08/M11 A3029 640 84 -2000 080/04 RMK AO2 T10831106
04850KAOH AOH20160121183011001/21/16 18:30:31  5-MIN KAOH 212330Z AUTO 07004KT 9SM CLR M08/M11 A3028 640 80 -1900 080/04 RMK AO2 T10781106
04850KAOH AOH20160121183511701/21/16 18:35:31  5-MIN KAOH 212335Z AUTO 07005KT 9SM CLR M08/M10 A3028 650 84 -1900 070/05 RMK AO2 PRESFR T10781100
04850KAOH AOH20160121184011001/21/16 18:40:31  5-MIN KAOH 212340Z AUTO 07004KT 9SM CLR M08/M10 A3028 650 84 -1900 070/04 RMK AO2 T10781100
04850KAOH AOH20160121184511101/21/16 18:45:31  5-MIN KAOH 212345Z AUTO 07004KT 10SM CLR M07/M10 A3028 640 81 -1900 070/04 RMK AO2 T10721100
04850KAOH AOH20160121185013601/21/16 18:50:31  5-MIN KAOH 212350Z AUTO 06004KT 10SM CLR M08/M10 A3029 640 84 -1900 060/04 RMK AO2 SLP277 T10781100 11044 21083 55009
04850KAOH AOH20160121185511101/21/16 18:55:31  5-MIN KAOH 212355Z AUTO 05005KT 10SM CLR M07/M11 A3028 650 77 -1900 050/05 RMK AO2 T10721106
04850KAOH AOH20160121190011101/21/16 19:00:31  5-MIN KAOH 220000Z AUTO 05004KT 10SM CLR M07/M11 A3028 640 77 -1900 060/04 RMK AO2 T10721106
04850KAOH AOH20160121190511101/21/16 19:05:31  5-MIN KAOH 220005Z AUTO 06003KT 10SM CLR M07/M11 A3029 640 77 -1900 070/03 RMK AO2 T10721106
04850KAOH AOH20160121191011101/21/16 19:10:31  5-MIN KAOH 220010Z AUTO 00000KT 10SM CLR M07/M11 A3030 630 77 -1900 000/00 RMK AO2 T10721106
04850KAOH AOH20160121191511101/21/16 19:15:31  5-MIN KAOH 220015Z AUTO 00000KT 10SM CLR M07/M11 A3030 630 77 -1900 000/00 RMK AO2 T10721106
04850KAOH AOH20160121192011001/21/16 19:20:31  5-MIN KAOH 220020Z AUTO 05003KT 9SM CLR M08/M11 A3029 640 80 -1900 060/03 RMK AO2 T10781106
04850KAOH AOH20160121192511001/21/16 19:25:31  5-MIN KAOH 220025Z AUTO 05005KT 9SM CLR M08/M11 A3029 640 84 -2000 060/05 RMK AO2 T10831106
04850KAOH AOH20160121193011001/21/16 19:30:31  5-MIN KAOH 220030Z AUTO 06004KT 9SM CLR M08/M11 A3029 640 80 -1900 060/04 RMK AO2 T10781106
04850KAOH AOH20160121193511001/21/16 19:35:31  5-MIN KAOH 220035Z AUTO 06004KT 9SM CLR M08/M10 A3029 640 84 -1900 070/04 RMK AO2 T10781100
04850KAOH AOH20160121194011001/21/16 19:40:31  5-MIN KAOH 220040Z AUTO 07004KT 9SM CLR M08/M10 A3029 640 84 -1900 080/04 RMK AO2 T10781100
04850KAOH AOH20160121194511001/21/16 19:45:31  5-MIN KAOH 220045Z AUTO 09004KT 9SM CLR M08/M10 A3029 640 84 -1900 090/04 RMK AO2 T10781100
04850KAOH AOH20160121195011701/21/16 19:50:31  5-MIN KAOH 220050Z AUTO 08003KT 9SM CLR M08/M11 A3029 630 84 -2000 090/03 RMK AO2 SLP277 T10831106
04850KAOH AOH20160121195511001/21/16 19:55:31  5-MIN KAOH 220055Z AUTO 09004KT 9SM CLR M08/M11 A3030 630 80 -2000 100/04 RMK AO2 T10781106
04850KAOH AOH20160121200011001/21/16 20:00:31  5-MIN KAOH 220100Z AUTO 10003KT 9SM CLR M08/M11 A3030 630 80 -2000 110/03 RMK AO2 T10831111
04850KAOH AOH20160121200511001/21/16 20:05:31  5-MIN KAOH 220105Z AUTO 11003KT 9SM CLR M08/M11 A3030 630 80 -2000 110/03 RMK AO2 T10781106
04850KAOH AOH20160121201011101/21/16 20:10:31  5-MIN KAOH 220110Z AUTO 10004KT 10SM CLR M07/M11 A3030 630 77 -1900 110/04 RMK AO2 T10721106
04850KAOH AOH20160121201511101/21/16 20:15:31  5-MIN KAOH 220115Z AUTO 10004KT 10SM CLR M08/M11 A3030 630 80 -2000 100/04 RMK AO2 T10781106
04850KAOH AOH20160121202011001/21/16 20:20:31  5-MIN KAOH 220120Z AUTO 00000KT 9SM CLR M09/M11 A3030 630 84 -2100 000/00 RMK AO2 T10891111
04850KAOH AOH20160121202511001/21/16 20:25:31  5-MIN KAOH 220125Z AUTO 10005KT 9SM CLR M08/M11 A3030 630 80 -2000 100/05 RMK AO2 T10831111
04850KAOH AOH20160121203011001/21/16 20:30:31  5-MIN KAOH 220130Z AUTO 09005KT 9SM CLR M09/M11 A3029 640 84 -2100 100/05 RMK AO2 T10891111
04850KAOH AOH20160121203511001/21/16 20:35:31  5-MIN KAOH 220135Z AUTO 09005KT 8SM CLR M09/M12 A3029 640 84 -2200 090/05 RMK AO2 T10941117
04850KAOH AOH20160121204011001/21/16 20:40:31  5-MIN KAOH 220140Z AUTO 08005KT 7SM CLR M09/M11 A3029 640 88 -2200 080/05 RMK AO2 T10941111
04850KAOH AOH20160121204511001/21/16 20:45:31  5-MIN KAOH 220145Z AUTO 10003KT 7SM CLR M08/M11 A3030 630 84 -2000 100/03 RMK AO2 T10831106
04850KAOH AOH20160121205011701/21/16 20:50:31  5-MIN KAOH 220150Z AUTO 00000KT 7SM CLR M09/M11 A3031 620 84 -2100 000/00 RMK AO2 SLP282 T10891111
04850KAOH AOH20160121205511001/21/16 20:55:31  5-MIN KAOH 220155Z AUTO 11003KT 7SM CLR M09/M11 A3031 620 84 -2100 120/03 RMK AO2 T10891111
04850KAOH AOH20160121210011001/21/16 21:00:31  5-MIN KAOH 220200Z AUTO 12004KT 8SM CLR M08/M11 A3031 620 80 -2000 130/04 RMK AO2 T10831111
04850KAOH AOH20160121210511001/21/16 21:05:31  5-MIN KAOH 220205Z AUTO 13003KT 7SM CLR M08/M11 A3031 620 84 -2000 140/03 RMK AO2 T10831106
04850KAOH AOH20160121211011001/21/16 21:10:31  5-MIN KAOH 220210Z AUTO 13003KT 7SM CLR M08/M11 A3031 620 84 -2000 130/03 RMK AO2 T10831106
04850KAOH AOH20160121211511001/21/16 21:15:31  5-MIN KAOH 220215Z AUTO 11004KT 7SM CLR M08/M11 A3030 630 84 -2000 120/04 RMK AO2 T10831106
04850KAOH AOH20160121212011701/21/16 21:20:31  5-MIN KAOH 220220Z AUTO 11003KT 7SM CLR M08/M11 A3029 640 80 -1900 110/03 RMK AO2 PRESFR T10781106
04850KAOH AOH20160121212511001/21/16 21:25:31  5-MIN KAOH 220225Z AUTO 09003KT 7SM CLR M09/M12 A3029 640 84 -2200 090/03 RMK AO2 T10941117
04850KAOH AOH20160121213011001/21/16 21:30:31  5-MIN KAOH 220230Z AUTO 10004KT 7SM CLR M09/M12 A3029 640 84 -2200 100/04 RMK AO2 T10941117
04850KAOH AOH20160121213511301/21/16 21:35:31  5-MIN KAOH 220235Z AUTO 10004KT 6SM BR CLR M09/M12 A3029 640 84 -2200 100/04 RMK AO2 T10941117
04850KAOH AOH20160121214011301/21/16 21:40:31  5-MIN KAOH 220240Z AUTO 09003KT 6SM BR CLR M09/M11 A3029 640 84 -2100 100/03 RMK AO2 T10891111
04850KAOH AOH20160121214511301/21/16 21:45:31  5-MIN KAOH 220245Z AUTO 09003KT 6SM BR CLR M09/M11 A3029 640 88 -2200 100/03 RMK AO2 T10941111
04850KAOH AOH20160121215012601/21/16 21:50:31  5-MIN KAOH 220250Z AUTO 00000KT 6SM BR CLR M09/M11 A3030 630 84 -2100 000/00 RMK AO2 SLP278 T10891111 58007
04850KAOH AOH20160121215511301/21/16 21:55:31  5-MIN KAOH 220255Z AUTO 00000KT 6SM BR CLR M11/M12 A3030 630 92 -2300 000/00 RMK AO2 T11061117
04850KAOH AOH20160121220011301/21/16 22:00:31  5-MIN KAOH 220300Z AUTO 00000KT 6SM BR CLR M10/M12 A3030 630 88 -2300 000/00 RMK AO2 T11001117
04850KAOH AOH20160121220511301/21/16 22:05:31  5-MIN KAOH 220305Z AUTO 00000KT 6SM BR CLR M10/M12 A3030 620 88 -2300 000/00 RMK AO2 T11001117
04850KAOH AOH20160121221011301/21/16 22:10:31  5-MIN KAOH 220310Z AUTO 00000KT 6SM BR CLR M11/M12 A3030 630 88 -2300 000/00 RMK AO2 T11061122
04850KAOH AOH20160121221511301/21/16 22:15:31  5-MIN KAOH 220315Z AUTO 02003KT 6SM BR CLR M11/M12 A3029 630 88 -2300 030/03 RMK AO2 T11061122
04850KAOH AOH20160121222011301/21/16 22:20:31  5-MIN KAOH 220320Z AUTO 04004KT 6SM BR CLR M11/M12 A3029 640 88 -2300 040/04 RMK AO2 T11061122
04850KAOH AOH20160121222511301/21/16 22:25:31  5-MIN KAOH 220325Z AUTO 03004KT 5SM BR CLR M10/M12 A3029 630 88 -2200 030/04 RMK AO2 T11001117
04850KAOH AOH20160121223011301/21/16 22:30:31  5-MIN KAOH 220330Z AUTO 03004KT 5SM BR CLR M11/M12 A3029 640 88 -2300 040/04 RMK AO2 T11061122
04850KAOH AOH20160121223511301/21/16 22:35:31  5-MIN KAOH 220335Z AUTO 02003KT 5SM BR CLR M10/M12 A3029 630 88 -2200 030/03 RMK AO2 T11001117
04850KAOH AOH20160121224011301/21/16 22:40:31  5-MIN KAOH 220340Z AUTO 02003KT 5SM BR CLR M10/M12 A3029 640 88 -2200 030/03 RMK AO2 T11001117
04850KAOH AOH20160121224511301/21/16 22:45:31  5-MIN KAOH 220345Z AUTO 03003KT 5SM BR CLR M10/M12 A3029 640 88 -2200 040/03 RMK AO2 T11001117
04850KAOH AOH20160121225012001/21/16 22:50:31  5-MIN KAOH 220350Z AUTO 04003KT 5SM BR CLR M10/M12 A3029 640 88 -2200 050/03 RMK AO2 SLP275 T11001117
04850KAOH AOH20160121225511301/21/16 22:55:31  5-MIN KAOH 220355Z AUTO 00000KT 5SM BR CLR M10/M12 A3029 640 84 -2200 000/00 RMK AO2 T11001122
04850KAOH AOH20160121230011301/21/16 23:00:31  5-MIN KAOH 220400Z AUTO 00000KT 6SM BR CLR M11/M12 A3029 640 88 -2300 000/00 RMK AO2 T11061122
04850KAOH AOH20160121230511301/21/16 23:05:31  5-MIN KAOH 220405Z AUTO 04004KT 6SM BR CLR M10/M12 A3028 640 88 -2200 050/04 RMK AO2 T11001117
04850KAOH AOH20160121231011301/21/16 23:10:31  5-MIN KAOH 220410Z AUTO 03004KT 5SM BR CLR M11/M12 A3028 640 88 -2300 030/04 RMK AO2 T11061122
04850KAOH AOH20160121231511301/21/16 23:15:31  5-MIN KAOH 220415Z AUTO 04004KT 5SM BR CLR M11/M12 A3028 650 88 -2300 040/04 RMK AO2 T11061122
04850KAOH AOH20160121232011301/21/16 23:20:31  5-MIN KAOH 220420Z AUTO 04003KT 6SM BR CLR M10/M12 A3028 650 88 -2200 050/03 RMK AO2 T11001117
04850KAOH AOH20160121232511301/21/16 23:25:31  5-MIN KAOH 220425Z AUTO 05004KT 6SM BR CLR M10/M12 A3028 650 88 -2200 050/04 RMK AO2 T11001117
04850KAOH AOH20160121233011301/21/16 23:30:31  5-MIN KAOH 220430Z AUTO 05004KT 5SM BR CLR M10/M12 A3027 650 88 -2200 060/04 RMK AO2 T11001117
04850KAOH AOH20160121233511301/21/16 23:35:31  5-MIN KAOH 220435Z AUTO 06003KT 5SM BR CLR M10/M12 A3028 650 88 -2200 060/03 RMK AO2 T11001117
04850KAOH AOH20160121234011301/21/16 23:40:31  5-MIN KAOH 220440Z AUTO 06003KT 5SM BR CLR M09/M12 A3028 650 84 -2200 060/03 RMK AO2 T10941117
04850KAOH AOH20160121234511301/21/16 23:45:31  5-MIN KAOH 220445Z AUTO 06003KT 5SM BR CLR M10/M12 A3028 650 88 -2200 060/03 RMK AO2 T11001117
04850KAOH AOH20160121235013001/21/16 23:50:31  5-MIN KAOH 220450Z AUTO 00000KT 5SM BR CLR M10/M12 A3028 650 88 -2200 000/00 RMK AO2 SLP271 T11001117 410441161
04850KAOH AOH20160121235511301/21/16 23:55:31  5-MIN KAOH 220455Z AUTO 07004KT 5SM BR CLR M09/M12 A3027 660 84 -2100 080/04 RMK AO2 T10941117
04850KAOH AOH20160122000011301/22/16 00:00:31  5-MIN KAOH 220500Z AUTO 07004KT 5SM BR CLR M10/M12 A3027 660 88 -2200 070/04 RMK AO2 T11001117
04850KAOH AOH20160122000511301/22/16 00:05:31  5-MIN KAOH 220505Z AUTO 07003KT 5SM BR CLR M10/M12 A3028 650 88 -2200 070/03 RMK AO2 T11001117
04850KAOH AOH20160122001011301/22/16 00:10:31  5-MIN KAOH 220510Z AUTO 07003KT 5SM BR CLR M09/M12 A3028 650 84 -2200 080/03 RMK AO2 T10941117
04850KAOH AOH20160122001511301/22/16 00:15:31  5-MIN KAOH 220515Z AUTO 05003KT 5SM BR CLR M09/M11 A3028 650 88 -2100 060/03 RMK AO2 T10941111
04850KAOH AOH20160122002011301/22/16 00:20:31  5-MIN KAOH 220520Z AUTO 06003KT 5SM BR CLR M09/M11 A3027 660 88 -2100 060/03 RMK AO2 T10941111
04850KAOH AOH20160122002511301/22/16 00:25:31  5-MIN KAOH 220525Z AUTO 05003KT 5SM BR CLR M09/M11 A3027 660 88 -2100 060/03 RMK AO2 T10941111
04850KAOH AOH20160122003011301/22/16 00:30:31  5-MIN KAOH 220530Z AUTO 05004KT 5SM BR CLR M09/M11 A3027 660 88 -2100 060/04 RMK AO2 T10941111
04850KAOH AOH20160122003511301/22/16 00:35:31  5-MIN KAOH 220535Z AUTO 04004KT 5SM BR CLR M10/M11 A3026 660 92 -2200 050/04 RMK AO2 T11001111
04850KAOH AOH20160122004011301/22/16 00:40:31  5-MIN KAOH 220540Z AUTO 04004KT 5SM BR CLR M09/M11 A3026 660 88 -2100 050/04 RMK AO2 T10941111
04850KAOH AOH20160122004511301/22/16 00:45:31  5-MIN KAOH 220545Z AUTO 05004KT 5SM BR CLR M09/M11 A3027 660 88 -2100 060/04 RMK AO2 T10941111
04850KAOH AOH20160122005013801/22/16 00:50:31  5-MIN KAOH 220550Z AUTO 05004KT 5SM BR CLR M09/M11 A3026 660 88 -2100 060/04 RMK AO2 SLP264 T10941111 11072 21106 50005
04850KAOH AOH20160122005511301/22/16 00:55:31  5-MIN KAOH 220555Z AUTO 05004KT 5SM BR CLR M09/M11 A3026 660 88 -2100 060/04 RMK AO2 T10941111
04850KAOH AOH20160122010011301/22/16 01:00:31  5-MIN KAOH 220600Z AUTO 04004KT 5SM BR CLR M10/M12 A3026 660 88 -2200 050/04 RMK AO2 T11001117
04850KAOH AOH20160122010511301/22/16 01:05:31  5-MIN KAOH 220605Z AUTO 06004KT 5SM BR CLR M10/M12 A3026 670 88 -2200 060/04 RMK AO2 T11001117
04850KAOH AOH20160122011011301/22/16 01:10:31  5-MIN KAOH 220610Z AUTO 05004KT 5SM BR CLR M10/M12 A3025 670 88 -2200 060/04 RMK AO2 T11001117
04850KAOH AOH20160122011511301/22/16 01:15:31  5-MIN KAOH 220615Z AUTO 05004KT 5SM BR CLR M10/M12 A3025 670 88 -2200 060/04 RMK AO2 T11001117
04850KAOH AOH20160122012011301/22/16 01:20:31  5-MIN KAOH 220620Z AUTO 05005KT 5SM BR CLR M09/M11 A3024 680 88 -2100 060/05 RMK AO2 T10941111
04850KAOH AOH20160122012511301/22/16 01:25:31  5-MIN KAOH 220625Z AUTO 05005KT 5SM BR CLR M09/M11 A3024 690 88 -2100 050/05 RMK AO2 T10941111
04850KAOH AOH20160122013011301/22/16 01:30:31  5-MIN KAOH 220630Z AUTO 05005KT 5SM BR CLR M09/M11 A3023 690 88 -2100 050/05 RMK AO2 T10941111
04850KAOH AOH20160122013511301/22/16 01:35:31  5-MIN KAOH 220635Z AUTO 05005KT 6SM BR CLR M09/M11 A3023 690 84 -2000 050/05 RMK AO2 T10891111
04850KAOH AOH20160122014011301/22/16 01:40:31  5-MIN KAOH 220640Z AUTO 04006KT 6SM BR CLR M09/M11 A3023 690 88 -2000 050/06 RMK AO2 T10891106
04850KAOH AOH20160122014511301/22/16 01:45:31  5-MIN KAOH 220645Z AUTO 04006KT 6SM BR CLR M09/M11 A3023 700 88 -2000 050/06 RMK AO2 T10891106
04850KAOH AOH20160122015012001/22/16 01:50:31  5-MIN KAOH 220650Z AUTO 05006KT 6SM BR CLR M09/M11 A3023 700 88 -2000 060/06 RMK AO2 SLP251 T10891106
04850KAOH AOH20160122015511301/22/16 01:55:31  5-MIN KAOH 220655Z AUTO 05006KT 6SM BR CLR M08/M11 A3023 700 84 -1900 060/06 RMK AO2 T10831106
04850KAOH AOH20160122020011301/22/16 02:00:31  5-MIN KAOH 220700Z AUTO 05006KT 6SM BR CLR M08/M11 A3022 700 84 -1900 060/06 RMK AO2 T10831106
04850KAOH AOH20160122020511301/22/16 02:05:31  5-MIN KAOH 220705Z AUTO 04006KT 6SM BR CLR M08/M11 A3022 700 84 -1900 050/06 RMK AO2 T10831106
04850KAOH AOH20160122021011301/22/16 02:10:31  5-MIN KAOH 220710Z AUTO 05005KT 6SM BR CLR M08/M11 A3022 700 84 -1900 050/05 RMK AO2 T10831106
04850KAOH AOH20160122021511301/22/16 02:15:31  5-MIN KAOH 220715Z AUTO 05006KT 6SM BR CLR M08/M11 A3022 700 84 -1900 050/06 RMK AO2 T10831106
04850KAOH AOH20160122022011001/22/16 02:20:31  5-MIN KAOH 220720Z AUTO 05006KT 7SM CLR M08/M11 A3022 700 84 -1900 050/06 RMK AO2 T10831106
04850KAOH AOH20160122022511301/22/16 02:25:31  5-MIN KAOH 220725Z AUTO 05005KT 6SM BR CLR M08/M11 A3022 700 84 -1900 060/05 RMK AO2 T10831106
04850KAOH AOH20160122023011301/22/16 02:30:31  5-MIN KAOH 220730Z AUTO 06005KT 6SM BR CLR M08/M11 A3022 700 84 -1900 060/05 RMK AO2 T10831106
04850KAOH AOH20160122023511301/22/16 02:35:31  5-MIN KAOH 220735Z AUTO 06006KT 6SM BR CLR M08/M11 A3022 710 84 -1900 070/06 RMK AO2 T10831106
04850KAOH AOH20160122024011301/22/16 02:40:31  5-MIN KAOH 220740Z AUTO 07004KT 6SM BR CLR M08/M11 A3021 710 84 -1900 070/04 RMK AO2 T10831106
04850KAOH AOH20160122024511301/22/16 02:45:31  5-MIN KAOH 220745Z AUTO 07004KT 6SM BR CLR M08/M11 A3022 700 84 -1900 070/04 RMK AO2 T10831106
04850KAOH AOH20160122025012001/22/16 02:50:31  5-MIN KAOH 220750Z AUTO 06005KT 6SM BR CLR M08/M11 A3022 700 84 -1900 070/05 RMK AO2 SLP249 T10831106
04850KAOH AOH20160122025511301/22/16 02:55:31  5-MIN KAOH 220755Z AUTO 07006KT 6SM BR CLR M08/M11 A3022 700 84 -1900 070/06 RMK AO2 T10831106
04850KAOH AOH20160122030011301/22/16 03:00:31  5-MIN KAOH 220800Z AUTO 06005KT 6SM BR CLR M08/M10 A3022 700 88 -1900 070/05 RMK AO2 T10831100
04850KAOH AOH20160122030511001/22/16 03:05:31  5-MIN KAOH 220805Z AUTO 07005KT 7SM CLR M08/M10 A3022 700 88 -1900 080/05 RMK AO2 T10831100
04850KAOH AOH20160122031011001/22/16 03:10:31  5-MIN KAOH 220810Z AUTO 07005KT 7SM CLR M08/M10 A3022 700 88 -1900 080/05 RMK AO2 T10831100
04850KAOH AOH20160122031511001/22/16 03:15:31  5-MIN KAOH 220815Z AUTO 07005KT 7SM CLR M08/M10 A3022 700 88 -1900 070/05 RMK AO2 T10831100
04850KAOH AOH20160122032011001/22/16 03:20:31  5-MIN KAOH 220820Z AUTO 06005KT 7SM CLR M08/M10 A3022 700 88 -1900 070/05 RMK AO2 T10831100
04850KAOH AOH20160122032511001/22/16 03:25:31  5-MIN KAOH 220825Z AUTO 07005KT 7SM CLR M08/M10 A3023 700 88 -1900 070/05 RMK AO2 T10831100
04850KAOH AOH20160122033011001/22/16 03:30:31  5-MIN KAOH 220830Z AUTO 07005KT 7SM CLR M08/M10 A3022 700 88 -1900 070/05 RMK AO2 T10831100
04850KAOH AOH20160122033511001/22/16 03:35:31  5-MIN KAOH 220835Z AUTO 07007KT 7SM CLR M08/M10 A3021 710 84 -1900 070/07 RMK AO2 T10781100
04850KAOH AOH20160122034011001/22/16 03:40:31  5-MIN KAOH 220840Z AUTO 07007KT 7SM CLR M08/M10 A3021 710 84 -1900 070/07 RMK AO2 T10781100
04850KAOH AOH20160122034511001/22/16 03:45:31  5-MIN KAOH 220845Z AUTO 07008KT 7SM CLR M08/M10 A3021 710 84 -1900 070/08 RMK AO2 T10781100
04850KAOH AOH20160122035012301/22/16 03:50:31  5-MIN KAOH 220850Z AUTO 07006KT 8SM CLR M08/M10 A3021 710 84 -1900 070/06 RMK AO2 SLP246 T10781100 58011
04850KAOH AOH20160122035511001/22/16 03:55:31  5-MIN KAOH 220855Z AUTO 07008KT 8SM CLR M08/M10 A3021 710 84 -1900 080/08 RMK AO2 T10781100
04850KAOH AOH20160122040011001/22/16 04:00:31  5-MIN KAOH 220900Z AUTO 08008KT 8SM CLR M08/M10 A3021 710 84 -1800 080/08 RMK AO2 T10781100
04850KAOH AOH20160122040511001/22/16 04:05:31  5-MIN KAOH 220905Z AUTO 07008KT 8SM CLR M07/M10 A3021 710 81 -1800 080/08 RMK AO2 T10721100
04850KAOH AOH20160122041011001/22/16 04:10:31  5-MIN KAOH 220910Z AUTO 08007KT 8SM CLR M07/M10 A3021 710 81 -1800 080/07 RMK AO2 T10721100
04850KAOH AOH20160122041511001/22/16 04:15:31  5-MIN KAOH 220915Z AUTO 08007KT 8SM CLR M07/M10 A3021 710 81 -1800 080/07 RMK AO2 T10721100
04850KAOH AOH20160122042011001/22/16 04:20:31  5-MIN KAOH 220920Z AUTO 07007KT 8SM CLR M07/M10 A3020 720 81 -1800 080/07 RMK AO2 T10721100
04850KAOH AOH20160122042511001/22/16 04:25:31  5-MIN KAOH 220925Z AUTO 07007KT 8SM CLR M07/M10 A3020 720 81 -1800 080/07 RMK AO2 T10721100
04850KAOH AOH20160122043011001/22/16 04:30:31  5-MIN KAOH 220930Z AUTO 07007KT 8SM CLR M07/M10 A3020 720 81 -1800 080/07 RMK AO2 T10721100
04850KAOH AOH20160122043511001/22/16 04:35:31  5-MIN KAOH 220935Z AUTO 07006KT 8SM CLR M07/M10 A3020 720 81 -1800 080/06 RMK AO2 T10721100
04850KAOH AOH20160122044011001/22/16 04:40:31  5-MIN KAOH 220940Z AUTO 08007KT 9SM CLR M07/M10 A3021 710 81 -1800 090/07 RMK AO2 T10721100
04850KAOH AOH20160122044511001/22/16 04:45:31  5-MIN KAOH 220945Z AUTO 08006KT 8SM CLR M07/M09 A3021 710 84 -1800 090/06 RMK AO2 T10721094
04850KAOH AOH20160122045011701/22/16 04:50:31  5-MIN KAOH 220950Z AUTO 08007KT 8SM CLR M07/M09 A3021 710 81 -1700 090/07 RMK AO2 SLP244 T10671094
04850KAOH AOH20160122045511001/22/16 04:55:31  5-MIN KAOH 220955Z AUTO 08008KT 9SM CLR M07/M09 A3021 710 81 -1700 090/08 RMK AO2 T10671094
04850KAOH AOH20160122050011101/22/16 05:00:31  5-MIN KAOH 221000Z AUTO 08011KT 10SM CLR M07/M09 A3020 720 81 -1700 090/11 RMK AO2 T10671094
04850KAOH AOH20160122050511001/22/16 05:05:31  5-MIN KAOH 221005Z AUTO 08009KT 9SM CLR M07/M09 A3020 720 81 -1700 080/09 RMK AO2 T10671094
04850KAOH AOH20160122051011001/22/16 05:10:31  5-MIN KAOH 221010Z AUTO 07008KT 9SM CLR M07/M09 A3020 720 81 -1700 080/08 RMK AO2 T10671094
04850KAOH AOH20160122051511001/22/16 05:15:31  5-MIN KAOH 221015Z AUTO 07007KT 9SM CLR M07/M09 A3020 720 81 -1700 080/07 RMK AO2 T10671094
04850KAOH AOH20160122052011001/22/16 05:20:31  5-MIN KAOH 221020Z AUTO 07008KT 9SM CLR M07/M09 A3020 720 81 -1700 080/08 RMK AO2 T10671094
04850KAOH AOH20160122052511001/22/16 05:25:31  5-MIN KAOH 221025Z AUTO 07008KT 9SM CLR M07/M09 A3020 720 81 -1700 070/08 RMK AO2 T10671094
04850KAOH AOH20160122053011001/22/16 05:30:31  5-MIN KAOH 221030Z AUTO 06009KT 9SM CLR M07/M09 A3020 720 81 -1700 070/09 RMK AO2 T10671094
04850KAOH AOH20160122053511001/22/16 05:35:31  5-MIN KAOH 221035Z AUTO 06009KT 9SM CLR M07/M09 A3019 730 81 -1700 070/09 RMK AO2 T10671094
04850KAOH AOH20160122054011001/22/16 05:40:31  5-MIN KAOH 221040Z AUTO 06008KT 9SM CLR M07/M09 A3019 730 81 -1700 070/08 RMK AO2 T10671094
04850KAOH AOH20160122054511001/22/16 05:45:31  5-MIN KAOH 221045Z AUTO 06008KT 8SM CLR M07/M09 A3019 730 81 -1700 070/08 RMK AO2 T10671094
04850KAOH AOH20160122055011701/22/16 05:50:31  5-MIN KAOH 221050Z AUTO 06008KT 8SM CLR M07/M09 A3019 730 81 -1700 070/08 RMK AO2 SLP238 T10671094
04850KAOH AOH20160122055511001/22/16 05:55:31  5-MIN KAOH 221055Z AUTO 06009KT 8SM CLR M07/M09 A3019 730 81 -1700 070/09 RMK AO2 T10671094
04850KAOH AOH20160122060011001/22/16 06:00:31  5-MIN KAOH 221100Z AUTO 06008KT 8SM CLR M07/M09 A3019 730 81 -1700 070/08 RMK AO2 T10671094
04850KAOH AOH20160122060511001/22/16 06:05:31  5-MIN KAOH 221105Z AUTO 06009KT 8SM CLR M07/M09 A3019 730 81 -1700 070/09 RMK AO2 T10671094
04850KAOH AOH20160122061011001/22/16 06:10:31  5-MIN KAOH 221110Z AUTO 06009KT 8SM CLR M07/M09 A3018 740 81 -1700 070/09 RMK AO2 T10671094
04850KAOH AOH20160122061511001/22/16 06:15:31  5-MIN KAOH 221115Z AUTO 06009KT 8SM CLR M07/M09 A3019 730 81 -1700 070/09 RMK AO2 T10671094
04850KAOH AOH20160122062011001/22/16 06:20:31  5-MIN KAOH 221120Z AUTO 06009KT 8SM CLR M07/M09 A3019 730 81 -1700 070/09 RMK AO2 T10671094
04850KAOH AOH20160122062511001/22/16 06:25:31  5-MIN KAOH 221125Z AUTO 07010KT 8SM CLR M07/M09 A3019 730 81 -1700 080/10 RMK AO2 T10671094
04850KAOH AOH20160122063011001/22/16 06:30:31  5-MIN KAOH 221130Z AUTO 06008KT 7SM CLR M07/M09 A3018 740 81 -1700 070/08 RMK AO2 T10671094
04850KAOH AOH20160122063511001/22/16 06:35:31  5-MIN KAOH 221135Z AUTO 06009KT 7SM CLR M07/M09 A3019 730 81 -1700 070/09 RMK AO2 T10671094
04850KAOH AOH20160122064011001/22/16 06:40:31  5-MIN KAOH 221140Z AUTO 06008KT 7SM CLR M07/M09 A3019 730 81 -1700 060/08 RMK AO2 T10671094
04850KAOH AOH20160122064511001/22/16 06:45:31  5-MIN KAOH 221145Z AUTO 06008KT 7SM CLR M07/M09 A3019 730 81 -1700 060/08 RMK AO2 T10671094
04850KAOH AOH20160122065013501/22/16 06:50:31  5-MIN KAOH 221150Z AUTO 06008KT 7SM CLR M07/M09 A3019 730 81 -1700 060/08 RMK AO2 SLP238 T10671094 11067 21100 56017
04850KAOH AOH20160122065511001/22/16 06:55:31  5-MIN KAOH 221155Z AUTO 06008KT 8SM CLR M07/M09 A3018 740 81 -1700 070/08 RMK AO2 T10671094
04850KAOH AOH20160122070011001/22/16 07:00:31  5-MIN KAOH 221200Z AUTO 05008KT 8SM CLR M07/M09 A3018 740 81 -1700 060/08 RMK AO2 T10671094
04850KAOH AOH20160122070511001/22/16 07:05:31  5-MIN KAOH 221205Z AUTO 05008KT 8SM CLR M07/M09 A3018 740 81 -1700 060/08 RMK AO2 T10671094
04850KAOH AOH20160122071011001/22/16 07:10:31  5-MIN KAOH 221210Z AUTO 05008KT 8SM CLR M07/M09 A3018 730 81 -1700 060/08 RMK AO2 T10671094
04850KAOH AOH20160122071511001/22/16 07:15:31  5-MIN KAOH 221215Z AUTO 05008KT 8SM CLR M07/M09 A3019 730 81 -1700 060/08 RMK AO2 T10671094
04850KAOH AOH20160122072011001/22/16 07:20:31  5-MIN KAOH 221220Z AUTO 05007KT 8SM CLR M07/M09 A3018 730 81 -1700 050/07 RMK AO2 T10671094
04850KAOH AOH20160122072511001/22/16 07:25:31  5-MIN KAOH 221225Z AUTO 05009KT 8SM CLR M07/M09 A3019 730 81 -1700 060/09 RMK AO2 T10671094
04850KAOH AOH20160122073011001/22/16 07:30:31  5-MIN KAOH 221230Z AUTO 05008KT 8SM CLR M07/M09 A3019 730 81 -1700 060/08 RMK AO2 T10671094
04850KAOH AOH20160122073511001/22/16 07:35:31  5-MIN KAOH 221235Z AUTO 06008KT 8SM CLR M07/M09 A3019 730 81 -1700 070/08 RMK AO2 T10671094
04850KAOH AOH20160122074011001/22/16 07:40:31  5-MIN KAOH 221240Z AUTO 06009KT 8SM CLR M07/M09 A3020 720 84 -1700 070/09 RMK AO2 T10671089
04850KAOH AOH20160122074511001/22/16 07:45:31  5-MIN KAOH 221245Z AUTO 06007KT 8SM CLR M07/M09 A3020 720 84 -1700 070/07 RMK AO2 T10671089
04850KAOH AOH20160122075011701/22/16 07:50:31  5-MIN KAOH 221250Z AUTO 06007KT 8SM CLR M07/M09 A3020 720 84 -1700 070/07 RMK AO2 SLP241 T10671089
04850KAOH AOH20160122075511001/22/16 07:55:31  5-MIN KAOH 221255Z AUTO 06007KT 8SM CLR M06/M09 A3020 720 81 -1600 060/07 RMK AO2 T10611089
04850KAOH AOH20160122080011001/22/16 08:00:31  5-MIN KAOH 221300Z AUTO 06008KT 8SM CLR M06/M09 A3020 720 81 -1600 060/08 RMK AO2 T10611089
04850KAOH AOH20160122080511001/22/16 08:05:31  5-MIN KAOH 221305Z AUTO 05007KT 8SM CLR M06/M09 A3020 720 81 -1600 060/07 RMK AO2 T10611089
04850KAOH AOH20160122081011001/22/16 08:10:31  5-MIN KAOH 221310Z AUTO 05007KT 8SM CLR M06/M09 A3020 720 81 -1600 060/07 RMK AO2 T10611089
04850KAOH AOH20160122081511001/22/16 08:15:31  5-MIN KAOH 221315Z AUTO 05006KT 8SM CLR M06/M09 A3020 720 81 -1600 060/06 RMK AO2 T10611089
04850KAOH AOH20160122082011001/22/16 08:20:31  5-MIN KAOH 221320Z AUTO 05008KT 8SM CLR M06/M09 A3020 720 81 -1600 050/08 RMK AO2 T10611089
04850KAOH AOH20160122082511301/22/16 08:25:31  5-MIN KAOH 221325Z AUTO 05008KT 7SM FEW120 M06/M09 A3020 720 81 -1600 050/08 RMK AO2 T10611089
04850KAOH AOH20160122083011301/22/16 08:30:31  5-MIN KAOH 221330Z AUTO 05007KT 7SM FEW120 M06/M09 A3019 730 81 -1600 060/07 RMK AO2 T10611089
04850KAOH AOH20160122083511301/22/16 08:35:31  5-MIN KAOH 221335Z AUTO 05007KT 7SM SCT120 M06/M09 A3019 730 81 -1600 060/07 RMK AO2 T10611089
04850KAOH AOH20160122084011301/22/16 08:40:31  5-MIN KAOH 221340Z AUTO 05007KT 7SM SCT120 M06/M09 A3019 730 81 -1600 050/07 RMK AO2 T10611089
04850KAOH AOH20160122084511301/22/16 08:45:31  5-MIN KAOH 221345Z AUTO 05007KT 7SM SCT120 M06/M09 A3019 730 81 -1600 060/07 RMK AO2 T10611089
04850KAOH AOH20160122085012001/22/16 08:50:31  5-MIN KAOH 221350Z AUTO 05009KT 7SM SCT120 M06/M09 A3019 730 81 -1600 060/09 RMK AO2 SLP238 T10611089
04850KAOH AOH20160122085511301/22/16 08:55:31  5-MIN KAOH 221355Z AUTO 05009KT 7SM BKN120 M06/M09 A3019 730 81 -1600 060/09 RMK AO2 T10611089
04850KAOH AOH20160122090011301/22/16 09:00:31  5-MIN KAOH 221400Z AUTO 05008KT 7SM BKN120 M06/M09 A3018 740 77 -1500 060/08 RMK AO2 T10561089
04850KAOH AOH20160122090511301/22/16 09:05:31  5-MIN KAOH 221405Z AUTO 05009KT 7SM BKN120 M06/M09 A3018 740 77 -1500 060/09 RMK AO2 T10561089
04850KAOH AOH20160122091011301/22/16 09:10:31  5-MIN KAOH 221410Z AUTO 05010KT 8SM BKN120 M06/M08 A3018 740 81 -1500 060/10 RMK AO2 T10561083
04850KAOH AOH20160122091511301/22/16 09:15:31  5-MIN KAOH 221415Z AUTO 06009KT 8SM BKN120 M06/M09 A3018 740 77 -1500 060/09 RMK AO2 T10561089
04850KAOH AOH20160122092012001/22/16 09:20:31  5-MIN KAOH 221420Z AUTO 05010KT 8SM FEW030 BKN120 M06/M09 A3018 740 77 -1500 060/10 RMK AO2 T10561089
04850KAOH AOH20160122092512001/22/16 09:25:31  5-MIN KAOH 221425Z AUTO 05008KT 8SM SCT030 BKN120 M06/M08 A3017 750 81 -1500 060/08 RMK AO2 T10561083
04850KAOH AOH20160122093012001/22/16 09:30:31  5-MIN KAOH 221430Z AUTO 05010KT 8SM BKN028 OVC120 M06/M08 A3016 760 81 -1500 050/10 RMK AO2 T10561083
04850KAOH AOH20160122093512001/22/16 09:35:31  5-MIN KAOH 221435Z AUTO 05009KT 9SM BKN028 OVC120 M06/M08 A3016 760 81 -1500 060/09 RMK AO2 T10561083
04850KAOH AOH20160122094012001/22/16 09:40:31  5-MIN KAOH 221440Z AUTO 05008KT 9SM BKN028 BKN120 M06/M08 A3015 760 81 -1500 060/08 RMK AO2 T10561083
04850KAOH AOH20160122094511301/22/16 09:45:31  5-MIN KAOH 221445Z AUTO 05010KT 9SM BKN028 M06/M08 A3016 760 81 -1500 050/10 RMK AO2 T10561083
04850KAOH AOH20160122095012601/22/16 09:50:31  5-MIN KAOH 221450Z AUTO 05011KT 9SM OVC028 M06/M08 A3016 760 81 -1500 050/11 RMK AO2 SLP228 T10561083 58009
04850KAOH AOH20160122095511301/22/16 09:55:31  5-MIN KAOH 221455Z AUTO 04011KT 9SM OVC028 M05/M08 A3015 760 77 -1400 050/11 RMK AO2 T10501083
04850KAOH AOH20160122100011301/22/16 10:00:31  5-MIN KAOH 221500Z AUTO 05012KT 9SM OVC028 M05/M08 A3015 770 77 -1400 060/12 RMK AO2 T10501083
04850KAOH AOH20160122100511301/22/16 10:05:31  5-MIN KAOH 221505Z AUTO 06010KT 9SM OVC028 M05/M08 A3015 770 77 -1400 060/10 RMK AO2 T10501083
04850KAOH AOH20160122101011301/22/16 10:10:31  5-MIN KAOH 221510Z AUTO 05010KT 9SM OVC028 M05/M08 A3014 770 77 -1400 060/10 RMK AO2 T10501083
04850KAOH AOH20160122101511301/22/16 10:15:31  5-MIN KAOH 221515Z AUTO 05009KT 9SM OVC028 M05/M08 A3015 770 81 -1400 050/09 RMK AO2 T10501078
04850KAOH AOH20160122102011401/22/16 10:20:31  5-MIN KAOH 221520Z AUTO 05011KT 10SM OVC028 M05/M08 A3015 770 77 -1400 050/11 RMK AO2 T10501083
04850KAOH AOH20160122102512001/22/16 10:25:31  5-MIN KAOH 221525Z AUTO 05013G19KT 10SM BKN030 M05/M08 A3014 770 81 -1400 050/13G19 RMK AO2 T10501078
04850KAOH AOH20160122103012001/22/16 10:30:31  5-MIN KAOH 221530Z AUTO 04011G19KT 10SM BKN028 M05/M08 A3015 770 81 -1400 050/11G19 RMK AO2 T10501078
04850KAOH AOH20160122103511401/22/16 10:35:31  5-MIN KAOH 221535Z AUTO 05011KT 10SM BKN030 M05/M08 A3015 770 81 -1400 060/11 RMK AO2 T10501078
04850KAOH AOH20160122104011401/22/16 10:40:31  5-MIN KAOH 221540Z AUTO 05010KT 10SM BKN030 M05/M08 A3015 770 81 -1400 060/10 RMK AO2 T10501078
04850KAOH AOH20160122104511401/22/16 10:45:31  5-MIN KAOH 221545Z AUTO 06010KT 10SM BKN028 M05/M08 A3015 770 81 -1400 060/10 RMK AO2 T10501078
04850KAOH AOH20160122105011001/22/16 10:50:31  5-MIN KAOH 221550Z AUTO 05010KT 9SM BKN026 BKN031 M05/M08 A3015 770 81 -1400 060/10 RMK AO2
04850KAOH AOH20160122105512601/22/16 10:55:31  5-MIN KAOH 221555Z AUTO 05012G18KT 9SM BKN024 OVC031 M05/M08 A3015 760 81 -1400 050/12G18 RMK AO2 T10501078
04850KAOH AOH20160122110012001/22/16 11:00:31  5-MIN KAOH 221600Z AUTO 05011KT 9SM BKN026 OVC031 M05/M08 A3015 760 81 -1400 060/11 RMK AO2 T10501078
04850KAOH AOH20160122110511301/22/16 11:05:31  5-MIN KAOH 221605Z AUTO 06012KT 9SM OVC026 M05/M08 A3016 760 81 -1400 060/12 RMK AO2 T10501078
04850KAOH AOH20160122111011301/22/16 11:10:31  5-MIN KAOH 221610Z AUTO 06013KT 8SM OVC026 M04/M08 A3016 760 78 -1400 060/13 RMK AO2 T10441078
04850KAOH AOH20160122111511301/22/16 11:15:31  5-MIN KAOH 221615Z AUTO 05013KT 8SM OVC026 M04/M08 A3016 760 78 -1400 060/13 RMK AO2 T10441078
04850KAOH AOH20160122112011301/22/16 11:20:31  5-MIN KAOH 221620Z AUTO 05011KT 8SM OVC028 M04/M08 A3016 760 78 -1400 060/11 RMK AO2 T10441078
04850KAOH AOH20160122112511301/22/16 11:25:31  5-MIN KAOH 221625Z AUTO 05013KT 9SM OVC028 M04/M08 A3015 760 78 -1400 060/13 RMK AO2 T10441078
04850KAOH AOH20160122113011301/22/16 11:30:31  5-MIN KAOH 221630Z AUTO 05012KT 9SM OVC029 M04/M08 A3015 770 78 -1400 050/12 RMK AO2 T10441078
04850KAOH AOH20160122113511301/22/16 11:35:31  5-MIN KAOH 221635Z AUTO 05012KT 9SM OVC029 M04/M07 A3015 770 81 -1400 060/12 RMK AO2 T10441072
04850KAOH AOH20160122114011301/22/16 11:40:31  5-MIN KAOH 221640Z AUTO 05010KT 9SM BKN031 M04/M07 A3015 770 81 -1400 060/10 RMK AO2 T10441072
04850KAOH AOH20160122114511301/22/16 11:45:31  5-MIN KAOH 221645Z AUTO 05011KT 9SM BKN031 M04/M07 A3014 770 81 -1300 060/11 RMK AO2 T10441072
04850KAOH AOH20160122115012001/22/16 11:50:31  5-MIN KAOH 221650Z AUTO 06012KT 9SM BKN031 M04/M07 A3014 770 81 -1300 060/12 RMK AO2 SLP223 T10441072
04850KAOH AOH20160122115512001/22/16 11:55:31  5-MIN KAOH 221655Z AUTO 05012KT 9SM FEW018 SCT031 M04/M07 A3014 780 81 -1300 060/12 RMK AO2 T10441072
04850KAOH AOH20160122120012101/22/16 12:00:31  5-MIN KAOH 221700Z AUTO 05011KT 10SM FEW018 SCT031 M04/M07 A3014 780 78 -1300 060/11 RMK AO2 T10391072
04850KAOH AOH20160122120511401/22/16 12:05:31  5-MIN KAOH 221705Z AUTO 05012KT 10SM FEW031 M04/M07 A3014 780 78 -1300 060/12 RMK AO2 T10391072
04850KAOH AOH20160122121011101/22/16 12:10:31  5-MIN KAOH 221710Z AUTO 05012KT 10SM CLR M04/M07 A3013 780 78 -1300 060/12 RMK AO2 T10391072
04850KAOH AOH20160122121511401/22/16 12:15:31  5-MIN KAOH 221715Z AUTO 05013KT 10SM FEW030 M04/M07 A3013 780 78 -1300 060/13 RMK AO2 T10391072
04850KAOH AOH20160122122012101/22/16 12:20:31  5-MIN KAOH 221720Z AUTO 05008KT 10SM FEW017 SCT030 M04/M07 A3013 790 78 -1300 060/08 RMK AO2 T10391072
04850KAOH AOH20160122122512701/22/16 12:25:31  5-MIN KAOH 221725Z AUTO 06013G19KT 10SM FEW017 FEW029 M04/M07 A3012 790 78 -1300 060/13G19 RMK AO2 T10391072
04850KAOH AOH20160122123012001/22/16 12:30:31  5-MIN KAOH 221730Z AUTO 05012G19KT 10SM FEW029 M04/M07 A3012 790 78 -1300 050/12G19 RMK AO2 T10391072
04850KAOH AOH20160122123512001/22/16 12:35:31  5-MIN KAOH 221735Z AUTO 05012G17KT 10SM FEW029 M04/M07 A3012 790 78 -1200 060/12G17 RMK AO2 T10391072
04850KAOH AOH20160122124012101/22/16 12:40:31  5-MIN KAOH 221740Z AUTO 06011KT 10SM FEW016 FEW029 M03/M07 A3012 800 74 -1200 070/11 RMK AO2 T10331072
04850KAOH AOH20160122124511401/22/16 12:45:31  5-MIN KAOH 221745Z AUTO 05013KT 10SM FEW019 M03/M07 A3012 800 78 -1200 060/13 RMK AO2 T10331067
04850KAOH AOH20160122125014501/22/16 12:50:31  5-MIN KAOH 221750Z AUTO 05011G18KT 10SM FEW019 M03/M07 A3011 800 74 -1200 060/11G18 RMK AO2 SLP212 T10331072 11033 21067 58009
04850KAOH AOH20160122125512001/22/16 12:55:31  5-MIN KAOH 221755Z AUTO 06010G17KT 10SM FEW019 M03/M07 A3011 800 74 -1200 060/10G17 RMK AO2 T10331072
04850KAOH AOH20160122130011401/22/16 13:00:31  5-MIN KAOH 221800Z AUTO 04012KT 10SM FEW019 M03/M07 A3011 800 74 -1200 050/12 RMK AO2 T10331072
04850KAOH AOH20160122130511401/22/16 13:05:31  5-MIN KAOH 221805Z AUTO 05012KT 10SM FEW019 M03/M07 A3010 810 74 -1200 060/12 RMK AO2 T10331072
04850KAOH AOH20160122131011401/22/16 13:10:31  5-MIN KAOH 221810Z AUTO 06013KT 10SM FEW019 M03/M07 A3010 810 74 -1200 060/13 RMK AO2 T10331072
04850KAOH AOH20160122131512101/22/16 13:15:31  5-MIN KAOH 221815Z AUTO 06012KT 10SM FEW021 SCT120 M03/M07 A3009 820 74 -1100 070/12 RMK AO2 T10331072
04850KAOH AOH20160122132012101/22/16 13:20:31  5-MIN KAOH 221820Z AUTO 06012KT 10SM FEW021 SCT120 M03/M07 A3009 820 71 -1100 060/12 RMK AO2 T10281072
04850KAOH AOH20160122132512801/22/16 13:25:31  5-MIN KAOH 221825Z AUTO 06015KT 10SM FEW021 SCT120 M03/M07 A3008 830 71 -1100 060/15 RMK AO2 PRESFR T10281072
04850KAOH AOH20160122133012701/22/16 13:30:31  5-MIN KAOH 221830Z AUTO 05013G22KT 10SM FEW021 SCT120 M03/M07 A3008 830 74 -1100 060/13G22 RMK AO2 T10331072
04850KAOH AOH20160122133512701/22/16 13:35:31  5-MIN KAOH 221835Z AUTO 06016G22KT 10SM SCT021 SCT120 M03/M07 A3008 830 71 -1100 070/16G22 RMK AO2 T10281072
04850KAOH AOH20160122134012101/22/16 13:40:31  5-MIN KAOH 221840Z AUTO 05016KT 10SM SCT021 SCT120 M03/M07 A3008 830 71 -1100 060/16 RMK AO2 T10281072
04850KAOH AOH20160122134512001/22/16 13:45:31  5-MIN KAOH 221845Z AUTO 06016G23KT 10SM SCT023 M03/M08 A3007 840 68 -1100 070/16G23 RMK AO2 T10281078
04850KAOH AOH20160122135012701/22/16 13:50:31  5-MIN KAOH 221850Z AUTO 05015G23KT 10SM SCT023 M03/M07 A3007 840 71 -1100 060/15G23 RMK AO2 SLP198 T10281072
04850KAOH AOH20160122135512001/22/16 13:55:31  5-MIN KAOH 221855Z AUTO 06013G23KT 10SM SCT023 M03/M07 A3007 840 71 -1000 060/13G23 RMK AO2 T10281072
04850KAOH AOH20160122140012001/22/16 14:00:31  5-MIN KAOH 221900Z AUTO 06014G21KT 10SM SCT023 M03/M07 A3007 840 71 -1000 060/14G21 RMK AO2 T10281072
04850KAOH AOH20160122140512701/22/16 14:05:31  5-MIN KAOH 221905Z AUTO 05014G21KT 10SM SCT023 BKN031 M03/M07 A3007 840 71 -1000 060/14G21 RMK AO2 T10281072
04850KAOH AOH20160122141012701/22/16 14:10:31  5-MIN KAOH 221910Z AUTO 06015G20KT 10SM BKN025 BKN031 M03/M07 A3006 840 71 -1000 070/15G20 RMK AO2 T10281072
04850KAOH AOH20160122141512101/22/16 14:15:31  5-MIN KAOH 221915Z AUTO 06017KT 10SM BKN025 BKN031 M03/M07 A3006 850 71 -1000 060/17 RMK AO2 T10281072
04850KAOH AOH20160122142012101/22/16 14:20:31  5-MIN KAOH 221920Z AUTO 06015KT 10SM BKN025 BKN031 M03/M07 A3006 850 71 -1000 060/15 RMK AO2 T10281072
04850KAOH AOH20160122142512701/22/16 14:25:31  5-MIN KAOH 221925Z AUTO 06016G23KT 10SM BKN024 OVC031 M03/M07 A3006 850 71 -1000 060/16G23 RMK AO2 T10281072
04850KAOH AOH20160122143012601/22/16 14:30:31  5-MIN KAOH 221930Z AUTO 05014G23KT 8SM BKN024 OVC032 M03/M07 A3006 850 74 -1100 060/14G23 RMK AO2 T10331072
04850KAOH AOH20160122143512601/22/16 14:35:31  5-MIN KAOH 221935Z AUTO 03016G22KT 8SM BKN024 OVC030 M03/M07 A3005 860 71 -1000 040/16G22 RMK AO2 T10281072
04850KAOH AOH20160122144015601/22/16 14:40:31  5-MIN KAOH 221940Z AUTO 04016G24KT 7SM UP FEW016 BKN023 OVC030 M03/M07 A3005 860 71 -1000 050/16G24 RMK AO2 UPB40SNB38E40 P0000 T10281072
04850KAOH AOH20160122144514901/22/16 14:45:31  5-MIN KAOH 221945Z AUTO 04014G24KT 7SM UP BKN023 BKN033 M03/M07 A3004 860 78 -1100 040/14G24 RMK AO2 UPB40SNB38E40 P0000 T10331067
04850KAOH AOH20160122145017001/22/16 14:50:31  5-MIN KAOH 221950Z AUTO 04015G21KT 10SM SCT020 BKN025 BKN035 M03/M07 A3004 860 75 -1000 040/15G21 RMK AO2 UPB40E47SNB38E40B47E48 SLP188 P0000 T10281067
04850KAOH AOH20160122145512701/22/16 14:55:31  5-MIN KAOH 221955Z AUTO 04017G21KT 10SM BKN020 BKN035 M03/M07 A3004 860 75 -1000 040/17G21 RMK AO2 T10281067
04850KAOH AOH20160122150013401/22/16 15:00:31  5-MIN KAOH 222000Z AUTO 03015G21KT 10SM FEW017 SCT022 BKN028 M03/M07 A3004 870 71 -1000 040/15G21 RMK AO2 T10281072
04850KAOH AOH20160122150514501/22/16 15:05:31  5-MIN KAOH 222005Z AUTO 03019G27KT 10SM SCT020 SCT028 M03/M08 A3004 870 68 -1000 040/19G27 RMK AO2 PK WND 02027/2005 T10281078
04850KAOH AOH20160122151014501/22/16 15:10:31  5-MIN KAOH 222010Z AUTO 05015G27KT 10SM FEW020 SCT028 M03/M09 A3005 860 63 -1000 050/15G27 RMK AO2 PK WND 02027/2005 T10281089
04850KAOH AOH20160122151513801/22/16 15:15:31  5-MIN KAOH 222015Z AUTO 05016G25KT 10SM FEW021 M03/M08 A3004 860 66 -1000 060/16G25 RMK AO2 PK WND 02027/2005 T10281083
04850KAOH AOH20160122152014501/22/16 15:20:31  5-MIN KAOH 222020Z AUTO 04019G25KT 10SM FEW023 FEW028 M03/M08 A3004 860 66 -1000 040/19G25 RMK AO2 PK WND 02027/2005 T10281083
04850KAOH AOH20160122152513801/22/16 15:25:31  5-MIN KAOH 222025Z AUTO 04016G25KT 10SM FEW026 M03/M08 A3004 860 66 -1000 050/16G25 RMK AO2 PK WND 02027/2005 T10281083
04850KAOH AOH20160122153013801/22/16 15:30:31  5-MIN KAOH 222030Z AUTO 04018G25KT 10SM FEW026 M03/M08 A3005 860 66 -1000 050/18G25 RMK AO2 PK WND 02027/2005 T10281083
04850KAOH AOH20160122153513501/22/16 15:35:31  5-MIN KAOH 222035Z AUTO 03018G25KT 10SM CLR M03/M08 A3004 860 66 -1000 040/18G25 RMK AO2 PK WND 02027/2005 T10281083
04850KAOH AOH20160122154013501/22/16 15:40:31  5-MIN KAOH 222040Z AUTO 03022G30KT 10SM CLR M03/M08 A3004 860 66 -1000 040/22G30 RMK AO2 PK WND 03030/2039 T10281083
04850KAOH AOH20160122154513501/22/16 15:45:31  5-MIN KAOH 222045Z AUTO 04017G30KT 10SM CLR M03/M08 A3004 860 66 -1000 040/17G30 RMK AO2 PK WND 03030/2039 T10281083
04850KAOH AOH20160122155015401/22/16 15:50:31  5-MIN KAOH 222050Z AUTO 04015G27KT 10SM CLR M03/M08 A3004 860 68 -1100 040/15G27 RMK AO2 PK WND 03030/2039 SLP189 60000 T10331083 58013
04850KAOH AOH20160122155511701/22/16 15:55:31  5-MIN KAOH 222055Z AUTO 04018G26KT 10SM CLR M03/M09 A3005 860 65 -1100 050/18G26 RMK AO2 T10331089
04850KAOH AOH20160122160013501/22/16 16:00:31  5-MIN KAOH 222100Z AUTO 04017G28KT 10SM CLR M03/M09 A3004 870 65 -1100 040/17G28 RMK AO2 PK WND 04028/2057 T10331089
04850KAOH AOH20160122160513501/22/16 16:05:31  5-MIN KAOH 222105Z AUTO 03021G28KT 10SM CLR M03/M09 A3004 860 65 -1100 040/21G28 RMK AO2 PK WND 04028/2057 T10331089
04850KAOH AOH20160122161013801/22/16 16:10:31  5-MIN KAOH 222110Z AUTO 03019G27KT 10SM FEW028 M03/M09 A3005 860 65 -1100 040/19G27 RMK AO2 PK WND 04028/2057 T10331089
04850KAOH AOH20160122161513801/22/16 16:15:31  5-MIN KAOH 222115Z AUTO 03020G27KT 10SM SCT028 M03/M09 A3004 860 65 -1100 030/20G27 RMK AO2 PK WND 04028/2057 T10331089
04850KAOH AOH20160122162013801/22/16 16:20:31  5-MIN KAOH 222120Z AUTO 04019G27KT 10SM FEW028 M03/M09 A3004 860 63 -1100 040/19G27 RMK AO2 PK WND 04028/2057 T10331094
04850KAOH AOH20160122162513801/22/16 16:25:31  5-MIN KAOH 222125Z AUTO 04017G27KT 10SM FEW027 M03/M09 A3004 860 63 -1100 050/17G27 RMK AO2 PK WND 04028/2057 T10331094
04850KAOH AOH20160122163013801/22/16 16:30:31  5-MIN KAOH 222130Z AUTO 03014G27KT 10SM FEW027 M03/M09 A3004 860 65 -1100 040/14G27 RMK AO2 PK WND 04028/2057 T10331089
04850KAOH AOH20160122163513801/22/16 16:35:31  5-MIN KAOH 222135Z AUTO 04020G28KT 10SM FEW028 M03/M09 A3004 860 63 -1100 040/20G28 RMK AO2 PK WND 04028/2057 T10331094
04850KAOH AOH20160122164013801/22/16 16:40:31  5-MIN KAOH 222140Z AUTO 04017G29KT 10SM FEW028 M04/M09 A3004 860 65 -1200 050/17G29 RMK AO2 PK WND 04029/2136 T10391094
04850KAOH AOH20160122164513801/22/16 16:45:31  5-MIN KAOH 222145Z AUTO 03020G29KT 10SM FEW028 M04/M09 A3004 860 65 -1200 040/20G29 RMK AO2 PK WND 04029/2136 T10391094
04850KAOH AOH20160122165014501/22/16 16:50:31  5-MIN KAOH 222150Z AUTO 03020G28KT 10SM FEW028 M04/M09 A3004 860 65 -1200 040/20G28 RMK AO2 PK WND 04029/2136 SLP187 T10391094
04850KAOH AOH20160122165511701/22/16 16:55:31  5-MIN KAOH 222155Z AUTO 03019G28KT 10SM CLR M04/M09 A3004 870 65 -1200 040/19G28 RMK AO2 T10391094
04850KAOH AOH20160122170013501/22/16 17:00:31  5-MIN KAOH 222200Z AUTO 04018G26KT 10SM CLR M04/M09 A3004 860 65 -1200 040/18G26 RMK AO2 PK WND 04026/2156 T10391094
04850KAOH AOH20160122170513501/22/16 17:05:31  5-MIN KAOH 222205Z AUTO 03022G32KT 10SM CLR M04/M10 A3004 860 63 -1200 040/22G32 RMK AO2 PK WND 04032/2202 T10391100
04850KAOH AOH20160122171013501/22/16 17:10:31  5-MIN KAOH 222210Z AUTO 04019G32KT 10SM CLR M04/M10 A3004 860 63 -1200 040/19G32 RMK AO2 PK WND 04032/2202 T10391100
04850KAOH AOH20160122171513501/22/16 17:15:31  5-MIN KAOH 222215Z AUTO 03017G28KT 10SM CLR M04/M09 A3004 870 65 -1200 040/17G28 RMK AO2 PK WND 04032/2202 T10391094
04850KAOH AOH20160122172013501/22/16 17:20:31  5-MIN KAOH 222220Z AUTO 04020G27KT 10SM CLR M04/M09 A3004 870 65 -1200 040/20G27 RMK AO2 PK WND 04032/2202 T10391094
04850KAOH AOH20160122172513801/22/16 17:25:31  5-MIN KAOH 222225Z AUTO 04019G27KT 10SM FEW031 M04/M09 A3004 860 65 -1200 050/19G27 RMK AO2 PK WND 04032/2202 T10391094
04850KAOH AOH20160122173013801/22/16 17:30:31  5-MIN KAOH 222230Z AUTO 04018G26KT 10SM FEW031 M04/M09 A3004 860 65 -1200 040/18G26 RMK AO2 PK WND 04032/2202 T10391094
04850KAOH AOH20160122173513501/22/16 17:35:31  5-MIN KAOH 222235Z AUTO 04020G27KT 10SM CLR M04/M09 A3004 860 65 -1200 050/20G27 RMK AO2 PK WND 04032/2202 T10391094
04850KAOH AOH20160122174013501/22/16 17:40:31  5-MIN KAOH 222240Z AUTO 04017G27KT 10SM CLR M04/M09 A3004 860 65 -1200 040/17G27 RMK AO2 PK WND 04032/2202 T10391094
04850KAOH AOH20160122174513501/22/16 17:45:31  5-MIN KAOH 222245Z AUTO 04017G26KT 10SM CLR M04/M09 A3005 860 68 -1200 040/17G26 RMK AO2 PK WND 04032/2202 T10441094
04850KAOH AOH20160122175014201/22/16 17:50:31  5-MIN KAOH 222250Z AUTO 04019G26KT 10SM CLR M04/M09 A3005 860 68 -1200 040/19G26 RMK AO2 PK WND 04032/2202 SLP189 T10441094
04850KAOH AOH20160122175511701/22/16 17:55:31  5-MIN KAOH 222255Z AUTO 04016G26KT 10SM CLR M04/M09 A3005 860 68 -1200 050/16G26 RMK AO2 T10441094
04850KAOH AOH20160122180013501/22/16 18:00:31  5-MIN KAOH 222300Z AUTO 03018G26KT 10SM CLR M04/M09 A3005 860 68 -1200 040/18G26 RMK AO2 PK WND 04026/2258 T10441094
04850KAOH AOH20160122180513501/22/16 18:05:31  5-MIN KAOH 222305Z AUTO 04018G27KT 10SM CLR M04/M10 A3005 860 65 -1200 040/18G27 RMK AO2 PK WND 03027/2303 T10441100
04850KAOH AOH20160122181013501/22/16 18:10:31  5-MIN KAOH 222310Z AUTO 04020G27KT 10SM CLR M04/M09 A3005 860 68 -1200 040/20G27 RMK AO2 PK WND 03027/2303 T10441094
04850KAOH AOH20160122181513501/22/16 18:15:31  5-MIN KAOH 222315Z AUTO 04016G25KT 10SM CLR M04/M09 A3005 860 68 -1200 040/16G25 RMK AO2 PK WND 03027/2303 T10441094
04850KAOH AOH20160122182013501/22/16 18:20:31  5-MIN KAOH 222320Z AUTO 04018G28KT 10SM CLR M04/M10 A3005 860 65 -1200 040/18G28 RMK AO2 PK WND 05028/2316 T10441100
04850KAOH AOH20160122182513501/22/16 18:25:31  5-MIN KAOH 222325Z AUTO 03022G28KT 10SM CLR M04/M10 A3005 860 65 -1200 040/22G28 RMK AO2 PK WND 02028/2325 T10441100
04850KAOH AOH20160122183013501/22/16 18:30:31  5-MIN KAOH 222330Z AUTO 03016G28KT 10SM CLR M04/M09 A3005 860 68 -1200 040/16G28 RMK AO2 PK WND 02028/2325 T10441094
04850KAOH AOH20160122183513501/22/16 18:35:31  5-MIN KAOH 222335Z AUTO 04016G27KT 10SM CLR M04/M09 A3005 860 68 -1200 040/16G27 RMK AO2 PK WND 02028/2325 T10441094
04850KAOH AOH20160122184013501/22/16 18:40:31  5-MIN KAOH 222340Z AUTO 03015G23KT 10SM CLR M04/M09 A3005 860 68 -1200 040/15G23 RMK AO2 PK WND 02028/2325 T10441094
04850KAOH AOH20160122184513801/22/16 18:45:31  5-MIN KAOH 222345Z AUTO 03019G23KT 10SM FEW029 M04/M09 A3005 860 68 -1200 030/19G23 RMK AO2 PK WND 02028/2325 T10441094
04850KAOH AOH20160122185016901/22/16 18:50:31  5-MIN KAOH 222350Z AUTO 04018G27KT 10SM FEW029 M04/M09 A3005 860 68 -1200 040/18G27 RMK AO2 PK WND 02028/2325 SLP190 60000 T10441094 11028 21044 56023
04850KAOH AOH20160122185512001/22/16 18:55:31  5-MIN KAOH 222355Z AUTO 03014G27KT 10SM FEW029 M04/M09 A3005 860 68 -1200 040/14G27 RMK AO2 T10441094
04850KAOH AOH20160122190012001/22/16 19:00:31  5-MIN KAOH 230000Z AUTO 03016G25KT 10SM SCT029 M04/M09 A3005 860 71 -1200 040/16G25 RMK AO2 T10441089
04850KAOH AOH20160122190513801/22/16 19:05:31  5-MIN KAOH 230005Z AUTO 03019G30KT 10SM SCT029 M04/M09 A3005 850 71 -1200 040/19G30 RMK AO2 PK WND 03030/0002 T10441089
04850KAOH AOH20160122191013801/22/16 19:10:31  5-MIN KAOH 230010Z AUTO 03015G30KT 10SM SCT028 M04/M09 A3005 860 71 -1200 030/15G30 RMK AO2 PK WND 03030/0002 T10441089
04850KAOH AOH20160122191513801/22/16 19:15:31  5-MIN KAOH 230015Z AUTO 03021G29KT 10SM FEW028 M04/M09 A3005 860 71 -1200 040/21G29 RMK AO2 PK WND 03030/0002 T10441089
04850KAOH AOH20160122192013801/22/16 19:20:31  5-MIN KAOH 230020Z AUTO 04016G29KT 10SM FEW028 M04/M09 A3006 850 71 -1200 040/16G29 RMK AO2 PK WND 03030/0002 T10441089
04850KAOH AOH20160122192513801/22/16 19:25:31  5-MIN KAOH 230025Z AUTO 03016G24KT 10SM FEW028 M04/M09 A3005 850 71 -1200 040/16G24 RMK AO2 PK WND 03030/0002 T10441089
04850KAOH AOH20160122193013801/22/16 19:30:31  5-MIN KAOH 230030Z AUTO 03018G24KT 10SM FEW028 M04/M09 A3006 850 71 -1200 040/18G24 RMK AO2 PK WND 03030/0002 T10441089
04850KAOH AOH20160122193513801/22/16 19:35:31  5-MIN KAOH 230035Z AUTO 03016G26KT 10SM FEW028 M04/M09 A3005 850 71 -1200 040/16G26 RMK AO2 PK WND 03030/0002 T10441089
04850KAOH AOH20160122194013801/22/16 19:40:31  5-MIN KAOH 230040Z AUTO 03015G26KT 10SM FEW028 M04/M09 A3005 860 71 -1200 040/15G26 RMK AO2 PK WND 03030/0002 T10441089
04850KAOH AOH20160122194513801/22/16 19:45:31  5-MIN KAOH 230045Z AUTO 03017G25KT 10SM FEW028 M04/M09 A3005 850 71 -1200 040/17G25 RMK AO2 PK WND 03030/0002 T10441089
04850KAOH AOH20160122195014501/22/16 19:50:31  5-MIN KAOH 230050Z AUTO 03019G24KT 10SM SCT028 M04/M08 A3005 850 74 -1200 030/19G24 RMK AO2 PK WND 03030/0002 SLP192 T10441083
04850KAOH AOH20160122195512001/22/16 19:55:31  5-MIN KAOH 230055Z AUTO 03014G24KT 10SM SCT026 M04/M08 A3005 860 74 -1200 030/14G24 RMK AO2 T10441083
04850KAOH AOH20160122200012001/22/16 20:00:31  5-MIN KAOH 230100Z AUTO 03016G23KT 10SM SCT026 M04/M08 A3005 860 74 -1200 030/16G23 RMK AO2 T10441083
04850KAOH AOH20160122200512001/22/16 20:05:31  5-MIN KAOH 230105Z AUTO 03017G23KT 10SM BKN028 M04/M08 A3005 860 74 -1200 040/17G23 RMK AO2 T10441083
04850KAOH AOH20160122201012001/22/16 20:10:31  5-MIN KAOH 230110Z AUTO 03019G25KT 10SM BKN028 M04/M08 A3005 860 74 -1200 040/19G25 RMK AO2 T10441083
04850KAOH AOH20160122201512001/22/16 20:15:31  5-MIN KAOH 230115Z AUTO 03017G25KT 10SM BKN027 M04/M08 A3005 860 74 -1200 040/17G25 RMK AO2 T10441083
04850KAOH AOH20160122202012001/22/16 20:20:31  5-MIN KAOH 230120Z AUTO 03015G23KT 10SM BKN027 M04/M08 A3005 860 74 -1200 030/15G23 RMK AO2 T10441083
04850KAOH AOH20160122202512001/22/16 20:25:31  5-MIN KAOH 230125Z AUTO 03014G23KT 10SM OVC027 M04/M08 A3005 860 71 -1200 030/14G23 RMK AO2 T10391083
04850KAOH AOH20160122203012001/22/16 20:30:31  5-MIN KAOH 230130Z AUTO 03015G25KT 10SM OVC027 M04/M08 A3005 860 78 -1200 030/15G25 RMK AO2 T10441078
04850KAOH AOH20160122203512701/22/16 20:35:31  5-MIN KAOH 230135Z AUTO 01013G25KT 10SM BKN025 OVC030 M04/M08 A3005 850 78 -1200 020/13G25 RMK AO2 T10441078
04850KAOH AOH20160122204012101/22/16 20:40:31  5-MIN KAOH 230140Z AUTO 02011KT 10SM BKN025 OVC031 M04/M08 A3005 850 78 -1200 030/11 RMK AO2 T10441078
04850KAOH AOH20160122204512001/22/16 20:45:31  5-MIN KAOH 230145Z AUTO 02017G24KT 10SM OVC025 M04/M07 A3005 850 81 -1200 030/17G24 RMK AO2 T10441072
04850KAOH AOH20160122205013401/22/16 20:50:31  5-MIN KAOH 230150Z AUTO 02019G24KT 10SM BKN025 OVC030 M04/M07 A3006 850 81 -1200 030/19G24 RMK AO2 SLP191 T10441072
04850KAOH AOH20160122205513401/22/16 20:55:31  5-MIN KAOH 230155Z AUTO 03015G24KT 10SM FEW018 BKN023 OVC030 M04/M07 A3005 860 81 -1200 030/15G24 RMK AO2 T10441072
04850KAOH AOH20160122210013401/22/16 21:00:31  5-MIN KAOH 230200Z AUTO 02016G22KT 10SM FEW016 BKN025 OVC030 M04/M07 A3005 850 81 -1200 020/16G22 RMK AO2 T10441072
04850KAOH AOH20160122210514901/22/16 21:05:31  5-MIN KAOH 230205Z AUTO 02018G24KT 9SM -SN FEW016 BKN025 OVC029 M04/M07 A3005 850 81 -1200 030/18G24 RMK AO2 SNB05 P0000 T10441072
04850KAOH AOH20160122211014201/22/16 21:10:31  5-MIN KAOH 230210Z AUTO 02016G24KT 8SM -SN FEW016 OVC025 M04/M07 A3006 850 81 -1200 030/16G24 RMK AO2 SNB05 P0000 T10441072
04850KAOH AOH20160122211514201/22/16 21:15:31  5-MIN KAOH 230215Z AUTO 02016G24KT 6SM -SN SCT016 OVC025 M04/M07 A3005 850 81 -1200 030/16G24 RMK AO2 SNB05 P0000 T10441072
04850KAOH AOH20160122212014201/22/16 21:20:31  5-MIN KAOH 230220Z AUTO 02016G24KT 5SM -SN BKN016 OVC026 M04/M07 A3005 860 81 -1200 030/16G24 RMK AO2 SNB05 P0000 T10441072
04850KAOH AOH20160122212513901/22/16 21:25:31  5-MIN KAOH 230225Z AUTO 02015KT 5SM -SN BR SCT016 OVC024 M05/M07 A3005 860 84 -1300 030/15 RMK AO2 SNB05 P0000 T10501072
04850KAOH AOH20160122213015201/22/16 21:30:31  5-MIN KAOH 230230Z AUTO 03017G25KT 5SM -SN BR SCT016 BKN021 OVC026 M05/M07 A3005 860 84 -1300 030/17G25 RMK AO2 SNB05 P0000 T10501072
04850KAOH AOH20160122213514201/22/16 21:35:31  5-MIN KAOH 230235Z AUTO 03016G25KT 6SM -SN FEW016 OVC026 M05/M08 A3005 850 81 -1300 030/16G25 RMK AO2 SNB05 P0000 T10501078
04850KAOH AOH20160122214014901/22/16 21:40:31  5-MIN KAOH 230240Z AUTO 03017G24KT 6SM -SN FEW016 BKN025 OVC030 M05/M08 A3005 850 81 -1300 030/17G24 RMK AO2 SNB05 P0000 T10501078
04850KAOH AOH20160122214516701/22/16 21:45:31  5-MIN KAOH 230245Z AUTO 03016G28KT 6SM -SN FEW015 SCT023 OVC030 M05/M08 A3005 850 81 -1300 040/16G28 RMK AO2 PK WND 01028/0241 SNB05 P0000 T10501078
04850KAOH AOH20160122215017901/22/16 21:50:31  5-MIN KAOH 230250Z AUTO 03016G28KT 8SM -SN BKN027 OVC033 M05/M08 A3006 850 81 -1300 040/16G28 RMK AO2 PK WND 01028/0241 SNB05 SLP191 P0000 60000 T10501078 53002
04850KAOH AOH20160122215513601/22/16 21:55:31  5-MIN KAOH 230255Z AUTO 03017G25KT 9SM -SN BKN027 OVC033 M05/M08 A3005 850 77 -1300 040/17G25 RMK AO2 P0000 T10501083
04850KAOH AOH20160122220012901/22/16 22:00:31  5-MIN KAOH 230300Z AUTO 03016G25KT 9SM -SN OVC029 M05/M08 A3005 860 77 -1300 030/16G25 RMK AO2 P0000 T10501083
04850KAOH AOH20160122220513101/22/16 22:05:31  5-MIN KAOH 230305Z AUTO 03016G25KT 9SM OVC031 M05/M08 A3006 850 77 -1300 030/16G25 RMK AO2 SNE02 P0000 T10501083
04850KAOH AOH20160122221012901/22/16 22:10:31  5-MIN KAOH 230310Z AUTO 02017G25KT 9SM -SN OVC031 M05/M08 A3005 860 77 -1300 030/17G25 RMK AO2 P0000 T10501083
04850KAOH AOH20160122221512901/22/16 22:15:31  5-MIN KAOH 230315Z AUTO 03014G22KT 9SM -SN OVC029 M05/M08 A3005 860 77 -1300 030/14G22 RMK AO2 P0000 T10501083
04850KAOH AOH20160122222012301/22/16 22:20:31  5-MIN KAOH 230320Z AUTO 02016KT 8SM -SN OVC029 M05/M08 A3005 860 77 -1300 030/16 RMK AO2 P0000 T10501083
04850KAOH AOH20160122222512901/22/16 22:25:31  5-MIN KAOH 230325Z AUTO 02018G24KT 7SM -SN OVC029 M05/M08 A3005 860 77 -1300 030/18G24 RMK AO2 P0000 T10501083
04850KAOH AOH20160122223013601/22/16 22:30:31  5-MIN KAOH 230330Z AUTO 02017G25KT 7SM -SN BKN029 OVC034 M05/M08 A3005 860 77 -1300 030/17G25 RMK AO2 P0000 T10501083
04850KAOH AOH20160122223513601/22/16 22:35:31  5-MIN KAOH 230335Z AUTO 02018G25KT 7SM -SN SCT029 OVC034 M06/M08 A3004 860 81 -1400 030/18G25 RMK AO2 P0000 T10561083
04850KAOH AOH20160122224013601/22/16 22:40:31  5-MIN KAOH 230340Z AUTO 02017G23KT 8SM -SN SCT029 OVC035 M06/M09 A3004 860 77 -1400 030/17G23 RMK AO2 P0000 T10561089
04850KAOH AOH20160122224515401/22/16 22:45:31  5-MIN KAOH 230345Z AUTO 02018G26KT 8SM -SN SCT029 OVC035 M06/M09 A3004 860 77 -1400 030/18G26 RMK AO2 PK WND 02026/0341 P0000 T10561089
04850KAOH AOH20160122225015401/22/16 22:50:31  5-MIN KAOH 230350Z AUTO 02017G26KT 9SM -SN OVC035 M06/M09 A3005 860 77 -1400 020/17G26 RMK AO2 PK WND 02026/0341 SLP188 P0000 T10561089
04850KAOH AOH20160122225513601/22/16 22:55:31  5-MIN KAOH 230355Z AUTO 02018G25KT 9SM -SN FEW018 BKN035 M06/M09 A3004 860 77 -1400 030/18G25 RMK AO2 P0000 T10561089
04850KAOH AOH20160122230015101/22/16 23:00:31  5-MIN KAOH 230400Z AUTO 02020G26KT 9SM BKN034 M06/M09 A3004 860 74 -1400 020/20G26 RMK AO2 PK WND 01026/0359 SNE0356 P0000 T10561094
04850KAOH AOH20160122230515201/22/16 23:05:31  5-MIN KAOH 230405Z AUTO 02019G27KT 10SM SCT034 M06/M09 A3004 860 74 -1400 030/19G27 RMK AO2 PK WND 02027/0404 SNE0356 P0000 T10561094
04850KAOH AOH20160122231015201/22/16 23:10:31  5-MIN KAOH 230410Z AUTO 02017G27KT 10SM FEW034 M06/M09 A3004 860 77 -1400 030/17G27 RMK AO2 PK WND 02027/0404 SNE0356 P0000 T10611094
04850KAOH AOH20160122231515201/22/16 23:15:31  5-MIN KAOH 230415Z AUTO 02017G24KT 10SM FEW034 M06/M09 A3005 860 77 -1400 020/17G24 RMK AO2 PK WND 02027/0404 SNE0356 P0000 T10611094
04850KAOH AOH20160122232014901/22/16 23:20:31  5-MIN KAOH 230420Z AUTO 01017G24KT 10SM CLR M06/M09 A3005 860 77 -1500 020/17G24 RMK AO2 PK WND 02027/0404 SNE0356 P0000 T10611094
04850KAOH AOH20160122232514301/22/16 23:25:31  5-MIN KAOH 230425Z AUTO 02017KT 10SM CLR M06/M09 A3005 860 77 -1400 030/17 RMK AO2 PK WND 02027/0404 SNE0356 P0000 T10611094
04850KAOH AOH20160122233014901/22/16 23:30:31  5-MIN KAOH 230430Z AUTO 02014G24KT 10SM CLR M06/M09 A3005 860 77 -1400 030/14G24 RMK AO2 PK WND 02027/0404 SNE0356 P0000 T10611094
04850KAOH AOH20160122233515201/22/16 23:35:31  5-MIN KAOH 230435Z AUTO 02014G23KT 10SM FEW023 M06/M09 A3005 860 77 -1400 030/14G23 RMK AO2 PK WND 02027/0404 SNE0356 P0000 T10611094
04850KAOH AOH20160122234015201/22/16 23:40:31  5-MIN KAOH 230440Z AUTO 02015G20KT 10SM FEW023 M06/M09 A3005 860 77 -1500 030/15G20 RMK AO2 PK WND 02027/0404 SNE0356 P0000 T10611094
04850KAOH AOH20160122234515301/22/16 23:45:31  5-MIN KAOH 230445Z AUTO 02016KT 10SM FEW022 SCT033 M06/M09 A3005 860 77 -1500 030/16 RMK AO2 PK WND 02027/0404 SNE0356 P0000 T10611094
04850KAOH AOH20160122235017001/22/16 23:50:31  5-MIN KAOH 230450Z AUTO 02014KT 10SM FEW022 BKN033 M06/M09 A3005 860 81 -1400 030/14 RMK AO2 PK WND 02027/0404 SNE0356 SLP188 P0000 T10611089 410281100
04850KAOH AOH20160122235512701/22/16 23:55:31  5-MIN KAOH 230455Z AUTO 02014G23KT 10SM FEW022 BKN033 M06/M09 A3004 860 81 -1400 030/14G23 RMK AO2 T10611089
04850KAOH AOH20160123000012701/23/16 00:00:31  5-MIN KAOH 230500Z AUTO 02015G23KT 10SM FEW022 SCT033 M06/M09 A3004 860 81 -1400 030/15G23 RMK AO2 T10611089
04850KAOH AOH20160123000512701/23/16 00:05:31  5-MIN KAOH 230505Z AUTO 02014G21KT 10SM FEW022 SCT033 M06/M09 A3004 860 81 -1400 030/14G21 RMK AO2 T10611089
04850KAOH AOH20160123001012001/23/16 00:10:31  5-MIN KAOH 230510Z AUTO 02015G21KT 10SM FEW033 M06/M09 A3004 860 81 -1400 030/15G21 RMK AO2 T10611089
04850KAOH AOH20160123001512701/23/16 00:15:31  5-MIN KAOH 230515Z AUTO 02015G22KT 10SM FEW021 SCT027 M06/M09 A3004 860 81 -1400 030/15G22 RMK AO2 T10611089
04850KAOH AOH20160123002012001/23/16 00:20:31  5-MIN KAOH 230520Z AUTO 02014G22KT 10SM SCT025 M06/M09 A3004 860 81 -1400 030/14G22 RMK AO2 T10611089
04850KAOH AOH20160123002512001/23/16 00:25:31  5-MIN KAOH 230525Z AUTO 02013G22KT 10SM BKN025 M06/M09 A3004 860 81 -1400 030/13G22 RMK AO2 T10611089
04850KAOH AOH20160123003012001/23/16 00:30:31  5-MIN KAOH 230530Z AUTO 03015G22KT 10SM BKN025 M06/M09 A3004 860 81 -1400 030/15G22 RMK AO2 T10611089
04850KAOH AOH20160123003511401/23/16 00:35:31  5-MIN KAOH 230535Z AUTO 02012KT 10SM BKN025 M06/M09 A3004 860 81 -1400 020/12 RMK AO2 T10611089
04850KAOH AOH20160123004012001/23/16 00:40:31  5-MIN KAOH 230540Z AUTO 02014G22KT 10SM BKN026 M06/M09 A3004 870 81 -1400 030/14G22 RMK AO2 T10611089
04850KAOH AOH20160123004512001/23/16 00:45:31  5-MIN KAOH 230545Z AUTO 02016G22KT 10SM BKN026 M06/M09 A3004 870 81 -1400 030/16G22 RMK AO2 T10611089
04850KAOH AOH20160123005014501/23/16 00:50:31  5-MIN KAOH 230550Z AUTO 02015KT 10SM BKN026 M06/M09 A3004 870 81 -1400 030/15 RMK AO2 SLP185 60000 T10611089 11039 21061 51001
04850KAOH AOH20160123005511401/23/16 00:55:31  5-MIN KAOH 230555Z AUTO 02014KT 10SM BKN026 M06/M09 A3004 870 77 -1400 030/14 RMK AO2 T10561089
04850KAOH AOH20160123010012001/23/16 01:00:31  5-MIN KAOH 230600Z AUTO 03017G22KT 10SM BKN026 M06/M09 A3003 870 77 -1400 040/17G22 RMK AO2 T10561089
04850KAOH AOH20160123010512001/23/16 01:05:31  5-MIN KAOH 230605Z AUTO 03015G22KT 10SM BKN026 M06/M09 A3003 870 77 -1400 030/15G22 RMK AO2 T10561089
04850KAOH AOH20160123011012701/23/16 01:10:31  5-MIN KAOH 230610Z AUTO 03015G23KT 10SM SCT022 BKN029 M06/M09 A3003 880 74 -1400 030/15G23 RMK AO2 T10561094
04850KAOH AOH20160123011512001/23/16 01:15:31  5-MIN KAOH 230615Z AUTO 02015G23KT 10SM BKN024 M06/M09 A3003 880 74 -1400 030/15G23 RMK AO2 T10561094
04850KAOH AOH20160123012012701/23/16 01:20:31  5-MIN KAOH 230620Z AUTO 01012G21KT 10SM BKN024 BKN030 M06/M09 A3003 880 74 -1400 020/12G21 RMK AO2 T10561094
04850KAOH AOH20160123012512701/23/16 01:25:31  5-MIN KAOH 230625Z AUTO 02014G22KT 10SM SCT024 BKN030 M06/M09 A3003 880 74 -1400 020/14G22 RMK AO2 T10561094
04850KAOH AOH20160123013012701/23/16 01:30:31  5-MIN KAOH 230630Z AUTO 02017G23KT 10SM SCT024 OVC030 M06/M09 A3003 880 74 -1400 030/17G23 RMK AO2 T10561094
04850KAOH AOH20160123013512701/23/16 01:35:31  5-MIN KAOH 230635Z AUTO 01017G24KT 10SM BKN027 OVC032 M06/M09 A3002 880 74 -1400 020/17G24 RMK AO2 T10561094
04850KAOH AOH20160123014012701/23/16 01:40:31  5-MIN KAOH 230640Z AUTO 02017G24KT 10SM BKN027 OVC032 M06/M09 A3002 880 74 -1400 020/17G24 RMK AO2 T10561094
04850KAOH AOH20160123014512001/23/16 01:45:31  5-MIN KAOH 230645Z AUTO 02017G23KT 10SM OVC027 M06/M09 A3002 880 77 -1400 020/17G23 RMK AO2 T10611094
04850KAOH AOH20160123015012701/23/16 01:50:31  5-MIN KAOH 230650Z AUTO 02017G23KT 10SM OVC027 M06/M09 A3002 890 77 -1400 030/17G23 RMK AO2 SLP179 T10611094
04850KAOH AOH20160123015512001/23/16 01:55:31  5-MIN KAOH 230655Z AUTO 02018G25KT 10SM OVC027 M06/M09 A3002 880 77 -1400 020/18G25 RMK AO2 T10611094
04850KAOH AOH20160123020012001/23/16 02:00:31  5-MIN KAOH 230700Z AUTO 02018G25KT 10SM OVC027 M06/M09 A3002 880 77 -1400 030/18G25 RMK AO2 T10611094
04850KAOH AOH20160123020512001/23/16 02:05:31  5-MIN KAOH 230705Z AUTO 02016G24KT 10SM OVC028 M06/M09 A3002 880 77 -1400 030/16G24 RMK AO2 T10611094
04850KAOH AOH20160123021012001/23/16 02:10:31  5-MIN KAOH 230710Z AUTO 02016G24KT 10SM OVC028 M06/M09 A3002 880 77 -1400 030/16G24 RMK AO2 T10611094
04850KAOH AOH20160123021512001/23/16 02:15:31  5-MIN KAOH 230715Z AUTO 02014G23KT 10SM OVC028 M06/M09 A3002 880 77 -1400 030/14G23 RMK AO2 T10611094
04850KAOH AOH20160123022012001/23/16 02:20:31  5-MIN KAOH 230720Z AUTO 02016G22KT 10SM OVC028 M06/M09 A3002 880 77 -1400 030/16G22 RMK AO2 T10611094
04850KAOH AOH20160123022512001/23/16 02:25:31  5-MIN KAOH 230725Z AUTO 03012G22KT 10SM OVC027 M06/M09 A3002 890 77 -1400 030/12G22 RMK AO2 T10611094
04850KAOH AOH20160123023011401/23/16 02:30:31  5-MIN KAOH 230730Z AUTO 02015KT 10SM OVC027 M06/M09 A3002 890 77 -1400 030/15 RMK AO2 T10611094
04850KAOH AOH20160123023512001/23/16 02:35:31  5-MIN KAOH 230735Z AUTO 02014G24KT 10SM OVC027 M06/M09 A3002 880 77 -1400 030/14G24 RMK AO2 T10611094
04850KAOH AOH20160123024012001/23/16 02:40:31  5-MIN KAOH 230740Z AUTO 03013G24KT 10SM OVC027 M06/M09 A3002 890 74 -1300 030/13G24 RMK AO2 T10561094
04850KAOH AOH20160123024512001/23/16 02:45:31  5-MIN KAOH 230745Z AUTO 03013G21KT 10SM OVC029 M06/M09 A3002 890 74 -1300 030/13G21 RMK AO2 T10561094
04850KAOH AOH20160123025012701/23/16 02:50:31  5-MIN KAOH 230750Z AUTO 03015G22KT 10SM OVC029 M06/M09 A3002 890 74 -1300 030/15G22 RMK AO2 SLP178 T10561094
04850KAOH AOH20160123025512001/23/16 02:55:31  5-MIN KAOH 230755Z AUTO 02017G22KT 10SM OVC029 M06/M09 A3002 890 74 -1300 030/17G22 RMK AO2 T10561094
04850KAOH AOH20160123030012001/23/16 03:00:31  5-MIN KAOH 230800Z AUTO 02017G22KT 10SM OVC031 M06/M09 A3002 890 74 -1300 020/17G22 RMK AO2 T10561094
04850KAOH AOH20160123030512001/23/16 03:05:31  5-MIN KAOH 230805Z AUTO 01014G23KT 10SM OVC031 M06/M10 A3002 890 71 -1300 020/14G23 RMK AO2 T10561100
04850KAOH AOH20160123031012001/23/16 03:10:31  5-MIN KAOH 230810Z AUTO 03013G23KT 10SM OVC031 M06/M09 A3002 890 74 -1300 030/13G23 RMK AO2 T10561094
04850KAOH AOH20160123131511701/23/16 13:15:31  5-MIN KAOH 231815Z AUTO 02011G22KT 10SM CLR M03/M09 A3005 860 63 -1000 030/11G22 RMK AO2 T10281089
04850KAOH AOH20160123132011701/23/16 13:20:31  5-MIN KAOH 231820Z AUTO 03014G22KT 10SM CLR M03/M09 A3005 850 63 -1000 040/14G22 RMK AO2 T10281089
04850KAOH AOH20160123132511701/23/16 13:25:31  5-MIN KAOH 231825Z AUTO 01013G19KT 10SM CLR M03/M09 A3005 860 60 -1000 010/13G19 RMK AO2 T10281094
04850KAOH AOH20160123133011101/23/16 13:30:31  5-MIN KAOH 231830Z AUTO 02013KT 10SM CLR M03/M09 A3005 860 60 -1000 020/13 RMK AO2 T10281094
04850KAOH AOH20160123133511701/23/16 13:35:31  5-MIN KAOH 231835Z AUTO 02013G21KT 10SM CLR M03/M09 A3005 850 60 -1000 030/13G21 RMK AO2 T10281094
04850KAOH AOH20160123134011701/23/16 13:40:31  5-MIN KAOH 231840Z AUTO 03015G22KT 10SM CLR M03/M09 A3005 850 60 -1000 030/15G22 RMK AO2 T10281094
04850KAOH AOH20160123134511701/23/16 13:45:31  5-MIN KAOH 231845Z AUTO 03014G22KT 10SM CLR M03/M10 A3005 860 58 -1000 030/14G22 RMK AO2 T10281100
04850KAOH AOH20160123135012401/23/16 13:50:31  5-MIN KAOH 231850Z AUTO 02013G21KT 10SM CLR M03/M10 A3005 850 58 -1000 020/13G21 RMK AO2 SLP190 T10281100
04850KAOH AOH20160123135511701/23/16 13:55:31  5-MIN KAOH 231855Z AUTO 02016G23KT 10SM CLR M03/M10 A3005 860 58 -1000 020/16G23 RMK AO2 T10281100
04850KAOH AOH20160123140011701/23/16 14:00:31  5-MIN KAOH 231900Z AUTO 02015G23KT 10SM CLR M03/M10 A3005 860 58 -1000 030/15G23 RMK AO2 T10281100
04850KAOH AOH20160123140511001/23/16 14:05:31  5-MIN KAOH 231905Z AUTO 02014KT 10SM CLR M02/M09 A3004 860 58 -900 030/14 RMK AO2 T10221094
04850KAOH AOH20160123141011701/23/16 14:10:31  5-MIN KAOH 231910Z AUTO 03016G22KT 10SM CLR M03/M10 A3004 870 58 -1000 040/16G22 RMK AO2 T10281100
04850KAOH AOH20160123141511101/23/16 14:15:31  5-MIN KAOH 231915Z AUTO 03015KT 10SM CLR M03/M10 A3004 860 58 -1000 040/15 RMK AO2 T10281100
04850KAOH AOH20160123142011001/23/16 14:20:31  5-MIN KAOH 231920Z AUTO 01015KT 10SM CLR M02/M09 A3004 860 58 -900 020/15 RMK AO2 T10221094
04850KAOH AOH20160123142511101/23/16 14:25:31  5-MIN KAOH 231925Z AUTO 01015KT 10SM CLR M03/M09 A3004 860 60 -1000 020/15 RMK AO2 T10281094
04850KAOH AOH20160123143011101/23/16 14:30:31  5-MIN KAOH 231930Z AUTO 01016KT 10SM CLR M03/M09 A3005 860 60 -1000 020/16 RMK AO2 T10281094
04850KAOH AOH20160123143511101/23/16 14:35:31  5-MIN KAOH 231935Z AUTO 01010KT 10SM CLR M03/M09 A3005 860 60 -1000 010/10 RMK AO2 T10281094
04850KAOH AOH20160123144011101/23/16 14:40:31  5-MIN KAOH 231940Z AUTO 02009KT 10SM CLR M02/M09 A3005 860 60 -1000 020/09 RMK AO2 T10221089
04850KAOH AOH20160123144511701/23/16 14:45:31  5-MIN KAOH 231945Z AUTO 02010G17KT 10SM CLR M02/M08 A3005 860 63 -1000 020/10G17 RMK AO2 T10221083
04850KAOH AOH20160123145012401/23/16 14:50:31  5-MIN KAOH 231950Z AUTO 01013G17KT 10SM CLR M02/M09 A3005 860 60 -1000 010/13G17 RMK AO2 SLP187 T10221089
04850KAOH AOH20160123145511101/23/16 14:55:31  5-MIN KAOH 231955Z AUTO 36014KT 10SM CLR M02/M09 A3005 860 60 -1000 010/14 RMK AO2 T10221089
04850KAOH AOH20160123150011101/23/16 15:00:31  5-MIN KAOH 232000Z AUTO 36012KT 10SM CLR M02/M09 A3005 860 60 -1000 010/12 RMK AO2 T10221089
04850KAOH AOH20160123150511101/23/16 15:05:31  5-MIN KAOH 232005Z AUTO 36013KT 10SM CLR M02/M09 A3005 860 60 -1000 010/13 RMK AO2 T10221089
04850KAOH AOH20160123151011701/23/16 15:10:31  5-MIN KAOH 232010Z AUTO 36014G19KT 10SM CLR M02/M09 A3005 860 58 -1000 010/14G19 RMK AO2 T10221094
04850KAOH AOH20160123151511701/23/16 15:15:31  5-MIN KAOH 232015Z AUTO 01014G19KT 10SM CLR M02/M09 A3005 860 60 -1000 020/14G19 RMK AO2 T10221089
04850KAOH AOH20160123152011701/23/16 15:20:31  5-MIN KAOH 232020Z AUTO 01013G19KT 10SM CLR M02/M09 A3005 860 58 -1000 010/13G19 RMK AO2 T10221094
04850KAOH AOH20160123152511101/23/16 15:25:31  5-MIN KAOH 232025Z AUTO 35013KT 10SM CLR M02/M09 A3005 860 58 -1000 350/13 RMK AO2 T10221094
04850KAOH AOH20160123153011101/23/16 15:30:31  5-MIN KAOH 232030Z AUTO 36009KT 10SM CLR M02/M09 A3005 860 58 -1000 360/09 RMK AO2 T10221094
04850KAOH AOH20160123153511101/23/16 15:35:31  5-MIN KAOH 232035Z AUTO 02010KT 10SM CLR M02/M09 A3005 860 58 -1000 020/10 RMK AO2 T10221094
04850KAOH AOH20160123154011101/23/16 15:40:31  5-MIN KAOH 232040Z AUTO 03013KT 10SM CLR M02/M09 A3005 860 58 -1000 030/13 RMK AO2 T10221094
04850KAOH AOH20160123154511101/23/16 15:45:31  5-MIN KAOH 232045Z AUTO 02011KT 10SM CLR M02/M09 A3005 860 58 -1000 020/11 RMK AO2 T10221094
04850KAOH AOH20160123155012401/23/16 15:50:31  5-MIN KAOH 232050Z AUTO 01012KT 10SM CLR M02/M09 A3005 860 58 -1000 020/12 RMK AO2 SLP188 T10221094 58014
04850KAOH AOH20160123155511101/23/16 15:55:31  5-MIN KAOH 232055Z AUTO 03009KT 10SM CLR M02/M09 A3005 860 60 -1000 030/09 RMK AO2 T10221089
04850KAOH AOH20160123160011001/23/16 16:00:31  5-MIN KAOH 232100Z AUTO 01008KT 10SM CLR M02/M09 A3005 860 58 -900 020/08 RMK AO2 T10171089
04850KAOH AOH20160123160511001/23/16 16:05:31  5-MIN KAOH 232105Z AUTO 01009KT 10SM CLR M02/M09 A3005 860 58 -900 020/09 RMK AO2 T10171089
04850KAOH AOH20160123161011101/23/16 16:10:31  5-MIN KAOH 232110Z AUTO 36011KT 10SM CLR M02/M09 A3005 850 60 -1000 010/11 RMK AO2 T10221089
04850KAOH AOH20160123161511101/23/16 16:15:31  5-MIN KAOH 232115Z AUTO 01008KT 10SM CLR M02/M09 A3005 850 60 -1000 020/08 RMK AO2 T10221089
04850KAOH AOH20160123162011101/23/16 16:20:31  5-MIN KAOH 232120Z AUTO 01009KT 10SM CLR M02/M09 A3006 850 60 -1000 010/09 RMK AO2 T10221089
04850KAOH AOH20160123162511101/23/16 16:25:31  5-MIN KAOH 232125Z AUTO 03009KT 10SM CLR M02/M09 A3006 850 60 -1000 030/09 RMK AO2 T10221089
04850KAOH AOH20160123163011101/23/16 16:30:31  5-MIN KAOH 232130Z AUTO 36009KT 10SM CLR M02/M09 A3006 850 60 -1000 010/09 RMK AO2 T10221089
04850KAOH AOH20160123163511101/23/16 16:35:31  5-MIN KAOH 232135Z AUTO 01010KT 10SM CLR M02/M09 A3006 850 60 -1000 020/10 RMK AO2 T10221089
04850KAOH AOH20160123164011101/23/16 16:40:31  5-MIN KAOH 232140Z AUTO 36010KT 10SM CLR M02/M09 A3007 840 60 -1000 010/10 RMK AO2 T10221089
04850KAOH AOH20160123164511101/23/16 16:45:31  5-MIN KAOH 232145Z AUTO 01010KT 10SM CLR M02/M09 A3007 840 60 -1000 010/10 RMK AO2 T10221089
04850KAOH AOH20160123165011801/23/16 16:50:31  5-MIN KAOH 232150Z AUTO 01010KT 10SM CLR M02/M09 A3007 840 60 -1000 020/10 RMK AO2 SLP195 T10221089
04850KAOH AOH20160123165511101/23/16 16:55:31  5-MIN KAOH 232155Z AUTO 36009KT 10SM CLR M02/M09 A3007 840 60 -1000 010/09 RMK AO2 T10221089
04850KAOH AOH20160123170011101/23/16 17:00:31  5-MIN KAOH 232200Z AUTO 36008KT 10SM CLR M02/M09 A3007 840 60 -1000 010/08 RMK AO2 T10221089
04850KAOH AOH20160123170511101/23/16 17:05:31  5-MIN KAOH 232205Z AUTO 35007KT 10SM CLR M02/M09 A3006 840 60 -1000 360/07 RMK AO2 T10221089
04850KAOH AOH20160123171011101/23/16 17:10:31  5-MIN KAOH 232210Z AUTO 02007KT 10SM CLR M02/M08 A3007 840 63 -1000 020/07 RMK AO2 T10221083
04850KAOH AOH20160123171511101/23/16 17:15:31  5-MIN KAOH 232215Z AUTO 02006KT 10SM CLR M03/M09 A3007 840 63 -1000 020/06 RMK AO2 T10281089
04850KAOH AOH20160123172011101/23/16 17:20:31  5-MIN KAOH 232220Z AUTO 03007KT 10SM CLR M03/M09 A3007 840 63 -1000 040/07 RMK AO2 T10281089
04850KAOH AOH20160123172511101/23/16 17:25:31  5-MIN KAOH 232225Z AUTO 02006KT 10SM CLR M03/M08 A3007 840 66 -1000 030/06 RMK AO2 T10281083
04850KAOH AOH20160123173011101/23/16 17:30:31  5-MIN KAOH 232230Z AUTO 02005KT 10SM CLR M03/M08 A3007 840 68 -1100 030/05 RMK AO2 T10331083
04850KAOH AOH20160123173511101/23/16 17:35:31  5-MIN KAOH 232235Z AUTO 02004KT 10SM CLR M03/M08 A3007 840 68 -1100 030/04 RMK AO2 T10331083
04850KAOH AOH20160123174011101/23/16 17:40:31  5-MIN KAOH 232240Z AUTO 03004KT 10SM CLR M03/M08 A3007 840 68 -1100 030/04 RMK AO2 T10331083
04850KAOH AOH20160123174511101/23/16 17:45:31  5-MIN KAOH 232245Z AUTO 02004KT 10SM CLR M04/M08 A3007 840 71 -1200 020/04 RMK AO2 T10391083
04850KAOH AOH20160123175011801/23/16 17:50:31  5-MIN KAOH 232250Z AUTO 02004KT 10SM CLR M03/M09 A3008 830 65 -1100 020/04 RMK AO2 SLP198 T10331089
04850KAOH AOH20160123175511101/23/16 17:55:31  5-MIN KAOH 232255Z AUTO 03003KT 10SM CLR M04/M09 A3007 840 68 -1200 040/03 RMK AO2 T10391089
04850KAOH AOH20160123180011101/23/16 18:00:31  5-MIN KAOH 232300Z AUTO 03003KT 10SM CLR M04/M09 A3007 840 68 -1200 040/03 RMK AO2 T10391089
04850KAOH AOH20160123180511101/23/16 18:05:31  5-MIN KAOH 232305Z AUTO 03004KT 10SM CLR M03/M09 A3007 840 65 -1100 040/04 RMK AO2 T10331089
04850KAOH AOH20160123181011101/23/16 18:10:31  5-MIN KAOH 232310Z AUTO 04003KT 10SM CLR M03/M09 A3007 840 65 -1100 050/03 RMK AO2 T10331089
04850KAOH AOH20160123181511101/23/16 18:15:31  5-MIN KAOH 232315Z AUTO 04003KT 10SM CLR M04/M09 A3007 840 68 -1200 050/03 RMK AO2 T10391089
04850KAOH AOH20160123182011101/23/16 18:20:31  5-MIN KAOH 232320Z AUTO 00000KT 10SM CLR M03/M09 A3007 840 65 -1100 000/00 RMK AO2 T10331089
04850KAOH AOH20160123182511101/23/16 18:25:31  5-MIN KAOH 232325Z AUTO 33003KT 10SM CLR M04/M09 A3008 830 71 -1300 340/03 RMK AO2 T10441089
04850KAOH AOH20160123183011101/23/16 18:30:31  5-MIN KAOH 232330Z AUTO 34003KT 10SM CLR M04/M09 A3008 830 71 -1300 350/03 RMK AO2 T10441089
04850KAOH AOH20160123183511101/23/16 18:35:31  5-MIN KAOH 232335Z AUTO 34003KT 10SM CLR M05/M09 A3008 830 74 -1300 340/03 RMK AO2 T10501089
04850KAOH AOH20160123184011101/23/16 18:40:31  5-MIN KAOH 232340Z AUTO 00000KT 10SM CLR M06/M09 A3008 830 77 -1400 000/00 RMK AO2 T10561089
04850KAOH AOH20160123184511101/23/16 18:45:31  5-MIN KAOH 232345Z AUTO 31003KT 10SM CLR M06/M09 A3008 830 81 -1500 310/03 RMK AO2 T10611089
04850KAOH AOH20160123185013601/23/16 18:50:31  5-MIN KAOH 232350Z AUTO 00000KT 10SM CLR M06/M09 A3008 830 77 -1400 000/00 RMK AO2 SLP202 T10561089 11017 21061 56004
04850KAOH AOH20160123185511101/23/16 18:55:31  5-MIN KAOH 232355Z AUTO 31003KT 10SM CLR M06/M09 A3009 820 81 -1500 320/03 RMK AO2 T10611089
04850KAOH AOH20160123190011101/23/16 19:00:31  5-MIN KAOH 240000Z AUTO 30003KT 10SM CLR M07/M09 A3009 820 81 -1600 310/03 RMK AO2 T10671094
04850KAOH AOH20160123190511101/23/16 19:05:31  5-MIN KAOH 240005Z AUTO 30003KT 10SM CLR M07/M09 A3009 820 81 -1600 310/03 RMK AO2 T10671094
04850KAOH AOH20160123191011101/23/16 19:10:31  5-MIN KAOH 240010Z AUTO 29003KT 10SM CLR M06/M09 A3009 820 74 -1400 300/03 RMK AO2 T10561094
04850KAOH AOH20160123191511101/23/16 19:15:31  5-MIN KAOH 240015Z AUTO 29003KT 10SM CLR M06/M09 A3009 820 77 -1500 300/03 RMK AO2 T10611094
04850KAOH AOH20160123192011101/23/16 19:20:31  5-MIN KAOH 240020Z AUTO 00000KT 10SM CLR M06/M10 A3009 820 74 -1500 000/00 RMK AO2 T10611100
04850KAOH AOH20160123192511101/23/16 19:25:31  5-MIN KAOH 240025Z AUTO 00000KT 10SM CLR M06/M10 A3009 820 74 -1500 000/00 RMK AO2 T10611100
04850KAOH AOH20160123193011101/23/16 19:30:31  5-MIN KAOH 240030Z AUTO 00000KT 10SM CLR M06/M10 A3009 820 71 -1400 000/00 RMK AO2 T10561100
04850KAOH AOH20160123193511101/23/16 19:35:31  5-MIN KAOH 240035Z AUTO 00000KT 10SM CLR M06/M09 A3009 820 74 -1400 000/00 RMK AO2 T10561094
04850KAOH AOH20160123194011101/23/16 19:40:31  5-MIN KAOH 240040Z AUTO 00000KT 10SM CLR M06/M09 A3009 820 77 -1500 000/00 RMK AO2 T10611094
04850KAOH AOH20160123194511101/23/16 19:45:31  5-MIN KAOH 240045Z AUTO 00000KT 10SM CLR M07/M10 A3009 820 77 -1600 000/00 RMK AO2 T10671100
04850KAOH AOH20160123195011801/23/16 19:50:31  5-MIN KAOH 240050Z AUTO 00000KT 10SM CLR M06/M09 A3009 820 77 -1500 000/00 RMK AO2 SLP205 T10611094
04850KAOH AOH20160123195511101/23/16 19:55:31  5-MIN KAOH 240055Z AUTO 00000KT 10SM CLR M06/M09 A3009 820 74 -1400 000/00 RMK AO2 T10561094
04850KAOH AOH20160123200011101/23/16 20:00:31  5-MIN KAOH 240100Z AUTO 00000KT 10SM CLR M05/M09 A3009 820 71 -1400 000/00 RMK AO2 T10501094
04850KAOH AOH20160123200511101/23/16 20:05:31  5-MIN KAOH 240105Z AUTO 00000KT 10SM CLR M06/M09 A3009 820 74 -1400 000/00 RMK AO2 T10561094
04850KAOH AOH20160123201011101/23/16 20:10:31  5-MIN KAOH 240110Z AUTO 00000KT 10SM CLR M06/M10 A3009 820 74 -1500 000/00 RMK AO2 T10611100
04850KAOH AOH20160123201511101/23/16 20:15:31  5-MIN KAOH 240115Z AUTO 00000KT 10SM CLR M07/M10 A3009 820 77 -1600 000/00 RMK AO2 T10671100
04850KAOH AOH20160123202011101/23/16 20:20:31  5-MIN KAOH 240120Z AUTO 00000KT 10SM CLR M06/M09 A3009 820 77 -1500 000/00 RMK AO2 T10611094
04850KAOH AOH20160123202511101/23/16 20:25:31  5-MIN KAOH 240125Z AUTO 00000KT 10SM CLR M07/M10 A3009 820 77 -1600 000/00 RMK AO2 T10671100
04850KAOH AOH20160123203011101/23/16 20:30:31  5-MIN KAOH 240130Z AUTO 00000KT 10SM CLR M07/M10 A3009 820 77 -1600 000/00 RMK AO2 T10671100
04850KAOH AOH20160123203511101/23/16 20:35:31  5-MIN KAOH 240135Z AUTO 00000KT 10SM CLR M07/M10 A3009 820 77 -1600 000/00 RMK AO2 T10671100
04850KAOH AOH20160123204011101/23/16 20:40:31  5-MIN KAOH 240140Z AUTO 00000KT 10SM CLR M07/M10 A3009 820 77 -1600 000/00 RMK AO2 T10671100
04850KAOH AOH20160123204511101/23/16 20:45:31  5-MIN KAOH 240145Z AUTO 00000KT 10SM CLR M07/M10 A3009 820 77 -1600 000/00 RMK AO2 T10671100
04850KAOH AOH20160123205011801/23/16 20:50:31  5-MIN KAOH 240150Z AUTO 00000KT 10SM CLR M08/M11 A3009 820 80 -1700 000/00 RMK AO2 SLP205 T10781106
04850KAOH AOH20160123205511101/23/16 20:55:31  5-MIN KAOH 240155Z AUTO 00000KT 10SM CLR M08/M11 A3009 820 80 -1700 000/00 RMK AO2 T10781106
04850KAOH AOH20160123210011101/23/16 21:00:31  5-MIN KAOH 240200Z AUTO 12003KT 10SM CLR M08/M11 A3009 820 80 -1700 130/03 RMK AO2 T10781106
04850KAOH AOH20160123210511101/23/16 21:05:31  5-MIN KAOH 240205Z AUTO 00000KT 10SM CLR M08/M11 A3009 820 84 -1800 000/00 RMK AO2 T10831106
04850KAOH AOH20160123211011101/23/16 21:10:31  5-MIN KAOH 240210Z AUTO 00000KT 10SM CLR M07/M11 A3009 820 77 -1600 000/00 RMK AO2 T10721106
04850KAOH AOH20160123211511101/23/16 21:15:31  5-MIN KAOH 240215Z AUTO 16003KT 10SM CLR M08/M11 A3009 820 80 -1700 160/03 RMK AO2 T10781106
04850KAOH AOH20160123212011101/23/16 21:20:31  5-MIN KAOH 240220Z AUTO 15003KT 10SM CLR M08/M11 A3009 820 80 -1700 160/03 RMK AO2 T10781106
04850KAOH AOH20160123212511101/23/16 21:25:31  5-MIN KAOH 240225Z AUTO 15003KT 10SM CLR M08/M10 A3009 820 84 -1700 150/03 RMK AO2 T10781100
04850KAOH AOH20160123213011101/23/16 21:30:31  5-MIN KAOH 240230Z AUTO 16004KT 10SM CLR M08/M10 A3009 820 84 -1700 160/04 RMK AO2 T10781100
04850KAOH AOH20160123213511101/23/16 21:35:31  5-MIN KAOH 240235Z AUTO 16005KT 10SM CLR M08/M11 A3009 830 80 -1700 160/05 RMK AO2 T10781106
04850KAOH AOH20160123214011101/23/16 21:40:31  5-MIN KAOH 240240Z AUTO 16005KT 10SM CLR M08/M10 A3009 830 84 -1700 170/05 RMK AO2 T10781100
04850KAOH AOH20160123214511101/23/16 21:45:31  5-MIN KAOH 240245Z AUTO 17005KT 10SM CLR M08/M11 A3009 820 80 -1700 170/05 RMK AO2 T10781106
04850KAOH AOH20160123215012401/23/16 21:50:31  5-MIN KAOH 240250Z AUTO 18004KT 10SM CLR M08/M11 A3009 820 80 -1700 180/04 RMK AO2 SLP205 T10781106 51013
04850KAOH AOH20160123215511101/23/16 21:55:31  5-MIN KAOH 240255Z AUTO 18004KT 10SM CLR M09/M11 A3009 820 88 -1900 190/04 RMK AO2 T10891106
04850KAOH AOH20160123220011101/23/16 22:00:31  5-MIN KAOH 240300Z AUTO 18004KT 10SM CLR M08/M11 A3009 820 80 -1700 180/04 RMK AO2 T10781106
04850KAOH AOH20160123220511101/23/16 22:05:31  5-MIN KAOH 240305Z AUTO 17004KT 10SM CLR M08/M10 A3008 830 84 -1700 170/04 RMK AO2 T10781100
04850KAOH AOH20160123221011101/23/16 22:10:31  5-MIN KAOH 240310Z AUTO 17005KT 10SM CLR M08/M10 A3008 830 84 -1700 170/05 RMK AO2 T10781100
04850KAOH AOH20160123221511101/23/16 22:15:31  5-MIN KAOH 240315Z AUTO 17005KT 10SM CLR M08/M10 A3008 830 84 -1700 170/05 RMK AO2 T10781100
04850KAOH AOH20160123222011101/23/16 22:20:31  5-MIN KAOH 240320Z AUTO 18005KT 10SM CLR M07/M10 A3009 820 81 -1600 180/05 RMK AO2 T10721100
04850KAOH AOH20160123222511101/23/16 22:25:31  5-MIN KAOH 240325Z AUTO 17003KT 10SM CLR M07/M10 A3008 830 81 -1600 180/03 RMK AO2 T10721100
04850KAOH AOH20160123223011101/23/16 22:30:31  5-MIN KAOH 240330Z AUTO 00000KT 10SM CLR M08/M10 A3008 830 84 -1700 000/00 RMK AO2 T10781100
04850KAOH AOH20160123223511101/23/16 22:35:31  5-MIN KAOH 240335Z AUTO 00000KT 10SM CLR M07/M10 A3008 830 81 -1600 000/00 RMK AO2 T10721100
04850KAOH AOH20160123224011101/23/16 22:40:31  5-MIN KAOH 240340Z AUTO 00000KT 10SM CLR M07/M10 A3008 830 81 -1600 000/00 RMK AO2 T10721100
04850KAOH AOH20160123224511101/23/16 22:45:31  5-MIN KAOH 240345Z AUTO 18003KT 10SM CLR M07/M10 A3008 830 81 -1600 180/03 RMK AO2 T10721100
04850KAOH AOH20160123225011801/23/16 22:50:31  5-MIN KAOH 240350Z AUTO 18003KT 10SM CLR M07/M10 A3008 830 81 -1600 190/03 RMK AO2 SLP200 T10721100
04850KAOH AOH20160123225511101/23/16 22:55:31  5-MIN KAOH 240355Z AUTO 19004KT 10SM CLR M07/M10 A3008 830 81 -1600 190/04 RMK AO2 T10721100
04850KAOH AOH20160123230011101/23/16 23:00:31  5-MIN KAOH 240400Z AUTO 19004KT 10SM CLR M07/M10 A3008 830 81 -1600 200/04 RMK AO2 T10721100
04850KAOH AOH20160123230511101/23/16 23:05:31  5-MIN KAOH 240405Z AUTO 00000KT 10SM CLR M07/M10 A3008 830 81 -1600 000/00 RMK AO2 T10721100
04850KAOH AOH20160123231011101/23/16 23:10:31  5-MIN KAOH 240410Z AUTO 00000KT 10SM CLR M07/M09 A3007 830 84 -1600 000/00 RMK AO2 T10721094
04850KAOH AOH20160123231511001/23/16 23:15:31  5-MIN KAOH 240415Z AUTO 00000KT 9SM CLR M07/M09 A3008 830 84 -1600 000/00 RMK AO2 T10721094
04850KAOH AOH20160123232011001/23/16 23:20:31  5-MIN KAOH 240420Z AUTO 00000KT 9SM CLR M07/M09 A3008 830 81 -1600 000/00 RMK AO2 T10671094
04850KAOH AOH20160123232511001/23/16 23:25:31  5-MIN KAOH 240425Z AUTO 00000KT 9SM CLR M07/M09 A3008 830 81 -1600 000/00 RMK AO2 T10671094
04850KAOH AOH20160123233011001/23/16 23:30:31  5-MIN KAOH 240430Z AUTO 00000KT 9SM CLR M07/M09 A3007 830 81 -1600 000/00 RMK AO2 T10671094
04850KAOH AOH20160123233511101/23/16 23:35:31  5-MIN KAOH 240435Z AUTO 18004KT 10SM CLR M07/M09 A3007 840 81 -1600 190/04 RMK AO2 T10671094
04850KAOH AOH20160123234011101/23/16 23:40:31  5-MIN KAOH 240440Z AUTO 19004KT 10SM CLR M07/M10 A3007 840 81 -1600 200/04 RMK AO2 T10721100
04850KAOH AOH20160123234511101/23/16 23:45:31  5-MIN KAOH 240445Z AUTO 21003KT 10SM CLR M07/M10 A3007 840 81 -1600 210/03 RMK AO2 T10721100
04850KAOH AOH20160123235012801/23/16 23:50:31  5-MIN KAOH 240450Z AUTO 19003KT 10SM CLR M07/M10 A3007 840 77 -1500 190/03 RMK AO2 SLP196 T10671100 410171089
04850KAOH AOH20160123235511101/23/16 23:55:31  5-MIN KAOH 240455Z AUTO 18003KT 10SM CLR M07/M10 A3007 840 81 -1600 190/03 RMK AO2 T10721100
04850KAOH AOH20160124000011101/24/16 00:00:31  5-MIN KAOH 240500Z AUTO 19003KT 10SM CLR M08/M10 A3007 840 84 -1700 200/03 RMK AO2 T10781100
04850KAOH AOH20160124000511101/24/16 00:05:31  5-MIN KAOH 240505Z AUTO 00000KT 10SM CLR M07/M10 A3006 840 81 -1600 000/00 RMK AO2 T10721100
04850KAOH AOH20160124001011101/24/16 00:10:31  5-MIN KAOH 240510Z AUTO 18005KT 10SM CLR M08/M11 A3006 850 80 -1700 180/05 RMK AO2 T10781106
04850KAOH AOH20160124001511101/24/16 00:15:31  5-MIN KAOH 240515Z AUTO 19005KT 10SM CLR M08/M11 A3006 850 84 -1800 200/05 RMK AO2 T10831106
04850KAOH AOH20160124002011101/24/16 00:20:31  5-MIN KAOH 240520Z AUTO 19005KT 10SM CLR M08/M10 A3006 850 88 -1800 190/05 RMK AO2 T10831100
04850KAOH AOH20160124002511101/24/16 00:25:31  5-MIN KAOH 240525Z AUTO 19005KT 10SM CLR M08/M10 A3007 840 88 -1800 200/05 RMK AO2 T10831100
04850KAOH AOH20160124003011101/24/16 00:30:31  5-MIN KAOH 240530Z AUTO 20004KT 10SM CLR M08/M10 A3007 840 88 -1800 210/04 RMK AO2 T10831100
04850KAOH AOH20160124003511101/24/16 00:35:31  5-MIN KAOH 240535Z AUTO 21005KT 10SM CLR M08/M10 A3007 840 88 -1800 220/05 RMK AO2 T10831100
04850KAOH AOH20160124004011101/24/16 00:40:31  5-MIN KAOH 240540Z AUTO 22005KT 10SM CLR M08/M11 A3007 840 80 -1700 230/05 RMK AO2 T10781106
04850KAOH AOH20160124004511101/24/16 00:45:31  5-MIN KAOH 240545Z AUTO 22005KT 10SM CLR M08/M11 A3007 840 80 -1700 230/05 RMK AO2 T10781106
04850KAOH AOH20160124005013601/24/16 00:50:31  5-MIN KAOH 240550Z AUTO 22004KT 10SM CLR M08/M11 A3007 840 84 -1800 230/04 RMK AO2 SLP198 T10831106 11050 21089 50001
04850KAOH AOH20160124005511101/24/16 00:55:31  5-MIN KAOH 240555Z AUTO 23005KT 10SM CLR M08/M11 A3007 840 84 -1800 230/05 RMK AO2 T10831106
04850KAOH AOH20160124010011101/24/16 01:00:31  5-MIN KAOH 240600Z AUTO 22005KT 10SM CLR M07/M10 A3007 840 81 -1600 220/05 RMK AO2 T10721100
04850KAOH AOH20160124010511101/24/16 01:05:31  5-MIN KAOH 240605Z AUTO 22004KT 10SM CLR M07/M09 A3007 840 84 -1600 230/04 RMK AO2 T10721094
04850KAOH AOH20160124011011101/24/16 01:10:31  5-MIN KAOH 240610Z AUTO 23004KT 10SM CLR M07/M10 A3007 840 81 -1600 230/04 RMK AO2 T10721100
04850KAOH AOH20160124011511101/24/16 01:15:31  5-MIN KAOH 240615Z AUTO 23005KT 10SM CLR M07/M10 A3007 840 81 -1600 240/05 RMK AO2 T10721100
04850KAOH AOH20160124012011101/24/16 01:20:31  5-MIN KAOH 240620Z AUTO 22003KT 10SM CLR M07/M10 A3007 840 81 -1600 230/03 RMK AO2 T10721100
04850KAOH AOH20160124012511101/24/16 01:25:31  5-MIN KAOH 240625Z AUTO 23003KT 10SM CLR M07/M10 A3007 840 81 -1600 230/03 RMK AO2 T10721100
04850KAOH AOH20160124013011101/24/16 01:30:31  5-MIN KAOH 240630Z AUTO 00000KT 10SM CLR M08/M11 A3007 840 80 -1700 000/00 RMK AO2 T10781106
04850KAOH AOH20160124013511101/24/16 01:35:31  5-MIN KAOH 240635Z AUTO 22003KT 10SM CLR M08/M11 A3007 840 80 -1700 220/03 RMK AO2 T10781106
04850KAOH AOH20160124014011101/24/16 01:40:31  5-MIN KAOH 240640Z AUTO 00000KT 10SM CLR M08/M11 A3007 840 84 -1800 000/00 RMK AO2 T10831106
04850KAOH AOH20160124014511101/24/16 01:45:31  5-MIN KAOH 240645Z AUTO 17003KT 10SM CLR M09/M11 A3007 840 84 -1800 180/03 RMK AO2 T10891111
04850KAOH AOH20160124015011801/24/16 01:50:31  5-MIN KAOH 240650Z AUTO 18003KT 10SM CLR M09/M11 A3006 840 84 -1800 190/03 RMK AO2 SLP196 T10891111
04850KAOH AOH20160124015511101/24/16 01:55:31  5-MIN KAOH 240655Z AUTO 19004KT 10SM CLR M09/M11 A3006 840 88 -1800 190/04 RMK AO2 T10891106
04850KAOH AOH20160124020011101/24/16 02:00:31  5-MIN KAOH 240700Z AUTO 19004KT 10SM CLR M08/M11 A3007 840 84 -1800 190/04 RMK AO2 T10831106
04850KAOH AOH20160124020511101/24/16 02:05:31  5-MIN KAOH 240705Z AUTO 20004KT 10SM CLR M08/M11 A3007 840 84 -1800 200/04 RMK AO2 T10831106
04850KAOH AOH20160124021011001/24/16 02:10:31  5-MIN KAOH 240710Z AUTO 19005KT 9SM CLR M08/M11 A3006 840 84 -1800 200/05 RMK AO2 T10831106
04850KAOH AOH20160124021511001/24/16 02:15:31  5-MIN KAOH 240715Z AUTO 19005KT 9SM CLR M08/M10 A3006 840 84 -1700 200/05 RMK AO2 T10781100
04850KAOH AOH20160124022011101/24/16 02:20:31  5-MIN KAOH 240720Z AUTO 19004KT 10SM CLR M08/M10 A3006 840 84 -1700 200/04 RMK AO2 T10781100
04850KAOH AOH20160124022511101/24/16 02:25:31  5-MIN KAOH 240725Z AUTO 19004KT 10SM CLR M08/M10 A3006 840 88 -1800 190/04 RMK AO2 T10831100
04850KAOH AOH20160124023011101/24/16 02:30:31  5-MIN KAOH 240730Z AUTO 19004KT 10SM CLR M08/M10 A3007 840 88 -1800 200/04 RMK AO2 T10831100
04850KAOH AOH20160124023511101/24/16 02:35:31  5-MIN KAOH 240735Z AUTO 20004KT 10SM CLR M08/M11 A3007 840 84 -1800 210/04 RMK AO2 T10831106
04850KAOH AOH20160124024011101/24/16 02:40:31  5-MIN KAOH 240740Z AUTO 21004KT 10SM CLR M08/M10 A3007 840 88 -1800 220/04 RMK AO2 T10831100
04850KAOH AOH20160124024511101/24/16 02:45:31  5-MIN KAOH 240745Z AUTO 20004KT 10SM CLR M08/M10 A3007 840 88 -1800 210/04 RMK AO2 T10831100
04850KAOH AOH20160124025011801/24/16 02:50:31  5-MIN KAOH 240750Z AUTO 21004KT 10SM CLR M08/M10 A3008 830 84 -1700 220/04 RMK AO2 SLP199 T10781100
04850KAOH AOH20160124025511101/24/16 02:55:31  5-MIN KAOH 240755Z AUTO 20004KT 10SM CLR M08/M10 A3007 840 88 -1800 210/04 RMK AO2 T10831100
04850KAOH AOH20160124030011101/24/16 03:00:31  5-MIN KAOH 240800Z AUTO 21005KT 10SM CLR M08/M10 A3008 830 84 -1700 210/05 RMK AO2 T10781100
04850KAOH AOH20160124030511101/24/16 03:05:31  5-MIN KAOH 240805Z AUTO 20005KT 10SM CLR M08/M10 A3008 830 84 -1700 210/05 RMK AO2 T10781100
04850KAOH AOH20160124031011101/24/16 03:10:31  5-MIN KAOH 240810Z AUTO 20005KT 10SM CLR M08/M10 A3008 830 84 -1700 210/05 RMK AO2 T10781100
04850KAOH AOH20160124031511101/24/16 03:15:31  5-MIN KAOH 240815Z AUTO 20006KT 10SM CLR M08/M10 A3007 840 84 -1700 210/06 RMK AO2 T10781100
04850KAOH AOH20160124032011101/24/16 03:20:31  5-MIN KAOH 240820Z AUTO 20006KT 10SM CLR M08/M10 A3007 840 84 -1700 210/06 RMK AO2 T10781100
04850KAOH AOH20160124032511101/24/16 03:25:31  5-MIN KAOH 240825Z AUTO 21006KT 10SM CLR M08/M09 A3007 840 88 -1700 210/06 RMK AO2 T10781094
04850KAOH AOH20160124033011101/24/16 03:30:31  5-MIN KAOH 240830Z AUTO 21006KT 10SM CLR M08/M10 A3007 840 84 -1700 210/06 RMK AO2 T10781100
04850KAOH AOH20160124033511101/24/16 03:35:31  5-MIN KAOH 240835Z AUTO 21006KT 10SM CLR M08/M09 A3007 840 88 -1700 220/06 RMK AO2 T10781094
04850KAOH AOH20160124034011101/24/16 03:40:31  5-MIN KAOH 240840Z AUTO 21006KT 10SM CLR M08/M09 A3007 840 88 -1700 220/06 RMK AO2 T10781094
04850KAOH AOH20160124034511101/24/16 03:45:31  5-MIN KAOH 240845Z AUTO 22006KT 10SM CLR M08/M09 A3007 840 88 -1700 220/06 RMK AO2 T10781094
04850KAOH AOH20160124035012401/24/16 03:50:31  5-MIN KAOH 240850Z AUTO 22006KT 10SM CLR M08/M09 A3007 840 88 -1700 220/06 RMK AO2 SLP197 T10781094 55005
04850KAOH AOH20160124035511101/24/16 03:55:31  5-MIN KAOH 240855Z AUTO 21006KT 10SM CLR M08/M09 A3007 840 88 -1700 220/06 RMK AO2 T10781094
04850KAOH AOH20160124040011101/24/16 04:00:31  5-MIN KAOH 240900Z AUTO 21006KT 10SM CLR M08/M09 A3007 840 88 -1700 220/06 RMK AO2 T10781094
04850KAOH AOH20160124040511101/24/16 04:05:31  5-MIN KAOH 240905Z AUTO 21006KT 10SM CLR M08/M09 A3007 840 88 -1700 220/06 RMK AO2 T10781094
04850KAOH AOH20160124041011101/24/16 04:10:31  5-MIN KAOH 240910Z AUTO 21006KT 10SM CLR M08/M09 A3007 840 88 -1700 210/06 RMK AO2 T10781094
04850KAOH AOH20160124041511101/24/16 04:15:31  5-MIN KAOH 240915Z AUTO 20005KT 10SM CLR M08/M09 A3007 840 88 -1700 210/05 RMK AO2 T10781094
04850KAOH AOH20160124042011101/24/16 04:20:31  5-MIN KAOH 240920Z AUTO 19005KT 10SM CLR M08/M09 A3007 840 88 -1700 200/05 RMK AO2 T10781094
04850KAOH AOH20160124042511101/24/16 04:25:31  5-MIN KAOH 240925Z AUTO 19005KT 10SM CLR M08/M10 A3007 840 88 -1800 200/05 RMK AO2 T10831100
04850KAOH AOH20160124043011101/24/16 04:30:31  5-MIN KAOH 240930Z AUTO 19005KT 10SM CLR M08/M10 A3006 840 88 -1800 200/05 RMK AO2 T10831100
04850KAOH AOH20160124043511001/24/16 04:35:31  5-MIN KAOH 240935Z AUTO 19005KT 9SM CLR M08/M10 A3006 850 88 -1800 190/05 RMK AO2 T10831100
04850KAOH AOH20160124044011001/24/16 04:40:31  5-MIN KAOH 240940Z AUTO 19006KT 9SM CLR M08/M10 A3006 850 88 -1800 190/06 RMK AO2 T10831100
04850KAOH AOH20160124044511001/24/16 04:45:31  5-MIN KAOH 240945Z AUTO 19006KT 9SM CLR M08/M10 A3006 850 88 -1800 190/06 RMK AO2 T10831100
04850KAOH AOH20160124045011701/24/16 04:50:31  5-MIN KAOH 240950Z AUTO 19006KT 9SM CLR M08/M10 A3006 850 88 -1800 200/06 RMK AO2 SLP194 T10831100
04850KAOH AOH20160124045511001/24/16 04:55:31  5-MIN KAOH 240955Z AUTO 20005KT 9SM CLR M08/M10 A3006 850 88 -1800 200/05 RMK AO2 T10831100
04850KAOH AOH20160124050011001/24/16 05:00:31  5-MIN KAOH 241000Z AUTO 20005KT 9SM CLR M08/M10 A3006 840 88 -1800 200/05 RMK AO2 T10831100
04850KAOH AOH20160124050511001/24/16 05:05:31  5-MIN KAOH 241005Z AUTO 21005KT 9SM CLR M08/M10 A3007 840 88 -1800 210/05 RMK AO2 T10831100
04850KAOH AOH20160124051011001/24/16 05:10:31  5-MIN KAOH 241010Z AUTO 21005KT 9SM CLR M08/M10 A3007 840 88 -1800 210/05 RMK AO2 T10831100
04850KAOH AOH20160124051511001/24/16 05:15:31  5-MIN KAOH 241015Z AUTO 21005KT 9SM CLR M08/M10 A3007 840 84 -1700 220/05 RMK AO2 T10781100
04850KAOH AOH20160124052011001/24/16 05:20:31  5-MIN KAOH 241020Z AUTO 20005KT 9SM CLR M08/M10 A3006 850 88 -1800 210/05 RMK AO2 T10831100
04850KAOH AOH20160124052511001/24/16 05:25:31  5-MIN KAOH 241025Z AUTO 21005KT 9SM CLR M08/M10 A3006 850 84 -1700 210/05 RMK AO2 T10781100
04850KAOH AOH20160124053011001/24/16 05:30:31  5-MIN KAOH 241030Z AUTO 21005KT 9SM CLR M08/M10 A3006 850 88 -1800 210/05 RMK AO2 T10831100
04850KAOH AOH20160124053511001/24/16 05:35:31  5-MIN KAOH 241035Z AUTO 22006KT 9SM CLR M08/M10 A3006 840 84 -1700 220/06 RMK AO2 T10781100
04850KAOH AOH20160124054011001/24/16 05:40:31  5-MIN KAOH 241040Z AUTO 21007KT 9SM CLR M08/M09 A3007 840 88 -1700 220/07 RMK AO2 T10781094
04850KAOH AOH20160124054511001/24/16 05:45:31  5-MIN KAOH 241045Z AUTO 21006KT 9SM CLR M08/M10 A3007 840 84 -1700 220/06 RMK AO2 T10781100
04850KAOH AOH20160124055011701/24/16 05:50:31  5-MIN KAOH 241050Z AUTO 21006KT 9SM CLR M08/M10 A3007 840 84 -1700 220/06 RMK AO2 SLP196 T10781100
04850KAOH AOH20160124055511001/24/16 05:55:31  5-MIN KAOH 241055Z AUTO 21006KT 9SM CLR M08/M10 A3007 840 84 -1700 220/06 RMK AO2 T10781100
04850KAOH AOH20160124060011001/24/16 06:00:31  5-MIN KAOH 241100Z AUTO 21006KT 9SM CLR M08/M10 A3007 840 84 -1700 210/06 RMK AO2 T10781100
04850KAOH AOH20160124060511001/24/16 06:05:31  5-MIN KAOH 241105Z AUTO 21006KT 9SM CLR M08/M10 A3007 840 88 -1800 210/06 RMK AO2 T10831100
04850KAOH AOH20160124061011001/24/16 06:10:31  5-MIN KAOH 241110Z AUTO 21006KT 9SM CLR M08/M09 A3007 840 88 -1700 210/06 RMK AO2 T10781094
04850KAOH AOH20160124061511001/24/16 06:15:31  5-MIN KAOH 241115Z AUTO 20006KT 9SM CLR M08/M09 A3007 840 88 -1700 210/06 RMK AO2 T10781094
04850KAOH AOH20160124062011001/24/16 06:20:31  5-MIN KAOH 241120Z AUTO 20006KT 9SM CLR M08/M09 A3007 840 88 -1700 200/06 RMK AO2 T10781094
04850KAOH AOH20160124062511001/24/16 06:25:31  5-MIN KAOH 241125Z AUTO 20006KT 9SM CLR M08/M09 A3007 840 88 -1700 200/06 RMK AO2 T10781094
04850KAOH AOH20160124063011001/24/16 06:30:31  5-MIN KAOH 241130Z AUTO 20006KT 9SM CLR M07/M09 A3008 830 84 -1600 210/06 RMK AO2 T10721094
04850KAOH AOH20160124063511001/24/16 06:35:31  5-MIN KAOH 241135Z AUTO 20007KT 9SM CLR M08/M09 A3007 840 88 -1700 210/07 RMK AO2 T10781094
04850KAOH AOH20160124064011001/24/16 06:40:31  5-MIN KAOH 241140Z AUTO 20007KT 9SM CLR M07/M09 A3007 840 84 -1600 210/07 RMK AO2 T10721094
04850KAOH AOH20160124064511001/24/16 06:45:31  5-MIN KAOH 241145Z AUTO 21006KT 9SM CLR M07/M09 A3007 830 84 -1600 210/06 RMK AO2 T10721094
04850KAOH AOH20160124065013501/24/16 06:50:31  5-MIN KAOH 241150Z AUTO 21006KT 9SM CLR M07/M09 A3008 830 84 -1600 220/06 RMK AO2 SLP199 T10721094 11072 21089 56001
04850KAOH AOH20160124065511001/24/16 06:55:31  5-MIN KAOH 241155Z AUTO 21006KT 9SM CLR M07/M09 A3008 830 84 -1600 220/06 RMK AO2 T10721094
04850KAOH AOH20160124070011001/24/16 07:00:31  5-MIN KAOH 241200Z AUTO 21006KT 9SM CLR M07/M09 A3008 830 84 -1600 220/06 RMK AO2 T10721094
04850KAOH AOH20160124070511001/24/16 07:05:31  5-MIN KAOH 241205Z AUTO 21007KT 9SM CLR M07/M09 A3008 830 84 -1600 220/07 RMK AO2 T10721094
04850KAOH AOH20160124071011001/24/16 07:10:31  5-MIN KAOH 241210Z AUTO 20006KT 9SM CLR M07/M09 A3008 830 84 -1600 210/06 RMK AO2 T10721094
04850KAOH AOH20160124071511001/24/16 07:15:31  5-MIN KAOH 241215Z AUTO 21006KT 9SM CLR M07/M09 A3008 830 84 -1600 220/06 RMK AO2 T10721094
04850KAOH AOH20160124072011001/24/16 07:20:31  5-MIN KAOH 241220Z AUTO 21007KT 9SM CLR M07/M09 A3008 830 84 -1600 220/07 RMK AO2 T10721094
04850KAOH AOH20160124072511001/24/16 07:25:31  5-MIN KAOH 241225Z AUTO 21006KT 9SM CLR M08/M09 A3008 830 88 -1700 210/06 RMK AO2 T10781094
04850KAOH AOH20160124073011001/24/16 07:30:31  5-MIN KAOH 241230Z AUTO 21007KT 8SM CLR M08/M09 A3008 830 88 -1700 210/07 RMK AO2 T10781094
04850KAOH AOH20160124073511001/24/16 07:35:31  5-MIN KAOH 241235Z AUTO 20006KT 8SM CLR M08/M09 A3009 830 88 -1700 210/06 RMK AO2 T10781094
04850KAOH AOH20160124074011001/24/16 07:40:31  5-MIN KAOH 241240Z AUTO 20006KT 8SM CLR M08/M09 A3008 830 88 -1700 210/06 RMK AO2 T10781094
04850KAOH AOH20160124074511001/24/16 07:45:31  5-MIN KAOH 241245Z AUTO 20007KT 8SM CLR M07/M09 A3008 830 84 -1600 210/07 RMK AO2 T10721094
04850KAOH AOH20160124075011701/24/16 07:50:31  5-MIN KAOH 241250Z AUTO 20008KT 7SM CLR M07/M09 A3008 830 88 -1600 210/08 RMK AO2 SLP203 T10721089
04850KAOH AOH20160124075511301/24/16 07:55:31  5-MIN KAOH 241255Z AUTO 20008KT 6SM BR CLR M07/M09 A3009 820 88 -1600 210/08 RMK AO2 T10721089
04850KAOH AOH20160124080011301/24/16 08:00:31  5-MIN KAOH 241300Z AUTO 20008KT 6SM BR CLR M07/M09 A3008 830 88 -1600 200/08 RMK AO2 T10721089
04850KAOH AOH20160124080511301/24/16 08:05:31  5-MIN KAOH 241305Z AUTO 20008KT 6SM BR CLR M07/M09 A3008 830 88 -1600 210/08 RMK AO2 T10721089
04850KAOH AOH20160124081011301/24/16 08:10:31  5-MIN KAOH 241310Z AUTO 20009KT 5SM BR CLR M07/M09 A3009 830 88 -1600 210/09 RMK AO2 T10721089
04850KAOH AOH20160124081511301/24/16 08:15:31  5-MIN KAOH 241315Z AUTO 21008KT 5SM BR CLR M07/M08 A3009 820 92 -1600 210/08 RMK AO2 T10721083
04850KAOH AOH20160124082011301/24/16 08:20:31  5-MIN KAOH 241320Z AUTO 21007KT 4SM BR CLR M07/M08 A3009 820 92 -1600 210/07 RMK AO2 T10721083
04850KAOH AOH20160124082511301/24/16 08:25:31  5-MIN KAOH 241325Z AUTO 21007KT 4SM BR CLR M07/M08 A3009 830 88 -1600 210/07 RMK AO2 T10671083
04850KAOH AOH20160124083011301/24/16 08:30:31  5-MIN KAOH 241330Z AUTO 20008KT 4SM BR CLR M07/M08 A3009 830 88 -1600 210/08 RMK AO2 T10671083
04850KAOH AOH20160124083511301/24/16 08:35:31  5-MIN KAOH 241335Z AUTO 20007KT 4SM BR CLR M07/M08 A3009 820 88 -1600 210/07 RMK AO2 T10671083
04850KAOH AOH20160124084011301/24/16 08:40:31  5-MIN KAOH 241340Z AUTO 21009KT 4SM BR CLR M07/M08 A3009 820 88 -1600 210/09 RMK AO2 T10671083
04850KAOH AOH20160124084511301/24/16 08:45:31  5-MIN KAOH 241345Z AUTO 21008KT 4SM BR CLR M07/M08 A3009 820 92 -1600 210/08 RMK AO2 T10671078
04850KAOH AOH20160124085012001/24/16 08:50:31  5-MIN KAOH 241350Z AUTO 20008KT 4SM BR CLR M07/M08 A3009 820 92 -1600 210/08 RMK AO2 SLP205 T10671078
04850KAOH AOH20160124085511301/24/16 08:55:31  5-MIN KAOH 241355Z AUTO 21007KT 4SM BR CLR M07/M08 A3009 820 92 -1600 210/07 RMK AO2 T10671078
04850KAOH AOH20160124090011301/24/16 09:00:31  5-MIN KAOH 241400Z AUTO 21007KT 4SM BR CLR M07/M08 A3009 820 92 -1600 210/07 RMK AO2 T10671078
04850KAOH AOH20160124090511301/24/16 09:05:31  5-MIN KAOH 241405Z AUTO 21008KT 4SM BR CLR M07/M08 A3009 820 92 -1600 210/08 RMK AO2 T10671078
04850KAOH AOH20160124091011301/24/16 09:10:31  5-MIN KAOH 241410Z AUTO 21008KT 4SM BR CLR M07/M08 A3009 820 92 -1600 210/08 RMK AO2 T10671078
04850KAOH AOH20160124091511301/24/16 09:15:31  5-MIN KAOH 241415Z AUTO 20008KT 4SM BR CLR M06/M08 A3009 820 88 -1500 210/08 RMK AO2 T10611078
04850KAOH AOH20160124092011301/24/16 09:20:31  5-MIN KAOH 241420Z AUTO 20009KT 4SM BR CLR M06/M07 A3009 820 92 -1500 200/09 RMK AO2 T10611072
04850KAOH AOH20160124092511301/24/16 09:25:31  5-MIN KAOH 241425Z AUTO 20008KT 4SM BR CLR M06/M07 A3009 820 92 -1500 210/08 RMK AO2 T10611072
04850KAOH AOH20160124093011301/24/16 09:30:31  5-MIN KAOH 241430Z AUTO 19007KT 4SM BR CLR M06/M07 A3009 820 88 -1400 190/07 RMK AO2 T10561072
04850KAOH AOH20160124093511301/24/16 09:35:31  5-MIN KAOH 241435Z AUTO 20007KT 4SM BR CLR M06/M07 A3009 820 88 -1400 200/07 RMK AO2 T10561072
04850KAOH AOH20160124094011301/24/16 09:40:31  5-MIN KAOH 241440Z AUTO 19007KT 4SM BR CLR M06/M07 A3009 820 88 -1400 200/07 RMK AO2 T10561072
04850KAOH AOH20160124094511301/24/16 09:45:31  5-MIN KAOH 241445Z AUTO 20009KT 4SM BR CLR M06/M07 A3009 820 88 -1400 200/09 RMK AO2 T10561072
04850KAOH AOH20160124095012601/24/16 09:50:31  5-MIN KAOH 241450Z AUTO 20008KT 5SM BR CLR M06/M07 A3009 820 88 -1400 200/08 RMK AO2 SLP205 T10561072 53002
04850KAOH AOH20160124095511301/24/16 09:55:31  5-MIN KAOH 241455Z AUTO 20008KT 5SM BR CLR M05/M07 A3009 820 88 -1400 210/08 RMK AO2 T10501067
04850KAOH AOH20160124100011301/24/16 10:00:31  5-MIN KAOH 241500Z AUTO 20009KT 5SM BR CLR M05/M07 A3009 820 88 -1400 210/09 RMK AO2 T10501067
04850KAOH AOH20160124100511301/24/16 10:05:31  5-MIN KAOH 241505Z AUTO 20008KT 5SM BR CLR M05/M07 A3009 820 88 -1400 210/08 RMK AO2 T10501067
04850KAOH AOH20160124101011301/24/16 10:10:31  5-MIN KAOH 241510Z AUTO 21009KT 5SM BR CLR M04/M07 A3009 820 84 -1300 220/09 RMK AO2 T10441067
04850KAOH AOH20160124101511301/24/16 10:15:31  5-MIN KAOH 241515Z AUTO 20009KT 6SM BR CLR M04/M06 A3009 820 85 -1200 210/09 RMK AO2 T10391061
04850KAOH AOH20160124102011301/24/16 10:20:31  5-MIN KAOH 241520Z AUTO 22011KT 6SM HZ CLR M04/M07 A3010 820 81 -1200 220/11 RMK AO2 T10391067
04850KAOH AOH20160124102511001/24/16 10:25:31  5-MIN KAOH 241525Z AUTO 21012KT 7SM CLR M04/M07 A3010 820 81 -1200 220/12 RMK AO2 T10391067
04850KAOH AOH20160124103011001/24/16 10:30:31  5-MIN KAOH 241530Z AUTO 21011KT 7SM CLR M04/M06 A3010 810 85 -1200 210/11 RMK AO2 T10391061
04850KAOH AOH20160124103511001/24/16 10:35:31  5-MIN KAOH 241535Z AUTO 21009KT 7SM CLR M03/M06 A3010 810 81 -1200 210/09 RMK AO2 T10331061
04850KAOH AOH20160124104011001/24/16 10:40:31  5-MIN KAOH 241540Z AUTO 21011KT 8SM CLR M03/M06 A3010 810 78 -1100 220/11 RMK AO2 T10281061
04850KAOH AOH20160124104511001/24/16 10:45:31  5-MIN KAOH 241545Z AUTO 21012KT 8SM CLR M03/M06 A3010 810 81 -1200 220/12 RMK AO2 T10331061
04850KAOH AOH20160124105011701/24/16 10:50:31  5-MIN KAOH 241550Z AUTO 22015KT 9SM CLR M03/M06 A3010 810 78 -1100 230/15 RMK AO2 SLP206 T10281061
04850KAOH AOH20160124105511001/24/16 10:55:31  5-MIN KAOH 241555Z AUTO 22012KT 9SM CLR M03/M06 A3010 820 78 -1100 230/12 RMK AO2 T10281061
04850KAOH AOH20160124110011001/24/16 11:00:31  5-MIN KAOH 241600Z AUTO 21015KT 9SM CLR M03/M07 A3009 820 75 -1100 220/15 RMK AO2 T10281067
04850KAOH AOH20160124110511601/24/16 11:05:31  5-MIN KAOH 241605Z AUTO 23015G19KT 9SM CLR M03/M07 A3009 820 75 -1100 230/15G19 RMK AO2 T10281067
04850KAOH AOH20160124111011601/24/16 11:10:31  5-MIN KAOH 241610Z AUTO 21013G19KT 9SM CLR M03/M06 A3009 820 78 -1100 220/13G19 RMK AO2 T10281061
04850KAOH AOH20160124111511001/24/16 11:15:31  5-MIN KAOH 241615Z AUTO 21010KT 9SM CLR M02/M06 A3009 820 75 -1000 220/10 RMK AO2 T10221061
04850KAOH AOH20160124112011601/24/16 11:20:31  5-MIN KAOH 241620Z AUTO 21011G18KT 9SM CLR M02/M07 A3009 820 72 -1000 210/11G18 RMK AO2 T10221067
04850KAOH AOH20160124112511001/24/16 11:25:31  5-MIN KAOH 241625Z AUTO 21011KT 9SM CLR M02/M06 A3009 820 75 -1000 220/11 RMK AO2 T10221061
04850KAOH AOH20160124113010901/24/16 11:30:31  5-MIN KAOH 241630Z AUTO 20012KT 9SM CLR M02/M06 A3008 830 72 -900 210/12 RMK AO2 T10171061
04850KAOH AOH20160124113510901/24/16 11:35:31  5-MIN KAOH 241635Z AUTO 20013KT 9SM CLR M02/M06 A3008 830 72 -900 200/13 RMK AO2 T10171061
04850KAOH AOH20160124114010901/24/16 11:40:31  5-MIN KAOH 241640Z AUTO 21014KT 9SM CLR M02/M06 A3008 830 72 -900 220/14 RMK AO2 T10171061
04850KAOH AOH20160124114511001/24/16 11:45:31  5-MIN KAOH 241645Z AUTO 22012KT 10SM CLR M02/M07 A3008 830 69 -900 220/12 RMK AO2 T10171067
04850KAOH AOH20160124115011701/24/16 11:50:31  5-MIN KAOH 241650Z AUTO 22013KT 10SM CLR M02/M07 A3008 830 69 -900 230/13 RMK AO2 SLP198 T10171067
04850KAOH AOH20160124115511001/24/16 11:55:31  5-MIN KAOH 241655Z AUTO 21013KT 10SM CLR M01/M06 A3008 830 69 -800 220/13 RMK AO2 T10111061
04850KAOH AOH20160124120011001/24/16 12:00:31  5-MIN KAOH 241700Z AUTO 21012KT 10SM CLR M01/M06 A3007 840 69 -800 210/12 RMK AO2 T10111061
04850KAOH AOH20160124120511001/24/16 12:05:31  5-MIN KAOH 241705Z AUTO 21013KT 10SM CLR M01/M07 A3007 840 66 -800 210/13 RMK AO2 T10111067
04850KAOH AOH20160124121011601/24/16 12:10:31  5-MIN KAOH 241710Z AUTO 23016G20KT 10SM CLR M01/M07 A3007 840 66 -800 230/16G20 RMK AO2 T10111067
04850KAOH AOH20160124121511001/24/16 12:15:31  5-MIN KAOH 241715Z AUTO 23016KT 10SM CLR M01/M07 A3007 840 66 -800 230/16 RMK AO2 T10111067
04850KAOH AOH20160124122011001/24/16 12:20:31  5-MIN KAOH 241720Z AUTO 21014KT 10SM CLR M01/M06 A3006 850 69 -800 210/14 RMK AO2 T10111061
04850KAOH AOH20160124122511001/24/16 12:25:31  5-MIN KAOH 241725Z AUTO 21013KT 10SM CLR M01/M06 A3006 850 69 -800 210/13 RMK AO2 T10111061
04850KAOH AOH20160124123011001/24/16 12:30:31  5-MIN KAOH 241730Z AUTO 21011KT 10SM CLR M01/M06 A3006 850 66 -800 220/11 RMK AO2 T10061061
04850KAOH AOH20160124123511001/24/16 12:35:31  5-MIN KAOH 241735Z AUTO 22013KT 10SM CLR M01/M06 A3006 850 66 -800 230/13 RMK AO2 T10061061
04850KAOH AOH20160124124010901/24/16 12:40:31  5-MIN KAOH 241740Z AUTO 20012KT 10SM CLR 00/M06 A3005 850 63 -700 210/12 RMK AO2 T00001061
04850KAOH AOH20160124124511001/24/16 12:45:31  5-MIN KAOH 241745Z AUTO 20010KT 10SM CLR M01/M06 A3005 860 66 -700 210/10 RMK AO2 T10061061
04850KAOH AOH20160124125014001/24/16 12:50:31  5-MIN KAOH 241750Z AUTO 22014G20KT 10SM CLR 00/M06 A3005 860 63 -700 230/14G20 RMK AO2 SLP188 T00001061 10000 21078 51004
04850KAOH AOH20160124125511601/24/16 12:55:31  5-MIN KAOH 241755Z AUTO 20013G20KT 10SM CLR M01/M07 A3005 860 63 -700 210/13G20 RMK AO2 T10061067
04850KAOH AOH20160124130010901/24/16 13:00:31  5-MIN KAOH 241800Z AUTO 22012KT 10SM CLR 00/M06 A3005 860 63 -700 220/12 RMK AO2 T00001061
04850KAOH AOH20160124130511501/24/16 13:05:31  5-MIN KAOH 241805Z AUTO 21011G19KT 10SM CLR 00/M06 A3004 860 63 -700 220/11G19 RMK AO2 T00001061
04850KAOH AOH20160124131010901/24/16 13:10:31  5-MIN KAOH 241810Z AUTO 23016KT 10SM CLR 01/M06 A3004 870 61 -600 240/16 RMK AO2 T00061061
04850KAOH AOH20160124131510901/24/16 13:15:31  5-MIN KAOH 241815Z AUTO 22013KT 10SM CLR 01/M07 A3004 870 58 -600 220/13 RMK AO2 T00061067
04850KAOH AOH20160124132010901/24/16 13:20:31  5-MIN KAOH 241820Z AUTO 21015KT 10SM CLR 00/M07 A3004 870 61 -700 220/15 RMK AO2 T00001067
04850KAOH AOH20160124132510901/24/16 13:25:31  5-MIN KAOH 241825Z AUTO 22013KT 10SM CLR 00/M07 A3003 870 61 -700 230/13 RMK AO2 T00001067
04850KAOH AOH20160124133010901/24/16 13:30:31  5-MIN KAOH 241830Z AUTO 22012KT 10SM CLR 01/M06 A3003 870 61 -600 230/12 RMK AO2 T00061061
04850KAOH AOH20160124133510901/24/16 13:35:31  5-MIN KAOH 241835Z AUTO 21014KT 10SM CLR 01/M06 A3003 880 61 -600 220/14 RMK AO2 T00061061
04850KAOH AOH20160124134010901/24/16 13:40:31  5-MIN KAOH 241840Z AUTO 22015KT 10SM CLR 01/M07 A3003 880 58 -600 220/15 RMK AO2 T00061067
04850KAOH AOH20160124134510901/24/16 13:45:31  5-MIN KAOH 241845Z AUTO 22015KT 10SM CLR 01/M07 A3003 880 58 -600 230/15 RMK AO2 T00061067
04850KAOH AOH20160124135011601/24/16 13:50:31  5-MIN KAOH 241850Z AUTO 21013KT 10SM CLR 01/M07 A3002 880 58 -600 220/13 RMK AO2 SLP180 T00061067
04850KAOH AOH20160124135510901/24/16 13:55:31  5-MIN KAOH 241855Z AUTO 21014KT 10SM CLR 01/M06 A3002 880 58 -500 220/14 RMK AO2 T00111061
04850KAOH AOH20160124140010901/24/16 14:00:31  5-MIN KAOH 241900Z AUTO 23013KT 10SM CLR 01/M06 A3002 890 58 -500 230/13 RMK AO2 T00111061
04850KAOH AOH20160124140510901/24/16 14:05:31  5-MIN KAOH 241905Z AUTO 22012KT 10SM CLR 01/M07 A3002 890 58 -600 220/12 RMK AO2 T00061067
04850KAOH AOH20160124141010901/24/16 14:10:31  5-MIN KAOH 241910Z AUTO 20012KT 10SM CLR 01/M06 A3002 890 61 -600 210/12 RMK AO2 T00061061
04850KAOH AOH20160124141511501/24/16 14:15:31  5-MIN KAOH 241915Z AUTO 21014G19KT 10SM CLR 01/M06 A3001 890 58 -500 210/14G19 RMK AO2 T00111061
04850KAOH AOH20160124142011501/24/16 14:20:31  5-MIN KAOH 241920Z AUTO 21013G19KT 10SM CLR 01/M06 A3001 890 58 -500 220/13G19 RMK AO2 T00111061
04850KAOH AOH20160124142510901/24/16 14:25:31  5-MIN KAOH 241925Z AUTO 21014KT 10SM CLR 01/M06 A3001 890 58 -500 210/14 RMK AO2 T00111061
04850KAOH AOH20160124143011501/24/16 14:30:31  5-MIN KAOH 241930Z AUTO 20014G20KT 10SM CLR 01/M06 A3001 900 58 -500 210/14G20 RMK AO2 T00111061
04850KAOH AOH20160124143510901/24/16 14:35:31  5-MIN KAOH 241935Z AUTO 21011KT 10SM CLR 01/M06 A3001 900 58 -500 210/11 RMK AO2 T00111061
04850KAOH AOH20160124144010901/24/16 14:40:31  5-MIN KAOH 241940Z AUTO 21012KT 10SM CLR 01/M06 A3001 900 58 -500 220/12 RMK AO2 T00111061
04850KAOH AOH20160124144510901/24/16 14:45:31  5-MIN KAOH 241945Z AUTO 21013KT 10SM CLR 02/M06 A3000 900 56 -400 220/13 RMK AO2 T00171061
04850KAOH AOH20160124145011601/24/16 14:50:31  5-MIN KAOH 241950Z AUTO 20012KT 10SM CLR 02/M06 A3000 900 59 -400 210/12 RMK AO2 SLP172 T00171056
04850KAOH AOH20160124145510901/24/16 14:55:31  5-MIN KAOH 241955Z AUTO 21010KT 10SM CLR 02/M06 A3000 900 59 -400 210/10 RMK AO2 T00171056
04850KAOH AOH20160124150011501/24/16 15:00:31  5-MIN KAOH 242000Z AUTO 21012G18KT 10SM CLR 01/M06 A3001 900 61 -500 210/12G18 RMK AO2 T00111056
04850KAOH AOH20160124150510901/24/16 15:05:31  5-MIN KAOH 242005Z AUTO 20011KT 10SM CLR 01/M06 A3001 900 61 -500 210/11 RMK AO2 T00111056
04850KAOH AOH20160124151011501/24/16 15:10:31  5-MIN KAOH 242010Z AUTO 21008G16KT 10SM CLR 02/M06 A3001 900 59 -400 210/08G16 RMK AO2 T00171056
04850KAOH AOH20160124151510901/24/16 15:15:31  5-MIN KAOH 242015Z AUTO 21012KT 10SM CLR 02/M06 A3001 890 59 -400 210/12 RMK AO2 T00171056
04850KAOH AOH20160124152010901/24/16 15:20:31  5-MIN KAOH 242020Z AUTO 20012KT 10SM CLR 01/M06 A3001 890 61 -500 210/12 RMK AO2 T00111056
04850KAOH AOH20160124152510901/24/16 15:25:31  5-MIN KAOH 242025Z AUTO 21011KT 10SM CLR 02/M05 A3001 890 61 -400 210/11 RMK AO2 T00171050
04850KAOH AOH20160124153010901/24/16 15:30:31  5-MIN KAOH 242030Z AUTO 22013KT 10SM CLR 02/M06 A3001 890 59 -400 220/13 RMK AO2 T00171056
04850KAOH AOH20160124153510901/24/16 15:35:31  5-MIN KAOH 242035Z AUTO 22012KT 10SM CLR 02/M06 A3001 890 59 -400 230/12 RMK AO2 T00171056
04850KAOH AOH20160124154010901/24/16 15:40:31  5-MIN KAOH 242040Z AUTO 21012KT 10SM CLR 02/M06 A3001 890 59 -400 210/12 RMK AO2 T00171056
04850KAOH AOH20160124154510901/24/16 15:45:31  5-MIN KAOH 242045Z AUTO 21011KT 10SM CLR 01/M06 A3001 890 61 -500 220/11 RMK AO2 T00111056
04850KAOH AOH20160124155012201/24/16 15:50:31  5-MIN KAOH 242050Z AUTO 20010KT 10SM CLR 02/M06 A3001 890 59 -400 210/10 RMK AO2 SLP175 T00171056 58014
04850KAOH AOH20160124155511501/24/16 15:55:31  5-MIN KAOH 242055Z AUTO 20013G17KT 10SM CLR 01/M06 A3001 900 61 -500 210/13G17 RMK AO2 T00111056
04850KAOH AOH20160124160011501/24/16 16:00:31  5-MIN KAOH 242100Z AUTO 21013G19KT 10SM CLR 01/M06 A3001 900 61 -500 210/13G19 RMK AO2 T00111056
04850KAOH AOH20160124160511501/24/16 16:05:31  5-MIN KAOH 242105Z AUTO 21011G19KT 10SM CLR 01/M06 A3001 900 61 -500 210/11G19 RMK AO2 T00111056
04850KAOH AOH20160124161011501/24/16 16:10:31  5-MIN KAOH 242110Z AUTO 21012G18KT 10SM CLR 01/M06 A3001 900 61 -500 210/12G18 RMK AO2 T00111056
04850KAOH AOH20160124161511501/24/16 16:15:31  5-MIN KAOH 242115Z AUTO 21010G18KT 10SM CLR 01/M06 A3001 900 61 -500 220/10G18 RMK AO2 T00111056
04850KAOH AOH20160124162010901/24/16 16:20:31  5-MIN KAOH 242120Z AUTO 22012KT 10SM CLR 01/M06 A3001 890 61 -500 220/12 RMK AO2 T00111056
04850KAOH AOH20160124162510901/24/16 16:25:31  5-MIN KAOH 242125Z AUTO 21013KT 10SM CLR 01/M06 A3001 890 61 -500 210/13 RMK AO2 T00111056
04850KAOH AOH20160124163010901/24/16 16:30:31  5-MIN KAOH 242130Z AUTO 21012KT 10SM CLR 01/M06 A3001 890 61 -500 210/12 RMK AO2 T00111056
04850KAOH AOH20160124163510901/24/16 16:35:31  5-MIN KAOH 242135Z AUTO 21010KT 10SM CLR 01/M06 A3001 900 63 -600 210/10 RMK AO2 T00061056
04850KAOH AOH20160124164010901/24/16 16:40:31  5-MIN KAOH 242140Z AUTO 21009KT 10SM CLR 01/M05 A3001 900 66 -600 210/09 RMK AO2 T00061050
04850KAOH AOH20160124164510901/24/16 16:45:31  5-MIN KAOH 242145Z AUTO 21011KT 10SM CLR 01/M05 A3001 900 66 -600 220/11 RMK AO2 T00061050
04850KAOH AOH20160124165011601/24/16 16:50:31  5-MIN KAOH 242150Z AUTO 20011KT 10SM CLR 01/M06 A3001 900 63 -600 210/11 RMK AO2 SLP174 T00061056
04850KAOH AOH20160124165510901/24/16 16:55:31  5-MIN KAOH 242155Z AUTO 20011KT 10SM CLR 01/M06 A3001 900 63 -600 210/11 RMK AO2 T00061056
04850KAOH AOH20160124170010901/24/16 17:00:31  5-MIN KAOH 242200Z AUTO 20009KT 10SM CLR 01/M06 A3001 890 63 -600 210/09 RMK AO2 T00061056
04850KAOH AOH20160124170510901/24/16 17:05:31  5-MIN KAOH 242205Z AUTO 21009KT 10SM CLR 01/M06 A3001 890 63 -600 220/09 RMK AO2 T00061056
04850KAOH AOH20160124171010901/24/16 17:10:31  5-MIN KAOH 242210Z AUTO 21011KT 10SM CLR 00/M06 A3001 890 66 -600 210/11 RMK AO2 T00001056
04850KAOH AOH20160124171510901/24/16 17:15:31  5-MIN KAOH 242215Z AUTO 20008KT 10SM CLR 00/M06 A3001 900 66 -600 210/08 RMK AO2 T00001056
04850KAOH AOH20160124172010901/24/16 17:20:31  5-MIN KAOH 242220Z AUTO 21010KT 10SM CLR 00/M06 A3001 890 66 -600 220/10 RMK AO2 T00001056
04850KAOH AOH20160124172510901/24/16 17:25:31  5-MIN KAOH 242225Z AUTO 20010KT 10SM CLR 00/M06 A3001 900 66 -600 210/10 RMK AO2 T00001056
04850KAOH AOH20160124173010901/24/16 17:30:31  5-MIN KAOH 242230Z AUTO 20008KT 10SM CLR 00/M06 A3001 900 66 -600 200/08 RMK AO2 T00001056
04850KAOH AOH20160124173510901/24/16 17:35:31  5-MIN KAOH 242235Z AUTO 20012KT 10SM CLR 00/M06 A3001 900 66 -600 210/12 RMK AO2 T00001056
04850KAOH AOH20160124174010901/24/16 17:40:31  5-MIN KAOH 242240Z AUTO 20010KT 10SM CLR 00/M05 A3001 900 69 -600 210/10 RMK AO2 T00001050
04850KAOH AOH20160124174510901/24/16 17:45:31  5-MIN KAOH 242245Z AUTO 20010KT 10SM CLR 00/M06 A3000 900 66 -600 210/10 RMK AO2 T00001056
04850KAOH AOH20160124175011601/24/16 17:50:31  5-MIN KAOH 242250Z AUTO 20010KT 10SM CLR 00/M06 A3001 900 66 -600 210/10 RMK AO2 SLP174 T00001056
04850KAOH AOH20160124175510901/24/16 17:55:31  5-MIN KAOH 242255Z AUTO 20008KT 10SM CLR 00/M06 A3001 900 66 -600 200/08 RMK AO2 T00001056
04850KAOH AOH20160124180011001/24/16 18:00:31  5-MIN KAOH 242300Z AUTO 20008KT 10SM CLR M01/M06 A3001 900 69 -700 200/08 RMK AO2 T10061056
04850KAOH AOH20160124180511001/24/16 18:05:31  5-MIN KAOH 242305Z AUTO 19009KT 10SM CLR M01/M06 A3001 900 69 -700 200/09 RMK AO2 T10061056
04850KAOH AOH20160124181011001/24/16 18:10:31  5-MIN KAOH 242310Z AUTO 19008KT 10SM CLR M01/M05 A3001 890 72 -700 200/08 RMK AO2 T10061050
04850KAOH AOH20160124181511001/24/16 18:15:31  5-MIN KAOH 242315Z AUTO 19009KT 10SM CLR M01/M05 A3001 890 72 -700 190/09 RMK AO2 T10061050
04850KAOH AOH20160124182011001/24/16 18:20:31  5-MIN KAOH 242320Z AUTO 19009KT 10SM CLR M01/M05 A3001 890 72 -700 190/09 RMK AO2 T10061050
04850KAOH AOH20160124182511001/24/16 18:25:31  5-MIN KAOH 242325Z AUTO 19009KT 10SM CLR M01/M05 A3001 890 72 -700 190/09 RMK AO2 T10061050
04850KAOH AOH20160124183011001/24/16 18:30:31  5-MIN KAOH 242330Z AUTO 19009KT 10SM CLR M01/M05 A3001 890 72 -700 200/09 RMK AO2 T10061050
04850KAOH AOH20160124183511001/24/16 18:35:31  5-MIN KAOH 242335Z AUTO 19010KT 10SM CLR M01/M05 A3001 890 72 -700 200/10 RMK AO2 T10061050
04850KAOH AOH20160124184011001/24/16 18:40:31  5-MIN KAOH 242340Z AUTO 20008KT 10SM CLR M01/M05 A3002 890 72 -700 200/08 RMK AO2 T10061050
04850KAOH AOH20160124184511001/24/16 18:45:31  5-MIN KAOH 242345Z AUTO 19009KT 10SM CLR M01/M05 A3001 890 72 -700 200/09 RMK AO2 T10061050
04850KAOH AOH20160124185013501/24/16 18:50:31  5-MIN KAOH 242350Z AUTO 19010KT 10SM CLR M01/M05 A3002 890 72 -700 200/10 RMK AO2 SLP177 T10061050 10017 21006 55012
04850KAOH AOH20160124185511001/24/16 18:55:31  5-MIN KAOH 242355Z AUTO 19008KT 10SM CLR M01/M05 A3002 890 72 -700 200/08 RMK AO2 T10061050
04850KAOH AOH20160124190011001/24/16 19:00:31  5-MIN KAOH 250000Z AUTO 19010KT 10SM CLR M01/M05 A3002 890 72 -700 200/10 RMK AO2 T10061050
04850KAOH AOH20160124190511001/24/16 19:05:31  5-MIN KAOH 250005Z AUTO 19010KT 10SM CLR M01/M05 A3002 890 72 -700 200/10 RMK AO2 T10061050
04850KAOH AOH20160124191011001/24/16 19:10:31  5-MIN KAOH 250010Z AUTO 19010KT 10SM CLR M01/M05 A3001 890 72 -700 200/10 RMK AO2 T10061050
04850KAOH AOH20160124191511001/24/16 19:15:31  5-MIN KAOH 250015Z AUTO 19010KT 10SM CLR M01/M05 A3002 890 72 -700 190/10 RMK AO2 T10061050
04850KAOH AOH20160124192011001/24/16 19:20:31  5-MIN KAOH 250020Z AUTO 19008KT 10SM CLR M01/M05 A3002 890 72 -700 190/08 RMK AO2 T10061050
04850KAOH AOH20160124192511001/24/16 19:25:31  5-MIN KAOH 250025Z AUTO 18010KT 10SM CLR M01/M05 A3002 890 72 -700 190/10 RMK AO2 T10061050
04850KAOH AOH20160124193011001/24/16 19:30:31  5-MIN KAOH 250030Z AUTO 19009KT 10SM CLR M01/M06 A3002 890 69 -700 190/09 RMK AO2 T10061056
04850KAOH AOH20160124193511001/24/16 19:35:31  5-MIN KAOH 250035Z AUTO 19009KT 10SM CLR M01/M06 A3002 890 69 -700 190/09 RMK AO2 T10061056
04850KAOH AOH20160124194011001/24/16 19:40:31  5-MIN KAOH 250040Z AUTO 19009KT 10SM CLR M01/M06 A3002 890 69 -700 190/09 RMK AO2 T10061056
04850KAOH AOH20160124194511001/24/16 19:45:31  5-MIN KAOH 250045Z AUTO 19009KT 10SM CLR M01/M06 A3002 890 69 -700 190/09 RMK AO2 T10061056
04850KAOH AOH20160124195011701/24/16 19:50:31  5-MIN KAOH 250050Z AUTO 19009KT 10SM CLR M01/M06 A3002 890 72 -800 190/09 RMK AO2 SLP177 T10111056
04850KAOH AOH20160124195511001/24/16 19:55:31  5-MIN KAOH 250055Z AUTO 19010KT 10SM CLR M01/M06 A3002 890 69 -700 200/10 RMK AO2 T10061056
04850KAOH AOH20160124200011001/24/16 20:00:31  5-MIN KAOH 250100Z AUTO 19010KT 10SM CLR M01/M06 A3002 890 69 -700 200/10 RMK AO2 T10061056
04850KAOH AOH20160124200511001/24/16 20:05:31  5-MIN KAOH 250105Z AUTO 19009KT 10SM CLR M01/M06 A3002 890 69 -700 200/09 RMK AO2 T10061056
04850KAOH AOH20160124201011001/24/16 20:10:31  5-MIN KAOH 250110Z AUTO 19010KT 10SM CLR M01/M06 A3002 890 72 -800 200/10 RMK AO2 T10111056
04850KAOH AOH20160124201511001/24/16 20:15:31  5-MIN KAOH 250115Z AUTO 19008KT 10SM CLR M01/M06 A3002 890 72 -800 200/08 RMK AO2 T10111056
04850KAOH AOH20160124202011001/24/16 20:20:31  5-MIN KAOH 250120Z AUTO 19010KT 10SM CLR M01/M06 A3001 890 72 -800 190/10 RMK AO2 T10111056
04850KAOH AOH20160124202511001/24/16 20:25:31  5-MIN KAOH 250125Z AUTO 18008KT 10SM CLR M01/M06 A3001 890 72 -800 190/08 RMK AO2 T10111056
04850KAOH AOH20160124203011001/24/16 20:30:31  5-MIN KAOH 250130Z AUTO 18009KT 10SM CLR M01/M06 A3001 890 72 -800 190/09 RMK AO2 T10111056
04850KAOH AOH20160124203511001/24/16 20:35:31  5-MIN KAOH 250135Z AUTO 19009KT 10SM CLR M01/M06 A3001 890 69 -800 190/09 RMK AO2 T10111061
04850KAOH AOH20160124204011001/24/16 20:40:31  5-MIN KAOH 250140Z AUTO 18009KT 10SM CLR M01/M06 A3001 900 69 -800 190/09 RMK AO2 T10111061
04850KAOH AOH20160124204511001/24/16 20:45:31  5-MIN KAOH 250145Z AUTO 19009KT 10SM CLR M01/M06 A3001 900 69 -800 190/09 RMK AO2 T10111061
04850KAOH AOH20160124205011701/24/16 20:50:31  5-MIN KAOH 250150Z AUTO 19011KT 10SM CLR M01/M06 A3001 900 69 -800 190/11 RMK AO2 SLP173 T10111061
04850KAOH AOH20160124205511001/24/16 20:55:31  5-MIN KAOH 250155Z AUTO 19010KT 10SM CLR M01/M06 A3001 900 69 -800 190/10 RMK AO2 T10111061
04850KAOH AOH20160124210011001/24/16 21:00:31  5-MIN KAOH 250200Z AUTO 19010KT 10SM CLR M01/M06 A3001 900 69 -800 190/10 RMK AO2 T10111061
04850KAOH AOH20160124210511001/24/16 21:05:31  5-MIN KAOH 250205Z AUTO 19009KT 10SM CLR M01/M06 A3001 900 69 -800 190/09 RMK AO2 T10111061
04850KAOH AOH20160124211011001/24/16 21:10:31  5-MIN KAOH 250210Z AUTO 19010KT 10SM CLR M01/M06 A3001 900 69 -800 190/10 RMK AO2 T10111061
04850KAOH AOH20160124211511001/24/16 21:15:31  5-MIN KAOH 250215Z AUTO 19009KT 10SM CLR M01/M06 A3000 900 69 -800 190/09 RMK AO2 T10111061
04850KAOH AOH20160124212011001/24/16 21:20:31  5-MIN KAOH 250220Z AUTO 19010KT 10SM CLR M01/M06 A3001 900 69 -800 190/10 RMK AO2 T10111061
04850KAOH AOH20160124212511001/24/16 21:25:31  5-MIN KAOH 250225Z AUTO 18009KT 10SM CLR M01/M06 A3001 900 69 -800 190/09 RMK AO2 T10111061
04850KAOH AOH20160124213011001/24/16 21:30:31  5-MIN KAOH 250230Z AUTO 19009KT 10SM CLR M01/M06 A3000 900 69 -800 190/09 RMK AO2 T10111061
04850KAOH AOH20160124213511001/24/16 21:35:31  5-MIN KAOH 250235Z AUTO 18009KT 10SM CLR M01/M06 A3000 900 69 -800 190/09 RMK AO2 T10111061
04850KAOH AOH20160124214011001/24/16 21:40:31  5-MIN KAOH 250240Z AUTO 18010KT 10SM CLR M01/M06 A3000 900 69 -800 190/10 RMK AO2 T10111061
04850KAOH AOH20160124214511001/24/16 21:45:31  5-MIN KAOH 250245Z AUTO 18009KT 10SM CLR M01/M06 A3000 900 69 -800 190/09 RMK AO2 T10111061
04850KAOH AOH20160124215012301/24/16 21:50:31  5-MIN KAOH 250250Z AUTO 18010KT 10SM CLR M01/M06 A3000 900 69 -800 190/10 RMK AO2 SLP172 T10111061 53001
04850KAOH AOH20160124215511001/24/16 21:55:31  5-MIN KAOH 250255Z AUTO 18010KT 10SM CLR M01/M07 A3000 900 66 -800 190/10 RMK AO2 T10111067
04850KAOH AOH20160124220011001/24/16 22:00:31  5-MIN KAOH 250300Z AUTO 18010KT 10SM CLR M01/M07 A3000 900 66 -800 190/10 RMK AO2 T10111067
04850KAOH AOH20160124220511001/24/16 22:05:31  5-MIN KAOH 250305Z AUTO 18009KT 10SM CLR M01/M07 A3000 900 66 -800 190/09 RMK AO2 T10111067
04850KAOH AOH20160124221011001/24/16 22:10:31  5-MIN KAOH 250310Z AUTO 19010KT 10SM CLR M01/M07 A3000 900 66 -800 190/10 RMK AO2 T10111067
04850KAOH AOH20160124221511001/24/16 22:15:31  5-MIN KAOH 250315Z AUTO 19009KT 10SM CLR M01/M07 A3001 900 66 -800 200/09 RMK AO2 T10111067
04850KAOH AOH20160124222011001/24/16 22:20:31  5-MIN KAOH 250320Z AUTO 19008KT 10SM CLR M01/M07 A3001 900 66 -800 200/08 RMK AO2 T10111067
04850KAOH AOH20160124222511001/24/16 22:25:31  5-MIN KAOH 250325Z AUTO 19010KT 10SM CLR M01/M07 A3000 900 66 -800 200/10 RMK AO2 T10111067
04850KAOH AOH20160124223011001/24/16 22:30:31  5-MIN KAOH 250330Z AUTO 19010KT 10SM CLR M01/M07 A3000 900 66 -800 200/10 RMK AO2 T10111067
04850KAOH AOH20160124223511001/24/16 22:35:31  5-MIN KAOH 250335Z AUTO 19009KT 10SM CLR M01/M07 A3001 900 66 -800 200/09 RMK AO2 T10111067
04850KAOH AOH20160124224011001/24/16 22:40:31  5-MIN KAOH 250340Z AUTO 19010KT 10SM CLR M01/M07 A3000 900 66 -800 200/10 RMK AO2 T10111067
04850KAOH AOH20160124224511001/24/16 22:45:31  5-MIN KAOH 250345Z AUTO 19010KT 10SM CLR M02/M07 A3000 900 69 -800 190/10 RMK AO2 T10171067
04850KAOH AOH20160124225011701/24/16 22:50:31  5-MIN KAOH 250350Z AUTO 19009KT 10SM CLR M01/M07 A3000 900 66 -800 200/09 RMK AO2 SLP170 T10111067
04850KAOH AOH20160124225511001/24/16 22:55:31  5-MIN KAOH 250355Z AUTO 19010KT 10SM CLR M02/M07 A3000 900 69 -800 200/10 RMK AO2 T10171067
04850KAOH AOH20160124230011001/24/16 23:00:31  5-MIN KAOH 250400Z AUTO 19009KT 10SM CLR M02/M07 A3000 900 69 -800 200/09 RMK AO2 T10171067
04850KAOH AOH20160124230511001/24/16 23:05:31  5-MIN KAOH 250405Z AUTO 19008KT 10SM CLR M01/M07 A3000 900 66 -800 200/08 RMK AO2 T10111067
04850KAOH AOH20160124231011001/24/16 23:10:31  5-MIN KAOH 250410Z AUTO 19009KT 10SM CLR M02/M07 A3000 900 69 -800 200/09 RMK AO2 T10171067
04850KAOH AOH20160124231511001/24/16 23:15:31  5-MIN KAOH 250415Z AUTO 19009KT 10SM CLR M02/M07 A3000 900 69 -800 200/09 RMK AO2 T10171067
04850KAOH AOH20160124232011001/24/16 23:20:31  5-MIN KAOH 250420Z AUTO 19009KT 10SM CLR M02/M07 A3000 900 69 -800 200/09 RMK AO2 T10171067
04850KAOH AOH20160124232511001/24/16 23:25:31  5-MIN KAOH 250425Z AUTO 19009KT 10SM CLR M02/M07 A3000 900 69 -800 190/09 RMK AO2 T10171067
04850KAOH AOH20160124233011001/24/16 23:30:31  5-MIN KAOH 250430Z AUTO 19009KT 10SM CLR M02/M07 A3001 900 69 -800 190/09 RMK AO2 T10171067
04850KAOH AOH20160124233511001/24/16 23:35:31  5-MIN KAOH 250435Z AUTO 19008KT 10SM CLR M02/M07 A3001 900 69 -800 190/08 RMK AO2 T10171067
04850KAOH AOH20160124234011001/24/16 23:40:31  5-MIN KAOH 250440Z AUTO 19008KT 10SM CLR M02/M07 A3001 890 69 -800 200/08 RMK AO2 T10171067
04850KAOH AOH20160124234511001/24/16 23:45:31  5-MIN KAOH 250445Z AUTO 19007KT 10SM CLR M02/M07 A3001 890 69 -800 200/07 RMK AO2 T10171067
04850KAOH AOH20160124235012701/24/16 23:50:31  5-MIN KAOH 250450Z AUTO 19007KT 10SM CLR M02/M07 A3001 890 69 -800 200/07 RMK AO2 SLP174 T10171067 400171089
04850KAOH AOH20160124235511001/24/16 23:55:31  5-MIN KAOH 250455Z AUTO 19006KT 10SM CLR M02/M07 A3002 890 69 -800 200/06 RMK AO2 T10171067
04850KAOH AOH20160125000011001/25/16 00:00:31  5-MIN KAOH 250500Z AUTO 19007KT 10SM CLR M02/M07 A3002 890 69 -800 200/07 RMK AO2 T10171067
04850KAOH AOH20160125000511001/25/16 00:05:31  5-MIN KAOH 250505Z AUTO 19007KT 10SM CLR M02/M07 A3001 890 69 -800 200/07 RMK AO2 T10171067
04850KAOH AOH20160125001011001/25/16 00:10:31  5-MIN KAOH 250510Z AUTO 19009KT 10SM CLR M02/M07 A3001 890 69 -800 200/09 RMK AO2 T10171067
04850KAOH AOH20160125001511001/25/16 00:15:31  5-MIN KAOH 250515Z AUTO 19007KT 10SM CLR M02/M07 A3001 890 69 -800 190/07 RMK AO2 T10171067
04850KAOH AOH20160125002011001/25/16 00:20:31  5-MIN KAOH 250520Z AUTO 19008KT 10SM CLR M02/M07 A3001 890 69 -800 190/08 RMK AO2 T10171067
04850KAOH AOH20160125002511001/25/16 00:25:31  5-MIN KAOH 250525Z AUTO 19008KT 10SM CLR M02/M07 A3001 890 69 -800 190/08 RMK AO2 T10171067
04850KAOH AOH20160125003011001/25/16 00:30:31  5-MIN KAOH 250530Z AUTO 19008KT 10SM CLR M02/M07 A3001 890 69 -800 190/08 RMK AO2 T10171067
04850KAOH AOH20160125003511001/25/16 00:35:31  5-MIN KAOH 250535Z AUTO 19008KT 10SM CLR M02/M07 A3001 890 69 -800 190/08 RMK AO2 T10171067
04850KAOH AOH20160125004011001/25/16 00:40:31  5-MIN KAOH 250540Z AUTO 19009KT 10SM CLR M02/M07 A3001 890 69 -800 200/09 RMK AO2 T10171067
04850KAOH AOH20160125004511001/25/16 00:45:31  5-MIN KAOH 250545Z AUTO 19008KT 10SM CLR M02/M07 A3001 890 69 -800 190/08 RMK AO2 T10171067
04850KAOH AOH20160125005013501/25/16 00:50:31  5-MIN KAOH 250550Z AUTO 18008KT 10SM CLR M02/M07 A3001 890 69 -800 190/08 RMK AO2 SLP173 T10171067 11006 21017 58004
04850KAOH AOH20160125005511001/25/16 00:55:31  5-MIN KAOH 250555Z AUTO 18008KT 10SM CLR M02/M07 A3001 900 69 -800 190/08 RMK AO2 T10171067
04850KAOH AOH20160125010011001/25/16 01:00:31  5-MIN KAOH 250600Z AUTO 18008KT 10SM CLR M02/M07 A3001 890 69 -800 180/08 RMK AO2 T10171067
04850KAOH AOH20160125010511001/25/16 01:05:31  5-MIN KAOH 250605Z AUTO 17007KT 10SM CLR M02/M07 A3001 890 72 -900 180/07 RMK AO2 T10221067
04850KAOH AOH20160125011011001/25/16 01:10:31  5-MIN KAOH 250610Z AUTO 18007KT 10SM CLR M02/M07 A3001 890 72 -900 180/07 RMK AO2 T10221067
04850KAOH AOH20160125011511001/25/16 01:15:31  5-MIN KAOH 250615Z AUTO 18008KT 10SM CLR M02/M07 A3002 890 72 -900 190/08 RMK AO2 T10221067
04850KAOH AOH20160125012011001/25/16 01:20:31  5-MIN KAOH 250620Z AUTO 18008KT 10SM CLR M02/M07 A3002 890 72 -900 190/08 RMK AO2 T10221067
04850KAOH AOH20160125012511001/25/16 01:25:31  5-MIN KAOH 250625Z AUTO 18007KT 10SM CLR M02/M07 A3002 890 72 -900 190/07 RMK AO2 T10221067
04850KAOH AOH20160125013011001/25/16 01:30:31  5-MIN KAOH 250630Z AUTO 19006KT 10SM CLR M02/M07 A3002 880 72 -900 190/06 RMK AO2 T10221067
04850KAOH AOH20160125013511001/25/16 01:35:31  5-MIN KAOH 250635Z AUTO 19008KT 10SM CLR M02/M07 A3002 880 72 -900 190/08 RMK AO2 T10221067
04850KAOH AOH20160125014011001/25/16 01:40:31  5-MIN KAOH 250640Z AUTO 19007KT 10SM CLR M02/M07 A3002 880 69 -900 190/07 RMK AO2 T10221072
04850KAOH AOH20160125014511101/25/16 01:45:31  5-MIN KAOH 250645Z AUTO 18007KT 10SM CLR M03/M07 A3002 880 75 -1000 190/07 RMK AO2 T10281067
04850KAOH AOH20160125015011801/25/16 01:50:31  5-MIN KAOH 250650Z AUTO 19007KT 10SM CLR M03/M07 A3003 880 75 -1000 190/07 RMK AO2 SLP178 T10281067
04850KAOH AOH20160125015511101/25/16 01:55:31  5-MIN KAOH 250655Z AUTO 18007KT 10SM CLR M03/M07 A3003 880 75 -1000 190/07 RMK AO2 T10281067
04850KAOH AOH20160125020011101/25/16 02:00:31  5-MIN KAOH 250700Z AUTO 18007KT 10SM CLR M03/M07 A3002 880 75 -1000 180/07 RMK AO2 T10281067
04850KAOH AOH20160125020511101/25/16 02:05:31  5-MIN KAOH 250705Z AUTO 18007KT 10SM CLR M03/M07 A3002 880 75 -1000 180/07 RMK AO2 T10281067
04850KAOH AOH20160125021011101/25/16 02:10:31  5-MIN KAOH 250710Z AUTO 18007KT 10SM CLR M03/M07 A3003 880 75 -1000 180/07 RMK AO2 T10281067
04850KAOH AOH20160125021511101/25/16 02:15:31  5-MIN KAOH 250715Z AUTO 18007KT 10SM CLR M03/M07 A3003 880 75 -1000 190/07 RMK AO2 T10281067
04850KAOH AOH20160125022011101/25/16 02:20:31  5-MIN KAOH 250720Z AUTO 17007KT 10SM CLR M03/M07 A3002 880 75 -1000 180/07 RMK AO2 T10281067
04850KAOH AOH20160125022511101/25/16 02:25:31  5-MIN KAOH 250725Z AUTO 18007KT 10SM CLR M03/M07 A3002 880 78 -1100 180/07 RMK AO2 T10331067
04850KAOH AOH20160125023011101/25/16 02:30:31  5-MIN KAOH 250730Z AUTO 17007KT 10SM CLR M03/M07 A3002 880 78 -1100 180/07 RMK AO2 T10331067
04850KAOH AOH20160125023511101/25/16 02:35:31  5-MIN KAOH 250735Z AUTO 17006KT 10SM CLR M03/M07 A3002 880 78 -1100 180/06 RMK AO2 T10331067
04850KAOH AOH20160125024011101/25/16 02:40:31  5-MIN KAOH 250740Z AUTO 18007KT 10SM CLR M03/M07 A3003 880 78 -1100 180/07 RMK AO2 T10331067
04850KAOH AOH20160125024511101/25/16 02:45:31  5-MIN KAOH 250745Z AUTO 17007KT 10SM CLR M03/M07 A3003 880 78 -1100 180/07 RMK AO2 T10331067
04850KAOH AOH20160125025011801/25/16 02:50:31  5-MIN KAOH 250750Z AUTO 17008KT 10SM CLR M03/M07 A3003 880 78 -1100 180/08 RMK AO2 SLP179 T10331067
04850KAOH AOH20160125025511101/25/16 02:55:31  5-MIN KAOH 250755Z AUTO 17007KT 10SM CLR M03/M07 A3003 880 78 -1100 180/07 RMK AO2 T10331067
04850KAOH AOH20160125030011101/25/16 03:00:31  5-MIN KAOH 250800Z AUTO 18007KT 10SM CLR M03/M07 A3003 880 78 -1100 180/07 RMK AO2 T10331067
04850KAOH AOH20160125030511101/25/16 03:05:31  5-MIN KAOH 250805Z AUTO 17008KT 10SM CLR M03/M07 A3003 880 78 -1100 180/08 RMK AO2 T10331067
04850KAOH AOH20160125031011101/25/16 03:10:31  5-MIN KAOH 250810Z AUTO 18008KT 10SM CLR M03/M07 A3003 880 78 -1100 190/08 RMK AO2 T10331067
04850KAOH AOH20160125031511101/25/16 03:15:31  5-MIN KAOH 250815Z AUTO 18008KT 10SM CLR M03/M07 A3003 870 78 -1100 190/08 RMK AO2 T10331067
04850KAOH AOH20160125032011101/25/16 03:20:31  5-MIN KAOH 250820Z AUTO 19008KT 10SM CLR M03/M07 A3003 870 75 -1000 190/08 RMK AO2 T10281067
04850KAOH AOH20160125032511101/25/16 03:25:31  5-MIN KAOH 250825Z AUTO 19008KT 10SM CLR M03/M07 A3003 870 75 -1000 190/08 RMK AO2 T10281067
04850KAOH AOH20160125033011101/25/16 03:30:31  5-MIN KAOH 250830Z AUTO 19008KT 10SM CLR M03/M07 A3003 870 75 -1000 190/08 RMK AO2 T10281067
04850KAOH AOH20160125033511101/25/16 03:35:31  5-MIN KAOH 250835Z AUTO 18008KT 10SM CLR M03/M07 A3003 880 75 -1000 190/08 RMK AO2 T10281067
04850KAOH AOH20160125034011001/25/16 03:40:31  5-MIN KAOH 250840Z AUTO 18007KT 9SM CLR M03/M07 A3003 880 78 -1100 190/07 RMK AO2 T10331067
04850KAOH AOH20160125034511001/25/16 03:45:31  5-MIN KAOH 250845Z AUTO 18007KT 9SM CLR M03/M07 A3003 880 78 -1100 190/07 RMK AO2 T10331067
04850KAOH AOH20160125035012301/25/16 03:50:31  5-MIN KAOH 250850Z AUTO 18007KT 9SM CLR M03/M07 A3003 880 78 -1100 190/07 RMK AO2 SLP179 T10331067 50002
04850KAOH AOH20160125035511001/25/16 03:55:31  5-MIN KAOH 250855Z AUTO 18008KT 9SM CLR M03/M07 A3003 880 78 -1100 190/08 RMK AO2 T10331067
04850KAOH AOH20160125040011001/25/16 04:00:31  5-MIN KAOH 250900Z AUTO 18009KT 9SM CLR M03/M07 A3003 880 78 -1100 180/09 RMK AO2 T10331067
04850KAOH AOH20160125040511001/25/16 04:05:31  5-MIN KAOH 250905Z AUTO 18009KT 9SM CLR M03/M07 A3002 880 78 -1100 190/09 RMK AO2 T10331067
04850KAOH AOH20160125041011001/25/16 04:10:31  5-MIN KAOH 250910Z AUTO 18009KT 9SM CLR M03/M07 A3002 880 78 -1100 190/09 RMK AO2 T10331067
04850KAOH AOH20160125041511001/25/16 04:15:31  5-MIN KAOH 250915Z AUTO 18009KT 9SM CLR M03/M07 A3003 880 78 -1100 190/09 RMK AO2 T10331067
04850KAOH AOH20160125042011001/25/16 04:20:31  5-MIN KAOH 250920Z AUTO 18008KT 9SM CLR M03/M07 A3003 880 78 -1100 190/08 RMK AO2 T10331067
04850KAOH AOH20160125042511001/25/16 04:25:31  5-MIN KAOH 250925Z AUTO 18008KT 9SM CLR M03/M07 A3002 880 78 -1100 180/08 RMK AO2 T10331067
04850KAOH AOH20160125043011101/25/16 04:30:31  5-MIN KAOH 250930Z AUTO 18008KT 10SM CLR M03/M07 A3002 880 78 -1100 180/08 RMK AO2 T10331067
04850KAOH AOH20160125043511101/25/16 04:35:31  5-MIN KAOH 250935Z AUTO 18009KT 10SM CLR M03/M07 A3002 880 78 -1100 180/09 RMK AO2 T10331067
04850KAOH AOH20160125044011101/25/16 04:40:31  5-MIN KAOH 250940Z AUTO 18008KT 10SM CLR M03/M07 A3003 880 78 -1100 190/08 RMK AO2 T10331067
04850KAOH AOH20160125044511101/25/16 04:45:31  5-MIN KAOH 250945Z AUTO 17008KT 10SM CLR M03/M07 A3002 880 78 -1100 180/08 RMK AO2 T10331067
04850KAOH AOH20160125045011801/25/16 04:50:31  5-MIN KAOH 250950Z AUTO 18008KT 10SM CLR M03/M07 A3002 880 78 -1100 180/08 RMK AO2 SLP177 T10331067
04850KAOH AOH20160125045511101/25/16 04:55:31  5-MIN KAOH 250955Z AUTO 18009KT 10SM CLR M03/M07 A3002 880 74 -1100 180/09 RMK AO2 T10331072
04850KAOH AOH20160125050011101/25/16 05:00:31  5-MIN KAOH 251000Z AUTO 18010KT 10SM CLR M03/M07 A3003 880 74 -1100 190/10 RMK AO2 T10331072
04850KAOH AOH20160125050511101/25/16 05:05:31  5-MIN KAOH 251005Z AUTO 18010KT 10SM CLR M03/M07 A3002 880 74 -1100 180/10 RMK AO2 T10331072
04850KAOH AOH20160125051011101/25/16 05:10:31  5-MIN KAOH 251010Z AUTO 18009KT 10SM CLR M03/M07 A3002 880 74 -1100 190/09 RMK AO2 T10331072
04850KAOH AOH20160125051511101/25/16 05:15:31  5-MIN KAOH 251015Z AUTO 18009KT 10SM CLR M03/M07 A3002 880 78 -1100 190/09 RMK AO2 T10331067
04850KAOH AOH20160125052011101/25/16 05:20:31  5-MIN KAOH 251020Z AUTO 18009KT 10SM CLR M03/M07 A3002 890 74 -1100 180/09 RMK AO2 T10331072
04850KAOH AOH20160125052511101/25/16 05:25:31  5-MIN KAOH 251025Z AUTO 18009KT 10SM CLR M03/M07 A3002 880 74 -1100 180/09 RMK AO2 T10331072
04850KAOH AOH20160125053011101/25/16 05:30:31  5-MIN KAOH 251030Z AUTO 18010KT 10SM CLR M03/M07 A3002 890 74 -1100 180/10 RMK AO2 T10331072
04850KAOH AOH20160125053511101/25/16 05:35:31  5-MIN KAOH 251035Z AUTO 17011KT 10SM CLR M03/M07 A3002 890 74 -1100 180/11 RMK AO2 T10331072
04850KAOH AOH20160125054011101/25/16 05:40:31  5-MIN KAOH 251040Z AUTO 17011KT 10SM CLR M03/M07 A3002 890 78 -1100 180/11 RMK AO2 T10331067
04850KAOH AOH20160125054511101/25/16 05:45:31  5-MIN KAOH 251045Z AUTO 17011KT 10SM CLR M03/M07 A3002 890 78 -1100 180/11 RMK AO2 T10331067
04850KAOH AOH20160125055011801/25/16 05:50:31  5-MIN KAOH 251050Z AUTO 17012KT 10SM CLR M03/M07 A3002 890 78 -1100 180/12 RMK AO2 SLP175 T10331067
04850KAOH AOH20160125055511101/25/16 05:55:31  5-MIN KAOH 251055Z AUTO 17011KT 10SM CLR M03/M07 A3002 890 78 -1100 180/11 RMK AO2 T10331067
04850KAOH AOH20160125060011101/25/16 06:00:31  5-MIN KAOH 251100Z AUTO 17011KT 10SM CLR M03/M07 A3002 890 78 -1100 180/11 RMK AO2 T10331067
04850KAOH AOH20160125060511101/25/16 06:05:31  5-MIN KAOH 251105Z AUTO 17011KT 10SM CLR M03/M07 A3002 890 78 -1100 180/11 RMK AO2 T10331067
04850KAOH AOH20160125061011101/25/16 06:10:31  5-MIN KAOH 251110Z AUTO 17011KT 10SM CLR M03/M07 A3002 890 78 -1100 180/11 RMK AO2 T10331067
04850KAOH AOH20160125061511101/25/16 06:15:31  5-MIN KAOH 251115Z AUTO 17010KT 10SM CLR M03/M07 A3002 890 78 -1100 170/10 RMK AO2 T10331067
04850KAOH AOH20160125062011101/25/16 06:20:31  5-MIN KAOH 251120Z AUTO 17010KT 10SM CLR M03/M07 A3002 890 78 -1100 180/10 RMK AO2 T10331067
04850KAOH AOH20160125062511101/25/16 06:25:31  5-MIN KAOH 251125Z AUTO 17009KT 10SM CLR M03/M07 A3002 890 78 -1100 180/09 RMK AO2 T10331067
04850KAOH AOH20160125063011101/25/16 06:30:31  5-MIN KAOH 251130Z AUTO 17009KT 10SM CLR M03/M07 A3002 890 78 -1100 180/09 RMK AO2 T10331067
04850KAOH AOH20160125063511101/25/16 06:35:31  5-MIN KAOH 251135Z AUTO 17009KT 10SM CLR M03/M07 A3002 890 78 -1100 180/09 RMK AO2 T10331067
04850KAOH AOH20160125064011101/25/16 06:40:31  5-MIN KAOH 251140Z AUTO 17010KT 10SM CLR M03/M07 A3002 890 78 -1100 180/10 RMK AO2 T10331067
04850KAOH AOH20160125064511101/25/16 06:45:31  5-MIN KAOH 251145Z AUTO 17011KT 10SM CLR M03/M07 A3002 890 78 -1100 180/11 RMK AO2 T10331067
04850KAOH AOH20160125065013601/25/16 06:50:31  5-MIN KAOH 251150Z AUTO 17010KT 10SM CLR M03/M07 A3002 890 78 -1100 180/10 RMK AO2 SLP176 T10331067 11017 21039 51006
04850KAOH AOH20160125065511101/25/16 06:55:31  5-MIN KAOH 251155Z AUTO 17009KT 10SM CLR M03/M07 A3002 890 78 -1100 180/09 RMK AO2 T10331067
04850KAOH AOH20160125070011101/25/16 07:00:31  5-MIN KAOH 251200Z AUTO 17008KT 10SM CLR M03/M07 A3002 890 78 -1100 180/08 RMK AO2 T10331067
04850KAOH AOH20160125070511101/25/16 07:05:31  5-MIN KAOH 251205Z AUTO 17009KT 10SM CLR M03/M07 A3002 890 78 -1100 170/09 RMK AO2 T10331067
04850KAOH AOH20160125071011101/25/16 07:10:31  5-MIN KAOH 251210Z AUTO 16008KT 10SM CLR M03/M07 A3002 890 78 -1100 170/08 RMK AO2 T10331067
04850KAOH AOH20160125071511101/25/16 07:15:31  5-MIN KAOH 251215Z AUTO 16007KT 10SM CLR M04/M07 A3002 890 81 -1100 170/07 RMK AO2 T10391067
04850KAOH AOH20160125072011101/25/16 07:20:31  5-MIN KAOH 251220Z AUTO 16008KT 10SM CLR M04/M07 A3002 890 81 -1100 170/08 RMK AO2 T10391067
04850KAOH AOH20160125072511101/25/16 07:25:31  5-MIN KAOH 251225Z AUTO 17008KT 10SM CLR M03/M07 A3002 890 78 -1100 170/08 RMK AO2 T10331067
04850KAOH AOH20160125073011101/25/16 07:30:31  5-MIN KAOH 251230Z AUTO 17009KT 10SM CLR M03/M07 A3002 890 78 -1100 170/09 RMK AO2 T10331067
04850KAOH AOH20160125073511101/25/16 07:35:31  5-MIN KAOH 251235Z AUTO 17009KT 10SM CLR M03/M07 A3002 890 78 -1100 170/09 RMK AO2 T10331067
04850KAOH AOH20160125074011101/25/16 07:40:31  5-MIN KAOH 251240Z AUTO 17009KT 10SM CLR M03/M07 A3002 890 78 -1100 180/09 RMK AO2 T10331067
04850KAOH AOH20160125074511101/25/16 07:45:31  5-MIN KAOH 251245Z AUTO 17009KT 10SM CLR M03/M07 A3002 890 78 -1100 170/09 RMK AO2 T10331067
04850KAOH AOH20160125075011801/25/16 07:50:31  5-MIN KAOH 251250Z AUTO 17010KT 10SM CLR M03/M07 A3002 890 78 -1100 180/10 RMK AO2 SLP176 T10331067
04850KAOH AOH20160125075511101/25/16 07:55:31  5-MIN KAOH 251255Z AUTO 17011KT 10SM CLR M03/M07 A3002 890 78 -1100 180/11 RMK AO2 T10331067
04850KAOH AOH20160125080011101/25/16 08:00:31  5-MIN KAOH 251300Z AUTO 17011KT 10SM CLR M03/M07 A3002 890 78 -1100 180/11 RMK AO2 T10331067
04850KAOH AOH20160125080511001/25/16 08:05:31  5-MIN KAOH 251305Z AUTO 17011KT 9SM CLR M03/M06 A3002 890 78 -1000 180/11 RMK AO2 T10281061
04850KAOH AOH20160125081011001/25/16 08:10:31  5-MIN KAOH 251310Z AUTO 17011KT 9SM CLR M03/M06 A3002 890 78 -1000 180/11 RMK AO2 T10281061
04850KAOH AOH20160125081511001/25/16 08:15:31  5-MIN KAOH 251315Z AUTO 17012KT 9SM CLR M03/M06 A3002 890 78 -1000 170/12 RMK AO2 T10281061
04850KAOH AOH20160125082011001/25/16 08:20:31  5-MIN KAOH 251320Z AUTO 16011KT 9SM CLR M03/M06 A3002 890 78 -1000 170/11 RMK AO2 T10281061
04850KAOH AOH20160125082511001/25/16 08:25:31  5-MIN KAOH 251325Z AUTO 17012KT 9SM CLR M03/M06 A3002 890 78 -1000 170/12 RMK AO2 T10281061
04850KAOH AOH20160125083011001/25/16 08:30:31  5-MIN KAOH 251330Z AUTO 17012KT 9SM CLR M03/M06 A3002 890 78 -1000 170/12 RMK AO2 T10281061
04850KAOH AOH20160125083511001/25/16 08:35:31  5-MIN KAOH 251335Z AUTO 17012KT 9SM CLR M03/M06 A3002 890 78 -1000 170/12 RMK AO2 T10281061
04850KAOH AOH20160125084011001/25/16 08:40:31  5-MIN KAOH 251340Z AUTO 17011KT 9SM CLR M03/M06 A3002 890 78 -1000 180/11 RMK AO2 T10281061
04850KAOH AOH20160125084511001/25/16 08:45:31  5-MIN KAOH 251345Z AUTO 17012KT 10SM CLR M02/M06 A3002 890 75 -900 180/12 RMK AO2 T10221061
04850KAOH AOH20160125085011701/25/16 08:50:31  5-MIN KAOH 251350Z AUTO 17011KT 10SM CLR M02/M06 A3001 890 75 -900 170/11 RMK AO2 SLP174 T10221061
04850KAOH AOH20160125085511001/25/16 08:55:31  5-MIN KAOH 251355Z AUTO 17012KT 10SM CLR M02/M06 A3001 890 75 -900 170/12 RMK AO2 T10221061
04850KAOH AOH20160125090011001/25/16 09:00:31  5-MIN KAOH 251400Z AUTO 16012KT 10SM CLR M02/M06 A3001 890 78 -900 170/12 RMK AO2 T10221056
04850KAOH AOH20160125090511001/25/16 09:05:31  5-MIN KAOH 251405Z AUTO 16012KT 10SM CLR M02/M06 A3001 900 75 -800 170/12 RMK AO2 T10171056
04850KAOH AOH20160125091011001/25/16 09:10:31  5-MIN KAOH 251410Z AUTO 16012KT 10SM CLR M02/M06 A3000 900 75 -800 170/12 RMK AO2 T10171056
04850KAOH AOH20160125091511001/25/16 09:15:31  5-MIN KAOH 251415Z AUTO 16013KT 10SM CLR M02/M06 A3000 900 75 -800 170/13 RMK AO2 T10171056
04850KAOH AOH20160125092011001/25/16 09:20:31  5-MIN KAOH 251420Z AUTO 17013KT 10SM CLR M02/M06 A3000 900 75 -800 170/13 RMK AO2 T10171056
04850KAOH AOH20160125092511001/25/16 09:25:31  5-MIN KAOH 251425Z AUTO 17014KT 10SM CLR M02/M06 A3001 900 75 -800 170/14 RMK AO2 T10171056
04850KAOH AOH20160125093011001/25/16 09:30:31  5-MIN KAOH 251430Z AUTO 17012KT 10SM CLR M02/M06 A3001 900 75 -800 180/12 RMK AO2 T10171056
04850KAOH AOH20160125093511001/25/16 09:35:31  5-MIN KAOH 251435Z AUTO 17012KT 10SM CLR M01/M06 A3001 900 72 -800 170/12 RMK AO2 T10111056
04850KAOH AOH20160125094011001/25/16 09:40:31  5-MIN KAOH 251440Z AUTO 17011KT 10SM CLR M01/M06 A3001 900 72 -800 180/11 RMK AO2 T10111056
04850KAOH AOH20160125094511001/25/16 09:45:31  5-MIN KAOH 251445Z AUTO 17012KT 10SM CLR M01/M05 A3000 900 75 -800 180/12 RMK AO2 T10111050
04850KAOH AOH20160125095012301/25/16 09:50:31  5-MIN KAOH 251450Z AUTO 17012KT 10SM CLR M01/M05 A3000 900 72 -700 180/12 RMK AO2 SLP171 T10061050 56004
04850KAOH AOH20160125095511001/25/16 09:55:31  5-MIN KAOH 251455Z AUTO 17013KT 10SM CLR M01/M05 A3000 900 72 -700 180/13 RMK AO2 T10061050
04850KAOH AOH20160125100010901/25/16 10:00:31  5-MIN KAOH 251500Z AUTO 17012KT 10SM CLR 00/M05 A3000 900 69 -600 180/12 RMK AO2 T00001050
04850KAOH AOH20160125100510901/25/16 10:05:31  5-MIN KAOH 251505Z AUTO 17014KT 10SM CLR 00/M04 A3000 900 72 -600 170/14 RMK AO2 T00001044
04850KAOH AOH20160125101010901/25/16 10:10:31  5-MIN KAOH 251510Z AUTO 17012KT 10SM CLR 01/M04 A3000 900 69 -500 180/12 RMK AO2 T00061044
04850KAOH AOH20160125201011701/25/16 20:10:31  5-MIN KAOH 260110Z AUTO 18017G25KT 10SM OVC024 06/01 A2982 1070 70 200 190/17G25 RMK AO2 T00560006
04850KAOH AOH20160125201511801/25/16 20:15:31  5-MIN KAOH 260115Z AUTO 18018KT 10SM BKN024 OVC029 06/01 A2981 1080 70 200 180/18 RMK AO2 T00560006
04850KAOH AOH20160125202014201/25/16 20:20:31  5-MIN KAOH 260120Z AUTO 17021G27KT 10SM BKN024 OVC029 06/01 A2981 1080 70 200 180/21G27 RMK AO2 PK WND 18027/0118 T00560006
04850KAOH AOH20160125202513501/25/16 20:25:31  5-MIN KAOH 260125Z AUTO 18018G27KT 10SM OVC024 06/01 A2981 1080 70 200 180/18G27 RMK AO2 PK WND 18027/0118 T00560006
04850KAOH AOH20160125203013501/25/16 20:30:31  5-MIN KAOH 260130Z AUTO 18017G27KT 10SM OVC024 06/01 A2981 1080 70 200 190/17G27 RMK AO2 PK WND 18027/0130 T00560006
04850KAOH AOH20160125203513501/25/16 20:35:31  5-MIN KAOH 260135Z AUTO 18016G27KT 10SM OVC024 06/01 A2981 1080 70 200 190/16G27 RMK AO2 PK WND 18027/0130 T00560006
04850KAOH AOH20160125204012901/25/16 20:40:31  5-MIN KAOH 260140Z AUTO 18016KT 10SM OVC024 06/01 A2981 1080 70 200 190/16 RMK AO2 PK WND 18027/0130 T00560006
04850KAOH AOH20160125204513501/25/16 20:45:31  5-MIN KAOH 260145Z AUTO 18017G22KT 10SM OVC023 06/01 A2981 1080 67 300 190/17G22 RMK AO2 PK WND 18027/0130 T00610006
04850KAOH AOH20160125205014201/25/16 20:50:31  5-MIN KAOH 260150Z AUTO 18017G24KT 10SM OVC023 06/01 A2981 1080 67 300 190/17G24 RMK AO2 PK WND 18027/0130 SLP103 T00610006
04850KAOH AOH20160125205511701/25/16 20:55:31  5-MIN KAOH 260155Z AUTO 18019G24KT 10SM OVC023 06/01 A2981 1080 67 300 190/19G24 RMK AO2 T00610006
04850KAOH AOH20160125210012401/25/16 21:00:31  5-MIN KAOH 260200Z AUTO 18015G24KT 10SM BKN023 OVC032 06/01 A2981 1080 67 300 190/15G24 RMK AO2 T00610006
04850KAOH AOH20160125210512401/25/16 21:05:31  5-MIN KAOH 260205Z AUTO 18013G23KT 10SM BKN023 OVC032 06/01 A2981 1080 67 300 190/13G23 RMK AO2 T00610006
04850KAOH AOH20160125211012401/25/16 21:10:31  5-MIN KAOH 260210Z AUTO 19017G21KT 10SM BKN024 OVC029 06/01 A2981 1080 67 300 190/17G21 RMK AO2 T00610006
04850KAOH AOH20160125211511801/25/16 21:15:31  5-MIN KAOH 260215Z AUTO 18015KT 10SM BKN024 OVC029 06/01 A2981 1080 67 300 190/15 RMK AO2 T00610006
04850KAOH AOH20160125212012401/25/16 21:20:31  5-MIN KAOH 260220Z AUTO 19015G22KT 10SM BKN024 OVC029 06/01 A2981 1080 70 300 190/15G22 RMK AO2 T00610011
04850KAOH AOH20160125212512401/25/16 21:25:31  5-MIN KAOH 260225Z AUTO 18014G23KT 10SM BKN022 OVC027 06/01 A2981 1080 70 300 190/14G23 RMK AO2 T00610011
04850KAOH AOH20160125213011701/25/16 21:30:31  5-MIN KAOH 260230Z AUTO 18014G23KT 10SM OVC024 06/01 A2981 1080 70 300 190/14G23 RMK AO2 T00610011
04850KAOH AOH20160125213511701/25/16 21:35:31  5-MIN KAOH 260235Z AUTO 19014G23KT 10SM OVC025 06/01 A2981 1080 70 300 190/14G23 RMK AO2 T00610011
04850KAOH AOH20160125214011701/25/16 21:40:31  5-MIN KAOH 260240Z AUTO 19015G22KT 10SM OVC025 07/01 A2981 1080 67 400 200/15G22 RMK AO2 T00670011
04850KAOH AOH20160125214511101/25/16 21:45:31  5-MIN KAOH 260245Z AUTO 19015KT 10SM OVC025 06/01 A2981 1080 70 300 190/15 RMK AO2 T00610011
04850KAOH AOH20160125215012401/25/16 21:50:31  5-MIN KAOH 260250Z AUTO 19015KT 10SM OVC027 06/02 A2981 1080 73 300 190/15 RMK AO2 SLP100 T00610017 56009
04850KAOH AOH20160125215511101/25/16 21:55:31  5-MIN KAOH 260255Z AUTO 19015KT 10SM OVC027 07/02 A2980 1090 70 400 190/15 RMK AO2 T00670017
04850KAOH AOH20160125220011801/25/16 22:00:31  5-MIN KAOH 260300Z AUTO 19014KT 10SM BKN027 OVC033 07/02 A2980 1090 70 400 190/14 RMK AO2 T00670017
04850KAOH AOH20160125220511801/25/16 22:05:31  5-MIN KAOH 260305Z AUTO 19016KT 10SM BKN027 OVC033 07/02 A2980 1090 70 400 190/16 RMK AO2 T00670017
04850KAOH AOH20160125221011101/25/16 22:10:31  5-MIN KAOH 260310Z AUTO 18016KT 10SM OVC029 07/02 A2980 1090 70 400 190/16 RMK AO2 T00670017
04850KAOH AOH20160125221511101/25/16 22:15:31  5-MIN KAOH 260315Z AUTO 19016KT 10SM OVC029 07/02 A2980 1090 70 400 190/16 RMK AO2 T00670017
04850KAOH AOH20160125222011801/25/16 22:20:31  5-MIN KAOH 260320Z AUTO 19014KT 10SM BKN027 OVC033 07/02 A2980 1090 70 400 190/14 RMK AO2 T00670017
04850KAOH AOH20160125222511701/25/16 22:25:31  5-MIN KAOH 260325Z AUTO 19017G22KT 10SM OVC027 07/02 A2980 1090 68 500 200/17G22 RMK AO2 T00720017
04850KAOH AOH20160125223011701/25/16 22:30:31  5-MIN KAOH 260330Z AUTO 19013G22KT 10SM OVC027 07/02 A2980 1090 68 500 200/13G22 RMK AO2 T00720017
04850KAOH AOH20160125223511701/25/16 22:35:31  5-MIN KAOH 260335Z AUTO 20014G21KT 10SM OVC025 07/02 A2980 1090 68 400 210/14G21 RMK AO2 T00720017
04850KAOH AOH20160125224011701/25/16 22:40:31  5-MIN KAOH 260340Z AUTO 20014G22KT 10SM OVC025 07/02 A2980 1090 68 400 210/14G22 RMK AO2 T00720017
04850KAOH AOH20160125224511701/25/16 22:45:31  5-MIN KAOH 260345Z AUTO 20018G25KT 10SM OVC025 07/02 A2980 1090 68 500 200/18G25 RMK AO2 T00720017
04850KAOH AOH20160125225012401/25/16 22:50:31  5-MIN KAOH 260350Z AUTO 20016G25KT 10SM OVC025 07/02 A2980 1090 70 500 200/16G25 RMK AO2 SLP096 T00720022
04850KAOH AOH20160125225511701/25/16 22:55:31  5-MIN KAOH 260355Z AUTO 20017G25KT 10SM OVC024 07/02 A2980 1090 70 500 200/17G25 RMK AO2 T00720022
04850KAOH AOH20160125230012401/25/16 23:00:31  5-MIN KAOH 260400Z AUTO 20017G25KT 10SM BKN024 OVC030 07/02 A2979 1100 70 500 200/17G25 RMK AO2 T00720022
04850KAOH AOH20160125230511701/25/16 23:05:31  5-MIN KAOH 260405Z AUTO 20015G24KT 10SM OVC024 07/02 A2979 1100 70 500 200/15G24 RMK AO2 T00720022
04850KAOH AOH20160125231011701/25/16 23:10:31  5-MIN KAOH 260410Z AUTO 20014G24KT 10SM OVC024 07/02 A2979 1090 70 500 200/14G24 RMK AO2 T00720022
04850KAOH AOH20160125231513501/25/16 23:15:31  5-MIN KAOH 260415Z AUTO 20015G26KT 10SM OVC024 07/02 A2979 1100 70 500 200/15G26 RMK AO2 PK WND 20026/0413 T00720022
04850KAOH AOH20160125232013501/25/16 23:20:31  5-MIN KAOH 260420Z AUTO 20014G26KT 10SM OVC024 07/02 A2979 1100 70 500 210/14G26 RMK AO2 PK WND 20026/0413 T00720022
04850KAOH AOH20160125232513501/25/16 23:25:31  5-MIN KAOH 260425Z AUTO 20016G22KT 10SM OVC024 07/03 A2979 1100 73 500 200/16G22 RMK AO2 PK WND 20026/0413 T00720028
04850KAOH AOH20160125233013501/25/16 23:30:31  5-MIN KAOH 260430Z AUTO 20015G22KT 10SM OVC024 07/03 A2979 1100 73 500 200/15G22 RMK AO2 PK WND 20026/0413 T00720028
04850KAOH AOH20160125233513501/25/16 23:35:31  5-MIN KAOH 260435Z AUTO 20015G22KT 10SM OVC023 07/03 A2979 1100 73 500 200/15G22 RMK AO2 PK WND 20026/0413 T00720028
04850KAOH AOH20160125234013501/25/16 23:40:31  5-MIN KAOH 260440Z AUTO 20015G22KT 10SM OVC023 07/03 A2979 1100 73 500 200/15G22 RMK AO2 PK WND 20026/0413 T00720028
04850KAOH AOH20160125234513501/25/16 23:45:31  5-MIN KAOH 260445Z AUTO 19017G23KT 10SM OVC023 07/03 A2979 1100 73 500 200/17G23 RMK AO2 PK WND 20026/0413 T00720028
04850KAOH AOH20160125235015201/25/16 23:50:31  5-MIN KAOH 260450Z AUTO 20015G23KT 10SM OVC023 07/03 A2978 1100 73 500 200/15G23 RMK AO2 PK WND 20026/0413 SLP090 T00720028 400721039
04850KAOH AOH20160125235511701/25/16 23:55:31  5-MIN KAOH 260455Z AUTO 20016G23KT 10SM OVC023 07/03 A2978 1100 73 500 200/16G23 RMK AO2 T00720028
04850KAOH AOH20160126000012401/26/16 00:00:31  5-MIN KAOH 260500Z AUTO 19017G23KT 10SM BKN023 OVC043 07/03 A2978 1110 73 500 200/17G23 RMK AO2 T00720028
04850KAOH AOH20160126000513101/26/16 00:05:31  5-MIN KAOH 260505Z AUTO 20016G24KT 10SM BKN023 BKN043 OVC050 07/03 A2978 1110 76 500 200/16G24 RMK AO2 T00720033
04850KAOH AOH20160126001013101/26/16 00:10:31  5-MIN KAOH 260510Z AUTO 20013G24KT 10SM BKN023 BKN034 OVC046 07/03 A2978 1110 76 500 200/13G24 RMK AO2 T00720033
04850KAOH AOH20160126001514701/26/16 00:15:31  5-MIN KAOH 260515Z AUTO 20017G25KT 10SM -RA SCT023 BKN029 OVC039 07/03 A2978 1110 76 500 200/17G25 RMK AO2 RAB13 P0000 T00720033
04850KAOH AOH20160126002014601/26/16 00:20:31  5-MIN KAOH 260520Z AUTO 19013G25KT 9SM -RA BKN025 BKN031 OVC045 07/03 A2978 1110 76 500 200/13G25 RMK AO2 RAB13 P0000 T00720033
04850KAOH AOH20160126002514001/26/16 00:25:31  5-MIN KAOH 260525Z AUTO 19016G23KT 10SM -RA BKN025 OVC031 07/03 A2977 1110 76 500 200/16G23 RMK AO2 RAB13 P0000 T00720033
04850KAOH AOH20160126003014601/26/16 00:30:31  5-MIN KAOH 260530Z AUTO 20019G24KT 10SM BKN023 BKN028 OVC033 07/04 A2977 1110 79 500 210/19G24 RMK AO2 RAB13E29 P0000 T00720039
04850KAOH AOH20160126003513901/26/16 00:35:31  5-MIN KAOH 260535Z AUTO 20015G24KT 8SM -RA BKN023 OVC030 07/04 A2978 1110 79 500 210/15G24 RMK AO2 RAB13 P0001 T00720039
04850KAOH AOH20160126004013901/26/16 00:40:31  5-MIN KAOH 260540Z AUTO 20018G25KT 8SM -RA BKN023 OVC032 07/04 A2978 1110 79 500 210/18G25 RMK AO2 RAB13 P0001 T00720039
04850KAOH AOH20160126004513301/26/16 00:45:31  5-MIN KAOH 260545Z AUTO 20016G25KT 10SM -RA OVC023 07/04 A2977 1120 79 500 200/16G25 RMK AO2 RAB13 P0001 T00720039
04850KAOH AOH20160126005016301/26/16 00:50:31  5-MIN KAOH 260550Z AUTO 20016G25KT 9SM -RA OVC021 08/04 A2977 1120 76 600 200/16G25 RMK AO2 RAB13 SLP085 P0001 60001 T00780039 10078 20044 56013
04850KAOH AOH20160126005512601/26/16 00:55:31  5-MIN KAOH 260555Z AUTO 20016G25KT 9SM -RA OVC021 08/04 A2977 1120 76 600 210/16G25 RMK AO2 P0000 T00780039
04850KAOH AOH20160126010012701/26/16 01:00:31  5-MIN KAOH 260600Z AUTO 20017G25KT 10SM -RA OVC021 08/04 A2976 1120 76 600 210/17G25 RMK AO2 P0000 T00780039
04850KAOH AOH20160126010512901/26/16 01:05:31  5-MIN KAOH 260605Z AUTO 20016G25KT 10SM OVC021 08/04 A2976 1120 76 600 200/16G25 RMK AO2 RAE02 P0000 T00780039
04850KAOH AOH20160126011012901/26/16 01:10:31  5-MIN KAOH 260610Z AUTO 20017G24KT 10SM OVC021 08/04 A2976 1120 76 600 200/17G24 RMK AO2 RAE02 P0000 T00780039
04850KAOH AOH20160126011513601/26/16 01:15:31  5-MIN KAOH 260615Z AUTO 20017G24KT 10SM BKN021 OVC029 08/04 A2976 1130 76 600 200/17G24 RMK AO2 RAE02 P0000 T00780039
04850KAOH AOH20160126012015401/26/16 01:20:31  5-MIN KAOH 260620Z AUTO 21018G28KT 10SM BKN021 OVC029 08/04 A2976 1130 76 600 210/18G28 RMK AO2 PK WND 20028/0617 RAE02 P0000 T00780039
04850KAOH AOH20160126012515401/26/16 01:25:31  5-MIN KAOH 260625Z AUTO 20018G28KT 10SM BKN021 OVC030 08/04 A2976 1130 76 600 210/18G28 RMK AO2 PK WND 20028/0617 RAE02 P0000 T00780039
04850KAOH AOH20160126013015401/26/16 01:30:31  5-MIN KAOH 260630Z AUTO 20016G25KT 10SM BKN021 OVC030 08/04 A2975 1130 76 600 200/16G25 RMK AO2 PK WND 20028/0617 RAE02 P0000 T00780039
04850KAOH AOH20160126013515401/26/16 01:35:31  5-MIN KAOH 260635Z AUTO 19015G27KT 10SM BKN021 OVC030 08/04 A2975 1130 76 600 200/15G27 RMK AO2 PK WND 20028/0617 RAE02 P0000 T00780039
04850KAOH AOH20160126014015401/26/16 01:40:31  5-MIN KAOH 260640Z AUTO 20016G27KT 10SM BKN021 OVC027 08/04 A2975 1130 76 600 210/16G27 RMK AO2 PK WND 20028/0617 RAE02 P0000 T00780039
04850KAOH AOH20160126014515401/26/16 01:45:31  5-MIN KAOH 260645Z AUTO 20017G24KT 10SM BKN021 OVC027 08/04 A2976 1130 76 600 210/17G24 RMK AO2 PK WND 20028/0617 RAE02 P0000 T00780039
04850KAOH AOH20160126015015401/26/16 01:50:31  5-MIN KAOH 260650Z AUTO 20015G27KT 10SM OVC021 08/04 A2975 1130 76 600 200/15G27 RMK AO2 PK WND 20028/0617 RAE02 SLP078 P0000 T00780039
04850KAOH AOH20160126015513301/26/16 01:55:31  5-MIN KAOH 260655Z AUTO 19016G27KT 10SM -RA OVC021 07/04 A2975 1140 82 500 200/16G27 RMK AO2 RAB54 P0000 T00720044
04850KAOH AOH20160126020012901/26/16 02:00:31  5-MIN KAOH 260700Z AUTO 20015KT 10SM -RA OVC021 07/04 A2975 1130 82 500 200/15 RMK AO2 RAB0654 P0000 T00720044
04850KAOH AOH20160126020513501/26/16 02:05:31  5-MIN KAOH 260705Z AUTO 20016G23KT 10SM -RA OVC021 08/04 A2975 1140 79 600 210/16G23 RMK AO2 RAB0654 P0000 T00780044
04850KAOH AOH20160126021014101/26/16 02:10:31  5-MIN KAOH 260710Z AUTO 20016G23KT 9SM -RA BKN021 BKN065 07/04 A2975 1130 82 500 200/16G23 RMK AO2 RAB0654 P0000 T00720044
04850KAOH AOH20160126021514901/26/16 02:15:31  5-MIN KAOH 260715Z AUTO 20015G23KT 10SM -RA BKN021 BKN028 OVC065 07/04 A2975 1130 82 500 210/15G23 RMK AO2 RAB0654 P0000 T00720044
04850KAOH AOH20160126022015901/26/16 02:20:31  5-MIN KAOH 260720Z AUTO 20017G26KT 10SM BKN021 OVC028 07/04 A2975 1130 82 500 200/17G26 RMK AO2 PK WND 20026/0718 RAB0654E18 P0000 T00720044
04850KAOH AOH20160126022515901/26/16 02:25:31  5-MIN KAOH 260725Z AUTO 20014G26KT 10SM BKN021 OVC028 07/04 A2975 1130 82 500 200/14G26 RMK AO2 PK WND 20026/0718 RAB0654E18 P0000 T00720044
04850KAOH AOH20160126023015901/26/16 02:30:31  5-MIN KAOH 260730Z AUTO 19017G24KT 10SM BKN021 OVC048 07/04 A2975 1140 82 500 200/17G24 RMK AO2 PK WND 20026/0718 RAB0654E18 P0001 T00720044
04850KAOH AOH20160126023515901/26/16 02:35:31  5-MIN KAOH 260735Z AUTO 20015G24KT 10SM BKN019 BKN024 07/04 A2975 1130 82 500 210/15G24 RMK AO2 PK WND 20026/0718 RAB0654E18 P0001 T00720044
04850KAOH AOH20160126024015901/26/16 02:40:31  5-MIN KAOH 260740Z AUTO 20016G23KT 10SM BKN019 OVC024 07/04 A2975 1130 82 500 210/16G23 RMK AO2 PK WND 20026/0718 RAB0654E18 P0001 T00720044
04850KAOH AOH20160126024515901/26/16 02:45:31  5-MIN KAOH 260745Z AUTO 20017G24KT 10SM -RA OVC019 07/05 A2975 1140 86 500 210/17G24 RMK AO2 PK WND 20026/0718 RAB0654E18B44 P0001 T00720050
04850KAOH AOH20160126025016601/26/16 02:50:31  5-MIN KAOH 260750Z AUTO 20016G24KT 10SM -RA OVC019 07/05 A2975 1140 86 500 200/16G24 RMK AO2 PK WND 20026/0718 RAB0654E18B44 SLP077 P0001 T00720050
04850KAOH AOH20160126025511701/26/16 02:55:31  5-MIN KAOH 260755Z AUTO 21018G26KT 10SM OVC019 07/05 A2975 1140 86 500 210/18G26 RMK AO2 T00720050
04850KAOH AOH20160126030011701/26/16 03:00:31  5-MIN KAOH 260800Z AUTO 21019G26KT 10SM OVC019 08/05 A2975 1130 82 600 210/19G26 RMK AO2 T00780050
04850KAOH AOH20160126030513501/26/16 03:05:31  5-MIN KAOH 260805Z AUTO 20016G27KT 10SM OVC019 08/05 A2975 1130 82 600 210/16G27 RMK AO2 PK WND 21027/0805 T00780050
04850KAOH AOH20160126031014201/26/16 03:10:31  5-MIN KAOH 260810Z AUTO 21015G27KT 10SM BKN019 OVC023 07/05 A2975 1130 86 500 220/15G27 RMK AO2 PK WND 21027/0806 T00720050
04850KAOH AOH20160126031513501/26/16 03:15:31  5-MIN KAOH 260815Z AUTO 20017G27KT 10SM OVC019 08/05 A2975 1140 82 600 200/17G27 RMK AO2 PK WND 21027/0806 T00780050
04850KAOH AOH20160126032013501/26/16 03:20:31  5-MIN KAOH 260820Z AUTO 21016G23KT 10SM OVC017 08/05 A2975 1140 82 600 210/16G23 RMK AO2 PK WND 21027/0806 T00780050
04850KAOH AOH20160126032513501/26/16 03:25:31  5-MIN KAOH 260825Z AUTO 21014G23KT 10SM OVC017 07/05 A2975 1140 86 500 210/14G23 RMK AO2 PK WND 21027/0806 T00720050
04850KAOH AOH20160126033013501/26/16 03:30:31  5-MIN KAOH 260830Z AUTO 21014G24KT 10SM OVC017 07/05 A2975 1140 86 500 210/14G24 RMK AO2 PK WND 21027/0806 T00720050
04850KAOH AOH20160126033513501/26/16 03:35:31  5-MIN KAOH 260835Z AUTO 20013G24KT 10SM OVC017 07/05 A2975 1130 86 500 210/13G24 RMK AO2 PK WND 21027/0806 T00720050
04850KAOH AOH20160126034013501/26/16 03:40:31  5-MIN KAOH 260840Z AUTO 21014G21KT 10SM OVC017 07/05 A2975 1140 86 500 210/14G21 RMK AO2 PK WND 21027/0806 T00720050
04850KAOH AOH20160126034513501/26/16 03:45:31  5-MIN KAOH 260845Z AUTO 20015G20KT 10SM OVC017 07/05 A2975 1140 86 500 210/15G20 RMK AO2 PK WND 21027/0806 T00720050
04850KAOH AOH20160126035015401/26/16 03:50:31  5-MIN KAOH 260850Z AUTO 20018G22KT 10SM OVC016 07/05 A2975 1140 86 500 210/18G22 RMK AO2 PK WND 21027/0806 SLP078 60001 T00720050 58013
04850KAOH AOH20160126035511701/26/16 03:55:31  5-MIN KAOH 260855Z AUTO 20017G22KT 10SM OVC016 07/05 A2975 1140 86 500 200/17G22 RMK AO2 T00720050
04850KAOH AOH20160126040013501/26/16 04:00:31  5-MIN KAOH 260900Z AUTO 20019G26KT 10SM OVC016 08/05 A2975 1140 82 600 210/19G26 RMK AO2 PK WND 21026/0859 T00780050
04850KAOH AOH20160126040515101/26/16 04:05:31  5-MIN KAOH 260905Z AUTO 20018G28KT 10SM -RA OVC016 08/05 A2975 1140 82 600 210/18G28 RMK AO2 PK WND 20028/0903 RAB03 P0000 T00780050
04850KAOH AOH20160126041015101/26/16 04:10:31  5-MIN KAOH 260910Z AUTO 21014G28KT 10SM -RA OVC016 08/05 A2975 1130 82 600 220/14G28 RMK AO2 PK WND 20028/0903 RAB03 P0000 T00780050
04850KAOH AOH20160126041515001/26/16 04:15:31  5-MIN KAOH 260915Z AUTO 22014G22KT 10SM OVC016 07/06 A2975 1130 89 500 220/14G22 RMK AO2 PK WND 20028/0903 RAB03E14 P0000 T00720056
04850KAOH AOH20160126042015701/26/16 04:20:31  5-MIN KAOH 260920Z AUTO 21014G22KT 10SM BKN014 OVC021 08/06 A2975 1140 86 600 210/14G22 RMK AO2 PK WND 20028/0903 RAB03E14 P0000 T00780056
04850KAOH AOH20160126042515001/26/16 04:25:31  5-MIN KAOH 260925Z AUTO 21016G25KT 10SM OVC016 08/06 A2975 1140 86 600 220/16G25 RMK AO2 PK WND 20028/0903 RAB03E14 P0000 T00780056
04850KAOH AOH20160126043015001/26/16 04:30:31  5-MIN KAOH 260930Z AUTO 21017G25KT 10SM OVC016 08/06 A2975 1140 86 600 220/17G25 RMK AO2 PK WND 20028/0903 RAB03E14 P0000 T00780056
04850KAOH AOH20160126043515001/26/16 04:35:31  5-MIN KAOH 260935Z AUTO 22019G25KT 10SM OVC015 08/06 A2975 1140 86 600 220/19G25 RMK AO2 PK WND 20028/0903 RAB03E14 P0000 T00780056
04850KAOH AOH20160126044015001/26/16 04:40:31  5-MIN KAOH 260940Z AUTO 21015G25KT 10SM OVC015 08/06 A2975 1140 86 600 220/15G25 RMK AO2 PK WND 20028/0903 RAB03E14 P0000 T00780056
04850KAOH AOH20160126044515701/26/16 04:45:31  5-MIN KAOH 260945Z AUTO 22016G25KT 10SM -RA OVC015 08/06 A2975 1130 86 600 220/16G25 RMK AO2 PK WND 20028/0903 RAB03E14B44 P0000 T00780056
04850KAOH AOH20160126045016401/26/16 04:50:31  5-MIN KAOH 260950Z AUTO 23018G24KT 10SM -RA OVC015 08/06 A2976 1130 86 600 240/18G24 RMK AO2 PK WND 20028/0903 RAB03E14B44 SLP081 P0000 T00780056
04850KAOH AOH20160126045514501/26/16 04:55:31  5-MIN KAOH 260955Z AUTO 24026G33KT 10SM -RA OVC013 08/06 A2976 1120 86 600 240/26G33 RMK AO2 PK WND 24033/0954 P0000 T00780056
04850KAOH AOH20160126050015201/26/16 05:00:31  5-MIN KAOH 261000Z AUTO 25021G33KT 10SM -RA BKN011 OVC016 07/05 A2977 1120 89 400 260/21G33 RMK AO2 PK WND 24033/0954 P0000 T00670050
04850KAOH AOH20160126050514601/26/16 05:05:31  5-MIN KAOH 261005Z AUTO 25022G27KT 9SM OVC013 06/04 A2977 1120 89 400 260/22G27 RMK AO2 PK WND 24033/0954 RAE01 P0000 T00610044
04850KAOH AOH20160126051014601/26/16 05:10:31  5-MIN KAOH 261010Z AUTO 25022G31KT 8SM OVC013 06/04 A2978 1110 86 300 250/22G31 RMK AO2 PK WND 24033/0954 RAE01 P0000 T00610039
04850KAOH AOH20160126051514601/26/16 05:15:31  5-MIN KAOH 261015Z AUTO 26027G32KT 8SM OVC011 06/04 A2978 1100 89 300 270/27G32 RMK AO2 PK WND 24033/0954 RAE01 P0000 T00560039
04850KAOH AOH20160126052014601/26/16 05:20:31  5-MIN KAOH 261020Z AUTO 25024G32KT 8SM OVC011 05/03 A2979 1100 85 200 260/24G32 RMK AO2 PK WND 24033/0954 RAE01 P0000 T00500028
04850KAOH AOH20160126052514601/26/16 05:25:31  5-MIN KAOH 261025Z AUTO 26022G29KT 8SM OVC011 04/03 A2979 1100 89 100 260/22G29 RMK AO2 PK WND 24033/0954 RAE01 P0000 T00440028
04850KAOH AOH20160126053014601/26/16 05:30:31  5-MIN KAOH 261030Z AUTO 25027G33KT 8SM OVC012 04/02 A2979 1100 85 100 260/27G33 RMK AO2 PK WND 24033/0954 RAE01 P0000 T00440022
04850KAOH AOH20160126053514601/26/16 05:35:31  5-MIN KAOH 261035Z AUTO 25026G33KT 8SM OVC012 04/02 A2980 1090 85 100 260/26G33 RMK AO2 PK WND 24033/0954 RAE01 P0000 T00440022
04850KAOH AOH20160126054014601/26/16 05:40:31  5-MIN KAOH 261040Z AUTO 25026G35KT 8SM OVC013 04/02 A2980 1090 82 100 260/26G35 RMK AO2 PK WND 24035/1040 RAE01 P0000 T00440017
04850KAOH AOH20160126054514401/26/16 05:45:31  5-MIN KAOH 261045Z AUTO 25025G35KT 9SM OVC013 04/01 A2981 1080 82 0 260/25G35 RMK AO2 PK WND 24035/1040 RAE01 P0000 T00390011
04850KAOH AOH20160126055014101/26/16 05:50:31  5-MIN KAOH 261050Z AUTO 26029G39KT 9SM OVC016 04/01 A2982 1070 82 0 260/29G39 RMK AO2 PK WND 24039/1050 RAE01 PRESRR P0000
04850KAOH AOH20160126055513201/26/16 05:55:31  5-MIN KAOH 261055Z AUTO 25027G39KT 9SM OVC016 03/01 A2982 1070 82 0 260/27G39 RMK AO2 PK WND 25034/1054 T00330006
04850KAOH AOH20160126060013501/26/16 06:00:31  5-MIN KAOH 261100Z AUTO 25028G35KT 9SM OVC016 03/01 A2982 1070 85 -100 250/28G35 RMK AO2 PK WND 25034/1054 T00280006
04850KAOH AOH20160126060514301/26/16 06:05:31  5-MIN KAOH 261105Z AUTO 24024G33KT 10SM BKN016 OVC021 03/00 A2983 1060 82 -100 250/24G33 RMK AO2 PK WND 25034/1054 T00280000
04850KAOH AOH20160126061014301/26/16 06:10:31  5-MIN KAOH 261110Z AUTO 26028G34KT 10SM BKN014 OVC021 02/00 A2983 1060 85 -100 260/28G34 RMK AO2 PK WND 26034/1110 T00220000
04850KAOH AOH20160126061513601/26/16 06:15:31  5-MIN KAOH 261115Z AUTO 25028G37KT 8SM OVC016 02/M01 A2984 1050 85 -200 250/28G37 RMK AO2 PK WND 25037/1111 T00171006
04850KAOH AOH20160126062014301/26/16 06:20:31  5-MIN KAOH 261120Z AUTO 24027G37KT 7SM BKN016 OVC023 02/M01 A2984 1050 85 -200 250/27G37 RMK AO2 PK WND 25037/1111 T00171006
04850KAOH AOH20160126062514301/26/16 06:25:31  5-MIN KAOH 261125Z AUTO 24024G33KT 8SM BKN015 OVC021 02/M01 A2984 1050 85 -200 250/24G33 RMK AO2 PK WND 25037/1111 T00171006
04850KAOH AOH20160126063014301/26/16 06:30:31  5-MIN KAOH 261130Z AUTO 25020G33KT 9SM BKN015 OVC021 02/M01 A2985 1050 82 -200 250/20G33 RMK AO2 PK WND 25037/1111 T00171011
04850KAOH AOH20160126063514301/26/16 06:35:31  5-MIN KAOH 261135Z AUTO 25023G30KT 9SM BKN015 OVC022 01/M01 A2985 1040 85 -300 260/23G30 RMK AO2 PK WND 25037/1111 T00111011
04850KAOH AOH20160126064014401/26/16 06:40:31  5-MIN KAOH 261140Z AUTO 25019G29KT 10SM BKN015 OVC022 01/M01 A2985 1040 85 -300 250/19G29 RMK AO2 PK WND 25037/1111 T00111011
04850KAOH AOH20160126064514401/26/16 06:45:31  5-MIN KAOH 261145Z AUTO 25024G32KT 10SM BKN015 OVC022 01/M01 A2986 1040 85 -300 250/24G32 RMK AO2 PK WND 25037/1111 T00111011
04850KAOH AOH20160126065017401/26/16 06:50:31  5-MIN KAOH 261150Z AUTO 25022G34KT 10SM OVC015 01/M02 A2986 1030 82 -300 250/22G34 RMK AO2 PK WND 25037/1111 SLP119 60001 70003 T00111017 10078 20011 56006
04850KAOH AOH20160126065513701/26/16 06:55:31  5-MIN KAOH 261155Z AUTO 25024G36KT 10SM OVC015 01/M01 A2986 1030 85 -300 250/24G36 RMK AO2 PK WND 25030/1155 T00111011
04850KAOH AOH20160126070013701/26/16 07:00:31  5-MIN KAOH 261200Z AUTO 25023G36KT 10SM OVC014 01/M01 A2987 1030 85 -300 260/23G36 RMK AO2 PK WND 26031/1158 T00111011
04850KAOH AOH20160126070513701/26/16 07:05:31  5-MIN KAOH 261205Z AUTO 25023G31KT 10SM OVC014 01/M01 A2987 1020 85 -300 250/23G31 RMK AO2 PK WND 26031/1158 T00111011
04850KAOH AOH20160126071013701/26/16 07:10:31  5-MIN KAOH 261210Z AUTO 25021G30KT 10SM OVC014 01/M01 A2987 1020 85 -300 250/21G30 RMK AO2 PK WND 26031/1158 T00111011
04850KAOH AOH20160126071513601/26/16 07:15:31  5-MIN KAOH 261215Z AUTO 24024G29KT 9SM OVC014 01/M01 A2988 1020 85 -300 250/24G29 RMK AO2 PK WND 26031/1158 T00111011
04850KAOH AOH20160126072013601/26/16 07:20:31  5-MIN KAOH 261220Z AUTO 25024G29KT 8SM OVC014 01/M01 A2988 1020 85 -300 250/24G29 RMK AO2 PK WND 26031/1158 T00111011
04850KAOH AOH20160126072513601/26/16 07:25:31  5-MIN KAOH 261225Z AUTO 24023G31KT 8SM OVC014 01/M01 A2987 1020 85 -300 240/23G31 RMK AO2 PK WND 26031/1158 T00111011
04850KAOH AOH20160126073013601/26/16 07:30:31  5-MIN KAOH 261230Z AUTO 23017G30KT 8SM OVC014 01/M02 A2987 1020 82 -300 240/17G30 RMK AO2 PK WND 26031/1158 T00111017
04850KAOH AOH20160126073513601/26/16 07:35:31  5-MIN KAOH 261235Z AUTO 24021G27KT 9SM OVC014 01/M02 A2988 1010 82 -300 240/21G27 RMK AO2 PK WND 26031/1158 T00111017
04850KAOH AOH20160126074013701/26/16 07:40:31  5-MIN KAOH 261240Z AUTO 25018G27KT 10SM OVC014 01/M02 A2988 1010 82 -300 250/18G27 RMK AO2 PK WND 26031/1158 T00111017
04850KAOH AOH20160126074513701/26/16 07:45:31  5-MIN KAOH 261245Z AUTO 24017G27KT 10SM OVC014 01/M02 A2989 1010 85 -400 250/17G27 RMK AO2 PK WND 26031/1158 T00061017
04850KAOH AOH20160126075014401/26/16 07:50:31  5-MIN KAOH 261250Z AUTO 24021G27KT 10SM OVC014 01/M02 A2989 1010 85 -400 240/21G27 RMK AO2 PK WND 26031/1158 SLP128 T00061017
04850KAOH AOH20160126075513601/26/16 07:55:31  5-MIN KAOH 261255Z AUTO 24019G28KT 9SM OVC014 01/M01 A2989 1010 89 -400 250/19G28 RMK AO2 PK WND 25026/1255 T00061011
04850KAOH AOH20160126080013601/26/16 08:00:31  5-MIN KAOH 261300Z AUTO 24018G28KT 9SM OVC012 01/M02 A2989 1000 85 -400 250/18G28 RMK AO2 PK WND 24028/1257 T00061017
04850KAOH AOH20160126080513601/26/16 08:05:31  5-MIN KAOH 261305Z AUTO 24019G29KT 9SM OVC012 01/M02 A2990 1000 85 -400 250/19G29 RMK AO2 PK WND 25029/1301 T00061017
04850KAOH AOH20160126081013601/26/16 08:10:31  5-MIN KAOH 261310Z AUTO 24022G33KT 9SM OVC012 01/M02 A2990 1000 85 -400 250/22G33 RMK AO2 PK WND 24033/1310 T00061017
04850KAOH AOH20160126081513601/26/16 08:15:31  5-MIN KAOH 261315Z AUTO 24025G33KT 9SM OVC011 01/M02 A2990 1000 85 -400 250/25G33 RMK AO2 PK WND 25033/1314 T00061017
04850KAOH AOH20160126082013601/26/16 08:20:31  5-MIN KAOH 261320Z AUTO 24022G33KT 9SM OVC011 01/M02 A2990 1000 85 -400 250/22G33 RMK AO2 PK WND 25033/1314 T00061017
04850KAOH AOH20160126082513601/26/16 08:25:31  5-MIN KAOH 261325Z AUTO 24022G30KT 9SM OVC012 01/M02 A2990 1000 85 -400 250/22G30 RMK AO2 PK WND 25033/1314 T00061017
04850KAOH AOH20160126083013501/26/16 08:30:31  5-MIN KAOH 261330Z AUTO 24023G29KT 9SM OVC012 01/M02 A2991 990 85 -400 250/23G29 RMK AO2 PK WND 25033/1314 T00061017
04850KAOH AOH20160126083513501/26/16 08:35:31  5-MIN KAOH 261335Z AUTO 25021G30KT 9SM OVC012 01/M02 A2991 990 85 -400 250/21G30 RMK AO2 PK WND 25033/1314 T00061017
04850KAOH AOH20160126084013501/26/16 08:40:31  5-MIN KAOH 261340Z AUTO 25022G30KT 9SM OVC013 01/M02 A2991 980 85 -400 250/22G30 RMK AO2 PK WND 25033/1314 T00061017
04850KAOH AOH20160126084513501/26/16 08:45:31  5-MIN KAOH 261345Z AUTO 25024G29KT 9SM OVC013 01/M02 A2992 980 85 -500 250/24G29 RMK AO2 PK WND 25033/1314 T00061017
04850KAOH AOH20160126085014201/26/16 08:50:31  5-MIN KAOH 261350Z AUTO 25019G29KT 9SM OVC013 01/M02 A2992 980 85 -500 250/19G29 RMK AO2 PK WND 25033/1314 SLP137 T00061017
04850KAOH AOH20160126085513501/26/16 08:55:31  5-MIN KAOH 261355Z AUTO 25018G29KT 8SM OVC014 01/M02 A2992 980 85 -500 260/18G29 RMK AO2 PK WND 25027/1354 T00061017
04850KAOH AOH20160126090013501/26/16 09:00:31  5-MIN KAOH 261400Z AUTO 25021G27KT 8SM OVC014 01/M02 A2992 970 82 -500 260/21G27 RMK AO2 PK WND 25027/1358 T00061022
04850KAOH AOH20160126090513501/26/16 09:05:31  5-MIN KAOH 261405Z AUTO 25019G27KT 7SM OVC014 01/M02 A2993 970 82 -500 250/19G27 RMK AO2 PK WND 25027/1358 T00061022
04850KAOH AOH20160126091012901/26/16 09:10:31  5-MIN KAOH 261410Z AUTO 25017KT 7SM OVC014 01/M02 A2993 970 82 -500 250/17 RMK AO2 PK WND 25027/1358 T00061022
04850KAOH AOH20160126091513501/26/16 09:15:31  5-MIN KAOH 261415Z AUTO 25018G25KT 7SM OVC015 01/M02 A2993 970 82 -500 250/18G25 RMK AO2 PK WND 25027/1358 T00061022
04850KAOH AOH20160126092013501/26/16 09:20:31  5-MIN KAOH 261420Z AUTO 24019G24KT 7SM OVC015 01/M02 A2993 970 85 -500 250/19G24 RMK AO2 PK WND 25027/1358 T00061017
04850KAOH AOH20160126092513501/26/16 09:25:31  5-MIN KAOH 261425Z AUTO 24019G27KT 7SM OVC015 01/M02 A2993 970 85 -500 250/19G27 RMK AO2 PK WND 23027/1425 T00061017
04850KAOH AOH20160126093013501/26/16 09:30:31  5-MIN KAOH 261430Z AUTO 24021G27KT 7SM OVC013 01/M02 A2994 960 82 -500 250/21G27 RMK AO2 PK WND 24027/1430 T00061022
04850KAOH AOH20160126093513501/26/16 09:35:31  5-MIN KAOH 261435Z AUTO 25020G28KT 8SM OVC013 01/M02 A2994 960 82 -500 250/20G28 RMK AO2 PK WND 26028/1433 T00061022
04850KAOH AOH20160126094013501/26/16 09:40:31  5-MIN KAOH 261440Z AUTO 25023G29KT 8SM OVC015 01/M02 A2994 960 82 -500 260/23G29 RMK AO2 PK WND 25029/1438 T00061022
04850KAOH AOH20160126094513501/26/16 09:45:31  5-MIN KAOH 261445Z AUTO 25022G29KT 9SM OVC015 01/M02 A2995 950 82 -500 250/22G29 RMK AO2 PK WND 25029/1438 T00061022
04850KAOH AOH20160126095014201/26/16 09:50:31  5-MIN KAOH 261450Z AUTO 26019KT 9SM OVC015 01/M02 A2995 950 82 -500 260/19 RMK AO2 PK WND 25029/1438 SLP149 T00061022 53038
04850KAOH AOH20160126095513501/26/16 09:55:31  5-MIN KAOH 261455Z AUTO 25023G30KT 9SM OVC015 01/M02 A2995 950 82 -500 260/23G30 RMK AO2 PK WND 25030/1454 T00061022
04850KAOH AOH20160126100013601/26/16 10:00:31  5-MIN KAOH 261500Z AUTO 25021G30KT 10SM OVC015 01/M02 A2996 950 82 -500 260/21G30 RMK AO2 PK WND 25030/1454 T00061022
04850KAOH AOH20160126100513601/26/16 10:05:31  5-MIN KAOH 261505Z AUTO 25020G27KT 10SM OVC015 01/M02 A2996 940 82 -500 250/20G27 RMK AO2 PK WND 25030/1454 T00061022
04850KAOH AOH20160126101013601/26/16 10:10:31  5-MIN KAOH 261510Z AUTO 24022G27KT 10SM OVC014 01/M02 A2996 940 82 -500 250/22G27 RMK AO2 PK WND 25030/1454 T00061022
04850KAOH AOH20160126101513601/26/16 10:15:31  5-MIN KAOH 261515Z AUTO 25021G28KT 10SM OVC014 01/M02 A2996 940 82 -500 250/21G28 RMK AO2 PK WND 25030/1454 T00061022
04850KAOH AOH20160126102013601/26/16 10:20:31  5-MIN KAOH 261520Z AUTO 25021G28KT 10SM OVC014 01/M02 A2996 940 82 -500 250/21G28 RMK AO2 PK WND 25030/1454 T00061022
04850KAOH AOH20160126102513601/26/16 10:25:31  5-MIN KAOH 261525Z AUTO 24019G26KT 10SM OVC014 00/M03 A2996 940 81 -600 240/19G26 RMK AO2 PK WND 25030/1454 T00001028
04850KAOH AOH20160126103013601/26/16 10:30:31  5-MIN KAOH 261530Z AUTO 24020G26KT 10SM OVC015 00/M02 A2996 940 85 -600 250/20G26 RMK AO2 PK WND 25030/1454 T00001022
04850KAOH AOH20160126103513601/26/16 10:35:31  5-MIN KAOH 261535Z AUTO 25016G27KT 10SM OVC015 00/M02 A2997 930 85 -600 250/16G27 RMK AO2 PK WND 25030/1454 T00001022
04850KAOH AOH20160126104013601/26/16 10:40:31  5-MIN KAOH 261540Z AUTO 25021G26KT 10SM OVC015 00/M02 A2997 940 85 -600 250/21G26 RMK AO2 PK WND 25030/1454 T00001022
04850KAOH AOH20160126104513601/26/16 10:45:31  5-MIN KAOH 261545Z AUTO 25024G29KT 10SM OVC015 01/M02 A2997 930 82 -500 260/24G29 RMK AO2 PK WND 25030/1454 T00061022
04850KAOH AOH20160126105014301/26/16 10:50:31  5-MIN KAOH 261550Z AUTO 25020G29KT 10SM OVC015 01/M02 A2997 930 82 -500 260/20G29 RMK AO2 PK WND 25030/1454 SLP155 T00061022
04850KAOH AOH20160126105511801/26/16 10:55:31  5-MIN KAOH 261555Z AUTO 25019G27KT 10SM OVC015 01/M02 A2997 930 82 -500 250/19G27 RMK AO2 T00061022
04850KAOH AOH20160126110013601/26/16 11:00:31  5-MIN KAOH 261600Z AUTO 24020G28KT 10SM OVC015 01/M02 A2997 930 82 -500 250/20G28 RMK AO2 PK WND 24028/1559 T00061022
04850KAOH AOH20160126110513601/26/16 11:05:31  5-MIN KAOH 261605Z AUTO 25022G33KT 10SM OVC014 01/M02 A2997 930 82 -500 260/22G33 RMK AO2 PK WND 25033/1601 T00061022
04850KAOH AOH20160126111013601/26/16 11:10:31  5-MIN KAOH 261610Z AUTO 24023G33KT 10SM OVC014 01/M02 A2997 930 82 -500 250/23G33 RMK AO2 PK WND 25033/1601 T00061022
04850KAOH AOH20160126111513601/26/16 11:15:31  5-MIN KAOH 261615Z AUTO 25024G32KT 10SM OVC014 00/M02 A2997 930 85 -600 260/24G32 RMK AO2 PK WND 25033/1601 T00001022
04850KAOH AOH20160126112013601/26/16 11:20:31  5-MIN KAOH 261620Z AUTO 25021G32KT 10SM OVC013 00/M02 A2997 930 85 -600 250/21G32 RMK AO2 PK WND 25033/1601 T00001022
04850KAOH AOH20160126112513601/26/16 11:25:31  5-MIN KAOH 261625Z AUTO 24023G31KT 10SM OVC013 00/M02 A2998 930 85 -600 250/23G31 RMK AO2 PK WND 25033/1601 T00001022
04850KAOH AOH20160126113013601/26/16 11:30:31  5-MIN KAOH 261630Z AUTO 25021G30KT 10SM OVC013 01/M02 A2998 930 82 -500 250/21G30 RMK AO2 PK WND 25033/1601 T00061022
04850KAOH AOH20160126113513601/26/16 11:35:31  5-MIN KAOH 261635Z AUTO 25019G28KT 10SM OVC013 01/M02 A2998 930 82 -500 250/19G28 RMK AO2 PK WND 25033/1601 T00061022
04850KAOH AOH20160126114013001/26/16 11:40:31  5-MIN KAOH 261640Z AUTO 25014KT 10SM OVC014 01/M02 A2998 920 82 -500 260/14 RMK AO2 PK WND 25033/1601 T00061022
04850KAOH AOH20160126114513601/26/16 11:45:31  5-MIN KAOH 261645Z AUTO 25018G23KT 10SM OVC014 00/M02 A2998 920 85 -600 260/18G23 RMK AO2 PK WND 25033/1601 T00001022
04850KAOH AOH20160126115014301/26/16 11:50:31  5-MIN KAOH 261650Z AUTO 25016G23KT 10SM OVC014 00/M02 A2998 920 85 -600 260/16G23 RMK AO2 PK WND 25033/1601 SLP159 T00001022
04850KAOH AOH20160126115511201/26/16 11:55:31  5-MIN KAOH 261655Z AUTO 26020KT 10SM OVC015 00/M02 A2999 920 85 -600 260/20 RMK AO2 T00001022
04850KAOH AOH20160126120011201/26/16 12:00:31  5-MIN KAOH 261700Z AUTO 26016KT 10SM OVC015 00/M02 A2999 920 85 -600 260/16 RMK AO2 T00001022
04850KAOH AOH20160126120511801/26/16 12:05:31  5-MIN KAOH 261705Z AUTO 26020G25KT 10SM OVC015 00/M02 A2999 910 85 -600 270/20G25 RMK AO2 T00001022
04850KAOH AOH20160126121011801/26/16 12:10:31  5-MIN KAOH 261710Z AUTO 26020G25KT 10SM OVC015 00/M03 A2999 910 81 -600 270/20G25 RMK AO2 T00001028
04850KAOH AOH20160126121513601/26/16 12:15:31  5-MIN KAOH 261715Z AUTO 26020G27KT 10SM OVC015 00/M03 A2999 910 81 -600 270/20G27 RMK AO2 PK WND 26027/1711 T00001028
04850KAOH AOH20160126122013601/26/16 12:20:31  5-MIN KAOH 261720Z AUTO 26024G28KT 10SM OVC015 00/M03 A3000 910 81 -600 270/24G28 RMK AO2 PK WND 27028/1720 T00001028
04850KAOH AOH20160126122513601/26/16 12:25:31  5-MIN KAOH 261725Z AUTO 25024G31KT 10SM OVC016 00/M03 A3000 900 81 -600 260/24G31 RMK AO2 PK WND 27031/1721 T00001028
04850KAOH AOH20160126123013601/26/16 12:30:31  5-MIN KAOH 261730Z AUTO 26023G31KT 10SM OVC016 00/M03 A3000 900 81 -600 270/23G31 RMK AO2 PK WND 27031/1721 T00001028
04850KAOH AOH20160126123513601/26/16 12:35:31  5-MIN KAOH 261735Z AUTO 26020G30KT 10SM OVC016 00/M03 A3001 900 81 -600 270/20G30 RMK AO2 PK WND 27031/1721 T00001028
04850KAOH AOH20160126124013601/26/16 12:40:31  5-MIN KAOH 261740Z AUTO 26020G28KT 10SM OVC016 00/M03 A3001 900 81 -600 260/20G28 RMK AO2 PK WND 27031/1721 T00001028
04850KAOH AOH20160126124513601/26/16 12:45:31  5-MIN KAOH 261745Z AUTO 26017G28KT 10SM OVC016 00/M03 A3001 900 81 -600 260/17G28 RMK AO2 PK WND 27031/1721 T00001028
04850KAOH AOH20160126125016101/26/16 12:50:31  5-MIN KAOH 261750Z AUTO 25022G31KT 10SM OVC016 00/M03 A3001 900 81 -600 260/22G31 RMK AO2 PK WND 26031/1750 SLP168 T00001028 10011 20000 53029
04850KAOH AOH20160126125513601/26/16 12:55:31  5-MIN KAOH 261755Z AUTO 26026G32KT 10SM OVC018 00/M03 A3001 900 78 -600 270/26G32 RMK AO2 PK WND 27032/1755 T00001033
04850KAOH AOH20160126130013601/26/16 13:00:31  5-MIN KAOH 261800Z AUTO 26023G32KT 10SM OVC018 00/M04 A3001 900 75 -600 270/23G32 RMK AO2 PK WND 27032/1755 T00001039
04850KAOH AOH20160126130513001/26/16 13:05:31  5-MIN KAOH 261805Z AUTO 27023KT 10SM OVC019 00/M04 A3001 900 75 -600 270/23 RMK AO2 PK WND 27032/1755 T00001039
04850KAOH AOH20160126131013601/26/16 13:10:31  5-MIN KAOH 261810Z AUTO 26024G29KT 10SM OVC019 00/M03 A3001 900 78 -600 260/24G29 RMK AO2 PK WND 27032/1755 T00001033
04850KAOH AOH20160126131513601/26/16 13:15:31  5-MIN KAOH 261815Z AUTO 27019G29KT 10SM OVC021 00/M04 A3001 900 75 -600 280/19G29 RMK AO2 PK WND 27032/1755 T00001039
04850KAOH AOH20160126132013601/26/16 13:20:31  5-MIN KAOH 261820Z AUTO 27022G30KT 10SM OVC021 00/M04 A3001 900 75 -600 270/22G30 RMK AO2 PK WND 27032/1755 T00001039
04850KAOH AOH20160126132513601/26/16 13:25:31  5-MIN KAOH 261825Z AUTO 26020G30KT 10SM OVC021 00/M04 A3001 890 75 -600 270/20G30 RMK AO2 PK WND 27032/1755 T00001039
04850KAOH AOH20160126133013601/26/16 13:30:31  5-MIN KAOH 261830Z AUTO 26020G27KT 10SM OVC021 00/M04 A3001 890 75 -600 270/20G27 RMK AO2 PK WND 27032/1755 T00001039
04850KAOH AOH20160126133513601/26/16 13:35:31  5-MIN KAOH 261835Z AUTO 27023G29KT 10SM OVC021 00/M03 A3001 890 78 -600 280/23G29 RMK AO2 PK WND 27032/1755 T00001033
04850KAOH AOH20160126134013601/26/16 13:40:31  5-MIN KAOH 261840Z AUTO 27024G30KT 10SM OVC021 00/M04 A3001 890 75 -600 280/24G30 RMK AO2 PK WND 27032/1755 T00001039
04850KAOH AOH20160126134513601/26/16 13:45:31  5-MIN KAOH 261845Z AUTO 27021G31KT 10SM OVC022 00/M04 A3001 900 75 -600 280/21G31 RMK AO2 PK WND 27032/1755 T00001039
04850KAOH AOH20160126135014301/26/16 13:50:31  5-MIN KAOH 261850Z AUTO 27017G31KT 10SM OVC022 00/M04 A3000 900 75 -600 270/17G31 RMK AO2 PK WND 27032/1755 SLP167 T00001039
04850KAOH AOH20160126135511801/26/16 13:55:31  5-MIN KAOH 261855Z AUTO 27017G27KT 10SM OVC022 00/M03 A3001 900 78 -600 280/17G27 RMK AO2 T00001033
04850KAOH AOH20160126140011201/26/16 14:00:31  5-MIN KAOH 261900Z AUTO 28016KT 10SM OVC021 00/M03 A3000 900 78 -600 280/16 RMK AO2 T00001033
04850KAOH AOH20160126140511801/26/16 14:05:31  5-MIN KAOH 261905Z AUTO 27019G23KT 10SM OVC021 00/M03 A3000 900 78 -600 280/19G23 RMK AO2 T00001033
04850KAOH AOH20160126141011801/26/16 14:10:31  5-MIN KAOH 261910Z AUTO 27019G25KT 10SM OVC020 00/M03 A3000 900 78 -600 280/19G25 RMK AO2 T00001033
04850KAOH AOH20160126141511801/26/16 14:15:31  5-MIN KAOH 261915Z AUTO 28017G25KT 10SM OVC020 00/M03 A3000 910 78 -600 280/17G25 RMK AO2 T00001033
04850KAOH AOH20160126142011801/26/16 14:20:31  5-MIN KAOH 261920Z AUTO 28015G25KT 10SM OVC020 00/M03 A3000 910 78 -600 280/15G25 RMK AO2 T00001033
04850KAOH AOH20160126142511801/26/16 14:25:31  5-MIN KAOH 261925Z AUTO 27016G25KT 10SM OVC019 00/M03 A3000 900 78 -600 280/16G25 RMK AO2 T00001033
04850KAOH AOH20160126143013601/26/16 14:30:31  5-MIN KAOH 261930Z AUTO 27021G26KT 10SM OVC019 00/M03 A3000 900 78 -600 280/21G26 RMK AO2 PK WND 28026/1927 T00001033
04850KAOH AOH20160126143513601/26/16 14:35:31  5-MIN KAOH 261935Z AUTO 27023G27KT 10SM OVC019 00/M03 A3001 900 78 -600 270/23G27 RMK AO2 PK WND 27028/1935 T00001033
04850KAOH AOH20160126144013601/26/16 14:40:31  5-MIN KAOH 261940Z AUTO 27020G27KT 10SM OVC018 00/M03 A3001 890 78 -600 270/20G27 RMK AO2 PK WND 27028/1935 T00001033
04850KAOH AOH20160126144513601/26/16 14:45:31  5-MIN KAOH 261945Z AUTO 27017G27KT 10SM OVC018 00/M03 A3001 890 78 -600 280/17G27 RMK AO2 PK WND 27028/1935 T00001033
04850KAOH AOH20160126145013701/26/16 14:50:31  5-MIN KAOH 261950Z AUTO 26016KT 10SM OVC018 00/M03 A3001 890 78 -600 270/16 RMK AO2 PK WND 27028/1935 SLP170 T00001033
04850KAOH AOH20160126145511801/26/16 14:55:31  5-MIN KAOH 261955Z AUTO 26018G23KT 10SM OVC018 00/M03 A3001 890 78 -600 270/18G23 RMK AO2 T00001033
04850KAOH AOH20160126150011201/26/16 15:00:31  5-MIN KAOH 262000Z AUTO 26018KT 10SM OVC018 00/M03 A3001 890 78 -600 270/18 RMK AO2 T00001033
04850KAOH AOH20160126150511201/26/16 15:05:31  5-MIN KAOH 262005Z AUTO 26019KT 10SM OVC017 00/M03 A3002 880 78 -600 270/19 RMK AO2 T00001033
04850KAOH AOH20160126151013601/26/16 15:10:31  5-MIN KAOH 262010Z AUTO 26017G25KT 10SM OVC017 00/M03 A3002 890 78 -600 270/17G25 RMK AO2 PK WND 25026/2008 T00001033
04850KAOH AOH20160126151513601/26/16 15:15:31  5-MIN KAOH 262015Z AUTO 26016G25KT 10SM OVC017 00/M03 A3002 880 78 -600 270/16G25 RMK AO2 PK WND 25026/2008 T00001033
04850KAOH AOH20160126152013001/26/16 15:20:31  5-MIN KAOH 262020Z AUTO 27017KT 10SM OVC017 00/M03 A3002 880 78 -600 270/17 RMK AO2 PK WND 25026/2008 T00001033
04850KAOH AOH20160126152513601/26/16 15:25:31  5-MIN KAOH 262025Z AUTO 27017G23KT 10SM OVC018 00/M03 A3003 880 78 -700 280/17G23 RMK AO2 PK WND 25026/2008 T00001033
04850KAOH AOH20160126153013001/26/16 15:30:31  5-MIN KAOH 262030Z AUTO 26015KT 10SM OVC018 00/M03 A3003 880 78 -700 270/15 RMK AO2 PK WND 25026/2008 T00001033
04850KAOH AOH20160126153513601/26/16 15:35:31  5-MIN KAOH 262035Z AUTO 27020G24KT 10SM OVC018 00/M03 A3003 880 78 -700 270/20G24 RMK AO2 PK WND 25026/2008 T00001033
04850KAOH AOH20160126154013601/26/16 15:40:31  5-MIN KAOH 262040Z AUTO 27020G24KT 10SM OVC019 00/M04 A3003 880 75 -700 270/20G24 RMK AO2 PK WND 25026/2008 T00001039
04850KAOH AOH20160126154513601/26/16 15:45:31  5-MIN KAOH 262045Z AUTO 26016G27KT 10SM OVC019 00/M04 A3004 870 75 -700 270/16G27 RMK AO2 PK WND 26027/2041 T00001039
04850KAOH AOH20160126155014901/26/16 15:50:31  5-MIN KAOH 262050Z AUTO 26019G27KT 10SM OVC019 00/M04 A3004 870 75 -700 270/19G27 RMK AO2 PK WND 26027/2041 SLP179 T00001039 53018
04850KAOH AOH20160126155511201/26/16 15:55:31  5-MIN KAOH 262055Z AUTO 26018KT 10SM OVC019 00/M04 A3004 870 75 -700 270/18 RMK AO2 T00001039
04850KAOH AOH20160126160011201/26/16 16:00:31  5-MIN KAOH 262100Z AUTO 27018KT 10SM OVC019 00/M04 A3004 870 75 -700 270/18 RMK AO2 T00001039
04850KAOH AOH20160126160511301/26/16 16:05:31  5-MIN KAOH 262105Z AUTO 27018KT 10SM OVC019 M01/M04 A3004 870 78 -700 280/18 RMK AO2 T10061039
04850KAOH AOH20160126161011301/26/16 16:10:31  5-MIN KAOH 262110Z AUTO 27018KT 10SM OVC019 M01/M04 A3004 870 78 -700 270/18 RMK AO2 T10061039
04850KAOH AOH20160126161511301/26/16 16:15:31  5-MIN KAOH 262115Z AUTO 26017KT 10SM OVC019 M01/M04 A3004 870 78 -700 270/17 RMK AO2 T10061039
04850KAOH AOH20160126162011301/26/16 16:20:31  5-MIN KAOH 262120Z AUTO 27012KT 10SM OVC019 M01/M03 A3004 860 81 -700 270/12 RMK AO2 T10061033
04850KAOH AOH20160126162511301/26/16 16:25:31  5-MIN KAOH 262125Z AUTO 27013KT 10SM OVC019 M01/M03 A3004 860 81 -700 270/13 RMK AO2 T10061033
04850KAOH AOH20160126163011301/26/16 16:30:31  5-MIN KAOH 262130Z AUTO 26018KT 10SM OVC018 M01/M03 A3005 860 81 -700 270/18 RMK AO2 T10061033
04850KAOH AOH20160126163511301/26/16 16:35:31  5-MIN KAOH 262135Z AUTO 26013KT 10SM OVC018 M01/M03 A3005 860 81 -700 270/13 RMK AO2 T10061033
04850KAOH AOH20160126164011301/26/16 16:40:31  5-MIN KAOH 262140Z AUTO 26016KT 10SM OVC016 M01/M03 A3005 850 81 -800 270/16 RMK AO2 T10061033
04850KAOH AOH20160126164511301/26/16 16:45:31  5-MIN KAOH 262145Z AUTO 26014KT 10SM OVC016 M01/M03 A3006 850 81 -800 270/14 RMK AO2 T10061033
04850KAOH AOH20160126165010301/26/16 16:50:31  5-MIN KAOH 262150Z AUTO 25018KT 10SM OVC014 M01/M03 A3006 850 81 -800 250/18 RMK AO2
04850KAOH AOH20160126165511301/26/16 16:55:31  5-MIN KAOH 262155Z AUTO 26016KT 10SM OVC014 M01/M03 A3006 850 81 -800 270/16 RMK AO2 T10061033
04850KAOH AOH20160126170011301/26/16 17:00:31  5-MIN KAOH 262200Z AUTO 26014KT 10SM OVC014 M01/M03 A3006 850 81 -800 270/14 RMK AO2 T10061033
04850KAOH AOH20160126170512601/26/16 17:05:31  5-MIN KAOH 262205Z AUTO 27015G20KT 10SM BKN014 OVC020 M01/M03 A3006 850 81 -800 280/15G20 RMK AO2 T10061033
04850KAOH AOH20160126171011901/26/16 17:10:31  5-MIN KAOH 262210Z AUTO 26014G20KT 10SM OVC016 M01/M03 A3006 850 81 -800 270/14G20 RMK AO2 T10061033
04850KAOH AOH20160126171511301/26/16 17:15:31  5-MIN KAOH 262215Z AUTO 25013KT 10SM OVC016 M01/M03 A3007 840 81 -800 250/13 RMK AO2 T10061033
04850KAOH AOH20160126172011301/26/16 17:20:31  5-MIN KAOH 262220Z AUTO 26015KT 10SM OVC016 M01/M03 A3007 840 81 -800 270/15 RMK AO2 T10061033
04850KAOH AOH20160126172511301/26/16 17:25:31  5-MIN KAOH 262225Z AUTO 26016KT 10SM OVC016 M01/M03 A3007 840 81 -800 270/16 RMK AO2 T10061033
04850KAOH AOH20160126173011901/26/16 17:30:31  5-MIN KAOH 262230Z AUTO 27014G23KT 10SM OVC016 M01/M03 A3007 840 81 -800 280/14G23 RMK AO2 T10061033
04850KAOH AOH20160126173511901/26/16 17:35:31  5-MIN KAOH 262235Z AUTO 27015G23KT 10SM OVC016 M01/M04 A3007 840 78 -800 280/15G23 RMK AO2 T10061039
04850KAOH AOH20160126174011901/26/16 17:40:31  5-MIN KAOH 262240Z AUTO 27012G23KT 10SM OVC016 M01/M03 A3007 840 81 -800 280/12G23 RMK AO2 T10061033
04850KAOH AOH20160126174511301/26/16 17:45:31  5-MIN KAOH 262245Z AUTO 26015KT 10SM OVC016 M01/M04 A3008 830 78 -800 270/15 RMK AO2 T10061039
04850KAOH AOH20160126175012001/26/16 17:50:31  5-MIN KAOH 262250Z AUTO 26015KT 10SM OVC017 M01/M04 A3008 830 78 -800 270/15 RMK AO2 SLP194 T10061039
04850KAOH AOH20160126175511301/26/16 17:55:31  5-MIN KAOH 262255Z AUTO 26013KT 10SM OVC017 M01/M04 A3008 830 78 -800 260/13 RMK AO2 T10061039
04850KAOH AOH20160126180011301/26/16 18:00:31  5-MIN KAOH 262300Z AUTO 25012KT 10SM OVC017 M01/M03 A3009 830 81 -800 260/12 RMK AO2 T10061033
04850KAOH AOH20160126180511901/26/16 18:05:31  5-MIN KAOH 262305Z AUTO 25017G22KT 10SM OVC017 M01/M04 A3009 830 78 -800 250/17G22 RMK AO2 T10061039
04850KAOH AOH20160126181011901/26/16 18:10:31  5-MIN KAOH 262310Z AUTO 25016G22KT 10SM OVC019 M01/M04 A3009 830 78 -800 260/16G22 RMK AO2 T10061039
04850KAOH AOH20160126181511301/26/16 18:15:31  5-MIN KAOH 262315Z AUTO 25016KT 10SM OVC019 M01/M04 A3009 820 78 -800 260/16 RMK AO2 T10061039
04850KAOH AOH20160126182011901/26/16 18:20:31  5-MIN KAOH 262320Z AUTO 25017G22KT 10SM OVC019 M01/M04 A3009 820 78 -800 250/17G22 RMK AO2 T10061039
04850KAOH AOH20160126182511901/26/16 18:25:31  5-MIN KAOH 262325Z AUTO 26013G22KT 10SM OVC019 M01/M04 A3009 820 78 -800 260/13G22 RMK AO2 T10061039
04850KAOH AOH20160126183011301/26/16 18:30:31  5-MIN KAOH 262330Z AUTO 25012KT 10SM OVC019 M01/M04 A3009 820 78 -800 260/12 RMK AO2 T10061039
04850KAOH AOH20160126183511301/26/16 18:35:31  5-MIN KAOH 262335Z AUTO 25013KT 10SM OVC019 M01/M04 A3009 820 78 -800 260/13 RMK AO2 T10061039
04850KAOH AOH20160126184011301/26/16 18:40:31  5-MIN KAOH 262340Z AUTO 26013KT 10SM OVC019 M01/M04 A3009 820 78 -800 260/13 RMK AO2 T10061039
04850KAOH AOH20160126184511301/26/16 18:45:31  5-MIN KAOH 262345Z AUTO 25011KT 10SM OVC019 M01/M04 A3009 820 78 -800 260/11 RMK AO2 T10061039
04850KAOH AOH20160126185013801/26/16 18:50:31  5-MIN KAOH 262350Z AUTO 26014KT 10SM OVC019 M01/M04 A3009 820 78 -800 260/14 RMK AO2 SLP200 T10061039 10000 21006 53010
04850KAOH AOH20160126185511301/26/16 18:55:31  5-MIN KAOH 262355Z AUTO 26014KT 10SM OVC019 M01/M04 A3009 820 78 -800 270/14 RMK AO2 T10061039
04850KAOH AOH20160126190011301/26/16 19:00:31  5-MIN KAOH 270000Z AUTO 27014KT 10SM OVC018 M01/M04 A3010 820 78 -800 270/14 RMK AO2 T10061039
04850KAOH AOH20160126190511301/26/16 19:05:31  5-MIN KAOH 270005Z AUTO 26015KT 10SM OVC018 M01/M04 A3010 820 78 -800 260/15 RMK AO2 T10061039
04850KAOH AOH20160126191011301/26/16 19:10:31  5-MIN KAOH 270010Z AUTO 26017KT 10SM OVC018 M01/M04 A3010 810 78 -800 270/17 RMK AO2 T10061039
04850KAOH AOH20160126191511301/26/16 19:15:31  5-MIN KAOH 270015Z AUTO 26013KT 10SM OVC018 M01/M04 A3010 810 78 -800 260/13 RMK AO2 T10061039
04850KAOH AOH20160126192011301/26/16 19:20:31  5-MIN KAOH 270020Z AUTO 26012KT 10SM OVC017 M01/M04 A3010 810 78 -800 270/12 RMK AO2 T10061039
04850KAOH AOH20160126192511301/26/16 19:25:31  5-MIN KAOH 270025Z AUTO 27014KT 10SM OVC017 M01/M04 A3010 820 78 -800 280/14 RMK AO2 T10061039
04850KAOH AOH20160126193011901/26/16 19:30:31  5-MIN KAOH 270030Z AUTO 27017G22KT 10SM OVC017 M01/M04 A3010 810 78 -800 270/17G22 RMK AO2 T10061039
04850KAOH AOH20160126193511901/26/16 19:35:31  5-MIN KAOH 270035Z AUTO 26017G22KT 10SM OVC017 M01/M04 A3010 810 78 -900 270/17G22 RMK AO2 T10111044
04850KAOH AOH20160126194011301/26/16 19:40:31  5-MIN KAOH 270040Z AUTO 25017KT 10SM OVC018 M01/M04 A3010 810 78 -900 260/17 RMK AO2 T10111044
04850KAOH AOH20160126194511301/26/16 19:45:31  5-MIN KAOH 270045Z AUTO 27014KT 10SM OVC018 M01/M04 A3011 810 78 -900 280/14 RMK AO2 T10111044
04850KAOH AOH20160126195012001/26/16 19:50:31  5-MIN KAOH 270050Z AUTO 25015KT 10SM OVC018 M01/M04 A3011 800 81 -900 260/15 RMK AO2 SLP206 T10111039
04850KAOH AOH20160126195511901/26/16 19:55:31  5-MIN KAOH 270055Z AUTO 25018G24KT 10SM OVC018 M01/M04 A3011 800 78 -900 260/18G24 RMK AO2 T10111044
04850KAOH AOH20160126200011901/26/16 20:00:31  5-MIN KAOH 270100Z AUTO 26017G24KT 10SM OVC016 M01/M04 A3012 800 78 -900 270/17G24 RMK AO2 T10111044
04850KAOH AOH20160126200511901/26/16 20:05:31  5-MIN KAOH 270105Z AUTO 27016G23KT 10SM OVC016 M01/M04 A3012 800 78 -900 270/16G23 RMK AO2 T10111044
04850KAOH AOH20160126201011901/26/16 20:10:31  5-MIN KAOH 270110Z AUTO 27018G23KT 10SM OVC016 M01/M04 A3012 790 78 -900 270/18G23 RMK AO2 T10111044
04850KAOH AOH20160126201511301/26/16 20:15:31  5-MIN KAOH 270115Z AUTO 28016KT 10SM OVC016 M01/M04 A3012 790 78 -900 280/16 RMK AO2 T10111044
04850KAOH AOH20160126202011301/26/16 20:20:31  5-MIN KAOH 270120Z AUTO 27014KT 10SM OVC015 M01/M04 A3013 790 81 -900 280/14 RMK AO2 T10111039
04850KAOH AOH20160126202511901/26/16 20:25:31  5-MIN KAOH 270125Z AUTO 26018G24KT 10SM OVC015 M01/M04 A3012 790 78 -900 270/18G24 RMK AO2 T10111044
04850KAOH AOH20160126203011901/26/16 20:30:31  5-MIN KAOH 270130Z AUTO 26018G24KT 10SM OVC015 M01/M04 A3012 800 78 -900 260/18G24 RMK AO2 T10111044
04850KAOH AOH20160126203511401/26/16 20:35:31  5-MIN KAOH 270135Z AUTO 27017KT 10SM OVC015 M02/M04 A3012 790 81 -1000 270/17 RMK AO2 T10171044
04850KAOH AOH20160126204011401/26/16 20:40:31  5-MIN KAOH 270140Z AUTO 26018KT 10SM OVC015 M02/M04 A3012 790 81 -1000 270/18 RMK AO2 T10171044
04850KAOH AOH20160126204511401/26/16 20:45:31  5-MIN KAOH 270145Z AUTO 26016KT 10SM OVC015 M02/M04 A3012 800 81 -1000 270/16 RMK AO2 T10171044
04850KAOH AOH20160126205010401/26/16 20:50:31  5-MIN KAOH 270150Z AUTO 26016KT 10SM OVC014 M02/M04 A3012 790 81 -1000 270/16 RMK AO2
04850KAOH AOH20160126205511401/26/16 20:55:31  5-MIN KAOH 270155Z AUTO 27015KT 10SM OVC014 M02/M04 A3012 790 81 -1000 270/15 RMK AO2 T10171044
04850KAOH AOH20160126210011401/26/16 21:00:31  5-MIN KAOH 270200Z AUTO 27015KT 10SM OVC014 M02/M04 A3012 790 81 -1000 270/15 RMK AO2 T10171044
04850KAOH AOH20160126210511401/26/16 21:05:31  5-MIN KAOH 270205Z AUTO 27014KT 10SM OVC014 M02/M04 A3012 790 81 -1000 270/14 RMK AO2 T10171044
04850KAOH AOH20160126211011401/26/16 21:10:31  5-MIN KAOH 270210Z AUTO 27015KT 10SM OVC014 M02/M04 A3012 790 81 -1000 270/15 RMK AO2 T10171044
04850KAOH AOH20160126211511401/26/16 21:15:31  5-MIN KAOH 270215Z AUTO 26014KT 10SM OVC014 M02/M04 A3013 790 81 -1000 270/14 RMK AO2 T10171044
04850KAOH AOH20160126212011401/26/16 21:20:31  5-MIN KAOH 270220Z AUTO 25015KT 10SM OVC014 M02/M04 A3013 780 81 -1000 250/15 RMK AO2 T10171044
04850KAOH AOH20160126212511401/26/16 21:25:31  5-MIN KAOH 270225Z AUTO 24016KT 10SM OVC014 M02/M04 A3014 780 81 -1000 250/16 RMK AO2 T10171044
04850KAOH AOH20160126213012001/26/16 21:30:31  5-MIN KAOH 270230Z AUTO 25018G22KT 10SM OVC014 M02/M04 A3014 780 81 -1000 250/18G22 RMK AO2 T10171044
04850KAOH AOH20160126213511401/26/16 21:35:31  5-MIN KAOH 270235Z AUTO 26015KT 10SM OVC014 M02/M04 A3014 780 81 -1000 270/15 RMK AO2 T10171044
04850KAOH AOH20160126214011401/26/16 21:40:31  5-MIN KAOH 270240Z AUTO 26014KT 10SM OVC014 M02/M04 A3014 780 81 -1000 260/14 RMK AO2 T10171044
04850KAOH AOH20160126214512101/26/16 21:45:31  5-MIN KAOH 270245Z AUTO 25014KT 10SM BKN014 OVC019 M02/M04 A3013 780 81 -1000 260/14 RMK AO2 T10171044
04850KAOH AOH20160126215014101/26/16 21:50:31  5-MIN KAOH 270250Z AUTO 25015KT 10SM BKN014 BKN021 OVC026 M02/M05 A3013 780 78 -1000 260/15 RMK AO2 SLP215 T10171050 51018
04850KAOH AOH20160126215512801/26/16 21:55:31  5-MIN KAOH 270255Z AUTO 25012KT 10SM BKN014 BKN021 OVC026 M02/M05 A3014 780 78 -1000 260/12 RMK AO2 T10171050
04850KAOH AOH20160126220012801/26/16 22:00:31  5-MIN KAOH 270300Z AUTO 25014KT 10SM SCT014 BKN021 OVC028 M02/M04 A3014 780 81 -1000 250/14 RMK AO2 T10171044
04850KAOH AOH20160126220512101/26/16 22:05:31  5-MIN KAOH 270305Z AUTO 25013KT 10SM FEW015 OVC026 M02/M05 A3014 780 81 -1100 260/13 RMK AO2 T10221050
04850KAOH AOH20160126221012801/26/16 22:10:31  5-MIN KAOH 270310Z AUTO 25015KT 10SM FEW015 FEW020 OVC026 M02/M05 A3014 780 81 -1100 260/15 RMK AO2 T10221050
04850KAOH AOH20160126221512101/26/16 22:15:31  5-MIN KAOH 270315Z AUTO 25012KT 10SM FEW016 OVC026 M02/M05 A3014 780 78 -1000 260/12 RMK AO2 T10171050
04850KAOH AOH20160126222012101/26/16 22:20:31  5-MIN KAOH 270320Z AUTO 26014KT 10SM FEW016 OVC024 M02/M05 A3014 780 78 -1000 270/14 RMK AO2 T10171050
04850KAOH AOH20160126222511401/26/16 22:25:31  5-MIN KAOH 270325Z AUTO 26013KT 10SM OVC024 M02/M05 A3014 780 78 -1000 270/13 RMK AO2 T10171050
04850KAOH AOH20160126223012101/26/16 22:30:31  5-MIN KAOH 270330Z AUTO 25014KT 10SM BKN020 OVC025 M02/M06 A3014 770 75 -1000 260/14 RMK AO2 T10171056
04850KAOH AOH20160126223512101/26/16 22:35:31  5-MIN KAOH 270335Z AUTO 25015KT 10SM BKN020 OVC025 M02/M06 A3014 780 75 -1000 260/15 RMK AO2 T10171056
04850KAOH AOH20160126224011401/26/16 22:40:31  5-MIN KAOH 270340Z AUTO 26013KT 10SM OVC020 M02/M06 A3014 780 75 -1000 260/13 RMK AO2 T10171056
04850KAOH AOH20160126224511401/26/16 22:45:31  5-MIN KAOH 270345Z AUTO 25015KT 10SM OVC020 M02/M06 A3014 780 78 -1100 250/15 RMK AO2 T10221056
04850KAOH AOH20160126225012101/26/16 22:50:31  5-MIN KAOH 270350Z AUTO 25013KT 10SM OVC020 M02/M06 A3014 780 78 -1100 260/13 RMK AO2 SLP217 T10221056
04850KAOH AOH20160126225511401/26/16 22:55:31  5-MIN KAOH 270355Z AUTO 25015KT 10SM OVC020 M02/M06 A3014 770 78 -1100 250/15 RMK AO2 T10221056
04850KAOH AOH20160126230011401/26/16 23:00:31  5-MIN KAOH 270400Z AUTO 25017KT 10SM OVC019 M02/M06 A3015 770 78 -1100 260/17 RMK AO2 T10221056
04850KAOH AOH20160126230511401/26/16 23:05:31  5-MIN KAOH 270405Z AUTO 25015KT 10SM OVC019 M02/M06 A3015 770 78 -1100 260/15 RMK AO2 T10221056
04850KAOH AOH20160126231011401/26/16 23:10:31  5-MIN KAOH 270410Z AUTO 26015KT 10SM OVC018 M02/M06 A3015 770 78 -1100 260/15 RMK AO2 T10221056
04850KAOH AOH20160126231511401/26/16 23:15:31  5-MIN KAOH 270415Z AUTO 24017KT 10SM OVC018 M02/M06 A3015 770 78 -1100 250/17 RMK AO2 T10221056
04850KAOH AOH20160126232011401/26/16 23:20:31  5-MIN KAOH 270420Z AUTO 25017KT 10SM OVC018 M02/M06 A3015 760 78 -1100 250/17 RMK AO2 T10221056
04850KAOH AOH20160126232511401/26/16 23:25:31  5-MIN KAOH 270425Z AUTO 25015KT 10SM OVC018 M02/M06 A3015 760 78 -1100 260/15 RMK AO2 T10221056
04850KAOH AOH20160126233011401/26/16 23:30:31  5-MIN KAOH 270430Z AUTO 25015KT 10SM OVC016 M02/M05 A3015 770 81 -1100 260/15 RMK AO2 T10221050
04850KAOH AOH20160126233511401/26/16 23:35:31  5-MIN KAOH 270435Z AUTO 26017KT 10SM OVC016 M02/M05 A3015 760 81 -1100 260/17 RMK AO2 T10221050
04850KAOH AOH20160126234011401/26/16 23:40:31  5-MIN KAOH 270440Z AUTO 26017KT 10SM OVC016 M02/M05 A3016 760 81 -1100 270/17 RMK AO2 T10221050
04850KAOH AOH20160126234512001/26/16 23:45:31  5-MIN KAOH 270445Z AUTO 26016G24KT 10SM OVC014 M02/M05 A3016 750 81 -1100 270/16G24 RMK AO2 T10221050
04850KAOH AOH20160126235011001/26/16 23:50:31  5-MIN KAOH 270450Z AUTO 26021G24KT 10SM OVC014 M02/M06 A3016 750 78 -1100 260/21G24 RMK AO2
04850KAOH AOH20160126235511401/26/16 23:55:31  5-MIN KAOH 270455Z AUTO 26018KT 10SM OVC014 M03/M06 A3016 760 81 -1200 270/18 RMK AO2 T10281056
04850KAOH AOH20160127000011401/27/16 00:00:31  5-MIN KAOH 270500Z AUTO 27012KT 10SM OVC015 M02/M06 A3016 760 78 -1100 280/12 RMK AO2 T10221056
04850KAOH AOH20160127000511401/27/16 00:05:31  5-MIN KAOH 270505Z AUTO 28018KT 10SM OVC015 M02/M06 A3016 760 78 -1100 290/18 RMK AO2 T10221056
04850KAOH AOH20160127001012001/27/16 00:10:31  5-MIN KAOH 270510Z AUTO 28016G22KT 10SM OVC015 M03/M06 A3016 760 81 -1200 280/16G22 RMK AO2 T10281056
04850KAOH AOH20160127001512001/27/16 00:15:31  5-MIN KAOH 270515Z AUTO 28016G22KT 10SM OVC017 M03/M06 A3016 760 78 -1100 290/16G22 RMK AO2 T10281061
04850KAOH AOH20160127002011401/27/16 00:20:31  5-MIN KAOH 270520Z AUTO 26016KT 10SM OVC017 M03/M06 A3016 760 78 -1200 270/16 RMK AO2 T10281061
04850KAOH AOH20160127002512001/27/16 00:25:31  5-MIN KAOH 270525Z AUTO 27016G22KT 10SM OVC017 M03/M06 A3016 760 81 -1200 280/16G22 RMK AO2 T10281056
04850KAOH AOH20160127003012001/27/16 00:30:31  5-MIN KAOH 270530Z AUTO 26014G22KT 10SM OVC017 M03/M06 A3016 760 81 -1200 270/14G22 RMK AO2 T10281056
04850KAOH AOH20160127003511401/27/16 00:35:31  5-MIN KAOH 270535Z AUTO 26015KT 10SM OVC017 M03/M06 A3016 760 81 -1100 260/15 RMK AO2 T10281056
04850KAOH AOH20160127004011401/27/16 00:40:31  5-MIN KAOH 270540Z AUTO 26013KT 10SM OVC017 M03/M06 A3016 760 78 -1200 260/13 RMK AO2 T10281061
04850KAOH AOH20160127004512101/27/16 00:45:31  5-MIN KAOH 270545Z AUTO 26017KT 10SM BKN017 OVC024 M03/M06 A3016 760 78 -1200 270/17 RMK AO2 T10281061
04850KAOH AOH20160127005014601/27/16 00:50:31  5-MIN KAOH 270550Z AUTO 26016KT 10SM BKN017 OVC026 M03/M06 A3016 760 78 -1200 270/16 RMK AO2 SLP224 T10281061 11011 21028 51014
04850KAOH AOH20160127005512101/27/16 00:55:31  5-MIN KAOH 270555Z AUTO 26016KT 10SM SCT017 OVC026 M03/M06 A3016 760 78 -1200 270/16 RMK AO2 T10281061
04850KAOH AOH20160127010012101/27/16 01:00:31  5-MIN KAOH 270600Z AUTO 26016KT 10SM SCT017 OVC028 M03/M07 A3016 760 75 -1200 270/16 RMK AO2 T10281067
04850KAOH AOH20160127010512101/27/16 01:05:31  5-MIN KAOH 270605Z AUTO 26016KT 10SM FEW018 OVC028 M03/M07 A3016 760 71 -1200 270/16 RMK AO2 T10281072
04850KAOH AOH20160127011012101/27/16 01:10:31  5-MIN KAOH 270610Z AUTO 26018KT 10SM FEW024 OVC030 M03/M08 A3016 750 68 -1200 270/18 RMK AO2 T10281078
04850KAOH AOH20160127011512701/27/16 01:15:31  5-MIN KAOH 270615Z AUTO 27013G24KT 10SM BKN031 OVC039 M03/M08 A3017 750 68 -1200 280/13G24 RMK AO2 T10281078
04850KAOH AOH20160127012012701/27/16 01:20:31  5-MIN KAOH 270620Z AUTO 26018G24KT 10SM BKN031 OVC039 M03/M08 A3017 750 68 -1200 270/18G24 RMK AO2 T10281078
04850KAOH AOH20160127012512701/27/16 01:25:31  5-MIN KAOH 270625Z AUTO 27015G22KT 10SM BKN031 OVC039 M03/M08 A3017 750 68 -1200 270/15G22 RMK AO2 T10281078
04850KAOH AOH20160127013012101/27/16 01:30:31  5-MIN KAOH 270630Z AUTO 27017KT 10SM SCT031 OVC039 M03/M08 A3017 750 68 -1200 270/17 RMK AO2 T10281078
04850KAOH AOH20160127013512101/27/16 01:35:31  5-MIN KAOH 270635Z AUTO 27014KT 10SM SCT031 OVC039 M03/M08 A3017 740 68 -1200 270/14 RMK AO2 T10281078
04850KAOH AOH20160127014012101/27/16 01:40:31  5-MIN KAOH 270640Z AUTO 27015KT 10SM FEW031 OVC039 M03/M08 A3017 740 68 -1200 280/15 RMK AO2 T10281078
04850KAOH AOH20160127014512101/27/16 01:45:31  5-MIN KAOH 270645Z AUTO 27011KT 10SM FEW031 OVC041 M03/M07 A3018 740 71 -1200 270/11 RMK AO2 T10281072
04850KAOH AOH20160127015012801/27/16 01:50:31  5-MIN KAOH 270650Z AUTO 26013KT 10SM SCT030 OVC041 M03/M08 A3018 740 68 -1200 270/13 RMK AO2 SLP230 T10281078
04850KAOH AOH20160127015512101/27/16 01:55:31  5-MIN KAOH 270655Z AUTO 26019KT 10SM FEW030 OVC041 M03/M07 A3018 740 71 -1200 270/19 RMK AO2 T10281072
04850KAOH AOH20160127020012101/27/16 02:00:31  5-MIN KAOH 270700Z AUTO 27018KT 10SM FEW030 BKN043 M03/M08 A3018 740 68 -1200 270/18 RMK AO2 T10281078
04850KAOH AOH20160127020512101/27/16 02:05:31  5-MIN KAOH 270705Z AUTO 26016KT 10SM FEW030 BKN043 M03/M08 A3018 740 71 -1200 270/16 RMK AO2 T10331078
04850KAOH AOH20160127021012101/27/16 02:10:31  5-MIN KAOH 270710Z AUTO 27014KT 10SM FEW030 SCT043 M03/M08 A3018 740 71 -1200 280/14 RMK AO2 T10331078
04850KAOH AOH20160127021511401/27/16 02:15:31  5-MIN KAOH 270715Z AUTO 27013KT 10SM FEW043 M03/M08 A3018 740 71 -1200 270/13 RMK AO2 T10331078
04850KAOH AOH20160127022011401/27/16 02:20:31  5-MIN KAOH 270720Z AUTO 27015KT 10SM FEW044 M03/M07 A3018 740 74 -1200 270/15 RMK AO2 T10331072
04850KAOH AOH20160127022511101/27/16 02:25:31  5-MIN KAOH 270725Z AUTO 27013KT 10SM CLR M03/M08 A3019 730 71 -1300 280/13 RMK AO2 T10331078
04850KAOH AOH20160127023011101/27/16 02:30:31  5-MIN KAOH 270730Z AUTO 27012KT 10SM CLR M03/M08 A3019 730 71 -1300 270/12 RMK AO2 T10331078
04850KAOH AOH20160127023511101/27/16 02:35:31  5-MIN KAOH 270735Z AUTO 26015KT 10SM CLR M04/M08 A3019 730 74 -1300 270/15 RMK AO2 T10391078
04850KAOH AOH20160127024011101/27/16 02:40:31  5-MIN KAOH 270740Z AUTO 26014KT 10SM CLR M04/M07 A3019 730 78 -1300 270/14 RMK AO2 T10391072
04850KAOH AOH20160127024511101/27/16 02:45:31  5-MIN KAOH 270745Z AUTO 26014KT 10SM CLR M04/M07 A3019 730 78 -1300 270/14 RMK AO2 T10391072
04850KAOH AOH20160127025012401/27/16 02:50:31  5-MIN KAOH 270750Z AUTO 27015G20KT 10SM CLR M04/M07 A3019 730 78 -1300 280/15G20 RMK AO2 SLP234 T10391072
04850KAOH AOH20160127025511101/27/16 02:55:31  5-MIN KAOH 270755Z AUTO 27014KT 10SM CLR M04/M08 A3019 730 74 -1300 270/14 RMK AO2 T10391078
04850KAOH AOH20160127030011101/27/16 03:00:31  5-MIN KAOH 270800Z AUTO 27011KT 10SM CLR M04/M07 A3019 730 78 -1300 270/11 RMK AO2 T10391072
04850KAOH AOH20160127030511101/27/16 03:05:31  5-MIN KAOH 270805Z AUTO 27015KT 10SM CLR M04/M08 A3019 730 74 -1300 270/15 RMK AO2 T10391078
04850KAOH AOH20160127031011701/27/16 03:10:31  5-MIN KAOH 270810Z AUTO 27016G21KT 10SM CLR M04/M07 A3019 730 78 -1300 280/16G21 RMK AO2 T10391072
04850KAOH AOH20160127031511701/27/16 03:15:31  5-MIN KAOH 270815Z AUTO 26016G21KT 10SM CLR M04/M08 A3019 730 74 -1300 270/16G21 RMK AO2 T10391078
04850KAOH AOH20160127032011101/27/16 03:20:31  5-MIN KAOH 270820Z AUTO 27015KT 10SM CLR M04/M08 A3019 730 74 -1300 270/15 RMK AO2 T10391078
04850KAOH AOH20160127032511101/27/16 03:25:31  5-MIN KAOH 270825Z AUTO 25012KT 10SM CLR M04/M08 A3019 730 74 -1300 260/12 RMK AO2 T10391078
04850KAOH AOH20160127033011101/27/16 03:30:31  5-MIN KAOH 270830Z AUTO 26013KT 10SM CLR M04/M08 A3019 730 78 -1400 270/13 RMK AO2 T10441078
04850KAOH AOH20160127033511101/27/16 03:35:31  5-MIN KAOH 270835Z AUTO 26013KT 10SM CLR M04/M08 A3019 730 78 -1400 260/13 RMK AO2 T10441078
04850KAOH AOH20160127034011101/27/16 03:40:31  5-MIN KAOH 270840Z AUTO 27012KT 10SM CLR M04/M08 A3019 730 78 -1400 270/12 RMK AO2 T10441078
04850KAOH AOH20160127034511101/27/16 03:45:31  5-MIN KAOH 270845Z AUTO 26012KT 10SM CLR M04/M08 A3019 730 78 -1400 270/12 RMK AO2 T10441078
04850KAOH AOH20160127035012401/27/16 03:50:31  5-MIN KAOH 270850Z AUTO 26013KT 10SM CLR M04/M08 A3019 730 78 -1400 270/13 RMK AO2 SLP234 T10441078 50009
04850KAOH AOH20160127035511101/27/16 03:55:31  5-MIN KAOH 270855Z AUTO 25012KT 10SM CLR M04/M08 A3019 730 78 -1400 260/12 RMK AO2 T10441078
04850KAOH AOH20160127040011101/27/16 04:00:31  5-MIN KAOH 270900Z AUTO 25013KT 10SM CLR M04/M08 A3019 730 78 -1400 260/13 RMK AO2 T10441078
04850KAOH AOH20160127040511101/27/16 04:05:31  5-MIN KAOH 270905Z AUTO 26013KT 10SM CLR M04/M08 A3019 730 78 -1400 270/13 RMK AO2 T10441078
04850KAOH AOH20160127041011101/27/16 04:10:31  5-MIN KAOH 270910Z AUTO 26013KT 10SM CLR M04/M08 A3019 730 78 -1400 270/13 RMK AO2 T10441078
04850KAOH AOH20160127041511101/27/16 04:15:31  5-MIN KAOH 270915Z AUTO 26012KT 10SM CLR M04/M08 A3019 730 78 -1400 270/12 RMK AO2 T10441078
04850KAOH AOH20160127042011101/27/16 04:20:31  5-MIN KAOH 270920Z AUTO 25013KT 10SM CLR M04/M08 A3019 730 78 -1400 260/13 RMK AO2 T10441078
04850KAOH AOH20160127042511101/27/16 04:25:31  5-MIN KAOH 270925Z AUTO 26012KT 10SM CLR M04/M08 A3019 730 78 -1400 260/12 RMK AO2 T10441078
04850KAOH AOH20160127043011101/27/16 04:30:31  5-MIN KAOH 270930Z AUTO 26011KT 10SM CLR M04/M08 A3020 720 78 -1400 260/11 RMK AO2 T10441078
04850KAOH AOH20160127043511101/27/16 04:35:31  5-MIN KAOH 270935Z AUTO 25011KT 10SM CLR M04/M08 A3020 720 78 -1400 260/11 RMK AO2 T10441078
04850KAOH AOH20160127044011101/27/16 04:40:31  5-MIN KAOH 270940Z AUTO 25011KT 10SM CLR M04/M08 A3020 720 78 -1400 260/11 RMK AO2 T10441078
04850KAOH AOH20160127044511101/27/16 04:45:31  5-MIN KAOH 270945Z AUTO 25012KT 10SM CLR M04/M08 A3020 720 78 -1400 260/12 RMK AO2 T10441078
04850KAOH AOH20160127045011801/27/16 04:50:31  5-MIN KAOH 270950Z AUTO 26010KT 10SM CLR M04/M08 A3020 720 78 -1400 260/10 RMK AO2 SLP237 T10441078
04850KAOH AOH20160127045511101/27/16 04:55:31  5-MIN KAOH 270955Z AUTO 26010KT 10SM CLR M04/M08 A3020 720 78 -1400 260/10 RMK AO2 T10441078
04850KAOH AOH20160127050011101/27/16 05:00:31  5-MIN KAOH 271000Z AUTO 25010KT 10SM CLR M04/M08 A3020 720 78 -1400 260/10 RMK AO2 T10441078
04850KAOH AOH20160127050511101/27/16 05:05:31  5-MIN KAOH 271005Z AUTO 26010KT 10SM CLR M04/M08 A3020 720 78 -1400 260/10 RMK AO2 T10441078
04850KAOH AOH20160127051011101/27/16 05:10:31  5-MIN KAOH 271010Z AUTO 26010KT 10SM CLR M04/M08 A3020 720 78 -1400 270/10 RMK AO2 T10441078
04850KAOH AOH20160127051511101/27/16 05:15:31  5-MIN KAOH 271015Z AUTO 27011KT 10SM CLR M04/M08 A3020 720 78 -1400 270/11 RMK AO2 T10441078
04850KAOH AOH20160127052011101/27/16 05:20:31  5-MIN KAOH 271020Z AUTO 27013KT 10SM CLR M04/M08 A3020 720 78 -1400 270/13 RMK AO2 T10441078
04850KAOH AOH20160127052511101/27/16 05:25:31  5-MIN KAOH 271025Z AUTO 27013KT 10SM CLR M04/M08 A3021 710 78 -1400 270/13 RMK AO2 T10441078
04850KAOH AOH20160127053011101/27/16 05:30:31  5-MIN KAOH 271030Z AUTO 26013KT 10SM CLR M04/M08 A3021 710 74 -1400 270/13 RMK AO2 T10391078
04850KAOH AOH20160127053511101/27/16 05:35:31  5-MIN KAOH 271035Z AUTO 26014KT 10SM CLR M04/M08 A3021 710 74 -1400 270/14 RMK AO2 T10391078
04850KAOH AOH20160127054011101/27/16 05:40:31  5-MIN KAOH 271040Z AUTO 26013KT 10SM CLR M04/M08 A3022 710 74 -1400 260/13 RMK AO2 T10391078
04850KAOH AOH20160127054511101/27/16 05:45:31  5-MIN KAOH 271045Z AUTO 27013KT 10SM CLR M04/M08 A3022 700 74 -1400 270/13 RMK AO2 T10391078
04850KAOH AOH20160127055011801/27/16 05:50:31  5-MIN KAOH 271050Z AUTO 26012KT 10SM CLR M04/M08 A3022 700 78 -1400 270/12 RMK AO2 SLP247 T10441078
04850KAOH AOH20160127055511101/27/16 05:55:31  5-MIN KAOH 271055Z AUTO 27013KT 10SM CLR M04/M08 A3023 690 74 -1400 270/13 RMK AO2 T10391078
04850KAOH AOH20160127060011101/27/16 06:00:31  5-MIN KAOH 271100Z AUTO 27012KT 10SM CLR M04/M08 A3023 690 78 -1400 270/12 RMK AO2 T10441078
04850KAOH AOH20160127060511101/27/16 06:05:31  5-MIN KAOH 271105Z AUTO 27011KT 10SM CLR M04/M08 A3023 690 74 -1400 270/11 RMK AO2 T10391078
04850KAOH AOH20160127061011401/27/16 06:10:31  5-MIN KAOH 271110Z AUTO 27010KT 10SM FEW026 M04/M08 A3024 690 78 -1500 270/10 RMK AO2 T10441078
04850KAOH AOH20160127061511401/27/16 06:15:31  5-MIN KAOH 271115Z AUTO 27011KT 10SM FEW026 M04/M08 A3024 690 78 -1500 280/11 RMK AO2 T10441078
04850KAOH AOH20160127062011401/27/16 06:20:31  5-MIN KAOH 271120Z AUTO 28013KT 10SM SCT026 M04/M08 A3024 680 74 -1400 280/13 RMK AO2 T10391078
04850KAOH AOH20160127062511401/27/16 06:25:31  5-MIN KAOH 271125Z AUTO 27013KT 10SM BKN024 M04/M08 A3024 680 74 -1400 280/13 RMK AO2 T10391078
04850KAOH AOH20160127063011401/27/16 06:30:31  5-MIN KAOH 271130Z AUTO 27011KT 10SM BKN024 M04/M08 A3024 680 74 -1400 280/11 RMK AO2 T10391078
04850KAOH AOH20160127063511401/27/16 06:35:31  5-MIN KAOH 271135Z AUTO 26010KT 10SM BKN024 M04/M08 A3024 680 74 -1400 270/10 RMK AO2 T10391078
04850KAOH AOH20160127064011401/27/16 06:40:31  5-MIN KAOH 271140Z AUTO 26009KT 10SM OVC024 M03/M07 A3024 680 74 -1300 270/09 RMK AO2 T10331072
04850KAOH AOH20160127064512001/27/16 06:45:31  5-MIN KAOH 271145Z AUTO 27015G19KT 10SM OVC022 M03/M08 A3024 680 71 -1300 270/15G19 RMK AO2 T10331078
04850KAOH AOH20160127065014501/27/16 06:50:31  5-MIN KAOH 271150Z AUTO 28012G19KT 10SM OVC022 M03/M08 A3025 680 71 -1300 280/12G19 RMK AO2 SLP253 T10331078 11028 21044 50009
04850KAOH AOH20160127065511401/27/16 06:55:31  5-MIN KAOH 271155Z AUTO 28012KT 10SM OVC022 M03/M08 A3025 680 71 -1300 290/12 RMK AO2 T10331078
04850KAOH AOH20160127070011401/27/16 07:00:31  5-MIN KAOH 271200Z AUTO 29011KT 10SM OVC022 M03/M08 A3025 680 71 -1300 290/11 RMK AO2 T10331078
04850KAOH AOH20160127070511401/27/16 07:05:31  5-MIN KAOH 271205Z AUTO 29010KT 10SM OVC022 M03/M08 A3025 680 71 -1300 300/10 RMK AO2 T10331078
04850KAOH AOH20160127071011401/27/16 07:10:31  5-MIN KAOH 271210Z AUTO 29009KT 10SM OVC022 M03/M08 A3025 670 71 -1300 300/09 RMK AO2 T10331078
04850KAOH AOH20160127071511401/27/16 07:15:31  5-MIN KAOH 271215Z AUTO 29009KT 10SM OVC022 M03/M08 A3025 670 71 -1300 300/09 RMK AO2 T10331078
04850KAOH AOH20160127072011401/27/16 07:20:31  5-MIN KAOH 271220Z AUTO 29009KT 10SM OVC022 M03/M08 A3025 670 71 -1300 300/09 RMK AO2 T10331078
04850KAOH AOH20160127072511401/27/16 07:25:31  5-MIN KAOH 271225Z AUTO 28008KT 10SM OVC022 M03/M08 A3025 670 71 -1300 290/08 RMK AO2 T10331078
04850KAOH AOH20160127073011401/27/16 07:30:31  5-MIN KAOH 271230Z AUTO 29009KT 10SM OVC022 M03/M08 A3025 670 71 -1300 290/09 RMK AO2 T10331078
04850KAOH AOH20160127073511401/27/16 07:35:31  5-MIN KAOH 271235Z AUTO 29010KT 10SM OVC022 M03/M08 A3025 670 71 -1300 290/10 RMK AO2 T10331078
04850KAOH AOH20160127074011401/27/16 07:40:31  5-MIN KAOH 271240Z AUTO 28008KT 10SM OVC022 M03/M07 A3025 670 74 -1300 290/08 RMK AO2 T10331072
04850KAOH AOH20160127074511401/27/16 07:45:31  5-MIN KAOH 271245Z AUTO 28008KT 10SM OVC022 M03/M07 A3025 670 74 -1300 290/08 RMK AO2 T10331072
04850KAOH AOH20160127075012101/27/16 07:50:31  5-MIN KAOH 271250Z AUTO 27007KT 10SM OVC022 M03/M07 A3026 670 74 -1300 280/07 RMK AO2 SLP258 T10331072
04850KAOH AOH20160127075511401/27/16 07:55:31  5-MIN KAOH 271255Z AUTO 27010KT 10SM OVC021 M03/M07 A3026 670 74 -1300 270/10 RMK AO2 T10331072
04850KAOH AOH20160127080011401/27/16 08:00:31  5-MIN KAOH 271300Z AUTO 26013KT 10SM OVC021 M03/M08 A3026 670 71 -1300 270/13 RMK AO2 T10331078
04850KAOH AOH20160127080511401/27/16 08:05:31  5-MIN KAOH 271305Z AUTO 26015KT 10SM OVC021 M04/M08 A3025 670 74 -1400 260/15 RMK AO2 T10391078
04850KAOH AOH20160127081011401/27/16 08:10:31  5-MIN KAOH 271310Z AUTO 27013KT 10SM OVC021 M04/M08 A3025 670 71 -1400 280/13 RMK AO2 T10391083
04850KAOH AOH20160127081511401/27/16 08:15:31  5-MIN KAOH 271315Z AUTO 27013KT 10SM OVC023 M04/M08 A3025 670 71 -1400 270/13 RMK AO2 T10391083
04850KAOH AOH20160127082011401/27/16 08:20:31  5-MIN KAOH 271320Z AUTO 25011KT 10SM OVC023 M04/M08 A3025 670 71 -1400 260/11 RMK AO2 T10391083
04850KAOH AOH20160127082511401/27/16 08:25:31  5-MIN KAOH 271325Z AUTO 26012KT 10SM OVC023 M03/M08 A3026 670 68 -1300 270/12 RMK AO2 T10331083
04850KAOH AOH20160127083011401/27/16 08:30:31  5-MIN KAOH 271330Z AUTO 27014KT 10SM OVC023 M03/M08 A3026 670 68 -1300 270/14 RMK AO2 T10331083
04850KAOH AOH20160127083511401/27/16 08:35:31  5-MIN KAOH 271335Z AUTO 26011KT 10SM OVC024 M03/M08 A3026 670 68 -1300 260/11 RMK AO2 T10331083
04850KAOH AOH20160127084011401/27/16 08:40:31  5-MIN KAOH 271340Z AUTO 28010KT 10SM OVC024 M03/M08 A3026 670 68 -1300 280/10 RMK AO2 T10331083
04850KAOH AOH20160127084511401/27/16 08:45:31  5-MIN KAOH 271345Z AUTO 26013KT 10SM OVC024 M03/M08 A3026 660 71 -1300 270/13 RMK AO2 T10331078
04850KAOH AOH20160127085012101/27/16 08:50:31  5-MIN KAOH 271350Z AUTO 26013KT 10SM OVC024 M03/M08 A3026 660 68 -1300 270/13 RMK AO2 SLP260 T10331083
04850KAOH AOH20160127085511401/27/16 08:55:31  5-MIN KAOH 271355Z AUTO 25014KT 10SM OVC024 M03/M08 A3026 660 68 -1300 260/14 RMK AO2 T10331083
04850KAOH AOH20160127090011401/27/16 09:00:31  5-MIN KAOH 271400Z AUTO 28014KT 10SM OVC024 M03/M08 A3026 660 68 -1300 280/14 RMK AO2 T10331083
04850KAOH AOH20160127090511401/27/16 09:05:31  5-MIN KAOH 271405Z AUTO 28014KT 10SM OVC024 M03/M08 A3026 660 71 -1300 290/14 RMK AO2 T10331078
04850KAOH AOH20160127091011401/27/16 09:10:31  5-MIN KAOH 271410Z AUTO 28015KT 10SM OVC024 M03/M08 A3026 660 68 -1300 290/15 RMK AO2 T10331083
04850KAOH AOH20160127191012001/27/16 19:10:31  5-MIN KAOH 280010Z AUTO 21009G18KT 10SM OVC025 M03/M08 A3011 810 68 -1100 220/09G18 RMK AO2 T10281078
04850KAOH AOH20160127191511401/27/16 19:15:31  5-MIN KAOH 280015Z AUTO 21009KT 10SM OVC025 M03/M08 A3011 810 68 -1100 210/09 RMK AO2 T10281078
04850KAOH AOH20160127192011401/27/16 19:20:31  5-MIN KAOH 280020Z AUTO 21010KT 10SM OVC025 M03/M08 A3011 810 68 -1100 210/10 RMK AO2 T10281078
04850KAOH AOH20160127192511401/27/16 19:25:31  5-MIN KAOH 280025Z AUTO 21010KT 10SM OVC025 M03/M08 A3011 810 68 -1100 210/10 RMK AO2 T10281078
04850KAOH AOH20160127193011401/27/16 19:30:31  5-MIN KAOH 280030Z AUTO 20011KT 10SM OVC026 M03/M08 A3010 810 68 -1100 210/11 RMK AO2 T10281078
04850KAOH AOH20160127193511401/27/16 19:35:31  5-MIN KAOH 280035Z AUTO 20008KT 10SM OVC026 M03/M08 A3010 810 68 -1100 210/08 RMK AO2 T10281078
04850KAOH AOH20160127194011401/27/16 19:40:31  5-MIN KAOH 280040Z AUTO 21010KT 10SM OVC026 M03/M08 A3010 810 68 -1100 210/10 RMK AO2 T10281078
04850KAOH AOH20160127194511401/27/16 19:45:31  5-MIN KAOH 280045Z AUTO 20010KT 10SM OVC026 M03/M08 A3009 820 68 -1100 210/10 RMK AO2 T10281078
04850KAOH AOH20160127195012101/27/16 19:50:31  5-MIN KAOH 280050Z AUTO 20011KT 10SM OVC026 M03/M08 A3009 820 68 -1100 200/11 RMK AO2 SLP200 T10281078
04850KAOH AOH20160127195511401/27/16 19:55:31  5-MIN KAOH 280055Z AUTO 20009KT 10SM OVC026 M03/M08 A3008 830 68 -1100 200/09 RMK AO2 T10281078
04850KAOH AOH20160127200011401/27/16 20:00:31  5-MIN KAOH 280100Z AUTO 20011KT 10SM OVC026 M03/M08 A3008 830 68 -1100 200/11 RMK AO2 T10281078
04850KAOH AOH20160127200511401/27/16 20:05:31  5-MIN KAOH 280105Z AUTO 20011KT 10SM OVC026 M03/M08 A3008 830 68 -1100 210/11 RMK AO2 T10281078
04850KAOH AOH20160127201011401/27/16 20:10:31  5-MIN KAOH 280110Z AUTO 20010KT 10SM OVC026 M03/M08 A3008 830 68 -1100 210/10 RMK AO2 T10281078
04850KAOH AOH20160127201511401/27/16 20:15:31  5-MIN KAOH 280115Z AUTO 21009KT 10SM OVC026 M03/M08 A3008 830 68 -1100 210/09 RMK AO2 T10281078
04850KAOH AOH20160127202011401/27/16 20:20:31  5-MIN KAOH 280120Z AUTO 20010KT 10SM OVC026 M03/M08 A3008 830 68 -1100 210/10 RMK AO2 T10281078
04850KAOH AOH20160127202511401/27/16 20:25:31  5-MIN KAOH 280125Z AUTO 21011KT 10SM OVC026 M03/M08 A3008 830 68 -1100 220/11 RMK AO2 T10281078
04850KAOH AOH20160127203011401/27/16 20:30:31  5-MIN KAOH 280130Z AUTO 21010KT 10SM OVC026 M03/M08 A3008 830 68 -1100 210/10 RMK AO2 T10281078
04850KAOH AOH20160127203511401/27/16 20:35:31  5-MIN KAOH 280135Z AUTO 20011KT 10SM OVC026 M03/M08 A3008 830 68 -1100 210/11 RMK AO2 T10281078
04850KAOH AOH20160127204011401/27/16 20:40:31  5-MIN KAOH 280140Z AUTO 21010KT 10SM OVC026 M03/M08 A3008 830 68 -1100 220/10 RMK AO2 T10281078
04850KAOH AOH20160127204511401/27/16 20:45:31  5-MIN KAOH 280145Z AUTO 20011KT 10SM OVC025 M03/M08 A3007 840 68 -1100 210/11 RMK AO2 T10281078
04850KAOH AOH20160127205012101/27/16 20:50:31  5-MIN KAOH 280150Z AUTO 21011KT 10SM OVC025 M03/M08 A3007 840 68 -1100 210/11 RMK AO2 SLP196 T10281078
04850KAOH AOH20160127205512001/27/16 20:55:31  5-MIN KAOH 280155Z AUTO 21013G19KT 10SM OVC025 M03/M08 A3007 840 68 -1000 220/13G19 RMK AO2 T10281078
04850KAOH AOH20160127210012001/27/16 21:00:31  5-MIN KAOH 280200Z AUTO 21011G19KT 10SM OVC025 M03/M08 A3007 840 68 -1000 220/11G19 RMK AO2 T10281078
04850KAOH AOH20160127210511401/27/16 21:05:31  5-MIN KAOH 280205Z AUTO 21012KT 10SM OVC025 M03/M08 A3006 850 68 -1000 210/12 RMK AO2 T10281078
04850KAOH AOH20160127211011401/27/16 21:10:31  5-MIN KAOH 280210Z AUTO 21013KT 10SM OVC025 M03/M08 A3006 850 68 -1000 220/13 RMK AO2 T10281078
04850KAOH AOH20160127211512001/27/16 21:15:31  5-MIN KAOH 280215Z AUTO 20013G19KT 10SM OVC025 M03/M08 A3006 850 68 -1000 210/13G19 RMK AO2 T10281078
04850KAOH AOH20160127212012001/27/16 21:20:31  5-MIN KAOH 280220Z AUTO 21014G19KT 10SM OVC026 M03/M08 A3005 850 68 -1000 220/14G19 RMK AO2 T10281078
04850KAOH AOH20160127212512001/27/16 21:25:31  5-MIN KAOH 280225Z AUTO 21014G19KT 10SM OVC026 M03/M08 A3005 860 68 -1000 210/14G19 RMK AO2 T10281078
04850KAOH AOH20160127213012001/27/16 21:30:31  5-MIN KAOH 280230Z AUTO 21011G19KT 10SM OVC026 M03/M08 A3005 860 68 -1000 220/11G19 RMK AO2 T10281078
04850KAOH AOH20160127213511401/27/16 21:35:31  5-MIN KAOH 280235Z AUTO 21011KT 10SM OVC025 M03/M08 A3005 860 68 -1000 220/11 RMK AO2 T10281078
04850KAOH AOH20160127214011401/27/16 21:40:31  5-MIN KAOH 280240Z AUTO 21011KT 10SM OVC025 M03/M08 A3005 860 68 -1000 220/11 RMK AO2 T10281078
04850KAOH AOH20160127214512001/27/16 21:45:31  5-MIN KAOH 280245Z AUTO 21011G20KT 10SM OVC025 M03/M08 A3004 860 68 -1000 220/11G20 RMK AO2 T10281078
04850KAOH AOH20160127215013301/27/16 21:50:31  5-MIN KAOH 280250Z AUTO 20012G20KT 10SM OVC025 M03/M08 A3004 870 68 -1000 200/12G20 RMK AO2 SLP184 T10281078 56014
04850KAOH AOH20160127215512001/27/16 21:55:31  5-MIN KAOH 280255Z AUTO 22014G19KT 10SM OVC025 M03/M08 A3004 870 68 -1000 230/14G19 RMK AO2 T10281078
04850KAOH AOH20160127220012001/27/16 22:00:31  5-MIN KAOH 280300Z AUTO 22012G19KT 10SM OVC025 M03/M08 A3004 870 68 -1000 230/12G19 RMK AO2 T10281078
04850KAOH AOH20160127220511401/27/16 22:05:31  5-MIN KAOH 280305Z AUTO 22012KT 10SM OVC025 M03/M08 A3004 870 68 -1000 220/12 RMK AO2 T10281078
04850KAOH AOH20160127221011401/27/16 22:10:31  5-MIN KAOH 280310Z AUTO 21011KT 10SM OVC025 M03/M08 A3004 870 68 -1000 210/11 RMK AO2 T10281078
04850KAOH AOH20160127221511401/27/16 22:15:31  5-MIN KAOH 280315Z AUTO 22011KT 10SM OVC024 M03/M08 A3003 870 71 -1100 220/11 RMK AO2 T10331078
04850KAOH AOH20160127222011401/27/16 22:20:31  5-MIN KAOH 280320Z AUTO 22013KT 10SM OVC024 M03/M08 A3003 880 71 -1100 220/13 RMK AO2 T10331078
04850KAOH AOH20160127222511401/27/16 22:25:31  5-MIN KAOH 280325Z AUTO 21009KT 10SM BKN024 M03/M08 A3003 880 71 -1100 220/09 RMK AO2 T10331078
04850KAOH AOH20160127223012001/27/16 22:30:31  5-MIN KAOH 280330Z AUTO 22012G17KT 10SM BKN024 M03/M08 A3003 880 71 -1100 220/12G17 RMK AO2 T10331078
04850KAOH AOH20160127223511401/27/16 22:35:31  5-MIN KAOH 280335Z AUTO 22012KT 10SM BKN023 M03/M08 A3002 880 71 -1100 220/12 RMK AO2 T10331078
04850KAOH AOH20160127224011401/27/16 22:40:31  5-MIN KAOH 280340Z AUTO 21009KT 10SM SCT023 M03/M08 A3002 890 71 -1100 220/09 RMK AO2 T10331078
04850KAOH AOH20160127224511401/27/16 22:45:31  5-MIN KAOH 280345Z AUTO 21009KT 10SM SCT023 M03/M08 A3001 890 71 -1100 220/09 RMK AO2 T10331078
04850KAOH AOH20160127225012101/27/16 22:50:31  5-MIN KAOH 280350Z AUTO 21008KT 10SM FEW023 M04/M08 A3001 890 74 -1100 220/08 RMK AO2 SLP175 T10391078
04850KAOH AOH20160127225511401/27/16 22:55:31  5-MIN KAOH 280355Z AUTO 21009KT 10SM FEW023 M04/M08 A3001 890 74 -1100 220/09 RMK AO2 T10391078
04850KAOH AOH20160127230011101/27/16 23:00:31  5-MIN KAOH 280400Z AUTO 22010KT 10SM CLR M04/M08 A3001 890 74 -1100 220/10 RMK AO2 T10391078
04850KAOH AOH20160127230511101/27/16 23:05:31  5-MIN KAOH 280405Z AUTO 21009KT 10SM CLR M04/M08 A3001 890 74 -1100 220/09 RMK AO2 T10391078
04850KAOH AOH20160127231011101/27/16 23:10:31  5-MIN KAOH 280410Z AUTO 21008KT 10SM CLR M04/M08 A3001 890 74 -1100 220/08 RMK AO2 T10391078
04850KAOH AOH20160127231511101/27/16 23:15:31  5-MIN KAOH 280415Z AUTO 22008KT 10SM CLR M04/M08 A3001 890 74 -1100 220/08 RMK AO2 T10391078
04850KAOH AOH20160127232011101/27/16 23:20:31  5-MIN KAOH 280420Z AUTO 21008KT 10SM CLR M04/M08 A3001 890 74 -1100 220/08 RMK AO2 T10391078
04850KAOH AOH20160127232511101/27/16 23:25:31  5-MIN KAOH 280425Z AUTO 21008KT 10SM CLR M03/M08 A3001 900 71 -1000 210/08 RMK AO2 T10331078
04850KAOH AOH20160127233011101/27/16 23:30:31  5-MIN KAOH 280430Z AUTO 20007KT 10SM CLR M04/M07 A3001 900 78 -1100 210/07 RMK AO2 T10391072
04850KAOH AOH20160127233511101/27/16 23:35:31  5-MIN KAOH 280435Z AUTO 19009KT 10SM CLR M04/M07 A3000 900 78 -1100 200/09 RMK AO2 T10391072
04850KAOH AOH20160127234011101/27/16 23:40:31  5-MIN KAOH 280440Z AUTO 20009KT 10SM CLR M04/M07 A3000 900 78 -1100 210/09 RMK AO2 T10391072
04850KAOH AOH20160127234511101/27/16 23:45:31  5-MIN KAOH 280445Z AUTO 20009KT 10SM CLR M04/M07 A3000 910 78 -1100 210/09 RMK AO2 T10391072
04850KAOH AOH20160127235012801/27/16 23:50:31  5-MIN KAOH 280450Z AUTO 21011KT 10SM CLR M03/M08 A3000 910 71 -1000 210/11 RMK AO2 SLP169 T10331078 410221044
04850KAOH AOH20160127235511101/27/16 23:55:31  5-MIN KAOH 280455Z AUTO 21010KT 10SM CLR M03/M08 A2999 910 71 -1000 210/10 RMK AO2 T10331078
04850KAOH AOH20160128000011101/28/16 00:00:31  5-MIN KAOH 280500Z AUTO 20010KT 10SM CLR M03/M08 A2999 910 71 -1000 210/10 RMK AO2 T10331078
04850KAOH AOH20160128000511101/28/16 00:05:31  5-MIN KAOH 280505Z AUTO 20011KT 10SM CLR M03/M08 A2999 920 71 -1000 210/11 RMK AO2 T10331078
04850KAOH AOH20160128001011101/28/16 00:10:31  5-MIN KAOH 280510Z AUTO 20010KT 10SM CLR M03/M08 A2998 920 71 -1000 200/10 RMK AO2 T10331078
04850KAOH AOH20160128001511101/28/16 00:15:31  5-MIN KAOH 280515Z AUTO 20010KT 10SM CLR M03/M08 A2998 920 71 -1000 210/10 RMK AO2 T10331078
04850KAOH AOH20160128002011101/28/16 00:20:31  5-MIN KAOH 280520Z AUTO 20010KT 10SM CLR M03/M07 A2998 920 74 -1000 210/10 RMK AO2 T10331072
04850KAOH AOH20160128002511101/28/16 00:25:31  5-MIN KAOH 280525Z AUTO 20009KT 10SM CLR M03/M07 A2997 930 74 -1000 200/09 RMK AO2 T10331072
04850KAOH AOH20160128003011401/28/16 00:30:31  5-MIN KAOH 280530Z AUTO 20012KT 10SM SCT120 M03/M07 A2997 930 74 -1000 210/12 RMK AO2 T10331072
04850KAOH AOH20160128003511401/28/16 00:35:31  5-MIN KAOH 280535Z AUTO 20009KT 10SM SCT120 M03/M07 A2997 930 74 -1000 210/09 RMK AO2 T10331072
04850KAOH AOH20160128004011401/28/16 00:40:31  5-MIN KAOH 280540Z AUTO 20011KT 10SM SCT120 M03/M07 A2997 930 74 -1000 210/11 RMK AO2 T10331072
04850KAOH AOH20160128004511401/28/16 00:45:31  5-MIN KAOH 280545Z AUTO 20010KT 10SM FEW120 M03/M07 A2997 940 74 -1000 210/10 RMK AO2 T10331072
04850KAOH AOH20160128005013901/28/16 00:50:31  5-MIN KAOH 280550Z AUTO 20012KT 10SM FEW120 M03/M07 A2996 940 74 -1000 210/12 RMK AO2 SLP158 T10331072 11028 21039 58020
04850KAOH AOH20160128005511401/28/16 00:55:31  5-MIN KAOH 280555Z AUTO 20012KT 10SM FEW120 M03/M07 A2995 950 74 -1000 210/12 RMK AO2 T10331072
04850KAOH AOH20160128010011401/28/16 01:00:31  5-MIN KAOH 280600Z AUTO 19013KT 10SM FEW120 M03/M07 A2995 950 74 -1000 200/13 RMK AO2 T10331072
04850KAOH AOH20160128010511401/28/16 01:05:31  5-MIN KAOH 280605Z AUTO 19012KT 10SM FEW120 M03/M07 A2995 950 74 -1000 200/12 RMK AO2 T10331072
04850KAOH AOH20160128011012001/28/16 01:10:31  5-MIN KAOH 280610Z AUTO 20013G20KT 10SM SCT110 M03/M07 A2995 950 74 -1000 200/13G20 RMK AO2 T10331072
04850KAOH AOH20160128011512001/28/16 01:15:31  5-MIN KAOH 280615Z AUTO 20012G20KT 10SM BKN110 M03/M07 A2995 950 74 -1000 210/12G20 RMK AO2 T10331072
04850KAOH AOH20160128012012101/28/16 01:20:31  5-MIN KAOH 280620Z AUTO 20012KT 10SM BKN100 BKN120 M03/M07 A2995 950 74 -1000 210/12 RMK AO2 T10331072
04850KAOH AOH20160128012512701/28/16 01:25:31  5-MIN KAOH 280625Z AUTO 21014KT 10SM FEW060 BKN090 BKN110 M03/M07 A2994 960 71 -900 210/14 RMK AO2 T10281072
04850KAOH AOH20160128013013301/28/16 01:30:31  5-MIN KAOH 280630Z AUTO 21011G19KT 10SM SCT055 BKN075 OVC110 M03/M07 A2994 960 71 -900 210/11G19 RMK AO2 T10281072
04850KAOH AOH20160128013512701/28/16 01:35:31  5-MIN KAOH 280635Z AUTO 20012KT 10SM SCT055 BKN070 OVC110 M03/M07 A2993 970 71 -900 210/12 RMK AO2 T10281072
04850KAOH AOH20160128014012601/28/16 01:40:31  5-MIN KAOH 280640Z AUTO 20013G19KT 10SM BKN065 OVC090 M03/M07 A2993 970 71 -900 210/13G19 RMK AO2 T10281072
04850KAOH AOH20160128014512601/28/16 01:45:31  5-MIN KAOH 280645Z AUTO 20012G19KT 10SM BKN065 OVC090 M03/M07 A2993 970 71 -900 210/12G19 RMK AO2 T10281072
04850KAOH AOH20160128015012601/28/16 01:50:31  5-MIN KAOH 280650Z AUTO 21014G21KT 10SM OVC065 M03/M07 A2992 970 71 -900 210/14G21 RMK AO2 SLP145 T10281072
04850KAOH AOH20160128015512601/28/16 01:55:31  5-MIN KAOH 280655Z AUTO 20012G21KT 10SM BKN065 OVC080 M03/M07 A2992 980 75 -900 210/12G21 RMK AO2 T10281067
04850KAOH AOH20160128020012001/28/16 02:00:31  5-MIN KAOH 280700Z AUTO 19012KT 10SM OVC075 M03/M07 A2991 990 75 -900 200/12 RMK AO2 PRESFR T10281067
04850KAOH AOH20160128020512601/28/16 02:05:31  5-MIN KAOH 280705Z AUTO 21015G19KT 10SM BKN070 OVC085 M03/M07 A2991 980 75 -900 210/15G19 RMK AO2 T10281067
04850KAOH AOH20160128021012601/28/16 02:10:31  5-MIN KAOH 280710Z AUTO 21011G19KT 10SM BKN070 OVC085 M03/M07 A2991 990 75 -900 210/11G19 RMK AO2 T10281067
04850KAOH AOH20160128021511901/28/16 02:15:31  5-MIN KAOH 280715Z AUTO 20014G21KT 10SM OVC080 M03/M07 A2991 990 75 -900 210/14G21 RMK AO2 T10281067
04850KAOH AOH20160128022012601/28/16 02:20:31  5-MIN KAOH 280720Z AUTO 20014G21KT 10SM BKN080 OVC100 M03/M07 A2991 990 75 -900 210/14G21 RMK AO2 T10281067
04850KAOH AOH20160128022512001/28/16 02:25:31  5-MIN KAOH 280725Z AUTO 21010KT 10SM BKN080 BKN100 M03/M07 A2990 990 75 -900 210/10 RMK AO2 T10281067
04850KAOH AOH20160128023011901/28/16 02:30:31  5-MIN KAOH 280730Z AUTO 21014G19KT 10SM OVC090 M03/M07 A2990 990 75 -900 210/14G19 RMK AO2 T10281067
04850KAOH AOH20160128023511401/28/16 02:35:31  5-MIN KAOH 280735Z AUTO 21012KT 10SM OVC095 M03/M07 A2990 1000 75 -900 210/12 RMK AO2 T10281067
04850KAOH AOH20160128024011401/28/16 02:40:31  5-MIN KAOH 280740Z AUTO 21013KT 10SM OVC100 M03/M07 A2989 1000 75 -800 210/13 RMK AO2 T10281067
04850KAOH AOH20160128024511401/28/16 02:45:31  5-MIN KAOH 280745Z AUTO 21013KT 10SM OVC100 M03/M07 A2989 1010 75 -800 210/13 RMK AO2 T10281067
04850KAOH AOH20160128025012101/28/16 02:50:31  5-MIN KAOH 280750Z AUTO 20012KT 10SM OVC100 M03/M07 A2988 1010 75 -800 210/12 RMK AO2 SLP130 T10281067
04850KAOH AOH20160128025511401/28/16 02:55:31  5-MIN KAOH 280755Z AUTO 20012KT 10SM OVC100 M03/M07 A2988 1020 75 -800 210/12 RMK AO2 T10281067
04850KAOH AOH20160128030011401/28/16 03:00:31  5-MIN KAOH 280800Z AUTO 20012KT 10SM OVC100 M03/M07 A2987 1020 75 -800 210/12 RMK AO2 T10281067
04850KAOH AOH20160128030511401/28/16 03:05:31  5-MIN KAOH 280805Z AUTO 20014KT 10SM OVC100 M03/M07 A2987 1030 75 -800 210/14 RMK AO2 T10281067
04850KAOH AOH20160128031012001/28/16 03:10:31  5-MIN KAOH 280810Z AUTO 20013G18KT 10SM OVC100 M03/M07 A2986 1030 75 -800 200/13G18 RMK AO2 T10281067
04850KAOH AOH20160128031512001/28/16 03:15:31  5-MIN KAOH 280815Z AUTO 20013G18KT 10SM OVC100 M03/M07 A2986 1030 75 -800 210/13G18 RMK AO2 T10281067
04850KAOH AOH20160128032011401/28/16 03:20:31  5-MIN KAOH 280820Z AUTO 20011KT 10SM OVC110 M03/M07 A2986 1040 75 -800 200/11 RMK AO2 T10281067
04850KAOH AOH20160128032512001/28/16 03:25:31  5-MIN KAOH 280825Z AUTO 20013G20KT 10SM OVC110 M03/M07 A2985 1040 75 -800 210/13G20 RMK AO2 T10281067
04850KAOH AOH20160128033012001/28/16 03:30:31  5-MIN KAOH 280830Z AUTO 20011G20KT 10SM OVC100 M03/M07 A2984 1050 75 -800 200/11G20 RMK AO2 T10281067
04850KAOH AOH20160128033511401/28/16 03:35:31  5-MIN KAOH 280835Z AUTO 20012KT 10SM OVC100 M03/M07 A2984 1050 75 -800 210/12 RMK AO2 T10281067
04850KAOH AOH20160128034011401/28/16 03:40:31  5-MIN KAOH 280840Z AUTO 20013KT 10SM OVC100 M03/M07 A2984 1050 75 -800 200/13 RMK AO2 T10281067
04850KAOH AOH20160128034512001/28/16 03:45:31  5-MIN KAOH 280845Z AUTO 20014G21KT 10SM OVC100 M03/M07 A2983 1060 75 -800 210/14G21 RMK AO2 T10281067
04850KAOH AOH20160128035013301/28/16 03:50:31  5-MIN KAOH 280850Z AUTO 20011G21KT 10SM OVC100 M02/M06 A2983 1060 75 -700 210/11G21 RMK AO2 SLP113 T10221061 58026
04850KAOH AOH20160128035511401/28/16 03:55:31  5-MIN KAOH 280855Z AUTO 20012KT 10SM OVC100 M02/M06 A2983 1060 75 -700 200/12 RMK AO2 T10221061
04850KAOH AOH20160128040011401/28/16 04:00:31  5-MIN KAOH 280900Z AUTO 20012KT 10SM OVC100 M02/M06 A2982 1070 75 -700 210/12 RMK AO2 T10221061
04850KAOH AOH20160128040512001/28/16 04:05:31  5-MIN KAOH 280905Z AUTO 20011G18KT 10SM OVC100 M02/M06 A2982 1070 75 -700 200/11G18 RMK AO2 T10221061
04850KAOH AOH20160128041011401/28/16 04:10:31  5-MIN KAOH 280910Z AUTO 20012KT 10SM OVC100 M02/M06 A2982 1070 75 -700 200/12 RMK AO2 T10221061
04850KAOH AOH20160128041511401/28/16 04:15:31  5-MIN KAOH 280915Z AUTO 21012KT 10SM OVC100 M02/M06 A2982 1070 75 -700 210/12 RMK AO2 T10221061
04850KAOH AOH20160128042011401/28/16 04:20:31  5-MIN KAOH 280920Z AUTO 20012KT 10SM OVC100 M02/M06 A2982 1070 75 -700 210/12 RMK AO2 T10221061
04850KAOH AOH20160128042511401/28/16 04:25:31  5-MIN KAOH 280925Z AUTO 20011KT 10SM OVC100 M02/M06 A2981 1080 75 -700 210/11 RMK AO2 T10221061
04850KAOH AOH20160128043011401/28/16 04:30:31  5-MIN KAOH 280930Z AUTO 20012KT 10SM OVC100 M02/M06 A2981 1080 75 -700 210/12 RMK AO2 T10221061
04850KAOH AOH20160128043511401/28/16 04:35:31  5-MIN KAOH 280935Z AUTO 20011KT 10SM OVC100 M02/M06 A2981 1080 75 -700 210/11 RMK AO2 T10221061
04850KAOH AOH20160128044012101/28/16 04:40:31  5-MIN KAOH 280940Z AUTO 20013KT 10SM BKN090 OVC100 M02/M06 A2981 1080 72 -600 210/13 RMK AO2 T10171061
04850KAOH AOH20160128044512101/28/16 04:45:31  5-MIN KAOH 280945Z AUTO 20013KT 10SM BKN085 OVC100 M02/M06 A2980 1090 72 -600 210/13 RMK AO2 T10171061
04850KAOH AOH20160128045012801/28/16 04:50:31  5-MIN KAOH 280950Z AUTO 20011KT 10SM BKN080 OVC100 M02/M06 A2980 1090 72 -600 210/11 RMK AO2 SLP101 T10171061
04850KAOH AOH20160128045512101/28/16 04:55:31  5-MIN KAOH 280955Z AUTO 20012KT 10SM BKN075 OVC090 M02/M06 A2979 1100 72 -600 200/12 RMK AO2 T10171061
04850KAOH AOH20160128050012101/28/16 05:00:31  5-MIN KAOH 281000Z AUTO 19013KT 10SM BKN075 OVC090 M02/M06 A2979 1100 72 -600 200/13 RMK AO2 T10171061
04850KAOH AOH20160128050512701/28/16 05:05:31  5-MIN KAOH 281005Z AUTO 19013G23KT 10SM BKN075 OVC090 M02/M06 A2978 1100 72 -600 200/13G23 RMK AO2 T10171061
04850KAOH AOH20160128051012001/28/16 05:10:31  5-MIN KAOH 281010Z AUTO 19014G23KT 10SM OVC070 M02/M06 A2978 1110 72 -600 200/14G23 RMK AO2 T10171061
04850KAOH AOH20160128051511401/28/16 05:15:31  5-MIN KAOH 281015Z AUTO 19013KT 10SM OVC070 M02/M06 A2978 1110 75 -600 200/13 RMK AO2 T10171056
04850KAOH AOH20160128052012001/28/16 05:20:31  5-MIN KAOH 281020Z AUTO 20012G20KT 10SM OVC070 M02/M06 A2978 1110 75 -600 200/12G20 RMK AO2 T10171056
04850KAOH AOH20160128052511401/28/16 05:25:31  5-MIN KAOH 281025Z AUTO 20014KT 10SM OVC065 M02/M06 A2977 1110 75 -600 200/14 RMK AO2 T10171056
04850KAOH AOH20160128053011401/28/16 05:30:31  5-MIN KAOH 281030Z AUTO 19015KT 10SM OVC070 M02/M06 A2977 1120 75 -600 190/15 RMK AO2 T10171056
04850KAOH AOH20160128053512101/28/16 05:35:31  5-MIN KAOH 281035Z AUTO 19012KT 10SM BKN065 OVC095 M02/M06 A2977 1120 75 -600 200/12 RMK AO2 T10171056
04850KAOH AOH20160128054012101/28/16 05:40:31  5-MIN KAOH 281040Z AUTO 19014KT 10SM BKN070 OVC095 M02/M06 A2977 1120 75 -600 200/14 RMK AO2 T10171056
04850KAOH AOH20160128054512801/28/16 05:45:31  5-MIN KAOH 281045Z AUTO 19014KT 10SM BKN065 BKN080 OVC095 M02/M06 A2976 1120 75 -600 200/14 RMK AO2 T10171056
04850KAOH AOH20160128055012801/28/16 05:50:31  5-MIN KAOH 281050Z AUTO 19015KT 10SM BKN070 OVC090 M02/M06 A2976 1120 75 -600 200/15 RMK AO2 SLP089 T10171056
04850KAOH AOH20160128055512801/28/16 05:55:31  5-MIN KAOH 281055Z AUTO 19012KT 10SM SCT060 BKN075 BKN090 M02/M06 A2976 1130 75 -600 200/12 RMK AO2 T10171056
04850KAOH AOH20160128060012801/28/16 06:00:31  5-MIN KAOH 281100Z AUTO 20013KT 10SM SCT065 BKN075 BKN120 M02/M06 A2976 1130 75 -600 200/13 RMK AO2 T10171056
04850KAOH AOH20160128060512101/28/16 06:05:31  5-MIN KAOH 281105Z AUTO 19013KT 10SM BKN065 BKN080 M02/M06 A2976 1120 75 -600 200/13 RMK AO2 T10171056
04850KAOH AOH20160128061012101/28/16 06:10:31  5-MIN KAOH 281110Z AUTO 19014KT 10SM BKN060 BKN080 M02/M06 A2976 1130 75 -500 200/14 RMK AO2 T10171056
04850KAOH AOH20160128061512101/28/16 06:15:31  5-MIN KAOH 281115Z AUTO 19013KT 10SM SCT060 SCT080 M02/M06 A2975 1130 75 -500 200/13 RMK AO2 T10171056
04850KAOH AOH20160128062011401/28/16 06:20:31  5-MIN KAOH 281120Z AUTO 19011KT 10SM FEW060 M02/M06 A2976 1130 75 -500 200/11 RMK AO2 T10171056
04850KAOH AOH20160128062511401/28/16 06:25:31  5-MIN KAOH 281125Z AUTO 20013KT 10SM SCT060 M02/M06 A2975 1130 75 -500 200/13 RMK AO2 T10171056
04850KAOH AOH20160128063011401/28/16 06:30:31  5-MIN KAOH 281130Z AUTO 20011KT 10SM FEW060 M02/M06 A2975 1130 75 -500 200/11 RMK AO2 T10171056
04850KAOH AOH20160128063512001/28/16 06:35:31  5-MIN KAOH 281135Z AUTO 20014G19KT 10SM SCT060 M02/M06 A2976 1130 75 -500 210/14G19 RMK AO2 T10171056
04850KAOH AOH20160128064012001/28/16 06:40:31  5-MIN KAOH 281140Z AUTO 20011G19KT 10SM SCT060 M01/M06 A2975 1130 72 -500 210/11G19 RMK AO2 T10111056
04850KAOH AOH20160128064511401/28/16 06:45:31  5-MIN KAOH 281145Z AUTO 20013KT 10SM SCT060 M02/M06 A2975 1140 75 -500 210/13 RMK AO2 T10171056
04850KAOH AOH20160128065013901/28/16 06:50:31  5-MIN KAOH 281150Z AUTO 20011KT 10SM SCT060 M02/M06 A2975 1130 75 -500 210/11 RMK AO2 SLP086 T10171056 11011 21033 58043
04850KAOH AOH20160128065511401/28/16 06:55:31  5-MIN KAOH 281155Z AUTO 21012KT 10SM SCT060 M02/M06 A2976 1130 75 -500 210/12 RMK AO2 T10171056
04850KAOH AOH20160128070012001/28/16 07:00:31  5-MIN KAOH 281200Z AUTO 20013G19KT 10SM SCT065 M01/M06 A2976 1130 72 -500 210/13G19 RMK AO2 T10111056
04850KAOH AOH20160128070511401/28/16 07:05:31  5-MIN KAOH 281205Z AUTO 22012KT 10SM SCT070 M01/M06 A2976 1130 72 -500 220/12 RMK AO2 T10111056
04850KAOH AOH20160128071011401/28/16 07:10:31  5-MIN KAOH 281210Z AUTO 21011KT 10SM FEW070 M01/M06 A2976 1120 72 -500 220/11 RMK AO2 T10111056
04850KAOH AOH20160128071511401/28/16 07:15:31  5-MIN KAOH 281215Z AUTO 21011KT 10SM FEW070 M01/M06 A2976 1130 72 -500 220/11 RMK AO2 T10111056
04850KAOH AOH20160128072012001/28/16 07:20:31  5-MIN KAOH 281220Z AUTO 22013G19KT 10SM FEW070 M01/M06 A2976 1120 72 -500 220/13G19 RMK AO2 T10111056
04850KAOH AOH20160128072512001/28/16 07:25:31  5-MIN KAOH 281225Z AUTO 21011G20KT 10SM FEW070 M01/M06 A2976 1120 72 -500 220/11G20 RMK AO2 T10111056
04850KAOH AOH20160128073011701/28/16 07:30:31  5-MIN KAOH 281230Z AUTO 21011G20KT 10SM CLR M01/M06 A2976 1130 72 -500 210/11G20 RMK AO2 T10111056
04850KAOH AOH20160128073511101/28/16 07:35:31  5-MIN KAOH 281235Z AUTO 21012KT 10SM CLR M01/M06 A2976 1130 72 -500 220/12 RMK AO2 T10111056
04850KAOH AOH20160128074011101/28/16 07:40:31  5-MIN KAOH 281240Z AUTO 22014KT 10SM CLR M01/M06 A2976 1130 72 -500 220/14 RMK AO2 T10111056
04850KAOH AOH20160128074511101/28/16 07:45:31  5-MIN KAOH 281245Z AUTO 21012KT 10SM CLR M01/M06 A2976 1130 72 -500 220/12 RMK AO2 T10111056
04850KAOH AOH20160128075011801/28/16 07:50:31  5-MIN KAOH 281250Z AUTO 21014KT 10SM CLR M01/M06 A2976 1130 72 -500 220/14 RMK AO2 SLP087 T10111056
04850KAOH AOH20160128075511101/28/16 07:55:31  5-MIN KAOH 281255Z AUTO 21013KT 10SM CLR M01/M06 A2976 1130 72 -500 220/13 RMK AO2 T10111056
04850KAOH AOH20160128080011101/28/16 08:00:31  5-MIN KAOH 281300Z AUTO 21012KT 10SM CLR M01/M06 A2975 1130 72 -500 220/12 RMK AO2 T10111056
04850KAOH AOH20160128080511101/28/16 08:05:31  5-MIN KAOH 281305Z AUTO 21011KT 10SM CLR M01/M06 A2975 1130 72 -500 220/11 RMK AO2 T10111056
04850KAOH AOH20160128081011701/28/16 08:10:31  5-MIN KAOH 281310Z AUTO 22012G20KT 10SM CLR M01/M06 A2975 1130 72 -500 220/12G20 RMK AO2 T10111056
04850KAOH AOH20160128081511701/28/16 08:15:31  5-MIN KAOH 281315Z AUTO 21013G20KT 10SM CLR M01/M06 A2975 1140 72 -500 210/13G20 RMK AO2 T10111056
04850KAOH AOH20160128082011101/28/16 08:20:31  5-MIN KAOH 281320Z AUTO 21014KT 10SM CLR M01/M06 A2975 1140 72 -500 220/14 RMK AO2 T10111056
04850KAOH AOH20160128082511101/28/16 08:25:31  5-MIN KAOH 281325Z AUTO 20011KT 10SM CLR M01/M06 A2974 1140 72 -500 210/11 RMK AO2 T10111056
04850KAOH AOH20160128083011101/28/16 08:30:31  5-MIN KAOH 281330Z AUTO 20012KT 10SM CLR M01/M06 A2974 1150 69 -400 210/12 RMK AO2 T10061056
04850KAOH AOH20160128083511101/28/16 08:35:31  5-MIN KAOH 281335Z AUTO 20012KT 10SM CLR M01/M06 A2973 1150 72 -500 210/12 RMK AO2 T10111056
04850KAOH AOH20160128084011701/28/16 08:40:31  5-MIN KAOH 281340Z AUTO 21014G19KT 10SM CLR M01/M06 A2973 1150 72 -400 210/14G19 RMK AO2 T10111056
04850KAOH AOH20160128084511701/28/16 08:45:31  5-MIN KAOH 281345Z AUTO 20014G19KT 10SM CLR M01/M06 A2973 1150 69 -400 210/14G19 RMK AO2 T10061056
04850KAOH AOH20160128085012401/28/16 08:50:31  5-MIN KAOH 281350Z AUTO 21014G22KT 10SM CLR M01/M05 A2973 1160 72 -400 220/14G22 RMK AO2 SLP076 T10061050
04850KAOH AOH20160128085511701/28/16 08:55:31  5-MIN KAOH 281355Z AUTO 21014G22KT 10SM CLR M01/M05 A2972 1160 72 -400 210/14G22 RMK AO2 T10061050
04850KAOH AOH20160128090011101/28/16 09:00:31  5-MIN KAOH 281400Z AUTO 21013KT 10SM CLR M01/M05 A2972 1160 72 -400 210/13 RMK AO2 T10061050
04850KAOH AOH20160128090511701/28/16 09:05:31  5-MIN KAOH 281405Z AUTO 20014G22KT 10SM CLR M01/M05 A2972 1170 72 -400 210/14G22 RMK AO2 T10061050
04850KAOH AOH20160128091011701/28/16 09:10:31  5-MIN KAOH 281410Z AUTO 20015G22KT 10SM CLR M01/M05 A2971 1170 72 -400 210/15G22 RMK AO2 T10061050
04850KAOH AOH20160128091511701/28/16 09:15:31  5-MIN KAOH 281415Z AUTO 20014G21KT 10SM CLR M01/M05 A2971 1170 72 -400 210/14G21 RMK AO2 T10061050
04850KAOH AOH20160128092011701/28/16 09:20:31  5-MIN KAOH 281420Z AUTO 21013G21KT 10SM CLR M01/M05 A2971 1170 72 -300 210/13G21 RMK AO2 T10061050
04850KAOH AOH20160128092511001/28/16 09:25:31  5-MIN KAOH 281425Z AUTO 20013KT 10SM CLR 00/M05 A2971 1180 69 -300 210/13 RMK AO2 T00001050
04850KAOH AOH20160128093011601/28/16 09:30:31  5-MIN KAOH 281430Z AUTO 21013G20KT 10SM CLR 00/M05 A2970 1180 69 -300 220/13G20 RMK AO2 T00001050
04850KAOH AOH20160128093511601/28/16 09:35:31  5-MIN KAOH 281435Z AUTO 21014G20KT 10SM CLR 00/M05 A2970 1180 69 -300 210/14G20 RMK AO2 T00001050
04850KAOH AOH20160128094011601/28/16 09:40:31  5-MIN KAOH 281440Z AUTO 21014G22KT 10SM CLR 00/M05 A2969 1190 69 -300 220/14G22 RMK AO2 T00001050
04850KAOH AOH20160128094511601/28/16 09:45:31  5-MIN KAOH 281445Z AUTO 21013G22KT 10SM CLR 01/M04 A2969 1190 69 -200 210/13G22 RMK AO2 T00061044
04850KAOH AOH20160128095012901/28/16 09:50:31  5-MIN KAOH 281450Z AUTO 22014G21KT 10SM CLR 01/M04 A2970 1190 69 -200 220/14G21 RMK AO2 SLP066 T00061044 56024
04850KAOH AOH20160128095511601/28/16 09:55:31  5-MIN KAOH 281455Z AUTO 22014G23KT 10SM CLR 01/M04 A2969 1190 69 -200 220/14G23 RMK AO2 T00061044
04850KAOH AOH20160128100011601/28/16 10:00:31  5-MIN KAOH 281500Z AUTO 21013G23KT 10SM CLR 01/M04 A2969 1190 69 -200 220/13G23 RMK AO2 T00061044
04850KAOH AOH20160128100511601/28/16 10:05:31  5-MIN KAOH 281505Z AUTO 21015G22KT 10SM CLR 01/M04 A2969 1190 66 -100 220/15G22 RMK AO2 T00111044
04850KAOH AOH20160128101011601/28/16 10:10:31  5-MIN KAOH 281510Z AUTO 22015G22KT 10SM CLR 01/M04 A2969 1190 66 -100 220/15G22 RMK AO2 T00111044
04850KAOH AOH20160128101511601/28/16 10:15:31  5-MIN KAOH 281515Z AUTO 22016G22KT 10SM CLR 01/M04 A2969 1190 66 -100 220/16G22 RMK AO2 T00111044
04850KAOH AOH20160128102011301/28/16 10:20:31  5-MIN KAOH 281520Z AUTO 22016G22KT 10SM CLR 02/M04 A2968 1200 64 0 220/16G22 RMK AO2 T00171044
04850KAOH AOH20160128102511301/28/16 10:25:31  5-MIN KAOH 281525Z AUTO 22014G23KT 10SM CLR 02/M04 A2968 1200 64 0 220/14G23 RMK AO2 T00171044
04850KAOH AOH20160128103011301/28/16 10:30:31  5-MIN KAOH 281530Z AUTO 21014G25KT 10SM CLR 02/M04 A2968 1200 64 0 220/14G25 RMK AO2 T00171044
04850KAOH AOH20160128103511301/28/16 10:35:31  5-MIN KAOH 281535Z AUTO 22014G25KT 10SM CLR 02/M04 A2968 1200 66 0 230/14G25 RMK AO2 T00171039
04850KAOH AOH20160128104011301/28/16 10:40:31  5-MIN KAOH 281540Z AUTO 21015G22KT 10SM CLR 02/M04 A2967 1210 64 0 220/15G22 RMK AO2 T00221039
04850KAOH AOH20160128104511301/28/16 10:45:31  5-MIN KAOH 281545Z AUTO 21017G25KT 10SM CLR 02/M04 A2967 1210 64 0 220/17G25 RMK AO2 T00221039
04850KAOH AOH20160128105012001/28/16 10:50:31  5-MIN KAOH 281550Z AUTO 22015G25KT 10SM CLR 02/M04 A2967 1210 64 0 220/15G25 RMK AO2 SLP058 T00221039
04850KAOH AOH20160128105510901/28/16 10:55:31  5-MIN KAOH 281555Z AUTO 21015KT 10SM CLR 03/M04 A2967 1210 61 100 220/15 RMK AO2 T00281039
04850KAOH AOH20160128110011301/28/16 11:00:31  5-MIN KAOH 281600Z AUTO 22016G23KT 10SM CLR 02/M04 A2967 1210 64 0 220/16G23 RMK AO2 T00221039
04850KAOH AOH20160128110511501/28/16 11:05:31  5-MIN KAOH 281605Z AUTO 22016G23KT 10SM CLR 03/M03 A2967 1210 64 100 230/16G23 RMK AO2 T00281033
04850KAOH AOH20160128111011501/28/16 11:10:31  5-MIN KAOH 281610Z AUTO 23016G22KT 10SM CLR 03/M03 A2967 1210 64 100 230/16G22 RMK AO2 T00281033
04850KAOH AOH20160128111511501/28/16 11:15:31  5-MIN KAOH 281615Z AUTO 22018G23KT 10SM CLR 03/M03 A2967 1210 64 100 230/18G23 RMK AO2 T00281033
04850KAOH AOH20160128112011501/28/16 11:20:31  5-MIN KAOH 281620Z AUTO 23016G23KT 10SM CLR 03/M03 A2967 1210 64 100 230/16G23 RMK AO2 T00281033
04850KAOH AOH20160128112510901/28/16 11:25:31  5-MIN KAOH 281625Z AUTO 23018KT 10SM CLR 03/M03 A2967 1210 61 100 240/18 RMK AO2 T00331033
04850KAOH AOH20160128113011501/28/16 11:30:31  5-MIN KAOH 281630Z AUTO 23019G24KT 10SM CLR 03/M03 A2966 1210 61 100 240/19G24 RMK AO2 T00331033
04850KAOH AOH20160128113511501/28/16 11:35:31  5-MIN KAOH 281635Z AUTO 23018G24KT 10SM CLR 03/M03 A2966 1210 61 100 240/18G24 RMK AO2 T00331033
04850KAOH AOH20160128114011501/28/16 11:40:31  5-MIN KAOH 281640Z AUTO 22017G23KT 10SM CLR 03/M03 A2966 1220 64 100 230/17G23 RMK AO2 T00331028
04850KAOH AOH20160128114513301/28/16 11:45:31  5-MIN KAOH 281645Z AUTO 22017G26KT 10SM CLR 03/M03 A2966 1220 61 100 220/17G26 RMK AO2 PK WND 22026/1641 T00331033
04850KAOH AOH20160128115014501/28/16 11:50:31  5-MIN KAOH 281650Z AUTO 22016G26KT 10SM CLR 04/M03 A2965 1220 62 200 230/16G26 RMK AO2 PK WND 22026/1641 SLP051 T00391028 TSNO
04850KAOH AOH20160128115512001/28/16 11:55:31  5-MIN KAOH 281655Z AUTO 22013G23KT 10SM CLR 04/M03 A2965 1230 62 200 230/13G23 RMK AO2 T00391028 TSNO
04850KAOH AOH20160128120011401/28/16 12:00:31  5-MIN KAOH 281700Z AUTO 22017KT 10SM CLR 04/M03 A2965 1230 62 200 220/17 RMK AO2 T00391028 TSNO
04850KAOH AOH20160128120511501/28/16 12:05:31  5-MIN KAOH 281705Z AUTO 22016G24KT 10SM CLR 04/M03 A2965 1230 62 200 230/16G24 RMK AO2 T00391028
04850KAOH AOH20160128121013301/28/16 12:10:31  5-MIN KAOH 281710Z AUTO 22018G26KT 10SM CLR 04/M03 A2964 1230 62 200 220/18G26 RMK AO2 PK WND 24026/1708 T00391028
04850KAOH AOH20160128121513301/28/16 12:15:31  5-MIN KAOH 281715Z AUTO 22019G26KT 10SM CLR 04/M03 A2964 1230 59 300 230/19G26 RMK AO2 PK WND 24026/1708 T00441028
04850KAOH AOH20160128122013301/28/16 12:20:31  5-MIN KAOH 281720Z AUTO 22019G26KT 10SM CLR 04/M02 A2964 1240 62 300 230/19G26 RMK AO2 PK WND 24026/1708 T00441022
04850KAOH AOH20160128122513301/28/16 12:25:31  5-MIN KAOH 281725Z AUTO 22016G26KT 10SM CLR 04/M02 A2964 1240 62 300 230/16G26 RMK AO2 PK WND 24026/1708 T00441022
04850KAOH AOH20160128123012701/28/16 12:30:31  5-MIN KAOH 281730Z AUTO 23017KT 10SM CLR 04/M02 A2964 1240 62 300 240/17 RMK AO2 PK WND 24026/1708 T00441022
04850KAOH AOH20160128123513301/28/16 12:35:31  5-MIN KAOH 281735Z AUTO 22017G25KT 10SM CLR 04/M02 A2964 1240 62 300 230/17G25 RMK AO2 PK WND 24026/1708 T00441022
04850KAOH AOH20160128124013301/28/16 12:40:31  5-MIN KAOH 281740Z AUTO 23014G25KT 10SM CLR 05/M02 A2964 1240 59 400 240/14G25 RMK AO2 PK WND 24026/1708 T00501022
04850KAOH AOH20160128124513301/28/16 12:45:31  5-MIN KAOH 281745Z AUTO 23018G22KT 10SM CLR 05/M02 A2963 1240 62 400 230/18G22 RMK AO2 PK WND 24026/1708 T00501017
04850KAOH AOH20160128125015801/28/16 12:50:31  5-MIN KAOH 281750Z AUTO 24019G23KT 10SM CLR 05/M02 A2963 1250 62 400 240/19G23 RMK AO2 PK WND 24026/1708 SLP042 T00501017 10050 21017 58021
04850KAOH AOH20160128125511501/28/16 12:55:31  5-MIN KAOH 281755Z AUTO 23020G28KT 10SM CLR 04/M02 A2963 1250 62 300 240/20G28 RMK AO2 T00441022
04850KAOH AOH20160128130013301/28/16 13:00:31  5-MIN KAOH 281800Z AUTO 24020G28KT 10SM CLR 04/M02 A2963 1250 62 300 240/20G28 RMK AO2 PK WND 23026/1758 T00441022
04850KAOH AOH20160128130513301/28/16 13:05:31  5-MIN KAOH 281805Z AUTO 23016G26KT 10SM CLR 05/M02 A2963 1250 62 400 230/16G26 RMK AO2 PK WND 23026/1758 T00501017
04850KAOH AOH20160128131013001/28/16 13:10:31  5-MIN KAOH 281810Z AUTO 22019KT 10SM FEW028 05/M02 A2963 1250 62 400 230/19 RMK AO2 PK WND 23026/1758 T00501017
04850KAOH AOH20160128131513601/28/16 13:15:31  5-MIN KAOH 281815Z AUTO 24021G26KT 10SM FEW028 05/M02 A2962 1250 62 400 240/21G26 RMK AO2 PK WND 24026/1814 T00501017
04850KAOH AOH20160128132013601/28/16 13:20:31  5-MIN KAOH 281820Z AUTO 23016G26KT 10SM FEW028 04/M02 A2962 1250 64 300 240/16G26 RMK AO2 PK WND 24026/1814 T00441017
04850KAOH AOH20160128132513601/28/16 13:25:31  5-MIN KAOH 281825Z AUTO 23019G24KT 10SM FEW028 05/M02 A2962 1260 62 400 240/19G24 RMK AO2 PK WND 24026/1814 T00501017
04850KAOH AOH20160128133013001/28/16 13:30:31  5-MIN KAOH 281830Z AUTO 23019KT 10SM FEW028 05/M02 A2962 1260 62 400 240/19 RMK AO2 PK WND 24026/1814 T00501017
04850KAOH AOH20160128133513601/28/16 13:35:31  5-MIN KAOH 281835Z AUTO 23016G24KT 10SM SCT028 05/M01 A2962 1260 64 400 240/16G24 RMK AO2 PK WND 24026/1814 T00501011
04850KAOH AOH20160128134013601/28/16 13:40:31  5-MIN KAOH 281840Z AUTO 23018G24KT 10SM SCT028 06/M01 A2961 1260 62 500 240/18G24 RMK AO2 PK WND 24026/1814 T00561011
04850KAOH AOH20160128134513601/28/16 13:45:31  5-MIN KAOH 281845Z AUTO 23018G24KT 10SM SCT028 06/M01 A2961 1260 62 500 240/18G24 RMK AO2 PK WND 24026/1814 T00561011
04850KAOH AOH20160128135014301/28/16 13:50:31  5-MIN KAOH 281850Z AUTO 23017G24KT 10SM SCT028 06/M01 A2961 1260 62 500 240/17G24 RMK AO2 PK WND 24026/1814 SLP035 T00561011
04850KAOH AOH20160128135511801/28/16 13:55:31  5-MIN KAOH 281855Z AUTO 24021G26KT 10SM SCT030 06/M01 A2961 1260 60 500 240/21G26 RMK AO2 T00611011
04850KAOH AOH20160128140013601/28/16 14:00:31  5-MIN KAOH 281900Z AUTO 24020G27KT 10SM SCT030 06/M01 A2961 1260 62 500 250/20G27 RMK AO2 PK WND 23027/1856 T00561011
04850KAOH AOH20160128140513601/28/16 14:05:31  5-MIN KAOH 281905Z AUTO 23021G27KT 10SM SCT030 06/M01 A2961 1270 62 500 240/21G27 RMK AO2 PK WND 23027/1856 T00561011
04850KAOH AOH20160128141013601/28/16 14:10:31  5-MIN KAOH 281910Z AUTO 24017G26KT 10SM SCT030 06/M01 A2961 1270 62 500 240/17G26 RMK AO2 PK WND 23027/1856 T00561011
04850KAOH AOH20160128141513001/28/16 14:15:31  5-MIN KAOH 281915Z AUTO 24020KT 10SM SCT030 05/M01 A2961 1260 64 400 250/20 RMK AO2 PK WND 23027/1856 T00501011
04850KAOH AOH20160128142013601/28/16 14:20:31  5-MIN KAOH 281920Z AUTO 24017G25KT 10SM BKN030 05/M01 A2961 1260 64 400 240/17G25 RMK AO2 PK WND 23027/1856 T00501011
04850KAOH AOH20160128142513601/28/16 14:25:31  5-MIN KAOH 281925Z AUTO 24017G25KT 10SM BKN030 05/M01 A2961 1260 64 400 240/17G25 RMK AO2 PK WND 23027/1856 T00501011
04850KAOH AOH20160128143013601/28/16 14:30:31  5-MIN KAOH 281930Z AUTO 24017G25KT 10SM BKN030 05/M01 A2961 1270 64 400 240/17G25 RMK AO2 PK WND 23027/1856 T00501011
04850KAOH AOH20160128143513001/28/16 14:35:31  5-MIN KAOH 281935Z AUTO 24015KT 10SM BKN031 05/M01 A2961 1270 64 400 250/15 RMK AO2 PK WND 23027/1856 T00501011
04850KAOH AOH20160128144013001/28/16 14:40:31  5-MIN KAOH 281940Z AUTO 24016KT 10SM OVC031 05/M01 A2961 1260 64 400 240/16 RMK AO2 PK WND 23027/1856 T00501011
04850KAOH AOH20160128144513001/28/16 14:45:31  5-MIN KAOH 281945Z AUTO 24015KT 10SM OVC031 05/M01 A2961 1260 64 400 250/15 RMK AO2 PK WND 23027/1856 T00501011
04850KAOH AOH20160128145013701/28/16 14:50:31  5-MIN KAOH 281950Z AUTO 24016KT 10SM OVC031 05/M01 A2961 1270 64 400 240/16 RMK AO2 PK WND 23027/1856 SLP034 T00501011
04850KAOH AOH20160128145511901/28/16 14:55:31  5-MIN KAOH 281955Z AUTO 24014KT 10SM BKN031 OVC070 06/M01 A2961 1270 62 500 240/14 RMK AO2 T00561011
04850KAOH AOH20160128150012501/28/16 15:00:31  5-MIN KAOH 282000Z AUTO 24017G20KT 10SM BKN031 OVC070 06/M01 A2961 1270 62 500 240/17G20 RMK AO2 T00561011
04850KAOH AOH20160128150511901/28/16 15:05:31  5-MIN KAOH 282005Z AUTO 24015KT 10SM SCT030 OVC070 06/M01 A2961 1270 62 500 240/15 RMK AO2 T00561011
04850KAOH AOH20160128151011901/28/16 15:10:31  5-MIN KAOH 282010Z AUTO 23016KT 10SM SCT030 OVC065 06/M01 A2961 1270 65 500 240/16 RMK AO2 T00561006
04850KAOH AOH20160128151511901/28/16 15:15:31  5-MIN KAOH 282015Z AUTO 23016KT 10SM SCT032 OVC065 06/M01 A2961 1270 62 500 240/16 RMK AO2 T00561011
04850KAOH AOH20160128152011901/28/16 15:20:31  5-MIN KAOH 282020Z AUTO 24015KT 10SM BKN032 OVC065 06/M01 A2961 1270 62 500 250/15 RMK AO2 T00561011
04850KAOH AOH20160128152511901/28/16 15:25:31  5-MIN KAOH 282025Z AUTO 24013KT 10SM BKN032 OVC065 06/M01 A2961 1270 65 500 250/13 RMK AO2 T00561006
04850KAOH AOH20160128153011901/28/16 15:30:31  5-MIN KAOH 282030Z AUTO 25015KT 10SM BKN032 OVC065 06/M01 A2961 1270 65 500 250/15 RMK AO2 T00561006
04850KAOH AOH20160128153511901/28/16 15:35:31  5-MIN KAOH 282035Z AUTO 24015KT 10SM BKN032 OVC065 06/M01 A2961 1260 65 500 250/15 RMK AO2 T00561006
04850KAOH AOH20160128154012501/28/16 15:40:31  5-MIN KAOH 282040Z AUTO 25017G21KT 10SM BKN033 OVC060 06/M01 A2961 1260 65 500 260/17G21 RMK AO2 T00561006
04850KAOH AOH20160128154512501/28/16 15:45:31  5-MIN KAOH 282045Z AUTO 25016G23KT 10SM BKN033 OVC060 05/M01 A2961 1260 64 400 260/16G23 RMK AO2 T00501011
04850KAOH AOH20160128155014501/28/16 15:50:31  5-MIN KAOH 282050Z AUTO 25015G23KT 10SM SCT033 SCT041 OVC060 05/M01 A2961 1260 67 400 260/15G23 RMK AO2 SLP036 T00501006 58019
04850KAOH AOH20160128155513201/28/16 15:55:31  5-MIN KAOH 282055Z AUTO 25017G21KT 10SM SCT033 SCT041 OVC060 05/M01 A2961 1260 67 400 260/17G21 RMK AO2 T00501006
04850KAOH AOH20160128160013201/28/16 16:00:31  5-MIN KAOH 282100Z AUTO 25016G21KT 10SM SCT033 SCT041 OVC060 05/M01 A2961 1260 67 400 250/16G21 RMK AO2 T00501006
04850KAOH AOH20160128160511901/28/16 16:05:31  5-MIN KAOH 282105Z AUTO 25017KT 10SM SCT037 OVC060 05/M01 A2961 1260 67 400 260/17 RMK AO2 T00501006
04850KAOH AOH20160128161012501/28/16 16:10:31  5-MIN KAOH 282110Z AUTO 25014G22KT 10SM SCT038 OVC060 05/M01 A2962 1260 67 400 260/14G22 RMK AO2 T00501006
04850KAOH AOH20160128161511901/28/16 16:15:31  5-MIN KAOH 282115Z AUTO 26015KT 10SM SCT037 OVC060 05/M01 A2962 1260 67 400 260/15 RMK AO2 T00501006
04850KAOH AOH20160128162011901/28/16 16:20:31  5-MIN KAOH 282120Z AUTO 25014KT 10SM SCT037 OVC060 05/M01 A2962 1260 67 400 260/14 RMK AO2 T00501006
04850KAOH AOH20160128162511901/28/16 16:25:31  5-MIN KAOH 282125Z AUTO 26016KT 10SM BKN037 OVC060 04/M01 A2962 1260 70 300 260/16 RMK AO2 T00441006
04850KAOH AOH20160128163011901/28/16 16:30:31  5-MIN KAOH 282130Z AUTO 26015KT 10SM BKN037 OVC060 04/M01 A2962 1260 70 300 260/15 RMK AO2 T00441006
04850KAOH AOH20160128163511901/28/16 16:35:31  5-MIN KAOH 282135Z AUTO 26013KT 10SM BKN036 OVC060 04/M01 A2962 1250 70 300 260/13 RMK AO2 T00441006
04850KAOH AOH20160128164011901/28/16 16:40:31  5-MIN KAOH 282140Z AUTO 26016KT 10SM SCT036 OVC060 04/M01 A2962 1250 70 300 260/16 RMK AO2 T00441006
04850KAOH AOH20160128164511901/28/16 16:45:31  5-MIN KAOH 282145Z AUTO 26016KT 10SM SCT036 OVC060 04/M01 A2962 1250 70 300 260/16 RMK AO2 T00441006
04850KAOH AOH20160128165012601/28/16 16:50:31  5-MIN KAOH 282150Z AUTO 25013KT 10SM SCT036 OVC060 04/M01 A2962 1250 70 300 260/13 RMK AO2 SLP038 T00441006
04850KAOH AOH20160128165511901/28/16 16:55:31  5-MIN KAOH 282155Z AUTO 25016KT 10SM FEW036 OVC060 04/M01 A2962 1250 70 300 260/16 RMK AO2 T00441006
04850KAOH AOH20160128170011901/28/16 17:00:31  5-MIN KAOH 282200Z AUTO 25016KT 10SM FEW034 OVC060 04/M01 A2962 1250 70 300 260/16 RMK AO2 T00441006
04850KAOH AOH20160128170511201/28/16 17:05:31  5-MIN KAOH 282205Z AUTO 25016KT 10SM OVC060 04/M01 A2963 1250 70 300 260/16 RMK AO2 T00441006
04850KAOH AOH20160128171011201/28/16 17:10:31  5-MIN KAOH 282210Z AUTO 25014KT 10SM OVC060 04/M01 A2963 1250 70 300 250/14 RMK AO2 T00441006
04850KAOH AOH20160128171511201/28/16 17:15:31  5-MIN KAOH 282215Z AUTO 25015KT 10SM OVC060 04/M01 A2963 1250 70 300 250/15 RMK AO2 T00441006
04850KAOH AOH20160128172011201/28/16 17:20:31  5-MIN KAOH 282220Z AUTO 25015KT 10SM OVC060 04/M01 A2963 1250 70 300 260/15 RMK AO2 T00441006
04850KAOH AOH20160128172511201/28/16 17:25:31  5-MIN KAOH 282225Z AUTO 25015KT 10SM OVC060 04/M01 A2963 1250 73 200 260/15 RMK AO2 T00391006
04850KAOH AOH20160128173011201/28/16 17:30:31  5-MIN KAOH 282230Z AUTO 25014KT 10SM OVC065 04/M01 A2963 1250 73 200 260/14 RMK AO2 T00391006
04850KAOH AOH20160128173511201/28/16 17:35:31  5-MIN KAOH 282235Z AUTO 25014KT 10SM OVC060 04/M01 A2963 1250 73 200 260/14 RMK AO2 T00391006
04850KAOH AOH20160128174011801/28/16 17:40:31  5-MIN KAOH 282240Z AUTO 25011G19KT 10SM OVC060 04/M01 A2963 1250 73 200 260/11G19 RMK AO2 T00391006
04850KAOH AOH20160128174511201/28/16 17:45:31  5-MIN KAOH 282245Z AUTO 25015KT 10SM OVC060 04/M01 A2963 1250 73 200 250/15 RMK AO2 T00391006
04850KAOH AOH20160128175011901/28/16 17:50:31  5-MIN KAOH 282250Z AUTO 25012KT 10SM OVC060 04/M01 A2963 1240 73 200 260/12 RMK AO2 SLP042 T00391006
04850KAOH AOH20160128175511201/28/16 17:55:31  5-MIN KAOH 282255Z AUTO 25013KT 10SM OVC060 04/M01 A2963 1240 73 200 250/13 RMK AO2 T00391006
04850KAOH AOH20160128180011201/28/16 18:00:31  5-MIN KAOH 282300Z AUTO 25013KT 10SM OVC060 04/M01 A2963 1240 73 200 260/13 RMK AO2 T00391006
04850KAOH AOH20160128180511201/28/16 18:05:31  5-MIN KAOH 282305Z AUTO 25013KT 10SM OVC060 04/M01 A2964 1240 73 200 260/13 RMK AO2 T00391006
04850KAOH AOH20160128181011201/28/16 18:10:31  5-MIN KAOH 282310Z AUTO 25014KT 10SM OVC060 04/M01 A2964 1240 73 200 260/14 RMK AO2 T00391006
04850KAOH AOH20160128181511201/28/16 18:15:31  5-MIN KAOH 282315Z AUTO 25012KT 10SM OVC060 03/M01 A2964 1240 76 200 260/12 RMK AO2 T00331006
04850KAOH AOH20160128182011201/28/16 18:20:31  5-MIN KAOH 282320Z AUTO 25013KT 10SM OVC060 03/M01 A2964 1240 76 200 260/13 RMK AO2 T00331006
04850KAOH AOH20160128182511201/28/16 18:25:31  5-MIN KAOH 282325Z AUTO 25013KT 10SM OVC060 03/M01 A2964 1240 76 200 260/13 RMK AO2 T00331006
04850KAOH AOH20160128183011201/28/16 18:30:31  5-MIN KAOH 282330Z AUTO 26014KT 10SM OVC060 04/M01 A2964 1240 73 200 270/14 RMK AO2 T00391006
04850KAOH AOH20160128183511201/28/16 18:35:31  5-MIN KAOH 282335Z AUTO 26014KT 10SM OVC055 03/M01 A2964 1240 76 200 270/14 RMK AO2 T00331006
04850KAOH AOH20160128184011201/28/16 18:40:31  5-MIN KAOH 282340Z AUTO 26015KT 10SM OVC055 03/M01 A2964 1240 76 200 270/15 RMK AO2 T00331006
04850KAOH AOH20160128184511901/28/16 18:45:31  5-MIN KAOH 282345Z AUTO 26012KT 10SM FEW035 OVC055 03/M01 A2964 1230 76 200 270/12 RMK AO2 T00331006
04850KAOH AOH20160128185015101/28/16 18:50:31  5-MIN KAOH 282350Z AUTO 26017KT 10SM FEW025 BKN049 OVC055 03/M01 A2965 1230 76 200 270/17 RMK AO2 SLP047 T00331006 10061 20033 55006
04850KAOH AOH20160128185512601/28/16 18:55:31  5-MIN KAOH 282355Z AUTO 26015KT 10SM SCT025 BKN034 OVC060 03/M01 A2965 1230 76 200 270/15 RMK AO2 T00331006
04850KAOH AOH20160128190012601/28/16 19:00:31  5-MIN KAOH 290000Z AUTO 27017KT 10SM SCT025 BKN036 OVC060 03/M01 A2965 1230 76 200 270/17 RMK AO2 T00331006
04850KAOH AOH20160128190513201/28/16 19:05:31  5-MIN KAOH 290005Z AUTO 27016G22KT 10SM SCT023 BKN036 OVC060 03/M01 A2965 1230 76 100 280/16G22 RMK AO2 T00331006
04850KAOH AOH20160128191013201/28/16 19:10:31  5-MIN KAOH 290010Z AUTO 27017G24KT 10SM BKN023 BKN034 OVC060 03/M01 A2965 1230 76 100 280/17G24 RMK AO2 T00331006
04850KAOH AOH20160128191513201/28/16 19:15:31  5-MIN KAOH 290015Z AUTO 28017G24KT 10SM SCT023 BKN027 OVC060 03/M01 A2965 1230 76 100 280/17G24 RMK AO2 T00331006
04850KAOH AOH20160128192012501/28/16 19:20:31  5-MIN KAOH 290020Z AUTO 27017G23KT 10SM BKN023 OVC060 03/M01 A2966 1220 76 100 280/17G23 RMK AO2 T00331006
04850KAOH AOH20160128192514101/28/16 19:25:31  5-MIN KAOH 290025Z AUTO 28012G23KT 10SM -RA BKN021 OVC060 03/M01 A2966 1220 79 100 290/12G23 RMK AO2 RAB24 P0000 T00281006
04850KAOH AOH20160128193014201/28/16 19:30:31  5-MIN KAOH 290030Z AUTO 29011KT 10SM -RA BKN021 BKN030 OVC044 03/M01 A2966 1220 79 100 290/11 RMK AO2 RAB24 P0000 T00281006
04850KAOH AOH20160128193515501/28/16 19:35:31  5-MIN KAOH 290035Z AUTO 28012G17KT 10SM BKN021 BKN027 OVC044 03/M01 A2966 1220 79 100 290/12G17 RMK AO2 RAB24E33UPB33E35 P0000 T00281006
04850KAOH AOH20160128194014901/28/16 19:40:31  5-MIN KAOH 290040Z AUTO 28012KT 10SM BKN021 BKN025 OVC029 03/M01 A2966 1220 79 100 290/12 RMK AO2 RAB24E33UPB33E35 P0000 T00281006
04850KAOH AOH20160128194514901/28/16 19:45:31  5-MIN KAOH 290045Z AUTO 29013KT 9SM -RA BKN019 BKN024 OVC030 03/M01 A2966 1220 79 100 290/13 RMK AO2 RAB24UPB33E35 P0000 T00281006
04850KAOH AOH20160128195015001/28/16 19:50:31  5-MIN KAOH 290050Z AUTO 29016KT 10SM -RA BKN019 OVC024 03/M01 A2966 1220 79 100 290/16 RMK AO2 RAB24UPB33E35 SLP051 P0000 T00281006
04850KAOH AOH20160128195513901/28/16 19:55:31  5-MIN KAOH 290055Z AUTO 29014G22KT 9SM -RA BKN019 BKN026 OVC038 02/M01 A2966 1220 82 0 290/14G22 RMK AO2 P0000 T00221006
04850KAOH AOH20160128200013801/28/16 20:00:31  5-MIN KAOH 290100Z AUTO 28017G22KT 9SM -RA BKN019 BKN026 OVC034 02/00 A2966 1220 85 0 290/17G22 RMK AO2 P0000 T00220000
04850KAOH AOH20160128200514901/28/16 20:05:31  5-MIN KAOH 290105Z AUTO 28018G24KT 10SM UP SCT019 BKN026 OVC034 02/00 A2967 1210 85 0 290/18G24 RMK AO2 RAE05UPB05 P0000 T00220000
04850KAOH AOH20160128201014901/28/16 20:10:31  5-MIN KAOH 290110Z AUTO 29013G24KT 10SM UP SCT017 BKN026 OVC036 02/00 A2967 1210 85 0 290/13G24 RMK AO2 RAE05UPB05 P0000 T00220000
04850KAOH AOH20160128201514901/28/16 20:15:31  5-MIN KAOH 290115Z AUTO 29015G20KT 10SM FEW017 BKN024 OVC036 02/00 A2967 1210 85 0 300/15G20 RMK AO2 RAE05UPB05E13 P0000 T00220000
04850KAOH AOH20160128202014401/28/16 20:20:31  5-MIN KAOH 290120Z AUTO 29014KT 10SM FEW016 BKN027 OVC036 02/M01 A2967 1210 82 0 300/14 RMK AO2 RAE05UPB05E13 P0000 T00221006
04850KAOH AOH20160128202513601/28/16 20:25:31  5-MIN KAOH 290125Z AUTO 28014KT 10SM FEW016 OVC026 02/00 A2967 1210 85 0 290/14 RMK AO2 RAE05UPB05E13 P0000 T00220000
04850KAOH AOH20160128203014301/28/16 20:30:31  5-MIN KAOH 290130Z AUTO 28015KT 10SM FEW014 BKN024 OVC037 02/00 A2967 1210 85 0 290/15 RMK AO2 RAE05UPB05E13 P0000 T00220000
04850KAOH AOH20160128203514201/28/16 20:35:31  5-MIN KAOH 290135Z AUTO 28017G22KT 10SM FEW014 OVC026 02/00 A2967 1210 85 0 290/17G22 RMK AO2 RAE05UPB05E13 P0000 T00220000
04850KAOH AOH20160128204013501/28/16 20:40:31  5-MIN KAOH 290140Z AUTO 28014G22KT 10SM OVC024 02/00 A2967 1210 85 0 290/14G22 RMK AO2 RAE05UPB05E13 P0000 T00220000
04850KAOH AOH20160128204514901/28/16 20:45:31  5-MIN KAOH 290145Z AUTO 29015G22KT 10SM FEW014 BKN022 OVC027 02/00 A2967 1210 85 0 290/15G22 RMK AO2 RAE05UPB05E13 P0000 T00220000
04850KAOH AOH20160128205014301/28/16 20:50:31  5-MIN KAOH 290150Z AUTO 28016KT 10SM FEW014 OVC022 02/00 A2967 1210 85 0 290/16 RMK AO2 RAE05UPB05E13 SLP055 P0000 T00220000
04850KAOH AOH20160128205512901/28/16 20:55:31  5-MIN KAOH 290155Z AUTO 29013G21KT 10SM FEW014 BKN021 OVC026 02/00 A2967 1210 89 0 290/13G21 RMK AO2 T00170000
04850KAOH AOH20160128210012301/28/16 21:00:31  5-MIN KAOH 290200Z AUTO 29013KT 10SM FEW014 BKN021 OVC026 02/00 A2967 1210 89 0 290/13 RMK AO2 T00170000
04850KAOH AOH20160128210513901/28/16 21:05:31  5-MIN KAOH 290205Z AUTO 28014KT 10SM UP FEW014 OVC021 02/00 A2967 1210 89 0 290/14 RMK AO2 UPB02SNB01E02 P0000 T00170000
04850KAOH AOH20160128211015101/28/16 21:10:31  5-MIN KAOH 290210Z AUTO 29012G22KT 9SM -SN SCT014 OVC021 02/00 A2967 1210 89 0 290/12G22 RMK AO2 UPB02E06SNB01E02B06 P0000 T00170000
04850KAOH AOH20160128211515001/28/16 21:15:31  5-MIN KAOH 290215Z AUTO 29011G22KT 9SM UP BKN016 OVC021 02/00 A2967 1210 89 0 290/11G22 RMK AO2 UPB02SNB01E02B06E11 P0000 T00170000
04850KAOH AOH20160128212014501/28/16 21:20:31  5-MIN KAOH 290220Z AUTO 29012KT 10SM UP BKN014 OVC020 02/00 A2967 1210 89 0 300/12 RMK AO2 UPB02SNB01E02B06E11 P0000 T00170000
04850KAOH AOH20160128212514501/28/16 21:25:31  5-MIN KAOH 290225Z AUTO 29012KT 10SM BKN014 OVC020 02/00 A2967 1210 89 0 290/12 RMK AO2 UPB02E23SNB01E02B06E11 P0000 T00170000
04850KAOH AOH20160128213013801/28/16 21:30:31  5-MIN KAOH 290230Z AUTO 29011KT 10SM OVC014 02/00 A2967 1210 89 0 300/11 RMK AO2 UPB02E23SNB01E02B06E11 P0000 T00170000
04850KAOH AOH20160128213515101/28/16 21:35:31  5-MIN KAOH 290235Z AUTO 29011KT 9SM -SN BKN012 OVC018 02/00 A2967 1210 89 0 300/11 RMK AO2 UPB02E23SNB01E02B06E11B33 P0000 T00170000
04850KAOH AOH20160128214015001/28/16 21:40:31  5-MIN KAOH 290240Z AUTO 29011KT 5SM -SN BR OVC012 01/00 A2968 1200 92 -100 290/11 RMK AO2 UPB02E23SNB01E02B06E11B33 P0000 T00110000
04850KAOH AOH20160128214516201/28/16 21:45:31  5-MIN KAOH 290245Z AUTO 29012KT 4SM -SN BR OVC010 01/00 A2968 1200 92 -100 300/12 RMK AO2 UPB02E23SNB01E02B06E11B33 CIG 008V014 P0000 T00110000
04850KAOH AOH20160128215017001/28/16 21:50:31  5-MIN KAOH 290250Z AUTO 30015KT 3SM -SN BR OVC010 01/M01 A2968 1200 89 -100 300/15 RMK AO2 UPB02E23SNB01E02B06E11B33 SLP059 P0001 60001 T00111006 53011
04850KAOH AOH20160128215513701/28/16 21:55:31  5-MIN KAOH 290255Z AUTO 31010KT 4SM -SN BR OVC010 01/M01 A2968 1200 89 -100 310/10 RMK AO2 CIG 008V015 P0000 T00111006
04850KAOH AOH20160128220014401/28/16 22:00:31  5-MIN KAOH 290300Z AUTO 30012KT 5SM -SN BR BKN010 OVC015 01/M01 A2968 1200 89 -100 310/12 RMK AO2 CIG 008V012 P0000 T00111006
04850KAOH AOH20160128220514401/28/16 22:05:31  5-MIN KAOH 290305Z AUTO 31013KT 6SM -SN BR BKN010 OVC015 01/M01 A2969 1190 89 -100 320/13 RMK AO2 CIG 008V012 P0000 T00111006
04850KAOH AOH20160128221015801/28/16 22:10:31  5-MIN KAOH 290310Z AUTO 33013KT 7SM -SN BKN010 OVC015 01/M01 A2969 1190 92 -200 340/13 RMK AO2 UPB08E09SNE08B09 CIG 008V013 P0000 T00061006
04850KAOH AOH20160128221516101/28/16 22:15:31  5-MIN KAOH 290315Z AUTO 33013KT 6SM -SN BR BKN010 OVC014 01/M02 A2969 1190 85 -200 330/13 RMK AO2 UPB08E09SNE08B09 CIG 009V012 P0000 T00061017
04850KAOH AOH20160128222015901/28/16 22:20:31  5-MIN KAOH 290320Z AUTO 32016G21KT 7SM -SN BKN010 BKN020 OVC025 01/M02 A2969 1190 85 -200 330/16G21 RMK AO2 UPB08E09SNE08B09 P0000 T00061017
04850KAOH AOH20160128222515201/28/16 22:25:31  5-MIN KAOH 290325Z AUTO 32015G21KT 9SM -SN BKN010 OVC025 01/M02 A2969 1190 82 -200 320/15G21 RMK AO2 UPB08E09SNE08B09 P0000 T00061022
04850KAOH AOH20160128223015201/28/16 22:30:31  5-MIN KAOH 290330Z AUTO 32013KT 9SM SCT011 SCT020 OVC025 01/M02 A2970 1190 82 -200 320/13 RMK AO2 UPB08E09SNE08B09E27 P0000 T00061022
04850KAOH AOH20160128223515901/28/16 22:35:31  5-MIN KAOH 290335Z AUTO 32014G21KT 10SM FEW011 SCT020 OVC027 01/M02 A2970 1180 82 -200 330/14G21 RMK AO2 UPB08E09SNE08B09E27 P0000 T00061022
04850KAOH AOH20160128224015301/28/16 22:40:31  5-MIN KAOH 290340Z AUTO 32015KT 10SM FEW013 FEW020 OVC029 00/M02 A2970 1180 85 -300 330/15 RMK AO2 UPB08E09SNE08B09E27 P0000 T00001022
04850KAOH AOH20160128224514601/28/16 22:45:31  5-MIN KAOH 290345Z AUTO 32011KT 10SM SCT026 OVC031 00/M02 A2970 1180 85 -300 330/11 RMK AO2 UPB08E09SNE08B09E27 P0000 T00001022
04850KAOH AOH20160128225013601/28/16 22:50:31  5-MIN KAOH 290350Z AUTO 32011KT 10SM BKN031 OVC037 00/M02 A2970 1180 85 -300 320/11 RMK AO2 UPB08E09SNE08B09E27 P0000
04850KAOH AOH20160128225512001/28/16 22:55:31  5-MIN KAOH 290355Z AUTO 32010KT 10SM BKN031 OVC039 00/M02 A2970 1180 85 -300 330/10 RMK AO2 T00001022
04850KAOH AOH20160128230012001/28/16 23:00:31  5-MIN KAOH 290400Z AUTO 32010KT 10SM SCT031 OVC039 00/M02 A2970 1180 85 -300 320/10 RMK AO2 T00001022
04850KAOH AOH20160128230512001/28/16 23:05:31  5-MIN KAOH 290405Z AUTO 31011KT 10SM BKN033 OVC041 00/M02 A2970 1180 85 -300 320/11 RMK AO2 T00001022
04850KAOH AOH20160128231011301/28/16 23:10:31  5-MIN KAOH 290410Z AUTO 31009KT 10SM OVC038 00/M02 A2970 1180 85 -300 320/09 RMK AO2 T00001022
04850KAOH AOH20160128231511301/28/16 23:15:31  5-MIN KAOH 290415Z AUTO 31010KT 10SM OVC040 00/M02 A2970 1180 88 -300 320/10 RMK AO2 T00001017
04850KAOH AOH20160128232011301/28/16 23:20:31  5-MIN KAOH 290420Z AUTO 31010KT 10SM OVC040 00/M02 A2970 1180 85 -300 310/10 RMK AO2 T00001022
04850KAOH AOH20160128232512901/28/16 23:25:31  5-MIN KAOH 290425Z AUTO 31009KT 10SM -SN OVC040 00/M02 A2970 1180 85 -300 320/09 RMK AO2 SNB24 P0000 T00001022
04850KAOH AOH20160128233012801/28/16 23:30:31  5-MIN KAOH 290430Z AUTO 31010KT 9SM -SN OVC042 00/M02 A2970 1180 85 -300 320/10 RMK AO2 SNB24 P0000 T00001022
04850KAOH AOH20160128233512801/28/16 23:35:31  5-MIN KAOH 290435Z AUTO 31009KT 8SM -SN OVC044 00/M02 A2971 1180 85 -300 310/09 RMK AO2 SNB24 P0000 T00001022
04850KAOH AOH20160128234012801/28/16 23:40:31  5-MIN KAOH 290440Z AUTO 30008KT 9SM -SN OVC046 00/M02 A2971 1180 85 -300 310/08 RMK AO2 SNB24 P0000 T00001022
04850KAOH AOH20160128234513501/28/16 23:45:31  5-MIN KAOH 290445Z AUTO 31010KT 7SM -SN FEW015 OVC046 00/M02 A2970 1180 85 -300 310/10 RMK AO2 SNB24 P0000 T00001022
04850KAOH AOH20160128235015501/28/16 23:50:31  5-MIN KAOH 290450Z AUTO 31011KT 6SM -SN BR FEW015 OVC048 00/M02 A2971 1180 85 -300 320/11 RMK AO2 SNB24 SLP066 P0000 T00001022 400611033
04850KAOH AOH20160128235512201/28/16 23:55:31  5-MIN KAOH 290455Z AUTO 31009KT 7SM -SN OVC050 00/M02 A2971 1180 85 -300 310/09 RMK AO2 P0000 T00001022
04850KAOH AOH20160129000012901/29/16 00:00:31  5-MIN KAOH 290500Z AUTO 30009KT 7SM -SN FEW014 OVC050 00/M02 A2971 1180 85 -300 310/09 RMK AO2 P0000 T00001022
04850KAOH AOH20160129000513701/29/16 00:05:31  5-MIN KAOH 290505Z AUTO 30010KT 7SM -SN FEW014 FEW041 OVC050 M01/M02 A2971 1170 88 -300 310/10 RMK AO2 P0000 T10061022
04850KAOH AOH20160129001012301/29/16 00:10:31  5-MIN KAOH 290510Z AUTO 30010KT 8SM -SN OVC050 M01/M02 A2971 1170 88 -400 310/10 RMK AO2 P0000 T10061022
04850KAOH AOH20160129001512501/29/16 00:15:31  5-MIN KAOH 290515Z AUTO 31010KT 9SM OVC050 M01/M02 A2971 1170 88 -400 310/10 RMK AO2 SNE13 P0000 T10061022
04850KAOH AOH20160129002012601/29/16 00:20:31  5-MIN KAOH 290520Z AUTO 31009KT 10SM OVC050 M01/M02 A2971 1170 88 -400 310/09 RMK AO2 SNE13 P0000 T10061022
04850KAOH AOH20160129002512601/29/16 00:25:31  5-MIN KAOH 290525Z AUTO 30008KT 10SM OVC050 M01/M02 A2971 1180 88 -300 310/08 RMK AO2 SNE13 P0000 T10061022
04850KAOH AOH20160129003014001/29/16 00:30:31  5-MIN KAOH 290530Z AUTO 30011KT 10SM FEW031 BKN050 OVC070 M01/M03 A2971 1180 85 -300 310/11 RMK AO2 SNE13 P0000 T10061028
04850KAOH AOH20160129003514001/29/16 00:35:31  5-MIN KAOH 290535Z AUTO 30008KT 10SM FEW031 BKN050 OVC070 M01/M02 A2970 1180 88 -300 310/08 RMK AO2 SNE13 P0000 T10061022
04850KAOH AOH20160129004014001/29/16 00:40:31  5-MIN KAOH 290540Z AUTO 29009KT 10SM FEW029 BKN050 OVC070 M01/M02 A2971 1180 88 -300 300/09 RMK AO2 SNE13 P0000 T10061022
04850KAOH AOH20160129004514001/29/16 00:45:31  5-MIN KAOH 290545Z AUTO 29010KT 10SM SCT027 BKN050 OVC070 M01/M03 A2971 1180 85 -300 300/10 RMK AO2 SNE13 P0000 T10061028
04850KAOH AOH20160129005013001/29/16 00:50:31  5-MIN KAOH 290550Z AUTO 29010KT 10SM BKN025 BKN030 OVC070 M01/M03 A2971 1180 85 -300 300/10 RMK AO2 SNE13 P0000
04850KAOH AOH20160129005512801/29/16 00:55:31  5-MIN KAOH 290555Z AUTO 29008KT 10SM BKN025 BKN029 OVC070 M01/M03 A2971 1180 85 -300 290/08 RMK AO2 T10061028
04850KAOH AOH20160129010012801/29/16 01:00:31  5-MIN KAOH 290600Z AUTO 29009KT 10SM BKN025 BKN029 OVC070 M01/M03 A2971 1180 85 -300 290/09 RMK AO2 T10061028
04850KAOH AOH20160129010512101/29/16 01:05:31  5-MIN KAOH 290605Z AUTO 29012KT 10SM BKN025 OVC030 M01/M03 A2971 1180 85 -300 300/12 RMK AO2 T10061028
04850KAOH AOH20160129011011401/29/16 01:10:31  5-MIN KAOH 290610Z AUTO 30010KT 10SM OVC025 M01/M03 A2970 1180 81 -300 300/10 RMK AO2 T10061033
04850KAOH AOH20160129011511401/29/16 01:15:31  5-MIN KAOH 290615Z AUTO 30010KT 10SM OVC025 M01/M03 A2970 1180 81 -300 300/10 RMK AO2 T10061033
04850KAOH AOH20160129012011401/29/16 01:20:31  5-MIN KAOH 290620Z AUTO 30011KT 10SM OVC025 M01/M03 A2970 1180 81 -300 310/11 RMK AO2 T10061033
04850KAOH AOH20160129012511401/29/16 01:25:31  5-MIN KAOH 290625Z AUTO 30012KT 10SM OVC025 M01/M03 A2971 1180 81 -300 300/12 RMK AO2 T10061033
04850KAOH AOH20160129013011401/29/16 01:30:31  5-MIN KAOH 290630Z AUTO 30011KT 10SM OVC025 M01/M03 A2971 1180 81 -300 310/11 RMK AO2 T10061033
04850KAOH AOH20160129013511401/29/16 01:35:31  5-MIN KAOH 290635Z AUTO 29010KT 10SM OVC023 M01/M03 A2971 1180 81 -300 300/10 RMK AO2 T10061033
04850KAOH AOH20160129014011401/29/16 01:40:31  5-MIN KAOH 290640Z AUTO 29010KT 10SM OVC023 M01/M03 A2971 1170 81 -300 300/10 RMK AO2 T10061033
04850KAOH AOH20160129014511401/29/16 01:45:31  5-MIN KAOH 290645Z AUTO 29010KT 10SM OVC021 M01/M03 A2971 1180 81 -300 300/10 RMK AO2 T10061033
04850KAOH AOH20160129015013501/29/16 01:50:31  5-MIN KAOH 290650Z AUTO 29011KT 10SM BKN019 BKN024 OVC050 M01/M03 A2971 1170 81 -400 290/11 RMK AO2 SLP067 T10061033
04850KAOH AOH20160129015512101/29/16 01:55:31  5-MIN KAOH 290655Z AUTO 29013KT 10SM BKN021 OVC050 M01/M03 A2971 1170 81 -400 300/13 RMK AO2 T10061033
04850KAOH AOH20160129020012101/29/16 02:00:31  5-MIN KAOH 290700Z AUTO 30012KT 10SM BKN019 OVC050 M01/M03 A2971 1170 81 -400 300/12 RMK AO2 T10061033
04850KAOH AOH20160129020512101/29/16 02:05:31  5-MIN KAOH 290705Z AUTO 29011KT 10SM BKN019 OVC050 M01/M03 A2971 1170 81 -400 300/11 RMK AO2 T10061033
04850KAOH AOH20160129021012101/29/16 02:10:31  5-MIN KAOH 290710Z AUTO 30011KT 10SM BKN019 OVC050 M01/M03 A2971 1170 81 -400 310/11 RMK AO2 T10061033
04850KAOH AOH20160129021513601/29/16 02:15:31  5-MIN KAOH 290715Z AUTO 29013KT 9SM -SN SCT019 OVC050 M01/M03 A2972 1170 81 -400 300/13 RMK AO2 SNB15 P0000 T10061033
04850KAOH AOH20160129022014301/29/16 02:20:31  5-MIN KAOH 290720Z AUTO 30012KT 7SM -SN BKN019 BKN033 OVC050 M01/M03 A2972 1160 81 -400 310/12 RMK AO2 SNB15 P0000 T10061033
04850KAOH AOH20160129022514301/29/16 02:25:31  5-MIN KAOH 290725Z AUTO 30013KT 7SM -SN SCT019 BKN033 OVC050 M01/M03 A2972 1160 81 -400 310/13 RMK AO2 SNB15 P0000 T10061033
04850KAOH AOH20160129023014301/29/16 02:30:31  5-MIN KAOH 290730Z AUTO 30014KT 8SM -SN SCT019 SCT034 OVC055 M01/M03 A2972 1160 81 -400 310/14 RMK AO2 SNB15 P0000 T10061033
04850KAOH AOH20160129023514301/29/16 02:35:31  5-MIN KAOH 290735Z AUTO 30015KT 9SM -SN FEW018 SCT034 OVC055 M01/M03 A2972 1160 81 -400 300/15 RMK AO2 SNB15 P0000 T10061033
04850KAOH AOH20160129024014201/29/16 02:40:31  5-MIN KAOH 290740Z AUTO 30013KT 9SM FEW018 SCT034 OVC055 M01/M03 A2972 1160 81 -400 310/13 RMK AO2 SNB15E36 P0000 T10061033
04850KAOH AOH20160129024514301/29/16 02:45:31  5-MIN KAOH 290745Z AUTO 30011KT 10SM FEW016 SCT021 OVC055 M01/M03 A2972 1160 85 -400 300/11 RMK AO2 SNB15E36 P0000 T10111033
04850KAOH AOH20160129025015001/29/16 02:50:31  5-MIN KAOH 290750Z AUTO 30011KT 10SM FEW016 SCT021 OVC055 M01/M03 A2972 1160 85 -400 300/11 RMK AO2 SNB15E36 SLP071 P0000 T10111033
04850KAOH AOH20160129025512801/29/16 02:55:31  5-MIN KAOH 290755Z AUTO 30014KT 10SM FEW016 FEW021 OVC055 M01/M03 A2972 1160 85 -400 310/14 RMK AO2 T10111033
04850KAOH AOH20160129030012801/29/16 03:00:31  5-MIN KAOH 290800Z AUTO 30012KT 10SM FEW016 SCT021 OVC055 M01/M03 A2972 1160 85 -400 310/12 RMK AO2 T10111033
04850KAOH AOH20160129030514401/29/16 03:05:31  5-MIN KAOH 290805Z AUTO 30015KT 10SM -SN SCT014 BKN021 OVC055 M01/M03 A2972 1160 85 -400 310/15 RMK AO2 SNB04 P0000 T10111033
04850KAOH AOH20160129031014301/29/16 03:10:31  5-MIN KAOH 290810Z AUTO 30014KT 8SM -SN FEW014 BKN021 OVC055 M01/M03 A2972 1160 85 -400 310/14 RMK AO2 SNB04 P0000 T10111033
04850KAOH AOH20160129031514301/29/16 03:15:31  5-MIN KAOH 290815Z AUTO 31013KT 8SM -SN FEW015 BKN023 OVC060 M01/M03 A2972 1160 85 -400 310/13 RMK AO2 SNB04 P0000 T10111033
04850KAOH AOH20160129032014201/29/16 03:20:31  5-MIN KAOH 290820Z AUTO 31014KT 9SM FEW015 BKN023 OVC060 M01/M03 A2972 1160 85 -400 310/14 RMK AO2 SNB04E19 P0000 T10111033
04850KAOH AOH20160129032514201/29/16 03:25:31  5-MIN KAOH 290825Z AUTO 31014KT 9SM FEW015 BKN023 OVC031 M01/M04 A2973 1160 81 -400 310/14 RMK AO2 SNB04E19 P0000 T10111039
04850KAOH AOH20160129033014301/29/16 03:30:31  5-MIN KAOH 290830Z AUTO 31015KT 9SM -SN FEW017 BKN025 OVC031 M01/M04 A2973 1160 81 -400 320/15 RMK AO2 SNB04 P0000 T10111039
04850KAOH AOH20160129033514201/29/16 03:35:31  5-MIN KAOH 290835Z AUTO 31013G21KT 9SM -SN BKN025 OVC034 M01/M04 A2973 1160 81 -400 320/13G21 RMK AO2 SNB04 P0000 T10111039
04850KAOH AOH20160129034014801/29/16 03:40:31  5-MIN KAOH 290840Z AUTO 31012G21KT 9SM BKN027 BKN034 OVC055 M01/M04 A2973 1150 81 -400 320/12G21 RMK AO2 SNB04E36 P0000 T10111039
04850KAOH AOH20160129034513601/29/16 03:45:31  5-MIN KAOH 290845Z AUTO 32014KT 10SM BKN029 OVC060 M02/M04 A2973 1150 85 -500 320/14 RMK AO2 SNB04E36 P0000 T10171039
04850KAOH AOH20160129035013301/29/16 03:50:31  5-MIN KAOH 290850Z AUTO 31012KT 10SM SCT027 BKN031 OVC060 M02/M04 A2973 1150 81 -500 320/12 RMK AO2 SNB04E36 P0000
04850KAOH AOH20160129035512801/29/16 03:55:31  5-MIN KAOH 290855Z AUTO 31012KT 10SM BKN025 BKN030 OVC060 M02/M04 A2974 1150 81 -500 320/12 RMK AO2 T10171044
04850KAOH AOH20160129040012801/29/16 04:00:31  5-MIN KAOH 290900Z AUTO 32012KT 10SM BKN025 BKN030 OVC060 M02/M04 A2974 1150 81 -500 320/12 RMK AO2 T10171044
04850KAOH AOH20160129040512801/29/16 04:05:31  5-MIN KAOH 290905Z AUTO 31011KT 10SM SCT023 BKN028 OVC060 M02/M04 A2974 1140 81 -500 320/11 RMK AO2 T10171044
04850KAOH AOH20160129041012801/29/16 04:10:31  5-MIN KAOH 290910Z AUTO 32011KT 10SM SCT026 BKN030 OVC060 M02/M04 A2974 1140 81 -500 320/11 RMK AO2 T10171044
04850KAOH AOH20160129041512701/29/16 04:15:31  5-MIN KAOH 290915Z AUTO 32014G19KT 10SM FEW023 OVC029 M02/M05 A2974 1140 78 -500 320/14G19 RMK AO2 T10171050
04850KAOH AOH20160129042012801/29/16 04:20:31  5-MIN KAOH 290920Z AUTO 32015KT 10SM FEW023 BKN029 OVC055 M02/M05 A2975 1140 78 -500 320/15 RMK AO2 T10171050
04850KAOH AOH20160129042513401/29/16 04:25:31  5-MIN KAOH 290925Z AUTO 31015G20KT 10SM FEW023 BKN030 OVC036 M02/M05 A2975 1140 78 -500 310/15G20 RMK AO2 T10171050
04850KAOH AOH20160129043012701/29/16 04:30:31  5-MIN KAOH 290930Z AUTO 32014G20KT 10SM BKN030 OVC036 M02/M05 A2975 1140 78 -500 320/14G20 RMK AO2 T10171050
04850KAOH AOH20160129043512101/29/16 04:35:31  5-MIN KAOH 290935Z AUTO 32016KT 10SM BKN027 OVC034 M02/M06 A2975 1140 75 -500 330/16 RMK AO2 T10171056
04850KAOH AOH20160129044012801/29/16 04:40:31  5-MIN KAOH 290940Z AUTO 33013KT 10SM FEW021 BKN034 OVC055 M02/M06 A2975 1130 75 -500 330/13 RMK AO2 T10171056
04850KAOH AOH20160129044512801/29/16 04:45:31  5-MIN KAOH 290945Z AUTO 32010KT 10SM FEW021 SCT028 BKN035 M02/M06 A2976 1130 75 -500 330/10 RMK AO2 T10171056
04850KAOH AOH20160129045011801/29/16 04:50:31  5-MIN KAOH 290950Z AUTO 33009KT 10SM SCT021 BKN028 OVC035 M02/M05 A2976 1120 78 -600 330/09 RMK AO2
04850KAOH AOH20160129045513401/29/16 04:55:31  5-MIN KAOH 290955Z AUTO 32016G24KT 10SM BKN021 BKN028 OVC035 M02/M06 A2976 1120 78 -600 330/16G24 RMK AO2 T10221056
04850KAOH AOH20160129050012701/29/16 05:00:31  5-MIN KAOH 291000Z AUTO 32013G24KT 10SM BKN021 OVC030 M02/M06 A2976 1120 78 -600 330/13G24 RMK AO2 T10221056
04850KAOH AOH20160129050513401/29/16 05:05:31  5-MIN KAOH 291005Z AUTO 32013G21KT 10SM BKN023 BKN030 OVC035 M02/M06 A2977 1120 78 -600 330/13G21 RMK AO2 T10221056
04850KAOH AOH20160129051012801/29/16 05:10:31  5-MIN KAOH 291010Z AUTO 33014KT 10SM BKN023 BKN028 BKN034 M02/M06 A2977 1120 78 -600 330/14 RMK AO2 T10221056
04850KAOH AOH20160129051512801/29/16 05:15:31  5-MIN KAOH 291015Z AUTO 33014KT 10SM SCT021 BKN028 OVC034 M02/M06 A2977 1120 75 -600 340/14 RMK AO2 T10221061
04850KAOH AOH20160129052012101/29/16 05:20:31  5-MIN KAOH 291020Z AUTO 33011KT 10SM BKN023 OVC031 M02/M06 A2977 1110 75 -600 330/11 RMK AO2 T10221061
04850KAOH AOH20160129052512101/29/16 05:25:31  5-MIN KAOH 291025Z AUTO 33013KT 10SM BKN026 OVC031 M02/M06 A2978 1110 75 -600 330/13 RMK AO2 T10221061
04850KAOH AOH20160129053012101/29/16 05:30:31  5-MIN KAOH 291030Z AUTO 33010KT 10SM SCT026 BKN031 M02/M06 A2978 1110 75 -600 340/10 RMK AO2 T10221061
04850KAOH AOH20160129053512101/29/16 05:35:31  5-MIN KAOH 291035Z AUTO 33010KT 10SM FEW022 BKN032 M03/M06 A2978 1110 78 -700 340/10 RMK AO2 T10281061
04850KAOH AOH20160129054012101/29/16 05:40:31  5-MIN KAOH 291040Z AUTO 33009KT 10SM FEW027 BKN032 M03/M06 A2978 1110 78 -700 330/09 RMK AO2 T10281061
04850KAOH AOH20160129054511401/29/16 05:45:31  5-MIN KAOH 291045Z AUTO 33011KT 10SM SCT032 M03/M06 A2978 1110 78 -700 330/11 RMK AO2 T10281061
04850KAOH AOH20160129055012101/29/16 05:50:31  5-MIN KAOH 291050Z AUTO 33009KT 10SM FEW032 M03/M06 A2978 1100 78 -700 330/09 RMK AO2 SLP095 T10281061
04850KAOH AOH20160129055511401/29/16 05:55:31  5-MIN KAOH 291055Z AUTO 33009KT 10SM FEW032 M03/M06 A2978 1100 78 -700 330/09 RMK AO2 T10281061
04850KAOH AOH20160129060011101/29/16 06:00:31  5-MIN KAOH 291100Z AUTO 33009KT 10SM CLR M03/M06 A2978 1100 81 -800 340/09 RMK AO2 T10331061
04850KAOH AOH20160129060511101/29/16 06:05:31  5-MIN KAOH 291105Z AUTO 33007KT 10SM CLR M03/M06 A2979 1100 81 -800 330/07 RMK AO2 T10331061
04850KAOH AOH20160129061011101/29/16 06:10:31  5-MIN KAOH 291110Z AUTO 33009KT 10SM CLR M03/M06 A2979 1100 81 -800 330/09 RMK AO2 T10331061
04850KAOH AOH20160129061511101/29/16 06:15:31  5-MIN KAOH 291115Z AUTO 32009KT 10SM CLR M03/M06 A2980 1090 81 -800 330/09 RMK AO2 T10331061
04850KAOH AOH20160129062012101/29/16 06:20:31  5-MIN KAOH 291120Z AUTO 32008KT 10SM FEW022 FEW027 M03/M06 A2980 1090 81 -800 320/08 RMK AO2 T10331061
04850KAOH AOH20160129062512101/29/16 06:25:31  5-MIN KAOH 291125Z AUTO 32007KT 10SM FEW022 FEW027 M03/M06 A2980 1090 81 -800 320/07 RMK AO2 T10331061
04850KAOH AOH20160129063011401/29/16 06:30:31  5-MIN KAOH 291130Z AUTO 31007KT 10SM FEW022 M03/M06 A2980 1090 81 -800 320/07 RMK AO2 T10331061
04850KAOH AOH20160129063511401/29/16 06:35:31  5-MIN KAOH 291135Z AUTO 31009KT 10SM FEW022 M03/M06 A2981 1080 81 -800 320/09 RMK AO2 T10331061
04850KAOH AOH20160129064012101/29/16 06:40:31  5-MIN KAOH 291140Z AUTO 32010KT 10SM FEW022 FEW028 M03/M06 A2981 1080 81 -800 320/10 RMK AO2 T10331061
04850KAOH AOH20160129064512101/29/16 06:45:31  5-MIN KAOH 291145Z AUTO 32008KT 10SM FEW022 SCT028 M03/M06 A2981 1080 81 -800 330/08 RMK AO2 T10331061
04850KAOH AOH20160129065015101/29/16 06:50:31  5-MIN KAOH 291150Z AUTO 32010KT 10SM SCT028 M03/M07 A2982 1070 78 -800 320/10 RMK AO2 SLP106 60000 70001 T10331067 11006 21033 53009
04850KAOH AOH20160129065512101/29/16 06:55:31  5-MIN KAOH 291155Z AUTO 32010KT 10SM FEW028 SCT039 M03/M07 A2982 1070 78 -800 330/10 RMK AO2 T10331067
04850KAOH AOH20160129070012801/29/16 07:00:31  5-MIN KAOH 291200Z AUTO 32011KT 10SM FEW025 FEW030 SCT039 M03/M07 A2982 1070 78 -800 330/11 RMK AO2 T10331067
04850KAOH AOH20160129070512101/29/16 07:05:31  5-MIN KAOH 291205Z AUTO 32009KT 10SM FEW025 BKN036 M03/M07 A2982 1070 78 -800 330/09 RMK AO2 T10331067
04850KAOH AOH20160129071011401/29/16 07:10:31  5-MIN KAOH 291210Z AUTO 32010KT 10SM BKN034 M03/M07 A2982 1070 78 -800 330/10 RMK AO2 T10331067
04850KAOH AOH20160129071511401/29/16 07:15:31  5-MIN KAOH 291215Z AUTO 33008KT 10SM SCT034 M03/M07 A2983 1060 78 -800 330/08 RMK AO2 T10331067
04850KAOH AOH20160129072011401/29/16 07:20:31  5-MIN KAOH 291220Z AUTO 33009KT 10SM SCT034 M04/M07 A2983 1060 81 -900 340/09 RMK AO2 T10391067
04850KAOH AOH20160129072511401/29/16 07:25:31  5-MIN KAOH 291225Z AUTO 33009KT 10SM FEW034 M03/M07 A2983 1060 78 -800 340/09 RMK AO2 T10331067
04850KAOH AOH20160129073011401/29/16 07:30:31  5-MIN KAOH 291230Z AUTO 32010KT 10SM FEW034 M03/M07 A2983 1060 74 -800 330/10 RMK AO2 T10331072
04850KAOH AOH20160129073511101/29/16 07:35:31  5-MIN KAOH 291235Z AUTO 33010KT 10SM CLR M04/M07 A2984 1050 78 -900 340/10 RMK AO2 T10391072
04850KAOH AOH20160129074011401/29/16 07:40:31  5-MIN KAOH 291240Z AUTO 32010KT 10SM FEW031 M03/M07 A2984 1050 74 -900 330/10 RMK AO2 T10331072
04850KAOH AOH20160129074512101/29/16 07:45:31  5-MIN KAOH 291245Z AUTO 33011KT 10SM FEW027 SCT033 M03/M07 A2985 1050 74 -900 330/11 RMK AO2 T10331072
04850KAOH AOH20160129075012101/29/16 07:50:31  5-MIN KAOH 291250Z AUTO 32011KT 10SM BKN031 M03/M07 A2985 1040 74 -900 330/11 RMK AO2 SLP118 T10331072
04850KAOH AOH20160129075512701/29/16 07:55:31  5-MIN KAOH 291255Z AUTO 33017G23KT 10SM FEW027 BKN031 M03/M08 A2986 1040 71 -900 330/17G23 RMK AO2 T10331078
04850KAOH AOH20160129080012001/29/16 08:00:31  5-MIN KAOH 291300Z AUTO 33014G23KT 10SM BKN031 M03/M08 A2986 1030 68 -900 340/14G23 RMK AO2 T10331083
04850KAOH AOH20160129080511401/29/16 08:05:31  5-MIN KAOH 291305Z AUTO 32014KT 10SM OVC031 M03/M09 A2986 1030 65 -900 330/14 RMK AO2 T10331089
04850KAOH AOH20160129081012101/29/16 08:10:31  5-MIN KAOH 291310Z AUTO 33014G22KT 10SM OVC031 M04/M09 A2986 1030 68 -1000 340/14G22 RMK AO2 T10391089
04850KAOH AOH20160129081512101/29/16 08:15:31  5-MIN KAOH 291315Z AUTO 33013G22KT 10SM OVC031 M04/M09 A2987 1030 68 -1000 330/13G22 RMK AO2 T10391089
04850KAOH AOH20160129082012101/29/16 08:20:31  5-MIN KAOH 291320Z AUTO 34012G22KT 10SM OVC031 M04/M09 A2987 1020 68 -1000 340/12G22 RMK AO2 T10391089
04850KAOH AOH20160129082512101/29/16 08:25:31  5-MIN KAOH 291325Z AUTO 33017G22KT 10SM OVC031 M04/M09 A2987 1020 68 -1000 340/17G22 RMK AO2 T10391089
04850KAOH AOH20160129083012101/29/16 08:30:31  5-MIN KAOH 291330Z AUTO 33016G20KT 10SM OVC031 M04/M09 A2987 1020 65 -1000 330/16G20 RMK AO2 T10391094
04850KAOH AOH20160129083511501/29/16 08:35:31  5-MIN KAOH 291335Z AUTO 32016KT 10SM OVC030 M04/M09 A2988 1020 68 -1000 320/16 RMK AO2 T10391089
04850KAOH AOH20160129084012101/29/16 08:40:31  5-MIN KAOH 291340Z AUTO 32012G22KT 10SM OVC030 M04/M09 A2988 1020 68 -1000 330/12G22 RMK AO2 T10391089
04850KAOH AOH20160129084512101/29/16 08:45:31  5-MIN KAOH 291345Z AUTO 32010G20KT 10SM OVC030 M04/M09 A2988 1010 68 -1000 330/10G20 RMK AO2 T10391089
04850KAOH AOH20160129085012101/29/16 08:50:31  5-MIN KAOH 291350Z AUTO 33009KT 10SM OVC030 M03/M09 A2988 1010 65 -900 330/09 RMK AO2 SLP130 T10331089
04850KAOH AOH20160129085512001/29/16 08:55:31  5-MIN KAOH 291355Z AUTO 32015G18KT 10SM OVC029 M03/M09 A2989 1010 65 -900 320/15G18 RMK AO2 T10331089
04850KAOH AOH20160129090012101/29/16 09:00:31  5-MIN KAOH 291400Z AUTO 33014G18KT 10SM OVC029 M04/M09 A2989 1010 68 -1000 330/14G18 RMK AO2 T10391089
04850KAOH AOH20160129090512001/29/16 09:05:31  5-MIN KAOH 291405Z AUTO 32015G21KT 10SM OVC029 M03/M09 A2989 1010 65 -900 330/15G21 RMK AO2 T10331089
04850KAOH AOH20160129091012001/29/16 09:10:31  5-MIN KAOH 291410Z AUTO 33011G21KT 10SM OVC029 M03/M09 A2989 1010 65 -900 330/11G21 RMK AO2 T10331089
04850KAOH AOH20160129091511401/29/16 09:15:31  5-MIN KAOH 291415Z AUTO 32013KT 10SM OVC029 M03/M09 A2989 1000 65 -900 320/13 RMK AO2 T10331089
04850KAOH AOH20160129092012101/29/16 09:20:31  5-MIN KAOH 291420Z AUTO 32012G21KT 10SM OVC029 M04/M09 A2989 1000 68 -1000 330/12G21 RMK AO2 T10391089
04850KAOH AOH20160129092511501/29/16 09:25:31  5-MIN KAOH 291425Z AUTO 33014KT 10SM OVC029 M04/M09 A2989 1000 65 -1000 330/14 RMK AO2 T10391094
04850KAOH AOH20160129093011501/29/16 09:30:31  5-MIN KAOH 291430Z AUTO 32013KT 10SM OVC029 M04/M09 A2990 1000 65 -1000 320/13 RMK AO2 T10391094
04850KAOH AOH20160129093511501/29/16 09:35:31  5-MIN KAOH 291435Z AUTO 31014KT 10SM OVC029 M04/M09 A2990 1000 68 -1000 310/14 RMK AO2 T10391089
04850KAOH AOH20160129094011401/29/16 09:40:31  5-MIN KAOH 291440Z AUTO 30014KT 10SM OVC029 M04/M09 A2990 990 68 -1000 310/14 RMK AO2 T10391089
04850KAOH AOH20160129094511401/29/16 09:45:31  5-MIN KAOH 291445Z AUTO 32011KT 10SM OVC028 M04/M09 A2991 990 68 -1000 330/11 RMK AO2 T10391089
04850KAOH AOH20160129095012701/29/16 09:50:31  5-MIN KAOH 291450Z AUTO 31010KT 10SM OVC028 M04/M09 A2991 990 68 -1000 320/10 RMK AO2 SLP139 T10391089 53027
04850KAOH AOH20160129095511401/29/16 09:55:31  5-MIN KAOH 291455Z AUTO 33011KT 10SM OVC027 M04/M09 A2992 980 68 -1000 340/11 RMK AO2 T10391089
04850KAOH AOH20160129100011401/29/16 10:00:31  5-MIN KAOH 291500Z AUTO 34010KT 10SM OVC027 M04/M09 A2992 980 68 -1000 340/10 RMK AO2 T10391089
04850KAOH AOH20160129100511401/29/16 10:05:31  5-MIN KAOH 291505Z AUTO 33009KT 10SM OVC027 M04/M09 A2992 970 68 -1000 340/09 RMK AO2 T10391089
04850KAOH AOH20160129101011401/29/16 10:10:31  5-MIN KAOH 291510Z AUTO 33010KT 10SM OVC026 M03/M09 A2992 970 65 -1000 340/10 RMK AO2 T10331089
04850KAOH AOH20160129101511401/29/16 10:15:31  5-MIN KAOH 291515Z AUTO 33009KT 10SM OVC026 M04/M09 A2993 970 68 -1000 340/09 RMK AO2 T10391089
04850KAOH AOH20160129102011401/29/16 10:20:31  5-MIN KAOH 291520Z AUTO 32013KT 10SM OVC026 M04/M09 A2993 970 68 -1000 330/13 RMK AO2 T10391089
04850KAOH AOH20160129102511401/29/16 10:25:31  5-MIN KAOH 291525Z AUTO 30012KT 10SM OVC026 M04/M09 A2994 960 68 -1000 310/12 RMK AO2 T10391089
04850KAOH AOH20160129103011401/29/16 10:30:31  5-MIN KAOH 291530Z AUTO 30011KT 10SM OVC026 M03/M08 A2994 960 68 -1000 300/11 RMK AO2 T10331083
04850KAOH AOH20160129103511401/29/16 10:35:31  5-MIN KAOH 291535Z AUTO 31012KT 10SM OVC027 M03/M08 A2994 960 68 -1000 320/12 RMK AO2 T10331083
04850KAOH AOH20160129104011401/29/16 10:40:31  5-MIN KAOH 291540Z AUTO 33013KT 10SM OVC027 M04/M09 A2994 960 68 -1000 340/13 RMK AO2 T10391089
04850KAOH AOH20160129104511401/29/16 10:45:31  5-MIN KAOH 291545Z AUTO 31010KT 10SM OVC027 M03/M09 A2994 950 65 -1000 320/10 RMK AO2 T10331089
04850KAOH AOH20160129105012101/29/16 10:50:31  5-MIN KAOH 291550Z AUTO 33010KT 10SM OVC027 M03/M09 A2995 950 65 -1000 330/10 RMK AO2 SLP151 T10331089
04850KAOH AOH20160129105511401/29/16 10:55:31  5-MIN KAOH 291555Z AUTO 33012KT 10SM OVC027 M03/M09 A2995 950 65 -1000 330/12 RMK AO2 T10331089
04850KAOH AOH20160129110011401/29/16 11:00:31  5-MIN KAOH 291600Z AUTO 30012KT 10SM OVC027 M03/M08 A2996 950 68 -1000 310/12 RMK AO2 T10331083
04850KAOH AOH20160129110511401/29/16 11:05:31  5-MIN KAOH 291605Z AUTO 30012KT 10SM OVC027 M03/M08 A2996 940 68 -1000 310/12 RMK AO2 T10331083
04850KAOH AOH20160129111011401/29/16 11:10:31  5-MIN KAOH 291610Z AUTO 30009KT 10SM OVC027 M03/M08 A2996 940 68 -1000 310/09 RMK AO2 T10331083
04850KAOH AOH20160129111511401/29/16 11:15:31  5-MIN KAOH 291615Z AUTO 31011KT 10SM OVC027 M03/M08 A2996 940 68 -1000 310/11 RMK AO2 T10331083
04850KAOH AOH20160129112011401/29/16 11:20:31  5-MIN KAOH 291620Z AUTO 31011KT 10SM OVC027 M03/M08 A2996 940 68 -1000 310/11 RMK AO2 T10331083
04850KAOH AOH20160129112511301/29/16 11:25:31  5-MIN KAOH 291625Z AUTO 32008KT 10SM OVC027 M03/M08 A2996 940 66 -900 320/08 RMK AO2 T10281083
04850KAOH AOH20160129113011301/29/16 11:30:31  5-MIN KAOH 291630Z AUTO 30011KT 10SM OVC027 M03/M08 A2996 940 68 -900 300/11 RMK AO2 T10281078
04850KAOH AOH20160129113511301/29/16 11:35:31  5-MIN KAOH 291635Z AUTO 32009KT 10SM OVC027 M03/M08 A2996 940 66 -900 320/09 RMK AO2 T10281083
04850KAOH AOH20160129114011401/29/16 11:40:31  5-MIN KAOH 291640Z AUTO 35007KT 10SM OVC027 M03/M08 A2995 950 68 -1000 350/07 RMK AO2 T10331083
04850KAOH AOH20160129114510601/29/16 11:45:31  5-MIN KAOH 291645Z AUTO 10SM OVC027 M03/M08 A2995 950 68 -1000 M /M RMK AO2 T10331083 $
04850KAOH AOH20160129115011301/29/16 11:50:31  5-MIN KAOH 291650Z AUTO 10SM OVC027 M03/M08 A2995 950 68 -1000 M /M RMK AO2 SLP153 T10331083 $
04850KAOH AOH20160129115510601/29/16 11:55:31  5-MIN KAOH 291655Z AUTO 10SM OVC027 M03/M09 A2995 950 65 -1000 M /M RMK AO2 T10331089 $
04850KAOH AOH20160129120010601/29/16 12:00:31  5-MIN KAOH 291700Z AUTO 10SM BKN027 M03/M08 A2995 950 68 -1000 M /M RMK AO2 T10331083 $
04850KAOH AOH20160129120510101/29/16 12:05:31  5-MIN KAOH 291705Z AUTO BKN027 M03/M08 A2996 940 68 -1000 M /M RMK AO2 T10331083 $
04850KAOH AOH20160129121011101/29/16 12:10:31  5-MIN KAOH 291710Z AUTO 31010KT SCT026 M03/M08 A2996 940 68 -1000 320/10 RMK AO2 T10331083 $
04850KAOH AOH20160129121511001/29/16 12:15:31  5-MIN KAOH 291715Z AUTO 31010KT BKN026 M03/M08 A2996 940 66 -900 320/10 RMK AO2 T10281083 $
04850KAOH AOH20160129122011001/29/16 12:20:31  5-MIN KAOH 291720Z AUTO 28009KT BKN026 M02/M07 A2996 940 69 -800 280/09 RMK AO2 T10221072 $
04850KAOH AOH20160129122511001/29/16 12:25:31  5-MIN KAOH 291725Z AUTO 30012KT BKN027 M03/M08 A2996 940 66 -900 300/12 RMK AO2 T10281083 $
04850KAOH AOH20160129123011001/29/16 12:30:31  5-MIN KAOH 291730Z AUTO 31012KT BKN027 M03/M08 A2996 940 66 -900 310/12 RMK AO2 T10281083 $
04850KAOH AOH20160129123511001/29/16 12:35:31  5-MIN KAOH 291735Z AUTO 29011KT BKN027 M03/M08 A2996 940 66 -900 300/11 RMK AO2 T10281083 $
04850KAOH AOH20160129124011001/29/16 12:40:31  5-MIN KAOH 291740Z AUTO 31011KT SCT027 M03/M08 A2996 940 66 -900 310/11 RMK AO2 T10281083 $
04850KAOH AOH20160129124511001/29/16 12:45:31  5-MIN KAOH 291745Z AUTO 29011KT SCT027 M03/M08 A2996 940 68 -900 290/11 RMK AO2 T10281078 $
04850KAOH AOH20160129125013501/29/16 12:50:31  5-MIN KAOH 291750Z AUTO 27011KT SCT027 M02/M08 A2996 940 66 -800 280/11 RMK AO2 SLP155 T10221078 11022 21039 51033 $
04850KAOH AOH20160129125511501/29/16 12:55:31  5-MIN KAOH 291755Z AUTO 26011KT 10SM BKN027 M02/M07 A2996 940 69 -800 270/11 RMK AO2 T10221072 $
04850KAOH AOH20160129130012801/29/16 13:00:31  5-MIN KAOH 291800Z AUTO 30009KT 10SM BKN027 M02/M07 A2996 940 69 -800 310/09 RMK AO2 T10221072 PWINO FZRANO $
04850KAOH AOH20160129130513401/29/16 13:05:31  5-MIN KAOH 291805Z AUTO 31012G19KT 10SM BKN027 M02/M08 A2996 940 66 -900 310/12G19 RMK AO2 T10221078 PWINO FZRANO $
04850KAOH AOH20160129131013401/29/16 13:10:31  5-MIN KAOH 291810Z AUTO 30009G19KT 10SM BKN027 M02/M08 A2996 940 66 -800 310/09G19 RMK AO2 T10221078 PWINO FZRANO $
04850KAOH AOH20160129131514401/29/16 13:15:31  5-MIN KAOH 291815Z AUTO 28009KT 240V340 10SM BKN027 M02/M08 A2996 950 66 -800 280/09 250V350 RMK AO2 T10221078 PWINO FZRANO $
04850KAOH AOH20160129132012801/29/16 13:20:31  5-MIN KAOH 291820Z AUTO 26011KT 10SM BKN027 M02/M08 A2995 950 66 -800 270/11 RMK AO2 T10221078 PWINO FZRANO $
04850KAOH AOH20160129132512801/29/16 13:25:31  5-MIN KAOH 291825Z AUTO 27011KT 10SM SCT027 M02/M08 A2995 950 63 -800 280/11 RMK AO2 T10171078 PWINO FZRANO $
04850KAOH AOH20160129133012801/29/16 13:30:31  5-MIN KAOH 291830Z AUTO 28011KT 10SM SCT027 M02/M08 A2995 950 63 -800 290/11 RMK AO2 T10171078 PWINO FZRANO $
04850KAOH AOH20160129133512801/29/16 13:35:31  5-MIN KAOH 291835Z AUTO 30011KT 10SM FEW027 M02/M07 A2995 950 66 -800 300/11 RMK AO2 T10171072 PWINO FZRANO $
04850KAOH AOH20160129134012801/29/16 13:40:31  5-MIN KAOH 291840Z AUTO 29011KT 10SM FEW027 M02/M07 A2995 950 66 -800 300/11 RMK AO2 T10171072 PWINO FZRANO $
04850KAOH AOH20160129134512801/29/16 13:45:31  5-MIN KAOH 291845Z AUTO 30010KT 10SM FEW027 M02/M08 A2995 950 63 -800 310/10 RMK AO2 T10171078 PWINO FZRANO $
04850KAOH AOH20160129135013201/29/16 13:50:31  5-MIN KAOH 291850Z AUTO 30009KT 10SM CLR M02/M07 A2995 950 66 -800 310/09 RMK AO2 SLP152 T10171072 PWINO FZRANO $
04850KAOH AOH20160129135511201/29/16 13:55:31  5-MIN KAOH 291855Z AUTO 29006KT 10SM CLR M01/M07 A2995 950 66 -700 300/06 RMK AO2 T10111067 $
04850KAOH AOH20160129140011201/29/16 14:00:31  5-MIN KAOH 291900Z AUTO 30009KT 10SM CLR M01/M07 A2995 950 66 -700 310/09 RMK AO2 T10111067 $
04850KAOH AOH20160129140511201/29/16 14:05:31  5-MIN KAOH 291905Z AUTO 28011KT 10SM CLR M01/M07 A2995 950 66 -700 280/11 RMK AO2 T10111067 $
04850KAOH AOH20160129141008801/29/16 14:10:31  5-MIN KAOH 291910Z AUTO 26009KT 10SM CLR A2994 M M M 270/09 RMK AO2 $
04850KAOH AOH20160129141508801/29/16 14:15:31  5-MIN KAOH 291915Z AUTO 25011KT 10SM CLR A2994 M M M 260/11 RMK AO2 $
04850KAOH AOH20160129142011201/29/16 14:20:31  5-MIN KAOH 291920Z AUTO 28009KT 10SM CLR M01/M07 A2994 960 63 -700 290/09 RMK AO2 T10111072 $
04850KAOH AOH20160129142511201/29/16 14:25:31  5-MIN KAOH 291925Z AUTO 29008KT 10SM CLR M01/M07 A2994 960 63 -600 300/08 RMK AO2 T10061067 $
04850KAOH AOH20160129143011201/29/16 14:30:31  5-MIN KAOH 291930Z AUTO 30013KT 10SM CLR M01/M07 A2994 960 61 -600 310/13 RMK AO2 T10061072 $
04850KAOH AOH20160129143511001/29/16 14:35:31  5-MIN KAOH 291935Z AUTO 31008KT 10SM CLR M01/M07 A2994 960 61 -600 310/08 RMK AO2 T10061072
04850KAOH AOH20160129144011001/29/16 14:40:31  5-MIN KAOH 291940Z AUTO 29008KT 10SM CLR M01/M07 A2994 960 63 -600 290/08 RMK AO2 T10061067
04850KAOH AOH20160129144511001/29/16 14:45:31  5-MIN KAOH 291945Z AUTO 28011KT 10SM CLR M01/M07 A2994 960 63 -600 280/11 RMK AO2 T10061067
04850KAOH AOH20160129145011701/29/16 14:50:31  5-MIN KAOH 291950Z AUTO 30007KT 10SM CLR M01/M07 A2994 960 61 -600 310/07 RMK AO2 SLP149 T10061072
04850KAOH AOH20160129145511001/29/16 14:55:31  5-MIN KAOH 291955Z AUTO 28009KT 10SM CLR M01/M07 A2994 960 63 -600 280/09 RMK AO2 T10061067
04850KAOH AOH20160129150011001/29/16 15:00:31  5-MIN KAOH 292000Z AUTO 28010KT 10SM CLR M01/M07 A2994 960 61 -600 290/10 RMK AO2 T10061072
04850KAOH AOH20160129150510901/29/16 15:05:31  5-MIN KAOH 292005Z AUTO 26010KT 10SM CLR 00/M07 A2994 960 61 -600 270/10 RMK AO2 T00001067
04850KAOH AOH20160129151010901/29/16 15:10:31  5-MIN KAOH 292010Z AUTO 26010KT 10SM CLR 00/M07 A2994 960 58 -600 260/10 RMK AO2 T00001072
04850KAOH AOH20160129151510901/29/16 15:15:31  5-MIN KAOH 292015Z AUTO 26010KT 10SM CLR 00/M07 A2994 960 58 -600 260/10 RMK AO2 T00001072
04850KAOH AOH20160129152010901/29/16 15:20:31  5-MIN KAOH 292020Z AUTO 25008KT 10SM CLR 00/M07 A2994 960 61 -500 260/08 RMK AO2 T00001067
04850KAOH AOH20160129152510901/29/16 15:25:31  5-MIN KAOH 292025Z AUTO 25011KT 10SM CLR 00/M07 A2994 960 58 -600 260/11 RMK AO2 T00001072
04850KAOH AOH20160129153010901/29/16 15:30:31  5-MIN KAOH 292030Z AUTO 28008KT 10SM CLR 00/M07 A2994 960 58 -600 280/08 RMK AO2 T00001072
04850KAOH AOH20160129153510901/29/16 15:35:31  5-MIN KAOH 292035Z AUTO 28009KT 10SM CLR 01/M07 A2994 950 58 -500 290/09 RMK AO2 T00061067
04850KAOH AOH20160129154010901/29/16 15:40:31  5-MIN KAOH 292040Z AUTO 26009KT 10SM CLR 00/M07 A2995 950 61 -600 270/09 RMK AO2 T00001067
04850KAOH AOH20160129154512501/29/16 15:45:31  5-MIN KAOH 292045Z AUTO 27010KT 230V300 10SM CLR 00/M07 A2995 950 61 -600 280/10 240V310 RMK AO2 T00001067
04850KAOH AOH20160129155012201/29/16 15:50:31  5-MIN KAOH 292050Z AUTO 27012KT 10SM CLR 01/M07 A2995 950 58 -500 280/12 RMK AO2 SLP152 T00061067 51014
04850KAOH AOH20160129155510901/29/16 15:55:31  5-MIN KAOH 292055Z AUTO 25009KT 10SM CLR 00/M07 A2995 950 61 -600 260/09 RMK AO2 T00001067
04850KAOH AOH20160129160010901/29/16 16:00:31  5-MIN KAOH 292100Z AUTO 27008KT 10SM CLR 00/M07 A2995 950 58 -600 270/08 RMK AO2 T00001072
04850KAOH AOH20160129160510901/29/16 16:05:31  5-MIN KAOH 292105Z AUTO 26011KT 10SM CLR 00/M07 A2995 950 61 -600 260/11 RMK AO2 T00001067
04850KAOH AOH20160129161010901/29/16 16:10:31  5-MIN KAOH 292110Z AUTO 24008KT 10SM CLR 00/M07 A2994 960 58 -600 250/08 RMK AO2 T00001072
04850KAOH AOH20160129161510901/29/16 16:15:31  5-MIN KAOH 292115Z AUTO 27009KT 10SM CLR 00/M07 A2994 960 61 -600 270/09 RMK AO2 T00001067
04850KAOH AOH20160129162010901/29/16 16:20:31  5-MIN KAOH 292120Z AUTO 27007KT 10SM CLR 00/M07 A2994 960 61 -600 270/07 RMK AO2 T00001067
04850KAOH AOH20160129162510901/29/16 16:25:31  5-MIN KAOH 292125Z AUTO 25011KT 10SM CLR 00/M06 A2995 950 63 -600 250/11 RMK AO2 T00001061
04850KAOH AOH20160129163010901/29/16 16:30:31  5-MIN KAOH 292130Z AUTO 25009KT 10SM CLR 00/M07 A2995 950 58 -600 250/09 RMK AO2 T00001072
04850KAOH AOH20160129163510901/29/16 16:35:31  5-MIN KAOH 292135Z AUTO 24010KT 10SM CLR 01/M07 A2995 950 58 -500 250/10 RMK AO2 T00061067
04850KAOH AOH20160129164010901/29/16 16:40:31  5-MIN KAOH 292140Z AUTO 26008KT 10SM CLR 00/M07 A2995 950 61 -600 270/08 RMK AO2 T00001067
04850KAOH AOH20160129164510901/29/16 16:45:31  5-MIN KAOH 292145Z AUTO 24010KT 10SM CLR 00/M07 A2995 950 61 -600 240/10 RMK AO2 T00001067
04850KAOH AOH20160129165011601/29/16 16:50:31  5-MIN KAOH 292150Z AUTO 25010KT 10SM CLR 00/M07 A2995 950 61 -600 260/10 RMK AO2 SLP154 T00001067
04850KAOH AOH20160129165510901/29/16 16:55:31  5-MIN KAOH 292155Z AUTO 24009KT 10SM CLR 00/M07 A2995 950 61 -600 240/09 RMK AO2 T00001067
04850KAOH AOH20160129170010901/29/16 17:00:31  5-MIN KAOH 292200Z AUTO 24008KT 10SM CLR 00/M07 A2995 950 61 -600 250/08 RMK AO2 T00001067
04850KAOH AOH20160129170510901/29/16 17:05:31  5-MIN KAOH 292205Z AUTO 25010KT 10SM CLR 00/M07 A2996 940 61 -600 260/10 RMK AO2 T00001067
04850KAOH AOH20160129171010901/29/16 17:10:31  5-MIN KAOH 292210Z AUTO 25009KT 10SM CLR 00/M07 A2996 940 61 -600 260/09 RMK AO2 T00001067
04850KAOH AOH20160129171510901/29/16 17:15:31  5-MIN KAOH 292215Z AUTO 25009KT 10SM CLR 00/M07 A2995 950 61 -600 260/09 RMK AO2 T00001067
04850KAOH AOH20160129172011001/29/16 17:20:31  5-MIN KAOH 292220Z AUTO 25008KT 10SM CLR M01/M07 A2996 940 61 -600 260/08 RMK AO2 T10061072
04850KAOH AOH20160129172511001/29/16 17:25:31  5-MIN KAOH 292225Z AUTO 25007KT 10SM CLR M01/M07 A2995 950 63 -600 260/07 RMK AO2 T10061067
04850KAOH AOH20160129173011001/29/16 17:30:31  5-MIN KAOH 292230Z AUTO 25008KT 10SM CLR M01/M07 A2995 950 63 -600 250/08 RMK AO2 T10061067
04850KAOH AOH20160129173511001/29/16 17:35:31  5-MIN KAOH 292235Z AUTO 25007KT 10SM CLR M01/M07 A2996 950 63 -600 250/07 RMK AO2 T10061067
04850KAOH AOH20160129174011001/29/16 17:40:31  5-MIN KAOH 292240Z AUTO 24007KT 10SM CLR M01/M07 A2995 950 63 -600 250/07 RMK AO2 T10061067
04850KAOH AOH20160129174511001/29/16 17:45:31  5-MIN KAOH 292245Z AUTO 24006KT 10SM CLR M01/M07 A2995 950 66 -700 250/06 RMK AO2 T10111067
04850KAOH AOH20160129175011701/29/16 17:50:31  5-MIN KAOH 292250Z AUTO 24006KT 10SM CLR M01/M07 A2996 940 66 -700 250/06 RMK AO2 SLP155 T10111067
04850KAOH AOH20160129175511001/29/16 17:55:31  5-MIN KAOH 292255Z AUTO 25006KT 10SM CLR M01/M07 A2996 940 66 -700 250/06 RMK AO2 T10111067
04850KAOH AOH20160129180011001/29/16 18:00:31  5-MIN KAOH 292300Z AUTO 24004KT 10SM CLR M01/M07 A2995 950 66 -700 250/04 RMK AO2 T10111067
04850KAOH AOH20160129180511001/29/16 18:05:31  5-MIN KAOH 292305Z AUTO 23004KT 10SM CLR M01/M07 A2995 950 66 -700 240/04 RMK AO2 T10111067
04850KAOH AOH20160129181011001/29/16 18:10:31  5-MIN KAOH 292310Z AUTO 21003KT 10SM CLR M02/M07 A2995 950 69 -800 220/03 RMK AO2 T10171067
04850KAOH AOH20160129181511001/29/16 18:15:31  5-MIN KAOH 292315Z AUTO 21003KT 10SM CLR M01/M07 A2995 950 63 -700 220/03 RMK AO2 T10111072
04850KAOH AOH20160129182011001/29/16 18:20:31  5-MIN KAOH 292320Z AUTO 21003KT 10SM CLR M01/M07 A2995 950 63 -700 220/03 RMK AO2 T10111072
04850KAOH AOH20160129182511001/29/16 18:25:31  5-MIN KAOH 292325Z AUTO 21003KT 10SM CLR M01/M07 A2995 950 63 -700 210/03 RMK AO2 T10111072
04850KAOH AOH20160129183011001/29/16 18:30:31  5-MIN KAOH 292330Z AUTO 22004KT 10SM CLR M01/M07 A2996 940 63 -700 220/04 RMK AO2 T10111072
04850KAOH AOH20160129183511001/29/16 18:35:31  5-MIN KAOH 292335Z AUTO 21004KT 10SM CLR M01/M07 A2996 940 63 -700 210/04 RMK AO2 T10111072
04850KAOH AOH20160129184011001/29/16 18:40:31  5-MIN KAOH 292340Z AUTO 21004KT 10SM CLR M02/M07 A2996 940 66 -800 210/04 RMK AO2 T10171072
04850KAOH AOH20160129184511001/29/16 18:45:31  5-MIN KAOH 292345Z AUTO 21004KT 10SM CLR M01/M07 A2996 940 63 -700 210/04 RMK AO2 T10111072
04850KAOH AOH20160129185013501/29/16 18:50:31  5-MIN KAOH 292350Z AUTO 20004KT 10SM CLR M01/M07 A2996 940 63 -700 200/04 RMK AO2 SLP157 T10111072 10006 21022 55004
04850KAOH AOH20160129185511001/29/16 18:55:31  5-MIN KAOH 292355Z AUTO 20004KT 10SM CLR M01/M07 A2996 940 63 -700 210/04 RMK AO2 T10111072
04850KAOH AOH20160129190011001/29/16 19:00:31  5-MIN KAOH 300000Z AUTO 21004KT 10SM CLR M01/M07 A2996 940 63 -700 210/04 RMK AO2 T10111072
04850KAOH AOH20160129190511001/29/16 19:05:31  5-MIN KAOH 300005Z AUTO 20004KT 10SM CLR M02/M07 A2996 940 66 -800 210/04 RMK AO2 T10171072
04850KAOH AOH20160129191011001/29/16 19:10:31  5-MIN KAOH 300010Z AUTO 18004KT 10SM CLR M02/M07 A2996 940 66 -800 190/04 RMK AO2 T10171072
04850KAOH AOH20160129191511001/29/16 19:15:31  5-MIN KAOH 300015Z AUTO 18004KT 10SM CLR M02/M07 A2996 940 66 -800 190/04 RMK AO2 T10171072
04850KAOH AOH20160129192011001/29/16 19:20:31  5-MIN KAOH 300020Z AUTO 17004KT 10SM CLR M02/M07 A2996 940 72 -800 180/04 RMK AO2 T10221067
04850KAOH AOH20160129192511001/29/16 19:25:31  5-MIN KAOH 300025Z AUTO 17005KT 10SM CLR M03/M06 A2996 940 78 -900 180/05 RMK AO2 T10281061
04850KAOH AOH20160129193011001/29/16 19:30:31  5-MIN KAOH 300030Z AUTO 18005KT 10SM CLR M02/M06 A2996 940 75 -800 180/05 RMK AO2 T10221061
04850KAOH AOH20160129193511001/29/16 19:35:31  5-MIN KAOH 300035Z AUTO 17005KT 10SM CLR M02/M06 A2996 940 75 -800 180/05 RMK AO2 T10221061
04850KAOH AOH20160129194011001/29/16 19:40:31  5-MIN KAOH 300040Z AUTO 17005KT 10SM CLR M02/M06 A2996 940 75 -800 180/05 RMK AO2 T10221061
04850KAOH AOH20160129194511001/29/16 19:45:31  5-MIN KAOH 300045Z AUTO 18005KT 10SM CLR M02/M06 A2996 940 75 -800 180/05 RMK AO2 T10221061
04850KAOH AOH20160129195011701/29/16 19:50:31  5-MIN KAOH 300050Z AUTO 17005KT 10SM CLR M03/M06 A2995 950 78 -900 180/05 RMK AO2 SLP155 T10281061
04850KAOH AOH20160129195511001/29/16 19:55:31  5-MIN KAOH 300055Z AUTO 17005KT 10SM CLR M03/M07 A2996 940 75 -900 180/05 RMK AO2 T10281067
04850KAOH AOH20160129200011001/29/16 20:00:31  5-MIN KAOH 300100Z AUTO 18004KT 10SM CLR M03/M07 A2996 940 75 -900 190/04 RMK AO2 T10281067
04850KAOH AOH20160129200511001/29/16 20:05:31  5-MIN KAOH 300105Z AUTO 18005KT 10SM CLR M02/M07 A2996 940 72 -900 180/05 RMK AO2 T10221067
04850KAOH AOH20160129201011001/29/16 20:10:31  5-MIN KAOH 300110Z AUTO 18005KT 10SM CLR M03/M07 A2996 940 75 -900 190/05 RMK AO2 T10281067
04850KAOH AOH20160129201511001/29/16 20:15:31  5-MIN KAOH 300115Z AUTO 17005KT 10SM CLR M03/M07 A2995 950 75 -900 170/05 RMK AO2 T10281067
04850KAOH AOH20160129202011101/29/16 20:20:31  5-MIN KAOH 300120Z AUTO 17006KT 10SM CLR M03/M06 A2995 950 81 -1000 170/06 RMK AO2 T10331061
04850KAOH AOH20160129202511001/29/16 20:25:31  5-MIN KAOH 300125Z AUTO 18005KT 10SM CLR M03/M07 A2995 950 75 -900 180/05 RMK AO2 T10281067
04850KAOH AOH20160129203011301/29/16 20:30:31  5-MIN KAOH 300130Z AUTO 17005KT 10SM FEW120 M03/M07 A2995 950 75 -900 170/05 RMK AO2 T10281067
04850KAOH AOH20160129203511301/29/16 20:35:31  5-MIN KAOH 300135Z AUTO 17004KT 10SM SCT120 M03/M06 A2995 950 78 -900 180/04 RMK AO2 T10281061
04850KAOH AOH20160129204011301/29/16 20:40:31  5-MIN KAOH 300140Z AUTO 17005KT 10SM BKN120 M03/M06 A2995 950 78 -900 170/05 RMK AO2 T10281061
04850KAOH AOH20160129204511301/29/16 20:45:31  5-MIN KAOH 300145Z AUTO 16005KT 10SM BKN120 M02/M06 A2995 950 75 -800 170/05 RMK AO2 T10221061
04850KAOH AOH20160129205012001/29/16 20:50:31  5-MIN KAOH 300150Z AUTO 15005KT 10SM BKN120 M03/M06 A2994 960 81 -900 160/05 RMK AO2 SLP149 T10281056
04850KAOH AOH20160129205511301/29/16 20:55:31  5-MIN KAOH 300155Z AUTO 16006KT 10SM OVC120 M02/M06 A2994 960 78 -800 160/06 RMK AO2 T10221056
04850KAOH AOH20160129210011301/29/16 21:00:31  5-MIN KAOH 300200Z AUTO 17005KT 10SM OVC120 M02/M06 A2994 960 78 -800 180/05 RMK AO2 T10221056
04850KAOH AOH20160129210511301/29/16 21:05:31  5-MIN KAOH 300205Z AUTO 16006KT 10SM BKN120 M02/M06 A2993 970 75 -800 170/06 RMK AO2 T10221061
04850KAOH AOH20160129211011301/29/16 21:10:31  5-MIN KAOH 300210Z AUTO 16006KT 10SM SCT120 M02/M06 A2992 970 78 -800 160/06 RMK AO2 T10221056
04850KAOH AOH20160129211511301/29/16 21:15:31  5-MIN KAOH 300215Z AUTO 15007KT 10SM SCT120 M03/M06 A2992 980 78 -900 160/07 RMK AO2 T10281061
04850KAOH AOH20160129212011301/29/16 21:20:31  5-MIN KAOH 300220Z AUTO 16006KT 10SM FEW120 M03/M06 A2993 970 78 -900 170/06 RMK AO2 T10281061
04850KAOH AOH20160129212511301/29/16 21:25:31  5-MIN KAOH 300225Z AUTO 16006KT 10SM FEW120 M02/M06 A2992 980 75 -800 170/06 RMK AO2 T10221061
04850KAOH AOH20160129213011001/29/16 21:30:31  5-MIN KAOH 300230Z AUTO 15007KT 10SM CLR M03/M06 A2992 980 78 -900 160/07 RMK AO2 T10281061
04850KAOH AOH20160129213511001/29/16 21:35:31  5-MIN KAOH 300235Z AUTO 16006KT 10SM CLR M03/M06 A2993 970 78 -900 160/06 RMK AO2 T10281061
04850KAOH AOH20160129214011001/29/16 21:40:31  5-MIN KAOH 300240Z AUTO 16006KT 10SM CLR M03/M06 A2993 970 78 -900 170/06 RMK AO2 T10281061
04850KAOH AOH20160129214511001/29/16 21:45:31  5-MIN KAOH 300245Z AUTO 16006KT 10SM CLR M03/M06 A2993 970 78 -900 160/06 RMK AO2 T10281061
04850KAOH AOH20160129215012301/29/16 21:50:31  5-MIN KAOH 300250Z AUTO 16006KT 10SM CLR M03/M06 A2993 970 78 -900 160/06 RMK AO2 SLP147 T10281061 51005
04850KAOH AOH20160129215511001/29/16 21:55:31  5-MIN KAOH 300255Z AUTO 16005KT 10SM CLR M03/M06 A2993 970 78 -900 170/05 RMK AO2 T10281061
04850KAOH AOH20160129220011301/29/16 22:00:31  5-MIN KAOH 300300Z AUTO 17005KT 10SM FEW110 M03/M06 A2993 970 78 -900 180/05 RMK AO2 T10281061
04850KAOH AOH20160129220511301/29/16 22:05:31  5-MIN KAOH 300305Z AUTO 17005KT 10SM SCT100 M02/M06 A2993 970 75 -800 180/05 RMK AO2 T10221061
04850KAOH AOH20160129221011301/29/16 22:10:31  5-MIN KAOH 300310Z AUTO 17005KT 10SM BKN100 M02/M06 A2993 970 75 -800 170/05 RMK AO2 T10221061
04850KAOH AOH20160129221511301/29/16 22:15:31  5-MIN KAOH 300315Z AUTO 16006KT 10SM BKN100 M02/M06 A2992 970 78 -800 170/06 RMK AO2 T10221056
04850KAOH AOH20160129222011301/29/16 22:20:31  5-MIN KAOH 300320Z AUTO 17005KT 10SM BKN100 M02/M06 A2992 970 78 -800 170/05 RMK AO2 T10221056
04850KAOH AOH20160129222511301/29/16 22:25:31  5-MIN KAOH 300325Z AUTO 18005KT 10SM OVC100 M02/M06 A2993 970 75 -700 180/05 RMK AO2 T10171056
04850KAOH AOH20160129223011301/29/16 22:30:31  5-MIN KAOH 300330Z AUTO 17005KT 10SM OVC100 M02/M06 A2992 980 75 -700 180/05 RMK AO2 T10171056
04850KAOH AOH20160129223511301/29/16 22:35:31  5-MIN KAOH 300335Z AUTO 18006KT 10SM OVC110 M02/M06 A2992 980 75 -700 180/06 RMK AO2 T10171056
04850KAOH AOH20160129224011301/29/16 22:40:31  5-MIN KAOH 300340Z AUTO 18006KT 10SM OVC100 M02/M06 A2992 980 75 -700 180/06 RMK AO2 T10171056
04850KAOH AOH20160129224511301/29/16 22:45:31  5-MIN KAOH 300345Z AUTO 17006KT 10SM OVC100 M02/M06 A2992 980 75 -700 180/06 RMK AO2 T10171056
04850KAOH AOH20160129225012001/29/16 22:50:31  5-MIN KAOH 300350Z AUTO 18006KT 10SM OVC100 M02/M06 A2992 970 75 -700 180/06 RMK AO2 SLP144 T10171056
04850KAOH AOH20160129225511301/29/16 22:55:31  5-MIN KAOH 300355Z AUTO 17007KT 10SM OVC100 M02/M06 A2992 980 75 -700 180/07 RMK AO2 T10171056
04850KAOH AOH20160129230011301/29/16 23:00:31  5-MIN KAOH 300400Z AUTO 18007KT 10SM BKN100 M01/M06 A2992 980 72 -700 180/07 RMK AO2 T10111056
04850KAOH AOH20160129230511301/29/16 23:05:31  5-MIN KAOH 300405Z AUTO 17008KT 10SM BKN100 M01/M06 A2991 990 72 -600 180/08 RMK AO2 T10111056
04850KAOH AOH20160129231012101/29/16 23:10:31  5-MIN KAOH 300410Z AUTO 17009KT 10SM SCT100 M01/M06 A2990 1000 69 -600 180/09 RMK AO2 PRESFR T10111061
04850KAOH AOH20160129231511401/29/16 23:15:31  5-MIN KAOH 300415Z AUTO 17009KT 10SM FEW100 M01/M06 A2990 1000 72 -600 180/09 RMK AO2 T10111056
04850KAOH AOH20160129232011401/29/16 23:20:31  5-MIN KAOH 300420Z AUTO 17009KT 10SM FEW100 M01/M06 A2989 1000 72 -600 180/09 RMK AO2 T10111056
04850KAOH AOH20160129232511101/29/16 23:25:31  5-MIN KAOH 300425Z AUTO 17008KT 10SM CLR M01/M06 A2989 1000 72 -600 180/08 RMK AO2 T10111056
04850KAOH AOH20160129233011101/29/16 23:30:31  5-MIN KAOH 300430Z AUTO 17009KT 10SM CLR M01/M06 A2989 1010 72 -600 180/09 RMK AO2 T10111056
04850KAOH AOH20160129233511101/29/16 23:35:31  5-MIN KAOH 300435Z AUTO 17010KT 10SM CLR M01/M06 A2989 1010 72 -600 180/10 RMK AO2 T10111056
04850KAOH AOH20160129234011101/29/16 23:40:31  5-MIN KAOH 300440Z AUTO 18010KT 10SM CLR M01/M06 A2989 1010 69 -600 180/10 RMK AO2 T10061056
04850KAOH AOH20160129234511101/29/16 23:45:31  5-MIN KAOH 300445Z AUTO 17011KT 10SM CLR M01/M06 A2988 1010 69 -600 180/11 RMK AO2 T10061056
04850KAOH AOH20160129235012801/29/16 23:50:31  5-MIN KAOH 300450Z AUTO 17010KT 10SM CLR M01/M06 A2988 1020 69 -500 180/10 RMK AO2 SLP128 T10061056 400061039
04850KAOH AOH20160129235511101/29/16 23:55:31  5-MIN KAOH 300455Z AUTO 17011KT 10SM CLR M01/M06 A2987 1030 69 -500 180/11 RMK AO2 T10061056
04850KAOH AOH20160130000011101/30/16 00:00:31  5-MIN KAOH 300500Z AUTO 17010KT 10SM CLR M01/M06 A2987 1030 69 -500 180/10 RMK AO2 T10061056
04850KAOH AOH20160130000511101/30/16 00:05:31  5-MIN KAOH 300505Z AUTO 17011KT 10SM CLR M01/M06 A2987 1030 69 -500 180/11 RMK AO2 T10061056
04850KAOH AOH20160130001011101/30/16 00:10:31  5-MIN KAOH 300510Z AUTO 18010KT 10SM CLR M01/M06 A2987 1020 69 -500 180/10 RMK AO2 T10061056
04850KAOH AOH20160130001511101/30/16 00:15:31  5-MIN KAOH 300515Z AUTO 18010KT 10SM CLR M01/M06 A2987 1020 69 -500 190/10 RMK AO2 T10061056
04850KAOH AOH20160130002011101/30/16 00:20:31  5-MIN KAOH 300520Z AUTO 18009KT 10SM CLR M01/M06 A2987 1020 69 -500 180/09 RMK AO2 T10061056
04850KAOH AOH20160130002511101/30/16 00:25:31  5-MIN KAOH 300525Z AUTO 18010KT 10SM CLR M01/M06 A2987 1030 69 -500 180/10 RMK AO2 T10061056
04850KAOH AOH20160130003011101/30/16 00:30:31  5-MIN KAOH 300530Z AUTO 17012KT 10SM CLR M01/M06 A2985 1040 69 -500 180/12 RMK AO2 T10061056
04850KAOH AOH20160130003511101/30/16 00:35:31  5-MIN KAOH 300535Z AUTO 17012KT 10SM CLR M01/M06 A2985 1040 69 -500 180/12 RMK AO2 T10061056
04850KAOH AOH20160130004011101/30/16 00:40:31  5-MIN KAOH 300540Z AUTO 17014KT 10SM CLR M01/M06 A2984 1050 69 -500 180/14 RMK AO2 T10061056
04850KAOH AOH20160130004511101/30/16 00:45:31  5-MIN KAOH 300545Z AUTO 17013KT 10SM CLR M01/M06 A2984 1050 69 -500 180/13 RMK AO2 T10061056
04850KAOH AOH20160130005013601/30/16 00:50:31  5-MIN KAOH 300550Z AUTO 17012KT 10SM CLR M01/M06 A2984 1050 69 -500 180/12 RMK AO2 SLP115 T10061056 11006 21033 57009
04850KAOH AOH20160130005511001/30/16 00:55:31  5-MIN KAOH 300555Z AUTO 17012KT 10SM CLR 00/M06 A2984 1050 66 -400 180/12 RMK AO2 T00001056
04850KAOH AOH20160130010011001/30/16 01:00:31  5-MIN KAOH 300600Z AUTO 18012KT 10SM CLR 00/M06 A2984 1050 66 -400 180/12 RMK AO2 T00001056
04850KAOH AOH20160130010511001/30/16 01:05:31  5-MIN KAOH 300605Z AUTO 18012KT 10SM CLR 00/M06 A2984 1060 66 -400 180/12 RMK AO2 T00001056
04850KAOH AOH20160130011011001/30/16 01:10:31  5-MIN KAOH 300610Z AUTO 18010KT 10SM CLR 00/M06 A2984 1060 66 -400 190/10 RMK AO2 T00001056
04850KAOH AOH20160130011511001/30/16 01:15:31  5-MIN KAOH 300615Z AUTO 18010KT 10SM CLR 00/M06 A2984 1050 66 -400 190/10 RMK AO2 T00001056
04850KAOH AOH20160130012011001/30/16 01:20:31  5-MIN KAOH 300620Z AUTO 19011KT 10SM CLR 00/M06 A2984 1050 66 -400 190/11 RMK AO2 T00001056
04850KAOH AOH20160130012511001/30/16 01:25:31  5-MIN KAOH 300625Z AUTO 20010KT 10SM CLR 00/M06 A2985 1040 66 -400 200/10 RMK AO2 T00001056
04850KAOH AOH20160130013011001/30/16 01:30:31  5-MIN KAOH 300630Z AUTO 20009KT 10SM CLR 00/M06 A2985 1040 63 -400 200/09 RMK AO2 T00001061
04850KAOH AOH20160130013511001/30/16 01:35:31  5-MIN KAOH 300635Z AUTO 19011KT 10SM CLR 01/M06 A2985 1040 61 -400 200/11 RMK AO2 T00061061
04850KAOH AOH20160130014011001/30/16 01:40:31  5-MIN KAOH 300640Z AUTO 19011KT 10SM CLR 01/M06 A2985 1040 61 -400 200/11 RMK AO2 T00061061
04850KAOH AOH20160130014511001/30/16 01:45:31  5-MIN KAOH 300645Z AUTO 19012KT 10SM CLR 01/M06 A2985 1050 61 -400 200/12 RMK AO2 T00061061
04850KAOH AOH20160130015011701/30/16 01:50:31  5-MIN KAOH 300650Z AUTO 19012KT 10SM CLR 01/M06 A2984 1050 61 -400 190/12 RMK AO2 SLP115 T00061061
04850KAOH AOH20160130015511001/30/16 01:55:31  5-MIN KAOH 300655Z AUTO 19013KT 10SM CLR 01/M06 A2983 1060 61 -400 190/13 RMK AO2 T00061061
04850KAOH AOH20160130020011001/30/16 02:00:31  5-MIN KAOH 300700Z AUTO 18013KT 10SM CLR 00/M06 A2983 1060 63 -400 190/13 RMK AO2 T00001061
04850KAOH AOH20160130020511001/30/16 02:05:31  5-MIN KAOH 300705Z AUTO 18012KT 10SM CLR 00/M06 A2983 1060 63 -400 190/12 RMK AO2 T00001061
04850KAOH AOH20160130021011001/30/16 02:10:31  5-MIN KAOH 300710Z AUTO 18014KT 10SM CLR 00/M06 A2983 1060 63 -400 190/14 RMK AO2 T00001061
04850KAOH AOH20160130021511001/30/16 02:15:31  5-MIN KAOH 300715Z AUTO 19011KT 10SM CLR 01/M06 A2983 1060 61 -300 190/11 RMK AO2 T00061061
04850KAOH AOH20160130022011601/30/16 02:20:31  5-MIN KAOH 300720Z AUTO 19010G18KT 10SM CLR 00/M06 A2983 1060 63 -400 190/10G18 RMK AO2 T00001061
04850KAOH AOH20160130022511001/30/16 02:25:31  5-MIN KAOH 300725Z AUTO 19011KT 10SM CLR 00/M06 A2983 1060 63 -400 190/11 RMK AO2 T00001061
04850KAOH AOH20160130023011001/30/16 02:30:31  5-MIN KAOH 300730Z AUTO 19012KT 10SM CLR 01/M06 A2983 1060 61 -400 200/12 RMK AO2 T00061061
04850KAOH AOH20160130023511001/30/16 02:35:31  5-MIN KAOH 300735Z AUTO 19010KT 10SM CLR 01/M06 A2983 1060 61 -400 200/10 RMK AO2 T00061061
04850KAOH AOH20160130024011001/30/16 02:40:31  5-MIN KAOH 300740Z AUTO 19010KT 10SM CLR 01/M06 A2984 1050 61 -400 190/10 RMK AO2 T00061061
04850KAOH AOH20160130024511001/30/16 02:45:31  5-MIN KAOH 300745Z AUTO 19011KT 10SM CLR 00/M06 A2984 1050 66 -400 200/11 RMK AO2 T00001056
04850KAOH AOH20160130025011701/30/16 02:50:31  5-MIN KAOH 300750Z AUTO 19012KT 10SM CLR 01/M06 A2984 1050 63 -400 190/12 RMK AO2 SLP113 T00061056
04850KAOH AOH20160130025511001/30/16 02:55:31  5-MIN KAOH 300755Z AUTO 18012KT 10SM CLR 01/M06 A2983 1060 63 -400 190/12 RMK AO2 T00061056
04850KAOH AOH20160130030011001/30/16 03:00:31  5-MIN KAOH 300800Z AUTO 18012KT 10SM CLR 00/M06 A2983 1060 66 -400 190/12 RMK AO2 T00001056
04850KAOH AOH20160130030511001/30/16 03:05:31  5-MIN KAOH 300805Z AUTO 19011KT 10SM CLR 00/M06 A2983 1060 66 -400 190/11 RMK AO2 T00001056
04850KAOH AOH20160130031011001/30/16 03:10:31  5-MIN KAOH 300810Z AUTO 18012KT 10SM CLR 01/M06 A2983 1060 63 -400 190/12 RMK AO2 T00061056
04850KAOH AOH20160130031511001/30/16 03:15:31  5-MIN KAOH 300815Z AUTO 18012KT 10SM CLR 00/M06 A2983 1060 66 -400 190/12 RMK AO2 T00001056
04850KAOH AOH20160130032011001/30/16 03:20:31  5-MIN KAOH 300820Z AUTO 18013KT 10SM CLR 00/M06 A2983 1070 66 -400 190/13 RMK AO2 T00001056
04850KAOH AOH20160130032511001/30/16 03:25:31  5-MIN KAOH 300825Z AUTO 18013KT 10SM CLR 00/M06 A2982 1070 66 -400 190/13 RMK AO2 T00001056
04850KAOH AOH20160130033011001/30/16 03:30:31  5-MIN KAOH 300830Z AUTO 18014KT 10SM CLR 00/M06 A2982 1070 66 -400 190/14 RMK AO2 T00001056
04850KAOH AOH20160130033511001/30/16 03:35:31  5-MIN KAOH 300835Z AUTO 19013KT 10SM CLR 00/M06 A2982 1070 66 -400 190/13 RMK AO2 T00001056
04850KAOH AOH20160130034011001/30/16 03:40:31  5-MIN KAOH 300840Z AUTO 18012KT 10SM CLR 00/M06 A2982 1070 66 -400 190/12 RMK AO2 T00001056
04850KAOH AOH20160130034511001/30/16 03:45:31  5-MIN KAOH 300845Z AUTO 18011KT 10SM CLR 00/M06 A2982 1070 66 -400 190/11 RMK AO2 T00001056
04850KAOH AOH20160130035012301/30/16 03:50:31  5-MIN KAOH 300850Z AUTO 18010KT 10SM CLR 00/M06 A2981 1080 66 -400 190/10 RMK AO2 SLP105 T00001056 58030
04850KAOH AOH20160130035511001/30/16 03:55:31  5-MIN KAOH 300855Z AUTO 18010KT 10SM CLR 00/M05 A2982 1070 69 -400 190/10 RMK AO2 T00001050
04850KAOH AOH20160130040011001/30/16 04:00:31  5-MIN KAOH 300900Z AUTO 19011KT 10SM CLR 00/M06 A2982 1070 66 -400 190/11 RMK AO2 T00001056
04850KAOH AOH20160130040511001/30/16 04:05:31  5-MIN KAOH 300905Z AUTO 18011KT 10SM CLR 00/M05 A2982 1070 69 -400 190/11 RMK AO2 T00001050
04850KAOH AOH20160130041011001/30/16 04:10:31  5-MIN KAOH 300910Z AUTO 18012KT 10SM CLR 00/M05 A2981 1080 69 -400 190/12 RMK AO2 T00001050
04850KAOH AOH20160130041511001/30/16 04:15:31  5-MIN KAOH 300915Z AUTO 18013KT 10SM CLR 00/M05 A2981 1080 69 -400 190/13 RMK AO2 T00001050
04850KAOH AOH20160130042011001/30/16 04:20:31  5-MIN KAOH 300920Z AUTO 18013KT 10SM CLR 00/M05 A2981 1080 69 -400 190/13 RMK AO2 T00001050
04850KAOH AOH20160130042511001/30/16 04:25:31  5-MIN KAOH 300925Z AUTO 18013KT 10SM CLR 00/M05 A2981 1080 69 -400 190/13 RMK AO2 T00001050
04850KAOH AOH20160130043011001/30/16 04:30:31  5-MIN KAOH 300930Z AUTO 18011KT 10SM CLR 00/M05 A2981 1080 69 -400 190/11 RMK AO2 T00001050
04850KAOH AOH20160130043511001/30/16 04:35:31  5-MIN KAOH 300935Z AUTO 18013KT 10SM CLR 00/M05 A2981 1080 69 -400 190/13 RMK AO2 T00001050
04850KAOH AOH20160130044011001/30/16 04:40:31  5-MIN KAOH 300940Z AUTO 18013KT 10SM CLR 00/M05 A2980 1080 69 -400 190/13 RMK AO2 T00001050
04850KAOH AOH20160130044511001/30/16 04:45:31  5-MIN KAOH 300945Z AUTO 19013KT 10SM CLR 00/M05 A2981 1080 69 -400 190/13 RMK AO2 T00001050
04850KAOH AOH20160130045011701/30/16 04:50:31  5-MIN KAOH 300950Z AUTO 19013KT 10SM CLR 01/M05 A2981 1080 66 -300 200/13 RMK AO2 SLP103 T00061050
04850KAOH AOH20160130045511001/30/16 04:55:31  5-MIN KAOH 300955Z AUTO 19012KT 10SM CLR 01/M05 A2981 1080 66 -300 200/12 RMK AO2 T00061050
04850KAOH AOH20160130050011001/30/16 05:00:31  5-MIN KAOH 301000Z AUTO 19011KT 10SM CLR 01/M05 A2981 1080 66 -300 190/11 RMK AO2 T00061050
04850KAOH AOH20160130050511601/30/16 05:05:31  5-MIN KAOH 301005Z AUTO 19014G19KT 10SM CLR 01/M04 A2981 1080 66 -300 190/14G19 RMK AO2 T00111044
04850KAOH AOH20160130051011001/30/16 05:10:31  5-MIN KAOH 301010Z AUTO 19012KT 10SM CLR 01/M04 A2980 1090 66 -300 200/12 RMK AO2 T00111044
04850KAOH AOH20160130051511001/30/16 05:15:31  5-MIN KAOH 301015Z AUTO 19014KT 10SM CLR 01/M04 A2980 1090 66 -200 190/14 RMK AO2 T00111044
04850KAOH AOH20160130052011001/30/16 05:20:31  5-MIN KAOH 301020Z AUTO 19014KT 10SM CLR 01/M04 A2980 1090 66 -200 190/14 RMK AO2 T00111044
04850KAOH AOH20160130052511001/30/16 05:25:31  5-MIN KAOH 301025Z AUTO 18015KT 10SM CLR 01/M04 A2979 1100 66 -200 190/15 RMK AO2 T00111044
04850KAOH AOH20160130053011001/30/16 05:30:31  5-MIN KAOH 301030Z AUTO 18015KT 10SM CLR 01/M04 A2979 1100 66 -200 180/15 RMK AO2 T00111044
04850KAOH AOH20160130053511001/30/16 05:35:31  5-MIN KAOH 301035Z AUTO 19013KT 10SM CLR 01/M04 A2979 1100 66 -200 190/13 RMK AO2 T00111044
04850KAOH AOH20160130054011001/30/16 05:40:31  5-MIN KAOH 301040Z AUTO 18014KT 10SM CLR 01/M04 A2979 1100 66 -200 190/14 RMK AO2 T00111044
04850KAOH AOH20160130054511001/30/16 05:45:31  5-MIN KAOH 301045Z AUTO 18015KT 10SM CLR 01/M04 A2978 1110 66 -200 180/15 RMK AO2 T00111044
04850KAOH AOH20160130055011701/30/16 05:50:31  5-MIN KAOH 301050Z AUTO 18015KT 10SM CLR 02/M04 A2978 1110 64 -200 190/15 RMK AO2 SLP093 T00171044
04850KAOH AOH20160130055511001/30/16 05:55:31  5-MIN KAOH 301055Z AUTO 19013KT 10SM CLR 02/M04 A2978 1110 64 -200 190/13 RMK AO2 T00171044
04850KAOH AOH20160130060011001/30/16 06:00:31  5-MIN KAOH 301100Z AUTO 18015KT 10SM CLR 02/M04 A2978 1110 66 -200 190/15 RMK AO2 T00171039
04850KAOH AOH20160130060511001/30/16 06:05:31  5-MIN KAOH 301105Z AUTO 19014KT 10SM CLR 02/M04 A2978 1110 66 -200 200/14 RMK AO2 T00171039
04850KAOH AOH20160130061011001/30/16 06:10:31  5-MIN KAOH 301110Z AUTO 18013KT 10SM CLR 02/M04 A2978 1110 66 -200 180/13 RMK AO2 T00171039
04850KAOH AOH20160130061511601/30/16 06:15:31  5-MIN KAOH 301115Z AUTO 17015G22KT 10SM CLR 02/M04 A2977 1120 66 -100 180/15G22 RMK AO2 T00171039
04850KAOH AOH20160130062011001/30/16 06:20:31  5-MIN KAOH 301120Z AUTO 18016KT 10SM CLR 02/M04 A2977 1120 66 -100 180/16 RMK AO2 T00171039
04850KAOH AOH20160130062511601/30/16 06:25:31  5-MIN KAOH 301125Z AUTO 18017G22KT 10SM CLR 02/M04 A2977 1120 64 -100 190/17G22 RMK AO2 T00221039
04850KAOH AOH20160130063011601/30/16 06:30:31  5-MIN KAOH 301130Z AUTO 18014G22KT 10SM CLR 02/M04 A2977 1120 64 -100 190/14G22 RMK AO2 T00221039
04850KAOH AOH20160130063511001/30/16 06:35:31  5-MIN KAOH 301135Z AUTO 18015KT 10SM CLR 02/M04 A2977 1120 66 -100 190/15 RMK AO2 T00171039
04850KAOH AOH20160130064011601/30/16 06:40:31  5-MIN KAOH 301140Z AUTO 18016G22KT 10SM CLR 02/M04 A2976 1120 64 -100 190/16G22 RMK AO2 T00221039
04850KAOH AOH20160130064511601/30/16 06:45:31  5-MIN KAOH 301145Z AUTO 19015G22KT 10SM CLR 02/M04 A2976 1120 64 -100 190/15G22 RMK AO2 T00221039
04850KAOH AOH20160130065014101/30/16 06:50:31  5-MIN KAOH 301150Z AUTO 18014G25KT 10SM CLR 02/M04 A2976 1120 64 -100 190/14G25 RMK AO2 SLP087 T00221039 10022 20000 58007
04850KAOH AOH20160130065511601/30/16 06:55:31  5-MIN KAOH 301155Z AUTO 19015G25KT 10SM CLR 02/M04 A2976 1120 64 -100 200/15G25 RMK AO2 T00221039
04850KAOH AOH20160130070011001/30/16 07:00:31  5-MIN KAOH 301200Z AUTO 19015KT 10SM CLR 02/M04 A2976 1120 64 -100 190/15 RMK AO2 T00221039
04850KAOH AOH20160130070511301/30/16 07:05:31  5-MIN KAOH 301205Z AUTO 19016G23KT 10SM CLR 03/M03 A2976 1130 64 0 200/16G23 RMK AO2 T00281033
04850KAOH AOH20160130071011301/30/16 07:10:31  5-MIN KAOH 301210Z AUTO 19016G23KT 10SM CLR 03/M03 A2975 1130 64 0 200/16G23 RMK AO2 T00281033
04850KAOH AOH20160130071511301/30/16 07:15:31  5-MIN KAOH 301215Z AUTO 18013G23KT 10SM CLR 03/M03 A2975 1130 64 0 190/13G23 RMK AO2 T00281033
04850KAOH AOH20160130072011001/30/16 07:20:31  5-MIN KAOH 301220Z AUTO 18013KT 10SM CLR 02/M03 A2975 1130 67 -100 190/13 RMK AO2 T00221033
04850KAOH AOH20160130072511001/30/16 07:25:31  5-MIN KAOH 301225Z AUTO 18015KT 10SM CLR 02/M03 A2975 1140 67 -100 190/15 RMK AO2 T00221033
04850KAOH AOH20160130073011001/30/16 07:30:31  5-MIN KAOH 301230Z AUTO 18015KT 10SM CLR 02/M03 A2975 1140 67 -100 190/15 RMK AO2 T00221033
04850KAOH AOH20160130073511001/30/16 07:35:31  5-MIN KAOH 301235Z AUTO 18015KT 10SM CLR 02/M03 A2975 1140 67 -100 190/15 RMK AO2 T00221033
04850KAOH AOH20160130074010701/30/16 07:40:31  5-MIN KAOH 301240Z AUTO 19013KT 10SM CLR 03/M03 A2975 1130 64 0 200/13 RMK AO2 T00281033
04850KAOH AOH20160130074510701/30/16 07:45:31  5-MIN KAOH 301245Z AUTO 19013KT 10SM CLR 03/M03 A2975 1130 64 0 200/13 RMK AO2 T00281033
04850KAOH AOH20160130075011401/30/16 07:50:31  5-MIN KAOH 301250Z AUTO 19014KT 10SM CLR 03/M03 A2975 1140 61 0 190/14 RMK AO2 SLP083 T00331033
04850KAOH AOH20160130075511301/30/16 07:55:31  5-MIN KAOH 301255Z AUTO 18013G20KT 10SM CLR 03/M03 A2975 1140 61 0 190/13G20 RMK AO2 T00331033
04850KAOH AOH20160130080011301/30/16 08:00:31  5-MIN KAOH 301300Z AUTO 19014G21KT 10SM CLR 03/M03 A2975 1130 64 0 190/14G21 RMK AO2 T00281033
04850KAOH AOH20160130080510701/30/16 08:05:31  5-MIN KAOH 301305Z AUTO 19015KT 10SM CLR 03/M03 A2975 1130 61 0 190/15 RMK AO2 T00331033
04850KAOH AOH20160130081010701/30/16 08:10:31  5-MIN KAOH 301310Z AUTO 19014KT 10SM CLR 03/M03 A2975 1140 64 0 190/14 RMK AO2 T00281033
04850KAOH AOH20160130081510701/30/16 08:15:31  5-MIN KAOH 301315Z AUTO 19013KT 10SM CLR 03/M03 A2975 1130 61 0 190/13 RMK AO2 T00331033
04850KAOH AOH20160130082011301/30/16 08:20:31  5-MIN KAOH 301320Z AUTO 19014G21KT 10SM CLR 03/M03 A2975 1140 61 0 190/14G21 RMK AO2 T00331033
04850KAOH AOH20160130082511301/30/16 08:25:31  5-MIN KAOH 301325Z AUTO 19013G22KT 10SM CLR 03/M03 A2975 1140 61 0 200/13G22 RMK AO2 T00331033
04850KAOH AOH20160130083011301/30/16 08:30:31  5-MIN KAOH 301330Z AUTO 18015G23KT 10SM CLR 03/M03 A2975 1140 64 0 190/15G23 RMK AO2 T00281033
04850KAOH AOH20160130083511301/30/16 08:35:31  5-MIN KAOH 301335Z AUTO 18014G23KT 10SM CLR 03/M03 A2975 1140 64 0 190/14G23 RMK AO2 T00281033
04850KAOH AOH20160130084010701/30/16 08:40:31  5-MIN KAOH 301340Z AUTO 18014KT 10SM CLR 03/M03 A2975 1140 64 0 190/14 RMK AO2 T00281033
04850KAOH AOH20160130084511301/30/16 08:45:31  5-MIN KAOH 301345Z AUTO 18016G23KT 10SM CLR 03/M03 A2974 1140 64 0 190/16G23 RMK AO2 T00281033
04850KAOH AOH20160130085012001/30/16 08:50:31  5-MIN KAOH 301350Z AUTO 19013G23KT 10SM CLR 03/M03 A2975 1140 61 0 190/13G23 RMK AO2 SLP082 T00331033
04850KAOH AOH20160130085511301/30/16 08:55:31  5-MIN KAOH 301355Z AUTO 19013G23KT 10SM CLR 03/M03 A2975 1140 61 0 200/13G23 RMK AO2 T00331033
04850KAOH AOH20160130090010701/30/16 09:00:31  5-MIN KAOH 301400Z AUTO 19014KT 10SM CLR 03/M03 A2975 1140 61 0 200/14 RMK AO2 T00331033
04850KAOH AOH20160130090511501/30/16 09:05:31  5-MIN KAOH 301405Z AUTO 19014G23KT 10SM CLR 04/M03 A2975 1140 62 100 200/14G23 RMK AO2 T00391028
04850KAOH AOH20160130091011501/30/16 09:10:31  5-MIN KAOH 301410Z AUTO 19016G23KT 10SM CLR 04/M03 A2975 1140 62 100 200/16G23 RMK AO2 T00391028
04850KAOH AOH20160130091511501/30/16 09:15:31  5-MIN KAOH 301415Z AUTO 19013G21KT 10SM CLR 04/M03 A2975 1140 62 100 200/13G21 RMK AO2 T00391028
04850KAOH AOH20160130092010901/30/16 09:20:31  5-MIN KAOH 301420Z AUTO 20016KT 10SM CLR 04/M03 A2975 1140 59 200 200/16 RMK AO2 T00441028
04850KAOH AOH20160130092513301/30/16 09:25:31  5-MIN KAOH 301425Z AUTO 20018G27KT 10SM CLR 05/M03 A2975 1140 57 200 210/18G27 RMK AO2 PK WND 20027/1424 T00501028
04850KAOH AOH20160130093013301/30/16 09:30:31  5-MIN KAOH 301430Z AUTO 19017G27KT 10SM CLR 05/M03 A2974 1140 57 200 200/17G27 RMK AO2 PK WND 20027/1428 T00501028
04850KAOH AOH20160130093513301/30/16 09:35:31  5-MIN KAOH 301435Z AUTO 20015G27KT 10SM CLR 05/M03 A2974 1140 57 200 200/15G27 RMK AO2 PK WND 20027/1428 T00501028
04850KAOH AOH20160130094013301/30/16 09:40:31  5-MIN KAOH 301440Z AUTO 20018G31KT 10SM CLR 06/M02 A2974 1140 57 300 200/18G31 RMK AO2 PK WND 19031/1440 T00561022
04850KAOH AOH20160130094513301/30/16 09:45:31  5-MIN KAOH 301445Z AUTO 19015G31KT 10SM CLR 06/M02 A2975 1140 57 300 200/15G31 RMK AO2 PK WND 19031/1440 T00561022
04850KAOH AOH20160130095014601/30/16 09:50:31  5-MIN KAOH 301450Z AUTO 20013G25KT 10SM CLR 06/M02 A2975 1140 57 300 200/13G25 RMK AO2 PK WND 19031/1440 SLP081 T00561022 58017
04850KAOH AOH20160130095511501/30/16 09:55:31  5-MIN KAOH 301455Z AUTO 21015G25KT 10SM CLR 06/M02 A2975 1140 55 400 210/15G25 RMK AO2 T00611022
04850KAOH AOH20160130100011501/30/16 10:00:31  5-MIN KAOH 301500Z AUTO 22014G24KT 10SM CLR 07/M02 A2976 1130 53 400 220/14G24 RMK AO2 T00671022
04850KAOH AOH20160130100511501/30/16 10:05:31  5-MIN KAOH 301505Z AUTO 22015G22KT 10SM CLR 07/M02 A2976 1130 53 400 220/15G22 RMK AO2 T00671022
04850KAOH AOH20160130101011501/30/16 10:10:31  5-MIN KAOH 301510Z AUTO 21012G22KT 10SM CLR 07/M02 A2975 1130 55 400 210/12G22 RMK AO2 T00671017
04850KAOH AOH20160130101510901/30/16 10:15:31  5-MIN KAOH 301515Z AUTO 21012KT 10SM CLR 07/M02 A2976 1130 53 500 210/12 RMK AO2 T00721017
04850KAOH AOH20160130102010901/30/16 10:20:31  5-MIN KAOH 301520Z AUTO 20015KT 10SM CLR 07/M02 A2975 1130 53 500 210/15 RMK AO2 T00721017
04850KAOH AOH20160130102511501/30/16 10:25:31  5-MIN KAOH 301525Z AUTO 22014G20KT 10SM CLR 07/M02 A2976 1130 53 500 220/14G20 RMK AO2 T00721017
04850KAOH AOH20160130103011501/30/16 10:30:31  5-MIN KAOH 301530Z AUTO 22013G20KT 10SM CLR 07/M02 A2976 1130 55 400 220/13G20 RMK AO2 T00671017
04850KAOH AOH20160130103510901/30/16 10:35:31  5-MIN KAOH 301535Z AUTO 21012KT 10SM CLR 07/M02 A2976 1120 53 500 220/12 RMK AO2 T00721017
04850KAOH AOH20160130104010901/30/16 10:40:31  5-MIN KAOH 301540Z AUTO 21010KT 10SM CLR 08/M02 A2976 1120 51 600 220/10 RMK AO2 T00781017
04850KAOH AOH20160130104511501/30/16 10:45:31  5-MIN KAOH 301545Z AUTO 21011G20KT 10SM CLR 08/M01 A2976 1120 51 600 220/11G20 RMK AO2 T00831011
04850KAOH AOH20160130105012201/30/16 10:50:31  5-MIN KAOH 301550Z AUTO 21013G20KT 10SM CLR 08/M01 A2976 1120 51 600 220/13G20 RMK AO2 SLP085 T00831011
04850KAOH AOH20160130105511501/30/16 10:55:31  5-MIN KAOH 301555Z AUTO 21016G20KT 10SM CLR 08/M01 A2976 1120 51 600 220/16G20 RMK AO2 T00831011
04850KAOH AOH20160130110011501/30/16 11:00:31  5-MIN KAOH 301600Z AUTO 21016G22KT 10SM CLR 08/M01 A2976 1120 51 600 220/16G22 RMK AO2 T00831011
04850KAOH AOH20160130110511501/30/16 11:05:31  5-MIN KAOH 301605Z AUTO 21014G22KT 10SM CLR 09/M01 A2975 1130 49 700 210/14G22 RMK AO2 T00891011
04850KAOH AOH20160130111010901/30/16 11:10:31  5-MIN KAOH 301610Z AUTO 20015KT 10SM CLR 09/M01 A2975 1140 49 700 210/15 RMK AO2 T00891011
04850KAOH AOH20160130111510901/30/16 11:15:31  5-MIN KAOH 301615Z AUTO 21015KT 10SM CLR 09/M01 A2975 1130 49 700 210/15 RMK AO2 T00891011
04850KAOH AOH20160130112011501/30/16 11:20:31  5-MIN KAOH 301620Z AUTO 22017G23KT 10SM CLR 09/M01 A2975 1130 49 700 220/17G23 RMK AO2 T00891011
04850KAOH AOH20160130112511501/30/16 11:25:31  5-MIN KAOH 301625Z AUTO 21013G23KT 10SM CLR 09/M01 A2975 1130 51 700 210/13G23 RMK AO2 T00891006
04850KAOH AOH20160130113011501/30/16 11:30:31  5-MIN KAOH 301630Z AUTO 21014G20KT 10SM CLR 09/M01 A2975 1130 51 700 210/14G20 RMK AO2 T00891006
04850KAOH AOH20160130113511501/30/16 11:35:31  5-MIN KAOH 301635Z AUTO 22016G21KT 10SM CLR 09/M01 A2975 1130 49 800 220/16G21 RMK AO2 T00941006
04850KAOH AOH20160130114011501/30/16 11:40:31  5-MIN KAOH 301640Z AUTO 20014G21KT 10SM CLR 09/M01 A2975 1140 49 800 210/14G21 RMK AO2 T00941006
04850KAOH AOH20160130114511501/30/16 11:45:31  5-MIN KAOH 301645Z AUTO 21013G19KT 10SM CLR 09/M01 A2975 1140 49 800 220/13G19 RMK AO2 T00941006
04850KAOH AOH20160130115011601/30/16 11:50:31  5-MIN KAOH 301650Z AUTO 21011KT 10SM CLR 09/M01 A2975 1130 49 800 220/11 RMK AO2 SLP081 T00941006
04850KAOH AOH20160130115510901/30/16 11:55:31  5-MIN KAOH 301655Z AUTO 22013KT 10SM CLR 10/M01 A2975 1140 47 800 230/13 RMK AO2 T01001006
04850KAOH AOH20160130120010801/30/16 12:00:31  5-MIN KAOH 301700Z AUTO 21013KT 10SM CLR 10/00 A2975 1140 49 900 220/13 RMK AO2 T01000000
04850KAOH AOH20160130120510801/30/16 12:05:31  5-MIN KAOH 301705Z AUTO 22013KT 10SM CLR 11/00 A2974 1140 48 900 220/13 RMK AO2 T01060000
04850KAOH AOH20160130121011401/30/16 12:10:31  5-MIN KAOH 301710Z AUTO 21015G19KT 10SM CLR 11/00 A2974 1150 48 900 220/15G19 RMK AO2 T01060000
04850KAOH AOH20160130121511401/30/16 12:15:31  5-MIN KAOH 301715Z AUTO 22016G23KT 10SM CLR 11/00 A2974 1150 48 900 220/16G23 RMK AO2 T01060000
04850KAOH AOH20160130122011501/30/16 12:20:31  5-MIN KAOH 301720Z AUTO 22014G23KT 10SM CLR 11/00 A2973 1150 46 1000 230/14G23 RMK AO2 T01110000
04850KAOH AOH20160130122510901/30/16 12:25:31  5-MIN KAOH 301725Z AUTO 22012KT 10SM CLR 11/00 A2973 1160 46 1000 220/12 RMK AO2 T01110000
04850KAOH AOH20160130123010901/30/16 12:30:31  5-MIN KAOH 301730Z AUTO 22015KT 10SM CLR 12/01 A2972 1160 46 1100 230/15 RMK AO2 T01170006
04850KAOH AOH20160130123511501/30/16 12:35:31  5-MIN KAOH 301735Z AUTO 21017G21KT 10SM CLR 12/01 A2972 1170 46 1100 220/17G21 RMK AO2 T01170006
04850KAOH AOH20160130124012201/30/16 12:40:31  5-MIN KAOH 301740Z AUTO 22014G21KT 10SM CLR 12/01 A2971 1170 46 1100 230/14G21 RMK AO2 PRESFR T01170006
04850KAOH AOH20160130124512201/30/16 12:45:31  5-MIN KAOH 301745Z AUTO 23016G24KT 10SM CLR 11/01 A2970 1180 48 1000 230/16G24 RMK AO2 PRESFR T01110006
04850KAOH AOH20160130125014001/30/16 12:50:31  5-MIN KAOH 301750Z AUTO 21012G24KT 10SM CLR 11/01 A2970 1180 48 1000 220/12G24 RMK AO2 SLP062 T01110006 10117 20022 56006
04850KAOH AOH20160130125512201/30/16 12:55:31  5-MIN KAOH 301755Z AUTO 22018G24KT 10SM CLR 11/01 A2969 1190 48 1000 220/18G24 RMK AO2 PRESFR T01110006
04850KAOH AOH20160130130012201/30/16 13:00:31  5-MIN KAOH 301800Z AUTO 21016G24KT 10SM CLR 12/01 A2968 1200 46 1100 220/16G24 RMK AO2 PRESFR T01170006
04850KAOH AOH20160130130511501/30/16 13:05:31  5-MIN KAOH 301805Z AUTO 21014G25KT 10SM CLR 12/01 A2968 1200 46 1100 210/14G25 RMK AO2 T01170006
04850KAOH AOH20160130131011501/30/16 13:10:31  5-MIN KAOH 301810Z AUTO 21016G25KT 10SM CLR 11/01 A2968 1200 48 1100 210/16G25 RMK AO2 T01110006
04850KAOH AOH20160130131511501/30/16 13:15:31  5-MIN KAOH 301815Z AUTO 21015G23KT 10SM CLR 11/01 A2968 1200 48 1100 220/15G23 RMK AO2 T01110006
04850KAOH AOH20160130132011501/30/16 13:20:31  5-MIN KAOH 301820Z AUTO 21013G23KT 10SM CLR 11/01 A2968 1200 48 1100 220/13G23 RMK AO2 T01110006
04850KAOH AOH20160130132511501/30/16 13:25:31  5-MIN KAOH 301825Z AUTO 21013G21KT 10SM CLR 11/01 A2967 1210 48 1100 220/13G21 RMK AO2 T01110006
04850KAOH AOH20160130133011501/30/16 13:30:31  5-MIN KAOH 301830Z AUTO 20012G19KT 10SM CLR 12/01 A2967 1210 48 1100 210/12G19 RMK AO2 T01170011
04850KAOH AOH20160130133511501/30/16 13:35:31  5-MIN KAOH 301835Z AUTO 20015G20KT 10SM CLR 11/01 A2967 1210 50 1100 210/15G20 RMK AO2 T01110011
04850KAOH AOH20160130134011501/30/16 13:40:31  5-MIN KAOH 301840Z AUTO 20013G20KT 10SM CLR 11/01 A2967 1210 50 1100 200/13G20 RMK AO2 T01110011
04850KAOH AOH20160130134511501/30/16 13:45:31  5-MIN KAOH 301845Z AUTO 20013G19KT 10SM CLR 11/01 A2967 1210 50 1100 210/13G19 RMK AO2 T01110011
04850KAOH AOH20160130135011601/30/16 13:50:31  5-MIN KAOH 301850Z AUTO 20012KT 10SM CLR 11/01 A2967 1210 50 1100 200/12 RMK AO2 SLP049 T01110011
04850KAOH AOH20160130135510901/30/16 13:55:31  5-MIN KAOH 301855Z AUTO 20012KT 10SM CLR 11/01 A2967 1210 50 1100 210/12 RMK AO2 T01110011
04850KAOH AOH20160130140011501/30/16 14:00:31  5-MIN KAOH 301900Z AUTO 20010G19KT 10SM CLR 11/01 A2967 1210 50 1100 210/10G19 RMK AO2 T01110011
04850KAOH AOH20160130140510901/30/16 14:05:31  5-MIN KAOH 301905Z AUTO 21010KT 10SM CLR 12/01 A2967 1210 48 1100 220/10 RMK AO2 T01170011
04850KAOH AOH20160130141010901/30/16 14:10:31  5-MIN KAOH 301910Z AUTO 21011KT 10SM CLR 12/01 A2968 1200 48 1100 220/11 RMK AO2 T01170011
04850KAOH AOH20160130141510901/30/16 14:15:31  5-MIN KAOH 301915Z AUTO 21011KT 10SM CLR 12/02 A2968 1200 48 1200 220/11 RMK AO2 T01220017
04850KAOH AOH20160130142010901/30/16 14:20:31  5-MIN KAOH 301920Z AUTO 21012KT 10SM CLR 13/02 A2968 1200 46 1300 220/12 RMK AO2 T01280017
04850KAOH AOH20160130142510901/30/16 14:25:31  5-MIN KAOH 301925Z AUTO 22015KT 10SM CLR 13/02 A2968 1200 46 1300 230/15 RMK AO2 T01280017
04850KAOH AOH20160130143010901/30/16 14:30:31  5-MIN KAOH 301930Z AUTO 22012KT 10SM CLR 13/02 A2968 1200 46 1300 230/12 RMK AO2 T01280017
04850KAOH AOH20160130143510901/30/16 14:35:31  5-MIN KAOH 301935Z AUTO 21010KT 10SM CLR 13/02 A2968 1200 45 1300 220/10 RMK AO2 T01330017
04850KAOH AOH20160130144011501/30/16 14:40:31  5-MIN KAOH 301940Z AUTO 21013G18KT 10SM CLR 13/02 A2968 1200 45 1300 220/13G18 RMK AO2 T01330017
04850KAOH AOH20160130144510901/30/16 14:45:31  5-MIN KAOH 301945Z AUTO 22011KT 10SM CLR 13/02 A2968 1200 46 1300 230/11 RMK AO2 T01280017
04850KAOH AOH20160130145011601/30/16 14:50:31  5-MIN KAOH 301950Z AUTO 22011KT 10SM CLR 13/02 A2968 1200 45 1300 220/11 RMK AO2 SLP052 T01330017
04850KAOH AOH20160130145510901/30/16 14:55:31  5-MIN KAOH 301955Z AUTO 21011KT 10SM CLR 13/02 A2968 1200 45 1300 220/11 RMK AO2 T01330017
04850KAOH AOH20160130150010901/30/16 15:00:31  5-MIN KAOH 302000Z AUTO 22014KT 10SM CLR 13/02 A2968 1200 45 1300 220/14 RMK AO2 T01330017
04850KAOH AOH20160130150510901/30/16 15:05:31  5-MIN KAOH 302005Z AUTO 23010KT 10SM CLR 13/02 A2969 1200 46 1300 230/10 RMK AO2 T01330022
04850KAOH AOH20160130151010901/30/16 15:10:31  5-MIN KAOH 302010Z AUTO 24013KT 10SM CLR 13/02 A2968 1200 46 1300 240/13 RMK AO2 T01330022
04850KAOH AOH20160130151511501/30/16 15:15:31  5-MIN KAOH 302015Z AUTO 24015G20KT 10SM CLR 13/02 A2968 1200 45 1300 250/15G20 RMK AO2 T01330017
04850KAOH AOH20160130152011501/30/16 15:20:31  5-MIN KAOH 302020Z AUTO 23013G20KT 10SM CLR 13/02 A2968 1200 45 1300 240/13G20 RMK AO2 T01330017
04850KAOH AOH20160130152510901/30/16 15:25:31  5-MIN KAOH 302025Z AUTO 23014KT 10SM CLR 13/02 A2968 1200 46 1300 240/14 RMK AO2 T01330022
04850KAOH AOH20160130153011501/30/16 15:30:31  5-MIN KAOH 302030Z AUTO 24016G22KT 10SM CLR 13/02 A2968 1200 46 1300 250/16G22 RMK AO2 T01280017
04850KAOH AOH20160130153511501/30/16 15:35:31  5-MIN KAOH 302035Z AUTO 24017G22KT 10SM CLR 13/02 A2969 1200 46 1300 250/17G22 RMK AO2 T01280017
04850KAOH AOH20160130154010901/30/16 15:40:31  5-MIN KAOH 302040Z AUTO 24016KT 10SM CLR 13/02 A2969 1200 48 1300 250/16 RMK AO2 T01280022
04850KAOH AOH20160130154510901/30/16 15:45:31  5-MIN KAOH 302045Z AUTO 25014KT 10SM CLR 13/02 A2969 1190 46 1200 250/14 RMK AO2 T01280017
04850KAOH AOH20160130155012801/30/16 15:50:31  5-MIN KAOH 302050Z AUTO 24013G21KT 10SM CLR 12/02 A2969 1190 50 1200 250/13G21 RMK AO2 SLP057 T01220022 58018
04850KAOH AOH20160130155511501/30/16 15:55:31  5-MIN KAOH 302055Z AUTO 24014G20KT 10SM CLR 12/02 A2969 1190 48 1200 250/14G20 RMK AO2 T01220017
04850KAOH AOH20160130160011501/30/16 16:00:31  5-MIN KAOH 302100Z AUTO 24013G20KT 10SM CLR 12/02 A2969 1190 48 1200 240/13G20 RMK AO2 T01220017
04850KAOH AOH20160130160510901/30/16 16:05:31  5-MIN KAOH 302105Z AUTO 23011KT 10SM CLR 13/02 A2969 1190 46 1200 240/11 RMK AO2 T01280017
04850KAOH AOH20160130161010901/30/16 16:10:31  5-MIN KAOH 302110Z AUTO 23012KT 10SM CLR 13/02 A2969 1190 46 1200 240/12 RMK AO2 T01280017
04850KAOH AOH20160130161510901/30/16 16:15:31  5-MIN KAOH 302115Z AUTO 24013KT 10SM CLR 13/02 A2969 1190 46 1200 240/13 RMK AO2 T01280017
04850KAOH AOH20160130162010901/30/16 16:20:31  5-MIN KAOH 302120Z AUTO 23012KT 10SM CLR 13/02 A2969 1190 48 1200 240/12 RMK AO2 T01280022
04850KAOH AOH20160130162510901/30/16 16:25:31  5-MIN KAOH 302125Z AUTO 24011KT 10SM CLR 13/02 A2970 1190 46 1200 240/11 RMK AO2 T01280017
04850KAOH AOH20160130163010901/30/16 16:30:31  5-MIN KAOH 302130Z AUTO 23013KT 10SM CLR 12/02 A2970 1180 50 1200 240/13 RMK AO2 T01220022
04850KAOH AOH20160130163510901/30/16 16:35:31  5-MIN KAOH 302135Z AUTO 24013KT 10SM CLR 12/02 A2970 1180 50 1200 240/13 RMK AO2 T01220022
04850KAOH AOH20160130164010901/30/16 16:40:31  5-MIN KAOH 302140Z AUTO 24010KT 10SM CLR 12/02 A2971 1180 50 1200 240/10 RMK AO2 T01220022
04850KAOH AOH20160130164510901/30/16 16:45:31  5-MIN KAOH 302145Z AUTO 24011KT 10SM CLR 12/02 A2971 1180 52 1100 240/11 RMK AO2 T01170022
04850KAOH AOH20160130165011601/30/16 16:50:31  5-MIN KAOH 302150Z AUTO 23011KT 10SM CLR 12/02 A2971 1180 50 1100 240/11 RMK AO2 SLP063 T01170017
04850KAOH AOH20160130165510901/30/16 16:55:31  5-MIN KAOH 302155Z AUTO 24009KT 10SM CLR 11/02 A2971 1170 54 1000 250/09 RMK AO2 T01110022
04850KAOH AOH20160130170010901/30/16 17:00:31  5-MIN KAOH 302200Z AUTO 24008KT 10SM CLR 11/02 A2971 1170 54 1000 240/08 RMK AO2 T01110022
04850KAOH AOH20160130170510901/30/16 17:05:31  5-MIN KAOH 302205Z AUTO 24008KT 10SM CLR 11/02 A2971 1170 54 1000 240/08 RMK AO2 T01110022
04850KAOH AOH20160130171010901/30/16 17:10:31  5-MIN KAOH 302210Z AUTO 24008KT 10SM CLR 11/02 A2971 1170 54 1000 250/08 RMK AO2 T01110022
04850KAOH AOH20160130171510901/30/16 17:15:31  5-MIN KAOH 302215Z AUTO 24007KT 10SM CLR 11/02 A2971 1170 54 1000 240/07 RMK AO2 T01060017
04850KAOH AOH20160130172010901/30/16 17:20:31  5-MIN KAOH 302220Z AUTO 23009KT 10SM CLR 11/02 A2971 1170 54 1000 240/09 RMK AO2 T01060017
04850KAOH AOH20160130172510901/30/16 17:25:31  5-MIN KAOH 302225Z AUTO 23007KT 10SM CLR 11/02 A2971 1170 54 1000 230/07 RMK AO2 T01060017
04850KAOH AOH20160130173010801/30/16 17:30:31  5-MIN KAOH 302230Z AUTO 22008KT 10SM CLR 10/02 A2971 1170 56 900 230/08 RMK AO2 T01000017
04850KAOH AOH20160130173510801/30/16 17:35:31  5-MIN KAOH 302235Z AUTO 22007KT 10SM CLR 10/02 A2971 1170 56 900 230/07 RMK AO2 T01000017
04850KAOH AOH20160130174010801/30/16 17:40:31  5-MIN KAOH 302240Z AUTO 22007KT 10SM CLR 10/02 A2971 1170 56 900 230/07 RMK AO2 T01000017
04850KAOH AOH20160130174510801/30/16 17:45:31  5-MIN KAOH 302245Z AUTO 22007KT 10SM CLR 10/02 A2972 1170 56 900 220/07 RMK AO2 T01000017
04850KAOH AOH20160130175011501/30/16 17:50:31  5-MIN KAOH 302250Z AUTO 21006KT 10SM CLR 10/02 A2972 1170 56 900 220/06 RMK AO2 SLP067 T01000017
04850KAOH AOH20160130175510801/30/16 17:55:31  5-MIN KAOH 302255Z AUTO 22006KT 10SM CLR 09/02 A2972 1160 58 800 220/06 RMK AO2 T00940017
04850KAOH AOH20160130180010801/30/16 18:00:31  5-MIN KAOH 302300Z AUTO 22005KT 10SM CLR 09/02 A2972 1160 58 800 220/05 RMK AO2 T00940017
04850KAOH AOH20160130180510801/30/16 18:05:31  5-MIN KAOH 302305Z AUTO 22005KT 10SM CLR 09/02 A2972 1160 58 800 220/05 RMK AO2 T00940017
04850KAOH AOH20160130181010801/30/16 18:10:31  5-MIN KAOH 302310Z AUTO 21005KT 10SM CLR 09/02 A2973 1160 58 800 220/05 RMK AO2 T00940017
04850KAOH AOH20160130181510801/30/16 18:15:31  5-MIN KAOH 302315Z AUTO 20004KT 10SM CLR 09/02 A2972 1160 58 800 210/04 RMK AO2 T00940017
04850KAOH AOH20160130182010801/30/16 18:20:31  5-MIN KAOH 302320Z AUTO 19004KT 10SM CLR 09/02 A2972 1160 58 800 200/04 RMK AO2 T00940017
04850KAOH AOH20160130182510801/30/16 18:25:31  5-MIN KAOH 302325Z AUTO 20003KT 10SM CLR 08/01 A2973 1160 60 700 200/03 RMK AO2 T00830011
04850KAOH AOH20160130183010801/30/16 18:30:31  5-MIN KAOH 302330Z AUTO 00000KT 10SM CLR 08/01 A2973 1150 60 700 000/00 RMK AO2 T00830011
04850KAOH AOH20160130183510801/30/16 18:35:31  5-MIN KAOH 302335Z AUTO 00000KT 10SM CLR 06/01 A2973 1150 67 400 000/00 RMK AO2 T00610006
04850KAOH AOH20160130184010801/30/16 18:40:31  5-MIN KAOH 302340Z AUTO 00000KT 10SM CLR 05/01 A2973 1150 73 300 000/00 RMK AO2 T00500006
04850KAOH AOH20160130184510801/30/16 18:45:31  5-MIN KAOH 302345Z AUTO 20003KT 10SM CLR 06/01 A2973 1150 67 400 210/03 RMK AO2 T00610006
04850KAOH AOH20160130185013301/30/16 18:50:31  5-MIN KAOH 302350Z AUTO 19003KT 10SM CLR 06/01 A2973 1150 67 400 200/03 RMK AO2 SLP074 T00610006 10133 20044 53000
04850KAOH AOH20160130185510801/30/16 18:55:31  5-MIN KAOH 302355Z AUTO 21003KT 10SM CLR 06/01 A2973 1150 67 400 220/03 RMK AO2 T00610006
04850KAOH AOH20160130190010801/30/16 19:00:31  5-MIN KAOH 310000Z AUTO 25003KT 10SM CLR 06/01 A2973 1150 70 300 250/03 RMK AO2 T00560006
04850KAOH AOH20160130190510801/30/16 19:05:31  5-MIN KAOH 310005Z AUTO 00000KT 10SM CLR 04/01 A2973 1150 76 200 000/00 RMK AO2 T00440006
04850KAOH AOH20160130191010801/30/16 19:10:31  5-MIN KAOH 310010Z AUTO 00000KT 10SM CLR 04/01 A2974 1150 76 200 000/00 RMK AO2 T00440006
04850KAOH AOH20160130191510801/30/16 19:15:31  5-MIN KAOH 310015Z AUTO 00000KT 10SM CLR 06/01 A2974 1150 70 300 000/00 RMK AO2 T00560006
04850KAOH AOH20160130192010801/30/16 19:20:31  5-MIN KAOH 310020Z AUTO 29003KT 10SM CLR 06/01 A2974 1140 70 400 290/03 RMK AO2 T00610011
04850KAOH AOH20160130192510801/30/16 19:25:31  5-MIN KAOH 310025Z AUTO 28003KT 10SM CLR 06/01 A2975 1140 73 300 280/03 RMK AO2 T00560011
04850KAOH AOH20160130193010801/30/16 19:30:31  5-MIN KAOH 310030Z AUTO 25003KT 10SM CLR 06/01 A2975 1140 70 400 250/03 RMK AO2 T00610011
04850KAOH AOH20160130193510801/30/16 19:35:31  5-MIN KAOH 310035Z AUTO 25004KT 10SM CLR 06/01 A2975 1140 67 400 260/04 RMK AO2 T00610006
04850KAOH AOH20160130194010801/30/16 19:40:31  5-MIN KAOH 310040Z AUTO 27003KT 10SM CLR 07/01 A2975 1140 65 500 280/03 RMK AO2 T00720011
04850KAOH AOH20160130194510801/30/16 19:45:31  5-MIN KAOH 310045Z AUTO 23004KT 10SM CLR 07/02 A2975 1140 68 500 230/04 RMK AO2 T00720017
04850KAOH AOH20160130195011501/30/16 19:50:31  5-MIN KAOH 310050Z AUTO 25003KT 10SM CLR 07/01 A2975 1130 65 500 260/03 RMK AO2 SLP080 T00720011
04850KAOH AOH20160130195510801/30/16 19:55:31  5-MIN KAOH 310055Z AUTO 00000KT 10SM CLR 07/01 A2975 1130 67 400 000/00 RMK AO2 T00670011
04850KAOH AOH20160130200010801/30/16 20:00:31  5-MIN KAOH 310100Z AUTO 00000KT 10SM CLR 07/01 A2975 1130 65 500 000/00 RMK AO2 T00720011
04850KAOH AOH20160130200510801/30/16 20:05:31  5-MIN KAOH 310105Z AUTO 00000KT 10SM CLR 06/01 A2975 1130 70 400 000/00 RMK AO2 T00610011
04850KAOH AOH20160130201010801/30/16 20:10:31  5-MIN KAOH 310110Z AUTO 00000KT 10SM CLR 06/01 A2976 1130 73 300 000/00 RMK AO2 T00560011
04850KAOH AOH20160130201510801/30/16 20:15:31  5-MIN KAOH 310115Z AUTO 00000KT 10SM CLR 05/01 A2976 1130 76 200 000/00 RMK AO2 T00500011
04850KAOH AOH20160130202010801/30/16 20:20:31  5-MIN KAOH 310120Z AUTO 00000KT 10SM CLR 05/01 A2976 1130 76 200 000/00 RMK AO2 T00500011
04850KAOH AOH20160130202510801/30/16 20:25:31  5-MIN KAOH 310125Z AUTO 00000KT 10SM CLR 05/01 A2976 1130 73 200 000/00 RMK AO2 T00500006
04850KAOH AOH20160130203010801/30/16 20:30:31  5-MIN KAOH 310130Z AUTO 00000KT 10SM CLR 05/01 A2976 1130 76 200 000/00 RMK AO2 T00500011
04850KAOH AOH20160130203510801/30/16 20:35:31  5-MIN KAOH 310135Z AUTO 00000KT 10SM CLR 05/01 A2976 1130 76 200 000/00 RMK AO2 T00500011
04850KAOH AOH20160130204010801/30/16 20:40:31  5-MIN KAOH 310140Z AUTO 00000KT 10SM CLR 06/01 A2976 1130 70 300 000/00 RMK AO2 T00560006
04850KAOH AOH20160130204510801/30/16 20:45:31  5-MIN KAOH 310145Z AUTO 25003KT 10SM CLR 06/01 A2976 1130 73 300 260/03 RMK AO2 T00560011
04850KAOH AOH20160130205011501/30/16 20:50:31  5-MIN KAOH 310150Z AUTO 26003KT 10SM CLR 04/01 A2976 1130 76 200 270/03 RMK AO2 SLP083 T00440006
04850KAOH AOH20160130205510801/30/16 20:55:31  5-MIN KAOH 310155Z AUTO 26004KT 10SM CLR 06/01 A2976 1120 70 400 260/04 RMK AO2 T00610011
04850KAOH AOH20160130210010801/30/16 21:00:31  5-MIN KAOH 310200Z AUTO 24004KT 10SM CLR 07/01 A2976 1120 67 400 250/04 RMK AO2 T00670011
04850KAOH AOH20160130210510801/30/16 21:05:31  5-MIN KAOH 310205Z AUTO 22004KT 10SM CLR 07/02 A2976 1130 68 500 220/04 RMK AO2 T00720017
04850KAOH AOH20160130211010801/30/16 21:10:31  5-MIN KAOH 310210Z AUTO 21004KT 10SM CLR 07/01 A2976 1130 67 400 210/04 RMK AO2 T00670011
04850KAOH AOH20160130211510801/30/16 21:15:31  5-MIN KAOH 310215Z AUTO 22005KT 10SM CLR 07/01 A2976 1120 65 500 230/05 RMK AO2 T00720011
04850KAOH AOH20160130212010801/30/16 21:20:31  5-MIN KAOH 310220Z AUTO 22005KT 10SM CLR 08/02 A2976 1120 65 600 230/05 RMK AO2 T00780017
04850KAOH AOH20160130212510801/30/16 21:25:31  5-MIN KAOH 310225Z AUTO 23006KT 10SM CLR 07/02 A2976 1120 68 500 230/06 RMK AO2 T00720017
04850KAOH AOH20160130213010801/30/16 21:30:31  5-MIN KAOH 310230Z AUTO 22006KT 10SM CLR 07/02 A2976 1120 68 500 230/06 RMK AO2 T00720017
04850KAOH AOH20160130213510801/30/16 21:35:31  5-MIN KAOH 310235Z AUTO 22006KT 10SM CLR 07/02 A2976 1120 68 500 220/06 RMK AO2 T00720017
04850KAOH AOH20160130214010801/30/16 21:40:31  5-MIN KAOH 310240Z AUTO 22007KT 10SM CLR 08/02 A2976 1120 65 600 220/07 RMK AO2 T00780017
04850KAOH AOH20160130214510801/30/16 21:45:31  5-MIN KAOH 310245Z AUTO 22006KT 10SM CLR 08/02 A2976 1130 65 600 220/06 RMK AO2 T00780017
04850KAOH AOH20160130215012101/30/16 21:50:31  5-MIN KAOH 310250Z AUTO 22006KT 10SM CLR 08/02 A2976 1130 65 600 220/06 RMK AO2 SLP081 T00830022 51013
04850KAOH AOH20160130215510801/30/16 21:55:31  5-MIN KAOH 310255Z AUTO 21007KT 10SM CLR 08/02 A2976 1130 65 600 220/07 RMK AO2 T00780017
04850KAOH AOH20160130220010801/30/16 22:00:31  5-MIN KAOH 310300Z AUTO 20005KT 10SM CLR 08/02 A2976 1130 68 600 210/05 RMK AO2 T00780022
04850KAOH AOH20160130220510801/30/16 22:05:31  5-MIN KAOH 310305Z AUTO 18007KT 10SM CLR 07/02 A2976 1130 68 500 190/07 RMK AO2 T00720017
04850KAOH AOH20160130221010801/30/16 22:10:31  5-MIN KAOH 310310Z AUTO 18007KT 10SM CLR 06/01 A2976 1130 73 300 180/07 RMK AO2 T00560011
04850KAOH AOH20160130221510801/30/16 22:15:31  5-MIN KAOH 310315Z AUTO 18007KT 10SM CLR 05/01 A2976 1130 76 200 190/07 RMK AO2 T00500011
04850KAOH AOH20160130222010801/30/16 22:20:31  5-MIN KAOH 310320Z AUTO 18007KT 10SM CLR 05/01 A2976 1130 76 200 180/07 RMK AO2 T00500011
04850KAOH AOH20160130222510801/30/16 22:25:31  5-MIN KAOH 310325Z AUTO 18006KT 10SM CLR 05/01 A2976 1130 76 200 190/06 RMK AO2 T00500011
04850KAOH AOH20160130223010801/30/16 22:30:31  5-MIN KAOH 310330Z AUTO 18007KT 10SM CLR 05/01 A2976 1130 76 200 180/07 RMK AO2 T00500011
04850KAOH AOH20160130223510801/30/16 22:35:31  5-MIN KAOH 310335Z AUTO 18006KT 10SM CLR 06/01 A2976 1130 73 300 180/06 RMK AO2 T00560011
04850KAOH AOH20160130224010801/30/16 22:40:31  5-MIN KAOH 310340Z AUTO 18006KT 10SM CLR 06/01 A2976 1130 73 300 190/06 RMK AO2 T00560011
04850KAOH AOH20160130224510801/30/16 22:45:31  5-MIN KAOH 310345Z AUTO 19007KT 10SM CLR 06/01 A2976 1130 73 300 190/07 RMK AO2 T00560011
04850KAOH AOH20160130225011501/30/16 22:50:31  5-MIN KAOH 310350Z AUTO 19006KT 10SM CLR 06/02 A2976 1130 73 400 200/06 RMK AO2 SLP080 T00610017
04850KAOH AOH20160130225510801/30/16 22:55:31  5-MIN KAOH 310355Z AUTO 20006KT 10SM CLR 06/02 A2976 1130 73 400 200/06 RMK AO2 T00610017
04850KAOH AOH20160130230010801/30/16 23:00:31  5-MIN KAOH 310400Z AUTO 19006KT 10SM CLR 07/02 A2976 1130 70 400 200/06 RMK AO2 T00670017
04850KAOH AOH20160130230510801/30/16 23:05:31  5-MIN KAOH 310405Z AUTO 18007KT 10SM CLR 07/02 A2976 1130 70 400 190/07 RMK AO2 T00670017
04850KAOH AOH20160130231010801/30/16 23:10:31  5-MIN KAOH 310410Z AUTO 19008KT 10SM CLR 07/02 A2976 1130 68 500 190/08 RMK AO2 T00720017
04850KAOH AOH20160130231510801/30/16 23:15:31  5-MIN KAOH 310415Z AUTO 18007KT 10SM CLR 07/02 A2976 1130 68 500 190/07 RMK AO2 T00720017
04850KAOH AOH20160130232010801/30/16 23:20:31  5-MIN KAOH 310420Z AUTO 18008KT 10SM CLR 07/02 A2976 1120 70 400 190/08 RMK AO2 T00670017
04850KAOH AOH20160130232510801/30/16 23:25:31  5-MIN KAOH 310425Z AUTO 19007KT 10SM CLR 06/02 A2976 1120 73 400 190/07 RMK AO2 T00610017
04850KAOH AOH20160130233010801/30/16 23:30:31  5-MIN KAOH 310430Z AUTO 18008KT 10SM CLR 06/02 A2977 1120 73 400 190/08 RMK AO2 T00610017
04850KAOH AOH20160130233510801/30/16 23:35:31  5-MIN KAOH 310435Z AUTO 19008KT 10SM CLR 07/02 A2977 1120 70 400 190/08 RMK AO2 T00670017
04850KAOH AOH20160130234010801/30/16 23:40:31  5-MIN KAOH 310440Z AUTO 19007KT 10SM CLR 07/02 A2977 1120 70 400 190/07 RMK AO2 T00670017
04850KAOH AOH20160130234510801/30/16 23:45:31  5-MIN KAOH 310445Z AUTO 19008KT 10SM CLR 07/02 A2977 1120 68 500 190/08 RMK AO2 T00720017
04850KAOH AOH20160130235012501/30/16 23:50:31  5-MIN KAOH 310450Z AUTO 19008KT 10SM CLR 07/02 A2977 1120 68 500 190/08 RMK AO2 SLP083 T00720017 401331006
04850KAOH AOH20160130235510801/30/16 23:55:31  5-MIN KAOH 310455Z AUTO 18008KT 10SM CLR 07/02 A2976 1120 68 500 190/08 RMK AO2 T00720017
04850KAOH AOH20160131000010801/31/16 00:00:31  5-MIN KAOH 310500Z AUTO 19008KT 10SM CLR 07/02 A2977 1120 70 400 190/08 RMK AO2 T00670017
04850KAOH AOH20160131000510801/31/16 00:05:31  5-MIN KAOH 310505Z AUTO 19008KT 10SM CLR 07/02 A2977 1120 70 400 190/08 RMK AO2 T00670017
04850KAOH AOH20160131001010801/31/16 00:10:31  5-MIN KAOH 310510Z AUTO 18008KT 10SM CLR 07/02 A2976 1120 70 400 190/08 RMK AO2 T00670017
04850KAOH AOH20160131001510801/31/16 00:15:31  5-MIN KAOH 310515Z AUTO 18009KT 10SM CLR 07/02 A2977 1120 70 400 190/09 RMK AO2 T00670017
04850KAOH AOH20160131002010801/31/16 00:20:31  5-MIN KAOH 310520Z AUTO 18008KT 10SM CLR 07/02 A2977 1120 70 400 190/08 RMK AO2 T00670017
04850KAOH AOH20160131002510801/31/16 00:25:31  5-MIN KAOH 310525Z AUTO 18008KT 10SM CLR 07/02 A2977 1120 70 400 190/08 RMK AO2 T00670017
04850KAOH AOH20160131003010801/31/16 00:30:31  5-MIN KAOH 310530Z AUTO 18008KT 10SM CLR 07/02 A2976 1120 70 400 190/08 RMK AO2 T00670017
04850KAOH AOH20160131003510801/31/16 00:35:31  5-MIN KAOH 310535Z AUTO 18008KT 10SM CLR 07/02 A2976 1120 70 400 190/08 RMK AO2 T00670017
04850KAOH AOH20160131004010801/31/16 00:40:31  5-MIN KAOH 310540Z AUTO 18008KT 10SM CLR 07/02 A2976 1120 68 500 190/08 RMK AO2 T00720017
04850KAOH AOH20160131004510801/31/16 00:45:31  5-MIN KAOH 310545Z AUTO 18009KT 10SM CLR 07/02 A2976 1120 68 500 190/09 RMK AO2 T00720017
04850KAOH AOH20160131005013301/31/16 00:50:31  5-MIN KAOH 310550Z AUTO 19008KT 10SM CLR 07/02 A2976 1120 68 500 190/08 RMK AO2 SLP081 T00720017 10083 20039 50009
04850KAOH AOH20160131005510801/31/16 00:55:31  5-MIN KAOH 310555Z AUTO 19008KT 10SM CLR 07/02 A2976 1120 68 500 190/08 RMK AO2 T00720017
04850KAOH AOH20160131010010801/31/16 01:00:31  5-MIN KAOH 310600Z AUTO 19008KT 10SM CLR 08/02 A2976 1120 68 600 190/08 RMK AO2 T00780022
04850KAOH AOH20160131010510801/31/16 01:05:31  5-MIN KAOH 310605Z AUTO 19009KT 10SM CLR 08/02 A2976 1120 68 600 200/09 RMK AO2 T00780022
04850KAOH AOH20160131011010801/31/16 01:10:31  5-MIN KAOH 310610Z AUTO 20009KT 10SM CLR 08/02 A2976 1120 68 600 200/09 RMK AO2 T00780022
04850KAOH AOH20160131011510801/31/16 01:15:31  5-MIN KAOH 310615Z AUTO 20008KT 10SM CLR 08/02 A2976 1130 68 600 200/08 RMK AO2 T00780022
04850KAOH AOH20160131012010801/31/16 01:20:31  5-MIN KAOH 310620Z AUTO 21009KT 10SM CLR 08/02 A2976 1130 68 600 210/09 RMK AO2 T00780022
04850KAOH AOH20160131012510801/31/16 01:25:31  5-MIN KAOH 310625Z AUTO 20008KT 10SM CLR 08/02 A2976 1130 65 600 210/08 RMK AO2 T00830022
04850KAOH AOH20160131013010801/31/16 01:30:31  5-MIN KAOH 310630Z AUTO 20009KT 10SM CLR 08/02 A2976 1130 65 600 210/09 RMK AO2 T00830022
04850KAOH AOH20160131013510801/31/16 01:35:31  5-MIN KAOH 310635Z AUTO 20009KT 10SM CLR 09/02 A2976 1130 63 700 200/09 RMK AO2 T00890022
04850KAOH AOH20160131014010801/31/16 01:40:31  5-MIN KAOH 310640Z AUTO 20008KT 10SM CLR 09/02 A2976 1130 63 700 200/08 RMK AO2 T00890022
04850KAOH AOH20160131014510801/31/16 01:45:31  5-MIN KAOH 310645Z AUTO 19008KT 10SM CLR 08/02 A2976 1130 65 600 200/08 RMK AO2 T00830022
04850KAOH AOH20160131015011801/31/16 01:50:31  5-MIN KAOH 310650Z AUTO 19007KT 10SM FEW039 08/02 A2976 1130 65 600 200/07 RMK AO2 SLP078 T00830022
04850KAOH AOH20160131015511101/31/16 01:55:31  5-MIN KAOH 310655Z AUTO 19008KT 10SM SCT039 08/02 A2976 1130 65 600 190/08 RMK AO2 T00830022
04850KAOH AOH20160131020011101/31/16 02:00:31  5-MIN KAOH 310700Z AUTO 18008KT 10SM BKN039 08/02 A2976 1130 65 600 190/08 RMK AO2 T00830022
04850KAOH AOH20160131020511101/31/16 02:05:31  5-MIN KAOH 310705Z AUTO 19009KT 10SM BKN038 08/02 A2976 1130 65 600 190/09 RMK AO2 T00830022
04850KAOH AOH20160131021011101/31/16 02:10:31  5-MIN KAOH 310710Z AUTO 19009KT 10SM BKN038 08/02 A2976 1130 65 600 190/09 RMK AO2 T00830022
04850KAOH AOH20160131021511101/31/16 02:15:31  5-MIN KAOH 310715Z AUTO 19009KT 10SM OVC038 08/02 A2976 1130 65 600 200/09 RMK AO2 T00830022
04850KAOH AOH20160131022011101/31/16 02:20:31  5-MIN KAOH 310720Z AUTO 19008KT 10SM OVC037 08/02 A2976 1130 65 600 200/08 RMK AO2 T00830022
04850KAOH AOH20160131022511101/31/16 02:25:31  5-MIN KAOH 310725Z AUTO 20008KT 10SM OVC037 08/02 A2976 1130 65 600 200/08 RMK AO2 T00830022
04850KAOH AOH20160131023011101/31/16 02:30:31  5-MIN KAOH 310730Z AUTO 19009KT 10SM OVC037 09/02 A2976 1130 63 700 200/09 RMK AO2 T00890022
04850KAOH AOH20160131023511101/31/16 02:35:31  5-MIN KAOH 310735Z AUTO 19009KT 10SM OVC037 08/02 A2976 1130 65 600 200/09 RMK AO2 T00830022
04850KAOH AOH20160131024011101/31/16 02:40:31  5-MIN KAOH 310740Z AUTO 19009KT 10SM OVC036 08/02 A2976 1130 65 600 190/09 RMK AO2 T00830022
04850KAOH AOH20160131024511101/31/16 02:45:31  5-MIN KAOH 310745Z AUTO 19010KT 10SM OVC036 08/02 A2975 1130 65 600 190/10 RMK AO2 T00830022
04850KAOH AOH20160131025011801/31/16 02:50:31  5-MIN KAOH 310750Z AUTO 18009KT 10SM OVC036 08/02 A2975 1140 65 600 190/09 RMK AO2 SLP075 T00830022
04850KAOH AOH20160131025511101/31/16 02:55:31  5-MIN KAOH 310755Z AUTO 18008KT 10SM OVC038 08/02 A2975 1140 65 700 190/08 RMK AO2 T00830022
04850KAOH AOH20160131030011101/31/16 03:00:31  5-MIN KAOH 310800Z AUTO 18008KT 10SM OVC038 08/03 A2975 1140 68 600 190/08 RMK AO2 T00830028
04850KAOH AOH20160131030511101/31/16 03:05:31  5-MIN KAOH 310805Z AUTO 18008KT 10SM OVC036 08/03 A2975 1140 68 600 190/08 RMK AO2 T00830028
04850KAOH AOH20160131031011801/31/16 03:10:31  5-MIN KAOH 310810Z AUTO 18007KT 10SM BKN034 OVC041 08/03 A2975 1140 68 700 190/07 RMK AO2 T00830028
04850KAOH AOH20160131031511801/31/16 03:15:31  5-MIN KAOH 310815Z AUTO 18008KT 10SM BKN033 OVC041 08/03 A2975 1140 68 700 190/08 RMK AO2 T00830028
04850KAOH AOH20160131032011801/31/16 03:20:31  5-MIN KAOH 310820Z AUTO 19008KT 10SM BKN034 OVC041 09/03 A2975 1140 65 700 200/08 RMK AO2 T00890028
04850KAOH AOH20160131032511801/31/16 03:25:31  5-MIN KAOH 310825Z AUTO 18007KT 10SM BKN034 OVC041 09/03 A2975 1140 65 700 190/07 RMK AO2 T00890028
04850KAOH AOH20160131033011801/31/16 03:30:31  5-MIN KAOH 310830Z AUTO 18007KT 10SM BKN033 OVC041 09/03 A2975 1140 65 700 190/07 RMK AO2 T00890028
04850KAOH AOH20160131033511801/31/16 03:35:31  5-MIN KAOH 310835Z AUTO 18008KT 10SM BKN033 OVC042 08/03 A2975 1140 68 600 190/08 RMK AO2 T00830028
04850KAOH AOH20160131034011801/31/16 03:40:31  5-MIN KAOH 310840Z AUTO 18009KT 10SM BKN031 OVC042 09/03 A2975 1140 65 700 190/09 RMK AO2 T00890028
04850KAOH AOH20160131034512501/31/16 03:45:31  5-MIN KAOH 310845Z AUTO 18009KT 10SM BKN031 BKN038 OVC046 09/03 A2975 1140 65 700 190/09 RMK AO2 T00890028
04850KAOH AOH20160131035013101/31/16 03:50:31  5-MIN KAOH 310850Z AUTO 18009KT 10SM BKN031 OVC046 09/03 A2974 1140 68 700 190/09 RMK AO2 SLP072 T00890033 50001
04850KAOH AOH20160131035511801/31/16 03:55:31  5-MIN KAOH 310855Z AUTO 18008KT 10SM SCT031 OVC046 09/03 A2974 1150 68 700 190/08 RMK AO2 T00890033
04850KAOH AOH20160131040012501/31/16 04:00:31  5-MIN KAOH 310900Z AUTO 18008KT 10SM SCT030 SCT037 OVC046 08/03 A2974 1150 70 700 180/08 RMK AO2 T00830033
04850KAOH AOH20160131040511801/31/16 04:05:31  5-MIN KAOH 310905Z AUTO 18008KT 10SM FEW030 OVC046 08/03 A2974 1150 70 700 180/08 RMK AO2 T00830033
04850KAOH AOH20160131041011801/31/16 04:10:31  5-MIN KAOH 310910Z AUTO 18008KT 10SM SCT030 OVC046 08/03 A2974 1150 70 700 190/08 RMK AO2 T00830033
04850KAOH AOH20160131041511801/31/16 04:15:31  5-MIN KAOH 310915Z AUTO 18008KT 10SM FEW031 OVC046 09/03 A2974 1150 68 700 180/08 RMK AO2 T00890033
04850KAOH AOH20160131042011801/31/16 04:20:31  5-MIN KAOH 310920Z AUTO 18009KT 10SM FEW031 BKN046 08/03 A2973 1150 70 700 190/09 RMK AO2 T00830033
04850KAOH AOH20160131042511801/31/16 04:25:31  5-MIN KAOH 310925Z AUTO 18009KT 10SM FEW031 BKN046 09/03 A2973 1150 68 700 190/09 RMK AO2 T00890033
04850KAOH AOH20160131043011801/31/16 04:30:31  5-MIN KAOH 310930Z AUTO 18008KT 10SM FEW031 OVC048 09/04 A2973 1150 71 700 190/08 RMK AO2 T00890039
04850KAOH AOH20160131043511801/31/16 04:35:31  5-MIN KAOH 310935Z AUTO 18008KT 10SM FEW031 OVC048 09/04 A2973 1150 71 700 190/08 RMK AO2 T00890039
04850KAOH AOH20160131044011101/31/16 04:40:31  5-MIN KAOH 310940Z AUTO 18008KT 10SM OVC047 09/04 A2973 1150 71 700 180/08 RMK AO2 T00890039
04850KAOH AOH20160131044511101/31/16 04:45:31  5-MIN KAOH 310945Z AUTO 18009KT 10SM OVC047 09/04 A2973 1150 71 700 190/09 RMK AO2 T00890039
04850KAOH AOH20160131045012501/31/16 04:50:31  5-MIN KAOH 310950Z AUTO 18009KT 10SM FEW026 OVC047 09/04 A2973 1150 71 700 180/09 RMK AO2 SLP070 T00890039
04850KAOH AOH20160131045512501/31/16 04:55:31  5-MIN KAOH 310955Z AUTO 18009KT 10SM SCT026 BKN040 OVC047 09/04 A2973 1150 73 700 190/09 RMK AO2 T00890044
04850KAOH AOH20160131050011801/31/16 05:00:31  5-MIN KAOH 311000Z AUTO 18009KT 10SM SCT026 OVC047 09/04 A2974 1150 71 800 190/09 RMK AO2 T00940044
04850KAOH AOH20160131050511801/31/16 05:05:31  5-MIN KAOH 311005Z AUTO 18009KT 10SM SCT026 OVC047 09/04 A2974 1150 71 800 190/09 RMK AO2 T00940044
04850KAOH AOH20160131051012501/31/16 05:10:31  5-MIN KAOH 311010Z AUTO 19008KT 10SM SCT026 BKN045 OVC050 10/04 A2974 1150 68 900 190/08 RMK AO2 T01000044
04850KAOH AOH20160131051512501/31/16 05:15:31  5-MIN KAOH 311015Z AUTO 18008KT 10SM BKN026 BKN044 OVC050 10/04 A2974 1150 68 900 190/08 RMK AO2 T01000044
04850KAOH AOH20160131052012501/31/16 05:20:31  5-MIN KAOH 311020Z AUTO 18009KT 10SM BKN026 BKN031 OVC044 10/04 A2974 1150 68 900 190/09 RMK AO2 T01000044
04850KAOH AOH20160131052512501/31/16 05:25:31  5-MIN KAOH 311025Z AUTO 18009KT 10SM BKN026 BKN035 OVC050 10/04 A2973 1150 68 900 190/09 RMK AO2 T01000044
04850KAOH AOH20160131053012501/31/16 05:30:31  5-MIN KAOH 311030Z AUTO 18009KT 10SM BKN026 BKN035 OVC050 09/04 A2973 1150 71 800 190/09 RMK AO2 T00940044
04850KAOH AOH20160131053512501/31/16 05:35:31  5-MIN KAOH 311035Z AUTO 18009KT 10SM BKN026 BKN035 OVC050 10/04 A2973 1160 68 900 190/09 RMK AO2 T01000044
04850KAOH AOH20160131054011801/31/16 05:40:31  5-MIN KAOH 311040Z AUTO 18009KT 10SM BKN026 OVC050 10/05 A2973 1160 71 900 190/09 RMK AO2 T01000050
04850KAOH AOH20160131054511801/31/16 05:45:31  5-MIN KAOH 311045Z AUTO 18010KT 10SM BKN026 OVC038 09/05 A2972 1160 74 800 180/10 RMK AO2 T00940050
04850KAOH AOH20160131055013201/31/16 05:50:31  5-MIN KAOH 311050Z AUTO 17009KT 10SM BKN028 BKN035 OVC050 09/04 A2972 1160 71 800 180/09 RMK AO2 SLP065 T00940044
04850KAOH AOH20160131055512501/31/16 05:55:31  5-MIN KAOH 311055Z AUTO 17009KT 10SM BKN028 BKN034 OVC050 09/04 A2972 1160 71 800 170/09 RMK AO2 T00940044
04850KAOH AOH20160131060012501/31/16 06:00:31  5-MIN KAOH 311100Z AUTO 17009KT 10SM BKN028 BKN034 OVC043 09/04 A2972 1160 73 700 170/09 RMK AO2 T00890044
04850KAOH AOH20160131060511801/31/16 06:05:31  5-MIN KAOH 311105Z AUTO 17009KT 10SM BKN027 OVC034 09/04 A2972 1160 73 700 180/09 RMK AO2 T00890044
04850KAOH AOH20160131061012501/31/16 06:10:31  5-MIN KAOH 311110Z AUTO 17009KT 10SM BKN029 BKN036 OVC045 09/04 A2972 1160 73 700 180/09 RMK AO2 T00890044
04850KAOH AOH20160131061512501/31/16 06:15:31  5-MIN KAOH 311115Z AUTO 18010KT 10SM BKN029 BKN034 OVC043 09/04 A2972 1160 73 700 180/10 RMK AO2 T00890044
04850KAOH AOH20160131062012501/31/16 06:20:31  5-MIN KAOH 311120Z AUTO 17009KT 10SM SCT028 BKN034 BKN043 09/04 A2972 1170 73 800 180/09 RMK AO2 T00890044
04850KAOH AOH20160131062511801/31/16 06:25:31  5-MIN KAOH 311125Z AUTO 17010KT 10SM SCT028 BKN045 09/04 A2972 1170 73 800 180/10 RMK AO2 T00890044
04850KAOH AOH20160131063011801/31/16 06:30:31  5-MIN KAOH 311130Z AUTO 18010KT 10SM SCT028 BKN043 09/04 A2972 1170 73 800 180/10 RMK AO2 T00890044
04850KAOH AOH20160131063512501/31/16 06:35:31  5-MIN KAOH 311135Z AUTO 18009KT 10SM BKN029 BKN040 BKN047 09/04 A2972 1170 73 800 180/09 RMK AO2 T00890044
04850KAOH AOH20160131064011801/31/16 06:40:31  5-MIN KAOH 311140Z AUTO 18010KT 10SM SCT029 BKN040 09/04 A2972 1170 73 800 180/10 RMK AO2 T00890044
04850KAOH AOH20160131064512501/31/16 06:45:31  5-MIN KAOH 311145Z AUTO 17011KT 10SM BKN031 BKN040 BKN046 09/04 A2971 1170 73 800 180/11 RMK AO2 T00890044
04850KAOH AOH20160131065014301/31/16 06:50:31  5-MIN KAOH 311150Z AUTO 18010KT 10SM BKN031 OVC044 09/04 A2971 1170 73 800 190/10 RMK AO2 SLP065 T00890044 10100 20072 58007
04850KAOH AOH20160131065512501/31/16 06:55:31  5-MIN KAOH 311155Z AUTO 18009KT 10SM SCT029 BKN037 OVC047 09/04 A2972 1170 73 800 180/09 RMK AO2 T00890044
04850KAOH AOH20160131070012501/31/16 07:00:31  5-MIN KAOH 311200Z AUTO 18009KT 10SM FEW029 BKN037 OVC047 09/04 A2971 1170 73 800 180/09 RMK AO2 T00890044
04850KAOH AOH20160131070512501/31/16 07:05:31  5-MIN KAOH 311205Z AUTO 18009KT 10SM BKN034 BKN045 OVC050 09/04 A2971 1170 73 800 180/09 RMK AO2 T00890044
04850KAOH AOH20160131071011801/31/16 07:10:31  5-MIN KAOH 311210Z AUTO 18009KT 10SM BKN034 OVC048 09/04 A2971 1170 73 800 180/09 RMK AO2 T00890044
04850KAOH AOH20160131071512501/31/16 07:15:31  5-MIN KAOH 311215Z AUTO 18009KT 10SM BKN034 BKN048 OVC055 09/04 A2971 1170 73 800 180/09 RMK AO2 T00890044
04850KAOH AOH20160131072011801/31/16 07:20:31  5-MIN KAOH 311220Z AUTO 18009KT 10SM SCT034 BKN050 09/04 A2971 1170 73 800 180/09 RMK AO2 T00890044
04850KAOH AOH20160131072511801/31/16 07:25:31  5-MIN KAOH 311225Z AUTO 18011KT 10SM SCT034 BKN055 09/04 A2971 1170 73 800 180/11 RMK AO2 T00890044
04850KAOH AOH20160131073011801/31/16 07:30:31  5-MIN KAOH 311230Z AUTO 18011KT 10SM SCT034 BKN055 09/04 A2971 1170 73 800 180/11 RMK AO2 T00890044
04850KAOH AOH20160131073511801/31/16 07:35:31  5-MIN KAOH 311235Z AUTO 18011KT 10SM FEW034 BKN055 09/04 A2971 1170 73 800 190/11 RMK AO2 T00890044
04850KAOH AOH20160131074011101/31/16 07:40:31  5-MIN KAOH 311240Z AUTO 18012KT 10SM BKN055 09/04 A2971 1170 73 800 190/12 RMK AO2 T00890044
04850KAOH AOH20160131074511101/31/16 07:45:31  5-MIN KAOH 311245Z AUTO 18011KT 10SM BKN055 09/04 A2971 1170 73 800 180/11 RMK AO2 T00890044
04850KAOH AOH20160131075011801/31/16 07:50:31  5-MIN KAOH 311250Z AUTO 18011KT 10SM BKN055 09/04 A2971 1170 73 800 180/11 RMK AO2 SLP064 T00890044
04850KAOH AOH20160131075511101/31/16 07:55:31  5-MIN KAOH 311255Z AUTO 18012KT 10SM BKN060 09/04 A2971 1170 73 800 180/12 RMK AO2 T00890044
04850KAOH AOH20160131080011101/31/16 08:00:31  5-MIN KAOH 311300Z AUTO 18012KT 10SM BKN055 09/04 A2971 1180 73 800 180/12 RMK AO2 T00890044
04850KAOH AOH20160131080511101/31/16 08:05:31  5-MIN KAOH 311305Z AUTO 18013KT 10SM BKN055 09/04 A2970 1180 73 800 180/13 RMK AO2 T00890044
04850KAOH AOH20160131081011101/31/16 08:10:31  5-MIN KAOH 311310Z AUTO 18013KT 10SM SCT055 08/04 A2970 1180 76 700 180/13 RMK AO2 T00830044
04850KAOH AOH20160131081511101/31/16 08:15:31  5-MIN KAOH 311315Z AUTO 18011KT 10SM FEW055 09/04 A2970 1180 73 800 180/11 RMK AO2 T00890044
04850KAOH AOH20160131082011101/31/16 08:20:31  5-MIN KAOH 311320Z AUTO 18010KT 10SM FEW055 09/04 A2970 1180 73 800 190/10 RMK AO2 T00890044
04850KAOH AOH20160131082511101/31/16 08:25:31  5-MIN KAOH 311325Z AUTO 17012KT 10SM FEW055 09/04 A2970 1180 73 800 180/12 RMK AO2 T00890044
04850KAOH AOH20160131083010801/31/16 08:30:31  5-MIN KAOH 311330Z AUTO 18012KT 10SM CLR 09/04 A2970 1180 73 800 190/12 RMK AO2 T00890044
04850KAOH AOH20160131083511401/31/16 08:35:31  5-MIN KAOH 311335Z AUTO 18012G19KT 10SM CLR 09/04 A2970 1180 73 800 180/12G19 RMK AO2 T00890044
04850KAOH AOH20160131084011101/31/16 08:40:31  5-MIN KAOH 311340Z AUTO 18011KT 10SM FEW040 09/04 A2970 1180 73 800 190/11 RMK AO2 T00890044
04850KAOH AOH20160131084511101/31/16 08:45:31  5-MIN KAOH 311345Z AUTO 18013KT 10SM SCT040 09/04 A2970 1180 73 800 190/13 RMK AO2 T00890044
04850KAOH AOH20160131085011801/31/16 08:50:31  5-MIN KAOH 311350Z AUTO 18013KT 10SM BKN042 09/04 A2970 1180 71 800 180/13 RMK AO2 SLP060 T00940044
04850KAOH AOH20160131085511101/31/16 08:55:31  5-MIN KAOH 311355Z AUTO 18013KT 10SM BKN042 09/04 A2970 1190 71 800 190/13 RMK AO2 T00940044
04850KAOH AOH20160131090011801/31/16 09:00:31  5-MIN KAOH 311400Z AUTO 18013KT 10SM FEW032 BKN042 09/04 A2970 1190 71 800 190/13 RMK AO2 T00940044
04850KAOH AOH20160131090511801/31/16 09:05:31  5-MIN KAOH 311405Z AUTO 19013KT 10SM SCT032 OVC042 09/04 A2970 1180 71 800 190/13 RMK AO2 T00940044
04850KAOH AOH20160131091012501/31/16 09:10:31  5-MIN KAOH 311410Z AUTO 18011KT 10SM SCT030 BKN034 OVC043 09/04 A2970 1180 71 800 190/11 RMK AO2 T00940044
04850KAOH AOH20160131091512401/31/16 09:15:31  5-MIN KAOH 311415Z AUTO 18013G19KT 10SM BKN030 OVC043 09/05 A2970 1190 74 800 190/13G19 RMK AO2 T00940050
04850KAOH AOH20160131092013101/31/16 09:20:31  5-MIN KAOH 311420Z AUTO 19012G19KT 10SM BKN028 BKN034 OVC044 10/05 A2970 1180 71 900 190/12G19 RMK AO2 T01000050
04850KAOH AOH20160131092511801/31/16 09:25:31  5-MIN KAOH 311425Z AUTO 19014KT 10SM BKN028 OVC034 10/05 A2970 1180 71 900 190/14 RMK AO2 T01000050
04850KAOH AOH20160131093011801/31/16 09:30:31  5-MIN KAOH 311430Z AUTO 19014KT 10SM BKN028 OVC034 10/05 A2970 1190 71 900 190/14 RMK AO2 T01000050
04850KAOH AOH20160131093511801/31/16 09:35:31  5-MIN KAOH 311435Z AUTO 19012KT 10SM BKN026 OVC034 10/05 A2970 1190 71 900 200/12 RMK AO2 T01000050
04850KAOH AOH20160131094011801/31/16 09:40:31  5-MIN KAOH 311440Z AUTO 19014KT 10SM BKN026 OVC033 10/06 A2969 1190 74 900 200/14 RMK AO2 T01000056
04850KAOH AOH20160131094511101/31/16 09:45:31  5-MIN KAOH 311445Z AUTO 19014KT 10SM OVC026 10/06 A2969 1190 74 900 190/14 RMK AO2 T01000056
04850KAOH AOH20160131095013101/31/16 09:50:31  5-MIN KAOH 311450Z AUTO 19012G20KT 10SM OVC026 11/06 A2969 1190 71 1000 200/12G20 RMK AO2 SLP057 T01060056 56008
04850KAOH AOH20160131095511801/31/16 09:55:31  5-MIN KAOH 311455Z AUTO 19015G20KT 10SM OVC026 11/06 A2969 1190 71 1000 200/15G20 RMK AO2 T01060056
04850KAOH AOH20160131100011801/31/16 10:00:31  5-MIN KAOH 311500Z AUTO 19013G20KT 10SM OVC026 11/06 A2969 1190 74 1000 200/13G20 RMK AO2 T01060061
04850KAOH AOH20160131100511201/31/16 10:05:31  5-MIN KAOH 311505Z AUTO 19013KT 10SM OVC026 11/06 A2969 1190 71 1100 200/13 RMK AO2 T01110061
04850KAOH AOH20160131101011801/31/16 10:10:31  5-MIN KAOH 311510Z AUTO 20015G22KT 10SM OVC026 11/07 A2969 1190 74 1100 200/15G22 RMK AO2 T01110067
04850KAOH AOH20160131101511801/31/16 10:15:31  5-MIN KAOH 311515Z AUTO 19012G22KT 10SM OVC026 11/07 A2968 1200 74 1100 200/12G22 RMK AO2 T01110067
04850KAOH AOH20160131102011801/31/16 10:20:31  5-MIN KAOH 311520Z AUTO 19015G24KT 10SM OVC028 12/07 A2968 1200 74 1100 200/15G24 RMK AO2 T01170072
04850KAOH AOH20160131102511801/31/16 10:25:31  5-MIN KAOH 311525Z AUTO 20014G24KT 10SM OVC028 12/07 A2968 1200 74 1100 200/14G24 RMK AO2 T01170072
04850KAOH AOH20160131103014301/31/16 10:30:31  5-MIN KAOH 311530Z AUTO 20018G26KT 10SM SCT023 OVC030 12/07 A2968 1200 74 1100 210/18G26 RMK AO2 PK WND 20026/1530 T01170072
04850KAOH AOH20160131103515001/31/16 10:35:31  5-MIN KAOH 311535Z AUTO 20015G26KT 10SM FEW019 SCT025 OVC030 12/07 A2969 1190 74 1100 210/15G26 RMK AO2 PK WND 20026/1530 T01170072
04850KAOH AOH20160131104014301/31/16 10:40:31  5-MIN KAOH 311540Z AUTO 20016G22KT 10SM SCT019 OVC030 12/08 A2969 1190 77 1100 210/16G22 RMK AO2 PK WND 20026/1530 T01170078
04850KAOH AOH20160131104515001/31/16 10:45:31  5-MIN KAOH 311545Z AUTO 21015G22KT 10SM SCT019 SCT024 OVC030 12/08 A2969 1190 77 1100 210/15G22 RMK AO2 PK WND 20026/1530 T01170078
04850KAOH AOH20160131105013301/31/16 10:50:31  5-MIN KAOH 311550Z AUTO 20015G25KT 10SM BKN019 OVC030 12/08 A2969 1190 77 1100 210/15G25 RMK AO2 PK WND 20026/1530
04850KAOH AOH20160131105512501/31/16 10:55:31  5-MIN KAOH 311555Z AUTO 20014G25KT 10SM BKN019 OVC031 12/08 A2969 1190 77 1100 210/14G25 RMK AO2 T01170078
04850KAOH AOH20160131110012501/31/16 11:00:31  5-MIN KAOH 311600Z AUTO 20017G25KT 10SM BKN018 OVC031 12/08 A2969 1190 77 1100 200/17G25 RMK AO2 T01170078
04850KAOH AOH20160131110514301/31/16 11:05:31  5-MIN KAOH 311605Z AUTO 20016G27KT 10SM BKN018 OVC031 12/08 A2969 1190 77 1100 210/16G27 RMK AO2 PK WND 22027/1603 T01170078
04850KAOH AOH20160131111013601/31/16 11:10:31  5-MIN KAOH 311610Z AUTO 20015G27KT 10SM OVC018 12/08 A2969 1190 77 1100 210/15G27 RMK AO2 PK WND 22027/1603 T01170078
04850KAOH AOH20160131111513601/31/16 11:15:31  5-MIN KAOH 311615Z AUTO 20016G25KT 10SM OVC017 12/08 A2969 1190 77 1100 210/16G25 RMK AO2 PK WND 22027/1603 T01170078
04850KAOH AOH20160131112013601/31/16 11:20:31  5-MIN KAOH 311620Z AUTO 20014G25KT 10SM OVC017 11/08 A2969 1190 83 1000 210/14G25 RMK AO2 PK WND 22027/1603 T01110083
04850KAOH AOH20160131112513601/31/16 11:25:31  5-MIN KAOH 311625Z AUTO 20014G22KT 10SM OVC017 11/08 A2969 1200 83 1100 200/14G22 RMK AO2 PK WND 22027/1603 T01110083
04850KAOH AOH20160131113013601/31/16 11:30:31  5-MIN KAOH 311630Z AUTO 19014G20KT 10SM OVC016 11/08 A2968 1200 83 1100 200/14G20 RMK AO2 PK WND 22027/1603 T01110083
04850KAOH AOH20160131113513601/31/16 11:35:31  5-MIN KAOH 311635Z AUTO 19012G20KT 10SM OVC016 11/08 A2968 1200 83 1100 200/12G20 RMK AO2 PK WND 22027/1603 T01110083
04850KAOH AOH20160131114013001/31/16 11:40:31  5-MIN KAOH 311640Z AUTO 20012KT 10SM OVC016 11/08 A2968 1200 83 1100 200/12 RMK AO2 PK WND 22027/1603 T01110083
04850KAOH AOH20160131114513001/31/16 11:45:31  5-MIN KAOH 311645Z AUTO 19013KT 10SM OVC016 11/08 A2967 1210 83 1100 200/13 RMK AO2 PK WND 22027/1603 T01110083
04850KAOH AOH20160131115013701/31/16 11:50:31  5-MIN KAOH 311650Z AUTO 20011KT 10SM OVC016 11/08 A2967 1210 80 1100 200/11 RMK AO2 PK WND 22027/1603 SLP049 T01110078
04850KAOH AOH20160131115511201/31/16 11:55:31  5-MIN KAOH 311655Z AUTO 20011KT 10SM OVC016 11/08 A2967 1210 80 1100 200/11 RMK AO2 T01110078
04850KAOH AOH20160131120011201/31/16 12:00:31  5-MIN KAOH 311700Z AUTO 20012KT 10SM OVC016 11/08 A2967 1210 80 1100 200/12 RMK AO2 T01110078
04850KAOH AOH20160131120511201/31/16 12:05:31  5-MIN KAOH 311705Z AUTO 20013KT 10SM OVC016 12/08 A2966 1220 77 1100 200/13 RMK AO2 T01170078
04850KAOH AOH20160131121011201/31/16 12:10:31  5-MIN KAOH 311710Z AUTO 19011KT 10SM OVC016 12/08 A2966 1220 80 1100 200/11 RMK AO2 T01170083
04850KAOH AOH20160131121511201/31/16 12:15:31  5-MIN KAOH 311715Z AUTO 19012KT 10SM OVC016 12/08 A2965 1220 80 1200 200/12 RMK AO2 T01170083
04850KAOH AOH20160131122011801/31/16 12:20:31  5-MIN KAOH 311720Z AUTO 19012G19KT 10SM OVC016 12/08 A2965 1230 80 1200 200/12G19 RMK AO2 T01170083
04850KAOH AOH20160131122512501/31/16 12:25:31  5-MIN KAOH 311725Z AUTO 19013G20KT 10SM OVC017 12/08 A2964 1240 80 1200 200/13G20 RMK AO2 PRESFR T01170083
04850KAOH AOH20160131123012501/31/16 12:30:31  5-MIN KAOH 311730Z AUTO 19012G20KT 10SM OVC019 12/08 A2963 1250 77 1300 190/12G20 RMK AO2 PRESFR T01220083
04850KAOH AOH20160131123511901/31/16 12:35:31  5-MIN KAOH 311735Z AUTO 19013KT 10SM BKN019 OVC026 12/08 A2963 1250 77 1300 190/13 RMK AO2 T01220083
04850KAOH AOH20160131124012601/31/16 12:40:31  5-MIN KAOH 311740Z AUTO 19014KT 10SM BKN019 OVC026 12/08 A2962 1260 77 1300 190/14 RMK AO2 PRESFR T01220083
04850KAOH AOH20160131124512501/31/16 12:45:31  5-MIN KAOH 311745Z AUTO 19014G22KT 10SM BKN020 OVC026 12/08 A2962 1260 77 1300 200/14G22 RMK AO2 T01220083
04850KAOH AOH20160131125015001/31/16 12:50:31  5-MIN KAOH 311750Z AUTO 19016G22KT 10SM BKN020 OVC026 12/08 A2962 1260 77 1300 200/16G22 RMK AO2 SLP031 T01220083 10122 20083 56007
04850KAOH AOH20160131125512501/31/16 12:55:31  5-MIN KAOH 311755Z AUTO 19016G22KT 10SM BKN022 OVC032 12/08 A2962 1260 77 1300 200/16G22 RMK AO2 T01220083
04850KAOH AOH20160131130011801/31/16 13:00:31  5-MIN KAOH 311800Z AUTO 19017G24KT 10SM OVC022 12/08 A2962 1260 77 1300 200/17G24 RMK AO2 T01220083
04850KAOH AOH20160131130511801/31/16 13:05:31  5-MIN KAOH 311805Z AUTO 20016G24KT 10SM OVC023 12/08 A2962 1260 77 1300 200/16G24 RMK AO2 T01220083
04850KAOH AOH20160131131011801/31/16 13:10:31  5-MIN KAOH 311810Z AUTO 20016G24KT 10SM OVC023 12/08 A2962 1260 77 1300 200/16G24 RMK AO2 T01220083
04850KAOH AOH20160131131511801/31/16 13:15:31  5-MIN KAOH 311815Z AUTO 20016G24KT 10SM OVC023 12/08 A2961 1260 77 1300 200/16G24 RMK AO2 T01220083
04850KAOH AOH20160131132011801/31/16 13:20:31  5-MIN KAOH 311820Z AUTO 20014G23KT 10SM OVC023 12/08 A2962 1260 77 1300 210/14G23 RMK AO2 T01220083
04850KAOH AOH20160131132511801/31/16 13:25:31  5-MIN KAOH 311825Z AUTO 20014G22KT 10SM OVC023 12/08 A2961 1260 77 1300 200/14G22 RMK AO2 T01220083
04850KAOH AOH20160131133011801/31/16 13:30:31  5-MIN KAOH 311830Z AUTO 20013G22KT 10SM OVC023 12/08 A2961 1270 77 1300 210/13G22 RMK AO2 T01220083
04850KAOH AOH20160131133511801/31/16 13:35:31  5-MIN KAOH 311835Z AUTO 20014G22KT 10SM OVC023 12/08 A2961 1270 77 1300 200/14G22 RMK AO2 T01220083
04850KAOH AOH20160131134011801/31/16 13:40:31  5-MIN KAOH 311840Z AUTO 20015G21KT 10SM OVC023 12/08 A2960 1270 77 1300 210/15G21 RMK AO2 T01220083
04850KAOH AOH20160131134511801/31/16 13:45:31  5-MIN KAOH 311845Z AUTO 20013G21KT 10SM OVC023 12/08 A2960 1270 77 1300 210/13G21 RMK AO2 T01220083
04850KAOH AOH20160131135012501/31/16 13:50:31  5-MIN KAOH 311850Z AUTO 19012G21KT 10SM OVC023 12/08 A2959 1280 77 1300 200/12G21 RMK AO2 SLP022 T01220083
04850KAOH AOH20160131135511201/31/16 13:55:31  5-MIN KAOH 311855Z AUTO 20012KT 10SM OVC023 12/08 A2960 1280 77 1300 210/12 RMK AO2 T01220083
04850KAOH AOH20160131140011201/31/16 14:00:31  5-MIN KAOH 311900Z AUTO 20014KT 10SM OVC023 12/08 A2960 1280 77 1300 210/14 RMK AO2 T01220083
04850KAOH AOH20160131140511201/31/16 14:05:31  5-MIN KAOH 311905Z AUTO 20012KT 10SM OVC023 12/08 A2960 1280 77 1300 210/12 RMK AO2 T01220083
04850KAOH AOH20160131141011801/31/16 14:10:31  5-MIN KAOH 311910Z AUTO 20013G20KT 10SM OVC023 12/08 A2960 1280 77 1300 210/13G20 RMK AO2 T01220083
04850KAOH AOH20160131141511801/31/16 14:15:31  5-MIN KAOH 311915Z AUTO 20011G20KT 10SM OVC023 12/08 A2959 1280 77 1300 210/11G20 RMK AO2 T01220083
04850KAOH AOH20160131142011801/31/16 14:20:31  5-MIN KAOH 311920Z AUTO 20013G19KT 10SM OVC023 13/08 A2959 1290 74 1400 210/13G19 RMK AO2 T01280083
04850KAOH AOH20160131142511201/31/16 14:25:31  5-MIN KAOH 311925Z AUTO 20013KT 10SM OVC024 13/08 A2959 1290 74 1400 210/13 RMK AO2 T01280083
04850KAOH AOH20160131143011801/31/16 14:30:31  5-MIN KAOH 311930Z AUTO 20012G20KT 10SM OVC024 13/08 A2959 1290 74 1400 200/12G20 RMK AO2 T01280083
04850KAOH AOH20160131143511801/31/16 14:35:31  5-MIN KAOH 311935Z AUTO 20012G20KT 10SM OVC024 13/08 A2958 1290 74 1400 210/12G20 RMK AO2 T01280083
04850KAOH AOH20160131144011201/31/16 14:40:31  5-MIN KAOH 311940Z AUTO 20013KT 10SM OVC024 13/08 A2958 1290 74 1400 210/13 RMK AO2 T01280083
04850KAOH AOH20160131144511201/31/16 14:45:31  5-MIN KAOH 311945Z AUTO 20013KT 10SM OVC024 13/08 A2958 1290 74 1400 210/13 RMK AO2 T01280083
04850KAOH AOH20160131145011901/31/16 14:50:31  5-MIN KAOH 311950Z AUTO 20013KT 10SM OVC024 13/08 A2958 1290 74 1400 210/13 RMK AO2 SLP019 T01280083
04850KAOH AOH20160131145511201/31/16 14:55:31  5-MIN KAOH 311955Z AUTO 20014KT 10SM OVC024 13/08 A2959 1290 74 1400 210/14 RMK AO2 T01280083
04850KAOH AOH20160131150011801/31/16 15:00:31  5-MIN KAOH 312000Z AUTO 20015G23KT 10SM OVC024 13/08 A2959 1290 74 1400 210/15G23 RMK AO2 T01280083
04850KAOH AOH20160131150511801/31/16 15:05:31  5-MIN KAOH 312005Z AUTO 20014G23KT 10SM OVC027 13/08 A2959 1290 74 1400 210/14G23 RMK AO2 T01280083
04850KAOH AOH20160131151011801/31/16 15:10:31  5-MIN KAOH 312010Z AUTO 20017G24KT 10SM OVC027 13/08 A2959 1290 74 1400 210/17G24 RMK AO2 T01280083
04850KAOH AOH20160131151511801/31/16 15:15:31  5-MIN KAOH 312015Z AUTO 20016G24KT 10SM OVC027 13/08 A2959 1290 74 1400 210/16G24 RMK AO2 T01280083
04850KAOH AOH20160131152012501/31/16 15:20:31  5-MIN KAOH 312020Z AUTO 20015G22KT 10SM BKN027 OVC033 13/08 A2959 1290 74 1400 210/15G22 RMK AO2 T01280083
04850KAOH AOH20160131152513201/31/16 15:25:31  5-MIN KAOH 312025Z AUTO 20013G23KT 10SM BKN027 BKN035 OVC044 13/08 A2959 1290 74 1400 210/13G23 RMK AO2 T01280083
04850KAOH AOH20160131153013201/31/16 15:30:31  5-MIN KAOH 312030Z AUTO 20016G23KT 10SM BKN031 BKN037 OVC044 13/08 A2959 1290 74 1400 210/16G23 RMK AO2 T01280083
04850KAOH AOH20160131153512501/31/16 15:35:31  5-MIN KAOH 312035Z AUTO 20017G24KT 10SM FEW028 OVC033 13/08 A2958 1290 74 1400 200/17G24 RMK AO2 T01280083
04850KAOH AOH20160131154012501/31/16 15:40:31  5-MIN KAOH 312040Z AUTO 20012G24KT 10SM BKN033 OVC045 13/08 A2958 1290 74 1400 210/12G24 RMK AO2 T01280083
04850KAOH AOH20160131154511901/31/16 15:45:31  5-MIN KAOH 312045Z AUTO 20014KT 10SM SCT033 OVC045 13/08 A2958 1300 74 1400 200/14 RMK AO2 T01280083
04850KAOH AOH20160131155013801/31/16 15:50:31  5-MIN KAOH 312050Z AUTO 20014G23KT 10SM SCT033 OVC045 13/08 A2958 1290 74 1400 200/14G23 RMK AO2 SLP017 T01280083 58023
04850KAOH AOH20160131155512501/31/16 15:55:31  5-MIN KAOH 312055Z AUTO 20014G23KT 10SM FEW034 OVC045 13/08 A2958 1290 74 1400 200/14G23 RMK AO2 T01280083
04850KAOH AOH20160131160012501/31/16 16:00:31  5-MIN KAOH 312100Z AUTO 20014G22KT 10SM FEW034 OVC046 13/08 A2958 1300 74 1400 200/14G22 RMK AO2 T01280083
04850KAOH AOH20160131160511801/31/16 16:05:31  5-MIN KAOH 312105Z AUTO 20015G22KT 10SM OVC046 13/08 A2958 1300 74 1400 200/15G22 RMK AO2 T01280083
04850KAOH AOH20160131161011801/31/16 16:10:31  5-MIN KAOH 312110Z AUTO 20014G21KT 10SM OVC046 13/08 A2958 1290 74 1400 210/14G21 RMK AO2 T01280083
04850KAOH AOH20160131161511801/31/16 16:15:31  5-MIN KAOH 312115Z AUTO 20014G21KT 10SM OVC044 13/08 A2958 1290 74 1400 210/14G21 RMK AO2 T01280083
04850KAOH AOH20160131162011801/31/16 16:20:31  5-MIN KAOH 312120Z AUTO 20014G20KT 10SM OVC044 13/08 A2958 1290 74 1400 210/14G20 RMK AO2 T01280083
04850KAOH AOH20160131162511801/31/16 16:25:31  5-MIN KAOH 312125Z AUTO 20014G20KT 10SM OVC044 13/08 A2958 1290 74 1400 200/14G20 RMK AO2 T01280083
04850KAOH AOH20160131163011801/31/16 16:30:31  5-MIN KAOH 312130Z AUTO 20013G20KT 10SM OVC044 13/08 A2959 1290 74 1400 200/13G20 RMK AO2 T01280083
04850KAOH AOH20160131163511201/31/16 16:35:31  5-MIN KAOH 312135Z AUTO 20013KT 10SM OVC044 13/08 A2959 1290 74 1400 200/13 RMK AO2 T01280083
04850KAOH AOH20160131164011801/31/16 16:40:31  5-MIN KAOH 312140Z AUTO 20013G20KT 10SM OVC044 13/08 A2959 1290 74 1400 200/13G20 RMK AO2 T01280083
04850KAOH AOH20160131164511201/31/16 16:45:31  5-MIN KAOH 312145Z AUTO 20013KT 10SM OVC044 13/08 A2959 1280 74 1400 210/13 RMK AO2 T01280083
04850KAOH AOH20160131165012501/31/16 16:50:31  5-MIN KAOH 312150Z AUTO 20014G21KT 10SM OVC044 13/08 A2959 1280 74 1400 210/14G21 RMK AO2 SLP022 T01280083
04850KAOH AOH20160131165511801/31/16 16:55:31  5-MIN KAOH 312155Z AUTO 20012G21KT 10SM OVC044 13/08 A2960 1280 74 1400 210/12G21 RMK AO2 T01280083
04850KAOH AOH20160131170011201/31/16 17:00:31  5-MIN KAOH 312200Z AUTO 20013KT 10SM OVC044 13/08 A2960 1270 74 1300 210/13 RMK AO2 T01280083
04850KAOH AOH20160131170511201/31/16 17:05:31  5-MIN KAOH 312205Z AUTO 20013KT 10SM OVC046 13/08 A2961 1270 74 1300 200/13 RMK AO2 T01280083
04850KAOH AOH20160131171012601/31/16 17:10:31  5-MIN KAOH 312210Z AUTO 20011KT 10SM FEW038 BKN046 OVC055 13/08 A2961 1270 74 1300 210/11 RMK AO2 T01280083
04850KAOH AOH20160131171512601/31/16 17:15:31  5-MIN KAOH 312215Z AUTO 20014KT 10SM FEW038 BKN046 OVC055 13/08 A2961 1270 71 1400 200/14 RMK AO2 T01330083
04850KAOH AOH20160131172012501/31/16 17:20:31  5-MIN KAOH 312220Z AUTO 20013G21KT 10SM SCT046 OVC055 13/08 A2961 1270 74 1300 210/13G21 RMK AO2 T01280083
04850KAOH AOH20160131172513201/31/16 17:25:31  5-MIN KAOH 312225Z AUTO 20013G21KT 10SM FEW038 SCT045 OVC055 13/08 A2961 1270 71 1400 210/13G21 RMK AO2 T01330083
04850KAOH AOH20160131173011901/31/16 17:30:31  5-MIN KAOH 312230Z AUTO 20011KT 10SM SCT040 OVC050 13/08 A2961 1260 71 1400 210/11 RMK AO2 T01330083
04850KAOH AOH20160131173512501/31/16 17:35:31  5-MIN KAOH 312235Z AUTO 20015G19KT 10SM BKN041 OVC055 13/08 A2961 1260 71 1400 210/15G19 RMK AO2 T01330083
04850KAOH AOH20160131174013201/31/16 17:40:31  5-MIN KAOH 312240Z AUTO 20013G20KT 10SM SCT039 SCT047 OVC060 13/08 A2961 1260 71 1400 200/13G20 RMK AO2 T01330083
04850KAOH AOH20160131174513201/31/16 17:45:31  5-MIN KAOH 312245Z AUTO 20013G20KT 10SM SCT039 SCT047 OVC060 13/08 A2961 1260 71 1400 200/13G20 RMK AO2 T01330083
04850KAOH AOH20160131175013301/31/16 17:50:31  5-MIN KAOH 312250Z AUTO 20013KT 10SM FEW039 SCT045 OVC060 13/08 A2961 1260 71 1400 200/13 RMK AO2 SLP027 T01330083
04850KAOH AOH20160131175511901/31/16 17:55:31  5-MIN KAOH 312255Z AUTO 20011KT 10SM FEW039 OVC060 13/08 A2962 1260 74 1300 200/11 RMK AO2 T01280083
04850KAOH AOH20160131180011901/31/16 18:00:31  5-MIN KAOH 312300Z AUTO 20011KT 10SM FEW039 OVC060 13/08 A2962 1260 74 1300 210/11 RMK AO2 T01280083
04850KAOH AOH20160131180512501/31/16 18:05:31  5-MIN KAOH 312305Z AUTO 20012G18KT 10SM SCT039 OVC060 13/08 A2962 1260 74 1300 210/12G18 RMK AO2 T01280083
04850KAOH AOH20160131181011901/31/16 18:10:31  5-MIN KAOH 312310Z AUTO 19012KT 10SM FEW039 OVC060 13/08 A2961 1260 74 1300 200/12 RMK AO2 T01280083
04850KAOH AOH20160131181511901/31/16 18:15:31  5-MIN KAOH 312315Z AUTO 20012KT 10SM FEW039 OVC065 13/08 A2961 1260 74 1300 200/12 RMK AO2 T01280083
04850KAOH AOH20160131182011901/31/16 18:20:31  5-MIN KAOH 312320Z AUTO 20012KT 10SM FEW039 OVC065 13/08 A2962 1260 74 1300 200/12 RMK AO2 T01280083
04850KAOH AOH20160131182511901/31/16 18:25:31  5-MIN KAOH 312325Z AUTO 20011KT 10SM FEW039 OVC065 13/08 A2962 1260 74 1300 210/11 RMK AO2 T01280083
04850KAOH AOH20160131183011901/31/16 18:30:31  5-MIN KAOH 312330Z AUTO 20013KT 10SM FEW039 OVC065 13/08 A2962 1260 74 1300 210/13 RMK AO2 T01280083
04850KAOH AOH20160131183512601/31/16 18:35:31  5-MIN KAOH 312335Z AUTO 20011KT 10SM FEW037 SCT049 OVC065 13/08 A2962 1260 74 1300 210/11 RMK AO2 T01280083
04850KAOH AOH20160131184011901/31/16 18:40:31  5-MIN KAOH 312340Z AUTO 20013KT 10SM SCT049 OVC070 13/08 A2962 1260 74 1300 210/13 RMK AO2 T01280083
04850KAOH AOH20160131184512601/31/16 18:45:31  5-MIN KAOH 312345Z AUTO 20013KT 10SM FEW043 BKN049 OVC070 13/08 A2962 1260 74 1300 200/13 RMK AO2 T01280083
04850KAOH AOH20160131185015101/31/16 18:50:31  5-MIN KAOH 312350Z AUTO 20013KT 10SM FEW040 BKN049 OVC070 13/08 A2962 1260 74 1300 200/13 RMK AO2 SLP031 T01280083 10133 20122 56013
04850KAOH AOH20160131185513201/31/16 18:55:31  5-MIN KAOH 312355Z AUTO 20013G19KT 10SM FEW042 BKN049 OVC070 13/08 A2962 1260 74 1300 200/13G19 RMK AO2 T01280083
04850KAOH AOH20160131190012501/31/16 19:00:31  5-MIN KAOH 010000Z AUTO 20011G19KT 10SM FEW036 OVC049 13/08 A2962 1260 74 1300 210/11G19 RMK AO2 T01280083
04850KAOH AOH20160131190513201/31/16 19:05:31  5-MIN KAOH 010005Z AUTO 20015G21KT 10SM SCT040 BKN049 OVC070 13/08 A2962 1260 74 1300 210/15G21 RMK AO2 T01280083
04850KAOH AOH20160131191013201/31/16 19:10:31  5-MIN KAOH 010010Z AUTO 20012G21KT 10SM FEW035 BKN049 OVC070 13/08 A2962 1260 74 1300 210/12G21 RMK AO2 T01280083
04850KAOH AOH20160131191512601/31/16 19:15:31  5-MIN KAOH 010015Z AUTO 20013KT 10SM FEW038 BKN049 OVC070 13/08 A2962 1260 74 1300 210/13 RMK AO2 T01280083
04850KAOH AOH20160131192013201/31/16 19:20:31  5-MIN KAOH 010020Z AUTO 20015G21KT 10SM FEW038 SCT049 OVC075 13/08 A2962 1260 71 1400 210/15G21 RMK AO2 T01330083
04850KAOH AOH20160131192512601/31/16 19:25:31  5-MIN KAOH 010025Z AUTO 20015KT 10SM FEW038 FEW047 OVC070 13/08 A2962 1250 71 1400 210/15 RMK AO2 T01330083
04850KAOH AOH20160131193012501/31/16 19:30:31  5-MIN KAOH 010030Z AUTO 21013G21KT 10SM FEW043 OVC070 13/08 A2962 1250 71 1400 210/13G21 RMK AO2 T01330083
04850KAOH AOH20160131193511201/31/16 19:35:31  5-MIN KAOH 010035Z AUTO 21013KT 10SM OVC070 13/09 A2962 1250 74 1400 220/13 RMK AO2 T01330089
04850KAOH AOH20160131194011201/31/16 19:40:31  5-MIN KAOH 010040Z AUTO 21013KT 10SM OVC070 13/09 A2962 1250 74 1400 210/13 RMK AO2 T01330089
04850KAOH AOH20160131194511901/31/16 19:45:31  5-MIN KAOH 010045Z AUTO 21013KT 10SM FEW034 OVC070 13/09 A2963 1250 74 1400 220/13 RMK AO2 T01330089
04850KAOH AOH20160131195012601/31/16 19:50:31  5-MIN KAOH 010050Z AUTO 20013KT 10SM FEW034 OVC070 13/09 A2963 1250 74 1400 210/13 RMK AO2 SLP033 T01330089
04850KAOH AOH20160131195511801/31/16 19:55:31  5-MIN KAOH 010055Z AUTO 21013G21KT 10SM OVC070 13/09 A2963 1250 74 1400 210/13G21 RMK AO2 T01330089
04850KAOH AOH20160131200011801/31/16 20:00:31  5-MIN KAOH 010100Z AUTO 21014G21KT 10SM OVC070 13/09 A2962 1250 74 1400 210/14G21 RMK AO2 T01330089
04850KAOH AOH20160131200511201/31/16 20:05:31  5-MIN KAOH 010105Z AUTO 21014KT 10SM OVC070 13/09 A2962 1260 74 1400 210/14 RMK AO2 T01330089
04850KAOH AOH20160131201011801/31/16 20:10:31  5-MIN KAOH 010110Z AUTO 20012G19KT 10SM OVC075 13/09 A2962 1260 74 1400 210/12G19 RMK AO2 T01330089
04850KAOH AOH20160131201511801/31/16 20:15:31  5-MIN KAOH 010115Z AUTO 20013G19KT 10SM OVC075 13/09 A2962 1260 74 1400 210/13G19 RMK AO2 T01330089
04850KAOH AOH20160131202011801/31/16 20:20:31  5-MIN KAOH 010120Z AUTO 21014G22KT 10SM OVC080 13/09 A2962 1260 74 1400 220/14G22 RMK AO2 T01330089
04850KAOH AOH20160131202511801/31/16 20:25:31  5-MIN KAOH 010125Z AUTO 21012G22KT 10SM OVC080 13/09 A2962 1260 74 1400 220/12G22 RMK AO2 T01330089
04850KAOH AOH20160131203011801/31/16 20:30:31  5-MIN KAOH 010130Z AUTO 22014G20KT 10SM OVC080 13/09 A2962 1250 74 1400 220/14G20 RMK AO2 T01330089
04850KAOH AOH20160131203511201/31/16 20:35:31  5-MIN KAOH 010135Z AUTO 21014KT 10SM OVC080 13/09 A2962 1250 74 1400 220/14 RMK AO2 T01330089
04850KAOH AOH20160131204012501/31/16 20:40:31  5-MIN KAOH 010140Z AUTO 21012G20KT 10SM SCT070 OVC085 13/09 A2962 1250 74 1400 220/12G20 RMK AO2 T01330089
04850KAOH AOH20160131204511901/31/16 20:45:31  5-MIN KAOH 010145Z AUTO 21013KT 10SM BKN070 OVC085 13/09 A2963 1250 74 1400 220/13 RMK AO2 T01330089
04850KAOH AOH20160131205012601/31/16 20:50:31  5-MIN KAOH 010150Z AUTO 21012KT 10SM BKN065 OVC085 13/09 A2963 1250 74 1400 220/12 RMK AO2 SLP032 T01330089
04850KAOH AOH20160131205512601/31/16 20:55:31  5-MIN KAOH 010155Z AUTO 21012KT 10SM FEW044 BKN065 OVC080 13/09 A2962 1250 74 1400 220/12 RMK AO2 T01330089
04850KAOH AOH20160131210011901/31/16 21:00:31  5-MIN KAOH 010200Z AUTO 21012KT 10SM FEW044 OVC065 13/09 A2963 1250 77 1300 220/12 RMK AO2 T01280089
04850KAOH AOH20160131210512501/31/16 21:05:31  5-MIN KAOH 010205Z AUTO 21012G18KT 10SM FEW048 OVC065 13/09 A2963 1250 74 1400 220/12G18 RMK AO2 T01330089
04850KAOH AOH20160131211011201/31/16 21:10:31  5-MIN KAOH 010210Z AUTO 22014KT 10SM OVC060 13/09 A2963 1250 77 1300 220/14 RMK AO2 T01280089
04850KAOH AOH20160131211514101/31/16 21:15:31  5-MIN KAOH 010215Z AUTO 22014KT 9SM -RA FEW030 SCT045 OVC060 13/09 A2963 1250 77 1300 230/14 RMK AO2 RAB13 P0000 T01280089
04850KAOH AOH20160131212014101/31/16 21:20:31  5-MIN KAOH 010220Z AUTO 22013KT 8SM -RA FEW030 BKN055 OVC065 13/09 A2963 1250 77 1300 230/13 RMK AO2 RAB13 P0000 T01280089
04850KAOH AOH20160131212514201/31/16 21:25:31  5-MIN KAOH 010225Z AUTO 22014KT 10SM -RA FEW031 BKN055 OVC065 13/09 A2963 1250 77 1300 230/14 RMK AO2 RAB13 P0000 T01280089
04850KAOH AOH20160131213014201/31/16 21:30:31  5-MIN KAOH 010230Z AUTO 22012KT 10SM -RA FEW031 BKN047 OVC060 12/09 A2963 1250 80 1300 230/12 RMK AO2 RAB13 P0000 T01220089
04850KAOH AOH20160131213514201/31/16 21:35:31  5-MIN KAOH 010235Z AUTO 22011KT 10SM -RA FEW029 BKN044 OVC055 13/09 A2963 1240 77 1300 230/11 RMK AO2 RAB13 P0000 T01280089
04850KAOH AOH20160131214014201/31/16 21:40:31  5-MIN KAOH 010240Z AUTO 23015KT 10SM -RA FEW027 BKN044 OVC055 13/09 A2964 1240 77 1300 240/15 RMK AO2 RAB13 P0000 T01280089
04850KAOH AOH20160131214514101/31/16 21:45:31  5-MIN KAOH 010245Z AUTO 24015KT 9SM -RA SCT025 SCT032 OVC044 13/09 A2965 1230 80 1300 240/15 RMK AO2 RAB13 P0000 T01280094
04850KAOH AOH20160131215016701/31/16 21:50:31  5-MIN KAOH 010250Z AUTO 26015KT 7SM -RA FEW019 BKN033 OVC044 12/09 A2966 1220 83 1200 260/15 RMK AO2 RAB13 PRESRR SLP043 P0001 60001 T01220094 51014
04850KAOH AOH20160131215514501/31/16 21:55:31  5-MIN KAOH 010255Z AUTO 27017KT 5SM -RA BR FEW013 BKN019 OVC044 12/09 A2966 1210 86 1100 280/17 RMK AO2 PRESRR P0001 T01170094
04850KAOH AOH20160131220013801/31/16 22:00:31  5-MIN KAOH 010300Z AUTO 26016KT 4SM -RA BR FEW013 BKN019 OVC042 11/09 A2967 1210 89 1100 270/16 RMK AO2 P0002 T01110094
04850KAOH AOH20160131220514401/31/16 22:05:31  5-MIN KAOH 010305Z AUTO 26019G24KT 4SM -RA BR FEW011 BKN020 OVC025 11/09 A2967 1210 89 1100 270/19G24 RMK AO2 P0003 T01110094
04850KAOH AOH20160131221013701/31/16 22:10:31  5-MIN KAOH 010310Z AUTO 26016KT 4SM RA BR FEW011 BKN022 OVC031 11/09 A2968 1210 93 1000 270/16 RMK AO2 P0004 T01060094
04850KAOH AOH20160131221513801/31/16 22:15:31  5-MIN KAOH 010315Z AUTO 26016KT 4SM -RA BR SCT011 BKN020 OVC046 11/09 A2968 1200 93 1000 270/16 RMK AO2 P0004 T01060094
04850KAOH AOH20160131222013501/31/16 22:20:31  5-MIN KAOH 010320Z AUTO 26015KT 7SM -RA FEW010 BKN024 OVC048 11/09 A2968 1200 93 1000 270/15 RMK AO2 P0004 T01060094
04850KAOH AOH20160131222513401/31/16 22:25:31  5-MIN KAOH 010325Z AUTO 27015KT 9SM -RA FEW010 BKN028 OVC048 10/09 A2968 1200 93 900 270/15 RMK AO2 P0004 T01000089
04850KAOH AOH20160131223013501/31/16 22:30:31  5-MIN KAOH 010330Z AUTO 27014KT 10SM -RA FEW010 BKN028 OVC048 10/08 A2968 1200 89 900 280/14 RMK AO2 P0004 T01000083
04850KAOH AOH20160131223513701/31/16 22:35:31  5-MIN KAOH 010335Z AUTO 27015KT 10SM FEW010 FEW028 OVC048 10/08 A2968 1200 89 900 270/15 RMK AO2 RAE34 P0004 T01000083
04850KAOH AOH20160131224013001/31/16 22:40:31  5-MIN KAOH 010340Z AUTO 27017KT 10SM FEW028 OVC050 10/08 A2969 1190 86 900 270/17 RMK AO2 RAE34 P0004 T01000078
04850KAOH AOH20160131224513601/31/16 22:45:31  5-MIN KAOH 010345Z AUTO 27018G22KT 10SM FEW027 OVC050 09/08 A2969 1190 89 800 270/18G22 RMK AO2 RAE34 P0005 T00940078
04850KAOH AOH20160131225014401/31/16 22:50:31  5-MIN KAOH 010350Z AUTO 27018KT 10SM FEW014 FEW027 OVC050 09/08 A2970 1190 89 800 270/18 RMK AO2 RAE34 SLP057 P0005 T00940078
04850KAOH AOH20160131225511801/31/16 22:55:31  5-MIN KAOH 010355Z AUTO 26017KT 10SM FEW014 OVC050 09/08 A2970 1180 89 800 270/17 RMK AO2 T00940078
04850KAOH AOH20160131230011801/31/16 23:00:31  5-MIN KAOH 010400Z AUTO 27016KT 10SM FEW014 OVC055 09/08 A2970 1180 89 800 280/16 RMK AO2 T00940078
04850KAOH AOH20160131230511801/31/16 23:05:31  5-MIN KAOH 010405Z AUTO 27017KT 10SM FEW014 OVC055 09/08 A2970 1180 89 800 270/17 RMK AO2 T00940078
04850KAOH AOH20160131231011801/31/16 23:10:31  5-MIN KAOH 010410Z AUTO 27015KT 10SM FEW014 OVC055 09/07 A2970 1180 89 800 270/15 RMK AO2 T00890072
04850KAOH AOH20160131231511801/31/16 23:15:31  5-MIN KAOH 010415Z AUTO 27018KT 10SM SCT014 OVC060 09/07 A2971 1180 89 800 270/18 RMK AO2 T00890072
04850KAOH AOH20160131232012401/31/16 23:20:31  5-MIN KAOH 010420Z AUTO 27019G24KT 10SM SCT013 OVC060 09/07 A2971 1170 89 800 270/19G24 RMK AO2 T00890072
04850KAOH AOH20160131232511801/31/16 23:25:31  5-MIN KAOH 010425Z AUTO 27017KT 10SM FEW013 OVC060 09/07 A2971 1170 89 800 270/17 RMK AO2 T00890072
04850KAOH AOH20160131233012401/31/16 23:30:31  5-MIN KAOH 010430Z AUTO 27017G23KT 10SM FEW013 OVC060 09/07 A2971 1170 89 800 270/17G23 RMK AO2 T00890072
04850KAOH AOH20160131233512401/31/16 23:35:31  5-MIN KAOH 010435Z AUTO 27019G23KT 10SM SCT013 OVC060 09/07 A2971 1170 86 800 270/19G23 RMK AO2 T00890067
04850KAOH AOH20160131234011801/31/16 23:40:31  5-MIN KAOH 010440Z AUTO 27017KT 10SM SCT013 OVC065 09/07 A2971 1170 86 800 280/17 RMK AO2 T00890067
04850KAOH AOH20160131234511801/31/16 23:45:31  5-MIN KAOH 010445Z AUTO 27017KT 10SM SCT013 OVC065 09/07 A2972 1160 86 700 280/17 RMK AO2 T00890067
04850KAOH AOH20160131235011401/31/16 23:50:31  5-MIN KAOH 010450Z AUTO 28018G24KT 10SM BKN015 OVC065 08/07 A2973 1160 89 700 280/18G24 RMK AO2
04850KAOH AOH20160131235512401/31/16 23:55:31  5-MIN KAOH 010455Z AUTO 28014G24KT 10SM BKN015 OVC065 08/07 A2973 1160 89 700 290/14G24 RMK AO2 T00830067
