63870K0J4 0J420161201000010912/01/16 00:00:31  5-MIN K0J4 010500Z AUTO 00000KT 10SM CLR 14/10 A2998 260 77 200 000/00 RMK AO2 T01390100 $
63870K0J4 0J420161201000510912/01/16 00:05:31  5-MIN K0J4 010505Z AUTO 00000KT 10SM CLR 14/10 A2999 250 77 200 000/00 RMK AO2 T01390100 $
63870K0J4 0J420161201001010912/01/16 00:10:31  5-MIN K0J4 010510Z AUTO 00000KT 10SM CLR 14/10 A2999 250 77 200 000/00 RMK AO2 T01390100 $
63870K0J4 0J420161201001510912/01/16 00:15:31  5-MIN K0J4 010515Z AUTO 00000KT 10SM CLR 14/10 A2999 250 77 200 000/00 RMK AO2 T01390100 $
63870K0J4 0J420161201002010912/01/16 00:20:31  5-MIN K0J4 010520Z AUTO 00000KT 10SM CLR 14/10 A2999 250 77 200 000/00 RMK AO2 T01390100 $
63870K0J4 0J420161201002510912/01/16 00:25:31  5-MIN K0J4 010525Z AUTO 00000KT 10SM CLR 14/11 A2999 250 80 200 000/00 RMK AO2 T01390106 $
63870K0J4 0J420161201003010912/01/16 00:30:31  5-MIN K0J4 010530Z AUTO 00000KT 10SM CLR 13/10 A2999 250 80 100 000/00 RMK AO2 T01330100 $
63870K0J4 0J420161201003510912/01/16 00:35:31  5-MIN K0J4 010535Z AUTO 32003KT 10SM CLR 13/09 A2999 250 77 100 320/03 RMK AO2 T01330094 $
63870K0J4 0J420161201004010912/01/16 00:40:31  5-MIN K0J4 010540Z AUTO 33003KT 10SM CLR 13/09 A3000 250 74 100 330/03 RMK AO2 T01330089 $
63870K0J4 0J420161201004510912/01/16 00:45:31  5-MIN K0J4 010545Z AUTO VRB03KT 10SM CLR 13/08 A3000 250 71 100 VRB/03 RMK AO2 T01330083 $
63870K0J4 0J420161201005010912/01/16 00:50:31  5-MIN K0J4 010550Z AUTO 33004KT 10SM CLR 13/08 A3000 250 71 100 330/04 RMK AO2 T01330083 $
63870K0J4 0J420161201005513912/01/16 00:55:31  5-MIN K0J4 010555Z AUTO 34003KT 10SM CLR 13/08 A3000 250 71 100 340/03 RMK AO2 SLPNO 60000 T01330083 10183 20133 53013 $
63870K0J4 0J420161201010010912/01/16 01:00:31  5-MIN K0J4 010600Z AUTO 00000KT 10SM CLR 13/08 A3000 250 71 100 000/00 RMK AO2 T01330083 $
63870K0J4 0J420161201010510912/01/16 01:05:31  5-MIN K0J4 010605Z AUTO 00000KT 10SM CLR 13/08 A2999 250 74 100 000/00 RMK AO2 T01280083 $
63870K0J4 0J420161201011010912/01/16 01:10:31  5-MIN K0J4 010610Z AUTO VRB03KT 10SM CLR 13/08 A2999 250 71 100 VRB/03 RMK AO2 T01280078 $
63870K0J4 0J420161201011510912/01/16 01:15:31  5-MIN K0J4 010615Z AUTO VRB03KT 10SM CLR 13/08 A2999 250 69 100 VRB/03 RMK AO2 T01330078 $
63870K0J4 0J420161201012010912/01/16 01:20:31  5-MIN K0J4 010620Z AUTO 00000KT 10SM CLR 13/08 A2999 250 71 100 000/00 RMK AO2 T01280078 $
63870K0J4 0J420161201111511512/01/16 11:15:31  5-MIN K0J4 011615Z AUTO 02011G17KT 10SM CLR 17/01 A3013 130 33 400 020/11G17 RMK AO2 T01670006 $
63870K0J4 0J420161201112011512/01/16 11:20:31  5-MIN K0J4 011620Z AUTO 02011G17KT 10SM CLR 17/00 A3013 130 32 400 020/11G17 RMK AO2 T01670000 $
63870K0J4 0J420161201112510912/01/16 11:25:31  5-MIN K0J4 011625Z AUTO 36009KT 10SM CLR 17/00 A3013 120 32 400 360/09 RMK AO2 T01670000 $
63870K0J4 0J420161201113011512/01/16 11:30:31  5-MIN K0J4 011630Z AUTO 36007G15KT 10SM CLR 17/00 A3013 130 32 400 360/07G15 RMK AO2 T01670000 $
63870K0J4 0J420161201113511512/01/16 11:35:31  5-MIN K0J4 011635Z AUTO 01007G15KT 10SM CLR 17/00 A3012 130 32 400 010/07G15 RMK AO2 T01670000 $
63870K0J4 0J420161201114010912/01/16 11:40:31  5-MIN K0J4 011640Z AUTO 36008KT 10SM CLR 17/00 A3012 130 31 500 360/08 RMK AO2 T01720000 $
63870K0J4 0J420161201114510912/01/16 11:45:31  5-MIN K0J4 011645Z AUTO 03006KT 10SM CLR 18/00 A3012 140 30 500 030/06 RMK AO2 T01780000 $
63870K0J4 0J420161201115010912/01/16 11:50:31  5-MIN K0J4 011650Z AUTO 36010KT 10SM CLR 18/01 A3011 140 31 500 360/10 RMK AO2 T01780006 $
63870K0J4 0J420161201115511612/01/16 11:55:31  5-MIN K0J4 011655Z AUTO 02007KT 10SM CLR 18/01 A3011 140 31 500 020/07 RMK AO2 SLP194 T01780006 $
63870K0J4 0J420161201120010912/01/16 12:00:31  5-MIN K0J4 011700Z AUTO 03010KT 10SM CLR 18/01 A3011 140 30 600 030/10 RMK AO2 T01830006 $
63870K0J4 0J420161201120510912/01/16 12:05:31  5-MIN K0J4 011705Z AUTO 01008KT 10SM CLR 18/00 A3011 140 29 600 010/08 RMK AO2 T01830000 $
63870K0J4 0J420161201121010912/01/16 12:10:31  5-MIN K0J4 011710Z AUTO VRB05KT 10SM CLR 18/00 A3011 140 30 500 VRB/05 RMK AO2 T01780000 $
63870K0J4 0J420161201121510912/01/16 12:15:31  5-MIN K0J4 011715Z AUTO 01007KT 10SM CLR 19/01 A3010 150 29 700 010/07 RMK AO2 T01890006 $
63870K0J4 0J420161201122010912/01/16 12:20:31  5-MIN K0J4 011720Z AUTO 01009KT 10SM CLR 19/01 A3011 150 29 700 010/09 RMK AO2 T01890006 $
63870K0J4 0J420161201122510912/01/16 12:25:31  5-MIN K0J4 011725Z AUTO 36005KT 10SM CLR 19/00 A3011 150 28 700 360/05 RMK AO2 T01890000 $
63870K0J4 0J420161201123010912/01/16 12:30:31  5-MIN K0J4 011730Z AUTO 35007KT 10SM CLR 19/01 A3011 150 29 700 350/07 RMK AO2 T01890006 $
63870K0J4 0J420161201124509512/01/16 12:45:31  5-MIN K0J4 011745Z AUTO 34007KT 300V030 A3010 M M M 340/07 300V030 RMK AO2 $
63870K0J4 0J420161201125010612/01/16 12:50:31  5-MIN K0J4 011750Z AUTO 01007KT 16/01 A3009 160 36 300 010/07 RMK AO2 T01560006 PWINO $
63870K0J4 0J420161201125513612/01/16 12:55:31  5-MIN K0J4 011755Z AUTO 01009KT 10SM 16/01 A3009 160 34 400 010/09 RMK AO2 SLP187 60000 T01610006 10189 20056 PWINO $
63870K0J4 0J420161201130011512/01/16 13:00:31  5-MIN K0J4 011800Z AUTO 01008KT 10SM -RA 16/01 A3009 160 34 400 010/08 RMK AO2 P0000 T01610006 $
63870K0J4 0J420161201130512312/01/16 13:05:31  5-MIN K0J4 011805Z AUTO 02008KT 10SM 16/01 A3009 160 34 400 020/08 RMK AO2 RAEMM P0000 T01610006 PWINO $
63870K0J4 0J420161201131011812/01/16 13:10:31  5-MIN K0J4 011810Z AUTO 02009KT 16/01 A3009 160 36 400 020/09 RMK AO2 RAEMM P0000 T01610011 PWINO $
63870K0J4 0J420161201131512212/01/16 13:15:31  5-MIN K0J4 011815Z AUTO VRB05KT CLR 16/01 A3009 160 36 400 VRB/05 RMK AO2 RAEMM P0000 T01610011 PWINO $
63870K0J4 0J420161201132012212/01/16 13:20:31  5-MIN K0J4 011820Z AUTO 35005KT CLR 16/01 A3009 160 34 400 350/05 RMK AO2 RAEMM P0000 T01610006 PWINO $
63870K0J4 0J420161201132512212/01/16 13:25:31  5-MIN K0J4 011825Z AUTO 01008KT CLR 16/01 A3009 160 34 400 010/08 RMK AO2 RAEMM P0000 T01610006 PWINO $
63870K0J4 0J420161201133012112/01/16 13:30:31  5-MIN K0J4 011830Z AUTO 36007KT 10SM CLR 16/01 A3008 160 34 400 360/07 RMK AO2 RAEMM P0000 T01610006 $
63870K0J4 0J420161201133512212/01/16 13:35:31  5-MIN K0J4 011835Z AUTO 36009G15KT CLR 17/01 A3009 160 34 400 360/09G15 RMK AO2 RAEMM P0000 T01670011 $
63870K0J4 0J420161201134012212/01/16 13:40:31  5-MIN K0J4 011840Z AUTO VRB06G15KT CLR 16/01 A3008 170 34 400 VRB/06G15 RMK AO2 RAEMM P0000 T01610006 $
63870K0J4 0J420161201134510612/01/16 13:45:31  5-MIN K0J4 011845Z AUTO CLR 17/01 A3008 170 33 400 M /M RMK AO2 RAEMM P0000 T01670006 $
63870K0J4 0J420161201135011612/01/16 13:50:31  5-MIN K0J4 011850Z AUTO 36006KT CLR 17/01 A3008 170 33 400 360/06 RMK AO2 RAEMM P0000 T01670006 $
63870K0J4 0J420161201135512312/01/16 13:55:31  5-MIN K0J4 011855Z AUTO 36008KT CLR 16/01 A3008 170 34 400 360/08 RMK AO2 RAEMM SLP185 P0000 T01610006 $
63870K0J4 0J420161201140009812/01/16 14:00:31  5-MIN K0J4 011900Z AUTO 9SM CLR 16/01 A3008 170 34 400 M /M RMK AO2 T01610006 $
63870K0J4 0J420161201140509912/01/16 14:05:31  5-MIN K0J4 011905Z AUTO 10SM CLR 17/01 A3008 170 34 400 M /M RMK AO2 T01670011 $
63870K0J4 0J420161201141009912/01/16 14:10:31  5-MIN K0J4 011910Z AUTO 10SM CLR 17/01 A3008 170 33 500 M /M RMK AO2 T01720011 $
63870K0J4 0J420161201141509912/01/16 14:15:31  5-MIN K0J4 011915Z AUTO 10SM CLR 17/01 A3008 170 34 400 M /M RMK AO2 T01670011 $
63870K0J4 0J420161201142009712/01/16 14:20:31  5-MIN K0J4 011920Z AUTO 10SM CLR 17/01 A3008 170 34 400 M /M RMK AO2 T01670011
63870K0J4 0J420161201142510712/01/16 14:25:31  5-MIN K0J4 011925Z AUTO VRB05KT 10SM CLR 17/01 A3008 170 34 400 VRB/05 RMK AO2 T01670011
63870K0J4 0J420161201143010712/01/16 14:30:31  5-MIN K0J4 011930Z AUTO VRB05KT 10SM CLR 17/01 A3008 170 34 400 VRB/05 RMK AO2 T01670011
63870K0J4 0J420161201143512512/01/16 14:35:31  5-MIN K0J4 011935Z AUTO VRB03KT 10SM -RA CLR 17/02 A3007 180 35 500 VRB/03 RMK AO2 RAB34 P0000 T01720017 $
63870K0J4 0J420161201144012312/01/16 14:40:31  5-MIN K0J4 011940Z AUTO 02007KT 10SM -RA CLR 17/01 A3007 180 33 500 020/07 RMK AO2 RAB34 P0000 T01720011
63870K0J4 0J420161201144512412/01/16 14:45:31  5-MIN K0J4 011945Z AUTO 36007KT 10SM CLR 17/01 A3007 180 33 500 360/07 RMK AO2 RAB34E44 P0000 T01720011 $
63870K0J4 0J420161201145012412/01/16 14:50:31  5-MIN K0J4 011950Z AUTO VRB03KT 10SM CLR 17/01 A3007 180 32 500 VRB/03 RMK AO2 RAB34E44 P0000 T01720006 $
63870K0J4 0J420161201145514712/01/16 14:55:31  5-MIN K0J4 011955Z AUTO 01008KT 310V040 10SM CLR 17/01 A3006 180 32 500 010/08 310V040 RMK AO2 RAB34E44 SLP179 P0000 T01720006 $
63870K0J4 0J420161201150010912/01/16 15:00:31  5-MIN K0J4 012000Z AUTO VRB06KT 10SM CLR 17/01 A3007 180 33 500 VRB/06 RMK AO2 T01670006 $
63870K0J4 0J420161201150510912/01/16 15:05:31  5-MIN K0J4 012005Z AUTO 36008KT 10SM CLR 17/01 A3007 180 33 500 360/08 RMK AO2 T01670006 $
63870K0J4 0J420161201151010912/01/16 15:10:31  5-MIN K0J4 012010Z AUTO 36008KT 10SM CLR 17/01 A3007 180 33 500 360/08 RMK AO2 T01670006 $
63870K0J4 0J420161201151512512/01/16 15:15:31  5-MIN K0J4 012015Z AUTO 35007KT 320V030 10SM CLR 17/01 A3006 180 33 500 350/07 320V030 RMK AO2 T01670006 $
63870K0J4 0J420161201152010912/01/16 15:20:31  5-MIN K0J4 012020Z AUTO VRB06KT 10SM CLR 17/01 A3006 190 33 500 VRB/06 RMK AO2 T01670006 $
63870K0J4 0J420161201152510912/01/16 15:25:31  5-MIN K0J4 012025Z AUTO 02007KT 10SM CLR 17/00 A3006 180 32 500 020/07 RMK AO2 T01670000 $
63870K0J4 0J420161201153010912/01/16 15:30:31  5-MIN K0J4 012030Z AUTO 01007KT 10SM CLR 17/01 A3006 180 33 500 010/07 RMK AO2 T01670006 $
63870K0J4 0J420161201153510912/01/16 15:35:31  5-MIN K0J4 012035Z AUTO VRB06KT 10SM CLR 17/00 A3006 180 32 500 VRB/06 RMK AO2 T01670000 $
63870K0J4 0J420161201154010912/01/16 15:40:31  5-MIN K0J4 012040Z AUTO 36006KT 10SM CLR 17/01 A3006 180 33 500 360/06 RMK AO2 T01670006 $
63870K0J4 0J420161201154510912/01/16 15:45:31  5-MIN K0J4 012045Z AUTO 34005KT 10SM CLR 17/00 A3006 180 32 500 340/05 RMK AO2 T01670000 $
63870K0J4 0J420161201155010912/01/16 15:50:31  5-MIN K0J4 012050Z AUTO VRB04KT 10SM CLR 17/01 A3006 180 33 500 VRB/04 RMK AO2 T01670006 $
63870K0J4 0J420161201155512212/01/16 15:55:31  5-MIN K0J4 012055Z AUTO VRB05KT 10SM CLR 17/01 A3006 180 34 500 VRB/05 RMK AO2 SLP179 60000 T01670011 $
63870K0J4 0J420161201160010912/01/16 16:00:31  5-MIN K0J4 012100Z AUTO 01007KT 10SM CLR 17/01 A3007 180 33 500 010/07 RMK AO2 T01670006 $
63870K0J4 0J420161201160510912/01/16 16:05:31  5-MIN K0J4 012105Z AUTO 01005KT 10SM CLR 17/01 A3007 180 33 500 010/05 RMK AO2 T01670006 $
63870K0J4 0J420161201161012512/01/16 16:10:31  5-MIN K0J4 012110Z AUTO 01004KT 10SM -RA CLR 17/01 A3007 180 33 500 010/04 RMK AO2 RAB08 P0000 T01670006 $
63870K0J4 0J420161201161512412/01/16 16:15:31  5-MIN K0J4 012115Z AUTO 35004KT 10SM CLR 17/01 A3007 180 32 500 350/04 RMK AO2 RAB08E14 P0000 T01720006 $
63870K0J4 0J420161201162012412/01/16 16:20:31  5-MIN K0J4 012120Z AUTO 02005KT 10SM CLR 17/01 A3007 180 33 500 020/05 RMK AO2 RAB08E14 P0000 T01670006 $
63870K0J4 0J420161201162512412/01/16 16:25:31  5-MIN K0J4 012125Z AUTO 01005KT 10SM CLR 17/01 A3007 180 34 500 010/05 RMK AO2 RAB08E14 P0000 T01670011 $
63870K0J4 0J420161201163012412/01/16 16:30:31  5-MIN K0J4 012130Z AUTO 36003KT 10SM CLR 17/01 A3007 180 33 500 360/03 RMK AO2 RAB08E14 P0000 T01670006 $
63870K0J4 0J420161201163512412/01/16 16:35:31  5-MIN K0J4 012135Z AUTO 35003KT 10SM CLR 17/01 A3007 180 33 500 350/03 RMK AO2 RAB08E14 P0000 T01670006 $
63870K0J4 0J420161201164012412/01/16 16:40:31  5-MIN K0J4 012140Z AUTO 34004KT 10SM CLR 16/01 A3007 180 34 400 340/04 RMK AO2 RAB08E14 P0000 T01610006 $
63870K0J4 0J420161201164512412/01/16 16:45:31  5-MIN K0J4 012145Z AUTO VRB03KT 10SM CLR 16/01 A3007 180 34 400 VRB/03 RMK AO2 RAB08E14 P0000 T01610006 $
63870K0J4 0J420161201165012412/01/16 16:50:31  5-MIN K0J4 012150Z AUTO 34003KT 10SM CLR 16/01 A3008 170 34 400 340/03 RMK AO2 RAB08E14 P0000 T01610006 $
63870K0J4 0J420161201165513112/01/16 16:55:31  5-MIN K0J4 012155Z AUTO VRB04KT 10SM CLR 16/01 A3008 170 37 300 VRB/04 RMK AO2 RAB08E14 SLP183 P0000 T01560011 $
63870K0J4 0J420161201170010912/01/16 17:00:31  5-MIN K0J4 012200Z AUTO 00000KT 10SM CLR 16/01 A3008 170 37 300 000/00 RMK AO2 T01560011 $
63870K0J4 0J420161201170510912/01/16 17:05:31  5-MIN K0J4 012205Z AUTO 36003KT 10SM CLR 15/01 A3008 170 38 200 360/03 RMK AO2 T01500011 $
63870K0J4 0J420161201171010912/01/16 17:10:31  5-MIN K0J4 012210Z AUTO 34004KT 10SM CLR 15/01 A3009 160 38 200 340/04 RMK AO2 T01500011 $
63870K0J4 0J420161201171510912/01/16 17:15:31  5-MIN K0J4 012215Z AUTO 00000KT 10SM CLR 15/01 A3009 160 38 200 000/00 RMK AO2 T01500011 $
63870K0J4 0J420161201172010912/01/16 17:20:31  5-MIN K0J4 012220Z AUTO 00000KT 10SM CLR 14/01 A3009 160 40 200 000/00 RMK AO2 T01440011 $
63870K0J4 0J420161201172510912/01/16 17:25:31  5-MIN K0J4 012225Z AUTO VRB03KT 10SM CLR 14/01 A3009 160 41 100 VRB/03 RMK AO2 T01390011 $
63870K0J4 0J420161201173010912/01/16 17:30:31  5-MIN K0J4 012230Z AUTO 00000KT 10SM CLR 14/02 A3008 160 43 100 000/00 RMK AO2 T01390017 $
63870K0J4 0J420161201173510712/01/16 17:35:31  5-MIN K0J4 012235Z AUTO 00000KT 10SM CLR 13/02 A3008 170 45 0 000/00 RMK AO2 T01330017 $
63870K0J4 0J420161201174010712/01/16 17:40:31  5-MIN K0J4 012240Z AUTO 00000KT 10SM CLR 13/02 A3008 170 48 0 000/00 RMK AO2 T01280022 $
63870K0J4 0J420161201174510712/01/16 17:45:31  5-MIN K0J4 012245Z AUTO 00000KT 10SM CLR 12/03 A3008 170 52 0 000/00 RMK AO2 T01220028 $
63870K0J4 0J420161201175010712/01/16 17:50:31  5-MIN K0J4 012250Z AUTO 00000KT 10SM CLR 12/02 A3008 160 50 0 000/00 RMK AO2 T01220022 $
63870K0J4 0J420161201175511412/01/16 17:55:31  5-MIN K0J4 012255Z AUTO 34003KT 10SM CLR 12/02 A3009 160 48 0 340/03 RMK AO2 SLP186 T01220017 $
63870K0J4 0J420161201180011012/01/16 18:00:31  5-MIN K0J4 012300Z AUTO 00000KT 10SM CLR 12/03 A3009 160 54 -100 000/00 RMK AO2 T01170028 $
63870K0J4 0J420161201180511012/01/16 18:05:31  5-MIN K0J4 012305Z AUTO 00000KT 10SM CLR 11/04 A3009 160 63 -200 000/00 RMK AO2 T01060039 $
63870K0J4 0J420161201181011012/01/16 18:10:31  5-MIN K0J4 012310Z AUTO 00000KT 10SM CLR 10/04 A3010 150 65 -300 000/00 RMK AO2 T01000039 $
63870K0J4 0J420161201181511012/01/16 18:15:31  5-MIN K0J4 012315Z AUTO 00000KT 10SM CLR 10/04 A3010 150 65 -300 000/00 RMK AO2 T01000039 $
63870K0J4 0J420161201182011012/01/16 18:20:31  5-MIN K0J4 012320Z AUTO 00000KT 10SM CLR 09/04 A3010 150 71 -400 000/00 RMK AO2 T00940044 $
63870K0J4 0J420161201182511012/01/16 18:25:31  5-MIN K0J4 012325Z AUTO 00000KT 10SM CLR 10/04 A3010 150 65 -300 000/00 RMK AO2 T01000039 $
63870K0J4 0J420161201183011012/01/16 18:30:31  5-MIN K0J4 012330Z AUTO 00000KT 10SM CLR 09/04 A3010 150 71 -500 000/00 RMK AO2 T00890039 $
63870K0J4 0J420161201183511012/01/16 18:35:31  5-MIN K0J4 012335Z AUTO 00000KT 10SM CLR 09/04 A3010 150 68 -400 000/00 RMK AO2 T00940039 $
63870K0J4 0J420161201184011012/01/16 18:40:31  5-MIN K0J4 012340Z AUTO 00000KT 10SM CLR 08/04 A3010 150 76 -600 000/00 RMK AO2 T00780039 $
63870K0J4 0J420161201184511012/01/16 18:45:31  5-MIN K0J4 012345Z AUTO 00000KT 10SM CLR 08/04 A3010 150 73 -500 000/00 RMK AO2 T00830039 $
63870K0J4 0J420161201185011012/01/16 18:50:31  5-MIN K0J4 012350Z AUTO 00000KT 10SM CLR 09/04 A3010 150 71 -500 000/00 RMK AO2 T00890039 $
63870K0J4 0J420161201185514112/01/16 18:55:31  5-MIN K0J4 012355Z AUTO 01003KT 10SM CLR 08/04 A3010 150 73 -500 010/03 RMK AO2 SLP191 60000 T00830039 10172 20078 56009 $
63870K0J4 0J420161201190011012/01/16 19:00:31  5-MIN K0J4 020000Z AUTO 00000KT 10SM CLR 08/04 A3010 150 73 -500 000/00 RMK AO2 T00830039 $
63870K0J4 0J420161201190511012/01/16 19:05:31  5-MIN K0J4 020005Z AUTO 00000KT 10SM CLR 08/04 A3010 150 73 -500 000/00 RMK AO2 T00830039 $
63870K0J4 0J420161201191011012/01/16 19:10:31  5-MIN K0J4 020010Z AUTO 00000KT 10SM CLR 09/04 A3011 140 71 -500 000/00 RMK AO2 T00890039 $
63870K0J4 0J420161201191511012/01/16 19:15:31  5-MIN K0J4 020015Z AUTO 00000KT 10SM CLR 08/04 A3011 140 73 -500 000/00 RMK AO2 T00830039 $
63870K0J4 0J420161201192011012/01/16 19:20:31  5-MIN K0J4 020020Z AUTO 00000KT 10SM CLR 09/04 A3011 140 71 -500 000/00 RMK AO2 T00890039 $
63870K0J4 0J420161201192511012/01/16 19:25:31  5-MIN K0J4 020025Z AUTO 00000KT 10SM CLR 08/04 A3011 140 76 -600 000/00 RMK AO2 T00780039 $
63870K0J4 0J420161201193011012/01/16 19:30:31  5-MIN K0J4 020030Z AUTO 00000KT 10SM CLR 08/04 A3011 140 79 -600 000/00 RMK AO2 T00780044 $
63870K0J4 0J420161201193511012/01/16 19:35:31  5-MIN K0J4 020035Z AUTO 00000KT 10SM CLR 07/04 A3011 140 82 -700 000/00 RMK AO2 T00670039 $
63870K0J4 0J420161201194011012/01/16 19:40:31  5-MIN K0J4 020040Z AUTO 00000KT 10SM CLR 07/04 A3011 140 79 -700 000/00 RMK AO2 T00720039 $
63870K0J4 0J420161201194511012/01/16 19:45:31  5-MIN K0J4 020045Z AUTO 00000KT 10SM CLR 07/04 A3012 140 82 -700 000/00 RMK AO2 T00720044 $
63870K0J4 0J420161201195011012/01/16 19:50:31  5-MIN K0J4 020050Z AUTO 00000KT 10SM CLR 07/04 A3012 140 82 -700 000/00 RMK AO2 T00670039 $
63870K0J4 0J420161201195511712/01/16 19:55:31  5-MIN K0J4 020055Z AUTO 00000KT 10SM CLR 07/04 A3012 130 82 -700 000/00 RMK AO2 SLP198 T00670039 $
63870K0J4 0J420161201200011012/01/16 20:00:31  5-MIN K0J4 020100Z AUTO 00000KT 10SM CLR 07/04 A3012 130 82 -800 000/00 RMK AO2 T00670039 $
63870K0J4 0J420161201200511012/01/16 20:05:31  5-MIN K0J4 020105Z AUTO 00000KT 10SM CLR 07/04 A3012 130 82 -700 000/00 RMK AO2 T00720044 $
63870K0J4 0J420161201201011012/01/16 20:10:31  5-MIN K0J4 020110Z AUTO 00000KT 10SM CLR 06/04 A3012 140 86 -800 000/00 RMK AO2 T00610039 $
63870K0J4 0J420161201201511012/01/16 20:15:31  5-MIN K0J4 020115Z AUTO 00000KT 10SM CLR 06/03 A3012 140 85 -900 000/00 RMK AO2 T00560033 $
63870K0J4 0J420161201202011012/01/16 20:20:31  5-MIN K0J4 020120Z AUTO 00000KT 10SM CLR 06/03 A3012 130 82 -800 000/00 RMK AO2 T00610033 $
63870K0J4 0J420161201202511012/01/16 20:25:31  5-MIN K0J4 020125Z AUTO 00000KT 10SM CLR 07/03 A3012 140 79 -700 000/00 RMK AO2 T00670033 $
63870K0J4 0J420161201203011012/01/16 20:30:31  5-MIN K0J4 020130Z AUTO 00000KT 10SM CLR 07/04 A3012 130 82 -700 000/00 RMK AO2 T00670039 $
63870K0J4 0J420161201203511012/01/16 20:35:31  5-MIN K0J4 020135Z AUTO 00000KT 10SM CLR 06/03 A3012 130 82 -800 000/00 RMK AO2 T00610033 $
63870K0J4 0J420161201204011012/01/16 20:40:31  5-MIN K0J4 020140Z AUTO 00000KT 10SM CLR 06/03 A3013 130 82 -800 000/00 RMK AO2 T00610033 $
63870K0J4 0J420161201204511012/01/16 20:45:31  5-MIN K0J4 020145Z AUTO 00000KT 10SM CLR 06/03 A3012 130 85 -900 000/00 RMK AO2 T00560033 $
63870K0J4 0J420161201205011012/01/16 20:50:31  5-MIN K0J4 020150Z AUTO 00000KT 10SM CLR 06/03 A3012 130 82 -900 000/00 RMK AO2 T00560028 $
63870K0J4 0J420161201205511712/01/16 20:55:31  5-MIN K0J4 020155Z AUTO 00000KT 10SM CLR 06/03 A3012 130 82 -900 000/00 RMK AO2 SLP200 T00560028 $
63870K0J4 0J420161201210011012/01/16 21:00:31  5-MIN K0J4 020200Z AUTO 00000KT 10SM CLR 06/03 A3012 130 82 -900 000/00 RMK AO2 T00560028 $
63870K0J4 0J420161201210511012/01/16 21:05:31  5-MIN K0J4 020205Z AUTO 00000KT 10SM CLR 06/03 A3012 130 82 -900 000/00 RMK AO2 T00560028 $
63870K0J4 0J420161201211011112/01/16 21:10:31  5-MIN K0J4 020210Z AUTO 00000KT 10SM CLR 04/02 A3012 130 85 -1000 000/00 RMK AO2 T00440022 $
63870K0J4 0J420161201211511112/01/16 21:15:31  5-MIN K0J4 020215Z AUTO 00000KT 10SM CLR 05/02 A3012 130 82 -1000 000/00 RMK AO2 T00500022 $
63870K0J4 0J420161201212011112/01/16 21:20:31  5-MIN K0J4 020220Z AUTO 35003KT 10SM CLR 05/02 A3012 130 82 -1000 350/03 RMK AO2 T00500022 $
63870K0J4 0J420161201212511012/01/16 21:25:31  5-MIN K0J4 020225Z AUTO 35003KT 10SM CLR 06/03 A3013 130 79 -800 350/03 RMK AO2 T00610028 $
63870K0J4 0J420161201213011012/01/16 21:30:31  5-MIN K0J4 020230Z AUTO 00000KT 10SM CLR 07/03 A3013 130 79 -800 000/00 RMK AO2 T00670033 $
63870K0J4 0J420161201213511012/01/16 21:35:31  5-MIN K0J4 020235Z AUTO 36003KT 10SM CLR 06/03 A3013 130 82 -800 360/03 RMK AO2 T00610033 $
63870K0J4 0J420161201214011012/01/16 21:40:31  5-MIN K0J4 020240Z AUTO 35003KT 10SM CLR 06/03 A3013 120 79 -800 350/03 RMK AO2 T00610028 $
63870K0J4 0J420161201214511012/01/16 21:45:31  5-MIN K0J4 020245Z AUTO 00000KT 10SM CLR 06/03 A3013 120 79 -800 000/00 RMK AO2 T00610028 $
63870K0J4 0J420161201215011012/01/16 21:50:31  5-MIN K0J4 020250Z AUTO 35003KT 10SM CLR 06/03 A3013 120 85 -900 350/03 RMK AO2 T00560033 $
63870K0J4 0J420161201215512312/01/16 21:55:31  5-MIN K0J4 020255Z AUTO 36003KT 10SM CLR 06/03 A3013 120 79 -800 360/03 RMK AO2 SLP202 T00610028 51012 $
63870K0J4 0J420161201220011012/01/16 22:00:31  5-MIN K0J4 020300Z AUTO 34003KT 10SM CLR 06/02 A3013 120 79 -900 340/03 RMK AO2 T00560022 $
63870K0J4 0J420161201220511012/01/16 22:05:31  5-MIN K0J4 020305Z AUTO 36003KT 10SM CLR 06/02 A3013 120 79 -900 360/03 RMK AO2 T00560022 $
63870K0J4 0J420161201221011012/01/16 22:10:31  5-MIN K0J4 020310Z AUTO 00000KT 10SM CLR 06/02 A3013 120 79 -900 000/00 RMK AO2 T00560022 $
63870K0J4 0J420161201221511012/01/16 22:15:31  5-MIN K0J4 020315Z AUTO 35003KT 10SM CLR 06/02 A3013 120 76 -800 350/03 RMK AO2 T00610022 $
63870K0J4 0J420161201222011012/01/16 22:20:31  5-MIN K0J4 020320Z AUTO 00000KT 10SM CLR 06/02 A3013 120 79 -900 000/00 RMK AO2 T00560022 $
63870K0J4 0J420161201222511012/01/16 22:25:31  5-MIN K0J4 020325Z AUTO 35003KT 10SM CLR 06/02 A3013 120 79 -900 350/03 RMK AO2 T00560022 $
63870K0J4 0J420161201223011112/01/16 22:30:31  5-MIN K0J4 020330Z AUTO 35004KT 10SM CLR 05/02 A3013 120 82 -1000 350/04 RMK AO2 T00500022 $
63870K0J4 0J420161201223511112/01/16 22:35:31  5-MIN K0J4 020335Z AUTO 35003KT 10SM CLR 05/02 A3013 120 82 -1000 350/03 RMK AO2 T00500022 $
63870K0J4 0J420161201224011012/01/16 22:40:31  5-MIN K0J4 020340Z AUTO 36003KT 10SM CLR 06/02 A3013 120 76 -800 360/03 RMK AO2 T00610022 $
63870K0J4 0J420161201224511012/01/16 22:45:31  5-MIN K0J4 020345Z AUTO 35003KT 10SM CLR 06/02 A3013 120 76 -800 350/03 RMK AO2 T00610022 $
63870K0J4 0J420161201225011012/01/16 22:50:31  5-MIN K0J4 020350Z AUTO 00000KT 10SM CLR 06/02 A3014 120 76 -800 000/00 RMK AO2 T00610022 $
63870K0J4 0J420161201225511712/01/16 22:55:31  5-MIN K0J4 020355Z AUTO 36003KT 10SM CLR 06/02 A3013 120 79 -900 360/03 RMK AO2 SLP202 T00560022 $
63870K0J4 0J420161201230011112/01/16 23:00:31  5-MIN K0J4 020400Z AUTO 00000KT 10SM CLR 05/02 A3014 120 79 -1000 000/00 RMK AO2 T00500017 $
63870K0J4 0J420161201230511012/01/16 23:05:31  5-MIN K0J4 020405Z AUTO VRB03KT 10SM CLR 06/02 A3014 110 79 -900 VRB/03 RMK AO2 T00560022 $
63870K0J4 0J420161201231011112/01/16 23:10:31  5-MIN K0J4 020410Z AUTO 36003KT 10SM CLR 05/02 A3013 120 82 -1000 360/03 RMK AO2 T00500022 $
63870K0J4 0J420161201231511112/01/16 23:15:31  5-MIN K0J4 020415Z AUTO 35004KT 10SM CLR 05/02 A3014 120 79 -1000 350/04 RMK AO2 T00500017 $
63870K0J4 0J420161201232011012/01/16 23:20:31  5-MIN K0J4 020420Z AUTO 35003KT 10SM CLR 06/02 A3014 110 79 -900 350/03 RMK AO2 T00560022 $
63870K0J4 0J420161201232511012/01/16 23:25:31  5-MIN K0J4 020425Z AUTO 35004KT 10SM CLR 06/02 A3014 120 79 -900 350/04 RMK AO2 T00560022 $
63870K0J4 0J420161201233011012/01/16 23:30:31  5-MIN K0J4 020430Z AUTO VRB04KT 10SM CLR 06/02 A3014 120 79 -900 VRB/04 RMK AO2 T00560022 $
63870K0J4 0J420161201233511012/01/16 23:35:31  5-MIN K0J4 020435Z AUTO 35003KT 10SM CLR 06/02 A3014 120 76 -800 350/03 RMK AO2 T00610022 $
63870K0J4 0J420161201234011012/01/16 23:40:31  5-MIN K0J4 020440Z AUTO 35003KT 10SM CLR 06/02 A3014 120 73 -800 350/03 RMK AO2 T00610017 $
63870K0J4 0J420161201234511112/01/16 23:45:31  5-MIN K0J4 020445Z AUTO 34003KT 10SM CLR 04/02 A3014 110 82 -1000 340/03 RMK AO2 T00440017 $
63870K0J4 0J420161201235011112/01/16 23:50:31  5-MIN K0J4 020450Z AUTO 36003KT 10SM CLR 04/02 A3014 110 82 -1000 360/03 RMK AO2 T00440017 $
63870K0J4 0J420161201235512812/01/16 23:55:31  5-MIN K0J4 020455Z AUTO 36003KT 10SM CLR 04/02 A3014 110 85 -1100 360/03 RMK AO2 SLP204 T00390017 401890039 $
63870K0J4 0J420161202000011112/02/16 00:00:31  5-MIN K0J4 020500Z AUTO VRB03KT 10SM CLR 04/02 A3014 110 85 -1100 VRB/03 RMK AO2 T00390017 $
63870K0J4 0J420161202000511112/02/16 00:05:31  5-MIN K0J4 020505Z AUTO 36005KT 10SM CLR 05/02 A3014 110 79 -1000 360/05 RMK AO2 T00500017 $
63870K0J4 0J420161202001011112/02/16 00:10:31  5-MIN K0J4 020510Z AUTO 36003KT 10SM CLR 04/02 A3014 110 85 -1100 360/03 RMK AO2 T00390017 $
63870K0J4 0J420161202001511112/02/16 00:15:31  5-MIN K0J4 020515Z AUTO 35003KT 10SM CLR 04/02 A3014 110 82 -1100 350/03 RMK AO2 T00440017 $
63870K0J4 0J420161202002011012/02/16 00:20:31  5-MIN K0J4 020520Z AUTO 00000KT 10SM CLR 06/02 A3015 110 76 -900 000/00 RMK AO2 T00560017 $
63870K0J4 0J420161202002511112/02/16 00:25:31  5-MIN K0J4 020525Z AUTO 00000KT 10SM CLR 04/02 A3015 110 82 -1100 000/00 RMK AO2 T00440017 $
63870K0J4 0J420161202003011112/02/16 00:30:31  5-MIN K0J4 020530Z AUTO 00000KT 10SM CLR 05/02 A3015 110 79 -1000 000/00 RMK AO2 T00500017 $
63870K0J4 0J420161202003511112/02/16 00:35:31  5-MIN K0J4 020535Z AUTO 00000KT 10SM CLR 04/02 A3015 110 85 -1100 000/00 RMK AO2 T00390017 $
63870K0J4 0J420161202004011112/02/16 00:40:31  5-MIN K0J4 020540Z AUTO 00000KT 10SM CLR 04/01 A3015 110 82 -1100 000/00 RMK AO2 T00390011 $
63870K0J4 0J420161202004511112/02/16 00:45:31  5-MIN K0J4 020545Z AUTO 00000KT 10SM CLR 04/02 A3015 100 85 -1100 000/00 RMK AO2 T00390017 $
63870K0J4 0J420161202005011112/02/16 00:50:31  5-MIN K0J4 020550Z AUTO 00000KT 10SM CLR 03/01 A3015 100 85 -1200 000/00 RMK AO2 T00330011 $
63870K0J4 0J420161202005513612/02/16 00:55:31  5-MIN K0J4 020555Z AUTO 00000KT 10SM CLR 03/01 A3015 100 89 -1300 000/00 RMK AO2 SLP210 T00280011 10089 20028 51010 $
63870K0J4 0J420161202010011112/02/16 01:00:31  5-MIN K0J4 020600Z AUTO 00000KT 10SM CLR 03/01 A3016 100 85 -1300 000/00 RMK AO2 T00280006 $
63870K0J4 0J420161202010511112/02/16 01:05:31  5-MIN K0J4 020605Z AUTO 00000KT 10SM CLR 03/01 A3015 100 85 -1300 000/00 RMK AO2 T00280006 $
63870K0J4 0J420161202011011112/02/16 01:10:31  5-MIN K0J4 020610Z AUTO 00000KT 10SM CLR 03/01 A3015 100 85 -1300 000/00 RMK AO2 T00280006 $
63870K0J4 0J420161202011511112/02/16 01:15:31  5-MIN K0J4 020615Z AUTO 00000KT 10SM CLR 03/01 A3015 100 85 -1300 000/00 RMK AO2 T00280006 $
63870K0J4 0J420161202012011112/02/16 01:20:31  5-MIN K0J4 020620Z AUTO 00000KT 10SM CLR 03/01 A3015 110 85 -1200 000/00 RMK AO2 T00330011 $
63870K0J4 0J420161202012511112/02/16 01:25:31  5-MIN K0J4 020625Z AUTO 35003KT 10SM CLR 03/01 A3015 110 89 -1300 350/03 RMK AO2 T00280011 $
63870K0J4 0J420161202013011112/02/16 01:30:31  5-MIN K0J4 020630Z AUTO 34003KT 10SM CLR 04/02 A3015 100 85 -1100 340/03 RMK AO2 T00390017 $
63870K0J4 0J420161202013511112/02/16 01:35:31  5-MIN K0J4 020635Z AUTO 36004KT 10SM CLR 04/02 A3015 110 82 -1100 360/04 RMK AO2 T00440017 $
63870K0J4 0J420161202014011112/02/16 01:40:31  5-MIN K0J4 020640Z AUTO 34003KT 10SM CLR 05/02 A3015 100 82 -1000 340/03 RMK AO2 T00500022 $
63870K0J4 0J420161202014511112/02/16 01:45:31  5-MIN K0J4 020645Z AUTO 36004KT 10SM CLR 04/02 A3015 110 82 -1100 360/04 RMK AO2 T00440017 $
63870K0J4 0J420161202015011112/02/16 01:50:31  5-MIN K0J4 020650Z AUTO 36005KT 10SM CLR 03/01 A3015 110 85 -1200 360/05 RMK AO2 T00330011 $
63870K0J4 0J420161202015511812/02/16 01:55:31  5-MIN K0J4 020655Z AUTO 35004KT 10SM CLR 05/01 A3015 100 76 -1000 350/04 RMK AO2 SLP208 T00500011 $
63870K0J4 0J420161202020011012/02/16 02:00:31  5-MIN K0J4 020700Z AUTO 35004KT 10SM CLR 06/01 A3016 100 70 -900 350/04 RMK AO2 T00610011 $
63870K0J4 0J420161202020511012/02/16 02:05:31  5-MIN K0J4 020705Z AUTO 35003KT 10SM CLR 06/01 A3016 100 70 -900 350/03 RMK AO2 T00610011 $
63870K0J4 0J420161202021011012/02/16 02:10:31  5-MIN K0J4 020710Z AUTO 35003KT 10SM CLR 06/01 A3016 100 70 -900 350/03 RMK AO2 T00610011 $
63870K0J4 0J420161202021511112/02/16 02:15:31  5-MIN K0J4 020715Z AUTO 35003KT 10SM CLR 04/01 A3016 100 79 -1100 350/03 RMK AO2 T00440011 $
63870K0J4 0J420161202022011112/02/16 02:20:31  5-MIN K0J4 020720Z AUTO 36003KT 10SM CLR 04/01 A3015 100 79 -1100 360/03 RMK AO2 T00440011 $
63870K0J4 0J420161202022511112/02/16 02:25:31  5-MIN K0J4 020725Z AUTO 35003KT 10SM CLR 04/01 A3015 100 79 -1100 350/03 RMK AO2 T00390006 $
63870K0J4 0J420161202023011112/02/16 02:30:31  5-MIN K0J4 020730Z AUTO 34003KT 10SM CLR 04/01 A3016 100 82 -1100 340/03 RMK AO2 T00390011 $
63870K0J4 0J420161202023511112/02/16 02:35:31  5-MIN K0J4 020735Z AUTO 36004KT 10SM CLR 04/01 A3016 100 82 -1100 360/04 RMK AO2 T00390011 $
63870K0J4 0J420161202024011112/02/16 02:40:31  5-MIN K0J4 020740Z AUTO VRB03KT 10SM CLR 03/01 A3016 100 85 -1200 VRB/03 RMK AO2 T00330011 $
63870K0J4 0J420161202024511112/02/16 02:45:31  5-MIN K0J4 020745Z AUTO 01004KT 10SM CLR 04/01 A3015 100 82 -1100 010/04 RMK AO2 T00390011 $
63870K0J4 0J420161202025011112/02/16 02:50:31  5-MIN K0J4 020750Z AUTO 35003KT 10SM CLR 04/01 A3016 100 79 -1100 350/03 RMK AO2 T00390006 $
63870K0J4 0J420161202025511812/02/16 02:55:31  5-MIN K0J4 020755Z AUTO 36004KT 10SM CLR 04/01 A3016 100 82 -1100 360/04 RMK AO2 SLP210 T00390011 $
63870K0J4 0J420161202030011112/02/16 03:00:31  5-MIN K0J4 020800Z AUTO 35004KT 10SM CLR 04/01 A3016 100 79 -1100 350/04 RMK AO2 T00440011 $
63870K0J4 0J420161202030511112/02/16 03:05:31  5-MIN K0J4 020805Z AUTO 36005KT 10SM CLR 04/01 A3016 100 79 -1100 360/05 RMK AO2 T00440011 $
63870K0J4 0J420161202031011012/02/16 03:10:31  5-MIN K0J4 020810Z AUTO 36004KT 10SM CLR 04/01 A3016 90 79 -1100 360/04 RMK AO2 T00440011 $
63870K0J4 0J420161202031511012/02/16 03:15:31  5-MIN K0J4 020815Z AUTO 36005KT 10SM CLR 04/01 A3016 90 82 -1100 360/05 RMK AO2 T00390011 $
63870K0J4 0J420161202032011012/02/16 03:20:31  5-MIN K0J4 020820Z AUTO 36006KT 10SM CLR 04/01 A3016 90 76 -1100 360/06 RMK AO2 T00440006 $
63870K0J4 0J420161202032510912/02/16 03:25:31  5-MIN K0J4 020825Z AUTO 36004KT 10SM CLR 06/01 A3016 90 73 -900 360/04 RMK AO2 T00560011 $
63870K0J4 0J420161202033011012/02/16 03:30:31  5-MIN K0J4 020830Z AUTO 01004KT 10SM CLR 04/01 A3016 90 76 -1100 010/04 RMK AO2 T00440006 $
63870K0J4 0J420161202033511012/02/16 03:35:31  5-MIN K0J4 020835Z AUTO 35003KT 10SM CLR 03/01 A3017 90 82 -1200 350/03 RMK AO2 T00330006 $
63870K0J4 0J420161202034011012/02/16 03:40:31  5-MIN K0J4 020840Z AUTO 01003KT 10SM CLR 04/01 A3017 90 79 -1100 010/03 RMK AO2 T00390006 $
63870K0J4 0J420161202034511012/02/16 03:45:31  5-MIN K0J4 020845Z AUTO 00000KT 10SM CLR 03/01 A3017 90 82 -1200 000/00 RMK AO2 T00330006 $
63870K0J4 0J420161202035011012/02/16 03:50:31  5-MIN K0J4 020850Z AUTO 00000KT 10SM CLR 03/01 A3018 80 82 -1200 000/00 RMK AO2 T00330006 $
63870K0J4 0J420161202035512312/02/16 03:55:31  5-MIN K0J4 020855Z AUTO 00000KT 10SM CLR 03/01 A3018 80 82 -1200 000/00 RMK AO2 SLP218 T00330006 53009 $
63870K0J4 0J420161202040011012/02/16 04:00:31  5-MIN K0J4 020900Z AUTO 00000KT 10SM CLR 03/01 A3018 80 85 -1300 000/00 RMK AO2 T00280006 $
63870K0J4 0J420161202040511012/02/16 04:05:31  5-MIN K0J4 020905Z AUTO 00000KT 10SM CLR 02/00 A3017 80 85 -1400 000/00 RMK AO2 T00220000 $
63870K0J4 0J420161202041011012/02/16 04:10:31  5-MIN K0J4 020910Z AUTO 00000KT 10SM CLR 03/00 A3018 80 82 -1300 000/00 RMK AO2 T00280000 $
63870K0J4 0J420161202041511012/02/16 04:15:31  5-MIN K0J4 020915Z AUTO 36003KT 10SM CLR 03/01 A3018 80 85 -1300 360/03 RMK AO2 T00280006 $
63870K0J4 0J420161202042011012/02/16 04:20:31  5-MIN K0J4 020920Z AUTO 35004KT 10SM CLR 03/01 A3018 80 85 -1300 350/04 RMK AO2 T00280006 $
63870K0J4 0J420161202042511012/02/16 04:25:31  5-MIN K0J4 020925Z AUTO 35004KT 10SM CLR 04/01 A3018 80 79 -1100 350/04 RMK AO2 T00440011 $
63870K0J4 0J420161202043011012/02/16 04:30:31  5-MIN K0J4 020930Z AUTO 36005KT 10SM CLR 03/01 A3017 80 82 -1200 360/05 RMK AO2 T00330006 $
63870K0J4 0J420161202043511012/02/16 04:35:31  5-MIN K0J4 020935Z AUTO 36004KT 10SM CLR 03/01 A3017 80 82 -1200 360/04 RMK AO2 T00330006 $
63870K0J4 0J420161202044011012/02/16 04:40:31  5-MIN K0J4 020940Z AUTO 36006KT 10SM CLR 03/01 A3018 80 82 -1200 360/06 RMK AO2 T00330006 $
63870K0J4 0J420161202044511012/02/16 04:45:31  5-MIN K0J4 020945Z AUTO 36006KT 10SM CLR 04/01 A3017 80 79 -1200 360/06 RMK AO2 T00390006 $
63870K0J4 0J420161202045011012/02/16 04:50:31  5-MIN K0J4 020950Z AUTO 36005KT 10SM CLR 05/01 A3018 80 73 -1000 360/05 RMK AO2 T00500006 $
63870K0J4 0J420161202045511712/02/16 04:55:31  5-MIN K0J4 020955Z AUTO 36005KT 10SM CLR 05/01 A3018 80 73 -1000 360/05 RMK AO2 SLP218 T00500006 $
63870K0J4 0J420161202050011012/02/16 05:00:31  5-MIN K0J4 021000Z AUTO 36005KT 10SM CLR 05/01 A3018 80 73 -1000 360/05 RMK AO2 T00500006 $
63870K0J4 0J420161202050511012/02/16 05:05:31  5-MIN K0J4 021005Z AUTO 36004KT 10SM CLR 04/00 A3019 70 76 -1200 360/04 RMK AO2 T00390000 $
63870K0J4 0J420161202051011012/02/16 05:10:31  5-MIN K0J4 021010Z AUTO 35004KT 10SM CLR 04/01 A3019 70 76 -1100 350/04 RMK AO2 T00440006 $
63870K0J4 0J420161202051511012/02/16 05:15:31  5-MIN K0J4 021015Z AUTO 36004KT 10SM CLR 05/01 A3019 60 73 -1000 360/04 RMK AO2 T00500006 $
63870K0J4 0J420161202052011012/02/16 05:20:31  5-MIN K0J4 021020Z AUTO 35005KT 10SM CLR 04/01 A3019 70 76 -1100 350/05 RMK AO2 T00440006 $
63870K0J4 0J420161202052511012/02/16 05:25:31  5-MIN K0J4 021025Z AUTO 36005KT 10SM CLR 04/00 A3019 60 76 -1200 360/05 RMK AO2 T00390000 $
63870K0J4 0J420161202053011012/02/16 05:30:31  5-MIN K0J4 021030Z AUTO 36005KT 10SM CLR 04/00 A3020 60 76 -1200 360/05 RMK AO2 T00390000 $
63870K0J4 0J420161202053511012/02/16 05:35:31  5-MIN K0J4 021035Z AUTO 35005KT 10SM CLR 04/00 A3020 60 76 -1200 350/05 RMK AO2 T00390000 $
63870K0J4 0J420161202054011012/02/16 05:40:31  5-MIN K0J4 021040Z AUTO 36005KT 10SM CLR 04/00 A3020 60 73 -1100 360/05 RMK AO2 T00440000 $
63870K0J4 0J420161202054511012/02/16 05:45:31  5-MIN K0J4 021045Z AUTO 36005KT 10SM CLR 04/00 A3020 60 73 -1100 360/05 RMK AO2 T00440000 $
63870K0J4 0J420161202055011012/02/16 05:50:31  5-MIN K0J4 021050Z AUTO 36005KT 10SM CLR 04/00 A3020 60 73 -1100 360/05 RMK AO2 T00440000 $
63870K0J4 0J420161202055511712/02/16 05:55:31  5-MIN K0J4 021055Z AUTO 36005KT 10SM CLR 04/00 A3020 60 73 -1100 360/05 RMK AO2 SLP227 T00440000 $
63870K0J4 0J420161202060011012/02/16 06:00:31  5-MIN K0J4 021100Z AUTO 01007KT 10SM CLR 04/00 A3020 60 73 -1100 010/07 RMK AO2 T00440000 $
63870K0J4 0J420161202060511012/02/16 06:05:31  5-MIN K0J4 021105Z AUTO 01005KT 10SM CLR 04/00 A3020 60 76 -1200 010/05 RMK AO2 T00390000 $
63870K0J4 0J420161202061011012/02/16 06:10:31  5-MIN K0J4 021110Z AUTO 01005KT 10SM CLR 03/00 A3020 60 79 -1300 010/05 RMK AO2 T00330000 $
63870K0J4 0J420161202061511012/02/16 06:15:31  5-MIN K0J4 021115Z AUTO 01004KT 10SM CLR 03/00 A3021 50 79 -1300 010/04 RMK AO2 T00330000 $
63870K0J4 0J420161202062011012/02/16 06:20:31  5-MIN K0J4 021120Z AUTO 01004KT 10SM CLR 03/00 A3021 50 79 -1300 010/04 RMK AO2 T00330000 $
63870K0J4 0J420161202062511012/02/16 06:25:31  5-MIN K0J4 021125Z AUTO 01004KT 10SM CLR 03/00 A3021 50 82 -1300 010/04 RMK AO2 T00280000 $
63870K0J4 0J420161202063011012/02/16 06:30:31  5-MIN K0J4 021130Z AUTO 01004KT 10SM CLR 02/00 A3022 40 85 -1400 010/04 RMK AO2 T00220000 $
63870K0J4 0J420161202063511012/02/16 06:35:31  5-MIN K0J4 021135Z AUTO 01004KT 10SM CLR 02/00 A3022 40 85 -1400 010/04 RMK AO2 T00220000 $
63870K0J4 0J420161202064011012/02/16 06:40:31  5-MIN K0J4 021140Z AUTO 01004KT 10SM CLR 02/00 A3022 40 89 -1500 010/04 RMK AO2 T00170000 $
63870K0J4 0J420161202064511112/02/16 06:45:31  5-MIN K0J4 021145Z AUTO 01004KT 10SM CLR 02/M01 A3022 40 85 -1500 010/04 RMK AO2 T00171006 $
63870K0J4 0J420161202065011012/02/16 06:50:31  5-MIN K0J4 021150Z AUTO 01005KT 10SM CLR 02/00 A3022 40 89 -1500 010/05 RMK AO2 T00170000 $
63870K0J4 0J420161202065513512/02/16 06:55:31  5-MIN K0J4 021155Z AUTO 01005KT 10SM CLR 02/00 A3022 40 89 -1500 010/05 RMK AO2 SLP233 T00170000 10061 20017 53007 $
63870K0J4 0J420161202070011012/02/16 07:00:31  5-MIN K0J4 021200Z AUTO 01005KT 10SM CLR 02/00 A3022 40 89 -1500 010/05 RMK AO2 T00170000 $
63870K0J4 0J420161202070511012/02/16 07:05:31  5-MIN K0J4 021205Z AUTO 01005KT 10SM CLR 02/00 A3022 40 89 -1500 010/05 RMK AO2 T00170000 $
63870K0J4 0J420161202071011012/02/16 07:10:31  5-MIN K0J4 021210Z AUTO 01005KT 10SM CLR 02/00 A3023 30 85 -1400 010/05 RMK AO2 T00220000 $
63870K0J4 0J420161202071511012/02/16 07:15:31  5-MIN K0J4 021215Z AUTO 01004KT 10SM CLR 03/00 A3023 30 79 -1300 010/04 RMK AO2 T00330000 $
63870K0J4 0J420161202072011012/02/16 07:20:31  5-MIN K0J4 021220Z AUTO 01004KT 10SM CLR 02/00 A3023 30 85 -1400 010/04 RMK AO2 T00220000 $
63870K0J4 0J420161202072511012/02/16 07:25:31  5-MIN K0J4 021225Z AUTO 02003KT 10SM CLR 02/00 A3023 30 85 -1400 020/03 RMK AO2 T00220000 $
63870K0J4 0J420161202073011012/02/16 07:30:31  5-MIN K0J4 021230Z AUTO 02003KT 10SM CLR 02/00 A3023 30 85 -1400 020/03 RMK AO2 T00220000 $
63870K0J4 0J420161202073511012/02/16 07:35:31  5-MIN K0J4 021235Z AUTO 00000KT 10SM CLR 02/00 A3024 20 89 -1500 000/00 RMK AO2 T00170000 $
63870K0J4 0J420161202074011312/02/16 07:40:31  5-MIN K0J4 021240Z AUTO 00000KT 10SM FEW100 02/00 A3024 20 85 -1400 000/00 RMK AO2 T00220000 $
63870K0J4 0J420161202074511312/02/16 07:45:31  5-MIN K0J4 021245Z AUTO 00000KT 10SM SCT095 02/00 A3024 20 85 -1400 000/00 RMK AO2 T00220000 $
63870K0J4 0J420161202075011312/02/16 07:50:31  5-MIN K0J4 021250Z AUTO 00000KT 10SM SCT095 03/01 A3025 20 85 -1400 000/00 RMK AO2 T00280006 $
63870K0J4 0J420161202075512012/02/16 07:55:31  5-MIN K0J4 021255Z AUTO 00000KT 10SM FEW095 03/01 A3025 10 89 -1400 000/00 RMK AO2 SLP244 T00280011 $
63870K0J4 0J420161202080011312/02/16 08:00:31  5-MIN K0J4 021300Z AUTO 00000KT 10SM FEW095 03/02 A3025 10 89 -1300 000/00 RMK AO2 T00330017 $
63870K0J4 0J420161202080511312/02/16 08:05:31  5-MIN K0J4 021305Z AUTO 00000KT 10SM FEW095 04/02 A3025 10 85 -1200 000/00 RMK AO2 T00390017 $
63870K0J4 0J420161202081011312/02/16 08:10:31  5-MIN K0J4 021310Z AUTO 00000KT 10SM FEW095 04/02 A3026 10 89 -1200 000/00 RMK AO2 T00390022 $
63870K0J4 0J420161202081511012/02/16 08:15:31  5-MIN K0J4 021315Z AUTO 00000KT 10SM CLR 04/02 A3026 10 85 -1200 000/00 RMK AO2 T00440022 $
63870K0J4 0J420161202082012412/02/16 08:20:31  5-MIN K0J4 021320Z AUTO 02003KT 10SM -RA CLR 05/02 A3025 10 82 -1100 020/03 RMK AO2 RAB20 P0000 T00500022
63870K0J4 0J420161202082512412/02/16 08:25:31  5-MIN K0J4 021325Z AUTO 02003KT 10SM -RA CLR 06/02 A3026 10 76 -1000 020/03 RMK AO2 RAB20 P0000 T00610022
63870K0J4 0J420161202083012312/02/16 08:30:31  5-MIN K0J4 021330Z AUTO 03004KT 10SM -RA CLR 07/02 A3026 10 70 -900 030/04 RMK AO2 RAB20 P0000 T00670017
63870K0J4 0J420161202083512312/02/16 08:35:31  5-MIN K0J4 021335Z AUTO 03005KT 10SM -RA CLR 07/01 A3026 10 67 -900 030/05 RMK AO2 RAB20 P0000 T00670011
63870K0J4 0J420161202084012312/02/16 08:40:31  5-MIN K0J4 021340Z AUTO 03004KT 10SM CLR 07/01 A3026 0 65 -800 030/04 RMK AO2 RAB20E38 P0000 T00720011 $
63870K0J4 0J420161202084512412/02/16 08:45:31  5-MIN K0J4 021345Z AUTO 03006KT 10SM CLR 07/01 A3026 10 65 -800 030/06 RMK AO2 RAB20E38 P0000 T00720011 $
63870K0J4 0J420161202085012412/02/16 08:50:31  5-MIN K0J4 021350Z AUTO 02006KT 10SM CLR 08/02 A3026 10 65 -800 020/06 RMK AO2 RAB20E38 P0000 T00780017 $
63870K0J4 0J420161202085513012/02/16 08:55:31  5-MIN K0J4 021355Z AUTO 03006KT 10SM CLR 08/01 A3026 0 60 -700 030/06 RMK AO2 RAB20E38 SLP246 P0000 T00830011 $
63870K0J4 0J420161202090010812/02/16 09:00:31  5-MIN K0J4 021400Z AUTO 03006KT 10SM CLR 08/02 A3026 0 63 -700 030/06 RMK AO2 T00830017 $
63870K0J4 0J420161202090510812/02/16 09:05:31  5-MIN K0J4 021405Z AUTO 03005KT 10SM CLR 09/02 A3026 0 60 -600 030/05 RMK AO2 T00890017 $
63870K0J4 0J420161202091010812/02/16 09:10:31  5-MIN K0J4 021410Z AUTO 04004KT 10SM CLR 09/02 A3027 0 58 -600 040/04 RMK AO2 T00940017 $
63870K0J4 0J420161202091510812/02/16 09:15:31  5-MIN K0J4 021415Z AUTO 04006KT 10SM CLR 09/02 A3027 0 58 -600 040/06 RMK AO2 T00940017 $
63870K0J4 0J420161202092010812/02/16 09:20:31  5-MIN K0J4 021420Z AUTO 04005KT 10SM CLR 10/02 A3027 0 56 -500 040/05 RMK AO2 T01000017 $
63870K0J4 0J420161202092510812/02/16 09:25:31  5-MIN K0J4 021425Z AUTO 05007KT 10SM CLR 10/02 A3027 0 56 -500 050/07 RMK AO2 T01000017 $
63870K0J4 0J420161202093011012/02/16 09:30:31  5-MIN K0J4 021430Z AUTO 05006KT 10SM CLR 10/01 A3028 -10 54 -500 050/06 RMK AO2 T01000011 $
63870K0J4 0J420161202093511012/02/16 09:35:31  5-MIN K0J4 021435Z AUTO 04008KT 10SM CLR 11/01 A3028 -10 52 -500 040/08 RMK AO2 T01060011 $
63870K0J4 0J420161202094011012/02/16 09:40:31  5-MIN K0J4 021440Z AUTO 05008KT 10SM CLR 11/01 A3028 -10 50 -400 050/08 RMK AO2 T01110011 $
63870K0J4 0J420161202094511012/02/16 09:45:31  5-MIN K0J4 021445Z AUTO 05008KT 10SM CLR 11/01 A3028 -10 50 -400 050/08 RMK AO2 T01110011 $
63870K0J4 0J420161202095011012/02/16 09:50:31  5-MIN K0J4 021450Z AUTO 04008KT 10SM CLR 12/02 A3028 -10 50 -300 040/08 RMK AO2 T01170017 $
63870K0J4 0J420161202095512912/02/16 09:55:31  5-MIN K0J4 021455Z AUTO 05009KT 10SM CLR 12/01 A3028 -10 48 -300 050/09 RMK AO2 SLP252 60000 T01170011 53015 $
63870K0J4 0J420161202100010812/02/16 10:00:31  5-MIN K0J4 021500Z AUTO 05009KT 10SM CLR 12/01 A3027 0 44 -300 050/09 RMK AO2 T01220006 $
63870K0J4 0J420161202100510812/02/16 10:05:31  5-MIN K0J4 021505Z AUTO 05009KT 10SM CLR 12/01 A3027 0 44 -200 050/09 RMK AO2 T01220006 $
63870K0J4 0J420161202101010812/02/16 10:10:31  5-MIN K0J4 021510Z AUTO 04011KT 10SM CLR 12/00 A3027 0 43 -200 040/11 RMK AO2 T01220000 $
63870K0J4 0J420161202101510812/02/16 10:15:31  5-MIN K0J4 021515Z AUTO 06010KT 10SM CLR 13/00 A3027 0 41 -200 060/10 RMK AO2 T01280000 $
63870K0J4 0J420161202102011512/02/16 10:20:31  5-MIN K0J4 021520Z AUTO 04014G20KT 10SM CLR 13/M01 A3027 0 39 -200 040/14G20 RMK AO2 T01281006 $
63870K0J4 0J420161202102510912/02/16 10:25:31  5-MIN K0J4 021525Z AUTO 03013KT 10SM CLR 13/M01 A3027 0 38 -200 030/13 RMK AO2 T01281011 $
63870K0J4 0J420161202103011112/02/16 10:30:31  5-MIN K0J4 021530Z AUTO 03010KT 10SM CLR 13/M01 A3028 -10 36 -100 030/10 RMK AO2 T01331011 $
63870K0J4 0J420161202103511712/02/16 10:35:31  5-MIN K0J4 021535Z AUTO 06012G17KT 10SM CLR 14/M01 A3028 -10 37 -100 060/12G17 RMK AO2 T01391006 $
63870K0J4 0J420161202104011712/02/16 10:40:31  5-MIN K0J4 021540Z AUTO 05014G18KT 10SM CLR 14/M02 A3028 -10 34 -100 050/14G18 RMK AO2 T01391017 $
63870K0J4 0J420161202104511712/02/16 10:45:31  5-MIN K0J4 021545Z AUTO 04010G18KT 10SM CLR 14/M02 A3028 -10 32 -100 040/10G18 RMK AO2 T01391022 $
63870K0J4 0J420161202105011412/02/16 10:50:31  5-MIN K0J4 021550Z AUTO 05009G16KT 10SM CLR 14/M02 A3028 -10 33 0 050/09G16 RMK AO2 T01441017 $
63870K0J4 0J420161202105511512/02/16 10:55:31  5-MIN K0J4 021555Z AUTO 04010KT 10SM CLR 14/M02 A3028 -10 31 0 040/10 RMK AO2 SLP254 T01441022 $
63870K0J4 0J420161202110010812/02/16 11:00:31  5-MIN K0J4 021600Z AUTO 03011KT 10SM CLR 14/M02 A3028 -10 33 0 030/11 RMK AO2 T01441017 $
63870K0J4 0J420161202110510812/02/16 11:05:31  5-MIN K0J4 021605Z AUTO 03009KT 10SM CLR 15/M02 A3028 -10 31 0 030/09 RMK AO2 T01501017 $
63870K0J4 0J420161202111010612/02/16 11:10:31  5-MIN K0J4 021610Z AUTO 05011KT 10SM CLR 15/M02 A3027 0 31 0 050/11 RMK AO2 T01501017 $
63870K0J4 0J420161202111510612/02/16 11:15:31  5-MIN K0J4 021615Z AUTO 05010KT 10SM CLR 14/M02 A3027 0 33 0 050/10 RMK AO2 T01441017 $
63870K0J4 0J420161202112010612/02/16 11:20:31  5-MIN K0J4 021620Z AUTO 06011KT 10SM CLR 15/M02 A3026 0 31 0 060/11 RMK AO2 T01501017 $
63870K0J4 0J420161202112510812/02/16 11:25:31  5-MIN K0J4 021625Z AUTO 03009KT 10SM CLR 16/M02 A3026 0 30 100 030/09 RMK AO2 T01561017 $
63870K0J4 0J420161202113010812/02/16 11:30:31  5-MIN K0J4 021630Z AUTO 06009KT 10SM CLR 16/M02 A3026 0 30 100 060/09 RMK AO2 T01561017 $
63870K0J4 0J420161202113510812/02/16 11:35:31  5-MIN K0J4 021635Z AUTO 04008KT 10SM CLR 16/M01 A3026 0 30 200 040/08 RMK AO2 T01611011 $
63870K0J4 0J420161202114010812/02/16 11:40:31  5-MIN K0J4 021640Z AUTO 03011KT 10SM CLR 16/M02 A3026 0 29 200 030/11 RMK AO2 T01611017 $
63870K0J4 0J420161202114510912/02/16 11:45:31  5-MIN K0J4 021645Z AUTO 03011KT 10SM CLR 16/M02 A3026 10 28 200 030/11 RMK AO2 T01611022 $
63870K0J4 0J420161202115010912/02/16 11:50:31  5-MIN K0J4 021650Z AUTO 03009KT 10SM CLR 16/M03 A3026 10 26 200 030/09 RMK AO2 T01611033 $
63870K0J4 0J420161202115511612/02/16 11:55:31  5-MIN K0J4 021655Z AUTO 03012KT 10SM CLR 17/M03 A3025 10 25 300 030/12 RMK AO2 SLP242 T01671033 $
63870K0J4 0J420161202120011512/02/16 12:00:31  5-MIN K0J4 021700Z AUTO 05013G17KT 10SM CLR 16/M03 A3025 20 26 200 050/13G17 RMK AO2 T01611033 $
63870K0J4 0J420161202120510912/02/16 12:05:31  5-MIN K0J4 021705Z AUTO 05010KT 10SM CLR 17/M03 A3025 20 25 300 050/10 RMK AO2 T01671033 $
63870K0J4 0J420161202121010912/02/16 12:10:31  5-MIN K0J4 021710Z AUTO 03010KT 10SM CLR 17/M03 A3025 20 26 300 030/10 RMK AO2 T01671028 $
63870K0J4 0J420161202121510912/02/16 12:15:31  5-MIN K0J4 021715Z AUTO 05010KT 10SM CLR 17/M03 A3024 20 26 300 050/10 RMK AO2 T01671028 $
63870K0J4 0J420161202122010912/02/16 12:20:31  5-MIN K0J4 021720Z AUTO 03010KT 10SM CLR 17/M03 A3024 20 26 300 030/10 RMK AO2 T01671028 $
63870K0J4 0J420161202122510912/02/16 12:25:31  5-MIN K0J4 021725Z AUTO 01011KT 10SM CLR 17/M03 A3024 20 26 300 010/11 RMK AO2 T01671028 $
63870K0J4 0J420161202123010912/02/16 12:30:31  5-MIN K0J4 021730Z AUTO 03011KT 10SM CLR 17/M03 A3024 20 25 300 030/11 RMK AO2 T01671033 $
63870K0J4 0J420161202123510912/02/16 12:35:31  5-MIN K0J4 021735Z AUTO 03014KT 10SM CLR 17/M03 A3023 30 24 300 030/14 RMK AO2 T01721033 $
63870K0J4 0J420161202124011512/02/16 12:40:31  5-MIN K0J4 021740Z AUTO 05011G19KT 10SM CLR 17/M03 A3023 30 25 300 050/11G19 RMK AO2 T01721028 $
63870K0J4 0J420161202124511512/02/16 12:45:31  5-MIN K0J4 021745Z AUTO 05012G19KT 10SM CLR 17/M03 A3023 30 25 300 050/12G19 RMK AO2 T01671033 $
63870K0J4 0J420161202125011512/02/16 12:50:31  5-MIN K0J4 021750Z AUTO 05012G19KT 10SM CLR 17/M04 A3023 30 23 300 050/12G19 RMK AO2 T01721039 $
63870K0J4 0J420161202125514012/02/16 12:55:31  5-MIN K0J4 021755Z AUTO 05011KT 10SM CLR 17/M03 A3023 30 24 300 050/11 RMK AO2 SLP236 60000 T01721033 10172 20017 51018 $
63870K0J4 0J420161202130010912/02/16 13:00:31  5-MIN K0J4 021800Z AUTO 03009KT 10SM CLR 17/M03 A3023 30 24 300 030/09 RMK AO2 T01721033 $
63870K0J4 0J420161202130510912/02/16 13:05:31  5-MIN K0J4 021805Z AUTO 03012KT 10SM CLR 17/M03 A3023 30 24 300 030/12 RMK AO2 T01721033 $
63870K0J4 0J420161202131010912/02/16 13:10:31  5-MIN K0J4 021810Z AUTO 03012KT 10SM CLR 18/M03 A3023 30 24 400 030/12 RMK AO2 T01781028 $
63870K0J4 0J420161202131510912/02/16 13:15:31  5-MIN K0J4 021815Z AUTO 03011KT 10SM CLR 18/M03 A3022 40 24 400 030/11 RMK AO2 T01781028 $
63870K0J4 0J420161202132007512/02/16 13:20:31  5-MIN K0J4 021820Z AUTO 04011KT 10SM CLR 18/M02 A3022 40
63870K0J4 0J420161203183011612/03/16 18:30:31  5-MIN K0J4 032330Z AUTO 04006KT 10SM BKN060 OVC080 14/02 A3016 90 45 0 040/06 RMK AO2 T01390022 $
63870K0J4 0J420161203183511612/03/16 18:35:31  5-MIN K0J4 032335Z AUTO 04006KT 10SM BKN060 OVC080 14/02 A3016 90 45 0 040/06 RMK AO2 T01390022 $
63870K0J4 0J420161203184010912/03/16 18:40:31  5-MIN K0J4 032340Z AUTO 03005KT 10SM OVC060 14/02 A3016 90 45 0 030/05 RMK AO2 T01390022 $
63870K0J4 0J420161203184510912/03/16 18:45:31  5-MIN K0J4 032345Z AUTO 04006KT 10SM OVC060 14/02 A3016 90 45 0 040/06 RMK AO2 T01390022 $
63870K0J4 0J420161203185010912/03/16 18:50:31  5-MIN K0J4 032350Z AUTO 04006KT 10SM OVC055 14/02 A3016 90 45 0 040/06 RMK AO2 T01390022 $
63870K0J4 0J420161203185513412/03/16 18:55:31  5-MIN K0J4 032355Z AUTO 04006KT 10SM OVC055 14/02 A3016 90 45 0 040/06 RMK AO2 SLP212 T01390022 10172 20139 56011 $
63870K0J4 0J420161203190010912/03/16 19:00:31  5-MIN K0J4 040000Z AUTO 04006KT 10SM OVC055 14/02 A3016 90 45 0 040/06 RMK AO2 T01390022 $
63870K0J4 0J420161203190510912/03/16 19:05:31  5-MIN K0J4 040005Z AUTO 04006KT 10SM OVC055 14/02 A3016 90 45 0 040/06 RMK AO2 T01390022 $
63870K0J4 0J420161203191011712/03/16 19:10:31  5-MIN K0J4 040010Z AUTO 05006KT 10SM BKN055 OVC080 14/02 A3016 100 45 0 050/06 RMK AO2 T01390022 $
63870K0J4 0J420161203191511712/03/16 19:15:31  5-MIN K0J4 040015Z AUTO 05006KT 10SM BKN055 OVC080 14/02 A3016 100 45 0 050/06 RMK AO2 T01390022 $
63870K0J4 0J420161203192011712/03/16 19:20:31  5-MIN K0J4 040020Z AUTO 06008KT 10SM SCT060 OVC080 14/02 A3016 100 45 0 060/08 RMK AO2 T01390022 $
63870K0J4 0J420161203192507912/03/16 19:25:31  5-MIN K0J4 040025Z AUTO 05007KT A3016 M M M 050/07 RMK AO2 $
63870K0J4 0J420161203193007912/03/16 19:30:31  5-MIN K0J4 040030Z AUTO 05007KT A3016 M M M 050/07 RMK AO2 $
63870K0J4 0J420161203193510312/03/16 19:35:31  5-MIN K0J4 040035Z AUTO 05007KT 10SM 13/02 A3016 100 46 0 050/07 RMK AO2 T01330022 $
63870K0J4 0J420161203194010212/03/16 19:40:31  5-MIN K0J4 040040Z AUTO 05007KT 10SM 13/02 A3016 90 45 0 050/07 RMK AO2 T01330017 $
63870K0J4 0J420161203194510212/03/16 19:45:31  5-MIN K0J4 040045Z AUTO 04006KT 10SM 13/02 A3016 90 46 0 040/06 RMK AO2 T01330022 $
63870K0J4 0J420161203195010312/03/16 19:50:31  5-MIN K0J4 040050Z AUTO 04007KT 10SM 13/02 A3016 100 45 0 040/07 RMK AO2 T01330017 $
63870K0J4 0J420161203195512412/03/16 19:55:31  5-MIN K0J4 040055Z AUTO 05006KT 10SM SCT055 BKN080 13/02 A3016 100 45 0 050/06 RMK AO2 SLP211 T01330017 $
63870K0J4 0J420161203200011012/03/16 20:00:31  5-MIN K0J4 040100Z AUTO 05006KT 10SM SCT055 13/02 A3016 100 45 0 050/06 RMK AO2 T01330017 $
63870K0J4 0J420161203200511712/03/16 20:05:31  5-MIN K0J4 040105Z AUTO 06006KT 10SM SCT055 SCT080 13/02 A3016 100 46 0 060/06 RMK AO2 T01330022 $
63870K0J4 0J420161203201011712/03/16 20:10:31  5-MIN K0J4 040110Z AUTO 07006KT 10SM SCT055 SCT080 13/02 A3016 100 46 0 070/06 RMK AO2 T01330022 $
63870K0J4 0J420161203201511712/03/16 20:15:31  5-MIN K0J4 040115Z AUTO 07006KT 10SM FEW055 SCT080 13/02 A3016 100 45 0 070/06 RMK AO2 T01330017 $
63870K0J4 0J420161203202011012/03/16 20:20:31  5-MIN K0J4 040120Z AUTO 07007KT 10SM SCT080 13/02 A3016 100 45 0 070/07 RMK AO2 T01330017 $
63870K0J4 0J420161203202511012/03/16 20:25:31  5-MIN K0J4 040125Z AUTO 07007KT 10SM BKN080 13/02 A3016 100 45 0 070/07 RMK AO2 T01330017 $
63870K0J4 0J420161203203011012/03/16 20:30:31  5-MIN K0J4 040130Z AUTO 06006KT 10SM BKN080 13/02 A3016 100 45 0 060/06 RMK AO2 T01330017 $
63870K0J4 0J420161203203511012/03/16 20:35:31  5-MIN K0J4 040135Z AUTO 07007KT 10SM BKN080 13/02 A3015 100 45 0 070/07 RMK AO2 T01330017 $
63870K0J4 0J420161203204011012/03/16 20:40:31  5-MIN K0J4 040140Z AUTO 07007KT 10SM OVC080 13/02 A3015 110 45 0 070/07 RMK AO2 T01330017 $
63870K0J4 0J420161203204511012/03/16 20:45:31  5-MIN K0J4 040145Z AUTO 07008KT 10SM OVC085 13/02 A3015 110 45 0 070/08 RMK AO2 T01330017 $
63870K0J4 0J420161203205011012/03/16 20:50:31  5-MIN K0J4 040150Z AUTO 07006KT 10SM OVC085 13/02 A3015 100 45 0 070/06 RMK AO2 T01330017 $
63870K0J4 0J420161203205511712/03/16 20:55:31  5-MIN K0J4 040155Z AUTO 07006KT 10SM OVC080 13/02 A3015 100 45 0 070/06 RMK AO2 SLP210 T01330017 $
63870K0J4 0J420161203210011012/03/16 21:00:31  5-MIN K0J4 040200Z AUTO 08005KT 10SM OVC080 13/02 A3015 100 45 0 080/05 RMK AO2 T01330017 $
63870K0J4 0J420161203210511712/03/16 21:05:31  5-MIN K0J4 040205Z AUTO 08007KT 10SM SCT070 OVC090 13/02 A3015 100 45 0 080/07 RMK AO2 T01330017 $
63870K0J4 0J420161203211011712/03/16 21:10:31  5-MIN K0J4 040210Z AUTO 08006KT 10SM BKN070 OVC090 13/02 A3015 100 45 0 080/06 RMK AO2 T01330017 $
63870K0J4 0J420161203211511712/03/16 21:15:31  5-MIN K0J4 040215Z AUTO 08006KT 10SM BKN070 OVC090 13/02 A3015 110 45 0 080/06 RMK AO2 T01330017 $
63870K0J4 0J420161203212011712/03/16 21:20:31  5-MIN K0J4 040220Z AUTO 08007KT 10SM BKN070 OVC090 13/02 A3015 110 45 0 080/07 RMK AO2 T01330017 $
63870K0J4 0J420161203212511712/03/16 21:25:31  5-MIN K0J4 040225Z AUTO 08006KT 10SM BKN070 OVC090 13/02 A3015 110 45 0 080/06 RMK AO2 T01330017 $
63870K0J4 0J420161203213011712/03/16 21:30:31  5-MIN K0J4 040230Z AUTO 08006KT 10SM BKN070 OVC090 13/02 A3015 100 45 0 080/06 RMK AO2 T01330017 $
63870K0J4 0J420161203213511712/03/16 21:35:31  5-MIN K0J4 040235Z AUTO 09006KT 10SM BKN070 OVC095 13/01 A3015 110 43 0 090/06 RMK AO2 T01330011 $
63870K0J4 0J420161203214011712/03/16 21:40:31  5-MIN K0J4 040240Z AUTO 08005KT 10SM BKN070 OVC095 13/01 A3015 110 43 0 080/05 RMK AO2 T01330011 $
63870K0J4 0J420161203214511712/03/16 21:45:31  5-MIN K0J4 040245Z AUTO 08007KT 10SM BKN070 OVC095 13/01 A3015 110 43 0 080/07 RMK AO2 T01330011 $
63870K0J4 0J420161203215011712/03/16 21:50:31  5-MIN K0J4 040250Z AUTO 08006KT 10SM BKN070 OVC095 13/01 A3014 110 43 0 080/06 RMK AO2 T01330011 $
63870K0J4 0J420161203215512412/03/16 21:55:31  5-MIN K0J4 040255Z AUTO 08006KT 10SM BKN070 OVC100 13/01 A3014 110 43 0 080/06 RMK AO2 SLP206 T01330011 $
63870K0J4 0J420161203220011712/03/16 22:00:31  5-MIN K0J4 040300Z AUTO 08005KT 10SM BKN070 OVC095 13/01 A3015 110 43 0 080/05 RMK AO2 T01330011 $
63870K0J4 0J420161203220511712/03/16 22:05:31  5-MIN K0J4 040305Z AUTO 09006KT 10SM BKN070 OVC095 13/01 A3015 110 43 0 090/06 RMK AO2 T01330011 $
63870K0J4 0J420161203221011712/03/16 22:10:31  5-MIN K0J4 040310Z AUTO 08006KT 10SM BKN070 OVC095 14/01 A3015 100 41 0 080/06 RMK AO2 T01390011 $
63870K0J4 0J420161203221511712/03/16 22:15:31  5-MIN K0J4 040315Z AUTO 08006KT 10SM BKN070 OVC090 14/01 A3015 100 41 0 080/06 RMK AO2 T01390011 $
63870K0J4 0J420161203222011712/03/16 22:20:31  5-MIN K0J4 040320Z AUTO 10004KT 10SM SCT070 OVC090 13/01 A3015 110 43 0 100/04 RMK AO2 T01330011 $
63870K0J4 0J420161203222511712/03/16 22:25:31  5-MIN K0J4 040325Z AUTO 10005KT 10SM SCT065 OVC090 13/01 A3015 110 43 0 100/05 RMK AO2 T01330011 $
63870K0J4 0J420161203223011712/03/16 22:30:31  5-MIN K0J4 040330Z AUTO 10006KT 10SM SCT065 OVC090 13/01 A3014 110 43 0 100/06 RMK AO2 T01330011 $
63870K0J4 0J420161203223511712/03/16 22:35:31  5-MIN K0J4 040335Z AUTO 08005KT 10SM SCT070 OVC090 13/01 A3014 110 43 0 080/05 RMK AO2 T01330011 $
63870K0J4 0J420161203224011712/03/16 22:40:31  5-MIN K0J4 040340Z AUTO 09004KT 10SM BKN070 OVC090 13/02 A3014 110 45 0 090/04 RMK AO2 T01330017 $
63870K0J4 0J420161203224511712/03/16 22:45:31  5-MIN K0J4 040345Z AUTO 10004KT 10SM BKN070 OVC090 13/02 A3014 120 45 0 100/04 RMK AO2 T01330017 $
63870K0J4 0J420161203225012412/03/16 22:50:31  5-MIN K0J4 040350Z AUTO 09007KT 10SM BKN070 OVC090 13/02 A3012 130 45 0 090/07 RMK AO2 PRESFR T01330017 $
63870K0J4 0J420161203225513112/03/16 22:55:31  5-MIN K0J4 040355Z AUTO 10006KT 10SM SCT070 OVC095 13/02 A3011 140 45 0 100/06 RMK AO2 PRESFR SLP194 T01330017 $
63870K0J4 0J420161203230012412/03/16 23:00:31  5-MIN K0J4 040400Z AUTO 10006KT 10SM SCT070 OVC095 13/02 A3010 150 45 0 100/06 RMK AO2 PRESFR T01330017 $
63870K0J4 0J420161203230511712/03/16 23:05:31  5-MIN K0J4 040405Z AUTO VRB06KT 10SM SCT070 OVC095 13/02 A3010 150 45 0 VRB/06 RMK AO2 T01330017 $
63870K0J4 0J420161203231011712/03/16 23:10:31  5-MIN K0J4 040410Z AUTO 10007KT 10SM FEW065 OVC095 13/02 A3010 150 45 0 100/07 RMK AO2 T01330017 $
63870K0J4 0J420161203231511012/03/16 23:15:31  5-MIN K0J4 040415Z AUTO 09006KT 10SM OVC095 13/02 A3010 150 45 0 090/06 RMK AO2 T01330017 $
63870K0J4 0J420161203232011012/03/16 23:20:31  5-MIN K0J4 040420Z AUTO 09006KT 10SM OVC100 13/02 A3010 150 45 0 090/06 RMK AO2 T01330017 $
63870K0J4 0J420161203232511012/03/16 23:25:31  5-MIN K0J4 040425Z AUTO 09007KT 10SM OVC100 13/02 A3009 160 45 0 090/07 RMK AO2 T01330017 $
63870K0J4 0J420161203233011012/03/16 23:30:31  5-MIN K0J4 040430Z AUTO 10006KT 10SM OVC100 13/02 A3009 160 45 0 100/06 RMK AO2 T01330017 $
63870K0J4 0J420161203233511012/03/16 23:35:31  5-MIN K0J4 040435Z AUTO 10007KT 10SM OVC100 13/02 A3009 160 45 0 100/07 RMK AO2 T01330017 $
63870K0J4 0J420161203234011012/03/16 23:40:31  5-MIN K0J4 040440Z AUTO VRB05KT 10SM OVC100 13/02 A3009 160 45 0 VRB/05 RMK AO2 T01330017 $
63870K0J4 0J420161203234511012/03/16 23:45:31  5-MIN K0J4 040445Z AUTO 11004KT 10SM OVC100 13/02 A3010 150 45 0 110/04 RMK AO2 T01330017 $
63870K0J4 0J420161203235011012/03/16 23:50:31  5-MIN K0J4 040450Z AUTO VRB04KT 10SM OVC100 13/01 A3011 140 43 0 VRB/04 RMK AO2 T01330011 $
63870K0J4 0J420161203235512712/03/16 23:55:31  5-MIN K0J4 040455Z AUTO 12004KT 10SM OVC100 13/01 A3011 140 43 0 120/04 RMK AO2 SLP195 T01330011 401720100 $
63870K0J4 0J420161204000011012/04/16 00:00:31  5-MIN K0J4 040500Z AUTO 12003KT 10SM OVC100 13/01 A3011 140 43 0 120/03 RMK AO2 T01330011 $
63870K0J4 0J420161204000511012/04/16 00:05:31  5-MIN K0J4 040505Z AUTO 12004KT 10SM OVC095 13/02 A3011 140 45 0 120/04 RMK AO2 T01330017 $
63870K0J4 0J420161204001011712/04/16 00:10:31  5-MIN K0J4 040510Z AUTO 11004KT 10SM FEW080 OVC100 13/01 A3011 140 43 0 110/04 RMK AO2 T01330011 $
63870K0J4 0J420161204001511712/04/16 00:15:31  5-MIN K0J4 040515Z AUTO 10006KT 10SM FEW080 OVC100 13/01 A3010 150 43 0 100/06 RMK AO2 T01330011 $
63870K0J4 0J420161204002011912/04/16 00:20:31  5-MIN K0J4 040520Z AUTO 10005KT 10SM SCT080 OVC100 14/01 A3010 150 41 100 100/05 RMK AO2 T01390011 $
63870K0J4 0J420161204002512412/04/16 00:25:31  5-MIN K0J4 040525Z AUTO 11004KT 10SM FEW036 BKN080 OVC100 13/02 A3010 150 45 0 110/04 RMK AO2 T01330017 $
63870K0J4 0J420161204003012612/04/16 00:30:31  5-MIN K0J4 040530Z AUTO VRB04KT 10SM SCT036 BKN080 OVC100 14/02 A3010 150 43 100 VRB/04 RMK AO2 T01390017 $
63870K0J4 0J420161204003512412/04/16 00:35:31  5-MIN K0J4 040535Z AUTO VRB04KT 10SM BKN036 BKN080 OVC100 13/02 A3009 160 45 0 VRB/04 RMK AO2 T01330017 $
63870K0J4 0J420161204004012612/04/16 00:40:31  5-MIN K0J4 040540Z AUTO VRB04KT 10SM BKN035 BKN080 OVC100 14/02 A3010 150 43 100 VRB/04 RMK AO2 T01390017 $
63870K0J4 0J420161204004511912/04/16 00:45:31  5-MIN K0J4 040545Z AUTO VRB03KT 10SM BKN035 OVC080 14/02 A3009 160 43 100 VRB/03 RMK AO2 T01390017 $
63870K0J4 0J420161204005011912/04/16 00:50:31  5-MIN K0J4 040550Z AUTO VRB03KT 10SM BKN035 OVC080 14/02 A3009 160 43 100 VRB/03 RMK AO2 T01390017 $
63870K0J4 0J420161204005513112/04/16 00:55:31  5-MIN K0J4 040555Z AUTO 09003KT 10SM OVC034 14/02 A3009 160 43 100 090/03 RMK AO2 SLP188 T01390017 10139 20133 $
63870K0J4 0J420161204010011212/04/16 01:00:31  5-MIN K0J4 040600Z AUTO 09003KT 10SM OVC034 14/02 A3009 160 43 100 090/03 RMK AO2 T01390017 $
63870K0J4 0J420161204010511212/04/16 01:05:31  5-MIN K0J4 040605Z AUTO 11003KT 10SM OVC033 14/02 A3008 160 43 100 110/03 RMK AO2 T01390017 $
63870K0J4 0J420161204011011212/04/16 01:10:31  5-MIN K0J4 040610Z AUTO 10004KT 10SM OVC033 14/02 A3008 170 43 100 100/04 RMK AO2 T01390017 $
63870K0J4 0J420161204011511212/04/16 01:15:31  5-MIN K0J4 040615Z AUTO VRB04KT 10SM OVC033 14/02 A3008 170 43 100 VRB/04 RMK AO2 T01390017 $
63870K0J4 0J420161204012011212/04/16 01:20:31  5-MIN K0J4 040620Z AUTO 09004KT 10SM OVC033 14/02 A3008 170 45 100 090/04 RMK AO2 T01390022 $
63870K0J4 0J420161204012511212/04/16 01:25:31  5-MIN K0J4 040625Z AUTO 09004KT 10SM OVC031 14/02 A3008 170 45 100 090/04 RMK AO2 T01390022 $
63870K0J4 0J420161204013011212/04/16 01:30:31  5-MIN K0J4 040630Z AUTO 10006KT 10SM OVC031 14/02 A3007 180 45 100 100/06 RMK AO2 T01390022 $
63870K0J4 0J420161204013511212/04/16 01:35:31  5-MIN K0J4 040635Z AUTO 12004KT 10SM OVC031 14/02 A3007 180 45 100 120/04 RMK AO2 T01390022 $
63870K0J4 0J420161204014011212/04/16 01:40:31  5-MIN K0J4 040640Z AUTO 12004KT 10SM OVC029 14/02 A3008 170 45 100 120/04 RMK AO2 T01390022 $
63870K0J4 0J420161204014511212/04/16 01:45:31  5-MIN K0J4 040645Z AUTO VRB03KT 10SM OVC029 14/02 A3008 170 45 100 VRB/03 RMK AO2 T01390022 $
63870K0J4 0J420161204015011212/04/16 01:50:31  5-MIN K0J4 040650Z AUTO VRB04KT 10SM OVC029 14/03 A3008 170 47 100 VRB/04 RMK AO2 T01390028 $
63870K0J4 0J420161204015511912/04/16 01:55:31  5-MIN K0J4 040655Z AUTO 11006KT 10SM OVC029 14/03 A3007 180 47 100 110/06 RMK AO2 SLP179 T01390028 $
63870K0J4 0J420161204020011212/04/16 02:00:31  5-MIN K0J4 040700Z AUTO VRB06KT 10SM OVC029 14/03 A3006 180 47 100 VRB/06 RMK AO2 T01390028 $
63870K0J4 0J420161204020511212/04/16 02:05:31  5-MIN K0J4 040705Z AUTO 11006KT 10SM OVC028 14/03 A3006 180 48 100 110/06 RMK AO2 T01390033 $
63870K0J4 0J420161204021011212/04/16 02:10:31  5-MIN K0J4 040710Z AUTO 13007KT 10SM OVC028 14/03 A3006 190 48 100 130/07 RMK AO2 T01390033 $
63870K0J4 0J420161204021511212/04/16 02:15:31  5-MIN K0J4 040715Z AUTO 13007KT 10SM OVC026 14/04 A3006 190 50 100 130/07 RMK AO2 T01390039 $
63870K0J4 0J420161204022011212/04/16 02:20:31  5-MIN K0J4 040720Z AUTO 12007KT 10SM OVC026 14/04 A3005 190 50 100 120/07 RMK AO2 T01390039 $
63870K0J4 0J420161204022511212/04/16 02:25:31  5-MIN K0J4 040725Z AUTO 13006KT 10SM OVC026 14/04 A3006 190 50 100 130/06 RMK AO2 T01390039 $
63870K0J4 0J420161204023011212/04/16 02:30:31  5-MIN K0J4 040730Z AUTO 12007KT 10SM OVC026 14/04 A3005 190 50 100 120/07 RMK AO2 T01390039 $
63870K0J4 0J420161204023511212/04/16 02:35:31  5-MIN K0J4 040735Z AUTO 11007KT 10SM OVC026 14/04 A3005 200 52 200 110/07 RMK AO2 T01390044 $
63870K0J4 0J420161204024011912/04/16 02:40:31  5-MIN K0J4 040740Z AUTO 12006KT 10SM BKN026 OVC100 14/04 A3004 200 52 200 120/06 RMK AO2 T01390044 $
63870K0J4 0J420161204024511912/04/16 02:45:31  5-MIN K0J4 040745Z AUTO 13007KT 10SM BKN026 OVC100 14/04 A3004 200 52 200 130/07 RMK AO2 T01390044 $
63870K0J4 0J420161204025011912/04/16 02:50:31  5-MIN K0J4 040750Z AUTO 13006KT 10SM BKN025 OVC100 14/04 A3004 200 52 200 130/06 RMK AO2 T01390044 $
63870K0J4 0J420161204025510912/04/16 02:55:31  5-MIN K0J4 040755Z AUTO 14008KT 10SM SCT025 OVC100 14/04 A3005 200 52 200 140/08 RMK AO2 $
63870K0J4 0J420161204030011912/04/16 03:00:31  5-MIN K0J4 040800Z AUTO VRB06KT 10SM SCT025 OVC100 14/05 A3004 200 55 200 VRB/06 RMK AO2 T01390050 $
63870K0J4 0J420161204030512612/04/16 03:05:31  5-MIN K0J4 040805Z AUTO VRB05KT 10SM FEW025 SCT060 OVC110 14/05 A3005 200 55 200 VRB/05 RMK AO2 T01390050 $
63870K0J4 0J420161204031012612/04/16 03:10:31  5-MIN K0J4 040810Z AUTO 14006KT 10SM SCT025 BKN090 OVC110 14/05 A3005 200 55 200 140/06 RMK AO2 T01390050 $
63870K0J4 0J420161204031512612/04/16 03:15:31  5-MIN K0J4 040815Z AUTO 14006KT 10SM SCT025 BKN055 OVC110 14/05 A3004 200 55 200 140/06 RMK AO2 T01390050 $
63870K0J4 0J420161204032012612/04/16 03:20:31  5-MIN K0J4 040820Z AUTO VRB05KT 10SM SCT026 BKN040 OVC110 14/05 A3004 200 55 200 VRB/05 RMK AO2 T01390050 $
63870K0J4 0J420161204032512612/04/16 03:25:31  5-MIN K0J4 040825Z AUTO 14007KT 10SM FEW026 BKN040 OVC110 14/05 A3004 210 55 200 140/07 RMK AO2 T01390050 $
63870K0J4 0J420161204033012612/04/16 03:30:31  5-MIN K0J4 040830Z AUTO 14005KT 10SM FEW026 BKN041 OVC055 14/05 A3004 210 55 200 140/05 RMK AO2 T01390050 $
63870K0J4 0J420161204033511912/04/16 03:35:31  5-MIN K0J4 040835Z AUTO 15008KT 10SM FEW026 OVC041 14/06 A3004 210 57 200 150/08 RMK AO2 T01390056 $
63870K0J4 0J420161204034011912/04/16 03:40:31  5-MIN K0J4 040840Z AUTO 14007KT 10SM FEW026 OVC041 14/06 A3004 210 57 200 140/07 RMK AO2 T01390056 $
63870K0J4 0J420161204034511212/04/16 03:45:31  5-MIN K0J4 040845Z AUTO 15006KT 10SM OVC041 14/06 A3004 210 57 200 150/06 RMK AO2 T01390056 $
63870K0J4 0J420161204035011212/04/16 03:50:31  5-MIN K0J4 040850Z AUTO 13006KT 10SM OVC041 14/06 A3004 210 57 200 130/06 RMK AO2 T01390056 $
63870K0J4 0J420161204035513212/04/16 03:55:31  5-MIN K0J4 040855Z AUTO 13006KT 10SM FEW029 OVC041 14/06 A3004 210 57 200 130/06 RMK AO2 SLP168 T01390056 56019 $
63870K0J4 0J420161204040011912/04/16 04:00:31  5-MIN K0J4 040900Z AUTO 13006KT 10SM FEW029 OVC041 14/06 A3003 210 57 200 130/06 RMK AO2 T01390056 $
63870K0J4 0J420161204040511912/04/16 04:05:31  5-MIN K0J4 040905Z AUTO 13007KT 10SM FEW029 OVC041 14/06 A3003 220 59 200 130/07 RMK AO2 T01390061 $
63870K0J4 0J420161204041011912/04/16 04:10:31  5-MIN K0J4 040910Z AUTO 13006KT 10SM FEW030 OVC041 14/06 A3003 220 59 200 130/06 RMK AO2 T01390061 $
63870K0J4 0J420161204041511912/04/16 04:15:31  5-MIN K0J4 040915Z AUTO 14007KT 10SM SCT030 OVC041 14/06 A3002 220 59 200 140/07 RMK AO2 T01390061 $
63870K0J4 0J420161204042011912/04/16 04:20:31  5-MIN K0J4 040920Z AUTO 13007KT 10SM BKN030 OVC041 14/06 A3002 220 59 200 130/07 RMK AO2 T01390061 $
63870K0J4 0J420161204042511912/04/16 04:25:31  5-MIN K0J4 040925Z AUTO VRB05KT 10SM BKN030 OVC042 14/07 A3002 220 61 200 VRB/05 RMK AO2 T01390067 $
63870K0J4 0J420161204043011912/04/16 04:30:31  5-MIN K0J4 040930Z AUTO 13006KT 10SM BKN030 OVC042 14/07 A3002 220 61 200 130/06 RMK AO2 T01390067 $
63870K0J4 0J420161204043511212/04/16 04:35:31  5-MIN K0J4 040935Z AUTO VRB06KT 10SM OVC030 14/07 A3002 220 61 200 VRB/06 RMK AO2 T01390067 $
63870K0J4 0J420161204044011212/04/16 04:40:31  5-MIN K0J4 040940Z AUTO 14007KT 10SM OVC031 14/07 A3002 220 61 200 140/07 RMK AO2 T01390067 $
63870K0J4 0J420161204044511212/04/16 04:45:31  5-MIN K0J4 040945Z AUTO 15007KT 10SM OVC029 14/07 A3002 220 61 200 150/07 RMK AO2 T01440072 $
63870K0J4 0J420161204045011212/04/16 04:50:31  5-MIN K0J4 040950Z AUTO 14006KT 10SM OVC029 14/07 A3002 220 61 200 140/06 RMK AO2 T01440072 $
63870K0J4 0J420161204045511912/04/16 04:55:31  5-MIN K0J4 040955Z AUTO 15007KT 10SM OVC029 14/07 A3002 220 61 300 150/07 RMK AO2 SLP163 T01440072 $
63870K0J4 0J420161204050011212/04/16 05:00:31  5-MIN K0J4 041000Z AUTO 14008KT 10SM OVC029 14/07 A3002 230 61 300 140/08 RMK AO2 T01440072 $
63870K0J4 0J420161204050511212/04/16 05:05:31  5-MIN K0J4 041005Z AUTO 14008KT 10SM OVC029 14/08 A3002 230 64 300 140/08 RMK AO2 T01440078 $
63870K0J4 0J420161204051011212/04/16 05:10:31  5-MIN K0J4 041010Z AUTO 15007KT 10SM OVC030 14/08 A3002 230 64 300 150/07 RMK AO2 T01440078 $
63870K0J4 0J420161204051512812/04/16 05:15:31  5-MIN K0J4 041015Z AUTO 15008KT 100V170 10SM OVC030 14/08 A3002 230 64 300 150/08 100V170 RMK AO2 T01440078 $
63870K0J4 0J420161204052011212/04/16 05:20:31  5-MIN K0J4 041020Z AUTO 14008KT 10SM OVC030 14/08 A3001 230 64 300 140/08 RMK AO2 T01440078 $
63870K0J4 0J420161204052511212/04/16 05:25:31  5-MIN K0J4 041025Z AUTO 14008KT 10SM OVC030 14/08 A3001 230 64 300 140/08 RMK AO2 T01440078 $
63870K0J4 0J420161204053011212/04/16 05:30:31  5-MIN K0J4 041030Z AUTO VRB06KT 10SM OVC030 14/08 A3002 230 64 300 VRB/06 RMK AO2 T01440078 $
63870K0J4 0J420161204053511812/04/16 05:35:31  5-MIN K0J4 041035Z AUTO 15010G14KT 10SM OVC030 14/08 A3002 220 66 300 150/10G14 RMK AO2 T01440083 $
63870K0J4 0J420161204054012512/04/16 05:40:31  5-MIN K0J4 041040Z AUTO 14007G14KT 10SM BKN031 OVC047 14/08 A3001 230 66 300 140/07G14 RMK AO2 T01440083 $
63870K0J4 0J420161204054511912/04/16 05:45:31  5-MIN K0J4 041045Z AUTO 15009KT 10SM BKN031 BKN047 14/08 A3001 230 66 300 150/09 RMK AO2 T01440083 $
63870K0J4 0J420161204055011912/04/16 05:50:31  5-MIN K0J4 041050Z AUTO 15008KT 10SM SCT031 BKN047 14/08 A3001 230 66 300 150/08 RMK AO2 T01440083 $
63870K0J4 0J420161204055513212/04/16 05:55:31  5-MIN K0J4 041055Z AUTO 16009G15KT 10SM SCT031 SCT047 14/08 A3002 230 66 300 160/09G15 RMK AO2 SLP162 T01440083 $
63870K0J4 0J420161204060012612/04/16 06:00:31  5-MIN K0J4 041100Z AUTO 16010KT 10SM FEW033 SCT047 SCT120 14/08 A3002 220 66 200 160/10 RMK AO2 T01440083 $
63870K0J4 0J420161204060512612/04/16 06:05:31  5-MIN K0J4 041105Z AUTO 16008KT 10SM FEW047 SCT060 BKN120 14/09 A3003 220 69 200 160/08 RMK AO2 T01440089 $
63870K0J4 0J420161204061012612/04/16 06:10:31  5-MIN K0J4 041110Z AUTO 16007KT 10SM FEW018 SCT060 SCT120 14/09 A3003 220 69 200 160/07 RMK AO2 T01440089 $
63870K0J4 0J420161204061512612/04/16 06:15:31  5-MIN K0J4 041115Z AUTO 15007KT 10SM SCT018 BKN060 BKN120 14/09 A3002 220 69 200 150/07 RMK AO2 T01440089 $
63870K0J4 0J420161204062012612/04/16 06:20:31  5-MIN K0J4 041120Z AUTO 15006KT 10SM BKN017 BKN060 BKN120 14/09 A3002 220 69 200 150/06 RMK AO2 T01440089 $
63870K0J4 0J420161204062512612/04/16 06:25:31  5-MIN K0J4 041125Z AUTO 15006KT 10SM BKN017 BKN060 OVC120 14/09 A3003 220 69 200 150/06 RMK AO2 T01440089 $
63870K0J4 0J420161204063011912/04/16 06:30:31  5-MIN K0J4 041130Z AUTO 15008KT 10SM BKN017 OVC060 14/09 A3002 220 69 200 150/08 RMK AO2 T01440089 $
63870K0J4 0J420161204063511212/04/16 06:35:31  5-MIN K0J4 041135Z AUTO 15006KT 10SM OVC017 14/09 A3003 220 69 200 150/06 RMK AO2 T01440089 $
63870K0J4 0J420161204064011212/04/16 06:40:31  5-MIN K0J4 041140Z AUTO 15006KT 10SM OVC016 14/09 A3003 210 69 200 150/06 RMK AO2 T01440089 $
63870K0J4 0J420161204064511212/04/16 06:45:31  5-MIN K0J4 041145Z AUTO 15007KT 10SM OVC016 14/09 A3003 210 69 200 150/07 RMK AO2 T01440089 $
63870K0J4 0J420161204065011212/04/16 06:50:31  5-MIN K0J4 041150Z AUTO 15008KT 10SM OVC014 14/09 A3003 210 69 200 150/08 RMK AO2 T01440089 $
63870K0J4 0J420161204065513712/04/16 06:55:31  5-MIN K0J4 041155Z AUTO 16007KT 10SM OVC014 14/09 A3004 210 69 200 160/07 RMK AO2 SLP169 T01440089 10144 20139 56019 $
63870K0J4 0J420161204070011212/04/16 07:00:31  5-MIN K0J4 041200Z AUTO 15007KT 10SM OVC014 14/09 A3003 210 69 200 150/07 RMK AO2 T01440089 $
63870K0J4 0J420161204070511212/04/16 07:05:31  5-MIN K0J4 041205Z AUTO 15006KT 10SM OVC014 14/09 A3003 210 72 200 150/06 RMK AO2 T01440094 $
63870K0J4 0J420161204071011212/04/16 07:10:31  5-MIN K0J4 041210Z AUTO 15006KT 10SM OVC014 14/09 A3003 220 72 200 150/06 RMK AO2 T01440094 $
63870K0J4 0J420161204071511212/04/16 07:15:31  5-MIN K0J4 041215Z AUTO 15006KT 10SM OVC014 14/09 A3003 220 72 200 150/06 RMK AO2 T01440094 $
63870K0J4 0J420161204072011212/04/16 07:20:31  5-MIN K0J4 041220Z AUTO 14007KT 10SM OVC013 14/09 A3002 220 72 200 140/07 RMK AO2 T01440094 $
63870K0J4 0J420161204072511812/04/16 07:25:31  5-MIN K0J4 041225Z AUTO 15011G17KT 10SM OVC013 14/09 A3002 220 72 200 150/11G17 RMK AO2 T01440094 $
63870K0J4 0J420161204073011812/04/16 07:30:31  5-MIN K0J4 041230Z AUTO 14007G17KT 10SM OVC013 14/09 A3002 220 72 200 140/07G17 RMK AO2 T01440094 $
63870K0J4 0J420161204073511212/04/16 07:35:31  5-MIN K0J4 041235Z AUTO 15007KT 10SM OVC015 14/09 A3003 220 72 200 150/07 RMK AO2 T01440094 $
63870K0J4 0J420161204074011212/04/16 07:40:31  5-MIN K0J4 041240Z AUTO 15007KT 10SM OVC015 14/09 A3002 220 72 200 150/07 RMK AO2 T01440094 $
63870K0J4 0J420161204074511212/04/16 07:45:31  5-MIN K0J4 041245Z AUTO 14007KT 10SM OVC015 14/10 A3002 230 74 300 140/07 RMK AO2 T01440100 $
63870K0J4 0J420161204075012812/04/16 07:50:31  5-MIN K0J4 041250Z AUTO 13007KT 100V170 10SM OVC015 14/10 A3001 230 74 300 130/07 100V170 RMK AO2 T01440100 $
63870K0J4 0J420161204075511912/04/16 07:55:31  5-MIN K0J4 041255Z AUTO 14006KT 10SM OVC015 14/10 A3002 220 74 300 140/06 RMK AO2 SLP164 T01440100 $
63870K0J4 0J420161204080011212/04/16 08:00:31  5-MIN K0J4 041300Z AUTO 15007KT 10SM OVC015 14/10 A3002 230 74 300 150/07 RMK AO2 T01440100 $
63870K0J4 0J420161204080511212/04/16 08:05:31  5-MIN K0J4 041305Z AUTO 14006KT 10SM OVC013 14/10 A3002 230 74 300 140/06 RMK AO2 T01440100 $
63870K0J4 0J420161204081011212/04/16 08:10:31  5-MIN K0J4 041310Z AUTO VRB04KT 10SM OVC013 15/11 A3002 220 74 300 VRB/04 RMK AO2 T01500106 $
63870K0J4 0J420161204081511212/04/16 08:15:31  5-MIN K0J4 041315Z AUTO 14005KT 10SM OVC013 15/11 A3002 220 74 300 140/05 RMK AO2 T01500106 $
63870K0J4 0J420161204082011212/04/16 08:20:31  5-MIN K0J4 041320Z AUTO VRB06KT 10SM OVC012 15/11 A3002 230 74 300 VRB/06 RMK AO2 T01500106 $
63870K0J4 0J420161204082508612/04/16 08:25:31  5-MIN K0J4 041325Z AUTO 13004KT M M M 130/04 RMK AO2 PWINO FZRANO $
63870K0J4 0J420161204083010012/04/16 08:30:31  5-MIN K0J4 041330Z AUTO VRB06KT 15/11 A3002 220 74 300 VRB/06 RMK AO2 T01500106 $
63870K0J4 0J420161204083510512/04/16 08:35:31  5-MIN K0J4 041335Z AUTO 13006KT 10SM 15/11 A3003 220 77 300 130/06 RMK AO2 T01500111 $
63870K0J4 0J420161204084010512/04/16 08:40:31  5-MIN K0J4 041340Z AUTO 13004KT 10SM 15/11 A3002 220 77 300 130/04 RMK AO2 T01500111 $
63870K0J4 0J420161204084510512/04/16 08:45:31  5-MIN K0J4 041345Z AUTO VRB05KT 10SM 15/11 A3003 220 77 300 VRB/05 RMK AO2 T01500111 $
63870K0J4 0J420161204085010512/04/16 08:50:31  5-MIN K0J4 041350Z AUTO 14005KT 10SM 15/11 A3003 220 77 300 140/05 RMK AO2 T01500111 $
63870K0J4 0J420161204085510212/04/16 08:55:31  5-MIN K0J4 041355Z AUTO 14006KT 10SM OVC012 15/11 A3002 220 77 300 140/06 RMK AO2 $
63870K0J4 0J420161204090011212/04/16 09:00:31  5-MIN K0J4 041400Z AUTO 14007KT 10SM OVC012 15/11 A3003 220 77 300 140/07 RMK AO2 T01500111 $
63870K0J4 0J420161204090511212/04/16 09:05:31  5-MIN K0J4 041405Z AUTO 15008KT 10SM OVC012 15/11 A3003 220 77 300 150/08 RMK AO2 T01500111 $
63870K0J4 0J420161204091011212/04/16 09:10:31  5-MIN K0J4 041410Z AUTO 13006KT 10SM OVC012 15/11 A3002 230 77 300 130/06 RMK AO2 T01500111 $
63870K0J4 0J420161204091511912/04/16 09:15:31  5-MIN K0J4 041415Z AUTO 15007KT 10SM BKN012 OVC021 15/11 A3002 220 77 300 150/07 RMK AO2 T01500111 $
63870K0J4 0J420161204092012812/04/16 09:20:31  5-MIN K0J4 041420Z AUTO 15007KT 10SM -RA OVC012 15/11 A3003 220 77 300 150/07 RMK AO2 RAB18 P0000 T01500111 $
63870K0J4 0J420161204092512812/04/16 09:25:31  5-MIN K0J4 041425Z AUTO 14004KT 10SM -RA OVC012 15/12 A3003 210 80 300 140/04 RMK AO2 RAB18 P0000 T01500117 $
63870K0J4 0J420161204093012812/04/16 09:30:31  5-MIN K0J4 041430Z AUTO VRB04KT 10SM -RA OVC013 15/12 A3003 210 80 300 VRB/04 RMK AO2 RAB18 P0000 T01500117 $
63870K0J4 0J420161204093512812/04/16 09:35:31  5-MIN K0J4 041435Z AUTO 14007KT 10SM -RA OVC013 15/12 A3003 210 80 300 140/07 RMK AO2 RAB18 P0000 T01500117 $
63870K0J4 0J420161204094012812/04/16 09:40:31  5-MIN K0J4 041440Z AUTO VRB04KT 10SM -RA OVC013 15/12 A3003 210 80 300 VRB/04 RMK AO2 RAB18 P0000 T01500117 $
63870K0J4 0J420161204094512812/04/16 09:45:31  5-MIN K0J4 041445Z AUTO 13004KT 10SM -RA OVC013 15/12 A3003 210 80 300 130/04 RMK AO2 RAB18 P0000 T01500117 $
63870K0J4 0J420161204095012812/04/16 09:50:31  5-MIN K0J4 041450Z AUTO 12005KT 10SM -RA OVC013 16/12 A3003 220 77 400 120/05 RMK AO2 RAB18 P0000 T01560117 $
63870K0J4 0J420161204095514112/04/16 09:55:31  5-MIN K0J4 041455Z AUTO 13003KT 10SM -RA OVC012 15/12 A3003 210 80 300 130/03 RMK AO2 RAB18 SLP168 P0000 60000 T01500117 $
63870K0J4 0J420161204100012212/04/16 10:00:31  5-MIN K0J4 041500Z AUTO 11004KT 10SM -RA OVC012 15/12 A3003 210 83 300 110/04 RMK AO2 P0000 T01500122 $
63870K0J4 0J420161204100512212/04/16 10:05:31  5-MIN K0J4 041505Z AUTO 13005KT 10SM -RA OVC012 15/12 A3003 210 83 300 130/05 RMK AO2 P0000 T01500122 $
63870K0J4 0J420161204101012212/04/16 10:10:31  5-MIN K0J4 041510Z AUTO 11005KT 10SM -RA OVC012 15/12 A3003 210 83 300 110/05 RMK AO2 P0000 T01500122 $
63870K0J4 0J420161204101512412/04/16 10:15:31  5-MIN K0J4 041515Z AUTO 10005KT 10SM OVC011 15/12 A3003 220 83 300 100/05 RMK AO2 RAE14 P0000 T01500122 $
63870K0J4 0J420161204102012412/04/16 10:20:31  5-MIN K0J4 041520Z AUTO VRB05KT 10SM OVC011 15/13 A3003 210 86 300 VRB/05 RMK AO2 RAE14 P0000 T01500128 $
63870K0J4 0J420161204102512412/04/16 10:25:31  5-MIN K0J4 041525Z AUTO VRB05KT 10SM OVC011 15/12 A3003 220 83 300 VRB/05 RMK AO2 RAE14 P0000 T01500122 $
63870K0J4 0J420161204103012412/04/16 10:30:31  5-MIN K0J4 041530Z AUTO VRB04KT 10SM OVC011 16/13 A3003 210 83 400 VRB/04 RMK AO2 RAE14 P0000 T01560128 $
63870K0J4 0J420161204103512412/04/16 10:35:31  5-MIN K0J4 041535Z AUTO 11003KT 10SM OVC011 16/13 A3003 220 83 400 110/03 RMK AO2 RAE14 P0000 T01560128 $
63870K0J4 0J420161204104012412/04/16 10:40:31  5-MIN K0J4 041540Z AUTO VRB04KT 10SM OVC011 16/13 A3004 210 83 400 VRB/04 RMK AO2 RAE14 P0000 T01560128 $
63870K0J4 0J420161204104513112/04/16 10:45:31  5-MIN K0J4 041545Z AUTO 10004KT 10SM BKN011 OVC019 16/13 A3003 220 83 400 100/04 RMK AO2 RAE14 P0000 T01560128 $
63870K0J4 0J420161204105013112/04/16 10:50:31  5-MIN K0J4 041550Z AUTO 13003KT 10SM BKN011 OVC021 16/13 A3003 220 83 400 130/03 RMK AO2 RAE14 P0000 T01560128 $
63870K0J4 0J420161204105513812/04/16 10:55:31  5-MIN K0J4 041555Z AUTO 13004KT 10SM BKN011 OVC021 16/13 A3003 220 80 400 130/04 RMK AO2 RAE14 SLP166 P0000 T01610128 $
63870K0J4 0J420161204110012612/04/16 11:00:31  5-MIN K0J4 041600Z AUTO 12004KT 10SM SCT011 BKN017 OVC023 16/13 A3002 220 83 400 120/04 RMK AO2 T01610133 $
63870K0J4 0J420161204110511912/04/16 11:05:31  5-MIN K0J4 041605Z AUTO 14006KT 10SM SCT011 OVC023 16/13 A3002 230 83 500 140/06 RMK AO2 T01610133 $
63870K0J4 0J420161204111011912/04/16 11:10:31  5-MIN K0J4 041610Z AUTO 12006KT 10SM FEW011 OVC023 16/13 A3001 230 83 500 120/06 RMK AO2 T01610133 $
63870K0J4 0J420161204111513312/04/16 11:15:31  5-MIN K0J4 041615Z AUTO 13006KT 10SM SCT012 SCT017 OVC023 16/13 A3000 240 83 500 130/06 RMK AO2 PRESFR T01610133 $
63870K0J4 0J420161204112012612/04/16 11:20:31  5-MIN K0J4 041620Z AUTO VRB06KT 10SM SCT012 BKN020 OVC026 16/13 A3001 240 83 500 VRB/06 RMK AO2 T01610133 $
63870K0J4 0J420161204112513412/04/16 11:25:31  5-MIN K0J4 041625Z AUTO VRB05KT 9SM -RA BKN012 OVC023 16/13 A3001 240 83 500 VRB/05 RMK AO2 RAB24 P0000 T01610133 $
63870K0J4 0J420161204113013512/04/16 11:30:31  5-MIN K0J4 041630Z AUTO 14005KT 10SM -RA BKN012 OVC023 16/14 A3001 240 86 500 140/05 RMK AO2 RAB24 P0000 T01610139 $
63870K0J4 0J420161204113514212/04/16 11:35:31  5-MIN K0J4 041635Z AUTO 12004KT 10SM -RA BKN012 BKN020 OVC027 16/14 A3000 250 86 500 120/04 RMK AO2 RAB24 P0000 T01610139 $
63870K0J4 0J420161204114013412/04/16 11:40:31  5-MIN K0J4 041640Z AUTO 11003KT 10SM SCT012 OVC027 16/14 A2999 250 86 500 110/03 RMK AO2 RAB24E39 P0000 T01610139 $
63870K0J4 0J420161204114514112/04/16 11:45:31  5-MIN K0J4 041645Z AUTO 10004KT 10SM SCT012 BKN027 OVC031 16/14 A2999 260 86 500 100/04 RMK AO2 RAB24E39 P0000 T01610139 $
63870K0J4 0J420161204115014112/04/16 11:50:31  5-MIN K0J4 041650Z AUTO VRB04KT 10SM FEW012 BKN026 OVC031 16/14 A2999 250 86 500 VRB/04 RMK AO2 RAB24E39 P0000 T01610139 $
63870K0J4 0J420161204115514812/04/16 11:55:31  5-MIN K0J4 041655Z AUTO VRB04KT 10SM FEW012 BKN026 OVC031 16/14 A2999 250 86 500 VRB/04 RMK AO2 RAB24E39 SLP153 P0000 T01610139 $
63870K0J4 0J420161204120013612/04/16 12:00:31  5-MIN K0J4 041700Z AUTO 10004KT 10SM -RA FEW022 BKN029 OVC034 17/14 A2999 250 83 500 100/04 RMK AO2 P0000 T01670139 $
63870K0J4 0J420161204120513612/04/16 12:05:31  5-MIN K0J4 041705Z AUTO VRB04KT 10SM -RA FEW017 BKN026 OVC035 17/14 A2999 260 83 600 VRB/04 RMK AO2 P0000 T01670139 $
63870K0J4 0J420161204121013612/04/16 12:10:31  5-MIN K0J4 041710Z AUTO 10005KT 10SM -RA SCT018 BKN026 OVC030 17/14 A2998 260 83 600 100/05 RMK AO2 P0000 T01670139 $
63870K0J4 0J420161204121513612/04/16 12:15:31  5-MIN K0J4 041715Z AUTO 09004KT 10SM -RA SCT018 BKN024 OVC033 17/14 A2998 260 83 600 090/04 RMK AO2 P0000 T01670139 $
63870K0J4 0J420161204122013612/04/16 12:20:31  5-MIN K0J4 041720Z AUTO 10004KT 10SM -RA SCT017 BKN021 OVC031 17/14 A2997 270 83 600 100/04 RMK AO2 P0000 T01670139 $
63870K0J4 0J420161204123009512/04/16 12:30:31  5-MIN K0J4 041730Z AUTO 08007KT -RA A2996 M M M 080/07 RMK AO2 RAB30 P0000 $
63870K0J4 0J420161204123512112/04/16 12:35:31  5-MIN K0J4 041735Z AUTO 08005KT 10SM -RA 17/14 A2996 280 86 600 080/05 RMK AO2 RAB30 P0000 T01670144 $
63870K0J4 0J420161204124012112/04/16 12:40:31  5-MIN K0J4 041740Z AUTO 08005KT 10SM -RA 17/14 A2996 280 86 600 080/05 RMK AO2 RAB30 P0000 T01670144 $
63870K0J4 0J420161204124512112/04/16 12:45:31  5-MIN K0J4 041745Z AUTO 08005KT 10SM -RA 17/14 A2996 280 83 600 080/05 RMK AO2 RAB30 P0000 T01670139 $
63870K0J4 0J420161204125012112/04/16 12:50:31  5-MIN K0J4 041750Z AUTO VRB03KT 10SM -RA 17/14 A2996 280 83 600 VRB/03 RMK AO2 RAB30 P0000 T01670139 $
63870K0J4 0J420161204125511812/04/16 12:55:31  5-MIN K0J4 041755Z AUTO 09003KT 10SM -RA OVC015 17/14 A2996 280 86 600 090/03 RMK AO2 RAB30 P0000 $
63870K0J4 0J420161204130012112/04/16 13:00:31  5-MIN K0J4 041800Z AUTO 08004KT 8SM -RA OVC015 17/14 A2996 280 86 600 080/04 RMK AO2 P0000 T01670144 $
63870K0J4 0J420161204130512112/04/16 13:05:31  5-MIN K0J4 041805Z AUTO 08006KT 7SM -RA OVC015 17/14 A2995 290 86 600 080/06 RMK AO2 P0001 T01670144 $
63870K0J4 0J420161204131012312/04/16 13:10:31  5-MIN K0J4 041810Z AUTO 09004KT 6SM RA BR OVC015 16/14 A2995 290 90 500 090/04 RMK AO2 P0001 T01610144 $
63870K0J4 0J420161204131512312/04/16 13:15:31  5-MIN K0J4 041815Z AUTO 00000KT 6SM RA BR OVC015 16/14 A2995 290 90 500 000/00 RMK AO2 P0001 T01610144 $
63870K0J4 0J420161204132012112/04/16 13:20:31  5-MIN K0J4 041820Z AUTO 06003KT 9SM -RA OVC015 17/14 A2994 290 86 600 060/03 RMK AO2 P0001 T01670144 $
63870K0J4 0J420161204132512212/04/16 13:25:31  5-MIN K0J4 041825Z AUTO 06003KT 10SM -RA OVC015 17/14 A2995 290 86 600 060/03 RMK AO2 P0001 T01670144 $
63870K0J4 0J420161204133012212/04/16 13:30:31  5-MIN K0J4 041830Z AUTO 06005KT 10SM -RA OVC015 17/14 A2995 290 86 600 060/05 RMK AO2 P0001 T01670144 $
63870K0J4 0J420161204133513012/04/16 13:35:31  5-MIN K0J4 041835Z AUTO 06005KT 10SM -TSRA OVC015 17/14 A2994 300 86 600 060/05 RMK AO2 TSB32 P0001 T01670144 $
63870K0J4 0J420161204134013112/04/16 13:40:31  5-MIN K0J4 041840Z AUTO 09004KT 6SM TSRA BR OVC015 16/14 A2994 300 90 500 090/04 RMK AO2 TSB32 P0002 T01610144 $
63870K0J4 0J420161204134513112/04/16 13:45:31  5-MIN K0J4 041845Z AUTO 00000KT 4SM TSRA BR OVC015 16/14 A2995 290 90 500 000/00 RMK AO2 TSB32 P0003 T01610144 $
63870K0J4 0J420161204135014412/04/16 13:50:31  5-MIN K0J4 041850Z AUTO 31004KT 2 1/2SM +RA BR FEW005 OVC015 16/14 A2996 280 90 500 310/04 RMK AO2 TSB32E47 P0006 T01610144 $
63870K0J4 0J420161204135513212/04/16 13:55:31  5-MIN K0J4 041855Z AUTO 29004KT 3/4SM +RA BR FEW005 OVC015 18/16 A2996 280 87 700 290/04 RMK AO2 TSB32E47 P0014 $
63870K0J4 0J420161204140013312/04/16 14:00:31  5-MIN K0J4 041900Z AUTO 00000KT 1/2SM +RA FG BKN017 OVC021 17/16 A2995 290 93 600 000/00 RMK AO2 P0006 T01670156 $
63870K0J4 0J420161204140513312/04/16 14:05:31  5-MIN K0J4 041905Z AUTO VRB03KT 1/4SM +RA FG FEW006 OVC017 17/16 A2994 300 93 600 VRB/03 RMK AO2 P0021 T01670156 $
63870K0J4 0J420161204141014712/04/16 14:10:31  5-MIN K0J4 041910Z AUTO 00000KT 1/4SM +RA FG FEW006 BKN017 OVC030 17/16 A2993 310 96 600 000/00 RMK AO2 PRESFR P0033 T01670161 $
63870K0J4 0J420161204141514712/04/16 14:15:31  5-MIN K0J4 041915Z AUTO 36004KT 1/2SM +RA FG FEW006 BKN020 OVC030 17/16 A2992 320 96 600 360/04 RMK AO2 PRESFR P0042 T01670161 $
63870K0J4 0J420161204142014012/04/16 14:20:31  5-MIN K0J4 041920Z AUTO 35007KT 3/4SM +RA BR FEW016 BKN022 OVC031 17/16 A2991 320 93 700 350/07 RMK AO2 P0051 T01720161 $
63870K0J4 0J420161204142514012/04/16 14:25:31  5-MIN K0J4 041925Z AUTO VRB03KT 3/4SM +RA BR BKN020 BKN026 OVC031 17/16 A2992 320 93 700 VRB/03 RMK AO2 P0060 T01720161 $
63870K0J4 0J420161204143014012/04/16 14:30:31  5-MIN K0J4 041930Z AUTO 22004KT 1/2SM +RA FG FEW004 BKN020 OVC029 17/17 A2993 310 96 700 220/04 RMK AO2 P0074 T01720167 $
63870K0J4 0J420161204143514012/04/16 14:35:31  5-MIN K0J4 041935Z AUTO 22003KT 1/2SM +RA FG SCT004 BKN020 OVC031 17/16 A2994 300 96 600 220/03 RMK AO2 P0081 T01670161 $
63870K0J4 0J420161204144014012/04/16 14:40:31  5-MIN K0J4 041940Z AUTO VRB03KT 1/2SM +RA FG SCT004 BKN022 OVC031 17/16 A2993 310 96 600 VRB/03 RMK AO2 P0088 T01670161 $
63870K0J4 0J420161204144514012/04/16 14:45:31  5-MIN K0J4 041945Z AUTO 18005KT 1/2SM +RA FG SCT004 BKN020 OVC040 17/16 A2994 300 96 600 180/05 RMK AO2 P0096 T01670161 $
63870K0J4 0J420161204145014012/04/16 14:50:31  5-MIN K0J4 041950Z AUTO 17003KT 1/2SM +RA FG SCT004 BKN022 OVC029 17/16 A2994 300 96 600 170/03 RMK AO2 P0105 T01670161 $
63870K0J4 0J420161204145514712/04/16 14:55:31  5-MIN K0J4 041955Z AUTO 12003KT 1/2SM +RA FG FEW003 BKN026 OVC034 17/16 A2994 300 93 700 120/03 RMK AO2 SLP135 P0113 T01720161 $
63870K0J4 0J420161204150014012/04/16 15:00:31  5-MIN K0J4 042000Z AUTO 04004KT 3/4SM +RA BR FEW003 BKN030 OVC038 17/16 A2993 310 93 700 040/04 RMK AO2 P0002 T01720161 $
63870K0J4 0J420161204150513512/04/16 15:05:31  5-MIN K0J4 042005Z AUTO 00000KT 1 1/4SM +RA BR FEW003 OVC038 17/16 A2993 310 93 700 000/00 RMK AO2 P0005 T01720161 $
63870K0J4 0J420161204151014212/04/16 15:10:31  5-MIN K0J4 042010Z AUTO 13004KT 1 3/4SM +RA BR FEW033 BKN041 OVC049 17/17 A2992 310 96 700 130/04 RMK AO2 P0007 T01720167 $
63870K0J4 0J420161204151514312/04/16 15:15:31  5-MIN K0J4 042015Z AUTO 03003KT 1 1/2SM +TSRA BR BKN039 OVC050 17/17 A2991 320 96 700 030/03 RMK AO2 TSB13 P0013 T01720167 $
63870K0J4 0J420161204152013912/04/16 15:20:31  5-MIN K0J4 042020Z AUTO 03003KT 1SM +TSRA BR BKN035 OVC050 17/17 A2992 320 96 700 030/03 RMK AO2 TSB13 P0021 T01720167 $
63870K0J4 0J420161204152514812/04/16 15:25:31  5-MIN K0J4 042025Z AUTO 22005KT 3/4SM +TSRA BR FEW005 SCT024 OVC035 17/17 A2993 300 96 700 220/05 RMK AO2 TSB13 P0029 T01720167 $
63870K0J4 0J420161204153014912/04/16 15:30:31  5-MIN K0J4 042030Z AUTO 27003KT 1/2SM +RA FG FEW005 SCT019 OVC037 18/17 A2993 310 93 700 270/03 RMK AO2 TSB13E28 P0034 T01780167 $
63870K0J4 0J420161204153515412/04/16 15:35:31  5-MIN K0J4 042035Z AUTO 35003KT 3/4SM +TSRA BR FEW004 SCT027 OVC035 18/17 A2991 320 93 800 350/03 RMK AO2 TSB13E28B32 P0037 T01780167 $
63870K0J4 0J420161204154015512/04/16 15:40:31  5-MIN K0J4 042040Z AUTO 00000KT 1 3/4SM TSRA BR FEW004 BKN026 OVC060 18/17 A2991 320 96 800 000/00 RMK AO2 TSB13E28B32 P0038 T01780172 $
63870K0J4 0J420161204154515112/04/16 15:45:31  5-MIN K0J4 042045Z AUTO 35003KT 3SM TSRA BR FEW004 BKN025 OVC047 18/17 A2991 330 96 800 350/03 RMK AO2 TSB13E28B32 P0039 T01780172 $
63870K0J4 0J420161204155014612/04/16 15:50:31  5-MIN K0J4 042050Z AUTO 00000KT 4SM -RA BR FEW004 OVC034 18/17 A2991 320 93 800 000/00 RMK AO2 TSB13E28B32E47 P0039 T01830172 $
63870K0J4 0J420161204155516512/04/16 15:55:31  5-MIN K0J4 042055Z AUTO 00000KT 3SM RA BR FEW019 BKN030 OVC039 18/17 A2992 310 96 800 000/00 RMK AO2 TSB13E28B32E47 SLP130 P0040 60176 T01780172 $
63870K0J4 0J420161204160013712/04/16 16:00:31  5-MIN K0J4 042100Z AUTO 00000KT 2SM RA BR FEW026 BKN031 OVC038 18/17 A2992 320 93 800 000/00 RMK AO2 P0000 T01830172 $
63870K0J4 0J420161204160515812/04/16 16:05:31  5-MIN K0J4 042105Z AUTO 04004KT 2SM +TSRA BR SCT028 BKN035 OVC045 18/17 A2991 330 93 800 040/04 RMK AO2 VIS 1 1/4V3 TSB01 P0002 T01830172 $
63870K0J4 0J420161204161014612/04/16 16:10:31  5-MIN K0J4 042110Z AUTO 06004KT 3SM -TSRA BR FEW001 BKN037 OVC050 18/17 A2991 320 93 800 060/04 RMK AO2 TSB01 P0002 T01780167 $
63870K0J4 0J420161204161514512/04/16 16:15:31  5-MIN K0J4 042115Z AUTO 08004KT 4SM TSRA BR SCT001 BKN029 OVC050 18/17 A2991 330 93 800 080/04 RMK AO2 TSB01 P0003 T01780167 $
63870K0J4 0J420161204162014712/04/16 16:20:31  5-MIN K0J4 042120Z AUTO 07005KT 3SM +RA BR SCT001 BKN029 OVC048 18/17 A2990 330 93 800 070/05 RMK AO2 TSB01E17 P0004 T01780167 $
63870K0J4 0J420161204162514712/04/16 16:25:31  5-MIN K0J4 042125Z AUTO 06003KT 3SM -RA BR SCT003 BKN035 OVC048 18/17 A2990 330 96 800 060/03 RMK AO2 TSB01E17 P0004 T01780172 $
63870K0J4 0J420161204163015112/04/16 16:30:31  5-MIN K0J4 042130Z AUTO 10004KT 1 1/2SM +RA BR SCT003 BKN019 OVC048 18/17 A2990 330 96 800 100/04 RMK AO2 TSB01E17 P0015 T01780172 $
63870K0J4 0J420161204163514912/04/16 16:35:31  5-MIN K0J4 042135Z AUTO 12004KT 1SM +TSRA BR FEW001 BKN007 OVC038 18/17 A2991 330 96 800 120/04 RMK AO2 TSB01E17 P0020 T01780172 $
63870K0J4 0J420161204164015512/04/16 16:40:31  5-MIN K0J4 042140Z AUTO 13004KT 1SM VCTS +RA BR FEW001 BKN007 OVC038 18/17 A2992 320 96 800 130/04 RMK AO2 TSB01E17E37 P0029 T01780172 $
63870K0J4 0J420161204164515012/04/16 16:45:31  5-MIN K0J4 042145Z AUTO 00000KT 3/4SM +TSRA BR BKN005 OVC019 18/17 A2992 320 96 800 000/00 RMK AO2 TSB01E17E37B43 P0039 T01780172 $
63870K0J4 0J420161204165015012/04/16 16:50:31  5-MIN K0J4 042150Z AUTO 01004KT 1/2SM +TSRA FG BKN005 OVC013 18/17 A2991 320 96 800 010/04 RMK AO2 TSB01E17E37B43 P0053 T01780172 $
63870K0J4 0J420161204165514712/04/16 16:55:31  5-MIN K0J4 042155Z AUTO 05005KT 1/2SM +TSRA FG FEW002 BKN011 OVC019 18/17 A2991 330 93 800 050/05 RMK AO2 TSB01E17E37B43 P0063 $
63870K0J4 0J420161204170014812/04/16 17:00:31  5-MIN K0J4 042200Z AUTO 00000KT 1/2SM +RA FG SCT005 BKN009 OVC019 18/17 A2992 320 96 800 000/00 RMK AO2 TSE2159 P0004 T01780172 $
63870K0J4 0J420161204170514812/04/16 17:05:31  5-MIN K0J4 042205Z AUTO 00000KT 1/2SM +RA FG FEW005 SCT008 OVC017 18/17 A2992 320 96 800 000/00 RMK AO2 TSE2159 P0012 T01780172 $
63870K0J4 0J420161204171014112/04/16 17:10:31  5-MIN K0J4 042210Z AUTO 00000KT 1/2SM +RA FG FEW005 OVC017 18/17 A2992 320 96 800 000/00 RMK AO2 TSE2159 P0020 T01780172 $
63870K0J4 0J420161204171514112/04/16 17:15:31  5-MIN K0J4 042215Z AUTO 13003KT 1/2SM +RA FG FEW007 OVC017 18/17 A2992 310 93 800 130/03 RMK AO2 TSE2159 P0028 T01780167 $
63870K0J4 0J420161204172014112/04/16 17:20:31  5-MIN K0J4 042220Z AUTO 13004KT 3/4SM +RA BR FEW003 OVC017 18/17 A2992 320 93 800 130/04 RMK AO2 TSE2159 P0033 T01780167 $
63870K0J4 0J420161204172515012/04/16 17:25:31  5-MIN K0J4 042225Z AUTO 08004KT 1 3/4SM +RA BR FEW003 BKN017 OVC044 18/17 A2992 320 93 800 080/04 RMK AO2 TSE2159 P0036 T01780167 $
63870K0J4 0J420161204173014612/04/16 17:30:31  5-MIN K0J4 042230Z AUTO 00000KT 4SM -RA BR FEW002 BKN017 OVC042 18/17 A2992 320 96 800 000/00 RMK AO2 TSE2159 P0036 T01780172 $
63870K0J4 0J420161204173514412/04/16 17:35:31  5-MIN K0J4 042235Z AUTO 10003KT 10SM -RA SCT006 BKN019 OVC042 18/17 A2991 320 96 800 100/03 RMK AO2 TSE2159 P0036 T01780172 $
63870K0J4 0J420161204174014412/04/16 17:40:31  5-MIN K0J4 042240Z AUTO VRB03KT 10SM -RA SCT008 BKN017 OVC042 18/17 A2991 320 96 800 VRB/03 RMK AO2 TSE2159 P0036 T01780172 $
63870K0J4 0J420161204174514412/04/16 17:45:31  5-MIN K0J4 042245Z AUTO 03003KT 10SM -RA SCT006 BKN030 BKN043 18/17 A2992 320 96 800 030/03 RMK AO2 TSE2159 P0036 T01780172 $
63870K0J4 0J420161204175014612/04/16 17:50:31  5-MIN K0J4 042250Z AUTO 08003KT 10SM SCT006 SCT016 BKN035 18/17 A2992 320 93 800 080/03 RMK AO2 RAE48 TSE2159 P0036 T01780167 $
63870K0J4 0J420161204175515312/04/16 17:55:31  5-MIN K0J4 042255Z AUTO 03003KT 10SM SCT006 SCT016 BKN032 18/17 A2992 320 93 800 030/03 RMK AO2 RAE48 TSE2159 SLP127 P0036 T01780167 $
63870K0J4 0J420161204180012612/04/16 18:00:31  5-MIN K0J4 042300Z AUTO 01003KT 10SM FEW006 SCT016 BKN055 18/17 A2992 320 93 800 010/03 RMK AO2 T01780167 $
63870K0J4 0J420161204180512612/04/16 18:05:31  5-MIN K0J4 042305Z AUTO 01003KT 10SM FEW004 BKN016 BKN027 18/17 A2992 320 96 800 010/03 RMK AO2 T01780172 $
63870K0J4 0J420161204181011912/04/16 18:10:31  5-MIN K0J4 042310Z AUTO 00000KT 10SM BKN015 BKN027 18/17 A2992 310 96 800 000/00 RMK AO2 T01780172 $
63870K0J4 0J420161204181511912/04/16 18:15:31  5-MIN K0J4 042315Z AUTO 01003KT 10SM BKN015 BKN027 18/17 A2993 310 96 700 010/03 RMK AO2 T01780172 $
63870K0J4 0J420161204182012812/04/16 18:20:31  5-MIN K0J4 042320Z AUTO 00000KT 10SM -RA BKN015 18/17 A2993 310 96 700 000/00 RMK AO2 RAB16 P0000 T01780172 $
63870K0J4 0J420161204182513512/04/16 18:25:31  5-MIN K0J4 042325Z AUTO 07004KT 10SM -RA BKN015 OVC110 18/17 A2993 310 93 700 070/04 RMK AO2 RAB16 P0000 T01780167 $
63870K0J4 0J420161204183013512/04/16 18:30:31  5-MIN K0J4 042330Z AUTO 00000KT 10SM -RA BKN014 OVC110 18/17 A2993 310 96 700 000/00 RMK AO2 RAB16 P0000 T01780172 $
63870K0J4 0J420161204183513312/04/16 18:35:31  5-MIN K0J4 042335Z AUTO 00000KT 8SM RA SCT009 OVC014 18/17 A2993 310 96 700 000/00 RMK AO2 RAB16 P0000 T01780172 $
63870K0J4 0J420161204184013412/04/16 18:40:31  5-MIN K0J4 042340Z AUTO 00000KT 8SM -RA BKN009 OVC014 18/17 A2993 310 96 700 000/00 RMK AO2 RAB16 P0000 T01780172 $
63870K0J4 0J420161204184513512/04/16 18:45:31  5-MIN K0J4 042345Z AUTO 00000KT 10SM -RA BKN011 OVC015 18/17 A2993 310 96 700 000/00 RMK AO2 RAB16 P0000 T01780172 $
63870K0J4 0J420161204185013512/04/16 18:50:31  5-MIN K0J4 042350Z AUTO 00000KT 10SM -RA SCT010 OVC013 18/17 A2993 300 96 700 000/00 RMK AO2 RAB16 P0000 T01780172 $
63870K0J4 0J420161204185516612/04/16 18:55:31  5-MIN K0J4 042355Z AUTO 00000KT 10SM -RA BKN013 OVC060 18/17 A2994 300 93 700 000/00 RMK AO2 RAB16 SLP134 P0000 60278 T01780167 10183 20161 58012 $
63870K0J4 0J420161204190013612/04/16 19:00:31  5-MIN K0J4 050000Z AUTO 00000KT 10SM -RA BKN012 BKN027 OVC060 18/17 A2994 300 93 700 000/00 RMK AO2 P0000 T01780167 $
63870K0J4 0J420161204190513612/04/16 19:05:31  5-MIN K0J4 050005Z AUTO 00000KT 10SM -RA FEW002 BKN012 OVC031 18/17 A2995 290 93 700 000/00 RMK AO2 P0000 T01780167 $
63870K0J4 0J420161204191013612/04/16 19:10:31  5-MIN K0J4 050010Z AUTO 13004KT 10SM -RA FEW002 BKN012 OVC029 18/17 A2994 300 93 700 130/04 RMK AO2 P0000 T01780167 $
63870K0J4 0J420161204191514812/04/16 19:15:31  5-MIN K0J4 050015Z AUTO 00000KT 10SM -RA SCT002 BKN010 OVC027 18/17 A2994 300 93 700 000/00 RMK AO2 CIG 008V014 P0000 T01780167 $
63870K0J4 0J420161204192013512/04/16 19:20:31  5-MIN K0J4 050020Z AUTO 15005KT 9SM -RA BKN002 BKN010 OVC027 18/17 A2994 290 96 700 150/05 RMK AO2 P0000 T01780172 $
63870K0J4 0J420161204192513712/04/16 19:25:31  5-MIN K0J4 050025Z AUTO 00000KT 8SM SCT001 BKN012 OVC024 18/17 A2995 290 96 700 000/00 RMK AO2 RAE21 P0000 T01780172 $
63870K0J4 0J420161204193013112/04/16 19:30:31  5-MIN K0J4 050030Z AUTO VRB03KT 10SM SCT001 OVC014 18/17 A2995 290 93 800 VRB/03 RMK AO2 RAE21 P0000 T01830172 $
63870K0J4 0J420161204193513112/04/16 19:35:31  5-MIN K0J4 050035Z AUTO 06003KT 10SM FEW001 OVC012 18/17 A2995 290 93 800 060/03 RMK AO2 RAE21 P0000 T01830172 $
63870K0J4 0J420161204194013812/04/16 19:40:31  5-MIN K0J4 050040Z AUTO 10003KT 10SM -RA FEW001 OVC012 18/17 A2995 290 93 800 100/03 RMK AO2 RAE21B38 P0000 T01830172 $
63870K0J4 0J420161204194513812/04/16 19:45:31  5-MIN K0J4 050045Z AUTO 00000KT 10SM -RA FEW001 OVC014 18/17 A2995 290 93 800 000/00 RMK AO2 RAE21B38 P0000 T01830172 $
63870K0J4 0J420161204195013312/04/16 19:50:31  5-MIN K0J4 050050Z AUTO 04004KT 5SM +RA BR OVC014 18/17 A2995 290 93 800 040/04 RMK AO2 RAE21B38 P0004 T01830172 $
63870K0J4 0J420161204195514712/04/16 19:55:31  5-MIN K0J4 050055Z AUTO 34005KT 4SM -RA BR FEW002 OVC012 18/17 A2995 280 93 800 340/05 RMK AO2 RAE21B38 SLP141 P0004 T01830172 $
63870K0J4 0J420161204200014912/04/16 20:00:31  5-MIN K0J4 050100Z AUTO 35005KT 6SM RA BR FEW002 BKN009 OVC014 18/17 A2996 280 93 800 350/05 RMK AO2 CIG 006V010 P0000 T01830172 $
63870K0J4 0J420161204200514912/04/16 20:05:31  5-MIN K0J4 050105Z AUTO 34004KT 5SM RA BR FEW002 BKN009 OVC014 18/17 A2996 280 96 700 340/04 RMK AO2 CIG 006V010 P0001 T01780172 $
63870K0J4 0J420161204201013112/04/16 20:10:31  5-MIN K0J4 050110Z AUTO 00000KT 3SM +RA BR FEW002 OVC009 18/17 A2996 280 96 700 000/00 RMK AO2 P0004 T01780172 $
63870K0J4 0J420161204201513812/04/16 20:15:31  5-MIN K0J4 050115Z AUTO 00000KT 2SM +RA BR FEW002 BKN009 OVC012 18/17 A2997 270 96 700 000/00 RMK AO2 P0006 T01780172 $
63870K0J4 0J420161204202013712/04/16 20:20:31  5-MIN K0J4 050120Z AUTO 08003KT 3SM RA BR FEW002 BKN010 OVC016 18/17 A2997 270 96 700 080/03 RMK AO2 P0008 T01780172 $
63870K0J4 0J420161204202513812/04/16 20:25:31  5-MIN K0J4 050125Z AUTO 00000KT 4SM +RA BR FEW002 BKN007 OVC026 18/17 A2998 260 96 700 000/00 RMK AO2 P0009 T01780172 $
63870K0J4 0J420161204203014512/04/16 20:30:31  5-MIN K0J4 050130Z AUTO 34005KT 4SM TSRA BR FEW002 BKN012 OVC033 18/17 A2997 270 93 800 340/05 RMK AO2 TSB29 P0010 T01830172 $
63870K0J4 0J420161204203514612/04/16 20:35:31  5-MIN K0J4 050135Z AUTO 34003KT 3SM +TSRA BR BKN010 BKN028 OVC047 18/17 A2996 280 96 700 340/03 RMK AO2 TSB29 P0012 T01780172 $
63870K0J4 0J420161204204014512/04/16 20:40:31  5-MIN K0J4 050140Z AUTO 36004KT 3SM TSRA BR SCT010 BKN050 OVC090 18/17 A2996 280 96 700 360/04 RMK AO2 TSB29 P0013 T01780172 $
63870K0J4 0J420161204204514512/04/16 20:45:31  5-MIN K0J4 050145Z AUTO 36003KT 4SM TSRA BR FEW008 BKN050 OVC110 18/17 A2997 270 96 700 360/03 RMK AO2 TSB29 P0014 T01780172 $
63870K0J4 0J420161204205014512/04/16 20:50:31  5-MIN K0J4 050150Z AUTO 00000KT 5SM TSRA BR FEW014 BKN085 OVC100 18/17 A2998 260 96 700 000/00 RMK AO2 TSB29 P0015 T01780172 $
63870K0J4 0J420161204205516512/04/16 20:55:31  5-MIN K0J4 050155Z AUTO 00000KT 5SM TSRA BR SCT004 BKN055 OVC100 18/17 A2999 260 96 700 000/00 RMK AO2 TSB29E52B54 PRESRR SLP151 P0017 T01780172 $
63870K0J4 0J420161204210013912/04/16 21:00:31  5-MIN K0J4 050200Z AUTO 00000KT 4SM TSRA BR FEW002 BKN050 OVC100 18/17 A2999 250 96 700 000/00 RMK AO2 P0001 T01780172 $
63870K0J4 0J420161204210513912/04/16 21:05:31  5-MIN K0J4 050205Z AUTO 01003KT 4SM TSRA BR FEW004 BKN055 OVC100 18/17 A2998 260 96 700 010/03 RMK AO2 P0002 T01780172 $
63870K0J4 0J420161204211014812/04/16 21:10:31  5-MIN K0J4 050210Z AUTO 35004KT 5SM VCTS RA BR FEW004 BKN055 OVC110 18/17 A2997 270 93 700 350/04 RMK AO2 TSE09 P0003 T01780167 $
63870K0J4 0J420161204211514812/04/16 21:15:31  5-MIN K0J4 050215Z AUTO 35003KT 6SM TSRA BR SCT002 BKN050 OVC110 18/17 A2998 260 93 700 350/03 RMK AO2 TSE09B11 P0003 T01780167 $
63870K0J4 0J420161204212014812/04/16 21:20:31  5-MIN K0J4 050220Z AUTO 00000KT 6SM TSRA BR BKN002 BKN042 OVC085 18/17 A2998 260 93 700 000/00 RMK AO2 TSE09B11 P0004 T01780167 $
63870K0J4 0J420161204212514612/04/16 21:25:31  5-MIN K0J4 050225Z AUTO VRB03KT 7SM -TSRA BKN002 BKN050 OVC110 18/17 A2998 260 93 700 VRB/03 RMK AO2 TSE09B11 P0004 T01780167 $
63870K0J4 0J420161204213014712/04/16 21:30:31  5-MIN K0J4 050230Z AUTO 01005KT 8SM -RA BKN002 BKN055 OVC110 18/17 A2998 260 93 700 010/05 RMK AO2 TSE09B11E26 P0004 T01780167 $
63870K0J4 0J420161204213514012/04/16 21:35:31  5-MIN K0J4 050235Z AUTO 36004KT 7SM -RA BKN002 OVC110 17/17 A2998 260 96 600 360/04 RMK AO2 TSE09B11E26 P0004 T01720167 $
63870K0J4 0J420161204214013312/04/16 21:40:31  5-MIN K0J4 050240Z AUTO 01003KT 8SM -RA OVC002 17/17 A2998 260 96 600 010/03 RMK AO2 TSE09B11E26 P0004 T01720167 $
63870K0J4 0J420161204214513412/04/16 21:45:31  5-MIN K0J4 050245Z AUTO 02004KT 10SM -RA OVC002 17/17 A2998 260 96 600 020/04 RMK AO2 TSE09B11E26 P0004 T01720167 $
63870K0J4 0J420161204215014012/04/16 21:50:31  5-MIN K0J4 050250Z AUTO 00000KT 9SM -RA BKN001 OVC050 17/17 A2999 250 96 600 000/00 RMK AO2 TSE09B11E26 P0004 T01720167 $
63870K0J4 0J420161204215515212/04/16 21:55:31  5-MIN K0J4 050255Z AUTO 00000KT 8SM -RA OVC001 17/17 A3000 240 96 600 000/00 RMK AO2 TSE09B11E26 SLP156 P0004 60026 T01720167 53009 $
63870K0J4 0J420161204220012812/04/16 22:00:31  5-MIN K0J4 050300Z AUTO 00000KT 9SM -RA OVC001 17/17 A3001 240 96 600 000/00 RMK AO2 PRESRR P0000 T01720167 $
63870K0J4 0J420161204220512212/04/16 22:05:31  5-MIN K0J4 050305Z AUTO 00000KT 10SM -RA OVC001 17/17 A3001 240 96 600 000/00 RMK AO2 P0000 T01720167 $
63870K0J4 0J420161204221012812/04/16 22:10:31  5-MIN K0J4 050310Z AUTO 01004KT 9SM -RA BKN001 OVC006 17/17 A2999 250 96 600 010/04 RMK AO2 P0000 T01720167 $
63870K0J4 0J420161204221513012/04/16 22:15:31  5-MIN K0J4 050315Z AUTO 36004KT 6SM RA BR BKN001 OVC006 17/16 A2999 250 93 600 360/04 RMK AO2 P0000 T01720161 $
63870K0J4 0J420161204222012412/04/16 22:20:31  5-MIN K0J4 050320Z AUTO 02004KT 5SM -RA BR OVC001 17/16 A2999 250 93 600 020/04 RMK AO2 P0000 T01720161 $
63870K0J4 0J420161204222512112/04/16 22:25:31  5-MIN K0J4 050325Z AUTO 01004KT 7SM -RA OVC001 17/16 A2999 250 93 600 010/04 RMK AO2 P0000 T01720161 $
63870K0J4 0J420161204223012112/04/16 22:30:31  5-MIN K0J4 050330Z AUTO 02005KT 8SM -RA OVC001 17/17 A2999 250 96 600 020/05 RMK AO2 P0000 T01720167 $
63870K0J4 0J420161204223512112/04/16 22:35:31  5-MIN K0J4 050335Z AUTO 36005KT 9SM -RA OVC002 17/16 A2999 250 93 600 360/05 RMK AO2 P0000 T01720161 $
63870K0J4 0J420161204224012212/04/16 22:40:31  5-MIN K0J4 050340Z AUTO 01004KT 10SM -RA OVC002 17/16 A2999 250 93 600 010/04 RMK AO2 P0000 T01720161 $
63870K0J4 0J420161204224512112/04/16 22:45:31  5-MIN K0J4 050345Z AUTO 01005KT 9SM -RA OVC002 17/16 A2999 250 93 600 010/05 RMK AO2 P0000 T01720161 $
63870K0J4 0J420161204225012112/04/16 22:50:31  5-MIN K0J4 050350Z AUTO 35003KT 9SM -RA OVC002 17/17 A3000 240 96 600 350/03 RMK AO2 P0000 T01720167 $
63870K0J4 0J420161204225512812/04/16 22:55:31  5-MIN K0J4 050355Z AUTO 01003KT 9SM -RA OVC002 17/17 A3000 240 96 600 010/03 RMK AO2 SLP156 P0000 T01720167 $
63870K0J4 0J420161204230012112/04/16 23:00:31  5-MIN K0J4 050400Z AUTO 02004KT 9SM -RA OVC002 17/17 A3000 240 96 600 020/04 RMK AO2 P0000 T01720167 $
63870K0J4 0J420161204230512112/04/16 23:05:31  5-MIN K0J4 050405Z AUTO 03005KT 9SM -RA OVC001 17/16 A3000 250 93 600 030/05 RMK AO2 P0000 T01720161 $
63870K0J4 0J420161204231012112/04/16 23:10:31  5-MIN K0J4 050410Z AUTO 05004KT 7SM -RA OVC001 17/16 A2999 250 93 600 050/04 RMK AO2 P0000 T01720161 $
63870K0J4 0J420161204231512112/04/16 23:15:31  5-MIN K0J4 050415Z AUTO 06005KT 7SM -RA OVC001 17/16 A2999 250 93 600 060/05 RMK AO2 P0000 T01720161 $
63870K0J4 0J420161204232012112/04/16 23:20:31  5-MIN K0J4 050420Z AUTO 07005KT 9SM -RA OVC001 17/16 A2999 250 93 600 070/05 RMK AO2 P0000 T01720161 $
63870K0J4 0J420161204232512212/04/16 23:25:31  5-MIN K0J4 050425Z AUTO 07005KT 10SM -RA OVC001 17/16 A2999 250 93 600 070/05 RMK AO2 P0000 T01720161 $
63870K0J4 0J420161204233012212/04/16 23:30:31  5-MIN K0J4 050430Z AUTO 05004KT 10SM -RA OVC001 17/16 A2999 250 93 600 050/04 RMK AO2 P0000 T01720161 $
63870K0J4 0J420161204233512012/04/16 23:35:31  5-MIN K0J4 050435Z AUTO 06003KT 7SM RA OVC002 17/17 A2999 250 96 600 060/03 RMK AO2 P0000 T01720167 $
63870K0J4 0J420161204234012412/04/16 23:40:31  5-MIN K0J4 050440Z AUTO 05004KT 6SM -RA BR OVC002 17/16 A2999 250 93 600 050/04 RMK AO2 P0000 T01720161 $
63870K0J4 0J420161204234512112/04/16 23:45:31  5-MIN K0J4 050445Z AUTO 07003KT 8SM -RA OVC002 17/16 A2999 250 93 600 070/03 RMK AO2 P0000 T01720161 $
63870K0J4 0J420161204235012112/04/16 23:50:31  5-MIN K0J4 050450Z AUTO 07003KT 9SM -RA OVC002 17/16 A2999 250 93 600 070/03 RMK AO2 P0000 T01720161 $
63870K0J4 0J420161204235513812/04/16 23:55:31  5-MIN K0J4 050455Z AUTO 09003KT 9SM -RA OVC002 17/17 A2999 250 96 600 090/03 RMK AO2 SLP153 P0000 T01720167 401830133 $
63870K0J4 0J420161205000012112/05/16 00:00:31  5-MIN K0J4 050500Z AUTO 10003KT 9SM -RA OVC002 17/16 A2999 250 93 600 100/03 RMK AO2 P0000 T01720161 $
63870K0J4 0J420161205000512112/05/16 00:05:31  5-MIN K0J4 050505Z AUTO 00000KT 9SM -RA OVC002 17/16 A2999 250 93 600 000/00 RMK AO2 P0000 T01720161 $
63870K0J4 0J420161205001012212/05/16 00:10:31  5-MIN K0J4 050510Z AUTO 00000KT 10SM -RA OVC002 17/16 A2999 250 93 600 000/00 RMK AO2 P0000 T01720161 $
63870K0J4 0J420161205001512112/05/16 00:15:31  5-MIN K0J4 050515Z AUTO 12003KT 9SM -RA OVC002 17/16 A2999 260 93 600 120/03 RMK AO2 P0000 T01720161 $
63870K0J4 0J420161205002012112/05/16 00:20:31  5-MIN K0J4 050520Z AUTO 00000KT 7SM -RA OVC002 17/16 A2999 260 93 600 000/00 RMK AO2 P0000 T01720161 $
63870K0J4 0J420161205002513012/05/16 00:25:31  5-MIN K0J4 050525Z AUTO 00000KT 6SM RA BR BKN002 OVC010 17/16 A2999 250 93 600 000/00 RMK AO2 P0001 T01720161 $
63870K0J4 0J420161205003013112/05/16 00:30:31  5-MIN K0J4 050530Z AUTO 00000KT 6SM -RA BR BKN002 OVC010 17/16 A2999 250 93 600 000/00 RMK AO2 P0001 T01720161 $
63870K0J4 0J420161205003512412/05/16 00:35:31  5-MIN K0J4 050535Z AUTO 19003KT 6SM -RA BR OVC002 17/16 A3000 240 93 600 190/03 RMK AO2 P0001 T01720161 $
63870K0J4 0J420161205004013012/05/16 00:40:31  5-MIN K0J4 050540Z AUTO 19004KT 4SM RA BR BKN002 OVC039 17/16 A3000 250 93 600 190/04 RMK AO2 P0002 T01720161 $
63870K0J4 0J420161205004513112/05/16 00:45:31  5-MIN K0J4 050545Z AUTO 20004KT 3SM +RA BR BKN002 OVC041 17/16 A3000 250 93 600 200/04 RMK AO2 P0004 T01720161 $
63870K0J4 0J420161205005013712/05/16 00:50:31  5-MIN K0J4 050550Z AUTO 00000KT 3SM RA BR BKN002 BKN010 OVC046 17/16 A2999 250 93 600 000/00 RMK AO2 P0004 T01720161 $
63870K0J4 0J420161205005516912/05/16 00:55:31  5-MIN K0J4 050555Z AUTO 00000KT 4SM -RA BR SCT002 BKN046 OVC080 17/16 A2998 260 93 600 000/00 RMK AO2 SLP150 P0005 60031 T01720161 10183 20172 52021 $
63870K0J4 0J420161205010013812/05/16 01:00:31  5-MIN K0J4 050600Z AUTO 16004KT 6SM -RA BR SCT002 BKN044 OVC080 17/16 A2998 260 93 600 160/04 RMK AO2 P0000 T01720161 $
63870K0J4 0J420161205010513512/05/16 01:05:31  5-MIN K0J4 050605Z AUTO 00000KT 8SM -RA BKN002 BKN044 OVC080 17/16 A2999 250 93 600 000/00 RMK AO2 P0000 T01720161 $
63870K0J4 0J420161205011013712/05/16 01:10:31  5-MIN K0J4 050610Z AUTO 00000KT 9SM BKN002 BKN046 OVC080 17/16 A2999 260 93 600 000/00 RMK AO2 RAE06 P0000 T01720161 $
63870K0J4 0J420161205011513712/05/16 01:15:31  5-MIN K0J4 050615Z AUTO 00000KT 9SM BKN002 BKN049 OVC080 17/16 A2998 260 93 600 000/00 RMK AO2 RAE06 P0000 T01720161 $
63870K0J4 0J420161205012013012/05/16 01:20:31  5-MIN K0J4 050620Z AUTO 00000KT 9SM BKN002 OVC080 17/16 A2998 270 93 600 000/00 RMK AO2 RAE06 P0000 T01720161 $
63870K0J4 0J420161205012512312/05/16 01:25:31  5-MIN K0J4 050625Z AUTO 00000KT 9SM OVC002 17/16 A2998 260 93 600 000/00 RMK AO2 RAE06 P0000 T01720161 $
63870K0J4 0J420161205013012312/05/16 01:30:31  5-MIN K0J4 050630Z AUTO 00000KT 8SM OVC002 17/16 A2999 260 93 600 000/00 RMK AO2 RAE06 P0000 T01720161 $
63870K0J4 0J420161205013512312/05/16 01:35:31  5-MIN K0J4 050635Z AUTO 00000KT 7SM OVC001 17/16 A2999 250 93 600 000/00 RMK AO2 RAE06 P0000 T01720161 $
63870K0J4 0J420161205014012612/05/16 01:40:31  5-MIN K0J4 050640Z AUTO 00000KT 6SM BR OVC001 17/16 A2999 260 93 600 000/00 RMK AO2 RAE06 P0000 T01720161 $
63870K0J4 0J420161205014512312/05/16 01:45:31  5-MIN K0J4 050645Z AUTO 20004KT 7SM OVC002 17/16 A2999 250 93 600 200/04 RMK AO2 RAE06 P0000 T01720161 $
63870K0J4 0J420161205015012612/05/16 01:50:31  5-MIN K0J4 050650Z AUTO 00000KT 6SM BR OVC002 17/16 A2998 260 93 600 000/00 RMK AO2 RAE06 P0000 T01720161 $
63870K0J4 0J420161205015513312/05/16 01:55:31  5-MIN K0J4 050655Z AUTO 00000KT 4SM BR OVC002 17/16 A2997 270 93 600 000/00 RMK AO2 RAE06 SLP148 P0000 T01720161 $
63870K0J4 0J420161205020011812/05/16 02:00:31  5-MIN K0J4 050700Z AUTO 00000KT 1 1/2SM BR OVC002 17/16 A2997 270 96 600 000/00 RMK AO2 T01670161 $
63870K0J4 0J420161205020513012/05/16 02:05:31  5-MIN K0J4 050705Z AUTO 15004KT 1SM -RA BR OVC002 17/16 A2996 280 96 600 150/04 RMK AO2 RAB04 P0000 T01670161 $
63870K0J4 0J420161205021014112/05/16 02:10:31  5-MIN K0J4 050710Z AUTO 16004KT 1 1/2SM -RA BR BKN002 OVC110 17/16 A2996 280 96 600 160/04 RMK AO2 RAB04 P0000 T01670161 $
63870K0J4 0J420161205021513712/05/16 02:15:31  5-MIN K0J4 050715Z AUTO 17007KT 4SM -RA BR BKN001 OVC110 17/16 A2997 270 93 600 170/07 RMK AO2 RAB04 P0000 T01720161 $
63870K0J4 0J420161205022012712/05/16 02:20:31  5-MIN K0J4 050720Z AUTO 17008KT 7SM -RA OVC001 17/16 A2996 280 93 600 170/08 RMK AO2 RAB04 P0000 T01720161 $
63870K0J4 0J420161205022513412/05/16 02:25:31  5-MIN K0J4 050725Z AUTO 15005KT 8SM -RA BKN001 OVC100 17/16 A2995 290 93 700 150/05 RMK AO2 RAB04 P0000 T01720161 $
63870K0J4 0J420161205023014112/05/16 02:30:31  5-MIN K0J4 050730Z AUTO VRB04KT 9SM -RA SCT001 OVC100 17/17 A2994 300 96 700 VRB/04 RMK AO2 RAB04 PRESFR P0000 T01720167 $
63870K0J4 0J420161205023513512/05/16 02:35:31  5-MIN K0J4 050735Z AUTO 08003KT 10SM -RA SCT001 OVC110 18/17 A2994 300 93 700 080/03 RMK AO2 RAB04 P0000 T01780167 $
63870K0J4 0J420161205024013512/05/16 02:40:31  5-MIN K0J4 050740Z AUTO 06004KT 10SM -RA FEW001 BKN110 18/17 A2993 310 93 700 060/04 RMK AO2 RAB04 P0000 T01780167 $
63870K0J4 0J420161205024514212/05/16 02:45:31  5-MIN K0J4 050745Z AUTO 07006KT 10SM -RA FEW001 BKN110 18/17 A2992 320 93 800 070/06 RMK AO2 RAB04 PRESFR P0000 T01780167 $
63870K0J4 0J420161205025013412/05/16 02:50:31  5-MIN K0J4 050750Z AUTO 08004KT 10SM SCT100 18/17 A2991 320 93 800 080/04 RMK AO2 RAB04E47 PRESFR P0000 T01780167 $
63870K0J4 0J420161205025513412/05/16 02:55:31  5-MIN K0J4 050755Z AUTO 09004KT 10SM FEW110 18/17 A2991 320 93 800 090/04 RMK AO2 RAB04E47 SLP127 P0000 T01780167 $
63870K0J4 0J420161205030011212/05/16 03:00:31  5-MIN K0J4 050800Z AUTO 12004KT 10SM FEW110 18/17 A2991 330 93 800 120/04 RMK AO2 T01780167 $
63870K0J4 0J420161205030510912/05/16 03:05:31  5-MIN K0J4 050805Z AUTO 13005KT 10SM CLR 18/17 A2992 320 93 800 130/05 RMK AO2 T01780167 $
63870K0J4 0J420161205031010912/05/16 03:10:31  5-MIN K0J4 050810Z AUTO 00000KT 10SM CLR 18/17 A2991 320 93 800 000/00 RMK AO2 T01780167 $
63870K0J4 0J420161205031510912/05/16 03:15:31  5-MIN K0J4 050815Z AUTO VRB03KT 10SM CLR 17/17 A2992 320 96 700 VRB/03 RMK AO2 T01720167 $
63870K0J4 0J420161205032010912/05/16 03:20:31  5-MIN K0J4 050820Z AUTO 15003KT 10SM CLR 17/17 A2992 320 96 700 150/03 RMK AO2 T01720167 $
63870K0J4 0J420161205032510912/05/16 03:25:31  5-MIN K0J4 050825Z AUTO 00000KT 10SM CLR 17/16 A2991 320 93 700 000/00 RMK AO2 T01720161 $
63870K0J4 0J420161205033010912/05/16 03:30:31  5-MIN K0J4 050830Z AUTO 00000KT 10SM CLR 17/16 A2991 330 93 700 000/00 RMK AO2 T01720161 $
63870K0J4 0J420161205033510912/05/16 03:35:31  5-MIN K0J4 050835Z AUTO 00000KT 10SM CLR 17/16 A2991 330 93 700 000/00 RMK AO2 T01720161 $
63870K0J4 0J420161205034010912/05/16 03:40:31  5-MIN K0J4 050840Z AUTO 00000KT 10SM CLR 17/16 A2991 330 93 700 000/00 RMK AO2 T01720161 $
63870K0J4 0J420161205034510912/05/16 03:45:31  5-MIN K0J4 050845Z AUTO VRB03KT 10SM CLR 17/16 A2991 330 93 700 VRB/03 RMK AO2 T01720161 $
63870K0J4 0J420161205035010912/05/16 03:50:31  5-MIN K0J4 050850Z AUTO 00000KT 10SM CLR 17/16 A2991 330 93 700 000/00 RMK AO2 T01720161 $
63870K0J4 0J420161205035512812/05/16 03:55:31  5-MIN K0J4 050855Z AUTO 15003KT 10SM CLR 17/16 A2991 330 93 700 150/03 RMK AO2 SLP125 60000 T01720161 58006 $
63870K0J4 0J420161205040010912/05/16 04:00:31  5-MIN K0J4 050900Z AUTO 16003KT 10SM CLR 17/16 A2991 330 93 700 160/03 RMK AO2 T01720161 $
63870K0J4 0J420161205040510912/05/16 04:05:31  5-MIN K0J4 050905Z AUTO 16003KT 10SM CLR 17/16 A2990 330 93 700 160/03 RMK AO2 T01720161 $
63870K0J4 0J420161205041010912/05/16 04:10:31  5-MIN K0J4 050910Z AUTO 17004KT 10SM CLR 17/16 A2990 330 93 700 170/04 RMK AO2 T01720161 $
63870K0J4 0J420161205041510912/05/16 04:15:31  5-MIN K0J4 050915Z AUTO 16003KT 10SM CLR 17/16 A2990 330 93 700 160/03 RMK AO2 T01720161 $
63870K0J4 0J420161205042010912/05/16 04:20:31  5-MIN K0J4 050920Z AUTO 14003KT 10SM CLR 17/17 A2990 330 96 700 140/03 RMK AO2 T01720167 $
63870K0J4 0J420161205223512812/05/16 22:35:31  5-MIN K0J4 060335Z AUTO 13004KT 2 1/2SM +RA BR OVC001 16/16 A2979 440 96 700 130/04 RMK AO2 P0003 T01610156 $
63870K0J4 0J420161205224012712/05/16 22:40:31  5-MIN K0J4 060340Z AUTO 09006KT 2 1/2SM RA BR OVC001 16/16 A2977 460 96 700 090/06 RMK AO2 P0003 T01610156 $
63870K0J4 0J420161205224512412/05/16 22:45:31  5-MIN K0J4 060345Z AUTO 09005KT 4SM -RA BR OVC003 16/16 A2977 460 96 700 090/05 RMK AO2 P0003 T01610156 $
63870K0J4 0J420161205225013112/05/16 22:50:31  5-MIN K0J4 060350Z AUTO 08004KT 6SM -RA BR BKN001 OVC005 16/16 A2977 460 96 700 080/04 RMK AO2 P0003 T01610156 $
63870K0J4 0J420161205225513812/05/16 22:55:31  5-MIN K0J4 060355Z AUTO 07005KT 6SM -RA BR BKN001 OVC005 16/16 A2976 460 96 700 070/05 RMK AO2 SLP076 P0003 T01610156 $
63870K0J4 0J420161205230012112/05/16 23:00:31  5-MIN K0J4 060400Z AUTO 00000KT 7SM -RA OVC001 17/16 A2977 460 93 800 000/00 RMK AO2 P0000 T01670156 $
63870K0J4 0J420161205230513312/05/16 23:05:31  5-MIN K0J4 060405Z AUTO 00000KT 9SM -RA OVC002 17/16 A2978 450 93 800 000/00 RMK AO2 CIG 001V006 P0000 T01670156 $
63870K0J4 0J420161205231012112/05/16 23:10:31  5-MIN K0J4 060410Z AUTO 00000KT 9SM -RA OVC002 17/16 A2977 460 96 800 000/00 RMK AO2 P0000 T01670161 $
63870K0J4 0J420161205231512312/05/16 23:15:31  5-MIN K0J4 060415Z AUTO 07005KT 6SM RA BR OVC002 17/16 A2976 460 93 800 070/05 RMK AO2 P0001 T01670156 $
63870K0J4 0J420161205232012412/05/16 23:20:31  5-MIN K0J4 060420Z AUTO 07005KT 6SM -RA BR OVC002 17/16 A2975 470 93 800 070/05 RMK AO2 P0001 T01670156 $
63870K0J4 0J420161205232512212/05/16 23:25:31  5-MIN K0J4 060425Z AUTO 08005KT 10SM -RA OVC002 17/16 A2975 480 93 800 080/05 RMK AO2 P0001 T01670156 $
63870K0J4 0J420161205233012412/05/16 23:30:31  5-MIN K0J4 060430Z AUTO 08006KT 10SM OVC002 17/16 A2975 480 93 800 080/06 RMK AO2 RAE29 P0001 T01670156 $
63870K0J4 0J420161205233512412/05/16 23:35:31  5-MIN K0J4 060435Z AUTO VRB03KT 10SM OVC002 17/16 A2975 470 93 800 VRB/03 RMK AO2 RAE29 P0001 T01670156 $
63870K0J4 0J420161205234012412/05/16 23:40:31  5-MIN K0J4 060440Z AUTO 12003KT 10SM OVC002 17/16 A2975 470 96 800 120/03 RMK AO2 RAE29 P0001 T01670161 $
63870K0J4 0J420161205234512412/05/16 23:45:31  5-MIN K0J4 060445Z AUTO 00000KT 10SM OVC002 17/16 A2975 470 96 800 000/00 RMK AO2 RAE29 P0001 T01670161 $
63870K0J4 0J420161205235012412/05/16 23:50:31  5-MIN K0J4 060450Z AUTO VRB03KT 10SM OVC002 17/16 A2975 470 96 800 VRB/03 RMK AO2 RAE29 P0001 T01670161 $
63870K0J4 0J420161205235514012/05/16 23:55:31  5-MIN K0J4 060455Z AUTO 11003KT 7SM OVC002 17/16 A2975 470 96 800 110/03 RMK AO2 RAE29 SLP072 P0001 T01670161 401780150 $
63870K0J4 0J420161206000011412/06/16 00:00:31  5-MIN K0J4 060500Z AUTO VRB03KT 3SM BR OVC001 17/16 A2975 470 96 800 VRB/03 RMK AO2 T01670161 $
63870K0J4 0J420161206000511812/06/16 00:05:31  5-MIN K0J4 060505Z AUTO 00000KT 1 1/2SM BR OVC001 17/16 A2976 470 96 800 000/00 RMK AO2 T01670161 $
63870K0J4 0J420161206001011312/06/16 00:10:31  5-MIN K0J4 060510Z AUTO 00000KT 1SM BR VV002 17/16 A2976 460 96 800 000/00 RMK AO2 T01670161 $
63870K0J4 0J420161206001511312/06/16 00:15:31  5-MIN K0J4 060515Z AUTO VRB03KT 1SM BR VV002 17/16 A2976 460 96 800 VRB/03 RMK AO2 T01670161 $
63870K0J4 0J420161206002011512/06/16 00:20:31  5-MIN K0J4 060520Z AUTO 00000KT 3/4SM BR VV002 17/16 A2976 470 96 800 000/00 RMK AO2 T01670161 $
63870K0J4 0J420161206002511512/06/16 00:25:31  5-MIN K0J4 060525Z AUTO 00000KT 3/4SM BR VV001 17/16 A2975 470 96 800 000/00 RMK AO2 T01670161 $
63870K0J4 0J420161206003011512/06/16 00:30:31  5-MIN K0J4 060530Z AUTO 09003KT 1/2SM FG VV001 17/16 A2975 480 96 800 090/03 RMK AO2 T01670161 $
63870K0J4 0J420161206003511512/06/16 00:35:31  5-MIN K0J4 060535Z AUTO 13003KT 1/2SM FG VV001 17/16 A2975 480 96 800 130/03 RMK AO2 T01670161 $
63870K0J4 0J420161206004011512/06/16 00:40:31  5-MIN K0J4 060540Z AUTO 00000KT 1/2SM FG VV001 17/16 A2975 470 96 800 000/00 RMK AO2 T01670161 $
63870K0J4 0J420161206004513112/06/16 00:45:31  5-MIN K0J4 060545Z AUTO 14003KT 1/2SM -RA FG VV001 17/16 A2975 470 93 900 140/03 RMK AO2 RAB42 P0000 T01720161 $
63870K0J4 0J420161206005013112/06/16 00:50:31  5-MIN K0J4 060550Z AUTO 13003KT 1/2SM -RA FG VV001 17/16 A2975 480 93 900 130/03 RMK AO2 RAB42 P0000 T01720161 $
63870K0J4 0J420161206005516112/06/16 00:55:31  5-MIN K0J4 060555Z AUTO 11003KT 1/2SM FG VV001 17/16 A2974 480 93 900 110/03 RMK AO2 RAB42E55 SLP068 P0000 60025 T01720161 10172 20161 51001 $
63870K0J4 0J420161206010011512/06/16 01:00:31  5-MIN K0J4 060600Z AUTO 10003KT 1/4SM FG VV001 17/16 A2974 480 93 900 100/03 RMK AO2 T01720161 $
63870K0J4 0J420161206010513112/06/16 01:05:31  5-MIN K0J4 060605Z AUTO 15004KT 1/4SM -RA FG VV001 17/17 A2974 480 96 900 150/04 RMK AO2 RAB05 P0000 T01720167 $
63870K0J4 0J420161206011013112/06/16 01:10:31  5-MIN K0J4 060610Z AUTO 00000KT 1/2SM -RA FG VV001 17/17 A2974 490 96 900 000/00 RMK AO2 RAB05 P0000 T01720167 $
63870K0J4 0J420161206011513112/06/16 01:15:31  5-MIN K0J4 060615Z AUTO 12003KT 1/2SM -RA FG VV002 17/17 A2973 490 96 900 120/03 RMK AO2 RAB05 P0000 T01720167 $
63870K0J4 0J420161206012013812/06/16 01:20:31  5-MIN K0J4 060620Z AUTO 00000KT 1/2SM -RA FG VV002 17/17 A2972 500 96 900 000/00 RMK AO2 RAB05 PRESFR P0000 T01720167 $
63870K0J4 0J420161206012513112/06/16 01:25:31  5-MIN K0J4 060625Z AUTO 00000KT 3/4SM -RA BR VV002 17/17 A2972 500 96 900 000/00 RMK AO2 RAB05 P0000 T01720167 $
63870K0J4 0J420161206013013112/06/16 01:30:31  5-MIN K0J4 060630Z AUTO 00000KT 3/4SM -RA BR VV002 17/17 A2972 500 96 900 000/00 RMK AO2 RAB05 P0000 T01720167 $
63870K0J4 0J420161206013513012/06/16 01:35:31  5-MIN K0J4 060635Z AUTO 00000KT 3/4SM BR VV002 17/17 A2972 500 96 900 000/00 RMK AO2 RAB05E32 P0000 T01720167 $
63870K0J4 0J420161206014013112/06/16 01:40:31  5-MIN K0J4 060640Z AUTO 00000KT 1/2SM FG VV002 18/17 A2972 500 93 1000 000/00 RMK AO2 RAB05E32 P0000 T01780167 $
63870K0J4 0J420161206014513012/06/16 01:45:31  5-MIN K0J4 060645Z AUTO 08003KT 1/2SM FG VV002 17/17 A2971 510 96 900 080/03 RMK AO2 RAB05E32 P0000 T01720167 $
63870K0J4 0J420161206015013012/06/16 01:50:31  5-MIN K0J4 060650Z AUTO 00000KT 1/2SM FG VV002 17/16 A2971 510 93 900 000/00 RMK AO2 RAB05E32 P0000 T01720161 $
63870K0J4 0J420161206015513712/06/16 01:55:31  5-MIN K0J4 060655Z AUTO 13003KT 1/2SM FG VV001 17/17 A2971 510 96 900 130/03 RMK AO2 RAB05E32 SLP057 P0000 T01720167 $
63870K0J4 0J420161206020011612/06/16 02:00:31  5-MIN K0J4 060700Z AUTO VRB03KT 1/2SM FG VV002 18/17 A2971 510 93 1000 VRB/03 RMK AO2 T01780167 $
63870K0J4 0J420161206020511612/06/16 02:05:31  5-MIN K0J4 060705Z AUTO 11003KT 1/2SM FG VV002 18/17 A2971 510 96 1000 110/03 RMK AO2 T01780172 $
63870K0J4 0J420161206021011612/06/16 02:10:31  5-MIN K0J4 060710Z AUTO 00000KT 1/2SM FG VV002 18/17 A2971 510 96 1000 000/00 RMK AO2 T01780172 $
63870K0J4 0J420161206021511612/06/16 02:15:31  5-MIN K0J4 060715Z AUTO 00000KT 1/2SM FG VV002 18/17 A2971 510 96 1000 000/00 RMK AO2 T01780172 $
63870K0J4 0J420161206022011612/06/16 02:20:31  5-MIN K0J4 060720Z AUTO 00000KT 1/2SM FG VV002 18/17 A2970 520 93 1000 000/00 RMK AO2 T01780167 $
63870K0J4 0J420161206022511612/06/16 02:25:31  5-MIN K0J4 060725Z AUTO 00000KT 1/2SM FG VV002 18/17 A2970 520 93 1000 000/00 RMK AO2 T01780167 $
63870K0J4 0J420161206023011612/06/16 02:30:31  5-MIN K0J4 060730Z AUTO 00000KT 1/2SM FG VV002 18/17 A2970 520 93 1000 000/00 RMK AO2 T01780167 $
63870K0J4 0J420161206023507512/06/16 02:35:31  5-MIN K0J4 060735Z AUTO M M M M /M RMK AO2 RAB31 P0000 $
63870K0J4 0J420161206024012012/06/16 02:40:31  5-MIN K0J4 060740Z AUTO 00000KT +RA 18/17 A2969 530 96 1000 000/00 RMK AO2 RAB31B36 P0002 T01780172 $
63870K0J4 0J420161206024512912/06/16 02:45:31  5-MIN K0J4 060745Z AUTO 00000KT 3/4SM +RA BR 18/17 A2970 520 96 1000 000/00 RMK AO2 RAB31B36 P0005 T01780172 $
63870K0J4 0J420161206025014212/06/16 02:50:31  5-MIN K0J4 060750Z AUTO 00000KT 1 1/4SM +TSRA BR 18/17 A2971 510 96 1000 000/00 RMK AO2 RAB31B36 TSB47B50 P0009 T01780172 $
63870K0J4 0J420161206025513012/06/16 02:55:31  5-MIN K0J4 060755Z AUTO 00000KT 3/4SM +TSRA BR 18/17 A2971 510 96 1000 000/00 RMK AO2 RAB31B36 TSB47B50 P0023 $
63870K0J4 0J420161206030012212/06/16 03:00:31  5-MIN K0J4 060800Z AUTO 18004KT 1/2SM +TSRA FG 18/17 A2971 510 96 1000 180/04 RMK AO2 P0012 T01780172 $
63870K0J4 0J420161206030513612/06/16 03:05:31  5-MIN K0J4 060805Z AUTO VRB03KT 1/2SM +TSRA FG BKN014 OVC025 18/17 A2969 530 93 1100 VRB/03 RMK AO2 P0022 T01830172 $
63870K0J4 0J420161206031015812/06/16 03:10:31  5-MIN K0J4 060810Z AUTO 00000KT 1 1/2SM RA BR FEW006 BKN014 OVC023 18/18 A2970 520 96 1100 000/00 RMK AO2 VIS 1/2V5 TSE07 P0023 T01830178 $
63870K0J4 0J420161206031514412/06/16 03:15:31  5-MIN K0J4 060815Z AUTO 30005KT 4SM RA BR SCT004 BKN010 OVC023 18/17 A2972 500 93 1100 300/05 RMK AO2 TSE07 P0025 T01830172 $
63870K0J4 0J420161206032014212/06/16 03:20:31  5-MIN K0J4 060820Z AUTO 00000KT 1 3/4SM +RA BR SCT004 OVC008 19/18 A2971 510 93 1100 000/00 RMK AO2 TSE07 P0033 T01890178 $
63870K0J4 0J420161206032514512/06/16 03:25:31  5-MIN K0J4 060825Z AUTO 00000KT 2SM -RA BR SCT004 BKN008 OVC017 18/18 A2971 520 96 1100 000/00 RMK AO2 TSE07 P0033 T01830178 $
63870K0J4 0J420161206033014212/06/16 03:30:31  5-MIN K0J4 060830Z AUTO 05003KT 8SM -RA FEW004 BKN010 OVC027 18/18 A2970 520 96 1100 050/03 RMK AO2 TSE07 P0033 T01830178 $
63870K0J4 0J420161206033514512/06/16 03:35:31  5-MIN K0J4 060835Z AUTO 00000KT 10SM SCT004 BKN016 OVC021 18/18 A2970 520 96 1100 000/00 RMK AO2 RAE34 TSE07 P0033 T01830178 $
63870K0J4 0J420161206034014512/06/16 03:40:31  5-MIN K0J4 060840Z AUTO 00000KT 10SM SCT004 BKN016 OVC024 18/18 A2970 520 96 1100 000/00 RMK AO2 RAE34 TSE07 P0033 T01830178 $
63870K0J4 0J420161206034514312/06/16 03:45:31  5-MIN K0J4 060845Z AUTO 14003KT 10SM -RA SCT006 BKN018 OVC080 18/18 A2969 530 96 1100 140/03 RMK AO2 TSE07 P0033 T01830178 $
63870K0J4 0J420161206035015512/06/16 03:50:31  5-MIN K0J4 060850Z AUTO 00000KT 10SM -RA SCT006 BKN020 OVC080 18/18 A2969 530 96 1100 000/00 RMK AO2 TSE07 CIG 014V028 P0033 T01830178 $
63870K0J4 0J420161206035516112/06/16 03:55:31  5-MIN K0J4 060855Z AUTO 13004KT 10SM -RA SCT004 OVC018 19/18 A2969 530 93 1100 130/04 RMK AO2 TSE07 CIG 010V028 SLP051 P0033 60061 T01890178 $
63870K0J4 0J420161206040013012/06/16 04:00:31  5-MIN K0J4 060900Z AUTO VRB03KT 10SM -RA SCT004 OVC014 19/18 A2970 520 97 1100 VRB/03 RMK AO2 P0000 T01890183 $
63870K0J4 0J420161206040514212/06/16 04:05:31  5-MIN K0J4 060905Z AUTO 24003KT 10SM -RA BKN006 OVC017 19/18 A2970 520 97 1100 240/03 RMK AO2 CIG 002V013 P0000 T01890183 $
63870K0J4 0J420161206041014212/06/16 04:10:31  5-MIN K0J4 060910Z AUTO 21004KT 10SM -RA BKN006 OVC015 19/18 A2970 520 97 1100 210/04 RMK AO2 CIG 002V012 P0000 T01890183 $
63870K0J4 0J420161206041513912/06/16 04:15:31  5-MIN K0J4 060915Z AUTO 20004KT 10SM FEW004 SCT009 OVC015 19/18 A2970 520 97 1100 200/04 RMK AO2 RAE13 P0000 T01890183 $
63870K0J4 0J420161206042013212/06/16 04:20:31  5-MIN K0J4 060920Z AUTO 20004KT 10SM FEW004 OVC015 19/18 A2969 530 93 1200 200/04 RMK AO2 RAE13 P0000 T01940183 $
63870K0J4 0J420161206042513212/06/16 04:25:31  5-MIN K0J4 060925Z AUTO 21007KT 10SM FEW009 OVC018 20/19 A2969 530 93 1300 210/07 RMK AO2 RAE13 P0000 T02000189 $
63870K0J4 0J420161206043013212/06/16 04:30:31  5-MIN K0J4 060930Z AUTO 21008KT 10SM FEW009 OVC018 20/19 A2969 530 97 1300 210/08 RMK AO2 RAE13 P0000 T02000194 $
63870K0J4 0J420161206043513212/06/16 04:35:31  5-MIN K0J4 060935Z AUTO 20009KT 10SM FEW010 OVC016 21/19 A2969 530 93 1300 200/09 RMK AO2 RAE13 P0000 T02060194 $
63870K0J4 0J420161206044013212/06/16 04:40:31  5-MIN K0J4 060940Z AUTO 21008KT 10SM BKN012 OVC018 21/19 A2969 530 93 1300 210/08 RMK AO2 RAE13 P0000 T02060194 $
63870K0J4 0J420161206044513212/06/16 04:45:31  5-MIN K0J4 060945Z AUTO 21009KT 10SM BKN012 OVC018 21/19 A2969 530 93 1300 210/09 RMK AO2 RAE13 P0000 T02060194 $
63870K0J4 0J420161206045013212/06/16 04:50:31  5-MIN K0J4 060950Z AUTO 22010KT 10SM BKN011 OVC017 21/20 A2969 530 93 1400 220/10 RMK AO2 RAE13 P0000 T02110200 $
63870K0J4 0J420161206045513212/06/16 04:55:31  5-MIN K0J4 060955Z AUTO 23010KT 10SM OVC011 21/20 A2970 530 93 1400 230/10 RMK AO2 RAE13 SLP053 P0000 T02110200 $
63870K0J4 0J420161206050011912/06/16 05:00:31  5-MIN K0J4 061000Z AUTO 22012G18KT 10SM OVC011 21/20 A2970 520 93 1400 220/12G18 RMK AO2 T02110200 $
63870K0J4 0J420161206050513112/06/16 05:05:31  5-MIN K0J4 061005Z AUTO 22012G18KT 10SM OVC009 21/20 A2970 520 93 1400 220/12G18 RMK AO2 CIG 007V015 T02110200 $
63870K0J4 0J420161206051013112/06/16 05:10:31  5-MIN K0J4 061010Z AUTO 22012G18KT 10SM OVC009 21/20 A2970 520 93 1400 220/12G18 RMK AO2 CIG 007V013 T02110200 $
63870K0J4 0J420161206051513112/06/16 05:15:31  5-MIN K0J4 061015Z AUTO 22011G18KT 10SM OVC009 21/20 A2970 520 93 1400 220/11G18 RMK AO2 CIG 007V012 T02110200 $
63870K0J4 0J420161206052013112/06/16 05:20:31  5-MIN K0J4 061020Z AUTO 22010G15KT 10SM OVC009 22/20 A2969 530 90 1500 220/10G15 RMK AO2 CIG 007V012 T02170200 $
63870K0J4 0J420161206052513112/06/16 05:25:31  5-MIN K0J4 061025Z AUTO 23008G15KT 10SM OVC009 22/20 A2969 530 90 1500 230/08G15 RMK AO2 CIG 007V012 T02170200 $
63870K0J4 0J420161206053013112/06/16 05:30:31  5-MIN K0J4 061030Z AUTO 23011G19KT 10SM OVC009 22/20 A2970 520 90 1500 230/11G19 RMK AO2 CIG 007V012 T02170200 $
63870K0J4 0J420161206053513112/06/16 05:35:31  5-MIN K0J4 061035Z AUTO 23008G19KT 10SM OVC009 22/20 A2970 520 90 1500 230/08G19 RMK AO2 CIG 007V012 T02170200 $
63870K0J4 0J420161206054012512/06/16 05:40:31  5-MIN K0J4 061040Z AUTO 24008KT 10SM OVC009 22/20 A2970 520 90 1500 240/08 RMK AO2 CIG 007V011 T02170200 $
63870K0J4 0J420161206054512512/06/16 05:45:31  5-MIN K0J4 061045Z AUTO 22007KT 10SM OVC009 21/20 A2970 520 93 1400 220/07 RMK AO2 CIG 006V014 T02110200 $
63870K0J4 0J420161206055012512/06/16 05:50:31  5-MIN K0J4 061050Z AUTO 23007KT 10SM OVC009 21/19 A2971 510 90 1400 230/07 RMK AO2 CIG 006V013 T02110194 $
63870K0J4 0J420161206055513812/06/16 05:55:31  5-MIN K0J4 061055Z AUTO 23009G17KT 10SM OVC009 21/19 A2971 510 90 1400 230/09G17 RMK AO2 CIG 006V012 SLP058 T02110194 $
63870K0J4 0J420161206060013812/06/16 06:00:31  5-MIN K0J4 061100Z AUTO 23009G17KT 10SM BKN009 OVC013 21/19 A2971 510 90 1400 230/09G17 RMK AO2 CIG 006V010 T02110194 $
63870K0J4 0J420161206060515412/06/16 06:05:31  5-MIN K0J4 061105Z AUTO 23009G15KT 200V270 10SM BKN009 OVC015 21/19 A2972 500 90 1400 230/09G15 200V270 RMK AO2 CIG 006V013 T02110194 $
63870K0J4 0J420161206061013812/06/16 06:10:31  5-MIN K0J4 061110Z AUTO 24007G15KT 10SM BKN009 OVC015 21/19 A2972 500 90 1400 240/07G15 RMK AO2 CIG 006V013 T02110194 $
63870K0J4 0J420161206061513212/06/16 06:15:31  5-MIN K0J4 061115Z AUTO 22008KT 10SM BKN010 BKN015 21/19 A2972 510 90 1400 220/08 RMK AO2 CIG 007V013 T02110194 $
63870K0J4 0J420161206062014812/06/16 06:20:31  5-MIN K0J4 061120Z AUTO 23007KT 200V260 10SM BKN010 BKN015 21/19 A2972 510 90 1400 230/07 200V260 RMK AO2 CIG 007V012 T02110194 $
63870K0J4 0J420161206062512012/06/16 06:25:31  5-MIN K0J4 061125Z AUTO 22008KT 10SM BKN010 BKN015 21/19 A2972 500 90 1400 220/08 RMK AO2 T02110194 $
63870K0J4 0J420161206063012912/06/16 06:30:31  5-MIN K0J4 061130Z AUTO 22008KT 200V270 10SM BKN013 21/19 A2972 500 87 1400 220/08 200V270 RMK AO2 T02110189 $
63870K0J4 0J420161206063511312/06/16 06:35:31  5-MIN K0J4 061135Z AUTO 22008KT 10SM BKN013 21/19 A2972 500 87 1400 220/08 RMK AO2 T02110189 $
63870K0J4 0J420161206064011312/06/16 06:40:31  5-MIN K0J4 061140Z AUTO 23007KT 10SM BKN013 21/19 A2972 500 90 1300 230/07 RMK AO2 T02060189 $
63870K0J4 0J420161206064511312/06/16 06:45:31  5-MIN K0J4 061145Z AUTO 22010KT 10SM BKN013 21/19 A2972 500 90 1300 220/10 RMK AO2 T02060189 $
63870K0J4 0J420161206065011312/06/16 06:50:31  5-MIN K0J4 061150Z AUTO 22009KT 10SM BKN013 21/19 A2972 500 90 1300 220/09 RMK AO2 T02060189 $
63870K0J4 0J420161206065514412/06/16 06:55:31  5-MIN K0J4 061155Z AUTO 22009KT 10SM BKN013 21/19 A2972 500 90 1300 220/09 RMK AO2 SLP060 60061 70306 T02060189 10217 20167 $
63870K0J4 0J420161206070011912/06/16 07:00:31  5-MIN K0J4 061200Z AUTO 23007G15KT 10SM BKN013 21/19 A2972 500 90 1300 230/07G15 RMK AO2 T02060189 $
63870K0J4 0J420161206070511912/06/16 07:05:31  5-MIN K0J4 061205Z AUTO 23007G15KT 10SM BKN012 21/19 A2972 500 90 1300 230/07G15 RMK AO2 T02060189 $
63870K0J4 0J420161206071011312/06/16 07:10:31  5-MIN K0J4 061210Z AUTO 22009KT 10SM BKN012 21/19 A2972 500 90 1300 220/09 RMK AO2 T02060189 $
63870K0J4 0J420161206071511312/06/16 07:15:31  5-MIN K0J4 061215Z AUTO 22009KT 10SM BKN012 21/19 A2972 500 90 1300 220/09 RMK AO2 T02060189 $
63870K0J4 0J420161206072011312/06/16 07:20:31  5-MIN K0J4 061220Z AUTO 23009KT 10SM BKN012 20/18 A2973 500 90 1200 230/09 RMK AO2 T02000183 $
63870K0J4 0J420161206072511912/06/16 07:25:31  5-MIN K0J4 061225Z AUTO 23009G18KT 10SM SCT012 20/18 A2973 490 90 1200 230/09G18 RMK AO2 T02000183 $
63870K0J4 0J420161206073014912/06/16 07:30:31  5-MIN K0J4 061230Z AUTO 24010G18KT 210V280 10SM SCT012 BKN021 21/18 A2974 480 87 1300 240/10G18 210V280 RMK AO2 PRESRR T02060183 $
63870K0J4 0J420161206073514212/06/16 07:35:31  5-MIN K0J4 061235Z AUTO 23009G17KT 210V270 10SM SCT012 BKN021 20/18 A2975 480 90 1200 230/09G17 210V270 RMK AO2 T02000183 $
63870K0J4 0J420161206074012612/06/16 07:40:31  5-MIN K0J4 061240Z AUTO 23011G23KT 10SM SCT012 BKN020 20/18 A2975 480 87 1200 230/11G23 RMK AO2 T02000178 $
63870K0J4 0J420161206074513312/06/16 07:45:31  5-MIN K0J4 061245Z AUTO 24007G23KT 10SM SCT013 BKN018 BKN023 20/18 A2975 470 87 1200 240/07G23 RMK AO2 T02000178 $
63870K0J4 0J420161206075012612/06/16 07:50:31  5-MIN K0J4 061250Z AUTO 23007G14KT 10SM BKN016 BKN023 20/18 A2975 470 87 1200 230/07G14 RMK AO2 T02000178 $
63870K0J4 0J420161206075514912/06/16 07:55:31  5-MIN K0J4 061255Z AUTO 24011G17KT 210V280 10SM FEW014 BKN021 20/17 A2975 470 84 1200 240/11G17 210V280 RMK AO2 SLP072 T02000172 $
63870K0J4 0J420161206080014212/06/16 08:00:31  5-MIN K0J4 061300Z AUTO 25009G17KT 210V280 10SM SCT017 SCT023 19/17 A2976 470 84 1100 250/09G17 210V280 RMK AO2 T01940167 $
63870K0J4 0J420161206080512612/06/16 08:05:31  5-MIN K0J4 061305Z AUTO 23007G14KT 10SM SCT015 SCT023 19/17 A2976 470 84 1100 230/07G14 RMK AO2 T01940167 $
63870K0J4 0J420161206081011812/06/16 08:10:31  5-MIN K0J4 061310Z AUTO 23007KT 10SM FEW013 FEW018 19/17 A2976 460 84 1100 230/07 RMK AO2 T01940167
63870K0J4 0J420161206081504912/06/16 08:15:31  5-MIN K0J4 061315Z AUTO RVRNO 
63870K0J4 0J420161206082512212/06/16 08:25:31  5-MIN K0J4 061325Z AUTO 23007KT 210V270 10SM 19/17 A2977 450 84 1100 230/07 210V270 RMK AO2 T01940167 $
63870K0J4 0J420161206083010612/06/16 08:30:31  5-MIN K0J4 061330Z AUTO 22008KT 10SM 19/17 A2977 450 84 1100 220/08 RMK AO2 T01940167 $
63870K0J4 0J420161206083512212/06/16 08:35:31  5-MIN K0J4 061335Z AUTO 23008KT 10SM -RA 19/17 A2978 450 84 1100 230/08 RMK AO2 RAB32 P0000 T01940167 $
63870K0J4 0J420161206084014412/06/16 08:40:31  5-MIN K0J4 061340Z AUTO 23007G16KT 190V270 10SM -RA 19/16 A2978 440 81 1100 230/07G16 190V270 RMK AO2 RAB32 P0000 T01940161 $
63870K0J4 0J420161206084512712/06/16 08:45:31  5-MIN K0J4 061345Z AUTO VRB04G16KT 10SM 19/16 A2979 440 81 1100 VRB/04G16 RMK AO2 RAB32E44 P0000 T01940161 $
63870K0J4 0J420161206085015112/06/16 08:50:31  5-MIN K0J4 061350Z AUTO 24007KT 210V290 10SM FEW017 SCT023 19/16 A2979 440 81 1100 240/07 210V290 RMK AO2 RAB32E44 P0000 T01940161 $
63870K0J4 0J420161206085514812/06/16 08:55:31  5-MIN K0J4 061355Z AUTO 24007G16KT 10SM SCT017 SCT023 19/16 A2979 440 81 1000 240/07G16 RMK AO2 RAB32E44 SLP085 P0000 T01890156 $
63870K0J4 0J420161206090013512/06/16 09:00:31  5-MIN K0J4 061400Z AUTO 24007G17KT 190V270 10SM SCT017 19/16 A2980 430 81 1000 240/07G17 190V270 RMK AO2 T01890156 $
63870K0J4 0J420161206090511912/06/16 09:05:31  5-MIN K0J4 061405Z AUTO VRB06G17KT 10SM BKN017 19/16 A2980 430 78 1100 VRB/06G17 RMK AO2 T01940156 $
63870K0J4 0J420161206091011312/06/16 09:10:31  5-MIN K0J4 061410Z AUTO 23007KT 10SM BKN017 19/16 A2980 430 81 1000 230/07 RMK AO2 T01890156 $
63870K0J4 0J420161206091511912/06/16 09:15:31  5-MIN K0J4 061415Z AUTO 23010G15KT 10SM SCT017 19/15 A2980 430 78 1000 230/10G15 RMK AO2 T01890150 $
63870K0J4 0J420161206092011912/06/16 09:20:31  5-MIN K0J4 061420Z AUTO 23009G15KT 10SM SCT017 19/15 A2980 430 78 1000 230/09G15 RMK AO2 T01890150 $
63870K0J4 0J420161206092511912/06/16 09:25:31  5-MIN K0J4 061425Z AUTO 23010G15KT 10SM FEW017 19/15 A2980 420 78 1000 230/10G15 RMK AO2 T01890150 $
63870K0J4 0J420161206093013512/06/16 09:30:31  5-MIN K0J4 061430Z AUTO 24008G15KT 210V280 10SM FEW017 19/15 A2981 420 78 1000 240/08G15 210V280 RMK AO2 T01890150 $
63870K0J4 0J420161206093511912/06/16 09:35:31  5-MIN K0J4 061435Z AUTO VRB05G15KT 10SM FEW017 19/15 A2982 410 75 1100 VRB/05G15 RMK AO2 T01940150 $
63870K0J4 0J420161206094011912/06/16 09:40:31  5-MIN K0J4 061440Z AUTO 23011G14KT 10SM FEW017 19/14 A2982 410 75 1000 230/11G14 RMK AO2 T01890144 $
63870K0J4 0J420161206094513312/06/16 09:45:31  5-MIN K0J4 061445Z AUTO 24007G14KT 10SM FEW017 SCT027 19/14 A2983 400 75 1000 240/07G14 RMK AO2 PRESRR T01890144 $
63870K0J4 0J420161206095012012/06/16 09:50:31  5-MIN K0J4 061450Z AUTO VRB05KT 10SM SCT017 BKN027 19/14 A2983 400 75 1000 VRB/05 RMK AO2 T01890144 $
63870K0J4 0J420161206095512312/06/16 09:55:31  5-MIN K0J4 061455Z AUTO 10SM SCT017 BKN027 19/14 A2983 400 75 1000 M /M RMK AO2 SLP100 60000 T01890144 $
63870K0J4 0J420161206100013512/06/16 10:00:31  5-MIN K0J4 061500Z AUTO 25009KT 190V280 10SM FEW017 BKN025 18/14 A2984 390 75 900 250/09 190V280 RMK AO2 T01830139 $
63870K0J4 0J420161206100514112/06/16 10:05:31  5-MIN K0J4 061505Z AUTO 23007G18KT 210V270 10SM SCT019 BKN025 18/14 A2984 390 75 900 230/07G18 210V270 RMK AO2 T01830139 $
63870K0J4 0J420161206101014212/06/16 10:10:31  5-MIN K0J4 061510Z AUTO 24009G18KT 210V270 10SM FEW020 BKN026 19/14 A2983 400 72 1000 240/09G18 210V270 RMK AO2 T01890139 $
63870K0J4 0J420161206101512612/06/16 10:15:31  5-MIN K0J4 061515Z AUTO VRB06G15KT 10SM FEW018 SCT026 19/14 A2984 390 72 1000 VRB/06G15 RMK AO2 T01890139 $
63870K0J4 0J420161206102014212/06/16 10:20:31  5-MIN K0J4 061520Z AUTO 24008G15KT 210V280 10SM SCT020 SCT026 19/14 A2984 390 72 1000 240/08G15 210V280 RMK AO2 T01890139 $
63870K0J4 0J420161206102512612/06/16 10:25:31  5-MIN K0J4 061525Z AUTO VRB05G15KT 10SM BKN021 BKN026 19/14 A2984 390 72 1000 VRB/05G15 RMK AO2 T01890139 $
63870K0J4 0J420161206103013512/06/16 10:30:31  5-MIN K0J4 061530Z AUTO 23009G14KT 210V270 10SM BKN021 19/14 A2984 390 70 1000 230/09G14 210V270 RMK AO2 T01940139 $
63870K0J4 0J420161206103511912/06/16 10:35:31  5-MIN K0J4 061535Z AUTO 24009G15KT 10SM BKN021 19/14 A2984 390 72 1000 240/09G15 RMK AO2 T01890139 $
63870K0J4 0J420161206210511212/06/16 21:05:31  5-MIN K0J4 070205Z AUTO 34003KT 10SM BKN025 15/11 A2997 270 77 400 340/03 RMK AO2 T01500111 $
63870K0J4 0J420161206211011212/06/16 21:10:31  5-MIN K0J4 070210Z AUTO 34004KT 10SM BKN025 15/11 A2997 270 77 400 340/04 RMK AO2 T01500111 $
63870K0J4 0J420161206211511212/06/16 21:15:31  5-MIN K0J4 070215Z AUTO 34004KT 10SM BKN025 15/11 A2997 270 77 400 340/04 RMK AO2 T01500111 $
63870K0J4 0J420161206212011212/06/16 21:20:31  5-MIN K0J4 070220Z AUTO VRB03KT 10SM BKN025 14/11 A2998 260 80 300 VRB/03 RMK AO2 T01440111 $
63870K0J4 0J420161206212511212/06/16 21:25:31  5-MIN K0J4 070225Z AUTO VRB03KT 10SM SCT024 14/11 A2998 260 80 300 VRB/03 RMK AO2 T01440111 $
63870K0J4 0J420161206213011212/06/16 21:30:31  5-MIN K0J4 070230Z AUTO VRB03KT 10SM FEW024 14/11 A2998 260 80 300 VRB/03 RMK AO2 T01440111 $
63870K0J4 0J420161206213511212/06/16 21:35:31  5-MIN K0J4 070235Z AUTO VRB03KT 10SM FEW024 14/11 A2998 260 80 300 VRB/03 RMK AO2 T01440111 $
63870K0J4 0J420161206214011212/06/16 21:40:31  5-MIN K0J4 070240Z AUTO 33003KT 10SM SCT022 14/11 A2999 260 83 200 330/03 RMK AO2 T01390111 $
63870K0J4 0J420161206214511212/06/16 21:45:31  5-MIN K0J4 070245Z AUTO 00000KT 10SM SCT022 14/11 A2999 250 83 200 000/00 RMK AO2 T01390111 $
63870K0J4 0J420161206215011212/06/16 21:50:31  5-MIN K0J4 070250Z AUTO 34004KT 10SM BKN022 14/11 A2999 250 80 300 340/04 RMK AO2 T01440111 $
63870K0J4 0J420161206215512512/06/16 21:55:31  5-MIN K0J4 070255Z AUTO 00000KT 10SM BKN022 14/11 A3000 250 83 200 000/00 RMK AO2 SLP155 T01390111 53024 $
63870K0J4 0J420161206220011212/06/16 22:00:31  5-MIN K0J4 070300Z AUTO 00000KT 10SM BKN022 14/11 A3000 240 83 200 000/00 RMK AO2 T01390111 $
63870K0J4 0J420161206220511212/06/16 22:05:31  5-MIN K0J4 070305Z AUTO 00000KT 10SM OVC020 14/11 A3000 240 80 300 000/00 RMK AO2 T01440111 $
63870K0J4 0J420161206221011212/06/16 22:10:31  5-MIN K0J4 070310Z AUTO 00000KT 10SM OVC020 14/11 A3000 240 80 300 000/00 RMK AO2 T01440111 $
63870K0J4 0J420161206221511212/06/16 22:15:31  5-MIN K0J4 070315Z AUTO 00000KT 10SM OVC020 14/11 A3001 240 80 300 000/00 RMK AO2 T01440111 $
63870K0J4 0J420161206222011212/06/16 22:20:31  5-MIN K0J4 070320Z AUTO 00000KT 10SM OVC018 14/11 A3001 240 80 300 000/00 RMK AO2 T01440111 $
63870K0J4 0J420161206222511212/06/16 22:25:31  5-MIN K0J4 070325Z AUTO 33003KT 10SM OVC018 14/11 A3001 230 80 300 330/03 RMK AO2 T01440111 $
63870K0J4 0J420161206223011212/06/16 22:30:31  5-MIN K0J4 070330Z AUTO VRB04KT 10SM OVC018 14/11 A3001 230 80 300 VRB/04 RMK AO2 T01440111 $
63870K0J4 0J420161206223511212/06/16 22:35:31  5-MIN K0J4 070335Z AUTO 34004KT 10SM OVC016 14/11 A3002 230 80 300 340/04 RMK AO2 T01440111 $
63870K0J4 0J420161206224011212/06/16 22:40:31  5-MIN K0J4 070340Z AUTO VRB05KT 10SM OVC016 14/11 A3002 230 80 300 VRB/05 RMK AO2 T01440111 $
63870K0J4 0J420161206224511212/06/16 22:45:31  5-MIN K0J4 070345Z AUTO VRB04KT 10SM OVC016 14/11 A3002 220 77 300 VRB/04 RMK AO2 T01440106 $
63870K0J4 0J420161206225011212/06/16 22:50:31  5-MIN K0J4 070350Z AUTO VRB05KT 10SM OVC016 14/11 A3002 220 77 200 VRB/05 RMK AO2 T01440106 $
63870K0J4 0J420161206225511912/06/16 22:55:31  5-MIN K0J4 070355Z AUTO VRB04KT 10SM OVC016 14/11 A3002 220 77 200 VRB/04 RMK AO2 SLP164 T01440106 $
63870K0J4 0J420161206230011212/06/16 23:00:31  5-MIN K0J4 070400Z AUTO 33004KT 10SM OVC016 14/11 A3002 220 80 200 330/04 RMK AO2 T01390106 $
63870K0J4 0J420161206230511212/06/16 23:05:31  5-MIN K0J4 070405Z AUTO VRB04KT 10SM OVC016 14/11 A3002 220 80 200 VRB/04 RMK AO2 T01390106 $
63870K0J4 0J420161206231011212/06/16 23:10:31  5-MIN K0J4 070410Z AUTO 35005KT 10SM OVC016 14/10 A3003 220 77 200 350/05 RMK AO2 T01390100 $
63870K0J4 0J420161206231511212/06/16 23:15:31  5-MIN K0J4 070415Z AUTO 33005KT 10SM OVC016 14/10 A3003 220 77 200 330/05 RMK AO2 T01390100 $
63870K0J4 0J420161206232011212/06/16 23:20:31  5-MIN K0J4 070420Z AUTO 34004KT 10SM OVC016 14/10 A3003 220 77 200 340/04 RMK AO2 T01390100 $
63870K0J4 0J420161206232511212/06/16 23:25:31  5-MIN K0J4 070425Z AUTO VRB03KT 10SM OVC016 14/10 A3003 220 77 200 VRB/03 RMK AO2 T01390100 $
63870K0J4 0J420161206233011212/06/16 23:30:31  5-MIN K0J4 070430Z AUTO VRB03KT 10SM OVC015 14/10 A3003 210 77 200 VRB/03 RMK AO2 T01390100 $
63870K0J4 0J420161206233511212/06/16 23:35:31  5-MIN K0J4 070435Z AUTO VRB04KT 10SM OVC015 14/10 A3003 220 77 200 VRB/04 RMK AO2 T01390100 $
63870K0J4 0J420161206234011212/06/16 23:40:31  5-MIN K0J4 070440Z AUTO 00000KT 10SM OVC015 13/10 A3003 220 80 100 000/00 RMK AO2 T01330100 $
63870K0J4 0J420161206234511212/06/16 23:45:31  5-MIN K0J4 070445Z AUTO 29004KT 10SM OVC015 14/10 A3003 220 77 200 290/04 RMK AO2 T01390100 $
63870K0J4 0J420161206235011212/06/16 23:50:31  5-MIN K0J4 070450Z AUTO 33005KT 10SM OVC015 13/10 A3003 220 80 100 330/05 RMK AO2 T01330100 $
63870K0J4 0J420161206235512912/06/16 23:55:31  5-MIN K0J4 070455Z AUTO 00000KT 10SM OVC015 13/10 A3003 220 80 100 000/00 RMK AO2 SLP165 T01330100 402170133 $
63870K0J4 0J420161207000011212/07/16 00:00:31  5-MIN K0J4 070500Z AUTO VRB03KT 10SM OVC015 13/10 A3002 220 80 100 VRB/03 RMK AO2 T01330100 $
63870K0J4 0J420161207000511212/07/16 00:05:31  5-MIN K0J4 070505Z AUTO VRB03KT 10SM OVC015 13/10 A3002 220 80 100 VRB/03 RMK AO2 T01330100 $
63870K0J4 0J420161207001011212/07/16 00:10:31  5-MIN K0J4 070510Z AUTO VRB04KT 10SM OVC015 13/10 A3002 220 80 100 VRB/04 RMK AO2 T01330100 $
63870K0J4 0J420161207001511212/07/16 00:15:31  5-MIN K0J4 070515Z AUTO VRB04KT 10SM OVC015 13/09 A3002 220 77 100 VRB/04 RMK AO2 T01330094 $
63870K0J4 0J420161207002011212/07/16 00:20:31  5-MIN K0J4 070520Z AUTO VRB03KT 10SM OVC015 13/09 A3002 220 77 100 VRB/03 RMK AO2 T01330094 $
63870K0J4 0J420161207002511212/07/16 00:25:31  5-MIN K0J4 070525Z AUTO VRB04KT 10SM OVC015 13/09 A3002 230 77 100 VRB/04 RMK AO2 T01330094 $
63870K0J4 0J420161207003011212/07/16 00:30:31  5-MIN K0J4 070530Z AUTO VRB03KT 10SM OVC015 13/09 A3002 230 77 100 VRB/03 RMK AO2 T01330094 $
63870K0J4 0J420161207003511212/07/16 00:35:31  5-MIN K0J4 070535Z AUTO VRB03KT 10SM OVC015 13/09 A3002 230 77 100 VRB/03 RMK AO2 T01330094 $
63870K0J4 0J420161207004011212/07/16 00:40:31  5-MIN K0J4 070540Z AUTO VRB03KT 10SM OVC015 13/09 A3002 230 77 100 VRB/03 RMK AO2 T01330094 $
63870K0J4 0J420161207004511212/07/16 00:45:31  5-MIN K0J4 070545Z AUTO 00000KT 10SM OVC015 13/09 A3002 230 77 100 000/00 RMK AO2 T01330094 $
63870K0J4 0J420161207005011212/07/16 00:50:31  5-MIN K0J4 070550Z AUTO VRB05KT 10SM OVC015 13/09 A3002 220 77 100 VRB/05 RMK AO2 T01330094 $
63870K0J4 0J420161207005513712/07/16 00:55:31  5-MIN K0J4 070555Z AUTO 32005KT 10SM OVC015 13/09 A3002 220 77 100 320/05 RMK AO2 SLP163 T01330094 10161 20133 53018 $
63870K0J4 0J420161207010011212/07/16 01:00:31  5-MIN K0J4 070600Z AUTO 32005KT 10SM OVC014 13/09 A3002 230 77 100 320/05 RMK AO2 T01330094 $
63870K0J4 0J420161207010511212/07/16 01:05:31  5-MIN K0J4 070605Z AUTO VRB03KT 10SM OVC014 13/09 A3002 230 77 100 VRB/03 RMK AO2 T01330094 $
63870K0J4 0J420161207011011212/07/16 01:10:31  5-MIN K0J4 070610Z AUTO 00000KT 10SM OVC014 13/09 A3002 230 77 100 000/00 RMK AO2 T01330094 $
63870K0J4 0J420161207041511012/07/16 04:15:31  5-MIN K0J4 070915Z AUTO 03005KT 10SM OVC010 12/09 A3003 210 83 0 030/05 RMK AO2 T01220094 $
63870K0J4 0J420161207042011012/07/16 04:20:31  5-MIN K0J4 070920Z AUTO 03004KT 10SM OVC009 12/09 A3004 210 83 0 030/04 RMK AO2 T01220094 $
63870K0J4 0J420161207042511012/07/16 04:25:31  5-MIN K0J4 070925Z AUTO 03005KT 10SM OVC009 12/10 A3004 210 86 0 030/05 RMK AO2 T01220100 $
63870K0J4 0J420161207043011012/07/16 04:30:31  5-MIN K0J4 070930Z AUTO 04005KT 10SM OVC009 12/09 A3004 210 83 0 040/05 RMK AO2 T01220094 $
63870K0J4 0J420161207043511012/07/16 04:35:31  5-MIN K0J4 070935Z AUTO 03005KT 10SM OVC009 12/10 A3004 210 86 0 030/05 RMK AO2 T01220100 $
63870K0J4 0J420161207044011012/07/16 04:40:31  5-MIN K0J4 070940Z AUTO 04004KT 10SM OVC008 12/09 A3004 210 83 0 040/04 RMK AO2 T01220094 $
63870K0J4 0J420161207044511012/07/16 04:45:31  5-MIN K0J4 070945Z AUTO 04004KT 10SM OVC008 12/10 A3004 210 86 0 040/04 RMK AO2 T01220100 $
63870K0J4 0J420161207045011012/07/16 04:50:31  5-MIN K0J4 070950Z AUTO 04005KT 10SM OVC008 12/09 A3004 210 83 0 040/05 RMK AO2 T01220094 $
63870K0J4 0J420161207045512012/07/16 04:55:31  5-MIN K0J4 070955Z AUTO 02006KT 10SM OVC008 12/09 A3004 210 86 -100 020/06 RMK AO2 SLP169 T01170094 $
63870K0J4 0J420161207050011012/07/16 05:00:31  5-MIN K0J4 071000Z AUTO 03005KT 10SM OVC008 12/09 A3003 210 86 0 030/05 RMK AO2 T01170094 $
63870K0J4 0J420161207050511012/07/16 05:05:31  5-MIN K0J4 071005Z AUTO 02004KT 10SM OVC008 12/09 A3004 210 86 0 020/04 RMK AO2 T01170094 $
63870K0J4 0J420161207051011012/07/16 05:10:31  5-MIN K0J4 071010Z AUTO 01003KT 10SM OVC008 12/09 A3004 210 86 0 010/03 RMK AO2 T01170094 $
63870K0J4 0J420161207051511012/07/16 05:15:31  5-MIN K0J4 071015Z AUTO 01003KT 10SM OVC008 12/09 A3003 210 86 0 010/03 RMK AO2 T01170094 $
63870K0J4 0J420161207052011012/07/16 05:20:31  5-MIN K0J4 071020Z AUTO 03003KT 10SM OVC008 12/09 A3004 210 86 0 030/03 RMK AO2 T01170094 $
63870K0J4 0J420161207052511012/07/16 05:25:31  5-MIN K0J4 071025Z AUTO 00000KT 10SM OVC008 12/09 A3004 210 86 0 000/00 RMK AO2 T01170094 $
63870K0J4 0J420161207053011012/07/16 05:30:31  5-MIN K0J4 071030Z AUTO 00000KT 10SM OVC008 12/09 A3004 210 86 0 000/00 RMK AO2 T01170094 $
63870K0J4 0J420161207053511312/07/16 05:35:31  5-MIN K0J4 071035Z AUTO 01003KT 10SM OVC008 12/09 A3004 210 86 -100 010/03 RMK AO2 T01170094 $
63870K0J4 0J420161207054011312/07/16 05:40:31  5-MIN K0J4 071040Z AUTO 00000KT 10SM OVC008 12/09 A3004 210 86 -100 000/00 RMK AO2 T01170094 $
63870K0J4 0J420161207054511312/07/16 05:45:31  5-MIN K0J4 071045Z AUTO 00000KT 10SM OVC008 12/09 A3004 210 86 -100 000/00 RMK AO2 T01170094 $
63870K0J4 0J420161207055011312/07/16 05:50:31  5-MIN K0J4 071050Z AUTO 00000KT 10SM OVC008 12/09 A3004 200 86 -100 000/00 RMK AO2 T01170094 $
63870K0J4 0J420161207055511712/07/16 05:55:31  5-MIN K0J4 071055Z AUTO 00000KT 10SM OVC008 12/09 A3004 200 83 0 000/00 RMK AO2 SLP171 T01220094 $
63870K0J4 0J420161207060011312/07/16 06:00:31  5-MIN K0J4 071100Z AUTO 01003KT 10SM OVC007 12/09 A3004 200 86 -100 010/03 RMK AO2 T01170094 $
63870K0J4 0J420161207060511312/07/16 06:05:31  5-MIN K0J4 071105Z AUTO 00000KT 10SM OVC007 12/09 A3005 200 86 -100 000/00 RMK AO2 T01170094 $
63870K0J4 0J420161207061011312/07/16 06:10:31  5-MIN K0J4 071110Z AUTO 00000KT 10SM OVC007 12/09 A3005 200 86 -100 000/00 RMK AO2 T01170094 $
63870K0J4 0J420161207061511312/07/16 06:15:31  5-MIN K0J4 071115Z AUTO 00000KT 10SM OVC007 12/09 A3005 200 86 -100 000/00 RMK AO2 T01170094 $
63870K0J4 0J420161207062011312/07/16 06:20:31  5-MIN K0J4 071120Z AUTO 00000KT 10SM OVC007 12/10 A3005 200 89 -100 000/00 RMK AO2 T01170100 $
63870K0J4 0J420161207062511312/07/16 06:25:31  5-MIN K0J4 071125Z AUTO 00000KT 10SM OVC007 12/09 A3005 200 86 -100 000/00 RMK AO2 T01170094 $
63870K0J4 0J420161207063011312/07/16 06:30:31  5-MIN K0J4 071130Z AUTO 01003KT 10SM OVC007 12/09 A3005 190 86 -100 010/03 RMK AO2 T01170094 $
63870K0J4 0J420161207063511312/07/16 06:35:31  5-MIN K0J4 071135Z AUTO 33003KT 10SM OVC007 12/09 A3006 190 86 -100 330/03 RMK AO2 T01170094 $
63870K0J4 0J420161207064011312/07/16 06:40:31  5-MIN K0J4 071140Z AUTO 35003KT 10SM OVC007 12/09 A3006 190 86 -100 350/03 RMK AO2 T01170094 $
63870K0J4 0J420161207064511312/07/16 06:45:31  5-MIN K0J4 071145Z AUTO 35003KT 10SM OVC007 12/09 A3006 190 86 -100 350/03 RMK AO2 T01170094 $
63870K0J4 0J420161207065011312/07/16 06:50:31  5-MIN K0J4 071150Z AUTO 00000KT 10SM OVC007 12/09 A3006 190 86 -100 000/00 RMK AO2 T01170094 $
63870K0J4 0J420161207065514412/07/16 06:55:31  5-MIN K0J4 071155Z AUTO 00000KT 10SM OVC007 12/09 A3007 180 86 -100 000/00 RMK AO2 SLP179 7//// T01170094 10133 20117 53005 $
63870K0J4 0J420161207070011312/07/16 07:00:31  5-MIN K0J4 071200Z AUTO 00000KT 10SM OVC007 12/09 A3007 180 86 -100 000/00 RMK AO2 T01170094 $
63870K0J4 0J420161207070511312/07/16 07:05:31  5-MIN K0J4 071205Z AUTO 29003KT 10SM OVC007 12/09 A3007 170 86 -100 290/03 RMK AO2 T01170094 $
63870K0J4 0J420161207071011312/07/16 07:10:31  5-MIN K0J4 071210Z AUTO 00000KT 10SM OVC007 12/09 A3008 170 86 -100 000/00 RMK AO2 T01170094 $
63870K0J4 0J420161207071511312/07/16 07:15:31  5-MIN K0J4 071215Z AUTO 00000KT 10SM OVC007 12/09 A3008 170 86 -100 000/00 RMK AO2 T01170094 $
63870K0J4 0J420161207072011312/07/16 07:20:31  5-MIN K0J4 071220Z AUTO 00000KT 10SM OVC007 12/09 A3008 170 86 -100 000/00 RMK AO2 T01170094 $
63870K0J4 0J420161207072511312/07/16 07:25:31  5-MIN K0J4 071225Z AUTO 00000KT 10SM OVC007 12/09 A3008 170 86 -100 000/00 RMK AO2 T01170094 $
63870K0J4 0J420161207073011312/07/16 07:30:31  5-MIN K0J4 071230Z AUTO 00000KT 10SM OVC007 12/09 A3009 160 86 -100 000/00 RMK AO2 T01170094 $
63870K0J4 0J420161207073511312/07/16 07:35:31  5-MIN K0J4 071235Z AUTO 00000KT 10SM OVC007 12/09 A3009 160 86 -100 000/00 RMK AO2 T01170094 $
63870K0J4 0J420161207074011312/07/16 07:40:31  5-MIN K0J4 071240Z AUTO 00000KT 10SM OVC006 12/09 A3009 160 86 -100 000/00 RMK AO2 T01170094 $
63870K0J4 0J420161207074511312/07/16 07:45:31  5-MIN K0J4 071245Z AUTO 00000KT 10SM OVC006 12/09 A3009 160 86 -100 000/00 RMK AO2 T01170094 $
63870K0J4 0J420161207122011012/07/16 12:20:31  5-MIN K0J4 071720Z AUTO 00000KT 10SM OVC013 13/09 A3012 130 77 0 000/00 RMK AO2 T01330094 $
63870K0J4 0J420161207122511212/07/16 12:25:31  5-MIN K0J4 071725Z AUTO VRB03KT 10SM OVC013 14/09 A3011 140 74 100 VRB/03 RMK AO2 T01390094 $
63870K0J4 0J420161207123011212/07/16 12:30:31  5-MIN K0J4 071730Z AUTO VRB05KT 10SM OVC013 14/09 A3011 140 74 100 VRB/05 RMK AO2 T01390094 $
63870K0J4 0J420161207123511212/07/16 12:35:31  5-MIN K0J4 071735Z AUTO 00000KT 10SM OVC013 14/09 A3011 140 74 100 000/00 RMK AO2 T01390094 $
63870K0J4 0J420161207124011212/07/16 12:40:31  5-MIN K0J4 071740Z AUTO 26004KT 10SM OVC015 14/09 A3011 140 74 100 260/04 RMK AO2 T01390094 $
63870K0J4 0J420161207124511212/07/16 12:45:31  5-MIN K0J4 071745Z AUTO 00000KT 10SM OVC015 14/09 A3010 150 72 200 000/00 RMK AO2 T01440094 $
63870K0J4 0J420161207125010212/07/16 12:50:31  5-MIN K0J4 071750Z AUTO 10SM OVC017 15/10 A3010 150 72 200 M /M RMK AO2 T01500100 $
63870K0J4 0J420161207125514312/07/16 12:55:31  5-MIN K0J4 071755Z AUTO VRB04KT 10SM OVC017 14/09 A3010 150 72 200 VRB/04 RMK AO2 SLP192 60000 T01440094 10150 20111 51020 $
63870K0J4 0J420161207130011212/07/16 13:00:31  5-MIN K0J4 071800Z AUTO 00000KT 10SM OVC017 14/09 A3010 150 74 100 000/00 RMK AO2 T01390094 $
63870K0J4 0J420161207130511212/07/16 13:05:31  5-MIN K0J4 071805Z AUTO VRB03KT 10SM OVC016 14/10 A3010 150 74 200 VRB/03 RMK AO2 T01440100 $
63870K0J4 0J420161207131011212/07/16 13:10:31  5-MIN K0J4 071810Z AUTO VRB03KT 10SM OVC016 14/10 A3010 150 74 200 VRB/03 RMK AO2 T01440100 $
63870K0J4 0J420161207131511212/07/16 13:15:31  5-MIN K0J4 071815Z AUTO VRB04KT 10SM OVC016 14/10 A3010 150 74 200 VRB/04 RMK AO2 T01440100 $
63870K0J4 0J420161207132011212/07/16 13:20:31  5-MIN K0J4 071820Z AUTO 34004KT 10SM OVC018 14/09 A3010 150 72 200 340/04 RMK AO2 T01440094 $
63870K0J4 0J420161207132507012/07/16 13:25:31  5-MIN K0J4 071825Z AUTO M M M M /M RMK AO2 FZRANO $
63870K0J4 0J420161207133010612/07/16 13:30:31  5-MIN K0J4 071830Z AUTO VRB04KT 14/09 A3009 160 72 200 VRB/04 RMK AO2 T01440094 PWINO $
63870K0J4 0J420161207133510512/07/16 13:35:31  5-MIN K0J4 071835Z AUTO VRB03KT 10SM 14/09 A3009 160 72 200 VRB/03 RMK AO2 T01440094 $
63870K0J4 0J420161207134010512/07/16 13:40:31  5-MIN K0J4 071840Z AUTO VRB06KT 10SM 15/09 A3009 160 69 200 VRB/06 RMK AO2 T01500094 $
63870K0J4 0J420161207134510512/07/16 13:45:31  5-MIN K0J4 071845Z AUTO VRB04KT 10SM 14/09 A3009 160 72 200 VRB/04 RMK AO2 T01440094 $
63870K0J4 0J420161207135010512/07/16 13:50:31  5-MIN K0J4 071850Z AUTO VRB04KT 10SM 14/09 A3009 160 72 200 VRB/04 RMK AO2 T01440094 $
63870K0J4 0J420161207135510212/07/16 13:55:31  5-MIN K0J4 071855Z AUTO VRB05KT 10SM OVC018 15/09 A3009 160 69 200 VRB/05 RMK AO2 $
63870K0J4 0J420161207140012212/07/16 14:00:31  5-MIN K0J4 071900Z AUTO VRB05KT 10SM -RA OVC018 15/09 A3009 160 69 200 VRB/05 RMK AO2 P0000 T01500094 $
63870K0J4 0J420161207140512212/07/16 14:05:31  5-MIN K0J4 071905Z AUTO 31005KT 10SM -RA OVC019 15/09 A3009 160 69 200 310/05 RMK AO2 P0000 T01500094 $
63870K0J4 0J420161207141012412/07/16 14:10:31  5-MIN K0J4 071910Z AUTO VRB04KT 10SM OVC019 14/09 A3009 160 69 200 VRB/04 RMK AO2 RAE07 P0000 T01440089 $
63870K0J4 0J420161207141512412/07/16 14:15:31  5-MIN K0J4 071915Z AUTO 00000KT 10SM OVC019 15/09 A3009 160 69 200 000/00 RMK AO2 RAE07 P0000 T01500094 $
63870K0J4 0J420161207142012412/07/16 14:20:31  5-MIN K0J4 071920Z AUTO VRB04KT 10SM OVC019 15/09 A3009 160 69 200 VRB/04 RMK AO2 RAE07 P0000 T01500094 $
63870K0J4 0J420161207142513112/07/16 14:25:31  5-MIN K0J4 071925Z AUTO VRB03KT 10SM BKN019 OVC025 14/09 A3009 160 72 200 VRB/03 RMK AO2 RAE07 P0000 T01440094 $
63870K0J4 0J420161207143012412/07/16 14:30:31  5-MIN K0J4 071930Z AUTO VRB03KT 10SM BKN022 15/09 A3009 160 69 200 VRB/03 RMK AO2 RAE07 P0000 T01500094 $
63870K0J4 0J420161207143512412/07/16 14:35:31  5-MIN K0J4 071935Z AUTO 00000KT 10SM BKN022 15/09 A3009 160 69 200 000/00 RMK AO2 RAE07 P0000 T01500094 $
63870K0J4 0J420161207144012412/07/16 14:40:31  5-MIN K0J4 071940Z AUTO 20003KT 10SM BKN022 15/09 A3009 160 69 200 200/03 RMK AO2 RAE07 P0000 T01500094 $
63870K0J4 0J420161207144512412/07/16 14:45:31  5-MIN K0J4 071945Z AUTO VRB04KT 10SM BKN022 16/09 A3009 160 64 400 VRB/04 RMK AO2 RAE07 P0000 T01610094 $
63870K0J4 0J420161207145012412/07/16 14:50:31  5-MIN K0J4 071950Z AUTO VRB03KT 10SM BKN023 17/09 A3009 160 60 500 VRB/03 RMK AO2 RAE07 P0000 T01720094 $
63870K0J4 0J420161207145514712/07/16 14:55:31  5-MIN K0J4 071955Z AUTO 36007KT 330V030 10SM OVC023 16/09 A3009 160 62 400 360/07 330V030 RMK AO2 RAE07 SLP187 P0000 T01610089 $
63870K0J4 0J420161207150011212/07/16 15:00:31  5-MIN K0J4 072000Z AUTO 35005KT 10SM BKN023 15/09 A3009 160 66 200 350/05 RMK AO2 T01500089 $
63870K0J4 0J420161207150511212/07/16 15:05:31  5-MIN K0J4 072005Z AUTO 35004KT 10SM BKN023 15/09 A3009 160 66 200 350/04 RMK AO2 T01500089 $
63870K0J4 0J420161207151011912/07/16 15:10:31  5-MIN K0J4 072010Z AUTO 34005KT 10SM SCT023 BKN027 15/09 A3009 160 66 200 340/05 RMK AO2 T01500089 $
63870K0J4 0J420161207151511212/07/16 15:15:31  5-MIN K0J4 072015Z AUTO VRB05KT 10SM BKN024 15/09 A3009 160 66 200 VRB/05 RMK AO2 T01500089 $
63870K0J4 0J420161207152011212/07/16 15:20:31  5-MIN K0J4 072020Z AUTO VRB04KT 10SM BKN026 15/09 A3009 160 66 200 VRB/04 RMK AO2 T01500089 $
63870K0J4 0J420161207152511212/07/16 15:25:31  5-MIN K0J4 072025Z AUTO 35006KT 10SM BKN026 16/09 A3009 160 64 400 350/06 RMK AO2 T01610094 $
63870K0J4 0J420161207153011212/07/16 15:30:31  5-MIN K0J4 072030Z AUTO VRB04KT 10SM BKN026 16/09 A3009 160 64 300 VRB/04 RMK AO2 T01560089 $
63870K0J4 0J420161207153507312/07/16 15:35:31  5-MIN K0J4 072035Z AUTO 00000KT M M M 000/00 RMK AO2 $
63870K0J4 0J420161207154010012/07/16 15:40:31  5-MIN K0J4 072040Z AUTO 31004KT 16/09 A3009 160 67 300 310/04 RMK AO2 T01560094 $
63870K0J4 0J420161207154510512/07/16 15:45:31  5-MIN K0J4 072045Z AUTO 33005KT 10SM 16/09 A3009 160 64 300 330/05 RMK AO2 T01560089 $
63870K0J4 0J420161207155010512/07/16 15:50:31  5-MIN K0J4 072050Z AUTO VRB04KT 10SM 16/09 A3009 160 64 300 VRB/04 RMK AO2 T01560089 $
63870K0J4 0J420161207155511812/07/16 15:55:31  5-MIN K0J4 072055Z AUTO 35007KT 10SM 16/09 A3009 160 62 400 350/07 RMK AO2 SLP189 60000 T01610089 $
63870K0J4 0J420161207160010512/07/16 16:00:31  5-MIN K0J4 072100Z AUTO VRB04KT 10SM 15/09 A3010 150 66 200 VRB/04 RMK AO2 T01500089 $
63870K0J4 0J420161207160510912/07/16 16:05:31  5-MIN K0J4 072105Z AUTO VRB04KT 10SM CLR 16/09 A3010 150 64 300 VRB/04 RMK AO2 T01560089 $
63870K0J4 0J420161207161010912/07/16 16:10:31  5-MIN K0J4 072110Z AUTO VRB05KT 10SM CLR 16/08 A3010 150 62 300 VRB/05 RMK AO2 T01560083 $
63870K0J4 0J420161207161510912/07/16 16:15:31  5-MIN K0J4 072115Z AUTO 33006KT 10SM CLR 16/09 A3010 150 64 300 330/06 RMK AO2 T01560089 $
63870K0J4 0J420161207162011212/07/16 16:20:31  5-MIN K0J4 072120Z AUTO VRB04KT 10SM FEW025 16/08 A3010 150 62 300 VRB/04 RMK AO2 T01560083 $
63870K0J4 0J420161207162510212/07/16 16:25:31  5-MIN K0J4 072125Z AUTO 10SM SCT025 16/09 A3010 150 64 300 M /M RMK AO2 T01560089 $
63870K0J4 0J420161207163011012/07/16 16:30:31  5-MIN K0J4 072130Z AUTO VRB04KT 10SM SCT025 16/09 A3010 150 64 300 VRB/04 RMK AO2 T01560089
63870K0J4 0J420161207163511012/07/16 16:35:31  5-MIN K0J4 072135Z AUTO VRB03KT 10SM SCT025 16/09 A3010 150 64 300 VRB/03 RMK AO2 T01560089
63870K0J4 0J420161207164011012/07/16 16:40:31  5-MIN K0J4 072140Z AUTO 35005KT 10SM FEW025 15/09 A3010 150 66 200 350/05 RMK AO2 T01500089
63870K0J4 0J420161207164511012/07/16 16:45:31  5-MIN K0J4 072145Z AUTO VRB03KT 10SM FEW025 15/08 A3010 150 64 200 VRB/03 RMK AO2 T01500083
63870K0J4 0J420161207165011012/07/16 16:50:31  5-MIN K0J4 072150Z AUTO VRB05KT 10SM FEW025 15/09 A3010 150 66 200 VRB/05 RMK AO2 T01500089
63870K0J4 0J420161207165511412/07/16 16:55:31  5-MIN K0J4 072155Z AUTO 33003KT 10SM CLR 15/08 A3010 150 64 200 330/03 RMK AO2 SLP192 T01500083
63870K0J4 0J420161207170010712/07/16 17:00:31  5-MIN K0J4 072200Z AUTO 34004KT 10SM CLR 14/08 A3010 150 66 200 340/04 RMK AO2 T01440083
63870K0J4 0J420161207170510712/07/16 17:05:31  5-MIN K0J4 072205Z AUTO 32003KT 10SM CLR 14/08 A3010 150 66 200 320/03 RMK AO2 T01440083
63870K0J4 0J420161207171010712/07/16 17:10:31  5-MIN K0J4 072210Z AUTO 36004KT 10SM CLR 14/08 A3010 150 66 200 360/04 RMK AO2 T01440083
63870K0J4 0J420161207171510712/07/16 17:15:31  5-MIN K0J4 072215Z AUTO 00000KT 10SM CLR 14/08 A3011 150 69 100 000/00 RMK AO2 T01390083
63870K0J4 0J420161207172010712/07/16 17:20:31  5-MIN K0J4 072220Z AUTO 00000KT 10SM CLR 14/08 A3011 150 69 100 000/00 RMK AO2 T01390083
63870K0J4 0J420161207172510712/07/16 17:25:31  5-MIN K0J4 072225Z AUTO 00000KT 10SM CLR 14/08 A3011 140 69 100 000/00 RMK AO2 T01390083
63870K0J4 0J420161207173010512/07/16 17:30:31  5-MIN K0J4 072230Z AUTO 00000KT 10SM CLR 13/08 A3011 140 71 0 000/00 RMK AO2 T01330083
63870K0J4 0J420161207173510512/07/16 17:35:31  5-MIN K0J4 072235Z AUTO 00000KT 10SM CLR 13/09 A3011 140 74 0 000/00 RMK AO2 T01330089
63870K0J4 0J420161207174010512/07/16 17:40:31  5-MIN K0J4 072240Z AUTO 00000KT 10SM CLR 13/09 A3011 140 77 0 000/00 RMK AO2 T01280089
63870K0J4 0J420161207174510812/07/16 17:45:31  5-MIN K0J4 072245Z AUTO 00000KT 10SM CLR 12/09 A3012 140 80 -100 000/00 RMK AO2 T01220089
63870K0J4 0J420161207175010812/07/16 17:50:31  5-MIN K0J4 072250Z AUTO 00000KT 10SM CLR 12/09 A3012 140 80 -100 000/00 RMK AO2 T01220089
63870K0J4 0J420161207175511512/07/16 17:55:31  5-MIN K0J4 072255Z AUTO 00000KT 10SM CLR 12/09 A3012 130 80 -100 000/00 RMK AO2 SLP197 T01220089
63870K0J4 0J420161207180010812/07/16 18:00:31  5-MIN K0J4 072300Z AUTO 00000KT 10SM CLR 12/09 A3012 130 80 -100 000/00 RMK AO2 T01220089
63870K0J4 0J420161207180510812/07/16 18:05:31  5-MIN K0J4 072305Z AUTO 00000KT 10SM CLR 12/09 A3012 130 83 -100 000/00 RMK AO2 T01170089
63870K0J4 0J420161207181010812/07/16 18:10:31  5-MIN K0J4 072310Z AUTO 00000KT 10SM CLR 12/09 A3012 130 83 -100 000/00 RMK AO2 T01170089
63870K0J4 0J420161207181510812/07/16 18:15:31  5-MIN K0J4 072315Z AUTO 00000KT 10SM CLR 12/08 A3012 130 80 -100 000/00 RMK AO2 T01170083
63870K0J4 0J420161207182010812/07/16 18:20:31  5-MIN K0J4 072320Z AUTO 00000KT 10SM CLR 11/08 A3012 130 83 -200 000/00 RMK AO2 T01110083
63870K0J4 0J420161207182510812/07/16 18:25:31  5-MIN K0J4 072325Z AUTO 00000KT 10SM CLR 11/08 A3013 130 83 -200 000/00 RMK AO2 T01110083
63870K0J4 0J420161207183010812/07/16 18:30:31  5-MIN K0J4 072330Z AUTO 00000KT 10SM CLR 11/08 A3013 130 86 -300 000/00 RMK AO2 T01060083
63870K0J4 0J420161207183510812/07/16 18:35:31  5-MIN K0J4 072335Z AUTO 00000KT 10SM CLR 11/09 A3013 130 86 -200 000/00 RMK AO2 T01110089
63870K0J4 0J420161207184010812/07/16 18:40:31  5-MIN K0J4 072340Z AUTO 00000KT 10SM CLR 11/09 A3013 120 89 -300 000/00 RMK AO2 T01060089
63870K0J4 0J420161207184510812/07/16 18:45:31  5-MIN K0J4 072345Z AUTO 00000KT 10SM CLR 11/09 A3013 120 89 -300 000/00 RMK AO2 T01060089
63870K0J4 0J420161207185010812/07/16 18:50:31  5-MIN K0J4 072350Z AUTO 00000KT 10SM CLR 11/09 A3013 120 86 -200 000/00 RMK AO2 T01110089
63870K0J4 0J420161207185513312/07/16 18:55:31  5-MIN K0J4 072355Z AUTO 00000KT 10SM CLR 11/09 A3013 120 86 -200 000/00 RMK AO2 SLP203 60000 T01110089 10172 20106
63870K0J4 0J420161207190010812/07/16 19:00:31  5-MIN K0J4 080000Z AUTO 00000KT 10SM CLR 11/09 A3014 120 89 -300 000/00 RMK AO2 T01060089
63870K0J4 0J420161207190510812/07/16 19:05:31  5-MIN K0J4 080005Z AUTO 00000KT 10SM CLR 10/08 A3014 120 89 -400 000/00 RMK AO2 T01000083
63870K0J4 0J420161207191010812/07/16 19:10:31  5-MIN K0J4 080010Z AUTO 00000KT 10SM CLR 10/08 A3014 110 89 -400 000/00 RMK AO2 T01000083
63870K0J4 0J420161207191510812/07/16 19:15:31  5-MIN K0J4 080015Z AUTO 35003KT 10SM CLR 10/08 A3014 110 86 -400 350/03 RMK AO2 T01000078
63870K0J4 0J420161207192010812/07/16 19:20:31  5-MIN K0J4 080020Z AUTO 00000KT 10SM CLR 10/08 A3014 110 89 -400 000/00 RMK AO2 T01000083
63870K0J4 0J420161207192510812/07/16 19:25:31  5-MIN K0J4 080025Z AUTO 00000KT 10SM CLR 10/08 A3015 110 89 -400 000/00 RMK AO2 T01000083
63870K0J4 0J420161207193010812/07/16 19:30:31  5-MIN K0J4 080030Z AUTO 00000KT 10SM CLR 10/08 A3015 110 89 -400 000/00 RMK AO2 T01000083
63870K0J4 0J420161207193510812/07/16 19:35:31  5-MIN K0J4 080035Z AUTO 00000KT 10SM CLR 09/08 A3015 110 93 -400 000/00 RMK AO2 T00940083
63870K0J4 0J420161207194010812/07/16 19:40:31  5-MIN K0J4 080040Z AUTO 00000KT 10SM CLR 09/08 A3015 110 93 -500 000/00 RMK AO2 T00890078
63870K0J4 0J420161207194510812/07/16 19:45:31  5-MIN K0J4 080045Z AUTO 00000KT 10SM CLR 09/08 A3015 110 89 -400 000/00 RMK AO2 T00940078
63870K0J4 0J420161207195010812/07/16 19:50:31  5-MIN K0J4 080050Z AUTO 00000KT 10SM CLR 09/08 A3015 100 89 -400 000/00 RMK AO2 T00940078
63870K0J4 0J420161207195511512/07/16 19:55:31  5-MIN K0J4 080055Z AUTO 00000KT 10SM CLR 09/08 A3015 100 93 -500 000/00 RMK AO2 SLP209 T00890078
63870K0J4 0J420161207200010812/07/16 20:00:31  5-MIN K0J4 080100Z AUTO 00000KT 10SM CLR 09/08 A3015 100 89 -500 000/00 RMK AO2 T00940078
63870K0J4 0J420161207200510812/07/16 20:05:31  5-MIN K0J4 080105Z AUTO 36003KT 10SM CLR 09/08 A3016 100 89 -500 360/03 RMK AO2 T00940078
63870K0J4 0J420161207201010812/07/16 20:10:31  5-MIN K0J4 080110Z AUTO 36003KT 10SM CLR 09/08 A3016 100 93 -500 360/03 RMK AO2 T00890078
63870K0J4 0J420161207201510812/07/16 20:15:31  5-MIN K0J4 080115Z AUTO 00000KT 10SM CLR 09/08 A3016 100 89 -500 000/00 RMK AO2 T00940078
63870K0J4 0J420161207202010812/07/16 20:20:31  5-MIN K0J4 080120Z AUTO 00000KT 10SM CLR 09/08 A3016 100 93 -500 000/00 RMK AO2 T00890078
63870K0J4 0J420161207202510812/07/16 20:25:31  5-MIN K0J4 080125Z AUTO 00000KT 10SM CLR 08/07 A3016 100 93 -600 000/00 RMK AO2 T00830072
63870K0J4 0J420161207203010712/07/16 20:30:31  5-MIN K0J4 080130Z AUTO 00000KT 10SM CLR 08/07 A3016 90 89 -600 000/00 RMK AO2 T00830067
63870K0J4 0J420161207203510712/07/16 20:35:31  5-MIN K0J4 080135Z AUTO 36003KT 10SM CLR 08/07 A3016 90 89 -600 360/03 RMK AO2 T00830067
63870K0J4 0J420161207204010712/07/16 20:40:31  5-MIN K0J4 080140Z AUTO 00000KT 10SM CLR 08/07 A3016 90 93 -700 000/00 RMK AO2 T00780067
63870K0J4 0J420161207204510712/07/16 20:45:31  5-MIN K0J4 080145Z AUTO 00000KT 10SM CLR 08/07 A3016 90 93 -700 000/00 RMK AO2 T00780067
63870K0J4 0J420161207205010712/07/16 20:50:31  5-MIN K0J4 080150Z AUTO 00000KT 10SM CLR 08/07 A3016 90 89 -600 000/00 RMK AO2 T00830067
63870K0J4 0J420161207205511412/07/16 20:55:31  5-MIN K0J4 080155Z AUTO 00000KT 10SM CLR 08/07 A3017 90 89 -600 000/00 RMK AO2 SLP214 T00830067
63870K0J4 0J420161207210010712/07/16 21:00:31  5-MIN K0J4 080200Z AUTO 00000KT 10SM CLR 09/07 A3016 90 86 -500 000/00 RMK AO2 T00890067
63870K0J4 0J420161207210510712/07/16 21:05:31  5-MIN K0J4 080205Z AUTO 01003KT 10SM CLR 08/07 A3016 90 93 -700 010/03 RMK AO2 T00780067
63870K0J4 0J420161207211010712/07/16 21:10:31  5-MIN K0J4 080210Z AUTO 01003KT 10SM CLR 08/07 A3016 90 93 -700 010/03 RMK AO2 T00780067
63870K0J4 0J420161207211510712/07/16 21:15:31  5-MIN K0J4 080215Z AUTO 00000KT 10SM CLR 08/07 A3016 90 93 -700 000/00 RMK AO2 T00780067
63870K0J4 0J420161207212010712/07/16 21:20:31  5-MIN K0J4 080220Z AUTO 00000KT 10SM CLR 08/07 A3017 90 93 -700 000/00 RMK AO2 T00780067
63870K0J4 0J420161207212510712/07/16 21:25:31  5-MIN K0J4 080225Z AUTO 00000KT 10SM CLR 08/07 A3017 90 93 -700 000/00 RMK AO2 T00780067
63870K0J4 0J420161207213010712/07/16 21:30:31  5-MIN K0J4 080230Z AUTO 00000KT 10SM CLR 08/07 A3017 90 89 -600 000/00 RMK AO2 T00830067
63870K0J4 0J420161207213510712/07/16 21:35:31  5-MIN K0J4 080235Z AUTO 00000KT 10SM CLR 08/07 A3017 90 89 -600 000/00 RMK AO2 T00830067
63870K0J4 0J420161207214010712/07/16 21:40:31  5-MIN K0J4 080240Z AUTO 00000KT 10SM CLR 08/06 A3017 90 89 -700 000/00 RMK AO2 T00780061
63870K0J4 0J420161207214510712/07/16 21:45:31  5-MIN K0J4 080245Z AUTO 00000KT 10SM CLR 08/07 A3017 90 89 -600 000/00 RMK AO2 T00830067
63870K0J4 0J420161207215010712/07/16 21:50:31  5-MIN K0J4 080250Z AUTO 00000KT 10SM CLR 08/07 A3017 90 93 -700 000/00 RMK AO2 T00780067
63870K0J4 0J420161207215512012/07/16 21:55:31  5-MIN K0J4 080255Z AUTO 00000KT 10SM CLR 07/06 A3017 90 93 -700 000/00 RMK AO2 SLP215 T00720061 53014
63870K0J4 0J420161207220010712/07/16 22:00:31  5-MIN K0J4 080300Z AUTO 00000KT 10SM CLR 08/06 A3017 90 89 -700 000/00 RMK AO2 T00780061
63870K0J4 0J420161207220510712/07/16 22:05:31  5-MIN K0J4 080305Z AUTO 00000KT 10SM CLR 08/06 A3017 90 89 -700 000/00 RMK AO2 T00780061
63870K0J4 0J420161207221010712/07/16 22:10:31  5-MIN K0J4 080310Z AUTO 00000KT 10SM CLR 07/06 A3017 80 93 -700 000/00 RMK AO2 T00720061
63870K0J4 0J420161207221510712/07/16 22:15:31  5-MIN K0J4 080315Z AUTO 00000KT 10SM CLR 07/06 A3017 80 93 -700 000/00 RMK AO2 T00720061
63870K0J4 0J420161207222010712/07/16 22:20:31  5-MIN K0J4 080320Z AUTO 00000KT 10SM CLR 08/06 A3018 80 89 -700 000/00 RMK AO2 T00780061
63870K0J4 0J420161207222510712/07/16 22:25:31  5-MIN K0J4 080325Z AUTO 00000KT 10SM CLR 08/07 A3018 80 93 -700 000/00 RMK AO2 T00780067
63870K0J4 0J420161207223010712/07/16 22:30:31  5-MIN K0J4 080330Z AUTO 00000KT 10SM CLR 07/06 A3018 80 93 -700 000/00 RMK AO2 T00720061
63870K0J4 0J420161207223510712/07/16 22:35:31  5-MIN K0J4 080335Z AUTO 00000KT 10SM CLR 07/06 A3018 80 93 -700 000/00 RMK AO2 T00720061
63870K0J4 0J420161207224010712/07/16 22:40:31  5-MIN K0J4 080340Z AUTO 00000KT 10SM CLR 07/06 A3018 80 93 -700 000/00 RMK AO2 T00720061
63870K0J4 0J420161207224510712/07/16 22:45:31  5-MIN K0J4 080345Z AUTO 00000KT 10SM CLR 07/06 A3017 80 89 -700 000/00 RMK AO2 T00720056
63870K0J4 0J420161207225010712/07/16 22:50:31  5-MIN K0J4 080350Z AUTO 00000KT 10SM CLR 07/06 A3017 80 93 -700 000/00 RMK AO2 T00720061
63870K0J4 0J420161207225511412/07/16 22:55:31  5-MIN K0J4 080355Z AUTO 00000KT 10SM CLR 07/06 A3017 80 93 -800 000/00 RMK AO2 SLP217 T00670056
63870K0J4 0J420161207230010712/07/16 23:00:31  5-MIN K0J4 080400Z AUTO 00000KT 10SM CLR 07/06 A3017 80 89 -700 000/00 RMK AO2 T00720056
63870K0J4 0J420161207230510712/07/16 23:05:31  5-MIN K0J4 080405Z AUTO 00000KT 10SM CLR 07/06 A3017 80 89 -700 000/00 RMK AO2 T00720056
63870K0J4 0J420161207231010712/07/16 23:10:31  5-MIN K0J4 080410Z AUTO 00000KT 10SM CLR 07/06 A3017 80 89 -700 000/00 RMK AO2 T00720056
63870K0J4 0J420161207231510712/07/16 23:15:31  5-MIN K0J4 080415Z AUTO 00000KT 10SM CLR 07/06 A3017 90 93 -800 000/00 RMK AO2 T00670056
63870K0J4 0J420161207232010712/07/16 23:20:31  5-MIN K0J4 080420Z AUTO 00000KT 10SM CLR 07/06 A3017 90 89 -700 000/00 RMK AO2 T00720056
63870K0J4 0J420161207232510712/07/16 23:25:31  5-MIN K0J4 080425Z AUTO 00000KT 10SM CLR 07/06 A3017 90 89 -700 000/00 RMK AO2 T00720056
63870K0J4 0J420161207233010712/07/16 23:30:31  5-MIN K0J4 080430Z AUTO 00000KT 10SM CLR 07/06 A3017 90 93 -800 000/00 RMK AO2 T00670056
63870K0J4 0J420161207233510712/07/16 23:35:31  5-MIN K0J4 080435Z AUTO 00000KT 10SM CLR 07/06 A3017 90 93 -800 000/00 RMK AO2 T00670056
63870K0J4 0J420161207234010712/07/16 23:40:31  5-MIN K0J4 080440Z AUTO 00000KT 10SM CLR 06/05 A3017 80 93 -900 000/00 RMK AO2 T00610050
63870K0J4 0J420161207234510712/07/16 23:45:31  5-MIN K0J4 080445Z AUTO 00000KT 10SM CLR 07/05 A3017 90 89 -800 000/00 RMK AO2 T00670050
63870K0J4 0J420161207235010712/07/16 23:50:31  5-MIN K0J4 080450Z AUTO 00000KT 10SM CLR 07/05 A3017 80 89 -800 000/00 RMK AO2 T00670050
63870K0J4 0J420161207235512412/07/16 23:55:31  5-MIN K0J4 080455Z AUTO 00000KT 10SM CLR 07/05 A3017 80 89 -800 000/00 RMK AO2 SLP217 T00670050 401720061
63870K0J4 0J420161208000010712/08/16 00:00:31  5-MIN K0J4 080500Z AUTO 00000KT 10SM CLR 06/05 A3018 80 93 -900 000/00 RMK AO2 T00610050
63870K0J4 0J420161208000510712/08/16 00:05:31  5-MIN K0J4 080505Z AUTO 00000KT 10SM CLR 07/05 A3017 80 89 -800 000/00 RMK AO2 T00670050
63870K0J4 0J420161208001010712/08/16 00:10:31  5-MIN K0J4 080510Z AUTO 00000KT 10SM CLR 07/05 A3017 80 89 -800 000/00 RMK AO2 T00670050
63870K0J4 0J420161208001510712/08/16 00:15:31  5-MIN K0J4 080515Z AUTO 00000KT 10SM CLR 07/05 A3017 80 89 -800 000/00 RMK AO2 T00670050
63870K0J4 0J420161208104013512/08/16 10:40:31  5-MIN K0J4 081540Z AUTO 02012G17KT 10SM -RA SCT060 11/04 A3029 -20 63 -500 020/12G17 RMK AO2 RAB38 P0000 T01060039 $
63870K0J4 0J420161208104513512/08/16 10:45:31  5-MIN K0J4 081545Z AUTO 02009G17KT 10SM -RA BKN065 11/03 A3029 -20 61 -500 020/09G17 RMK AO2 RAB38 P0000 T01060033 $
63870K0J4 0J420161208105012812/08/16 10:50:31  5-MIN K0J4 081550Z AUTO 02007KT 10SM BKN065 11/04 A3030 -30 61 -400 020/07 RMK AO2 RAB38E49 P0000 T01110039 $
63870K0J4 0J420161208105515712/08/16 10:55:31  5-MIN K0J4 081555Z AUTO 36009G16KT 320V030 10SM BKN065 12/04 A3030 -30 58 -400 360/09G16 320V030 RMK AO2 RAB38E49 SLP261 P0000 T01170039 $
63870K0J4 0J420161208110011912/08/16 11:00:31  5-MIN K0J4 081600Z AUTO 01009G15KT 10SM BKN065 11/03 A3031 -40 56 -400 010/09G15 RMK AO2 T01110028 $
63870K0J4 0J420161208110511912/08/16 11:05:31  5-MIN K0J4 081605Z AUTO 36009G15KT 10SM SCT070 12/03 A3031 -40 54 -400 360/09G15 RMK AO2 T01170028 $
63870K0J4 0J420161208111011312/08/16 11:10:31  5-MIN K0J4 081610Z AUTO 01012KT 10SM SCT070 12/03 A3030 -30 54 -400 010/12 RMK AO2 T01170028 $
63870K0J4 0J420161208111511312/08/16 11:15:31  5-MIN K0J4 081615Z AUTO 01010KT 10SM FEW070 12/03 A3030 -30 54 -400 010/10 RMK AO2 T01170028 $
63870K0J4 0J420161208112011312/08/16 11:20:31  5-MIN K0J4 081620Z AUTO 02011KT 10SM FEW070 11/02 A3030 -30 54 -400 020/11 RMK AO2 T01110022 $
63870K0J4 0J420161208112511012/08/16 11:25:31  5-MIN K0J4 081625Z AUTO 01008KT 10SM CLR 11/03 A3030 -30 56 -400 010/08 RMK AO2 T01110028 $
63870K0J4 0J420161208113012612/08/16 11:30:31  5-MIN K0J4 081630Z AUTO 36009KT 330V060 10SM CLR 12/02 A3030 -30 52 -400 360/09 330V060 RMK AO2 T01170022 $
63870K0J4 0J420161208113507312/08/16 11:35:31  5-MIN K0J4 081635Z AUTO 36007KT M M M 360/07 RMK AO2 $
63870K0J4 0J420161208114006312/08/16 11:40:31  5-MIN K0J4 081640Z AUTO M M M M /M RMK AO2 $
63870K0J4 0J420161208114510112/08/16 11:45:31  5-MIN K0J4 081645Z AUTO VRB06KT 13/02 A3030 -30 48 -200 VRB/06 RMK AO2 T01280022 $
63870K0J4 0J420161208115010612/08/16 11:50:31  5-MIN K0J4 081650Z AUTO 01009KT 10SM 13/02 A3029 -20 48 -200 010/09 RMK AO2 T01280022 $
63870K0J4 0J420161208115511312/08/16 11:55:31  5-MIN K0J4 081655Z AUTO 36006KT 10SM 13/02 A3029 -20 48 -200 360/06 RMK AO2 SLP256 T01280022 $
63870K0J4 0J420161208120011212/08/16 12:00:31  5-MIN K0J4 081700Z AUTO 02010G16KT 10SM 13/02 A3028 -10 48 -200 020/10G16 RMK AO2 T01280022 $
63870K0J4 0J420161208120510612/08/16 12:05:31  5-MIN K0J4 081705Z AUTO 02010KT 10SM 13/02 A3028 -10 46 -100 020/10 RMK AO2 T01330022 $
63870K0J4 0J420161208121011612/08/16 12:10:31  5-MIN K0J4 081710Z AUTO 02009G16KT 10SM CLR 14/02 A3028 -10 45 -100 020/09G16 RMK AO2 T01390022 $
63870K0J4 0J420161208121506312/08/16 12:15:31  5-MIN K0J4 081715Z AUTO M M M M /M RMK AO2 $
63870K0J4 0J420161208122010712/08/16 12:20:31  5-MIN K0J4 081720Z AUTO 01013G17KT 13/01 A3028 -10 41 -100 010/13G17 RMK AO2 T01330006 $
63870K0J4 0J420161208122512812/08/16 12:25:31  5-MIN K0J4 081725Z AUTO 01009G17KT 320V030 10SM 13/01 A3028 -10 43 -100 010/09G17 320V030 RMK AO2 T01330011 $
63870K0J4 0J420161208123011012/08/16 12:30:31  5-MIN K0J4 081730Z AUTO 36007G16KT 10SM 14/02 A3028 -10 43 -100 360/07G16 RMK AO2 T01390017
63870K0J4 0J420161208123512612/08/16 12:35:31  5-MIN K0J4 081735Z AUTO 36011G15KT 320V030 10SM 14/02 A3028 -10 43 -100 360/11G15 320V030 RMK AO2 T01390017
63870K0J4 0J420161208124011012/08/16 12:40:31  5-MIN K0J4 081740Z AUTO 35008G15KT 10SM 13/01 A3027 -10 43 -100 350/08G15 RMK AO2 T01330011
63870K0J4 0J420161208124512412/08/16 12:45:31  5-MIN K0J4 081745Z AUTO 01010G16KT 10SM FEW046 FEW085 13/01 A3028 -10 44 -200 010/10G16 RMK AO2 T01280011
63870K0J4 0J420161208125012412/08/16 12:50:31  5-MIN K0J4 081750Z AUTO 02010G16KT 10SM FEW046 SCT085 13/01 A3028 -10 43 -100 020/10G16 RMK AO2 T01330011
63870K0J4 0J420161208125514112/08/16 12:55:31  5-MIN K0J4 081755Z AUTO 01010KT 10SM FEW046 BKN085 13/01 A3027 0 43 -100 010/10 RMK AO2 SLP251 60000 T01330011 10139 20072
63870K0J4 0J420161208130013212/08/16 13:00:31  5-MIN K0J4 081800Z AUTO 35009KT 310V030 10SM FEW046 SCT085 13/01 A3027 0 43 -100 350/09 310V030 RMK AO2 T01330011
63870K0J4 0J420161208130511612/08/16 13:05:31  5-MIN K0J4 081805Z AUTO 35008KT 10SM FEW046 SCT085 13/01 A3027 0 43 -100 350/08 RMK AO2 T01330011
63870K0J4 0J420161208131013212/08/16 13:10:31  5-MIN K0J4 081810Z AUTO 35008KT 290V020 10SM FEW046 SCT085 13/02 A3027 0 45 -100 350/08 290V020 RMK AO2 T01330017
63870K0J4 0J420161208131511612/08/16 13:15:31  5-MIN K0J4 081815Z AUTO 35009KT 10SM FEW049 SCT085 14/02 A3027 0 43 -100 350/09 RMK AO2 T01390017
63870K0J4 0J420161208132012212/08/16 13:20:31  5-MIN K0J4 081820Z AUTO 36010G18KT 10SM FEW049 FEW085 14/01 A3027 0 41 -100 360/10G18 RMK AO2 T01390011
63870K0J4 0J420161208132512812/08/16 13:25:31  5-MIN K0J4 081825Z AUTO 35007G18KT 330V040 10SM SCT085 14/01 A3027 0 41 0 350/07G18 330V040 RMK AO2 T01390011
63870K0J4 0J420161208133012912/08/16 13:30:31  5-MIN K0J4 081830Z AUTO 02008KT 340V040 10SM FEW049 BKN085 14/01 A3026 0 41 0 020/08 340V040 RMK AO2 T01390011
63870K0J4 0J420161208133513512/08/16 13:35:31  5-MIN K0J4 081835Z AUTO 35007G14KT 310V020 10SM FEW049 BKN085 14/02 A3027 0 43 0 350/07G14 310V020 RMK AO2 T01390017
63870K0J4 0J420161208134012912/08/16 13:40:31  5-MIN K0J4 081840Z AUTO 01009KT 330V040 10SM FEW049 BKN085 14/01 A3026 0 41 0 010/09 330V040 RMK AO2 T01390011
63870K0J4 0J420161208134511312/08/16 13:45:31  5-MIN K0J4 081845Z AUTO 02014G18KT 10SM OVC085 14/02 A3025 10 41 0 020/14G18 RMK AO2 T01440017
63870K0J4 0J420161208135011312/08/16 13:50:31  5-MIN K0J4 081850Z AUTO 36009G18KT 10SM OVC085 14/02 A3026 10 43 0 360/09G18 RMK AO2 T01390017
63870K0J4 0J420161208135512012/08/16 13:55:31  5-MIN K0J4 081855Z AUTO 01011G15KT 10SM OVC090 14/02 A3026 10 41 0 010/11G15 RMK AO2 SLP244 T01440017
63870K0J4 0J420161208140011312/08/16 14:00:31  5-MIN K0J4 081900Z AUTO 01010G15KT 10SM OVC090 14/01 A3026 10 41 0 010/10G15 RMK AO2 T01390011
63870K0J4 0J420161208140510612/08/16 14:05:31  5-MIN K0J4 081905Z AUTO 35008KT 10SM OVC090 14/02 A3026 0 43 0 350/08 RMK AO2 T01390017
63870K0J4 0J420161208141012212/08/16 14:10:31  5-MIN K0J4 081910Z AUTO 36007KT 320V030 10SM BKN090 14/02 A3026 0 43 0 360/07 320V030 RMK AO2 T01390017
63870K0J4 0J420161208141510712/08/16 14:15:31  5-MIN K0J4 081915Z AUTO 02008KT 10SM BKN090 14/02 A3026 10 43 0 020/08 RMK AO2 T01390017
63870K0J4 0J420161208142011312/08/16 14:20:31  5-MIN K0J4 081920Z AUTO 02012G17KT 10SM BKN090 14/02 A3026 10 43 0 020/12G17 RMK AO2 T01390017
63870K0J4 0J420161208142512212/08/16 14:25:31  5-MIN K0J4 081925Z AUTO 35010KT 310V030 10SM BKN085 14/02 A3026 0 41 0 350/10 310V030 RMK AO2 T01440017
63870K0J4 0J420161208143012512/08/16 14:30:31  5-MIN K0J4 081930Z AUTO 36009KT 320V030 10SM BKN085 13/01 A3026 0 43 -100 360/09 320V030 RMK AO2 T01330011
63870K0J4 0J420161208143510712/08/16 14:35:31  5-MIN K0J4 081935Z AUTO 01011KT 10SM BKN090 14/02 A3026 10 41 0 010/11 RMK AO2 T01440017
63870K0J4 0J420161208144012012/08/16 14:40:31  5-MIN K0J4 081940Z AUTO 36011G18KT 10SM BKN085 BKN100 15/02 A3026 10 40 0 360/11G18 RMK AO2 T01500017
63870K0J4 0J420161208144512012/08/16 14:45:31  5-MIN K0J4 081945Z AUTO 01013G18KT 10SM SCT090 BKN100 14/02 A3025 10 43 0 010/13G18 RMK AO2 T01390017
63870K0J4 0J420161208145012012/08/16 14:50:31  5-MIN K0J4 081950Z AUTO 02011G18KT 10SM BKN090 BKN100 14/02 A3025 10 43 0 020/11G18 RMK AO2 T01390017
63870K0J4 0J420161208145512612/08/16 14:55:31  5-MIN K0J4 081955Z AUTO 34008G17KT 10SM BKN090 BKN100 14/02 A3026 0 43 0 340/08G17 RMK AO2 SLP245 T01390017
63870K0J4 0J420161208150012212/08/16 15:00:31  5-MIN K0J4 082000Z AUTO 36009G17KT 10SM BKN090 BKN100 13/01 A3026 0 43 -100 360/09G17 RMK AO2 T01330011
63870K0J4 0J420161208150512212/08/16 15:05:31  5-MIN K0J4 082005Z AUTO 36009G17KT 10SM BKN090 BKN100 13/01 A3026 0 43 -100 360/09G17 RMK AO2 T01330011
63870K0J4 0J420161208151013112/08/16 15:10:31  5-MIN K0J4 082010Z AUTO 36009G16KT 330V030 10SM BKN090 13/02 A3026 0 45 -100 360/09G16 330V030 RMK AO2 T01330017
63870K0J4 0J420161208151511512/08/16 15:15:31  5-MIN K0J4 082015Z AUTO 36008G14KT 10SM BKN090 13/02 A3027 0 45 -100 360/08G14 RMK AO2 T01330017
63870K0J4 0J420161208152011512/08/16 15:20:31  5-MIN K0J4 082020Z AUTO 36007G16KT 10SM BKN090 13/01 A3027 0 43 -100 360/07G16 RMK AO2 T01330011
63870K0J4 0J420161208152511512/08/16 15:25:31  5-MIN K0J4 082025Z AUTO 36006G16KT 10SM BKN090 13/02 A3027 0 45 -100 360/06G16 RMK AO2 T01330017
63870K0J4 0J420161208153010912/08/16 15:30:31  5-MIN K0J4 082030Z AUTO 36006KT 10SM BKN090 13/02 A3027 0 46 -200 360/06 RMK AO2 T01280017
63870K0J4 0J420161208153511512/08/16 15:35:31  5-MIN K0J4 082035Z AUTO 36009G15KT 10SM OVC085 13/02 A3027 0 46 -200 360/09G15 RMK AO2 T01280017
63870K0J4 0J420161208154010912/08/16 15:40:31  5-MIN K0J4 082040Z AUTO 36008KT 10SM OVC090 13/02 A3027 0 46 -200 360/08 RMK AO2 T01280017
63870K0J4 0J420161208154510912/08/16 15:45:31  5-MIN K0J4 082045Z AUTO 01008KT 10SM OVC090 13/02 A3027 0 46 -200 010/08 RMK AO2 T01280017
63870K0J4 0J420161208155010912/08/16 15:50:31  5-MIN K0J4 082050Z AUTO VRB06KT 10SM OVC090 13/02 A3027 0 45 -100 VRB/06 RMK AO2 T01330017
63870K0J4 0J420161208155513212/08/16 15:55:31  5-MIN K0J4 082055Z AUTO 36009KT 320V030 10SM OVC090 13/02 A3027 0 48 -200 360/09 320V030 RMK AO2 SLP248 T01280022
63870K0J4 0J420161208160011512/08/16 16:00:31  5-MIN K0J4 082100Z AUTO 01009G14KT 10SM OVC095 13/02 A3027 0 46 -200 010/09G14 RMK AO2 T01280017
63870K0J4 0J420161208160510912/08/16 16:05:31  5-MIN K0J4 082105Z AUTO 36006KT 10SM OVC095 13/02 A3027 0 45 -100 360/06 RMK AO2 T01330017
63870K0J4 0J420161208161011112/08/16 16:10:31  5-MIN K0J4 082110Z AUTO 01008KT 10SM OVC100 13/02 A3028 -10 46 -200 010/08 RMK AO2 T01280017
63870K0J4 0J420161208161511112/08/16 16:15:31  5-MIN K0J4 082115Z AUTO 01006KT 10SM OVC100 13/02 A3028 -10 46 -200 010/06 RMK AO2 T01280017
63870K0J4 0J420161208162011112/08/16 16:20:31  5-MIN K0J4 082120Z AUTO 01009KT 10SM OVC100 13/02 A3028 -10 46 -200 010/09 RMK AO2 T01280017
63870K0J4 0J420161208162511112/08/16 16:25:31  5-MIN K0J4 082125Z AUTO 01009KT 10SM OVC100 12/01 A3028 -10 46 -300 010/09 RMK AO2 T01220011
63870K0J4 0J420161208163013312/08/16 16:30:31  5-MIN K0J4 082130Z AUTO 01008G16KT 320V020 10SM OVC100 12/01 A3028 -10 44 -300 010/08G16 320V020 RMK AO2 T01220006
63870K0J4 0J420161208163511812/08/16 16:35:31  5-MIN K0J4 082135Z AUTO 36008G17KT 10SM BKN095 12/M01 A3028 -10 42 -300 360/08G17 RMK AO2 T01171006
63870K0J4 0J420161208164011812/08/16 16:40:31  5-MIN K0J4 082140Z AUTO 01009G17KT 10SM SCT095 12/M01 A3028 -10 42 -300 010/09G17 RMK AO2 T01171006
63870K0J4 0J420161208164511212/08/16 16:45:31  5-MIN K0J4 082145Z AUTO 01006KT 10SM SCT095 12/M01 A3028 -10 42 -300 010/06 RMK AO2 T01171006
63870K0J4 0J420161208165011212/08/16 16:50:31  5-MIN K0J4 082150Z AUTO 36008KT 10SM FEW095 12/M01 A3028 -10 42 -300 360/08 RMK AO2 T01171006
63870K0J4 0J420161208165511912/08/16 16:55:31  5-MIN K0J4 082155Z AUTO 01007KT 10SM FEW095 12/M01 A3028 -10 42 -300 010/07 RMK AO2 SLP254 T01171006
63870K0J4 0J420161208170010912/08/16 17:00:31  5-MIN K0J4 082200Z AUTO 36006KT 10SM CLR 12/M01 A3028 -10 42 -300 360/06 RMK AO2 T01171006
63870K0J4 0J420161208170510912/08/16 17:05:31  5-MIN K0J4 082205Z AUTO 35006KT 10SM CLR 11/M01 A3029 -20 44 -400 350/06 RMK AO2 T01111006
63870K0J4 0J420161208171010912/08/16 17:10:31  5-MIN K0J4 082210Z AUTO 36006KT 10SM CLR 11/M01 A3029 -20 44 -400 360/06 RMK AO2 T01111006
63870K0J4 0J420161208171510912/08/16 17:15:31  5-MIN K0J4 082215Z AUTO 36005KT 10SM CLR 11/M01 A3029 -20 44 -400 360/05 RMK AO2 T01111006
63870K0J4 0J420161208172010812/08/16 17:20:31  5-MIN K0J4 082220Z AUTO VRB05KT 10SM CLR 11/00 A3030 -30 46 -400 VRB/05 RMK AO2 T01110000
63870K0J4 0J420161208172510812/08/16 17:25:31  5-MIN K0J4 082225Z AUTO 36006KT 10SM CLR 11/00 A3030 -30 46 -400 360/06 RMK AO2 T01110000
63870K0J4 0J420161208173010812/08/16 17:30:31  5-MIN K0J4 082230Z AUTO 36005KT 10SM CLR 11/00 A3031 -40 48 -500 360/05 RMK AO2 T01060000
63870K0J4 0J420161208173510912/08/16 17:35:31  5-MIN K0J4 082235Z AUTO 36007KT 10SM CLR 11/M01 A3031 -40 46 -500 360/07 RMK AO2 T01061006
63870K0J4 0J420161208174010912/08/16 17:40:31  5-MIN K0J4 082240Z AUTO 01006KT 10SM CLR 11/M01 A3031 -40 44 -500 010/06 RMK AO2 T01061011
63870K0J4 0J420161208174510912/08/16 17:45:31  5-MIN K0J4 082245Z AUTO 36008KT 10SM CLR 10/M01 A3031 -40 46 -600 360/08 RMK AO2 T01001011
63870K0J4 0J420161208175010912/08/16 17:50:31  5-MIN K0J4 082250Z AUTO 36007KT 10SM CLR 10/M01 A3031 -40 46 -600 360/07 RMK AO2 T01001011
63870K0J4 0J420161208175511612/08/16 17:55:31  5-MIN K0J4 082255Z AUTO 36005KT 10SM CLR 10/M01 A3031 -40 46 -600 360/05 RMK AO2 SLP265 T01001011
63870K0J4 0J420161208180010912/08/16 18:00:31  5-MIN K0J4 082300Z AUTO 36007KT 10SM CLR 10/M01 A3032 -40 46 -600 360/07 RMK AO2 T01001011
63870K0J4 0J420161208180510912/08/16 18:05:31  5-MIN K0J4 082305Z AUTO 36006KT 10SM CLR 10/M02 A3032 -50 44 -600 360/06 RMK AO2 T01001017
63870K0J4 0J420161208181010912/08/16 18:10:31  5-MIN K0J4 082310Z AUTO 01006KT 10SM CLR 10/M02 A3032 -50 44 -600 010/06 RMK AO2 T01001017
63870K0J4 0J420161208181510912/08/16 18:15:31  5-MIN K0J4 082315Z AUTO 36008KT 10SM CLR 09/M02 A3033 -60 45 -700 360/08 RMK AO2 T00941017
63870K0J4 0J420161208182011612/08/16 18:20:31  5-MIN K0J4 082320Z AUTO VRB06KT 10SM CLR 10/M02 A3034 -60 42 -600 VRB/06 RMK AO2 PRESRR T01001022
63870K0J4 0J420161208182510912/08/16 18:25:31  5-MIN K0J4 082325Z AUTO 36008KT 10SM CLR 09/M02 A3034 -60 44 -700 360/08 RMK AO2 T00941022
63870K0J4 0J420161208183010912/08/16 18:30:31  5-MIN K0J4 082330Z AUTO 36006KT 10SM CLR 09/M02 A3034 -70 44 -700 360/06 RMK AO2 T00941022
63870K0J4 0J420161208183510912/08/16 18:35:31  5-MIN K0J4 082335Z AUTO 01007KT 10SM CLR 09/M02 A3033 -60 44 -700 010/07 RMK AO2 T00941022
63870K0J4 0J420161208184010912/08/16 18:40:31  5-MIN K0J4 082340Z AUTO 01006KT 10SM CLR 09/M02 A3034 -60 45 -700 010/06 RMK AO2 T00891022
63870K0J4 0J420161208184510912/08/16 18:45:31  5-MIN K0J4 082345Z AUTO 01007KT 10SM CLR 09/M03 A3034 -70 43 -700 010/07 RMK AO2 T00891028
63870K0J4 0J420161208185010912/08/16 18:50:31  5-MIN K0J4 082350Z AUTO 01008KT 10SM CLR 09/M03 A3035 -70 43 -700 010/08 RMK AO2 T00891028
63870K0J4 0J420161208185513412/08/16 18:55:31  5-MIN K0J4 082355Z AUTO 01007KT 10SM CLR 09/M03 A3034 -70 43 -700 010/07 RMK AO2 SLP274 T00891028 10150 20089 55001
63870K0J4 0J420161208190010912/08/16 19:00:31  5-MIN K0J4 090000Z AUTO 01006KT 10SM CLR 09/M03 A3035 -70 43 -700 010/06 RMK AO2 T00891028
63870K0J4 0J420161208190510912/08/16 19:05:31  5-MIN K0J4 090005Z AUTO 01006KT 10SM CLR 09/M02 A3035 -80 45 -700 010/06 RMK AO2 T00891022
63870K0J4 0J420161208191010912/08/16 19:10:31  5-MIN K0J4 090010Z AUTO 01005KT 10SM CLR 08/M02 A3036 -80 47 -800 010/05 RMK AO2 T00831022
63870K0J4 0J420161208191510912/08/16 19:15:31  5-MIN K0J4 090015Z AUTO 01006KT 10SM CLR 08/M02 A3035 -80 47 -800 010/06 RMK AO2 T00831022
63870K0J4 0J420161208192010912/08/16 19:20:31  5-MIN K0J4 090020Z AUTO 02008KT 10SM CLR 08/M03 A3035 -80 45 -800 020/08 RMK AO2 T00831028
63870K0J4 0J420161208192510912/08/16 19:25:31  5-MIN K0J4 090025Z AUTO 01007KT 10SM CLR 08/M02 A3036 -80 47 -800 010/07 RMK AO2 T00831022
63870K0J4 0J420161208193010912/08/16 19:30:31  5-MIN K0J4 090030Z AUTO 01007KT 10SM CLR 08/M03 A3036 -80 45 -800 010/07 RMK AO2 T00831028
63870K0J4 0J420161208193510912/08/16 19:35:31  5-MIN K0J4 090035Z AUTO 02006KT 10SM CLR 08/M03 A3036 -80 45 -800 020/06 RMK AO2 T00831028
63870K0J4 0J420161208194010912/08/16 19:40:31  5-MIN K0J4 090040Z AUTO 02007KT 10SM CLR 08/M02 A3036 -80 47 -800 020/07 RMK AO2 T00831022
63870K0J4 0J420161208194510912/08/16 19:45:31  5-MIN K0J4 090045Z AUTO 02007KT 10SM CLR 08/M03 A3035 -80 45 -800 020/07 RMK AO2 T00831028
63870K0J4 0J420161208195010912/08/16 19:50:31  5-MIN K0J4 090050Z AUTO 01006KT 10SM CLR 08/M02 A3036 -80 47 -800 010/06 RMK AO2 T00831022
63870K0J4 0J420161208195511612/08/16 19:55:31  5-MIN K0J4 090055Z AUTO 02007KT 10SM CLR 08/M03 A3036 -80 45 -800 020/07 RMK AO2 SLP281 T00831028
63870K0J4 0J420161208200010912/08/16 20:00:31  5-MIN K0J4 090100Z AUTO 01005KT 10SM CLR 08/M03 A3037 -90 45 -800 010/05 RMK AO2 T00831028
63870K0J4 0J420161208200510912/08/16 20:05:31  5-MIN K0J4 090105Z AUTO 36006KT 10SM CLR 08/M03 A3037 -90 45 -800 360/06 RMK AO2 T00831028
63870K0J4 0J420161208201010912/08/16 20:10:31  5-MIN K0J4 090110Z AUTO 01007KT 10SM CLR 08/M03 A3037 -90 45 -800 010/07 RMK AO2 T00831028
63870K0J4 0J420161208201510912/08/16 20:15:31  5-MIN K0J4 090115Z AUTO 02008KT 10SM CLR 08/M03 A3037 -90 45 -800 020/08 RMK AO2 T00831028
63870K0J4 0J420161208202011012/08/16 20:20:31  5-MIN K0J4 090120Z AUTO 01007KT 10SM CLR 08/M03 A3038 -100 45 -800 010/07 RMK AO2 T00831028
63870K0J4 0J420161208202511012/08/16 20:25:31  5-MIN K0J4 090125Z AUTO 01006KT 10SM CLR 08/M03 A3038 -100 45 -800 010/06 RMK AO2 T00831028
63870K0J4 0J420161208203011012/08/16 20:30:31  5-MIN K0J4 090130Z AUTO 01005KT 10SM CLR 08/M03 A3038 -100 45 -800 010/05 RMK AO2 T00831028
63870K0J4 0J420161208203511012/08/16 20:35:31  5-MIN K0J4 090135Z AUTO 01004KT 10SM CLR 08/M02 A3038 -100 49 -900 010/04 RMK AO2 T00781022
63870K0J4 0J420161208204011012/08/16 20:40:31  5-MIN K0J4 090140Z AUTO 01006KT 10SM CLR 08/M02 A3038 -100 49 -900 010/06 RMK AO2 T00781022
63870K0J4 0J420161208204511012/08/16 20:45:31  5-MIN K0J4 090145Z AUTO 36006KT 10SM CLR 08/M02 A3038 -110 49 -900 360/06 RMK AO2 T00781022
63870K0J4 0J420161208205011012/08/16 20:50:31  5-MIN K0J4 090150Z AUTO 01008KT 10SM CLR 08/M03 A3039 -110 47 -900 010/08 RMK AO2 T00781028
63870K0J4 0J420161208205511712/08/16 20:55:31  5-MIN K0J4 090155Z AUTO 02009KT 10SM CLR 08/M03 A3039 -110 47 -900 020/09 RMK AO2 SLP290 T00781028
63870K0J4 0J420161208210011012/08/16 21:00:31  5-MIN K0J4 090200Z AUTO 01006KT 10SM CLR 08/M03 A3039 -110 47 -900 010/06 RMK AO2 T00781028
63870K0J4 0J420161208210511112/08/16 21:05:31  5-MIN K0J4 090205Z AUTO 01006KT 10SM CLR 07/M03 A3039 -110 49 -1000 010/06 RMK AO2 T00721028
63870K0J4 0J420161208211011112/08/16 21:10:31  5-MIN K0J4 090210Z AUTO 01005KT 10SM CLR 07/M03 A3039 -110 49 -1000 010/05 RMK AO2 T00721028
63870K0J4 0J420161208211511112/08/16 21:15:31  5-MIN K0J4 090215Z AUTO 01005KT 10SM CLR 07/M03 A3038 -100 49 -1000 010/05 RMK AO2 T00721028
63870K0J4 0J420161208212011112/08/16 21:20:31  5-MIN K0J4 090220Z AUTO 36005KT 10SM CLR 07/M03 A3039 -110 51 -1100 360/05 RMK AO2 T00671028
63870K0J4 0J420161208212511112/08/16 21:25:31  5-MIN K0J4 090225Z AUTO 01006KT 10SM CLR 07/M03 A3039 -110 51 -1100 010/06 RMK AO2 T00671028
63870K0J4 0J420161208213011112/08/16 21:30:31  5-MIN K0J4 090230Z AUTO 01005KT 10SM CLR 07/M03 A3039 -110 51 -1100 010/05 RMK AO2 T00671028
63870K0J4 0J420161208213511112/08/16 21:35:31  5-MIN K0J4 090235Z AUTO 01005KT 10SM CLR 07/M03 A3039 -110 51 -1100 010/05 RMK AO2 T00671028
63870K0J4 0J420161208214011112/08/16 21:40:31  5-MIN K0J4 090240Z AUTO 36005KT 10SM CLR 07/M03 A3040 -120 51 -1100 360/05 RMK AO2 T00671028
63870K0J4 0J420161208214511112/08/16 21:45:31  5-MIN K0J4 090245Z AUTO 01005KT 10SM CLR 07/M03 A3040 -120 51 -1100 010/05 RMK AO2 T00671028
63870K0J4 0J420161208215011112/08/16 21:50:31  5-MIN K0J4 090250Z AUTO 01005KT 10SM CLR 07/M03 A3040 -120 51 -1100 010/05 RMK AO2 T00671028
63870K0J4 0J420161208215512412/08/16 21:55:31  5-MIN K0J4 090255Z AUTO 01005KT 10SM CLR 06/M03 A3040 -120 53 -1100 010/05 RMK AO2 SLP293 T00611028 53025
63870K0J4 0J420161208220011112/08/16 22:00:31  5-MIN K0J4 090300Z AUTO 36005KT 10SM CLR 06/M03 A3040 -120 53 -1100 360/05 RMK AO2 T00611028
63870K0J4 0J420161208220511112/08/16 22:05:31  5-MIN K0J4 090305Z AUTO 01005KT 10SM CLR 06/M03 A3040 -120 53 -1100 010/05 RMK AO2 T00611028
63870K0J4 0J420161208221011112/08/16 22:10:31  5-MIN K0J4 090310Z AUTO 36005KT 10SM CLR 06/M03 A3040 -120 53 -1100 360/05 RMK AO2 T00611028
63870K0J4 0J420161208221511112/08/16 22:15:31  5-MIN K0J4 090315Z AUTO 36006KT 10SM CLR 06/M03 A3040 -120 53 -1100 360/06 RMK AO2 T00611028
63870K0J4 0J420161208222011112/08/16 22:20:31  5-MIN K0J4 090320Z AUTO 36006KT 10SM CLR 06/M03 A3041 -120 53 -1100 360/06 RMK AO2 T00611028
63870K0J4 0J420161208222511112/08/16 22:25:31  5-MIN K0J4 090325Z AUTO 01006KT 10SM CLR 06/M03 A3041 -130 53 -1100 010/06 RMK AO2 T00611028
63870K0J4 0J420161208223011112/08/16 22:30:31  5-MIN K0J4 090330Z AUTO 35005KT 10SM CLR 06/M03 A3041 -130 53 -1200 350/05 RMK AO2 T00611028
63870K0J4 0J420161208223511112/08/16 22:35:31  5-MIN K0J4 090335Z AUTO 36006KT 10SM CLR 06/M03 A3042 -130 51 -1200 360/06 RMK AO2 T00611033
63870K0J4 0J420161209082511112/09/16 08:25:31  5-MIN K0J4 091325Z AUTO 02006KT 10SM CLR 02/M05 A3051 -220 61 -1800 020/06 RMK AO2 T00171050
63870K0J4 0J420161209083011112/09/16 08:30:31  5-MIN K0J4 091330Z AUTO 02006KT 10SM CLR 02/M05 A3051 -220 61 -1800 020/06 RMK AO2 T00171050
63870K0J4 0J420161209083511112/09/16 08:35:31  5-MIN K0J4 091335Z AUTO 02008KT 10SM CLR 02/M05 A3051 -220 61 -1800 020/08 RMK AO2 T00171050
63870K0J4 0J420161209084011112/09/16 08:40:31  5-MIN K0J4 091340Z AUTO 02008KT 10SM CLR 02/M05 A3051 -220 59 -1700 020/08 RMK AO2 T00221050
63870K0J4 0J420161209084511112/09/16 08:45:31  5-MIN K0J4 091345Z AUTO 02008KT 10SM CLR 02/M05 A3051 -220 59 -1700 020/08 RMK AO2 T00221050
63870K0J4 0J420161209085011112/09/16 08:50:31  5-MIN K0J4 091350Z AUTO 01008KT 10SM CLR 02/M05 A3051 -220 59 -1700 010/08 RMK AO2 T00221050
63870K0J4 0J420161209085511812/09/16 08:55:31  5-MIN K0J4 091355Z AUTO 01008KT 10SM CLR 02/M05 A3051 -220 59 -1700 010/08 RMK AO2 SLP331 T00221050
63870K0J4 0J420161209090011112/09/16 09:00:31  5-MIN K0J4 091400Z AUTO 02009KT 10SM CLR 02/M05 A3051 -220 59 -1700 020/09 RMK AO2 T00221050
63870K0J4 0J420161209090511112/09/16 09:05:31  5-MIN K0J4 091405Z AUTO 02009KT 10SM CLR 03/M05 A3051 -220 56 -1700 020/09 RMK AO2 T00281050
63870K0J4 0J420161209091011112/09/16 09:10:31  5-MIN K0J4 091410Z AUTO 02011KT 10SM CLR 03/M05 A3051 -220 56 -1700 020/11 RMK AO2 T00281050
63870K0J4 0J420161209091511712/09/16 09:15:31  5-MIN K0J4 091415Z AUTO 02012G18KT 10SM CLR 03/M06 A3051 -220 54 -1700 020/12G18 RMK AO2 T00281056
63870K0J4 0J420161209092011112/09/16 09:20:31  5-MIN K0J4 091420Z AUTO 04011KT 10SM CLR 03/M06 A3051 -220 54 -1700 040/11 RMK AO2 T00281056
63870K0J4 0J420161209092511112/09/16 09:25:31  5-MIN K0J4 091425Z AUTO 03011KT 10SM CLR 03/M06 A3051 -220 52 -1600 030/11 RMK AO2 T00331056
63870K0J4 0J420161209093011112/09/16 09:30:31  5-MIN K0J4 091430Z AUTO 02014KT 10SM CLR 03/M06 A3051 -220 52 -1600 020/14 RMK AO2 T00331056
63870K0J4 0J420161209093511112/09/16 09:35:31  5-MIN K0J4 091435Z AUTO 04013KT 10SM CLR 03/M06 A3051 -220 50 -1600 040/13 RMK AO2 T00331061
63870K0J4 0J420161209094011112/09/16 09:40:31  5-MIN K0J4 091440Z AUTO 03011KT 10SM CLR 04/M06 A3052 -230 48 -1500 030/11 RMK AO2 T00391061
63870K0J4 0J420161209094511112/09/16 09:45:31  5-MIN K0J4 091445Z AUTO 02008KT 10SM CLR 04/M06 A3052 -230 48 -1500 020/08 RMK AO2 T00391061
63870K0J4 0J420161209095011112/09/16 09:50:31  5-MIN K0J4 091450Z AUTO 36008KT 10SM CLR 04/M06 A3052 -230 48 -1500 360/08 RMK AO2 T00441056
63870K0J4 0J420161209095513012/09/16 09:55:31  5-MIN K0J4 091455Z AUTO 03012G16KT 10SM CLR 04/M06 A3052 -230 46 -1500 030/12G16 RMK AO2 SLP335 T00441061 53018
63870K0J4 0J420161209100011112/09/16 10:00:31  5-MIN K0J4 091500Z AUTO 03010KT 10SM CLR 04/M06 A3052 -230 46 -1500 030/10 RMK AO2 T00441061
63870K0J4 0J420161209100511112/09/16 10:05:31  5-MIN K0J4 091505Z AUTO 02011KT 10SM CLR 04/M06 A3052 -230 46 -1500 020/11 RMK AO2 T00441061
63870K0J4 0J420161209101011112/09/16 10:10:31  5-MIN K0J4 091510Z AUTO 04010KT 10SM CLR 04/M07 A3051 -220 44 -1500 040/10 RMK AO2 T00441067
63870K0J4 0J420161209101511112/09/16 10:15:31  5-MIN K0J4 091515Z AUTO 04011KT 10SM CLR 05/M07 A3051 -220 42 -1400 040/11 RMK AO2 T00501067
63870K0J4 0J420161209102011112/09/16 10:20:31  5-MIN K0J4 091520Z AUTO 03012KT 10SM CLR 05/M07 A3051 -220 41 -1400 030/12 RMK AO2 T00501072
63870K0J4 0J420161209102511112/09/16 10:25:31  5-MIN K0J4 091525Z AUTO 01010KT 10SM CLR 05/M07 A3051 -220 41 -1400 010/10 RMK AO2 T00501072
63870K0J4 0J420161209103011112/09/16 10:30:31  5-MIN K0J4 091530Z AUTO 03010KT 10SM CLR 06/M07 A3051 -220 39 -1300 030/10 RMK AO2 T00561072
63870K0J4 0J420161209103511112/09/16 10:35:31  5-MIN K0J4 091535Z AUTO 03010KT 10SM CLR 06/M07 A3051 -220 39 -1300 030/10 RMK AO2 T00561072
63870K0J4 0J420161209104011112/09/16 10:40:31  5-MIN K0J4 091540Z AUTO 04013KT 10SM CLR 06/M08 A3051 -220 37 -1300 040/13 RMK AO2 T00561078
63870K0J4 0J420161209104511712/09/16 10:45:31  5-MIN K0J4 091545Z AUTO 02012G18KT 10SM CLR 06/M08 A3052 -230 37 -1300 020/12G18 RMK AO2 T00561078
63870K0J4 0J420161209105011712/09/16 10:50:31  5-MIN K0J4 091550Z AUTO 02009G18KT 10SM CLR 06/M08 A3052 -230 36 -1300 020/09G18 RMK AO2 T00611078
63870K0J4 0J420161209105512412/09/16 10:55:31  5-MIN K0J4 091555Z AUTO 02012G17KT 10SM CLR 06/M08 A3052 -230 35 -1300 020/12G17 RMK AO2 SLP333 T00611083
63870K0J4 0J420161209110011112/09/16 11:00:31  5-MIN K0J4 091600Z AUTO 02008KT 10SM CLR 06/M08 A3052 -230 35 -1300 020/08 RMK AO2 T00611083
63870K0J4 0J420161209110511112/09/16 11:05:31  5-MIN K0J4 091605Z AUTO 01009KT 10SM CLR 06/M08 A3052 -230 36 -1300 010/09 RMK AO2 T00611078
63870K0J4 0J420161209111011112/09/16 11:10:31  5-MIN K0J4 091610Z AUTO 04010KT 10SM CLR 06/M08 A3051 -220 35 -1300 040/10 RMK AO2 T00611083
63870K0J4 0J420161209111511712/09/16 11:15:31  5-MIN K0J4 091615Z AUTO 01011G17KT 10SM CLR 07/M08 A3051 -220 33 -1200 010/11G17 RMK AO2 T00671083
63870K0J4 0J420161209112011712/09/16 11:20:31  5-MIN K0J4 091620Z AUTO 03010G17KT 10SM CLR 07/M08 A3051 -220 33 -1200 030/10G17 RMK AO2 T00671083
63870K0J4 0J420161209112511112/09/16 11:25:31  5-MIN K0J4 091625Z AUTO 01009KT 10SM CLR 07/M08 A3051 -220 33 -1200 010/09 RMK AO2 T00671083
63870K0J4 0J420161209113011112/09/16 11:30:31  5-MIN K0J4 091630Z AUTO 03009KT 10SM CLR 07/M08 A3051 -220 33 -1200 030/09 RMK AO2 T00671083
63870K0J4 0J420161209113512712/09/16 11:35:31  5-MIN K0J4 091635Z AUTO 01009KT 320V050 10SM CLR 07/M08 A3050 -210 32 -1100 010/09 320V050 RMK AO2 T00721083
63870K0J4 0J420161209114011112/09/16 11:40:31  5-MIN K0J4 091640Z AUTO 35009KT 10SM CLR 07/M08 A3050 -210 32 -1100 350/09 RMK AO2 T00721083
63870K0J4 0J420161209114511712/09/16 11:45:31  5-MIN K0J4 091645Z AUTO 01009G16KT 10SM CLR 07/M09 A3050 -210 32 -1200 010/09G16 RMK AO2 T00671089
63870K0J4 0J420161209115011712/09/16 11:50:31  5-MIN K0J4 091650Z AUTO 36011G16KT 10SM CLR 07/M09 A3049 -200 31 -1100 360/11G16 RMK AO2 T00721089
63870K0J4 0J420161209115511812/09/16 11:55:31  5-MIN K0J4 091655Z AUTO 02008KT 10SM CLR 08/M09 A3049 -200 29 -1000 020/08 RMK AO2 SLP324 T00781089
63870K0J4 0J420161209120011712/09/16 12:00:31  5-MIN K0J4 091700Z AUTO 03012G19KT 10SM CLR 08/M09 A3049 -200 29 -1000 030/12G19 RMK AO2 T00781089
63870K0J4 0J420161209120513312/09/16 12:05:31  5-MIN K0J4 091705Z AUTO 36010G19KT 320V030 10SM CLR 08/M09 A3048 -200 29 -1000 360/10G19 320V030 RMK AO2 T00781089
63870K0J4 0J420161209121011712/09/16 12:10:31  5-MIN K0J4 091710Z AUTO 02010G16KT 10SM CLR 08/M09 A3048 -190 29 -1000 020/10G16 RMK AO2 T00781089
63870K0J4 0J420161209121511112/09/16 12:15:31  5-MIN K0J4 091715Z AUTO 01010KT 10SM CLR 08/M09 A3048 -190 29 -1000 010/10 RMK AO2 T00781089
63870K0J4 0J420161209122011112/09/16 12:20:31  5-MIN K0J4 091720Z AUTO 03012KT 10SM CLR 08/M09 A3047 -190 29 -1000 030/12 RMK AO2 T00781089
63870K0J4 0J420161209122511112/09/16 12:25:31  5-MIN K0J4 091725Z AUTO 36012KT 10SM CLR 08/M09 A3047 -190 29 -1000 360/12 RMK AO2 T00781089
63870K0J4 0J420161209123011112/09/16 12:30:31  5-MIN K0J4 091730Z AUTO 02009KT 10SM CLR 08/M09 A3047 -180 29 -1000 020/09 RMK AO2 T00781089
63870K0J4 0J420161209123511012/09/16 12:35:31  5-MIN K0J4 091735Z AUTO 02010KT 10SM CLR 08/M08 A3047 -180 30 -900 020/10 RMK AO2 T00831083
63870K0J4 0J420161209124011612/09/16 12:40:31  5-MIN K0J4 091740Z AUTO 02014G19KT 10SM CLR 08/M09 A3046 -180 28 -900 020/14G19 RMK AO2 T00831089
63870K0J4 0J420161209124511612/09/16 12:45:31  5-MIN K0J4 091745Z AUTO 03011G19KT 10SM CLR 09/M09 A3046 -180 27 -900 030/11G19 RMK AO2 T00891089
63870K0J4 0J420161209125011012/09/16 12:50:31  5-MIN K0J4 091750Z AUTO 02010KT 10SM CLR 08/M09 A3046 -170 28 -900 020/10 RMK AO2 T00831089
63870K0J4 0J420161209125513512/09/16 12:55:31  5-MIN K0J4 091755Z AUTO 03008KT 10SM CLR 09/M08 A3046 -170 27 -800 030/08 RMK AO2 SLP313 T00941083 10094 20006 51012
63870K0J4 0J420161209130011012/09/16 13:00:31  5-MIN K0J4 091800Z AUTO 01013KT 10SM CLR 08/M09 A3046 -170 27 -900 010/13 RMK AO2 T00831094
63870K0J4 0J420161209130511612/09/16 13:05:31  5-MIN K0J4 091805Z AUTO 02014G19KT 10SM CLR 08/M09 A3045 -170 27 -900 020/14G19 RMK AO2 T00831094
63870K0J4 0J420161209131011612/09/16 13:10:31  5-MIN K0J4 091810Z AUTO 03011G19KT 10SM CLR 09/M09 A3045 -170 26 -900 030/11G19 RMK AO2 T00891094
63870K0J4 0J420161209131511612/09/16 13:15:31  5-MIN K0J4 091815Z AUTO 01011G17KT 10SM CLR 09/M09 A3045 -160 26 -900 010/11G17 RMK AO2 T00891094
63870K0J4 0J420161209132011612/09/16 13:20:31  5-MIN K0J4 091820Z AUTO 02012G17KT 10SM CLR 09/M10 A3045 -160 25 -800 020/12G17 RMK AO2 T00891100
63870K0J4 0J420161209132511612/09/16 13:25:31  5-MIN K0J4 091825Z AUTO 01008G17KT 10SM CLR 09/M09 A3044 -160 26 -800 010/08G17 RMK AO2 T00891094
63870K0J4 0J420161209133011012/09/16 13:30:31  5-MIN K0J4 091830Z AUTO 04010KT 10SM CLR 09/M09 A3044 -160 26 -800 040/10 RMK AO2 T00941089
63870K0J4 0J420161209133511012/09/16 13:35:31  5-MIN K0J4 091835Z AUTO 04011KT 10SM CLR 09/M09 A3044 -150 25 -800 040/11 RMK AO2 T00941094
63870K0J4 0J420161209134011012/09/16 13:40:31  5-MIN K0J4 091840Z AUTO 02009KT 10SM CLR 09/M09 A3043 -150 26 -800 020/09 RMK AO2 T00941089
63870K0J4 0J420161209134511012/09/16 13:45:31  5-MIN K0J4 091845Z AUTO 35008KT 10SM CLR 09/M09 A3043 -150 26 -800 350/08 RMK AO2 T00941089
63870K0J4 0J420161209135011012/09/16 13:50:31  5-MIN K0J4 091850Z AUTO 36010KT 10SM CLR 09/M10 A3043 -150 24 -800 360/10 RMK AO2 T00941100
63870K0J4 0J420161209135513312/09/16 13:55:31  5-MIN K0J4 091855Z AUTO 01009KT 310V040 10SM CLR 09/M10 A3042 -140 24 -800 010/09 310V040 RMK AO2 SLP302 T00941100
63870K0J4 0J420161209140011612/09/16 14:00:31  5-MIN K0J4 091900Z AUTO 01010G17KT 10SM CLR 09/M09 A3042 -140 25 -800 010/10G17 RMK AO2 T00941094
63870K0J4 0J420161209140511612/09/16 14:05:31  5-MIN K0J4 091905Z AUTO 36008G17KT 10SM CLR 09/M09 A3042 -140 25 -800 360/08G17 RMK AO2 T00941094
63870K0J4 0J420161209141012612/09/16 14:10:31  5-MIN K0J4 091910Z AUTO 36008KT 330V040 10SM CLR 10/M10 A3042 -140 23 -700 360/08 330V040 RMK AO2 T01001100
63870K0J4 0J420161209141511612/09/16 14:15:31  5-MIN K0J4 091915Z AUTO 36012G17KT 10SM CLR 09/M11 A3042 -140 23 -800 360/12G17 RMK AO2 T00941106
63870K0J4 0J420161209142011612/09/16 14:20:31  5-MIN K0J4 091920Z AUTO 03010G17KT 10SM CLR 09/M10 A3042 -140 24 -800 030/10G17 RMK AO2 T00941100
63870K0J4 0J420161209142511012/09/16 14:25:31  5-MIN K0J4 091925Z AUTO 01011KT 10SM CLR 10/M10 A3042 -140 23 -700 010/11 RMK AO2 T01001100
63870K0J4 0J420161209143011012/09/16 14:30:31  5-MIN K0J4 091930Z AUTO 02010KT 10SM CLR 10/M10 A3042 -140 23 -700 020/10 RMK AO2 T01001100
63870K0J4 0J420161209143511612/09/16 14:35:31  5-MIN K0J4 091935Z AUTO 02010G16KT 10SM CLR 10/M10 A3042 -140 23 -700 020/10G16 RMK AO2 T01001100
63870K0J4 0J420161209144011612/09/16 14:40:31  5-MIN K0J4 091940Z AUTO 03010G16KT 10SM CLR 10/M10 A3042 -140 23 -700 030/10G16 RMK AO2 T01001100
63870K0J4 0J420161209144512612/09/16 14:45:31  5-MIN K0J4 091945Z AUTO 34008KT 310V020 10SM CLR 11/M09 A3042 -140 23 -600 340/08 310V020 RMK AO2 T01061094
63870K0J4 0J420161209145011012/09/16 14:50:31  5-MIN K0J4 091950Z AUTO 02009KT 10SM CLR 11/M09 A3042 -140 23 -600 020/09 RMK AO2 T01061094
63870K0J4 0J420161209145511712/09/16 14:55:31  5-MIN K0J4 091955Z AUTO 03008KT 10SM CLR 11/M09 A3042 -140 23 -600 030/08 RMK AO2 SLP301 T01061094
63870K0J4 0J420161209150011612/09/16 15:00:31  5-MIN K0J4 092000Z AUTO 01006G18KT 10SM CLR 11/M09 A3042 -140 23 -600 010/06G18 RMK AO2 T01061094
63870K0J4 0J420161209150511612/09/16 15:05:31  5-MIN K0J4 092005Z AUTO 01008G18KT 10SM CLR 11/M09 A3042 -140 23 -600 010/08G18 RMK AO2 T01061094
63870K0J4 0J420161209151011612/09/16 15:10:31  5-MIN K0J4 092010Z AUTO 02010G17KT 10SM CLR 10/M09 A3042 -140 24 -700 020/10G17 RMK AO2 T01001094
63870K0J4 0J420161209151511612/09/16 15:15:31  5-MIN K0J4 092015Z AUTO 02010G17KT 10SM CLR 11/M09 A3042 -140 23 -600 020/10G17 RMK AO2 T01061094
63870K0J4 0J420161209152011012/09/16 15:20:31  5-MIN K0J4 092020Z AUTO 03010KT 10SM CLR 11/M09 A3042 -140 23 -600 030/10 RMK AO2 T01061094
63870K0J4 0J420161209152511612/09/16 15:25:31  5-MIN K0J4 092025Z AUTO 01008G15KT 10SM CLR 10/M10 A3043 -140 23 -700 010/08G15 RMK AO2 T01001100
63870K0J4 0J420161209153011012/09/16 15:30:31  5-MIN K0J4 092030Z AUTO 01010KT 10SM CLR 10/M10 A3042 -140 23 -700 010/10 RMK AO2 T01001100
63870K0J4 0J420161209153511012/09/16 15:35:31  5-MIN K0J4 092035Z AUTO 02009KT 10SM CLR 10/M10 A3042 -140 23 -700 020/09 RMK AO2 T01001100
63870K0J4 0J420161209154011012/09/16 15:40:31  5-MIN K0J4 092040Z AUTO 02008KT 10SM CLR 10/M10 A3042 -140 23 -700 020/08 RMK AO2 T01001100
63870K0J4 0J420161209154511012/09/16 15:45:31  5-MIN K0J4 092045Z AUTO 36009KT 10SM CLR 10/M10 A3043 -140 23 -700 360/09 RMK AO2 T01001100
63870K0J4 0J420161209155011012/09/16 15:50:31  5-MIN K0J4 092050Z AUTO 03008KT 10SM CLR 10/M09 A3042 -140 24 -700 030/08 RMK AO2 T01001094
63870K0J4 0J420161209155512312/09/16 15:55:31  5-MIN K0J4 092055Z AUTO 02006KT 10SM CLR 10/M09 A3042 -140 25 -700 020/06 RMK AO2 SLP302 T01001089 58021
63870K0J4 0J420161209160011012/09/16 16:00:31  5-MIN K0J4 092100Z AUTO 03011KT 10SM CLR 10/M09 A3042 -140 25 -700 030/11 RMK AO2 T01001089
63870K0J4 0J420161209160511012/09/16 16:05:31  5-MIN K0J4 092105Z AUTO 02010KT 10SM CLR 10/M09 A3043 -140 24 -700 020/10 RMK AO2 T01001094
63870K0J4 0J420161209161011012/09/16 16:10:31  5-MIN K0J4 092110Z AUTO 36009KT 10SM CLR 10/M09 A3043 -140 24 -700 360/09 RMK AO2 T01001094
63870K0J4 0J420161209161511012/09/16 16:15:31  5-MIN K0J4 092115Z AUTO 01008KT 10SM CLR 10/M09 A3043 -150 25 -700 010/08 RMK AO2 T01001089
63870K0J4 0J420161209162011012/09/16 16:20:31  5-MIN K0J4 092120Z AUTO 02010KT 10SM CLR 09/M09 A3043 -150 25 -800 020/10 RMK AO2 T00941094
63870K0J4 0J420161209162511012/09/16 16:25:31  5-MIN K0J4 092125Z AUTO 02010KT 10SM CLR 09/M09 A3043 -150 25 -800 020/10 RMK AO2 T00941094
63870K0J4 0J420161209163011012/09/16 16:30:31  5-MIN K0J4 092130Z AUTO 36006KT 10SM CLR 09/M09 A3043 -150 26 -800 360/06 RMK AO2 T00941089
63870K0J4 0J420161209163511012/09/16 16:35:31  5-MIN K0J4 092135Z AUTO 02006KT 10SM CLR 09/M09 A3043 -150 26 -800 020/06 RMK AO2 T00941089
63870K0J4 0J420161209164011012/09/16 16:40:31  5-MIN K0J4 092140Z AUTO 01007KT 10SM CLR 09/M09 A3043 -150 26 -800 010/07 RMK AO2 T00941089
63870K0J4 0J420161209164511012/09/16 16:45:31  5-MIN K0J4 092145Z AUTO 02009KT 10SM CLR 09/M09 A3043 -150 27 -800 020/09 RMK AO2 T00891089
63870K0J4 0J420161209165011012/09/16 16:50:31  5-MIN K0J4 092150Z AUTO 36008KT 10SM CLR 09/M09 A3043 -150 27 -800 360/08 RMK AO2 T00891089
63870K0J4 0J420161209165511712/09/16 16:55:31  5-MIN K0J4 092155Z AUTO VRB05KT 10SM CLR 09/M08 A3044 -150 28 -800 VRB/05 RMK AO2 SLP307 T00891083
63870K0J4 0J420161209170011012/09/16 17:00:31  5-MIN K0J4 092200Z AUTO 36005KT 10SM CLR 08/M08 A3044 -160 30 -900 360/05 RMK AO2 T00831083
63870K0J4 0J420161209170511012/09/16 17:05:31  5-MIN K0J4 092205Z AUTO 36006KT 10SM CLR 08/M08 A3044 -160 30 -900 360/06 RMK AO2 T00831083
63870K0J4 0J420161209171011012/09/16 17:10:31  5-MIN K0J4 092210Z AUTO 35005KT 10SM CLR 08/M08 A3044 -160 30 -900 350/05 RMK AO2 T00831083
63870K0J4 0J420161209171511012/09/16 17:15:31  5-MIN K0J4 092215Z AUTO 36004KT 10SM CLR 08/M08 A3045 -160 30 -900 360/04 RMK AO2 T00831083
63870K0J4 0J420161209172011112/09/16 17:20:31  5-MIN K0J4 092220Z AUTO 01004KT 10SM CLR 08/M08 A3045 -170 31 -1000 010/04 RMK AO2 T00781083
63870K0J4 0J420161209172511112/09/16 17:25:31  5-MIN K0J4 092225Z AUTO 01004KT 10SM CLR 07/M08 A3045 -170 32 -1100 010/04 RMK AO2 T00721083
63870K0J4 0J420161209173011112/09/16 17:30:31  5-MIN K0J4 092230Z AUTO 35003KT 10SM CLR 07/M08 A3046 -170 33 -1100 350/03 RMK AO2 T00721078
63870K0J4 0J420161209173511112/09/16 17:35:31  5-MIN K0J4 092235Z AUTO 35003KT 10SM CLR 07/M08 A3046 -170 33 -1100 350/03 RMK AO2 T00721078
63870K0J4 0J420161209174011112/09/16 17:40:31  5-MIN K0J4 092240Z AUTO 34003KT 10SM CLR 07/M08 A3046 -170 33 -1100 340/03 RMK AO2 T00721078
63870K0J4 0J420161209174511112/09/16 17:45:31  5-MIN K0J4 092245Z AUTO 00000KT 10SM CLR 06/M07 A3046 -180 39 -1200 000/00 RMK AO2 T00611067
63870K0J4 0J420161209175011112/09/16 17:50:31  5-MIN K0J4 092250Z AUTO 00000KT 10SM CLR 06/M07 A3046 -180 39 -1200 000/00 RMK AO2 T00611067
63870K0J4 0J420161209175511812/09/16 17:55:31  5-MIN K0J4 092255Z AUTO 00000KT 10SM CLR 06/M07 A3046 -180 39 -1200 000/00 RMK AO2 SLP316 T00611067
63870K0J4 0J420161209180011112/09/16 18:00:31  5-MIN K0J4 092300Z AUTO 00000KT 10SM CLR 05/M06 A3046 -180 46 -1300 000/00 RMK AO2 T00501056
63870K0J4 0J420161209180511112/09/16 18:05:31  5-MIN K0J4 092305Z AUTO 00000KT 10SM CLR 04/M04 A3046 -180 52 -1400 000/00 RMK AO2 T00441044
63870K0J4 0J420161209181011112/09/16 18:10:31  5-MIN K0J4 092310Z AUTO 00000KT 10SM CLR 04/M04 A3047 -180 54 -1500 000/00 RMK AO2 T00391044
63870K0J4 0J420161209181511112/09/16 18:15:31  5-MIN K0J4 092315Z AUTO 00000KT 10SM CLR 04/M04 A3047 -180 54 -1500 000/00 RMK AO2 T00391044
63870K0J4 0J420161209182011112/09/16 18:20:31  5-MIN K0J4 092320Z AUTO 35003KT 10SM CLR 03/M04 A3047 -180 59 -1600 350/03 RMK AO2 T00331039
63870K0J4 0J420161209182511112/09/16 18:25:31  5-MIN K0J4 092325Z AUTO 36004KT 10SM CLR 04/M04 A3047 -180 57 -1500 360/04 RMK AO2 T00391039
63870K0J4 0J420161209183011112/09/16 18:30:31  5-MIN K0J4 092330Z AUTO 36004KT 10SM CLR 04/M04 A3047 -180 52 -1400 360/04 RMK AO2 T00441044
63870K0J4 0J420161209183511112/09/16 18:35:31  5-MIN K0J4 092335Z AUTO 36004KT 10SM CLR 05/M06 A3047 -180 46 -1400 360/04 RMK AO2 T00501056
63870K0J4 0J420161209184011112/09/16 18:40:31  5-MIN K0J4 092340Z AUTO 36004KT 10SM CLR 05/M06 A3047 -180 46 -1400 360/04 RMK AO2 T00501056
63870K0J4 0J420161209184511112/09/16 18:45:31  5-MIN K0J4 092345Z AUTO 35004KT 10SM CLR 04/M06 A3047 -180 48 -1400 350/04 RMK AO2 T00441056
63870K0J4 0J420161209185011112/09/16 18:50:31  5-MIN K0J4 092350Z AUTO 35003KT 10SM CLR 04/M06 A3047 -180 48 -1400 350/03 RMK AO2 T00441056
63870K0J4 0J420161209185513612/09/16 18:55:31  5-MIN K0J4 092355Z AUTO 00000KT 10SM CLR 04/M05 A3047 -180 52 -1500 000/00 RMK AO2 SLP319 T00391050 10106 20033 55010
63870K0J4 0J420161209190011112/09/16 19:00:31  5-MIN K0J4 100000Z AUTO 36003KT 10SM CLR 03/M05 A3047 -190 54 -1600 360/03 RMK AO2 T00331050
63870K0J4 0J420161209190511112/09/16 19:05:31  5-MIN K0J4 100005Z AUTO 36003KT 10SM CLR 04/M06 A3047 -190 50 -1500 360/03 RMK AO2 T00391056
63870K0J4 0J420161209191011112/09/16 19:10:31  5-MIN K0J4 100010Z AUTO 35003KT 10SM CLR 04/M06 A3047 -190 48 -1400 350/03 RMK AO2 T00441056
63870K0J4 0J420161209191511112/09/16 19:15:31  5-MIN K0J4 100015Z AUTO 00000KT 10SM CLR 04/M06 A3048 -190 50 -1500 000/00 RMK AO2 T00391056
63870K0J4 0J420161209192011112/09/16 19:20:31  5-MIN K0J4 100020Z AUTO 00000KT 10SM CLR 04/M06 A3048 -190 50 -1500 000/00 RMK AO2 T00391056
63870K0J4 0J420161209192511112/09/16 19:25:31  5-MIN K0J4 100025Z AUTO 00000KT 10SM CLR 03/M05 A3048 -190 54 -1600 000/00 RMK AO2 T00331050
63870K0J4 0J420161209193011112/09/16 19:30:31  5-MIN K0J4 100030Z AUTO 00000KT 10SM CLR 03/M05 A3048 -190 54 -1600 000/00 RMK AO2 T00331050
63870K0J4 0J420161209193511112/09/16 19:35:31  5-MIN K0J4 100035Z AUTO 00000KT 10SM CLR 03/M05 A3048 -190 56 -1600 000/00 RMK AO2 T00281050
63870K0J4 0J420161209194011112/09/16 19:40:31  5-MIN K0J4 100040Z AUTO 00000KT 10SM CLR 02/M04 A3048 -190 61 -1700 000/00 RMK AO2 T00221044
63870K0J4 0J420161209194511112/09/16 19:45:31  5-MIN K0J4 100045Z AUTO 00000KT 10SM CLR 02/M04 A3048 -190 61 -1700 000/00 RMK AO2 T00221044
63870K0J4 0J420161209195011112/09/16 19:50:31  5-MIN K0J4 100050Z AUTO 34003KT 10SM CLR 02/M04 A3048 -190 64 -1700 340/03 RMK AO2 T00221039
63870K0J4 0J420161209195511812/09/16 19:55:31  5-MIN K0J4 100055Z AUTO 35003KT 10SM CLR 02/M04 A3048 -200 61 -1700 350/03 RMK AO2 SLP324 T00221044
63870K0J4 0J420161209200011112/09/16 20:00:31  5-MIN K0J4 100100Z AUTO 34003KT 10SM CLR 02/M04 A3049 -200 61 -1700 340/03 RMK AO2 T00221044
63870K0J4 0J420161209200511112/09/16 20:05:31  5-MIN K0J4 100105Z AUTO 34003KT 10SM CLR 02/M04 A3049 -200 61 -1700 340/03 RMK AO2 T00221044
63870K0J4 0J420161209201011112/09/16 20:10:31  5-MIN K0J4 100110Z AUTO 35004KT 10SM CLR 02/M04 A3048 -200 61 -1700 350/04 RMK AO2 T00221044
63870K0J4 0J420161209201511112/09/16 20:15:31  5-MIN K0J4 100115Z AUTO 35004KT 10SM CLR 02/M04 A3048 -200 64 -1800 350/04 RMK AO2 T00171044
63870K0J4 0J420161209202011112/09/16 20:20:31  5-MIN K0J4 100120Z AUTO 36004KT 10SM CLR 03/M06 A3049 -200 52 -1600 360/04 RMK AO2 T00331056
63870K0J4 0J420161212022511512/12/16 02:25:31  5-MIN K0J4 120725Z AUTO 11003KT 10SM BKN009 OVC060 13/11 A3012 130 86 0 110/03 RMK AO2 T01280106
63870K0J4 0J420161212023011512/12/16 02:30:31  5-MIN K0J4 120730Z AUTO 00000KT 10SM BKN009 OVC060 13/11 A3012 130 83 0 000/00 RMK AO2 T01330106
63870K0J4 0J420161212023512212/12/16 02:35:31  5-MIN K0J4 120735Z AUTO 09003KT 10SM SCT009 BKN047 OVC055 13/11 A3012 140 83 0 090/03 RMK AO2 T01330106
63870K0J4 0J420161212024013812/12/16 02:40:31  5-MIN K0J4 120740Z AUTO 00000KT 10SM -RA SCT009 BKN045 OVC055 13/11 A3012 130 83 0 000/00 RMK AO2 RAB36 P0000 T01330106
63870K0J4 0J420161212024513812/12/16 02:45:31  5-MIN K0J4 120745Z AUTO 08003KT 10SM -RA FEW009 BKN043 OVC055 13/11 A3011 140 83 0 080/03 RMK AO2 RAB36 P0000 T01330106
63870K0J4 0J420161212025013812/12/16 02:50:31  5-MIN K0J4 120750Z AUTO 00000KT 10SM -RA FEW009 BKN043 OVC055 13/11 A3012 140 83 0 000/00 RMK AO2 RAB36 P0000 T01330106
63870K0J4 0J420161212025514512/12/16 02:55:31  5-MIN K0J4 120755Z AUTO 00000KT 10SM -RA FEW007 BKN043 OVC055 13/11 A3011 140 86 0 000/00 RMK AO2 RAB36 SLP195 P0000 T01330111
63870K0J4 0J420161212030013212/12/16 03:00:31  5-MIN K0J4 120800Z AUTO 08003KT 10SM -RA FEW007 BKN050 OVC060 13/11 A3011 140 86 0 080/03 RMK AO2 P0000 T01330111
63870K0J4 0J420161212030513212/12/16 03:05:31  5-MIN K0J4 120805Z AUTO 07003KT 10SM -RA SCT008 BKN049 OVC060 13/11 A3011 140 86 0 070/03 RMK AO2 P0000 T01330111
63870K0J4 0J420161212031013212/12/16 03:10:31  5-MIN K0J4 120810Z AUTO 00000KT 10SM -RA SCT008 BKN041 OVC049 13/11 A3011 140 86 0 000/00 RMK AO2 P0000 T01330111
63870K0J4 0J420161212031512512/12/16 03:15:31  5-MIN K0J4 120815Z AUTO 00000KT 10SM -RA BKN008 OVC049 13/11 A3010 150 86 0 000/00 RMK AO2 P0000 T01330111
63870K0J4 0J420161212032012512/12/16 03:20:31  5-MIN K0J4 120820Z AUTO 00000KT 10SM -RA BKN008 OVC049 13/11 A3010 150 86 0 000/00 RMK AO2 P0000 T01330111
63870K0J4 0J420161212032512712/12/16 03:25:31  5-MIN K0J4 120825Z AUTO 09003KT 10SM BKN008 OVC049 13/11 A3010 150 86 0 090/03 RMK AO2 RAE24 P0000 T01330111
63870K0J4 0J420161212033011812/12/16 03:30:31  5-MIN K0J4 120830Z AUTO 08003KT 10SM -RA OVC008 13/11 A3010 150 86 0 080/03 RMK AO2 P0000 T01330111
63870K0J4 0J420161212033511812/12/16 03:35:31  5-MIN K0J4 120835Z AUTO 08003KT 10SM -RA OVC008 13/11 A3010 150 86 0 080/03 RMK AO2 P0000 T01330111
63870K0J4 0J420161212034011812/12/16 03:40:31  5-MIN K0J4 120840Z AUTO 00000KT 10SM -RA OVC008 13/11 A3010 150 86 0 000/00 RMK AO2 P0000 T01330111
63870K0J4 0J420161212034512012/12/16 03:45:31  5-MIN K0J4 120845Z AUTO 09003KT 6SM -RA BR OVC008 13/11 A3009 160 86 0 090/03 RMK AO2 P0000 T01330111
63870K0J4 0J420161212035012012/12/16 03:50:31  5-MIN K0J4 120850Z AUTO 00000KT 5SM -RA BR OVC008 13/12 A3009 160 89 0 000/00 RMK AO2 P0000 T01330117
63870K0J4 0J420161212035513912/12/16 03:55:31  5-MIN K0J4 120855Z AUTO 00000KT 5SM -RA BR OVC008 13/12 A3009 160 89 0 000/00 RMK AO2 SLP188 P0000 60000 T01330117 57015
63870K0J4 0J420161212040012012/12/16 04:00:31  5-MIN K0J4 120900Z AUTO 36003KT 4SM -RA BR OVC007 13/12 A3009 160 89 0 360/03 RMK AO2 P0000 T01330117
63870K0J4 0J420161212040512012/12/16 04:05:31  5-MIN K0J4 120905Z AUTO 00000KT 5SM -RA BR OVC007 13/12 A3009 160 89 0 000/00 RMK AO2 P0000 T01330117
63870K0J4 0J420161212041011712/12/16 04:10:31  5-MIN K0J4 120910Z AUTO 00000KT 9SM -RA OVC007 13/12 A3009 160 89 0 000/00 RMK AO2 P0000 T01330117
63870K0J4 0J420161212041512012/12/16 04:15:31  5-MIN K0J4 120915Z AUTO 00000KT 10SM OVC008 13/12 A3009 160 89 0 000/00 RMK AO2 RAE11 P0000 T01330117
63870K0J4 0J420161212042011912/12/16 04:20:31  5-MIN K0J4 120920Z AUTO 00000KT 9SM OVC008 13/12 A3009 160 89 0 000/00 RMK AO2 RAE11 P0000 T01330117
63870K0J4 0J420161212042513412/12/16 04:25:31  5-MIN K0J4 120925Z AUTO 00000KT 6SM -RA BR BKN008 BKN017 OVC046 13/12 A3008 170 93 0 000/00 RMK AO2 P0000 T01330122
63870K0J4 0J420161212043013512/12/16 04:30:31  5-MIN K0J4 120930Z AUTO 00000KT 4SM RA BR BKN008 BKN017 OVC046 13/12 A3008 170 93 100 000/00 RMK AO2 P0000 T01330122
63870K0J4 0J420161212043513612/12/16 04:35:31  5-MIN K0J4 120935Z AUTO 00000KT 4SM -RA BR BKN008 BKN013 OVC043 13/12 A3008 170 93 100 000/00 RMK AO2 P0000 T01330122
63870K0J4 0J420161212044013312/12/16 04:40:31  5-MIN K0J4 120940Z AUTO 00000KT 7SM -RA BKN010 BKN016 OVC043 13/12 A3008 170 93 100 000/00 RMK AO2 P0000 T01330122
63870K0J4 0J420161212044513612/12/16 04:45:31  5-MIN K0J4 120945Z AUTO 00000KT 5SM -RA BR BKN010 BKN017 OVC046 13/12 A3008 170 93 100 000/00 RMK AO2 P0000 T01330122
63870K0J4 0J420161212045013412/12/16 04:50:31  5-MIN K0J4 120950Z AUTO 31004KT 5SM -RA BR BKN010 BKN017 OVC046 13/12 A3008 170 93 0 310/04 RMK AO2 P0000 T01330122
63870K0J4 0J420161212045512412/12/16 04:55:31  5-MIN K0J4 120955Z AUTO VRB05KT 6SM -RA BR FEW002 BKN010 OVC030 13/12 A3009 160 89 0 VRB/05 RMK AO2 P0000
63870K0J4 0J420161212050013912/12/16 05:00:31  5-MIN K0J4 121000Z AUTO VRB03KT 5SM -RA BR FEW002 OVC010 13/12 A3009 160 89 0 VRB/03 RMK AO2 CIG 008V015 P0000 T01330117
63870K0J4 0J420161212050513412/12/16 05:05:31  5-MIN K0J4 121005Z AUTO 00000KT 6SM -RA BR BKN010 BKN030 OVC050 13/12 A3009 160 93 0 000/00 RMK AO2 P0000 T01330122
63870K0J4 0J420161212051014512/12/16 05:10:31  5-MIN K0J4 121010Z AUTO 00000KT 7SM SCT010 BKN027 OVC055 13/12 A3008 170 93 0 000/00 RMK AO2 RAE10 CIG 020V033 P0000 T01330122
63870K0J4 0J420161212051512912/12/16 05:15:31  5-MIN K0J4 121015Z AUTO 16003KT 6SM BR SCT010 BKN055 13/12 A3008 170 96 0 160/03 RMK AO2 RAE10 P0000 T01280122
63870K0J4 0J420161212052013612/12/16 05:20:31  5-MIN K0J4 121020Z AUTO 00000KT 5SM BR FEW008 SCT019 BKN060 13/12 A3008 160 93 0 000/00 RMK AO2 RAE10 P0000 T01280117
63870K0J4 0J420161212052513612/12/16 05:25:31  5-MIN K0J4 121025Z AUTO 00000KT 4SM BR FEW008 SCT015 BKN055 13/12 A3008 170 93 0 000/00 RMK AO2 RAE10 P0000 T01280117
63870K0J4 0J420161212053012912/12/16 05:30:31  5-MIN K0J4 121030Z AUTO 00000KT 3SM BR SCT015 BKN055 12/12 A3008 170 96 0 000/00 RMK AO2 RAE10 P0000 T01220117
63870K0J4 0J420161212053512912/12/16 05:35:31  5-MIN K0J4 121035Z AUTO 00000KT 4SM BR BKN017 BKN055 12/12 A3008 170 96 0 000/00 RMK AO2 RAE10 P0000 T01220117
63870K0J4 0J420161212054012912/12/16 05:40:31  5-MIN K0J4 121040Z AUTO 00000KT 4SM BR BKN015 BKN050 12/12 A3008 170 96 0 000/00 RMK AO2 RAE10 P0000 T01220117
63870K0J4 0J420161212054513612/12/16 05:45:31  5-MIN K0J4 121045Z AUTO 00000KT 4SM BR BKN015 BKN050 BKN090 12/12 A3008 170 96 0 000/00 RMK AO2 RAE10 P0000 T01220117
63870K0J4 0J420161212055013612/12/16 05:50:31  5-MIN K0J4 121050Z AUTO 00000KT 5SM BR SCT010 BKN017 BKN090 12/11 A3008 170 93 0 000/00 RMK AO2 RAE10 P0000 T01220111
63870K0J4 0J420161212055514312/12/16 05:55:31  5-MIN K0J4 121055Z AUTO 00000KT 3SM BR SCT010 BKN017 BKN090 12/11 A3008 170 93 0 000/00 RMK AO2 RAE10 SLP184 P0000 T01220111
63870K0J4 0J420161212060012812/12/16 06:00:31  5-MIN K0J4 121100Z AUTO 00000KT 2 1/2SM BR BKN010 BKN015 OVC090 13/11 A3008 170 89 0 000/00 RMK AO2 T01280111
63870K0J4 0J420161212060512412/12/16 06:05:31  5-MIN K0J4 121105Z AUTO 00000KT 5SM BR BKN010 BKN015 OVC090 13/12 A3008 170 93 0 000/00 RMK AO2 T01280117
63870K0J4 0J420161212061011712/12/16 06:10:31  5-MIN K0J4 121110Z AUTO 00000KT 6SM BR BKN010 OVC090 13/12 A3008 170 96 0 000/00 RMK AO2 T01280122
63870K0J4 0J420161212061511012/12/16 06:15:31  5-MIN K0J4 121115Z AUTO 00000KT 5SM BR OVC010 13/12 A3008 170 96 0 000/00 RMK AO2 T01280122
63870K0J4 0J420161212062012612/12/16 06:20:31  5-MIN K0J4 121120Z AUTO 00000KT 6SM -RA BR OVC009 13/12 A3008 170 96 0 000/00 RMK AO2 RAB17 P0000 T01280122
63870K0J4 0J420161212062513512/12/16 06:25:31  5-MIN K0J4 121125Z AUTO 00000KT 7SM -RA OVC007 13/12 A3008 170 96 0 000/00 RMK AO2 RAB17 CIG 006V011 P0000 T01280122
63870K0J4 0J420161212063013412/12/16 06:30:31  5-MIN K0J4 121130Z AUTO 00000KT 7SM OVC007 13/12 A3008 170 93 0 000/00 RMK AO2 RAB17E26 CIG 005V011 P0000 T01280117
63870K0J4 0J420161212063513412/12/16 06:35:31  5-MIN K0J4 121135Z AUTO 00000KT 7SM OVC007 13/12 A3008 170 93 0 000/00 RMK AO2 RAB17E26 CIG 004V011 P0000 T01280117
63870K0J4 0J420161212064013712/12/16 06:40:31  5-MIN K0J4 121140Z AUTO 00000KT 6SM BR OVC007 13/12 A3008 170 93 0 000/00 RMK AO2 RAB17E26 CIG 004V008 P0000 T01280117
63870K0J4 0J420161212064513412/12/16 06:45:31  5-MIN K0J4 121145Z AUTO 00000KT 7SM OVC005 13/12 A3007 180 93 0 000/00 RMK AO2 RAB17E26 CIG 003V007 P0000 T01280117
63870K0J4 0J420161212065014112/12/16 06:50:31  5-MIN K0J4 121150Z AUTO 00000KT 8SM -RA OVC005 13/12 A3007 180 96 0 000/00 RMK AO2 RAB17E26B49 CIG 003V007 P0000 T01280122
63870K0J4 0J420161212065516812/12/16 06:55:31  5-MIN K0J4 121155Z AUTO 00000KT 9SM -RA OVC005 13/12 A3006 190 93 100 000/00 RMK AO2 RAB17E26B49 SLP177 P0000 60001 70001 T01330122 10133 20111 58017
63870K0J4 0J420161212070012012/12/16 07:00:31  5-MIN K0J4 121200Z AUTO 00000KT 10SM -RA OVC004 13/12 A3006 190 93 100 000/00 RMK AO2 P0000 T01330122
63870K0J4 0J420161212070512212/12/16 07:05:31  5-MIN K0J4 121205Z AUTO 00000KT 10SM OVC004 13/12 A3007 180 93 100 000/00 RMK AO2 RAE04 P0000 T01330122
63870K0J4 0J420161212071012212/12/16 07:10:31  5-MIN K0J4 121210Z AUTO 00000KT 10SM OVC004 14/12 A3007 180 90 100 000/00 RMK AO2 RAE04 P0000 T01390122
63870K0J4 0J420161212071512012/12/16 07:15:31  5-MIN K0J4 121215Z AUTO 00000KT 10SM -RA OVC004 14/13 A3007 180 93 100 000/00 RMK AO2 P0000 T01390128
63870K0J4 0J420161212072012012/12/16 07:20:31  5-MIN K0J4 121220Z AUTO 00000KT 10SM -RA OVC004 13/12 A3007 180 93 100 000/00 RMK AO2 P0000 T01330122
63870K0J4 0J420161212072512212/12/16 07:25:31  5-MIN K0J4 121225Z AUTO 00000KT 10SM OVC003 13/12 A3007 180 93 100 000/00 RMK AO2 RAE24 P0000 T01330122
63870K0J4 0J420161212073012812/12/16 07:30:31  5-MIN K0J4 121230Z AUTO 00000KT 9SM BKN003 OVC080 13/12 A3007 180 93 100 000/00 RMK AO2 RAE24 P0000 T01330122
63870K0J4 0J420161212073512812/12/16 07:35:31  5-MIN K0J4 121235Z AUTO 00000KT 8SM BKN003 OVC080 13/12 A3007 180 93 100 000/00 RMK AO2 RAE24 P0000 T01330122
63870K0J4 0J420161212074012612/12/16 07:40:31  5-MIN K0J4 121240Z AUTO 00000KT 7SM BKN003 OVC080 13/12 A3007 180 93 0 000/00 RMK AO2 RAE24 P0000 T01280117
63870K0J4 0J420161212074512812/12/16 07:45:31  5-MIN K0J4 121245Z AUTO 00000KT 7SM BKN003 OVC080 13/12 A3007 180 89 100 000/00 RMK AO2 RAE24 P0000 T01330117
63870K0J4 0J420161212075012612/12/16 07:50:31  5-MIN K0J4 121250Z AUTO 00000KT 7SM BKN003 OVC080 13/12 A3007 180 93 0 000/00 RMK AO2 RAE24 P0000 T01280117
63870K0J4 0J420161212075513512/12/16 07:55:31  5-MIN K0J4 121255Z AUTO 00000KT 7SM BKN003 OVC080 13/12 A3007 170 93 100 000/00 RMK AO2 RAE24 SLP182 P0000 T01330122
63870K0J4 0J420161212080010912/12/16 08:00:31  5-MIN K0J4 121300Z AUTO 00000KT 7SM OVC001 13/12 A3008 170 93 100 000/00 RMK AO2 T01330122
63870K0J4 0J420161212080511212/12/16 08:05:31  5-MIN K0J4 121305Z AUTO 00000KT 6SM BR OVC001 13/12 A3008 170 93 100 000/00 RMK AO2 T01330122
63870K0J4 0J420161212081011612/12/16 08:10:31  5-MIN K0J4 121310Z AUTO 00000KT 1 3/4SM BR OVC001 13/12 A3008 170 93 100 000/00 RMK AO2 T01330122
63870K0J4 0J420161212081511412/12/16 08:15:31  5-MIN K0J4 121315Z AUTO 00000KT 3/4SM BR OVC001 13/12 A3008 170 93 100 000/00 RMK AO2 T01330122
63870K0J4 0J420161212082011412/12/16 08:20:31  5-MIN K0J4 121320Z AUTO 00000KT 1/2SM FG OVC001 14/13 A3008 170 93 100 000/00 RMK AO2 T01390128
63870K0J4 0J420161212082511412/12/16 08:25:31  5-MIN K0J4 121325Z AUTO 00000KT 1/2SM FG OVC001 14/13 A3009 160 93 100 000/00 RMK AO2 T01390128
63870K0J4 0J420161212083011412/12/16 08:30:31  5-MIN K0J4 121330Z AUTO 00000KT 1/4SM FG OVC001 14/13 A3009 160 96 100 000/00 RMK AO2 T01390133
63870K0J4 0J420161212083511312/12/16 08:35:31  5-MIN K0J4 121335Z AUTO 00000KT 1/4SM FG VV001 14/13 A3009 160 96 100 000/00 RMK AO2 T01390133
63870K0J4 0J420161212084012912/12/16 08:40:31  5-MIN K0J4 121340Z AUTO 00000KT 1/4SM -RA FG VV001 14/13 A3009 160 96 100 000/00 RMK AO2 RAB39 P0000 T01390133
63870K0J4 0J420161212084512912/12/16 08:45:31  5-MIN K0J4 121345Z AUTO 00000KT 1/4SM -RA FG VV001 14/13 A3010 150 96 100 000/00 RMK AO2 RAB39 P0000 T01390133
63870K0J4 0J420161212085012812/12/16 08:50:31  5-MIN K0J4 121350Z AUTO 00000KT 1/4SM FG VV001 14/14 A3010 150 96 200 000/00 RMK AO2 RAB39E48 P0000 T01440139
63870K0J4 0J420161212085513512/12/16 08:55:31  5-MIN K0J4 121355Z AUTO 00000KT 1/4SM FG VV001 14/14 A3010 150 96 200 000/00 RMK AO2 RAB39E48 SLP191 P0000 T01440139
63870K0J4 0J420161212090011312/12/16 09:00:31  5-MIN K0J4 121400Z AUTO 21003KT 1/4SM FG VV001 15/14 A3010 150 93 200 210/03 RMK AO2 T01500139
63870K0J4 0J420161212090512912/12/16 09:05:31  5-MIN K0J4 121405Z AUTO 19003KT 1/4SM -RA FG VV001 14/14 A3010 150 96 200 190/03 RMK AO2 RAB03 P0000 T01440139
63870K0J4 0J420161212091012912/12/16 09:10:31  5-MIN K0J4 121410Z AUTO 20003KT 1/4SM -RA FG VV001 14/14 A3010 150 96 200 200/03 RMK AO2 RAB03 P0000 T01440139
63870K0J4 0J420161212091513012/12/16 09:15:31  5-MIN K0J4 121415Z AUTO 20003KT M1/4SM -RA FG VV001 15/14 A3011 150 93 200 200/03 RMK AO2 RAB03 P0000 T01500139
63870K0J4 0J420161212092013012/12/16 09:20:31  5-MIN K0J4 121420Z AUTO 22003KT M1/4SM -RA FG VV001 15/14 A3011 140 96 200 220/03 RMK AO2 RAB03 P0000 T01500144
63870K0J4 0J420161212092513012/12/16 09:25:31  5-MIN K0J4 121425Z AUTO 21003KT M1/4SM -RA FG VV001 16/15 A3011 140 96 300 210/03 RMK AO2 RAB03 P0000 T01560150
63870K0J4 0J420161212093012912/12/16 09:30:31  5-MIN K0J4 121430Z AUTO 22004KT 1/4SM -RA FG VV001 16/15 A3011 140 96 300 220/04 RMK AO2 RAB03 P0000 T01560150
63870K0J4 0J420161212093512812/12/16 09:35:31  5-MIN K0J4 121435Z AUTO 22003KT 1/4SM FG VV001 16/15 A3012 130 96 300 220/03 RMK AO2 RAB03E33 P0000 T01560150
63870K0J4 0J420161212094012812/12/16 09:40:31  5-MIN K0J4 121440Z AUTO 00000KT 1/4SM FG VV001 16/15 A3012 130 96 300 000/00 RMK AO2 RAB03E33 P0000 T01560150
63870K0J4 0J420161212094512912/12/16 09:45:31  5-MIN K0J4 121445Z AUTO 00000KT 1/4SM -RA FG VV001 16/15 A3012 130 93 300 000/00 RMK AO2 RAB03 P0000 T01610150
63870K0J4 0J420161212095012912/12/16 09:50:31  5-MIN K0J4 121450Z AUTO 00000KT 1/2SM -RA FG VV001 16/16 A3013 130 96 300 000/00 RMK AO2 RAB03 P0000 T01610156
63870K0J4 0J420161212095514812/12/16 09:55:31  5-MIN K0J4 121455Z AUTO 00000KT 1/2SM -RA FG VV001 16/16 A3013 130 96 300 000/00 RMK AO2 RAB03 SLP200 P0000 60000 T01610156 58010
63870K0J4 0J420161212100012412/12/16 10:00:31  5-MIN K0J4 121500Z AUTO 00000KT 1/2SM -RA FG OVC001 17/16 A3013 130 93 400 000/00 RMK AO2 P0000 T01670156
63870K0J4 0J420161212100512412/12/16 10:05:31  5-MIN K0J4 121505Z AUTO 00000KT 1SM BR OVC001 17/16 A3012 130 93 400 000/00 RMK AO2 RAE03 P0000 T01670156
63870K0J4 0J420161212101012412/12/16 10:10:31  5-MIN K0J4 121510Z AUTO VRB03KT 2SM BR OVC001 17/16 A3013 130 96 400 VRB/03 RMK AO2 RAE03 P0000 T01670161
63870K0J4 0J420161212101513112/12/16 10:15:31  5-MIN K0J4 121515Z AUTO 22005KT 6SM BR BKN001 OVC014 17/16 A3013 130 93 500 220/05 RMK AO2 RAE03 P0000 T01720161
63870K0J4 0J420161212102012812/12/16 10:20:31  5-MIN K0J4 121520Z AUTO VRB04KT 9SM BKN001 OVC012 17/16 A3013 130 93 500 VRB/04 RMK AO2 RAE03 P0000 T01720161
63870K0J4 0J420161212102514812/12/16 10:25:31  5-MIN K0J4 121525Z AUTO 22004KT 10SM SCT001 BKN006 OVC012 17/16 A3013 130 93 500 220/04 RMK AO2 RAE03 CIG 004V007 P0000 T01720161
63870K0J4 0J420161212103014712/12/16 10:30:31  5-MIN K0J4 121530Z AUTO 23005KT 9SM BKN003 BKN008 OVC012 17/17 A3013 130 96 500 230/05 RMK AO2 RAE03 CIG 001V005 P0000 T01720167
63870K0J4 0J420161212103514012/12/16 10:35:31  5-MIN K0J4 121535Z AUTO 24005KT 7SM BKN005 OVC012 18/17 A3013 130 93 500 240/05 RMK AO2 RAE03 CIG 001V009 P0000 T01780167
63870K0J4 0J420161212104014012/12/16 10:40:31  5-MIN K0J4 121540Z AUTO 23007KT 8SM BKN005 OVC012 18/17 A3012 130 93 500 230/07 RMK AO2 RAE03 CIG 003V009 P0000 T01780167
63870K0J4 0J420161212104512912/12/16 10:45:31  5-MIN K0J4 121545Z AUTO 24004KT 10SM BKN005 OVC008 18/17 A3013 130 93 500 240/04 RMK AO2 RAE03 P0000 T01780167
63870K0J4 0J420161212105014112/12/16 10:50:31  5-MIN K0J4 121550Z AUTO 24004KT 10SM BKN005 OVC012 18/17 A3012 130 93 500 240/04 RMK AO2 RAE03 CIG 003V010 P0000 T01780167
63870K0J4 0J420161212105514812/12/16 10:55:31  5-MIN K0J4 121555Z AUTO 23004KT 10SM BKN007 OVC010 18/17 A3012 130 90 600 230/04 RMK AO2 RAE03 CIG 003V009 SLP197 P0000 T01830167
63870K0J4 0J420161212110012912/12/16 11:00:31  5-MIN K0J4 121600Z AUTO VRB04KT 10SM BKN007 OVC010 18/17 A3012 130 90 600 VRB/04 RMK AO2 CIG 003V009 T01830167
63870K0J4 0J420161212110512212/12/16 11:05:31  5-MIN K0J4 121605Z AUTO VRB05KT 10SM OVC009 19/17 A3012 130 90 700 VRB/05 RMK AO2 CIG 003V012 T01890172
63870K0J4 0J420161212111012212/12/16 11:10:31  5-MIN K0J4 121610Z AUTO VRB06KT 10SM OVC009 19/17 A3012 130 87 700 VRB/06 RMK AO2 CIG 004V012 T01890167
63870K0J4 0J420161212111512212/12/16 11:15:31  5-MIN K0J4 121615Z AUTO 24007KT 10SM OVC009 19/17 A3012 130 84 700 240/07 RMK AO2 CIG 005V012 T01940167
63870K0J4 0J420161212112012212/12/16 11:20:31  5-MIN K0J4 121620Z AUTO VRB05KT 10SM OVC008 20/17 A3012 130 84 800 VRB/05 RMK AO2 CIG 005V011 T02000172
63870K0J4 0J420161212112512212/12/16 11:25:31  5-MIN K0J4 121625Z AUTO 27005KT 10SM BKN008 20/17 A3012 130 81 800 270/05 RMK AO2 CIG 006V011 T02000167
63870K0J4 0J420161212113012212/12/16 11:30:31  5-MIN K0J4 121630Z AUTO VRB06KT 10SM BKN008 19/17 A3012 130 84 700 VRB/06 RMK AO2 CIG 006V011 T01940167
63870K0J4 0J420161212113511012/12/16 11:35:31  5-MIN K0J4 121635Z AUTO 23005KT 10SM SCT009 19/17 A3012 140 84 700 230/05 RMK AO2 T01940167
63870K0J4 0J420161212114011012/12/16 11:40:31  5-MIN K0J4 121640Z AUTO 23006KT 10SM SCT009 20/17 A3012 140 81 800 230/06 RMK AO2 T02000167
63870K0J4 0J420161212114511012/12/16 11:45:31  5-MIN K0J4 121645Z AUTO 24006KT 10SM FEW009 21/17 A3012 140 78 900 240/06 RMK AO2 T02060167
63870K0J4 0J420161212115011012/12/16 11:50:31  5-MIN K0J4 121650Z AUTO VRB05KT 10SM FEW009 21/17 A3011 140 75 900 VRB/05 RMK AO2 T02110167
63870K0J4 0J420161212115511512/12/16 11:55:31  5-MIN K0J4 121655Z AUTO VRB06KT 10SM CLR 22/17 A3011 140 73 1000 VRB/06 RMK AO2 SLP193 T02170167
63870K0J4 0J420161212120012412/12/16 12:00:31  5-MIN K0J4 121700Z AUTO 24007KT 210V270 10SM CLR 22/17 A3011 140 73 1000 240/07 210V270 RMK AO2 T02170167
63870K0J4 0J420161212120511112/12/16 12:05:31  5-MIN K0J4 121705Z AUTO VRB04KT 10SM FEW015 22/17 A3011 140 73 1000 VRB/04 RMK AO2 T02170167
63870K0J4 0J420161212121011112/12/16 12:10:31  5-MIN K0J4 121710Z AUTO VRB04KT 10SM FEW015 22/16 A3011 150 68 1100 VRB/04 RMK AO2 T02220161
63870K0J4 0J420161212121510812/12/16 12:15:31  5-MIN K0J4 121715Z AUTO VRB05KT 10SM CLR 22/16 A3010 150 68 1000 VRB/05 RMK AO2 T02170156
63870K0J4 0J420161212122010812/12/16 12:20:31  5-MIN K0J4 121720Z AUTO VRB06KT 10SM CLR 22/16 A3010 150 65 1100 VRB/06 RMK AO2 T02220156
63870K0J4 0J420161212122510812/12/16 12:25:31  5-MIN K0J4 121725Z AUTO VRB05KT 10SM CLR 22/15 A3010 150 63 1100 VRB/05 RMK AO2 T02220150
63870K0J4 0J420161212123011012/12/16 12:30:31  5-MIN K0J4 121730Z AUTO VRB06KT 10SM CLR 22/15 A3010 150 63 1100 VRB/06 RMK AO2 T02220150 $
63870K0J4 0J420161212123511012/12/16 12:35:31  5-MIN K0J4 121735Z AUTO VRB06KT 10SM CLR 23/15 A3010 150 61 1100 VRB/06 RMK AO2 T02280150 $
63870K0J4 0J420161212124011012/12/16 12:40:31  5-MIN K0J4 121740Z AUTO VRB05KT 10SM CLR 23/15 A3010 150 61 1100 VRB/05 RMK AO2 T02280150 $
63870K0J4 0J420161212124511012/12/16 12:45:31  5-MIN K0J4 121745Z AUTO VRB03KT 10SM CLR 23/15 A3009 160 61 1100 VRB/03 RMK AO2 T02280150 $
63870K0J4 0J420161212125510312/12/16 12:55:31  5-MIN K0J4 121755Z AUTO VRB04KT A3008 M M M VRB/04 RMK AO2 SLPNO 60000 10233 20128 $
63870K0J4 0J420161212130010412/12/16 13:00:31  5-MIN K0J4 121800Z AUTO VRB04KT 10SM 23/16 A3008 170 63 1200 VRB/04 RMK AO2 T02280156
63870K0J4 0J420161212130510412/12/16 13:05:31  5-MIN K0J4 121805Z AUTO VRB03KT 10SM 24/16 A3008 170 59 1300 VRB/03 RMK AO2 T02390156
63870K0J4 0J420161212131507712/12/16 13:15:31  5-MIN K0J4 121815Z AUTO 23005KT A3007 M M M 230/05 RMK AO2
63870K0J4 0J420161212132010112/12/16 13:20:31  5-MIN K0J4 121820Z AUTO VRB05KT 24/15 A3007 180 55 1400 VRB/05 RMK AO2 T02440150 $
63870K0J4 0J420161212132510612/12/16 13:25:31  5-MIN K0J4 121825Z AUTO 00000KT 10SM 25/15 A3006 190 53 1400 000/00 RMK AO2 T02500150 $
63870K0J4 0J420161212133010612/12/16 13:30:31  5-MIN K0J4 121830Z AUTO 23006KT 10SM 24/14 A3006 190 53 1400 230/06 RMK AO2 T02440144 $
63870K0J4 0J420161212133510612/12/16 13:35:31  5-MIN K0J4 121835Z AUTO VRB06KT 10SM 24/14 A3005 190 53 1400 VRB/06 RMK AO2 T02440144 $
63870K0J4 0J420161212134010612/12/16 13:40:31  5-MIN K0J4 121840Z AUTO 23006KT 10SM 24/14 A3005 200 53 1400 230/06 RMK AO2 T02440144 $
63870K0J4 0J420161212134511012/12/16 13:45:31  5-MIN K0J4 121845Z AUTO 23006KT 10SM CLR 24/14 A3005 200 53 1400 230/06 RMK AO2 T02440144 $
63870K0J4 0J420161212135011012/12/16 13:50:31  5-MIN K0J4 121850Z AUTO 23006KT 10SM CLR 24/14 A3004 200 53 1400 230/06 RMK AO2 T02440144 $
63870K0J4 0J420161212135511712/12/16 13:55:31  5-MIN K0J4 121855Z AUTO 25005KT 10SM CLR 25/14 A3004 200 51 1400 250/05 RMK AO2 SLP171 T02500144 $
63870K0J4 0J420161212140011012/12/16 14:00:31  5-MIN K0J4 121900Z AUTO 23006KT 10SM CLR 25/14 A3004 210 51 1500 230/06 RMK AO2 T02500144 $
63870K0J4 0J420161212140511012/12/16 14:05:31  5-MIN K0J4 121905Z AUTO VRB06KT 10SM CLR 25/14 A3004 210 51 1500 VRB/06 RMK AO2 T02500144 $
63870K0J4 0J420161212141011012/12/16 14:10:31  5-MIN K0J4 121910Z AUTO VRB04KT 10SM CLR 25/14 A3004 210 51 1500 VRB/04 RMK AO2 T02500144 $
63870K0J4 0J420161212141511012/12/16 14:15:31  5-MIN K0J4 121915Z AUTO 22009KT 10SM CLR 26/14 A3003 210 49 1500 220/09 RMK AO2 T02560144 $
63870K0J4 0J420161212142011012/12/16 14:20:31  5-MIN K0J4 121920Z AUTO 23007KT 10SM CLR 26/14 A3003 210 48 1500 230/07 RMK AO2 T02560139 $
63870K0J4 0J420161212142511012/12/16 14:25:31  5-MIN K0J4 121925Z AUTO 22007KT 10SM CLR 26/14 A3003 210 48 1500 220/07 RMK AO2 T02560139 $
63870K0J4 0J420161212143011012/12/16 14:30:31  5-MIN K0J4 121930Z AUTO VRB06KT 10SM CLR 26/14 A3003 210 48 1500 VRB/06 RMK AO2 T02560139 $
63870K0J4 0J420161213002511312/13/16 00:25:31  5-MIN K0J4 130525Z AUTO 00000KT 3/4SM BR VV004 14/13 A3008 170 93 100 000/00 RMK AO2 T01390128
63870K0J4 0J420161213003011312/13/16 00:30:31  5-MIN K0J4 130530Z AUTO 00000KT 1/2SM FG VV005 14/13 A3008 170 93 100 000/00 RMK AO2 T01390128
63870K0J4 0J420161213003511112/13/16 00:35:31  5-MIN K0J4 130535Z AUTO 00000KT 1SM BR VV006 13/13 A3008 170 96 100 000/00 RMK AO2 T01330128
63870K0J4 0J420161213004012612/13/16 00:40:31  5-MIN K0J4 130540Z AUTO 00000KT 1 1/4SM BR BKN008 13/12 A3008 170 93 100 000/00 RMK AO2 VIS 1/2V5 T01330122
63870K0J4 0J420161213004511112/13/16 00:45:31  5-MIN K0J4 130545Z AUTO 00000KT 1/2SM FG VV007 13/12 A3008 170 96 0 000/00 RMK AO2 T01280122
63870K0J4 0J420161213005011112/13/16 00:50:31  5-MIN K0J4 130550Z AUTO 00000KT 1/4SM FG VV007 13/12 A3008 170 96 0 000/00 RMK AO2 T01280122
63870K0J4 0J420161213005514112/13/16 00:55:31  5-MIN K0J4 130555Z AUTO 00000KT 1/2SM FG VV008 13/12 A3008 170 96 0 000/00 RMK AO2 SLPNO 60000 T01280122 10206 20128 51009
63870K0J4 0J420161213010011112/13/16 01:00:31  5-MIN K0J4 130600Z AUTO 00000KT 3/4SM BR VV009 13/12 A3007 170 96 0 000/00 RMK AO2 T01280122
63870K0J4 0J420161213010510912/13/16 01:05:31  5-MIN K0J4 130605Z AUTO 00000KT 1SM BR VV010 12/12 A3007 180 96 0 000/00 RMK AO2 T01220117
63870K0J4 0J420161213011011412/13/16 01:10:31  5-MIN K0J4 130610Z AUTO 00000KT 1 1/4SM BR BKN009 12/11 A3007 180 93 0 000/00 RMK AO2 T01220111
63870K0J4 0J420161213011511412/13/16 01:15:31  5-MIN K0J4 130615Z AUTO 00000KT 2 1/2SM BR BKN009 13/12 A3007 180 93 0 000/00 RMK AO2 T01280117
63870K0J4 0J420161213012013012/13/16 01:20:31  5-MIN K0J4 130620Z AUTO 00000KT 1 1/2SM BR BKN009 BKN017 BKN029 13/12 A3007 180 93 100 000/00 RMK AO2 T01330122
63870K0J4 0J420161213012513012/13/16 01:25:31  5-MIN K0J4 130625Z AUTO 00000KT 1 1/4SM BR FEW009 SCT012 BKN017 13/13 A3007 180 96 100 000/00 RMK AO2 T01330128
63870K0J4 0J420161213013013012/13/16 01:30:31  5-MIN K0J4 130630Z AUTO 00000KT 1 1/4SM BR FEW008 SCT017 BKN029 13/13 A3007 180 96 100 000/00 RMK AO2 T01330128
63870K0J4 0J420161213013513012/13/16 01:35:31  5-MIN K0J4 130635Z AUTO 00000KT 1 3/4SM BR FEW008 SCT017 OVC029 13/13 A3007 180 96 100 000/00 RMK AO2 T01330128
63870K0J4 0J420161213014012312/13/16 01:40:31  5-MIN K0J4 130640Z AUTO 00000KT 8SM FEW008 BKN017 OVC029 13/13 A3006 190 96 100 000/00 RMK AO2 T01330128
63870K0J4 0J420161213014511612/13/16 01:45:31  5-MIN K0J4 130645Z AUTO 00000KT 8SM BKN017 OVC029 13/13 A3006 190 96 100 000/00 RMK AO2 T01330128
63870K0J4 0J420161213015011612/13/16 01:50:31  5-MIN K0J4 130650Z AUTO 00000KT 8SM SCT017 OVC029 13/13 A3006 190 96 100 000/00 RMK AO2 T01330128
63870K0J4 0J420161213015513312/13/16 01:55:31  5-MIN K0J4 130655Z AUTO 00000KT 5SM BR SCT008 BKN017 OVC030 14/13 A3006 190 93 100 000/00 RMK AO2 SLP175 T01390128
63870K0J4 0J420161213020012612/13/16 02:00:31  5-MIN K0J4 130700Z AUTO 00000KT 4SM BR BKN008 BKN017 OVC030 14/13 A3006 190 93 100 000/00 RMK AO2 T01390128
63870K0J4 0J420161213020512612/13/16 02:05:31  5-MIN K0J4 130705Z AUTO 00000KT 6SM BR BKN007 BKN012 OVC030 14/13 A3006 190 93 100 000/00 RMK AO2 T01390128
63870K0J4 0J420161213021012312/13/16 02:10:31  5-MIN K0J4 130710Z AUTO 00000KT 8SM BKN007 BKN014 BKN032 14/13 A3006 190 93 100 000/00 RMK AO2 T01390128
63870K0J4 0J420161213021507012/13/16 02:15:31  5-MIN K0J4 130715Z AUTO M M M M /M RMK AO2 FZRANO $
63870K0J4 0J420161213022010012/13/16 02:20:31  5-MIN K0J4 130720Z AUTO 00000KT 14/13 A3006 190 93 200 000/00 RMK AO2 T01440133 $
63870K0J4 0J420161213022510712/13/16 02:25:31  5-MIN K0J4 130725Z AUTO 00000KT 3SM BR 14/13 A3006 190 93 200 000/00 RMK AO2 T01440133 $
63870K0J4 0J420161213023010712/13/16 02:30:31  5-MIN K0J4 130730Z AUTO 00000KT 2SM BR 14/13 A3005 190 93 200 000/00 RMK AO2 T01440133 $
63870K0J4 0J420161213023511112/13/16 02:35:31  5-MIN K0J4 130735Z AUTO 00000KT 1 3/4SM BR 14/13 A3005 190 93 200 000/00 RMK AO2 T01440133 $
63870K0J4 0J420161213024011112/13/16 02:40:31  5-MIN K0J4 130740Z AUTO 00000KT 1 1/4SM BR 14/13 A3005 190 93 200 000/00 RMK AO2 T01440133 $
63870K0J4 0J420161213024513012/13/16 02:45:31  5-MIN K0J4 130745Z AUTO 00000KT 3/4SM BR SCT001 BKN021 OVC033 15/14 A3005 190 93 300 000/00 RMK AO2 T01500139 $
63870K0J4 0J420161213025013012/13/16 02:50:31  5-MIN K0J4 130750Z AUTO 00000KT 3/4SM BR SCT001 BKN021 OVC031 15/14 A3005 190 93 300 000/00 RMK AO2 T01500139 $
63870K0J4 0J420161213025512012/13/16 02:55:31  5-MIN K0J4 130755Z AUTO 00000KT 1/2SM FG BKN001 BKN021 OVC031 15/14 A3005 200 93 300 000/00 RMK AO2 $
63870K0J4 0J420161213030013012/13/16 03:00:31  5-MIN K0J4 130800Z AUTO 21003KT 1/2SM FG BKN001 BKN024 OVC031 15/14 A3005 190 96 300 210/03 RMK AO2 T01500144 $
63870K0J4 0J420161213030513912/13/16 03:05:31  5-MIN K0J4 130805Z AUTO 21004KT 1/2SM -RA FG BKN001 OVC024 16/14 A3005 200 93 300 210/04 RMK AO2 RAB03 P0000 T01560144 $
63870K0J4 0J420161213031013112/13/16 03:10:31  5-MIN K0J4 130810Z AUTO 21005KT 1/2SM -RA FG VV002 17/16 A3005 190 93 500 210/05 RMK AO2 RAB03 P0000 T01670156 $
63870K0J4 0J420161213031513112/13/16 03:15:31  5-MIN K0J4 130815Z AUTO 22005KT 1/2SM -RA FG VV002 17/16 A3005 190 93 500 220/05 RMK AO2 RAB03 P0000 T01720161 $
63870K0J4 0J420161213032013112/13/16 03:20:31  5-MIN K0J4 130820Z AUTO 20004KT 1/2SM -RA FG VV002 17/16 A3005 190 96 500 200/04 RMK AO2 RAB03 P0000 T01670161 $
63870K0J4 0J420161213032513112/13/16 03:25:31  5-MIN K0J4 130825Z AUTO 20003KT 1/4SM -RA FG VV002 17/16 A3005 190 96 500 200/03 RMK AO2 RAB03 P0000 T01670161 $
63870K0J4 0J420161213033013112/13/16 03:30:31  5-MIN K0J4 130830Z AUTO 22005KT 1/4SM -RA FG VV002 17/16 A3005 190 93 500 220/05 RMK AO2 RAB03 P0000 T01670156 $
63870K0J4 0J420161213033513112/13/16 03:35:31  5-MIN K0J4 130835Z AUTO 21004KT 1/4SM -RA FG VV001 17/16 A3005 190 96 500 210/04 RMK AO2 RAB03 P0000 T01670161 $
63870K0J4 0J420161213034013112/13/16 03:40:31  5-MIN K0J4 130840Z AUTO 20004KT 1/4SM -RA FG VV001 17/16 A3005 190 96 500 200/04 RMK AO2 RAB03 P0000 T01670161 $
63870K0J4 0J420161213034513112/13/16 03:45:31  5-MIN K0J4 130845Z AUTO 20005KT 1/4SM -RA FG VV001 17/16 A3005 190 96 500 200/05 RMK AO2 RAB03 P0000 T01670161 $
63870K0J4 0J420161213035013112/13/16 03:50:31  5-MIN K0J4 130850Z AUTO 20005KT 1/4SM -RA FG VV001 17/16 A3005 190 96 500 200/05 RMK AO2 RAB03 P0000 T01670161 $
63870K0J4 0J420161213035514412/13/16 03:55:31  5-MIN K0J4 130855Z AUTO 21005KT 1/4SM -RA FG VV001 17/16 A3005 190 93 500 210/05 RMK AO2 RAB03 SLP174 P0000 60000 T01720161 $
63870K0J4 0J420161213040012512/13/16 04:00:31  5-MIN K0J4 130900Z AUTO 21005KT 1/4SM -RA FG VV001 17/16 A3005 190 93 500 210/05 RMK AO2 P0000 T01720161 $
63870K0J4 0J420161213040512512/13/16 04:05:31  5-MIN K0J4 130905Z AUTO 20007KT 1/4SM -RA FG VV001 17/17 A3005 190 96 500 200/07 RMK AO2 P0000 T01720167 $
63870K0J4 0J420161213041012512/13/16 04:10:31  5-MIN K0J4 130910Z AUTO 20007KT 1/2SM -RA FG VV001 17/17 A3005 190 96 500 200/07 RMK AO2 P0000 T01720167 $
63870K0J4 0J420161213041512712/13/16 04:15:31  5-MIN K0J4 130915Z AUTO 20007KT 3/4SM BR VV001 17/17 A3005 200 96 500 200/07 RMK AO2 RAE11 P0000 T01720167 $
63870K0J4 0J420161213042012712/13/16 04:20:31  5-MIN K0J4 130920Z AUTO 20007KT 1/2SM FG VV001 17/17 A3005 190 96 500 200/07 RMK AO2 RAE11 P0000 T01720167 $
63870K0J4 0J420161213042512712/13/16 04:25:31  5-MIN K0J4 130925Z AUTO 21006KT 1/2SM FG VV001 17/17 A3005 200 96 500 210/06 RMK AO2 RAE11 P0000 T01720167 $
63870K0J4 0J420161213043012712/13/16 04:30:31  5-MIN K0J4 130930Z AUTO 21005KT 1/2SM FG VV001 17/17 A3005 200 96 500 210/05 RMK AO2 RAE11 P0000 T01720167 $
63870K0J4 0J420161213043512712/13/16 04:35:31  5-MIN K0J4 130935Z AUTO 21005KT 1/2SM FG VV001 17/17 A3005 200 96 500 210/05 RMK AO2 RAE11 P0000 T01720167 $
63870K0J4 0J420161213044012712/13/16 04:40:31  5-MIN K0J4 130940Z AUTO 21006KT 1/2SM FG VV001 17/17 A3005 200 96 500 210/06 RMK AO2 RAE11 P0000 T01720167 $
63870K0J4 0J420161213044512712/13/16 04:45:31  5-MIN K0J4 130945Z AUTO 20006KT 1/2SM FG VV001 17/17 A3005 200 96 500 200/06 RMK AO2 RAE11 P0000 T01720167 $
63870K0J4 0J420161213045012712/13/16 04:50:31  5-MIN K0J4 130950Z AUTO 20005KT 1/2SM FG VV001 18/17 A3005 200 93 600 200/05 RMK AO2 RAE11 P0000 T01780167 $
63870K0J4 0J420161213045513412/13/16 04:55:31  5-MIN K0J4 130955Z AUTO 20005KT 1/4SM FG VV001 18/17 A3005 200 93 600 200/05 RMK AO2 RAE11 SLP171 P0000 T01780167 $
63870K0J4 0J420161213050011512/13/16 05:00:31  5-MIN K0J4 131000Z AUTO 20005KT 1/4SM FG VV001 18/17 A3005 200 93 600 200/05 RMK AO2 T01780167 $
63870K0J4 0J420161213050511512/13/16 05:05:31  5-MIN K0J4 131005Z AUTO 21005KT 1/4SM FG VV001 18/17 A3005 200 93 600 210/05 RMK AO2 T01780167 $
63870K0J4 0J420161213051013112/13/16 05:10:31  5-MIN K0J4 131010Z AUTO 21005KT 1/4SM -RA FG VV001 17/17 A3005 200 96 500 210/05 RMK AO2 RAB07 P0000 T01720167 $
63870K0J4 0J420161213051513112/13/16 05:15:31  5-MIN K0J4 131015Z AUTO 21006KT 1/4SM -RA FG VV001 18/17 A3005 200 93 600 210/06 RMK AO2 RAB07 P0000 T01780167 $
63870K0J4 0J420161213052013112/13/16 05:20:31  5-MIN K0J4 131020Z AUTO 21005KT 1/4SM -RA FG VV001 18/17 A3005 200 93 600 210/05 RMK AO2 RAB07 P0000 T01780167 $
63870K0J4 0J420161213052513112/13/16 05:25:31  5-MIN K0J4 131025Z AUTO 20005KT 1/4SM -RA FG VV001 18/17 A3005 200 96 600 200/05 RMK AO2 RAB07 P0000 T01780172 $
63870K0J4 0J420161213053013012/13/16 05:30:31  5-MIN K0J4 131030Z AUTO 20005KT 1/2SM FG VV001 18/17 A3005 200 96 600 200/05 RMK AO2 RAB07E27 P0000 T01780172 $
63870K0J4 0J420161213053513012/13/16 05:35:31  5-MIN K0J4 131035Z AUTO 21005KT 1/2SM FG VV001 18/17 A3005 200 96 600 210/05 RMK AO2 RAB07E27 P0000 T01780172 $
63870K0J4 0J420161213054013012/13/16 05:40:31  5-MIN K0J4 131040Z AUTO 20005KT 1/4SM FG VV001 18/17 A3005 190 96 600 200/05 RMK AO2 RAB07E27 P0000 T01780172 $
63870K0J4 0J420161213054513012/13/16 05:45:31  5-MIN K0J4 131045Z AUTO 20005KT 1/4SM FG VV001 18/17 A3005 190 96 600 200/05 RMK AO2 RAB07E27 P0000 T01780172 $
63870K0J4 0J420161213055013012/13/16 05:50:31  5-MIN K0J4 131050Z AUTO 20005KT 1/4SM FG VV001 18/17 A3005 200 93 700 200/05 RMK AO2 RAB07E27 P0000 T01830172 $
63870K0J4 0J420161213055513712/13/16 05:55:31  5-MIN K0J4 131055Z AUTO 20005KT 1/4SM FG VV001 18/17 A3005 200 93 700 200/05 RMK AO2 RAB07E27 SLP172 P0000 T01830172 $
63870K0J4 0J420161213060011512/13/16 06:00:31  5-MIN K0J4 131100Z AUTO 21005KT 1/4SM FG VV001 18/17 A3005 200 93 700 210/05 RMK AO2 T01830172 $
63870K0J4 0J420161213060511512/13/16 06:05:31  5-MIN K0J4 131105Z AUTO 21005KT 1/4SM FG VV001 18/17 A3005 190 96 600 210/05 RMK AO2 T01780172 $
63870K0J4 0J420161213061011512/13/16 06:10:31  5-MIN K0J4 131110Z AUTO 21004KT 1/4SM FG VV001 18/17 A3005 190 96 600 210/04 RMK AO2 T01780172 $
63870K0J4 0J420161213061511512/13/16 06:15:31  5-MIN K0J4 131115Z AUTO 21004KT 1/4SM FG VV001 18/17 A3005 190 96 600 210/04 RMK AO2 T01780172 $
63870K0J4 0J420161213062011512/13/16 06:20:31  5-MIN K0J4 131120Z AUTO 21005KT 1/4SM FG VV001 18/17 A3005 190 96 600 210/05 RMK AO2 T01780172 $
63870K0J4 0J420161213062511512/13/16 06:25:31  5-MIN K0J4 131125Z AUTO 20005KT 1/4SM FG VV001 18/17 A3005 190 96 600 200/05 RMK AO2 T01780172 $
63870K0J4 0J420161213063011512/13/16 06:30:31  5-MIN K0J4 131130Z AUTO 21006KT 1/4SM FG VV001 18/17 A3005 190 93 700 210/06 RMK AO2 T01830172 $
63870K0J4 0J420161213063511512/13/16 06:35:31  5-MIN K0J4 131135Z AUTO 21005KT 1/4SM FG VV001 18/17 A3006 190 93 700 210/05 RMK AO2 T01830172 $
63870K0J4 0J420161213064011512/13/16 06:40:31  5-MIN K0J4 131140Z AUTO 21005KT 1/4SM FG VV001 18/17 A3006 190 93 700 210/05 RMK AO2 T01830172 $
63870K0J4 0J420161213064511512/13/16 06:45:31  5-MIN K0J4 131145Z AUTO 22004KT 1/4SM FG VV001 18/17 A3006 190 93 700 220/04 RMK AO2 T01830172 $
63870K0J4 0J420161213065011512/13/16 06:50:31  5-MIN K0J4 131150Z AUTO 21004KT 1/4SM FG VV001 18/17 A3006 190 93 700 210/04 RMK AO2 T01830172 $
63870K0J4 0J420161213065514012/13/16 06:55:31  5-MIN K0J4 131155Z AUTO 20004KT 1/4SM FG VV001 18/18 A3005 200 96 700 200/04 RMK AO2 SLP173 60000 T01830178 10183 20139 $
63870K0J4 0J420161213070011512/13/16 07:00:31  5-MIN K0J4 131200Z AUTO 20004KT 1/4SM FG VV001 18/18 A3005 190 96 700 200/04 RMK AO2 T01830178 $
63870K0J4 0J420161213070511512/13/16 07:05:31  5-MIN K0J4 131205Z AUTO 20004KT 1/4SM FG VV001 18/18 A3005 190 96 700 200/04 RMK AO2 T01830178 $
63870K0J4 0J420161213071011512/13/16 07:10:31  5-MIN K0J4 131210Z AUTO 19004KT 1/4SM FG VV001 18/18 A3005 190 96 700 190/04 RMK AO2 T01830178 $
63870K0J4 0J420161213071511512/13/16 07:15:31  5-MIN K0J4 131215Z AUTO 21005KT 1/4SM FG VV001 18/18 A3006 190 96 700 210/05 RMK AO2 T01830178 $
63870K0J4 0J420161213072011512/13/16 07:20:31  5-MIN K0J4 131220Z AUTO 22003KT 1/4SM FG VV001 18/18 A3006 190 96 700 220/03 RMK AO2 T01830178 $
63870K0J4 0J420161213072511512/13/16 07:25:31  5-MIN K0J4 131225Z AUTO 00000KT 1/4SM FG VV001 18/18 A3006 190 96 700 000/00 RMK AO2 T01830178 $
63870K0J4 0J420161213073011512/13/16 07:30:31  5-MIN K0J4 131230Z AUTO 00000KT 1/4SM FG VV001 18/18 A3006 180 96 700 000/00 RMK AO2 T01830178 $
63870K0J4 0J420161213073511512/13/16 07:35:31  5-MIN K0J4 131235Z AUTO 00000KT 1/4SM FG VV001 18/18 A3006 180 96 700 000/00 RMK AO2 T01830178 $
63870K0J4 0J420161213074011512/13/16 07:40:31  5-MIN K0J4 131240Z AUTO 23004KT 1/4SM FG VV001 18/18 A3006 180 96 700 230/04 RMK AO2 T01830178 $
63870K0J4 0J420161213074511512/13/16 07:45:31  5-MIN K0J4 131245Z AUTO 00000KT 1/4SM FG VV001 18/18 A3006 180 96 700 000/00 RMK AO2 T01830178 $
63870K0J4 0J420161213075011512/13/16 07:50:31  5-MIN K0J4 131250Z AUTO 23003KT 1/4SM FG VV001 18/18 A3007 180 96 700 230/03 RMK AO2 T01830178 $
63870K0J4 0J420161213075512012/13/16 07:55:31  5-MIN K0J4 131255Z AUTO 22003KT 1/4SM FG VV001 18/18 A3007 180 96 700 220/03 RMK AO2 SLP179 T01830178
63870K0J4 0J420161213080011312/13/16 08:00:31  5-MIN K0J4 131300Z AUTO 23004KT 1/4SM FG VV001 18/18 A3007 180 96 700 230/04 RMK AO2 T01830178
63870K0J4 0J420161213080511312/13/16 08:05:31  5-MIN K0J4 131305Z AUTO 22005KT 1/4SM FG VV001 18/18 A3007 180 96 700 220/05 RMK AO2 T01830178
63870K0J4 0J420161213081011312/13/16 08:10:31  5-MIN K0J4 131310Z AUTO 22004KT 1/4SM FG VV001 18/18 A3007 180 96 600 220/04 RMK AO2 T01830178
63870K0J4 0J420161213081511312/13/16 08:15:31  5-MIN K0J4 131315Z AUTO 23004KT 1/4SM FG VV001 19/18 A3007 180 93 700 230/04 RMK AO2 T01890178
63870K0J4 0J420161213082011312/13/16 08:20:31  5-MIN K0J4 131320Z AUTO 22003KT 1/4SM FG VV001 19/18 A3008 170 93 700 220/03 RMK AO2 T01890178
63870K0J4 0J420161213082511312/13/16 08:25:31  5-MIN K0J4 131325Z AUTO 00000KT 1/4SM FG VV001 19/18 A3007 170 97 700 000/00 RMK AO2 T01890183
63870K0J4 0J420161213083011312/13/16 08:30:31  5-MIN K0J4 131330Z AUTO 00000KT 1/4SM FG VV001 19/18 A3007 170 97 700 000/00 RMK AO2 T01890183
63870K0J4 0J420161213083511312/13/16 08:35:31  5-MIN K0J4 131335Z AUTO 20003KT 1/4SM FG VV001 19/18 A3007 180 97 700 200/03 RMK AO2 T01890183
63870K0J4 0J420161213084011312/13/16 08:40:31  5-MIN K0J4 131340Z AUTO 21004KT 1/4SM FG VV001 19/18 A3007 180 97 700 210/04 RMK AO2 T01890183
63870K0J4 0J420161213084511312/13/16 08:45:31  5-MIN K0J4 131345Z AUTO 20004KT 1/4SM FG VV001 19/18 A3007 180 97 700 200/04 RMK AO2 T01890183
63870K0J4 0J420161213085011312/13/16 08:50:31  5-MIN K0J4 131350Z AUTO 22004KT 1/4SM FG VV001 19/18 A3008 170 97 700 220/04 RMK AO2 T01890183
63870K0J4 0J420161213085512012/13/16 08:55:31  5-MIN K0J4 131355Z AUTO 21004KT 1/4SM FG VV001 19/18 A3008 170 97 700 210/04 RMK AO2 SLP182 T01890183
63870K0J4 0J420161213090011312/13/16 09:00:31  5-MIN K0J4 131400Z AUTO 22004KT 1/4SM FG VV001 19/18 A3008 170 97 700 220/04 RMK AO2 T01890183
63870K0J4 0J420161213090511312/13/16 09:05:31  5-MIN K0J4 131405Z AUTO 22004KT 1/4SM FG VV001 19/18 A3008 170 97 700 220/04 RMK AO2 T01890183
63870K0J4 0J420161213091011312/13/16 09:10:31  5-MIN K0J4 131410Z AUTO 21005KT 1/4SM FG VV001 19/18 A3008 170 97 700 210/05 RMK AO2 T01890183
63870K0J4 0J420161213091511312/13/16 09:15:31  5-MIN K0J4 131415Z AUTO 22005KT 1/4SM FG VV001 19/18 A3008 170 93 800 220/05 RMK AO2 T01940183
63870K0J4 0J420161213092011312/13/16 09:20:31  5-MIN K0J4 131420Z AUTO 22004KT 1/4SM FG VV001 19/19 A3008 170 97 800 220/04 RMK AO2 T01940189
63870K0J4 0J420161213092511312/13/16 09:25:31  5-MIN K0J4 131425Z AUTO 24003KT 1/2SM FG VV001 19/19 A3008 170 97 800 240/03 RMK AO2 T01940189
63870K0J4 0J420161213093011312/13/16 09:30:31  5-MIN K0J4 131430Z AUTO 00000KT 1/2SM FG VV001 19/19 A3008 170 97 800 000/00 RMK AO2 T01940189
63870K0J4 0J420161213093511312/13/16 09:35:31  5-MIN K0J4 131435Z AUTO 00000KT 1/2SM FG VV001 20/19 A3008 170 97 800 000/00 RMK AO2 T02000194
63870K0J4 0J420161213094011412/13/16 09:40:31  5-MIN K0J4 131440Z AUTO 00000KT 3/4SM BR OVC001 19/19 A3009 160 97 800 000/00 RMK AO2 T01940189
63870K0J4 0J420161213094511612/13/16 09:45:31  5-MIN K0J4 131445Z AUTO 22005KT 1 1/4SM BR OVC001 20/19 A3009 160 93 800 220/05 RMK AO2 T02000189
63870K0J4 0J420161213095011212/13/16 09:50:31  5-MIN K0J4 131450Z AUTO 21004KT 3SM BR OVC001 20/19 A3008 170 93 800 210/04 RMK AO2 T02000189
63870K0J4 0J420161213095512512/13/16 09:55:31  5-MIN K0J4 131455Z AUTO 23004KT 6SM BR OVC001 20/19 A3009 160 93 800 230/04 RMK AO2 SLP185 T02000189 55001
63870K0J4 0J420161213100010912/13/16 10:00:31  5-MIN K0J4 131500Z AUTO 22005KT 8SM OVC001 20/19 A3009 160 93 800 220/05 RMK AO2 T02000189
63870K0J4 0J420161213100510912/13/16 10:05:31  5-MIN K0J4 131505Z AUTO 22006KT 9SM OVC001 20/19 A3009 160 93 800 220/06 RMK AO2 T02000189
63870K0J4 0J420161213101012212/13/16 10:10:31  5-MIN K0J4 131510Z AUTO 22007KT 10SM OVC002 20/19 A3009 160 93 800 220/07 RMK AO2 CIG 001V006 T02000189
63870K0J4 0J420161213101511012/13/16 10:15:31  5-MIN K0J4 131515Z AUTO 23005KT 10SM OVC002 20/19 A3009 160 93 800 230/05 RMK AO2 T02000189
63870K0J4 0J420161213102012212/13/16 10:20:31  5-MIN K0J4 131520Z AUTO 22005KT 10SM OVC003 20/19 A3009 160 97 800 220/05 RMK AO2 CIG 002V006 T02000194
63870K0J4 0J420161213102512212/13/16 10:25:31  5-MIN K0J4 131525Z AUTO 22005KT 10SM OVC003 21/19 A3009 160 93 900 220/05 RMK AO2 CIG 002V006 T02060194
63870K0J4 0J420161213103012212/13/16 10:30:31  5-MIN K0J4 131530Z AUTO 21006KT 10SM OVC004 21/19 A3009 160 93 900 210/06 RMK AO2 CIG 002V009 T02060194
63870K0J4 0J420161213103512212/13/16 10:35:31  5-MIN K0J4 131535Z AUTO 21007KT 10SM OVC004 20/19 A3009 160 93 800 210/07 RMK AO2 CIG 002V008 T02000189
63870K0J4 0J420161213104012212/13/16 10:40:31  5-MIN K0J4 131540Z AUTO 22005KT 10SM OVC004 21/19 A3010 150 93 900 220/05 RMK AO2 CIG 002V008 T02060194
63870K0J4 0J420161213104513812/13/16 10:45:31  5-MIN K0J4 131545Z AUTO 00000KT 10SM -RA OVC004 21/19 A3010 150 93 900 000/00 RMK AO2 RAB44 CIG 003V009 P0000 T02060194
63870K0J4 0J420161213105014412/13/16 10:50:31  5-MIN K0J4 131550Z AUTO 23003KT 9SM -RA BKN006 OVC011 21/19 A3010 150 93 900 230/03 RMK AO2 RAB44 CIG 004V008 P0000 T02060194
63870K0J4 0J420161213105515112/13/16 10:55:31  5-MIN K0J4 131555Z AUTO 00000KT 9SM -RA BKN006 OVC010 21/19 A3010 150 93 900 000/00 RMK AO2 RAB44 CIG 004V008 SLP189 P0000 T02060194
63870K0J4 0J420161213110014812/13/16 11:00:31  5-MIN K0J4 131600Z AUTO 23004KT 10SM BKN006 BKN009 OVC034 21/19 A3009 160 93 900 230/04 RMK AO2 RAE00 CIG 004V008 P0000 T02060194
63870K0J4 0J420161213110514812/13/16 11:05:31  5-MIN K0J4 131605Z AUTO 23006KT 10SM SCT006 BKN009 OVC041 21/19 A3009 160 90 900 230/06 RMK AO2 RAE00 CIG 007V013 P0000 T02110194
63870K0J4 0J420161213111013712/13/16 11:10:31  5-MIN K0J4 131610Z AUTO 00000KT 10SM SCT006 BKN012 OVC031 21/19 A3009 160 87 1000 000/00 RMK AO2 RAE00 P0000 T02110189
63870K0J4 0J420161213111514912/13/16 11:15:31  5-MIN K0J4 131615Z AUTO 00000KT 10SM BKN006 BKN016 OVC031 21/19 A3009 160 90 1000 000/00 RMK AO2 RAE00 CIG 005V012 P0000 T02110194
63870K0J4 0J420161213112014912/13/16 11:20:31  5-MIN K0J4 131620Z AUTO 00000KT 10SM BKN008 BKN016 OVC041 22/19 A3009 160 87 1000 000/00 RMK AO2 RAE00 CIG 005V011 P0000 T02170194
63870K0J4 0J420161213112513712/13/16 11:25:31  5-MIN K0J4 131625Z AUTO VRB04KT 10SM SCT008 BKN014 OVC041 21/19 A3008 170 87 1000 VRB/04 RMK AO2 RAE00 P0000 T02110189
63870K0J4 0J420161213113014912/13/16 11:30:31  5-MIN K0J4 131630Z AUTO 00000KT 10SM BKN008 BKN018 OVC045 22/19 A3008 170 84 1000 000/00 RMK AO2 RAE00 CIG 006V014 P0000 T02170189
63870K0J4 0J420161213113514912/13/16 11:35:31  5-MIN K0J4 131635Z AUTO 00000KT 10SM BKN010 BKN043 OVC050 22/19 A3008 170 84 1000 000/00 RMK AO2 RAE00 CIG 006V019 P0000 T02170189
63870K0J4 0J420161213114014312/13/16 11:40:31  5-MIN K0J4 131640Z AUTO VRB04KT 9SM -RA SCT010 BKN030 OVC049 22/19 A3009 160 84 1000 VRB/04 RMK AO2 RAE00B39 P0000 T02170189
63870K0J4 0J420161213114514612/13/16 11:45:31  5-MIN K0J4 131645Z AUTO VRB04KT 1SM +RA BR FEW008 BKN013 OVC047 21/19 A3009 160 87 1000 VRB/04 RMK AO2 RAE00B39 P0014 T02110189
63870K0J4 0J420161213115014712/13/16 11:50:31  5-MIN K0J4 131650Z AUTO VRB06KT 1/4SM +RA FG BKN013 BKN030 OVC060 20/19 A3008 170 93 800 VRB/06 RMK AO2 RAE00B39 P0028 T02000189
63870K0J4 0J420161213115515412/13/16 11:55:31  5-MIN K0J4 131655Z AUTO VRB05KT 1/2SM +RA FG FEW011 BKN024 OVC070 21/19 A3007 170 90 900 VRB/05 RMK AO2 RAE00B39 SLP181 P0029 T02060189
63870K0J4 0J420161213120013612/13/16 12:00:31  5-MIN K0J4 131700Z AUTO 00000KT 3SM -RA BR FEW011 BKN027 OVC065 21/19 A3008 170 90 900 000/00 RMK AO2 P0000 T02060189
63870K0J4 0J420161213120513412/13/16 12:05:31  5-MIN K0J4 131705Z AUTO VRB04KT 10SM -RA SCT011 BKN022 OVC070 21/19 A3008 170 90 900 VRB/04 RMK AO2 P0000 T02060189
63870K0J4 0J420161213121012412/13/16 12:10:31  5-MIN K0J4 131710Z AUTO 10SM -RA SCT005 BKN013 OVC070 21/19 A3009 160 90 900 M /M RMK AO2 P0000 T02060189
63870K0J4 0J420161213121513612/13/16 12:15:31  5-MIN K0J4 131715Z AUTO VRB06KT 5SM -RA BR BKN008 BKN015 OVC055 20/19 A3009 160 93 800 VRB/06 RMK AO2 P0001 T02000189
63870K0J4 0J420161213122014012/13/16 12:20:31  5-MIN K0J4 131720Z AUTO VRB05KT 1 1/4SM +RA BR BKN008 BKN031 OVC070 19/18 A3009 160 93 800 VRB/05 RMK AO2 P0006 T01940183
63870K0J4 0J420161213122513812/13/16 12:25:31  5-MIN K0J4 131725Z AUTO VRB03KT 3/4SM +RA BR SCT008 BKN026 OVC050 19/18 A3008 160 93 700 VRB/03 RMK AO2 P0011 T01890178
63870K0J4 0J420161213123013812/13/16 12:30:31  5-MIN K0J4 131730Z AUTO VRB04KT 3/4SM +RA BR SCT008 BKN034 OVC060 19/17 A3009 160 90 700 VRB/04 RMK AO2 P0015 T01890172
63870K0J4 0J420161213123513912/13/16 12:35:31  5-MIN K0J4 131735Z AUTO VRB04KT 1 1/4SM RA BR SCT008 BKN050 OVC080 19/17 A3008 170 90 700 VRB/04 RMK AO2 P0016 T01890172
63870K0J4 0J420161213124013512/13/16 12:40:31  5-MIN K0J4 131740Z AUTO VRB04KT 3SM RA BR FEW008 BKN050 OVC080 19/17 A3008 170 90 700 VRB/04 RMK AO2 P0017 T01890172
63870K0J4 0J420161213124513512/13/16 12:45:31  5-MIN K0J4 131745Z AUTO 00000KT 3SM RA BR FEW036 SCT050 OVC080 18/17 A3007 180 93 700 000/00 RMK AO2 P0017 T01830172
63870K0J4 0J420161213125013612/13/16 12:50:31  5-MIN K0J4 131750Z AUTO 00000KT 5SM -RA BR FEW036 SCT049 OVC085 18/17 A3006 180 93 700 000/00 RMK AO2 P0017 T01830172
63870K0J4 0J420161213125516412/13/16 12:55:31  5-MIN K0J4 131755Z AUTO VRB03KT 8SM -RA FEW044 FEW070 OVC085 18/17 A3006 180 90 700 VRB/03 RMK AO2 SLP177 P0017 60046 T01830167 10217 20183 51012
63870K0J4 0J420161213130012212/13/16 13:00:31  5-MIN K0J4 131800Z AUTO VRB04KT 6SM -RA BR OVC085 18/17 A3006 190 90 700 VRB/04 RMK AO2 P0000 T01830167
63870K0J4 0J420161213130512212/13/16 13:05:31  5-MIN K0J4 131805Z AUTO VRB04KT 6SM -RA BR OVC085 18/17 A3005 190 90 700 VRB/04 RMK AO2 P0000 T01830167
63870K0J4 0J420161213131012812/13/16 13:10:31  5-MIN K0J4 131810Z AUTO VRB03KT 6SM RA BR FEW070 OVC085 18/17 A3005 200 90 700 VRB/03 RMK AO2 P0001 T01830167
63870K0J4 0J420161213131512812/13/16 13:15:31  5-MIN K0J4 131815Z AUTO 00000KT 5SM RA BR SCT070 OVC085 18/17 A3005 200 90 700 000/00 RMK AO2 P0001 T01830167
63870K0J4 0J420161213132012612/13/16 13:20:31  5-MIN K0J4 131820Z AUTO 00000KT 7SM -RA FEW060 OVC080 18/17 A3005 200 90 700 000/00 RMK AO2 P0001 T01830167
63870K0J4 0J420161213132513512/13/16 13:25:31  5-MIN K0J4 131825Z AUTO 00000KT 3SM RA BR FEW026 SCT044 OVC080 18/17 A3004 210 90 700 000/00 RMK AO2 P0002 T01830167
63870K0J4 0J420161213133013612/13/16 13:30:31  5-MIN K0J4 131830Z AUTO 00000KT 3SM -RA BR FEW026 BKN075 OVC085 18/17 A3003 210 93 700 000/00 RMK AO2 P0003 T01830172
63870K0J4 0J420161213133513312/13/16 13:35:31  5-MIN K0J4 131835Z AUTO VRB03KT 7SM -RA FEW026 BKN080 OVC120 18/17 A3003 220 93 700 VRB/03 RMK AO2 P0003 T01830172
63870K0J4 0J420161213134013612/13/16 13:40:31  5-MIN K0J4 131840Z AUTO VRB03KT 10SM FEW034 BKN075 OVC120 19/17 A3002 220 90 800 VRB/03 RMK AO2 RAE38 P0003 T01890172
63870K0J4 0J420161213134513612/13/16 13:45:31  5-MIN K0J4 131845Z AUTO VRB03KT 5SM -RA BR SCT040 BKN055 OVC100 19/17 A3002 220 87 800 VRB/03 RMK AO2 P0003 T01890167
63870K0J4 0J420161213135013612/13/16 13:50:31  5-MIN K0J4 131850Z AUTO VRB03KT 5SM -RA BR SCT045 BKN060 OVC090 19/17 A3003 220 90 800 VRB/03 RMK AO2 P0003 T01890172
63870K0J4 0J420161213135514312/13/16 13:55:31  5-MIN K0J4 131855Z AUTO 21005KT 4SM -RA BR FEW036 BKN075 OVC095 18/17 A3002 220 93 700 210/05 RMK AO2 SLP163 P0004 T01830172
63870K0J4 0J420161213140013612/13/16 14:00:31  5-MIN K0J4 131900Z AUTO 00000KT 4SM -RA BR FEW041 BKN075 OVC095 19/17 A3002 230 90 800 000/00 RMK AO2 P0000 T01890172
63870K0J4 0J420161213140513612/13/16 14:05:31  5-MIN K0J4 131905Z AUTO 00000KT 10SM FEW047 SCT055 BKN090 19/17 A3002 230 90 800 000/00 RMK AO2 RAE05 P0000 T01890172
63870K0J4 0J420161213141013612/13/16 14:10:31  5-MIN K0J4 131910Z AUTO VRB03KT 10SM FEW045 SCT055 BKN090 19/17 A3002 230 90 800 VRB/03 RMK AO2 RAE05 P0000 T01890172
63870K0J4 0J420161213141512912/13/16 14:15:31  5-MIN K0J4 131915Z AUTO 23004KT 10SM FEW055 SCT090 19/18 A3002 230 93 800 230/04 RMK AO2 RAE05 P0000 T01890178
63870K0J4 0J420161213142013612/13/16 14:20:31  5-MIN K0J4 131920Z AUTO 24003KT 10SM FEW005 SCT050 SCT090 19/17 A3001 230 90 800 240/03 RMK AO2 RAE05 P0000 T01890172
63870K0J4 0J420161213142514212/13/16 14:25:31  5-MIN K0J4 131925Z AUTO 23003KT 10SM FEW050 SCT095 SCT120 19/18 A3001 230 90 800 230/03 RMK AO2 RAE05B22E25 P0000 T01940178
63870K0J4 0J420161213143013512/13/16 14:30:31  5-MIN K0J4 131930Z AUTO 23004KT 10SM FEW050 FEW120 19/18 A3001 230 90 800 230/04 RMK AO2 RAE05B22E25 P0000 T01940178
63870K0J4 0J420161213143513512/13/16 14:35:31  5-MIN K0J4 131935Z AUTO 00000KT 10SM FEW004 FEW048 20/18 A3001 230 87 900 000/00 RMK AO2 RAE05B22E25 P0000 T02000178
63870K0J4 0J420161213144013512/13/16 14:40:31  5-MIN K0J4 131940Z AUTO 00000KT 10SM FEW004 FEW048 20/18 A3001 230 87 900 000/00 RMK AO2 RAE05B22E25 P0000 T02000178
63870K0J4 0J420161213144512912/13/16 14:45:31  5-MIN K0J4 131945Z AUTO 21003KT 10SM FEW048 21/18 A3001 240 87 1000 210/03 RMK AO2 RAE05B22E25 P0000 T02060183
63870K0J4 0J420161213145012612/13/16 14:50:31  5-MIN K0J4 131950Z AUTO 22004KT 10SM CLR 21/18 A3000 240 84 1000 220/04 RMK AO2 RAE05B22E25 P0000 T02060178
63870K0J4 0J420161213145513312/13/16 14:55:31  5-MIN K0J4 131955Z AUTO VRB03KT 10SM CLR 21/18 A3000 240 84 1000 VRB/03 RMK AO2 RAE05B22E25 SLP156 P0000 T02060178
63870K0J4 0J420161213150010812/13/16 15:00:31  5-MIN K0J4 132000Z AUTO 21004KT 10SM CLR 21/18 A3000 250 84 1100 210/04 RMK AO2 T02110183
63870K0J4 0J420161213150511112/13/16 15:05:31  5-MIN K0J4 132005Z AUTO 21004KT 10SM FEW070 21/18 A2999 250 84 1100 210/04 RMK AO2 T02110183
63870K0J4 0J420161213151011112/13/16 15:10:31  5-MIN K0J4 132010Z AUTO 20004KT 10SM FEW075 22/18 A2999 250 81 1100 200/04 RMK AO2 T02170183
63870K0J4 0J420161213151511112/13/16 15:15:31  5-MIN K0J4 132015Z AUTO 20005KT 10SM FEW075 22/18 A2999 250 81 1100 200/05 RMK AO2 T02170183
63870K0J4 0J420161213152011112/13/16 15:20:31  5-MIN K0J4 132020Z AUTO 21005KT 10SM FEW075 22/18 A2998 260 78 1200 210/05 RMK AO2 T02220183
63870K0J4 0J420161213152511112/13/16 15:25:31  5-MIN K0J4 132025Z AUTO 21005KT 10SM FEW075 22/18 A2998 260 78 1200 210/05 RMK AO2 T02220183
63870K0J4 0J420161213153011112/13/16 15:30:31  5-MIN K0J4 132030Z AUTO 23003KT 10SM FEW075 23/18 A2998 260 76 1300 230/03 RMK AO2 T02280183
63870K0J4 0J420161213153511112/13/16 15:35:31  5-MIN K0J4 132035Z AUTO 22006KT 10SM FEW075 23/18 A2998 260 76 1300 220/06 RMK AO2 T02280183
63870K0J4 0J420161213154011112/13/16 15:40:31  5-MIN K0J4 132040Z AUTO 22006KT 10SM FEW075 23/18 A2999 260 76 1300 220/06 RMK AO2 T02280183
63870K0J4 0J420161213154510812/13/16 15:45:31  5-MIN K0J4 132045Z AUTO 21007KT 10SM CLR 22/18 A2999 250 78 1200 210/07 RMK AO2 T02220183
63870K0J4 0J420161213155010812/13/16 15:50:31  5-MIN K0J4 132050Z AUTO VRB05KT 10SM CLR 22/18 A2999 250 78 1200 VRB/05 RMK AO2 T02220183
63870K0J4 0J420161213155513012/13/16 15:55:31  5-MIN K0J4 132055Z AUTO 21006KT 10SM FEW017 22/18 A2999 250 78 1200 210/06 RMK AO2 SLP152 60004 T02220183 58009
63870K0J4 0J420161213160010812/13/16 16:00:31  5-MIN K0J4 132100Z AUTO 10SM FEW017 SCT085 22/18 A2998 260 78 1200 M /M RMK AO2 T02220183
63870K0J4 0J420161213160512512/13/16 16:05:31  5-MIN K0J4 132105Z AUTO 22005KT 10SM FEW017 SCT085 SCT110 22/18 A2999 250 78 1200 220/05 RMK AO2 T02220183
63870K0J4 0J420161213161012512/13/16 16:10:31  5-MIN K0J4 132110Z AUTO 22004KT 10SM FEW017 FEW085 SCT110 22/18 A2999 250 78 1200 220/04 RMK AO2 T02220183
63870K0J4 0J420161213161511812/13/16 16:15:31  5-MIN K0J4 132115Z AUTO 20005KT 10SM FEW017 FEW085 22/18 A2999 250 78 1200 200/05 RMK AO2 T02220183
63870K0J4 0J420161213162012512/13/16 16:20:31  5-MIN K0J4 132120Z AUTO 21006KT 10SM FEW017 FEW085 SCT110 22/18 A2999 250 78 1200 210/06 RMK AO2 T02220183
63870K0J4 0J420161213162511812/13/16 16:25:31  5-MIN K0J4 132125Z AUTO 19005KT 10SM FEW017 SCT110 22/18 A2999 250 81 1100 190/05 RMK AO2 T02170183
63870K0J4 0J420161213163011112/13/16 16:30:31  5-MIN K0J4 132130Z AUTO 19004KT 10SM SCT110 22/18 A2999 250 81 1100 190/04 RMK AO2 T02170183
63870K0J4 0J420161213163511112/13/16 16:35:31  5-MIN K0J4 132135Z AUTO 21005KT 10SM BKN110 22/18 A2999 250 81 1100 210/05 RMK AO2 T02170183
63870K0J4 0J420161213164011112/13/16 16:40:31  5-MIN K0J4 132140Z AUTO 20005KT 10SM BKN110 22/18 A2999 250 81 1100 200/05 RMK AO2 T02170183
63870K0J4 0J420161213164511812/13/16 16:45:31  5-MIN K0J4 132145Z AUTO 19004KT 10SM FEW028 BKN110 22/18 A3000 240 81 1100 190/04 RMK AO2 T02170183
63870K0J4 0J420161213165012512/13/16 16:50:31  5-MIN K0J4 132150Z AUTO 20005KT 10SM FEW021 SCT026 OVC110 22/18 A3000 240 81 1100 200/05 RMK AO2 T02170183
63870K0J4 0J420161213165512512/13/16 16:55:31  5-MIN K0J4 132155Z AUTO 20005KT 10SM SCT024 OVC110 21/18 A3000 240 84 1000 200/05 RMK AO2 SLP157 T02110183
63870K0J4 0J420161213170012512/13/16 17:00:31  5-MIN K0J4 132200Z AUTO 20003KT 10SM SCT025 BKN095 OVC110 21/18 A3000 240 84 1000 200/03 RMK AO2 T02110183
63870K0J4 0J420161213170512512/13/16 17:05:31  5-MIN K0J4 132205Z AUTO 20004KT 10SM FEW019 BKN027 OVC110 21/18 A3000 240 84 1000 200/04 RMK AO2 T02110183
63870K0J4 0J420161213171012512/13/16 17:10:31  5-MIN K0J4 132210Z AUTO 20003KT 10SM FEW015 BKN027 OVC090 21/18 A3000 240 84 1000 200/03 RMK AO2 T02110183
63870K0J4 0J420161213171512512/13/16 17:15:31  5-MIN K0J4 132215Z AUTO 21003KT 10SM FEW015 BKN027 OVC095 21/18 A3001 240 84 1000 210/03 RMK AO2 T02110183
63870K0J4 0J420161213172014112/13/16 17:20:31  5-MIN K0J4 132220Z AUTO 00000KT 10SM -RA FEW015 BKN019 OVC095 21/18 A3001 240 84 1000 000/00 RMK AO2 RAB17 P0000 T02110183
63870K0J4 0J420161213172514112/13/16 17:25:31  5-MIN K0J4 132225Z AUTO 00000KT 10SM -RA BKN015 BKN020 OVC090 21/18 A3001 230 84 1000 000/00 RMK AO2 RAB17 P0000 T02110183
63870K0J4 0J420161213173014112/13/16 17:30:31  5-MIN K0J4 132230Z AUTO 00000KT 10SM -RA BKN017 BKN030 OVC060 21/18 A3001 230 84 1000 000/00 RMK AO2 RAB17 P0000 T02110183
63870K0J4 0J420161213173514112/13/16 17:35:31  5-MIN K0J4 132235Z AUTO 17003KT 10SM -RA BKN015 BKN023 OVC060 21/18 A3000 240 87 1000 170/03 RMK AO2 RAB17 P0000 T02060183
63870K0J4 0J420161213174013412/13/16 17:40:31  5-MIN K0J4 132240Z AUTO 00000KT 10SM -RA BKN013 OVC023 21/18 A3000 240 87 1000 000/00 RMK AO2 RAB17 P0000 T02060183
63870K0J4 0J420161213174514212/13/16 17:45:31  5-MIN K0J4 132245Z AUTO 32005KT 10SM -TSRA BKN013 OVC023 21/19 A3002 220 90 1000 320/05 RMK AO2 RAB17 TSB44 P0000 T02060189
63870K0J4 0J420161213175017912/13/16 17:50:31  5-MIN K0J4 132250Z AUTO 33014G22KT 290V350 4SM -TSRA BR BKN011 BKN016 OVC035 20/18 A3006 190 87 900 330/14G22 290V350 RMK AO2 RAB17 TSB44 PRESRR P0006 T02000178
63870K0J4 0J420161213175517112/13/16 17:55:31  5-MIN K0J4 132255Z AUTO 33008G25KT 300V010 3/4SM +TSRA BR BKN011 BKN016 OVC035 17/16 A3009 160 90 500 330/08G25 300V010 RMK AO2 RAB17 TSB44 PRESRR P0047
63870K0J4 0J420161213180013212/13/16 18:00:31  5-MIN K0J4 132300Z AUTO 36006G25KT 1/2SM +TSRA FG OVC011 17/16 A3006 190 93 500 360/06G25 RMK AO2 P0012 T01670156
63870K0J4 0J420161213180512512/13/16 18:05:31  5-MIN K0J4 132305Z AUTO 00000KT 1/2SM +TSRA FG VV012 17/16 A3007 180 93 500 000/00 RMK AO2 P0025 T01670156
63870K0J4 0J420161213181013312/13/16 18:10:31  5-MIN K0J4 132310Z AUTO VRB03KT 1/2SM +TSRA FG FEW011 OVC016 17/16 A3007 180 93 500 VRB/03 RMK AO2 P0036 T01670156
63870K0J4 0J420161213181513112/13/16 18:15:31  5-MIN K0J4 132315Z AUTO 00000KT 1SM +TSRA BR FEW011 OVC023 16/16 A3006 190 96 400 000/00 RMK AO2 P0037 T01610156
63870K0J4 0J420161213182012412/13/16 18:20:31  5-MIN K0J4 132320Z AUTO 00000KT 2SM +TSRA BR OVC028 16/16 A3006 180 96 400 000/00 RMK AO2 P0040 T01610156
63870K0J4 0J420161213182513512/13/16 18:25:31  5-MIN K0J4 132325Z AUTO 00000KT 2 1/2SM +TSRA BR BKN034 OVC075 16/16 A3007 180 96 400 000/00 RMK AO2 P0041 T01610156
63870K0J4 0J420161213183013012/13/16 18:30:31  5-MIN K0J4 132330Z AUTO 02003KT 4SM TSRA BR BKN037 OVC070 17/15 A3004 210 90 500 020/03 RMK AO2 P0042 T01670150
63870K0J4 0J420161213183513112/13/16 18:35:31  5-MIN K0J4 132335Z AUTO VRB03KT 4SM +TSRA BR BKN044 OVC070 16/15 A3005 200 93 400 VRB/03 RMK AO2 P0044 T01610150
63870K0J4 0J420161213184013712/13/16 18:40:31  5-MIN K0J4 132340Z AUTO 21006KT 4SM TSRA BR BKN048 BKN070 OVC095 17/16 A3007 180 93 500 210/06 RMK AO2 P0045 T01670156
63870K0J4 0J420161213184513712/13/16 18:45:31  5-MIN K0J4 132345Z AUTO 20006KT 5SM TSRA BR SCT050 BKN070 OVC095 17/16 A3007 180 93 500 200/06 RMK AO2 P0046 T01670156
63870K0J4 0J420161213185013412/13/16 18:50:31  5-MIN K0J4 132350Z AUTO 20005KT 7SM TSRA FEW055 SCT070 OVC100 16/16 A3007 180 96 400 200/05 RMK AO2 P0046 T01610156
63870K0J4 0J420161213185516812/13/16 18:55:31  5-MIN K0J4 132355Z AUTO 20006KT 6SM TSRA BR FEW055 FEW070 OVC100 17/16 A3006 190 93 500 200/06 RMK AO2 SLP177 P0048 60122 T01670156 10228 20161 56025
63870K0J4 0J420161213190013712/13/16 19:00:31  5-MIN K0J4 140000Z AUTO 00000KT 5SM TSRA BR FEW055 SCT080 OVC100 17/16 A3005 200 93 500 000/00 RMK AO2 P0001 T01670156
63870K0J4 0J420161213190514312/13/16 19:05:31  5-MIN K0J4 140005Z AUTO 00000KT 4SM TSRA BR FEW065 BKN090 OVC110 17/16 A3006 190 93 500 000/00 RMK AO2 TSB03 P0002 T01670156
63870K0J4 0J420161213191014612/13/16 19:10:31  5-MIN K0J4 140010Z AUTO 19004KT 4SM TSRA BR FEW060 BKN090 OVC110 17/16 A3006 190 93 500 190/04 RMK AO2 TSB03B06 P0002 T01670156
63870K0J4 0J420161213191513912/13/16 19:15:31  5-MIN K0J4 140015Z AUTO 20003KT 5SM TSRA BR BKN090 OVC110 17/16 A3006 190 93 500 200/03 RMK AO2 TSB03B06 P0004 T01670156
63870K0J4 0J420161213192013912/13/16 19:20:31  5-MIN K0J4 140020Z AUTO 00000KT 4SM TSRA BR BKN090 OVC110 17/16 A3006 190 93 500 000/00 RMK AO2 TSB03B06 P0005 T01670156
63870K0J4 0J420161213192514012/13/16 19:25:31  5-MIN K0J4 140025Z AUTO 21005KT 4SM RA BR BKN085 OVC110 17/16 A3007 180 93 500 210/05 RMK AO2 TSB03B06E22 P0006 T01670156
63870K0J4 0J420161213193014712/13/16 19:30:31  5-MIN K0J4 140030Z AUTO 18005KT 5SM RA BR FEW075 BKN090 OVC110 17/16 A3006 180 93 500 180/05 RMK AO2 TSB03B06E22 P0007 T01670156
63870K0J4 0J420161213193514012/13/16 19:35:31  5-MIN K0J4 140035Z AUTO 00000KT 5SM RA BR BKN085 OVC110 17/16 A3006 190 93 500 000/00 RMK AO2 TSB03B06E22 P0008 T01670156
63870K0J4 0J420161213194014012/13/16 19:40:31  5-MIN K0J4 140040Z AUTO 00000KT 4SM RA BR BKN085 OVC110 17/16 A3005 190 93 500 000/00 RMK AO2 TSB03B06E22 P0010 T01670156
63870K0J4 0J420161213194514012/13/16 19:45:31  5-MIN K0J4 140045Z AUTO 19004KT 4SM RA BR BKN090 OVC110 17/16 A3006 190 93 500 190/04 RMK AO2 TSB03B06E22 P0011 T01670156
63870K0J4 0J420161213195014012/13/16 19:50:31  5-MIN K0J4 140050Z AUTO 21005KT 5SM RA BR BKN085 OVC110 17/16 A3007 180 93 500 210/05 RMK AO2 TSB03B06E22 P0012 T01670156
63870K0J4 0J420161213195514712/13/16 19:55:31  5-MIN K0J4 140055Z AUTO 19003KT 5SM RA BR BKN090 OVC110 17/16 A3006 190 93 500 190/03 RMK AO2 TSB03B06E22 SLP176 P0014 T01670156
63870K0J4 0J420161213200012812/13/16 20:00:31  5-MIN K0J4 140100Z AUTO 16003KT 4SM RA BR BKN090 OVC110 17/16 A3005 190 93 500 160/03 RMK AO2 P0001 T01670156
63870K0J4 0J420161213200512912/13/16 20:05:31  5-MIN K0J4 140105Z AUTO 18003KT 4SM +RA BR BKN090 OVC110 17/16 A3005 190 93 500 180/03 RMK AO2 P0003 T01670156
63870K0J4 0J420161213201012812/13/16 20:10:31  5-MIN K0J4 140110Z AUTO 18004KT 4SM RA BR BKN090 OVC110 17/16 A3005 190 93 500 180/04 RMK AO2 P0004 T01670156
63870K0J4 0J420161213201512812/13/16 20:15:31  5-MIN K0J4 140115Z AUTO 14005KT 5SM RA BR BKN090 OVC110 17/16 A3004 210 93 500 140/05 RMK AO2 P0005 T01670156
63870K0J4 0J420161213202012812/13/16 20:20:31  5-MIN K0J4 140120Z AUTO 17003KT 6SM RA BR BKN090 OVC110 17/16 A3004 210 93 500 170/03 RMK AO2 P0007 T01670156
63870K0J4 0J420161213202512812/13/16 20:25:31  5-MIN K0J4 140125Z AUTO 19003KT 5SM RA BR BKN090 OVC110 17/16 A3004 200 93 500 190/03 RMK AO2 P0008 T01670156
63870K0J4 0J420161213203012112/13/16 20:30:31  5-MIN K0J4 140130Z AUTO 18003KT 5SM RA BR OVC100 17/16 A3004 200 93 500 180/03 RMK AO2 P0009 T01670156
63870K0J4 0J420161213203511912/13/16 20:35:31  5-MIN K0J4 140135Z AUTO 17005KT 9SM -RA OVC100 17/16 A3004 210 93 500 170/05 RMK AO2 P0009 T01670156
63870K0J4 0J420161213204012012/13/16 20:40:31  5-MIN K0J4 140140Z AUTO 18004KT 10SM -RA OVC100 17/16 A3004 200 93 500 180/04 RMK AO2 P0009 T01670156
63870K0J4 0J420161213204512812/13/16 20:45:31  5-MIN K0J4 140145Z AUTO 19003KT 6SM RA BR SCT090 OVC110 17/16 A3004 200 93 500 190/03 RMK AO2 P0010 T01670156
63870K0J4 0J420161213205012112/13/16 20:50:31  5-MIN K0J4 140150Z AUTO 00000KT 5SM RA BR OVC100 17/16 A3004 200 93 500 000/00 RMK AO2 P0011 T01670156
63870K0J4 0J420161213205513512/13/16 20:55:31  5-MIN K0J4 140155Z AUTO 20006KT 5SM RA BR BKN090 OVC110 17/16 A3005 200 93 500 200/06 RMK AO2 SLP171 P0012 T01670156
63870K0J4 0J420161213210012112/13/16 21:00:31  5-MIN K0J4 140200Z AUTO 17006KT 6SM RA BR OVC100 17/16 A3004 210 93 500 170/06 RMK AO2 P0000 T01670156
63870K0J4 0J420161213210512512/13/16 21:05:31  5-MIN K0J4 140205Z AUTO 14007KT 8SM RA OVC100 17/16 A3000 240 93 500 140/07 RMK AO2 PRESFR P0001 T01670156
63870K0J4 0J420161213211011912/13/16 21:10:31  5-MIN K0J4 140210Z AUTO 16006KT 8SM -RA OVC100 17/16 A3000 240 93 500 160/06 RMK AO2 P0001 T01670156
63870K0J4 0J420161213211512712/13/16 21:15:31  5-MIN K0J4 140215Z AUTO 15003KT 10SM -RA BKN100 OVC110 17/16 A3000 240 93 500 150/03 RMK AO2 P0001 T01670156
63870K0J4 0J420161213212012012/13/16 21:20:31  5-MIN K0J4 140220Z AUTO 00000KT 10SM -RA BKN100 17/16 A3001 230 96 500 000/00 RMK AO2 P0001 T01670161
63870K0J4 0J420161213212512012/13/16 21:25:31  5-MIN K0J4 140225Z AUTO 00000KT 10SM -RA SCT100 17/16 A3001 240 96 500 000/00 RMK AO2 P0001 T01670161
63870K0J4 0J420161213213012912/13/16 21:30:31  5-MIN K0J4 140230Z AUTO 00000KT 10SM FEW090 BKN110 17/16 A3000 240 93 500 000/00 RMK AO2 RAE28 P0001 T01670156
63870K0J4 0J420161213213512712/13/16 21:35:31  5-MIN K0J4 140235Z AUTO 00000KT 10SM -RA FEW090 SCT110 17/16 A3000 240 93 500 000/00 RMK AO2 P0001 T01670156
63870K0J4 0J420161213214012712/13/16 21:40:31  5-MIN K0J4 140240Z AUTO 15004KT 10SM -RA FEW100 FEW120 17/15 A3000 240 90 500 150/04 RMK AO2 P0001 T01670150
63870K0J4 0J420161213214512012/13/16 21:45:31  5-MIN K0J4 140245Z AUTO 18007KT 10SM -RA FEW110 17/16 A3001 230 93 500 180/07 RMK AO2 P0001 T01670156
63870K0J4 0J420161213215012212/13/16 21:50:31  5-MIN K0J4 140250Z AUTO 19006KT 10SM FEW110 17/16 A3002 230 93 500 190/06 RMK AO2 RAE47 P0001 T01670156
63870K0J4 0J420161213215514112/13/16 21:55:31  5-MIN K0J4 140255Z AUTO 17006KT 10SM FEW110 17/16 A3001 240 93 500 170/06 RMK AO2 RAE47 SLP159 P0001 60028 T01670156 50023
63870K0J4 0J420161213220010712/13/16 22:00:31  5-MIN K0J4 140300Z AUTO 17005KT 10SM CLR 17/16 A3000 240 93 500 170/05 RMK AO2 T01670156
63870K0J4 0J420161213220510712/13/16 22:05:31  5-MIN K0J4 140305Z AUTO 17005KT 10SM CLR 17/16 A3001 240 93 500 170/05 RMK AO2 T01670156
63870K0J4 0J420161213221010712/13/16 22:10:31  5-MIN K0J4 140310Z AUTO 18006KT 10SM CLR 17/16 A3001 240 93 500 180/06 RMK AO2 T01670156
63870K0J4 0J420161213221511012/13/16 22:15:31  5-MIN K0J4 140315Z AUTO 18007KT 10SM FEW004 17/16 A3001 240 93 500 180/07 RMK AO2 T01670156
63870K0J4 0J420161213222011012/13/16 22:20:31  5-MIN K0J4 140320Z AUTO 19008KT 10SM SCT004 17/16 A3001 230 93 500 190/08 RMK AO2 T01670156
63870K0J4 0J420161213222511012/13/16 22:25:31  5-MIN K0J4 140325Z AUTO 19009KT 10SM BKN005 17/16 A3002 230 93 500 190/09 RMK AO2 T01670156
63870K0J4 0J420161213223011012/13/16 22:30:31  5-MIN K0J4 140330Z AUTO 19007KT 10SM BKN005 17/16 A3002 220 93 500 190/07 RMK AO2 T01670156
63870K0J4 0J420161213223511012/13/16 22:35:31  5-MIN K0J4 140335Z AUTO 20006KT 10SM BKN005 17/16 A3002 220 93 500 200/06 RMK AO2 T01670156
63870K0J4 0J420161213224011012/13/16 22:40:31  5-MIN K0J4 140340Z AUTO 20006KT 10SM OVC004 17/16 A3003 220 93 500 200/06 RMK AO2 T01670156
63870K0J4 0J420161213224511012/13/16 22:45:31  5-MIN K0J4 140345Z AUTO 20006KT 10SM OVC004 17/16 A3003 220 93 500 200/06 RMK AO2 T01670156
63870K0J4 0J420161213225011012/13/16 22:50:31  5-MIN K0J4 140350Z AUTO 21006KT 10SM OVC004 17/16 A3003 220 93 500 210/06 RMK AO2 T01670156
63870K0J4 0J420161213225511712/13/16 22:55:31  5-MIN K0J4 140355Z AUTO 20007KT 10SM OVC004 17/16 A3003 210 93 500 200/07 RMK AO2 SLP166 T01670156
63870K0J4 0J420161213230011012/13/16 23:00:31  5-MIN K0J4 140400Z AUTO 20006KT 10SM OVC004 17/16 A3003 210 93 500 200/06 RMK AO2 T01670156
63870K0J4 0J420161213230511012/13/16 23:05:31  5-MIN K0J4 140405Z AUTO 20007KT 10SM OVC004 17/16 A3003 210 93 500 200/07 RMK AO2 T01670156
63870K0J4 0J420161213231011012/13/16 23:10:31  5-MIN K0J4 140410Z AUTO 20006KT 10SM OVC004 17/16 A3003 210 93 500 200/06 RMK AO2 T01670156
63870K0J4 0J420161213231511012/13/16 23:15:31  5-MIN K0J4 140415Z AUTO 21007KT 10SM OVC004 17/16 A3004 210 93 500 210/07 RMK AO2 T01670156
63870K0J4 0J420161213232011012/13/16 23:20:31  5-MIN K0J4 140420Z AUTO 21007KT 10SM OVC004 17/16 A3004 200 93 500 210/07 RMK AO2 T01670156
63870K0J4 0J420161213232511012/13/16 23:25:31  5-MIN K0J4 140425Z AUTO 21007KT 10SM OVC004 17/16 A3004 200 93 500 210/07 RMK AO2 T01670156
63870K0J4 0J420161213233011012/13/16 23:30:31  5-MIN K0J4 140430Z AUTO 20010KT 10SM OVC004 17/16 A3004 200 90 600 200/10 RMK AO2 T01720156
63870K0J4 0J420161213233511012/13/16 23:35:31  5-MIN K0J4 140435Z AUTO 20009KT 10SM OVC003 17/16 A3004 200 93 500 200/09 RMK AO2 T01720161
63870K0J4 0J420161213234011012/13/16 23:40:31  5-MIN K0J4 140440Z AUTO 20009KT 10SM OVC003 17/16 A3005 200 93 500 200/09 RMK AO2 T01720161
63870K0J4 0J420161213234511012/13/16 23:45:31  5-MIN K0J4 140445Z AUTO 20008KT 10SM OVC003 17/16 A3005 200 93 500 200/08 RMK AO2 T01720161
63870K0J4 0J420161213235010912/13/16 23:50:31  5-MIN K0J4 140450Z AUTO 21008KT 9SM OVC003 17/16 A3005 200 93 500 210/08 RMK AO2 T01720161
63870K0J4 0J420161213235512912/13/16 23:55:31  5-MIN K0J4 140455Z AUTO 21008KT 5SM BR OVC003 17/16 A3005 200 93 500 210/08 RMK AO2 SLP172 T01720161 402280122
63870K0J4 0J420161214000011612/14/16 00:00:31  5-MIN K0J4 140500Z AUTO 21009KT 2 1/2SM BR OVC002 17/16 A3005 200 93 500 210/09 RMK AO2 T01720161
63870K0J4 0J420161214000511212/14/16 00:05:31  5-MIN K0J4 140505Z AUTO 21009KT 2SM BR OVC002 17/16 A3005 200 93 500 210/09 RMK AO2 T01720161
63870K0J4 0J420161214001011612/14/16 00:10:31  5-MIN K0J4 140510Z AUTO 22009KT 1 3/4SM BR OVC001 17/16 A3005 200 93 500 220/09 RMK AO2 T01720161
63870K0J4 0J420161214001511212/14/16 00:15:31  5-MIN K0J4 140515Z AUTO 21008KT 2SM BR OVC001 17/16 A3005 200 93 500 210/08 RMK AO2 T01720161
63870K0J4 0J420161214002011612/14/16 00:20:31  5-MIN K0J4 140520Z AUTO 22006KT 2 1/2SM BR OVC001 17/16 A3004 200 93 600 220/06 RMK AO2 T01720161
63870K0J4 0J420161214002511212/14/16 00:25:31  5-MIN K0J4 140525Z AUTO 21006KT 3SM BR OVC001 17/16 A3004 200 93 600 210/06 RMK AO2 T01720161
63870K0J4 0J420161214003011212/14/16 00:30:31  5-MIN K0J4 140530Z AUTO 22007KT 3SM BR OVC001 17/17 A3004 210 96 600 220/07 RMK AO2 T01720167
63870K0J4 0J420161214003511212/14/16 00:35:31  5-MIN K0J4 140535Z AUTO 22008KT 3SM BR OVC001 17/16 A3004 210 93 600 220/08 RMK AO2 T01720161
63870K0J4 0J420161214004011212/14/16 00:40:31  5-MIN K0J4 140540Z AUTO 22005KT 3SM BR OVC001 17/16 A3004 210 93 600 220/05 RMK AO2 T01720161
63870K0J4 0J420161214004511212/14/16 00:45:31  5-MIN K0J4 140545Z AUTO 21007KT 2SM BR OVC001 17/17 A3003 210 96 600 210/07 RMK AO2 T01720167
63870K0J4 0J420161214005011612/14/16 00:50:31  5-MIN K0J4 140550Z AUTO 21007KT 1 3/4SM BR OVC001 17/17 A3003 210 96 600 210/07 RMK AO2 T01720167
63870K0J4 0J420161214005514712/14/16 00:55:31  5-MIN K0J4 140555Z AUTO 22006KT 1 3/4SM BR OVC001 17/17 A3003 220 96 600 220/06 RMK AO2 SLP166 60028 T01720167 10172 20167 58017
63870K0J4 0J420161214010011612/14/16 01:00:31  5-MIN K0J4 140600Z AUTO 22006KT 1 3/4SM BR OVC001 17/16 A3003 220 93 600 220/06 RMK AO2 T01720161
63870K0J4 0J420161214010511212/14/16 01:05:31  5-MIN K0J4 140605Z AUTO 23006KT 2SM BR OVC001 17/17 A3003 220 96 600 230/06 RMK AO2 T01720167
63870K0J4 0J420161214011011612/14/16 01:10:31  5-MIN K0J4 140610Z AUTO 23004KT 2 1/2SM BR OVC001 17/17 A3003 220 96 600 230/04 RMK AO2 T01720167
63870K0J4 0J420161214011511212/14/16 01:15:31  5-MIN K0J4 140615Z AUTO 24003KT 3SM BR OVC001 17/17 A3003 220 96 600 240/03 RMK AO2 T01720167
63870K0J4 0J420161214012011212/14/16 01:20:31  5-MIN K0J4 140620Z AUTO 22004KT 4SM BR OVC001 17/17 A3003 220 96 600 220/04 RMK AO2 T01720167
63870K0J4 0J420161214012511212/14/16 01:25:31  5-MIN K0J4 140625Z AUTO 23004KT 5SM BR OVC001 17/17 A3003 220 96 600 230/04 RMK AO2 T01720167
63870K0J4 0J420161214013011212/14/16 01:30:31  5-MIN K0J4 140630Z AUTO 00000KT 6SM BR OVC001 17/17 A3003 220 96 600 000/00 RMK AO2 T01720167
63870K0J4 0J420161214013510912/14/16 01:35:31  5-MIN K0J4 140635Z AUTO 00000KT 8SM OVC001 17/17 A3003 220 96 600 000/00 RMK AO2 T01720167
63870K0J4 0J420161214014011012/14/16 01:40:31  5-MIN K0J4 140640Z AUTO 00000KT 10SM OVC001 17/17 A3003 220 96 600 000/00 RMK AO2 T01720167
63870K0J4 0J420161214014510912/14/16 01:45:31  5-MIN K0J4 140645Z AUTO 00000KT 9SM OVC002 17/17 A3004 210 96 600 000/00 RMK AO2 T01720167
63870K0J4 0J420161214015010912/14/16 01:50:31  5-MIN K0J4 140650Z AUTO 00000KT 7SM OVC002 17/16 A3004 210 93 600 000/00 RMK AO2 T01720161
63870K0J4 0J420161214015511912/14/16 01:55:31  5-MIN K0J4 140655Z AUTO VRB04KT 6SM BR OVC002 17/16 A3004 200 93 600 VRB/04 RMK AO2 SLP171 T01720161
63870K0J4 0J420161214020010912/14/16 02:00:31  5-MIN K0J4 140700Z AUTO 23003KT 7SM OVC002 17/16 A3004 200 93 600 230/03 RMK AO2 T01720161
63870K0J4 0J420161214020510912/14/16 02:05:31  5-MIN K0J4 140705Z AUTO 22003KT 7SM OVC002 17/16 A3004 200 93 600 220/03 RMK AO2 T01720161
63870K0J4 0J420161214021011212/14/16 02:10:31  5-MIN K0J4 140710Z AUTO VRB04KT 6SM BR OVC002 17/16 A3004 210 93 600 VRB/04 RMK AO2 T01720161
63870K0J4 0J420161214021511212/14/16 02:15:31  5-MIN K0J4 140715Z AUTO 00000KT 5SM BR OVC002 17/16 A3004 210 93 600 000/00 RMK AO2 T01720161
63870K0J4 0J420161214022011212/14/16 02:20:31  5-MIN K0J4 140720Z AUTO 21003KT 4SM BR OVC002 17/16 A3004 210 93 600 210/03 RMK AO2 T01720161
63870K0J4 0J420161214022511212/14/16 02:25:31  5-MIN K0J4 140725Z AUTO 22003KT 3SM BR OVC002 17/16 A3003 210 93 600 220/03 RMK AO2 T01720161
63870K0J4 0J420161214023011212/14/16 02:30:31  5-MIN K0J4 140730Z AUTO 23003KT 3SM BR OVC001 17/16 A3004 210 93 600 230/03 RMK AO2 T01720161
63870K0J4 0J420161214023511212/14/16 02:35:31  5-MIN K0J4 140735Z AUTO 00000KT 3SM BR OVC001 17/16 A3004 210 93 600 000/00 RMK AO2 T01720161
63870K0J4 0J420161214024011212/14/16 02:40:31  5-MIN K0J4 140740Z AUTO 00000KT 4SM BR OVC001 17/16 A3004 210 93 600 000/00 RMK AO2 T01720161
63870K0J4 0J420161214024511212/14/16 02:45:31  5-MIN K0J4 140745Z AUTO 00000KT 4SM BR OVC001 17/17 A3004 210 96 600 000/00 RMK AO2 T01720167
63870K0J4 0J420161214025011212/14/16 02:50:31  5-MIN K0J4 140750Z AUTO 00000KT 3SM BR OVC001 17/16 A3004 200 93 600 000/00 RMK AO2 T01720161
63870K0J4 0J420161214025511912/14/16 02:55:31  5-MIN K0J4 140755Z AUTO 00000KT 5SM BR OVC001 17/16 A3004 200 93 500 000/00 RMK AO2 SLP171 T01720161
63870K0J4 0J420161214030011212/14/16 03:00:31  5-MIN K0J4 140800Z AUTO 00000KT 5SM BR OVC001 17/16 A3005 200 93 500 000/00 RMK AO2 T01720161
63870K0J4 0J420161214030511612/14/16 03:05:31  5-MIN K0J4 140805Z AUTO 00000KT 2 1/2SM BR OVC001 17/17 A3005 200 96 500 000/00 RMK AO2 T01720167
63870K0J4 0J420161214031011612/14/16 03:10:31  5-MIN K0J4 140810Z AUTO 00000KT 1 1/4SM BR OVC001 17/17 A3005 200 96 500 000/00 RMK AO2 T01720167
63870K0J4 0J420161214031511212/14/16 03:15:31  5-MIN K0J4 140815Z AUTO 00000KT 1SM BR OVC001 17/17 A3005 200 96 500 000/00 RMK AO2 T01720167
63870K0J4 0J420161214032011312/14/16 03:20:31  5-MIN K0J4 140820Z AUTO 00000KT 3/4SM BR VV002 17/17 A3004 200 96 600 000/00 RMK AO2 T01720167
63870K0J4 0J420161214032511312/14/16 03:25:31  5-MIN K0J4 140825Z AUTO 00000KT 3/4SM BR VV002 17/17 A3004 200 96 600 000/00 RMK AO2 T01720167
63870K0J4 0J420161214033011312/14/16 03:30:31  5-MIN K0J4 140830Z AUTO 00000KT 3/4SM BR VV002 17/17 A3005 200 96 500 000/00 RMK AO2 T01720167
63870K0J4 0J420161214033511312/14/16 03:35:31  5-MIN K0J4 140835Z AUTO 00000KT 3/4SM BR VV002 17/17 A3005 200 96 500 000/00 RMK AO2 T01720167
63870K0J4 0J420161214034011112/14/16 03:40:31  5-MIN K0J4 140840Z AUTO 00000KT 1SM BR VV002 17/16 A3004 200 93 500 000/00 RMK AO2 T01720161
63870K0J4 0J420161214034511612/14/16 03:45:31  5-MIN K0J4 140845Z AUTO 00000KT 1 1/2SM BR OVC002 17/16 A3004 200 93 600 000/00 RMK AO2 T01720161
63870K0J4 0J420161214035011612/14/16 03:50:31  5-MIN K0J4 140850Z AUTO 00000KT 1 1/4SM BR OVC002 17/16 A3005 200 93 500 000/00 RMK AO2 T01720161
63870K0J4 0J420161214035512412/14/16 03:55:31  5-MIN K0J4 140855Z AUTO 00000KT 1SM BR VV002 17/16 A3004 200 93 600 000/00 RMK AO2 SLP170 T01720161 50008
63870K0J4 0J420161214040011312/14/16 04:00:31  5-MIN K0J4 140900Z AUTO 00000KT 3/4SM BR VV002 17/16 A3004 210 93 600 000/00 RMK AO2 T01720161
63870K0J4 0J420161214040511312/14/16 04:05:31  5-MIN K0J4 140905Z AUTO 00000KT 3/4SM BR VV002 17/16 A3004 200 93 600 000/00 RMK AO2 T01720161
63870K0J4 0J420161214041011312/14/16 04:10:31  5-MIN K0J4 140910Z AUTO 00000KT 3/4SM BR VV002 17/16 A3004 200 93 600 000/00 RMK AO2 T01720161
63870K0J4 0J420161214041511312/14/16 04:15:31  5-MIN K0J4 140915Z AUTO 00000KT 3/4SM BR VV002 17/16 A3004 200 93 600 000/00 RMK AO2 T01720161
63870K0J4 0J420161214042011312/14/16 04:20:31  5-MIN K0J4 140920Z AUTO 00000KT 1/2SM FG VV002 17/16 A3004 200 93 600 000/00 RMK AO2 T01720161
63870K0J4 0J420161214042511312/14/16 04:25:31  5-MIN K0J4 140925Z AUTO 00000KT 1/2SM FG VV002 17/16 A3004 200 93 600 000/00 RMK AO2 T01720161
63870K0J4 0J420161214043011312/14/16 04:30:31  5-MIN K0J4 140930Z AUTO 00000KT 1/2SM FG VV002 17/16 A3005 200 93 500 000/00 RMK AO2 T01720161
63870K0J4 0J420161214043511312/14/16 04:35:31  5-MIN K0J4 140935Z AUTO 00000KT 1/2SM FG VV002 17/16 A3004 200 93 600 000/00 RMK AO2 T01720161
63870K0J4 0J420161214044011312/14/16 04:40:31  5-MIN K0J4 140940Z AUTO 00000KT 1/2SM FG VV002 17/16 A3004 210 93 600 000/00 RMK AO2 T01720161
63870K0J4 0J420161214044511312/14/16 04:45:31  5-MIN K0J4 140945Z AUTO 00000KT 1/2SM FG VV001 17/16 A3004 210 93 600 000/00 RMK AO2 T01720161
63870K0J4 0J420161214045011312/14/16 04:50:31  5-MIN K0J4 140950Z AUTO 00000KT 1/2SM FG VV001 17/16 A3004 200 93 500 000/00 RMK AO2 T01720161
63870K0J4 0J420161214045512012/14/16 04:55:31  5-MIN K0J4 140955Z AUTO 00000KT 1/2SM FG VV001 17/16 A3004 200 93 600 000/00 RMK AO2 SLP170 T01720161
63870K0J4 0J420161214050011312/14/16 05:00:31  5-MIN K0J4 141000Z AUTO 00000KT 1/2SM FG VV001 17/16 A3004 200 93 600 000/00 RMK AO2 T01720161
63870K0J4 0J420161214050511312/14/16 05:05:31  5-MIN K0J4 141005Z AUTO 00000KT 1/2SM FG VV001 17/16 A3004 210 93 600 000/00 RMK AO2 T01720161
63870K0J4 0J420161214051011312/14/16 05:10:31  5-MIN K0J4 141010Z AUTO 00000KT 1/2SM FG VV001 17/16 A3004 210 93 600 000/00 RMK AO2 T01720161
63870K0J4 0J420161214051511312/14/16 05:15:31  5-MIN K0J4 141015Z AUTO 00000KT 1/2SM FG VV001 17/16 A3003 210 93 600 000/00 RMK AO2 T01720161
63870K0J4 0J420161214052011312/14/16 05:20:31  5-MIN K0J4 141020Z AUTO 00000KT 1/2SM FG VV001 17/16 A3004 210 96 500 000/00 RMK AO2 T01670161
63870K0J4 0J420161214052512112/14/16 05:25:31  5-MIN K0J4 141025Z AUTO 00000KT 1/2SM FG BKN001 OVC018 17/16 A3004 210 93 600 000/00 RMK AO2 T01720161
63870K0J4 0J420161214053012812/14/16 05:30:31  5-MIN K0J4 141030Z AUTO 00000KT 1/2SM FG BKN001 BKN020 OVC047 17/16 A3004 210 93 600 000/00 RMK AO2 T01720161
63870K0J4 0J420161214053513012/14/16 05:35:31  5-MIN K0J4 141035Z AUTO 00000KT 1 1/4SM BR SCT001 BKN020 OVC047 17/16 A3004 210 96 500 000/00 RMK AO2 T01670161
63870K0J4 0J420161214054013812/14/16 05:40:31  5-MIN K0J4 141040Z AUTO 00000KT 2 1/2SM BR BKN001 BKN020 OVC047 17/16 A3004 210 93 600 000/00 RMK AO2 VIS 1V5 T01720161
63870K0J4 0J420161214054513812/14/16 05:45:31  5-MIN K0J4 141045Z AUTO 01003KT 2 1/2SM BR BKN001 BKN020 OVC049 17/16 A3004 200 93 600 010/03 RMK AO2 VIS 1V5 T01720161
63870K0J4 0J420161214055013012/14/16 05:50:31  5-MIN K0J4 141050Z AUTO 00000KT 1 1/2SM BR SCT001 BKN020 OVC049 17/16 A3004 200 93 600 000/00 RMK AO2 T01720161
63870K0J4 0J420161214055510912/14/16 05:55:31  5-MIN K0J4 141055Z AUTO 00000KT 2SM BR BKN001 OVC049 17/16 A3004 200 93 600 000/00 RMK AO2
63870K0J4 0J420161214060012312/14/16 06:00:31  5-MIN K0J4 141100Z AUTO VRB03KT 2 1/2SM BR BKN001 OVC049 17/16 A3004 200 96 500 VRB/03 RMK AO2 T01670161
63870K0J4 0J420161214060511912/14/16 06:05:31  5-MIN K0J4 141105Z AUTO 36003KT 2SM BR BKN001 OVC049 17/16 A3004 200 93 600 360/03 RMK AO2 T01720161
63870K0J4 0J420161214061011912/14/16 06:10:31  5-MIN K0J4 141110Z AUTO 01003KT 2SM BR BKN001 OVC049 17/16 A3004 200 93 600 010/03 RMK AO2 T01720161
63870K0J4 0J420161214061512312/14/16 06:15:31  5-MIN K0J4 141115Z AUTO 00000KT 1 3/4SM BR BKN001 OVC049 17/16 A3005 200 93 500 000/00 RMK AO2 T01720161
63870K0J4 0J420161214062011212/14/16 06:20:31  5-MIN K0J4 141120Z AUTO 00000KT 2SM BR OVC001 17/16 A3005 200 93 500 000/00 RMK AO2 T01720161
63870K0J4 0J420161214062511612/14/16 06:25:31  5-MIN K0J4 141125Z AUTO 00000KT 2 1/2SM BR OVC001 17/16 A3005 200 93 500 000/00 RMK AO2 T01720161
63870K0J4 0J420161214063011212/14/16 06:30:31  5-MIN K0J4 141130Z AUTO 00000KT 3SM BR OVC001 17/16 A3005 200 93 500 000/00 RMK AO2 T01720161
63870K0J4 0J420161214063511212/14/16 06:35:31  5-MIN K0J4 141135Z AUTO 00000KT 2SM BR OVC001 17/16 A3005 200 93 500 000/00 RMK AO2 T01720161
63870K0J4 0J420161214064011612/14/16 06:40:31  5-MIN K0J4 141140Z AUTO 00000KT 1 1/4SM BR OVC001 17/16 A3005 200 93 500 000/00 RMK AO2 T01720161
63870K0J4 0J420161214064511312/14/16 06:45:31  5-MIN K0J4 141145Z AUTO 00000KT 3/4SM BR VV002 17/16 A3005 200 93 500 000/00 RMK AO2 T01720161
63870K0J4 0J420161214065011312/14/16 06:50:31  5-MIN K0J4 141150Z AUTO 00000KT 1/2SM FG VV003 17/16 A3005 200 93 500 000/00 RMK AO2 T01720161
63870K0J4 0J420161214065514412/14/16 06:55:31  5-MIN K0J4 141155Z AUTO 00000KT 1/2SM FG VV002 17/16 A3005 200 93 500 000/00 RMK AO2 SLP172 70196 T01720161 10172 20167 50004
63870K0J4 0J420161214070011312/14/16 07:00:31  5-MIN K0J4 141200Z AUTO 00000KT 1/2SM FG VV002 17/16 A3005 200 93 500 000/00 RMK AO2 T01720161
63870K0J4 0J420161214070511312/14/16 07:05:31  5-MIN K0J4 141205Z AUTO 00000KT 1/2SM FG VV002 17/16 A3005 200 93 500 000/00 RMK AO2 T01720161
63870K0J4 0J420161214071011312/14/16 07:10:31  5-MIN K0J4 141210Z AUTO 36003KT 3/4SM BR VV002 17/16 A3005 200 93 500 360/03 RMK AO2 T01720161
63870K0J4 0J420161214071511312/14/16 07:15:31  5-MIN K0J4 141215Z AUTO 02003KT 3/4SM BR VV002 17/16 A3005 200 93 500 020/03 RMK AO2 T01720161
63870K0J4 0J420161214072011312/14/16 07:20:31  5-MIN K0J4 141220Z AUTO 00000KT 3/4SM BR VV002 17/16 A3005 200 93 500 000/00 RMK AO2 T01720161
63870K0J4 0J420161214072511312/14/16 07:25:31  5-MIN K0J4 141225Z AUTO 35003KT 3/4SM BR VV002 17/16 A3005 200 93 500 350/03 RMK AO2 T01720161
63870K0J4 0J420161214073011112/14/16 07:30:31  5-MIN K0J4 141230Z AUTO 01003KT 1SM BR VV002 17/16 A3005 200 93 500 010/03 RMK AO2 T01720161
63870K0J4 0J420161214073511612/14/16 07:35:31  5-MIN K0J4 141235Z AUTO 36003KT 1 1/2SM BR OVC003 17/16 A3005 200 93 500 360/03 RMK AO2 T01720161
63870K0J4 0J420161214074011612/14/16 07:40:31  5-MIN K0J4 141240Z AUTO 01003KT 2 1/2SM BR OVC003 17/16 A3005 200 93 500 010/03 RMK AO2 T01720161
63870K0J4 0J420161214074511212/14/16 07:45:31  5-MIN K0J4 141245Z AUTO 36004KT 4SM BR OVC003 17/16 A3005 200 93 500 360/04 RMK AO2 T01720161
63870K0J4 0J420161214075011212/14/16 07:50:31  5-MIN K0J4 141250Z AUTO 36003KT 5SM BR OVC002 17/16 A3005 190 93 500 360/03 RMK AO2 T01720161
63870K0J4 0J420161214075511912/14/16 07:55:31  5-MIN K0J4 141255Z AUTO 01003KT 5SM BR OVC002 17/16 A3005 190 93 500 010/03 RMK AO2 SLP175 T01720161
63870K0J4 0J420161214080012412/14/16 08:00:31  5-MIN K0J4 141300Z AUTO 01003KT 3SM BR OVC002 17/16 A3006 190 93 500 010/03 RMK AO2 CIG 001V006 T01720161
63870K0J4 0J420161214080511612/14/16 08:05:31  5-MIN K0J4 141305Z AUTO 02003KT 2 1/2SM BR OVC002 17/16 A3006 190 93 500 020/03 RMK AO2 T01720161
63870K0J4 0J420161214081011612/14/16 08:10:31  5-MIN K0J4 141310Z AUTO 01004KT 2 1/2SM BR OVC002 17/16 A3006 190 93 500 010/04 RMK AO2 T01720161
63870K0J4 0J420161214081511212/14/16 08:15:31  5-MIN K0J4 141315Z AUTO 01005KT 3SM BR OVC002 17/16 A3006 190 93 500 010/05 RMK AO2 T01720161
63870K0J4 0J420161214082011212/14/16 08:20:31  5-MIN K0J4 141320Z AUTO 01005KT 4SM BR OVC002 17/16 A3006 180 93 500 010/05 RMK AO2 T01720161
63870K0J4 0J420161214082512412/14/16 08:25:31  5-MIN K0J4 141325Z AUTO 36003KT 4SM BR OVC002 17/16 A3007 180 93 500 360/03 RMK AO2 CIG 002V007 T01720161
63870K0J4 0J420161214083012412/14/16 08:30:31  5-MIN K0J4 141330Z AUTO 36006KT 4SM BR OVC002 17/16 A3007 180 93 500 360/06 RMK AO2 CIG 002V007 T01720161
63870K0J4 0J420161214083511212/14/16 08:35:31  5-MIN K0J4 141335Z AUTO 01005KT 5SM BR OVC003 17/16 A3007 180 96 500 010/05 RMK AO2 T01670161
63870K0J4 0J420161214084012412/14/16 08:40:31  5-MIN K0J4 141340Z AUTO VRB04KT 5SM BR OVC003 17/16 A3008 170 96 400 VRB/04 RMK AO2 CIG 002V007 T01670161
63870K0J4 0J420161214084511612/14/16 08:45:31  5-MIN K0J4 141345Z AUTO 01004KT 2 1/2SM BR OVC003 17/16 A3008 170 96 400 010/04 RMK AO2 T01670161
63870K0J4 0J420161214085011212/14/16 08:50:31  5-MIN K0J4 141350Z AUTO 36005KT 3SM BR OVC003 17/16 A3008 170 96 400 360/05 RMK AO2 T01670161
63870K0J4 0J420161214085511912/14/16 08:55:31  5-MIN K0J4 141355Z AUTO 36005KT 5SM BR OVC002 17/16 A3008 160 96 400 360/05 RMK AO2 SLP185 T01670161
63870K0J4 0J420161214090010912/14/16 09:00:31  5-MIN K0J4 141400Z AUTO 36005KT 7SM OVC002 17/16 A3009 160 93 400 360/05 RMK AO2 T01670156
63870K0J4 0J420161214090511212/14/16 09:05:31  5-MIN K0J4 141405Z AUTO 02007KT 5SM BR OVC002 17/16 A3008 160 93 400 020/07 RMK AO2 T01670156
63870K0J4 0J420161214091011212/14/16 09:10:31  5-MIN K0J4 141410Z AUTO 03008KT 4SM BR OVC002 17/16 A3009 160 93 400 030/08 RMK AO2 T01670156
63870K0J4 0J420161214091511212/14/16 09:15:31  5-MIN K0J4 141415Z AUTO 02006KT 3SM BR OVC002 17/16 A3009 160 93 400 020/06 RMK AO2 T01670156
63870K0J4 0J420161214092012812/14/16 09:20:31  5-MIN K0J4 141420Z AUTO 02006KT 2 1/2SM BR OVC002 17/16 A3009 160 93 400 020/06 RMK AO2 CIG 002V005 T01670156
63870K0J4 0J420161214092512412/14/16 09:25:31  5-MIN K0J4 141425Z AUTO 02005KT 5SM BR OVC003 17/16 A3009 160 93 400 020/05 RMK AO2 CIG 002V006 T01670156
63870K0J4 0J420161214093012112/14/16 09:30:31  5-MIN K0J4 141430Z AUTO 02006KT 8SM OVC003 17/16 A3009 160 93 400 020/06 RMK AO2 CIG 002V006 T01670156
63870K0J4 0J420161214093512912/14/16 09:35:31  5-MIN K0J4 141435Z AUTO 02007KT 10SM BKN003 OVC011 17/16 A3009 160 93 400 020/07 RMK AO2 CIG 002V007 T01670156
63870K0J4 0J420161214094012912/14/16 09:40:31  5-MIN K0J4 141440Z AUTO 02007KT 10SM BKN005 OVC011 17/15 A3009 160 90 400 020/07 RMK AO2 CIG 003V007 T01670150
63870K0J4 0J420161214094512912/14/16 09:45:31  5-MIN K0J4 141445Z AUTO 02007KT 10SM BKN005 OVC011 17/15 A3009 160 90 400 020/07 RMK AO2 CIG 003V007 T01670150
63870K0J4 0J420161214095012812/14/16 09:50:31  5-MIN K0J4 141450Z AUTO 01007KT 8SM BKN005 OVC012 16/15 A3010 150 93 400 010/07 RMK AO2 CIG 003V007 T01610150
63870K0J4 0J420161214095514112/14/16 09:55:31  5-MIN K0J4 141455Z AUTO 02006KT 8SM BKN005 OVC012 16/15 A3010 150 93 400 020/06 RMK AO2 CIG 003V007 SLP190 T01610150 53002
63870K0J4 0J420161214100012812/14/16 10:00:31  5-MIN K0J4 141500Z AUTO 02006KT 8SM BKN005 OVC012 17/15 A3010 150 90 400 020/06 RMK AO2 CIG 003V007 T01670150
63870K0J4 0J420161214100512112/14/16 10:05:31  5-MIN K0J4 141505Z AUTO 02006KT 8SM OVC005 17/15 A3010 150 90 400 020/06 RMK AO2 CIG 003V007 T01670150
63870K0J4 0J420161214101012112/14/16 10:10:31  5-MIN K0J4 141510Z AUTO 03007KT 7SM OVC005 17/15 A3010 150 90 400 030/07 RMK AO2 CIG 003V007 T01670150
63870K0J4 0J420161214101512112/14/16 10:15:31  5-MIN K0J4 141515Z AUTO 02007KT 7SM OVC005 17/15 A3011 150 90 400 020/07 RMK AO2 CIG 003V007 T01670150
63870K0J4 0J420161214102012112/14/16 10:20:31  5-MIN K0J4 141520Z AUTO 02007KT 7SM OVC005 17/15 A3011 150 90 400 020/07 RMK AO2 CIG 003V007 T01670150
63870K0J4 0J420161214102512412/14/16 10:25:31  5-MIN K0J4 141525Z AUTO 02007KT 6SM BR OVC005 17/15 A3010 150 90 400 020/07 RMK AO2 CIG 004V007 T01670150
63870K0J4 0J420161214103011212/14/16 10:30:31  5-MIN K0J4 141530Z AUTO 02005KT 6SM BR OVC005 17/15 A3010 150 90 400 020/05 RMK AO2 T01670150
63870K0J4 0J420161214201511412/14/16 20:15:31  5-MIN K0J4 150115Z AUTO 00000KT 5SM BR OVC004 16/14 A3009 160 90 300 000/00 RMK AO2 T01560139 $
63870K0J4 0J420161214202011412/14/16 20:20:31  5-MIN K0J4 150120Z AUTO VRB03KT 5SM BR OVC004 16/14 A3009 160 90 300 VRB/03 RMK AO2 T01560139 $
63870K0J4 0J420161214202511412/14/16 20:25:31  5-MIN K0J4 150125Z AUTO 00000KT 5SM BR OVC004 16/14 A3008 170 90 300 000/00 RMK AO2 T01560139 $
63870K0J4 0J420161214203011412/14/16 20:30:31  5-MIN K0J4 150130Z AUTO 00000KT 6SM BR OVC004 16/14 A3008 170 90 300 000/00 RMK AO2 T01560139 $
63870K0J4 0J420161214203511412/14/16 20:35:31  5-MIN K0J4 150135Z AUTO 00000KT 6SM BR OVC004 16/14 A3009 160 90 300 000/00 RMK AO2 T01560139 $
63870K0J4 0J420161214204011412/14/16 20:40:31  5-MIN K0J4 150140Z AUTO 00000KT 5SM BR OVC004 16/14 A3009 160 90 300 000/00 RMK AO2 T01560139 $
63870K0J4 0J420161214204511412/14/16 20:45:31  5-MIN K0J4 150145Z AUTO VRB03KT 5SM BR OVC004 16/14 A3009 160 90 300 VRB/03 RMK AO2 T01560139 $
63870K0J4 0J420161214205012612/14/16 20:50:31  5-MIN K0J4 150150Z AUTO 34005KT 5SM BR OVC004 15/14 A3009 160 93 200 340/05 RMK AO2 CIG 002V006 T01500139 $
63870K0J4 0J420161214205512112/14/16 20:55:31  5-MIN K0J4 150155Z AUTO 36006KT 4SM BR OVC002 15/14 A3010 150 93 200 360/06 RMK AO2 SLP189 T01500139 $
63870K0J4 0J420161214210011412/14/16 21:00:31  5-MIN K0J4 150200Z AUTO 35004KT 4SM BR OVC002 15/13 A3010 150 90 200 350/04 RMK AO2 T01500133 $
63870K0J4 0J420161214210511412/14/16 21:05:31  5-MIN K0J4 150205Z AUTO 34003KT 4SM BR OVC002 15/14 A3010 150 93 200 340/03 RMK AO2 T01500139 $
63870K0J4 0J420161214211011412/14/16 21:10:31  5-MIN K0J4 150210Z AUTO 35004KT 4SM BR OVC002 15/13 A3010 150 90 200 350/04 RMK AO2 T01500133 $
63870K0J4 0J420161214211511412/14/16 21:15:31  5-MIN K0J4 150215Z AUTO 36005KT 5SM BR OVC002 14/13 A3010 150 93 200 360/05 RMK AO2 T01440133 $
63870K0J4 0J420161214212011412/14/16 21:20:31  5-MIN K0J4 150220Z AUTO VRB05KT 4SM BR OVC002 14/13 A3010 150 93 200 VRB/05 RMK AO2 T01440133 $
63870K0J4 0J420161214212511412/14/16 21:25:31  5-MIN K0J4 150225Z AUTO 36004KT 4SM BR OVC002 14/13 A3011 150 93 200 360/04 RMK AO2 T01440133 $
63870K0J4 0J420161214213011412/14/16 21:30:31  5-MIN K0J4 150230Z AUTO 34003KT 4SM BR OVC002 14/13 A3011 140 93 200 340/03 RMK AO2 T01440133 $
63870K0J4 0J420161214213507312/14/16 21:35:31  5-MIN K0J4 150235Z AUTO VRB03KT M M M VRB/03 RMK AO2 $
63870K0J4 0J420161214214010012/14/16 21:40:31  5-MIN K0J4 150240Z AUTO VRB03KT 14/13 A3011 140 93 100 VRB/03 RMK AO2 T01440133 $
63870K0J4 0J420161214214510712/14/16 21:45:31  5-MIN K0J4 150245Z AUTO VRB04KT 4SM BR 14/13 A3011 140 93 100 VRB/04 RMK AO2 T01440133 $
63870K0J4 0J420161214215010712/14/16 21:50:31  5-MIN K0J4 150250Z AUTO 33004KT 5SM BR 14/13 A3012 130 93 100 330/04 RMK AO2 T01440133 $
63870K0J4 0J420161214215511412/14/16 21:55:31  5-MIN K0J4 150255Z AUTO VRB04KT 5SM BR 14/13 A3012 130 90 100 VRB/04 RMK AO2 SLP196 T01440128 $
63870K0J4 0J420161214220010712/14/16 22:00:31  5-MIN K0J4 150300Z AUTO VRB03KT 4SM BR 14/13 A3012 130 90 100 VRB/03 RMK AO2 T01440128 $
63870K0J4 0J420161214220511412/14/16 22:05:31  5-MIN K0J4 150305Z AUTO 35006KT 4SM BR OVC002 14/13 A3012 130 93 100 350/06 RMK AO2 T01390128 $
63870K0J4 0J420161214221011412/14/16 22:10:31  5-MIN K0J4 150310Z AUTO 36004KT 3SM BR OVC002 14/13 A3012 130 93 100 360/04 RMK AO2 T01390128 $
63870K0J4 0J420161214221511412/14/16 22:15:31  5-MIN K0J4 150315Z AUTO 36006KT 3SM BR OVC002 14/13 A3012 130 93 100 360/06 RMK AO2 T01390128 $
63870K0J4 0J420161214222011812/14/16 22:20:31  5-MIN K0J4 150320Z AUTO 01004KT 2 1/2SM BR OVC002 14/13 A3012 130 93 100 010/04 RMK AO2 T01390128 $
63870K0J4 0J420161214222513012/14/16 22:25:31  5-MIN K0J4 150325Z AUTO 01006KT 3SM -RA BR OVC002 14/13 A3012 130 93 100 010/06 RMK AO2 RAB21 P0000 T01390128 $
63870K0J4 0J420161214223012812/14/16 22:30:31  5-MIN K0J4 150330Z AUTO 36006KT 3SM -RA BR OVC002 13/12 A3012 130 93 0 360/06 RMK AO2 RAB21 P0000 T01330122 $
63870K0J4 0J420161214223513112/14/16 22:35:31  5-MIN K0J4 150335Z AUTO 36005KT 2 1/2SM BR OVC001 13/12 A3013 130 93 0 360/05 RMK AO2 RAB21E31 P0000 T01330122 $
63870K0J4 0J420161214224012712/14/16 22:40:31  5-MIN K0J4 150340Z AUTO 01007KT 2SM BR OVC001 13/12 A3013 120 93 0 010/07 RMK AO2 RAB21E31 P0000 T01330122 $
63870K0J4 0J420161214224512712/14/16 22:45:31  5-MIN K0J4 150345Z AUTO 35005KT 2SM BR OVC001 13/12 A3013 120 93 0 350/05 RMK AO2 RAB21E31 P0000 T01330122 $
63870K0J4 0J420161214225013112/14/16 22:50:31  5-MIN K0J4 150350Z AUTO 36006KT 1 3/4SM BR OVC001 13/12 A3013 120 93 0 360/06 RMK AO2 RAB21E31 P0000 T01330122 $
63870K0J4 0J420161214225513812/14/16 22:55:31  5-MIN K0J4 150355Z AUTO VRB06KT 1 3/4SM BR OVC001 13/12 A3013 120 93 0 VRB/06 RMK AO2 RAB21E31 SLP200 P0000 T01330122 $
63870K0J4 0J420161214230011212/14/16 23:00:31  5-MIN K0J4 150400Z AUTO 35005KT 2SM BR OVC001 13/12 A3013 120 93 0 350/05 RMK AO2 T01330122 $
63870K0J4 0J420161214230511912/14/16 23:05:31  5-MIN K0J4 150405Z AUTO 35004KT 3SM BR BKN001 OVC005 13/12 A3013 120 93 0 350/04 RMK AO2 T01330122 $
63870K0J4 0J420161214231013112/14/16 23:10:31  5-MIN K0J4 150410Z AUTO VRB04KT 5SM BR BKN003 OVC009 13/12 A3013 120 93 0 VRB/04 RMK AO2 CIG 001V005 T01330122 $
63870K0J4 0J420161214231512412/14/16 23:15:31  5-MIN K0J4 150415Z AUTO VRB04KT 5SM BR OVC003 13/12 A3014 120 93 0 VRB/04 RMK AO2 CIG 001V005 T01330122 $
63870K0J4 0J420161214232011212/14/16 23:20:31  5-MIN K0J4 150420Z AUTO 36005KT 4SM BR OVC002 13/12 A3013 120 89 0 360/05 RMK AO2 T01330117 $
63870K0J4 0J420161214232511212/14/16 23:25:31  5-MIN K0J4 150425Z AUTO VRB05KT 4SM BR OVC002 13/12 A3014 120 93 0 VRB/05 RMK AO2 T01280117 $
63870K0J4 0J420161214233011212/14/16 23:30:31  5-MIN K0J4 150430Z AUTO 36005KT 4SM BR OVC003 13/12 A3014 110 93 0 360/05 RMK AO2 T01280117 $
63870K0J4 0J420161214233511212/14/16 23:35:31  5-MIN K0J4 150435Z AUTO 01005KT 5SM BR OVC003 13/12 A3014 120 93 0 010/05 RMK AO2 T01280117 $
63870K0J4 0J420161214234011212/14/16 23:40:31  5-MIN K0J4 150440Z AUTO 01007KT 5SM BR OVC003 13/12 A3014 120 93 0 010/07 RMK AO2 T01280117 $
63870K0J4 0J420161214234511212/14/16 23:45:31  5-MIN K0J4 150445Z AUTO 01007KT 5SM BR OVC003 13/12 A3014 110 93 0 010/07 RMK AO2 T01280117 $
63870K0J4 0J420161214235011212/14/16 23:50:31  5-MIN K0J4 150450Z AUTO 01007KT 5SM BR OVC003 13/12 A3014 110 93 0 010/07 RMK AO2 T01280117 $
63870K0J4 0J420161214235512912/14/16 23:55:31  5-MIN K0J4 150455Z AUTO 35006KT 5SM BR OVC003 13/11 A3014 110 89 0 350/06 RMK AO2 SLP205 T01280111 401780128 $
63870K0J4 0J420161215000011212/15/16 00:00:31  5-MIN K0J4 150500Z AUTO 35004KT 5SM BR OVC003 13/11 A3015 110 89 0 350/04 RMK AO2 T01280111 $
63870K0J4 0J420161215000512412/15/16 00:05:31  5-MIN K0J4 150505Z AUTO VRB04KT 6SM BR OVC003 13/11 A3015 110 89 0 VRB/04 RMK AO2 CIG 003V008 T01280111 $
63870K0J4 0J420161215001012812/15/16 00:10:31  5-MIN K0J4 150510Z AUTO 35004KT 7SM BKN005 OVC011 13/11 A3015 110 89 0 350/04 RMK AO2 CIG 003V008 T01280111 $
63870K0J4 0J420161215001512812/15/16 00:15:31  5-MIN K0J4 150515Z AUTO 34003KT 8SM BKN003 OVC009 13/11 A3015 110 89 0 340/03 RMK AO2 CIG 003V006 T01280111 $
63870K0J4 0J420161215002012812/15/16 00:20:31  5-MIN K0J4 150520Z AUTO VRB04KT 8SM BKN006 OVC011 13/11 A3015 110 89 0 VRB/04 RMK AO2 CIG 003V008 T01280111 $
63870K0J4 0J420161215002512812/15/16 00:25:31  5-MIN K0J4 150525Z AUTO VRB03KT 8SM BKN006 OVC013 13/11 A3014 110 89 0 VRB/03 RMK AO2 CIG 004V008 T01280111 $
63870K0J4 0J420161215003011612/15/16 00:30:31  5-MIN K0J4 150530Z AUTO 00000KT 8SM SCT006 OVC013 13/11 A3014 110 89 0 000/00 RMK AO2 T01280111 $
63870K0J4 0J420161215003512312/15/16 00:35:31  5-MIN K0J4 150535Z AUTO VRB04KT 8SM FEW006 SCT011 OVC015 13/11 A3014 120 89 0 VRB/04 RMK AO2 T01280111 $
63870K0J4 0J420161215004011612/15/16 00:40:31  5-MIN K0J4 150540Z AUTO 35004KT 9SM FEW007 OVC017 13/11 A3014 110 86 0 350/04 RMK AO2 T01280106 $
63870K0J4 0J420161215004511612/15/16 00:45:31  5-MIN K0J4 150545Z AUTO VRB03KT 9SM FEW007 OVC017 13/11 A3014 110 86 0 VRB/03 RMK AO2 T01280106 $
63870K0J4 0J420161215005010912/15/16 00:50:31  5-MIN K0J4 150550Z AUTO VRB03KT 9SM OVC017 13/11 A3014 110 86 0 VRB/03 RMK AO2 T01280106 $
63870K0J4 0J420161215005513812/15/16 00:55:31  5-MIN K0J4 150555Z AUTO 36003KT 10SM OVC017 12/11 A3014 110 89 -100 360/03 RMK AO2 SLP204 60000 T01220106 10156 20122 $
63870K0J4 0J420161215010011312/15/16 01:00:31  5-MIN K0J4 150600Z AUTO 35004KT 10SM OVC018 12/11 A3014 120 89 -100 350/04 RMK AO2 T01220106 $
63870K0J4 0J420161215010511312/15/16 01:05:31  5-MIN K0J4 150605Z AUTO 36003KT 10SM OVC018 12/10 A3014 110 86 -100 360/03 RMK AO2 T01220100 $
63870K0J4 0J420161215011012012/15/16 01:10:31  5-MIN K0J4 150610Z AUTO VRB03KT 10SM BKN019 OVC027 12/10 A3014 110 86 -100 VRB/03 RMK AO2 T01220100 $
63870K0J4 0J420161215011512012/15/16 01:15:31  5-MIN K0J4 150615Z AUTO 00000KT 10SM BKN019 OVC027 12/11 A3014 110 89 -100 000/00 RMK AO2 T01220106 $
63870K0J4 0J420161215012012012/15/16 01:20:31  5-MIN K0J4 150620Z AUTO VRB03KT 10SM BKN021 OVC028 12/11 A3014 110 89 -100 VRB/03 RMK AO2 T01220106 $
63870K0J4 0J420161215012512012/15/16 01:25:31  5-MIN K0J4 150625Z AUTO 32003KT 10SM SCT021 OVC028 12/11 A3014 110 89 -100 320/03 RMK AO2 T01220106 $
63870K0J4 0J420161215013012012/15/16 01:30:31  5-MIN K0J4 150630Z AUTO 00000KT 10SM FEW021 OVC027 12/11 A3014 110 89 -100 000/00 RMK AO2 T01220106 $
63870K0J4 0J420161215013511312/15/16 01:35:31  5-MIN K0J4 150635Z AUTO 00000KT 10SM OVC027 12/11 A3014 110 89 -100 000/00 RMK AO2 T01220106 $
63870K0J4 0J420161215014011312/15/16 01:40:31  5-MIN K0J4 150640Z AUTO 00000KT 10SM OVC026 12/11 A3014 110 89 -100 000/00 RMK AO2 T01220106 $
63870K0J4 0J420161215014511312/15/16 01:45:31  5-MIN K0J4 150645Z AUTO 00000KT 10SM OVC026 12/11 A3014 110 89 -100 000/00 RMK AO2 T01220106 $
63870K0J4 0J420161215015011312/15/16 01:50:31  5-MIN K0J4 150650Z AUTO 00000KT 10SM OVC026 12/11 A3014 110 89 -100 000/00 RMK AO2 T01220106 $
63870K0J4 0J420161215015512012/15/16 01:55:31  5-MIN K0J4 150655Z AUTO VRB03KT 10SM OVC024 12/10 A3015 110 86 -100 VRB/03 RMK AO2 SLP206 T01220100 $
63870K0J4 0J420161215020011312/15/16 02:00:31  5-MIN K0J4 150700Z AUTO 00000KT 10SM OVC024 12/10 A3015 110 86 -100 000/00 RMK AO2 T01220100 $
63870K0J4 0J420161215020511312/15/16 02:05:31  5-MIN K0J4 150705Z AUTO VRB03KT 10SM OVC024 12/10 A3015 110 86 -100 VRB/03 RMK AO2 T01220100 $
63870K0J4 0J420161215021011312/15/16 02:10:31  5-MIN K0J4 150710Z AUTO 00000KT 10SM OVC024 12/10 A3015 110 86 -100 000/00 RMK AO2 T01220100 $
63870K0J4 0J420161215021511312/15/16 02:15:31  5-MIN K0J4 150715Z AUTO VRB03KT 10SM OVC024 12/10 A3015 100 86 -100 VRB/03 RMK AO2 T01220100 $
63870K0J4 0J420161215022011312/15/16 02:20:31  5-MIN K0J4 150720Z AUTO 00000KT 10SM OVC024 12/10 A3015 100 86 -100 000/00 RMK AO2 T01220100 $
63870K0J4 0J420161215022511312/15/16 02:25:31  5-MIN K0J4 150725Z AUTO 32003KT 10SM OVC024 12/10 A3015 100 86 -100 320/03 RMK AO2 T01220100 $
63870K0J4 0J420161215023011312/15/16 02:30:31  5-MIN K0J4 150730Z AUTO 33003KT 10SM OVC024 12/10 A3015 100 89 -200 330/03 RMK AO2 T01170100 $
63870K0J4 0J420161215023511312/15/16 02:35:31  5-MIN K0J4 150735Z AUTO VRB04KT 10SM BKN025 12/09 A3015 100 86 -200 VRB/04 RMK AO2 T01170094 $
63870K0J4 0J420161215024011312/15/16 02:40:31  5-MIN K0J4 150740Z AUTO 00000KT 10SM BKN025 12/09 A3015 100 86 -200 000/00 RMK AO2 T01170094 $
63870K0J4 0J420161215024511312/15/16 02:45:31  5-MIN K0J4 150745Z AUTO 34004KT 10SM BKN026 12/09 A3016 100 86 -200 340/04 RMK AO2 T01170094 $
63870K0J4 0J420161215025011312/15/16 02:50:31  5-MIN K0J4 150750Z AUTO VRB03KT 10SM SCT026 11/09 A3016 100 86 -300 VRB/03 RMK AO2 T01110089 $
63870K0J4 0J420161215025512012/15/16 02:55:31  5-MIN K0J4 150755Z AUTO VRB03KT 10SM FEW027 11/09 A3016 100 86 -300 VRB/03 RMK AO2 SLP211 T01110089 $
63870K0J4 0J420161215030011312/15/16 03:00:31  5-MIN K0J4 150800Z AUTO 34004KT 10SM FEW027 11/09 A3016 100 86 -300 340/04 RMK AO2 T01110089 $
63870K0J4 0J420161215030511312/15/16 03:05:31  5-MIN K0J4 150805Z AUTO VRB04KT 10SM FEW027 11/09 A3016 100 86 -300 VRB/04 RMK AO2 T01110089 $
63870K0J4 0J420161215031010912/15/16 03:10:31  5-MIN K0J4 150810Z AUTO VRB03KT 10SM CLR 11/08 A3016 90 86 -300 VRB/03 RMK AO2 T01060083 $
63870K0J4 0J420161215031510912/15/16 03:15:31  5-MIN K0J4 150815Z AUTO 33003KT 10SM CLR 11/08 A3016 90 86 -300 330/03 RMK AO2 T01060083 $
63870K0J4 0J420161215032010912/15/16 03:20:31  5-MIN K0J4 150820Z AUTO VRB03KT 10SM CLR 11/08 A3016 90 86 -300 VRB/03 RMK AO2 T01060083 $
63870K0J4 0J420161215032510912/15/16 03:25:31  5-MIN K0J4 150825Z AUTO 00000KT 10SM CLR 11/08 A3016 90 86 -300 000/00 RMK AO2 T01060083 $
63870K0J4 0J420161215033010912/15/16 03:30:31  5-MIN K0J4 150830Z AUTO VRB03KT 10SM CLR 10/08 A3016 90 89 -400 VRB/03 RMK AO2 T01000083 $
63870K0J4 0J420161215033510912/15/16 03:35:31  5-MIN K0J4 150835Z AUTO 00000KT 10SM CLR 10/08 A3016 90 89 -400 000/00 RMK AO2 T01000083 $
63870K0J4 0J420161215034010912/15/16 03:40:31  5-MIN K0J4 150840Z AUTO 32003KT 10SM CLR 10/08 A3016 90 89 -400 320/03 RMK AO2 T01000083 $
63870K0J4 0J420161215034510912/15/16 03:45:31  5-MIN K0J4 150845Z AUTO 00000KT 10SM CLR 10/08 A3016 90 89 -400 000/00 RMK AO2 T01000083 $
63870K0J4 0J420161215035010912/15/16 03:50:31  5-MIN K0J4 150850Z AUTO 32003KT 10SM CLR 10/08 A3016 90 86 -400 320/03 RMK AO2 T01000078 $
63870K0J4 0J420161215035512212/15/16 03:55:31  5-MIN K0J4 150855Z AUTO 00000KT 10SM CLR 09/08 A3016 90 89 -500 000/00 RMK AO2 SLP212 T00940078 50007 $
63870K0J4 0J420161215040010912/15/16 04:00:31  5-MIN K0J4 150900Z AUTO 33003KT 10SM CLR 09/08 A3016 90 89 -500 330/03 RMK AO2 T00940078 $
63870K0J4 0J420161215040510912/15/16 04:05:31  5-MIN K0J4 150905Z AUTO 00000KT 10SM CLR 09/08 A3016 90 89 -500 000/00 RMK AO2 T00940078 $
63870K0J4 0J420161215041011012/15/16 04:10:31  5-MIN K0J4 150910Z AUTO 00000KT 10SM CLR 09/08 A3016 100 89 -500 000/00 RMK AO2 T00940078 $
63870K0J4 0J420161215041511012/15/16 04:15:31  5-MIN K0J4 150915Z AUTO 00000KT 10SM CLR 09/08 A3016 100 89 -500 000/00 RMK AO2 T00940078 $
63870K0J4 0J420161215042010912/15/16 04:20:31  5-MIN K0J4 150920Z AUTO 32003KT 9SM CLR 09/08 A3016 100 93 -500 320/03 RMK AO2 T00890078 $
63870K0J4 0J420161215042510912/15/16 04:25:31  5-MIN K0J4 150925Z AUTO 32003KT 9SM CLR 09/08 A3016 100 93 -500 320/03 RMK AO2 T00890078 $
63870K0J4 0J420161215043010812/15/16 04:30:31  5-MIN K0J4 150930Z AUTO 32003KT 9SM CLR 09/08 A3016 90 93 -500 320/03 RMK AO2 T00890078 $
63870K0J4 0J420161215043510812/15/16 04:35:31  5-MIN K0J4 150935Z AUTO 33003KT 9SM CLR 09/08 A3017 90 93 -500 330/03 RMK AO2 T00890078 $
63870K0J4 0J420161215044010812/15/16 04:40:31  5-MIN K0J4 150940Z AUTO VRB03KT 9SM CLR 09/08 A3016 90 93 -500 VRB/03 RMK AO2 T00890078 $
63870K0J4 0J420161215044510812/15/16 04:45:31  5-MIN K0J4 150945Z AUTO VRB03KT 9SM CLR 09/08 A3016 90 93 -500 VRB/03 RMK AO2 T00890078 $
63870K0J4 0J420161215045010812/15/16 04:50:31  5-MIN K0J4 150950Z AUTO 00000KT 9SM CLR 09/08 A3016 90 93 -500 000/00 RMK AO2 T00890078 $
63870K0J4 0J420161215045511512/15/16 04:55:31  5-MIN K0J4 150955Z AUTO 00000KT 9SM CLR 09/07 A3017 90 89 -500 000/00 RMK AO2 SLP214 T00890072 $
63870K0J4 0J420161215050010812/15/16 05:00:31  5-MIN K0J4 151000Z AUTO VRB03KT 9SM CLR 09/07 A3017 90 89 -500 VRB/03 RMK AO2 T00890072 $
63870K0J4 0J420161215050510812/15/16 05:05:31  5-MIN K0J4 151005Z AUTO 33003KT 9SM CLR 09/07 A3017 90 89 -500 330/03 RMK AO2 T00890072 $
63870K0J4 0J420161215051010812/15/16 05:10:31  5-MIN K0J4 151010Z AUTO 33003KT 9SM CLR 08/07 A3017 90 93 -600 330/03 RMK AO2 T00830072 $
63870K0J4 0J420161215051510812/15/16 05:15:31  5-MIN K0J4 151015Z AUTO 34003KT 9SM CLR 08/07 A3017 90 93 -600 340/03 RMK AO2 T00830072 $
63870K0J4 0J420161215052010812/15/16 05:20:31  5-MIN K0J4 151020Z AUTO 34004KT 9SM CLR 08/07 A3017 90 93 -600 340/04 RMK AO2 T00830072 $
63870K0J4 0J420161215052510812/15/16 05:25:31  5-MIN K0J4 151025Z AUTO 34004KT 9SM CLR 08/07 A3017 90 93 -600 340/04 RMK AO2 T00830072 $
63870K0J4 0J420161215053010912/15/16 05:30:31  5-MIN K0J4 151030Z AUTO 35004KT 10SM CLR 08/07 A3017 80 93 -600 350/04 RMK AO2 T00830072 $
63870K0J4 0J420161215053510912/15/16 05:35:31  5-MIN K0J4 151035Z AUTO 34003KT 10SM CLR 08/07 A3017 80 89 -600 340/03 RMK AO2 T00830067 $
63870K0J4 0J420161215054010912/15/16 05:40:31  5-MIN K0J4 151040Z AUTO 34003KT 10SM CLR 08/07 A3018 80 89 -600 340/03 RMK AO2 T00830067 $
63870K0J4 0J420161215054510912/15/16 05:45:31  5-MIN K0J4 151045Z AUTO VRB05KT 10SM CLR 08/07 A3018 70 89 -600 VRB/05 RMK AO2 T00830067 $
63870K0J4 0J420161215055010912/15/16 05:50:31  5-MIN K0J4 151050Z AUTO 35004KT 10SM CLR 08/07 A3019 70 89 -600 350/04 RMK AO2 T00830067 $
63870K0J4 0J420161215055511612/15/16 05:55:31  5-MIN K0J4 151055Z AUTO 35004KT 10SM CLR 08/07 A3019 70 89 -600 350/04 RMK AO2 SLP221 T00830067 $
63870K0J4 0J420161215060010912/15/16 06:00:31  5-MIN K0J4 151100Z AUTO 35005KT 10SM CLR 08/07 A3019 70 89 -600 350/05 RMK AO2 T00830067 $
63870K0J4 0J420161215060510912/15/16 06:05:31  5-MIN K0J4 151105Z AUTO 36005KT 10SM CLR 08/06 A3019 60 86 -600 360/05 RMK AO2 T00830061 $
63870K0J4 0J420161215061010912/15/16 06:10:31  5-MIN K0J4 151110Z AUTO 35005KT 10SM CLR 08/06 A3020 60 86 -600 350/05 RMK AO2 T00830061 $
63870K0J4 0J420161215061510912/15/16 06:15:31  5-MIN K0J4 151115Z AUTO 36005KT 10SM CLR 08/06 A3020 60 89 -700 360/05 RMK AO2 T00780061 $
63870K0J4 0J420161215062010912/15/16 06:20:31  5-MIN K0J4 151120Z AUTO 36006KT 10SM CLR 08/06 A3020 60 89 -700 360/06 RMK AO2 T00780061 $
63870K0J4 0J420161215062510912/15/16 06:25:31  5-MIN K0J4 151125Z AUTO 35005KT 10SM CLR 08/06 A3020 50 86 -700 350/05 RMK AO2 T00780056 $
63870K0J4 0J420161215063010912/15/16 06:30:31  5-MIN K0J4 151130Z AUTO 36005KT 10SM CLR 08/06 A3021 50 86 -700 360/05 RMK AO2 T00780056 $
63870K0J4 0J420161215063510912/15/16 06:35:31  5-MIN K0J4 151135Z AUTO 01005KT 10SM CLR 08/06 A3021 50 86 -700 010/05 RMK AO2 T00780056 $
63870K0J4 0J420161215064010912/15/16 06:40:31  5-MIN K0J4 151140Z AUTO 36005KT 10SM CLR 08/05 A3021 50 82 -700 360/05 RMK AO2 T00780050 $
63870K0J4 0J420161215064510912/15/16 06:45:31  5-MIN K0J4 151145Z AUTO 36006KT 10SM CLR 08/05 A3021 40 82 -700 360/06 RMK AO2 T00780050 $
63870K0J4 0J420161215065010912/15/16 06:50:31  5-MIN K0J4 151150Z AUTO 01005KT 10SM CLR 07/05 A3022 40 86 -800 010/05 RMK AO2 T00720050 $
63870K0J4 0J420161215065513412/15/16 06:55:31  5-MIN K0J4 151155Z AUTO 36005KT 10SM CLR 07/05 A3022 40 86 -800 360/05 RMK AO2 SLP232 T00720050 10122 20072 51007 $
63870K0J4 0J420161215070010912/15/16 07:00:31  5-MIN K0J4 151200Z AUTO 36006KT 10SM CLR 07/05 A3022 40 86 -800 360/06 RMK AO2 T00720050 $
63870K0J4 0J420161215070510912/15/16 07:05:31  5-MIN K0J4 151205Z AUTO 36005KT 10SM CLR 07/04 A3023 40 82 -800 360/05 RMK AO2 T00720044 $
63870K0J4 0J420161215071010912/15/16 07:10:31  5-MIN K0J4 151210Z AUTO 36005KT 10SM CLR 07/04 A3023 30 82 -800 360/05 RMK AO2 T00720044 $
63870K0J4 0J420161215071510912/15/16 07:15:31  5-MIN K0J4 151215Z AUTO 36005KT 10SM CLR 07/04 A3023 30 82 -800 360/05 RMK AO2 T00720044 $
63870K0J4 0J420161215072010912/15/16 07:20:31  5-MIN K0J4 151220Z AUTO 01004KT 10SM CLR 07/04 A3024 30 82 -800 010/04 RMK AO2 T00720044 $
63870K0J4 0J420161215072510912/15/16 07:25:31  5-MIN K0J4 151225Z AUTO 01005KT 10SM CLR 07/04 A3024 20 86 -900 010/05 RMK AO2 T00670044 $
63870K0J4 0J420161215073010912/15/16 07:30:31  5-MIN K0J4 151230Z AUTO 36005KT 10SM CLR 07/04 A3024 20 86 -900 360/05 RMK AO2 T00670044 $
63870K0J4 0J420161215073510912/15/16 07:35:31  5-MIN K0J4 151235Z AUTO 36005KT 10SM CLR 07/04 A3024 20 86 -900 360/05 RMK AO2 T00670044 $
63870K0J4 0J420161215074010912/15/16 07:40:31  5-MIN K0J4 151240Z AUTO 36005KT 10SM CLR 07/04 A3024 20 86 -900 360/05 RMK AO2 T00670044 $
63870K0J4 0J420161215074510912/15/16 07:45:31  5-MIN K0J4 151245Z AUTO 36005KT 10SM CLR 07/04 A3025 20 86 -900 360/05 RMK AO2 T00670044 $
63870K0J4 0J420161215075010912/15/16 07:50:31  5-MIN K0J4 151250Z AUTO 36004KT 10SM CLR 07/04 A3025 10 82 -900 360/04 RMK AO2 T00670039 $
63870K0J4 0J420161215075511612/15/16 07:55:31  5-MIN K0J4 151255Z AUTO 36004KT 10SM CLR 07/04 A3025 10 82 -900 360/04 RMK AO2 SLP243 T00670039 $
63870K0J4 0J420161215080010912/15/16 08:00:31  5-MIN K0J4 151300Z AUTO 36005KT 10SM CLR 07/04 A3025 10 82 -900 360/05 RMK AO2 T00670039 $
63870K0J4 0J420161215080510912/15/16 08:05:31  5-MIN K0J4 151305Z AUTO 36005KT 10SM CLR 07/04 A3026 10 86 -900 360/05 RMK AO2 T00670044 $
63870K0J4 0J420161215081010912/15/16 08:10:31  5-MIN K0J4 151310Z AUTO 36004KT 10SM CLR 07/04 A3026 10 86 -900 360/04 RMK AO2 T00670044 $
63870K0J4 0J420161216053011012/16/16 05:30:31  5-MIN K0J4 161030Z AUTO 09003KT 10SM CLR 02/M03 A3026 0 69 -1500 090/03 RMK AO2 T00221028 $
63870K0J4 0J420161216053511012/16/16 05:35:31  5-MIN K0J4 161035Z AUTO VRB03KT 10SM CLR 02/M03 A3026 0 69 -1500 VRB/03 RMK AO2 T00221028 $
63870K0J4 0J420161216054011012/16/16 05:40:31  5-MIN K0J4 161040Z AUTO 08003KT 10SM CLR 02/M03 A3026 0 69 -1500 080/03 RMK AO2 T00221028 $
63870K0J4 0J420161216054511012/16/16 05:45:31  5-MIN K0J4 161045Z AUTO 00000KT 10SM CLR 02/M03 A3026 0 69 -1500 000/00 RMK AO2 T00221028 $
63870K0J4 0J420161216055011012/16/16 05:50:31  5-MIN K0J4 161050Z AUTO 00000KT 10SM CLR 02/M03 A3026 0 69 -1500 000/00 RMK AO2 T00221028 $
63870K0J4 0J420161216055511812/16/16 05:55:31  5-MIN K0J4 161055Z AUTO 00000KT 10SM CLR 02/M03 A3026 10 69 -1500 000/00 RMK AO2 SLP245 T00221028 $
63870K0J4 0J420161216060011112/16/16 06:00:31  5-MIN K0J4 161100Z AUTO 00000KT 10SM CLR 02/M03 A3026 10 69 -1500 000/00 RMK AO2 T00221028 $
63870K0J4 0J420161216060511112/16/16 06:05:31  5-MIN K0J4 161105Z AUTO 00000KT 10SM CLR 02/M03 A3025 10 69 -1500 000/00 RMK AO2 T00221028 $
63870K0J4 0J420161216061011112/16/16 06:10:31  5-MIN K0J4 161110Z AUTO 00000KT 10SM CLR 02/M03 A3026 10 72 -1500 000/00 RMK AO2 T00171028 $
63870K0J4 0J420161216061511012/16/16 06:15:31  5-MIN K0J4 161115Z AUTO 00000KT 10SM CLR 02/M03 A3026 0 69 -1500 000/00 RMK AO2 T00221028 $
63870K0J4 0J420161216062011112/16/16 06:20:31  5-MIN K0J4 161120Z AUTO 00000KT 10SM CLR 02/M03 A3026 10 72 -1500 000/00 RMK AO2 T00171028 $
63870K0J4 0J420161216062511112/16/16 06:25:31  5-MIN K0J4 161125Z AUTO 00000KT 10SM CLR 02/M03 A3026 10 72 -1500 000/00 RMK AO2 T00171028 $
63870K0J4 0J420161216063011012/16/16 06:30:31  5-MIN K0J4 161130Z AUTO 00000KT 10SM CLR 02/M03 A3026 0 72 -1500 000/00 RMK AO2 T00171028 $
63870K0J4 0J420161216063507012/16/16 06:35:31  5-MIN K0J4 161135Z AUTO M M M M /M RMK AO2 FZRANO $
63870K0J4 0J420161216064010112/16/16 06:40:31  5-MIN K0J4 161140Z AUTO 00000KT 02/M03 A3027 0 72 -1500 000/00 RMK AO2 T00171028 $
63870K0J4 0J420161216064510612/16/16 06:45:31  5-MIN K0J4 161145Z AUTO 03003KT 10SM 02/M03 A3027 0 72 -1500 030/03 RMK AO2 T00171028 $
63870K0J4 0J420161216065010612/16/16 06:50:31  5-MIN K0J4 161150Z AUTO 03003KT 10SM 02/M03 A3027 0 72 -1500 030/03 RMK AO2 T00171028 $
63870K0J4 0J420161216065512512/16/16 06:55:31  5-MIN K0J4 161155Z AUTO 03003KT 10SM 02/M03 A3027 0 72 -1500 030/03 RMK AO2 SLP252 T00171028 10028 20017 $
63870K0J4 0J420161216070010612/16/16 07:00:31  5-MIN K0J4 161200Z AUTO 02003KT 10SM 01/M03 A3027 0 75 -1600 020/03 RMK AO2 T00111028 $
63870K0J4 0J420161216070511212/16/16 07:05:31  5-MIN K0J4 161205Z AUTO 02003KT 10SM CLR 01/M03 A3028 -10 75 -1600 020/03 RMK AO2 T00111028 $
63870K0J4 0J420161216071011212/16/16 07:10:31  5-MIN K0J4 161210Z AUTO 03003KT 10SM CLR 01/M03 A3028 -10 75 -1600 030/03 RMK AO2 T00111028 $
63870K0J4 0J420161216071511212/16/16 07:15:31  5-MIN K0J4 161215Z AUTO 03004KT 10SM CLR 01/M03 A3028 -10 75 -1600 030/04 RMK AO2 T00111028 $
63870K0J4 0J420161216072011212/16/16 07:20:31  5-MIN K0J4 161220Z AUTO 04003KT 10SM CLR 01/M03 A3028 -10 75 -1600 040/03 RMK AO2 T00111028 $
63870K0J4 0J420161216072511212/16/16 07:25:31  5-MIN K0J4 161225Z AUTO 04003KT 10SM CLR 01/M03 A3028 -10 75 -1600 040/03 RMK AO2 T00111028 $
63870K0J4 0J420161216073011212/16/16 07:30:31  5-MIN K0J4 161230Z AUTO 04003KT 10SM CLR 01/M03 A3028 -10 75 -1600 040/03 RMK AO2 T00111028 $
63870K0J4 0J420161216073511212/16/16 07:35:31  5-MIN K0J4 161235Z AUTO 04004KT 10SM CLR 01/M03 A3028 -10 78 -1700 040/04 RMK AO2 T00061028 $
63870K0J4 0J420161216074011212/16/16 07:40:31  5-MIN K0J4 161240Z AUTO 04003KT 10SM CLR 01/M03 A3028 -10 75 -1600 040/03 RMK AO2 T00111028 $
63870K0J4 0J420161216074511212/16/16 07:45:31  5-MIN K0J4 161245Z AUTO 03004KT 10SM CLR 01/M03 A3028 -10 75 -1600 030/04 RMK AO2 T00111028 $
63870K0J4 0J420161216075011012/16/16 07:50:31  5-MIN K0J4 161250Z AUTO 03004KT 10SM CLR 01/M03 A3028 -10 75 -1600 030/04 RMK AO2 T00111028
63870K0J4 0J420161216075511712/16/16 07:55:31  5-MIN K0J4 161255Z AUTO 05003KT 10SM CLR 01/M03 A3028 -10 75 -1600 050/03 RMK AO2 SLP255 T00111028
63870K0J4 0J420161216080011012/16/16 08:00:31  5-MIN K0J4 161300Z AUTO 04003KT 10SM CLR 01/M03 A3028 -10 75 -1600 040/03 RMK AO2 T00111028
63870K0J4 0J420161216080511012/16/16 08:05:31  5-MIN K0J4 161305Z AUTO 04003KT 10SM CLR 01/M03 A3028 -10 75 -1600 040/03 RMK AO2 T00111028
63870K0J4 0J420161216081011012/16/16 08:10:31  5-MIN K0J4 161310Z AUTO 05003KT 10SM CLR 01/M03 A3028 -10 75 -1600 050/03 RMK AO2 T00111028
63870K0J4 0J420161216081511012/16/16 08:15:31  5-MIN K0J4 161315Z AUTO 07003KT 10SM CLR 02/M02 A3028 -10 75 -1600 070/03 RMK AO2 T00171022
63870K0J4 0J420161216082011012/16/16 08:20:31  5-MIN K0J4 161320Z AUTO 07004KT 10SM CLR 02/M03 A3028 -10 69 -1500 070/04 RMK AO2 T00221028
63870K0J4 0J420161216082511012/16/16 08:25:31  5-MIN K0J4 161325Z AUTO 07005KT 10SM CLR 02/M03 A3029 -20 69 -1500 070/05 RMK AO2 T00221028
63870K0J4 0J420161216083011012/16/16 08:30:31  5-MIN K0J4 161330Z AUTO 07005KT 10SM CLR 02/M02 A3029 -10 72 -1500 070/05 RMK AO2 T00221022
63870K0J4 0J420161216083511012/16/16 08:35:31  5-MIN K0J4 161335Z AUTO 09005KT 10SM CLR 03/M03 A3028 -10 67 -1400 090/05 RMK AO2 T00281028
63870K0J4 0J420161216084011012/16/16 08:40:31  5-MIN K0J4 161340Z AUTO 09005KT 10SM CLR 03/M03 A3028 -10 67 -1400 090/05 RMK AO2 T00281028
63870K0J4 0J420161216084511012/16/16 08:45:31  5-MIN K0J4 161345Z AUTO 09005KT 10SM CLR 03/M03 A3028 -10 67 -1400 090/05 RMK AO2 T00281028
63870K0J4 0J420161216085011012/16/16 08:50:31  5-MIN K0J4 161350Z AUTO 09005KT 10SM CLR 03/M03 A3028 -10 64 -1300 090/05 RMK AO2 T00331028
63870K0J4 0J420161216085511712/16/16 08:55:31  5-MIN K0J4 161355Z AUTO 08005KT 10SM CLR 04/M03 A3028 -10 62 -1300 080/05 RMK AO2 SLP255 T00391028
63870K0J4 0J420161216090011012/16/16 09:00:31  5-MIN K0J4 161400Z AUTO 09005KT 10SM CLR 04/M03 A3028 -10 62 -1300 090/05 RMK AO2 T00391028
63870K0J4 0J420161216090511012/16/16 09:05:31  5-MIN K0J4 161405Z AUTO 10004KT 10SM CLR 04/M03 A3028 -10 62 -1300 100/04 RMK AO2 T00391028
63870K0J4 0J420161216091011012/16/16 09:10:31  5-MIN K0J4 161410Z AUTO 08005KT 10SM CLR 04/M03 A3029 -20 57 -1200 080/05 RMK AO2 T00441033
63870K0J4 0J420161216091511012/16/16 09:15:31  5-MIN K0J4 161415Z AUTO 09005KT 10SM CLR 04/M03 A3028 -10 57 -1200 090/05 RMK AO2 T00441033
63870K0J4 0J420161216092011012/16/16 09:20:31  5-MIN K0J4 161420Z AUTO VRB04KT 10SM CLR 05/M03 A3028 -10 57 -1100 VRB/04 RMK AO2 T00501028
63870K0J4 0J420161216092511012/16/16 09:25:31  5-MIN K0J4 161425Z AUTO VRB05KT 10SM CLR 05/M03 A3028 -10 57 -1100 VRB/05 RMK AO2 T00501028
63870K0J4 0J420161216093011012/16/16 09:30:31  5-MIN K0J4 161430Z AUTO VRB05KT 10SM CLR 06/M03 A3029 -20 53 -1100 VRB/05 RMK AO2 T00561033
63870K0J4 0J420161216093511012/16/16 09:35:31  5-MIN K0J4 161435Z AUTO 10007KT 10SM CLR 06/M03 A3029 -20 53 -1100 100/07 RMK AO2 T00561033
63870K0J4 0J420161216094011012/16/16 09:40:31  5-MIN K0J4 161440Z AUTO VRB06KT 10SM CLR 06/M04 A3029 -20 50 -1100 VRB/06 RMK AO2 T00561039
63870K0J4 0J420161216094511012/16/16 09:45:31  5-MIN K0J4 161445Z AUTO 11005KT 10SM CLR 06/M04 A3029 -20 48 -1000 110/05 RMK AO2 T00611039
63870K0J4 0J420161216095012612/16/16 09:50:31  5-MIN K0J4 161450Z AUTO 09007KT 060V120 10SM CLR 06/M04 A3029 -20 48 -1000 090/07 060V120 RMK AO2 T00611039
63870K0J4 0J420161216095511612/16/16 09:55:31  5-MIN K0J4 161455Z AUTO 10005KT 10SM CLR 07/M03 A3029 -20 49 -900 100/05 RMK AO2 SLP257 T00671033
63870K0J4 0J420161216100010912/16/16 10:00:31  5-MIN K0J4 161500Z AUTO 11007KT 10SM CLR 07/M03 A3029 -20 47 -900 110/07 RMK AO2 T00721033
63870K0J4 0J420161216100510912/16/16 10:05:31  5-MIN K0J4 161505Z AUTO 13004KT 10SM CLR 07/M03 A3029 -20 47 -900 130/04 RMK AO2 T00721033
63870K0J4 0J420161216101010912/16/16 10:10:31  5-MIN K0J4 161510Z AUTO 11006KT 10SM CLR 07/M03 A3029 -10 47 -900 110/06 RMK AO2 T00721033
63870K0J4 0J420161216101510912/16/16 10:15:31  5-MIN K0J4 161515Z AUTO 12006KT 10SM CLR 08/M03 A3029 -20 45 -800 120/06 RMK AO2 T00781033
63870K0J4 0J420161216102010912/16/16 10:20:31  5-MIN K0J4 161520Z AUTO 13007KT 10SM CLR 08/M03 A3028 -10 45 -800 130/07 RMK AO2 T00781033
63870K0J4 0J420161216102510912/16/16 10:25:31  5-MIN K0J4 161525Z AUTO VRB05KT 10SM CLR 08/M03 A3029 -20 45 -800 VRB/05 RMK AO2 T00781033
63870K0J4 0J420161216103009912/16/16 10:30:31  5-MIN K0J4 161530Z AUTO 10SM CLR 09/M03 A3028 -10 43 -700 M /M RMK AO2 T00891028
63870K0J4 0J420161216103510912/16/16 10:35:31  5-MIN K0J4 161535Z AUTO VRB06KT 10SM CLR 09/M03 A3028 -10 43 -700 VRB/06 RMK AO2 T00891028
63870K0J4 0J420161216104010912/16/16 10:40:31  5-MIN K0J4 161540Z AUTO 16008KT 10SM CLR 09/M03 A3028 -10 42 -700 160/08 RMK AO2 T00891033
63870K0J4 0J420161216104510912/16/16 10:45:31  5-MIN K0J4 161545Z AUTO 10008KT 10SM CLR 09/M03 A3028 -10 42 -600 100/08 RMK AO2 T00941028
63870K0J4 0J420161216105010712/16/16 10:50:31  5-MIN K0J4 161550Z AUTO VRB04KT 10SM CLR 09/M03 A3027 0 42 -600 VRB/04 RMK AO2 T00941028
63870K0J4 0J420161216105511612/16/16 10:55:31  5-MIN K0J4 161555Z AUTO 10005KT 10SM CLR 09/M03 A3028 -10 42 -600 100/05 RMK AO2 SLP251 T00941028
63870K0J4 0J420161216110010912/16/16 11:00:31  5-MIN K0J4 161600Z AUTO 11005KT 10SM CLR 09/M03 A3028 -10 42 -600 110/05 RMK AO2 T00941028
63870K0J4 0J420161216110510712/16/16 11:05:31  5-MIN K0J4 161605Z AUTO 10006KT 10SM CLR 10/M03 A3027 0 40 -500 100/06 RMK AO2 T01001028
63870K0J4 0J420161216111010712/16/16 11:10:31  5-MIN K0J4 161610Z AUTO VRB06KT 10SM CLR 10/M02 A3027 0 42 -500 VRB/06 RMK AO2 T01001022
63870K0J4 0J420161216111510712/16/16 11:15:31  5-MIN K0J4 161615Z AUTO 08004KT 10SM CLR 10/M02 A3027 0 42 -500 080/04 RMK AO2 T01001022
63870K0J4 0J420161216112010712/16/16 11:20:31  5-MIN K0J4 161620Z AUTO VRB05KT 10SM CLR 11/M02 A3027 0 40 -400 VRB/05 RMK AO2 T01061022
63870K0J4 0J420161216112510712/16/16 11:25:31  5-MIN K0J4 161625Z AUTO VRB05KT 10SM CLR 11/M02 A3027 0 40 -400 VRB/05 RMK AO2 T01061022
63870K0J4 0J420161216113010712/16/16 11:30:31  5-MIN K0J4 161630Z AUTO VRB03KT 10SM CLR 11/M02 A3027 0 41 -400 VRB/03 RMK AO2 T01111017
63870K0J4 0J420161216113510712/16/16 11:35:31  5-MIN K0J4 161635Z AUTO 14004KT 10SM CLR 11/M02 A3026 0 41 -400 140/04 RMK AO2 T01111017
63870K0J4 0J420161216114010712/16/16 11:40:31  5-MIN K0J4 161640Z AUTO 00000KT 10SM CLR 11/M02 A3026 0 39 -400 000/00 RMK AO2 T01111022
63870K0J4 0J420161216114510712/16/16 11:45:31  5-MIN K0J4 161645Z AUTO 09004KT 10SM CLR 12/M01 A3026 0 39 -200 090/04 RMK AO2 T01221011
63870K0J4 0J420161216115010812/16/16 11:50:31  5-MIN K0J4 161650Z AUTO VRB04KT 10SM CLR 12/M02 A3026 10 38 -200 VRB/04 RMK AO2 T01221017
63870K0J4 0J420161216115511512/16/16 11:55:31  5-MIN K0J4 161655Z AUTO VRB04KT 10SM CLR 13/M01 A3026 10 38 -200 VRB/04 RMK AO2 SLP245 T01281011
63870K0J4 0J420161216120010812/16/16 12:00:31  5-MIN K0J4 161700Z AUTO 06004KT 10SM CLR 12/M01 A3025 10 39 -200 060/04 RMK AO2 T01221011
63870K0J4 0J420161216120510812/16/16 12:05:31  5-MIN K0J4 161705Z AUTO 07004KT 10SM CLR 13/M01 A3025 10 39 -200 070/04 RMK AO2 T01281006
63870K0J4 0J420161216121010812/16/16 12:10:31  5-MIN K0J4 161710Z AUTO VRB03KT 10SM CLR 13/M01 A3025 20 39 -200 VRB/03 RMK AO2 T01281006
63870K0J4 0J420161216121510812/16/16 12:15:31  5-MIN K0J4 161715Z AUTO 08006KT 10SM CLR 13/M01 A3024 20 38 -100 080/06 RMK AO2 T01331006
63870K0J4 0J420161216122010812/16/16 12:20:31  5-MIN K0J4 161720Z AUTO 00000KT 10SM CLR 13/M01 A3024 20 39 -100 000/00 RMK AO2 T01281006
63870K0J4 0J420161216122510712/16/16 12:25:31  5-MIN K0J4 161725Z AUTO 13004KT 10SM CLR 13/00 A3024 30 40 -100 130/04 RMK AO2 T01330000
63870K0J4 0J420161216123010712/16/16 12:30:31  5-MIN K0J4 161730Z AUTO VRB03KT 10SM CLR 13/00 A3023 30 40 -100 VRB/03 RMK AO2 T01330000
63870K0J4 0J420161216123510412/16/16 12:35:31  5-MIN K0J4 161735Z AUTO VRB04KT 10SM CLR 14/01 A3023 30 40 0 VRB/04 RMK AO2 T01390006
63870K0J4 0J420161216124010412/16/16 12:40:31  5-MIN K0J4 161740Z AUTO 10006KT 10SM CLR 14/01 A3023 30 40 0 100/06 RMK AO2 T01390006
63870K0J4 0J420161216124510412/16/16 12:45:31  5-MIN K0J4 161745Z AUTO 17004KT 10SM CLR 14/01 A3023 30 40 0 170/04 RMK AO2 T01440011
63870K0J4 0J420161216125010412/16/16 12:50:31  5-MIN K0J4 161750Z AUTO VRB05KT 10SM CLR 14/01 A3022 40 41 0 VRB/05 RMK AO2 T01390011
63870K0J4 0J420161216125512912/16/16 12:55:31  5-MIN K0J4 161755Z AUTO VRB03KT 10SM CLR 14/01 A3022 40 40 0 VRB/03 RMK AO2 SLP234 T01440011 10144 20006 51005
63870K0J4 0J420161216130010612/16/16 13:00:31  5-MIN K0J4 161800Z AUTO VRB03KT 10SM CLR 15/01 A3022 40 38 100 VRB/03 RMK AO2 T01500011
63870K0J4 0J420161216130510612/16/16 13:05:31  5-MIN K0J4 161805Z AUTO 00000KT 10SM CLR 15/02 A3022 40 40 100 000/00 RMK AO2 T01500017
63870K0J4 0J420161216131010612/16/16 13:10:31  5-MIN K0J4 161810Z AUTO VRB03KT 10SM CLR 15/02 A3021 50 40 100 VRB/03 RMK AO2 T01500017
63870K0J4 0J420161216131510912/16/16 13:15:31  5-MIN K0J4 161815Z AUTO VRB03KT 10SM FEW033 15/02 A3021 50 42 100 VRB/03 RMK AO2 T01500022
63870K0J4 0J420161216132010912/16/16 13:20:31  5-MIN K0J4 161820Z AUTO 19004KT 10SM SCT033 15/02 A3021 50 42 100 190/04 RMK AO2 T01500022
63870K0J4 0J420161216132510912/16/16 13:25:31  5-MIN K0J4 161825Z AUTO 19005KT 10SM BKN033 15/02 A3021 50 42 100 190/05 RMK AO2 T01500022
63870K0J4 0J420161216133010912/16/16 13:30:31  5-MIN K0J4 161830Z AUTO 15005KT 10SM BKN033 15/03 A3020 60 43 100 150/05 RMK AO2 T01500028
63870K0J4 0J420161216133510912/16/16 13:35:31  5-MIN K0J4 161835Z AUTO 18005KT 10SM BKN033 15/03 A3020 60 45 100 180/05 RMK AO2 T01500033
63870K0J4 0J420161216134010912/16/16 13:40:31  5-MIN K0J4 161840Z AUTO VRB04KT 10SM OVC033 16/04 A3020 60 45 200 VRB/04 RMK AO2 T01560039
63870K0J4 0J420161216134510912/16/16 13:45:31  5-MIN K0J4 161845Z AUTO 18007KT 10SM OVC033 16/04 A3019 70 45 200 180/07 RMK AO2 T01560039
63870K0J4 0J420161216135010912/16/16 13:50:31  5-MIN K0J4 161850Z AUTO 19007KT 10SM BKN033 16/04 A3019 70 44 300 190/07 RMK AO2 T01610039
63870K0J4 0J420161216135511612/16/16 13:55:31  5-MIN K0J4 161855Z AUTO 17006KT 10SM BKN033 16/04 A3019 70 45 200 170/06 RMK AO2 SLP222 T01560039
63870K0J4 0J420161216140010912/16/16 14:00:31  5-MIN K0J4 161900Z AUTO 18005KT 10SM SCT033 15/04 A3018 70 47 100 180/05 RMK AO2 T01500039
63870K0J4 0J420161216140511612/16/16 14:05:31  5-MIN K0J4 161905Z AUTO 15003KT 10SM FEW027 SCT033 16/04 A3018 80 45 200 150/03 RMK AO2 T01560039
63870K0J4 0J420161216141011612/16/16 14:10:31  5-MIN K0J4 161910Z AUTO 14005KT 10SM SCT027 BKN033 16/04 A3018 80 44 300 140/05 RMK AO2 T01610039
63870K0J4 0J420161216141510912/16/16 14:15:31  5-MIN K0J4 161915Z AUTO 00000KT 10SM SCT029 16/04 A3018 80 44 300 000/00 RMK AO2 T01610039
63870K0J4 0J420161216142010912/16/16 14:20:31  5-MIN K0J4 161920Z AUTO VRB03KT 10SM SCT029 16/04 A3018 80 45 300 VRB/03 RMK AO2 T01610044
63870K0J4 0J420161216142510912/16/16 14:25:31  5-MIN K0J4 161925Z AUTO VRB04KT 10SM SCT029 17/04 A3017 80 44 300 VRB/04 RMK AO2 T01670044
63870K0J4 0J420161216143010912/16/16 14:30:31  5-MIN K0J4 161930Z AUTO 17005KT 10SM SCT029 17/05 A3017 80 45 300 170/05 RMK AO2 T01670050
63870K0J4 0J420161216143510912/16/16 14:35:31  5-MIN K0J4 161935Z AUTO 18006KT 10SM FEW029 17/05 A3017 80 45 300 180/06 RMK AO2 T01670050
63870K0J4 0J420161216144010912/16/16 14:40:31  5-MIN K0J4 161940Z AUTO VRB04KT 10SM FEW029 17/06 A3017 80 47 300 VRB/04 RMK AO2 T01670056
63870K0J4 0J420161216144509912/16/16 14:45:31  5-MIN K0J4 161945Z AUTO 10SM SCT027 17/06 A3017 80 46 400 M /M RMK AO2 T01720056
63870K0J4 0J420161216145010912/16/16 14:50:31  5-MIN K0J4 161950Z AUTO 14005KT 10SM SCT027 16/05 A3017 80 47 300 140/05 RMK AO2 T01610050
63870K0J4 0J420161216145509912/16/16 14:55:31  5-MIN K0J4 161955Z AUTO 14006KT 10SM BKN027 17/06 A3017 80 47 300 140/06 RMK AO2
63870K0J4 0J420161216150010912/16/16 15:00:31  5-MIN K0J4 162000Z AUTO 12003KT 10SM BKN027 17/06 A3017 80 47 300 120/03 RMK AO2 T01670056
63870K0J4 0J420161216150512512/16/16 15:05:31  5-MIN K0J4 162005Z AUTO 15007KT 090V190 10SM BKN028 17/06 A3017 90 47 400 150/07 090V190 RMK AO2 T01720061
63870K0J4 0J420161216151010912/16/16 15:10:31  5-MIN K0J4 162010Z AUTO 17004KT 10SM OVC028 17/06 A3017 90 47 300 170/04 RMK AO2 T01670056
63870K0J4 0J420161216151510912/16/16 15:15:31  5-MIN K0J4 162015Z AUTO 14004KT 10SM BKN028 17/06 A3017 90 49 300 140/04 RMK AO2 T01670061
63870K0J4 0J420161216152010912/16/16 15:20:31  5-MIN K0J4 162020Z AUTO VRB05KT 10SM BKN028 17/06 A3017 90 47 400 VRB/05 RMK AO2 T01720061
63870K0J4 0J420161216152510912/16/16 15:25:31  5-MIN K0J4 162025Z AUTO 16004KT 10SM BKN028 17/06 A3017 90 47 400 160/04 RMK AO2 T01720061
63870K0J4 0J420161216153010912/16/16 15:30:31  5-MIN K0J4 162030Z AUTO 15004KT 10SM BKN029 17/06 A3017 90 49 300 150/04 RMK AO2 T01670061
63870K0J4 0J420161216153510912/16/16 15:35:31  5-MIN K0J4 162035Z AUTO 10004KT 10SM SCT029 17/07 A3017 90 51 300 100/04 RMK AO2 T01670067
63870K0J4 0J420161216154010912/16/16 15:40:31  5-MIN K0J4 162040Z AUTO 10004KT 10SM SCT029 17/06 A3017 90 47 400 100/04 RMK AO2 T01720061
63870K0J4 0J420161216154510912/16/16 15:45:31  5-MIN K0J4 162045Z AUTO 16006KT 10SM SCT031 17/06 A3017 90 47 400 160/06 RMK AO2 T01720061
63870K0J4 0J420161216155010912/16/16 15:50:31  5-MIN K0J4 162050Z AUTO 14004KT 10SM BKN031 17/06 A3017 90 47 400 140/04 RMK AO2 T01720061
63870K0J4 0J420161216155512212/16/16 15:55:31  5-MIN K0J4 162055Z AUTO 16006KT 10SM BKN031 17/07 A3017 90 51 300 160/06 RMK AO2 SLP216 T01670067 58022
63870K0J4 0J420161216160010912/16/16 16:00:31  5-MIN K0J4 162100Z AUTO 15005KT 10SM BKN033 17/07 A3017 90 51 300 150/05 RMK AO2 T01670067
63870K0J4 0J420161216160510912/16/16 16:05:31  5-MIN K0J4 162105Z AUTO 00000KT 10SM BKN033 17/07 A3017 80 51 300 000/00 RMK AO2 T01670067
63870K0J4 0J420161216161010912/16/16 16:10:31  5-MIN K0J4 162110Z AUTO 15004KT 10SM BKN033 17/07 A3017 80 51 300 150/04 RMK AO2 T01670067
63870K0J4 0J420161216161510912/16/16 16:15:31  5-MIN K0J4 162115Z AUTO 16006KT 10SM OVC033 17/07 A3017 80 53 300 160/06 RMK AO2 T01670072
63870K0J4 0J420161216162010912/16/16 16:20:31  5-MIN K0J4 162120Z AUTO 15005KT 10SM OVC034 16/07 A3018 80 53 300 150/05 RMK AO2 T01610067
63870K0J4 0J420161216162511612/16/16 16:25:31  5-MIN K0J4 162125Z AUTO 15004KT 10SM FEW029 OVC034 16/07 A3018 80 53 300 150/04 RMK AO2 T01610067
63870K0J4 0J420161216163011612/16/16 16:30:31  5-MIN K0J4 162130Z AUTO 13003KT 10SM FEW029 OVC035 16/07 A3018 80 53 300 130/03 RMK AO2 T01610067
63870K0J4 0J420161216163511612/16/16 16:35:31  5-MIN K0J4 162135Z AUTO 13003KT 10SM FEW029 OVC037 16/07 A3018 80 53 300 130/03 RMK AO2 T01610067
63870K0J4 0J420161216164011612/16/16 16:40:31  5-MIN K0J4 162140Z AUTO 12004KT 10SM FEW029 OVC039 16/07 A3018 80 55 300 120/04 RMK AO2 T01610072
63870K0J4 0J420161216164511612/16/16 16:45:31  5-MIN K0J4 162145Z AUTO 13003KT 10SM FEW029 OVC039 16/07 A3017 80 57 200 130/03 RMK AO2 T01560072
63870K0J4 0J420161216165011612/16/16 16:50:31  5-MIN K0J4 162150Z AUTO VRB03KT 10SM FEW029 OVC041 16/07 A3017 80 57 200 VRB/03 RMK AO2 T01560072
63870K0J4 0J420161216165512312/16/16 16:55:31  5-MIN K0J4 162155Z AUTO VRB03KT 10SM SCT027 OVC041 16/07 A3017 80 57 200 VRB/03 RMK AO2 SLP217 T01560072
63870K0J4 0J420161216170011612/16/16 17:00:31  5-MIN K0J4 162200Z AUTO VRB04KT 10SM BKN027 OVC041 16/08 A3017 80 59 200 VRB/04 RMK AO2 T01560078
63870K0J4 0J420161216170511612/16/16 17:05:31  5-MIN K0J4 162205Z AUTO 11003KT 10SM BKN026 OVC043 16/07 A3017 90 57 200 110/03 RMK AO2 T01560072
63870K0J4 0J420161216171011612/16/16 17:10:31  5-MIN K0J4 162210Z AUTO 10003KT 10SM BKN026 BKN043 16/07 A3017 90 57 200 100/03 RMK AO2 T01560072
63870K0J4 0J420161216171510912/16/16 17:15:31  5-MIN K0J4 162215Z AUTO 10004KT 10SM BKN026 16/07 A3017 90 57 200 100/04 RMK AO2 T01560072
63870K0J4 0J420161216172010912/16/16 17:20:31  5-MIN K0J4 162220Z AUTO 10003KT 10SM BKN026 15/07 A3017 90 59 200 100/03 RMK AO2 T01500072
63870K0J4 0J420161216172510912/16/16 17:25:31  5-MIN K0J4 162225Z AUTO 11004KT 10SM SCT025 15/07 A3017 90 59 200 110/04 RMK AO2 T01500072
63870K0J4 0J420161217032012412/17/16 03:20:31  5-MIN K0J4 170820Z AUTO 16005KT 10SM -RA SCT025 12/10 A3009 160 86 0 160/05 RMK AO2 RAB00 P0000 T01220100
63870K0J4 0J420161217032512412/17/16 03:25:31  5-MIN K0J4 170825Z AUTO 16005KT 10SM -RA FEW027 12/10 A3009 160 86 0 160/05 RMK AO2 RAB00 P0000 T01220100
63870K0J4 0J420161217033012412/17/16 03:30:31  5-MIN K0J4 170830Z AUTO 15004KT 10SM -RA FEW027 12/10 A3009 160 86 0 150/04 RMK AO2 RAB00 P0000 T01220100
63870K0J4 0J420161217033512012/17/16 03:35:31  5-MIN K0J4 170835Z AUTO 14005KT 10SM CLR 12/10 A3009 160 86 0 140/05 RMK AO2 RAB00E33 P0000 T01220100
63870K0J4 0J420161217034012012/17/16 03:40:31  5-MIN K0J4 170840Z AUTO 14003KT 10SM CLR 12/10 A3009 160 86 0 140/03 RMK AO2 RAB00E33 P0000 T01220100
63870K0J4 0J420161217034512012/17/16 03:45:31  5-MIN K0J4 170845Z AUTO VRB03KT 10SM CLR 12/10 A3009 160 86 0 VRB/03 RMK AO2 RAB00E33 P0000 T01220100
63870K0J4 0J420161217035012612/17/16 03:50:31  5-MIN K0J4 170850Z AUTO 14005KT 10SM FEW060 12/10 A3009 160 89 -100 140/05 RMK AO2 RAB00E33 P0000 T01170100
63870K0J4 0J420161217035514512/17/16 03:55:31  5-MIN K0J4 170855Z AUTO 14004KT 10SM SCT060 12/10 A3009 160 89 -100 140/04 RMK AO2 RAB00E33 SLP187 P0000 60000 T01170100 58009
63870K0J4 0J420161217040011112/17/16 04:00:31  5-MIN K0J4 170900Z AUTO 13004KT 10SM BKN060 12/10 A3009 160 89 -100 130/04 RMK AO2 T01170100
63870K0J4 0J420161217040511812/17/16 04:05:31  5-MIN K0J4 170905Z AUTO 15004KT 10SM FEW007 BKN060 12/10 A3009 160 89 -100 150/04 RMK AO2 T01170100
63870K0J4 0J420161217041011812/17/16 04:10:31  5-MIN K0J4 170910Z AUTO 13004KT 10SM SCT007 BKN060 12/10 A3009 160 89 -100 130/04 RMK AO2 T01170100
63870K0J4 0J420161217041511812/17/16 04:15:31  5-MIN K0J4 170915Z AUTO 15005KT 10SM BKN007 OVC060 12/10 A3009 160 89 -100 150/05 RMK AO2 T01170100
63870K0J4 0J420161217042507312/17/16 04:25:31  5-MIN K0J4 170925Z AUTO 15003KT M M M 150/03 RMK AO2 $
63870K0J4 0J420161217043010112/17/16 04:30:31  5-MIN K0J4 170930Z AUTO 15003KT 12/10 A3009 160 89 -100 150/03 RMK AO2 T01170100 $
63870K0J4 0J420161217043510312/17/16 04:35:31  5-MIN K0J4 170935Z AUTO 00000KT 10SM 12/11 A3009 160 89 0 000/00 RMK AO2 T01220106 $
63870K0J4 0J420161217044010312/17/16 04:40:31  5-MIN K0J4 170940Z AUTO 16004KT 10SM 12/10 A3009 160 86 0 160/04 RMK AO2 T01220100 $
63870K0J4 0J420161217044510312/17/16 04:45:31  5-MIN K0J4 170945Z AUTO 14004KT 10SM 12/10 A3009 160 86 0 140/04 RMK AO2 T01220100 $
63870K0J4 0J420161217045010312/17/16 04:50:31  5-MIN K0J4 170950Z AUTO 13005KT 10SM 12/10 A3008 170 86 0 130/05 RMK AO2 T01220100 $
63870K0J4 0J420161217045510012/17/16 04:55:31  5-MIN K0J4 170955Z AUTO 13005KT 10SM OVC006 12/10 A3008 170 86 0 130/05 RMK AO2 $
63870K0J4 0J420161217050011012/17/16 05:00:31  5-MIN K0J4 171000Z AUTO 13006KT 10SM OVC006 12/10 A3008 170 86 0 130/06 RMK AO2 T01220100 $
63870K0J4 0J420161217050507312/17/16 05:05:31  5-MIN K0J4 171005Z AUTO 16004KT M M M 160/04 RMK AO2 $
63870K0J4 0J420161217051007912/17/16 05:10:31  5-MIN K0J4 171010Z AUTO 14006KT A3008 M M M 140/06 RMK AO2 $
63870K0J4 0J420161217051510312/17/16 05:15:31  5-MIN K0J4 171015Z AUTO 15007KT 10SM 12/11 A3007 170 89 0 150/07 RMK AO2 T01220106 $
63870K0J4 0J420161217052011912/17/16 05:20:31  5-MIN K0J4 171020Z AUTO VRB06KT 10SM -RA 12/11 A3007 180 89 0 VRB/06 RMK AO2 RAB18 P0000 T01220106 $
63870K0J4 0J420161217052511912/17/16 05:25:31  5-MIN K0J4 171025Z AUTO VRB05KT 10SM -RA 12/11 A3008 170 89 0 VRB/05 RMK AO2 RAB18 P0000 T01220106 $
63870K0J4 0J420161217053011812/17/16 05:30:31  5-MIN K0J4 171030Z AUTO 16006KT 10SM 13/11 A3008 170 89 0 160/06 RMK AO2 RAB18E28 P0000 T01280111 $
63870K0J4 0J420161217053512512/17/16 05:35:31  5-MIN K0J4 171035Z AUTO 15005KT 10SM OVC004 13/11 A3008 170 89 0 150/05 RMK AO2 RAB18E28 P0000 T01280111 $
63870K0J4 0J420161217054012512/17/16 05:40:31  5-MIN K0J4 171040Z AUTO 15006KT 10SM OVC004 13/11 A3007 170 89 0 150/06 RMK AO2 RAB18E28 P0000 T01280111 $
63870K0J4 0J420161217054512412/17/16 05:45:31  5-MIN K0J4 171045Z AUTO 16006KT 9SM OVC004 13/11 A3007 180 89 0 160/06 RMK AO2 RAB18E28 P0000 T01280111 $
63870K0J4 0J420161217055012412/17/16 05:50:31  5-MIN K0J4 171050Z AUTO 16006KT 9SM OVC004 13/12 A3007 180 93 0 160/06 RMK AO2 RAB18E28 P0000 T01280117 $
63870K0J4 0J420161217055513312/17/16 05:55:31  5-MIN K0J4 171055Z AUTO 16007KT 8SM OVC004 13/12 A3007 180 89 100 160/07 RMK AO2 RAB18E28 SLP181 P0000 T01330117 $
63870K0J4 0J420161217060011112/17/16 06:00:31  5-MIN K0J4 171100Z AUTO 16007KT 7SM OVC003 13/12 A3007 180 89 100 160/07 RMK AO2 T01330117 $
63870K0J4 0J420161217060511412/17/16 06:05:31  5-MIN K0J4 171105Z AUTO 17006KT 6SM BR OVC003 13/12 A3007 180 93 100 170/06 RMK AO2 T01330122 $
63870K0J4 0J420161217061011412/17/16 06:10:31  5-MIN K0J4 171110Z AUTO 17007KT 6SM BR OVC003 13/12 A3007 180 93 100 170/07 RMK AO2 T01330122 $
63870K0J4 0J420161217061513012/17/16 06:15:31  5-MIN K0J4 171115Z AUTO 17007KT 5SM -RA BR OVC003 14/12 A3007 170 90 100 170/07 RMK AO2 RAB13 P0000 T01390122 $
63870K0J4 0J420161217062013012/17/16 06:20:31  5-MIN K0J4 171120Z AUTO 17008KT 4SM -RA BR OVC003 14/13 A3007 180 93 100 170/08 RMK AO2 RAB13 P0000 T01390128 $
63870K0J4 0J420161217062513012/17/16 06:25:31  5-MIN K0J4 171125Z AUTO 17007KT 3SM -RA BR OVC002 14/13 A3007 170 93 100 170/07 RMK AO2 RAB13 P0000 T01390128 $
63870K0J4 0J420161217063013412/17/16 06:30:31  5-MIN K0J4 171130Z AUTO 17007KT 2 1/2SM -RA BR OVC002 14/13 A3007 180 93 100 170/07 RMK AO2 RAB13 P0000 T01390128 $
63870K0J4 0J420161217063513312/17/16 06:35:31  5-MIN K0J4 171135Z AUTO 17006KT 1 1/2SM BR OVC002 14/13 A3007 180 93 100 170/06 RMK AO2 RAB13E35 P0000 T01390128 $
63870K0J4 0J420161217064012912/17/16 06:40:31  5-MIN K0J4 171140Z AUTO 17008KT 1SM BR OVC002 14/13 A3007 180 96 100 170/08 RMK AO2 RAB13E35 P0000 T01390133 $
63870K0J4 0J420161217064513112/17/16 06:45:31  5-MIN K0J4 171145Z AUTO 17007KT 3/4SM BR OVC001 14/13 A3007 180 96 100 170/07 RMK AO2 RAB13E35 P0000 T01390133 $
63870K0J4 0J420161217065013012/17/16 06:50:31  5-MIN K0J4 171150Z AUTO 18007KT 1/2SM FG VV001 14/13 A3007 180 93 200 180/07 RMK AO2 RAB13E35 P0000 T01440133 $
63870K0J4 0J420161217065515512/17/16 06:55:31  5-MIN K0J4 171155Z AUTO 18007KT 1/2SM FG VV001 14/14 A3008 170 96 200 180/07 RMK AO2 RAB13E35 SLP183 P0000 60000 T01440139 10144 20100 $
63870K0J4 0J420161217070011512/17/16 07:00:31  5-MIN K0J4 171200Z AUTO 17008KT 1/2SM FG VV001 14/14 A3008 170 96 200 170/08 RMK AO2 T01440139 $
63870K0J4 0J420161217070511512/17/16 07:05:31  5-MIN K0J4 171205Z AUTO 16008KT 1/2SM FG VV001 14/14 A3007 170 96 200 160/08 RMK AO2 T01440139 $
63870K0J4 0J420161217071011512/17/16 07:10:31  5-MIN K0J4 171210Z AUTO 16008KT 1/2SM FG VV001 14/14 A3007 180 96 200 160/08 RMK AO2 T01440139 $
63870K0J4 0J420161217071511512/17/16 07:15:31  5-MIN K0J4 171215Z AUTO 16008KT 3/4SM BR VV001 14/14 A3007 180 96 200 160/08 RMK AO2 T01440139 $
63870K0J4 0J420161217072011512/17/16 07:20:31  5-MIN K0J4 171220Z AUTO 16008KT 1/2SM FG VV001 14/14 A3007 180 96 200 160/08 RMK AO2 T01440139 $
63870K0J4 0J420161217072511512/17/16 07:25:31  5-MIN K0J4 171225Z AUTO 17007KT 1/2SM FG VV001 14/14 A3007 170 96 200 170/07 RMK AO2 T01440139 $
63870K0J4 0J420161217073011512/17/16 07:30:31  5-MIN K0J4 171230Z AUTO 17007KT 1/2SM FG VV001 14/14 A3008 170 96 200 170/07 RMK AO2 T01440139 $
63870K0J4 0J420161217073511512/17/16 07:35:31  5-MIN K0J4 171235Z AUTO 16005KT 1/2SM FG VV001 14/14 A3008 170 96 200 160/05 RMK AO2 T01440139 $
63870K0J4 0J420161217074011512/17/16 07:40:31  5-MIN K0J4 171240Z AUTO 16006KT 1/2SM FG VV001 14/14 A3008 170 96 200 160/06 RMK AO2 T01440139 $
63870K0J4 0J420161217074511512/17/16 07:45:31  5-MIN K0J4 171245Z AUTO 16006KT 1/2SM FG VV001 14/14 A3008 170 96 200 160/06 RMK AO2 T01440139 $
63870K0J4 0J420161217075011512/17/16 07:50:31  5-MIN K0J4 171250Z AUTO 16006KT 1/4SM FG VV001 14/14 A3008 170 96 200 160/06 RMK AO2 T01440139 $
63870K0J4 0J420161217075512212/17/16 07:55:31  5-MIN K0J4 171255Z AUTO 16005KT 1/4SM FG VV001 14/14 A3009 160 96 200 160/05 RMK AO2 SLP186 T01440139 $
63870K0J4 0J420161217080011512/17/16 08:00:31  5-MIN K0J4 171300Z AUTO 17006KT 1/4SM FG VV001 14/14 A3009 160 96 200 170/06 RMK AO2 T01440139 $
63870K0J4 0J420161217080511512/17/16 08:05:31  5-MIN K0J4 171305Z AUTO 16004KT 1/4SM FG VV001 14/14 A3009 160 96 200 160/04 RMK AO2 T01440139 $
63870K0J4 0J420161217081011512/17/16 08:10:31  5-MIN K0J4 171310Z AUTO 16005KT 1/4SM FG VV001 14/14 A3010 150 96 200 160/05 RMK AO2 T01440139 $
63870K0J4 0J420161217081511512/17/16 08:15:31  5-MIN K0J4 171315Z AUTO 16004KT 1/4SM FG VV001 14/14 A3010 150 96 200 160/04 RMK AO2 T01440139 $
63870K0J4 0J420161217082011612/17/16 08:20:31  5-MIN K0J4 171320Z AUTO 16004KT M1/4SM FG VV001 14/14 A3010 150 96 200 160/04 RMK AO2 T01440139 $
63870K0J4 0J420161217082511612/17/16 08:25:31  5-MIN K0J4 171325Z AUTO 15004KT M1/4SM FG VV001 14/14 A3010 150 96 200 150/04 RMK AO2 T01440139 $
63870K0J4 0J420161217083011612/17/16 08:30:31  5-MIN K0J4 171330Z AUTO 15005KT M1/4SM FG VV001 14/14 A3010 150 96 200 150/05 RMK AO2 T01440139 $
63870K0J4 0J420161217083511512/17/16 08:35:31  5-MIN K0J4 171335Z AUTO 16005KT 1/4SM FG VV001 14/14 A3010 150 96 200 160/05 RMK AO2 T01440139 $
63870K0J4 0J420161217084011512/17/16 08:40:31  5-MIN K0J4 171340Z AUTO 14004KT 1/4SM FG VV001 15/14 A3010 150 93 200 140/04 RMK AO2 T01500139 $
63870K0J4 0J420161217084511512/17/16 08:45:31  5-MIN K0J4 171345Z AUTO 14003KT 1/4SM FG VV001 15/14 A3010 150 96 200 140/03 RMK AO2 T01500144 $
63870K0J4 0J420161217085011512/17/16 08:50:31  5-MIN K0J4 171350Z AUTO 15005KT 1/4SM FG VV001 15/14 A3010 150 93 200 150/05 RMK AO2 T01500139 $
63870K0J4 0J420161217085512212/17/16 08:55:31  5-MIN K0J4 171355Z AUTO 15005KT 1/4SM FG VV001 15/14 A3010 150 96 200 150/05 RMK AO2 SLP190 T01500144 $
63870K0J4 0J420161217090011512/17/16 09:00:31  5-MIN K0J4 171400Z AUTO 16006KT 1/4SM FG VV001 15/14 A3010 150 96 200 160/06 RMK AO2 T01500144 $
63870K0J4 0J420161217090511512/17/16 09:05:31  5-MIN K0J4 171405Z AUTO 15006KT 1/4SM FG VV001 15/14 A3009 160 96 200 150/06 RMK AO2 T01500144 $
63870K0J4 0J420161217091011512/17/16 09:10:31  5-MIN K0J4 171410Z AUTO 16006KT 1/4SM FG VV001 15/14 A3009 160 96 200 160/06 RMK AO2 T01500144 $
63870K0J4 0J420161217091511512/17/16 09:15:31  5-MIN K0J4 171415Z AUTO 16006KT 1/4SM FG VV001 15/14 A3009 160 96 200 160/06 RMK AO2 T01500144 $
63870K0J4 0J420161217092011512/17/16 09:20:31  5-MIN K0J4 171420Z AUTO 16007KT 1/4SM FG VV001 16/14 A3009 160 93 300 160/07 RMK AO2 T01560144 $
63870K0J4 0J420161217092511512/17/16 09:25:31  5-MIN K0J4 171425Z AUTO 17007KT 1/4SM FG VV001 16/15 A3009 160 96 300 170/07 RMK AO2 T01560150 $
63870K0J4 0J420161217093011512/17/16 09:30:31  5-MIN K0J4 171430Z AUTO 16007KT 1/4SM FG VV001 16/15 A3010 150 96 300 160/07 RMK AO2 T01560150 $
63870K0J4 0J420161217093511512/17/16 09:35:31  5-MIN K0J4 171435Z AUTO 16006KT 1/4SM FG VV001 16/15 A3009 160 96 300 160/06 RMK AO2 T01560150 $
63870K0J4 0J420161217094011512/17/16 09:40:31  5-MIN K0J4 171440Z AUTO 16006KT 1/4SM FG VV001 16/15 A3009 160 93 400 160/06 RMK AO2 T01610150 $
63870K0J4 0J420161217094511512/17/16 09:45:31  5-MIN K0J4 171445Z AUTO 16006KT 1/4SM FG VV001 16/16 A3009 160 96 400 160/06 RMK AO2 T01610156 $
63870K0J4 0J420161217095011512/17/16 09:50:31  5-MIN K0J4 171450Z AUTO 17007KT 1/4SM FG VV001 16/16 A3010 150 96 400 170/07 RMK AO2 T01610156 $
63870K0J4 0J420161217095512212/17/16 09:55:31  5-MIN K0J4 171455Z AUTO 18006KT 1/2SM FG VV001 17/16 A3010 150 93 400 180/06 RMK AO2 SLP189 T01670156 $
63870K0J4 0J420161217100011512/17/16 10:00:31  5-MIN K0J4 171500Z AUTO 18007KT 3/4SM BR VV001 17/16 A3010 150 96 400 180/07 RMK AO2 T01670161 $
63870K0J4 0J420161217100511812/17/16 10:05:31  5-MIN K0J4 171505Z AUTO 18007KT 1 1/4SM BR OVC001 17/16 A3010 150 96 400 180/07 RMK AO2 T01670161 $
63870K0J4 0J420161217101011412/17/16 10:10:31  5-MIN K0J4 171510Z AUTO 17007KT 2SM BR OVC001 17/16 A3010 150 93 500 170/07 RMK AO2 T01720161 $
63870K0J4 0J420161217101511412/17/16 10:15:31  5-MIN K0J4 171515Z AUTO 17009KT 4SM BR OVC001 17/16 A3010 150 93 500 170/09 RMK AO2 T01720161 $
63870K0J4 0J420161217102011412/17/16 10:20:31  5-MIN K0J4 171520Z AUTO 18009KT 5SM BR OVC001 17/16 A3010 150 93 500 180/09 RMK AO2 T01720161 $
63870K0J4 0J420161217102511412/17/16 10:25:31  5-MIN K0J4 171525Z AUTO 17007KT 5SM BR OVC001 17/17 A3010 150 96 500 170/07 RMK AO2 T01720167 $
63870K0J4 0J420161217103011112/17/16 10:30:31  5-MIN K0J4 171530Z AUTO 17008KT 7SM OVC002 18/17 A3010 150 93 600 170/08 RMK AO2 T01780167 $
63870K0J4 0J420161217103511112/17/16 10:35:31  5-MIN K0J4 171535Z AUTO 18007KT 8SM OVC002 18/16 A3010 150 90 600 180/07 RMK AO2 T01780161 $
63870K0J4 0J420161217104011112/17/16 10:40:31  5-MIN K0J4 171540Z AUTO 18007KT 8SM OVC002 18/17 A3010 150 93 600 180/07 RMK AO2 T01780167 $
63870K0J4 0J420161217104512312/17/16 10:45:31  5-MIN K0J4 171545Z AUTO 17007KT 9SM OVC003 18/17 A3010 150 90 600 170/07 RMK AO2 CIG 002V007 T01830167 $
63870K0J4 0J420161217105012312/17/16 10:50:31  5-MIN K0J4 171550Z AUTO 17008KT 9SM OVC003 18/17 A3010 150 90 600 170/08 RMK AO2 CIG 002V007 T01830167 $
63870K0J4 0J420161217105513112/17/16 10:55:31  5-MIN K0J4 171555Z AUTO 18006KT 10SM BKN003 19/17 A3009 160 87 700 180/06 RMK AO2 CIG 003V007 SLP187 T01890167 $
63870K0J4 0J420161217110012412/17/16 11:00:31  5-MIN K0J4 171600Z AUTO 16009KT 10SM BKN005 20/17 A3009 160 81 800 160/09 RMK AO2 CIG 003V009 T02000167 $
63870K0J4 0J420161217110511312/17/16 11:05:31  5-MIN K0J4 171605Z AUTO 18009KT 10SM SCT005 21/17 A3009 160 78 1000 180/09 RMK AO2 T02110172 $
63870K0J4 0J420161217111011312/17/16 11:10:31  5-MIN K0J4 171610Z AUTO 17009KT 10SM SCT005 21/17 A3008 170 78 1000 170/09 RMK AO2 T02110172 $
63870K0J4 0J420161217111511312/17/16 11:15:31  5-MIN K0J4 171615Z AUTO 19011KT 10SM FEW005 21/17 A3008 170 78 1000 190/11 RMK AO2 T02110172 $
63870K0J4 0J420161217112011012/17/16 11:20:31  5-MIN K0J4 171620Z AUTO 19008KT 10SM CLR 22/17 A3008 170 75 1000 190/08 RMK AO2 T02170172 $
63870K0J4 0J420161217112511312/17/16 11:25:31  5-MIN K0J4 171625Z AUTO 19008KT 10SM FEW013 22/17 A3008 170 75 1000 190/08 RMK AO2 T02170172 $
63870K0J4 0J420161217113011912/17/16 11:30:31  5-MIN K0J4 171630Z AUTO 19008G15KT 10SM SCT015 23/17 A3008 170 70 1200 190/08G15 RMK AO2 T02280172 $
63870K0J4 0J420161217113511312/17/16 11:35:31  5-MIN K0J4 171635Z AUTO 19009KT 10SM SCT017 22/17 A3007 170 73 1100 190/09 RMK AO2 T02220172 $
63870K0J4 0J420161217114011312/17/16 11:40:31  5-MIN K0J4 171640Z AUTO 19009KT 10SM BKN017 23/17 A3007 180 70 1200 190/09 RMK AO2 T02280172 $
63870K0J4 0J420161217114511312/17/16 11:45:31  5-MIN K0J4 171645Z AUTO 18008KT 10SM BKN017 23/17 A3007 180 68 1200 180/08 RMK AO2 T02330172 $
63870K0J4 0J420161217115011312/17/16 11:50:31  5-MIN K0J4 171650Z AUTO 20013KT 10SM BKN017 23/17 A3007 180 68 1200 200/13 RMK AO2 T02330172 $
63870K0J4 0J420161217115512012/17/16 11:55:31  5-MIN K0J4 171655Z AUTO 21013KT 10SM BKN019 23/17 A3007 180 68 1200 210/13 RMK AO2 SLP179 T02330172 $
63870K0J4 0J420161217120011312/17/16 12:00:31  5-MIN K0J4 171700Z AUTO 21011KT 10SM BKN019 23/17 A3007 180 70 1200 210/11 RMK AO2 T02280172 $
63870K0J4 0J420161217120511312/17/16 12:05:31  5-MIN K0J4 171705Z AUTO 20013KT 10SM BKN019 23/17 A3007 180 70 1200 200/13 RMK AO2 T02280172 $
63870K0J4 0J420161217121011312/17/16 12:10:31  5-MIN K0J4 171710Z AUTO 20012KT 10SM OVC020 23/17 A3006 180 68 1200 200/12 RMK AO2 T02330172 $
63870K0J4 0J420161217121511312/17/16 12:15:31  5-MIN K0J4 171715Z AUTO 21013KT 10SM OVC022 24/17 A3006 190 66 1300 210/13 RMK AO2 T02390172 $
63870K0J4 0J420161217122011312/17/16 12:20:31  5-MIN K0J4 171720Z AUTO 19010KT 10SM OVC022 24/17 A3006 190 66 1300 190/10 RMK AO2 T02390172 $
63870K0J4 0J420161217122511312/17/16 12:25:31  5-MIN K0J4 171725Z AUTO 19011KT 10SM OVC022 23/17 A3005 190 68 1200 190/11 RMK AO2 T02330172 $
63870K0J4 0J420161217123011312/17/16 12:30:31  5-MIN K0J4 171730Z AUTO 19012KT 10SM OVC022 23/17 A3005 200 68 1200 190/12 RMK AO2 T02330172 $
63870K0J4 0J420161217123511312/17/16 12:35:31  5-MIN K0J4 171735Z AUTO 20014KT 10SM OVC022 24/17 A3005 200 66 1300 200/14 RMK AO2 T02390172 $
63870K0J4 0J420161217124011312/17/16 12:40:31  5-MIN K0J4 171740Z AUTO 20014KT 10SM BKN022 24/17 A3005 200 66 1300 200/14 RMK AO2 T02390172 $
63870K0J4 0J420161217124512012/17/16 12:45:31  5-MIN K0J4 171745Z AUTO 20013KT 10SM BKN022 OVC029 24/17 A3005 200 66 1300 200/13 RMK AO2 T02390172 $
63870K0J4 0J420161217125012012/17/16 12:50:31  5-MIN K0J4 171750Z AUTO 20012KT 10SM BKN022 OVC029 23/17 A3004 200 68 1300 200/12 RMK AO2 T02330172 $
63870K0J4 0J420161217125514512/17/16 12:55:31  5-MIN K0J4 171755Z AUTO 19009KT 10SM BKN022 OVC028 24/18 A3004 200 68 1300 190/09 RMK AO2 SLP170 T02390178 10239 20144 51007 $
63870K0J4 0J420161217130012012/17/16 13:00:31  5-MIN K0J4 171800Z AUTO 19012KT 10SM BKN024 OVC028 24/18 A3004 210 66 1400 190/12 RMK AO2 T02440178 $
63870K0J4 0J420161217130511912/17/16 13:05:31  5-MIN K0J4 171805Z AUTO 19012G17KT 10SM OVC024 24/17 A3003 210 66 1300 190/12G17 RMK AO2 T02390172 $
63870K0J4 0J420161217131011912/17/16 13:10:31  5-MIN K0J4 171810Z AUTO 19009G18KT 10SM OVC024 23/17 A3003 210 68 1300 190/09G18 RMK AO2 T02330172 $
63870K0J4 0J420161217131512012/17/16 13:15:31  5-MIN K0J4 171815Z AUTO 19011KT 10SM BKN024 OVC030 24/18 A3003 220 68 1300 190/11 RMK AO2 T02390178 $
63870K0J4 0J420161217132012012/17/16 13:20:31  5-MIN K0J4 171820Z AUTO 18010KT 10SM BKN022 OVC028 24/18 A3003 220 68 1300 180/10 RMK AO2 T02390178 $
63870K0J4 0J420161217132512612/17/16 13:25:31  5-MIN K0J4 171825Z AUTO 19011G18KT 10SM BKN024 OVC031 24/18 A3002 220 68 1300 190/11G18 RMK AO2 T02390178 $
63870K0J4 0J420161217133012612/17/16 13:30:31  5-MIN K0J4 171830Z AUTO 19010G18KT 10SM BKN024 OVC031 24/18 A3002 220 66 1400 190/10G18 RMK AO2 T02440178 $
63870K0J4 0J420161217133512612/17/16 13:35:31  5-MIN K0J4 171835Z AUTO 19013G19KT 10SM BKN024 OVC029 24/18 A3002 230 68 1400 190/13G19 RMK AO2 T02390178 $
63870K0J4 0J420161217134012612/17/16 13:40:31  5-MIN K0J4 171840Z AUTO 17010G19KT 10SM BKN024 OVC029 24/18 A3001 230 66 1400 170/10G19 RMK AO2 T02440178 $
63870K0J4 0J420161217134512012/17/16 13:45:31  5-MIN K0J4 171845Z AUTO 18012KT 10SM BKN024 BKN030 24/18 A3001 230 66 1400 180/12 RMK AO2 T02440178 $
63870K0J4 0J420161217135012612/17/16 13:50:31  5-MIN K0J4 171850Z AUTO 19012G19KT 10SM BKN024 OVC030 24/18 A3001 230 68 1400 190/12G19 RMK AO2 T02390178 $
63870K0J4 0J420161217135513312/17/16 13:55:31  5-MIN K0J4 171855Z AUTO 20011G19KT 10SM BKN024 OVC030 24/18 A3001 230 68 1400 200/11G19 RMK AO2 SLP159 T02390178 $
63870K0J4 0J420161217140012712/17/16 14:00:31  5-MIN K0J4 171900Z AUTO 19011KT 10SM BKN024 BKN030 OVC048 24/18 A3001 230 66 1400 190/11 RMK AO2 T02440178 $
63870K0J4 0J420161217140512612/17/16 14:05:31  5-MIN K0J4 171905Z AUTO 20014G20KT 10SM BKN026 OVC048 24/18 A3001 230 66 1400 200/14G20 RMK AO2 T02440178 $
63870K0J4 0J420161217141012612/17/16 14:10:31  5-MIN K0J4 171910Z AUTO 21014G20KT 10SM BKN026 OVC033 24/18 A3001 240 66 1400 210/14G20 RMK AO2 T02440178 $
63870K0J4 0J420161217141512612/17/16 14:15:31  5-MIN K0J4 171915Z AUTO 19010G19KT 10SM BKN024 OVC033 24/18 A3001 240 68 1400 190/10G19 RMK AO2 T02390178 $
63870K0J4 0J420161217142012012/17/16 14:20:31  5-MIN K0J4 171920Z AUTO 19012KT 10SM BKN026 OVC033 25/18 A3000 240 64 1500 190/12 RMK AO2 T02500178 $
63870K0J4 0J420161217142512012/17/16 14:25:31  5-MIN K0J4 171925Z AUTO 21010KT 10SM BKN026 OVC035 24/18 A3000 240 66 1400 210/10 RMK AO2 T02440178 $
63870K0J4 0J420161217143012712/17/16 14:30:31  5-MIN K0J4 171930Z AUTO 20014KT 10SM SCT026 BKN032 OVC039 24/18 A3000 240 66 1400 200/14 RMK AO2 T02440178 $
63870K0J4 0J420161217143512612/17/16 14:35:31  5-MIN K0J4 171935Z AUTO 20014G19KT 10SM BKN026 OVC034 24/18 A3000 240 68 1400 200/14G19 RMK AO2 T02390178 $
63870K0J4 0J420161217144012612/17/16 14:40:31  5-MIN K0J4 171940Z AUTO 19010G19KT 10SM BKN026 OVC034 24/18 A3000 240 68 1400 190/10G19 RMK AO2 T02390178 $
63870K0J4 0J420161217144512012/17/16 14:45:31  5-MIN K0J4 171945Z AUTO 19013KT 10SM BKN026 OVC034 24/18 A3000 240 68 1400 190/13 RMK AO2 T02390178 $
63870K0J4 0J420161217145012012/17/16 14:50:31  5-MIN K0J4 171950Z AUTO 18012KT 10SM BKN026 OVC034 24/18 A3000 240 68 1400 180/12 RMK AO2 T02390178 $
63870K0J4 0J420161217145513312/17/16 14:55:31  5-MIN K0J4 171955Z AUTO 19013G20KT 10SM BKN026 OVC031 24/18 A3000 240 68 1400 190/13G20 RMK AO2 SLP156 T02390178 $
63870K0J4 0J420161217150012612/17/16 15:00:31  5-MIN K0J4 172000Z AUTO 20012G20KT 10SM BKN024 OVC031 24/18 A3000 240 68 1400 200/12G20 RMK AO2 T02390178 $
63870K0J4 0J420161217150512012/17/16 15:05:31  5-MIN K0J4 172005Z AUTO 19012KT 10SM BKN024 OVC028 24/18 A3000 240 68 1400 190/12 RMK AO2 T02390178 $
63870K0J4 0J420161217151011312/17/16 15:10:31  5-MIN K0J4 172010Z AUTO 20014KT 10SM OVC024 23/18 A3001 240 70 1300 200/14 RMK AO2 T02330178 $
63870K0J4 0J420161217151511912/17/16 15:15:31  5-MIN K0J4 172015Z AUTO 19012G20KT 10SM OVC024 23/18 A3001 240 70 1300 190/12G20 RMK AO2 T02330178 $
63870K0J4 0J420161217152012612/17/16 15:20:31  5-MIN K0J4 172020Z AUTO 20015G22KT 10SM BKN024 OVC028 23/18 A3001 240 70 1300 200/15G22 RMK AO2 T02330178 $
63870K0J4 0J420161217152512612/17/16 15:25:31  5-MIN K0J4 172025Z AUTO 20012G22KT 10SM BKN024 OVC047 23/18 A3001 240 70 1300 200/12G22 RMK AO2 T02330178 $
63870K0J4 0J420161217153012012/17/16 15:30:31  5-MIN K0J4 172030Z AUTO 19010KT 10SM BKN024 OVC033 23/18 A3001 230 70 1300 190/10 RMK AO2 T02330178 $
63870K0J4 0J420161217153512012/17/16 15:35:31  5-MIN K0J4 172035Z AUTO 19010KT 10SM BKN024 OVC033 23/18 A3001 230 70 1300 190/10 RMK AO2 T02330178 $
63870K0J4 0J420161217154012712/17/16 15:40:31  5-MIN K0J4 172040Z AUTO 20012KT 10SM SCT022 BKN027 OVC060 23/18 A3001 230 70 1300 200/12 RMK AO2 T02330178 $
63870K0J4 0J420161217154513312/17/16 15:45:31  5-MIN K0J4 172045Z AUTO 19014G19KT 10SM SCT022 BKN034 OVC060 23/18 A3001 230 70 1300 190/14G19 RMK AO2 T02330178 $
63870K0J4 0J420161217155013312/17/16 15:50:31  5-MIN K0J4 172050Z AUTO 20012G19KT 10SM FEW024 BKN032 OVC060 23/18 A3001 230 70 1300 200/12G19 RMK AO2 T02330178 $
63870K0J4 0J420161217155514012/17/16 15:55:31  5-MIN K0J4 172055Z AUTO 19009KT 10SM FEW022 BKN046 OVC060 23/18 A3001 230 70 1300 190/09 RMK AO2 SLP160 T02330178 58020 $
63870K0J4 0J420161217160012712/17/16 16:00:31  5-MIN K0J4 172100Z AUTO 20011KT 10SM FEW024 SCT032 BKN060 23/18 A3001 230 70 1300 200/11 RMK AO2 T02330178 $
63870K0J4 0J420161217160512712/17/16 16:05:31  5-MIN K0J4 172105Z AUTO 19012KT 10SM FEW025 BKN043 OVC060 23/18 A3001 230 70 1300 190/12 RMK AO2 T02330178 $
63870K0J4 0J420161217161012712/17/16 16:10:31  5-MIN K0J4 172110Z AUTO 19010KT 10SM FEW030 BKN043 OVC065 23/18 A3001 230 70 1300 190/10 RMK AO2 T02330178 $
63870K0J4 0J420161217161512712/17/16 16:15:31  5-MIN K0J4 172115Z AUTO 20010KT 10SM FEW030 SCT043 OVC065 23/18 A3001 230 70 1300 200/10 RMK AO2 T02330178 $
63870K0J4 0J420161217162013312/17/16 16:20:31  5-MIN K0J4 172120Z AUTO 20011G17KT 10SM FEW030 FEW042 BKN065 23/18 A3001 230 70 1300 200/11G17 RMK AO2 T02330178 $
63870K0J4 0J420161217162513312/17/16 16:25:31  5-MIN K0J4 172125Z AUTO 20010G17KT 10SM FEW030 SCT042 BKN065 23/18 A3002 230 70 1300 200/10G17 RMK AO2 T02330178 $
63870K0J4 0J420161217163012012/17/16 16:30:31  5-MIN K0J4 172130Z AUTO 19010KT 10SM SCT042 BKN070 23/18 A3001 230 70 1300 190/10 RMK AO2 T02330178 $
63870K0J4 0J420161217163512612/17/16 16:35:31  5-MIN K0J4 172135Z AUTO 19012G18KT 10SM SCT042 BKN065 23/18 A3002 230 70 1300 190/12G18 RMK AO2 T02330178 $
63870K0J4 0J420161217164012012/17/16 16:40:31  5-MIN K0J4 172140Z AUTO 19013KT 10SM FEW044 BKN065 23/18 A3002 230 70 1300 190/13 RMK AO2 T02330178 $
63870K0J4 0J420161217164512012/17/16 16:45:31  5-MIN K0J4 172145Z AUTO 19010KT 10SM SCT044 BKN065 23/18 A3002 230 70 1300 190/10 RMK AO2 T02330178 $
63870K0J4 0J420161217165012712/17/16 16:50:31  5-MIN K0J4 172150Z AUTO 19008KT 10SM SCT044 BKN055 BKN070 23/18 A3002 230 70 1300 190/08 RMK AO2 T02330178 $
63870K0J4 0J420161217165513412/17/16 16:55:31  5-MIN K0J4 172155Z AUTO 19011KT 10SM BKN044 BKN055 BKN070 23/18 A3002 230 73 1200 190/11 RMK AO2 SLP162 T02280178 $
63870K0J4 0J420161217170012712/17/16 17:00:31  5-MIN K0J4 172200Z AUTO 19009KT 10SM BKN044 BKN055 BKN070 23/18 A3002 230 73 1200 190/09 RMK AO2 T02280178 $
63870K0J4 0J420161217170512712/17/16 17:05:31  5-MIN K0J4 172205Z AUTO 18007KT 10SM BKN046 BKN060 BKN070 23/18 A3002 230 73 1200 180/07 RMK AO2 T02280178 $
63870K0J4 0J420161217171012712/17/16 17:10:31  5-MIN K0J4 172210Z AUTO 19008KT 10SM BKN044 BKN060 BKN070 23/18 A3002 230 73 1200 190/08 RMK AO2 T02280178 $
63870K0J4 0J420161217171512012/17/16 17:15:31  5-MIN K0J4 172215Z AUTO 19011KT 10SM BKN044 OVC055 23/18 A3002 230 73 1200 190/11 RMK AO2 T02280178 $
63870K0J4 0J420161217172012012/17/16 17:20:31  5-MIN K0J4 172220Z AUTO 19007KT 10SM BKN044 OVC055 23/18 A3002 230 73 1200 190/07 RMK AO2 T02280178 $
63870K0J4 0J420161217172512012/17/16 17:25:31  5-MIN K0J4 172225Z AUTO 18006KT 10SM BKN044 OVC065 23/18 A3002 230 73 1200 180/06 RMK AO2 T02280178 $
63870K0J4 0J420161217173012012/17/16 17:30:31  5-MIN K0J4 172230Z AUTO 20006KT 10SM BKN042 OVC050 22/18 A3002 220 75 1200 200/06 RMK AO2 T02220178 $
63870K0J4 0J420161217173511312/17/16 17:35:31  5-MIN K0J4 172235Z AUTO 19008KT 10SM OVC042 22/18 A3002 220 75 1200 190/08 RMK AO2 T02220178 $
63870K0J4 0J420161217174012012/17/16 17:40:31  5-MIN K0J4 172240Z AUTO 19007KT 10SM BKN040 OVC048 22/18 A3002 220 75 1200 190/07 RMK AO2 T02220178 $
63870K0J4 0J420161217174511312/17/16 17:45:31  5-MIN K0J4 172245Z AUTO 19006KT 10SM OVC042 22/18 A3002 220 75 1200 190/06 RMK AO2 T02220178 $
63870K0J4 0J420161217175011312/17/16 17:50:31  5-MIN K0J4 172250Z AUTO 19007KT 10SM OVC040 22/18 A3002 220 75 1200 190/07 RMK AO2 T02220178 $
63870K0J4 0J420161217175512012/17/16 17:55:31  5-MIN K0J4 172255Z AUTO 19007KT 10SM OVC040 22/18 A3002 220 75 1200 190/07 RMK AO2 SLP163 T02220178 $
63870K0J4 0J420161217180011312/17/16 18:00:31  5-MIN K0J4 172300Z AUTO 19007KT 10SM OVC038 22/18 A3002 220 75 1200 190/07 RMK AO2 T02220178 $
63870K0J4 0J420161217180511312/17/16 18:05:31  5-MIN K0J4 172305Z AUTO 19008KT 10SM OVC040 22/18 A3002 220 75 1200 190/08 RMK AO2 T02220178 $
63870K0J4 0J420161217181012012/17/16 18:10:31  5-MIN K0J4 172310Z AUTO 18007KT 10SM BKN040 OVC050 22/18 A3002 220 75 1200 180/07 RMK AO2 T02220178 $
63870K0J4 0J420161217181512012/17/16 18:15:31  5-MIN K0J4 172315Z AUTO 18008KT 10SM BKN040 OVC050 22/18 A3002 220 78 1100 180/08 RMK AO2 T02170178 $
63870K0J4 0J420161217182012712/17/16 18:20:31  5-MIN K0J4 172320Z AUTO 18008KT 10SM BKN040 BKN046 BKN065 22/18 A3002 220 81 1100 180/08 RMK AO2 T02170183 $
63870K0J4 0J420161217182512712/17/16 18:25:31  5-MIN K0J4 172325Z AUTO 18008KT 10SM FEW015 BKN040 BKN055 22/18 A3002 220 81 1100 180/08 RMK AO2 T02170183 $
63870K0J4 0J420161217183012712/17/16 18:30:31  5-MIN K0J4 172330Z AUTO 18008KT 10SM FEW015 BKN050 OVC065 22/18 A3002 220 81 1100 180/08 RMK AO2 T02170183 $
63870K0J4 0J420161217183514312/17/16 18:35:31  5-MIN K0J4 172335Z AUTO 18010KT 10SM -RA FEW014 SCT041 BKN050 22/18 A3002 220 81 1100 180/10 RMK AO2 RAB32 P0000 T02170183 $
63870K0J4 0J420161217184014312/17/16 18:40:31  5-MIN K0J4 172340Z AUTO 18009KT 10SM -RA FEW014 SCT040 BKN050 22/18 A3002 220 81 1100 180/09 RMK AO2 RAB32 P0000 T02170183 $
63870K0J4 0J420161217184514212/17/16 18:45:31  5-MIN K0J4 172345Z AUTO 18008KT 10SM FEW014 SCT036 BKN050 22/18 A3002 220 81 1100 180/08 RMK AO2 RAB32E42 P0000 T02170183 $
63870K0J4 0J420161217185013512/17/16 18:50:31  5-MIN K0J4 172350Z AUTO 17009KT 10SM SCT036 BKN050 22/18 A3002 220 81 1100 170/09 RMK AO2 RAB32E42 P0000 T02170183 $
63870K0J4 0J420161217185517312/17/16 18:55:31  5-MIN K0J4 172355Z AUTO 18008KT 10SM FEW015 SCT036 BKN050 21/18 A3002 220 84 1000 180/08 RMK AO2 RAB32E42 SLP164 P0000 60000 T02110183 10250 20211 55009 $
63870K0J4 0J420161217190012012/17/16 19:00:31  5-MIN K0J4 180000Z AUTO 18006KT 10SM FEW019 SCT036 21/18 A3003 220 84 1000 180/06 RMK AO2 T02110183 $
63870K0J4 0J420161217190512012/17/16 19:05:31  5-MIN K0J4 180005Z AUTO 18009KT 10SM FEW019 SCT036 21/18 A3002 220 84 1000 180/09 RMK AO2 T02110183 $
63870K0J4 0J420161217191012012/17/16 19:10:31  5-MIN K0J4 180010Z AUTO 18009KT 10SM FEW019 SCT035 21/19 A3003 220 87 1000 180/09 RMK AO2 T02110189 $
63870K0J4 0J420161217191512712/17/16 19:15:31  5-MIN K0J4 180015Z AUTO 18007KT 10SM FEW011 FEW019 SCT035 21/19 A3003 220 87 1000 180/07 RMK AO2 T02110189 $
63870K0J4 0J420161217192012712/17/16 19:20:31  5-MIN K0J4 180020Z AUTO 19007KT 10SM SCT011 SCT019 BKN033 21/19 A3003 220 87 1000 190/07 RMK AO2 T02110189 $
63870K0J4 0J420161217192512712/17/16 19:25:31  5-MIN K0J4 180025Z AUTO 18007KT 10SM SCT011 SCT019 BKN033 21/19 A3003 220 87 1000 180/07 RMK AO2 T02110189 $
63870K0J4 0J420161217193012012/17/16 19:30:31  5-MIN K0J4 180030Z AUTO 18007KT 10SM SCT011 BKN036 21/19 A3003 210 87 1000 180/07 RMK AO2 T02110189 $
63870K0J4 0J420161217193512012/17/16 19:35:31  5-MIN K0J4 180035Z AUTO 18007KT 10SM SCT011 BKN036 21/19 A3003 210 87 1000 180/07 RMK AO2 T02110189 $
63870K0J4 0J420161217194013212/17/16 19:40:31  5-MIN K0J4 180040Z AUTO 18006KT 10SM BKN011 BKN036 21/19 A3003 210 87 1000 180/06 RMK AO2 CIG 009V014 T02110189 $
63870K0J4 0J420161217194513212/17/16 19:45:31  5-MIN K0J4 180045Z AUTO 18008KT 10SM BKN010 BKN036 21/19 A3003 210 87 1000 180/08 RMK AO2 CIG 009V014 T02110189 $
63870K0J4 0J420161217200010812/17/16 20:00:31  5-MIN K0J4 180100Z AUTO 18006KT 21/19 A3004 210 87 1000 180/06 RMK AO2 SLP168 T02110189 $
63870K0J4 0J420161217200511312/17/16 20:05:31  5-MIN K0J4 180105Z AUTO 18007KT 10SM 21/19 A3004 210 87 1000 180/07 RMK AO2 SLP168 T02110189 $
63870K0J4 0J420161217201011312/17/16 20:10:31  5-MIN K0J4 180110Z AUTO 19007KT 10SM 21/19 A3004 210 87 1000 190/07 RMK AO2 SLP169 T02110189 $
63870K0J4 0J420161217201511312/17/16 20:15:31  5-MIN K0J4 180115Z AUTO 18007KT 10SM 21/19 A3004 210 87 1000 180/07 RMK AO2 SLP169 T02110189 $
63870K0J4 0J420161217202011312/17/16 20:20:31  5-MIN K0J4 180120Z AUTO 18006KT 10SM 21/19 A3004 210 87 1000 180/06 RMK AO2 SLP169 T02110189 $
63870K0J4 0J420161217202512212/17/16 20:25:31  5-MIN K0J4 180125Z AUTO 18007KT 10SM BKN011 BKN050 21/19 A3004 210 87 1000 180/07 RMK AO2 CIG 008V012 $
63870K0J4 0J420161217203013912/17/16 20:30:31  5-MIN K0J4 180130Z AUTO 18007KT 10SM BKN011 BKN055 21/19 A3004 210 87 1000 180/07 RMK AO2 CIG 008V012 SLP170 T02110189 $
63870K0J4 0J420161217203514612/17/16 20:35:31  5-MIN K0J4 180135Z AUTO 18007KT 10SM BKN010 BKN023 BKN055 21/19 A3004 210 90 1000 180/07 RMK AO2 CIG 008V012 SLP170 T02110194 $
63870K0J4 0J420161217204011012/17/16 20:40:31  5-MIN K0J4 180140Z AUTO 18008KT 10SM SCT010 BKN023 21/19 A3004 210 90 1000 180/08 RMK AO2 $
63870K0J4 0J420161217204512012/17/16 20:45:31  5-MIN K0J4 180145Z AUTO 18007KT 10SM BKN012 BKN023 21/19 A3004 210 87 1000 180/07 RMK AO2 T02110189 $
63870K0J4 0J420161217205012712/17/16 20:50:31  5-MIN K0J4 180150Z AUTO 18008KT 10SM SCT012 BKN023 BKN055 21/19 A3004 210 87 1000 180/08 RMK AO2 T02110189 $
63870K0J4 0J420161217205511712/17/16 20:55:31  5-MIN K0J4 180155Z AUTO 18008KT 10SM FEW012 SCT023 OVC055 21/19 A3004 210 90 1000 180/08 RMK AO2 $
63870K0J4 0J420161217210012712/17/16 21:00:31  5-MIN K0J4 180200Z AUTO 17007KT 10SM FEW012 SCT023 BKN060 21/19 A3004 210 90 1000 170/07 RMK AO2 T02110194 $
63870K0J4 0J420161217210512712/17/16 21:05:31  5-MIN K0J4 180205Z AUTO 18007KT 10SM FEW012 SCT037 BKN060 21/19 A3004 210 87 1000 180/07 RMK AO2 T02110189 $
63870K0J4 0J420161217211012712/17/16 21:10:31  5-MIN K0J4 180210Z AUTO 18008KT 10SM FEW012 SCT037 BKN060 21/19 A3004 210 87 1000 180/08 RMK AO2 T02110189 $
63870K0J4 0J420161217211512712/17/16 21:15:31  5-MIN K0J4 180215Z AUTO 18007KT 10SM FEW010 SCT037 BKN060 21/19 A3004 210 87 1000 180/07 RMK AO2 T02110189 $
63870K0J4 0J420161217212012712/17/16 21:20:31  5-MIN K0J4 180220Z AUTO 18007KT 10SM FEW010 SCT037 BKN055 21/19 A3004 210 87 1000 180/07 RMK AO2 T02110189 $
63870K0J4 0J420161217212512012/17/16 21:25:31  5-MIN K0J4 180225Z AUTO 18007KT 10SM SCT010 BKN037 21/19 A3004 210 90 1000 180/07 RMK AO2 T02110194 $
63870K0J4 0J420161217213012712/17/16 21:30:31  5-MIN K0J4 180230Z AUTO 18007KT 10SM SCT009 SCT029 BKN037 21/19 A3004 210 90 1000 180/07 RMK AO2 T02110194 $
63870K0J4 0J420161217213512712/17/16 21:35:31  5-MIN K0J4 180235Z AUTO 18009KT 10SM FEW009 SCT027 BKN037 21/19 A3004 210 90 1000 180/09 RMK AO2 T02110194 $
63870K0J4 0J420161217214012712/17/16 21:40:31  5-MIN K0J4 180240Z AUTO 18007KT 10SM SCT012 SCT027 BKN037 21/19 A3004 210 90 1000 180/07 RMK AO2 T02110194 $
63870K0J4 0J420161217214512712/17/16 21:45:31  5-MIN K0J4 180245Z AUTO 18009KT 10SM SCT012 BKN020 BKN031 22/19 A3004 210 87 1100 180/09 RMK AO2 T02170194 $
63870K0J4 0J420161217215012712/17/16 21:50:31  5-MIN K0J4 180250Z AUTO 18008KT 10SM SCT013 BKN027 BKN049 22/19 A3004 210 87 1100 180/08 RMK AO2 T02170194 $
63870K0J4 0J420161217215513412/17/16 21:55:31  5-MIN K0J4 180255Z AUTO 18008KT 10SM SCT009 BKN015 OVC047 22/19 A3004 210 87 1100 180/08 RMK AO2 SLP169 T02170194 $
63870K0J4 0J420161217220012712/17/16 22:00:31  5-MIN K0J4 180300Z AUTO 18008KT 10SM FEW011 BKN014 OVC047 22/19 A3004 210 87 1100 180/08 RMK AO2 T02170194 $
63870K0J4 0J420161217220512712/17/16 22:05:31  5-MIN K0J4 180305Z AUTO 18010KT 10SM SCT011 BKN017 OVC045 22/19 A3004 210 87 1100 180/10 RMK AO2 T02170194 $
63870K0J4 0J420161217221012712/17/16 22:10:31  5-MIN K0J4 180310Z AUTO 19007KT 10SM BKN013 BKN017 OVC026 22/19 A3003 210 87 1100 190/07 RMK AO2 T02170194 $
63870K0J4 0J420161217221512712/17/16 22:15:31  5-MIN K0J4 180315Z AUTO 19009KT 10SM SCT011 BKN015 OVC024 22/19 A3003 210 87 1100 190/09 RMK AO2 T02170194 $
63870K0J4 0J420161217222012712/17/16 22:20:31  5-MIN K0J4 180320Z AUTO 19006KT 10SM BKN011 BKN015 OVC026 22/19 A3003 210 87 1100 190/06 RMK AO2 T02170194 $
63870K0J4 0J420161217222512012/17/16 22:25:31  5-MIN K0J4 180325Z AUTO 19008KT 10SM BKN013 OVC026 22/19 A3003 210 87 1100 190/08 RMK AO2 T02170194 $
63870K0J4 0J420161217223012012/17/16 22:30:31  5-MIN K0J4 180330Z AUTO 19008KT 10SM BKN013 OVC024 22/19 A3003 210 84 1100 190/08 RMK AO2 T02220194 $
63870K0J4 0J420161217223511312/17/16 22:35:31  5-MIN K0J4 180335Z AUTO 20010KT 10SM OVC011 22/19 A3003 210 84 1100 200/10 RMK AO2 T02220194 $
63870K0J4 0J420161217224012012/17/16 22:40:31  5-MIN K0J4 180340Z AUTO 20011KT 10SM BKN011 OVC014 22/19 A3003 210 84 1100 200/11 RMK AO2 T02220194 $
63870K0J4 0J420161217224511312/17/16 22:45:31  5-MIN K0J4 180345Z AUTO 20009KT 10SM OVC010 22/19 A3003 210 84 1100 200/09 RMK AO2 T02220194 $
63870K0J4 0J420161217225012012/17/16 22:50:31  5-MIN K0J4 180350Z AUTO 19010KT 10SM BKN012 OVC026 22/19 A3003 210 84 1100 190/10 RMK AO2 T02220194 $
63870K0J4 0J420161217225513912/17/16 22:55:31  5-MIN K0J4 180355Z AUTO 20009KT 10SM BKN010 OVC015 22/19 A3004 210 84 1100 200/09 RMK AO2 CIG 009V013 SLP167 T02220194 $
63870K0J4 0J420161217230013812/17/16 23:00:31  5-MIN K0J4 180400Z AUTO 20010KT 10SM -RA BKN012 OVC023 22/19 A3004 210 84 1100 200/10 RMK AO2 RAB0359 P0000 T02220194 $
63870K0J4 0J420161217230513812/17/16 23:05:31  5-MIN K0J4 180405Z AUTO 20010KT 10SM -RA BKN012 OVC023 22/19 A3004 210 84 1100 200/10 RMK AO2 RAB0359 P0000 T02220194 $
63870K0J4 0J420161217231014412/17/16 23:10:31  5-MIN K0J4 180410Z AUTO 20009KT 10SM BKN012 BKN018 OVC027 22/19 A3004 210 84 1100 200/09 RMK AO2 RAB0359E08 P0000 T02220194 $
63870K0J4 0J420161217231514512/17/16 23:15:31  5-MIN K0J4 180415Z AUTO 20012KT 10SM -RA BKN012 BKN018 OVC027 22/19 A3004 210 84 1100 200/12 RMK AO2 RAB0359 P0000 T02220194 $
63870K0J4 0J420161217232014412/17/16 23:20:31  5-MIN K0J4 180420Z AUTO 19009KT 10SM BKN012 BKN016 OVC022 22/19 A3004 210 84 1100 190/09 RMK AO2 RAB0359E19 P0000 T02220194 $
63870K0J4 0J420161217232513712/17/16 23:25:31  5-MIN K0J4 180425Z AUTO 19007KT 10SM BKN012 OVC022 22/19 A3004 210 84 1100 190/07 RMK AO2 RAB0359E19 P0000 T02220194 $
63870K0J4 0J420161217233014412/17/16 23:30:31  5-MIN K0J4 180430Z AUTO 20008KT 10SM BKN013 BKN022 OVC032 22/19 A3004 210 84 1100 200/08 RMK AO2 RAB0359E19 P0000 T02220194 $
63870K0J4 0J420161217233514412/17/16 23:35:31  5-MIN K0J4 180435Z AUTO 20009KT 10SM BKN013 BKN022 OVC032 22/19 A3004 210 84 1100 200/09 RMK AO2 RAB0359E19 P0000 T02220194 $
63870K0J4 0J420161217234014412/17/16 23:40:31  5-MIN K0J4 180440Z AUTO 19009KT 10SM BKN013 BKN017 OVC022 22/19 A3003 210 84 1100 190/09 RMK AO2 RAB0359E19 P0000 T02220194 $
63870K0J4 0J420161217234514412/17/16 23:45:31  5-MIN K0J4 180445Z AUTO 20010KT 10SM BKN013 BKN017 BKN024 22/19 A3004 210 84 1100 200/10 RMK AO2 RAB0359E19 P0000 T02220194 $
63870K0J4 0J420161217235014412/17/16 23:50:31  5-MIN K0J4 180450Z AUTO 19009KT 10SM BKN014 BKN023 BKN027 22/19 A3004 210 84 1100 190/09 RMK AO2 RAB0359E19 P0000 T02220194 $
63870K0J4 0J420161217235516112/17/16 23:55:31  5-MIN K0J4 180455Z AUTO 19007KT 10SM BKN014 BKN023 OVC027 22/19 A3003 210 84 1100 190/07 RMK AO2 RAB0359E19 SLP167 P0000 T02220194 402500100 $
63870K0J4 0J420161218000012012/18/16 00:00:31  5-MIN K0J4 180500Z AUTO 19008KT 10SM BKN014 OVC025 22/19 A3003 210 84 1100 190/08 RMK AO2 T02220194 $
63870K0J4 0J420161218000512012/18/16 00:05:31  5-MIN K0J4 180505Z AUTO 19010KT 10SM BKN013 OVC025 22/19 A3003 210 84 1100 190/10 RMK AO2 T02220194 $
63870K0J4 0J420161218001012012/18/16 00:10:31  5-MIN K0J4 180510Z AUTO 19009KT 10SM BKN013 OVC025 22/19 A3003 210 84 1100 190/09 RMK AO2 T02220194 $
63870K0J4 0J420161218001512712/18/16 00:15:31  5-MIN K0J4 180515Z AUTO 20011KT 10SM BKN013 BKN018 OVC026 22/19 A3003 220 84 1100 200/11 RMK AO2 T02220194 $
63870K0J4 0J420161218002012012/18/16 00:20:31  5-MIN K0J4 180520Z AUTO 19009KT 10SM BKN015 OVC023 22/19 A3003 220 84 1100 190/09 RMK AO2 T02220194 $
63870K0J4 0J420161218002512012/18/16 00:25:31  5-MIN K0J4 180525Z AUTO 19009KT 10SM BKN013 BKN019 22/19 A3003 220 87 1100 190/09 RMK AO2 T02170194 $
63870K0J4 0J420161218003012012/18/16 00:30:31  5-MIN K0J4 180530Z AUTO 20009KT 10SM BKN013 OVC019 22/19 A3003 220 87 1100 200/09 RMK AO2 T02170194 $
63870K0J4 0J420161218003511312/18/16 00:35:31  5-MIN K0J4 180535Z AUTO 19008KT 10SM BKN013 22/19 A3003 220 87 1100 190/08 RMK AO2 T02170194 $
63870K0J4 0J420161218004011312/18/16 00:40:31  5-MIN K0J4 180540Z AUTO 19007KT 10SM OVC013 22/19 A3003 220 87 1100 190/07 RMK AO2 T02170194 $
63870K0J4 0J420161218004511312/18/16 00:45:31  5-MIN K0J4 180545Z AUTO 20010KT 10SM OVC011 22/19 A3003 220 87 1100 200/10 RMK AO2 T02170194 $
63870K0J4 0J420161218005011312/18/16 00:50:31  5-MIN K0J4 180550Z AUTO 19007KT 10SM OVC011 22/19 A3003 220 87 1100 190/07 RMK AO2 T02170194 $
63870K0J4 0J420161218005514412/18/16 00:55:31  5-MIN K0J4 180555Z AUTO 19006KT 10SM OVC011 22/19 A3002 220 87 1100 190/06 RMK AO2 SLP164 60000 T02170194 10222 20211 58001 $
63870K0J4 0J420161218010012012/18/16 01:00:31  5-MIN K0J4 180600Z AUTO 19006KT 10SM BKN013 OVC021 21/19 A3002 220 90 1000 190/06 RMK AO2 T02110194 $
63870K0J4 0J420161218010512012/18/16 01:05:31  5-MIN K0J4 180605Z AUTO 19007KT 10SM BKN013 OVC021 22/19 A3002 220 87 1100 190/07 RMK AO2 T02170194 $
63870K0J4 0J420161218011012712/18/16 01:10:31  5-MIN K0J4 180610Z AUTO 19007KT 10SM SCT011 BKN018 OVC023 22/19 A3002 220 87 1100 190/07 RMK AO2 T02170194 $
63870K0J4 0J420161218011512012/18/16 01:15:31  5-MIN K0J4 180615Z AUTO 19006KT 10SM BKN014 OVC023 22/19 A3002 220 87 1100 190/06 RMK AO2 T02170194 $
63870K0J4 0J420161218012012012/18/16 01:20:31  5-MIN K0J4 180620Z AUTO 20006KT 10SM BKN014 OVC021 22/19 A3002 220 87 1100 200/06 RMK AO2 T02170194 $
63870K0J4 0J420161218012512012/18/16 01:25:31  5-MIN K0J4 180625Z AUTO 19006KT 10SM BKN014 OVC021 22/19 A3002 230 87 1100 190/06 RMK AO2 T02170194 $
63870K0J4 0J420161218013012012/18/16 01:30:31  5-MIN K0J4 180630Z AUTO 19005KT 10SM BKN014 OVC021 21/19 A3002 220 90 1000 190/05 RMK AO2 T02110194 $
63870K0J4 0J420161218013512012/18/16 01:35:31  5-MIN K0J4 180635Z AUTO 19007KT 10SM BKN014 OVC021 22/19 A3002 220 87 1100 190/07 RMK AO2 T02170194 $
63870K0J4 0J420161218014011312/18/16 01:40:31  5-MIN K0J4 180640Z AUTO 19008KT 10SM OVC015 22/19 A3002 220 87 1100 190/08 RMK AO2 T02170194 $
63870K0J4 0J420161218014512012/18/16 01:45:31  5-MIN K0J4 180645Z AUTO 20006KT 10SM BKN013 OVC017 22/19 A3002 220 87 1100 200/06 RMK AO2 T02170194 $
63870K0J4 0J420161218015012012/18/16 01:50:31  5-MIN K0J4 180650Z AUTO 20007KT 10SM BKN013 OVC019 22/19 A3003 220 87 1100 200/07 RMK AO2 T02170194 $
63870K0J4 0J420161218015512712/18/16 01:55:31  5-MIN K0J4 180655Z AUTO 19008KT 10SM BKN013 OVC020 22/19 A3003 220 87 1100 190/08 RMK AO2 SLP164 T02170194 $
63870K0J4 0J420161218020012012/18/16 02:00:31  5-MIN K0J4 180700Z AUTO 19007KT 10SM BKN013 OVC020 22/19 A3003 220 87 1100 190/07 RMK AO2 T02170194 $
63870K0J4 0J420161218020512012/18/16 02:05:31  5-MIN K0J4 180705Z AUTO 19006KT 10SM BKN013 OVC020 22/19 A3003 220 87 1100 190/06 RMK AO2 T02170194 $
63870K0J4 0J420161218021012712/18/16 02:10:31  5-MIN K0J4 180710Z AUTO 19006KT 10SM BKN013 BKN018 OVC024 22/19 A3002 220 87 1100 190/06 RMK AO2 T02170194 $
63870K0J4 0J420161218021512012/18/16 02:15:31  5-MIN K0J4 180715Z AUTO 19007KT 10SM BKN013 OVC018 22/19 A3002 220 84 1200 190/07 RMK AO2 T02220194 $
63870K0J4 0J420161218022012012/18/16 02:20:31  5-MIN K0J4 180720Z AUTO 20007KT 10SM BKN013 OVC020 22/19 A3002 220 84 1200 200/07 RMK AO2 T02220194 $
63870K0J4 0J420161218022512012/18/16 02:25:31  5-MIN K0J4 180725Z AUTO 19007KT 10SM BKN013 OVC020 22/19 A3002 220 84 1200 190/07 RMK AO2 T02220194 $
63870K0J4 0J420161218023012012/18/16 02:30:31  5-MIN K0J4 180730Z AUTO 19008KT 10SM BKN013 OVC020 22/19 A3002 220 84 1200 190/08 RMK AO2 T02220194 $
63870K0J4 0J420161218023512012/18/16 02:35:31  5-MIN K0J4 180735Z AUTO 20008KT 10SM BKN013 OVC020 22/20 A3002 220 87 1200 200/08 RMK AO2 T02220200 $
63870K0J4 0J420161218024012012/18/16 02:40:31  5-MIN K0J4 180740Z AUTO 19008KT 10SM BKN013 OVC020 22/20 A3002 230 87 1200 190/08 RMK AO2 T02220200 $
63870K0J4 0J420161218024512012/18/16 02:45:31  5-MIN K0J4 180745Z AUTO 20008KT 10SM BKN013 OVC021 22/19 A3002 220 84 1200 200/08 RMK AO2 T02220194 $
63870K0J4 0J420161218025012012/18/16 02:50:31  5-MIN K0J4 180750Z AUTO 20007KT 10SM BKN013 OVC021 22/19 A3002 230 84 1200 200/07 RMK AO2 T02220194 $
63870K0J4 0J420161218025507412/18/16 02:55:31  5-MIN K0J4 180755Z AUTO 20008KT 10SM -RA BKN013 OVC020 
63870K0J4 0J420161218025514312/18/16 02:55:31  5-MIN K0J4 180755Z AUTO 20008KT 10SM -RA BKN013 OVC020 22/19 A3002 230 84 1200 200/08 RMK AO2 RAB53 SLP161 P0000 T02220194 $
63870K0J4 0J420161218030013012/18/16 03:00:31  5-MIN K0J4 180800Z AUTO 19007KT 10SM -RA BKN013 OVC020 22/19 A3002 230 84 1200 190/07 RMK AO2 P0000 T02220194 $
63870K0J4 0J420161218030513212/18/16 03:05:31  5-MIN K0J4 180805Z AUTO 20005KT 10SM BKN013 OVC020 22/19 A3002 230 84 1200 200/05 RMK AO2 RAE02 P0000 T02220194 $
63870K0J4 0J420161218031012512/18/16 03:10:31  5-MIN K0J4 180810Z AUTO 20006KT 10SM OVC013 22/20 A3002 230 87 1200 200/06 RMK AO2 RAE02 P0000 T02220200 $
63870K0J4 0J420161218031512512/18/16 03:15:31  5-MIN K0J4 180815Z AUTO 20008KT 10SM OVC013 22/20 A3002 230 87 1200 200/08 RMK AO2 RAE02 P0000 T02220200 $
63870K0J4 0J420161218032013912/18/16 03:20:31  5-MIN K0J4 180820Z AUTO 20008KT 10SM BKN013 BKN020 OVC030 22/19 A3001 230 84 1200 200/08 RMK AO2 RAE02 P0000 T02220194 $
63870K0J4 0J420161218032513912/18/16 03:25:31  5-MIN K0J4 180825Z AUTO 20006KT 10SM BKN014 BKN028 OVC033 22/20 A3001 230 87 1200 200/06 RMK AO2 RAE02 P0000 T02220200 $
63870K0J4 0J420161218033013212/18/16 03:30:31  5-MIN K0J4 180830Z AUTO 20007KT 10SM BKN014 OVC028 22/20 A3001 230 87 1200 200/07 RMK AO2 RAE02 P0000 T02220200 $
63870K0J4 0J420161218033513912/18/16 03:35:31  5-MIN K0J4 180835Z AUTO 19008KT 10SM BKN014 BKN020 OVC030 22/20 A3001 230 87 1200 190/08 RMK AO2 RAE02 P0000 T02220200 $
63870K0J4 0J420161218034013912/18/16 03:40:31  5-MIN K0J4 180840Z AUTO 20007KT 10SM BKN014 BKN030 OVC035 22/20 A3001 230 87 1200 200/07 RMK AO2 RAE02 P0000 T02220200 $
63870K0J4 0J420161218034513912/18/16 03:45:31  5-MIN K0J4 180845Z AUTO 20008KT 10SM SCT012 BKN016 OVC035 22/20 A3001 230 87 1200 200/08 RMK AO2 RAE02 P0000 T02220200 $
63870K0J4 0J420161218035007512/18/16 03:50:31  5-MIN K0J4 180850Z AUTO M M M M /M RMK AO2 RAE02 P0000 $
63870K0J4 0J420161218035512612/18/16 03:55:31  5-MIN K0J4 180855Z AUTO 19009KT 22/20 A3001 240 87 1200 190/09 RMK AO2 RAE02 SLP158 P0000 60000 T02220200 $
63870K0J4 0J420161218040010612/18/16 04:00:31  5-MIN K0J4 180900Z AUTO 19007KT 10SM 22/20 A3001 230 87 1200 190/07 RMK AO2 T02220200 $
63870K0J4 0J420161218040510612/18/16 04:05:31  5-MIN K0J4 180905Z AUTO 20008KT 10SM 22/20 A3001 240 87 1200 200/08 RMK AO2 T02220200 $
63870K0J4 0J420161218041010612/18/16 04:10:31  5-MIN K0J4 180910Z AUTO 20010KT 10SM 22/20 A3001 230 87 1200 200/10 RMK AO2 T02220200 $
63870K0J4 0J420161218041510612/18/16 04:15:31  5-MIN K0J4 180915Z AUTO 20009KT 10SM 22/20 A3001 230 87 1200 200/09 RMK AO2 T02220200 $
63870K0J4 0J420161218042012712/18/16 04:20:31  5-MIN K0J4 180920Z AUTO 20008KT 10SM BKN014 BKN031 OVC038 22/20 A3001 230 87 1200 200/08 RMK AO2 T02220200 $
63870K0J4 0J420161218042512712/18/16 04:25:31  5-MIN K0J4 180925Z AUTO 20008KT 10SM BKN014 BKN022 OVC038 22/20 A3001 230 87 1200 200/08 RMK AO2 T02220200 $
63870K0J4 0J420161218043012712/18/16 04:30:31  5-MIN K0J4 180930Z AUTO 20009KT 10SM SCT011 BKN016 OVC022 22/20 A3001 230 87 1200 200/09 RMK AO2 T02220200 $
63870K0J4 0J420161218043512712/18/16 04:35:31  5-MIN K0J4 180935Z AUTO 20009KT 10SM BKN014 BKN022 OVC038 22/20 A3001 230 87 1200 200/09 RMK AO2 T02220200 $
63870K0J4 0J420161218044012712/18/16 04:40:31  5-MIN K0J4 180940Z AUTO 20010KT 10SM SCT012 BKN017 OVC038 23/20 A3002 230 84 1200 200/10 RMK AO2 T02280200 $
63870K0J4 0J420161218044512712/18/16 04:45:31  5-MIN K0J4 180945Z AUTO 20010KT 10SM BKN014 BKN022 OVC039 23/20 A3002 220 84 1200 200/10 RMK AO2 T02280200 $
63870K0J4 0J420161218045012712/18/16 04:50:31  5-MIN K0J4 180950Z AUTO 20009KT 10SM BKN014 BKN022 OVC032 22/20 A3002 220 87 1200 200/09 RMK AO2 T02220200 $
63870K0J4 0J420161218045511712/18/16 04:55:31  5-MIN K0J4 180955Z AUTO 21010KT 10SM BKN015 BKN024 OVC041 22/20 A3003 220 87 1100 210/10 RMK AO2 $
63870K0J4 0J420161218050012712/18/16 05:00:31  5-MIN K0J4 181000Z AUTO 21011KT 10SM BKN015 BKN022 OVC041 23/20 A3003 220 84 1200 210/11 RMK AO2 T02280200 $
63870K0J4 0J420161218050513312/18/16 05:05:31  5-MIN K0J4 181005Z AUTO 21009G17KT 10SM BKN015 BKN022 OVC041 23/20 A3003 210 84 1200 210/09G17 RMK AO2 T02280200 $
63870K0J4 0J420161218051012712/18/16 05:10:31  5-MIN K0J4 181010Z AUTO 21009KT 10SM BKN015 BKN022 OVC043 23/20 A3003 210 84 1200 210/09 RMK AO2 T02280200 $
63870K0J4 0J420161218051512712/18/16 05:15:31  5-MIN K0J4 181015Z AUTO 22009KT 10SM BKN014 BKN023 OVC043 23/20 A3004 210 84 1200 220/09 RMK AO2 T02280200 $
63870K0J4 0J420161218052012712/18/16 05:20:31  5-MIN K0J4 181020Z AUTO 22009KT 10SM SCT014 BKN020 OVC043 23/20 A3004 210 84 1200 220/09 RMK AO2 T02280200 $
63870K0J4 0J420161218052512712/18/16 05:25:31  5-MIN K0J4 181025Z AUTO 21008KT 10SM SCT014 BKN024 OVC045 23/20 A3004 210 84 1200 210/08 RMK AO2 T02280200 $
63870K0J4 0J420161218053012712/18/16 05:30:31  5-MIN K0J4 181030Z AUTO 21008KT 10SM FEW014 BKN026 OVC047 22/20 A3004 210 87 1100 210/08 RMK AO2 T02220200 $
63870K0J4 0J420161218053512712/18/16 05:35:31  5-MIN K0J4 181035Z AUTO 21009KT 10SM FEW014 BKN026 OVC045 22/20 A3004 200 87 1100 210/09 RMK AO2 T02220200 $
63870K0J4 0J420161218054012712/18/16 05:40:31  5-MIN K0J4 181040Z AUTO 21007KT 10SM SCT014 BKN025 OVC045 22/20 A3004 200 87 1100 210/07 RMK AO2 T02220200 $
63870K0J4 0J420161218054512712/18/16 05:45:31  5-MIN K0J4 181045Z AUTO 20007KT 10SM SCT014 BKN025 OVC047 22/20 A3004 200 87 1100 200/07 RMK AO2 T02220200 $
63870K0J4 0J420161218055012712/18/16 05:50:31  5-MIN K0J4 181050Z AUTO 20009KT 10SM SCT014 SCT021 OVC047 22/20 A3004 200 87 1100 200/09 RMK AO2 T02220200 $
63870K0J4 0J420161218055513412/18/16 05:55:31  5-MIN K0J4 181055Z AUTO 20010KT 10SM FEW015 BKN047 OVC055 23/19 A3005 200 81 1200 200/10 RMK AO2 SLP171 T02280194 $
63870K0J4 0J420161218060014512/18/16 06:00:31  5-MIN K0J4 181100Z AUTO 21009KT 10SM -RA SCT015 BKN047 OVC055 22/19 A3005 200 84 1100 210/09 RMK AO2 RAB1059 P0000 T02220194 $
63870K0J4 0J420161218060514512/18/16 06:05:31  5-MIN K0J4 181105Z AUTO 21012KT 10SM -RA BKN015 BKN021 OVC050 22/19 A3006 190 84 1100 210/12 RMK AO2 RAB1059 P0000 T02220194 $
63870K0J4 0J420161218061014512/18/16 06:10:31  5-MIN K0J4 181110Z AUTO 21010KT 10SM -RA BKN015 BKN021 BKN050 22/19 A3006 190 84 1100 210/10 RMK AO2 RAB1059 P0000 T02220194 $
63870K0J4 0J420161218061514412/18/16 06:15:31  5-MIN K0J4 181115Z AUTO 20010KT 10SM SCT015 BKN021 BKN055 22/19 A3006 190 84 1100 200/10 RMK AO2 RAB1059E11 P0000 T02220194 $
63870K0J4 0J420161218062014412/18/16 06:20:31  5-MIN K0J4 181120Z AUTO 20011KT 10SM SCT015 SCT021 BKN055 22/19 A3006 190 84 1100 200/11 RMK AO2 RAB1059E11 P0000 T02220194 $
63870K0J4 0J420161218062513712/18/16 06:25:31  5-MIN K0J4 181125Z AUTO 21009KT 10SM SCT015 BKN055 22/19 A3006 190 84 1100 210/09 RMK AO2 RAB1059E11 P0000 T02220194 $
63870K0J4 0J420161218063014412/18/16 06:30:31  5-MIN K0J4 181130Z AUTO 21007KT 10SM SCT015 SCT023 BKN055 22/19 A3006 180 84 1100 210/07 RMK AO2 RAB1059E11 P0000 T02220194 $
63870K0J4 0J420161218063514412/18/16 06:35:31  5-MIN K0J4 181135Z AUTO 21008KT 10SM FEW015 SCT023 BKN031 22/19 A3007 180 87 1000 210/08 RMK AO2 RAB1059E11 P0000 T02170194 $
63870K0J4 0J420161218064014412/18/16 06:40:31  5-MIN K0J4 181140Z AUTO 22006KT 10SM FEW013 SCT022 BKN033 22/19 A3007 180 87 1000 220/06 RMK AO2 RAB1059E11 P0000 T02170194 $
63870K0J4 0J420161218064514412/18/16 06:45:31  5-MIN K0J4 181145Z AUTO 21007KT 10SM FEW013 SCT019 BKN033 22/19 A3007 180 84 1100 210/07 RMK AO2 RAB1059E11 P0000 T02220194 $
63870K0J4 0J420161218065014412/18/16 06:50:31  5-MIN K0J4 181150Z AUTO 21007KT 10SM FEW013 BKN020 BKN026 22/19 A3007 180 87 1000 210/07 RMK AO2 RAB1059E11 P0000 T02170194 $
63870K0J4 0J420161218065516912/18/16 06:55:31  5-MIN K0J4 181155Z AUTO 20007KT 10SM SCT014 BKN022 OVC034 22/20 A3007 180 90 1000 200/07 RMK AO2 RAB1059E11 SLP179 P0000 60000 T02170200 10228 20217 $
63870K0J4 0J420161218070012712/18/16 07:00:31  5-MIN K0J4 181200Z AUTO 20007KT 10SM FEW012 BKN025 OVC037 22/20 A3007 180 87 1100 200/07 RMK AO2 T02220200 $
63870K0J4 0J420161218070512712/18/16 07:05:31  5-MIN K0J4 181205Z AUTO 20008KT 10SM SCT015 BKN020 OVC041 22/20 A3007 170 87 1100 200/08 RMK AO2 T02220200 $
63870K0J4 0J420161218071013912/18/16 07:10:31  5-MIN K0J4 181210Z AUTO 21008KT 10SM SCT011 BKN020 OVC044 22/20 A3008 170 87 1100 210/08 RMK AO2 CIG 015V026 T02220200 $
63870K0J4 0J420161218071512712/18/16 07:15:31  5-MIN K0J4 181215Z AUTO 21008KT 10SM SCT011 BKN016 OVC026 22/20 A3008 170 87 1100 210/08 RMK AO2 T02220200 $
63870K0J4 0J420161218072012612/18/16 07:20:31  5-MIN K0J4 181220Z AUTO 20007KT 9SM SCT011 BKN014 OVC041 22/20 A3008 170 90 1000 200/07 RMK AO2 T02170200 $
63870K0J4 0J420161218072512612/18/16 07:25:31  5-MIN K0J4 181225Z AUTO 20006KT 9SM SCT011 BKN019 BKN028 22/20 A3008 170 90 1000 200/06 RMK AO2 T02170200 $
63870K0J4 0J420161218073012612/18/16 07:30:31  5-MIN K0J4 181230Z AUTO 20007KT 9SM SCT011 BKN019 BKN027 22/19 A3008 170 87 1000 200/07 RMK AO2 T02170194 $
63870K0J4 0J420161218073511912/18/16 07:35:31  5-MIN K0J4 181235Z AUTO 20006KT 9SM SCT011 SCT019 22/19 A3009 160 87 1000 200/06 RMK AO2 T02170194 $
63870K0J4 0J420161218074011912/18/16 07:40:31  5-MIN K0J4 181240Z AUTO 20007KT 8SM SCT015 SCT019 22/19 A3009 160 87 1000 200/07 RMK AO2 T02170194 $
63870K0J4 0J420161218074511212/18/16 07:45:31  5-MIN K0J4 181245Z AUTO 21007KT 7SM SCT017 22/19 A3009 160 87 1000 210/07 RMK AO2 T02170194 $
63870K0J4 0J420161218075011212/18/16 07:50:31  5-MIN K0J4 181250Z AUTO 21005KT 7SM FEW017 21/19 A3009 160 90 1000 210/05 RMK AO2 T02110194 $
63870K0J4 0J420161218075511812/18/16 07:55:31  5-MIN K0J4 181255Z AUTO 21008KT 7SM FEW017 22/19 A3009 160 87 1000 210/08 RMK AO2 SLPNO T02170194 $
63870K0J4 0J420161218080011912/18/16 08:00:31  5-MIN K0J4 181300Z AUTO 22006KT 7SM FEW017 FEW025 22/20 A3010 150 90 1000 220/06 RMK AO2 T02170200 $
63870K0J4 0J420161218080511912/18/16 08:05:31  5-MIN K0J4 181305Z AUTO 21006KT 8SM FEW015 SCT028 22/20 A3009 160 90 1000 210/06 RMK AO2 T02170200 $
63870K0J4 0J420161218081012612/18/16 08:10:31  5-MIN K0J4 181310Z AUTO 21005KT 8SM FEW015 SCT028 SCT060 22/20 A3010 150 90 1000 210/05 RMK AO2 T02170200 $
63870K0J4 0J420161218081512612/18/16 08:15:31  5-MIN K0J4 181315Z AUTO 20007KT 8SM FEW015 SCT049 SCT065 22/20 A3010 150 90 1000 200/07 RMK AO2 T02170200 $
63870K0J4 0J420161218082012612/18/16 08:20:31  5-MIN K0J4 181320Z AUTO 19008KT 8SM FEW015 SCT026 SCT070 22/20 A3010 150 87 1100 190/08 RMK AO2 T02220200 $
63870K0J4 0J420161218082511912/18/16 08:25:31  5-MIN K0J4 181325Z AUTO 20008KT 8SM FEW013 SCT026 22/20 A3010 150 87 1100 200/08 RMK AO2 T02220200 $
63870K0J4 0J420161218083011912/18/16 08:30:31  5-MIN K0J4 181330Z AUTO 20008KT 7SM SCT011 SCT028 22/20 A3010 150 87 1100 200/08 RMK AO2 T02220200 $
63870K0J4 0J420161218083512612/18/16 08:35:31  5-MIN K0J4 181335Z AUTO 20010KT 7SM SCT008 SCT013 BKN026 22/20 A3010 150 87 1100 200/10 RMK AO2 T02220200 $
63870K0J4 0J420161218084012612/18/16 08:40:31  5-MIN K0J4 181340Z AUTO 20009KT 8SM SCT010 BKN015 BKN025 22/20 A3010 150 87 1100 200/09 RMK AO2 T02220200 $
63870K0J4 0J420161218084512612/18/16 08:45:31  5-MIN K0J4 181345Z AUTO 21007KT 8SM SCT010 BKN014 BKN025 22/20 A3011 150 87 1100 210/07 RMK AO2 T02220200 $
63870K0J4 0J420161218085012612/18/16 08:50:31  5-MIN K0J4 181350Z AUTO 20009KT 8SM BKN010 BKN014 BKN025 22/21 A3011 140 90 1100 200/09 RMK AO2 T02220206 $
63870K0J4 0J420161218085513312/18/16 08:55:31  5-MIN K0J4 181355Z AUTO 21009KT 8SM BKN010 BKN014 OVC025 23/21 A3010 150 87 1100 210/09 RMK AO2 SLP191 T02280206 $
63870K0J4 0J420161218090011912/18/16 09:00:31  5-MIN K0J4 181400Z AUTO 20008KT 8SM BKN010 OVC015 23/21 A3011 140 87 1100 200/08 RMK AO2 T02280206 $
63870K0J4 0J420161218090511912/18/16 09:05:31  5-MIN K0J4 181405Z AUTO 20007KT 8SM BKN008 OVC013 23/21 A3011 140 87 1100 200/07 RMK AO2 T02280206 $
63870K0J4 0J420161218091011912/18/16 09:10:31  5-MIN K0J4 181410Z AUTO 20009KT 8SM BKN008 OVC013 23/21 A3011 150 87 1100 200/09 RMK AO2 T02280206 $
63870K0J4 0J420161218091513112/18/16 09:15:31  5-MIN K0J4 181415Z AUTO 19008KT 9SM BKN008 OVC015 23/21 A3011 140 87 1100 190/08 RMK AO2 CIG 007V011 T02280206 $
63870K0J4 0J420161218092013112/18/16 09:20:31  5-MIN K0J4 181420Z AUTO 20010KT 9SM BKN009 OVC015 23/21 A3011 140 84 1200 200/10 RMK AO2 CIG 007V011 T02330206 $
63870K0J4 0J420161218092513112/18/16 09:25:31  5-MIN K0J4 181425Z AUTO 20008KT 9SM BKN009 OVC017 23/21 A3011 140 84 1200 200/08 RMK AO2 CIG 007V012 T02330206 $
63870K0J4 0J420161218093012612/18/16 09:30:31  5-MIN K0J4 181430Z AUTO 22008KT 9SM BKN009 BKN012 OVC019 24/21 A3011 140 81 1200 220/08 RMK AO2 T02390206 $
63870K0J4 0J420161218093513912/18/16 09:35:31  5-MIN K0J4 181435Z AUTO 20008KT 10SM BKN009 BKN019 OVC024 23/21 A3012 140 84 1200 200/08 RMK AO2 CIG 007V015 T02330206 $
63870K0J4 0J420161218094013912/18/16 09:40:31  5-MIN K0J4 181440Z AUTO 21007KT 10SM BKN009 BKN019 OVC024 23/21 A3012 130 84 1200 210/07 RMK AO2 CIG 007V012 T02330206 $
63870K0J4 0J420161218094513912/18/16 09:45:31  5-MIN K0J4 181445Z AUTO 21008KT 10SM BKN009 BKN019 OVC024 23/21 A3012 130 84 1200 210/08 RMK AO2 CIG 007V012 T02330206 $
63870K0J4 0J420161218095013912/18/16 09:50:31  5-MIN K0J4 181450Z AUTO 21006KT 10SM BKN010 BKN013 OVC022 23/21 A3013 130 84 1200 210/06 RMK AO2 CIG 007V011 T02330206 $
63870K0J4 0J420161218095514012/18/16 09:55:31  5-MIN K0J4 181455Z AUTO 20006KT 10SM SCT010 BKN013 OVC024 23/21 A3013 130 84 1200 200/06 RMK AO2 SLP198 T02330206 53021 $
63870K0J4 0J420161218100014912/18/16 10:00:31  5-MIN K0J4 181500Z AUTO 21005KT 10SM -RA BKN010 BKN019 OVC024 23/21 A3013 130 84 1200 210/05 RMK AO2 CIG 008V013 P0000 T02330206 $
63870K0J4 0J420161218100514912/18/16 10:05:31  5-MIN K0J4 181505Z AUTO 20005KT 10SM -RA BKN010 BKN019 OVC024 23/21 A3013 130 84 1200 200/05 RMK AO2 CIG 008V013 P0000 T02330206 $
63870K0J4 0J420161218101015112/18/16 10:10:31  5-MIN K0J4 181510Z AUTO 21007KT 10SM BKN010 BKN020 OVC080 23/21 A3013 120 84 1200 210/07 RMK AO2 RAE09 CIG 009V013 P0000 T02330206 $
63870K0J4 0J420161218101515112/18/16 10:15:31  5-MIN K0J4 181515Z AUTO 22006KT 10SM SCT011 BKN018 OVC050 23/21 A3013 120 84 1200 220/06 RMK AO2 RAE09 CIG 015V027 P0000 T02330206 $
63870K0J4 0J420161218102013712/18/16 10:20:31  5-MIN K0J4 181520Z AUTO 22005KT 10SM -RA FEW011 BKN016 OVC040 23/21 A3013 120 84 1200 220/05 RMK AO2 P0000 T02330206 $
63870K0J4 0J420161218102513712/18/16 10:25:31  5-MIN K0J4 181525Z AUTO 21006KT 10SM -RA SCT011 BKN018 OVC040 23/21 A3013 120 84 1200 210/06 RMK AO2 P0000 T02330206 $
63870K0J4 0J420161218103013912/18/16 10:30:31  5-MIN K0J4 181530Z AUTO 22008KT 10SM SCT011 BKN018 BKN031 23/21 A3013 120 84 1200 220/08 RMK AO2 RAE29 P0000 T02330206 $
63870K0J4 0J420161218103513912/18/16 10:35:31  5-MIN K0J4 181535Z AUTO 22008KT 10SM SCT013 BKN018 BKN031 24/21 A3013 120 78 1300 220/08 RMK AO2 RAE29 P0000 T02440206 $
63870K0J4 0J420161218104013212/18/16 10:40:31  5-MIN K0J4 181540Z AUTO 22006KT 10SM BKN013 BKN024 25/21 A3013 120 76 1300 220/06 RMK AO2 RAE29 P0000 T02500206 $
63870K0J4 0J420161218104513912/18/16 10:45:31  5-MIN K0J4 181545Z AUTO 22009KT 10SM SCT013 BKN018 BKN027 25/21 A3013 120 76 1400 220/09 RMK AO2 RAE29 P0000 T02500206 $
63870K0J4 0J420161218105013912/18/16 10:50:31  5-MIN K0J4 181550Z AUTO 22011KT 10SM BKN015 BKN025 BKN034 25/21 A3013 120 76 1400 220/11 RMK AO2 RAE29 P0000 T02500206 $
63870K0J4 0J420161218105513912/18/16 10:55:31  5-MIN K0J4 181555Z AUTO 22007KT 10SM BKN015 BKN034 24/20 A3013 130 76 1300 220/07 RMK AO2 RAE29 SLP198 P0000 T02440200 $
63870K0J4 0J420161218110012012/18/16 11:00:31  5-MIN K0J4 181600Z AUTO 23008KT 10SM SCT015 BKN023 24/20 A3013 120 76 1300 230/08 RMK AO2 T02440200 $
63870K0J4 0J420161218110512612/18/16 11:05:31  5-MIN K0J4 181605Z AUTO 23008G15KT 10SM SCT015 SCT025 25/20 A3013 130 73 1400 230/08G15 RMK AO2 T02500200 $
63870K0J4 0J420161218111012012/18/16 11:10:31  5-MIN K0J4 181610Z AUTO 22009KT 10SM SCT016 SCT025 25/19 A3013 130 71 1400 220/09 RMK AO2 T02500194 $
63870K0J4 0J420161218111512012/18/16 11:15:31  5-MIN K0J4 181615Z AUTO 22008KT 10SM FEW016 SCT023 25/19 A3012 130 71 1400 220/08 RMK AO2 T02500194 $
63870K0J4 0J420161218112011312/18/16 11:20:31  5-MIN K0J4 181620Z AUTO 22010KT 10SM FEW016 26/19 A3012 130 68 1400 220/10 RMK AO2 T02560194 $
63870K0J4 0J420161218112511912/18/16 11:25:31  5-MIN K0J4 181625Z AUTO 22008G15KT 10SM FEW020 26/19 A3012 130 66 1500 220/08G15 RMK AO2 T02610194 $
63870K0J4 0J420161218113014212/18/16 11:30:31  5-MIN K0J4 181630Z AUTO 23009G15KT 200V270 10SM FEW020 FEW043 26/19 A3012 140 66 1500 230/09G15 200V270 RMK AO2 T02610194 $
63870K0J4 0J420161218113511912/18/16 11:35:31  5-MIN K0J4 181635Z AUTO 24010G15KT 10SM FEW039 26/19 A3011 140 66 1500 240/10G15 RMK AO2 T02610194 $
63870K0J4 0J420161218114012612/18/16 11:40:31  5-MIN K0J4 181640Z AUTO 24009KT 220V290 10SM CLR 26/19 A3011 140 64 1500 240/09 220V290 RMK AO2 T02610189 $
63870K0J4 0J420161218114512012/18/16 11:45:31  5-MIN K0J4 181645Z AUTO 22008KT 10SM FEW034 FEW085 26/19 A3011 140 66 1500 220/08 RMK AO2 T02610194 $
63870K0J4 0J420161218115012612/18/16 11:50:31  5-MIN K0J4 181650Z AUTO 23007G15KT 10SM FEW034 SCT085 26/19 A3011 140 66 1500 230/07G15 RMK AO2 T02610194 $
63870K0J4 0J420161218115512012/18/16 11:55:31  5-MIN K0J4 181655Z AUTO 21009KT 10SM SCT090 25/19 A3010 150 71 1400 210/09 RMK AO2 SLP190 T02500194 $
63870K0J4 0J420161218120011312/18/16 12:00:31  5-MIN K0J4 181700Z AUTO 22009KT 10SM BKN085 25/19 A3010 150 71 1400 220/09 RMK AO2 T02500194 $
63870K0J4 0J420161218120511312/18/16 12:05:31  5-MIN K0J4 181705Z AUTO 22010KT 10SM BKN085 25/19 A3011 140 71 1400 220/10 RMK AO2 T02500194 $
63870K0J4 0J420161218121012012/18/16 12:10:31  5-MIN K0J4 181710Z AUTO 24006KT 10SM FEW031 BKN085 25/19 A3011 140 71 1400 240/06 RMK AO2 T02500194 $
63870K0J4 0J420161218121515612/18/16 12:15:31  5-MIN K0J4 181715Z AUTO 35011G20KT 290V020 10SM FEW017 SCT030 OVC085 22/17 A3013 120 73 1000 350/11G20 290V020 RMK AO2 PRESRR T02220172 $
63870K0J4 0J420161218122015512/18/16 12:20:31  5-MIN K0J4 181720Z AUTO 35010G20KT 10SM -RA SCT019 BKN033 OVC085 19/14 A3013 120 75 600 350/10G20 RMK AO2 RAB20 PRESRR P0000 T01890144 $
63870K0J4 0J420161218122515512/18/16 12:25:31  5-MIN K0J4 181725Z AUTO 35010G19KT 10SM -RA SCT019 BKN026 OVC085 18/14 A3014 110 75 600 350/10G19 RMK AO2 RAB20 PRESRR P0000 T01830139 $
63870K0J4 0J420161218123014812/18/16 12:30:31  5-MIN K0J4 181730Z AUTO 35009G18KT 10SM -RA FEW019 BKN030 OVC085 18/13 A3014 110 75 500 350/09G18 RMK AO2 RAB20 P0000 T01780133 $
63870K0J4 0J420161218123516312/18/16 12:35:31  5-MIN K0J4 181735Z AUTO 34007G16KT 290V030 7SM -RA SCT020 BKN031 OVC040 17/13 A3015 110 78 400 340/07G16 290V030 RMK AO2 RAB20 P0000 T01720133 $
63870K0J4 0J420161218124014312/18/16 12:40:31  5-MIN K0J4 181740Z AUTO VRB05KT 4SM RA BR FEW009 BKN020 OVC044 16/14 A3015 100 86 300 VRB/05 RMK AO2 RAB20 P0001 T01610139 $
63870K0J4 0J420161218124514412/18/16 12:45:31  5-MIN K0J4 181745Z AUTO 34008KT 4SM -RA BR FEW009 BKN033 OVC045 16/14 A3015 100 86 300 340/08 RMK AO2 RAB20 P0001 T01610139 $
63870K0J4 0J420161218125014312/18/16 12:50:31  5-MIN K0J4 181750Z AUTO VRB05KT 4SM RA BR FEW009 BKN031 OVC041 16/14 A3016 100 86 300 VRB/05 RMK AO2 RAB20 P0002 T01610139 $
63870K0J4 0J420161218125517412/18/16 12:55:31  5-MIN K0J4 181755Z AUTO 34007KT 4SM RA BR FEW009 BKN031 OVC050 16/14 A3015 100 90 300 340/07 RMK AO2 RAB20 SLP208 P0003 60003 T01610144 10267 20161 51019 $
63870K0J4 0J420161218130013812/18/16 13:00:31  5-MIN K0J4 181800Z AUTO 35006KT 6SM -RA BR FEW009 BKN041 OVC060 16/14 A3015 100 90 300 350/06 RMK AO2 P0000 T01610144 $
63870K0J4 0J420161218130513512/18/16 13:05:31  5-MIN K0J4 181805Z AUTO 35007KT 9SM -RA FEW009 BKN043 OVC060 16/14 A3015 110 90 300 350/07 RMK AO2 P0000 T01610144 $
63870K0J4 0J420161218131015212/18/16 13:10:31  5-MIN K0J4 181810Z AUTO 35007KT 310V010 10SM -RA FEW011 BKN046 OVC060 16/14 A3015 100 86 300 350/07 310V010 RMK AO2 P0000 T01610139 $
63870K0J4 0J420161218131514212/18/16 13:15:31  5-MIN K0J4 181815Z AUTO 34009G16KT 10SM -RA FEW017 BKN055 OVC080 16/14 A3015 100 86 300 340/09G16 RMK AO2 P0000 T01610139 $
63870K0J4 0J420161218132014412/18/16 13:20:31  5-MIN K0J4 181820Z AUTO 35008G16KT 10SM FEW013 BKN041 OVC080 16/13 A3015 110 86 200 350/08G16 RMK AO2 RAE20 P0000 T01560133 $
63870K0J4 0J420161218132514412/18/16 13:25:31  5-MIN K0J4 181825Z AUTO VRB06G14KT 10SM FEW015 BKN025 OVC080 16/13 A3015 100 83 300 VRB/06G14 RMK AO2 RAE20 P0000 T01610133 $
63870K0J4 0J420161218133007512/18/16 13:30:31  5-MIN K0J4 181830Z AUTO M M M M /M RMK AO2 RAE20 P0000 $
63870K0J4 0J420161218133511212/18/16 13:35:31  5-MIN K0J4 181835Z AUTO VRB06KT 16/13 A3015 100 80 300 VRB/06 RMK AO2 RAE20 P0000 T01610128 $
63870K0J4 0J420161218134012312/18/16 13:40:31  5-MIN K0J4 181840Z AUTO 35006G14KT 10SM 16/12 A3016 100 77 300 350/06G14 RMK AO2 RAE20 P0000 T01610122 $
63870K0J4 0J420161218134512312/18/16 13:45:31  5-MIN K0J4 181845Z AUTO 35007G14KT 10SM 16/12 A3016 100 77 300 350/07G14 RMK AO2 RAE20 P0000 T01610122 $
63870K0J4 0J420161218135013312/18/16 13:50:31  5-MIN K0J4 181850Z AUTO 35007KT 300V020 10SM 17/12 A3016 100 75 400 350/07 300V020 RMK AO2 RAE20 P0000 T01670122 $
63870K0J4 0J420161218135514612/18/16 13:55:31  5-MIN K0J4 181855Z AUTO 35010G16KT 310V020 10SM 17/12 A3016 100 72 400 350/10G16 310V020 RMK AO2 RAE20 SLP209 P0000 T01670117 $
63870K0J4 0J420161218140012512/18/16 14:00:31  5-MIN K0J4 181900Z AUTO 01008G18KT 10SM FEW016 OVC023 16/11 A3016 100 72 300 010/08G18 RMK AO2 T01610111 $
63870K0J4 0J420161218140512512/18/16 14:05:31  5-MIN K0J4 181905Z AUTO 01009G20KT 10SM FEW016 OVC023 16/11 A3016 100 72 300 010/09G20 RMK AO2 T01610111 $
63870K0J4 0J420161218141013212/18/16 14:10:31  5-MIN K0J4 181910Z AUTO 36009G20KT 10SM BKN023 BKN031 OVC070 16/11 A3016 100 72 300 360/09G20 RMK AO2 T01610111 $
63870K0J4 0J420161218141512612/18/16 14:15:31  5-MIN K0J4 181915Z AUTO 36008KT 10SM BKN023 BKN031 BKN070 16/11 A3015 100 72 300 360/08 RMK AO2 T01610111 $
63870K0J4 0J420161218142012612/18/16 14:20:31  5-MIN K0J4 181920Z AUTO 01009KT 10SM SCT023 SCT030 BKN070 16/11 A3015 110 72 300 010/09 RMK AO2 T01610111 $
63870K0J4 0J420161218142512612/18/16 14:25:31  5-MIN K0J4 181925Z AUTO 01010KT 10SM FEW023 SCT030 BKN070 16/11 A3015 110 72 300 010/10 RMK AO2 T01610111 $
63870K0J4 0J420161218143013212/18/16 14:30:31  5-MIN K0J4 181930Z AUTO 01009G15KT 10SM FEW023 FEW030 SCT070 17/11 A3015 110 69 400 010/09G15 RMK AO2 T01670111 $
63870K0J4 0J420161218143513212/18/16 14:35:31  5-MIN K0J4 181935Z AUTO 01014G20KT 10SM FEW022 FEW030 SCT070 17/11 A3015 110 69 400 010/14G20 RMK AO2 T01670111 $
63870K0J4 0J420161218144012512/18/16 14:40:31  5-MIN K0J4 181940Z AUTO 36009G20KT 10SM SCT022 SCT075 17/11 A3016 100 67 400 360/09G20 RMK AO2 T01670106 $
63870K0J4 0J420161218144512512/18/16 14:45:31  5-MIN K0J4 181945Z AUTO 02014G17KT 10SM BKN022 BKN075 16/10 A3016 100 67 300 020/14G17 RMK AO2 T01610100 $
63870K0J4 0J420161218145011812/18/16 14:50:31  5-MIN K0J4 181950Z AUTO 36010G17KT 10SM BKN024 16/10 A3016 100 67 300 360/10G17 RMK AO2 T01610100 $
63870K0J4 0J420161218145512512/18/16 14:55:31  5-MIN K0J4 181955Z AUTO 01010G16KT 10SM BKN024 16/09 A3016 100 67 200 010/10G16 RMK AO2 SLP210 T01560094 $
63870K0J4 0J420161218150013312/18/16 15:00:31  5-MIN K0J4 182000Z AUTO 36010G16KT 310V020 10SM OVC024 16/09 A3016 90 67 200 360/10G16 310V020 RMK AO2 T01560094 $
63870K0J4 0J420161218150511712/18/16 15:05:31  5-MIN K0J4 182005Z AUTO 01011G18KT 10SM OVC024 16/09 A3016 90 67 200 010/11G18 RMK AO2 T01560094 $
63870K0J4 0J420161218151013312/18/16 15:10:31  5-MIN K0J4 182010Z AUTO 01009G18KT 330V050 10SM OVC024 16/09 A3017 90 67 200 010/09G18 330V050 RMK AO2 T01560094 $
63870K0J4 0J420161218151511712/18/16 15:15:31  5-MIN K0J4 182015Z AUTO 01009G16KT 10SM OVC024 16/09 A3017 90 67 200 010/09G16 RMK AO2 T01560094 $
63870K0J4 0J420161218152011712/18/16 15:20:31  5-MIN K0J4 182020Z AUTO 36011G16KT 10SM OVC025 16/09 A3017 90 67 200 360/11G16 RMK AO2 T01560094 $
63870K0J4 0J420161218152511712/18/16 15:25:31  5-MIN K0J4 182025Z AUTO 01008G16KT 10SM OVC025 16/09 A3017 80 67 200 010/08G16 RMK AO2 T01560094 $
63870K0J4 0J420161218153011712/18/16 15:30:31  5-MIN K0J4 182030Z AUTO 01008G16KT 10SM OVC025 16/09 A3018 80 67 200 010/08G16 RMK AO2 T01560094 $
63870K0J4 0J420161218153511112/18/16 15:35:31  5-MIN K0J4 182035Z AUTO 36007KT 10SM OVC027 16/09 A3019 70 67 200 360/07 RMK AO2 T01560094 $
63870K0J4 0J420161218154011112/18/16 15:40:31  5-MIN K0J4 182040Z AUTO 36008KT 10SM OVC027 16/09 A3019 70 67 200 360/08 RMK AO2 T01560094 $
63870K0J4 0J420161218154511112/18/16 15:45:31  5-MIN K0J4 182045Z AUTO 36007KT 10SM OVC027 16/09 A3018 70 67 200 360/07 RMK AO2 T01560094 $
63870K0J4 0J420161218155011112/18/16 15:50:31  5-MIN K0J4 182050Z AUTO 01007KT 10SM OVC027 16/09 A3019 70 67 200 010/07 RMK AO2 T01560094 $
63870K0J4 0J420161218155512912/18/16 15:55:31  5-MIN K0J4 182055Z AUTO 36005G14KT 10SM OVC028 16/09 A3019 70 67 200 360/05G14 RMK AO2 SLPNO 60000 T01560094 $
63870K0J4 0J420161218160011112/18/16 16:00:31  5-MIN K0J4 182100Z AUTO 01006KT 10SM OVC028 16/09 A3019 70 67 200 010/06 RMK AO2 T01560094 $
63870K0J4 0J420161218160511112/18/16 16:05:31  5-MIN K0J4 182105Z AUTO 36007KT 10SM OVC028 16/09 A3019 70 67 200 360/07 RMK AO2 T01560094 $
63870K0J4 0J420161218161011112/18/16 16:10:31  5-MIN K0J4 182110Z AUTO 36007KT 10SM OVC028 16/09 A3019 70 67 200 360/07 RMK AO2 T01560094 $
63870K0J4 0J420161218161511112/18/16 16:15:31  5-MIN K0J4 182115Z AUTO 36008KT 10SM OVC028 16/09 A3019 60 67 200 360/08 RMK AO2 T01560094 $
63870K0J4 0J420161218162011112/18/16 16:20:31  5-MIN K0J4 182120Z AUTO VRB05KT 10SM OVC030 16/09 A3020 60 67 200 VRB/05 RMK AO2 T01560094 $
63870K0J4 0J420161218162512712/18/16 16:25:31  5-MIN K0J4 182125Z AUTO 36007KT 320V030 10SM OVC030 16/09 A3020 60 67 200 360/07 320V030 RMK AO2 T01560094 $
63870K0J4 0J420161218163011112/18/16 16:30:31  5-MIN K0J4 182130Z AUTO 36008KT 10SM OVC030 15/09 A3020 60 69 100 360/08 RMK AO2 T01500094 $
63870K0J4 0J420161218163511112/18/16 16:35:31  5-MIN K0J4 182135Z AUTO 36009KT 10SM OVC030 15/09 A3020 60 66 100 360/09 RMK AO2 T01500089 $
63870K0J4 0J420161218164011112/18/16 16:40:31  5-MIN K0J4 182140Z AUTO 01009KT 10SM OVC030 15/09 A3020 60 66 100 010/09 RMK AO2 T01500089 $
63870K0J4 0J420161218164511112/18/16 16:45:31  5-MIN K0J4 182145Z AUTO 36008KT 10SM OVC030 15/09 A3020 60 66 100 360/08 RMK AO2 T01500089 $
63870K0J4 0J420161218165011112/18/16 16:50:31  5-MIN K0J4 182150Z AUTO 01009KT 10SM OVC030 15/09 A3020 60 66 100 010/09 RMK AO2 T01500089 $
63870K0J4 0J420161218165511812/18/16 16:55:31  5-MIN K0J4 182155Z AUTO 01011KT 10SM OVC030 15/08 A3020 60 64 100 010/11 RMK AO2 SLP224 T01500083 $
63870K0J4 0J420161218170010912/18/16 17:00:31  5-MIN K0J4 182200Z AUTO 36008KT 10SM OVC029 14/08 A3020 60 66 0 360/08 RMK AO2 T01440083 $
63870K0J4 0J420161218170511512/18/16 17:05:31  5-MIN K0J4 182205Z AUTO 01009G16KT 10SM OVC029 14/08 A3021 50 66 0 010/09G16 RMK AO2 T01440083 $
63870K0J4 0J420161218171010912/18/16 17:10:31  5-MIN K0J4 182210Z AUTO 01009KT 10SM OVC029 14/08 A3021 50 66 0 010/09 RMK AO2 T01440083 $
63870K0J4 0J420161218171510912/18/16 17:15:31  5-MIN K0J4 182215Z AUTO 01009KT 10SM OVC029 14/08 A3021 50 66 0 010/09 RMK AO2 T01440083 $
63870K0J4 0J420161218172010912/18/16 17:20:31  5-MIN K0J4 182220Z AUTO 01009KT 10SM OVC029 14/08 A3021 50 69 0 010/09 RMK AO2 T01390083 $
63870K0J4 0J420161218172510912/18/16 17:25:31  5-MIN K0J4 182225Z AUTO 03009KT 10SM OVC029 14/08 A3021 50 69 0 030/09 RMK AO2 T01390083 $
63870K0J4 0J420161218173010912/18/16 17:30:31  5-MIN K0J4 182230Z AUTO 03011KT 10SM OVC029 14/08 A3020 60 69 0 030/11 RMK AO2 T01390083 $
63870K0J4 0J420161218173510912/18/16 17:35:31  5-MIN K0J4 182235Z AUTO 02010KT 10SM OVC029 14/08 A3020 60 69 0 020/10 RMK AO2 T01390083 $
63870K0J4 0J420161218174010912/18/16 17:40:31  5-MIN K0J4 182240Z AUTO 02008KT 10SM OVC028 14/08 A3021 50 69 0 020/08 RMK AO2 T01390083 $
63870K0J4 0J420161218174510912/18/16 17:45:31  5-MIN K0J4 182245Z AUTO 01009KT 10SM OVC028 14/08 A3021 50 69 0 010/09 RMK AO2 T01390083 $
63870K0J4 0J420161218175010912/18/16 17:50:31  5-MIN K0J4 182250Z AUTO 36008KT 10SM OVC028 14/08 A3022 40 69 0 360/08 RMK AO2 T01390083 $
63870K0J4 0J420161218175511912/18/16 17:55:31  5-MIN K0J4 182255Z AUTO 36008KT 10SM OVC028 13/08 A3022 40 71 -100 360/08 RMK AO2 SLP230 T01330083 $
63870K0J4 0J420161218180011212/18/16 18:00:31  5-MIN K0J4 182300Z AUTO 02010KT 10SM OVC029 13/08 A3022 40 69 -100 020/10 RMK AO2 T01330078 $
63870K0J4 0J420161218180512812/18/16 18:05:31  5-MIN K0J4 182305Z AUTO 01008KT 10SM -RA OVC029 13/08 A3022 40 69 -100 010/08 RMK AO2 RAB04 P0000 T01330078 $
63870K0J4 0J420161218181012812/18/16 18:10:31  5-MIN K0J4 182310Z AUTO 01007KT 10SM -RA OVC029 13/08 A3022 40 69 -100 010/07 RMK AO2 RAB04 P0000 T01330078 $
63870K0J4 0J420161218181512812/18/16 18:15:31  5-MIN K0J4 182315Z AUTO 36009KT 10SM -RA OVC029 13/08 A3022 40 71 -100 360/09 RMK AO2 RAB04 P0000 T01330083 $
63870K0J4 0J420161218182012812/18/16 18:20:31  5-MIN K0J4 182320Z AUTO 36009KT 10SM -RA OVC029 13/08 A3022 40 71 -100 360/09 RMK AO2 RAB04 P0000 T01280078 $
63870K0J4 0J420161218182512812/18/16 18:25:31  5-MIN K0J4 182325Z AUTO 01007KT 10SM -RA OVC029 13/08 A3023 30 74 -100 010/07 RMK AO2 RAB04 P0000 T01280083 $
63870K0J4 0J420161218183012812/18/16 18:30:31  5-MIN K0J4 182330Z AUTO 02006KT 10SM -RA OVC029 12/08 A3023 30 77 -200 020/06 RMK AO2 RAB04 P0000 T01220083 $
63870K0J4 0J420161218183513312/18/16 18:35:31  5-MIN K0J4 182335Z AUTO 01006KT 7SM RA OVC029 12/08 A3024 20 77 -200 010/06 RMK AO2 RAB04 PRESRR P0000 T01220083 $
63870K0J4 0J420161218184012612/18/16 18:40:31  5-MIN K0J4 182340Z AUTO 35006KT 5SM RA OVC029 12/08 A3024 20 80 -300 350/06 RMK AO2 RAB04 P0000 T01170083 $
63870K0J4 0J420161218184512712/18/16 18:45:31  5-MIN K0J4 182345Z AUTO 36006KT 5SM -RA OVC029 11/08 A3024 20 83 -300 360/06 RMK AO2 RAB04 P0001 T01110083 $
63870K0J4 0J420161218185013012/18/16 18:50:31  5-MIN K0J4 182350Z AUTO 36006KT 4SM -RA BR OVC029 11/09 A3024 20 86 -300 360/06 RMK AO2 RAB04 P0001 T01110089 $
63870K0J4 0J420161218185515512/18/16 18:55:31  5-MIN K0J4 182355Z AUTO 35006KT 4SM -RA BR OVC029 11/09 A3024 20 89 -400 350/06 RMK AO2 RAB04 SLP238 P0001 60001 T01060089 10167 20106 $
63870K0J4 0J420161218190012412/18/16 19:00:31  5-MIN K0J4 190000Z AUTO 01008KT 6SM -RA BR OVC032 11/09 A3024 20 89 -400 010/08 RMK AO2 P0000 T01060089 $
63870K0J4 0J420161218190512212/18/16 19:05:31  5-MIN K0J4 190005Z AUTO VRB06KT 10SM -RA OVC032 11/09 A3025 20 89 -400 VRB/06 RMK AO2 P0000 T01060089 $
63870K0J4 0J420161218191012212/18/16 19:10:31  5-MIN K0J4 190010Z AUTO 36007KT 10SM -RA OVC032 11/09 A3025 20 89 -400 360/07 RMK AO2 P0000 T01060089 $
63870K0J4 0J420161218191512212/18/16 19:15:31  5-MIN K0J4 190015Z AUTO 36007KT 10SM -RA OVC032 11/09 A3025 10 89 -400 360/07 RMK AO2 P0000 T01060089 $
63870K0J4 0J420161218192012212/18/16 19:20:31  5-MIN K0J4 190020Z AUTO 36008KT 10SM -RA OVC034 11/09 A3025 10 89 -400 360/08 RMK AO2 P0000 T01060089 $
63870K0J4 0J420161218192512212/18/16 19:25:31  5-MIN K0J4 190025Z AUTO 01008KT 10SM -RA OVC034 11/09 A3025 10 89 -400 010/08 RMK AO2 P0000 T01060089 $
63870K0J4 0J420161218193012812/18/16 19:30:31  5-MIN K0J4 190030Z AUTO VRB05KT 10SM -RA FEW007 OVC034 10/09 A3026 0 93 -500 VRB/05 RMK AO2 P0000 T01000089 $
63870K0J4 0J420161218193512812/18/16 19:35:31  5-MIN K0J4 190035Z AUTO 36005KT 10SM -RA SCT007 OVC034 10/08 A3026 0 89 -500 360/05 RMK AO2 P0000 T01000083 $
63870K0J4 0J420161218194012812/18/16 19:40:31  5-MIN K0J4 190040Z AUTO 01008KT 10SM -RA SCT007 OVC034 10/08 A3026 0 89 -500 010/08 RMK AO2 P0000 T01000083 $
63870K0J4 0J420161218194512812/18/16 19:45:31  5-MIN K0J4 190045Z AUTO 01007KT 10SM -RA SCT007 OVC034 10/08 A3027 0 89 -500 010/07 RMK AO2 P0000 T01000083 $
63870K0J4 0J420161218195013912/18/16 19:50:31  5-MIN K0J4 190050Z AUTO 36005KT 9SM -RA BKN007 OVC034 10/08 A3026 0 89 -500 360/05 RMK AO2 CIG 004V009 P0000 T01000083 $
63870K0J4 0J420161218195514912/18/16 19:55:31  5-MIN K0J4 190055Z AUTO 01007KT 5SM +RA BR BKN007 OVC034 10/08 A3026 0 89 -500 010/07 RMK AO2 CIG 003V009 SLP244 P0002 T01000083 $
63870K0J4 0J420161218200014112/18/16 20:00:31  5-MIN K0J4 190100Z AUTO 01007KT 4SM RA BR BKN007 OVC032 10/08 A3026 0 89 -500 010/07 RMK AO2 CIG 003V009 P0001 T01000083 $
63870K0J4 0J420161218200514212/18/16 20:05:31  5-MIN K0J4 190105Z AUTO 01007KT 5SM -RA BR BKN006 OVC032 10/08 A3026 0 89 -500 010/07 RMK AO2 CIG 003V009 P0001 T01000083 $
63870K0J4 0J420161218201012712/18/16 20:10:31  5-MIN K0J4 190110Z AUTO 36008KT 7SM -RA BKN004 OVC032 09/08 A3026 0 93 -600 360/08 RMK AO2 P0001 T00940083 $
63870K0J4 0J420161218201512912/18/16 20:15:31  5-MIN K0J4 190115Z AUTO 36006KT 6SM RA BR BKN004 OVC032 09/08 A3026 0 93 -600 360/06 RMK AO2 P0002 T00940083 $
63870K0J4 0J420161218202012912/18/16 20:20:31  5-MIN K0J4 190120Z AUTO 36006KT 4SM RA BR BKN004 OVC032 09/08 A3027 0 93 -600 360/06 RMK AO2 P0003 T00940083 $
63870K0J4 0J420161218202512412/18/16 20:25:31  5-MIN K0J4 190125Z AUTO 01007KT 4SM RA BR OVC004 09/08 A3028 -10 93 -600 010/07 RMK AO2 P0004 T00940083 $
63870K0J4 0J420161218203012512/18/16 20:30:31  5-MIN K0J4 190130Z AUTO 36006KT 5SM -RA BR OVC004 09/08 A3028 -10 93 -600 360/06 RMK AO2 P0004 T00940083 $
63870K0J4 0J420161218203512412/18/16 20:35:31  5-MIN K0J4 190135Z AUTO 36009KT 6SM RA BR OVC004 09/08 A3028 -10 89 -600 360/09 RMK AO2 P0005 T00940078 $
63870K0J4 0J420161218204013112/18/16 20:40:31  5-MIN K0J4 190140Z AUTO 36007G15KT 4SM +RA BR OVC004 09/08 A3029 -10 93 -700 360/07G15 RMK AO2 P0007 T00890078 $
63870K0J4 0J420161218204513712/18/16 20:45:31  5-MIN K0J4 190145Z AUTO 36007G15KT 4SM RA BR BKN004 OVC008 09/08 A3029 -20 93 -700 360/07G15 RMK AO2 P0008 T00890078 $
63870K0J4 0J420161218205014412/18/16 20:50:31  5-MIN K0J4 190150Z AUTO 01010G17KT 5SM RA BR BKN004 BKN021 OVC030 09/07 A3029 -10 89 -700 010/10G17 RMK AO2 P0009 T00890072 $
63870K0J4 0J420161218205513512/18/16 20:55:31  5-MIN K0J4 190155Z AUTO 01009G17KT 5SM +RA BR BKN005 BKN024 OVC030 08/07 A3029 -20 93 -700 010/09G17 RMK AO2 P0011 $
63870K0J4 0J420161218210014412/18/16 21:00:31  5-MIN K0J4 190200Z AUTO 01011G17KT 5SM RA BR BKN005 BKN021 OVC032 08/07 A3030 -30 93 -800 010/11G17 RMK AO2 P0000 T00830072 $
63870K0J4 0J420161218210515112/18/16 21:05:31  5-MIN K0J4 190205Z AUTO 36006G17KT 6SM RA BR SCT005 BKN021 OVC030 08/07 A3031 -40 93 -800 360/06G17 RMK AO2 PRESRR P0001 T00830072 $
63870K0J4 0J420161218211014612/18/16 21:10:31  5-MIN K0J4 190210Z AUTO 36006KT 5SM +RA BR SCT005 SCT023 OVC030 08/07 A3032 -50 93 -800 360/06 RMK AO2 PRESRR P0003 T00830072 $
63870K0J4 0J420161218211515512/18/16 21:15:31  5-MIN K0J4 190215Z AUTO 35006KT 2 1/2SM +RA BR BKN005 BKN018 OVC029 08/07 A3032 -40 93 -800 350/06 RMK AO2 VIS 1 1/4V5 P0011 T00830072 $
63870K0J4 0J420161218212014312/18/16 21:20:31  5-MIN K0J4 190220Z AUTO 34006KT 1 3/4SM +RA BR BKN005 BKN012 OVC029 08/07 A3033 -50 93 -900 340/06 RMK AO2 P0017 T00780067 $
63870K0J4 0J420161218212514612/18/16 21:25:31  5-MIN K0J4 190225Z AUTO VRB06KT 2SM +RA BR BKN005 BKN009 OVC027 08/07 A3034 -60 93 -900 VRB/06 RMK AO2 PRESRR P0019 T00780067 $
63870K0J4 0J420161218213013912/18/16 21:30:31  5-MIN K0J4 190230Z AUTO 35005KT 3SM +RA BR BKN005 BKN009 OVC027 08/07 A3034 -60 93 -900 350/05 RMK AO2 P0021 T00780067 $
63870K0J4 0J420161218213513212/18/16 21:35:31  5-MIN K0J4 190235Z AUTO 35007KT 3SM +RA BR BKN005 OVC014 08/06 A3034 -60 89 -900 350/07 RMK AO2 P0024 T00780061 $
63870K0J4 0J420161218214013912/18/16 21:40:31  5-MIN K0J4 190240Z AUTO 35005KT 3SM +RA BR SCT005 BKN014 OVC028 07/06 A3034 -60 93 -900 350/05 RMK AO2 P0026 T00720061 $
63870K0J4 0J420161218214513912/18/16 21:45:31  5-MIN K0J4 190245Z AUTO 36007KT 3SM +RA BR SCT005 BKN012 OVC017 07/06 A3034 -60 93 -900 360/07 RMK AO2 P0028 T00720061 $
63870K0J4 0J420161218215015512/18/16 21:50:31  5-MIN K0J4 190250Z AUTO 36009KT 330V030 4SM +RA BR BKN005 BKN012 OVC026 07/06 A3034 -60 93 -900 360/09 330V030 RMK AO2 P0030 T00720061 $
63870K0J4 0J420161218215515912/18/16 21:55:31  5-MIN K0J4 190255Z AUTO 36009KT 3SM +RA BR SCT004 BKN014 OVC029 07/06 A3033 -60 93 -1000 360/09 RMK AO2 SLP270 P0032 60045 T00670056 53017 $
63870K0J4 0J420161218220014012/18/16 22:00:31  5-MIN K0J4 190300Z AUTO 01008KT 3SM +RA BR FEW004 BKN027 OVC043 07/06 A3034 -60 93 -1000 010/08 RMK AO2 P0002 T00670056 $
63870K0J4 0J420161218220514412/18/16 22:05:31  5-MIN K0J4 190305Z AUTO 01009KT 2 1/2SM +RA BR FEW004 BKN027 OVC043 07/06 A3033 -50 93 -1000 010/09 RMK AO2 P0005 T00670056 $
63870K0J4 0J420161218221014512/18/16 22:10:31  5-MIN K0J4 190310Z AUTO 36009G16KT 3SM RA BR FEW004 SCT027 OVC043 07/06 A3033 -60 93 -1000 360/09G16 RMK AO2 P0007 T00670056 $
63870K0J4 0J420161218221514512/18/16 22:15:31  5-MIN K0J4 190315Z AUTO 01010G16KT 4SM RA BR FEW004 BKN037 OVC045 07/05 A3033 -60 89 -1000 010/10G16 RMK AO2 P0008 T00670050 $
63870K0J4 0J420161218222013212/18/16 22:20:31  5-MIN K0J4 190320Z AUTO 36008KT 5SM RA BR BKN038 OVC045 07/05 A3034 -70 89 -1000 360/08 RMK AO2 P0010 T00670050 $
63870K0J4 0J420161218222512512/18/16 22:25:31  5-MIN K0J4 190325Z AUTO 01008KT 5SM RA BR OVC040 07/06 A3034 -60 93 -1000 010/08 RMK AO2 P0011 T00670056 $
63870K0J4 0J420161218223012612/18/16 22:30:31  5-MIN K0J4 190330Z AUTO 02008KT 5SM +RA BR OVC038 07/06 A3033 -50 93 -1000 020/08 RMK AO2 P0012 T00670056 $
63870K0J4 0J420161218223512612/18/16 22:35:31  5-MIN K0J4 190335Z AUTO 02008KT 5SM +RA BR OVC038 07/05 A3033 -50 89 -1000 020/08 RMK AO2 P0014 T00670050 $
63870K0J4 0J420161218224012612/18/16 22:40:31  5-MIN K0J4 190340Z AUTO 02009KT 4SM +RA BR OVC038 07/06 A3032 -50 93 -1000 020/09 RMK AO2 P0016 T00670056 $
63870K0J4 0J420161218224512512/18/16 22:45:31  5-MIN K0J4 190345Z AUTO 04009KT 4SM RA BR OVC038 07/05 A3031 -40 89 -1000 040/09 RMK AO2 P0017 T00670050 $
63870K0J4 0J420161218225012512/18/16 22:50:31  5-MIN K0J4 190350Z AUTO 36007KT 5SM RA BR OVC038 07/06 A3033 -60 93 -1000 360/07 RMK AO2 P0018 T00670056 $
63870K0J4 0J420161218225513212/18/16 22:55:31  5-MIN K0J4 190355Z AUTO 36007KT 5SM RA BR OVC036 07/06 A3034 -60 93 -1000 360/07 RMK AO2 SLP271 P0020 T00670056 $
63870K0J4 0J420161218230014712/18/16 23:00:31  5-MIN K0J4 190400Z AUTO VRB03KT 3SM +RA BR FEW020 FEW029 OVC036 06/06 A3035 -80 96 -1100 VRB/03 RMK AO2 PRESRR P0001 T00610056 $
63870K0J4 0J420161218230514012/18/16 23:05:31  5-MIN K0J4 190405Z AUTO VRB04KT 2SM +RA BR FEW004 SCT020 OVC036 06/06 A3036 -80 96 -1100 VRB/04 RMK AO2 P0005 T00610056 $
63870K0J4 0J420161218231014412/18/16 23:10:31  5-MIN K0J4 190410Z AUTO 01009KT 2 1/2SM +RA BR FEW004 BKN025 OVC038 06/06 A3034 -70 96 -1100 010/09 RMK AO2 P0007 T00610056 $
63870K0J4 0J420161218231514412/18/16 23:15:31  5-MIN K0J4 190415Z AUTO VRB05KT 2 1/2SM +RA BR FEW004 BKN027 OVC035 06/05 A3035 -80 93 -1100 VRB/05 RMK AO2 P0013 T00610050 $
63870K0J4 0J420161218232014012/18/16 23:20:31  5-MIN K0J4 190420Z AUTO 33003KT 2SM +RA BR FEW004 BKN025 OVC035 06/06 A3037 -90 96 -1100 330/03 RMK AO2 P0016 T00610056 $
63870K0J4 0J420161218232513312/18/16 23:25:31  5-MIN K0J4 190425Z AUTO 01010KT 2SM +RA BR FEW004 OVC020 06/05 A3035 -70 93 -1100 010/10 RMK AO2 P0024 T00610050 $
63870K0J4 0J420161218233014612/18/16 23:30:31  5-MIN K0J4 190430Z AUTO 36010G16KT 2SM +RA BR FEW005 FEW010 OVC021 06/05 A3035 -70 93 -1100 360/10G16 RMK AO2 P0029 T00610050 $
63870K0J4 0J420161218233514312/18/16 23:35:31  5-MIN K0J4 190435Z AUTO 01009G16KT 2 1/2SM +RA BR SCT012 OVC025 06/05 A3035 -70 93 -1100 010/09G16 RMK AO2 P0031 T00610050 $
63870K0J4 0J420161218234014612/18/16 23:40:31  5-MIN K0J4 190440Z AUTO 01011G19KT 4SM +RA BR SCT012 BKN025 OVC070 06/04 A3034 -70 92 -1100 010/11G19 RMK AO2 P0033 T00560044 $
63870K0J4 0J420161218234515312/18/16 23:45:31  5-MIN K0J4 190445Z AUTO 34005G19KT 4SM +RA BR FEW006 BKN012 OVC065 06/04 A3037 -90 92 -1200 340/05G19 RMK AO2 PRESRR P0035 T00560044 $
63870K0J4 0J420161218235014112/18/16 23:50:31  5-MIN K0J4 190450Z AUTO VRB05KT 4SM +RA BR FEW006 BKN012 OVC021 06/05 A3037 -100 96 -1200 VRB/05 RMK AO2 P0038 T00560050 $
63870K0J4 0J420161218235514012/18/16 23:55:31  5-MIN K0J4 190455Z AUTO 01012G19KT 1 3/4SM +RA BR FEW006 BKN012 OVC021 06/05 A3035 -70 96 -1100 010/12G19 RMK AO2 P0052 $
63870K0J4 0J420161219000016612/19/16 00:00:31  5-MIN K0J4 190500Z AUTO 36009G19KT 330V030 1 1/2SM +RA BR FEW006 SCT012 OVC029 06/04 A3034 -60 92 -1100 360/09G19 330V030 RMK AO2 P0002 T00560044 $
63870K0J4 0J420161219000515012/19/16 00:05:31  5-MIN K0J4 190505Z AUTO 36010G17KT 2 1/2SM +RA BR FEW011 BKN033 OVC070 06/04 A3033 -60 92 -1100 360/10G17 RMK AO2 P0004 T00560044 $
63870K0J4 0J420161219001014512/19/16 00:10:31  5-MIN K0J4 190510Z AUTO VRB06G17KT 4SM RA BR SCT011 BKN035 OVC075 06/04 A3035 -70 92 -1100 VRB/06G17 RMK AO2 P0005 T00560044 $
63870K0J4 0J420161219001513912/19/16 00:15:31  5-MIN K0J4 190515Z AUTO 01009KT 5SM RA BR SCT010 BKN035 OVC075 06/04 A3033 -60 92 -1100 010/09 RMK AO2 P0007 T00560044 $
63870K0J4 0J420161219002014512/19/16 00:20:31  5-MIN K0J4 190520Z AUTO 02010G17KT 6SM RA BR SCT008 BKN035 OVC090 06/04 A3032 -50 92 -1100 020/10G17 RMK AO2 P0008 T00560044 $
63870K0J4 0J420161219002514512/19/16 00:25:31  5-MIN K0J4 190525Z AUTO 03006G17KT 6SM RA BR SCT006 BKN041 OVC090 06/04 A3034 -60 92 -1100 030/06G17 RMK AO2 P0009 T00560044 $
63870K0J4 0J420161219003013912/19/16 00:30:31  5-MIN K0J4 190530Z AUTO 03011KT 6SM RA BR BKN006 BKN044 OVC075 06/04 A3033 -60 92 -1100 030/11 RMK AO2 P0011 T00560044 $
63870K0J4 0J420161219003513912/19/16 00:35:31  5-MIN K0J4 190535Z AUTO 02009KT 6SM RA BR BKN006 BKN040 OVC070 06/04 A3033 -60 92 -1100 020/09 RMK AO2 P0012 T00560044 $
63870K0J4 0J420161219102513912/19/16 10:25:31  5-MIN K0J4 191525Z AUTO 01010KT 3SM BR OVC004 02/01 A3049 -210 92 -1700 010/10 RMK AO2 RAE04 CIG 003V008 P0000 T00220011
63870K0J4 0J420161219103012712/19/16 10:30:31  5-MIN K0J4 191530Z AUTO 36010KT 3SM BR OVC004 02/01 A3050 -210 92 -1700 360/10 RMK AO2 RAE04 P0000 T00220011
63870K0J4 0J420161219103513312/19/16 10:35:31  5-MIN K0J4 191535Z AUTO 02011G17KT 3SM BR OVC004 02/01 A3049 -200 89 -1700 020/11G17 RMK AO2 RAE04 P0000 T00220006
63870K0J4 0J420161219104012712/19/16 10:40:31  5-MIN K0J4 191540Z AUTO 03011KT 3SM BR OVC005 02/01 A3049 -200 92 -1700 030/11 RMK AO2 RAE04 P0000 T00220011
63870K0J4 0J420161219104512712/19/16 10:45:31  5-MIN K0J4 191545Z AUTO 02011KT 4SM BR OVC005 03/01 A3049 -200 89 -1600 020/11 RMK AO2 RAE04 P0000 T00280011
63870K0J4 0J420161219105012712/19/16 10:50:31  5-MIN K0J4 191550Z AUTO 01009KT 4SM BR OVC005 03/01 A3049 -200 89 -1700 010/09 RMK AO2 RAE04 P0000 T00280011
63870K0J4 0J420161219105513412/19/16 10:55:31  5-MIN K0J4 191555Z AUTO 02009KT 5SM BR OVC005 03/01 A3048 -190 89 -1600 020/09 RMK AO2 RAE04 SLP322 P0000 T00280011
63870K0J4 0J420161219110011512/19/16 11:00:31  5-MIN K0J4 191600Z AUTO 02010KT 6SM BR OVC005 03/02 A3048 -200 92 -1600 020/10 RMK AO2 T00280017
63870K0J4 0J420161219110511212/19/16 11:05:31  5-MIN K0J4 191605Z AUTO 01010KT 7SM OVC005 03/01 A3048 -190 89 -1600 010/10 RMK AO2 T00280011
63870K0J4 0J420161219111011212/19/16 11:10:31  5-MIN K0J4 191610Z AUTO 02012KT 8SM OVC005 03/01 A3048 -200 89 -1600 020/12 RMK AO2 T00280011
63870K0J4 0J420161219111512812/19/16 11:15:31  5-MIN K0J4 191615Z AUTO 36007KT 330V050 8SM OVC005 03/01 A3049 -200 89 -1700 360/07 330V050 RMK AO2 T00280011
63870K0J4 0J420161219112011812/19/16 11:20:31  5-MIN K0J4 191620Z AUTO 02007G15KT 9SM OVC005 03/02 A3049 -200 92 -1700 020/07G15 RMK AO2 T00280017
63870K0J4 0J420161219112511912/19/16 11:25:31  5-MIN K0J4 191625Z AUTO 02008G16KT 10SM OVC007 03/02 A3049 -200 89 -1600 020/08G16 RMK AO2 T00330017
63870K0J4 0J420161219113011912/19/16 11:30:31  5-MIN K0J4 191630Z AUTO 03011G16KT 10SM OVC007 03/01 A3048 -190 85 -1600 030/11G16 RMK AO2 T00330011
63870K0J4 0J420161219113512512/19/16 11:35:31  5-MIN K0J4 191635Z AUTO VRB06KT 10SM OVC007 03/01 A3048 -190 85 -1600 VRB/06 RMK AO2 CIG 005V010 T00330011
63870K0J4 0J420161219114005012/19/16 11:40:31  5-MIN K0J4 191640Z AUTO RVRNO $
63870K0J4 0J420161219114508512/19/16 11:45:31  5-MIN K0J4 191645Z AUTO 03010G14KT A3048 M M M 030/10G14 RMK AO2 $
63870K0J4 0J420161219115010812/19/16 11:50:31  5-MIN K0J4 191650Z AUTO 03010KT 10SM 03/02 A3048 -190 89 -1600 030/10 RMK AO2 T00330017 $
63870K0J4 0J420161219115511512/19/16 11:55:31  5-MIN K0J4 191655Z AUTO 02007KT 10SM 04/02 A3047 -190 85 -1500 020/07 RMK AO2 SLP319 T00390017 $
63870K0J4 0J420161219120010812/19/16 12:00:31  5-MIN K0J4 191700Z AUTO 02009KT 10SM 03/02 A3047 -180 89 -1600 020/09 RMK AO2 T00330017 $
63870K0J4 0J420161219120510812/19/16 12:05:31  5-MIN K0J4 191705Z AUTO 02009KT 10SM 03/02 A3047 -180 89 -1600 020/09 RMK AO2 T00330017 $
63870K0J4 0J420161219121011512/19/16 12:10:31  5-MIN K0J4 191710Z AUTO 02009KT 10SM OVC008 04/02 A3047 -180 85 -1500 020/09 RMK AO2 T00390017 $
63870K0J4 0J420161219121511512/19/16 12:15:31  5-MIN K0J4 191715Z AUTO 01008KT 10SM OVC008 04/02 A3047 -180 85 -1500 010/08 RMK AO2 T00390017 $
63870K0J4 0J420161219122011512/19/16 12:20:31  5-MIN K0J4 191720Z AUTO 02009KT 10SM OVC008 04/02 A3047 -180 85 -1500 020/09 RMK AO2 T00390017 $
63870K0J4 0J420161219122511512/19/16 12:25:31  5-MIN K0J4 191725Z AUTO 01009KT 10SM OVC008 04/02 A3047 -180 85 -1500 010/09 RMK AO2 T00390017 $
63870K0J4 0J420161219123011512/19/16 12:30:31  5-MIN K0J4 191730Z AUTO 01007KT 10SM OVC008 04/02 A3046 -180 85 -1500 010/07 RMK AO2 T00390017 $
63870K0J4 0J420161219123511512/19/16 12:35:31  5-MIN K0J4 191735Z AUTO 03008KT 10SM OVC008 04/02 A3046 -180 85 -1400 030/08 RMK AO2 T00440022 $
63870K0J4 0J420161219124011512/19/16 12:40:31  5-MIN K0J4 191740Z AUTO 02010KT 10SM OVC008 04/02 A3046 -180 85 -1400 020/10 RMK AO2 T00440022 $
63870K0J4 0J420161219124512712/19/16 12:45:31  5-MIN K0J4 191745Z AUTO 02008KT 10SM OVC008 04/02 A3046 -180 82 -1400 020/08 RMK AO2 CIG 007V011 T00440017 $
63870K0J4 0J420161219125012712/19/16 12:50:31  5-MIN K0J4 191750Z AUTO 01009KT 10SM OVC009 04/02 A3046 -180 85 -1400 010/09 RMK AO2 CIG 007V011 T00440022 $
63870K0J4 0J420161219125515212/19/16 12:55:31  5-MIN K0J4 191755Z AUTO VRB06KT 10SM OVC009 04/02 A3046 -180 82 -1400 VRB/06 RMK AO2 CIG 007V011 SLP316 60000 T00440017 10044 20017 $
63870K0J4 0J420161219130011512/19/16 13:00:31  5-MIN K0J4 191800Z AUTO 36005KT 10SM OVC009 04/02 A3046 -170 85 -1400 360/05 RMK AO2 T00440022 $
63870K0J4 0J420161219130511512/19/16 13:05:31  5-MIN K0J4 191805Z AUTO 36006KT 10SM OVC009 04/02 A3046 -170 82 -1400 360/06 RMK AO2 T00440017 $
63870K0J4 0J420161219131011512/19/16 13:10:31  5-MIN K0J4 191810Z AUTO 01007KT 10SM OVC009 04/02 A3045 -170 85 -1400 010/07 RMK AO2 T00440022 $
63870K0J4 0J420161219131511512/19/16 13:15:31  5-MIN K0J4 191815Z AUTO 01007KT 10SM OVC009 05/02 A3045 -170 82 -1300 010/07 RMK AO2 T00500022 $
63870K0J4 0J420161219132011512/19/16 13:20:31  5-MIN K0J4 191820Z AUTO 36006KT 10SM OVC009 05/02 A3045 -170 82 -1300 360/06 RMK AO2 T00500022 $
63870K0J4 0J420161219132511512/19/16 13:25:31  5-MIN K0J4 191825Z AUTO 36007KT 10SM OVC010 05/02 A3045 -170 79 -1300 360/07 RMK AO2 T00500017 $
63870K0J4 0J420161219133011512/19/16 13:30:31  5-MIN K0J4 191830Z AUTO 01008KT 10SM OVC010 05/02 A3045 -170 82 -1300 010/08 RMK AO2 T00500022 $
63870K0J4 0J420161219133511512/19/16 13:35:31  5-MIN K0J4 191835Z AUTO 36007KT 10SM OVC010 05/02 A3046 -170 82 -1300 360/07 RMK AO2 T00500022 $
63870K0J4 0J420161219134011512/19/16 13:40:31  5-MIN K0J4 191840Z AUTO 01008KT 10SM OVC010 05/02 A3046 -170 82 -1300 010/08 RMK AO2 T00500022 $
63870K0J4 0J420161219134511512/19/16 13:45:31  5-MIN K0J4 191845Z AUTO VRB06KT 10SM OVC011 05/02 A3046 -170 82 -1300 VRB/06 RMK AO2 T00500022 $
63870K0J4 0J420161219135011512/19/16 13:50:31  5-MIN K0J4 191850Z AUTO 36008KT 10SM OVC011 05/02 A3045 -170 82 -1300 360/08 RMK AO2 T00500022 $
63870K0J4 0J420161219135512212/19/16 13:55:31  5-MIN K0J4 191855Z AUTO 01007KT 10SM OVC011 05/02 A3045 -170 79 -1300 010/07 RMK AO2 SLP313 T00500017 $
63870K0J4 0J420161219140011512/19/16 14:00:31  5-MIN K0J4 191900Z AUTO VRB05KT 10SM OVC011 05/02 A3045 -170 82 -1300 VRB/05 RMK AO2 T00500022 $
63870K0J4 0J420161219140511512/19/16 14:05:31  5-MIN K0J4 191905Z AUTO 01007KT 10SM OVC011 05/02 A3045 -170 82 -1300 010/07 RMK AO2 T00500022 $
63870K0J4 0J420161219141011512/19/16 14:10:31  5-MIN K0J4 191910Z AUTO 01006KT 10SM OVC011 05/02 A3045 -170 79 -1300 010/06 RMK AO2 T00500017 $
63870K0J4 0J420161219141511512/19/16 14:15:31  5-MIN K0J4 191915Z AUTO 02009KT 10SM OVC012 05/02 A3045 -160 82 -1300 020/09 RMK AO2 T00500022 $
63870K0J4 0J420161219142011512/19/16 14:20:31  5-MIN K0J4 191920Z AUTO 02007KT 10SM OVC012 05/02 A3045 -160 82 -1300 020/07 RMK AO2 T00500022 $
63870K0J4 0J420161219142511512/19/16 14:25:31  5-MIN K0J4 191925Z AUTO 02010KT 10SM OVC012 05/02 A3045 -160 82 -1300 020/10 RMK AO2 T00500022 $
63870K0J4 0J420161219143011512/19/16 14:30:31  5-MIN K0J4 191930Z AUTO 01010KT 10SM OVC012 05/02 A3045 -160 79 -1300 010/10 RMK AO2 T00500017 $
63870K0J4 0J420161219143511512/19/16 14:35:31  5-MIN K0J4 191935Z AUTO 01008KT 10SM OVC012 05/02 A3045 -160 79 -1300 010/08 RMK AO2 T00500017 $
63870K0J4 0J420161219144011512/19/16 14:40:31  5-MIN K0J4 191940Z AUTO 01007KT 10SM OVC012 05/02 A3044 -160 82 -1300 010/07 RMK AO2 T00500022 $
63870K0J4 0J420161219144511512/19/16 14:45:31  5-MIN K0J4 191945Z AUTO 01007KT 10SM OVC012 05/02 A3044 -160 82 -1300 010/07 RMK AO2 T00500022 $
63870K0J4 0J420161219145011512/19/16 14:50:31  5-MIN K0J4 191950Z AUTO 01008KT 10SM OVC012 05/02 A3044 -150 82 -1300 010/08 RMK AO2 T00500022 $
63870K0J4 0J420161219145512212/19/16 14:55:31  5-MIN K0J4 191955Z AUTO 02010KT 10SM OVC012 05/02 A3043 -150 82 -1300 020/10 RMK AO2 SLP305 T00500022 $
63870K0J4 0J420161219150013112/19/16 15:00:31  5-MIN K0J4 192000Z AUTO 01008KT 330V040 10SM OVC012 06/03 A3043 -150 82 -1200 010/08 330V040 RMK AO2 T00560028 $
63870K0J4 0J420161219150511512/19/16 15:05:31  5-MIN K0J4 192005Z AUTO 03009KT 10SM OVC012 05/02 A3044 -160 82 -1300 030/09 RMK AO2 T00500022 $
63870K0J4 0J420161219151011512/19/16 15:10:31  5-MIN K0J4 192010Z AUTO 36005KT 10SM OVC010 05/02 A3045 -160 82 -1300 360/05 RMK AO2 T00500022 $
63870K0J4 0J420161219151511512/19/16 15:15:31  5-MIN K0J4 192015Z AUTO 01005KT 10SM OVC010 05/03 A3045 -160 85 -1300 010/05 RMK AO2 T00500028 $
63870K0J4 0J420161219152011412/19/16 15:20:31  5-MIN K0J4 192020Z AUTO 01007KT 8SM OVC008 05/03 A3045 -160 85 -1300 010/07 RMK AO2 T00500028 $
63870K0J4 0J420161219152511412/19/16 15:25:31  5-MIN K0J4 192025Z AUTO 01008KT 7SM OVC008 04/02 A3045 -160 85 -1400 010/08 RMK AO2 T00440022 $
63870K0J4 0J420161219153012912/19/16 15:30:31  5-MIN K0J4 192030Z AUTO 36007KT 6SM BR OVC008 04/03 A3045 -160 89 -1400 360/07 RMK AO2 CIG 005V011 T00440028 $
63870K0J4 0J420161219153512912/19/16 15:35:31  5-MIN K0J4 192035Z AUTO 02006KT 6SM BR OVC006 04/03 A3045 -160 89 -1400 020/06 RMK AO2 CIG 005V009 T00440028 $
63870K0J4 0J420161219154011712/19/16 15:40:31  5-MIN K0J4 192040Z AUTO 36006KT 6SM BR OVC006 04/03 A3045 -170 89 -1400 360/06 RMK AO2 T00440028 $
63870K0J4 0J420161219154511412/19/16 15:45:31  5-MIN K0J4 192045Z AUTO 01009KT 7SM OVC006 04/03 A3045 -170 89 -1400 010/09 RMK AO2 T00440028 $
63870K0J4 0J420161219155011412/19/16 15:50:31  5-MIN K0J4 192050Z AUTO 01008KT 7SM OVC006 04/02 A3045 -170 85 -1400 010/08 RMK AO2 T00440022 $
63870K0J4 0J420161219155512112/19/16 15:55:31  5-MIN K0J4 192055Z AUTO 02008KT 8SM OVC006 04/03 A3045 -170 89 -1400 020/08 RMK AO2 SLP312 T00440028 $
63870K0J4 0J420161219160011412/19/16 16:00:31  5-MIN K0J4 192100Z AUTO 01008KT 8SM OVC006 04/03 A3045 -170 89 -1400 010/08 RMK AO2 T00440028 $
63870K0J4 0J420161219160511412/19/16 16:05:31  5-MIN K0J4 192105Z AUTO VRB04KT 8SM OVC006 04/03 A3045 -170 89 -1400 VRB/04 RMK AO2 T00440028 $
63870K0J4 0J420161219161011712/19/16 16:10:31  5-MIN K0J4 192110Z AUTO 01008KT 6SM BR OVC006 04/03 A3045 -170 89 -1400 010/08 RMK AO2 T00440028 $
63870K0J4 0J420161219161511712/19/16 16:15:31  5-MIN K0J4 192115Z AUTO 01007KT 5SM BR OVC005 04/03 A3045 -170 89 -1400 010/07 RMK AO2 T00440028 $
63870K0J4 0J420161219162011412/19/16 16:20:31  5-MIN K0J4 192120Z AUTO 36006KT 7SM OVC005 04/03 A3045 -170 89 -1400 360/06 RMK AO2 T00440028 $
63870K0J4 0J420161219162511412/19/16 16:25:31  5-MIN K0J4 192125Z AUTO 36005KT 9SM OVC005 04/03 A3045 -170 89 -1400 360/05 RMK AO2 T00440028 $
63870K0J4 0J420161219163011512/19/16 16:30:31  5-MIN K0J4 192130Z AUTO 01006KT 10SM OVC005 04/03 A3045 -170 89 -1400 010/06 RMK AO2 T00440028 $
63870K0J4 0J420161219163511512/19/16 16:35:31  5-MIN K0J4 192135Z AUTO 01007KT 10SM OVC005 04/03 A3045 -170 89 -1400 010/07 RMK AO2 T00440028 $
63870K0J4 0J420161219164012712/19/16 16:40:31  5-MIN K0J4 192140Z AUTO 01008KT 10SM OVC005 04/03 A3045 -160 89 -1400 010/08 RMK AO2 CIG 005V008 T00440028 $
63870K0J4 0J420161219164512212/19/16 16:45:31  5-MIN K0J4 192145Z AUTO 01007KT 10SM BKN006 OVC011 04/03 A3045 -160 89 -1400 010/07 RMK AO2 T00440028 $
63870K0J4 0J420161219165013412/19/16 16:50:31  5-MIN K0J4 192150Z AUTO VRB06KT 10SM BKN006 OVC011 05/03 A3045 -160 85 -1300 VRB/06 RMK AO2 CIG 005V010 T00500028 $
63870K0J4 0J420161219165513412/19/16 16:55:31  5-MIN K0J4 192155Z AUTO 36007KT 10SM OVC008 04/03 A3045 -170 89 -1400 360/07 RMK AO2 CIG 005V011 SLP312 T00440028 $
63870K0J4 0J420161219170013412/19/16 17:00:31  5-MIN K0J4 192200Z AUTO 01007KT 10SM BKN008 OVC012 05/03 A3045 -170 85 -1300 010/07 RMK AO2 CIG 006V011 T00500028 $
63870K0J4 0J420161219170512712/19/16 17:05:31  5-MIN K0J4 192205Z AUTO 01007KT 10SM OVC010 05/03 A3045 -170 85 -1300 010/07 RMK AO2 CIG 007V012 T00500028 $
63870K0J4 0J420161219171011512/19/16 17:10:31  5-MIN K0J4 192210Z AUTO 02007KT 10SM OVC010 05/03 A3045 -170 85 -1300 020/07 RMK AO2 T00500028 $
63870K0J4 0J420161219171511512/19/16 17:15:31  5-MIN K0J4 192215Z AUTO 03007KT 10SM OVC010 05/03 A3045 -160 85 -1300 030/07 RMK AO2 T00500028 $
63870K0J4 0J420161219172011512/19/16 17:20:31  5-MIN K0J4 192220Z AUTO 02006KT 10SM OVC012 05/03 A3044 -160 85 -1300 020/06 RMK AO2 T00500028 $
63870K0J4 0J420161219172511512/19/16 17:25:31  5-MIN K0J4 192225Z AUTO 02006KT 10SM OVC012 05/03 A3045 -160 85 -1300 020/06 RMK AO2 T00500028 $
63870K0J4 0J420161219173011512/19/16 17:30:31  5-MIN K0J4 192230Z AUTO 03008KT 10SM OVC012 06/03 A3045 -160 82 -1300 030/08 RMK AO2 T00560028 $
63870K0J4 0J420161219173511512/19/16 17:35:31  5-MIN K0J4 192235Z AUTO 02007KT 10SM OVC012 06/03 A3045 -170 82 -1300 020/07 RMK AO2 T00560028 $
63870K0J4 0J420161219174011512/19/16 17:40:31  5-MIN K0J4 192240Z AUTO 01005KT 10SM OVC013 06/03 A3045 -170 82 -1300 010/05 RMK AO2 T00560028 $
63870K0J4 0J420161219174511512/19/16 17:45:31  5-MIN K0J4 192245Z AUTO 01005KT 10SM OVC013 06/03 A3046 -170 82 -1300 010/05 RMK AO2 T00560028 $
63870K0J4 0J420161219175011512/19/16 17:50:31  5-MIN K0J4 192250Z AUTO 01006KT 10SM OVC013 06/03 A3046 -170 82 -1300 010/06 RMK AO2 T00560028 $
63870K0J4 0J420161219175512212/19/16 17:55:31  5-MIN K0J4 192255Z AUTO 01004KT 10SM OVC013 06/03 A3046 -170 82 -1300 010/04 RMK AO2 SLP315 T00560028 $
63870K0J4 0J420161219180011512/19/16 18:00:31  5-MIN K0J4 192300Z AUTO 01005KT 10SM OVC013 06/03 A3046 -170 82 -1300 010/05 RMK AO2 T00560028 $
63870K0J4 0J420161219180511512/19/16 18:05:31  5-MIN K0J4 192305Z AUTO 01004KT 10SM OVC013 06/03 A3045 -170 82 -1300 010/04 RMK AO2 T00560028 $
63870K0J4 0J420161219181011512/19/16 18:10:31  5-MIN K0J4 192310Z AUTO 01005KT 10SM OVC013 06/03 A3045 -160 82 -1300 010/05 RMK AO2 T00560028 $
63870K0J4 0J420161219181511512/19/16 18:15:31  5-MIN K0J4 192315Z AUTO 01006KT 10SM OVC013 06/03 A3045 -170 82 -1300 010/06 RMK AO2 T00560028 $
63870K0J4 0J420161219182011512/19/16 18:20:31  5-MIN K0J4 192320Z AUTO 01005KT 10SM OVC013 06/03 A3045 -170 82 -1300 010/05 RMK AO2 T00560028 $
63870K0J4 0J420161219182511512/19/16 18:25:31  5-MIN K0J4 192325Z AUTO 01004KT 10SM OVC013 06/03 A3046 -170 82 -1300 010/04 RMK AO2 T00560028 $
63870K0J4 0J420161219183011512/19/16 18:30:31  5-MIN K0J4 192330Z AUTO 36004KT 10SM OVC013 06/03 A3046 -170 82 -1300 360/04 RMK AO2 T00560028 $
63870K0J4 0J420161219183511512/19/16 18:35:31  5-MIN K0J4 192335Z AUTO 01004KT 10SM OVC014 06/03 A3046 -170 85 -1300 010/04 RMK AO2 T00560033 $
63870K0J4 0J420161219184011512/19/16 18:40:31  5-MIN K0J4 192340Z AUTO 36003KT 10SM OVC014 06/03 A3046 -170 85 -1300 360/03 RMK AO2 T00560033 $
63870K0J4 0J420161219184511512/19/16 18:45:31  5-MIN K0J4 192345Z AUTO 00000KT 10SM OVC014 06/03 A3046 -180 85 -1300 000/00 RMK AO2 T00560033 $
63870K0J4 0J420161219185011512/19/16 18:50:31  5-MIN K0J4 192350Z AUTO 36004KT 10SM OVC014 06/03 A3047 -180 85 -1300 360/04 RMK AO2 T00560033 $
63870K0J4 0J420161219185514012/19/16 18:55:31  5-MIN K0J4 192355Z AUTO 36004KT 10SM OVC014 06/03 A3047 -180 82 -1300 360/04 RMK AO2 SLP317 T00560028 10056 20044 55004 $
63870K0J4 0J420161219190011512/19/16 19:00:31  5-MIN K0J4 200000Z AUTO 01005KT 10SM OVC014 06/03 A3046 -180 82 -1300 010/05 RMK AO2 T00560028 $
63870K0J4 0J420161219190511512/19/16 19:05:31  5-MIN K0J4 200005Z AUTO 01007KT 10SM OVC014 06/03 A3046 -170 82 -1300 010/07 RMK AO2 T00560028 $
63870K0J4 0J420161219191011512/19/16 19:10:31  5-MIN K0J4 200010Z AUTO 01006KT 10SM OVC014 06/03 A3046 -170 82 -1300 010/06 RMK AO2 T00560028 $
63870K0J4 0J420161219191511512/19/16 19:15:31  5-MIN K0J4 200015Z AUTO 02006KT 10SM OVC014 06/03 A3046 -180 85 -1300 020/06 RMK AO2 T00560033 $
63870K0J4 0J420161219192011512/19/16 19:20:31  5-MIN K0J4 200020Z AUTO 01005KT 10SM OVC014 06/03 A3047 -180 85 -1300 010/05 RMK AO2 T00560033 $
63870K0J4 0J420161219192513112/19/16 19:25:31  5-MIN K0J4 200025Z AUTO 32003KT 10SM -RA OVC014 06/03 A3047 -190 85 -1300 320/03 RMK AO2 RAB25 P0000 T00560033 $
63870K0J4 0J420161219193013112/19/16 19:30:31  5-MIN K0J4 200030Z AUTO 01006KT 10SM -RA OVC014 06/03 A3046 -180 85 -1300 010/06 RMK AO2 RAB25 P0000 T00560033 $
63870K0J4 0J420161219193513012/19/16 19:35:31  5-MIN K0J4 200035Z AUTO 01004KT 10SM OVC014 06/03 A3047 -180 85 -1300 010/04 RMK AO2 RAB25E35 P0000 T00560033 $
63870K0J4 0J420161219194013012/19/16 19:40:31  5-MIN K0J4 200040Z AUTO 00000KT 10SM OVC014 06/03 A3047 -190 85 -1300 000/00 RMK AO2 RAB25E35 P0000 T00560033 $
63870K0J4 0J420161219194513012/19/16 19:45:31  5-MIN K0J4 200045Z AUTO 36005KT 10SM OVC014 06/03 A3047 -180 85 -1300 360/05 RMK AO2 RAB25E35 P0000 T00560033 $
63870K0J4 0J420161219195013012/19/16 19:50:31  5-MIN K0J4 200050Z AUTO 01005KT 10SM OVC014 06/03 A3047 -180 85 -1300 010/05 RMK AO2 RAB25E35 P0000 T00560033 $
63870K0J4 0J420161219195512012/19/16 19:55:31  5-MIN K0J4 200055Z AUTO 02005KT 10SM OVC015 06/03 A3047 -180 85 -1300 020/05 RMK AO2 RAB25E35 P0000 $
63870K0J4 0J420161219200011512/19/16 20:00:31  5-MIN K0J4 200100Z AUTO 02004KT 10SM OVC015 06/03 A3047 -180 85 -1300 020/04 RMK AO2 T00560033 $
63870K0J4 0J420161219200511512/19/16 20:05:31  5-MIN K0J4 200105Z AUTO 35003KT 10SM OVC015 06/03 A3047 -180 82 -1200 350/03 RMK AO2 T00610033 $
63870K0J4 0J420161219201011512/19/16 20:10:31  5-MIN K0J4 200110Z AUTO 36003KT 10SM OVC015 06/03 A3047 -190 82 -1200 360/03 RMK AO2 T00610033 $
63870K0J4 0J420161219201511512/19/16 20:15:31  5-MIN K0J4 200115Z AUTO 01004KT 10SM OVC015 06/03 A3047 -180 82 -1200 010/04 RMK AO2 T00610033 $
63870K0J4 0J420161219202011512/19/16 20:20:31  5-MIN K0J4 200120Z AUTO 32003KT 10SM OVC015 06/03 A3048 -190 82 -1200 320/03 RMK AO2 T00610033 $
63870K0J4 0J420161219202511512/19/16 20:25:31  5-MIN K0J4 200125Z AUTO 00000KT 10SM OVC015 06/04 A3048 -190 86 -1200 000/00 RMK AO2 T00610039 $
63870K0J4 0J420161219203011512/19/16 20:30:31  5-MIN K0J4 200130Z AUTO 36003KT 10SM OVC015 06/03 A3048 -190 82 -1200 360/03 RMK AO2 T00610033 $
63870K0J4 0J420161219203511512/19/16 20:35:31  5-MIN K0J4 200135Z AUTO 01003KT 10SM OVC015 06/03 A3048 -190 82 -1200 010/03 RMK AO2 T00610033 $
63870K0J4 0J420161219204011512/19/16 20:40:31  5-MIN K0J4 200140Z AUTO 01003KT 10SM OVC013 06/04 A3048 -190 86 -1200 010/03 RMK AO2 T00610039 $
63870K0J4 0J420161219204511512/19/16 20:45:31  5-MIN K0J4 200145Z AUTO 01004KT 10SM OVC013 06/04 A3048 -190 86 -1200 010/04 RMK AO2 T00610039 $
63870K0J4 0J420161219205011512/19/16 20:50:31  5-MIN K0J4 200150Z AUTO 35003KT 10SM OVC013 06/03 A3048 -190 82 -1200 350/03 RMK AO2 T00610033 $
63870K0J4 0J420161219205512212/19/16 20:55:31  5-MIN K0J4 200155Z AUTO 36003KT 10SM OVC013 06/04 A3048 -190 86 -1200 360/03 RMK AO2 SLP320 T00610039 $
63870K0J4 0J420161219210011512/19/16 21:00:31  5-MIN K0J4 200200Z AUTO 36003KT 10SM OVC013 06/04 A3047 -190 86 -1200 360/03 RMK AO2 T00610039 $
63870K0J4 0J420161219210511512/19/16 21:05:31  5-MIN K0J4 200205Z AUTO 36004KT 10SM OVC013 06/04 A3047 -190 86 -1200 360/04 RMK AO2 T00610039 $
63870K0J4 0J420161219211011512/19/16 21:10:31  5-MIN K0J4 200210Z AUTO 01004KT 10SM OVC013 06/04 A3047 -180 86 -1200 010/04 RMK AO2 T00610039 $
63870K0J4 0J420161219211511512/19/16 21:15:31  5-MIN K0J4 200215Z AUTO 36004KT 10SM OVC012 06/04 A3047 -180 86 -1200 360/04 RMK AO2 T00610039 $
63870K0J4 0J420161219212011512/19/16 21:20:31  5-MIN K0J4 200220Z AUTO 35004KT 10SM OVC012 06/04 A3047 -180 86 -1200 350/04 RMK AO2 T00610039 $
63870K0J4 0J420161219212511512/19/16 21:25:31  5-MIN K0J4 200225Z AUTO 01005KT 10SM OVC012 06/04 A3047 -180 86 -1200 010/05 RMK AO2 T00610039 $
63870K0J4 0J420161219213011512/19/16 21:30:31  5-MIN K0J4 200230Z AUTO 36005KT 10SM OVC012 06/04 A3047 -180 86 -1200 360/05 RMK AO2 T00610039 $
63870K0J4 0J420161219213511512/19/16 21:35:31  5-MIN K0J4 200235Z AUTO 36005KT 10SM OVC012 06/04 A3047 -180 86 -1200 360/05 RMK AO2 T00610039 $
63870K0J4 0J420161219214011512/19/16 21:40:31  5-MIN K0J4 200240Z AUTO 36006KT 10SM OVC012 06/04 A3047 -180 86 -1200 360/06 RMK AO2 T00610039 $
63870K0J4 0J420161219214511512/19/16 21:45:31  5-MIN K0J4 200245Z AUTO 01007KT 10SM OVC012 06/04 A3047 -180 86 -1200 010/07 RMK AO2 T00610039 $
63870K0J4 0J420161219215011512/19/16 21:50:31  5-MIN K0J4 200250Z AUTO 01007KT 10SM OVC012 06/04 A3047 -180 86 -1200 010/07 RMK AO2 T00610039 $
63870K0J4 0J420161219215513412/19/16 21:55:31  5-MIN K0J4 200255Z AUTO 02005KT 10SM OVC012 07/04 A3047 -180 82 -1100 020/05 RMK AO2 SLP318 60000 T00670039 53004 $
63870K0J4 0J420161219220011512/19/16 22:00:31  5-MIN K0J4 200300Z AUTO 01006KT 10SM OVC012 07/04 A3047 -180 82 -1100 010/06 RMK AO2 T00670039 $
63870K0J4 0J420161219220511512/19/16 22:05:31  5-MIN K0J4 200305Z AUTO 01005KT 10SM OVC012 07/04 A3047 -180 82 -1100 010/05 RMK AO2 T00670039 $
63870K0J4 0J420161219221011512/19/16 22:10:31  5-MIN K0J4 200310Z AUTO 01005KT 10SM OVC011 07/04 A3047 -180 82 -1100 010/05 RMK AO2 T00670039 $
63870K0J4 0J420161219221511512/19/16 22:15:31  5-MIN K0J4 200315Z AUTO 01004KT 10SM OVC011 07/04 A3047 -180 82 -1200 010/04 RMK AO2 T00670039 $
63870K0J4 0J420161219222011512/19/16 22:20:31  5-MIN K0J4 200320Z AUTO 36006KT 10SM OVC011 07/04 A3047 -190 82 -1200 360/06 RMK AO2 T00670039 $
63870K0J4 0J420161219222511512/19/16 22:25:31  5-MIN K0J4 200325Z AUTO 01006KT 10SM OVC011 07/04 A3047 -180 82 -1100 010/06 RMK AO2 T00670039 $
63870K0J4 0J420161219223011512/19/16 22:30:31  5-MIN K0J4 200330Z AUTO 01006KT 10SM OVC011 07/04 A3047 -180 82 -1100 010/06 RMK AO2 T00670039 $
63870K0J4 0J420161219223511512/19/16 22:35:31  5-MIN K0J4 200335Z AUTO 02006KT 10SM OVC010 07/04 A3047 -180 82 -1100 020/06 RMK AO2 T00670039 $
63870K0J4 0J420161219224011512/19/16 22:40:31  5-MIN K0J4 200340Z AUTO 36006KT 10SM OVC010 07/04 A3047 -180 82 -1100 360/06 RMK AO2 T00670039 $
63870K0J4 0J420161219224511512/19/16 22:45:31  5-MIN K0J4 200345Z AUTO 36007KT 10SM OVC010 07/04 A3047 -180 82 -1100 360/07 RMK AO2 T00670039 $
63870K0J4 0J420161219225012712/19/16 22:50:31  5-MIN K0J4 200350Z AUTO 01008KT 10SM OVC009 06/04 A3047 -180 86 -1200 010/08 RMK AO2 CIG 006V010 T00610039 $
63870K0J4 0J420161219225513412/19/16 22:55:31  5-MIN K0J4 200355Z AUTO 02007KT 10SM OVC009 06/04 A3047 -180 86 -1200 020/07 RMK AO2 CIG 006V010 SLP317 T00610039 $
63870K0J4 0J420161219230012612/19/16 23:00:31  5-MIN K0J4 200400Z AUTO 02008KT 9SM OVC007 06/04 A3047 -180 89 -1200 020/08 RMK AO2 CIG 005V010 T00610044 $
63870K0J4 0J420161219230512612/19/16 23:05:31  5-MIN K0J4 200405Z AUTO 01008KT 7SM OVC007 06/04 A3047 -180 89 -1200 010/08 RMK AO2 CIG 005V010 T00610044 $
63870K0J4 0J420161219231012912/19/16 23:10:31  5-MIN K0J4 200410Z AUTO 02006KT 6SM BR OVC007 06/04 A3047 -180 89 -1200 020/06 RMK AO2 CIG 004V009 T00610044 $
63870K0J4 0J420161219231512912/19/16 23:15:31  5-MIN K0J4 200415Z AUTO 01006KT 6SM BR OVC005 06/04 A3047 -180 89 -1200 010/06 RMK AO2 CIG 004V008 T00610044 $
63870K0J4 0J420161219232012912/19/16 23:20:31  5-MIN K0J4 200420Z AUTO 02006KT 5SM BR OVC005 06/04 A3046 -180 89 -1200 020/06 RMK AO2 CIG 003V008 T00610044 $
63870K0J4 0J420161219232512912/19/16 23:25:31  5-MIN K0J4 200425Z AUTO 02006KT 4SM BR OVC005 06/04 A3046 -170 89 -1200 020/06 RMK AO2 CIG 003V007 T00610044 $
63870K0J4 0J420161219233012912/19/16 23:30:31  5-MIN K0J4 200430Z AUTO 02007KT 3SM BR OVC003 06/04 A3046 -170 89 -1200 020/07 RMK AO2 CIG 002V007 T00610044 $
63870K0J4 0J420161219233512912/19/16 23:35:31  5-MIN K0J4 200435Z AUTO 02005KT 3SM BR OVC003 06/04 A3046 -170 89 -1200 020/05 RMK AO2 CIG 002V006 T00610044 $
63870K0J4 0J420161219234012112/19/16 23:40:31  5-MIN K0J4 200440Z AUTO 02006KT 2 1/2SM BR OVC003 06/04 A3046 -170 92 -1300 020/06 RMK AO2 T00560044 $
63870K0J4 0J420161219234511712/19/16 23:45:31  5-MIN K0J4 200445Z AUTO 01008KT 2SM BR OVC003 06/04 A3046 -180 92 -1300 010/08 RMK AO2 T00560044 $
63870K0J4 0J420161219235012112/19/16 23:50:31  5-MIN K0J4 200450Z AUTO 36007KT 1 3/4SM BR OVC003 06/04 A3046 -180 92 -1300 360/07 RMK AO2 T00560044 $
63870K0J4 0J420161219235513812/19/16 23:55:31  5-MIN K0J4 200455Z AUTO 02008KT 1 1/2SM BR OVC003 06/04 A3046 -180 92 -1300 020/08 RMK AO2 SLP316 T00560044 400670017 $
63870K0J4 0J420161220000012112/20/16 00:00:31  5-MIN K0J4 200500Z AUTO 01006KT 1 1/2SM BR OVC002 06/04 A3046 -170 92 -1300 010/06 RMK AO2 T00560044 $
63870K0J4 0J420161220000512112/20/16 00:05:31  5-MIN K0J4 200505Z AUTO 01007KT 1 1/2SM BR OVC002 06/04 A3046 -180 92 -1300 010/07 RMK AO2 T00560044 $
63870K0J4 0J420161220001012112/20/16 00:10:31  5-MIN K0J4 200510Z AUTO 01006KT 1 1/2SM BR OVC002 06/04 A3046 -180 92 -1300 010/06 RMK AO2 T00560044 $
63870K0J4 0J420161220001512112/20/16 00:15:31  5-MIN K0J4 200515Z AUTO 01006KT 1 1/4SM BR OVC002 06/04 A3046 -170 92 -1300 010/06 RMK AO2 T00560044 $
63870K0J4 0J420161220002012112/20/16 00:20:31  5-MIN K0J4 200520Z AUTO 02006KT 1 1/4SM BR OVC002 06/04 A3046 -170 92 -1300 020/06 RMK AO2 T00560044 $
63870K0J4 0J420161220002512112/20/16 00:25:31  5-MIN K0J4 200525Z AUTO 02006KT 1 1/2SM BR OVC002 06/04 A3046 -170 92 -1300 020/06 RMK AO2 T00560044 $
63870K0J4 0J420161220003012112/20/16 00:30:31  5-MIN K0J4 200530Z AUTO 01008KT 1 1/2SM BR OVC001 06/04 A3046 -170 92 -1300 010/08 RMK AO2 T00560044 $
63870K0J4 0J420161220003512112/20/16 00:35:31  5-MIN K0J4 200535Z AUTO 01005KT 1 3/4SM BR OVC001 06/04 A3046 -170 92 -1300 010/05 RMK AO2 T00560044 $
63870K0J4 0J420161220004012112/20/16 00:40:31  5-MIN K0J4 200540Z AUTO 02006KT 1 3/4SM BR OVC001 06/04 A3045 -170 92 -1300 020/06 RMK AO2 T00560044 $
63870K0J4 0J420161220004511712/20/16 00:45:31  5-MIN K0J4 200545Z AUTO 02006KT 2SM BR OVC001 06/04 A3045 -170 92 -1300 020/06 RMK AO2 T00560044 $
63870K0J4 0J420161220005011712/20/16 00:50:31  5-MIN K0J4 200550Z AUTO 01006KT 2SM BR OVC001 06/04 A3045 -160 92 -1300 010/06 RMK AO2 T00560044 $
63870K0J4 0J420161220005514812/20/16 00:55:31  5-MIN K0J4 200555Z AUTO 02006KT 2SM BR OVC001 06/05 A3045 -160 96 -1300 020/06 RMK AO2 SLP311 60000 T00560050 10067 20056 50001 $
63870K0J4 0J420161220010011712/20/16 01:00:31  5-MIN K0J4 200600Z AUTO 01005KT 2SM BR OVC001 06/04 A3044 -160 92 -1300 010/05 RMK AO2 T00560044 $
63870K0J4 0J420161220010511712/20/16 01:05:31  5-MIN K0J4 200605Z AUTO 02003KT 2SM BR OVC001 06/05 A3044 -160 96 -1300 020/03 RMK AO2 T00560050 $
63870K0J4 0J420161220011012112/20/16 01:10:31  5-MIN K0J4 200610Z AUTO 01005KT 1 3/4SM BR OVC001 06/05 A3045 -160 96 -1300 010/05 RMK AO2 T00560050 $
63870K0J4 0J420161220011512112/20/16 01:15:31  5-MIN K0J4 200615Z AUTO 02004KT 1 3/4SM BR OVC001 06/05 A3045 -160 96 -1300 020/04 RMK AO2 T00560050 $
63870K0J4 0J420161220012012112/20/16 01:20:31  5-MIN K0J4 200620Z AUTO 01004KT 1 3/4SM BR OVC001 06/05 A3044 -160 96 -1300 010/04 RMK AO2 T00560050 $
63870K0J4 0J420161220012512112/20/16 01:25:31  5-MIN K0J4 200625Z AUTO 01005KT 1 1/2SM BR OVC001 06/05 A3044 -150 96 -1300 010/05 RMK AO2 T00560050 $
63870K0J4 0J420161220013012112/20/16 01:30:31  5-MIN K0J4 200630Z AUTO 02005KT 1 1/4SM BR OVC001 06/05 A3044 -150 96 -1200 020/05 RMK AO2 T00560050 $
63870K0J4 0J420161220013512112/20/16 01:35:31  5-MIN K0J4 200635Z AUTO 01005KT 1 1/4SM BR OVC001 06/05 A3044 -150 96 -1200 010/05 RMK AO2 T00560050 $
63870K0J4 0J420161220014011712/20/16 01:40:31  5-MIN K0J4 200640Z AUTO 02005KT 1SM BR OVC001 06/05 A3044 -150 96 -1200 020/05 RMK AO2 T00560050 $
63870K0J4 0J420161220014511712/20/16 01:45:31  5-MIN K0J4 200645Z AUTO 36007KT 1SM BR OVC001 06/05 A3044 -150 96 -1200 360/07 RMK AO2 T00560050 $
63870K0J4 0J420161220015011712/20/16 01:50:31  5-MIN K0J4 200650Z AUTO 01005KT 1SM BR OVC001 06/05 A3043 -150 96 -1200 010/05 RMK AO2 T00560050 $
63870K0J4 0J420161220015512412/20/16 01:55:31  5-MIN K0J4 200655Z AUTO 01005KT 1SM BR OVC001 06/05 A3044 -150 96 -1200 010/05 RMK AO2 SLP307 T00560050 $
63870K0J4 0J420161220020011712/20/16 02:00:31  5-MIN K0J4 200700Z AUTO 01004KT 1SM BR OVC001 06/05 A3043 -150 96 -1200 010/04 RMK AO2 T00560050 $
63870K0J4 0J420161220020511912/20/16 02:05:31  5-MIN K0J4 200705Z AUTO 02006KT 3/4SM BR OVC001 06/05 A3043 -140 96 -1200 020/06 RMK AO2 T00560050 $
63870K0J4 0J420161220021011912/20/16 02:10:31  5-MIN K0J4 200710Z AUTO 01005KT 3/4SM BR OVC001 06/05 A3042 -140 96 -1200 010/05 RMK AO2 T00560050 $
63870K0J4 0J420161220021511912/20/16 02:15:31  5-MIN K0J4 200715Z AUTO 01006KT 3/4SM BR OVC001 06/05 A3043 -140 96 -1200 010/06 RMK AO2 T00560050 $
63870K0J4 0J420161220022011912/20/16 02:20:31  5-MIN K0J4 200720Z AUTO 01005KT 3/4SM BR OVC001 06/05 A3043 -140 96 -1200 010/05 RMK AO2 T00560050 $
63870K0J4 0J420161220022511912/20/16 02:25:31  5-MIN K0J4 200725Z AUTO 01006KT 3/4SM BR OVC001 06/05 A3042 -140 96 -1200 010/06 RMK AO2 T00560050 $
63870K0J4 0J420161220023011712/20/16 02:30:31  5-MIN K0J4 200730Z AUTO 36005KT 1SM BR OVC001 06/05 A3043 -140 96 -1200 360/05 RMK AO2 T00560050 $
63870K0J4 0J420161220023511712/20/16 02:35:31  5-MIN K0J4 200735Z AUTO 01006KT 1SM BR OVC001 06/05 A3043 -150 96 -1200 010/06 RMK AO2 T00560050 $
63870K0J4 0J420161220024011712/20/16 02:40:31  5-MIN K0J4 200740Z AUTO 01005KT 1SM BR OVC001 06/05 A3043 -140 96 -1200 010/05 RMK AO2 T00560050 $
63870K0J4 0J420161220024511712/20/16 02:45:31  5-MIN K0J4 200745Z AUTO 02005KT 1SM BR OVC001 06/05 A3042 -140 96 -1200 020/05 RMK AO2 T00560050 $
63870K0J4 0J420161220025011712/20/16 02:50:31  5-MIN K0J4 200750Z AUTO 01006KT 1SM BR OVC001 06/05 A3042 -140 96 -1200 010/06 RMK AO2 T00560050 $
63870K0J4 0J420161220025512412/20/16 02:55:31  5-MIN K0J4 200755Z AUTO 01005KT 1SM BR OVC001 06/05 A3042 -140 96 -1200 010/05 RMK AO2 SLP302 T00560050 $
63870K0J4 0J420161220030011712/20/16 03:00:31  5-MIN K0J4 200800Z AUTO 01007KT 1SM BR OVC001 06/05 A3042 -140 96 -1200 010/07 RMK AO2 T00560050 $
63870K0J4 0J420161220030511712/20/16 03:05:31  5-MIN K0J4 200805Z AUTO 02007KT 1SM BR OVC001 06/05 A3042 -140 96 -1200 020/07 RMK AO2 T00560050 $
63870K0J4 0J420161220031011712/20/16 03:10:31  5-MIN K0J4 200810Z AUTO 02006KT 1SM BR OVC001 06/05 A3042 -140 93 -1200 020/06 RMK AO2 T00610050 $
63870K0J4 0J420161220031511712/20/16 03:15:31  5-MIN K0J4 200815Z AUTO 02006KT 1SM BR OVC001 06/05 A3042 -140 93 -1200 020/06 RMK AO2 T00610050 $
63870K0J4 0J420161220032011712/20/16 03:20:31  5-MIN K0J4 200820Z AUTO 02006KT 1SM BR OVC001 06/05 A3042 -140 93 -1200 020/06 RMK AO2 T00610050 $
63870K0J4 0J420161220032511712/20/16 03:25:31  5-MIN K0J4 200825Z AUTO 02006KT 1SM BR OVC001 06/05 A3042 -140 93 -1200 020/06 RMK AO2 T00610050 $
63870K0J4 0J420161220033011712/20/16 03:30:31  5-MIN K0J4 200830Z AUTO 04005KT 1SM BR OVC001 06/05 A3041 -130 93 -1200 040/05 RMK AO2 T00610050 $
63870K0J4 0J420161220033511712/20/16 03:35:31  5-MIN K0J4 200835Z AUTO 03006KT 1SM BR OVC001 06/05 A3041 -130 93 -1200 030/06 RMK AO2 T00610050 $
63870K0J4 0J420161220034011712/20/16 03:40:31  5-MIN K0J4 200840Z AUTO 01006KT 1SM BR OVC001 06/05 A3042 -140 93 -1200 010/06 RMK AO2 T00610050 $
63870K0J4 0J420161220034511712/20/16 03:45:31  5-MIN K0J4 200845Z AUTO 02005KT 1SM BR OVC001 06/05 A3042 -140 93 -1200 020/05 RMK AO2 T00610050 $
63870K0J4 0J420161220035011712/20/16 03:50:31  5-MIN K0J4 200850Z AUTO 03006KT 1SM BR OVC001 06/06 A3042 -140 96 -1200 030/06 RMK AO2 T00610056 $
63870K0J4 0J420161220035510912/20/16 03:55:31  5-MIN K0J4 200855Z AUTO 01005KT 3/4SM BR OVC001 06/06 A3042 -130 96 -1200 010/05 RMK AO2 $
63870K0J4 0J420161220040011912/20/16 04:00:31  5-MIN K0J4 200900Z AUTO 02005KT 3/4SM BR OVC001 06/05 A3042 -130 93 -1200 020/05 RMK AO2 T00610050 $
63870K0J4 0J420161220040511812/20/16 04:05:31  5-MIN K0J4 200905Z AUTO 01006KT 3/4SM BR VV001 06/06 A3041 -130 96 -1200 010/06 RMK AO2 T00610056 $
63870K0J4 0J420161220041011812/20/16 04:10:31  5-MIN K0J4 200910Z AUTO 02006KT 3/4SM BR VV001 06/06 A3042 -140 96 -1200 020/06 RMK AO2 T00610056 $
63870K0J4 0J420161220041511812/20/16 04:15:31  5-MIN K0J4 200915Z AUTO 01006KT 3/4SM BR VV001 06/06 A3042 -140 96 -1200 010/06 RMK AO2 T00610056 $
63870K0J4 0J420161220042011812/20/16 04:20:31  5-MIN K0J4 200920Z AUTO 01007KT 3/4SM BR VV001 06/05 A3042 -140 93 -1200 010/07 RMK AO2 T00610050 $
63870K0J4 0J420161220042511812/20/16 04:25:31  5-MIN K0J4 200925Z AUTO 02007KT 3/4SM BR VV001 06/05 A3042 -130 93 -1200 020/07 RMK AO2 T00610050 $
63870K0J4 0J420161220043011812/20/16 04:30:31  5-MIN K0J4 200930Z AUTO 01006KT 1/2SM FG VV001 06/05 A3042 -140 93 -1200 010/06 RMK AO2 T00610050 $
63870K0J4 0J420161220043511812/20/16 04:35:31  5-MIN K0J4 200935Z AUTO 01006KT 1/2SM FG VV001 06/06 A3042 -140 96 -1200 010/06 RMK AO2 T00610056 $
63870K0J4 0J420161220044011812/20/16 04:40:31  5-MIN K0J4 200940Z AUTO 01007KT 1/2SM FG VV001 06/05 A3042 -140 93 -1200 010/07 RMK AO2 T00610050 $
63870K0J4 0J420161220044511812/20/16 04:45:31  5-MIN K0J4 200945Z AUTO 01008KT 1/2SM FG VV001 06/06 A3042 -140 96 -1200 010/08 RMK AO2 T00610056 $
63870K0J4 0J420161220045011812/20/16 04:50:31  5-MIN K0J4 200950Z AUTO 01006KT 3/4SM BR VV001 06/05 A3042 -140 93 -1200 010/06 RMK AO2 T00610050 $
63870K0J4 0J420161220045512512/20/16 04:55:31  5-MIN K0J4 200955Z AUTO 02006KT 3/4SM BR VV001 06/05 A3042 -140 93 -1200 020/06 RMK AO2 SLP301 T00610050 $
63870K0J4 0J420161220050011812/20/16 05:00:31  5-MIN K0J4 201000Z AUTO 02004KT 3/4SM BR VV001 06/06 A3042 -130 96 -1200 020/04 RMK AO2 T00610056 $
63870K0J4 0J420161220050511812/20/16 05:05:31  5-MIN K0J4 201005Z AUTO 02006KT 3/4SM BR VV001 06/06 A3042 -130 96 -1200 020/06 RMK AO2 T00610056 $
63870K0J4 0J420161220051011812/20/16 05:10:31  5-MIN K0J4 201010Z AUTO 02005KT 3/4SM BR VV001 06/06 A3042 -140 96 -1200 020/05 RMK AO2 T00610056 $
63870K0J4 0J420161220051511912/20/16 05:15:31  5-MIN K0J4 201015Z AUTO 03005KT 3/4SM BR OVC001 06/06 A3042 -130 96 -1200 030/05 RMK AO2 T00610056 $
63870K0J4 0J420161220052011712/20/16 05:20:31  5-MIN K0J4 201020Z AUTO 02006KT 1SM BR OVC001 06/06 A3042 -140 96 -1200 020/06 RMK AO2 T00610056 $
63870K0J4 0J420161220052511712/20/16 05:25:31  5-MIN K0J4 201025Z AUTO 01006KT 1SM BR OVC001 06/06 A3042 -140 96 -1200 010/06 RMK AO2 T00610056 $
63870K0J4 0J420161220053011712/20/16 05:30:31  5-MIN K0J4 201030Z AUTO 02007KT 1SM BR OVC001 06/06 A3042 -140 96 -1200 020/07 RMK AO2 T00610056 $
63870K0J4 0J420161220053511712/20/16 05:35:31  5-MIN K0J4 201035Z AUTO 02007KT 1SM BR OVC001 06/06 A3042 -140 96 -1200 020/07 RMK AO2 T00610056 $
63870K0J4 0J420161220054011712/20/16 05:40:31  5-MIN K0J4 201040Z AUTO 03007KT 1SM BR OVC001 06/06 A3042 -140 96 -1200 030/07 RMK AO2 T00610056 $
63870K0J4 0J420161220054511912/20/16 05:45:31  5-MIN K0J4 201045Z AUTO 03007KT 3/4SM BR OVC001 06/06 A3042 -140 96 -1200 030/07 RMK AO2 T00610056 $
63870K0J4 0J420161220055011912/20/16 05:50:31  5-MIN K0J4 201050Z AUTO 03007KT 3/4SM BR OVC001 07/06 A3042 -140 93 -1100 030/07 RMK AO2 T00670056 $
63870K0J4 0J420161220055512612/20/16 05:55:31  5-MIN K0J4 201055Z AUTO 02006KT 3/4SM BR OVC001 07/06 A3042 -140 93 -1100 020/06 RMK AO2 SLP301 T00670056 $
63870K0J4 0J420161220060011912/20/16 06:00:31  5-MIN K0J4 201100Z AUTO 03007KT 3/4SM BR OVC001 07/06 A3042 -140 93 -1100 030/07 RMK AO2 T00670056 $
63870K0J4 0J420161220060511912/20/16 06:05:31  5-MIN K0J4 201105Z AUTO 03006KT 3/4SM BR OVC001 07/06 A3043 -140 93 -1100 030/06 RMK AO2 T00670056 $
63870K0J4 0J420161220061011912/20/16 06:10:31  5-MIN K0J4 201110Z AUTO 01007KT 3/4SM BR OVC001 07/06 A3043 -150 93 -1100 010/07 RMK AO2 T00670056 $
63870K0J4 0J420161220061511912/20/16 06:15:31  5-MIN K0J4 201115Z AUTO 02006KT 3/4SM BR OVC001 07/06 A3043 -150 93 -1100 020/06 RMK AO2 T00670056 $
63870K0J4 0J420161220062011912/20/16 06:20:31  5-MIN K0J4 201120Z AUTO 02007KT 3/4SM BR OVC001 07/06 A3043 -140 93 -1100 020/07 RMK AO2 T00670056 $
63870K0J4 0J420161220062511912/20/16 06:25:31  5-MIN K0J4 201125Z AUTO 02007KT 3/4SM BR OVC001 07/06 A3043 -150 93 -1100 020/07 RMK AO2 T00670056 $
63870K0J4 0J420161220063011912/20/16 06:30:31  5-MIN K0J4 201130Z AUTO 03007KT 3/4SM BR OVC001 07/06 A3042 -140 93 -1100 030/07 RMK AO2 T00670056 $
63870K0J4 0J420161220063511912/20/16 06:35:31  5-MIN K0J4 201135Z AUTO 03006KT 3/4SM BR OVC001 07/06 A3042 -140 93 -1100 030/06 RMK AO2 T00670056 $
63870K0J4 0J420161220064011712/20/16 06:40:31  5-MIN K0J4 201140Z AUTO 03006KT 1SM BR OVC001 07/06 A3043 -140 93 -1100 030/06 RMK AO2 T00670056 $
63870K0J4 0J420161220064512112/20/16 06:45:31  5-MIN K0J4 201145Z AUTO 03006KT 1 1/4SM BR OVC001 07/06 A3043 -150 96 -1100 030/06 RMK AO2 T00670061 $
63870K0J4 0J420161220065012112/20/16 06:50:31  5-MIN K0J4 201150Z AUTO 03007KT 1 3/4SM BR OVC001 07/06 A3043 -150 96 -1100 030/07 RMK AO2 T00670061 $
63870K0J4 0J420161220065510712/20/16 06:55:31  5-MIN K0J4 201155Z AUTO 03006KT 2SM BR OVC001 07/06 A3044 -150 96 -1100 030/06 RMK AO2 $
63870K0J4 0J420161220070012112/20/16 07:00:31  5-MIN K0J4 201200Z AUTO 04006KT 2 1/2SM BR OVC002 07/06 A3044 -150 96 -1100 040/06 RMK AO2 T00670061 $
63870K0J4 0J420161220070512112/20/16 07:05:31  5-MIN K0J4 201205Z AUTO 04007KT 2 1/2SM BR OVC002 07/06 A3044 -160 93 -1100 040/07 RMK AO2 T00670056 $
63870K0J4 0J420161220071012112/20/16 07:10:31  5-MIN K0J4 201210Z AUTO 03006KT 2 1/2SM BR OVC002 07/06 A3044 -160 96 -1100 030/06 RMK AO2 T00670061 $
63870K0J4 0J420161220071512112/20/16 07:15:31  5-MIN K0J4 201215Z AUTO 02006KT 1 3/4SM BR OVC002 07/06 A3044 -160 96 -1100 020/06 RMK AO2 T00670061 $
63870K0J4 0J420161220072012112/20/16 07:20:31  5-MIN K0J4 201220Z AUTO 04006KT 1 1/2SM BR OVC002 07/06 A3044 -160 96 -1100 040/06 RMK AO2 T00670061 $
63870K0J4 0J420161220072512112/20/16 07:25:31  5-MIN K0J4 201225Z AUTO 03006KT 1 1/2SM BR OVC001 07/06 A3045 -160 96 -1100 030/06 RMK AO2 T00670061 $
63870K0J4 0J420161220073012112/20/16 07:30:31  5-MIN K0J4 201230Z AUTO 03005KT 1 1/4SM BR OVC001 07/06 A3045 -160 96 -1100 030/05 RMK AO2 T00670061 $
63870K0J4 0J420161220073512112/20/16 07:35:31  5-MIN K0J4 201235Z AUTO 02006KT 1 1/4SM BR OVC001 07/06 A3045 -160 96 -1100 020/06 RMK AO2 T00670061 $
63870K0J4 0J420161220074012112/20/16 07:40:31  5-MIN K0J4 201240Z AUTO 02004KT 1 1/4SM BR OVC001 07/06 A3045 -170 96 -1100 020/04 RMK AO2 T00670061 $
63870K0J4 0J420161220074511712/20/16 07:45:31  5-MIN K0J4 201245Z AUTO 02005KT 1SM BR OVC001 07/06 A3045 -170 96 -1100 020/05 RMK AO2 T00670061 $
63870K0J4 0J420161220075011712/20/16 07:50:31  5-MIN K0J4 201250Z AUTO 02006KT 1SM BR OVC001 07/06 A3045 -170 96 -1100 020/06 RMK AO2 T00670061 $
63870K0J4 0J420161220075510912/20/16 07:55:31  5-MIN K0J4 201255Z AUTO 03006KT 3/4SM BR OVC001 07/06 A3045 -170 93 -1100 030/06 RMK AO2 $
63870K0J4 0J420161220080011912/20/16 08:00:31  5-MIN K0J4 201300Z AUTO 03006KT 3/4SM BR OVC001 07/06 A3046 -170 93 -1100 030/06 RMK AO2 T00720061 $
63870K0J4 0J420161220080511912/20/16 08:05:31  5-MIN K0J4 201305Z AUTO 04006KT 3/4SM BR OVC001 07/06 A3046 -170 93 -1100 040/06 RMK AO2 T00720061 $
63870K0J4 0J420161220081011912/20/16 08:10:31  5-MIN K0J4 201310Z AUTO 03004KT 3/4SM BR OVC001 07/06 A3046 -170 93 -1100 030/04 RMK AO2 T00720061 $
63870K0J4 0J420161220081511912/20/16 08:15:31  5-MIN K0J4 201315Z AUTO 04005KT 3/4SM BR OVC001 07/07 A3045 -170 96 -1100 040/05 RMK AO2 T00720067 $
63870K0J4 0J420161220082011912/20/16 08:20:31  5-MIN K0J4 201320Z AUTO 04005KT 3/4SM BR OVC001 07/07 A3046 -170 96 -1100 040/05 RMK AO2 T00720067 $
63870K0J4 0J420161220082511912/20/16 08:25:31  5-MIN K0J4 201325Z AUTO 03006KT 3/4SM BR OVC001 07/07 A3046 -170 96 -1100 030/06 RMK AO2 T00720067 $
63870K0J4 0J420161220083011912/20/16 08:30:31  5-MIN K0J4 201330Z AUTO 04005KT 3/4SM BR OVC001 07/07 A3046 -170 96 -1100 040/05 RMK AO2 T00720067 $
63870K0J4 0J420161220083511912/20/16 08:35:31  5-MIN K0J4 201335Z AUTO 05005KT 3/4SM BR OVC001 07/07 A3046 -170 96 -1100 050/05 RMK AO2 T00720067 $
63870K0J4 0J420161220084011912/20/16 08:40:31  5-MIN K0J4 201340Z AUTO 03005KT 3/4SM BR OVC001 07/07 A3046 -170 96 -1100 030/05 RMK AO2 T00720067 $
63870K0J4 0J420161220084511712/20/16 08:45:31  5-MIN K0J4 201345Z AUTO 03005KT 1SM BR OVC001 07/07 A3046 -180 96 -1100 030/05 RMK AO2 T00720067 $
63870K0J4 0J420161220085012112/20/16 08:50:31  5-MIN K0J4 201350Z AUTO 03006KT 1 1/4SM BR OVC001 07/07 A3046 -180 96 -1100 030/06 RMK AO2 T00720067 $
63870K0J4 0J420161220085512812/20/16 08:55:31  5-MIN K0J4 201355Z AUTO 05006KT 1 3/4SM BR OVC001 07/07 A3046 -180 96 -1100 050/06 RMK AO2 SLP315 T00720067 $
63870K0J4 0J420161220090011712/20/16 09:00:31  5-MIN K0J4 201400Z AUTO 06004KT 3SM BR OVC001 08/07 A3046 -180 93 -1000 060/04 RMK AO2 T00780067 $
63870K0J4 0J420161220090511712/20/16 09:05:31  5-MIN K0J4 201405Z AUTO 05005KT 3SM BR OVC002 08/07 A3047 -180 96 -1000 050/05 RMK AO2 T00780072 $
63870K0J4 0J420161220091011712/20/16 09:10:31  5-MIN K0J4 201410Z AUTO 06005KT 3SM BR OVC002 08/07 A3047 -180 93 -1000 060/05 RMK AO2 T00780067 $
63870K0J4 0J420161220091511712/20/16 09:15:31  5-MIN K0J4 201415Z AUTO 05005KT 6SM BR OVC002 08/07 A3047 -180 96 -1000 050/05 RMK AO2 T00780072 $
63870K0J4 0J420161220092011412/20/16 09:20:31  5-MIN K0J4 201420Z AUTO 04005KT 7SM OVC002 08/07 A3047 -180 96 -1000 040/05 RMK AO2 T00780072 $
63870K0J4 0J420161220092511712/20/16 09:25:31  5-MIN K0J4 201425Z AUTO 05005KT 4SM BR OVC003 08/07 A3047 -190 96 -1000 050/05 RMK AO2 T00780072 $
63870K0J4 0J420161220093011712/20/16 09:30:31  5-MIN K0J4 201430Z AUTO 03007KT 3SM BR OVC003 08/07 A3048 -190 96 -1000 030/07 RMK AO2 T00780072 $
63870K0J4 0J420161220093511712/20/16 09:35:31  5-MIN K0J4 201435Z AUTO 05006KT 4SM BR OVC003 08/07 A3048 -190 93 -1000 050/06 RMK AO2 T00780067 $
63870K0J4 0J420161220094011712/20/16 09:40:31  5-MIN K0J4 201440Z AUTO 03005KT 4SM BR OVC003 08/07 A3048 -190 96 -1000 030/05 RMK AO2 T00780072 $
63870K0J4 0J420161220094511712/20/16 09:45:31  5-MIN K0J4 201445Z AUTO 04005KT 3SM BR OVC003 08/07 A3048 -190 96 -1000 040/05 RMK AO2 T00780072 $
63870K0J4 0J420161220095011712/20/16 09:50:31  5-MIN K0J4 201450Z AUTO 04006KT 3SM BR OVC003 08/07 A3048 -190 96 -1000 040/06 RMK AO2 T00780072 $
63870K0J4 0J420161220095513012/20/16 09:55:31  5-MIN K0J4 201455Z AUTO 04006KT 5SM BR OVC002 08/07 A3048 -190 93 -1000 040/06 RMK AO2 SLP321 T00830072 51007 $
63870K0J4 0J420161220100011412/20/16 10:00:31  5-MIN K0J4 201500Z AUTO 04006KT 8SM OVC002 08/07 A3048 -190 93 -1000 040/06 RMK AO2 T00830072 $
63870K0J4 0J420161220100512712/20/16 10:05:31  5-MIN K0J4 201505Z AUTO 04006KT 10SM OVC003 08/07 A3048 -190 93 -1000 040/06 RMK AO2 CIG 002V005 T00830072 $
63870K0J4 0J420161220101012612/20/16 10:10:31  5-MIN K0J4 201510Z AUTO 04006KT 9SM OVC003 08/07 A3048 -190 93 -1000 040/06 RMK AO2 CIG 002V005 T00830072 $
63870K0J4 0J420161220101511412/20/16 10:15:31  5-MIN K0J4 201515Z AUTO 05006KT 8SM OVC003 08/07 A3048 -190 93 -1000 050/06 RMK AO2 T00830072 $
63870K0J4 0J420161220102011712/20/16 10:20:31  5-MIN K0J4 201520Z AUTO 03005KT 6SM BR OVC003 08/08 A3048 -190 96 -1000 030/05 RMK AO2 T00830078 $
63870K0J4 0J420161220102511712/20/16 10:25:31  5-MIN K0J4 201525Z AUTO 02006KT 4SM BR OVC003 08/08 A3048 -190 96 -1000 020/06 RMK AO2 T00830078 $
63870K0J4 0J420161220103011712/20/16 10:30:31  5-MIN K0J4 201530Z AUTO 02005KT 3SM BR OVC003 08/08 A3048 -190 96 -1000 020/05 RMK AO2 T00830078 $
63870K0J4 0J420161220103512112/20/16 10:35:31  5-MIN K0J4 201535Z AUTO 03006KT 2 1/2SM BR OVC003 08/07 A3047 -190 93 -1000 030/06 RMK AO2 T00830072 $
63870K0J4 0J420161220104011612/20/16 10:40:31  5-MIN K0J4 201540Z AUTO 03005KT 4SM BR OVC003 09/08 A3048 -190 93 -900 030/05 RMK AO2 T00890078 $
63870K0J4 0J420161220104511612/20/16 10:45:31  5-MIN K0J4 201545Z AUTO 01006KT 4SM BR OVC003 09/08 A3047 -190 93 -900 010/06 RMK AO2 T00890078 $
63870K0J4 0J420161220105013212/20/16 10:50:31  5-MIN K0J4 201550Z AUTO 04007KT 3SM -RA BR OVC003 09/08 A3048 -190 93 -900 040/07 RMK AO2 RAB47 P0000 T00890078 $
63870K0J4 0J420161220105513912/20/16 10:55:31  5-MIN K0J4 201555Z AUTO 03006KT 3SM -RA BR OVC003 09/08 A3048 -190 93 -900 030/06 RMK AO2 RAB47 SLP320 P0000 T00890078 $
63870K0J4 0J420161220110011612/20/16 11:00:31  5-MIN K0J4 201600Z AUTO 05006KT 6SM BR OVC003 09/08 A3047 -190 93 -900 050/06 RMK AO2 T00890078 $
63870K0J4 0J420161220110511612/20/16 11:05:31  5-MIN K0J4 201605Z AUTO 04006KT 6SM BR OVC003 09/08 A3047 -190 93 -900 040/06 RMK AO2 T00890078 $
63870K0J4 0J420161220111011612/20/16 11:10:31  5-MIN K0J4 201610Z AUTO 02005KT 3SM BR OVC003 09/08 A3047 -190 93 -900 020/05 RMK AO2 T00890078 $
63870K0J4 0J420161220111511612/20/16 11:15:31  5-MIN K0J4 201615Z AUTO 03005KT 3SM BR OVC003 09/08 A3047 -180 93 -900 030/05 RMK AO2 T00890078 $
63870K0J4 0J420161220112011612/20/16 11:20:31  5-MIN K0J4 201620Z AUTO 01005KT 4SM BR OVC003 09/08 A3047 -180 93 -900 010/05 RMK AO2 T00890078 $
63870K0J4 0J420161220112511612/20/16 11:25:31  5-MIN K0J4 201625Z AUTO 03004KT 3SM BR OVC003 09/08 A3047 -180 93 -900 030/04 RMK AO2 T00890078 $
63870K0J4 0J420161220113011612/20/16 11:30:31  5-MIN K0J4 201630Z AUTO 02006KT 3SM BR OVC003 09/08 A3046 -180 89 -800 020/06 RMK AO2 T00940078 $
63870K0J4 0J420161220113512812/20/16 11:35:31  5-MIN K0J4 201635Z AUTO 03005KT 5SM BR OVC003 09/08 A3046 -170 89 -800 030/05 RMK AO2 CIG 003V007 T00940078 $
63870K0J4 0J420161220114012512/20/16 11:40:31  5-MIN K0J4 201640Z AUTO 04005KT 9SM OVC005 09/08 A3046 -170 89 -800 040/05 RMK AO2 CIG 003V009 T00940078 $
63870K0J4 0J420161220114512612/20/16 11:45:31  5-MIN K0J4 201645Z AUTO 02004KT 10SM OVC005 10/08 A3045 -170 89 -700 020/04 RMK AO2 CIG 003V009 T01000083 $
63870K0J4 0J420161220115012612/20/16 11:50:31  5-MIN K0J4 201650Z AUTO 03005KT 10SM OVC005 10/08 A3045 -170 89 -700 030/05 RMK AO2 CIG 003V009 T01000083 $
63870K0J4 0J420161220115513212/20/16 11:55:31  5-MIN K0J4 201655Z AUTO 36006KT 9SM OVC005 09/08 A3045 -170 89 -800 360/06 RMK AO2 CIG 003V009 SLP312 T00940078 $
63870K0J4 0J420161220120012512/20/16 12:00:31  5-MIN K0J4 201700Z AUTO 01006KT 7SM OVC005 09/08 A3045 -170 89 -800 010/06 RMK AO2 CIG 003V008 T00940078 $
63870K0J4 0J420161220120511612/20/16 12:05:31  5-MIN K0J4 201705Z AUTO 01005KT 5SM BR OVC004 10/08 A3045 -160 86 -700 010/05 RMK AO2 T01000078 $
63870K0J4 0J420161220121011612/20/16 12:10:31  5-MIN K0J4 201710Z AUTO 36006KT 4SM BR OVC004 09/08 A3044 -160 89 -800 360/06 RMK AO2 T00940078 $
63870K0J4 0J420161220121511612/20/16 12:15:31  5-MIN K0J4 201715Z AUTO 02006KT 5SM BR OVC004 09/08 A3044 -160 89 -800 020/06 RMK AO2 T00940078 $
63870K0J4 0J420161220122011612/20/16 12:20:31  5-MIN K0J4 201720Z AUTO VRB05KT 5SM BR OVC004 10/08 A3044 -150 89 -700 VRB/05 RMK AO2 T01000083 $
63870K0J4 0J420161220122511612/20/16 12:25:31  5-MIN K0J4 201725Z AUTO 05006KT 6SM BR OVC004 10/08 A3043 -150 89 -700 050/06 RMK AO2 T01000083 $
63870K0J4 0J420161220123011312/20/16 12:30:31  5-MIN K0J4 201730Z AUTO 02005KT 9SM OVC004 10/08 A3043 -150 89 -700 020/05 RMK AO2 T01000083 $
63870K0J4 0J420161220123511412/20/16 12:35:31  5-MIN K0J4 201735Z AUTO 02004KT 10SM OVC004 10/08 A3043 -150 89 -700 020/04 RMK AO2 T01000083 $
63870K0J4 0J420161220124012612/20/16 12:40:31  5-MIN K0J4 201740Z AUTO 36005KT 10SM OVC004 11/08 A3043 -150 86 -600 360/05 RMK AO2 CIG 004V007 T01060083 $
63870K0J4 0J420161220124511412/20/16 12:45:31  5-MIN K0J4 201745Z AUTO 02006KT 10SM OVC004 10/08 A3043 -140 86 -700 020/06 RMK AO2 T01000078 $
63870K0J4 0J420161220125012612/20/16 12:50:31  5-MIN K0J4 201750Z AUTO 04007KT 10SM OVC006 10/08 A3042 -140 86 -700 040/07 RMK AO2 CIG 004V007 T01000078 $
63870K0J4 0J420161220125515712/20/16 12:55:31  5-MIN K0J4 201755Z AUTO 03004KT 10SM OVC006 11/08 A3042 -140 83 -600 030/04 RMK AO2 CIG 004V011 SLP300 60000 T01060078 10106 20067 53009 $
63870K0J4 0J420161220130012612/20/16 13:00:31  5-MIN K0J4 201800Z AUTO 36005KT 10SM OVC006 11/08 A3042 -130 86 -600 360/05 RMK AO2 CIG 005V009 T01060083 $
63870K0J4 0J420161220130511412/20/16 13:05:31  5-MIN K0J4 201805Z AUTO 36007KT 10SM OVC006 11/08 A3041 -130 83 -600 360/07 RMK AO2 T01060078 $
63870K0J4 0J420161220131011412/20/16 13:10:31  5-MIN K0J4 201810Z AUTO VRB04KT 10SM OVC006 11/08 A3041 -130 86 -600 VRB/04 RMK AO2 T01060083 $
63870K0J4 0J420161220131511412/20/16 13:15:31  5-MIN K0J4 201815Z AUTO 01007KT 10SM OVC006 11/08 A3040 -120 86 -600 010/07 RMK AO2 T01060083 $
63870K0J4 0J420161220132011412/20/16 13:20:31  5-MIN K0J4 201820Z AUTO 01005KT 10SM OVC006 11/08 A3040 -120 83 -600 010/05 RMK AO2 T01060078 $
63870K0J4 0J420161220132511412/20/16 13:25:31  5-MIN K0J4 201825Z AUTO 02005KT 10SM OVC006 11/08 A3040 -120 83 -600 020/05 RMK AO2 T01060078 $
63870K0J4 0J420161220133011412/20/16 13:30:31  5-MIN K0J4 201830Z AUTO 02006KT 10SM OVC006 11/08 A3040 -120 86 -600 020/06 RMK AO2 T01060083 $
63870K0J4 0J420161220133511412/20/16 13:35:31  5-MIN K0J4 201835Z AUTO 03004KT 10SM OVC006 11/08 A3040 -120 83 -600 030/04 RMK AO2 T01060078 $
63870K0J4 0J420161220134011412/20/16 13:40:31  5-MIN K0J4 201840Z AUTO 01006KT 10SM OVC006 11/08 A3039 -110 83 -500 010/06 RMK AO2 T01110083 $
63870K0J4 0J420161220134511412/20/16 13:45:31  5-MIN K0J4 201845Z AUTO 36005KT 10SM OVC007 11/08 A3039 -110 86 -600 360/05 RMK AO2 T01060083 $
63870K0J4 0J420161220135011412/20/16 13:50:31  5-MIN K0J4 201850Z AUTO 03006KT 10SM OVC007 11/08 A3038 -100 83 -500 030/06 RMK AO2 T01110083 $
63870K0J4 0J420161220135512112/20/16 13:55:31  5-MIN K0J4 201855Z AUTO 36003KT 10SM OVC007 11/08 A3038 -100 86 -600 360/03 RMK AO2 SLP287 T01060083 $
63870K0J4 0J420161220140011312/20/16 14:00:31  5-MIN K0J4 201900Z AUTO 35006KT 10SM OVC007 11/08 A3037 -90 83 -500 350/06 RMK AO2 T01110083 $
63870K0J4 0J420161220140511312/20/16 14:05:31  5-MIN K0J4 201905Z AUTO VRB04KT 10SM OVC007 11/08 A3037 -90 83 -500 VRB/04 RMK AO2 T01110083 $
63870K0J4 0J420161220141011312/20/16 14:10:31  5-MIN K0J4 201910Z AUTO VRB05KT 10SM OVC007 11/08 A3037 -90 83 -500 VRB/05 RMK AO2 T01110083 $
63870K0J4 0J420161220141511312/20/16 14:15:31  5-MIN K0J4 201915Z AUTO 35005KT 10SM OVC007 11/08 A3037 -90 83 -500 350/05 RMK AO2 T01110083 $
63870K0J4 0J420161220142011312/20/16 14:20:31  5-MIN K0J4 201920Z AUTO 01005KT 10SM OVC007 11/08 A3037 -90 83 -500 010/05 RMK AO2 T01110083 $
63870K0J4 0J420161220142511312/20/16 14:25:31  5-MIN K0J4 201925Z AUTO 36006KT 10SM OVC007 11/08 A3037 -90 83 -500 360/06 RMK AO2 T01110083 $
63870K0J4 0J420161220143011312/20/16 14:30:31  5-MIN K0J4 201930Z AUTO 02007KT 10SM OVC007 11/08 A3037 -90 83 -500 020/07 RMK AO2 T01110083 $
63870K0J4 0J420161220143511312/20/16 14:35:31  5-MIN K0J4 201935Z AUTO 03003KT 10SM OVC007 11/08 A3037 -90 83 -500 030/03 RMK AO2 T01110083 $
63870K0J4 0J420161220144011312/20/16 14:40:31  5-MIN K0J4 201940Z AUTO 03007KT 10SM OVC007 11/08 A3036 -90 83 -500 030/07 RMK AO2 T01110083 $
63870K0J4 0J420161220144511312/20/16 14:45:31  5-MIN K0J4 201945Z AUTO 34005KT 10SM OVC007 11/08 A3036 -90 83 -500 340/05 RMK AO2 T01110083 $
63870K0J4 0J420161220145011312/20/16 14:50:31  5-MIN K0J4 201950Z AUTO VRB03KT 10SM OVC007 11/08 A3036 -80 83 -500 VRB/03 RMK AO2 T01110083 $
63870K0J4 0J420161220145512012/20/16 14:55:31  5-MIN K0J4 201955Z AUTO 01004KT 10SM OVC008 11/08 A3036 -80 83 -500 010/04 RMK AO2 SLP280 T01110083 $
63870K0J4 0J420161220150011312/20/16 15:00:31  5-MIN K0J4 202000Z AUTO 33003KT 10SM OVC008 11/08 A3036 -80 83 -500 330/03 RMK AO2 T01110083 $
63870K0J4 0J420161220150511312/20/16 15:05:31  5-MIN K0J4 202005Z AUTO VRB04KT 10SM OVC008 11/08 A3036 -80 83 -500 VRB/04 RMK AO2 T01110083 $
63870K0J4 0J420161220151011312/20/16 15:10:31  5-MIN K0J4 202010Z AUTO 01007KT 10SM OVC008 11/08 A3036 -80 83 -500 010/07 RMK AO2 T01110083 $
63870K0J4 0J420161220151511312/20/16 15:15:31  5-MIN K0J4 202015Z AUTO 02008KT 10SM OVC008 11/08 A3036 -80 83 -500 020/08 RMK AO2 T01110083 $
63870K0J4 0J420161220152011312/20/16 15:20:31  5-MIN K0J4 202020Z AUTO 02005KT 10SM OVC008 11/08 A3036 -80 83 -500 020/05 RMK AO2 T01110083 $
63870K0J4 0J420161220152511312/20/16 15:25:31  5-MIN K0J4 202025Z AUTO 02005KT 10SM OVC008 11/08 A3036 -90 83 -500 020/05 RMK AO2 T01110083 $
63870K0J4 0J420161220153011312/20/16 15:30:31  5-MIN K0J4 202030Z AUTO 01005KT 10SM OVC008 11/08 A3036 -80 83 -500 010/05 RMK AO2 T01110083 $
63870K0J4 0J420161220153511312/20/16 15:35:31  5-MIN K0J4 202035Z AUTO 36005KT 10SM OVC008 11/08 A3036 -80 83 -500 360/05 RMK AO2 T01110083 $
63870K0J4 0J420161220154011312/20/16 15:40:31  5-MIN K0J4 202040Z AUTO VRB04KT 10SM OVC007 11/08 A3036 -80 83 -500 VRB/04 RMK AO2 T01110083 $
63870K0J4 0J420161220154511312/20/16 15:45:31  5-MIN K0J4 202045Z AUTO 35004KT 10SM OVC007 11/08 A3036 -80 86 -500 350/04 RMK AO2 T01060083 $
63870K0J4 0J420161220155011312/20/16 15:50:31  5-MIN K0J4 202050Z AUTO 36006KT 10SM OVC007 11/08 A3036 -80 86 -500 360/06 RMK AO2 T01060083 $
63870K0J4 0J420161220155512612/20/16 15:55:31  5-MIN K0J4 202055Z AUTO 36006KT 10SM OVC007 11/08 A3035 -70 86 -500 360/06 RMK AO2 SLP277 T01060083 58022 $
63870K0J4 0J420161220160011312/20/16 16:00:31  5-MIN K0J4 202100Z AUTO 02005KT 10SM OVC007 11/08 A3035 -70 86 -500 020/05 RMK AO2 T01060083 $
63870K0J4 0J420161220160511312/20/16 16:05:31  5-MIN K0J4 202105Z AUTO 01004KT 10SM OVC007 11/08 A3035 -80 86 -500 010/04 RMK AO2 T01060083 $
63870K0J4 0J420161220161011312/20/16 16:10:31  5-MIN K0J4 202110Z AUTO 02005KT 10SM OVC007 11/08 A3035 -80 86 -500 020/05 RMK AO2 T01060083 $
63870K0J4 0J420161220161511312/20/16 16:15:31  5-MIN K0J4 202115Z AUTO 36005KT 10SM OVC007 11/08 A3035 -70 86 -500 360/05 RMK AO2 T01060083 $
63870K0J4 0J420161220162011312/20/16 16:20:31  5-MIN K0J4 202120Z AUTO VRB04KT 10SM OVC007 11/08 A3035 -70 86 -500 VRB/04 RMK AO2 T01060083 $
63870K0J4 0J420161220162511312/20/16 16:25:31  5-MIN K0J4 202125Z AUTO 02004KT 10SM OVC007 11/08 A3035 -70 86 -500 020/04 RMK AO2 T01060083 $
63870K0J4 0J420161220163011312/20/16 16:30:31  5-MIN K0J4 202130Z AUTO 03005KT 10SM OVC006 11/08 A3035 -70 86 -500 030/05 RMK AO2 T01060083 $
63870K0J4 0J420161220163511312/20/16 16:35:31  5-MIN K0J4 202135Z AUTO 01004KT 10SM OVC006 11/08 A3035 -70 86 -500 010/04 RMK AO2 T01060083 $
63870K0J4 0J420161220164011312/20/16 16:40:31  5-MIN K0J4 202140Z AUTO 34004KT 10SM OVC006 11/08 A3035 -80 86 -500 340/04 RMK AO2 T01060083 $
63870K0J4 0J420161220164511312/20/16 16:45:31  5-MIN K0J4 202145Z AUTO 36004KT 10SM OVC006 11/08 A3036 -80 86 -500 360/04 RMK AO2 T01060083 $
63870K0J4 0J420161220165011312/20/16 16:50:31  5-MIN K0J4 202150Z AUTO 35005KT 10SM OVC006 11/08 A3036 -80 86 -600 350/05 RMK AO2 T01060083 $
63870K0J4 0J420161220165512012/20/16 16:55:31  5-MIN K0J4 202155Z AUTO VRB03KT 10SM OVC006 11/08 A3036 -80 86 -500 VRB/03 RMK AO2 SLP280 T01060083 $
63870K0J4 0J420161220170011312/20/16 17:00:31  5-MIN K0J4 202200Z AUTO 01003KT 10SM OVC006 11/08 A3035 -80 86 -500 010/03 RMK AO2 T01060083 $
63870K0J4 0J420161220170511312/20/16 17:05:31  5-MIN K0J4 202205Z AUTO 35004KT 10SM OVC006 11/08 A3035 -80 86 -500 350/04 RMK AO2 T01060083 $
63870K0J4 0J420161220171011312/20/16 17:10:31  5-MIN K0J4 202210Z AUTO 35004KT 10SM OVC005 10/08 A3036 -80 89 -600 350/04 RMK AO2 T01000083 $
63870K0J4 0J420161220171511312/20/16 17:15:31  5-MIN K0J4 202215Z AUTO 35004KT 10SM OVC005 10/08 A3036 -80 89 -600 350/04 RMK AO2 T01000083 $
63870K0J4 0J420161220172011312/20/16 17:20:31  5-MIN K0J4 202220Z AUTO 35005KT 10SM OVC005 10/08 A3036 -80 89 -600 350/05 RMK AO2 T01000083 $
63870K0J4 0J420161220172511312/20/16 17:25:31  5-MIN K0J4 202225Z AUTO VRB06KT 10SM OVC005 10/08 A3036 -80 89 -600 VRB/06 RMK AO2 T01000083 $
63870K0J4 0J420161220173011312/20/16 17:30:31  5-MIN K0J4 202230Z AUTO VRB04KT 10SM OVC005 10/08 A3036 -80 89 -600 VRB/04 RMK AO2 T01000083 $
63870K0J4 0J420161220173511312/20/16 17:35:31  5-MIN K0J4 202235Z AUTO 36005KT 10SM OVC005 10/08 A3035 -70 89 -600 360/05 RMK AO2 T01000083 $
63870K0J4 0J420161220174011212/20/16 17:40:31  5-MIN K0J4 202240Z AUTO 35006KT 9SM OVC005 10/08 A3036 -80 89 -600 350/06 RMK AO2 T01000083 $
63870K0J4 0J420161220174504912/20/16 17:45:31  5-MIN K0J4 202245Z A00890078 $
63870K0J4 0J420161220193011512/20/16 19:30:31  5-MIN K0J4 210030Z AUTO 01005KT 6SM BR OVC002 09/08 A3037 -90 93 -800 010/05 RMK AO2 T00890078 $
63870K0J4 0J420161220193511512/20/16 19:35:31  5-MIN K0J4 210035Z AUTO 02007KT 5SM BR OVC002 09/08 A3036 -90 93 -800 020/07 RMK AO2 T00890078 $
63870K0J4 0J420161220194011512/20/16 19:40:31  5-MIN K0J4 210040Z AUTO 02007KT 5SM BR OVC002 09/08 A3036 -80 93 -800 020/07 RMK AO2 T00890078 $
63870K0J4 0J420161220194511512/20/16 19:45:31  5-MIN K0J4 210045Z AUTO 03008KT 5SM BR OVC002 09/07 A3036 -90 89 -800 030/08 RMK AO2 T00890072 $
63870K0J4 0J420161220195011512/20/16 19:50:31  5-MIN K0J4 210050Z AUTO 03008KT 5SM BR OVC002 09/08 A3036 -80 93 -800 030/08 RMK AO2 T00890078 $
63870K0J4 0J420161220195512212/20/16 19:55:31  5-MIN K0J4 210055Z AUTO 03006KT 5SM BR OVC002 09/08 A3036 -80 93 -800 030/06 RMK AO2 SLP281 T00890078 $
63870K0J4 0J420161220200011512/20/16 20:00:31  5-MIN K0J4 210100Z AUTO 04007KT 5SM BR OVC002 09/08 A3036 -80 93 -800 040/07 RMK AO2 T00890078 $
63870K0J4 0J420161220200511512/20/16 20:05:31  5-MIN K0J4 210105Z AUTO 03008KT 5SM BR OVC002 09/08 A3036 -80 93 -800 030/08 RMK AO2 T00890078 $
63870K0J4 0J420161220201007112/20/16 20:10:31  5-MIN K0J4 210110Z AUTO 02006KT 4SM BR OVC002 08/07 
63870K0J4 0J420161220201011512/20/16 20:10:31  5-MIN K0J4 210110Z AUTO 02006KT 4SM BR OVC002 08/07 A3036 -80 93 -800 020/06 RMK AO2 T00830072 $
63870K0J4 0J420161220201511512/20/16 20:15:31  5-MIN K0J4 210115Z AUTO 03005KT 3SM BR OVC002 08/08 A3036 -80 96 -800 030/05 RMK AO2 T00830078 $
63870K0J4 0J420161220202011512/20/16 20:20:31  5-MIN K0J4 210120Z AUTO 02006KT 3SM BR OVC001 09/08 A3036 -80 93 -800 020/06 RMK AO2 T00890078 $
63870K0J4 0J420161220202511512/20/16 20:25:31  5-MIN K0J4 210125Z AUTO 02005KT 3SM BR OVC001 08/08 A3036 -90 96 -800 020/05 RMK AO2 T00830078 $
63870K0J4 0J420161220203011512/20/16 20:30:31  5-MIN K0J4 210130Z AUTO 03005KT 4SM BR OVC001 09/08 A3036 -80 93 -800 030/05 RMK AO2 T00890078 $
63870K0J4 0J420161220204007312/20/16 20:40:31  5-MIN K0J4 210140Z AUTO 01006KT M M M 010/06 RMK AO2 $
63870K0J4 0J420161220204510112/20/16 20:45:31  5-MIN K0J4 210145Z AUTO 36005KT 08/07 A3036 -80 93 -800 360/05 RMK AO2 T00830072 $
63870K0J4 0J420161220205011212/20/16 20:50:31  5-MIN K0J4 210150Z AUTO 03005KT 2 1/2SM BR 08/08 A3036 -80 96 -800 030/05 RMK AO2 T00830078 $
63870K0J4 0J420161220205511512/20/16 20:55:31  5-MIN K0J4 210155Z AUTO 02008KT 2SM BR 08/08 A3036 -80 96 -800 020/08 RMK AO2 SLP280 T00830078 $
63870K0J4 0J420161220210010812/20/16 21:00:31  5-MIN K0J4 210200Z AUTO 03008KT 2SM BR 08/07 A3036 -80 93 -800 030/08 RMK AO2 T00830072 $
63870K0J4 0J420161220210510812/20/16 21:05:31  5-MIN K0J4 210205Z AUTO 01007KT 2SM BR 08/07 A3036 -80 93 -800 010/07 RMK AO2 T00830072 $
63870K0J4 0J420161220211011912/20/16 21:10:31  5-MIN K0J4 210210Z AUTO 03006KT 2 1/2SM BR OVC001 08/07 A3036 -80 93 -800 030/06 RMK AO2 T00830072 $
63870K0J4 0J420161220211511512/20/16 21:15:31  5-MIN K0J4 210215Z AUTO 02005KT 2SM BR OVC001 08/07 A3036 -80 93 -800 020/05 RMK AO2 T00830072 $
63870K0J4 0J420161220212011512/20/16 21:20:31  5-MIN K0J4 210220Z AUTO 02006KT 2SM BR OVC001 08/07 A3035 -80 93 -800 020/06 RMK AO2 T00830072 $
63870K0J4 0J420161220212511512/20/16 21:25:31  5-MIN K0J4 210225Z AUTO 02006KT 2SM BR OVC001 08/07 A3036 -80 93 -800 020/06 RMK AO2 T00830072 $
63870K0J4 0J420161220213011912/20/16 21:30:31  5-MIN K0J4 210230Z AUTO 01006KT 2 1/2SM BR OVC001 08/07 A3036 -80 93 -800 010/06 RMK AO2 T00830072 $
63870K0J4 0J420161220213511512/20/16 21:35:31  5-MIN K0J4 210235Z AUTO 01006KT 2SM BR OVC001 08/07 A3036 -80 93 -800 010/06 RMK AO2 T00830072 $
63870K0J4 0J420161220214011512/20/16 21:40:31  5-MIN K0J4 210240Z AUTO 01006KT 2SM BR OVC001 08/07 A3036 -80 93 -800 010/06 RMK AO2 T00830072 $
63870K0J4 0J420161220214511512/20/16 21:45:31  5-MIN K0J4 210245Z AUTO 03007KT 2SM BR OVC001 08/07 A3036 -80 93 -800 030/07 RMK AO2 T00830072 $
63870K0J4 0J420161220215011512/20/16 21:50:31  5-MIN K0J4 210250Z AUTO 04009KT 3SM BR OVC001 08/07 A3036 -80 93 -800 040/09 RMK AO2 T00830072 $
63870K0J4 0J420161220215512212/20/16 21:55:31  5-MIN K0J4 210255Z AUTO 04005KT 3SM BR OVC001 08/07 A3036 -80 93 -800 040/05 RMK AO2 SLP280 T00830072 $
63870K0J4 0J420161220220011912/20/16 22:00:31  5-MIN K0J4 210300Z AUTO 03006KT 2 1/2SM BR OVC001 08/07 A3036 -80 93 -800 030/06 RMK AO2 T00830072 $
63870K0J4 0J420161220220511512/20/16 22:05:31  5-MIN K0J4 210305Z AUTO 03006KT 3SM BR OVC001 08/07 A3036 -80 96 -900 030/06 RMK AO2 T00780072 $
63870K0J4 0J420161220221012712/20/16 22:10:31  5-MIN K0J4 210310Z AUTO 02008KT 5SM BR OVC003 08/07 A3036 -80 93 -800 020/08 RMK AO2 CIG 001V005 T00830072 $
63870K0J4 0J420161220221512412/20/16 22:15:31  5-MIN K0J4 210315Z AUTO 02007KT 7SM OVC003 08/07 A3036 -80 89 -800 020/07 RMK AO2 CIG 001V006 T00830067 $
63870K0J4 0J420161220222012712/20/16 22:20:31  5-MIN K0J4 210320Z AUTO 02006KT 5SM BR OVC003 08/07 A3036 -90 89 -800 020/06 RMK AO2 CIG 001V006 T00830067 $
63870K0J4 0J420161220222512712/20/16 22:25:31  5-MIN K0J4 210325Z AUTO 03005KT 5SM BR OVC003 08/07 A3037 -90 93 -900 030/05 RMK AO2 CIG 001V006 T00780067 $
63870K0J4 0J420161220223012712/20/16 22:30:31  5-MIN K0J4 210330Z AUTO 02005KT 5SM BR OVC003 08/07 A3036 -90 93 -900 020/05 RMK AO2 CIG 002V006 T00780067 $
63870K0J4 0J420161220223511512/20/16 22:35:31  5-MIN K0J4 210335Z AUTO 01005KT 6SM BR OVC003 08/07 A3036 -90 93 -900 010/05 RMK AO2 T00780067 $
63870K0J4 0J420161220224011212/20/16 22:40:31  5-MIN K0J4 210340Z AUTO 03007KT 8SM OVC003 08/07 A3036 -90 89 -800 030/07 RMK AO2 T00830067 $
63870K0J4 0J420161220224511212/20/16 22:45:31  5-MIN K0J4 210345Z AUTO 03006KT 9SM OVC004 08/07 A3036 -80 89 -800 030/06 RMK AO2 T00830067 $
63870K0J4 0J420161220225011312/20/16 22:50:31  5-MIN K0J4 210350Z AUTO 01006KT 10SM OVC004 08/07 A3036 -80 89 -800 010/06 RMK AO2 T00830067 $
63870K0J4 0J420161220225512012/20/16 22:55:31  5-MIN K0J4 210355Z AUTO 01007KT 10SM OVC004 08/07 A3036 -90 93 -900 010/07 RMK AO2 SLP281 T00780067 $
63870K0J4 0J420161220230011312/20/16 23:00:31  5-MIN K0J4 210400Z AUTO 03004KT 10SM OVC005 08/07 A3036 -90 93 -900 030/04 RMK AO2 T00780067 $
63870K0J4 0J420161220230511212/20/16 23:05:31  5-MIN K0J4 210405Z AUTO 04004KT 8SM OVC005 08/07 A3037 -90 93 -900 040/04 RMK AO2 T00780067 $
63870K0J4 0J420161220231011212/20/16 23:10:31  5-MIN K0J4 210410Z AUTO 03005KT 8SM OVC005 08/07 A3037 -90 89 -800 030/05 RMK AO2 T00830067 $
63870K0J4 0J420161220231511212/20/16 23:15:31  5-MIN K0J4 210415Z AUTO 06006KT 9SM OVC005 08/07 A3036 -80 89 -800 060/06 RMK AO2 T00830067 $
63870K0J4 0J420161220232011312/20/16 23:20:31  5-MIN K0J4 210420Z AUTO 04006KT 10SM OVC005 08/07 A3036 -80 89 -800 040/06 RMK AO2 T00830067 $
63870K0J4 0J420161220232512512/20/16 23:25:31  5-MIN K0J4 210425Z AUTO 02004KT 10SM OVC005 08/07 A3035 -80 89 -800 020/04 RMK AO2 CIG 003V007 T00830067 $
63870K0J4 0J420161220233012512/20/16 23:30:31  5-MIN K0J4 210430Z AUTO 02005KT 10SM OVC005 08/07 A3035 -70 89 -800 020/05 RMK AO2 CIG 003V008 T00830067 $
63870K0J4 0J420161220233511312/20/16 23:35:31  5-MIN K0J4 210435Z AUTO 02003KT 10SM OVC007 08/07 A3035 -70 89 -800 020/03 RMK AO2 T00830067 $
63870K0J4 0J420161220234011312/20/16 23:40:31  5-MIN K0J4 210440Z AUTO 03004KT 10SM OVC007 08/07 A3034 -70 89 -800 030/04 RMK AO2 T00830067 $
63870K0J4 0J420161220234511312/20/16 23:45:31  5-MIN K0J4 210445Z AUTO 03005KT 10SM OVC007 08/07 A3034 -70 89 -800 030/05 RMK AO2 T00830067 $
63870K0J4 0J420161220235011312/20/16 23:50:31  5-MIN K0J4 210450Z AUTO 04004KT 10SM OVC006 08/07 A3034 -60 89 -800 040/04 RMK AO2 T00830067 $
63870K0J4 0J420161220235513012/20/16 23:55:31  5-MIN K0J4 210455Z AUTO 06004KT 10SM OVC006 08/07 A3034 -70 89 -800 060/04 RMK AO2 SLP274 T00830067 401110056 $
63870K0J4 0J420161221000011312/21/16 00:00:31  5-MIN K0J4 210500Z AUTO 06005KT 10SM OVC006 08/07 A3033 -60 89 -800 060/05 RMK AO2 T00830067 $
63870K0J4 0J420161221000511312/21/16 00:05:31  5-MIN K0J4 210505Z AUTO 07003KT 10SM OVC006 08/07 A3033 -60 89 -800 070/03 RMK AO2 T00830067 $
63870K0J4 0J420161221001011312/21/16 00:10:31  5-MIN K0J4 210510Z AUTO VRB04KT 10SM OVC007 08/07 A3033 -60 89 -800 VRB/04 RMK AO2 T00830067 $
63870K0J4 0J420161221001511312/21/16 00:15:31  5-MIN K0J4 210515Z AUTO 05004KT 10SM OVC007 08/06 A3033 -60 86 -800 050/04 RMK AO2 T00830061 $
63870K0J4 0J420161221002011312/21/16 00:20:31  5-MIN K0J4 210520Z AUTO 04003KT 10SM OVC007 08/06 A3033 -50 86 -800 040/03 RMK AO2 T00830061 $
63870K0J4 0J420161221002511312/21/16 00:25:31  5-MIN K0J4 210525Z AUTO 00000KT 10SM OVC007 08/07 A3033 -50 89 -800 000/00 RMK AO2 T00830067 $
63870K0J4 0J420161221003011312/21/16 00:30:31  5-MIN K0J4 210530Z AUTO 07003KT 10SM OVC007 08/06 A3032 -50 86 -800 070/03 RMK AO2 T00830061 $
63870K0J4 0J420161221003511312/21/16 00:35:31  5-MIN K0J4 210535Z AUTO 09003KT 10SM OVC007 08/06 A3032 -50 86 -800 090/03 RMK AO2 T00830061 $
63870K0J4 0J420161221004011312/21/16 00:40:31  5-MIN K0J4 210540Z AUTO 05003KT 10SM OVC007 08/06 A3032 -50 86 -800 050/03 RMK AO2 T00830061 $
63870K0J4 0J420161221004511312/21/16 00:45:31  5-MIN K0J4 210545Z AUTO 00000KT 10SM OVC007 08/06 A3032 -50 86 -800 000/00 RMK AO2 T00830061 $
63870K0J4 0J420161221005011312/21/16 00:50:31  5-MIN K0J4 210550Z AUTO 00000KT 10SM OVC007 08/06 A3032 -50 86 -800 000/00 RMK AO2 T00830061 $
63870K0J4 0J420161221005513212/21/16 00:55:31  5-MIN K0J4 210555Z AUTO 03003KT 10SM OVC006 08/06 A3032 -40 86 -800 030/03 RMK AO2 SLP266 T00830061 10089 20078 $
63870K0J4 0J420161221010011312/21/16 01:00:31  5-MIN K0J4 210600Z AUTO 05003KT 10SM OVC006 08/06 A3032 -50 86 -800 050/03 RMK AO2 T00830061 $
63870K0J4 0J420161221010511312/21/16 01:05:31  5-MIN K0J4 210605Z AUTO 03004KT 10SM OVC006 08/06 A3032 -50 86 -800 030/04 RMK AO2 T00830061 $
63870K0J4 0J420161221011011312/21/16 01:10:31  5-MIN K0J4 210610Z AUTO 00000KT 10SM OVC006 08/06 A3032 -40 86 -800 000/00 RMK AO2 T00830061 $
63870K0J4 0J420161221011511312/21/16 01:15:31  5-MIN K0J4 210615Z AUTO 01003KT 10SM OVC006 08/06 A3032 -50 86 -800 010/03 RMK AO2 T00830061 $
63870K0J4 0J420161221012011312/21/16 01:20:31  5-MIN K0J4 210620Z AUTO 01003KT 10SM OVC006 08/06 A3032 -50 86 -800 010/03 RMK AO2 T00830061 $
63870K0J4 0J420161221012511312/21/16 01:25:31  5-MIN K0J4 210625Z AUTO 00000KT 10SM OVC006 08/06 A3032 -40 86 -800 000/00 RMK AO2 T00830061 $
63870K0J4 0J420161221013011312/21/16 01:30:31  5-MIN K0J4 210630Z AUTO 00000KT 10SM OVC007 08/06 A3032 -40 86 -800 000/00 RMK AO2 T00830061 $
63870K0J4 0J420161221013511312/21/16 01:35:31  5-MIN K0J4 210635Z AUTO 01003KT 10SM OVC007 08/06 A3032 -40 86 -800 010/03 RMK AO2 T00830061 $
63870K0J4 0J420161221014011312/21/16 01:40:31  5-MIN K0J4 210640Z AUTO 02003KT 10SM OVC007 08/06 A3032 -40 86 -800 020/03 RMK AO2 T00830061 $
63870K0J4 0J420161221014511312/21/16 01:45:31  5-MIN K0J4 210645Z AUTO 02004KT 10SM OVC007 08/06 A3031 -40 86 -800 020/04 RMK AO2 T00830061 $
63870K0J4 0J420161221015011312/21/16 01:50:31  5-MIN K0J4 210650Z AUTO 05004KT 10SM OVC007 08/06 A3031 -40 86 -800 050/04 RMK AO2 T00830061 $
63870K0J4 0J420161221015512012/21/16 01:55:31  5-MIN K0J4 210655Z AUTO 04004KT 10SM OVC007 08/06 A3031 -40 86 -800 040/04 RMK AO2 SLP264 T00830061 $
63870K0J4 0J420161221020011312/21/16 02:00:31  5-MIN K0J4 210700Z AUTO 02004KT 10SM OVC007 08/06 A3031 -40 89 -800 020/04 RMK AO2 T00780061 $
63870K0J4 0J420161221020511312/21/16 02:05:31  5-MIN K0J4 210705Z AUTO 03004KT 10SM OVC007 08/06 A3031 -40 89 -800 030/04 RMK AO2 T00780061 $
63870K0J4 0J420161221021011312/21/16 02:10:31  5-MIN K0J4 210710Z AUTO 03004KT 10SM OVC007 08/06 A3031 -40 89 -800 030/04 RMK AO2 T00780061 $
63870K0J4 0J420161221021511312/21/16 02:15:31  5-MIN K0J4 210715Z AUTO 02004KT 10SM OVC007 08/06 A3031 -40 89 -800 020/04 RMK AO2 T00780061 $
63870K0J4 0J420161221022011312/21/16 02:20:31  5-MIN K0J4 210720Z AUTO 06004KT 10SM OVC007 08/06 A3031 -40 89 -800 060/04 RMK AO2 T00780061 $
63870K0J4 0J420161221022511312/21/16 02:25:31  5-MIN K0J4 210725Z AUTO 03004KT 10SM OVC007 08/06 A3031 -40 89 -800 030/04 RMK AO2 T00780061 $
63870K0J4 0J420161221023011312/21/16 02:30:31  5-MIN K0J4 210730Z AUTO 05004KT 10SM OVC007 08/06 A3031 -30 89 -800 050/04 RMK AO2 T00780061 $
63870K0J4 0J420161221023511312/21/16 02:35:31  5-MIN K0J4 210735Z AUTO 03004KT 10SM OVC007 08/06 A3031 -40 89 -800 030/04 RMK AO2 T00780061 $
63870K0J4 0J420161221024011312/21/16 02:40:31  5-MIN K0J4 210740Z AUTO 05004KT 10SM OVC007 08/06 A3031 -40 89 -800 050/04 RMK AO2 T00780061 $
63870K0J4 0J420161221024511312/21/16 02:45:31  5-MIN K0J4 210745Z AUTO 05003KT 10SM OVC007 08/06 A3031 -40 89 -800 050/03 RMK AO2 T00780061 $
63870K0J4 0J420161221025011312/21/16 02:50:31  5-MIN K0J4 210750Z AUTO 06004KT 10SM OVC006 08/06 A3031 -40 89 -800 060/04 RMK AO2 T00780061 $
63870K0J4 0J420161221025512012/21/16 02:55:31  5-MIN K0J4 210755Z AUTO 03004KT 10SM OVC006 08/06 A3031 -40 89 -800 030/04 RMK AO2 SLP263 T00780061 $
63870K0J4 0J420161221030011312/21/16 03:00:31  5-MIN K0J4 210800Z AUTO 03004KT 10SM OVC006 08/06 A3031 -40 89 -800 030/04 RMK AO2 T00780061 $
63870K0J4 0J420161221030511312/21/16 03:05:31  5-MIN K0J4 210805Z AUTO 04004KT 10SM OVC006 08/06 A3031 -40 89 -800 040/04 RMK AO2 T00780061 $
63870K0J4 0J420161221031011312/21/16 03:10:31  5-MIN K0J4 210810Z AUTO 06003KT 10SM OVC006 08/06 A3031 -30 89 -800 060/03 RMK AO2 T00780061 $
63870K0J4 0J420161221031511312/21/16 03:15:31  5-MIN K0J4 210815Z AUTO 00000KT 10SM OVC006 08/06 A3031 -30 89 -800 000/00 RMK AO2 T00780061 $
63870K0J4 0J420161221032011312/21/16 03:20:31  5-MIN K0J4 210820Z AUTO 03004KT 10SM OVC006 08/06 A3031 -30 89 -800 030/04 RMK AO2 T00780061 $
63870K0J4 0J420161221032511312/21/16 03:25:31  5-MIN K0J4 210825Z AUTO 02003KT 10SM OVC006 08/06 A3031 -30 89 -800 020/03 RMK AO2 T00780061 $
63870K0J4 0J420161221033011312/21/16 03:30:31  5-MIN K0J4 210830Z AUTO 03005KT 10SM OVC006 08/06 A3031 -30 89 -800 030/05 RMK AO2 T00780061 $
63870K0J4 0J420161221033511312/21/16 03:35:31  5-MIN K0J4 210835Z AUTO 06005KT 10SM OVC006 08/06 A3031 -40 89 -800 060/05 RMK AO2 T00780061 $
63870K0J4 0J420161221034011312/21/16 03:40:31  5-MIN K0J4 210840Z AUTO 05005KT 10SM OVC006 08/06 A3031 -40 89 -800 050/05 RMK AO2 T00780061 $
63870K0J4 0J420161221034511312/21/16 03:45:31  5-MIN K0J4 210845Z AUTO 04003KT 10SM OVC005 08/06 A3031 -40 89 -800 040/03 RMK AO2 T00780061 $
63870K0J4 0J420161221035011312/21/16 03:50:31  5-MIN K0J4 210850Z AUTO 04004KT 10SM OVC005 08/06 A3031 -40 89 -800 040/04 RMK AO2 T00780061 $
63870K0J4 0J420161221035512612/21/16 03:55:31  5-MIN K0J4 210855Z AUTO 04005KT 10SM OVC005 08/06 A3031 -40 86 -800 040/05 RMK AO2 SLP263 T00780056 58014 $
63870K0J4 0J420161221040011312/21/16 04:00:31  5-MIN K0J4 210900Z AUTO 06004KT 10SM OVC005 07/06 A3031 -40 89 -900 060/04 RMK AO2 T00720056 $
63870K0J4 0J420161221040511312/21/16 04:05:31  5-MIN K0J4 210905Z AUTO 07004KT 10SM OVC005 07/06 A3031 -40 89 -900 070/04 RMK AO2 T00720056 $
63870K0J4 0J420161221041011312/21/16 04:10:31  5-MIN K0J4 210910Z AUTO 06004KT 10SM OVC005 07/06 A3031 -40 89 -900 060/04 RMK AO2 T00720056 $
63870K0J4 0J420161221041511312/21/16 04:15:31  5-MIN K0J4 210915Z AUTO 07005KT 10SM OVC004 07/06 A3031 -40 89 -900 070/05 RMK AO2 T00720056 $
63870K0J4 0J420161221042011312/21/16 04:20:31  5-MIN K0J4 210920Z AUTO 06003KT 10SM OVC004 07/06 A3031 -40 89 -900 060/03 RMK AO2 T00720056 $
63870K0J4 0J420161221042511312/21/16 04:25:31  5-MIN K0J4 210925Z AUTO 06003KT 10SM OVC004 07/06 A3031 -30 89 -900 060/03 RMK AO2 T00720056 $
63870K0J4 0J420161221043011312/21/16 04:30:31  5-MIN K0J4 210930Z AUTO 07003KT 10SM OVC004 07/06 A3031 -30 89 -900 070/03 RMK AO2 T00720056 $
63870K0J4 0J420161221043511312/21/16 04:35:31  5-MIN K0J4 210935Z AUTO 06003KT 10SM OVC004 07/06 A3031 -30 93 -900 060/03 RMK AO2 T00720061 $
63870K0J4 0J420161221044011312/21/16 04:40:31  5-MIN K0J4 210940Z AUTO 03005KT 10SM OVC004 07/06 A3031 -30 93 -900 030/05 RMK AO2 T00720061 $
63870K0J4 0J420161221044511312/21/16 04:45:31  5-MIN K0J4 210945Z AUTO 02005KT 10SM OVC004 07/06 A3030 -30 89 -900 020/05 RMK AO2 T00720056 $
63870K0J4 0J420161221045011312/21/16 04:50:31  5-MIN K0J4 210950Z AUTO 00000KT 10SM OVC004 07/06 A3030 -30 89 -900 000/00 RMK AO2 T00720056 $
63870K0J4 0J420161221045512012/21/16 04:55:31  5-MIN K0J4 210955Z AUTO 02003KT 10SM OVC004 07/06 A3030 -30 89 -900 020/03 RMK AO2 SLP261 T00720056 $
63870K0J4 0J420161221050011312/21/16 05:00:31  5-MIN K0J4 211000Z AUTO 04003KT 10SM OVC004 07/06 A3030 -30 89 -900 040/03 RMK AO2 T00720056 $
63870K0J4 0J420161221050511312/21/16 05:05:31  5-MIN K0J4 211005Z AUTO 06004KT 10SM OVC004 07/06 A3030 -30 89 -900 060/04 RMK AO2 T00720056 $
63870K0J4 0J420161221051011312/21/16 05:10:31  5-MIN K0J4 211010Z AUTO 07006KT 10SM OVC004 07/06 A3030 -30 89 -900 070/06 RMK AO2 T00720056 $
63870K0J4 0J420161221051511312/21/16 05:15:31  5-MIN K0J4 211015Z AUTO 05004KT 10SM OVC004 07/06 A3030 -30 89 -900 050/04 RMK AO2 T00720056 $
63870K0J4 0J420161221052011312/21/16 05:20:31  5-MIN K0J4 211020Z AUTO 05004KT 10SM OVC004 07/06 A3030 -30 89 -900 050/04 RMK AO2 T00720056 $
63870K0J4 0J420161221052511312/21/16 05:25:31  5-MIN K0J4 211025Z AUTO 01005KT 10SM OVC004 07/06 A3030 -30 89 -900 010/05 RMK AO2 T00720056 $
63870K0J4 0J420161221053011312/21/16 05:30:31  5-MIN K0J4 211030Z AUTO 05003KT 10SM OVC003 07/06 A3030 -30 89 -900 050/03 RMK AO2 T00720056 $
63870K0J4 0J420161221053511312/21/16 05:35:31  5-MIN K0J4 211035Z AUTO 07004KT 10SM OVC003 07/06 A3030 -30 89 -900 070/04 RMK AO2 T00720056 $
63870K0J4 0J420161221054011312/21/16 05:40:31  5-MIN K0J4 211040Z AUTO 07005KT 10SM OVC003 07/06 A3030 -30 89 -900 070/05 RMK AO2 T00720056 $
63870K0J4 0J420161221054511312/21/16 05:45:31  5-MIN K0J4 211045Z AUTO 06004KT 10SM OVC003 07/06 A3030 -30 89 -900 060/04 RMK AO2 T00720056 $
63870K0J4 0J420161221055011312/21/16 05:50:31  5-MIN K0J4 211050Z AUTO 01004KT 10SM OVC003 07/06 A3030 -30 89 -900 010/04 RMK AO2 T00720056 $
63870K0J4 0J420161221055512012/21/16 05:55:31  5-MIN K0J4 211055Z AUTO 02004KT 10SM OVC003 07/06 A3030 -30 89 -900 020/04 RMK AO2 SLP261 T00720056 $
63870K0J4 0J420161221060011412/21/16 06:00:31  5-MIN K0J4 211100Z AUTO 01004KT 10SM OVC003 07/06 A3031 -30 93 -1000 010/04 RMK AO2 T00670056 $
63870K0J4 0J420161221060511412/21/16 06:05:31  5-MIN K0J4 211105Z AUTO 01004KT 10SM OVC003 07/06 A3031 -30 93 -1000 010/04 RMK AO2 T00670056 $
63870K0J4 0J420161221061011412/21/16 06:10:31  5-MIN K0J4 211110Z AUTO 02004KT 10SM OVC003 07/06 A3031 -30 93 -1000 020/04 RMK AO2 T00670056 $
63870K0J4 0J420161221061511412/21/16 06:15:31  5-MIN K0J4 211115Z AUTO 04005KT 10SM OVC002 07/06 A3031 -40 93 -1000 040/05 RMK AO2 T00670056 $
63870K0J4 0J420161221062011412/21/16 06:20:31  5-MIN K0J4 211120Z AUTO 04004KT 10SM OVC002 07/06 A3031 -40 93 -1000 040/04 RMK AO2 T00670056 $
63870K0J4 0J420161221062511412/21/16 06:25:31  5-MIN K0J4 211125Z AUTO 03004KT 10SM OVC002 07/06 A3031 -40 93 -1000 030/04 RMK AO2 T00670056 $
63870K0J4 0J420161221063011312/21/16 06:30:31  5-MIN K0J4 211130Z AUTO 03004KT 9SM OVC002 07/06 A3031 -40 93 -1000 030/04 RMK AO2 T00670056 $
63870K0J4 0J420161221063511312/21/16 06:35:31  5-MIN K0J4 211135Z AUTO 04004KT 9SM OVC002 07/06 A3031 -40 93 -1000 040/04 RMK AO2 T00670056 $
63870K0J4 0J420161221064011312/21/16 06:40:31  5-MIN K0J4 211140Z AUTO 02004KT 9SM OVC002 07/06 A3032 -40 93 -1000 020/04 RMK AO2 T00670056 $
63870K0J4 0J420161221064511312/21/16 06:45:31  5-MIN K0J4 211145Z AUTO 01005KT 9SM OVC002 07/06 A3032 -40 93 -1000 010/05 RMK AO2 T00670056 $
63870K0J4 0J420161221065011312/21/16 06:50:31  5-MIN K0J4 211150Z AUTO 02006KT 9SM OVC002 07/06 A3032 -50 93 -1000 020/06 RMK AO2 T00670056 $
63870K0J4 0J420161221065513812/21/16 06:55:31  5-MIN K0J4 211155Z AUTO 03005KT 9SM OVC002 07/05 A3032 -50 89 -1000 030/05 RMK AO2 SLP267 T00670050 10083 20067 55003 $
63870K0J4 0J420161221070011412/21/16 07:00:31  5-MIN K0J4 211200Z AUTO 06004KT 10SM OVC002 07/06 A3032 -50 93 -1000 060/04 RMK AO2 T00670056 $
63870K0J4 0J420161221070511312/21/16 07:05:31  5-MIN K0J4 211205Z AUTO 05005KT 9SM OVC002 07/06 A3032 -50 93 -1000 050/05 RMK AO2 T00670056 $
63870K0J4 0J420161221071011312/21/16 07:10:31  5-MIN K0J4 211210Z AUTO 02004KT 9SM OVC002 07/06 A3033 -50 93 -1000 020/04 RMK AO2 T00670056 $
63870K0J4 0J420161221071511312/21/16 07:15:31  5-MIN K0J4 211215Z AUTO 02006KT 9SM OVC002 07/06 A3033 -50 93 -1000 020/06 RMK AO2 T00670056 $
63870K0J4 0J420161221072011312/21/16 07:20:31  5-MIN K0J4 211220Z AUTO 02003KT 9SM OVC002 07/06 A3032 -50 93 -1000 020/03 RMK AO2 T00670056 $
63870K0J4 0J420161221072511312/21/16 07:25:31  5-MIN K0J4 211225Z AUTO 07004KT 9SM OVC002 07/06 A3033 -50 93 -1000 070/04 RMK AO2 T00670056 $
63870K0J4 0J420161221073011312/21/16 07:30:31  5-MIN K0J4 211230Z AUTO 07006KT 9SM OVC002 07/05 A3033 -50 89 -1000 070/06 RMK AO2 T00670050 $
63870K0J4 0J420161221073511312/21/16 07:35:31  5-MIN K0J4 211235Z AUTO 05004KT 8SM OVC002 07/05 A3033 -50 89 -1000 050/04 RMK AO2 T00670050 $
63870K0J4 0J420161221074011312/21/16 07:40:31  5-MIN K0J4 211240Z AUTO 06003KT 8SM OVC002 07/06 A3033 -50 93 -1000 060/03 RMK AO2 T00670056 $
63870K0J4 0J420161221074511312/21/16 07:45:31  5-MIN K0J4 211245Z AUTO 08006KT 8SM OVC002 07/06 A3033 -60 93 -1000 080/06 RMK AO2 T00670056 $
63870K0J4 0J420161221075011112/21/16 07:50:31  5-MIN K0J4 211250Z AUTO 06007KT 9SM OVC002 07/05 A3033 -60 89 -1000 060/07 RMK AO2 T00670050
63870K0J4 0J420161221075511812/21/16 07:55:31  5-MIN K0J4 211255Z AUTO 05007KT 8SM OVC002 07/05 A3033 -60 89 -1000 050/07 RMK AO2 SLP271 T00670050
63870K0J4 0J420161221080011112/21/16 08:00:31  5-MIN K0J4 211300Z AUTO 03006KT 8SM OVC002 07/05 A3033 -60 89 -1000 030/06 RMK AO2 T00670050
63870K0J4 0J420161221080511112/21/16 08:05:31  5-MIN K0J4 211305Z AUTO 04005KT 7SM OVC002 07/06 A3033 -60 93 -1000 040/05 RMK AO2 T00670056
63870K0J4 0J420161221081011112/21/16 08:10:31  5-MIN K0J4 211310Z AUTO 04005KT 7SM OVC002 07/06 A3034 -70 93 -1000 040/05 RMK AO2 T00670056
63870K0J4 0J420161221081511112/21/16 08:15:31  5-MIN K0J4 211315Z AUTO 03004KT 7SM OVC002 07/06 A3034 -70 93 -1000 030/04 RMK AO2 T00670056
63870K0J4 0J420161221082011112/21/16 08:20:31  5-MIN K0J4 211320Z AUTO 04004KT 8SM OVC002 07/06 A3034 -70 93 -1000 040/04 RMK AO2 T00670056
63870K0J4 0J420161221082511112/21/16 08:25:31  5-MIN K0J4 211325Z AUTO 05003KT 9SM OVC002 07/06 A3034 -70 93 -1000 050/03 RMK AO2 T00670056
63870K0J4 0J420161221083011112/21/16 08:30:31  5-MIN K0J4 211330Z AUTO 05004KT 8SM OVC002 07/06 A3034 -70 93 -1000 050/04 RMK AO2 T00670056
63870K0J4 0J420161221083511112/21/16 08:35:31  5-MIN K0J4 211335Z AUTO 08005KT 9SM OVC002 07/06 A3034 -70 93 -1000 080/05 RMK AO2 T00670056
63870K0J4 0J420161221084011212/21/16 08:40:31  5-MIN K0J4 211340Z AUTO 07005KT 10SM OVC002 07/06 A3034 -70 93 -1000 070/05 RMK AO2 T00670056
63870K0J4 0J420161221084511212/21/16 08:45:31  5-MIN K0J4 211345Z AUTO 02005KT 10SM OVC002 07/06 A3034 -70 93 -1000 020/05 RMK AO2 T00670056
63870K0J4 0J420161221085011212/21/16 08:50:31  5-MIN K0J4 211350Z AUTO 02005KT 10SM OVC003 07/06 A3035 -70 93 -1000 020/05 RMK AO2 T00670056
63870K0J4 0J420161221085511912/21/16 08:55:31  5-MIN K0J4 211355Z AUTO 01004KT 10SM OVC003 07/06 A3035 -70 93 -1000 010/04 RMK AO2 SLP276 T00670056
63870K0J4 0J420161221090011212/21/16 09:00:31  5-MIN K0J4 211400Z AUTO 00000KT 10SM OVC003 07/06 A3035 -70 93 -1000 000/00 RMK AO2 T00670056
63870K0J4 0J420161221090511212/21/16 09:05:31  5-MIN K0J4 211405Z AUTO 00000KT 10SM OVC003 07/06 A3034 -70 93 -1000 000/00 RMK AO2 T00670056
63870K0J4 0J420161221091011212/21/16 09:10:31  5-MIN K0J4 211410Z AUTO 00000KT 10SM OVC003 07/05 A3034 -70 89 -1000 000/00 RMK AO2 T00670050
63870K0J4 0J420161221091511112/21/16 09:15:31  5-MIN K0J4 211415Z AUTO 06003KT 10SM OVC003 07/05 A3034 -70 86 -900 060/03 RMK AO2 T00720050
63870K0J4 0J420161221092011112/21/16 09:20:31  5-MIN K0J4 211420Z AUTO 00000KT 10SM OVC003 07/05 A3034 -70 86 -900 000/00 RMK AO2 T00720050
63870K0J4 0J420161221092511112/21/16 09:25:31  5-MIN K0J4 211425Z AUTO 00000KT 10SM OVC003 07/05 A3034 -70 86 -900 000/00 RMK AO2 T00720050
63870K0J4 0J420161221093011112/21/16 09:30:31  5-MIN K0J4 211430Z AUTO 01003KT 10SM BKN004 08/06 A3035 -70 86 -900 010/03 RMK AO2 T00780056
63870K0J4 0J420161221093511112/21/16 09:35:31  5-MIN K0J4 211435Z AUTO 00000KT 10SM BKN004 08/06 A3035 -70 82 -800 000/00 RMK AO2 T00830056
63870K0J4 0J420161221094011112/21/16 09:40:31  5-MIN K0J4 211440Z AUTO 06003KT 10SM BKN004 08/06 A3035 -80 86 -900 060/03 RMK AO2 T00780056
63870K0J4 0J420161221094511112/21/16 09:45:31  5-MIN K0J4 211445Z AUTO 00000KT 10SM BKN005 08/06 A3035 -70 82 -800 000/00 RMK AO2 T00830056
63870K0J4 0J420161221095011112/21/16 09:50:31  5-MIN K0J4 211450Z AUTO 08004KT 10SM BKN005 09/06 A3035 -70 79 -700 080/04 RMK AO2 T00890056
63870K0J4 0J420161221095512412/21/16 09:55:31  5-MIN K0J4 211455Z AUTO 08004KT 10SM BKN005 09/06 A3035 -70 79 -700 080/04 RMK AO2 SLP277 T00890056 53003
63870K0J4 0J420161221100011112/21/16 10:00:31  5-MIN K0J4 211500Z AUTO 08005KT 10SM SCT005 09/06 A3035 -80 79 -700 080/05 RMK AO2 T00890056
63870K0J4 0J420161221100511112/21/16 10:05:31  5-MIN K0J4 211505Z AUTO 07005KT 10SM FEW006 09/06 A3035 -80 79 -700 070/05 RMK AO2 T00890056
63870K0J4 0J420161221101011112/21/16 10:10:31  5-MIN K0J4 211510Z AUTO 08004KT 10SM FEW006 09/06 A3035 -70 79 -700 080/04 RMK AO2 T00890056
63870K0J4 0J420161221101511112/21/16 10:15:31  5-MIN K0J4 211515Z AUTO 06005KT 10SM FEW006 09/06 A3035 -70 76 -700 060/05 RMK AO2 T00940056
63870K0J4 0J420161221102010812/21/16 10:20:31  5-MIN K0J4 211520Z AUTO VRB04KT 10SM CLR 09/06 A3034 -70 79 -700 VRB/04 RMK AO2 T00940061
63870K0J4 0J420161221102510812/21/16 10:25:31  5-MIN K0J4 211525Z AUTO 07004KT 10SM CLR 10/06 A3034 -70 77 -600 070/04 RMK AO2 T01000061
63870K0J4 0J420161221103010812/21/16 10:30:31  5-MIN K0J4 211530Z AUTO VRB03KT 10SM CLR 10/06 A3034 -70 77 -600 VRB/03 RMK AO2 T01000061
63870K0J4 0J420161221103510812/21/16 10:35:31  5-MIN K0J4 211535Z AUTO VRB03KT 10SM CLR 11/07 A3034 -70 77 -500 VRB/03 RMK AO2 T01060067
63870K0J4 0J420161221104010812/21/16 10:40:31  5-MIN K0J4 211540Z AUTO 00000KT 10SM CLR 11/06 A3034 -60 74 -500 000/00 RMK AO2 T01060061
63870K0J4 0J420161221104510812/21/16 10:45:31  5-MIN K0J4 211545Z AUTO 12005KT 10SM CLR 11/06 A3034 -60 68 -500 120/05 RMK AO2 T01110056
63870K0J4 0J420161221105010812/21/16 10:50:31  5-MIN K0J4 211550Z AUTO 11005KT 10SM CLR 11/06 A3034 -60 68 -500 110/05 RMK AO2 T01110056
63870K0J4 0J420161221105511512/21/16 10:55:31  5-MIN K0J4 211555Z AUTO VRB03KT 10SM CLR 11/06 A3034 -60 71 -500 VRB/03 RMK AO2 SLP272 T01110061
63870K0J4 0J420161221110010812/21/16 11:00:31  5-MIN K0J4 211600Z AUTO VRB03KT 10SM CLR 12/06 A3034 -60 66 -300 VRB/03 RMK AO2 T01220061
63870K0J4 0J420161221110510812/21/16 11:05:31  5-MIN K0J4 211605Z AUTO 00000KT 10SM CLR 12/06 A3034 -60 68 -400 000/00 RMK AO2 T01170061
63870K0J4 0J420161221111010812/21/16 11:10:31  5-MIN K0J4 211610Z AUTO VRB04KT 10SM CLR 13/06 A3033 -60 61 -300 VRB/04 RMK AO2 T01280056
63870K0J4 0J420161221111510812/21/16 11:15:31  5-MIN K0J4 211615Z AUTO 00000KT 10SM CLR 12/06 A3033 -60 63 -300 000/00 RMK AO2 T01220056
63870K0J4 0J420161221112010812/21/16 11:20:31  5-MIN K0J4 211620Z AUTO 00000KT 10SM CLR 13/06 A3033 -60 61 -200 000/00 RMK AO2 T01280056
63870K0J4 0J420161221112510812/21/16 11:25:31  5-MIN K0J4 211625Z AUTO 00000KT 10SM CLR 13/05 A3033 -50 57 -200 000/00 RMK AO2 T01330050
63870K0J4 0J420161221113012412/21/16 11:30:31  5-MIN K0J4 211630Z AUTO 00000KT 10SM -RA CLR 13/05 A3033 -50 57 -200 000/00 RMK AO2 RAB30 P0000 T01330050
63870K0J4 0J420161221113512412/21/16 11:35:31  5-MIN K0J4 211635Z AUTO 00000KT 10SM -RA CLR 14/06 A3033 -50 57 -100 000/00 RMK AO2 RAB30 P0000 T01390056
63870K0J4 0J420161221114012012/21/16 11:40:31  5-MIN K0J4 211640Z AUTO 00000KT 10SM CLR 14/06 A3032 -50 55 0 000/00 RMK AO2 RAB30E39 P0000 T01440056
63870K0J4 0J420161221114512312/21/16 11:45:31  5-MIN K0J4 211645Z AUTO 00000KT 10SM CLR 14/04 A3032 -50 52 -100 000/00 RMK AO2 RAB30E39 P0000 T01390044
63870K0J4 0J420161221115012012/21/16 11:50:31  5-MIN K0J4 211650Z AUTO 00000KT 10SM CLR 14/04 A3032 -50 51 0 000/00 RMK AO2 RAB30E39 P0000 T01440044
63870K0J4 0J420161221115513012/21/16 11:55:31  5-MIN K0J4 211655Z AUTO 00000KT 10SM CLR 14/05 A3031 -40 55 -100 000/00 RMK AO2 RAB30E39 SLP264 P0000 T01390050
63870K0J4 0J420161221120010512/21/16 12:00:31  5-MIN K0J4 211700Z AUTO 10003KT 10SM CLR 14/05 A3031 -40 53 0 100/03 RMK AO2 T01440050
63870K0J4 0J420161221120510512/21/16 12:05:31  5-MIN K0J4 211705Z AUTO 08004KT 10SM CLR 14/04 A3030 -30 51 0 080/04 RMK AO2 T01440044
63870K0J4 0J420161221121010512/21/16 12:10:31  5-MIN K0J4 211710Z AUTO 00000KT 10SM CLR 15/04 A3030 -30 49 0 000/00 RMK AO2 T01500044
63870K0J4 0J420161221121510712/21/16 12:15:31  5-MIN K0J4 211715Z AUTO 02004KT 10SM CLR 16/05 A3030 -30 47 100 020/04 RMK AO2 T01610050
63870K0J4 0J420161221122010712/21/16 12:20:31  5-MIN K0J4 211720Z AUTO 05004KT 10SM CLR 16/04 A3029 -20 45 100 050/04 RMK AO2 T01610044
63870K0J4 0J420161221122510712/21/16 12:25:31  5-MIN K0J4 211725Z AUTO 05004KT 10SM CLR 16/04 A3029 -20 44 100 050/04 RMK AO2 T01610039
63870K0J4 0J420161221123010712/21/16 12:30:31  5-MIN K0J4 211730Z AUTO 00000KT 10SM CLR 16/04 A3029 -20 44 100 000/00 RMK AO2 T01610039
63870K0J4 0J420161221123510712/21/16 12:35:31  5-MIN K0J4 211735Z AUTO 00000KT 10SM CLR 17/04 A3028 -10 44 200 000/00 RMK AO2 T01670044
63870K0J4 0J420161221124010712/21/16 12:40:31  5-MIN K0J4 211740Z AUTO 03003KT 10SM CLR 17/04 A3028 -10 44 200 030/03 RMK AO2 T01670044
63870K0J4 0J420161221124510712/21/16 12:45:31  5-MIN K0J4 211745Z AUTO 03003KT 10SM CLR 17/04 A3028 -10 42 300 030/03 RMK AO2 T01720044
63870K0J4 0J420161221125010712/21/16 12:50:31  5-MIN K0J4 211750Z AUTO 00000KT 10SM CLR 17/04 A3028 -10 41 300 000/00 RMK AO2 T01720039
63870K0J4 0J420161221125513612/21/16 12:55:31  5-MIN K0J4 211755Z AUTO 00000KT 10SM CLR 17/04 A3027 0 42 200 000/00 RMK AO2 SLP249 60000 T01670039 10172 20067 51010
63870K0J4 0J420161221130010512/21/16 13:00:31  5-MIN K0J4 211800Z AUTO 00000KT 10SM CLR 17/04 A3027 0 42 200 000/00 RMK AO2 T01670039
63870K0J4 0J420161221130510512/21/16 13:05:31  5-MIN K0J4 211805Z AUTO 08003KT 10SM CLR 18/04 A3027 0 39 400 080/03 RMK AO2 T01780039
63870K0J4 0J420161221131010512/21/16 13:10:31  5-MIN K0J4 211810Z AUTO VRB03KT 10SM CLR 18/04 A3026 0 39 400 VRB/03 RMK AO2 T01780039
63870K0J4 0J420161221131510512/21/16 13:15:31  5-MIN K0J4 211815Z AUTO VRB04KT 10SM CLR 18/04 A3026 0 39 400 VRB/04 RMK AO2 T01780039
63870K0J4 0J420161221132010612/21/16 13:20:31  5-MIN K0J4 211820Z AUTO 14004KT 10SM CLR 17/03 A3026 10 37 300 140/04 RMK AO2 T01720028
63870K0J4 0J420161221132510612/21/16 13:25:31  5-MIN K0J4 211825Z AUTO 11004KT 10SM CLR 18/04 A3025 10 39 400 110/04 RMK AO2 T01780039
63870K0J4 0J420161221133010612/21/16 13:30:31  5-MIN K0J4 211830Z AUTO 00000KT 10SM CLR 18/03 A3025 10 36 400 000/00 RMK AO2 T01830033
63870K0J4 0J420161221133510612/21/16 13:35:31  5-MIN K0J4 211835Z AUTO VRB03KT 10SM CLR 18/04 A3025 10 38 400 VRB/03 RMK AO2 T01830039
63870K0J4 0J420161221134010612/21/16 13:40:31  5-MIN K0J4 211840Z AUTO 13005KT 10SM CLR 18/03 A3025 10 38 400 130/05 RMK AO2 T01780033
63870K0J4 0J420161221134510612/21/16 13:45:31  5-MIN K0J4 211845Z AUTO 13003KT 10SM CLR 18/04 A3025 10 39 400 130/03 RMK AO2 T01780039
63870K0J4 0J420161221135010612/21/16 13:50:31  5-MIN K0J4 211850Z AUTO 16003KT 10SM CLR 18/04 A3024 20 39 400 160/03 RMK AO2 T01780039
63870K0J4 0J420161221135511312/21/16 13:55:31  5-MIN K0J4 211855Z AUTO VRB04KT 10SM CLR 18/04 A3024 20 38 500 VRB/04 RMK AO2 SLP239 T01830039
63870K0J4 0J420161221140010612/21/16 14:00:31  5-MIN K0J4 211900Z AUTO 12004KT 10SM CLR 19/04 A3024 20 38 500 120/04 RMK AO2 T01890044
63870K0J4 0J420161221140510612/21/16 14:05:31  5-MIN K0J4 211905Z AUTO 13005KT 10SM CLR 19/05 A3024 20 39 500 130/05 RMK AO2 T01890050
63870K0J4 0J420161221141010612/21/16 14:10:31  5-MIN K0J4 211910Z AUTO 13004KT 10SM CLR 18/05 A3024 30 41 500 130/04 RMK AO2 T01830050
63870K0J4 0J420161221141510612/21/16 14:15:31  5-MIN K0J4 211915Z AUTO 00000KT 10SM CLR 18/04 A3023 30 39 500 000/00 RMK AO2 T01830044
63870K0J4 0J420161221142010612/21/16 14:20:31  5-MIN K0J4 211920Z AUTO 09006KT 10SM CLR 19/05 A3023 30 39 500 090/06 RMK AO2 T01890050
63870K0J4 0J420161221142510612/21/16 14:25:31  5-MIN K0J4 211925Z AUTO 12005KT 10SM CLR 19/05 A3023 30 39 500 120/05 RMK AO2 T01890050
63870K0J4 0J420161221143010612/21/16 14:30:31  5-MIN K0J4 211930Z AUTO 12006KT 10SM CLR 19/05 A3022 40 39 500 120/06 RMK AO2 T01890050
63870K0J4 0J420161221143510612/21/16 14:35:31  5-MIN K0J4 211935Z AUTO 12004KT 10SM CLR 19/05 A3023 30 39 500 120/04 RMK AO2 T01890050
63870K0J4 0J420161221144010612/21/16 14:40:31  5-MIN K0J4 211940Z AUTO 07005KT 10SM CLR 19/05 A3023 30 38 600 070/05 RMK AO2 T01940050
63870K0J4 0J420161221144512212/21/16 14:45:31  5-MIN K0J4 211945Z AUTO 00000KT 10SM -RA CLR 19/06 A3023 30 40 600 000/00 RMK AO2 RAB42 P0000 T01940056
63870K0J4 0J420161221145012212/21/16 14:50:31  5-MIN K0J4 211950Z AUTO 10003KT 10SM -RA CLR 19/05 A3023 30 38 600 100/03 RMK AO2 RAB42 P0000 T01940050
63870K0J4 0J420161221145512812/21/16 14:55:31  5-MIN K0J4 211955Z AUTO VRB03KT 10SM CLR 19/05 A3024 20 38 600 VRB/03 RMK AO2 RAB42E51 SLP238 P0000 T01940050
63870K0J4 0J420161221150010612/21/16 15:00:31  5-MIN K0J4 212000Z AUTO 00000KT 10SM CLR 19/05 A3024 20 38 600 000/00 RMK AO2 T01940050
63870K0J4 0J420161221150510612/21/16 15:05:31  5-MIN K0J4 212005Z AUTO VRB03KT 10SM CLR 20/05 A3024 20 37 700 VRB/03 RMK AO2 T02000050
63870K0J4 0J420161221151010612/21/16 15:10:31  5-MIN K0J4 212010Z AUTO 35003KT 10SM CLR 19/05 A3024 20 38 600 350/03 RMK AO2 T01940050
63870K0J4 0J420161221151510612/21/16 15:15:31  5-MIN K0J4 212015Z AUTO VRB03KT 10SM CLR 19/05 A3024 20 38 600 VRB/03 RMK AO2 T01940050
63870K0J4 0J420161221152010612/21/16 15:20:31  5-MIN K0J4 212020Z AUTO 03003KT 10SM CLR 20/05 A3024 20 37 700 030/03 RMK AO2 T02000050
63870K0J4 0J420161221152510612/21/16 15:25:31  5-MIN K0J4 212025Z AUTO 00000KT 10SM CLR 20/05 A3024 20 37 700 000/00 RMK AO2 T02000050
63870K0J4 0J420161221153010612/21/16 15:30:31  5-MIN K0J4 212030Z AUTO 00000KT 10SM CLR 21/05 A3024 20 35 700 000/00 RMK AO2 T02060050
63870K0J4 0J420161221153510612/21/16 15:35:31  5-MIN K0J4 212035Z AUTO 03003KT 10SM CLR 21/05 A3024 20 35 700 030/03 RMK AO2 T02060050
63870K0J4 0J420161221154010612/21/16 15:40:31  5-MIN K0J4 212040Z AUTO 00000KT 10SM CLR 20/06 A3024 20 38 700 000/00 RMK AO2 T02000056
63870K0J4 0J420161221154510612/21/16 15:45:31  5-MIN K0J4 212045Z AUTO 32004KT 10SM CLR 20/05 A3024 30 37 700 320/04 RMK AO2 T02000050
63870K0J4 0J420161221155010612/21/16 15:50:31  5-MIN K0J4 212050Z AUTO 00000KT 10SM CLR 20/06 A3024 20 38 700 000/00 RMK AO2 T02000056
63870K0J4 0J420161221155512512/21/16 15:55:31  5-MIN K0J4 212055Z AUTO 36003KT 10SM CLR 20/05 A3024 30 37 700 360/03 RMK AO2 SLP237 60000 T02000050 58027
63870K0J4 0J420161221160010612/21/16 16:00:31  5-MIN K0J4 212100Z AUTO 00000KT 10SM CLR 20/05 A3023 30 37 700 000/00 RMK AO2 T02000050
63870K0J4 0J420161221160510612/21/16 16:05:31  5-MIN K0J4 212105Z AUTO 00000KT 10SM CLR 20/06 A3023 30 38 700 000/00 RMK AO2 T02000056
63870K0J4 0J420161221161010612/21/16 16:10:31  5-MIN K0J4 212110Z AUTO 00000KT 10SM CLR 20/06 A3023 30 38 700 000/00 RMK AO2 T02000056
63870K0J4 0J420161221161510612/21/16 16:15:31  5-MIN K0J4 212115Z AUTO 00000KT 10SM CLR 20/05 A3023 30 37 700 000/00 RMK AO2 T02000050
63870K0J4 0J420161221162012212/21/16 16:20:31  5-MIN K0J4 212120Z AUTO 15003KT 10SM -RA CLR 19/06 A3022 40 40 600 150/03 RMK AO2 RAB19 P0000 T01940056
63870K0J4 0J420161221162512112/21/16 16:25:31  5-MIN K0J4 212125Z AUTO 13004KT 10SM CLR 19/06 A3022 40 41 600 130/04 RMK AO2 RAB19E21 P0000 T01940061
63870K0J4 0J420161221163012112/21/16 16:30:31  5-MIN K0J4 212130Z AUTO 13003KT 10SM CLR 19/07 A3022 40 44 500 130/03 RMK AO2 RAB19E21 P0000 T01890067
63870K0J4 0J420161221163512112/21/16 16:35:31  5-MIN K0J4 212135Z AUTO VRB03KT 10SM CLR 19/07 A3022 40 44 500 VRB/03 RMK AO2 RAB19E21 P0000 T01890067
63870K0J4 0J420161221164012112/21/16 16:40:31  5-MIN K0J4 212140Z AUTO 00000KT 10SM CLR 19/07 A3022 40 44 500 000/00 RMK AO2 RAB19E21 P0000 T01890067
63870K0J4 0J420161221164512112/21/16 16:45:31  5-MIN K0J4 212145Z AUTO 00000KT 10SM CLR 19/07 A3023 30 44 500 000/00 RMK AO2 RAB19E21 P0000 T01890067
63870K0J4 0J420161221165012112/21/16 16:50:31  5-MIN K0J4 212150Z AUTO 00000KT 10SM CLR 19/07 A3023 30 44 500 000/00 RMK AO2 RAB19E21 P0000 T01890067
63870K0J4 0J420161221165512812/21/16 16:55:31  5-MIN K0J4 212155Z AUTO 00000KT 10SM CLR 19/07 A3023 30 46 500 000/00 RMK AO2 RAB19E21 SLP236 P0000 T01890072
63870K0J4 0J420161221170010612/21/16 17:00:31  5-MIN K0J4 212200Z AUTO 00000KT 10SM CLR 18/08 A3023 30 50 500 000/00 RMK AO2 T01830078
63870K0J4 0J420161221170510612/21/16 17:05:31  5-MIN K0J4 212205Z AUTO 00000KT 10SM CLR 18/08 A3023 30 51 400 000/00 RMK AO2 T01780078
63870K0J4 0J420161221171010612/21/16 17:10:31  5-MIN K0J4 212210Z AUTO 00000KT 10SM CLR 17/08 A3024 20 53 300 000/00 RMK AO2 T01720078
63870K0J4 0J420161221171510612/21/16 17:15:31  5-MIN K0J4 212215Z AUTO 00000KT 10SM CLR 17/08 A3024 20 55 300 000/00 RMK AO2 T01670078
63870K0J4 0J420161221172010612/21/16 17:20:31  5-MIN K0J4 212220Z AUTO 00000KT 10SM CLR 16/09 A3024 20 64 100 000/00 RMK AO2 T01560089
63870K0J4 0J420161221172510612/21/16 17:25:31  5-MIN K0J4 212225Z AUTO 00000KT 10SM CLR 16/09 A3024 20 64 100 000/00 RMK AO2 T01560089
63870K0J4 0J420161221173010612/21/16 17:30:31  5-MIN K0J4 212230Z AUTO 00000KT 10SM CLR 16/08 A3024 20 62 100 000/00 RMK AO2 T01560083
63870K0J4 0J420161221173510612/21/16 17:35:31  5-MIN K0J4 212235Z AUTO 00000KT 10SM CLR 15/09 A3024 20 66 100 000/00 RMK AO2 T01500089
63870K0J4 0J420161221174010412/21/16 17:40:31  5-MIN K0J4 212240Z AUTO 00000KT 10SM CLR 14/09 A3024 20 69 0 000/00 RMK AO2 T01440089
63870K0J4 0J420161221174510612/21/16 17:45:31  5-MIN K0J4 212245Z AUTO 00000KT 10SM CLR 15/08 A3024 20 64 100 000/00 RMK AO2 T01500083
63870K0J4 0J420161221175010412/21/16 17:50:31  5-MIN K0J4 212250Z AUTO 00000KT 10SM CLR 14/08 A3024 20 66 0 000/00 RMK AO2 T01440083
63870K0J4 0J420161221175511112/21/16 17:55:31  5-MIN K0J4 212255Z AUTO 00000KT 10SM CLR 14/08 A3024 20 69 0 000/00 RMK AO2 SLP239 T01390083
63870K0J4 0J420161221180010712/21/16 18:00:31  5-MIN K0J4 212300Z AUTO 00000KT 10SM CLR 13/09 A3024 20 74 -100 000/00 RMK AO2 T01330089
63870K0J4 0J420161221180510412/21/16 18:05:31  5-MIN K0J4 212305Z AUTO 00000KT 10SM CLR 14/09 A3024 20 71 0 000/00 RMK AO2 T01390089
63870K0J4 0J420161221181010712/21/16 18:10:31  5-MIN K0J4 212310Z AUTO 00000KT 10SM CLR 13/09 A3024 20 74 -100 000/00 RMK AO2 T01330089
63870K0J4 0J420161221181510712/21/16 18:15:31  5-MIN K0J4 212315Z AUTO 00000KT 10SM CLR 13/09 A3024 20 80 -200 000/00 RMK AO2 T01280094
63870K0J4 0J420161221182010712/21/16 18:20:31  5-MIN K0J4 212320Z AUTO 00000KT 10SM CLR 13/09 A3024 20 80 -200 000/00 RMK AO2 T01280094
63870K0J4 0J420161221182510712/21/16 18:25:31  5-MIN K0J4 212325Z AUTO 00000KT 10SM CLR 12/09 A3024 20 83 -200 000/00 RMK AO2 T01220094
63870K0J4 0J420161221183010712/21/16 18:30:31  5-MIN K0J4 212330Z AUTO 00000KT 10SM CLR 13/09 A3025 20 80 -200 000/00 RMK AO2 T01280094
63870K0J4 0J420161221183510712/21/16 18:35:31  5-MIN K0J4 212335Z AUTO 00000KT 10SM CLR 12/09 A3025 20 83 -200 000/00 RMK AO2 T01220094
63870K0J4 0J420161221184010712/21/16 18:40:31  5-MIN K0J4 212340Z AUTO 00000KT 10SM CLR 12/09 A3024 20 83 -200 000/00 RMK AO2 T01220094
63870K0J4 0J420161221184510712/21/16 18:45:31  5-MIN K0J4 212345Z AUTO 00000KT 10SM CLR 12/09 A3024 20 86 -300 000/00 RMK AO2 T01170094
63870K0J4 0J420161221185011012/21/16 18:50:31  5-MIN K0J4 212350Z AUTO 00000KT 10SM FEW080 12/09 A3025 20 83 -300 000/00 RMK AO2 T01170089
63870K0J4 0J420161221185514112/21/16 18:55:31  5-MIN K0J4 212355Z AUTO 00000KT 10SM SCT075 12/09 A3025 10 83 -300 000/00 RMK AO2 SLP242 60000 T01170089 10206 20117 56013
63870K0J4 0J420161221190011012/21/16 19:00:31  5-MIN K0J4 220000Z AUTO 00000KT 10SM FEW075 12/09 A3025 10 83 -300 000/00 RMK AO2 T01170089
63870K0J4 0J420161221190511012/21/16 19:05:31  5-MIN K0J4 220005Z AUTO 00000KT 10SM FEW075 11/09 A3025 10 86 -400 000/00 RMK AO2 T01110089
63870K0J4 0J420161221191011012/21/16 19:10:31  5-MIN K0J4 220010Z AUTO 00000KT 10SM FEW075 11/09 A3025 10 86 -400 000/00 RMK AO2 T01110089
63870K0J4 0J420161221191511012/21/16 19:15:31  5-MIN K0J4 220015Z AUTO 00000KT 10SM FEW075 12/09 A3025 10 83 -300 000/00 RMK AO2 T01170089
63870K0J4 0J420161221192010712/21/16 19:20:31  5-MIN K0J4 220020Z AUTO 00000KT 10SM CLR 11/08 A3025 10 83 -400 000/00 RMK AO2 T01110083
63870K0J4 0J420161221192510712/21/16 19:25:31  5-MIN K0J4 220025Z AUTO 00000KT 10SM CLR 11/08 A3025 10 86 -400 000/00 RMK AO2 T01060083
63870K0J4 0J420161221193010712/21/16 19:30:31  5-MIN K0J4 220030Z AUTO 00000KT 10SM CLR 10/08 A3025 10 89 -500 000/00 RMK AO2 T01000083
63870K0J4 0J420161221193510712/21/16 19:35:31  5-MIN K0J4 220035Z AUTO 00000KT 10SM CLR 11/08 A3025 10 86 -400 000/00 RMK AO2 T01060083
63870K0J4 0J420161221194010712/21/16 19:40:31  5-MIN K0J4 220040Z AUTO 00000KT 10SM CLR 11/08 A3025 10 83 -400 000/00 RMK AO2 T01060078
63870K0J4 0J420161221194510712/21/16 19:45:31  5-MIN K0J4 220045Z AUTO 00000KT 10SM CLR 11/08 A3025 10 83 -400 000/00 RMK AO2 T01060078
63870K0J4 0J420161221195010712/21/16 19:50:31  5-MIN K0J4 220050Z AUTO 00000KT 10SM CLR 11/08 A3025 10 83 -400 000/00 RMK AO2 T01060078
63870K0J4 0J420161221195511412/21/16 19:55:31  5-MIN K0J4 220055Z AUTO 00000KT 10SM CLR 11/08 A3025 10 83 -400 000/00 RMK AO2 SLP243 T01060078
63870K0J4 0J420161221200010712/21/16 20:00:31  5-MIN K0J4 220100Z AUTO 00000KT 10SM CLR 11/08 A3025 10 86 -400 000/00 RMK AO2 T01060083
63870K0J4 0J420161221200510712/21/16 20:05:31  5-MIN K0J4 220105Z AUTO 00000KT 10SM CLR 10/08 A3025 10 89 -500 000/00 RMK AO2 T01000083
63870K0J4 0J420161221201010712/21/16 20:10:31  5-MIN K0J4 220110Z AUTO 00000KT 10SM CLR 10/08 A3026 10 86 -500 000/00 RMK AO2 T01000078
63870K0J4 0J420161221201510712/21/16 20:15:31  5-MIN K0J4 220115Z AUTO 00000KT 10SM CLR 11/08 A3026 10 83 -400 000/00 RMK AO2 T01060078
63870K0J4 0J420161221202010712/21/16 20:20:31  5-MIN K0J4 220120Z AUTO 00000KT 10SM CLR 11/08 A3026 10 86 -400 000/00 RMK AO2 T01060083
63870K0J4 0J420161221202510612/21/16 20:25:31  5-MIN K0J4 220125Z AUTO 00000KT 10SM CLR 10/08 A3026 0 89 -500 000/00 RMK AO2 T01000083
63870K0J4 0J420161221203010612/21/16 20:30:31  5-MIN K0J4 220130Z AUTO 00000KT 10SM CLR 09/08 A3026 0 89 -600 000/00 RMK AO2 T00940078
63870K0J4 0J420161221203510612/21/16 20:35:31  5-MIN K0J4 220135Z AUTO 00000KT 10SM CLR 10/08 A3026 0 86 -500 000/00 RMK AO2 T01000078
63870K0J4 0J420161221204010612/21/16 20:40:31  5-MIN K0J4 220140Z AUTO 00000KT 10SM CLR 10/08 A3026 0 86 -500 000/00 RMK AO2 T01000078
63870K0J4 0J420161221204510612/21/16 20:45:31  5-MIN K0J4 220145Z AUTO 00000KT 10SM CLR 10/08 A3026 0 86 -500 000/00 RMK AO2 T01000078
63870K0J4 0J420161221205010912/21/16 20:50:31  5-MIN K0J4 220150Z AUTO 00000KT 10SM FEW090 09/08 A3026 0 89 -600 000/00 RMK AO2 T00940078
63870K0J4 0J420161221205511612/21/16 20:55:31  5-MIN K0J4 220155Z AUTO 22003KT 10SM SCT090 09/08 A3027 0 89 -600 220/03 RMK AO2 SLP248 T00940078
63870K0J4 0J420161221210010912/21/16 21:00:31  5-MIN K0J4 220200Z AUTO 22003KT 10SM SCT090 09/08 A3026 0 89 -600 220/03 RMK AO2 T00940078
63870K0J4 0J420161221210510912/21/16 21:05:31  5-MIN K0J4 220205Z AUTO 22003KT 10SM BKN090 09/08 A3026 0 89 -600 220/03 RMK AO2 T00940078
63870K0J4 0J420161221211010912/21/16 21:10:31  5-MIN K0J4 220210Z AUTO 23003KT 10SM BKN090 10/08 A3026 0 86 -500 230/03 RMK AO2 T01000078
63870K0J4 0J420161221211510912/21/16 21:15:31  5-MIN K0J4 220215Z AUTO 22003KT 10SM OVC090 11/08 A3027 0 86 -400 220/03 RMK AO2 T01060083
63870K0J4 0J420161221212010912/21/16 21:20:31  5-MIN K0J4 220220Z AUTO 22003KT 10SM OVC090 11/08 A3027 0 86 -400 220/03 RMK AO2 T01060083
63870K0J4 0J420161221212510912/21/16 21:25:31  5-MIN K0J4 220225Z AUTO 22003KT 10SM OVC090 11/08 A3027 0 83 -400 220/03 RMK AO2 T01110083
63870K0J4 0J420161221213010912/21/16 21:30:31  5-MIN K0J4 220230Z AUTO 21004KT 10SM OVC090 11/09 A3027 0 86 -400 210/04 RMK AO2 T01110089
63870K0J4 0J420161221213510912/21/16 21:35:31  5-MIN K0J4 220235Z AUTO 22003KT 10SM OVC090 11/09 A3027 0 86 -400 220/03 RMK AO2 T01110089
63870K0J4 0J420161221214010912/21/16 21:40:31  5-MIN K0J4 220240Z AUTO 22003KT 10SM OVC090 11/09 A3027 0 86 -400 220/03 RMK AO2 T01110089
63870K0J4 0J420161221214510912/21/16 21:45:31  5-MIN K0J4 220245Z AUTO 22003KT 10SM OVC090 11/09 A3027 0 86 -400 220/03 RMK AO2 T01110089
63870K0J4 0J420161221215010912/21/16 21:50:31  5-MIN K0J4 220250Z AUTO 00000KT 10SM OVC090 11/09 A3027 0 86 -400 000/00 RMK AO2 T01110089
63870K0J4 0J420161221215512212/21/16 21:55:31  5-MIN K0J4 220255Z AUTO 22003KT 10SM OVC090 11/09 A3027 0 89 -400 220/03 RMK AO2 SLP249 T01060089 53005
63870K0J4 0J420161221220010912/21/16 22:00:31  5-MIN K0J4 220300Z AUTO 23003KT 10SM OVC090 11/08 A3027 0 86 -400 230/03 RMK AO2 T01060083
63870K0J4 0J420161221220510912/21/16 22:05:31  5-MIN K0J4 220305Z AUTO 22003KT 10SM OVC090 11/09 A3026 0 89 -400 220/03 RMK AO2 T01060089
63870K0J4 0J420161221221010912/21/16 22:10:31  5-MIN K0J4 220310Z AUTO 22003KT 10SM OVC090 11/09 A3026 0 89 -400 220/03 RMK AO2 T01060089
63870K0J4 0J420161221221510912/21/16 22:15:31  5-MIN K0J4 220315Z AUTO 22003KT 10SM OVC090 11/09 A3026 0 89 -400 220/03 RMK AO2 T01060089
63870K0J4 0J420161221222010912/21/16 22:20:31  5-MIN K0J4 220320Z AUTO 22003KT 10SM OVC090 11/09 A3027 0 89 -400 220/03 RMK AO2 T01060089
63870K0J4 0J420161221222510912/21/16 22:25:31  5-MIN K0J4 220325Z AUTO 22003KT 10SM BKN090 11/08 A3027 0 86 -400 220/03 RMK AO2 T01060083
63870K0J4 0J420161221223010912/21/16 22:30:31  5-MIN K0J4 220330Z AUTO 00000KT 10SM OVC090 10/08 A3027 0 89 -500 000/00 RMK AO2 T01000083
63870K0J4 0J420161221223510912/21/16 22:35:31  5-MIN K0J4 220335Z AUTO 00000KT 10SM OVC090 11/08 A3027 0 86 -400 000/00 RMK AO2 T01060083
63870K0J4 0J420161221224010912/21/16 22:40:31  5-MIN K0J4 220340Z AUTO 00000KT 10SM OVC090 11/08 A3027 0 86 -400 000/00 RMK AO2 T01060083
63870K0J4 0J420161221224510912/21/16 22:45:31  5-MIN K0J4 220345Z AUTO 00000KT 10SM OVC090 11/09 A3027 0 89 -400 000/00 RMK AO2 T01060089
63870K0J4 0J420161221225010912/21/16 22:50:31  5-MIN K0J4 220350Z AUTO 00000KT 10SM OVC090 11/09 A3027 0 89 -400 000/00 RMK AO2 T01060089
63870K0J4 0J420161221225511612/21/16 22:55:31  5-MIN K0J4 220355Z AUTO 00000KT 10SM OVC090 11/09 A3027 0 89 -400 000/00 RMK AO2 SLP247 T01060089
63870K0J4 0J420161221230010912/21/16 23:00:31  5-MIN K0J4 220400Z AUTO 00000KT 10SM OVC090 11/09 A3027 0 89 -400 000/00 RMK AO2 T01060089
63870K0J4 0J420161221230510912/21/16 23:05:31  5-MIN K0J4 220405Z AUTO 00000KT 10SM OVC090 11/09 A3027 0 89 -400 000/00 RMK AO2 T01060089
63870K0J4 0J420161221231010912/21/16 23:10:31  5-MIN K0J4 220410Z AUTO 00000KT 10SM OVC090 11/09 A3027 0 89 -400 000/00 RMK AO2 T01110094
63870K0J4 0J420161221231510912/21/16 23:15:31  5-MIN K0J4 220415Z AUTO 00000KT 10SM OVC090 11/09 A3027 0 89 -400 000/00 RMK AO2 T01110094
63870K0J4 0J420161221232010912/21/16 23:20:31  5-MIN K0J4 220420Z AUTO 00000KT 10SM OVC090 11/09 A3027 0 89 -400 000/00 RMK AO2 T01110094
63870K0J4 0J420161221232510912/21/16 23:25:31  5-MIN K0J4 220425Z AUTO 00000KT 10SM BKN090 11/09 A3027 0 86 -400 000/00 RMK AO2 T01110089
63870K0J4 0J420161221233011612/21/16 23:30:31  5-MIN K0J4 220430Z AUTO 00000KT 10SM FEW065 BKN090 11/09 A3027 0 86 -400 000/00 RMK AO2 T01110089
63870K0J4 0J420161221233511612/21/16 23:35:31  5-MIN K0J4 220435Z AUTO 00000KT 10SM FEW065 BKN090 11/09 A3027 0 89 -400 000/00 RMK AO2 T01060089
63870K0J4 0J420161221234011612/21/16 23:40:31  5-MIN K0J4 220440Z AUTO 00000KT 10SM FEW065 BKN090 11/09 A3027 0 89 -400 000/00 RMK AO2 T01060089
63870K0J4 0J420161221234511612/21/16 23:45:31  5-MIN K0J4 220445Z AUTO 00000KT 10SM FEW065 BKN090 11/09 A3026 0 89 -400 000/00 RMK AO2 T01060089
63870K0J4 0J420161221235011612/21/16 23:50:31  5-MIN K0J4 220450Z AUTO 00000KT 10SM FEW065 SCT090 11/09 A3026 0 89 -400 000/00 RMK AO2 T01060089
63870K0J4 0J420161221235513312/21/16 23:55:31  5-MIN K0J4 220455Z AUTO 00000KT 10SM SCT065 BKN090 11/08 A3026 0 86 -400 000/00 RMK AO2 SLP246 T01060083 402060067
63870K0J4 0J420161222000011612/22/16 00:00:31  5-MIN K0J4 220500Z AUTO 00000KT 10SM BKN065 BKN090 11/08 A3026 0 86 -400 000/00 RMK AO2 T01060083
63870K0J4 0J420161222000511712/22/16 00:05:31  5-MIN K0J4 220505Z AUTO 00000KT 10SM SCT065 BKN090 11/09 A3026 10 89 -400 000/00 RMK AO2 T01060089
63870K0J4 0J420161222001011012/22/16 00:10:31  5-MIN K0J4 220510Z AUTO 00000KT 10SM SCT065 10/08 A3025 10 89 -500 000/00 RMK AO2 T01000083
63870K0J4 0J420161222001511012/22/16 00:15:31  5-MIN K0J4 220515Z AUTO 00000KT 10SM FEW065 11/08 A3025 10 86 -400 000/00 RMK AO2 T01060083
63870K0J4 0J420161222002011712/22/16 00:20:31  5-MIN K0J4 220520Z AUTO 00000KT 10SM FEW065 SCT090 10/09 A3025 10 93 -500 000/00 RMK AO2 T01000089
63870K0J4 0J420161222002511712/22/16 00:25:31  5-MIN K0J4 220525Z AUTO 00000KT 10SM FEW065 BKN090 11/09 A3025 10 89 -400 000/00 RMK AO2 T01060089
63870K0J4 0J420161222003011012/22/16 00:30:31  5-MIN K0J4 220530Z AUTO 00000KT 10SM BKN090 11/09 A3025 10 86 -400 000/00 RMK AO2 T01110089
63870K0J4 0J420161222003511012/22/16 00:35:31  5-MIN K0J4 220535Z AUTO 00000KT 10SM BKN090 11/09 A3025 10 86 -400 000/00 RMK AO2 T01110089
63870K0J4 0J420161222004011012/22/16 00:40:31  5-MIN K0J4 220540Z AUTO 00000KT 10SM BKN090 11/09 A3025 10 89 -400 000/00 RMK AO2 T01060089
63870K0J4 0J420161222004511012/22/16 00:45:31  5-MIN K0J4 220545Z AUTO 00000KT 10SM OVC090 11/09 A3025 10 89 -400 000/00 RMK AO2 T01060089
63870K0J4 0J420161222005011712/22/16 00:50:31  5-MIN K0J4 220550Z AUTO 00000KT 10SM FEW075 OVC090 11/09 A3025 10 86 -400 000/00 RMK AO2 T01110089
63870K0J4 0J420161222005514212/22/16 00:55:31  5-MIN K0J4 220555Z AUTO 00000KT 10SM FEW075 OVC090 11/09 A3025 10 89 -400 000/00 RMK AO2 SLP241 T01060089 10117 20094 52006
63870K0J4 0J420161222010011012/22/16 01:00:31  5-MIN K0J4 220600Z AUTO 00000KT 10SM OVC090 11/09 A3025 20 89 -400 000/00 RMK AO2 T01060089
63870K0J4 0J420161222010511012/22/16 01:05:31  5-MIN K0J4 220605Z AUTO 00000KT 10SM OVC090 11/09 A3024 20 89 -400 000/00 RMK AO2 T01060089
63870K0J4 0J420161222011011012/22/16 01:10:31  5-MIN K0J4 220610Z AUTO 22003KT 10SM BKN090 11/09 A3024 20 89 -400 220/03 RMK AO2 T01060089
63870K0J4 0J420161222011511012/22/16 01:15:31  5-MIN K0J4 220615Z AUTO 21003KT 10SM BKN090 11/09 A3024 20 89 -400 210/03 RMK AO2 T01060089
63870K0J4 0J420161222012011012/22/16 01:20:31  5-MIN K0J4 220620Z AUTO 00000KT 10SM OVC090 11/09 A3024 20 89 -400 000/00 RMK AO2 T01060089
63870K0J4 0J420161222012511012/22/16 01:25:31  5-MIN K0J4 220625Z AUTO 00000KT 10SM BKN090 11/09 A3024 20 89 -400 000/00 RMK AO2 T01060089
63870K0J4 0J420161222013011712/22/16 01:30:31  5-MIN K0J4 220630Z AUTO 00000KT 10SM FEW065 BKN090 11/09 A3024 20 89 -400 000/00 RMK AO2 T01060089
63870K0J4 0J420161222013511712/22/16 01:35:31  5-MIN K0J4 220635Z AUTO 00000KT 10SM SCT065 BKN090 11/09 A3024 20 86 -400 000/00 RMK AO2 T01110089
63870K0J4 0J420161222014011712/22/16 01:40:31  5-MIN K0J4 220640Z AUTO 00000KT 10SM FEW065 BKN090 11/09 A3024 20 89 -400 000/00 RMK AO2 T01060089
63870K0J4 0J420161222014511712/22/16 01:45:31  5-MIN K0J4 220645Z AUTO 00000KT 10SM FEW065 BKN090 11/09 A3024 20 89 -400 000/00 RMK AO2 T01060089
63870K0J4 0J420161222015011712/22/16 01:50:31  5-MIN K0J4 220650Z AUTO 00000KT 10SM FEW065 BKN090 11/09 A3024 20 89 -400 000/00 RMK AO2 T01060089
63870K0J4 0J420161222015512412/22/16 01:55:31  5-MIN K0J4 220655Z AUTO 00000KT 10SM FEW065 OVC090 11/09 A3025 20 89 -400 000/00 RMK AO2 SLP241 T01060089
63870K0J4 0J420161222020011712/22/16 02:00:31  5-MIN K0J4 220700Z AUTO 00000KT 10SM FEW065 OVC090 11/09 A3025 10 89 -400 000/00 RMK AO2 T01060089
63870K0J4 0J420161222020511712/22/16 02:05:31  5-MIN K0J4 220705Z AUTO 00000KT 10SM FEW070 OVC090 11/09 A3025 10 89 -400 000/00 RMK AO2 T01060089
63870K0J4 0J420161222021011712/22/16 02:10:31  5-MIN K0J4 220710Z AUTO 00000KT 10SM FEW065 OVC090 11/09 A3025 20 89 -400 000/00 RMK AO2 T01060089
63870K0J4 0J420161222021511712/22/16 02:15:31  5-MIN K0J4 220715Z AUTO 00000KT 10SM FEW065 OVC090 10/09 A3025 20 93 -500 000/00 RMK AO2 T01000089
63870K0J4 0J420161222022011712/22/16 02:20:31  5-MIN K0J4 220720Z AUTO 00000KT 10SM FEW065 OVC090 11/09 A3025 10 89 -400 000/00 RMK AO2 T01060089
63870K0J4 0J420161222022511712/22/16 02:25:31  5-MIN K0J4 220725Z AUTO 00000KT 10SM FEW070 OVC090 11/09 A3026 10 89 -400 000/00 RMK AO2 T01110094
63870K0J4 0J420161222023011712/22/16 02:30:31  5-MIN K0J4 220730Z AUTO 00000KT 10SM SCT070 OVC090 11/09 A3026 10 89 -400 000/00 RMK AO2 T01060089
63870K0J4 0J420161222023511712/22/16 02:35:31  5-MIN K0J4 220735Z AUTO 00000KT 10SM SCT065 OVC090 11/09 A3025 10 89 -400 000/00 RMK AO2 T01060089
63870K0J4 0J420161222024011712/22/16 02:40:31  5-MIN K0J4 220740Z AUTO 00000KT 10SM SCT065 OVC090 11/09 A3025 10 89 -400 000/00 RMK AO2 T01110094
63870K0J4 0J420161222024511712/22/16 02:45:31  5-MIN K0J4 220745Z AUTO 00000KT 10SM SCT065 OVC090 11/09 A3024 20 89 -400 000/00 RMK AO2 T01060089
63870K0J4 0J420161222025011712/22/16 02:50:31  5-MIN K0J4 220750Z AUTO 00000KT 10SM FEW065 OVC090 11/09 A3024 20 89 -400 000/00 RMK AO2 T01060089
63870K0J4 0J420161222025512412/22/16 02:55:31  5-MIN K0J4 220755Z AUTO 00000KT 10SM FEW065 OVC095 11/09 A3024 20 89 -400 000/00 RMK AO2 SLP238 T01110094
63870K0J4 0J420161222030011712/22/16 03:00:31  5-MIN K0J4 220800Z AUTO 00000KT 10SM FEW065 OVC095 11/09 A3025 20 89 -400 000/00 RMK AO2 T01110094
63870K0J4 0J420161222030511012/22/16 03:05:31  5-MIN K0J4 220805Z AUTO 00000KT 10SM OVC095 11/09 A3025 10 89 -400 000/00 RMK AO2 T01110094
63870K0J4 0J420161222031011012/22/16 03:10:31  5-MIN K0J4 220810Z AUTO 00000KT 10SM OVC095 11/09 A3025 20 89 -400 000/00 RMK AO2 T01060089
63870K0J4 0J420161222031511012/22/16 03:15:31  5-MIN K0J4 220815Z AUTO 00000KT 10SM OVC095 11/09 A3025 10 86 -400 000/00 RMK AO2 T01110089
63870K0J4 0J420161222032011012/22/16 03:20:31  5-MIN K0J4 220820Z AUTO 00000KT 10SM BKN095 11/09 A3025 10 89 -400 000/00 RMK AO2 T01060089
63870K0J4 0J420161222032511012/22/16 03:25:31  5-MIN K0J4 220825Z AUTO 00000KT 10SM BKN095 11/09 A3025 10 89 -400 000/00 RMK AO2 T01060089
63870K0J4 0J420161222033011012/22/16 03:30:31  5-MIN K0J4 220830Z AUTO 00000KT 10SM BKN095 11/09 A3025 10 89 -400 000/00 RMK AO2 T01060089
63870K0J4 0J420161222033511012/22/16 03:35:31  5-MIN K0J4 220835Z AUTO 00000KT 10SM BKN095 11/09 A3025 10 89 -400 000/00 RMK AO2 T01060089
63870K0J4 0J420161222034011012/22/16 03:40:31  5-MIN K0J4 220840Z AUTO 00000KT 10SM BKN090 10/09 A3025 10 93 -500 000/00 RMK AO2 T01000089
63870K0J4 0J420161222034511012/22/16 03:45:31  5-MIN K0J4 220845Z AUTO 00000KT 10SM SCT090 10/08 A3025 20 89 -500 000/00 RMK AO2 T01000083
63870K0J4 0J420161222035011012/22/16 03:50:31  5-MIN K0J4 220850Z AUTO 00000KT 10SM BKN090 10/08 A3025 10 89 -500 000/00 RMK AO2 T01000083
63870K0J4 0J420161222035512312/22/16 03:55:31  5-MIN K0J4 220855Z AUTO 00000KT 10SM BKN090 11/09 A3025 10 89 -400 000/00 RMK AO2 SLP240 T01060089 58007
63870K0J4 0J420161222040011012/22/16 04:00:31  5-MIN K0J4 220900Z AUTO 00000KT 10SM BKN090 11/09 A3025 20 89 -400 000/00 RMK AO2 T01060089
63870K0J4 0J420161222040511012/22/16 04:05:31  5-MIN K0J4 220905Z AUTO 00000KT 10SM BKN095 10/09 A3024 20 93 -500 000/00 RMK AO2 T01000089
63870K0J4 0J420161222041011012/22/16 04:10:31  5-MIN K0J4 220910Z AUTO 18003KT 10SM BKN095 10/09 A3023 30 93 -500 180/03 RMK AO2 T01000089
63870K0J4 0J420161222041511012/22/16 04:15:31  5-MIN K0J4 220915Z AUTO 20003KT 10SM OVC095 10/09 A3023 30 93 -500 200/03 RMK AO2 T01000089
63870K0J4 0J420161222042011012/22/16 04:20:31  5-MIN K0J4 220920Z AUTO 00000KT 10SM OVC095 11/09 A3023 30 89 -400 000/00 RMK AO2 T01060089
63870K0J4 0J420161222042511012/22/16 04:25:31  5-MIN K0J4 220925Z AUTO 00000KT 10SM OVC095 11/09 A3023 30 89 -400 000/00 RMK AO2 T01060089
63870K0J4 0J420161222043011012/22/16 04:30:31  5-MIN K0J4 220930Z AUTO 00000KT 10SM OVC095 11/09 A3023 30 89 -400 000/00 RMK AO2 T01060089
63870K0J4 0J420161222043511012/22/16 04:35:31  5-MIN K0J4 220935Z AUTO 00000KT 10SM OVC095 11/09 A3024 20 93 -400 000/00 RMK AO2 T01060094
63870K0J4 0J420161222044011012/22/16 04:40:31  5-MIN K0J4 220940Z AUTO 00000KT 10SM OVC095 11/09 A3024 20 89 -400 000/00 RMK AO2 T01060089
63870K0J4 0J420161222044511012/22/16 04:45:31  5-MIN K0J4 220945Z AUTO 00000KT 10SM OVC095 11/09 A3024 20 93 -400 000/00 RMK AO2 T01060094
63870K0J4 0J420161222045011012/22/16 04:50:31  5-MIN K0J4 220950Z AUTO 00000KT 10SM OVC095 11/09 A3024 20 93 -400 000/00 RMK AO2 T01060094
63870K0J4 0J420161222045511712/22/16 04:55:31  5-MIN K0J4 220955Z AUTO 00000KT 10SM OVC095 11/09 A3024 20 89 -400 000/00 RMK AO2 SLP238 T01060089
63870K0J4 0J420161222050011012/22/16 05:00:31  5-MIN K0J4 221000Z AUTO 01003KT 10SM OVC095 11/09 A3024 20 89 -400 010/03 RMK AO2 T01060089
63870K0J4 0J420161222050511012/22/16 05:05:31  5-MIN K0J4 221005Z AUTO 36003KT 10SM OVC095 11/09 A3024 20 89 -400 360/03 RMK AO2 T01060089
63870K0J4 0J420161222051011012/22/16 05:10:31  5-MIN K0J4 221010Z AUTO 35005KT 10SM OVC095 11/09 A3025 20 86 -400 350/05 RMK AO2 T01110089
63870K0J4 0J420161222051511012/22/16 05:15:31  5-MIN K0J4 221015Z AUTO 36003KT 10SM OVC095 11/09 A3025 20 86 -400 360/03 RMK AO2 T01110089
63870K0J4 0J420161222052011012/22/16 05:20:31  5-MIN K0J4 221020Z AUTO 02003KT 10SM OVC100 11/09 A3025 20 89 -400 020/03 RMK AO2 T01060089
63870K0J4 0J420161222052511012/22/16 05:25:31  5-MIN K0J4 221025Z AUTO 00000KT 10SM OVC100 11/09 A3025 10 89 -400 000/00 RMK AO2 T01060089
63870K0J4 0J420161222053011012/22/16 05:30:31  5-MIN K0J4 221030Z AUTO 00000KT 10SM OVC100 11/09 A3025 10 89 -400 000/00 RMK AO2 T01060089
63870K0J4 0J420161222053511012/22/16 05:35:31  5-MIN K0J4 221035Z AUTO 00000KT 10SM OVC100 11/09 A3025 10 89 -400 000/00 RMK AO2 T01060089
63870K0J4 0J420161222054011012/22/16 05:40:31  5-MIN K0J4 221040Z AUTO 00000KT 10SM OVC100 11/08 A3025 10 86 -400 000/00 RMK AO2 T01060083
63870K0J4 0J420161222054511012/22/16 05:45:31  5-MIN K0J4 221045Z AUTO 00000KT 10SM OVC100 11/08 A3025 10 86 -400 000/00 RMK AO2 T01060083
63870K0J4 0J420161222055011012/22/16 05:50:31  5-MIN K0J4 221050Z AUTO 00000KT 10SM OVC100 11/08 A3025 10 86 -400 000/00 RMK AO2 T01060083
63870K0J4 0J420161222055512412/22/16 05:55:31  5-MIN K0J4 221055Z AUTO 00000KT 10SM FEW080 OVC100 11/08 A3025 10 86 -400 000/00 RMK AO2 SLP243 T01060083
63870K0J4 0J420161222060011712/22/16 06:00:31  5-MIN K0J4 221100Z AUTO 00000KT 10SM FEW080 OVC100 11/09 A3026 10 89 -400 000/00 RMK AO2 T01060089
63870K0J4 0J420161222060512312/22/16 06:05:31  5-MIN K0J4 221105Z AUTO 00000KT 10SM FEW065 FEW080 OVC100 11/09 A3026 0 89 -400 000/00 RMK AO2 T01060089
63870K0J4 0J420161222061012312/22/16 06:10:31  5-MIN K0J4 221110Z AUTO 00000KT 10SM SCT065 SCT080 OVC100 11/09 A3026 0 89 -400 000/00 RMK AO2 T01060089
63870K0J4 0J420161222061512312/22/16 06:15:31  5-MIN K0J4 221115Z AUTO 00000KT 10SM BKN065 BKN080 OVC100 11/09 A3027 0 89 -400 000/00 RMK AO2 T01060089
63870K0J4 0J420161222062011612/22/16 06:20:31  5-MIN K0J4 221120Z AUTO 00000KT 10SM BKN065 OVC100 11/09 A3027 0 86 -400 000/00 RMK AO2 T01110089
63870K0J4 0J420161222062511612/22/16 06:25:31  5-MIN K0J4 221125Z AUTO 00000KT 10SM BKN065 OVC100 11/09 A3027 0 89 -500 000/00 RMK AO2 T01060089
63870K0J4 0J420161222063010912/22/16 06:30:31  5-MIN K0J4 221130Z AUTO 00000KT 10SM OVC065 11/09 A3027 0 89 -500 000/00 RMK AO2 T01060089
63870K0J4 0J420161222063510912/22/16 06:35:31  5-MIN K0J4 221135Z AUTO 02003KT 10SM OVC065 11/09 A3027 0 89 -500 020/03 RMK AO2 T01060089
63870K0J4 0J420161222064011112/22/16 06:40:31  5-MIN K0J4 221140Z AUTO 00000KT 10SM OVC065 11/09 A3028 -10 86 -400 000/00 RMK AO2 T01110089
63870K0J4 0J420161222064511112/22/16 06:45:31  5-MIN K0J4 221145Z AUTO 00000KT 10SM OVC065 11/09 A3028 -10 89 -500 000/00 RMK AO2 T01060089
63870K0J4 0J420161222065011112/22/16 06:50:31  5-MIN K0J4 221150Z AUTO 00000KT 10SM OVC065 11/09 A3028 -10 89 -500 000/00 RMK AO2 T01060089
63870K0J4 0J420161222065514312/22/16 06:55:31  5-MIN K0J4 221155Z AUTO 00000KT 10SM BKN065 OVC100 11/09 A3028 -10 89 -500 000/00 RMK AO2 SLP253 T01060089 10111 20100 50000
63870K0J4 0J420161222070011812/22/16 07:00:31  5-MIN K0J4 221200Z AUTO 00000KT 10SM BKN065 OVC100 11/09 A3028 -10 89 -500 000/00 RMK AO2 T01060089
63870K0J4 0J420161222070511812/22/16 07:05:31  5-MIN K0J4 221205Z AUTO 34003KT 10SM BKN065 OVC100 11/09 A3029 -20 89 -500 340/03 RMK AO2 T01060089
63870K0J4 0J420161222071011812/22/16 07:10:31  5-MIN K0J4 221210Z AUTO VRB04KT 10SM BKN065 OVC100 12/09 A3029 -20 83 -300 VRB/04 RMK AO2 T01170089
63870K0J4 0J420161222071511812/22/16 07:15:31  5-MIN K0J4 221215Z AUTO 36004KT 10SM SCT065 OVC100 12/08 A3029 -20 80 -300 360/04 RMK AO2 T01170083
63870K0J4 0J420161222072011812/22/16 07:20:31  5-MIN K0J4 221220Z AUTO 35004KT 10SM FEW065 OVC100 11/08 A3030 -30 83 -400 350/04 RMK AO2 T01110083
63870K0J4 0J420161222072511812/22/16 07:25:31  5-MIN K0J4 221225Z AUTO 00000KT 10SM FEW065 OVC100 11/08 A3030 -30 83 -400 000/00 RMK AO2 T01110083
63870K0J4 0J420161222073011812/22/16 07:30:31  5-MIN K0J4 221230Z AUTO 00000KT 10SM FEW065 OVC100 11/08 A3030 -30 83 -400 000/00 RMK AO2 T01110083
63870K0J4 0J420161222073511812/22/16 07:35:31  5-MIN K0J4 221235Z AUTO 00000KT 10SM FEW065 OVC100 11/08 A3030 -30 83 -400 000/00 RMK AO2 T01110083
63870K0J4 0J420161222074011112/22/16 07:40:31  5-MIN K0J4 221240Z AUTO 00000KT 10SM OVC100 11/08 A3030 -30 83 -400 000/00 RMK AO2 T01110083
63870K0J4 0J420161222074511112/22/16 07:45:31  5-MIN K0J4 221245Z AUTO 00000KT 10SM OVC100 11/08 A3030 -30 83 -400 000/00 RMK AO2 T01110083
63870K0J4 0J420161222075011112/22/16 07:50:31  5-MIN K0J4 221250Z AUTO 01003KT 10SM OVC100 11/09 A3030 -30 86 -400 010/03 RMK AO2 T01110089
63870K0J4 0J420161222075511812/22/16 07:55:31  5-MIN K0J4 221255Z AUTO 00000KT 10SM OVC100 11/08 A3030 -30 83 -400 000/00 RMK AO2 SLP259 T01110083
63870K0J4 0J420161222080011112/22/16 08:00:31  5-MIN K0J4 221300Z AUTO 00000KT 10SM OVC095 11/09 A3030 -30 86 -400 000/00 RMK AO2 T01110089
63870K0J4 0J420161222080511112/22/16 08:05:31  5-MIN K0J4 221305Z AUTO 00000KT 10SM OVC095 11/08 A3030 -30 83 -400 000/00 RMK AO2 T01110083
63870K0J4 0J420161222081011112/22/16 08:10:31  5-MIN K0J4 221310Z AUTO 00000KT 10SM OVC095 11/09 A3030 -30 86 -400 000/00 RMK AO2 T01110089
63870K0J4 0J420161222081511112/22/16 08:15:31  5-MIN K0J4 221315Z AUTO 00000KT 10SM OVC095 11/09 A3030 -30 86 -400 000/00 RMK AO2 T01110089
63870K0J4 0J420161222082011112/22/16 08:20:31  5-MIN K0J4 221320Z AUTO 00000KT 10SM OVC095 12/09 A3030 -30 83 -400 000/00 RMK AO2 T01170089
63870K0J4 0J420161222082511112/22/16 08:25:31  5-MIN K0J4 221325Z AUTO 00000KT 10SM OVC095 12/09 A3030 -30 83 -300 000/00 RMK AO2 T01170089
63870K0J4 0J420161222083011112/22/16 08:30:31  5-MIN K0J4 221330Z AUTO 00000KT 10SM OVC095 12/09 A3030 -30 83 -400 000/00 RMK AO2 T01170089
63870K0J4 0J420161222083511112/22/16 08:35:31  5-MIN K0J4 221335Z AUTO 00000KT 10SM OVC095 12/09 A3030 -30 83 -400 000/00 RMK AO2 T01170089
63870K0J4 0J420161222084011112/22/16 08:40:31  5-MIN K0J4 221340Z AUTO 00000KT 10SM OVC095 12/09 A3030 -30 83 -400 000/00 RMK AO2 T01170089
63870K0J4 0J420161222084511112/22/16 08:45:31  5-MIN K0J4 221345Z AUTO 00000KT 10SM OVC095 12/09 A3030 -30 83 -400 000/00 RMK AO2 T01170089
63870K0J4 0J420161222085011112/22/16 08:50:31  5-MIN K0J4 221350Z AUTO 00000KT 10SM OVC095 12/09 A3030 -30 83 -300 000/00 RMK AO2 T01220094
63870K0J4 0J420161222085511812/22/16 08:55:31  5-MIN K0J4 221355Z AUTO 00000KT 10SM OVC095 12/09 A3030 -30 83 -300 000/00 RMK AO2 SLP261 T01220094
63870K0J4 0J420161222090011112/22/16 09:00:31  5-MIN K0J4 221400Z AUTO 00000KT 10SM OVC095 12/09 A3030 -30 80 -300 000/00 RMK AO2 T01220089
63870K0J4 0J420161222090511112/22/16 09:05:31  5-MIN K0J4 221405Z AUTO 00000KT 10SM OVC100 12/09 A3030 -30 80 -300 000/00 RMK AO2 T01220089
63870K0J4 0J420161222091011112/22/16 09:10:31  5-MIN K0J4 221410Z AUTO 00000KT 10SM OVC095 12/09 A3030 -30 83 -300 000/00 RMK AO2 T01220094
63870K0J4 0J420161222091511112/22/16 09:15:31  5-MIN K0J4 221415Z AUTO 00000KT 10SM OVC095 12/09 A3030 -30 83 -300 000/00 RMK AO2 T01220094
63870K0J4 0J420161222092011812/22/16 09:20:31  5-MIN K0J4 221420Z AUTO 18003KT 10SM FEW065 OVC100 12/09 A3030 -30 83 -300 180/03 RMK AO2 T01220094
63870K0J4 0J420161222092511812/22/16 09:25:31  5-MIN K0J4 221425Z AUTO 17003KT 10SM FEW065 OVC100 12/09 A3030 -30 83 -300 170/03 RMK AO2 T01220094
63870K0J4 0J420161222093011812/22/16 09:30:31  5-MIN K0J4 221430Z AUTO 00000KT 10SM FEW065 OVC095 13/09 A3030 -30 80 -200 000/00 RMK AO2 T01280094
63870K0J4 0J420161222093511112/22/16 09:35:31  5-MIN K0J4 221435Z AUTO 17003KT 10SM OVC095 13/09 A3030 -30 80 -200 170/03 RMK AO2 T01280094
63870K0J4 0J420161222094011112/22/16 09:40:31  5-MIN K0J4 221440Z AUTO 00000KT 10SM OVC100 13/09 A3030 -30 80 -200 000/00 RMK AO2 T01280094
63870K0J4 0J420161222094511112/22/16 09:45:31  5-MIN K0J4 221445Z AUTO 00000KT 10SM OVC100 13/10 A3030 -30 80 -200 000/00 RMK AO2 T01330100
63870K0J4 0J420161222095011112/22/16 09:50:31  5-MIN K0J4 221450Z AUTO 00000KT 10SM OVC095 13/10 A3031 -30 80 -200 000/00 RMK AO2 T01330100
63870K0J4 0J420161222095512412/22/16 09:55:31  5-MIN K0J4 221455Z AUTO 00000KT 10SM OVC095 14/10 A3031 -30 77 -100 000/00 RMK AO2 SLP261 T01390100 53013
63870K0J4 0J420161222100011112/22/16 10:00:31  5-MIN K0J4 221500Z AUTO 00000KT 10SM OVC100 14/10 A3031 -30 77 -100 000/00 RMK AO2 T01390100
63870K0J4 0J420161222100510812/22/16 10:05:31  5-MIN K0J4 221505Z AUTO 00000KT 10SM OVC100 14/11 A3030 -30 77 0 000/00 RMK AO2 T01440106
63870K0J4 0J420161222101011012/22/16 10:10:31  5-MIN K0J4 221510Z AUTO 00000KT 10SM OVC095 16/11 A3030 -30 74 100 000/00 RMK AO2 T01560111
63870K0J4 0J420161222101511012/22/16 10:15:31  5-MIN K0J4 221515Z AUTO 00000KT 10SM BKN095 16/11 A3030 -30 74 100 000/00 RMK AO2 T01560111
63870K0J4 0J420161222102011012/22/16 10:20:31  5-MIN K0J4 221520Z AUTO 00000KT 10SM BKN095 16/11 A3030 -30 72 100 000/00 RMK AO2 T01560106
63870K0J4 0J420161222102511012/22/16 10:25:31  5-MIN K0J4 221525Z AUTO 00000KT 10SM SCT095 16/11 A3030 -30 72 100 000/00 RMK AO2 T01610111
63870K0J4 0J420161222103011012/22/16 10:30:31  5-MIN K0J4 221530Z AUTO 19003KT 10SM SCT095 17/11 A3030 -30 69 200 190/03 RMK AO2 T01670111
63870K0J4 0J420161222103511012/22/16 10:35:31  5-MIN K0J4 221535Z AUTO 21003KT 10SM FEW095 17/11 A3030 -30 69 200 210/03 RMK AO2 T01670111
63870K0J4 0J420161222104010712/22/16 10:40:31  5-MIN K0J4 221540Z AUTO 20003KT 10SM CLR 17/11 A3030 -30 69 200 200/03 RMK AO2 T01670111
63870K0J4 0J420161222104510712/22/16 10:45:31  5-MIN K0J4 221545Z AUTO 18003KT 10SM CLR 17/12 A3030 -30 69 300 180/03 RMK AO2 T01720117
63870K0J4 0J420161222105010712/22/16 10:50:31  5-MIN K0J4 221550Z AUTO 18004KT 10SM CLR 17/12 A3030 -30 69 300 180/04 RMK AO2 T01720117
63870K0J4 0J420161222105511412/22/16 10:55:31  5-MIN K0J4 221555Z AUTO VRB03KT 10SM CLR 18/12 A3030 -30 67 300 VRB/03 RMK AO2 SLP259 T01780117
63870K0J4 0J420161222110010712/22/16 11:00:31  5-MIN K0J4 221600Z AUTO 19003KT 10SM CLR 18/12 A3030 -30 65 400 190/03 RMK AO2 T01830117
63870K0J4 0J420161222110510712/22/16 11:05:31  5-MIN K0J4 221605Z AUTO VRB03KT 10SM CLR 18/12 A3030 -20 65 400 VRB/03 RMK AO2 T01830117
63870K0J4 0J420161222111010712/22/16 11:10:31  5-MIN K0J4 221610Z AUTO VRB04KT 10SM CLR 19/12 A3029 -20 62 500 VRB/04 RMK AO2 T01890117
63870K0J4 0J420161222111510712/22/16 11:15:31  5-MIN K0J4 221615Z AUTO VRB03KT 10SM CLR 19/12 A3029 -20 62 500 VRB/03 RMK AO2 T01890117
63870K0J4 0J420161222112010712/22/16 11:20:31  5-MIN K0J4 221620Z AUTO 25004KT 10SM CLR 19/12 A3029 -20 62 500 250/04 RMK AO2 T01890117
63870K0J4 0J420161222112510712/22/16 11:25:31  5-MIN K0J4 221625Z AUTO 00000KT 10SM CLR 19/12 A3029 -20 62 500 000/00 RMK AO2 T01890117
63870K0J4 0J420161222113011012/22/16 11:30:31  5-MIN K0J4 221630Z AUTO VRB03KT 10SM FEW028 19/12 A3028 -10 62 500 VRB/03 RMK AO2 T01940122
63870K0J4 0J420161222113511012/22/16 11:35:31  5-MIN K0J4 221635Z AUTO 23005KT 10SM SCT028 20/12 A3028 -10 60 600 230/05 RMK AO2 T02000122
63870K0J4 0J420161222114011012/22/16 11:40:31  5-MIN K0J4 221640Z AUTO 00000KT 10SM SCT028 19/12 A3028 -10 62 500 000/00 RMK AO2 T01940122
63870K0J4 0J420161222114511012/22/16 11:45:31  5-MIN K0J4 221645Z AUTO VRB04KT 10SM SCT028 20/12 A3028 -10 60 600 VRB/04 RMK AO2 T02000122
63870K0J4 0J420161222115010812/22/16 11:50:31  5-MIN K0J4 221650Z AUTO 24004KT 10SM FEW027 20/12 A3027 0 60 600 240/04 RMK AO2 T02000122
63870K0J4 0J420161222115511512/22/16 11:55:31  5-MIN K0J4 221655Z AUTO 24005KT 10SM SCT027 20/12 A3027 0 60 600 240/05 RMK AO2 SLP247 T02000122
63870K0J4 0J420161222120010812/22/16 12:00:31  5-MIN K0J4 221700Z AUTO 00000KT 10SM FEW027 20/12 A3026 0 60 600 000/00 RMK AO2 T02000122
63870K0J4 0J420161222120510812/22/16 12:05:31  5-MIN K0J4 221705Z AUTO VRB04KT 10SM FEW025 20/13 A3026 0 63 600 VRB/04 RMK AO2 T02000128
63870K0J4 0J420161222121010812/22/16 12:10:31  5-MIN K0J4 221710Z AUTO VRB03KT 10SM FEW025 20/13 A3026 0 63 600 VRB/03 RMK AO2 T02000128
63870K0J4 0J420161222121510912/22/16 12:15:31  5-MIN K0J4 221715Z AUTO 31005KT 10SM SCT025 21/13 A3026 10 60 700 310/05 RMK AO2 T02060128
63870K0J4 0J420161222122010912/22/16 12:20:31  5-MIN K0J4 221720Z AUTO VRB03KT 10SM SCT025 21/13 A3025 10 60 700 VRB/03 RMK AO2 T02060128
63870K0J4 0J420161222122510912/22/16 12:25:31  5-MIN K0J4 221725Z AUTO VRB05KT 10SM SCT025 21/13 A3025 10 60 700 VRB/05 RMK AO2 T02060128
63870K0J4 0J420161222123010912/22/16 12:30:31  5-MIN K0J4 221730Z AUTO VRB04KT 10SM SCT025 20/13 A3025 10 63 600 VRB/04 RMK AO2 T02000128
63870K0J4 0J420161222123510912/22/16 12:35:31  5-MIN K0J4 221735Z AUTO VRB03KT 10SM BKN025 20/13 A3025 20 63 600 VRB/03 RMK AO2 T02000128
63870K0J4 0J420161222124010912/22/16 12:40:31  5-MIN K0J4 221740Z AUTO VRB03KT 10SM BKN025 20/13 A3024 20 63 600 VRB/03 RMK AO2 T02000128
63870K0J4 0J420161222124510912/22/16 12:45:31  5-MIN K0J4 221745Z AUTO 00000KT 10SM SCT025 21/13 A3024 20 63 700 000/00 RMK AO2 T02060133
63870K0J4 0J420161222125010912/22/16 12:50:31  5-MIN K0J4 221750Z AUTO VRB03KT 10SM SCT025 21/13 A3024 20 60 700 VRB/03 RMK AO2 T02060128
63870K0J4 0J420161222125513412/22/16 12:55:31  5-MIN K0J4 221755Z AUTO VRB03KT 10SM SCT027 21/13 A3024 30 60 700 VRB/03 RMK AO2 SLP236 T02060128 10211 20106 51008
63870K0J4 0J420161222130010912/22/16 13:00:31  5-MIN K0J4 221800Z AUTO VRB03KT 10SM FEW027 21/13 A3023 30 60 700 VRB/03 RMK AO2 T02060128
63870K0J4 0J420161222130510912/22/16 13:05:31  5-MIN K0J4 221805Z AUTO VRB03KT 10SM FEW027 21/13 A3023 30 60 700 VRB/03 RMK AO2 T02060128
63870K0J4 0J420161222131010912/22/16 13:10:31  5-MIN K0J4 221810Z AUTO VRB04KT 10SM FEW028 20/13 A3023 30 63 700 VRB/04 RMK AO2 T02000128
63870K0J4 0J420161222131510912/22/16 13:15:31  5-MIN K0J4 221815Z AUTO VRB03KT 10SM SCT028 21/13 A3023 30 63 700 VRB/03 RMK AO2 T02060133
63870K0J4 0J420161222132010912/22/16 13:20:31  5-MIN K0J4 221820Z AUTO VRB03KT 10SM FEW028 21/13 A3023 30 60 700 VRB/03 RMK AO2 T02060128
63870K0J4 0J420161222132510912/22/16 13:25:31  5-MIN K0J4 221825Z AUTO VRB03KT 10SM FEW027 21/13 A3023 30 60 700 VRB/03 RMK AO2 T02060128
63870K0J4 0J420161222133010912/22/16 13:30:31  5-MIN K0J4 221830Z AUTO 00000KT 10SM FEW027 20/13 A3023 30 63 700 000/00 RMK AO2 T02000128
63870K0J4 0J420161222133511612/22/16 13:35:31  5-MIN K0J4 221835Z AUTO 00000KT 10SM FEW027 FEW033 21/13 A3023 30 61 800 000/00 RMK AO2 T02110133
63870K0J4 0J420161222134011612/22/16 13:40:31  5-MIN K0J4 221840Z AUTO VRB03KT 10SM SCT027 SCT033 22/13 A3023 30 56 900 VRB/03 RMK AO2 T02220133
63870K0J4 0J420161222134509912/22/16 13:45:31  5-MIN K0J4 221845Z AUTO 10SM SCT028 21/13 A3023 30 58 800 M /M RMK AO2 T02110128
63870K0J4 0J420161222135010912/22/16 13:50:31  5-MIN K0J4 221850Z AUTO 32005KT 10SM SCT030 21/13 A3023 30 60 700 320/05 RMK AO2 T02060128
63870K0J4 0J420161222135511612/22/16 13:55:31  5-MIN K0J4 221855Z AUTO VRB04KT 10SM SCT030 21/13 A3022 40 61 800 VRB/04 RMK AO2 SLP232 T02110133
63870K0J4 0J420161222140011612/22/16 14:00:31  5-MIN K0J4 221900Z AUTO VRB03KT 10SM FEW028 SCT033 21/13 A3022 40 58 800 VRB/03 RMK AO2 T02110128
63870K0J4 0J420161222140513212/22/16 14:05:31  5-MIN K0J4 221905Z AUTO VRB03KT 10SM -RA FEW028 SCT033 21/13 A3022 40 58 800 VRB/03 RMK AO2 RAB02 P0000 T02110128
63870K0J4 0J420161222141012512/22/16 14:10:31  5-MIN K0J4 221910Z AUTO VRB03KT 10SM -RA FEW030 21/13 A3022 40 60 700 VRB/03 RMK AO2 RAB02 P0000 T02060128
63870K0J4 0J420161222141512412/22/16 14:15:31  5-MIN K0J4 221915Z AUTO VRB03KT 10SM FEW032 22/13 A3022 40 56 900 VRB/03 RMK AO2 RAB02E12 P0000 T02170128
63870K0J4 0J420161222142012112/22/16 14:20:31  5-MIN K0J4 221920Z AUTO VRB03KT 10SM CLR 22/13 A3022 40 54 900 VRB/03 RMK AO2 RAB02E12 P0000 T02220128
63870K0J4 0J420161222142512112/22/16 14:25:31  5-MIN K0J4 221925Z AUTO VRB04KT 10SM CLR 22/13 A3022 40 54 900 VRB/04 RMK AO2 RAB02E12 P0000 T02220128
63870K0J4 0J420161222143012112/22/16 14:30:31  5-MIN K0J4 221930Z AUTO VRB03KT 10SM CLR 22/12 A3021 50 54 900 VRB/03 RMK AO2 RAB02E12 P0000 T02170122
63870K0J4 0J420161222143512112/22/16 14:35:31  5-MIN K0J4 221935Z AUTO VRB03KT 10SM CLR 21/12 A3021 50 56 800 VRB/03 RMK AO2 RAB02E12 P0000 T02110122
63870K0J4 0J420161222144012412/22/16 14:40:31  5-MIN K0J4 221940Z AUTO VRB05KT 10SM FEW036 21/12 A3021 50 56 800 VRB/05 RMK AO2 RAB02E12 P0000 T02110122
63870K0J4 0J420161222144512412/22/16 14:45:31  5-MIN K0J4 221945Z AUTO 00000KT 10SM SCT036 21/13 A3021 40 60 700 000/00 RMK AO2 RAB02E12 P0000 T02060128
63870K0J4 0J420161222145012412/22/16 14:50:31  5-MIN K0J4 221950Z AUTO VRB03KT 10SM BKN034 21/13 A3022 40 60 700 VRB/03 RMK AO2 RAB02E12 P0000 T02060128
63870K0J4 0J420161222145513112/22/16 14:55:31  5-MIN K0J4 221955Z AUTO 33003KT 10SM BKN036 21/13 A3021 50 58 800 330/03 RMK AO2 RAB02E12 SLP229 P0000 T02110128
63870K0J4 0J420161222150010912/22/16 15:00:31  5-MIN K0J4 222000Z AUTO 30005KT 10SM BKN038 21/13 A3021 50 58 800 300/05 RMK AO2 T02110128
63870K0J4 0J420161222150510912/22/16 15:05:31  5-MIN K0J4 222005Z AUTO 31004KT 10SM BKN038 21/12 A3021 50 58 700 310/04 RMK AO2 T02060122
63870K0J4 0J420161222151010912/22/16 15:10:31  5-MIN K0J4 222010Z AUTO VRB03KT 10SM BKN038 21/13 A3021 50 60 700 VRB/03 RMK AO2 T02060128
63870K0J4 0J420161222151510912/22/16 15:15:31  5-MIN K0J4 222015Z AUTO 00000KT 10SM BKN038 21/13 A3021 50 58 800 000/00 RMK AO2 T02110128
63870K0J4 0J420161222152010912/22/16 15:20:31  5-MIN K0J4 222020Z AUTO VRB03KT 10SM BKN038 22/13 A3021 50 56 900 VRB/03 RMK AO2 T02170128
63870K0J4 0J420161222152510912/22/16 15:25:31  5-MIN K0J4 222025Z AUTO 00000KT 10SM BKN038 22/13 A3021 50 56 900 000/00 RMK AO2 T02170128
63870K0J4 0J420161222153010912/22/16 15:30:31  5-MIN K0J4 222030Z AUTO VRB05KT 10SM BKN038 22/13 A3021 50 56 900 VRB/05 RMK AO2 T02170128
63870K0J4 0J420161222153512512/22/16 15:35:31  5-MIN K0J4 222035Z AUTO 35006KT 10SM -RA BKN036 21/12 A3021 50 56 800 350/06 RMK AO2 RAB32 P0000 T02110122
63870K0J4 0J420161222154012512/22/16 15:40:31  5-MIN K0J4 222040Z AUTO 35004KT 10SM -RA BKN036 21/12 A3021 50 56 800 350/04 RMK AO2 RAB32 P0000 T02110122
63870K0J4 0J420161222154512412/22/16 15:45:31  5-MIN K0J4 222045Z AUTO 35004KT 10SM BKN038 21/13 A3021 50 58 800 350/04 RMK AO2 RAB32E43 P0000 T02110128
63870K0J4 0J420161222155012412/22/16 15:50:31  5-MIN K0J4 222050Z AUTO 01005KT 10SM BKN038 21/13 A3021 50 58 800 010/05 RMK AO2 RAB32E43 P0000 T02110128
63870K0J4 0J420161222155514312/22/16 15:55:31  5-MIN K0J4 222055Z AUTO 35004KT 10SM BKN038 21/12 A3021 50 58 700 350/04 RMK AO2 RAB32E43 SLP229 P0000 60000 T02060122 58024
63870K0J4 0J420161222160010912/22/16 16:00:31  5-MIN K0J4 222100Z AUTO 34004KT 10SM BKN038 21/13 A3022 40 60 700 340/04 RMK AO2 T02060128
63870K0J4 0J420161222160510912/22/16 16:05:31  5-MIN K0J4 222105Z AUTO 34004KT 10SM OVC038 21/13 A3022 40 60 700 340/04 RMK AO2 T02060128
63870K0J4 0J420161222161010912/22/16 16:10:31  5-MIN K0J4 222110Z AUTO VRB03KT 10SM OVC038 21/12 A3022 40 58 700 VRB/03 RMK AO2 T02060122
63870K0J4 0J420161222161510912/22/16 16:15:31  5-MIN K0J4 222115Z AUTO 34003KT 10SM OVC038 21/13 A3022 40 60 700 340/03 RMK AO2 T02060128
63870K0J4 0J420161222162010912/22/16 16:20:31  5-MIN K0J4 222120Z AUTO VRB06KT 10SM OVC037 21/13 A3022 40 60 700 VRB/06 RMK AO2 T02060128
63870K0J4 0J420161222162510912/22/16 16:25:31  5-MIN K0J4 222125Z AUTO 34004KT 10SM OVC037 20/13 A3022 40 63 700 340/04 RMK AO2 T02000128
63870K0J4 0J420161222163010912/22/16 16:30:31  5-MIN K0J4 222130Z AUTO VRB04KT 10SM OVC036 20/13 A3022 40 63 700 VRB/04 RMK AO2 T02000128
63870K0J4 0J420161222163510912/22/16 16:35:31  5-MIN K0J4 222135Z AUTO VRB05KT 10SM OVC036 20/13 A3023 30 63 700 VRB/05 RMK AO2 T02000128
63870K0J4 0J420161222164010912/22/16 16:40:31  5-MIN K0J4 222140Z AUTO VRB04KT 10SM OVC036 20/13 A3023 30 63 700 VRB/04 RMK AO2 T02000128
63870K0J4 0J420161222164510912/22/16 16:45:31  5-MIN K0J4 222145Z AUTO VRB04KT 10SM OVC036 19/13 A3023 30 65 600 VRB/04 RMK AO2 T01940128
63870K0J4 0J420161222165010912/22/16 16:50:31  5-MIN K0J4 222150Z AUTO 35004KT 10SM OVC036 19/13 A3023 30 65 600 350/04 RMK AO2 T01940128
63870K0J4 0J420161222165511612/22/16 16:55:31  5-MIN K0J4 222155Z AUTO 34004KT 10SM OVC036 19/13 A3023 30 65 600 340/04 RMK AO2 SLP234 T01940128
63870K0J4 0J420161222170010912/22/16 17:00:31  5-MIN K0J4 222200Z AUTO 36004KT 10SM OVC036 19/13 A3023 30 65 600 360/04 RMK AO2 T01940128
63870K0J4 0J420161222170510912/22/16 17:05:31  5-MIN K0J4 222205Z AUTO 00000KT 10SM OVC036 19/13 A3023 30 67 500 000/00 RMK AO2 T01890128
63870K0J4 0J420161222171010912/22/16 17:10:31  5-MIN K0J4 222210Z AUTO VRB03KT 10SM OVC035 19/13 A3023 30 67 500 VRB/03 RMK AO2 T01890128
63870K0J4 0J420161222171510912/22/16 17:15:31  5-MIN K0J4 222215Z AUTO VRB03KT 10SM OVC035 19/13 A3023 30 67 500 VRB/03 RMK AO2 T01890128
63870K0J4 0J420161222172010912/22/16 17:20:31  5-MIN K0J4 222220Z AUTO 00000KT 10SM OVC035 19/13 A3024 30 67 500 000/00 RMK AO2 T01890128
63870K0J4 0J420161222172510912/22/16 17:25:31  5-MIN K0J4 222225Z AUTO 34003KT 10SM OVC035 19/13 A3024 20 67 500 340/03 RMK AO2 T01890128
63870K0J4 0J420161222173010912/22/16 17:30:31  5-MIN K0J4 222230Z AUTO 00000KT 10SM OVC035 18/13 A3024 20 72 500 000/00 RMK AO2 T01830133
63870K0J4 0J420161222173510912/22/16 17:35:31  5-MIN K0J4 222235Z AUTO 34003KT 10SM OVC035 18/13 A3024 20 72 500 340/03 RMK AO2 T01830133
63870K0J4 0J420161222174010912/22/16 17:40:31  5-MIN K0J4 222240Z AUTO 00000KT 10SM OVC037 18/13 A3024 20 72 500 000/00 RMK AO2 T01830133
63870K0J4 0J420161222174510912/22/16 17:45:31  5-MIN K0J4 222245Z AUTO 35003KT 10SM OVC037 18/13 A3024 20 70 500 350/03 RMK AO2 T01830128
63870K0J4 0J420161222175010912/22/16 17:50:31  5-MIN K0J4 222250Z AUTO 00000KT 10SM OVC037 18/13 A3024 20 72 500 000/00 RMK AO2 T01830133
63870K0J4 0J420161222175511612/22/16 17:55:31  5-MIN K0J4 222255Z AUTO 34003KT 10SM OVC037 18/13 A3025 10 75 400 340/03 RMK AO2 SLP241 T01780133
63870K0J4 0J420161222180010912/22/16 18:00:31  5-MIN K0J4 222300Z AUTO VRB03KT 10SM OVC037 18/13 A3025 10 72 400 VRB/03 RMK AO2 T01780128
63870K0J4 0J420161222180510912/22/16 18:05:31  5-MIN K0J4 222305Z AUTO VRB03KT 10SM OVC036 18/13 A3025 10 72 400 VRB/03 RMK AO2 T01780128
63870K0J4 0J420161222181010912/22/16 18:10:31  5-MIN K0J4 222310Z AUTO VRB03KT 10SM OVC036 18/13 A3025 10 72 400 VRB/03 RMK AO2 T01780128
63870K0J4 0J420161222181512512/22/16 18:15:31  5-MIN K0J4 222315Z AUTO 34004KT 10SM -RA OVC036 18/13 A3025 10 72 400 340/04 RMK AO2 RAB14 P0000 T01780128
63870K0J4 0J420161222182012512/22/16 18:20:31  5-MIN K0J4 222320Z AUTO 34003KT 10SM -RA OVC036 18/13 A3025 10 72 400 340/03 RMK AO2 RAB14 P0000 T01780128
63870K0J4 0J420161222182513112/22/16 18:25:31  5-MIN K0J4 222325Z AUTO 00000KT 10SM BKN036 OVC045 18/13 A3025 10 72 400 000/00 RMK AO2 RAB14E23 P0000 T01780128
63870K0J4 0J420161222183013112/22/16 18:30:31  5-MIN K0J4 222330Z AUTO 00000KT 10SM BKN036 OVC045 18/13 A3025 10 72 400 000/00 RMK AO2 RAB14E23 P0000 T01780128
63870K0J4 0J420161222183513112/22/16 18:35:31  5-MIN K0J4 222335Z AUTO 33003KT 10SM SCT036 OVC045 18/13 A3026 10 72 400 330/03 RMK AO2 RAB14E23 P0000 T01780128
63870K0J4 0J420161222184013212/22/16 18:40:31  5-MIN K0J4 222340Z AUTO 34003KT 10SM -RA SCT036 OVC045 17/13 A3025 10 75 300 340/03 RMK AO2 RAB14 P0000 T01720128
63870K0J4 0J420161222184513112/22/16 18:45:31  5-MIN K0J4 222345Z AUTO 00000KT 10SM FEW038 OVC045 17/13 A3025 10 75 300 000/00 RMK AO2 RAB14E45 P0000 T01720128
63870K0J4 0J420161222185012412/22/16 18:50:31  5-MIN K0J4 222350Z AUTO 00000KT 10SM OVC047 17/13 A3025 10 75 300 000/00 RMK AO2 RAB14E45 P0000 T01720128
63870K0J4 0J420161222185515512/22/16 18:55:31  5-MIN K0J4 222355Z AUTO 00000KT 10SM OVC047 17/13 A3026 10 75 300 000/00 RMK AO2 RAB14E45 SLP244 P0000 60000 T01720128 10222 20172 55007
63870K0J4 0J420161222190010912/22/16 19:00:31  5-MIN K0J4 230000Z AUTO 35003KT 10SM OVC047 17/13 A3026 10 78 300 350/03 RMK AO2 T01720133
63870K0J4 0J420161222190510812/22/16 19:05:31  5-MIN K0J4 230005Z AUTO 00000KT 10SM OVC047 17/13 A3026 0 75 300 000/00 RMK AO2 T01720128
63870K0J4 0J420161222191010812/22/16 19:10:31  5-MIN K0J4 230010Z AUTO 34003KT 10SM OVC048 17/13 A3026 0 78 300 340/03 RMK AO2 T01720133
63870K0J4 0J420161222191510812/22/16 19:15:31  5-MIN K0J4 230015Z AUTO 34003KT 10SM OVC048 17/13 A3026 0 78 300 340/03 RMK AO2 T01720133
63870K0J4 0J420161222192010812/22/16 19:20:31  5-MIN K0J4 230020Z AUTO 36003KT 10SM OVC050 17/13 A3026 0 78 300 360/03 RMK AO2 T01720133
63870K0J4 0J420161222192510812/22/16 19:25:31  5-MIN K0J4 230025Z AUTO 00000KT 10SM OVC050 17/13 A3027 0 75 300 000/00 RMK AO2 T01720128
63870K0J4 0J420161222193010812/22/16 19:30:31  5-MIN K0J4 230030Z AUTO VRB03KT 10SM OVC050 17/13 A3027 0 75 300 VRB/03 RMK AO2 T01720128
63870K0J4 0J420161222193511512/22/16 19:35:31  5-MIN K0J4 230035Z AUTO 35003KT 10SM FEW040 OVC050 17/13 A3027 0 75 300 350/03 RMK AO2 T01720128
63870K0J4 0J420161222194011512/22/16 19:40:31  5-MIN K0J4 230040Z AUTO 36003KT 10SM BKN040 OVC050 17/13 A3027 0 75 300 360/03 RMK AO2 T01720128
63870K0J4 0J420161222194511512/22/16 19:45:31  5-MIN K0J4 230045Z AUTO 00000KT 10SM BKN040 OVC050 17/13 A3027 0 78 300 000/00 RMK AO2 T01720133
63870K0J4 0J420161222195011512/22/16 19:50:31  5-MIN K0J4 230050Z AUTO 00000KT 10SM BKN039 OVC050 17/13 A3027 0 75 300 000/00 RMK AO2 T01720128
63870K0J4 0J420161222195511512/22/16 19:55:31  5-MIN K0J4 230055Z AUTO 36004KT 10SM OVC039 17/13 A3027 0 78 300 360/04 RMK AO2 SLP250 T01720133
63870K0J4 0J420161222200010812/22/16 20:00:31  5-MIN K0J4 230100Z AUTO 01004KT 10SM OVC038 17/13 A3027 0 75 300 010/04 RMK AO2 T01720128
63870K0J4 0J420161222200510812/22/16 20:05:31  5-MIN K0J4 230105Z AUTO 36004KT 10SM OVC038 17/13 A3027 0 78 300 360/04 RMK AO2 T01720133
63870K0J4 0J420161222201010812/22/16 20:10:31  5-MIN K0J4 230110Z AUTO 36004KT 10SM OVC037 17/13 A3027 0 75 300 360/04 RMK AO2 T01720128
63870K0J4 0J420161222201510812/22/16 20:15:31  5-MIN K0J4 230115Z AUTO 36004KT 10SM OVC037 17/13 A3027 0 75 300 360/04 RMK AO2 T01720128
63870K0J4 0J420161222202010812/22/16 20:20:31  5-MIN K0J4 230120Z AUTO 36003KT 10SM OVC039 17/13 A3027 0 75 300 360/03 RMK AO2 T01720128
63870K0J4 0J420161222202511512/22/16 20:25:31  5-MIN K0J4 230125Z AUTO 01004KT 10SM BKN039 OVC055 17/13 A3027 0 75 300 010/04 RMK AO2 T01720128
63870K0J4 0J420161222203011712/22/16 20:30:31  5-MIN K0J4 230130Z AUTO 01005KT 10SM BKN039 OVC055 17/13 A3028 -10 77 200 010/05 RMK AO2 T01670128
63870K0J4 0J420161222203512412/22/16 20:35:31  5-MIN K0J4 230135Z AUTO 36004KT 10SM BKN039 BKN047 OVC055 17/13 A3028 -10 77 200 360/04 RMK AO2 T01670128
63870K0J4 0J420161222204011712/22/16 20:40:31  5-MIN K0J4 230140Z AUTO 36004KT 10SM BKN042 OVC060 17/13 A3028 -10 77 200 360/04 RMK AO2 T01670128
63870K0J4 0J420161222204512412/22/16 20:45:31  5-MIN K0J4 230145Z AUTO 36004KT 10SM SCT042 BKN049 OVC060 17/13 A3028 -10 77 200 360/04 RMK AO2 T01670128
63870K0J4 0J420161222205012412/22/16 20:50:31  5-MIN K0J4 230150Z AUTO VRB03KT 10SM FEW041 BKN049 OVC060 17/13 A3028 -10 77 200 VRB/03 RMK AO2 T01670128
63870K0J4 0J420161222205513112/22/16 20:55:31  5-MIN K0J4 230155Z AUTO 36004KT 10SM FEW041 BKN049 OVC060 17/13 A3028 -10 77 200 360/04 RMK AO2 SLP253 T01670128
63870K0J4 0J420161222210011712/22/16 21:00:31  5-MIN K0J4 230200Z AUTO 36003KT 10SM BKN047 OVC060 17/13 A3028 -10 77 200 360/03 RMK AO2 T01670128
63870K0J4 0J420161222210511712/22/16 21:05:31  5-MIN K0J4 230205Z AUTO 36004KT 10SM BKN049 OVC060 17/13 A3028 -10 77 200 360/04 RMK AO2 T01670128
63870K0J4 0J420161222211011712/22/16 21:10:31  5-MIN K0J4 230210Z AUTO 35004KT 10SM BKN049 OVC060 17/13 A3028 -10 77 200 350/04 RMK AO2 T01670128
63870K0J4 0J420161222211511712/22/16 21:15:31  5-MIN K0J4 230215Z AUTO 35003KT 10SM BKN049 OVC060 16/12 A3028 -10 77 100 350/03 RMK AO2 T01610122
63870K0J4 0J420161222212011712/22/16 21:20:31  5-MIN K0J4 230220Z AUTO 36004KT 10SM BKN049 OVC060 16/12 A3028 -10 77 100 360/04 RMK AO2 T01610122
63870K0J4 0J420161222212511712/22/16 21:25:31  5-MIN K0J4 230225Z AUTO 36004KT 10SM BKN049 OVC060 16/12 A3028 -10 77 100 360/04 RMK AO2 T01610122
63870K0J4 0J420161222213011712/22/16 21:30:31  5-MIN K0J4 230230Z AUTO 35003KT 10SM SCT049 BKN060 16/12 A3028 -10 80 100 350/03 RMK AO2 T01560122
63870K0J4 0J420161222213511712/22/16 21:35:31  5-MIN K0J4 230235Z AUTO 36004KT 10SM SCT049 BKN060 16/12 A3029 -10 80 100 360/04 RMK AO2 T01560122
63870K0J4 0J420161222214011712/22/16 21:40:31  5-MIN K0J4 230240Z AUTO VRB03KT 10SM FEW049 SCT060 16/12 A3029 -20 80 100 VRB/03 RMK AO2 T01560122
63870K0J4 0J420161222214511712/22/16 21:45:31  5-MIN K0J4 230245Z AUTO 36003KT 10SM FEW049 SCT060 16/12 A3029 -20 80 100 360/03 RMK AO2 T01560122
63870K0J4 0J420161222215010812/22/16 21:50:31  5-MIN K0J4 230250Z AUTO 36005KT 10SM SCT060 15/12 A3029 -20 83 0 360/05 RMK AO2 T01500122
63870K0J4 0J420161222215512112/22/16 21:55:31  5-MIN K0J4 230255Z AUTO 36004KT 10SM FEW060 15/12 A3029 -20 83 0 360/04 RMK AO2 SLP255 T01500122 51014
63870K0J4 0J420161222220010812/22/16 22:00:31  5-MIN K0J4 230300Z AUTO 36004KT 10SM FEW060 15/12 A3029 -20 80 0 360/04 RMK AO2 T01500117
63870K0J4 0J420161222220510812/22/16 22:05:31  5-MIN K0J4 230305Z AUTO 01004KT 10SM FEW060 15/12 A3029 -20 80 0 010/04 RMK AO2 T01500117
63870K0J4 0J420161222221010812/22/16 22:10:31  5-MIN K0J4 230310Z AUTO 01004KT 10SM FEW060 15/12 A3029 -10 80 0 010/04 RMK AO2 T01500117
63870K0J4 0J420161222221510812/22/16 22:15:31  5-MIN K0J4 230315Z AUTO 36004KT 10SM FEW060 14/12 A3029 -10 83 0 360/04 RMK AO2 T01440117
63870K0J4 0J420161222222010812/22/16 22:20:31  5-MIN K0J4 230320Z AUTO 36004KT 10SM CLR 14/12 A3028 -10 86 -100 360/04 RMK AO2 T01390117
63870K0J4 0J420161222222510812/22/16 22:25:31  5-MIN K0J4 230325Z AUTO 01004KT 10SM CLR 14/12 A3029 -20 86 -100 010/04 RMK AO2 T01390117
63870K0J4 0J420161222223010812/22/16 22:30:31  5-MIN K0J4 230330Z AUTO 01004KT 10SM CLR 14/12 A3028 -10 86 -100 010/04 RMK AO2 T01390117
63870K0J4 0J420161222223510812/22/16 22:35:31  5-MIN K0J4 230335Z AUTO 01003KT 10SM CLR 13/12 A3028 -10 89 -100 010/03 RMK AO2 T01330117
63870K0J4 0J420161222224010812/22/16 22:40:31  5-MIN K0J4 230340Z AUTO 36003KT 10SM CLR 13/12 A3029 -10 89 -100 360/03 RMK AO2 T01330117
63870K0J4 0J420161222224510812/22/16 22:45:31  5-MIN K0J4 230345Z AUTO 36004KT 10SM CLR 14/12 A3029 -20 86 -100 360/04 RMK AO2 T01390117
63870K0J4 0J420161222225010812/22/16 22:50:31  5-MIN K0J4 230350Z AUTO 01004KT 10SM CLR 13/11 A3029 -20 86 -100 010/04 RMK AO2 T01330111
63870K0J4 0J420161222225511512/22/16 22:55:31  5-MIN K0J4 230355Z AUTO 01004KT 10SM CLR 13/11 A3028 -10 89 -200 010/04 RMK AO2 SLP252 T01280111
63870K0J4 0J420161222230010812/22/16 23:00:31  5-MIN K0J4 230400Z AUTO 02004KT 10SM CLR 13/11 A3028 -10 86 -100 020/04 RMK AO2 T01330111
63870K0J4 0J420161222230510812/22/16 23:05:31  5-MIN K0J4 230405Z AUTO 02003KT 10SM CLR 13/11 A3028 -10 86 -100 020/03 RMK AO2 T01330111
63870K0J4 0J420161222231010812/22/16 23:10:31  5-MIN K0J4 230410Z AUTO 02003KT 10SM CLR 13/11 A3028 -10 86 -100 020/03 RMK AO2 T01330111
63870K0J4 0J420161222231510812/22/16 23:15:31  5-MIN K0J4 230415Z AUTO 01003KT 10SM CLR 13/11 A3028 -10 89 -200 010/03 RMK AO2 T01280111
63870K0J4 0J420161222232010812/22/16 23:20:31  5-MIN K0J4 230420Z AUTO 02003KT 10SM CLR 12/11 A3028 -10 89 -300 020/03 RMK AO2 T01220106
63870K0J4 0J420161222232510812/22/16 23:25:31  5-MIN K0J4 230425Z AUTO 02003KT 10SM CLR 12/11 A3028 -10 89 -300 020/03 RMK AO2 T01220106
63870K0J4 0J420161222233010812/22/16 23:30:31  5-MIN K0J4 230430Z AUTO 00000KT 10SM CLR 12/11 A3028 -10 89 -300 000/00 RMK AO2 T01220106
63870K0J4 0J420161222233510712/22/16 23:35:31  5-MIN K0J4 230435Z AUTO 01003KT 9SM CLR 12/11 A3028 -10 89 -300 010/03 RMK AO2 T01220106
63870K0J4 0J420161222234010712/22/16 23:40:31  5-MIN K0J4 230440Z AUTO 01003KT 9SM CLR 11/10 A3029 -10 93 -400 010/03 RMK AO2 T01110100
63870K0J4 0J420161222234510712/22/16 23:45:31  5-MIN K0J4 230445Z AUTO 01003KT 9SM CLR 12/10 A3029 -10 89 -300 010/03 RMK AO2 T01170100
63870K0J4 0J420161222235010712/22/16 23:50:31  5-MIN K0J4 230450Z AUTO 00000KT 9SM CLR 11/10 A3029 -10 93 -400 000/00 RMK AO2 T01110100
63870K0J4 0J420161222235512412/22/16 23:55:31  5-MIN K0J4 230455Z AUTO 00000KT 8SM CLR 11/10 A3029 -20 93 -400 000/00 RMK AO2 SLP253 T01110100 402220100
63870K0J4 0J420161223000010712/23/16 00:00:31  5-MIN K0J4 230500Z AUTO 00000KT 7SM CLR 11/10 A3029 -10 93 -400 000/00 RMK AO2 T01110100
63870K0J4 0J420161223000510712/23/16 00:05:31  5-MIN K0J4 230505Z AUTO 00000KT 7SM CLR 11/10 A3029 -20 93 -400 000/00 RMK AO2 T01110100
63870K0J4 0J420161223001010712/23/16 00:10:31  5-MIN K0J4 230510Z AUTO 00000KT 7SM CLR 11/10 A3029 -20 93 -400 000/00 RMK AO2 T01110100
63870K0J4 0J420161223001510712/23/16 00:15:31  5-MIN K0J4 230515Z AUTO 00000KT 7SM CLR 11/09 A3029 -20 93 -500 000/00 RMK AO2 T01060094
63870K0J4 0J420161223002010712/23/16 00:20:31  5-MIN K0J4 230520Z AUTO 00000KT 7SM CLR 11/09 A3028 -10 93 -500 000/00 RMK AO2 T01060094
63870K0J4 0J420161223002510712/23/16 00:25:31  5-MIN K0J4 230525Z AUTO 00000KT 7SM CLR 11/09 A3028 -10 89 -500 000/00 RMK AO2 T01060089
63870K0J4 0J420161223003010712/23/16 00:30:31  5-MIN K0J4 230530Z AUTO 00000KT 7SM CLR 11/09 A3028 -10 89 -500 000/00 RMK AO2 T01060089
63870K0J4 0J420161223003510712/23/16 00:35:31  5-MIN K0J4 230535Z AUTO 00000KT 7SM CLR 11/09 A3029 -10 89 -500 000/00 RMK AO2 T01060089
63870K0J4 0J420161223004011012/23/16 00:40:31  5-MIN K0J4 230540Z AUTO 00000KT 6SM BR CLR 10/09 A3028 -10 93 -500 000/00 RMK AO2 T01000089
63870K0J4 0J420161223004511012/23/16 00:45:31  5-MIN K0J4 230545Z AUTO 00000KT 6SM BR CLR 10/09 A3028 -10 93 -500 000/00 RMK AO2 T01000089
63870K0J4 0J420161223005011012/23/16 00:50:31  5-MIN K0J4 230550Z AUTO 00000KT 6SM BR CLR 10/09 A3028 -10 93 -500 000/00 RMK AO2 T01000089
63870K0J4 0J420161223005513512/23/16 00:55:31  5-MIN K0J4 230555Z AUTO 00000KT 5SM BR CLR 11/09 A3028 -10 89 -500 000/00 RMK AO2 SLP251 T01060089 10172 20100 51010
63870K0J4 0J420161223010011012/23/16 01:00:31  5-MIN K0J4 230600Z AUTO 00000KT 5SM BR CLR 10/09 A3028 -10 93 -500 000/00 RMK AO2 T01000089
63870K0J4 0J420161223010511012/23/16 01:05:31  5-MIN K0J4 230605Z AUTO 00000KT 5SM BR CLR 10/09 A3028 -10 93 -500 000/00 RMK AO2 T01000089
63870K0J4 0J420161223011011012/23/16 01:10:31  5-MIN K0J4 230610Z AUTO 00000KT 6SM BR CLR 10/09 A3028 -10 93 -500 000/00 RMK AO2 T01000089
63870K0J4 0J420161223011511012/23/16 01:15:31  5-MIN K0J4 230615Z AUTO 36003KT 6SM BR CLR 10/08 A3028 -10 89 -500 360/03 RMK AO2 T01000083
63870K0J4 0J420161223012010712/23/16 01:20:31  5-MIN K0J4 230620Z AUTO 01004KT 7SM CLR 10/08 A3028 -10 89 -500 010/04 RMK AO2 T01000083
63870K0J4 0J420161223012512312/23/16 01:25:31  5-MIN K0J4 230625Z AUTO 36004KT 9SM -RA CLR 10/08 A3028 -10 89 -500 360/04 RMK AO2 RAB24 P0000 T01000083
63870K0J4 0J420161223013012412/23/16 01:30:31  5-MIN K0J4 230630Z AUTO 36004KT 10SM -RA CLR 11/09 A3028 -10 89 -400 360/04 RMK AO2 RAB24 P0000 T01110094
63870K0J4 0J420161223013512312/23/16 01:35:31  5-MIN K0J4 230635Z AUTO VRB04KT 10SM CLR 12/09 A3029 -20 86 -300 VRB/04 RMK AO2 RAB24E33 P0000 T01170094
63870K0J4 0J420161223014012312/23/16 01:40:31  5-MIN K0J4 230640Z AUTO 36004KT 10SM CLR 12/09 A3029 -20 86 -300 360/04 RMK AO2 RAB24E33 P0000 T01170094
63870K0J4 0J420161223014512312/23/16 01:45:31  5-MIN K0J4 230645Z AUTO 36004KT 10SM CLR 12/09 A3029 -20 86 -300 360/04 RMK AO2 RAB24E33 P0000 T01170094
63870K0J4 0J420161223015012212/23/16 01:50:31  5-MIN K0J4 230650Z AUTO 36003KT 9SM CLR 11/08 A3029 -20 86 -500 360/03 RMK AO2 RAB24E33 P0000 T01060083
63870K0J4 0J420161223015512912/23/16 01:55:31  5-MIN K0J4 230655Z AUTO 36004KT 9SM CLR 10/08 A3029 -20 89 -500 360/04 RMK AO2 RAB24E33 SLP253 P0000 T01000083
63870K0J4 0J420161223020010712/23/16 02:00:31  5-MIN K0J4 230700Z AUTO 01004KT 9SM CLR 10/08 A3029 -20 89 -500 010/04 RMK AO2 T01000083
63870K0J4 0J420161223020510712/23/16 02:05:31  5-MIN K0J4 230705Z AUTO 01004KT 9SM CLR 10/08 A3029 -20 89 -500 010/04 RMK AO2 T01000083
63870K0J4 0J420161223021010712/23/16 02:10:31  5-MIN K0J4 230710Z AUTO 02003KT 9SM CLR 09/08 A3028 -10 93 -600 020/03 RMK AO2 T00940083
63870K0J4 0J420161223021510712/23/16 02:15:31  5-MIN K0J4 230715Z AUTO 00000KT 9SM CLR 10/08 A3028 -10 89 -500 000/00 RMK AO2 T01000083
63870K0J4 0J420161223022010712/23/16 02:20:31  5-MIN K0J4 230720Z AUTO 02003KT 9SM CLR 09/08 A3028 -10 93 -600 020/03 RMK AO2 T00940083
63870K0J4 0J420161223022510712/23/16 02:25:31  5-MIN K0J4 230725Z AUTO 01004KT 8SM CLR 09/08 A3028 -10 93 -700 010/04 RMK AO2 T00890078
63870K0J4 0J420161223023010712/23/16 02:30:31  5-MIN K0J4 230730Z AUTO 02003KT 8SM CLR 09/08 A3028 -10 93 -700 020/03 RMK AO2 T00890078
63870K0J4 0J420161223023510712/23/16 02:35:31  5-MIN K0J4 230735Z AUTO 02003KT 9SM CLR 09/08 A3028 -10 93 -700 020/03 RMK AO2 T00890078
63870K0J4 0J420161223024010812/23/16 02:40:31  5-MIN K0J4 230740Z AUTO 04003KT 10SM CLR 09/08 A3028 -10 89 -600 040/03 RMK AO2 T00940078
63870K0J4 0J420161223024510812/23/16 02:45:31  5-MIN K0J4 230745Z AUTO 02003KT 10SM CLR 10/08 A3028 -10 89 -500 020/03 RMK AO2 T01000083
63870K0J4 0J420161223025010812/23/16 02:50:31  5-MIN K0J4 230750Z AUTO 02003KT 10SM CLR 09/08 A3028 -10 93 -600 020/03 RMK AO2 T00940083
63870K0J4 0J420161223025511512/23/16 02:55:31  5-MIN K0J4 230755Z AUTO 03003KT 10SM CLR 09/08 A3028 -10 93 -700 030/03 RMK AO2 SLP250 T00890078
63870K0J4 0J420161223030010812/23/16 03:00:31  5-MIN K0J4 230800Z AUTO 00000KT 10SM CLR 09/08 A3028 -10 93 -700 000/00 RMK AO2 T00890078
63870K0J4 0J420161223030510712/23/16 03:05:31  5-MIN K0J4 230805Z AUTO 00000KT 9SM CLR 09/08 A3028 -10 93 -700 000/00 RMK AO2 T00890078
63870K0J4 0J420161223031010712/23/16 03:10:31  5-MIN K0J4 230810Z AUTO 00000KT 9SM CLR 09/08 A3028 -10 93 -700 000/00 RMK AO2 T00890078
63870K0J4 0J420161223031510712/23/16 03:15:31  5-MIN K0J4 230815Z AUTO 00000KT 9SM CLR 09/07 A3028 -10 89 -700 000/00 RMK AO2 T00890072
63870K0J4 0J420161223032010712/23/16 03:20:31  5-MIN K0J4 230820Z AUTO 00000KT 9SM CLR 09/07 A3028 -10 89 -700 000/00 RMK AO2 T00890072
63870K0J4 0J420161223032510812/23/16 03:25:31  5-MIN K0J4 230825Z AUTO 00000KT 10SM CLR 08/07 A3028 -10 93 -700 000/00 RMK AO2 T00830072
63870K0J4 0J420161223033010812/23/16 03:30:31  5-MIN K0J4 230830Z AUTO 00000KT 10SM CLR 09/07 A3028 -10 89 -700 000/00 RMK AO2 T00890072
63870K0J4 0J420161223033510812/23/16 03:35:31  5-MIN K0J4 230835Z AUTO 00000KT 10SM CLR 08/07 A3028 -10 89 -700 000/00 RMK AO2 T00830067
63870K0J4 0J420161223034010712/23/16 03:40:31  5-MIN K0J4 230840Z AUTO 00000KT 9SM CLR 08/07 A3027 -10 89 -700 000/00 RMK AO2 T00830067
63870K0J4 0J420161223034510712/23/16 03:45:31  5-MIN K0J4 230845Z AUTO 00000KT 9SM CLR 08/07 A3028 -10 89 -700 000/00 RMK AO2 T00830067
63870K0J4 0J420161223035010512/23/16 03:50:31  5-MIN K0J4 230850Z AUTO 00000KT 9SM CLR 08/07 A3027 0 89 -700 000/00 RMK AO2 T00830067
63870K0J4 0J420161223035512412/23/16 03:55:31  5-MIN K0J4 230855Z AUTO 00000KT 9SM CLR 08/07 A3027 0 89 -700 000/00 RMK AO2 SLP250 60000 T00830067 56002
63870K0J4 0J420161223040010812/23/16 04:00:31  5-MIN K0J4 230900Z AUTO 02003KT 10SM CLR 09/07 A3028 -10 86 -700 020/03 RMK AO2 T00890067
63870K0J4 0J420161223040510612/23/16 04:05:31  5-MIN K0J4 230905Z AUTO 03003KT 10SM CLR 09/07 A3027 0 86 -600 030/03 RMK AO2 T00940072
63870K0J4 0J420161223041014812/23/16 04:10:31  5-MIN K0J4 230910Z050 10/08 A3028 -10 86 -7812/23/16 5Z AUTO 08003KT 10SM OVC050 10/08 A3029 -20 86 -500 080/03 RMK AO2 T01000078
63870K0J4 0J420161223063011112/23/16 06:30:31  5-MIN K0J4 231130Z AUTO 07003KT 10SM OVC050 10/08 A3029 -10 86 -500 070/03 RMK AO2 T01000078
63870K0J4 0J420161223063511112/23/16 06:35:31  5-MIN K0J4 231135Z AUTO 06004KT 10SM OVC050 10/08 A3029 -20 86 -500 060/04 RMK AO2 T01000078
63870K0J4 0J420161223064011112/23/16 06:40:31  5-MIN K0J4 231140Z AUTO 05004KT 10SM OVC050 10/08 A3029 -20 86 -500 050/04 RMK AO2 T01000078
63870K0J4 0J420161223064511112/23/16 06:45:31  5-MIN K0J4 231145Z AUTO 05004KT 10SM OVC049 11/08 A3029 -20 83 -500 050/04 RMK AO2 T01060078
63870K0J4 0J420161223065011112/23/16 06:50:31  5-MIN K0J4 231150Z AUTO 05004KT 10SM OVC049 11/08 A3029 -20 83 -500 050/04 RMK AO2 T01060078
63870K0J4 0J420161223065514212/23/16 06:55:31  5-MIN K0J4 231155Z AUTO 05004KT 10SM OVC049 11/08 A3029 -20 83 -500 050/04 RMK AO2 SLP257 60000 T01060078 10117 20083 58002
63870K0J4 0J420161223070011112/23/16 07:00:31  5-MIN K0J4 231200Z AUTO 04004KT 10SM OVC049 11/08 A3030 -30 83 -500 040/04 RMK AO2 T01060078
63870K0J4 0J420161223070511112/23/16 07:05:31  5-MIN K0J4 231205Z AUTO 04005KT 10SM OVC049 11/07 A3030 -30 80 -500 040/05 RMK AO2 T01060072
63870K0J4 0J420161223071011112/23/16 07:10:31  5-MIN K0J4 231210Z AUTO 05005KT 10SM OVC049 11/07 A3030 -30 80 -500 050/05 RMK AO2 T01060072
63870K0J4 0J420161223071511112/23/16 07:15:31  5-MIN K0J4 231215Z AUTO 05004KT 10SM OVC049 11/07 A3030 -30 80 -500 050/04 RMK AO2 T01060072
63870K0J4 0J420161223072011112/23/16 07:20:31  5-MIN K0J4 231220Z AUTO 05004KT 10SM OVC049 11/07 A3030 -30 80 -500 050/04 RMK AO2 T01060072
63870K0J4 0J420161223072511112/23/16 07:25:31  5-MIN K0J4 231225Z AUTO 05004KT 10SM OVC049 11/07 A3031 -30 80 -500 050/04 RMK AO2 T01060072
63870K0J4 0J420161223073011812/23/16 07:30:31  5-MIN K0J4 231230Z AUTO 06006KT 10SM FEW035 OVC049 11/07 A3031 -30 80 -500 060/06 RMK AO2 T01060072
63870K0J4 0J420161223073511812/23/16 07:35:31  5-MIN K0J4 231235Z AUTO 06005KT 10SM FEW035 OVC049 11/07 A3031 -40 80 -500 060/05 RMK AO2 T01060072
63870K0J4 0J420161223074011812/23/16 07:40:31  5-MIN K0J4 231240Z AUTO 06004KT 10SM FEW035 OVC049 11/07 A3031 -40 80 -500 060/04 RMK AO2 T01060072
63870K0J4 0J420161223074511812/23/16 07:45:31  5-MIN K0J4 231245Z AUTO 08005KT 10SM FEW035 OVC050 11/07 A3031 -40 80 -500 080/05 RMK AO2 T01060072
63870K0J4 0J420161223085512512/23/16 08:55:31  5-MIN K0J4 231355Z AUTO 08005KT 10SM BKN032 OVC042 11/07 A3033 -50 74 -400 080/05 RMK AO2 SLP268 T01110067
63870K0J4 0J420161223090012512/23/16 09:00:31  5-MIN K0J4 231400Z AUTO 09003KT 10SM BKN032 BKN041 OVC050 11/07 A3033 -50 77 -400 090/03 RMK AO2 T01110072
63870K0J4 0J420161223090512512/23/16 09:05:31  5-MIN K0J4 231405Z AUTO 09004KT 10SM BKN032 BKN041 OVC050 11/07 A3033 -50 74 -400 090/04 RMK AO2 T01110067
63870K0J4 0J420161223091011812/23/16 09:10:31  5-MIN K0J4 231410Z AUTO VRB03KT 10SM BKN032 OVC050 11/07 A3033 -50 74 -400 VRB/03 RMK AO2 T01110067
63870K0J4 0J420161223091511812/23/16 09:15:31  5-MIN K0J4 231415Z AUTO 00000KT 10SM BKN032 OVC050 11/07 A3033 -60 74 -400 000/00 RMK AO2 T01110067
63870K0J4 0J420161223092012512/23/16 09:20:31  5-MIN K0J4 231420Z AUTO 00000KT 10SM BKN033 BKN040 OVC050 11/07 A3033 -50 74 -400 000/00 RMK AO2 T01110067
63870K0J4 0J420161223092511812/23/16 09:25:31  5-MIN K0J4 231425Z AUTO 08003KT 10SM BKN033 OVC048 12/07 A3033 -60 71 -400 080/03 RMK AO2 T01170067
63870K0J4 0J420161223093011812/23/16 09:30:31  5-MIN K0J4 231430Z AUTO 11003KT 10SM BKN033 OVC047 11/07 A3033 -60 74 -500 110/03 RMK AO2 T01110067
63870K0J4 0J420161223093511812/23/16 09:35:31  5-MIN K0J4 231435Z AUTO 11004KT 10SM BKN033 OVC047 11/07 A3033 -60 74 -500 110/04 RMK AO2 T01110067
63870K0J4 0J420161223094011812/23/16 09:40:31  5-MIN K0J4 231440Z AUTO 10003KT 10SM BKN033 OVC049 12/07 A3033 -60 71 -400 100/03 RMK AO2 T01170067
63870K0J4 0J420161223094512512/23/16 09:45:31  5-MIN K0J4 231445Z AUTO 12004KT 10SM SCT032 SCT043 OVC049 12/07 A3033 -60 71 -400 120/04 RMK AO2 T01170067
63870K0J4 0J420161223095011812/23/16 09:50:31  5-MIN K0J4 231450Z AUTO 11004KT 10SM SCT034 OVC049 12/07 A3033 -60 71 -400 110/04 RMK AO2 T01170067
63870K0J4 0J420161223095518412/23/16 09:55:31  5-MIN K0J4 231455Z AUTO VRB04KT 10SM SCT034 OV6 12:30:31  5-MIN K0J4 231730Z AUTO 11003KT 10SM -RA OVC055 16/08 A3031 -40 57 100 110/03 RMK AO2 RAB14 P0000 T01610078
63870K0J4 0J420161223123512512/23/16 12:35:31  5-MIN K0J4 231735Z AUTO VRB04KT 10SM OVC055 17/08 A3031 -30 53 300 VRB/04 RMK AO2 RAB14E34 P0000 T01720078
63870K0J4 0J420161223124012512/23/16 12:40:31  5-MIN K0J4 231740Z AUTO 00000KT 10SM OVC055 17/08 A3030 -30 55 200 000/00 RMK AO2 RAB14E34 P0000 T01670078
63870K0J4 0J420161223124512512/23/16 12:45:31  5-MIN K0J4 231745Z AUTO 15004KT 10SM OVC055 17/08 A3030 -30 55 200 150/04 RMK AO2 RAB14E34 P0000 T01670078
63870K0J4 0J420161223125012512/23/16 12:50:31  5-MIN K0J4 231750Z AUTO VRB04KT 10SM OVC055 17/08 A3030 -30 55 200 VRB/04 RMK AO2 RAB14E34 P0000 T01670078
63870K0J4 0J420161223125515612/23/16 12:55:31  5-MIN K0J4 231755Z AUTO 11003KT 10SM OVC055 17/08 A3030 -30 55 200 110/03 RMK AO2 RAB14E34 SLP258 P0000 60000 T01670078 10172 20106 51013
63870K0J4 0J420161223130011012/23/16 13:00:31  5-MIN K0J4 231800Z AUTO VRB04KT 10SM OVC055 17/08 A3029 -20 53 300 VRB/04 RMK AO2 T01720078
63870K0J4 0J420161223130511012/23/16 13:05:31  5-MIN K0J4 231805Z AUTO 10004KT 10SM OVC055 17/08 A3029 -20 55 300 100/04 RMK AO2 T01720083
63870K0J4 0J420161223131011012/23/16 13:10:31  5-MIN K0J4 231810Z AUTO VRB04KT 10SM OVC055 17/08 A3029 -20 55 300 VRB/04 RMK AO2 T01720083
63870K0J4 0J420161223131508412/23/16 13:15:31  5-MIN K0J4 231815Z AUTO VRB04KT 10SM OVC0000/00 RMK AO2 T01720083
63870K0J4 0J420161223133011012/23/16 13:30:31  5-MIN K0J4 231830Z AUTO 10004KT 10SM OVC055 18/08 A3028 -10 53 300 100/04 RMK AO2 T01780083
63870K0J4 0J420161223133511012/23/16 13:35:31  5-MIN K0J4 231835Z AUTO 10004KT 10SM OVC050 18/08 A3028 -10 53 300 100/04 RMK AO2 T01780083
63870K0J4 0J420161223134011012/23/16 13:40:31  5-MIN K0J4 231840Z AUTO 07006KT 10SM OVC055 18/08 A3028 -10 53 300 070/06 RMK AO2 T01780083
63870K0J4 0J420161223134511012/23/16 13:45:31  5-MIN K0J4 231845Z AUTO VRB04KT 10SM OVC055 18/08 A3028 -10 53 300 VRB/04 RMK AO2 T01780083
63870K0J4 0J420161223135011012/23/16 13:50:31  5-MIN K0J4 231850Z AUTO 09004KT 10SM OVC055 18/08 A3028 -10 53 300 090/04 RMK AO2 T01780083
63870K0J4 0J420161223135511712/23/16 13:55:31  5-MIN K0J4 231855Z AUTO 09005KT 10SM OVC055 18/08 A3028 -10 52 400 090/05 RMK AO2 SLP252 T01830083
63870K0J4 0J420161223140011012/23/16 14:00:31  5-MIN K0J4 231900Z AUTO VRB03KT 10SM OVC055 18/08 A3028 -10 52 400 VRB/03 RMK AO2 T01830083
63870K0J4 0J420161223140511012/23/16 14:05:31  5-MIN K0J4 231905Z AUTO 09004KT 10SM OVC055 18/09 A3028 -10 55 400 090/04 RMK AO2 T01780089
63870K0J4 0J420161223141010812/23/16 14:10:31  5-MIN K0J4 231910Z AUTO VRB03KT 10SM OVC055 18/09 A3027 0 54 400 VRB/03 RMK AO2 T01830089
63870K0J4 0J420161223141510812/23/16 14:15:31  5-MIN K0J4 231915Z AUTO VRB03KT 10SM OVC055 18/09 A3027 0 54 400 VRB/03 RMK AO2 T01830089
63870K0J4 0J420161223142010812/23/16 14:20:31  5-MIN K0J4 231920Z AUTO VRB05KT 10SM OVC055 18/09 A3027 0 54 400 VRB/05 RMK AO2 T01830089
63870K0J4 0J420161223143509812/23/16 14:35:31  5-MIN K0J4 231935Z AUTO 09004KT 19/09 A3027 0 52 500 090/04 RMK AO2 T01890089 $
63870K0J4 0J420161223144010312/23/16 14:40:31  5-MIN K0J4 231940Z AUTO 08006KT 10SM 19/09 A3027 0 52 500 080/06 RMK AO2 T01890089 $
63870K0J4 0J420161223144510312/23/16 14:45:31  5-MIN K0J4 231945Z AUTO 14003KT 10SM 19/09 A3026 0 52 500 140/03 RMK AO2 T01890089 $
63870K0J4 0J420161223145010312/23/16 14:50:31  5-MIN K0J4 231950Z AUTO 10004KT 10SM 19/09 A3026 0 54 500 100/04 RMK AO2 T01890094 $
63870K0J4 0J420161223145511012/23/16 14:55:31  5-MIN K0J4 231955Z AUTO 11004KT 10SM 19/09 A3026 0 54 500 110/04 RMK AO2 SLP246 T01890094 $
63870K0J4 0J420161223150011012/23/16 15:00:31  5-MIN K0J4 232000Z AUTO 11004KT 10SM OVC055 19/09 A3026 0 54 500 110/04 RMK AO2 T01890094 $
63870K0J4 0J420161224231511112/24/16 23:15:31  5-MIN K0J4 250415Z AUTO 00000KT 3/4SM BR CLR 16/15 A3028 -10 93 100 000/00 RMK AO2 T01610150
63870K0J4 0J420161224232010912/24/16 23:20:31  5-MIN K0J4 250420Z AUTO 00000KT 1/2SM FG CLR 15/14 A3028 -10 96 0 000/00 RMK AO2 T01500144
63870K0J4 0J420161224232510912/24/16 23:25:31  5-MIN K0J4 250425Z AUTO 00000KT 1/2SM FG CLR 15/14 A3028 -10 96 0 000/00 RMK AO2 T01500144
63870K0J4 0J420161224233006312/24/16 23:30:31  5-MIN K0J4 250430Z AUTO M M M M /M RMK AO2 $
63870K0J4 0J420161224233510012/24/16 23:35:31  5-MIN K0J4 250435Z AUTO 20003KT 16/14 A3028 -10 93 100 200/03 RMK AO2 T01560144 $
63870K0J4 0J420161224234010712/24/16 23:40:31  5-MIN K0J4 250440Z AUTO 00000KT 1/4SM FG 14/14 A3028 -10 96 0 000/00 RMK AO2 T01440139 $
63870K0J4 0J420161224234510712/24/16 23:45:31  5-MIN K0J4 250445Z AUTO 00000KT 1/4SM FG 15/14 A3028 -10 93 0 000/00 RMK AO2 T01500139 $
63870K0J4 0J420161224235010912/24/16 23:50:31  5-MIN K0J4 250450Z AUTO 00000KT 1/4SM FG 16/14 A3028 -10 93 100 000/00 RMK AO2 T01560144 $
63870K0J4 0J420161224235512412/24/16 23:55:31  5-MIN K0J4 250455Z AUTO 00000KT 1/4SM FG 15/14 A3028 -10 93 0 000/00 RMK AO2 SLP252 T01500139 402610089 $
63870K0J4 0J420161225000011312/25/16 00:00:31  5-MIN K0J4 250500Z AUTO 00000KT 1/4SM FG VV002 14/14 A3028 -10 96 0 000/00 RMK AO2 T01440139 $
63870K0J4 0J420161225000511312/25/16 00:05:31  5-MIN K0J4 250505Z AUTO 00000KT 1/4SM FG VV002 15/14 A3028 -10 93 0 000/00 RMK AO2 T01500139 $
63870K0J4 0J420161225001011312/25/16 00:10:31  5-MIN K0J4 250510Z AUTO 00000KT 1/2SM FG VV002 15/14 A3028 -10 96 0 000/00 RMK AO2 T01500144 $
63870K0J4 0J420161225001507912/25/16 00:15:31  5-MIN K0J4 250515Z AUTO 00000KT A3028 M M M 000/00 RMK AO2 $
63870K0J4 0J420161225002009812/25/16 00:20:31  5-MIN K0J4 250520Z AUTO 19003KT 14/14 A3028 -10 96 0 190/03 RMK AO2 T01440139 $
63870K0J4 0J420161225002510712/25/16 00:25:31  5-MIN K0J4 250525Z AUTO 19003KT 1/2SM FG 14/14 A3028 -10 96 0 190/03 RMK AO2 T01440139 $
63870K0J4 0J420161225003010712/25/16 00:30:31  5-MIN K0J4 250530Z AUTO 19003KT 1/2SM FG 14/14 A3028 -10 96 0 190/03 RMK AO2 T01440139 $
63870K0J4 0J420161225003510712/25/16 00:35:31  5-MIN K0J4 250535Z AUTO 00000KT 1/2SM FG 15/14 A3028 -10 93 0 000/00 RMK AO2 T01500139 $
63870K0J4 0J420161225004010712/25/16 00:40:31  5-MIN K0J4 250540Z AUTO 00000KT 1/2SM FG 14/14 A3028 -10 96 0 000/00 RMK AO2 T01440139 $
63870K0J4 0J420161225004511112/25/16 00:45:31  5-MIN K0J4 250545Z AUTO 00000KT 3/4SM BR CLR 15/14 A3028 -10 93 0 000/00 RMK AO2 T01500139 $
63870K0J4 0J420161225005011912/25/16 00:50:31  5-MIN K0J4 250550Z AUTO 00000KT 1 3/4SM BR CLR 15/14 A3027 0 96 0 000/00 RMK AO2 VIS 1V4 T01500144 $
63870K0J4 0J420161225005512812/25/16 00:55:31  5-MIN K0J4 250555Z AUTO 00000KT 3SM BR CLR 16/14 A3027 0 93 100 000/00 RMK AO2 SLP248 T01560144 10178 20139 $
63870K0J4 0J420161225010011112/25/16 01:00:31  5-MIN K0J4 250600Z AUTO 00000KT 2SM BR CLR 16/14 A3027 -10 93 100 000/00 RMK AO2 T01560144 $
63870K0J4 0J420161225010511112/25/16 01:05:31  5-MIN K0J4 250605Z AUTO 00000KT 1/2SM FG VV005 15/14 A3027 0 93 0 000/00 RMK AO2 T01500139 $
63870K0J4 0J420161225011011312/25/16 01:10:31  5-MIN K0J4 250610Z AUTO 00000KT 1/4SM FG VV005 16/14 A3027 0 93 100 000/00 RMK AO2 T01560144 $
63870K0J4 0J420161225011512712/25/16 01:15:31  5-MIN K0J4 250615Z AUTO 00000KT 1/4SM -RA FG VV004 15/14 A3027 0 96 0 000/00 RMK AO2 RAB15 P0000 T01500144 $
63870K0J4 0J420161225012012712/25/16 01:20:31  5-MIN K0J4 250620Z AUTO 00000KT 1/4SM -RA FG VV004 15/14 A3027 0 96 0 000/00 RMK AO2 RAB15 P0000 T01500144 $
63870K0J4 0J420161225012512612/25/16 01:25:31  5-MIN K0J4 250625Z AUTO 00000KT 1/2SM FG VV004 14/14 A3027 0 96 0 000/00 RMK AO2 RAB15E25 P0000 T01440139 $
63870K0J4 0J420161225013012712/25/16 01:30:31  5-MIN K0J4 250630Z AUTO 00000KT 3/4SM -RA BR VV004 14/13 A3027 0 96 0 000/00 RMK AO2 RAB15 P0000 T01390133 $
63870K0J4 0J420161225013512612/25/16 01:35:31  5-MIN K0J4 250635Z AUTO 00000KT 3SM -RA BR FEW004 14/13 A3027 0 96 0 000/00 RMK AO2 RAB15 P0000 T01390133 $
63870K0J4 0J420161225014012512/25/16 01:40:31  5-MIN K0J4 250640Z AUTO 00000KT 5SM BR FEW004 14/13 A3027 0 93 0 000/00 RMK AO2 RAB15E37 P0000 T01390128 $
63870K0J4 0J420161225014512512/25/16 01:45:31  5-MIN K0J4 250645Z AUTO 00000KT 3SM BR FEW004 14/13 A3027 0 93 0 000/00 RMK AO2 RAB15E37 P0000 T01390128 $
63870K0J4 0J420161225015012412/25/16 01:50:31  5-MIN K0J4 250650Z AUTO 00000KT 1SM BR VV003 14/13 A3027 0 96 0 000/00 RMK AO2 RAB15E37 P0000 T01390133 $
63870K0J4 0J420161225015513312/25/16 01:55:31  5-MIN K0J4 250655Z AUTO 00000KT 1/2SM FG VV003 14/13 A3027 0 93 0 000/00 RMK AO2 RAB15E37 SLP246 P0000 T01390128 $
63870K0J4 0J420161225020011112/25/16 02:00:31  5-MIN K0J4 250700Z AUTO 00000KT 1/2SM FG VV003 14/13 A3027 0 93 0 000/00 RMK AO2 T01390128 $
63870K0J4 0J420161225020511112/25/16 02:05:31  5-MIN K0J4 250705Z AUTO 00000KT 1/4SM FG VV003 14/13 A3027 0 96 0 000/00 RMK AO2 T01390133 $
63870K0J4 0J420161225021011112/25/16 02:10:31  5-MIN K0J4 250710Z AUTO 00000KT 1/4SM FG VV003 14/13 A3027 0 96 0 000/00 RMK AO2 T01390133 $
63870K0J4 0J420161225021511112/25/16 02:15:31  5-MIN K0J4 250715Z AUTO 00000KT 1/4SM FG VV003 14/13 A3027 0 96 0 000/00 RMK AO2 T01390133 $
63870K0J4 0J420161225022011412/25/16 02:20:31  5-MIN K0J4 250720Z AUTO 00000KT 1/2SM FG VV003 13/13 A3027 0 96 -100 000/00 RMK AO2 T01330128 $
63870K0J4 0J420161225022511412/25/16 02:25:31  5-MIN K0J4 250725Z AUTO 00000KT 1/4SM FG VV003 13/13 A3027 0 96 -100 000/00 RMK AO2 T01330128 $
63870K0J4 0J420161225023011412/25/16 02:30:31  5-MIN K0J4 250730Z AUTO 00000KT 1/4SM FG VV002 13/12 A3027 0 93 -100 000/00 RMK AO2 T01330122 $
63870K0J4 0J420161225023511112/25/16 02:35:31  5-MIN K0J4 250735Z AUTO 00000KT 1/4SM FG VV002 14/13 A3027 0 93 0 000/00 RMK AO2 T01390128 $
63870K0J4 0J420161225024011412/25/16 02:40:31  5-MIN K0J4 250740Z AUTO 00000KT 1/4SM FG VV002 13/12 A3027 0 93 -100 000/00 RMK AO2 T01330122 $
63870K0J4 0J420161225024511412/25/16 02:45:31  5-MIN K0J4 250745Z AUTO 00000KT 1/4SM FG VV001 13/13 A3027 0 96 -100 000/00 RMK AO2 T01330128 $
63870K0J4 0J420161225025011412/25/16 02:50:31  5-MIN K0J4 250750Z AUTO 00000KT 1/4SM FG VV002 13/13 A3027 0 96 -100 000/00 RMK AO2 T01330128 $
63870K0J4 0J420161225025511812/25/16 02:55:31  5-MIN K0J4 250755Z AUTO 00000KT 1/4SM FG VV002 14/13 A3027 0 96 0 000/00 RMK AO2 SLP246 T01390133 $
63870K0J4 0J420161225030011112/25/16 03:00:31  5-MIN K0J4 250800Z AUTO 00000KT 1/4SM FG VV002 14/13 A3027 0 93 0 000/00 RMK AO2 T01390128 $
63870K0J4 0J420161225030511412/25/16 03:05:31  5-MIN K0J4 250805Z AUTO 00000KT 1/4SM FG VV002 13/12 A3027 0 96 -200 000/00 RMK AO2 T01280122 $
63870K0J4 0J420161225031011412/25/16 03:10:31  5-MIN K0J4 250810Z AUTO 00000KT 1/2SM FG VV002 13/12 A3027 0 96 -200 000/00 RMK AO2 T01280122 $
63870K0J4 0J420161225031513012/25/16 03:15:31  5-MIN K0J4 250815Z AUTO 00000KT 1/2SM -RA FG VV002 13/12 A3027 0 93 -100 000/00 RMK AO2 RAB12 P0000 T01330122 $
63870K0J4 0J420161225032013012/25/16 03:20:31  5-MIN K0J4 250820Z AUTO 00000KT 1/4SM -RA FG VV002 13/12 A3026 0 96 -200 000/00 RMK AO2 RAB12 P0000 T01280122 $
63870K0J4 0J420161225032513112/25/16 03:25:31  5-MIN K0J4 250825Z AUTO 00000KT 1/4SM -RA FG VV002 12/12 A3026 0 100 -200 000/00 RMK AO2 RAB12 P0000 T01220122 $
63870K0J4 0J420161226073010812/26/16 07:30:31  5-MIN K0J4 261230Z AUTO VRB03KT 7SM CLR 16/15 A3035 -70 93 100 VRB/03 RMK AO2 T01610150 $
63870K0J4 0J420161226073510812/26/16 07:35:31  5-MIN K0J4 261235Z AUTO 11004KT 7SM CLR 16/15 A3035 -70 93 100 110/04 RMK AO2 T01610150 $
63870K0J4 0J420161226074010812/26/16 07:40:31  5-MIN K0J4 261240Z AUTO 11005KT 7SM CLR 16/15 A3035 -70 93 100 110/05 RMK AO2 T01610150 $
63870K0J4 0J420161226074511412/26/16 07:45:31  5-MIN K0J4 261245Z AUTO VRB05KT 6SM BR FEW006 16/15 A3035 -80 93 100 VRB/05 RMK AO2 T01610150 $
63870K0J4 0J420161226075011412/26/16 07:50:31  5-MIN K0J4 261250Z AUTO VRB03KT 5SM BR SCT006 16/15 A3035 -80 93 100 VRB/03 RMK AO2 T01610150 $
63870K0J4 0J420161226075510412/26/16 07:55:31  5-MIN K0J4 261255Z AUTO 11004KT 6SM BR BKN006 16/15 A3036 -80 93 100 110/04 RMK AO2 $
63870K0J4 0J420161226080011412/26/16 08:00:31  5-MIN K0J4 261300Z AUTO 11003KT 6SM BR BKN007 17/16 A3036 -80 93 100 110/03 RMK AO2 T01670156 $
63870K0J4 0J420161226080511412/26/16 08:05:31  5-MIN K0J4 261305Z AUTO 10003KT 6SM BR BKN007 17/16 A3036 -80 93 100 100/03 RMK AO2 T01670156 $
63870K0J4 0J420161226081011412/26/16 08:10:31  5-MIN K0J4 261310Z AUTO 11005KT 6SM BR OVC006 17/16 A3036 -80 93 100 110/05 RMK AO2 T01670156 $
63870K0J4 0J420161226081512612/26/16 08:15:31  5-MIN K0J4 261315Z AUTO 11004KT 6SM BR OVC006 17/16 A3036 -80 93 100 110/04 RMK AO2 CIG 003V007 T01670156 $
63870K0J4 0J420161226082012612/26/16 08:20:31  5-MIN K0J4 261320Z AUTO 12004KT 6SM BR OVC005 17/16 A3036 -80 93 100 120/04 RMK AO2 CIG 003V007 T01670156 $
63870K0J4 0J420161226082512612/26/16 08:25:31  5-MIN K0J4 261325Z AUTO 12004KT 6SM BR OVC005 17/16 A3036 -80 93 100 120/04 RMK AO2 CIG 003V006 T01670156 $
63870K0J4 0J420161226083012612/26/16 08:30:31  5-MIN K0J4 261330Z AUTO 12004KT 6SM BR OVC003 17/16 A3036 -80 90 200 120/04 RMK AO2 CIG 002V006 T01720156 $
63870K0J4 0J420161226083506312/26/16 08:35:31  5-MIN K0J4 261335Z AUTO M M M M /M RMK AO2 $
63870K0J4 0J420161226084007912/26/16 08:40:31  5-MIN K0J4 261340Z AUTO 14004KT A3036 M M M 140/04 RMK AO2 $
63870K0J4 0J420161226084510712/26/16 08:45:31  5-MIN K0J4 261345Z AUTO 14003KT 5SM BR 17/16 A3037 -90 93 200 140/03 RMK AO2 T01720161 $
63870K0J4 0J420161226085010712/26/16 08:50:31  5-MIN K0J4 261350Z AUTO VRB03KT 4SM BR 17/17 A3037 -90 96 200 VRB/03 RMK AO2 T01720167 $
63870K0J4 0J420161226085511412/26/16 08:55:31  5-MIN K0J4 261355Z AUTO 16004KT 4SM BR 18/17 A3037 -90 93 300 160/04 RMK AO2 SLP281 T01780167 $
63870K0J4 0J420161226090010712/26/16 09:00:31  5-MIN K0J4 261400Z AUTO 15004KT 5SM BR 18/17 A3037 -90 93 300 150/04 RMK AO2 T01780167 $
63870K0J4 0J420161226090511412/26/16 09:05:31  5-MIN K0J4 261405Z AUTO 14006KT 5SM BR OVC002 18/17 A3037 -90 93 300 140/06 RMK AO2 T01830172 $
63870K0J4 0J420161226091011412/26/16 09:10:31  5-MIN K0J4 261410Z AUTO VRB05KT 5SM BR OVC002 18/17 A3037 -90 93 300 VRB/05 RMK AO2 T01830172 $
63870K0J4 0J420161226091511412/26/16 09:15:31  5-MIN K0J4 261415Z AUTO 14006KT 6SM BR OVC002 18/17 A3037 -90 93 300 140/06 RMK AO2 T01830172 $
63870K0J4 0J420161226092011412/26/16 09:20:31  5-MIN K0J4 261420Z AUTO 15007KT 6SM BR OVC002 18/17 A3037 -90 93 300 150/07 RMK AO2 T01830172 $
63870K0J4 0J420161226092511412/26/16 09:25:31  5-MIN K0J4 261425Z AUTO 14006KT 6SM BR OVC002 18/17 A3037 -90 93 300 140/06 RMK AO2 T01830172 $
63870K0J4 0J420161226093012812/26/16 09:30:31  5-MIN K0J4 261430Z AUTO 14006KT 7SM -RA OVC002 19/17 A3037 -100 90 400 140/06 RMK AO2 RAB29 P0000 T01890172 $
63870K0J4 0J420161226093512812/26/16 09:35:31  5-MIN K0J4 261435Z AUTO VRB05KT 7SM -RA OVC002 19/18 A3038 -100 93 400 VRB/05 RMK AO2 RAB29 P0000 T01890178 $
63870K0J4 0J420161226094012712/26/16 09:40:31  5-MIN K0J4 261440Z AUTO 15006KT 8SM OVC002 19/18 A3038 -100 93 400 150/06 RMK AO2 RAB29E38 P0000 T01890178 $
63870K0J4 0J420161226094512712/26/16 09:45:31  5-MIN K0J4 261445Z AUTO 14006KT 8SM OVC002 19/18 A3038 -100 93 400 140/06 RMK AO2 RAB29E38 P0000 T01890178 $
63870K0J4 0J420161226095012712/26/16 09:50:31  5-MIN K0J4 261450Z AUTO 15006KT 8SM OVC002 19/18 A3038 -100 93 400 150/06 RMK AO2 RAB29E38 P0000 T01890178 $
63870K0J4 0J420161226095514012/26/16 09:55:31  5-MIN K0J4 261455Z AUTO 15006KT 8SM OVC002 19/18 A3039 -110 93 400 150/06 RMK AO2 RAB29E38 SLP287 P0000 60000 T01890178 $
63870K0J4 0J420161226100011212/26/16 10:00:31  5-MIN K0J4 261500Z AUTO 15005KT 9SM OVC003 19/18 A3039 -110 90 400 150/05 RMK AO2 T01940178 $
63870K0J4 0J420161226100511212/26/16 10:05:31  5-MIN K0J4 261505Z AUTO 14006KT 9SM OVC003 19/18 A3039 -110 90 400 140/06 RMK AO2 T01940178 $
63870K0J4 0J420161226101011212/26/16 10:10:31  5-MIN K0J4 261510Z AUTO 16009KT 9SM OVC003 19/18 A3039 -110 90 400 160/09 RMK AO2 T01940178 $
63870K0J4 0J420161226101511212/26/16 10:15:31  5-MIN K0J4 261515Z AUTO 14006KT 9SM OVC003 19/18 A3038 -110 90 400 140/06 RMK AO2 T01940178 $
63870K0J4 0J420161226102011912/26/16 10:20:31  5-MIN K0J4 261520Z AUTO 15009G15KT 10SM OVC003 19/18 A3039 -110 90 400 150/09G15 RMK AO2 T01940178 $
63870K0J4 0J420161226102511912/26/16 10:25:31  5-MIN K0J4 261525Z AUTO 16008G15KT 10SM OVC003 19/18 A3039 -110 93 400 160/08G15 RMK AO2 T01940183 $
63870K0J4 0J420161226103011912/26/16 10:30:31  5-MIN K0J4 261530Z AUTO 14010G16KT 10SM OVC004 19/18 A3039 -110 90 400 140/10G16 RMK AO2 T01940178 $
63870K0J4 0J420161226103511912/26/16 10:35:31  5-MIN K0J4 261535Z AUTO 15007G16KT 10SM OVC004 20/18 A3039 -110 87 500 150/07G16 RMK AO2 T02000178 $
63870K0J4 0J420161226104011312/26/16 10:40:31  5-MIN K0J4 261540Z AUTO 14008KT 10SM OVC004 20/18 A3039 -110 90 500 140/08 RMK AO2 T02000183 $
63870K0J4 0J420161226104511312/26/16 10:45:31  5-MIN K0J4 261545Z AUTO 16006KT 10SM OVC004 20/18 A3039 -110 90 500 160/06 RMK AO2 T02000183 $
63870K0J4 0J420161226105011312/26/16 10:50:31  5-MIN K0J4 261550Z AUTO 17007KT 10SM OVC005 20/18 A3039 -110 90 500 170/07 RMK AO2 T02000183 $
63870K0J4 0J420161226105512012/26/16 10:55:31  5-MIN K0J4 261555Z AUTO 17006KT 10SM OVC005 20/18 A3039 -110 87 500 170/06 RMK AO2 SLP290 T02000178 $
63870K0J4 0J420161226110011312/26/16 11:00:31  5-MIN K0J4 261600Z AUTO 16005KT 10SM OVC005 20/18 A3039 -110 87 500 160/05 RMK AO2 T02000178 $
63870K0J4 0J420161226110511312/26/16 11:05:31  5-MIN K0J4 261605Z AUTO 16005KT 10SM OVC005 20/18 A3039 -110 87 500 160/05 RMK AO2 T02000178 $
63870K0J4 0J420161226111011312/26/16 11:10:31  5-MIN K0J4 261610Z AUTO 16005KT 10SM OVC006 21/18 A3039 -110 84 500 160/05 RMK AO2 T02060178 $
63870K0J4 0J420161226111511312/26/16 11:15:31  5-MIN K0J4 261615Z AUTO 14008KT 10SM OVC006 21/18 A3039 -110 87 500 140/08 RMK AO2 T02060183 $
63870K0J4 0J420161226112011312/26/16 11:20:31  5-MIN K0J4 261620Z AUTO VRB05KT 10SM OVC006 21/18 A3039 -110 84 500 VRB/05 RMK AO2 T02060178 $
63870K0J4 0J420161226112511312/26/16 11:25:31  5-MIN K0J4 261625Z AUTO 14004KT 10SM OVC006 21/18 A3039 -110 84 600 140/04 RMK AO2 T02110183 $
63870K0J4 0J420161226113012512/26/16 11:30:31  5-MIN K0J4 261630Z AUTO 14006KT 10SM OVC007 21/18 A3039 -110 84 600 140/06 RMK AO2 CIG 006V010 T02110183 $
63870K0J4 0J420161226113512512/26/16 11:35:31  5-MIN K0J4 261635Z AUTO 16005KT 10SM OVC007 21/18 A3039 -110 84 600 160/05 RMK AO2 CIG 006V011 T02110183 $
63870K0J4 0J420161226114012512/26/16 11:40:31  5-MIN K0J4 261640Z AUTO 14006KT 10SM OVC007 21/18 A3039 -110 84 600 140/06 RMK AO2 CIG 006V011 T02110183 $
63870K0J4 0J420161226114513212/26/16 11:45:31  5-MIN K0J4 261645Z AUTO 15005KT 10SM BKN009 OVC014 22/18 A3039 -110 81 700 150/05 RMK AO2 CIG 007V011 T02170183 $
63870K0J4 0J420161226115013212/26/16 11:50:31  5-MIN K0J4 261650Z AUTO 13005KT 10SM BKN009 OVC014 22/18 A3038 -100 81 700 130/05 RMK AO2 CIG 007V011 T02170183 $
63870K0J4 0J420161226115510312/26/16 11:55:31  5-MIN K0J4 261655Z AUTO 15006KT 10SM OVC011 22/18 A3038 -100 78 800 150/06 RMK AO2 $
63870K0J4 0J420161226120007612/26/16 12:00:31  5-MIN K0J4 261700Z AUTO M M M M /M RMK AO2 PWINO FZRANO $
63870K0J4 0J420161226120510712/26/16 12:05:31  5-MIN K0J4 261705Z AUTO 16007KT 22/18 A3037 -100 78 800 160/07 RMK AO2 T02220183 PWINO $
63870K0J4 0J420161226121012112/26/16 12:10:31  5-MIN K0J4 261710Z AUTO 15007KT 120V180 10SM 23/18 A3037 -90 76 800 150/07 120V180 RMK AO2 T02280183 $
63870K0J4 0J420161226121510512/26/16 12:15:31  5-MIN K0J4 261715Z AUTO 16005KT 10SM 23/18 A3037 -90 73 900 160/05 RMK AO2 T02330183 $
63870K0J4 0J420161226122010612/26/16 12:20:31  5-MIN K0J4 261720Z AUTO 16008KT 10SM 24/18 A3036 -90 71 1000 160/08 RMK AO2 T02390183 $
63870K0J4 0J420161226122510512/26/16 12:25:31  5-MIN K0J4 261725Z AUTO 16007KT 10SM 23/18 A3036 -80 73 900 160/07 RMK AO2 T02330183 $
63870K0J4 0J420161226123011212/26/16 12:30:31  5-MIN K0J4 261730Z AUTO VRB05KT 10SM FEW015 23/18 A3035 -80 73 900 VRB/05 RMK AO2 T02330183 $
63870K0J4 0J420161226123511312/26/16 12:35:31  5-MIN K0J4 261735Z AUTO 15006KT 10SM FEW017 24/18 A3035 -70 71 1000 150/06 RMK AO2 T02390183 $
63870K0J4 0J420161226124011312/26/16 12:40:31  5-MIN K0J4 261740Z AUTO VRB06KT 10SM FEW017 24/18 A3035 -70 71 1000 VRB/06 RMK AO2 T02390183 $
63870K0J4 0J420161226124511312/26/16 12:45:31  5-MIN K0J4 261745Z AUTO VRB04KT 10SM FEW017 24/18 A3034 -70 68 1000 VRB/04 RMK AO2 T02440183 $
63870K0J4 0J420161226125011312/26/16 12:50:31  5-MIN K0J4 261750Z AUTO 12005KT 10SM FEW019 24/18 A3034 -60 68 1100 120/05 RMK AO2 T02440183 $
63870K0J4 0J420161226125513812/26/16 12:55:31  5-MIN K0J4 261755Z AUTO VRB04KT 10SM FEW019 26/18 A3034 -60 64 1200 VRB/04 RMK AO2 SLP269 60000 T02560183 10256 20161 $
63870K0J4 0J420161226130012012/26/16 13:00:31  5-MIN K0J4 261800Z AUTO 16007KT 10SM FEW018 FEW024 25/18 A3034 -60 64 1100 160/07 RMK AO2 T02500178 $
63870K0J4 0J420161226130512912/26/16 13:05:31  5-MIN K0J4 261805Z AUTO 16009KT 10SM -RA FEW020 24/18 A3033 -60 66 1100 160/09 RMK AO2 RAB05 P0000 T02440178 $
63870K0J4 0J420161226131013612/26/16 13:10:31  5-MIN K0J4 261810Z AUTO 17007KT 10SM -RA FEW018 SCT026 25/18 A3033 -50 64 1100 170/07 RMK AO2 RAB05 P0000 T02500178 $
63870K0J4 0J420161226131515112/26/16 13:15:31  5-MIN K0J4 261815Z AUTO 16007KT 130V200 10SM FEW023 SCT029 25/18 A3032 -50 64 1100 160/07 130V200 RMK AO2 RAB05E15 P0000 T02500178 $
63870K0J4 0J420161226132013512/26/16 13:20:31  5-MIN K0J4 261820Z AUTO 15010KT 10SM SCT026 SCT034 26/18 A3032 -50 61 1200 150/10 RMK AO2 RAB05E15 P0000 T02560178 $
63870K0J4 0J420161226132513512/26/16 13:25:31  5-MIN K0J4 261825Z AUTO 16011KT 10SM FEW026 SCT034 25/17 A3032 -50 61 1100 160/11 RMK AO2 RAB05E15 P0000 T02500172 $
63870K0J4 0J420161226133013512/26/16 13:30:31  5-MIN K0J4 261830Z AUTO 15006KT 10SM FEW028 SCT034 26/17 A3032 -50 59 1200 150/06 RMK AO2 RAB05E15 P0000 T02560172 $
63870K0J4 0J420161226133514112/26/16 13:35:31  5-MIN K0J4 261835Z AUTO 16010G16KT 10SM SCT028 BKN036 26/17 A3032 -40 59 1200 160/10G16 RMK AO2 RAB05E15 P0000 T02560172 $
63870K0J4 0J420161226134014112/26/16 13:40:31  5-MIN K0J4 261840Z AUTO 16010G16KT 10SM FEW026 BKN032 26/17 A3031 -40 57 1300 160/10G16 RMK AO2 RAB05E15 P0000 T02610172 $
63870K0J4 0J420161226134513512/26/16 13:45:31  5-MIN K0J4 261845Z AUTO 15009KT 10SM SCT031 SCT039 26/17 A3031 -40 59 1200 150/09 RMK AO2 RAB05E15 P0000 T02560172 $
63870K0J4 0J420161226135012812/26/16 13:50:31  5-MIN K0J4 261850Z AUTO 16009KT 10SM BKN035 26/17 A3031 -40 57 1300 160/09 RMK AO2 RAB05E15 P0000 T02610172 $
63870K0J4 0J420161226135513512/26/16 13:55:31  5-MIN K0J4 261855Z AUTO 17006KT 10SM BKN035 26/17 A3031 -40 59 1200 170/06 RMK AO2 RAB05E15 SLP260 P0000 T02560172 $
63870K0J4 0J420161226140012012/26/16 14:00:31  5-MIN K0J4 261900Z AUTO 16008KT 10SM SCT032 BKN039 26/17 A3031 -40 57 1200 160/08 RMK AO2 T02560167 $
63870K0J4 0J420161226140511312/26/16 14:05:31  5-MIN K0J4 261905Z AUTO 15007KT 10SM SCT037 25/17 A3031 -30 59 1200 150/07 RMK AO2 T02500167 $
63870K0J4 0J420161226141011312/26/16 14:10:31  5-MIN K0J4 261910Z AUTO 16006KT 10SM SCT037 25/17 A3030 -30 59 1200 160/06 RMK AO2 T02500167 $
63870K0J4 0J420161226141512912/26/16 14:15:31  5-MIN K0J4 261915Z AUTO 14007KT 110V180 10SM SCT036 26/17 A3030 -30 55 1300 140/07 110V180 RMK AO2 T02610167 $
63870K0J4 0J420161226142011312/26/16 14:20:31  5-MIN K0J4 261920Z AUTO 15010KT 10SM FEW036 27/17 A3030 -30 53 1300 150/10 RMK AO2 T02670167 $
63870K0J4 0J420161226142511312/26/16 14:25:31  5-MIN K0J4 261925Z AUTO 16007KT 10SM FEW036 26/17 A3030 -30 55 1300 160/07 RMK AO2 T02610167 $
63870K0J4 0J420161226143011312/26/16 14:30:31  5-MIN K0J4 261930Z AUTO 15007KT 10SM FEW036 26/17 A3030 -30 55 1300 150/07 RMK AO2 T02610167 $
63870K0J4 0J420161226143512912/26/16 14:35:31  5-MIN K0J4 261935Z AUTO 16004KT 10SM -RA SCT036 26/17 A3030 -30 55 1300 160/04 RMK AO2 RAB34 P0000 T02610167 $
63870K0J4 0J420161226144011812/26/16 14:40:31  5-MIN K0J4 261940Z AUTO 10SM SCT038 27/17 A3030 -30 55 1400 M /M RMK AO2 RAB34E39 P0000 T02670172 $
63870K0J4 0J420161226144513512/26/16 14:45:31  5-MIN K0J4 261945Z AUTO 14007KT 10SM SCT038 SCT048 26/17 A3030 -30 55 1300 140/07 RMK AO2 RAB34E39 P0000 T02610167 $
63870K0J4 0J420161226145013512/26/16 14:50:31  5-MIN K0J4 261950Z AUTO 13007KT 10SM SCT040 SCT048 27/17 A3030 -30 53 1400 130/07 RMK AO2 RAB34E39 P0000 T02670167 $
63870K0J4 0J420161226145514212/26/16 14:55:31  5-MIN K0J4 261955Z AUTO VRB05KT 10SM SCT040 SCT047 26/17 A3030 -20 55 1300 VRB/05 RMK AO2 RAB34E39 SLP255 P0000 T02610167 $
63870K0J4 0J420161226150011312/26/16 15:00:31  5-MIN K0J4 262000Z AUTO 16007KT 10SM SCT040 26/17 A3030 -20 55 1300 160/07 RMK AO2 T02610167 $
63870K0J4 0J420161226150512012/26/16 15:05:31  5-MIN K0J4 262005Z AUTO 18006KT 10SM FEW040 FEW048 26/17 A3029 -20 57 1200 180/06 RMK AO2 T02560167 $
63870K0J4 0J420161226151011312/26/16 15:10:31  5-MIN K0J4 262010Z AUTO 19007KT 10SM FEW042 26/17 A3029 -20 55 1300 190/07 RMK AO2 T02610167 $
63870K0J4 0J420161226151511312/26/16 15:15:31  5-MIN K0J4 262015Z AUTO 16006KT 10SM FEW039 27/17 A3029 -20 53 1400 160/06 RMK AO2 T02670167 $
63870K0J4 0J420161226152012012/26/16 15:20:31  5-MIN K0J4 262020Z AUTO 16006KT 10SM FEW039 FEW055 26/16 A3029 -20 55 1200 160/06 RMK AO2 T02560161 $
63870K0J4 0J420161226152511312/26/16 15:25:31  5-MIN K0J4 262025Z AUTO 16007KT 10SM FEW055 25/16 A3029 -20 57 1200 160/07 RMK AO2 T02500161 $
63870K0J4 0J420161226153011012/26/16 15:30:31  5-MIN K0J4 262030Z AUTO 15006KT 10SM CLR 26/16 A3029 -20 55 1200 150/06 RMK AO2 T02560161 $
63870K0J4 0J420161226153511012/26/16 15:35:31  5-MIN K0J4 262035Z AUTO 15007KT 10SM CLR 27/17 A3029 -20 53 1400 150/07 RMK AO2 T02670167 $
63870K0J4 0J420161226154011012/26/16 15:40:31  5-MIN K0J4 262040Z AUTO 16007KT 10SM CLR 27/17 A3029 -20 53 1400 160/07 RMK AO2 T02670167 $
63870K0J4 0J420161226154512912/26/16 15:45:31  5-MIN K0J4 262045Z AUTO 13008KT 100V160 10SM FEW050 27/16 A3029 -20 52 1400 130/08 100V160 RMK AO2 T02670161 $
63870K0J4 0J420161226155011012/26/16 15:50:31  5-MIN K0J4 262050Z AUTO 16005KT 10SM CLR 26/16 A3029 -20 53 1300 160/05 RMK AO2 T02610161 $
63870K0J4 0J420161226155512612/26/16 15:55:31  5-MIN K0J4 262055Z AUTO 17008KT 10SM FEW040 26/16 A3029 -20 53 1300 170/08 RMK AO2 SLP253 60000 T02610161 $
63870K0J4 0J420161226160011312/26/16 16:00:31  5-MIN K0J4 262100Z AUTO 18005KT 10SM FEW040 27/16 A3029 -20 52 1400 180/05 RMK AO2 T02670161 $
63870K0J4 0J420161226160511312/26/16 16:05:31  5-MIN K0J4 262105Z AUTO 19006KT 10SM FEW040 27/16 A3029 -20 52 1400 190/06 RMK AO2 T02670161 $
63870K0J4 0J420161226161011312/26/16 16:10:31  5-MIN K0J4 262110Z AUTO 19005KT 10SM FEW040 26/16 A3029 -20 53 1300 190/05 RMK AO2 T02610161 $
63870K0J4 0J420161226161511312/26/16 16:15:31  5-MIN K0J4 262115Z AUTO 16007KT 10SM SCT040 26/17 A3029 -20 55 1300 160/07 RMK AO2 T02610167 $
63870K0J4 0J420161226162011312/26/16 16:20:31  5-MIN K0J4 262120Z AUTO 16006KT 10SM SCT040 25/17 A3029 -20 59 1200 160/06 RMK AO2 T02500167 $
63870K0J4 0J420161226162511312/26/16 16:25:31  5-MIN K0J4 262125Z AUTO 17003KT 10SM FEW038 25/17 A3029 -20 59 1200 170/03 RMK AO2 T02500167 $
63870K0J4 0J420161226163011312/26/16 16:30:31  5-MIN K0J4 262130Z AUTO 17003KT 10SM FEW038 25/17 A3030 -20 59 1200 170/03 RMK AO2 T02500167 $
63870K0J4 0J420161226163511312/26/16 16:35:31  5-MIN K0J4 262135Z AUTO 00000KT 10SM FEW039 25/17 A3029 -20 59 1200 000/00 RMK AO2 T02500167 $
63870K0J4 0J420161226164011012/26/16 16:40:31  5-MIN K0J4 262140Z AUTO 00000KT 10SM CLR 24/17 A3029 -20 61 1100 000/00 RMK AO2 T02440167 $
63870K0J4 0J420161226164511012/26/16 16:45:31  5-MIN K0J4 262145Z AUTO 00000KT 10SM CLR 24/17 A3029 -20 66 1000 000/00 RMK AO2 T02390172 $
63870K0J4 0J420161226165012612/26/16 16:50:31  5-MIN K0J4 262150Z AUTO 00000KT 10SM -RA CLR 23/17 A3029 -20 68 1000 000/00 RMK AO2 RAB48 P0000 T02330172 $
63870K0J4 0J420161226165513612/26/16 16:55:31  5-MIN K0J4 262155Z AUTO 00000KT 10SM -RA FEW043 23/17 A3029 -20 68 1000 000/00 RMK AO2 RAB48 SLP255 P0000 T02330172 $
63870K0J4 0J420161226170012912/26/16 17:00:31  5-MIN K0J4 262200Z AUTO 00000KT 10SM -RA FEW038 SCT046 23/18 A3029 -20 73 900 000/00 RMK AO2 P0000 T02280178 $
63870K0J4 0J420161226170512512/26/16 17:05:31  5-MIN K0J4 262205Z AUTO 00000KT 10SM FEW038 23/18 A3029 -20 70 1000 000/00 RMK AO2 RAE02 P0000 T02330178 $
63870K0J4 0J420161226171012412/26/16 17:10:31  5-MIN K0J4 262210Z AUTO 00000KT 10SM SCT041 23/18 A3029 -20 73 900 000/00 RMK AO2 RAE02 P0000 T02280178 $
63870K0J4 0J420161226171512412/26/16 17:15:31  5-MIN K0J4 262215Z AUTO 00000KT 10SM BKN041 23/18 A3029 -20 73 900 000/00 RMK AO2 RAE02 P0000 T02280178 $
63870K0J4 0J420161226172012412/26/16 17:20:31  5-MIN K0J4 262220Z AUTO 00000KT 10SM BKN041 23/18 A3030 -20 73 900 000/00 RMK AO2 RAE02 P0000 T02280178 $
63870K0J4 0J420161226172512512/26/16 17:25:31  5-MIN K0J4 262225Z AUTO 00000KT 10SM BKN041 23/18 A3030 -20 70 1000 000/00 RMK AO2 RAE02 P0000 T02330178 $
63870K0J4 0J420161226173013112/26/16 17:30:31  5-MIN K0J4 262230Z AUTO 00000KT 10SM BKN039 23/18 A3030 -30 70 1000 000/00 RMK AO2 RAE02B26E30 P0000 T02330178 $
63870K0J4 0J420161226173513112/26/16 17:35:31  5-MIN K0J4 262235Z AUTO 00000KT 10SM -RA OVC039 23/18 A3030 -30 73 900 000/00 RMK AO2 RAE02B26 P0000 T02280178 $
63870K0J4 0J420161226174013712/26/16 17:40:31  5-MIN K0J4 262240Z AUTO 00000KT 10SM BKN037 OVC044 23/18 A3030 -30 73 900 000/00 RMK AO2 RAE02B26E36 P0000 T02280178 $
63870K0J4 0J420161226174513712/26/16 17:45:31  5-MIN K0J4 262245Z AUTO 00000KT 10SM BKN037 OVC044 23/18 A3030 -30 73 900 000/00 RMK AO2 RAE02B26E36 P0000 T02280178 $
63870K0J4 0J420161226175013812/26/16 17:50:31  5-MIN K0J4 262250Z AUTO 00000KT 10SM -RA BKN037 OVC043 23/18 A3030 -30 73 900 000/00 RMK AO2 RAE02B26 P0000 T02280178 $
63870K0J4 0J420161226175513712/26/16 17:55:31  5-MIN K0J4 262255Z AUTO 00000KT 10SM OVC038 23/18 A3030 -30 73 900 000/00 RMK AO2 RAE02B26E55 SLP258 P0000 T02280178 $
63870K0J4 0J420161226180011212/26/16 18:00:31  5-MIN K0J4 262300Z AUTO 00000KT 10SM OVC038 23/18 A3030 -30 73 900 000/00 RMK AO2 T02280178 $
63870K0J4 0J420161226180511212/26/16 18:05:31  5-MIN K0J4 262305Z AUTO 00000KT 10SM OVC038 23/17 A3031 -30 70 900 000/00 RMK AO2 T02280172 $
63870K0J4 0J420161226181011212/26/16 18:10:31  5-MIN K0J4 262310Z AUTO 00000KT 10SM OVC038 22/18 A3031 -40 75 800 000/00 RMK AO2 T02220178 $
63870K0J4 0J420161226181511912/26/16 18:15:31  5-MIN K0J4 262315Z AUTO 23003KT 10SM BKN037 OVC044 22/18 A3031 -40 75 800 230/03 RMK AO2 T02220178 $
63870K0J4 0J420161226182011212/26/16 18:20:31  5-MIN K0J4 262320Z AUTO 24003KT 10SM OVC037 22/18 A3031 -40 75 800 240/03 RMK AO2 T02220178 $
63870K0J4 0J420161226182511912/26/16 18:25:31  5-MIN K0J4 262325Z AUTO 22005KT 10SM BKN037 OVC043 22/18 A3031 -40 75 800 220/05 RMK AO2 T02220178 $
63870K0J4 0J420161226183011912/26/16 18:30:31  5-MIN K0J4 262330Z AUTO 23003KT 10SM BKN038 OVC045 23/18 A3031 -40 73 900 230/03 RMK AO2 T02280178 $
63870K0J4 0J420161226183511912/26/16 18:35:31  5-MIN K0J4 262335Z AUTO 22004KT 10SM BKN038 BKN045 22/17 A3031 -40 75 800 220/04 RMK AO2 T02170172 $
63870K0J4 0J420161226184011212/26/16 18:40:31  5-MIN K0J4 262340Z AUTO 24003KT 10SM SCT036 21/17 A3031 -40 78 700 240/03 RMK AO2 T02110172 $
63870K0J4 0J420161226184511212/26/16 18:45:31  5-MIN K0J4 262345Z AUTO 22003KT 10SM SCT038 22/17 A3032 -40 75 800 220/03 RMK AO2 T02170172 $
63870K0J4 0J420161226185011212/26/16 18:50:31  5-MIN K0J4 262350Z AUTO 21003KT 10SM FEW038 21/17 A3032 -50 78 700 210/03 RMK AO2 T02110172 $
63870K0J4 0J420161226185514312/26/16 18:55:31  5-MIN K0J4 262355Z AUTO 19004KT 10SM FEW038 20/17 A3032 -50 84 600 190/04 RMK AO2 SLP264 60000 T02000172 10267 20200 56016 $
63870K0J4 0J420161226190011212/26/16 19:00:31  5-MIN K0J4 270000Z AUTO 22005KT 10SM FEW038 21/17 A3032 -50 81 600 220/05 RMK AO2 T02060172 $
63870K0J4 0J420161226190511212/26/16 19:05:31  5-MIN K0J4 270005Z AUTO 23003KT 10SM FEW038 21/17 A3032 -50 78 700 230/03 RMK AO2 T02110172 $
63870K0J4 0J420161226191011212/26/16 19:10:31  5-MIN K0J4 270010Z AUTO 22004KT 10SM FEW038 21/17 A3032 -50 78 700 220/04 RMK AO2 T02110172 $
63870K0J4 0J420161226191511212/26/16 19:15:31  5-MIN K0J4 270015Z AUTO 23003KT 10SM FEW038 21/17 A3032 -50 78 700 230/03 RMK AO2 T02110172 $
63870K0J4 0J420161226192011212/26/16 19:20:31  5-MIN K0J4 270020Z AUTO 23003KT 10SM FEW038 21/17 A3032 -50 78 700 230/03 RMK AO2 T02110172 $
63870K0J4 0J420161226192510912/26/16 19:25:31  5-MIN K0J4 270025Z AUTO 23003KT 10SM CLR 21/17 A3032 -50 81 600 230/03 RMK AO2 T02060172 $
63870K0J4 0J420161226193011212/26/16 19:30:31  5-MIN K0J4 270030Z AUTO 23003KT 10SM FEW039 21/17 A3032 -50 81 600 230/03 RMK AO2 T02060172 $
63870K0J4 0J420161226193511212/26/16 19:35:31  5-MIN K0J4 270035Z AUTO 23003KT 10SM SCT039 20/17 A3033 -50 84 600 230/03 RMK AO2 T02000172 $
63870K0J4 0J420161226194011912/26/16 19:40:31  5-MIN K0J4 270040Z AUTO 23003KT 10SM SCT037 BKN050 20/17 A3033 -50 81 600 230/03 RMK AO2 T02000167 $
63870K0J4 0J420161226194511912/26/16 19:45:31  5-MIN K0J4 270045Z AUTO 23003KT 10SM SCT037 BKN055 21/17 A3032 -50 81 600 230/03 RMK AO2 T02060172 $
63870K0J4 0J420161226195011912/26/16 19:50:31  5-MIN K0J4 270050Z AUTO 21003KT 10SM BKN039 BKN055 21/17 A3033 -50 81 600 210/03 RMK AO2 T02060172 $
63870K0J4 0J420161226195512612/26/16 19:55:31  5-MIN K0J4 270055Z AUTO 20004KT 10SM BKN039 BKN055 20/17 A3032 -50 84 600 200/04 RMK AO2 SLP266 T02000172 $
63870K0J4 0J420161226200012612/26/16 20:00:31  5-MIN K0J4 270100Z AUTO 19005KT 10SM SCT037 BKN045 BKN055 20/17 A3032 -50 84 600 190/05 RMK AO2 T02000172 $
63870K0J4 0J420161226200512612/26/16 20:05:31  5-MIN K0J4 270105Z AUTO 20006KT 10SM FEW037 SCT046 BKN055 20/17 A3032 -50 81 600 200/06 RMK AO2 T02000167 $
63870K0J4 0J420161226201011912/26/16 20:10:31  5-MIN K0J4 270110Z AUTO 20007KT 10SM SCT042 SCT060 21/17 A3032 -50 81 600 200/07 RMK AO2 T02060172 $
63870K0J4 0J420161226201511912/26/16 20:15:31  5-MIN K0J4 270115Z AUTO 19007KT 10SM FEW038 FEW045 21/17 A3032 -50 81 600 190/07 RMK AO2 T02060172 $
63870K0J4 0J420161226202011212/26/16 20:20:31  5-MIN K0J4 270120Z AUTO 19007KT 10SM FEW045 21/17 A3032 -50 81 600 190/07 RMK AO2 T02060172 $
63870K0J4 0J420161226202510912/26/16 20:25:31  5-MIN K0J4 270125Z AUTO 19006KT 10SM CLR 21/17 A3032 -50 81 600 190/06 RMK AO2 T02060172 $
63870K0J4 0J420161226203010912/26/16 20:30:31  5-MIN K0J4 270130Z AUTO 20006KT 10SM CLR 21/17 A3032 -50 81 600 200/06 RMK AO2 T02060172 $
63870K0J4 0J420161226203510912/26/16 20:35:31  5-MIN K0J4 270135Z AUTO 20004KT 10SM CLR 20/17 A3033 -50 84 600 200/04 RMK AO2 T02000172 $
63870K0J4 0J420161226204010912/26/16 20:40:31  5-MIN K0J4 270140Z AUTO 21003KT 10SM CLR 19/17 A3033 -50 87 500 210/03 RMK AO2 T01940172 $
63870K0J4 0J420161226204511212/26/16 20:45:31  5-MIN K0J4 270145Z AUTO 20003KT 10SM FEW036 19/17 A3033 -60 87 500 200/03 RMK AO2 T01940172 $
63870K0J4 0J420161226205011212/26/16 20:50:31  5-MIN K0J4 270150Z AUTO 19004KT 10SM SCT034 19/17 A3033 -60 87 500 190/04 RMK AO2 T01940172 $
63870K0J4 0J420161226205511912/26/16 20:55:31  5-MIN K0J4 270155Z AUTO 21003KT 10SM BKN034 19/17 A3033 -60 87 500 210/03 RMK AO2 SLP268 T01940172 $
63870K0J4 0J420161226210011212/26/16 21:00:31  5-MIN K0J4 270200Z AUTO 20004KT 10SM SCT034 19/17 A3033 -60 87 500 200/04 RMK AO2 T01940172 $
63870K0J4 0J420161226210511212/26/16 21:05:31  5-MIN K0J4 270205Z AUTO 20004KT 10SM SCT034 19/17 A3033 -60 90 400 200/04 RMK AO2 T01890172 $
63870K0J4 0J420161226211011212/26/16 21:10:31  5-MIN K0J4 270210Z AUTO 20004KT 10SM SCT034 19/17 A3033 -60 87 400 200/04 RMK AO2 T01890167 $
63870K0J4 0J420161226211511212/26/16 21:15:31  5-MIN K0J4 270215Z AUTO 19004KT 10SM FEW034 19/17 A3033 -60 87 400 190/04 RMK AO2 T01890167 $
63870K0J4 0J420161226212011212/26/16 21:20:31  5-MIN K0J4 270220Z AUTO 19003KT 10SM FEW034 19/17 A3033 -60 87 400 190/03 RMK AO2 T01890167 $
63870K0J4 0J420161226212510912/26/16 21:25:31  5-MIN K0J4 270225Z AUTO 20003KT 10SM CLR 19/17 A3033 -60 87 400 200/03 RMK AO2 T01890167 $
63870K0J4 0J420161226213010912/26/16 21:30:31  5-MIN K0J4 270230Z AUTO 20003KT 10SM CLR 19/17 A3033 -60 90 400 200/03 RMK AO2 T01890172 $
63870K0J4 0J420161226213510912/26/16 21:35:31  5-MIN K0J4 270235Z AUTO 19003KT 10SM CLR 19/17 A3033 -50 90 400 190/03 RMK AO2 T01890172 $
63870K0J4 0J420161226214010912/26/16 21:40:31  5-MIN K0J4 270240Z AUTO 17003KT 10SM CLR 18/17 A3033 -50 90 400 170/03 RMK AO2 T01830167 $
63870K0J4 0J420161226214510912/26/16 21:45:31  5-MIN K0J4 270245Z AUTO 00000KT 10SM CLR 18/17 A3033 -50 90 400 000/00 RMK AO2 T01830167 $
63870K0J4 0J420161226215010912/26/16 21:50:31  5-MIN K0J4 270250Z AUTO 00000KT 10SM CLR 19/17 A3033 -60 90 400 000/00 RMK AO2 T01890172 $
63870K0J4 0J420161226215512212/26/16 21:55:31  5-MIN K0J4 270255Z AUTO 00000KT 10SM CLR 19/17 A3033 -60 90 400 000/00 RMK AO2 SLP268 T01890172 53010 $
63870K0J4 0J420161226220010912/26/16 22:00:31  5-MIN K0J4 270300Z AUTO 00000KT 10SM CLR 18/17 A3033 -60 93 300 000/00 RMK AO2 T01780167 $
63870K0J4 0J420161226220510912/26/16 22:05:31  5-MIN K0J4 270305Z AUTO 00000KT 10SM CLR 17/16 A3033 -60 93 200 000/00 RMK AO2 T01720161 $
63870K0J4 0J420161226221010912/26/16 22:10:31  5-MIN K0J4 270310Z AUTO 00000KT 10SM CLR 18/16 A3033 -60 90 300 000/00 RMK AO2 T01780161 $
63870K0J4 0J420161226221510912/26/16 22:15:31  5-MIN K0J4 270315Z AUTO 00000KT 10SM CLR 17/16 A3033 -50 93 200 000/00 RMK AO2 T01670156 $
63870K0J4 0J420161226222010912/26/16 22:20:31  5-MIN K0J4 270320Z AUTO 00000KT 10SM CLR 17/16 A3033 -60 93 200 000/00 RMK AO2 T01670156 $
63870K0J4 0J420161226222510812/26/16 22:25:31  5-MIN K0J4 270325Z AUTO 00000KT 9SM CLR 17/16 A3034 -60 90 200 000/00 RMK AO2 T01720156 $
63870K0J4 0J420161226223011112/26/16 22:30:31  5-MIN K0J4 270330Z AUTO 00000KT 6SM BR CLR 17/16 A3034 -60 93 200 000/00 RMK AO2 T01720161 $
63870K0J4 0J420161226223511112/26/16 22:35:31  5-MIN K0J4 270335Z AUTO 00000KT 5SM BR CLR 17/16 A3034 -70 90 200 000/00 RMK AO2 T01720156 $
63870K0J4 0J420161226224011112/26/16 22:40:31  5-MIN K0J4 270340Z AUTO 00000KT 6SM BR CLR 17/16 A3034 -70 90 200 000/00 RMK AO2 T01720156 $
63870K0J4 0J420161226224510812/26/16 22:45:31  5-MIN K0J4 270345Z AUTO 00000KT 8SM CLR 17/16 A3034 -70 93 100 000/00 RMK AO2 T01670156 $
63870K0J4 0J420161226225010812/26/16 22:50:31  5-MIN K0J4 270350Z AUTO 00000KT 8SM CLR 17/16 A3034 -70 93 100 000/00 RMK AO2 T01670156 $
63870K0J4 0J420161226225510512/26/16 22:55:31  5-MIN K0J4 270355Z AUTO 00000KT 2 1/2SM BR CLR 16/15 A3034 -70 93 100 000/00 RMK AO2 $
63870K0J4 0J420161226230012812/26/16 23:00:31  5-MIN K0J4 270400Z AUTO 00000KT 1 1/4SM BR FEW005 17/16 A3034 -70 93 100 000/00 RMK AO2 VIS 1/2V5 T01670156 $
63870K0J4 0J420161226230511512/26/16 23:05:31  5-MIN K0J4 270405Z AUTO 00000KT 3/4SM BR VV005 17/16 A3034 -70 90 200 000/00 RMK AO2 T01720156 $
63870K0J4 0J420161226231011812/26/16 23:10:31  5-MIN K0J4 270410Z AUTO 00000KT 1 1/4SM BR FEW005 17/16 A3035 -70 93 200 000/00 RMK AO2 T01720161 $
63870K0J4 0J420161226231511412/26/16 23:15:31  5-MIN K0J4 270415Z AUTO 00000KT 3SM BR FEW005 16/16 A3035 -70 96 100 000/00 RMK AO2 T01610156 $
63870K0J4 0J420161226232011412/26/16 23:20:31  5-MIN K0J4 270420Z AUTO 00000KT 4SM BR FEW005 17/16 A3035 -80 93 200 000/00 RMK AO2 T01720161 $
63870K0J4 0J420161226232511112/26/16 23:25:31  5-MIN K0J4 270425Z AUTO 00000KT 8SM FEW005 16/16 A3035 -70 96 100 000/00 RMK AO2 T01610156 $
63870K0J4 0J420161226233010812/26/16 23:30:31  5-MIN K0J4 270430Z AUTO 00000KT 8SM CLR 16/16 A3035 -80 96 100 000/00 RMK AO2 T01610156 $
63870K0J4 0J420161226233510812/26/16 23:35:31  5-MIN K0J4 270435Z AUTO 00000KT 8SM CLR 16/15 A3035 -80 93 100 000/00 RMK AO2 T01610150 $
63870K0J4 0J420161226234010912/26/16 23:40:31  5-MIN K0J4 270440Z AUTO 00000KT 10SM CLR 16/15 A3035 -80 93 100 000/00 RMK AO2 T01610150 $
63870K0J4 0J420161226234510912/26/16 23:45:31  5-MIN K0J4 270445Z AUTO 00000KT 10SM CLR 16/15 A3035 -70 93 100 000/00 RMK AO2 T01610150 $
63870K0J4 0J420161226235010712/26/16 23:50:31  5-MIN K0J4 270450Z AUTO 00000KT 10SM CLR 16/14 A3035 -70 93 0 000/00 RMK AO2 T01560144 $
63870K0J4 0J420161226235512612/26/16 23:55:31  5-MIN K0J4 270455Z AUTO 00000KT 10SM CLR 16/14 A3035 -70 90 100 000/00 RMK AO2 SLP274 T01610144 402670156 $
63870K0J4 0J420161227000010812/27/16 00:00:31  5-MIN K0J4 270500Z AUTO 00000KT 8SM CLR 16/15 A3034 -70 93 100 000/00 RMK AO2 T01610150 $
63870K0J4 0J420161227000510912/27/16 00:05:31  5-MIN K0J4 270505Z AUTO 00000KT 8SM SCT007 15/14 A3034 -60 96 0 000/00 RMK AO2 T01500144 $
63870K0J4 0J420161227001011612/27/16 00:10:31  5-MIN K0J4 270510Z AUTO 00000KT 2 1/2SM BR BKN005 16/14 A3033 -60 93 0 000/00 RMK AO2 T01560144 $
63870K0J4 0J420161227001512612/27/16 00:15:31  5-MIN K0J4 270515Z AUTO 00000KT 1 1/4SM BR BKN003 16/14 A3033 -60 93 0 000/00 RMK AO2 VIS 1/2V5 T01560144 $
63870K0J4 0J420161227002011312/27/16 00:20:31  5-MIN K0J4 270520Z AUTO 00000KT 3/4SM BR VV002 15/14 A3033 -50 93 0 000/00 RMK AO2 T01500139 $
63870K0J4 0J420161227002511312/27/16 00:25:31  5-MIN K0J4 270525Z AUTO 00000KT 1/2SM FG VV002 15/14 A3032 -50 93 0 000/00 RMK AO2 T01500139 $
63870K0J4 0J420161227003011312/27/16 00:30:31  5-MIN K0J4 270530Z AUTO 00000KT 1/4SM FG VV002 15/14 A3032 -50 93 0 000/00 RMK AO2 T01500139 $
63870K0J4 0J420161227003511312/27/16 00:35:31  5-MIN K0J4 270535Z AUTO 00000KT 1/4SM FG VV001 16/14 A3032 -50 93 0 000/00 RMK AO2 T01560144 $
63870K0J4 0J420161227004011312/27/16 00:40:31  5-MIN K0J4 270540Z AUTO 00000KT 1/4SM FG VV001 15/14 A3033 -50 93 0 000/00 RMK AO2 T01500139 $
63870K0J4 0J420161227004511312/27/16 00:45:31  5-MIN K0J4 270545Z AUTO 00000KT 1/4SM FG VV001 15/14 A3033 -50 96 0 000/00 RMK AO2 T01500144 $
63870K0J4 0J420161227005011312/27/16 00:50:31  5-MIN K0J4 270550Z AUTO 00000KT 1/4SM FG VV001 15/14 A3032 -50 96 0 000/00 RMK AO2 T01500144 $
63870K0J4 0J420161227005513812/27/16 00:55:31  5-MIN K0J4 270555Z AUTO 00000KT 1/4SM FG VV001 15/14 A3032 -50 96 0 000/00 RMK AO2 SLP265 T01500144 10228 20150 50004 $
63870K0J4 0J420161227010011312/27/16 01:00:31  5-MIN K0J4 270600Z AUTO 00000KT 1/4SM FG VV001 16/14 A3032 -50 93 0 000/00 RMK AO2 T01560144 $
63870K0J4 0J420161227010511312/27/16 01:05:31  5-MIN K0J4 270605Z AUTO 00000KT 1/4SM FG VV001 16/14 A3032 -50 93 0 000/00 RMK AO2 T01560144 $
63870K0J4 0J420161227011011312/27/16 01:10:31  5-MIN K0J4 270610Z AUTO 00000KT 1/4SM FG VV001 16/14 A3032 -40 93 0 000/00 RMK AO2 T01560144 $
63870K0J4 0J420161227011511312/27/16 01:15:31  5-MIN K0J4 270615Z AUTO 00000KT 1/4SM FG VV001 15/14 A3032 -40 96 0 000/00 RMK AO2 T01500144 $
63870K0J4 0J420161227012011312/27/16 01:20:31  5-MIN K0J4 270620Z AUTO 00000KT 1/4SM FG VV001 14/14 A3031 -40 96 0 000/00 RMK AO2 T01440139 $
63870K0J4 0J420161227012511312/27/16 01:25:31  5-MIN K0J4 270625Z AUTO 00000KT 1/4SM FG VV001 14/14 A3031 -40 96 0 000/00 RMK AO2 T01440139 $
63870K0J4 0J420161227013011312/27/16 01:30:31  5-MIN K0J4 270630Z AUTO 00000KT 1/2SM FG VV001 14/13 A3031 -40 93 0 000/00 RMK AO2 T01440133 $
63870K0J4 0J420161227013511312/27/16 01:35:31  5-MIN K0J4 270635Z AUTO 00000KT 1/2SM FG VV001 14/14 A3031 -40 96 0 000/00 RMK AO2 T01440139 $
63870K0J4 0J420161227014011512/27/16 01:40:31  5-MIN K0J4 270640Z AUTO 00000KT 1/4SM FG VV001 16/14 A3031 -40 93 100 000/00 RMK AO2 T01560144 $
63870K0J4 0J420161227014511512/27/16 01:45:31  5-MIN K0J4 270645Z AUTO 00000KT 1/4SM FG VV001 16/15 A3031 -40 96 100 000/00 RMK AO2 T01560150 $
63870K0J4 0J420161227015011512/27/16 01:50:31  5-MIN K0J4 270650Z AUTO 00000KT 1/4SM FG VV001 16/15 A3031 -40 93 100 000/00 RMK AO2 T01610150 $
63870K0J4 0J420161227015512212/27/16 01:55:31  5-MIN K0J4 270655Z AUTO 00000KT 1/2SM FG VV001 16/15 A3031 -40 93 100 000/00 RMK AO2 SLP261 T01610150 $
63870K0J4 0J420161227020011512/27/16 02:00:31  5-MIN K0J4 270700Z AUTO 00000KT 1/2SM FG VV001 16/16 A3031 -40 96 100 000/00 RMK AO2 T01610156 $
63870K0J4 0J420161227020511312/27/16 02:05:31  5-MIN K0J4 270705Z AUTO 00000KT 1/2SM FG VV001 15/14 A3031 -40 96 0 000/00 RMK AO2 T01500144 $
63870K0J4 0J420161227021011312/27/16 02:10:31  5-MIN K0J4 270710Z AUTO 00000KT 1/4SM FG VV001 15/14 A3031 -40 96 0 000/00 RMK AO2 T01500144 $
63870K0J4 0J420161227021511512/27/16 02:15:31  5-MIN K0J4 270715Z AUTO 00000KT 1/4SM FG VV001 16/14 A3031 -30 93 100 000/00 RMK AO2 T01560144 $
63870K0J4 0J420161227022011312/27/16 02:20:31  5-MIN K0J4 270720Z AUTO 00000KT 1/4SM FG VV001 14/14 A3030 -30 96 0 000/00 RMK AO2 T01440139 $
63870K0J4 0J420161227022511312/27/16 02:25:31  5-MIN K0J4 270725Z AUTO 00000KT 1/4SM FG VV001 14/14 A3030 -30 96 0 000/00 RMK AO2 T01440139 $
63870K0J4 0J420161227023011312/27/16 02:30:31  5-MIN K0J4 270730Z AUTO 00000KT 1/4SM FG VV001 14/14 A3030 -30 96 0 000/00 RMK AO2 T01440139 $
63870K0J4 0J420161227023511312/27/16 02:35:31  5-MIN K0J4 270735Z AUTO 00000KT 1/4SM FG VV001 15/14 A3030 -30 93 0 000/00 RMK AO2 T01500139 $
63870K0J4 0J420161227024011312/27/16 02:40:31  5-MIN K0J4 270740Z AUTO 00000KT 1/2SM FG VV001 15/14 A3030 -30 93 0 000/00 RMK AO2 T01500139 $
63870K0J4 0J420161227024511312/27/16 02:45:31  5-MIN K0J4 270745Z AUTO 00000KT 3/4SM BR VV001 14/14 A3030 -30 96 0 000/00 RMK AO2 T01440139 $
63870K0J4 0J420161227025011412/27/16 02:50:31  5-MIN K0J4 270750Z AUTO 00000KT 3/4SM BR OVC001 14/13 A3030 -30 93 0 000/00 RMK AO2 T01440133 $
63870K0J4 0J420161227025512412/27/16 02:55:31  5-MIN K0J4 270755Z AUTO 00000KT 3/4SM BR OVC001 14/13 A3030 -30 96 -100 000/00 RMK AO2 SLP258 T01390133 $
63870K0J4 0J420161227030011112/27/16 03:00:31  5-MIN K0J4 270800Z AUTO 00000KT 1SM BR VV001 14/13 A3030 -30 93 0 000/00 RMK AO2 T01440133 $
63870K0J4 0J420161227030511112/27/16 03:05:31  5-MIN K0J4 270805Z AUTO 00000KT 1SM BR VV001 14/13 A3031 -30 93 0 000/00 RMK AO2 T01440133 $
63870K0J4 0J420161227031011312/27/16 03:10:31  5-MIN K0J4 270810Z AUTO 00000KT 3/4SM BR VV001 14/14 A3031 -40 96 0 000/00 RMK AO2 T01440139 $
63870K0J4 0J420161227031511312/27/16 03:15:31  5-MIN K0J4 270815Z AUTO 00000KT 1/2SM FG VV001 15/14 A3031 -40 93 0 000/00 RMK AO2 T01500139 $
63870K0J4 0J420161227032011312/27/16 03:20:31  5-MIN K0J4 270820Z AUTO 00000KT 1/4SM FG VV001 15/14 A3030 -30 93 0 000/00 RMK AO2 T01500139 $
63870K0J4 0J420161227032511312/27/16 03:25:31  5-MIN K0J4 270825Z AUTO 00000KT 1/4SM FG VV001 14/14 A3030 -30 96 0 000/00 RMK AO2 T01440139 $
63870K0J4 0J420161227033011312/27/16 03:30:31  5-MIN K0J4 270830Z AUTO 00000KT 1/4SM FG VV001 15/14 A3030 -30 93 0 000/00 RMK AO2 T01500139 $
63870K0J4 0J420161227033511312/27/16 03:35:31  5-MIN K0J4 270835Z AUTO 00000KT 1/4SM FG VV001 15/14 A3030 -30 93 0 000/00 RMK AO2 T01500139 $
63870K0J4 0J420161227034011312/27/16 03:40:31  5-MIN K0J4 270840Z AUTO 00000KT 1/4SM FG VV001 15/14 A3029 -20 93 0 000/00 RMK AO2 T01500139 $
63870K0J4 0J420161227034511312/27/16 03:45:31  5-MIN K0J4 270845Z AUTO 00000KT 1/4SM FG VV001 14/14 A3029 -20 96 0 000/00 RMK AO2 T01440139 $
63870K0J4 0J420161227035011612/27/16 03:50:31  5-MIN K0J4 270850Z AUTO 00000KT 1/4SM FG VV001 14/13 A3029 -20 96 -100 000/00 RMK AO2 T01390133 $
63870K0J4 0J420161227035512612/27/16 03:55:31  5-MIN K0J4 270855Z AUTO 00000KT 1/4SM FG VV001 14/14 A3029 -20 96 0 000/00 RMK AO2 SLP252 T01440139 58004 $
63870K0J4 0J420161227040011312/27/16 04:00:31  5-MIN K0J4 270900Z AUTO 00000KT 1/4SM FG VV001 14/14 A3028 -10 96 0 000/00 RMK AO2 T01440139 $
63870K0J4 0J420161227040511312/27/16 04:05:31  5-MIN K0J4 270905Z AUTO 00000KT 1/4SM FG VV001 14/14 A3028 -10 96 0 000/00 RMK AO2 T01440139 $
63870K0J4 0J420161227041011312/27/16 04:10:31  5-MIN K0J4 270910Z AUTO 00000KT 1/4SM FG VV001 14/14 A3028 -10 96 0 000/00 RMK AO2 T01440139 $
63870K0J4 0J420161227041511312/27/16 04:15:31  5-MIN K0J4 270915Z AUTO 00000KT 1/2SM FG VV001 15/14 A3028 -10 93 0 000/00 RMK AO2 T01500139 $
63870K0J4 0J420161227042011312/27/16 04:20:31  5-MIN K0J4 270920Z AUTO 00000KT 1/4SM FG VV001 15/14 A3028 -10 93 0 000/00 RMK AO2 T01500139 $
63870K0J4 0J420161227042511312/27/16 04:25:31  5-MIN K0J4 270925Z AUTO 00000KT 1/4SM FG VV001 15/14 A3028 -10 93 0 000/00 RMK AO2 T01500139 $
63870K0J4 0J420161227043012912/27/16 04:30:31  5-MIN K0J4 270930Z AUTO 00000KT 1/4SM -RA FG VV001 15/14 A3028 -10 93 0 000/00 RMK AO2 RAB27 P0000 T01500139 $
63870K0J4 0J420161227043512912/27/16 04:35:31  5-MIN K0J4 270935Z AUTO 00000KT 1/4SM -RA FG VV001 15/14 A3028 -10 93 0 000/00 RMK AO2 RAB27 P0000 T01500139 $
63870K0J4 0J420161227044012612/27/16 04:40:31  5-MIN K0J4 270940Z AUTO 00000KT 1/4SM FG VV001 15/14 A3027 0 93 0 000/00 RMK AO2 RAB27E40 P0000 T01500139 $
63870K0J4 0J420161227044512612/27/16 04:45:31  5-MIN K0J4 270945Z AUTO 00000KT 1/4SM FG VV001 14/14 A3027 0 96 0 000/00 RMK AO2 RAB27E40 P0000 T01440139 $
63870K0J4 0J420161227045012612/27/16 04:50:31  5-MIN K0J4 270950Z AUTO 00000KT 1/4SM FG VV001 15/14 A3027 0 93 0 000/00 RMK AO2 RAB27E40 P0000 T01500139 $
63870K0J4 0J420161227045513312/27/16 04:55:31  5-MIN K0J4 270955Z AUTO 00000KT 1/2SM FG VV001 14/14 A3027 0 96 0 000/00 RMK AO2 RAB27E40 SLP248 P0000 T01440139 $
63870K0J4 0J420161227050011312/27/16 05:00:31  5-MIN K0J4 271000Z AUTO 00000KT 1/2SM FG VV001 14/14 A3028 -10 96 0 000/00 RMK AO2 T01440139 $
63870K0J4 0J420161227050511112/27/16 05:05:31  5-MIN K0J4 271005Z AUTO 00000KT 1/4SM FG VV001 14/14 A3027 0 96 0 000/00 RMK AO2 T01440139 $
63870K0J4 0J420161227051011112/27/16 05:10:31  5-MIN K0J4 271010Z AUTO 00000KT 1/4SM FG VV001 14/13 A3027 0 93 0 000/00 RMK AO2 T01440133 $
63870K0J4 0J420161227051511112/27/16 05:15:31  5-MIN K0J4 271015Z AUTO 00000KT 1/2SM FG VV001 14/13 A3027 0 93 0 000/00 RMK AO2 T01440133 $
63870K0J4 0J420161227052011112/27/16 05:20:31  5-MIN K0J4 271020Z AUTO 00000KT 1/2SM FG VV001 14/13 A3027 0 96 0 000/00 RMK AO2 T01390133 $
63870K0J4 0J420161227052511212/27/16 05:25:31  5-MIN K0J4 271025Z AUTO 00000KT 3/4SM BR OVC001 14/13 A3027 0 96 0 000/00 RMK AO2 T01390133 $
63870K0J4 0J420161227053011312/27/16 05:30:31  5-MIN K0J4 271030Z AUTO 00000KT 1SM BR OVC001 14/13 A3027 0 96 -100 000/00 RMK AO2 T01390133 $
63870K0J4 0J420161227053511312/27/16 05:35:31  5-MIN K0J4 271035Z AUTO 00000KT 1SM BR OVC001 14/13 A3027 0 96 -100 000/00 RMK AO2 T01390133 $
63870K0J4 0J420161227054011312/27/16 05:40:31  5-MIN K0J4 271040Z AUTO 00000KT 1SM BR OVC001 14/13 A3027 0 96 -100 000/00 RMK AO2 T01390133 $
63870K0J4 0J420161227054511712/27/16 05:45:31  5-MIN K0J4 271045Z AUTO 00000KT 1 1/4SM BR OVC001 14/13 A3027 0 96 -100 000/00 RMK AO2 T01390133 $
63870K0J4 0J420161227055011312/27/16 05:50:31  5-MIN K0J4 271050Z AUTO 00000KT 1SM BR OVC001 14/13 A3027 0 93 -100 000/00 RMK AO2 T01390128 $
63870K0J4 0J420161227055510412/27/16 05:55:31  5-MIN K0J4 271055Z AUTO 00000KT 3/4SM BR VV001 14/13 A3027 0 93 -100 000/00 RMK AO2 $
63870K0J4 0J420161227060011412/27/16 06:00:31  5-MIN K0J4 271100Z AUTO 00000KT 1/2SM FG VV001 14/13 A3027 0 93 -100 000/00 RMK AO2 T01390128 $
63870K0J4 0J420161227060511612/27/16 06:05:31  5-MIN K0J4 271105Z AUTO 00000KT 1/2SM FG VV001 14/13 A3028 -10 93 -100 000/00 RMK AO2 T01390128 $
63870K0J4 0J420161227061011612/27/16 06:10:31  5-MIN K0J4 271110Z AUTO 00000KT 1/4SM FG VV001 13/13 A3028 -10 96 -100 000/00 RMK AO2 T01330128 $
63870K0J4 0J420161227061511612/27/16 06:15:31  5-MIN K0J4 271115Z AUTO 00000KT 1/2SM FG VV001 14/13 A3028 -10 93 -100 000/00 RMK AO2 T01390128 $
63870K0J4 0J420161227062011412/27/16 06:20:31  5-MIN K0J4 271120Z AUTO 00000KT 1/2SM FG VV001 14/13 A3027 0 96 -100 000/00 RMK AO2 T01390133 $
63870K0J4 0J420161227062511412/27/16 06:25:31  5-MIN K0J4 271125Z AUTO 00000KT 1/2SM FG VV001 14/13 A3027 0 96 -100 000/00 RMK AO2 T01390133 $
63870K0J4 0J420161227063011612/27/16 06:30:31  5-MIN K0J4 271130Z AUTO 00000KT 1/2SM FG VV001 14/13 A3028 -10 96 -100 000/00 RMK AO2 T01390133 $
63870K0J4 0J420161227063511612/27/16 06:35:31  5-MIN K0J4 271135Z AUTO 00000KT 3/4SM BR VV001 14/13 A3028 -10 96 -100 000/00 RMK AO2 T01390133 $
63870K0J4 0J420161227064011612/27/16 06:40:31  5-MIN K0J4 271140Z AUTO 00000KT 3/4SM BR VV001 14/13 A3028 -10 96 -100 000/00 RMK AO2 T01390133 $
63870K0J4 0J420161227064511612/27/16 06:45:31  5-MIN K0J4 271145Z AUTO 00000KT 3/4SM BR VV001 14/13 A3028 -10 96 -100 000/00 RMK AO2 T01390133 $
63870K0J4 0J420161227065011612/27/16 06:50:31  5-MIN K0J4 271150Z AUTO 00000KT 3/4SM BR VV001 14/13 A3028 -10 96 -100 000/00 RMK AO2 T01390133 $
63870K0J4 0J420161227065514712/27/16 06:55:31  5-MIN K0J4 271155Z AUTO 00000KT 1/2SM FG VV001 14/13 A3028 -10 96 -100 000/00 RMK AO2 SLP251 60000 T01390133 10161 20133 58012 $
63870K0J4 0J420161227070011612/27/16 07:00:31  5-MIN K0J4 271200Z AUTO 00000KT 1/2SM FG VV001 14/13 A3028 -10 96 -100 000/00 RMK AO2 T01390133 $
63870K0J4 0J420161227070511312/27/16 07:05:31  5-MIN K0J4 271205Z AUTO 00000KT 1/2SM FG VV002 14/13 A3028 -10 93 0 000/00 RMK AO2 T01440133 $
63870K0J4 0J420161227071011312/27/16 07:10:31  5-MIN K0J4 271210Z AUTO 00000KT 1/2SM FG VV002 14/14 A3028 -10 96 0 000/00 RMK AO2 T01440139 $
63870K0J4 0J420161227071511312/27/16 07:15:31  5-MIN K0J4 271215Z AUTO 00000KT 1/2SM FG VV003 14/14 A3028 -10 96 0 000/00 RMK AO2 T01440139 $
63870K0J4 0J420161227072011312/27/16 07:20:31  5-MIN K0J4 271220Z AUTO 00000KT 1/2SM FG VV003 14/14 A3028 -10 96 0 000/00 RMK AO2 T01440139 $
63870K0J4 0J420161227072511612/27/16 07:25:31  5-MIN K0J4 271225Z AUTO 00000KT 1/2SM FG VV003 14/13 A3028 -10 96 -100 000/00 RMK AO2 T01390133 $
63870K0J4 0J420161227073011612/27/16 07:30:31  5-MIN K0J4 271230Z AUTO 00000KT 1/2SM FG VV003 14/13 A3028 -10 96 -100 000/00 RMK AO2 T01390133 $
63870K0J4 0J420161227073511312/27/16 07:35:31  5-MIN K0J4 271235Z AUTO 00000KT 1/2SM FG VV003 14/13 A3028 -10 93 0 000/00 RMK AO2 T01440133 $
63870K0J4 0J420161227074011312/27/16 07:40:31  5-MIN K0J4 271240Z AUTO 00000KT 3/4SM BR VV003 14/14 A3028 -10 96 0 000/00 RMK AO2 T01440139 $
63870K0J4 0J420161227074511112/27/16 07:45:31  5-MIN K0J4 271245Z AUTO 00000KT 1SM BR VV002 14/14 A3028 -10 96 0 000/00 RMK AO2 T01440139 $
63870K0J4 0J420161227075011612/27/16 07:50:31  5-MIN K0J4 271250Z AUTO 00000KT 1 1/2SM BR OVC002 14/14 A3028 -10 96 0 000/00 RMK AO2 T01440139 $
63870K0J4 0J420161227075512312/27/16 07:55:31  5-MIN K0J4 271255Z AUTO 02003KT 1 3/4SM BR OVC002 14/14 A3028 -10 96 0 020/03 RMK AO2 SLP252 T01440139 $
63870K0J4 0J420161227080011612/27/16 08:00:31  5-MIN K0J4 271300Z AUTO 36003KT 1 1/4SM BR OVC002 14/14 A3029 -20 96 0 360/03 RMK AO2 T01440139 $
63870K0J4 0J420161227080511212/27/16 08:05:31  5-MIN K0J4 271305Z AUTO 00000KT 1SM BR OVC001 15/14 A3029 -20 93 0 000/00 RMK AO2 T01500139 $
63870K0J4 0J420161227081011212/27/16 08:10:31  5-MIN K0J4 271310Z AUTO 00000KT 1SM BR OVC001 15/14 A3029 -20 93 0 000/00 RMK AO2 T01500139 $
63870K0J4 0J420161227081511312/27/16 08:15:31  5-MIN K0J4 271315Z AUTO 00000KT 3/4SM BR VV001 15/14 A3029 -20 96 0 000/00 RMK AO2 T01500144 $
63870K0J4 0J420161227082011312/27/16 08:20:31  5-MIN K0J4 271320Z AUTO 00000KT 3/4SM BR VV001 15/14 A3029 -20 96 0 000/00 RMK AO2 T01500144 $
63870K0J4 0J420161227082511312/27/16 08:25:31  5-MIN K0J4 271325Z AUTO 32003KT 3/4SM BR VV001 15/14 A3029 -20 96 0 320/03 RMK AO2 T01500144 $
63870K0J4 0J420161227083011312/27/16 08:30:31  5-MIN K0J4 271330Z AUTO 00000KT 1/2SM FG VV001 15/14 A3029 -20 96 0 000/00 RMK AO2 T01500144 $
63870K0J4 0J420161227083511312/27/16 08:35:31  5-MIN K0J4 271335Z AUTO 32004KT 1/4SM FG VV001 15/14 A3029 -20 93 0 320/04 RMK AO2 T01500139 $
63870K0J4 0J420161227084011112/27/16 08:40:31  5-MIN K0J4 271340Z AUTO 31003KT 1/4SM FG VV001 15/14 A3030 -30 96 0 310/03 RMK AO2 T01500144
63870K0J4 0J420161227084511112/27/16 08:45:31  5-MIN K0J4 271345Z AUTO 31003KT 1/4SM FG VV001 15/14 A3030 -30 96 0 310/03 RMK AO2 T01500144
63870K0J4 0J420161227085011312/27/16 08:50:31  5-MIN K0J4 271350Z AUTO 32003KT 1/4SM FG VV001 16/15 A3030 -30 96 100 320/03 RMK AO2 T01560150
63870K0J4 0J420161227085512012/27/16 08:55:31  5-MIN K0J4 271355Z AUTO 00000KT 1/2SM FG VV001 16/14 A3030 -30 93 100 000/00 RMK AO2 SLP258 T01560144
63870K0J4 0J420161227090011312/27/16 09:00:31  5-MIN K0J4 271400Z AUTO 00000KT 1/2SM FG VV002 16/14 A3030 -30 93 100 000/00 RMK AO2 T01560144
63870K0J4 0J420161227090511312/27/16 09:05:31  5-MIN K0J4 271405Z AUTO 00000KT 1/2SM FG VV002 16/15 A3030 -30 96 100 000/00 RMK AO2 T01560150
63870K0J4 0J420161227091011312/27/16 09:10:31  5-MIN K0J4 271410Z AUTO 01003KT 3/4SM BR VV002 16/15 A3030 -30 96 100 010/03 RMK AO2 T01560150
63870K0J4 0J420161227091511312/27/16 09:15:31  5-MIN K0J4 271415Z AUTO 00000KT 3/4SM BR VV002 16/14 A3030 -30 93 100 000/00 RMK AO2 T01560144
63870K0J4 0J420161227092011312/27/16 09:20:31  5-MIN K0J4 271420Z AUTO 00000KT 1/2SM FG VV002 16/15 A3030 -30 93 100 000/00 RMK AO2 T01610150
63870K0J4 0J420161227092511312/27/16 09:25:31  5-MIN K0J4 271425Z AUTO 03003KT 1/2SM FG VV002 16/15 A3030 -30 93 100 030/03 RMK AO2 T01610150
63870K0J4 0J420161227093011312/27/16 09:30:31  5-MIN K0J4 271430Z AUTO 00000KT 3/4SM BR VV002 16/15 A3030 -20 93 100 000/00 RMK AO2 T01610150
63870K0J4 0J420161227093511312/27/16 09:35:31  5-MIN K0J4 271435Z AUTO 00000KT 1/2SM FG VV002 16/16 A3030 -30 96 100 000/00 RMK AO2 T01610156
63870K0J4 0J420161227094011312/27/16 09:40:31  5-MIN K0J4 271440Z AUTO 00000KT 1/2SM FG VV002 16/16 A3030 -30 96 100 000/00 RMK AO2 T01610156
63870K0J4 0J420161227094511412/27/16 09:45:31  5-MIN K0J4 271445Z AUTO 00000KT 1/2SM FG VV002 16/16 A3030 -30 100 100 000/00 RMK AO2 T01610161
63870K0J4 0J420161227095011412/27/16 09:50:31  5-MIN K0J4 271450Z AUTO 00000KT 1/4SM FG VV002 16/16 A3030 -30 100 100 000/00 RMK AO2 T01610161
63870K0J4 0J420161227095512612/27/16 09:55:31  5-MIN K0J4 271455Z AUTO 00000KT 1/4SM FG VV002 17/16 A3030 -30 96 200 000/00 RMK AO2 SLP257 T01670161 55001
63870K0J4 0J420161227100011312/27/16 10:00:31  5-MIN K0J4 271500Z AUTO 00000KT 1/4SM FG VV001 17/16 A3030 -30 96 200 000/00 RMK AO2 T01670161
63870K0J4 0J420161227100511312/27/16 10:05:31  5-MIN K0J4 271505Z AUTO 00000KT 1/4SM FG VV001 17/17 A3029 -20 96 300 000/00 RMK AO2 T01720167
63870K0J4 0J420161227101011312/27/16 10:10:31  5-MIN K0J4 271510Z AUTO 00000KT 1/4SM FG VV001 17/17 A3029 -20 96 300 000/00 RMK AO2 T01720167
63870K0J4 0J420161227101511312/27/16 10:15:31  5-MIN K0J4 271515Z AUTO 00000KT 1/4SM FG VV001 17/17 A3029 -20 96 300 000/00 RMK AO2 T01720167
63870K0J4 0J420161227102011312/27/16 10:20:31  5-MIN K0J4 271520Z AUTO 17004KT 1/4SM FG VV001 18/17 A3029 -20 93 300 170/04 RMK AO2 T01780167
63870K0J4 0J420161227102511312/27/16 10:25:31  5-MIN K0J4 271525Z AUTO 18004KT 1/4SM FG VV001 18/17 A3029 -20 96 300 180/04 RMK AO2 T01780172
63870K0J4 0J420161227103011312/27/16 10:30:31  5-MIN K0J4 271530Z AUTO 20005KT 1/4SM FG VV001 18/17 A3029 -20 96 300 200/05 RMK AO2 T01780172
63870K0J4 0J420161227103511312/27/16 10:35:31  5-MIN K0J4 271535Z AUTO 21004KT 1/2SM FG VV001 18/17 A3029 -20 96 300 210/04 RMK AO2 T01780172
63870K0J4 0J420161227104011312/27/16 10:40:31  5-MIN K0J4 271540Z AUTO 21003KT 1/2SM FG VV001 18/17 A3030 -30 96 300 210/03 RMK AO2 T01780172
63870K0J4 0J420161227104511212/27/16 10:45:31  5-MIN K0J4 271545Z AUTO 00000KT 1SM BR OVC001 18/17 A3030 -30 96 300 000/00 RMK AO2 T01780172
63870K0J4 0J420161227105011212/27/16 10:50:31  5-MIN K0J4 271550Z AUTO VRB03KT 2SM BR OVC001 18/17 A3031 -30 96 300 VRB/03 RMK AO2 T01780172
63870K0J4 0J420161227105510212/27/16 10:55:31  5-MIN K0J4 271555Z AUTO 00000KT 3SM BR OVC001 18/17 A3031 -30 96 300 000/00 RMK AO2
63870K0J4 0J420161227110011212/27/16 11:00:31  5-MIN K0J4 271600Z AUTO 00000KT 5SM BR OVC001 18/17 A3031 -30 96 300 000/00 RMK AO2 T01780172
63870K0J4 0J420161227110511212/27/16 11:05:31  5-MIN K0J4 271605Z AUTO 32003KT 6SM BR OVC001 18/17 A3031 -30 93 400 320/03 RMK AO2 T01830172
63870K0J4 0J420161227111010912/27/16 11:10:31  5-MIN K0J4 271610Z AUTO 00000KT 7SM OVC001 18/17 A3030 -30 93 400 000/00 RMK AO2 T01830172
63870K0J4 0J420161227111510912/27/16 11:15:31  5-MIN K0J4 271615Z AUTO 00000KT 7SM OVC001 18/17 A3030 -30 93 400 000/00 RMK AO2 T01830172
63870K0J4 0J420161227112010912/27/16 11:20:31  5-MIN K0J4 271620Z AUTO 00000KT 7SM OVC002 18/17 A3030 -30 93 400 000/00 RMK AO2 T01830172
63870K0J4 0J420161227112510912/27/16 11:25:31  5-MIN K0J4 271625Z AUTO 00000KT 8SM OVC002 18/18 A3030 -30 96 400 000/00 RMK AO2 T01830178
63870K0J4 0J420161227113012512/27/16 11:30:31  5-MIN K0J4 271630Z AUTO 00000KT 9SM -RA OVC002 18/18 A3030 -30 96 400 000/00 RMK AO2 RAB27 P0000 T01830178
63870K0J4 0J420161227113512412/27/16 11:35:31  5-MIN K0J4 271635Z AUTO 16003KT 9SM OVC002 19/18 A3029 -20 93 500 160/03 RMK AO2 RAB27E33 P0000 T01890178
63870K0J4 0J420161227114012412/27/16 11:40:31  5-MIN K0J4 271640Z AUTO 00000KT 9SM OVC002 19/18 A3029 -20 93 500 000/00 RMK AO2 RAB27E37 P0000 T01890178
63870K0J4 0J420161227114512412/27/16 11:45:31  5-MIN K0J4 271645Z AUTO 00000KT 9SM OVC002 19/18 A3029 -20 93 500 000/00 RMK AO2 RAB27E37 P0000 T01890178
63870K0J4 0J420161227115012512/27/16 11:50:31  5-MIN K0J4 271650Z AUTO 00000KT 10SM OVC002 19/18 A3029 -10 93 500 000/00 RMK AO2 RAB27E37 P0000 T01890178
63870K0J4 0J420161227115513212/27/16 11:55:31  5-MIN K0J4 271655Z AUTO 00000KT 10SM OVC002 19/18 A3028 -10 93 500 000/00 RMK AO2 RAB27E37 SLP252 P0000 T01940183
63870K0J4 0J420161227120011012/27/16 12:00:31  5-MIN K0J4 271700Z AUTO 00000KT 10SM OVC002 19/18 A3028 -10 90 500 000/00 RMK AO2 T01940178
63870K0J4 0J420161227120511012/27/16 12:05:31  5-MIN K0J4 271705Z AUTO 00000KT 10SM OVC002 19/18 A3028 -10 90 500 000/00 RMK AO2 T01940178
63870K0J4 0J420161227121011012/27/16 12:10:31  5-MIN K0J4 271710Z AUTO 00000KT 10SM OVC003 19/18 A3028 -10 90 500 000/00 RMK AO2 T01940178
63870K0J4 0J420161227121511012/27/16 12:15:31  5-MIN K0J4 271715Z AUTO 00000KT 10SM OVC003 20/18 A3028 -10 87 600 000/00 RMK AO2 T02000178
63870K0J4 0J420161227122010812/27/16 12:20:31  5-MIN K0J4 271720Z AUTO 00000KT 10SM OVC003 21/18 A3027 0 84 700 000/00 RMK AO2 T02060178
63870K0J4 0J420161227122512012/27/16 12:25:31  5-MIN K0J4 271725Z AUTO 00000KT 10SM OVC004 21/18 A3027 0 84 700 000/00 RMK AO2 CIG 003V006 T02060178
63870K0J4 0J420161227123010812/27/16 12:30:31  5-MIN K0J4 271730Z AUTO 00000KT 10SM OVC004 21/18 A3027 0 87 700 000/00 RMK AO2 T02060183
63870K0J4 0J420161227123512012/27/16 12:35:31  5-MIN K0J4 271735Z AUTO VRB03KT 10SM OVC006 21/18 A3027 0 84 800 VRB/03 RMK AO2 CIG 004V009 T02110183
63870K0J4 0J420161227124012012/27/16 12:40:31  5-MIN K0J4 271740Z AUTO 00000KT 10SM OVC006 21/18 A3026 0 87 700 000/00 RMK AO2 CIG 004V009 T02060183
63870K0J4 0J420161227124512112/27/16 12:45:31  5-MIN K0J4 271745Z AUTO 00000KT 10SM OVC006 21/18 A3025 10 84 800 000/00 RMK AO2 CIG 005V009 T02110183
63870K0J4 0J420161227125012112/27/16 12:50:31  5-MIN K0J4 271750Z AUTO 00000KT 10SM OVC008 21/18 A3025 10 84 800 000/00 RMK AO2 CIG 005V012 T02110183
63870K0J4 0J420161227125511112/27/16 12:55:31  5-MIN K0J4 271755Z AUTO 17004KT 10SM OVC010 22/18 A3024 20 81 800 170/04 RMK AO2 CIG 005V012
63870K0J4 0J420161227130012112/27/16 13:00:31  5-MIN K0J4 271800Z AUTO VRB03KT 10SM OVC010 22/18 A3024 20 78 900 VRB/03 RMK AO2 CIG 006V013 T02220183
63870K0J4 0J420161227130510912/27/16 13:05:31  5-MIN K0J4 271805Z AUTO 18005KT 10SM OVC010 22/18 A3024 30 78 900 180/05 RMK AO2 T02220183
63870K0J4 0J420161227131011612/27/16 13:10:31  5-MIN K0J4 271810Z AUTO 20004KT 10SM SCT010 BKN013 22/18 A3023 30 78 900 200/04 RMK AO2 T02220183
63870K0J4 0J420161227131511012/27/16 13:15:31  5-MIN K0J4 271815Z AUTO 21007KT 10SM BKN013 23/18 A3023 30 73 1000 210/07 RMK AO2 T02280178
63870K0J4 0J420161227132011012/27/16 13:20:31  5-MIN K0J4 271820Z AUTO VRB03KT 10SM BKN013 23/18 A3022 40 70 1100 VRB/03 RMK AO2 T02330178
63870K0J4 0J420161227132510912/27/16 13:25:31  5-MIN K0J4 271825Z AUTO 19003KT 10SM BKN013 22/18 A3022 40 75 900 190/03 RMK AO2 T02220178
63870K0J4 0J420161227133011612/27/16 13:30:31  5-MIN K0J4 271830Z AUTO 00000KT 10SM SCT013 BKN021 22/18 A3022 40 75 900 000/00 RMK AO2 T02220178
63870K0J4 0J420161227133511612/27/16 13:35:31  5-MIN K0J4 271835Z AUTO 00000KT 10SM FEW015 SCT021 22/18 A3022 40 75 900 000/00 RMK AO2 T02220178
63870K0J4 0J420161227134011612/27/16 13:40:31  5-MIN K0J4 271840Z AUTO 21003KT 10SM FEW015 FEW021 22/18 A3022 40 75 900 210/03 RMK AO2 T02220178
63870K0J4 0J420161227134510912/27/16 13:45:31  5-MIN K0J4 271845Z AUTO 24004KT 10SM FEW019 22/17 A3021 50 73 900 240/04 RMK AO2 T02220172
63870K0J4 0J420161227135011012/27/16 13:50:31  5-MIN K0J4 271850Z AUTO 00000KT 10SM FEW019 23/18 A3021 50 73 1000 000/00 RMK AO2 T02280178
63870K0J4 0J420161227135512312/27/16 13:55:31  5-MIN K0J4 271855Z AUTO 00000KT 10SM FEW020 FEW028 22/18 A3021 50 75 900 000/00 RMK AO2 SLP227 T02220178
63870K0J4 0J420161227140011012/27/16 14:00:31  5-MIN K0J4 271900Z AUTO 21003KT 10SM FEW026 23/18 A3021 50 73 1000 210/03 RMK AO2 T02280178
63870K0J4 0J420161227140511712/27/16 14:05:31  5-MIN K0J4 271905Z AUTO 00000KT 10SM FEW020 SCT026 23/18 A3021 50 70 1100 000/00 RMK AO2 T02330178
63870K0J4 0J420161227141012412/27/16 14:10:31  5-MIN K0J4 271910Z AUTO 00000KT 10SM FEW020 SCT026 BKN032 23/18 A3021 50 73 1000 000/00 RMK AO2 T02280178
63870K0J4 0J420161227141511712/27/16 14:15:31  5-MIN K0J4 271915Z AUTO 22004KT 10SM FEW026 BKN035 23/18 A3021 50 70 1100 220/04 RMK AO2 T02330178
63870K0J4 0J420161227142011712/27/16 14:20:31  5-MIN K0J4 271920Z AUTO VRB05KT 10SM SCT026 BKN035 23/18 A3021 50 73 1000 VRB/05 RMK AO2 T02280178
63870K0J4 0J420161227142512412/27/16 14:25:31  5-MIN K0J4 271925Z AUTO 22004KT 10SM FEW024 BKN029 OVC046 23/18 A3021 50 70 1100 220/04 RMK AO2 T02330178
63870K0J4 0J420161227143012412/27/16 14:30:31  5-MIN K0J4 271930Z AUTO VRB03KT 10SM SCT029 BKN038 OVC046 23/18 A3020 50 73 1000 VRB/03 RMK AO2 T02280178
63870K0J4 0J420161227143511712/27/16 14:35:31  5-MIN K0J4 271935Z AUTO 22003KT 10SM BKN034 OVC046 23/18 A3020 60 73 1000 220/03 RMK AO2 T02280178
63870K0J4 0J420161227144012412/27/16 14:40:31  5-MIN K0J4 271940Z AUTO VRB03KT 10SM FEW031 BKN039 OVC048 23/18 A3020 60 73 1000 VRB/03 RMK AO2 T02280178
63870K0J4 0J420161227144512412/27/16 14:45:31  5-MIN K0J4 271945Z AUTO 00000KT 10SM FEW029 BKN041 OVC050 23/18 A3020 60 70 1100 000/00 RMK AO2 T02330178
63870K0J4 0J420161227145012412/27/16 14:50:31  5-MIN K0J4 271950Z AUTO 22004KT 10SM FEW029 SCT038 OVC047 23/18 A3020 60 70 1100 220/04 RMK AO2 T02330178
63870K0J4 0J420161227145513112/27/16 14:55:31  5-MIN K0J4 271955Z AUTO 21003KT 10SM FEW031 SCT040 OVC047 23/18 A3020 60 73 1000 210/03 RMK AO2 SLP223 T02280178
63870K0J4 0J420161227150011712/27/16 15:00:31  5-MIN K0J4 272000Z AUTO 00000KT 10SM FEW031 OVC046 23/18 A3019 60 73 1000 000/00 RMK AO2 T02280178
63870K0J4 0J420161227150512412/27/16 15:05:31  5-MIN K0J4 272005Z AUTO 21003KT 10SM FEW031 FEW035 OVC046 23/18 A3019 60 70 1100 210/03 RMK AO2 T02330178
63870K0J4 0J420161227151011012/27/16 15:10:31  5-MIN K0J4 272010Z AUTO 00000KT 10SM OVC048 23/18 A3019 70 70 1100 000/00 RMK AO2 T02330178
63870K0J4 0J420161227151511012/27/16 15:15:31  5-MIN K0J4 272015Z AUTO 00000KT 10SM OVC048 23/18 A3019 70 70 1100 000/00 RMK AO2 T02330178
63870K0J4 0J420161227152012612/27/16 15:20:31  5-MIN K0J4 272020Z AUTO 00000KT 10SM -RA OVC048 23/18 A3019 70 70 1100 000/00 RMK AO2 RAB16 P0000 T02330178
63870K0J4 0J420161227152512612/27/16 15:25:31  5-MIN K0J4 272025Z AUTO 00000KT 10SM -RA OVC048 23/18 A3019 70 70 1100 000/00 RMK AO2 RAB16 P0000 T02330178
63870K0J4 0J420161227153012512/27/16 15:30:31  5-MIN K0J4 272030Z AUTO 00000KT 10SM OVC049 23/17 A3019 70 68 1100 000/00 RMK AO2 RAB16E30 P0000 T02330172
63870K0J4 0J420161227153512512/27/16 15:35:31  5-MIN K0J4 272035Z AUTO 00000KT 10SM OVC049 24/18 A3018 70 68 1200 000/00 RMK AO2 RAB16E30 P0000 T02390178
63870K0J4 0J420161227154012512/27/16 15:40:31  5-MIN K0J4 272040Z AUTO 00000KT 10SM OVC049 23/18 A3018 70 70 1100 000/00 RMK AO2 RAB16E30 P0000 T02330178
63870K0J4 0J420161227154512512/27/16 15:45:31  5-MIN K0J4 272045Z AUTO 13003KT 10SM OVC049 23/18 A3018 80 70 1100 130/03 RMK AO2 RAB16E30 P0000 T02330178
63870K0J4 0J420161227155013212/27/16 15:50:31  5-MIN K0J4 272050Z AUTO 15004KT 10SM -RA BKN049 23/18 A3018 80 70 1100 150/04 RMK AO2 RAB16E30B48 P0000 T02330178
63870K0J4 0J420161227155515012/27/16 15:55:31  5-MIN K0J4 272055Z AUTO 00000KT 10SM BKN047 23/18 A3018 80 70 1100 000/00 RMK AO2 RAB16E30B48E52 SLP218 P0000 60000 T02330178 58019
63870K0J4 0J420161227160011012/27/16 16:00:31  5-MIN K0J4 272100Z AUTO 00000KT 10SM BKN047 23/18 A3018 80 70 1100 000/00 RMK AO2 T02330178
63870K0J4 0J420161227160511012/27/16 16:05:31  5-MIN K0J4 272105Z AUTO 00000KT 10SM BKN045 23/18 A3018 80 70 1100 000/00 RMK AO2 T02330178
63870K0J4 0J420161227161011012/27/16 16:10:31  5-MIN K0J4 272110Z AUTO 00000KT 10SM BKN045 23/18 A3018 80 70 1100 000/00 RMK AO2 T02330178
63870K0J4 0J420161227161511012/27/16 16:15:31  5-MIN K0J4 272115Z AUTO 00000KT 10SM BKN045 23/18 A3018 80 70 1100 000/00 RMK AO2 T02330178
63870K0J4 0J420161227162011712/27/16 16:20:31  5-MIN K0J4 272120Z AUTO 00000KT 10SM FEW035 BKN045 24/18 A3018 80 68 1200 000/00 RMK AO2 T02390178
63870K0J4 0J420161227162512412/27/16 16:25:31  5-MIN K0J4 272125Z AUTO 03004KT 10SM FEW025 SCT033 BKN044 24/18 A3018 80 66 1200 030/04 RMK AO2 T02440178
63870K0J4 0J420161227163012412/27/16 16:30:31  5-MIN K0J4 272130Z AUTO 04004KT 10SM FEW025 FEW033 BKN044 24/18 A3018 80 66 1200 040/04 RMK AO2 T02440178
63870K0J4 0J420161227163512412/27/16 16:35:31  5-MIN K0J4 272135Z AUTO 07005KT 10SM FEW025 FEW033 BKN044 24/18 A3018 80 68 1200 070/05 RMK AO2 T02390178
63870K0J4 0J420161227164012412/27/16 16:40:31  5-MIN K0J4 272140Z AUTO 07005KT 10SM FEW025 FEW035 SCT046 24/18 A3018 80 68 1200 070/05 RMK AO2 T02390178
63870K0J4 0J420161227164512412/27/16 16:45:31  5-MIN K0J4 272145Z AUTO 08005KT 10SM FEW025 FEW033 SCT044 24/18 A3017 80 68 1200 080/05 RMK AO2 T02390178
63870K0J4 0J420161227165011712/27/16 16:50:31  5-MIN K0J4 272150Z AUTO 07004KT 10SM FEW025 FEW044 24/18 A3017 80 71 1200 070/04 RMK AO2 T02390183
63870K0J4 0J420161227165511712/27/16 16:55:31  5-MIN K0J4 272155Z AUTO 07003KT 10SM FEW045 24/18 A3017 80 71 1200 070/03 RMK AO2 SLP214 T02390183
63870K0J4 0J420161227170010712/27/16 17:00:31  5-MIN K0J4 272200Z AUTO 03004KT 10SM CLR 23/18 A3018 80 73 1100 030/04 RMK AO2 T02330183
63870K0J4 0J420161227170511712/27/16 17:05:31  5-MIN K0J4 272205Z AUTO 02004KT 10SM FEW030 SCT048 23/18 A3018 80 73 1100 020/04 RMK AO2 T02330183
63870K0J4 0J420161227171012412/27/16 17:10:31  5-MIN K0J4 272210Z AUTO 04003KT 10SM SCT030 SCT037 BKN048 23/18 A3018 80 76 1000 040/03 RMK AO2 T02280183
63870K0J4 0J420161227171512412/27/16 17:15:31  5-MIN K0J4 272215Z AUTO 00000KT 10SM FEW025 SCT030 BKN048 23/18 A3018 80 76 1000 000/00 RMK AO2 T02280183
63870K0J4 0J420161227172012412/27/16 17:20:31  5-MIN K0J4 272220Z AUTO 00000KT 10SM FEW025 BKN041 BKN048 22/18 A3018 80 78 1000 000/00 RMK AO2 T02220183
63870K0J4 0J420161227172512412/27/16 17:25:31  5-MIN K0J4 272225Z AUTO 00000KT 10SM FEW029 BKN041 BKN048 22/18 A3018 80 78 1000 000/00 RMK AO2 T02220183
63870K0J4 0J420161227173012312/27/16 17:30:31  5-MIN K0J4 272230Z AUTO 00000KT 10SM FEW029 SCT041 BKN048 22/18 A3018 80 81 900 000/00 RMK AO2 T02170183
63870K0J4 0J420161227173512312/27/16 17:35:31  5-MIN K0J4 272235Z AUTO 00000KT 10SM FEW027 FEW036 SCT044 22/18 A3018 80 81 900 000/00 RMK AO2 T02170183
63870K0J4 0J420161227174010912/27/16 17:40:31  5-MIN K0J4 272240Z AUTO 00000KT 10SM FEW043 21/18 A3018 80 81 800 000/00 RMK AO2 T02110178
63870K0J4 0J420161227174510912/27/16 17:45:31  5-MIN K0J4 272245Z AUTO 00000KT 10SM FEW041 21/18 A3018 80 81 900 000/00 RMK AO2 T02110178
63870K0J4 0J420161227175010612/27/16 17:50:31  5-MIN K0J4 272250Z AUTO 00000KT 10SM CLR 21/18 A3018 80 81 800 000/00 RMK AO2 T02110178
63870K0J4 0J420161227175511312/27/16 17:55:31  5-MIN K0J4 272255Z AUTO 00000KT 10SM CLR 21/18 A3018 80 81 900 000/00 RMK AO2 SLP217 T02110178
63870K0J4 0J420161227180010612/27/16 18:00:31  5-MIN K0J4 272300Z AUTO 12003KT 10SM CLR 20/18 A3017 80 87 700 120/03 RMK AO2 T02000178
63870K0J4 0J420161227180510612/27/16 18:05:31  5-MIN K0J4 272305Z AUTO 00000KT 10SM CLR 20/18 A3018 80 87 700 000/00 RMK AO2 T02000178
63870K0J4 0J420161227181010612/27/16 18:10:31  5-MIN K0J4 272310Z AUTO 00000KT 10SM CLR 21/18 A3018 80 84 800 000/00 RMK AO2 T02060178
63870K0J4 0J420161227181510612/27/16 18:15:31  5-MIN K0J4 272315Z AUTO 00000KT 10SM CLR 21/18 A3018 80 84 800 000/00 RMK AO2 T02060178
63870K0J4 0J420161227182010612/27/16 18:20:31  5-MIN K0J4 272320Z AUTO 00000KT 10SM CLR 19/17 A3018 80 87 700 000/00 RMK AO2 T01940172
63870K0J4 0J420161227182510612/27/16 18:25:31  5-MIN K0J4 272325Z AUTO 00000KT 10SM CLR 19/17 A3018 80 87 700 000/00 RMK AO2 T01940172
63870K0J4 0J420161227183010612/27/16 18:30:31  5-MIN K0J4 272330Z AUTO 00000KT 10SM CLR 19/17 A3018 80 87 700 000/00 RMK AO2 T01940172
63870K0J4 0J420161227183510612/27/16 18:35:31  5-MIN K0J4 272335Z AUTO 00000KT 10SM CLR 19/17 A3018 80 90 600 000/00 RMK AO2 T01890172
63870K0J4 0J420161227184010612/27/16 18:40:31  5-MIN K0J4 272340Z AUTO 00000KT 10SM CLR 19/17 A3018 80 90 600 000/00 RMK AO2 T01890172
63870K0J4 0J420161227184510612/27/16 18:45:31  5-MIN K0J4 272345Z AUTO 00000KT 10SM CLR 19/17 A3018 80 90 600 000/00 RMK AO2 T01890172
63870K0J4 0J420161227185010612/27/16 18:50:31  5-MIN K0J4 272350Z AUTO 00000KT 10SM CLR 19/17 A3018 80 90 600 000/00 RMK AO2 T01890172
63870K0J4 0J420161227185513712/27/16 18:55:31  5-MIN K0J4 272355Z AUTO 00000KT 10SM CLR 19/17 A3018 80 90 600 000/00 RMK AO2 SLP217 60000 T01890172 10244 20183 56020
63870K0J4 0J420161227190010612/27/16 19:00:31  5-MIN K0J4 280000Z AUTO 00000KT 10SM CLR 18/17 A3018 80 93 500 000/00 RMK AO2 T01830172
63870K0J4 0J420161227190512512/27/16 19:05:31  5-MIN K0J4 280005Z AUTO 00000KT 10SM -RA FEW055 18/17 A3018 80 93 500 000/00 RMK AO2 RAB04 P0000 T01780167
63870K0J4 0J420161227191013212/27/16 19:10:31  5-MIN K0J4 280010Z AUTO 20005KT 10SM -RA FEW027 SCT055 18/17 A3018 70 93 500 200/05 RMK AO2 RAB04 P0000 T01780167
63870K0J4 0J420161227191513212/27/16 19:15:31  5-MIN K0J4 280015Z AUTO 21005KT 10SM -RA SCT027 SCT055 19/17 A3018 70 90 600 210/05 RMK AO2 RAB04 P0000 T01890172
63870K0J4 0J420161227192013112/27/16 19:20:31  5-MIN K0J4 280020Z AUTO 20005KT 10SM SCT027 SCT055 19/18 A3018 70 90 700 200/05 RMK AO2 RAB04E19 P0000 T01940178
63870K0J4 0J420161227192513112/27/16 19:25:31  5-MIN K0J4 280025Z AUTO 21005KT 10SM SCT027 SCT055 19/18 A3019 70 93 600 210/05 RMK AO2 RAB04E19 P0000 T01890178
63870K0J4 0J420161227193013212/27/16 19:30:31  5-MIN K0J4 280030Z AUTO 19005KT 10SM -RA FEW027 SCT055 19/18 A3018 70 93 600 190/05 RMK AO2 RAB04 P0000 T01890178
63870K0J4 0J420161227193512512/27/16 19:35:31  5-MIN K0J4 280035Z AUTO 19006KT 10SM -RA FEW027 20/18 A3018 70 87 700 190/06 RMK AO2 RAB04 P0000 T02000178
63870K0J4 0J420161227194012412/27/16 19:40:31  5-MIN K0J4 280040Z AUTO 20006KT 10SM FEW027 19/18 A3019 70 90 600 200/06 RMK AO2 RAB04E36 P0000 T01940178
63870K0J4 0J420161227194512112/27/16 19:45:31  5-MIN K0J4 280045Z AUTO 21005KT 10SM CLR 19/18 A3019 70 90 600 210/05 RMK AO2 RAB04E36 P0000 T01940178
63870K0J4 0J420161227195012212/27/16 19:50:31  5-MIN K0J4 280050Z AUTO 22004KT 10SM -RA CLR 19/18 A3019 70 90 600 220/04 RMK AO2 RAB04 P0000 T01940178
63870K0J4 0J420161227195512912/27/16 19:55:31  5-MIN K0J4 280055Z AUTO 22005KT 10SM -RA CLR 19/18 A3019 70 90 600 220/05 RMK AO2 RAB04 SLP220 P0000 T01940178
63870K0J4 0J420161227200012012/27/16 20:00:31  5-MIN K0J4 280100Z AUTO 22005KT 10SM CLR 19/18 A3019 70 90 600 220/05 RMK AO2 RAE0059 P0000 T01940178
63870K0J4 0J420161227200512012/27/16 20:05:31  5-MIN K0J4 280105Z AUTO 21006KT 10SM CLR 19/18 A3019 70 90 600 210/06 RMK AO2 RAE0059 P0000 T01940178
63870K0J4 0J420161227201012012/27/16 20:10:31  5-MIN K0J4 280110Z AUTO 21006KT 10SM CLR 19/18 A3019 70 93 600 210/06 RMK AO2 RAE0059 P0000 T01890178
63870K0J4 0J420161227201512012/27/16 20:15:31  5-MIN K0J4 280115Z AUTO 21005KT 10SM CLR 19/17 A3019 70 90 600 210/05 RMK AO2 RAE0059 P0000 T01890172
63870K0J4 0J420161227202012012/27/16 20:20:31  5-MIN K0J4 280120Z AUTO 22005KT 10SM CLR 19/18 A3019 70 93 600 220/05 RMK AO2 RAE0059 P0000 T01890178
63870K0J4 0J420161227202512012/27/16 20:25:31  5-MIN K0J4 280125Z AUTO 22005KT 10SM CLR 19/18 A3019 70 93 600 220/05 RMK AO2 RAE0059 P0000 T01890178
63870K0J4 0J420161227203012012/27/16 20:30:31  5-MIN K0J4 280130Z AUTO 22005KT 10SM CLR 19/18 A3019 70 90 600 220/05 RMK AO2 RAE0059 P0000 T01940178
63870K0J4 0J420161227203511912/27/16 20:35:31  5-MIN K0J4 280135Z AUTO 22004KT 9SM CLR 19/18 A3019 70 90 600 220/04 RMK AO2 RAE0059 P0000 T01940178
63870K0J4 0J420161227204011912/27/16 20:40:31  5-MIN K0J4 280140Z AUTO 22003KT 8SM CLR 19/18 A3019 70 90 600 220/03 RMK AO2 RAE0059 P0000 T01940178
63870K0J4 0J420161227204511912/27/16 20:45:31  5-MIN K0J4 280145Z AUTO 22004KT 7SM CLR 19/18 A3019 70 93 600 220/04 RMK AO2 RAE0059 P0000 T01890178
63870K0J4 0J420161227205011912/27/16 20:50:31  5-MIN K0J4 280150Z AUTO 21006KT 7SM CLR 19/18 A3019 70 93 600 210/06 RMK AO2 RAE0059 P0000 T01890178
63870K0J4 0J420161227205513212/27/16 20:55:31  5-MIN K0J4 280155Z AUTO 22005KT 6SM BR SCT003 19/18 A3019 70 93 600 220/05 RMK AO2 RAE0059 SLP220 P0000 T01890178
63870K0J4 0J420161227210011112/27/16 21:00:31  5-MIN K0J4 280200Z AUTO 20005KT 5SM BR BKN003 19/18 A3018 70 93 600 200/05 RMK AO2 T01890178
63870K0J4 0J420161227210511112/27/16 21:05:31  5-MIN K0J4 280205Z AUTO 20005KT 6SM BR BKN003 19/18 A3019 70 93 600 200/05 RMK AO2 T01890178
63870K0J4 0J420161227211011112/27/16 21:10:31  5-MIN K0J4 280210Z AUTO 21004KT 6SM BR BKN003 19/18 A3019 70 93 600 210/04 RMK AO2 T01890178
63870K0J4 0J420161227211511112/27/16 21:15:31  5-MIN K0J4 280215Z AUTO 21004KT 6SM BR OVC003 19/18 A3019 70 93 600 210/04 RMK AO2 T01890178
63870K0J4 0J420161227212011112/27/16 21:20:31  5-MIN K0J4 280220Z AUTO 21005KT 4SM BR OVC002 19/18 A3019 70 93 600 210/05 RMK AO2 T01890178
63870K0J4 0J420161227212511112/27/16 21:25:31  5-MIN K0J4 280225Z AUTO 22005KT 3SM BR OVC002 19/18 A3019 70 97 600 220/05 RMK AO2 T01890183
63870K0J4 0J420161227213011112/27/16 21:30:31  5-MIN K0J4 280230Z AUTO 22006KT 2SM BR OVC002 19/18 A3019 70 97 600 220/06 RMK AO2 T01890183
63870K0J4 0J420161227213511512/27/16 21:35:31  5-MIN K0J4 280235Z AUTO 21007KT 1 1/4SM BR OVC001 19/18 A3019 70 97 600 210/07 RMK AO2 T01890183
63870K0J4 0J420161227214011112/27/16 21:40:31  5-MIN K0J4 280240Z AUTO 22007KT 1SM BR OVC001 19/18 A3019 70 97 600 220/07 RMK AO2 T01890183
63870K0J4 0J420161227214511212/27/16 21:45:31  5-MIN K0J4 280245Z AUTO 21006KT 3/4SM BR VV001 19/18 A3019 70 97 600 210/06 RMK AO2 T01890183
63870K0J4 0J420161227215011212/27/16 21:50:31  5-MIN K0J4 280250Z AUTO 21007KT 3/4SM BR VV001 19/18 A3019 60 97 600 210/07 RMK AO2 T01890183
63870K0J4 0J420161227215513112/27/16 21:55:31  5-MIN K0J4 280255Z AUTO 22005KT 3/4SM BR VV001 19/18 A3020 60 97 600 220/05 RMK AO2 SLP223 60000 T01890183 55001
63870K0J4 0J420161227220011212/27/16 22:00:31  5-MIN K0J4 280300Z AUTO 22004KT 3/4SM BR VV001 19/18 A3020 60 93 600 220/04 RMK AO2 T01940183
63870K0J4 0J420161227220511012/27/16 22:05:31  5-MIN K0J4 280305Z AUTO 22003KT 1SM BR VV001 19/18 A3020 60 93 600 220/03 RMK AO2 T01940183
63870K0J4 0J420161227221011512/27/16 22:10:31  5-MIN K0J4 280310Z AUTO 23004KT 1 1/4SM BR OVC001 19/18 A3020 50 93 600 230/04 RMK AO2 T01940183
63870K0J4 0J420161227221511512/27/16 22:15:31  5-MIN K0J4 280315Z AUTO 23004KT 1 1/2SM BR OVC001 19/18 A3021 50 93 600 230/04 RMK AO2 T01940183
63870K0J4 0J420161227222011512/27/16 22:20:31  5-MIN K0J4 280320Z AUTO 22005KT 1 1/2SM BR OVC001 19/18 A3021 50 93 600 220/05 RMK AO2 T01940183
63870K0J4 0J420161227222511512/27/16 22:25:31  5-MIN K0J4 280325Z AUTO 24003KT 1 1/2SM BR OVC001 19/18 A3021 50 93 600 240/03 RMK AO2 T01940183
63870K0J4 0J420161227223011512/27/16 22:30:31  5-MIN K0J4 280330Z AUTO 23005KT 1 1/2SM BR OVC001 19/18 A3021 50 93 600 230/05 RMK AO2 T01940183
63870K0J4 0J420161227223511512/27/16 22:35:31  5-MIN K0J4 280335Z AUTO 23006KT 1 1/4SM BR OVC001 19/18 A3021 50 93 600 230/06 RMK AO2 T01940183
63870K0J4 0J420161227224011512/27/16 22:40:31  5-MIN K0J4 280340Z AUTO 23005KT 1 1/2SM BR OVC001 19/18 A3021 50 93 600 230/05 RMK AO2 T01940183
63870K0J4 0J420161227224512212/27/16 22:45:31  5-MIN K0J4 280345Z AUTO 23004KT 2 1/2SM BR BKN001 OVC008 19/18 A3021 50 93 600 230/04 RMK AO2 T01940183
63870K0J4 0J420161227225011812/27/16 22:50:31  5-MIN K0J4 280350Z AUTO 23004KT 5SM BR BKN001 OVC008 19/18 A3021 50 93 600 230/04 RMK AO2 T01940183
63870K0J4 0J420161227225512212/27/16 22:55:31  5-MIN K0J4 280355Z AUTO 22004KT 8SM BKN001 OVC008 19/18 A3021 50 93 600 220/04 RMK AO2 SLP226 T01940183
63870K0J4 0J420161227230011512/27/16 23:00:31  5-MIN K0J4 280400Z AUTO 21004KT 8SM SCT001 OVC008 19/18 A3021 50 93 600 210/04 RMK AO2 T01940183
63870K0J4 0J420161227230511512/27/16 23:05:31  5-MIN K0J4 280405Z AUTO 21004KT 8SM SCT001 OVC009 19/18 A3021 50 93 600 210/04 RMK AO2 T01940183
63870K0J4 0J420161227231012712/27/16 23:10:31  5-MIN K0J4 280410Z AUTO 22003KT 7SM SCT003 OVC009 19/18 A3021 50 93 600 220/03 RMK AO2 CIG 006V011 T01940183
63870K0J4 0J420161227231511512/27/16 23:15:31  5-MIN K0J4 280415Z AUTO 00000KT 7SM BKN003 OVC009 19/18 A3021 50 93 600 000/00 RMK AO2 T01940183
63870K0J4 0J420161227232011512/27/16 23:20:31  5-MIN K0J4 280420Z AUTO 00000KT 7SM BKN003 OVC009 19/18 A3021 50 93 600 000/00 RMK AO2 T01940183
63870K0J4 0J420161227232511512/27/16 23:25:31  5-MIN K0J4 280425Z AUTO 00000KT 7SM BKN003 OVC009 19/18 A3021 50 93 600 000/00 RMK AO2 T01940183
63870K0J4 0J420161227233012012/27/16 23:30:31  5-MIN K0J4 280430Z AUTO 22003KT 7SM OVC005 19/18 A3021 50 93 600 220/03 RMK AO2 CIG 002V009 T01940183
63870K0J4 0J420161227233512012/27/16 23:35:31  5-MIN K0J4 280435Z AUTO 24003KT 8SM OVC005 19/18 A3021 50 93 600 240/03 RMK AO2 CIG 002V008 T01940183
63870K0J4 0J420161227234012012/27/16 23:40:31  5-MIN K0J4 280440Z AUTO 00000KT 8SM OVC005 19/18 A3021 50 93 600 000/00 RMK AO2 CIG 002V008 T01940183
63870K0J4 0J420161227234512012/27/16 23:45:31  5-MIN K0J4 280445Z AUTO 00000KT 8SM OVC005 19/18 A3021 50 93 600 000/00 RMK AO2 CIG 002V008 T01940183
63870K0J4 0J420161227235012012/27/16 23:50:31  5-MIN K0J4 280450Z AUTO 20003KT 9SM OVC005 19/19 A3020 50 97 600 200/03 RMK AO2 CIG 002V008 T01940189
63870K0J4 0J420161227235513712/27/16 23:55:31  5-MIN K0J4 280455Z AUTO 22003KT 9SM OVC005 19/18 A3021 50 93 600 220/03 RMK AO2 CIG 002V008 SLP225 T01940183 402440133
63870K0J4 0J420161228000010812/28/16 00:00:31  5-MIN K0J4 280500Z AUTO 23004KT 9SM OVC006 19/18 A3021 50 93 600 230/04 RMK AO2 T01940183
63870K0J4 0J420161228000510812/28/16 00:05:31  5-MIN K0J4 280505Z AUTO 23004KT 9SM OVC006 19/18 A3021 50 93 600 230/04 RMK AO2 T01940183
63870K0J4 0J420161228001010812/28/16 00:10:31  5-MIN K0J4 280510Z AUTO 22003KT 9SM OVC007 19/18 A3021 50 93 600 220/03 RMK AO2 T01940183
63870K0J4 0J420161228001510812/28/16 00:15:31  5-MIN K0J4 280515Z AUTO VRB03KT 8SM OVC007 19/18 A3021 50 93 600 VRB/03 RMK AO2 T01940183
63870K0J4 0J420161228002010812/28/16 00:20:31  5-MIN K0J4 280520Z AUTO 00000KT 9SM OVC007 20/19 A3021 50 93 700 000/00 RMK AO2 T02000189
63870K0J4 0J420161228002512012/28/16 00:25:31  5-MIN K0J4 280525Z AUTO 22003KT 9SM OVC007 20/18 A3020 50 90 700 220/03 RMK AO2 CIG 004V008 T02000183
63870K0J4 0J420161228003012012/28/16 00:30:31  5-MIN K0J4 280530Z AUTO 22003KT 8SM OVC007 19/18 A3020 60 93 600 220/03 RMK AO2 CIG 003V008 T01940183
63870K0J4 0J420161228003512012/28/16 00:35:31  5-MIN K0J4 280535Z AUTO 00000KT 8SM OVC005 19/18 A3020 60 93 600 000/00 RMK AO2 CIG 003V008 T01940183
63870K0J4 0J420161228004012012/28/16 00:40:31  5-MIN K0J4 280540Z AUTO 22004KT 7SM OVC005 19/18 A3019 60 93 600 220/04 RMK AO2 CIG 003V008 T01940183
63870K0J4 0J420161228004512012/28/16 00:45:31  5-MIN K0J4 280545Z AUTO 21005KT 7SM OVC005 19/18 A3019 70 93 600 210/05 RMK AO2 CIG 002V008 T01940183
63870K0J4 0J420161228005012312/28/16 00:50:31  5-MIN K0J4 280550Z AUTO 20004KT 6SM BR OVC005 19/18 A3019 70 93 600 200/04 RMK AO2 CIG 002V006 T01940183
63870K0J4 0J420161228005510112/28/16 00:55:31  5-MIN K0J4 280555Z AUTO 22004KT 5SM BR OVC003 19/18 A3019 70 93 600 220/04 RMK AO2
63870K0J4 0J420161228010012312/28/16 01:00:31  5-MIN K0J4 280600Z AUTO 22003KT 6SM BR OVC003 19/18 A3019 70 93 600 220/03 RMK AO2 CIG 002V006 T01940183
63870K0J4 0J420161228010512712/28/16 01:05:31  5-MIN K0J4 280605Z AUTO 21004KT 7SM BKN004 OVC008 19/18 A3019 70 93 600 210/04 RMK AO2 CIG 002V006 T01940183
63870K0J4 0J420161228011011512/28/16 01:10:31  5-MIN K0J4 280610Z AUTO 22003KT 8SM SCT004 OVC008 19/18 A3018 70 93 700 220/03 RMK AO2 T01940183
63870K0J4 0J420161228011511512/28/16 01:15:31  5-MIN K0J4 280615Z AUTO 22003KT 8SM SCT004 OVC009 19/18 A3018 80 93 700 220/03 RMK AO2 T01940183
63870K0J4 0J420161228012012012/28/16 01:20:31  5-MIN K0J4 280620Z AUTO 00000KT 8SM OVC009 19/18 A3018 80 93 700 000/00 RMK AO2 CIG 003V010 T01940183
63870K0J4 0J420161228012512012/28/16 01:25:31  5-MIN K0J4 280625Z AUTO 00000KT 8SM OVC009 19/18 A3018 80 93 700 000/00 RMK AO2 CIG 004V010 T01940183
63870K0J4 0J420161228013010812/28/16 01:30:31  5-MIN K0J4 280630Z AUTO 22003KT 8SM OVC009 19/18 A3018 80 93 700 220/03 RMK AO2 T01940183
63870K0J4 0J420161228013510812/28/16 01:35:31  5-MIN K0J4 280635Z AUTO 00000KT 9SM OVC009 20/18 A3018 80 90 700 000/00 RMK AO2 T02000183
63870K0J4 0J420161228014010812/28/16 01:40:31  5-MIN K0J4 280640Z AUTO 00000KT 8SM OVC010 20/18 A3018 80 90 700 000/00 RMK AO2 T02000183
63870K0J4 0J420161228014510812/28/16 01:45:31  5-MIN K0J4 280645Z AUTO 00000KT 8SM OVC012 19/18 A3018 80 93 700 000/00 RMK AO2 T01940183
63870K0J4 0J420161228015010812/28/16 01:50:31  5-MIN K0J4 280650Z AUTO 22003KT 8SM OVC012 20/18 A3018 80 90 700 220/03 RMK AO2 T02000183
63870K0J4 0J420161228015511512/28/16 01:55:31  5-MIN K0J4 280655Z AUTO 21004KT 8SM OVC012 19/18 A3018 80 93 700 210/04 RMK AO2 SLP215 T01940183
63870K0J4 0J420161228020010812/28/16 02:00:31  5-MIN K0J4 280700Z AUTO 21005KT 8SM OVC012 19/18 A3018 80 93 700 210/05 RMK AO2 T01940183
63870K0J4 0J420161228020510812/28/16 02:05:31  5-MIN K0J4 280705Z AUTO 21005KT 7SM OVC012 19/18 A3017 80 93 700 210/05 RMK AO2 T01940183
63870K0J4 0J420161228021011112/28/16 02:10:31  5-MIN K0J4 280710Z AUTO 21006KT 6SM BR OVC013 19/18 A3018 80 93 700 210/06 RMK AO2 T01940183
63870K0J4 0J420161228021511112/28/16 02:15:31  5-MIN K0J4 280715Z AUTO 20006KT 6SM BR OVC013 19/18 A3018 80 93 700 200/06 RMK AO2 T01940183
63870K0J4 0J420161228022011112/28/16 02:20:31  5-MIN K0J4 280720Z AUTO 22005KT 6SM BR OVC013 19/18 A3018 80 93 700 220/05 RMK AO2 T01940183
63870K0J4 0J420161228022511812/28/16 02:25:31  5-MIN K0J4 280725Z AUTO 22004KT 6SM BR FEW003 OVC013 19/18 A3018 80 93 700 220/04 RMK AO2 T01940183
63870K0J4 0J420161228023011512/28/16 02:30:31  5-MIN K0J4 280730Z AUTO VRB03KT 7SM FEW003 OVC012 19/18 A3018 80 93 700 VRB/03 RMK AO2 T01940183
63870K0J4 0J420161228023510812/28/16 02:35:31  5-MIN K0J4 280735Z AUTO 22004KT 8SM OVC012 19/18 A3017 80 93 700 220/04 RMK AO2 T01940183
63870K0J4 0J420161228024010812/28/16 02:40:31  5-MIN K0J4 280740Z AUTO 21004KT 8SM OVC012 19/18 A3017 80 93 700 210/04 RMK AO2 T01940183
63870K0J4 0J420161228024510812/28/16 02:45:31  5-MIN K0J4 280745Z AUTO 00000KT 8SM OVC012 19/18 A3018 80 93 700 000/00 RMK AO2 T01940183
63870K0J4 0J420161228025010812/28/16 02:50:31  5-MIN K0J4 280750Z AUTO 00000KT 8SM OVC011 20/18 A3018 80 90 700 000/00 RMK AO2 T02000183
63870K0J4 0J420161228025511512/28/16 02:55:31  5-MIN K0J4 280755Z AUTO 00000KT 9SM OVC011 20/18 A3017 90 90 700 000/00 RMK AO2 SLP213 T02000183
63870K0J4 0J420161228030010812/28/16 03:00:31  5-MIN K0J4 280800Z AUTO VRB03KT 9SM OVC011 20/18 A3017 90 90 700 VRB/03 RMK AO2 T02000183
63870K0J4 0J420161228030510912/28/16 03:05:31  5-MIN K0J4 280805Z AUTO 00000KT 10SM OVC011 20/18 A3017 90 90 700 000/00 RMK AO2 T02000183
63870K0J4 0J420161228031010912/28/16 03:10:31  5-MIN K0J4 280810Z AUTO 22004KT 10SM OVC011 20/18 A3017 90 90 700 220/04 RMK AO2 T02000183
63870K0J4 0J420161228031510912/28/16 03:15:31  5-MIN K0J4 280815Z AUTO 23003KT 10SM OVC011 20/18 A3017 90 90 700 230/03 RMK AO2 T02000183
63870K0J4 0J420161228032010912/28/16 03:20:31  5-MIN K0J4 280820Z AUTO 00000KT 10SM OVC011 20/18 A3017 80 90 700 000/00 RMK AO2 T02000183
63870K0J4 0J420161228032510912/28/16 03:25:31  5-MIN K0J4 280825Z AUTO 24003KT 10SM OVC011 20/18 A3017 80 90 700 240/03 RMK AO2 T02000183
63870K0J4 0J420161228033010912/28/16 03:30:31  5-MIN K0J4 280830Z AUTO 22003KT 10SM OVC011 20/18 A3017 90 90 700 220/03 RMK AO2 T02000183
63870K0J4 0J420161228033510912/28/16 03:35:31  5-MIN K0J4 280835Z AUTO 21004KT 10SM OVC012 20/18 A3016 90 90 700 210/04 RMK AO2 T02000183
63870K0J4 0J420161228034010912/28/16 03:40:31  5-MIN K0J4 280840Z AUTO 00000KT 10SM OVC012 20/18 A3017 90 90 700 000/00 RMK AO2 T02000183
63870K0J4 0J420161228034510912/28/16 03:45:31  5-MIN K0J4 280845Z AUTO 22003KT 10SM OVC012 20/18 A3017 90 90 700 220/03 RMK AO2 T02000183
63870K0J4 0J420161228035010912/28/16 03:50:31  5-MIN K0J4 280850Z AUTO 00000KT 10SM OVC012 20/18 A3017 90 90 700 000/00 RMK AO2 T02000183
63870K0J4 0J420161228035512212/28/16 03:55:31  5-MIN K0J4 280855Z AUTO 22003KT 10SM OVC014 20/18 A3016 90 90 700 220/03 RMK AO2 SLP211 T02000183 58004
63870K0J4 0J420161228040010912/28/16 04:00:31  5-MIN K0J4 280900Z AUTO 21003KT 10SM OVC014 20/18 A3016 90 90 700 210/03 RMK AO2 T02000183
63870K0J4 0J420161228040511012/28/16 04:05:31  5-MIN K0J4 280905Z AUTO 21003KT 10SM OVC014 20/18 A3016 100 90 700 210/03 RMK AO2 T02000183
63870K0J4 0J420161228041011012/28/16 04:10:31  5-MIN K0J4 280910Z AUTO 21003KT 10SM OVC014 20/18 A3016 100 90 700 210/03 RMK AO2 T02000183
63870K0J4 0J420161228041510912/28/16 04:15:31  5-MIN K0J4 280915Z AUTO 00000KT 10SM OVC014 20/18 A3016 90 90 700 000/00 RMK AO2 T02000183
63870K0J4 0J420161228042011012/28/16 04:20:31  5-MIN K0J4 280920Z AUTO 00000KT 10SM OVC014 20/18 A3016 100 90 700 000/00 RMK AO2 T02000183
63870K0J4 0J420161228042510912/28/16 04:25:31  5-MIN K0J4 280925Z AUTO 23003KT 10SM OVC014 20/18 A3016 90 87 700 230/03 RMK AO2 T02000178
63870K0J4 0J420161228043010912/28/16 04:30:31  5-MIN K0J4 280930Z AUTO 00000KT 10SM OVC014 20/18 A3016 90 87 700 000/00 RMK AO2 T02000178
63870K0J4 0J420161228043511012/28/16 04:35:31  5-MIN K0J4 280935Z AUTO 00000KT 10SM OVC015 20/18 A3016 100 90 700 000/00 RMK AO2 T02000183
63870K0J4 0J420161228044010912/28/16 04:40:31  5-MIN K0J4 280940Z AUTO 00000KT 10SM OVC015 20/18 A3016 90 90 700 000/00 RMK AO2 T02000183
63870K0J4 0J420161228044510912/28/16 04:45:31  5-MIN K0J4 280945Z AUTO 00000KT 10SM OVC015 19/18 A3017 90 93 700 000/00 RMK AO2 T01940183
63870K0J4 0J420161228045011012/28/16 04:50:31  5-MIN K0J4 280950Z AUTO 00000KT 10SM OVC015 19/18 A3016 100 93 700 000/00 RMK AO2 T01940183
63870K0J4 0J420161228045511712/28/16 04:55:31  5-MIN K0J4 280955Z AUTO 22003KT 10SM OVC015 19/18 A3016 100 93 700 220/03 RMK AO2 SLP209 T01940183
63870K0J4 0J420161228050011612/28/16 05:00:31  5-MIN K0J4 281000Z AUTO 00000KT 10SM BKN014 OVC100 19/18 A3016 90 90 700 000/00 RMK AO2 T01940178
63870K0J4 0J420161228050511712/28/16 05:05:31  5-MIN K0J4 281005Z AUTO 00000KT 10SM BKN014 OVC100 19/18 A3016 100 90 700 000/00 RMK AO2 T01940178
63870K0J4 0J420161228051012312/28/16 05:10:31  5-MIN K0J4 281010Z AUTO 00000KT 10SM FEW006 BKN014 OVC100 19/18 A3016 90 90 700 000/00 RMK AO2 T01940178
63870K0J4 0J420161228051512312/28/16 05:15:31  5-MIN K0J4 281015Z AUTO 00000KT 10SM FEW006 BKN012 OVC100 19/18 A3016 90 93 700 000/00 RMK AO2 T01940183
63870K0J4 0J420161228052012312/28/16 05:20:31  5-MIN K0J4 281020Z AUTO 00000KT 10SM SCT006 BKN012 OVC100 19/18 A3016 90 93 700 000/00 RMK AO2 T01940183
63870K0J4 0J420161228052512312/28/16 05:25:31  5-MIN K0J4 281025Z AUTO 00000KT 10SM SCT006 BKN012 OVC100 19/18 A3016 90 93 700 000/00 RMK AO2 T01940183
63870K0J4 0J420161228053011612/28/16 05:30:31  5-MIN K0J4 281030Z AUTO 00000KT 10SM FEW006 OVC012 19/18 A3016 90 93 700 000/00 RMK AO2 T01940183
63870K0J4 0J420161228053511612/28/16 05:35:31  5-MIN K0J4 281035Z AUTO 00000KT 10SM SCT006 OVC012 19/18 A3016 90 93 700 000/00 RMK AO2 T01940183
63870K0J4 0J420161228054011512/28/16 05:40:31  5-MIN K0J4 281040Z AUTO 00000KT 9SM FEW006 OVC012 19/18 A3016 90 93 700 000/00 RMK AO2 T01940183
63870K0J4 0J420161228054511512/28/16 05:45:31  5-MIN K0J4 281045Z AUTO 00000KT 9SM FEW005 OVC012 19/18 A3016 90 93 700 000/00 RMK AO2 T01940183
63870K0J4 0J420161228055011612/28/16 05:50:31  5-MIN K0J4 281050Z AUTO 21003KT 9SM FEW005 OVC012 19/18 A3016 100 93 700 210/03 RMK AO2 T01940183
63870K0J4 0J420161228055512212/28/16 05:55:31  5-MIN K0J4 281055Z AUTO 00000KT 9SM FEW004 OVC012 19/18 A3016 90 93 700 000/00 RMK AO2 SLP210 T01940183
63870K0J4 0J420161228060011512/28/16 06:00:31  5-MIN K0J4 281100Z AUTO 00000KT 9SM FEW004 OVC011 19/18 A3016 90 93 700 000/00 RMK AO2 T01940183
63870K0J4 0J420161228060510812/28/16 06:05:31  5-MIN K0J4 281105Z AUTO 00000KT 9SM OVC011 19/18 A3016 90 93 700 000/00 RMK AO2 T01940183
63870K0J4 0J420161228061011512/28/16 06:10:31  5-MIN K0J4 281110Z AUTO 00000KT 8SM FEW004 OVC011 19/18 A3016 90 93 700 000/00 RMK AO2 T01940183
63870K0J4 0J420161228061511512/28/16 06:15:31  5-MIN K0J4 281115Z AUTO 00000KT 9SM FEW004 OVC011 19/18 A3016 90 93 700 000/00 RMK AO2 T01940183
63870K0J4 0J420161228062011512/28/16 06:20:31  5-MIN K0J4 281120Z AUTO 00000KT 9SM FEW004 OVC012 19/18 A3016 90 93 700 000/00 RMK AO2 T01940183
63870K0J4 0J420161228062511512/28/16 06:25:31  5-MIN K0J4 281125Z AUTO 00000KT 8SM FEW003 OVC012 19/18 A3016 90 93 700 000/00 RMK AO2 T01940183
63870K0J4 0J420161228063011512/28/16 06:30:31  5-MIN K0J4 281130Z AUTO 00000KT 8SM FEW003 OVC012 19/18 A3017 90 93 700 000/00 RMK AO2 T01940183
63870K0J4 0J420161228063511512/28/16 06:35:31  5-MIN K0J4 281135Z AUTO 00000KT 8SM FEW003 OVC012 19/18 A3017 90 93 700 000/00 RMK AO2 T01940183
63870K0J4 0J420161228064010812/28/16 06:40:31  5-MIN K0J4 281140Z AUTO 00000KT 8SM OVC012 19/18 A3017 90 93 700 000/00 RMK AO2 T01940183
63870K0J4 0J420161228064510812/28/16 06:45:31  5-MIN K0J4 281145Z AUTO 00000KT 8SM OVC012 19/18 A3017 90 93 700 000/00 RMK AO2 T01940183
63870K0J4 0J420161228065010812/28/16 06:50:31  5-MIN K0J4 281150Z AUTO 00000KT 7SM OVC013 19/18 A3017 80 93 700 000/00 RMK AO2 T01940183
63870K0J4 0J420161228065513312/28/16 06:55:31  5-MIN K0J4 281155Z AUTO 00000KT 7SM OVC013 19/18 A3017 80 93 700 000/00 RMK AO2 SLP214 T01940183 10200 20194 56009
63870K0J4 0J420161228070010812/28/16 07:00:31  5-MIN K0J4 281200Z AUTO 00000KT 7SM OVC013 19/18 A3017 80 93 700 000/00 RMK AO2 T01940183
63870K0J4 0J420161228070510812/28/16 07:05:31  5-MIN K0J4 281205Z AUTO 00000KT 7SM OVC013 19/18 A3018 80 93 700 000/00 RMK AO2 T01940183
63870K0J4 0J420161228071011512/28/16 07:10:31  5-MIN K0J4 281210Z AUTO 00000KT 7SM FEW006 OVC013 19/18 A3017 80 93 700 000/00 RMK AO2 T01940183
63870K0J4 0J420161228071511512/28/16 07:15:31  5-MIN K0J4 281215Z AUTO 00000KT 7SM FEW006 OVC014 19/18 A3017 80 93 700 000/00 RMK AO2 T01940183
63870K0J4 0J420161228072011512/28/16 07:20:31  5-MIN K0J4 281220Z AUTO 00000KT 7SM FEW006 OVC014 19/18 A3017 90 90 700 000/00 RMK AO2 T01940178
63870K0J4 0J420161228072511512/28/16 07:25:31  5-MIN K0J4 281225Z AUTO 00000KT 7SM FEW006 OVC014 19/18 A3017 90 93 700 000/00 RMK AO2 T01940183
63870K0J4 0J420161228073011512/28/16 07:30:31  5-MIN K0J4 281230Z AUTO 00000KT 7SM FEW006 OVC014 19/18 A3017 90 93 700 000/00 RMK AO2 T01940183
63870K0J4 0J420161228073512212/28/16 07:35:31  5-MIN K0J4 281235Z AUTO 00000KT 7SM FEW006 BKN013 OVC095 19/18 A3017 90 90 700 000/00 RMK AO2 T01940178
63870K0J4 0J420161228074011512/28/16 07:40:31  5-MIN K0J4 281240Z AUTO 00000KT 7SM BKN013 OVC095 19/18 A3017 80 93 700 000/00 RMK AO2 T01940183
63870K0J4 0J420161228074511512/28/16 07:45:31  5-MIN K0J4 281245Z AUTO 00000KT 7SM BKN013 OVC100 19/18 A3017 90 93 700 000/00 RMK AO2 T01940183
63870K0J4 0J420161228075014112/28/16 07:50:31  5-MIN K0J4 281250Z AUTO 00000KT 6SM -RA BR FEW005 SCT013 OVC100 19/18 A3017 90 93 700 000/00 RMK AO2 RAB48 P0000 T01940183
63870K0J4 0J420161228075514712/28/16 07:55:31  5-MIN K0J4 281255Z AUTO 00000KT 6SM BR FEW005 SCT013 OVC100 19/18 A3017 80 93 700 000/00 RMK AO2 RAB48E53 SLP213 P0000 T01940183
63870K0J4 0J420161228080011812/28/16 08:00:31  5-MIN K0J4 281300Z AUTO 00000KT 6SM BR FEW013 OVC100 19/18 A3017 90 93 700 000/00 RMK AO2 T01940183
63870K0J4 0J420161228080511112/28/16 08:05:31  5-MIN K0J4 281305Z AUTO 00000KT 6SM BR OVC100 19/18 A3017 90 93 700 000/00 RMK AO2 T01940183
63870K0J4 0J420161228081011812/28/16 08:10:31  5-MIN K0J4 281310Z AUTO 21003KT 6SM BR FEW005 OVC100 19/18 A3017 80 93 700 210/03 RMK AO2 T01940183
63870K0J4 0J420161228081511812/28/16 08:15:31  5-MIN K0J4 281315Z AUTO 00000KT 5SM BR SCT005 OVC100 19/18 A3017 80 93 700 000/00 RMK AO2 T01940183
63870K0J4 0J420161228082013412/28/16 08:20:31  5-MIN K0J4 281320Z AUTO 00000KT 5SM -RA BR SCT004 OVC100 19/18 A3017 80 93 700 000/00 RMK AO2 RAB20 P0000 T01940183
63870K0J4 0J420161228082513412/28/16 08:25:31  5-MIN K0J4 281325Z AUTO 00000KT 5SM -RA BR BKN004 OVC110 19/18 A3018 80 93 700 000/00 RMK AO2 RAB20 P0000 T01940183
63870K0J4 0J420161228083013312/28/16 08:30:31  5-MIN K0J4 281330Z AUTO 00000KT 6SM BR BKN004 OVC110 19/18 A3018 80 93 700 000/00 RMK AO2 RAB20E29 P0000 T01940183
63870K0J4 0J420161228083512612/28/16 08:35:31  5-MIN K0J4 281335Z AUTO 00000KT 5SM BR OVC004 19/18 A3018 80 93 700 000/00 RMK AO2 RAB20E29 P0000 T01940183
63870K0J4 0J420161228084012612/28/16 08:40:31  5-MIN K0J4 281340Z AUTO 00000KT 6SM BR OVC004 19/18 A3018 80 93 700 000/00 RMK AO2 RAB20E29 P0000 T01940183
63870K0J4 0J420161228084512612/28/16 08:45:31  5-MIN K0J4 281345Z AUTO 22003KT 6SM BR OVC004 19/18 A3018 80 93 700 220/03 RMK AO2 RAB20E29 P0000 T01940183
63870K0J4 0J420161228085012312/28/16 08:50:31  5-MIN K0J4 281350Z AUTO 00000KT 7SM OVC004 20/18 A3018 80 90 700 000/00 RMK AO2 RAB20E29 P0000 T02000183
63870K0J4 0J420161228085515612/28/16 08:55:31  5-MIN K0J4 281355Z AUTO 00000KT 7SM -RA BKN004 OVC012 20/18 A3018 80 90 700 000/00 RMK AO2 RAB20E29B55 CIG 003V007 SLP215 P0000 T02000183
63870K0J4 0J420161228090013712/28/16 09:00:31  5-MIN K0J4 281400Z AUTO 22003KT 8SM -RA BKN004 OVC012 20/18 A3018 80 90 700 220/03 RMK AO2 CIG 003V007 P0000 T02000183
63870K0J4 0J420161228090512712/28/16 09:05:31  5-MIN K0J4 281405Z AUTO 00000KT 8SM SCT004 OVC012 20/18 A3018 80 90 700 000/00 RMK AO2 RAE04 P0000 T02000183
63870K0J4 0J420161228091012712/28/16 09:10:31  5-MIN K0J4 281410Z AUTO 21003KT 8SM FEW004 OVC012 20/18 A3017 80 90 700 210/03 RMK AO2 RAE04 P0000 T02000183
63870K0J4 0J420161228091512712/28/16 09:15:31  5-MIN K0J4 281415Z AUTO 22003KT 8SM SCT004 OVC012 20/18 A3017 80 90 700 220/03 RMK AO2 RAE04 P0000 T02000183
63870K0J4 0J420161228092012712/28/16 09:20:31  5-MIN K0J4 281420Z AUTO 22003KT 8SM SCT004 OVC012 20/18 A3017 80 90 700 220/03 RMK AO2 RAE04 P0000 T02000183
63870K0J4 0J420161228092512712/28/16 09:25:31  5-MIN K0J4 281425Z AUTO VRB03KT 9SM BKN004 OVC012 20/19 A3018 80 93 700 VRB/03 RMK AO2 RAE04 P0000 T02000189
63870K0J4 0J420161228093012712/28/16 09:30:31  5-MIN K0J4 281430Z AUTO 22004KT 9SM BKN003 OVC012 20/19 A3017 80 93 700 220/04 RMK AO2 RAE04 P0000 T02000189
63870K0J4 0J420161228093512812/28/16 09:35:31  5-MIN K0J4 281435Z AUTO 00000KT 10SM BKN003 OVC012 21/19 A3018 80 90 800 000/00 RMK AO2 RAE04 P0000 T02060189
63870K0J4 0J420161228094509812/28/16 09:45:31  5-MIN K0J4 281445Z AUTO 00000KT A3018 M M M 000/00 RMK AO2 RAE04 PWINO FZRANO $
63870K0J4 0J420161228095011012/28/16 09:50:31  5-MIN K0J4 281450Z AUTO 00000KT 10SM 22/19 A3018 80 84 900 000/00 RMK AO2 RAE04 T02170189 $
63870K0J4 0J420161228095512312/28/16 09:55:31  5-MIN K0J4 281455Z AUTO 00000KT 10SM 21/18 A3018 80 84 800 000/00 RMK AO2 RAE04 SLP217 6//// T02110183 $
63870K0J4 0J420161228100010412/28/16 10:00:31  5-MIN K0J4 281500Z AUTO VRB03KT 10SM 22/18 A3019 70 81 900 VRB/03 RMK AO2 T02170183 $
63870K0J4 0J420161228100510412/28/16 10:05:31  5-MIN K0J4 281505Z AUTO 00000KT 10SM 22/18 A3019 70 81 900 000/00 RMK AO2 T02170183 $
63870K0J4 0J420161228101010412/28/16 10:10:31  5-MIN K0J4 281510Z AUTO VRB05KT 10SM 22/18 A3019 60 81 900 VRB/05 RMK AO2 T02170183 $
63870K0J4 0J420161228101513412/28/16 10:15:31  5-MIN K0J4 281515Z AUTO VRB05KT 10SM -RA SCT008 BKN013 22/18 A3019 70 81 900 VRB/05 RMK AO2 RAB11 P0000 T02170183 $
63870K0J4 0J420161228102012512/28/16 10:20:31  5-MIN K0J4 281520Z AUTO 00000KT 10SM OVC013 22/18 A3019 70 78 1000 000/00 RMK AO2 RAB11E20 P0000 T02220183
63870K0J4 0J420161228102514512/28/16 10:25:31  5-MIN K0J4 281525Z AUTO 24005KT 10SM -RA BKN011 OVC014 22/18 A3019 70 78 1000 240/05 RMK AO2 RAB11 CIG 007V013 P0000 T02220183
63870K0J4 0J420161228103012512/28/16 10:30:31  5-MIN K0J4 281530Z AUTO VRB03KT 10SM -RA OVC011 22/18 A3020 60 78 900 VRB/03 RMK AO2 RAB11 P0000 T02170178
63870K0J4 0J420161228103512412/28/16 10:35:31  5-MIN K0J4 281535Z AUTO 00000KT 10SM BKN012 22/18 A3019 60 78 900 000/00 RMK AO2 RAB11E31 P0000 T02170178
63870K0J4 0J420161228104012412/28/16 10:40:31  5-MIN K0J4 281540Z AUTO VRB04KT 10SM BKN012 22/18 A3020 60 78 900 VRB/04 RMK AO2 RAB11E31 P0000 T02170178
63870K0J4 0J420161228104512512/28/16 10:45:31  5-MIN K0J4 281545Z AUTO 00000KT 10SM BKN012 22/18 A3019 60 75 1000 000/00 RMK AO2 RAB11E31 P0000 T02220178
63870K0J4 0J420161228105508412/28/16 10:55:31  5-MIN K0J4 281555Z AUTO M M M M /M RMK AO2 RAB11E31 SLPNO P0000 $
63870K0J4 0J420161228110009012/28/16 11:00:31  5-MIN K0J4 281600Z AUTO 23/18 A3019 70 73 1000 M /M RMK AO2 T02280178 $
63870K0J4 0J420161228110510512/28/16 11:05:31  5-MIN K0J4 281605Z AUTO VRB03KT 10SM 23/18 A3019 70 70 1100 VRB/03 RMK AO2 T02330178 $
63870K0J4 0J420161228111010512/28/16 11:10:31  5-MIN K0J4 281610Z AUTO 24005KT 10SM 23/18 A3019 70 70 1100 240/05 RMK AO2 T02330178 $
63870K0J4 0J420161228111510512/28/16 11:15:31  5-MIN K0J4 281615Z AUTO VRB03KT 10SM 23/18 A3019 70 73 1000 VRB/03 RMK AO2 T02280178 $
63870K0J4 0J420161228112010512/28/16 11:20:31  5-MIN K0J4 281620Z AUTO VRB03KT 10SM 23/18 A3018 70 70 1100 VRB/03 RMK AO2 T02330178 $
63870K0J4 0J420161228112511212/28/16 11:25:31  5-MIN K0J4 281625Z AUTO 00000KT 10SM FEW015 24/18 A3018 80 68 1200 000/00 RMK AO2 T02390178 $
63870K0J4 0J420161228113011212/28/16 11:30:31  5-MIN K0J4 281630Z AUTO VRB04KT 10SM SCT017 24/18 A3018 80 66 1200 VRB/04 RMK AO2 T02440178 $
63870K0J4 0J420161228113511212/28/16 11:35:31  5-MIN K0J4 281635Z AUTO 20007KT 10SM BKN017 24/18 A3018 80 68 1200 200/07 RMK AO2 T02390178 $
63870K0J4 0J420161228114011212/28/16 11:40:31  5-MIN K0J4 281640Z AUTO VRB03KT 10SM BKN017 24/18 A3018 80 71 1200 VRB/03 RMK AO2 T02390183 $
63870K0J4 0J420161228114511912/28/16 11:45:31  5-MIN K0J4 281645Z AUTO VRB04KT 10SM BKN017 BKN024 23/18 A3018 80 70 1100 VRB/04 RMK AO2 T02330178 $
63870K0J4 0J420161228115011912/28/16 11:50:31  5-MIN K0J4 281650Z AUTO VRB04KT 10SM BKN017 OVC022 23/18 A3018 80 70 1100 VRB/04 RMK AO2 T02330178 $
63870K0J4 0J420161228115511912/28/16 11:55:31  5-MIN K0J4 281655Z AUTO VRB05KT 10SM OVC019 23/18 A3018 80 70 1100 VRB/05 RMK AO2 SLP215 T02330178 $
63870K0J4 0J420161228120011212/28/16 12:00:31  5-MIN K0J4 281700Z AUTO 00000KT 10SM OVC019 23/18 A3017 80 70 1100 000/00 RMK AO2 T02330178 $
63870K0J4 0J420161228120511912/28/16 12:05:31  5-MIN K0J4 281705Z AUTO VRB05KT 10SM BKN019 OVC028 23/18 A3017 80 70 1100 VRB/05 RMK AO2 T02330178 $
63870K0J4 0J420161228121011912/28/16 12:10:31  5-MIN K0J4 281710Z AUTO VRB04KT 10SM BKN019 OVC028 23/18 A3017 90 70 1100 VRB/04 RMK AO2 T02330178 $
63870K0J4 0J420161228121511912/28/16 12:15:31  5-MIN K0J4 281715Z AUTO VRB03KT 10SM BKN020 OVC026 23/18 A3017 90 73 1100 VRB/03 RMK AO2 T02330183 $
63870K0J4 0J420161228122011912/28/16 12:20:31  5-MIN K0J4 281720Z AUTO VRB04KT 10SM BKN020 OVC026 23/18 A3016 90 73 1100 VRB/04 RMK AO2 T02280178 $
63870K0J4 0J420161228122511912/28/16 12:25:31  5-MIN K0J4 281725Z AUTO 24004KT 10SM BKN020 BKN026 23/18 A3016 90 73 1100 240/04 RMK AO2 T02280178 $
63870K0J4 0J420161228123011912/28/16 12:30:31  5-MIN K0J4 281730Z AUTO VRB06KT 10SM SCT022 BKN027 23/18 A3016 90 70 1100 VRB/06 RMK AO2 T02330178 $
63870K0J4 0J420161228123512612/28/16 12:35:31  5-MIN K0J4 281735Z AUTO 23009G15KT 10SM SCT019 BKN024 23/18 A3016 100 70 1100 230/09G15 RMK AO2 T02330178 $
63870K0J4 0J420161228124011912/28/16 12:40:31  5-MIN K0J4 281740Z AUTO VRB04G15KT 10SM BKN022 23/18 A3016 100 70 1100 VRB/04G15 RMK AO2 T02330178 $
63870K0J4 0J420161228124511312/28/16 12:45:31  5-MIN K0J4 281745Z AUTO VRB04KT 10SM BKN022 23/18 A3016 100 70 1100 VRB/04 RMK AO2 T02330178 $
63870K0J4 0J420161228125012012/28/16 12:50:31  5-MIN K0J4 281750Z AUTO VRB04KT 10SM FEW018 OVC024 23/18 A3016 100 70 1100 VRB/04 RMK AO2 T02330178 $
63870K0J4 0J420161228125514512/28/16 12:55:31  5-MIN K0J4 281755Z AUTO 24005KT 10SM SCT020 OVC024 23/18 A3015 100 73 1100 240/05 RMK AO2 SLP207 6//// T02280178 10244 20194 $
63870K0J4 0J420161228130012012/28/16 13:00:31  5-MIN K0J4 281800Z AUTO 23003KT 10SM BKN020 OVC026 23/18 A3015 110 70 1100 230/03 RMK AO2 T02330178 $
63870K0J4 0J420161228130512012/28/16 13:05:31  5-MIN K0J4 281805Z AUTO 24004KT 10SM BKN018 OVC024 23/18 A3014 110 70 1100 240/04 RMK AO2 T02330178 $
63870K0J4 0J420161228131012012/28/16 13:10:31  5-MIN K0J4 281810Z AUTO VRB03KT 10SM SCT018 OVC024 23/18 A3014 110 73 1100 VRB/03 RMK AO2 T02280178 $
63870K0J4 0J420161228131512012/28/16 13:15:31  5-MIN K0J4 281815Z AUTO 00000KT 10SM SCT018 OVC025 23/18 A3014 110 70 1100 000/00 RMK AO2 T02330178 $
63870K0J4 0J420161228132012012/28/16 13:20:31  5-MIN K0J4 281820Z AUTO VRB03KT 10SM SCT018 OVC025 23/18 A3014 110 73 1100 VRB/03 RMK AO2 T02330183 $
63870K0J4 0J420161228132512712/28/16 13:25:31  5-MIN K0J4 281825Z AUTO VRB04KT 10SM FEW018 SCT024 OVC029 23/18 A3014 110 73 1100 VRB/04 RMK AO2 T02280178 $
63870K0J4 0J420161228133012012/28/16 13:30:31  5-MIN K0J4 281830Z AUTO VRB05KT 10SM FEW018 OVC029 23/18 A3014 120 70 1200 VRB/05 RMK AO2 T02330178 $
63870K0J4 0J420161228133512012/28/16 13:35:31  5-MIN K0J4 281835Z AUTO 23006KT 10SM FEW017 OVC027 23/18 A3013 120 70 1200 230/06 RMK AO2 T02330178 $
63870K0J4 0J420161228134011312/28/16 13:40:31  5-MIN K0J4 281840Z AUTO VRB03KT 10SM OVC027 23/18 A3013 130 73 1100 VRB/03 RMK AO2 T02280178 $
63870K0J4 0J420161228134511312/28/16 13:45:31  5-MIN K0J4 281845Z AUTO VRB04KT 10SM OVC027 23/18 A3013 120 73 1100 VRB/04 RMK AO2 T02280178 $
63870K0J4 0J420161228135011312/28/16 13:50:31  5-MIN K0J4 281850Z AUTO VRB03KT 10SM OVC027 23/18 A3013 130 73 1100 VRB/03 RMK AO2 T02280178 $
63870K0J4 0J420161228135512012/28/16 13:55:31  5-MIN K0J4 281855Z AUTO VRB03KT 10SM OVC029 23/18 A3013 130 73 1100 VRB/03 RMK AO2 SLP198 T02280178 $
63870K0J4 0J420161228140011312/28/16 14:00:31  5-MIN K0J4 281900Z AUTO VRB04KT 10SM OVC029 23/18 A3013 130 73 1100 VRB/04 RMK AO2 T02280178 $
63870K0J4 0J420161228140512912/28/16 14:05:31  5-MIN K0J4 281905Z AUTO VRB03KT 10SM -RA OVC029 23/18 A3012 130 73 1100 VRB/03 RMK AO2 RAB04 P0000 T02280178 $
63870K0J4 0J420161228141012812/28/16 14:10:31  5-MIN K0J4 281910Z AUTO VRB05KT 10SM OVC031 23/18 A3012 130 76 1100 VRB/05 RMK AO2 RAB04E08 P0000 T02280183 $
63870K0J4 0J420161228141513512/28/16 14:15:31  5-MIN K0J4 281915Z AUTO VRB03KT 10SM FEW016 OVC031 23/18 A3012 130 73 1100 VRB/03 RMK AO2 RAB04E08 P0000 T02280178 $
63870K0J4 0J420161228142013512/28/16 14:20:31  5-MIN K0J4 281920Z AUTO VRB04KT 10SM FEW016 OVC033 23/18 A3012 130 76 1100 VRB/04 RMK AO2 RAB04E08 P0000 T02280183 $
63870K0J4 0J420161228142512812/28/16 14:25:31  5-MIN K0J4 281925Z AUTO VRB04KT 10SM OVC033 23/18 A3012 140 76 1100 VRB/04 RMK AO2 RAB04E08 P0000 T02280183 $
63870K0J4 0J420161228143013512/28/16 14:30:31  5-MIN K0J4 281930Z AUTO VRB04KT 10SM -RA OVC035 23/18 A3011 140 73 1200 VRB/04 RMK AO2 RAB04E08B27 P0000 T02330183 $
63870K0J4 0J420161228143513412/28/16 14:35:31  5-MIN K0J4 281935Z AUTO VRB04KT 10SM OVC035 23/18 A3011 140 70 1200 VRB/04 RMK AO2 RAB04E08B27E31 P0000 T02330178 $
63870K0J4 0J420161228144013412/28/16 14:40:31  5-MIN K0J4 281940Z AUTO VRB03KT 10SM OVC033 23/18 A3011 140 70 1200 VRB/03 RMK AO2 RAB04E08B27E31 P0000 T02330178 $
63870K0J4 0J420161228144513412/28/16 14:45:31  5-MIN K0J4 281945Z AUTO VRB03KT 10SM OVC033 23/18 A3011 140 70 1200 VRB/03 RMK AO2 RAB04E08B27E31 P0000 T02330178 $
63870K0J4 0J420161228145013412/28/16 14:50:31  5-MIN K0J4 281950Z AUTO 00000KT 10SM OVC033 24/18 A3011 140 71 1200 000/00 RMK AO2 RAB04E08B27E31 P0000 T02390183 $
63870K0J4 0J420161228145515512/28/16 14:55:31  5-MIN K0J4 281955Z AUTO VRB04KT 10SM FEW017 SCT026 OVC033 24/18 A3010 150 68 1300 VRB/04 RMK AO2 RAB04E08B27E31 SLP191 P0000 T02440183 $
63870K0J4 0J420161228150012712/28/16 15:00:31  5-MIN K0J4 282000Z AUTO 00000KT 10SM FEW017 BKN028 BKN035 24/18 A3010 150 71 1300 000/00 RMK AO2 T02390183 $
63870K0J4 0J420161228150512712/28/16 15:05:31  5-MIN K0J4 282005Z AUTO 00000KT 10SM FEW017 SCT022 BKN030 24/18 A3010 150 68 1300 000/00 RMK AO2 T02440183 $
63870K0J4 0J420161228151014312/28/16 15:10:31  5-MIN K0J4 282010Z AUTO VRB03KT 10SM -RA SCT017 SCT022 OVC030 25/18 A3010 150 66 1400 VRB/03 RMK AO2 RAB08 P0000 T02500183 $
63870K0J4 0J420161228151514312/28/16 15:15:31  5-MIN K0J4 282015Z AUTO VRB04KT 10SM -RA SCT017 BKN027 OVC032 24/18 A3010 150 71 1300 VRB/04 RMK AO2 RAB08 P0000 T02390183 $
63870K0J4 0J420161228152014212/28/16 15:20:31  5-MIN K0J4 282020Z AUTO VRB03KT 10SM SCT017 BKN025 BKN032 24/18 A3010 150 71 1300 VRB/03 RMK AO2 RAB08E18 P0000 T02390183 $
63870K0J4 0J420161228152514212/28/16 15:25:31  5-MIN K0J4 282025Z AUTO 00000KT 10SM FEW017 SCT024 BKN029 23/18 A3010 150 73 1200 000/00 RMK AO2 RAB08E18 P0000 T02330183 $
63870K0J4 0J420161228153014212/28/16 15:30:31  5-MIN K0J4 282030Z AUTO 00000KT 10SM FEW017 SCT025 BKN100 24/18 A3009 160 71 1300 000/00 RMK AO2 RAB08E18 P0000 T02390183 $
63870K0J4 0J420161228153514212/28/16 15:35:31  5-MIN K0J4 282035Z AUTO 00000KT 10SM FEW017 SCT029 SCT100 23/18 A3009 160 70 1200 000/00 RMK AO2 RAB08E18 P0000 T02330178 $
63870K0J4 0J420161228154013512/28/16 15:40:31  5-MIN K0J4 282040Z AUTO VRB04KT 10SM SCT029 SCT100 23/18 A3009 160 70 1200 VRB/04 RMK AO2 RAB08E18 P0000 T02330178 $
63870K0J4 0J420161228154513512/28/16 15:45:31  5-MIN K0J4 282045Z AUTO 21003KT 10SM FEW029 SCT100 24/18 A3009 160 71 1300 210/03 RMK AO2 RAB08E18 P0000 T02390183 $
63870K0J4 0J420161228155012812/28/16 15:50:31  5-MIN K0J4 282050Z AUTO 24003KT 10SM FEW029 23/18 A3009 160 73 1100 240/03 RMK AO2 RAB08E18 P0000 T02280178 $
63870K0J4 0J420161228155514112/28/16 15:55:31  5-MIN K0J4 282055Z AUTO 00000KT 10SM FEW032 23/18 A3009 160 70 1200 000/00 RMK AO2 RAB08E18 SLP186 P0000 60000 T02330178 $
63870K0J4 0J420161228160011312/28/16 16:00:31  5-MIN K0J4 282100Z AUTO 00000KT 10SM SCT032 24/18 A3009 160 68 1300 000/00 RMK AO2 T02390178 $
63870K0J4 0J420161228160511312/28/16 16:05:31  5-MIN K0J4 282105Z AUTO VRB03KT 10SM BKN032 23/18 A3009 160 70 1200 VRB/03 RMK AO2 T02330178 $
63870K0J4 0J420161228161012912/28/16 16:10:31  5-MIN K0J4 282110Z AUTO 24003KT 10SM -RA SCT032 23/18 A3009 160 70 1200 240/03 RMK AO2 RAB07 P0000 T02330178 $
63870K0J4 0J420161228161513512/28/16 16:15:31  5-MIN K0J4 282115Z AUTO 00000KT 10SM FEW032 SCT080 24/18 A3009 160 68 1300 000/00 RMK AO2 RAB07E11 P0000 T02390178 $
63870K0J4 0J420161228162013512/28/16 16:20:31  5-MIN K0J4 282120Z AUTO 00000KT 10SM FEW032 BKN080 23/18 A3009 160 70 1200 000/00 RMK AO2 RAB07E11 P0000 T02330178 $
63870K0J4 0J420161228162513512/28/16 16:25:31  5-MIN K0J4 282125Z AUTO VRB03KT 10SM FEW032 BKN075 23/18 A3009 160 70 1200 VRB/03 RMK AO2 RAB07E11 P0000 T02330178 $
63870K0J4 0J420161228163013512/28/16 16:30:31  5-MIN K0J4 282130Z AUTO 00000KT 10SM SCT075 SCT100 23/18 A3009 160 70 1200 000/00 RMK AO2 RAB07E11 P0000 T02330178 $
63870K0J4 0J420161228163513512/28/16 16:35:31  5-MIN K0J4 282135Z AUTO 00000KT 10SM FEW075 BKN100 23/18 A3009 160 73 1200 000/00 RMK AO2 RAB07E11 P0000 T02330183 $
63870K0J4 0J420161228164013512/28/16 16:40:31  5-MIN K0J4 282140Z AUTO 00000KT 10SM FEW075 BKN100 23/18 A3009 160 70 1200 000/00 RMK AO2 RAB07E11 P0000 T02330178 $
63870K0J4 0J420161228164513512/28/16 16:45:31  5-MIN K0J4 282145Z AUTO 00000KT 10SM FEW075 BKN100 23/18 A3009 160 73 1200 000/00 RMK AO2 RAB07E11 P0000 T02330183 $
63870K0J4 0J420161228165013512/28/16 16:50:31  5-MIN K0J4 282150Z AUTO 00000KT 10SM FEW075 BKN100 23/18 A3010 150 70 1200 000/00 RMK AO2 RAB07E11 P0000 T02330178 $
63870K0J4 0J420161228165513512/28/16 16:55:31  5-MIN K0J4 282155Z AUTO 00000KT 10SM BKN100 23/18 A3010 150 70 1200 000/00 RMK AO2 RAB07E11 SLP187 P0000 T02330178 $
63870K0J4 0J420161228170011312/28/16 17:00:31  5-MIN K0J4 282200Z AUTO 00000KT 10SM SCT100 23/18 A3009 160 70 1200 000/00 RMK AO2 T02330178 $
63870K0J4 0J420161228170512012/28/16 17:05:31  5-MIN K0J4 282205Z AUTO 00000KT 10SM FEW026 SCT100 23/18 A3009 160 70 1200 000/00 RMK AO2 T02330178 $
63870K0J4 0J420161228171012012/28/16 17:10:31  5-MIN K0J4 282210Z AUTO 00000KT 10SM FEW026 SCT100 23/18 A3009 160 70 1200 000/00 RMK AO2 T02330178 $
63870K0J4 0J420161228171511312/28/16 17:15:31  5-MIN K0J4 282215Z AUTO 00000KT 10SM FEW026 23/18 A3009 160 76 1100 000/00 RMK AO2 T02280183 $
63870K0J4 0J420161228172011312/28/16 17:20:31  5-MIN K0J4 282220Z AUTO 00000KT 10SM FEW027 23/18 A3009 160 76 1100 000/00 RMK AO2 T02280183 $
63870K0J4 0J420161228172511312/28/16 17:25:31  5-MIN K0J4 282225Z AUTO 00000KT 10SM FEW027 23/18 A3009 160 76 1100 000/00 RMK AO2 T02280183 $
63870K0J4 0J420161228173012012/28/16 17:30:31  5-MIN K0J4 282230Z AUTO 00000KT 10SM FEW027 SCT041 22/18 A3010 150 78 1100 000/00 RMK AO2 T02220183 $
63870K0J4 0J420161228173512012/28/16 17:35:31  5-MIN K0J4 282235Z AUTO 00000KT 10SM FEW027 BKN041 22/18 A3010 150 78 1100 000/00 RMK AO2 T02220183 $
63870K0J4 0J420161228174012012/28/16 17:40:31  5-MIN K0J4 282240Z AUTO 00000KT 10SM FEW027 BKN041 22/18 A3010 150 78 1100 000/00 RMK AO2 T02220183 $
63870K0J4 0J420161228174513612/28/16 17:45:31  5-MIN K0J4 282245Z AUTO 00000KT 10SM -RA FEW030 BKN041 22/18 A3010 150 81 1000 000/00 RMK AO2 RAB45 P0000 T02170183 $
63870K0J4 0J420161228175014312/28/16 17:50:31  5-MIN K0J4 282250Z AUTO 00000KT 10SM -RA FEW030 BKN040 BKN070 22/18 A3009 160 81 1000 000/00 RMK AO2 RAB45 P0000 T02170183 $
63870K0J4 0J420161228175515012/28/16 17:55:31  5-MIN K0J4 282255Z AUTO 00000KT 10SM -RA FEW032 BKN042 BKN070 22/18 A3009 160 81 1000 000/00 RMK AO2 RAB45 SLP187 P0000 T02170183 $
63870K0J4 0J420161228180012012/28/16 18:00:31  5-MIN K0J4 282300Z AUTO 00000KT 10SM FEW032 BKN042 22/18 A3009 160 81 1000 000/00 RMK AO2 T02170183 $
63870K0J4 0J420161228180512612/28/16 18:05:31  5-MIN K0J4 282305Z AUTO 00000KT 10SM SCT029 SCT034 BKN042 21/18 A3010 150 84 900 000/00 RMK AO2 T02110183 $
63870K0J4 0J420161228181011912/28/16 18:10:31  5-MIN K0J4 282310Z AUTO 00000KT 10SM SCT029 BKN042 21/18 A3010 150 84 900 000/00 RMK AO2 T02110183 $
63870K0J4 0J420161228181511912/28/16 18:15:31  5-MIN K0J4 282315Z AUTO 00000KT 10SM FEW027 BKN042 21/18 A3010 150 84 900 000/00 RMK AO2 T02110183 $
63870K0J4 0J420161228182011912/28/16 18:20:31  5-MIN K0J4 282320Z AUTO 00000KT 10SM FEW027 BKN042 21/18 A3009 160 87 900 000/00 RMK AO2 T02060183 $
63870K0J4 0J420161228182511912/28/16 18:25:31  5-MIN K0J4 282325Z AUTO 00000KT 10SM FEW027 BKN042 21/18 A3009 160 84 900 000/00 RMK AO2 T02060178 $
63870K0J4 0J420161228183011912/28/16 18:30:31  5-MIN K0J4 282330Z AUTO 00000KT 10SM FEW027 BKN042 21/18 A3009 160 87 900 000/00 RMK AO2 T02060183 $
63870K0J4 0J420161228183511912/28/16 18:35:31  5-MIN K0J4 282335Z AUTO 00000KT 10SM FEW027 SCT042 21/18 A3009 160 87 900 000/00 RMK AO2 T02060183 $
63870K0J4 0J420161228184012612/28/16 18:40:31  5-MIN K0J4 282340Z AUTO 00000KT 10SM FEW027 FEW031 SCT042 20/18 A3009 160 87 800 000/00 RMK AO2 T02000178 $
63870K0J4 0J420161228184511912/28/16 18:45:31  5-MIN K0J4 282345Z AUTO 00000KT 10SM FEW031 FEW042 21/18 A3009 160 87 900 000/00 RMK AO2 T02060183 $
63870K0J4 0J420161228185010912/28/16 18:50:31  5-MIN K0J4 282350Z AUTO 00000KT 10SM CLR 20/18 A3009 160 90 800 000/00 RMK AO2 T02000183 $
63870K0J4 0J420161228185514012/28/16 18:55:31  5-MIN K0J4 282355Z AUTO 00000KT 10SM CLR 20/18 A3009 160 87 800 000/00 RMK AO2 SLP187 60000 T02000178 10250 20200 56021 $
63870K0J4 0J420161228190010912/28/16 19:00:31  5-MIN K0J4 290000Z AUTO 00000KT 10SM CLR 21/18 A3010 150 87 900 000/00 RMK AO2 T02060183 $
63870K0J4 0J420161228190511212/28/16 19:05:31  5-MIN K0J4 290005Z AUTO 00000KT 10SM FEW100 20/18 A3010 150 87 800 000/00 RMK AO2 T02000178 $
63870K0J4 0J420161228191011212/28/16 19:10:31  5-MIN K0J4 290010Z AUTO 22003KT 10SM SCT100 20/18 A3010 150 87 800 220/03 RMK AO2 T02000178 $
63870K0J4 0J420161228191511912/28/16 19:15:31  5-MIN K0J4 290015Z AUTO 21003KT 10SM FEW035 SCT100 21/18 A3010 150 84 900 210/03 RMK AO2 T02060178 $
63870K0J4 0J420161228192011912/28/16 19:20:31  5-MIN K0J4 290020Z AUTO 21005KT 10SM FEW035 SCT100 21/18 A3010 150 84 900 210/05 RMK AO2 T02060178 $
63870K0J4 0J420161228192511212/28/16 19:25:31  5-MIN K0J4 290025Z AUTO 22005KT 10SM FEW100 21/18 A3010 150 84 900 220/05 RMK AO2 T02060178 $
63870K0J4 0J420161228193011212/28/16 19:30:31  5-MIN K0J4 290030Z AUTO 22004KT 10SM FEW100 21/18 A3010 150 81 900 220/04 RMK AO2 T02110178 $
63870K0J4 0J420161228193511212/28/16 19:35:31  5-MIN K0J4 290035Z AUTO 22004KT 10SM FEW100 21/18 A3010 150 81 900 220/04 RMK AO2 T02110178 $
63870K0J4 0J420161228194010912/28/16 19:40:31  5-MIN K0J4 290040Z AUTO 23004KT 10SM CLR 21/18 A3010 150 81 900 230/04 RMK AO2 T02110178 $
63870K0J4 0J420161228194510912/28/16 19:45:31  5-MIN K0J4 290045Z AUTO 22004KT 10SM CLR 21/18 A3010 150 84 900 220/04 RMK AO2 T02110183 $
63870K0J4 0J420161228195010912/28/16 19:50:31  5-MIN K0J4 290050Z AUTO 22004KT 10SM CLR 21/18 A3010 150 84 900 220/04 RMK AO2 T02060178 $
63870K0J4 0J420161228195511612/28/16 19:55:31  5-MIN K0J4 290055Z AUTO 20003KT 10SM CLR 20/18 A3010 150 87 800 200/03 RMK AO2 SLP190 T02000178 $
63870K0J4 0J420161228200010912/28/16 20:00:31  5-MIN K0J4 290100Z AUTO 20003KT 10SM CLR 20/18 A3010 150 87 800 200/03 RMK AO2 T02000178 $
63870K0J4 0J420161228200510912/28/16 20:05:31  5-MIN K0J4 290105Z AUTO 20003KT 10SM CLR 20/18 A3010 150 87 800 200/03 RMK AO2 T02000178 $
63870K0J4 0J420161228201010912/28/16 20:10:31  5-MIN K0J4 290110Z AUTO 20003KT 10SM CLR 20/18 A3010 150 87 800 200/03 RMK AO2 T02000178 $
63870K0J4 0J420161228201510912/28/16 20:15:31  5-MIN K0J4 290115Z AUTO 21005KT 10SM CLR 20/18 A3010 150 87 800 210/05 RMK AO2 T02000178 $
63870K0J4 0J420161228202010912/28/16 20:20:31  5-MIN K0J4 290120Z AUTO 20004KT 10SM CLR 20/18 A3010 150 87 800 200/04 RMK AO2 T02000178 $
63870K0J4 0J420161228202510912/28/16 20:25:31  5-MIN K0J4 290125Z AUTO 20004KT 10SM CLR 20/18 A3011 150 87 800 200/04 RMK AO2 T02000178 $
63870K0J4 0J420161228203010912/28/16 20:30:31  5-MIN K0J4 290130Z AUTO 20004KT 10SM CLR 20/18 A3011 140 87 800 200/04 RMK AO2 T02000178 $
63870K0J4 0J420161228203510912/28/16 20:35:31  5-MIN K0J4 290135Z AUTO 20004KT 10SM CLR 19/18 A3011 140 90 700 200/04 RMK AO2 T01940178 $
63870K0J4 0J420161228204011212/28/16 20:40:31  5-MIN K0J4 290140Z AUTO 21004KT 10SM FEW100 19/18 A3011 140 90 700 210/04 RMK AO2 T01940178 $
63870K0J4 0J420161228204511212/28/16 20:45:31  5-MIN K0J4 290145Z AUTO 21004KT 10SM FEW100 19/18 A3011 140 90 700 210/04 RMK AO2 T01940178 $
63870K0J4 0J420161228205010912/28/16 20:50:31  5-MIN K0J4 290150Z AUTO 19005KT 10SM CLR 19/18 A3011 140 90 700 190/05 RMK AO2 T01940178 $
63870K0J4 0J420161228205511612/28/16 20:55:31  5-MIN K0J4 290155Z AUTO 20005KT 10SM CLR 19/18 A3011 140 90 700 200/05 RMK AO2 SLP191 T01940178 $
63870K0J4 0J420161228210010912/28/16 21:00:31  5-MIN K0J4 290200Z AUTO 20004KT 10SM CLR 19/18 A3011 150 90 700 200/04 RMK AO2 T01940178 $
63870K0J4 0J420161228210510912/28/16 21:05:31  5-MIN K0J4 290205Z AUTO 20005KT 10SM CLR 19/18 A3010 150 90 700 200/05 RMK AO2 T01940178 $
63870K0J4 0J420161228211010912/28/16 21:10:31  5-MIN K0J4 290210Z AUTO 19004KT 10SM CLR 19/18 A3010 150 90 700 190/04 RMK AO2 T01940178 $
63870K0J4 0J420161228211510912/28/16 21:15:31  5-MIN K0J4 290215Z AUTO 20005KT 10SM CLR 19/18 A3010 150 90 700 200/05 RMK AO2 T01940178 $
63870K0J4 0J420161228212010912/28/16 21:20:31  5-MIN K0J4 290220Z AUTO 20005KT 10SM CLR 19/18 A3010 150 90 700 200/05 RMK AO2 T01940178 $
63870K0J4 0J420161228212510912/28/16 21:25:31  5-MIN K0J4 290225Z AUTO 20005KT 10SM CLR 19/18 A3010 150 90 700 200/05 RMK AO2 T01940178 $
63870K0J4 0J420161228213010912/28/16 21:30:31  5-MIN K0J4 290230Z AUTO 20006KT 10SM CLR 19/18 A3010 150 90 700 200/06 RMK AO2 T01940178 $
63870K0J4 0J420161228213510912/28/16 21:35:31  5-MIN K0J4 290235Z AUTO 20007KT 10SM CLR 19/18 A3010 150 90 800 200/07 RMK AO2 T01940178 $
63870K0J4 0J420161228214010912/28/16 21:40:31  5-MIN K0J4 290240Z AUTO 20006KT 10SM CLR 19/18 A3010 150 90 700 200/06 RMK AO2 T01940178 $
63870K0J4 0J420161228214510912/28/16 21:45:31  5-MIN K0J4 290245Z AUTO 20006KT 10SM CLR 19/18 A3010 150 93 700 200/06 RMK AO2 T01890178 $
63870K0J4 0J420161228215010912/28/16 21:50:31  5-MIN K0J4 290250Z AUTO 20005KT 10SM CLR 19/18 A3010 150 90 700 200/05 RMK AO2 T01940178 $
63870K0J4 0J420161228215512212/28/16 21:55:31  5-MIN K0J4 290255Z AUTO 20005KT 10SM CLR 19/18 A3010 150 90 700 200/05 RMK AO2 SLP188 T01940178 51003 $
63870K0J4 0J420161228220010912/28/16 22:00:31  5-MIN K0J4 290300Z AUTO 21006KT 10SM CLR 19/18 A3010 150 93 700 210/06 RMK AO2 T01890178 $
63870K0J4 0J420161228220510912/28/16 22:05:31  5-MIN K0J4 290305Z AUTO 20007KT 10SM CLR 19/18 A3009 160 93 700 200/07 RMK AO2 T01890178 $
63870K0J4 0J420161228221010912/28/16 22:10:31  5-MIN K0J4 290310Z AUTO 21007KT 10SM CLR 19/18 A3009 160 90 800 210/07 RMK AO2 T01940178 $
63870K0J4 0J420161228221510912/28/16 22:15:31  5-MIN K0J4 290315Z AUTO 21007KT 10SM CLR 19/18 A3009 160 93 700 210/07 RMK AO2 T01890178 $
63870K0J4 0J420161228222010912/28/16 22:20:31  5-MIN K0J4 290320Z AUTO 21008KT 10SM CLR 19/18 A3009 160 93 700 210/08 RMK AO2 T01890178 $
63870K0J4 0J420161228222510912/28/16 22:25:31  5-MIN K0J4 290325Z AUTO 20008KT 10SM CLR 19/18 A3009 160 90 800 200/08 RMK AO2 T01940178 $
63870K0J4 0J420161228223010912/28/16 22:30:31  5-MIN K0J4 290330Z AUTO 21008KT 10SM CLR 19/18 A3009 160 93 700 210/08 RMK AO2 T01890178 $
63870K0J4 0J420161228223510912/28/16 22:35:31  5-MIN K0J4 290335Z AUTO 21009KT 10SM CLR 19/18 A3009 160 93 700 210/09 RMK AO2 T01890178 $
63870K0J4 0J420161228224010912/28/16 22:40:31  5-MIN K0J4 290340Z AUTO 21009KT 10SM CLR 19/18 A3008 170 90 800 210/09 RMK AO2 T01940178 $
63870K0J4 0J420161228224510912/28/16 22:45:31  5-MIN K0J4 290345Z AUTO 22010KT 10SM CLR 19/18 A3008 170 90 800 220/10 RMK AO2 T01940178 $
63870K0J4 0J420161228225010912/28/16 22:50:31  5-MIN K0J4 290350Z AUTO 21009KT 10SM CLR 19/18 A3008 170 90 800 210/09 RMK AO2 T01940178 $
63870K0J4 0J420161228225511512/28/16 22:55:31  5-MIN K0J4 290355Z AUTO 21009KT 10SM CLR 19/18 A3008 170 90 800 210/09 RMK AO2 SLPNO T01940178 $
63870K0J4 0J420161228230010912/28/16 23:00:31  5-MIN K0J4 290400Z AUTO 21009KT 10SM CLR 19/18 A3008 170 93 700 210/09 RMK AO2 T01890178 $
63870K0J4 0J420161228230510912/28/16 23:05:31  5-MIN K0J4 290405Z AUTO 22010KT 10SM CLR 19/18 A3008 170 90 800 220/10 RMK AO2 T01940178 $
63870K0J4 0J420161228231010912/28/16 23:10:31  5-MIN K0J4 290410Z AUTO 22010KT 10SM CLR 19/18 A3008 170 90 800 220/10 RMK AO2 T01940178 $
63870K0J4 0J420161228231510912/28/16 23:15:31  5-MIN K0J4 290415Z AUTO 22008KT 10SM CLR 19/18 A3009 160 90 800 220/08 RMK AO2 T01940178 $
63870K0J4 0J420161228232010912/28/16 23:20:31  5-MIN K0J4 290420Z AUTO 22007KT 10SM CLR 19/18 A3009 160 90 800 220/07 RMK AO2 T01940178 $
63870K0J4 0J420161228232511112/28/16 23:25:31  5-MIN K0J4 290425Z AUTO 22008KT 9SM FEW005 19/18 A3008 160 93 700 220/08 RMK AO2 T01890178 $
63870K0J4 0J420161228233011112/28/16 23:30:31  5-MIN K0J4 290430Z AUTO 22007KT 8SM FEW005 19/18 A3009 160 93 700 220/07 RMK AO2 T01890178 $
63870K0J4 0J420161228233511112/28/16 23:35:31  5-MIN K0J4 290435Z AUTO 22007KT 7SM SCT005 19/18 A3009 160 93 700 220/07 RMK AO2 T01890178 $
63870K0J4 0J420161228234011112/28/16 23:40:31  5-MIN K0J4 290440Z AUTO 22007KT 7SM SCT005 19/18 A3009 160 93 700 220/07 RMK AO2 T01890178 $
63870K0J4 0J420161228234511412/28/16 23:45:31  5-MIN K0J4 290445Z AUTO 22006KT 6SM BR BKN005 19/18 A3009 160 93 700 220/06 RMK AO2 T01890178 $
63870K0J4 0J420161228235011112/28/16 23:50:31  5-MIN K0J4 290450Z AUTO 22007KT 7SM BKN005 19/18 A3009 160 93 700 220/07 RMK AO2 T01890178 $
63870K0J4 0J420161228235512812/28/16 23:55:31  5-MIN K0J4 290455Z AUTO 22008KT 9SM BKN005 19/18 A3009 160 93 700 220/08 RMK AO2 SLP185 T01890178 402500189 $
63870K0J4 0J420161229000011112/29/16 00:00:31  5-MIN K0J4 290500Z AUTO 23007KT 9SM OVC005 19/18 A3009 160 93 700 230/07 RMK AO2 T01890178 $
63870K0J4 0J420161229000511212/29/16 00:05:31  5-MIN K0J4 290505Z AUTO 22006KT 10SM OVC004 19/18 A3009 160 90 800 220/06 RMK AO2 T01940178 $
63870K0J4 0J420161229001011212/29/16 00:10:31  5-MIN K0J4 290510Z AUTO 22007KT 10SM OVC004 19/18 A3009 160 90 800 220/07 RMK AO2 T01940178 $
63870K0J4 0J420161229001511212/29/16 00:15:31  5-MIN K0J4 290515Z AUTO 23006KT 10SM OVC004 19/18 A3009 160 90 800 230/06 RMK AO2 T01940178 $
63870K0J4 0J420161229002011212/29/16 00:20:31  5-MIN K0J4 290520Z AUTO 22008KT 10SM OVC003 19/18 A3009 160 90 800 220/08 RMK AO2 T01940178 $
63870K0J4 0J420161229002511212/29/16 00:25:31  5-MIN K0J4 290525Z AUTO 22009KT 10SM OVC003 19/18 A3009 160 90 800 220/09 RMK AO2 T01940178 $
63870K0J4 0J420161229003011212/29/16 00:30:31  5-MIN K0J4 290530Z AUTO 23005KT 10SM OVC003 19/18 A3009 160 90 800 230/05 RMK AO2 T01940178 $
63870K0J4 0J420161229003511212/29/16 00:35:31  5-MIN K0J4 290535Z AUTO VRB04KT 10SM OVC003 19/18 A3009 160 90 800 VRB/04 RMK AO2 T01940178 $
63870K0J4 0J420161229004012412/29/16 00:40:31  5-MIN K0J4 290540Z AUTO 22006KT 10SM OVC003 19/18 A3008 170 90 800 220/06 RMK AO2 CIG 003V007 T01940178 $
63870K0J4 0J420161229004512412/29/16 00:45:31  5-MIN K0J4 290545Z AUTO 22007KT 10SM OVC004 19/18 A3008 170 90 800 220/07 RMK AO2 CIG 003V007 T01940178 $
63870K0J4 0J420161229005013112/29/16 00:50:31  5-MIN K0J4 290550Z AUTO 22008KT 10SM OVC004 19/18 A3007 180 90 800 220/08 RMK AO2 CIG 003V008 PRESFR T01940178 $
63870K0J4 0J420161229005514912/29/16 00:55:31  5-MIN K0J4 290555Z AUTO 22006KT 10SM OVC004 19/18 A3007 180 90 800 220/06 RMK AO2 CIG 003V009 SLP178 T01940178 10211 20189 58001 $
63870K0J4 0J420161229010012412/29/16 01:00:31  5-MIN K0J4 290600Z AUTO 22005KT 10SM OVC005 19/18 A3007 180 90 800 220/05 RMK AO2 CIG 003V009 T01940178 $
63870K0J4 0J420161229010512412/29/16 01:05:31  5-MIN K0J4 290605Z AUTO 23005KT 10SM OVC005 19/18 A3007 180 90 800 230/05 RMK AO2 CIG 004V008 T01940178 $
63870K0J4 0J420161229011012412/29/16 01:10:31  5-MIN K0J4 290610Z AUTO 23004KT 10SM OVC005 19/18 A3007 180 90 800 230/04 RMK AO2 CIG 004V010 T01940178 $
63870K0J4 0J420161229011512412/29/16 01:15:31  5-MIN K0J4 290615Z AUTO 23005KT 10SM OVC005 19/18 A3007 180 93 800 230/05 RMK AO2 CIG 004V011 T01940183 $
63870K0J4 0J420161229012012412/29/16 01:20:31  5-MIN K0J4 290620Z AUTO VRB03KT 10SM OVC005 19/18 A3007 170 93 800 VRB/03 RMK AO2 CIG 004V011 T01940183 $
63870K0J4 0J420161229012512412/29/16 01:25:31  5-MIN K0J4 290625Z AUTO VRB05KT 10SM OVC005 19/18 A3007 180 93 800 VRB/05 RMK AO2 CIG 005V010 T01940183 $
63870K0J4 0J420161229013011212/29/16 01:30:31  5-MIN K0J4 290630Z AUTO 22006KT 10SM OVC005 19/18 A3006 180 90 800 220/06 RMK AO2 T01940178 $
63870K0J4 0J420161229013511212/29/16 01:35:31  5-MIN K0J4 290635Z AUTO 23004KT 10SM OVC005 19/18 A3007 180 93 800 230/04 RMK AO2 T01940183 $
63870K0J4 0J420161229014011212/29/16 01:40:31  5-MIN K0J4 290640Z AUTO 22006KT 10SM OVC005 19/18 A3006 180 93 800 220/06 RMK AO2 T01940183 $
63870K0J4 0J420161229014511212/29/16 01:45:31  5-MIN K0J4 290645Z AUTO 22006KT 10SM OVC005 19/18 A3006 190 93 800 220/06 RMK AO2 T01940183 $
63870K0J4 0J420161229015011212/29/16 01:50:31  5-MIN K0J4 290650Z AUTO 23005KT 10SM OVC005 19/18 A3006 190 93 800 230/05 RMK AO2 T01940183 $
63870K0J4 0J420161229015511912/29/16 01:55:31  5-MIN K0J4 290655Z AUTO VRB04KT 10SM OVC005 20/18 A3006 180 90 900 VRB/04 RMK AO2 SLP176 T02000183 $
63870K0J4 0J420161229020011212/29/16 02:00:31  5-MIN K0J4 290700Z AUTO 22005KT 10SM OVC005 20/18 A3006 190 90 900 220/05 RMK AO2 T02000183 $
63870K0J4 0J420161229020511212/29/16 02:05:31  5-MIN K0J4 290705Z AUTO 22004KT 10SM OVC005 20/18 A3006 190 90 900 220/04 RMK AO2 T02000183 $
63870K0J4 0J420161229021011212/29/16 02:10:31  5-MIN K0J4 290710Z AUTO 23004KT 10SM OVC004 20/18 A3006 190 90 900 230/04 RMK AO2 T02000183 $
63870K0J4 0J420161229021511212/29/16 02:15:31  5-MIN K0J4 290715Z AUTO 22005KT 10SM OVC004 20/18 A3006 180 90 900 220/05 RMK AO2 T02000183 $
63870K0J4 0J420161229022011212/29/16 02:20:31  5-MIN K0J4 290720Z AUTO 23005KT 10SM OVC004 20/18 A3006 190 90 900 230/05 RMK AO2 T02000183 $
63870K0J4 0J420161229022511212/29/16 02:25:31  5-MIN K0J4 290725Z AUTO 22005KT 10SM OVC004 20/18 A3006 190 90 900 220/05 RMK AO2 T02000183 $
63870K0J4 0J420161229023011212/29/16 02:30:31  5-MIN K0J4 290730Z AUTO VRB05KT 10SM OVC004 20/18 A3006 190 90 900 VRB/05 RMK AO2 T02000183 $
63870K0J4 0J420161229023511212/29/16 02:35:31  5-MIN K0J4 290735Z AUTO 24004KT 10SM OVC004 20/18 A3006 190 90 900 240/04 RMK AO2 T02000183 $
63870K0J4 0J420161229024011212/29/16 02:40:31  5-MIN K0J4 290740Z AUTO 22003KT 10SM OVC005 20/18 A3006 190 90 900 220/03 RMK AO2 T02000183 $
63870K0J4 0J420161229024511212/29/16 02:45:31  5-MIN K0J4 290745Z AUTO VRB03KT 10SM OVC005 20/18 A3006 190 90 900 VRB/03 RMK AO2 T02000183 $
63870K0J4 0J420161229025011212/29/16 02:50:31  5-MIN K0J4 290750Z AUTO 23004KT 10SM OVC005 20/18 A3006 190 90 900 230/04 RMK AO2 T02000183 $
63870K0J4 0J420161229025511912/29/16 02:55:31  5-MIN K0J4 290755Z AUTO VRB04KT 10SM OVC005 20/18 A3006 180 90 900 VRB/04 RMK AO2 SLP177 T02000183 $
63870K0J4 0J420161229030011212/29/16 03:00:31  5-MIN K0J4 290800Z AUTO 23003KT 10SM OVC005 20/18 A3006 180 90 900 230/03 RMK AO2 T02000183 $
63870K0J4 0J420161229030512812/29/16 03:05:31  5-MIN K0J4 290805Z AUTO VRB04KT 10SM -RA OVC005 20/18 A3006 190 90 900 VRB/04 RMK AO2 RAB02 P0000 T02000183 $
63870K0J4 0J420161229031014012/29/16 03:10:31  5-MIN K0J4 290810Z AUTO 24006KT 10SM -RA OVC005 20/18 A3006 190 90 900 240/06 RMK AO2 RAB02 CIG 005V008 P0000 T02000183 $
63870K0J4 0J420161229031513912/29/16 03:15:31  5-MIN K0J4 290815Z AUTO 24004KT 10SM OVC005 20/18 A3006 190 90 900 240/04 RMK AO2 RAB02E12 CIG 005V009 P0000 T02000183 $
63870K0J4 0J420161229032014612/29/16 03:20:31  5-MIN K0J4 290820Z AUTO 23005KT 10SM BKN005 OVC010 20/18 A3006 190 90 900 230/05 RMK AO2 RAB02E12 CIG 005V008 P0000 T02000183 $
63870K0J4 0J420161229032514612/29/16 03:25:31  5-MIN K0J4 290825Z AUTO 23005KT 10SM BKN006 OVC010 20/18 A3006 190 90 900 230/05 RMK AO2 RAB02E12 CIG 005V008 P0000 T02000183 $
63870K0J4 0J420161229033014612/29/16 03:30:31  5-MIN K0J4 290830Z AUTO 22006KT 10SM BKN008 OVC013 20/18 A3006 190 90 900 220/06 RMK AO2 RAB02E12 CIG 005V009 P0000 T02000183 $
63870K0J4 0J420161229033514512/29/16 03:35:31  5-MIN K0J4 290835Z AUTO 23005KT 9SM BKN008 OVC032 20/18 A3006 190 90 900 230/05 RMK AO2 RAB02E12 CIG 005V011 P0000 T02000183 $
63870K0J4 0J420161229034014012/29/16 03:40:31  5-MIN K0J4 290840Z AUTO 23005KT 9SM BKN006 BKN010 OVC015 20/18 A3006 190 90 900 230/05 RMK AO2 RAB02E12 P0000 T02000183 $
63870K0J4 0J420161229034514612/29/16 03:45:31  5-MIN K0J4 290845Z AUTO 23005KT 10SM BKN008 OVC015 20/18 A3006 190 90 900 230/05 RMK AO2 RAB02E12 CIG 005V011 P0000 T02000183 $
63870K0J4 0J420161229035014612/29/16 03:50:31  5-MIN K0J4 290850Z AUTO 22005KT 10SM BKN008 OVC015 20/18 A3005 190 90 900 220/05 RMK AO2 RAB02E12 CIG 005V010 P0000 T02000183 $
63870K0J4 0J420161229035516512/29/16 03:55:31  5-MIN K0J4 290855Z AUTO 22004KT 10SM BKN008 OVC018 20/18 A3005 190 90 900 220/04 RMK AO2 RAB02E12 CIG 005V013 SLP174 P0000 60000 T02000183 58008 $
63870K0J4 0J420161229040012612/29/16 04:00:31  5-MIN K0J4 290900Z AUTO 23005KT 10SM SCT008 BKN011 OVC016 20/18 A3005 190 90 900 230/05 RMK AO2 T02000183 $
63870K0J4 0J420161229040513112/29/16 04:05:31  5-MIN K0J4 290905Z AUTO 22004KT 10SM BKN008 OVC014 20/18 A3005 190 90 900 220/04 RMK AO2 CIG 005V010 T02000183 $
63870K0J4 0J420161229041011912/29/16 04:10:31  5-MIN K0J4 290910Z AUTO 23004KT 10SM SCT008 OVC014 20/18 A3005 200 90 900 230/04 RMK AO2 T02000183 $
63870K0J4 0J420161229041511912/29/16 04:15:31  5-MIN K0J4 290915Z AUTO 23005KT 10SM FEW008 OVC014 20/18 A3005 200 90 900 230/05 RMK AO2 T02000183 $
63870K0J4 0J420161229042013112/29/16 04:20:31  5-MIN K0J4 290920Z AUTO 23005KT 10SM BKN010 OVC014 20/18 A3005 200 90 900 230/05 RMK AO2 CIG 006V013 T02000183 $
63870K0J4 0J420161229042513112/29/16 04:25:31  5-MIN K0J4 290925Z AUTO 23005KT 10SM BKN010 OVC014 20/18 A3005 200 90 900 230/05 RMK AO2 CIG 006V013 T02000183 $
63870K0J4 0J420161229043013112/29/16 04:30:31  5-MIN K0J4 290930Z AUTO 23006KT 10SM BKN010 OVC014 20/18 A3005 200 90 900 230/06 RMK AO2 CIG 006V012 T02000183 $
63870K0J4 0J420161229043513112/29/16 04:35:31  5-MIN K0J4 290935Z AUTO VRB05KT 10SM BKN008 OVC013 21/18 A3005 200 87 900 VRB/05 RMK AO2 CIG 006V010 T02060183 $
63870K0J4 0J420161229044013112/29/16 04:40:31  5-MIN K0J4 290940Z AUTO VRB05KT 10SM BKN010 OVC015 21/18 A3005 200 87 900 VRB/05 RMK AO2 CIG 006V011 T02060183 $
63870K0J4 0J420161229044512412/29/16 04:45:31  5-MIN K0J4 290945Z AUTO VRB03KT 10SM OVC008 21/19 A3005 200 90 900 VRB/03 RMK AO2 CIG 006V011 T02060189 $
63870K0J4 0J420161229045012412/29/16 04:50:31  5-MIN K0J4 290950Z AUTO VRB03KT 10SM OVC008 21/18 A3005 200 87 900 VRB/03 RMK AO2 CIG 006V013 T02060183 $
63870K0J4 0J420161229045513812/29/16 04:55:31  5-MIN K0J4 290955Z AUTO VRB04KT 10SM BKN008 OVC016 21/18 A3004 200 87 900 VRB/04 RMK AO2 CIG 006V013 SLP170 T02060183 $
63870K0J4 0J420161229050013812/29/16 05:00:31  5-MIN K0J4 291000Z AUTO VRB04KT 10SM BKN008 BKN016 OVC028 21/18 A3004 200 87 900 VRB/04 RMK AO2 CIG 006V013 T02060183 $
63870K0J4 0J420161229050513812/29/16 05:05:31  5-MIN K0J4 291005Z AUTO VRB05KT 10SM BKN009 BKN028 OVC070 20/18 A3004 200 90 900 VRB/05 RMK AO2 CIG 006V013 T02000183 $
63870K0J4 0J420161229051013112/29/16 05:10:31  5-MIN K0J4 291010Z AUTO VRB04KT 10SM BKN009 BKN085 20/18 A3005 200 90 900 VRB/04 RMK AO2 CIG 006V012 T02000183 $
63870K0J4 0J420161229051513812/29/16 05:15:31  5-MIN K0J4 291015Z AUTO VRB03KT 10SM BKN008 BKN032 OVC070 21/18 A3005 200 87 900 VRB/03 RMK AO2 CIG 006V012 T02060183 $
63870K0J4 0J420161229052013812/29/16 05:20:31  5-MIN K0J4 291020Z AUTO VRB04KT 10SM BKN008 BKN032 OVC070 21/18 A3005 200 87 900 VRB/04 RMK AO2 CIG 006V010 T02060183 $
63870K0J4 0J420161229052512612/29/16 05:25:31  5-MIN K0J4 291025Z AUTO VRB04KT 10SM SCT008 BKN027 OVC070 21/18 A3005 200 87 900 VRB/04 RMK AO2 T02060183 $
63870K0J4 0J420161229053012612/29/16 05:30:31  5-MIN K0J4 291030Z AUTO 23005KT 10SM SCT008 BKN027 OVC032 21/18 A3004 200 87 900 230/05 RMK AO2 T02060183 $
63870K0J4 0J420161229053512612/29/16 05:35:31  5-MIN K0J4 291035Z AUTO 24005KT 10SM FEW008 BKN027 OVC032 21/18 A3005 200 87 900 240/05 RMK AO2 T02060183 $
63870K0J4 0J420161229054012612/29/16 05:40:31  5-MIN K0J4 291040Z AUTO VRB05KT 10SM FEW008 BKN027 OVC034 21/18 A3004 200 87 900 VRB/05 RMK AO2 T02060183 $
63870K0J4 0J420161229054511912/29/16 05:45:31  5-MIN K0J4 291045Z AUTO 23005KT 10SM SCT027 OVC034 21/18 A3004 200 87 900 230/05 RMK AO2 T02060183 $
63870K0J4 0J420161229055013512/29/16 05:50:31  5-MIN K0J4 291050Z AUTO 23007KT 210V270 10SM BKN027 OVC034 21/18 A3004 210 87 900 230/07 210V270 RMK AO2 T02060183 $
63870K0J4 0J420161229055510912/29/16 05:55:31  5-MIN K0J4 291055Z AUTO 23007KT 10SM BKN030 OVC036 21/18 A3004 210 87 900 230/07 RMK AO2 $
63870K0J4 0J420161229060011212/29/16 06:00:31  5-MIN K0J4 291100Z AUTO 23007KT 10SM OVC032 21/18 A3004 210 87 900 230/07 RMK AO2 T02060183 $
63870K0J4 0J420161229060511212/29/16 06:05:31  5-MIN K0J4 291105Z AUTO 23005KT 10SM OVC030 21/18 A3004 200 87 900 230/05 RMK AO2 T02060183 $
63870K0J4 0J420161229061011912/29/16 06:10:31  5-MIN K0J4 291110Z AUTO 23005KT 10SM BKN028 OVC034 21/18 A3004 210 87 900 230/05 RMK AO2 T02060183 $
63870K0J4 0J420161229061512612/29/16 06:15:31  5-MIN K0J4 291115Z AUTO 24005KT 10SM FEW017 SCT025 OVC031 21/18 A3004 200 87 900 240/05 RMK AO2 T02060183 $
63870K0J4 0J420161229062012612/29/16 06:20:31  5-MIN K0J4 291120Z AUTO 23007KT 10SM SCT016 SCT020 OVC028 21/18 A3004 200 87 900 230/07 RMK AO2 T02060183 $
63870K0J4 0J420161229062511912/29/16 06:25:31  5-MIN K0J4 291125Z AUTO 23006KT 10SM SCT014 OVC028 21/18 A3004 200 87 900 230/06 RMK AO2 T02060183 $
63870K0J4 0J420161229063012612/29/16 06:30:31  5-MIN K0J4 291130Z AUTO 23005KT 10SM FEW009 BKN013 OVC028 21/18 A3004 210 87 900 230/05 RMK AO2 T02060183 $
63870K0J4 0J420161229063512612/29/16 06:35:31  5-MIN K0J4 291135Z AUTO VRB04KT 10SM FEW009 BKN013 OVC028 21/18 A3004 200 87 900 VRB/04 RMK AO2 T02060183 $
63870K0J4 0J420161229064011912/29/16 06:40:31  5-MIN K0J4 291140Z AUTO VRB04KT 10SM BKN013 OVC019 21/18 A3004 200 87 900 VRB/04 RMK AO2 T02060183 $
63870K0J4 0J420161229064511212/29/16 06:45:31  5-MIN K0J4 291145Z AUTO 23005KT 10SM OVC011 21/18 A3004 200 87 900 230/05 RMK AO2 T02060183 $
63870K0J4 0J420161229065011212/29/16 06:50:31  5-MIN K0J4 291150Z AUTO 22004KT 10SM OVC011 21/18 A3004 200 87 900 220/04 RMK AO2 T02060183 $
63870K0J4 0J420161229065514912/29/16 06:55:31  5-MIN K0J4 291155Z AUTO 22006KT 10SM OVC012 21/18 A3004 200 87 900 220/06 RMK AO2 SLP169 60000 7//// T02060183 10206 20194 56005 $
63870K0J4 0J420161229070011212/29/16 07:00:31  5-MIN K0J4 291200Z AUTO 23005KT 10SM OVC012 21/18 A3004 200 87 900 230/05 RMK AO2 T02060183 $
63870K0J4 0J420161229070511912/29/16 07:05:31  5-MIN K0J4 291205Z AUTO 23006KT 10SM BKN012 OVC019 21/18 A3004 200 87 900 230/06 RMK AO2 T02060183 $
63870K0J4 0J420161229071011912/29/16 07:10:31  5-MIN K0J4 291210Z AUTO 23006KT 10SM BKN014 OVC019 21/18 A3004 200 87 900 230/06 RMK AO2 T02060183 $
63870K0J4 0J420161229071511212/29/16 07:15:31  5-MIN K0J4 291215Z AUTO 23006KT 10SM OVC015 21/18 A3004 200 87 900 230/06 RMK AO2 T02060183 $
63870K0J4 0J420161229072012612/29/16 07:20:31  5-MIN K0J4 291220Z AUTO 23006KT 10SM BKN015 BKN019 OVC027 21/18 A3004 200 87 900 230/06 RMK AO2 T02060183 $
63870K0J4 0J420161229072511912/29/16 07:25:31  5-MIN K0J4 291225Z AUTO 23005KT 10SM BKN015 OVC027 21/18 A3004 200 87 900 230/05 RMK AO2 T02060183 $
63870K0J4 0J420161229073012612/29/16 07:30:31  5-MIN K0J4 291230Z AUTO VRB05KT 10SM SCT012 BKN017 BKN027 21/18 A3005 200 87 900 VRB/05 RMK AO2 T02060183 $
63870K0J4 0J420161229073511912/29/16 07:35:31  5-MIN K0J4 291235Z AUTO 24004KT 10SM BKN014 OVC027 21/18 A3005 200 87 900 240/04 RMK AO2 T02060183 $
63870K0J4 0J420161229074012612/29/16 07:40:31  5-MIN K0J4 291240Z AUTO VRB03KT 10SM SCT014 BKN027 OVC043 21/18 A3005 200 87 900 VRB/03 RMK AO2 T02060183 $
63870K0J4 0J420161229074512612/29/16 07:45:31  5-MIN K0J4 291245Z AUTO 23004KT 10SM SCT014 BKN027 OVC043 21/18 A3005 200 87 900 230/04 RMK AO2 T02060183 $
63870K0J4 0J420161229075012612/29/16 07:50:31  5-MIN K0J4 291250Z AUTO 23004KT 10SM SCT012 BKN027 OVC043 21/18 A3005 200 87 900 230/04 RMK AO2 T02060183 $
63870K0J4 0J420161229075513312/29/16 07:55:31  5-MIN K0J4 291255Z AUTO VRB03KT 10SM FEW012 BKN017 OVC043 21/18 A3005 200 87 900 VRB/03 RMK AO2 SLP172 T02060183 $
63870K0J4 0J420161229080012412/29/16 08:00:31  5-MIN K0J4 291300Z AUTO VRB04KT 10SM SCT015 BKN027 OVC044 21/18 A3005 200 87 900 VRB/04 RMK AO2 T02060183
63870K0J4 0J420161229080512412/29/16 08:05:31  5-MIN K0J4 291305Z AUTO 23006KT 10SM SCT013 SCT021 OVC027 21/18 A3005 200 87 900 230/06 RMK AO2 T02060183
63870K0J4 0J420161229081012412/29/16 08:10:31  5-MIN K0J4 291310Z AUTO VRB03KT 10SM FEW011 BKN021 OVC027 21/18 A3006 190 87 900 VRB/03 RMK AO2 T02060183
63870K0J4 0J420161229081512412/29/16 08:15:31  5-MIN K0J4 291315Z AUTO VRB06KT 10SM FEW011 BKN016 OVC027 21/18 A3006 190 87 900 VRB/06 RMK AO2 T02060183
63870K0J4 0J420161229082012412/29/16 08:20:31  5-MIN K0J4 291320Z AUTO 23006KT 10SM BKN015 BKN020 OVC027 21/18 A3006 190 87 900 230/06 RMK AO2 T02060183
63870K0J4 0J420161229082512412/29/16 08:25:31  5-MIN K0J4 291325Z AUTO VRB04KT 10SM BKN015 BKN020 OVC027 21/18 A3006 190 87 900 VRB/04 RMK AO2 T02060183
63870K0J4 0J420161229083011712/29/16 08:30:31  5-MIN K0J4 291330Z AUTO VRB05KT 10SM BKN018 OVC026 21/18 A3006 190 87 900 VRB/05 RMK AO2 T02060183
63870K0J4 0J420161229083511012/29/16 08:35:31  5-MIN K0J4 291335Z AUTO VRB04KT 10SM OVC018 21/18 A3006 190 87 900 VRB/04 RMK AO2 T02060183
63870K0J4 0J420161229084011712/29/16 08:40:31  5-MIN K0J4 291340Z AUTO VRB04KT 10SM BKN015 OVC020 21/18 A3006 190 87 900 VRB/04 RMK AO2 T02060183
63870K0J4 0J420161229084511712/29/16 08:45:31  5-MIN K0J4 291345Z AUTO VRB05KT 10SM BKN015 OVC022 21/18 A3006 190 87 900 VRB/05 RMK AO2 T02060183
63870K0J4 0J420161229085007012/29/16 08:50:31  5-MIN K0J4 291350Z AUTO VRB04KT 10SM SCT013 BKN018 
63870K0J4 0J420161230105011612/30/16 10:50:31  5-MIN K0J4 301550Z AUTO 01011G21KT 10SM CLR 09/M08 A3041 -120 27 -700 010/11G21 RMK AO2 T00941083
63870K0J4 0J420161230105512312/30/16 10:55:31  5-MIN K0J4 301555Z AUTO 02013G21KT 10SM CLR 09/M08 A3041 -120 27 -700 020/13G21 RMK AO2 SLP296 T00941083
63870K0J4 0J420161230110011012/30/16 11:00:31  5-MIN K0J4 301600Z AUTO 02010KT 10SM CLR 09/M08 A3040 -120 29 -700 020/10 RMK AO2 T00941078
63870K0J4 0J420161230110511012/30/16 11:05:31  5-MIN K0J4 301605Z AUTO 02012KT 10SM CLR 10/M09 A3040 -120 25 -700 020/12 RMK AO2 T01001089
63870K0J4 0J420161230111012612/30/16 11:10:31  5-MIN K0J4 301610Z AUTO 02010KT 340V050 10SM CLR 10/M08 A3040 -120 26 -700 020/10 340V050 RMK AO2 T01001083
63870K0J4 0J420161230111511612/30/16 11:15:31  5-MIN K0J4 301615Z AUTO 01012G18KT 10SM CLR 10/M08 A3040 -120 26 -700 010/12G18 RMK AO2 T01001083
63870K0J4 0J420161230112011612/30/16 11:20:31  5-MIN K0J4 301620Z AUTO 01012G18KT 10SM CLR 10/M09 A3039 -110 24 -700 010/12G18 RMK AO2 T01001094
63870K0J4 0J420161230112511612/30/16 11:25:31  5-MIN K0J4 301625Z AUTO 02012G17KT 10SM CLR 11/M09 A3039 -110 24 -600 020/12G17 RMK AO2 T01061089
63870K0J4 0J420161230114510312/30/16 11:45:31  5-MIN K0J4 301645Z AUTO 02010KT 11/M09 A3039 -110 24 -600 020/10 RMK AO2 T01061089 $
63870K0J4 0J420161230115010812/30/16 11:50:31  5-MIN K0J4 301650Z AUTO 02010KT 10SM 11/M09 A3039 -110 24 -600 020/10 RMK AO2 T01061089 $
63870K0J4 0J420161230115511512/30/16 11:55:31  5-MIN K0J4 301655Z AUTO 03010KT 10SM 11/M09 A3038 -100 23 -500 030/10 RMK AO2 SLP288 T01111089 $
63870K0J4 0J420161230120010812/30/16 12:00:31  5-MIN K0J4 301700Z AUTO 02010KT 10SM 11/M08 A3038 -100 25 -600 020/10 RMK AO2 T01061083 $
63870K0J4 0J420161230120510812/30/16 12:05:31  5-MIN K0J4 301705Z AUTO VRB05KT 10SM 11/M08 A3038 -100 25 -600 VRB/05 RMK AO2 T01061083 $
63870K0J4 0J420161230121011212/30/16 12:10:31  5-MIN K0J4 301710Z AUTO 36008KT 10SM CLR 11/M08 A3038 -100 25 -500 360/08 RMK AO2 T01111083 $
63870K0J4 0J420161230121512812/30/16 12:15:31  5-MIN K0J4 301715Z AUTO 01007KT 330V050 10SM CLR 11/M09 A3038 -100 23 -600 010/07 330V050 RMK AO2 T01061094 $
63870K0J4 0J420161230122011112/30/16 12:20:31  5-MIN K0J4 301720Z AUTO VRB06KT 10SM CLR 11/M09 A3037 -90 23 -500 VRB/06 RMK AO2 T01111089 $
63870K0J4 0J420161230122511112/30/16 12:25:31  5-MIN K0J4 301725Z AUTO VRB05KT 10SM CLR 11/M09 A3037 -90 23 -500 VRB/05 RMK AO2 T01111089 $
63870K0J4 0J420161230123011112/30/16 12:30:31  5-MIN K0J4 301730Z AUTO VRB06KT 10SM CLR 12/M09 A3037 -90 23 -400 VRB/06 RMK AO2 T01171089 $
63870K0J4 0J420161230123511112/30/16 12:35:31  5-MIN K0J4 301735Z AUTO 01007KT 10SM CLR 11/M09 A3036 -90 22 -500 010/07 RMK AO2 T01111094 $
63870K0J4 0J420161230124011112/30/16 12:40:31  5-MIN K0J4 301740Z AUTO VRB05KT 10SM CLR 11/M09 A3036 -80 23 -500 VRB/05 RMK AO2 T01111089 $
63870K0J4 0J420161230124511112/30/16 12:45:31  5-MIN K0J4 301745Z AUTO 36008KT 10SM CLR 12/M09 A3035 -80 23 -400 360/08 RMK AO2 T01171089 $
63870K0J4 0J420161230125011112/30/16 12:50:31  5-MIN K0J4 301750Z AUTO VRB04KT 10SM CLR 12/M08 A3035 -80 23 -300 VRB/04 RMK AO2 T01221083 $
63870K0J4 0J420161230125513512/30/16 12:55:31  5-MIN K0J4 301755Z AUTO 03008KT 10SM CLR 12/M08 A3035 -70 23 -300 030/08 RMK AO2 SLPNO 60000 T01221083 10128 20039 $
63870K0J4 0J420161230130011112/30/16 13:00:31  5-MIN K0J4 301800Z AUTO VRB06KT 10SM CLR 12/M09 A3034 -70 22 -400 VRB/06 RMK AO2 T01171094 $
63870K0J4 0J420161230130511112/30/16 13:05:31  5-MIN K0J4 301805Z AUTO VRB06KT 10SM CLR 12/M09 A3034 -70 22 -400 VRB/06 RMK AO2 T01171094 $
63870K0J4 0J420161230131011112/30/16 13:10:31  5-MIN K0J4 301810Z AUTO 03010KT 10SM CLR 12/M09 A3034 -60 22 -400 030/10 RMK AO2 T01171094 $
63870K0J4 0J420161230131512712/30/16 13:15:31  5-MIN K0J4 301815Z AUTO 36007KT 320V030 10SM CLR 12/M09 A3033 -60 21 -300 360/07 320V030 RMK AO2 T01221094 $
63870K0J4 0J420161230132011112/30/16 13:20:31  5-MIN K0J4 301820Z AUTO 34005KT 10SM CLR 12/M10 A3033 -60 21 -400 340/05 RMK AO2 T01171100 $
63870K0J4 0J420161230132511112/30/16 13:25:31  5-MIN K0J4 301825Z AUTO 35004KT 10SM CLR 12/M10 A3032 -50 21 -400 350/04 RMK AO2 T01171100 $
63870K0J4 0J420161230133011812/30/16 13:30:31  5-MIN K0J4 301830Z AUTO 01005KT 10SM CLR 12/M10 A3031 -40 20 -300 010/05 RMK AO2 PRESFR T01221100 $
63870K0J4 0J420161230133511112/30/16 13:35:31  5-MIN K0J4 301835Z AUTO VRB05KT 10SM CLR 12/M10 A3031 -40 20 -300 VRB/05 RMK AO2 T01221100 $
63870K0J4 0J420161230134011112/30/16 13:40:31  5-MIN K0J4 301840Z AUTO VRB06KT 10SM CLR 12/M10 A3032 -40 21 -400 VRB/06 RMK AO2 T01171100 $
63870K0J4 0J420161230134511112/30/16 13:45:31  5-MIN K0J4 301845Z AUTO 04004KT 10SM CLR 11/M10 A3031 -40 22 -400 040/04 RMK AO2 T01111100 $
63870K0J4 0J420161230135011112/30/16 13:50:31  5-MIN K0J4 301850Z AUTO 01004KT 10SM CLR 11/M11 A3031 -40 21 -400 010/04 RMK AO2 T01111106 $
63870K0J4 0J420161230135511812/30/16 13:55:31  5-MIN K0J4 301855Z AUTO 34005KT 10SM CLR 12/M10 A3031 -40 21 -400 340/05 RMK AO2 SLP264 T01171100 $
63870K0J4 0J420161230140011112/30/16 14:00:31  5-MIN K0J4 301900Z AUTO 36006KT 10SM CLR 11/M10 A3031 -40 22 -400 360/06 RMK AO2 T01111100 $
63870K0J4 0J420161230140511112/30/16 14:05:31  5-MIN K0J4 301905Z AUTO 36004KT 10SM CLR 12/M10 A3031 -30 21 -400 360/04 RMK AO2 T01171100 $
63870K0J4 0J420161230141011112/30/16 14:10:31  5-MIN K0J4 301910Z AUTO VRB06KT 10SM CLR 11/M11 A3031 -30 21 -400 VRB/06 RMK AO2 T01111106 $
63870K0J4 0J420161230141511112/30/16 14:15:31  5-MIN K0J4 301915Z AUTO 03009KT 10SM CLR 12/M10 A3030 -30 21 -300 030/09 RMK AO2 T01171100 $
63870K0J4 0J420161230142011112/30/16 14:20:31  5-MIN K0J4 301920Z AUTO 02005KT 10SM CLR 12/M09 A3030 -30 22 -300 020/05 RMK AO2 T01171094 $
63870K0J4 0J420161230142511112/30/16 14:25:31  5-MIN K0J4 301925Z AUTO 35006KT 10SM CLR 12/M09 A3030 -20 23 -300 350/06 RMK AO2 T01171089 $
63870K0J4 0J420161230143011112/30/16 14:30:31  5-MIN K0J4 301930Z AUTO VRB04KT 10SM CLR 12/M09 A3029 -20 22 -300 VRB/04 RMK AO2 T01171094 $
63870K0J4 0J420161230143511112/30/16 14:35:31  5-MIN K0J4 301935Z AUTO 36005KT 10SM CLR 12/M09 A3030 -20 22 -300 360/05 RMK AO2 T01171094 $
63870K0J4 0J420161230144011112/30/16 14:40:31  5-MIN K0J4 301940Z AUTO 01004KT 10SM CLR 12/M09 A3029 -20 22 -300 010/04 RMK AO2 T01221089 $
63870K0J4 0J420161230144511112/30/16 14:45:31  5-MIN K0J4 301945Z AUTO VRB05KT 10SM CLR 13/M09 A3030 -20 20 -200 VRB/05 RMK AO2 T01281094 $
63870K0J4 0J420161230145011112/30/16 14:50:31  5-MIN K0J4 301950Z AUTO 01006KT 10SM CLR 12/M09 A3029 -20 22 -300 010/06 RMK AO2 T01221089 $
63870K0J4 0J420161230145511812/30/16 14:55:31  5-MIN K0J4 301955Z AUTO 00000KT 10SM CLR 12/M10 A3029 -20 20 -300 000/00 RMK AO2 SLP257 T01221100 $
63870K0J4 0J420161230150011112/30/16 15:00:31  5-MIN K0J4 302000Z AUTO VRB05KT 10SM CLR 12/M09 A3029 -20 22 -300 VRB/05 RMK AO2 T01221089 $
63870K0J4 0J420161230150511112/30/16 15:05:31  5-MIN K0J4 302005Z AUTO VRB04KT 10SM CLR 12/M09 A3029 -20 22 -300 VRB/04 RMK AO2 T01221089 $
63870K0J4 0J420161230151011112/30/16 15:10:31  5-MIN K0J4 302010Z AUTO 33004KT 10SM CLR 12/M09 A3029 -10 21 -300 330/04 RMK AO2 T01221094 $
63870K0J4 0J420161230151511112/30/16 15:15:31  5-MIN K0J4 302015Z AUTO VRB05KT 10SM CLR 12/M09 A3028 -10 22 -300 VRB/05 RMK AO2 T01221089 $
63870K0J4 0J420161230152011112/30/16 15:20:31  5-MIN K0J4 302020Z AUTO VRB03KT 10SM CLR 13/M09 A3028 -10 21 -200 VRB/03 RMK AO2 T01281089 $
63870K0J4 0J420161230152511112/30/16 15:25:31  5-MIN K0J4 302025Z AUTO VRB04KT 10SM CLR 13/M09 A3028 -10 20 -100 VRB/04 RMK AO2 T01331089 $
63870K0J4 0J420161230153011112/30/16 15:30:31  5-MIN K0J4 302030Z AUTO 00000KT 10SM CLR 13/M09 A3028 -10 21 -200 000/00 RMK AO2 T01281089 $
63870K0J4 0J420161230153510112/30/16 15:35:31  5-MIN K0J4 302035Z AUTO 10SM CLR 13/M09 A3028 -10 19 -100 M /M RMK AO2 T01331094 $
63870K0J4 0J420161230154011112/30/16 15:40:31  5-MIN K0J4 302040Z AUTO 31003KT 10SM CLR 13/M10 A3028 -10 19 -200 310/03 RMK AO2 T01281100 $
63870K0J4 0J420161230154510912/30/16 15:45:31  5-MIN K0J4 302045Z AUTO VRB03KT 10SM CLR 13/M09 A3027 0 20 -200 VRB/03 RMK AO2 T01281094 $
63870K0J4 0J420161230155010912/30/16 15:50:31  5-MIN K0J4 302050Z AUTO VRB04KT 10SM CLR 13/M09 A3027 0 19 -100 VRB/04 RMK AO2 T01331094 $
63870K0J4 0J420161230155511812/30/16 15:55:31  5-MIN K0J4 302055Z AUTO 31004KT 10SM CLR 13/M09 A3027 -10 20 -100 310/04 RMK AO2 SLP251 T01331089 $
63870K0J4 0J420161230160011112/30/16 16:00:31  5-MIN K0J4 302100Z AUTO VRB06KT 10SM CLR 13/M09 A3028 -10 19 -100 VRB/06 RMK AO2 T01331094 $
63870K0J4 0J420161230160511112/30/16 16:05:31  5-MIN K0J4 302105Z AUTO 36006KT 10SM CLR 13/M10 A3028 -10 19 -100 360/06 RMK AO2 T01331100 $
63870K0J4 0J420161230161011112/30/16 16:10:31  5-MIN K0J4 302110Z AUTO 00000KT 10SM CLR 13/M09 A3028 -10 19 -100 000/00 RMK AO2 T01331094 $
63870K0J4 0J420161230161511112/30/16 16:15:31  5-MIN K0J4 302115Z AUTO 00000KT 10SM CLR 12/M10 A3028 -10 20 -300 000/00 RMK AO2 T01221100 $
63870K0J4 0J420161230162011112/30/16 16:20:31  5-MIN K0J4 302120Z AUTO 34003KT 10SM CLR 13/M09 A3028 -10 20 -200 340/03 RMK AO2 T01281094 $
63870K0J4 0J420161230162511112/30/16 16:25:31  5-MIN K0J4 302125Z AUTO VRB03KT 10SM CLR 12/M09 A3028 -10 22 -300 VRB/03 RMK AO2 T01221089 $
63870K0J4 0J420161230163011112/30/16 16:30:31  5-MIN K0J4 302130Z AUTO 32003KT 10SM CLR 12/M09 A3028 -10 22 -300 320/03 RMK AO2 T01221089 $
63870K0J4 0J420161230163511112/30/16 16:35:31  5-MIN K0J4 302135Z AUTO VRB03KT 10SM CLR 12/M08 A3028 -10 23 -300 VRB/03 RMK AO2 T01221083 $
63870K0J4 0J420161230164011112/30/16 16:40:31  5-MIN K0J4 302140Z AUTO 00000KT 10SM CLR 12/M08 A3028 -10 24 -300 000/00 RMK AO2 T01221078 $
63870K0J4 0J420161230164511112/30/16 16:45:31  5-MIN K0J4 302145Z AUTO 00000KT 10SM CLR 12/M07 A3028 -10 27 -300 000/00 RMK AO2 T01171067 $
63870K0J4 0J420161230165011112/30/16 16:50:31  5-MIN K0J4 302150Z AUTO 00000KT 10SM CLR 11/M05 A3028 -10 32 -400 000/00 RMK AO2 T01111050 $
63870K0J4 0J420161230165511812/30/16 16:55:31  5-MIN K0J4 302155Z AUTO 00000KT 10SM CLR 11/M05 A3028 -10 32 -400 000/00 RMK AO2 SLP253 T01111050 $
63870K0J4 0J420161230170011112/30/16 17:00:31  5-MIN K0J4 302200Z AUTO 00000KT 10SM CLR 11/M05 A3028 -10 32 -400 000/00 RMK AO2 T01111050 $
63870K0J4 0J420161230170511112/30/16 17:05:31  5-MIN K0J4 302205Z AUTO 00000KT 10SM CLR 10/M04 A3028 -10 36 -500 000/00 RMK AO2 T01001044 $
63870K0J4 0J420161230171011112/30/16 17:10:31  5-MIN K0J4 302210Z AUTO 00000KT 10SM CLR 10/M04 A3027 -10 36 -500 000/00 RMK AO2 T01001044 $
63870K0J4 0J420161230171510912/30/16 17:15:31  5-MIN K0J4 302215Z AUTO 00000KT 10SM CLR 10/M04 A3027 0 36 -500 000/00 RMK AO2 T01001044 $
63870K0J4 0J420161230172011112/30/16 17:20:31  5-MIN K0J4 302220Z AUTO 00000KT 10SM CLR 09/M03 A3028 -10 40 -600 000/00 RMK AO2 T00941033 $
63870K0J4 0J420161230172511112/30/16 17:25:31  5-MIN K0J4 302225Z AUTO 00000KT 10SM CLR 09/M03 A3028 -10 42 -700 000/00 RMK AO2 T00891033 $
63870K0J4 0J420161230173011112/30/16 17:30:31  5-MIN K0J4 302230Z AUTO 00000KT 10SM CLR 08/M02 A3028 -10 51 -800 000/00 RMK AO2 T00781017 $
63870K0J4 0J420161230173511112/30/16 17:35:31  5-MIN K0J4 302235Z AUTO 00000KT 10SM CLR 08/M01 A3028 -10 53 -800 000/00 RMK AO2 T00781011 $
63870K0J4 0J420161230174011112/30/16 17:40:31  5-MIN K0J4 302240Z AUTO 00000KT 10SM CLR 08/M01 A3028 -10 53 -800 000/00 RMK AO2 T00781011 $
63870K0J4 0J420161230174511112/30/16 17:45:31  5-MIN K0J4 302245Z AUTO 00000KT 10SM CLR 08/M01 A3028 -10 53 -800 000/00 RMK AO2 T00781011 $
63870K0J4 0J420161230175011112/30/16 17:50:31  5-MIN K0J4 302250Z AUTO 00000KT 10SM CLR 07/M01 A3028 -10 57 -900 000/00 RMK AO2 T00721006 $
63870K0J4 0J420161230175511812/30/16 17:55:31  5-MIN K0J4 302255Z AUTO 00000KT 10SM CLR 06/00 A3028 -10 65 -1000 000/00 RMK AO2 SLP255 T00610000 $
63870K0J4 0J420161230180011112/30/16 18:00:31  5-MIN K0J4 302300Z AUTO 00000KT 10SM CLR 06/00 A3028 -10 67 -1100 000/00 RMK AO2 T00560000 $
63870K0J4 0J420161230180511112/30/16 18:05:31  5-MIN K0J4 302305Z AUTO 00000KT 10SM CLR 06/00 A3028 -10 67 -1100 000/00 RMK AO2 T00560000 $
63870K0J4 0J420161230181011212/30/16 18:10:31  5-MIN K0J4 302310Z AUTO 00000KT 10SM CLR 06/M01 A3028 -10 62 -1000 000/00 RMK AO2 T00611006 $
63870K0J4 0J420161230181511212/30/16 18:15:31  5-MIN K0J4 302315Z AUTO 00000KT 10SM CLR 06/M01 A3028 -10 62 -1000 000/00 RMK AO2 T00611006 $
63870K0J4 0J420161230182011212/30/16 18:20:31  5-MIN K0J4 302320Z AUTO 00000KT 10SM CLR 06/M01 A3028 -10 60 -1000 000/00 RMK AO2 T00611011 $
63870K0J4 0J420161230182511212/30/16 18:25:31  5-MIN K0J4 302325Z AUTO 00000KT 10SM CLR 06/M01 A3028 -10 62 -1100 000/00 RMK AO2 T00561011 $
63870K0J4 0J420161230183011212/30/16 18:30:31  5-MIN K0J4 302330Z AUTO 00000KT 10SM CLR 04/M01 A3028 -10 70 -1200 000/00 RMK AO2 T00441006 $
63870K0J4 0J420161230183511112/30/16 18:35:31  5-MIN K0J4 302335Z AUTO 00000KT 10SM CLR 04/00 A3028 -10 76 -1300 000/00 RMK AO2 T00390000 $
63870K0J4 0J420161230184011112/30/16 18:40:31  5-MIN K0J4 302340Z AUTO 00000KT 10SM CLR 04/00 A3028 -10 73 -1200 000/00 RMK AO2 T00440000 $
63870K0J4 0J420161230184511112/30/16 18:45:31  5-MIN K0J4 302345Z AUTO 00000KT 10SM CLR 04/01 A3028 -10 76 -1200 000/00 RMK AO2 T00440006 $
63870K0J4 0J420161230185011112/30/16 18:50:31  5-MIN K0J4 302350Z AUTO 00000KT 10SM CLR 04/01 A3028 -10 79 -1300 000/00 RMK AO2 T00390006 $
63870K0J4 0J420161230185513612/30/16 18:55:31  5-MIN K0J4 302355Z AUTO 00000KT 10SM CLR 03/00 A3028 -10 79 -1300 000/00 RMK AO2 SLP255 T00330000 10133 20033 56024 $
63870K0J4 0J420161230190011212/30/16 19:00:31  5-MIN K0J4 310000Z AUTO 00000KT 10SM CLR 03/M01 A3028 -10 76 -1300 000/00 RMK AO2 T00331006 $
63870K0J4 0J420161230190511212/30/16 19:05:31  5-MIN K0J4 310005Z AUTO 00000KT 10SM CLR 03/M01 A3029 -20 76 -1400 000/00 RMK AO2 T00331006 $
63870K0J4 0J420161230191011212/30/16 19:10:31  5-MIN K0J4 310010Z AUTO 00000KT 10SM CLR 04/M01 A3029 -10 73 -1300 000/00 RMK AO2 T00391006 $
63870K0J4 0J420161230191511212/30/16 19:15:31  5-MIN K0J4 310015Z AUTO 00000KT 10SM CLR 03/M01 A3028 -10 76 -1300 000/00 RMK AO2 T00331006 $
63870K0J4 0J420161230192011112/30/16 19:20:31  5-MIN K0J4 310020Z AUTO 00000KT 10SM CLR 03/00 A3029 -10 82 -1400 000/00 RMK AO2 T00280000 $
63870K0J4 0J420161230192511112/30/16 19:25:31  5-MIN K0J4 310025Z AUTO 00000KT 10SM CLR 03/00 A3029 -20 79 -1400 000/00 RMK AO2 T00330000 $
63870K0J4 0J420161230193011212/30/16 19:30:31  5-MIN K0J4 310030Z AUTO 00000KT 10SM CLR 03/M01 A3029 -20 79 -1400 000/00 RMK AO2 T00281006 $
63870K0J4 0J420161230193511212/30/16 19:35:31  5-MIN K0J4 310035Z AUTO 00000KT 10SM CLR 03/M01 A3029 -20 79 -1400 000/00 RMK AO2 T00281006 $
63870K0J4 0J420161230194011212/30/16 19:40:31  5-MIN K0J4 310040Z AUTO 00000KT 10SM CLR 03/M01 A3029 -20 79 -1400 000/00 RMK AO2 T00281006 $
63870K0J4 0J420161230194511212/30/16 19:45:31  5-MIN K0J4 310045Z AUTO 00000KT 10SM CLR 03/M01 A3029 -20 79 -1400 000/00 RMK AO2 T00281006 $
63870K0J4 0J420161230195011212/30/16 19:50:31  5-MIN K0J4 310050Z AUTO 00000KT 10SM CLR 02/M01 A3028 -10 82 -1600 000/00 RMK AO2 T00171011 $
63870K0J4 0J420161230195511912/30/16 19:55:31  5-MIN K0J4 310055Z AUTO 00000KT 10SM CLR 02/M01 A3029 -20 82 -1600 000/00 RMK AO2 SLP256 T00171011 $
63870K0J4 0J420161230200011212/30/16 20:00:31  5-MIN K0J4 310100Z AUTO 00000KT 10SM CLR 02/M01 A3029 -20 78 -1500 000/00 RMK AO2 T00221011 $
63870K0J4 0J420161230200511212/30/16 20:05:31  5-MIN K0J4 310105Z AUTO 00000KT 10SM CLR 03/M01 A3029 -20 75 -1400 000/00 RMK AO2 T00281011 $
63870K0J4 0J420161230201011212/30/16 20:10:31  5-MIN K0J4 310110Z AUTO 00000KT 10SM CLR 02/M01 A3029 -20 82 -1500 000/00 RMK AO2 T00221006 $
63870K0J4 0J420161230201511212/30/16 20:15:31  5-MIN K0J4 310115Z AUTO 00000KT 10SM CLR 02/M01 A3029 -20 78 -1500 000/00 RMK AO2 T00221011 $
63870K0J4 0J420161230202011212/30/16 20:20:31  5-MIN K0J4 310120Z AUTO 00000KT 10SM CLR 03/M01 A3029 -20 75 -1400 000/00 RMK AO2 T00281011 $
63870K0J4 0J420161230202511212/30/16 20:25:31  5-MIN K0J4 310125Z AUTO 00000KT 10SM CLR 02/M01 A3029 -20 78 -1500 000/00 RMK AO2 T00221011 $
63870K0J4 0J420161230203011212/30/16 20:30:31  5-MIN K0J4 310130Z AUTO 00000KT 10SM CLR 02/M01 A3029 -20 82 -1600 000/00 RMK AO2 T00171011 $
63870K0J4 0J420161230203511212/30/16 20:35:31  5-MIN K0J4 310135Z AUTO 00000KT 10SM CLR 02/M01 A3028 -10 82 -1600 000/00 RMK AO2 T00171011 $
63870K0J4 0J420161230204011212/30/16 20:40:31  5-MIN K0J4 310140Z AUTO 00000KT 10SM CLR 02/M01 A3028 -10 82 -1600 000/00 RMK AO2 T00171011 $
63870K0J4 0J420161230204511212/30/16 20:45:31  5-MIN K0J4 310145Z AUTO 00000KT 10SM CLR 02/M01 A3028 -10 78 -1500 000/00 RMK AO2 T00221011 $
63870K0J4 0J420161230205011212/30/16 20:50:31  5-MIN K0J4 310150Z AUTO 00000KT 10SM CLR 02/M01 A3028 -10 82 -1600 000/00 RMK AO2 T00171011 $
63870K0J4 0J420161230205511912/30/16 20:55:31  5-MIN K0J4 310155Z AUTO 00000KT 10SM CLR 01/M02 A3028 -10 82 -1600 000/00 RMK AO2 SLP255 T00111017 $
63870K0J4 0J420161230210011212/30/16 21:00:31  5-MIN K0J4 310200Z AUTO 00000KT 10SM CLR 02/M01 A3028 -10 78 -1500 000/00 RMK AO2 T00221011 $
63870K0J4 0J420161230210511212/30/16 21:05:31  5-MIN K0J4 310205Z AUTO 00000KT 10SM CLR 01/M02 A3028 -10 82 -1600 000/00 RMK AO2 T00111017 $
63870K0J4 0J420161230211011212/30/16 21:10:31  5-MIN K0J4 310210Z AUTO 00000KT 10SM CLR 02/M01 A3028 -10 82 -1600 000/00 RMK AO2 T00171011 $
63870K0J4 0J420161230211511212/30/16 21:15:31  5-MIN K0J4 310215Z AUTO 00000KT 10SM CLR 02/M01 A3028 -10 82 -1600 000/00 RMK AO2 T00171011 $
63870K0J4 0J420161230212011212/30/16 21:20:31  5-MIN K0J4 310220Z AUTO 00000KT 10SM CLR 02/M01 A3028 -10 82 -1600 000/00 RMK AO2 T00171011 $
63870K0J4 0J420161230212511212/30/16 21:25:31  5-MIN K0J4 310225Z AUTO 00000KT 10SM CLR 01/M01 A3028 -10 85 -1600 000/00 RMK AO2 T00111011 $
63870K0J4 0J420161230213011212/30/16 21:30:31  5-MIN K0J4 310230Z AUTO 00000KT 10SM CLR 02/M01 A3028 -10 82 -1600 000/00 RMK AO2 T00171011 $
63870K0J4 0J420161230213511212/30/16 21:35:31  5-MIN K0J4 310235Z AUTO 00000KT 10SM CLR 01/M01 A3028 -10 85 -1600 000/00 RMK AO2 T00111011 $
63870K0J4 0J420161230214011212/30/16 21:40:31  5-MIN K0J4 310240Z AUTO 00000KT 10SM CLR 02/M01 A3028 -10 82 -1600 000/00 RMK AO2 T00171011 $
63870K0J4 0J420161230214511212/30/16 21:45:31  5-MIN K0J4 310245Z AUTO 00000KT 10SM CLR 02/M01 A3028 -10 82 -1600 000/00 RMK AO2 T00171011 $
63870K0J4 0J420161230215011212/30/16 21:50:31  5-MIN K0J4 310250Z AUTO 00000KT 10SM CLR 02/M01 A3028 -10 82 -1600 000/00 RMK AO2 T00171011 $
63870K0J4 0J420161230215512512/30/16 21:55:31  5-MIN K0J4 310255Z AUTO 00000KT 10SM CLR 02/M01 A3028 -10 82 -1600 000/00 RMK AO2 SLP253 T00171011 50003 $
63870K0J4 0J420161230220011012/30/16 22:00:31  5-MIN K0J4 310300Z AUTO 00000KT 10SM CLR 02/M01 A3027 0 82 -1500 000/00 RMK AO2 T00171011 $
63870K0J4 0J420161230220511012/30/16 22:05:31  5-MIN K0J4 310305Z AUTO 00000KT 10SM CLR 01/M01 A3027 0 85 -1600 000/00 RMK AO2 T00111011 $
63870K0J4 0J420161230221011012/30/16 22:10:31  5-MIN K0J4 310310Z AUTO 00000KT 10SM CLR 01/M01 A3027 0 85 -1600 000/00 RMK AO2 T00111011 $
63870K0J4 0J420161230221511012/30/16 22:15:31  5-MIN K0J4 310315Z AUTO 00000KT 10SM CLR 01/M01 A3027 0 85 -1600 000/00 RMK AO2 T00111011 $
63870K0J4 0J420161230222011012/30/16 22:20:31  5-MIN K0J4 310320Z AUTO 00000KT 10SM CLR 01/M01 A3027 0 85 -1600 000/00 RMK AO2 T00111011 $
63870K0J4 0J420161230222511212/30/16 22:25:31  5-MIN K0J4 310325Z AUTO 00000KT 10SM CLR 02/M01 A3028 -10 82 -1500 000/00 RMK AO2 T00171011 $
63870K0J4 0J420161230223011012/30/16 22:30:31  5-MIN K0J4 310330Z AUTO 00000KT 10SM CLR 02/M01 A3027 0 82 -1500 000/00 RMK AO2 T00171011 $
63870K0J4 0J420161230224507312/30/16 22:45:31  5-MIN K0J4 310345Z AUTO 00000KT M M M 000/00 RMK AO2 $
63870K0J4 0J420161230225010112/30/16 22:50:31  5-MIN K0J4 310350Z AUTO 00000KT 01/M01 A3026 0 85 -1600 000/00 RMK AO2 T00111011 $
63870K0J4 0J420161230225511312/30/16 22:55:31  5-MIN K0J4 310355Z AUTO 00000KT 10SM 01/M01 A3026 0 89 -1700 000/00 RMK AO2 SLP247 T00061011 $
63870K0J4 0J420161230230010612/30/16 23:00:31  5-MIN K0J4 310400Z AUTO 00000KT 10SM 01/M01 A3026 0 85 -1600 000/00 RMK AO2 T00111011 $
63870K0J4 0J420161230230510612/30/16 23:05:31  5-MIN K0J4 310405Z AUTO 00000KT 10SM 02/M01 A3026 0 82 -1500 000/00 RMK AO2 T00171011 $
63870K0J4 0J420161230231010612/30/16 23:10:31  5-MIN K0J4 310410Z AUTO 00000KT 10SM 01/M01 A3026 0 85 -1600 000/00 RMK AO2 T00111011 $
63870K0J4 0J420161231082012812/31/16 08:20:31  5-MIN K0J4 311320Z AUTO 16003KT 10SM -RA OVC100 07/00 A3024 30 62 -900 160/03 RMK AO2 RAB17 P0000 T00670000 $
63870K0J4 0J420161231082512712/31/16 08:25:31  5-MIN K0J4 311325Z AUTO 15004KT 10SM OVC100 07/00 A3023 30 62 -900 150/04 RMK AO2 RAB17E21 P0000 T00670000 $
63870K0J4 0J420161231083012712/31/16 08:30:31  5-MIN K0J4 311330Z AUTO 16004KT 10SM OVC100 07/00 A3023 30 62 -900 160/04 RMK AO2 RAB17E21 P0000 T00670000 $
63870K0J4 0J420161231083512712/31/16 08:35:31  5-MIN K0J4 311335Z AUTO 15003KT 10SM OVC110 07/00 A3023 30 62 -900 150/03 RMK AO2 RAB17E21 P0000 T00670000 $
63870K0J4 0J420161231084012712/31/16 08:40:31  5-MIN K0J4 311340Z AUTO 14003KT 10SM OVC110 07/00 A3023 40 62 -900 140/03 RMK AO2 RAB17E21 P0000 T00670000 $
63870K0J4 0J420161231084512712/31/16 08:45:31  5-MIN K0J4 311345Z AUTO 17003KT 10SM OVC110 07/00 A3023 30 60 -800 170/03 RMK AO2 RAB17E21 P0000 T00720000 $
63870K0J4 0J420161231085012712/31/16 08:50:31  5-MIN K0J4 311350Z AUTO 17003KT 10SM OVC110 07/00 A3025 20 60 -800 170/03 RMK AO2 RAB17E21 P0000 T00720000 $
63870K0J4 0J420161231085513512/31/16 08:55:31  5-MIN K0J4 311355Z AUTO 14003KT 10SM OVC110 07/M01 A3024 30 57 -800 140/03 RMK AO2 RAB17E21 SLP239 P0000 T00721006 $
63870K0J4 0J420161231090011212/31/16 09:00:31  5-MIN K0J4 311400Z AUTO 13004KT 10SM OVC110 07/00 A3022 40 60 -800 130/04 RMK AO2 T00720000 $
63870K0J4 0J420161231090511312/31/16 09:05:31  5-MIN K0J4 311405Z AUTO 15004KT 10SM OVC110 07/M01 A3023 30 57 -800 150/04 RMK AO2 T00721006 $
63870K0J4 0J420161231091011312/31/16 09:10:31  5-MIN K0J4 311410Z AUTO 14004KT 10SM OVC110 08/M01 A3023 30 55 -700 140/04 RMK AO2 T00781006 $
63870K0J4 0J420161231091511312/31/16 09:15:31  5-MIN K0J4 311415Z AUTO VRB03KT 10SM OVC110 08/M01 A3023 30 55 -700 VRB/03 RMK AO2 T00781006 $
63870K0J4 0J420161231092011312/31/16 09:20:31  5-MIN K0J4 311420Z AUTO 15003KT 10SM OVC110 08/M01 A3024 30 53 -700 150/03 RMK AO2 T00781011 $
63870K0J4 0J420161231092511312/31/16 09:25:31  5-MIN K0J4 311425Z AUTO VRB03KT 10SM OVC110 08/M01 A3024 20 51 -700 VRB/03 RMK AO2 T00831011 $
63870K0J4 0J420161231093011312/31/16 09:30:31  5-MIN K0J4 311430Z AUTO VRB03KT 10SM OVC110 08/M01 A3024 20 51 -700 VRB/03 RMK AO2 T00831011 $
63870K0J4 0J420161231093513612/31/16 09:35:31  5-MIN K0J4 311435Z AUTO 00000KT 10SM -RA OVC110 08/M01 A3025 10 51 -700 000/00 RMK AO2 RAB34 PRESRR P0000 T00831011 $
63870K0J4 0J420161231094012912/31/16 09:40:31  5-MIN K0J4 311440Z AUTO 00000KT 10SM -RA OVC110 08/M02 A3025 10 49 -700 000/00 RMK AO2 RAB34 P0000 T00831017 $
63870K0J4 0J420161231094512812/31/16 09:45:31  5-MIN K0J4 311445Z AUTO 00000KT 10SM OVC110 08/M01 A3025 10 53 -700 000/00 RMK AO2 RAB34E43 P0000 T00831006 $
63870K0J4 0J420161231095012812/31/16 09:50:31  5-MIN K0J4 311450Z AUTO 11003KT 10SM OVC110 08/M01 A3024 20 53 -700 110/03 RMK AO2 RAB34E43 P0000 T00831006 $
63870K0J4 0J420161231095514712/31/16 09:55:31  5-MIN K0J4 311455Z AUTO VRB03KT 10SM OVC110 09/M01 A3026 10 51 -600 VRB/03 RMK AO2 RAB34E43 SLP246 P0000 60000 T00891006 53003 $
63870K0J4 0J420161231100011312/31/16 10:00:31  5-MIN K0J4 311500Z AUTO 00000KT 10SM OVC110 09/M02 A3026 10 47 -600 000/00 RMK AO2 T00891017 $
63870K0J4 0J420161231100511212/31/16 10:05:31  5-MIN K0J4 311505Z AUTO 00000KT 10SM OVC110 09/M01 A3026 0 49 -600 000/00 RMK AO2 T00891011 $
63870K0J4 0J420161231101011312/31/16 10:10:31  5-MIN K0J4 311510Z AUTO 12003KT 10SM OVC110 09/M01 A3025 10 49 -600 120/03 RMK AO2 T00891011 $
63870K0J4 0J420161231101511912/31/16 10:15:31  5-MIN K0J4 311515Z AUTO 12003KT 10SM SCT090 OVC110 09/00 A3025 10 53 -600 120/03 RMK AO2 T00890000 $
63870K0J4 0J420161231102013512/31/16 10:20:31  5-MIN K0J4 311520Z AUTO 11004KT 10SM -RA BKN100 OVC120 09/00 A3024 20 53 -600 110/04 RMK AO2 RAB16 P0000 T00890000 $
63870K0J4 0J420161231102513512/31/16 10:25:31  5-MIN K0J4 311525Z AUTO 00000KT 10SM -RA SCT100 OVC120 09/01 A3025 10 56 -600 000/00 RMK AO2 RAB16 P0000 T00890006 $
63870K0J4 0J420161231103012812/31/16 10:30:31  5-MIN K0J4 311530Z AUTO 12004KT 10SM -RA OVC110 09/01 A3025 20 56 -600 120/04 RMK AO2 RAB16 P0000 T00890006 $
63870K0J4 0J420161231103513512/31/16 10:35:31  5-MIN K0J4 311535Z AUTO 14004KT 10SM -RA BKN100 OVC120 09/01 A3025 10 56 -600 140/04 RMK AO2 RAB16 P0000 T00890006 $
63870K0J4 0J420161231104012812/31/16 10:40:31  5-MIN K0J4 311540Z AUTO 12005KT 10SM -RA OVC100 09/01 A3024 20 56 -600 120/05 RMK AO2 RAB16 P0000 T00890006 $
63870K0J4 0J420161231104512812/31/16 10:45:31  5-MIN K0J4 311545Z AUTO 11004KT 10SM -RA OVC100 09/01 A3024 20 56 -600 110/04 RMK AO2 RAB16 P0000 T00890006 $
63870K0J4 0J420161231105013512/31/16 10:50:31  5-MIN K0J4 311550Z AUTO 12005KT 10SM -RA FEW070 OVC095 09/01 A3023 30 56 -600 120/05 RMK AO2 RAB16 P0000 T00890006 $
63870K0J4 0J420161231105514212/31/16 10:55:31  5-MIN K0J4 311555Z AUTO 14004KT 10SM -RA FEW070 OVC100 09/01 A3023 30 56 -500 140/04 RMK AO2 RAB16 SLP239 P0000 T00940011 $
63870K0J4 0J420161231110012912/31/16 11:00:31  5-MIN K0J4 311600Z AUTO 13006KT 10SM -RA BKN095 OVC110 09/01 A3023 30 56 -500 130/06 RMK AO2 P0000 T00940011 $
63870K0J4 0J420161231110512912/31/16 11:05:31  5-MIN K0J4 311605Z AUTO VRB05KT 10SM -RA BKN100 OVC110 09/01 A3023 30 53 -500 VRB/05 RMK AO2 P0000 T00940006 $
63870K0J4 0J420161231111013112/31/16 11:10:31  5-MIN K0J4 311610Z AUTO 14006KT 10SM FEW070 OVC100 10/01 A3022 40 54 -500 140/06 RMK AO2 RAE06 P0000 T01000011 $
63870K0J4 0J420161231111512412/31/16 11:15:31  5-MIN K0J4 311615Z AUTO 14006KT 10SM OVC100 10/01 A3022 40 52 -500 140/06 RMK AO2 RAE06 P0000 T01000006 $
63870K0J4 0J420161231112012212/31/16 11:20:31  5-MIN K0J4 311620Z AUTO 13006KT 10SM OVC110 10/01 A3022 40 52 -500 130/06 RMK AO2 RAE06 P0000 T01000006
63870K0J4 0J420161231112512212/31/16 11:25:31  5-MIN K0J4 311625Z AUTO 14005KT 10SM OVC110 11/01 A3022 40 52 -400 140/05 RMK AO2 RAE06 P0000 T01060011
63870K0J4 0J420161231113012212/31/16 11:30:31  5-MIN K0J4 311630Z AUTO 15005KT 10SM OVC110 11/01 A3022 40 52 -400 150/05 RMK AO2 RAE06 P0000 T01060011
63870K0J4 0J420161231113512212/31/16 11:35:31  5-MIN K0J4 311635Z AUTO 16004KT 10SM OVC110 11/01 A3022 40 50 -300 160/04 RMK AO2 RAE06 P0000 T01110011
63870K0J4 0J420161231114012212/31/16 11:40:31  5-MIN K0J4 311640Z AUTO 17007KT 10SM BKN110 11/01 A3022 40 50 -300 170/07 RMK AO2 RAE06 P0000 T01110011
63870K0J4 0J420161231114512212/31/16 11:45:31  5-MIN K0J4 311645Z AUTO 14006KT 10SM BKN110 12/01 A3022 40 48 -300 140/06 RMK AO2 RAE06 P0000 T01170011
63870K0J4 0J420161231115012212/31/16 11:50:31  5-MIN K0J4 311650Z AUTO 15006KT 10SM BKN110 12/01 A3022 40 48 -300 150/06 RMK AO2 RAE06 P0000 T01170011
63870K0J4 0J420161231115512912/31/16 11:55:31  5-MIN K0J4 311655Z AUTO 16006KT 10SM BKN110 12/01 A3022 40 48 -300 160/06 RMK AO2 RAE06 SLP233 P0000 T01170011
63870K0J4 0J420161231120011012/31/16 12:00:31  5-MIN K0J4 311700Z AUTO 17006KT 10SM OVC100 12/02 A3023 30 50 -300 170/06 RMK AO2 T01170017
63870K0J4 0J420161231120512612/31/16 12:05:31  5-MIN K0J4 311705Z AUTO 16006KT 10SM -RA BKN100 12/02 A3022 40 50 -300 160/06 RMK AO2 RAB05 P0000 T01170017
63870K0J4 0J420161231121012612/31/16 12:10:31  5-MIN K0J4 311710Z AUTO 16006KT 10SM -RA OVC100 12/02 A3022 40 52 -300 160/06 RMK AO2 RAB05 P0000 T01170022
63870K0J4 0J420161231121513312/31/16 12:15:31  5-MIN K0J4 311715Z AUTO 12005KT 10SM -RA OVC100 12/03 A3020 60 54 -200 120/05 RMK AO2 RAB05 PRESFR P0000 T01170028
63870K0J4 0J420161231122014012/31/16 12:20:31  5-MIN K0J4 311720Z AUTO 14005KT 10SM -RA BKN095 OVC110 12/03 A3019 60 54 -200 140/05 RMK AO2 RAB05 PRESFR P0000 T01170028
63870K0J4 0J420161231122514012/31/16 12:25:31  5-MIN K0J4 311725Z AUTO VRB05KT 10SM -RA BKN095 OVC110 12/03 A3019 70 54 -200 VRB/05 RMK AO2 RAB05 PRESFR P0000 T01220033
63870K0J4 0J420161231123013312/31/16 12:30:31  5-MIN K0J4 311730Z AUTO 15006KT 10SM -RA BKN095 OVC110 12/03 A3019 70 54 -200 150/06 RMK AO2 RAB05 P0000 T01220033
63870K0J4 0J420161231123512512/31/16 12:35:31  5-MIN K0J4 311735Z AUTO 14004KT 10SM OVC095 12/03 A3019 70 54 -200 140/04 RMK AO2 RAB05E35 P0000 T01220033
63870K0J4 0J420161231124012512/31/16 12:40:31  5-MIN K0J4 311740Z AUTO 14007KT 10SM OVC095 12/03 A3018 80 52 -100 140/07 RMK AO2 RAB05E35 P0000 T01220028
63870K0J4 0J420161231124512512/31/16 12:45:31  5-MIN K0J4 311745Z AUTO 14005KT 10SM OVC095 12/03 A3017 80 52 -100 140/05 RMK AO2 RAB05E35 P0000 T01220028
63870K0J4 0J420161231125012512/31/16 12:50:31  5-MIN K0J4 311750Z AUTO 15007KT 10SM OVC095 12/03 A3017 80 54 -100 150/07 RMK AO2 RAB05E35 P0000 T01220033
63870K0J4 0J420161231125518012/31/16 12:55:31  5-MIN K0J4 311755Z AUTO 14007KT 100V170 10SM OVC090 12/03 A3016 100 54 -100 140/07 100V170 RMK AO2 RAB05E35 PRESFR SLP212 P0000 60000 T01220033 10122 20061 53008
63870K0J4 0J420161231130011012/31/16 13:00:31  5-MIN K0J4 311800Z AUTO 15006KT 10SM OVC095 12/03 A3017 90 54 -100 150/06 RMK AO2 T01220033
63870K0J4 0J420161231130511012/31/16 13:05:31  5-MIN K0J4 311805Z AUTO 00000KT 10SM OVC095 12/03 A3017 80 54 -100 000/00 RMK AO2 T01220033
63870K0J4 0J420161231131011012/31/16 13:10:31  5-MIN K0J4 311810Z AUTO VRB03KT 10SM OVC095 12/03 A3018 80 54 -100 VRB/03 RMK AO2 T01220033
63870K0J4 0J420161231131511012/31/16 13:15:31  5-MIN K0J4 311815Z AUTO 13004KT 10SM OVC100 12/03 A3017 80 54 -100 130/04 RMK AO2 T01220033
63870K0J4 0J420161231132011012/31/16 13:20:31  5-MIN K0J4 311820Z AUTO VRB04KT 10SM OVC100 12/03 A3017 80 54 -100 VRB/04 RMK AO2 T01220033
63870K0J4 0J420161231132511012/31/16 13:25:31  5-MIN K0J4 311825Z AUTO 12004KT 10SM OVC100 12/03 A3016 90 54 -100 120/04 RMK AO2 T01220033
63870K0J4 0J420161231133011112/31/16 13:30:31  5-MIN K0J4 311830Z AUTO 11003KT 10SM OVC100 12/04 A3016 100 56 -100 110/03 RMK AO2 T01220039
63870K0J4 0J420161231133511812/31/16 13:35:31  5-MIN K0J4 311835Z AUTO 11004KT 10SM OVC100 12/04 A3015 110 56 -100 110/04 RMK AO2 PRESFR T01220039
63870K0J4 0J420161231134011112/31/16 13:40:31  5-MIN K0J4 311840Z AUTO VRB03KT 10SM OVC100 12/04 A3015 110 56 -100 VRB/03 RMK AO2 T01220039
63870K0J4 0J420161231134511112/31/16 13:45:31  5-MIN K0J4 311845Z AUTO VRB04KT 10SM OVC100 12/04 A3014 110 56 -100 VRB/04 RMK AO2 T01220039
63870K0J4 0J420161231135011112/31/16 13:50:31  5-MIN K0J4 311850Z AUTO 13004KT 10SM OVC100 12/04 A3014 110 56 -100 130/04 RMK AO2 T01220039
63870K0J4 0J420161231135511812/31/16 13:55:31  5-MIN K0J4 311855Z AUTO 14003KT 10SM OVC100 12/04 A3014 110 59 -100 140/03 RMK AO2 SLP205 T01220044
63870K0J4 0J420161231140010812/31/16 14:00:31  5-MIN K0J4 311900Z AUTO VRB03KT 10SM OVC100 13/04 A3014 110 56 0 VRB/03 RMK AO2 T01280044
63870K0J4 0J420161231140510812/31/16 14:05:31  5-MIN K0J4 311905Z AUTO 00000KT 10SM OVC100 13/04 A3015 110 56 0 000/00 RMK AO2 T01280044
63870K0J4 0J420161231141010812/31/16 14:10:31  5-MIN K0J4 311910Z AUTO 16004KT 10SM OVC100 13/04 A3015 110 56 0 160/04 RMK AO2 T01280044
63870K0J4 0J420161231141511112/31/16 14:15:31  5-MIN K0J4 311915Z AUTO 15004KT 10SM OVC100 12/04 A3014 110 59 -100 150/04 RMK AO2 T01220044
63870K0J4 0J420161231142011112/31/16 14:20:31  5-MIN K0J4 311920Z AUTO 14004KT 10SM OVC100 12/04 A3014 110 59 -100 140/04 RMK AO2 T01220044
63870K0J4 0J420161231142512712/31/16 14:25:31  5-MIN K0J4 311925Z AUTO 12003KT 10SM -RA OVC100 12/04 A3014 120 59 -100 120/03 RMK AO2 RAB22 P0000 T01220044
63870K0J4 0J420161231143012712/31/16 14:30:31  5-MIN K0J4 311930Z AUTO 13003KT 10SM -RA OVC100 12/05 A3013 120 61 -100 130/03 RMK AO2 RAB22 P0000 T01220050
63870K0J4 0J420161231143512712/31/16 14:35:31  5-MIN K0J4 311935Z AUTO 13004KT 10SM -RA OVC095 12/05 A3013 130 61 -100 130/04 RMK AO2 RAB22 P0000 T01220050
63870K0J4 0J420161231144012712/31/16 14:40:31  5-MIN K0J4 311940Z AUTO 14005KT 10SM -RA OVC095 12/06 A3012 130 66 -100 140/05 RMK AO2 RAB22 P0000 T01170056
63870K0J4 0J420161231144512712/31/16 14:45:31  5-MIN K0J4 311945Z AUTO 13004KT 10SM -RA OVC090 12/06 A3012 130 68 -100 130/04 RMK AO2 RAB22 P0000 T01170061
63870K0J4 0J420161231145012712/31/16 14:50:31  5-MIN K0J4 311950Z AUTO 14003KT 10SM -RA OVC090 12/06 A3012 130 68 -100 140/03 RMK AO2 RAB22 P0000 T01170061
63870K0J4 0J420161231145513412/31/16 14:55:31  5-MIN K0J4 311955Z AUTO 13003KT 10SM -RA OVC095 12/07 A3012 130 71 -100 130/03 RMK AO2 RAB22 SLP200 P0000 T01170067
63870K0J4 0J420161231150012112/31/16 15:00:31  5-MIN K0J4 312000Z AUTO VRB03KT 10SM -RA OVC090 12/07 A3012 130 71 -100 VRB/03 RMK AO2 P0000 T01170067
63870K0J4 0J420161231150512112/31/16 15:05:31  5-MIN K0J4 312005Z AUTO 00000KT 10SM -RA OVC090 12/07 A3013 130 71 -200 000/00 RMK AO2 P0000 T01170067
63870K0J4 0J420161231151012112/31/16 15:10:31  5-MIN K0J4 312010Z AUTO 11004KT 10SM -RA OVC090 12/07 A3012 130 71 -100 110/04 RMK AO2 P0000 T01170067
63870K0J4 0J420161231151512112/31/16 15:15:31  5-MIN K0J4 312015Z AUTO 12003KT 10SM -RA OVC085 11/07 A3012 130 74 -200 120/03 RMK AO2 P0000 T01110067
63870K0J4 0J420161231152012112/31/16 15:20:31  5-MIN K0J4 312020Z AUTO VRB03KT 10SM -RA OVC085 11/07 A3012 130 74 -200 VRB/03 RMK AO2 P0000 T01110067
63870K0J4 0J420161231152512112/31/16 15:25:31  5-MIN K0J4 312025Z AUTO 12003KT 10SM -RA OVC080 11/07 A3012 130 74 -200 120/03 RMK AO2 P0000 T01110067
63870K0J4 0J420161231153012112/31/16 15:30:31  5-MIN K0J4 312030Z AUTO 13004KT 10SM -RA OVC080 11/07 A3012 140 74 -200 130/04 RMK AO2 P0000 T01110067
63870K0J4 0J420161231153512112/31/16 15:35:31  5-MIN K0J4 312035Z AUTO 14003KT 10SM -RA OVC080 11/07 A3012 130 74 -200 140/03 RMK AO2 P0000 T01110067
63870K0J4 0J420161231154012112/31/16 15:40:31  5-MIN K0J4 312040Z AUTO 13004KT 10SM -RA OVC085 11/07 A3011 140 74 -200 130/04 RMK AO2 P0000 T01110067
63870K0J4 0J420161231154512112/31/16 15:45:31  5-MIN K0J4 312045Z AUTO 12004KT 10SM -RA OVC085 11/07 A3011 140 74 -200 120/04 RMK AO2 P0000 T01110067
63870K0J4 0J420161231155012112/31/16 15:50:31  5-MIN K0J4 312050Z AUTO VRB03KT 10SM -RA OVC080 11/07 A3011 140 74 -200 VRB/03 RMK AO2 P0000 T01110067
63870K0J4 0J420161231155514012/31/16 15:55:31  5-MIN K0J4 312055Z AUTO 12003KT 10SM -RA OVC080 11/07 A3011 140 74 -200 120/03 RMK AO2 SLP196 P0000 60000 T01110067 58030
63870K0J4 0J420161231160012112/31/16 16:00:31  5-MIN K0J4 312100Z AUTO VRB03KT 10SM -RA OVC080 11/07 A3011 140 74 -200 VRB/03 RMK AO2 P0000 T01110067
63870K0J4 0J420161231160512112/31/16 16:05:31  5-MIN K0J4 312105Z AUTO 13003KT 10SM -RA OVC080 11/07 A3012 140 74 -200 130/03 RMK AO2 P0000 T01110067
63870K0J4 0J420161231161012112/31/16 16:10:31  5-MIN K0J4 312110Z AUTO 14003KT 10SM -RA OVC080 11/07 A3012 140 77 -300 140/03 RMK AO2 P0000 T01060067
63870K0J4 0J420161231161512112/31/16 16:15:31  5-MIN K0J4 312115Z AUTO VRB03KT 10SM -RA OVC080 11/07 A3011 140 77 -300 VRB/03 RMK AO2 P0000 T01060067
63870K0J4 0J420161231162012112/31/16 16:20:31  5-MIN K0J4 312120Z AUTO 14005KT 10SM -RA OVC080 11/07 A3011 140 77 -300 140/05 RMK AO2 P0000 T01060067
63870K0J4 0J420161231162512112/31/16 16:25:31  5-MIN K0J4 312125Z AUTO 15003KT 10SM -RA OVC080 11/07 A3011 140 80 -300 150/03 RMK AO2 P0000 T01060072
63870K0J4 0J420161231163012112/31/16 16:30:31  5-MIN K0J4 312130Z AUTO 13004KT 10SM -RA OVC080 11/07 A3011 140 80 -300 130/04 RMK AO2 P0000 T01060072
63870K0J4 0J420161231163512112/31/16 16:35:31  5-MIN K0J4 312135Z AUTO 13004KT 10SM -RA OVC080 11/07 A3011 140 80 -300 130/04 RMK AO2 P0000 T01060072
63870K0J4 0J420161231164012112/31/16 16:40:31  5-MIN K0J4 312140Z AUTO 13003KT 10SM -RA OVC080 11/08 A3011 140 83 -300 130/03 RMK AO2 P0000 T01060078
63870K0J4 0J420161231164512812/31/16 16:45:31  5-MIN K0J4 312145Z AUTO 13005KT 10SM -RA BKN080 OVC090 11/08 A3011 140 83 -300 130/05 RMK AO2 P0000 T01060078
63870K0J4 0J420161231165012112/31/16 16:50:31  5-MIN K0J4 312150Z AUTO VRB03KT 10SM -RA OVC080 11/08 A3011 140 83 -300 VRB/03 RMK AO2 P0000 T01060078
63870K0J4 0J420161231165512812/31/16 16:55:31  5-MIN K0J4 312155Z AUTO 14004KT 10SM -RA OVC085 11/08 A3011 140 83 -300 140/04 RMK AO2 SLP195 P0000 T01060078
63870K0J4 0J420161231170012112/31/16 17:00:31  5-MIN K0J4 312200Z AUTO 14004KT 10SM -RA OVC085 11/08 A3011 140 83 -300 140/04 RMK AO2 P0000 T01060078
63870K0J4 0J420161231170512712/31/16 17:05:31  5-MIN K0J4 312205Z AUTO 14004KT 9SM -RA BKN085 OVC110 11/08 A3011 140 86 -300 140/04 RMK AO2 P0000 T01060083
63870K0J4 0J420161231171012712/31/16 17:10:31  5-MIN K0J4 312210Z AUTO 14005KT 9SM -RA BKN090 OVC110 11/08 A3010 150 86 -300 140/05 RMK AO2 P0000 T01060083
63870K0J4 0J420161231171512812/31/16 17:15:31  5-MIN K0J4 312215Z AUTO 15005KT 10SM -RA BKN090 OVC110 11/08 A3010 150 86 -300 150/05 RMK AO2 P0000 T01060083
63870K0J4 0J420161231172012812/31/16 17:20:31  5-MIN K0J4 312220Z AUTO 14004KT 10SM -RA BKN085 OVC110 11/08 A3010 150 86 -300 140/04 RMK AO2 P0000 T01060083
63870K0J4 0J420161231172512812/31/16 17:25:31  5-MIN K0J4 312225Z AUTO 14004KT 10SM -RA BKN090 OVC110 11/08 A3010 150 86 -300 140/04 RMK AO2 P0000 T01060083
63870K0J4 0J420161231173012812/31/16 17:30:31  5-MIN K0J4 312230Z AUTO 14005KT 10SM -RA BKN090 OVC110 11/08 A3009 160 86 -200 140/05 RMK AO2 P0000 T01060083
63870K0J4 0J420161231173512812/31/16 17:35:31  5-MIN K0J4 312235Z AUTO 14008KT 10SM -RA BKN090 OVC110 11/09 A3009 160 89 -200 140/08 RMK AO2 P0000 T01060089
63870K0J4 0J420161231174012812/31/16 17:40:31  5-MIN K0J4 312240Z AUTO 15008KT 10SM -RA BKN085 OVC110 11/09 A3009 160 89 -200 150/08 RMK AO2 P0000 T01060089
63870K0J4 0J420161231174512812/31/16 17:45:31  5-MIN K0J4 312245Z AUTO 14007KT 10SM -RA BKN090 BKN110 11/08 A3009 160 86 -200 140/07 RMK AO2 P0000 T01060083
63870K0J4 0J420161231175012812/31/16 17:50:31  5-MIN K0J4 312250Z AUTO 14005KT 10SM -RA BKN090 OVC110 11/08 A3009 160 86 -200 140/05 RMK AO2 P0000 T01060083
63870K0J4 0J420161231175513512/31/16 17:55:31  5-MIN K0J4 312255Z AUTO 16007KT 10SM -RA SCT085 OVC110 11/08 A3009 160 83 -200 160/07 RMK AO2 SLP190 P0000 T01110083
63870K0J4 0J420161231180012812/31/16 18:00:31  5-MIN K0J4 312300Z AUTO 15007KT 10SM -RA SCT090 OVC120 11/08 A3009 160 83 -200 150/07 RMK AO2 P0000 T01110083
63870K0J4 0J420161231180513012/31/16 18:05:31  5-MIN K0J4 312305Z AUTO 15006KT 10SM BKN100 OVC120 11/08 A3009 160 83 -200 150/06 RMK AO2 RAE05 P0000 T01110083
63870K0J4 0J420161231181012812/31/16 18:10:31  5-MIN K0J4 312310Z AUTO 15005KT 10SM -RA BKN100 OVC120 11/08 A3009 160 83 -200 150/05 RMK AO2 P0000 T01110083
63870K0J4 0J420161231181512812/31/16 18:15:31  5-MIN K0J4 312315Z AUTO 15006KT 10SM -RA FEW090 OVC110 11/08 A3009 160 83 -200 150/06 RMK AO2 P0000 T01110083
63870K0J4 0J420161231182012812/31/16 18:20:31  5-MIN K0J4 312320Z AUTO 15006KT 10SM -RA FEW055 OVC110 11/08 A3010 150 83 -200 150/06 RMK AO2 P0000 T01110083
63870K0J4 0J420161231182513512/31/16 18:25:31  5-MIN K0J4 312325Z AUTO 15004KT 10SM -RA FEW055 SCT090 OVC110 11/08 A3010 150 83 -200 150/04 RMK AO2 P0000 T01110083
63870K0J4 0J420161231183012812/31/16 18:30:31  5-MIN K0J4 312330Z AUTO 15006KT 10SM -RA SCT090 OVC110 11/08 A3010 150 83 -200 150/06 RMK AO2 P0000 T01110083
63870K0J4 0J420161231183512812/31/16 18:35:31  5-MIN K0J4 312335Z AUTO 15006KT 10SM -RA BKN090 OVC110 11/08 A3009 160 83 -200 150/06 RMK AO2 P0000 T01110083
63870K0J4 0J420161231184012612/31/16 18:40:31  5-MIN K0J4 312340Z AUTO 15006KT 9SM RA BKN090 OVC110 11/08 A3009 160 83 -200 150/06 RMK AO2 P0000 T01110083
63870K0J4 0J420161231184512612/31/16 18:45:31  5-MIN K0J4 312345Z AUTO 14005KT 7SM RA BKN090 OVC110 11/08 A3009 160 83 -200 140/05 RMK AO2 P0001 T01110083
63870K0J4 0J420161231185012712/31/16 18:50:31  5-MIN K0J4 312350Z AUTO 15007KT 8SM -RA BKN090 OVC110 11/09 A3009 160 86 -200 150/07 RMK AO2 P0001 T01110089
63870K0J4 0J420161231185515212/31/16 18:55:31  5-MIN K0J4 312355Z AUTO 15008KT 10SM -RA BKN090 11/09 A3008 170 89 -200 150/08 RMK AO2 SLP185 P0001 60002 T01060089 10128 20106 56018
63870K0J4 0J420161231190013512/31/16 19:00:31  5-MIN K0J4 010000Z AUTO 15007KT 10SM -RA FEW035 BKN095 OVC110 11/09 A3008 170 89 -200 150/07 RMK AO2 P0000 T01060089
63870K0J4 0J420161231190512812/31/16 19:05:31  5-MIN K0J4 010005Z AUTO 15005KT 10SM -RA SCT039 BKN100 11/09 A3009 160 89 -200 150/05 RMK AO2 P0000 T01060089
63870K0J4 0J420161231191012812/31/16 19:10:31  5-MIN K0J4 010010Z AUTO 16005KT 10SM -RA FEW039 OVC100 11/09 A3009 160 86 -200 160/05 RMK AO2 P0000 T01110089
63870K0J4 0J420161231191513012/31/16 19:15:31  5-MIN K0J4 010015Z AUTO 16006KT 10SM FEW039 OVC100 11/09 A3009 160 89 -200 160/06 RMK AO2 RAE13 P0000 T01060089
63870K0J4 0J420161231192012812/31/16 19:20:31  5-MIN K0J4 010020Z AUTO 15006KT 10SM -RA FEW039 OVC100 11/09 A3009 160 86 -200 150/06 RMK AO2 P0000 T01110089
63870K0J4 0J420161231192512812/31/16 19:25:31  5-MIN K0J4 010025Z AUTO 15005KT 10SM -RA FEW038 OVC100 11/09 A3010 150 86 -200 150/05 RMK AO2 P0000 T01110089
63870K0J4 0J420161231193012112/31/16 19:30:31  5-MIN K0J4 010030Z AUTO 15004KT 10SM -RA OVC100 11/09 A3010 150 86 -200 150/04 RMK AO2 P0000 T01110089
63870K0J4 0J420161231193512112/31/16 19:35:31  5-MIN K0J4 010035Z AUTO 16005KT 10SM -RA OVC100 11/09 A3010 150 86 -200 160/05 RMK AO2 P0000 T01110089
63870K0J4 0J420161231194012112/31/16 19:40:31  5-MIN K0J4 010040Z AUTO 16006KT 10SM -RA OVC095 11/09 A3011 140 86 -200 160/06 RMK AO2 P0001 T01110089
63870K0J4 0J420161231194512112/31/16 19:45:31  5-MIN K0J4 010045Z AUTO 15007KT 10SM -RA OVC095 11/09 A3011 140 86 -200 150/07 RMK AO2 P0001 T01110089
63870K0J4 0J420161231195012112/31/16 19:50:31  5-MIN K0J4 010050Z AUTO 16006KT 10SM -RA OVC090 11/09 A3011 150 86 -200 160/06 RMK AO2 P0001 T01110089
63870K0J4 0J420161231195512812/31/16 19:55:31  5-MIN K0J4 010055Z AUTO 15005KT 10SM -RA OVC090 11/09 A3010 150 86 -200 150/05 RMK AO2 SLP193 P0001 T01110089
63870K0J4 0J420161231200012112/31/16 20:00:31  5-MIN K0J4 010100Z AUTO 15006KT 10SM -RA OVC090 11/09 A3010 150 86 -200 150/06 RMK AO2 P0000 T01110089
63870K0J4 0J420161231200511912/31/16 20:05:31  5-MIN K0J4 010105Z AUTO 14006KT 9SM RA OVC095 11/09 A3009 160 86 -200 140/06 RMK AO2 P0001 T01110089
63870K0J4 0J420161231201011912/31/16 20:10:31  5-MIN K0J4 010110Z AUTO 15006KT 8SM RA OVC095 11/09 A3009 160 86 -200 150/06 RMK AO2 P0001 T01110089
63870K0J4 0J420161231201512612/31/16 20:15:31  5-MIN K0J4 010115Z AUTO 15005KT 8SM RA BKN095 OVC110 11/09 A3009 160 89 -200 150/05 RMK AO2 P0002 T01060089
