04850KAOH AOH20160601000010806/01/16 00:00:31  5-MIN KAOH 010500Z AUTO 07009KT 10SM CLR 19/09 A3001 890 50 1700 080/09 RMK AO2 T01940089
04850KAOH AOH20160601000510806/01/16 00:05:31  5-MIN KAOH 010505Z AUTO 08009KT 10SM CLR 19/09 A3001 890 50 1700 090/09 RMK AO2 T01940089
04850KAOH AOH20160601001010806/01/16 00:10:31  5-MIN KAOH 010510Z AUTO 08008KT 10SM CLR 19/09 A3002 890 50 1700 090/08 RMK AO2 T01940089
04850KAOH AOH20160601001510806/01/16 00:15:31  5-MIN KAOH 010515Z AUTO 08008KT 10SM CLR 19/09 A3002 890 50 1700 090/08 RMK AO2 T01940089
04850KAOH AOH20160601002010806/01/16 00:20:31  5-MIN KAOH 010520Z AUTO 09007KT 10SM CLR 19/09 A3001 890 52 1600 100/07 RMK AO2 T01890089
04850KAOH AOH20160601002510806/01/16 00:25:31  5-MIN KAOH 010525Z AUTO 09009KT 10SM CLR 19/09 A3001 890 52 1600 090/09 RMK AO2 T01890089
04850KAOH AOH20160601003010806/01/16 00:30:31  5-MIN KAOH 010530Z AUTO 09009KT 10SM CLR 19/09 A3001 900 52 1600 090/09 RMK AO2 T01890089
04850KAOH AOH20160601003510806/01/16 00:35:31  5-MIN KAOH 010535Z AUTO 09009KT 10SM CLR 19/09 A3001 900 52 1600 100/09 RMK AO2 T01890089
04850KAOH AOH20160601004010806/01/16 00:40:31  5-MIN KAOH 010540Z AUTO 09009KT 10SM CLR 19/09 A3000 900 54 1600 100/09 RMK AO2 T01890094
04850KAOH AOH20160601004510806/01/16 00:45:31  5-MIN KAOH 010545Z AUTO 09010KT 10SM CLR 19/09 A3000 900 52 1600 090/10 RMK AO2 T01890089
04850KAOH AOH20160601005013306/01/16 00:50:31  5-MIN KAOH 010550Z AUTO 09009KT 10SM CLR 19/09 A3000 900 52 1600 090/09 RMK AO2 SLP153 T01890089 10267 20189 51009
04850KAOH AOH20160601005510806/01/16 00:55:31  5-MIN KAOH 010555Z AUTO 09009KT 10SM CLR 19/09 A3000 900 54 1600 090/09 RMK AO2 T01890094
04850KAOH AOH20160601010010806/01/16 01:00:31  5-MIN KAOH 010600Z AUTO 08008KT 10SM CLR 19/09 A3001 900 54 1600 090/08 RMK AO2 T01890094
04850KAOH AOH20160601010510806/01/16 01:05:31  5-MIN KAOH 010605Z AUTO 08008KT 10SM CLR 18/09 A3000 900 56 1500 090/08 RMK AO2 T01830094
04850KAOH AOH20160601011010806/01/16 01:10:31  5-MIN KAOH 010610Z AUTO 08009KT 10SM CLR 18/09 A3000 900 56 1500 090/09 RMK AO2 T01830094
04850KAOH AOH20160601011510806/01/16 01:15:31  5-MIN KAOH 010615Z AUTO 09008KT 10SM CLR 18/09 A3000 900 56 1500 090/08 RMK AO2 T01830094
04850KAOH AOH20160601012010806/01/16 01:20:31  5-MIN KAOH 010620Z AUTO 09007KT 10SM CLR 18/09 A3000 900 56 1500 090/07 RMK AO2 T01830094
04850KAOH AOH20160601012510806/01/16 01:25:31  5-MIN KAOH 010625Z AUTO 08007KT 10SM CLR 18/09 A3000 900 56 1500 090/07 RMK AO2 T01830094
04850KAOH AOH20160601013010806/01/16 01:30:31  5-MIN KAOH 010630Z AUTO 09006KT 10SM CLR 18/09 A3000 900 56 1500 090/06 RMK AO2 T01830094
04850KAOH AOH20160601013510806/01/16 01:35:31  5-MIN KAOH 010635Z AUTO 09005KT 10SM CLR 18/09 A3000 900 58 1500 090/05 RMK AO2 T01780094
04850KAOH AOH20160601014010806/01/16 01:40:31  5-MIN KAOH 010640Z AUTO 09005KT 10SM CLR 18/09 A3000 900 58 1500 090/05 RMK AO2 T01780094
04850KAOH AOH20160601014510806/01/16 01:45:31  5-MIN KAOH 010645Z AUTO 08006KT 10SM CLR 18/09 A3000 910 58 1500 090/06 RMK AO2 T01780094
04850KAOH AOH20160601015011506/01/16 01:50:31  5-MIN KAOH 010650Z AUTO 08006KT 10SM CLR 18/10 A3000 910 60 1500 090/06 RMK AO2 SLP151 T01780100
04850KAOH AOH20160601015510806/01/16 01:55:31  5-MIN KAOH 010655Z AUTO 08006KT 10SM CLR 18/10 A3000 910 60 1500 080/06 RMK AO2 T01780100
04850KAOH AOH20160601020010806/01/16 02:00:31  5-MIN KAOH 010700Z AUTO 08005KT 10SM CLR 18/10 A3000 900 60 1500 080/05 RMK AO2 T01780100
04850KAOH AOH20160601020510806/01/16 02:05:31  5-MIN KAOH 010705Z AUTO 08005KT 10SM CLR 18/10 A3000 900 60 1500 090/05 RMK AO2 T01780100
04850KAOH AOH20160601021010806/01/16 02:10:31  5-MIN KAOH 010710Z AUTO 08005KT 10SM CLR 17/10 A3000 900 62 1400 090/05 RMK AO2 T01720100
04850KAOH AOH20160601021510806/01/16 02:15:31  5-MIN KAOH 010715Z AUTO 09004KT 10SM CLR 17/10 A3000 900 62 1400 090/04 RMK AO2 T01720100
04850KAOH AOH20160601022010806/01/16 02:20:31  5-MIN KAOH 010720Z AUTO 08004KT 10SM CLR 17/10 A3000 900 62 1400 090/04 RMK AO2 T01720100
04850KAOH AOH20160601022510806/01/16 02:25:31  5-MIN KAOH 010725Z AUTO 07004KT 10SM CLR 17/10 A3000 900 62 1400 080/04 RMK AO2 T01720100
04850KAOH AOH20160601023010806/01/16 02:30:31  5-MIN KAOH 010730Z AUTO 07004KT 10SM CLR 17/10 A3000 900 62 1400 080/04 RMK AO2 T01720100
04850KAOH AOH20160601023510806/01/16 02:35:31  5-MIN KAOH 010735Z AUTO 08004KT 10SM CLR 17/10 A3000 900 62 1400 080/04 RMK AO2 T01720100
04850KAOH AOH20160601024010806/01/16 02:40:31  5-MIN KAOH 010740Z AUTO 08004KT 10SM CLR 17/10 A3000 900 62 1400 090/04 RMK AO2 T01720100
04850KAOH AOH20160601024510806/01/16 02:45:31  5-MIN KAOH 010745Z AUTO 08005KT 10SM CLR 17/10 A3000 900 62 1400 090/05 RMK AO2 T01720100
04850KAOH AOH20160601025011506/01/16 02:50:31  5-MIN KAOH 010750Z AUTO 08004KT 10SM CLR 17/10 A3000 900 64 1300 090/04 RMK AO2 SLP152 T01670100
04850KAOH AOH20160601025510806/01/16 02:55:31  5-MIN KAOH 010755Z AUTO 08004KT 10SM CLR 17/10 A3000 900 64 1300 080/04 RMK AO2 T01670100
04850KAOH AOH20160601030010806/01/16 03:00:31  5-MIN KAOH 010800Z AUTO 07003KT 10SM CLR 17/10 A3000 900 62 1400 080/03 RMK AO2 T01720100
04850KAOH AOH20160601030510806/01/16 03:05:31  5-MIN KAOH 010805Z AUTO 08003KT 10SM CLR 17/10 A3000 900 62 1400 080/03 RMK AO2 T01720100
04850KAOH AOH20160601031010806/01/16 03:10:31  5-MIN KAOH 010810Z AUTO 07004KT 10SM CLR 17/10 A3000 900 62 1400 080/04 RMK AO2 T01720100
04850KAOH AOH20160601031510806/01/16 03:15:31  5-MIN KAOH 010815Z AUTO 08005KT 10SM CLR 17/10 A3000 910 64 1400 080/05 RMK AO2 T01670100
04850KAOH AOH20160601032010806/01/16 03:20:31  5-MIN KAOH 010820Z AUTO 08004KT 10SM CLR 17/11 A3000 900 67 1300 080/04 RMK AO2 T01670106
04850KAOH AOH20160601032510806/01/16 03:25:31  5-MIN KAOH 010825Z AUTO 08004KT 10SM CLR 17/10 A3000 900 64 1300 090/04 RMK AO2 T01670100
04850KAOH AOH20160601033010806/01/16 03:30:31  5-MIN KAOH 010830Z AUTO 09005KT 10SM CLR 17/11 A3000 900 67 1300 090/05 RMK AO2 T01670106
04850KAOH AOH20160601033510806/01/16 03:35:31  5-MIN KAOH 010835Z AUTO 09005KT 10SM CLR 16/11 A3000 900 69 1300 100/05 RMK AO2 T01610106
04850KAOH AOH20160601034010806/01/16 03:40:31  5-MIN KAOH 010840Z AUTO 10005KT 10SM CLR 17/11 A3000 900 67 1300 110/05 RMK AO2 T01670106
04850KAOH AOH20160601034510806/01/16 03:45:31  5-MIN KAOH 010845Z AUTO 10006KT 10SM CLR 17/11 A3001 900 67 1300 100/06 RMK AO2 T01670106
04850KAOH AOH20160601035012106/01/16 03:50:31  5-MIN KAOH 010850Z AUTO 10005KT 10SM CLR 17/11 A3000 900 67 1300 110/05 RMK AO2 SLP153 T01670106 58003
04850KAOH AOH20160601035510806/01/16 03:55:31  5-MIN KAOH 010855Z AUTO 10005KT 10SM CLR 17/11 A3000 900 67 1300 100/05 RMK AO2 T01670106
04850KAOH AOH20160601040010806/01/16 04:00:31  5-MIN KAOH 010900Z AUTO 10005KT 10SM CLR 17/11 A3000 900 67 1300 100/05 RMK AO2 T01670106
04850KAOH AOH20160601040510806/01/16 04:05:31  5-MIN KAOH 010905Z AUTO 09006KT 10SM CLR 17/11 A3000 900 67 1300 100/06 RMK AO2 T01670106
04850KAOH AOH20160601041010806/01/16 04:10:31  5-MIN KAOH 010910Z AUTO 08006KT 10SM CLR 17/11 A3000 900 67 1400 090/06 RMK AO2 T01670106
04850KAOH AOH20160601041510806/01/16 04:15:31  5-MIN KAOH 010915Z AUTO 09007KT 10SM CLR 17/11 A3000 910 67 1400 090/07 RMK AO2 T01670106
04850KAOH AOH20160601042010806/01/16 04:20:31  5-MIN KAOH 010920Z AUTO 09006KT 10SM CLR 17/11 A3000 910 67 1400 100/06 RMK AO2 T01670106
04850KAOH AOH20160601042510806/01/16 04:25:31  5-MIN KAOH 010925Z AUTO 10005KT 10SM CLR 17/11 A3000 910 67 1400 100/05 RMK AO2 T01670106
04850KAOH AOH20160601043010806/01/16 04:30:31  5-MIN KAOH 010930Z AUTO 09006KT 10SM CLR 17/11 A3000 910 67 1400 100/06 RMK AO2 T01670106
04850KAOH AOH20160601043510806/01/16 04:35:31  5-MIN KAOH 010935Z AUTO 09007KT 10SM CLR 17/11 A3000 900 67 1400 090/07 RMK AO2 T01670106
04850KAOH AOH20160601044010806/01/16 04:40:31  5-MIN KAOH 010940Z AUTO 09007KT 10SM CLR 17/11 A3000 910 67 1400 100/07 RMK AO2 T01670106
04850KAOH AOH20160601044510806/01/16 04:45:31  5-MIN KAOH 010945Z AUTO 09007KT 10SM CLR 17/11 A3000 900 67 1300 100/07 RMK AO2 T01670106
04850KAOH AOH20160601045011506/01/16 04:50:31  5-MIN KAOH 010950Z AUTO 10008KT 10SM CLR 17/11 A3000 900 67 1300 100/08 RMK AO2 SLP152 T01670106
04850KAOH AOH20160601045510806/01/16 04:55:31  5-MIN KAOH 010955Z AUTO 09007KT 10SM CLR 17/10 A3000 900 64 1300 100/07 RMK AO2 T01670100
04850KAOH AOH20160601050010806/01/16 05:00:31  5-MIN KAOH 011000Z AUTO 10006KT 10SM CLR 17/11 A3000 900 67 1300 100/06 RMK AO2 T01670106
04850KAOH AOH20160601050510806/01/16 05:05:31  5-MIN KAOH 011005Z AUTO 10007KT 10SM CLR 17/11 A3000 900 67 1300 100/07 RMK AO2 T01670106
04850KAOH AOH20160601051010806/01/16 05:10:31  5-MIN KAOH 011010Z AUTO 10006KT 10SM CLR 17/11 A3001 900 67 1300 110/06 RMK AO2 T01670106
04850KAOH AOH20160601051510806/01/16 05:15:31  5-MIN KAOH 011015Z AUTO 11004KT 10SM CLR 17/10 A3001 900 64 1300 110/04 RMK AO2 T01670100
04850KAOH AOH20160601052010806/01/16 05:20:31  5-MIN KAOH 011020Z AUTO 11004KT 10SM CLR 17/10 A3001 900 64 1300 110/04 RMK AO2 T01670100
04850KAOH AOH20160601052510806/01/16 05:25:31  5-MIN KAOH 011025Z AUTO 11005KT 10SM CLR 17/10 A3001 900 64 1300 110/05 RMK AO2 T01670100
04850KAOH AOH20160601053010806/01/16 05:30:31  5-MIN KAOH 011030Z AUTO 10007KT 10SM CLR 17/11 A3001 900 67 1300 110/07 RMK AO2 T01670106
04850KAOH AOH20160601053510806/01/16 05:35:31  5-MIN KAOH 011035Z AUTO 09006KT 10SM CLR 17/11 A3001 900 67 1300 100/06 RMK AO2 T01670106
04850KAOH AOH20160601054010806/01/16 05:40:31  5-MIN KAOH 011040Z AUTO 09006KT 10SM CLR 17/11 A3001 900 67 1300 100/06 RMK AO2 T01670106
04850KAOH AOH20160601054510806/01/16 05:45:31  5-MIN KAOH 011045Z AUTO 08005KT 10SM CLR 17/11 A3001 900 67 1300 090/05 RMK AO2 T01670106
04850KAOH AOH20160601055011506/01/16 05:50:31  5-MIN KAOH 011050Z AUTO 08006KT 10SM CLR 17/11 A3001 900 67 1300 080/06 RMK AO2 SLP156 T01670106
04850KAOH AOH20160601055510806/01/16 05:55:31  5-MIN KAOH 011055Z AUTO 08005KT 10SM CLR 17/11 A3001 900 67 1300 090/05 RMK AO2 T01670106
04850KAOH AOH20160601060010806/01/16 06:00:31  5-MIN KAOH 011100Z AUTO 08005KT 10SM CLR 17/11 A3001 900 67 1300 090/05 RMK AO2 T01670106
04850KAOH AOH20160601060510806/01/16 06:05:31  5-MIN KAOH 011105Z AUTO 09006KT 10SM CLR 17/11 A3001 900 67 1300 090/06 RMK AO2 T01670106
04850KAOH AOH20160601061010806/01/16 06:10:31  5-MIN KAOH 011110Z AUTO 09005KT 10SM CLR 17/11 A3001 900 67 1400 090/05 RMK AO2 T01720111
04850KAOH AOH20160601061510806/01/16 06:15:31  5-MIN KAOH 011115Z AUTO 09005KT 10SM CLR 17/11 A3001 890 67 1400 090/05 RMK AO2 T01720111
04850KAOH AOH20160601062010806/01/16 06:20:31  5-MIN KAOH 011120Z AUTO 09006KT 10SM CLR 18/11 A3001 890 64 1500 090/06 RMK AO2 T01780111
04850KAOH AOH20160601062510806/01/16 06:25:31  5-MIN KAOH 011125Z AUTO 09007KT 10SM CLR 18/11 A3001 890 64 1500 100/07 RMK AO2 T01780111
04850KAOH AOH20160601063010806/01/16 06:30:31  5-MIN KAOH 011130Z AUTO 10007KT 10SM CLR 18/11 A3001 890 64 1500 100/07 RMK AO2 T01780111
04850KAOH AOH20160601063510806/01/16 06:35:31  5-MIN KAOH 011135Z AUTO 10006KT 10SM CLR 18/11 A3001 890 62 1500 100/06 RMK AO2 T01830111
04850KAOH AOH20160601064010806/01/16 06:40:31  5-MIN KAOH 011140Z AUTO 09009KT 10SM CLR 18/11 A3001 890 62 1500 100/09 RMK AO2 T01830111
04850KAOH AOH20160601064510806/01/16 06:45:31  5-MIN KAOH 011145Z AUTO 09007KT 10SM CLR 18/11 A3001 890 62 1500 090/07 RMK AO2 T01830111
04850KAOH AOH20160601065013306/01/16 06:50:31  5-MIN KAOH 011150Z AUTO 09006KT 10SM CLR 18/11 A3001 890 62 1500 090/06 RMK AO2 SLP157 T01830111 10189 20161 55001
04850KAOH AOH20160601065510806/01/16 06:55:31  5-MIN KAOH 011155Z AUTO 09006KT 10SM CLR 19/11 A3002 890 60 1600 100/06 RMK AO2 T01890111
04850KAOH AOH20160601070010806/01/16 07:00:31  5-MIN KAOH 011200Z AUTO 10006KT 10SM CLR 19/11 A3002 890 60 1600 100/06 RMK AO2 T01890111
04850KAOH AOH20160601070510806/01/16 07:05:31  5-MIN KAOH 011205Z AUTO 10006KT 10SM CLR 19/11 A3002 890 58 1700 110/06 RMK AO2 T01940111
04850KAOH AOH20160601071010806/01/16 07:10:31  5-MIN KAOH 011210Z AUTO 10006KT 10SM CLR 19/11 A3002 890 58 1700 110/06 RMK AO2 T01940111
04850KAOH AOH20160601071510806/01/16 07:15:31  5-MIN KAOH 011215Z AUTO 11007KT 10SM CLR 19/11 A3002 890 58 1700 110/07 RMK AO2 T01940111
04850KAOH AOH20160601072010806/01/16 07:20:31  5-MIN KAOH 011220Z AUTO 11006KT 10SM CLR 20/11 A3002 890 56 1700 120/06 RMK AO2 T02000111
04850KAOH AOH20160601072510806/01/16 07:25:31  5-MIN KAOH 011225Z AUTO 12008KT 10SM CLR 20/12 A3002 890 58 1700 130/08 RMK AO2 T02000117
04850KAOH AOH20160601073010806/01/16 07:30:31  5-MIN KAOH 011230Z AUTO 12007KT 10SM CLR 21/12 A3002 890 56 1800 130/07 RMK AO2 T02060117
04850KAOH AOH20160601073510806/01/16 07:35:31  5-MIN KAOH 011235Z AUTO 12008KT 10SM CLR 21/12 A3002 890 56 1800 120/08 RMK AO2 T02060117
04850KAOH AOH20160601074010806/01/16 07:40:31  5-MIN KAOH 011240Z AUTO 11007KT 10SM CLR 21/12 A3002 890 56 1800 120/07 RMK AO2 T02060117
04850KAOH AOH20160601074511106/01/16 07:45:31  5-MIN KAOH 011245Z AUTO 11006KT 10SM FEW070 21/12 A3002 890 54 1800 120/06 RMK AO2 T02110117
04850KAOH AOH20160601075011806/01/16 07:50:31  5-MIN KAOH 011250Z AUTO 12007KT 10SM FEW070 22/12 A3002 890 54 1900 120/07 RMK AO2 SLP157 T02170122
04850KAOH AOH20160601075510806/01/16 07:55:31  5-MIN KAOH 011255Z AUTO 12007KT 10SM CLR 22/12 A3001 890 54 1900 120/07 RMK AO2 T02170122
04850KAOH AOH20160601080010806/01/16 08:00:31  5-MIN KAOH 011300Z AUTO 11006KT 10SM CLR 22/12 A3001 890 54 1900 120/06 RMK AO2 T02170122
04850KAOH AOH20160601080510806/01/16 08:05:31  5-MIN KAOH 011305Z AUTO 12007KT 10SM CLR 22/12 A3001 890 52 2000 130/07 RMK AO2 T02220122
04850KAOH AOH20160601081010806/01/16 08:10:31  5-MIN KAOH 011310Z AUTO 12006KT 10SM CLR 22/13 A3001 890 54 2000 130/06 RMK AO2 T02220128
04850KAOH AOH20160601081510806/01/16 08:15:31  5-MIN KAOH 011315Z AUTO 13006KT 10SM CLR 23/13 A3001 890 53 2000 130/06 RMK AO2 T02280128
04850KAOH AOH20160601082010806/01/16 08:20:31  5-MIN KAOH 011320Z AUTO 13008KT 10SM CLR 23/13 A3001 890 51 2100 140/08 RMK AO2 T02330128
04850KAOH AOH20160601082510806/01/16 08:25:31  5-MIN KAOH 011325Z AUTO 13006KT 10SM CLR 23/13 A3001 890 51 2100 140/06 RMK AO2 T02330128
04850KAOH AOH20160601083010806/01/16 08:30:31  5-MIN KAOH 011330Z AUTO 13007KT 10SM CLR 23/13 A3001 890 53 2100 140/07 RMK AO2 T02330133
04850KAOH AOH20160601083510806/01/16 08:35:31  5-MIN KAOH 011335Z AUTO 14006KT 10SM CLR 24/13 A3001 900 51 2200 150/06 RMK AO2 T02390133
04850KAOH AOH20160601084010806/01/16 08:40:31  5-MIN KAOH 011340Z AUTO 15006KT 10SM CLR 24/13 A3001 900 51 2200 160/06 RMK AO2 T02390133
04850KAOH AOH20160601084510806/01/16 08:45:31  5-MIN KAOH 011345Z AUTO 14006KT 10SM CLR 24/13 A3001 900 49 2200 150/06 RMK AO2 T02440133
04850KAOH AOH20160601085011506/01/16 08:50:31  5-MIN KAOH 011350Z AUTO 15007KT 10SM CLR 24/14 A3001 900 51 2200 160/07 RMK AO2 SLP154 T02440139
04850KAOH AOH20160601085510806/01/16 08:55:31  5-MIN KAOH 011355Z AUTO 16007KT 10SM CLR 25/14 A3000 900 49 2300 160/07 RMK AO2 T02500139
04850KAOH AOH20160601090010806/01/16 09:00:31  5-MIN KAOH 011400Z AUTO 15005KT 10SM CLR 25/14 A3000 900 51 2300 160/05 RMK AO2 T02500144
04850KAOH AOH20160601090510806/01/16 09:05:31  5-MIN KAOH 011405Z AUTO 15007KT 10SM CLR 26/14 A3000 900 46 2400 150/07 RMK AO2 T02610139
04850KAOH AOH20160601091010806/01/16 09:10:31  5-MIN KAOH 011410Z AUTO 16005KT 10SM CLR 26/14 A3000 900 49 2400 160/05 RMK AO2 T02560144
04850KAOH AOH20160601091510806/01/16 09:15:31  5-MIN KAOH 011415Z AUTO 15006KT 10SM CLR 26/14 A3000 900 48 2400 160/06 RMK AO2 T02610144
04850KAOH AOH20160601092010806/01/16 09:20:31  5-MIN KAOH 011420Z AUTO 15006KT 10SM CLR 26/14 A3000 900 48 2400 150/06 RMK AO2 T02610144
04850KAOH AOH20160601092510806/01/16 09:25:31  5-MIN KAOH 011425Z AUTO 15007KT 10SM CLR 27/14 A3000 900 46 2500 160/07 RMK AO2 T02670144
04850KAOH AOH20160601093010806/01/16 09:30:31  5-MIN KAOH 011430Z AUTO 16007KT 10SM CLR 27/14 A3000 900 46 2500 160/07 RMK AO2 T02670144
04850KAOH AOH20160601093510806/01/16 09:35:31  5-MIN KAOH 011435Z AUTO 18006KT 10SM CLR 27/15 A3000 900 46 2600 190/06 RMK AO2 T02720150
04850KAOH AOH20160601094010806/01/16 09:40:31  5-MIN KAOH 011440Z AUTO 16005KT 10SM CLR 27/15 A3000 900 46 2600 160/05 RMK AO2 T02720150
04850KAOH AOH20160601094510806/01/16 09:45:31  5-MIN KAOH 011445Z AUTO 17006KT 10SM CLR 27/15 A3000 900 46 2600 180/06 RMK AO2 T02720150
04850KAOH AOH20160601095012106/01/16 09:50:31  5-MIN KAOH 011450Z AUTO VRB05KT 10SM CLR 27/15 A3000 900 46 2600 VRB/05 RMK AO2 SLP151 T02720150 53004
04850KAOH AOH20160601095510806/01/16 09:55:31  5-MIN KAOH 011455Z AUTO 18006KT 10SM CLR 28/15 A3000 900 45 2600 180/06 RMK AO2 T02780150
04850KAOH AOH20160601100010806/01/16 10:00:31  5-MIN KAOH 011500Z AUTO 15005KT 10SM CLR 28/15 A3000 900 45 2600 160/05 RMK AO2 T02780150
04850KAOH AOH20160601100510806/01/16 10:05:31  5-MIN KAOH 011505Z AUTO VRB06KT 10SM CLR 28/14 A3000 900 42 2700 VRB/06 RMK AO2 T02830144
04850KAOH AOH20160601101010806/01/16 10:10:31  5-MIN KAOH 011510Z AUTO 17008KT 10SM CLR 28/14 A3000 910 42 2600 180/08 RMK AO2 T02780139
04850KAOH AOH20160601101510806/01/16 10:15:31  5-MIN KAOH 011515Z AUTO 16009KT 10SM CLR 28/14 A3000 910 42 2700 170/09 RMK AO2 T02830144
04850KAOH AOH20160601102010806/01/16 10:20:31  5-MIN KAOH 011520Z AUTO 17007KT 10SM CLR 28/14 A3000 910 42 2700 170/07 RMK AO2 T02830144
04850KAOH AOH20160601102510806/01/16 10:25:31  5-MIN KAOH 011525Z AUTO 18007KT 10SM CLR 28/14 A3000 910 40 2700 180/07 RMK AO2 T02830139
04850KAOH AOH20160601103010806/01/16 10:30:31  5-MIN KAOH 011530Z AUTO 20006KT 10SM CLR 28/14 A3000 910 42 2700 210/06 RMK AO2 T02830144
04850KAOH AOH20160601103512706/01/16 10:35:31  5-MIN KAOH 011535Z AUTO 17007KT 130V200 10SM FEW060 29/14 A2999 910 39 2700 180/07 140V210 RMK AO2 T02890139
04850KAOH AOH20160601104010806/01/16 10:40:31  5-MIN KAOH 011540Z AUTO 16010KT 10SM CLR 29/14 A2999 910 39 2700 160/10 RMK AO2 T02890139
04850KAOH AOH20160601104510806/01/16 10:45:31  5-MIN KAOH 011545Z AUTO 15011KT 10SM CLR 29/14 A2999 910 39 2700 160/11 RMK AO2 T02890139
04850KAOH AOH20160601105011506/01/16 10:50:31  5-MIN KAOH 011550Z AUTO 17010KT 10SM CLR 29/13 A2999 910 38 2700 180/10 RMK AO2 SLP149 T02890133
04850KAOH AOH20160601105510806/01/16 10:55:31  5-MIN KAOH 011555Z AUTO 15010KT 10SM CLR 29/14 A2999 910 38 2800 150/10 RMK AO2 T02940139
04850KAOH AOH20160601110010806/01/16 11:00:31  5-MIN KAOH 011600Z AUTO 18012KT 10SM CLR 29/13 A2999 910 36 2800 190/12 RMK AO2 T02940133
04850KAOH AOH20160601110510806/01/16 11:05:31  5-MIN KAOH 011605Z AUTO 16006KT 10SM CLR 29/13 A2999 910 38 2800 170/06 RMK AO2 T02890133
04850KAOH AOH20160601111011706/01/16 11:10:31  5-MIN KAOH 011610Z AUTO 19009G15KT 10SM FEW070 28/13 A2999 920 37 2700 190/09G15 RMK AO2 T02830128
04850KAOH AOH20160601111511706/01/16 11:15:31  5-MIN KAOH 011615Z AUTO 20009G15KT 10SM FEW070 28/13 A2999 920 39 2700 200/09G15 RMK AO2 T02830133
04850KAOH AOH20160601112011106/01/16 11:20:31  5-MIN KAOH 011620Z AUTO 20006KT 10SM FEW070 29/14 A2998 920 39 2800 210/06 RMK AO2 T02890139
04850KAOH AOH20160601112511706/01/16 11:25:31  5-MIN KAOH 011625Z AUTO 19007G15KT 10SM FEW070 29/13 A2998 920 36 2800 190/07G15 RMK AO2 T02890128
04850KAOH AOH20160601113011106/01/16 11:30:31  5-MIN KAOH 011630Z AUTO 17009KT 10SM FEW070 29/13 A2998 920 36 2800 170/09 RMK AO2 T02940133
04850KAOH AOH20160601113511106/01/16 11:35:31  5-MIN KAOH 011635Z AUTO 16008KT 10SM SCT070 29/13 A2998 920 35 2800 170/08 RMK AO2 T02940128
04850KAOH AOH20160601114011106/01/16 11:40:31  5-MIN KAOH 011640Z AUTO 19008KT 10SM FEW070 29/12 A2998 920 33 2800 200/08 RMK AO2 T02940117
04850KAOH AOH20160601114511106/01/16 11:45:31  5-MIN KAOH 011645Z AUTO 15008KT 10SM FEW070 30/12 A2998 930 33 2900 150/08 RMK AO2 T03000122
04850KAOH AOH20160601115012406/01/16 11:50:31  5-MIN KAOH 011650Z AUTO VRB03G16KT 10SM FEW070 29/12 A2998 930 34 2800 VRB/03G16 RMK AO2 SLP143 T02940122
04850KAOH AOH20160601115511106/01/16 11:55:31  5-MIN KAOH 011655Z AUTO 20006KT 10SM FEW070 30/13 A2997 930 35 2900 210/06 RMK AO2 T03000133
04850KAOH AOH20160601120011406/01/16 12:00:31  5-MIN KAOH 011700Z AUTO 19011G17KT 10SM CLR 30/13 A2998 930 34 2900 200/11G17 RMK AO2 T03000128
04850KAOH AOH20160601120511706/01/16 12:05:31  5-MIN KAOH 011705Z AUTO 17006G17KT 10SM FEW080 29/12 A2997 930 34 2800 180/06G17 RMK AO2 T02940122
04850KAOH AOH20160601121011706/01/16 12:10:31  5-MIN KAOH 011710Z AUTO 15013G16KT 10SM FEW080 30/12 A2997 930 33 2900 150/13G16 RMK AO2 T03000122
04850KAOH AOH20160601121511706/01/16 12:15:31  5-MIN KAOH 011715Z AUTO 16011G19KT 10SM FEW085 31/11 A2997 930 29 3000 170/11G19 RMK AO2 T03060111
04850KAOH AOH20160601122011706/01/16 12:20:31  5-MIN KAOH 011720Z AUTO 16011G19KT 10SM FEW080 31/12 A2997 930 32 3000 170/11G19 RMK AO2 T03060122
04850KAOH AOH20160601122511706/01/16 12:25:31  5-MIN KAOH 011725Z AUTO 17008G17KT 10SM FEW085 31/12 A2997 930 30 3000 170/08G17 RMK AO2 T03060117
04850KAOH AOH20160601123011106/01/16 12:30:31  5-MIN KAOH 011730Z AUTO 15010KT 10SM SCT090 31/12 A2997 930 32 3000 160/10 RMK AO2 T03060122
04850KAOH AOH20160601123511706/01/16 12:35:31  5-MIN KAOH 011735Z AUTO 21007G14KT 10SM FEW090 31/12 A2997 930 32 3000 220/07G14 RMK AO2 T03060122
04850KAOH AOH20160601124011706/01/16 12:40:31  5-MIN KAOH 011740Z AUTO 22011G15KT 10SM FEW095 30/12 A2997 930 33 2900 230/11G15 RMK AO2 T03000122
04850KAOH AOH20160601124512406/01/16 12:45:31  5-MIN KAOH 011745Z AUTO 21006G15KT 10SM FEW075 SCT090 29/12 A2997 930 35 2800 220/06G15 RMK AO2 T02890122
04850KAOH AOH20160601125014306/01/16 12:50:31  5-MIN KAOH 011750Z AUTO 19009KT 10SM SCT075 BKN090 29/12 A2996 940 34 2800 190/09 RMK AO2 SLP139 T02940122 10306 20189 58005
04850KAOH AOH20160601125511806/01/16 12:55:31  5-MIN KAOH 011755Z AUTO 16008KT 10SM SCT075 SCT090 30/13 A2996 940 34 2900 170/08 RMK AO2 T03000128
04850KAOH AOH20160601130011806/01/16 13:00:31  5-MIN KAOH 011800Z AUTO 18009KT 10SM FEW075 SCT090 30/12 A2996 940 33 2900 190/09 RMK AO2 T03000122
04850KAOH AOH20160601130511806/01/16 13:05:31  5-MIN KAOH 011805Z AUTO 19006KT 10SM SCT075 SCT090 29/12 A2996 940 35 2800 190/06 RMK AO2 T02890122
04850KAOH AOH20160601131011806/01/16 13:10:31  5-MIN KAOH 011810Z AUTO 18009KT 10SM BKN075 BKN090 29/12 A2996 940 34 2800 180/09 RMK AO2 T02940122
04850KAOH AOH20160601131511806/01/16 13:15:31  5-MIN KAOH 011815Z AUTO 19009KT 10SM BKN075 BKN090 29/12 A2996 940 33 2900 190/09 RMK AO2 T02940117
04850KAOH AOH20160601132011806/01/16 13:20:31  5-MIN KAOH 011820Z AUTO 18007KT 10SM BKN080 BKN090 31/13 A2995 950 33 3000 190/07 RMK AO2 T03060128
04850KAOH AOH20160601132511806/01/16 13:25:31  5-MIN KAOH 011825Z AUTO 20009KT 10SM SCT080 BKN090 31/12 A2995 950 32 3000 210/09 RMK AO2 T03060122
04850KAOH AOH20160601133013406/01/16 13:30:31  5-MIN KAOH 011830Z AUTO 19009KT 160V220 10SM SCT080 SCT090 30/12 A2996 950 33 2900 200/09 170V230 RMK AO2 T03000122
04850KAOH AOH20160601133511106/01/16 13:35:31  5-MIN KAOH 011835Z AUTO 17006KT 10SM FEW080 31/12 A2995 950 30 3000 180/06 RMK AO2 T03060117
04850KAOH AOH20160601134011706/01/16 13:40:31  5-MIN KAOH 011840Z AUTO 20010G15KT 10SM FEW080 30/12 A2995 950 33 2900 210/10G15 RMK AO2 T03000122
04850KAOH AOH20160601134511406/01/16 13:45:31  5-MIN KAOH 011845Z AUTO VRB04G15KT 10SM CLR 30/12 A2995 950 31 2900 VRB/04G15 RMK AO2 T03000117
04850KAOH AOH20160601135011506/01/16 13:50:31  5-MIN KAOH 011850Z AUTO 20004KT 10SM CLR 31/13 A2995 950 33 3000 210/04 RMK AO2 SLP134 T03060128
04850KAOH AOH20160601135509806/01/16 13:55:31  5-MIN KAOH 011855Z AUTO 10SM CLR 30/12 A2995 950 31 2900 M /M RMK AO2 T03000117
04850KAOH AOH20160601140011106/01/16 14:00:31  5-MIN KAOH 011900Z AUTO 20008KT 10SM FEW120 30/12 A2995 950 31 2900 210/08 RMK AO2 T03000117
04850KAOH AOH20160601140512706/01/16 14:05:31  5-MIN KAOH 011905Z AUTO 21008KT 170V250 10SM FEW120 30/12 A2995 950 31 2900 220/08 180V260 RMK AO2 T03000117
04850KAOH AOH20160601141011706/01/16 14:10:31  5-MIN KAOH 011910Z AUTO 20007G15KT 10SM FEW120 30/12 A2994 960 31 2900 210/07G15 RMK AO2 T03000117
04850KAOH AOH20160601141512706/01/16 14:15:31  5-MIN KAOH 011915Z AUTO 21009KT 170V230 10SM FEW120 30/12 A2994 960 31 2900 210/09 180V240 RMK AO2 T03000117
04850KAOH AOH20160601142011806/01/16 14:20:31  5-MIN KAOH 011920Z AUTO 18006KT 10SM FEW085 SCT120 31/11 A2994 960 29 3000 190/06 RMK AO2 T03060111
04850KAOH AOH20160601142512406/01/16 14:25:31  5-MIN KAOH 011925Z AUTO 18011G14KT 10SM FEW085 BKN120 30/12 A2994 960 31 2900 190/11G14 RMK AO2 T03000117
04850KAOH AOH20160601143011806/01/16 14:30:31  5-MIN KAOH 011930Z AUTO 21009KT 10SM FEW085 BKN120 29/12 A2994 960 33 2900 220/09 RMK AO2 T02940117
04850KAOH AOH20160601143511806/01/16 14:35:31  5-MIN KAOH 011935Z AUTO 21008KT 10SM SCT100 BKN120 29/12 A2994 960 33 2900 220/08 RMK AO2 T02940117
04850KAOH AOH20160601203011106/01/16 20:30:31  5-MIN KAOH 020130Z AUTO 00000KT 10SM SCT120 21/19 A2996 940 90 1900 000/00 RMK AO2 T02110194
04850KAOH AOH20160601203511006/01/16 20:35:31  5-MIN KAOH 020135Z AUTO 00000KT 9SM SCT120 21/19 A2996 940 93 1800 000/00 RMK AO2 T02060194
04850KAOH AOH20160601204011006/01/16 20:40:31  5-MIN KAOH 020140Z AUTO 00000KT 8SM FEW120 21/19 A2996 940 93 1800 000/00 RMK AO2 T02060194
04850KAOH AOH20160601204511006/01/16 20:45:31  5-MIN KAOH 020145Z AUTO 00000KT 8SM FEW120 21/19 A2996 940 93 1800 000/00 RMK AO2 T02060194
04850KAOH AOH20160601205011406/01/16 20:50:31  5-MIN KAOH 020150Z AUTO 00000KT 7SM CLR 21/19 A2996 940 93 1800 000/00 RMK AO2 SLP139 T02060194
04850KAOH AOH20160601205511006/01/16 20:55:31  5-MIN KAOH 020155Z AUTO 00000KT 7SM FEW120 21/19 A2996 940 93 1800 000/00 RMK AO2 T02060194
04850KAOH AOH20160601210011006/01/16 21:00:31  5-MIN KAOH 020200Z AUTO 00000KT 7SM SCT120 21/19 A2997 940 93 1800 000/00 RMK AO2 T02060194
04850KAOH AOH20160601210511306/01/16 21:05:31  5-MIN KAOH 020205Z AUTO 00000KT 6SM BR SCT120 20/19 A2997 930 97 1800 000/00 RMK AO2 T02000194
04850KAOH AOH20160601211011306/01/16 21:10:31  5-MIN KAOH 020210Z AUTO 00000KT 5SM BR SCT120 20/19 A2997 930 97 1800 000/00 RMK AO2 T02000194
04850KAOH AOH20160601211511306/01/16 21:15:31  5-MIN KAOH 020215Z AUTO 18003KT 5SM BR SCT120 20/19 A2997 930 97 1800 180/03 RMK AO2 T02000194
04850KAOH AOH20160601212011306/01/16 21:20:31  5-MIN KAOH 020220Z AUTO 17003KT 6SM BR SCT120 20/19 A2997 930 97 1800 170/03 RMK AO2 T02000194
04850KAOH AOH20160601212511306/01/16 21:25:31  5-MIN KAOH 020225Z AUTO 17004KT 6SM BR FEW120 20/19 A2997 930 97 1800 170/04 RMK AO2 T02000194
04850KAOH AOH20160601213011306/01/16 21:30:31  5-MIN KAOH 020230Z AUTO 17004KT 6SM BR FEW120 20/19 A2997 930 93 1800 180/04 RMK AO2 T02000189
04850KAOH AOH20160601213511006/01/16 21:35:31  5-MIN KAOH 020235Z AUTO 17004KT 5SM BR CLR 20/19 A2997 930 93 1800 180/04 RMK AO2 T02000189
04850KAOH AOH20160601214011006/01/16 21:40:31  5-MIN KAOH 020240Z AUTO 17005KT 5SM BR CLR 20/19 A2997 930 93 1800 180/05 RMK AO2 T02000189
04850KAOH AOH20160601214511006/01/16 21:45:31  5-MIN KAOH 020245Z AUTO 17005KT 4SM BR CLR 20/19 A2997 930 93 1800 180/05 RMK AO2 T02000189
04850KAOH AOH20160601215012906/01/16 21:50:31  5-MIN KAOH 020250Z AUTO 17006KT 4SM BR CLR 20/19 A2997 930 97 1800 170/06 RMK AO2 SLP143 60000 T02000194 50007
04850KAOH AOH20160601215511006/01/16 21:55:31  5-MIN KAOH 020255Z AUTO 18005KT 4SM BR CLR 20/19 A2997 930 97 1800 180/05 RMK AO2 T02000194
04850KAOH AOH20160601220011006/01/16 22:00:31  5-MIN KAOH 020300Z AUTO 17005KT 4SM BR CLR 20/19 A2997 930 97 1800 170/05 RMK AO2 T02000194
04850KAOH AOH20160601220511006/01/16 22:05:31  5-MIN KAOH 020305Z AUTO 17004KT 4SM BR CLR 20/19 A2997 930 97 1800 180/04 RMK AO2 T02000194
04850KAOH AOH20160601221011006/01/16 22:10:31  5-MIN KAOH 020310Z AUTO 18005KT 4SM BR CLR 20/19 A2997 930 93 1800 180/05 RMK AO2 T02000189
04850KAOH AOH20160601221511006/01/16 22:15:31  5-MIN KAOH 020315Z AUTO 18005KT 4SM BR CLR 20/19 A2997 930 93 1800 190/05 RMK AO2 T02000189
04850KAOH AOH20160601222011006/01/16 22:20:31  5-MIN KAOH 020320Z AUTO 18003KT 4SM BR CLR 20/19 A2997 930 93 1800 190/03 RMK AO2 T02000189
04850KAOH AOH20160601222511006/01/16 22:25:31  5-MIN KAOH 020325Z AUTO 00000KT 4SM BR CLR 20/19 A2997 930 93 1800 000/00 RMK AO2 T02000189
04850KAOH AOH20160601223011006/01/16 22:30:31  5-MIN KAOH 020330Z AUTO 00000KT 4SM BR CLR 19/19 A2997 930 97 1700 000/00 RMK AO2 T01940189
04850KAOH AOH20160601223511006/01/16 22:35:31  5-MIN KAOH 020335Z AUTO 19003KT 4SM BR CLR 19/19 A2997 930 97 1700 190/03 RMK AO2 T01940189
04850KAOH AOH20160601224011006/01/16 22:40:31  5-MIN KAOH 020340Z AUTO 00000KT 5SM BR CLR 19/18 A2997 930 93 1700 000/00 RMK AO2 T01940183
04850KAOH AOH20160601224511306/01/16 22:45:31  5-MIN KAOH 020345Z AUTO 00000KT 6SM BR FEW100 19/19 A2997 930 97 1700 000/00 RMK AO2 T01940189
04850KAOH AOH20160601225012006/01/16 22:50:31  5-MIN KAOH 020350Z AUTO 00000KT 5SM BR FEW100 19/18 A2997 930 97 1600 000/00 RMK AO2 SLP143 T01890183
04850KAOH AOH20160601225511306/01/16 22:55:31  5-MIN KAOH 020355Z AUTO 00000KT 4SM BR FEW100 19/18 A2997 930 97 1600 000/00 RMK AO2 T01890183
04850KAOH AOH20160601230011306/01/16 23:00:31  5-MIN KAOH 020400Z AUTO 00000KT 4SM BR FEW100 19/18 A2997 930 93 1700 000/00 RMK AO2 T01940183
04850KAOH AOH20160601230511306/01/16 23:05:31  5-MIN KAOH 020405Z AUTO 00000KT 3SM BR FEW100 19/18 A2998 930 97 1600 000/00 RMK AO2 T01890183
04850KAOH AOH20160601231011706/01/16 23:10:31  5-MIN KAOH 020410Z AUTO 25003KT 2 1/2SM BR FEW100 18/18 A2998 920 96 1600 260/03 RMK AO2 T01830178
04850KAOH AOH20160601231511406/01/16 23:15:31  5-MIN KAOH 020415Z AUTO 29003KT 2 1/2SM BR CLR 18/18 A2997 930 96 1600 300/03 RMK AO2 T01830178
04850KAOH AOH20160601232011006/01/16 23:20:31  5-MIN KAOH 020420Z AUTO 00000KT 2SM BR CLR 18/18 A2998 930 96 1600 000/00 RMK AO2 T01830178
04850KAOH AOH20160601232511206/01/16 23:25:31  5-MIN KAOH 020425Z AUTO 26003KT 3/4SM BR CLR 18/18 A2998 920 96 1600 260/03 RMK AO2 T01830178
04850KAOH AOH20160601233011206/01/16 23:30:31  5-MIN KAOH 020430Z AUTO 00000KT 3/4SM BR CLR 18/18 A2998 930 96 1600 000/00 RMK AO2 T01830178
04850KAOH AOH20160601233511006/01/16 23:35:31  5-MIN KAOH 020435Z AUTO 23003KT 2SM BR CLR 19/18 A2998 920 97 1600 240/03 RMK AO2 T01890183
04850KAOH AOH20160601234011006/01/16 23:40:31  5-MIN KAOH 020440Z AUTO 00000KT 4SM BR CLR 19/18 A2998 920 97 1600 000/00 RMK AO2 T01890183
04850KAOH AOH20160601234511006/01/16 23:45:31  5-MIN KAOH 020445Z AUTO 00000KT 3SM BR CLR 18/18 A2998 930 96 1600 000/00 RMK AO2 T01830178
04850KAOH AOH20160601235012706/01/16 23:50:31  5-MIN KAOH 020450Z AUTO 00000KT 3SM BR CLR 18/18 A2998 920 96 1600 000/00 RMK AO2 SLP144 T01830178 403060161
04850KAOH AOH20160601235511006/01/16 23:55:31  5-MIN KAOH 020455Z AUTO 00000KT 3SM BR CLR 19/18 A2998 930 97 1600 000/00 RMK AO2 T01890183
04850KAOH AOH20160602000011506/02/16 00:00:31  5-MIN KAOH 020500Z AUTO 26003KT 2 1/2SM BR CLR 18/18 A2998 930 100 1600 270/03 RMK AO2 T01830183
04850KAOH AOH20160602000511106/02/16 00:05:31  5-MIN KAOH 020505Z AUTO 26003KT 2SM BR CLR 18/18 A2997 930 100 1600 270/03 RMK AO2 T01830183
04850KAOH AOH20160602001011406/02/16 00:10:31  5-MIN KAOH 020510Z AUTO 25003KT 1 3/4SM BR CLR 18/18 A2997 930 96 1600 260/03 RMK AO2 T01830178
04850KAOH AOH20160602001511406/02/16 00:15:31  5-MIN KAOH 020515Z AUTO 26004KT 1 3/4SM BR CLR 18/18 A2997 930 96 1600 260/04 RMK AO2 T01830178
04850KAOH AOH20160602002011506/02/16 00:20:31  5-MIN KAOH 020520Z AUTO 26004KT 2 1/2SM BR CLR 18/18 A2997 930 100 1600 260/04 RMK AO2 T01830183
04850KAOH AOH20160602002511406/02/16 00:25:31  5-MIN KAOH 020525Z AUTO 26003KT 2 1/2SM BR CLR 18/18 A2997 930 96 1600 260/03 RMK AO2 T01830178
04850KAOH AOH20160602003011406/02/16 00:30:31  5-MIN KAOH 020530Z AUTO 23003KT 2 1/2SM BR CLR 18/18 A2997 930 96 1600 240/03 RMK AO2 T01830178
04850KAOH AOH20160602003511406/02/16 00:35:31  5-MIN KAOH 020535Z AUTO 22004KT 2 1/2SM BR CLR 19/18 A2997 930 97 1600 220/04 RMK AO2 T01890183
04850KAOH AOH20160602004011006/02/16 00:40:31  5-MIN KAOH 020540Z AUTO 19003KT 3SM BR CLR 19/18 A2997 930 97 1600 200/03 RMK AO2 T01890183
04850KAOH AOH20160602004511006/02/16 00:45:31  5-MIN KAOH 020545Z AUTO 20003KT 3SM BR CLR 19/18 A2997 930 97 1600 210/03 RMK AO2 T01890183
04850KAOH AOH20160602005014106/02/16 00:50:31  5-MIN KAOH 020550Z AUTO 20003KT 4SM BR CLR 19/18 A2997 930 97 1600 210/03 RMK AO2 SLP141 60000 T01890183 10211 20183 53010
04850KAOH AOH20160602005511006/02/16 00:55:31  5-MIN KAOH 020555Z AUTO 17004KT 3SM BR CLR 19/18 A2997 930 93 1600 170/04 RMK AO2 T01890178
04850KAOH AOH20160602010011406/02/16 01:00:31  5-MIN KAOH 020600Z AUTO 19003KT 2 1/2SM BR CLR 18/18 A2997 930 96 1600 190/03 RMK AO2 T01830178
04850KAOH AOH20160602010511406/02/16 01:05:31  5-MIN KAOH 020605Z AUTO 21003KT 2 1/2SM BR CLR 18/18 A2997 930 96 1600 220/03 RMK AO2 T01830178
04850KAOH AOH20160602011011006/02/16 01:10:31  5-MIN KAOH 020610Z AUTO 23003KT 3SM BR CLR 19/18 A2997 940 97 1600 240/03 RMK AO2 T01890183
04850KAOH AOH20160602011511006/02/16 01:15:31  5-MIN KAOH 020615Z AUTO 23004KT 4SM BR CLR 19/18 A2997 930 97 1600 230/04 RMK AO2 T01890183
04850KAOH AOH20160602012011006/02/16 01:20:31  5-MIN KAOH 020620Z AUTO 22004KT 4SM BR CLR 19/18 A2997 930 97 1600 230/04 RMK AO2 T01890183
04850KAOH AOH20160602012511006/02/16 01:25:31  5-MIN KAOH 020625Z AUTO 18004KT 4SM BR CLR 19/18 A2997 930 97 1600 190/04 RMK AO2 T01890183
04850KAOH AOH20160602013011406/02/16 01:30:31  5-MIN KAOH 020630Z AUTO 18004KT 2 1/2SM BR CLR 18/18 A2997 930 96 1600 180/04 RMK AO2 T01830178
04850KAOH AOH20160602013511406/02/16 01:35:31  5-MIN KAOH 020635Z AUTO 19003KT 2 1/2SM BR CLR 18/18 A2997 930 96 1600 200/03 RMK AO2 T01830178
04850KAOH AOH20160602014011006/02/16 01:40:31  5-MIN KAOH 020640Z AUTO 18004KT 3SM BR CLR 18/18 A2997 930 96 1600 180/04 RMK AO2 T01830178
04850KAOH AOH20160602014511406/02/16 01:45:31  5-MIN KAOH 020645Z AUTO 19004KT 2 1/2SM BR CLR 18/18 A2997 930 96 1600 190/04 RMK AO2 T01830178
04850KAOH AOH20160602015012106/02/16 01:50:31  5-MIN KAOH 020650Z AUTO 19004KT 2 1/2SM BR CLR 18/18 A2997 930 96 1600 200/04 RMK AO2 SLP140 T01830178
04850KAOH AOH20160602015511406/02/16 01:55:31  5-MIN KAOH 020655Z AUTO 19005KT 2 1/2SM BR CLR 19/18 A2997 930 97 1600 200/05 RMK AO2 T01890183
04850KAOH AOH20160602020011006/02/16 02:00:31  5-MIN KAOH 020700Z AUTO 20005KT 2SM BR CLR 19/18 A2997 930 97 1600 200/05 RMK AO2 T01890183
04850KAOH AOH20160602020511006/02/16 02:05:31  5-MIN KAOH 020705Z AUTO 19005KT 2SM BR CLR 19/18 A2997 930 97 1600 190/05 RMK AO2 T01890183
04850KAOH AOH20160602021011006/02/16 02:10:31  5-MIN KAOH 020710Z AUTO 19006KT 2SM BR CLR 19/18 A2997 930 97 1600 200/06 RMK AO2 T01890183
04850KAOH AOH20160602021511406/02/16 02:15:31  5-MIN KAOH 020715Z AUTO 19006KT 2 1/2SM BR CLR 19/18 A2997 930 97 1600 200/06 RMK AO2 T01890183
04850KAOH AOH20160602022011406/02/16 02:20:31  5-MIN KAOH 020720Z AUTO 21005KT 2 1/2SM BR CLR 19/18 A2997 930 97 1600 220/05 RMK AO2 T01890183
04850KAOH AOH20160602022511406/02/16 02:25:31  5-MIN KAOH 020725Z AUTO 23004KT 2 1/2SM BR CLR 19/18 A2997 930 97 1600 230/04 RMK AO2 T01890183
04850KAOH AOH20160602023011306/02/16 02:30:31  5-MIN KAOH 020730Z AUTO 23004KT 3SM BR FEW080 19/18 A2997 930 97 1600 240/04 RMK AO2 T01890183
04850KAOH AOH20160602023511306/02/16 02:35:31  5-MIN KAOH 020735Z AUTO 22003KT 3SM BR FEW075 19/18 A2997 930 97 1600 220/03 RMK AO2 T01890183
04850KAOH AOH20160602024011306/02/16 02:40:31  5-MIN KAOH 020740Z AUTO 23003KT 3SM BR FEW075 19/18 A2997 930 97 1600 240/03 RMK AO2 T01890183
04850KAOH AOH20160602024511306/02/16 02:45:31  5-MIN KAOH 020745Z AUTO 26004KT 3SM BR FEW075 19/18 A2997 930 97 1600 270/04 RMK AO2 T01890183
04850KAOH AOH20160602025010706/02/16 02:50:31  5-MIN KAOH 020750Z AUTO 26004KT 2 1/2SM BR FEW075 18/18 A2997 930 96 1600 270/04 RMK AO2
04850KAOH AOH20160602025511306/02/16 02:55:31  5-MIN KAOH 020755Z AUTO 24004KT 2SM BR FEW075 18/18 A2997 930 96 1600 250/04 RMK AO2 T01830178
04850KAOH AOH20160602030011706/02/16 03:00:31  5-MIN KAOH 020800Z AUTO 21003KT 2 1/2SM BR FEW075 18/18 A2997 930 96 1600 210/03 RMK AO2 T01830178
04850KAOH AOH20160602030511006/02/16 03:05:31  5-MIN KAOH 020805Z AUTO 18004KT 3SM BR CLR 19/18 A2998 920 93 1600 190/04 RMK AO2 T01890178
04850KAOH AOH20160602031011006/02/16 03:10:31  5-MIN KAOH 020810Z AUTO 18003KT 3SM BR CLR 19/18 A2998 920 93 1600 180/03 RMK AO2 T01890178
04850KAOH AOH20160602031511406/02/16 03:15:31  5-MIN KAOH 020815Z AUTO 00000KT 2 1/2SM BR CLR 18/18 A2998 920 96 1600 000/00 RMK AO2 T01830178
04850KAOH AOH20160602032011406/02/16 03:20:31  5-MIN KAOH 020820Z AUTO 00000KT 2 1/2SM BR CLR 18/18 A2998 920 96 1600 000/00 RMK AO2 T01830178
04850KAOH AOH20160602032511406/02/16 03:25:31  5-MIN KAOH 020825Z AUTO 21003KT 2 1/2SM BR CLR 18/18 A2998 920 96 1600 210/03 RMK AO2 T01830178
04850KAOH AOH20160602033011406/02/16 03:30:31  5-MIN KAOH 020830Z AUTO 00000KT 2 1/2SM BR CLR 18/18 A2998 920 96 1600 000/00 RMK AO2 T01830178
04850KAOH AOH20160602033511406/02/16 03:35:31  5-MIN KAOH 020835Z AUTO 22003KT 2 1/2SM BR CLR 18/18 A2998 920 96 1600 220/03 RMK AO2 T01830178
04850KAOH AOH20160602034011706/02/16 03:40:31  5-MIN KAOH 020840Z AUTO 19003KT 2 1/2SM BR FEW050 18/18 A2998 920 96 1600 200/03 RMK AO2 T01830178
04850KAOH AOH20160602034511706/02/16 03:45:31  5-MIN KAOH 020845Z AUTO 18004KT 2 1/2SM BR SCT050 18/18 A2998 920 96 1600 190/04 RMK AO2 T01830178
04850KAOH AOH20160602035012606/02/16 03:50:31  5-MIN KAOH 020850Z AUTO 00000KT 2SM BR FEW050 18/18 A2998 920 96 1600 000/00 RMK AO2 SLP145 T01830178 58001
04850KAOH AOH20160602035511306/02/16 03:55:31  5-MIN KAOH 020855Z AUTO 20003KT 2SM BR SCT050 18/18 A2998 920 96 1600 210/03 RMK AO2 T01830178
04850KAOH AOH20160602040011706/02/16 04:00:31  5-MIN KAOH 020900Z AUTO 21003KT 2 1/2SM BR SCT050 18/18 A2998 920 96 1600 210/03 RMK AO2 T01830178
04850KAOH AOH20160602040511706/02/16 04:05:31  5-MIN KAOH 020905Z AUTO 22003KT 2 1/2SM BR FEW050 18/18 A2998 920 96 1600 220/03 RMK AO2 T01830178
04850KAOH AOH20160602041011706/02/16 04:10:31  5-MIN KAOH 020910Z AUTO 22004KT 2 1/2SM BR FEW050 18/18 A2998 920 96 1600 220/04 RMK AO2 T01830178
04850KAOH AOH20160602041511706/02/16 04:15:31  5-MIN KAOH 020915Z AUTO 21003KT 2 1/2SM BR FEW050 18/18 A2998 920 96 1600 220/03 RMK AO2 T01830178
04850KAOH AOH20160602042011706/02/16 04:20:31  5-MIN KAOH 020920Z AUTO 21003KT 2 1/2SM BR FEW050 18/18 A2998 920 96 1600 220/03 RMK AO2 T01830178
04850KAOH AOH20160602042511406/02/16 04:25:31  5-MIN KAOH 020925Z AUTO 22003KT 2 1/2SM BR CLR 18/18 A2998 920 96 1600 220/03 RMK AO2 T01830178
04850KAOH AOH20160602043011406/02/16 04:30:31  5-MIN KAOH 020930Z AUTO 19003KT 2 1/2SM BR CLR 18/18 A2998 920 96 1600 200/03 RMK AO2 T01830178
04850KAOH AOH20160602043511406/02/16 04:35:31  5-MIN KAOH 020935Z AUTO 19003KT 2 1/2SM BR CLR 18/18 A2998 920 96 1600 200/03 RMK AO2 T01830178
04850KAOH AOH20160602044011406/02/16 04:40:31  5-MIN KAOH 020940Z AUTO 20004KT 2 1/2SM BR CLR 18/18 A2999 920 96 1600 210/04 RMK AO2 T01830178
04850KAOH AOH20160602044511006/02/16 04:45:31  5-MIN KAOH 020945Z AUTO 20005KT 2SM BR CLR 18/18 A2999 920 96 1600 210/05 RMK AO2 T01830178
04850KAOH AOH20160602045011706/02/16 04:50:31  5-MIN KAOH 020950Z AUTO 21004KT 2SM BR CLR 18/18 A2999 910 96 1600 220/04 RMK AO2 SLP148 T01830178
04850KAOH AOH20160602045511006/02/16 04:55:31  5-MIN KAOH 020955Z AUTO 21004KT 2SM BR CLR 18/18 A2999 910 96 1600 210/04 RMK AO2 T01830178
04850KAOH AOH20160602050011406/02/16 05:00:31  5-MIN KAOH 021000Z AUTO 22005KT 2 1/2SM BR CLR 18/18 A2999 910 96 1600 220/05 RMK AO2 T01830178
04850KAOH AOH20160602050511406/02/16 05:05:31  5-MIN KAOH 021005Z AUTO 23005KT 2 1/2SM BR CLR 18/18 A2999 910 96 1600 240/05 RMK AO2 T01830178
04850KAOH AOH20160602051011006/02/16 05:10:31  5-MIN KAOH 021010Z AUTO 24005KT 2SM BR CLR 18/18 A2999 910 96 1500 250/05 RMK AO2 T01830178
04850KAOH AOH20160602051511406/02/16 05:15:31  5-MIN KAOH 021015Z AUTO 24004KT 1 3/4SM BR CLR 18/18 A3000 910 96 1500 240/04 RMK AO2 T01830178
04850KAOH AOH20160602052011006/02/16 05:20:31  5-MIN KAOH 021020Z AUTO 23004KT 2SM BR CLR 18/18 A3000 900 96 1500 240/04 RMK AO2 T01830178
04850KAOH AOH20160602052511006/02/16 05:25:31  5-MIN KAOH 021025Z AUTO 22004KT 2SM BR CLR 18/18 A3000 900 96 1500 230/04 RMK AO2 T01830178
04850KAOH AOH20160602053011406/02/16 05:30:31  5-MIN KAOH 021030Z AUTO 22004KT 1 3/4SM BR CLR 18/18 A3000 900 96 1500 220/04 RMK AO2 T01830178
04850KAOH AOH20160602053511406/02/16 05:35:31  5-MIN KAOH 021035Z AUTO 22003KT 1 3/4SM BR CLR 18/18 A3000 900 96 1500 230/03 RMK AO2 T01830178
04850KAOH AOH20160602054011406/02/16 05:40:31  5-MIN KAOH 021040Z AUTO 22003KT 1 3/4SM BR CLR 18/18 A3000 900 96 1500 230/03 RMK AO2 T01830178
04850KAOH AOH20160602054511406/02/16 05:45:31  5-MIN KAOH 021045Z AUTO 22003KT 1 3/4SM BR CLR 18/18 A3001 900 96 1500 230/03 RMK AO2 T01830178
04850KAOH AOH20160602055012106/02/16 05:50:31  5-MIN KAOH 021050Z AUTO 22003KT 1 3/4SM BR CLR 18/18 A3001 900 96 1500 220/03 RMK AO2 SLP157 T01830178
04850KAOH AOH20160602055511406/02/16 05:55:31  5-MIN KAOH 021055Z AUTO 22003KT 1 3/4SM BR CLR 18/18 A3001 890 96 1500 230/03 RMK AO2 T01830178
04850KAOH AOH20160602060011406/02/16 06:00:31  5-MIN KAOH 021100Z AUTO 22004KT 1 3/4SM BR CLR 18/18 A3001 890 96 1500 220/04 RMK AO2 T01830178
04850KAOH AOH20160602060511406/02/16 06:05:31  5-MIN KAOH 021105Z AUTO 22004KT 1 3/4SM BR CLR 19/18 A3001 890 93 1600 230/04 RMK AO2 T01890178
04850KAOH AOH20160602061011006/02/16 06:10:31  5-MIN KAOH 021110Z AUTO 22004KT 2SM BR CLR 19/18 A3001 890 93 1600 220/04 RMK AO2 T01890178
04850KAOH AOH20160602061511006/02/16 06:15:31  5-MIN KAOH 021115Z AUTO 21004KT 2SM BR CLR 19/18 A3001 890 93 1600 220/04 RMK AO2 T01890178
04850KAOH AOH20160602062011006/02/16 06:20:31  5-MIN KAOH 021120Z AUTO 22004KT 2SM BR CLR 19/18 A3001 890 93 1600 220/04 RMK AO2 T01890178
04850KAOH AOH20160602062511006/02/16 06:25:31  5-MIN KAOH 021125Z AUTO 23004KT 2SM BR CLR 19/18 A3001 890 97 1600 230/04 RMK AO2 T01890183
04850KAOH AOH20160602063011006/02/16 06:30:31  5-MIN KAOH 021130Z AUTO 23004KT 2SM BR CLR 19/18 A3001 890 93 1700 240/04 RMK AO2 T01940183
04850KAOH AOH20160602063511406/02/16 06:35:31  5-MIN KAOH 021135Z AUTO 24005KT 2 1/2SM BR CLR 19/18 A3001 890 93 1700 240/05 RMK AO2 T01940183
04850KAOH AOH20160602064011406/02/16 06:40:31  5-MIN KAOH 021140Z AUTO 25005KT 2 1/2SM BR CLR 19/18 A3001 890 93 1700 250/05 RMK AO2 T01940183
04850KAOH AOH20160602064511706/02/16 06:45:31  5-MIN KAOH 021145Z AUTO 23005KT 2 1/2SM BR FEW029 19/18 A3002 890 93 1700 240/05 RMK AO2 T01940183
04850KAOH AOH20160602065014806/02/16 06:50:31  5-MIN KAOH 021150Z AUTO 23006KT 2 1/2SM BR FEW029 20/19 A3002 890 93 1700 240/06 RMK AO2 SLP160 70003 T02000189 10200 20183 53003
04850KAOH AOH20160602065511306/02/16 06:55:31  5-MIN KAOH 021155Z AUTO 24005KT 3SM BR SCT031 20/18 A3002 890 90 1700 250/05 RMK AO2 T02000183
04850KAOH AOH20160602070011306/02/16 07:00:31  5-MIN KAOH 021200Z AUTO 25004KT 3SM BR SCT031 20/19 A3002 890 93 1700 250/04 RMK AO2 T02000189
04850KAOH AOH20160602070511306/02/16 07:05:31  5-MIN KAOH 021205Z AUTO 25005KT 3SM BR FEW031 20/19 A3002 880 93 1700 250/05 RMK AO2 T02000189
04850KAOH AOH20160602071011306/02/16 07:10:31  5-MIN KAOH 021210Z AUTO 25005KT 3SM BR FEW031 20/19 A3002 880 93 1700 260/05 RMK AO2 T02000189
04850KAOH AOH20160602071511706/02/16 07:15:31  5-MIN KAOH 021215Z AUTO 26005KT 2 1/2SM BR FEW031 20/19 A3002 880 93 1700 260/05 RMK AO2 T02000189
04850KAOH AOH20160602072011706/02/16 07:20:31  5-MIN KAOH 021220Z AUTO 27006KT 2 1/2SM BR FEW031 20/19 A3003 880 93 1700 270/06 RMK AO2 T02000189
04850KAOH AOH20160602072511406/02/16 07:25:31  5-MIN KAOH 021225Z AUTO 27005KT 2 1/2SM BR CLR 20/19 A3003 880 93 1700 270/05 RMK AO2 T02000189
04850KAOH AOH20160602073011406/02/16 07:30:31  5-MIN KAOH 021230Z AUTO 27006KT 2 1/2SM BR CLR 21/19 A3003 880 93 1800 280/06 RMK AO2 T02060194
04850KAOH AOH20160602073511406/02/16 07:35:31  5-MIN KAOH 021235Z AUTO 28007KT 2 1/2SM BR CLR 21/19 A3003 880 93 1800 280/07 RMK AO2 T02060194
04850KAOH AOH20160602074011006/02/16 07:40:31  5-MIN KAOH 021240Z AUTO 28007KT 3SM BR CLR 21/19 A3003 880 93 1800 290/07 RMK AO2 T02060194
04850KAOH AOH20160602074511006/02/16 07:45:31  5-MIN KAOH 021245Z AUTO 28006KT 3SM BR CLR 21/19 A3003 880 90 1800 290/06 RMK AO2 T02110194
04850KAOH AOH20160602075011706/02/16 07:50:31  5-MIN KAOH 021250Z AUTO 29006KT 3SM BR CLR 21/19 A3003 880 90 1800 300/06 RMK AO2 SLP163 T02110194
04850KAOH AOH20160602075511006/02/16 07:55:31  5-MIN KAOH 021255Z AUTO 29007KT 4SM BR CLR 22/19 A3003 880 87 1900 300/07 RMK AO2 T02170194
04850KAOH AOH20160602080011006/02/16 08:00:31  5-MIN KAOH 021300Z AUTO 30007KT 4SM BR CLR 22/19 A3003 870 87 1900 310/07 RMK AO2 T02170194
04850KAOH AOH20160602080511006/02/16 08:05:31  5-MIN KAOH 021305Z AUTO 32008KT 5SM BR CLR 22/19 A3003 870 87 1900 320/08 RMK AO2 T02170194
04850KAOH AOH20160602081011006/02/16 08:10:31  5-MIN KAOH 021310Z AUTO 32009KT 5SM BR CLR 22/19 A3003 870 87 1900 320/09 RMK AO2 T02170194
04850KAOH AOH20160602081511006/02/16 08:15:31  5-MIN KAOH 021315Z AUTO 31009KT 5SM HZ CLR 22/19 A3003 870 84 1900 320/09 RMK AO2 T02170189
04850KAOH AOH20160602082011006/02/16 08:20:31  5-MIN KAOH 021320Z AUTO 31010KT 5SM HZ CLR 22/19 A3004 870 84 1900 320/10 RMK AO2 T02170189
04850KAOH AOH20160602082511006/02/16 08:25:31  5-MIN KAOH 021325Z AUTO 31009KT 5SM BR CLR 22/19 A3004 870 87 1900 320/09 RMK AO2 T02170194
04850KAOH AOH20160602193010806/02/16 19:30:31  5-MIN KAOH 030030Z AUTO 00000KT 10SM CLR 26/12 A2998 920 40 2500 000/00 RMK AO2 T02610117
04850KAOH AOH20160602193510806/02/16 19:35:31  5-MIN KAOH 030035Z AUTO 00000KT 10SM CLR 26/12 A2998 920 40 2500 000/00 RMK AO2 T02610117
04850KAOH AOH20160602194010806/02/16 19:40:31  5-MIN KAOH 030040Z AUTO 00000KT 10SM CLR 26/12 A2998 920 43 2400 000/00 RMK AO2 T02560122
04850KAOH AOH20160602194510806/02/16 19:45:31  5-MIN KAOH 030045Z AUTO 32004KT 10SM CLR 26/12 A2998 920 41 2400 320/04 RMK AO2 T02560117
04850KAOH AOH20160602195011506/02/16 19:50:31  5-MIN KAOH 030050Z AUTO 30003KT 10SM CLR 26/10 A2999 920 37 2400 310/03 RMK AO2 SLP147 T02560100
04850KAOH AOH20160602195510806/02/16 19:55:31  5-MIN KAOH 030055Z AUTO 00000KT 10SM CLR 26/10 A2999 920 37 2400 000/00 RMK AO2 T02560100
04850KAOH AOH20160602200010806/02/16 20:00:31  5-MIN KAOH 030100Z AUTO 00000KT 10SM CLR 25/11 A2999 910 39 2300 000/00 RMK AO2 T02500106
04850KAOH AOH20160602200510806/02/16 20:05:31  5-MIN KAOH 030105Z AUTO 30003KT 10SM CLR 25/10 A2999 910 38 2300 300/03 RMK AO2 T02500100
04850KAOH AOH20160602201010806/02/16 20:10:31  5-MIN KAOH 030110Z AUTO 00000KT 10SM CLR 24/11 A2999 910 41 2300 000/00 RMK AO2 T02440106
04850KAOH AOH20160602201510806/02/16 20:15:31  5-MIN KAOH 030115Z AUTO 00000KT 10SM CLR 24/10 A2999 910 39 2300 000/00 RMK AO2 T02440100
04850KAOH AOH20160602202010806/02/16 20:20:31  5-MIN KAOH 030120Z AUTO 00000KT 10SM CLR 24/10 A2999 910 39 2200 000/00 RMK AO2 T02440100
04850KAOH AOH20160602202510806/02/16 20:25:31  5-MIN KAOH 030125Z AUTO 00000KT 10SM CLR 24/09 A3000 910 38 2200 000/00 RMK AO2 T02440094
04850KAOH AOH20160602203010806/02/16 20:30:31  5-MIN KAOH 030130Z AUTO 00000KT 10SM CLR 25/09 A3000 900 35 2300 000/00 RMK AO2 T02500089
04850KAOH AOH20160602203510806/02/16 20:35:31  5-MIN KAOH 030135Z AUTO 00000KT 10SM CLR 24/09 A3000 900 38 2200 000/00 RMK AO2 T02440094
04850KAOH AOH20160602204010806/02/16 20:40:31  5-MIN KAOH 030140Z AUTO 00000KT 10SM CLR 23/11 A3000 900 44 2100 000/00 RMK AO2 T02330106
04850KAOH AOH20160602204510806/02/16 20:45:31  5-MIN KAOH 030145Z AUTO 00000KT 10SM CLR 23/11 A3001 900 45 2100 000/00 RMK AO2 T02330111
04850KAOH AOH20160602205011506/02/16 20:50:31  5-MIN KAOH 030150Z AUTO 22003KT 10SM CLR 23/12 A3001 900 49 2000 230/03 RMK AO2 SLP154 T02280117
04850KAOH AOH20160602205510806/02/16 20:55:31  5-MIN KAOH 030155Z AUTO 00000KT 10SM CLR 23/11 A3001 900 45 2000 000/00 RMK AO2 T02280106
04850KAOH AOH20160602210010806/02/16 21:00:31  5-MIN KAOH 030200Z AUTO 00000KT 10SM CLR 22/11 A3001 900 49 2000 000/00 RMK AO2 T02220111
04850KAOH AOH20160602210510806/02/16 21:05:31  5-MIN KAOH 030205Z AUTO 00000KT 10SM CLR 22/12 A3001 890 52 1900 000/00 RMK AO2 T02170117
04850KAOH AOH20160602211010806/02/16 21:10:31  5-MIN KAOH 030210Z AUTO 00000KT 10SM CLR 21/12 A3001 890 54 1900 000/00 RMK AO2 T02110117
04850KAOH AOH20160602211510806/02/16 21:15:31  5-MIN KAOH 030215Z AUTO 00000KT 10SM CLR 22/11 A3002 890 50 1900 000/00 RMK AO2 T02170111
04850KAOH AOH20160602212010806/02/16 21:20:31  5-MIN KAOH 030220Z AUTO 00000KT 10SM CLR 21/11 A3002 890 52 1800 000/00 RMK AO2 T02110111
04850KAOH AOH20160602212510806/02/16 21:25:31  5-MIN KAOH 030225Z AUTO 00000KT 10SM CLR 21/12 A3002 880 56 1800 000/00 RMK AO2 T02060117
04850KAOH AOH20160602213010806/02/16 21:30:31  5-MIN KAOH 030230Z AUTO 18003KT 10SM CLR 20/12 A3002 880 58 1700 180/03 RMK AO2 T02000117
04850KAOH AOH20160602213510806/02/16 21:35:31  5-MIN KAOH 030235Z AUTO 18005KT 10SM CLR 21/11 A3003 880 52 1800 180/05 RMK AO2 T02110111
04850KAOH AOH20160602214011106/02/16 21:40:31  5-MIN KAOH 030240Z AUTO 18006KT 10SM FEW075 21/12 A3003 880 54 1800 190/06 RMK AO2 T02110117
04850KAOH AOH20160602214511106/02/16 21:45:31  5-MIN KAOH 030245Z AUTO 18005KT 10SM FEW075 22/12 A3003 880 54 1900 190/05 RMK AO2 T02170122
04850KAOH AOH20160602215012106/02/16 21:50:31  5-MIN KAOH 030250Z AUTO 20004KT 10SM CLR 21/12 A3003 880 56 1800 200/04 RMK AO2 SLP162 T02110122 56008
04850KAOH AOH20160602215510806/02/16 21:55:31  5-MIN KAOH 030255Z AUTO 20004KT 10SM CLR 22/12 A3003 880 54 1900 210/04 RMK AO2 T02170122
04850KAOH AOH20160602220010806/02/16 22:00:31  5-MIN KAOH 030300Z AUTO 00000KT 10SM CLR 21/12 A3003 880 56 1800 000/00 RMK AO2 T02110122
04850KAOH AOH20160602220510806/02/16 22:05:31  5-MIN KAOH 030305Z AUTO 00000KT 10SM CLR 21/12 A3003 880 58 1800 000/00 RMK AO2 T02060122
04850KAOH AOH20160602221010806/02/16 22:10:31  5-MIN KAOH 030310Z AUTO 00000KT 10SM CLR 21/12 A3003 880 56 1800 000/00 RMK AO2 T02110122
04850KAOH AOH20160602221510806/02/16 22:15:31  5-MIN KAOH 030315Z AUTO 00000KT 10SM CLR 21/13 A3003 880 60 1800 000/00 RMK AO2 T02060128
04850KAOH AOH20160602222010806/02/16 22:20:31  5-MIN KAOH 030320Z AUTO 00000KT 10SM CLR 19/12 A3003 880 62 1600 000/00 RMK AO2 T01940122
04850KAOH AOH20160602222510806/02/16 22:25:31  5-MIN KAOH 030325Z AUTO 00000KT 10SM CLR 19/13 A3003 870 65 1600 000/00 RMK AO2 T01940128
04850KAOH AOH20160602223010806/02/16 22:30:31  5-MIN KAOH 030330Z AUTO VRB03KT 10SM CLR 20/13 A3003 870 63 1700 VRB/03 RMK AO2 T02000128
04850KAOH AOH20160602223510806/02/16 22:35:31  5-MIN KAOH 030335Z AUTO 00000KT 10SM CLR 19/12 A3003 870 65 1600 000/00 RMK AO2 T01890122
04850KAOH AOH20160602224010806/02/16 22:40:31  5-MIN KAOH 030340Z AUTO 00000KT 10SM CLR 19/13 A3003 870 65 1600 000/00 RMK AO2 T01940128
04850KAOH AOH20160602224510806/02/16 22:45:31  5-MIN KAOH 030345Z AUTO 00000KT 10SM CLR 19/13 A3003 870 67 1600 000/00 RMK AO2 T01940133
04850KAOH AOH20160602225011506/02/16 22:50:31  5-MIN KAOH 030350Z AUTO 00000KT 10SM CLR 19/13 A3003 880 67 1600 000/00 RMK AO2 SLP163 T01940133
04850KAOH AOH20160602225510806/02/16 22:55:31  5-MIN KAOH 030355Z AUTO 18003KT 10SM CLR 19/13 A3003 880 70 1600 180/03 RMK AO2 T01890133
04850KAOH AOH20160602230010806/02/16 23:00:31  5-MIN KAOH 030400Z AUTO 19003KT 10SM CLR 19/13 A3003 880 70 1600 190/03 RMK AO2 T01890133
04850KAOH AOH20160602230510806/02/16 23:05:31  5-MIN KAOH 030405Z AUTO 00000KT 10SM CLR 19/14 A3003 880 72 1600 000/00 RMK AO2 T01890139
04850KAOH AOH20160602231010806/02/16 23:10:31  5-MIN KAOH 030410Z AUTO 00000KT 10SM CLR 18/13 A3003 870 72 1500 000/00 RMK AO2 T01830133
04850KAOH AOH20160602231510806/02/16 23:15:31  5-MIN KAOH 030415Z AUTO 00000KT 10SM CLR 19/13 A3004 870 70 1600 000/00 RMK AO2 T01890133
04850KAOH AOH20160602232010806/02/16 23:20:31  5-MIN KAOH 030420Z AUTO 00000KT 10SM CLR 18/13 A3004 870 72 1500 000/00 RMK AO2 T01830133
04850KAOH AOH20160602232510806/02/16 23:25:31  5-MIN KAOH 030425Z AUTO 33003KT 10SM CLR 17/12 A3004 870 72 1400 340/03 RMK AO2 T01720122
04850KAOH AOH20160602233010806/02/16 23:30:31  5-MIN KAOH 030430Z AUTO 36003KT 10SM CLR 17/12 A3004 870 72 1400 360/03 RMK AO2 T01720122
04850KAOH AOH20160602233510806/02/16 23:35:31  5-MIN KAOH 030435Z AUTO 00000KT 10SM CLR 17/13 A3004 870 78 1400 000/00 RMK AO2 T01720133
04850KAOH AOH20160602234010806/02/16 23:40:31  5-MIN KAOH 030440Z AUTO 00000KT 10SM CLR 17/13 A3004 870 78 1400 000/00 RMK AO2 T01720133
04850KAOH AOH20160602234510806/02/16 23:45:31  5-MIN KAOH 030445Z AUTO 00000KT 10SM CLR 18/13 A3004 870 75 1400 000/00 RMK AO2 T01780133
04850KAOH AOH20160602235012506/02/16 23:50:31  5-MIN KAOH 030450Z AUTO 00000KT 10SM CLR 18/13 A3004 870 75 1400 000/00 RMK AO2 SLP167 T01780133 402940172
04850KAOH AOH20160602235510806/02/16 23:55:31  5-MIN KAOH 030455Z AUTO 00000KT 10SM CLR 17/13 A3004 870 78 1400 000/00 RMK AO2 T01720133
04850KAOH AOH20160603000010806/03/16 00:00:31  5-MIN KAOH 030500Z AUTO 00000KT 10SM CLR 17/13 A3004 870 75 1400 000/00 RMK AO2 T01720128
04850KAOH AOH20160603000510806/03/16 00:05:31  5-MIN KAOH 030505Z AUTO 02004KT 10SM CLR 18/12 A3004 870 69 1400 030/04 RMK AO2 T01780122
04850KAOH AOH20160603001010806/03/16 00:10:31  5-MIN KAOH 030510Z AUTO 02004KT 10SM CLR 18/12 A3004 860 67 1400 030/04 RMK AO2 T01780117
04850KAOH AOH20160603001510806/03/16 00:15:31  5-MIN KAOH 030515Z AUTO 03003KT 10SM CLR 18/11 A3004 860 62 1500 040/03 RMK AO2 T01830111
04850KAOH AOH20160603002010806/03/16 00:20:31  5-MIN KAOH 030520Z AUTO 04003KT 10SM CLR 18/12 A3004 860 67 1400 050/03 RMK AO2 T01780117
04850KAOH AOH20160603002510806/03/16 00:25:31  5-MIN KAOH 030525Z AUTO 04004KT 10SM CLR 18/12 A3004 870 65 1500 040/04 RMK AO2 T01830117
04850KAOH AOH20160603003010806/03/16 00:30:31  5-MIN KAOH 030530Z AUTO 02004KT 10SM CLR 18/12 A3004 870 65 1500 030/04 RMK AO2 T01830117
04850KAOH AOH20160603003510806/03/16 00:35:31  5-MIN KAOH 030535Z AUTO 02004KT 10SM CLR 18/11 A3004 860 64 1400 020/04 RMK AO2 T01780111
04850KAOH AOH20160603004010806/03/16 00:40:31  5-MIN KAOH 030540Z AUTO 02005KT 10SM CLR 18/11 A3004 870 64 1400 020/05 RMK AO2 T01780111
04850KAOH AOH20160603004510806/03/16 00:45:31  5-MIN KAOH 030545Z AUTO 01006KT 10SM CLR 18/11 A3004 870 64 1400 010/06 RMK AO2 T01780111
04850KAOH AOH20160603005013306/03/16 00:50:31  5-MIN KAOH 030550Z AUTO 36005KT 10SM CLR 18/10 A3004 870 60 1400 360/05 RMK AO2 SLP167 T01780100 10272 20172 53020
04850KAOH AOH20160603005510806/03/16 00:55:31  5-MIN KAOH 030555Z AUTO 01005KT 10SM CLR 18/10 A3004 870 58 1500 010/05 RMK AO2 T01830100
04850KAOH AOH20160603010010806/03/16 01:00:31  5-MIN KAOH 030600Z AUTO 01004KT 10SM CLR 18/10 A3004 870 58 1500 020/04 RMK AO2 T01830100
04850KAOH AOH20160603010510806/03/16 01:05:31  5-MIN KAOH 030605Z AUTO 01006KT 10SM CLR 18/10 A3004 870 58 1500 020/06 RMK AO2 T01830100
04850KAOH AOH20160603011010806/03/16 01:10:31  5-MIN KAOH 030610Z AUTO 02006KT 10SM CLR 18/10 A3004 870 58 1500 020/06 RMK AO2 T01830100
04850KAOH AOH20160603011510806/03/16 01:15:31  5-MIN KAOH 030615Z AUTO 01007KT 10SM CLR 18/10 A3004 870 58 1500 010/07 RMK AO2 T01830100
04850KAOH AOH20160603012010806/03/16 01:20:31  5-MIN KAOH 030620Z AUTO 01007KT 10SM CLR 18/09 A3004 870 56 1500 010/07 RMK AO2 T01830094
04850KAOH AOH20160603012510806/03/16 01:25:31  5-MIN KAOH 030625Z AUTO 01006KT 10SM CLR 19/09 A3004 860 54 1600 010/06 RMK AO2 T01890094
04850KAOH AOH20160603013010806/03/16 01:30:31  5-MIN KAOH 030630Z AUTO 01007KT 10SM CLR 18/09 A3004 860 56 1500 020/07 RMK AO2 T01830094
04850KAOH AOH20160603013510806/03/16 01:35:31  5-MIN KAOH 030635Z AUTO 01006KT 10SM CLR 18/09 A3004 860 56 1500 010/06 RMK AO2 T01830094
04850KAOH AOH20160603014010806/03/16 01:40:31  5-MIN KAOH 030640Z AUTO 36006KT 10SM CLR 18/09 A3004 860 56 1500 010/06 RMK AO2 T01830094
04850KAOH AOH20160603014510806/03/16 01:45:31  5-MIN KAOH 030645Z AUTO 02005KT 10SM CLR 18/09 A3004 870 56 1500 020/05 RMK AO2 T01830094
04850KAOH AOH20160603015011506/03/16 01:50:31  5-MIN KAOH 030650Z AUTO 02004KT 10SM CLR 18/09 A3004 860 56 1500 020/04 RMK AO2 SLP166 T01830094
04850KAOH AOH20160603015510806/03/16 01:55:31  5-MIN KAOH 030655Z AUTO 02004KT 10SM CLR 18/09 A3004 860 58 1400 020/04 RMK AO2 T01780094
04850KAOH AOH20160603020010806/03/16 02:00:31  5-MIN KAOH 030700Z AUTO 03004KT 10SM CLR 18/09 A3004 860 56 1500 040/04 RMK AO2 T01830094
04850KAOH AOH20160603020510806/03/16 02:05:31  5-MIN KAOH 030705Z AUTO 04004KT 10SM CLR 18/09 A3004 870 56 1500 040/04 RMK AO2 T01830094
04850KAOH AOH20160603021010806/03/16 02:10:31  5-MIN KAOH 030710Z AUTO 04004KT 10SM CLR 18/09 A3004 870 54 1500 050/04 RMK AO2 T01830089
04850KAOH AOH20160603021510806/03/16 02:15:31  5-MIN KAOH 030715Z AUTO 05003KT 10SM CLR 18/09 A3004 870 55 1400 050/03 RMK AO2 T01780089
04850KAOH AOH20160603022010806/03/16 02:20:31  5-MIN KAOH 030720Z AUTO 07003KT 10SM CLR 18/09 A3004 870 58 1400 070/03 RMK AO2 T01780094
04850KAOH AOH20160603022510806/03/16 02:25:31  5-MIN KAOH 030725Z AUTO 00000KT 10SM CLR 17/09 A3004 870 60 1400 000/00 RMK AO2 T01720094
04850KAOH AOH20160603023010806/03/16 02:30:31  5-MIN KAOH 030730Z AUTO 00000KT 10SM CLR 17/09 A3004 870 60 1400 000/00 RMK AO2 T01720094
04850KAOH AOH20160603023510806/03/16 02:35:31  5-MIN KAOH 030735Z AUTO 00000KT 10SM CLR 17/09 A3004 870 60 1400 000/00 RMK AO2 T01720094
04850KAOH AOH20160603024010806/03/16 02:40:31  5-MIN KAOH 030740Z AUTO 00000KT 10SM CLR 17/09 A3004 870 60 1400 000/00 RMK AO2 T01720094
04850KAOH AOH20160603024510806/03/16 02:45:31  5-MIN KAOH 030745Z AUTO 01003KT 10SM CLR 17/09 A3004 870 60 1400 020/03 RMK AO2 T01720094
04850KAOH AOH20160603025011506/03/16 02:50:31  5-MIN KAOH 030750Z AUTO 36003KT 10SM CLR 16/09 A3004 860 67 1200 360/03 RMK AO2 SLP167 T01560094
04850KAOH AOH20160603025510806/03/16 02:55:31  5-MIN KAOH 030755Z AUTO 34003KT 10SM CLR 16/09 A3004 860 64 1200 350/03 RMK AO2 T01610094
04850KAOH AOH20160603030010806/03/16 03:00:31  5-MIN KAOH 030800Z AUTO 00000KT 10SM CLR 16/09 A3004 860 64 1200 000/00 RMK AO2 T01610094
04850KAOH AOH20160603030510806/03/16 03:05:31  5-MIN KAOH 030805Z AUTO 35003KT 10SM CLR 16/09 A3004 860 64 1200 350/03 RMK AO2 T01610094
04850KAOH AOH20160603031010806/03/16 03:10:31  5-MIN KAOH 030810Z AUTO 00000KT 10SM CLR 16/09 A3004 870 64 1200 000/00 RMK AO2 T01610094
04850KAOH AOH20160603031510806/03/16 03:15:31  5-MIN KAOH 030815Z AUTO 00000KT 10SM CLR 17/09 A3004 870 62 1300 000/00 RMK AO2 T01670094
04850KAOH AOH20160603032010806/03/16 03:20:31  5-MIN KAOH 030820Z AUTO 00000KT 10SM CLR 16/09 A3004 870 67 1200 000/00 RMK AO2 T01560094
04850KAOH AOH20160603032510806/03/16 03:25:31  5-MIN KAOH 030825Z AUTO 00000KT 10SM CLR 16/09 A3004 870 67 1200 000/00 RMK AO2 T01560094
04850KAOH AOH20160603033010806/03/16 03:30:31  5-MIN KAOH 030830Z AUTO 00000KT 10SM CLR 16/09 A3004 870 67 1200 000/00 RMK AO2 T01560094
04850KAOH AOH20160603033510806/03/16 03:35:31  5-MIN KAOH 030835Z AUTO 00000KT 10SM CLR 17/09 A3004 870 60 1300 000/00 RMK AO2 T01670089
04850KAOH AOH20160603034010806/03/16 03:40:31  5-MIN KAOH 030840Z AUTO 00000KT 10SM CLR 17/09 A3004 870 60 1300 000/00 RMK AO2 T01670089
04850KAOH AOH20160603034510806/03/16 03:45:31  5-MIN KAOH 030845Z AUTO 00000KT 10SM CLR 17/09 A3004 870 57 1400 000/00 RMK AO2 T01720089
04850KAOH AOH20160603035012106/03/16 03:50:31  5-MIN KAOH 030850Z AUTO 00000KT 10SM CLR 17/09 A3004 870 60 1300 000/00 RMK AO2 SLP165 T01670089 50004
04850KAOH AOH20160603035510806/03/16 03:55:31  5-MIN KAOH 030855Z AUTO 00000KT 10SM CLR 16/09 A3004 870 62 1200 000/00 RMK AO2 T01610089
04850KAOH AOH20160603040010806/03/16 04:00:31  5-MIN KAOH 030900Z AUTO 00000KT 10SM CLR 16/09 A3004 870 67 1200 000/00 RMK AO2 T01560094
04850KAOH AOH20160603040510806/03/16 04:05:31  5-MIN KAOH 030905Z AUTO 00000KT 10SM CLR 16/09 A3004 870 67 1200 000/00 RMK AO2 T01560094
04850KAOH AOH20160603041010806/03/16 04:10:31  5-MIN KAOH 030910Z AUTO 00000KT 10SM CLR 15/09 A3004 870 69 1100 000/00 RMK AO2 T01500094
04850KAOH AOH20160603041510806/03/16 04:15:31  5-MIN KAOH 030915Z AUTO 00000KT 10SM CLR 15/09 A3004 870 69 1100 000/00 RMK AO2 T01500094
04850KAOH AOH20160603042010806/03/16 04:20:31  5-MIN KAOH 030920Z AUTO 00000KT 10SM CLR 15/09 A3004 870 69 1100 000/00 RMK AO2 T01500094
04850KAOH AOH20160603042510806/03/16 04:25:31  5-MIN KAOH 030925Z AUTO 00000KT 10SM CLR 14/10 A3004 870 74 1000 000/00 RMK AO2 T01440100
04850KAOH AOH20160603043010806/03/16 04:30:31  5-MIN KAOH 030930Z AUTO 00000KT 10SM CLR 14/09 A3004 870 72 1000 000/00 RMK AO2 T01440094
04850KAOH AOH20160603043510806/03/16 04:35:31  5-MIN KAOH 030935Z AUTO 11003KT 10SM CLR 14/10 A3004 870 74 1000 120/03 RMK AO2 T01440100
04850KAOH AOH20160603044010806/03/16 04:40:31  5-MIN KAOH 030940Z AUTO 12003KT 10SM CLR 14/10 A3004 870 74 1000 120/03 RMK AO2 T01440100
04850KAOH AOH20160603044510806/03/16 04:45:31  5-MIN KAOH 030945Z AUTO 12003KT 10SM CLR 14/09 A3005 860 72 1000 130/03 RMK AO2 T01440094
04850KAOH AOH20160603045011506/03/16 04:50:31  5-MIN KAOH 030950Z AUTO 12003KT 10SM CLR 14/09 A3004 860 72 1000 130/03 RMK AO2 SLP168 T01440094
04850KAOH AOH20160603045510806/03/16 04:55:31  5-MIN KAOH 030955Z AUTO 10003KT 10SM CLR 14/10 A3004 860 74 1000 110/03 RMK AO2 T01440100
04850KAOH AOH20160603050010806/03/16 05:00:31  5-MIN KAOH 031000Z AUTO 00000KT 10SM CLR 14/10 A3004 860 77 1000 000/00 RMK AO2 T01390100
04850KAOH AOH20160603050510706/03/16 05:05:31  5-MIN KAOH 031005Z AUTO 00000KT 10SM CLR 13/10 A3004 860 80 900 000/00 RMK AO2 T01330100
04850KAOH AOH20160603051010806/03/16 05:10:31  5-MIN KAOH 031010Z AUTO 00000KT 10SM CLR 14/10 A3004 860 77 1000 000/00 RMK AO2 T01390100
04850KAOH AOH20160603051510806/03/16 05:15:31  5-MIN KAOH 031015Z AUTO 00000KT 10SM CLR 14/10 A3005 860 77 1000 000/00 RMK AO2 T01390100
04850KAOH AOH20160603052010806/03/16 05:20:31  5-MIN KAOH 031020Z AUTO 00000KT 10SM CLR 14/10 A3005 860 77 1000 000/00 RMK AO2 T01390100
04850KAOH AOH20160603052510806/03/16 05:25:31  5-MIN KAOH 031025Z AUTO 00000KT 10SM CLR 14/10 A3005 860 77 1000 000/00 RMK AO2 T01390100
04850KAOH AOH20160603053010806/03/16 05:30:31  5-MIN KAOH 031030Z AUTO 00000KT 10SM CLR 14/10 A3005 860 77 1000 000/00 RMK AO2 T01390100
04850KAOH AOH20160603053510806/03/16 05:35:31  5-MIN KAOH 031035Z AUTO 00000KT 10SM CLR 14/11 A3005 860 77 1000 000/00 RMK AO2 T01440106
04850KAOH AOH20160603054010806/03/16 05:40:31  5-MIN KAOH 031040Z AUTO 00000KT 10SM CLR 14/11 A3005 850 77 1000 000/00 RMK AO2 T01440106
04850KAOH AOH20160603054510806/03/16 05:45:31  5-MIN KAOH 031045Z AUTO 09003KT 10SM CLR 15/11 A3005 860 74 1100 100/03 RMK AO2 T01500106
04850KAOH AOH20160603055011506/03/16 05:50:31  5-MIN KAOH 031050Z AUTO 00000KT 10SM CLR 15/11 A3005 860 77 1100 000/00 RMK AO2 SLP171 T01500111
04850KAOH AOH20160603055510806/03/16 05:55:31  5-MIN KAOH 031055Z AUTO 00000KT 10SM CLR 16/12 A3005 850 77 1200 000/00 RMK AO2 T01560117
04850KAOH AOH20160603060010806/03/16 06:00:31  5-MIN KAOH 031100Z AUTO 00000KT 10SM CLR 16/12 A3005 860 77 1200 000/00 RMK AO2 T01560117
04850KAOH AOH20160603060510806/03/16 06:05:31  5-MIN KAOH 031105Z AUTO 00000KT 10SM CLR 16/11 A3006 850 72 1200 000/00 RMK AO2 T01610111
04850KAOH AOH20160603061010806/03/16 06:10:31  5-MIN KAOH 031110Z AUTO 00000KT 10SM CLR 16/11 A3006 850 72 1200 000/00 RMK AO2 T01610111
04850KAOH AOH20160603061510806/03/16 06:15:31  5-MIN KAOH 031115Z AUTO 00000KT 10SM CLR 17/12 A3006 850 72 1300 000/00 RMK AO2 T01670117
04850KAOH AOH20160603062010806/03/16 06:20:31  5-MIN KAOH 031120Z AUTO 00000KT 10SM CLR 17/13 A3006 850 77 1300 000/00 RMK AO2 T01670128
04850KAOH AOH20160603062510806/03/16 06:25:31  5-MIN KAOH 031125Z AUTO 00000KT 10SM CLR 17/12 A3006 850 69 1300 000/00 RMK AO2 T01720117
04850KAOH AOH20160603063010806/03/16 06:30:31  5-MIN KAOH 031130Z AUTO 00000KT 10SM CLR 18/12 A3006 850 67 1400 000/00 RMK AO2 T01780117
04850KAOH AOH20160603063510806/03/16 06:35:31  5-MIN KAOH 031135Z AUTO 00000KT 10SM CLR 18/12 A3006 850 67 1400 000/00 RMK AO2 T01780117
04850KAOH AOH20160603064010806/03/16 06:40:31  5-MIN KAOH 031140Z AUTO 09003KT 10SM CLR 19/11 A3006 850 60 1500 090/03 RMK AO2 T01890111
04850KAOH AOH20160603064510806/03/16 06:45:31  5-MIN KAOH 031145Z AUTO 08003KT 10SM CLR 19/11 A3006 850 58 1500 080/03 RMK AO2 T01890106
04850KAOH AOH20160603065013306/03/16 06:50:31  5-MIN KAOH 031150Z AUTO 07003KT 10SM CLR 19/11 A3007 840 56 1600 080/03 RMK AO2 SLP174 T01940106 10194 20133 58000
04850KAOH AOH20160603065510806/03/16 06:55:31  5-MIN KAOH 031155Z AUTO 05003KT 10SM CLR 19/11 A3007 840 56 1600 060/03 RMK AO2 T01940106
04850KAOH AOH20160603070010806/03/16 07:00:31  5-MIN KAOH 031200Z AUTO 03003KT 10SM CLR 19/11 A3007 840 56 1600 030/03 RMK AO2 T01940106
04850KAOH AOH20160603070510806/03/16 07:05:31  5-MIN KAOH 031205Z AUTO 01004KT 10SM CLR 19/11 A3007 840 56 1600 020/04 RMK AO2 T01940106
04850KAOH AOH20160603071010806/03/16 07:10:31  5-MIN KAOH 031210Z AUTO 03004KT 10SM CLR 19/11 A3007 840 56 1600 030/04 RMK AO2 T01940106
04850KAOH AOH20160603071510806/03/16 07:15:31  5-MIN KAOH 031215Z AUTO 05003KT 10SM CLR 19/11 A3007 840 56 1600 050/03 RMK AO2 T01940106
04850KAOH AOH20160603072010806/03/16 07:20:31  5-MIN KAOH 031220Z AUTO 04003KT 10SM CLR 20/11 A3007 840 54 1700 040/03 RMK AO2 T02000106
04850KAOH AOH20160603072510806/03/16 07:25:31  5-MIN KAOH 031225Z AUTO 04005KT 10SM CLR 20/11 A3007 840 54 1700 050/05 RMK AO2 T02000106
04850KAOH AOH20160603073010806/03/16 07:30:31  5-MIN KAOH 031230Z AUTO 03004KT 10SM CLR 21/11 A3007 840 52 1700 040/04 RMK AO2 T02060106
04850KAOH AOH20160603073510806/03/16 07:35:31  5-MIN KAOH 031235Z AUTO 07004KT 10SM CLR 21/11 A3007 840 52 1700 080/04 RMK AO2 T02060106
04850KAOH AOH20160603074010806/03/16 07:40:31  5-MIN KAOH 031240Z AUTO 06003KT 10SM CLR 21/11 A3007 840 54 1700 070/03 RMK AO2 T02060111
04850KAOH AOH20160603074510806/03/16 07:45:31  5-MIN KAOH 031245Z AUTO 04004KT 10SM CLR 21/11 A3007 840 54 1700 040/04 RMK AO2 T02060111
04850KAOH AOH20160603075011506/03/16 07:50:31  5-MIN KAOH 031250Z AUTO 04004KT 10SM CLR 21/11 A3007 840 52 1800 040/04 RMK AO2 SLP177 T02110111
04850KAOH AOH20160603075510806/03/16 07:55:31  5-MIN KAOH 031255Z AUTO 04004KT 10SM CLR 21/11 A3007 830 50 1800 050/04 RMK AO2 T02110106
04850KAOH AOH20160603080010806/03/16 08:00:31  5-MIN KAOH 031300Z AUTO 05004KT 10SM CLR 21/11 A3007 840 50 1800 050/04 RMK AO2 T02110106
04850KAOH AOH20160603080510806/03/16 08:05:31  5-MIN KAOH 031305Z AUTO 03005KT 10SM CLR 21/11 A3007 840 50 1800 040/05 RMK AO2 T02110106
04850KAOH AOH20160603081010806/03/16 08:10:31  5-MIN KAOH 031310Z AUTO 04004KT 10SM CLR 21/11 A3008 830 50 1800 050/04 RMK AO2 T02110106
04850KAOH AOH20160603081510806/03/16 08:15:31  5-MIN KAOH 031315Z AUTO 01006KT 10SM CLR 21/11 A3008 830 52 1800 020/06 RMK AO2 T02110111
04850KAOH AOH20160603082010806/03/16 08:20:31  5-MIN KAOH 031320Z AUTO 36005KT 10SM CLR 21/11 A3008 830 52 1800 010/05 RMK AO2 T02110111
04850KAOH AOH20160603082510806/03/16 08:25:31  5-MIN KAOH 031325Z AUTO 36006KT 10SM CLR 21/11 A3008 830 50 1800 010/06 RMK AO2 T02110106
04850KAOH AOH20160603083010806/03/16 08:30:31  5-MIN KAOH 031330Z AUTO 03005KT 10SM CLR 22/11 A3008 830 50 1800 030/05 RMK AO2 T02170111
04850KAOH AOH20160603083510806/03/16 08:35:31  5-MIN KAOH 031335Z AUTO 36005KT 10SM CLR 22/12 A3008 830 52 1800 010/05 RMK AO2 T02170117
04850KAOH AOH20160603084010806/03/16 08:40:31  5-MIN KAOH 031340Z AUTO 35006KT 10SM CLR 22/12 A3008 830 51 1900 360/06 RMK AO2 T02220117
04850KAOH AOH20160603084510806/03/16 08:45:31  5-MIN KAOH 031345Z AUTO 34007KT 10SM CLR 22/12 A3008 830 52 1800 350/07 RMK AO2 T02170117
04850KAOH AOH20160603085011506/03/16 08:50:31  5-MIN KAOH 031350Z AUTO 34006KT 10SM CLR 22/12 A3008 830 52 1800 350/06 RMK AO2 SLP182 T02170117
04850KAOH AOH20160603085510806/03/16 08:55:31  5-MIN KAOH 031355Z AUTO 34005KT 10SM CLR 22/12 A3008 830 52 1800 350/05 RMK AO2 T02170117
04850KAOH AOH20160603090010806/03/16 09:00:31  5-MIN KAOH 031400Z AUTO 02005KT 10SM CLR 22/11 A3008 830 50 1800 030/05 RMK AO2 T02170111
04850KAOH AOH20160603090510806/03/16 09:05:31  5-MIN KAOH 031405Z AUTO 35007KT 10SM CLR 22/11 A3008 830 49 1900 360/07 RMK AO2 T02220111
04850KAOH AOH20160603091010806/03/16 09:10:31  5-MIN KAOH 031410Z AUTO 03005KT 10SM CLR 22/11 A3008 830 50 1800 030/05 RMK AO2 T02170111
04850KAOH AOH20160603091510806/03/16 09:15:31  5-MIN KAOH 031415Z AUTO 36006KT 10SM CLR 22/11 A3008 830 49 1900 010/06 RMK AO2 T02220111
04850KAOH AOH20160603092010806/03/16 09:20:31  5-MIN KAOH 031420Z AUTO 04005KT 10SM CLR 22/11 A3008 830 49 1900 050/05 RMK AO2 T02220111
04850KAOH AOH20160603092510806/03/16 09:25:31  5-MIN KAOH 031425Z AUTO 03005KT 10SM CLR 23/11 A3008 830 47 2000 040/05 RMK AO2 T02280111
04850KAOH AOH20160603093010806/03/16 09:30:31  5-MIN KAOH 031430Z AUTO 04006KT 10SM CLR 23/11 A3008 830 45 2000 050/06 RMK AO2 T02280106
04850KAOH AOH20160603093510806/03/16 09:35:31  5-MIN KAOH 031435Z AUTO VRB05KT 10SM CLR 23/11 A3008 830 45 2000 VRB/05 RMK AO2 T02280106
04850KAOH AOH20160603094010806/03/16 09:40:31  5-MIN KAOH 031440Z AUTO 01006KT 10SM CLR 23/11 A3008 830 45 2000 010/06 RMK AO2 T02280106
04850KAOH AOH20160603094510806/03/16 09:45:31  5-MIN KAOH 031445Z AUTO 07005KT 10SM CLR 23/11 A3008 830 45 2000 080/05 RMK AO2 T02330111
04850KAOH AOH20160603095012106/03/16 09:50:31  5-MIN KAOH 031450Z AUTO 35007KT 10SM CLR 24/11 A3008 830 42 2100 360/07 RMK AO2 SLP179 T02390106 53009
04850KAOH AOH20160603095510806/03/16 09:55:31  5-MIN KAOH 031455Z AUTO 01007KT 10SM CLR 23/11 A3008 830 44 2000 020/07 RMK AO2 T02330106
04850KAOH AOH20160603100010806/03/16 10:00:31  5-MIN KAOH 031500Z AUTO VRB04KT 10SM CLR 23/11 A3008 830 44 2000 VRB/04 RMK AO2 T02330106
04850KAOH AOH20160603100510806/03/16 10:05:31  5-MIN KAOH 031505Z AUTO VRB05KT 10SM CLR 24/11 A3008 830 42 2100 VRB/05 RMK AO2 T02390106
04850KAOH AOH20160603101010806/03/16 10:10:31  5-MIN KAOH 031510Z AUTO 03005KT 10SM CLR 24/11 A3008 830 42 2100 040/05 RMK AO2 T02390106
04850KAOH AOH20160603101510806/03/16 10:15:31  5-MIN KAOH 031515Z AUTO VRB05KT 10SM CLR 24/11 A3008 830 42 2100 VRB/05 RMK AO2 T02390106
04850KAOH AOH20160603102010806/03/16 10:20:31  5-MIN KAOH 031520Z AUTO 02005KT 10SM CLR 24/11 A3008 830 42 2100 030/05 RMK AO2 T02390106
04850KAOH AOH20160603102510806/03/16 10:25:31  5-MIN KAOH 031525Z AUTO 35005KT 10SM CLR 24/11 A3008 830 42 2100 360/05 RMK AO2 T02390106
04850KAOH AOH20160603103010806/03/16 10:30:31  5-MIN KAOH 031530Z AUTO 35006KT 10SM CLR 24/11 A3008 830 41 2100 350/06 RMK AO2 T02440106
04850KAOH AOH20160603103510806/03/16 10:35:31  5-MIN KAOH 031535Z AUTO 04006KT 10SM CLR 24/11 A3008 830 41 2200 050/06 RMK AO2 T02440106
04850KAOH AOH20160603104010806/03/16 10:40:31  5-MIN KAOH 031540Z AUTO 05004KT 10SM CLR 24/11 A3008 830 41 2200 050/04 RMK AO2 T02440106
04850KAOH AOH20160603104510806/03/16 10:45:31  5-MIN KAOH 031545Z AUTO 01005KT 10SM CLR 25/11 A3008 830 41 2200 010/05 RMK AO2 T02500111
04850KAOH AOH20160603105011506/03/16 10:50:31  5-MIN KAOH 031550Z AUTO VRB04KT 10SM CLR 25/11 A3008 830 39 2200 VRB/04 RMK AO2 SLP181 T02500106
04850KAOH AOH20160603105510806/03/16 10:55:31  5-MIN KAOH 031555Z AUTO 01007KT 10SM CLR 25/10 A3008 830 38 2200 020/07 RMK AO2 T02500100
04850KAOH AOH20160603110010806/03/16 11:00:31  5-MIN KAOH 031600Z AUTO VRB03KT 10SM CLR 24/10 A3008 830 39 2200 VRB/03 RMK AO2 T02440100
04850KAOH AOH20160603110510806/03/16 11:05:31  5-MIN KAOH 031605Z AUTO 03005KT 10SM CLR 25/11 A3008 830 39 2200 040/05 RMK AO2 T02500106
04850KAOH AOH20160603111010806/03/16 11:10:31  5-MIN KAOH 031610Z AUTO VRB03KT 10SM CLR 25/11 A3008 830 39 2200 VRB/03 RMK AO2 T02500106
04850KAOH AOH20160603111510806/03/16 11:15:31  5-MIN KAOH 031615Z AUTO 00000KT 10SM CLR 26/11 A3008 830 40 2300 000/00 RMK AO2 T02560111
04850KAOH AOH20160603112009806/03/16 11:20:31  5-MIN KAOH 031620Z AUTO 10SM CLR 26/10 A3008 830 37 2300 M /M RMK AO2 T02560100
04850KAOH AOH20160603112510806/03/16 11:25:31  5-MIN KAOH 031625Z AUTO 34005KT 10SM CLR 24/11 A3008 830 41 2200 340/05 RMK AO2 T02440106
04850KAOH AOH20160603113010806/03/16 11:30:31  5-MIN KAOH 031630Z AUTO 32004KT 10SM CLR 26/10 A3008 830 37 2300 330/04 RMK AO2 T02560100
04850KAOH AOH20160603113510806/03/16 11:35:31  5-MIN KAOH 031635Z AUTO 31006KT 10SM CLR 26/10 A3008 830 37 2300 310/06 RMK AO2 T02560100
04850KAOH AOH20160603114010806/03/16 11:40:31  5-MIN KAOH 031640Z AUTO VRB04KT 10SM CLR 26/09 A3008 830 35 2300 VRB/04 RMK AO2 T02560094
04850KAOH AOH20160603114510806/03/16 11:45:31  5-MIN KAOH 031645Z AUTO 22005KT 10SM CLR 25/09 A3008 830 37 2200 230/05 RMK AO2 T02500094
04850KAOH AOH20160603115011506/03/16 11:50:31  5-MIN KAOH 031650Z AUTO 22005KT 10SM CLR 25/11 A3008 830 39 2200 230/05 RMK AO2 SLP179 T02500106
04850KAOH AOH20160603115510806/03/16 11:55:31  5-MIN KAOH 031655Z AUTO 23004KT 10SM CLR 25/10 A3008 830 38 2200 230/04 RMK AO2 T02500100
04850KAOH AOH20160603120010806/03/16 12:00:31  5-MIN KAOH 031700Z AUTO VRB03KT 10SM CLR 26/11 A3008 830 38 2300 VRB/03 RMK AO2 T02610111
04850KAOH AOH20160603120510806/03/16 12:05:31  5-MIN KAOH 031705Z AUTO 01006KT 10SM CLR 26/09 A3008 830 35 2300 020/06 RMK AO2 T02560094
04850KAOH AOH20160603121010806/03/16 12:10:31  5-MIN KAOH 031710Z AUTO VRB04KT 10SM CLR 26/09 A3008 830 34 2300 VRB/04 RMK AO2 T02610094
04850KAOH AOH20160603121510806/03/16 12:15:31  5-MIN KAOH 031715Z AUTO VRB06KT 10SM CLR 26/09 A3008 830 34 2300 VRB/06 RMK AO2 T02610094
04850KAOH AOH20160603122010806/03/16 12:20:31  5-MIN KAOH 031720Z AUTO VRB03KT 10SM CLR 26/09 A3007 840 34 2300 VRB/03 RMK AO2 T02610094
04850KAOH AOH20160603122509806/03/16 12:25:31  5-MIN KAOH 031725Z AUTO 10SM CLR 26/10 A3007 840 36 2300 M /M RMK AO2 T02610100
04850KAOH AOH20160603123010806/03/16 12:30:31  5-MIN KAOH 031730Z AUTO VRB04KT 10SM CLR 26/10 A3007 840 36 2300 VRB/04 RMK AO2 T02610100
04850KAOH AOH20160603123510806/03/16 12:35:31  5-MIN KAOH 031735Z AUTO VRB05KT 10SM CLR 26/11 A3007 840 37 2400 VRB/05 RMK AO2 T02610106
04850KAOH AOH20160603124010806/03/16 12:40:31  5-MIN KAOH 031740Z AUTO 27005KT 10SM CLR 26/10 A3007 840 36 2300 270/05 RMK AO2 T02610100
04850KAOH AOH20160603124510806/03/16 12:45:31  5-MIN KAOH 031745Z AUTO VRB04KT 10SM CLR 27/10 A3007 840 34 2400 VRB/04 RMK AO2 T02670100
04850KAOH AOH20160603125013306/03/16 12:50:31  5-MIN KAOH 031750Z AUTO 28006KT 10SM CLR 26/10 A3007 840 36 2400 290/06 RMK AO2 SLP176 T02610100 10267 20194 50005
04850KAOH AOH20160603125510806/03/16 12:55:31  5-MIN KAOH 031755Z AUTO VRB05KT 10SM CLR 26/10 A3007 840 36 2400 VRB/05 RMK AO2 T02610100
04850KAOH AOH20160603130010806/03/16 13:00:31  5-MIN KAOH 031800Z AUTO 25008KT 10SM CLR 27/09 A3007 840 33 2400 250/08 RMK AO2 T02670094
04850KAOH AOH20160603130510806/03/16 13:05:31  5-MIN KAOH 031805Z AUTO 23008KT 10SM CLR 27/09 A3007 840 32 2400 230/08 RMK AO2 T02670089
04850KAOH AOH20160603131010806/03/16 13:10:31  5-MIN KAOH 031810Z AUTO 26004KT 10SM CLR 27/10 A3006 840 33 2500 270/04 RMK AO2 T02720100
04850KAOH AOH20160603131510806/03/16 13:15:31  5-MIN KAOH 031815Z AUTO VRB03KT 10SM CLR 27/09 A3006 840 33 2400 VRB/03 RMK AO2 T02670094
04850KAOH AOH20160603132010806/03/16 13:20:31  5-MIN KAOH 031820Z AUTO 29011KT 10SM CLR 27/09 A3007 840 31 2500 300/11 RMK AO2 T02720089
04850KAOH AOH20160603132510806/03/16 13:25:31  5-MIN KAOH 031825Z AUTO 31007KT 10SM CLR 27/08 A3006 840 29 2500 320/07 RMK AO2 T02720078
04850KAOH AOH20160603133010806/03/16 13:30:31  5-MIN KAOH 031830Z AUTO 25008KT 10SM CLR 28/08 A3006 850 29 2500 260/08 RMK AO2 T02780083
04850KAOH AOH20160603133510806/03/16 13:35:31  5-MIN KAOH 031835Z AUTO VRB04KT 10SM CLR 27/09 A3006 850 31 2500 VRB/04 RMK AO2 T02720089
04850KAOH AOH20160603134009806/03/16 13:40:31  5-MIN KAOH 031840Z AUTO 10SM CLR 27/09 A3006 850 31 2500 M /M RMK AO2 T02720089
04850KAOH AOH20160603134510806/03/16 13:45:31  5-MIN KAOH 031845Z AUTO VRB03KT 10SM CLR 27/09 A3006 850 31 2500 VRB/03 RMK AO2 T02720089
04850KAOH AOH20160603135010506/03/16 13:50:31  5-MIN KAOH 031850Z AUTO 10SM CLR 28/09 A3005 850 30 2600 M /M RMK AO2 SLP170 T02780089
04850KAOH AOH20160603135510806/03/16 13:55:31  5-MIN KAOH 031855Z AUTO 31007KT 10SM CLR 28/09 A3006 850 30 2600 320/07 RMK AO2 T02830094
04850KAOH AOH20160603140010806/03/16 14:00:31  5-MIN KAOH 031900Z AUTO 22005KT 10SM CLR 27/10 A3005 850 33 2500 230/05 RMK AO2 T02720100
04850KAOH AOH20160603140510806/03/16 14:05:31  5-MIN KAOH 031905Z AUTO 25006KT 10SM CLR 28/09 A3005 860 31 2600 260/06 RMK AO2 T02780094
04850KAOH AOH20160603141010806/03/16 14:10:31  5-MIN KAOH 031910Z AUTO 27008KT 10SM CLR 28/09 A3005 860 30 2600 270/08 RMK AO2 T02780089
04850KAOH AOH20160603141510806/03/16 14:15:31  5-MIN KAOH 031915Z AUTO 32007KT 10SM CLR 28/08 A3005 860 29 2600 320/07 RMK AO2 T02780083
04850KAOH AOH20160603142010806/03/16 14:20:31  5-MIN KAOH 031920Z AUTO 32007KT 10SM CLR 27/08 A3005 860 30 2500 330/07 RMK AO2 T02720083
04850KAOH AOH20160603142511406/03/16 14:25:31  5-MIN KAOH 031925Z AUTO 30009G14KT 10SM CLR 28/08 A3005 860 28 2600 300/09G14 RMK AO2 T02830083
04850KAOH AOH20160603143010806/03/16 14:30:31  5-MIN KAOH 031930Z AUTO VRB06KT 10SM CLR 28/08 A3005 860 29 2600 VRB/06 RMK AO2 T02780083
04850KAOH AOH20160603143510806/03/16 14:35:31  5-MIN KAOH 031935Z AUTO VRB06KT 10SM CLR 28/09 A3005 860 30 2600 VRB/06 RMK AO2 T02780089
04850KAOH AOH20160603144010806/03/16 14:40:31  5-MIN KAOH 031940Z AUTO 31008KT 10SM CLR 28/08 A3004 860 27 2600 310/08 RMK AO2 T02830078
04850KAOH AOH20160603144510806/03/16 14:45:31  5-MIN KAOH 031945Z AUTO VRB05KT 10SM CLR 28/08 A3004 860 28 2600 VRB/05 RMK AO2 T02780078
04850KAOH AOH20160603145011506/03/16 14:50:31  5-MIN KAOH 031950Z AUTO VRB05KT 10SM CLR 28/08 A3004 870 29 2600 VRB/05 RMK AO2 SLP167 T02780083
04850KAOH AOH20160603145510806/03/16 14:55:31  5-MIN KAOH 031955Z AUTO 35007KT 10SM CLR 28/07 A3004 870 27 2600 350/07 RMK AO2 T02780072
04850KAOH AOH20160603150010806/03/16 15:00:31  5-MIN KAOH 032000Z AUTO 35009KT 10SM CLR 28/07 A3004 870 26 2600 360/09 RMK AO2 T02830072
04850KAOH AOH20160603150512406/03/16 15:05:31  5-MIN KAOH 032005Z AUTO 34008KT 300V020 10SM CLR 28/08 A3004 870 27 2600 340/08 310V030 RMK AO2 T02830078
04850KAOH AOH20160603151010806/03/16 15:10:31  5-MIN KAOH 032010Z AUTO 32009KT 10SM CLR 28/08 A3003 870 27 2600 330/09 RMK AO2 T02830078
04850KAOH AOH20160603151510806/03/16 15:15:31  5-MIN KAOH 032015Z AUTO 30009KT 10SM CLR 28/08 A3003 870 28 2600 310/09 RMK AO2 T02780078
04850KAOH AOH20160603152010806/03/16 15:20:31  5-MIN KAOH 032020Z AUTO VRB05KT 10SM CLR 28/08 A3004 870 27 2600 VRB/05 RMK AO2 T02830078
04850KAOH AOH20160603152510806/03/16 15:25:31  5-MIN KAOH 032025Z AUTO 19006KT 10SM CLR 28/08 A3003 870 28 2600 190/06 RMK AO2 T02780078
04850KAOH AOH20160603153010806/03/16 15:30:31  5-MIN KAOH 032030Z AUTO VRB04KT 10SM CLR 28/07 A3003 870 27 2600 VRB/04 RMK AO2 T02780072
04850KAOH AOH20160603153510806/03/16 15:35:31  5-MIN KAOH 032035Z AUTO 28008KT 10SM CLR 28/07 A3003 870 26 2600 290/08 RMK AO2 T02830072
04850KAOH AOH20160603154010806/03/16 15:40:31  5-MIN KAOH 032040Z AUTO 34009KT 10SM CLR 28/07 A3003 880 25 2600 350/09 RMK AO2 T02830067
04850KAOH AOH20160603154510806/03/16 15:45:31  5-MIN KAOH 032045Z AUTO VRB06KT 10SM CLR 28/07 A3003 880 25 2600 VRB/06 RMK AO2 T02830067
04850KAOH AOH20160603155012106/03/16 15:50:31  5-MIN KAOH 032050Z AUTO 36007KT 10SM CLR 28/07 A3003 880 26 2600 010/07 RMK AO2 SLP161 T02830072 58005
04850KAOH AOH20160603155510806/03/16 15:55:31  5-MIN KAOH 032055Z AUTO 33006KT 10SM CLR 28/07 A3003 880 27 2600 330/06 RMK AO2 T02780072
04850KAOH AOH20160603160010806/03/16 16:00:31  5-MIN KAOH 032100Z AUTO 30008KT 10SM CLR 28/08 A3003 880 27 2600 310/08 RMK AO2 T02830078
04850KAOH AOH20160603160510806/03/16 16:05:31  5-MIN KAOH 032105Z AUTO VRB06KT 10SM CLR 28/08 A3003 880 28 2600 VRB/06 RMK AO2 T02780078
04850KAOH AOH20160603161010806/03/16 16:10:31  5-MIN KAOH 032110Z AUTO 32009KT 10SM CLR 28/08 A3003 880 27 2700 320/09 RMK AO2 T02830078
04850KAOH AOH20160603161510806/03/16 16:15:31  5-MIN KAOH 032115Z AUTO 30005KT 10SM CLR 28/08 A3003 880 28 2600 300/05 RMK AO2 T02780078
04850KAOH AOH20160603162010806/03/16 16:20:31  5-MIN KAOH 032120Z AUTO 34007KT 10SM CLR 28/07 A3003 880 27 2600 340/07 RMK AO2 T02780072
04850KAOH AOH20160603162509806/03/16 16:25:31  5-MIN KAOH 032125Z AUTO 10SM CLR 28/07 A3003 880 26 2600 M /M RMK AO2 T02780067
04850KAOH AOH20160603163010806/03/16 16:30:31  5-MIN KAOH 032130Z AUTO 33006KT 10SM CLR 28/07 A3002 880 26 2600 340/06 RMK AO2 T02780067
04850KAOH AOH20160603163510806/03/16 16:35:31  5-MIN KAOH 032135Z AUTO 27008KT 10SM CLR 28/07 A3002 880 26 2600 280/08 RMK AO2 T02780067
04850KAOH AOH20160603164010806/03/16 16:40:31  5-MIN KAOH 032140Z AUTO 34006KT 10SM CLR 28/07 A3002 880 27 2600 350/06 RMK AO2 T02780072
04850KAOH AOH20160603164510806/03/16 16:45:31  5-MIN KAOH 032145Z AUTO 35007KT 10SM CLR 28/07 A3002 880 26 2600 350/07 RMK AO2 T02780067
04850KAOH AOH20160603165011506/03/16 16:50:31  5-MIN KAOH 032150Z AUTO 33007KT 10SM CLR 28/07 A3002 880 26 2600 340/07 RMK AO2 SLP161 T02780067
04850KAOH AOH20160603165510806/03/16 16:55:31  5-MIN KAOH 032155Z AUTO 33005KT 10SM CLR 28/07 A3002 880 27 2600 340/05 RMK AO2 T02780072
04850KAOH AOH20160603170010806/03/16 17:00:31  5-MIN KAOH 032200Z AUTO 33008KT 10SM CLR 28/07 A3002 880 26 2600 330/08 RMK AO2 T02780067
04850KAOH AOH20160603170510806/03/16 17:05:31  5-MIN KAOH 032205Z AUTO 35004KT 10SM CLR 27/07 A3002 890 26 2500 350/04 RMK AO2 T02720067
04850KAOH AOH20160603171010806/03/16 17:10:31  5-MIN KAOH 032210Z AUTO 35005KT 10SM CLR 28/07 A3002 890 26 2600 350/05 RMK AO2 T02780067
04850KAOH AOH20160603171510806/03/16 17:15:31  5-MIN KAOH 032215Z AUTO 36006KT 10SM CLR 28/07 A3002 890 27 2600 010/06 RMK AO2 T02780072
04850KAOH AOH20160603172010806/03/16 17:20:31  5-MIN KAOH 032220Z AUTO 35006KT 10SM CLR 28/07 A3002 890 26 2700 360/06 RMK AO2 T02830072
04850KAOH AOH20160603172510806/03/16 17:25:31  5-MIN KAOH 032225Z AUTO 35006KT 10SM CLR 28/07 A3002 890 26 2600 350/06 RMK AO2 T02780067
04850KAOH AOH20160603173010806/03/16 17:30:31  5-MIN KAOH 032230Z AUTO 32006KT 10SM CLR 28/06 A3002 890 25 2600 330/06 RMK AO2 T02780061
04850KAOH AOH20160603173510806/03/16 17:35:31  5-MIN KAOH 032235Z AUTO 33006KT 10SM CLR 28/06 A3002 890 25 2600 340/06 RMK AO2 T02780061
04850KAOH AOH20160603174010806/03/16 17:40:31  5-MIN KAOH 032240Z AUTO 32007KT 10SM CLR 28/06 A3002 890 25 2600 330/07 RMK AO2 T02780061
04850KAOH AOH20160603174510806/03/16 17:45:31  5-MIN KAOH 032245Z AUTO 32005KT 10SM CLR 27/06 A3001 890 25 2500 330/05 RMK AO2 T02720061
04850KAOH AOH20160603175011506/03/16 17:50:31  5-MIN KAOH 032250Z AUTO 35005KT 10SM CLR 27/06 A3001 890 25 2500 360/05 RMK AO2 SLP157 T02720061
04850KAOH AOH20160603175510806/03/16 17:55:31  5-MIN KAOH 032255Z AUTO 34005KT 10SM CLR 28/07 A3001 890 26 2600 350/05 RMK AO2 T02780067
04850KAOH AOH20160603180010806/03/16 18:00:31  5-MIN KAOH 032300Z AUTO 34005KT 10SM CLR 27/07 A3001 890 26 2500 340/05 RMK AO2 T02720067
04850KAOH AOH20160603180510806/03/16 18:05:31  5-MIN KAOH 032305Z AUTO 36006KT 10SM CLR 27/07 A3001 890 26 2500 360/06 RMK AO2 T02720067
04850KAOH AOH20160603181010806/03/16 18:10:31  5-MIN KAOH 032310Z AUTO 36004KT 10SM CLR 27/06 A3001 890 25 2500 360/04 RMK AO2 T02720061
04850KAOH AOH20160603181510806/03/16 18:15:31  5-MIN KAOH 032315Z AUTO 34004KT 10SM CLR 27/06 A3001 890 25 2500 350/04 RMK AO2 T02720061
04850KAOH AOH20160603182010806/03/16 18:20:31  5-MIN KAOH 032320Z AUTO 32003KT 10SM CLR 27/06 A3001 900 25 2500 330/03 RMK AO2 T02720061
04850KAOH AOH20160603182510806/03/16 18:25:31  5-MIN KAOH 032325Z AUTO 34003KT 10SM CLR 27/07 A3001 890 26 2500 350/03 RMK AO2 T02720067
04850KAOH AOH20160603183010806/03/16 18:30:31  5-MIN KAOH 032330Z AUTO 33003KT 10SM CLR 27/06 A3001 890 25 2500 340/03 RMK AO2 T02720061
04850KAOH AOH20160603183510806/03/16 18:35:31  5-MIN KAOH 032335Z AUTO 00000KT 10SM CLR 27/07 A3001 900 26 2500 000/00 RMK AO2 T02720067
04850KAOH AOH20160604043012306/04/16 04:30:31  5-MIN KAOH 040930Z AUTO 18008KT 10SM BKN110 20/12 A3000 900 60 1700 190/08 RMK AO2 RAE28 P0000 T02000122
04850KAOH AOH20160604043512306/04/16 04:35:31  5-MIN KAOH 040935Z AUTO 20007KT 10SM BKN110 20/12 A3001 900 60 1700 210/07 RMK AO2 RAE28 P0000 T02000122
04850KAOH AOH20160604044012306/04/16 04:40:31  5-MIN KAOH 040940Z AUTO 21010KT 10SM BKN110 20/12 A3001 900 60 1700 220/10 RMK AO2 RAE28 P0000 T02000122
04850KAOH AOH20160604044512806/04/16 04:45:31  5-MIN KAOH 040945Z AUTO 21009KT 10SM -RA BKN100 OVC120 19/14 A3001 900 70 1700 220/09 RMK AO2 P0000 T01940139
04850KAOH AOH20160604045013506/04/16 04:50:31  5-MIN KAOH 040950Z AUTO 22009KT 10SM -RA BKN090 OVC110 19/14 A3001 900 72 1700 230/09 RMK AO2 SLP154 P0000 T01940144
04850KAOH AOH20160604045512806/04/16 04:55:31  5-MIN KAOH 040955Z AUTO 22007KT 10SM -RA BKN080 OVC100 19/14 A3001 900 75 1600 230/07 RMK AO2 P0000 T01890144
04850KAOH AOH20160604050012806/04/16 05:00:31  5-MIN KAOH 041000Z AUTO 22007KT 10SM -RA BKN075 OVC100 19/14 A3001 890 75 1600 230/07 RMK AO2 P0000 T01890144
04850KAOH AOH20160604050512806/04/16 05:05:31  5-MIN KAOH 041005Z AUTO 23009KT 10SM -RA BKN075 OVC095 19/15 A3001 890 78 1600 240/09 RMK AO2 P0000 T01890150
04850KAOH AOH20160604051012106/04/16 05:10:31  5-MIN KAOH 041010Z AUTO 23008KT 10SM -RA OVC075 18/14 A3001 890 78 1500 240/08 RMK AO2 P0001 T01830144
04850KAOH AOH20160604051512106/04/16 05:15:31  5-MIN KAOH 041015Z AUTO 23007KT 10SM -RA OVC075 18/15 A3001 890 81 1500 240/07 RMK AO2 P0001 T01830150
04850KAOH AOH20160604052012106/04/16 05:20:31  5-MIN KAOH 041020Z AUTO 24006KT 10SM -RA OVC070 18/15 A3001 890 81 1500 250/06 RMK AO2 P0001 T01830150
04850KAOH AOH20160604052512106/04/16 05:25:31  5-MIN KAOH 041025Z AUTO 24004KT 10SM -RA OVC070 18/15 A3001 890 81 1500 240/04 RMK AO2 P0001 T01830150
04850KAOH AOH20160604053012106/04/16 05:30:31  5-MIN KAOH 041030Z AUTO 25003KT 10SM -RA OVC070 18/15 A3001 900 83 1500 250/03 RMK AO2 P0001 T01780150
04850KAOH AOH20160604053512106/04/16 05:35:31  5-MIN KAOH 041035Z AUTO 00000KT 10SM -RA OVC065 18/15 A3001 900 81 1500 000/00 RMK AO2 P0001 T01830150
04850KAOH AOH20160604054012106/04/16 05:40:31  5-MIN KAOH 041040Z AUTO 24003KT 10SM -RA OVC070 18/15 A3001 900 81 1500 250/03 RMK AO2 P0001 T01830150
04850KAOH AOH20160604054512806/04/16 05:45:31  5-MIN KAOH 041045Z AUTO 00000KT 10SM -RA BKN065 OVC080 18/15 A3001 900 81 1500 000/00 RMK AO2 P0001 T01830150
04850KAOH AOH20160604055014206/04/16 05:50:31  5-MIN KAOH 041050Z AUTO 19003KT 10SM -RA BKN065 BKN080 OVC110 18/15 A3001 900 81 1500 200/03 RMK AO2 SLP155 P0001 T01830150
04850KAOH AOH20160604055513506/04/16 05:55:31  5-MIN KAOH 041055Z AUTO 19003KT 10SM -RA SCT070 BKN080 OVC110 18/15 A3001 900 81 1500 190/03 RMK AO2 P0000 T01830150
04850KAOH AOH20160604060013506/04/16 06:00:31  5-MIN KAOH 041100Z AUTO 23004KT 10SM -RA FEW070 SCT080 OVC110 18/15 A3001 900 81 1500 230/04 RMK AO2 P0000 T01830150
04850KAOH AOH20160604060513006/04/16 06:05:31  5-MIN KAOH 041105Z AUTO 23003KT 10SM BKN075 OVC110 18/15 A3001 900 81 1500 240/03 RMK AO2 RAE05 P0000 T01830150
04850KAOH AOH20160604061013006/04/16 06:10:31  5-MIN KAOH 041110Z AUTO 22003KT 10SM BKN075 OVC110 18/16 A3001 900 84 1500 230/03 RMK AO2 RAE05 P0000 T01830156
04850KAOH AOH20160604061513006/04/16 06:15:31  5-MIN KAOH 041115Z AUTO 16004KT 10SM BKN070 OVC110 18/16 A3001 900 84 1500 170/04 RMK AO2 RAE05 P0000 T01830156
04850KAOH AOH20160604062013006/04/16 06:20:31  5-MIN KAOH 041120Z AUTO 18003KT 10SM BKN070 OVC110 18/16 A3001 900 84 1500 190/03 RMK AO2 RAE05 P0000 T01830156
04850KAOH AOH20160604062512306/04/16 06:25:31  5-MIN KAOH 041125Z AUTO 17004KT 10SM OVC070 18/16 A3001 900 87 1500 180/04 RMK AO2 RAE05 P0000 T01830161
04850KAOH AOH20160604063012306/04/16 06:30:31  5-MIN KAOH 041130Z AUTO 17003KT 10SM OVC070 18/16 A3001 900 87 1500 180/03 RMK AO2 RAE05 P0000 T01830161
04850KAOH AOH20160604063512306/04/16 06:35:31  5-MIN KAOH 041135Z AUTO 17003KT 10SM OVC065 18/16 A3000 900 87 1500 170/03 RMK AO2 RAE05 P0000 T01830161
04850KAOH AOH20160604064012306/04/16 06:40:31  5-MIN KAOH 041140Z AUTO 17003KT 10SM OVC065 18/16 A3000 900 87 1500 170/03 RMK AO2 RAE05 P0000 T01830161
04850KAOH AOH20160604064512306/04/16 06:45:31  5-MIN KAOH 041145Z AUTO 15004KT 10SM OVC065 18/16 A3000 900 87 1500 160/04 RMK AO2 RAE05 P0000 T01830161
04850KAOH AOH20160604065016006/04/16 06:50:31  5-MIN KAOH 041150Z AUTO 16005KT 10SM OVC065 18/16 A3000 900 87 1500 170/05 RMK AO2 RAE05 SLP152 P0000 60001 70001 T01830161 10211 20178 55005
04850KAOH AOH20160604065511106/04/16 06:55:31  5-MIN KAOH 041155Z AUTO 16005KT 10SM OVC060 18/16 A3000 910 87 1500 170/05 RMK AO2 T01830161
04850KAOH AOH20160604070011106/04/16 07:00:31  5-MIN KAOH 041200Z AUTO 16004KT 10SM OVC060 19/16 A3000 910 84 1600 160/04 RMK AO2 T01890161
04850KAOH AOH20160604070511106/04/16 07:05:31  5-MIN KAOH 041205Z AUTO 00000KT 10SM OVC060 19/16 A3000 900 84 1600 000/00 RMK AO2 T01890161
04850KAOH AOH20160604071011106/04/16 07:10:31  5-MIN KAOH 041210Z AUTO 00000KT 10SM OVC060 19/16 A3000 910 81 1600 000/00 RMK AO2 T01890156
04850KAOH AOH20160604071511106/04/16 07:15:31  5-MIN KAOH 041215Z AUTO 03003KT 10SM OVC060 19/16 A2999 910 84 1600 040/03 RMK AO2 T01890161
04850KAOH AOH20160604072011106/04/16 07:20:31  5-MIN KAOH 041220Z AUTO 04003KT 10SM OVC055 19/16 A2999 910 84 1600 040/03 RMK AO2 T01890161
04850KAOH AOH20160604072511106/04/16 07:25:31  5-MIN KAOH 041225Z AUTO 06003KT 10SM OVC055 19/16 A2999 910 84 1600 060/03 RMK AO2 T01890161
04850KAOH AOH20160604073011106/04/16 07:30:31  5-MIN KAOH 041230Z AUTO 09003KT 10SM OVC055 19/16 A2999 920 84 1600 100/03 RMK AO2 T01890161
04850KAOH AOH20160604073511106/04/16 07:35:31  5-MIN KAOH 041235Z AUTO 09003KT 10SM OVC055 19/16 A2999 920 81 1700 090/03 RMK AO2 T01940161
04850KAOH AOH20160604074011106/04/16 07:40:31  5-MIN KAOH 041240Z AUTO 09003KT 10SM OVC060 19/16 A2998 920 81 1700 100/03 RMK AO2 T01940161
04850KAOH AOH20160604074511106/04/16 07:45:31  5-MIN KAOH 041245Z AUTO 00000KT 10SM OVC060 19/16 A2998 920 81 1700 000/00 RMK AO2 T01940161
04850KAOH AOH20160604075011806/04/16 07:50:31  5-MIN KAOH 041250Z AUTO 13003KT 10SM OVC060 20/16 A2998 920 78 1800 130/03 RMK AO2 SLP146 T02000161
04850KAOH AOH20160604075511106/04/16 07:55:31  5-MIN KAOH 041255Z AUTO 15005KT 10SM OVC065 20/16 A2998 920 75 1800 160/05 RMK AO2 T02000156
04850KAOH AOH20160604080011806/04/16 08:00:31  5-MIN KAOH 041300Z AUTO 16006KT 10SM BKN065 OVC110 20/16 A2998 920 75 1800 160/06 RMK AO2 T02000156
04850KAOH AOH20160604080511806/04/16 08:05:31  5-MIN KAOH 041305Z AUTO 15005KT 10SM BKN070 OVC110 20/16 A2998 920 78 1800 160/05 RMK AO2 T02000161
04850KAOH AOH20160604081011806/04/16 08:10:31  5-MIN KAOH 041310Z AUTO 15006KT 10SM SCT070 OVC110 21/16 A2998 920 75 1800 150/06 RMK AO2 T02060161
04850KAOH AOH20160604081511806/04/16 08:15:31  5-MIN KAOH 041315Z AUTO 17007KT 10SM SCT070 OVC100 21/16 A2998 930 75 1800 180/07 RMK AO2 T02060161
04850KAOH AOH20160604082012506/04/16 08:20:31  5-MIN KAOH 041320Z AUTO 17006KT 10SM FEW070 BKN095 OVC110 21/16 A2998 930 73 1800 170/06 RMK AO2 T02060156
04850KAOH AOH20160604082511806/04/16 08:25:31  5-MIN KAOH 041325Z AUTO 16006KT 10SM BKN085 OVC110 21/16 A2997 930 70 1900 170/06 RMK AO2 T02110156
04850KAOH AOH20160604083012506/04/16 08:30:31  5-MIN KAOH 041330Z AUTO 16007KT 10SM FEW060 BKN080 OVC100 21/16 A2997 930 70 1900 160/07 RMK AO2 T02110156
04850KAOH AOH20160604083512506/04/16 08:35:31  5-MIN KAOH 041335Z AUTO 15008KT 10SM FEW065 BKN075 OVC095 22/15 A2997 930 65 2000 160/08 RMK AO2 T02170150
04850KAOH AOH20160604084012506/04/16 08:40:31  5-MIN KAOH 041340Z AUTO 17007KT 10SM FEW060 BKN075 OVC090 22/15 A2997 930 65 2000 180/07 RMK AO2 T02170150
04850KAOH AOH20160604084511806/04/16 08:45:31  5-MIN KAOH 041345Z AUTO 16008KT 10SM FEW060 OVC080 22/15 A2997 930 65 2000 160/08 RMK AO2 T02170150
04850KAOH AOH20160604085013206/04/16 08:50:31  5-MIN KAOH 041350Z AUTO 15008KT 10SM FEW060 BKN080 OVC095 22/14 A2997 930 63 2000 160/08 RMK AO2 SLP142 T02170144
04850KAOH AOH20160604085512506/04/16 08:55:31  5-MIN KAOH 041355Z AUTO 16008KT 10SM FEW060 BKN080 OVC090 22/15 A2997 930 65 2000 160/08 RMK AO2 T02170150
04850KAOH AOH20160604090012506/04/16 09:00:31  5-MIN KAOH 041400Z AUTO 16007KT 10SM FEW065 BKN080 OVC090 22/15 A2996 940 63 2000 170/07 RMK AO2 T02220150
04850KAOH AOH20160604090511806/04/16 09:05:31  5-MIN KAOH 041405Z AUTO 16008KT 10SM BKN075 OVC090 22/15 A2996 940 63 2000 170/08 RMK AO2 T02220150
04850KAOH AOH20160604091011806/04/16 09:10:31  5-MIN KAOH 041410Z AUTO 16010KT 10SM BKN070 OVC090 22/15 A2996 940 63 2000 160/10 RMK AO2 T02220150
04850KAOH AOH20160604091511106/04/16 09:15:31  5-MIN KAOH 041415Z AUTO 16010KT 10SM OVC070 22/15 A2996 940 63 2000 170/10 RMK AO2 T02220150
04850KAOH AOH20160604092011806/04/16 09:20:31  5-MIN KAOH 041420Z AUTO 17007KT 10SM BKN060 OVC075 22/15 A2996 940 63 2000 170/07 RMK AO2 T02220150
04850KAOH AOH20160604092511806/04/16 09:25:31  5-MIN KAOH 041425Z AUTO 17009KT 10SM BKN055 OVC070 22/15 A2996 940 63 2000 170/09 RMK AO2 T02220150
04850KAOH AOH20160604093012506/04/16 09:30:31  5-MIN KAOH 041430Z AUTO 16009KT 10SM FEW050 BKN060 OVC075 22/14 A2996 940 63 2000 170/09 RMK AO2 T02170144
04850KAOH AOH20160604093511106/04/16 09:35:31  5-MIN KAOH 041435Z AUTO 17010KT 10SM OVC060 22/14 A2996 940 63 2000 170/10 RMK AO2 T02170144
04850KAOH AOH20160604094011106/04/16 09:40:31  5-MIN KAOH 041440Z AUTO 17007KT 10SM OVC060 22/15 A2996 940 65 2000 180/07 RMK AO2 T02170150
04850KAOH AOH20160604094511106/04/16 09:45:31  5-MIN KAOH 041445Z AUTO 16009KT 10SM OVC055 22/15 A2995 950 65 2000 160/09 RMK AO2 T02170150
04850KAOH AOH20160604095012406/04/16 09:50:31  5-MIN KAOH 041450Z AUTO 16009KT 10SM OVC055 22/15 A2995 950 65 2000 160/09 RMK AO2 SLP137 T02170150 50001
04850KAOH AOH20160604095511106/04/16 09:55:31  5-MIN KAOH 041455Z AUTO 17008KT 10SM OVC055 22/15 A2996 940 65 2000 170/08 RMK AO2 T02170150
04850KAOH AOH20160604100011806/04/16 10:00:31  5-MIN KAOH 041500Z AUTO 17008KT 10SM BKN049 OVC060 22/14 A2996 940 63 2000 180/08 RMK AO2 T02170144
04850KAOH AOH20160604100511806/04/16 10:05:31  5-MIN KAOH 041505Z AUTO 16008KT 10SM BKN049 OVC055 22/14 A2996 940 63 2000 170/08 RMK AO2 T02170144
04850KAOH AOH20160604101011106/04/16 10:10:31  5-MIN KAOH 041510Z AUTO 18007KT 10SM OVC047 22/14 A2996 940 63 2000 180/07 RMK AO2 T02170144
04850KAOH AOH20160604101511106/04/16 10:15:31  5-MIN KAOH 041515Z AUTO 17006KT 10SM OVC047 22/14 A2996 950 63 2000 180/06 RMK AO2 T02170144
04850KAOH AOH20160604102011106/04/16 10:20:31  5-MIN KAOH 041520Z AUTO 18005KT 10SM OVC045 22/15 A2995 950 65 2000 190/05 RMK AO2 T02170150
04850KAOH AOH20160604102511106/04/16 10:25:31  5-MIN KAOH 041525Z AUTO 17005KT 10SM OVC045 22/15 A2995 950 65 2000 180/05 RMK AO2 T02170150
04850KAOH AOH20160604103011106/04/16 10:30:31  5-MIN KAOH 041530Z AUTO 14006KT 10SM OVC045 22/15 A2995 950 63 2000 150/06 RMK AO2 T02220150
04850KAOH AOH20160604103511106/04/16 10:35:31  5-MIN KAOH 041535Z AUTO 15007KT 10SM OVC045 22/15 A2995 950 63 2000 150/07 RMK AO2 T02220150
04850KAOH AOH20160604104011106/04/16 10:40:31  5-MIN KAOH 041540Z AUTO 14006KT 10SM OVC046 23/15 A2995 950 61 2100 150/06 RMK AO2 T02280150
04850KAOH AOH20160604104511106/04/16 10:45:31  5-MIN KAOH 041545Z AUTO 15009KT 10SM OVC046 23/15 A2995 950 61 2100 150/09 RMK AO2 T02280150
04850KAOH AOH20160604105012506/04/16 10:50:31  5-MIN KAOH 041550Z AUTO 16008KT 10SM BKN047 OVC120 23/15 A2994 960 61 2100 160/08 RMK AO2 SLP134 T02280150
04850KAOH AOH20160604105512506/04/16 10:55:31  5-MIN KAOH 041555Z AUTO 15007KT 10SM BKN047 BKN080 OVC120 23/15 A2994 960 59 2200 160/07 RMK AO2 T02330150
04850KAOH AOH20160604110012506/04/16 11:00:31  5-MIN KAOH 041600Z AUTO 16007KT 10SM BKN048 BKN080 OVC120 23/16 A2994 960 61 2200 160/07 RMK AO2 T02330156
04850KAOH AOH20160604110512506/04/16 11:05:31  5-MIN KAOH 041605Z AUTO 13010KT 10SM SCT048 BKN080 BKN110 23/15 A2994 960 59 2200 130/10 RMK AO2 T02330150
04850KAOH AOH20160604111012506/04/16 11:10:31  5-MIN KAOH 041610Z AUTO 15009KT 10SM SCT050 BKN080 BKN120 24/14 A2993 970 55 2300 160/09 RMK AO2 T02390144
04850KAOH AOH20160604111512506/04/16 11:15:31  5-MIN KAOH 041615Z AUTO 16008KT 10SM FEW050 SCT080 BKN120 24/14 A2993 970 55 2300 160/08 RMK AO2 T02390144
04850KAOH AOH20160604112012506/04/16 11:20:31  5-MIN KAOH 041620Z AUTO 16010KT 10SM FEW055 SCT080 SCT110 24/15 A2993 970 55 2300 160/10 RMK AO2 T02440150
04850KAOH AOH20160604112512506/04/16 11:25:31  5-MIN KAOH 041625Z AUTO 16013KT 10SM FEW055 FEW080 SCT110 24/14 A2993 970 55 2300 160/13 RMK AO2 T02390144
04850KAOH AOH20160604113012506/04/16 11:30:31  5-MIN KAOH 041630Z AUTO 15011KT 10SM FEW055 FEW080 SCT110 24/14 A2993 970 55 2300 160/11 RMK AO2 T02390144
04850KAOH AOH20160604113511106/04/16 11:35:31  5-MIN KAOH 041635Z AUTO 16009KT 10SM FEW110 24/15 A2993 970 55 2300 160/09 RMK AO2 T02440150
04850KAOH AOH20160604114011106/04/16 11:40:31  5-MIN KAOH 041640Z AUTO 17011KT 10SM FEW110 24/15 A2993 970 55 2300 180/11 RMK AO2 T02440150
04850KAOH AOH20160604114511106/04/16 11:45:31  5-MIN KAOH 041645Z AUTO 16011KT 10SM SCT110 24/15 A2992 970 57 2300 170/11 RMK AO2 T02390150
04850KAOH AOH20160604115012506/04/16 11:50:31  5-MIN KAOH 041650Z AUTO 15009KT 10SM FEW090 SCT110 24/15 A2992 980 57 2300 160/09 RMK AO2 SLP126 T02390150
04850KAOH AOH20160604115511806/04/16 11:55:31  5-MIN KAOH 041655Z AUTO 14012KT 10SM FEW090 SCT110 24/16 A2992 980 57 2300 150/12 RMK AO2 T02440156
04850KAOH AOH20160604120011806/04/16 12:00:31  5-MIN KAOH 041700Z AUTO 14010KT 10SM SCT090 SCT110 24/15 A2991 980 55 2300 140/10 RMK AO2 T02440150
04850KAOH AOH20160604120511806/04/16 12:05:31  5-MIN KAOH 041705Z AUTO 17012KT 10SM BKN095 BKN110 24/15 A2991 990 55 2300 180/12 RMK AO2 T02440150
04850KAOH AOH20160604121011806/04/16 12:10:31  5-MIN KAOH 041710Z AUTO 16011KT 10SM BKN090 BKN110 24/15 A2991 990 55 2300 160/11 RMK AO2 T02440150
04850KAOH AOH20160604121511106/04/16 12:15:31  5-MIN KAOH 041715Z AUTO 14012KT 10SM BKN090 25/15 A2991 990 53 2400 150/12 RMK AO2 T02500150
04850KAOH AOH20160604122011806/04/16 12:20:31  5-MIN KAOH 041720Z AUTO 15012KT 10SM BKN080 BKN095 24/15 A2991 990 55 2300 160/12 RMK AO2 T02440150
04850KAOH AOH20160604122511806/04/16 12:25:31  5-MIN KAOH 041725Z AUTO 17012KT 10SM BKN080 BKN095 24/15 A2991 990 57 2300 170/12 RMK AO2 T02390150
04850KAOH AOH20160604123011806/04/16 12:30:31  5-MIN KAOH 041730Z AUTO 17007KT 10SM FEW055 OVC085 23/16 A2991 990 61 2200 180/07 RMK AO2 T02330156
04850KAOH AOH20160604123513406/04/16 12:35:31  5-MIN KAOH 041735Z AUTO 15011KT 10SM -RA BKN075 OVC090 23/16 A2990 990 61 2200 160/11 RMK AO2 RAB35 P0000 T02330156
04850KAOH AOH20160604124014106/04/16 12:40:31  5-MIN KAOH 041740Z AUTO 16010KT 10SM -RA FEW039 SCT055 OVC075 23/16 A2990 990 63 2200 170/10 RMK AO2 RAB35 P0000 T02330161
04850KAOH AOH20160604124514106/04/16 12:45:31  5-MIN KAOH 041745Z AUTO 17008KT 10SM -RA SCT039 BKN055 OVC075 23/16 A2990 990 61 2200 170/08 RMK AO2 RAB35 P0000 T02330156
04850KAOH AOH20160604125017206/04/16 12:50:31  5-MIN KAOH 041750Z AUTO 16008KT 10SM BKN039 BKN055 OVC070 23/16 A2990 1000 61 2200 170/08 RMK AO2 RAB35E48 SLP119 P0000 60000 T02330156 10250 20183 56015
04850KAOH AOH20160604125511906/04/16 12:55:31  5-MIN KAOH 041755Z AUTO 14008KT 10SM BKN041 OVC075 24/16 A2990 1000 61 2300 150/08 RMK AO2 T02390161
04850KAOH AOH20160604130014406/04/16 13:00:31  5-MIN KAOH 041800Z AUTO 17007KT 10SM -RA FEW038 BKN045 OVC090 24/16 A2989 1000 61 2300 180/07 RMK AO2 RAB1759 P0000 T02390161
04850KAOH AOH20160604130514406/04/16 13:05:31  5-MIN KAOH 041805Z AUTO 16011KT 10SM -RA BKN040 BKN050 OVC090 24/17 A2989 1000 63 2300 160/11 RMK AO2 RAB1759 P0000 T02390167
04850KAOH AOH20160604131014406/04/16 13:10:31  5-MIN KAOH 041810Z AUTO 16010KT 10SM -RA SCT035 BKN045 OVC090 23/17 A2989 1000 66 2200 170/10 RMK AO2 RAB1759 P0000 T02330167
04850KAOH AOH20160604131514406/04/16 13:15:31  5-MIN KAOH 041815Z AUTO 17008KT 10SM -RA SCT033 BKN040 OVC090 23/17 A2989 1000 68 2200 170/08 RMK AO2 RAB1759 P0000 T02330172
04850KAOH AOH20160604132014406/04/16 13:20:31  5-MIN KAOH 041820Z AUTO 17007KT 10SM -RA BKN036 BKN046 OVC090 23/17 A2989 1010 68 2200 180/07 RMK AO2 RAB1759 P0000 T02330172
04850KAOH AOH20160604132514406/04/16 13:25:31  5-MIN KAOH 041825Z AUTO 16007KT 10SM -RA SCT033 BKN040 OVC090 23/17 A2989 1010 68 2200 160/07 RMK AO2 RAB1759 P0000 T02330172
04850KAOH AOH20160604133014406/04/16 13:30:31  5-MIN KAOH 041830Z AUTO 19007KT 10SM -RA BKN033 BKN040 OVC050 23/18 A2989 1010 70 2200 200/07 RMK AO2 RAB1759 P0000 T02330178
04850KAOH AOH20160604133514406/04/16 13:35:31  5-MIN KAOH 041835Z AUTO 19009KT 10SM -RA SCT033 BKN039 OVC070 23/18 A2988 1010 70 2200 200/09 RMK AO2 RAB1759 P0000 T02330178
04850KAOH AOH20160604134014406/04/16 13:40:31  5-MIN KAOH 041840Z AUTO 19010KT 10SM -RA SCT033 BKN055 OVC090 23/18 A2988 1010 73 2200 190/10 RMK AO2 RAB1759 P0000 T02280178
04850KAOH AOH20160604134514406/04/16 13:45:31  5-MIN KAOH 041845Z AUTO 19009KT 10SM -RA SCT034 BKN050 OVC090 23/18 A2988 1010 73 2300 200/09 RMK AO2 RAB1759 P0000 T02330183
04850KAOH AOH20160604135015106/04/16 13:50:31  5-MIN KAOH 041850Z AUTO 18010KT 10SM -RA SCT034 BKN070 OVC090 23/18 A2988 1020 73 2200 180/10 RMK AO2 RAB1759 SLP111 P0000 T02280178
04850KAOH AOH20160604135514206/04/16 13:55:31  5-MIN KAOH 041855Z AUTO 18007G16KT 10SM -RA FEW034 BKN070 OVC095 23/18 A2987 1020 76 2200 190/07G16 RMK AO2 P0000 T02280183
04850KAOH AOH20160604140013606/04/16 14:00:31  5-MIN KAOH 041900Z AUTO 19006KT 10SM -RA FEW034 SCT075 OVC090 23/18 A2987 1020 76 2200 190/06 RMK AO2 P0000 T02280183
04850KAOH AOH20160604140513606/04/16 14:05:31  5-MIN KAOH 041905Z AUTO 19008KT 10SM -RA FEW033 BKN085 OVC110 22/18 A2987 1020 78 2100 200/08 RMK AO2 P0001 T02220183
04850KAOH AOH20160604141013506/04/16 14:10:31  5-MIN KAOH 041910Z AUTO 18008KT 9SM -RA FEW045 BKN090 OVC110 22/18 A2987 1030 78 2100 190/08 RMK AO2 P0001 T02220183
04850KAOH AOH20160604141513506/04/16 14:15:31  5-MIN KAOH 041915Z AUTO 19008KT 9SM -RA FEW065 BKN080 OVC100 22/18 A2986 1030 78 2100 190/08 RMK AO2 P0001 T02220183
04850KAOH AOH20160604142012906/04/16 14:20:31  5-MIN KAOH 041920Z AUTO 19009KT 10SM -RA FEW075 OVC100 22/18 A2986 1030 78 2100 200/09 RMK AO2 P0001 T02220183
04850KAOH AOH20160604142512906/04/16 14:25:31  5-MIN KAOH 041925Z AUTO 19007KT 10SM -RA SCT090 OVC110 22/19 A2986 1030 81 2100 200/07 RMK AO2 P0001 T02220189
04850KAOH AOH20160604143012906/04/16 14:30:31  5-MIN KAOH 041930Z AUTO 18008KT 10SM -RA FEW080 OVC100 22/19 A2986 1030 81 2100 190/08 RMK AO2 P0001 T02220189
04850KAOH AOH20160604143512906/04/16 14:35:31  5-MIN KAOH 041935Z AUTO 18009KT 10SM -RA FEW070 OVC100 23/19 A2986 1040 81 2200 190/09 RMK AO2 P0001 T02280194
04850KAOH AOH20160604144013606/04/16 14:40:31  5-MIN KAOH 041940Z AUTO 18008KT 10SM -RA FEW034 SCT065 OVC100 23/19 A2985 1040 78 2200 190/08 RMK AO2 P0001 T02280189
04850KAOH AOH20160604144513606/04/16 14:45:31  5-MIN KAOH 041945Z AUTO 18008KT 10SM -RA SCT034 SCT065 OVC100 23/19 A2985 1040 78 2200 190/08 RMK AO2 P0001 T02280189
04850KAOH AOH20160604145014306/04/16 14:50:31  5-MIN KAOH 041950Z AUTO 16008KT 10SM -RA FEW034 BKN090 OVC110 23/19 A2985 1040 78 2200 170/08 RMK AO2 SLP101 P0001 T02280189
04850KAOH AOH20160604145513606/04/16 14:55:31  5-MIN KAOH 041955Z AUTO 17007KT 10SM -RA FEW036 BKN090 OVC110 23/19 A2985 1050 78 2200 180/07 RMK AO2 P0000 T02280189
04850KAOH AOH20160604150013606/04/16 15:00:31  5-MIN KAOH 042000Z AUTO 17009KT 10SM -RA FEW036 BKN090 OVC110 23/19 A2984 1050 78 2200 170/09 RMK AO2 P0001 T02280189
04850KAOH AOH20160604150513606/04/16 15:05:31  5-MIN KAOH 042005Z AUTO 16008KT 10SM -RA FEW035 SCT075 OVC110 23/19 A2984 1050 81 2200 160/08 RMK AO2 P0001 T02280194
04850KAOH AOH20160604151013606/04/16 15:10:31  5-MIN KAOH 042010Z AUTO 16010KT 10SM -RA FEW035 SCT080 OVC100 23/19 A2984 1050 78 2200 160/10 RMK AO2 P0001 T02280189
04850KAOH AOH20160604151513606/04/16 15:15:31  5-MIN KAOH 042015Z AUTO 16008KT 10SM -RA FEW060 FEW080 OVC100 23/19 A2984 1050 78 2200 170/08 RMK AO2 P0001 T02280189
04850KAOH AOH20160604152013606/04/16 15:20:31  5-MIN KAOH 042020Z AUTO 16008KT 10SM -RA FEW060 BKN100 OVC110 23/19 A2983 1060 81 2200 170/08 RMK AO2 P0001 T02280194
04850KAOH AOH20160604152513606/04/16 15:25:31  5-MIN KAOH 042025Z AUTO 17009KT 10SM -RA SCT075 BKN095 OVC110 23/19 A2983 1060 78 2200 170/09 RMK AO2 P0001 T02280189
04850KAOH AOH20160604153013606/04/16 15:30:31  5-MIN KAOH 042030Z AUTO 16007KT 10SM -RA FEW075 BKN090 OVC100 23/19 A2983 1060 78 2200 170/07 RMK AO2 P0001 T02280189
04850KAOH AOH20160604153512906/04/16 15:35:31  5-MIN KAOH 042035Z AUTO 16009KT 10SM -RA BKN085 OVC100 23/19 A2983 1060 78 2200 170/09 RMK AO2 P0001 T02280189
04850KAOH AOH20160604154012906/04/16 15:40:31  5-MIN KAOH 042040Z AUTO 17009KT 10SM -RA BKN085 OVC100 22/19 A2982 1070 81 2200 170/09 RMK AO2 P0001 T02220189
04850KAOH AOH20160604154512906/04/16 15:45:31  5-MIN KAOH 042045Z AUTO 17009KT 10SM -RA SCT075 OVC095 22/19 A2982 1070 84 2200 170/09 RMK AO2 P0001 T02220194
04850KAOH AOH20160604155014806/04/16 15:50:31  5-MIN KAOH 042050Z AUTO 15009KT 10SM -RA SCT075 OVC095 22/19 A2982 1070 84 2200 160/09 RMK AO2 SLP092 P0001 60002 T02220194 58019
04850KAOH AOH20160604155512906/04/16 15:55:31  5-MIN KAOH 042055Z AUTO 16011KT 10SM -RA BKN085 OVC100 22/19 A2982 1070 84 2200 170/11 RMK AO2 P0000 T02220194
04850KAOH AOH20160604160012906/04/16 16:00:31  5-MIN KAOH 042100Z AUTO 16011KT 10SM -RA FEW075 OVC095 22/19 A2982 1070 84 2200 170/11 RMK AO2 P0000 T02220194
04850KAOH AOH20160604160513606/04/16 16:05:31  5-MIN KAOH 042105Z AUTO 16011KT 10SM -RA FEW055 FEW075 OVC095 22/19 A2982 1070 84 2200 170/11 RMK AO2 P0000 T02220194
04850KAOH AOH20160604161013606/04/16 16:10:31  5-MIN KAOH 042110Z AUTO 16009KT 10SM -RA FEW050 BKN090 OVC100 23/19 A2981 1080 81 2300 170/09 RMK AO2 P0000 T02280194
04850KAOH AOH20160604161513606/04/16 16:15:31  5-MIN KAOH 042115Z AUTO 15011KT 10SM -RA FEW050 BKN095 OVC120 23/19 A2981 1080 81 2300 150/11 RMK AO2 P0000 T02280194
04850KAOH AOH20160604162013606/04/16 16:20:31  5-MIN KAOH 042120Z AUTO 15011KT 10SM -RA FEW035 BKN090 OVC110 22/19 A2981 1080 84 2200 160/11 RMK AO2 P0000 T02220194
04850KAOH AOH20160604162513606/04/16 16:25:31  5-MIN KAOH 042125Z AUTO 16010KT 10SM -RA FEW035 BKN095 OVC110 22/19 A2980 1090 84 2200 170/10 RMK AO2 P0000 T02220194
04850KAOH AOH20160604163013606/04/16 16:30:31  5-MIN KAOH 042130Z AUTO 16012KT 10SM -RA FEW035 BKN095 OVC120 22/19 A2980 1090 84 2200 170/12 RMK AO2 P0000 T02220194
04850KAOH AOH20160604163512906/04/16 16:35:31  5-MIN KAOH 042135Z AUTO 16010KT 10SM -RA FEW032 OVC100 22/19 A2980 1090 84 2200 160/10 RMK AO2 P0000 T02220194
04850KAOH AOH20160604164013606/04/16 16:40:31  5-MIN KAOH 042140Z AUTO 16011KT 10SM -RA FEW032 SCT080 OVC100 22/19 A2980 1090 84 2200 160/11 RMK AO2 P0000 T02220194
04850KAOH AOH20160604164513606/04/16 16:45:31  5-MIN KAOH 042145Z AUTO 16010KT 10SM -RA FEW031 BKN080 OVC100 22/19 A2980 1090 84 2200 160/10 RMK AO2 P0000 T02220194
04850KAOH AOH20160604165014306/04/16 16:50:31  5-MIN KAOH 042150Z AUTO 15011KT 10SM -RA FEW029 BKN080 OVC100 22/19 A2979 1100 84 2200 160/11 RMK AO2 SLP082 P0000 T02220194
04850KAOH AOH20160604165513106/04/16 16:55:31  5-MIN KAOH 042155Z AUTO 16011KT 10SM BKN075 OVC095 22/19 A2979 1100 84 2200 170/11 RMK AO2 RAE55 P0000 T02220194
04850KAOH AOH20160604170012906/04/16 17:00:31  5-MIN KAOH 042200Z AUTO 16012KT 10SM -RA BKN075 OVC095 22/19 A2979 1100 84 2200 160/12 RMK AO2 P0000 T02220194
04850KAOH AOH20160604170512906/04/16 17:05:31  5-MIN KAOH 042205Z AUTO 16013KT 10SM -RA BKN075 OVC090 22/19 A2979 1100 84 2200 160/13 RMK AO2 P0000 T02220194
04850KAOH AOH20160604171012906/04/16 17:10:31  5-MIN KAOH 042210Z AUTO 17012KT 10SM -RA BKN070 OVC090 22/19 A2979 1100 84 2200 170/12 RMK AO2 P0000 T02220194
04850KAOH AOH20160604171512906/04/16 17:15:31  5-MIN KAOH 042215Z AUTO 16008KT 10SM -RA BKN070 OVC090 22/19 A2978 1100 87 2200 170/08 RMK AO2 P0000 T02170194
04850KAOH AOH20160604172013106/04/16 17:20:31  5-MIN KAOH 042220Z AUTO 16011KT 10SM BKN065 OVC085 22/19 A2978 1110 87 2200 170/11 RMK AO2 RAE20 P0000 T02170194
04850KAOH AOH20160604172513106/04/16 17:25:31  5-MIN KAOH 042225Z AUTO 16009KT 10SM BKN065 OVC080 22/19 A2978 1110 87 2200 170/09 RMK AO2 RAE20 P0000 T02170194
04850KAOH AOH20160604173012206/04/16 17:30:31  5-MIN KAOH 042230Z AUTO 17010KT 10SM -RA OVC065 22/19 A2978 1110 87 2200 180/10 RMK AO2 P0000 T02170194
04850KAOH AOH20160604173512106/04/16 17:35:31  5-MIN KAOH 042235Z AUTO 17009KT 8SM -RA OVC065 22/19 A2978 1110 87 2200 180/09 RMK AO2 P0001 T02170194
04850KAOH AOH20160604174012106/04/16 17:40:31  5-MIN KAOH 042240Z AUTO 17007KT 8SM -RA OVC065 22/19 A2978 1110 87 2200 170/07 RMK AO2 P0001 T02170194
04850KAOH AOH20160604174512106/04/16 17:45:31  5-MIN KAOH 042245Z AUTO 17008KT 9SM -RA OVC065 22/19 A2977 1110 87 2200 170/08 RMK AO2 P0001 T02170194
04850KAOH AOH20160604175013106/04/16 17:50:31  5-MIN KAOH 042250Z AUTO 16006KT 10SM OVC065 22/19 A2977 1120 87 2200 170/06 RMK AO2 RAE46 SLP075 P0001 T02170194
04850KAOH AOH20160604175511206/04/16 17:55:31  5-MIN KAOH 042255Z AUTO 17007KT 10SM OVC065 22/19 A2977 1120 87 2200 180/07 RMK AO2 T02170194
04850KAOH AOH20160604180012906/04/16 18:00:31  5-MIN KAOH 042300Z AUTO 17005KT 8SM -RA OVC060 22/19 A2977 1120 87 2200 170/05 RMK AO2 RAB2259 P0000 T02170194
04850KAOH AOH20160604180512906/04/16 18:05:31  5-MIN KAOH 042305Z AUTO 17006KT 7SM -RA OVC060 22/19 A2977 1120 87 2200 170/06 RMK AO2 RAB2259 P0000 T02170194
04850KAOH AOH20160604181012906/04/16 18:10:31  5-MIN KAOH 042310Z AUTO 17004KT 9SM -RA OVC060 22/19 A2977 1120 87 2200 180/04 RMK AO2 RAB2259 P0000 T02170194
04850KAOH AOH20160604181513006/04/16 18:15:31  5-MIN KAOH 042315Z AUTO 19004KT 10SM -RA OVC055 21/19 A2977 1120 90 2100 200/04 RMK AO2 RAB2259 P0000 T02110194
04850KAOH AOH20160604182013706/04/16 18:20:31  5-MIN KAOH 042320Z AUTO 21004KT 10SM -RA FEW034 OVC055 21/19 A2977 1120 90 2100 210/04 RMK AO2 RAB2259 P0000 T02110194
04850KAOH AOH20160604182513606/04/16 18:25:31  5-MIN KAOH 042325Z AUTO 21004KT 8SM -RA FEW034 OVC050 21/19 A2977 1120 90 2100 210/04 RMK AO2 RAB2259 P0001 T02110194
04850KAOH AOH20160604183014606/04/16 18:30:31  5-MIN KAOH 042330Z AUTO 22003KT 6SM -RA BR FEW035 BKN050 OVC060 21/19 A2977 1120 90 2100 220/03 RMK AO2 RAB2259 P0002 T02110194
04850KAOH AOH20160604183513906/04/16 18:35:31  5-MIN KAOH 042335Z AUTO 26006KT 4SM -RA BR SCT033 OVC050 21/19 A2977 1120 90 2100 270/06 RMK AO2 RAB2259 P0003 T02110194
04850KAOH AOH20160604184014506/04/16 18:40:31  5-MIN KAOH 042340Z AUTO 24005KT 3SM RA BR FEW024 BKN033 OVC055 21/20 A2977 1110 93 2100 240/05 RMK AO2 RAB2259 P0005 T02110200
04850KAOH AOH20160604184514906/04/16 18:45:31  5-MIN KAOH 042345Z AUTO 21003KT 1 3/4SM RA BR SCT021 BKN031 OVC055 21/20 A2977 1110 93 2100 210/03 RMK AO2 RAB2259 P0008 T02110200
04850KAOH AOH20160604185014006/04/16 18:50:31  5-MIN KAOH 042350Z AUTO 00000KT 1 1/4SM +RA BR SCT019 BKN026 OVC048 21/19 A2977 1120 93 2100 000/00 RMK AO2 RAB2259 P0012
04850KAOH AOH20160604185514106/04/16 18:55:31  5-MIN KAOH 042355Z AUTO 19003KT 1 1/2SM RA BR SCT019 BKN026 OVC050 21/19 A2977 1120 93 2100 190/03 RMK AO2 P0001 T02060194
04850KAOH AOH20160604190013006/04/16 19:00:31  5-MIN KAOH 050000Z AUTO 19003KT 2SM RA BR BKN022 OVC031 21/19 A2977 1120 93 2100 200/03 RMK AO2 P0002 T02060194
04850KAOH AOH20160604190513806/04/16 19:05:31  5-MIN KAOH 050005Z AUTO 00000KT 3SM -RA BR SCT019 BKN029 OVC095 21/19 A2976 1120 93 2100 000/00 RMK AO2 P0002 T02060194
04850KAOH AOH20160604191013806/04/16 19:10:31  5-MIN KAOH 050010Z AUTO 00000KT 4SM -RA BR SCT021 BKN030 OVC110 21/19 A2976 1130 93 2100 000/00 RMK AO2 P0003 T02060194
04850KAOH AOH20160604191513806/04/16 19:15:31  5-MIN KAOH 050015Z AUTO 00000KT 4SM -RA BR SCT025 BKN041 OVC110 21/20 A2976 1130 93 2100 000/00 RMK AO2 P0003 T02110200
04850KAOH AOH20160604192013806/04/16 19:20:31  5-MIN KAOH 050020Z AUTO 00000KT 4SM -RA BR SCT028 BKN090 OVC110 21/19 A2976 1130 93 2100 000/00 RMK AO2 P0004 T02060194
04850KAOH AOH20160604192513806/04/16 19:25:31  5-MIN KAOH 050025Z AUTO 00000KT 5SM -RA BR FEW019 BKN035 OVC110 21/20 A2976 1130 97 2100 000/00 RMK AO2 P0004 T02060200
04850KAOH AOH20160604193013506/04/16 19:30:31  5-MIN KAOH 050030Z AUTO 00000KT 7SM -RA SCT031 BKN042 OVC110 21/20 A2976 1130 93 2100 000/00 RMK AO2 P0004 T02110200
04850KAOH AOH20160604193513506/04/16 19:35:31  5-MIN KAOH 050035Z AUTO 00000KT 8SM -RA FEW020 BKN033 OVC120 21/20 A2976 1130 93 2100 000/00 RMK AO2 P0004 T02110200
04850KAOH AOH20160604194013506/04/16 19:40:31  5-MIN KAOH 050040Z AUTO 00000KT 8SM -RA SCT020 BKN033 OVC120 21/20 A2975 1130 93 2100 000/00 RMK AO2 P0004 T02110200
04850KAOH AOH20160604194513506/04/16 19:45:31  5-MIN KAOH 050045Z AUTO 00000KT 9SM -RA BKN020 BKN033 OVC120 21/20 A2975 1140 93 2100 000/00 RMK AO2 P0004 T02110200
04850KAOH AOH20160604195014406/04/16 19:50:31  5-MIN KAOH 050050Z AUTO 00000KT 8SM FEW013 BKN020 OVC032 21/20 A2975 1140 93 2200 000/00 RMK AO2 RAE46 SLP067 P0004 T02110200
04850KAOH AOH20160604195513506/04/16 19:55:31  5-MIN KAOH 050055Z AUTO 00000KT 7SM -RA SCT013 BKN020 OVC032 21/20 A2975 1140 93 2200 000/00 RMK AO2 P0000 T02110200
04850KAOH AOH20160604200012806/04/16 20:00:31  5-MIN KAOH 050100Z AUTO 00000KT 7SM -RA BKN011 OVC020 21/20 A2974 1140 97 2100 000/00 RMK AO2 P0000 T02060200
04850KAOH AOH20160604200512806/04/16 20:05:31  5-MIN KAOH 050105Z AUTO 01003KT 7SM -RA BKN011 OVC020 21/20 A2974 1140 97 2100 020/03 RMK AO2 P0001 T02060200
04850KAOH AOH20160604201014006/04/16 20:10:31  5-MIN KAOH 050110Z AUTO 00000KT 7SM -RA BKN011 OVC020 21/20 A2974 1140 97 2100 000/00 RMK AO2 CIG 007V016 P0001 T02060200
04850KAOH AOH20160604201514006/04/16 20:15:31  5-MIN KAOH 050115Z AUTO 00000KT 7SM -RA BKN008 OVC011 21/20 A2974 1150 97 2100 000/00 RMK AO2 CIG 006V009 P0001 T02060200
04850KAOH AOH20160604202015206/04/16 20:20:31  5-MIN KAOH 050120Z AUTO 00000KT 6SM -RA BR BKN008 OVC012 21/20 A2974 1150 97 2100 000/00 RMK AO2 RAE16B20 CIG 005V011 P0002 T02060200
04850KAOH AOH20160604202514406/04/16 20:25:31  5-MIN KAOH 050125Z AUTO 02004KT 4SM RA BR OVC008 21/20 A2974 1150 97 2100 030/04 RMK AO2 RAE16B20 CIG 004V011 P0006 T02060200
04850KAOH AOH20160604203014506/04/16 20:30:31  5-MIN KAOH 050130Z AUTO 29006KT 3SM -RA BR OVC008 21/20 A2974 1140 97 2100 300/06 RMK AO2 RAE16B20 CIG 004V009 P0007 T02060200
04850KAOH AOH20160604203514506/04/16 20:35:31  5-MIN KAOH 050135Z AUTO 29006KT 3SM +RA BR OVC006 20/19 A2974 1140 93 2000 290/06 RMK AO2 RAE16B20 CIG 004V009 P0012 T02000189
04850KAOH AOH20160604204013706/04/16 20:40:31  5-MIN KAOH 050140Z AUTO 32005KT 2 1/2SM +RA BR OVC006 20/19 A2974 1140 93 2000 330/05 RMK AO2 RAE16B20 P0014 T02000189
04850KAOH AOH20160604204513206/04/16 20:45:31  5-MIN KAOH 050145Z AUTO 28009KT 3SM RA BR OVC006 20/19 A2975 1140 93 2000 280/09 RMK AO2 RAE16B20 P0016 T02000189
04850KAOH AOH20160604205015106/04/16 20:50:31  5-MIN KAOH 050150Z AUTO 31006KT 4SM RA BR OVC006 19/19 A2975 1140 97 2000 310/06 RMK AO2 RAE16B20 CIG 004V009 SLP067 P0016 T01940189
04850KAOH AOH20160604205513606/04/16 20:55:31  5-MIN KAOH 050155Z AUTO VRB06KT 6SM -RA BR OVC006 19/19 A2974 1140 97 2000 VRB/06 RMK AO2 CIG 004V011 P0000 T01940189
04850KAOH AOH20160604210014306/04/16 21:00:31  5-MIN KAOH 050200Z AUTO 34004KT 6SM -RA BR BKN006 OVC012 19/19 A2975 1140 97 2000 340/04 RMK AO2 CIG 004V010 P0000 T01940189
04850KAOH AOH20160604210514306/04/16 21:05:31  5-MIN KAOH 050205Z AUTO 32012KT 5SM -RA BR BKN006 OVC012 19/19 A2974 1140 97 2000 320/12 RMK AO2 CIG 004V009 P0002 T01940189
04850KAOH AOH20160604211014206/04/16 21:10:31  5-MIN KAOH 050210Z AUTO 31010KT 3SM RA BR BKN006 OVC011 18/18 A2975 1140 96 1800 310/10 RMK AO2 CIG 004V010 P0005 T01830178
04850KAOH AOH20160604211515906/04/16 21:15:31  5-MIN KAOH 050215Z AUTO 32010KT 2 1/2SM +RA BR BKN006 OVC011 18/17 A2975 1140 96 1800 330/10 RMK AO2 VIS 1 1/2V4 CIG 004V010 P0011 T01780172
04850KAOH AOH20160604212013106/04/16 21:20:31  5-MIN KAOH 050220Z AUTO 30008KT 2SM +RA BR SCT006 OVC013 18/17 A2975 1140 96 1800 310/08 RMK AO2 P0016 T01780172
04850KAOH AOH20160604212513106/04/16 21:25:31  5-MIN KAOH 050225Z AUTO 29009KT 3SM -RA BR BKN008 OVC015 18/17 A2976 1130 93 1800 300/09 RMK AO2 P0017 T01830172
04850KAOH AOH20160604213012806/04/16 21:30:31  5-MIN KAOH 050230Z AUTO 27007KT 8SM -RA FEW008 OVC014 18/17 A2975 1130 93 1800 280/07 RMK AO2 P0017 T01830172
04850KAOH AOH20160604213513806/04/16 21:35:31  5-MIN KAOH 050235Z AUTO 28006KT 6SM -RA BR FEW006 BKN012 OVC017 18/17 A2976 1130 96 1800 280/06 RMK AO2 P0018 T01780172
04850KAOH AOH20160604214012406/04/16 21:40:31  5-MIN KAOH 050240Z AUTO 26007KT 3SM +RA BR OVC012 18/17 A2976 1130 96 1800 270/07 RMK AO2 P0022 T01780172
04850KAOH AOH20160604214514206/04/16 21:45:31  5-MIN KAOH 050245Z AUTO 29008KT 2 1/2SM RA BR BKN010 OVC016 18/17 A2976 1130 96 1800 290/08 RMK AO2 VIS 2V4 P0023 T01780172
04850KAOH AOH20160604215015706/04/16 21:50:31  5-MIN KAOH 050250Z AUTO 30007KT 4SM -RA BR BKN010 BKN016 OVC039 18/17 A2975 1130 96 1800 310/07 RMK AO2 SLP069 P0024 60045 T01780172 56016
04850KAOH AOH20160604215513806/04/16 21:55:31  5-MIN KAOH 050255Z AUTO 30006KT 5SM -RA BR SCT010 BKN018 OVC044 18/17 A2975 1140 96 1800 310/06 RMK AO2 P0000 T01780172
04850KAOH AOH20160604220013806/04/16 22:00:31  5-MIN KAOH 050300Z AUTO 30005KT 5SM -RA BR SCT010 BKN037 OVC055 18/17 A2975 1140 96 1800 300/05 RMK AO2 P0000 T01780172
04850KAOH AOH20160604220513506/04/16 22:05:31  5-MIN KAOH 050305Z AUTO 29005KT 8SM -RA FEW010 BKN038 OVC055 18/17 A2975 1140 96 1800 300/05 RMK AO2 P0000 T01780172
04850KAOH AOH20160604221013606/04/16 22:10:31  5-MIN KAOH 050310Z AUTO 29005KT 10SM -RA FEW014 BKN040 OVC055 18/17 A2975 1140 93 1800 300/05 RMK AO2 P0000 T01830172
04850KAOH AOH20160604221513106/04/16 22:15:31  5-MIN KAOH 050315Z AUTO 30006KT 10SM BKN044 OVC055 18/17 A2975 1140 93 1800 300/06 RMK AO2 RAE12 P0000 T01830172
04850KAOH AOH20160604222012406/04/16 22:20:31  5-MIN KAOH 050320Z AUTO 30007KT 10SM OVC046 18/17 A2975 1140 93 1800 310/07 RMK AO2 RAE12 P0000 T01830172
04850KAOH AOH20160604222512406/04/16 22:25:31  5-MIN KAOH 050325Z AUTO 29007KT 10SM OVC046 18/17 A2975 1140 93 1800 300/07 RMK AO2 RAE12 P0000 T01830172
04850KAOH AOH20160604223012406/04/16 22:30:31  5-MIN KAOH 050330Z AUTO 28006KT 10SM BKN046 18/17 A2975 1140 93 1800 290/06 RMK AO2 RAE12 P0000 T01830172
04850KAOH AOH20160604223512406/04/16 22:35:31  5-MIN KAOH 050335Z AUTO 28007KT 10SM BKN046 18/17 A2975 1140 96 1800 290/07 RMK AO2 RAE12 P0000 T01780172
04850KAOH AOH20160604224012406/04/16 22:40:31  5-MIN KAOH 050340Z AUTO 27006KT 10SM SCT048 18/17 A2975 1140 96 1800 270/06 RMK AO2 RAE12 P0000 T01780172
04850KAOH AOH20160604224512406/04/16 22:45:31  5-MIN KAOH 050345Z AUTO 27006KT 10SM FEW048 18/17 A2975 1140 96 1800 270/06 RMK AO2 RAE12 P0000 T01780172
04850KAOH AOH20160604225013106/04/16 22:50:31  5-MIN KAOH 050350Z AUTO 25006KT 10SM FEW050 18/17 A2975 1140 96 1800 260/06 RMK AO2 RAE12 SLP069 P0000 T01780172
04850KAOH AOH20160604225510906/04/16 22:55:31  5-MIN KAOH 050355Z AUTO 24006KT 10SM CLR 18/17 A2975 1130 93 1800 250/06 RMK AO2 T01780167
04850KAOH AOH20160604230010906/04/16 23:00:31  5-MIN KAOH 050400Z AUTO 24005KT 10SM CLR 18/17 A2975 1130 96 1800 250/05 RMK AO2 T01780172
04850KAOH AOH20160604230510906/04/16 23:05:31  5-MIN KAOH 050405Z AUTO 21003KT 10SM CLR 18/17 A2975 1140 96 1800 220/03 RMK AO2 T01780172
04850KAOH AOH20160604231010906/04/16 23:10:31  5-MIN KAOH 050410Z AUTO 22004KT 10SM CLR 18/17 A2974 1140 93 1800 230/04 RMK AO2 T01780167
04850KAOH AOH20160604231510906/04/16 23:15:31  5-MIN KAOH 050415Z AUTO 22004KT 10SM CLR 18/17 A2974 1140 93 1800 220/04 RMK AO2 T01780167
04850KAOH AOH20160604232010906/04/16 23:20:31  5-MIN KAOH 050420Z AUTO 21006KT 10SM CLR 17/17 A2975 1140 96 1700 210/06 RMK AO2 T01720167
04850KAOH AOH20160604232510906/04/16 23:25:31  5-MIN KAOH 050425Z AUTO 20006KT 10SM CLR 17/17 A2975 1140 96 1700 210/06 RMK AO2 T01720167
04850KAOH AOH20160604233011306/04/16 23:30:31  5-MIN KAOH 050430Z AUTO 20006KT 10SM FEW006 17/17 A2975 1140 100 1700 200/06 RMK AO2 T01720172
04850KAOH AOH20160604233511206/04/16 23:35:31  5-MIN KAOH 050435Z AUTO 20005KT 10SM SCT006 18/17 A2974 1140 96 1800 200/05 RMK AO2 T01780172
04850KAOH AOH20160604234011206/04/16 23:40:31  5-MIN KAOH 050440Z AUTO 22007KT 10SM BKN006 18/17 A2974 1140 96 1800 220/07 RMK AO2 T01780172
04850KAOH AOH20160604234511206/04/16 23:45:31  5-MIN KAOH 050445Z AUTO 23004KT 10SM BKN006 18/17 A2974 1150 96 1800 240/04 RMK AO2 T01780172
04850KAOH AOH20160604235012906/04/16 23:50:31  5-MIN KAOH 050450Z AUTO 21005KT 10SM BKN006 18/17 A2974 1150 96 1800 220/05 RMK AO2 SLP063 T01780172 402500172
04850KAOH AOH20160604235512406/04/16 23:55:31  5-MIN KAOH 050455Z AUTO 22006KT 10SM OVC006 18/17 A2974 1150 96 1800 230/06 RMK AO2 CIG 004V009 T01780172
04850KAOH AOH20160605000011206/05/16 00:00:31  5-MIN KAOH 050500Z AUTO 21007KT 10SM OVC006 18/17 A2974 1150 96 1800 220/07 RMK AO2 T01780172
04850KAOH AOH20160605000511206/05/16 00:05:31  5-MIN KAOH 050505Z AUTO 22005KT 10SM OVC006 18/17 A2974 1150 96 1800 230/05 RMK AO2 T01780172
04850KAOH AOH20160605001013106/05/16 00:10:31  5-MIN KAOH 050510Z AUTO 22006KT 10SM BKN006 OVC012 18/17 A2974 1140 96 1800 230/06 RMK AO2 CIG 004V010 T01780172
04850KAOH AOH20160605001513106/05/16 00:15:31  5-MIN KAOH 050515Z AUTO 22006KT 10SM BKN006 OVC012 18/17 A2974 1150 96 1800 230/06 RMK AO2 CIG 004V010 T01780172
04850KAOH AOH20160605002012406/05/16 00:20:31  5-MIN KAOH 050520Z AUTO 22006KT 10SM OVC007 18/17 A2973 1150 96 1800 220/06 RMK AO2 CIG 005V010 T01780172
04850KAOH AOH20160605002511906/05/16 00:25:31  5-MIN KAOH 050525Z AUTO 23007KT 10SM BKN007 OVC011 18/17 A2973 1150 96 1800 230/07 RMK AO2 T01780172
04850KAOH AOH20160605003012406/05/16 00:30:31  5-MIN KAOH 050530Z AUTO 21006KT 10SM OVC007 18/17 A2973 1150 96 1800 220/06 RMK AO2 CIG 005V010 T01780172
04850KAOH AOH20160605003512406/05/16 00:35:31  5-MIN KAOH 050535Z AUTO 22007KT 10SM OVC007 18/17 A2973 1150 96 1800 220/07 RMK AO2 CIG 005V010 T01780172
04850KAOH AOH20160605004011206/05/16 00:40:31  5-MIN KAOH 050540Z AUTO 21006KT 10SM OVC007 18/17 A2973 1160 96 1800 220/06 RMK AO2 T01780172
04850KAOH AOH20160605004511206/05/16 00:45:31  5-MIN KAOH 050545Z AUTO 20005KT 10SM OVC007 18/17 A2972 1160 96 1800 210/05 RMK AO2 T01780172
04850KAOH AOH20160605005014306/05/16 00:50:31  5-MIN KAOH 050550Z AUTO 20007KT 10SM BKN007 18/17 A2972 1160 96 1800 200/07 RMK AO2 SLP059 60045 T01780172 10211 20172 53001
04850KAOH AOH20160605005513106/05/16 00:55:31  5-MIN KAOH 050555Z AUTO 21007KT 10SM BKN008 BKN120 18/17 A2972 1160 96 1800 210/07 RMK AO2 CIG 004V009 T01780172
04850KAOH AOH20160605010013106/05/16 01:00:31  5-MIN KAOH 050600Z AUTO 20006KT 10SM BKN008 BKN120 18/17 A2973 1160 96 1800 210/06 RMK AO2 CIG 004V009 T01780172
04850KAOH AOH20160605010511206/05/16 01:05:31  5-MIN KAOH 050605Z AUTO 20007KT 10SM SCT008 18/17 A2972 1160 96 1800 200/07 RMK AO2 T01780172
04850KAOH AOH20160605011011206/05/16 01:10:31  5-MIN KAOH 050610Z AUTO 21006KT 10SM FEW008 18/17 A2972 1170 96 1800 210/06 RMK AO2 T01780172
04850KAOH AOH20160605011511206/05/16 01:15:31  5-MIN KAOH 050615Z AUTO 22006KT 10SM FEW006 17/17 A2972 1160 96 1700 220/06 RMK AO2 T01720167
04850KAOH AOH20160605012011206/05/16 01:20:31  5-MIN KAOH 050620Z AUTO 22007KT 10SM SCT006 17/17 A2972 1160 96 1700 220/07 RMK AO2 T01720167
04850KAOH AOH20160605012511306/05/16 01:25:31  5-MIN KAOH 050625Z AUTO 22007KT 10SM BKN005 17/17 A2972 1160 100 1700 230/07 RMK AO2 T01720172
04850KAOH AOH20160605013011206/05/16 01:30:31  5-MIN KAOH 050630Z AUTO 21007KT 10SM BKN005 18/17 A2971 1170 96 1800 220/07 RMK AO2 T01780172
04850KAOH AOH20160605013511206/05/16 01:35:31  5-MIN KAOH 050635Z AUTO 21007KT 10SM BKN005 18/17 A2971 1170 96 1800 210/07 RMK AO2 T01780172
04850KAOH AOH20160605014011206/05/16 01:40:31  5-MIN KAOH 050640Z AUTO 21008KT 10SM OVC005 18/17 A2971 1170 96 1800 220/08 RMK AO2 T01780172
04850KAOH AOH20160605014511106/05/16 01:45:31  5-MIN KAOH 050645Z AUTO 21007KT 9SM OVC005 18/17 A2971 1170 96 1800 220/07 RMK AO2 T01780172
04850KAOH AOH20160605015011806/05/16 01:50:31  5-MIN KAOH 050650Z AUTO 22007KT 9SM BKN005 18/17 A2971 1170 96 1800 230/07 RMK AO2 SLP057 T01780172
04850KAOH AOH20160605015511206/05/16 01:55:31  5-MIN KAOH 050655Z AUTO 22007KT 10SM BKN004 18/17 A2972 1170 96 1800 220/07 RMK AO2 T01780172
04850KAOH AOH20160605020011206/05/16 02:00:31  5-MIN KAOH 050700Z AUTO 21007KT 10SM BKN004 18/17 A2971 1170 96 1800 220/07 RMK AO2 T01780172
04850KAOH AOH20160605020511106/05/16 02:05:31  5-MIN KAOH 050705Z AUTO 21007KT 9SM BKN005 18/17 A2971 1170 96 1800 210/07 RMK AO2 T01780172
04850KAOH AOH20160605021011806/05/16 02:10:31  5-MIN KAOH 050710Z AUTO 21008KT 9SM BKN005 BKN014 18/17 A2971 1180 96 1800 210/08 RMK AO2 T01780172
04850KAOH AOH20160605021511806/05/16 02:15:31  5-MIN KAOH 050715Z AUTO 21007KT 9SM BKN005 OVC014 18/17 A2970 1180 96 1800 210/07 RMK AO2 T01780172
04850KAOH AOH20160605022011806/05/16 02:20:31  5-MIN KAOH 050720Z AUTO 21007KT 9SM BKN005 OVC014 18/17 A2970 1180 96 1800 210/07 RMK AO2 T01780172
04850KAOH AOH20160605022511806/05/16 02:25:31  5-MIN KAOH 050725Z AUTO 20008KT 9SM BKN005 OVC014 18/17 A2970 1180 96 1800 210/08 RMK AO2 T01780172
04850KAOH AOH20160605023011806/05/16 02:30:31  5-MIN KAOH 050730Z AUTO 21007KT 9SM SCT005 OVC014 18/17 A2970 1180 96 1800 210/07 RMK AO2 T01780172
04850KAOH AOH20160605023511806/05/16 02:35:31  5-MIN KAOH 050735Z AUTO 21009KT 9SM SCT006 OVC014 18/17 A2971 1180 96 1800 210/09 RMK AO2 T01780172
04850KAOH AOH20160605024011806/05/16 02:40:31  5-MIN KAOH 050740Z AUTO 21008KT 9SM SCT006 OVC014 18/17 A2971 1180 96 1800 220/08 RMK AO2 T01780172
04850KAOH AOH20160605024511806/05/16 02:45:31  5-MIN KAOH 050745Z AUTO 21009KT 9SM SCT008 OVC014 18/17 A2970 1180 96 1800 210/09 RMK AO2 T01780172
04850KAOH AOH20160605025012506/05/16 02:50:31  5-MIN KAOH 050750Z AUTO 22007KT 9SM SCT008 OVC014 18/17 A2970 1180 96 1800 220/07 RMK AO2 SLP052 T01780172
04850KAOH AOH20160605025511806/05/16 02:55:31  5-MIN KAOH 050755Z AUTO 22008KT 9SM SCT008 OVC014 18/17 A2970 1180 93 1900 230/08 RMK AO2 T01830172
04850KAOH AOH20160605030011806/05/16 03:00:31  5-MIN KAOH 050800Z AUTO 22009KT 9SM SCT008 OVC014 18/17 A2970 1180 93 1900 230/09 RMK AO2 T01830172
04850KAOH AOH20160605030513006/05/16 03:05:31  5-MIN KAOH 050805Z AUTO 22007KT 9SM BKN008 OVC014 18/17 A2970 1180 93 1900 230/07 RMK AO2 CIG 005V012 T01830172
04850KAOH AOH20160605031013006/05/16 03:10:31  5-MIN KAOH 050810Z AUTO 23008KT 9SM BKN008 OVC014 18/17 A2970 1180 93 1900 230/08 RMK AO2 CIG 006V012 T01830172
04850KAOH AOH20160605031513006/05/16 03:15:31  5-MIN KAOH 050815Z AUTO 22008KT 9SM BKN008 OVC015 18/17 A2970 1180 93 1900 230/08 RMK AO2 CIG 006V010 T01830172
04850KAOH AOH20160605032013006/05/16 03:20:31  5-MIN KAOH 050820Z AUTO 23006KT 9SM BKN008 OVC015 18/17 A2970 1180 93 1900 230/06 RMK AO2 CIG 005V010 T01830172
04850KAOH AOH20160605032513006/05/16 03:25:31  5-MIN KAOH 050825Z AUTO 23008KT 9SM BKN008 OVC015 18/17 A2970 1180 93 1900 240/08 RMK AO2 CIG 005V012 T01830172
04850KAOH AOH20160605033013006/05/16 03:30:31  5-MIN KAOH 050830Z AUTO 22008KT 9SM BKN008 OVC015 18/18 A2970 1180 96 1900 230/08 RMK AO2 CIG 005V009 T01830178
04850KAOH AOH20160605033513006/05/16 03:35:31  5-MIN KAOH 050835Z AUTO 22008KT 9SM BKN008 OVC013 18/17 A2970 1180 93 1900 230/08 RMK AO2 CIG 005V011 T01830172
04850KAOH AOH20160605034013006/05/16 03:40:31  5-MIN KAOH 050840Z AUTO 22007KT 8SM BKN008 OVC013 18/17 A2970 1190 93 1900 220/07 RMK AO2 CIG 005V010 T01830172
04850KAOH AOH20160605034513006/05/16 03:45:31  5-MIN KAOH 050845Z AUTO 22007KT 8SM BKN008 OVC013 18/17 A2970 1180 93 1900 230/07 RMK AO2 CIG 005V010 T01830172
04850KAOH AOH20160605035013606/05/16 03:50:31  5-MIN KAOH 050850Z AUTO 22008KT 8SM OVC008 18/17 A2970 1180 93 1900 230/08 RMK AO2 CIG 006V012 SLP051 T01830172 58008
04850KAOH AOH20160605035512306/05/16 03:55:31  5-MIN KAOH 050855Z AUTO 22008KT 8SM OVC008 18/17 A2970 1190 93 1900 220/08 RMK AO2 CIG 006V012 T01830172
04850KAOH AOH20160605040012306/05/16 04:00:31  5-MIN KAOH 050900Z AUTO 22008KT 8SM OVC008 18/18 A2970 1190 96 1900 220/08 RMK AO2 CIG 006V011 T01830178
04850KAOH AOH20160605040512306/05/16 04:05:31  5-MIN KAOH 050905Z AUTO 22006KT 8SM OVC008 18/18 A2969 1190 96 1900 230/06 RMK AO2 CIG 006V011 T01830178
04850KAOH AOH20160605041012306/05/16 04:10:31  5-MIN KAOH 050910Z AUTO 23007KT 8SM OVC008 18/18 A2969 1190 96 1900 230/07 RMK AO2 CIG 006V011 T01830178
04850KAOH AOH20160605041512306/05/16 04:15:31  5-MIN KAOH 050915Z AUTO 22007KT 8SM OVC007 18/18 A2970 1190 96 1900 230/07 RMK AO2 CIG 006V011 T01830178
04850KAOH AOH20160605042012306/05/16 04:20:31  5-MIN KAOH 050920Z AUTO 22007KT 8SM OVC007 18/18 A2970 1180 96 1900 230/07 RMK AO2 CIG 006V010 T01830178
04850KAOH AOH20160605042511106/05/16 04:25:31  5-MIN KAOH 050925Z AUTO 22007KT 7SM OVC007 18/18 A2970 1180 96 1900 220/07 RMK AO2 T01830178
04850KAOH AOH20160605043011106/05/16 04:30:31  5-MIN KAOH 050930Z AUTO 22007KT 7SM OVC007 18/18 A2970 1180 96 1900 230/07 RMK AO2 T01830178
04850KAOH AOH20160605043511106/05/16 04:35:31  5-MIN KAOH 050935Z AUTO 23008KT 7SM OVC006 18/18 A2970 1180 96 1900 230/08 RMK AO2 T01830178
04850KAOH AOH20160605044011106/05/16 04:40:31  5-MIN KAOH 050940Z AUTO 22008KT 7SM OVC006 18/18 A2970 1180 96 1900 230/08 RMK AO2 T01830178
04850KAOH AOH20160605044511106/05/16 04:45:31  5-MIN KAOH 050945Z AUTO 22009KT 7SM OVC006 18/18 A2970 1180 96 1900 230/09 RMK AO2 T01830178
04850KAOH AOH20160605045011806/05/16 04:50:31  5-MIN KAOH 050950Z AUTO 22008KT 7SM OVC006 18/18 A2970 1180 96 1900 230/08 RMK AO2 SLP052 T01830178
04850KAOH AOH20160605045511106/05/16 04:55:31  5-MIN KAOH 050955Z AUTO 22008KT 7SM OVC006 18/18 A2970 1180 96 1900 230/08 RMK AO2 T01830178
04850KAOH AOH20160605050011106/05/16 05:00:31  5-MIN KAOH 051000Z AUTO 23009KT 7SM OVC006 18/18 A2970 1180 96 1900 230/09 RMK AO2 T01830178
04850KAOH AOH20160605050512306/05/16 05:05:31  5-MIN KAOH 051005Z AUTO 23009KT 7SM OVC006 18/18 A2970 1180 96 1900 240/09 RMK AO2 CIG 005V010 T01830178
04850KAOH AOH20160605051011106/05/16 05:10:31  5-MIN KAOH 051010Z AUTO 23007KT 7SM OVC006 18/18 A2970 1180 96 1900 240/07 RMK AO2 T01830178
04850KAOH AOH20160605051511806/05/16 05:15:31  5-MIN KAOH 051015Z AUTO 23007KT 7SM BKN006 OVC013 18/18 A2970 1180 96 1900 240/07 RMK AO2 T01830178
04850KAOH AOH20160605052011806/05/16 05:20:31  5-MIN KAOH 051020Z AUTO 22006KT 7SM BKN006 OVC015 18/18 A2970 1180 96 1900 230/06 RMK AO2 T01830178
04850KAOH AOH20160605052513306/05/16 05:25:31  5-MIN KAOH 051025Z AUTO 22007KT 6SM BR BKN006 OVC015 18/18 A2970 1190 96 1900 220/07 RMK AO2 CIG 005V009 T01830178
04850KAOH AOH20160605053013306/05/16 05:30:31  5-MIN KAOH 051030Z AUTO 22007KT 5SM BR BKN006 OVC015 18/18 A2970 1180 96 1900 230/07 RMK AO2 CIG 005V009 T01830178
04850KAOH AOH20160605053512106/05/16 05:35:31  5-MIN KAOH 051035Z AUTO 22009KT 5SM BR SCT007 OVC015 18/18 A2970 1180 96 1900 230/09 RMK AO2 T01830178
04850KAOH AOH20160605054012106/05/16 05:40:31  5-MIN KAOH 051040Z AUTO 22008KT 5SM BR FEW007 OVC015 18/18 A2970 1190 96 1900 220/08 RMK AO2 T01830178
04850KAOH AOH20160605054512106/05/16 05:45:31  5-MIN KAOH 051045Z AUTO 21007KT 5SM BR FEW007 OVC015 18/18 A2970 1180 96 1900 220/07 RMK AO2 T01830178
04850KAOH AOH20160605055012806/05/16 05:50:31  5-MIN KAOH 051050Z AUTO 21007KT 5SM BR FEW009 OVC015 18/18 A2970 1190 96 1900 220/07 RMK AO2 SLP050 T01830178
04850KAOH AOH20160605055512106/05/16 05:55:31  5-MIN KAOH 051055Z AUTO 21007KT 5SM BR FEW009 BKN015 18/18 A2969 1190 96 1900 210/07 RMK AO2 T01830178
04850KAOH AOH20160605060011406/05/16 06:00:31  5-MIN KAOH 051100Z AUTO 21007KT 5SM BR BKN015 18/18 A2970 1190 96 1900 210/07 RMK AO2 T01830178
04850KAOH AOH20160605060511406/05/16 06:05:31  5-MIN KAOH 051105Z AUTO 21007KT 5SM BR BKN015 18/18 A2970 1190 96 1900 210/07 RMK AO2 T01830178
04850KAOH AOH20160605061011406/05/16 06:10:31  5-MIN KAOH 051110Z AUTO 21006KT 5SM BR BKN015 18/18 A2970 1180 96 1900 220/06 RMK AO2 T01830178
04850KAOH AOH20160605061511406/05/16 06:15:31  5-MIN KAOH 051115Z AUTO 21008KT 5SM BR BKN013 18/18 A2970 1190 96 1900 210/08 RMK AO2 T01830178
04850KAOH AOH20160605062011406/05/16 06:20:31  5-MIN KAOH 051120Z AUTO 21008KT 6SM BR BKN013 19/18 A2970 1190 93 2000 210/08 RMK AO2 T01890178
04850KAOH AOH20160605062511406/05/16 06:25:31  5-MIN KAOH 051125Z AUTO 21008KT 6SM BR BKN013 19/18 A2970 1190 93 2000 220/08 RMK AO2 T01890178
04850KAOH AOH20160605063011406/05/16 06:30:31  5-MIN KAOH 051130Z AUTO 21007KT 6SM BR BKN013 19/18 A2970 1190 93 2000 220/07 RMK AO2 T01890178
04850KAOH AOH20160605063511406/05/16 06:35:31  5-MIN KAOH 051135Z AUTO 21009KT 6SM BR BKN012 19/18 A2969 1190 93 2000 220/09 RMK AO2 T01890178
04850KAOH AOH20160605064011406/05/16 06:40:31  5-MIN KAOH 051140Z AUTO 22008KT 6SM BR BKN012 19/18 A2969 1190 93 2000 220/08 RMK AO2 T01890178
04850KAOH AOH20160605064511106/05/16 06:45:31  5-MIN KAOH 051145Z AUTO 21010KT 7SM OVC012 19/18 A2969 1190 93 2000 220/10 RMK AO2 T01890178
04850KAOH AOH20160605065014206/05/16 06:50:31  5-MIN KAOH 051150Z AUTO 22011KT 7SM OVC011 19/18 A2969 1190 93 2000 230/11 RMK AO2 SLP049 70061 T01890178 10189 20172 56009
04850KAOH AOH20160605065512306/05/16 06:55:31  5-MIN KAOH 051155Z AUTO 22008KT 7SM OVC011 19/18 A2969 1190 93 2000 220/08 RMK AO2 CIG 009V013 T01890178
04850KAOH AOH20160605070012306/05/16 07:00:31  5-MIN KAOH 051200Z AUTO 22009KT 8SM OVC011 19/18 A2969 1190 90 2000 230/09 RMK AO2 CIG 007V013 T01940178
04850KAOH AOH20160605070512306/05/16 07:05:31  5-MIN KAOH 051205Z AUTO 22008KT 8SM OVC010 19/18 A2969 1190 90 2000 220/08 RMK AO2 CIG 007V013 T01940178
04850KAOH AOH20160605071012306/05/16 07:10:31  5-MIN KAOH 051210Z AUTO 22010KT 8SM BKN010 19/18 A2969 1190 90 2000 230/10 RMK AO2 CIG 007V013 T01940178
04850KAOH AOH20160605071512306/05/16 07:15:31  5-MIN KAOH 051215Z AUTO 22009KT 9SM BKN010 19/18 A2969 1190 90 2000 230/09 RMK AO2 CIG 007V012 T01940178
04850KAOH AOH20160605072012306/05/16 07:20:31  5-MIN KAOH 051220Z AUTO 22013KT 9SM BKN010 19/18 A2969 1190 93 2000 230/13 RMK AO2 CIG 007V013 T01940183
04850KAOH AOH20160605072511806/05/16 07:25:31  5-MIN KAOH 051225Z AUTO 23010KT 9SM BKN010 BKN017 19/18 A2970 1190 90 2000 240/10 RMK AO2 T01940178
04850KAOH AOH20160605073011906/05/16 07:30:31  5-MIN KAOH 051230Z AUTO 23010KT 10SM BKN010 BKN017 19/18 A2969 1190 90 2000 230/10 RMK AO2 T01940178
04850KAOH AOH20160605073511206/05/16 07:35:31  5-MIN KAOH 051235Z AUTO 22009KT 10SM BKN012 20/18 A2969 1190 87 2100 220/09 RMK AO2 T02000178
04850KAOH AOH20160605074011206/05/16 07:40:31  5-MIN KAOH 051240Z AUTO 22013KT 10SM BKN012 20/18 A2969 1190 87 2100 230/13 RMK AO2 T02000178
04850KAOH AOH20160605074511206/05/16 07:45:31  5-MIN KAOH 051245Z AUTO 23012KT 10SM BKN012 20/18 A2969 1190 87 2100 230/12 RMK AO2 T02000178
04850KAOH AOH20160605075010206/05/16 07:50:31  5-MIN KAOH 051250Z AUTO 22012KT 10SM SCT012 20/18 A2969 1190 87 2100 220/12 RMK AO2
04850KAOH AOH20160605075511206/05/16 07:55:31  5-MIN KAOH 051255Z AUTO 21011KT 10SM SCT012 21/18 A2969 1190 84 2200 220/11 RMK AO2 T02060178
04850KAOH AOH20160605080011206/05/16 08:00:31  5-MIN KAOH 051300Z AUTO 21010KT 10SM SCT012 21/18 A2969 1190 84 2200 220/10 RMK AO2 T02060178
04850KAOH AOH20160605080511206/05/16 08:05:31  5-MIN KAOH 051305Z AUTO 22012KT 10SM SCT012 21/18 A2969 1190 84 2200 230/12 RMK AO2 T02060178
04850KAOH AOH20160605081011206/05/16 08:10:31  5-MIN KAOH 051310Z AUTO 21010KT 10SM SCT012 21/18 A2969 1190 87 2200 210/10 RMK AO2 T02060183
04850KAOH AOH20160605081511206/05/16 08:15:31  5-MIN KAOH 051315Z AUTO 22011KT 10SM BKN012 21/18 A2969 1190 81 2200 230/11 RMK AO2 T02110178
04850KAOH AOH20160605082011206/05/16 08:20:31  5-MIN KAOH 051320Z AUTO 22010KT 10SM BKN012 21/18 A2969 1190 84 2200 230/10 RMK AO2 T02110183
04850KAOH AOH20160605082511206/05/16 08:25:31  5-MIN KAOH 051325Z AUTO 23012KT 10SM SCT012 21/18 A2969 1190 81 2200 240/12 RMK AO2 T02110178
04850KAOH AOH20160605083011206/05/16 08:30:31  5-MIN KAOH 051330Z AUTO 22011KT 10SM SCT012 21/18 A2968 1200 84 2200 220/11 RMK AO2 T02110183
04850KAOH AOH20160605083511206/05/16 08:35:31  5-MIN KAOH 051335Z AUTO 23013KT 10SM SCT012 22/18 A2968 1200 81 2300 230/13 RMK AO2 T02170183
04850KAOH AOH20160605084011206/05/16 08:40:31  5-MIN KAOH 051340Z AUTO 23012KT 10SM FEW012 21/18 A2968 1200 81 2200 240/12 RMK AO2 T02110178
04850KAOH AOH20160605084511206/05/16 08:45:31  5-MIN KAOH 051345Z AUTO 22012KT 10SM FEW012 22/18 A2968 1200 81 2300 220/12 RMK AO2 T02170183
04850KAOH AOH20160605085011906/05/16 08:50:31  5-MIN KAOH 051350Z AUTO 23010KT 10SM FEW012 22/18 A2968 1200 81 2300 230/10 RMK AO2 SLP045 T02170183
04850KAOH AOH20160605085511206/05/16 08:55:31  5-MIN KAOH 051355Z AUTO 22013KT 10SM FEW012 22/18 A2968 1200 81 2300 230/13 RMK AO2 T02170183
04850KAOH AOH20160605090011206/05/16 09:00:31  5-MIN KAOH 051400Z AUTO 23015KT 10SM FEW015 22/18 A2968 1200 75 2400 240/15 RMK AO2 T02220178
04850KAOH AOH20160605090511206/05/16 09:05:31  5-MIN KAOH 051405Z AUTO 23012KT 10SM FEW017 22/18 A2968 1200 75 2400 230/12 RMK AO2 T02220178
04850KAOH AOH20160605091011206/05/16 09:10:31  5-MIN KAOH 051410Z AUTO 23013KT 10SM SCT017 23/18 A2967 1210 76 2400 230/13 RMK AO2 T02280183
04850KAOH AOH20160605091511206/05/16 09:15:31  5-MIN KAOH 051415Z AUTO 23014KT 10SM FEW017 23/18 A2967 1210 76 2400 240/14 RMK AO2 T02280183
04850KAOH AOH20160605092011206/05/16 09:20:31  5-MIN KAOH 051420Z AUTO 23015KT 10SM FEW017 23/18 A2967 1210 73 2400 230/15 RMK AO2 T02280178
04850KAOH AOH20160605092511206/05/16 09:25:31  5-MIN KAOH 051425Z AUTO 24011KT 10SM FEW017 23/18 A2967 1210 76 2400 240/11 RMK AO2 T02280183
04850KAOH AOH20160605093011206/05/16 09:30:31  5-MIN KAOH 051430Z AUTO 24011KT 10SM FEW017 23/18 A2967 1210 76 2400 250/11 RMK AO2 T02280183
04850KAOH AOH20160605093511206/05/16 09:35:31  5-MIN KAOH 051435Z AUTO 24011KT 10SM FEW017 23/19 A2967 1210 78 2400 250/11 RMK AO2 T02280189
04850KAOH AOH20160605094010906/05/16 09:40:31  5-MIN KAOH 051440Z AUTO 24013KT 10SM CLR 23/18 A2967 1210 73 2400 240/13 RMK AO2 T02280178
04850KAOH AOH20160605094511506/05/16 09:45:31  5-MIN KAOH 051445Z AUTO 24015G20KT 10SM CLR 23/18 A2967 1210 70 2500 240/15G20 RMK AO2 T02330178
04850KAOH AOH20160605095012806/05/16 09:50:31  5-MIN KAOH 051450Z AUTO 24013G20KT 10SM CLR 23/18 A2967 1210 70 2500 240/13G20 RMK AO2 SLP040 T02330178 58001
04850KAOH AOH20160605095510906/05/16 09:55:31  5-MIN KAOH 051455Z AUTO 24011KT 10SM CLR 23/18 A2967 1210 73 2500 250/11 RMK AO2 T02330183
04850KAOH AOH20160605100010906/05/16 10:00:31  5-MIN KAOH 051500Z AUTO 23013KT 10SM CLR 24/18 A2967 1210 71 2600 240/13 RMK AO2 T02390183
04850KAOH AOH20160605100511206/05/16 10:05:31  5-MIN KAOH 051505Z AUTO 23011KT 10SM FEW028 24/18 A2967 1210 68 2600 240/11 RMK AO2 T02390178
04850KAOH AOH20160605101011806/05/16 10:10:31  5-MIN KAOH 051510Z AUTO 23013G21KT 10SM FEW028 24/17 A2967 1210 66 2600 240/13G21 RMK AO2 T02390172
04850KAOH AOH20160605101511206/05/16 10:15:31  5-MIN KAOH 051515Z AUTO 23014KT 10SM FEW028 24/17 A2967 1210 66 2600 240/14 RMK AO2 T02390172
04850KAOH AOH20160605102011806/05/16 10:20:31  5-MIN KAOH 051520Z AUTO 24018G22KT 10SM FEW029 24/17 A2967 1210 63 2600 250/18G22 RMK AO2 T02440172
04850KAOH AOH20160605102511806/05/16 10:25:31  5-MIN KAOH 051525Z AUTO 22015G22KT 10SM FEW029 24/17 A2967 1210 61 2600 230/15G22 RMK AO2 T02440167
04850KAOH AOH20160605103011506/05/16 10:30:31  5-MIN KAOH 051530Z AUTO 24018G23KT 10SM CLR 24/17 A2967 1210 61 2600 250/18G23 RMK AO2 T02440167
04850KAOH AOH20160605103511506/05/16 10:35:31  5-MIN KAOH 051535Z AUTO 25017G23KT 10SM CLR 24/17 A2966 1210 61 2600 260/17G23 RMK AO2 T02440167
04850KAOH AOH20160605104010906/05/16 10:40:31  5-MIN KAOH 051540Z AUTO 23016KT 10SM CLR 25/17 A2966 1210 59 2700 230/16 RMK AO2 T02500167
04850KAOH AOH20160605104511806/05/16 10:45:31  5-MIN KAOH 051545Z AUTO 23015G22KT 10SM FEW038 25/17 A2966 1220 59 2700 240/15G22 RMK AO2 T02500167
04850KAOH AOH20160605105012506/05/16 10:50:31  5-MIN KAOH 051550Z AUTO 24018G25KT 10SM FEW038 25/17 A2966 1220 59 2700 240/18G25 RMK AO2 SLP038 T02500167
04850KAOH AOH20160605105511806/05/16 10:55:31  5-MIN KAOH 051555Z AUTO 24016G26KT 10SM FEW037 25/16 A2966 1220 55 2700 250/16G26 RMK AO2 T02500156
04850KAOH AOH20160605110013006/05/16 11:00:31  5-MIN KAOH 051600Z AUTO 24018G26KT 10SM FEW037 25/17 A2966 1220 59 2700 250/18G26 RMK AO2 LTG DSNT NW T02500167
04850KAOH AOH20160605110515506/05/16 11:05:31  5-MIN KAOH 051605Z AUTO 24022G29KT 10SM FEW037 FEW046 26/16 A2966 1220 53 2800 240/22G29 RMK AO2 PK WND 23029/1604 LTG DSNT NW T02560156
04850KAOH AOH20160605111014806/05/16 11:10:31  5-MIN KAOH 051610Z AUTO 23021G29KT 10SM FEW046 25/15 A2966 1220 53 2700 240/21G29 RMK AO2 PK WND 23029/1604 LTG DSNT NW T02500150
04850KAOH AOH20160605111513606/05/16 11:15:31  5-MIN KAOH 051615Z AUTO 24019G27KT 10SM FEW046 25/16 A2966 1220 55 2700 240/19G27 RMK AO2 PK WND 23029/1604 T02500156
04850KAOH AOH20160605112013606/05/16 11:20:31  5-MIN KAOH 051620Z AUTO 25018G26KT 10SM FEW048 26/16 A2965 1230 53 2800 250/18G26 RMK AO2 PK WND 23029/1604 T02560156
04850KAOH AOH20160605112513606/05/16 11:25:31  5-MIN KAOH 051625Z AUTO 25018G25KT 10SM FEW048 26/16 A2964 1230 55 2800 260/18G25 RMK AO2 PK WND 23029/1604 T02560161
04850KAOH AOH20160605113015506/05/16 11:30:31  5-MIN KAOH 051630Z AUTO 22017G24KT 10SM FEW047 SCT120 25/16 A2964 1240 55 2700 230/17G24 RMK AO2 PK WND 23029/1604 LTG DSNT SW T02500156
04850KAOH AOH20160605113516206/05/16 11:35:31  5-MIN KAOH 051635Z AUTO 25015G23KT 10SM FEW044 SCT055 BKN120 24/16 A2964 1240 57 2700 260/15G23 RMK AO2 PK WND 23029/1604 LTG DSNT SW T02440156
04850KAOH AOH20160605114016206/05/16 11:40:31  5-MIN KAOH 051640Z AUTO 25016G26KT 10SM FEW045 SCT055 BKN120 24/16 A2964 1240 57 2700 260/16G26 RMK AO2 PK WND 23029/1604 LTG DSNT SW T02440156
04850KAOH AOH20160605114516806/05/16 11:45:31  5-MIN KAOH 051645Z AUTO 24018G27KT 10SM SCT047 BKN060 BKN120 24/15 A2964 1230 55 2600 250/18G27 RMK AO2 PK WND 23029/1604 LTG DSNT S AND SW T02440150
04850KAOH AOH20160605115019106/05/16 11:50:31  5-MIN KAOH 051650Z AUTO 25014G27KT 10SM -RA BKN044 BKN060 BKN120 23/16 A2965 1230 61 2500 260/14G27 RMK AO2 PK WND 23029/1604 LTG DSNT S AND SW RAB48 SLP033 P0000 T02330156
04850KAOH AOH20160605115515306/05/16 11:55:31  5-MIN KAOH 051655Z AUTO 27017G24KT 10SM -RA SCT044 BKN120 23/17 A2965 1230 66 2500 270/17G24 RMK AO2 LTG DSNT S AND SW P0000 T02330167
04850KAOH AOH20160605120016906/05/16 12:00:31  5-MIN KAOH 051700Z AUTO 25019G25KT 10SM VCTS SCT044 BKN110 23/17 A2965 1230 68 2500 260/19G25 RMK AO2 LTG DSNT NE AND S AND SW RAE1657 P0000 T02330172
04850KAOH AOH20160605120515906/05/16 12:05:31  5-MIN KAOH 051705Z AUTO 24018G25KT 10SM VCTS FEW044 BKN110 24/17 A2965 1230 63 2600 250/18G25 RMK AO2 LTG DSNT ALQDS RAE1657 P0000 T02390167
04850KAOH AOH20160605121016606/05/16 12:10:31  5-MIN KAOH 051710Z AUTO 21013G24KT 10SM VCTS FEW044 SCT060 BKN120 24/17 A2965 1230 63 2600 220/13G24 RMK AO2 LTG DSNT ALQDS RAE1657 P0000 T02390167
04850KAOH AOH20160605121517006/05/16 12:15:31  5-MIN KAOH 051715Z AUTO 21014KT 10SM VCTS FEW033 SCT042 BKN120 23/17 A2965 1230 68 2400 220/14 RMK AO2 WSHFT 1701 LTG DSNT NE-S RAE1657 P0000 T02280167
04850KAOH AOH20160605122016406/05/16 12:20:31  5-MIN KAOH 051720Z AUTO 22014KT 10SM FEW037 SCT055 BKN080 23/17 A2965 1230 68 2400 220/14 RMK AO2 WSHFT 1701 LTG DSNT E-S RAE1657 P0000 T02280167
04850KAOH AOH20160605122516406/05/16 12:25:31  5-MIN KAOH 051725Z AUTO 21012KT 10SM FEW038 SCT050 BKN080 22/16 A2965 1230 68 2400 220/12 RMK AO2 WSHFT 1701 LTG DSNT E-S RAE1657 P0000 T02220161
04850KAOH AOH20160605123017206/05/16 12:30:31  5-MIN KAOH 051730Z AUTO 21015G19KT 10SM FEW035 SCT047 BKN065 23/16 A2965 1230 65 2400 220/15G19 RMK AO2 WSHFT 1701 LTG DSNT ALQDS RAE1657 P0000 T02280161
04850KAOH AOH20160605123516606/05/16 12:35:31  5-MIN KAOH 051735Z AUTO 21013KT 10SM FEW034 SCT055 SCT070 22/17 A2965 1230 70 2400 220/13 RMK AO2 WSHFT 1701 LTG DSNT ALQDS RAE1657 P0000 T02220167
04850KAOH AOH20160605124017106/05/16 12:40:31  5-MIN KAOH 051740Z AUTO 22015G21KT 10SM FEW034 FEW046 SCT065 23/17 A2965 1230 68 2500 220/15G21 RMK AO2 WSHFT 1701 LTG DSNT N-SE RAE1657 P0000 T02280167
04850KAOH AOH20160605124517106/05/16 12:45:31  5-MIN KAOH 051745Z AUTO 22015G22KT 10SM FEW043 SCT055 SCT070 23/17 A2964 1230 68 2500 220/15G22 RMK AO2 WSHFT 1701 LTG DSNT N-SE RAE1657 P0000 T02330172
04850KAOH AOH20160605125020206/05/16 12:50:31  5-MIN KAOH 051750Z AUTO 27015G22KT 10SM FEW036 SCT044 BKN055 23/17 A2965 1230 68 2400 280/15G22 RMK AO2 WSHFT 1701 LTG DSNT N-SE RAE1657 SLP035 P0000 60000 T02280167 10256 20189 58009
04850KAOH AOH20160605125519506/05/16 12:55:31  5-MIN KAOH 051755Z AUTO 27019G28KT 6SM -RA SCT034 BKN044 BKN060 21/17 A2965 1220 75 2300 280/19G28 RMK AO2 PK WND 28028/1754 WSHFT 1741 LTG DSNT NE AND SE RAB54 P0002 T02110167
04850KAOH AOH20160605130019006/05/16 13:00:31  5-MIN KAOH 051800Z AUTO 26019G28KT 6SM -RA SCT034 SCT047 BKN060 22/18 A2965 1230 78 2300 270/19G28 RMK AO2 PK WND 28028/1754 WSHFT 1741 LTG DSNT NE RAB1754 P0002 T02170178
04850KAOH AOH20160605130519606/05/16 13:05:31  5-MIN KAOH 051805Z AUTO 27019G29KT 10SM FEW034 SCT047 BKN100 23/18 A2965 1230 73 2500 270/19G29 RMK AO2 PK WND 27029/1803 WSHFT 1741 LTG DSNT NE AND E RAB1754E05 P0002 T02330183
04850KAOH AOH20160605131018906/05/16 13:10:31  5-MIN KAOH 051810Z AUTO 27018G29KT 10SM FEW034 SCT055 23/18 A2965 1230 73 2500 280/18G29 RMK AO2 PK WND 27029/1803 WSHFT 1741 LTG DSNT NE AND E RAB1754E05 P0002 T02330183
04850KAOH AOH20160605131518906/05/16 13:15:31  5-MIN KAOH 051815Z AUTO 27024G30KT 10SM FEW034 FEW043 24/18 A2965 1230 68 2600 270/24G30 RMK AO2 PK WND 28030/1815 WSHFT 1741 LTG DSNT NE AND E RAB1754E05 P0003 T02390178
04850KAOH AOH20160605132019006/05/16 13:20:31  5-MIN KAOH 051820Z AUTO 26024G30KT 10SM FEW031 FEW038 FEW100 24/17 A2965 1230 66 2600 270/24G30 RMK AO2 PK WND 28030/1815 WSHFT 1741 LTG DSNT NE RAB1754E05 P0003 T02390172
04850KAOH AOH20160605132517506/05/16 13:25:31  5-MIN KAOH 051825Z AUTO 26028G35KT 10SM FEW100 24/17 A2965 1230 63 2600 270/28G35 RMK AO2 PK WND 25035/1824 WSHFT 1741 LTG DSNT E RAB1754E05 P0003 T02390167
04850KAOH AOH20160605133017206/05/16 13:30:31  5-MIN KAOH 051830Z AUTO 26020G35KT 10SM CLR 23/17 A2965 1230 66 2500 260/20G35 RMK AO2 PK WND 25035/1824 WSHFT 1741 LTG DSNT E RAB1754E05 P0003 T02330167
04850KAOH AOH20160605133517206/05/16 13:35:31  5-MIN KAOH 051835Z AUTO 26023G27KT 10SM CLR 24/17 A2965 1230 63 2600 270/23G27 RMK AO2 PK WND 25035/1824 WSHFT 1741 LTG DSNT E RAB1754E05 P0003 T02390167
04850KAOH AOH20160605134016406/05/16 13:40:31  5-MIN KAOH 051840Z AUTO 27022G31KT 10SM FEW085 24/17 A2965 1230 66 2600 270/22G31 RMK AO2 PK WND 25035/1824 WSHFT 1741 RAB1754E05 P0003 T02390172
04850KAOH AOH20160605134517106/05/16 13:45:31  5-MIN KAOH 051845Z AUTO 27025G32KT 10SM FEW043 SCT090 24/17 A2965 1230 63 2600 280/25G32 RMK AO2 PK WND 25035/1824 WSHFT 1741 RAB1754E05 P0003 T02390167
04850KAOH AOH20160605135018506/05/16 13:50:31  5-MIN KAOH 051850Z AUTO 27023G32KT 10SM FEW043 FEW060 SCT090 24/16 A2965 1230 61 2600 270/23G32 RMK AO2 PK WND 25035/1824 WSHFT 1741 RAB1754E05 SLP032 P0003 T02390161
04850KAOH AOH20160605135514306/05/16 13:55:31  5-MIN KAOH 051855Z AUTO 27021G31KT 10SM FEW042 SCT090 23/16 A2965 1230 63 2500 280/21G31 RMK AO2 PK WND 28026/1855 T02330161
04850KAOH AOH20160605140014306/05/16 14:00:31  5-MIN KAOH 051900Z AUTO 27025G31KT 10SM FEW049 SCT085 24/17 A2965 1230 63 2600 280/25G31 RMK AO2 PK WND 27031/1900 T02390167
04850KAOH AOH20160605140514306/05/16 14:05:31  5-MIN KAOH 051905Z AUTO 27025G31KT 10SM FEW049 SCT090 24/16 A2965 1230 61 2600 270/25G31 RMK AO2 PK WND 27031/1900 T02390161
04850KAOH AOH20160605141014306/05/16 14:10:31  5-MIN KAOH 051910Z AUTO 26019G30KT 10SM FEW049 SCT090 24/17 A2965 1230 61 2600 270/19G30 RMK AO2 PK WND 27031/1900 T02440167
04850KAOH AOH20160605141514306/05/16 14:15:31  5-MIN KAOH 051915Z AUTO 25022G27KT 10SM FEW045 SCT090 24/16 A2965 1230 57 2600 260/22G27 RMK AO2 PK WND 27031/1900 T02440156
04850KAOH AOH20160605142015006/05/16 14:20:31  5-MIN KAOH 051920Z AUTO 26022G28KT 10SM FEW045 SCT060 SCT090 24/16 A2965 1230 57 2600 270/22G28 RMK AO2 PK WND 27031/1900 T02440156
04850KAOH AOH20160605142515006/05/16 14:25:31  5-MIN KAOH 051925Z AUTO 27023G32KT 10SM FEW045 SCT060 BKN085 24/16 A2965 1230 59 2600 270/23G32 RMK AO2 PK WND 27032/1923 T02440161
04850KAOH AOH20160605143015006/05/16 14:30:31  5-MIN KAOH 051930Z AUTO 27023G32KT 10SM FEW043 SCT055 SCT080 24/16 A2965 1230 59 2600 280/23G32 RMK AO2 PK WND 27032/1930 T02440161
04850KAOH AOH20160605143515006/05/16 14:35:31  5-MIN KAOH 051935Z AUTO 25021G32KT 10SM SCT043 SCT060 BKN080 24/16 A2965 1230 59 2600 260/21G32 RMK AO2 PK WND 27032/1930 T02440161
04850KAOH AOH20160605144015006/05/16 14:40:31  5-MIN KAOH 051940Z AUTO 26024G29KT 10SM FEW043 SCT060 BKN075 24/15 A2965 1230 57 2600 270/24G29 RMK AO2 PK WND 27032/1930 T02390150
04850KAOH AOH20160605144514406/05/16 14:45:31  5-MIN KAOH 051945Z AUTO 26022KT 10SM FEW043 FEW060 BKN080 24/15 A2965 1230 57 2600 260/22 RMK AO2 PK WND 27032/1930 T02390150
04850KAOH AOH20160605145015006/05/16 14:50:31  5-MIN KAOH 051950Z AUTO 26022G28KT 10SM FEW043 BKN075 23/15 A2965 1220 59 2500 270/22G28 RMK AO2 PK WND 27032/1930 SLP036 T02330150
04850KAOH AOH20160605145514306/05/16 14:55:31  5-MIN KAOH 051955Z AUTO 26019G28KT 10SM FEW043 BKN070 23/15 A2966 1220 61 2400 270/19G28 RMK AO2 PK WND 25028/1955 T02280150
04850KAOH AOH20160605150014306/05/16 15:00:31  5-MIN KAOH 052000Z AUTO 27020G28KT 10SM FEW043 OVC070 23/16 A2966 1220 63 2400 270/20G28 RMK AO2 PK WND 25028/1955 T02280156
04850KAOH AOH20160605150513606/05/16 15:05:31  5-MIN KAOH 052005Z AUTO 25022G29KT 10SM OVC075 24/16 A2966 1220 59 2600 260/22G29 RMK AO2 PK WND 25029/2003 T02390156
04850KAOH AOH20160605151014306/05/16 15:10:31  5-MIN KAOH 052010Z AUTO 26021G29KT 10SM SCT070 OVC080 23/15 A2966 1220 59 2500 260/21G29 RMK AO2 PK WND 25029/2003 T02330150
04850KAOH AOH20160605151514306/05/16 15:15:31  5-MIN KAOH 052015Z AUTO 25018G28KT 10SM FEW041 BKN075 24/15 A2966 1220 57 2600 260/18G28 RMK AO2 PK WND 25029/2003 T02390150
04850KAOH AOH20160605152015006/05/16 15:20:31  5-MIN KAOH 052020Z AUTO 26024G29KT 10SM FEW043 SCT070 BKN080 24/16 A2966 1220 59 2600 260/24G29 RMK AO2 PK WND 25029/2020 T02390156
04850KAOH AOH20160605152515006/05/16 15:25:31  5-MIN KAOH 052025Z AUTO 25020G29KT 10SM FEW043 SCT070 BKN080 23/16 A2966 1220 61 2500 260/20G29 RMK AO2 PK WND 25029/2020 T02330156
04850KAOH AOH20160605153013706/05/16 15:30:31  5-MIN KAOH 052030Z AUTO 28020KT 10SM FEW042 BKN080 23/16 A2966 1220 61 2500 280/20 RMK AO2 PK WND 25029/2020 T02330156
04850KAOH AOH20160605153515006/05/16 15:35:31  5-MIN KAOH 052035Z AUTO 25024G28KT 10SM SCT042 SCT050 BKN080 23/16 A2966 1220 61 2500 260/24G28 RMK AO2 PK WND 25029/2020 T02330156
04850KAOH AOH20160605154014306/05/16 15:40:31  5-MIN KAOH 052040Z AUTO 26021G28KT 10SM SCT042 BKN050 23/16 A2966 1220 61 2500 270/21G28 RMK AO2 PK WND 25029/2020 T02330156
04850KAOH AOH20160605154514306/05/16 15:45:31  5-MIN KAOH 052045Z AUTO 28021G27KT 10SM SCT042 SCT050 24/16 A2966 1220 61 2600 280/21G27 RMK AO2 PK WND 25029/2020 T02390161
04850KAOH AOH20160605155016206/05/16 15:50:31  5-MIN KAOH 052050Z AUTO 27018G27KT 10SM FEW042 SCT050 24/16 A2966 1220 61 2600 270/18G27 RMK AO2 PK WND 25029/2020 SLP037 60003 T02390161 55004
04850KAOH AOH20160605155512506/05/16 15:55:31  5-MIN KAOH 052055Z AUTO 27019G29KT 10SM SCT042 SCT050 23/16 A2966 1220 61 2500 280/19G29 RMK AO2 T02330156
04850KAOH AOH20160605160012506/05/16 16:00:31  5-MIN KAOH 052100Z AUTO 26019G29KT 10SM SCT040 BKN050 23/16 A2966 1220 61 2500 260/19G29 RMK AO2 T02330156
04850KAOH AOH20160605160514306/05/16 16:05:31  5-MIN KAOH 052105Z AUTO 25021G27KT 10SM BKN040 BKN050 23/15 A2966 1220 59 2500 260/21G27 RMK AO2 PK WND 25027/2102 T02330150
04850KAOH AOH20160605161014306/05/16 16:10:31  5-MIN KAOH 052110Z AUTO 26015G27KT 10SM BKN040 BKN050 23/16 A2966 1220 61 2500 260/15G27 RMK AO2 PK WND 25027/2102 T02330156
04850KAOH AOH20160605161515006/05/16 16:15:31  5-MIN KAOH 052115Z AUTO 26020G24KT 10SM SCT041 BKN050 BKN085 23/16 A2967 1210 61 2500 270/20G24 RMK AO2 PK WND 25027/2102 T02330156
04850KAOH AOH20160605162014306/05/16 16:20:31  5-MIN KAOH 052120Z AUTO 26017G24KT 10SM SCT041 BKN090 23/16 A2967 1210 61 2500 270/17G24 RMK AO2 PK WND 25027/2102 T02330156
04850KAOH AOH20160605162514306/05/16 16:25:31  5-MIN KAOH 052125Z AUTO 26021G24KT 10SM SCT041 BKN090 23/15 A2967 1210 59 2500 260/21G24 RMK AO2 PK WND 25027/2102 T02330150
04850KAOH AOH20160605163015006/05/16 16:30:31  5-MIN KAOH 052130Z AUTO 26018G27KT 10SM SCT041 SCT050 BKN085 23/15 A2967 1210 61 2400 270/18G27 RMK AO2 PK WND 27027/2127 T02280150
04850KAOH AOH20160605163515006/05/16 16:35:31  5-MIN KAOH 052135Z AUTO 27020G27KT 10SM FEW041 SCT050 OVC085 23/14 A2967 1210 57 2500 270/20G27 RMK AO2 PK WND 27027/2127 T02330144
04850KAOH AOH20160605164014406/05/16 16:40:31  5-MIN KAOH 052140Z AUTO 26020KT 10SM FEW041 FEW050 OVC085 23/14 A2967 1210 59 2400 270/20 RMK AO2 PK WND 27027/2127 T02280144
04850KAOH AOH20160605164513706/05/16 16:45:31  5-MIN KAOH 052145Z AUTO 27021KT 10SM FEW070 BKN085 23/15 A2967 1210 61 2400 270/21 RMK AO2 PK WND 27027/2127 T02280150
04850KAOH AOH20160605165015106/05/16 16:50:31  5-MIN KAOH 052150Z AUTO 27022KT 10SM FEW048 SCT055 OVC085 23/15 A2967 1210 61 2400 280/22 RMK AO2 PK WND 27027/2127 SLP043 T02280150
04850KAOH AOH20160605165513206/05/16 16:55:31  5-MIN KAOH 052155Z AUTO 27021G26KT 10SM SCT048 BKN070 OVC085 23/15 A2968 1200 61 2400 270/21G26 RMK AO2 T02280150
04850KAOH AOH20160605170013206/05/16 17:00:31  5-MIN KAOH 052200Z AUTO 27017G24KT 10SM SCT048 BKN055 OVC085 23/15 A2968 1200 61 2400 270/17G24 RMK AO2 T02280150
04850KAOH AOH20160605170515006/05/16 17:05:31  5-MIN KAOH 052205Z AUTO 26021G28KT 10SM SCT048 BKN055 OVC085 23/15 A2968 1200 59 2500 270/21G28 RMK AO2 PK WND 26028/2205 T02330150
04850KAOH AOH20160605171015006/05/16 17:10:31  5-MIN KAOH 052210Z AUTO 27019G28KT 10SM FEW048 SCT055 BKN070 23/15 A2968 1200 59 2500 280/19G28 RMK AO2 PK WND 27028/2208 T02330150
04850KAOH AOH20160605171515006/05/16 17:15:31  5-MIN KAOH 052215Z AUTO 27019G28KT 10SM FEW048 SCT060 BKN085 23/15 A2968 1200 61 2400 270/19G28 RMK AO2 PK WND 27028/2208 T02280150
04850KAOH AOH20160605172015006/05/16 17:20:31  5-MIN KAOH 052220Z AUTO 27021G27KT 10SM FEW048 SCT060 BKN090 22/15 A2968 1200 63 2400 280/21G27 RMK AO2 PK WND 27028/2208 T02220150
04850KAOH AOH20160605172515006/05/16 17:25:31  5-MIN KAOH 052225Z AUTO 27019G27KT 10SM FEW046 BKN060 BKN090 22/15 A2968 1200 63 2400 280/19G27 RMK AO2 PK WND 27028/2208 T02220150
04850KAOH AOH20160605173014306/05/16 17:30:31  5-MIN KAOH 052230Z AUTO 27021G27KT 10SM BKN060 BKN090 23/15 A2968 1200 59 2500 280/21G27 RMK AO2 PK WND 27028/2208 T02330150
04850KAOH AOH20160605173515006/05/16 17:35:31  5-MIN KAOH 052235Z AUTO 28019G27KT 10SM SCT060 SCT070 BKN090 23/15 A2968 1200 59 2500 290/19G27 RMK AO2 PK WND 27028/2208 T02330150
04850KAOH AOH20160605174014306/05/16 17:40:31  5-MIN KAOH 052240Z AUTO 28019G27KT 10SM SCT060 SCT090 23/15 A2968 1200 61 2400 290/19G27 RMK AO2 PK WND 27028/2208 T02280150
04850KAOH AOH20160605174515006/05/16 17:45:31  5-MIN KAOH 052245Z AUTO 27019G27KT 10SM FEW060 SCT070 BKN085 23/15 A2968 1200 61 2400 280/19G27 RMK AO2 PK WND 27028/2208 T02280150
04850KAOH AOH20160605175015006/05/16 17:50:31  5-MIN KAOH 052250Z AUTO 27020G27KT 10SM FEW060 SCT075 23/16 A2968 1200 61 2500 270/20G27 RMK AO2 PK WND 27028/2208 SLP045 T02330156
04850KAOH AOH20160605175511806/05/16 17:55:31  5-MIN KAOH 052255Z AUTO 28020G27KT 10SM FEW065 23/15 A2969 1200 59 2500 280/20G27 RMK AO2 T02330150
04850KAOH AOH20160605180014306/05/16 18:00:31  5-MIN KAOH 052300Z AUTO 27020G26KT 10SM FEW043 FEW080 23/15 A2969 1200 59 2500 270/20G26 RMK AO2 PK WND 26026/2259 T02330150
04850KAOH AOH20160605180514306/05/16 18:05:31  5-MIN KAOH 052305Z AUTO 26020G26KT 10SM FEW043 FEW080 23/14 A2969 1190 59 2400 270/20G26 RMK AO2 PK WND 26026/2259 T02280144
04850KAOH AOH20160605181013706/05/16 18:10:31  5-MIN KAOH 052310Z AUTO 27018KT 10SM FEW043 FEW080 23/14 A2969 1190 59 2400 270/18 RMK AO2 PK WND 26026/2259 T02280144
04850KAOH AOH20160605181513006/05/16 18:15:31  5-MIN KAOH 052315Z AUTO 27017KT 10SM FEW043 23/14 A2969 1190 59 2400 270/17 RMK AO2 PK WND 26026/2259 T02280144
04850KAOH AOH20160605182013006/05/16 18:20:31  5-MIN KAOH 052320Z AUTO 26017KT 10SM FEW043 23/14 A2969 1190 59 2400 270/17 RMK AO2 PK WND 26026/2259 T02280144
04850KAOH AOH20160605182513706/05/16 18:25:31  5-MIN KAOH 052325Z AUTO 27016KT 10SM FEW044 FEW065 23/14 A2969 1190 59 2400 280/16 RMK AO2 PK WND 26026/2259 T02280144
04850KAOH AOH20160605183013706/05/16 18:30:31  5-MIN KAOH 052330Z AUTO 27017KT 10SM FEW044 FEW065 23/14 A2969 1190 59 2400 270/17 RMK AO2 PK WND 26026/2259 T02280144
04850KAOH AOH20160605183512706/05/16 18:35:31  5-MIN KAOH 052335Z AUTO 26013KT 10SM CLR 22/15 A2969 1190 63 2300 270/13 RMK AO2 PK WND 26026/2259 T02220150
04850KAOH AOH20160605184012706/05/16 18:40:31  5-MIN KAOH 052340Z AUTO 26013KT 10SM CLR 23/14 A2969 1190 59 2400 270/13 RMK AO2 PK WND 26026/2259 T02280144
04850KAOH AOH20160605184512706/05/16 18:45:31  5-MIN KAOH 052345Z AUTO 26015KT 10SM CLR 22/15 A2970 1190 63 2300 270/15 RMK AO2 PK WND 26026/2259 T02220150
04850KAOH AOH20160605185016406/05/16 18:50:31  5-MIN KAOH 052350Z AUTO 26019G23KT 10SM CLR 22/14 A2970 1180 61 2300 270/19G23 RMK AO2 PK WND 26026/2259 SLP051 60003 T02220144 10250 20211 53001
04850KAOH AOH20160605185511506/05/16 18:55:31  5-MIN KAOH 052355Z AUTO 26013G23KT 10SM CLR 22/14 A2970 1180 59 2300 260/13G23 RMK AO2 T02220139
04850KAOH AOH20160605190010906/05/16 19:00:31  5-MIN KAOH 060000Z AUTO 26014KT 10SM CLR 22/14 A2970 1180 59 2300 270/14 RMK AO2 T02220139
04850KAOH AOH20160605190510906/05/16 19:05:31  5-MIN KAOH 060005Z AUTO 27015KT 10SM CLR 22/14 A2971 1180 63 2300 270/15 RMK AO2 T02170144
04850KAOH AOH20160605191011906/05/16 19:10:31  5-MIN KAOH 060010Z AUTO 26014KT 10SM FEW065 FEW080 22/14 A2971 1170 63 2300 270/14 RMK AO2 T02170144
04850KAOH AOH20160605191511906/05/16 19:15:31  5-MIN KAOH 060015Z AUTO 26013KT 10SM SCT070 SCT090 22/14 A2971 1170 63 2300 270/13 RMK AO2 T02170144
04850KAOH AOH20160605192011906/05/16 19:20:31  5-MIN KAOH 060020Z AUTO 27012KT 10SM SCT070 BKN095 22/14 A2971 1170 63 2300 270/12 RMK AO2 T02170144
04850KAOH AOH20160605192511906/05/16 19:25:31  5-MIN KAOH 060025Z AUTO 27009KT 10SM BKN065 BKN095 22/14 A2971 1170 63 2300 270/09 RMK AO2 T02170144
04850KAOH AOH20160605193012606/05/16 19:30:31  5-MIN KAOH 060030Z AUTO 27010KT 10SM SCT065 BKN075 BKN090 21/14 A2971 1170 65 2200 280/10 RMK AO2 T02110144
04850KAOH AOH20160605193512606/05/16 19:35:31  5-MIN KAOH 060035Z AUTO 27009KT 10SM SCT060 BKN075 OVC090 21/15 A2971 1170 68 2200 270/09 RMK AO2 T02110150
04850KAOH AOH20160605194012606/05/16 19:40:31  5-MIN KAOH 060040Z AUTO 28009KT 10SM FEW045 BKN060 OVC075 21/15 A2972 1170 68 2200 280/09 RMK AO2 T02110150
04850KAOH AOH20160605194512606/05/16 19:45:31  5-MIN KAOH 060045Z AUTO 27008KT 10SM FEW045 BKN065 BKN090 21/15 A2972 1170 68 2200 270/08 RMK AO2 T02110150
04850KAOH AOH20160605195013306/05/16 19:50:31  5-MIN KAOH 060050Z AUTO 27008KT 10SM FEW047 BKN060 BKN095 21/15 A2972 1170 68 2200 280/08 RMK AO2 SLP057 T02110150
04850KAOH AOH20160605195512606/05/16 19:55:31  5-MIN KAOH 060055Z AUTO 27010KT 10SM FEW047 BKN060 OVC100 21/14 A2972 1170 65 2200 270/10 RMK AO2 T02110144
04850KAOH AOH20160605200012606/05/16 20:00:31  5-MIN KAOH 060100Z AUTO 27010KT 10SM FEW050 BKN060 OVC100 21/14 A2972 1170 65 2200 270/10 RMK AO2 T02110144
04850KAOH AOH20160605200512606/05/16 20:05:31  5-MIN KAOH 060105Z AUTO 28008KT 10SM FEW044 BKN070 OVC100 21/15 A2972 1170 68 2200 280/08 RMK AO2 T02110150
04850KAOH AOH20160605201012606/05/16 20:10:31  5-MIN KAOH 060110Z AUTO 28011KT 10SM FEW044 BKN060 OVC100 21/15 A2972 1160 68 2200 280/11 RMK AO2 T02110150
04850KAOH AOH20160605201512606/05/16 20:15:31  5-MIN KAOH 060115Z AUTO 28009KT 10SM FEW044 BKN060 BKN075 21/15 A2972 1160 68 2200 280/09 RMK AO2 T02110150
04850KAOH AOH20160605202012606/05/16 20:20:31  5-MIN KAOH 060120Z AUTO 27009KT 10SM FEW044 SCT050 BKN065 21/15 A2972 1160 70 2100 280/09 RMK AO2 T02060150
04850KAOH AOH20160605202512606/05/16 20:25:31  5-MIN KAOH 060125Z AUTO 27012KT 10SM FEW044 SCT060 BKN080 21/15 A2972 1160 68 2200 280/12 RMK AO2 T02110150
04850KAOH AOH20160605203012606/05/16 20:30:31  5-MIN KAOH 060130Z AUTO 27013KT 10SM FEW044 SCT060 BKN075 21/15 A2972 1160 68 2200 270/13 RMK AO2 T02110150
04850KAOH AOH20160605203511906/05/16 20:35:31  5-MIN KAOH 060135Z AUTO 27011KT 10SM FEW055 BKN075 21/14 A2972 1160 65 2200 280/11 RMK AO2 T02110144
04850KAOH AOH20160605204012606/05/16 20:40:31  5-MIN KAOH 060140Z AUTO 26010KT 10SM FEW050 FEW065 BKN080 21/15 A2972 1160 70 2100 270/10 RMK AO2 T02060150
04850KAOH AOH20160605204512606/05/16 20:45:31  5-MIN KAOH 060145Z AUTO 26009KT 10SM FEW050 SCT065 BKN080 21/15 A2973 1160 70 2100 270/09 RMK AO2 T02060150
04850KAOH AOH20160605205013306/05/16 20:50:31  5-MIN KAOH 060150Z AUTO 26010KT 10SM SCT048 SCT055 BKN075 21/15 A2973 1160 70 2100 270/10 RMK AO2 SLP059 T02060150
04850KAOH AOH20160605205511906/05/16 20:55:31  5-MIN KAOH 060155Z AUTO 27011KT 10SM SCT046 BKN075 21/15 A2973 1160 70 2100 270/11 RMK AO2 T02060150
04850KAOH AOH20160605210011906/05/16 21:00:31  5-MIN KAOH 060200Z AUTO 27010KT 10SM FEW046 SCT080 20/15 A2973 1160 72 2000 270/10 RMK AO2 T02000150
04850KAOH AOH20160605210511206/05/16 21:05:31  5-MIN KAOH 060205Z AUTO 27009KT 10SM FEW046 20/15 A2973 1160 72 2000 280/09 RMK AO2 T02000150
04850KAOH AOH20160605211011206/05/16 21:10:31  5-MIN KAOH 060210Z AUTO 27008KT 10SM FEW047 19/15 A2973 1160 75 2000 270/08 RMK AO2 T01940150
04850KAOH AOH20160605211511206/05/16 21:15:31  5-MIN KAOH 060215Z AUTO 26008KT 10SM FEW045 19/15 A2973 1160 75 2000 270/08 RMK AO2 T01940150
04850KAOH AOH20160605212010906/05/16 21:20:31  5-MIN KAOH 060220Z AUTO 26006KT 10SM CLR 19/15 A2973 1150 75 2000 260/06 RMK AO2 T01940150
04850KAOH AOH20160605212510906/05/16 21:25:31  5-MIN KAOH 060225Z AUTO 25006KT 10SM CLR 19/15 A2973 1150 78 1900 250/06 RMK AO2 T01890150
04850KAOH AOH20160605213010906/05/16 21:30:31  5-MIN KAOH 060230Z AUTO 25007KT 10SM CLR 19/15 A2973 1150 75 2000 250/07 RMK AO2 T01940150
04850KAOH AOH20160605213510906/05/16 21:35:31  5-MIN KAOH 060235Z AUTO 24005KT 10SM CLR 19/15 A2973 1150 75 2000 250/05 RMK AO2 T01940150
04850KAOH AOH20160605214010906/05/16 21:40:31  5-MIN KAOH 060240Z AUTO 24005KT 10SM CLR 19/15 A2973 1150 75 2000 250/05 RMK AO2 T01940150
04850KAOH AOH20160605214510906/05/16 21:45:31  5-MIN KAOH 060245Z AUTO 24006KT 10SM CLR 19/15 A2973 1150 75 2000 250/06 RMK AO2 T01940150
04850KAOH AOH20160605215012206/05/16 21:50:31  5-MIN KAOH 060250Z AUTO 24006KT 10SM CLR 19/15 A2973 1150 78 1900 240/06 RMK AO2 SLP061 T01890150 53014
04850KAOH AOH20160605215510906/05/16 21:55:31  5-MIN KAOH 060255Z AUTO 23005KT 10SM CLR 19/15 A2973 1150 78 1900 240/05 RMK AO2 T01890150
04850KAOH AOH20160605220010906/05/16 22:00:31  5-MIN KAOH 060300Z AUTO 22005KT 10SM CLR 19/15 A2973 1150 78 1900 230/05 RMK AO2 T01890150
04850KAOH AOH20160605220510906/05/16 22:05:31  5-MIN KAOH 060305Z AUTO 22006KT 10SM CLR 19/14 A2973 1150 75 1900 230/06 RMK AO2 T01890144
04850KAOH AOH20160605221010906/05/16 22:10:31  5-MIN KAOH 060310Z AUTO 23006KT 10SM CLR 19/14 A2973 1150 75 1900 230/06 RMK AO2 T01890144
04850KAOH AOH20160605221510906/05/16 22:15:31  5-MIN KAOH 060315Z AUTO 22006KT 10SM CLR 19/14 A2973 1150 75 1900 230/06 RMK AO2 T01890144
04850KAOH AOH20160605222010906/05/16 22:20:31  5-MIN KAOH 060320Z AUTO 22006KT 10SM CLR 19/14 A2973 1160 75 1900 230/06 RMK AO2 T01890144
04850KAOH AOH20160605222510906/05/16 22:25:31  5-MIN KAOH 060325Z AUTO 23006KT 10SM CLR 19/14 A2973 1160 75 1900 230/06 RMK AO2 T01890144
04850KAOH AOH20160605223010906/05/16 22:30:31  5-MIN KAOH 060330Z AUTO 23006KT 10SM CLR 19/14 A2973 1160 75 1900 240/06 RMK AO2 T01890144
04850KAOH AOH20160605223510906/05/16 22:35:31  5-MIN KAOH 060335Z AUTO 23006KT 10SM CLR 18/14 A2973 1150 78 1900 230/06 RMK AO2 T01830144
04850KAOH AOH20160605224010906/05/16 22:40:31  5-MIN KAOH 060340Z AUTO 23007KT 10SM CLR 18/14 A2973 1150 78 1900 230/07 RMK AO2 T01830144
04850KAOH AOH20160605224510906/05/16 22:45:31  5-MIN KAOH 060345Z AUTO 23006KT 10SM CLR 18/14 A2973 1150 78 1800 230/06 RMK AO2 T01830144
04850KAOH AOH20160605225011606/05/16 22:50:31  5-MIN KAOH 060350Z AUTO 22006KT 10SM CLR 18/14 A2973 1150 78 1900 230/06 RMK AO2 SLP061 T01830144
04850KAOH AOH20160605225510906/05/16 22:55:31  5-MIN KAOH 060355Z AUTO 22007KT 10SM CLR 18/14 A2973 1160 78 1900 230/07 RMK AO2 T01830144
04850KAOH AOH20160605230010906/05/16 23:00:31  5-MIN KAOH 060400Z AUTO 22007KT 10SM CLR 18/14 A2973 1160 78 1900 230/07 RMK AO2 T01830144
04850KAOH AOH20160605230510906/05/16 23:05:31  5-MIN KAOH 060405Z AUTO 23009KT 10SM CLR 18/14 A2973 1160 78 1900 230/09 RMK AO2 T01830144
04850KAOH AOH20160605231010906/05/16 23:10:31  5-MIN KAOH 060410Z AUTO 22008KT 10SM CLR 19/14 A2973 1160 75 1900 230/08 RMK AO2 T01890144
04850KAOH AOH20160605231510906/05/16 23:15:31  5-MIN KAOH 060415Z AUTO 22007KT 10SM CLR 19/14 A2973 1150 75 1900 230/07 RMK AO2 T01890144
04850KAOH AOH20160605232010906/05/16 23:20:31  5-MIN KAOH 060420Z AUTO 22007KT 10SM CLR 19/14 A2973 1160 75 1900 230/07 RMK AO2 T01890144
04850KAOH AOH20160605232510906/05/16 23:25:31  5-MIN KAOH 060425Z AUTO 22008KT 10SM CLR 18/14 A2973 1160 78 1900 220/08 RMK AO2 T01830144
04850KAOH AOH20160605233010906/05/16 23:30:31  5-MIN KAOH 060430Z AUTO 23007KT 10SM CLR 19/14 A2973 1150 75 1900 240/07 RMK AO2 T01890144
04850KAOH AOH20160605233510906/05/16 23:35:31  5-MIN KAOH 060435Z AUTO 23009KT 10SM CLR 19/14 A2973 1150 75 1900 230/09 RMK AO2 T01890144
04850KAOH AOH20160605234010906/05/16 23:40:31  5-MIN KAOH 060440Z AUTO 23008KT 10SM CLR 19/14 A2973 1150 75 1900 240/08 RMK AO2 T01890144
04850KAOH AOH20160605234510906/05/16 23:45:31  5-MIN KAOH 060445Z AUTO 23008KT 10SM CLR 19/14 A2973 1150 72 1900 240/08 RMK AO2 T01890139
04850KAOH AOH20160605235012606/05/16 23:50:31  5-MIN KAOH 060450Z AUTO 23010KT 10SM CLR 19/14 A2973 1160 72 1900 240/10 RMK AO2 SLP060 T01890139 402560172
04850KAOH AOH20160605235510906/05/16 23:55:31  5-MIN KAOH 060455Z AUTO 23008KT 10SM CLR 19/14 A2973 1160 72 1900 230/08 RMK AO2 T01890139
04850KAOH AOH20160606000010906/06/16 00:00:31  5-MIN KAOH 060500Z AUTO 22006KT 10SM CLR 18/14 A2973 1160 75 1900 230/06 RMK AO2 T01830139
04850KAOH AOH20160606000510906/06/16 00:05:31  5-MIN KAOH 060505Z AUTO 22007KT 10SM CLR 18/14 A2973 1160 75 1900 220/07 RMK AO2 T01830139
04850KAOH AOH20160606001010906/06/16 00:10:31  5-MIN KAOH 060510Z AUTO 21007KT 10SM CLR 18/14 A2973 1160 75 1900 220/07 RMK AO2 T01830139
04850KAOH AOH20160606001510906/06/16 00:15:31  5-MIN KAOH 060515Z AUTO 21006KT 10SM CLR 18/14 A2973 1160 75 1900 210/06 RMK AO2 T01830139
04850KAOH AOH20160606002011206/06/16 00:20:31  5-MIN KAOH 060520Z AUTO 20005KT 10SM FEW110 18/14 A2973 1160 78 1800 210/05 RMK AO2 T01780139
04850KAOH AOH20160606002511206/06/16 00:25:31  5-MIN KAOH 060525Z AUTO 20005KT 10SM SCT110 18/14 A2973 1150 78 1800 210/05 RMK AO2 T01780139
04850KAOH AOH20160606003011206/06/16 00:30:31  5-MIN KAOH 060530Z AUTO 22006KT 10SM BKN100 18/14 A2973 1150 81 1800 230/06 RMK AO2 T01780144
04850KAOH AOH20160606003511906/06/16 00:35:31  5-MIN KAOH 060535Z AUTO 23006KT 10SM BKN090 BKN110 18/14 A2974 1150 78 1800 230/06 RMK AO2 T01830144
04850KAOH AOH20160606004011906/06/16 00:40:31  5-MIN KAOH 060540Z AUTO 21006KT 10SM BKN085 BKN110 18/14 A2973 1150 78 1900 220/06 RMK AO2 T01830144
04850KAOH AOH20160606004511906/06/16 00:45:31  5-MIN KAOH 060545Z AUTO 22007KT 10SM BKN085 OVC110 18/14 A2973 1150 78 1800 220/07 RMK AO2 T01830144
04850KAOH AOH20160606005014406/06/16 00:50:31  5-MIN KAOH 060550Z AUTO 22007KT 10SM BKN080 OVC110 18/14 A2973 1150 78 1800 220/07 RMK AO2 SLP063 T01830144 10222 20178 51010
04850KAOH AOH20160606005511206/06/16 00:55:31  5-MIN KAOH 060555Z AUTO 22007KT 10SM OVC085 18/14 A2973 1150 78 1800 230/07 RMK AO2 T01830144
04850KAOH AOH20160606010011206/06/16 01:00:31  5-MIN KAOH 060600Z AUTO 22008KT 10SM OVC080 18/14 A2974 1150 78 1800 230/08 RMK AO2 T01830144
04850KAOH AOH20160606010511206/06/16 01:05:31  5-MIN KAOH 060605Z AUTO 22008KT 10SM OVC080 18/14 A2974 1150 78 1800 230/08 RMK AO2 T01830144
04850KAOH AOH20160606011011206/06/16 01:10:31  5-MIN KAOH 060610Z AUTO 22008KT 10SM OVC075 18/14 A2974 1150 78 1800 220/08 RMK AO2 T01830144
04850KAOH AOH20160606011511206/06/16 01:15:31  5-MIN KAOH 060615Z AUTO 22010KT 10SM OVC075 18/14 A2974 1150 78 1800 220/10 RMK AO2 T01830144
04850KAOH AOH20160606012011206/06/16 01:20:31  5-MIN KAOH 060620Z AUTO 21010KT 10SM OVC075 18/14 A2974 1150 78 1800 220/10 RMK AO2 T01830144
04850KAOH AOH20160606012511206/06/16 01:25:31  5-MIN KAOH 060625Z AUTO 22010KT 10SM OVC075 18/14 A2974 1150 78 1800 220/10 RMK AO2 T01830144
04850KAOH AOH20160606013011906/06/16 01:30:31  5-MIN KAOH 060630Z AUTO 22009KT 10SM BKN070 OVC085 18/14 A2974 1140 78 1800 220/09 RMK AO2 T01830144
04850KAOH AOH20160606013511206/06/16 01:35:31  5-MIN KAOH 060635Z AUTO 23008KT 10SM OVC075 18/14 A2974 1140 78 1800 230/08 RMK AO2 T01830144
04850KAOH AOH20160606014011906/06/16 01:40:31  5-MIN KAOH 060640Z AUTO 24011KT 10SM BKN075 OVC090 18/14 A2975 1140 78 1800 250/11 RMK AO2 T01830144
04850KAOH AOH20160606014511906/06/16 01:45:31  5-MIN KAOH 060645Z AUTO 26011KT 10SM OVC080 18/14 A2976 1130 78 1800 270/11 RMK AO2 PRESRR T01830144
04850KAOH AOH20160606015012606/06/16 01:50:31  5-MIN KAOH 060650Z AUTO 27011KT 10SM BKN075 OVC090 18/15 A2976 1120 83 1700 270/11 RMK AO2 SLP072 T01780150
04850KAOH AOH20160606015511906/06/16 01:55:31  5-MIN KAOH 060655Z AUTO 26012KT 10SM BKN075 OVC090 18/14 A2976 1120 78 1800 260/12 RMK AO2 T01830144
04850KAOH AOH20160606020011906/06/16 02:00:31  5-MIN KAOH 060700Z AUTO 24012KT 10SM BKN075 OVC095 18/14 A2976 1130 78 1800 250/12 RMK AO2 T01830144
04850KAOH AOH20160606020511906/06/16 02:05:31  5-MIN KAOH 060705Z AUTO 24010KT 10SM BKN075 OVC090 18/14 A2976 1130 78 1800 240/10 RMK AO2 T01830144
04850KAOH AOH20160606021011906/06/16 02:10:31  5-MIN KAOH 060710Z AUTO 23010KT 10SM SCT075 OVC090 18/14 A2976 1130 78 1800 240/10 RMK AO2 T01830144
04850KAOH AOH20160606021511906/06/16 02:15:31  5-MIN KAOH 060715Z AUTO 23009KT 10SM SCT075 OVC090 18/14 A2976 1130 78 1800 240/09 RMK AO2 T01830144
04850KAOH AOH20160606022011906/06/16 02:20:31  5-MIN KAOH 060720Z AUTO 24009KT 10SM FEW075 OVC090 18/14 A2976 1130 78 1800 250/09 RMK AO2 T01830144
04850KAOH AOH20160606022511206/06/16 02:25:31  5-MIN KAOH 060725Z AUTO 24009KT 10SM OVC090 18/14 A2976 1130 78 1800 250/09 RMK AO2 T01830144
04850KAOH AOH20160606023011206/06/16 02:30:31  5-MIN KAOH 060730Z AUTO 24008KT 10SM OVC090 18/14 A2976 1130 78 1800 250/08 RMK AO2 T01830144
04850KAOH AOH20160606023511906/06/16 02:35:31  5-MIN KAOH 060735Z AUTO 24008KT 10SM BKN090 OVC110 18/14 A2976 1130 78 1800 250/08 RMK AO2 T01830144
04850KAOH AOH20160606024011906/06/16 02:40:31  5-MIN KAOH 060740Z AUTO 24008KT 10SM BKN090 OVC110 18/14 A2976 1130 78 1800 240/08 RMK AO2 T01830144
04850KAOH AOH20160606024512606/06/16 02:45:31  5-MIN KAOH 060745Z AUTO 24006KT 10SM FEW070 BKN090 OVC110 18/14 A2975 1130 78 1800 250/06 RMK AO2 T01830144
04850KAOH AOH20160606025013306/06/16 02:50:31  5-MIN KAOH 060750Z AUTO 24007KT 10SM SCT075 BKN095 OVC110 18/14 A2975 1130 78 1800 240/07 RMK AO2 SLP069 T01830144
04850KAOH AOH20160606025512606/06/16 02:55:31  5-MIN KAOH 060755Z AUTO 24007KT 10SM BKN080 BKN095 OVC110 18/14 A2975 1130 78 1800 250/07 RMK AO2 T01830144
04850KAOH AOH20160606030011906/06/16 03:00:31  5-MIN KAOH 060800Z AUTO 23008KT 10SM BKN085 OVC110 18/14 A2975 1140 78 1800 240/08 RMK AO2 T01830144
04850KAOH AOH20160606030511206/06/16 03:05:31  5-MIN KAOH 060805Z AUTO 23006KT 10SM OVC090 18/14 A2975 1140 78 1800 230/06 RMK AO2 T01830144
04850KAOH AOH20160606031011906/06/16 03:10:31  5-MIN KAOH 060810Z AUTO 23007KT 10SM FEW080 OVC095 18/14 A2975 1140 78 1800 240/07 RMK AO2 T01830144
04850KAOH AOH20160606031511206/06/16 03:15:31  5-MIN KAOH 060815Z AUTO 23009KT 10SM OVC090 18/14 A2975 1140 78 1800 230/09 RMK AO2 T01830144
04850KAOH AOH20160606032011206/06/16 03:20:31  5-MIN KAOH 060820Z AUTO 23008KT 10SM OVC095 18/14 A2975 1140 78 1800 230/08 RMK AO2 T01830144
04850KAOH AOH20160606032511206/06/16 03:25:31  5-MIN KAOH 060825Z AUTO 23007KT 10SM OVC095 18/14 A2974 1140 78 1800 230/07 RMK AO2 T01830144
04850KAOH AOH20160606033011206/06/16 03:30:31  5-MIN KAOH 060830Z AUTO 22008KT 10SM OVC095 18/14 A2974 1150 78 1800 230/08 RMK AO2 T01830144
04850KAOH AOH20160606033511206/06/16 03:35:31  5-MIN KAOH 060835Z AUTO 22008KT 10SM OVC090 18/14 A2974 1150 78 1800 230/08 RMK AO2 T01830144
04850KAOH AOH20160606034011906/06/16 03:40:31  5-MIN KAOH 060840Z AUTO 22008KT 10SM BKN090 OVC110 18/14 A2973 1150 78 1800 230/08 RMK AO2 T01830144
04850KAOH AOH20160606034511906/06/16 03:45:31  5-MIN KAOH 060845Z AUTO 22007KT 10SM BKN090 OVC110 18/14 A2973 1150 78 1800 230/07 RMK AO2 T01830144
04850KAOH AOH20160606035013206/06/16 03:50:31  5-MIN KAOH 060850Z AUTO 21007KT 10SM BKN090 BKN110 18/14 A2973 1150 78 1800 220/07 RMK AO2 SLP062 T01830144 53001
04850KAOH AOH20160606035512606/06/16 03:55:31  5-MIN KAOH 060855Z AUTO 21007KT 10SM FEW070 SCT085 BKN110 18/14 A2973 1150 81 1800 210/07 RMK AO2 T01780144
04850KAOH AOH20160606040012606/06/16 04:00:31  5-MIN KAOH 060900Z AUTO 21005KT 10SM FEW070 BKN085 BKN110 18/14 A2973 1150 81 1800 210/05 RMK AO2 T01780144
04850KAOH AOH20160606040512606/06/16 04:05:31  5-MIN KAOH 060905Z AUTO 23005KT 10SM SCT070 BKN085 BKN110 18/14 A2974 1150 81 1800 230/05 RMK AO2 T01780144
04850KAOH AOH20160606041011906/06/16 04:10:31  5-MIN KAOH 060910Z AUTO 23004KT 10SM BKN070 BKN110 18/14 A2974 1140 81 1800 230/04 RMK AO2 T01780144
04850KAOH AOH20160606041511206/06/16 04:15:31  5-MIN KAOH 060915Z AUTO 22004KT 10SM BKN070 18/14 A2974 1140 81 1800 230/04 RMK AO2 T01780144
04850KAOH AOH20160606042011206/06/16 04:20:31  5-MIN KAOH 060920Z AUTO 22005KT 10SM BKN070 18/14 A2974 1140 81 1800 230/05 RMK AO2 T01780144
04850KAOH AOH20160606042511206/06/16 04:25:31  5-MIN KAOH 060925Z AUTO 23004KT 10SM OVC075 18/14 A2974 1140 81 1800 230/04 RMK AO2 T01780144
04850KAOH AOH20160606043011906/06/16 04:30:31  5-MIN KAOH 060930Z AUTO 23006KT 10SM BKN075 OVC090 18/15 A2974 1140 83 1800 230/06 RMK AO2 T01780150
04850KAOH AOH20160606043511906/06/16 04:35:31  5-MIN KAOH 060935Z AUTO 23006KT 10SM SCT070 OVC090 18/14 A2974 1140 81 1800 240/06 RMK AO2 T01780144
04850KAOH AOH20160606044011906/06/16 04:40:31  5-MIN KAOH 060940Z AUTO 23006KT 10SM BKN080 OVC090 18/14 A2974 1150 81 1800 240/06 RMK AO2 T01780144
04850KAOH AOH20160606044511906/06/16 04:45:31  5-MIN KAOH 060945Z AUTO 23006KT 10SM FEW070 OVC090 18/14 A2974 1150 81 1800 230/06 RMK AO2 T01780144
04850KAOH AOH20160606045011906/06/16 04:50:31  5-MIN KAOH 060950Z AUTO 23005KT 10SM OVC090 18/14 A2974 1140 81 1800 240/05 RMK AO2 SLP065 T01780144
04850KAOH AOH20160606045511906/06/16 04:55:31  5-MIN KAOH 060955Z AUTO 22007KT 10SM FEW080 OVC095 18/14 A2974 1150 81 1800 230/07 RMK AO2 T01780144
04850KAOH AOH20160606050011906/06/16 05:00:31  5-MIN KAOH 061000Z AUTO 22007KT 10SM SCT070 OVC095 18/14 A2974 1150 81 1800 230/07 RMK AO2 T01780144
04850KAOH AOH20160606050511906/06/16 05:05:31  5-MIN KAOH 061005Z AUTO 21006KT 10SM SCT070 BKN095 18/14 A2974 1150 81 1800 220/06 RMK AO2 T01780144
04850KAOH AOH20160606051011906/06/16 05:10:31  5-MIN KAOH 061010Z AUTO 22007KT 10SM SCT070 BKN095 18/14 A2974 1150 78 1800 230/07 RMK AO2 T01780139
04850KAOH AOH20160606051511906/06/16 05:15:31  5-MIN KAOH 061015Z AUTO 22007KT 10SM FEW070 BKN100 18/14 A2974 1150 78 1800 220/07 RMK AO2 T01780139
04850KAOH AOH20160606052011906/06/16 05:20:31  5-MIN KAOH 061020Z AUTO 22008KT 10SM FEW070 SCT095 18/14 A2974 1150 78 1800 230/08 RMK AO2 T01780139
04850KAOH AOH20160606052511206/06/16 05:25:31  5-MIN KAOH 061025Z AUTO 23007KT 10SM SCT070 18/14 A2974 1150 81 1800 230/07 RMK AO2 T01780144
04850KAOH AOH20160606053011206/06/16 05:30:31  5-MIN KAOH 061030Z AUTO 23008KT 10SM FEW070 18/14 A2974 1150 81 1800 230/08 RMK AO2 T01780144
04850KAOH AOH20160606053511206/06/16 05:35:31  5-MIN KAOH 061035Z AUTO 23007KT 10SM FEW120 18/14 A2974 1140 81 1800 240/07 RMK AO2 T01780144
04850KAOH AOH20160606054011206/06/16 05:40:31  5-MIN KAOH 061040Z AUTO 23007KT 10SM SCT120 18/14 A2974 1140 81 1800 230/07 RMK AO2 T01780144
04850KAOH AOH20160606054511206/06/16 05:45:31  5-MIN KAOH 061045Z AUTO 22008KT 10SM SCT120 18/14 A2974 1140 81 1800 230/08 RMK AO2 T01780144
04850KAOH AOH20160606055011906/06/16 05:50:31  5-MIN KAOH 061050Z AUTO 23007KT 10SM FEW120 18/14 A2974 1140 81 1800 240/07 RMK AO2 SLP067 T01780144
04850KAOH AOH20160606055511206/06/16 05:55:31  5-MIN KAOH 061055Z AUTO 23008KT 10SM FEW120 18/14 A2975 1140 81 1800 240/08 RMK AO2 T01780144
04850KAOH AOH20160606060011206/06/16 06:00:31  5-MIN KAOH 061100Z AUTO 23008KT 10SM FEW120 18/14 A2975 1140 81 1800 230/08 RMK AO2 T01780144
04850KAOH AOH20160606060511906/06/16 06:05:31  5-MIN KAOH 061105Z AUTO 23008KT 10SM FEW095 FEW120 18/14 A2975 1140 81 1800 230/08 RMK AO2 T01780144
04850KAOH AOH20160606061011206/06/16 06:10:31  5-MIN KAOH 061110Z AUTO 23008KT 10SM SCT095 18/14 A2975 1140 78 1800 230/08 RMK AO2 T01830144
04850KAOH AOH20160606061511206/06/16 06:15:31  5-MIN KAOH 061115Z AUTO 23007KT 10SM BKN095 18/14 A2975 1140 78 1800 240/07 RMK AO2 T01830144
04850KAOH AOH20160606062011206/06/16 06:20:31  5-MIN KAOH 061120Z AUTO 23008KT 10SM BKN095 18/14 A2975 1140 78 1800 240/08 RMK AO2 T01830144
04850KAOH AOH20160606062511206/06/16 06:25:31  5-MIN KAOH 061125Z AUTO 23007KT 10SM BKN095 18/14 A2975 1140 78 1800 230/07 RMK AO2 T01830144
04850KAOH AOH20160606063011206/06/16 06:30:31  5-MIN KAOH 061130Z AUTO 23009KT 10SM BKN095 18/14 A2975 1140 78 1800 240/09 RMK AO2 T01830144
04850KAOH AOH20160606063511206/06/16 06:35:31  5-MIN KAOH 061135Z AUTO 22007KT 10SM BKN090 18/14 A2975 1140 78 1800 230/07 RMK AO2 T01830144
04850KAOH AOH20160606064011206/06/16 06:40:31  5-MIN KAOH 061140Z AUTO 22008KT 10SM BKN090 18/15 A2975 1140 81 1800 230/08 RMK AO2 T01830150
04850KAOH AOH20160606064511206/06/16 06:45:31  5-MIN KAOH 061145Z AUTO 23009KT 10SM BKN090 19/15 A2974 1140 75 2000 230/09 RMK AO2 T01940150
04850KAOH AOH20160606065014306/06/16 06:50:31  5-MIN KAOH 061150Z AUTO 23009KT 10SM BKN090 19/15 A2974 1140 78 1900 240/09 RMK AO2 SLP067 70003 T01890150 10194 20178 58001
04850KAOH AOH20160606065511906/06/16 06:55:31  5-MIN KAOH 061155Z AUTO 23008KT 10SM BKN090 BKN100 19/15 A2974 1140 78 1900 240/08 RMK AO2 T01890150
04850KAOH AOH20160606070011206/06/16 07:00:31  5-MIN KAOH 061200Z AUTO 23009KT 10SM BKN095 19/15 A2974 1140 75 2000 240/09 RMK AO2 T01940150
04850KAOH AOH20160606070511206/06/16 07:05:31  5-MIN KAOH 061205Z AUTO 23009KT 10SM BKN095 19/15 A2974 1140 75 2000 240/09 RMK AO2 T01940150
04850KAOH AOH20160606071011206/06/16 07:10:31  5-MIN KAOH 061210Z AUTO 23011KT 10SM BKN095 19/15 A2975 1140 75 2000 240/11 RMK AO2 T01940150
04850KAOH AOH20160606071511206/06/16 07:15:31  5-MIN KAOH 061215Z AUTO 23010KT 10SM BKN100 20/15 A2975 1140 72 2000 240/10 RMK AO2 T02000150
04850KAOH AOH20160606072011206/06/16 07:20:31  5-MIN KAOH 061220Z AUTO 23011KT 10SM BKN100 19/14 A2975 1140 72 2000 240/11 RMK AO2 T01940144
04850KAOH AOH20160606072511206/06/16 07:25:31  5-MIN KAOH 061225Z AUTO 23011KT 10SM SCT100 19/15 A2975 1140 75 2000 240/11 RMK AO2 T01940150
04850KAOH AOH20160606073011206/06/16 07:30:31  5-MIN KAOH 061230Z AUTO 24011KT 10SM SCT095 20/15 A2975 1140 72 2000 250/11 RMK AO2 T02000150
04850KAOH AOH20160606073511206/06/16 07:35:31  5-MIN KAOH 061235Z AUTO 24009KT 10SM SCT090 20/15 A2975 1140 72 2000 250/09 RMK AO2 T02000150
04850KAOH AOH20160606074011206/06/16 07:40:31  5-MIN KAOH 061240Z AUTO 24011KT 10SM SCT095 20/15 A2975 1140 72 2000 250/11 RMK AO2 T02000150
04850KAOH AOH20160606074511206/06/16 07:45:31  5-MIN KAOH 061245Z AUTO 25012KT 10SM SCT090 21/15 A2975 1140 70 2100 260/12 RMK AO2 T02060150
04850KAOH AOH20160606075011906/06/16 07:50:31  5-MIN KAOH 061250Z AUTO 25011KT 10SM FEW090 21/15 A2975 1140 70 2100 260/11 RMK AO2 SLP067 T02060150
04850KAOH AOH20160606075511206/06/16 07:55:31  5-MIN KAOH 061255Z AUTO 25014KT 10SM FEW090 21/15 A2975 1140 70 2100 260/14 RMK AO2 T02060150
04850KAOH AOH20160606080011206/06/16 08:00:31  5-MIN KAOH 061300Z AUTO 25013KT 10SM FEW090 21/15 A2975 1140 68 2100 250/13 RMK AO2 T02110150
04850KAOH AOH20160606080511206/06/16 08:05:31  5-MIN KAOH 061305Z AUTO 24013KT 10SM FEW095 21/15 A2975 1140 68 2200 250/13 RMK AO2 T02110150
04850KAOH AOH20160606081010906/06/16 08:10:31  5-MIN KAOH 061310Z AUTO 25013KT 10SM CLR 21/15 A2975 1140 68 2200 250/13 RMK AO2 T02110150
04850KAOH AOH20160606081511506/06/16 08:15:31  5-MIN KAOH 061315Z AUTO 26014G21KT 10SM CLR 21/15 A2975 1140 68 2200 260/14G21 RMK AO2 T02110150
04850KAOH AOH20160606082011506/06/16 08:20:31  5-MIN KAOH 061320Z AUTO 25013G21KT 10SM CLR 21/15 A2975 1140 68 2100 260/13G21 RMK AO2 T02110150
04850KAOH AOH20160606082510906/06/16 08:25:31  5-MIN KAOH 061325Z AUTO 26015KT 10SM CLR 21/15 A2975 1140 68 2200 260/15 RMK AO2 T02110150
04850KAOH AOH20160606083010906/06/16 08:30:31  5-MIN KAOH 061330Z AUTO 25013KT 10SM CLR 22/15 A2975 1140 65 2200 260/13 RMK AO2 T02170150
04850KAOH AOH20160606083511206/06/16 08:35:31  5-MIN KAOH 061335Z AUTO 25015KT 10SM FEW100 22/15 A2975 1140 65 2200 260/15 RMK AO2 T02170150
04850KAOH AOH20160606084011206/06/16 08:40:31  5-MIN KAOH 061340Z AUTO 25012KT 10SM FEW100 22/15 A2975 1140 65 2200 260/12 RMK AO2 T02170150
04850KAOH AOH20160606084511206/06/16 08:45:31  5-MIN KAOH 061345Z AUTO 25014KT 10SM FEW100 22/15 A2975 1140 65 2200 250/14 RMK AO2 T02170150
04850KAOH AOH20160606085011906/06/16 08:50:31  5-MIN KAOH 061350Z AUTO 25014KT 10SM FEW100 22/15 A2975 1140 65 2200 260/14 RMK AO2 SLP066 T02170150
04850KAOH AOH20160606085511206/06/16 08:55:31  5-MIN KAOH 061355Z AUTO 24011KT 10SM FEW100 22/16 A2975 1140 68 2200 250/11 RMK AO2 T02170156
04850KAOH AOH20160606090011206/06/16 09:00:31  5-MIN KAOH 061400Z AUTO 24012KT 10SM FEW100 22/15 A2974 1140 63 2300 250/12 RMK AO2 T02220150
04850KAOH AOH20160606090510906/06/16 09:05:31  5-MIN KAOH 061405Z AUTO 25013KT 10SM CLR 22/15 A2974 1140 63 2300 250/13 RMK AO2 T02220150
04850KAOH AOH20160606091010906/06/16 09:10:31  5-MIN KAOH 061410Z AUTO 24013KT 10SM CLR 22/15 A2974 1140 63 2300 250/13 RMK AO2 T02220150
04850KAOH AOH20160606091511206/06/16 09:15:31  5-MIN KAOH 061415Z AUTO 24013KT 10SM FEW085 22/15 A2974 1140 63 2300 250/13 RMK AO2 T02220150
04850KAOH AOH20160606092011206/06/16 09:20:31  5-MIN KAOH 061420Z AUTO 24013KT 10SM FEW085 22/15 A2974 1140 63 2300 250/13 RMK AO2 T02220150
04850KAOH AOH20160606092511206/06/16 09:25:31  5-MIN KAOH 061425Z AUTO 23010KT 10SM FEW090 23/15 A2974 1150 61 2300 240/10 RMK AO2 T02280150
04850KAOH AOH20160606093011206/06/16 09:30:31  5-MIN KAOH 061430Z AUTO 24011KT 10SM FEW090 23/15 A2974 1150 61 2300 250/11 RMK AO2 T02280150
04850KAOH AOH20160606093511206/06/16 09:35:31  5-MIN KAOH 061435Z AUTO 25011KT 10SM FEW090 23/16 A2974 1150 63 2400 260/11 RMK AO2 T02280156
04850KAOH AOH20160606094011206/06/16 09:40:31  5-MIN KAOH 061440Z AUTO 25010KT 10SM FEW090 23/16 A2974 1150 63 2400 250/10 RMK AO2 T02330161
04850KAOH AOH20160606094510906/06/16 09:45:31  5-MIN KAOH 061445Z AUTO 23010KT 10SM CLR 23/16 A2974 1150 61 2400 230/10 RMK AO2 T02330156
04850KAOH AOH20160606095012206/06/16 09:50:31  5-MIN KAOH 061450Z AUTO 22013KT 10SM CLR 23/16 A2974 1150 63 2400 230/13 RMK AO2 SLP063 T02330161 50004
04850KAOH AOH20160606095510906/06/16 09:55:31  5-MIN KAOH 061455Z AUTO 21011KT 10SM CLR 23/16 A2974 1150 61 2400 220/11 RMK AO2 T02330156
04850KAOH AOH20160606100010906/06/16 10:00:31  5-MIN KAOH 061500Z AUTO 23012KT 10SM CLR 23/16 A2974 1150 61 2400 230/12 RMK AO2 T02330156
04850KAOH AOH20160606100510906/06/16 10:05:31  5-MIN KAOH 061505Z AUTO 24012KT 10SM CLR 23/16 A2974 1150 61 2400 250/12 RMK AO2 T02330156
04850KAOH AOH20160606101011506/06/16 10:10:31  5-MIN KAOH 061510Z AUTO 23014G18KT 10SM CLR 23/16 A2974 1150 61 2400 240/14G18 RMK AO2 T02330156
04850KAOH AOH20160606101511506/06/16 10:15:31  5-MIN KAOH 061515Z AUTO 24012G17KT 10SM CLR 23/16 A2974 1150 61 2400 240/12G17 RMK AO2 T02330156
04850KAOH AOH20160606102011506/06/16 10:20:31  5-MIN KAOH 061520Z AUTO 23012G16KT 10SM CLR 24/16 A2973 1150 61 2500 240/12G16 RMK AO2 T02390161
04850KAOH AOH20160606102510906/06/16 10:25:31  5-MIN KAOH 061525Z AUTO 22013KT 10SM CLR 23/16 A2974 1150 61 2400 230/13 RMK AO2 T02330156
04850KAOH AOH20160606103010906/06/16 10:30:31  5-MIN KAOH 061530Z AUTO 24012KT 10SM CLR 24/16 A2974 1150 59 2500 240/12 RMK AO2 T02390156
04850KAOH AOH20160606103510906/06/16 10:35:31  5-MIN KAOH 061535Z AUTO 26011KT 10SM CLR 24/16 A2973 1150 61 2500 260/11 RMK AO2 T02390161
04850KAOH AOH20160606104010906/06/16 10:40:31  5-MIN KAOH 061540Z AUTO 27011KT 10SM CLR 24/16 A2973 1150 61 2500 270/11 RMK AO2 T02390161
04850KAOH AOH20160606104510906/06/16 10:45:31  5-MIN KAOH 061545Z AUTO 24011KT 10SM CLR 24/16 A2973 1150 59 2500 240/11 RMK AO2 T02440161
04850KAOH AOH20160606105011606/06/16 10:50:31  5-MIN KAOH 061550Z AUTO 24014KT 10SM CLR 24/16 A2973 1150 59 2500 240/14 RMK AO2 SLP061 T02440161
04850KAOH AOH20160606105511506/06/16 10:55:31  5-MIN KAOH 061555Z AUTO 25010G18KT 10SM CLR 24/16 A2973 1150 59 2500 260/10G18 RMK AO2 T02440161
04850KAOH AOH20160606110011506/06/16 11:00:31  5-MIN KAOH 061600Z AUTO 23010G18KT 10SM CLR 24/17 A2973 1160 61 2600 240/10G18 RMK AO2 T02440167
04850KAOH AOH20160606110511506/06/16 11:05:31  5-MIN KAOH 061605Z AUTO 24011G18KT 10SM CLR 24/16 A2973 1160 59 2600 250/11G18 RMK AO2 T02440161
04850KAOH AOH20160606111010906/06/16 11:10:31  5-MIN KAOH 061610Z AUTO 25013KT 10SM CLR 24/16 A2973 1160 59 2600 250/13 RMK AO2 T02440161
04850KAOH AOH20160606111510906/06/16 11:15:31  5-MIN KAOH 061615Z AUTO 22011KT 10SM CLR 24/16 A2972 1160 59 2600 230/11 RMK AO2 T02440161
04850KAOH AOH20160606112010906/06/16 11:20:31  5-MIN KAOH 061620Z AUTO 24009KT 10SM CLR 24/16 A2972 1160 59 2600 240/09 RMK AO2 T02440161
04850KAOH AOH20160606112510906/06/16 11:25:31  5-MIN KAOH 061625Z AUTO 22010KT 10SM CLR 25/16 A2972 1160 57 2600 220/10 RMK AO2 T02500161
04850KAOH AOH20160606113011506/06/16 11:30:31  5-MIN KAOH 061630Z AUTO 24012G16KT 10SM CLR 26/16 A2972 1160 55 2700 240/12G16 RMK AO2 T02560161
04850KAOH AOH20160606113511506/06/16 11:35:31  5-MIN KAOH 061635Z AUTO 22013G16KT 10SM CLR 26/16 A2972 1160 53 2700 230/13G16 RMK AO2 T02560156
04850KAOH AOH20160606114010906/06/16 11:40:31  5-MIN KAOH 061640Z AUTO 21010KT 10SM CLR 26/16 A2972 1170 53 2700 220/10 RMK AO2 T02560156
04850KAOH AOH20160606114511506/06/16 11:45:31  5-MIN KAOH 061645Z AUTO 24013G17KT 10SM CLR 26/16 A2972 1170 53 2700 250/13G17 RMK AO2 T02610161
04850KAOH AOH20160606115012206/06/16 11:50:31  5-MIN KAOH 061650Z AUTO 24011G17KT 10SM CLR 26/16 A2971 1170 53 2700 250/11G17 RMK AO2 SLP055 T02560156
04850KAOH AOH20160606115510906/06/16 11:55:31  5-MIN KAOH 061655Z AUTO 22011KT 10SM CLR 26/16 A2971 1170 53 2700 230/11 RMK AO2 T02560156
04850KAOH AOH20160606120010906/06/16 12:00:31  5-MIN KAOH 061700Z AUTO 23013KT 10SM CLR 26/15 A2971 1170 51 2700 240/13 RMK AO2 T02560150
04850KAOH AOH20160606120510906/06/16 12:05:31  5-MIN KAOH 061705Z AUTO 22013KT 10SM CLR 26/16 A2971 1170 51 2800 230/13 RMK AO2 T02610156
04850KAOH AOH20160606121010906/06/16 12:10:31  5-MIN KAOH 061710Z AUTO 23014KT 10SM CLR 26/16 A2971 1170 51 2800 230/14 RMK AO2 T02610156
04850KAOH AOH20160606121511506/06/16 12:15:31  5-MIN KAOH 061715Z AUTO 25013G18KT 10SM CLR 26/15 A2971 1180 50 2800 260/13G18 RMK AO2 T02610150
04850KAOH AOH20160606122011506/06/16 12:20:31  5-MIN KAOH 061720Z AUTO 23011G18KT 10SM CLR 26/16 A2971 1180 51 2800 240/11G18 RMK AO2 T02610156
04850KAOH AOH20160606122510906/06/16 12:25:31  5-MIN KAOH 061725Z AUTO 23013KT 10SM CLR 27/16 A2970 1180 50 2800 240/13 RMK AO2 T02670156
04850KAOH AOH20160606123010906/06/16 12:30:31  5-MIN KAOH 061730Z AUTO 26012KT 10SM CLR 27/14 A2970 1180 46 2800 270/12 RMK AO2 T02670144
04850KAOH AOH20160606123510906/06/16 12:35:31  5-MIN KAOH 061735Z AUTO 24008KT 10SM CLR 26/15 A2970 1180 50 2800 250/08 RMK AO2 T02610150
04850KAOH AOH20160606124011506/06/16 12:40:31  5-MIN KAOH 061740Z AUTO 23010G16KT 10SM CLR 27/14 A2970 1180 46 2800 240/10G16 RMK AO2 T02670144
04850KAOH AOH20160606124511506/06/16 12:45:31  5-MIN KAOH 061745Z AUTO 24011G20KT 10SM CLR 27/14 A2970 1180 45 2800 240/11G20 RMK AO2 T02670139
04850KAOH AOH20160606125014006/06/16 12:50:31  5-MIN KAOH 061750Z AUTO 25011G20KT 10SM CLR 27/14 A2969 1190 46 2800 250/11G20 RMK AO2 SLP047 T02670144 10267 20189 58002
04850KAOH AOH20160606125511806/06/16 12:55:31  5-MIN KAOH 061755Z AUTO 22013G20KT 10SM FEW055 26/14 A2969 1190 46 2800 230/13G20 RMK AO2 T02610139
04850KAOH AOH20160606130011806/06/16 13:00:31  5-MIN KAOH 061800Z AUTO 22009G16KT 10SM FEW055 27/15 A2969 1190 48 2800 220/09G16 RMK AO2 T02670150
04850KAOH AOH20160606130511806/06/16 13:05:31  5-MIN KAOH 061805Z AUTO 24014G20KT 10SM FEW050 27/14 A2969 1190 45 2800 250/14G20 RMK AO2 T02670139
04850KAOH AOH20160606131011806/06/16 13:10:31  5-MIN KAOH 061810Z AUTO 26012G20KT 10SM FEW055 27/13 A2969 1190 43 2800 270/12G20 RMK AO2 T02670133
04850KAOH AOH20160606131512506/06/16 13:15:31  5-MIN KAOH 061815Z AUTO 24013G18KT 10SM FEW055 SCT070 27/13 A2969 1200 43 2800 240/13G18 RMK AO2 T02670133
04850KAOH AOH20160606132012606/06/16 13:20:31  5-MIN KAOH 061820Z AUTO 23013KT 10SM FEW055 SCT070 SCT095 27/14 A2968 1200 45 2900 240/13 RMK AO2 T02670139
04850KAOH AOH20160606132511906/06/16 13:25:31  5-MIN KAOH 061825Z AUTO 25014KT 10SM FEW055 SCT095 27/13 A2968 1200 42 2900 260/14 RMK AO2 T02720133
04850KAOH AOH20160606133011906/06/16 13:30:31  5-MIN KAOH 061830Z AUTO 25009KT 10SM FEW055 FEW095 27/13 A2968 1200 40 2900 260/09 RMK AO2 T02720128
04850KAOH AOH20160606133511806/06/16 13:35:31  5-MIN KAOH 061835Z AUTO 21014G18KT 10SM FEW095 27/13 A2967 1210 43 2900 220/14G18 RMK AO2 T02670133
04850KAOH AOH20160606134011806/06/16 13:40:31  5-MIN KAOH 061840Z AUTO 26009G18KT 10SM FEW095 27/14 A2967 1210 43 2900 270/09G18 RMK AO2 T02720139
04850KAOH AOH20160606134511206/06/16 13:45:31  5-MIN KAOH 061845Z AUTO 23012KT 10SM FEW095 27/14 A2967 1210 43 2900 240/12 RMK AO2 T02720139
04850KAOH AOH20160606135012206/06/16 13:50:31  5-MIN KAOH 061850Z AUTO 23010G17KT 10SM CLR 28/13 A2967 1210 40 3000 230/10G17 RMK AO2 SLP039 T02780133
04850KAOH AOH20160606135511506/06/16 13:55:31  5-MIN KAOH 061855Z AUTO 24012G16KT 10SM CLR 28/13 A2967 1210 39 3000 240/12G16 RMK AO2 T02780128
04850KAOH AOH20160606140011206/06/16 14:00:31  5-MIN KAOH 061900Z AUTO 23013KT 10SM FEW080 28/12 A2967 1210 37 3000 240/13 RMK AO2 T02780122
04850KAOH AOH20160606140511206/06/16 14:05:31  5-MIN KAOH 061905Z AUTO 23012KT 10SM FEW080 28/12 A2966 1220 37 3000 240/12 RMK AO2 T02780122
04850KAOH AOH20160606141011806/06/16 14:10:31  5-MIN KAOH 061910Z AUTO 25017G23KT 10SM FEW080 28/12 A2966 1220 37 3000 260/17G23 RMK AO2 T02780122
04850KAOH AOH20160606141511806/06/16 14:15:31  5-MIN KAOH 061915Z AUTO 23013G23KT 10SM FEW085 28/12 A2966 1220 37 3000 240/13G23 RMK AO2 T02780122
04850KAOH AOH20160606142011206/06/16 14:20:31  5-MIN KAOH 061920Z AUTO 25011KT 10SM FEW085 28/12 A2966 1220 36 3000 260/11 RMK AO2 T02780117
04850KAOH AOH20160606142511206/06/16 14:25:31  5-MIN KAOH 061925Z AUTO 24010KT 10SM FEW085 28/12 A2966 1220 35 3100 250/10 RMK AO2 T02830117
04850KAOH AOH20160606143012506/06/16 14:30:31  5-MIN KAOH 061930Z AUTO 22011G17KT 10SM FEW080 FEW095 28/12 A2965 1230 37 3000 230/11G17 RMK AO2 T02780122
04850KAOH AOH20160606143511906/06/16 14:35:31  5-MIN KAOH 061935Z AUTO 22015KT 10SM FEW075 SCT095 28/11 A2965 1230 35 3000 230/15 RMK AO2 T02780111
04850KAOH AOH20160606144011906/06/16 14:40:31  5-MIN KAOH 061940Z AUTO 23014KT 10SM FEW070 SCT090 28/11 A2965 1230 35 3000 240/14 RMK AO2 T02780111
04850KAOH AOH20160606144511206/06/16 14:45:31  5-MIN KAOH 061945Z AUTO 23010KT 10SM SCT085 28/12 A2965 1230 36 3000 240/10 RMK AO2 T02780117
04850KAOH AOH20160606145012506/06/16 14:50:31  5-MIN KAOH 061950Z AUTO 25016G20KT 10SM BKN085 28/12 A2965 1230 36 3000 260/16G20 RMK AO2 SLP032 T02780117
04850KAOH AOH20160606145511806/06/16 14:55:31  5-MIN KAOH 061955Z AUTO 25010G20KT 10SM BKN085 27/11 A2965 1230 36 3000 260/10G20 RMK AO2 T02720111
04850KAOH AOH20160606150011206/06/16 15:00:31  5-MIN KAOH 062000Z AUTO 24013KT 10SM BKN085 28/11 A2965 1230 35 3000 250/13 RMK AO2 T02780111
04850KAOH AOH20160606150511906/06/16 15:05:31  5-MIN KAOH 062005Z AUTO 25012KT 10SM BKN085 BKN100 27/11 A2965 1230 34 3000 260/12 RMK AO2 T02720106
04850KAOH AOH20160606151011806/06/16 15:10:31  5-MIN KAOH 062010Z AUTO 25017G22KT 10SM BKN085 27/11 A2964 1230 37 2900 250/17G22 RMK AO2 T02670111
04850KAOH AOH20160606151512506/06/16 15:15:31  5-MIN KAOH 062015Z AUTO 24015G22KT 10SM SCT080 BKN100 27/11 A2964 1240 34 3000 250/15G22 RMK AO2 T02720106
04850KAOH AOH20160606152012506/06/16 15:20:31  5-MIN KAOH 062020Z AUTO 25014G21KT 10SM BKN085 BKN110 27/11 A2964 1230 34 3000 250/14G21 RMK AO2 T02720106
04850KAOH AOH20160606152512606/06/16 15:25:31  5-MIN KAOH 062025Z AUTO 25016KT 10SM SCT080 BKN100 BKN120 27/11 A2964 1230 36 2900 250/16 RMK AO2 T02670106
04850KAOH AOH20160606153012606/06/16 15:30:31  5-MIN KAOH 062030Z AUTO 25014KT 10SM FEW070 BKN090 BKN110 27/11 A2964 1240 36 3000 260/14 RMK AO2 T02720111
04850KAOH AOH20160606153511906/06/16 15:35:31  5-MIN KAOH 062035Z AUTO 27012KT 10SM SCT080 BKN110 28/11 A2964 1240 33 3100 270/12 RMK AO2 T02830111
04850KAOH AOH20160606154012606/06/16 15:40:31  5-MIN KAOH 062040Z AUTO 24011KT 10SM FEW075 FEW090 SCT110 27/12 A2963 1240 37 3000 250/11 RMK AO2 T02720117
04850KAOH AOH20160606154512606/06/16 15:45:31  5-MIN KAOH 062045Z AUTO 23012KT 10SM FEW075 FEW090 SCT120 27/11 A2963 1240 37 2900 240/12 RMK AO2 T02670111
04850KAOH AOH20160606155013206/06/16 15:50:31  5-MIN KAOH 062050Z AUTO 24010KT 10SM FEW080 BKN110 27/11 A2963 1240 37 2900 250/10 RMK AO2 SLP027 T02670111 58015
04850KAOH AOH20160606155511906/06/16 15:55:31  5-MIN KAOH 062055Z AUTO 24013KT 10SM FEW035 BKN120 27/11 A2963 1250 37 2900 240/13 RMK AO2 T02670111
04850KAOH AOH20160606160014406/06/16 16:00:31  5-MIN KAOH 062100Z AUTO 23011KT 10SM -RA FEW035 FEW049 BKN110 27/12 A2963 1250 38 2900 240/11 RMK AO2 RAB2057 P0000 T02670117
04850KAOH AOH20160606160513006/06/16 16:05:31  5-MIN KAOH 062105Z AUTO 24013KT 10SM -RA BKN110 28/12 A2962 1250 37 3000 240/13 RMK AO2 RAB2057 P0000 T02780122
04850KAOH AOH20160606161012906/06/16 16:10:31  5-MIN KAOH 062110Z AUTO 24009KT 10SM SCT110 28/13 A2962 1260 39 3000 240/09 RMK AO2 RAB2057E06 P0000 T02780128
04850KAOH AOH20160606161513506/06/16 16:15:31  5-MIN KAOH 062115Z AUTO 24011G16KT 10SM SCT110 28/12 A2962 1260 37 3100 240/11G16 RMK AO2 RAB2057E06 P0000 T02780122
04850KAOH AOH20160606162012906/06/16 16:20:31  5-MIN KAOH 062120Z AUTO 23011KT 10SM FEW110 28/12 A2961 1260 37 3100 230/11 RMK AO2 RAB2057E06 P0000 T02780122
04850KAOH AOH20160606162512906/06/16 16:25:31  5-MIN KAOH 062125Z AUTO 24010KT 10SM FEW110 28/12 A2961 1260 37 3100 250/10 RMK AO2 RAB2057E06 P0000 T02780122
04850KAOH AOH20160606163012606/06/16 16:30:31  5-MIN KAOH 062130Z AUTO 25013KT 10SM CLR 28/12 A2961 1260 37 3100 260/13 RMK AO2 RAB2057E06 P0000 T02780122
04850KAOH AOH20160606163513206/06/16 16:35:31  5-MIN KAOH 062135Z AUTO 25014G20KT 10SM CLR 28/12 A2961 1260 36 3100 260/14G20 RMK AO2 RAB2057E06 P0000 T02780117
04850KAOH AOH20160606164013206/06/16 16:40:31  5-MIN KAOH 062140Z AUTO 26015G23KT 10SM CLR 28/12 A2961 1260 36 3100 260/15G23 RMK AO2 RAB2057E06 P0000 T02780117
04850KAOH AOH20160606164513206/06/16 16:45:31  5-MIN KAOH 062145Z AUTO 24017G23KT 10SM CLR 27/12 A2961 1260 37 3000 250/17G23 RMK AO2 RAB2057E06 P0000 T02720117
04850KAOH AOH20160606165014906/06/16 16:50:31  5-MIN KAOH 062150Z AUTO 24019G23KT 10SM FEW075 FEW095 27/11 A2961 1270 36 3000 250/19G23 RMK AO2 RAB2057E06 SLP018 P0000 T02720111
04850KAOH AOH20160606165511206/06/16 16:55:31  5-MIN KAOH 062155Z AUTO 24016KT 10SM FEW075 28/11 A2960 1270 35 3100 240/16 RMK AO2 T02780111
04850KAOH AOH20160606170011906/06/16 17:00:31  5-MIN KAOH 062200Z AUTO 26019KT 10SM FEW075 FEW090 28/11 A2960 1270 35 3100 260/19 RMK AO2 T02780111
04850KAOH AOH20160606170513706/06/16 17:05:31  5-MIN KAOH 062205Z AUTO 22012G22KT 10SM FEW075 FEW090 27/12 A2960 1270 37 3000 230/12G22 RMK AO2 LTG DSNT NW T02720117
04850KAOH AOH20160606171013706/06/16 17:10:31  5-MIN KAOH 062210Z AUTO 23017G23KT 10SM SCT075 SCT095 27/12 A2960 1270 37 3000 240/17G23 RMK AO2 LTG DSNT NW T02720117
04850KAOH AOH20160606171513706/06/16 17:15:31  5-MIN KAOH 062215Z AUTO 23018G23KT 10SM SCT075 BKN100 27/12 A2960 1280 38 2900 230/18G23 RMK AO2 LTG DSNT NW T02670117
04850KAOH AOH20160606172012506/06/16 17:20:31  5-MIN KAOH 062220Z AUTO 24016G25KT 10SM FEW075 SCT100 28/12 A2959 1280 36 3100 240/16G25 RMK AO2 T02780117
04850KAOH AOH20160606172513706/06/16 17:25:31  5-MIN KAOH 062225Z AUTO 23017G25KT 10SM FEW075 FEW100 27/12 A2959 1290 39 3000 230/17G25 RMK AO2 LTG DSNT NW T02720122
04850KAOH AOH20160606173016106/06/16 17:30:31  5-MIN KAOH 062230Z AUTO 24022G28KT 10SM FEW075 FEW100 27/12 A2959 1280 38 3000 250/22G28 RMK AO2 PK WND 24028/2228 LTG DSNT N AND NW T02670117
04850KAOH AOH20160606173516806/06/16 17:35:31  5-MIN KAOH 062235Z AUTO 24019G28KT 10SM FEW075 FEW100 SCT120 27/12 A2959 1280 38 3000 250/19G28 RMK AO2 PK WND 24028/2228 LTG DSNT N AND NW T02670117
04850KAOH AOH20160606174014706/06/16 17:40:31  5-MIN KAOH 062240Z AUTO 25016G25KT 10SM FEW120 27/12 A2959 1280 40 3000 260/16G25 RMK AO2 PK WND 24028/2228 LTG DSNT N T02670122
04850KAOH AOH20160606174515806/06/16 17:45:31  5-MIN KAOH 062245Z AUTO 25017G25KT 10SM FEW085 FEW120 27/12 A2960 1280 40 2900 250/17G25 RMK AO2 PK WND 24028/2228 LTG DSNT NW-NE T02670122
04850KAOH AOH20160606175016906/06/16 17:50:31  5-MIN KAOH 062250Z AUTO 26019G27KT 10SM FEW080 SCT120 27/12 A2960 1270 38 2900 260/19G27 RMK AO2 PK WND 24028/2228 LTG DSNT NE AND NW SLP018 T02670117
04850KAOH AOH20160606175515806/06/16 17:55:31  5-MIN KAOH 062255Z AUTO 31014G27KT 10SM SCT075 SCT090 BKN120 24/12 A2961 1260 46 2600 320/14G27 RMK AO2 LTG DSNT NE AND NW PRESRR T02390117
04850KAOH AOH20160606180015506/06/16 18:00:31  5-MIN KAOH 062300Z AUTO 32014G25KT 10SM BKN080 BKN120 22/12 A2962 1250 52 2400 330/14G25 RMK AO2 WSHFT 2244 LTG DSNT NE PRESRR T02220122
04850KAOH AOH20160606180515506/06/16 18:05:31  5-MIN KAOH 062305Z AUTO 33015G24KT 10SM BKN080 BKN120 22/13 A2963 1250 56 2300 330/15G24 RMK AO2 WSHFT 2244 LTG DSNT NE PRESRR T02170128
04850KAOH AOH20160606181014806/06/16 18:10:31  5-MIN KAOH 062310Z AUTO 32012G24KT 10SM BKN080 BKN110 21/13 A2963 1250 61 2300 330/12G24 RMK AO2 WSHFT 2244 LTG DSNT NE T02110133
04850KAOH AOH20160606181514006/06/16 18:15:31  5-MIN KAOH 062315Z AUTO 35014G18KT 10SM BKN080 21/13 A2962 1250 58 2300 350/14G18 RMK AO2 WSHFT 2244 LTG DSNT N T02110128
04850KAOH AOH20160606182014006/06/16 18:20:31  5-MIN KAOH 062320Z AUTO 33011G18KT 10SM SCT080 21/13 A2962 1260 58 2300 340/11G18 RMK AO2 WSHFT 2244 LTG DSNT N T02110128
04850KAOH AOH20160606182513406/06/16 18:25:31  5-MIN KAOH 062325Z AUTO 33010KT 10SM SCT080 21/13 A2962 1250 58 2300 330/10 RMK AO2 WSHFT 2244 LTG DSNT N T02110128
04850KAOH AOH20160606183012306/06/16 18:30:31  5-MIN KAOH 062330Z AUTO 36008KT 10SM FEW080 22/13 A2962 1260 56 2400 360/08 RMK AO2 WSHFT 2244 T02170128
04850KAOH AOH20160606183512306/06/16 18:35:31  5-MIN KAOH 062335Z AUTO 35008KT 10SM FEW080 21/13 A2962 1260 58 2300 350/08 RMK AO2 WSHFT 2244 T02110128
04850KAOH AOH20160606184012006/06/16 18:40:31  5-MIN KAOH 062340Z AUTO 35006KT 10SM CLR 21/12 A2962 1260 56 2300 350/06 RMK AO2 WSHFT 2244 T02110122
04850KAOH AOH20160606184512006/06/16 18:45:31  5-MIN KAOH 062345Z AUTO 35004KT 10SM CLR 21/13 A2962 1260 60 2200 350/04 RMK AO2 WSHFT 2244 T02060128
04850KAOH AOH20160606185015106/06/16 18:50:31  5-MIN KAOH 062350Z AUTO 01006KT 10SM CLR 21/13 A2962 1260 60 2200 020/06 RMK AO2 WSHFT 2244 SLP024 60000 T02060128 10283 20206 56020
04850KAOH AOH20160606185510906/06/16 18:55:31  5-MIN KAOH 062355Z AUTO 01004KT 10SM CLR 21/12 A2962 1260 58 2200 020/04 RMK AO2 T02060122
04850KAOH AOH20160606190011206/06/16 19:00:31  5-MIN KAOH 070000Z AUTO 05003KT 10SM FEW110 21/12 A2962 1250 58 2200 050/03 RMK AO2 T02060122
04850KAOH AOH20160606190511206/06/16 19:05:31  5-MIN KAOH 070005Z AUTO 34008KT 10SM SCT110 21/13 A2964 1240 60 2200 350/08 RMK AO2 T02060128
04850KAOH AOH20160606191011206/06/16 19:10:31  5-MIN KAOH 070010Z AUTO 34006KT 10SM SCT110 21/12 A2964 1240 58 2200 350/06 RMK AO2 T02060122
04850KAOH AOH20160606191511206/06/16 19:15:31  5-MIN KAOH 070015Z AUTO 34007KT 10SM BKN100 21/12 A2964 1230 58 2200 350/07 RMK AO2 T02060122
04850KAOH AOH20160606192011206/06/16 19:20:31  5-MIN KAOH 070020Z AUTO 34008KT 10SM BKN100 20/13 A2965 1230 63 2100 350/08 RMK AO2 T02000128
04850KAOH AOH20160606192511206/06/16 19:25:31  5-MIN KAOH 070025Z AUTO 34008KT 10SM BKN100 20/13 A2965 1230 63 2100 340/08 RMK AO2 T02000128
04850KAOH AOH20160606193011206/06/16 19:30:31  5-MIN KAOH 070030Z AUTO 34006KT 10SM SCT100 20/13 A2965 1230 63 2100 350/06 RMK AO2 T02000128
04850KAOH AOH20160606193511906/06/16 19:35:31  5-MIN KAOH 070035Z AUTO 34004KT 10SM BKN100 BKN120 20/13 A2964 1240 63 2100 340/04 RMK AO2 T02000128
04850KAOH AOH20160606194011906/06/16 19:40:31  5-MIN KAOH 070040Z AUTO 35004KT 10SM BKN100 BKN120 20/13 A2964 1240 63 2100 350/04 RMK AO2 T02000128
04850KAOH AOH20160606194511206/06/16 19:45:31  5-MIN KAOH 070045Z AUTO 34004KT 10SM BKN100 20/13 A2964 1230 63 2100 350/04 RMK AO2 T02000128
04850KAOH AOH20160606195011906/06/16 19:50:31  5-MIN KAOH 070050Z AUTO 34005KT 10SM BKN100 20/13 A2965 1230 63 2100 340/05 RMK AO2 SLP033 T02000128
04850KAOH AOH20160606195511206/06/16 19:55:31  5-MIN KAOH 070055Z AUTO 33004KT 10SM BKN100 20/13 A2965 1230 63 2100 340/04 RMK AO2 T02000128
04850KAOH AOH20160606200011206/06/16 20:00:31  5-MIN KAOH 070100Z AUTO 33004KT 10SM BKN100 19/13 A2965 1230 67 2100 340/04 RMK AO2 T01940133
04850KAOH AOH20160606200511206/06/16 20:05:31  5-MIN KAOH 070105Z AUTO 32003KT 10SM BKN110 19/13 A2965 1230 67 2100 330/03 RMK AO2 T01940133
04850KAOH AOH20160606201011206/06/16 20:10:31  5-MIN KAOH 070110Z AUTO 32004KT 10SM BKN100 19/13 A2965 1230 67 2100 330/04 RMK AO2 T01940133
04850KAOH AOH20160606201511206/06/16 20:15:31  5-MIN KAOH 070115Z AUTO 33004KT 10SM BKN100 19/13 A2965 1230 67 2100 340/04 RMK AO2 T01940133
04850KAOH AOH20160606202011206/06/16 20:20:31  5-MIN KAOH 070120Z AUTO 32004KT 10SM SCT100 19/13 A2965 1230 70 2000 330/04 RMK AO2 T01890133
04850KAOH AOH20160606202511206/06/16 20:25:31  5-MIN KAOH 070125Z AUTO 32003KT 10SM SCT100 19/13 A2965 1230 70 2000 320/03 RMK AO2 T01890133
04850KAOH AOH20160606203011206/06/16 20:30:31  5-MIN KAOH 070130Z AUTO 31003KT 10SM SCT100 19/13 A2965 1230 70 2000 310/03 RMK AO2 T01890133
04850KAOH AOH20160606203511206/06/16 20:35:31  5-MIN KAOH 070135Z AUTO 30003KT 10SM FEW100 19/13 A2965 1230 70 2000 300/03 RMK AO2 T01890133
04850KAOH AOH20160606204011206/06/16 20:40:31  5-MIN KAOH 070140Z AUTO 30003KT 10SM FEW100 18/14 A2965 1230 75 1900 310/03 RMK AO2 T01830139
04850KAOH AOH20160606204511206/06/16 20:45:31  5-MIN KAOH 070145Z AUTO 30003KT 10SM FEW100 18/14 A2965 1230 75 1900 310/03 RMK AO2 T01830139
04850KAOH AOH20160606205011606/06/16 20:50:31  5-MIN KAOH 070150Z AUTO 29003KT 10SM CLR 18/14 A2965 1230 75 1900 300/03 RMK AO2 SLP035 T01830139
04850KAOH AOH20160606205510906/06/16 20:55:31  5-MIN KAOH 070155Z AUTO 28003KT 10SM CLR 18/13 A2965 1230 75 1900 280/03 RMK AO2 T01780133
04850KAOH AOH20160606210010906/06/16 21:00:31  5-MIN KAOH 070200Z AUTO 28003KT 10SM CLR 18/13 A2965 1230 75 1900 290/03 RMK AO2 T01780133
04850KAOH AOH20160606210510906/06/16 21:05:31  5-MIN KAOH 070205Z AUTO 29003KT 10SM CLR 18/13 A2965 1230 75 1900 300/03 RMK AO2 T01780133
04850KAOH AOH20160606211010906/06/16 21:10:31  5-MIN KAOH 070210Z AUTO 29003KT 10SM CLR 18/14 A2965 1230 78 1900 300/03 RMK AO2 T01780139
04850KAOH AOH20160606211510906/06/16 21:15:31  5-MIN KAOH 070215Z AUTO 30003KT 10SM CLR 18/13 A2965 1220 75 1900 300/03 RMK AO2 T01780133
04850KAOH AOH20160606212010906/06/16 21:20:31  5-MIN KAOH 070220Z AUTO 29003KT 10SM CLR 18/13 A2965 1220 75 1900 300/03 RMK AO2 T01780133
04850KAOH AOH20160606212510906/06/16 21:25:31  5-MIN KAOH 070225Z AUTO 29003KT 10SM CLR 18/13 A2966 1220 75 1900 300/03 RMK AO2 T01780133
04850KAOH AOH20160606213011206/06/16 21:30:31  5-MIN KAOH 070230Z AUTO 29003KT 10SM FEW100 18/13 A2966 1220 75 1900 300/03 RMK AO2 T01780133
04850KAOH AOH20160606213511206/06/16 21:35:31  5-MIN KAOH 070235Z AUTO 27003KT 10SM FEW100 18/13 A2966 1220 75 1900 270/03 RMK AO2 T01780133
04850KAOH AOH20160606214010906/06/16 21:40:31  5-MIN KAOH 070240Z AUTO 26003KT 10SM CLR 18/13 A2966 1220 70 1900 260/03 RMK AO2 T01830128
04850KAOH AOH20160606214511206/06/16 21:45:31  5-MIN KAOH 070245Z AUTO 25003KT 10SM FEW100 18/13 A2967 1210 72 1900 260/03 RMK AO2 T01780128
04850KAOH AOH20160606215012506/06/16 21:50:31  5-MIN KAOH 070250Z AUTO 25003KT 10SM FEW100 18/13 A2967 1210 75 1900 260/03 RMK AO2 SLP040 T01780133 55004
04850KAOH AOH20160606215511206/06/16 21:55:31  5-MIN KAOH 070255Z AUTO 26005KT 10SM SCT100 18/13 A2967 1210 72 1900 270/05 RMK AO2 T01780128
04850KAOH AOH20160606220011206/06/16 22:00:31  5-MIN KAOH 070300Z AUTO 26004KT 10SM SCT100 18/13 A2967 1210 75 1900 270/04 RMK AO2 T01780133
04850KAOH AOH20160606220511206/06/16 22:05:31  5-MIN KAOH 070305Z AUTO 26005KT 10SM BKN100 18/13 A2967 1210 75 1900 270/05 RMK AO2 T01780133
04850KAOH AOH20160606221011906/06/16 22:10:31  5-MIN KAOH 070310Z AUTO 26005KT 10SM BKN100 BKN110 18/13 A2967 1210 75 1900 260/05 RMK AO2 T01780133
04850KAOH AOH20160606221511906/06/16 22:15:31  5-MIN KAOH 070315Z AUTO 26005KT 10SM BKN095 BKN110 18/13 A2967 1210 75 1900 270/05 RMK AO2 T01780133
04850KAOH AOH20160606222011906/06/16 22:20:31  5-MIN KAOH 070320Z AUTO 27006KT 10SM BKN095 BKN110 18/13 A2967 1210 75 1900 270/06 RMK AO2 T01780133
04850KAOH AOH20160606222511206/06/16 22:25:31  5-MIN KAOH 070325Z AUTO 27006KT 10SM BKN100 18/13 A2967 1210 75 1900 280/06 RMK AO2 T01780133
04850KAOH AOH20160606223011206/06/16 22:30:31  5-MIN KAOH 070330Z AUTO 28006KT 10SM BKN100 17/13 A2968 1210 78 1800 280/06 RMK AO2 T01720133
04850KAOH AOH20160606223511206/06/16 22:35:31  5-MIN KAOH 070335Z AUTO 28006KT 10SM SCT100 17/13 A2967 1210 78 1800 280/06 RMK AO2 T01720133
04850KAOH AOH20160606224011906/06/16 22:40:31  5-MIN KAOH 070340Z AUTO 28006KT 10SM FEW100 SCT110 18/13 A2968 1200 75 1800 280/06 RMK AO2 T01780133
04850KAOH AOH20160606224511206/06/16 22:45:31  5-MIN KAOH 070345Z AUTO 29006KT 10SM FEW110 17/13 A2968 1200 78 1800 290/06 RMK AO2 T01720133
04850KAOH AOH20160606225011906/06/16 22:50:31  5-MIN KAOH 070350Z AUTO 30006KT 10SM SCT110 18/13 A2968 1200 75 1800 300/06 RMK AO2 SLP043 T01780133
04850KAOH AOH20160606225511206/06/16 22:55:31  5-MIN KAOH 070355Z AUTO 31006KT 10SM FEW120 18/13 A2968 1200 75 1800 320/06 RMK AO2 T01780133
04850KAOH AOH20160606230011206/06/16 23:00:31  5-MIN KAOH 070400Z AUTO 32007KT 10SM FEW120 18/13 A2968 1200 75 1800 320/07 RMK AO2 T01780133
04850KAOH AOH20160606230511206/06/16 23:05:31  5-MIN KAOH 070405Z AUTO 32008KT 10SM FEW120 18/13 A2968 1200 70 1900 320/08 RMK AO2 T01830128
04850KAOH AOH20160606231011206/06/16 23:10:31  5-MIN KAOH 070410Z AUTO 31008KT 10SM SCT110 18/13 A2968 1200 70 1900 320/08 RMK AO2 T01830128
04850KAOH AOH20160606231511206/06/16 23:15:31  5-MIN KAOH 070415Z AUTO 32008KT 10SM SCT110 18/13 A2968 1200 72 1900 320/08 RMK AO2 T01830133
04850KAOH AOH20160606232011206/06/16 23:20:31  5-MIN KAOH 070420Z AUTO 32007KT 10SM SCT120 18/13 A2968 1200 70 1900 320/07 RMK AO2 T01830128
04850KAOH AOH20160606232511206/06/16 23:25:31  5-MIN KAOH 070425Z AUTO 32008KT 10SM BKN120 18/13 A2968 1200 70 1900 320/08 RMK AO2 T01830128
04850KAOH AOH20160606233011206/06/16 23:30:31  5-MIN KAOH 070430Z AUTO 32008KT 10SM BKN120 19/13 A2969 1200 67 2000 320/08 RMK AO2 T01890128
04850KAOH AOH20160606233511206/06/16 23:35:31  5-MIN KAOH 070435Z AUTO 32008KT 10SM BKN120 18/12 A2969 1190 67 1900 320/08 RMK AO2 T01830122
04850KAOH AOH20160606234011206/06/16 23:40:31  5-MIN KAOH 070440Z AUTO 32008KT 10SM BKN120 18/12 A2969 1190 67 1900 320/08 RMK AO2 T01830122
04850KAOH AOH20160606234511206/06/16 23:45:31  5-MIN KAOH 070445Z AUTO 32007KT 10SM BKN110 18/12 A2969 1190 67 1900 330/07 RMK AO2 T01830122
04850KAOH AOH20160606235012906/06/16 23:50:31  5-MIN KAOH 070450Z AUTO 32007KT 10SM BKN110 18/12 A2969 1190 67 1900 330/07 RMK AO2 SLP046 T01830122 402830172
04850KAOH AOH20160606235511206/06/16 23:55:31  5-MIN KAOH 070455Z AUTO 32007KT 10SM BKN110 18/12 A2969 1190 67 1900 320/07 RMK AO2 T01830122
04850KAOH AOH20160607000011206/07/16 00:00:31  5-MIN KAOH 070500Z AUTO 32008KT 10SM BKN110 18/12 A2969 1200 69 1800 320/08 RMK AO2 T01780122
04850KAOH AOH20160607000511206/07/16 00:05:31  5-MIN KAOH 070505Z AUTO 32007KT 10SM BKN110 18/12 A2969 1190 69 1800 330/07 RMK AO2 T01780122
04850KAOH AOH20160607001011206/07/16 00:10:31  5-MIN KAOH 070510Z AUTO 32007KT 10SM BKN110 18/12 A2969 1190 69 1800 320/07 RMK AO2 T01780122
04850KAOH AOH20160607001511206/07/16 00:15:31  5-MIN KAOH 070515Z AUTO 31007KT 10SM SCT110 17/12 A2969 1190 72 1800 320/07 RMK AO2 T01720122
04850KAOH AOH20160607002011206/07/16 00:20:31  5-MIN KAOH 070520Z AUTO 31008KT 10SM SCT120 17/12 A2969 1190 72 1800 320/08 RMK AO2 T01720122
04850KAOH AOH20160607002511206/07/16 00:25:31  5-MIN KAOH 070525Z AUTO 31006KT 10SM FEW120 17/12 A2969 1190 69 1800 320/06 RMK AO2 T01720117
04850KAOH AOH20160607003011206/07/16 00:30:31  5-MIN KAOH 070530Z AUTO 30006KT 10SM FEW120 17/12 A2969 1190 72 1700 310/06 RMK AO2 T01670117
04850KAOH AOH20160607003511206/07/16 00:35:31  5-MIN KAOH 070535Z AUTO 30007KT 10SM FEW100 17/12 A2969 1190 72 1700 310/07 RMK AO2 T01670117
04850KAOH AOH20160607004011206/07/16 00:40:31  5-MIN KAOH 070540Z AUTO 30006KT 10SM SCT100 17/12 A2969 1190 72 1700 310/06 RMK AO2 T01670117
04850KAOH AOH20160607004511206/07/16 00:45:31  5-MIN KAOH 070545Z AUTO 30006KT 10SM SCT100 17/12 A2969 1190 72 1700 310/06 RMK AO2 T01670117
04850KAOH AOH20160607005013706/07/16 00:50:31  5-MIN KAOH 070550Z AUTO 31006KT 10SM FEW100 17/11 A2969 1190 69 1700 310/06 RMK AO2 SLP047 T01670111 10206 20167 51015
04850KAOH AOH20160607005511206/07/16 00:55:31  5-MIN KAOH 070555Z AUTO 30006KT 10SM FEW100 17/11 A2969 1190 69 1700 310/06 RMK AO2 T01670111
04850KAOH AOH20160607010011206/07/16 01:00:31  5-MIN KAOH 070600Z AUTO 30005KT 10SM FEW100 16/11 A2969 1190 72 1600 310/05 RMK AO2 T01610111
04850KAOH AOH20160607010511206/07/16 01:05:31  5-MIN KAOH 070605Z AUTO 30005KT 10SM FEW100 16/11 A2969 1190 72 1600 310/05 RMK AO2 T01610111
04850KAOH AOH20160607011010906/07/16 01:10:31  5-MIN KAOH 070610Z AUTO 30005KT 10SM CLR 16/11 A2969 1190 74 1600 310/05 RMK AO2 T01560111
04850KAOH AOH20160607011510906/07/16 01:15:31  5-MIN KAOH 070615Z AUTO 31005KT 10SM CLR 16/11 A2968 1200 74 1600 310/05 RMK AO2 T01560111
04850KAOH AOH20160607012010906/07/16 01:20:31  5-MIN KAOH 070620Z AUTO 30004KT 10SM CLR 16/11 A2968 1200 69 1600 310/04 RMK AO2 T01610106
04850KAOH AOH20160607012510906/07/16 01:25:31  5-MIN KAOH 070625Z AUTO 30004KT 10SM CLR 16/11 A2968 1200 69 1600 310/04 RMK AO2 T01610106
04850KAOH AOH20160607013010906/07/16 01:30:31  5-MIN KAOH 070630Z AUTO 30004KT 10SM CLR 16/11 A2968 1200 69 1600 300/04 RMK AO2 T01610106
04850KAOH AOH20160607013510906/07/16 01:35:31  5-MIN KAOH 070635Z AUTO 30004KT 10SM CLR 16/11 A2968 1200 69 1600 310/04 RMK AO2 T01610106
04850KAOH AOH20160607014010906/07/16 01:40:31  5-MIN KAOH 070640Z AUTO 31004KT 10SM CLR 17/10 A2968 1200 64 1700 320/04 RMK AO2 T01670100
04850KAOH AOH20160607014510906/07/16 01:45:31  5-MIN KAOH 070645Z AUTO 31004KT 10SM CLR 16/11 A2968 1200 69 1600 320/04 RMK AO2 T01610106
04850KAOH AOH20160607015011606/07/16 01:50:31  5-MIN KAOH 070650Z AUTO 30004KT 10SM CLR 16/11 A2968 1200 69 1600 310/04 RMK AO2 SLP045 T01610106
04850KAOH AOH20160607015510906/07/16 01:55:31  5-MIN KAOH 070655Z AUTO 30003KT 10SM CLR 16/10 A2968 1200 69 1600 300/03 RMK AO2 T01560100
04850KAOH AOH20160607020010906/07/16 02:00:31  5-MIN KAOH 070700Z AUTO 30004KT 10SM CLR 16/10 A2968 1200 69 1600 310/04 RMK AO2 T01560100
04850KAOH AOH20160607020510906/07/16 02:05:31  5-MIN KAOH 070705Z AUTO 30005KT 10SM CLR 16/10 A2968 1200 69 1600 310/05 RMK AO2 T01560100
04850KAOH AOH20160607021010906/07/16 02:10:31  5-MIN KAOH 070710Z AUTO 31005KT 10SM CLR 15/11 A2968 1200 74 1500 310/05 RMK AO2 T01500106
04850KAOH AOH20160607021510906/07/16 02:15:31  5-MIN KAOH 070715Z AUTO 31005KT 10SM CLR 15/11 A2968 1200 74 1500 310/05 RMK AO2 T01500106
04850KAOH AOH20160607022010906/07/16 02:20:31  5-MIN KAOH 070720Z AUTO 30005KT 10SM CLR 15/11 A2968 1200 74 1500 300/05 RMK AO2 T01500106
04850KAOH AOH20160607022510906/07/16 02:25:31  5-MIN KAOH 070725Z AUTO 30005KT 10SM CLR 15/11 A2968 1200 74 1500 300/05 RMK AO2 T01500106
04850KAOH AOH20160607023010906/07/16 02:30:31  5-MIN KAOH 070730Z AUTO 30006KT 10SM CLR 15/11 A2968 1200 74 1500 300/06 RMK AO2 T01500106
04850KAOH AOH20160607023510906/07/16 02:35:31  5-MIN KAOH 070735Z AUTO 30006KT 10SM CLR 15/11 A2969 1200 74 1500 300/06 RMK AO2 T01500106
04850KAOH AOH20160607024010906/07/16 02:40:31  5-MIN KAOH 070740Z AUTO 29006KT 10SM CLR 15/11 A2968 1200 74 1500 300/06 RMK AO2 T01500106
04850KAOH AOH20160607024510906/07/16 02:45:31  5-MIN KAOH 070745Z AUTO 30006KT 10SM CLR 14/11 A2968 1200 77 1500 300/06 RMK AO2 T01440106
04850KAOH AOH20160607025011906/07/16 02:50:31  5-MIN KAOH 070750Z AUTO 30007KT 10SM FEW090 14/11 A2968 1200 77 1500 310/07 RMK AO2 SLP045 T01440106
04850KAOH AOH20160607025511206/07/16 02:55:31  5-MIN KAOH 070755Z AUTO 30007KT 10SM SCT090 15/11 A2968 1200 74 1500 300/07 RMK AO2 T01500106
04850KAOH AOH20160607030011206/07/16 03:00:31  5-MIN KAOH 070800Z AUTO 29006KT 10SM BKN090 15/11 A2968 1200 74 1500 300/06 RMK AO2 T01500106
04850KAOH AOH20160607030511206/07/16 03:05:31  5-MIN KAOH 070805Z AUTO 29006KT 10SM BKN095 14/11 A2968 1200 77 1500 300/06 RMK AO2 T01440106
04850KAOH AOH20160607031011206/07/16 03:10:31  5-MIN KAOH 070810Z AUTO 28006KT 10SM BKN095 15/11 A2968 1200 74 1500 290/06 RMK AO2 T01500106
04850KAOH AOH20160607031511206/07/16 03:15:31  5-MIN KAOH 070815Z AUTO 28006KT 10SM BKN095 15/11 A2969 1190 74 1500 290/06 RMK AO2 T01500106
04850KAOH AOH20160607032011206/07/16 03:20:31  5-MIN KAOH 070820Z AUTO 28007KT 10SM BKN095 14/11 A2969 1190 77 1400 290/07 RMK AO2 T01440106
04850KAOH AOH20160607032511206/07/16 03:25:31  5-MIN KAOH 070825Z AUTO 28007KT 10SM SCT090 14/11 A2969 1190 77 1400 290/07 RMK AO2 T01440106
04850KAOH AOH20160607033011206/07/16 03:30:31  5-MIN KAOH 070830Z AUTO 29007KT 10SM FEW095 14/11 A2969 1200 77 1400 290/07 RMK AO2 T01440106
04850KAOH AOH20160607033511206/07/16 03:35:31  5-MIN KAOH 070835Z AUTO 29006KT 10SM FEW090 14/11 A2969 1190 77 1400 290/06 RMK AO2 T01440106
04850KAOH AOH20160607034011206/07/16 03:40:31  5-MIN KAOH 070840Z AUTO 28005KT 10SM FEW090 14/11 A2969 1200 80 1400 290/05 RMK AO2 T01390106
04850KAOH AOH20160607034510906/07/16 03:45:31  5-MIN KAOH 070845Z AUTO 27005KT 10SM CLR 14/11 A2969 1190 80 1400 280/05 RMK AO2 T01390106
04850KAOH AOH20160607035012206/07/16 03:50:31  5-MIN KAOH 070850Z AUTO 28006KT 10SM CLR 14/10 A2969 1200 77 1400 280/06 RMK AO2 SLP047 T01390100 51006
04850KAOH AOH20160607035510906/07/16 03:55:31  5-MIN KAOH 070855Z AUTO 28006KT 10SM CLR 13/10 A2969 1190 80 1300 290/06 RMK AO2 T01330100
04850KAOH AOH20160607040010906/07/16 04:00:31  5-MIN KAOH 070900Z AUTO 28007KT 10SM CLR 13/11 A2969 1190 83 1300 290/07 RMK AO2 T01330106
04850KAOH AOH20160607040510906/07/16 04:05:31  5-MIN KAOH 070905Z AUTO 28007KT 10SM CLR 14/10 A2969 1190 77 1400 290/07 RMK AO2 T01390100
04850KAOH AOH20160607041010906/07/16 04:10:31  5-MIN KAOH 070910Z AUTO 28007KT 10SM CLR 14/10 A2969 1190 77 1400 290/07 RMK AO2 T01390100
04850KAOH AOH20160607041510906/07/16 04:15:31  5-MIN KAOH 070915Z AUTO 28006KT 10SM CLR 14/10 A2969 1190 77 1400 290/06 RMK AO2 T01390100
04850KAOH AOH20160607042010906/07/16 04:20:31  5-MIN KAOH 070920Z AUTO 28005KT 10SM CLR 13/11 A2969 1190 83 1300 280/05 RMK AO2 T01330106
04850KAOH AOH20160607042510906/07/16 04:25:31  5-MIN KAOH 070925Z AUTO 28006KT 10SM CLR 13/11 A2969 1190 83 1300 280/06 RMK AO2 T01330106
04850KAOH AOH20160607043010906/07/16 04:30:31  5-MIN KAOH 070930Z AUTO 29005KT 10SM CLR 13/11 A2969 1190 83 1300 290/05 RMK AO2 T01330106
04850KAOH AOH20160607043510906/07/16 04:35:31  5-MIN KAOH 070935Z AUTO 30004KT 10SM CLR 13/11 A2970 1190 83 1300 310/04 RMK AO2 T01330106
04850KAOH AOH20160607044011206/07/16 04:40:31  5-MIN KAOH 070940Z AUTO 30004KT 10SM SCT095 13/10 A2970 1180 80 1300 310/04 RMK AO2 T01330100
04850KAOH AOH20160607044511206/07/16 04:45:31  5-MIN KAOH 070945Z AUTO 31005KT 10SM SCT090 13/10 A2970 1180 80 1300 310/05 RMK AO2 T01330100
04850KAOH AOH20160607045011906/07/16 04:50:31  5-MIN KAOH 070950Z AUTO 30005KT 10SM SCT095 14/11 A2970 1180 80 1400 310/05 RMK AO2 SLP051 T01390106
04850KAOH AOH20160607045511206/07/16 04:55:31  5-MIN KAOH 070955Z AUTO 30006KT 10SM BKN095 13/11 A2970 1180 83 1300 310/06 RMK AO2 T01330106
04850KAOH AOH20160607050011206/07/16 05:00:31  5-MIN KAOH 071000Z AUTO 31006KT 10SM SCT095 14/10 A2970 1180 77 1400 310/06 RMK AO2 T01390100
04850KAOH AOH20160607050511206/07/16 05:05:31  5-MIN KAOH 071005Z AUTO 31007KT 10SM SCT095 14/10 A2970 1180 77 1400 310/07 RMK AO2 T01390100
04850KAOH AOH20160607051011206/07/16 05:10:31  5-MIN KAOH 071010Z AUTO 31006KT 10SM FEW095 14/10 A2970 1180 77 1400 310/06 RMK AO2 T01390100
04850KAOH AOH20160607051511206/07/16 05:15:31  5-MIN KAOH 071015Z AUTO 30007KT 10SM FEW095 14/10 A2971 1180 77 1400 310/07 RMK AO2 T01390100
04850KAOH AOH20160607052011206/07/16 05:20:31  5-MIN KAOH 071020Z AUTO 30008KT 10SM FEW095 14/10 A2971 1180 77 1400 310/08 RMK AO2 T01390100
04850KAOH AOH20160607052510906/07/16 05:25:31  5-MIN KAOH 071025Z AUTO 31008KT 10SM CLR 14/10 A2971 1170 77 1400 310/08 RMK AO2 T01390100
04850KAOH AOH20160607053010906/07/16 05:30:31  5-MIN KAOH 071030Z AUTO 31007KT 10SM CLR 14/11 A2971 1170 80 1400 320/07 RMK AO2 T01390106
04850KAOH AOH20160607053510906/07/16 05:35:31  5-MIN KAOH 071035Z AUTO 31006KT 10SM CLR 14/11 A2971 1170 80 1400 310/06 RMK AO2 T01390106
04850KAOH AOH20160607054010906/07/16 05:40:31  5-MIN KAOH 071040Z AUTO 31007KT 10SM CLR 14/11 A2971 1170 80 1400 310/07 RMK AO2 T01390106
04850KAOH AOH20160607054510906/07/16 05:45:31  5-MIN KAOH 071045Z AUTO 31007KT 10SM CLR 14/11 A2971 1170 80 1400 310/07 RMK AO2 T01390106
04850KAOH AOH20160607055011606/07/16 05:50:31  5-MIN KAOH 071050Z AUTO 31008KT 10SM CLR 14/11 A2972 1170 77 1400 320/08 RMK AO2 SLP057 T01440106
04850KAOH AOH20160607055510906/07/16 05:55:31  5-MIN KAOH 071055Z AUTO 31008KT 10SM CLR 14/11 A2972 1160 77 1400 320/08 RMK AO2 T01440106
04850KAOH AOH20160607060010906/07/16 06:00:31  5-MIN KAOH 071100Z AUTO 32008KT 10SM CLR 14/11 A2972 1160 77 1400 330/08 RMK AO2 T01440106
04850KAOH AOH20160607060510906/07/16 06:05:31  5-MIN KAOH 071105Z AUTO 31008KT 10SM CLR 14/11 A2972 1160 77 1400 320/08 RMK AO2 T01440106
04850KAOH AOH20160607061010906/07/16 06:10:31  5-MIN KAOH 071110Z AUTO 31008KT 10SM CLR 14/11 A2972 1160 77 1400 310/08 RMK AO2 T01440106
04850KAOH AOH20160607061510906/07/16 06:15:31  5-MIN KAOH 071115Z AUTO 31009KT 10SM CLR 14/11 A2973 1160 77 1400 320/09 RMK AO2 T01440106
04850KAOH AOH20160607062010906/07/16 06:20:31  5-MIN KAOH 071120Z AUTO 31008KT 10SM CLR 15/11 A2973 1160 77 1500 310/08 RMK AO2 T01500111
04850KAOH AOH20160607062510906/07/16 06:25:31  5-MIN KAOH 071125Z AUTO 31009KT 10SM CLR 15/11 A2973 1160 74 1500 310/09 RMK AO2 T01500106
04850KAOH AOH20160607063010906/07/16 06:30:31  5-MIN KAOH 071130Z AUTO 31011KT 10SM CLR 15/11 A2973 1150 74 1500 310/11 RMK AO2 T01500106
04850KAOH AOH20160607063510906/07/16 06:35:31  5-MIN KAOH 071135Z AUTO 31010KT 10SM CLR 15/11 A2973 1150 74 1500 320/10 RMK AO2 T01500106
04850KAOH AOH20160607064010906/07/16 06:40:31  5-MIN KAOH 071140Z AUTO 31011KT 10SM CLR 15/11 A2973 1150 77 1500 320/11 RMK AO2 T01500111
04850KAOH AOH20160607064510906/07/16 06:45:31  5-MIN KAOH 071145Z AUTO 31011KT 10SM CLR 15/11 A2973 1150 77 1500 320/11 RMK AO2 T01500111
04850KAOH AOH20160607065013406/07/16 06:50:31  5-MIN KAOH 071150Z AUTO 31010KT 10SM CLR 15/11 A2974 1150 77 1500 320/10 RMK AO2 SLP065 T01500111 10167 20128 55000
04850KAOH AOH20160607065510906/07/16 06:55:31  5-MIN KAOH 071155Z AUTO 31014KT 10SM CLR 15/11 A2974 1150 77 1500 320/14 RMK AO2 T01500111
04850KAOH AOH20160607070010906/07/16 07:00:31  5-MIN KAOH 071200Z AUTO 31011KT 10SM CLR 15/11 A2974 1150 77 1500 320/11 RMK AO2 T01500111
04850KAOH AOH20160607070510906/07/16 07:05:31  5-MIN KAOH 071205Z AUTO 31008KT 10SM CLR 16/11 A2974 1150 74 1500 320/08 RMK AO2 T01560111
04850KAOH AOH20160607071010906/07/16 07:10:31  5-MIN KAOH 071210Z AUTO 31010KT 10SM CLR 16/11 A2974 1150 74 1500 310/10 RMK AO2 T01560111
04850KAOH AOH20160607071510906/07/16 07:15:31  5-MIN KAOH 071215Z AUTO 32011KT 10SM CLR 16/12 A2974 1140 77 1500 320/11 RMK AO2 T01560117
04850KAOH AOH20160607072010906/07/16 07:20:31  5-MIN KAOH 071220Z AUTO 31011KT 10SM CLR 16/11 A2974 1140 74 1500 320/11 RMK AO2 T01560111
04850KAOH AOH20160607072510906/07/16 07:25:31  5-MIN KAOH 071225Z AUTO 32010KT 10SM CLR 16/11 A2974 1150 74 1500 320/10 RMK AO2 T01560111
04850KAOH AOH20160607073010906/07/16 07:30:31  5-MIN KAOH 071230Z AUTO 32011KT 10SM CLR 16/11 A2974 1140 72 1600 330/11 RMK AO2 T01610111
04850KAOH AOH20160607073510906/07/16 07:35:31  5-MIN KAOH 071235Z AUTO 32012KT 10SM CLR 16/11 A2974 1140 72 1600 330/12 RMK AO2 T01610111
04850KAOH AOH20160607074010906/07/16 07:40:31  5-MIN KAOH 071240Z AUTO 33012KT 10SM CLR 16/11 A2974 1140 74 1500 330/12 RMK AO2 T01560111
04850KAOH AOH20160607074510906/07/16 07:45:31  5-MIN KAOH 071245Z AUTO 32011KT 10SM CLR 16/11 A2975 1140 72 1600 330/11 RMK AO2 T01610111
04850KAOH AOH20160607075011606/07/16 07:50:31  5-MIN KAOH 071250Z AUTO 30010KT 10SM CLR 16/12 A2975 1140 75 1600 310/10 RMK AO2 SLP068 T01610117
04850KAOH AOH20160607075510906/07/16 07:55:31  5-MIN KAOH 071255Z AUTO 31012KT 10SM CLR 16/12 A2975 1140 75 1600 310/12 RMK AO2 T01610117
04850KAOH AOH20160607080010906/07/16 08:00:31  5-MIN KAOH 071300Z AUTO 31013KT 10SM CLR 17/12 A2975 1140 72 1600 310/13 RMK AO2 T01670117
04850KAOH AOH20160607080510906/07/16 08:05:31  5-MIN KAOH 071305Z AUTO 31011KT 10SM CLR 17/11 A2975 1140 69 1600 320/11 RMK AO2 T01670111
04850KAOH AOH20160607081010906/07/16 08:10:31  5-MIN KAOH 071310Z AUTO 32010KT 10SM CLR 17/12 A2975 1140 72 1600 320/10 RMK AO2 T01670117
04850KAOH AOH20160607081510906/07/16 08:15:31  5-MIN KAOH 071315Z AUTO 32011KT 10SM CLR 17/11 A2975 1140 69 1600 320/11 RMK AO2 T01670111
04850KAOH AOH20160607082010906/07/16 08:20:31  5-MIN KAOH 071320Z AUTO 32011KT 10SM CLR 17/11 A2975 1140 69 1600 320/11 RMK AO2 T01670111
04850KAOH AOH20160607082510906/07/16 08:25:31  5-MIN KAOH 071325Z AUTO 30014KT 10SM CLR 17/11 A2975 1140 67 1700 310/14 RMK AO2 T01720111
04850KAOH AOH20160607083011206/07/16 08:30:31  5-MIN KAOH 071330Z AUTO 30015KT 10SM FEW023 17/11 A2975 1140 67 1700 310/15 RMK AO2 T01720111
04850KAOH AOH20160607083511206/07/16 08:35:31  5-MIN KAOH 071335Z AUTO 31014KT 10SM FEW023 17/11 A2975 1140 67 1700 310/14 RMK AO2 T01720111
04850KAOH AOH20160607084010906/07/16 08:40:31  5-MIN KAOH 071340Z AUTO 32013KT 10SM CLR 17/11 A2975 1140 69 1600 320/13 RMK AO2 T01670111
04850KAOH AOH20160607084511206/07/16 08:45:31  5-MIN KAOH 071345Z AUTO 32014KT 10SM FEW027 17/11 A2975 1130 67 1700 330/14 RMK AO2 T01720111
04850KAOH AOH20160607085011906/07/16 08:50:31  5-MIN KAOH 071350Z AUTO 31013KT 10SM FEW027 17/11 A2975 1130 67 1700 310/13 RMK AO2 SLP071 T01720111
04850KAOH AOH20160607085511206/07/16 08:55:31  5-MIN KAOH 071355Z AUTO 32014KT 10SM FEW027 17/11 A2975 1130 67 1600 320/14 RMK AO2 T01670106
04850KAOH AOH20160607090011906/07/16 09:00:31  5-MIN KAOH 071400Z AUTO 32012KT 10SM SCT028 SCT033 17/11 A2975 1130 67 1600 330/12 RMK AO2 T01670106
04850KAOH AOH20160607090511206/07/16 09:05:31  5-MIN KAOH 071405Z AUTO 31013KT 10SM SCT030 17/11 A2976 1130 67 1700 310/13 RMK AO2 T01720111
04850KAOH AOH20160607091011206/07/16 09:10:31  5-MIN KAOH 071410Z AUTO 30011KT 10SM SCT030 18/11 A2975 1130 62 1800 310/11 RMK AO2 T01780106
04850KAOH AOH20160607091511906/07/16 09:15:31  5-MIN KAOH 071415Z AUTO 32013KT 10SM BKN030 BKN037 18/11 A2975 1130 62 1800 320/13 RMK AO2 T01780106
04850KAOH AOH20160607092011906/07/16 09:20:31  5-MIN KAOH 071420Z AUTO 32012KT 10SM BKN030 BKN037 18/09 A2975 1130 56 1800 330/12 RMK AO2 T01830094
04850KAOH AOH20160607092511906/07/16 09:25:31  5-MIN KAOH 071425Z AUTO 31014KT 10SM SCT030 BKN039 18/10 A2975 1130 58 1800 320/14 RMK AO2 T01830100
04850KAOH AOH20160607093011906/07/16 09:30:31  5-MIN KAOH 071430Z AUTO 31012KT 10SM SCT032 SCT040 19/10 A2975 1130 56 1900 320/12 RMK AO2 T01890100
04850KAOH AOH20160607093512606/07/16 09:35:31  5-MIN KAOH 071435Z AUTO 32014KT 10SM FEW029 SCT036 BKN043 18/10 A2975 1130 58 1800 320/14 RMK AO2 T01830100
04850KAOH AOH20160607094011906/07/16 09:40:31  5-MIN KAOH 071440Z AUTO 32016KT 10SM SCT033 BKN043 18/10 A2975 1130 58 1800 320/16 RMK AO2 T01830100
04850KAOH AOH20160607094512506/07/16 09:45:31  5-MIN KAOH 071445Z AUTO 32018G22KT 10SM SCT037 BKN046 18/10 A2975 1130 58 1800 330/18G22 RMK AO2 T01830100
04850KAOH AOH20160607095013806/07/16 09:50:31  5-MIN KAOH 071450Z AUTO 33015G22KT 10SM SCT037 BKN046 19/10 A2976 1130 56 1900 330/15G22 RMK AO2 SLP071 T01890100 53016
04850KAOH AOH20160607095512506/07/16 09:55:31  5-MIN KAOH 071455Z AUTO 31017G22KT 10SM SCT037 BKN048 18/09 A2976 1130 56 1800 310/17G22 RMK AO2 T01830094
04850KAOH AOH20160607100012506/07/16 10:00:31  5-MIN KAOH 071500Z AUTO 32013G22KT 10SM FEW036 BKN048 18/10 A2976 1130 58 1800 320/13G22 RMK AO2 T01830100
04850KAOH AOH20160607100511906/07/16 10:05:31  5-MIN KAOH 071505Z AUTO 30019KT 10SM FEW034 BKN046 18/10 A2976 1130 58 1800 300/19 RMK AO2 T01830100
04850KAOH AOH20160607101012506/07/16 10:10:31  5-MIN KAOH 071510Z AUTO 31015G23KT 10SM FEW033 BKN046 19/09 A2976 1120 54 1900 320/15G23 RMK AO2 T01890094
04850KAOH AOH20160607101512506/07/16 10:15:31  5-MIN KAOH 071515Z AUTO 31016G23KT 10SM SCT035 BKN046 18/09 A2976 1130 58 1800 320/16G23 RMK AO2 T01780094
04850KAOH AOH20160607102011906/07/16 10:20:31  5-MIN KAOH 071520Z AUTO 32016KT 10SM SCT035 BKN046 18/09 A2976 1130 58 1800 330/16 RMK AO2 T01780094
04850KAOH AOH20160607102511906/07/16 10:25:31  5-MIN KAOH 071525Z AUTO 32016KT 10SM SCT035 BKN046 18/09 A2976 1120 58 1700 330/16 RMK AO2 T01780094
04850KAOH AOH20160607103011906/07/16 10:30:31  5-MIN KAOH 071530Z AUTO 32015KT 10SM BKN035 BKN046 18/09 A2976 1120 58 1700 330/15 RMK AO2 T01780094
04850KAOH AOH20160607103512506/07/16 10:35:31  5-MIN KAOH 071535Z AUTO 32017G22KT 10SM BKN035 BKN046 18/09 A2977 1120 56 1800 330/17G22 RMK AO2 T01830094
04850KAOH AOH20160607203511206/07/16 20:35:31  5-MIN KAOH 080135Z AUTO 31014KT 10SM SCT060 16/09 A2984 1050 64 1400 320/14 RMK AO2 T01560089
04850KAOH AOH20160607204011206/07/16 20:40:31  5-MIN KAOH 080140Z AUTO 31015KT 10SM SCT060 16/09 A2984 1050 64 1400 310/15 RMK AO2 T01560089
04850KAOH AOH20160607204511206/07/16 20:45:31  5-MIN KAOH 080145Z AUTO 31015KT 10SM SCT060 16/09 A2984 1050 64 1400 310/15 RMK AO2 T01560089
04850KAOH AOH20160607205011906/07/16 20:50:31  5-MIN KAOH 080150Z AUTO 31015KT 10SM BKN055 15/09 A2985 1050 66 1300 320/15 RMK AO2 SLP105 T01500089
04850KAOH AOH20160607205511206/07/16 20:55:31  5-MIN KAOH 080155Z AUTO 31014KT 10SM BKN055 15/09 A2985 1040 66 1300 320/14 RMK AO2 T01500089
04850KAOH AOH20160607210011206/07/16 21:00:31  5-MIN KAOH 080200Z AUTO 31015KT 10SM SCT055 15/08 A2986 1040 64 1300 310/15 RMK AO2 T01500083
04850KAOH AOH20160607210511206/07/16 21:05:31  5-MIN KAOH 080205Z AUTO 31014KT 10SM SCT055 15/08 A2986 1030 64 1300 310/14 RMK AO2 T01500083
04850KAOH AOH20160607211011206/07/16 21:10:31  5-MIN KAOH 080210Z AUTO 31013KT 10SM SCT055 14/08 A2986 1030 66 1200 320/13 RMK AO2 T01440083
04850KAOH AOH20160607211511206/07/16 21:15:31  5-MIN KAOH 080215Z AUTO 31013KT 10SM FEW055 14/08 A2986 1030 66 1200 320/13 RMK AO2 T01440083
04850KAOH AOH20160607212011206/07/16 21:20:31  5-MIN KAOH 080220Z AUTO 31014KT 10SM FEW055 14/09 A2987 1030 69 1200 310/14 RMK AO2 T01440089
04850KAOH AOH20160607212511506/07/16 21:25:31  5-MIN KAOH 080225Z AUTO 31010G19KT 10SM CLR 14/09 A2987 1020 69 1200 320/10G19 RMK AO2 T01440089
04850KAOH AOH20160607213010906/07/16 21:30:31  5-MIN KAOH 080230Z AUTO 31012KT 10SM CLR 14/09 A2987 1020 71 1200 310/12 RMK AO2 T01390089
04850KAOH AOH20160607213510906/07/16 21:35:31  5-MIN KAOH 080235Z AUTO 31011KT 10SM CLR 14/09 A2987 1020 71 1200 310/11 RMK AO2 T01390089
04850KAOH AOH20160607214010906/07/16 21:40:31  5-MIN KAOH 080240Z AUTO 31013KT 10SM CLR 14/09 A2987 1020 71 1200 320/13 RMK AO2 T01390089
04850KAOH AOH20160607214510906/07/16 21:45:31  5-MIN KAOH 080245Z AUTO 31011KT 10SM CLR 14/09 A2987 1020 71 1200 320/11 RMK AO2 T01390089
04850KAOH AOH20160607215012206/07/16 21:50:31  5-MIN KAOH 080250Z AUTO 31010KT 10SM CLR 14/09 A2987 1020 71 1200 320/10 RMK AO2 SLP114 T01390089 53004
04850KAOH AOH20160607215510906/07/16 21:55:31  5-MIN KAOH 080255Z AUTO 31010KT 10SM CLR 14/09 A2988 1020 71 1200 310/10 RMK AO2 T01390089
04850KAOH AOH20160607220010906/07/16 22:00:31  5-MIN KAOH 080300Z AUTO 31010KT 10SM CLR 13/09 A2988 1020 74 1100 310/10 RMK AO2 T01330089
04850KAOH AOH20160607220510906/07/16 22:05:31  5-MIN KAOH 080305Z AUTO 31011KT 10SM CLR 13/09 A2988 1020 74 1100 320/11 RMK AO2 T01330089
04850KAOH AOH20160607221010906/07/16 22:10:31  5-MIN KAOH 080310Z AUTO 31011KT 10SM CLR 13/08 A2988 1020 71 1100 320/11 RMK AO2 T01330083
04850KAOH AOH20160607221510906/07/16 22:15:31  5-MIN KAOH 080315Z AUTO 31011KT 10SM CLR 13/08 A2988 1020 71 1100 320/11 RMK AO2 T01330083
04850KAOH AOH20160607222010906/07/16 22:20:31  5-MIN KAOH 080320Z AUTO 31011KT 10SM CLR 13/08 A2987 1020 71 1100 320/11 RMK AO2 T01330083
04850KAOH AOH20160607222510906/07/16 22:25:31  5-MIN KAOH 080325Z AUTO 31008KT 10SM CLR 13/08 A2987 1020 71 1100 320/08 RMK AO2 T01330083
04850KAOH AOH20160607223010906/07/16 22:30:31  5-MIN KAOH 080330Z AUTO 31008KT 10SM CLR 13/08 A2987 1020 71 1100 320/08 RMK AO2 T01330083
04850KAOH AOH20160607223510906/07/16 22:35:31  5-MIN KAOH 080335Z AUTO 30008KT 10SM CLR 13/08 A2988 1020 74 1000 310/08 RMK AO2 T01280083
04850KAOH AOH20160607224010906/07/16 22:40:31  5-MIN KAOH 080340Z AUTO 30007KT 10SM CLR 13/08 A2987 1020 74 1000 310/07 RMK AO2 T01280083
04850KAOH AOH20160607224510906/07/16 22:45:31  5-MIN KAOH 080345Z AUTO 31007KT 10SM CLR 13/08 A2987 1020 74 1000 310/07 RMK AO2 T01280083
04850KAOH AOH20160607225011606/07/16 22:50:31  5-MIN KAOH 080350Z AUTO 30007KT 10SM CLR 13/08 A2987 1030 74 1000 310/07 RMK AO2 SLP111 T01280083
04850KAOH AOH20160607225510906/07/16 22:55:31  5-MIN KAOH 080355Z AUTO 31006KT 10SM CLR 12/08 A2987 1030 77 1000 320/06 RMK AO2 T01220083
04850KAOH AOH20160607230010906/07/16 23:00:31  5-MIN KAOH 080400Z AUTO 31006KT 10SM CLR 12/08 A2987 1030 77 1000 310/06 RMK AO2 T01220083
04850KAOH AOH20160607230510906/07/16 23:05:31  5-MIN KAOH 080405Z AUTO 31006KT 10SM CLR 12/08 A2987 1030 77 1000 310/06 RMK AO2 T01220083
04850KAOH AOH20160607231010906/07/16 23:10:31  5-MIN KAOH 080410Z AUTO 30007KT 10SM CLR 12/08 A2987 1020 77 1000 300/07 RMK AO2 T01220083
04850KAOH AOH20160607231511206/07/16 23:15:31  5-MIN KAOH 080415Z AUTO 29007KT 10SM FEW060 12/08 A2987 1030 77 1000 300/07 RMK AO2 T01220083
04850KAOH AOH20160607232011206/07/16 23:20:31  5-MIN KAOH 080420Z AUTO 30006KT 10SM FEW060 13/08 A2986 1030 74 1000 300/06 RMK AO2 T01280083
04850KAOH AOH20160607232511206/07/16 23:25:31  5-MIN KAOH 080425Z AUTO 30007KT 10SM FEW060 12/08 A2986 1030 74 1000 300/07 RMK AO2 T01220078
04850KAOH AOH20160607233011206/07/16 23:30:31  5-MIN KAOH 080430Z AUTO 29008KT 10SM FEW060 12/08 A2987 1030 74 1000 300/08 RMK AO2 T01220078
04850KAOH AOH20160607233511206/07/16 23:35:31  5-MIN KAOH 080435Z AUTO 28007KT 10SM SCT060 12/08 A2987 1020 74 1000 290/07 RMK AO2 T01220078
04850KAOH AOH20160607234011206/07/16 23:40:31  5-MIN KAOH 080440Z AUTO 28007KT 10SM BKN060 12/08 A2987 1020 77 1000 290/07 RMK AO2 T01220083
04850KAOH AOH20160607234511206/07/16 23:45:31  5-MIN KAOH 080445Z AUTO 28008KT 10SM BKN060 13/08 A2987 1020 74 1000 280/08 RMK AO2 T01280083
04850KAOH AOH20160607235012906/07/16 23:50:31  5-MIN KAOH 080450Z AUTO 28008KT 10SM BKN060 13/08 A2987 1020 74 1000 280/08 RMK AO2 SLP113 T01280083 401940122
04850KAOH AOH20160607235511206/07/16 23:55:31  5-MIN KAOH 080455Z AUTO 28008KT 10SM BKN065 13/08 A2987 1020 74 1000 290/08 RMK AO2 T01280083
04850KAOH AOH20160608000011206/08/16 00:00:31  5-MIN KAOH 080500Z AUTO 29010KT 10SM OVC065 13/08 A2987 1020 74 1000 290/10 RMK AO2 T01280083
04850KAOH AOH20160608000511206/08/16 00:05:31  5-MIN KAOH 080505Z AUTO 29009KT 10SM OVC065 13/08 A2987 1020 74 1000 290/09 RMK AO2 T01280083
04850KAOH AOH20160608001011206/08/16 00:10:31  5-MIN KAOH 080510Z AUTO 29010KT 10SM OVC065 13/08 A2987 1030 74 1000 300/10 RMK AO2 T01280083
04850KAOH AOH20160608001511206/08/16 00:15:31  5-MIN KAOH 080515Z AUTO 29010KT 10SM OVC065 13/08 A2987 1030 74 1000 290/10 RMK AO2 T01280083
04850KAOH AOH20160608002011206/08/16 00:20:31  5-MIN KAOH 080520Z AUTO 29010KT 10SM OVC065 13/08 A2987 1030 74 1000 290/10 RMK AO2 T01280083
04850KAOH AOH20160608002511206/08/16 00:25:31  5-MIN KAOH 080525Z AUTO 29009KT 10SM OVC065 13/08 A2987 1030 74 1000 300/09 RMK AO2 T01280083
04850KAOH AOH20160608003011206/08/16 00:30:31  5-MIN KAOH 080530Z AUTO 29008KT 10SM OVC065 13/08 A2986 1030 74 1000 300/08 RMK AO2 T01280083
04850KAOH AOH20160608003511206/08/16 00:35:31  5-MIN KAOH 080535Z AUTO 29009KT 10SM OVC070 13/08 A2986 1030 74 1000 300/09 RMK AO2 T01280083
04850KAOH AOH20160608004011206/08/16 00:40:31  5-MIN KAOH 080540Z AUTO 29010KT 10SM OVC070 13/08 A2987 1030 74 1000 290/10 RMK AO2 T01280083
04850KAOH AOH20160608004511206/08/16 00:45:31  5-MIN KAOH 080545Z AUTO 29009KT 10SM OVC070 13/08 A2986 1030 74 1000 300/09 RMK AO2 T01280083
04850KAOH AOH20160608005013706/08/16 00:50:31  5-MIN KAOH 080550Z AUTO 30009KT 10SM OVC070 13/08 A2987 1030 74 1000 300/09 RMK AO2 SLP111 T01280083 10178 20122 53019
04850KAOH AOH20160608005511206/08/16 00:55:31  5-MIN KAOH 080555Z AUTO 30010KT 10SM OVC070 13/08 A2987 1030 74 1000 300/10 RMK AO2 T01280083
04850KAOH AOH20160608010011206/08/16 01:00:31  5-MIN KAOH 080600Z AUTO 30009KT 10SM OVC070 13/08 A2987 1020 74 1000 300/09 RMK AO2 T01280083
04850KAOH AOH20160608010511206/08/16 01:05:31  5-MIN KAOH 080605Z AUTO 30010KT 10SM OVC070 13/08 A2987 1020 74 1000 300/10 RMK AO2 T01280083
04850KAOH AOH20160608011011206/08/16 01:10:31  5-MIN KAOH 080610Z AUTO 30011KT 10SM OVC070 13/08 A2987 1020 74 1000 310/11 RMK AO2 T01280083
04850KAOH AOH20160608011511206/08/16 01:15:31  5-MIN KAOH 080615Z AUTO 31011KT 10SM BKN070 13/08 A2987 1020 74 1000 320/11 RMK AO2 T01280083
04850KAOH AOH20160608012011206/08/16 01:20:31  5-MIN KAOH 080620Z AUTO 31010KT 10SM OVC070 12/08 A2987 1020 77 1000 310/10 RMK AO2 T01220083
04850KAOH AOH20160608012511206/08/16 01:25:31  5-MIN KAOH 080625Z AUTO 32010KT 10SM OVC065 12/08 A2987 1020 77 1000 320/10 RMK AO2 T01220083
04850KAOH AOH20160608013011206/08/16 01:30:31  5-MIN KAOH 080630Z AUTO 31012KT 10SM OVC065 12/08 A2987 1020 77 1000 320/12 RMK AO2 T01220083
04850KAOH AOH20160608013511206/08/16 01:35:31  5-MIN KAOH 080635Z AUTO 31011KT 10SM OVC065 12/09 A2987 1020 80 1000 320/11 RMK AO2 T01220089
04850KAOH AOH20160608014011206/08/16 01:40:31  5-MIN KAOH 080640Z AUTO 31010KT 10SM OVC065 12/08 A2987 1020 77 1000 320/10 RMK AO2 T01220083
04850KAOH AOH20160608014511206/08/16 01:45:31  5-MIN KAOH 080645Z AUTO 31009KT 10SM BKN065 12/08 A2987 1020 77 1000 320/09 RMK AO2 T01220083
04850KAOH AOH20160608015011806/08/16 01:50:31  5-MIN KAOH 080650Z AUTO 31008KT 10SM BKN065 12/09 A2988 1020 83 900 310/08 RMK AO2 SLP115 T01170089
04850KAOH AOH20160608015511106/08/16 01:55:31  5-MIN KAOH 080655Z AUTO 30008KT 10SM BKN065 12/09 A2988 1020 83 900 300/08 RMK AO2 T01170089
04850KAOH AOH20160608020011106/08/16 02:00:31  5-MIN KAOH 080700Z AUTO 30009KT 10SM BKN065 12/08 A2988 1010 80 900 300/09 RMK AO2 T01170083
04850KAOH AOH20160608020511106/08/16 02:05:31  5-MIN KAOH 080705Z AUTO 29007KT 10SM SCT065 12/08 A2988 1010 80 900 290/07 RMK AO2 T01170083
04850KAOH AOH20160608021011106/08/16 02:10:31  5-MIN KAOH 080710Z AUTO 29007KT 10SM FEW060 12/08 A2988 1010 80 900 300/07 RMK AO2 T01170083
04850KAOH AOH20160608021511106/08/16 02:15:31  5-MIN KAOH 080715Z AUTO 29008KT 10SM FEW060 12/08 A2989 1010 80 900 300/08 RMK AO2 T01170083
04850KAOH AOH20160608022010806/08/16 02:20:31  5-MIN KAOH 080720Z AUTO 30007KT 10SM CLR 11/08 A2989 1010 83 800 310/07 RMK AO2 T01110083
04850KAOH AOH20160608022510806/08/16 02:25:31  5-MIN KAOH 080725Z AUTO 30008KT 10SM CLR 11/08 A2989 1000 83 800 310/08 RMK AO2 T01110083
04850KAOH AOH20160608023010806/08/16 02:30:31  5-MIN KAOH 080730Z AUTO 30007KT 10SM CLR 11/08 A2989 1000 83 800 300/07 RMK AO2 T01110083
04850KAOH AOH20160608023510806/08/16 02:35:31  5-MIN KAOH 080735Z AUTO 30007KT 10SM CLR 11/08 A2990 1000 83 800 310/07 RMK AO2 T01110083
04850KAOH AOH20160608024010806/08/16 02:40:31  5-MIN KAOH 080740Z AUTO 30007KT 10SM CLR 11/08 A2990 1000 83 800 310/07 RMK AO2 T01110083
04850KAOH AOH20160608024510806/08/16 02:45:31  5-MIN KAOH 080745Z AUTO 30008KT 10SM CLR 11/08 A2990 1000 83 800 310/08 RMK AO2 T01110083
04850KAOH AOH20160608025011506/08/16 02:50:31  5-MIN KAOH 080750Z AUTO 31007KT 10SM CLR 11/08 A2990 1000 83 800 310/07 RMK AO2 SLP124 T01110083
04850KAOH AOH20160608025510706/08/16 02:55:31  5-MIN KAOH 080755Z AUTO 30007KT 10SM CLR 11/08 A2990 990 86 700 310/07 RMK AO2 T01060083
04850KAOH AOH20160608030010806/08/16 03:00:31  5-MIN KAOH 080800Z AUTO 30007KT 10SM CLR 11/08 A2990 1000 86 700 310/07 RMK AO2 T01060083
04850KAOH AOH20160608030510806/08/16 03:05:31  5-MIN KAOH 080805Z AUTO 31007KT 10SM CLR 11/08 A2990 1000 86 700 310/07 RMK AO2 T01060083
04850KAOH AOH20160608031010806/08/16 03:10:31  5-MIN KAOH 080810Z AUTO 31006KT 10SM CLR 11/08 A2990 1000 86 700 310/06 RMK AO2 T01060083
04850KAOH AOH20160608031510806/08/16 03:15:31  5-MIN KAOH 080815Z AUTO 29006KT 10SM CLR 11/08 A2989 1000 86 800 300/06 RMK AO2 T01060083
04850KAOH AOH20160608032010806/08/16 03:20:31  5-MIN KAOH 080820Z AUTO 29005KT 10SM CLR 11/08 A2989 1010 86 800 300/05 RMK AO2 T01060083
04850KAOH AOH20160608032510806/08/16 03:25:31  5-MIN KAOH 080825Z AUTO 30005KT 10SM CLR 10/08 A2989 1000 89 700 300/05 RMK AO2 T01000083
04850KAOH AOH20160608033010806/08/16 03:30:31  5-MIN KAOH 080830Z AUTO 30006KT 10SM CLR 10/08 A2990 1000 89 700 310/06 RMK AO2 T01000083
04850KAOH AOH20160608033510806/08/16 03:35:31  5-MIN KAOH 080835Z AUTO 30006KT 10SM CLR 10/08 A2990 1000 89 700 300/06 RMK AO2 T01000083
04850KAOH AOH20160608034010806/08/16 03:40:31  5-MIN KAOH 080840Z AUTO 30005KT 10SM CLR 10/08 A2990 1000 89 700 300/05 RMK AO2 T01000083
04850KAOH AOH20160608034510706/08/16 03:45:31  5-MIN KAOH 080845Z AUTO 30006KT 10SM CLR 10/08 A2990 990 89 700 310/06 RMK AO2 T01000083
04850KAOH AOH20160608035012006/08/16 03:50:31  5-MIN KAOH 080850Z AUTO 30005KT 10SM CLR 10/08 A2990 990 89 700 310/05 RMK AO2 SLP126 T01000083 56003
04850KAOH AOH20160608035510706/08/16 03:55:31  5-MIN KAOH 080855Z AUTO 30005KT 10SM CLR 10/08 A2991 990 86 700 310/05 RMK AO2 T01000078
04850KAOH AOH20160608040010706/08/16 04:00:31  5-MIN KAOH 080900Z AUTO 31005KT 10SM CLR 09/08 A2991 990 89 600 310/05 RMK AO2 T00940078
04850KAOH AOH20160608040510706/08/16 04:05:31  5-MIN KAOH 080905Z AUTO 31005KT 10SM CLR 09/08 A2991 980 89 600 320/05 RMK AO2 T00940078
04850KAOH AOH20160608041010706/08/16 04:10:31  5-MIN KAOH 080910Z AUTO 31005KT 10SM CLR 09/08 A2991 980 89 600 320/05 RMK AO2 T00940078
04850KAOH AOH20160608041510706/08/16 04:15:31  5-MIN KAOH 080915Z AUTO 31006KT 10SM CLR 09/08 A2991 980 89 600 320/06 RMK AO2 T00940078
04850KAOH AOH20160608042010706/08/16 04:20:31  5-MIN KAOH 080920Z AUTO 32007KT 10SM CLR 10/08 A2992 980 86 700 320/07 RMK AO2 T01000078
04850KAOH AOH20160608042510706/08/16 04:25:31  5-MIN KAOH 080925Z AUTO 30005KT 10SM CLR 10/08 A2991 990 89 700 310/05 RMK AO2 T01000083
04850KAOH AOH20160608043010706/08/16 04:30:31  5-MIN KAOH 080930Z AUTO 30005KT 10SM CLR 09/08 A2992 980 89 600 300/05 RMK AO2 T00940078
04850KAOH AOH20160608043510706/08/16 04:35:31  5-MIN KAOH 080935Z AUTO 29006KT 10SM CLR 09/08 A2992 980 89 600 300/06 RMK AO2 T00940078
04850KAOH AOH20160608044010706/08/16 04:40:31  5-MIN KAOH 080940Z AUTO 29006KT 10SM CLR 09/08 A2992 980 89 600 300/06 RMK AO2 T00940078
04850KAOH AOH20160608044510706/08/16 04:45:31  5-MIN KAOH 080945Z AUTO 30006KT 10SM CLR 09/08 A2992 980 89 600 300/06 RMK AO2 T00940078
04850KAOH AOH20160608045011406/08/16 04:50:31  5-MIN KAOH 080950Z AUTO 30005KT 10SM CLR 09/08 A2992 970 89 600 310/05 RMK AO2 SLP133 T00940078
04850KAOH AOH20160608045510706/08/16 04:55:31  5-MIN KAOH 080955Z AUTO 31006KT 10SM CLR 09/08 A2992 970 89 600 310/06 RMK AO2 T00940078
04850KAOH AOH20160608050010706/08/16 05:00:31  5-MIN KAOH 081000Z AUTO 31006KT 10SM CLR 09/08 A2993 970 89 600 320/06 RMK AO2 T00940078
04850KAOH AOH20160608050510706/08/16 05:05:31  5-MIN KAOH 081005Z AUTO 31006KT 10SM CLR 09/08 A2993 970 89 600 320/06 RMK AO2 T00940078
04850KAOH AOH20160608051010706/08/16 05:10:31  5-MIN KAOH 081010Z AUTO 31007KT 10SM CLR 09/08 A2993 970 89 600 320/07 RMK AO2 T00940078
04850KAOH AOH20160608051510706/08/16 05:15:31  5-MIN KAOH 081015Z AUTO 31006KT 10SM CLR 09/08 A2993 970 89 600 320/06 RMK AO2 T00940078
04850KAOH AOH20160608052010706/08/16 05:20:31  5-MIN KAOH 081020Z AUTO 31006KT 10SM CLR 09/08 A2993 970 89 600 310/06 RMK AO2 T00940078
04850KAOH AOH20160608052510706/08/16 05:25:31  5-MIN KAOH 081025Z AUTO 31007KT 10SM CLR 10/08 A2994 960 86 600 310/07 RMK AO2 T01000078
04850KAOH AOH20160608053010706/08/16 05:30:31  5-MIN KAOH 081030Z AUTO 31007KT 10SM CLR 10/08 A2994 960 89 600 310/07 RMK AO2 T01000083
04850KAOH AOH20160608053510706/08/16 05:35:31  5-MIN KAOH 081035Z AUTO 31007KT 10SM CLR 10/08 A2994 960 89 600 320/07 RMK AO2 T01000083
04850KAOH AOH20160608054010706/08/16 05:40:31  5-MIN KAOH 081040Z AUTO 31007KT 10SM CLR 10/08 A2995 950 89 600 320/07 RMK AO2 T01000083
04850KAOH AOH20160608054510706/08/16 05:45:31  5-MIN KAOH 081045Z AUTO 32007KT 10SM CLR 10/08 A2995 950 89 600 320/07 RMK AO2 T01000083
04850KAOH AOH20160608055011406/08/16 05:50:31  5-MIN KAOH 081050Z AUTO 31006KT 10SM CLR 11/08 A2995 950 86 700 310/06 RMK AO2 SLP141 T01060083
04850KAOH AOH20160608055510706/08/16 05:55:31  5-MIN KAOH 081055Z AUTO 31007KT 10SM CLR 11/08 A2995 950 86 700 310/07 RMK AO2 T01060083
04850KAOH AOH20160608060010706/08/16 06:00:31  5-MIN KAOH 081100Z AUTO 30007KT 10SM CLR 11/08 A2995 950 86 700 310/07 RMK AO2 T01060083
04850KAOH AOH20160608060510706/08/16 06:05:31  5-MIN KAOH 081105Z AUTO 30007KT 10SM CLR 11/08 A2995 950 86 700 310/07 RMK AO2 T01060083
04850KAOH AOH20160608061010706/08/16 06:10:31  5-MIN KAOH 081110Z AUTO 30008KT 10SM CLR 11/08 A2996 940 86 700 310/08 RMK AO2 T01060083
04850KAOH AOH20160608061510706/08/16 06:15:31  5-MIN KAOH 081115Z AUTO 31008KT 10SM CLR 11/09 A2996 940 86 700 320/08 RMK AO2 T01110089
04850KAOH AOH20160608062010706/08/16 06:20:31  5-MIN KAOH 081120Z AUTO 31007KT 10SM CLR 11/09 A2996 940 86 700 310/07 RMK AO2 T01110089
04850KAOH AOH20160608062511006/08/16 06:25:31  5-MIN KAOH 081125Z AUTO 31008KT 10SM FEW090 11/09 A2996 940 86 700 320/08 RMK AO2 T01110089
04850KAOH AOH20160608063011006/08/16 06:30:31  5-MIN KAOH 081130Z AUTO 31008KT 10SM FEW090 11/09 A2996 940 86 700 320/08 RMK AO2 T01110089
04850KAOH AOH20160608063511706/08/16 06:35:31  5-MIN KAOH 081135Z AUTO 31007KT 10SM FEW075 FEW090 12/09 A2996 940 83 800 320/07 RMK AO2 T01170089
04850KAOH AOH20160608064011006/08/16 06:40:31  5-MIN KAOH 081140Z AUTO 31007KT 10SM SCT080 12/09 A2996 940 83 800 310/07 RMK AO2 T01170089
04850KAOH AOH20160608064511006/08/16 06:45:31  5-MIN KAOH 081145Z AUTO 31007KT 10SM SCT080 12/09 A2996 940 83 800 310/07 RMK AO2 T01170089
04850KAOH AOH20160608065013506/08/16 06:50:31  5-MIN KAOH 081150Z AUTO 32008KT 10SM FEW080 12/09 A2996 940 83 800 320/08 RMK AO2 SLP145 T01170089 10128 20094 51012
04850KAOH AOH20160608065511006/08/16 06:55:31  5-MIN KAOH 081155Z AUTO 31008KT 10SM FEW080 12/09 A2997 930 80 900 320/08 RMK AO2 T01220089
04850KAOH AOH20160608070011006/08/16 07:00:31  5-MIN KAOH 081200Z AUTO 31008KT 10SM FEW080 12/09 A2997 930 80 900 320/08 RMK AO2 T01220089
04850KAOH AOH20160608070511006/08/16 07:05:31  5-MIN KAOH 081205Z AUTO 31008KT 10SM FEW080 12/09 A2997 930 80 900 320/08 RMK AO2 T01220089
04850KAOH AOH20160608071011006/08/16 07:10:31  5-MIN KAOH 081210Z AUTO 32007KT 10SM FEW055 12/09 A2997 930 80 900 320/07 RMK AO2 T01220089
04850KAOH AOH20160608071511006/08/16 07:15:31  5-MIN KAOH 081215Z AUTO 30009KT 10SM FEW055 13/09 A2998 920 77 900 300/09 RMK AO2 T01280089
04850KAOH AOH20160608072011006/08/16 07:20:31  5-MIN KAOH 081220Z AUTO 31008KT 10SM SCT055 13/09 A2998 920 77 900 310/08 RMK AO2 T01280089
04850KAOH AOH20160608072511006/08/16 07:25:31  5-MIN KAOH 081225Z AUTO 31007KT 10SM FEW055 13/08 A2998 920 74 900 310/07 RMK AO2 T01280083
04850KAOH AOH20160608073011006/08/16 07:30:31  5-MIN KAOH 081230Z AUTO 30007KT 10SM FEW055 13/09 A2998 920 77 900 310/07 RMK AO2 T01280089
04850KAOH AOH20160608073511106/08/16 07:35:31  5-MIN KAOH 081235Z AUTO 31008KT 10SM FEW055 13/08 A2998 920 71 1000 320/08 RMK AO2 T01330083
04850KAOH AOH20160608074011106/08/16 07:40:31  5-MIN KAOH 081240Z AUTO 31009KT 10SM FEW055 13/08 A2999 920 71 1000 310/09 RMK AO2 T01330083
04850KAOH AOH20160608074510806/08/16 07:45:31  5-MIN KAOH 081245Z AUTO 32009KT 10SM CLR 13/08 A2999 920 71 1000 320/09 RMK AO2 T01330083
04850KAOH AOH20160608075011506/08/16 07:50:31  5-MIN KAOH 081250Z AUTO 31009KT 10SM CLR 13/08 A2999 920 71 1000 320/09 RMK AO2 SLP153 T01330083
04850KAOH AOH20160608075510806/08/16 07:55:31  5-MIN KAOH 081255Z AUTO 31008KT 10SM CLR 14/08 A2999 920 66 1000 320/08 RMK AO2 T01390078
04850KAOH AOH20160608080010806/08/16 08:00:31  5-MIN KAOH 081300Z AUTO 32008KT 10SM CLR 14/08 A2999 910 66 1000 330/08 RMK AO2 T01390078
04850KAOH AOH20160608080510806/08/16 08:05:31  5-MIN KAOH 081305Z AUTO 30009KT 10SM CLR 14/08 A2999 910 69 1000 310/09 RMK AO2 T01390083
04850KAOH AOH20160608081010806/08/16 08:10:31  5-MIN KAOH 081310Z AUTO 30009KT 10SM CLR 14/08 A2999 910 66 1100 300/09 RMK AO2 T01440083
04850KAOH AOH20160608081510806/08/16 08:15:31  5-MIN KAOH 081315Z AUTO 31011KT 10SM CLR 14/08 A2999 910 64 1100 310/11 RMK AO2 T01440078
04850KAOH AOH20160608082010806/08/16 08:20:31  5-MIN KAOH 081320Z AUTO 31011KT 10SM CLR 14/07 A2999 910 61 1100 310/11 RMK AO2 T01440072
04850KAOH AOH20160608082510806/08/16 08:25:31  5-MIN KAOH 081325Z AUTO 31011KT 10SM CLR 14/07 A2999 910 61 1100 320/11 RMK AO2 T01440072
04850KAOH AOH20160608083010806/08/16 08:30:31  5-MIN KAOH 081330Z AUTO 32010KT 10SM CLR 14/07 A3000 910 61 1100 320/10 RMK AO2 T01440072
04850KAOH AOH20160608083510806/08/16 08:35:31  5-MIN KAOH 081335Z AUTO 32011KT 10SM CLR 14/07 A3000 900 57 1200 320/09 RMK AO2 T01500067
04850KAOH AOH20160608084510806/08/16 08:45:31  5-MIN KAOH 081345Z AUTO 30010KT 10SM CLR 15/07 A3000 900 57 1200 310/10 RMK AO2 T01500067
04850KAOH AOH20160608085011506/08/16 08:50:31  5-MIN KAOH 081350Z AUTO 32011KT 10SM CLR 15/06 A3000 900 55 1200 330/11 RMK AO2 SLP158 T01500061
04850KAOH AOH20160608090010806/08/16 09:00:31  5-MIN KAOH 081400Z AUTO 30009KT 10SM CLR 15/07 A3000 900 57 1200 310/09 RMK AO2 T01500067
04850KAOH AOH20160608090510806/08/16 09:05:31  5-MIN KAOH 081405Z AUTO 33008KT 10SM CLR 16/07 A3000 900 57 1200 330/08 RMK AO2 T01560072
04850KAOH AOH20160608091010806/08/16 09:10:31  5-MIN KAOH 081410Z AUTO 31009KT 10SM CLR 15/07 A3000 900 57 1200 320/09 RMK AO2 T01500067
04850KAOH AOH20160608091510806/08/16 09:15:31  5-MIN KAOH 081415Z AUTO 31010KT 10SM CLR 16/07 A3000 900 55 1200 320/10 RMK AO2 T01560067
04850KAOH AOH20160608092011106/08/16 09:20:31  5-MIN KAOH 081420Z AUTO 33010KT 10SM FEW034 16/07 A3000 900 55 1200 330/10 RMK AO2 T01560067
04850KAOH AOH20160608092511706/08/16 09:25:31  5-MIN KAOH 081425Z AUTO 29011G16KT 10SM FEW034 16/07 A3000 900 55 1200 290/11G16 RMK AO2 T01560067
04850KAOH AOH20160608093011106/08/16 09:30:31  5-MIN KAOH 081430Z AUTO 29010KT 10SM FEW035 16/07 A3000 900 55 1300 300/10 RMK AO2 T01610072
04850KAOH AOH20160608093511106/08/16 09:35:31  5-MIN KAOH 081435Z AUTO 31008KT 10SM SCT035 16/07 A3000 900 55 1300 310/08 RMK AO2 T01610072
04850KAOH AOH20160608094011706/08/16 09:40:31  5-MIN KAOH 081440Z AUTO 30011G16KT 10SM FEW035 17/07 A3000 900 53 1300 310/11G16 RMK AO2 T01670072
04850KAOH AOH20160608094511106/08/16 09:45:31  5-MIN KAOH 081445Z AUTO 33011KT 10SM FEW036 16/07 A3000 900 55 1300 330/11 RMK AO2 T01610072
04850KAOH AOH20160608095013006/08/16 09:50:31  5-MIN KAOH 081450Z AUTO 32012G18KT 10SM FEW039 17/07 A3000 900 53 1300 330/12G18 RMK AO2 SLP157 T01670072 51021
04850KAOH AOH20160608095511706/08/16 09:55:31  5-MIN KAOH 081455Z AUTO 32010G18KT 10SM SCT039 17/07 A3000 900 53 1300 320/10G18 RMK AO2 T01670072
04850KAOH AOH20160608100011706/08/16 10:00:31  5-MIN KAOH 081500Z AUTO 32009G17KT 10SM FEW039 17/07 A3000 910 53 1400 330/09G17 RMK AO2 T01670072
04850KAOH AOH20160608100511706/08/16 10:05:31  5-MIN KAOH 081505Z AUTO 31010G17KT 10SM SCT039 16/07 A3000 910 55 1300 310/10G17 RMK AO2 T01610072
04850KAOH AOH20160608101011106/08/16 10:10:31  5-MIN KAOH 081510Z AUTO 29013KT 10SM SCT040 17/08 A3000 910 53 1400 290/13 RMK AO2 T01720078
04850KAOH AOH20160608101507206/08/16 10:15:31  5-MIN KAOH 081515Z AUTO 31011G21KT 10SM SCT040 17/07 
04850KAOH AOH20160608102011706/08/16 10:20:31  5-MIN KAOH 081520Z AUTO 30014G21KT 10SM SCT040 18/07 A3000 910 49 1500 300/14G21 RMK AO2 T01780072
04850KAOH AOH20160608102507506/08/16 10:25:31  5-MIN KAOH 081525Z AUTO 29012KT 10SM SCT040 17/07 A3000 
04850KAOH AOH20160608103012406/08/16 10:30:31  5-MIN KAOH 081530Z AUTO 32014G20KT 10SM SCT040 BKN048 17/07 A3000 910 51 1400 330/14G20 RMK AO2 T01720072
04850KAOH AOH20160608103512406/08/16 10:35:31  5-MIN KAOH 081535Z AUTO 31014G21KT 10SM SCT040 BKN050 18/07 A2999 910 48 1500 320/14G21 RMK AO2 T01780067
04850KAOH AOH20160608104011806/08/16 10:40:31  5-MIN KAOH 081540Z AUTO 31014KT 10SM SCT040 SCT050 18/07 A2999 910 48 1500 320/14 RMK AO2 T01780067
04850KAOH AOH20160608104512406/08/16 10:45:31  5-MIN KAOH 081545Z AUTO 30013G20KT 10SM SCT042 BKN050 18/07 A2999 910 48 1600 310/13G20 RMK AO2 T01830072
04850KAOH AOH20160608105013106/08/16 10:50:31  5-MIN KAOH 081550Z AUTO 31014G18KT 10SM SCT044 BKN055 18/07 A2999 910 48 1500 320/14G18 RMK AO2 SLP154 T01780067
04850KAOH AOH20160608105511706/08/16 10:55:31  5-MIN KAOH 081555Z AUTO 29014G20KT 10SM SCT044 18/07 A2999 910 49 1500 300/14G20 RMK AO2 T01780072
04850KAOH AOH20160608110011706/08/16 11:00:31  5-MIN KAOH 081600Z AUTO 31014G20KT 10SM BKN046 18/07 A2999 910 49 1500 320/14G20 RMK AO2 T01780072
04850KAOH AOH20160608110511806/08/16 11:05:31  5-MIN KAOH 081605Z AUTO 32013KT 10SM SCT046 SCT050 18/07 A2999 910 48 1600 320/13 RMK AO2 T01830072
04850KAOH AOH20160608111011106/08/16 11:10:31  5-MIN KAOH 081610Z AUTO 30014KT 10SM SCT047 19/07 A2999 910 44 1600 310/14 RMK AO2 T01890067
04850KAOH AOH20160608111511706/08/16 11:15:31  5-MIN KAOH 081615Z AUTO 31013G19KT 10SM SCT045 18/06 A2998 920 44 1600 320/13G19 RMK AO2 T01830061
04850KAOH AOH20160608112011106/08/16 11:20:31  5-MIN KAOH 081620Z AUTO 31015KT 10SM BKN045 18/06 A2999 920 46 1500 310/15 RMK AO2 T01780061
04850KAOH AOH20160608112511106/08/16 11:25:31  5-MIN KAOH 081625Z AUTO 31014KT 10SM BKN046 18/06 A2999 920 44 1600 310/14 RMK AO2 T01830061
04850KAOH AOH20160608113011106/08/16 11:30:31  5-MIN KAOH 081630Z AUTO 31014KT 10SM SCT046 19/07 A2999 910 44 1600 310/14 RMK AO2 T01890067
04850KAOH AOH20160608113511106/08/16 11:35:31  5-MIN KAOH 081635Z AUTO 31011KT 10SM SCT046 19/07 A2999 920 44 1600 320/11 RMK AO2 T01890067
04850KAOH AOH20160608114011106/08/16 11:40:31  5-MIN KAOH 081640Z AUTO 30016KT 10SM SCT046 19/07 A2999 920 44 1600 310/16 RMK AO2 T01890067
04850KAOH AOH20160608114511106/08/16 11:45:31  5-MIN KAOH 081645Z AUTO 30012KT 10SM SCT046 19/06 A2999 920 43 1600 310/12 RMK AO2 T01890061
04850KAOH AOH20160608115012406/08/16 11:50:31  5-MIN KAOH 081650Z AUTO 32013G20KT 10SM FEW046 19/06 A2999 920 43 1600 330/13G20 RMK AO2 SLP152 T01890061
04850KAOH AOH20160608115513306/08/16 11:55:31  5-MIN KAOH 081655Z AUTO 29011G20KT 270V340 10SM FEW046 19/06 A2999 920 43 1600 300/11G20 280V350 RMK AO2 T01890061
04850KAOH AOH20160608120011706/08/16 12:00:31  5-MIN KAOH 081700Z AUTO 29014G22KT 10SM FEW047 19/06 A2999 920 43 1600 290/14G22 RMK AO2 T01890061
04850KAOH AOH20160608120511406/08/16 12:05:31  5-MIN KAOH 081705Z AUTO 33009G22KT 10SM CLR 19/07 A2999 920 43 1700 340/09G22 RMK AO2 T01940067
04850KAOH AOH20160608121011406/08/16 12:10:31  5-MIN KAOH 081710Z AUTO 32015G19KT 10SM CLR 20/07 A2999 920 41 1800 330/15G19 RMK AO2 T02000067
04850KAOH AOH20160608121511406/08/16 12:15:31  5-MIN KAOH 081715Z AUTO 31011G19KT 10SM CLR 19/06 A2999 920 41 1700 310/11G19 RMK AO2 T01940061
04850KAOH AOH20160608122010806/08/16 12:20:31  5-MIN KAOH 081720Z AUTO 32011KT 10SM CLR 19/06 A2998 920 43 1600 330/11 RMK AO2 T01890061
04850KAOH AOH20160608122511406/08/16 12:25:31  5-MIN KAOH 081725Z AUTO 31013G19KT 10SM CLR 19/06 A2998 920 40 1700 310/13G19 RMK AO2 T01940056
04850KAOH AOH20160608123011406/08/16 12:30:31  5-MIN KAOH 081730Z AUTO 32009G19KT 10SM CLR 19/06 A2998 920 40 1700 330/09G19 RMK AO2 T01940056
04850KAOH AOH20160608123511406/08/16 12:35:31  5-MIN KAOH 081735Z AUTO 32011G18KT 10SM CLR 19/06 A2998 920 41 1700 330/11G18 RMK AO2 T01940061
04850KAOH AOH20160608124011406/08/16 12:40:31  5-MIN KAOH 081740Z AUTO 29015G19KT 10SM CLR 20/06 A2998 920 38 1800 290/15G19 RMK AO2 T02000056
04850KAOH AOH20160608124511706/08/16 12:45:31  5-MIN KAOH 081745Z AUTO 28014G20KT 10SM FEW055 20/06 A2999 920 40 1800 290/14G20 RMK AO2 T02000061
04850KAOH AOH20160608125014206/08/16 12:50:31  5-MIN KAOH 081750Z AUTO 27011G20KT 10SM FEW055 20/06 A2999 920 40 1800 280/11G20 RMK AO2 SLP152 T02000061 10206 20117 51012
04850KAOH AOH20160608125511706/08/16 12:55:31  5-MIN KAOH 081755Z AUTO 31017G23KT 10SM FEW055 21/06 A2999 920 37 1800 320/17G23 RMK AO2 T02060056
04850KAOH AOH20160608130011706/08/16 13:00:31  5-MIN KAOH 081800Z AUTO 29009G23KT 10SM FEW055 20/05 A2999 920 37 1800 290/09G23 RMK AO2 T02000050
04850KAOH AOH20160608130511706/08/16 13:05:31  5-MIN KAOH 081805Z AUTO 30014G18KT 10SM FEW055 21/06 A2998 920 38 1800 310/14G18 RMK AO2 T02060061
04850KAOH AOH20160608131011106/08/16 13:10:31  5-MIN KAOH 081810Z AUTO 31016KT 10SM FEW055 21/05 A2998 920 35 1800 310/16 RMK AO2 T02060050
04850KAOH AOH20160608131511706/08/16 13:15:31  5-MIN KAOH 081815Z AUTO 30013G21KT 10SM FEW055 21/06 A2998 920 37 1800 310/13G21 RMK AO2 T02060056
04850KAOH AOH20160608132011706/08/16 13:20:31  5-MIN KAOH 081820Z AUTO 30013G21KT 10SM FEW055 21/06 A2998 920 38 1800 300/13G21 RMK AO2 T02060061
04850KAOH AOH20160608183010806/08/16 18:30:31  5-MIN KAOH 082330Z AUTO 31012KT 10SM CLR 22/04 A2996 940 31 2000 320/12 RMK AO2 T02170039
04850KAOH AOH20160608183510806/08/16 18:35:31  5-MIN KAOH 082335Z AUTO 32010KT 10SM CLR 22/04 A2997 940 31 2000 330/10 RMK AO2 T02170039
04850KAOH AOH20160608184010806/08/16 18:40:31  5-MIN KAOH 082340Z AUTO 30013KT 10SM CLR 22/04 A2997 940 31 2000 310/13 RMK AO2 T02170039
04850KAOH AOH20160608184510806/08/16 18:45:31  5-MIN KAOH 082345Z AUTO 31010KT 10SM CLR 22/03 A2997 930 29 2000 310/10 RMK AO2 T02170033
04850KAOH AOH20160608185013306/08/16 18:50:31  5-MIN KAOH 082350Z AUTO 32010KT 10SM CLR 22/04 A2997 930 31 2000 330/10 RMK AO2 SLP145 T02170039 10228 20200 58007
04850KAOH AOH20160608185511406/08/16 18:55:31  5-MIN KAOH 082355Z AUTO 31014G19KT 10SM CLR 21/03 A2997 930 30 1900 320/14G19 RMK AO2 T02110033
04850KAOH AOH20160608190011406/08/16 19:00:31  5-MIN KAOH 090000Z AUTO 30012G19KT 10SM CLR 21/03 A2997 930 30 1900 310/12G19 RMK AO2 T02110033
04850KAOH AOH20160608190510806/08/16 19:05:31  5-MIN KAOH 090005Z AUTO 32009KT 10SM CLR 21/03 A2997 930 30 1900 330/09 RMK AO2 T02110033
04850KAOH AOH20160608191010806/08/16 19:10:31  5-MIN KAOH 090010Z AUTO 32012KT 10SM CLR 21/03 A2997 930 30 1900 330/12 RMK AO2 T02110033
04850KAOH AOH20160608191510806/08/16 19:15:31  5-MIN KAOH 090015Z AUTO 32010KT 10SM CLR 21/04 A2997 930 32 1900 320/10 RMK AO2 T02110039
04850KAOH AOH20160608192010806/08/16 19:20:31  5-MIN KAOH 090020Z AUTO 30010KT 10SM CLR 21/04 A2997 930 33 1800 310/10 RMK AO2 T02060039
04850KAOH AOH20160608192510806/08/16 19:25:31  5-MIN KAOH 090025Z AUTO 31009KT 10SM CLR 21/04 A2997 930 33 1800 320/09 RMK AO2 T02060039
04850KAOH AOH20160608193010806/08/16 19:30:31  5-MIN KAOH 090030Z AUTO 32012KT 10SM CLR 21/03 A2997 930 32 1800 330/12 RMK AO2 T02060033
04850KAOH AOH20160608193510806/08/16 19:35:31  5-MIN KAOH 090035Z AUTO 32012KT 10SM CLR 20/03 A2998 930 33 1800 320/12 RMK AO2 T02000033
04850KAOH AOH20160608194010806/08/16 19:40:31  5-MIN KAOH 090040Z AUTO 33010KT 10SM CLR 20/04 A2998 930 34 1800 330/10 RMK AO2 T02000039
04850KAOH AOH20160608194510806/08/16 19:45:31  5-MIN KAOH 090045Z AUTO 32008KT 10SM CLR 20/04 A2998 930 34 1800 320/08 RMK AO2 T02000039
04850KAOH AOH20160608195011506/08/16 19:50:31  5-MIN KAOH 090050Z AUTO 32011KT 10SM CLR 19/04 A2998 930 35 1700 320/11 RMK AO2 SLP148 T01940039
04850KAOH AOH20160608195510806/08/16 19:55:31  5-MIN KAOH 090055Z AUTO 31014KT 10SM CLR 19/04 A2998 930 35 1700 310/14 RMK AO2 T01940039
04850KAOH AOH20160608200010806/08/16 20:00:31  5-MIN KAOH 090100Z AUTO 32014KT 10SM CLR 19/04 A2998 930 35 1700 320/14 RMK AO2 T01940039
04850KAOH AOH20160608200510806/08/16 20:05:31  5-MIN KAOH 090105Z AUTO 31011KT 10SM CLR 19/04 A2998 920 36 1600 320/11 RMK AO2 T01890039
04850KAOH AOH20160608201010806/08/16 20:10:31  5-MIN KAOH 090110Z AUTO 32015KT 10SM CLR 19/03 A2998 920 35 1600 320/15 RMK AO2 T01890033
04850KAOH AOH20160608201510806/08/16 20:15:31  5-MIN KAOH 090115Z AUTO 32011KT 10SM CLR 18/03 A2998 920 36 1600 330/11 RMK AO2 T01830033
04850KAOH AOH20160608202010806/08/16 20:20:31  5-MIN KAOH 090120Z AUTO 32014KT 10SM CLR 18/03 A2998 920 36 1600 330/14 RMK AO2 T01830033
04850KAOH AOH20160608202510806/08/16 20:25:31  5-MIN KAOH 090125Z AUTO 32011KT 10SM CLR 18/03 A2999 920 36 1600 330/11 RMK AO2 T01830033
04850KAOH AOH20160608203010806/08/16 20:30:31  5-MIN KAOH 090130Z AUTO 32010KT 10SM CLR 18/03 A2999 920 35 1600 320/10 RMK AO2 T01830028
04850KAOH AOH20160608203510806/08/16 20:35:31  5-MIN KAOH 090135Z AUTO 31011KT 10SM CLR 18/03 A2999 910 38 1500 320/11 RMK AO2 T01780033
04850KAOH AOH20160608204010806/08/16 20:40:31  5-MIN KAOH 090140Z AUTO 31012KT 10SM CLR 18/03 A2999 910 36 1500 320/12 RMK AO2 T01780028
04850KAOH AOH20160608204510806/08/16 20:45:31  5-MIN KAOH 090145Z AUTO 31011KT 10SM CLR 18/03 A2999 910 38 1500 320/11 RMK AO2 T01780033
04850KAOH AOH20160608205011506/08/16 20:50:31  5-MIN KAOH 090150Z AUTO 31010KT 10SM CLR 17/03 A2999 910 39 1400 320/10 RMK AO2 SLP155 T01720033
04850KAOH AOH20160608205510806/08/16 20:55:31  5-MIN KAOH 090155Z AUTO 31009KT 10SM CLR 17/03 A3000 910 40 1400 320/09 RMK AO2 T01670033
04850KAOH AOH20160608210010806/08/16 21:00:31  5-MIN KAOH 090200Z AUTO 31010KT 10SM CLR 17/03 A3000 900 39 1400 320/10 RMK AO2 T01720033
04850KAOH AOH20160608210510806/08/16 21:05:31  5-MIN KAOH 090205Z AUTO 31010KT 10SM CLR 17/03 A3000 900 40 1300 320/10 RMK AO2 T01670033
04850KAOH AOH20160608211010806/08/16 21:10:31  5-MIN KAOH 090210Z AUTO 31010KT 10SM CLR 17/03 A3000 900 40 1300 310/10 RMK AO2 T01670033
04850KAOH AOH20160608211510806/08/16 21:15:31  5-MIN KAOH 090215Z AUTO 31010KT 10SM CLR 17/03 A3000 900 40 1300 310/10 RMK AO2 T01670033
04850KAOH AOH20160608212010806/08/16 21:20:31  5-MIN KAOH 090220Z AUTO 31010KT 10SM CLR 17/03 A3001 900 39 1300 310/10 RMK AO2 T01670028
04850KAOH AOH20160608212510806/08/16 21:25:31  5-MIN KAOH 090225Z AUTO 31010KT 10SM CLR 16/03 A3001 900 40 1300 310/10 RMK AO2 T01610028
04850KAOH AOH20160608213010806/08/16 21:30:31  5-MIN KAOH 090230Z AUTO 31008KT 10SM CLR 16/03 A3001 900 40 1300 310/08 RMK AO2 T01610028
04850KAOH AOH20160608213510806/08/16 21:35:31  5-MIN KAOH 090235Z AUTO 31008KT 10SM CLR 16/03 A3001 900 43 1200 320/08 RMK AO2 T01560033
04850KAOH AOH20160608214010806/08/16 21:40:31  5-MIN KAOH 090240Z AUTO 31009KT 10SM CLR 16/03 A3001 900 40 1300 320/09 RMK AO2 T01610028
04850KAOH AOH20160608214510806/08/16 21:45:31  5-MIN KAOH 090245Z AUTO 32007KT 10SM CLR 16/03 A3000 900 40 1300 320/07 RMK AO2 T01610028
04850KAOH AOH20160608215012106/08/16 21:50:31  5-MIN KAOH 090250Z AUTO 33007KT 10SM CLR 16/03 A3000 900 42 1200 330/07 RMK AO2 SLP158 T01560028 53001
04850KAOH AOH20160608215510806/08/16 21:55:31  5-MIN KAOH 090255Z AUTO 32008KT 10SM CLR 16/03 A3000 900 42 1200 330/08 RMK AO2 T01560028
04850KAOH AOH20160608220010806/08/16 22:00:31  5-MIN KAOH 090300Z AUTO 32008KT 10SM CLR 16/03 A3000 900 42 1200 330/08 RMK AO2 T01560028
04850KAOH AOH20160608220510806/08/16 22:05:31  5-MIN KAOH 090305Z AUTO 32006KT 10SM CLR 15/03 A3000 900 43 1200 320/06 RMK AO2 T01500028
04850KAOH AOH20160608221010806/08/16 22:10:31  5-MIN KAOH 090310Z AUTO 32006KT 10SM CLR 15/03 A3000 900 43 1200 330/06 RMK AO2 T01500028
04850KAOH AOH20160608221510806/08/16 22:15:31  5-MIN KAOH 090315Z AUTO 31007KT 10SM CLR 15/03 A3001 900 43 1100 310/07 RMK AO2 T01500028
04850KAOH AOH20160608222010806/08/16 22:20:31  5-MIN KAOH 090320Z AUTO 30006KT 10SM CLR 14/03 A3001 900 47 1000 300/06 RMK AO2 T01390028
04850KAOH AOH20160608222510806/08/16 22:25:31  5-MIN KAOH 090325Z AUTO 30007KT 10SM CLR 14/03 A3001 900 47 1000 300/07 RMK AO2 T01390028
04850KAOH AOH20160608223010806/08/16 22:30:31  5-MIN KAOH 090330Z AUTO 29005KT 10SM CLR 14/03 A3001 900 47 1000 300/05 RMK AO2 T01390028
04850KAOH AOH20160608223510706/08/16 22:35:31  5-MIN KAOH 090335Z AUTO 29006KT 10SM CLR 13/03 A3001 890 48 900 300/06 RMK AO2 T01330028
04850KAOH AOH20160608224010706/08/16 22:40:31  5-MIN KAOH 090340Z AUTO 29006KT 10SM CLR 13/03 A3001 890 48 900 300/06 RMK AO2 T01330028
04850KAOH AOH20160608224510706/08/16 22:45:31  5-MIN KAOH 090345Z AUTO 29005KT 10SM CLR 13/03 A3001 890 48 900 300/05 RMK AO2 T01330028
04850KAOH AOH20160608225011406/08/16 22:50:31  5-MIN KAOH 090350Z AUTO 30005KT 10SM CLR 13/03 A3001 890 50 900 300/05 RMK AO2 SLP160 T01280028
04850KAOH AOH20160608225510706/08/16 22:55:31  5-MIN KAOH 090355Z AUTO 30004KT 10SM CLR 13/03 A3001 890 48 900 310/04 RMK AO2 T01330028
04850KAOH AOH20160608230010706/08/16 23:00:31  5-MIN KAOH 090400Z AUTO 30005KT 10SM CLR 13/03 A3001 890 48 900 300/05 RMK AO2 T01330028
04850KAOH AOH20160608230510706/08/16 23:05:31  5-MIN KAOH 090405Z AUTO 29005KT 10SM CLR 12/03 A3001 890 52 800 300/05 RMK AO2 T01220028
04850KAOH AOH20160608231010706/08/16 23:10:31  5-MIN KAOH 090410Z AUTO 30006KT 10SM CLR 13/03 A3002 890 50 900 300/06 RMK AO2 T01280028
04850KAOH AOH20160608231510706/08/16 23:15:31  5-MIN KAOH 090415Z AUTO 30006KT 10SM CLR 13/03 A3002 890 50 900 300/06 RMK AO2 T01280028
04850KAOH AOH20160608232010706/08/16 23:20:31  5-MIN KAOH 090420Z AUTO 29006KT 10SM CLR 13/03 A3002 890 50 900 300/06 RMK AO2 T01280028
04850KAOH AOH20160608232510706/08/16 23:25:31  5-MIN KAOH 090425Z AUTO 29006KT 10SM CLR 12/03 A3002 890 52 800 300/06 RMK AO2 T01220028
04850KAOH AOH20160608233010706/08/16 23:30:31  5-MIN KAOH 090430Z AUTO 29005KT 10SM CLR 12/03 A3002 890 52 800 300/05 RMK AO2 T01220028
04850KAOH AOH20160608233510706/08/16 23:35:31  5-MIN KAOH 090435Z AUTO 30005KT 10SM CLR 12/03 A3002 890 52 800 300/05 RMK AO2 T01220028
04850KAOH AOH20160608234010706/08/16 23:40:31  5-MIN KAOH 090440Z AUTO 30005KT 10SM CLR 13/03 A3002 890 50 900 300/05 RMK AO2 T01280028
04850KAOH AOH20160608234510706/08/16 23:45:31  5-MIN KAOH 090445Z AUTO 29005KT 10SM CLR 12/03 A3002 890 52 800 290/05 RMK AO2 T01220028
04850KAOH AOH20160608235012406/08/16 23:50:31  5-MIN KAOH 090450Z AUTO 28004KT 10SM CLR 12/03 A3002 890 52 800 290/04 RMK AO2 SLP162 T01220028 402280094
04850KAOH AOH20160608235510706/08/16 23:55:31  5-MIN KAOH 090455Z AUTO 29004KT 10SM CLR 12/03 A3001 890 52 800 300/04 RMK AO2 T01220028
04850KAOH AOH20160609000010706/09/16 00:00:31  5-MIN KAOH 090500Z AUTO 30004KT 10SM CLR 12/03 A3002 890 54 700 310/04 RMK AO2 T01170028
04850KAOH AOH20160609000510706/09/16 00:05:31  5-MIN KAOH 090505Z AUTO 30004KT 10SM CLR 12/02 A3002 890 50 800 310/04 RMK AO2 T01220022
04850KAOH AOH20160609001010706/09/16 00:10:31  5-MIN KAOH 090510Z AUTO 29004KT 10SM CLR 13/02 A3002 890 48 900 300/04 RMK AO2 T01280022
04850KAOH AOH20160609001510706/09/16 00:15:31  5-MIN KAOH 090515Z AUTO 30004KT 10SM CLR 13/02 A3002 890 48 900 300/04 RMK AO2 T01280022
04850KAOH AOH20160609002010706/09/16 00:20:31  5-MIN KAOH 090520Z AUTO 31004KT 10SM CLR 12/02 A3002 890 50 800 310/04 RMK AO2 T01220022
04850KAOH AOH20160609002510706/09/16 00:25:31  5-MIN KAOH 090525Z AUTO 30003KT 10SM CLR 12/02 A3001 890 50 800 310/03 RMK AO2 T01220022
04850KAOH AOH20160609003010706/09/16 00:30:31  5-MIN KAOH 090530Z AUTO 30004KT 10SM CLR 13/02 A3002 890 48 900 310/04 RMK AO2 T01280022
04850KAOH AOH20160609003510706/09/16 00:35:31  5-MIN KAOH 090535Z AUTO 31004KT 10SM CLR 13/02 A3002 890 48 900 320/04 RMK AO2 T01280022
04850KAOH AOH20160609004010706/09/16 00:40:31  5-MIN KAOH 090540Z AUTO 31004KT 10SM CLR 12/03 A3002 890 54 700 320/04 RMK AO2 T01170028
04850KAOH AOH20160609004510706/09/16 00:45:31  5-MIN KAOH 090545Z AUTO 32004KT 10SM CLR 12/03 A3002 890 54 700 320/04 RMK AO2 T01170028
04850KAOH AOH20160609005013206/09/16 00:50:31  5-MIN KAOH 090550Z AUTO 32004KT 10SM CLR 12/03 A3002 890 52 800 330/04 RMK AO2 SLP163 T01220028 10217 20117 51012
04850KAOH AOH20160609005510706/09/16 00:55:31  5-MIN KAOH 090555Z AUTO 32005KT 10SM CLR 12/03 A3002 880 52 800 320/05 RMK AO2 T01220028
04850KAOH AOH20160609010010706/09/16 01:00:31  5-MIN KAOH 090600Z AUTO 30005KT 10SM CLR 12/03 A3002 880 54 700 300/05 RMK AO2 T01170028
04850KAOH AOH20160609010510706/09/16 01:05:31  5-MIN KAOH 090605Z AUTO 29005KT 10SM CLR 12/03 A3002 880 54 700 290/05 RMK AO2 T01170028
04850KAOH AOH20160609011010706/09/16 01:10:31  5-MIN KAOH 090610Z AUTO 28005KT 10SM CLR 12/03 A3002 880 54 700 290/05 RMK AO2 T01170028
04850KAOH AOH20160609011510706/09/16 01:15:31  5-MIN KAOH 090615Z AUTO 29005KT 10SM CLR 11/03 A3002 880 56 700 290/05 RMK AO2 T01110028
04850KAOH AOH20160609012010706/09/16 01:20:31  5-MIN KAOH 090620Z AUTO 29005KT 10SM CLR 11/03 A3003 880 56 700 300/05 RMK AO2 T01110028
04850KAOH AOH20160609012510706/09/16 01:25:31  5-MIN KAOH 090625Z AUTO 30005KT 10SM CLR 11/03 A3002 880 56 700 300/05 RMK AO2 T01110028
04850KAOH AOH20160609013010706/09/16 01:30:31  5-MIN KAOH 090630Z AUTO 31005KT 10SM CLR 11/03 A3002 880 61 600 320/05 RMK AO2 T01060033
04850KAOH AOH20160609013510706/09/16 01:35:31  5-MIN KAOH 090635Z AUTO 33004KT 10SM CLR 11/03 A3002 880 61 600 340/04 RMK AO2 T01060033
04850KAOH AOH20160609014010706/09/16 01:40:31  5-MIN KAOH 090640Z AUTO 33005KT 10SM CLR 11/03 A3002 880 56 700 340/05 RMK AO2 T01110028
04850KAOH AOH20160609014510706/09/16 01:45:31  5-MIN KAOH 090645Z AUTO 32004KT 10SM CLR 12/03 A3002 880 54 700 330/04 RMK AO2 T01170028
04850KAOH AOH20160609015011406/09/16 01:50:31  5-MIN KAOH 090650Z AUTO 31004KT 10SM CLR 12/03 A3002 880 54 700 320/04 RMK AO2 SLP165 T01170028
04850KAOH AOH20160609015510706/09/16 01:55:31  5-MIN KAOH 090655Z AUTO 31005KT 10SM CLR 11/03 A3002 880 56 700 320/05 RMK AO2 T01110028
04850KAOH AOH20160609020010706/09/16 02:00:31  5-MIN KAOH 090700Z AUTO 31004KT 10SM CLR 11/03 A3002 880 56 700 320/04 RMK AO2 T01110028
04850KAOH AOH20160609020510706/09/16 02:05:31  5-MIN KAOH 090705Z AUTO 32005KT 10SM CLR 11/03 A3002 880 61 600 320/05 RMK AO2 T01060033
04850KAOH AOH20160609021010706/09/16 02:10:31  5-MIN KAOH 090710Z AUTO 32005KT 10SM CLR 10/03 A3002 880 63 500 330/05 RMK AO2 T01000033
04850KAOH AOH20160609021510706/09/16 02:15:31  5-MIN KAOH 090715Z AUTO 32005KT 10SM CLR 11/03 A3003 880 61 600 330/05 RMK AO2 T01060033
04850KAOH AOH20160609022010706/09/16 02:20:31  5-MIN KAOH 090720Z AUTO 32004KT 10SM CLR 11/03 A3003 880 61 600 320/04 RMK AO2 T01060033
04850KAOH AOH20160609022510706/09/16 02:25:31  5-MIN KAOH 090725Z AUTO 30005KT 10SM CLR 11/03 A3003 880 61 600 310/05 RMK AO2 T01060033
04850KAOH AOH20160609023010706/09/16 02:30:31  5-MIN KAOH 090730Z AUTO 30005KT 10SM CLR 11/03 A3003 880 61 600 300/05 RMK AO2 T01060033
04850KAOH AOH20160609023510706/09/16 02:35:31  5-MIN KAOH 090735Z AUTO 31004KT 10SM CLR 11/03 A3003 880 61 600 310/04 RMK AO2 T01060033
04850KAOH AOH20160609024010706/09/16 02:40:31  5-MIN KAOH 090740Z AUTO 30003KT 10SM CLR 11/03 A3003 880 61 600 310/03 RMK AO2 T01060033
04850KAOH AOH20160609024510706/09/16 02:45:31  5-MIN KAOH 090745Z AUTO 29003KT 10SM CLR 11/03 A3003 880 58 700 300/03 RMK AO2 T01110033
04850KAOH AOH20160609025011406/09/16 02:50:31  5-MIN KAOH 090750Z AUTO 29003KT 10SM CLR 12/03 A3003 880 54 700 300/03 RMK AO2 SLP165 T01170028
04850KAOH AOH20160609025510706/09/16 02:55:31  5-MIN KAOH 090755Z AUTO 29003KT 10SM CLR 12/03 A3003 880 54 700 300/03 RMK AO2 T01170028
04850KAOH AOH20160609030010706/09/16 03:00:31  5-MIN KAOH 090800Z AUTO 29003KT 10SM CLR 12/03 A3003 870 54 700 300/03 RMK AO2 T01170028
04850KAOH AOH20160609030510706/09/16 03:05:31  5-MIN KAOH 090805Z AUTO 00000KT 10SM CLR 12/03 A3003 870 54 700 000/00 RMK AO2 T01170028
04850KAOH AOH20160609031010706/09/16 03:10:31  5-MIN KAOH 090810Z AUTO 00000KT 10SM CLR 11/03 A3004 870 56 700 000/00 RMK AO2 T01110028
04850KAOH AOH20160609031510706/09/16 03:15:31  5-MIN KAOH 090815Z AUTO 26003KT 10SM CLR 11/03 A3004 870 61 600 260/03 RMK AO2 T01060033
04850KAOH AOH20160609032010706/09/16 03:20:31  5-MIN KAOH 090820Z AUTO 24003KT 10SM CLR 11/03 A3004 870 61 600 250/03 RMK AO2 T01060033
04850KAOH AOH20160609032510706/09/16 03:25:31  5-MIN KAOH 090825Z AUTO 22003KT 10SM CLR 11/03 A3004 870 61 600 230/03 RMK AO2 T01060033
04850KAOH AOH20160609033010706/09/16 03:30:31  5-MIN KAOH 090830Z AUTO 22003KT 10SM CLR 10/03 A3004 870 63 500 220/03 RMK AO2 T01000033
04850KAOH AOH20160609033510706/09/16 03:35:31  5-MIN KAOH 090835Z AUTO 22003KT 10SM CLR 09/04 A3004 870 68 500 230/03 RMK AO2 T00940039
04850KAOH AOH20160609034010706/09/16 03:40:31  5-MIN KAOH 090840Z AUTO 23003KT 10SM CLR 09/04 A3003 870 68 500 240/03 RMK AO2 T00940039
04850KAOH AOH20160609034510706/09/16 03:45:31  5-MIN KAOH 090845Z AUTO 24003KT 10SM CLR 09/04 A3004 870 68 500 240/03 RMK AO2 T00940039
04850KAOH AOH20160609035012006/09/16 03:50:31  5-MIN KAOH 090850Z AUTO 23004KT 10SM CLR 10/04 A3004 870 65 500 240/04 RMK AO2 SLP170 T01000039 51005
04850KAOH AOH20160609035510706/09/16 03:55:31  5-MIN KAOH 090855Z AUTO 25004KT 10SM CLR 10/03 A3004 870 63 500 250/04 RMK AO2 T01000033
04850KAOH AOH20160609040010706/09/16 04:00:31  5-MIN KAOH 090900Z AUTO 26003KT 10SM CLR 10/03 A3005 860 63 500 270/03 RMK AO2 T01000033
04850KAOH AOH20160609040510706/09/16 04:05:31  5-MIN KAOH 090905Z AUTO 00000KT 10SM CLR 09/04 A3005 860 71 400 000/00 RMK AO2 T00890039
04850KAOH AOH20160609041010706/09/16 04:10:31  5-MIN KAOH 090910Z AUTO 00000KT 10SM CLR 09/04 A3005 860 71 400 000/00 RMK AO2 T00890039
04850KAOH AOH20160609041510706/09/16 04:15:31  5-MIN KAOH 090915Z AUTO 24003KT 10SM CLR 09/04 A3005 860 71 400 250/03 RMK AO2 T00890039
04850KAOH AOH20160609042010706/09/16 04:20:31  5-MIN KAOH 090920Z AUTO 26003KT 10SM CLR 09/04 A3005 860 71 400 270/03 RMK AO2 T00890039
04850KAOH AOH20160609042510706/09/16 04:25:31  5-MIN KAOH 090925Z AUTO 26003KT 10SM CLR 08/04 A3005 850 73 300 270/03 RMK AO2 T00830039
04850KAOH AOH20160609043010706/09/16 04:30:31  5-MIN KAOH 090930Z AUTO 00000KT 10SM CLR 08/04 A3006 850 73 300 000/00 RMK AO2 T00830039
04850KAOH AOH20160609043510706/09/16 04:35:31  5-MIN KAOH 090935Z AUTO 00000KT 10SM CLR 08/04 A3006 850 73 300 000/00 RMK AO2 T00830039
04850KAOH AOH20160609044010706/09/16 04:40:31  5-MIN KAOH 090940Z AUTO 26003KT 10SM CLR 08/04 A3006 850 73 300 270/03 RMK AO2 T00830039
04850KAOH AOH20160609044510706/09/16 04:45:31  5-MIN KAOH 090945Z AUTO 00000KT 10SM CLR 08/04 A3006 850 76 300 000/00 RMK AO2 T00830044
04850KAOH AOH20160609045011406/09/16 04:50:31  5-MIN KAOH 090950Z AUTO 00000KT 10SM CLR 08/04 A3006 850 79 200 000/00 RMK AO2 SLP179 T00780044
04850KAOH AOH20160609045510706/09/16 04:55:31  5-MIN KAOH 090955Z AUTO 00000KT 10SM CLR 08/04 A3007 840 76 300 000/00 RMK AO2 T00830044
04850KAOH AOH20160609050010706/09/16 05:00:31  5-MIN KAOH 091000Z AUTO 00000KT 10SM CLR 08/04 A3007 840 76 300 000/00 RMK AO2 T00830044
04850KAOH AOH20160609050510706/09/16 05:05:31  5-MIN KAOH 091005Z AUTO 00000KT 10SM CLR 09/04 A3007 840 73 300 000/00 RMK AO2 T00890044
04850KAOH AOH20160609051010706/09/16 05:10:31  5-MIN KAOH 091010Z AUTO 00000KT 10SM CLR 09/04 A3007 840 68 400 000/00 RMK AO2 T00940039
04850KAOH AOH20160609051510706/09/16 05:15:31  5-MIN KAOH 091015Z AUTO 00000KT 10SM CLR 10/04 A3007 840 65 500 000/00 RMK AO2 T01000039
04850KAOH AOH20160609052010706/09/16 05:20:31  5-MIN KAOH 091020Z AUTO 00000KT 10SM CLR 10/04 A3007 840 65 500 000/00 RMK AO2 T01000039
04850KAOH AOH20160609052510706/09/16 05:25:31  5-MIN KAOH 091025Z AUTO 00000KT 10SM CLR 10/04 A3008 830 65 500 000/00 RMK AO2 T01000039
04850KAOH AOH20160609053010706/09/16 05:30:31  5-MIN KAOH 091030Z AUTO 00000KT 10SM CLR 10/04 A3008 830 65 500 000/00 RMK AO2 T01000039
04850KAOH AOH20160609053510706/09/16 05:35:31  5-MIN KAOH 091035Z AUTO 00000KT 10SM CLR 10/04 A3008 830 68 500 000/00 RMK AO2 T01000044
04850KAOH AOH20160609054010706/09/16 05:40:31  5-MIN KAOH 091040Z AUTO 00000KT 10SM CLR 09/04 A3008 830 68 400 000/00 RMK AO2 T00940039
04850KAOH AOH20160609054510706/09/16 05:45:31  5-MIN KAOH 091045Z AUTO 00000KT 10SM CLR 09/04 A3008 830 73 300 000/00 RMK AO2 T00890044
04850KAOH AOH20160609055011406/09/16 05:50:31  5-MIN KAOH 091050Z AUTO 00000KT 10SM CLR 09/05 A3008 830 76 300 000/00 RMK AO2 SLP185 T00890050
04850KAOH AOH20160609055510706/09/16 05:55:31  5-MIN KAOH 091055Z AUTO 00000KT 10SM CLR 09/05 A3008 830 76 300 000/00 RMK AO2 T00890050
04850KAOH AOH20160609060010706/09/16 06:00:31  5-MIN KAOH 091100Z AUTO 00000KT 10SM CLR 09/06 A3009 820 76 400 000/00 RMK AO2 T00940056
04850KAOH AOH20160609060510706/09/16 06:05:31  5-MIN KAOH 091105Z AUTO 00000KT 10SM CLR 10/04 A3009 820 68 500 000/00 RMK AO2 T01000044
04850KAOH AOH20160609061010706/09/16 06:10:31  5-MIN KAOH 091110Z AUTO 00000KT 10SM CLR 10/05 A3009 820 71 500 000/00 RMK AO2 T01000050
04850KAOH AOH20160609061510706/09/16 06:15:31  5-MIN KAOH 091115Z AUTO 00000KT 10SM CLR 10/05 A3009 820 71 500 000/00 RMK AO2 T01000050
04850KAOH AOH20160609062010706/09/16 06:20:31  5-MIN KAOH 091120Z AUTO 00000KT 10SM CLR 10/06 A3009 820 74 500 000/00 RMK AO2 T01000056
04850KAOH AOH20160609062510706/09/16 06:25:31  5-MIN KAOH 091125Z AUTO 00000KT 10SM CLR 11/06 A3009 820 74 500 000/00 RMK AO2 T01060061
04850KAOH AOH20160609063010706/09/16 06:30:31  5-MIN KAOH 091130Z AUTO 00000KT 10SM CLR 11/06 A3009 820 71 600 000/00 RMK AO2 T01110061
04850KAOH AOH20160609063510706/09/16 06:35:31  5-MIN KAOH 091135Z AUTO 00000KT 10SM CLR 12/07 A3009 820 71 700 000/00 RMK AO2 T01170067
04850KAOH AOH20160609064010706/09/16 06:40:31  5-MIN KAOH 091140Z AUTO 00000KT 10SM CLR 12/06 A3009 820 66 700 000/00 RMK AO2 T01220061
04850KAOH AOH20160609064510706/09/16 06:45:31  5-MIN KAOH 091145Z AUTO 35003KT 10SM CLR 12/06 A3009 820 66 700 360/03 RMK AO2 T01220061
04850KAOH AOH20160609065013206/09/16 06:50:31  5-MIN KAOH 091150Z AUTO 35003KT 10SM CLR 13/06 A3009 820 63 800 350/03 RMK AO2 SLP188 T01280061 10128 20078 53007
04850KAOH AOH20160609065510706/09/16 06:55:31  5-MIN KAOH 091155Z AUTO 00000KT 10SM CLR 13/06 A3010 810 61 800 000/00 RMK AO2 T01280056
04850KAOH AOH20160609070010706/09/16 07:00:31  5-MIN KAOH 091200Z AUTO 00000KT 10SM CLR 13/06 A3010 810 59 800 000/00 RMK AO2 T01330056
04850KAOH AOH20160609070510706/09/16 07:05:31  5-MIN KAOH 091205Z AUTO 00000KT 10SM CLR 13/06 A3010 810 59 800 000/00 RMK AO2 T01330056
04850KAOH AOH20160609071010706/09/16 07:10:31  5-MIN KAOH 091210Z AUTO 00000KT 10SM CLR 14/06 A3010 810 57 900 000/00 RMK AO2 T01390056
04850KAOH AOH20160609071510706/09/16 07:15:31  5-MIN KAOH 091215Z AUTO 00000KT 10SM CLR 14/05 A3010 810 55 900 000/00 RMK AO2 T01390050
04850KAOH AOH20160609072010706/09/16 07:20:31  5-MIN KAOH 091220Z AUTO 00000KT 10SM CLR 14/05 A3010 810 55 900 000/00 RMK AO2 T01390050
04850KAOH AOH20160609072510706/09/16 07:25:31  5-MIN KAOH 091225Z AUTO 00000KT 10SM CLR 14/06 A3010 810 57 900 000/00 RMK AO2 T01390056
04850KAOH AOH20160609073010806/09/16 07:30:31  5-MIN KAOH 091230Z AUTO 00000KT 10SM CLR 14/04 A3010 810 51 1000 000/00 RMK AO2 T01440044
04850KAOH AOH20160609073510806/09/16 07:35:31  5-MIN KAOH 091235Z AUTO 00000KT 10SM CLR 15/05 A3010 810 51 1000 000/00 RMK AO2 T01500050
04850KAOH AOH20160609074010806/09/16 07:40:31  5-MIN KAOH 091240Z AUTO 00000KT 10SM CLR 15/05 A3010 810 51 1000 000/00 RMK AO2 T01500050
04850KAOH AOH20160609074510806/09/16 07:45:31  5-MIN KAOH 091245Z AUTO 00000KT 10SM CLR 15/04 A3010 810 49 1000 000/00 RMK AO2 T01500044
04850KAOH AOH20160609075011506/09/16 07:50:31  5-MIN KAOH 091250Z AUTO 00000KT 10SM CLR 15/04 A3010 810 49 1000 000/00 RMK AO2 SLP191 T01500044
04850KAOH AOH20160609075510806/09/16 07:55:31  5-MIN KAOH 091255Z AUTO 00000KT 10SM CLR 16/04 A3010 810 47 1100 000/00 RMK AO2 T01560044
04850KAOH AOH20160609080010806/09/16 08:00:31  5-MIN KAOH 091300Z AUTO 00000KT 10SM CLR 16/05 A3010 810 47 1200 000/00 RMK AO2 T01610050
04850KAOH AOH20160609080510806/09/16 08:05:31  5-MIN KAOH 091305Z AUTO 00000KT 10SM CLR 17/05 A3010 810 45 1200 000/00 RMK AO2 T01670050
04850KAOH AOH20160609081010806/09/16 08:10:31  5-MIN KAOH 091310Z AUTO 00000KT 10SM CLR 17/06 A3010 810 49 1200 000/00 RMK AO2 T01670061
04850KAOH AOH20160609081510806/09/16 08:15:31  5-MIN KAOH 091315Z AUTO 11003KT 10SM CLR 17/05 A3010 810 44 1300 120/03 RMK AO2 T01720050
04850KAOH AOH20160609082010806/09/16 08:20:31  5-MIN KAOH 091320Z AUTO 00000KT 10SM CLR 17/05 A3010 810 44 1300 000/00 RMK AO2 T01720050
04850KAOH AOH20160609082510806/09/16 08:25:31  5-MIN KAOH 091325Z AUTO 12004KT 10SM CLR 17/05 A3010 810 45 1200 120/04 RMK AO2 T01670050
04850KAOH AOH20160609083010806/09/16 08:30:31  5-MIN KAOH 091330Z AUTO VRB03KT 10SM CLR 17/05 A3011 810 45 1200 VRB/03 RMK AO2 T01670050
04850KAOH AOH20160609083510806/09/16 08:35:31  5-MIN KAOH 091335Z AUTO 00000KT 10SM CLR 17/05 A3011 810 44 1300 000/00 RMK AO2 T01720050
04850KAOH AOH20160609084010806/09/16 08:40:31  5-MIN KAOH 091340Z AUTO 00000KT 10SM CLR 17/05 A3010 810 44 1300 000/00 RMK AO2 T01720050
04850KAOH AOH20160609084510806/09/16 08:45:31  5-MIN KAOH 091345Z AUTO 00000KT 10SM CLR 17/05 A3011 810 44 1300 000/00 RMK AO2 T01720050
04850KAOH AOH20160609085011506/09/16 08:50:31  5-MIN KAOH 091350Z AUTO 10004KT 10SM CLR 18/06 A3011 810 44 1400 110/04 RMK AO2 SLP192 T01780056
04850KAOH AOH20160609085510806/09/16 08:55:31  5-MIN KAOH 091355Z AUTO 00000KT 10SM CLR 18/05 A3010 810 42 1400 000/00 RMK AO2 T01780050
04850KAOH AOH20160609090010806/09/16 09:00:31  5-MIN KAOH 091400Z AUTO 00000KT 10SM CLR 18/05 A3011 810 42 1400 000/00 RMK AO2 T01780050
04850KAOH AOH20160609090510806/09/16 09:05:31  5-MIN KAOH 091405Z AUTO 00000KT 10SM CLR 18/05 A3011 810 42 1400 000/00 RMK AO2 T01780050
04850KAOH AOH20160609091010806/09/16 09:10:31  5-MIN KAOH 091410Z AUTO 00000KT 10SM CLR 18/05 A3010 810 42 1400 000/00 RMK AO2 T01780050
04850KAOH AOH20160609091510806/09/16 09:15:31  5-MIN KAOH 091415Z AUTO 00000KT 10SM CLR 18/06 A3011 810 42 1400 000/00 RMK AO2 T01830056
04850KAOH AOH20160609092010806/09/16 09:20:31  5-MIN KAOH 091420Z AUTO 00000KT 10SM CLR 18/06 A3011 810 42 1400 000/00 RMK AO2 T01830056
04850KAOH AOH20160609092510806/09/16 09:25:31  5-MIN KAOH 091425Z AUTO 00000KT 10SM CLR 18/06 A3011 810 42 1400 000/00 RMK AO2 T01830056
04850KAOH AOH20160609093010806/09/16 09:30:31  5-MIN KAOH 091430Z AUTO VRB03KT 10SM CLR 18/04 A3010 810 39 1400 VRB/03 RMK AO2 T01830044
04850KAOH AOH20160609093510806/09/16 09:35:31  5-MIN KAOH 091435Z AUTO 02005KT 10SM CLR 18/04 A3010 810 39 1400 030/05 RMK AO2 T01830044
04850KAOH AOH20160609094010806/09/16 09:40:31  5-MIN KAOH 091440Z AUTO 34004KT 10SM CLR 18/04 A3010 810 39 1400 350/04 RMK AO2 T01830044
04850KAOH AOH20160609094510806/09/16 09:45:31  5-MIN KAOH 091445Z AUTO 00000KT 10SM CLR 18/04 A3010 810 38 1400 000/00 RMK AO2 T01830039
04850KAOH AOH20160609095012106/09/16 09:50:31  5-MIN KAOH 091450Z AUTO 00000KT 10SM CLR 18/05 A3010 810 41 1400 000/00 RMK AO2 SLP190 T01830050 51019
04850KAOH AOH20160609095510806/09/16 09:55:31  5-MIN KAOH 091455Z AUTO VRB03KT 10SM CLR 19/04 A3010 810 38 1500 VRB/03 RMK AO2 T01890044
04850KAOH AOH20160609100010806/09/16 10:00:31  5-MIN KAOH 091500Z AUTO 00000KT 10SM CLR 19/03 A3010 810 35 1500 000/00 RMK AO2 T01890033
04850KAOH AOH20160609100510806/09/16 10:05:31  5-MIN KAOH 091505Z AUTO 32004KT 10SM CLR 19/03 A3010 810 34 1600 330/04 RMK AO2 T01940033
04850KAOH AOH20160609101010806/09/16 10:10:31  5-MIN KAOH 091510Z AUTO 00000KT 10SM CLR 19/02 A3010 810 31 1600 000/00 RMK AO2 T01940022
04850KAOH AOH20160609101510806/09/16 10:15:31  5-MIN KAOH 091515Z AUTO 00000KT 10SM CLR 21/03 A3010 810 32 1700 000/00 RMK AO2 T02060033
04850KAOH AOH20160609102010806/09/16 10:20:31  5-MIN KAOH 091520Z AUTO 00000KT 10SM CLR 20/04 A3010 810 34 1600 000/00 RMK AO2 T02000039
04850KAOH AOH20160609102510806/09/16 10:25:31  5-MIN KAOH 091525Z AUTO 00000KT 10SM CLR 21/04 A3011 810 33 1700 000/00 RMK AO2 T02060039
04850KAOH AOH20160609103010806/09/16 10:30:31  5-MIN KAOH 091530Z AUTO 00000KT 10SM CLR 20/04 A3011 810 34 1600 000/00 RMK AO2 T02000039
04850KAOH AOH20160609103510806/09/16 10:35:31  5-MIN KAOH 091535Z AUTO VRB03KT 10SM CLR 20/04 A3011 810 35 1600 VRB/03 RMK AO2 T02000044
04850KAOH AOH20160609104010806/09/16 10:40:31  5-MIN KAOH 091540Z AUTO VRB03KT 10SM CLR 20/04 A3011 800 35 1600 VRB/03 RMK AO2 T02000044
04850KAOH AOH20160609104510806/09/16 10:45:31  5-MIN KAOH 091545Z AUTO 33004KT 10SM CLR 21/04 A3011 800 33 1700 330/04 RMK AO2 T02060039
04850KAOH AOH20160609105011506/09/16 10:50:31  5-MIN KAOH 091550Z AUTO 00000KT 10SM CLR 21/04 A3011 810 33 1700 000/00 RMK AO2 SLP193 T02060039
04850KAOH AOH20160609105510806/09/16 10:55:31  5-MIN KAOH 091555Z AUTO VRB03KT 10SM CLR 21/04 A3010 810 33 1800 VRB/03 RMK AO2 T02110044
04850KAOH AOH20160609110010806/09/16 11:00:31  5-MIN KAOH 091600Z AUTO VRB04KT 10SM CLR 21/04 A3010 810 33 1700 VRB/04 RMK AO2 T02060039
04850KAOH AOH20160609110510806/09/16 11:05:31  5-MIN KAOH 091605Z AUTO 20003KT 10SM CLR 21/04 A3010 810 34 1700 210/03 RMK AO2 T02060044
04850KAOH AOH20160609111010806/09/16 11:10:31  5-MIN KAOH 091610Z AUTO 00000KT 10SM CLR 21/04 A3010 810 33 1700 000/00 RMK AO2 T02110044
04850KAOH AOH20160609111510806/09/16 11:15:31  5-MIN KAOH 091615Z AUTO VRB03KT 10SM CLR 21/04 A3010 810 32 1700 VRB/03 RMK AO2 T02110039
04850KAOH AOH20160609112010806/09/16 11:20:31  5-MIN KAOH 091620Z AUTO VRB04KT 10SM CLR 21/04 A3010 810 33 1700 VRB/04 RMK AO2 T02110044
04850KAOH AOH20160609112510806/09/16 11:25:31  5-MIN KAOH 091625Z AUTO 00000KT 10SM CLR 21/04 A3010 810 34 1700 000/00 RMK AO2 T02060044
04850KAOH AOH20160609113010806/09/16 11:30:31  5-MIN KAOH 091630Z AUTO 32004KT 10SM CLR 21/05 A3010 810 34 1800 330/04 RMK AO2 T02110050
04850KAOH AOH20160609113510806/09/16 11:35:31  5-MIN KAOH 091635Z AUTO 29006KT 10SM CLR 21/06 A3010 810 36 1800 300/06 RMK AO2 T02110056
04850KAOH AOH20160609114010806/09/16 11:40:31  5-MIN KAOH 091640Z AUTO 28005KT 10SM CLR 21/06 A3010 810 36 1800 290/05 RMK AO2 T02110056
04850KAOH AOH20160609114510806/09/16 11:45:31  5-MIN KAOH 091645Z AUTO VRB04KT 10SM CLR 21/06 A3010 820 37 1800 VRB/04 RMK AO2 T02110061
04850KAOH AOH20160609115011506/09/16 11:50:31  5-MIN KAOH 091650Z AUTO 24005KT 10SM CLR 21/07 A3009 820 38 1800 250/05 RMK AO2 SLP189 T02110067
04850KAOH AOH20160609115510806/09/16 11:55:31  5-MIN KAOH 091655Z AUTO 24005KT 10SM CLR 22/07 A3009 820 39 1800 250/05 RMK AO2 T02170072
04850KAOH AOH20160609120010806/09/16 12:00:31  5-MIN KAOH 091700Z AUTO 20003KT 10SM CLR 21/07 A3009 820 40 1800 210/03 RMK AO2 T02110072
04850KAOH AOH20160609120510806/09/16 12:05:31  5-MIN KAOH 091705Z AUTO 21004KT 10SM CLR 21/07 A3009 820 40 1800 220/04 RMK AO2 T02110072
04850KAOH AOH20160609121010806/09/16 12:10:31  5-MIN KAOH 091710Z AUTO VRB04KT 10SM CLR 22/07 A3009 820 39 1800 VRB/04 RMK AO2 T02170072
04850KAOH AOH20160609121510806/09/16 12:15:31  5-MIN KAOH 091715Z AUTO 30005KT 10SM CLR 22/07 A3009 820 37 1800 310/05 RMK AO2 T02170067
04850KAOH AOH20160609122010806/09/16 12:20:31  5-MIN KAOH 091720Z AUTO 24005KT 10SM CLR 22/07 A3009 820 39 1800 250/05 RMK AO2 T02170072
04850KAOH AOH20160609122510806/09/16 12:25:31  5-MIN KAOH 091725Z AUTO 24003KT 10SM CLR 22/07 A3009 820 39 1800 250/03 RMK AO2 T02170072
04850KAOH AOH20160609123009806/09/16 12:30:31  5-MIN KAOH 091730Z AUTO 10SM CLR 22/07 A3008 830 37 1900 M /M RMK AO2 T02220072
04850KAOH AOH20160609123510806/09/16 12:35:31  5-MIN KAOH 091735Z AUTO 28006KT 10SM CLR 23/07 A3008 830 36 2000 280/06 RMK AO2 T02280072
04850KAOH AOH20160609124010806/09/16 12:40:31  5-MIN KAOH 091740Z AUTO 26007KT 10SM CLR 22/06 A3008 830 35 1900 270/07 RMK AO2 T02220061
04850KAOH AOH20160609124510806/09/16 12:45:31  5-MIN KAOH 091745Z AUTO 30008KT 10SM CLR 22/07 A3008 830 36 1900 310/08 RMK AO2 T02220067
04850KAOH AOH20160609125013306/09/16 12:50:31  5-MIN KAOH 091750Z AUTO 29009KT 10SM CLR 22/06 A3008 830 35 1900 300/09 RMK AO2 SLP183 T02220061 10228 20128 50001
04850KAOH AOH20160609125510806/09/16 12:55:31  5-MIN KAOH 091755Z AUTO 31006KT 10SM CLR 23/07 A3008 830 35 2000 310/06 RMK AO2 T02280067
04850KAOH AOH20160609130010806/09/16 13:00:31  5-MIN KAOH 091800Z AUTO 25005KT 10SM CLR 22/07 A3007 840 36 1900 260/05 RMK AO2 T02220067
04850KAOH AOH20160609130510806/09/16 13:05:31  5-MIN KAOH 091805Z AUTO 26005KT 10SM CLR 23/07 A3007 840 36 2000 270/05 RMK AO2 T02280072
04850KAOH AOH20160609131010806/09/16 13:10:31  5-MIN KAOH 091810Z AUTO 25005KT 10SM CLR 22/07 A3007 840 36 1900 250/05 RMK AO2 T02220067
04850KAOH AOH20160609131510806/09/16 13:15:31  5-MIN KAOH 091815Z AUTO 22004KT 10SM CLR 22/07 A3007 840 37 1900 230/04 RMK AO2 T02220072
04850KAOH AOH20160609132010806/09/16 13:20:31  5-MIN KAOH 091820Z AUTO 21004KT 10SM CLR 23/08 A3007 840 39 2000 210/04 RMK AO2 T02280083
04850KAOH AOH20160609132510806/09/16 13:25:31  5-MIN KAOH 091825Z AUTO VRB04KT 10SM CLR 23/07 A3007 840 36 2000 VRB/04 RMK AO2 T02280072
04850KAOH AOH20160609133010806/09/16 13:30:31  5-MIN KAOH 091830Z AUTO VRB03KT 10SM CLR 23/07 A3007 840 36 2000 VRB/03 RMK AO2 T02280072
04850KAOH AOH20160609133510806/09/16 13:35:31  5-MIN KAOH 091835Z AUTO 26007KT 10SM CLR 23/07 A3007 840 35 2000 260/07 RMK AO2 T02330072
04850KAOH AOH20160609134010806/09/16 13:40:31  5-MIN KAOH 091840Z AUTO VRB04KT 10SM CLR 23/07 A3006 850 35 2000 VRB/04 RMK AO2 T02330072
04850KAOH AOH20160609134510806/09/16 13:45:31  5-MIN KAOH 091845Z AUTO 21003KT 10SM CLR 23/08 A3006 850 37 2000 220/03 RMK AO2 T02280078
04850KAOH AOH20160609135011506/09/16 13:50:31  5-MIN KAOH 091850Z AUTO 19005KT 10SM CLR 23/08 A3005 850 36 2100 200/05 RMK AO2 SLP174 T02330078
04850KAOH AOH20160609135510806/09/16 13:55:31  5-MIN KAOH 091855Z AUTO 20007KT 10SM CLR 23/08 A3005 850 36 2100 210/07 RMK AO2 T02330078
04850KAOH AOH20160609140010806/09/16 14:00:31  5-MIN KAOH 091900Z AUTO 21006KT 10SM CLR 23/08 A3005 860 36 2100 210/06 RMK AO2 T02330078
04850KAOH AOH20160609140510806/09/16 14:05:31  5-MIN KAOH 091905Z AUTO 21006KT 10SM CLR 23/08 A3005 860 38 2100 210/06 RMK AO2 T02330083
04850KAOH AOH20160609141011106/09/16 14:10:31  5-MIN KAOH 091910Z AUTO VRB06KT 10SM FEW090 23/08 A3005 860 36 2100 VRB/06 RMK AO2 T02330078
04850KAOH AOH20160609141511106/09/16 14:15:31  5-MIN KAOH 091915Z AUTO VRB04KT 10SM FEW090 23/08 A3005 860 36 2100 VRB/04 RMK AO2 T02330078
04850KAOH AOH20160609142011106/09/16 14:20:31  5-MIN KAOH 091920Z AUTO VRB03KT 10SM FEW090 24/08 A3005 860 35 2100 VRB/03 RMK AO2 T02390078
04850KAOH AOH20160609142511106/09/16 14:25:31  5-MIN KAOH 091925Z AUTO VRB06KT 10SM FEW090 24/07 A3005 860 34 2100 VRB/06 RMK AO2 T02390072
04850KAOH AOH20160609143011106/09/16 14:30:31  5-MIN KAOH 091930Z AUTO 26007KT 10SM FEW090 24/07 A3005 860 34 2100 270/07 RMK AO2 T02390072
04850KAOH AOH20160609143511106/09/16 14:35:31  5-MIN KAOH 091935Z AUTO 25004KT 10SM FEW090 24/07 A3005 860 32 2100 260/04 RMK AO2 T02390067
04850KAOH AOH20160609144010806/09/16 14:40:31  5-MIN KAOH 091940Z AUTO VRB05KT 10SM CLR 24/07 A3005 860 32 2100 VRB/05 RMK AO2 T02390067
04850KAOH AOH20160609144510806/09/16 14:45:31  5-MIN KAOH 091945Z AUTO VRB04KT 10SM CLR 24/07 A3004 860 34 2100 VRB/04 RMK AO2 T02390072
04850KAOH AOH20160609145011806/09/16 14:50:31  5-MIN KAOH 091950Z AUTO 26004KT 10SM FEW090 24/07 A3004 870 34 2100 260/04 RMK AO2 SLP170 T02390072
04850KAOH AOH20160609145511106/09/16 14:55:31  5-MIN KAOH 091955Z AUTO 27005KT 10SM SCT090 24/07 A3004 870 32 2100 270/05 RMK AO2 T02390067
04850KAOH AOH20160609150011106/09/16 15:00:31  5-MIN KAOH 092000Z AUTO VRB04KT 10SM SCT090 24/07 A3004 870 32 2100 VRB/04 RMK AO2 T02390067
04850KAOH AOH20160609150511106/09/16 15:05:31  5-MIN KAOH 092005Z AUTO 24006KT 10SM SCT090 24/07 A3004 870 34 2100 240/06 RMK AO2 T02390072
04850KAOH AOH20160609151011106/09/16 15:10:31  5-MIN KAOH 092010Z AUTO 18006KT 10SM SCT090 24/08 A3003 870 35 2100 190/06 RMK AO2 T02390078
04850KAOH AOH20160609151511106/09/16 15:15:31  5-MIN KAOH 092015Z AUTO 23005KT 10SM SCT090 24/08 A3003 870 35 2100 230/05 RMK AO2 T02390078
04850KAOH AOH20160609152011106/09/16 15:20:31  5-MIN KAOH 092020Z AUTO 21004KT 10SM FEW090 24/08 A3003 880 35 2100 210/04 RMK AO2 T02390078
04850KAOH AOH20160609152511806/09/16 15:25:31  5-MIN KAOH 092025Z AUTO 20005KT 10SM FEW090 SCT110 24/08 A3003 880 35 2100 200/05 RMK AO2 T02390078
04850KAOH AOH20160609153011806/09/16 15:30:31  5-MIN KAOH 092030Z AUTO 22004KT 10SM FEW090 SCT110 24/08 A3003 880 35 2100 220/04 RMK AO2 T02390078
04850KAOH AOH20160609153511106/09/16 15:35:31  5-MIN KAOH 092035Z AUTO 21005KT 10SM SCT110 24/08 A3003 880 35 2200 210/05 RMK AO2 T02390078
04850KAOH AOH20160609154011106/09/16 15:40:31  5-MIN KAOH 092040Z AUTO 23004KT 10SM SCT110 24/08 A3002 880 35 2200 240/04 RMK AO2 T02390078
04850KAOH AOH20160609154511106/09/16 15:45:31  5-MIN KAOH 092045Z AUTO VRB04KT 10SM BKN110 24/08 A3003 880 36 2200 VRB/04 RMK AO2 T02390083
04850KAOH AOH20160609155012406/09/16 15:50:31  5-MIN KAOH 092050Z AUTO 21004KT 10SM BKN110 24/08 A3002 880 35 2200 220/04 RMK AO2 SLP164 T02390078 58008
04850KAOH AOH20160609155511106/09/16 15:55:31  5-MIN KAOH 092055Z AUTO 20004KT 10SM BKN110 24/08 A3002 880 36 2200 210/04 RMK AO2 T02390083
04850KAOH AOH20160609160011106/09/16 16:00:31  5-MIN KAOH 092100Z AUTO 21005KT 10SM BKN120 24/08 A3002 880 36 2200 220/05 RMK AO2 T02390083
04850KAOH AOH20160609160511806/09/16 16:05:31  5-MIN KAOH 092105Z AUTO 22005KT 10SM FEW080 BKN120 24/08 A3003 880 35 2200 230/05 RMK AO2 T02390078
04850KAOH AOH20160609161011806/09/16 16:10:31  5-MIN KAOH 092110Z AUTO 22006KT 10SM SCT080 BKN120 24/08 A3002 880 36 2200 220/06 RMK AO2 T02390083
04850KAOH AOH20160609161511806/09/16 16:15:31  5-MIN KAOH 092115Z AUTO 22004KT 10SM BKN085 OVC120 24/08 A3002 880 35 2200 220/04 RMK AO2 T02390078
04850KAOH AOH20160609162011806/09/16 16:20:31  5-MIN KAOH 092120Z AUTO 22004KT 10SM BKN080 OVC120 24/08 A3003 880 36 2200 230/04 RMK AO2 T02390083
04850KAOH AOH20160609162511806/09/16 16:25:31  5-MIN KAOH 092125Z AUTO 22003KT 10SM BKN080 OVC120 24/08 A3002 880 36 2200 220/03 RMK AO2 T02390083
04850KAOH AOH20160609163011106/09/16 16:30:31  5-MIN KAOH 092130Z AUTO 20004KT 10SM OVC085 24/08 A3002 880 35 2200 210/04 RMK AO2 T02390078
04850KAOH AOH20160609163511106/09/16 16:35:31  5-MIN KAOH 092135Z AUTO 19003KT 10SM OVC085 24/08 A3002 880 35 2200 200/03 RMK AO2 T02390078
04850KAOH AOH20160609164011106/09/16 16:40:31  5-MIN KAOH 092140Z AUTO 21003KT 10SM OVC085 24/08 A3002 890 35 2200 220/03 RMK AO2 T02390078
04850KAOH AOH20160609164511106/09/16 16:45:31  5-MIN KAOH 092145Z AUTO 24003KT 10SM OVC080 24/08 A3002 890 36 2200 250/03 RMK AO2 T02390083
04850KAOH AOH20160609165011806/09/16 16:50:31  5-MIN KAOH 092150Z AUTO 21004KT 10SM OVC080 24/08 A3002 890 36 2200 210/04 RMK AO2 SLP162 T02390083
04850KAOH AOH20160609165511106/09/16 16:55:31  5-MIN KAOH 092155Z AUTO 21004KT 10SM OVC080 23/08 A3002 890 38 2100 210/04 RMK AO2 T02330083
04850KAOH AOH20160609170011106/09/16 17:00:31  5-MIN KAOH 092200Z AUTO 20004KT 10SM OVC080 23/08 A3001 890 38 2100 210/04 RMK AO2 T02330083
04850KAOH AOH20160609170511106/09/16 17:05:31  5-MIN KAOH 092205Z AUTO 20004KT 10SM OVC080 23/08 A3001 890 38 2100 210/04 RMK AO2 T02330083
04850KAOH AOH20160609171011106/09/16 17:10:31  5-MIN KAOH 092210Z AUTO 20004KT 10SM OVC080 23/08 A3001 900 38 2100 200/04 RMK AO2 T02330083
04850KAOH AOH20160609171511106/09/16 17:15:31  5-MIN KAOH 092215Z AUTO 19004KT 10SM OVC085 23/08 A3000 900 38 2100 200/04 RMK AO2 T02330083
04850KAOH AOH20160609172011106/09/16 17:20:31  5-MIN KAOH 092220Z AUTO 20004KT 10SM OVC085 23/08 A3000 900 38 2100 200/04 RMK AO2 T02330083
04850KAOH AOH20160609172511106/09/16 17:25:31  5-MIN KAOH 092225Z AUTO 19003KT 10SM OVC085 23/08 A3000 910 38 2100 200/03 RMK AO2 T02330083
04850KAOH AOH20160609173011106/09/16 17:30:31  5-MIN KAOH 092230Z AUTO 19004KT 10SM OVC085 23/09 A3000 910 39 2100 200/04 RMK AO2 T02330089
04850KAOH AOH20160610073011806/10/16 07:30:31  5-MIN KAOH 101230Z AUTO 19005KT 10SM BKN080 OVC095 21/14 A3006 850 65 1700 190/05 RMK AO2 T02060139
04850KAOH AOH20160610073511806/10/16 07:35:31  5-MIN KAOH 101235Z AUTO 21005KT 10SM SCT070 OVC085 21/14 A3007 840 65 1700 210/05 RMK AO2 T02060139
04850KAOH AOH20160610074011806/10/16 07:40:31  5-MIN KAOH 101240Z AUTO 21006KT 10SM BKN070 OVC090 21/14 A3007 840 67 1700 220/06 RMK AO2 T02060144
04850KAOH AOH20160610074511806/10/16 07:45:31  5-MIN KAOH 101245Z AUTO 22006KT 10SM BKN070 OVC090 21/14 A3007 840 67 1700 230/06 RMK AO2 T02060144
04850KAOH AOH20160610075013206/10/16 07:50:31  5-MIN KAOH 101250Z AUTO 22007KT 10SM BKN070 BKN090 OVC110 21/15 A3007 840 68 1800 220/07 RMK AO2 SLP176 T02110150
04850KAOH AOH20160610075511806/10/16 07:55:31  5-MIN KAOH 101255Z AUTO 22008KT 10SM BKN070 OVC110 21/15 A3007 840 68 1800 230/08 RMK AO2 T02110150
04850KAOH AOH20160610080011806/10/16 08:00:31  5-MIN KAOH 101300Z AUTO 23009KT 10SM SCT070 OVC110 21/16 A3007 840 70 1800 230/09 RMK AO2 T02110156
04850KAOH AOH20160610080511806/10/16 08:05:31  5-MIN KAOH 101305Z AUTO 21009KT 10SM FEW070 BKN110 21/16 A3007 840 73 1800 220/09 RMK AO2 T02110161
04850KAOH AOH20160610081011806/10/16 08:10:31  5-MIN KAOH 101310Z AUTO 23008KT 10SM FEW070 BKN110 21/16 A3007 840 73 1800 240/08 RMK AO2 T02110161
04850KAOH AOH20160610081511106/10/16 08:15:31  5-MIN KAOH 101315Z AUTO 22009KT 10SM SCT110 21/17 A3007 840 75 1800 220/09 RMK AO2 T02110167
04850KAOH AOH20160610082011106/10/16 08:20:31  5-MIN KAOH 101320Z AUTO 23009KT 10SM FEW110 22/17 A3007 840 73 1800 230/09 RMK AO2 T02170167
04850KAOH AOH20160610082511106/10/16 08:25:31  5-MIN KAOH 101325Z AUTO 23011KT 10SM FEW100 22/17 A3007 840 75 1800 230/11 RMK AO2 T02170172
04850KAOH AOH20160610083011106/10/16 08:30:31  5-MIN KAOH 101330Z AUTO 21010KT 10SM FEW100 22/17 A3007 840 75 1800 220/10 RMK AO2 T02170172
04850KAOH AOH20160610083511806/10/16 08:35:31  5-MIN KAOH 101335Z AUTO 24011KT 10SM FEW100 SCT120 22/17 A3008 830 75 1800 240/11 RMK AO2 T02170172
04850KAOH AOH20160610084011806/10/16 08:40:31  5-MIN KAOH 101340Z AUTO 23010KT 10SM SCT100 SCT120 22/17 A3008 830 73 1900 240/10 RMK AO2 T02220172
04850KAOH AOH20160610084511806/10/16 08:45:31  5-MIN KAOH 101345Z AUTO 22012KT 10SM SCT095 BKN120 22/17 A3008 830 73 1900 230/12 RMK AO2 T02220172
04850KAOH AOH20160610085012506/10/16 08:50:31  5-MIN KAOH 101350Z AUTO 24011KT 10SM BKN090 BKN120 22/17 A3008 830 75 1800 240/11 RMK AO2 SLP180 T02170172
04850KAOH AOH20160610085511806/10/16 08:55:31  5-MIN KAOH 101355Z AUTO 24010KT 10SM BKN090 BKN120 22/17 A3008 830 75 1800 240/10 RMK AO2 T02170172
04850KAOH AOH20160610090012506/10/16 09:00:31  5-MIN KAOH 101400Z AUTO 23011KT 10SM SCT080 BKN100 BKN120 23/18 A3008 830 73 2000 240/11 RMK AO2 T02280178
04850KAOH AOH20160610090513706/10/16 09:05:31  5-MIN KAOH 101405Z AUTO 24012KT 10SM BKN075 BKN095 BKN110 22/18 A3008 830 75 1900 240/12 RMK AO2 LTG DSNT SW T02220178
04850KAOH AOH20160610091013006/10/16 09:10:31  5-MIN KAOH 101410Z AUTO 24012KT 10SM BKN075 BKN090 22/17 A3009 820 73 1900 250/12 RMK AO2 LTG DSNT SW T02220172
04850KAOH AOH20160610091513006/10/16 09:15:31  5-MIN KAOH 101415Z AUTO 23011KT 10SM BKN075 BKN090 22/18 A3009 820 75 1900 230/11 RMK AO2 LTG DSNT SW T02220178
04850KAOH AOH20160610092013006/10/16 09:20:31  5-MIN KAOH 101420Z AUTO 23010KT 10SM BKN075 BKN090 22/17 A3009 820 73 1900 240/10 RMK AO2 LTG DSNT SW T02220172
04850KAOH AOH20160610092513006/10/16 09:25:31  5-MIN KAOH 101425Z AUTO 24012KT 10SM SCT070 OVC090 22/18 A3009 820 75 1900 240/12 RMK AO2 LTG DSNT SW T02220178
04850KAOH AOH20160610093013006/10/16 09:30:31  5-MIN KAOH 101430Z AUTO 22011KT 10SM BKN075 OVC095 22/18 A3009 820 75 1900 230/11 RMK AO2 LTG DSNT SW T02220178
04850KAOH AOH20160610093515106/10/16 09:35:31  5-MIN KAOH 101435Z AUTO 23013KT 5SM RA FEW049 BKN075 OVC095 21/18 A3009 820 84 1800 240/13 RMK AO2 LTG DSNT SW RAB33 P0002 T02110183
04850KAOH AOH20160610094015206/10/16 09:40:31  5-MIN KAOH 101440Z AUTO 23012KT 5SM -RA SCT039 BKN075 OVC090 21/18 A3009 820 84 1800 240/12 RMK AO2 LTG DSNT SW RAB33 P0002 T02110183
04850KAOH AOH20160610094515206/10/16 09:45:31  5-MIN KAOH 101445Z AUTO 23010KT 8SM -RA SCT036 BKN075 OVC090 21/18 A3009 820 84 1800 240/10 RMK AO2 LTG DSNT SW RAB33 P0003 T02110183
04850KAOH AOH20160610095017706/10/16 09:50:31  5-MIN KAOH 101450Z AUTO 23011KT 9SM -RA SCT034 BKN055 OVC090 21/19 A3009 820 87 1800 230/11 RMK AO2 LTG DSNT S AND SW RAB33 SLP184 P0003 60003 T02110189 51013
04850KAOH AOH20160610095515306/10/16 09:55:31  5-MIN KAOH 101455Z AUTO 23010KT 10SM -RA SCT034 BKN055 OVC100 21/18 A3009 820 84 1800 240/10 RMK AO2 LTG DSNT S AND SW P0000 T02110183
04850KAOH AOH20160610100015506/10/16 10:00:31  5-MIN KAOH 101500Z AUTO 23009KT 10SM SCT034 SCT044 BKN060 21/19 A3010 820 87 1800 230/09 RMK AO2 LTG DSNT S AND SW RAE00 P0000 T02110189
04850KAOH AOH20160610100515506/10/16 10:05:31  5-MIN KAOH 101505Z AUTO 23009KT 10SM FEW029 SCT039 OVC055 21/18 A3010 810 84 1800 230/09 RMK AO2 LTG DSNT S AND SW RAE00 P0000 T02110183
04850KAOH AOH20160610101015506/10/16 10:10:31  5-MIN KAOH 101510Z AUTO 24009KT 10SM FEW029 FEW039 OVC055 21/18 A3010 810 84 1800 240/09 RMK AO2 LTG DSNT S AND SW RAE00 P0000 T02110183
04850KAOH AOH20160610101513706/10/16 10:15:31  5-MIN KAOH 101515Z AUTO 24009KT 10SM FEW016 BKN048 OVC055 21/18 A3010 810 87 1700 240/09 RMK AO2 RAE00 P0000 T02060183
04850KAOH AOH20160610102013706/10/16 10:20:31  5-MIN KAOH 101520Z AUTO 23007KT 10SM SCT040 BKN048 OVC055 21/18 A3010 820 87 1700 230/07 RMK AO2 RAE00 P0000 T02060183
04850KAOH AOH20160610102513006/10/16 10:25:31  5-MIN KAOH 101525Z AUTO 21007KT 10SM BKN040 OVC055 21/18 A3009 820 84 1800 220/07 RMK AO2 RAE00 P0000 T02110183
04850KAOH AOH20160610103013006/10/16 10:30:31  5-MIN KAOH 101530Z AUTO 23009KT 10SM SCT040 OVC050 21/18 A3009 820 84 1800 230/09 RMK AO2 RAE00 P0000 T02110183
04850KAOH AOH20160610103513006/10/16 10:35:31  5-MIN KAOH 101535Z AUTO 22009KT 10SM SCT040 OVC050 21/18 A3009 820 84 1800 230/09 RMK AO2 RAE00 P0000 T02110183
04850KAOH AOH20160610104013006/10/16 10:40:31  5-MIN KAOH 101540Z AUTO 23008KT 10SM BKN040 OVC048 21/18 A3009 820 84 1800 240/08 RMK AO2 RAE00 P0000 T02110183
04850KAOH AOH20160610104513006/10/16 10:45:31  5-MIN KAOH 101545Z AUTO 23008KT 10SM BKN040 OVC048 22/18 A3010 810 81 1800 240/08 RMK AO2 RAE00 P0000 T02170183
04850KAOH AOH20160610105013706/10/16 10:50:31  5-MIN KAOH 101550Z AUTO 23008KT 10SM BKN040 OVC048 22/18 A3010 810 81 1800 240/08 RMK AO2 RAE00 SLP186 P0000 T02170183
04850KAOH AOH20160610105511106/10/16 10:55:31  5-MIN KAOH 101555Z AUTO 24010KT 10SM OVC038 22/18 A3010 810 81 1800 250/10 RMK AO2 T02170183
04850KAOH AOH20160610110011106/10/16 11:00:31  5-MIN KAOH 101600Z AUTO 23009KT 10SM OVC038 22/18 A3010 810 81 1800 240/09 RMK AO2 T02170183
04850KAOH AOH20160610110511106/10/16 11:05:31  5-MIN KAOH 101605Z AUTO 23007KT 10SM OVC038 22/18 A3010 810 81 1800 230/07 RMK AO2 T02170183
04850KAOH AOH20160610111011106/10/16 11:10:31  5-MIN KAOH 101610Z AUTO 23006KT 10SM OVC038 22/18 A3010 810 81 1800 240/06 RMK AO2 T02170183
04850KAOH AOH20160610111512306/10/16 11:15:31  5-MIN KAOH 101615Z AUTO 23007KT 10SM OVC038 22/18 A3010 810 78 1900 240/07 RMK AO2 LTG DSNT NE T02220183
04850KAOH AOH20160610112012306/10/16 11:20:31  5-MIN KAOH 101620Z AUTO 24007KT 10SM OVC038 22/19 A3010 810 81 1900 250/07 RMK AO2 LTG DSNT NE T02220189
04850KAOH AOH20160610112512306/10/16 11:25:31  5-MIN KAOH 101625Z AUTO 24010KT 10SM OVC038 22/19 A3010 810 81 1900 250/10 RMK AO2 LTG DSNT NE T02220189
04850KAOH AOH20160610113011106/10/16 11:30:31  5-MIN KAOH 101630Z AUTO 23010KT 10SM OVC038 23/19 A3010 820 78 1900 240/10 RMK AO2 T02280189
04850KAOH AOH20160610113511106/10/16 11:35:31  5-MIN KAOH 101635Z AUTO 23013KT 10SM OVC038 23/18 A3009 820 76 1900 240/13 RMK AO2 T02280183
04850KAOH AOH20160610114011106/10/16 11:40:31  5-MIN KAOH 101640Z AUTO 23013KT 10SM OVC038 23/18 A3009 820 76 1900 230/13 RMK AO2 T02280183
04850KAOH AOH20160610114511106/10/16 11:45:31  5-MIN KAOH 101645Z AUTO 21011KT 10SM OVC038 23/18 A3009 820 76 2000 220/11 RMK AO2 T02280183
04850KAOH AOH20160610115011806/10/16 11:50:31  5-MIN KAOH 101650Z AUTO 22010KT 10SM OVC037 23/18 A3009 820 76 2000 220/10 RMK AO2 SLP183 T02280183
04850KAOH AOH20160610115511106/10/16 11:55:31  5-MIN KAOH 101655Z AUTO 21008KT 10SM OVC037 23/18 A3009 820 76 2000 220/08 RMK AO2 T02280183
04850KAOH AOH20160610120011106/10/16 12:00:31  5-MIN KAOH 101700Z AUTO 21009KT 10SM OVC037 23/19 A3009 820 76 2000 220/09 RMK AO2 T02330189
04850KAOH AOH20160610120511106/10/16 12:05:31  5-MIN KAOH 101705Z AUTO 21010KT 10SM OVC037 23/19 A3008 830 76 2000 220/10 RMK AO2 T02330189
04850KAOH AOH20160610121011806/10/16 12:10:31  5-MIN KAOH 101710Z AUTO 22009KT 10SM BKN038 OVC047 24/19 A3009 820 73 2100 220/09 RMK AO2 T02390189
04850KAOH AOH20160610121512506/10/16 12:15:31  5-MIN KAOH 101715Z AUTO 22009KT 10SM FEW025 BKN038 OVC047 24/19 A3009 820 73 2100 230/09 RMK AO2 T02390189
04850KAOH AOH20160610122011806/10/16 12:20:31  5-MIN KAOH 101720Z AUTO 22011KT 10SM FEW025 OVC038 24/19 A3009 820 73 2100 220/11 RMK AO2 T02390189
04850KAOH AOH20160610122511806/10/16 12:25:31  5-MIN KAOH 101725Z AUTO 22010KT 10SM FEW025 OVC038 24/19 A3009 820 71 2100 230/10 RMK AO2 T02440189
04850KAOH AOH20160610123011806/10/16 12:30:31  5-MIN KAOH 101730Z AUTO 22013KT 10SM FEW025 OVC038 24/19 A3008 830 73 2100 230/13 RMK AO2 T02390189
04850KAOH AOH20160610123511806/10/16 12:35:31  5-MIN KAOH 101735Z AUTO 23011KT 10SM SCT025 OVC038 24/19 A3008 830 71 2200 230/11 RMK AO2 T02440189
04850KAOH AOH20160610124011806/10/16 12:40:31  5-MIN KAOH 101740Z AUTO 24014KT 10SM SCT025 OVC038 25/19 A3008 830 71 2200 240/14 RMK AO2 T02500194
04850KAOH AOH20160610124511806/10/16 12:45:31  5-MIN KAOH 101745Z AUTO 23010KT 10SM SCT025 OVC038 25/19 A3007 830 68 2200 230/10 RMK AO2 T02500189
04850KAOH AOH20160610125014906/10/16 12:50:31  5-MIN KAOH 101750Z AUTO 23009KT 10SM SCT025 BKN037 25/19 A3008 830 71 2200 240/09 RMK AO2 SLP177 60003 T02500194 10250 20206 53009
04850KAOH AOH20160610125511806/10/16 12:55:31  5-MIN KAOH 101755Z AUTO 23011KT 10SM SCT025 BKN037 25/19 A3008 830 68 2200 240/11 RMK AO2 T02500189
04850KAOH AOH20160610130011806/10/16 13:00:31  5-MIN KAOH 101800Z AUTO 25011KT 10SM SCT025 BKN037 25/19 A3007 840 68 2200 260/11 RMK AO2 T02500189
04850KAOH AOH20160610130511806/10/16 13:05:31  5-MIN KAOH 101805Z AUTO 22011KT 10SM FEW024 BKN035 26/19 A3007 840 68 2300 230/11 RMK AO2 T02560194
04850KAOH AOH20160610131011806/10/16 13:10:31  5-MIN KAOH 101810Z AUTO 23013KT 10SM SCT026 BKN035 25/19 A3007 840 68 2200 240/13 RMK AO2 T02500189
04850KAOH AOH20160610131511806/10/16 13:15:31  5-MIN KAOH 101815Z AUTO 23014KT 10SM BKN026 BKN035 24/19 A3007 840 71 2200 230/14 RMK AO2 T02440189
04850KAOH AOH20160610132011806/10/16 13:20:31  5-MIN KAOH 101820Z AUTO 22012KT 10SM BKN026 OVC033 24/19 A3007 840 71 2200 230/12 RMK AO2 T02440189
04850KAOH AOH20160610132511806/10/16 13:25:31  5-MIN KAOH 101825Z AUTO 21011KT 10SM BKN026 BKN033 25/19 A3006 850 71 2200 220/11 RMK AO2 T02500194
04850KAOH AOH20160610133011806/10/16 13:30:31  5-MIN KAOH 101830Z AUTO 24010KT 10SM BKN026 BKN034 26/19 A3006 850 68 2300 250/10 RMK AO2 T02560194
04850KAOH AOH20160610133511806/10/16 13:35:31  5-MIN KAOH 101835Z AUTO 25011KT 10SM BKN026 BKN031 26/20 A3005 850 68 2400 250/11 RMK AO2 T02610200
04850KAOH AOH20160610134011106/10/16 13:40:31  5-MIN KAOH 101840Z AUTO 22008KT 10SM BKN026 26/19 A3005 860 66 2400 230/08 RMK AO2 T02610194
04850KAOH AOH20160610134511106/10/16 13:45:31  5-MIN KAOH 101845Z AUTO 22009KT 10SM BKN025 26/19 A3005 860 68 2300 220/09 RMK AO2 T02560194
04850KAOH AOH20160610135011806/10/16 13:50:31  5-MIN KAOH 101850Z AUTO 22011KT 10SM BKN025 26/19 A3005 860 68 2300 230/11 RMK AO2 SLP168 T02560194
04850KAOH AOH20160610135511106/10/16 13:55:31  5-MIN KAOH 101855Z AUTO 22010KT 10SM BKN025 26/19 A3004 860 68 2300 230/10 RMK AO2 T02560194
04850KAOH AOH20160610140011806/10/16 14:00:31  5-MIN KAOH 101900Z AUTO 22010KT 10SM BKN025 BKN031 26/19 A3004 860 68 2300 230/10 RMK AO2 T02560194
04850KAOH AOH20160610140511806/10/16 14:05:31  5-MIN KAOH 101905Z AUTO 21008KT 10SM BKN025 BKN031 26/19 A3004 870 66 2400 220/08 RMK AO2 T02610194
04850KAOH AOH20160610141011806/10/16 14:10:31  5-MIN KAOH 101910Z AUTO 25011KT 10SM BKN027 BKN032 26/19 A3004 860 66 2400 260/11 RMK AO2 T02610194
04850KAOH AOH20160610141511806/10/16 14:15:31  5-MIN KAOH 101915Z AUTO 22010KT 10SM BKN027 BKN032 26/19 A3004 860 66 2400 230/10 RMK AO2 T02610194
04850KAOH AOH20160610142011106/10/16 14:20:31  5-MIN KAOH 101920Z AUTO 23008KT 10SM BKN027 26/19 A3004 860 66 2400 240/08 RMK AO2 T02610194
04850KAOH AOH20160610142511106/10/16 14:25:31  5-MIN KAOH 101925Z AUTO 23009KT 10SM BKN027 26/19 A3004 860 66 2400 230/09 RMK AO2 T02610194
04850KAOH AOH20160610143011106/10/16 14:30:31  5-MIN KAOH 101930Z AUTO 22010KT 10SM BKN028 26/19 A3004 860 64 2400 230/10 RMK AO2 T02610189
04850KAOH AOH20160610143511806/10/16 14:35:31  5-MIN KAOH 101935Z AUTO 22008KT 10SM BKN028 BKN035 26/19 A3004 870 66 2400 220/08 RMK AO2 T02610194
04850KAOH AOH20160610144011106/10/16 14:40:31  5-MIN KAOH 101940Z AUTO 22010KT 10SM BKN028 26/19 A3004 870 66 2400 220/10 RMK AO2 T02610194
04850KAOH AOH20160610144511106/10/16 14:45:31  5-MIN KAOH 101945Z AUTO 22010KT 10SM BKN028 26/19 A3004 870 66 2400 230/10 RMK AO2 T02610194
04850KAOH AOH20160610145010106/10/16 14:50:31  5-MIN KAOH 101950Z AUTO 23010KT 10SM BKN030 26/19 A3004 870 68 2300 230/10 RMK AO2
04850KAOH AOH20160610145511106/10/16 14:55:31  5-MIN KAOH 101955Z AUTO 22010KT 10SM BKN030 27/20 A3004 870 66 2400 230/10 RMK AO2 T02670200
04850KAOH AOH20160610150011806/10/16 15:00:31  5-MIN KAOH 102000Z AUTO 20008KT 10SM BKN029 BKN035 26/20 A3004 870 68 2400 210/08 RMK AO2 T02610200
04850KAOH AOH20160610150511806/10/16 15:05:31  5-MIN KAOH 102005Z AUTO 23011KT 10SM BKN027 BKN034 26/20 A3004 870 68 2400 240/11 RMK AO2 T02610200
04850KAOH AOH20160610151011806/10/16 15:10:31  5-MIN KAOH 102010Z AUTO 22010KT 10SM BKN027 BKN032 27/20 A3004 870 66 2500 230/10 RMK AO2 T02670200
04850KAOH AOH20160610151511806/10/16 15:15:31  5-MIN KAOH 102015Z AUTO 25009KT 10SM BKN027 BKN032 27/20 A3003 870 66 2500 250/09 RMK AO2 T02670200
04850KAOH AOH20160610152011806/10/16 15:20:31  5-MIN KAOH 102020Z AUTO 23008KT 10SM BKN027 BKN033 27/19 A3003 870 64 2500 240/08 RMK AO2 T02670194
04850KAOH AOH20160610152511106/10/16 15:25:31  5-MIN KAOH 102025Z AUTO 24010KT 10SM BKN027 27/20 A3003 870 64 2500 240/10 RMK AO2 T02720200
04850KAOH AOH20160610153011806/10/16 15:30:31  5-MIN KAOH 102030Z AUTO 24011KT 10SM BKN027 BKN032 27/19 A3003 870 62 2500 250/11 RMK AO2 T02720194
04850KAOH AOH20160610153511106/10/16 15:35:31  5-MIN KAOH 102035Z AUTO 24013KT 10SM SCT029 27/19 A3003 870 62 2500 250/13 RMK AO2 T02720194
04850KAOH AOH20160610154011806/10/16 15:40:31  5-MIN KAOH 102040Z AUTO 25011KT 10SM FEW029 SCT080 27/19 A3003 870 62 2500 250/11 RMK AO2 T02670189
04850KAOH AOH20160610154511806/10/16 15:45:31  5-MIN KAOH 102045Z AUTO 25010KT 10SM FEW029 FEW080 27/19 A3003 870 64 2500 260/10 RMK AO2 T02670194
04850KAOH AOH20160610155013106/10/16 15:50:31  5-MIN KAOH 102050Z AUTO 23008KT 10SM FEW029 SCT080 27/19 A3003 880 62 2500 230/08 RMK AO2 SLP162 T02720194 58005
04850KAOH AOH20160610155512406/10/16 15:55:31  5-MIN KAOH 102055Z AUTO 23010G16KT 10SM FEW029 BKN080 27/19 A3003 880 62 2500 240/10G16 RMK AO2 T02720194
04850KAOH AOH20160610160011806/10/16 16:00:31  5-MIN KAOH 102100Z AUTO 23009KT 10SM FEW029 BKN080 27/19 A3003 880 62 2500 230/09 RMK AO2 T02720194
04850KAOH AOH20160610160511806/10/16 16:05:31  5-MIN KAOH 102105Z AUTO 25011KT 10SM FEW029 BKN085 28/20 A3003 880 62 2600 260/11 RMK AO2 T02780200
04850KAOH AOH20160610161011806/10/16 16:10:31  5-MIN KAOH 102110Z AUTO 23011KT 10SM FEW031 BKN085 28/19 A3003 880 60 2600 240/11 RMK AO2 T02780194
04850KAOH AOH20160610161511806/10/16 16:15:31  5-MIN KAOH 102115Z AUTO 24009KT 10SM FEW031 BKN085 28/19 A3003 880 58 2600 240/09 RMK AO2 T02830194
04850KAOH AOH20160610162011106/10/16 16:20:31  5-MIN KAOH 102120Z AUTO 24008KT 10SM BKN090 28/19 A3003 880 60 2600 250/08 RMK AO2 T02780194
04850KAOH AOH20160610162511806/10/16 16:25:31  5-MIN KAOH 102125Z AUTO 24010KT 10SM FEW029 BKN090 27/20 A3003 880 64 2500 240/10 RMK AO2 T02720200
04850KAOH AOH20160610163011806/10/16 16:30:31  5-MIN KAOH 102130Z AUTO 23009KT 10SM SCT029 OVC090 27/20 A3003 880 64 2500 230/09 RMK AO2 T02720200
04850KAOH AOH20160610163511806/10/16 16:35:31  5-MIN KAOH 102135Z AUTO 23010KT 10SM SCT029 BKN090 28/21 A3003 880 64 2600 230/10 RMK AO2 T02780206
04850KAOH AOH20160610164011806/10/16 16:40:31  5-MIN KAOH 102140Z AUTO 24013KT 10SM SCT030 BKN090 28/20 A3002 880 62 2600 240/13 RMK AO2 T02780200
04850KAOH AOH20160610164512406/10/16 16:45:31  5-MIN KAOH 102145Z AUTO 22007G16KT 10SM SCT030 BKN090 28/20 A3002 880 62 2600 220/07G16 RMK AO2 T02780200
04850KAOH AOH20160610165012506/10/16 16:50:31  5-MIN KAOH 102150Z AUTO 22010KT 10SM FEW030 SCT095 28/20 A3002 880 62 2600 230/10 RMK AO2 SLP159 T02780200
04850KAOH AOH20160610165511106/10/16 16:55:31  5-MIN KAOH 102155Z AUTO 21009KT 10SM FEW030 28/20 A3002 890 62 2600 210/09 RMK AO2 T02780200
04850KAOH AOH20160610170011106/10/16 17:00:31  5-MIN KAOH 102200Z AUTO 24009KT 10SM FEW030 28/20 A3002 890 60 2700 250/09 RMK AO2 T02830200
04850KAOH AOH20160610170511106/10/16 17:05:31  5-MIN KAOH 102205Z AUTO 25011KT 10SM FEW030 28/19 A3002 890 60 2600 250/11 RMK AO2 T02780194
04850KAOH AOH20160610171010806/10/16 17:10:31  5-MIN KAOH 102210Z AUTO 24011KT 10SM CLR 28/19 A3001 890 60 2600 250/11 RMK AO2 T02780194
04850KAOH AOH20160610171510806/10/16 17:15:31  5-MIN KAOH 102215Z AUTO 23009KT 10SM CLR 28/19 A3001 890 60 2600 230/09 RMK AO2 T02780194
04850KAOH AOH20160610172010806/10/16 17:20:31  5-MIN KAOH 102220Z AUTO 23010KT 10SM CLR 28/19 A3001 890 60 2600 230/10 RMK AO2 T02780194
04850KAOH AOH20160610172510806/10/16 17:25:31  5-MIN KAOH 102225Z AUTO 24010KT 10SM CLR 28/19 A3001 900 60 2600 240/10 RMK AO2 T02780194
04850KAOH AOH20160610173010806/10/16 17:30:31  5-MIN KAOH 102230Z AUTO 24009KT 10SM CLR 28/19 A3000 900 60 2600 250/09 RMK AO2 T02780194
04850KAOH AOH20160610173510806/10/16 17:35:31  5-MIN KAOH 102235Z AUTO 25010KT 10SM CLR 28/19 A3000 900 60 2600 250/10 RMK AO2 T02780194
04850KAOH AOH20160610174010806/10/16 17:40:31  5-MIN KAOH 102240Z AUTO 23010KT 10SM CLR 28/19 A3000 900 60 2600 230/10 RMK AO2 T02780194
04850KAOH AOH20160610174510806/10/16 17:45:31  5-MIN KAOH 102245Z AUTO 24009KT 10SM CLR 28/19 A3000 910 60 2600 240/09 RMK AO2 T02780194
04850KAOH AOH20160610175011506/10/16 17:50:31  5-MIN KAOH 102250Z AUTO 22008KT 10SM CLR 28/19 A3000 910 60 2600 230/08 RMK AO2 SLP151 T02780194
04850KAOH AOH20160610175510806/10/16 17:55:31  5-MIN KAOH 102255Z AUTO 23008KT 10SM CLR 28/19 A3000 900 60 2600 230/08 RMK AO2 T02780194
04850KAOH AOH20160610180010806/10/16 18:00:31  5-MIN KAOH 102300Z AUTO 22009KT 10SM CLR 28/20 A3000 900 62 2600 220/09 RMK AO2 T02780200
04850KAOH AOH20160610180510806/10/16 18:05:31  5-MIN KAOH 102305Z AUTO 22008KT 10SM CLR 28/20 A3000 900 62 2600 220/08 RMK AO2 T02780200
04850KAOH AOH20160610181010806/10/16 18:10:31  5-MIN KAOH 102310Z AUTO 22007KT 10SM CLR 28/20 A3000 910 62 2600 230/07 RMK AO2 T02780200
04850KAOH AOH20160610181510806/10/16 18:15:31  5-MIN KAOH 102315Z AUTO 21008KT 10SM CLR 27/20 A3000 910 64 2600 220/08 RMK AO2 T02720200
04850KAOH AOH20160610182010806/10/16 18:20:31  5-MIN KAOH 102320Z AUTO 22008KT 10SM CLR 27/20 A3000 910 64 2600 230/08 RMK AO2 T02720200
04850KAOH AOH20160610182510806/10/16 18:25:31  5-MIN KAOH 102325Z AUTO 21006KT 10SM CLR 27/20 A3000 910 64 2600 210/06 RMK AO2 T02720200
04850KAOH AOH20160610183010806/10/16 18:30:31  5-MIN KAOH 102330Z AUTO 21006KT 10SM CLR 27/20 A3000 910 64 2600 220/06 RMK AO2 T02720200
04850KAOH AOH20160610183510806/10/16 18:35:31  5-MIN KAOH 102335Z AUTO 21006KT 10SM CLR 27/20 A3000 910 64 2600 220/06 RMK AO2 T02720200
04850KAOH AOH20160610184010806/10/16 18:40:31  5-MIN KAOH 102340Z AUTO 21005KT 10SM CLR 27/20 A3000 910 64 2600 220/05 RMK AO2 T02720200
04850KAOH AOH20160610184510806/10/16 18:45:31  5-MIN KAOH 102345Z AUTO 21008KT 10SM CLR 27/20 A2999 910 64 2600 220/08 RMK AO2 T02720200
04850KAOH AOH20160610185013306/10/16 18:50:31  5-MIN KAOH 102350Z AUTO 21008KT 10SM CLR 27/19 A2999 910 62 2600 220/08 RMK AO2 SLP149 T02720194 10283 20244 56004
04850KAOH AOH20160610185510806/10/16 18:55:31  5-MIN KAOH 102355Z AUTO 21007KT 10SM CLR 27/19 A2999 910 62 2600 220/07 RMK AO2 T02720194
04850KAOH AOH20160610190010806/10/16 19:00:31  5-MIN KAOH 110000Z AUTO 21007KT 10SM CLR 27/19 A2999 910 62 2600 220/07 RMK AO2 T02720194
04850KAOH AOH20160610190510806/10/16 19:05:31  5-MIN KAOH 110005Z AUTO 21009KT 10SM CLR 27/19 A2999 920 62 2600 220/09 RMK AO2 T02720194
04850KAOH AOH20160610191010806/10/16 19:10:31  5-MIN KAOH 110010Z AUTO 21008KT 10SM CLR 27/19 A2999 920 62 2600 210/08 RMK AO2 T02720194
04850KAOH AOH20160610191510806/10/16 19:15:31  5-MIN KAOH 110015Z AUTO 21010KT 10SM CLR 27/19 A2999 920 64 2500 220/10 RMK AO2 T02670194
04850KAOH AOH20160610192010806/10/16 19:20:31  5-MIN KAOH 110020Z AUTO 21010KT 10SM CLR 27/19 A2998 920 64 2500 210/10 RMK AO2 T02670194
04850KAOH AOH20160610192510806/10/16 19:25:31  5-MIN KAOH 110025Z AUTO 20008KT 10SM CLR 27/19 A2998 920 64 2500 210/08 RMK AO2 T02670194
04850KAOH AOH20160610193010806/10/16 19:30:31  5-MIN KAOH 110030Z AUTO 20007KT 10SM CLR 27/19 A2998 920 64 2500 210/07 RMK AO2 T02670194
04850KAOH AOH20160610193510806/10/16 19:35:31  5-MIN KAOH 110035Z AUTO 21011KT 10SM CLR 27/19 A2998 920 64 2500 210/11 RMK AO2 T02670194
04850KAOH AOH20160610194010806/10/16 19:40:31  5-MIN KAOH 110040Z AUTO 21010KT 10SM CLR 27/19 A2998 920 64 2500 220/10 RMK AO2 T02670194
04850KAOH AOH20160610194510806/10/16 19:45:31  5-MIN KAOH 110045Z AUTO 20007KT 10SM CLR 26/19 A2998 920 66 2500 210/07 RMK AO2 T02610194
04850KAOH AOH20160610195011506/10/16 19:50:31  5-MIN KAOH 110050Z AUTO 20009KT 10SM CLR 26/19 A2998 920 66 2400 210/09 RMK AO2 SLP146 T02610194
04850KAOH AOH20160610195510806/10/16 19:55:31  5-MIN KAOH 110055Z AUTO 19006KT 10SM CLR 26/19 A2998 920 66 2500 200/06 RMK AO2 T02610194
04850KAOH AOH20160610200010806/10/16 20:00:31  5-MIN KAOH 110100Z AUTO 19007KT 10SM CLR 26/19 A2998 920 66 2500 200/07 RMK AO2 T02610194
04850KAOH AOH20160610200510806/10/16 20:05:31  5-MIN KAOH 110105Z AUTO 19007KT 10SM CLR 26/19 A2998 920 66 2500 200/07 RMK AO2 T02610194
04850KAOH AOH20160610201010806/10/16 20:10:31  5-MIN KAOH 110110Z AUTO 19007KT 10SM CLR 26/19 A2998 920 68 2400 200/07 RMK AO2 T02560194
04850KAOH AOH20160610201510806/10/16 20:15:31  5-MIN KAOH 110115Z AUTO 18007KT 10SM CLR 26/19 A2998 920 68 2400 190/07 RMK AO2 T02560194
04850KAOH AOH20160610202010806/10/16 20:20:31  5-MIN KAOH 110120Z AUTO 19009KT 10SM CLR 26/19 A2998 920 68 2400 190/09 RMK AO2 T02560194
04850KAOH AOH20160610202510806/10/16 20:25:31  5-MIN KAOH 110125Z AUTO 18007KT 10SM CLR 26/19 A2998 920 68 2400 190/07 RMK AO2 T02560194
04850KAOH AOH20160610203010806/10/16 20:30:31  5-MIN KAOH 110130Z AUTO 19006KT 10SM CLR 26/19 A2998 920 68 2400 190/06 RMK AO2 T02560194
04850KAOH AOH20160610203510806/10/16 20:35:31  5-MIN KAOH 110135Z AUTO 19007KT 10SM CLR 25/19 A2999 920 71 2300 190/07 RMK AO2 T02500194
04850KAOH AOH20160610204010806/10/16 20:40:31  5-MIN KAOH 110140Z AUTO 19007KT 10SM CLR 25/19 A2999 920 71 2300 190/07 RMK AO2 T02500194
04850KAOH AOH20160610204510806/10/16 20:45:31  5-MIN KAOH 110145Z AUTO 19008KT 10SM CLR 25/19 A2999 910 71 2300 190/08 RMK AO2 T02500194
04850KAOH AOH20160610205011506/10/16 20:50:31  5-MIN KAOH 110150Z AUTO 19007KT 10SM CLR 25/19 A2999 910 71 2300 200/07 RMK AO2 SLP149 T02500194
04850KAOH AOH20160610205510806/10/16 20:55:31  5-MIN KAOH 110155Z AUTO 19007KT 10SM CLR 25/19 A2999 910 71 2300 200/07 RMK AO2 T02500194
04850KAOH AOH20160610210010806/10/16 21:00:31  5-MIN KAOH 110200Z AUTO 19007KT 10SM CLR 25/19 A3000 910 71 2300 200/07 RMK AO2 T02500194
04850KAOH AOH20160610210510806/10/16 21:05:31  5-MIN KAOH 110205Z AUTO 19007KT 10SM CLR 25/19 A3000 910 71 2300 190/07 RMK AO2 T02500194
04850KAOH AOH20160610211010806/10/16 21:10:31  5-MIN KAOH 110210Z AUTO 19009KT 10SM CLR 25/19 A2999 910 71 2300 190/09 RMK AO2 T02500194
04850KAOH AOH20160610211510806/10/16 21:15:31  5-MIN KAOH 110215Z AUTO 19008KT 10SM CLR 24/19 A3000 910 73 2200 200/08 RMK AO2 T02440194
04850KAOH AOH20160610212010806/10/16 21:20:31  5-MIN KAOH 110220Z AUTO 19007KT 10SM CLR 24/19 A3000 910 73 2200 190/07 RMK AO2 T02440194
04850KAOH AOH20160610212510806/10/16 21:25:31  5-MIN KAOH 110225Z AUTO 18007KT 10SM CLR 24/19 A3000 900 73 2200 190/07 RMK AO2 T02440194
04850KAOH AOH20160610213010806/10/16 21:30:31  5-MIN KAOH 110230Z AUTO 18008KT 10SM CLR 24/19 A3000 900 73 2200 190/08 RMK AO2 T02440194
04850KAOH AOH20160610213510806/10/16 21:35:31  5-MIN KAOH 110235Z AUTO 18008KT 10SM CLR 24/19 A3000 900 76 2200 190/08 RMK AO2 T02390194
04850KAOH AOH20160610214010806/10/16 21:40:31  5-MIN KAOH 110240Z AUTO 18009KT 10SM CLR 24/19 A3000 900 76 2200 190/09 RMK AO2 T02390194
04850KAOH AOH20160610214510806/10/16 21:45:31  5-MIN KAOH 110245Z AUTO 18009KT 10SM CLR 24/19 A3000 910 76 2200 190/09 RMK AO2 T02390194
04850KAOH AOH20160610215012106/10/16 21:50:31  5-MIN KAOH 110250Z AUTO 18010KT 10SM CLR 24/19 A2999 910 76 2200 190/10 RMK AO2 SLP150 T02390194 56013
04850KAOH AOH20160610215510806/10/16 21:55:31  5-MIN KAOH 110255Z AUTO 19010KT 10SM CLR 24/19 A2999 910 76 2200 190/10 RMK AO2 T02390194
04850KAOH AOH20160610220010806/10/16 22:00:31  5-MIN KAOH 110300Z AUTO 19011KT 10SM CLR 24/19 A2999 910 76 2200 190/11 RMK AO2 T02390194
04850KAOH AOH20160610220510806/10/16 22:05:31  5-MIN KAOH 110305Z AUTO 18010KT 10SM CLR 24/19 A2999 910 76 2200 190/10 RMK AO2 T02390194
04850KAOH AOH20160610221010806/10/16 22:10:31  5-MIN KAOH 110310Z AUTO 19009KT 10SM CLR 24/19 A2999 910 76 2200 190/09 RMK AO2 T02390194
04850KAOH AOH20160610221510806/10/16 22:15:31  5-MIN KAOH 110315Z AUTO 19011KT 10SM CLR 24/19 A2999 910 76 2200 190/11 RMK AO2 T02390194
04850KAOH AOH20160610222010806/10/16 22:20:31  5-MIN KAOH 110320Z AUTO 19010KT 10SM CLR 23/19 A2999 910 78 2100 200/10 RMK AO2 T02330194
04850KAOH AOH20160610222510806/10/16 22:25:31  5-MIN KAOH 110325Z AUTO 19011KT 10SM CLR 23/19 A2999 910 78 2100 200/11 RMK AO2 T02330194
04850KAOH AOH20160610223010806/10/16 22:30:31  5-MIN KAOH 110330Z AUTO 19008KT 10SM CLR 23/19 A2999 910 78 2100 200/08 RMK AO2 T02330194
04850KAOH AOH20160610223510806/10/16 22:35:31  5-MIN KAOH 110335Z AUTO 19010KT 10SM CLR 23/19 A3000 910 78 2100 200/10 RMK AO2 T02330194
04850KAOH AOH20160610224010806/10/16 22:40:31  5-MIN KAOH 110340Z AUTO 19011KT 10SM CLR 23/19 A3000 910 78 2100 200/11 RMK AO2 T02330194
04850KAOH AOH20160610224510806/10/16 22:45:31  5-MIN KAOH 110345Z AUTO 20012KT 10SM CLR 23/19 A2999 910 76 2100 210/12 RMK AO2 T02330189
04850KAOH AOH20160610225011506/10/16 22:50:31  5-MIN KAOH 110350Z AUTO 20011KT 10SM CLR 24/19 A3000 900 73 2200 200/11 RMK AO2 SLP151 T02390189
04850KAOH AOH20160610225510806/10/16 22:55:31  5-MIN KAOH 110355Z AUTO 20010KT 10SM CLR 24/19 A3000 910 73 2200 210/10 RMK AO2 T02390189
04850KAOH AOH20160610230010806/10/16 23:00:31  5-MIN KAOH 110400Z AUTO 20009KT 10SM CLR 24/19 A3000 900 73 2200 210/09 RMK AO2 T02390189
04850KAOH AOH20160610230510806/10/16 23:05:31  5-MIN KAOH 110405Z AUTO 20010KT 10SM CLR 23/19 A3000 900 76 2100 210/10 RMK AO2 T02330189
04850KAOH AOH20160610231010806/10/16 23:10:31  5-MIN KAOH 110410Z AUTO 20011KT 10SM CLR 23/19 A3000 900 76 2100 210/11 RMK AO2 T02330189
04850KAOH AOH20160610231510806/10/16 23:15:31  5-MIN KAOH 110415Z AUTO 20011KT 10SM CLR 24/19 A3000 900 73 2200 210/11 RMK AO2 T02390189
04850KAOH AOH20160610232010806/10/16 23:20:31  5-MIN KAOH 110420Z AUTO 20010KT 10SM CLR 24/19 A3000 900 73 2200 200/10 RMK AO2 T02390189
04850KAOH AOH20160610232510806/10/16 23:25:31  5-MIN KAOH 110425Z AUTO 20011KT 10SM CLR 24/19 A3001 900 73 2200 210/11 RMK AO2 T02390189
04850KAOH AOH20160610233010806/10/16 23:30:31  5-MIN KAOH 110430Z AUTO 20011KT 10SM CLR 24/19 A3001 900 73 2200 210/11 RMK AO2 T02390189
04850KAOH AOH20160610233510806/10/16 23:35:31  5-MIN KAOH 110435Z AUTO 20011KT 10SM CLR 23/18 A3001 900 73 2100 210/11 RMK AO2 T02330183
04850KAOH AOH20160610234010806/10/16 23:40:31  5-MIN KAOH 110440Z AUTO 20009KT 10SM CLR 23/18 A3001 900 73 2100 210/09 RMK AO2 T02330183
04850KAOH AOH20160610234510806/10/16 23:45:31  5-MIN KAOH 110445Z AUTO 20011KT 10SM CLR 23/18 A3001 900 73 2100 210/11 RMK AO2 T02330183
04850KAOH AOH20160610235012506/10/16 23:50:31  5-MIN KAOH 110450Z AUTO 21010KT 10SM CLR 23/18 A3001 890 73 2100 220/10 RMK AO2 SLP156 T02330183 402830172
04850KAOH AOH20160610235510806/10/16 23:55:31  5-MIN KAOH 110455Z AUTO 21009KT 10SM CLR 23/18 A3001 890 73 2100 220/09 RMK AO2 T02330183
04850KAOH AOH20160611000010806/11/16 00:00:31  5-MIN KAOH 110500Z AUTO 21010KT 10SM CLR 23/18 A3001 890 73 2100 210/10 RMK AO2 T02330183
04850KAOH AOH20160611000510806/11/16 00:05:31  5-MIN KAOH 110505Z AUTO 21008KT 10SM CLR 23/18 A3001 890 73 2100 210/08 RMK AO2 T02330183
04850KAOH AOH20160611001010806/11/16 00:10:31  5-MIN KAOH 110510Z AUTO 21009KT 10SM CLR 23/18 A3001 890 73 2100 220/09 RMK AO2 T02330183
04850KAOH AOH20160611001510806/11/16 00:15:31  5-MIN KAOH 110515Z AUTO 21010KT 10SM CLR 23/18 A3001 900 73 2100 220/10 RMK AO2 T02330183
04850KAOH AOH20160611002010806/11/16 00:20:31  5-MIN KAOH 110520Z AUTO 21009KT 10SM CLR 23/18 A3001 900 73 2100 220/09 RMK AO2 T02330183
04850KAOH AOH20160611002510806/11/16 00:25:31  5-MIN KAOH 110525Z AUTO 21008KT 10SM CLR 23/18 A3001 900 73 2100 220/08 RMK AO2 T02330183
04850KAOH AOH20160611003010806/11/16 00:30:31  5-MIN KAOH 110530Z AUTO 21009KT 10SM CLR 23/18 A3000 900 73 2100 210/09 RMK AO2 T02330183
04850KAOH AOH20160611003510806/11/16 00:35:31  5-MIN KAOH 110535Z AUTO 21009KT 10SM CLR 23/18 A3000 900 73 2100 210/09 RMK AO2 T02330183
04850KAOH AOH20160611004010806/11/16 00:40:31  5-MIN KAOH 110540Z AUTO 21008KT 10SM CLR 23/18 A3000 900 73 2100 210/08 RMK AO2 T02330183
04850KAOH AOH20160611004510806/11/16 00:45:31  5-MIN KAOH 110545Z AUTO 21008KT 10SM CLR 23/18 A3000 900 73 2100 210/08 RMK AO2 T02330183
04850KAOH AOH20160611005013306/11/16 00:50:31  5-MIN KAOH 110550Z AUTO 21009KT 10SM CLR 23/18 A3000 900 73 2100 220/09 RMK AO2 SLP151 T02330183 10272 20233 53001
04850KAOH AOH20160611005510806/11/16 00:55:31  5-MIN KAOH 110555Z AUTO 21009KT 10SM CLR 23/18 A3000 900 73 2100 220/09 RMK AO2 T02330183
04850KAOH AOH20160611010010806/11/16 01:00:31  5-MIN KAOH 110600Z AUTO 21009KT 10SM CLR 23/18 A3000 900 73 2100 220/09 RMK AO2 T02330183
04850KAOH AOH20160611010510806/11/16 01:05:31  5-MIN KAOH 110605Z AUTO 21012KT 10SM CLR 23/18 A3000 900 73 2100 220/12 RMK AO2 T02330183
04850KAOH AOH20160611011010806/11/16 01:10:31  5-MIN KAOH 110610Z AUTO 22011KT 10SM CLR 23/18 A3000 910 70 2100 220/11 RMK AO2 T02330178
04850KAOH AOH20160611011510806/11/16 01:15:31  5-MIN KAOH 110615Z AUTO 21011KT 10SM CLR 23/18 A3000 910 70 2100 220/11 RMK AO2 T02330178
04850KAOH AOH20160611012011406/11/16 01:20:31  5-MIN KAOH 110620Z AUTO 22012G20KT 10SM CLR 23/18 A3000 910 70 2100 220/12G20 RMK AO2 T02330178
04850KAOH AOH20160611012511406/11/16 01:25:31  5-MIN KAOH 110625Z AUTO 22010G20KT 10SM CLR 23/18 A3000 900 70 2100 230/10G20 RMK AO2 T02330178
04850KAOH AOH20160611013011406/11/16 01:30:31  5-MIN KAOH 110630Z AUTO 22011G20KT 10SM CLR 24/18 A3000 910 68 2200 230/11G20 RMK AO2 T02390178
04850KAOH AOH20160611013511406/11/16 01:35:31  5-MIN KAOH 110635Z AUTO 22011G20KT 10SM CLR 24/18 A3000 910 68 2200 230/11G20 RMK AO2 T02390178
04850KAOH AOH20160611014011406/11/16 01:40:31  5-MIN KAOH 110640Z AUTO 22012G19KT 10SM CLR 24/18 A3000 910 68 2200 230/12G19 RMK AO2 T02390178
04850KAOH AOH20160611014511406/11/16 01:45:31  5-MIN KAOH 110645Z AUTO 23009G19KT 10SM CLR 24/18 A3000 910 68 2200 230/09G19 RMK AO2 T02390178
04850KAOH AOH20160611015012106/11/16 01:50:31  5-MIN KAOH 110650Z AUTO 22010G17KT 10SM CLR 24/18 A3000 910 68 2200 230/10G17 RMK AO2 SLP150 T02390178
04850KAOH AOH20160611015510806/11/16 01:55:31  5-MIN KAOH 110655Z AUTO 23010KT 10SM CLR 24/18 A3000 900 68 2200 230/10 RMK AO2 T02390178
04850KAOH AOH20160611020010806/11/16 02:00:31  5-MIN KAOH 110700Z AUTO 23010KT 10SM CLR 23/18 A3000 900 70 2100 240/10 RMK AO2 T02330178
04850KAOH AOH20160611020510806/11/16 02:05:31  5-MIN KAOH 110705Z AUTO 23011KT 10SM CLR 23/18 A3000 900 70 2100 240/11 RMK AO2 T02330178
04850KAOH AOH20160611021010806/11/16 02:10:31  5-MIN KAOH 110710Z AUTO 23011KT 10SM CLR 23/18 A3000 900 70 2100 240/11 RMK AO2 T02330178
04850KAOH AOH20160611021511106/11/16 02:15:31  5-MIN KAOH 110715Z AUTO 22012KT 10SM FEW070 23/18 A3000 910 70 2100 230/12 RMK AO2 T02330178
04850KAOH AOH20160611022011106/11/16 02:20:31  5-MIN KAOH 110720Z AUTO 22011KT 10SM FEW070 23/18 A2999 910 70 2100 230/11 RMK AO2 T02330178
04850KAOH AOH20160611022511106/11/16 02:25:31  5-MIN KAOH 110725Z AUTO 22011KT 10SM FEW070 23/18 A2999 910 70 2100 230/11 RMK AO2 T02330178
04850KAOH AOH20160611023011106/11/16 02:30:31  5-MIN KAOH 110730Z AUTO 22010KT 10SM FEW070 23/18 A2999 910 70 2100 230/10 RMK AO2 T02330178
04850KAOH AOH20160611023511106/11/16 02:35:31  5-MIN KAOH 110735Z AUTO 23013KT 10SM FEW070 23/18 A2999 910 70 2100 230/13 RMK AO2 T02330178
04850KAOH AOH20160611024011106/11/16 02:40:31  5-MIN KAOH 110740Z AUTO 22012KT 10SM FEW070 23/18 A2999 910 70 2100 230/12 RMK AO2 T02330178
04850KAOH AOH20160611024510806/11/16 02:45:31  5-MIN KAOH 110745Z AUTO 23012KT 10SM CLR 23/18 A2999 910 70 2100 230/12 RMK AO2 T02330178
04850KAOH AOH20160611025011506/11/16 02:50:31  5-MIN KAOH 110750Z AUTO 24014KT 10SM CLR 24/18 A2999 910 68 2200 240/14 RMK AO2 SLP148 T02390178
04850KAOH AOH20160611025510806/11/16 02:55:31  5-MIN KAOH 110755Z AUTO 23012KT 10SM CLR 24/18 A2999 910 68 2200 240/12 RMK AO2 T02390178
04850KAOH AOH20160611030010806/11/16 03:00:31  5-MIN KAOH 110800Z AUTO 23012KT 10SM CLR 24/18 A2999 910 68 2200 240/12 RMK AO2 T02390178
04850KAOH AOH20160611030511406/11/16 03:05:31  5-MIN KAOH 110805Z AUTO 23013G18KT 10SM CLR 24/18 A2999 920 68 2200 230/13G18 RMK AO2 T02390178
04850KAOH AOH20160611031011406/11/16 03:10:31  5-MIN KAOH 110810Z AUTO 23014G21KT 10SM CLR 24/18 A2999 920 68 2200 240/14G21 RMK AO2 T02390178
04850KAOH AOH20160611031511406/11/16 03:15:31  5-MIN KAOH 110815Z AUTO 23013G21KT 10SM CLR 24/17 A2999 920 66 2200 240/13G21 RMK AO2 T02390172
04850KAOH AOH20160611032010806/11/16 03:20:31  5-MIN KAOH 110820Z AUTO 23013KT 10SM CLR 24/17 A2999 920 66 2200 230/13 RMK AO2 T02390172
04850KAOH AOH20160611032510806/11/16 03:25:31  5-MIN KAOH 110825Z AUTO 23012KT 10SM CLR 23/17 A2998 920 68 2100 240/12 RMK AO2 T02330172
04850KAOH AOH20160611033010806/11/16 03:30:31  5-MIN KAOH 110830Z AUTO 23011KT 10SM CLR 23/17 A2998 930 68 2100 230/11 RMK AO2 T02330172
04850KAOH AOH20160611033510806/11/16 03:35:31  5-MIN KAOH 110835Z AUTO 23012KT 10SM CLR 23/17 A2997 930 68 2100 230/12 RMK AO2 T02330172
04850KAOH AOH20160611034010806/11/16 03:40:31  5-MIN KAOH 110840Z AUTO 23012KT 10SM CLR 23/17 A2997 930 68 2100 230/12 RMK AO2 T02330172
04850KAOH AOH20160611034510806/11/16 03:45:31  5-MIN KAOH 110845Z AUTO 23012KT 10SM CLR 23/17 A2997 930 68 2100 240/12 RMK AO2 T02330172
04850KAOH AOH20160611035012106/11/16 03:50:31  5-MIN KAOH 110850Z AUTO 23013KT 10SM CLR 23/17 A2998 930 68 2100 240/13 RMK AO2 SLP143 T02330172 50002
04850KAOH AOH20160611035510806/11/16 03:55:31  5-MIN KAOH 110855Z AUTO 24013KT 10SM CLR 23/17 A2998 920 68 2100 240/13 RMK AO2 T02330172
04850KAOH AOH20160611040010806/11/16 04:00:31  5-MIN KAOH 110900Z AUTO 24012KT 10SM CLR 23/17 A2998 920 68 2100 240/12 RMK AO2 T02330172
04850KAOH AOH20160611040510806/11/16 04:05:31  5-MIN KAOH 110905Z AUTO 23013KT 10SM CLR 23/17 A2998 920 68 2100 240/13 RMK AO2 T02330172
04850KAOH AOH20160611041011106/11/16 04:10:31  5-MIN KAOH 110910Z AUTO 24013KT 10SM FEW060 23/17 A2998 920 68 2100 240/13 RMK AO2 T02330172
04850KAOH AOH20160611041511106/11/16 04:15:31  5-MIN KAOH 110915Z AUTO 24012KT 10SM SCT065 23/17 A2998 920 68 2100 240/12 RMK AO2 T02330172
04850KAOH AOH20160611042011106/11/16 04:20:31  5-MIN KAOH 110920Z AUTO 23012KT 10SM SCT065 23/17 A2998 920 68 2100 240/12 RMK AO2 T02330172
04850KAOH AOH20160611042511106/11/16 04:25:31  5-MIN KAOH 110925Z AUTO 24012KT 10SM FEW065 23/17 A2998 920 68 2100 240/12 RMK AO2 T02330172
04850KAOH AOH20160611043011106/11/16 04:30:31  5-MIN KAOH 110930Z AUTO 24012KT 10SM FEW065 23/17 A2998 920 68 2100 240/12 RMK AO2 T02330172
04850KAOH AOH20160611043511106/11/16 04:35:31  5-MIN KAOH 110935Z AUTO 24011KT 10SM SCT065 23/17 A2998 920 68 2100 240/11 RMK AO2 T02330172
04850KAOH AOH20160611044011106/11/16 04:40:31  5-MIN KAOH 110940Z AUTO 24013KT 10SM SCT070 23/17 A2998 920 68 2100 240/13 RMK AO2 T02330172
04850KAOH AOH20160611044511106/11/16 04:45:31  5-MIN KAOH 110945Z AUTO 24012KT 10SM SCT070 23/17 A2998 920 68 2100 240/12 RMK AO2 T02330172
04850KAOH AOH20160611045012506/11/16 04:50:31  5-MIN KAOH 110950Z AUTO 24013KT 10SM SCT065 SCT080 23/17 A2998 920 68 2100 240/13 RMK AO2 SLP145 T02330172
04850KAOH AOH20160611045511806/11/16 04:55:31  5-MIN KAOH 110955Z AUTO 23012KT 10SM SCT070 SCT080 23/17 A2998 920 68 2100 240/12 RMK AO2 T02330172
04850KAOH AOH20160611050011106/11/16 05:00:31  5-MIN KAOH 111000Z AUTO 23011KT 10SM SCT070 23/17 A2998 930 70 2100 230/11 RMK AO2 T02280172
04850KAOH AOH20160611050511106/11/16 05:05:31  5-MIN KAOH 111005Z AUTO 22013KT 10SM FEW070 23/17 A2998 930 70 2100 230/13 RMK AO2 T02280172
04850KAOH AOH20160611051011106/11/16 05:10:31  5-MIN KAOH 111010Z AUTO 23012KT 10SM FEW070 23/17 A2998 920 70 2100 230/12 RMK AO2 T02280172
04850KAOH AOH20160611051511106/11/16 05:15:31  5-MIN KAOH 111015Z AUTO 23013KT 10SM FEW070 23/17 A2998 920 70 2100 230/13 RMK AO2 T02280172
04850KAOH AOH20160611052010806/11/16 05:20:31  5-MIN KAOH 111020Z AUTO 23012KT 10SM CLR 23/17 A2998 920 70 2100 240/12 RMK AO2 T02280172
04850KAOH AOH20160611052510806/11/16 05:25:31  5-MIN KAOH 111025Z AUTO 23014KT 10SM CLR 23/17 A2998 920 70 2100 240/14 RMK AO2 T02280172
04850KAOH AOH20160611053010806/11/16 05:30:31  5-MIN KAOH 111030Z AUTO 23012KT 10SM CLR 23/17 A2998 920 68 2100 240/12 RMK AO2 T02330172
04850KAOH AOH20160611053510806/11/16 05:35:31  5-MIN KAOH 111035Z AUTO 23013KT 10SM CLR 23/17 A2998 920 68 2100 240/13 RMK AO2 T02330172
04850KAOH AOH20160611054010806/11/16 05:40:31  5-MIN KAOH 111040Z AUTO 23014KT 10SM CLR 23/17 A2999 920 68 2100 240/14 RMK AO2 T02330172
04850KAOH AOH20160611054510806/11/16 05:45:31  5-MIN KAOH 111045Z AUTO 24015KT 10SM CLR 23/17 A2999 910 68 2100 240/15 RMK AO2 T02330172
04850KAOH AOH20160611055011506/11/16 05:50:31  5-MIN KAOH 111050Z AUTO 24014KT 10SM CLR 23/17 A2999 910 68 2100 240/14 RMK AO2 SLP147 T02330172
04850KAOH AOH20160611055510806/11/16 05:55:31  5-MIN KAOH 111055Z AUTO 23013KT 10SM CLR 23/17 A2999 920 68 2100 240/13 RMK AO2 T02330172
04850KAOH AOH20160611060010806/11/16 06:00:31  5-MIN KAOH 111100Z AUTO 24013KT 10SM CLR 23/17 A2999 910 68 2100 240/13 RMK AO2 T02330172
04850KAOH AOH20160611060510806/11/16 06:05:31  5-MIN KAOH 111105Z AUTO 24013KT 10SM CLR 23/18 A2999 910 70 2100 240/13 RMK AO2 T02330178
04850KAOH AOH20160611061010806/11/16 06:10:31  5-MIN KAOH 111110Z AUTO 24013KT 10SM CLR 23/17 A2999 910 68 2100 240/13 RMK AO2 T02330172
04850KAOH AOH20160611061510806/11/16 06:15:31  5-MIN KAOH 111115Z AUTO 23012KT 10SM CLR 23/18 A2999 920 70 2100 240/12 RMK AO2 T02330178
04850KAOH AOH20160611062010806/11/16 06:20:31  5-MIN KAOH 111120Z AUTO 23012KT 10SM CLR 23/18 A2999 910 70 2100 240/12 RMK AO2 T02330178
04850KAOH AOH20160611062510806/11/16 06:25:31  5-MIN KAOH 111125Z AUTO 23014KT 10SM CLR 23/18 A2999 920 70 2100 240/14 RMK AO2 T02330178
04850KAOH AOH20160611063010806/11/16 06:30:31  5-MIN KAOH 111130Z AUTO 24013KT 10SM CLR 23/18 A2999 910 70 2100 240/13 RMK AO2 T02330178
04850KAOH AOH20160611163013206/11/16 16:30:31  5-MIN KAOH 112130Z AUTO 26017G23KT 10SM CLR 34/17 A2996 940 35 3300 270/17G23 RMK AO2 PK WND 25027/2054 T03390167
04850KAOH AOH20160611163513206/11/16 16:35:31  5-MIN KAOH 112135Z AUTO 26017G23KT 10SM CLR 33/17 A2996 940 36 3300 270/17G23 RMK AO2 PK WND 25027/2054 T03330167
04850KAOH AOH20160611164012606/11/16 16:40:31  5-MIN KAOH 112140Z AUTO 26016KT 10SM CLR 33/17 A2995 950 36 3300 260/16 RMK AO2 PK WND 25027/2054 T03330167
04850KAOH AOH20160611164513206/11/16 16:45:31  5-MIN KAOH 112145Z AUTO 27017G23KT 10SM CLR 34/17 A2996 940 35 3300 280/17G23 RMK AO2 PK WND 25027/2054 T03390167
04850KAOH AOH20160611165013906/11/16 16:50:31  5-MIN KAOH 112150Z AUTO 27019G25KT 10SM CLR 34/17 A2996 940 36 3300 270/19G25 RMK AO2 PK WND 25027/2054 SLP134 T03390172
04850KAOH AOH20160611165511406/11/16 16:55:31  5-MIN KAOH 112155Z AUTO 26020G25KT 10SM CLR 33/17 A2996 940 37 3300 260/20G25 RMK AO2 T03330172
04850KAOH AOH20160611170010806/11/16 17:00:31  5-MIN KAOH 112200Z AUTO 26017KT 10SM CLR 33/17 A2996 940 37 3300 270/17 RMK AO2 T03330172
04850KAOH AOH20160611170510806/11/16 17:05:31  5-MIN KAOH 112205Z AUTO 26015KT 10SM CLR 33/18 A2995 950 39 3300 270/15 RMK AO2 T03330178
04850KAOH AOH20160611171011106/11/16 17:10:31  5-MIN KAOH 112210Z AUTO 26014KT 10SM FEW070 33/17 A2995 950 39 3200 260/14 RMK AO2 T03280172
04850KAOH AOH20160611171511706/11/16 17:15:31  5-MIN KAOH 112215Z AUTO 26019G24KT 10SM FEW070 33/18 A2995 950 40 3200 260/19G24 RMK AO2 T03280178
04850KAOH AOH20160611172011706/11/16 17:20:31  5-MIN KAOH 112220Z AUTO 26018G25KT 10SM SCT070 33/17 A2995 950 39 3200 270/18G25 RMK AO2 T03280172
04850KAOH AOH20160611172511706/11/16 17:25:31  5-MIN KAOH 112225Z AUTO 26014G25KT 10SM SCT070 32/17 A2995 950 40 3200 270/14G25 RMK AO2 T03220172
04850KAOH AOH20160611173011106/11/16 17:30:31  5-MIN KAOH 112230Z AUTO 26013KT 10SM SCT070 33/18 A2995 950 40 3200 270/13 RMK AO2 T03280178
04850KAOH AOH20160611173511106/11/16 17:35:31  5-MIN KAOH 112235Z AUTO 26015KT 10SM SCT070 33/17 A2995 950 37 3300 270/15 RMK AO2 T03330172
04850KAOH AOH20160611174011106/11/16 17:40:31  5-MIN KAOH 112240Z AUTO 27018KT 10SM SCT070 33/17 A2995 950 39 3200 270/18 RMK AO2 T03280172
04850KAOH AOH20160611174511106/11/16 17:45:31  5-MIN KAOH 112245Z AUTO 27013KT 10SM FEW065 33/17 A2995 950 39 3200 280/13 RMK AO2 T03280172
04850KAOH AOH20160611175011806/11/16 17:50:31  5-MIN KAOH 112250Z AUTO 27017KT 10SM FEW065 32/17 A2995 950 40 3200 270/17 RMK AO2 SLP132 T03220172
04850KAOH AOH20160611175511106/11/16 17:55:31  5-MIN KAOH 112255Z AUTO 26014KT 10SM SCT070 32/17 A2995 950 40 3200 270/14 RMK AO2 T03220172
04850KAOH AOH20160611180011706/11/16 18:00:31  5-MIN KAOH 112300Z AUTO 27013G21KT 10SM SCT075 32/17 A2995 950 40 3200 280/13G21 RMK AO2 T03220172
04850KAOH AOH20160611180511706/11/16 18:05:31  5-MIN KAOH 112305Z AUTO 27012G21KT 10SM SCT070 32/17 A2995 950 40 3200 270/12G21 RMK AO2 T03220172
04850KAOH AOH20160611181011106/11/16 18:10:31  5-MIN KAOH 112310Z AUTO 26014KT 10SM SCT075 32/17 A2995 950 40 3200 270/14 RMK AO2 T03220172
04850KAOH AOH20160611181511106/11/16 18:15:31  5-MIN KAOH 112315Z AUTO 27013KT 10SM SCT075 32/17 A2995 950 41 3100 270/13 RMK AO2 T03170172
04850KAOH AOH20160611182011106/11/16 18:20:31  5-MIN KAOH 112320Z AUTO 27013KT 10SM BKN070 32/17 A2995 950 41 3100 270/13 RMK AO2 T03170172
04850KAOH AOH20160611182511106/11/16 18:25:31  5-MIN KAOH 112325Z AUTO 27012KT 10SM BKN075 32/17 A2995 950 41 3100 270/12 RMK AO2 T03170172
04850KAOH AOH20160611183011106/11/16 18:30:31  5-MIN KAOH 112330Z AUTO 27011KT 10SM BKN075 32/17 A2995 950 41 3100 270/11 RMK AO2 T03170172
04850KAOH AOH20160611183511106/11/16 18:35:31  5-MIN KAOH 112335Z AUTO 27011KT 10SM BKN075 32/17 A2995 950 41 3100 280/11 RMK AO2 T03170172
04850KAOH AOH20160611184011106/11/16 18:40:31  5-MIN KAOH 112340Z AUTO 27010KT 10SM BKN075 32/17 A2995 950 41 3100 270/10 RMK AO2 T03170172
04850KAOH AOH20160611184511106/11/16 18:45:31  5-MIN KAOH 112345Z AUTO 26011KT 10SM BKN075 32/17 A2995 950 40 3200 270/11 RMK AO2 T03220172
04850KAOH AOH20160611185014206/11/16 18:50:31  5-MIN KAOH 112350Z AUTO 26014G20KT 10SM BKN075 32/17 A2995 950 41 3100 270/14G20 RMK AO2 SLP131 T03170172 10344 20317 56008
04850KAOH AOH20160611185511706/11/16 18:55:31  5-MIN KAOH 112355Z AUTO 26013G20KT 10SM SCT075 32/17 A2995 950 40 3100 270/13G20 RMK AO2 T03170167
04850KAOH AOH20160611190011106/11/16 19:00:31  5-MIN KAOH 120000Z AUTO 26012KT 10SM SCT075 32/17 A2995 950 40 3100 270/12 RMK AO2 T03170167
04850KAOH AOH20160611190511106/11/16 19:05:31  5-MIN KAOH 120005Z AUTO 26013KT 10SM FEW075 31/17 A2995 950 41 3000 270/13 RMK AO2 T03110167
04850KAOH AOH20160611191011706/11/16 19:10:31  5-MIN KAOH 120010Z AUTO 26011G20KT 10SM FEW075 31/17 A2995 950 41 3000 260/11G20 RMK AO2 T03110167
04850KAOH AOH20160611191510806/11/16 19:15:31  5-MIN KAOH 120015Z AUTO 26011KT 10SM CLR 31/17 A2995 950 41 3000 260/11 RMK AO2 T03110167
04850KAOH AOH20160611192010806/11/16 19:20:31  5-MIN KAOH 120020Z AUTO 26012KT 10SM CLR 31/17 A2995 950 42 3000 260/12 RMK AO2 T03060167
04850KAOH AOH20160611192510806/11/16 19:25:31  5-MIN KAOH 120025Z AUTO 26011KT 10SM CLR 31/17 A2995 950 42 3000 270/11 RMK AO2 T03060167
04850KAOH AOH20160611193010806/11/16 19:30:31  5-MIN KAOH 120030Z AUTO 26010KT 10SM CLR 31/17 A2995 950 42 3000 270/10 RMK AO2 T03060167
04850KAOH AOH20160611193510806/11/16 19:35:31  5-MIN KAOH 120035Z AUTO 26010KT 10SM CLR 30/17 A2995 950 44 2900 260/10 RMK AO2 T03000167
04850KAOH AOH20160611194010806/11/16 19:40:31  5-MIN KAOH 120040Z AUTO 26009KT 10SM CLR 30/17 A2995 950 44 2900 260/09 RMK AO2 T03000167
04850KAOH AOH20160611194510806/11/16 19:45:31  5-MIN KAOH 120045Z AUTO 26009KT 10SM CLR 30/17 A2995 950 44 2900 260/09 RMK AO2 T03000167
04850KAOH AOH20160611195011506/11/16 19:50:31  5-MIN KAOH 120050Z AUTO 25008KT 10SM CLR 29/17 A2995 950 45 2900 260/08 RMK AO2 SLP131 T02940167
04850KAOH AOH20160611195510806/11/16 19:55:31  5-MIN KAOH 120055Z AUTO 25007KT 10SM CLR 29/17 A2995 950 45 2900 250/07 RMK AO2 T02940167
04850KAOH AOH20160611200010806/11/16 20:00:31  5-MIN KAOH 120100Z AUTO 25007KT 10SM CLR 29/17 A2995 950 47 2800 250/07 RMK AO2 T02890167
04850KAOH AOH20160611200510806/11/16 20:05:31  5-MIN KAOH 120105Z AUTO 25008KT 10SM CLR 29/17 A2995 950 47 2800 260/08 RMK AO2 T02890167
04850KAOH AOH20160611201010806/11/16 20:10:31  5-MIN KAOH 120110Z AUTO 25008KT 10SM CLR 29/17 A2995 950 47 2800 260/08 RMK AO2 T02890167
04850KAOH AOH20160611201510806/11/16 20:15:31  5-MIN KAOH 120115Z AUTO 25007KT 10SM CLR 29/17 A2995 950 47 2800 250/07 RMK AO2 T02890167
04850KAOH AOH20160611202010806/11/16 20:20:31  5-MIN KAOH 120120Z AUTO 24007KT 10SM CLR 29/17 A2995 950 47 2800 250/07 RMK AO2 T02890167
04850KAOH AOH20160611202510806/11/16 20:25:31  5-MIN KAOH 120125Z AUTO 24006KT 10SM CLR 28/17 A2995 950 48 2700 250/06 RMK AO2 T02830167
04850KAOH AOH20160611203010806/11/16 20:30:31  5-MIN KAOH 120130Z AUTO 24006KT 10SM CLR 28/17 A2995 950 48 2700 250/06 RMK AO2 T02830167
04850KAOH AOH20160611203510806/11/16 20:35:31  5-MIN KAOH 120135Z AUTO 24007KT 10SM CLR 28/17 A2995 950 48 2700 250/07 RMK AO2 T02830167
04850KAOH AOH20160611204010806/11/16 20:40:31  5-MIN KAOH 120140Z AUTO 24006KT 10SM CLR 28/17 A2995 950 48 2700 250/06 RMK AO2 T02830167
04850KAOH AOH20160611204511106/11/16 20:45:31  5-MIN KAOH 120145Z AUTO 24006KT 10SM FEW065 28/17 A2995 950 48 2700 250/06 RMK AO2 T02830167
04850KAOH AOH20160611205011806/11/16 20:50:31  5-MIN KAOH 120150Z AUTO 24007KT 10SM FEW065 28/17 A2996 940 50 2700 250/07 RMK AO2 SLP134 T02780167
04850KAOH AOH20160611205511106/11/16 20:55:31  5-MIN KAOH 120155Z AUTO 24006KT 10SM FEW065 28/17 A2996 940 50 2700 250/06 RMK AO2 T02780167
04850KAOH AOH20160611210011106/11/16 21:00:31  5-MIN KAOH 120200Z AUTO 24007KT 10SM FEW065 28/16 A2996 940 48 2700 240/07 RMK AO2 T02780161
04850KAOH AOH20160611210511106/11/16 21:05:31  5-MIN KAOH 120205Z AUTO 24007KT 10SM FEW065 28/16 A2996 940 48 2700 250/07 RMK AO2 T02780161
04850KAOH AOH20160611211011106/11/16 21:10:31  5-MIN KAOH 120210Z AUTO 24006KT 10SM FEW065 28/16 A2996 940 48 2700 250/06 RMK AO2 T02780161
04850KAOH AOH20160611211510806/11/16 21:15:31  5-MIN KAOH 120215Z AUTO 24007KT 10SM CLR 28/16 A2996 940 48 2700 240/07 RMK AO2 T02780161
04850KAOH AOH20160611212010806/11/16 21:20:31  5-MIN KAOH 120220Z AUTO 24007KT 10SM CLR 28/16 A2996 940 48 2700 250/07 RMK AO2 T02780161
04850KAOH AOH20160611212510806/11/16 21:25:31  5-MIN KAOH 120225Z AUTO 24006KT 10SM CLR 28/16 A2996 940 48 2700 240/06 RMK AO2 T02780161
04850KAOH AOH20160611213010806/11/16 21:30:31  5-MIN KAOH 120230Z AUTO 24008KT 10SM CLR 28/16 A2996 940 48 2700 240/08 RMK AO2 T02780161
04850KAOH AOH20160611213510806/11/16 21:35:31  5-MIN KAOH 120235Z AUTO 23008KT 10SM CLR 28/16 A2996 940 48 2700 230/08 RMK AO2 T02780161
04850KAOH AOH20160611214010806/11/16 21:40:31  5-MIN KAOH 120240Z AUTO 23007KT 10SM CLR 28/16 A2996 940 48 2700 230/07 RMK AO2 T02780161
04850KAOH AOH20160611214510806/11/16 21:45:31  5-MIN KAOH 120245Z AUTO 22007KT 10SM CLR 28/16 A2997 940 48 2700 230/07 RMK AO2 T02780161
04850KAOH AOH20160611215012106/11/16 21:50:31  5-MIN KAOH 120250Z AUTO 23007KT 10SM CLR 28/16 A2997 940 48 2700 240/07 RMK AO2 SLP137 T02780161 56006
04850KAOH AOH20160611215510806/11/16 21:55:31  5-MIN KAOH 120255Z AUTO 25007KT 10SM CLR 27/16 A2997 930 50 2600 260/07 RMK AO2 T02720161
04850KAOH AOH20160611220010806/11/16 22:00:31  5-MIN KAOH 120300Z AUTO 25006KT 10SM CLR 27/16 A2997 930 52 2500 260/06 RMK AO2 T02670161
04850KAOH AOH20160611220510806/11/16 22:05:31  5-MIN KAOH 120305Z AUTO 25005KT 10SM CLR 26/16 A2997 930 53 2500 250/05 RMK AO2 T02610161
04850KAOH AOH20160611221010806/11/16 22:10:31  5-MIN KAOH 120310Z AUTO 24006KT 10SM CLR 26/16 A2997 930 55 2400 250/06 RMK AO2 T02560161
04850KAOH AOH20160611221511106/11/16 22:15:31  5-MIN KAOH 120315Z AUTO 24006KT 10SM FEW065 27/16 A2997 930 52 2500 250/06 RMK AO2 T02670161
04850KAOH AOH20160611222011106/11/16 22:20:31  5-MIN KAOH 120320Z AUTO 24007KT 10SM FEW065 27/16 A2997 930 52 2500 240/07 RMK AO2 T02670161
04850KAOH AOH20160611222511106/11/16 22:25:31  5-MIN KAOH 120325Z AUTO 25007KT 10SM FEW065 27/16 A2997 930 52 2500 250/07 RMK AO2 T02670161
04850KAOH AOH20160611223011106/11/16 22:30:31  5-MIN KAOH 120330Z AUTO 24006KT 10SM FEW065 27/16 A2997 930 52 2500 250/06 RMK AO2 T02670161
04850KAOH AOH20160611223511106/11/16 22:35:31  5-MIN KAOH 120335Z AUTO 24007KT 10SM FEW065 27/16 A2997 930 52 2500 250/07 RMK AO2 T02670161
04850KAOH AOH20160611224011106/11/16 22:40:31  5-MIN KAOH 120340Z AUTO 24007KT 10SM FEW065 27/16 A2997 930 52 2500 250/07 RMK AO2 T02670161
04850KAOH AOH20160611224510806/11/16 22:45:31  5-MIN KAOH 120345Z AUTO 25006KT 10SM CLR 26/16 A2997 930 53 2500 250/06 RMK AO2 T02610161
04850KAOH AOH20160611225011806/11/16 22:50:31  5-MIN KAOH 120350Z AUTO 24006KT 10SM FEW065 26/16 A2997 930 53 2500 250/06 RMK AO2 SLP138 T02610161
04850KAOH AOH20160611225511106/11/16 22:55:31  5-MIN KAOH 120355Z AUTO 24007KT 10SM FEW065 26/16 A2997 930 53 2500 250/07 RMK AO2 T02610161
04850KAOH AOH20160611230011106/11/16 23:00:31  5-MIN KAOH 120400Z AUTO 24008KT 10SM FEW065 26/17 A2997 930 55 2500 250/08 RMK AO2 T02610167
04850KAOH AOH20160611230511106/11/16 23:05:31  5-MIN KAOH 120405Z AUTO 24008KT 10SM FEW065 26/17 A2997 930 55 2500 250/08 RMK AO2 T02610167
04850KAOH AOH20160611231011106/11/16 23:10:31  5-MIN KAOH 120410Z AUTO 25008KT 10SM FEW065 26/17 A2997 930 55 2500 250/08 RMK AO2 T02610167
04850KAOH AOH20160611231511106/11/16 23:15:31  5-MIN KAOH 120415Z AUTO 25008KT 10SM FEW065 26/17 A2997 930 55 2500 250/08 RMK AO2 T02610167
04850KAOH AOH20160611232011106/11/16 23:20:31  5-MIN KAOH 120420Z AUTO 25008KT 10SM FEW065 26/17 A2997 930 55 2500 260/08 RMK AO2 T02610167
04850KAOH AOH20160611232510806/11/16 23:25:31  5-MIN KAOH 120425Z AUTO 25009KT 10SM CLR 26/17 A2997 930 55 2500 260/09 RMK AO2 T02610167
04850KAOH AOH20160611233010806/11/16 23:30:31  5-MIN KAOH 120430Z AUTO 25008KT 10SM CLR 26/17 A2997 930 55 2500 260/08 RMK AO2 T02610167
04850KAOH AOH20160611233510806/11/16 23:35:31  5-MIN KAOH 120435Z AUTO 25009KT 10SM CLR 26/17 A2997 930 55 2500 260/09 RMK AO2 T02610167
04850KAOH AOH20160611234010806/11/16 23:40:31  5-MIN KAOH 120440Z AUTO 25009KT 10SM CLR 26/17 A2997 930 55 2500 250/09 RMK AO2 T02610167
04850KAOH AOH20160611234510806/11/16 23:45:31  5-MIN KAOH 120445Z AUTO 25009KT 10SM CLR 26/17 A2997 930 55 2500 260/09 RMK AO2 T02610167
04850KAOH AOH20160611235012506/11/16 23:50:31  5-MIN KAOH 120450Z AUTO 25009KT 10SM CLR 26/17 A2997 930 55 2500 260/09 RMK AO2 SLP138 T02610167 403440228
04850KAOH AOH20160611235510806/11/16 23:55:31  5-MIN KAOH 120455Z AUTO 25010KT 10SM CLR 26/17 A2997 930 55 2500 260/10 RMK AO2 T02610167
04850KAOH AOH20160612000010806/12/16 00:00:31  5-MIN KAOH 120500Z AUTO 26008KT 10SM CLR 26/17 A2997 930 57 2400 260/08 RMK AO2 T02560167
04850KAOH AOH20160612000510806/12/16 00:05:31  5-MIN KAOH 120505Z AUTO 26008KT 10SM CLR 26/17 A2997 930 57 2400 260/08 RMK AO2 T02560167
04850KAOH AOH20160612001010806/12/16 00:10:31  5-MIN KAOH 120510Z AUTO 26008KT 10SM CLR 26/17 A2997 930 57 2400 270/08 RMK AO2 T02560167
04850KAOH AOH20160612001510806/12/16 00:15:31  5-MIN KAOH 120515Z AUTO 26008KT 10SM CLR 25/17 A2997 930 59 2300 260/08 RMK AO2 T02500167
04850KAOH AOH20160612002011106/12/16 00:20:31  5-MIN KAOH 120520Z AUTO 26008KT 10SM FEW090 25/17 A2997 930 59 2300 260/08 RMK AO2 T02500167
04850KAOH AOH20160612002511106/12/16 00:25:31  5-MIN KAOH 120525Z AUTO 26008KT 10SM FEW090 25/17 A2997 930 59 2300 270/08 RMK AO2 T02500167
04850KAOH AOH20160612003011106/12/16 00:30:31  5-MIN KAOH 120530Z AUTO 25009KT 10SM FEW090 26/17 A2997 930 57 2400 260/09 RMK AO2 T02560167
04850KAOH AOH20160612003511106/12/16 00:35:31  5-MIN KAOH 120535Z AUTO 25009KT 10SM FEW090 26/17 A2998 930 57 2400 260/09 RMK AO2 T02560167
04850KAOH AOH20160612004011106/12/16 00:40:31  5-MIN KAOH 120540Z AUTO 25009KT 10SM FEW090 26/17 A2998 920 57 2400 260/09 RMK AO2 T02560167
04850KAOH AOH20160612004511106/12/16 00:45:31  5-MIN KAOH 120545Z AUTO 25009KT 10SM FEW085 26/17 A2998 920 57 2400 260/09 RMK AO2 T02560167
04850KAOH AOH20160612005013606/12/16 00:50:31  5-MIN KAOH 120550Z AUTO 25011KT 10SM FEW085 26/17 A2998 920 57 2400 250/11 RMK AO2 SLP141 T02560167 10317 20250 53007
04850KAOH AOH20160612005511106/12/16 00:55:31  5-MIN KAOH 120555Z AUTO 25010KT 10SM FEW085 26/17 A2998 920 57 2400 260/10 RMK AO2 T02560167
04850KAOH AOH20160612010011106/12/16 01:00:31  5-MIN KAOH 120600Z AUTO 25010KT 10SM SCT080 26/17 A2998 920 57 2400 260/10 RMK AO2 T02560167
04850KAOH AOH20160612010511106/12/16 01:05:31  5-MIN KAOH 120605Z AUTO 25010KT 10SM BKN080 26/17 A2998 920 57 2400 250/10 RMK AO2 T02560167
04850KAOH AOH20160612011011106/12/16 01:10:31  5-MIN KAOH 120610Z AUTO 25009KT 10SM BKN080 26/17 A2998 920 57 2400 250/09 RMK AO2 T02560167
04850KAOH AOH20160612011511106/12/16 01:15:31  5-MIN KAOH 120615Z AUTO 25010KT 10SM BKN080 26/17 A2998 930 57 2400 250/10 RMK AO2 T02560167
04850KAOH AOH20160612012011106/12/16 01:20:31  5-MIN KAOH 120620Z AUTO 25009KT 10SM BKN080 26/17 A2998 920 57 2400 250/09 RMK AO2 T02560167
04850KAOH AOH20160612012511106/12/16 01:25:31  5-MIN KAOH 120625Z AUTO 25009KT 10SM OVC080 26/17 A2998 920 57 2400 260/09 RMK AO2 T02560167
04850KAOH AOH20160612013011106/12/16 01:30:31  5-MIN KAOH 120630Z AUTO 25009KT 10SM OVC080 26/17 A2998 920 57 2400 260/09 RMK AO2 T02560167
04850KAOH AOH20160612013511106/12/16 01:35:31  5-MIN KAOH 120635Z AUTO 25010KT 10SM OVC080 26/17 A2998 920 57 2400 260/10 RMK AO2 T02560167
04850KAOH AOH20160612014011106/12/16 01:40:31  5-MIN KAOH 120640Z AUTO 25010KT 10SM OVC080 26/17 A2998 920 57 2400 260/10 RMK AO2 T02560167
04850KAOH AOH20160612014511106/12/16 01:45:31  5-MIN KAOH 120645Z AUTO 25010KT 10SM OVC080 26/17 A2998 920 57 2400 260/10 RMK AO2 T02560167
04850KAOH AOH20160612015011806/12/16 01:50:31  5-MIN KAOH 120650Z AUTO 25009KT 10SM OVC080 26/17 A2998 930 57 2400 250/09 RMK AO2 SLP140 T02560167
04850KAOH AOH20160612015511106/12/16 01:55:31  5-MIN KAOH 120655Z AUTO 25009KT 10SM BKN080 26/17 A2998 930 57 2400 260/09 RMK AO2 T02560167
04850KAOH AOH20160612020011106/12/16 02:00:31  5-MIN KAOH 120700Z AUTO 25010KT 10SM BKN080 26/17 A2998 930 57 2400 260/10 RMK AO2 T02560167
04850KAOH AOH20160612020511106/12/16 02:05:31  5-MIN KAOH 120705Z AUTO 25009KT 10SM BKN080 25/17 A2998 930 59 2300 260/09 RMK AO2 T02500167
04850KAOH AOH20160612021011106/12/16 02:10:31  5-MIN KAOH 120710Z AUTO 25009KT 10SM SCT080 25/17 A2998 930 59 2300 260/09 RMK AO2 T02500167
04850KAOH AOH20160612021511106/12/16 02:15:31  5-MIN KAOH 120715Z AUTO 26009KT 10SM SCT080 25/17 A2997 930 59 2300 260/09 RMK AO2 T02500167
04850KAOH AOH20160612022011106/12/16 02:20:31  5-MIN KAOH 120720Z AUTO 25009KT 10SM FEW080 25/17 A2997 930 59 2300 260/09 RMK AO2 T02500167
04850KAOH AOH20160612022511106/12/16 02:25:31  5-MIN KAOH 120725Z AUTO 25008KT 10SM FEW080 25/17 A2997 930 59 2300 260/08 RMK AO2 T02500167
04850KAOH AOH20160612023011106/12/16 02:30:31  5-MIN KAOH 120730Z AUTO 25008KT 10SM FEW080 24/17 A2997 930 61 2300 260/08 RMK AO2 T02440167
04850KAOH AOH20160612023511106/12/16 02:35:31  5-MIN KAOH 120735Z AUTO 25008KT 10SM FEW080 24/17 A2997 930 61 2300 260/08 RMK AO2 T02440167
04850KAOH AOH20160612024011106/12/16 02:40:31  5-MIN KAOH 120740Z AUTO 26007KT 10SM FEW080 24/17 A2997 930 61 2300 260/07 RMK AO2 T02440167
04850KAOH AOH20160612024511106/12/16 02:45:31  5-MIN KAOH 120745Z AUTO 27007KT 10SM SCT080 24/17 A2997 930 63 2300 270/07 RMK AO2 T02440172
04850KAOH AOH20160612025011806/12/16 02:50:31  5-MIN KAOH 120750Z AUTO 27006KT 10SM SCT080 24/17 A2997 930 66 2200 280/06 RMK AO2 SLP140 T02390172
04850KAOH AOH20160612025511106/12/16 02:55:31  5-MIN KAOH 120755Z AUTO 27007KT 10SM FEW080 24/17 A2998 930 66 2200 280/07 RMK AO2 T02390172
04850KAOH AOH20160612030011806/12/16 03:00:31  5-MIN KAOH 120800Z AUTO 27007KT 10SM FEW060 SCT075 24/17 A2997 930 66 2200 270/07 RMK AO2 T02390172
04850KAOH AOH20160612030511806/12/16 03:05:31  5-MIN KAOH 120805Z AUTO 27008KT 10SM FEW060 BKN075 24/17 A2997 930 66 2200 270/08 RMK AO2 T02390172
04850KAOH AOH20160612031011806/12/16 03:10:31  5-MIN KAOH 120810Z AUTO 27007KT 10SM FEW060 BKN075 24/17 A2997 930 66 2200 270/07 RMK AO2 T02390172
04850KAOH AOH20160612031511806/12/16 03:15:31  5-MIN KAOH 120815Z AUTO 27008KT 10SM FEW060 SCT080 24/18 A2997 930 66 2300 280/08 RMK AO2 T02440178
04850KAOH AOH20160612032011806/12/16 03:20:31  5-MIN KAOH 120820Z AUTO 28009KT 10SM FEW060 BKN080 24/18 A2998 930 66 2300 290/09 RMK AO2 T02440178
04850KAOH AOH20160612032511806/12/16 03:25:31  5-MIN KAOH 120825Z AUTO 29012KT 10SM SCT060 BKN080 25/18 A2998 930 64 2300 290/12 RMK AO2 T02500178
04850KAOH AOH20160612033011806/12/16 03:30:31  5-MIN KAOH 120830Z AUTO 29011KT 10SM FEW060 BKN080 25/18 A2998 920 64 2300 290/11 RMK AO2 T02500178
04850KAOH AOH20160612033511806/12/16 03:35:31  5-MIN KAOH 120835Z AUTO 29011KT 10SM FEW060 BKN080 25/18 A2998 920 64 2300 290/11 RMK AO2 T02500178
04850KAOH AOH20160612034011806/12/16 03:40:31  5-MIN KAOH 120840Z AUTO 29009KT 10SM FEW055 BKN080 25/18 A2998 920 64 2300 290/09 RMK AO2 T02500178
04850KAOH AOH20160612034511806/12/16 03:45:31  5-MIN KAOH 120845Z AUTO 28009KT 10SM SCT060 BKN080 25/18 A2998 920 64 2300 290/09 RMK AO2 T02500178
04850KAOH AOH20160612035013106/12/16 03:50:31  5-MIN KAOH 120850Z AUTO 28009KT 10SM FEW060 BKN080 24/18 A2998 920 66 2300 290/09 RMK AO2 SLP142 T02440178 53004
04850KAOH AOH20160612035511806/12/16 03:55:31  5-MIN KAOH 120855Z AUTO 28009KT 10SM FEW060 BKN080 24/18 A2998 920 66 2300 290/09 RMK AO2 T02440178
04850KAOH AOH20160612040011806/12/16 04:00:31  5-MIN KAOH 120900Z AUTO 28008KT 10SM FEW055 BKN080 24/18 A2998 920 66 2300 290/08 RMK AO2 T02440178
04850KAOH AOH20160612040511806/12/16 04:05:31  5-MIN KAOH 120905Z AUTO 29009KT 10SM FEW055 BKN080 24/18 A2998 920 68 2300 290/09 RMK AO2 T02440183
04850KAOH AOH20160612041012506/12/16 04:10:31  5-MIN KAOH 120910Z AUTO 29008KT 10SM FEW055 FEW070 BKN080 24/18 A2998 920 68 2300 300/08 RMK AO2 T02440183
04850KAOH AOH20160612041511806/12/16 04:15:31  5-MIN KAOH 120915Z AUTO 29009KT 10SM FEW055 BKN080 24/18 A2998 920 68 2300 290/09 RMK AO2 T02440183
04850KAOH AOH20160612042011806/12/16 04:20:31  5-MIN KAOH 120920Z AUTO 29008KT 10SM SCT060 BKN080 24/18 A2999 920 68 2300 300/08 RMK AO2 T02440183
04850KAOH AOH20160612042511806/12/16 04:25:31  5-MIN KAOH 120925Z AUTO 29008KT 10SM SCT060 OVC080 24/18 A2999 920 68 2300 300/08 RMK AO2 T02440183
04850KAOH AOH20160612043012506/12/16 04:30:31  5-MIN KAOH 120930Z AUTO 31008KT 10SM FEW042 SCT050 OVC080 24/18 A2999 910 68 2300 320/08 RMK AO2 T02440183
04850KAOH AOH20160612043512506/12/16 04:35:31  5-MIN KAOH 120935Z AUTO 32008KT 10SM FEW042 SCT055 BKN080 24/18 A3000 910 71 2200 330/08 RMK AO2 T02390183
04850KAOH AOH20160612044012506/12/16 04:40:31  5-MIN KAOH 120940Z AUTO 32009KT 10SM FEW042 SCT055 BKN080 24/18 A3000 910 68 2200 330/09 RMK AO2 T02440183
04850KAOH AOH20160612044512506/12/16 04:45:31  5-MIN KAOH 120945Z AUTO 33008KT 10SM FEW042 SCT055 BKN080 24/18 A3000 900 68 2200 340/08 RMK AO2 T02440183
04850KAOH AOH20160612045013206/12/16 04:50:31  5-MIN KAOH 120950Z AUTO 33008KT 10SM FEW042 FEW050 SCT080 24/18 A3000 900 71 2200 340/08 RMK AO2 SLP149 T02390183
04850KAOH AOH20160612045511806/12/16 04:55:31  5-MIN KAOH 120955Z AUTO 33006KT 10SM FEW042 FEW050 24/18 A3000 900 71 2200 340/06 RMK AO2 T02390183
04850KAOH AOH20160612050011106/12/16 05:00:31  5-MIN KAOH 121000Z AUTO 33007KT 10SM FEW042 24/18 A3001 900 71 2200 340/07 RMK AO2 T02390183
04850KAOH AOH20160612050510806/12/16 05:05:31  5-MIN KAOH 121005Z AUTO 34007KT 10SM CLR 24/18 A3001 900 71 2200 340/07 RMK AO2 T02390183
04850KAOH AOH20160612051010806/12/16 05:10:31  5-MIN KAOH 121010Z AUTO 34008KT 10SM CLR 24/18 A3001 890 71 2200 340/08 RMK AO2 T02390183
04850KAOH AOH20160612051511106/12/16 05:15:31  5-MIN KAOH 121015Z AUTO 34007KT 10SM FEW060 24/18 A3001 890 71 2200 350/07 RMK AO2 T02390183
04850KAOH AOH20160612052011106/12/16 05:20:31  5-MIN KAOH 121020Z AUTO 35007KT 10SM SCT060 24/18 A3002 890 71 2200 350/07 RMK AO2 T02390183
04850KAOH AOH20160612052511106/12/16 05:25:31  5-MIN KAOH 121025Z AUTO 35008KT 10SM SCT060 23/18 A3002 890 73 2100 350/08 RMK AO2 T02330183
04850KAOH AOH20160612053011106/12/16 05:30:31  5-MIN KAOH 121030Z AUTO 35008KT 10SM SCT060 23/18 A3002 890 73 2100 360/08 RMK AO2 T02330183
04850KAOH AOH20160612053511106/12/16 05:35:31  5-MIN KAOH 121035Z AUTO 01007KT 10SM SCT060 23/18 A3002 890 73 2100 010/07 RMK AO2 T02330183
04850KAOH AOH20160612054011106/12/16 05:40:31  5-MIN KAOH 121040Z AUTO 36008KT 10SM FEW060 23/18 A3002 880 73 2100 010/08 RMK AO2 T02330183
04850KAOH AOH20160612054511106/12/16 05:45:31  5-MIN KAOH 121045Z AUTO 36006KT 10SM FEW060 23/18 A3003 880 73 2100 010/06 RMK AO2 T02330183
04850KAOH AOH20160612055011506/12/16 05:50:31  5-MIN KAOH 121050Z AUTO 36007KT 10SM CLR 23/18 A3003 880 73 2100 010/07 RMK AO2 SLP158 T02330183
04850KAOH AOH20160612055510806/12/16 05:55:31  5-MIN KAOH 121055Z AUTO 36008KT 10SM CLR 23/18 A3003 880 70 2100 010/08 RMK AO2 T02330178
04850KAOH AOH20160612060010806/12/16 06:00:31  5-MIN KAOH 121100Z AUTO 36007KT 10SM CLR 23/18 A3003 880 70 2100 360/07 RMK AO2 T02330178
04850KAOH AOH20160612060510806/12/16 06:05:31  5-MIN KAOH 121105Z AUTO 36008KT 10SM CLR 23/18 A3003 880 70 2100 010/08 RMK AO2 T02330178
04850KAOH AOH20160612061010806/12/16 06:10:31  5-MIN KAOH 121110Z AUTO 36008KT 10SM CLR 23/18 A3003 880 70 2100 010/08 RMK AO2 T02330178
04850KAOH AOH20160612061510806/12/16 06:15:31  5-MIN KAOH 121115Z AUTO 36008KT 10SM CLR 23/18 A3003 880 70 2100 010/08 RMK AO2 T02330178
04850KAOH AOH20160612062010806/12/16 06:20:31  5-MIN KAOH 121120Z AUTO 01007KT 10SM CLR 23/18 A3003 880 70 2100 010/07 RMK AO2 T02330178
04850KAOH AOH20160612062510806/12/16 06:25:31  5-MIN KAOH 121125Z AUTO 01008KT 10SM CLR 23/18 A3003 880 70 2100 020/08 RMK AO2 T02330178
04850KAOH AOH20160612063010806/12/16 06:30:31  5-MIN KAOH 121130Z AUTO 02009KT 10SM CLR 23/17 A3003 880 70 2000 030/09 RMK AO2 T02280172
04850KAOH AOH20160612063510806/12/16 06:35:31  5-MIN KAOH 121135Z AUTO 02010KT 10SM CLR 23/17 A3003 880 68 2100 030/10 RMK AO2 T02330172
04850KAOH AOH20160612064010806/12/16 06:40:31  5-MIN KAOH 121140Z AUTO 01010KT 10SM CLR 23/17 A3003 880 68 2100 020/10 RMK AO2 T02330172
04850KAOH AOH20160612064510806/12/16 06:45:31  5-MIN KAOH 121145Z AUTO 01010KT 10SM CLR 23/17 A3003 880 68 2100 020/10 RMK AO2 T02330172
04850KAOH AOH20160612065013306/12/16 06:50:31  5-MIN KAOH 121150Z AUTO 01010KT 10SM CLR 23/17 A3003 880 68 2000 020/10 RMK AO2 SLP159 T02280167 10256 20228 55000
04850KAOH AOH20160612065510806/12/16 06:55:31  5-MIN KAOH 121155Z AUTO 01009KT 10SM CLR 23/17 A3003 880 66 2100 020/09 RMK AO2 T02330167
04850KAOH AOH20160612070010806/12/16 07:00:31  5-MIN KAOH 121200Z AUTO 01011KT 10SM CLR 23/16 A3003 870 65 2000 020/11 RMK AO2 T02280161
04850KAOH AOH20160612070510806/12/16 07:05:31  5-MIN KAOH 121205Z AUTO 01011KT 10SM CLR 23/16 A3003 870 65 2000 020/11 RMK AO2 T02280161
04850KAOH AOH20160612071010806/12/16 07:10:31  5-MIN KAOH 121210Z AUTO 36011KT 10SM CLR 23/16 A3003 870 63 2000 360/11 RMK AO2 T02280156
04850KAOH AOH20160612071510806/12/16 07:15:31  5-MIN KAOH 121215Z AUTO 01011KT 10SM CLR 23/16 A3004 870 63 2000 010/11 RMK AO2 T02280156
04850KAOH AOH20160612072010806/12/16 07:20:31  5-MIN KAOH 121220Z AUTO 01013KT 10SM CLR 23/16 A3004 870 63 2000 020/13 RMK AO2 T02280156
04850KAOH AOH20160612072510806/12/16 07:25:31  5-MIN KAOH 121225Z AUTO 36012KT 10SM CLR 23/16 A3004 860 63 2000 010/12 RMK AO2 T02280156
04850KAOH AOH20160612073010806/12/16 07:30:31  5-MIN KAOH 121230Z AUTO 02012KT 10SM CLR 23/16 A3004 860 65 2000 020/12 RMK AO2 T02280161
04850KAOH AOH20160612073510806/12/16 07:35:31  5-MIN KAOH 121235Z AUTO 02011KT 10SM CLR 23/16 A3005 860 63 2100 030/11 RMK AO2 T02330161
04850KAOH AOH20160612074010806/12/16 07:40:31  5-MIN KAOH 121240Z AUTO 02010KT 10SM CLR 23/17 A3005 860 66 2100 020/10 RMK AO2 T02330167
04850KAOH AOH20160612074510806/12/16 07:45:31  5-MIN KAOH 121245Z AUTO 01012KT 10SM CLR 23/17 A3005 860 66 2100 020/12 RMK AO2 T02330167
04850KAOH AOH20160612075011506/12/16 07:50:31  5-MIN KAOH 121250Z AUTO 03010KT 10SM CLR 23/17 A3005 860 66 2100 040/10 RMK AO2 SLP166 T02330167
04850KAOH AOH20160612075510806/12/16 07:55:31  5-MIN KAOH 121255Z AUTO 03012KT 10SM CLR 23/17 A3005 860 68 2100 040/12 RMK AO2 T02330172
04850KAOH AOH20160612080010806/12/16 08:00:31  5-MIN KAOH 121300Z AUTO 03011KT 10SM CLR 23/17 A3005 860 68 2100 030/11 RMK AO2 T02330172
04850KAOH AOH20160612080510806/12/16 08:05:31  5-MIN KAOH 121305Z AUTO 03012KT 10SM CLR 23/17 A3005 860 68 2100 040/12 RMK AO2 T02330172
04850KAOH AOH20160612081010806/12/16 08:10:31  5-MIN KAOH 121310Z AUTO 02012KT 10SM CLR 23/17 A3005 850 66 2100 030/12 RMK AO2 T02330167
04850KAOH AOH20160612081510806/12/16 08:15:31  5-MIN KAOH 121315Z AUTO 03011KT 10SM CLR 23/16 A3006 850 63 2000 040/11 RMK AO2 T02280156
04850KAOH AOH20160612082010806/12/16 08:20:31  5-MIN KAOH 121320Z AUTO 02011KT 10SM CLR 23/14 A3006 850 59 2000 030/11 RMK AO2 T02280144
04850KAOH AOH20160612082510806/12/16 08:25:31  5-MIN KAOH 121325Z AUTO 03009KT 10SM CLR 23/14 A3007 840 59 2000 040/09 RMK AO2 T02280144
04850KAOH AOH20160612083010806/12/16 08:30:31  5-MIN KAOH 121330Z AUTO 04010KT 10SM CLR 23/14 A3007 840 59 2000 040/10 RMK AO2 T02280144
04850KAOH AOH20160612083510806/12/16 08:35:31  5-MIN KAOH 121335Z AUTO 03010KT 10SM CLR 23/14 A3007 840 57 2000 040/10 RMK AO2 T02330144
04850KAOH AOH20160612084010806/12/16 08:40:31  5-MIN KAOH 121340Z AUTO 04011KT 10SM CLR 23/14 A3007 840 59 2000 040/11 RMK AO2 T02280144
04850KAOH AOH20160612084510806/12/16 08:45:31  5-MIN KAOH 121345Z AUTO 03012KT 10SM CLR 23/14 A3008 830 59 2000 040/12 RMK AO2 T02280144
04850KAOH AOH20160612085011506/12/16 08:50:31  5-MIN KAOH 121350Z AUTO 03010KT 10SM CLR 23/14 A3008 830 59 2000 040/10 RMK AO2 SLP177 T02280144
04850KAOH AOH20160612085510806/12/16 08:55:31  5-MIN KAOH 121355Z AUTO 03010KT 10SM CLR 23/15 A3008 830 61 2000 040/10 RMK AO2 T02280150
04850KAOH AOH20160612090010806/12/16 09:00:31  5-MIN KAOH 121400Z AUTO 02009KT 10SM CLR 23/14 A3008 830 57 2000 020/09 RMK AO2 T02330144
04850KAOH AOH20160612090510806/12/16 09:05:31  5-MIN KAOH 121405Z AUTO 02010KT 10SM CLR 23/14 A3008 830 57 2000 030/10 RMK AO2 T02330144
04850KAOH AOH20160612091010806/12/16 09:10:31  5-MIN KAOH 121410Z AUTO 02011KT 10SM CLR 23/15 A3008 830 59 2000 030/11 RMK AO2 T02330150
04850KAOH AOH20160612091510806/12/16 09:15:31  5-MIN KAOH 121415Z AUTO 02010KT 10SM CLR 23/14 A3008 830 57 2000 020/10 RMK AO2 T02330144
04850KAOH AOH20160612092010806/12/16 09:20:31  5-MIN KAOH 121420Z AUTO 02008KT 10SM CLR 23/14 A3008 830 57 2000 030/08 RMK AO2 T02330144
04850KAOH AOH20160612092510806/12/16 09:25:31  5-MIN KAOH 121425Z AUTO 04010KT 10SM CLR 23/15 A3008 830 59 2000 050/10 RMK AO2 T02330150
04850KAOH AOH20160612093010806/12/16 09:30:31  5-MIN KAOH 121430Z AUTO 02009KT 10SM CLR 23/15 A3008 830 59 2000 030/09 RMK AO2 T02330150
04850KAOH AOH20160612093510806/12/16 09:35:31  5-MIN KAOH 121435Z AUTO 04010KT 10SM CLR 23/15 A3008 830 59 2000 040/10 RMK AO2 T02330150
04850KAOH AOH20160612094010806/12/16 09:40:31  5-MIN KAOH 121440Z AUTO 03009KT 10SM CLR 23/15 A3008 830 59 2000 030/09 RMK AO2 T02330150
04850KAOH AOH20160612094511406/12/16 09:45:31  5-MIN KAOH 121445Z AUTO 02005G15KT 10SM CLR 23/15 A3008 830 59 2000 020/05G15 RMK AO2 T02330150
04850KAOH AOH20160612095012706/12/16 09:50:31  5-MIN KAOH 121450Z AUTO 03009G15KT 10SM CLR 23/15 A3008 830 59 2000 040/09G15 RMK AO2 SLP177 T02330150 51017
04850KAOH AOH20160612095510806/12/16 09:55:31  5-MIN KAOH 121455Z AUTO 04008KT 10SM CLR 23/15 A3008 830 59 2000 040/08 RMK AO2 T02330150
04850KAOH AOH20160612100010806/12/16 10:00:31  5-MIN KAOH 121500Z AUTO 03005KT 10SM CLR 23/15 A3008 830 59 2000 030/05 RMK AO2 T02330150
04850KAOH AOH20160612100510806/12/16 10:05:31  5-MIN KAOH 121505Z AUTO 04009KT 10SM CLR 23/15 A3008 830 59 2000 040/09 RMK AO2 T02330150
04850KAOH AOH20160612101012406/12/16 10:10:31  5-MIN KAOH 121510Z AUTO 05007KT 010V080 10SM CLR 23/15 A3008 830 59 2000 060/07 020V090 RMK AO2 T02330150
04850KAOH AOH20160612101510806/12/16 10:15:31  5-MIN KAOH 121515Z AUTO 06006KT 10SM CLR 24/15 A3008 830 57 2100 070/06 RMK AO2 T02390150
04850KAOH AOH20160612102010806/12/16 10:20:31  5-MIN KAOH 121520Z AUTO 35007KT 10SM CLR 24/15 A3008 830 57 2100 360/07 RMK AO2 T02390150
04850KAOH AOH20160612102510806/12/16 10:25:31  5-MIN KAOH 121525Z AUTO 05008KT 10SM CLR 24/14 A3009 820 55 2100 060/08 RMK AO2 T02390144
04850KAOH AOH20160612103010806/12/16 10:30:31  5-MIN KAOH 121530Z AUTO 04009KT 10SM CLR 24/15 A3009 820 57 2100 040/09 RMK AO2 T02390150
04850KAOH AOH20160612103510806/12/16 10:35:31  5-MIN KAOH 121535Z AUTO 01006KT 10SM CLR 24/14 A3008 830 53 2100 010/06 RMK AO2 T02440144
04850KAOH AOH20160612104010806/12/16 10:40:31  5-MIN KAOH 121540Z AUTO 03009KT 10SM CLR 24/14 A3009 820 55 2100 030/09 RMK AO2 T02390144
04850KAOH AOH20160612104510806/12/16 10:45:31  5-MIN KAOH 121545Z AUTO VRB04KT 10SM CLR 24/14 A3009 820 55 2100 VRB/04 RMK AO2 T02390144
04850KAOH AOH20160612105011506/12/16 10:50:31  5-MIN KAOH 121550Z AUTO 36007KT 10SM CLR 24/14 A3009 820 53 2100 360/07 RMK AO2 SLP181 T02440144
04850KAOH AOH20160612105510806/12/16 10:55:31  5-MIN KAOH 121555Z AUTO 06008KT 10SM CLR 24/14 A3009 820 53 2100 060/08 RMK AO2 T02440144
04850KAOH AOH20160612110010806/12/16 11:00:31  5-MIN KAOH 121600Z AUTO 35008KT 10SM CLR 24/14 A3009 820 53 2100 360/08 RMK AO2 T02440144
04850KAOH AOH20160612110510806/12/16 11:05:31  5-MIN KAOH 121605Z AUTO 35007KT 10SM CLR 24/14 A3009 820 53 2100 360/07 RMK AO2 T02390139
04850KAOH AOH20160612111011406/12/16 11:10:31  5-MIN KAOH 121610Z AUTO 01011G15KT 10SM CLR 25/14 A3009 820 49 2200 010/11G15 RMK AO2 T02500139
04850KAOH AOH20160612111511406/12/16 11:15:31  5-MIN KAOH 121615Z AUTO VRB05G15KT 10SM CLR 24/13 A3009 820 49 2100 VRB/05G15 RMK AO2 T02440133
04850KAOH AOH20160612112010806/12/16 11:20:31  5-MIN KAOH 121620Z AUTO 03010KT 10SM CLR 25/14 A3009 820 49 2200 030/10 RMK AO2 T02500139
04850KAOH AOH20160612112510806/12/16 11:25:31  5-MIN KAOH 121625Z AUTO 01009KT 10SM CLR 24/14 A3009 820 51 2100 010/09 RMK AO2 T02440139
04850KAOH AOH20160612113010806/12/16 11:30:31  5-MIN KAOH 121630Z AUTO 02009KT 10SM CLR 24/14 A3008 830 51 2100 030/09 RMK AO2 T02440139
04850KAOH AOH20160612113510806/12/16 11:35:31  5-MIN KAOH 121635Z AUTO 35010KT 10SM CLR 25/14 A3008 830 49 2200 360/10 RMK AO2 T02500139
04850KAOH AOH20160612114010806/12/16 11:40:31  5-MIN KAOH 121640Z AUTO 33004KT 10SM CLR 24/14 A3008 830 51 2200 340/04 RMK AO2 T02440139
04850KAOH AOH20160612114511406/12/16 11:45:31  5-MIN KAOH 121645Z AUTO 01011G14KT 10SM CLR 26/14 A3007 840 48 2300 020/11G14 RMK AO2 T02560139
04850KAOH AOH20160612115011506/12/16 11:50:31  5-MIN KAOH 121650Z AUTO 04009KT 10SM CLR 25/13 A3007 840 48 2200 040/09 RMK AO2 SLP173 T02500133
04850KAOH AOH20160612115510806/12/16 11:55:31  5-MIN KAOH 121655Z AUTO 02008KT 10SM CLR 26/14 A3007 840 48 2300 030/08 RMK AO2 T02560139
04850KAOH AOH20160612120011406/12/16 12:00:31  5-MIN KAOH 121700Z AUTO 01009G15KT 10SM CLR 26/13 A3006 850 44 2300 010/09G15 RMK AO2 T02560128
04850KAOH AOH20160612120510806/12/16 12:05:31  5-MIN KAOH 121705Z AUTO 02008KT 10SM CLR 25/13 A3006 850 46 2200 030/08 RMK AO2 T02500128
04850KAOH AOH20160612121010806/12/16 12:10:31  5-MIN KAOH 121710Z AUTO VRB05KT 10SM CLR 26/13 A3006 850 46 2300 VRB/05 RMK AO2 T02560133
04850KAOH AOH20160612121510806/12/16 12:15:31  5-MIN KAOH 121715Z AUTO 02008KT 10SM CLR 26/12 A3006 850 43 2300 030/08 RMK AO2 T02560122
04850KAOH AOH20160612122010806/12/16 12:20:31  5-MIN KAOH 121720Z AUTO VRB06KT 10SM CLR 26/12 A3006 850 40 2400 VRB/06 RMK AO2 T02610117
04850KAOH AOH20160612122510806/12/16 12:25:31  5-MIN KAOH 121725Z AUTO 35008KT 10SM CLR 26/12 A3006 850 40 2400 360/08 RMK AO2 T02610117
04850KAOH AOH20160612123010806/12/16 12:30:31  5-MIN KAOH 121730Z AUTO 34007KT 10SM CLR 26/11 A3006 850 38 2400 350/07 RMK AO2 T02610111
04850KAOH AOH20160612123510806/12/16 12:35:31  5-MIN KAOH 121735Z AUTO 32007KT 10SM CLR 26/11 A3006 850 37 2400 330/07 RMK AO2 T02610106
04850KAOH AOH20160612124010806/12/16 12:40:31  5-MIN KAOH 121740Z AUTO 35008KT 10SM CLR 26/11 A3006 850 37 2400 360/08 RMK AO2 T02610106
04850KAOH AOH20160612124510806/12/16 12:45:31  5-MIN KAOH 121745Z AUTO 33007KT 10SM CLR 27/11 A3006 850 36 2400 330/07 RMK AO2 T02670106
04850KAOH AOH20160612125013306/12/16 12:50:31  5-MIN KAOH 121750Z AUTO 34009KT 10SM CLR 27/11 A3006 850 34 2500 350/09 RMK AO2 SLP170 T02720106 10272 20228 51016
04850KAOH AOH20160612125511406/12/16 12:55:31  5-MIN KAOH 121755Z AUTO 36010G15KT 10SM CLR 27/09 A3006 850 31 2500 360/10G15 RMK AO2 T02720089
04850KAOH AOH20160612130011406/12/16 13:00:31  5-MIN KAOH 121800Z AUTO 33010G15KT 10SM CLR 27/08 A3006 850 30 2500 330/10G15 RMK AO2 T02720083
04850KAOH AOH20160612130510806/12/16 13:05:31  5-MIN KAOH 121805Z AUTO 33009KT 10SM CLR 27/09 A3006 850 31 2500 340/09 RMK AO2 T02720089
04850KAOH AOH20160612131010806/12/16 13:10:31  5-MIN KAOH 121810Z AUTO 35012KT 10SM CLR 28/09 A3006 850 31 2500 360/12 RMK AO2 T02780094
04850KAOH AOH20160612131512406/12/16 13:15:31  5-MIN KAOH 121815Z AUTO 35009KT 320V020 10SM CLR 27/09 A3006 850 31 2500 360/09 330V030 RMK AO2 T02720089
04850KAOH AOH20160612132011406/12/16 13:20:31  5-MIN KAOH 121820Z AUTO 34006G15KT 10SM CLR 27/09 A3006 850 32 2500 340/06G15 RMK AO2 T02720094
04850KAOH AOH20160612132511406/12/16 13:25:31  5-MIN KAOH 121825Z AUTO 34010G14KT 10SM CLR 27/09 A3006 850 31 2500 350/10G14 RMK AO2 T02720089
04850KAOH AOH20160612133010806/12/16 13:30:31  5-MIN KAOH 121830Z AUTO 32009KT 10SM CLR 28/09 A3006 840 30 2500 330/09 RMK AO2 T02780089
04850KAOH AOH20160612133510806/12/16 13:35:31  5-MIN KAOH 121835Z AUTO 33007KT 10SM CLR 27/09 A3006 850 31 2500 330/07 RMK AO2 T02720089
04850KAOH AOH20160612134010806/12/16 13:40:31  5-MIN KAOH 121840Z AUTO 35011KT 10SM CLR 28/09 A3006 850 30 2500 360/11 RMK AO2 T02780089
04850KAOH AOH20160612134510806/12/16 13:45:31  5-MIN KAOH 121845Z AUTO 35008KT 10SM CLR 28/08 A3006 840 28 2600 360/08 RMK AO2 T02830083
04850KAOH AOH20160612135012106/12/16 13:50:31  5-MIN KAOH 121850Z AUTO 33012G17KT 10SM CLR 28/07 A3006 840 27 2500 330/12G17 RMK AO2 SLP172 T02780072
04850KAOH AOH20160612135511406/12/16 13:55:31  5-MIN KAOH 121855Z AUTO 33012G17KT 10SM CLR 28/06 A3006 850 23 2600 340/12G17 RMK AO2 T02830056
04850KAOH AOH20160612140010806/12/16 14:00:31  5-MIN KAOH 121900Z AUTO 33010KT 10SM CLR 28/05 A3006 850 22 2600 340/10 RMK AO2 T02830050
04850KAOH AOH20160612140510806/12/16 14:05:31  5-MIN KAOH 121905Z AUTO 34011KT 10SM CLR 28/04 A3006 850 21 2600 350/11 RMK AO2 T02830044
04850KAOH AOH20160612141010806/12/16 14:10:31  5-MIN KAOH 121910Z AUTO 35010KT 10SM CLR 28/04 A3006 850 20 2600 350/10 RMK AO2 T02830039
04850KAOH AOH20160612141510806/12/16 14:15:31  5-MIN KAOH 121915Z AUTO 31011KT 10SM CLR 29/04 A3006 850 20 2700 320/11 RMK AO2 T02890039
04850KAOH AOH20160612142010806/12/16 14:20:31  5-MIN KAOH 121920Z AUTO 34011KT 10SM CLR 28/03 A3006 850 19 2600 340/11 RMK AO2 T02830028
04850KAOH AOH20160612142510806/12/16 14:25:31  5-MIN KAOH 121925Z AUTO 33009KT 10SM CLR 28/03 A3005 860 19 2600 340/09 RMK AO2 T02780028
04850KAOH AOH20160612143010806/12/16 14:30:31  5-MIN KAOH 121930Z AUTO 35011KT 10SM CLR 28/02 A3005 850 17 2600 350/11 RMK AO2 T02830017
04850KAOH AOH20160612143510806/12/16 14:35:31  5-MIN KAOH 121935Z AUTO 33009KT 10SM CLR 28/02 A3005 850 19 2600 340/09 RMK AO2 T02780022
04850KAOH AOH20160612144010806/12/16 14:40:31  5-MIN KAOH 121940Z AUTO 35008KT 10SM CLR 28/02 A3005 860 18 2600 360/08 RMK AO2 T02830022
04850KAOH AOH20160612144510806/12/16 14:45:31  5-MIN KAOH 121945Z AUTO 32007KT 10SM CLR 28/02 A3005 860 18 2600 320/07 RMK AO2 T02830022
04850KAOH AOH20160612145011506/12/16 14:50:31  5-MIN KAOH 121950Z AUTO 32012KT 10SM CLR 29/02 A3005 860 17 2700 320/12 RMK AO2 SLP167 T02890017
04850KAOH AOH20160612145510806/12/16 14:55:31  5-MIN KAOH 121955Z AUTO 32010KT 10SM CLR 28/02 A3005 860 17 2600 320/10 RMK AO2 T02830017
04850KAOH AOH20160612150010806/12/16 15:00:31  5-MIN KAOH 122000Z AUTO 34006KT 10SM CLR 28/02 A3005 860 19 2600 340/06 RMK AO2 T02780022
04850KAOH AOH20160612150510806/12/16 15:05:31  5-MIN KAOH 122005Z AUTO 33011KT 10SM CLR 28/03 A3005 860 19 2600 330/11 RMK AO2 T02830028
04850KAOH AOH20160612151010806/12/16 15:10:31  5-MIN KAOH 122010Z AUTO 32010KT 10SM CLR 28/02 A3005 860 17 2600 330/10 RMK AO2 T02830017
04850KAOH AOH20160612151510806/12/16 15:15:31  5-MIN KAOH 122015Z AUTO 34012KT 10SM CLR 28/01 A3005 860 17 2600 350/12 RMK AO2 T02830011
04850KAOH AOH20160612152010806/12/16 15:20:31  5-MIN KAOH 122020Z AUTO 33012KT 10SM CLR 28/01 A3005 860 17 2600 330/12 RMK AO2 T02830011
04850KAOH AOH20160612152510806/12/16 15:25:31  5-MIN KAOH 122025Z AUTO 34011KT 10SM CLR 28/02 A3004 860 17 2600 350/11 RMK AO2 T02830017
04850KAOH AOH20160612153010806/12/16 15:30:31  5-MIN KAOH 122030Z AUTO 33010KT 10SM CLR 28/02 A3005 860 18 2600 330/10 RMK AO2 T02780017
04850KAOH AOH20160612153510806/12/16 15:35:31  5-MIN KAOH 122035Z AUTO 33011KT 10SM CLR 28/02 A3005 860 17 2600 330/11 RMK AO2 T02830017
04850KAOH AOH20160612154010806/12/16 15:40:31  5-MIN KAOH 122040Z AUTO 33009KT 10SM CLR 28/02 A3005 860 18 2600 340/09 RMK AO2 T02830022
04850KAOH AOH20160612154510806/12/16 15:45:31  5-MIN KAOH 122045Z AUTO 34010KT 10SM CLR 28/03 A3005 860 19 2600 340/10 RMK AO2 T02830028
04850KAOH AOH20160612155012106/12/16 15:50:31  5-MIN KAOH 122050Z AUTO 33009KT 10SM CLR 28/03 A3005 860 19 2600 340/09 RMK AO2 SLP166 T02780028 58006
04850KAOH AOH20160612155510806/12/16 15:55:31  5-MIN KAOH 122055Z AUTO 34007KT 10SM CLR 28/03 A3005 860 19 2600 340/07 RMK AO2 T02780028
04850KAOH AOH20160612160010806/12/16 16:00:31  5-MIN KAOH 122100Z AUTO 33011KT 10SM CLR 28/03 A3005 860 19 2600 330/11 RMK AO2 T02780028
04850KAOH AOH20160612160510806/12/16 16:05:31  5-MIN KAOH 122105Z AUTO 34011KT 10SM CLR 28/03 A3004 860 20 2600 340/11 RMK AO2 T02780033
04850KAOH AOH20160612161010806/12/16 16:10:31  5-MIN KAOH 122110Z AUTO 34011KT 10SM CLR 28/02 A3005 860 19 2600 350/11 RMK AO2 T02780022
04850KAOH AOH20160612161510806/12/16 16:15:31  5-MIN KAOH 122115Z AUTO 34007KT 10SM CLR 27/03 A3004 860 20 2500 340/07 RMK AO2 T02720028
04850KAOH AOH20160612162010806/12/16 16:20:31  5-MIN KAOH 122120Z AUTO 33009KT 10SM CLR 28/03 A3004 870 19 2600 330/09 RMK AO2 T02780028
04850KAOH AOH20160612162510806/12/16 16:25:31  5-MIN KAOH 122125Z AUTO 35011KT 10SM CLR 28/03 A3004 870 20 2600 360/11 RMK AO2 T02830033
04850KAOH AOH20160612163010806/12/16 16:30:31  5-MIN KAOH 122130Z AUTO 34013KT 10SM CLR 28/03 A3004 860 19 2600 340/13 RMK AO2 T02780028
04850KAOH AOH20160612163510806/12/16 16:35:31  5-MIN KAOH 122135Z AUTO 34011KT 10SM CLR 27/02 A3004 860 19 2500 340/11 RMK AO2 T02720022
04850KAOH AOH20160612164010806/12/16 16:40:31  5-MIN KAOH 122140Z AUTO 35011KT 10SM CLR 27/02 A3004 860 19 2500 350/11 RMK AO2 T02720022
04850KAOH AOH20160612164510806/12/16 16:45:31  5-MIN KAOH 122145Z AUTO 35010KT 10SM CLR 27/02 A3004 870 19 2500 360/10 RMK AO2 T02720022
04850KAOH AOH20160612165011506/12/16 16:50:31  5-MIN KAOH 122150Z AUTO 36010KT 10SM CLR 27/02 A3004 870 19 2500 360/10 RMK AO2 SLP165 T02720022
04850KAOH AOH20160612165510806/12/16 16:55:31  5-MIN KAOH 122155Z AUTO 36008KT 10SM CLR 27/03 A3004 870 20 2500 010/08 RMK AO2 T02720028
04850KAOH AOH20160612170010806/12/16 17:00:31  5-MIN KAOH 122200Z AUTO 35007KT 10SM CLR 27/03 A3004 860 21 2500 360/07 RMK AO2 T02720033
04850KAOH AOH20160612170510806/12/16 17:05:31  5-MIN KAOH 122205Z AUTO 36009KT 10SM CLR 27/03 A3004 870 21 2500 010/09 RMK AO2 T02720033
04850KAOH AOH20160612171010806/12/16 17:10:31  5-MIN KAOH 122210Z AUTO 36008KT 10SM CLR 27/03 A3004 860 21 2400 010/08 RMK AO2 T02670028
04850KAOH AOH20160612171510806/12/16 17:15:31  5-MIN KAOH 122215Z AUTO 36008KT 10SM CLR 27/03 A3004 860 21 2500 360/08 RMK AO2 T02720033
04850KAOH AOH20160612172010806/12/16 17:20:31  5-MIN KAOH 122220Z AUTO 33008KT 10SM CLR 27/04 A3005 860 22 2400 340/08 RMK AO2 T02670039
04850KAOH AOH20160612172510806/12/16 17:25:31  5-MIN KAOH 122225Z AUTO 33008KT 10SM CLR 27/05 A3005 860 24 2400 340/08 RMK AO2 T02670050
04850KAOH AOH20160612173010806/12/16 17:30:31  5-MIN KAOH 122230Z AUTO 33008KT 10SM CLR 27/04 A3005 860 23 2400 330/08 RMK AO2 T02670044
04850KAOH AOH20160612173510806/12/16 17:35:31  5-MIN KAOH 122235Z AUTO 32009KT 10SM CLR 27/04 A3004 860 23 2400 330/09 RMK AO2 T02670044
04850KAOH AOH20160612174010806/12/16 17:40:31  5-MIN KAOH 122240Z AUTO 33008KT 10SM CLR 27/04 A3004 860 23 2400 340/08 RMK AO2 T02670044
04850KAOH AOH20160612174510806/12/16 17:45:31  5-MIN KAOH 122245Z AUTO 33008KT 10SM CLR 27/04 A3004 860 22 2500 330/08 RMK AO2 T02720039
04850KAOH AOH20160612175011506/12/16 17:50:31  5-MIN KAOH 122250Z AUTO 34008KT 10SM CLR 27/03 A3004 860 21 2500 350/08 RMK AO2 SLP165 T02720033
04850KAOH AOH20160612175510806/12/16 17:55:31  5-MIN KAOH 122255Z AUTO 33008KT 10SM CLR 27/04 A3004 870 22 2500 340/08 RMK AO2 T02720039
04850KAOH AOH20160612180010806/12/16 18:00:31  5-MIN KAOH 122300Z AUTO 32009KT 10SM CLR 27/02 A3004 870 19 2500 330/09 RMK AO2 T02720022
04850KAOH AOH20160612180510806/12/16 18:05:31  5-MIN KAOH 122305Z AUTO 36009KT 10SM CLR 27/02 A3004 860 20 2400 010/09 RMK AO2 T02670022
04850KAOH AOH20160612181010806/12/16 18:10:31  5-MIN KAOH 122310Z AUTO 35008KT 10SM CLR 27/02 A3005 860 20 2400 350/08 RMK AO2 T02670022
04850KAOH AOH20160612181510806/12/16 18:15:31  5-MIN KAOH 122315Z AUTO 36007KT 10SM CLR 26/02 A3004 860 20 2400 010/07 RMK AO2 T02610017
04850KAOH AOH20160612182010806/12/16 18:20:31  5-MIN KAOH 122320Z AUTO 36008KT 10SM CLR 26/02 A3004 860 21 2400 010/08 RMK AO2 T02610022
04850KAOH AOH20160612182510806/12/16 18:25:31  5-MIN KAOH 122325Z AUTO 01009KT 10SM CLR 26/02 A3004 860 21 2400 020/09 RMK AO2 T02610022
04850KAOH AOH20160612183010806/12/16 18:30:31  5-MIN KAOH 122330Z AUTO 36007KT 10SM CLR 26/03 A3004 860 21 2400 360/07 RMK AO2 T02610028
04850KAOH AOH20160612183510806/12/16 18:35:31  5-MIN KAOH 122335Z AUTO 35005KT 10SM CLR 26/03 A3005 860 23 2300 350/05 RMK AO2 T02560033
04850KAOH AOH20160612184010806/12/16 18:40:31  5-MIN KAOH 122340Z AUTO 36005KT 10SM CLR 26/04 A3005 860 24 2300 010/05 RMK AO2 T02560039
04850KAOH AOH20160612184510806/12/16 18:45:31  5-MIN KAOH 122345Z AUTO 36006KT 10SM CLR 26/04 A3005 860 23 2400 010/06 RMK AO2 T02610039
04850KAOH AOH20160612185013306/12/16 18:50:31  5-MIN KAOH 122350Z AUTO 36006KT 10SM CLR 26/04 A3005 860 24 2300 360/06 RMK AO2 SLP168 T02560039 10289 20256 58004
04850KAOH AOH20160612185510806/12/16 18:55:31  5-MIN KAOH 122355Z AUTO 35006KT 10SM CLR 26/04 A3005 860 25 2300 350/06 RMK AO2 T02560044
04850KAOH AOH20160612190010806/12/16 19:00:31  5-MIN KAOH 130000Z AUTO 35007KT 10SM CLR 26/04 A3005 860 24 2300 360/07 RMK AO2 T02560039
04850KAOH AOH20160612190510806/12/16 19:05:31  5-MIN KAOH 130005Z AUTO 34006KT 10SM CLR 26/04 A3005 860 25 2300 340/06 RMK AO2 T02560044
04850KAOH AOH20160612191010806/12/16 19:10:31  5-MIN KAOH 130010Z AUTO 34007KT 10SM CLR 26/04 A3005 860 24 2300 350/07 RMK AO2 T02560039
04850KAOH AOH20160612191510806/12/16 19:15:31  5-MIN KAOH 130015Z AUTO 34005KT 10SM CLR 25/04 A3005 860 25 2200 340/05 RMK AO2 T02500039
04850KAOH AOH20160612192010806/12/16 19:20:31  5-MIN KAOH 130020Z AUTO 34005KT 10SM CLR 25/04 A3006 850 25 2200 340/05 RMK AO2 T02500039
04850KAOH AOH20160612192510806/12/16 19:25:31  5-MIN KAOH 130025Z AUTO 33004KT 10SM CLR 25/04 A3005 850 26 2200 340/04 RMK AO2 T02500044
04850KAOH AOH20160612193010806/12/16 19:30:31  5-MIN KAOH 130030Z AUTO 34006KT 10SM CLR 24/04 A3005 850 27 2200 350/06 RMK AO2 T02440044
04850KAOH AOH20160612193510806/12/16 19:35:31  5-MIN KAOH 130035Z AUTO 34005KT 10SM CLR 24/04 A3005 850 27 2200 350/05 RMK AO2 T02440044
04850KAOH AOH20160612194010806/12/16 19:40:31  5-MIN KAOH 130040Z AUTO 34005KT 10SM CLR 24/04 A3005 850 27 2200 350/05 RMK AO2 T02440044
04850KAOH AOH20160612194510806/12/16 19:45:31  5-MIN KAOH 130045Z AUTO 35005KT 10SM CLR 24/05 A3005 860 29 2100 350/05 RMK AO2 T02390050
04850KAOH AOH20160612195011506/12/16 19:50:31  5-MIN KAOH 130050Z AUTO 36005KT 10SM CLR 23/06 A3005 850 31 2100 360/05 RMK AO2 SLP170 T02330056
04850KAOH AOH20160612195510806/12/16 19:55:31  5-MIN KAOH 130055Z AUTO 36005KT 10SM CLR 23/06 A3005 850 31 2100 010/05 RMK AO2 T02330056
04850KAOH AOH20160612200010806/12/16 20:00:31  5-MIN KAOH 130100Z AUTO 36005KT 10SM CLR 23/06 A3005 850 32 2000 360/05 RMK AO2 T02280056
04850KAOH AOH20160612200510806/12/16 20:05:31  5-MIN KAOH 130105Z AUTO 36004KT 10SM CLR 23/06 A3005 860 32 2000 360/04 RMK AO2 T02280056
04850KAOH AOH20160612201010806/12/16 20:10:31  5-MIN KAOH 130110Z AUTO 35004KT 10SM CLR 23/06 A3005 860 32 2000 360/04 RMK AO2 T02280056
04850KAOH AOH20160612201510806/12/16 20:15:31  5-MIN KAOH 130115Z AUTO 36004KT 10SM CLR 23/05 A3005 860 31 2000 010/04 RMK AO2 T02280050
04850KAOH AOH20160612202010806/12/16 20:20:31  5-MIN KAOH 130120Z AUTO 36004KT 10SM CLR 22/06 A3005 850 33 1900 360/04 RMK AO2 T02220056
04850KAOH AOH20160612202510806/12/16 20:25:31  5-MIN KAOH 130125Z AUTO 35004KT 10SM CLR 22/06 A3006 850 33 1900 360/04 RMK AO2 T02220056
04850KAOH AOH20160612203010806/12/16 20:30:31  5-MIN KAOH 130130Z AUTO 36005KT 10SM CLR 22/05 A3006 850 32 1900 010/05 RMK AO2 T02220050
04850KAOH AOH20160612203510806/12/16 20:35:31  5-MIN KAOH 130135Z AUTO 35005KT 10SM CLR 22/05 A3006 850 33 1900 360/05 RMK AO2 T02170050
04850KAOH AOH20160612204010806/12/16 20:40:31  5-MIN KAOH 130140Z AUTO 35004KT 10SM CLR 22/05 A3007 840 33 1900 350/04 RMK AO2 T02170050
04850KAOH AOH20160612204510806/12/16 20:45:31  5-MIN KAOH 130145Z AUTO 34004KT 10SM CLR 22/05 A3007 840 33 1900 350/04 RMK AO2 T02170050
04850KAOH AOH20160612205011506/12/16 20:50:31  5-MIN KAOH 130150Z AUTO 35003KT 10SM CLR 21/06 A3007 840 36 1800 350/03 RMK AO2 SLP176 T02110056
04850KAOH AOH20160612205510806/12/16 20:55:31  5-MIN KAOH 130155Z AUTO 35003KT 10SM CLR 21/06 A3007 840 37 1700 350/03 RMK AO2 T02060056
04850KAOH AOH20160612210010806/12/16 21:00:31  5-MIN KAOH 130200Z AUTO 34004KT 10SM CLR 21/06 A3008 830 37 1700 340/04 RMK AO2 T02060056
04850KAOH AOH20160612210510806/12/16 21:05:31  5-MIN KAOH 130205Z AUTO 34003KT 10SM CLR 20/06 A3008 830 40 1600 350/03 RMK AO2 T02000061
04850KAOH AOH20160612211010806/12/16 21:10:31  5-MIN KAOH 130210Z AUTO 34003KT 10SM CLR 19/06 A3008 830 41 1600 350/03 RMK AO2 T01940061
04850KAOH AOH20160612211510806/12/16 21:15:31  5-MIN KAOH 130215Z AUTO 00000KT 10SM CLR 19/06 A3008 830 41 1600 000/00 RMK AO2 T01940061
04850KAOH AOH20160612212010806/12/16 21:20:31  5-MIN KAOH 130220Z AUTO 00000KT 10SM CLR 21/06 A3008 830 37 1700 000/00 RMK AO2 T02060056
04850KAOH AOH20160612212510806/12/16 21:25:31  5-MIN KAOH 130225Z AUTO 00000KT 10SM CLR 21/06 A3008 830 38 1700 000/00 RMK AO2 T02060061
04850KAOH AOH20160612213010806/12/16 21:30:31  5-MIN KAOH 130230Z AUTO 00000KT 10SM CLR 21/06 A3008 830 37 1700 000/00 RMK AO2 T02060056
04850KAOH AOH20160612213510806/12/16 21:35:31  5-MIN KAOH 130235Z AUTO 00000KT 10SM CLR 19/07 A3008 830 43 1600 000/00 RMK AO2 T01940067
04850KAOH AOH20160612214010806/12/16 21:40:31  5-MIN KAOH 130240Z AUTO 00000KT 10SM CLR 19/07 A3009 820 44 1500 000/00 RMK AO2 T01890067
04850KAOH AOH20160612214510806/12/16 21:45:31  5-MIN KAOH 130245Z AUTO 00000KT 10SM CLR 18/07 A3009 820 46 1400 000/00 RMK AO2 T01830067
04850KAOH AOH20160612215012106/12/16 21:50:31  5-MIN KAOH 130250Z AUTO 01003KT 10SM CLR 18/07 A3009 820 49 1400 020/03 RMK AO2 SLP184 T01780072 53001
04850KAOH AOH20160612215510806/12/16 21:55:31  5-MIN KAOH 130255Z AUTO 01003KT 10SM CLR 17/08 A3009 820 53 1300 020/03 RMK AO2 T01720078
04850KAOH AOH20160612220010806/12/16 22:00:31  5-MIN KAOH 130300Z AUTO 01003KT 10SM CLR 17/08 A3009 820 55 1200 020/03 RMK AO2 T01670078
04850KAOH AOH20160612220510806/12/16 22:05:31  5-MIN KAOH 130305Z AUTO 36004KT 10SM CLR 17/07 A3010 810 53 1200 360/04 RMK AO2 T01670072
04850KAOH AOH20160612221010806/12/16 22:10:31  5-MIN KAOH 130310Z AUTO 01003KT 10SM CLR 18/07 A3010 810 49 1400 010/03 RMK AO2 T01780072
04850KAOH AOH20160612221510806/12/16 22:15:31  5-MIN KAOH 130315Z AUTO 02004KT 10SM CLR 18/07 A3010 810 46 1400 020/04 RMK AO2 T01830067
04850KAOH AOH20160612222010806/12/16 22:20:31  5-MIN KAOH 130320Z AUTO 01005KT 10SM CLR 18/07 A3010 810 46 1400 020/05 RMK AO2 T01830067
04850KAOH AOH20160612222510806/12/16 22:25:31  5-MIN KAOH 130325Z AUTO 02005KT 10SM CLR 18/07 A3009 820 48 1400 030/05 RMK AO2 T01780067
04850KAOH AOH20160612223010806/12/16 22:30:31  5-MIN KAOH 130330Z AUTO 03004KT 10SM CLR 18/07 A3009 820 48 1400 040/04 RMK AO2 T01780067
04850KAOH AOH20160612223510806/12/16 22:35:31  5-MIN KAOH 130335Z AUTO 04003KT 10SM CLR 18/07 A3009 820 48 1400 050/03 RMK AO2 T01780067
04850KAOH AOH20160612224010806/12/16 22:40:31  5-MIN KAOH 130340Z AUTO 03004KT 10SM CLR 17/07 A3009 820 51 1300 030/04 RMK AO2 T01720072
04850KAOH AOH20160612224510806/12/16 22:45:31  5-MIN KAOH 130345Z AUTO 02004KT 10SM CLR 17/07 A3009 820 51 1300 030/04 RMK AO2 T01720072
04850KAOH AOH20160612225011506/12/16 22:50:31  5-MIN KAOH 130350Z AUTO 03005KT 10SM CLR 18/07 A3009 820 46 1400 030/05 RMK AO2 SLP183 T01830067
04850KAOH AOH20160612225510806/12/16 22:55:31  5-MIN KAOH 130355Z AUTO 04004KT 10SM CLR 17/07 A3008 830 49 1300 050/04 RMK AO2 T01720067
04850KAOH AOH20160612230010806/12/16 23:00:31  5-MIN KAOH 130400Z AUTO 03004KT 10SM CLR 17/07 A3008 830 49 1300 040/04 RMK AO2 T01720067
04850KAOH AOH20160612230510806/12/16 23:05:31  5-MIN KAOH 130405Z AUTO 04004KT 10SM CLR 17/07 A3008 830 49 1300 040/04 RMK AO2 T01720067
04850KAOH AOH20160612231010806/12/16 23:10:31  5-MIN KAOH 130410Z AUTO 04004KT 10SM CLR 17/07 A3008 830 49 1300 050/04 RMK AO2 T01720067
04850KAOH AOH20160612231510806/12/16 23:15:31  5-MIN KAOH 130415Z AUTO 02004KT 10SM CLR 17/07 A3008 830 53 1300 030/04 RMK AO2 T01670072
04850KAOH AOH20160612232010806/12/16 23:20:31  5-MIN KAOH 130420Z AUTO 03004KT 10SM CLR 17/07 A3008 830 53 1300 030/04 RMK AO2 T01670072
04850KAOH AOH20160612232510806/12/16 23:25:31  5-MIN KAOH 130425Z AUTO 03003KT 10SM CLR 16/07 A3007 840 55 1200 030/03 RMK AO2 T01610072
04850KAOH AOH20160612233010806/12/16 23:30:31  5-MIN KAOH 130430Z AUTO 03004KT 10SM CLR 17/07 A3007 840 49 1300 040/04 RMK AO2 T01720067
04850KAOH AOH20160612233510806/12/16 23:35:31  5-MIN KAOH 130435Z AUTO 03007KT 10SM CLR 17/07 A3007 840 51 1300 040/07 RMK AO2 T01670067
04850KAOH AOH20160612234010806/12/16 23:40:31  5-MIN KAOH 130440Z AUTO 05006KT 10SM CLR 16/07 A3007 840 55 1200 050/06 RMK AO2 T01610072
04850KAOH AOH20160612234510806/12/16 23:45:31  5-MIN KAOH 130445Z AUTO 06006KT 10SM CLR 17/07 A3007 840 51 1300 060/06 RMK AO2 T01670067
04850KAOH AOH20160612235012506/12/16 23:50:31  5-MIN KAOH 130450Z AUTO 06005KT 10SM CLR 15/08 A3007 840 62 1100 060/05 RMK AO2 SLP177 T01500078 402890150
04850KAOH AOH20160612235510806/12/16 23:55:31  5-MIN KAOH 130455Z AUTO 05006KT 10SM CLR 16/07 A3007 840 57 1100 060/06 RMK AO2 T01560072
04850KAOH AOH20160613000010806/13/16 00:00:31  5-MIN KAOH 130500Z AUTO 05006KT 10SM CLR 17/07 A3007 840 51 1300 060/06 RMK AO2 T01670067
04850KAOH AOH20160613000510806/13/16 00:05:31  5-MIN KAOH 130505Z AUTO 05007KT 10SM CLR 17/07 A3007 840 51 1300 060/07 RMK AO2 T01670067
04850KAOH AOH20160613001010806/13/16 00:10:31  5-MIN KAOH 130510Z AUTO 05008KT 10SM CLR 17/07 A3007 840 51 1300 060/08 RMK AO2 T01670067
04850KAOH AOH20160613001510806/13/16 00:15:31  5-MIN KAOH 130515Z AUTO 06008KT 10SM CLR 17/07 A3007 840 51 1300 060/08 RMK AO2 T01670067
04850KAOH AOH20160613002010806/13/16 00:20:31  5-MIN KAOH 130520Z AUTO 06008KT 10SM CLR 17/07 A3007 840 51 1300 070/08 RMK AO2 T01670067
04850KAOH AOH20160613002510806/13/16 00:25:31  5-MIN KAOH 130525Z AUTO 06006KT 10SM CLR 17/07 A3007 840 51 1300 070/06 RMK AO2 T01670067
04850KAOH AOH20160613003010806/13/16 00:30:31  5-MIN KAOH 130530Z AUTO 07007KT 10SM CLR 16/07 A3007 840 53 1200 070/07 RMK AO2 T01610067
04850KAOH AOH20160613003510806/13/16 00:35:31  5-MIN KAOH 130535Z AUTO 07008KT 10SM CLR 16/07 A3007 840 53 1200 070/08 RMK AO2 T01610067
04850KAOH AOH20160613004010806/13/16 00:40:31  5-MIN KAOH 130540Z AUTO 07008KT 10SM CLR 16/07 A3007 840 53 1200 070/08 RMK AO2 T01610067
04850KAOH AOH20160613004510806/13/16 00:45:31  5-MIN KAOH 130545Z AUTO 07008KT 10SM CLR 16/07 A3007 840 53 1200 080/08 RMK AO2 T01610067
04850KAOH AOH20160613005013306/13/16 00:50:31  5-MIN KAOH 130550Z AUTO 07007KT 10SM CLR 16/07 A3007 840 55 1100 070/07 RMK AO2 SLP178 T01560067 10256 20150 53013
04850KAOH AOH20160613005510806/13/16 00:55:31  5-MIN KAOH 130555Z AUTO 06007KT 10SM CLR 16/07 A3007 840 55 1100 060/07 RMK AO2 T01560067
04850KAOH AOH20160613010010806/13/16 01:00:31  5-MIN KAOH 130600Z AUTO 06007KT 10SM CLR 16/07 A3008 830 55 1100 070/07 RMK AO2 T01560067
04850KAOH AOH20160613010510806/13/16 01:05:31  5-MIN KAOH 130605Z AUTO 06007KT 10SM CLR 16/07 A3008 830 55 1100 060/07 RMK AO2 T01560067
04850KAOH AOH20160613011010806/13/16 01:10:31  5-MIN KAOH 130610Z AUTO 06007KT 10SM CLR 16/07 A3007 840 55 1100 060/07 RMK AO2 T01560067
04850KAOH AOH20160613011510806/13/16 01:15:31  5-MIN KAOH 130615Z AUTO 06008KT 10SM CLR 16/07 A3007 840 57 1100 070/08 RMK AO2 T01560072
04850KAOH AOH20160613012010806/13/16 01:20:31  5-MIN KAOH 130620Z AUTO 07008KT 10SM CLR 15/07 A3007 840 59 1100 080/08 RMK AO2 T01500072
04850KAOH AOH20160613012510806/13/16 01:25:31  5-MIN KAOH 130625Z AUTO 07008KT 10SM CLR 15/07 A3007 840 59 1100 080/08 RMK AO2 T01500072
04850KAOH AOH20160613013010806/13/16 01:30:31  5-MIN KAOH 130630Z AUTO 07007KT 10SM CLR 15/07 A3007 840 59 1100 080/07 RMK AO2 T01500072
04850KAOH AOH20160613013510806/13/16 01:35:31  5-MIN KAOH 130635Z AUTO 08007KT 10SM CLR 14/07 A3007 840 61 1000 090/07 RMK AO2 T01440072
04850KAOH AOH20160613014010706/13/16 01:40:31  5-MIN KAOH 130640Z AUTO 08007KT 10SM CLR 14/08 A3007 840 66 900 090/07 RMK AO2 T01390078
04850KAOH AOH20160613014510706/13/16 01:45:31  5-MIN KAOH 130645Z AUTO 08007KT 10SM CLR 14/08 A3007 840 66 900 090/07 RMK AO2 T01390078
04850KAOH AOH20160613015011406/13/16 01:50:31  5-MIN KAOH 130650Z AUTO 08007KT 10SM CLR 14/08 A3007 840 66 900 090/07 RMK AO2 SLP176 T01390078
04850KAOH AOH20160613015510706/13/16 01:55:31  5-MIN KAOH 130655Z AUTO 08007KT 10SM CLR 14/08 A3007 840 66 900 080/07 RMK AO2 T01390078
04850KAOH AOH20160613020010706/13/16 02:00:31  5-MIN KAOH 130700Z AUTO 07007KT 10SM CLR 14/08 A3007 840 66 900 070/07 RMK AO2 T01390078
04850KAOH AOH20160613020510706/13/16 02:05:31  5-MIN KAOH 130705Z AUTO 06005KT 10SM CLR 14/08 A3007 830 66 900 060/05 RMK AO2 T01390078
04850KAOH AOH20160613021010806/13/16 02:10:31  5-MIN KAOH 130710Z AUTO 07006KT 10SM CLR 14/08 A3007 840 64 1000 080/06 RMK AO2 T01440078
04850KAOH AOH20160613021510706/13/16 02:15:31  5-MIN KAOH 130715Z AUTO 09006KT 10SM CLR 14/08 A3007 840 66 900 100/06 RMK AO2 T01390078
04850KAOH AOH20160613022010706/13/16 02:20:31  5-MIN KAOH 130720Z AUTO 08005KT 10SM CLR 13/08 A3007 840 71 800 090/05 RMK AO2 T01280078
04850KAOH AOH20160613022510706/13/16 02:25:31  5-MIN KAOH 130725Z AUTO 08005KT 10SM CLR 13/08 A3007 840 69 900 080/05 RMK AO2 T01330078
04850KAOH AOH20160613023010706/13/16 02:30:31  5-MIN KAOH 130730Z AUTO 07004KT 10SM CLR 13/08 A3007 840 69 900 080/04 RMK AO2 T01330078
04850KAOH AOH20160613023510706/13/16 02:35:31  5-MIN KAOH 130735Z AUTO 06003KT 10SM CLR 13/08 A3007 840 69 900 070/03 RMK AO2 T01330078
04850KAOH AOH20160613024010706/13/16 02:40:31  5-MIN KAOH 130740Z AUTO 07004KT 10SM CLR 13/08 A3007 840 69 900 070/04 RMK AO2 T01330078
04850KAOH AOH20160613024510706/13/16 02:45:31  5-MIN KAOH 130745Z AUTO 06005KT 10SM CLR 13/08 A3007 840 69 900 070/05 RMK AO2 T01330078
04850KAOH AOH20160613025011406/13/16 02:50:31  5-MIN KAOH 130750Z AUTO 07004KT 10SM CLR 13/08 A3007 840 71 800 070/04 RMK AO2 SLP177 T01280078
04850KAOH AOH20160613025510706/13/16 02:55:31  5-MIN KAOH 130755Z AUTO 07004KT 10SM CLR 13/08 A3008 830 71 800 080/04 RMK AO2 T01280078
04850KAOH AOH20160613030010706/13/16 03:00:31  5-MIN KAOH 130800Z AUTO 08003KT 10SM CLR 13/08 A3007 840 71 800 080/03 RMK AO2 T01280078
04850KAOH AOH20160613030510706/13/16 03:05:31  5-MIN KAOH 130805Z AUTO 06004KT 10SM CLR 13/08 A3008 830 71 800 070/04 RMK AO2 T01280078
04850KAOH AOH20160613031010706/13/16 03:10:31  5-MIN KAOH 130810Z AUTO 07003KT 10SM CLR 13/08 A3008 830 71 800 070/03 RMK AO2 T01280078
04850KAOH AOH20160613031510706/13/16 03:15:31  5-MIN KAOH 130815Z AUTO 07003KT 10SM CLR 13/08 A3008 830 71 800 080/03 RMK AO2 T01280078
04850KAOH AOH20160613032010706/13/16 03:20:31  5-MIN KAOH 130820Z AUTO 07004KT 10SM CLR 12/08 A3008 830 74 700 070/04 RMK AO2 T01220078
04850KAOH AOH20160613032510706/13/16 03:25:31  5-MIN KAOH 130825Z AUTO 08004KT 10SM CLR 12/08 A3008 830 74 700 080/04 RMK AO2 T01220078
04850KAOH AOH20160613033010706/13/16 03:30:31  5-MIN KAOH 130830Z AUTO 07005KT 10SM CLR 12/08 A3008 830 74 700 080/05 RMK AO2 T01220078
04850KAOH AOH20160613033510706/13/16 03:35:31  5-MIN KAOH 130835Z AUTO 07005KT 10SM CLR 12/08 A3008 830 74 700 080/05 RMK AO2 T01220078
04850KAOH AOH20160613034010706/13/16 03:40:31  5-MIN KAOH 130840Z AUTO 07003KT 10SM CLR 12/08 A3009 820 74 700 080/03 RMK AO2 T01220078
04850KAOH AOH20160613034510706/13/16 03:45:31  5-MIN KAOH 130845Z AUTO 09003KT 10SM CLR 12/08 A3009 820 74 700 090/03 RMK AO2 T01220078
04850KAOH AOH20160613035012006/13/16 03:50:31  5-MIN KAOH 130850Z AUTO 00000KT 10SM CLR 12/08 A3010 810 74 700 000/00 RMK AO2 SLP187 T01220078 55006
04850KAOH AOH20160613035510706/13/16 03:55:31  5-MIN KAOH 130855Z AUTO 00000KT 10SM CLR 12/08 A3010 810 74 700 000/00 RMK AO2 T01220078
04850KAOH AOH20160613040010706/13/16 04:00:31  5-MIN KAOH 130900Z AUTO 00000KT 10SM CLR 12/08 A3010 810 74 700 000/00 RMK AO2 T01220078
04850KAOH AOH20160613040510706/13/16 04:05:31  5-MIN KAOH 130905Z AUTO 00000KT 10SM CLR 13/08 A3010 810 71 800 000/00 RMK AO2 T01280078
04850KAOH AOH20160613041010706/13/16 04:10:31  5-MIN KAOH 130910Z AUTO 00000KT 10SM CLR 12/07 A3010 810 74 600 000/00 RMK AO2 T01170072
04850KAOH AOH20160613041510706/13/16 04:15:31  5-MIN KAOH 130915Z AUTO 00000KT 10SM CLR 12/07 A3011 810 74 600 000/00 RMK AO2 T01170072
04850KAOH AOH20160613042010706/13/16 04:20:31  5-MIN KAOH 130920Z AUTO 00000KT 10SM CLR 12/08 A3011 800 74 700 000/00 RMK AO2 T01220078
04850KAOH AOH20160613042510706/13/16 04:25:31  5-MIN KAOH 130925Z AUTO 00000KT 10SM CLR 12/08 A3011 800 77 600 000/00 RMK AO2 T01170078
04850KAOH AOH20160613043010706/13/16 04:30:31  5-MIN KAOH 130930Z AUTO 00000KT 10SM CLR 11/07 A3011 800 77 600 000/00 RMK AO2 T01110072
04850KAOH AOH20160613043510706/13/16 04:35:31  5-MIN KAOH 130935Z AUTO 00000KT 10SM CLR 11/07 A3011 800 80 500 000/00 RMK AO2 T01060072
04850KAOH AOH20160613044010706/13/16 04:40:31  5-MIN KAOH 130940Z AUTO 00000KT 10SM CLR 11/07 A3011 800 77 600 000/00 RMK AO2 T01110072
04850KAOH AOH20160613044510706/13/16 04:45:31  5-MIN KAOH 130945Z AUTO 00000KT 10SM CLR 11/08 A3011 800 80 600 000/00 RMK AO2 T01110078
04850KAOH AOH20160613045011406/13/16 04:50:31  5-MIN KAOH 130950Z AUTO 00000KT 10SM CLR 11/08 A3011 800 80 600 000/00 RMK AO2 SLP192 T01110078
04850KAOH AOH20160613045510706/13/16 04:55:31  5-MIN KAOH 130955Z AUTO 00000KT 10SM CLR 11/08 A3011 800 83 500 000/00 RMK AO2 T01060078
04850KAOH AOH20160613050010706/13/16 05:00:31  5-MIN KAOH 131000Z AUTO 00000KT 10SM CLR 11/08 A3011 800 83 500 000/00 RMK AO2 T01060078
04850KAOH AOH20160613050510706/13/16 05:05:31  5-MIN KAOH 131005Z AUTO 00000KT 10SM CLR 11/08 A3011 800 83 500 000/00 RMK AO2 T01060078
04850KAOH AOH20160613051010706/13/16 05:10:31  5-MIN KAOH 131010Z AUTO 00000KT 10SM CLR 11/08 A3011 800 80 600 000/00 RMK AO2 T01110078
04850KAOH AOH20160613051510706/13/16 05:15:31  5-MIN KAOH 131015Z AUTO 00000KT 10SM CLR 11/08 A3011 800 80 600 000/00 RMK AO2 T01110078
04850KAOH AOH20160613052010706/13/16 05:20:31  5-MIN KAOH 131020Z AUTO 08003KT 10SM CLR 11/08 A3011 800 83 500 090/03 RMK AO2 T01060078
04850KAOH AOH20160613052510706/13/16 05:25:31  5-MIN KAOH 131025Z AUTO 08003KT 10SM CLR 11/08 A3011 800 83 500 090/03 RMK AO2 T01060078
04850KAOH AOH20160613053010706/13/16 05:30:31  5-MIN KAOH 131030Z AUTO 07003KT 10SM CLR 11/08 A3011 800 86 500 070/03 RMK AO2 T01060083
04850KAOH AOH20160613053510706/13/16 05:35:31  5-MIN KAOH 131035Z AUTO 00000KT 10SM CLR 11/08 A3011 800 83 600 000/00 RMK AO2 T01110083
04850KAOH AOH20160613054010706/13/16 05:40:31  5-MIN KAOH 131040Z AUTO 06003KT 10SM CLR 11/08 A3011 800 83 600 070/03 RMK AO2 T01110083
04850KAOH AOH20160613054510706/13/16 05:45:31  5-MIN KAOH 131045Z AUTO 07005KT 10SM CLR 12/08 A3010 810 80 600 080/05 RMK AO2 T01170083
04850KAOH AOH20160613055011406/13/16 05:50:31  5-MIN KAOH 131050Z AUTO 07006KT 10SM CLR 12/09 A3010 810 83 600 080/06 RMK AO2 SLP188 T01170089
04850KAOH AOH20160613055511406/13/16 05:55:31  5-MIN KAOH 131055Z AUTO 08007KT 10SM CLR 12/09 A3009 820 80 700 090/07 RMK AO2 PRESFR T01220089
04850KAOH AOH20160613060010706/13/16 06:00:31  5-MIN KAOH 131100Z AUTO 08007KT 10SM CLR 13/09 A3009 820 77 800 090/07 RMK AO2 T01280089
04850KAOH AOH20160613060510706/13/16 06:05:31  5-MIN KAOH 131105Z AUTO 09007KT 10SM CLR 13/09 A3008 830 77 900 100/07 RMK AO2 T01330094
04850KAOH AOH20160613061010706/13/16 06:10:31  5-MIN KAOH 131110Z AUTO 09009KT 10SM CLR 14/09 A3008 830 71 900 100/09 RMK AO2 T01390089
04850KAOH AOH20160613061510706/13/16 06:15:31  5-MIN KAOH 131115Z AUTO 09010KT 10SM CLR 14/09 A3008 830 71 900 100/10 RMK AO2 T01390089
04850KAOH AOH20160613062010706/13/16 06:20:31  5-MIN KAOH 131120Z AUTO 09011KT 10SM CLR 14/09 A3008 830 71 900 100/11 RMK AO2 T01390089
04850KAOH AOH20160613062510806/13/16 06:25:31  5-MIN KAOH 131125Z AUTO 09010KT 10SM CLR 14/09 A3008 830 69 1000 090/10 RMK AO2 T01440089
04850KAOH AOH20160613063010806/13/16 06:30:31  5-MIN KAOH 131130Z AUTO 09010KT 10SM CLR 14/09 A3008 830 69 1000 090/10 RMK AO2 T01440089
04850KAOH AOH20160613063510806/13/16 06:35:31  5-MIN KAOH 131135Z AUTO 09010KT 10SM CLR 15/09 A3008 830 66 1100 090/10 RMK AO2 T01500089
04850KAOH AOH20160613064010806/13/16 06:40:31  5-MIN KAOH 131140Z AUTO 09010KT 10SM CLR 15/09 A3008 830 66 1100 100/10 RMK AO2 T01500089
04850KAOH AOH20160613064510806/13/16 06:45:31  5-MIN KAOH 131145Z AUTO 10007KT 10SM CLR 15/09 A3008 830 69 1100 110/07 RMK AO2 T01500094
04850KAOH AOH20160613065013306/13/16 06:50:31  5-MIN KAOH 131150Z AUTO 10011KT 10SM CLR 16/09 A3009 820 67 1100 110/11 RMK AO2 SLP183 T01560094 10156 20106 53008
04850KAOH AOH20160613065510806/13/16 06:55:31  5-MIN KAOH 131155Z AUTO 11007KT 10SM CLR 16/09 A3009 820 64 1100 110/07 RMK AO2 T01560089
04850KAOH AOH20160613070010806/13/16 07:00:31  5-MIN KAOH 131200Z AUTO 10010KT 10SM CLR 16/09 A3009 820 62 1200 100/10 RMK AO2 T01610089
04850KAOH AOH20160613070510806/13/16 07:05:31  5-MIN KAOH 131205Z AUTO 10008KT 10SM CLR 16/09 A3010 810 62 1200 110/08 RMK AO2 T01610089
04850KAOH AOH20160613071010806/13/16 07:10:31  5-MIN KAOH 131210Z AUTO 11009KT 10SM CLR 16/09 A3011 810 62 1200 110/09 RMK AO2 T01610089
04850KAOH AOH20160613071510806/13/16 07:15:31  5-MIN KAOH 131215Z AUTO 10006KT 10SM CLR 17/09 A3011 800 60 1200 100/06 RMK AO2 T01670089
04850KAOH AOH20160613072010806/13/16 07:20:31  5-MIN KAOH 131220Z AUTO 11008KT 10SM CLR 17/08 A3011 800 57 1200 120/08 RMK AO2 T01670083
04850KAOH AOH20160613072510806/13/16 07:25:31  5-MIN KAOH 131225Z AUTO 11007KT 10SM CLR 17/09 A3012 800 57 1300 110/07 RMK AO2 T01720089
04850KAOH AOH20160613073010806/13/16 07:30:31  5-MIN KAOH 131230Z AUTO 12006KT 10SM CLR 17/08 A3012 800 55 1300 130/06 RMK AO2 T01720083
04850KAOH AOH20160613073510806/13/16 07:35:31  5-MIN KAOH 131235Z AUTO 13008KT 10SM CLR 17/08 A3012 790 55 1300 130/08 RMK AO2 T01720083
04850KAOH AOH20160613074010806/13/16 07:40:31  5-MIN KAOH 131240Z AUTO 10006KT 10SM CLR 17/08 A3012 790 55 1300 110/06 RMK AO2 T01720083
04850KAOH AOH20160613074510806/13/16 07:45:31  5-MIN KAOH 131245Z AUTO 14009KT 10SM CLR 17/09 A3012 790 57 1300 150/09 RMK AO2 T01720089
04850KAOH AOH20160613075011506/13/16 07:50:31  5-MIN KAOH 131250Z AUTO 14009KT 10SM CLR 17/08 A3012 790 55 1300 140/09 RMK AO2 SLP195 T01720083
04850KAOH AOH20160613075510806/13/16 07:55:31  5-MIN KAOH 131255Z AUTO 13008KT 10SM CLR 17/08 A3012 790 55 1300 130/08 RMK AO2 T01720083
04850KAOH AOH20160613080010806/13/16 08:00:31  5-MIN KAOH 131300Z AUTO 13007KT 10SM CLR 18/08 A3012 790 53 1300 140/07 RMK AO2 T01780083
04850KAOH AOH20160613080510806/13/16 08:05:31  5-MIN KAOH 131305Z AUTO 14007KT 10SM CLR 18/08 A3013 790 53 1300 150/07 RMK AO2 T01780083
04850KAOH AOH20160613081010806/13/16 08:10:31  5-MIN KAOH 131310Z AUTO 17007KT 10SM CLR 18/08 A3013 780 53 1300 170/07 RMK AO2 T01780083
04850KAOH AOH20160613081510806/13/16 08:15:31  5-MIN KAOH 131315Z AUTO 17008KT 10SM CLR 18/08 A3013 780 52 1400 170/08 RMK AO2 T01830083
04850KAOH AOH20160613082010806/13/16 08:20:31  5-MIN KAOH 131320Z AUTO 16004KT 10SM CLR 18/08 A3013 790 51 1300 170/04 RMK AO2 T01780078
04850KAOH AOH20160613082510806/13/16 08:25:31  5-MIN KAOH 131325Z AUTO 19007KT 10SM CLR 18/08 A3013 780 50 1400 200/07 RMK AO2 T01830078
04850KAOH AOH20160613083010806/13/16 08:30:31  5-MIN KAOH 131330Z AUTO 19006KT 10SM CLR 19/08 A3014 780 48 1500 200/06 RMK AO2 T01890078
04850KAOH AOH20160613083510806/13/16 08:35:31  5-MIN KAOH 131335Z AUTO VRB04KT 10SM CLR 19/08 A3014 780 48 1500 VRB/04 RMK AO2 T01890078
04850KAOH AOH20160613084010806/13/16 08:40:31  5-MIN KAOH 131340Z AUTO 15006KT 10SM CLR 18/08 A3013 780 50 1400 160/06 RMK AO2 T01830078
04850KAOH AOH20160613084510806/13/16 08:45:31  5-MIN KAOH 131345Z AUTO 15004KT 10SM CLR 19/08 A3013 790 48 1500 160/04 RMK AO2 T01890078
04850KAOH AOH20160613085010506/13/16 08:50:31  5-MIN KAOH 131350Z AUTO 10SM CLR 19/08 A3013 790 48 1500 M /M RMK AO2 SLP197 T01890078
04850KAOH AOH20160613085512406/13/16 08:55:31  5-MIN KAOH 131355Z AUTO 13007KT 100V180 10SM CLR 19/08 A3012 790 46 1500 140/07 110V190 RMK AO2 T01940078
04850KAOH AOH20160613090010806/13/16 09:00:31  5-MIN KAOH 131400Z AUTO 11005KT 10SM CLR 19/08 A3012 790 46 1500 110/05 RMK AO2 T01940078
04850KAOH AOH20160613090510806/13/16 09:05:31  5-MIN KAOH 131405Z AUTO 12007KT 10SM CLR 19/08 A3012 790 46 1500 120/07 RMK AO2 T01940078
04850KAOH AOH20160613091010806/13/16 09:10:31  5-MIN KAOH 131410Z AUTO 00000KT 10SM CLR 20/07 A3012 790 43 1600 000/00 RMK AO2 T02000072
04850KAOH AOH20160613091510806/13/16 09:15:31  5-MIN KAOH 131415Z AUTO 11004KT 10SM CLR 20/08 A3012 790 45 1600 120/04 RMK AO2 T02000078
04850KAOH AOH20160613092010806/13/16 09:20:31  5-MIN KAOH 131420Z AUTO 15006KT 10SM CLR 21/08 A3012 800 45 1700 160/06 RMK AO2 T02060083
04850KAOH AOH20160613092510806/13/16 09:25:31  5-MIN KAOH 131425Z AUTO 12005KT 10SM CLR 20/08 A3011 800 45 1600 130/05 RMK AO2 T02000078
04850KAOH AOH20160613093010806/13/16 09:30:31  5-MIN KAOH 131430Z AUTO 11004KT 10SM CLR 21/08 A3011 800 43 1700 110/04 RMK AO2 T02060078
04850KAOH AOH20160613093510806/13/16 09:35:31  5-MIN KAOH 131435Z AUTO 13007KT 10SM CLR 21/08 A3011 800 43 1700 140/07 RMK AO2 T02060078
04850KAOH AOH20160613094010806/13/16 09:40:31  5-MIN KAOH 131440Z AUTO 13005KT 10SM CLR 21/08 A3010 810 43 1700 130/05 RMK AO2 T02060078
04850KAOH AOH20160613094510806/13/16 09:45:31  5-MIN KAOH 131445Z AUTO 16005KT 10SM CLR 21/07 A3010 820 41 1700 160/05 RMK AO2 T02060072
04850KAOH AOH20160613095012106/13/16 09:50:31  5-MIN KAOH 131450Z AUTO 14006KT 10SM CLR 21/08 A3010 810 43 1700 150/06 RMK AO2 SLP188 T02060078 58002
04850KAOH AOH20160613095510806/13/16 09:55:31  5-MIN KAOH 131455Z AUTO 18004KT 10SM CLR 21/08 A3009 820 42 1800 180/04 RMK AO2 T02110078
04850KAOH AOH20160613100010806/13/16 10:00:31  5-MIN KAOH 131500Z AUTO VRB03KT 10SM CLR 21/07 A3010 820 41 1700 VRB/03 RMK AO2 T02060072
04850KAOH AOH20160613100510806/13/16 10:05:31  5-MIN KAOH 131505Z AUTO VRB03KT 10SM CLR 22/08 A3009 820 40 1800 VRB/03 RMK AO2 T02170078
04850KAOH AOH20160613101010806/13/16 10:10:31  5-MIN KAOH 131510Z AUTO 15005KT 10SM CLR 22/07 A3009 820 39 1800 160/05 RMK AO2 T02170072
04850KAOH AOH20160613101510806/13/16 10:15:31  5-MIN KAOH 131515Z AUTO 18003KT 10SM CLR 21/06 A3009 820 37 1800 180/03 RMK AO2 T02110061
04850KAOH AOH20160613102010806/13/16 10:20:31  5-MIN KAOH 131520Z AUTO 12004KT 10SM CLR 22/07 A3008 830 37 1800 130/04 RMK AO2 T02170067
04850KAOH AOH20160613102510806/13/16 10:25:31  5-MIN KAOH 131525Z AUTO 00000KT 10SM CLR 22/07 A3008 830 37 1900 000/00 RMK AO2 T02220072
04850KAOH AOH20160613103010806/13/16 10:30:31  5-MIN KAOH 131530Z AUTO 14007KT 10SM CLR 22/07 A3008 830 36 1900 150/07 RMK AO2 T02220067
04850KAOH AOH20160613103510806/13/16 10:35:31  5-MIN KAOH 131535Z AUTO VRB04KT 10SM CLR 22/06 A3008 830 35 1900 VRB/04 RMK AO2 T02220061
04850KAOH AOH20160613104010806/13/16 10:40:31  5-MIN KAOH 131540Z AUTO 00000KT 10SM CLR 22/06 A3008 830 35 1900 000/00 RMK AO2 T02220061
04850KAOH AOH20160613104510806/13/16 10:45:31  5-MIN KAOH 131545Z AUTO VRB03KT 10SM CLR 23/07 A3007 830 35 2000 VRB/03 RMK AO2 T02280067
04850KAOH AOH20160613105011506/13/16 10:50:31  5-MIN KAOH 131550Z AUTO 15004KT 10SM CLR 23/07 A3008 830 35 2000 150/04 RMK AO2 SLP179 T02280067
04850KAOH AOH20160613105510806/13/16 10:55:31  5-MIN KAOH 131555Z AUTO VRB03KT 10SM CLR 23/07 A3008 830 35 2000 VRB/03 RMK AO2 T02280067
04850KAOH AOH20160613110010806/13/16 11:00:31  5-MIN KAOH 131600Z AUTO VRB03KT 10SM CLR 23/07 A3008 830 35 2000 VRB/03 RMK AO2 T02330072
04850KAOH AOH20160613110510806/13/16 11:05:31  5-MIN KAOH 131605Z AUTO 19006KT 10SM CLR 23/07 A3008 830 35 2000 200/06 RMK AO2 T02280067
04850KAOH AOH20160613111010806/13/16 11:10:31  5-MIN KAOH 131610Z AUTO 17005KT 10SM CLR 23/07 A3008 830 35 2000 180/05 RMK AO2 T02330072
04850KAOH AOH20160613111510806/13/16 11:15:31  5-MIN KAOH 131615Z AUTO VRB04KT 10SM CLR 23/07 A3007 840 33 2000 VRB/04 RMK AO2 T02330067
04850KAOH AOH20160613112010806/13/16 11:20:31  5-MIN KAOH 131620Z AUTO VRB03KT 10SM CLR 23/07 A3007 840 33 2000 VRB/03 RMK AO2 T02330067
04850KAOH AOH20160613112510806/13/16 11:25:31  5-MIN KAOH 131625Z AUTO 28004KT 10SM CLR 23/06 A3007 840 33 2000 280/04 RMK AO2 T02280061
04850KAOH AOH20160613113010806/13/16 11:30:31  5-MIN KAOH 131630Z AUTO 00000KT 10SM CLR 23/07 A3007 840 33 2000 000/00 RMK AO2 T02330067
04850KAOH AOH20160613113510806/13/16 11:35:31  5-MIN KAOH 131635Z AUTO 03003KT 10SM CLR 24/07 A3006 850 32 2100 040/03 RMK AO2 T02390067
04850KAOH AOH20160613114010806/13/16 11:40:31  5-MIN KAOH 131640Z AUTO VRB03KT 10SM CLR 24/07 A3006 850 32 2100 VRB/03 RMK AO2 T02390067
04850KAOH AOH20160613114510806/13/16 11:45:31  5-MIN KAOH 131645Z AUTO 00000KT 10SM CLR 24/07 A3006 850 32 2100 000/00 RMK AO2 T02390067
04850KAOH AOH20160613115011506/13/16 11:50:31  5-MIN KAOH 131650Z AUTO 00000KT 10SM CLR 24/07 A3006 850 34 2100 000/00 RMK AO2 SLP174 T02390072
04850KAOH AOH20160613115510806/13/16 11:55:31  5-MIN KAOH 131655Z AUTO 34003KT 10SM CLR 24/07 A3006 850 34 2100 340/03 RMK AO2 T02390072
04850KAOH AOH20160613120010806/13/16 12:00:31  5-MIN KAOH 131700Z AUTO 21005KT 10SM CLR 24/07 A3006 850 34 2100 220/05 RMK AO2 T02390072
04850KAOH AOH20160613120510806/13/16 12:05:31  5-MIN KAOH 131705Z AUTO 23005KT 10SM CLR 24/07 A3006 850 31 2200 240/05 RMK AO2 T02440067
04850KAOH AOH20160613121010806/13/16 12:10:31  5-MIN KAOH 131710Z AUTO 00000KT 10SM CLR 24/07 A3006 850 31 2200 000/00 RMK AO2 T02440067
04850KAOH AOH20160613121510806/13/16 12:15:31  5-MIN KAOH 131715Z AUTO VRB05KT 10SM CLR 24/07 A3006 850 31 2200 VRB/05 RMK AO2 T02440067
04850KAOH AOH20160613122010806/13/16 12:20:31  5-MIN KAOH 131720Z AUTO 32007KT 10SM CLR 24/07 A3006 850 31 2200 320/07 RMK AO2 T02440067
04850KAOH AOH20160613122510806/13/16 12:25:31  5-MIN KAOH 131725Z AUTO 30007KT 10SM CLR 24/07 A3006 850 31 2200 310/07 RMK AO2 T02440067
04850KAOH AOH20160613123010806/13/16 12:30:31  5-MIN KAOH 131730Z AUTO 27005KT 10SM CLR 24/07 A3005 850 31 2200 280/05 RMK AO2 T02440067
04850KAOH AOH20160613123510806/13/16 12:35:31  5-MIN KAOH 131735Z AUTO 24004KT 10SM CLR 24/07 A3005 860 31 2200 250/04 RMK AO2 T02440067
04850KAOH AOH20160613124010806/13/16 12:40:31  5-MIN KAOH 131740Z AUTO 00000KT 10SM CLR 25/07 A3004 860 30 2300 000/00 RMK AO2 T02500067
04850KAOH AOH20160613124510806/13/16 12:45:31  5-MIN KAOH 131745Z AUTO 30006KT 10SM CLR 25/07 A3004 870 30 2300 300/06 RMK AO2 T02500067
04850KAOH AOH20160613125013306/13/16 12:50:31  5-MIN KAOH 131750Z AUTO VRB03KT 10SM CLR 24/07 A3003 870 31 2200 VRB/03 RMK AO2 SLP165 T02440067 10250 20156 50001
04850KAOH AOH20160613125510806/13/16 12:55:31  5-MIN KAOH 131755Z AUTO VRB04KT 10SM CLR 24/07 A3003 880 31 2200 VRB/04 RMK AO2 T02440067
04850KAOH AOH20160613130010806/13/16 13:00:31  5-MIN KAOH 131800Z AUTO 25007KT 10SM CLR 26/07 A3003 870 30 2300 260/07 RMK AO2 T02560072
04850KAOH AOH20160613130510806/13/16 13:05:31  5-MIN KAOH 131805Z AUTO 22005KT 10SM CLR 26/07 A3003 880 29 2300 230/05 RMK AO2 T02560067
04850KAOH AOH20160613131010806/13/16 13:10:31  5-MIN KAOH 131810Z AUTO 00000KT 10SM CLR 25/07 A3002 880 30 2300 000/00 RMK AO2 T02500067
04850KAOH AOH20160613131510806/13/16 13:15:31  5-MIN KAOH 131815Z AUTO 24005KT 10SM CLR 26/06 A3002 880 28 2300 250/05 RMK AO2 T02560061
04850KAOH AOH20160613132010806/13/16 13:20:31  5-MIN KAOH 131820Z AUTO VRB03KT 10SM CLR 26/07 A3002 890 29 2300 VRB/03 RMK AO2 T02560067
04850KAOH AOH20160613132510806/13/16 13:25:31  5-MIN KAOH 131825Z AUTO 29006KT 10SM CLR 26/07 A3002 890 29 2300 290/06 RMK AO2 T02560067
04850KAOH AOH20160613133010806/13/16 13:30:31  5-MIN KAOH 131830Z AUTO VRB03KT 10SM CLR 26/06 A3002 890 28 2300 VRB/03 RMK AO2 T02560061
04850KAOH AOH20160613133510806/13/16 13:35:31  5-MIN KAOH 131835Z AUTO 00000KT 10SM CLR 26/07 A3002 880 30 2300 000/00 RMK AO2 T02560072
04850KAOH AOH20160613134010806/13/16 13:40:31  5-MIN KAOH 131840Z AUTO 00000KT 10SM CLR 26/07 A3002 880 29 2300 000/00 RMK AO2 T02560067
04850KAOH AOH20160613134510806/13/16 13:45:31  5-MIN KAOH 131845Z AUTO VRB06KT 10SM CLR 26/07 A3002 880 28 2400 VRB/06 RMK AO2 T02610067
04850KAOH AOH20160613135011506/13/16 13:50:31  5-MIN KAOH 131850Z AUTO VRB05KT 10SM CLR 27/06 A3002 880 25 2500 VRB/05 RMK AO2 SLP161 T02670056
04850KAOH AOH20160613135510806/13/16 13:55:31  5-MIN KAOH 131855Z AUTO VRB06KT 10SM CLR 26/07 A3002 880 28 2400 VRB/06 RMK AO2 T02610067
04850KAOH AOH20160613140010706/13/16 14:00:31  5-MIN KAOH 131900Z AUTO 30005KT 9SM CLR 27/05 A3002 890 24 2500 310/05 RMK AO2 T02670050
04850KAOH AOH20160613140510706/13/16 14:05:31  5-MIN KAOH 131905Z AUTO VRB04KT 9SM CLR 26/07 A3002 890 28 2400 VRB/04 RMK AO2 T02610067
04850KAOH AOH20160613141010806/13/16 14:10:31  5-MIN KAOH 131910Z AUTO VRB05KT 10SM CLR 27/07 A3001 890 27 2500 VRB/05 RMK AO2 T02670067
04850KAOH AOH20160613141510806/13/16 14:15:31  5-MIN KAOH 131915Z AUTO 33008KT 10SM CLR 26/07 A3001 900 29 2400 340/08 RMK AO2 T02610072
04850KAOH AOH20160613142010806/13/16 14:20:31  5-MIN KAOH 131920Z AUTO 35005KT 10SM CLR 26/07 A3001 900 29 2400 360/05 RMK AO2 T02610072
04850KAOH AOH20160613142510806/13/16 14:25:31  5-MIN KAOH 131925Z AUTO 25005KT 10SM CLR 27/07 A3001 890 27 2500 260/05 RMK AO2 T02670067
04850KAOH AOH20160613143010806/13/16 14:30:31  5-MIN KAOH 131930Z AUTO VRB03KT 10SM CLR 26/06 A3001 900 26 2400 VRB/03 RMK AO2 T02610056
04850KAOH AOH20160613143510806/13/16 14:35:31  5-MIN KAOH 131935Z AUTO 00000KT 10SM CLR 27/07 A3000 900 28 2500 000/00 RMK AO2 T02670072
04850KAOH AOH20160613144010806/13/16 14:40:31  5-MIN KAOH 131940Z AUTO 00000KT 10SM CLR 27/08 A3000 900 29 2600 000/00 RMK AO2 T02720078
04850KAOH AOH20160613144510806/13/16 14:45:31  5-MIN KAOH 131945Z AUTO 35008KT 10SM CLR 27/07 A3000 900 28 2500 360/08 RMK AO2 T02670072
04850KAOH AOH20160613145011506/13/16 14:50:31  5-MIN KAOH 131950Z AUTO 36006KT 10SM CLR 26/08 A3000 900 31 2400 360/06 RMK AO2 SLP154 T02610078
04850KAOH AOH20160613145510806/13/16 14:55:31  5-MIN KAOH 131955Z AUTO VRB05KT 10SM CLR 27/07 A2999 910 28 2500 VRB/05 RMK AO2 T02670072
04850KAOH AOH20160613150010806/13/16 15:00:31  5-MIN KAOH 132000Z AUTO 35005KT 10SM CLR 27/07 A2999 910 28 2500 360/05 RMK AO2 T02670072
04850KAOH AOH20160613150510806/13/16 15:05:31  5-MIN KAOH 132005Z AUTO 35004KT 10SM CLR 27/07 A2999 910 27 2500 360/04 RMK AO2 T02670067
04850KAOH AOH20160613151010806/13/16 15:10:31  5-MIN KAOH 132010Z AUTO 35005KT 10SM CLR 27/07 A2999 920 27 2500 350/05 RMK AO2 T02670067
04850KAOH AOH20160613151510806/13/16 15:15:31  5-MIN KAOH 132015Z AUTO 35005KT 10SM CLR 27/07 A2999 920 28 2500 350/05 RMK AO2 T02670072
04850KAOH AOH20160613152009806/13/16 15:20:31  5-MIN KAOH 132020Z AUTO 10SM CLR 27/07 A2999 920 28 2500 M /M RMK AO2 T02670072
04850KAOH AOH20160613152510806/13/16 15:25:31  5-MIN KAOH 132025Z AUTO 01007KT 10SM CLR 27/07 A2998 920 26 2600 010/07 RMK AO2 T02720067
04850KAOH AOH20160613153010806/13/16 15:30:31  5-MIN KAOH 132030Z AUTO 33005KT 10SM CLR 27/06 A2998 920 26 2500 330/05 RMK AO2 T02670061
04850KAOH AOH20160613153510806/13/16 15:35:31  5-MIN KAOH 132035Z AUTO VRB05KT 10SM CLR 27/06 A2998 920 26 2500 VRB/05 RMK AO2 T02670061
04850KAOH AOH20160613154010806/13/16 15:40:31  5-MIN KAOH 132040Z AUTO 33005KT 10SM CLR 27/06 A2998 920 25 2500 340/05 RMK AO2 T02670056
04850KAOH AOH20160613154510806/13/16 15:45:31  5-MIN KAOH 132045Z AUTO VRB03KT 10SM CLR 27/06 A2998 920 26 2500 VRB/03 RMK AO2 T02670061
04850KAOH AOH20160613155012106/13/16 15:50:31  5-MIN KAOH 132050Z AUTO 23004KT 10SM CLR 27/07 A2998 920 26 2600 230/04 RMK AO2 SLP147 T02720067 58021
04850KAOH AOH20160613155510806/13/16 15:55:31  5-MIN KAOH 132055Z AUTO VRB03KT 10SM CLR 27/06 A2998 920 25 2500 VRB/03 RMK AO2 T02670056
04850KAOH AOH20160613160010806/13/16 16:00:31  5-MIN KAOH 132100Z AUTO 00000KT 10SM CLR 27/06 A2998 920 24 2600 000/00 RMK AO2 T02720056
04850KAOH AOH20160613160510806/13/16 16:05:31  5-MIN KAOH 132105Z AUTO 07004KT 10SM CLR 27/06 A2998 930 25 2600 070/04 RMK AO2 T02720061
04850KAOH AOH20160613161010806/13/16 16:10:31  5-MIN KAOH 132110Z AUTO 02007KT 10SM CLR 27/06 A2997 930 25 2600 030/07 RMK AO2 T02720061
04850KAOH AOH20160613161510806/13/16 16:15:31  5-MIN KAOH 132115Z AUTO 35007KT 10SM CLR 27/06 A2997 930 24 2600 350/07 RMK AO2 T02720056
04850KAOH AOH20160613162010806/13/16 16:20:31  5-MIN KAOH 132120Z AUTO 36005KT 10SM CLR 27/06 A2997 930 24 2600 010/05 RMK AO2 T02720056
04850KAOH AOH20160613162510806/13/16 16:25:31  5-MIN KAOH 132125Z AUTO 33005KT 10SM CLR 27/06 A2997 930 24 2600 340/05 RMK AO2 T02720056
04850KAOH AOH20160613163010806/13/16 16:30:31  5-MIN KAOH 132130Z AUTO 00000KT 10SM CLR 27/06 A2997 930 24 2600 000/00 RMK AO2 T02720056
04850KAOH AOH20160613163510806/13/16 16:35:31  5-MIN KAOH 132135Z AUTO 36005KT 10SM CLR 28/06 A2997 930 25 2700 010/05 RMK AO2 T02780061
04850KAOH AOH20160613164010806/13/16 16:40:31  5-MIN KAOH 132140Z AUTO 33006KT 10SM CLR 28/06 A2997 940 24 2700 340/06 RMK AO2 T02780056
04850KAOH AOH20160613164510806/13/16 16:45:31  5-MIN KAOH 132145Z AUTO VRB03KT 10SM CLR 27/06 A2996 940 24 2600 VRB/03 RMK AO2 T02720056
04850KAOH AOH20160613165011506/13/16 16:50:31  5-MIN KAOH 132150Z AUTO 02003KT 10SM CLR 27/06 A2997 940 24 2600 020/03 RMK AO2 SLP143 T02720056
04850KAOH AOH20160613165510806/13/16 16:55:31  5-MIN KAOH 132155Z AUTO 00000KT 10SM CLR 27/06 A2997 940 25 2600 000/00 RMK AO2 T02720061
04850KAOH AOH20160613170010806/13/16 17:00:31  5-MIN KAOH 132200Z AUTO VRB04KT 10SM CLR 28/06 A2996 940 25 2700 VRB/04 RMK AO2 T02780061
04850KAOH AOH20160613170510806/13/16 17:05:31  5-MIN KAOH 132205Z AUTO 31003KT 10SM CLR 27/06 A2996 940 24 2600 310/03 RMK AO2 T02720056
04850KAOH AOH20160613171010806/13/16 17:10:31  5-MIN KAOH 132210Z AUTO 35006KT 10SM CLR 27/06 A2996 940 25 2600 360/06 RMK AO2 T02720061
04850KAOH AOH20160613171510806/13/16 17:15:31  5-MIN KAOH 132215Z AUTO 01004KT 10SM CLR 27/06 A2996 940 24 2600 010/04 RMK AO2 T02720056
04850KAOH AOH20160613172010806/13/16 17:20:31  5-MIN KAOH 132220Z AUTO 04004KT 10SM CLR 27/06 A2995 950 24 2600 040/04 RMK AO2 T02720056
04850KAOH AOH20160613172510806/13/16 17:25:31  5-MIN KAOH 132225Z AUTO 36004KT 10SM CLR 27/06 A2995 950 25 2600 010/04 RMK AO2 T02720061
04850KAOH AOH20160613173010806/13/16 17:30:31  5-MIN KAOH 132230Z AUTO 00000KT 10SM CLR 27/06 A2995 950 25 2600 000/00 RMK AO2 T02720061
04850KAOH AOH20160613173510806/13/16 17:35:31  5-MIN KAOH 132235Z AUTO 00000KT 10SM CLR 27/06 A2995 950 24 2600 000/00 RMK AO2 T02720056
04850KAOH AOH20160613174010806/13/16 17:40:31  5-MIN KAOH 132240Z AUTO 00000KT 10SM CLR 28/07 A2995 950 26 2700 000/00 RMK AO2 T02780067
04850KAOH AOH20160613174510806/13/16 17:45:31  5-MIN KAOH 132245Z AUTO 00000KT 10SM CLR 28/07 A2995 950 26 2700 000/00 RMK AO2 T02780067
04850KAOH AOH20160613175011506/13/16 17:50:31  5-MIN KAOH 132250Z AUTO 16003KT 10SM CLR 27/07 A2994 950 26 2600 170/03 RMK AO2 SLP136 T02720067
04850KAOH AOH20160613175510806/13/16 17:55:31  5-MIN KAOH 132255Z AUTO VRB03KT 10SM CLR 28/07 A2994 960 26 2700 VRB/03 RMK AO2 T02780067
04850KAOH AOH20160613180010806/13/16 18:00:31  5-MIN KAOH 132300Z AUTO 00000KT 10SM CLR 28/06 A2994 960 25 2700 000/00 RMK AO2 T02780061
04850KAOH AOH20160613180510806/13/16 18:05:31  5-MIN KAOH 132305Z AUTO 17003KT 10SM CLR 28/06 A2994 960 25 2700 180/03 RMK AO2 T02780061
04850KAOH AOH20160613181010806/13/16 18:10:31  5-MIN KAOH 132310Z AUTO 00000KT 10SM CLR 28/06 A2994 960 25 2700 000/00 RMK AO2 T02780061
04850KAOH AOH20160613181510806/13/16 18:15:31  5-MIN KAOH 132315Z AUTO 00000KT 10SM CLR 28/06 A2994 960 25 2700 000/00 RMK AO2 T02780061
04850KAOH AOH20160613182010806/13/16 18:20:31  5-MIN KAOH 132320Z AUTO 28004KT 10SM CLR 27/06 A2994 960 24 2600 280/04 RMK AO2 T02720056
04850KAOH AOH20160613182510806/13/16 18:25:31  5-MIN KAOH 132325Z AUTO 29004KT 10SM CLR 27/06 A2994 960 24 2600 290/04 RMK AO2 T02720056
04850KAOH AOH20160613183010806/13/16 18:30:31  5-MIN KAOH 132330Z AUTO 00000KT 10SM CLR 27/06 A2994 960 24 2600 000/00 RMK AO2 T02720056
04850KAOH AOH20160613183510806/13/16 18:35:31  5-MIN KAOH 132335Z AUTO 00000KT 10SM CLR 28/06 A2994 960 25 2700 000/00 RMK AO2 T02780061
04850KAOH AOH20160613184010806/13/16 18:40:31  5-MIN KAOH 132340Z AUTO 00000KT 10SM CLR 27/06 A2994 960 24 2600 000/00 RMK AO2 T02720056
04850KAOH AOH20160613184510806/13/16 18:45:31  5-MIN KAOH 132345Z AUTO 24003KT 10SM CLR 27/06 A2994 960 24 2600 250/03 RMK AO2 T02720056
04850KAOH AOH20160613185013306/13/16 18:50:31  5-MIN KAOH 132350Z AUTO VRB03KT 10SM CLR 27/05 A2994 960 24 2600 VRB/03 RMK AO2 SLP134 T02720050 10278 20244 58017
04850KAOH AOH20160613185510806/13/16 18:55:31  5-MIN KAOH 132355Z AUTO 28004KT 10SM CLR 27/06 A2994 960 24 2600 290/04 RMK AO2 T02720056
04850KAOH AOH20160613190010806/13/16 19:00:31  5-MIN KAOH 140000Z AUTO 31004KT 10SM CLR 27/06 A2994 960 24 2600 320/04 RMK AO2 T02720056
04850KAOH AOH20160613190511106/13/16 19:05:31  5-MIN KAOH 140005Z AUTO 00000KT 10SM FEW060 27/06 A2994 960 25 2600 000/00 RMK AO2 T02720061
04850KAOH AOH20160613191011806/13/16 19:10:31  5-MIN KAOH 140010Z AUTO 27004KT 10SM FEW060 FEW080 27/06 A2994 960 25 2600 270/04 RMK AO2 T02720061
04850KAOH AOH20160613191511806/13/16 19:15:31  5-MIN KAOH 140015Z AUTO 25006KT 10SM FEW060 SCT080 27/06 A2994 960 25 2600 260/06 RMK AO2 T02720061
04850KAOH AOH20160613192011806/13/16 19:20:31  5-MIN KAOH 140020Z AUTO 22004KT 10SM FEW060 BKN080 27/07 A2994 960 28 2600 230/04 RMK AO2 T02670072
04850KAOH AOH20160613192511806/13/16 19:25:31  5-MIN KAOH 140025Z AUTO 22003KT 10SM FEW060 BKN080 27/07 A2994 960 28 2600 230/03 RMK AO2 T02670072
04850KAOH AOH20160613193011806/13/16 19:30:31  5-MIN KAOH 140030Z AUTO 23004KT 10SM FEW060 BKN080 27/07 A2994 960 27 2600 240/04 RMK AO2 T02670067
04850KAOH AOH20160613193511106/13/16 19:35:31  5-MIN KAOH 140035Z AUTO 22004KT 10SM BKN080 27/07 A2994 960 27 2600 230/04 RMK AO2 T02670067
04850KAOH AOH20160613194011106/13/16 19:40:31  5-MIN KAOH 140040Z AUTO 22003KT 10SM SCT080 26/07 A2994 960 29 2500 230/03 RMK AO2 T02610072
04850KAOH AOH20160613194511106/13/16 19:45:31  5-MIN KAOH 140045Z AUTO 21003KT 10SM SCT080 26/07 A2993 970 29 2500 220/03 RMK AO2 T02610072
04850KAOH AOH20160613195011806/13/16 19:50:31  5-MIN KAOH 140050Z AUTO 21003KT 10SM FEW080 26/07 A2993 970 29 2500 220/03 RMK AO2 SLP130 T02610072
04850KAOH AOH20160613195510806/13/16 19:55:31  5-MIN KAOH 140055Z AUTO 21003KT 10SM CLR 26/07 A2993 970 28 2500 210/03 RMK AO2 T02610067
04850KAOH AOH20160613200010806/13/16 20:00:31  5-MIN KAOH 140100Z AUTO 20003KT 10SM CLR 26/07 A2993 970 29 2500 200/03 RMK AO2 T02610072
04850KAOH AOH20160613200510806/13/16 20:05:31  5-MIN KAOH 140105Z AUTO 20003KT 10SM CLR 26/07 A2992 970 30 2500 210/03 RMK AO2 T02560072
04850KAOH AOH20160613201010806/13/16 20:10:31  5-MIN KAOH 140110Z AUTO 00000KT 10SM CLR 26/07 A2993 970 30 2500 000/00 RMK AO2 T02560072
04850KAOH AOH20160613201511106/13/16 20:15:31  5-MIN KAOH 140115Z AUTO 00000KT 10SM FEW080 26/08 A2992 970 32 2500 000/00 RMK AO2 T02560078
04850KAOH AOH20160613202011106/13/16 20:20:31  5-MIN KAOH 140120Z AUTO 00000KT 10SM SCT080 25/08 A2993 970 34 2400 000/00 RMK AO2 T02500083
04850KAOH AOH20160613202511106/13/16 20:25:31  5-MIN KAOH 140125Z AUTO 00000KT 10SM BKN080 24/09 A2993 970 36 2300 000/00 RMK AO2 T02440089
04850KAOH AOH20160613203011806/13/16 20:30:31  5-MIN KAOH 140130Z AUTO 00000KT 10SM FEW055 BKN080 24/11 A2993 970 42 2300 000/00 RMK AO2 T02390106
04850KAOH AOH20160613203511806/13/16 20:35:31  5-MIN KAOH 140135Z AUTO 00000KT 10SM SCT055 BKN080 24/11 A2993 970 42 2300 000/00 RMK AO2 T02390106
04850KAOH AOH20160613204011806/13/16 20:40:31  5-MIN KAOH 140140Z AUTO 00000KT 10SM BKN055 OVC080 23/12 A2993 970 47 2200 000/00 RMK AO2 T02330117
04850KAOH AOH20160613204511806/13/16 20:45:31  5-MIN KAOH 140145Z AUTO 09003KT 10SM BKN055 OVC080 23/11 A2993 970 45 2200 090/03 RMK AO2 T02330111
04850KAOH AOH20160613205012506/13/16 20:50:31  5-MIN KAOH 140150Z AUTO 09003KT 10SM BKN055 BKN080 23/12 A2992 970 49 2100 100/03 RMK AO2 SLP127 T02280117
04850KAOH AOH20160613205511806/13/16 20:55:31  5-MIN KAOH 140155Z AUTO 10004KT 10SM BKN055 BKN080 23/11 A2992 970 47 2100 100/04 RMK AO2 T02280111
04850KAOH AOH20160613210011106/13/16 21:00:31  5-MIN KAOH 140200Z AUTO 10004KT 10SM SCT055 22/12 A2992 970 51 2100 100/04 RMK AO2 T02220117
04850KAOH AOH20160613210511106/13/16 21:05:31  5-MIN KAOH 140205Z AUTO 10003KT 10SM SCT055 23/10 A2993 970 44 2100 100/03 RMK AO2 T02280100
04850KAOH AOH20160613211011106/13/16 21:10:31  5-MIN KAOH 140210Z AUTO 00000KT 10SM FEW055 23/10 A2993 970 44 2100 000/00 RMK AO2 T02280100
04850KAOH AOH20160613211511106/13/16 21:15:31  5-MIN KAOH 140215Z AUTO 00000KT 10SM FEW055 22/11 A2993 970 47 2100 000/00 RMK AO2 T02220106
04850KAOH AOH20160613212010806/13/16 21:20:31  5-MIN KAOH 140220Z AUTO 00000KT 10SM CLR 22/10 A2993 960 45 2100 000/00 RMK AO2 T02220100
04850KAOH AOH20160613212511106/13/16 21:25:31  5-MIN KAOH 140225Z AUTO 00000KT 10SM FEW050 22/10 A2994 960 47 2000 000/00 RMK AO2 T02170100
04850KAOH AOH20160613213011106/13/16 21:30:31  5-MIN KAOH 140230Z AUTO 06003KT 10SM SCT050 22/11 A2994 960 49 2000 060/03 RMK AO2 T02170106
04850KAOH AOH20160613213511106/13/16 21:35:31  5-MIN KAOH 140235Z AUTO 00000KT 10SM BKN055 22/11 A2994 960 47 2100 000/00 RMK AO2 T02220106
04850KAOH AOH20160613214011106/13/16 21:40:31  5-MIN KAOH 140240Z AUTO 13003KT 10SM BKN055 23/11 A2994 960 47 2100 140/03 RMK AO2 T02280111
04850KAOH AOH20160613214511106/13/16 21:45:31  5-MIN KAOH 140245Z AUTO 13004KT 10SM BKN060 23/11 A2994 960 45 2100 140/04 RMK AO2 T02280106
04850KAOH AOH20160613215012406/13/16 21:50:31  5-MIN KAOH 140250Z AUTO 13003KT 10SM OVC060 23/11 A2994 960 45 2100 140/03 RMK AO2 SLP132 T02280106 56012
04850KAOH AOH20160613215511106/13/16 21:55:31  5-MIN KAOH 140255Z AUTO 14003KT 10SM OVC060 23/10 A2994 960 44 2100 150/03 RMK AO2 T02280100
04850KAOH AOH20160613220011106/13/16 22:00:31  5-MIN KAOH 140300Z AUTO 00000KT 10SM OVC060 23/12 A2994 960 49 2100 000/00 RMK AO2 T02280117
04850KAOH AOH20160613220511106/13/16 22:05:31  5-MIN KAOH 140305Z AUTO 00000KT 10SM OVC065 23/11 A2993 960 47 2100 000/00 RMK AO2 T02280111
04850KAOH AOH20160613221011106/13/16 22:10:31  5-MIN KAOH 140310Z AUTO 00000KT 10SM BKN065 22/11 A2994 960 49 2100 000/00 RMK AO2 T02220111
04850KAOH AOH20160613221511106/13/16 22:15:31  5-MIN KAOH 140315Z AUTO 00000KT 10SM BKN060 22/11 A2994 960 49 2100 000/00 RMK AO2 T02220111
04850KAOH AOH20160613222011106/13/16 22:20:31  5-MIN KAOH 140320Z AUTO 00000KT 10SM BKN060 22/11 A2994 960 49 2100 000/00 RMK AO2 T02220111
04850KAOH AOH20160613222511106/13/16 22:25:31  5-MIN KAOH 140325Z AUTO 06003KT 10SM BKN065 22/11 A2994 960 49 2100 070/03 RMK AO2 T02220111
04850KAOH AOH20160613223011106/13/16 22:30:31  5-MIN KAOH 140330Z AUTO 08005KT 10SM BKN060 22/12 A2994 960 52 2000 080/05 RMK AO2 T02170117
04850KAOH AOH20160613223511106/13/16 22:35:31  5-MIN KAOH 140335Z AUTO 07009KT 10SM BKN060 21/11 A2994 960 52 1900 080/09 RMK AO2 T02110111
04850KAOH AOH20160613224011106/13/16 22:40:31  5-MIN KAOH 140340Z AUTO 07008KT 10SM BKN060 21/10 A2995 950 48 1900 080/08 RMK AO2 T02110100
04850KAOH AOH20160613224511106/13/16 22:45:31  5-MIN KAOH 140345Z AUTO 06007KT 10SM SCT060 21/09 A2995 950 47 1900 070/07 RMK AO2 T02110094
04850KAOH AOH20160613225011806/13/16 22:50:31  5-MIN KAOH 140350Z AUTO 08006KT 10SM FEW060 21/09 A2995 950 48 1900 090/06 RMK AO2 SLP136 T02060094
04850KAOH AOH20160613225511106/13/16 22:55:31  5-MIN KAOH 140355Z AUTO 08007KT 10SM FEW060 21/10 A2995 950 50 1900 090/07 RMK AO2 T02060100
04850KAOH AOH20160613230011106/13/16 23:00:31  5-MIN KAOH 140400Z AUTO 09007KT 10SM SCT075 21/09 A2995 950 48 1900 090/07 RMK AO2 T02060094
04850KAOH AOH20160613230511106/13/16 23:05:31  5-MIN KAOH 140405Z AUTO 06008KT 10SM SCT075 21/09 A2995 950 48 1900 070/08 RMK AO2 T02060094
04850KAOH AOH20160613231011106/13/16 23:10:31  5-MIN KAOH 140410Z AUTO 07008KT 10SM FEW075 21/09 A2995 950 46 1900 070/08 RMK AO2 T02060089
04850KAOH AOH20160613231511106/13/16 23:15:31  5-MIN KAOH 140415Z AUTO 07008KT 10SM FEW075 20/09 A2996 940 48 1800 070/08 RMK AO2 T02000089
04850KAOH AOH20160613232011806/13/16 23:20:31  5-MIN KAOH 140420Z AUTO 07008KT 10SM FEW060 SCT075 20/09 A2996 940 48 1800 070/08 RMK AO2 T02000089
04850KAOH AOH20160613232511806/13/16 23:25:31  5-MIN KAOH 140425Z AUTO 07008KT 10SM FEW060 SCT075 20/09 A2996 940 48 1800 070/08 RMK AO2 T02000089
04850KAOH AOH20160613233011106/13/16 23:30:31  5-MIN KAOH 140430Z AUTO 08009KT 10SM FEW060 19/09 A2996 950 50 1700 080/09 RMK AO2 T01940089
04850KAOH AOH20160613233511106/13/16 23:35:31  5-MIN KAOH 140435Z AUTO 08008KT 10SM FEW060 19/09 A2996 940 50 1700 080/08 RMK AO2 T01940089
04850KAOH AOH20160613234011106/13/16 23:40:31  5-MIN KAOH 140440Z AUTO 07011KT 10SM FEW060 19/08 A2996 940 48 1700 080/11 RMK AO2 T01940083
04850KAOH AOH20160613234511106/13/16 23:45:31  5-MIN KAOH 140445Z AUTO 06008KT 10SM FEW060 19/08 A2996 940 46 1700 070/08 RMK AO2 T01940078
04850KAOH AOH20160613235012506/13/16 23:50:31  5-MIN KAOH 140450Z AUTO 06009KT 10SM CLR 19/08 A2996 940 46 1700 070/09 RMK AO2 SLP140 T01940078 402780106
04850KAOH AOH20160613235510806/13/16 23:55:31  5-MIN KAOH 140455Z AUTO 07008KT 10SM CLR 19/08 A2996 940 46 1700 070/08 RMK AO2 T01940078
04850KAOH AOH20160614000010806/14/16 00:00:31  5-MIN KAOH 140500Z AUTO 07011KT 10SM CLR 19/08 A2996 940 46 1700 080/11 RMK AO2 T01940078
04850KAOH AOH20160614000510806/14/16 00:05:31  5-MIN KAOH 140505Z AUTO 07010KT 10SM CLR 19/08 A2997 940 48 1600 080/10 RMK AO2 T01890078
04850KAOH AOH20160614001011106/14/16 00:10:31  5-MIN KAOH 140510Z AUTO 07011KT 10SM FEW055 19/08 A2997 940 48 1600 080/11 RMK AO2 T01890078
04850KAOH AOH20160614001511106/14/16 00:15:31  5-MIN KAOH 140515Z AUTO 08011KT 10SM SCT055 19/08 A2997 930 48 1600 080/11 RMK AO2 T01890078
04850KAOH AOH20160614002011106/14/16 00:20:31  5-MIN KAOH 140520Z AUTO 08011KT 10SM SCT055 19/08 A2996 940 48 1600 080/11 RMK AO2 T01890078
04850KAOH AOH20160614002511106/14/16 00:25:31  5-MIN KAOH 140525Z AUTO 08013KT 10SM FEW055 19/08 A2996 940 48 1700 080/13 RMK AO2 T01890078
04850KAOH AOH20160614003011106/14/16 00:30:31  5-MIN KAOH 140530Z AUTO 08011KT 10SM FEW055 19/08 A2996 940 48 1600 080/11 RMK AO2 T01890078
04850KAOH AOH20160614003511106/14/16 00:35:31  5-MIN KAOH 140535Z AUTO 08011KT 10SM FEW055 19/08 A2996 940 48 1600 090/11 RMK AO2 T01890078
04850KAOH AOH20160614004011106/14/16 00:40:31  5-MIN KAOH 140540Z AUTO 08010KT 10SM FEW055 19/08 A2997 930 48 1600 080/10 RMK AO2 T01890078
04850KAOH AOH20160614004510806/14/16 00:45:31  5-MIN KAOH 140545Z AUTO 08011KT 10SM CLR 18/08 A2997 930 50 1600 080/11 RMK AO2 T01830078
04850KAOH AOH20160614005013306/14/16 00:50:31  5-MIN KAOH 140550Z AUTO 08012KT 10SM CLR 18/08 A2997 930 50 1600 080/12 RMK AO2 SLP142 T01830078 10272 20183 55002
04850KAOH AOH20160614005510806/14/16 00:55:31  5-MIN KAOH 140555Z AUTO 07011KT 10SM CLR 18/08 A2997 930 50 1600 080/11 RMK AO2 T01830078
04850KAOH AOH20160614010010806/14/16 01:00:31  5-MIN KAOH 140600Z AUTO 08013KT 10SM CLR 18/08 A2997 930 52 1600 080/13 RMK AO2 T01830083
04850KAOH AOH20160614010510806/14/16 01:05:31  5-MIN KAOH 140605Z AUTO 08012KT 10SM CLR 18/08 A2997 930 52 1600 080/12 RMK AO2 T01830083
04850KAOH AOH20160614011010806/14/16 01:10:31  5-MIN KAOH 140610Z AUTO 07013KT 10SM CLR 18/08 A2997 930 52 1600 080/13 RMK AO2 T01830083
04850KAOH AOH20160614011510806/14/16 01:15:31  5-MIN KAOH 140615Z AUTO 08012KT 10SM CLR 18/08 A2997 930 53 1500 080/12 RMK AO2 T01780083
04850KAOH AOH20160614012010806/14/16 01:20:31  5-MIN KAOH 140620Z AUTO 08012KT 10SM CLR 18/08 A2997 930 53 1500 090/12 RMK AO2 T01780083
04850KAOH AOH20160614012510806/14/16 01:25:31  5-MIN KAOH 140625Z AUTO 09012KT 10SM CLR 18/08 A2997 930 51 1500 090/12 RMK AO2 T01780078
04850KAOH AOH20160614013010806/14/16 01:30:31  5-MIN KAOH 140630Z AUTO 09012KT 10SM CLR 18/08 A2997 940 51 1500 090/12 RMK AO2 T01780078
04850KAOH AOH20160614013510806/14/16 01:35:31  5-MIN KAOH 140635Z AUTO 09011KT 10SM CLR 18/08 A2997 930 51 1500 090/11 RMK AO2 T01780078
04850KAOH AOH20160614014010806/14/16 01:40:31  5-MIN KAOH 140640Z AUTO 09010KT 10SM CLR 18/08 A2997 930 51 1500 090/10 RMK AO2 T01780078
04850KAOH AOH20160614014511106/14/16 01:45:31  5-MIN KAOH 140645Z AUTO 08009KT 10SM FEW055 18/08 A2997 930 51 1500 090/09 RMK AO2 T01780078
04850KAOH AOH20160614015011806/14/16 01:50:31  5-MIN KAOH 140650Z AUTO 09010KT 10SM SCT055 18/08 A2997 930 51 1500 100/10 RMK AO2 SLP142 T01780078
04850KAOH AOH20160614015511106/14/16 01:55:31  5-MIN KAOH 140655Z AUTO 10011KT 10SM BKN055 18/08 A2997 930 51 1500 100/11 RMK AO2 T01780078
04850KAOH AOH20160614020011106/14/16 02:00:31  5-MIN KAOH 140700Z AUTO 10011KT 10SM BKN055 18/08 A2997 930 51 1500 100/11 RMK AO2 T01780078
04850KAOH AOH20160614020511106/14/16 02:05:31  5-MIN KAOH 140705Z AUTO 10010KT 10SM BKN055 18/08 A2996 940 51 1500 110/10 RMK AO2 T01780078
04850KAOH AOH20160614021011106/14/16 02:10:31  5-MIN KAOH 140710Z AUTO 10008KT 10SM BKN055 18/08 A2997 940 51 1500 100/08 RMK AO2 T01780078
04850KAOH AOH20160614021511106/14/16 02:15:31  5-MIN KAOH 140715Z AUTO 10011KT 10SM BKN055 18/08 A2996 940 51 1500 110/11 RMK AO2 T01780078
04850KAOH AOH20160614022011106/14/16 02:20:31  5-MIN KAOH 140720Z AUTO 11011KT 10SM SCT055 18/08 A2996 940 51 1500 110/11 RMK AO2 T01780078
04850KAOH AOH20160614022511106/14/16 02:25:31  5-MIN KAOH 140725Z AUTO 10009KT 10SM SCT055 18/08 A2996 940 51 1500 110/09 RMK AO2 T01780078
04850KAOH AOH20160614023011106/14/16 02:30:31  5-MIN KAOH 140730Z AUTO 11011KT 10SM FEW055 17/08 A2996 940 53 1500 110/11 RMK AO2 T01720078
04850KAOH AOH20160614023510806/14/16 02:35:31  5-MIN KAOH 140735Z AUTO 10011KT 10SM CLR 17/08 A2996 940 53 1500 110/11 RMK AO2 T01720078
04850KAOH AOH20160614024010806/14/16 02:40:31  5-MIN KAOH 140740Z AUTO 10010KT 10SM CLR 17/08 A2996 940 53 1500 110/10 RMK AO2 T01720078
04850KAOH AOH20160614024510806/14/16 02:45:31  5-MIN KAOH 140745Z AUTO 10010KT 10SM CLR 17/08 A2996 940 53 1500 110/10 RMK AO2 T01720078
04850KAOH AOH20160614025011506/14/16 02:50:31  5-MIN KAOH 140750Z AUTO 11009KT 10SM CLR 17/08 A2996 940 53 1500 120/09 RMK AO2 SLP140 T01720078
04850KAOH AOH20160614025510806/14/16 02:55:31  5-MIN KAOH 140755Z AUTO 11008KT 10SM CLR 17/08 A2996 940 53 1500 110/08 RMK AO2 T01720078
04850KAOH AOH20160614030010806/14/16 03:00:31  5-MIN KAOH 140800Z AUTO 10010KT 10SM CLR 17/08 A2996 940 53 1500 110/10 RMK AO2 T01720078
04850KAOH AOH20160614030510806/14/16 03:05:31  5-MIN KAOH 140805Z AUTO 10009KT 10SM CLR 17/08 A2996 940 53 1500 110/09 RMK AO2 T01720078
04850KAOH AOH20160614031010806/14/16 03:10:31  5-MIN KAOH 140810Z AUTO 10009KT 10SM CLR 17/08 A2996 940 53 1500 110/09 RMK AO2 T01720078
04850KAOH AOH20160614031510806/14/16 03:15:31  5-MIN KAOH 140815Z AUTO 10009KT 10SM CLR 17/08 A2996 940 53 1500 100/09 RMK AO2 T01720078
04850KAOH AOH20160614032010806/14/16 03:20:31  5-MIN KAOH 140820Z AUTO 09009KT 10SM CLR 17/08 A2996 940 53 1500 100/09 RMK AO2 T01720078
04850KAOH AOH20160614032510806/14/16 03:25:31  5-MIN KAOH 140825Z AUTO 10010KT 10SM CLR 17/08 A2996 940 53 1500 100/10 RMK AO2 T01720078
04850KAOH AOH20160614033011106/14/16 03:30:31  5-MIN KAOH 140830Z AUTO 10008KT 10SM FEW070 17/08 A2996 940 53 1500 100/08 RMK AO2 T01720078
04850KAOH AOH20160614033511106/14/16 03:35:31  5-MIN KAOH 140835Z AUTO 10009KT 10SM FEW070 17/08 A2996 940 53 1500 110/09 RMK AO2 T01720078
04850KAOH AOH20160614034011106/14/16 03:40:31  5-MIN KAOH 140840Z AUTO 10008KT 10SM FEW070 17/08 A2996 940 53 1500 110/08 RMK AO2 T01720078
04850KAOH AOH20160614034511106/14/16 03:45:31  5-MIN KAOH 140845Z AUTO 11008KT 10SM SCT070 17/08 A2997 940 53 1500 110/08 RMK AO2 T01720078
04850KAOH AOH20160614035013106/14/16 03:50:31  5-MIN KAOH 140850Z AUTO 10007KT 10SM SCT055 BKN070 17/08 A2997 930 53 1500 110/07 RMK AO2 SLP141 T01720078 51010
04850KAOH AOH20160614035511806/14/16 03:55:31  5-MIN KAOH 140855Z AUTO 11007KT 10SM BKN055 BKN070 17/08 A2997 930 53 1500 110/07 RMK AO2 T01720078
04850KAOH AOH20160614040011806/14/16 04:00:31  5-MIN KAOH 140900Z AUTO 10007KT 10SM BKN055 BKN070 17/08 A2997 930 55 1500 110/07 RMK AO2 T01720083
04850KAOH AOH20160614040511806/14/16 04:05:31  5-MIN KAOH 140905Z AUTO 10009KT 10SM BKN055 BKN070 17/08 A2997 930 55 1400 110/09 RMK AO2 T01720083
04850KAOH AOH20160614041011806/14/16 04:10:31  5-MIN KAOH 140910Z AUTO 11009KT 10SM BKN055 OVC070 17/08 A2997 930 55 1400 110/09 RMK AO2 T01720083
04850KAOH AOH20160614041511806/14/16 04:15:31  5-MIN KAOH 140915Z AUTO 10007KT 10SM BKN055 OVC070 17/08 A2997 930 55 1400 110/07 RMK AO2 T01720083
04850KAOH AOH20160614042011806/14/16 04:20:31  5-MIN KAOH 140920Z AUTO 10006KT 10SM BKN055 OVC070 17/08 A2998 920 55 1400 110/06 RMK AO2 T01720083
04850KAOH AOH20160614042511806/14/16 04:25:31  5-MIN KAOH 140925Z AUTO 11007KT 10SM SCT060 OVC070 17/08 A2998 920 55 1400 110/07 RMK AO2 T01720083
04850KAOH AOH20160614043011806/14/16 04:30:31  5-MIN KAOH 140930Z AUTO 11008KT 10SM SCT060 OVC070 17/08 A2998 920 55 1400 120/08 RMK AO2 T01720083
04850KAOH AOH20160614043511806/14/16 04:35:31  5-MIN KAOH 140935Z AUTO 12009KT 10SM SCT055 OVC070 18/08 A2998 930 53 1500 120/09 RMK AO2 T01780083
04850KAOH AOH20160614044011806/14/16 04:40:31  5-MIN KAOH 140940Z AUTO 12010KT 10SM SCT060 BKN070 18/08 A2998 930 53 1500 120/10 RMK AO2 T01780083
04850KAOH AOH20160614044511806/14/16 04:45:31  5-MIN KAOH 140945Z AUTO 12010KT 10SM FEW060 BKN075 18/08 A2998 930 53 1500 120/10 RMK AO2 T01780083
04850KAOH AOH20160614045012506/14/16 04:50:31  5-MIN KAOH 140950Z AUTO 12009KT 10SM FEW060 BKN075 17/08 A2998 930 55 1400 120/09 RMK AO2 SLP145 T01720083
04850KAOH AOH20160614045511806/14/16 04:55:31  5-MIN KAOH 140955Z AUTO 11008KT 10SM SCT060 BKN075 18/08 A2997 930 53 1500 120/08 RMK AO2 T01780083
04850KAOH AOH20160614050011806/14/16 05:00:31  5-MIN KAOH 141000Z AUTO 12008KT 10SM SCT060 BKN080 17/08 A2997 930 55 1400 120/08 RMK AO2 T01720083
04850KAOH AOH20160614050511806/14/16 05:05:31  5-MIN KAOH 141005Z AUTO 11008KT 10SM FEW060 SCT080 17/08 A2997 930 55 1400 120/08 RMK AO2 T01720083
04850KAOH AOH20160614051011806/14/16 05:10:31  5-MIN KAOH 141010Z AUTO 11008KT 10SM FEW060 SCT080 17/08 A2997 930 55 1400 120/08 RMK AO2 T01720083
04850KAOH AOH20160614051512506/14/16 05:15:31  5-MIN KAOH 141015Z AUTO 11008KT 10SM FEW060 SCT080 SCT100 17/08 A2998 930 55 1400 110/08 RMK AO2 T01720083
04850KAOH AOH20160614052012506/14/16 05:20:31  5-MIN KAOH 141020Z AUTO 10007KT 10SM FEW060 FEW080 BKN100 17/09 A2998 930 57 1400 110/07 RMK AO2 T01720089
04850KAOH AOH20160614052511806/14/16 05:25:31  5-MIN KAOH 141025Z AUTO 10006KT 10SM FEW080 BKN100 17/09 A2998 930 57 1400 110/06 RMK AO2 T01720089
04850KAOH AOH20160614053011106/14/16 05:30:31  5-MIN KAOH 141030Z AUTO 10007KT 10SM SCT100 17/09 A2998 920 57 1400 110/07 RMK AO2 T01720089
04850KAOH AOH20160614053511106/14/16 05:35:31  5-MIN KAOH 141035Z AUTO 11007KT 10SM BKN100 17/09 A2998 920 57 1400 120/07 RMK AO2 T01720089
04850KAOH AOH20160614054011106/14/16 05:40:31  5-MIN KAOH 141040Z AUTO 11006KT 10SM BKN100 17/09 A2998 920 57 1400 120/06 RMK AO2 T01720089
04850KAOH AOH20160614054511106/14/16 05:45:31  5-MIN KAOH 141045Z AUTO 11006KT 10SM BKN100 17/09 A2998 920 57 1400 110/06 RMK AO2 T01720089
04850KAOH AOH20160614055011806/14/16 05:50:31  5-MIN KAOH 141050Z AUTO 10007KT 10SM OVC100 17/09 A2998 920 57 1400 110/07 RMK AO2 SLP147 T01720089
04850KAOH AOH20160614055511106/14/16 05:55:31  5-MIN KAOH 141055Z AUTO 11007KT 10SM BKN100 17/09 A2998 920 57 1400 110/07 RMK AO2 T01720089
04850KAOH AOH20160614060011806/14/16 06:00:31  5-MIN KAOH 141100Z AUTO 11007KT 10SM FEW060 BKN100 17/09 A2998 920 57 1400 110/07 RMK AO2 T01720089
04850KAOH AOH20160614060511806/14/16 06:05:31  5-MIN KAOH 141105Z AUTO 10006KT 10SM FEW055 BKN100 17/09 A2999 910 57 1400 110/06 RMK AO2 T01720089
04850KAOH AOH20160614061011806/14/16 06:10:31  5-MIN KAOH 141110Z AUTO 10008KT 10SM FEW055 SCT100 17/09 A2999 920 60 1400 110/08 RMK AO2 T01720094
04850KAOH AOH20160614061511806/14/16 06:15:31  5-MIN KAOH 141115Z AUTO 10007KT 10SM FEW060 SCT100 17/09 A2999 910 57 1400 110/07 RMK AO2 T01720089
04850KAOH AOH20160614062011106/14/16 06:20:31  5-MIN KAOH 141120Z AUTO 10007KT 10SM FEW060 17/09 A2999 910 60 1400 110/07 RMK AO2 T01720094
04850KAOH AOH20160614062511106/14/16 06:25:31  5-MIN KAOH 141125Z AUTO 11008KT 10SM FEW060 17/09 A2999 910 57 1400 120/08 RMK AO2 T01720089
04850KAOH AOH20160614063011106/14/16 06:30:31  5-MIN KAOH 141130Z AUTO 11008KT 10SM FEW055 17/09 A2999 910 60 1400 120/08 RMK AO2 T01720094
04850KAOH AOH20160614063510806/14/16 06:35:31  5-MIN KAOH 141135Z AUTO 11010KT 10SM CLR 18/09 A2999 910 58 1500 120/10 RMK AO2 T01780094
04850KAOH AOH20160614064010806/14/16 06:40:31  5-MIN KAOH 141140Z AUTO 12009KT 10SM CLR 18/09 A2999 910 58 1500 130/09 RMK AO2 T01780094
04850KAOH AOH20160614064510806/14/16 06:45:31  5-MIN KAOH 141145Z AUTO 12009KT 10SM CLR 18/09 A2999 910 58 1500 120/09 RMK AO2 T01780094
04850KAOH AOH20160614065013906/14/16 06:50:31  5-MIN KAOH 141150Z AUTO 12011G17KT 10SM CLR 18/09 A2999 910 54 1600 120/11G17 RMK AO2 SLP148 T01830089 10183 20172 55000
04850KAOH AOH20160614065510806/14/16 06:55:31  5-MIN KAOH 141155Z AUTO 11012KT 10SM CLR 18/09 A2999 910 54 1600 120/12 RMK AO2 T01830089
04850KAOH AOH20160614070010806/14/16 07:00:31  5-MIN KAOH 141200Z AUTO 12011KT 10SM CLR 18/09 A2999 920 56 1600 120/11 RMK AO2 T01830094
04850KAOH AOH20160614070510806/14/16 07:05:31  5-MIN KAOH 141205Z AUTO 11012KT 10SM CLR 18/09 A2998 920 54 1600 120/12 RMK AO2 T01830089
04850KAOH AOH20160614071010806/14/16 07:10:31  5-MIN KAOH 141210Z AUTO 12011KT 10SM CLR 19/09 A2999 920 52 1600 130/11 RMK AO2 T01890089
04850KAOH AOH20160614071510806/14/16 07:15:31  5-MIN KAOH 141215Z AUTO 12011KT 10SM CLR 19/09 A2999 910 52 1600 120/11 RMK AO2 T01890089
04850KAOH AOH20160614072010806/14/16 07:20:31  5-MIN KAOH 141220Z AUTO 13010KT 10SM CLR 19/09 A2999 910 52 1700 130/10 RMK AO2 T01940094
04850KAOH AOH20160614072510806/14/16 07:25:31  5-MIN KAOH 141225Z AUTO 11010KT 10SM CLR 19/09 A3000 910 52 1700 120/10 RMK AO2 T01940094
04850KAOH AOH20160614073010806/14/16 07:30:31  5-MIN KAOH 141230Z AUTO 12011KT 10SM CLR 19/09 A2999 910 52 1600 130/11 RMK AO2 T01890089
04850KAOH AOH20160614073510806/14/16 07:35:31  5-MIN KAOH 141235Z AUTO 12012KT 10SM CLR 19/09 A3000 910 50 1700 130/12 RMK AO2 T01940089
04850KAOH AOH20160614074010806/14/16 07:40:31  5-MIN KAOH 141240Z AUTO 12011KT 10SM CLR 19/09 A3000 910 50 1700 130/11 RMK AO2 T01940089
04850KAOH AOH20160614074510806/14/16 07:45:31  5-MIN KAOH 141245Z AUTO 13011KT 10SM CLR 19/09 A2999 910 50 1700 130/11 RMK AO2 T01940089
04850KAOH AOH20160614075011506/14/16 07:50:31  5-MIN KAOH 141250Z AUTO 12011KT 10SM CLR 19/09 A3000 910 50 1700 130/11 RMK AO2 SLP151 T01940089
04850KAOH AOH20160614075510806/14/16 07:55:31  5-MIN KAOH 141255Z AUTO 11011KT 10SM CLR 19/09 A3000 900 50 1700 120/11 RMK AO2 T01940089
04850KAOH AOH20160614080010806/14/16 08:00:31  5-MIN KAOH 141300Z AUTO 11010KT 10SM CLR 19/09 A3000 900 50 1700 120/10 RMK AO2 T01940089
04850KAOH AOH20160614080511106/14/16 08:05:31  5-MIN KAOH 141305Z AUTO 12011KT 10SM FEW060 19/09 A3000 900 50 1700 120/11 RMK AO2 T01940089
04850KAOH AOH20160614081011106/14/16 08:10:31  5-MIN KAOH 141310Z AUTO 11010KT 10SM FEW060 20/09 A3000 900 48 1700 110/10 RMK AO2 T02000089
04850KAOH AOH20160614081511106/14/16 08:15:31  5-MIN KAOH 141315Z AUTO 12010KT 10SM FEW055 20/09 A3000 900 48 1700 130/10 RMK AO2 T02000089
04850KAOH AOH20160614082011106/14/16 08:20:31  5-MIN KAOH 141320Z AUTO 12010KT 10SM SCT055 20/09 A3000 900 48 1700 130/10 RMK AO2 T02000089
04850KAOH AOH20160614082511106/14/16 08:25:31  5-MIN KAOH 141325Z AUTO 12009KT 10SM BKN060 20/09 A3000 900 48 1700 120/09 RMK AO2 T02000089
04850KAOH AOH20160614083011106/14/16 08:30:31  5-MIN KAOH 141330Z AUTO 12008KT 10SM BKN060 20/09 A3000 910 48 1700 120/08 RMK AO2 T02000089
04850KAOH AOH20160614083511106/14/16 08:35:31  5-MIN KAOH 141335Z AUTO 12009KT 10SM FEW060 21/09 A3000 900 46 1800 120/09 RMK AO2 T02060089
04850KAOH AOH20160614084011106/14/16 08:40:31  5-MIN KAOH 141340Z AUTO 11007KT 10SM FEW060 21/09 A3000 910 48 1800 120/07 RMK AO2 T02060094
04850KAOH AOH20160614084511106/14/16 08:45:31  5-MIN KAOH 141345Z AUTO 14008KT 10SM FEW060 21/09 A3000 900 47 1900 140/08 RMK AO2 T02110094
04850KAOH AOH20160614085011806/14/16 08:50:31  5-MIN KAOH 141350Z AUTO 14009KT 10SM FEW060 21/09 A3000 900 47 1900 150/09 RMK AO2 SLP153 T02110094
04850KAOH AOH20160614085510806/14/16 08:55:31  5-MIN KAOH 141355Z AUTO 13008KT 10SM CLR 21/09 A3000 900 47 1900 130/08 RMK AO2 T02110094
04850KAOH AOH20160614090010806/14/16 09:00:31  5-MIN KAOH 141400Z AUTO 13009KT 10SM CLR 21/09 A3000 910 45 1900 140/09 RMK AO2 T02110089
04850KAOH AOH20160614090510806/14/16 09:05:31  5-MIN KAOH 141405Z AUTO 13008KT 10SM CLR 22/09 A3000 910 45 1900 130/08 RMK AO2 T02170094
04850KAOH AOH20160614091010806/14/16 09:10:31  5-MIN KAOH 141410Z AUTO 12009KT 10SM CLR 22/09 A3000 910 45 1900 130/09 RMK AO2 T02170094
04850KAOH AOH20160614091510806/14/16 09:15:31  5-MIN KAOH 141415Z AUTO 11009KT 10SM CLR 22/09 A3000 910 45 1900 120/09 RMK AO2 T02170094
04850KAOH AOH20160614092010806/14/16 09:20:31  5-MIN KAOH 141420Z AUTO 11008KT 10SM CLR 22/09 A3000 910 45 1900 120/08 RMK AO2 T02170094
04850KAOH AOH20160614092510806/14/16 09:25:31  5-MIN KAOH 141425Z AUTO 10008KT 10SM CLR 22/09 A3000 910 45 1900 110/08 RMK AO2 T02170094
04850KAOH AOH20160614093010806/14/16 09:30:31  5-MIN KAOH 141430Z AUTO 10006KT 10SM CLR 22/09 A3000 900 45 1900 110/06 RMK AO2 T02170094
04850KAOH AOH20160614093510806/14/16 09:35:31  5-MIN KAOH 141435Z AUTO 09008KT 10SM CLR 22/09 A3000 900 43 2000 100/08 RMK AO2 T02220094
04850KAOH AOH20160614094010806/14/16 09:40:31  5-MIN KAOH 141440Z AUTO 10007KT 10SM CLR 22/09 A3001 900 43 2000 110/07 RMK AO2 T02220094
04850KAOH AOH20160614094510806/14/16 09:45:31  5-MIN KAOH 141445Z AUTO 10006KT 10SM CLR 22/09 A3001 900 43 2000 110/06 RMK AO2 T02220094
04850KAOH AOH20160614095012106/14/16 09:50:31  5-MIN KAOH 141450Z AUTO 12007KT 10SM CLR 22/09 A3001 900 43 2000 120/07 RMK AO2 SLP154 T02220094 51007
04850KAOH AOH20160614095510806/14/16 09:55:31  5-MIN KAOH 141455Z AUTO 11007KT 10SM CLR 23/09 A3000 900 42 2000 110/07 RMK AO2 T02280094
04850KAOH AOH20160614100010806/14/16 10:00:31  5-MIN KAOH 141500Z AUTO 13007KT 10SM CLR 23/09 A3000 910 42 2100 130/07 RMK AO2 T02280094
04850KAOH AOH20160614100510806/14/16 10:05:31  5-MIN KAOH 141505Z AUTO 13008KT 10SM CLR 23/10 A2999 910 44 2100 140/08 RMK AO2 T02280100
04850KAOH AOH20160614101012406/14/16 10:10:31  5-MIN KAOH 141510Z AUTO 13007KT 090V160 10SM CLR 23/09 A2999 910 42 2100 130/07 100V170 RMK AO2 T02280094
04850KAOH AOH20160614101510806/14/16 10:15:31  5-MIN KAOH 141515Z AUTO 12007KT 10SM CLR 23/10 A2999 910 42 2100 120/07 RMK AO2 T02330100
04850KAOH AOH20160614102010806/14/16 10:20:31  5-MIN KAOH 141520Z AUTO 11008KT 10SM CLR 23/09 A2999 910 41 2100 120/08 RMK AO2 T02330094
04850KAOH AOH20160614102510806/14/16 10:25:31  5-MIN KAOH 141525Z AUTO 12008KT 10SM CLR 23/10 A2999 910 42 2100 130/08 RMK AO2 T02330100
04850KAOH AOH20160614103007906/14/16 10:30:31  5-MIN KAOH 141530Z AUTO A2999 M M M M /M RMK AO2 PWINO PNO $
04850KAOH AOH20160614103507906/14/16 10:35:31  5-MIN KAOH 141535Z AUTO A2999 M M M M /M RMK AO2 PWINO PNO $
04850KAOH AOH20160614104007906/14/16 10:40:31  5-MIN KAOH 141540Z AUTO A2999 M M M M /M RMK AO2 PWINO PNO $
04850KAOH AOH20160614104507906/14/16 10:45:31  5-MIN KAOH 141545Z AUTO A2999 M M M M /M RMK AO2 PWINO PNO $
04850KAOH AOH20160614105008506/14/16 10:50:31  5-MIN KAOH 141550Z AUTO A2999 M M M M /M RMK AO2 SLPNO PWINO PNO $
04850KAOH AOH20160614105507906/14/16 10:55:31  5-MIN KAOH 141555Z AUTO A2999 M M M M /M RMK AO2 PWINO PNO $
04850KAOH AOH20160614110007906/14/16 11:00:31  5-MIN KAOH 141600Z AUTO A2999 M M M M /M RMK AO2 PWINO PNO $
04850KAOH AOH20160614110507906/14/16 11:05:31  5-MIN KAOH 141605Z AUTO A2999 M M M M /M RMK AO2 PWINO PNO $
04850KAOH AOH20160614111007906/14/16 11:10:31  5-MIN KAOH 141610Z AUTO A2999 M M M M /M RMK AO2 PWINO PNO $
04850KAOH AOH20160614111507906/14/16 11:15:31  5-MIN KAOH 141615Z AUTO A2999 M M M M /M RMK AO2 PWINO PNO $
04850KAOH AOH20160614112007906/14/16 11:20:31  5-MIN KAOH 141620Z AUTO A2998 M M M M /M RMK AO2 PWINO PNO $
04850KAOH AOH20160614112507906/14/16 11:25:31  5-MIN KAOH 141625Z AUTO A2998 M M M M /M RMK AO2 PWINO PNO $
04850KAOH AOH20160614113007906/14/16 11:30:31  5-MIN KAOH 141630Z AUTO A2998 M M M M /M RMK AO2 PWINO PNO $
04850KAOH AOH20160614113507906/14/16 11:35:31  5-MIN KAOH 141635Z AUTO A2998 M M M M /M RMK AO2 PWINO PNO $
04850KAOH AOH20160614114007906/14/16 11:40:31  5-MIN KAOH 141640Z AUTO A2998 M M M M /M RMK AO2 PWINO PNO $
04850KAOH AOH20160614114507906/14/16 11:45:31  5-MIN KAOH 141645Z AUTO A2998 M M M M /M RMK AO2 PWINO PNO $
04850KAOH AOH20160614115008506/14/16 11:50:31  5-MIN KAOH 141650Z AUTO A2998 M M M M /M RMK AO2 SLPNO PWINO PNO $
04850KAOH AOH20160614115507906/14/16 11:55:31  5-MIN KAOH 141655Z AUTO A2997 M M M M /M RMK AO2 PWINO PNO $
04850KAOH AOH20160614120007906/14/16 12:00:31  5-MIN KAOH 141700Z AUTO A2997 M M M M /M RMK AO2 PWINO PNO $
04850KAOH AOH20160614120507906/14/16 12:05:31  5-MIN KAOH 141705Z AUTO A2997 M M M M /M RMK AO2 PWINO PNO $
04850KAOH AOH20160614121007906/14/16 12:10:31  5-MIN KAOH 141710Z AUTO A2997 M M M M /M RMK AO2 PWINO PNO $
04850KAOH AOH20160614121507906/14/16 12:15:31  5-MIN KAOH 141715Z AUTO A2997 M M M M /M RMK AO2 PWINO PNO $
04850KAOH AOH20160614122007906/14/16 12:20:31  5-MIN KAOH 141720Z AUTO A2997 M M M M /M RMK AO2 PWINO PNO $
04850KAOH AOH20160614122507906/14/16 12:25:31  5-MIN KAOH 141725Z AUTO A2997 M M M M /M RMK AO2 PWINO PNO $
04850KAOH AOH20160614123007906/14/16 12:30:31  5-MIN KAOH 141730Z AUTO A2997 M M M M /M RMK AO2 PWINO PNO $
04850KAOH AOH20160614123507906/14/16 12:35:31  5-MIN KAOH 141735Z AUTO A2997 M M M M /M RMK AO2 PWINO PNO $
04850KAOH AOH20160614124007906/14/16 12:40:31  5-MIN KAOH 141740Z AUTO A2997 M M M M /M RMK AO2 PWINO PNO $
04850KAOH AOH20160614124507906/14/16 12:45:31  5-MIN KAOH 141745Z AUTO A2998 M M M M /M RMK AO2 PWINO PNO $
04850KAOH AOH20160614125009706/14/16 12:50:31  5-MIN KAOH 141750Z AUTO A2998 M M M M /M RMK AO2 SLPNO 6//// 51006 PWINO PNO $
04850KAOH AOH20160614125507906/14/16 12:55:31  5-MIN KAOH 141755Z AUTO A2998 M M M M /M RMK AO2 PWINO PNO $
04850KAOH AOH20160614130007906/14/16 13:00:31  5-MIN KAOH 141800Z AUTO A2998 M M M M /M RMK AO2 PWINO PNO $
04850KAOH AOH20160614130507906/14/16 13:05:31  5-MIN KAOH 141805Z AUTO A2998 M M M M /M RMK AO2 PWINO PNO $
04850KAOH AOH20160614131006906/14/16 13:10:31  5-MIN KAOH 141810Z AUTO A2998 M M M M /M RMK AO2 $
04850KAOH AOH20160614131510106/14/16 13:15:31  5-MIN KAOH 141815Z AUTO 14005KT 25/12 A2998 920 43 2300 150/05 RMK AO2 T02500117 $
04850KAOH AOH20160614132010606/14/16 13:20:31  5-MIN KAOH 141820Z AUTO 15006KT 10SM 25/12 A2998 920 43 2300 160/06 RMK AO2 T02500117 $
04850KAOH AOH20160614132510406/14/16 13:25:31  5-MIN KAOH 141825Z AUTO 15005KT 10SM 25/12 A2998 920 43 2300 160/05 RMK AO2 T02500117
04850KAOH AOH20160614133010406/14/16 13:30:31  5-MIN KAOH 141830Z AUTO 15005KT 10SM 25/12 A2998 920 44 2300 150/05 RMK AO2 T02500122
04850KAOH AOH20160614133510406/14/16 13:35:31  5-MIN KAOH 141835Z AUTO 13005KT 10SM 25/12 A2998 920 44 2300 140/05 RMK AO2 T02500122
04850KAOH AOH20160614134011806/14/16 13:40:31  5-MIN KAOH 141840Z AUTO 14004KT 10SM FEW060 OVC090 25/12 A2998 920 44 2300 140/04 RMK AO2 T02500122
04850KAOH AOH20160614134512506/14/16 13:45:31  5-MIN KAOH 141845Z AUTO 14005KT 10SM FEW060 SCT075 OVC090 25/12 A2998 920 44 2300 140/05 RMK AO2 T02500122
04850KAOH AOH20160614135013206/14/16 13:50:31  5-MIN KAOH 141850Z AUTO 12004KT 10SM FEW055 BKN090 OVC110 25/13 A2998 930 46 2300 120/04 RMK AO2 SLP145 T02500128
04850KAOH AOH20160614135511806/14/16 13:55:31  5-MIN KAOH 141855Z AUTO 13004KT 10SM FEW055 OVC085 25/13 A2998 930 46 2300 130/04 RMK AO2 T02500128
04850KAOH AOH20160614140013606/14/16 14:00:31  5-MIN KAOH 141900Z AUTO 12005KT 10SM -RA FEW055 OVC085 25/13 A2997 930 46 2300 120/05 RMK AO2 RAB1857 P0000 T02500128
04850KAOH AOH20160614140513606/14/16 14:05:31  5-MIN KAOH 141905Z AUTO 11006KT 10SM -RA FEW060 OVC090 25/13 A2998 930 48 2300 120/06 RMK AO2 RAB1857 P0000 T02500133
04850KAOH AOH20160614141013606/14/16 14:10:31  5-MIN KAOH 141910Z AUTO 12005KT 10SM -RA FEW050 OVC095 25/13 A2998 920 48 2300 130/05 RMK AO2 RAB1857 P0000 T02500133
04850KAOH AOH20160614141512806/14/16 14:15:31  5-MIN KAOH 141915Z AUTO 14006KT 10SM OVC095 25/13 A2998 920 46 2300 140/06 RMK AO2 RAB1857E13 P0000 T02500128
04850KAOH AOH20160614142012806/14/16 14:20:31  5-MIN KAOH 141920Z AUTO 13004KT 10SM OVC095 25/13 A2998 930 46 2300 140/04 RMK AO2 RAB1857E13 P0000 T02500128
04850KAOH AOH20160614142513506/14/16 14:25:31  5-MIN KAOH 141925Z AUTO 12005KT 10SM FEW070 OVC095 25/13 A2998 930 48 2300 130/05 RMK AO2 RAB1857E13 P0000 T02500133
04850KAOH AOH20160614143013506/14/16 14:30:31  5-MIN KAOH 141930Z AUTO 11004KT 10SM FEW070 OVC095 25/13 A2997 930 48 2300 120/04 RMK AO2 RAB1857E13 P0000 T02500133
04850KAOH AOH20160614143513506/14/16 14:35:31  5-MIN KAOH 141935Z AUTO 17004KT 10SM FEW070 OVC100 25/13 A2997 930 48 2300 180/04 RMK AO2 RAB1857E13 P0000 T02500133
04850KAOH AOH20160614144013506/14/16 14:40:31  5-MIN KAOH 141940Z AUTO 18007KT 10SM FEW070 OVC100 26/13 A2997 930 44 2400 190/07 RMK AO2 RAB1857E13 P0000 T02560128
04850KAOH AOH20160614144514106/14/16 14:45:31  5-MIN KAOH 141945Z AUTO 21011G16KT 10SM FEW070 OVC100 25/13 A2997 930 48 2300 210/11G16 RMK AO2 RAB1857E13 P0000 T02500133
04850KAOH AOH20160614145015506/14/16 14:50:31  5-MIN KAOH 141950Z AUTO 22006G16KT 10SM -RA FEW070 OVC110 24/13 A2997 930 49 2300 230/06G16 RMK AO2 RAB1857E13B46 SLP142 P0000 T02440133
04850KAOH AOH20160614145512106/14/16 14:55:31  5-MIN KAOH 141955Z AUTO 24008KT 10SM -RA OVC100 24/14 A2997 930 55 2200 240/08 RMK AO2 P0000 T02390144
04850KAOH AOH20160614150012106/14/16 15:00:31  5-MIN KAOH 142000Z AUTO 23006KT 10SM -RA OVC100 23/15 A2997 930 59 2200 240/06 RMK AO2 P0000 T02330150
04850KAOH AOH20160614150512106/14/16 15:05:31  5-MIN KAOH 142005Z AUTO 24006KT 10SM -RA OVC100 22/16 A2997 930 68 2000 240/06 RMK AO2 P0000 T02220161
04850KAOH AOH20160614151011906/14/16 15:10:31  5-MIN KAOH 142010Z AUTO 23004KT 7SM RA OVC100 22/16 A2997 940 65 2000 230/04 RMK AO2 P0001 T02220156
04850KAOH AOH20160614151512006/14/16 15:15:31  5-MIN KAOH 142015Z AUTO 24006KT 7SM -RA OVC095 22/16 A2996 940 70 2000 250/06 RMK AO2 P0001 T02170161
04850KAOH AOH20160614152012106/14/16 15:20:31  5-MIN KAOH 142020Z AUTO 24005KT 10SM -RA OVC095 22/16 A2996 940 70 2000 250/05 RMK AO2 P0001 T02170161
04850KAOH AOH20160614152512106/14/16 15:25:31  5-MIN KAOH 142025Z AUTO 24005KT 10SM -RA OVC095 22/17 A2996 940 73 2000 250/05 RMK AO2 P0001 T02170167
04850KAOH AOH20160614153012106/14/16 15:30:31  5-MIN KAOH 142030Z AUTO 26007KT 10SM -RA OVC090 22/17 A2996 940 73 2000 260/07 RMK AO2 P0001 T02170167
04850KAOH AOH20160614153512106/14/16 15:35:31  5-MIN KAOH 142035Z AUTO 26005KT 10SM -RA OVC090 22/17 A2995 950 75 2000 260/05 RMK AO2 P0001 T02170172
04850KAOH AOH20160614154012106/14/16 15:40:31  5-MIN KAOH 142040Z AUTO 27003KT 10SM -RA OVC090 22/17 A2995 950 73 2000 270/03 RMK AO2 P0001 T02170167
04850KAOH AOH20160614154512806/14/16 15:45:31  5-MIN KAOH 142045Z AUTO 22003KT 10SM -RA FEW060 OVC090 22/17 A2995 950 73 2000 220/03 RMK AO2 P0001 T02170167
04850KAOH AOH20160614155014906/14/16 15:50:31  5-MIN KAOH 142050Z AUTO 23003KT 10SM FEW060 OVC090 22/17 A2994 960 73 2000 230/03 RMK AO2 RAE48 SLP136 P0001 6//// T02170167 55007
04850KAOH AOH20160614155511806/14/16 15:55:31  5-MIN KAOH 142055Z AUTO 26004KT 10SM FEW050 OVC090 22/17 A2994 960 73 2000 270/04 RMK AO2 T02170167
04850KAOH AOH20160614160011806/14/16 16:00:31  5-MIN KAOH 142100Z AUTO 00000KT 10SM FEW055 BKN090 22/17 A2994 960 73 2000 000/00 RMK AO2 T02170167
04850KAOH AOH20160614160512506/14/16 16:05:31  5-MIN KAOH 142105Z AUTO 00000KT 10SM FEW045 BKN090 OVC120 22/17 A2994 960 70 2100 000/00 RMK AO2 T02220167
04850KAOH AOH20160614161012506/14/16 16:10:31  5-MIN KAOH 142110Z AUTO 00000KT 10SM FEW042 BKN090 OVC120 22/17 A2994 960 70 2100 000/00 RMK AO2 T02220167
04850KAOH AOH20160614161514106/14/16 16:15:31  5-MIN KAOH 142115Z AUTO 17003KT 10SM -RA FEW035 SCT044 BKN060 22/17 A2993 960 73 2100 170/03 RMK AO2 RAB15 P0000 T02220172
04850KAOH AOH20160614162014106/14/16 16:20:31  5-MIN KAOH 142120Z AUTO VRB04KT 10SM -RA SCT039 BKN049 BKN060 23/17 A2993 970 68 2100 VRB/04 RMK AO2 RAB15 P0000 T02280167
04850KAOH AOH20160614162514006/14/16 16:25:31  5-MIN KAOH 142125Z AUTO 14003KT 10SM SCT039 BKN049 BKN060 23/17 A2993 960 68 2100 150/03 RMK AO2 RAB15E24 P0000 T02280167
04850KAOH AOH20160614163014006/14/16 16:30:31  5-MIN KAOH 142130Z AUTO 19003KT 10SM FEW033 SCT041 BKN120 22/17 A2993 970 70 2100 200/03 RMK AO2 RAB15E24 P0000 T02220167
04850KAOH AOH20160614163513306/14/16 16:35:31  5-MIN KAOH 142135Z AUTO VRB04KT 10SM FEW033 SCT041 23/17 A2993 970 70 2100 VRB/04 RMK AO2 RAB15E24 P0000 T02280172
04850KAOH AOH20160614164012606/14/16 16:40:31  5-MIN KAOH 142140Z AUTO 13003KT 10SM FEW041 23/17 A2993 970 68 2100 140/03 RMK AO2 RAB15E24 P0000 T02280167
04850KAOH AOH20160614164513306/14/16 16:45:31  5-MIN KAOH 142145Z AUTO 13004KT 10SM FEW039 FEW070 23/17 A2993 960 66 2200 140/04 RMK AO2 RAB15E24 P0000 T02330167
04850KAOH AOH20160614165014006/14/16 16:50:31  5-MIN KAOH 142150Z AUTO 15005KT 10SM FEW070 SCT120 23/16 A2993 970 63 2200 150/05 RMK AO2 RAB15E24 SLP131 P0000 T02330161
04850KAOH AOH20160614165511106/14/16 16:55:31  5-MIN KAOH 142155Z AUTO 14006KT 10SM SCT120 23/16 A2993 970 65 2100 150/06 RMK AO2 T02280161
04850KAOH AOH20160614170011106/14/16 17:00:31  5-MIN KAOH 142200Z AUTO 14006KT 10SM BKN110 23/17 A2993 970 68 2100 150/06 RMK AO2 T02280167
04850KAOH AOH20160614170511106/14/16 17:05:31  5-MIN KAOH 142205Z AUTO 15005KT 10SM BKN110 23/17 A2993 970 66 2200 160/05 RMK AO2 T02330167
04850KAOH AOH20160614171012506/14/16 17:10:31  5-MIN KAOH 142210Z AUTO 16006KT 10SM FEW070 FEW080 OVC110 23/16 A2993 970 63 2200 160/06 RMK AO2 T02330161
04850KAOH AOH20160614171511806/14/16 17:15:31  5-MIN KAOH 142215Z AUTO 14004KT 10SM SCT080 OVC110 23/16 A2993 970 63 2200 150/04 RMK AO2 T02330161
04850KAOH AOH20160614172012506/14/16 17:20:31  5-MIN KAOH 142220Z AUTO 15006KT 10SM FEW065 SCT080 OVC110 23/16 A2993 970 63 2200 160/06 RMK AO2 T02330161
04850KAOH AOH20160614172512506/14/16 17:25:31  5-MIN KAOH 142225Z AUTO 16005KT 10SM FEW065 SCT080 OVC110 23/16 A2993 970 63 2200 160/05 RMK AO2 T02330161
04850KAOH AOH20160614173012506/14/16 17:30:31  5-MIN KAOH 142230Z AUTO 14004KT 10SM SCT060 BKN080 OVC110 23/16 A2993 970 63 2200 150/04 RMK AO2 T02330161
04850KAOH AOH20160614173512506/14/16 17:35:31  5-MIN KAOH 142235Z AUTO 15005KT 10SM BKN060 BKN080 OVC110 23/16 A2993 970 63 2200 150/05 RMK AO2 T02330161
04850KAOH AOH20160614174012506/14/16 17:40:31  5-MIN KAOH 142240Z AUTO 14005KT 10SM BKN060 BKN080 OVC110 23/16 A2993 970 61 2200 150/05 RMK AO2 T02330156
04850KAOH AOH20160614174511806/14/16 17:45:31  5-MIN KAOH 142245Z AUTO 15006KT 10SM SCT060 OVC110 23/15 A2993 970 59 2200 160/06 RMK AO2 T02330150
04850KAOH AOH20160614175012506/14/16 17:50:31  5-MIN KAOH 142250Z AUTO 16004KT 10SM SCT060 OVC110 23/16 A2993 970 61 2200 170/04 RMK AO2 SLP130 T02330156
04850KAOH AOH20160614175511806/14/16 17:55:31  5-MIN KAOH 142255Z AUTO 15007KT 10SM FEW060 BKN110 24/15 A2993 970 57 2300 150/07 RMK AO2 T02390150
04850KAOH AOH20160614180011806/14/16 18:00:31  5-MIN KAOH 142300Z AUTO 14005KT 10SM FEW060 BKN110 24/15 A2993 970 57 2300 150/05 RMK AO2 T02390150
04850KAOH AOH20160614180511106/14/16 18:05:31  5-MIN KAOH 142305Z AUTO 15004KT 10SM BKN110 24/15 A2993 970 57 2300 150/04 RMK AO2 T02390150
04850KAOH AOH20160614181011806/14/16 18:10:31  5-MIN KAOH 142310Z AUTO 15005KT 10SM FEW090 BKN110 24/15 A2993 970 57 2300 150/05 RMK AO2 T02390150
04850KAOH AOH20160614181511806/14/16 18:15:31  5-MIN KAOH 142315Z AUTO 14005KT 10SM FEW090 SCT110 24/15 A2993 970 57 2300 150/05 RMK AO2 T02390150
04850KAOH AOH20160614182012506/14/16 18:20:31  5-MIN KAOH 142320Z AUTO 14007KT 10SM FEW075 FEW090 BKN110 24/15 A2993 970 57 2300 140/07 RMK AO2 T02390150
04850KAOH AOH20160614182512506/14/16 18:25:31  5-MIN KAOH 142325Z AUTO 14006KT 10SM FEW075 FEW090 SCT110 24/15 A2993 970 57 2300 140/06 RMK AO2 T02390150
04850KAOH AOH20160614183012506/14/16 18:30:31  5-MIN KAOH 142330Z AUTO 12006KT 10SM FEW075 FEW090 SCT110 24/15 A2993 970 57 2300 130/06 RMK AO2 T02390150
04850KAOH AOH20160614183512506/14/16 18:35:31  5-MIN KAOH 142335Z AUTO 11005KT 10SM FEW080 FEW100 FEW120 24/15 A2993 970 57 2300 110/05 RMK AO2 T02390150
04850KAOH AOH20160614184011106/14/16 18:40:31  5-MIN KAOH 142340Z AUTO 10004KT 10SM FEW110 24/15 A2993 970 57 2300 110/04 RMK AO2 T02390150
04850KAOH AOH20160614184511106/14/16 18:45:31  5-MIN KAOH 142345Z AUTO 11004KT 10SM FEW110 24/16 A2993 970 59 2300 110/04 RMK AO2 T02390156
04850KAOH AOH20160614185013906/14/16 18:50:31  5-MIN KAOH 142350Z AUTO 11004KT 10SM CLR 24/16 A2993 970 57 2300 120/04 RMK AO2 SLP129 6//// T02440156 10256 20217 58014
04850KAOH AOH20160614185511106/14/16 18:55:31  5-MIN KAOH 142355Z AUTO 11005KT 10SM FEW070 24/16 A2993 970 57 2300 120/05 RMK AO2 T02440156
04850KAOH AOH20160614190011106/14/16 19:00:31  5-MIN KAOH 150000Z AUTO 11005KT 10SM FEW070 24/16 A2993 970 57 2300 120/05 RMK AO2 T02440156
04850KAOH AOH20160614190510806/14/16 19:05:31  5-MIN KAOH 150005Z AUTO 11005KT 10SM CLR 24/16 A2993 970 57 2300 120/05 RMK AO2 T02440156
04850KAOH AOH20160614191010806/14/16 19:10:31  5-MIN KAOH 150010Z AUTO 10005KT 10SM CLR 24/16 A2993 970 59 2300 110/05 RMK AO2 T02390156
04850KAOH AOH20160614191510806/14/16 19:15:31  5-MIN KAOH 150015Z AUTO 10005KT 10SM CLR 24/16 A2993 970 61 2300 110/05 RMK AO2 T02390161
04850KAOH AOH20160614192010806/14/16 19:20:31  5-MIN KAOH 150020Z AUTO 11005KT 10SM CLR 23/16 A2993 970 61 2200 110/05 RMK AO2 T02330156
04850KAOH AOH20160614192510806/14/16 19:25:31  5-MIN KAOH 150025Z AUTO 10006KT 10SM CLR 24/16 A2993 970 59 2300 110/06 RMK AO2 T02390156
04850KAOH AOH20160614193010806/14/16 19:30:31  5-MIN KAOH 150030Z AUTO 10006KT 10SM CLR 23/16 A2992 970 61 2200 110/06 RMK AO2 T02330156
04850KAOH AOH20160614193511106/14/16 19:35:31  5-MIN KAOH 150035Z AUTO 10007KT 10SM FEW065 23/16 A2992 980 61 2200 100/07 RMK AO2 T02330156
04850KAOH AOH20160614194011106/14/16 19:40:31  5-MIN KAOH 150040Z AUTO 09004KT 10SM SCT065 23/16 A2992 980 61 2200 090/04 RMK AO2 T02330156
04850KAOH AOH20160614194511106/14/16 19:45:31  5-MIN KAOH 150045Z AUTO 08005KT 10SM BKN065 23/16 A2992 980 65 2100 090/05 RMK AO2 T02280161
04850KAOH AOH20160614195011806/14/16 19:50:31  5-MIN KAOH 150050Z AUTO 08006KT 10SM BKN065 23/16 A2992 980 63 2100 080/06 RMK AO2 SLP124 T02280156
04850KAOH AOH20160614195511106/14/16 19:55:31  5-MIN KAOH 150055Z AUTO 08006KT 10SM BKN065 23/16 A2992 980 63 2100 080/06 RMK AO2 T02280156
04850KAOH AOH20160614200011106/14/16 20:00:31  5-MIN KAOH 150100Z AUTO 07005KT 10SM OVC065 23/16 A2992 980 63 2100 080/05 RMK AO2 T02280156
04850KAOH AOH20160614200511106/14/16 20:05:31  5-MIN KAOH 150105Z AUTO 07005KT 10SM OVC065 23/16 A2992 980 61 2200 080/05 RMK AO2 T02330156
04850KAOH AOH20160614201011106/14/16 20:10:31  5-MIN KAOH 150110Z AUTO 07005KT 10SM OVC065 23/16 A2992 970 63 2100 080/05 RMK AO2 T02280156
04850KAOH AOH20160614201511106/14/16 20:15:31  5-MIN KAOH 150115Z AUTO 07004KT 10SM OVC065 23/16 A2993 970 63 2100 080/04 RMK AO2 T02280156
04850KAOH AOH20160614202011106/14/16 20:20:31  5-MIN KAOH 150120Z AUTO 07004KT 10SM OVC065 23/16 A2992 980 65 2100 070/04 RMK AO2 T02280161
04850KAOH AOH20160614202511106/14/16 20:25:31  5-MIN KAOH 150125Z AUTO 07005KT 10SM OVC065 22/16 A2992 980 68 2100 080/05 RMK AO2 T02220161
04850KAOH AOH20160614203011106/14/16 20:30:31  5-MIN KAOH 150130Z AUTO 07004KT 10SM BKN065 22/16 A2992 970 68 2100 080/04 RMK AO2 T02220161
04850KAOH AOH20160614203511106/14/16 20:35:31  5-MIN KAOH 150135Z AUTO 07004KT 10SM BKN065 22/16 A2993 970 70 2000 080/04 RMK AO2 T02170161
04850KAOH AOH20160614204011106/14/16 20:40:31  5-MIN KAOH 150140Z AUTO 06004KT 10SM BKN065 22/16 A2993 970 70 2000 070/04 RMK AO2 T02170161
04850KAOH AOH20160614204511106/14/16 20:45:31  5-MIN KAOH 150145Z AUTO 06004KT 10SM BKN065 22/16 A2993 970 65 2100 070/04 RMK AO2 T02220156
04850KAOH AOH20160614205011806/14/16 20:50:31  5-MIN KAOH 150150Z AUTO 08004KT 10SM BKN070 22/16 A2993 970 70 2000 090/04 RMK AO2 SLP128 T02170161
04850KAOH AOH20160614205511106/14/16 20:55:31  5-MIN KAOH 150155Z AUTO 08005KT 10SM BKN065 22/16 A2992 970 70 2000 090/05 RMK AO2 T02170161
04850KAOH AOH20160614210011806/14/16 21:00:31  5-MIN KAOH 150200Z AUTO 08005KT 10SM BKN060 OVC075 22/16 A2993 970 70 2000 090/05 RMK AO2 T02170161
04850KAOH AOH20160614210511806/14/16 21:05:31  5-MIN KAOH 150205Z AUTO 08006KT 10SM BKN065 OVC075 22/16 A2992 970 70 2000 090/06 RMK AO2 T02170161
04850KAOH AOH20160614211012506/14/16 21:10:31  5-MIN KAOH 150210Z AUTO 09006KT 10SM BKN060 BKN075 OVC090 22/16 A2992 980 65 2100 090/06 RMK AO2 T02220156
04850KAOH AOH20160614211512506/14/16 21:15:31  5-MIN KAOH 150215Z AUTO 09007KT 10SM SCT060 BKN075 BKN090 22/16 A2992 980 65 2100 100/07 RMK AO2 T02220156
04850KAOH AOH20160614212012506/14/16 21:20:31  5-MIN KAOH 150220Z AUTO 09008KT 10SM SCT060 SCT075 BKN090 22/16 A2992 980 68 2000 100/08 RMK AO2 T02170156
04850KAOH AOH20160614212512506/14/16 21:25:31  5-MIN KAOH 150225Z AUTO 09009KT 10SM FEW060 SCT075 BKN090 22/15 A2991 980 65 2000 100/09 RMK AO2 T02170150
04850KAOH AOH20160614213011806/14/16 21:30:31  5-MIN KAOH 150230Z AUTO 09008KT 10SM FEW060 SCT090 22/15 A2991 980 65 2000 100/08 RMK AO2 T02170150
04850KAOH AOH20160614213511106/14/16 21:35:31  5-MIN KAOH 150235Z AUTO 09008KT 10SM FEW090 22/15 A2992 980 65 2000 100/08 RMK AO2 T02170150
04850KAOH AOH20160614214010806/14/16 21:40:31  5-MIN KAOH 150240Z AUTO 09008KT 10SM CLR 22/15 A2992 980 65 2000 100/08 RMK AO2 T02170150
04850KAOH AOH20160614214511106/14/16 21:45:31  5-MIN KAOH 150245Z AUTO 09009KT 10SM FEW055 22/15 A2991 980 65 2000 100/09 RMK AO2 T02170150
04850KAOH AOH20160614215012406/14/16 21:50:31  5-MIN KAOH 150250Z AUTO 09009KT 10SM FEW055 22/15 A2991 990 65 2000 100/09 RMK AO2 SLP122 T02170150 55004
04850KAOH AOH20160614215511106/14/16 21:55:31  5-MIN KAOH 150255Z AUTO 09009KT 10SM SCT050 22/15 A2991 990 63 2100 100/09 RMK AO2 T02220150
04850KAOH AOH20160614220011106/14/16 22:00:31  5-MIN KAOH 150300Z AUTO 09008KT 10SM BKN050 22/15 A2991 990 63 2100 100/08 RMK AO2 T02220150
04850KAOH AOH20160614220511106/14/16 22:05:31  5-MIN KAOH 150305Z AUTO 09008KT 10SM BKN050 22/15 A2991 990 63 2100 100/08 RMK AO2 T02220150
04850KAOH AOH20160614221011106/14/16 22:10:31  5-MIN KAOH 150310Z AUTO 10008KT 10SM BKN055 22/15 A2991 990 63 2100 100/08 RMK AO2 T02220150
04850KAOH AOH20160614221511106/14/16 22:15:31  5-MIN KAOH 150315Z AUTO 09007KT 10SM OVC055 22/15 A2991 980 63 2100 100/07 RMK AO2 T02220150
04850KAOH AOH20160614222011106/14/16 22:20:31  5-MIN KAOH 150320Z AUTO 09007KT 10SM OVC055 22/14 A2991 990 61 2100 100/07 RMK AO2 T02220144
04850KAOH AOH20160614222511106/14/16 22:25:31  5-MIN KAOH 150325Z AUTO 09007KT 10SM OVC055 22/14 A2991 990 61 2100 100/07 RMK AO2 T02220144
04850KAOH AOH20160614223011106/14/16 22:30:31  5-MIN KAOH 150330Z AUTO 10007KT 10SM OVC055 22/14 A2991 990 61 2100 100/07 RMK AO2 T02220144
04850KAOH AOH20160614223511106/14/16 22:35:31  5-MIN KAOH 150335Z AUTO 10008KT 10SM OVC055 22/14 A2990 990 63 2000 100/08 RMK AO2 T02170144
04850KAOH AOH20160614224011106/14/16 22:40:31  5-MIN KAOH 150340Z AUTO 10007KT 10SM BKN055 22/14 A2990 990 63 2000 110/07 RMK AO2 T02170144
04850KAOH AOH20160614224511106/14/16 22:45:31  5-MIN KAOH 150345Z AUTO 10007KT 10SM SCT060 22/14 A2990 990 63 2000 110/07 RMK AO2 T02170144
04850KAOH AOH20160614225011706/14/16 22:50:31  5-MIN KAOH 150350Z AUTO 10008KT 10SM SCT060 22/14 A2990 990 63 2000 100/08 RMK AO2 SLPNO T02170144
04850KAOH AOH20160614225511106/14/16 22:55:31  5-MIN KAOH 150355Z AUTO 10007KT 10SM FEW060 22/14 A2991 990 63 2000 100/07 RMK AO2 T02170144
04850KAOH AOH20160614230011106/14/16 23:00:31  5-MIN KAOH 150400Z AUTO 10006KT 10SM FEW060 22/14 A2991 990 63 2000 110/06 RMK AO2 T02170144
04850KAOH AOH20160614230510806/14/16 23:05:31  5-MIN KAOH 150405Z AUTO 11005KT 10SM CLR 21/14 A2991 990 65 2000 110/05 RMK AO2 T02110144
04850KAOH AOH20160614231010806/14/16 23:10:31  5-MIN KAOH 150410Z AUTO 11006KT 10SM CLR 21/14 A2991 990 65 2000 120/06 RMK AO2 T02110144
04850KAOH AOH20160614231510806/14/16 23:15:31  5-MIN KAOH 150415Z AUTO 11007KT 10SM CLR 21/14 A2991 990 65 2000 110/07 RMK AO2 T02110144
04850KAOH AOH20160614232010806/14/16 23:20:31  5-MIN KAOH 150420Z AUTO 10006KT 10SM CLR 21/14 A2991 990 65 2000 110/06 RMK AO2 T02110144
04850KAOH AOH20160614232510806/14/16 23:25:31  5-MIN KAOH 150425Z AUTO 10007KT 10SM CLR 21/14 A2990 990 65 2000 110/07 RMK AO2 T02110144
04850KAOH AOH20160614233010906/14/16 23:30:31  5-MIN KAOH 150430Z AUTO 11006KT 10SM CLR 21/14 A2990 1000 67 1900 110/06 RMK AO2 T02060144
04850KAOH AOH20160614233510906/14/16 23:35:31  5-MIN KAOH 150435Z AUTO 11007KT 10SM CLR 21/14 A2990 1000 67 1900 110/07 RMK AO2 T02060144
04850KAOH AOH20160614234010906/14/16 23:40:31  5-MIN KAOH 150440Z AUTO 11008KT 10SM CLR 21/15 A2990 1000 68 2000 110/08 RMK AO2 T02110150
04850KAOH AOH20160614234510906/14/16 23:45:31  5-MIN KAOH 150445Z AUTO 11007KT 10SM CLR 21/15 A2990 1000 68 2000 110/07 RMK AO2 T02110150
04850KAOH AOH20160614235012506/14/16 23:50:31  5-MIN KAOH 150450Z AUTO 11008KT 10SM CLR 21/15 A2990 1000 68 2000 120/08 RMK AO2 SLPNO T02110150 402560172
04850KAOH AOH20160614235510906/14/16 23:55:31  5-MIN KAOH 150455Z AUTO 12009KT 10SM CLR 21/15 A2990 1000 68 2000 120/09 RMK AO2 T02110150
04850KAOH AOH20160615000010906/15/16 00:00:31  5-MIN KAOH 150500Z AUTO 12009KT 10SM CLR 21/15 A2990 1000 68 2000 130/09 RMK AO2 T02110150
04850KAOH AOH20160615000510806/15/16 00:05:31  5-MIN KAOH 150505Z AUTO 12008KT 10SM CLR 21/15 A2990 990 68 2000 130/08 RMK AO2 T02110150
04850KAOH AOH20160615001010806/15/16 00:10:31  5-MIN KAOH 150510Z AUTO 12007KT 10SM CLR 21/15 A2990 990 68 2000 120/07 RMK AO2 T02110150
04850KAOH AOH20160615001510806/15/16 00:15:31  5-MIN KAOH 150515Z AUTO 12008KT 10SM CLR 21/15 A2990 990 68 2000 130/08 RMK AO2 T02110150
04850KAOH AOH20160615002010806/15/16 00:20:31  5-MIN KAOH 150520Z AUTO 12007KT 10SM CLR 21/15 A2990 990 70 1900 130/07 RMK AO2 T02060150
04850KAOH AOH20160615002510806/15/16 00:25:31  5-MIN KAOH 150525Z AUTO 13007KT 10SM CLR 21/15 A2990 990 70 1900 130/07 RMK AO2 T02060150
04850KAOH AOH20160615003010806/15/16 00:30:31  5-MIN KAOH 150530Z AUTO 12007KT 10SM CLR 21/15 A2990 990 70 1900 130/07 RMK AO2 T02060150
04850KAOH AOH20160615003510806/15/16 00:35:31  5-MIN KAOH 150535Z AUTO 13007KT 10SM CLR 21/15 A2990 990 70 1900 130/07 RMK AO2 T02060150
04850KAOH AOH20160615004010806/15/16 00:40:31  5-MIN KAOH 150540Z AUTO 12007KT 10SM CLR 21/15 A2990 990 70 1900 130/07 RMK AO2 T02060150
04850KAOH AOH20160615004510806/15/16 00:45:31  5-MIN KAOH 150545Z AUTO 13007KT 10SM CLR 21/15 A2990 990 70 1900 140/07 RMK AO2 T02060150
04850KAOH AOH20160615005013206/15/16 00:50:31  5-MIN KAOH 150550Z AUTO 13007KT 10SM CLR 21/15 A2990 990 70 1900 140/07 RMK AO2 SLPNO T02060150 10244 20206 58006
04850KAOH AOH20160615005510806/15/16 00:55:31  5-MIN KAOH 150555Z AUTO 13007KT 10SM CLR 21/15 A2990 990 70 1900 140/07 RMK AO2 T02060150
04850KAOH AOH20160615010010806/15/16 01:00:31  5-MIN KAOH 150600Z AUTO 12007KT 10SM CLR 21/16 A2990 990 73 1900 130/07 RMK AO2 T02060156
04850KAOH AOH20160615010510906/15/16 01:05:31  5-MIN KAOH 150605Z AUTO 12007KT 10SM CLR 21/16 A2990 1000 73 1900 130/07 RMK AO2 T02060156
04850KAOH AOH20160615011011206/15/16 01:10:31  5-MIN KAOH 150610Z AUTO 12007KT 10SM FEW050 21/16 A2990 1000 73 1900 120/07 RMK AO2 T02060156
04850KAOH AOH20160615011511206/15/16 01:15:31  5-MIN KAOH 150615Z AUTO 12006KT 10SM FEW050 21/16 A2990 1000 73 1900 130/06 RMK AO2 T02060156
04850KAOH AOH20160615012011206/15/16 01:20:31  5-MIN KAOH 150620Z AUTO 13006KT 10SM SCT050 21/16 A2990 1000 73 1900 130/06 RMK AO2 T02060156
04850KAOH AOH20160615012511206/15/16 01:25:31  5-MIN KAOH 150625Z AUTO 13006KT 10SM BKN050 21/16 A2989 1000 73 1900 130/06 RMK AO2 T02060156
04850KAOH AOH20160615013011206/15/16 01:30:31  5-MIN KAOH 150630Z AUTO 13007KT 10SM BKN050 21/16 A2989 1000 73 1900 130/07 RMK AO2 T02060156
04850KAOH AOH20160615013511206/15/16 01:35:31  5-MIN KAOH 150635Z AUTO 13007KT 10SM BKN050 20/16 A2989 1000 75 1900 130/07 RMK AO2 T02000156
04850KAOH AOH20160615014011206/15/16 01:40:31  5-MIN KAOH 150640Z AUTO 13007KT 10SM SCT050 20/16 A2989 1010 75 1900 130/07 RMK AO2 T02000156
04850KAOH AOH20160615014511206/15/16 01:45:31  5-MIN KAOH 150645Z AUTO 13007KT 10SM SCT050 20/16 A2989 1010 75 1900 130/07 RMK AO2 T02000156
04850KAOH AOH20160615015011906/15/16 01:50:31  5-MIN KAOH 150650Z AUTO 13007KT 10SM FEW055 20/16 A2989 1010 75 1900 130/07 RMK AO2 SLP114 T02000156
04850KAOH AOH20160615015511206/15/16 01:55:31  5-MIN KAOH 150655Z AUTO 12007KT 10SM FEW055 20/16 A2989 1010 75 1900 130/07 RMK AO2 T02000156
04850KAOH AOH20160615020010906/15/16 02:00:31  5-MIN KAOH 150700Z AUTO 12006KT 10SM CLR 20/16 A2989 1010 75 1900 130/06 RMK AO2 T02000156
04850KAOH AOH20160615020510906/15/16 02:05:31  5-MIN KAOH 150705Z AUTO 12007KT 10SM CLR 20/16 A2988 1010 75 1900 130/07 RMK AO2 T02000156
04850KAOH AOH20160615021010906/15/16 02:10:31  5-MIN KAOH 150710Z AUTO 13007KT 10SM CLR 20/16 A2988 1010 75 1900 130/07 RMK AO2 T02000156
04850KAOH AOH20160615021510906/15/16 02:15:31  5-MIN KAOH 150715Z AUTO 13006KT 10SM CLR 20/16 A2988 1010 75 1900 130/06 RMK AO2 T02000156
04850KAOH AOH20160615022010906/15/16 02:20:31  5-MIN KAOH 150720Z AUTO 12006KT 10SM CLR 20/16 A2988 1010 75 1900 130/06 RMK AO2 T02000156
04850KAOH AOH20160615022510906/15/16 02:25:31  5-MIN KAOH 150725Z AUTO 13006KT 10SM CLR 19/16 A2988 1010 78 1800 130/06 RMK AO2 T01940156
04850KAOH AOH20160615023010906/15/16 02:30:31  5-MIN KAOH 150730Z AUTO 14006KT 10SM CLR 19/16 A2988 1010 78 1800 140/06 RMK AO2 T01940156
04850KAOH AOH20160615023510906/15/16 02:35:31  5-MIN KAOH 150735Z AUTO 13006KT 10SM CLR 19/16 A2988 1020 78 1800 140/06 RMK AO2 T01940156
04850KAOH AOH20160615024010906/15/16 02:40:31  5-MIN KAOH 150740Z AUTO 14006KT 10SM CLR 19/16 A2988 1010 78 1800 140/06 RMK AO2 T01940156
04850KAOH AOH20160615024510906/15/16 02:45:31  5-MIN KAOH 150745Z AUTO 13006KT 10SM CLR 20/16 A2988 1010 75 1900 140/06 RMK AO2 T02000156
04850KAOH AOH20160615025011606/15/16 02:50:31  5-MIN KAOH 150750Z AUTO 13006KT 10SM CLR 19/16 A2988 1010 78 1800 140/06 RMK AO2 SLP113 T01940156
04850KAOH AOH20160615025510906/15/16 02:55:31  5-MIN KAOH 150755Z AUTO 14007KT 10SM CLR 20/16 A2988 1010 75 1900 140/07 RMK AO2 T02000156
04850KAOH AOH20160615030011206/15/16 03:00:31  5-MIN KAOH 150800Z AUTO 13007KT 10SM FEW080 20/16 A2988 1020 75 1900 140/07 RMK AO2 T02000156
04850KAOH AOH20160615030511906/15/16 03:05:31  5-MIN KAOH 150805Z AUTO 14007KT 10SM FEW080 SCT110 20/16 A2988 1020 75 1900 140/07 RMK AO2 T02000156
04850KAOH AOH20160615031011906/15/16 03:10:31  5-MIN KAOH 150810Z AUTO 14006KT 10SM FEW080 SCT110 20/16 A2988 1020 75 1900 140/06 RMK AO2 T02000156
04850KAOH AOH20160615031511906/15/16 03:15:31  5-MIN KAOH 150815Z AUTO 14007KT 10SM FEW080 SCT110 20/16 A2988 1020 75 1900 150/07 RMK AO2 T02000156
04850KAOH AOH20160615032011906/15/16 03:20:31  5-MIN KAOH 150820Z AUTO 13007KT 10SM FEW080 FEW110 20/16 A2988 1020 75 1900 140/07 RMK AO2 T02000156
04850KAOH AOH20160615032511906/15/16 03:25:31  5-MIN KAOH 150825Z AUTO 13006KT 10SM FEW080 FEW110 20/16 A2988 1020 75 1900 140/06 RMK AO2 T02000156
04850KAOH AOH20160615033011906/15/16 03:30:31  5-MIN KAOH 150830Z AUTO 14006KT 10SM FEW050 FEW110 20/16 A2988 1020 75 1900 140/06 RMK AO2 T02000156
04850KAOH AOH20160615033511906/15/16 03:35:31  5-MIN KAOH 150835Z AUTO 14006KT 10SM FEW050 FEW110 21/16 A2988 1010 73 1900 140/06 RMK AO2 T02060156
04850KAOH AOH20160615034011906/15/16 03:40:31  5-MIN KAOH 150840Z AUTO 14007KT 10SM FEW050 FEW110 20/16 A2988 1020 75 1900 140/07 RMK AO2 T02000156
04850KAOH AOH20160615034511906/15/16 03:45:31  5-MIN KAOH 150845Z AUTO 14007KT 10SM SCT050 SCT110 21/16 A2988 1020 73 1900 150/07 RMK AO2 T02060156
04850KAOH AOH20160615035013906/15/16 03:50:31  5-MIN KAOH 150850Z AUTO 14007KT 10SM SCT050 BKN090 BKN110 21/16 A2988 1020 73 1900 150/07 RMK AO2 SLP111 T02060156 55002
04850KAOH AOH20160615035512606/15/16 03:55:31  5-MIN KAOH 150855Z AUTO 15007KT 10SM FEW050 BKN090 BKN110 21/16 A2988 1020 73 1900 150/07 RMK AO2 T02060156
04850KAOH AOH20160615040012606/15/16 04:00:31  5-MIN KAOH 150900Z AUTO 15006KT 10SM FEW050 SCT090 SCT110 20/16 A2988 1020 75 1900 150/06 RMK AO2 T02000156
04850KAOH AOH20160615040512606/15/16 04:05:31  5-MIN KAOH 150905Z AUTO 14007KT 10SM FEW050 SCT090 SCT110 20/16 A2987 1020 75 1900 150/07 RMK AO2 T02000156
04850KAOH AOH20160615041011906/15/16 04:10:31  5-MIN KAOH 150910Z AUTO 15007KT 10SM SCT050 BKN090 21/16 A2987 1020 73 1900 150/07 RMK AO2 T02060156
04850KAOH AOH20160615041511906/15/16 04:15:31  5-MIN KAOH 150915Z AUTO 15007KT 10SM SCT050 BKN090 21/16 A2987 1020 73 1900 150/07 RMK AO2 T02060156
04850KAOH AOH20160615042011206/15/16 04:20:31  5-MIN KAOH 150920Z AUTO 15007KT 10SM BKN050 20/16 A2988 1020 75 1900 160/07 RMK AO2 T02000156
04850KAOH AOH20160615042511206/15/16 04:25:31  5-MIN KAOH 150925Z AUTO 15007KT 10SM BKN050 20/16 A2987 1020 75 1900 160/07 RMK AO2 T02000156
04850KAOH AOH20160615043011206/15/16 04:30:31  5-MIN KAOH 150930Z AUTO 15008KT 10SM BKN050 20/16 A2987 1020 75 1900 160/08 RMK AO2 T02000156
04850KAOH AOH20160615043511206/15/16 04:35:31  5-MIN KAOH 150935Z AUTO 16009KT 10SM BKN050 21/16 A2987 1030 73 1900 160/09 RMK AO2 T02060156
04850KAOH AOH20160615044011206/15/16 04:40:31  5-MIN KAOH 150940Z AUTO 16009KT 10SM BKN050 21/16 A2986 1030 73 2000 160/09 RMK AO2 T02060156
04850KAOH AOH20160615044511206/15/16 04:45:31  5-MIN KAOH 150945Z AUTO 16008KT 10SM BKN050 20/16 A2987 1030 75 1900 160/08 RMK AO2 T02000156
04850KAOH AOH20160615045011906/15/16 04:50:31  5-MIN KAOH 150950Z AUTO 16008KT 10SM SCT050 21/16 A2987 1020 73 1900 170/08 RMK AO2 SLP108 T02060156
04850KAOH AOH20160615045511206/15/16 04:55:31  5-MIN KAOH 150955Z AUTO 16007KT 10SM FEW050 21/16 A2987 1020 73 1900 170/07 RMK AO2 T02060156
04850KAOH AOH20160615050011206/15/16 05:00:31  5-MIN KAOH 151000Z AUTO 16008KT 10SM FEW050 21/16 A2987 1030 73 2000 170/08 RMK AO2 T02060156
04850KAOH AOH20160615050511206/15/16 05:05:31  5-MIN KAOH 151005Z AUTO 17008KT 10SM FEW050 21/16 A2987 1020 73 1900 170/08 RMK AO2 T02060156
04850KAOH AOH20160615051010906/15/16 05:10:31  5-MIN KAOH 151010Z AUTO 16008KT 10SM CLR 21/16 A2987 1030 70 2000 170/08 RMK AO2 T02110156
04850KAOH AOH20160615051510906/15/16 05:15:31  5-MIN KAOH 151015Z AUTO 16007KT 10SM CLR 21/16 A2987 1030 73 1900 170/07 RMK AO2 T02060156
04850KAOH AOH20160615052012006/15/16 05:20:31  5-MIN KAOH 151020Z AUTO 16009KT 10SM CLR 21/16 A2987 1030 73 1900 170/09 RMK AO2 LTG DSNT W T02060156
04850KAOH AOH20160615052512706/15/16 05:25:31  5-MIN KAOH 151025Z AUTO 17008KT 10SM CLR 21/16 A2987 1020 73 1900 170/08 RMK AO2 LTG DSNT SW AND W T02060156
04850KAOH AOH20160615053012706/15/16 05:30:31  5-MIN KAOH 151030Z AUTO 16007KT 10SM CLR 21/16 A2987 1030 73 2000 170/07 RMK AO2 LTG DSNT SW AND W T02060156
04850KAOH AOH20160615053512706/15/16 05:35:31  5-MIN KAOH 151035Z AUTO 16009KT 10SM CLR 21/16 A2987 1030 73 1900 170/09 RMK AO2 LTG DSNT SW AND W T02060156
04850KAOH AOH20160615054012706/15/16 05:40:31  5-MIN KAOH 151040Z AUTO 17009KT 10SM CLR 21/16 A2987 1020 70 2000 170/09 RMK AO2 LTG DSNT SW AND W T02110156
04850KAOH AOH20160615054512706/15/16 05:45:31  5-MIN KAOH 151045Z AUTO 17009KT 10SM CLR 21/16 A2987 1020 70 2000 170/09 RMK AO2 LTG DSNT SW AND W T02110156
04850KAOH AOH20160615055013706/15/16 05:50:31  5-MIN KAOH 151050Z AUTO 17008KT 10SM FEW120 21/16 A2987 1020 70 2000 180/08 RMK AO2 LTG DSNT W AND NW SLP109 T02110156
04850KAOH AOH20160615055513006/15/16 05:55:31  5-MIN KAOH 151055Z AUTO 17008KT 10SM FEW120 21/16 A2988 1020 70 2000 180/08 RMK AO2 LTG DSNT W AND NW T02110156
04850KAOH AOH20160615060013006/15/16 06:00:31  5-MIN KAOH 151100Z AUTO 17007KT 10SM FEW120 21/16 A2988 1020 70 2000 180/07 RMK AO2 LTG DSNT W AND NW T02110156
04850KAOH AOH20160615060512706/15/16 06:05:31  5-MIN KAOH 151105Z AUTO 16007KT 10SM CLR 21/16 A2987 1030 73 2000 160/07 RMK AO2 LTG DSNT W AND NW T02110161
04850KAOH AOH20160615061012406/15/16 06:10:31  5-MIN KAOH 151110Z AUTO 16008KT 10SM CLR 21/16 A2987 1020 75 1900 160/08 RMK AO2 LTG DSNT SW-NW T02060161
04850KAOH AOH20160615061512706/15/16 06:15:31  5-MIN KAOH 151115Z AUTO 17006KT 10SM FEW110 21/16 A2987 1020 73 2000 180/06 RMK AO2 LTG DSNT SW-NW T02110161
04850KAOH AOH20160615062014306/15/16 06:20:31  5-MIN KAOH 151120Z AUTO 17004KT 10SM -RA FEW110 21/16 A2987 1020 73 2000 180/04 RMK AO2 LTG DSNT SW-NW RAB17 P0000 T02110161
04850KAOH AOH20160615062514306/15/16 06:25:31  5-MIN KAOH 151125Z AUTO 18005KT 10SM -RA FEW110 21/17 A2988 1020 78 1900 180/05 RMK AO2 LTG DSNT SW-NW RAB17 P0000 T02060167
04850KAOH AOH20160615063015606/15/16 06:30:31  5-MIN KAOH 151130Z AUTO 21004KT 10SM -RA FEW070 SCT085 SCT110 21/17 A2988 1010 78 1900 210/04 RMK AO2 LTG DSNT SW-N RAB17 P0000 T02060167
04850KAOH AOH20160615063516106/15/16 06:35:31  5-MIN KAOH 151135Z AUTO 22005KT 10SM VCTS -RA SCT070 BKN085 BKN110 21/17 A2989 1010 78 1900 230/05 RMK AO2 LTG DSNT SW-N RAB17 P0001 T02060167
04850KAOH AOH20160615064016106/15/16 06:40:31  5-MIN KAOH 151140Z AUTO 23004KT 10SM VCTS -RA SCT070 BKN085 BKN110 21/17 A2989 1000 81 1900 230/04 RMK AO2 LTG DSNT SW-N RAB17 P0001 T02060172
04850KAOH AOH20160615064516806/15/16 06:45:31  5-MIN KAOH 151145Z AUTO 22006KT 10SM VCTS -RA FEW041 BKN070 OVC110 21/17 A2990 1000 81 1900 230/06 RMK AO2 LTG DSNT SW-N RAB17 PRESRR P0001 T02060172
04850KAOH AOH20160615065019706/15/16 06:50:31  5-MIN KAOH 151150Z AUTO 22006KT 5SM VCTS -RA FEW032 BKN042 OVC085 20/17 A2990 1000 84 1800 230/06 RMK AO2 LTG DSNT S-NW RAB17 SLP119 P0005 60005 7//// T02000172 10211 20194 56009
04850KAOH AOH20160615065515706/15/16 06:55:31  5-MIN KAOH 151155Z AUTO 23008KT 1 1/2SM VCTS +RA FEW024 BKN042 OVC085 20/17 A2991 990 84 1800 240/08 RMK AO2 LTG DSNT S-NW P0001 T02000172
04850KAOH AOH20160615070016106/15/16 07:00:31  5-MIN KAOH 151200Z AUTO 20006KT 1 1/4SM VCTS +RA BR SCT031 BKN042 OVC065 19/18 A2990 1000 90 1800 210/06 RMK AO2 LTG DSNT S-NW P0005 T01940178
04850KAOH AOH20160615070516006/15/16 07:05:31  5-MIN KAOH 151205Z AUTO 23006KT 1 1/4SM VCTS +RA BR SCT035 BKN042 OVC065 19/18 A2990 990 90 1800 240/06 RMK AO2 LTG DSNT S-NW P0010 T01940178
04850KAOH AOH20160615071016106/15/16 07:10:31  5-MIN KAOH 151210Z AUTO 18010KT 1SM +TSRA BR BKN032 BKN042 OVC060 19/18 A2990 1000 93 1700 190/10 RMK AO2 LTG DSNT ALQDS TSB07 P0018 T01890178
04850KAOH AOH20160615071516506/15/16 07:15:31  5-MIN KAOH 151215Z AUTO 17007KT 1 1/4SM +TSRA BR SCT032 BKN044 OVC080 19/18 A2989 1010 97 1700 170/07 RMK AO2 LTG DSNT ALQDS TSB07 P0021 T01890183
04850KAOH AOH20160615072016306/15/16 07:20:31  5-MIN KAOH 151220Z AUTO 19009KT 2 1/2SM TSRA BR FEW009 BKN050 OVC070 19/18 A2990 990 97 1700 200/09 RMK AO2 LTG DSNT ALQDS TSB07 P0022 T01890183
04850KAOH AOH20160615072516006/15/16 07:25:31  5-MIN KAOH 151225Z AUTO 19009KT 3SM -TSRA BR FEW009 BKN049 OVC070 19/18 A2991 990 97 1700 200/09 RMK AO2 LTG DSNT ALQDS TSB07 P0023 T01890183
04850KAOH AOH20160615073016106/15/16 07:30:31  5-MIN KAOH 151230Z AUTO 20004KT 1SM +TSRA BR SCT031 BKN041 OVC070 19/19 A2990 990 100 1700 210/04 RMK AO2 LTG DSNT ALQDS TSB07 P0035 T01890189
04850KAOH AOH20160615073516406/15/16 07:35:31  5-MIN KAOH 151235Z AUTO 00000KT 1/2SM +TSRA FG FEW007 BKN027 OVC070 19/19 A2990 1000 100 1700 000/00 RMK AO2 LTG DSNT ALQDS TSB07 P0047 T01890189
04850KAOH AOH20160615074016406/15/16 07:40:31  5-MIN KAOH 151240Z AUTO 18004KT 1/4SM +TSRA FG BKN025 BKN038 OVC070 19/19 A2990 1000 100 1700 190/04 RMK AO2 LTG DSNT ALQDS TSB07 P0063 T01890189
04850KAOH AOH20160615074516406/15/16 07:45:31  5-MIN KAOH 151245Z AUTO 16006KT 1/4SM +TSRA FG BKN023 BKN038 OVC050 19/19 A2989 1000 100 1800 170/06 RMK AO2 LTG DSNT ALQDS TSB07 P0075 T01940194
04850KAOH AOH20160615075018006/15/16 07:50:31  5-MIN KAOH 151250Z AUTO 17008KT 1/2SM +TSRA FG BKN023 BKN040 OVC050 19/19 A2990 1000 100 1700 170/08 RMK AO2 LTG DSNT E AND SE AND W TSB07 SLP119 P0094 T01890189
04850KAOH AOH20160615075515606/15/16 07:55:31  5-MIN KAOH 151255Z AUTO 20004KT 1/4SM +TSRA FG FEW013 OVC021 18/18 A2990 1000 100 1700 200/04 RMK AO2 LTG DSNT E AND SE P0013 T01830183 $
04850KAOH AOH20160615080014306/15/16 08:00:31  5-MIN KAOH 151300Z AUTO 16004KT 1/4SM +TSRA FG VV018 18/18 A2989 1000 100 1700 170/04 RMK AO2 LTG DSNT E-S P0033 T01830183 $
04850KAOH AOH20160615080515106/15/16 08:05:31  5-MIN KAOH 151305Z AUTO 14007KT 1/4SM +TSRA FG FEW014 OVC019 18/18 A2989 1010 100 1700 150/07 RMK AO2 LTG DSNT E-S P0053 T01830183 $
04850KAOH AOH20160615081013106/15/16 08:10:31  5-MIN KAOH 151310Z AUTO 12006KT 3/4SM +TSRA FEW014 BKN019 OVC055 A2988 M M M 130/06 RMK AO2 LTG DSNT E-S P0056 $
04850KAOH AOH20160615081514406/15/16 08:15:31  5-MIN KAOH 151315Z AUTO 12003KT 1 3/4SM -TSRA BKN019 BKN049 OVC055 A2988 M M M 120/03 RMK AO2 LTG DSNT NE AND E AND W P0057 $
04850KAOH AOH20160615082013606/15/16 08:20:31  5-MIN KAOH 151320Z AUTO 03005KT 9SM TS SCT017 OVC047 A2988 M M M 030/05 RMK AO2 LTG DSNT NE AND E AND W RAE17 P0057 $
04850KAOH AOH20160615082514706/15/16 08:25:31  5-MIN KAOH 151325Z AUTO 00000KT 10SM SCT019 BKN039 OVC049 A2988 M M M 000/00 RMK AO2 LTG DSNT NE AND E AND W RAE17 TSE25 P0057 $
04850KAOH AOH20160615083014006/15/16 08:30:31  5-MIN KAOH 151330Z AUTO 00000KT 10SM FEW019 BKN037 OVC049 A2988 M M M 000/00 RMK AO2 LTG DSNT E AND W RAE17 TSE25 P0057 $
04850KAOH AOH20160615083514006/15/16 08:35:31  5-MIN KAOH 151335Z AUTO 16005KT 10SM FEW024 BKN037 OVC049 A2987 M M M 170/05 RMK AO2 LTG DSNT E AND W RAE17 TSE25 P0057 $
04850KAOH AOH20160615084013306/15/16 08:40:31  5-MIN KAOH 151340Z AUTO 17007KT 10SM BKN034 OVC049 A2987 M M M 170/07 RMK AO2 LTG DSNT E AND W RAE17 TSE25 P0057 $
04850KAOH AOH20160615084513806/15/16 08:45:31  5-MIN KAOH 151345Z AUTO 17009KT 10SM -RA BKN030 OVC038 A2987 M M M 180/09 RMK AO2 LTG DSNT ALQDS RAE17B43 TSE25 P0057 $
04850KAOH AOH20160615085014206/15/16 08:50:31  5-MIN KAOH 151350Z AUTO 17009KT 10SM -RA SCT027 OVC034 A2987 M M M 180/09 RMK AO2 LTG DSNT W-N RAE17B43 TSE25 SLPNO P0057 $
04850KAOH AOH20160615085511606/15/16 08:55:31  5-MIN KAOH 151355Z AUTO 18009KT 10SM VCTS BKN027 OVC034 A2987 M M M 190/09 RMK AO2 LTG DSNT W-N $
04850KAOH AOH20160615090013506/15/16 09:00:31  5-MIN KAOH 151400Z AUTO 19007KT 10SM VCTS -RA BKN025 OVC032 A2987 M M M 200/07 RMK AO2 LTG DSNT SW-N RAB1356 P0000 $
04850KAOH AOH20160615090513506/15/16 09:05:31  5-MIN KAOH 151405Z AUTO 23008KT 10SM VCTS -RA BKN025 OVC032 A2988 M M M 230/08 RMK AO2 LTG DSNT SW-N RAB1356 P0000 $
04850KAOH AOH20160615091013506/15/16 09:10:31  5-MIN KAOH 151410Z AUTO 25009KT 10SM TS OVC025 A2988 M M M 260/09 RMK AO2 LTG DSNT N AND SW RAB1356E08 TSB08 P0000 $
04850KAOH AOH20160615091513506/15/16 09:15:31  5-MIN KAOH 151415Z AUTO 23005KT 10SM -TSRA OVC024 A2987 M M M 240/05 RMK AO2 LTG DSNT N AND SW RAB1356 TSB08 P0000 $
04850KAOH AOH20160615092015406/15/16 09:20:31  5-MIN KAOH 151420Z AUTO 21005KT 5SM TSRA BKN024 BKN065 OVC085 A2986 M M M 210/05 RMK AO2 LTG DSNT N AND NE AND SW RAB1356 TSB08 P0002 $
04850KAOH AOH20160615092515506/15/16 09:25:31  5-MIN KAOH 151425Z AUTO 19006KT 3SM +TSRA SCT024 BKN065 OVC110 A2986 M M M 200/06 RMK AO2 LTG DSNT NE AND S AND SW RAB1356 TSB08 P0004 $
04850KAOH AOH20160615093015506/15/16 09:30:31  5-MIN KAOH 151430Z AUTO 17010KT 4SM -TSRA SCT023 BKN065 BKN090 A2986 M M M 170/10 RMK AO2 LTG DSNT NE AND S AND SW RAB1356 TSB08 P0004 $
04850KAOH AOH20160615093516106/15/16 09:35:31  5-MIN KAOH 151435Z AUTO 17013KT 8SM VCTS -RA FEW023 SCT070 BKN110 A2986 M M M 170/13 RMK AO2 LTG DSNT NE AND S AND SW RAB1356 TSB08E34 P0004 $
04850KAOH AOH20160615094016206/15/16 09:40:31  5-MIN KAOH 151440Z AUTO 16011KT 10SM VCTS -RA FEW023 SCT090 BKN110 A2985 M M M 170/11 RMK AO2 LTG DSNT NE AND S AND SW RAB1356 TSB08E34 P0004 $
04850KAOH AOH20160615094515506/15/16 09:45:31  5-MIN KAOH 151445Z AUTO 16013KT 10SM VCTS -RA FEW065 FEW090 BKN110 A2985 M M M 170/13 RMK AO2 LTG DSNT NE AND S RAB1356 TSB08E34 P0004 $
04850KAOH AOH20160615095016906/15/16 09:50:31  5-MIN KAOH 151450Z AUTO 15013KT 10SM VCTS -RA FEW050 FEW100 BKN120 A2984 M M M 160/13 RMK AO2 LTG DSNT NE-S RAB1356 TSB08E34 SLPNO P0005 60175 53009 $
04850KAOH AOH20160615095513606/15/16 09:55:31  5-MIN KAOH 151455Z AUTO 16014KT 10SM -RA FEW038 SCT100 BKN120 A2983 M M M 160/14 RMK AO2 LTG DSNT NE-S PRESFR P0000 $
04850KAOH AOH20160615100012806/15/16 10:00:31  5-MIN KAOH 151500Z AUTO 16012KT 10SM -RA FEW038 SCT100 SCT120 A2983 M M M 160/12 RMK AO2 LTG DSNT E-S P0000 $
04850KAOH AOH20160615100511406/15/16 10:05:31  5-MIN KAOH 151505Z AUTO 16013KT 10SM -RA FEW120 A2983 M M M 170/13 RMK AO2 LTG DSNT E-S P0000 $
04850KAOH AOH20160615101011606/15/16 10:10:31  5-MIN KAOH 151510Z AUTO 17014KT 10SM FEW120 A2983 M M M 180/14 RMK AO2 LTG DSNT E-S RAE08 P0000 $
04850KAOH AOH20160615101511306/15/16 10:15:31  5-MIN KAOH 151515Z AUTO 16012KT 10SM CLR A2983 M M M 170/12 RMK AO2 LTG DSNT E-S RAE08 P0000 $
04850KAOH AOH20160615102011806/15/16 10:20:31  5-MIN KAOH 151520Z AUTO 16012KT 10SM CLR A2982 M M M 170/12 RMK AO2 LTG DSNT E AND SE RAE08 P0000 $
04850KAOH AOH20160615102511806/15/16 10:25:31  5-MIN KAOH 151525Z AUTO 15014KT 10SM CLR A2982 M M M 160/14 RMK AO2 LTG DSNT E AND SE RAE08 P0000 $
04850KAOH AOH20160615103011806/15/16 10:30:31  5-MIN KAOH 151530Z AUTO 16011KT 10SM CLR A2982 M M M 160/11 RMK AO2 LTG DSNT E AND SE RAE08 P0000 $
04850KAOH AOH20160615103511206/15/16 10:35:31  5-MIN KAOH 151535Z AUTO 16013KT 10SM CLR A2982 M M M 170/13 RMK AO2 LTG DSNT SE RAE08 P0000 $
04850KAOH AOH20160615104011206/15/16 10:40:31  5-MIN KAOH 151540Z AUTO 16014KT 10SM CLR A2983 M M M 170/14 RMK AO2 LTG DSNT SE RAE08 P0000 $
04850KAOH AOH20160615104511206/15/16 10:45:31  5-MIN KAOH 151545Z AUTO 16013KT 10SM CLR A2983 M M M 160/13 RMK AO2 LTG DSNT SE RAE08 P0000 $
04850KAOH AOH20160615105011806/15/16 10:50:31  5-MIN KAOH 151550Z AUTO 16014KT 10SM CLR A2983 M M M 170/14 RMK AO2 LTG DSNT SE RAE08 SLPNO P0000 $
04850KAOH AOH20160615105510006/15/16 10:55:31  5-MIN KAOH 151555Z AUTO 18012KT 10SM CLR A2983 M M M 180/12 RMK AO2 LTG DSNT SE $
04850KAOH AOH20160615110008806/15/16 11:00:31  5-MIN KAOH 151600Z AUTO 19012KT 10SM CLR A2983 M M M 190/12 RMK AO2 $
04850KAOH AOH20160615110508806/15/16 11:05:31  5-MIN KAOH 151605Z AUTO 17012KT 10SM CLR A2984 M M M 180/12 RMK AO2 $
04850KAOH AOH20160615111008806/15/16 11:10:31  5-MIN KAOH 151610Z AUTO 19012KT 10SM CLR A2984 M M M 190/12 RMK AO2 $
04850KAOH AOH20160615111511106/15/16 11:15:31  5-MIN KAOH 151615Z AUTO 20011KT 10SM CLR 25/24 A2984 1050 93 2500 210/11 RMK AO2 T02500239 $
04850KAOH AOH20160615112011406/15/16 11:20:31  5-MIN KAOH 151620Z AUTO 19010KT 10SM FEW012 25/24 A2984 1050 93 2500 200/10 RMK AO2 T02500239 $
04850KAOH AOH20160615112511406/15/16 11:25:31  5-MIN KAOH 151625Z AUTO 22011KT 10SM FEW012 25/24 A2984 1050 93 2500 220/11 RMK AO2 T02500239 $
04850KAOH AOH20160615113011406/15/16 11:30:31  5-MIN KAOH 151630Z AUTO 20009KT 10SM FEW012 26/24 A2984 1060 93 2600 200/09 RMK AO2 T02560244 $
04850KAOH AOH20160615113511406/15/16 11:35:31  5-MIN KAOH 151635Z AUTO 22007KT 10SM SCT014 26/24 A2983 1060 93 2600 230/07 RMK AO2 T02560244 $
04850KAOH AOH20160615114011406/15/16 11:40:31  5-MIN KAOH 151640Z AUTO 24010KT 10SM BKN014 26/23 A2984 1050 87 2500 240/10 RMK AO2 T02560233 $
04850KAOH AOH20160615114512106/15/16 11:45:31  5-MIN KAOH 151645Z AUTO 22009KT 10SM BKN014 BKN022 26/23 A2984 1060 84 2600 230/09 RMK AO2 T02610233 $
04850KAOH AOH20160615115011106/15/16 11:50:31  5-MIN KAOH 151650Z AUTO 21009KT 10SM SCT014 BKN022 26/23 A2984 1060 84 2600 220/09 RMK AO2 $
04850KAOH AOH20160615115512106/15/16 11:55:31  5-MIN KAOH 151655Z AUTO 23010KT 10SM BKN016 BKN022 26/23 A2984 1060 84 2600 240/10 RMK AO2 T02610233 $
04850KAOH AOH20160615120012106/15/16 12:00:31  5-MIN KAOH 151700Z AUTO 25008KT 10SM BKN016 OVC022 26/23 A2983 1060 84 2600 250/08 RMK AO2 T02610233 $
04850KAOH AOH20160615120512806/15/16 12:05:31  5-MIN KAOH 151705Z AUTO 23008KT 10SM SCT016 BKN022 BKN032 27/23 A2983 1060 82 2700 230/08 RMK AO2 T02670233 $
04850KAOH AOH20160615121012106/15/16 12:10:31  5-MIN KAOH 151710Z AUTO 22009KT 10SM SCT018 BKN022 27/23 A2983 1060 82 2700 220/09 RMK AO2 T02670233 $
04850KAOH AOH20160615121512106/15/16 12:15:31  5-MIN KAOH 151715Z AUTO 22008KT 10SM BKN018 BKN023 26/23 A2983 1060 84 2600 230/08 RMK AO2 T02610233 $
04850KAOH AOH20160615122012106/15/16 12:20:31  5-MIN KAOH 151720Z AUTO 22009KT 10SM BKN018 BKN025 27/23 A2983 1060 82 2700 230/09 RMK AO2 T02670233 $
04850KAOH AOH20160615122511406/15/16 12:25:31  5-MIN KAOH 151725Z AUTO 22008KT 10SM BKN018 27/23 A2983 1060 82 2700 230/08 RMK AO2 T02670233 $
04850KAOH AOH20160615123011406/15/16 12:30:31  5-MIN KAOH 151730Z AUTO 23011KT 10SM BKN018 27/23 A2983 1060 79 2800 240/11 RMK AO2 T02720233 $
04850KAOH AOH20160615123511406/15/16 12:35:31  5-MIN KAOH 151735Z AUTO 22009KT 10SM BKN020 28/24 A2983 1060 79 2800 230/09 RMK AO2 T02780239 $
04850KAOH AOH20160615124011406/15/16 12:40:31  5-MIN KAOH 151740Z AUTO 23008KT 10SM BKN020 28/24 A2982 1070 79 2800 240/08 RMK AO2 T02780239 $
04850KAOH AOH20160615124512106/15/16 12:45:31  5-MIN KAOH 151745Z AUTO 23008KT 10SM BKN020 BKN026 28/24 A2983 1070 79 2800 230/08 RMK AO2 T02780239 $
04850KAOH AOH20160615125013306/15/16 12:50:31  5-MIN KAOH 151750Z AUTO 22010KT 10SM BKN022 28/24 A2983 1070 79 2800 220/10 RMK AO2 SLP091 60175 T02780239 58022 $
04850KAOH AOH20160615125511406/15/16 12:55:31  5-MIN KAOH 151755Z AUTO 25009KT 10SM BKN022 28/24 A2983 1060 76 2900 250/09 RMK AO2 T02830239 $
04850KAOH AOH20160615130011406/15/16 13:00:31  5-MIN KAOH 151800Z AUTO 25009KT 10SM SCT022 28/23 A2982 1070 74 2900 250/09 RMK AO2 T02830233 $
04850KAOH AOH20160615130511406/15/16 13:05:31  5-MIN KAOH 151805Z AUTO 21010KT 10SM BKN022 28/23 A2982 1070 74 2900 210/10 RMK AO2 T02830233 $
04850KAOH AOH20160615131011406/15/16 13:10:31  5-MIN KAOH 151810Z AUTO 22009KT 10SM SCT022 29/23 A2982 1070 71 2900 220/09 RMK AO2 T02890233 $
04850KAOH AOH20160615131511406/15/16 13:15:31  5-MIN KAOH 151815Z AUTO 22012KT 10SM SCT022 29/23 A2982 1070 71 2900 230/12 RMK AO2 T02890233 $
04850KAOH AOH20160615132011406/15/16 13:20:31  5-MIN KAOH 151820Z AUTO 22013KT 10SM FEW022 29/23 A2982 1070 71 2900 220/13 RMK AO2 T02890233 $
04850KAOH AOH20160615132511406/15/16 13:25:31  5-MIN KAOH 151825Z AUTO 25011KT 10SM SCT022 29/23 A2982 1070 69 3000 250/11 RMK AO2 T02940233 $
04850KAOH AOH20160615133011406/15/16 13:30:31  5-MIN KAOH 151830Z AUTO 23012KT 10SM FEW024 29/23 A2982 1070 69 3000 240/12 RMK AO2 T02940233 $
04850KAOH AOH20160615133511406/15/16 13:35:31  5-MIN KAOH 151835Z AUTO 22011KT 10SM FEW024 29/23 A2981 1080 67 3000 230/11 RMK AO2 T02940228 $
04850KAOH AOH20160615134011406/15/16 13:40:31  5-MIN KAOH 151840Z AUTO 23013KT 10SM FEW026 29/23 A2981 1080 69 3000 230/13 RMK AO2 T02940233 $
04850KAOH AOH20160615134512106/15/16 13:45:31  5-MIN KAOH 151845Z AUTO 25011KT 10SM FEW026 SCT030 29/23 A2981 1080 69 3000 260/11 RMK AO2 T02940233 $
04850KAOH AOH20160615135012106/15/16 13:50:31  5-MIN KAOH 151850Z AUTO 22011KT 10SM SCT028 29/23 A2981 1080 69 3000 230/11 RMK AO2 SLP085 T02890228 $
04850KAOH AOH20160615135511406/15/16 13:55:31  5-MIN KAOH 151855Z AUTO 23012KT 10SM SCT028 29/23 A2981 1080 67 3000 240/12 RMK AO2 T02940228 $
04850KAOH AOH20160615140011406/15/16 14:00:31  5-MIN KAOH 151900Z AUTO 26012KT 10SM FEW028 29/23 A2981 1080 67 3000 260/12 RMK AO2 T02940228 $
04850KAOH AOH20160615140511406/15/16 14:05:31  5-MIN KAOH 151905Z AUTO 26013KT 10SM FEW028 29/23 A2981 1080 69 3000 260/13 RMK AO2 T02940233 $
04850KAOH AOH20160615141011406/15/16 14:10:31  5-MIN KAOH 151910Z AUTO 25011KT 10SM FEW028 29/23 A2980 1080 69 3000 250/11 RMK AO2 T02940233 $
04850KAOH AOH20160615141511406/15/16 14:15:31  5-MIN KAOH 151915Z AUTO 25011KT 10SM FEW028 30/23 A2980 1090 67 3100 250/11 RMK AO2 T03000233 $
04850KAOH AOH20160615142011106/15/16 14:20:31  5-MIN KAOH 151920Z AUTO 24010KT 10SM CLR 29/23 A2980 1090 67 3000 240/10 RMK AO2 T02940228 $
04850KAOH AOH20160615142511106/15/16 14:25:31  5-MIN KAOH 151925Z AUTO 25011KT 10SM CLR 29/23 A2980 1090 69 3000 260/11 RMK AO2 T02940233 $
04850KAOH AOH20160615143011106/15/16 14:30:31  5-MIN KAOH 151930Z AUTO 25009KT 10SM CLR 30/23 A2980 1090 65 3100 250/09 RMK AO2 T03000228 $
04850KAOH AOH20160615143511106/15/16 14:35:31  5-MIN KAOH 151935Z AUTO 25012KT 10SM CLR 29/22 A2980 1090 64 3000 260/12 RMK AO2 T02940222 $
04850KAOH AOH20160615144011106/15/16 14:40:31  5-MIN KAOH 151940Z AUTO 25010KT 10SM CLR 30/23 A2980 1090 65 3100 250/10 RMK AO2 T03000228 $
04850KAOH AOH20160615144511106/15/16 14:45:31  5-MIN KAOH 151945Z AUTO 23007KT 10SM CLR 30/22 A2979 1090 62 3100 240/07 RMK AO2 T03000222 $
04850KAOH AOH20160615145011806/15/16 14:50:31  5-MIN KAOH 151950Z AUTO 23010KT 10SM CLR 31/22 A2979 1100 60 3200 240/10 RMK AO2 SLP080 T03060222 $
04850KAOH AOH20160615145511706/15/16 14:55:31  5-MIN KAOH 151955Z AUTO 26009G15KT 10SM CLR 31/22 A2979 1100 60 3200 270/09G15 RMK AO2 T03060222 $
04850KAOH AOH20160615150011706/15/16 15:00:31  5-MIN KAOH 152000Z AUTO 25010G15KT 10SM CLR 30/23 A2979 1100 65 3100 260/10G15 RMK AO2 T03000228 $
04850KAOH AOH20160615150511406/15/16 15:05:31  5-MIN KAOH 152005Z AUTO 24007KT 10SM FEW041 30/22 A2978 1100 62 3100 240/07 RMK AO2 T03000222 $
04850KAOH AOH20160615151011406/15/16 15:10:31  5-MIN KAOH 152010Z AUTO 26010KT 10SM FEW041 31/23 A2978 1100 62 3200 260/10 RMK AO2 T03060228 $
04850KAOH AOH20160615151512106/15/16 15:15:31  5-MIN KAOH 152015Z AUTO 27009KT 10SM FEW038 FEW060 30/22 A2978 1100 62 3100 280/09 RMK AO2 T03000222 $
04850KAOH AOH20160615152012806/15/16 15:20:31  5-MIN KAOH 152020Z AUTO 24012KT 10SM FEW038 SCT050 SCT060 31/23 A2978 1100 62 3200 250/12 RMK AO2 T03060228 $
04850KAOH AOH20160615152512106/15/16 15:25:31  5-MIN KAOH 152025Z AUTO 24010KT 10SM FEW039 SCT055 31/22 A2978 1110 60 3200 250/10 RMK AO2 T03060222 $
04850KAOH AOH20160615153012806/15/16 15:30:31  5-MIN KAOH 152030Z AUTO 23008KT 10SM FEW039 SCT050 BKN090 31/22 A2978 1110 58 3200 240/08 RMK AO2 T03060217 $
04850KAOH AOH20160615153512806/15/16 15:35:31  5-MIN KAOH 152035Z AUTO 26011KT 10SM FEW039 SCT050 BKN080 31/23 A2978 1110 60 3200 270/11 RMK AO2 T03110228 $
04850KAOH AOH20160615154012806/15/16 15:40:31  5-MIN KAOH 152040Z AUTO 26009KT 10SM FEW039 SCT060 BKN080 30/22 A2977 1110 62 3100 270/09 RMK AO2 T03000222 $
04850KAOH AOH20160615154512806/15/16 15:45:31  5-MIN KAOH 152045Z AUTO 26008KT 10SM FEW039 SCT055 BKN075 29/22 A2977 1120 64 3100 270/08 RMK AO2 T02940222 $
04850KAOH AOH20160615155014106/15/16 15:50:31  5-MIN KAOH 152050Z AUTO 28007KT 10SM FEW037 SCT055 BKN080 30/23 A2977 1120 65 3100 290/07 RMK AO2 SLP071 T03000228 58003 $
04850KAOH AOH20160615155512806/15/16 15:55:31  5-MIN KAOH 152055Z AUTO 25006KT 10SM FEW037 SCT060 BKN075 29/22 A2976 1120 64 3100 260/06 RMK AO2 T02940222 $
04850KAOH AOH20160615160012106/15/16 16:00:31  5-MIN KAOH 152100Z AUTO 24007KT 10SM FEW037 BKN075 31/22 A2976 1120 60 3200 250/07 RMK AO2 T03060222 $
04850KAOH AOH20160615160512806/15/16 16:05:31  5-MIN KAOH 152105Z AUTO 27008KT 10SM FEW039 FEW060 SCT070 30/22 A2976 1120 62 3100 280/08 RMK AO2 T03000222 $
04850KAOH AOH20160615161012806/15/16 16:10:31  5-MIN KAOH 152110Z AUTO 27006KT 10SM FEW039 FEW048 SCT055 30/22 A2976 1120 60 3100 280/06 RMK AO2 T03000217 $
04850KAOH AOH20160615161512106/15/16 16:15:31  5-MIN KAOH 152115Z AUTO 26006KT 10SM SCT042 SCT050 30/22 A2976 1120 60 3100 270/06 RMK AO2 T03000217 $
04850KAOH AOH20160615162012106/15/16 16:20:31  5-MIN KAOH 152120Z AUTO 26008KT 10SM SCT044 SCT060 30/22 A2977 1120 60 3100 260/08 RMK AO2 T03000217 $
04850KAOH AOH20160615162512106/15/16 16:25:31  5-MIN KAOH 152125Z AUTO 27007KT 10SM FEW044 SCT060 29/22 A2977 1120 64 3100 280/07 RMK AO2 T02940222 $
04850KAOH AOH20160615163012106/15/16 16:30:31  5-MIN KAOH 152130Z AUTO 29005KT 10SM FEW044 SCT055 29/22 A2977 1120 64 3100 290/05 RMK AO2 T02940222 $
04850KAOH AOH20160615163512106/15/16 16:35:31  5-MIN KAOH 152135Z AUTO 26006KT 10SM FEW044 SCT055 29/22 A2977 1120 64 3100 270/06 RMK AO2 T02940222 $
04850KAOH AOH20160615164013306/15/16 16:40:31  5-MIN KAOH 152140Z AUTO 26008KT 10SM FEW044 FEW060 29/22 A2977 1120 62 3100 260/08 RMK AO2 LTG DSNT SW T02940217 $
04850KAOH AOH20160615164512606/15/16 16:45:31  5-MIN KAOH 152145Z AUTO 27007KT 10SM FEW060 29/21 A2977 1120 60 3100 280/07 RMK AO2 LTG DSNT SW T02940211 $
04850KAOH AOH20160615165013006/15/16 16:50:31  5-MIN KAOH 152150Z AUTO 29005KT 10SM CLR 29/23 A2977 1120 69 3000 300/05 RMK AO2 LTG DSNT SW SLP071 T02890228 $
04850KAOH AOH20160615165512606/15/16 16:55:31  5-MIN KAOH 152155Z AUTO 28006KT 10SM FEW043 29/23 A2977 1120 69 3000 290/06 RMK AO2 LTG DSNT SW T02890228 $
04850KAOH AOH20160615170013306/15/16 17:00:31  5-MIN KAOH 152200Z AUTO 27006KT 10SM FEW043 29/23 A2977 1120 69 3000 280/06 RMK AO2 LTG DSNT SE AND SW T02890228 $
04850KAOH AOH20160615170513306/15/16 17:05:31  5-MIN KAOH 152205Z AUTO 28005KT 10SM FEW043 28/23 A2976 1120 74 2900 280/05 RMK AO2 LTG DSNT SE AND SW T02830233 $
04850KAOH AOH20160615171012906/15/16 17:10:31  5-MIN KAOH 152210Z AUTO 28004KT 10SM FEW043 28/23 A2976 1120 71 2900 290/04 RMK AO2 LTG DSNT SE-SW T02830228 $
04850KAOH AOH20160615171512906/15/16 17:15:31  5-MIN KAOH 152215Z AUTO 28004KT 10SM FEW042 28/23 A2977 1120 71 2900 280/04 RMK AO2 LTG DSNT SE-SW T02830228 $
04850KAOH AOH20160615172012906/15/16 17:20:31  5-MIN KAOH 152220Z AUTO 27005KT 10SM FEW042 28/23 A2976 1120 74 2900 280/05 RMK AO2 LTG DSNT SE-SW T02830233 $
04850KAOH AOH20160615172512606/15/16 17:25:31  5-MIN KAOH 152225Z AUTO 26006KT 10SM CLR 28/23 A2976 1120 71 2900 270/06 RMK AO2 LTG DSNT SE-SW T02830228 $
04850KAOH AOH20160615173012906/15/16 17:30:31  5-MIN KAOH 152230Z AUTO 25005KT 10SM CLR 28/23 A2976 1130 71 3000 260/05 RMK AO2 LTG DSNT S AND SW T02830228 $
04850KAOH AOH20160615173512906/15/16 17:35:31  5-MIN KAOH 152235Z AUTO 25005KT 10SM CLR 28/23 A2976 1120 71 2900 250/05 RMK AO2 LTG DSNT S AND SW T02830228 $
04850KAOH AOH20160615174012906/15/16 17:40:31  5-MIN KAOH 152240Z AUTO 23004KT 10SM CLR 28/22 A2977 1120 69 2900 230/04 RMK AO2 LTG DSNT S AND SW T02830222 $
04850KAOH AOH20160615174512206/15/16 17:45:31  5-MIN KAOH 152245Z AUTO 24005KT 10SM CLR 28/23 A2977 1110 71 2900 250/05 RMK AO2 LTG DSNT S T02830228 $
04850KAOH AOH20160615175012906/15/16 17:50:31  5-MIN KAOH 152250Z AUTO 25006KT 10SM CLR 28/23 A2977 1110 71 2900 250/06 RMK AO2 LTG DSNT S SLP073 T02830228 $
04850KAOH AOH20160615175512206/15/16 17:55:31  5-MIN KAOH 152255Z AUTO 25005KT 10SM CLR 28/23 A2977 1110 71 2900 260/05 RMK AO2 LTG DSNT S T02830228 $
04850KAOH AOH20160615180012206/15/16 18:00:31  5-MIN KAOH 152300Z AUTO 26003KT 10SM CLR 28/24 A2977 1110 79 2900 260/03 RMK AO2 LTG DSNT S T02780239 $
04850KAOH AOH20160615180512206/15/16 18:05:31  5-MIN KAOH 152305Z AUTO 23004KT 10SM CLR 28/23 A2978 1110 76 2900 240/04 RMK AO2 LTG DSNT S T02780233 $
04850KAOH AOH20160615181012206/15/16 18:10:31  5-MIN KAOH 152310Z AUTO 24005KT 10SM CLR 28/23 A2978 1110 74 2900 250/05 RMK AO2 LTG DSNT S T02780228 $
04850KAOH AOH20160615181512206/15/16 18:15:31  5-MIN KAOH 152315Z AUTO 24004KT 10SM CLR 28/23 A2978 1110 71 2900 240/04 RMK AO2 LTG DSNT S T02830228 $
04850KAOH AOH20160615182012206/15/16 18:20:31  5-MIN KAOH 152320Z AUTO 22005KT 10SM CLR 28/23 A2978 1110 71 2900 220/05 RMK AO2 LTG DSNT S T02830228 $
04850KAOH AOH20160615182511106/15/16 18:25:31  5-MIN KAOH 152325Z AUTO 21008KT 10SM CLR 28/22 A2978 1110 71 2900 220/08 RMK AO2 T02780222 $
04850KAOH AOH20160615183011106/15/16 18:30:31  5-MIN KAOH 152330Z AUTO 22010KT 10SM CLR 27/22 A2978 1110 74 2800 230/10 RMK AO2 T02720222 $
04850KAOH AOH20160615183511106/15/16 18:35:31  5-MIN KAOH 152335Z AUTO 23007KT 10SM CLR 27/22 A2978 1110 71 2800 230/07 RMK AO2 T02720217 $
04850KAOH AOH20160615184011106/15/16 18:40:31  5-MIN KAOH 152340Z AUTO 23010KT 10SM CLR 27/22 A2978 1110 73 2700 240/10 RMK AO2 T02670217 $
04850KAOH AOH20160615184511106/15/16 18:45:31  5-MIN KAOH 152345Z AUTO 24008KT 10SM CLR 27/22 A2977 1110 73 2700 250/08 RMK AO2 T02670217 $
04850KAOH AOH20160615185013606/15/16 18:50:31  5-MIN KAOH 152350Z AUTO 24009KT 10SM CLR 27/21 A2977 1110 71 2700 250/09 RMK AO2 SLP075 T02670211 10311 20267 58021 $
04850KAOH AOH20160615185511106/15/16 18:55:31  5-MIN KAOH 152355Z AUTO 24009KT 10SM CLR 27/22 A2978 1110 73 2700 250/09 RMK AO2 T02670217 $
04850KAOH AOH20160615190011106/15/16 19:00:31  5-MIN KAOH 160000Z AUTO 25007KT 10SM CLR 26/21 A2978 1110 73 2700 250/07 RMK AO2 T02610211 $
04850KAOH AOH20160615190512206/15/16 19:05:31  5-MIN KAOH 160005Z AUTO 25008KT 10SM CLR 26/22 A2978 1100 76 2700 260/08 RMK AO2 LTG DSNT W T02610217 $
04850KAOH AOH20160615191012206/15/16 19:10:31  5-MIN KAOH 160010Z AUTO 25007KT 10SM CLR 26/21 A2978 1110 73 2700 260/07 RMK AO2 LTG DSNT W T02610211 $
04850KAOH AOH20160615191512206/15/16 19:15:31  5-MIN KAOH 160015Z AUTO 23007KT 10SM CLR 26/21 A2978 1110 73 2700 230/07 RMK AO2 LTG DSNT W T02610211 $
04850KAOH AOH20160615192012206/15/16 19:20:31  5-MIN KAOH 160020Z AUTO 22007KT 10SM CLR 26/21 A2978 1110 73 2700 230/07 RMK AO2 LTG DSNT W T02610211 $
04850KAOH AOH20160615192512206/15/16 19:25:31  5-MIN KAOH 160025Z AUTO 23005KT 10SM CLR 26/21 A2978 1110 73 2700 230/05 RMK AO2 LTG DSNT W T02610211 $
04850KAOH AOH20160615193012206/15/16 19:30:31  5-MIN KAOH 160030Z AUTO 23007KT 10SM CLR 26/21 A2979 1100 71 2700 230/07 RMK AO2 LTG DSNT W T02610206 $
04850KAOH AOH20160615193512206/15/16 19:35:31  5-MIN KAOH 160035Z AUTO 23011KT 10SM CLR 26/20 A2979 1090 68 2700 240/11 RMK AO2 LTG DSNT W T02610200 $
04850KAOH AOH20160615194012506/15/16 19:40:31  5-MIN KAOH 160040Z AUTO 23009KT 10SM SCT048 26/20 A2979 1100 71 2600 230/09 RMK AO2 LTG DSNT W T02560200 $
04850KAOH AOH20160615194512506/15/16 19:45:31  5-MIN KAOH 160045Z AUTO 23009KT 10SM SCT048 26/19 A2979 1100 68 2600 240/09 RMK AO2 LTG DSNT W T02560194 $
04850KAOH AOH20160615195013206/15/16 19:50:31  5-MIN KAOH 160050Z AUTO 23009KT 10SM FEW048 26/19 A2979 1100 66 2600 240/09 RMK AO2 LTG DSNT W SLP081 T02560189 $
04850KAOH AOH20160615195511406/15/16 19:55:31  5-MIN KAOH 160055Z AUTO 23008KT 10SM FEW048 26/18 A2979 1100 64 2600 240/08 RMK AO2 T02560183 $
04850KAOH AOH20160615200011406/15/16 20:00:31  5-MIN KAOH 160100Z AUTO 24008KT 10SM FEW048 26/18 A2979 1100 64 2600 240/08 RMK AO2 T02560183 $
04850KAOH AOH20160615200511406/15/16 20:05:31  5-MIN KAOH 160105Z AUTO 24011KT 10SM FEW048 25/18 A2979 1100 66 2500 240/11 RMK AO2 T02500183 $
04850KAOH AOH20160615201011106/15/16 20:10:31  5-MIN KAOH 160110Z AUTO 23011KT 10SM CLR 25/19 A2979 1100 68 2500 240/11 RMK AO2 T02500189 $
04850KAOH AOH20160615201511106/15/16 20:15:31  5-MIN KAOH 160115Z AUTO 23009KT 10SM CLR 24/19 A2978 1100 71 2500 240/09 RMK AO2 T02440189 $
04850KAOH AOH20160615202011106/15/16 20:20:31  5-MIN KAOH 160120Z AUTO 23011KT 10SM CLR 25/19 A2979 1100 68 2500 240/11 RMK AO2 T02500189 $
04850KAOH AOH20160615202511106/15/16 20:25:31  5-MIN KAOH 160125Z AUTO 25012KT 10SM CLR 24/19 A2979 1100 73 2500 250/12 RMK AO2 T02440194 $
04850KAOH AOH20160615203011106/15/16 20:30:31  5-MIN KAOH 160130Z AUTO 25009KT 10SM CLR 24/19 A2979 1100 73 2500 250/09 RMK AO2 T02440194 $
04850KAOH AOH20160615203511106/15/16 20:35:31  5-MIN KAOH 160135Z AUTO 24009KT 10SM CLR 24/19 A2978 1100 73 2500 250/09 RMK AO2 T02440194 $
04850KAOH AOH20160615204011106/15/16 20:40:31  5-MIN KAOH 160140Z AUTO 23009KT 10SM CLR 24/19 A2978 1100 73 2500 240/09 RMK AO2 T02440194 $
04850KAOH AOH20160615204511106/15/16 20:45:31  5-MIN KAOH 160145Z AUTO 23009KT 10SM CLR 24/19 A2979 1100 73 2500 240/09 RMK AO2 T02440194 $
04850KAOH AOH20160615205011706/15/16 20:50:31  5-MIN KAOH 160150Z AUTO 24009KT 10SM CLR 24/20 A2979 1100 76 2500 240/09 RMK AO2 SLPNO T02440200 $
04850KAOH AOH20160615205511106/15/16 20:55:31  5-MIN KAOH 160155Z AUTO 23009KT 10SM CLR 24/20 A2979 1100 76 2500 240/09 RMK AO2 T02440200 $
04850KAOH AOH20160615210011106/15/16 21:00:31  5-MIN KAOH 160200Z AUTO 23009KT 10SM CLR 24/20 A2979 1100 76 2500 240/09 RMK AO2 T02440200 $
04850KAOH AOH20160615210511106/15/16 21:05:31  5-MIN KAOH 160205Z AUTO 23009KT 10SM CLR 24/20 A2979 1100 76 2500 240/09 RMK AO2 T02440200 $
04850KAOH AOH20160615211011106/15/16 21:10:31  5-MIN KAOH 160210Z AUTO 24009KT 10SM CLR 24/20 A2978 1100 76 2500 240/09 RMK AO2 T02440200 $
04850KAOH AOH20160615211511106/15/16 21:15:31  5-MIN KAOH 160215Z AUTO 23009KT 10SM CLR 24/20 A2978 1100 78 2400 240/09 RMK AO2 T02390200 $
04850KAOH AOH20160615212011106/15/16 21:20:31  5-MIN KAOH 160220Z AUTO 23008KT 10SM CLR 24/19 A2979 1100 73 2500 240/08 RMK AO2 T02440194 $
04850KAOH AOH20160615212511106/15/16 21:25:31  5-MIN KAOH 160225Z AUTO 23009KT 10SM CLR 24/19 A2979 1100 76 2400 240/09 RMK AO2 T02390194 $
04850KAOH AOH20160615213011106/15/16 21:30:31  5-MIN KAOH 160230Z AUTO 23009KT 10SM CLR 24/19 A2979 1100 76 2400 240/09 RMK AO2 T02390194 $
04850KAOH AOH20160615213511106/15/16 21:35:31  5-MIN KAOH 160235Z AUTO 23008KT 10SM CLR 24/19 A2978 1100 76 2400 240/08 RMK AO2 T02390194 $
04850KAOH AOH20160615214011106/15/16 21:40:31  5-MIN KAOH 160240Z AUTO 23008KT 10SM CLR 24/19 A2978 1100 76 2400 240/08 RMK AO2 T02390194 $
04850KAOH AOH20160615214511106/15/16 21:45:31  5-MIN KAOH 160245Z AUTO 23008KT 10SM CLR 24/19 A2978 1100 76 2400 240/08 RMK AO2 T02390194 $
04850KAOH AOH20160615215012306/15/16 21:50:31  5-MIN KAOH 160250Z AUTO 23009KT 10SM CLR 23/19 A2979 1100 78 2400 240/09 RMK AO2 SLPNO T02330194 51004 $
04850KAOH AOH20160615215511106/15/16 21:55:31  5-MIN KAOH 160255Z AUTO 23008KT 10SM CLR 23/19 A2979 1100 78 2400 240/08 RMK AO2 T02330194 $
04850KAOH AOH20160615220011106/15/16 22:00:31  5-MIN KAOH 160300Z AUTO 22008KT 10SM CLR 23/19 A2978 1100 78 2400 230/08 RMK AO2 T02330194 $
04850KAOH AOH20160615220511106/15/16 22:05:31  5-MIN KAOH 160305Z AUTO 22007KT 10SM CLR 23/19 A2978 1100 78 2400 230/07 RMK AO2 T02330194 $
04850KAOH AOH20160615221011106/15/16 22:10:31  5-MIN KAOH 160310Z AUTO 21008KT 10SM CLR 23/19 A2978 1100 81 2300 220/08 RMK AO2 T02280194 $
04850KAOH AOH20160615221511106/15/16 22:15:31  5-MIN KAOH 160315Z AUTO 22007KT 10SM CLR 23/19 A2978 1100 81 2300 230/07 RMK AO2 T02280194 $
04850KAOH AOH20160615222011106/15/16 22:20:31  5-MIN KAOH 160320Z AUTO 21007KT 10SM CLR 23/19 A2978 1110 81 2300 220/07 RMK AO2 T02280194 $
04850KAOH AOH20160615222511106/15/16 22:25:31  5-MIN KAOH 160325Z AUTO 22007KT 10SM CLR 23/19 A2978 1110 78 2300 220/07 RMK AO2 T02280189 $
04850KAOH AOH20160615223011106/15/16 22:30:31  5-MIN KAOH 160330Z AUTO 21006KT 10SM CLR 23/19 A2978 1110 78 2300 220/06 RMK AO2 T02280189 $
04850KAOH AOH20160615223511106/15/16 22:35:31  5-MIN KAOH 160335Z AUTO 21005KT 10SM CLR 23/19 A2978 1110 78 2300 210/05 RMK AO2 T02280189 $
04850KAOH AOH20160615224011106/15/16 22:40:31  5-MIN KAOH 160340Z AUTO 21006KT 10SM CLR 22/19 A2978 1110 81 2200 210/06 RMK AO2 T02220189 $
04850KAOH AOH20160615224511106/15/16 22:45:31  5-MIN KAOH 160345Z AUTO 20005KT 10SM CLR 22/19 A2979 1100 84 2200 210/05 RMK AO2 T02220194 $
04850KAOH AOH20160615225011706/15/16 22:50:31  5-MIN KAOH 160350Z AUTO 20005KT 10SM CLR 22/19 A2979 1100 84 2200 210/05 RMK AO2 SLPNO T02220194 $
04850KAOH AOH20160615225511106/15/16 22:55:31  5-MIN KAOH 160355Z AUTO 21006KT 10SM CLR 22/19 A2979 1100 84 2200 210/06 RMK AO2 T02220194 $
04850KAOH AOH20160615230011106/15/16 23:00:31  5-MIN KAOH 160400Z AUTO 22007KT 10SM CLR 22/20 A2979 1100 87 2200 230/07 RMK AO2 T02220200 $
04850KAOH AOH20160615230511106/15/16 23:05:31  5-MIN KAOH 160405Z AUTO 22007KT 10SM CLR 22/19 A2979 1100 87 2200 230/07 RMK AO2 T02170194 $
04850KAOH AOH20160615231011106/15/16 23:10:31  5-MIN KAOH 160410Z AUTO 22007KT 10SM CLR 22/19 A2979 1100 87 2200 230/07 RMK AO2 T02170194 $
04850KAOH AOH20160615231511106/15/16 23:15:31  5-MIN KAOH 160415Z AUTO 22007KT 10SM CLR 22/19 A2979 1100 87 2200 220/07 RMK AO2 T02170194 $
04850KAOH AOH20160615232011106/15/16 23:20:31  5-MIN KAOH 160420Z AUTO 22008KT 10SM CLR 22/19 A2979 1100 87 2200 220/08 RMK AO2 T02170194 $
04850KAOH AOH20160615232511106/15/16 23:25:31  5-MIN KAOH 160425Z AUTO 22007KT 10SM CLR 22/19 A2979 1100 84 2200 220/07 RMK AO2 T02170189 $
04850KAOH AOH20160615233011106/15/16 23:30:31  5-MIN KAOH 160430Z AUTO 22007KT 10SM CLR 22/19 A2979 1100 84 2200 220/07 RMK AO2 T02170189 $
04850KAOH AOH20160615233511106/15/16 23:35:31  5-MIN KAOH 160435Z AUTO 21007KT 10SM CLR 22/19 A2979 1100 84 2200 220/07 RMK AO2 T02170189 $
04850KAOH AOH20160615234011106/15/16 23:40:31  5-MIN KAOH 160440Z AUTO 20008KT 10SM CLR 21/19 A2978 1100 87 2100 210/08 RMK AO2 T02110189 $
04850KAOH AOH20160615234511106/15/16 23:45:31  5-MIN KAOH 160445Z AUTO 22008KT 10SM CLR 21/19 A2979 1100 87 2100 220/08 RMK AO2 T02110189 $
04850KAOH AOH20160615235012806/15/16 23:50:31  5-MIN KAOH 160450Z AUTO 22008KT 10SM CLR 21/19 A2979 1100 87 2100 220/08 RMK AO2 SLP079 T02110189 403110183 $
04850KAOH AOH20160615235511106/15/16 23:55:31  5-MIN KAOH 160455Z AUTO 21007KT 10SM CLR 21/19 A2978 1100 87 2100 210/07 RMK AO2 T02110189 $
04850KAOH AOH20160616000011106/16/16 00:00:31  5-MIN KAOH 160500Z AUTO 21006KT 10SM CLR 21/19 A2978 1110 87 2100 220/06 RMK AO2 T02110189 $
04850KAOH AOH20160616000511106/16/16 00:05:31  5-MIN KAOH 160505Z AUTO 19007KT 10SM CLR 21/19 A2977 1110 90 2100 200/07 RMK AO2 T02060189 $
04850KAOH AOH20160616001011106/16/16 00:10:31  5-MIN KAOH 160510Z AUTO 20006KT 10SM CLR 21/19 A2978 1110 90 2100 210/06 RMK AO2 T02060189 $
04850KAOH AOH20160616001511106/16/16 00:15:31  5-MIN KAOH 160515Z AUTO 21006KT 10SM CLR 21/19 A2978 1110 90 2100 220/06 RMK AO2 T02060189 $
04850KAOH AOH20160616002011106/16/16 00:20:31  5-MIN KAOH 160520Z AUTO 20008KT 10SM CLR 21/19 A2978 1110 90 2100 200/08 RMK AO2 T02060189 $
04850KAOH AOH20160616002511106/16/16 00:25:31  5-MIN KAOH 160525Z AUTO 21007KT 10SM CLR 21/19 A2978 1110 90 2100 210/07 RMK AO2 T02060189 $
04850KAOH AOH20160616003011106/16/16 00:30:31  5-MIN KAOH 160530Z AUTO 20007KT 10SM CLR 21/19 A2978 1110 90 2100 200/07 RMK AO2 T02060189 $
04850KAOH AOH20160616003511106/16/16 00:35:31  5-MIN KAOH 160535Z AUTO 21006KT 10SM CLR 21/19 A2978 1110 90 2100 220/06 RMK AO2 T02060189 $
04850KAOH AOH20160616004011106/16/16 00:40:31  5-MIN KAOH 160540Z AUTO 22005KT 10SM CLR 21/19 A2978 1110 90 2000 230/05 RMK AO2 T02060189 $
04850KAOH AOH20160616004511106/16/16 00:45:31  5-MIN KAOH 160545Z AUTO 22006KT 10SM CLR 21/19 A2978 1110 90 2000 230/06 RMK AO2 T02060189 $
04850KAOH AOH20160616005013606/16/16 00:50:31  5-MIN KAOH 160550Z AUTO 22006KT 10SM CLR 21/19 A2978 1110 90 2000 230/06 RMK AO2 SLP076 T02060189 10267 20206 50003 $
04850KAOH AOH20160616005511106/16/16 00:55:31  5-MIN KAOH 160555Z AUTO 21006KT 10SM CLR 21/19 A2978 1110 90 2100 220/06 RMK AO2 T02060189 $
04850KAOH AOH20160616010011106/16/16 01:00:31  5-MIN KAOH 160600Z AUTO 22006KT 10SM CLR 21/19 A2978 1110 90 2100 220/06 RMK AO2 T02060189 $
04850KAOH AOH20160616010511106/16/16 01:05:31  5-MIN KAOH 160605Z AUTO 22006KT 10SM CLR 21/19 A2978 1110 90 2000 230/06 RMK AO2 T02060189 $
04850KAOH AOH20160616011011106/16/16 01:10:31  5-MIN KAOH 160610Z AUTO 22007KT 10SM CLR 21/19 A2978 1110 90 2100 220/07 RMK AO2 T02060189 $
04850KAOH AOH20160616011511106/16/16 01:15:31  5-MIN KAOH 160615Z AUTO 22007KT 10SM CLR 21/19 A2978 1110 90 2100 230/07 RMK AO2 T02060189 $
04850KAOH AOH20160616012011106/16/16 01:20:31  5-MIN KAOH 160620Z AUTO 23006KT 10SM CLR 21/19 A2977 1110 90 2100 230/06 RMK AO2 T02060189 $
04850KAOH AOH20160616012511106/16/16 01:25:31  5-MIN KAOH 160625Z AUTO 22008KT 10SM CLR 21/19 A2977 1110 90 2100 230/08 RMK AO2 T02060189 $
04850KAOH AOH20160616013011106/16/16 01:30:31  5-MIN KAOH 160630Z AUTO 22007KT 10SM CLR 21/19 A2978 1110 90 2100 230/07 RMK AO2 T02060189 $
04850KAOH AOH20160616013511106/16/16 01:35:31  5-MIN KAOH 160635Z AUTO 22007KT 10SM CLR 21/18 A2978 1110 87 2100 220/07 RMK AO2 T02060183 $
04850KAOH AOH20160616014011106/16/16 01:40:31  5-MIN KAOH 160640Z AUTO 22005KT 10SM CLR 21/18 A2978 1110 87 2100 230/05 RMK AO2 T02060183 $
04850KAOH AOH20160616014511106/16/16 01:45:31  5-MIN KAOH 160645Z AUTO 22006KT 10SM CLR 21/18 A2977 1110 87 2100 230/06 RMK AO2 T02060183 $
04850KAOH AOH20160616015011806/16/16 01:50:31  5-MIN KAOH 160650Z AUTO 22006KT 10SM CLR 21/18 A2977 1110 87 2100 220/06 RMK AO2 SLP073 T02060183 $
04850KAOH AOH20160616015511106/16/16 01:55:31  5-MIN KAOH 160655Z AUTO 21007KT 10SM CLR 21/18 A2977 1110 87 2100 220/07 RMK AO2 T02060183 $
04850KAOH AOH20160616020011106/16/16 02:00:31  5-MIN KAOH 160700Z AUTO 21007KT 10SM CLR 20/18 A2977 1110 90 2000 220/07 RMK AO2 T02000183 $
04850KAOH AOH20160616020511106/16/16 02:05:31  5-MIN KAOH 160705Z AUTO 22006KT 10SM CLR 21/18 A2977 1110 87 2100 220/06 RMK AO2 T02060183 $
04850KAOH AOH20160616021011106/16/16 02:10:31  5-MIN KAOH 160710Z AUTO 22007KT 10SM CLR 20/18 A2977 1110 90 2000 220/07 RMK AO2 T02000183 $
04850KAOH AOH20160616021511106/16/16 02:15:31  5-MIN KAOH 160715Z AUTO 22006KT 10SM CLR 20/18 A2977 1110 90 2000 220/06 RMK AO2 T02000183 $
04850KAOH AOH20160616022011106/16/16 02:20:31  5-MIN KAOH 160720Z AUTO 22007KT 10SM CLR 20/18 A2978 1110 90 2000 220/07 RMK AO2 T02000183 $
04850KAOH AOH20160616022511106/16/16 02:25:31  5-MIN KAOH 160725Z AUTO 22007KT 10SM CLR 21/18 A2977 1110 87 2100 230/07 RMK AO2 T02060183 $
04850KAOH AOH20160616023011106/16/16 02:30:31  5-MIN KAOH 160730Z AUTO 22009KT 10SM CLR 20/18 A2978 1110 87 2000 230/09 RMK AO2 T02000178 $
04850KAOH AOH20160616023511106/16/16 02:35:31  5-MIN KAOH 160735Z AUTO 22008KT 10SM CLR 21/18 A2978 1110 84 2100 230/08 RMK AO2 T02060178 $
04850KAOH AOH20160616024011106/16/16 02:40:31  5-MIN KAOH 160740Z AUTO 21010KT 10SM CLR 21/18 A2977 1110 84 2100 220/10 RMK AO2 T02060178 $
04850KAOH AOH20160616024511106/16/16 02:45:31  5-MIN KAOH 160745Z AUTO 21010KT 10SM CLR 21/18 A2977 1120 84 2100 220/10 RMK AO2 T02060178 $
04850KAOH AOH20160616025011806/16/16 02:50:31  5-MIN KAOH 160750Z AUTO 21007KT 10SM CLR 21/18 A2977 1110 84 2100 220/07 RMK AO2 SLP073 T02060178 $
04850KAOH AOH20160616025511106/16/16 02:55:31  5-MIN KAOH 160755Z AUTO 21007KT 10SM CLR 21/18 A2977 1120 84 2100 210/07 RMK AO2 T02060178 $
04850KAOH AOH20160616030011106/16/16 03:00:31  5-MIN KAOH 160800Z AUTO 21010KT 10SM CLR 21/18 A2977 1120 84 2100 210/10 RMK AO2 T02060178 $
04850KAOH AOH20160616030511106/16/16 03:05:31  5-MIN KAOH 160805Z AUTO 21009KT 10SM CLR 20/18 A2976 1120 87 2000 220/09 RMK AO2 T02000178 $
04850KAOH AOH20160616031011106/16/16 03:10:31  5-MIN KAOH 160810Z AUTO 20010KT 10SM CLR 20/18 A2976 1130 87 2000 210/10 RMK AO2 T02000178 $
04850KAOH AOH20160616031511106/16/16 03:15:31  5-MIN KAOH 160815Z AUTO 21009KT 10SM CLR 20/18 A2976 1130 87 2000 220/09 RMK AO2 T02000178 $
04850KAOH AOH20160616032011106/16/16 03:20:31  5-MIN KAOH 160820Z AUTO 21008KT 10SM CLR 20/18 A2976 1130 87 2000 220/08 RMK AO2 T02000178 $
04850KAOH AOH20160616032511106/16/16 03:25:31  5-MIN KAOH 160825Z AUTO 21009KT 10SM CLR 20/18 A2975 1130 87 2000 220/09 RMK AO2 T02000178 $
04850KAOH AOH20160616033011106/16/16 03:30:31  5-MIN KAOH 160830Z AUTO 21008KT 10SM CLR 20/18 A2975 1140 87 2000 220/08 RMK AO2 T02000178 $
04850KAOH AOH20160616033511106/16/16 03:35:31  5-MIN KAOH 160835Z AUTO 22009KT 10SM CLR 20/18 A2974 1140 87 2000 220/09 RMK AO2 T02000178 $
04850KAOH AOH20160616034011106/16/16 03:40:31  5-MIN KAOH 160840Z AUTO 21010KT 10SM CLR 20/18 A2974 1140 87 2000 220/10 RMK AO2 T02000178 $
04850KAOH AOH20160616034511106/16/16 03:45:31  5-MIN KAOH 160845Z AUTO 21010KT 10SM CLR 20/18 A2973 1150 87 2000 220/10 RMK AO2 T02000178 $
04850KAOH AOH20160616035012406/16/16 03:50:31  5-MIN KAOH 160850Z AUTO 22010KT 10SM CLR 20/18 A2973 1150 87 2000 220/10 RMK AO2 SLP060 T02000178 58002 $
04850KAOH AOH20160616035511106/16/16 03:55:31  5-MIN KAOH 160855Z AUTO 22011KT 10SM CLR 20/18 A2973 1150 87 2000 220/11 RMK AO2 T02000178 $
04850KAOH AOH20160616040011106/16/16 04:00:31  5-MIN KAOH 160900Z AUTO 22011KT 10SM CLR 20/18 A2973 1160 87 2000 220/11 RMK AO2 T02000178 $
04850KAOH AOH20160616040511106/16/16 04:05:31  5-MIN KAOH 160905Z AUTO 22009KT 10SM CLR 20/18 A2973 1160 87 2000 230/09 RMK AO2 T02000178 $
04850KAOH AOH20160616041011106/16/16 04:10:31  5-MIN KAOH 160910Z AUTO 22009KT 10SM CLR 20/18 A2973 1150 87 2000 230/09 RMK AO2 T02000178 $
04850KAOH AOH20160616041511106/16/16 04:15:31  5-MIN KAOH 160915Z AUTO 22009KT 10SM CLR 20/18 A2973 1150 87 2000 230/09 RMK AO2 T02000178 $
04850KAOH AOH20160616042011106/16/16 04:20:31  5-MIN KAOH 160920Z AUTO 22011KT 10SM CLR 20/18 A2973 1160 87 2000 230/11 RMK AO2 T02000178 $
04850KAOH AOH20160616042511106/16/16 04:25:31  5-MIN KAOH 160925Z AUTO 22011KT 10SM CLR 21/18 A2973 1160 84 2100 230/11 RMK AO2 T02060178 $
04850KAOH AOH20160616043011106/16/16 04:30:31  5-MIN KAOH 160930Z AUTO 23012KT 10SM CLR 21/18 A2973 1150 84 2100 230/12 RMK AO2 T02060178 $
04850KAOH AOH20160616043511106/16/16 04:35:31  5-MIN KAOH 160935Z AUTO 23012KT 10SM CLR 21/18 A2973 1160 87 2100 230/12 RMK AO2 T02060183 $
04850KAOH AOH20160616044011106/16/16 04:40:31  5-MIN KAOH 160940Z AUTO 23011KT 10SM CLR 21/18 A2973 1160 87 2100 240/11 RMK AO2 T02060183 $
04850KAOH AOH20160616044511106/16/16 04:45:31  5-MIN KAOH 160945Z AUTO 23012KT 10SM CLR 21/18 A2973 1160 87 2100 240/12 RMK AO2 T02060183 $
04850KAOH AOH20160616045011806/16/16 04:50:31  5-MIN KAOH 160950Z AUTO 24011KT 10SM CLR 21/18 A2973 1150 87 2100 250/11 RMK AO2 SLP060 T02060183 $
04850KAOH AOH20160616045511106/16/16 04:55:31  5-MIN KAOH 160955Z AUTO 24010KT 10SM CLR 21/18 A2974 1150 87 2100 250/10 RMK AO2 T02060183 $
04850KAOH AOH20160616050011106/16/16 05:00:31  5-MIN KAOH 161000Z AUTO 24009KT 10SM CLR 21/18 A2974 1150 87 2100 250/09 RMK AO2 T02060183 $
04850KAOH AOH20160616050511106/16/16 05:05:31  5-MIN KAOH 161005Z AUTO 24011KT 10SM CLR 21/18 A2974 1150 87 2100 240/11 RMK AO2 T02060183 $
04850KAOH AOH20160616051011106/16/16 05:10:31  5-MIN KAOH 161010Z AUTO 23010KT 10SM CLR 21/18 A2973 1150 87 2100 240/10 RMK AO2 T02060183 $
04850KAOH AOH20160616051511106/16/16 05:15:31  5-MIN KAOH 161015Z AUTO 23010KT 10SM CLR 21/18 A2974 1150 87 2100 240/10 RMK AO2 T02060183 $
04850KAOH AOH20160616052011106/16/16 05:20:31  5-MIN KAOH 161020Z AUTO 23009KT 10SM CLR 21/18 A2974 1150 87 2100 240/09 RMK AO2 T02060183 $
04850KAOH AOH20160616052511106/16/16 05:25:31  5-MIN KAOH 161025Z AUTO 23009KT 10SM CLR 21/18 A2974 1150 87 2100 240/09 RMK AO2 T02060183 $
04850KAOH AOH20160616053011106/16/16 05:30:31  5-MIN KAOH 161030Z AUTO 23009KT 10SM CLR 21/18 A2974 1140 87 2100 240/09 RMK AO2 T02060183 $
04850KAOH AOH20160616053511106/16/16 05:35:31  5-MIN KAOH 161035Z AUTO 23008KT 10SM CLR 21/18 A2974 1140 87 2100 240/08 RMK AO2 T02060183 $
04850KAOH AOH20160616054011106/16/16 05:40:31  5-MIN KAOH 161040Z AUTO 23009KT 10SM CLR 21/18 A2974 1140 87 2100 240/09 RMK AO2 T02060183 $
04850KAOH AOH20160616054511106/16/16 05:45:31  5-MIN KAOH 161045Z AUTO 23007KT 10SM CLR 21/19 A2974 1140 90 2100 240/07 RMK AO2 T02060189 $
04850KAOH AOH20160616055011606/16/16 05:50:31  5-MIN KAOH 161050Z AUTO 22007KT 10SM CLR 21/19 A2974 1140 90 2100 230/07 RMK AO2 SLP062 T02060189
04850KAOH AOH20160616055510906/16/16 05:55:31  5-MIN KAOH 161055Z AUTO 23007KT 10SM CLR 21/19 A2974 1140 90 2100 230/07 RMK AO2 T02060189
04850KAOH AOH20160616060010906/16/16 06:00:31  5-MIN KAOH 161100Z AUTO 23007KT 10SM CLR 21/19 A2974 1140 90 2100 230/07 RMK AO2 T02060189
04850KAOH AOH20160616060510906/16/16 06:05:31  5-MIN KAOH 161105Z AUTO 23007KT 10SM CLR 21/19 A2974 1140 90 2100 240/07 RMK AO2 T02060189
04850KAOH AOH20160616061010906/16/16 06:10:31  5-MIN KAOH 161110Z AUTO 24008KT 10SM CLR 21/19 A2974 1140 90 2100 240/08 RMK AO2 T02060189
04850KAOH AOH20160616061510906/16/16 06:15:31  5-MIN KAOH 161115Z AUTO 24009KT 10SM CLR 21/19 A2974 1140 87 2200 240/09 RMK AO2 T02110189
04850KAOH AOH20160616062010906/16/16 06:20:31  5-MIN KAOH 161120Z AUTO 24008KT 10SM CLR 21/19 A2974 1150 87 2200 240/08 RMK AO2 T02110189
04850KAOH AOH20160616062510906/16/16 06:25:31  5-MIN KAOH 161125Z AUTO 24009KT 10SM CLR 21/19 A2974 1140 90 2200 240/09 RMK AO2 T02110194
04850KAOH AOH20160616063010906/16/16 06:30:31  5-MIN KAOH 161130Z AUTO 24009KT 10SM CLR 22/19 A2974 1140 87 2200 240/09 RMK AO2 T02170194
04850KAOH AOH20160616063510906/16/16 06:35:31  5-MIN KAOH 161135Z AUTO 24010KT 10SM CLR 22/19 A2974 1140 87 2200 250/10 RMK AO2 T02170194
04850KAOH AOH20160616064010906/16/16 06:40:31  5-MIN KAOH 161140Z AUTO 24010KT 10SM CLR 22/19 A2974 1150 87 2200 240/10 RMK AO2 T02170194
04850KAOH AOH20160616064510906/16/16 06:45:31  5-MIN KAOH 161145Z AUTO 24010KT 10SM CLR 22/19 A2974 1150 87 2200 240/10 RMK AO2 T02170194
04850KAOH AOH20160616065014306/16/16 06:50:31  5-MIN KAOH 161150Z AUTO 24009KT 10SM FEW015 22/19 A2974 1150 87 2200 250/09 RMK AO2 SLP062 70175 T02170194 10217 20200 58016
04850KAOH AOH20160616065511206/16/16 06:55:31  5-MIN KAOH 161155Z AUTO 25010KT 10SM FEW015 22/20 A2973 1150 90 2200 250/10 RMK AO2 T02170200
04850KAOH AOH20160616070011206/16/16 07:00:31  5-MIN KAOH 161200Z AUTO 25011KT 10SM SCT015 22/20 A2973 1150 90 2200 260/11 RMK AO2 T02170200
04850KAOH AOH20160616070511206/16/16 07:05:31  5-MIN KAOH 161205Z AUTO 26012KT 10SM BKN015 22/20 A2973 1150 87 2300 260/12 RMK AO2 T02220200
04850KAOH AOH20160616071011206/16/16 07:10:31  5-MIN KAOH 161210Z AUTO 26011KT 10SM BKN013 22/20 A2973 1150 87 2300 260/11 RMK AO2 T02220200
04850KAOH AOH20160616071511206/16/16 07:15:31  5-MIN KAOH 161215Z AUTO 26011KT 10SM OVC013 22/20 A2974 1150 87 2300 260/11 RMK AO2 T02220200
04850KAOH AOH20160616072011206/16/16 07:20:31  5-MIN KAOH 161220Z AUTO 26012KT 10SM OVC013 22/20 A2974 1150 87 2300 260/12 RMK AO2 T02220200
04850KAOH AOH20160616072511206/16/16 07:25:31  5-MIN KAOH 161225Z AUTO 25011KT 10SM OVC012 22/20 A2974 1150 87 2300 260/11 RMK AO2 T02220200
04850KAOH AOH20160616073011206/16/16 07:30:31  5-MIN KAOH 161230Z AUTO 26013KT 10SM OVC012 22/21 A2974 1140 90 2300 270/13 RMK AO2 T02220206
04850KAOH AOH20160616073511206/16/16 07:35:31  5-MIN KAOH 161235Z AUTO 26011KT 10SM OVC012 22/21 A2974 1140 90 2300 270/11 RMK AO2 T02220206
04850KAOH AOH20160616074011206/16/16 07:40:31  5-MIN KAOH 161240Z AUTO 26013KT 10SM OVC012 22/21 A2974 1140 90 2300 260/13 RMK AO2 T02220206
04850KAOH AOH20160616074511206/16/16 07:45:31  5-MIN KAOH 161245Z AUTO 26011KT 10SM OVC012 22/21 A2975 1140 90 2300 270/11 RMK AO2 T02220206
04850KAOH AOH20160616075011906/16/16 07:50:31  5-MIN KAOH 161250Z AUTO 27012KT 10SM OVC012 22/21 A2975 1140 90 2300 280/12 RMK AO2 SLP065 T02220206
04850KAOH AOH20160616075511206/16/16 07:55:31  5-MIN KAOH 161255Z AUTO 27009KT 10SM OVC012 22/21 A2975 1140 90 2300 280/09 RMK AO2 T02220206
04850KAOH AOH20160616080011206/16/16 08:00:31  5-MIN KAOH 161300Z AUTO 27010KT 10SM OVC012 22/21 A2975 1140 90 2300 280/10 RMK AO2 T02220206
04850KAOH AOH20160616080511206/16/16 08:05:31  5-MIN KAOH 161305Z AUTO 26014KT 10SM OVC012 22/21 A2975 1140 90 2300 270/14 RMK AO2 T02220206
04850KAOH AOH20160616081011206/16/16 08:10:31  5-MIN KAOH 161310Z AUTO 27013KT 10SM OVC012 22/21 A2974 1140 90 2300 270/13 RMK AO2 T02220206
04850KAOH AOH20160616081511206/16/16 08:15:31  5-MIN KAOH 161315Z AUTO 25014KT 10SM OVC012 23/21 A2974 1140 87 2300 260/14 RMK AO2 T02280206
04850KAOH AOH20160616082011206/16/16 08:20:31  5-MIN KAOH 161320Z AUTO 24014KT 10SM OVC012 23/21 A2974 1150 87 2300 250/14 RMK AO2 T02280206
04850KAOH AOH20160616082511206/16/16 08:25:31  5-MIN KAOH 161325Z AUTO 25011KT 10SM BKN012 23/21 A2973 1150 84 2400 250/11 RMK AO2 T02330206
04850KAOH AOH20160616083011206/16/16 08:30:31  5-MIN KAOH 161330Z AUTO 24011KT 10SM BKN012 23/21 A2974 1150 87 2400 250/11 RMK AO2 T02330211
04850KAOH AOH20160616083511206/16/16 08:35:31  5-MIN KAOH 161335Z AUTO 25013KT 10SM BKN012 23/21 A2974 1150 84 2400 250/13 RMK AO2 T02330206
04850KAOH AOH20160616084011206/16/16 08:40:31  5-MIN KAOH 161340Z AUTO 25011KT 10SM BKN012 23/21 A2973 1150 84 2400 260/11 RMK AO2 T02330206
04850KAOH AOH20160616084511206/16/16 08:45:31  5-MIN KAOH 161345Z AUTO 24012KT 10SM BKN013 24/21 A2973 1150 84 2500 250/12 RMK AO2 T02390211
04850KAOH AOH20160616085011906/16/16 08:50:31  5-MIN KAOH 161350Z AUTO 25012KT 10SM BKN013 24/21 A2973 1150 84 2500 260/12 RMK AO2 SLP058 T02390211
04850KAOH AOH20160616085511206/16/16 08:55:31  5-MIN KAOH 161355Z AUTO 25011KT 10SM BKN013 23/21 A2973 1160 84 2400 260/11 RMK AO2 T02330206
04850KAOH AOH20160616090011206/16/16 09:00:31  5-MIN KAOH 161400Z AUTO 25013KT 10SM SCT013 24/21 A2973 1160 84 2500 260/13 RMK AO2 T02390211
04850KAOH AOH20160616090511206/16/16 09:05:31  5-MIN KAOH 161405Z AUTO 26015KT 10SM SCT013 24/21 A2973 1160 84 2500 270/15 RMK AO2 T02390211
04850KAOH AOH20160616091011906/16/16 09:10:31  5-MIN KAOH 161410Z AUTO 25013KT 10SM SCT013 SCT020 24/21 A2973 1160 81 2600 250/13 RMK AO2 T02440211
04850KAOH AOH20160616091511906/16/16 09:15:31  5-MIN KAOH 161415Z AUTO 25014KT 10SM SCT014 BKN020 24/21 A2973 1160 81 2600 260/14 RMK AO2 T02440211
04850KAOH AOH20160616092011206/16/16 09:20:31  5-MIN KAOH 161420Z AUTO 26013KT 10SM BKN017 24/21 A2973 1160 81 2500 260/13 RMK AO2 T02390206
04850KAOH AOH20160616092512606/16/16 09:25:31  5-MIN KAOH 161425Z AUTO 28010KT 10SM BKN017 BKN022 BKN027 24/21 A2973 1160 78 2600 280/10 RMK AO2 T02440206
04850KAOH AOH20160616093011906/16/16 09:30:31  5-MIN KAOH 161430Z AUTO 28012KT 10SM BKN019 BKN027 24/21 A2973 1160 81 2600 280/12 RMK AO2 T02440211
04850KAOH AOH20160616093511906/16/16 09:35:31  5-MIN KAOH 161435Z AUTO 27012KT 10SM BKN019 BKN038 24/21 A2973 1150 84 2500 270/12 RMK AO2 T02390211
04850KAOH AOH20160616094012606/16/16 09:40:31  5-MIN KAOH 161440Z AUTO 27015KT 10SM BKN019 BKN027 BKN040 24/21 A2973 1150 78 2500 270/15 RMK AO2 T02440206
04850KAOH AOH20160616094512606/16/16 09:45:31  5-MIN KAOH 161445Z AUTO 27014KT 10SM BKN019 BKN024 BKN040 24/21 A2973 1160 81 2500 280/14 RMK AO2 T02390206
04850KAOH AOH20160616095013906/16/16 09:50:31  5-MIN KAOH 161450Z AUTO 28012KT 10SM BKN021 BKN031 BKN041 24/21 A2973 1160 78 2600 290/12 RMK AO2 SLP059 T02440206 50002
04850KAOH AOH20160616095512606/16/16 09:55:31  5-MIN KAOH 161455Z AUTO 27014KT 10SM BKN021 BKN030 BKN041 25/21 A2973 1150 79 2600 280/14 RMK AO2 T02500211
04850KAOH AOH20160616100013206/16/16 10:00:31  5-MIN KAOH 161500Z AUTO 27014G20KT 10SM BKN021 BKN027 BKN041 24/21 A2973 1150 78 2500 280/14G20 RMK AO2 T02440206
04850KAOH AOH20160616100512606/16/16 10:05:31  5-MIN KAOH 161505Z AUTO 27014KT 10SM BKN023 BKN031 BKN039 24/21 A2973 1150 78 2500 280/14 RMK AO2 T02440206
04850KAOH AOH20160616101012606/16/16 10:10:31  5-MIN KAOH 161510Z AUTO 28013KT 10SM SCT023 BKN031 BKN039 24/21 A2973 1150 78 2500 280/13 RMK AO2 T02440206
04850KAOH AOH20160616101513206/16/16 10:15:31  5-MIN KAOH 161515Z AUTO 28015G20KT 10SM SCT023 BKN032 BKN039 25/21 A2973 1150 76 2600 290/15G20 RMK AO2 T02500206
04850KAOH AOH20160616102013206/16/16 10:20:31  5-MIN KAOH 161520Z AUTO 29019G24KT 10SM SCT023 SCT030 BKN039 25/21 A2973 1150 76 2600 290/19G24 RMK AO2 T02500206
04850KAOH AOH20160616102513206/16/16 10:25:31  5-MIN KAOH 161525Z AUTO 28014G24KT 10SM SCT023 SCT032 BKN041 25/20 A2973 1150 73 2600 290/14G24 RMK AO2 T02500200
04850KAOH AOH20160616103015006/16/16 10:30:31  5-MIN KAOH 161530Z AUTO 29020G26KT 10SM SCT027 BKN039 BKN049 25/20 A2973 1150 73 2600 290/20G26 RMK AO2 PK WND 29026/1529 T02500200
04850KAOH AOH20160616103515006/16/16 10:35:31  5-MIN KAOH 161535Z AUTO 28019G26KT 10SM FEW025 SCT030 BKN041 24/19 A2974 1150 71 2500 290/19G26 RMK AO2 PK WND 29026/1529 T02440189
04850KAOH AOH20160616104014406/16/16 10:40:31  5-MIN KAOH 161540Z AUTO 28018KT 10SM FEW025 SCT030 BKN041 24/19 A2974 1150 71 2500 290/18 RMK AO2 PK WND 29026/1529 T02440189
04850KAOH AOH20160616104515006/16/16 10:45:31  5-MIN KAOH 161545Z AUTO 29019G27KT 10SM FEW025 BKN030 BKN037 24/19 A2974 1140 71 2500 290/19G27 RMK AO2 PK WND 29027/1544 T02440189
04850KAOH AOH20160616105015706/16/16 10:50:31  5-MIN KAOH 161550Z AUTO 27020G27KT 10SM FEW025 BKN030 OVC049 24/19 A2974 1140 71 2500 280/20G27 RMK AO2 PK WND 29027/1544 SLP064 T02440189
04850KAOH AOH20160616105513206/16/16 10:55:31  5-MIN KAOH 161555Z AUTO 29017G26KT 10SM BKN030 BKN039 OVC049 24/19 A2974 1140 71 2500 300/17G26 RMK AO2 T02440189
04850KAOH AOH20160616110015006/16/16 11:00:31  5-MIN KAOH 161600Z AUTO 29020G26KT 10SM BKN031 BKN039 OVC055 24/18 A2974 1140 68 2500 290/20G26 RMK AO2 PK WND 29026/1559 T02440183
04850KAOH AOH20160616110515006/16/16 11:05:31  5-MIN KAOH 161605Z AUTO 29017G25KT 10SM SCT031 SCT039 OVC055 24/18 A2974 1140 68 2500 290/17G25 RMK AO2 PK WND 29026/1559 T02440183
04850KAOH AOH20160616111014306/16/16 11:10:31  5-MIN KAOH 161610Z AUTO 29018G24KT 10SM SCT031 BKN055 25/18 A2974 1140 64 2600 290/18G24 RMK AO2 PK WND 29026/1559 T02500178
04850KAOH AOH20160616111513706/16/16 11:15:31  5-MIN KAOH 161615Z AUTO 29020KT 10SM SCT034 BKN055 25/18 A2974 1140 66 2600 300/20 RMK AO2 PK WND 29026/1559 T02500183
04850KAOH AOH20160616112014306/16/16 11:20:31  5-MIN KAOH 161620Z AUTO 29014G24KT 10SM FEW034 BKN055 24/18 A2974 1140 68 2500 290/14G24 RMK AO2 PK WND 29026/1559 T02440183
04850KAOH AOH20160616112514306/16/16 11:25:31  5-MIN KAOH 161625Z AUTO 29019G25KT 10SM FEW034 BKN055 25/18 A2974 1140 66 2600 300/19G25 RMK AO2 PK WND 29026/1559 T02500183
04850KAOH AOH20160616113014306/16/16 11:30:31  5-MIN KAOH 161630Z AUTO 30017G25KT 10SM FEW034 BKN060 25/18 A2974 1140 64 2600 300/17G25 RMK AO2 PK WND 29026/1559 T02500178
04850KAOH AOH20160616113513706/16/16 11:35:31  5-MIN KAOH 161635Z AUTO 30016KT 10SM FEW035 BKN060 24/18 A2974 1140 66 2500 310/16 RMK AO2 PK WND 29026/1559 T02440178
04850KAOH AOH20160616114013706/16/16 11:40:31  5-MIN KAOH 161640Z AUTO 30020KT 10SM SCT037 OVC060 24/18 A2974 1140 66 2500 310/20 RMK AO2 PK WND 29026/1559 T02440178
04850KAOH AOH20160616114514406/16/16 11:45:31  5-MIN KAOH 161645Z AUTO 28015KT 10SM SCT037 SCT044 OVC060 24/17 A2974 1140 66 2500 290/15 RMK AO2 PK WND 29026/1559 T02390172
04850KAOH AOH20160616115014406/16/16 11:50:31  5-MIN KAOH 161650Z AUTO 29016KT 10SM SCT037 OVC060 24/18 A2974 1150 66 2500 290/16 RMK AO2 PK WND 29026/1559 SLP063 T02440178
04850KAOH AOH20160616115512506/16/16 11:55:31  5-MIN KAOH 161655Z AUTO 28012G21KT 10SM FEW037 OVC060 24/18 A2974 1150 66 2500 290/12G21 RMK AO2 T02440178
04850KAOH AOH20160616120012506/16/16 12:00:31  5-MIN KAOH 161700Z AUTO 28016G22KT 10SM SCT037 OVC060 25/18 A2974 1150 64 2600 290/16G22 RMK AO2 T02500178
04850KAOH AOH20160616120512506/16/16 12:05:31  5-MIN KAOH 161705Z AUTO 30012G22KT 10SM FEW038 OVC060 24/18 A2974 1150 68 2500 300/12G22 RMK AO2 T02440183
04850KAOH AOH20160616121012606/16/16 12:10:31  5-MIN KAOH 161710Z AUTO 28017KT 10SM FEW038 SCT045 OVC060 24/18 A2974 1150 68 2500 280/17 RMK AO2 T02390178
04850KAOH AOH20160616121513206/16/16 12:15:31  5-MIN KAOH 161715Z AUTO 28015G23KT 10SM FEW038 SCT045 OVC060 24/17 A2974 1150 66 2500 280/15G23 RMK AO2 T02390172
04850KAOH AOH20160616122012506/16/16 12:20:31  5-MIN KAOH 161720Z AUTO 28017G23KT 10SM SCT040 OVC060 24/17 A2974 1150 66 2500 290/17G23 RMK AO2 T02390172
04850KAOH AOH20160616122513206/16/16 12:25:31  5-MIN KAOH 161725Z AUTO 28013G23KT 10SM FEW037 FEW044 OVC060 24/17 A2973 1150 63 2500 290/13G23 RMK AO2 T02440172
04850KAOH AOH20160616123012606/16/16 12:30:31  5-MIN KAOH 161730Z AUTO 29013KT 10SM FEW037 FEW044 OVC060 24/18 A2974 1150 68 2500 300/13 RMK AO2 T02390178
04850KAOH AOH20160616123512606/16/16 12:35:31  5-MIN KAOH 161735Z AUTO 28015KT 10SM SCT040 SCT050 OVC060 24/18 A2974 1150 68 2500 290/15 RMK AO2 T02390178
04850KAOH AOH20160616124012606/16/16 12:40:31  5-MIN KAOH 161740Z AUTO 29016KT 10SM FEW036 SCT048 OVC060 24/18 A2973 1150 68 2500 300/16 RMK AO2 T02390178
04850KAOH AOH20160616124512606/16/16 12:45:31  5-MIN KAOH 161745Z AUTO 30016KT 10SM FEW036 SCT048 OVC060 24/17 A2974 1150 66 2500 310/16 RMK AO2 T02390172
04850KAOH AOH20160616125014406/16/16 12:50:31  5-MIN KAOH 161750Z AUTO 30014KT 10SM SCT036 OVC055 24/18 A2974 1150 68 2500 310/14 RMK AO2 SLP063 T02390178 10256 20217 58003
04850KAOH AOH20160616125512606/16/16 12:55:31  5-MIN KAOH 161755Z AUTO 30012KT 10SM SCT036 BKN047 OVC060 24/18 A2974 1150 68 2500 300/12 RMK AO2 T02390178
04850KAOH AOH20160616130012506/16/16 13:00:31  5-MIN KAOH 161800Z AUTO 30015G20KT 10SM SCT038 OVC055 24/18 A2974 1150 68 2500 300/15G20 RMK AO2 T02390178
04850KAOH AOH20160616130511906/16/16 13:05:31  5-MIN KAOH 161805Z AUTO 29014KT 10SM FEW036 OVC060 24/18 A2973 1150 68 2500 290/14 RMK AO2 T02390178
04850KAOH AOH20160616131012606/16/16 13:10:31  5-MIN KAOH 161810Z AUTO 29016KT 10SM FEW036 SCT044 OVC060 24/17 A2973 1150 66 2500 290/16 RMK AO2 T02390172
04850KAOH AOH20160616131511906/16/16 13:15:31  5-MIN KAOH 161815Z AUTO 30014KT 10SM FEW036 OVC060 24/18 A2973 1150 68 2500 300/14 RMK AO2 T02390178
04850KAOH AOH20160616132012606/16/16 13:20:31  5-MIN KAOH 161820Z AUTO 29014KT 10SM SCT038 SCT050 OVC065 24/18 A2973 1150 68 2500 290/14 RMK AO2 T02390178
04850KAOH AOH20160616132513206/16/16 13:25:31  5-MIN KAOH 161825Z AUTO 29016G21KT 10SM SCT040 SCT050 OVC065 23/18 A2973 1150 70 2400 290/16G21 RMK AO2 T02330178
04850KAOH AOH20160616133013206/16/16 13:30:31  5-MIN KAOH 161830Z AUTO 29017G23KT 10SM FEW040 BKN050 OVC065 23/17 A2973 1150 68 2400 290/17G23 RMK AO2 T02330172
04850KAOH AOH20160616133513206/16/16 13:35:31  5-MIN KAOH 161835Z AUTO 29014G23KT 10SM FEW037 BKN048 OVC060 23/17 A2973 1150 68 2400 300/14G23 RMK AO2 T02330172
04850KAOH AOH20160616134013206/16/16 13:40:31  5-MIN KAOH 161840Z AUTO 30011G20KT 10SM FEW037 BKN048 OVC070 23/18 A2973 1150 70 2400 310/11G20 RMK AO2 T02330178
04850KAOH AOH20160616134512606/16/16 13:45:31  5-MIN KAOH 161845Z AUTO 29012KT 10SM FEW033 BKN050 OVC065 24/18 A2973 1150 71 2500 300/12 RMK AO2 T02390183
04850KAOH AOH20160616135013906/16/16 13:50:31  5-MIN KAOH 161850Z AUTO 29016G20KT 10SM FEW033 BKN055 OVC070 23/18 A2973 1150 70 2400 300/16G20 RMK AO2 SLP062 T02330178
04850KAOH AOH20160616135513206/16/16 13:55:31  5-MIN KAOH 161855Z AUTO 29014G20KT 10SM FEW033 BKN055 OVC070 23/18 A2973 1150 70 2400 300/14G20 RMK AO2 T02330178
04850KAOH AOH20160616140012606/16/16 14:00:31  5-MIN KAOH 161900Z AUTO 30014KT 10SM FEW035 SCT050 OVC065 23/18 A2974 1150 70 2400 310/14 RMK AO2 T02330178
04850KAOH AOH20160616140513206/16/16 14:05:31  5-MIN KAOH 161905Z AUTO 31017G21KT 10SM SCT033 BKN050 OVC065 23/18 A2974 1150 73 2400 320/17G21 RMK AO2 T02280178
04850KAOH AOH20160616141013206/16/16 14:10:31  5-MIN KAOH 161910Z AUTO 31015G22KT 10SM FEW033 BKN042 OVC060 23/17 A2974 1140 70 2300 320/15G22 RMK AO2 T02280172
04850KAOH AOH20160616141513206/16/16 14:15:31  5-MIN KAOH 161915Z AUTO 31012G22KT 10SM FEW033 BKN045 OVC055 23/17 A2974 1140 70 2300 320/12G22 RMK AO2 T02280172
04850KAOH AOH20160616142012606/16/16 14:20:31  5-MIN KAOH 161920Z AUTO 30012KT 10SM FEW033 BKN055 OVC070 23/18 A2974 1140 73 2300 310/12 RMK AO2 T02280178
04850KAOH AOH20160616142512606/16/16 14:25:31  5-MIN KAOH 161925Z AUTO 30010KT 10SM FEW034 BKN055 OVC075 23/18 A2974 1140 70 2400 310/10 RMK AO2 T02330178
04850KAOH AOH20160616143012606/16/16 14:30:31  5-MIN KAOH 161930Z AUTO 30012KT 10SM FEW042 SCT050 OVC075 24/18 A2974 1140 71 2500 300/12 RMK AO2 T02390183
04850KAOH AOH20160616143512606/16/16 14:35:31  5-MIN KAOH 161935Z AUTO 28013KT 10SM FEW033 SCT055 OVC075 23/18 A2974 1140 73 2400 290/13 RMK AO2 T02330183
04850KAOH AOH20160616144013206/16/16 14:40:31  5-MIN KAOH 161940Z AUTO 28016G21KT 10SM FEW033 SCT055 OVC070 23/18 A2974 1140 70 2400 290/16G21 RMK AO2 T02330178
04850KAOH AOH20160616144513206/16/16 14:45:31  5-MIN KAOH 161945Z AUTO 28013G21KT 10SM SCT033 SCT043 OVC070 23/18 A2974 1150 73 2400 290/13G21 RMK AO2 T02330183
04850KAOH AOH20160616145013906/16/16 14:50:31  5-MIN KAOH 161950Z AUTO 28015G21KT 10SM BKN031 BKN039 OVC080 23/18 A2974 1140 70 2400 290/15G21 RMK AO2 SLP065 T02330178
04850KAOH AOH20160616145513206/16/16 14:55:31  5-MIN KAOH 161955Z AUTO 31017G22KT 10SM BKN031 BKN048 OVC080 23/18 A2974 1140 73 2300 310/17G22 RMK AO2 T02280178
04850KAOH AOH20160616150013206/16/16 15:00:31  5-MIN KAOH 162000Z AUTO 30011G22KT 10SM BKN031 BKN049 OVC075 23/18 A2974 1140 70 2400 300/11G22 RMK AO2 T02330178
04850KAOH AOH20160616150511906/16/16 15:05:31  5-MIN KAOH 162005Z AUTO 30011KT 10SM BKN033 OVC070 23/18 A2974 1140 70 2400 310/11 RMK AO2 T02330178
04850KAOH AOH20160616151012606/16/16 15:10:31  5-MIN KAOH 162010Z AUTO 31012KT 10SM BKN033 BKN050 OVC075 23/18 A2974 1140 70 2400 320/12 RMK AO2 T02330178
04850KAOH AOH20160616151512506/16/16 15:15:31  5-MIN KAOH 162015Z AUTO 30015G21KT 10SM BKN033 OVC075 23/18 A2974 1140 70 2400 310/15G21 RMK AO2 T02330178
04850KAOH AOH20160616152013206/16/16 15:20:31  5-MIN KAOH 162020Z AUTO 29015G21KT 10SM BKN033 BKN046 OVC075 23/18 A2975 1140 70 2400 300/15G21 RMK AO2 T02330178
04850KAOH AOH20160616152512606/16/16 15:25:31  5-MIN KAOH 162025Z AUTO 30011KT 10SM BKN033 BKN044 OVC075 23/18 A2975 1140 70 2400 310/11 RMK AO2 T02330178
04850KAOH AOH20160616153015006/16/16 15:30:31  5-MIN KAOH 162030Z AUTO 31020G26KT 10SM BKN033 BKN044 OVC075 23/18 A2975 1140 70 2400 320/20G26 RMK AO2 PK WND 31026/2027 T02330178
04850KAOH AOH20160616153515006/16/16 15:35:31  5-MIN KAOH 162035Z AUTO 31016G26KT 10SM BKN033 BKN047 OVC070 23/18 A2975 1130 70 2400 310/16G26 RMK AO2 PK WND 31026/2027 T02330178
04850KAOH AOH20160616154015006/16/16 15:40:31  5-MIN KAOH 162040Z AUTO 31019G27KT 10SM BKN033 BKN047 OVC070 23/17 A2975 1130 68 2400 320/19G27 RMK AO2 PK WND 31027/2038 T02330172
04850KAOH AOH20160616154515006/16/16 15:45:31  5-MIN KAOH 162045Z AUTO 30019G27KT 10SM SCT033 BKN047 OVC075 23/18 A2975 1130 70 2400 310/19G27 RMK AO2 PK WND 31027/2038 T02330178
04850KAOH AOH20160616155016306/16/16 15:50:31  5-MIN KAOH 162050Z AUTO 30014G23KT 10SM SCT030 BKN036 OVC070 23/18 A2976 1130 70 2400 310/14G23 RMK AO2 PK WND 31027/2038 SLP070 T02330178 50002
04850KAOH AOH20160616155515006/16/16 15:55:31  5-MIN KAOH 162055Z AUTO 30023G27KT 10SM SCT030 BKN038 OVC070 23/17 A2976 1130 70 2300 310/23G27 RMK AO2 PK WND 30027/2054 T02280172
04850KAOH AOH20160616160015006/16/16 16:00:31  5-MIN KAOH 162100Z AUTO 31020G27KT 10SM SCT030 SCT038 BKN047 23/18 A2976 1130 73 2300 310/20G27 RMK AO2 PK WND 30027/2054 T02280178
04850KAOH AOH20160616160515006/16/16 16:05:31  5-MIN KAOH 162105Z AUTO 31020G27KT 10SM FEW030 SCT038 BKN050 23/18 A2976 1130 73 2300 320/20G27 RMK AO2 PK WND 30027/2054 T02280178
04850KAOH AOH20160616161015006/16/16 16:10:31  5-MIN KAOH 162110Z AUTO 31019G27KT 10SM FEW030 BKN050 OVC070 23/18 A2976 1130 73 2300 310/19G27 RMK AO2 PK WND 30027/2054 T02280178
04850KAOH AOH20160616161515006/16/16 16:15:31  5-MIN KAOH 162115Z AUTO 31022G26KT 10SM FEW030 FEW038 OVC050 23/17 A2976 1130 70 2300 310/22G26 RMK AO2 PK WND 30027/2054 T02280172
04850KAOH AOH20160616162014306/16/16 16:20:31  5-MIN KAOH 162120Z AUTO 31019G26KT 10SM FEW038 BKN050 23/17 A2976 1120 70 2300 310/19G26 RMK AO2 PK WND 30027/2054 T02280172
04850KAOH AOH20160616162513606/16/16 16:25:31  5-MIN KAOH 162125Z AUTO 31020G25KT 10SM BKN050 23/17 A2977 1120 70 2300 310/20G25 RMK AO2 PK WND 30027/2054 T02280172
04850KAOH AOH20160616163013606/16/16 16:30:31  5-MIN KAOH 162130Z AUTO 30020G25KT 10SM OVC048 22/17 A2977 1120 73 2300 310/20G25 RMK AO2 PK WND 30027/2054 T02220172
04850KAOH AOH20160616163514306/16/16 16:35:31  5-MIN KAOH 162135Z AUTO 30019G25KT 10SM BKN041 OVC049 22/17 A2977 1120 73 2300 300/19G25 RMK AO2 PK WND 30027/2054 T02220172
04850KAOH AOH20160616164015006/16/16 16:40:31  5-MIN KAOH 162140Z AUTO 31015G24KT 10SM FEW027 BKN041 OVC049 22/17 A2977 1120 75 2200 310/15G24 RMK AO2 PK WND 30027/2054 T02170172
04850KAOH AOH20160616164515006/16/16 16:45:31  5-MIN KAOH 162145Z AUTO 30016G24KT 10SM SCT025 BKN041 OVC049 22/18 A2977 1120 78 2200 310/16G24 RMK AO2 PK WND 30027/2054 T02170178
04850KAOH AOH20160616165015706/16/16 16:50:31  5-MIN KAOH 162150Z AUTO 30019G25KT 10SM FEW025 BKN037 OVC049 22/17 A2977 1120 75 2200 310/19G25 RMK AO2 PK WND 30027/2054 SLP074 T02170172
04850KAOH AOH20160616165512506/16/16 16:55:31  5-MIN KAOH 162155Z AUTO 30019G25KT 10SM FEW025 OVC036 22/17 A2977 1120 75 2200 310/19G25 RMK AO2 T02170172
04850KAOH AOH20160616170012506/16/16 17:00:31  5-MIN KAOH 162200Z AUTO 30018G24KT 10SM FEW025 OVC034 21/17 A2977 1110 78 2100 310/18G24 RMK AO2 T02110172
04850KAOH AOH20160616170512506/16/16 17:05:31  5-MIN KAOH 162205Z AUTO 30020G24KT 10SM SCT026 OVC033 21/17 A2977 1110 78 2100 300/20G24 RMK AO2 T02110172
04850KAOH AOH20160616171012506/16/16 17:10:31  5-MIN KAOH 162210Z AUTO 30015G24KT 10SM BKN026 OVC033 21/17 A2977 1110 78 2100 300/15G24 RMK AO2 T02110172
04850KAOH AOH20160616171511906/16/16 17:15:31  5-MIN KAOH 162215Z AUTO 29016KT 10SM BKN026 OVC033 21/17 A2977 1110 78 2100 290/16 RMK AO2 T02110172
04850KAOH AOH20160616172011906/16/16 17:20:31  5-MIN KAOH 162220Z AUTO 30016KT 10SM BKN026 OVC033 21/17 A2978 1110 78 2100 300/16 RMK AO2 T02110172
04850KAOH AOH20160616172511206/16/16 17:25:31  5-MIN KAOH 162225Z AUTO 29012KT 10SM OVC024 21/17 A2978 1110 78 2100 300/12 RMK AO2 T02110172
04850KAOH AOH20160616173013606/16/16 17:30:31  5-MIN KAOH 162230Z AUTO 30016G26KT 10SM OVC024 21/17 A2978 1110 78 2100 310/16G26 RMK AO2 PK WND 31026/2228 T02110172
04850KAOH AOH20160616173513606/16/16 17:35:31  5-MIN KAOH 162235Z AUTO 30019G26KT 10SM OVC024 21/17 A2978 1110 75 2100 310/19G26 RMK AO2 PK WND 31026/2228 T02110167
04850KAOH AOH20160616174013606/16/16 17:40:31  5-MIN KAOH 162240Z AUTO 31016G23KT 10SM OVC024 21/17 A2978 1100 78 2000 320/16G23 RMK AO2 PK WND 31026/2228 T02060167
04850KAOH AOH20160616174513606/16/16 17:45:31  5-MIN KAOH 162245Z AUTO 30017G23KT 10SM OVC022 21/17 A2979 1100 78 2000 310/17G23 RMK AO2 PK WND 31026/2228 T02060167
04850KAOH AOH20160616175014306/16/16 17:50:31  5-MIN KAOH 162250Z AUTO 31017G24KT 10SM OVC022 21/17 A2979 1100 78 2000 310/17G24 RMK AO2 PK WND 31026/2228 SLP081 T02060167
04850KAOH AOH20160616175511806/16/16 17:55:31  5-MIN KAOH 162255Z AUTO 30019G24KT 10SM OVC022 20/17 A2979 1100 81 2000 300/19G24 RMK AO2 T02000167
04850KAOH AOH20160616180011806/16/16 18:00:31  5-MIN KAOH 162300Z AUTO 30019G24KT 10SM OVC022 20/17 A2979 1100 81 2000 310/19G24 RMK AO2 T02000167
04850KAOH AOH20160616180511806/16/16 18:05:31  5-MIN KAOH 162305Z AUTO 31018G25KT 10SM OVC020 20/17 A2979 1100 81 2000 320/18G25 RMK AO2 T02000167
04850KAOH AOH20160616181011806/16/16 18:10:31  5-MIN KAOH 162310Z AUTO 31017G25KT 10SM OVC020 20/17 A2979 1100 81 2000 320/17G25 RMK AO2 T02000167
04850KAOH AOH20160616181511206/16/16 18:15:31  5-MIN KAOH 162315Z AUTO 31019KT 10SM OVC020 20/17 A2980 1090 81 2000 320/19 RMK AO2 T02000167
04850KAOH AOH20160616182011206/16/16 18:20:31  5-MIN KAOH 162320Z AUTO 31018KT 10SM OVC020 20/16 A2980 1090 78 2000 320/18 RMK AO2 T02000161
04850KAOH AOH20160616182512506/16/16 18:25:31  5-MIN KAOH 162325Z AUTO 32018G25KT 10SM BKN020 OVC024 19/16 A2980 1090 81 1900 320/18G25 RMK AO2 T01940161
04850KAOH AOH20160616183011806/16/16 18:30:31  5-MIN KAOH 162330Z AUTO 32016G25KT 10SM OVC020 19/16 A2980 1090 81 1900 320/16G25 RMK AO2 T01940161
04850KAOH AOH20160616183511206/16/16 18:35:31  5-MIN KAOH 162335Z AUTO 32017KT 10SM OVC021 19/16 A2980 1090 81 1900 320/17 RMK AO2 T01940161
04850KAOH AOH20160616184011206/16/16 18:40:31  5-MIN KAOH 162340Z AUTO 32016KT 10SM OVC021 19/16 A2980 1080 81 1900 320/16 RMK AO2 T01940161
04850KAOH AOH20160616184511906/16/16 18:45:31  5-MIN KAOH 162345Z AUTO 32015KT 10SM BKN019 OVC024 19/16 A2981 1080 84 1800 330/15 RMK AO2 T01890161
04850KAOH AOH20160616185014406/16/16 18:50:31  5-MIN KAOH 162350Z AUTO 32013KT 10SM BKN017 OVC024 19/16 A2981 1080 84 1800 320/13 RMK AO2 SLP089 T01890161 10239 20189 53006
04850KAOH AOH20160616185511906/16/16 18:55:31  5-MIN KAOH 162355Z AUTO 32012KT 10SM BKN017 OVC022 19/16 A2981 1080 84 1800 320/12 RMK AO2 T01890161
04850KAOH AOH20160616190012506/16/16 19:00:31  5-MIN KAOH 170000Z AUTO 32014G21KT 10SM BKN017 OVC022 19/16 A2981 1080 84 1800 330/14G21 RMK AO2 T01890161
04850KAOH AOH20160616190511806/16/16 19:05:31  5-MIN KAOH 170005Z AUTO 32012G21KT 10SM OVC016 19/16 A2981 1080 84 1800 330/12G21 RMK AO2 T01890161
04850KAOH AOH20160616191011206/16/16 19:10:31  5-MIN KAOH 170010Z AUTO 31013KT 10SM OVC016 19/16 A2981 1080 84 1800 320/13 RMK AO2 T01890161
04850KAOH AOH20160616191511206/16/16 19:15:31  5-MIN KAOH 170015Z AUTO 32012KT 10SM OVC016 19/16 A2981 1080 84 1800 320/12 RMK AO2 T01890161
04850KAOH AOH20160616192011206/16/16 19:20:31  5-MIN KAOH 170020Z AUTO 32013KT 10SM OVC016 19/16 A2981 1080 84 1800 320/13 RMK AO2 T01890161
04850KAOH AOH20160616192511206/16/16 19:25:31  5-MIN KAOH 170025Z AUTO 31014KT 10SM OVC015 19/16 A2981 1080 84 1800 320/14 RMK AO2 T01890161
04850KAOH AOH20160616193011206/16/16 19:30:31  5-MIN KAOH 170030Z AUTO 32013KT 10SM OVC015 19/16 A2981 1080 84 1800 330/13 RMK AO2 T01890161
04850KAOH AOH20160616193511206/16/16 19:35:31  5-MIN KAOH 170035Z AUTO 30010KT 10SM OVC015 19/16 A2981 1080 84 1800 310/10 RMK AO2 T01890161
04850KAOH AOH20160616194011206/16/16 19:40:31  5-MIN KAOH 170040Z AUTO 32012KT 10SM OVC015 19/16 A2981 1080 84 1800 320/12 RMK AO2 T01890161
04850KAOH AOH20160616194511206/16/16 19:45:31  5-MIN KAOH 170045Z AUTO 32014KT 10SM OVC015 19/16 A2981 1080 84 1800 320/14 RMK AO2 T01890161
04850KAOH AOH20160616195011906/16/16 19:50:31  5-MIN KAOH 170050Z AUTO 32010KT 10SM OVC015 18/16 A2981 1080 87 1800 330/10 RMK AO2 SLP090 T01830161
04850KAOH AOH20160616195511206/16/16 19:55:31  5-MIN KAOH 170055Z AUTO 31013KT 10SM OVC014 18/16 A2981 1080 87 1800 320/13 RMK AO2 T01830161
04850KAOH AOH20160616200011206/16/16 20:00:31  5-MIN KAOH 170100Z AUTO 32011KT 10SM OVC014 18/16 A2981 1080 87 1800 320/11 RMK AO2 T01830161
04850KAOH AOH20160616200511206/16/16 20:05:31  5-MIN KAOH 170105Z AUTO 31010KT 10SM OVC014 18/16 A2982 1070 87 1800 320/10 RMK AO2 T01830161
04850KAOH AOH20160616201011206/16/16 20:10:31  5-MIN KAOH 170110Z AUTO 31013KT 10SM OVC014 19/16 A2982 1070 81 1900 320/13 RMK AO2 T01940161
04850KAOH AOH20160616201511206/16/16 20:15:31  5-MIN KAOH 170115Z AUTO 32011KT 10SM OVC014 18/16 A2982 1070 87 1800 330/11 RMK AO2 T01830161
04850KAOH AOH20160616202011206/16/16 20:20:31  5-MIN KAOH 170120Z AUTO 32011KT 10SM OVC013 18/16 A2982 1070 87 1800 330/11 RMK AO2 T01830161
04850KAOH AOH20160616202511206/16/16 20:25:31  5-MIN KAOH 170125Z AUTO 32012KT 10SM OVC013 18/16 A2982 1070 87 1700 330/12 RMK AO2 T01830161
04850KAOH AOH20160616203011206/16/16 20:30:31  5-MIN KAOH 170130Z AUTO 33011KT 10SM OVC011 18/17 A2982 1070 90 1700 330/11 RMK AO2 T01830167
04850KAOH AOH20160616203513006/16/16 20:35:31  5-MIN KAOH 170135Z AUTO 32012KT 5SM -RA BR OVC011 18/17 A2983 1060 93 1700 320/12 RMK AO2 RAB33 P0000 T01780167
04850KAOH AOH20160616204013006/16/16 20:40:31  5-MIN KAOH 170140Z AUTO 31011KT 4SM -RA BR OVC011 18/17 A2983 1060 93 1700 320/11 RMK AO2 RAB33 P0000 T01780167
04850KAOH AOH20160616204514206/16/16 20:45:31  5-MIN KAOH 170145Z AUTO 32009KT 4SM -RA BR OVC009 18/17 A2983 1060 93 1700 320/09 RMK AO2 RAB33 CIG 006V012 P0000 T01780167
04850KAOH AOH20160616205013206/16/16 20:50:31  5-MIN KAOH 170150Z AUTO 31009KT 5SM -RA BR OVC009 18/17 A2983 1060 96 1700 310/09 RMK AO2 RAB33 CIG 006V012 P0000
04850KAOH AOH20160616205513306/16/16 20:55:31  5-MIN KAOH 170155Z AUTO 31010KT 5SM BR BKN009 OVC012 18/17 A2983 1060 96 1700 310/10 RMK AO2 CIG 006V010 T01780172
04850KAOH AOH20160616210012706/16/16 21:00:31  5-MIN KAOH 170200Z AUTO 31010KT 5SM BR OVC007 17/17 A2983 1060 100 1600 320/10 RMK AO2 CIG 005V010 T01720172
04850KAOH AOH20160616210512606/16/16 21:05:31  5-MIN KAOH 170205Z AUTO 31010KT 6SM BR OVC007 18/17 A2983 1060 96 1700 320/10 RMK AO2 CIG 005V009 T01780172
04850KAOH AOH20160616211011506/16/16 21:10:31  5-MIN KAOH 170210Z AUTO 32009KT 6SM BR OVC007 17/17 A2983 1060 100 1600 320/09 RMK AO2 T01720172
04850KAOH AOH20160616211511406/16/16 21:15:31  5-MIN KAOH 170215Z AUTO 31009KT 6SM BR OVC007 18/17 A2983 1060 96 1700 320/09 RMK AO2 T01780172
04850KAOH AOH20160616212013006/16/16 21:20:31  5-MIN KAOH 170220Z AUTO 31009KT 5SM -RA BR OVC007 18/17 A2983 1060 96 1700 320/09 RMK AO2 RAB16 P0000 T01780172
04850KAOH AOH20160616212514206/16/16 21:25:31  5-MIN KAOH 170225Z AUTO 31010KT 4SM -RA BR OVC006 18/17 A2983 1060 96 1700 310/10 RMK AO2 RAB16 CIG 005V010 P0000 T01780172
04850KAOH AOH20160616213013106/16/16 21:30:31  5-MIN KAOH 170230Z AUTO 32010KT 4SM -RA BR OVC006 17/17 A2983 1060 100 1600 330/10 RMK AO2 RAB16 P0000 T01720172
04850KAOH AOH20160616213513006/16/16 21:35:31  5-MIN KAOH 170235Z AUTO 32010KT 5SM BR OVC006 17/17 A2983 1060 100 1600 320/10 RMK AO2 RAB16E34 P0000 T01720172
04850KAOH AOH20160616214012906/16/16 21:40:31  5-MIN KAOH 170240Z AUTO 31009KT 5SM BR OVC006 18/17 A2983 1060 96 1700 310/09 RMK AO2 RAB16E34 P0000 T01780172
04850KAOH AOH20160616214513006/16/16 21:45:31  5-MIN KAOH 170245Z AUTO 32009KT 4SM -RA BR OVC006 18/17 A2984 1050 96 1700 320/09 RMK AO2 RAB16 P0000 T01780172
04850KAOH AOH20160616215014906/16/16 21:50:31  5-MIN KAOH 170250Z AUTO 31010KT 3SM -RA BR OVC006 18/17 A2984 1050 96 1700 320/10 RMK AO2 RAB16 SLP098 P0000 60000 T01780172 53018
04850KAOH AOH20160616215512406/16/16 21:55:31  5-MIN KAOH 170255Z AUTO 32009KT 3SM -RA BR OVC006 18/17 A2984 1050 96 1700 330/09 RMK AO2 P0000 T01780172
04850KAOH AOH20160616220012506/16/16 22:00:31  5-MIN KAOH 170300Z AUTO 31010KT 3SM -RA BR OVC006 17/17 A2984 1050 100 1600 320/10 RMK AO2 P0000 T01720172
04850KAOH AOH20160616220512506/16/16 22:05:31  5-MIN KAOH 170305Z AUTO 31009KT 4SM -RA BR OVC006 17/17 A2985 1050 100 1600 320/09 RMK AO2 P0000 T01720172
04850KAOH AOH20160616221012406/16/16 22:10:31  5-MIN KAOH 170310Z AUTO 32010KT 5SM -RA BR OVC006 18/17 A2985 1050 96 1700 330/10 RMK AO2 P0000 T01780172
04850KAOH AOH20160616221512406/16/16 22:15:31  5-MIN KAOH 170315Z AUTO 31010KT 4SM -RA BR OVC006 18/17 A2985 1050 96 1700 320/10 RMK AO2 P0000 T01780172
04850KAOH AOH20160616222013606/16/16 22:20:31  5-MIN KAOH 170320Z AUTO 32010KT 3SM -RA BR OVC006 18/17 A2985 1050 96 1700 320/10 RMK AO2 CIG 004V009 P0000 T01780172
04850KAOH AOH20160616222513606/16/16 22:25:31  5-MIN KAOH 170325Z AUTO 32008KT 4SM -RA BR OVC006 18/17 A2985 1040 96 1700 320/08 RMK AO2 CIG 004V009 P0000 T01780172
04850KAOH AOH20160616223013806/16/16 22:30:31  5-MIN KAOH 170330Z AUTO 32009KT 6SM BR OVC006 18/17 A2985 1050 96 1700 330/09 RMK AO2 RAE26 CIG 004V010 P0000 T01780172
04850KAOH AOH20160616223513506/16/16 22:35:31  5-MIN KAOH 170335Z AUTO 32010KT 7SM OVC008 18/17 A2985 1050 96 1700 320/10 RMK AO2 RAE26 CIG 004V010 P0000 T01780172
04850KAOH AOH20160616224013506/16/16 22:40:31  5-MIN KAOH 170340Z AUTO 32009KT 8SM OVC008 18/17 A2984 1050 96 1700 320/09 RMK AO2 RAE26 CIG 005V013 P0000 T01780172
04850KAOH AOH20160616224514206/16/16 22:45:31  5-MIN KAOH 170345Z AUTO 32009KT 8SM BKN008 OVC013 18/17 A2984 1050 96 1700 330/09 RMK AO2 RAE26 CIG 005V011 P0000 T01780172
04850KAOH AOH20160616225013906/16/16 22:50:31  5-MIN KAOH 170350Z AUTO 32009KT 7SM -RA BKN010 OVC013 18/17 A2985 1050 96 1700 330/09 RMK AO2 RAE26B50 CIG 007V011 P0000
04850KAOH AOH20160616225513606/16/16 22:55:31  5-MIN KAOH 170355Z AUTO 33008KT 6SM -RA BR OVC010 18/17 A2985 1040 96 1700 330/08 RMK AO2 CIG 007V011 P0000 T01780172
04850KAOH AOH20160616230014006/16/16 23:00:31  5-MIN KAOH 170400Z AUTO 32010KT 7SM -RA BKN009 OVC020 18/17 A2985 1040 96 1600 320/10 RMK AO2 CIG 007V014 P0000 T01780172
04850KAOH AOH20160616230514306/16/16 23:05:31  5-MIN KAOH 170405Z AUTO 30011KT 6SM -RA BR BKN009 OVC020 18/17 A2985 1040 96 1600 310/11 RMK AO2 CIG 007V014 P0000 T01780172
04850KAOH AOH20160616231014306/16/16 23:10:31  5-MIN KAOH 170410Z AUTO 31009KT 5SM -RA BR BKN009 OVC022 18/17 A2985 1050 96 1700 320/09 RMK AO2 CIG 007V013 P0001 T01780172
04850KAOH AOH20160616231514306/16/16 23:15:31  5-MIN KAOH 170415Z AUTO 32009KT 6SM -RA BR BKN010 OVC022 18/17 A2985 1040 96 1700 330/09 RMK AO2 CIG 007V012 P0001 T01780172
04850KAOH AOH20160616232014206/16/16 23:20:31  5-MIN KAOH 170420Z AUTO 32008KT 8SM BKN010 OVC022 18/17 A2985 1050 96 1700 320/08 RMK AO2 RAE19 CIG 007V014 P0001 T01780172
04850KAOH AOH20160616232513706/16/16 23:25:31  5-MIN KAOH 170425Z AUTO 31008KT 9SM FEW008 BKN012 OVC021 18/17 A2985 1050 96 1700 320/08 RMK AO2 RAE19 P0001 T01780172
04850KAOH AOH20160616233013706/16/16 23:30:31  5-MIN KAOH 170430Z AUTO 32008KT 8SM FEW008 SCT012 OVC021 18/17 A2985 1040 96 1700 330/08 RMK AO2 RAE19 P0001 T01780172
04850KAOH AOH20160616233513806/16/16 23:35:31  5-MIN KAOH 170435Z AUTO 32007KT 8SM FEW008 SCT012 OVC021 18/18 A2985 1040 100 1700 330/07 RMK AO2 RAE19 P0001 T01780178
04850KAOH AOH20160616234013706/16/16 23:40:31  5-MIN KAOH 170440Z AUTO 33008KT 9SM FEW012 BKN021 OVC027 18/18 A2985 1050 96 1700 330/08 RMK AO2 RAE19 P0001 T01830178
04850KAOH AOH20160616234513006/16/16 23:45:31  5-MIN KAOH 170445Z AUTO 33010KT 9SM FEW012 OVC023 18/17 A2985 1040 93 1700 330/10 RMK AO2 RAE19 P0001 T01830172
04850KAOH AOH20160616235014106/16/16 23:50:31  5-MIN KAOH 170450Z AUTO 33009KT 10SM OVC023 18/17 A2985 1040 93 1700 340/09 RMK AO2 RAE19 SLP101 P0001 T01830172 402560172
04850KAOH AOH20160616235511206/16/16 23:55:31  5-MIN KAOH 170455Z AUTO 33009KT 10SM OVC023 18/17 A2985 1040 93 1700 340/09 RMK AO2 T01830172
04850KAOH AOH20160617000011206/17/16 00:00:31  5-MIN KAOH 170500Z AUTO 33009KT 10SM OVC023 18/17 A2985 1040 93 1700 340/09 RMK AO2 T01830172
04850KAOH AOH20160617000511906/17/16 00:05:31  5-MIN KAOH 170505Z AUTO 32010KT 10SM BKN023 BKN060 18/17 A2985 1040 93 1700 330/10 RMK AO2 T01830172
04850KAOH AOH20160617001011906/17/16 00:10:31  5-MIN KAOH 170510Z AUTO 33008KT 10SM BKN023 BKN060 18/17 A2985 1040 93 1700 340/08 RMK AO2 T01830172
04850KAOH AOH20160617001511206/17/16 00:15:31  5-MIN KAOH 170515Z AUTO 33008KT 10SM BKN025 18/17 A2985 1040 93 1700 340/08 RMK AO2 T01830172
04850KAOH AOH20160617002011906/17/16 00:20:31  5-MIN KAOH 170520Z AUTO 34009KT 10SM BKN025 BKN065 18/17 A2985 1040 93 1700 340/09 RMK AO2 T01830172
04850KAOH AOH20160617002511906/17/16 00:25:31  5-MIN KAOH 170525Z AUTO 34009KT 10SM SCT025 BKN065 18/17 A2985 1040 93 1700 340/09 RMK AO2 T01830172
04850KAOH AOH20160617003011906/17/16 00:30:31  5-MIN KAOH 170530Z AUTO 34009KT 10SM SCT027 BKN070 18/17 A2986 1040 93 1700 340/09 RMK AO2 T01830172
04850KAOH AOH20160617003511906/17/16 00:35:31  5-MIN KAOH 170535Z AUTO 34008KT 10SM BKN029 OVC065 18/17 A2986 1040 93 1700 340/08 RMK AO2 T01830172
04850KAOH AOH20160617004012606/17/16 00:40:31  5-MIN KAOH 170540Z AUTO 34009KT 10SM BKN029 BKN034 OVC065 18/17 A2986 1040 93 1700 340/09 RMK AO2 T01830172
04850KAOH AOH20160617004511906/17/16 00:45:31  5-MIN KAOH 170545Z AUTO 34010KT 10SM BKN031 OVC065 18/17 A2986 1040 93 1700 340/10 RMK AO2 T01830172
04850KAOH AOH20160617005015006/17/16 00:50:31  5-MIN KAOH 170550Z AUTO 34009KT 10SM BKN031 OVC070 18/17 A2986 1040 93 1700 340/09 RMK AO2 SLP104 60001 T01830172 10194 20172 53005
04850KAOH AOH20160617005511206/17/16 00:55:31  5-MIN KAOH 170555Z AUTO 33009KT 10SM OVC031 18/17 A2986 1030 93 1700 340/09 RMK AO2 T01830172
04850KAOH AOH20160617010011206/17/16 01:00:31  5-MIN KAOH 170600Z AUTO 34009KT 10SM OVC031 18/17 A2986 1030 93 1700 340/09 RMK AO2 T01830172
04850KAOH AOH20160617010511206/17/16 01:05:31  5-MIN KAOH 170605Z AUTO 33009KT 10SM OVC031 18/17 A2986 1040 93 1700 340/09 RMK AO2 T01830172
04850KAOH AOH20160617011011206/17/16 01:10:31  5-MIN KAOH 170610Z AUTO 34007KT 10SM BKN031 18/17 A2986 1030 93 1700 350/07 RMK AO2 T01830172
04850KAOH AOH20160617011511206/17/16 01:15:31  5-MIN KAOH 170615Z AUTO 34008KT 10SM BKN031 18/17 A2986 1030 93 1700 350/08 RMK AO2 T01830172
04850KAOH AOH20160617012011206/17/16 01:20:31  5-MIN KAOH 170620Z AUTO 34007KT 10SM SCT031 18/17 A2986 1030 93 1700 340/07 RMK AO2 T01830172
04850KAOH AOH20160617012511206/17/16 01:25:31  5-MIN KAOH 170625Z AUTO 34008KT 10SM FEW032 18/17 A2986 1030 93 1700 350/08 RMK AO2 T01830172
04850KAOH AOH20160617013011206/17/16 01:30:31  5-MIN KAOH 170630Z AUTO 35008KT 10SM FEW030 18/17 A2986 1030 96 1600 360/08 RMK AO2 T01780172
04850KAOH AOH20160617013511206/17/16 01:35:31  5-MIN KAOH 170635Z AUTO 34007KT 10SM FEW034 18/17 A2986 1030 96 1600 350/07 RMK AO2 T01780172
04850KAOH AOH20160617014011206/17/16 01:40:31  5-MIN KAOH 170640Z AUTO 34008KT 10SM FEW034 18/17 A2986 1030 93 1600 350/08 RMK AO2 T01780167
04850KAOH AOH20160617014511206/17/16 01:45:31  5-MIN KAOH 170645Z AUTO 35008KT 10SM FEW034 18/17 A2987 1030 93 1600 350/08 RMK AO2 T01780167
04850KAOH AOH20160617015011906/17/16 01:50:31  5-MIN KAOH 170650Z AUTO 35009KT 10SM FEW034 18/17 A2986 1030 93 1600 350/09 RMK AO2 SLP108 T01780167
04850KAOH AOH20160617015511206/17/16 01:55:31  5-MIN KAOH 170655Z AUTO 35010KT 10SM FEW034 18/17 A2987 1030 93 1600 360/10 RMK AO2 T01780167
04850KAOH AOH20160617020011206/17/16 02:00:31  5-MIN KAOH 170700Z AUTO 36009KT 10SM FEW034 18/17 A2986 1030 93 1600 360/09 RMK AO2 T01780167
04850KAOH AOH20160617020510906/17/16 02:05:31  5-MIN KAOH 170705Z AUTO 36008KT 10SM CLR 18/17 A2986 1030 93 1600 360/08 RMK AO2 T01780167
04850KAOH AOH20160617021010906/17/16 02:10:31  5-MIN KAOH 170710Z AUTO 36008KT 10SM CLR 18/16 A2986 1030 90 1600 360/08 RMK AO2 T01780161
04850KAOH AOH20160617021510906/17/16 02:15:31  5-MIN KAOH 170715Z AUTO 35008KT 10SM CLR 18/16 A2986 1030 90 1600 360/08 RMK AO2 T01780161
04850KAOH AOH20160617022010906/17/16 02:20:31  5-MIN KAOH 170720Z AUTO 35009KT 10SM CLR 18/16 A2986 1030 90 1600 360/09 RMK AO2 T01780161
04850KAOH AOH20160617022510906/17/16 02:25:31  5-MIN KAOH 170725Z AUTO 35010KT 10SM CLR 18/16 A2986 1030 90 1600 360/10 RMK AO2 T01780161
04850KAOH AOH20160617023010906/17/16 02:30:31  5-MIN KAOH 170730Z AUTO 35007KT 10SM CLR 18/16 A2986 1030 90 1600 350/07 RMK AO2 T01780161
04850KAOH AOH20160617023510906/17/16 02:35:31  5-MIN KAOH 170735Z AUTO 35008KT 10SM CLR 18/16 A2986 1030 90 1600 360/08 RMK AO2 T01780161
04850KAOH AOH20160617024010906/17/16 02:40:31  5-MIN KAOH 170740Z AUTO 36008KT 10SM CLR 18/16 A2987 1030 90 1600 010/08 RMK AO2 T01780161
04850KAOH AOH20160617024510906/17/16 02:45:31  5-MIN KAOH 170745Z AUTO 35009KT 10SM CLR 17/16 A2987 1030 93 1600 360/09 RMK AO2 T01720161
04850KAOH AOH20160617025011606/17/16 02:50:31  5-MIN KAOH 170750Z AUTO 34007KT 10SM CLR 18/16 A2987 1030 90 1600 350/07 RMK AO2 SLP108 T01780161
04850KAOH AOH20160617025510906/17/16 02:55:31  5-MIN KAOH 170755Z AUTO 35008KT 10SM CLR 18/16 A2987 1030 90 1600 350/08 RMK AO2 T01780161
04850KAOH AOH20160617030010906/17/16 03:00:31  5-MIN KAOH 170800Z AUTO 35008KT 10SM CLR 18/16 A2986 1030 87 1600 360/08 RMK AO2 T01780156
04850KAOH AOH20160617030510906/17/16 03:05:31  5-MIN KAOH 170805Z AUTO 35009KT 10SM CLR 17/16 A2986 1030 90 1600 360/09 RMK AO2 T01720156
04850KAOH AOH20160617031010906/17/16 03:10:31  5-MIN KAOH 170810Z AUTO 35007KT 10SM CLR 17/16 A2986 1030 90 1600 360/07 RMK AO2 T01720156
04850KAOH AOH20160617031510906/17/16 03:15:31  5-MIN KAOH 170815Z AUTO 35009KT 10SM CLR 17/16 A2987 1030 90 1600 360/09 RMK AO2 T01720156
04850KAOH AOH20160617032010906/17/16 03:20:31  5-MIN KAOH 170820Z AUTO 35008KT 10SM CLR 17/16 A2987 1020 90 1600 350/08 RMK AO2 T01720156
04850KAOH AOH20160617032510906/17/16 03:25:31  5-MIN KAOH 170825Z AUTO 35007KT 10SM CLR 17/16 A2987 1020 90 1600 360/07 RMK AO2 T01720156
04850KAOH AOH20160617033010906/17/16 03:30:31  5-MIN KAOH 170830Z AUTO 35008KT 10SM CLR 17/16 A2987 1020 90 1600 350/08 RMK AO2 T01720156
04850KAOH AOH20160617033510906/17/16 03:35:31  5-MIN KAOH 170835Z AUTO 35008KT 10SM CLR 17/16 A2987 1020 90 1600 360/08 RMK AO2 T01720156
04850KAOH AOH20160617034010906/17/16 03:40:31  5-MIN KAOH 170840Z AUTO 35007KT 10SM CLR 17/16 A2987 1020 90 1600 350/07 RMK AO2 T01720156
04850KAOH AOH20160617034510906/17/16 03:45:31  5-MIN KAOH 170845Z AUTO 35008KT 10SM CLR 17/16 A2988 1020 90 1600 350/08 RMK AO2 T01720156
04850KAOH AOH20160617035012206/17/16 03:50:31  5-MIN KAOH 170850Z AUTO 36007KT 10SM CLR 17/16 A2988 1020 90 1600 360/07 RMK AO2 SLP112 T01720156 51004
04850KAOH AOH20160617035510906/17/16 03:55:31  5-MIN KAOH 170855Z AUTO 35008KT 10SM CLR 17/16 A2988 1010 90 1600 360/08 RMK AO2 T01720156
04850KAOH AOH20160617040011206/17/16 04:00:31  5-MIN KAOH 170900Z AUTO 35009KT 10SM FEW019 17/16 A2988 1010 90 1500 360/09 RMK AO2 T01720156
04850KAOH AOH20160617040511206/17/16 04:05:31  5-MIN KAOH 170905Z AUTO 35008KT 10SM FEW019 17/15 A2989 1010 87 1500 360/08 RMK AO2 T01720150
04850KAOH AOH20160617041011206/17/16 04:10:31  5-MIN KAOH 170910Z AUTO 35009KT 10SM FEW019 17/15 A2988 1010 87 1500 360/09 RMK AO2 T01720150
04850KAOH AOH20160617041510906/17/16 04:15:31  5-MIN KAOH 170915Z AUTO 36010KT 10SM CLR 17/15 A2989 1010 87 1500 360/10 RMK AO2 T01720150
04850KAOH AOH20160617042010906/17/16 04:20:31  5-MIN KAOH 170920Z AUTO 36010KT 10SM CLR 17/15 A2989 1010 87 1500 360/10 RMK AO2 T01720150
04850KAOH AOH20160617042510906/17/16 04:25:31  5-MIN KAOH 170925Z AUTO 36009KT 10SM CLR 17/15 A2989 1000 87 1500 360/09 RMK AO2 T01720150
04850KAOH AOH20160617043010906/17/16 04:30:31  5-MIN KAOH 170930Z AUTO 36009KT 10SM CLR 17/15 A2989 1000 87 1500 360/09 RMK AO2 T01720150
04850KAOH AOH20160617043510906/17/16 04:35:31  5-MIN KAOH 170935Z AUTO 35009KT 10SM CLR 17/15 A2989 1000 87 1500 360/09 RMK AO2 T01720150
04850KAOH AOH20160617044010906/17/16 04:40:31  5-MIN KAOH 170940Z AUTO 36007KT 10SM CLR 17/15 A2990 1000 87 1500 010/07 RMK AO2 T01720150
04850KAOH AOH20160617044510906/17/16 04:45:31  5-MIN KAOH 170945Z AUTO 01009KT 10SM CLR 17/15 A2990 1000 87 1500 020/09 RMK AO2 T01720150
04850KAOH AOH20160617045011606/17/16 04:50:31  5-MIN KAOH 170950Z AUTO 36009KT 10SM CLR 17/15 A2990 1000 87 1500 010/09 RMK AO2 SLP120 T01720150
04850KAOH AOH20160617045510906/17/16 04:55:31  5-MIN KAOH 170955Z AUTO 36009KT 10SM CLR 17/15 A2990 1000 90 1500 010/09 RMK AO2 T01670150
04850KAOH AOH20160617050010806/17/16 05:00:31  5-MIN KAOH 171000Z AUTO 36009KT 10SM CLR 17/15 A2991 990 87 1500 360/09 RMK AO2 T01720150
04850KAOH AOH20160617050510806/17/16 05:05:31  5-MIN KAOH 171005Z AUTO 36008KT 10SM CLR 17/15 A2991 990 90 1500 010/08 RMK AO2 T01670150
04850KAOH AOH20160617051010806/17/16 05:10:31  5-MIN KAOH 171010Z AUTO 36007KT 10SM CLR 17/15 A2991 990 90 1500 010/07 RMK AO2 T01670150
04850KAOH AOH20160617051510806/17/16 05:15:31  5-MIN KAOH 171015Z AUTO 36008KT 10SM CLR 17/15 A2991 990 90 1500 010/08 RMK AO2 T01670150
04850KAOH AOH20160617052010806/17/16 05:20:31  5-MIN KAOH 171020Z AUTO 36008KT 10SM CLR 17/14 A2991 980 86 1400 360/08 RMK AO2 T01670144
04850KAOH AOH20160617052510806/17/16 05:25:31  5-MIN KAOH 171025Z AUTO 36008KT 10SM CLR 17/14 A2992 980 86 1400 010/08 RMK AO2 T01670144
04850KAOH AOH20160617153010806/17/16 15:30:31  5-MIN KAOH 172030Z AUTO 06011KT 10SM CLR 28/07 A3002 890 25 2700 060/11 RMK AO2 T02830067
04850KAOH AOH20160617153510806/17/16 15:35:31  5-MIN KAOH 172035Z AUTO 08012KT 10SM CLR 28/08 A3002 890 27 2700 080/12 RMK AO2 T02830078
04850KAOH AOH20160617154011406/17/16 15:40:31  5-MIN KAOH 172040Z AUTO 07015G21KT 10SM CLR 28/08 A3002 890 28 2700 080/15G21 RMK AO2 T02830083
04850KAOH AOH20160617154511406/17/16 15:45:31  5-MIN KAOH 172045Z AUTO 05014G21KT 10SM CLR 28/07 A3002 890 25 2700 060/14G21 RMK AO2 T02830067
04850KAOH AOH20160617155012706/17/16 15:50:31  5-MIN KAOH 172050Z AUTO 05013G20KT 10SM CLR 28/07 A3002 890 26 2600 060/13G20 RMK AO2 SLP158 T02780067 51007
04850KAOH AOH20160617155510806/17/16 15:55:31  5-MIN KAOH 172055Z AUTO 04013KT 10SM CLR 28/07 A3002 890 26 2700 050/13 RMK AO2 T02830072
04850KAOH AOH20160617160011406/17/16 16:00:31  5-MIN KAOH 172100Z AUTO 05015G21KT 10SM CLR 28/06 A3002 890 25 2600 060/15G21 RMK AO2 T02780061
04850KAOH AOH20160617160511406/17/16 16:05:31  5-MIN KAOH 172105Z AUTO 06013G21KT 10SM CLR 28/06 A3002 890 25 2600 060/13G21 RMK AO2 T02780061
04850KAOH AOH20160617161011406/17/16 16:10:31  5-MIN KAOH 172110Z AUTO 04009G18KT 10SM CLR 28/08 A3002 890 28 2600 050/09G18 RMK AO2 T02780078
04850KAOH AOH20160617161511406/17/16 16:15:31  5-MIN KAOH 172115Z AUTO 04014G24KT 10SM CLR 28/07 A3002 890 26 2600 050/14G24 RMK AO2 T02780067
04850KAOH AOH20160617162011406/17/16 16:20:31  5-MIN KAOH 172120Z AUTO 06015G24KT 10SM CLR 28/07 A3002 880 26 2600 060/15G24 RMK AO2 T02780067
04850KAOH AOH20160617162511406/17/16 16:25:31  5-MIN KAOH 172125Z AUTO 04013G21KT 10SM CLR 28/06 A3002 880 25 2600 050/13G21 RMK AO2 T02780061
04850KAOH AOH20160617163011406/17/16 16:30:31  5-MIN KAOH 172130Z AUTO 05011G21KT 10SM CLR 28/07 A3003 880 27 2600 060/11G21 RMK AO2 T02780072
04850KAOH AOH20160617163510806/17/16 16:35:31  5-MIN KAOH 172135Z AUTO 05015KT 10SM CLR 28/07 A3003 880 27 2600 050/15 RMK AO2 T02780072
04850KAOH AOH20160617164010806/17/16 16:40:31  5-MIN KAOH 172140Z AUTO 06013KT 10SM CLR 28/07 A3003 880 27 2600 060/13 RMK AO2 T02780072
04850KAOH AOH20160617164511406/17/16 16:45:31  5-MIN KAOH 172145Z AUTO 04016G22KT 10SM CLR 28/07 A3003 880 26 2600 040/16G22 RMK AO2 T02780067
04850KAOH AOH20160617165012106/17/16 16:50:31  5-MIN KAOH 172150Z AUTO 05012G22KT 10SM CLR 28/08 A3003 880 28 2600 050/12G22 RMK AO2 SLP161 T02780078
04850KAOH AOH20160617165511406/17/16 16:55:31  5-MIN KAOH 172155Z AUTO 06015G20KT 10SM CLR 28/07 A3003 880 26 2600 070/15G20 RMK AO2 T02780067
04850KAOH AOH20160617170011406/17/16 17:00:31  5-MIN KAOH 172200Z AUTO 05011G20KT 10SM CLR 28/06 A3003 880 25 2600 060/11G20 RMK AO2 T02780061
04850KAOH AOH20160617170510806/17/16 17:05:31  5-MIN KAOH 172205Z AUTO 05013KT 10SM CLR 28/07 A3003 870 26 2600 060/13 RMK AO2 T02780067
04850KAOH AOH20160617171010806/17/16 17:10:31  5-MIN KAOH 172210Z AUTO 03012KT 10SM CLR 28/07 A3003 870 26 2600 040/12 RMK AO2 T02780067
04850KAOH AOH20160617171511406/17/16 17:15:31  5-MIN KAOH 172215Z AUTO 04011G21KT 10SM CLR 28/07 A3004 870 27 2600 050/11G21 RMK AO2 T02780072
04850KAOH AOH20160617172011406/17/16 17:20:31  5-MIN KAOH 172220Z AUTO 04013G21KT 10SM CLR 28/07 A3004 870 27 2600 050/13G21 RMK AO2 T02780072
04850KAOH AOH20160617172511406/17/16 17:25:31  5-MIN KAOH 172225Z AUTO 04013G20KT 10SM CLR 28/07 A3004 870 26 2600 040/13G20 RMK AO2 T02780067
04850KAOH AOH20160617173011406/17/16 17:30:31  5-MIN KAOH 172230Z AUTO 05011G20KT 10SM CLR 27/07 A3004 870 26 2500 060/11G20 RMK AO2 T02720067
04850KAOH AOH20160617173511406/17/16 17:35:31  5-MIN KAOH 172235Z AUTO 04013G20KT 10SM CLR 27/07 A3004 870 26 2500 040/13G20 RMK AO2 T02720067
04850KAOH AOH20160617174010806/17/16 17:40:31  5-MIN KAOH 172240Z AUTO 04013KT 10SM CLR 27/07 A3004 860 26 2500 050/13 RMK AO2 T02720067
04850KAOH AOH20160617174510806/17/16 17:45:31  5-MIN KAOH 172245Z AUTO 04015KT 10SM CLR 27/06 A3004 860 25 2500 050/15 RMK AO2 T02720061
04850KAOH AOH20160617175011506/17/16 17:50:31  5-MIN KAOH 172250Z AUTO 03014KT 10SM CLR 27/07 A3004 860 26 2500 040/14 RMK AO2 SLP167 T02720067
04850KAOH AOH20160617175511406/17/16 17:55:31  5-MIN KAOH 172255Z AUTO 04012G20KT 10SM CLR 27/06 A3004 860 26 2400 050/12G20 RMK AO2 T02670061
04850KAOH AOH20160617180011406/17/16 18:00:31  5-MIN KAOH 172300Z AUTO 04017G25KT 10SM CLR 27/06 A3005 860 26 2400 040/17G25 RMK AO2 T02670061
04850KAOH AOH20160617180511406/17/16 18:05:31  5-MIN KAOH 172305Z AUTO 04011G25KT 10SM CLR 27/06 A3005 860 26 2400 050/11G25 RMK AO2 T02670061
04850KAOH AOH20160617181011406/17/16 18:10:31  5-MIN KAOH 172310Z AUTO 04013G20KT 10SM CLR 27/07 A3005 860 27 2400 050/13G20 RMK AO2 T02670067
04850KAOH AOH20160617181510806/17/16 18:15:31  5-MIN KAOH 172315Z AUTO 05011KT 10SM CLR 27/07 A3005 860 28 2400 060/11 RMK AO2 T02670072
04850KAOH AOH20160617182010806/17/16 18:20:31  5-MIN KAOH 172320Z AUTO 05010KT 10SM CLR 27/07 A3006 850 27 2400 050/10 RMK AO2 T02670067
04850KAOH AOH20160617182511406/17/16 18:25:31  5-MIN KAOH 172325Z AUTO 04011G18KT 10SM CLR 27/07 A3006 850 28 2400 050/11G18 RMK AO2 T02670072
04850KAOH AOH20160617183011406/17/16 18:30:31  5-MIN KAOH 172330Z AUTO 04014G20KT 10SM CLR 27/07 A3006 850 28 2400 040/14G20 RMK AO2 T02670072
04850KAOH AOH20160617183511406/17/16 18:35:31  5-MIN KAOH 172335Z AUTO 05013G20KT 10SM CLR 26/07 A3006 850 28 2400 050/13G20 RMK AO2 T02610067
04850KAOH AOH20160617184010806/17/16 18:40:31  5-MIN KAOH 172340Z AUTO 05013KT 10SM CLR 26/06 A3006 850 27 2400 050/13 RMK AO2 T02610061
04850KAOH AOH20160617184510806/17/16 18:45:31  5-MIN KAOH 172345Z AUTO 05011KT 10SM CLR 26/06 A3006 850 27 2400 050/11 RMK AO2 T02610061
04850KAOH AOH20160617185013906/17/16 18:50:31  5-MIN KAOH 172350Z AUTO 05011G20KT 10SM CLR 26/06 A3006 850 27 2400 050/11G20 RMK AO2 SLP173 T02610061 10283 20261 58000
04850KAOH AOH20160617185511406/17/16 18:55:31  5-MIN KAOH 172355Z AUTO 05012G20KT 10SM CLR 26/06 A3006 850 27 2400 050/12G20 RMK AO2 T02610061
04850KAOH AOH20160617190010806/17/16 19:00:31  5-MIN KAOH 180000Z AUTO 05009KT 10SM CLR 26/07 A3007 840 30 2300 060/09 RMK AO2 T02560072
04850KAOH AOH20160617190510806/17/16 19:05:31  5-MIN KAOH 180005Z AUTO 05011KT 10SM CLR 26/07 A3007 840 29 2300 060/11 RMK AO2 T02560067
04850KAOH AOH20160617191011406/17/16 19:10:31  5-MIN KAOH 180010Z AUTO 05012G22KT 10SM CLR 26/06 A3006 850 28 2300 060/12G22 RMK AO2 T02560061
04850KAOH AOH20160617191511406/17/16 19:15:31  5-MIN KAOH 180015Z AUTO 04013G22KT 10SM CLR 26/06 A3006 850 28 2300 050/13G22 RMK AO2 T02560061
04850KAOH AOH20160617192011406/17/16 19:20:31  5-MIN KAOH 180020Z AUTO 05012G21KT 10SM CLR 26/06 A3006 850 28 2300 050/12G21 RMK AO2 T02560061
04850KAOH AOH20160617192511406/17/16 19:25:31  5-MIN KAOH 180025Z AUTO 05012G19KT 10SM CLR 25/07 A3006 850 30 2200 060/12G19 RMK AO2 T02500067
04850KAOH AOH20160617193011406/17/16 19:30:31  5-MIN KAOH 180030Z AUTO 05008G16KT 10SM CLR 25/07 A3006 840 30 2200 060/08G16 RMK AO2 T02500067
04850KAOH AOH20160617193510806/17/16 19:35:31  5-MIN KAOH 180035Z AUTO 04010KT 10SM CLR 25/07 A3007 840 30 2200 050/10 RMK AO2 T02500067
04850KAOH AOH20160617194010806/17/16 19:40:31  5-MIN KAOH 180040Z AUTO 04009KT 10SM CLR 24/07 A3007 840 33 2200 050/09 RMK AO2 T02440072
04850KAOH AOH20160617194510806/17/16 19:45:31  5-MIN KAOH 180045Z AUTO 04008KT 10SM CLR 24/07 A3007 840 33 2200 050/08 RMK AO2 T02440072
04850KAOH AOH20160617195011506/17/16 19:50:31  5-MIN KAOH 180050Z AUTO 04007KT 10SM CLR 24/08 A3007 840 35 2100 050/07 RMK AO2 SLP175 T02390078
04850KAOH AOH20160617195510806/17/16 19:55:31  5-MIN KAOH 180055Z AUTO 04007KT 10SM CLR 24/08 A3007 840 35 2100 050/07 RMK AO2 T02390078
04850KAOH AOH20160617200010806/17/16 20:00:31  5-MIN KAOH 180100Z AUTO 05006KT 10SM CLR 24/08 A3007 840 35 2100 060/06 RMK AO2 T02390078
04850KAOH AOH20160617200510806/17/16 20:05:31  5-MIN KAOH 180105Z AUTO 05007KT 10SM CLR 24/08 A3007 840 35 2100 060/07 RMK AO2 T02390078
04850KAOH AOH20160617201010806/17/16 20:10:31  5-MIN KAOH 180110Z AUTO 05007KT 10SM CLR 23/08 A3007 840 36 2000 050/07 RMK AO2 T02330078
04850KAOH AOH20160617201510806/17/16 20:15:31  5-MIN KAOH 180115Z AUTO 05006KT 10SM CLR 23/08 A3007 840 38 2000 060/06 RMK AO2 T02330083
04850KAOH AOH20160617202010806/17/16 20:20:31  5-MIN KAOH 180120Z AUTO 05006KT 10SM CLR 23/08 A3006 840 39 2000 060/06 RMK AO2 T02280083
04850KAOH AOH20160617202510806/17/16 20:25:31  5-MIN KAOH 180125Z AUTO 05005KT 10SM CLR 23/08 A3007 840 39 2000 050/05 RMK AO2 T02280083
04850KAOH AOH20160617203010806/17/16 20:30:31  5-MIN KAOH 180130Z AUTO 05005KT 10SM CLR 23/08 A3007 840 39 2000 050/05 RMK AO2 T02280083
04850KAOH AOH20160617203510806/17/16 20:35:31  5-MIN KAOH 180135Z AUTO 05005KT 10SM CLR 23/08 A3007 840 39 2000 060/05 RMK AO2 T02280083
04850KAOH AOH20160617204010806/17/16 20:40:31  5-MIN KAOH 180140Z AUTO 05004KT 10SM CLR 22/08 A3007 840 40 1900 060/04 RMK AO2 T02220083
04850KAOH AOH20160617204510806/17/16 20:45:31  5-MIN KAOH 180145Z AUTO 05004KT 10SM CLR 22/08 A3007 840 40 1900 060/04 RMK AO2 T02220083
04850KAOH AOH20160617205011506/17/16 20:50:31  5-MIN KAOH 180150Z AUTO 05004KT 10SM CLR 22/09 A3007 840 43 1800 060/04 RMK AO2 SLP178 T02170089
04850KAOH AOH20160617205510806/17/16 20:55:31  5-MIN KAOH 180155Z AUTO 05004KT 10SM CLR 22/09 A3008 830 43 1800 050/04 RMK AO2 T02170089
04850KAOH AOH20160617210010806/17/16 21:00:31  5-MIN KAOH 180200Z AUTO 05003KT 10SM CLR 22/09 A3008 830 43 1800 050/03 RMK AO2 T02170089
04850KAOH AOH20160617210510806/17/16 21:05:31  5-MIN KAOH 180205Z AUTO 05003KT 10SM CLR 22/09 A3008 830 43 1800 060/03 RMK AO2 T02170089
04850KAOH AOH20160617211010806/17/16 21:10:31  5-MIN KAOH 180210Z AUTO 05003KT 10SM CLR 22/09 A3009 820 43 1800 050/03 RMK AO2 T02170089
04850KAOH AOH20160617211510806/17/16 21:15:31  5-MIN KAOH 180215Z AUTO 05003KT 10SM CLR 21/09 A3009 820 45 1800 060/03 RMK AO2 T02110089
04850KAOH AOH20160617212010806/17/16 21:20:31  5-MIN KAOH 180220Z AUTO 06003KT 10SM CLR 21/09 A3009 820 45 1800 060/03 RMK AO2 T02110089
04850KAOH AOH20160617212510806/17/16 21:25:31  5-MIN KAOH 180225Z AUTO 05003KT 10SM CLR 21/09 A3009 820 45 1800 060/03 RMK AO2 T02110089
04850KAOH AOH20160617213010806/17/16 21:30:31  5-MIN KAOH 180230Z AUTO 05003KT 10SM CLR 21/08 A3010 810 43 1800 050/03 RMK AO2 T02110083
04850KAOH AOH20160617213510806/17/16 21:35:31  5-MIN KAOH 180235Z AUTO 04003KT 10SM CLR 21/09 A3010 810 48 1700 050/03 RMK AO2 T02060094
04850KAOH AOH20160617214010806/17/16 21:40:31  5-MIN KAOH 180240Z AUTO 04003KT 10SM CLR 20/10 A3010 810 52 1600 050/03 RMK AO2 T02000100
04850KAOH AOH20160617214510806/17/16 21:45:31  5-MIN KAOH 180245Z AUTO 04003KT 10SM CLR 19/11 A3010 810 56 1600 050/03 RMK AO2 T01940106
04850KAOH AOH20160617215012106/17/16 21:50:31  5-MIN KAOH 180250Z AUTO 04003KT 10SM CLR 19/11 A3010 810 58 1500 050/03 RMK AO2 SLP187 T01890106 53015
04850KAOH AOH20160617215510806/17/16 21:55:31  5-MIN KAOH 180255Z AUTO 04004KT 10SM CLR 18/11 A3010 810 62 1400 050/04 RMK AO2 T01830111
04850KAOH AOH20160617220010806/17/16 22:00:31  5-MIN KAOH 180300Z AUTO 04004KT 10SM CLR 18/12 A3010 810 65 1400 040/04 RMK AO2 T01830117
04850KAOH AOH20160617220510806/17/16 22:05:31  5-MIN KAOH 180305Z AUTO 04004KT 10SM CLR 18/12 A3010 810 65 1400 040/04 RMK AO2 T01830117
04850KAOH AOH20160617221010806/17/16 22:10:31  5-MIN KAOH 180310Z AUTO 03004KT 10SM CLR 18/11 A3010 810 62 1400 040/04 RMK AO2 T01830111
04850KAOH AOH20160617221510806/17/16 22:15:31  5-MIN KAOH 180315Z AUTO 03005KT 10SM CLR 19/10 A3010 810 54 1600 030/05 RMK AO2 T01940100
04850KAOH AOH20160617222010806/17/16 22:20:31  5-MIN KAOH 180320Z AUTO 03004KT 10SM CLR 19/10 A3010 810 54 1600 030/04 RMK AO2 T01940100
04850KAOH AOH20160617222510806/17/16 22:25:31  5-MIN KAOH 180325Z AUTO 03004KT 10SM CLR 20/09 A3010 810 50 1600 040/04 RMK AO2 T02000094
04850KAOH AOH20160617223010806/17/16 22:30:31  5-MIN KAOH 180330Z AUTO 03004KT 10SM CLR 19/10 A3011 810 54 1600 040/04 RMK AO2 T01940100
04850KAOH AOH20160617223510806/17/16 22:35:31  5-MIN KAOH 180335Z AUTO 03004KT 10SM CLR 18/11 A3011 810 60 1400 040/04 RMK AO2 T01830106
04850KAOH AOH20160617224010806/17/16 22:40:31  5-MIN KAOH 180340Z AUTO 03004KT 10SM CLR 18/11 A3011 810 60 1400 030/04 RMK AO2 T01830106
04850KAOH AOH20160617224510806/17/16 22:45:31  5-MIN KAOH 180345Z AUTO 04004KT 10SM CLR 19/10 A3010 810 56 1500 040/04 RMK AO2 T01890100
04850KAOH AOH20160617225011506/17/16 22:50:31  5-MIN KAOH 180350Z AUTO 04003KT 10SM CLR 19/10 A3011 810 56 1500 040/03 RMK AO2 SLP189 T01890100
04850KAOH AOH20160617225510806/17/16 22:55:31  5-MIN KAOH 180355Z AUTO 04003KT 10SM CLR 19/10 A3010 810 56 1500 050/03 RMK AO2 T01890100
04850KAOH AOH20160617230010806/17/16 23:00:31  5-MIN KAOH 180400Z AUTO 04003KT 10SM CLR 19/10 A3010 810 56 1500 050/03 RMK AO2 T01890100
04850KAOH AOH20160617230510806/17/16 23:05:31  5-MIN KAOH 180405Z AUTO 03004KT 10SM CLR 19/09 A3010 810 52 1600 040/04 RMK AO2 T01940094
04850KAOH AOH20160617231010806/17/16 23:10:31  5-MIN KAOH 180410Z AUTO 04003KT 10SM CLR 18/10 A3010 810 58 1400 040/03 RMK AO2 T01830100
04850KAOH AOH20160617231510806/17/16 23:15:31  5-MIN KAOH 180415Z AUTO 05004KT 10SM CLR 19/11 A3010 810 58 1500 060/04 RMK AO2 T01890106
04850KAOH AOH20160617232010806/17/16 23:20:31  5-MIN KAOH 180420Z AUTO 05004KT 10SM CLR 18/10 A3010 810 58 1400 060/04 RMK AO2 T01830100
04850KAOH AOH20160617232510806/17/16 23:25:31  5-MIN KAOH 180425Z AUTO 05005KT 10SM CLR 18/11 A3010 810 62 1400 060/05 RMK AO2 T01780106
04850KAOH AOH20160617233010806/17/16 23:30:31  5-MIN KAOH 180430Z AUTO 06005KT 10SM CLR 18/10 A3010 810 58 1400 060/05 RMK AO2 T01830100
04850KAOH AOH20160617233510806/17/16 23:35:31  5-MIN KAOH 180435Z AUTO 05004KT 10SM CLR 18/10 A3011 800 58 1400 060/04 RMK AO2 T01830100
04850KAOH AOH20160617234010806/17/16 23:40:31  5-MIN KAOH 180440Z AUTO 06004KT 10SM CLR 18/10 A3011 800 58 1400 070/04 RMK AO2 T01830100
04850KAOH AOH20160617234510806/17/16 23:45:31  5-MIN KAOH 180445Z AUTO 06004KT 10SM CLR 18/10 A3011 800 58 1400 070/04 RMK AO2 T01830100
04850KAOH AOH20160617235012506/17/16 23:50:31  5-MIN KAOH 180450Z AUTO 06004KT 10SM CLR 18/10 A3011 800 58 1400 070/04 RMK AO2 SLP191 T01830100 402830167
04850KAOH AOH20160617235510806/17/16 23:55:31  5-MIN KAOH 180455Z AUTO 10003KT 10SM CLR 18/11 A3011 800 62 1300 110/03 RMK AO2 T01780106
04850KAOH AOH20160618000010806/18/16 00:00:31  5-MIN KAOH 180500Z AUTO 10003KT 10SM CLR 17/11 A3012 800 64 1300 100/03 RMK AO2 T01720106
04850KAOH AOH20160618000510806/18/16 00:05:31  5-MIN KAOH 180505Z AUTO 07005KT 10SM CLR 19/09 A3012 800 52 1500 080/05 RMK AO2 T01890089
04850KAOH AOH20160618001010806/18/16 00:10:31  5-MIN KAOH 180510Z AUTO 07004KT 10SM CLR 18/10 A3012 790 60 1300 070/04 RMK AO2 T01780100
04850KAOH AOH20160618001510806/18/16 00:15:31  5-MIN KAOH 180515Z AUTO 06003KT 10SM CLR 19/09 A3012 790 52 1500 060/03 RMK AO2 T01890089
04850KAOH AOH20160618002010806/18/16 00:20:31  5-MIN KAOH 180520Z AUTO 05004KT 10SM CLR 18/10 A3012 790 60 1300 060/04 RMK AO2 T01780100
04850KAOH AOH20160618002510806/18/16 00:25:31  5-MIN KAOH 180525Z AUTO 06003KT 10SM CLR 17/11 A3012 790 64 1300 060/03 RMK AO2 T01720106
04850KAOH AOH20160618003010806/18/16 00:30:31  5-MIN KAOH 180530Z AUTO 05003KT 10SM CLR 17/11 A3013 790 67 1200 050/03 RMK AO2 T01670106
04850KAOH AOH20160618003510806/18/16 00:35:31  5-MIN KAOH 180535Z AUTO 05003KT 10SM CLR 17/11 A3013 790 64 1300 060/03 RMK AO2 T01720106
04850KAOH AOH20160618004010806/18/16 00:40:31  5-MIN KAOH 180540Z AUTO 04003KT 10SM CLR 18/10 A3013 790 60 1300 050/03 RMK AO2 T01780100
04850KAOH AOH20160618004510806/18/16 00:45:31  5-MIN KAOH 180545Z AUTO 04003KT 10SM CLR 18/09 A3012 790 58 1300 050/03 RMK AO2 T01780094
04850KAOH AOH20160618005013306/18/16 00:50:31  5-MIN KAOH 180550Z AUTO 06003KT 10SM CLR 17/10 A3013 790 62 1300 060/03 RMK AO2 SLP195 T01720100 10261 20167 53013
04850KAOH AOH20160618005510806/18/16 00:55:31  5-MIN KAOH 180555Z AUTO 07003KT 10SM CLR 18/09 A3012 790 55 1300 070/03 RMK AO2 T01780089
04850KAOH AOH20160618010010806/18/16 01:00:31  5-MIN KAOH 180600Z AUTO 06004KT 10SM CLR 18/09 A3012 790 58 1300 070/04 RMK AO2 T01780094
04850KAOH AOH20160618010510806/18/16 01:05:31  5-MIN KAOH 180605Z AUTO 08003KT 10SM CLR 17/10 A3013 790 64 1200 080/03 RMK AO2 T01670100
04850KAOH AOH20160618011010806/18/16 01:10:31  5-MIN KAOH 180610Z AUTO 07004KT 10SM CLR 17/10 A3013 790 62 1300 080/04 RMK AO2 T01720100
04850KAOH AOH20160618011510806/18/16 01:15:31  5-MIN KAOH 180615Z AUTO 05004KT 10SM CLR 16/11 A3013 780 69 1100 060/04 RMK AO2 T01610106
04850KAOH AOH20160618012010806/18/16 01:20:31  5-MIN KAOH 180620Z AUTO 06003KT 10SM CLR 17/10 A3013 780 62 1300 060/03 RMK AO2 T01720100
04850KAOH AOH20160618012510806/18/16 01:25:31  5-MIN KAOH 180625Z AUTO 06003KT 10SM CLR 17/09 A3013 780 60 1300 070/03 RMK AO2 T01720094
04850KAOH AOH20160618013010806/18/16 01:30:31  5-MIN KAOH 180630Z AUTO 07003KT 10SM CLR 17/09 A3013 780 60 1300 080/03 RMK AO2 T01720094
04850KAOH AOH20160618013510806/18/16 01:35:31  5-MIN KAOH 180635Z AUTO 08004KT 10SM CLR 17/09 A3013 780 57 1300 080/04 RMK AO2 T01720089
04850KAOH AOH20160618014010806/18/16 01:40:31  5-MIN KAOH 180640Z AUTO 06004KT 10SM CLR 17/10 A3013 790 64 1200 070/04 RMK AO2 T01670100
04850KAOH AOH20160618014510806/18/16 01:45:31  5-MIN KAOH 180645Z AUTO 07004KT 10SM CLR 17/09 A3012 790 62 1200 070/04 RMK AO2 T01670094
04850KAOH AOH20160618015011506/18/16 01:50:31  5-MIN KAOH 180650Z AUTO 06004KT 10SM CLR 18/09 A3013 790 55 1300 070/04 RMK AO2 SLP195 T01780089
04850KAOH AOH20160618015510806/18/16 01:55:31  5-MIN KAOH 180655Z AUTO 06004KT 10SM CLR 17/09 A3013 790 62 1200 060/04 RMK AO2 T01670094
04850KAOH AOH20160618020010806/18/16 02:00:31  5-MIN KAOH 180700Z AUTO 06004KT 10SM CLR 17/09 A3013 790 60 1300 060/04 RMK AO2 T01720094
04850KAOH AOH20160618020510806/18/16 02:05:31  5-MIN KAOH 180705Z AUTO 06003KT 10SM CLR 18/08 A3013 790 53 1300 060/03 RMK AO2 T01780083
04850KAOH AOH20160618021010806/18/16 02:10:31  5-MIN KAOH 180710Z AUTO 07003KT 10SM CLR 17/09 A3013 790 57 1300 080/03 RMK AO2 T01720089
04850KAOH AOH20160618021510806/18/16 02:15:31  5-MIN KAOH 180715Z AUTO 06004KT 10SM CLR 17/09 A3013 780 57 1300 070/04 RMK AO2 T01720089
04850KAOH AOH20160618022010806/18/16 02:20:31  5-MIN KAOH 180720Z AUTO 05004KT 10SM CLR 16/10 A3013 780 67 1100 050/04 RMK AO2 T01610100
04850KAOH AOH20160618022510806/18/16 02:25:31  5-MIN KAOH 180725Z AUTO 05004KT 10SM CLR 17/09 A3013 780 62 1200 050/04 RMK AO2 T01670094
04850KAOH AOH20160618023010806/18/16 02:30:31  5-MIN KAOH 180730Z AUTO 05005KT 10SM CLR 17/10 A3013 780 64 1200 060/05 RMK AO2 T01670100
04850KAOH AOH20160618023510806/18/16 02:35:31  5-MIN KAOH 180735Z AUTO 07004KT 10SM CLR 17/09 A3013 780 62 1200 070/04 RMK AO2 T01670094
04850KAOH AOH20160618024010806/18/16 02:40:31  5-MIN KAOH 180740Z AUTO 08005KT 10SM CLR 16/10 A3013 780 67 1100 080/05 RMK AO2 T01610100
04850KAOH AOH20160618024510806/18/16 02:45:31  5-MIN KAOH 180745Z AUTO 06005KT 10SM CLR 16/10 A3013 780 69 1100 070/05 RMK AO2 T01560100
04850KAOH AOH20160618025011506/18/16 02:50:31  5-MIN KAOH 180750Z AUTO 06006KT 10SM CLR 16/11 A3013 790 72 1100 070/06 RMK AO2 SLP196 T01560106
04850KAOH AOH20160618025510806/18/16 02:55:31  5-MIN KAOH 180755Z AUTO 07006KT 10SM CLR 16/10 A3013 790 67 1100 070/06 RMK AO2 T01610100
04850KAOH AOH20160618030010806/18/16 03:00:31  5-MIN KAOH 180800Z AUTO 07006KT 10SM CLR 16/09 A3013 790 64 1100 070/06 RMK AO2 T01610094
04850KAOH AOH20160618030510806/18/16 03:05:31  5-MIN KAOH 180805Z AUTO 07006KT 10SM CLR 17/09 A3013 780 62 1200 070/06 RMK AO2 T01670094
04850KAOH AOH20160618031010806/18/16 03:10:31  5-MIN KAOH 180810Z AUTO 07005KT 10SM CLR 16/10 A3013 780 67 1100 070/05 RMK AO2 T01610100
04850KAOH AOH20160618031510806/18/16 03:15:31  5-MIN KAOH 180815Z AUTO 07005KT 10SM CLR 17/10 A3014 780 64 1200 070/05 RMK AO2 T01670100
04850KAOH AOH20160618032010806/18/16 03:20:31  5-MIN KAOH 180820Z AUTO 06005KT 10SM CLR 16/10 A3014 780 67 1100 070/05 RMK AO2 T01610100
04850KAOH AOH20160618032510806/18/16 03:25:31  5-MIN KAOH 180825Z AUTO 06005KT 10SM CLR 17/09 A3014 770 62 1200 060/05 RMK AO2 T01670094
04850KAOH AOH20160618132511106/18/16 13:25:31  5-MIN KAOH 181825Z AUTO 10007KT 10SM SCT075 29/12 A3024 680 34 2500 100/07 RMK AO2 T02890117
04850KAOH AOH20160618133011106/18/16 13:30:31  5-MIN KAOH 181830Z AUTO 07007KT 10SM FEW075 29/13 A3024 690 35 2500 070/07 RMK AO2 T02940128
04850KAOH AOH20160618133511106/18/16 13:35:31  5-MIN KAOH 181835Z AUTO 07006KT 10SM FEW075 29/12 A3024 680 34 2500 080/06 RMK AO2 T02940122
04850KAOH AOH20160618134011106/18/16 13:40:31  5-MIN KAOH 181840Z AUTO VRB05KT 10SM FEW075 30/13 A3024 690 34 2600 VRB/05 RMK AO2 T03000128
04850KAOH AOH20160618134511106/18/16 13:45:31  5-MIN KAOH 181845Z AUTO VRB03KT 10SM FEW075 30/12 A3023 690 31 2600 VRB/03 RMK AO2 T03000117
04850KAOH AOH20160618135013106/18/16 13:50:31  5-MIN KAOH 181850Z AUTO 10007KT 060V140 10SM CLR 31/13 A3024 690 33 2700 100/07 070V150 RMK AO2 SLP231 T03060128
04850KAOH AOH20160618135510806/18/16 13:55:31  5-MIN KAOH 181855Z AUTO 15004KT 10SM CLR 30/12 A3024 690 33 2600 150/04 RMK AO2 T03000122
04850KAOH AOH20160618140011106/18/16 14:00:31  5-MIN KAOH 181900Z AUTO 13008KT 10SM FEW075 30/12 A3024 690 33 2600 130/08 RMK AO2 T03000122
04850KAOH AOH20160618140511106/18/16 14:05:31  5-MIN KAOH 181905Z AUTO 12006KT 10SM FEW075 30/12 A3024 690 33 2600 120/06 RMK AO2 T03000122
04850KAOH AOH20160618141010806/18/16 14:10:31  5-MIN KAOH 181910Z AUTO 11004KT 10SM CLR 30/12 A3024 690 33 2600 110/04 RMK AO2 T03000122
04850KAOH AOH20160618141510806/18/16 14:15:31  5-MIN KAOH 181915Z AUTO VRB04KT 10SM CLR 30/12 A3024 690 31 2600 VRB/04 RMK AO2 T03000117
04850KAOH AOH20160618142010806/18/16 14:20:31  5-MIN KAOH 181920Z AUTO 13009KT 10SM CLR 30/12 A3024 680 31 2600 140/09 RMK AO2 T03000117
04850KAOH AOH20160618142510806/18/16 14:25:31  5-MIN KAOH 181925Z AUTO 12006KT 10SM CLR 31/12 A3024 680 32 2700 130/06 RMK AO2 T03060122
04850KAOH AOH20160618143010806/18/16 14:30:31  5-MIN KAOH 181930Z AUTO 09010KT 10SM CLR 31/13 A3024 690 34 2700 090/10 RMK AO2 T03060133
04850KAOH AOH20160618143511106/18/16 14:35:31  5-MIN KAOH 181935Z AUTO 12005KT 10SM FEW080 30/13 A3024 690 34 2600 130/05 RMK AO2 T03000128
04850KAOH AOH20160618144012706/18/16 14:40:31  5-MIN KAOH 181940Z AUTO 09008KT 050V180 10SM FEW075 31/13 A3024 690 33 2700 100/08 060V190 RMK AO2 T03060128
04850KAOH AOH20160618144511106/18/16 14:45:31  5-MIN KAOH 181945Z AUTO 09007KT 10SM FEW075 30/14 A3023 690 36 2600 100/07 RMK AO2 T03000139
04850KAOH AOH20160618145011806/18/16 14:50:31  5-MIN KAOH 181950Z AUTO VRB03KT 10SM FEW075 30/12 A3023 690 33 2600 VRB/03 RMK AO2 SLP230 T03000122
04850KAOH AOH20160618145511106/18/16 14:55:31  5-MIN KAOH 181955Z AUTO VRB04KT 10SM FEW075 31/12 A3023 690 32 2700 VRB/04 RMK AO2 T03060122
04850KAOH AOH20160618150011106/18/16 15:00:31  5-MIN KAOH 182000Z AUTO 13006KT 10SM SCT075 30/13 A3023 690 34 2600 140/06 RMK AO2 T03000128
04850KAOH AOH20160618150511106/18/16 15:05:31  5-MIN KAOH 182005Z AUTO 14005KT 10SM SCT080 30/12 A3023 690 33 2600 150/05 RMK AO2 T03000122
04850KAOH AOH20160618151011106/18/16 15:10:31  5-MIN KAOH 182010Z AUTO 14008KT 10SM FEW080 31/12 A3022 700 32 2700 150/08 RMK AO2 T03060122
04850KAOH AOH20160618151511106/18/16 15:15:31  5-MIN KAOH 182015Z AUTO 12006KT 10SM FEW080 31/12 A3023 700 32 2700 120/06 RMK AO2 T03060122
04850KAOH AOH20160618152011106/18/16 15:20:31  5-MIN KAOH 182020Z AUTO 13005KT 10SM FEW080 31/12 A3023 700 30 2700 130/05 RMK AO2 T03060117
04850KAOH AOH20160618152511106/18/16 15:25:31  5-MIN KAOH 182025Z AUTO 08003KT 10SM FEW080 31/12 A3022 700 30 2700 090/03 RMK AO2 T03060117
04850KAOH AOH20160618153010806/18/16 15:30:31  5-MIN KAOH 182030Z AUTO VRB03KT 10SM CLR 31/13 A3022 700 33 2700 VRB/03 RMK AO2 T03060128
04850KAOH AOH20160618153510806/18/16 15:35:31  5-MIN KAOH 182035Z AUTO 12009KT 10SM CLR 31/13 A3022 700 34 2700 120/09 RMK AO2 T03060133
04850KAOH AOH20160618154010806/18/16 15:40:31  5-MIN KAOH 182040Z AUTO 16007KT 10SM CLR 31/12 A3022 700 32 2700 160/07 RMK AO2 T03060122
04850KAOH AOH20160618154510806/18/16 15:45:31  5-MIN KAOH 182045Z AUTO 15006KT 10SM CLR 30/12 A3022 700 33 2600 160/06 RMK AO2 T03000122
04850KAOH AOH20160618155012106/18/16 15:50:31  5-MIN KAOH 182050Z AUTO VRB05KT 10SM CLR 31/12 A3022 700 32 2700 VRB/05 RMK AO2 SLP226 T03060122 58006
04850KAOH AOH20160618155510806/18/16 15:55:31  5-MIN KAOH 182055Z AUTO 15006KT 10SM CLR 30/12 A3022 700 33 2600 160/06 RMK AO2 T03000122
04850KAOH AOH20160618160010806/18/16 16:00:31  5-MIN KAOH 182100Z AUTO 00000KT 10SM CLR 30/12 A3022 700 31 2600 000/00 RMK AO2 T03000117
04850KAOH AOH20160618160509806/18/16 16:05:31  5-MIN KAOH 182105Z AUTO 10SM CLR 31/12 A3022 700 30 2700 M /M RMK AO2 T03060117
04850KAOH AOH20160618161011106/18/16 16:10:31  5-MIN KAOH 182110Z AUTO 13005KT 10SM FEW080 31/12 A3022 700 32 2700 130/05 RMK AO2 T03060122
04850KAOH AOH20160618161511106/18/16 16:15:31  5-MIN KAOH 182115Z AUTO VRB04KT 10SM FEW080 31/12 A3022 700 32 2700 VRB/04 RMK AO2 T03060122
04850KAOH AOH20160618162011106/18/16 16:20:31  5-MIN KAOH 182120Z AUTO VRB03KT 10SM FEW080 31/13 A3022 700 33 2700 VRB/03 RMK AO2 T03060128
04850KAOH AOH20160618162511106/18/16 16:25:31  5-MIN KAOH 182125Z AUTO VRB03KT 10SM FEW080 30/12 A3022 700 33 2600 VRB/03 RMK AO2 T03000122
04850KAOH AOH20160618163011106/18/16 16:30:31  5-MIN KAOH 182130Z AUTO 11004KT 10SM FEW080 29/12 A3022 700 34 2600 120/04 RMK AO2 T02940122
04850KAOH AOH20160618163511106/18/16 16:35:31  5-MIN KAOH 182135Z AUTO 12005KT 10SM SCT080 29/13 A3022 700 35 2600 120/05 RMK AO2 T02940128
04850KAOH AOH20160618164011106/18/16 16:40:31  5-MIN KAOH 182140Z AUTO 11003KT 10SM FEW080 30/13 A3022 700 34 2600 110/03 RMK AO2 T03000128
04850KAOH AOH20160618164511106/18/16 16:45:31  5-MIN KAOH 182145Z AUTO 12004KT 10SM FEW080 30/14 A3022 700 36 2600 130/04 RMK AO2 T03000139
04850KAOH AOH20160618165011806/18/16 16:50:31  5-MIN KAOH 182150Z AUTO 10004KT 10SM FEW080 29/12 A3022 700 34 2600 110/04 RMK AO2 SLP227 T02940122
04850KAOH AOH20160618165511106/18/16 16:55:31  5-MIN KAOH 182155Z AUTO 13003KT 10SM FEW080 29/13 A3022 700 35 2600 130/03 RMK AO2 T02940128
04850KAOH AOH20160618170011106/18/16 17:00:31  5-MIN KAOH 182200Z AUTO 00000KT 10SM FEW080 29/11 A3022 700 31 2600 000/00 RMK AO2 T02940111
04850KAOH AOH20160618170510806/18/16 17:05:31  5-MIN KAOH 182205Z AUTO 00000KT 10SM CLR 29/11 A3022 700 31 2600 000/00 RMK AO2 T02940111
04850KAOH AOH20160618171011106/18/16 17:10:31  5-MIN KAOH 182210Z AUTO 00000KT 10SM FEW080 30/12 A3022 710 33 2600 000/00 RMK AO2 T03000122
04850KAOH AOH20160618171511106/18/16 17:15:31  5-MIN KAOH 182215Z AUTO 15005KT 10SM FEW080 31/13 A3022 710 33 2700 160/05 RMK AO2 T03060128
04850KAOH AOH20160618172011106/18/16 17:20:31  5-MIN KAOH 182220Z AUTO 21005KT 10SM FEW080 30/12 A3021 710 33 2600 220/05 RMK AO2 T03000122
04850KAOH AOH20160618172511106/18/16 17:25:31  5-MIN KAOH 182225Z AUTO 18004KT 10SM FEW080 30/12 A3021 710 31 2600 180/04 RMK AO2 T03000117
04850KAOH AOH20160618173011106/18/16 17:30:31  5-MIN KAOH 182230Z AUTO 17004KT 10SM FEW080 30/12 A3021 710 31 2600 170/04 RMK AO2 T03000117
04850KAOH AOH20160618173511106/18/16 17:35:31  5-MIN KAOH 182235Z AUTO 12006KT 10SM FEW080 30/13 A3021 710 34 2600 130/06 RMK AO2 T03000128
04850KAOH AOH20160618174011106/18/16 17:40:31  5-MIN KAOH 182240Z AUTO VRB06KT 10SM FEW080 31/13 A3021 710 34 2700 VRB/06 RMK AO2 T03060133
04850KAOH AOH20160618174510806/18/16 17:45:31  5-MIN KAOH 182245Z AUTO 16008KT 10SM CLR 30/12 A3021 710 33 2600 170/08 RMK AO2 T03000122
04850KAOH AOH20160618175011506/18/16 17:50:31  5-MIN KAOH 182250Z AUTO 18010KT 10SM CLR 29/12 A3021 710 34 2600 180/10 RMK AO2 SLP224 T02940122
04850KAOH AOH20160618175510806/18/16 17:55:31  5-MIN KAOH 182255Z AUTO 18007KT 10SM CLR 29/12 A3021 710 33 2600 180/07 RMK AO2 T02940117
04850KAOH AOH20160618180011106/18/16 18:00:31  5-MIN KAOH 182300Z AUTO 20006KT 10SM FEW080 29/12 A3021 710 33 2600 210/06 RMK AO2 T02940117
04850KAOH AOH20160618180511106/18/16 18:05:31  5-MIN KAOH 182305Z AUTO 17006KT 10SM FEW080 29/12 A3021 710 34 2600 180/06 RMK AO2 T02940122
04850KAOH AOH20160618181011106/18/16 18:10:31  5-MIN KAOH 182310Z AUTO 19005KT 10SM FEW080 29/12 A3021 710 33 2600 200/05 RMK AO2 T02940117
04850KAOH AOH20160618181511106/18/16 18:15:31  5-MIN KAOH 182315Z AUTO 17006KT 10SM FEW080 29/12 A3021 710 33 2600 170/06 RMK AO2 T02940117
04850KAOH AOH20160618182011106/18/16 18:20:31  5-MIN KAOH 182320Z AUTO 18006KT 10SM FEW080 29/12 A3021 710 33 2600 180/06 RMK AO2 T02940117
04850KAOH AOH20160618182511106/18/16 18:25:31  5-MIN KAOH 182325Z AUTO 19006KT 10SM FEW080 29/12 A3021 710 35 2500 190/06 RMK AO2 T02890122
04850KAOH AOH20160618183010806/18/16 18:30:31  5-MIN KAOH 182330Z AUTO 17006KT 10SM CLR 29/12 A3021 710 34 2500 180/06 RMK AO2 T02890117
04850KAOH AOH20160618183510806/18/16 18:35:31  5-MIN KAOH 182335Z AUTO 16008KT 10SM CLR 29/12 A3022 700 35 2500 170/08 RMK AO2 T02890122
04850KAOH AOH20160618184010806/18/16 18:40:31  5-MIN KAOH 182340Z AUTO 16007KT 10SM CLR 29/12 A3022 710 35 2500 170/07 RMK AO2 T02890122
04850KAOH AOH20160618184510806/18/16 18:45:31  5-MIN KAOH 182345Z AUTO 17006KT 10SM CLR 28/12 A3022 700 36 2400 180/06 RMK AO2 T02830122
04850KAOH AOH20160618185013306/18/16 18:50:31  5-MIN KAOH 182350Z AUTO 17005KT 10SM CLR 29/12 A3022 700 35 2500 180/05 RMK AO2 SLP225 T02890122 10306 20283 58006
04850KAOH AOH20160618185510806/18/16 18:55:31  5-MIN KAOH 182355Z AUTO 17004KT 10SM CLR 29/12 A3022 700 35 2500 180/04 RMK AO2 T02890122
04850KAOH AOH20160618190010806/18/16 19:00:31  5-MIN KAOH 190000Z AUTO 19004KT 10SM CLR 28/12 A3022 700 36 2400 190/04 RMK AO2 T02830122
04850KAOH AOH20160618190510806/18/16 19:05:31  5-MIN KAOH 190005Z AUTO 19004KT 10SM CLR 28/12 A3022 700 36 2400 190/04 RMK AO2 T02830122
04850KAOH AOH20160618191010806/18/16 19:10:31  5-MIN KAOH 190010Z AUTO 18003KT 10SM CLR 28/12 A3022 700 36 2400 190/03 RMK AO2 T02830122
04850KAOH AOH20160618191510806/18/16 19:15:31  5-MIN KAOH 190015Z AUTO 18003KT 10SM CLR 28/12 A3023 700 37 2400 190/03 RMK AO2 T02780122
04850KAOH AOH20160618192010806/18/16 19:20:31  5-MIN KAOH 190020Z AUTO 16003KT 10SM CLR 28/13 A3022 700 39 2400 170/03 RMK AO2 T02780128
04850KAOH AOH20160618192510806/18/16 19:25:31  5-MIN KAOH 190025Z AUTO 16004KT 10SM CLR 27/14 A3023 700 45 2200 160/04 RMK AO2 T02670139
04850KAOH AOH20160618193010806/18/16 19:30:31  5-MIN KAOH 190030Z AUTO 16003KT 10SM CLR 27/14 A3023 700 43 2300 170/03 RMK AO2 T02720139
04850KAOH AOH20160618193510806/18/16 19:35:31  5-MIN KAOH 190035Z AUTO 16003KT 10SM CLR 27/13 A3023 690 42 2300 160/03 RMK AO2 T02720133
04850KAOH AOH20160618194010806/18/16 19:40:31  5-MIN KAOH 190040Z AUTO 16004KT 10SM CLR 27/13 A3023 690 42 2300 170/04 RMK AO2 T02720133
04850KAOH AOH20160618194510806/18/16 19:45:31  5-MIN KAOH 190045Z AUTO 16004KT 10SM CLR 27/13 A3023 690 43 2200 170/04 RMK AO2 T02670133
04850KAOH AOH20160618195011506/18/16 19:50:31  5-MIN KAOH 190050Z AUTO 16003KT 10SM CLR 27/14 A3023 690 45 2200 170/03 RMK AO2 SLP228 T02670139
04850KAOH AOH20160618195510806/18/16 19:55:31  5-MIN KAOH 190055Z AUTO 16004KT 10SM CLR 26/14 A3023 690 49 2100 160/04 RMK AO2 T02560144
04850KAOH AOH20160618200010806/18/16 20:00:31  5-MIN KAOH 190100Z AUTO 16004KT 10SM CLR 26/14 A3023 690 49 2100 170/04 RMK AO2 T02560144
04850KAOH AOH20160618200510806/18/16 20:05:31  5-MIN KAOH 190105Z AUTO 16003KT 10SM CLR 26/14 A3023 690 49 2100 170/03 RMK AO2 T02560144
04850KAOH AOH20160618201010806/18/16 20:10:31  5-MIN KAOH 190110Z AUTO 18003KT 10SM CLR 26/14 A3023 690 46 2200 180/03 RMK AO2 T02610139
04850KAOH AOH20160618201510806/18/16 20:15:31  5-MIN KAOH 190115Z AUTO 18003KT 10SM CLR 26/14 A3023 690 46 2200 190/03 RMK AO2 T02610139
04850KAOH AOH20160618202010806/18/16 20:20:31  5-MIN KAOH 190120Z AUTO 18003KT 10SM CLR 26/14 A3023 690 48 2100 180/03 RMK AO2 T02560139
04850KAOH AOH20160618202510806/18/16 20:25:31  5-MIN KAOH 190125Z AUTO 17004KT 10SM CLR 26/14 A3023 690 48 2100 180/04 RMK AO2 T02560139
04850KAOH AOH20160618203010806/18/16 20:30:31  5-MIN KAOH 190130Z AUTO 17004KT 10SM CLR 25/15 A3023 690 53 2000 180/04 RMK AO2 T02500150
04850KAOH AOH20160618203510806/18/16 20:35:31  5-MIN KAOH 190135Z AUTO 17004KT 10SM CLR 24/15 A3023 690 55 2000 170/04 RMK AO2 T02440150
04850KAOH AOH20160618204010806/18/16 20:40:31  5-MIN KAOH 190140Z AUTO 16004KT 10SM CLR 24/15 A3023 690 55 2000 170/04 RMK AO2 T02440150
04850KAOH AOH20160618204510806/18/16 20:45:31  5-MIN KAOH 190145Z AUTO 17005KT 10SM CLR 24/14 A3024 690 53 2000 180/05 RMK AO2 T02440144
04850KAOH AOH20160618205011506/18/16 20:50:31  5-MIN KAOH 190150Z AUTO 18004KT 10SM CLR 25/14 A3024 680 49 2000 190/04 RMK AO2 SLP232 T02500139
04850KAOH AOH20160618205510806/18/16 20:55:31  5-MIN KAOH 190155Z AUTO 19004KT 10SM CLR 25/14 A3024 680 49 2000 190/04 RMK AO2 T02500139
04850KAOH AOH20160618210010806/18/16 21:00:31  5-MIN KAOH 190200Z AUTO 18004KT 10SM CLR 24/14 A3024 680 51 2000 180/04 RMK AO2 T02440139
04850KAOH AOH20160618210510806/18/16 21:05:31  5-MIN KAOH 190205Z AUTO 17004KT 10SM CLR 24/15 A3025 680 57 1900 180/04 RMK AO2 T02390150
04850KAOH AOH20160618211010806/18/16 21:10:31  5-MIN KAOH 190210Z AUTO 18004KT 10SM CLR 23/15 A3025 680 59 1800 180/04 RMK AO2 T02330150
04850KAOH AOH20160618211510806/18/16 21:15:31  5-MIN KAOH 190215Z AUTO 18004KT 10SM CLR 23/14 A3025 670 57 1800 190/04 RMK AO2 T02330144
04850KAOH AOH20160618212010806/18/16 21:20:31  5-MIN KAOH 190220Z AUTO 17004KT 10SM CLR 23/15 A3025 670 59 1800 180/04 RMK AO2 T02330150
04850KAOH AOH20160618212510806/18/16 21:25:31  5-MIN KAOH 190225Z AUTO 17004KT 10SM CLR 23/15 A3025 670 61 1800 180/04 RMK AO2 T02280150
04850KAOH AOH20160618213010806/18/16 21:30:31  5-MIN KAOH 190230Z AUTO 18004KT 10SM CLR 23/15 A3026 670 61 1800 180/04 RMK AO2 T02280150
04850KAOH AOH20160618213510806/18/16 21:35:31  5-MIN KAOH 190235Z AUTO 16004KT 10SM CLR 23/14 A3026 670 57 1800 170/04 RMK AO2 T02330144
04850KAOH AOH20160618214010806/18/16 21:40:31  5-MIN KAOH 190240Z AUTO 16005KT 10SM CLR 23/15 A3026 670 61 1800 170/05 RMK AO2 T02280150
04850KAOH AOH20160618214510806/18/16 21:45:31  5-MIN KAOH 190245Z AUTO 16005KT 10SM CLR 22/16 A3026 670 65 1700 170/05 RMK AO2 T02220156
04850KAOH AOH20160618215012106/18/16 21:50:31  5-MIN KAOH 190250Z AUTO 16005KT 10SM CLR 23/14 A3026 660 59 1800 170/05 RMK AO2 SLP239 T02280144 55000
04850KAOH AOH20160618215510806/18/16 21:55:31  5-MIN KAOH 190255Z AUTO 16005KT 10SM CLR 23/14 A3026 660 55 1800 160/05 RMK AO2 T02330139
04850KAOH AOH20160618220010806/18/16 22:00:31  5-MIN KAOH 190300Z AUTO 16005KT 10SM CLR 23/14 A3026 660 55 1800 160/05 RMK AO2 T02330139
04850KAOH AOH20160618220510806/18/16 22:05:31  5-MIN KAOH 190305Z AUTO 17005KT 10SM CLR 23/14 A3026 660 55 1800 170/05 RMK AO2 T02330139
04850KAOH AOH20160618221010806/18/16 22:10:31  5-MIN KAOH 190310Z AUTO 17004KT 10SM CLR 23/14 A3026 660 55 1800 170/04 RMK AO2 T02330139
04850KAOH AOH20160618221510806/18/16 22:15:31  5-MIN KAOH 190315Z AUTO 16005KT 10SM CLR 23/14 A3027 660 59 1800 170/05 RMK AO2 T02280144
04850KAOH AOH20160618222010806/18/16 22:20:31  5-MIN KAOH 190320Z AUTO 16004KT 10SM CLR 22/14 A3027 660 61 1700 160/04 RMK AO2 T02220144
04850KAOH AOH20160618222510806/18/16 22:25:31  5-MIN KAOH 190325Z AUTO 16004KT 10SM CLR 23/14 A3027 660 57 1800 170/04 RMK AO2 T02280139
04850KAOH AOH20160618223010806/18/16 22:30:31  5-MIN KAOH 190330Z AUTO 17005KT 10SM CLR 23/14 A3027 660 55 1800 170/05 RMK AO2 T02330139
04850KAOH AOH20160618223510806/18/16 22:35:31  5-MIN KAOH 190335Z AUTO 16004KT 10SM CLR 23/14 A3027 660 57 1700 170/04 RMK AO2 T02280139
04850KAOH AOH20160618224010806/18/16 22:40:31  5-MIN KAOH 190340Z AUTO 17005KT 10SM CLR 23/14 A3027 660 59 1800 180/05 RMK AO2 T02280144
04850KAOH AOH20160618224510806/18/16 22:45:31  5-MIN KAOH 190345Z AUTO 17004KT 10SM CLR 22/14 A3027 660 61 1700 170/04 RMK AO2 T02220144
04850KAOH AOH20160618225011506/18/16 22:50:31  5-MIN KAOH 190350Z AUTO 16004KT 10SM CLR 22/14 A3027 660 59 1700 170/04 RMK AO2 SLP243 T02220139
04850KAOH AOH20160618225510806/18/16 22:55:31  5-MIN KAOH 190355Z AUTO 16003KT 10SM CLR 22/14 A3027 660 59 1700 170/03 RMK AO2 T02220139
04850KAOH AOH20160618230010806/18/16 23:00:31  5-MIN KAOH 190400Z AUTO 16003KT 10SM CLR 23/14 A3027 650 57 1700 170/03 RMK AO2 T02280139
04850KAOH AOH20160618230510806/18/16 23:05:31  5-MIN KAOH 190405Z AUTO 15003KT 10SM CLR 22/14 A3027 650 61 1700 160/03 RMK AO2 T02220144
04850KAOH AOH20160618231010806/18/16 23:10:31  5-MIN KAOH 190410Z AUTO 16004KT 10SM CLR 22/14 A3027 650 61 1700 160/04 RMK AO2 T02220144
04850KAOH AOH20160618231510806/18/16 23:15:31  5-MIN KAOH 190415Z AUTO 15004KT 10SM CLR 22/14 A3027 650 61 1700 150/04 RMK AO2 T02220144
04850KAOH AOH20160618232010806/18/16 23:20:31  5-MIN KAOH 190420Z AUTO 14004KT 10SM CLR 22/15 A3027 650 63 1700 150/04 RMK AO2 T02220150
04850KAOH AOH20160618232510806/18/16 23:25:31  5-MIN KAOH 190425Z AUTO 14004KT 10SM CLR 22/14 A3027 650 61 1700 150/04 RMK AO2 T02220144
04850KAOH AOH20160618233010806/18/16 23:30:31  5-MIN KAOH 190430Z AUTO 14004KT 10SM CLR 22/14 A3027 650 63 1600 140/04 RMK AO2 T02170144
04850KAOH AOH20160618233510806/18/16 23:35:31  5-MIN KAOH 190435Z AUTO 13005KT 10SM CLR 22/14 A3028 650 61 1700 140/05 RMK AO2 T02220144
04850KAOH AOH20160618234010806/18/16 23:40:31  5-MIN KAOH 190440Z AUTO 13005KT 10SM CLR 22/14 A3028 650 61 1700 140/05 RMK AO2 T02220144
04850KAOH AOH20160618234510806/18/16 23:45:31  5-MIN KAOH 190445Z AUTO 13005KT 10SM CLR 22/14 A3028 650 63 1600 130/05 RMK AO2 T02170144
04850KAOH AOH20160618235012506/18/16 23:50:31  5-MIN KAOH 190450Z AUTO 13005KT 10SM CLR 22/15 A3028 650 65 1600 130/05 RMK AO2 SLP245 T02170150 403060156
04850KAOH AOH20160618235510806/18/16 23:55:31  5-MIN KAOH 190455Z AUTO 13005KT 10SM CLR 21/14 A3027 650 65 1600 140/05 RMK AO2 T02110144
04850KAOH AOH20160619000010806/19/16 00:00:31  5-MIN KAOH 190500Z AUTO 14005KT 10SM CLR 21/15 A3028 650 68 1600 150/05 RMK AO2 T02110150
04850KAOH AOH20160619000510806/19/16 00:05:31  5-MIN KAOH 190505Z AUTO 14005KT 10SM CLR 22/14 A3028 650 63 1600 150/05 RMK AO2 T02170144
04850KAOH AOH20160619001010806/19/16 00:10:31  5-MIN KAOH 190510Z AUTO 15006KT 10SM CLR 22/14 A3028 650 61 1600 150/06 RMK AO2 T02170139
04850KAOH AOH20160619001510806/19/16 00:15:31  5-MIN KAOH 190515Z AUTO 15006KT 10SM CLR 22/14 A3028 650 63 1600 160/06 RMK AO2 T02170144
04850KAOH AOH20160619002010806/19/16 00:20:31  5-MIN KAOH 190520Z AUTO 15005KT 10SM CLR 22/14 A3028 650 61 1600 160/05 RMK AO2 T02170139
04850KAOH AOH20160619002510806/19/16 00:25:31  5-MIN KAOH 190525Z AUTO 16004KT 10SM CLR 22/14 A3027 650 63 1600 170/04 RMK AO2 T02170144
04850KAOH AOH20160619003010806/19/16 00:30:31  5-MIN KAOH 190530Z AUTO 16004KT 10SM CLR 22/14 A3027 650 63 1600 160/04 RMK AO2 T02170144
04850KAOH AOH20160619003510806/19/16 00:35:31  5-MIN KAOH 190535Z AUTO 16004KT 10SM CLR 22/14 A3028 650 63 1600 170/04 RMK AO2 T02170144
04850KAOH AOH20160619004010806/19/16 00:40:31  5-MIN KAOH 190540Z AUTO 16004KT 10SM CLR 21/14 A3027 650 63 1600 170/04 RMK AO2 T02110139
04850KAOH AOH20160619004510806/19/16 00:45:31  5-MIN KAOH 190545Z AUTO 17004KT 10SM CLR 22/14 A3027 650 61 1600 170/04 RMK AO2 T02170139
04850KAOH AOH20160619005013306/19/16 00:50:31  5-MIN KAOH 190550Z AUTO 17004KT 10SM CLR 22/14 A3027 650 61 1600 180/04 RMK AO2 SLP243 T02170139 10289 20211 53014
04850KAOH AOH20160619005510806/19/16 00:55:31  5-MIN KAOH 190555Z AUTO 17005KT 10SM CLR 21/14 A3027 650 65 1600 180/05 RMK AO2 T02110144
04850KAOH AOH20160619010010806/19/16 01:00:31  5-MIN KAOH 190600Z AUTO 17004KT 10SM CLR 21/14 A3027 660 65 1600 180/04 RMK AO2 T02110144
04850KAOH AOH20160619010510806/19/16 01:05:31  5-MIN KAOH 190605Z AUTO 17004KT 10SM CLR 21/14 A3027 650 65 1600 180/04 RMK AO2 T02110144
04850KAOH AOH20160619011010806/19/16 01:10:31  5-MIN KAOH 190610Z AUTO 17003KT 10SM CLR 21/14 A3027 650 65 1600 170/03 RMK AO2 T02110144
04850KAOH AOH20160619011510806/19/16 01:15:31  5-MIN KAOH 190615Z AUTO 16004KT 10SM CLR 21/14 A3027 660 65 1600 160/04 RMK AO2 T02110144
04850KAOH AOH20160619012010806/19/16 01:20:31  5-MIN KAOH 190620Z AUTO 16005KT 10SM CLR 21/14 A3027 650 67 1500 160/05 RMK AO2 T02060144
04850KAOH AOH20160619012510806/19/16 01:25:31  5-MIN KAOH 190625Z AUTO 17004KT 10SM CLR 21/14 A3027 650 65 1600 170/04 RMK AO2 T02110144
04850KAOH AOH20160619013010806/19/16 01:30:31  5-MIN KAOH 190630Z AUTO 17004KT 10SM CLR 21/14 A3027 650 65 1600 170/04 RMK AO2 T02110144
04850KAOH AOH20160619013510806/19/16 01:35:31  5-MIN KAOH 190635Z AUTO 18004KT 10SM CLR 21/14 A3027 650 63 1600 180/04 RMK AO2 T02110139
04850KAOH AOH20160619014010806/19/16 01:40:31  5-MIN KAOH 190640Z AUTO 17005KT 10SM CLR 22/14 A3027 650 61 1600 170/05 RMK AO2 T02170139
04850KAOH AOH20160619014510806/19/16 01:45:31  5-MIN KAOH 190645Z AUTO 16005KT 10SM CLR 21/14 A3028 650 65 1500 170/05 RMK AO2 T02060139
04850KAOH AOH20160619015011506/19/16 01:50:31  5-MIN KAOH 190650Z AUTO 16004KT 10SM CLR 21/15 A3028 650 70 1500 170/04 RMK AO2 SLP245 T02060150
04850KAOH AOH20160619015510806/19/16 01:55:31  5-MIN KAOH 190655Z AUTO 16004KT 10SM CLR 21/14 A3028 650 67 1500 170/04 RMK AO2 T02060144
04850KAOH AOH20160619020010806/19/16 02:00:31  5-MIN KAOH 190700Z AUTO 16005KT 10SM CLR 21/14 A3028 650 67 1500 170/05 RMK AO2 T02060144
04850KAOH AOH20160619020510806/19/16 02:05:31  5-MIN KAOH 190705Z AUTO 16005KT 10SM CLR 20/14 A3028 650 70 1400 170/05 RMK AO2 T02000144
04850KAOH AOH20160619021010806/19/16 02:10:31  5-MIN KAOH 190710Z AUTO 16005KT 10SM CLR 20/14 A3028 650 70 1400 170/05 RMK AO2 T02000144
04850KAOH AOH20160619021510806/19/16 02:15:31  5-MIN KAOH 190715Z AUTO 16005KT 10SM CLR 21/14 A3028 650 67 1500 170/05 RMK AO2 T02060144
04850KAOH AOH20160619022010806/19/16 02:20:31  5-MIN KAOH 190720Z AUTO 16005KT 10SM CLR 20/14 A3028 650 70 1400 170/05 RMK AO2 T02000144
04850KAOH AOH20160619022510806/19/16 02:25:31  5-MIN KAOH 190725Z AUTO 16006KT 10SM CLR 20/14 A3028 650 70 1400 170/06 RMK AO2 T02000144
04850KAOH AOH20160619023010806/19/16 02:30:31  5-MIN KAOH 190730Z AUTO 16006KT 10SM CLR 20/14 A3028 650 70 1400 170/06 RMK AO2 T02000144
04850KAOH AOH20160619023510806/19/16 02:35:31  5-MIN KAOH 190735Z AUTO 16006KT 10SM CLR 20/14 A3028 650 70 1400 170/06 RMK AO2 T02000144
04850KAOH AOH20160619024010806/19/16 02:40:31  5-MIN KAOH 190740Z AUTO 16006KT 10SM CLR 20/14 A3028 650 70 1400 170/06 RMK AO2 T02000144
04850KAOH AOH20160619024510806/19/16 02:45:31  5-MIN KAOH 190745Z AUTO 17006KT 10SM CLR 20/14 A3028 650 70 1400 170/06 RMK AO2 T02000144
04850KAOH AOH20160619025011506/19/16 02:50:31  5-MIN KAOH 190750Z AUTO 16006KT 10SM CLR 20/14 A3028 650 67 1400 170/06 RMK AO2 SLP245 T02000139
04850KAOH AOH20160619025510806/19/16 02:55:31  5-MIN KAOH 190755Z AUTO 16006KT 10SM CLR 20/14 A3028 650 70 1400 170/06 RMK AO2 T02000144
04850KAOH AOH20160619030010806/19/16 03:00:31  5-MIN KAOH 190800Z AUTO 17006KT 10SM CLR 20/14 A3028 650 70 1400 170/06 RMK AO2 T02000144
04850KAOH AOH20160619030510806/19/16 03:05:31  5-MIN KAOH 190805Z AUTO 16006KT 10SM CLR 20/14 A3028 650 70 1400 170/06 RMK AO2 T02000144
04850KAOH AOH20160619031010806/19/16 03:10:31  5-MIN KAOH 190810Z AUTO 17005KT 10SM CLR 20/14 A3028 650 67 1400 180/05 RMK AO2 T02000139
04850KAOH AOH20160619031510806/19/16 03:15:31  5-MIN KAOH 190815Z AUTO 17005KT 10SM CLR 20/14 A3028 650 67 1400 180/05 RMK AO2 T02000139
04850KAOH AOH20160619032010806/19/16 03:20:31  5-MIN KAOH 190820Z AUTO 17005KT 10SM CLR 20/14 A3028 650 67 1400 180/05 RMK AO2 T02000139
04850KAOH AOH20160619032510806/19/16 03:25:31  5-MIN KAOH 190825Z AUTO 17005KT 10SM CLR 20/14 A3028 650 67 1400 180/05 RMK AO2 T02000139
04850KAOH AOH20160619033010806/19/16 03:30:31  5-MIN KAOH 190830Z AUTO 17005KT 10SM CLR 19/14 A3028 650 72 1400 180/05 RMK AO2 T01940144
04850KAOH AOH20160619033510806/19/16 03:35:31  5-MIN KAOH 190835Z AUTO 17005KT 10SM CLR 19/14 A3028 650 72 1400 180/05 RMK AO2 T01940144
04850KAOH AOH20160619034010806/19/16 03:40:31  5-MIN KAOH 190840Z AUTO 17006KT 10SM CLR 19/14 A3028 650 75 1300 170/06 RMK AO2 T01890144
04850KAOH AOH20160619034510806/19/16 03:45:31  5-MIN KAOH 190845Z AUTO 17006KT 10SM CLR 19/14 A3028 650 75 1300 170/06 RMK AO2 T01890144
04850KAOH AOH20160619035012106/19/16 03:50:31  5-MIN KAOH 190850Z AUTO 16006KT 10SM CLR 19/14 A3028 650 72 1400 170/06 RMK AO2 SLP246 T01940144 50003
04850KAOH AOH20160619035510806/19/16 03:55:31  5-MIN KAOH 190855Z AUTO 16005KT 10SM CLR 19/14 A3028 650 75 1300 170/05 RMK AO2 T01890144
04850KAOH AOH20160619040010806/19/16 04:00:31  5-MIN KAOH 190900Z AUTO 17005KT 10SM CLR 19/14 A3028 650 75 1300 170/05 RMK AO2 T01890144
04850KAOH AOH20160619040510806/19/16 04:05:31  5-MIN KAOH 190905Z AUTO 16005KT 10SM CLR 19/14 A3028 650 70 1400 170/05 RMK AO2 T01940139
04850KAOH AOH20160619041010806/19/16 04:10:31  5-MIN KAOH 190910Z AUTO 17005KT 10SM CLR 19/14 A3028 650 70 1400 180/05 RMK AO2 T01940139
04850KAOH AOH20160619041510806/19/16 04:15:31  5-MIN KAOH 190915Z AUTO 17004KT 10SM CLR 19/14 A3028 650 72 1400 170/04 RMK AO2 T01940144
04850KAOH AOH20160619042010806/19/16 04:20:31  5-MIN KAOH 190920Z AUTO 17004KT 10SM CLR 19/14 A3028 640 75 1300 170/04 RMK AO2 T01890144
04850KAOH AOH20160619042510806/19/16 04:25:31  5-MIN KAOH 190925Z AUTO 16004KT 10SM CLR 19/14 A3028 650 72 1300 170/04 RMK AO2 T01890139
04850KAOH AOH20160619043010806/19/16 04:30:31  5-MIN KAOH 190930Z AUTO 17004KT 10SM CLR 19/14 A3028 640 72 1300 170/04 RMK AO2 T01890139
04850KAOH AOH20160619043510806/19/16 04:35:31  5-MIN KAOH 190935Z AUTO 17004KT 10SM CLR 19/14 A3028 640 72 1300 170/04 RMK AO2 T01890139
04850KAOH AOH20160619044010806/19/16 04:40:31  5-MIN KAOH 190940Z AUTO 16004KT 10SM CLR 18/14 A3028 640 78 1200 170/04 RMK AO2 T01830144
04850KAOH AOH20160619044510806/19/16 04:45:31  5-MIN KAOH 190945Z AUTO 17004KT 10SM CLR 18/14 A3029 640 78 1200 170/04 RMK AO2 T01830144
04850KAOH AOH20160619045011506/19/16 04:50:31  5-MIN KAOH 190950Z AUTO 17005KT 10SM CLR 19/14 A3029 640 72 1300 170/05 RMK AO2 SLP248 T01890139
04850KAOH AOH20160619045510806/19/16 04:55:31  5-MIN KAOH 190955Z AUTO 16005KT 10SM CLR 18/14 A3029 640 78 1200 170/05 RMK AO2 T01830144
04850KAOH AOH20160619050010806/19/16 05:00:31  5-MIN KAOH 191000Z AUTO 16005KT 10SM CLR 18/14 A3029 640 78 1200 170/05 RMK AO2 T01830144
04850KAOH AOH20160619050510806/19/16 05:05:31  5-MIN KAOH 191005Z AUTO 17005KT 10SM CLR 18/14 A3029 640 75 1200 170/05 RMK AO2 T01830139
04850KAOH AOH20160619051010806/19/16 05:10:31  5-MIN KAOH 191010Z AUTO 17005KT 10SM CLR 19/14 A3029 640 70 1300 180/05 RMK AO2 T01940139
04850KAOH AOH20160619051510806/19/16 05:15:31  5-MIN KAOH 191015Z AUTO 16006KT 10SM CLR 19/14 A3029 640 75 1300 170/06 RMK AO2 T01890144
04850KAOH AOH20160619052010806/19/16 05:20:31  5-MIN KAOH 191020Z AUTO 17005KT 10SM CLR 18/14 A3030 630 78 1200 170/05 RMK AO2 T01830144
04850KAOH AOH20160619052510806/19/16 05:25:31  5-MIN KAOH 191025Z AUTO 16006KT 10SM CLR 19/14 A3029 630 75 1300 170/06 RMK AO2 T01890144
04850KAOH AOH20160619053010806/19/16 05:30:31  5-MIN KAOH 191030Z AUTO 16006KT 10SM CLR 18/14 A3029 630 78 1200 170/06 RMK AO2 T01830144
04850KAOH AOH20160619053510806/19/16 05:35:31  5-MIN KAOH 191035Z AUTO 16006KT 10SM CLR 19/14 A3029 630 75 1300 170/06 RMK AO2 T01890144
04850KAOH AOH20160619054010806/19/16 05:40:31  5-MIN KAOH 191040Z AUTO 16006KT 10SM CLR 19/14 A3029 630 75 1300 170/06 RMK AO2 T01890144
04850KAOH AOH20160619054510806/19/16 05:45:31  5-MIN KAOH 191045Z AUTO 16006KT 10SM CLR 19/14 A3029 630 72 1300 170/06 RMK AO2 T01940144
04850KAOH AOH20160619055011506/19/16 05:50:31  5-MIN KAOH 191050Z AUTO 16006KT 10SM CLR 19/14 A3030 630 75 1300 160/06 RMK AO2 SLP251 T01890144
04850KAOH AOH20160619055510806/19/16 05:55:31  5-MIN KAOH 191055Z AUTO 16006KT 10SM CLR 19/15 A3030 630 78 1300 170/06 RMK AO2 T01890150
04850KAOH AOH20160619060010806/19/16 06:00:31  5-MIN KAOH 191100Z AUTO 16006KT 10SM CLR 19/15 A3030 630 78 1300 160/06 RMK AO2 T01890150
04850KAOH AOH20160619060510806/19/16 06:05:31  5-MIN KAOH 191105Z AUTO 16006KT 10SM CLR 19/15 A3030 630 78 1300 160/06 RMK AO2 T01890150
04850KAOH AOH20160619061010806/19/16 06:10:31  5-MIN KAOH 191110Z AUTO 15007KT 10SM CLR 19/15 A3030 630 78 1300 160/07 RMK AO2 T01890150
04850KAOH AOH20160619061510806/19/16 06:15:31  5-MIN KAOH 191115Z AUTO 15006KT 10SM CLR 19/15 A3030 620 75 1300 160/06 RMK AO2 T01940150
04850KAOH AOH20160619062010806/19/16 06:20:31  5-MIN KAOH 191120Z AUTO 16006KT 10SM CLR 19/15 A3031 620 75 1300 160/06 RMK AO2 T01940150
04850KAOH AOH20160619062510806/19/16 06:25:31  5-MIN KAOH 191125Z AUTO 15006KT 10SM CLR 19/15 A3031 620 75 1300 160/06 RMK AO2 T01940150
04850KAOH AOH20160619063010806/19/16 06:30:31  5-MIN KAOH 191130Z AUTO 16007KT 10SM CLR 19/15 A3031 620 75 1300 160/07 RMK AO2 T01940150
04850KAOH AOH20160619063510806/19/16 06:35:31  5-MIN KAOH 191135Z AUTO 16007KT 10SM CLR 20/15 A3031 620 72 1400 170/07 RMK AO2 T02000150
04850KAOH AOH20160619064010806/19/16 06:40:31  5-MIN KAOH 191140Z AUTO 16007KT 10SM CLR 20/15 A3031 620 72 1400 170/07 RMK AO2 T02000150
04850KAOH AOH20160619064510806/19/16 06:45:31  5-MIN KAOH 191145Z AUTO 16007KT 10SM CLR 21/15 A3031 620 70 1500 170/07 RMK AO2 T02060150
04850KAOH AOH20160619065013306/19/16 06:50:31  5-MIN KAOH 191150Z AUTO 16006KT 10SM CLR 21/15 A3031 620 70 1400 170/06 RMK AO2 SLP257 T02060150 10217 20183 51002
04850KAOH AOH20160619065510806/19/16 06:55:31  5-MIN KAOH 191155Z AUTO 16006KT 10SM CLR 21/16 A3031 620 73 1400 170/06 RMK AO2 T02060156
04850KAOH AOH20160619070010806/19/16 07:00:31  5-MIN KAOH 191200Z AUTO 17007KT 10SM CLR 21/15 A3031 610 68 1500 170/07 RMK AO2 T02110150
04850KAOH AOH20160619070510806/19/16 07:05:31  5-MIN KAOH 191205Z AUTO 16007KT 10SM CLR 21/15 A3031 610 68 1500 170/07 RMK AO2 T02110150
04850KAOH AOH20160619071010806/19/16 07:10:31  5-MIN KAOH 191210Z AUTO 17007KT 10SM CLR 22/16 A3032 610 68 1600 170/07 RMK AO2 T02170156
04850KAOH AOH20160619071510806/19/16 07:15:31  5-MIN KAOH 191215Z AUTO 17007KT 10SM CLR 22/16 A3032 610 68 1600 170/07 RMK AO2 T02170156
04850KAOH AOH20160619072010806/19/16 07:20:31  5-MIN KAOH 191220Z AUTO 17007KT 10SM CLR 22/15 A3032 610 65 1600 180/07 RMK AO2 T02170150
04850KAOH AOH20160619072510806/19/16 07:25:31  5-MIN KAOH 191225Z AUTO 17006KT 10SM CLR 22/16 A3033 600 68 1600 180/06 RMK AO2 T02170156
04850KAOH AOH20160619073010806/19/16 07:30:31  5-MIN KAOH 191230Z AUTO 17006KT 10SM CLR 22/16 A3033 600 65 1600 180/06 RMK AO2 T02220156
04850KAOH AOH20160619073510806/19/16 07:35:31  5-MIN KAOH 191235Z AUTO 18007KT 10SM CLR 23/16 A3033 600 63 1700 180/07 RMK AO2 T02280156
04850KAOH AOH20160619074010806/19/16 07:40:31  5-MIN KAOH 191240Z AUTO 18007KT 10SM CLR 23/16 A3033 600 63 1700 190/07 RMK AO2 T02280156
04850KAOH AOH20160619074510806/19/16 07:45:31  5-MIN KAOH 191245Z AUTO 18008KT 10SM CLR 23/15 A3033 600 61 1700 190/08 RMK AO2 T02280150
04850KAOH AOH20160619075011506/19/16 07:50:31  5-MIN KAOH 191250Z AUTO 17009KT 10SM CLR 23/15 A3033 600 59 1700 180/09 RMK AO2 SLP263 T02330150
04850KAOH AOH20160619075510806/19/16 07:55:31  5-MIN KAOH 191255Z AUTO 18010KT 10SM CLR 23/15 A3033 600 59 1700 180/10 RMK AO2 T02330150
04850KAOH AOH20160619080010806/19/16 08:00:31  5-MIN KAOH 191300Z AUTO 17008KT 10SM CLR 23/15 A3033 600 59 1700 180/08 RMK AO2 T02330150
04850KAOH AOH20160619080510806/19/16 08:05:31  5-MIN KAOH 191305Z AUTO 18009KT 10SM CLR 23/15 A3033 600 59 1700 180/09 RMK AO2 T02330150
04850KAOH AOH20160619081010806/19/16 08:10:31  5-MIN KAOH 191310Z AUTO 17009KT 10SM CLR 24/15 A3033 600 57 1800 180/09 RMK AO2 T02390150
04850KAOH AOH20160619081510806/19/16 08:15:31  5-MIN KAOH 191315Z AUTO 18008KT 10SM CLR 24/15 A3033 600 57 1800 190/08 RMK AO2 T02390150
04850KAOH AOH20160619082010806/19/16 08:20:31  5-MIN KAOH 191320Z AUTO 18008KT 10SM CLR 24/16 A3033 600 59 1800 190/08 RMK AO2 T02390156
04850KAOH AOH20160619082510806/19/16 08:25:31  5-MIN KAOH 191325Z AUTO 17009KT 10SM CLR 24/16 A3033 600 59 1800 180/09 RMK AO2 T02390156
04850KAOH AOH20160619083010806/19/16 08:30:31  5-MIN KAOH 191330Z AUTO 17009KT 10SM CLR 24/15 A3033 600 57 1800 180/09 RMK AO2 T02390150
04850KAOH AOH20160619083510806/19/16 08:35:31  5-MIN KAOH 191335Z AUTO 18009KT 10SM CLR 24/16 A3033 600 57 1900 190/09 RMK AO2 T02440156
04850KAOH AOH20160619084010806/19/16 08:40:31  5-MIN KAOH 191340Z AUTO 19008KT 10SM CLR 24/15 A3032 610 55 1900 190/08 RMK AO2 T02440150
04850KAOH AOH20160619084510806/19/16 08:45:31  5-MIN KAOH 191345Z AUTO 19008KT 10SM CLR 24/16 A3032 610 57 1900 190/08 RMK AO2 T02440156
04850KAOH AOH20160619085011506/19/16 08:50:31  5-MIN KAOH 191350Z AUTO 18009KT 10SM CLR 25/16 A3032 610 55 1900 180/09 RMK AO2 SLP260 T02500156
04850KAOH AOH20160619085510806/19/16 08:55:31  5-MIN KAOH 191355Z AUTO 18007KT 10SM CLR 24/16 A3032 610 57 1900 190/07 RMK AO2 T02440156
04850KAOH AOH20160619090010806/19/16 09:00:31  5-MIN KAOH 191400Z AUTO 17008KT 10SM CLR 25/16 A3032 610 55 1900 180/08 RMK AO2 T02500156
04850KAOH AOH20160619090510806/19/16 09:05:31  5-MIN KAOH 191405Z AUTO 17010KT 10SM CLR 25/16 A3032 610 57 1900 170/10 RMK AO2 T02500161
04850KAOH AOH20160619091010806/19/16 09:10:31  5-MIN KAOH 191410Z AUTO 17010KT 10SM CLR 25/16 A3032 610 57 1900 180/10 RMK AO2 T02500161
04850KAOH AOH20160619091510806/19/16 09:15:31  5-MIN KAOH 191415Z AUTO 19008KT 10SM CLR 25/16 A3032 610 55 1900 200/08 RMK AO2 T02500156
04850KAOH AOH20160619092010806/19/16 09:20:31  5-MIN KAOH 191420Z AUTO 17009KT 10SM CLR 25/16 A3032 610 57 2000 180/09 RMK AO2 T02500161
04850KAOH AOH20160619092510806/19/16 09:25:31  5-MIN KAOH 191425Z AUTO 18008KT 10SM CLR 25/16 A3031 620 57 2000 180/08 RMK AO2 T02500161
04850KAOH AOH20160619093010806/19/16 09:30:31  5-MIN KAOH 191430Z AUTO 19009KT 10SM CLR 26/16 A3031 620 53 2000 190/09 RMK AO2 T02560156
04850KAOH AOH20160619093510806/19/16 09:35:31  5-MIN KAOH 191435Z AUTO 17009KT 10SM CLR 26/16 A3031 620 55 2000 170/09 RMK AO2 T02560161
04850KAOH AOH20160619094010806/19/16 09:40:31  5-MIN KAOH 191440Z AUTO 19008KT 10SM CLR 26/16 A3031 620 55 2000 190/08 RMK AO2 T02560161
04850KAOH AOH20160619094510806/19/16 09:45:31  5-MIN KAOH 191445Z AUTO 20008KT 10SM CLR 26/16 A3031 620 55 2000 210/08 RMK AO2 T02560161
04850KAOH AOH20160619095012106/19/16 09:50:31  5-MIN KAOH 191450Z AUTO 18008KT 10SM CLR 26/16 A3031 620 53 2000 180/08 RMK AO2 SLP256 T02560156 53011
04850KAOH AOH20160619095510806/19/16 09:55:31  5-MIN KAOH 191455Z AUTO 17008KT 10SM CLR 26/16 A3031 620 53 2100 180/08 RMK AO2 T02610161
04850KAOH AOH20160619100010806/19/16 10:00:31  5-MIN KAOH 191500Z AUTO 17009KT 10SM CLR 26/16 A3030 620 53 2100 170/09 RMK AO2 T02610161
04850KAOH AOH20160619100510806/19/16 10:05:31  5-MIN KAOH 191505Z AUTO 17009KT 10SM CLR 26/16 A3030 630 53 2100 180/09 RMK AO2 T02610161
04850KAOH AOH20160619101010806/19/16 10:10:31  5-MIN KAOH 191510Z AUTO 19009KT 10SM CLR 27/16 A3030 630 52 2200 190/09 RMK AO2 T02670161
04850KAOH AOH20160619101510806/19/16 10:15:31  5-MIN KAOH 191515Z AUTO 17008KT 10SM CLR 27/16 A3030 630 50 2200 180/08 RMK AO2 T02720161
04850KAOH AOH20160619102010806/19/16 10:20:31  5-MIN KAOH 191520Z AUTO 18010KT 10SM CLR 27/16 A3030 630 52 2200 190/10 RMK AO2 T02670161
04850KAOH AOH20160619102510806/19/16 10:25:31  5-MIN KAOH 191525Z AUTO 19006KT 10SM CLR 27/16 A3030 630 52 2200 190/06 RMK AO2 T02670161
04850KAOH AOH20160619103010806/19/16 10:30:31  5-MIN KAOH 191530Z AUTO 17009KT 10SM CLR 27/16 A3030 630 48 2200 180/09 RMK AO2 T02720156
04850KAOH AOH20160619103510806/19/16 10:35:31  5-MIN KAOH 191535Z AUTO 22005KT 10SM CLR 27/16 A3030 630 50 2200 230/05 RMK AO2 T02670156
04850KAOH AOH20160619104010806/19/16 10:40:31  5-MIN KAOH 191540Z AUTO 21008KT 10SM CLR 27/16 A3030 630 50 2200 220/08 RMK AO2 T02720161
04850KAOH AOH20160619104510806/19/16 10:45:31  5-MIN KAOH 191545Z AUTO 22008KT 10SM CLR 27/16 A3030 630 50 2200 220/08 RMK AO2 T02720161
04850KAOH AOH20160619105011506/19/16 10:50:31  5-MIN KAOH 191550Z AUTO VRB06KT 10SM CLR 28/16 A3030 630 48 2300 VRB/06 RMK AO2 SLP253 T02780161
04850KAOH AOH20160619105510806/19/16 10:55:31  5-MIN KAOH 191555Z AUTO 20008KT 10SM CLR 28/15 A3030 630 45 2300 210/08 RMK AO2 T02780150
04850KAOH AOH20160619110010806/19/16 11:00:31  5-MIN KAOH 191600Z AUTO 21007KT 10SM CLR 28/15 A3030 620 45 2300 220/07 RMK AO2 T02780150
04850KAOH AOH20160619110510806/19/16 11:05:31  5-MIN KAOH 191605Z AUTO 22006KT 10SM CLR 27/15 A3030 620 46 2200 220/06 RMK AO2 T02720150
04850KAOH AOH20160619111010806/19/16 11:10:31  5-MIN KAOH 191610Z AUTO 18006KT 10SM CLR 28/15 A3031 620 45 2300 190/06 RMK AO2 T02780150
04850KAOH AOH20160619111510806/19/16 11:15:31  5-MIN KAOH 191615Z AUTO 19006KT 10SM CLR 28/16 A3030 620 46 2300 200/06 RMK AO2 T02780156
04850KAOH AOH20160619112010806/19/16 11:20:31  5-MIN KAOH 191620Z AUTO 21005KT 10SM CLR 28/15 A3030 620 45 2300 220/05 RMK AO2 T02780150
04850KAOH AOH20160619112510806/19/16 11:25:31  5-MIN KAOH 191625Z AUTO 18007KT 10SM CLR 28/15 A3030 620 45 2300 190/07 RMK AO2 T02780150
04850KAOH AOH20160619113010806/19/16 11:30:31  5-MIN KAOH 191630Z AUTO 17008KT 10SM CLR 28/16 A3030 630 46 2300 170/08 RMK AO2 T02780156
04850KAOH AOH20160619113510806/19/16 11:35:31  5-MIN KAOH 191635Z AUTO 23007KT 10SM CLR 28/15 A3030 630 45 2300 240/07 RMK AO2 T02780150
04850KAOH AOH20160619114010806/19/16 11:40:31  5-MIN KAOH 191640Z AUTO 22009KT 10SM CLR 28/15 A3030 630 43 2300 230/09 RMK AO2 T02830150
04850KAOH AOH20160619114510806/19/16 11:45:31  5-MIN KAOH 191645Z AUTO 22008KT 10SM CLR 28/14 A3029 640 40 2400 230/08 RMK AO2 T02830139
04850KAOH AOH20160619115011506/19/16 11:50:31  5-MIN KAOH 191650Z AUTO 19008KT 10SM CLR 28/12 A3029 640 36 2400 190/08 RMK AO2 SLP249 T02830122
04850KAOH AOH20160619115510806/19/16 11:55:31  5-MIN KAOH 191655Z AUTO 16009KT 10SM CLR 28/12 A3029 640 36 2400 170/09 RMK AO2 T02830122
04850KAOH AOH20160619120010806/19/16 12:00:31  5-MIN KAOH 191700Z AUTO VRB05KT 10SM CLR 28/14 A3029 640 40 2400 VRB/05 RMK AO2 T02830139
04850KAOH AOH20160619120510806/19/16 12:05:31  5-MIN KAOH 191705Z AUTO 20008KT 10SM CLR 29/14 A3029 640 39 2400 200/08 RMK AO2 T02890139
04850KAOH AOH20160619121010806/19/16 12:10:31  5-MIN KAOH 191710Z AUTO 18007KT 10SM CLR 29/14 A3029 640 39 2400 190/07 RMK AO2 T02890139
04850KAOH AOH20160619121510806/19/16 12:15:31  5-MIN KAOH 191715Z AUTO 19009KT 10SM CLR 29/14 A3028 640 40 2400 200/09 RMK AO2 T02890144
04850KAOH AOH20160619122010806/19/16 12:20:31  5-MIN KAOH 191720Z AUTO 21005KT 10SM CLR 28/13 A3028 650 39 2400 210/05 RMK AO2 T02830133
04850KAOH AOH20160619122510806/19/16 12:25:31  5-MIN KAOH 191725Z AUTO VRB03KT 10SM CLR 28/13 A3028 650 39 2400 VRB/03 RMK AO2 T02830133
04850KAOH AOH20160619123013006/19/16 12:30:31  5-MIN KAOH 191730Z AUTO 19009G14KT 140V260 10SM CLR 29/14 A3028 650 38 2500 200/09G14 150V270 RMK AO2 T02940139
04850KAOH AOH20160619123511406/19/16 12:35:31  5-MIN KAOH 191735Z AUTO 25007G14KT 10SM CLR 29/14 A3028 640 38 2500 260/07G14 RMK AO2 T02940139
04850KAOH AOH20160619124010806/19/16 12:40:31  5-MIN KAOH 191740Z AUTO 25009KT 10SM CLR 29/13 A3028 650 36 2500 260/09 RMK AO2 T02940133
04850KAOH AOH20160619124510806/19/16 12:45:31  5-MIN KAOH 191745Z AUTO 21009KT 10SM CLR 29/13 A3028 650 36 2500 220/09 RMK AO2 T02940133
04850KAOH AOH20160619125013906/19/16 12:50:31  5-MIN KAOH 191750Z AUTO 22007G14KT 10SM CLR 29/13 A3028 650 36 2400 230/07G14 RMK AO2 SLP244 T02890128 10300 20206 58001
04850KAOH AOH20160619125509806/19/16 12:55:31  5-MIN KAOH 191755Z AUTO 10SM CLR 29/13 A3027 650 38 2400 M /M RMK AO2 T02890133
04850KAOH AOH20160619130010806/19/16 13:00:31  5-MIN KAOH 191800Z AUTO 22012KT 10SM CLR 29/13 A3027 650 36 2500 230/12 RMK AO2 T02940133
04850KAOH AOH20160619130510806/19/16 13:05:31  5-MIN KAOH 191805Z AUTO 23006KT 10SM CLR 29/13 A3027 650 35 2500 240/06 RMK AO2 T02940128
04850KAOH AOH20160619131010806/19/16 13:10:31  5-MIN KAOH 191810Z AUTO 25006KT 10SM CLR 29/13 A3027 650 36 2400 260/06 RMK AO2 T02890128
04850KAOH AOH20160619131511406/19/16 13:15:31  5-MIN KAOH 191815Z AUTO 20013G16KT 10SM CLR 29/13 A3027 660 36 2500 200/13G16 RMK AO2 T02940133
04850KAOH AOH20160619132011406/19/16 13:20:31  5-MIN KAOH 191820Z AUTO 23007G16KT 10SM CLR 29/13 A3027 660 36 2500 240/07G16 RMK AO2 T02940133
04850KAOH AOH20160619132510806/19/16 13:25:31  5-MIN KAOH 191825Z AUTO 23008KT 10SM CLR 29/14 A3027 660 38 2500 240/08 RMK AO2 T02940139
04850KAOH AOH20160619133010806/19/16 13:30:31  5-MIN KAOH 191830Z AUTO 24009KT 10SM CLR 30/14 A3027 660 36 2600 240/09 RMK AO2 T03000139
04850KAOH AOH20160619133510806/19/16 13:35:31  5-MIN KAOH 191835Z AUTO 25007KT 10SM CLR 30/14 A3026 660 36 2600 250/07 RMK AO2 T03000139
04850KAOH AOH20160619134011706/19/16 13:40:31  5-MIN KAOH 191840Z AUTO 21010G16KT 10SM FEW065 30/14 A3026 670 36 2600 220/10G16 RMK AO2 T03000139
04850KAOH AOH20160619134511106/19/16 13:45:31  5-MIN KAOH 191845Z AUTO 21009KT 10SM FEW065 30/14 A3026 670 36 2600 220/09 RMK AO2 T03000139
04850KAOH AOH20160619135012406/19/16 13:50:31  5-MIN KAOH 191850Z AUTO 19006G15KT 10SM FEW065 29/13 A3025 670 36 2500 200/06G15 RMK AO2 SLP237 T02940133
04850KAOH AOH20160619135511106/19/16 13:55:31  5-MIN KAOH 191855Z AUTO 22013KT 10SM FEW065 30/14 A3025 670 38 2600 230/13 RMK AO2 T03000144
04850KAOH AOH20160619140011706/19/16 14:00:31  5-MIN KAOH 191900Z AUTO 22009G15KT 10SM FEW065 30/14 A3025 670 36 2600 220/09G15 RMK AO2 T03000139
04850KAOH AOH20160619140511106/19/16 14:05:31  5-MIN KAOH 191905Z AUTO 23006KT 10SM FEW065 30/14 A3025 670 36 2600 240/06 RMK AO2 T03000139
04850KAOH AOH20160619141011106/19/16 14:10:31  5-MIN KAOH 191910Z AUTO 19007KT 10SM FEW065 30/14 A3025 670 38 2600 200/07 RMK AO2 T03000144
04850KAOH AOH20160619141511106/19/16 14:15:31  5-MIN KAOH 191915Z AUTO 20006KT 10SM FEW065 30/14 A3025 670 36 2600 210/06 RMK AO2 T03000139
04850KAOH AOH20160619142011106/19/16 14:20:31  5-MIN KAOH 191920Z AUTO 23008KT 10SM FEW065 30/14 A3025 670 38 2600 230/08 RMK AO2 T03000144
04850KAOH AOH20160619142511106/19/16 14:25:31  5-MIN KAOH 191925Z AUTO 20010KT 10SM FEW065 30/14 A3025 680 38 2600 200/10 RMK AO2 T03000144
04850KAOH AOH20160619143011106/19/16 14:30:31  5-MIN KAOH 191930Z AUTO 22008KT 10SM FEW065 30/15 A3024 680 39 2600 230/08 RMK AO2 T03000150
04850KAOH AOH20160619143511106/19/16 14:35:31  5-MIN KAOH 191935Z AUTO 25012KT 10SM FEW065 31/15 A3025 680 38 2600 260/12 RMK AO2 T03060150
04850KAOH AOH20160619144011106/19/16 14:40:31  5-MIN KAOH 191940Z AUTO 24007KT 10SM FEW065 31/14 A3024 680 37 2700 240/07 RMK AO2 T03060144
04850KAOH AOH20160619144511106/19/16 14:45:31  5-MIN KAOH 191945Z AUTO 20008KT 10SM FEW065 30/15 A3024 680 39 2600 210/08 RMK AO2 T03000150
04850KAOH AOH20160619145012406/19/16 14:50:31  5-MIN KAOH 191950Z AUTO 22013G16KT 10SM FEW070 31/15 A3024 680 38 2700 230/13G16 RMK AO2 SLP232 T03060150
04850KAOH AOH20160619145511706/19/16 14:55:31  5-MIN KAOH 191955Z AUTO 23009G16KT 10SM FEW070 31/14 A3024 690 37 2700 230/09G16 RMK AO2 T03060144
04850KAOH AOH20160619150011106/19/16 15:00:31  5-MIN KAOH 192000Z AUTO 22012KT 10SM FEW070 31/14 A3024 690 37 2700 230/12 RMK AO2 T03060144
04850KAOH AOH20160619150511106/19/16 15:05:31  5-MIN KAOH 192005Z AUTO 24012KT 10SM FEW070 31/15 A3023 690 38 2700 250/12 RMK AO2 T03060150
04850KAOH AOH20160619151011106/19/16 15:10:31  5-MIN KAOH 192010Z AUTO 22008KT 10SM FEW070 31/15 A3023 690 38 2700 230/08 RMK AO2 T03060150
04850KAOH AOH20160619151511106/19/16 15:15:31  5-MIN KAOH 192015Z AUTO 23007KT 10SM FEW065 31/15 A3023 690 38 2700 230/07 RMK AO2 T03060150
04850KAOH AOH20160619152011106/19/16 15:20:31  5-MIN KAOH 192020Z AUTO 22009KT 10SM FEW065 31/15 A3023 690 38 2700 230/09 RMK AO2 T03060150
04850KAOH AOH20160619152511106/19/16 15:25:31  5-MIN KAOH 192025Z AUTO 23013KT 10SM FEW065 31/15 A3023 690 38 2700 240/13 RMK AO2 T03060150
04850KAOH AOH20160619153011106/19/16 15:30:31  5-MIN KAOH 192030Z AUTO 22008KT 10SM FEW065 31/15 A3023 690 38 2700 230/08 RMK AO2 T03060150
04850KAOH AOH20160619153511106/19/16 15:35:31  5-MIN KAOH 192035Z AUTO VRB03KT 10SM FEW065 30/15 A3023 690 39 2600 VRB/03 RMK AO2 T03000150
04850KAOH AOH20160619154010106/19/16 15:40:31  5-MIN KAOH 192040Z AUTO 10SM FEW065 31/16 A3023 690 39 2700 M /M RMK AO2 T03060156
04850KAOH AOH20160619154511106/19/16 15:45:31  5-MIN KAOH 192045Z AUTO 20009KT 10SM FEW065 31/16 A3023 700 39 2700 200/09 RMK AO2 T03060156
04850KAOH AOH20160619155012406/19/16 15:50:31  5-MIN KAOH 192050Z AUTO 22009KT 10SM FEW065 31/16 A3023 700 39 2700 230/09 RMK AO2 SLP228 T03060156 58011
04850KAOH AOH20160619155511106/19/16 15:55:31  5-MIN KAOH 192055Z AUTO 21008KT 10SM FEW065 31/15 A3022 700 38 2700 220/08 RMK AO2 T03060150
04850KAOH AOH20160619160011106/19/16 16:00:31  5-MIN KAOH 192100Z AUTO 21008KT 10SM FEW065 31/16 A3022 700 39 2700 220/08 RMK AO2 T03060156
04850KAOH AOH20160619160511106/19/16 16:05:31  5-MIN KAOH 192105Z AUTO 20008KT 10SM FEW065 30/15 A3022 700 39 2600 200/08 RMK AO2 T03000150
04850KAOH AOH20160619161011106/19/16 16:10:31  5-MIN KAOH 192110Z AUTO 20007KT 10SM FEW065 30/15 A3022 710 39 2600 210/07 RMK AO2 T03000150
04850KAOH AOH20160619161511106/19/16 16:15:31  5-MIN KAOH 192115Z AUTO 21009KT 10SM FEW070 31/16 A3022 700 39 2700 220/09 RMK AO2 T03060156
04850KAOH AOH20160619162011106/19/16 16:20:31  5-MIN KAOH 192120Z AUTO 22008KT 10SM FEW065 31/15 A3022 700 38 2700 220/08 RMK AO2 T03060150
04850KAOH AOH20160619162511106/19/16 16:25:31  5-MIN KAOH 192125Z AUTO 24011KT 10SM FEW065 31/15 A3022 700 37 2700 240/11 RMK AO2 T03110150
04850KAOH AOH20160619163011106/19/16 16:30:31  5-MIN KAOH 192130Z AUTO 25011KT 10SM FEW065 31/14 A3022 700 35 2700 250/11 RMK AO2 T03110144
04850KAOH AOH20160619163511706/19/16 16:35:31  5-MIN KAOH 192135Z AUTO 22007G16KT 10SM FEW070 31/14 A3022 710 35 2700 220/07G16 RMK AO2 T03110144
04850KAOH AOH20160619164011106/19/16 16:40:31  5-MIN KAOH 192140Z AUTO 22009KT 10SM FEW070 31/14 A3021 710 37 2700 220/09 RMK AO2 T03060144
04850KAOH AOH20160619164511106/19/16 16:45:31  5-MIN KAOH 192145Z AUTO 24009KT 10SM FEW070 31/15 A3021 710 37 2700 240/09 RMK AO2 T03110150
04850KAOH AOH20160619165011506/19/16 16:50:31  5-MIN KAOH 192150Z AUTO 25009KT 10SM CLR 31/15 A3021 710 37 2700 260/09 RMK AO2 SLP222 T03110150
04850KAOH AOH20160619165510806/19/16 16:55:31  5-MIN KAOH 192155Z AUTO 25010KT 10SM CLR 31/14 A3021 710 35 2700 260/10 RMK AO2 T03110144
04850KAOH AOH20160619170010806/19/16 17:00:31  5-MIN KAOH 192200Z AUTO 26012KT 10SM CLR 31/14 A3021 710 35 2700 270/12 RMK AO2 T03110144
04850KAOH AOH20160619170510806/19/16 17:05:31  5-MIN KAOH 192205Z AUTO 27011KT 10SM CLR 31/14 A3021 710 35 2800 280/11 RMK AO2 T03110144
04850KAOH AOH20160619171010806/19/16 17:10:31  5-MIN KAOH 192210Z AUTO 26009KT 10SM CLR 31/14 A3021 710 37 2700 260/09 RMK AO2 T03060144
04850KAOH AOH20160619171510806/19/16 17:15:31  5-MIN KAOH 192215Z AUTO 22010KT 10SM CLR 31/15 A3021 710 37 2800 220/10 RMK AO2 T03110150
04850KAOH AOH20160619172010806/19/16 17:20:31  5-MIN KAOH 192220Z AUTO 23008KT 10SM CLR 31/14 A3020 720 35 2800 230/08 RMK AO2 T03110144
04850KAOH AOH20160619172510806/19/16 17:25:31  5-MIN KAOH 192225Z AUTO 21008KT 10SM CLR 31/15 A3020 720 38 2700 210/08 RMK AO2 T03060150
04850KAOH AOH20160619173010806/19/16 17:30:31  5-MIN KAOH 192230Z AUTO 21007KT 10SM CLR 31/14 A3020 720 37 2700 220/07 RMK AO2 T03060144
04850KAOH AOH20160619173510806/19/16 17:35:31  5-MIN KAOH 192235Z AUTO 26012KT 10SM CLR 31/15 A3020 720 37 2800 260/12 RMK AO2 T03110150
04850KAOH AOH20160619174010806/19/16 17:40:31  5-MIN KAOH 192240Z AUTO 24009KT 10SM CLR 31/14 A3020 720 37 2700 240/09 RMK AO2 T03060144
04850KAOH AOH20160619174510806/19/16 17:45:31  5-MIN KAOH 192245Z AUTO 23008KT 10SM CLR 31/15 A3020 720 37 2800 240/08 RMK AO2 T03110150
04850KAOH AOH20160619175011506/19/16 17:50:31  5-MIN KAOH 192250Z AUTO 23007KT 10SM CLR 31/15 A3020 720 38 2700 240/07 RMK AO2 SLP219 T03060150
04850KAOH AOH20160619175510806/19/16 17:55:31  5-MIN KAOH 192255Z AUTO 23007KT 10SM CLR 31/15 A3020 720 38 2700 230/07 RMK AO2 T03060150
04850KAOH AOH20160619180010806/19/16 18:00:31  5-MIN KAOH 192300Z AUTO 23007KT 10SM CLR 31/16 A3020 720 39 2700 240/07 RMK AO2 T03060156
04850KAOH AOH20160619180510806/19/16 18:05:31  5-MIN KAOH 192305Z AUTO 24008KT 10SM CLR 31/15 A3020 720 38 2700 240/08 RMK AO2 T03060150
04850KAOH AOH20160619181010806/19/16 18:10:31  5-MIN KAOH 192310Z AUTO 24007KT 10SM CLR 31/16 A3020 720 39 2700 240/07 RMK AO2 T03060156
04850KAOH AOH20160619181510806/19/16 18:15:31  5-MIN KAOH 192315Z AUTO 24007KT 10SM CLR 31/16 A3020 720 39 2700 240/07 RMK AO2 T03060156
04850KAOH AOH20160619182010806/19/16 18:20:31  5-MIN KAOH 192320Z AUTO 24007KT 10SM CLR 31/16 A3020 720 39 2700 240/07 RMK AO2 T03060156
04850KAOH AOH20160619182510806/19/16 18:25:31  5-MIN KAOH 192325Z AUTO 24008KT 10SM CLR 31/16 A3020 720 39 2700 240/08 RMK AO2 T03060156
04850KAOH AOH20160619183010806/19/16 18:30:31  5-MIN KAOH 192330Z AUTO 23008KT 10SM CLR 31/15 A3020 720 38 2700 240/08 RMK AO2 T03060150
04850KAOH AOH20160619183510806/19/16 18:35:31  5-MIN KAOH 192335Z AUTO 22006KT 10SM CLR 31/16 A3020 720 39 2700 230/06 RMK AO2 T03060156
04850KAOH AOH20160619184010806/19/16 18:40:31  5-MIN KAOH 192340Z AUTO 21005KT 10SM CLR 30/16 A3020 720 41 2600 220/05 RMK AO2 T03000156
04850KAOH AOH20160619184510806/19/16 18:45:31  5-MIN KAOH 192345Z AUTO 22005KT 10SM CLR 30/16 A3020 720 41 2600 230/05 RMK AO2 T03000156
04850KAOH AOH20160619185013306/19/16 18:50:31  5-MIN KAOH 192350Z AUTO 22005KT 10SM CLR 30/16 A3020 720 42 2600 230/05 RMK AO2 SLP220 T03000161 10311 20289 56016
04850KAOH AOH20160619185510806/19/16 18:55:31  5-MIN KAOH 192355Z AUTO 22006KT 10SM CLR 30/16 A3021 710 42 2600 230/06 RMK AO2 T03000161
04850KAOH AOH20160619190010806/19/16 19:00:31  5-MIN KAOH 200000Z AUTO 21004KT 10SM CLR 30/16 A3021 710 42 2600 220/04 RMK AO2 T03000161
04850KAOH AOH20160619190510806/19/16 19:05:31  5-MIN KAOH 200005Z AUTO 22005KT 10SM CLR 29/16 A3021 710 44 2600 220/05 RMK AO2 T02940161
04850KAOH AOH20160619191010806/19/16 19:10:31  5-MIN KAOH 200010Z AUTO 22005KT 10SM CLR 29/16 A3021 710 44 2600 220/05 RMK AO2 T02940161
04850KAOH AOH20160619191510806/19/16 19:15:31  5-MIN KAOH 200015Z AUTO 22004KT 10SM CLR 29/16 A3021 710 44 2600 230/04 RMK AO2 T02940161
04850KAOH AOH20160619192010806/19/16 19:20:31  5-MIN KAOH 200020Z AUTO 21004KT 10SM CLR 29/17 A3021 710 47 2500 220/04 RMK AO2 T02890167
04850KAOH AOH20160619192510806/19/16 19:25:31  5-MIN KAOH 200025Z AUTO 20004KT 10SM CLR 29/17 A3021 710 47 2500 210/04 RMK AO2 T02890167
04850KAOH AOH20160619193010806/19/16 19:30:31  5-MIN KAOH 200030Z AUTO 20004KT 10SM CLR 29/16 A3021 710 45 2500 200/04 RMK AO2 T02890161
04850KAOH AOH20160619193510806/19/16 19:35:31  5-MIN KAOH 200035Z AUTO 19003KT 10SM CLR 29/16 A3021 710 45 2500 200/03 RMK AO2 T02890161
04850KAOH AOH20160619194010806/19/16 19:40:31  5-MIN KAOH 200040Z AUTO 19003KT 10SM CLR 29/16 A3021 710 45 2500 200/03 RMK AO2 T02890161
04850KAOH AOH20160619194510806/19/16 19:45:31  5-MIN KAOH 200045Z AUTO 19003KT 10SM CLR 28/17 A3021 710 48 2400 190/03 RMK AO2 T02830167
04850KAOH AOH20160619195011506/19/16 19:50:31  5-MIN KAOH 200050Z AUTO 19003KT 10SM CLR 28/17 A3021 710 48 2400 190/03 RMK AO2 SLP221 T02830167
04850KAOH AOH20160619195510806/19/16 19:55:31  5-MIN KAOH 200055Z AUTO 18004KT 10SM CLR 28/17 A3021 710 48 2400 190/04 RMK AO2 T02830167
04850KAOH AOH20160619200010806/19/16 20:00:31  5-MIN KAOH 200100Z AUTO 18004KT 10SM CLR 28/18 A3021 710 54 2400 180/04 RMK AO2 T02780178
04850KAOH AOH20160619200511106/19/16 20:05:31  5-MIN KAOH 200105Z AUTO 17004KT 10SM FEW070 27/18 A3021 710 58 2300 180/04 RMK AO2 T02720183
04850KAOH AOH20160619201011106/19/16 20:10:31  5-MIN KAOH 200110Z AUTO 17004KT 10SM SCT075 27/18 A3021 710 56 2300 180/04 RMK AO2 T02720178
04850KAOH AOH20160619201511106/19/16 20:15:31  5-MIN KAOH 200115Z AUTO 17004KT 10SM BKN070 28/18 A3021 710 54 2400 180/04 RMK AO2 T02780178
04850KAOH AOH20160619202011106/19/16 20:20:31  5-MIN KAOH 200120Z AUTO 17004KT 10SM BKN070 27/18 A3021 710 56 2300 170/04 RMK AO2 T02720178
04850KAOH AOH20160619202511106/19/16 20:25:31  5-MIN KAOH 200125Z AUTO 17005KT 10SM BKN070 27/18 A3021 710 57 2300 170/05 RMK AO2 T02670178
04850KAOH AOH20160619203011106/19/16 20:30:31  5-MIN KAOH 200130Z AUTO 16006KT 10SM BKN070 27/18 A3021 710 57 2300 170/06 RMK AO2 T02670178
04850KAOH AOH20160619203511106/19/16 20:35:31  5-MIN KAOH 200135Z AUTO 16005KT 10SM SCT070 27/18 A3021 710 57 2300 170/05 RMK AO2 T02670178
04850KAOH AOH20160619204011106/19/16 20:40:31  5-MIN KAOH 200140Z AUTO 17005KT 10SM SCT075 27/18 A3021 710 57 2300 170/05 RMK AO2 T02670178
04850KAOH AOH20160619204511106/19/16 20:45:31  5-MIN KAOH 200145Z AUTO 17005KT 10SM FEW075 27/18 A3021 710 57 2300 170/05 RMK AO2 T02670178
04850KAOH AOH20160619205011506/19/16 20:50:31  5-MIN KAOH 200150Z AUTO 17005KT 10SM CLR 26/18 A3021 710 59 2200 170/05 RMK AO2 SLP223 T02610178
04850KAOH AOH20160619205511106/19/16 20:55:31  5-MIN KAOH 200155Z AUTO 18004KT 10SM FEW080 26/18 A3021 710 59 2200 180/04 RMK AO2 T02610178
04850KAOH AOH20160619210011106/19/16 21:00:31  5-MIN KAOH 200200Z AUTO 17004KT 10SM SCT075 27/18 A3021 710 57 2300 180/04 RMK AO2 T02670178
04850KAOH AOH20160619210511106/19/16 21:05:31  5-MIN KAOH 200205Z AUTO 17004KT 10SM BKN075 27/18 A3021 710 57 2300 180/04 RMK AO2 T02670178
04850KAOH AOH20160619211011106/19/16 21:10:31  5-MIN KAOH 200210Z AUTO 17004KT 10SM BKN080 26/18 A3021 710 59 2200 170/04 RMK AO2 T02610178
04850KAOH AOH20160619211511106/19/16 21:15:31  5-MIN KAOH 200215Z AUTO 17004KT 10SM BKN080 26/18 A3021 710 64 2100 170/04 RMK AO2 T02560183
04850KAOH AOH20160619212011106/19/16 21:20:31  5-MIN KAOH 200220Z AUTO 17004KT 10SM SCT080 26/18 A3021 710 64 2100 170/04 RMK AO2 T02560183
04850KAOH AOH20160619212511106/19/16 21:25:31  5-MIN KAOH 200225Z AUTO 17004KT 10SM SCT080 26/18 A3021 710 64 2100 180/04 RMK AO2 T02560183
04850KAOH AOH20160619213011106/19/16 21:30:31  5-MIN KAOH 200230Z AUTO 17004KT 10SM FEW080 26/18 A3021 710 64 2100 180/04 RMK AO2 T02560183
04850KAOH AOH20160619213511106/19/16 21:35:31  5-MIN KAOH 200235Z AUTO 18004KT 10SM FEW085 26/18 A3021 710 64 2100 180/04 RMK AO2 T02560183
04850KAOH AOH20160619214010806/19/16 21:40:31  5-MIN KAOH 200240Z AUTO 17004KT 10SM CLR 26/18 A3021 710 61 2100 180/04 RMK AO2 T02560178
04850KAOH AOH20160619214510806/19/16 21:45:31  5-MIN KAOH 200245Z AUTO 18005KT 10SM CLR 26/18 A3021 710 64 2100 180/05 RMK AO2 T02560183
04850KAOH AOH20160619215012106/19/16 21:50:31  5-MIN KAOH 200250Z AUTO 18005KT 10SM CLR 26/18 A3021 710 64 2100 180/05 RMK AO2 SLP222 T02560183 55006
04850KAOH AOH20160619215510806/19/16 21:55:31  5-MIN KAOH 200255Z AUTO 18006KT 10SM CLR 26/18 A3021 710 64 2100 180/06 RMK AO2 T02560183
04850KAOH AOH20160619220010806/19/16 22:00:31  5-MIN KAOH 200300Z AUTO 18007KT 10SM CLR 26/18 A3021 710 64 2100 190/07 RMK AO2 T02560183
04850KAOH AOH20160619220510806/19/16 22:05:31  5-MIN KAOH 200305Z AUTO 19006KT 10SM CLR 26/18 A3021 710 62 2200 190/06 RMK AO2 T02610183
04850KAOH AOH20160619221010806/19/16 22:10:31  5-MIN KAOH 200310Z AUTO 18006KT 10SM CLR 26/18 A3020 720 64 2100 190/06 RMK AO2 T02560183
04850KAOH AOH20160619221510806/19/16 22:15:31  5-MIN KAOH 200315Z AUTO 18006KT 10SM CLR 26/18 A3020 720 64 2100 190/06 RMK AO2 T02560183
04850KAOH AOH20160619222010806/19/16 22:20:31  5-MIN KAOH 200320Z AUTO 18006KT 10SM CLR 26/18 A3020 720 64 2100 190/06 RMK AO2 T02560183
04850KAOH AOH20160619222510806/19/16 22:25:31  5-MIN KAOH 200325Z AUTO 19006KT 10SM CLR 26/18 A3020 720 64 2100 190/06 RMK AO2 T02560183
04850KAOH AOH20160619223010806/19/16 22:30:31  5-MIN KAOH 200330Z AUTO 18008KT 10SM CLR 26/18 A3019 730 64 2200 190/08 RMK AO2 T02560183
04850KAOH AOH20160619223510806/19/16 22:35:31  5-MIN KAOH 200335Z AUTO 18007KT 10SM CLR 26/19 A3019 730 66 2200 190/07 RMK AO2 T02560189
04850KAOH AOH20160619224010806/19/16 22:40:31  5-MIN KAOH 200340Z AUTO 18007KT 10SM CLR 26/19 A3019 730 66 2200 180/07 RMK AO2 T02560189
04850KAOH AOH20160619224510806/19/16 22:45:31  5-MIN KAOH 200345Z AUTO 18007KT 10SM CLR 25/19 A3019 730 68 2100 190/07 RMK AO2 T02500189
04850KAOH AOH20160619225011506/19/16 22:50:31  5-MIN KAOH 200350Z AUTO 18008KT 10SM CLR 26/19 A3019 730 66 2200 190/08 RMK AO2 SLP213 T02560189
04850KAOH AOH20160619225510806/19/16 22:55:31  5-MIN KAOH 200355Z AUTO 19007KT 10SM CLR 26/19 A3019 730 66 2200 190/07 RMK AO2 T02560189
04850KAOH AOH20160619230010806/19/16 23:00:31  5-MIN KAOH 200400Z AUTO 18007KT 10SM CLR 26/19 A3018 730 66 2200 190/07 RMK AO2 T02560189
04850KAOH AOH20160619230510806/19/16 23:05:31  5-MIN KAOH 200405Z AUTO 18007KT 10SM CLR 25/19 A3018 740 68 2100 190/07 RMK AO2 T02500189
04850KAOH AOH20160619231010806/19/16 23:10:31  5-MIN KAOH 200410Z AUTO 18008KT 10SM CLR 26/19 A3018 740 66 2200 190/08 RMK AO2 T02560189
04850KAOH AOH20160619231510806/19/16 23:15:31  5-MIN KAOH 200415Z AUTO 19007KT 10SM CLR 26/19 A3018 740 68 2200 190/07 RMK AO2 T02560194
04850KAOH AOH20160619232010806/19/16 23:20:31  5-MIN KAOH 200420Z AUTO 19008KT 10SM CLR 26/19 A3018 740 68 2200 190/08 RMK AO2 T02560194
04850KAOH AOH20160619232510806/19/16 23:25:31  5-MIN KAOH 200425Z AUTO 19008KT 10SM CLR 26/19 A3018 740 68 2200 190/08 RMK AO2 T02560194
04850KAOH AOH20160619233010806/19/16 23:30:31  5-MIN KAOH 200430Z AUTO 19008KT 10SM CLR 25/19 A3018 740 71 2100 200/08 RMK AO2 T02500194
04850KAOH AOH20160619233510806/19/16 23:35:31  5-MIN KAOH 200435Z AUTO 19007KT 10SM CLR 25/19 A3018 740 71 2100 190/07 RMK AO2 T02500194
04850KAOH AOH20160619234010806/19/16 23:40:31  5-MIN KAOH 200440Z AUTO 19008KT 10SM CLR 25/19 A3018 740 71 2100 190/08 RMK AO2 T02500194
04850KAOH AOH20160619234510806/19/16 23:45:31  5-MIN KAOH 200445Z AUTO 18007KT 10SM CLR 25/19 A3018 740 71 2100 190/07 RMK AO2 T02500194
04850KAOH AOH20160619235012506/19/16 23:50:31  5-MIN KAOH 200450Z AUTO 19007KT 10SM CLR 25/19 A3018 740 71 2100 190/07 RMK AO2 SLP212 T02500194 403110183
04850KAOH AOH20160619235510806/19/16 23:55:31  5-MIN KAOH 200455Z AUTO 19007KT 10SM CLR 25/19 A3018 740 71 2100 190/07 RMK AO2 T02500194
04850KAOH AOH20160620000010806/20/16 00:00:31  5-MIN KAOH 200500Z AUTO 18006KT 10SM CLR 25/19 A3018 740 71 2100 190/06 RMK AO2 T02500194
04850KAOH AOH20160620000511106/20/16 00:05:31  5-MIN KAOH 200505Z AUTO 19007KT 10SM FEW080 25/19 A3018 730 71 2100 190/07 RMK AO2 T02500194
04850KAOH AOH20160620001011806/20/16 00:10:31  5-MIN KAOH 200510Z AUTO 20007KT 10SM FEW055 SCT080 25/19 A3019 730 71 2100 200/07 RMK AO2 T02500194
04850KAOH AOH20160620001511106/20/16 00:15:31  5-MIN KAOH 200515Z AUTO 19006KT 10SM SCT055 25/20 A3019 730 73 2100 200/06 RMK AO2 T02500200
04850KAOH AOH20160620002011106/20/16 00:20:31  5-MIN KAOH 200520Z AUTO 20008KT 10SM BKN060 25/20 A3018 730 73 2100 210/08 RMK AO2 T02500200
04850KAOH AOH20160620002511106/20/16 00:25:31  5-MIN KAOH 200525Z AUTO 21008KT 10SM SCT060 25/20 A3019 730 73 2100 210/08 RMK AO2 T02500200
04850KAOH AOH20160620003011106/20/16 00:30:31  5-MIN KAOH 200530Z AUTO 22009KT 10SM SCT060 25/20 A3019 730 73 2100 220/09 RMK AO2 T02500200
04850KAOH AOH20160620003511106/20/16 00:35:31  5-MIN KAOH 200535Z AUTO 22007KT 10SM SCT055 24/20 A3019 730 76 2000 220/07 RMK AO2 T02440200
04850KAOH AOH20160620004011106/20/16 00:40:31  5-MIN KAOH 200540Z AUTO 22007KT 10SM FEW055 24/20 A3019 730 76 2000 220/07 RMK AO2 T02440200
04850KAOH AOH20160620004511106/20/16 00:45:31  5-MIN KAOH 200545Z AUTO 22006KT 10SM FEW060 24/20 A3019 730 76 2000 220/06 RMK AO2 T02440200
04850KAOH AOH20160620005013306/20/16 00:50:31  5-MIN KAOH 200550Z AUTO 22007KT 10SM CLR 24/20 A3019 730 76 2000 220/07 RMK AO2 SLP216 T02440200 10300 20244 50001
04850KAOH AOH20160620005510806/20/16 00:55:31  5-MIN KAOH 200555Z AUTO 22007KT 10SM CLR 24/20 A3020 720 76 2000 220/07 RMK AO2 T02440200
04850KAOH AOH20160620010010806/20/16 01:00:31  5-MIN KAOH 200600Z AUTO 22007KT 10SM CLR 24/20 A3019 730 76 2000 220/07 RMK AO2 T02440200
04850KAOH AOH20160620010510806/20/16 01:05:31  5-MIN KAOH 200605Z AUTO 22006KT 10SM CLR 24/20 A3019 730 76 2000 220/06 RMK AO2 T02440200
04850KAOH AOH20160620011010806/20/16 01:10:31  5-MIN KAOH 200610Z AUTO 22006KT 10SM CLR 24/20 A3019 730 76 2000 230/06 RMK AO2 T02440200
04850KAOH AOH20160620011510806/20/16 01:15:31  5-MIN KAOH 200615Z AUTO 22006KT 10SM CLR 24/20 A3019 730 76 2000 230/06 RMK AO2 T02440200
04850KAOH AOH20160620012010806/20/16 01:20:31  5-MIN KAOH 200620Z AUTO 22007KT 10SM CLR 24/20 A3019 730 78 2000 220/07 RMK AO2 T02390200
04850KAOH AOH20160620012510806/20/16 01:25:31  5-MIN KAOH 200625Z AUTO 22006KT 10SM CLR 24/20 A3020 720 78 2000 230/06 RMK AO2 T02390200
04850KAOH AOH20160620013011106/20/16 01:30:31  5-MIN KAOH 200630Z AUTO 22006KT 10SM FEW050 24/20 A3020 720 76 2000 220/06 RMK AO2 T02440200
04850KAOH AOH20160620013511106/20/16 01:35:31  5-MIN KAOH 200635Z AUTO 22005KT 10SM FEW055 24/20 A3020 720 78 2000 220/05 RMK AO2 T02390200
04850KAOH AOH20160620014011106/20/16 01:40:31  5-MIN KAOH 200640Z AUTO 21006KT 10SM FEW055 24/20 A3019 730 78 2000 220/06 RMK AO2 T02390200
04850KAOH AOH20160620014511106/20/16 01:45:31  5-MIN KAOH 200645Z AUTO 21006KT 10SM FEW055 24/20 A3019 730 78 2000 210/06 RMK AO2 T02390200
04850KAOH AOH20160620015011806/20/16 01:50:31  5-MIN KAOH 200650Z AUTO 20005KT 10SM FEW055 24/20 A3019 730 78 2000 210/05 RMK AO2 SLP215 T02390200
04850KAOH AOH20160620015511106/20/16 01:55:31  5-MIN KAOH 200655Z AUTO 20005KT 10SM FEW055 24/20 A3020 720 78 2000 210/05 RMK AO2 T02390200
04850KAOH AOH20160620020011106/20/16 02:00:31  5-MIN KAOH 200700Z AUTO 20005KT 10SM FEW055 24/20 A3020 720 78 2000 210/05 RMK AO2 T02390200
04850KAOH AOH20160620020511106/20/16 02:05:31  5-MIN KAOH 200705Z AUTO 19005KT 10SM FEW080 24/20 A3020 720 78 2000 200/05 RMK AO2 T02390200
04850KAOH AOH20160620021011106/20/16 02:10:31  5-MIN KAOH 200710Z AUTO 19006KT 10SM FEW075 23/20 A3019 730 81 1900 200/06 RMK AO2 T02330200
04850KAOH AOH20160620021511106/20/16 02:15:31  5-MIN KAOH 200715Z AUTO 20005KT 10SM FEW075 23/20 A3019 730 81 1900 200/05 RMK AO2 T02330200
04850KAOH AOH20160620022010806/20/16 02:20:31  5-MIN KAOH 200720Z AUTO 20005KT 10SM CLR 23/20 A3019 730 81 1900 210/05 RMK AO2 T02330200
04850KAOH AOH20160620022511106/20/16 02:25:31  5-MIN KAOH 200725Z AUTO 20005KT 10SM FEW075 23/20 A3019 720 81 1900 210/05 RMK AO2 T02330200
04850KAOH AOH20160620023011106/20/16 02:30:31  5-MIN KAOH 200730Z AUTO 20006KT 10SM FEW075 23/20 A3019 730 81 1900 200/06 RMK AO2 T02330200
04850KAOH AOH20160620023510806/20/16 02:35:31  5-MIN KAOH 200735Z AUTO 20006KT 10SM CLR 23/20 A3019 730 81 1900 200/06 RMK AO2 T02330200
04850KAOH AOH20160620024011106/20/16 02:40:31  5-MIN KAOH 200740Z AUTO 21006KT 10SM FEW070 23/20 A3019 730 81 1900 210/06 RMK AO2 T02330200
04850KAOH AOH20160620024511106/20/16 02:45:31  5-MIN KAOH 200745Z AUTO 21007KT 10SM FEW075 23/20 A3019 730 81 1900 210/07 RMK AO2 T02330200
04850KAOH AOH20160620025011806/20/16 02:50:31  5-MIN KAOH 200750Z AUTO 21007KT 10SM FEW075 23/21 A3019 730 84 1900 210/07 RMK AO2 SLP215 T02330206
04850KAOH AOH20160620025511106/20/16 02:55:31  5-MIN KAOH 200755Z AUTO 20007KT 10SM SCT070 23/21 A3019 730 84 1900 200/07 RMK AO2 T02330206
04850KAOH AOH20160620030011106/20/16 03:00:31  5-MIN KAOH 200800Z AUTO 19008KT 10SM BKN070 23/21 A3019 730 84 1900 200/08 RMK AO2 T02330206
04850KAOH AOH20160620030511106/20/16 03:05:31  5-MIN KAOH 200805Z AUTO 19008KT 10SM BKN070 23/21 A3019 730 84 1900 190/08 RMK AO2 T02330206
04850KAOH AOH20160620031011106/20/16 03:10:31  5-MIN KAOH 200810Z AUTO 19007KT 10SM BKN075 23/21 A3019 730 84 1900 200/07 RMK AO2 T02330206
04850KAOH AOH20160620031511806/20/16 03:15:31  5-MIN KAOH 200815Z AUTO 19006KT 10SM BKN075 BKN085 23/21 A3019 730 84 1900 190/06 RMK AO2 T02330206
04850KAOH AOH20160620032011806/20/16 03:20:31  5-MIN KAOH 200820Z AUTO 19007KT 10SM BKN075 BKN085 23/21 A3019 730 84 1900 190/07 RMK AO2 T02330206
04850KAOH AOH20160620032511806/20/16 03:25:31  5-MIN KAOH 200825Z AUTO 19006KT 10SM BKN070 BKN085 23/21 A3018 730 84 1900 200/06 RMK AO2 T02330206
04850KAOH AOH20160620033011106/20/16 03:30:31  5-MIN KAOH 200830Z AUTO 19007KT 10SM BKN080 23/21 A3019 730 84 1900 190/07 RMK AO2 T02330206
04850KAOH AOH20160620033511106/20/16 03:35:31  5-MIN KAOH 200835Z AUTO 19007KT 10SM BKN075 23/21 A3019 730 84 1900 190/07 RMK AO2 T02330206
04850KAOH AOH20160620034011106/20/16 03:40:31  5-MIN KAOH 200840Z AUTO 18007KT 10SM BKN075 23/20 A3019 730 81 1900 190/07 RMK AO2 T02330200
04850KAOH AOH20160620034511106/20/16 03:45:31  5-MIN KAOH 200845Z AUTO 18008KT 10SM SCT070 23/20 A3019 730 84 1800 190/08 RMK AO2 T02280200
04850KAOH AOH20160620035012406/20/16 03:50:31  5-MIN KAOH 200850Z AUTO 19007KT 10SM SCT070 23/20 A3019 730 84 1800 190/07 RMK AO2 SLP213 T02280200 55004
04850KAOH AOH20160620035511106/20/16 03:55:31  5-MIN KAOH 200855Z AUTO 19008KT 10SM FEW070 23/20 A3019 730 84 1800 200/08 RMK AO2 T02280200
04850KAOH AOH20160620040011106/20/16 04:00:31  5-MIN KAOH 200900Z AUTO 20007KT 10SM FEW070 23/20 A3019 730 84 1800 200/07 RMK AO2 T02280200
04850KAOH AOH20160620040511106/20/16 04:05:31  5-MIN KAOH 200905Z AUTO 19007KT 10SM FEW070 23/20 A3019 730 84 1800 190/07 RMK AO2 T02280200
04850KAOH AOH20160620041010806/20/16 04:10:31  5-MIN KAOH 200910Z AUTO 20008KT 10SM CLR 23/20 A3019 730 81 1900 200/08 RMK AO2 T02330200
04850KAOH AOH20160620041510806/20/16 04:15:31  5-MIN KAOH 200915Z AUTO 20007KT 10SM CLR 23/20 A3019 730 84 1800 210/07 RMK AO2 T02280200
04850KAOH AOH20160620042010806/20/16 04:20:31  5-MIN KAOH 200920Z AUTO 19008KT 10SM CLR 23/20 A3019 730 84 1800 200/08 RMK AO2 T02280200
04850KAOH AOH20160620042510806/20/16 04:25:31  5-MIN KAOH 200925Z AUTO 20008KT 10SM CLR 23/20 A3019 730 84 1800 200/08 RMK AO2 T02280200
04850KAOH AOH20160620043010806/20/16 04:30:31  5-MIN KAOH 200930Z AUTO 20008KT 10SM CLR 23/20 A3019 730 84 1800 200/08 RMK AO2 T02280200
04850KAOH AOH20160620043510806/20/16 04:35:31  5-MIN KAOH 200935Z AUTO 20008KT 10SM CLR 23/20 A3019 730 84 1800 200/08 RMK AO2 T02280200
04850KAOH AOH20160620044010806/20/16 04:40:31  5-MIN KAOH 200940Z AUTO 21008KT 10SM CLR 23/20 A3019 730 84 1800 210/08 RMK AO2 T02280200
04850KAOH AOH20160620044510806/20/16 04:45:31  5-MIN KAOH 200945Z AUTO 20007KT 10SM CLR 23/20 A3019 720 84 1800 210/07 RMK AO2 T02280200
04850KAOH AOH20160620045011506/20/16 04:50:31  5-MIN KAOH 200950Z AUTO 22007KT 10SM CLR 23/20 A3020 720 84 1800 220/07 RMK AO2 SLP216 T02280200
04850KAOH AOH20160620045510806/20/16 04:55:31  5-MIN KAOH 200955Z AUTO 21007KT 10SM CLR 23/20 A3020 720 84 1800 220/07 RMK AO2 T02280200
04850KAOH AOH20160620050010806/20/16 05:00:31  5-MIN KAOH 201000Z AUTO 21007KT 10SM CLR 23/20 A3020 720 84 1800 220/07 RMK AO2 T02280200
04850KAOH AOH20160620050510806/20/16 05:05:31  5-MIN KAOH 201005Z AUTO 21008KT 10SM CLR 23/20 A3020 720 84 1800 220/08 RMK AO2 T02280200
04850KAOH AOH20160620051010806/20/16 05:10:31  5-MIN KAOH 201010Z AUTO 21007KT 10SM CLR 23/20 A3020 720 84 1800 220/07 RMK AO2 T02280200
04850KAOH AOH20160620051510806/20/16 05:15:31  5-MIN KAOH 201015Z AUTO 21008KT 10SM CLR 23/20 A3020 720 84 1800 220/08 RMK AO2 T02280200
04850KAOH AOH20160620052010806/20/16 05:20:31  5-MIN KAOH 201020Z AUTO 22008KT 10SM CLR 23/20 A3020 720 84 1800 220/08 RMK AO2 T02280200
04850KAOH AOH20160620052510806/20/16 05:25:31  5-MIN KAOH 201025Z AUTO 22007KT 10SM CLR 23/20 A3020 720 84 1800 230/07 RMK AO2 T02280200
04850KAOH AOH20160620053010806/20/16 05:30:31  5-MIN KAOH 201030Z AUTO 22006KT 10SM CLR 23/20 A3020 720 84 1800 230/06 RMK AO2 T02280200
04850KAOH AOH20160620053510806/20/16 05:35:31  5-MIN KAOH 201035Z AUTO 21008KT 10SM CLR 23/20 A3020 720 84 1800 220/08 RMK AO2 T02280200
04850KAOH AOH20160620054010806/20/16 05:40:31  5-MIN KAOH 201040Z AUTO 21007KT 10SM CLR 23/20 A3020 720 84 1800 220/07 RMK AO2 T02280200
04850KAOH AOH20160620054510806/20/16 05:45:31  5-MIN KAOH 201045Z AUTO 22008KT 10SM CLR 23/20 A3020 720 84 1800 220/08 RMK AO2 T02280200
04850KAOH AOH20160620055011506/20/16 05:50:31  5-MIN KAOH 201050Z AUTO 22006KT 10SM CLR 23/20 A3020 720 84 1800 220/06 RMK AO2 SLP217 T02280200
04850KAOH AOH20160620055510806/20/16 05:55:31  5-MIN KAOH 201055Z AUTO 21006KT 10SM CLR 23/20 A3020 720 84 1800 220/06 RMK AO2 T02280200
04850KAOH AOH20160620060010806/20/16 06:00:31  5-MIN KAOH 201100Z AUTO 22005KT 10SM CLR 23/20 A3020 720 84 1800 220/05 RMK AO2 T02280200
04850KAOH AOH20160620060510806/20/16 06:05:31  5-MIN KAOH 201105Z AUTO 21006KT 10SM CLR 23/20 A3020 720 84 1800 210/06 RMK AO2 T02280200
04850KAOH AOH20160620061010806/20/16 06:10:31  5-MIN KAOH 201110Z AUTO 21006KT 10SM CLR 23/20 A3020 720 84 1800 220/06 RMK AO2 T02280200
04850KAOH AOH20160620061510806/20/16 06:15:31  5-MIN KAOH 201115Z AUTO 21007KT 10SM CLR 23/20 A3019 720 81 1900 220/07 RMK AO2 T02330200
04850KAOH AOH20160620062010806/20/16 06:20:31  5-MIN KAOH 201120Z AUTO 22008KT 10SM CLR 23/20 A3019 720 81 1900 220/08 RMK AO2 T02330200
04850KAOH AOH20160620062510806/20/16 06:25:31  5-MIN KAOH 201125Z AUTO 22007KT 10SM CLR 23/20 A3020 720 81 1900 220/07 RMK AO2 T02330200
04850KAOH AOH20160620063010806/20/16 06:30:31  5-MIN KAOH 201130Z AUTO 21007KT 10SM CLR 23/20 A3020 720 81 1900 220/07 RMK AO2 T02330200
04850KAOH AOH20160620063510806/20/16 06:35:31  5-MIN KAOH 201135Z AUTO 22007KT 10SM CLR 23/21 A3020 720 84 1900 220/07 RMK AO2 T02330206
04850KAOH AOH20160620064012406/20/16 06:40:31  5-MIN KAOH 201140Z AUTO 22008KT 190V250 10SM CLR 23/21 A3020 720 84 1900 230/08 200V260 RMK AO2 T02330206
04850KAOH AOH20160620064510806/20/16 06:45:31  5-MIN KAOH 201145Z AUTO 22007KT 10SM CLR 23/21 A3019 720 84 1900 230/07 RMK AO2 T02330206
04850KAOH AOH20160620065013306/20/16 06:50:31  5-MIN KAOH 201150Z AUTO 22008KT 10SM CLR 24/21 A3019 730 81 2000 230/08 RMK AO2 SLP216 T02390206 10244 20228 57002
04850KAOH AOH20160620065510806/20/16 06:55:31  5-MIN KAOH 201155Z AUTO 22007KT 10SM CLR 24/21 A3019 720 81 2000 230/07 RMK AO2 T02390206
04850KAOH AOH20160620070010806/20/16 07:00:31  5-MIN KAOH 201200Z AUTO 23009KT 10SM CLR 24/21 A3020 720 78 2000 230/09 RMK AO2 T02440206
04850KAOH AOH20160620070510806/20/16 07:05:31  5-MIN KAOH 201205Z AUTO 23008KT 10SM CLR 24/21 A3020 720 78 2000 230/08 RMK AO2 T02440206
04850KAOH AOH20160620071010806/20/16 07:10:31  5-MIN KAOH 201210Z AUTO 23009KT 10SM CLR 24/21 A3019 730 78 2000 240/09 RMK AO2 T02440206
04850KAOH AOH20160620071510806/20/16 07:15:31  5-MIN KAOH 201215Z AUTO 24010KT 10SM CLR 25/21 A3019 730 76 2100 240/10 RMK AO2 T02500206
04850KAOH AOH20160620072010806/20/16 07:20:31  5-MIN KAOH 201220Z AUTO 24011KT 10SM CLR 25/21 A3019 730 79 2100 240/11 RMK AO2 T02500211
04850KAOH AOH20160620072510806/20/16 07:25:31  5-MIN KAOH 201225Z AUTO 24011KT 10SM CLR 25/21 A3019 730 79 2100 240/11 RMK AO2 T02500211
04850KAOH AOH20160620073010806/20/16 07:30:31  5-MIN KAOH 201230Z AUTO 23011KT 10SM CLR 25/21 A3019 730 79 2100 240/11 RMK AO2 T02500211
04850KAOH AOH20160620073510806/20/16 07:35:31  5-MIN KAOH 201235Z AUTO 23010KT 10SM CLR 25/21 A3019 730 79 2100 240/10 RMK AO2 T02500211
04850KAOH AOH20160620074010806/20/16 07:40:31  5-MIN KAOH 201240Z AUTO 23013KT 10SM CLR 26/21 A3019 730 76 2200 240/13 RMK AO2 T02560211
04850KAOH AOH20160620074510806/20/16 07:45:31  5-MIN KAOH 201245Z AUTO 24010KT 10SM CLR 26/21 A3019 730 76 2200 250/10 RMK AO2 T02560211
04850KAOH AOH20160620075011506/20/16 07:50:31  5-MIN KAOH 201250Z AUTO 24012KT 10SM CLR 26/21 A3019 730 76 2200 250/12 RMK AO2 SLP213 T02560211
04850KAOH AOH20160620075510806/20/16 07:55:31  5-MIN KAOH 201255Z AUTO 25013KT 10SM CLR 26/21 A3019 730 73 2200 250/13 RMK AO2 T02610211
04850KAOH AOH20160620080010806/20/16 08:00:31  5-MIN KAOH 201300Z AUTO 25010KT 10SM CLR 26/21 A3019 730 73 2200 250/10 RMK AO2 T02610211
04850KAOH AOH20160620080511406/20/16 08:05:31  5-MIN KAOH 201305Z AUTO 24013G18KT 10SM CLR 26/21 A3019 730 73 2200 250/13G18 RMK AO2 T02610211
04850KAOH AOH20160620081011406/20/16 08:10:31  5-MIN KAOH 201310Z AUTO 25012G18KT 10SM CLR 26/21 A3019 730 76 2200 260/12G18 RMK AO2 T02560211
04850KAOH AOH20160620081510806/20/16 08:15:31  5-MIN KAOH 201315Z AUTO 24010KT 10SM CLR 26/21 A3018 730 73 2200 250/10 RMK AO2 T02610211
04850KAOH AOH20160620082010806/20/16 08:20:31  5-MIN KAOH 201320Z AUTO 24010KT 10SM CLR 26/21 A3018 730 73 2200 250/10 RMK AO2 T02610211
04850KAOH AOH20160620082510806/20/16 08:25:31  5-MIN KAOH 201325Z AUTO 24011KT 10SM CLR 26/21 A3018 740 73 2200 250/11 RMK AO2 T02610211
04850KAOH AOH20160620083010806/20/16 08:30:31  5-MIN KAOH 201330Z AUTO 24010KT 10SM CLR 26/21 A3018 730 73 2200 250/10 RMK AO2 T02610211
04850KAOH AOH20160620083510806/20/16 08:35:31  5-MIN KAOH 201335Z AUTO 24012KT 10SM CLR 26/21 A3018 740 73 2200 250/12 RMK AO2 T02610211
04850KAOH AOH20160620084010806/20/16 08:40:31  5-MIN KAOH 201340Z AUTO 24012KT 10SM CLR 27/21 A3018 740 71 2300 250/12 RMK AO2 T02670211
04850KAOH AOH20160620084510806/20/16 08:45:31  5-MIN KAOH 201345Z AUTO 24011KT 10SM CLR 27/21 A3017 740 71 2300 240/11 RMK AO2 T02670211
04850KAOH AOH20160620085011506/20/16 08:50:31  5-MIN KAOH 201350Z AUTO 24009KT 10SM CLR 27/21 A3017 750 71 2300 250/09 RMK AO2 SLP208 T02670211
04850KAOH AOH20160620085510806/20/16 08:55:31  5-MIN KAOH 201355Z AUTO 24013KT 10SM CLR 27/21 A3017 750 69 2400 240/13 RMK AO2 T02720211
04850KAOH AOH20160620090010806/20/16 09:00:31  5-MIN KAOH 201400Z AUTO 25014KT 10SM CLR 28/21 A3017 750 66 2400 250/14 RMK AO2 T02780211
04850KAOH AOH20160620090510806/20/16 09:05:31  5-MIN KAOH 201405Z AUTO 25014KT 10SM CLR 28/21 A3017 750 66 2400 260/14 RMK AO2 T02780211
04850KAOH AOH20160620091010806/20/16 09:10:31  5-MIN KAOH 201410Z AUTO 24014KT 10SM CLR 28/21 A3017 750 66 2400 250/14 RMK AO2 T02780211
04850KAOH AOH20160620091510806/20/16 09:15:31  5-MIN KAOH 201415Z AUTO 25013KT 10SM CLR 28/21 A3017 750 64 2500 250/13 RMK AO2 T02830211
04850KAOH AOH20160620092011406/20/16 09:20:31  5-MIN KAOH 201420Z AUTO 26015G20KT 10SM CLR 28/21 A3017 750 64 2500 260/15G20 RMK AO2 T02830211
04850KAOH AOH20160620092511406/20/16 09:25:31  5-MIN KAOH 201425Z AUTO 25020G25KT 10SM CLR 28/21 A3017 750 64 2500 260/20G25 RMK AO2 T02830211
04850KAOH AOH20160620093011406/20/16 09:30:31  5-MIN KAOH 201430Z AUTO 25017G25KT 10SM CLR 28/21 A3017 750 62 2500 260/17G25 RMK AO2 T02830206
04850KAOH AOH20160620093511106/20/16 09:35:31  5-MIN KAOH 201435Z AUTO 25018KT 10SM FEW036 29/21 A3016 750 62 2600 260/18 RMK AO2 T02890211
04850KAOH AOH20160620094011806/20/16 09:40:31  5-MIN KAOH 201440Z AUTO 25015KT 10SM FEW033 SCT043 28/21 A3016 750 62 2500 260/15 RMK AO2 T02830206
04850KAOH AOH20160620094511806/20/16 09:45:31  5-MIN KAOH 201445Z AUTO 25016KT 10SM SCT035 SCT045 29/21 A3016 760 62 2600 260/16 RMK AO2 T02890211
04850KAOH AOH20160620095014806/20/16 09:50:31  5-MIN KAOH 201450Z AUTO 25018G26KT 10SM SCT035 29/21 A3016 760 60 2600 250/18G26 RMK AO2 PK WND 25026/1446 SLP204 T02890206 50002
04850KAOH AOH20160620095511706/20/16 09:55:31  5-MIN KAOH 201455Z AUTO 27016G26KT 10SM SCT035 29/21 A3015 760 60 2600 270/16G26 RMK AO2 T02890206
04850KAOH AOH20160620100011706/20/16 10:00:31  5-MIN KAOH 201500Z AUTO 25017G22KT 10SM SCT035 29/21 A3015 760 62 2600 250/17G22 RMK AO2 T02890211
04850KAOH AOH20160620100511706/20/16 10:05:31  5-MIN KAOH 201505Z AUTO 26017G22KT 10SM SCT035 29/21 A3015 770 60 2600 270/17G22 RMK AO2 T02890206
04850KAOH AOH20160620101011106/20/16 10:10:31  5-MIN KAOH 201510Z AUTO 26015KT 10SM SCT035 29/21 A3015 770 60 2600 260/15 RMK AO2 T02890206
04850KAOH AOH20160620101511706/20/16 10:15:31  5-MIN KAOH 201515Z AUTO 25018G24KT 10SM FEW035 29/21 A3015 770 58 2600 250/18G24 RMK AO2 T02940206
04850KAOH AOH20160620102011706/20/16 10:20:31  5-MIN KAOH 201520Z AUTO 26016G24KT 10SM FEW035 29/21 A3015 770 58 2600 260/16G24 RMK AO2 T02940206
04850KAOH AOH20160620102513506/20/16 10:25:31  5-MIN KAOH 201525Z AUTO 24022G28KT 10SM SCT035 30/21 A3015 770 56 2700 250/22G28 RMK AO2 PK WND 24028/1525 T03000206
04850KAOH AOH20160620103013506/20/16 10:30:31  5-MIN KAOH 201530Z AUTO 25018G28KT 10SM SCT036 29/21 A3015 770 58 2600 260/18G28 RMK AO2 PK WND 24028/1525 T02940206
04850KAOH AOH20160620103512906/20/16 10:35:31  5-MIN KAOH 201535Z AUTO 26020KT 10SM FEW036 30/21 A3015 770 56 2700 270/20 RMK AO2 PK WND 24028/1525 T03000206
04850KAOH AOH20160620104013506/20/16 10:40:31  5-MIN KAOH 201540Z AUTO 25014G24KT 10SM FEW036 29/21 A3015 770 58 2600 260/14G24 RMK AO2 PK WND 24028/1525 T02940206
04850KAOH AOH20160620104513506/20/16 10:45:31  5-MIN KAOH 201545Z AUTO 26017G22KT 10SM FEW038 30/21 A3015 770 56 2700 260/17G22 RMK AO2 PK WND 24028/1525 T03000206
04850KAOH AOH20160620105014206/20/16 10:50:31  5-MIN KAOH 201550Z AUTO 26018G22KT 10SM FEW038 30/21 A3014 770 56 2700 270/18G22 RMK AO2 PK WND 24028/1525 SLP197 T03000206
04850KAOH AOH20160620105511406/20/16 10:55:31  5-MIN KAOH 201555Z AUTO 26018G24KT 10SM CLR 30/20 A3014 770 54 2700 270/18G24 RMK AO2 T03000200
04850KAOH AOH20160620110011706/20/16 11:00:31  5-MIN KAOH 201600Z AUTO 25016G23KT 10SM FEW040 31/21 A3014 770 54 2800 260/16G23 RMK AO2 T03060206
04850KAOH AOH20160620110511706/20/16 11:05:31  5-MIN KAOH 201605Z AUTO 25019G23KT 10SM FEW040 31/21 A3014 780 54 2800 250/19G23 RMK AO2 T03060206
04850KAOH AOH20160620111011106/20/16 11:10:31  5-MIN KAOH 201610Z AUTO 24018KT 10SM FEW040 31/21 A3014 780 54 2800 240/18 RMK AO2 T03060206
04850KAOH AOH20160620111511106/20/16 11:15:31  5-MIN KAOH 201615Z AUTO 25017KT 10SM FEW040 31/20 A3014 780 52 2800 260/17 RMK AO2 T03060200
04850KAOH AOH20160620112011706/20/16 11:20:31  5-MIN KAOH 201620Z AUTO 25019G23KT 10SM FEW040 31/20 A3013 780 52 2800 250/19G23 RMK AO2 T03060200
04850KAOH AOH20160620112511706/20/16 11:25:31  5-MIN KAOH 201625Z AUTO 25017G23KT 10SM FEW040 31/20 A3013 780 52 2800 260/17G23 RMK AO2 T03060200
04850KAOH AOH20160620113011106/20/16 11:30:31  5-MIN KAOH 201630Z AUTO 24015KT 10SM FEW044 31/21 A3013 790 53 2800 240/15 RMK AO2 T03110206
04850KAOH AOH20160620113511706/20/16 11:35:31  5-MIN KAOH 201635Z AUTO 25018G24KT 10SM FEW044 31/20 A3012 790 51 2800 260/18G24 RMK AO2 T03110200
04850KAOH AOH20160620114011106/20/16 11:40:31  5-MIN KAOH 201640Z AUTO 26019KT 10SM FEW044 31/20 A3012 790 51 2800 260/19 RMK AO2 T03110200
04850KAOH AOH20160620114511706/20/16 11:45:31  5-MIN KAOH 201645Z AUTO 24013G23KT 10SM FEW046 31/20 A3012 800 51 2900 250/13G23 RMK AO2 T03110200
04850KAOH AOH20160620115012406/20/16 11:50:31  5-MIN KAOH 201650Z AUTO 24017G21KT 10SM SCT045 31/20 A3011 800 51 2900 250/17G21 RMK AO2 SLP187 T03110200
04850KAOH AOH20160620115511106/20/16 11:55:31  5-MIN KAOH 201655Z AUTO 25017KT 10SM SCT045 31/20 A3011 800 51 2900 260/17 RMK AO2 T03110200
04850KAOH AOH20160620120011106/20/16 12:00:31  5-MIN KAOH 201700Z AUTO 24017KT 10SM FEW045 31/20 A3011 800 51 2900 250/17 RMK AO2 T03110200
04850KAOH AOH20160620120511106/20/16 12:05:31  5-MIN KAOH 201705Z AUTO 25017KT 10SM SCT046 31/20 A3011 810 51 2900 260/17 RMK AO2 T03110200
04850KAOH AOH20160620121011806/20/16 12:10:31  5-MIN KAOH 201710Z AUTO 25017KT 10SM SCT046 BKN055 31/21 A3010 810 53 2900 250/17 RMK AO2 T03110206
04850KAOH AOH20160620121512406/20/16 12:15:31  5-MIN KAOH 201715Z AUTO 25015G21KT 10SM BKN048 BKN055 31/20 A3010 810 51 2900 250/15G21 RMK AO2 T03110200
04850KAOH AOH20160620122011706/20/16 12:20:31  5-MIN KAOH 201720Z AUTO 24014G21KT 10SM SCT048 32/20 A3010 810 49 2900 250/14G21 RMK AO2 T03170200
04850KAOH AOH20160620122512406/20/16 12:25:31  5-MIN KAOH 201725Z AUTO 24014G21KT 10SM SCT047 SCT055 32/21 A3010 810 51 2900 250/14G21 RMK AO2 T03170206
04850KAOH AOH20160620123012406/20/16 12:30:31  5-MIN KAOH 201730Z AUTO 25015G20KT 10SM SCT047 BKN055 31/20 A3010 810 52 2800 250/15G20 RMK AO2 T03060200
04850KAOH AOH20160620123511106/20/16 12:35:31  5-MIN KAOH 201735Z AUTO 23018KT 10SM SCT049 31/20 A3010 810 51 2900 240/18 RMK AO2 T03110200
04850KAOH AOH20160620124011106/20/16 12:40:31  5-MIN KAOH 201740Z AUTO 24017KT 10SM SCT049 31/21 A3011 810 53 2900 250/17 RMK AO2 T03110206
04850KAOH AOH20160620124512406/20/16 12:45:31  5-MIN KAOH 201745Z AUTO 25013G22KT 10SM SCT049 SCT060 31/20 A3011 800 51 2900 250/13G22 RMK AO2 T03110200
04850KAOH AOH20160620125014906/20/16 12:50:31  5-MIN KAOH 201750Z AUTO 25016G24KT 10SM SCT049 SCT060 32/20 A3011 800 49 2900 250/16G24 RMK AO2 SLP186 T03170200 10317 20239 58013
04850KAOH AOH20160620125511706/20/16 12:55:31  5-MIN KAOH 201755Z AUTO 24018G25KT 10SM SCT049 31/20 A3011 800 51 2900 240/18G25 RMK AO2 T03110200
04850KAOH AOH20160620130012406/20/16 13:00:31  5-MIN KAOH 201800Z AUTO 26016G25KT 10SM SCT049 SCT060 32/19 A3011 800 47 2900 260/16G25 RMK AO2 T03170194
04850KAOH AOH20160620130514206/20/16 13:05:31  5-MIN KAOH 201805Z AUTO 25019G26KT 10SM FEW050 SCT065 32/19 A3011 800 46 2900 260/19G26 RMK AO2 PK WND 27026/1802 T03170189
04850KAOH AOH20160620131014206/20/16 13:10:31  5-MIN KAOH 201810Z AUTO 26015G26KT 10SM FEW050 SCT065 32/19 A3011 800 44 3000 260/15G26 RMK AO2 PK WND 27026/1802 T03220189
04850KAOH AOH20160620131513506/20/16 13:15:31  5-MIN KAOH 201815Z AUTO 26018G25KT 10SM SCT060 32/19 A3011 800 46 3000 270/18G25 RMK AO2 PK WND 27026/1802 T03220194
04850KAOH AOH20160620132014206/20/16 13:20:31  5-MIN KAOH 201820Z AUTO 24015G25KT 10SM BKN060 BKN070 31/19 A3011 810 49 2900 250/15G25 RMK AO2 PK WND 27026/1802 T03110194
04850KAOH AOH20160620132514206/20/16 13:25:31  5-MIN KAOH 201825Z AUTO 24017G23KT 10SM SCT060 BKN070 32/19 A3010 810 46 2900 250/17G23 RMK AO2 PK WND 27026/1802 T03170189
04850KAOH AOH20160620133014206/20/16 13:30:31  5-MIN KAOH 201830Z AUTO 26018G23KT 10SM SCT055 BKN070 32/19 A3010 810 46 2900 260/18G23 RMK AO2 PK WND 27026/1802 T03170189
04850KAOH AOH20160620133513506/20/16 13:35:31  5-MIN KAOH 201835Z AUTO 23013G23KT 10SM SCT055 32/19 A3009 820 47 2900 240/13G23 RMK AO2 PK WND 27026/1802 T03170194
04850KAOH AOH20160620134013506/20/16 13:40:31  5-MIN KAOH 201840Z AUTO 24015G23KT 10SM SCT055 31/19 A3009 820 47 2900 240/15G23 RMK AO2 PK WND 27026/1802 T03110189
04850KAOH AOH20160620134513506/20/16 13:45:31  5-MIN KAOH 201845Z AUTO 23014G23KT 10SM BKN055 31/19 A3008 830 49 2900 230/14G23 RMK AO2 PK WND 27026/1802 T03110194
04850KAOH AOH20160620135014206/20/16 13:50:31  5-MIN KAOH 201850Z AUTO 23016G22KT 10SM SCT055 32/19 A3008 830 47 3000 240/16G22 RMK AO2 PK WND 27026/1802 SLP177 T03170194
04850KAOH AOH20160620135511706/20/16 13:55:31  5-MIN KAOH 201855Z AUTO 22016G22KT 10SM FEW050 32/19 A3008 830 46 3000 230/16G22 RMK AO2 T03220194
04850KAOH AOH20160620140011106/20/16 14:00:31  5-MIN KAOH 201900Z AUTO 24015KT 10SM SCT055 32/19 A3008 830 47 3000 240/15 RMK AO2 T03170194
04850KAOH AOH20160620140511706/20/16 14:05:31  5-MIN KAOH 201905Z AUTO 25017G23KT 10SM SCT055 32/19 A3008 830 46 3000 260/17G23 RMK AO2 T03220194
04850KAOH AOH20160620141012406/20/16 14:10:31  5-MIN KAOH 201910Z AUTO 25018G23KT 10SM FEW055 SCT070 32/19 A3007 840 44 3000 260/18G23 RMK AO2 T03220189
04850KAOH AOH20160620141512406/20/16 14:15:31  5-MIN KAOH 201915Z AUTO 23017G22KT 10SM FEW055 FEW070 32/19 A3007 840 46 3000 240/17G22 RMK AO2 T03220194
04850KAOH AOH20160620142011706/20/16 14:20:31  5-MIN KAOH 201920Z AUTO 24016G21KT 10SM FEW055 32/19 A3007 840 44 3000 240/16G21 RMK AO2 T03220189
04850KAOH AOH20160620142511106/20/16 14:25:31  5-MIN KAOH 201925Z AUTO 23018KT 10SM FEW055 32/19 A3007 840 44 3000 240/18 RMK AO2 T03220189
04850KAOH AOH20160620143011706/20/16 14:30:31  5-MIN KAOH 201930Z AUTO 24018G25KT 10SM FEW055 32/19 A3007 840 44 3000 240/18G25 RMK AO2 T03220189
04850KAOH AOH20160620143512406/20/16 14:35:31  5-MIN KAOH 201935Z AUTO 23016G25KT 10SM FEW055 SCT075 32/19 A3006 850 46 3000 240/16G25 RMK AO2 T03170189
04850KAOH AOH20160620144011806/20/16 14:40:31  5-MIN KAOH 201940Z AUTO 24014KT 10SM FEW055 SCT075 32/19 A3006 850 44 3000 250/14 RMK AO2 T03220189
04850KAOH AOH20160620144511806/20/16 14:45:31  5-MIN KAOH 201945Z AUTO 25015KT 10SM FEW055 FEW070 32/19 A3006 850 44 3000 260/15 RMK AO2 T03220189
04850KAOH AOH20160620145013106/20/16 14:50:31  5-MIN KAOH 201950Z AUTO 24015G22KT 10SM FEW055 SCT075 32/19 A3006 850 46 3000 250/15G22 RMK AO2 SLP170 T03170189
04850KAOH AOH20160620145512406/20/16 14:55:31  5-MIN KAOH 201955Z AUTO 24017G22KT 10SM FEW060 SCT075 32/19 A3006 850 46 3000 240/17G22 RMK AO2 T03170189
04850KAOH AOH20160620150011106/20/16 15:00:31  5-MIN KAOH 202000Z AUTO 24012KT 10SM SCT070 32/19 A3006 850 46 3000 250/12 RMK AO2 T03170189
04850KAOH AOH20160620150511706/20/16 15:05:31  5-MIN KAOH 202005Z AUTO 24015G20KT 10SM SCT070 32/19 A3006 850 46 3000 250/15G20 RMK AO2 T03170189
04850KAOH AOH20160620151011706/20/16 15:10:31  5-MIN KAOH 202010Z AUTO 25010G20KT 10SM FEW070 31/18 A3006 850 46 2900 250/10G20 RMK AO2 T03110183
04850KAOH AOH20160620151511706/20/16 15:15:31  5-MIN KAOH 202015Z AUTO 23014G19KT 10SM FEW065 31/19 A3006 850 47 2900 240/14G19 RMK AO2 T03110189
04850KAOH AOH20160620152011806/20/16 15:20:31  5-MIN KAOH 202020Z AUTO 23015KT 10SM FEW060 SCT070 31/19 A3006 850 47 2900 230/15 RMK AO2 T03110189
04850KAOH AOH20160620152511106/20/16 15:25:31  5-MIN KAOH 202025Z AUTO 24014KT 10SM FEW060 31/19 A3005 860 49 2900 240/14 RMK AO2 T03060189
04850KAOH AOH20160620153011706/20/16 15:30:31  5-MIN KAOH 202030Z AUTO 23015G21KT 10SM FEW060 31/18 A3005 860 47 2900 240/15G21 RMK AO2 T03060183
04850KAOH AOH20160620153511706/20/16 15:35:31  5-MIN KAOH 202035Z AUTO 23012G21KT 10SM FEW060 31/19 A3005 860 49 2900 230/12G21 RMK AO2 T03060189
04850KAOH AOH20160620154011106/20/16 15:40:31  5-MIN KAOH 202040Z AUTO 24014KT 10SM FEW060 31/18 A3005 860 47 2900 250/14 RMK AO2 T03060183
04850KAOH AOH20160620154511106/20/16 15:45:31  5-MIN KAOH 202045Z AUTO 24014KT 10SM FEW060 30/18 A3005 860 49 2800 250/14 RMK AO2 T03000183
04850KAOH AOH20160620155013006/20/16 15:50:31  5-MIN KAOH 202050Z AUTO 23014G19KT 10SM FEW060 30/18 A3005 860 49 2800 240/14G19 RMK AO2 SLP168 T03000183 55015
04850KAOH AOH20160620155510806/20/16 15:55:31  5-MIN KAOH 202055Z AUTO 24012KT 10SM CLR 30/18 A3006 850 49 2800 240/12 RMK AO2 T03000183
04850KAOH AOH20160620160010806/20/16 16:00:31  5-MIN KAOH 202100Z AUTO 24012KT 10SM CLR 30/18 A3006 850 49 2800 240/12 RMK AO2 T03000183
04850KAOH AOH20160620160510806/20/16 16:05:31  5-MIN KAOH 202105Z AUTO 25011KT 10SM CLR 30/19 A3006 850 51 2800 250/11 RMK AO2 T03000189
04850KAOH AOH20160620161011106/20/16 16:10:31  5-MIN KAOH 202110Z AUTO 24012KT 10SM FEW060 30/19 A3005 860 51 2800 250/12 RMK AO2 T03000189
04850KAOH AOH20160620161511106/20/16 16:15:31  5-MIN KAOH 202115Z AUTO 24010KT 10SM FEW060 30/19 A3005 860 51 2800 250/10 RMK AO2 T03000189
04850KAOH AOH20160620162010806/20/16 16:20:31  5-MIN KAOH 202120Z AUTO 24008KT 10SM CLR 29/19 A3005 850 52 2700 240/08 RMK AO2 T02940189
04850KAOH AOH20160620162510806/20/16 16:25:31  5-MIN KAOH 202125Z AUTO 24010KT 10SM CLR 29/19 A3005 860 52 2700 250/10 RMK AO2 T02940189
04850KAOH AOH20160620163010806/20/16 16:30:31  5-MIN KAOH 202130Z AUTO 23011KT 10SM CLR 29/19 A3004 860 52 2800 240/11 RMK AO2 T02940189
04850KAOH AOH20160620163511106/20/16 16:35:31  5-MIN KAOH 202135Z AUTO 23011KT 10SM FEW048 29/19 A3004 860 52 2800 240/11 RMK AO2 T02940189
04850KAOH AOH20160620164013406/20/16 16:40:31  5-MIN KAOH 202140Z AUTO 22009KT 10SM -RA FEW048 29/19 A3003 880 52 2800 230/09 RMK AO2 RAB36 PRESFR P0000 T02940189
04850KAOH AOH20160620164512406/20/16 16:45:31  5-MIN KAOH 202145Z AUTO 22010KT 10SM -RA CLR 29/19 A3002 880 54 2700 220/10 RMK AO2 RAB36 P0000 T02890189
04850KAOH AOH20160620165014506/20/16 16:50:31  5-MIN KAOH 202150Z AUTO 22009KT 10SM -RA FEW100 29/19 A3002 890 56 2700 230/09 RMK AO2 LTG DSNT W RAB36 SLP157 P0000 T02890194
04850KAOH AOH20160620165513606/20/16 16:55:31  5-MIN KAOH 202155Z AUTO 21011KT 10SM FEW055 FEW100 29/19 A3001 890 56 2700 220/11 RMK AO2 LTG DSNT W PRESFR T02890194
04850KAOH AOH20160620170013606/20/16 17:00:31  5-MIN KAOH 202200Z AUTO 20010KT 10SM FEW055 FEW100 29/19 A2999 910 54 2800 210/10 RMK AO2 LTG DSNT W PRESFR T02890189
04850KAOH AOH20160620170512206/20/16 17:05:31  5-MIN KAOH 202205Z AUTO 22013KT 10SM FEW100 29/19 A2999 910 54 2700 220/13 RMK AO2 LTG DSNT W T02890189
04850KAOH AOH20160620171012206/20/16 17:10:31  5-MIN KAOH 202210Z AUTO 23011KT 10SM FEW100 29/19 A3000 900 54 2700 240/11 RMK AO2 LTG DSNT W T02890189
04850KAOH AOH20160620171512306/20/16 17:15:31  5-MIN KAOH 202215Z AUTO 23010KT 10SM FEW100 29/19 A2999 910 54 2700 240/10 RMK AO2 LTG DSNT SW T02890189
04850KAOH AOH20160620172013006/20/16 17:20:31  5-MIN KAOH 202220Z AUTO 25010KT 10SM FEW060 SCT100 29/19 A3001 900 54 2700 260/10 RMK AO2 LTG DSNT SW T02890189
04850KAOH AOH20160620172513706/20/16 17:25:31  5-MIN KAOH 202225Z AUTO 27010KT 10SM SCT060 BKN100 29/19 A3002 890 56 2700 270/10 RMK AO2 LTG DSNT SW PRESRR T02890194
04850KAOH AOH20160620173013006/20/16 17:30:31  5-MIN KAOH 202230Z AUTO 24010KT 10SM SCT060 BKN100 28/19 A3001 890 58 2700 250/10 RMK AO2 LTG DSNT SW T02830194
04850KAOH AOH20160620173513606/20/16 17:35:31  5-MIN KAOH 202235Z AUTO 24012KT 10SM SCT060 SCT100 29/19 A3000 900 56 2700 240/12 RMK AO2 LTG DSNT SW AND W T02890194
04850KAOH AOH20160620174013606/20/16 17:40:31  5-MIN KAOH 202240Z AUTO 24011KT 10SM FEW055 SCT070 29/19 A3001 900 56 2700 250/11 RMK AO2 LTG DSNT SW AND W T02890194
04850KAOH AOH20160620174512906/20/16 17:45:31  5-MIN KAOH 202245Z AUTO 24011KT 10SM SCT060 28/19 A3001 900 58 2700 250/11 RMK AO2 LTG DSNT SW AND W T02830194
04850KAOH AOH20160620175013706/20/16 17:50:31  5-MIN KAOH 202250Z AUTO 24012KT 10SM FEW055 FEW070 28/19 A3001 890 58 2700 250/12 RMK AO2 LTG DSNT SW SLP155 T02830194
04850KAOH AOH20160620175512306/20/16 17:55:31  5-MIN KAOH 202255Z AUTO 25011KT 10SM FEW065 28/19 A3002 890 58 2700 250/11 RMK AO2 LTG DSNT SW T02830194
04850KAOH AOH20160620180012306/20/16 18:00:31  5-MIN KAOH 202300Z AUTO 24012KT 10SM FEW065 28/19 A3001 890 58 2700 250/12 RMK AO2 LTG DSNT SW T02830194
04850KAOH AOH20160620180510806/20/16 18:05:31  5-MIN KAOH 202305Z AUTO 24011KT 10SM CLR 28/19 A3001 900 58 2700 240/11 RMK AO2 T02830194
04850KAOH AOH20160620181010806/20/16 18:10:31  5-MIN KAOH 202310Z AUTO 23011KT 10SM CLR 28/19 A3000 900 58 2700 240/11 RMK AO2 T02830194
04850KAOH AOH20160620181510806/20/16 18:15:31  5-MIN KAOH 202315Z AUTO 24014KT 10SM CLR 28/19 A3001 890 58 2700 240/14 RMK AO2 T02830194
04850KAOH AOH20160620182012606/20/16 18:20:31  5-MIN KAOH 202320Z AUTO 25019G25KT 10SM CLR 28/19 A3001 900 58 2700 250/19G25 RMK AO2 LTG DSNT SW T02830194
04850KAOH AOH20160620182514406/20/16 18:25:31  5-MIN KAOH 202325Z AUTO 26022G28KT 10SM CLR 28/19 A3002 890 60 2600 270/22G28 RMK AO2 PK WND 25028/2323 LTG DSNT SW T02780194
04850KAOH AOH20160620183014406/20/16 18:30:31  5-MIN KAOH 202330Z AUTO 27020G28KT 10SM CLR 27/19 A3002 890 62 2500 280/20G28 RMK AO2 PK WND 25028/2323 LTG DSNT SW T02720194
04850KAOH AOH20160620183513206/20/16 18:35:31  5-MIN KAOH 202335Z AUTO 28022G29KT 10SM CLR 27/19 A3002 890 64 2500 280/22G29 RMK AO2 PK WND 28029/2335 T02670194
04850KAOH AOH20160620184013206/20/16 18:40:31  5-MIN KAOH 202340Z AUTO 27015G29KT 10SM CLR 26/19 A3002 890 64 2400 270/15G29 RMK AO2 PK WND 28029/2335 T02610189
04850KAOH AOH20160620184513206/20/16 18:45:31  5-MIN KAOH 202345Z AUTO 26017G26KT 10SM CLR 26/18 A3001 890 62 2400 260/17G26 RMK AO2 PK WND 28029/2335 T02610183
04850KAOH AOH20160620185015706/20/16 18:50:31  5-MIN KAOH 202350Z AUTO 25017KT 10SM CLR 26/18 A3001 890 62 2400 260/17 RMK AO2 PK WND 28029/2335 SLP154 60000 T02610183 10328 20261 56019
04850KAOH AOH20160620185510806/20/16 18:55:31  5-MIN KAOH 202355Z AUTO 25013KT 10SM CLR 26/18 A3001 900 62 2400 260/13 RMK AO2 T02610183
04850KAOH AOH20160620190010806/20/16 19:00:31  5-MIN KAOH 210000Z AUTO 26015KT 10SM CLR 26/18 A3001 900 62 2400 270/15 RMK AO2 T02610183
04850KAOH AOH20160620190511406/20/16 19:05:31  5-MIN KAOH 210005Z AUTO 26017G22KT 10SM CLR 26/18 A3001 890 62 2400 270/17G22 RMK AO2 T02610183
04850KAOH AOH20160620191010806/20/16 19:10:31  5-MIN KAOH 210010Z AUTO 26017KT 10SM CLR 26/18 A3001 890 62 2400 270/17 RMK AO2 T02610183
04850KAOH AOH20160620191510806/20/16 19:15:31  5-MIN KAOH 210015Z AUTO 27018KT 10SM CLR 26/18 A3002 890 64 2400 270/18 RMK AO2 T02560183
04850KAOH AOH20160620192011406/20/16 19:20:31  5-MIN KAOH 210020Z AUTO 27014G23KT 10SM CLR 26/18 A3001 890 64 2400 270/14G23 RMK AO2 T02560183
04850KAOH AOH20160620192510806/20/16 19:25:31  5-MIN KAOH 210025Z AUTO 26015KT 10SM CLR 25/18 A3001 890 66 2300 270/15 RMK AO2 T02500183
04850KAOH AOH20160620193010806/20/16 19:30:31  5-MIN KAOH 210030Z AUTO 26015KT 10SM CLR 25/18 A3001 890 66 2300 270/15 RMK AO2 T02500183
04850KAOH AOH20160620193510806/20/16 19:35:31  5-MIN KAOH 210035Z AUTO 26018KT 10SM CLR 25/18 A3001 900 64 2300 270/18 RMK AO2 T02500178
04850KAOH AOH20160620194010806/20/16 19:40:31  5-MIN KAOH 210040Z AUTO 26016KT 10SM CLR 25/18 A3001 900 64 2300 270/16 RMK AO2 T02500178
04850KAOH AOH20160620194511706/20/16 19:45:31  5-MIN KAOH 210045Z AUTO 26012G21KT 10SM FEW075 24/18 A3001 900 66 2200 270/12G21 RMK AO2 T02440178
04850KAOH AOH20160620195011806/20/16 19:50:31  5-MIN KAOH 210050Z AUTO 26014KT 10SM SCT075 24/18 A3001 890 66 2200 260/14 RMK AO2 SLP156 T02440178
04850KAOH AOH20160620195511106/20/16 19:55:31  5-MIN KAOH 210055Z AUTO 25012KT 10SM BKN080 24/18 A3001 890 66 2200 260/12 RMK AO2 T02440178
04850KAOH AOH20160620200011106/20/16 20:00:31  5-MIN KAOH 210100Z AUTO 25013KT 10SM BKN080 24/18 A3002 890 66 2200 260/13 RMK AO2 T02440178
04850KAOH AOH20160620200511106/20/16 20:05:31  5-MIN KAOH 210105Z AUTO 25013KT 10SM BKN080 24/18 A3002 890 68 2200 260/13 RMK AO2 T02440183
04850KAOH AOH20160620201011106/20/16 20:10:31  5-MIN KAOH 210110Z AUTO 25014KT 10SM BKN080 24/18 A3002 890 71 2200 260/14 RMK AO2 T02390183
04850KAOH AOH20160620201511106/20/16 20:15:31  5-MIN KAOH 210115Z AUTO 25012KT 10SM SCT080 24/18 A3001 890 71 2200 260/12 RMK AO2 T02390183
04850KAOH AOH20160620202011106/20/16 20:20:31  5-MIN KAOH 210120Z AUTO 25014KT 10SM SCT080 24/18 A3001 890 71 2200 260/14 RMK AO2 T02390183
04850KAOH AOH20160620202511106/20/16 20:25:31  5-MIN KAOH 210125Z AUTO 26012KT 10SM FEW080 24/18 A3001 890 68 2200 260/12 RMK AO2 T02390178
04850KAOH AOH20160620203011106/20/16 20:30:31  5-MIN KAOH 210130Z AUTO 26012KT 10SM FEW080 24/18 A3001 890 68 2200 260/12 RMK AO2 T02390178
04850KAOH AOH20160620203510806/20/16 20:35:31  5-MIN KAOH 210135Z AUTO 25012KT 10SM CLR 24/18 A3001 900 68 2200 260/12 RMK AO2 T02390178
04850KAOH AOH20160620204010806/20/16 20:40:31  5-MIN KAOH 210140Z AUTO 26012KT 10SM CLR 24/17 A3001 900 66 2200 260/12 RMK AO2 T02390172
04850KAOH AOH20160620204510806/20/16 20:45:31  5-MIN KAOH 210145Z AUTO 25013KT 10SM CLR 24/16 A3001 900 61 2200 260/13 RMK AO2 T02390161
04850KAOH AOH20160620205011506/20/16 20:50:31  5-MIN KAOH 210150Z AUTO 24010KT 10SM CLR 24/16 A3000 900 61 2200 240/10 RMK AO2 SLP152 T02390161
04850KAOH AOH20160620205510806/20/16 20:55:31  5-MIN KAOH 210155Z AUTO 23009KT 10SM CLR 24/16 A3001 900 59 2200 230/09 RMK AO2 T02390156
04850KAOH AOH20160620210010806/20/16 21:00:31  5-MIN KAOH 210200Z AUTO 22008KT 10SM CLR 24/16 A3001 890 59 2200 230/08 RMK AO2 T02390156
04850KAOH AOH20160620210510806/20/16 21:05:31  5-MIN KAOH 210205Z AUTO 22010KT 10SM CLR 24/16 A3001 890 59 2200 230/10 RMK AO2 T02390156
04850KAOH AOH20160620211010806/20/16 21:10:31  5-MIN KAOH 210210Z AUTO 23011KT 10SM CLR 24/15 A3001 890 57 2200 230/11 RMK AO2 T02390150
04850KAOH AOH20160620211510806/20/16 21:15:31  5-MIN KAOH 210215Z AUTO 22008KT 10SM CLR 23/15 A3000 900 59 2100 220/08 RMK AO2 T02330150
04850KAOH AOH20160620212010806/20/16 21:20:31  5-MIN KAOH 210220Z AUTO 23008KT 10SM CLR 23/16 A3001 900 61 2100 230/08 RMK AO2 T02330156
04850KAOH AOH20160620212510806/20/16 21:25:31  5-MIN KAOH 210225Z AUTO 22007KT 10SM CLR 23/16 A3001 900 61 2100 220/07 RMK AO2 T02330156
04850KAOH AOH20160620213010806/20/16 21:30:31  5-MIN KAOH 210230Z AUTO 21006KT 10SM CLR 23/16 A3000 900 63 2000 220/06 RMK AO2 T02280156
04850KAOH AOH20160620213510806/20/16 21:35:31  5-MIN KAOH 210235Z AUTO 20005KT 10SM CLR 23/16 A3000 910 63 2100 210/05 RMK AO2 T02280156
04850KAOH AOH20160620214010806/20/16 21:40:31  5-MIN KAOH 210240Z AUTO 20006KT 10SM CLR 23/16 A3001 900 63 2000 210/06 RMK AO2 T02280156
04850KAOH AOH20160620214510806/20/16 21:45:31  5-MIN KAOH 210245Z AUTO 21008KT 10SM CLR 23/16 A3000 900 65 2100 220/08 RMK AO2 T02280161
04850KAOH AOH20160620215012106/20/16 21:50:31  5-MIN KAOH 210250Z AUTO 22008KT 10SM CLR 23/16 A3000 900 65 2100 220/08 RMK AO2 SLP150 T02280161 56015
04850KAOH AOH20160620215510806/20/16 21:55:31  5-MIN KAOH 210255Z AUTO 21006KT 10SM CLR 23/16 A3000 910 65 2100 210/06 RMK AO2 T02280161
04850KAOH AOH20160620220010806/20/16 22:00:31  5-MIN KAOH 210300Z AUTO 21007KT 10SM CLR 23/16 A3000 910 65 2100 210/07 RMK AO2 T02280161
04850KAOH AOH20160620220510806/20/16 22:05:31  5-MIN KAOH 210305Z AUTO 21007KT 10SM CLR 22/17 A3000 910 70 2000 220/07 RMK AO2 T02220167
04850KAOH AOH20160620221010806/20/16 22:10:31  5-MIN KAOH 210310Z AUTO 21006KT 10SM CLR 22/17 A3000 900 70 2000 220/06 RMK AO2 T02220167
04850KAOH AOH20160620221511506/20/16 22:15:31  5-MIN KAOH 210315Z AUTO 23006KT 10SM CLR 22/17 A3002 880 70 2000 230/06 RMK AO2 PRESRR T02220167
04850KAOH AOH20160620222010806/20/16 22:20:31  5-MIN KAOH 210320Z AUTO 23005KT 10SM CLR 22/17 A3002 890 70 2000 230/05 RMK AO2 T02220167
04850KAOH AOH20160620222510806/20/16 22:25:31  5-MIN KAOH 210325Z AUTO 22005KT 10SM CLR 22/17 A3002 890 70 2000 230/05 RMK AO2 T02220167
04850KAOH AOH20160620223011106/20/16 22:30:31  5-MIN KAOH 210330Z AUTO 23006KT 10SM FEW044 22/17 A3002 890 70 2000 230/06 RMK AO2 T02220167
04850KAOH AOH20160620223511106/20/16 22:35:31  5-MIN KAOH 210335Z AUTO 22005KT 10SM FEW044 22/17 A3001 890 73 2000 230/05 RMK AO2 T02220172
04850KAOH AOH20160620224011106/20/16 22:40:31  5-MIN KAOH 210340Z AUTO 22005KT 10SM FEW043 22/17 A3001 900 75 1900 220/05 RMK AO2 T02170172
04850KAOH AOH20160620224511106/20/16 22:45:31  5-MIN KAOH 210345Z AUTO 21006KT 10SM FEW043 22/17 A3000 900 75 1900 220/06 RMK AO2 T02170172
04850KAOH AOH20160620225011506/20/16 22:50:31  5-MIN KAOH 210350Z AUTO 21005KT 10SM CLR 22/17 A3000 900 75 1900 220/05 RMK AO2 SLP150 T02170172
04850KAOH AOH20160620225510806/20/16 22:55:31  5-MIN KAOH 210355Z AUTO 21004KT 10SM CLR 22/17 A3000 900 75 1900 210/04 RMK AO2 T02170172
04850KAOH AOH20160620230010806/20/16 23:00:31  5-MIN KAOH 210400Z AUTO 22006KT 10SM CLR 22/17 A3000 900 75 1900 220/06 RMK AO2 T02170172
04850KAOH AOH20160620230510806/20/16 23:05:31  5-MIN KAOH 210405Z AUTO 22006KT 10SM CLR 22/18 A3000 900 78 1900 230/06 RMK AO2 T02170178
04850KAOH AOH20160620231010806/20/16 23:10:31  5-MIN KAOH 210410Z AUTO 23006KT 10SM CLR 22/18 A3000 900 78 1900 230/06 RMK AO2 T02170178
04850KAOH AOH20160620231510806/20/16 23:15:31  5-MIN KAOH 210415Z AUTO 23007KT 10SM CLR 22/18 A3001 900 78 1900 230/07 RMK AO2 T02170178
04850KAOH AOH20160620232010806/20/16 23:20:31  5-MIN KAOH 210420Z AUTO 23007KT 10SM CLR 22/18 A3001 890 78 1900 230/07 RMK AO2 T02170178
04850KAOH AOH20160620232510806/20/16 23:25:31  5-MIN KAOH 210425Z AUTO 22008KT 10SM CLR 22/18 A3001 890 78 1900 230/08 RMK AO2 T02170178
04850KAOH AOH20160620233010806/20/16 23:30:31  5-MIN KAOH 210430Z AUTO 22009KT 10SM CLR 22/18 A3001 890 78 1900 230/09 RMK AO2 T02170178
04850KAOH AOH20160620233510806/20/16 23:35:31  5-MIN KAOH 210435Z AUTO 22008KT 10SM CLR 22/18 A3001 890 78 1900 230/08 RMK AO2 T02170178
04850KAOH AOH20160620234010806/20/16 23:40:31  5-MIN KAOH 210440Z AUTO 23010KT 10SM CLR 22/18 A3001 890 81 1900 230/10 RMK AO2 T02170183
04850KAOH AOH20160620234510806/20/16 23:45:31  5-MIN KAOH 210445Z AUTO 23008KT 10SM CLR 22/18 A3001 890 81 1900 240/08 RMK AO2 T02170183
04850KAOH AOH20160620235012506/20/16 23:50:31  5-MIN KAOH 210450Z AUTO 24009KT 10SM CLR 22/18 A3001 890 78 2000 240/09 RMK AO2 SLP155 T02220183 403280217
04850KAOH AOH20160620235510806/20/16 23:55:31  5-MIN KAOH 210455Z AUTO 24008KT 10SM CLR 22/18 A3002 890 81 1900 250/08 RMK AO2 T02170183
04850KAOH AOH20160621000010806/21/16 00:00:31  5-MIN KAOH 210500Z AUTO 24008KT 10SM CLR 22/18 A3002 890 81 1900 250/08 RMK AO2 T02170183
04850KAOH AOH20160621000510806/21/16 00:05:31  5-MIN KAOH 210505Z AUTO 24007KT 10SM CLR 22/18 A3001 890 81 1900 250/07 RMK AO2 T02170183
04850KAOH AOH20160621001010806/21/16 00:10:31  5-MIN KAOH 210510Z AUTO 24008KT 10SM CLR 22/18 A3002 890 81 1900 240/08 RMK AO2 T02170183
04850KAOH AOH20160621001511106/21/16 00:15:31  5-MIN KAOH 210515Z AUTO 25008KT 10SM FEW120 22/18 A3002 890 81 1900 250/08 RMK AO2 T02170183
04850KAOH AOH20160621002011106/21/16 00:20:31  5-MIN KAOH 210520Z AUTO 25007KT 10SM SCT120 22/19 A3002 890 84 1900 250/07 RMK AO2 T02170189
04850KAOH AOH20160621002511106/21/16 00:25:31  5-MIN KAOH 210525Z AUTO 25007KT 10SM FEW120 22/19 A3002 890 84 1900 260/07 RMK AO2 T02170189
04850KAOH AOH20160621003011106/21/16 00:30:31  5-MIN KAOH 210530Z AUTO 25007KT 10SM FEW120 22/19 A3002 890 84 1900 260/07 RMK AO2 T02170189
04850KAOH AOH20160621003511106/21/16 00:35:31  5-MIN KAOH 210535Z AUTO 24008KT 10SM FEW120 22/19 A3002 890 84 1900 250/08 RMK AO2 T02170189
04850KAOH AOH20160621004012506/21/16 00:40:31  5-MIN KAOH 210540Z AUTO 24008KT 10SM FEW030 FEW055 SCT120 22/19 A3001 890 84 1900 250/08 RMK AO2 T02170189
04850KAOH AOH20160621004512506/21/16 00:45:31  5-MIN KAOH 210545Z AUTO 25008KT 10SM SCT030 SCT043 SCT055 22/19 A3001 890 81 2000 260/08 RMK AO2 T02220189
04850KAOH AOH20160621005015006/21/16 00:50:31  5-MIN KAOH 210550Z AUTO 26007KT 10SM FEW030 SCT038 SCT049 22/19 A3001 900 81 2000 270/07 RMK AO2 SLP152 T02220189 10261 20217 58004
04850KAOH AOH20160621005512506/21/16 00:55:31  5-MIN KAOH 210555Z AUTO 27007KT 10SM FEW029 SCT034 SCT050 22/19 A3001 900 84 1900 280/07 RMK AO2 T02170189
04850KAOH AOH20160621010011806/21/16 01:00:31  5-MIN KAOH 210600Z AUTO 28006KT 10SM FEW029 BKN034 22/19 A3001 900 84 1900 290/06 RMK AO2 T02170189
04850KAOH AOH20160621010513706/21/16 01:05:31  5-MIN KAOH 210605Z AUTO 28006KT 10SM FEW029 BKN034 BKN050 22/19 A3000 900 81 2000 290/06 RMK AO2 LTG DSNT NW T02220189
04850KAOH AOH20160621011013706/21/16 01:10:31  5-MIN KAOH 210610Z AUTO 26007KT 10SM SCT034 BKN049 BKN110 22/19 A3000 910 81 2000 270/07 RMK AO2 LTG DSNT NW T02220189
04850KAOH AOH20160621011513006/21/16 01:15:31  5-MIN KAOH 210615Z AUTO 27008KT 10SM SCT035 BKN110 22/19 A3000 910 81 2000 280/08 RMK AO2 LTG DSNT NW T02220189
04850KAOH AOH20160621012013006/21/16 01:20:31  5-MIN KAOH 210620Z AUTO 29009KT 10SM FEW035 SCT110 22/19 A3001 900 81 2000 300/09 RMK AO2 LTG DSNT NW T02220189
04850KAOH AOH20160621012513706/21/16 01:25:31  5-MIN KAOH 210625Z AUTO 29006KT 10SM FEW035 SCT050 BKN110 23/19 A3000 900 78 2100 300/06 RMK AO2 LTG DSNT NW T02280189
04850KAOH AOH20160621013015306/21/16 01:30:31  5-MIN KAOH 210630Z AUTO 27007KT 10SM -RA FEW035 SCT050 BKN110 22/19 A3000 900 81 2000 280/07 RMK AO2 LTG DSNT NW RAB29 P0000 T02220189
04850KAOH AOH20160621013515806/21/16 01:35:31  5-MIN KAOH 210635Z AUTO 29010KT 10SM VCTS -RA FEW035 SCT075 BKN110 23/19 A3000 900 81 2000 300/10 RMK AO2 LTG DSNT NW RAB29 P0000 T02280194
04850KAOH AOH20160621014015106/21/16 01:40:31  5-MIN KAOH 210640Z AUTO 30012G17KT 8SM VCTS -RA FEW035 SCT050 BKN110 22/19 A3001 900 84 2000 310/12G17 RMK AO2 RAB29 P0001 T02220194
04850KAOH AOH20160621014514406/21/16 01:45:31  5-MIN KAOH 210645Z AUTO 29012KT 7SM VCTS RA FEW035 SCT050 BKN075 22/19 A3000 900 84 2000 290/12 RMK AO2 RAB29 P0002 T02220194
04850KAOH AOH20160621015015206/21/16 01:50:31  5-MIN KAOH 210650Z AUTO 30011KT 8SM VCTS -RA FEW035 BKN075 OVC100 22/19 A3000 910 87 1900 310/11 RMK AO2 RAB29 SLP149 P0002 T02170194
04850KAOH AOH20160621015515206/21/16 01:55:31  5-MIN KAOH 210655Z AUTO 30010KT 10SM VCTS -RA FEW034 SCT043 BKN075 22/20 A2999 910 90 1900 300/10 RMK AO2 LTG DSNT NE P0000 T02170200
04850KAOH AOH20160621020015106/21/16 02:00:31  5-MIN KAOH 210700Z AUTO 31007KT 10SM FEW034 SCT046 BKN075 22/20 A2999 910 90 1900 310/07 RMK AO2 LTG DSNT NE RAE0657 P0000 T02170200
04850KAOH AOH20160621020515106/21/16 02:05:31  5-MIN KAOH 210705Z AUTO 31006KT 10SM FEW043 SCT080 SCT100 21/20 A3000 910 93 1900 320/06 RMK AO2 LTG DSNT NE RAE0657 P0000 T02110200
04850KAOH AOH20160621021015106/21/16 02:10:31  5-MIN KAOH 210710Z AUTO 30007KT 10SM FEW040 SCT075 SCT100 21/20 A3000 910 93 1900 310/07 RMK AO2 LTG DSNT NE RAE0657 P0000 T02110200
04850KAOH AOH20160621021514406/21/16 02:15:31  5-MIN KAOH 210715Z AUTO 30009KT 10SM FEW034 SCT095 21/20 A3000 910 93 1900 310/09 RMK AO2 LTG DSNT NE RAE0657 P0000 T02110200
04850KAOH AOH20160621022013706/21/16 02:20:31  5-MIN KAOH 210720Z AUTO 29009KT 10SM SCT095 21/20 A2999 910 93 1900 300/09 RMK AO2 LTG DSNT NE RAE0657 P0000 T02110200
04850KAOH AOH20160621022514406/21/16 02:25:31  5-MIN KAOH 210725Z AUTO 30009KT 10SM FEW080 SCT095 21/20 A2999 910 93 1900 310/09 RMK AO2 LTG DSNT NE RAE0657 P0000 T02110200
04850KAOH AOH20160621023012506/21/16 02:30:31  5-MIN KAOH 210730Z AUTO 31008KT 10SM FEW090 21/20 A2999 910 93 1900 310/08 RMK AO2 RAE0657 P0000 T02110200
04850KAOH AOH20160621023513206/21/16 02:35:31  5-MIN KAOH 210735Z AUTO 29007KT 10SM FEW035 FEW095 21/20 A2999 910 93 1900 290/07 RMK AO2 RAE0657 P0000 T02110200
04850KAOH AOH20160621024013206/21/16 02:40:31  5-MIN KAOH 210740Z AUTO 30006KT 10SM SCT035 SCT095 21/20 A2999 910 93 1900 310/06 RMK AO2 RAE0657 P0000 T02110200
04850KAOH AOH20160621024513206/21/16 02:45:31  5-MIN KAOH 210745Z AUTO 30006KT 10SM BKN033 BKN095 21/20 A2999 910 93 1900 310/06 RMK AO2 RAE0657 P0000 T02110200
04850KAOH AOH20160621025013206/21/16 02:50:31  5-MIN KAOH 210750Z AUTO 31008KT 10SM BKN033 21/20 A2999 910 93 1900 310/08 RMK AO2 RAE0657 SLP147 P0000 T02110200
04850KAOH AOH20160621025512506/21/16 02:55:31  5-MIN KAOH 210755Z AUTO 31008KT 10SM FEW014 SCT028 BKN035 21/20 A2999 910 93 1900 320/08 RMK AO2 T02110200
04850KAOH AOH20160621030012506/21/16 03:00:31  5-MIN KAOH 210800Z AUTO 31008KT 10SM FEW014 BKN028 OVC035 21/20 A2999 910 93 1900 320/08 RMK AO2 T02110200
04850KAOH AOH20160621030512506/21/16 03:05:31  5-MIN KAOH 210805Z AUTO 30007KT 10SM FEW014 BKN028 OVC034 21/21 A2999 910 97 1900 310/07 RMK AO2 T02110206
04850KAOH AOH20160621031012506/21/16 03:10:31  5-MIN KAOH 210810Z AUTO 30007KT 10SM FEW014 BKN028 OVC034 21/21 A2999 910 97 1900 310/07 RMK AO2 T02110206
04850KAOH AOH20160621031512506/21/16 03:15:31  5-MIN KAOH 210815Z AUTO 31006KT 10SM FEW014 BKN022 OVC028 21/21 A2999 920 97 1900 320/06 RMK AO2 T02110206
04850KAOH AOH20160621032012506/21/16 03:20:31  5-MIN KAOH 210820Z AUTO 31006KT 10SM SCT022 BKN028 OVC032 21/21 A2998 920 97 1900 320/06 RMK AO2 T02110206
04850KAOH AOH20160621032511806/21/16 03:25:31  5-MIN KAOH 210825Z AUTO 31009KT 10SM SCT022 OVC028 21/20 A2998 920 93 1900 310/09 RMK AO2 T02110200
04850KAOH AOH20160621033011806/21/16 03:30:31  5-MIN KAOH 210830Z AUTO 31008KT 10SM SCT022 OVC029 21/20 A2998 920 93 1900 320/08 RMK AO2 T02110200
04850KAOH AOH20160621033511806/21/16 03:35:31  5-MIN KAOH 210835Z AUTO 31009KT 10SM SCT022 OVC029 21/20 A2998 920 93 1900 320/09 RMK AO2 T02110200
04850KAOH AOH20160621034011806/21/16 03:40:31  5-MIN KAOH 210840Z AUTO 30008KT 10SM FEW022 OVC031 21/20 A2998 920 93 1900 310/08 RMK AO2 T02110200
04850KAOH AOH20160621034511806/21/16 03:45:31  5-MIN KAOH 210845Z AUTO 31007KT 10SM FEW022 OVC031 21/21 A2998 930 97 1900 310/07 RMK AO2 T02110206
04850KAOH AOH20160621035013706/21/16 03:50:31  5-MIN KAOH 210850Z AUTO 29007KT 10SM FEW025 OVC031 21/21 A2998 920 97 1900 290/07 RMK AO2 SLP143 60002 T02110206 50003
04850KAOH AOH20160621035511806/21/16 03:55:31  5-MIN KAOH 210855Z AUTO 29006KT 10SM FEW025 OVC031 21/21 A2998 930 97 1900 290/06 RMK AO2 T02110206
04850KAOH AOH20160621040011806/21/16 04:00:31  5-MIN KAOH 210900Z AUTO 29007KT 10SM FEW025 BKN032 21/21 A2997 930 97 1900 290/07 RMK AO2 T02110206
04850KAOH AOH20160621040511806/21/16 04:05:31  5-MIN KAOH 210905Z AUTO 29006KT 10SM FEW024 BKN032 21/20 A2997 930 93 1900 300/06 RMK AO2 T02110200
04850KAOH AOH20160621041011806/21/16 04:10:31  5-MIN KAOH 210910Z AUTO 30005KT 10SM FEW024 SCT033 21/20 A2997 930 93 1900 300/05 RMK AO2 T02110200
04850KAOH AOH20160621041511906/21/16 04:15:31  5-MIN KAOH 210915Z AUTO 28005KT 10SM FEW024 SCT033 21/21 A2997 930 100 1800 290/05 RMK AO2 T02060206
04850KAOH AOH20160621042011106/21/16 04:20:31  5-MIN KAOH 210920Z AUTO 26005KT 10SM FEW033 21/20 A2997 930 97 1800 270/05 RMK AO2 T02060200
04850KAOH AOH20160621042510806/21/16 04:25:31  5-MIN KAOH 210925Z AUTO 26005KT 10SM CLR 21/20 A2997 930 97 1800 270/05 RMK AO2 T02060200
04850KAOH AOH20160621043010806/21/16 04:30:31  5-MIN KAOH 210930Z AUTO 27005KT 10SM CLR 21/20 A2997 930 97 1800 280/05 RMK AO2 T02060200
04850KAOH AOH20160621043510806/21/16 04:35:31  5-MIN KAOH 210935Z AUTO 29003KT 10SM CLR 21/20 A2997 930 97 1800 290/03 RMK AO2 T02060200
04850KAOH AOH20160621044010906/21/16 04:40:31  5-MIN KAOH 210940Z AUTO 28003KT 10SM CLR 20/20 A2997 940 100 1800 290/03 RMK AO2 T02000200
04850KAOH AOH20160621044510806/21/16 04:45:31  5-MIN KAOH 210945Z AUTO 28003KT 10SM CLR 20/19 A2997 930 97 1800 280/03 RMK AO2 T02000194
04850KAOH AOH20160621045011506/21/16 04:50:31  5-MIN KAOH 210950Z AUTO 28003KT 9SM CLR 20/20 A2997 940 100 1800 280/03 RMK AO2 SLP139 T02000200
04850KAOH AOH20160621045510706/21/16 04:55:31  5-MIN KAOH 210955Z AUTO 27003KT 9SM CLR 20/19 A2996 940 97 1800 280/03 RMK AO2 T02000194
04850KAOH AOH20160621050010706/21/16 05:00:31  5-MIN KAOH 211000Z AUTO 27003KT 8SM CLR 20/19 A2996 940 97 1800 280/03 RMK AO2 T02000194
04850KAOH AOH20160621050510806/21/16 05:05:31  5-MIN KAOH 211005Z AUTO 27004KT 7SM CLR 19/19 A2996 940 100 1700 280/04 RMK AO2 T01940194
04850KAOH AOH20160621051010806/21/16 05:10:31  5-MIN KAOH 211010Z AUTO 27004KT 7SM CLR 19/19 A2996 940 100 1700 270/04 RMK AO2 T01940194
04850KAOH AOH20160621051511106/21/16 05:15:31  5-MIN KAOH 211015Z AUTO 26005KT 7SM FEW120 19/19 A2997 940 100 1700 270/05 RMK AO2 T01940194
04850KAOH AOH20160621052011106/21/16 05:20:31  5-MIN KAOH 211020Z AUTO 26005KT 7SM FEW120 19/19 A2997 930 100 1700 270/05 RMK AO2 T01940194
04850KAOH AOH20160621052511006/21/16 05:25:31  5-MIN KAOH 211025Z AUTO 26005KT 8SM FEW120 20/19 A2997 930 97 1800 260/05 RMK AO2 T02000194
04850KAOH AOH20160621053011106/21/16 05:30:31  5-MIN KAOH 211030Z AUTO 26005KT 8SM SCT120 20/20 A2997 930 100 1800 270/05 RMK AO2 T02000200
04850KAOH AOH20160621053511106/21/16 05:35:31  5-MIN KAOH 211035Z AUTO 27005KT 7SM SCT120 20/20 A2997 930 100 1800 280/05 RMK AO2 T02000200
04850KAOH AOH20160621054011106/21/16 05:40:31  5-MIN KAOH 211040Z AUTO 27005KT 7SM SCT120 20/20 A2997 930 100 1800 280/05 RMK AO2 T02000200
04850KAOH AOH20160621054511406/21/16 05:45:31  5-MIN KAOH 211045Z AUTO 26006KT 6SM BR BKN120 20/20 A2997 930 100 1800 270/06 RMK AO2 T02000200
04850KAOH AOH20160621055011806/21/16 05:50:31  5-MIN KAOH 211050Z AUTO 26005KT 7SM BKN120 20/20 A2997 930 100 1800 270/05 RMK AO2 SLP142 T02000200
04850KAOH AOH20160621055511006/21/16 05:55:31  5-MIN KAOH 211055Z AUTO 27005KT 7SM SCT120 21/20 A2997 930 97 1800 270/05 RMK AO2 T02060200
04850KAOH AOH20160621060011006/21/16 06:00:31  5-MIN KAOH 211100Z AUTO 25005KT 8SM SCT120 21/20 A2997 930 97 1800 260/05 RMK AO2 T02060200
04850KAOH AOH20160621060511006/21/16 06:05:31  5-MIN KAOH 211105Z AUTO 26005KT 8SM SCT110 21/20 A2997 930 97 1800 260/05 RMK AO2 T02060200
04850KAOH AOH20160621061011106/21/16 06:10:31  5-MIN KAOH 211110Z AUTO 27006KT 8SM SCT110 21/21 A2998 930 100 1800 270/06 RMK AO2 T02060206
04850KAOH AOH20160621061511106/21/16 06:15:31  5-MIN KAOH 211115Z AUTO 27006KT 8SM FEW110 21/21 A2998 920 100 1800 280/06 RMK AO2 T02060206
04850KAOH AOH20160621062011106/21/16 06:20:31  5-MIN KAOH 211120Z AUTO 27006KT 8SM FEW110 21/21 A2998 920 100 1800 280/06 RMK AO2 T02060206
04850KAOH AOH20160621062511106/21/16 06:25:31  5-MIN KAOH 211125Z AUTO 27006KT 9SM FEW110 21/21 A2998 920 100 1800 280/06 RMK AO2 T02060206
04850KAOH AOH20160621063011006/21/16 06:30:31  5-MIN KAOH 211130Z AUTO 27005KT 9SM FEW110 21/21 A2998 920 97 1900 280/05 RMK AO2 T02110206
04850KAOH AOH20160621063510806/21/16 06:35:31  5-MIN KAOH 211135Z AUTO 27006KT 10SM CLR 21/20 A2998 920 93 1900 280/06 RMK AO2 T02110200
04850KAOH AOH20160621064010806/21/16 06:40:31  5-MIN KAOH 211140Z AUTO 28006KT 10SM CLR 21/20 A2998 920 93 1900 290/06 RMK AO2 T02110200
04850KAOH AOH20160621064510806/21/16 06:45:31  5-MIN KAOH 211145Z AUTO 29006KT 10SM CLR 21/20 A2998 920 93 1900 300/06 RMK AO2 T02110200
04850KAOH AOH20160621065014506/21/16 06:50:31  5-MIN KAOH 211150Z AUTO 30005KT 10SM CLR 21/20 A2998 920 93 1900 310/05 RMK AO2 SLP146 60002 70002 T02110200 10228 20194 58009
04850KAOH AOH20160621065510806/21/16 06:55:31  5-MIN KAOH 211155Z AUTO 31005KT 10SM CLR 21/19 A2998 920 90 1900 310/05 RMK AO2 T02110194
04850KAOH AOH20160621070010806/21/16 07:00:31  5-MIN KAOH 211200Z AUTO 34004KT 10SM CLR 21/19 A2999 920 90 1900 350/04 RMK AO2 T02110194
04850KAOH AOH20160621070510806/21/16 07:05:31  5-MIN KAOH 211205Z AUTO 32007KT 10SM CLR 21/19 A2999 920 90 1900 330/07 RMK AO2 T02110194
04850KAOH AOH20160621071010806/21/16 07:10:31  5-MIN KAOH 211210Z AUTO 34006KT 10SM CLR 21/19 A2999 920 87 1900 340/06 RMK AO2 T02110189
04850KAOH AOH20160621071510806/21/16 07:15:31  5-MIN KAOH 211215Z AUTO 34006KT 10SM CLR 22/19 A2998 920 87 1900 350/06 RMK AO2 T02170194
04850KAOH AOH20160621072011106/21/16 07:20:31  5-MIN KAOH 211220Z AUTO 34007KT 10SM FEW013 22/19 A2998 920 84 1900 340/07 RMK AO2 T02170189
04850KAOH AOH20160621072511106/21/16 07:25:31  5-MIN KAOH 211225Z AUTO 34006KT 10SM FEW013 22/19 A2999 920 84 1900 350/06 RMK AO2 T02170189
04850KAOH AOH20160621073010806/21/16 07:30:31  5-MIN KAOH 211230Z AUTO 33005KT 10SM CLR 22/19 A2998 920 87 1900 340/05 RMK AO2 T02170194
04850KAOH AOH20160621073511106/21/16 07:35:31  5-MIN KAOH 211235Z AUTO 35005KT 10SM FEW110 22/19 A2998 920 84 1900 360/05 RMK AO2 T02170189
04850KAOH AOH20160621074011106/21/16 07:40:31  5-MIN KAOH 211240Z AUTO 32006KT 10SM FEW110 22/19 A2998 920 84 1900 330/06 RMK AO2 T02170189
04850KAOH AOH20160621074511106/21/16 07:45:31  5-MIN KAOH 211245Z AUTO 33005KT 10SM SCT110 22/19 A2998 920 84 1900 340/05 RMK AO2 T02170189
04850KAOH AOH20160621075011806/21/16 07:50:31  5-MIN KAOH 211250Z AUTO 32004KT 10SM SCT110 22/19 A2998 920 84 1900 320/04 RMK AO2 SLP146 T02170189
04850KAOH AOH20160621075511106/21/16 07:55:31  5-MIN KAOH 211255Z AUTO 32005KT 10SM BKN110 22/19 A2998 920 84 1900 320/05 RMK AO2 T02170189
04850KAOH AOH20160621080011106/21/16 08:00:31  5-MIN KAOH 211300Z AUTO 32004KT 10SM BKN110 22/18 A2998 920 81 1900 320/04 RMK AO2 T02170183
04850KAOH AOH20160621080511106/21/16 08:05:31  5-MIN KAOH 211305Z AUTO 32003KT 10SM BKN110 22/18 A2998 920 81 1900 330/03 RMK AO2 T02170183
04850KAOH AOH20160621081011106/21/16 08:10:31  5-MIN KAOH 211310Z AUTO 00000KT 10SM SCT110 22/19 A2998 920 81 2000 000/00 RMK AO2 T02220189
04850KAOH AOH20160621081511106/21/16 08:15:31  5-MIN KAOH 211315Z AUTO 28003KT 10SM SCT110 22/18 A2998 920 78 2000 290/03 RMK AO2 T02220183
04850KAOH AOH20160621082011106/21/16 08:20:31  5-MIN KAOH 211320Z AUTO 29004KT 10SM FEW110 22/19 A2998 920 81 2000 300/04 RMK AO2 T02220189
04850KAOH AOH20160621082511106/21/16 08:25:31  5-MIN KAOH 211325Z AUTO 30004KT 10SM FEW110 22/18 A2998 920 78 2000 310/04 RMK AO2 T02220183
04850KAOH AOH20160621083010806/21/16 08:30:31  5-MIN KAOH 211330Z AUTO 32003KT 10SM CLR 22/18 A2998 920 78 2000 330/03 RMK AO2 T02220183
04850KAOH AOH20160621083510806/21/16 08:35:31  5-MIN KAOH 211335Z AUTO 33003KT 10SM CLR 23/18 A2998 920 73 2100 330/03 RMK AO2 T02280178
04850KAOH AOH20160621084010806/21/16 08:40:31  5-MIN KAOH 211340Z AUTO 30003KT 10SM CLR 23/18 A2998 920 73 2100 310/03 RMK AO2 T02280178
04850KAOH AOH20160621084510806/21/16 08:45:31  5-MIN KAOH 211345Z AUTO 00000KT 10SM CLR 23/17 A2998 920 70 2100 000/00 RMK AO2 T02280172
04850KAOH AOH20160621085011506/21/16 08:50:31  5-MIN KAOH 211350Z AUTO 00000KT 10SM CLR 23/17 A2998 930 70 2100 000/00 RMK AO2 SLP144 T02280172
04850KAOH AOH20160621085510806/21/16 08:55:31  5-MIN KAOH 211355Z AUTO 00000KT 10SM CLR 23/16 A2998 930 63 2100 000/00 RMK AO2 T02330161
04850KAOH AOH20160621090010806/21/16 09:00:31  5-MIN KAOH 211400Z AUTO 33004KT 10SM CLR 23/16 A2998 920 63 2100 340/04 RMK AO2 T02330161
04850KAOH AOH20160621090510806/21/16 09:05:31  5-MIN KAOH 211405Z AUTO VRB04KT 10SM CLR 24/15 A2998 930 57 2200 VRB/04 RMK AO2 T02390150
04850KAOH AOH20160621091010806/21/16 09:10:31  5-MIN KAOH 211410Z AUTO VRB03KT 10SM CLR 23/16 A2997 930 61 2100 VRB/03 RMK AO2 T02330156
04850KAOH AOH20160621091510806/21/16 09:15:31  5-MIN KAOH 211415Z AUTO 36003KT 10SM CLR 24/17 A2997 930 63 2200 010/03 RMK AO2 T02390167
04850KAOH AOH20160621092010806/21/16 09:20:31  5-MIN KAOH 211420Z AUTO 00000KT 10SM CLR 24/16 A2997 930 61 2200 000/00 RMK AO2 T02390161
04850KAOH AOH20160621092510806/21/16 09:25:31  5-MIN KAOH 211425Z AUTO VRB04KT 10SM CLR 24/16 A2997 930 59 2300 VRB/04 RMK AO2 T02440161
04850KAOH AOH20160621093010806/21/16 09:30:31  5-MIN KAOH 211430Z AUTO 00000KT 10SM CLR 24/16 A2997 930 59 2200 000/00 RMK AO2 T02390156
04850KAOH AOH20160621093510806/21/16 09:35:31  5-MIN KAOH 211435Z AUTO 00000KT 10SM CLR 24/16 A2997 930 59 2200 000/00 RMK AO2 T02390156
04850KAOH AOH20160621094010806/21/16 09:40:31  5-MIN KAOH 211440Z AUTO 31004KT 10SM CLR 24/16 A2997 930 57 2300 320/04 RMK AO2 T02440156
04850KAOH AOH20160621094510806/21/16 09:45:31  5-MIN KAOH 211445Z AUTO 29003KT 10SM CLR 24/16 A2997 930 57 2300 290/03 RMK AO2 T02440156
04850KAOH AOH20160621095012106/21/16 09:50:31  5-MIN KAOH 211450Z AUTO 31005KT 10SM CLR 24/16 A2997 930 57 2300 310/05 RMK AO2 SLP142 T02440156 53002
04850KAOH AOH20160621095510806/21/16 09:55:31  5-MIN KAOH 211455Z AUTO 27006KT 10SM CLR 24/15 A2997 930 55 2300 280/06 RMK AO2 T02440150
04850KAOH AOH20160621100010806/21/16 10:00:31  5-MIN KAOH 211500Z AUTO 30006KT 10SM CLR 25/14 A2997 930 49 2300 300/06 RMK AO2 T02500139
04850KAOH AOH20160621100510806/21/16 10:05:31  5-MIN KAOH 211505Z AUTO VRB04KT 10SM CLR 25/14 A2997 930 51 2300 VRB/04 RMK AO2 T02500144
04850KAOH AOH20160621101010806/21/16 10:10:31  5-MIN KAOH 211510Z AUTO VRB05KT 10SM CLR 26/15 A2997 930 51 2400 VRB/05 RMK AO2 T02560150
04850KAOH AOH20160621101510806/21/16 10:15:31  5-MIN KAOH 211515Z AUTO VRB05KT 10SM CLR 25/14 A2997 930 51 2300 VRB/05 RMK AO2 T02500144
04850KAOH AOH20160621102010806/21/16 10:20:31  5-MIN KAOH 211520Z AUTO 28008KT 10SM CLR 26/14 A2997 930 48 2400 290/08 RMK AO2 T02560139
04850KAOH AOH20160621102510806/21/16 10:25:31  5-MIN KAOH 211525Z AUTO 26005KT 10SM CLR 25/13 A2997 930 48 2300 260/05 RMK AO2 T02500133
04850KAOH AOH20160621103010806/21/16 10:30:31  5-MIN KAOH 211530Z AUTO 30009KT 10SM CLR 26/13 A2997 930 44 2400 300/09 RMK AO2 T02560128
04850KAOH AOH20160621103510806/21/16 10:35:31  5-MIN KAOH 211535Z AUTO 28008KT 10SM CLR 26/13 A2997 930 44 2400 280/08 RMK AO2 T02560128
04850KAOH AOH20160621104010806/21/16 10:40:31  5-MIN KAOH 211540Z AUTO 29008KT 10SM CLR 26/13 A2997 930 44 2500 300/08 RMK AO2 T02610133
04850KAOH AOH20160621104510806/21/16 10:45:31  5-MIN KAOH 211545Z AUTO 30005KT 10SM CLR 26/13 A2997 930 46 2400 310/05 RMK AO2 T02560133
04850KAOH AOH20160621105013106/21/16 10:50:31  5-MIN KAOH 211550Z AUTO 26008KT 240V310 10SM CLR 26/14 A2997 930 46 2500 270/08 250V320 RMK AO2 SLP143 T02610139
04850KAOH AOH20160621105510806/21/16 10:55:31  5-MIN KAOH 211555Z AUTO 26009KT 10SM CLR 26/14 A2998 930 46 2500 260/09 RMK AO2 T02610139
04850KAOH AOH20160621110011406/21/16 11:00:31  5-MIN KAOH 211600Z AUTO 27010G17KT 10SM CLR 26/13 A2998 930 44 2500 280/10G17 RMK AO2 T02610133
04850KAOH AOH20160621110511406/21/16 11:05:31  5-MIN KAOH 211605Z AUTO 27012G17KT 10SM CLR 26/13 A2998 920 44 2500 280/12G17 RMK AO2 T02610133
04850KAOH AOH20160621111010806/21/16 11:10:31  5-MIN KAOH 211610Z AUTO 28010KT 10SM CLR 26/13 A2998 920 44 2500 290/10 RMK AO2 T02610133
04850KAOH AOH20160621111510806/21/16 11:15:31  5-MIN KAOH 211615Z AUTO 30010KT 10SM CLR 27/14 A2998 930 45 2500 310/10 RMK AO2 T02670139
04850KAOH AOH20160621112010806/21/16 11:20:31  5-MIN KAOH 211620Z AUTO 29013KT 10SM CLR 27/14 A2998 920 46 2500 290/13 RMK AO2 T02670144
04850KAOH AOH20160621112510806/21/16 11:25:31  5-MIN KAOH 211625Z AUTO 28008KT 10SM CLR 26/13 A2998 920 44 2500 290/08 RMK AO2 T02610133
04850KAOH AOH20160621113010806/21/16 11:30:31  5-MIN KAOH 211630Z AUTO 29009KT 10SM CLR 26/14 A2998 920 46 2500 300/09 RMK AO2 T02610139
04850KAOH AOH20160621113510806/21/16 11:35:31  5-MIN KAOH 211635Z AUTO 31010KT 10SM CLR 26/14 A2998 930 48 2500 310/10 RMK AO2 T02610144
04850KAOH AOH20160621114010806/21/16 11:40:31  5-MIN KAOH 211640Z AUTO 25012KT 10SM CLR 27/14 A2997 930 45 2500 260/12 RMK AO2 T02670139
04850KAOH AOH20160621114511406/21/16 11:45:31  5-MIN KAOH 211645Z AUTO 30014G18KT 10SM CLR 27/14 A2997 930 45 2500 300/14G18 RMK AO2 T02670139
04850KAOH AOH20160621115011506/21/16 11:50:31  5-MIN KAOH 211650Z AUTO 30013KT 10SM CLR 27/13 A2997 930 43 2500 310/13 RMK AO2 SLP141 T02670133
04850KAOH AOH20160621115511406/21/16 11:55:31  5-MIN KAOH 211655Z AUTO 30014G20KT 10SM CLR 27/13 A2997 930 40 2600 310/14G20 RMK AO2 T02720128
04850KAOH AOH20160621120011406/21/16 12:00:31  5-MIN KAOH 211700Z AUTO 29012G20KT 10SM CLR 27/13 A2997 930 40 2600 290/12G20 RMK AO2 T02720128
04850KAOH AOH20160621120510806/21/16 12:05:31  5-MIN KAOH 211705Z AUTO 27013KT 10SM CLR 27/13 A2996 940 40 2600 280/13 RMK AO2 T02720128
04850KAOH AOH20160621121011406/21/16 12:10:31  5-MIN KAOH 211710Z AUTO 27014G19KT 10SM CLR 27/13 A2996 940 40 2600 280/14G19 RMK AO2 T02720128
04850KAOH AOH20160621121511406/21/16 12:15:31  5-MIN KAOH 211715Z AUTO 29012G19KT 10SM CLR 28/12 A2996 940 37 2700 300/12G19 RMK AO2 T02780122
04850KAOH AOH20160621122010806/21/16 12:20:31  5-MIN KAOH 211720Z AUTO 26014KT 10SM CLR 27/12 A2996 940 39 2600 270/14 RMK AO2 T02720122
04850KAOH AOH20160621122511406/21/16 12:25:31  5-MIN KAOH 211725Z AUTO 30016G21KT 10SM CLR 28/11 A2996 940 35 2700 300/16G21 RMK AO2 T02780111
04850KAOH AOH20160621123011406/21/16 12:30:31  5-MIN KAOH 211730Z AUTO 28014G21KT 10SM CLR 28/11 A2996 940 35 2700 290/14G21 RMK AO2 T02780111
04850KAOH AOH20160621123511406/21/16 12:35:31  5-MIN KAOH 211735Z AUTO 27012G17KT 10SM CLR 28/12 A2995 950 37 2700 270/12G17 RMK AO2 T02780122
04850KAOH AOH20160621124011406/21/16 12:40:31  5-MIN KAOH 211740Z AUTO 26015G24KT 10SM CLR 28/12 A2996 940 36 2700 270/15G24 RMK AO2 T02780117
04850KAOH AOH20160621124511406/21/16 12:45:31  5-MIN KAOH 211745Z AUTO 28013G25KT 10SM CLR 28/12 A2995 950 35 2700 290/13G25 RMK AO2 T02830117
04850KAOH AOH20160621125013906/21/16 12:50:31  5-MIN KAOH 211750Z AUTO 27015G25KT 10SM CLR 28/11 A2995 950 35 2700 280/15G25 RMK AO2 SLP135 T02780111 10283 20211 58004
04850KAOH AOH20160621125511406/21/16 12:55:31  5-MIN KAOH 211755Z AUTO 29014G26KT 10SM CLR 28/11 A2995 950 35 2700 300/14G26 RMK AO2 T02780111
04850KAOH AOH20160621130011406/21/16 13:00:31  5-MIN KAOH 211800Z AUTO 27016G26KT 10SM CLR 28/11 A2995 950 35 2700 280/16G26 RMK AO2 T02780111
04850KAOH AOH20160621130511406/21/16 13:05:31  5-MIN KAOH 211805Z AUTO 29013G23KT 10SM CLR 28/11 A2995 950 35 2700 290/13G23 RMK AO2 T02780111
04850KAOH AOH20160621131011406/21/16 13:10:31  5-MIN KAOH 211810Z AUTO 28015G22KT 10SM CLR 28/11 A2995 950 35 2700 290/15G22 RMK AO2 T02780111
04850KAOH AOH20160621131511406/21/16 13:15:31  5-MIN KAOH 211815Z AUTO 27011G22KT 10SM CLR 28/11 A2995 950 35 2700 280/11G22 RMK AO2 T02780111
04850KAOH AOH20160621132011406/21/16 13:20:31  5-MIN KAOH 211820Z AUTO 29017G21KT 10SM CLR 28/11 A2995 950 33 2700 290/17G21 RMK AO2 T02830111
04850KAOH AOH20160621132511406/21/16 13:25:31  5-MIN KAOH 211825Z AUTO 29014G20KT 10SM CLR 28/11 A2994 960 33 2700 290/14G20 RMK AO2 T02780106
04850KAOH AOH20160621133010806/21/16 13:30:31  5-MIN KAOH 211830Z AUTO 27015KT 10SM CLR 28/11 A2994 960 35 2700 270/15 RMK AO2 T02780111
04850KAOH AOH20160621133511406/21/16 13:35:31  5-MIN KAOH 211835Z AUTO 29017G22KT 10SM CLR 28/11 A2994 960 35 2700 300/17G22 RMK AO2 T02780111
04850KAOH AOH20160621134011406/21/16 13:40:31  5-MIN KAOH 211840Z AUTO 29015G22KT 10SM CLR 28/12 A2994 960 35 2700 300/15G22 RMK AO2 T02830117
04850KAOH AOH20160621134510806/21/16 13:45:31  5-MIN KAOH 211845Z AUTO 27017KT 10SM CLR 28/12 A2994 960 36 2700 280/17 RMK AO2 T02780117
04850KAOH AOH20160621135011506/21/16 13:50:31  5-MIN KAOH 211850Z AUTO 28015KT 10SM CLR 28/12 A2994 960 36 2700 290/15 RMK AO2 SLP130 T02780117
04850KAOH AOH20160621135511406/21/16 13:55:31  5-MIN KAOH 211855Z AUTO 28017G23KT 10SM CLR 28/12 A2994 960 36 2700 290/17G23 RMK AO2 T02780117
04850KAOH AOH20160621140011406/21/16 14:00:31  5-MIN KAOH 211900Z AUTO 26014G23KT 10SM CLR 28/12 A2994 960 36 2700 270/14G23 RMK AO2 T02780117
04850KAOH AOH20160621140511706/21/16 14:05:31  5-MIN KAOH 211905Z AUTO 28018G23KT 10SM FEW065 27/11 A2994 960 36 2600 290/18G23 RMK AO2 T02720111
04850KAOH AOH20160621141011406/21/16 14:10:31  5-MIN KAOH 211910Z AUTO 28015G23KT 10SM CLR 28/12 A2994 960 36 2700 280/15G23 RMK AO2 T02780117
04850KAOH AOH20160621141511706/21/16 14:15:31  5-MIN KAOH 211915Z AUTO 27018G22KT 10SM FEW065 28/12 A2994 960 36 2700 270/18G22 RMK AO2 T02830122
04850KAOH AOH20160621142011706/21/16 14:20:31  5-MIN KAOH 211920Z AUTO 27017G23KT 10SM FEW065 28/12 A2993 970 37 2700 270/17G23 RMK AO2 T02780122
04850KAOH AOH20160621142513506/21/16 14:25:31  5-MIN KAOH 211925Z AUTO 27014G27KT 10SM FEW065 28/12 A2993 970 37 2700 280/14G27 RMK AO2 PK WND 26027/1922 T02780122
04850KAOH AOH20160621143013506/21/16 14:30:31  5-MIN KAOH 211930Z AUTO 27018G27KT 10SM FEW065 28/12 A2993 970 37 2700 270/18G27 RMK AO2 PK WND 26027/1922 T02780122
04850KAOH AOH20160621143513506/21/16 14:35:31  5-MIN KAOH 211935Z AUTO 28019G28KT 10SM FEW065 28/12 A2993 970 36 2700 280/19G28 RMK AO2 PK WND 26028/1933 T02780117
04850KAOH AOH20160621144013506/21/16 14:40:31  5-MIN KAOH 211940Z AUTO 28016G28KT 10SM FEW065 28/12 A2993 970 36 2700 290/16G28 RMK AO2 PK WND 26028/1933 T02780117
04850KAOH AOH20160621144513506/21/16 14:45:31  5-MIN KAOH 211945Z AUTO 29014G24KT 10SM FEW065 28/12 A2993 970 36 2700 300/14G24 RMK AO2 PK WND 26028/1933 T02780117
04850KAOH AOH20160621145014206/21/16 14:50:31  5-MIN KAOH 211950Z AUTO 28015G24KT 10SM FEW065 28/12 A2993 970 37 2700 290/15G24 RMK AO2 PK WND 26028/1933 SLP126 T02780122
04850KAOH AOH20160621145511406/21/16 14:55:31  5-MIN KAOH 211955Z AUTO 28018G24KT 10SM CLR 28/12 A2993 970 37 2700 290/18G24 RMK AO2 T02780122
04850KAOH AOH20160621150011406/21/16 15:00:31  5-MIN KAOH 212000Z AUTO 28017G24KT 10SM CLR 28/12 A2993 970 36 2700 290/17G24 RMK AO2 T02780117
04850KAOH AOH20160621150511406/21/16 15:05:31  5-MIN KAOH 212005Z AUTO 29015G24KT 10SM CLR 27/12 A2993 970 37 2600 300/15G24 RMK AO2 T02720117
04850KAOH AOH20160621151011406/21/16 15:10:31  5-MIN KAOH 212010Z AUTO 29017G24KT 10SM CLR 28/12 A2993 970 37 2700 300/17G24 RMK AO2 T02780122
04850KAOH AOH20160621151511406/21/16 15:15:31  5-MIN KAOH 212015Z AUTO 30016G24KT 10SM CLR 28/12 A2992 980 36 2700 300/16G24 RMK AO2 T02780117
04850KAOH AOH20160621152011106/21/16 15:20:31  5-MIN KAOH 212020Z AUTO 28014KT 10SM FEW065 27/12 A2992 980 37 2600 290/14 RMK AO2 T02720117
04850KAOH AOH20160621152511706/21/16 15:25:31  5-MIN KAOH 212025Z AUTO 30017G24KT 10SM FEW065 28/13 A2992 980 37 2800 300/17G24 RMK AO2 T02830128
04850KAOH AOH20160621153011406/21/16 15:30:31  5-MIN KAOH 212030Z AUTO 29017G24KT 10SM CLR 28/12 A2992 980 37 2700 290/17G24 RMK AO2 T02780122
04850KAOH AOH20160621153511406/21/16 15:35:31  5-MIN KAOH 212035Z AUTO 28016G22KT 10SM CLR 28/12 A2991 980 37 2700 290/16G22 RMK AO2 T02780122
04850KAOH AOH20160621154011706/21/16 15:40:31  5-MIN KAOH 212040Z AUTO 28016G21KT 10SM FEW065 28/12 A2991 990 37 2700 290/16G21 RMK AO2 T02780122
04850KAOH AOH20160621154511706/21/16 15:45:31  5-MIN KAOH 212045Z AUTO 29013G24KT 10SM FEW065 28/12 A2991 980 36 2700 290/13G24 RMK AO2 T02780117
04850KAOH AOH20160621155012706/21/16 15:50:31  5-MIN KAOH 212050Z AUTO 29014G24KT 10SM CLR 28/12 A2991 990 37 2700 300/14G24 RMK AO2 SLP120 T02780122 58006
04850KAOH AOH20160621155511406/21/16 15:55:31  5-MIN KAOH 212055Z AUTO 28014G22KT 10SM CLR 28/12 A2991 990 36 2700 290/14G22 RMK AO2 T02780117
04850KAOH AOH20160621160011406/21/16 16:00:31  5-MIN KAOH 212100Z AUTO 27017G24KT 10SM CLR 28/12 A2991 990 36 2800 280/17G24 RMK AO2 T02830122
04850KAOH AOH20160621160513206/21/16 16:05:31  5-MIN KAOH 212105Z AUTO 27013G27KT 10SM CLR 28/12 A2991 990 36 2700 280/13G27 RMK AO2 PK WND 27027/2102 T02780117
04850KAOH AOH20160621161013206/21/16 16:10:31  5-MIN KAOH 212110Z AUTO 26019G27KT 10SM CLR 28/12 A2991 990 36 2700 270/19G27 RMK AO2 PK WND 27027/2102 T02780117
04850KAOH AOH20160621161513206/21/16 16:15:31  5-MIN KAOH 212115Z AUTO 28017G25KT 10SM CLR 28/12 A2991 990 36 2700 290/17G25 RMK AO2 PK WND 27027/2102 T02780117
04850KAOH AOH20160621162013206/21/16 16:20:31  5-MIN KAOH 212120Z AUTO 28014G24KT 10SM CLR 27/11 A2991 990 36 2700 290/14G24 RMK AO2 PK WND 27027/2102 T02720111
04850KAOH AOH20160621162513206/21/16 16:25:31  5-MIN KAOH 212125Z AUTO 27019G26KT 10SM CLR 28/11 A2991 990 35 2700 280/19G26 RMK AO2 PK WND 27027/2102 T02780111
04850KAOH AOH20160621163013206/21/16 16:30:31  5-MIN KAOH 212130Z AUTO 27019G26KT 10SM CLR 28/11 A2991 990 35 2700 280/19G26 RMK AO2 PK WND 27027/2102 T02780111
04850KAOH AOH20160621163513206/21/16 16:35:31  5-MIN KAOH 212135Z AUTO 28016G26KT 10SM CLR 27/11 A2991 990 34 2700 290/16G26 RMK AO2 PK WND 27027/2102 T02720106
04850KAOH AOH20160621164013206/21/16 16:40:31  5-MIN KAOH 212140Z AUTO 28016G26KT 10SM CLR 27/11 A2990 990 34 2700 290/16G26 RMK AO2 PK WND 27027/2102 T02720106
04850KAOH AOH20160621164513206/21/16 16:45:31  5-MIN KAOH 212145Z AUTO 28016G24KT 10SM CLR 28/11 A2991 990 33 2700 280/16G24 RMK AO2 PK WND 27027/2102 T02780106
04850KAOH AOH20160621165013906/21/16 16:50:31  5-MIN KAOH 212150Z AUTO 28018G24KT 10SM CLR 27/11 A2991 990 34 2700 290/18G24 RMK AO2 PK WND 27027/2102 SLP120 T02720106
04850KAOH AOH20160621165510806/21/16 16:55:31  5-MIN KAOH 212155Z AUTO 29017KT 10SM CLR 27/11 A2991 990 34 2700 290/17 RMK AO2 T02720106
04850KAOH AOH20160621170011406/21/16 17:00:31  5-MIN KAOH 212200Z AUTO 28016G24KT 10SM CLR 28/10 A2991 990 32 2700 290/16G24 RMK AO2 T02780100
04850KAOH AOH20160621170513206/21/16 17:05:31  5-MIN KAOH 212205Z AUTO 28020G27KT 10SM CLR 27/10 A2990 990 33 2700 280/20G27 RMK AO2 PK WND 27027/2203 T02720100
04850KAOH AOH20160621171013206/21/16 17:10:31  5-MIN KAOH 212210Z AUTO 27018G27KT 10SM CLR 27/10 A2990 990 33 2700 280/18G27 RMK AO2 PK WND 27027/2203 T02720100
04850KAOH AOH20160621171512706/21/16 17:15:31  5-MIN KAOH 212215Z AUTO 28013KT 10SM CLR 27/11 A2990 1000 34 2700 290/13 RMK AO2 PK WND 27027/2203 T02720106
04850KAOH AOH20160621172013306/21/16 17:20:31  5-MIN KAOH 212220Z AUTO 29017G24KT 10SM CLR 27/10 A2990 1000 33 2700 300/17G24 RMK AO2 PK WND 27027/2203 T02720100
04850KAOH AOH20160621172513306/21/16 17:25:31  5-MIN KAOH 212225Z AUTO 28016G24KT 10SM CLR 27/10 A2990 1000 33 2700 290/16G24 RMK AO2 PK WND 27027/2203 T02720100
04850KAOH AOH20160621173013306/21/16 17:30:31  5-MIN KAOH 212230Z AUTO 29014G20KT 10SM CLR 27/10 A2989 1000 33 2700 290/14G20 RMK AO2 PK WND 27027/2203 T02720100
04850KAOH AOH20160621173513306/21/16 17:35:31  5-MIN KAOH 212235Z AUTO 29016G20KT 10SM CLR 27/10 A2989 1000 33 2700 300/16G20 RMK AO2 PK WND 27027/2203 T02720100
04850KAOH AOH20160621174013306/21/16 17:40:31  5-MIN KAOH 212240Z AUTO 30019G27KT 10SM CLR 27/09 A2989 1000 31 2700 310/19G27 RMK AO2 PK WND 29027/2237 T02720089
04850KAOH AOH20160621174513306/21/16 17:45:31  5-MIN KAOH 212245Z AUTO 29017G27KT 10SM CLR 27/08 A2989 1000 30 2700 300/17G27 RMK AO2 PK WND 29027/2237 T02720083
04850KAOH AOH20160621175014006/21/16 17:50:31  5-MIN KAOH 212250Z AUTO 29018G25KT 10SM CLR 27/09 A2989 1000 31 2700 290/18G25 RMK AO2 PK WND 29027/2237 SLP115 T02720089
04850KAOH AOH20160621175511506/21/16 17:55:31  5-MIN KAOH 212255Z AUTO 30014G24KT 10SM CLR 27/09 A2990 1000 32 2600 300/14G24 RMK AO2 T02670089
04850KAOH AOH20160621180010906/21/16 18:00:31  5-MIN KAOH 212300Z AUTO 29015KT 10SM CLR 27/09 A2989 1000 33 2600 300/15 RMK AO2 T02670094
04850KAOH AOH20160621180511506/21/16 18:05:31  5-MIN KAOH 212305Z AUTO 29018G23KT 10SM CLR 27/09 A2989 1000 32 2600 300/18G23 RMK AO2 T02670089
04850KAOH AOH20160621181011506/21/16 18:10:31  5-MIN KAOH 212310Z AUTO 30014G23KT 10SM CLR 27/09 A2989 1000 33 2600 310/14G23 RMK AO2 T02670094
04850KAOH AOH20160621181510906/21/16 18:15:31  5-MIN KAOH 212315Z AUTO 29016KT 10SM CLR 27/09 A2990 1000 33 2600 300/16 RMK AO2 T02670094
04850KAOH AOH20160621182010906/21/16 18:20:31  5-MIN KAOH 212320Z AUTO 29013KT 10SM CLR 27/10 A2990 1000 34 2600 300/13 RMK AO2 T02670100
04850KAOH AOH20160621182510906/21/16 18:25:31  5-MIN KAOH 212325Z AUTO 31016KT 10SM CLR 27/09 A2990 1000 33 2600 310/16 RMK AO2 T02670094
04850KAOH AOH20160621183011506/21/16 18:30:31  5-MIN KAOH 212330Z AUTO 31019G25KT 10SM CLR 27/09 A2990 1000 33 2600 310/19G25 RMK AO2 T02670094
04850KAOH AOH20160621183511406/21/16 18:35:31  5-MIN KAOH 212335Z AUTO 29017G25KT 10SM CLR 26/09 A2990 990 34 2500 300/17G25 RMK AO2 T02610094
04850KAOH AOH20160621184010806/21/16 18:40:31  5-MIN KAOH 212340Z AUTO 31015KT 10SM CLR 26/09 A2990 990 34 2500 310/15 RMK AO2 T02610094
04850KAOH AOH20160621184510806/21/16 18:45:31  5-MIN KAOH 212345Z AUTO 30012KT 10SM CLR 26/10 A2990 990 36 2500 310/12 RMK AO2 T02610100
04850KAOH AOH20160621185013306/21/16 18:50:31  5-MIN KAOH 212350Z AUTO 31014KT 10SM CLR 26/10 A2991 990 36 2500 310/14 RMK AO2 SLP120 T02610100 10283 20261 58014
04850KAOH AOH20160621185510806/21/16 18:55:31  5-MIN KAOH 212355Z AUTO 32013KT 10SM CLR 26/09 A2991 990 35 2500 330/13 RMK AO2 T02560094
04850KAOH AOH20160621190010806/21/16 19:00:31  5-MIN KAOH 220000Z AUTO 32013KT 10SM CLR 26/09 A2991 990 35 2500 320/13 RMK AO2 T02560094
04850KAOH AOH20160621190510806/21/16 19:05:31  5-MIN KAOH 220005Z AUTO 31012KT 10SM CLR 26/09 A2991 990 35 2500 320/12 RMK AO2 T02560094
04850KAOH AOH20160621191010806/21/16 19:10:31  5-MIN KAOH 220010Z AUTO 31014KT 10SM CLR 26/09 A2991 990 34 2500 320/14 RMK AO2 T02560089
04850KAOH AOH20160621191510806/21/16 19:15:31  5-MIN KAOH 220015Z AUTO 32011KT 10SM CLR 25/09 A2991 980 35 2400 320/11 RMK AO2 T02500089
04850KAOH AOH20160621192010806/21/16 19:20:31  5-MIN KAOH 220020Z AUTO 32009KT 10SM CLR 25/09 A2991 980 35 2400 320/09 RMK AO2 T02500089
04850KAOH AOH20160621192510806/21/16 19:25:31  5-MIN KAOH 220025Z AUTO 32013KT 10SM CLR 25/08 A2992 980 34 2400 320/13 RMK AO2 T02500083
04850KAOH AOH20160621193010806/21/16 19:30:31  5-MIN KAOH 220030Z AUTO 31012KT 10SM CLR 25/08 A2992 980 34 2400 310/12 RMK AO2 T02500083
04850KAOH AOH20160621193510806/21/16 19:35:31  5-MIN KAOH 220035Z AUTO 32009KT 10SM CLR 24/08 A2992 980 35 2300 320/09 RMK AO2 T02440083
04850KAOH AOH20160621194011406/21/16 19:40:31  5-MIN KAOH 220040Z AUTO 32010G18KT 10SM CLR 24/08 A2992 980 35 2300 330/10G18 RMK AO2 T02440083
04850KAOH AOH20160621194511406/21/16 19:45:31  5-MIN KAOH 220045Z AUTO 32010G18KT 10SM CLR 24/09 A2992 980 38 2300 320/10G18 RMK AO2 T02390089
04850KAOH AOH20160621195011506/21/16 19:50:31  5-MIN KAOH 220050Z AUTO 33008KT 10SM CLR 24/08 A2992 980 36 2300 330/08 RMK AO2 SLP125 T02390083
04850KAOH AOH20160621195510806/21/16 19:55:31  5-MIN KAOH 220055Z AUTO 32010KT 10SM CLR 24/08 A2992 980 36 2300 320/10 RMK AO2 T02390083
04850KAOH AOH20160621200010806/21/16 20:00:31  5-MIN KAOH 220100Z AUTO 33010KT 10SM CLR 24/08 A2992 980 36 2300 330/10 RMK AO2 T02390083
04850KAOH AOH20160621200510806/21/16 20:05:31  5-MIN KAOH 220105Z AUTO 33009KT 10SM CLR 24/08 A2992 970 36 2300 340/09 RMK AO2 T02390083
04850KAOH AOH20160621201010806/21/16 20:10:31  5-MIN KAOH 220110Z AUTO 33010KT 10SM CLR 23/09 A2993 970 39 2200 340/10 RMK AO2 T02330089
04850KAOH AOH20160621201510806/21/16 20:15:31  5-MIN KAOH 220115Z AUTO 33008KT 10SM CLR 23/08 A2993 970 38 2200 340/08 RMK AO2 T02330083
04850KAOH AOH20160621202010806/21/16 20:20:31  5-MIN KAOH 220120Z AUTO 33007KT 10SM CLR 23/09 A2993 970 40 2100 340/07 RMK AO2 T02280089
04850KAOH AOH20160621202510806/21/16 20:25:31  5-MIN KAOH 220125Z AUTO 33007KT 10SM CLR 23/09 A2993 970 40 2100 340/07 RMK AO2 T02280089
04850KAOH AOH20160621203010806/21/16 20:30:31  5-MIN KAOH 220130Z AUTO 34008KT 10SM CLR 23/09 A2993 960 40 2100 340/08 RMK AO2 T02280089
04850KAOH AOH20160621203510806/21/16 20:35:31  5-MIN KAOH 220135Z AUTO 34008KT 10SM CLR 23/09 A2994 960 40 2100 350/08 RMK AO2 T02280089
04850KAOH AOH20160621204010806/21/16 20:40:31  5-MIN KAOH 220140Z AUTO 33007KT 10SM CLR 22/09 A2994 960 42 2100 340/07 RMK AO2 T02220089
04850KAOH AOH20160621204510806/21/16 20:45:31  5-MIN KAOH 220145Z AUTO 34006KT 10SM CLR 22/09 A2994 960 42 2100 340/06 RMK AO2 T02220089
04850KAOH AOH20160621205011506/21/16 20:50:31  5-MIN KAOH 220150Z AUTO 34006KT 10SM CLR 22/09 A2994 950 42 2100 350/06 RMK AO2 SLP133 T02220089
04850KAOH AOH20160621205510806/21/16 20:55:31  5-MIN KAOH 220155Z AUTO 34008KT 10SM CLR 22/08 A2995 950 40 2100 350/08 RMK AO2 T02220083
04850KAOH AOH20160621210010806/21/16 21:00:31  5-MIN KAOH 220200Z AUTO 34006KT 10SM CLR 22/08 A2995 950 40 2100 350/06 RMK AO2 T02220083
04850KAOH AOH20160621210510806/21/16 21:05:31  5-MIN KAOH 220205Z AUTO 34007KT 10SM CLR 22/08 A2995 950 42 2000 350/07 RMK AO2 T02170083
04850KAOH AOH20160621211010806/21/16 21:10:31  5-MIN KAOH 220210Z AUTO 34006KT 10SM CLR 22/08 A2995 950 42 2000 350/06 RMK AO2 T02170083
04850KAOH AOH20160621211510806/21/16 21:15:31  5-MIN KAOH 220215Z AUTO 34006KT 10SM CLR 22/08 A2996 940 42 2000 340/06 RMK AO2 T02170083
04850KAOH AOH20160621212010806/21/16 21:20:31  5-MIN KAOH 220220Z AUTO 34005KT 10SM CLR 22/08 A2996 940 42 2000 350/05 RMK AO2 T02170083
04850KAOH AOH20160621212510806/21/16 21:25:31  5-MIN KAOH 220225Z AUTO 35004KT 10SM CLR 21/09 A2996 940 45 1900 360/04 RMK AO2 T02110089
04850KAOH AOH20160621213010806/21/16 21:30:31  5-MIN KAOH 220230Z AUTO 35003KT 10SM CLR 21/09 A2996 940 45 1900 360/03 RMK AO2 T02110089
04850KAOH AOH20160621213510806/21/16 21:35:31  5-MIN KAOH 220235Z AUTO 34004KT 10SM CLR 21/09 A2996 940 45 1900 350/04 RMK AO2 T02110089
04850KAOH AOH20160621214010806/21/16 21:40:31  5-MIN KAOH 220240Z AUTO 34003KT 10SM CLR 21/09 A2996 940 45 1900 350/03 RMK AO2 T02110089
04850KAOH AOH20160621214510806/21/16 21:45:31  5-MIN KAOH 220245Z AUTO 36003KT 10SM CLR 21/09 A2996 940 46 1800 360/03 RMK AO2 T02060089
04850KAOH AOH20160621215012106/21/16 21:50:31  5-MIN KAOH 220250Z AUTO 35003KT 10SM CLR 21/09 A2996 940 48 1800 360/03 RMK AO2 SLP140 T02060094 55001
04850KAOH AOH20160621215510806/21/16 21:55:31  5-MIN KAOH 220255Z AUTO 36003KT 10SM CLR 21/09 A2996 940 48 1800 360/03 RMK AO2 T02060094
04850KAOH AOH20160621220010806/21/16 22:00:31  5-MIN KAOH 220300Z AUTO 35004KT 10SM CLR 21/09 A2996 940 46 1800 360/04 RMK AO2 T02060089
04850KAOH AOH20160621220510806/21/16 22:05:31  5-MIN KAOH 220305Z AUTO 35004KT 10SM CLR 20/09 A2996 940 50 1800 360/04 RMK AO2 T02000094
04850KAOH AOH20160621221010806/21/16 22:10:31  5-MIN KAOH 220310Z AUTO 35004KT 10SM CLR 20/09 A2996 940 50 1800 360/04 RMK AO2 T02000094
04850KAOH AOH20160621221510806/21/16 22:15:31  5-MIN KAOH 220315Z AUTO 35004KT 10SM CLR 20/09 A2996 940 50 1800 360/04 RMK AO2 T02000094
04850KAOH AOH20160621222010806/21/16 22:20:31  5-MIN KAOH 220320Z AUTO 34004KT 10SM CLR 20/09 A2996 940 50 1800 340/04 RMK AO2 T02000094
04850KAOH AOH20160621222510806/21/16 22:25:31  5-MIN KAOH 220325Z AUTO 34004KT 10SM CLR 19/10 A2996 940 54 1700 350/04 RMK AO2 T01940100
04850KAOH AOH20160621223010806/21/16 22:30:31  5-MIN KAOH 220330Z AUTO 34004KT 10SM CLR 19/11 A2996 940 58 1700 350/04 RMK AO2 T01890106
04850KAOH AOH20160621223510806/21/16 22:35:31  5-MIN KAOH 220335Z AUTO 34003KT 10SM CLR 18/11 A2996 940 62 1600 350/03 RMK AO2 T01830111
04850KAOH AOH20160621224010806/21/16 22:40:31  5-MIN KAOH 220340Z AUTO 32003KT 10SM CLR 19/11 A2996 940 60 1700 320/03 RMK AO2 T01890111
04850KAOH AOH20160621224510806/21/16 22:45:31  5-MIN KAOH 220345Z AUTO 31003KT 10SM CLR 19/11 A2996 940 58 1600 310/03 RMK AO2 T01890106
04850KAOH AOH20160621225011506/21/16 22:50:31  5-MIN KAOH 220350Z AUTO 29003KT 10SM CLR 19/11 A2996 940 58 1600 300/03 RMK AO2 SLP140 T01890106
04850KAOH AOH20160621225510806/21/16 22:55:31  5-MIN KAOH 220355Z AUTO 30003KT 10SM CLR 20/09 A2996 940 50 1800 300/03 RMK AO2 T02000094
04850KAOH AOH20160621230010806/21/16 23:00:31  5-MIN KAOH 220400Z AUTO 00000KT 10SM CLR 19/10 A2996 940 56 1600 000/00 RMK AO2 T01890100
04850KAOH AOH20160621230510806/21/16 23:05:31  5-MIN KAOH 220405Z AUTO 00000KT 10SM CLR 18/11 A2996 940 62 1600 000/00 RMK AO2 T01830111
04850KAOH AOH20160621231010806/21/16 23:10:31  5-MIN KAOH 220410Z AUTO 00000KT 10SM CLR 18/11 A2996 940 62 1600 000/00 RMK AO2 T01830111
04850KAOH AOH20160621231510806/21/16 23:15:31  5-MIN KAOH 220415Z AUTO 00000KT 10SM CLR 18/11 A2996 940 60 1600 000/00 RMK AO2 T01830106
04850KAOH AOH20160621232010806/21/16 23:20:31  5-MIN KAOH 220420Z AUTO 00000KT 10SM CLR 18/11 A2996 940 60 1600 000/00 RMK AO2 T01830106
04850KAOH AOH20160621232510806/21/16 23:25:31  5-MIN KAOH 220425Z AUTO 00000KT 10SM CLR 18/10 A2996 940 58 1600 000/00 RMK AO2 T01830100
04850KAOH AOH20160621233010806/21/16 23:30:31  5-MIN KAOH 220430Z AUTO 00000KT 10SM CLR 18/11 A2996 940 62 1500 000/00 RMK AO2 T01780106
04850KAOH AOH20160621233510806/21/16 23:35:31  5-MIN KAOH 220435Z AUTO 00000KT 10SM CLR 18/11 A2996 940 62 1500 000/00 RMK AO2 T01780106
04850KAOH AOH20160621234010806/21/16 23:40:31  5-MIN KAOH 220440Z AUTO 00000KT 10SM CLR 18/11 A2996 940 62 1500 000/00 RMK AO2 T01780106
04850KAOH AOH20160621234510806/21/16 23:45:31  5-MIN KAOH 220445Z AUTO 00000KT 10SM CLR 17/11 A2996 940 64 1500 000/00 RMK AO2 T01720106
04850KAOH AOH20160621235012506/21/16 23:50:31  5-MIN KAOH 220450Z AUTO 19003KT 10SM CLR 17/11 A2996 940 64 1500 200/03 RMK AO2 SLP140 T01720106 402830172
04850KAOH AOH20160621235510806/21/16 23:55:31  5-MIN KAOH 220455Z AUTO 20003KT 10SM CLR 17/11 A2996 940 64 1500 210/03 RMK AO2 T01720106
04850KAOH AOH20160622000010806/22/16 00:00:31  5-MIN KAOH 220500Z AUTO 00000KT 10SM CLR 17/11 A2996 940 64 1500 000/00 RMK AO2 T01720106
04850KAOH AOH20160622000510806/22/16 00:05:31  5-MIN KAOH 220505Z AUTO 18004KT 10SM CLR 17/11 A2996 940 64 1500 190/04 RMK AO2 T01720106
04850KAOH AOH20160622001010806/22/16 00:10:31  5-MIN KAOH 220510Z AUTO 19004KT 10SM CLR 17/11 A2996 940 64 1500 190/04 RMK AO2 T01720106
04850KAOH AOH20160622001510806/22/16 00:15:31  5-MIN KAOH 220515Z AUTO 17004KT 10SM CLR 17/11 A2996 940 64 1500 180/04 RMK AO2 T01720106
04850KAOH AOH20160622002010806/22/16 00:20:31  5-MIN KAOH 220520Z AUTO 17005KT 10SM CLR 17/11 A2995 950 64 1500 180/05 RMK AO2 T01720106
04850KAOH AOH20160622002510806/22/16 00:25:31  5-MIN KAOH 220525Z AUTO 17005KT 10SM CLR 17/11 A2995 950 67 1400 180/05 RMK AO2 T01670106
04850KAOH AOH20160622003010806/22/16 00:30:31  5-MIN KAOH 220530Z AUTO 17005KT 10SM CLR 17/11 A2995 950 67 1400 180/05 RMK AO2 T01670106
04850KAOH AOH20160622003510806/22/16 00:35:31  5-MIN KAOH 220535Z AUTO 19005KT 10SM CLR 17/11 A2995 950 67 1400 190/05 RMK AO2 T01670106
04850KAOH AOH20160622004010806/22/16 00:40:31  5-MIN KAOH 220540Z AUTO 18005KT 10SM CLR 17/11 A2995 950 67 1400 190/05 RMK AO2 T01670106
04850KAOH AOH20160622004510806/22/16 00:45:31  5-MIN KAOH 220545Z AUTO 19004KT 10SM CLR 17/11 A2995 950 67 1400 190/04 RMK AO2 T01670106
04850KAOH AOH20160622005013306/22/16 00:50:31  5-MIN KAOH 220550Z AUTO 18003KT 10SM CLR 17/11 A2995 950 67 1400 190/03 RMK AO2 SLP135 T01670106 10261 20161 53019
04850KAOH AOH20160622005510806/22/16 00:55:31  5-MIN KAOH 220555Z AUTO 00000KT 10SM CLR 17/11 A2995 950 67 1400 000/00 RMK AO2 T01670106
04850KAOH AOH20160622010010806/22/16 01:00:31  5-MIN KAOH 220600Z AUTO 00000KT 10SM CLR 17/11 A2995 950 67 1400 000/00 RMK AO2 T01670106
04850KAOH AOH20160622010510806/22/16 01:05:31  5-MIN KAOH 220605Z AUTO 00000KT 10SM CLR 17/11 A2995 950 64 1500 000/00 RMK AO2 T01720106
04850KAOH AOH20160622011010806/22/16 01:10:31  5-MIN KAOH 220610Z AUTO 00000KT 10SM CLR 17/10 A2995 950 62 1500 000/00 RMK AO2 T01720100
04850KAOH AOH20160622011510806/22/16 01:15:31  5-MIN KAOH 220615Z AUTO 19003KT 10SM CLR 17/10 A2995 950 62 1500 190/03 RMK AO2 T01720100
04850KAOH AOH20160622012010806/22/16 01:20:31  5-MIN KAOH 220620Z AUTO 18004KT 10SM CLR 17/11 A2995 950 67 1400 190/04 RMK AO2 T01670106
04850KAOH AOH20160622012510806/22/16 01:25:31  5-MIN KAOH 220625Z AUTO 17005KT 10SM CLR 17/11 A2995 950 67 1400 180/05 RMK AO2 T01670106
04850KAOH AOH20160622013010806/22/16 01:30:31  5-MIN KAOH 220630Z AUTO 18005KT 10SM CLR 16/11 A2995 950 69 1300 190/05 RMK AO2 T01610106
04850KAOH AOH20160622013510806/22/16 01:35:31  5-MIN KAOH 220635Z AUTO 17005KT 10SM CLR 16/11 A2995 950 69 1300 180/05 RMK AO2 T01610106
04850KAOH AOH20160622014010806/22/16 01:40:31  5-MIN KAOH 220640Z AUTO 18004KT 10SM CLR 16/11 A2995 950 69 1300 180/04 RMK AO2 T01610106
04850KAOH AOH20160622014510806/22/16 01:45:31  5-MIN KAOH 220645Z AUTO 19004KT 10SM CLR 16/11 A2995 950 69 1300 200/04 RMK AO2 T01610106
04850KAOH AOH20160622015011506/22/16 01:50:31  5-MIN KAOH 220650Z AUTO 22003KT 10SM CLR 17/11 A2996 940 67 1400 230/03 RMK AO2 SLP138 T01670106
04850KAOH AOH20160622015510806/22/16 01:55:31  5-MIN KAOH 220655Z AUTO 00000KT 10SM CLR 17/10 A2996 940 64 1400 000/00 RMK AO2 T01670100
04850KAOH AOH20160622020010806/22/16 02:00:31  5-MIN KAOH 220700Z AUTO 19003KT 10SM CLR 17/10 A2996 940 62 1500 190/03 RMK AO2 T01720100
04850KAOH AOH20160622020510806/22/16 02:05:31  5-MIN KAOH 220705Z AUTO 19004KT 10SM CLR 17/10 A2996 940 64 1400 200/04 RMK AO2 T01670100
04850KAOH AOH20160622021010806/22/16 02:10:31  5-MIN KAOH 220710Z AUTO 19005KT 10SM CLR 17/10 A2996 940 64 1400 200/05 RMK AO2 T01670100
04850KAOH AOH20160622021510806/22/16 02:15:31  5-MIN KAOH 220715Z AUTO 19007KT 10SM CLR 17/10 A2996 940 62 1500 200/07 RMK AO2 T01720100
04850KAOH AOH20160622022010806/22/16 02:20:31  5-MIN KAOH 220720Z AUTO 18006KT 10SM CLR 17/10 A2995 950 64 1400 190/06 RMK AO2 T01670100
04850KAOH AOH20160622022510806/22/16 02:25:31  5-MIN KAOH 220725Z AUTO 18007KT 10SM CLR 16/11 A2995 950 69 1300 190/07 RMK AO2 T01610106
04850KAOH AOH20160622023010806/22/16 02:30:31  5-MIN KAOH 220730Z AUTO 18006KT 10SM CLR 16/11 A2995 950 69 1300 180/06 RMK AO2 T01610106
04850KAOH AOH20160622023510806/22/16 02:35:31  5-MIN KAOH 220735Z AUTO 18006KT 10SM CLR 16/11 A2995 950 72 1300 190/06 RMK AO2 T01560106
04850KAOH AOH20160622024010806/22/16 02:40:31  5-MIN KAOH 220740Z AUTO 18006KT 10SM CLR 16/11 A2995 950 74 1300 190/06 RMK AO2 T01560111
04850KAOH AOH20160622024510806/22/16 02:45:31  5-MIN KAOH 220745Z AUTO 18006KT 10SM CLR 16/11 A2994 960 74 1300 180/06 RMK AO2 T01560111
04850KAOH AOH20160622025011506/22/16 02:50:31  5-MIN KAOH 220750Z AUTO 18005KT 10SM CLR 16/11 A2994 960 72 1300 180/05 RMK AO2 SLP132 T01560106
04850KAOH AOH20160622025510806/22/16 02:55:31  5-MIN KAOH 220755Z AUTO 17004KT 10SM CLR 16/11 A2994 960 72 1300 170/04 RMK AO2 T01560106
04850KAOH AOH20160622030010806/22/16 03:00:31  5-MIN KAOH 220800Z AUTO 17004KT 10SM CLR 16/11 A2994 960 72 1300 180/04 RMK AO2 T01560106
04850KAOH AOH20160622030510806/22/16 03:05:31  5-MIN KAOH 220805Z AUTO 18003KT 10SM CLR 16/11 A2993 970 72 1300 180/03 RMK AO2 T01560106
04850KAOH AOH20160622031010806/22/16 03:10:31  5-MIN KAOH 220810Z AUTO 00000KT 10SM CLR 16/11 A2994 960 72 1300 000/00 RMK AO2 T01560106
04850KAOH AOH20160622031510806/22/16 03:15:31  5-MIN KAOH 220815Z AUTO 00000KT 10SM CLR 16/10 A2994 960 67 1400 000/00 RMK AO2 T01610100
04850KAOH AOH20160622032010806/22/16 03:20:31  5-MIN KAOH 220820Z AUTO 00000KT 10SM CLR 16/10 A2994 960 67 1400 000/00 RMK AO2 T01610100
04850KAOH AOH20160622032510806/22/16 03:25:31  5-MIN KAOH 220825Z AUTO 17004KT 10SM CLR 16/10 A2993 970 67 1400 180/04 RMK AO2 T01610100
04850KAOH AOH20160622033010806/22/16 03:30:31  5-MIN KAOH 220830Z AUTO 17005KT 10SM CLR 16/11 A2993 970 72 1300 180/05 RMK AO2 T01560106
04850KAOH AOH20160622033510806/22/16 03:35:31  5-MIN KAOH 220835Z AUTO 18005KT 10SM CLR 16/11 A2994 960 72 1300 180/05 RMK AO2 T01560106
04850KAOH AOH20160622034010806/22/16 03:40:31  5-MIN KAOH 220840Z AUTO 18005KT 10SM CLR 16/11 A2994 960 72 1300 180/05 RMK AO2 T01560106
04850KAOH AOH20160622034510806/22/16 03:45:31  5-MIN KAOH 220845Z AUTO 17006KT 10SM CLR 16/11 A2993 970 72 1300 180/06 RMK AO2 T01560106
04850KAOH AOH20160622035012106/22/16 03:50:31  5-MIN KAOH 220850Z AUTO 17005KT 10SM CLR 16/11 A2993 960 72 1300 180/05 RMK AO2 SLP131 T01560106 58005
04850KAOH AOH20160622035510806/22/16 03:55:31  5-MIN KAOH 220855Z AUTO 18006KT 10SM CLR 16/11 A2994 960 72 1300 180/06 RMK AO2 T01560106
04850KAOH AOH20160622040010806/22/16 04:00:31  5-MIN KAOH 220900Z AUTO 18007KT 10SM CLR 16/11 A2994 960 69 1400 190/07 RMK AO2 T01610106
04850KAOH AOH20160622040510806/22/16 04:05:31  5-MIN KAOH 220905Z AUTO 18007KT 10SM CLR 16/11 A2994 960 69 1400 180/07 RMK AO2 T01610106
04850KAOH AOH20160622041010806/22/16 04:10:31  5-MIN KAOH 220910Z AUTO 18006KT 10SM CLR 16/11 A2995 950 69 1300 190/06 RMK AO2 T01610106
04850KAOH AOH20160622041510806/22/16 04:15:31  5-MIN KAOH 220915Z AUTO 17005KT 10SM CLR 16/11 A2995 950 69 1300 180/05 RMK AO2 T01610106
04850KAOH AOH20160622042010806/22/16 04:20:31  5-MIN KAOH 220920Z AUTO 17003KT 10SM CLR 16/11 A2995 950 69 1300 170/03 RMK AO2 T01610106
04850KAOH AOH20160622042510806/22/16 04:25:31  5-MIN KAOH 220925Z AUTO 18003KT 10SM CLR 16/11 A2995 950 69 1300 190/03 RMK AO2 T01610106
04850KAOH AOH20160622043010806/22/16 04:30:31  5-MIN KAOH 220930Z AUTO 18006KT 10SM CLR 16/11 A2995 950 69 1300 180/06 RMK AO2 T01610106
04850KAOH AOH20160622043510806/22/16 04:35:31  5-MIN KAOH 220935Z AUTO 17008KT 10SM CLR 16/11 A2994 960 69 1400 180/08 RMK AO2 T01610106
04850KAOH AOH20160622044010806/22/16 04:40:31  5-MIN KAOH 220940Z AUTO 17008KT 10SM CLR 17/11 A2994 960 67 1400 180/08 RMK AO2 T01670106
04850KAOH AOH20160622044510806/22/16 04:45:31  5-MIN KAOH 220945Z AUTO 18008KT 10SM CLR 17/11 A2995 950 67 1400 180/08 RMK AO2 T01670106
04850KAOH AOH20160622045011506/22/16 04:50:31  5-MIN KAOH 220950Z AUTO 17007KT 10SM CLR 17/11 A2995 950 67 1400 180/07 RMK AO2 SLP135 T01670106
04850KAOH AOH20160622045510806/22/16 04:55:31  5-MIN KAOH 220955Z AUTO 17007KT 10SM CLR 17/11 A2995 950 67 1400 180/07 RMK AO2 T01670106
04850KAOH AOH20160622050010806/22/16 05:00:31  5-MIN KAOH 221000Z AUTO 17006KT 10SM CLR 17/11 A2995 950 67 1400 180/06 RMK AO2 T01670106
04850KAOH AOH20160622050510806/22/16 05:05:31  5-MIN KAOH 221005Z AUTO 16006KT 10SM CLR 17/11 A2994 960 67 1400 170/06 RMK AO2 T01670106
04850KAOH AOH20160622051010806/22/16 05:10:31  5-MIN KAOH 221010Z AUTO 18006KT 10SM CLR 17/11 A2994 960 67 1400 180/06 RMK AO2 T01670106
04850KAOH AOH20160622051510806/22/16 05:15:31  5-MIN KAOH 221015Z AUTO 18007KT 10SM CLR 17/11 A2995 950 67 1400 180/07 RMK AO2 T01670106
04850KAOH AOH20160622052010806/22/16 05:20:31  5-MIN KAOH 221020Z AUTO 18005KT 10SM CLR 17/11 A2995 950 67 1400 180/05 RMK AO2 T01670106
04850KAOH AOH20160622052510806/22/16 05:25:31  5-MIN KAOH 221025Z AUTO 17003KT 10SM CLR 17/11 A2995 950 67 1400 180/03 RMK AO2 T01670106
04850KAOH AOH20160622053010806/22/16 05:30:31  5-MIN KAOH 221030Z AUTO 00000KT 10SM CLR 17/11 A2995 950 67 1400 000/00 RMK AO2 T01670106
04850KAOH AOH20160622053510806/22/16 05:35:31  5-MIN KAOH 221035Z AUTO 00000KT 10SM CLR 17/11 A2994 960 69 1400 000/00 RMK AO2 T01670111
04850KAOH AOH20160622054010806/22/16 05:40:31  5-MIN KAOH 221040Z AUTO 00000KT 10SM CLR 17/11 A2994 960 69 1400 000/00 RMK AO2 T01670111
04850KAOH AOH20160622054510806/22/16 05:45:31  5-MIN KAOH 221045Z AUTO 00000KT 10SM CLR 17/11 A2995 950 69 1400 000/00 RMK AO2 T01670111
04850KAOH AOH20160622055011506/22/16 05:50:31  5-MIN KAOH 221050Z AUTO 00000KT 10SM CLR 17/11 A2996 940 67 1500 000/00 RMK AO2 SLP140 T01720111
04850KAOH AOH20160622055511506/22/16 05:55:31  5-MIN KAOH 221055Z AUTO 25003KT 10SM CLR 17/11 A2997 930 67 1400 260/03 RMK AO2 PRESRR T01720111
04850KAOH AOH20160622060010806/22/16 06:00:31  5-MIN KAOH 221100Z AUTO 23004KT 10SM CLR 17/11 A2997 930 67 1400 240/04 RMK AO2 T01720111
04850KAOH AOH20160622060510806/22/16 06:05:31  5-MIN KAOH 221105Z AUTO 21004KT 10SM CLR 18/11 A2997 930 62 1500 220/04 RMK AO2 T01780106
04850KAOH AOH20160622061010806/22/16 06:10:31  5-MIN KAOH 221110Z AUTO 00000KT 10SM CLR 18/11 A2997 930 62 1500 000/00 RMK AO2 T01780106
04850KAOH AOH20160622061510806/22/16 06:15:31  5-MIN KAOH 221115Z AUTO 00000KT 10SM CLR 18/11 A2997 930 64 1500 000/00 RMK AO2 T01780111
04850KAOH AOH20160622062010806/22/16 06:20:31  5-MIN KAOH 221120Z AUTO 00000KT 10SM CLR 18/11 A2997 930 64 1500 000/00 RMK AO2 T01780111
04850KAOH AOH20160622062510806/22/16 06:25:31  5-MIN KAOH 221125Z AUTO 19006KT 10SM CLR 18/11 A2998 930 64 1500 200/06 RMK AO2 T01780111
04850KAOH AOH20160622063010806/22/16 06:30:31  5-MIN KAOH 221130Z AUTO 21006KT 10SM CLR 18/11 A2998 920 62 1500 210/06 RMK AO2 T01780106
04850KAOH AOH20160622063510806/22/16 06:35:31  5-MIN KAOH 221135Z AUTO 20007KT 10SM CLR 18/11 A2999 910 62 1500 210/07 RMK AO2 T01780106
04850KAOH AOH20160622064010806/22/16 06:40:31  5-MIN KAOH 221140Z AUTO 22007KT 10SM CLR 18/11 A2999 910 60 1600 230/07 RMK AO2 T01830106
04850KAOH AOH20160622064510806/22/16 06:45:31  5-MIN KAOH 221145Z AUTO 21007KT 10SM CLR 18/11 A2999 920 60 1600 220/07 RMK AO2 T01830106
04850KAOH AOH20160622065013306/22/16 06:50:31  5-MIN KAOH 221150Z AUTO 21006KT 10SM CLR 18/10 A2999 910 58 1600 220/06 RMK AO2 SLP149 T01830100 10183 20156 58004
04850KAOH AOH20160622065510806/22/16 06:55:31  5-MIN KAOH 221155Z AUTO 21007KT 10SM CLR 18/10 A2998 920 58 1600 210/07 RMK AO2 T01830100
04850KAOH AOH20160622070010806/22/16 07:00:31  5-MIN KAOH 221200Z AUTO 20006KT 10SM CLR 18/11 A2998 920 60 1600 210/06 RMK AO2 T01830106
04850KAOH AOH20160622070510806/22/16 07:05:31  5-MIN KAOH 221205Z AUTO 19007KT 10SM CLR 18/11 A2998 920 60 1600 200/07 RMK AO2 T01830106
04850KAOH AOH20160622071010806/22/16 07:10:31  5-MIN KAOH 221210Z AUTO 19007KT 10SM CLR 18/11 A2998 920 60 1600 200/07 RMK AO2 T01830106
04850KAOH AOH20160622071510806/22/16 07:15:31  5-MIN KAOH 221215Z AUTO 18005KT 10SM CLR 18/11 A2997 930 62 1600 180/05 RMK AO2 T01830111
04850KAOH AOH20160622072010806/22/16 07:20:31  5-MIN KAOH 221220Z AUTO 18005KT 10SM CLR 18/12 A2998 930 65 1600 180/05 RMK AO2 T01830117
04850KAOH AOH20160622072510806/22/16 07:25:31  5-MIN KAOH 221225Z AUTO 18006KT 10SM CLR 18/12 A2997 930 65 1600 190/06 RMK AO2 T01830117
04850KAOH AOH20160622073010806/22/16 07:30:31  5-MIN KAOH 221230Z AUTO 19007KT 10SM CLR 18/11 A2997 930 62 1600 190/07 RMK AO2 T01830111
04850KAOH AOH20160622073510806/22/16 07:35:31  5-MIN KAOH 221235Z AUTO 19007KT 10SM CLR 19/11 A2997 930 60 1600 190/07 RMK AO2 T01890111
04850KAOH AOH20160622074010806/22/16 07:40:31  5-MIN KAOH 221240Z AUTO 19007KT 10SM CLR 19/11 A2997 930 60 1600 200/07 RMK AO2 T01890111
04850KAOH AOH20160622074510806/22/16 07:45:31  5-MIN KAOH 221245Z AUTO 19007KT 10SM CLR 19/11 A2998 930 60 1600 200/07 RMK AO2 T01890111
04850KAOH AOH20160622075011506/22/16 07:50:31  5-MIN KAOH 221250Z AUTO 19007KT 10SM CLR 19/11 A2998 930 60 1600 190/07 RMK AO2 SLP144 T01890111
04850KAOH AOH20160622075510806/22/16 07:55:31  5-MIN KAOH 221255Z AUTO 19007KT 10SM CLR 19/11 A2998 920 60 1600 190/07 RMK AO2 T01890111
04850KAOH AOH20160622080010806/22/16 08:00:31  5-MIN KAOH 221300Z AUTO 19007KT 10SM CLR 19/12 A2998 930 62 1600 190/07 RMK AO2 T01890117
04850KAOH AOH20160622080510806/22/16 08:05:31  5-MIN KAOH 221305Z AUTO 19007KT 10SM CLR 19/11 A2998 920 60 1600 200/07 RMK AO2 T01890111
04850KAOH AOH20160622081010806/22/16 08:10:31  5-MIN KAOH 221310Z AUTO 19009KT 10SM CLR 19/11 A2998 920 60 1600 200/09 RMK AO2 T01890111
04850KAOH AOH20160622081510806/22/16 08:15:31  5-MIN KAOH 221315Z AUTO 19008KT 10SM CLR 19/11 A2998 920 60 1600 190/08 RMK AO2 T01890111
04850KAOH AOH20160622082010806/22/16 08:20:31  5-MIN KAOH 221320Z AUTO 18008KT 10SM CLR 19/12 A2998 920 60 1700 190/08 RMK AO2 T01940117
04850KAOH AOH20160622082510806/22/16 08:25:31  5-MIN KAOH 221325Z AUTO 18007KT 10SM CLR 19/12 A2997 930 60 1700 190/07 RMK AO2 T01940117
04850KAOH AOH20160622083010806/22/16 08:30:31  5-MIN KAOH 221330Z AUTO 18007KT 10SM CLR 19/12 A2998 930 60 1700 190/07 RMK AO2 T01940117
04850KAOH AOH20160622083510806/22/16 08:35:31  5-MIN KAOH 221335Z AUTO 18006KT 10SM CLR 19/12 A2998 930 60 1700 190/06 RMK AO2 T01940117
04850KAOH AOH20160622084010806/22/16 08:40:31  5-MIN KAOH 221340Z AUTO 19006KT 10SM CLR 19/12 A2998 920 60 1700 200/06 RMK AO2 T01940117
04850KAOH AOH20160622084510806/22/16 08:45:31  5-MIN KAOH 221345Z AUTO 20007KT 10SM CLR 19/12 A2998 920 60 1700 200/07 RMK AO2 T01940117
04850KAOH AOH20160622085011506/22/16 08:50:31  5-MIN KAOH 221350Z AUTO 19006KT 10SM CLR 19/12 A2999 920 62 1700 200/06 RMK AO2 SLP148 T01940122
04850KAOH AOH20160622085510806/22/16 08:55:31  5-MIN KAOH 221355Z AUTO 20006KT 10SM CLR 19/12 A2999 920 62 1700 200/06 RMK AO2 T01940122
04850KAOH AOH20160622090010806/22/16 09:00:31  5-MIN KAOH 221400Z AUTO 20006KT 10SM CLR 19/13 A2999 920 65 1700 200/06 RMK AO2 T01940128
04850KAOH AOH20160622090510806/22/16 09:05:31  5-MIN KAOH 221405Z AUTO 21006KT 10SM CLR 19/13 A2999 910 65 1700 210/06 RMK AO2 T01940128
04850KAOH AOH20160622091010806/22/16 09:10:31  5-MIN KAOH 221410Z AUTO 20006KT 10SM CLR 19/13 A2999 910 67 1700 210/06 RMK AO2 T01940133
04850KAOH AOH20160622091510806/22/16 09:15:31  5-MIN KAOH 221415Z AUTO 21007KT 10SM CLR 20/13 A3000 910 65 1700 220/07 RMK AO2 T02000133
04850KAOH AOH20160622092010806/22/16 09:20:31  5-MIN KAOH 221420Z AUTO 21008KT 10SM CLR 20/13 A3000 910 65 1700 220/08 RMK AO2 T02000133
04850KAOH AOH20160622092510806/22/16 09:25:31  5-MIN KAOH 221425Z AUTO 22006KT 10SM CLR 20/14 A3000 910 67 1700 230/06 RMK AO2 T02000139
04850KAOH AOH20160622093011106/22/16 09:30:31  5-MIN KAOH 221430Z AUTO 22008KT 10SM FEW080 20/14 A3000 910 67 1700 230/08 RMK AO2 T02000139
04850KAOH AOH20160622093511106/22/16 09:35:31  5-MIN KAOH 221435Z AUTO 23006KT 10SM FEW085 20/14 A3000 900 67 1700 230/06 RMK AO2 T02000139
04850KAOH AOH20160622094011106/22/16 09:40:31  5-MIN KAOH 221440Z AUTO 23007KT 10SM SCT085 20/14 A3000 900 70 1700 230/07 RMK AO2 T02000144
04850KAOH AOH20160622094511106/22/16 09:45:31  5-MIN KAOH 221445Z AUTO 22007KT 10SM SCT085 20/14 A3000 900 70 1700 230/07 RMK AO2 T02000144
04850KAOH AOH20160622095012406/22/16 09:50:31  5-MIN KAOH 221450Z AUTO 22007KT 10SM SCT085 20/14 A3000 910 70 1700 230/07 RMK AO2 SLP153 T02000144 53016
04850KAOH AOH20160622095511106/22/16 09:55:31  5-MIN KAOH 221455Z AUTO 23007KT 10SM SCT085 21/15 A3000 900 70 1800 230/07 RMK AO2 T02060150
04850KAOH AOH20160622100011106/22/16 10:00:31  5-MIN KAOH 221500Z AUTO 24008KT 10SM BKN080 21/15 A3000 900 70 1800 240/08 RMK AO2 T02060150
04850KAOH AOH20160622100511106/22/16 10:05:31  5-MIN KAOH 221505Z AUTO 25007KT 10SM BKN080 21/15 A3000 900 70 1800 250/07 RMK AO2 T02060150
04850KAOH AOH20160622101011106/22/16 10:10:31  5-MIN KAOH 221510Z AUTO 24007KT 10SM BKN080 21/15 A3001 900 70 1800 240/07 RMK AO2 T02060150
04850KAOH AOH20160622101511106/22/16 10:15:31  5-MIN KAOH 221515Z AUTO 25007KT 10SM BKN080 21/15 A3001 900 70 1800 260/07 RMK AO2 T02060150
04850KAOH AOH20160622102011106/22/16 10:20:31  5-MIN KAOH 221520Z AUTO 24007KT 10SM OVC080 21/15 A3001 900 70 1800 250/07 RMK AO2 T02060150
04850KAOH AOH20160622102511106/22/16 10:25:31  5-MIN KAOH 221525Z AUTO 24008KT 10SM OVC080 21/16 A3000 900 70 1900 240/08 RMK AO2 T02110156
04850KAOH AOH20160622103011106/22/16 10:30:31  5-MIN KAOH 221530Z AUTO 25009KT 10SM BKN080 21/16 A3001 900 70 1900 250/09 RMK AO2 T02110156
04850KAOH AOH20160622103511106/22/16 10:35:31  5-MIN KAOH 221535Z AUTO 25008KT 10SM BKN080 21/16 A3000 900 70 1900 250/08 RMK AO2 T02110156
04850KAOH AOH20160622104011106/22/16 10:40:31  5-MIN KAOH 221540Z AUTO 24008KT 10SM BKN080 21/16 A3001 900 70 1900 250/08 RMK AO2 T02110156
04850KAOH AOH20160622104511106/22/16 10:45:31  5-MIN KAOH 221545Z AUTO 24010KT 10SM BKN080 22/16 A3001 900 68 1900 240/10 RMK AO2 T02170156
04850KAOH AOH20160622105012506/22/16 10:50:31  5-MIN KAOH 221550Z AUTO 24008KT 10SM BKN075 BKN090 22/16 A3000 900 68 1900 250/08 RMK AO2 SLP155 T02170156
04850KAOH AOH20160622105511806/22/16 10:55:31  5-MIN KAOH 221555Z AUTO 24009KT 10SM SCT070 BKN095 22/16 A2999 910 70 1900 240/09 RMK AO2 T02170161
04850KAOH AOH20160622110011806/22/16 11:00:31  5-MIN KAOH 221600Z AUTO 23008KT 10SM SCT070 SCT095 22/16 A2999 910 70 1900 240/08 RMK AO2 T02170161
04850KAOH AOH20160622110511806/22/16 11:05:31  5-MIN KAOH 221605Z AUTO 23010KT 10SM SCT070 SCT100 22/16 A2999 910 70 1900 240/10 RMK AO2 T02170161
04850KAOH AOH20160622111011806/22/16 11:10:31  5-MIN KAOH 221610Z AUTO 23009KT 10SM FEW070 SCT095 22/16 A2999 910 68 2000 240/09 RMK AO2 T02220161
04850KAOH AOH20160622111511806/22/16 11:15:31  5-MIN KAOH 221615Z AUTO 24011KT 10SM FEW070 SCT100 23/16 A2999 910 65 2100 240/11 RMK AO2 T02280161
04850KAOH AOH20160622112011106/22/16 11:20:31  5-MIN KAOH 221620Z AUTO 25008KT 10SM SCT100 23/16 A2998 920 65 2100 260/08 RMK AO2 T02280161
04850KAOH AOH20160622112511806/22/16 11:25:31  5-MIN KAOH 221625Z AUTO 22009KT 10SM SCT110 23/16 A2997 930 63 2100 220/09 RMK AO2 PRESFR T02330161
04850KAOH AOH20160622113011806/22/16 11:30:31  5-MIN KAOH 221630Z AUTO 25008KT 10SM FEW110 23/16 A2997 940 63 2200 260/08 RMK AO2 PRESFR T02330161
04850KAOH AOH20160622113511106/22/16 11:35:31  5-MIN KAOH 221635Z AUTO 26006KT 10SM FEW100 23/16 A2997 940 61 2200 270/06 RMK AO2 T02330156
04850KAOH AOH20160622114011106/22/16 11:40:31  5-MIN KAOH 221640Z AUTO 22004KT 10SM FEW110 23/16 A2996 940 61 2200 230/04 RMK AO2 T02330156
04850KAOH AOH20160622114511106/22/16 11:45:31  5-MIN KAOH 221645Z AUTO 00000KT 10SM FEW110 23/16 A2996 940 63 2200 000/00 RMK AO2 T02330161
04850KAOH AOH20160622115011506/22/16 11:50:31  5-MIN KAOH 221650Z AUTO 20005KT 10SM CLR 23/16 A2995 950 61 2200 200/05 RMK AO2 SLP138 T02330156
04850KAOH AOH20160622115511106/22/16 11:55:31  5-MIN KAOH 221655Z AUTO 19004KT 10SM FEW100 23/15 A2996 940 59 2200 190/04 RMK AO2 T02330150
04850KAOH AOH20160622120011106/22/16 12:00:31  5-MIN KAOH 221700Z AUTO 24004KT 10SM SCT095 23/14 A2996 940 57 2200 240/04 RMK AO2 T02330144
04850KAOH AOH20160622120511106/22/16 12:05:31  5-MIN KAOH 221705Z AUTO 21003KT 10SM BKN090 23/16 A2995 950 61 2200 210/03 RMK AO2 T02330156
04850KAOH AOH20160622121011106/22/16 12:10:31  5-MIN KAOH 221710Z AUTO 20006KT 10SM BKN095 23/16 A2995 950 61 2200 210/06 RMK AO2 T02330156
04850KAOH AOH20160622121511106/22/16 12:15:31  5-MIN KAOH 221715Z AUTO 21005KT 10SM BKN100 23/16 A2996 940 61 2200 220/05 RMK AO2 T02330156
04850KAOH AOH20160622122011106/22/16 12:20:31  5-MIN KAOH 221720Z AUTO 19005KT 10SM BKN100 24/16 A2996 940 61 2200 190/05 RMK AO2 T02390161
04850KAOH AOH20160622122511106/22/16 12:25:31  5-MIN KAOH 221725Z AUTO 20007KT 10SM BKN100 24/16 A2996 940 59 2300 210/07 RMK AO2 T02440161
04850KAOH AOH20160622123011106/22/16 12:30:31  5-MIN KAOH 221730Z AUTO 22010KT 10SM BKN100 24/16 A2996 940 57 2300 220/10 RMK AO2 T02440156
04850KAOH AOH20160622123511106/22/16 12:35:31  5-MIN KAOH 221735Z AUTO 22008KT 10SM BKN100 24/16 A2997 930 57 2300 220/08 RMK AO2 T02440156
04850KAOH AOH20160622124011106/22/16 12:40:31  5-MIN KAOH 221740Z AUTO 22009KT 10SM BKN100 24/16 A2997 930 57 2300 220/09 RMK AO2 T02440156
04850KAOH AOH20160622124511106/22/16 12:45:31  5-MIN KAOH 221745Z AUTO 22008KT 10SM BKN100 24/16 A2998 920 57 2300 220/08 RMK AO2 T02440156
04850KAOH AOH20160622125013606/22/16 12:50:31  5-MIN KAOH 221750Z AUTO 24012KT 10SM BKN100 25/16 A2998 920 55 2300 240/12 RMK AO2 SLP147 T02500156 10250 20183 53004
04850KAOH AOH20160622125511106/22/16 12:55:31  5-MIN KAOH 221755Z AUTO 21009KT 10SM BKN095 24/15 A2998 920 57 2200 210/09 RMK AO2 T02390150
04850KAOH AOH20160622130011106/22/16 13:00:31  5-MIN KAOH 221800Z AUTO 23009KT 10SM BKN100 24/16 A2998 920 59 2300 240/09 RMK AO2 T02440161
04850KAOH AOH20160622130511106/22/16 13:05:31  5-MIN KAOH 221805Z AUTO 23010KT 10SM OVC095 24/16 A2998 920 57 2300 240/10 RMK AO2 T02440156
04850KAOH AOH20160622131011106/22/16 13:10:31  5-MIN KAOH 221810Z AUTO 22010KT 10SM OVC090 24/16 A2999 920 59 2300 230/10 RMK AO2 T02440161
04850KAOH AOH20160622131511106/22/16 13:15:31  5-MIN KAOH 221815Z AUTO 23014KT 10SM OVC090 24/15 A2999 920 57 2200 240/14 RMK AO2 T02390150
04850KAOH AOH20160622132011106/22/16 13:20:31  5-MIN KAOH 221820Z AUTO 22013KT 10SM OVC085 24/16 A2999 920 59 2200 230/13 RMK AO2 T02390156
04850KAOH AOH20160622132511106/22/16 13:25:31  5-MIN KAOH 221825Z AUTO 22011KT 10SM OVC085 24/16 A2998 920 59 2200 230/11 RMK AO2 T02390156
04850KAOH AOH20160622133011106/22/16 13:30:31  5-MIN KAOH 221830Z AUTO 24014KT 10SM OVC080 23/16 A2998 920 61 2100 240/14 RMK AO2 T02330156
04850KAOH AOH20160622133511106/22/16 13:35:31  5-MIN KAOH 221835Z AUTO 23011KT 10SM OVC080 24/16 A2998 930 59 2200 240/11 RMK AO2 T02390156
04850KAOH AOH20160622134011106/22/16 13:40:31  5-MIN KAOH 221840Z AUTO 23009KT 10SM OVC080 24/16 A2997 930 59 2200 240/09 RMK AO2 T02390156
04850KAOH AOH20160622134511106/22/16 13:45:31  5-MIN KAOH 221845Z AUTO 21009KT 10SM BKN080 24/16 A2997 930 59 2300 220/09 RMK AO2 T02440161
04850KAOH AOH20160622135011806/22/16 13:50:31  5-MIN KAOH 221850Z AUTO 23012KT 10SM BKN080 24/16 A2997 930 59 2300 240/12 RMK AO2 SLP143 T02440161
04850KAOH AOH20160622135511106/22/16 13:55:31  5-MIN KAOH 221855Z AUTO 23012KT 10SM BKN080 24/16 A2997 930 61 2200 240/12 RMK AO2 T02390161
04850KAOH AOH20160622140011106/22/16 14:00:31  5-MIN KAOH 221900Z AUTO 22013KT 10SM BKN075 24/17 A2996 940 63 2200 230/13 RMK AO2 T02390167
04850KAOH AOH20160622140511106/22/16 14:05:31  5-MIN KAOH 221905Z AUTO 22013KT 10SM BKN075 24/17 A2996 940 63 2200 220/13 RMK AO2 T02390167
04850KAOH AOH20160622141011106/22/16 14:10:31  5-MIN KAOH 221910Z AUTO 21009KT 10SM BKN070 23/17 A2996 950 66 2200 220/09 RMK AO2 T02330167
04850KAOH AOH20160622141512406/22/16 14:15:31  5-MIN KAOH 221915Z AUTO 22011G17KT 10SM OVC070 23/17 A2995 950 66 2200 220/11G17 RMK AO2 PRESFR T02330167
04850KAOH AOH20160622142011706/22/16 14:20:31  5-MIN KAOH 221920Z AUTO 21009G17KT 10SM OVC070 24/17 A2995 950 63 2200 220/09G17 RMK AO2 T02390167
04850KAOH AOH20160622142511106/22/16 14:25:31  5-MIN KAOH 221925Z AUTO 22013KT 10SM OVC070 24/17 A2994 960 63 2200 220/13 RMK AO2 T02390167
04850KAOH AOH20160622143011106/22/16 14:30:31  5-MIN KAOH 221930Z AUTO 22011KT 10SM OVC070 23/17 A2994 960 66 2200 220/11 RMK AO2 T02330167
04850KAOH AOH20160622143511706/22/16 14:35:31  5-MIN KAOH 221935Z AUTO 21011G18KT 10SM OVC070 23/17 A2994 960 66 2200 220/11G18 RMK AO2 T02330167
04850KAOH AOH20160622144011106/22/16 14:40:31  5-MIN KAOH 221940Z AUTO 22009KT 10SM OVC070 24/17 A2994 960 66 2200 220/09 RMK AO2 T02390172
04850KAOH AOH20160622144511106/22/16 14:45:31  5-MIN KAOH 221945Z AUTO 22009KT 10SM OVC070 24/17 A2994 960 63 2300 230/09 RMK AO2 T02440172
04850KAOH AOH20160622145011806/22/16 14:50:31  5-MIN KAOH 221950Z AUTO 23011KT 10SM OVC065 24/17 A2994 960 63 2300 230/11 RMK AO2 SLP134 T02440172
04850KAOH AOH20160622145511106/22/16 14:55:31  5-MIN KAOH 221955Z AUTO 21010KT 10SM OVC065 24/17 A2995 950 66 2200 220/10 RMK AO2 T02390172
04850KAOH AOH20160622150011106/22/16 15:00:31  5-MIN KAOH 222000Z AUTO 21009KT 10SM OVC065 24/17 A2995 950 66 2200 210/09 RMK AO2 T02390172
04850KAOH AOH20160622150511106/22/16 15:05:31  5-MIN KAOH 222005Z AUTO 22008KT 10SM OVC065 24/17 A2994 960 66 2200 220/08 RMK AO2 T02390172
04850KAOH AOH20160622151011106/22/16 15:10:31  5-MIN KAOH 222010Z AUTO 22009KT 10SM OVC065 24/17 A2994 960 66 2200 230/09 RMK AO2 T02390172
04850KAOH AOH20160622151511106/22/16 15:15:31  5-MIN KAOH 222015Z AUTO 22012KT 10SM OVC065 24/17 A2994 950 66 2200 230/12 RMK AO2 T02390172
04850KAOH AOH20160622152011106/22/16 15:20:31  5-MIN KAOH 222020Z AUTO 22011KT 10SM OVC065 24/17 A2994 950 63 2300 230/11 RMK AO2 T02440172
04850KAOH AOH20160622152511106/22/16 15:25:31  5-MIN KAOH 222025Z AUTO 21009KT 10SM OVC060 24/17 A2995 950 63 2300 220/09 RMK AO2 T02440172
04850KAOH AOH20160622153011106/22/16 15:30:31  5-MIN KAOH 222030Z AUTO 21010KT 10SM OVC060 24/17 A2994 960 63 2300 220/10 RMK AO2 T02440172
04850KAOH AOH20160622153511106/22/16 15:35:31  5-MIN KAOH 222035Z AUTO 24011KT 10SM OVC060 25/17 A2995 950 61 2400 240/11 RMK AO2 T02500172
04850KAOH AOH20160622154011106/22/16 15:40:31  5-MIN KAOH 222040Z AUTO 21008KT 10SM BKN060 25/17 A2994 960 61 2400 210/08 RMK AO2 T02500172
04850KAOH AOH20160622154511106/22/16 15:45:31  5-MIN KAOH 222045Z AUTO 23009KT 10SM BKN060 25/17 A2995 950 61 2400 230/09 RMK AO2 T02500172
04850KAOH AOH20160622155012406/22/16 15:50:31  5-MIN KAOH 222050Z AUTO 23011KT 10SM SCT060 25/17 A2995 950 61 2400 240/11 RMK AO2 SLP136 T02500172 55005
04850KAOH AOH20160622155511106/22/16 15:55:31  5-MIN KAOH 222055Z AUTO 23010KT 10SM SCT060 25/17 A2994 960 61 2400 230/10 RMK AO2 T02500172
04850KAOH AOH20160622160011106/22/16 16:00:31  5-MIN KAOH 222100Z AUTO 23011KT 10SM FEW060 25/17 A2994 960 61 2400 230/11 RMK AO2 T02500172
04850KAOH AOH20160622160510806/22/16 16:05:31  5-MIN KAOH 222105Z AUTO 22012KT 10SM CLR 25/17 A2994 960 61 2400 220/12 RMK AO2 T02500172
04850KAOH AOH20160622161010806/22/16 16:10:31  5-MIN KAOH 222110Z AUTO 21010KT 10SM CLR 26/18 A2994 960 61 2400 210/10 RMK AO2 T02560178
04850KAOH AOH20160622161511406/22/16 16:15:31  5-MIN KAOH 222115Z AUTO 21010G17KT 10SM CLR 25/18 A2994 960 64 2400 220/10G17 RMK AO2 T02500178
04850KAOH AOH20160622162011406/22/16 16:20:31  5-MIN KAOH 222120Z AUTO 22010G17KT 10SM CLR 26/18 A2994 960 61 2400 230/10G17 RMK AO2 T02560178
04850KAOH AOH20160622162510806/22/16 16:25:31  5-MIN KAOH 222125Z AUTO 23012KT 10SM CLR 25/17 A2994 960 61 2400 240/12 RMK AO2 T02500172
04850KAOH AOH20160622163011106/22/16 16:30:31  5-MIN KAOH 222130Z AUTO 23011KT 10SM FEW034 25/18 A2994 960 64 2400 230/11 RMK AO2 T02500178
04850KAOH AOH20160622163511106/22/16 16:35:31  5-MIN KAOH 222135Z AUTO 22009KT 10SM FEW034 26/18 A2993 970 61 2400 220/09 RMK AO2 T02560178
04850KAOH AOH20160622164010806/22/16 16:40:31  5-MIN KAOH 222140Z AUTO 23012KT 10SM CLR 26/18 A2994 960 61 2400 230/12 RMK AO2 T02560178
04850KAOH AOH20160622164511106/22/16 16:45:31  5-MIN KAOH 222145Z AUTO 23012KT 10SM FEW033 26/18 A2994 960 61 2400 240/12 RMK AO2 T02560178
04850KAOH AOH20160622165011806/22/16 16:50:31  5-MIN KAOH 222150Z AUTO 24013KT 10SM FEW033 26/18 A2994 960 61 2400 250/13 RMK AO2 SLP131 T02560178
04850KAOH AOH20160622165511106/22/16 16:55:31  5-MIN KAOH 222155Z AUTO 24011KT 10SM FEW033 26/18 A2994 960 61 2400 250/11 RMK AO2 T02560178
04850KAOH AOH20160622170010806/22/16 17:00:31  5-MIN KAOH 222200Z AUTO 25013KT 10SM CLR 26/18 A2994 960 61 2400 260/13 RMK AO2 T02560178
04850KAOH AOH20160622170511106/22/16 17:05:31  5-MIN KAOH 222205Z AUTO 26011KT 10SM FEW034 25/18 A2994 960 64 2400 260/11 RMK AO2 T02500178
04850KAOH AOH20160622171011106/22/16 17:10:31  5-MIN KAOH 222210Z AUTO 23014KT 10SM SCT034 26/18 A2994 960 61 2400 240/14 RMK AO2 T02560178
04850KAOH AOH20160622171511706/22/16 17:15:31  5-MIN KAOH 222215Z AUTO 24013G19KT 10SM SCT034 26/18 A2993 960 61 2400 240/13G19 RMK AO2 T02560178
04850KAOH AOH20160622172011106/22/16 17:20:31  5-MIN KAOH 222220Z AUTO 24011KT 10SM SCT032 26/18 A2993 960 61 2400 250/11 RMK AO2 T02560178
04850KAOH AOH20160622172511106/22/16 17:25:31  5-MIN KAOH 222225Z AUTO 24013KT 10SM SCT032 25/18 A2993 960 64 2400 240/13 RMK AO2 T02500178
04850KAOH AOH20160622173011706/22/16 17:30:31  5-MIN KAOH 222230Z AUTO 24010G19KT 10SM SCT032 25/18 A2993 970 64 2400 240/10G19 RMK AO2 T02500178
04850KAOH AOH20160622173511106/22/16 17:35:31  5-MIN KAOH 222235Z AUTO 24012KT 10SM SCT032 24/18 A2993 970 66 2300 250/12 RMK AO2 T02440178
04850KAOH AOH20160622174011106/22/16 17:40:31  5-MIN KAOH 222240Z AUTO 24012KT 10SM BKN032 24/18 A2993 970 66 2300 250/12 RMK AO2 T02440178
04850KAOH AOH20160622174511106/22/16 17:45:31  5-MIN KAOH 222245Z AUTO 23010KT 10SM SCT032 25/18 A2993 970 64 2400 240/10 RMK AO2 T02500178
04850KAOH AOH20160622175011806/22/16 17:50:31  5-MIN KAOH 222250Z AUTO 23008KT 10SM FEW032 24/18 A2993 970 66 2300 240/08 RMK AO2 SLP128 T02440178
04850KAOH AOH20160622175511806/22/16 17:55:31  5-MIN KAOH 222255Z AUTO 24009KT 10SM FEW032 SCT120 24/18 A2993 970 66 2300 240/09 RMK AO2 T02440178
04850KAOH AOH20160622180011806/22/16 18:00:31  5-MIN KAOH 222300Z AUTO 22009KT 10SM FEW032 SCT120 24/18 A2993 970 66 2300 230/09 RMK AO2 T02440178
04850KAOH AOH20160622180511806/22/16 18:05:31  5-MIN KAOH 222305Z AUTO 25010KT 10SM FEW032 FEW120 24/18 A2993 960 66 2300 260/10 RMK AO2 T02440178
04850KAOH AOH20160622181011106/22/16 18:10:31  5-MIN KAOH 222310Z AUTO 23009KT 10SM FEW120 24/18 A2994 960 68 2300 230/09 RMK AO2 T02440183
04850KAOH AOH20160622181511106/22/16 18:15:31  5-MIN KAOH 222315Z AUTO 24010KT 10SM FEW110 24/18 A2994 960 66 2300 250/10 RMK AO2 T02440178
04850KAOH AOH20160622182011106/22/16 18:20:31  5-MIN KAOH 222320Z AUTO 24011KT 10SM SCT110 24/18 A2994 960 68 2300 240/11 RMK AO2 T02440183
04850KAOH AOH20160622182511106/22/16 18:25:31  5-MIN KAOH 222325Z AUTO 23009KT 10SM FEW100 24/18 A2994 960 66 2300 240/09 RMK AO2 T02440178
04850KAOH AOH20160622183011106/22/16 18:30:31  5-MIN KAOH 222330Z AUTO 23008KT 10SM FEW110 24/18 A2993 960 68 2300 230/08 RMK AO2 T02440183
04850KAOH AOH20160622183511106/22/16 18:35:31  5-MIN KAOH 222335Z AUTO 22007KT 10SM FEW110 24/18 A2993 970 68 2300 220/07 RMK AO2 T02440183
04850KAOH AOH20160622184011106/22/16 18:40:31  5-MIN KAOH 222340Z AUTO 22008KT 10SM FEW110 24/18 A2994 960 68 2300 220/08 RMK AO2 T02440183
04850KAOH AOH20160622184511806/22/16 18:45:31  5-MIN KAOH 222345Z AUTO 23010KT 10SM FEW080 SCT110 24/18 A2994 960 68 2300 240/10 RMK AO2 T02440183
04850KAOH AOH20160622185014306/22/16 18:50:31  5-MIN KAOH 222350Z AUTO 23011KT 10SM SCT080 BKN110 24/18 A2993 970 68 2300 240/11 RMK AO2 SLP130 T02440183 10256 20233 56012
04850KAOH AOH20160622185511806/22/16 18:55:31  5-MIN KAOH 222355Z AUTO 24010KT 10SM BKN080 BKN110 24/18 A2993 970 68 2300 250/10 RMK AO2 T02440183
04850KAOH AOH20160622190011806/22/16 19:00:31  5-MIN KAOH 230000Z AUTO 22008KT 10SM BKN080 BKN110 24/18 A2993 970 68 2300 230/08 RMK AO2 T02440183
04850KAOH AOH20160622190512506/22/16 19:05:31  5-MIN KAOH 230005Z AUTO 23008KT 10SM BKN080 BKN090 BKN110 24/18 A2993 970 71 2300 240/08 RMK AO2 T02390183
04850KAOH AOH20160622191011806/22/16 19:10:31  5-MIN KAOH 230010Z AUTO 23008KT 10SM BKN075 OVC090 24/18 A2993 970 71 2300 240/08 RMK AO2 T02390183
04850KAOH AOH20160622191511806/22/16 19:15:31  5-MIN KAOH 230015Z AUTO 23009KT 10SM BKN080 BKN090 24/18 A2993 970 71 2300 240/09 RMK AO2 T02390183
04850KAOH AOH20160622192014306/22/16 19:20:31  5-MIN KAOH 230020Z AUTO 22006KT 10SM SCT075 BKN090 BKN110 24/18 A2993 970 71 2300 230/06 RMK AO2 LTG DSNT W AND NW T02390183
04850KAOH AOH20160622192514306/22/16 19:25:31  5-MIN KAOH 230025Z AUTO 21005KT 10SM FEW075 SCT090 BKN110 24/18 A2993 970 71 2300 220/05 RMK AO2 LTG DSNT W AND NW T02390183
04850KAOH AOH20160622193014306/22/16 19:30:31  5-MIN KAOH 230030Z AUTO 22006KT 10SM FEW070 BKN100 BKN110 24/18 A2993 970 71 2300 230/06 RMK AO2 LTG DSNT W AND NW T02390183
04850KAOH AOH20160622193513606/22/16 19:35:31  5-MIN KAOH 230035Z AUTO 22006KT 10SM FEW070 BKN100 23/18 A2993 970 73 2200 230/06 RMK AO2 LTG DSNT W AND NW T02330183
04850KAOH AOH20160622194012906/22/16 19:40:31  5-MIN KAOH 230040Z AUTO 23005KT 10SM BKN110 23/18 A2993 970 73 2200 230/05 RMK AO2 LTG DSNT W AND NW T02330183
04850KAOH AOH20160622194512806/22/16 19:45:31  5-MIN KAOH 230045Z AUTO 24006KT 10SM VCTS BKN100 23/19 A2994 960 76 2200 250/06 RMK AO2 LTG DSNT NW T02330189
04850KAOH AOH20160622195016506/22/16 19:50:31  5-MIN KAOH 230050Z AUTO 26006KT 10SM VCTS -RA FEW070 SCT080 BKN110 23/19 A2994 960 76 2200 270/06 RMK AO2 LTG DSNT NW RAB46 SLP132 P0000 T02330189
04850KAOH AOH20160622195514706/22/16 19:55:31  5-MIN KAOH 230055Z AUTO 26005KT 6SM TSRA FEW055 SCT070 BKN110 23/19 A2994 960 78 2200 270/05 RMK AO2 LTG DSNT NW P0000 T02330194
04850KAOH AOH20160622200015706/22/16 20:00:31  5-MIN KAOH 230100Z AUTO 24007KT 3SM +TSRA BR SCT044 BKN070 BKN110 22/20 A2994 960 87 2100 250/07 RMK AO2 LTG DSNT N AND NW P0007 T02220200
04850KAOH AOH20160622200517106/22/16 20:05:31  5-MIN KAOH 230105Z AUTO 19004KT 1 1/4SM +TSRA BR SCT035 BKN070 OVC110 22/20 A2993 970 90 2000 200/04 RMK AO2 VIS 3/4V3 LTG DSNT N AND NW P0016 T02170200
04850KAOH AOH20160622201016106/22/16 20:10:31  5-MIN KAOH 230110Z AUTO 18003KT 1 1/2SM -TSRA BR SCT033 BKN070 OVC090 21/20 A2992 980 93 2000 180/03 RMK AO2 LTG DSNT N AND NW P0016 T02110200
04850KAOH AOH20160622201516806/22/16 20:15:31  5-MIN KAOH 230115Z AUTO 14004KT 7SM -TSRA SCT035 BKN070 OVC110 22/20 A2991 990 90 2000 150/04 RMK AO2 LTG DSNT N AND SE AND NW PRESFR P0016 T02170200
04850KAOH AOH20160622202015806/22/16 20:20:31  5-MIN KAOH 230120Z AUTO 12005KT 10SM -TSRA FEW035 BKN085 OVC110 22/21 A2990 990 93 2000 130/05 RMK AO2 LTG DSNT N-SE PRESFR P0016 T02170206
04850KAOH AOH20160622202516806/22/16 20:25:31  5-MIN KAOH 230125Z AUTO 12006KT 10SM VCTS -RA FEW030 BKN085 OVC110 22/21 A2990 1000 93 2000 120/06 RMK AO2 LTG DSNT N-SE TSE24 PRESFR P0016 T02170206
04850KAOH AOH20160622203015606/22/16 20:30:31  5-MIN KAOH 230130Z AUTO 12004KT 10SM -RA FEW025 BKN085 BKN110 21/21 A2990 1000 97 2000 120/04 RMK AO2 LTG DSNT N-SE TSE24 P0016 T02110206
04850KAOH AOH20160622203515806/22/16 20:35:31  5-MIN KAOH 230135Z AUTO 13005KT 10SM SCT075 BKN085 BKN110 21/21 A2989 1000 97 2000 130/05 RMK AO2 LTG DSNT N-SE RAE31 TSE24 P0016 T02110206
04850KAOH AOH20160622204015506/22/16 20:40:31  5-MIN KAOH 230140Z AUTO 15005KT 10SM BKN080 BKN110 21/21 A2989 1000 97 2000 160/05 RMK AO2 LTG DSNT N AND NE RAE31 TSE24 P0016 T02110206
04850KAOH AOH20160622204516206/22/16 20:45:31  5-MIN KAOH 230145Z AUTO 15005KT 10SM BKN075 BKN090 BKN110 22/21 A2989 1010 93 2100 150/05 RMK AO2 LTG DSNT N AND NE RAE31 TSE24 P0016 T02170206
04850KAOH AOH20160622205016206/22/16 20:50:31  5-MIN KAOH 230150Z AUTO 16006KT 10SM BKN075 BKN120 22/20 A2989 1000 90 2000 160/06 RMK AO2 LTG DSNT N AND NE RAE31 TSE24 SLP117 P0016 T02170200
04850KAOH AOH20160622205514406/22/16 20:55:31  5-MIN KAOH 230155Z AUTO 15004KT 10SM SCT060 BKN075 BKN085 22/21 A2989 1000 93 2000 160/04 RMK AO2 LTG DSNT N AND NE T02170206
04850KAOH AOH20160622210014406/22/16 21:00:31  5-MIN KAOH 230200Z AUTO 14004KT 10SM BKN060 BKN075 OVC120 22/21 A2990 1000 93 2000 150/04 RMK AO2 LTG DSNT N AND NE T02170206
04850KAOH AOH20160622210514406/22/16 21:05:31  5-MIN KAOH 230205Z AUTO 16004KT 10SM BKN055 BKN070 OVC120 22/21 A2990 1000 93 2000 160/04 RMK AO2 LTG DSNT N AND NE T02170206
04850KAOH AOH20160622211013906/22/16 21:10:31  5-MIN KAOH 230210Z AUTO 15004KT 10SM BKN055 BKN070 OVC120 22/21 A2990 1000 93 2000 150/04 RMK AO2 LTG DSNT N-E T02170206
04850KAOH AOH20160622211513206/22/16 21:15:31  5-MIN KAOH 230215Z AUTO 14005KT 10SM BKN055 OVC070 22/21 A2990 1000 93 2000 150/05 RMK AO2 LTG DSNT N-E T02170206
04850KAOH AOH20160622212012506/22/16 21:20:31  5-MIN KAOH 230220Z AUTO 13005KT 10SM OVC055 22/21 A2990 1000 93 2000 130/05 RMK AO2 LTG DSNT N-E T02170206
04850KAOH AOH20160622212512406/22/16 21:25:31  5-MIN KAOH 230225Z AUTO 12005KT 10SM OVC055 22/21 A2990 1000 93 2000 130/05 RMK AO2 LTG DSNT NE T02170206
04850KAOH AOH20160622213012406/22/16 21:30:31  5-MIN KAOH 230230Z AUTO 13006KT 10SM OVC050 22/21 A2990 1000 93 2000 130/06 RMK AO2 LTG DSNT NE T02170206
04850KAOH AOH20160622213512406/22/16 21:35:31  5-MIN KAOH 230235Z AUTO 14007KT 10SM OVC050 22/21 A2989 1000 93 2000 140/07 RMK AO2 LTG DSNT NE T02170206
04850KAOH AOH20160622214011206/22/16 21:40:31  5-MIN KAOH 230240Z AUTO 13008KT 10SM OVC050 22/21 A2989 1010 93 2100 140/08 RMK AO2 T02170206
04850KAOH AOH20160622214511206/22/16 21:45:31  5-MIN KAOH 230245Z AUTO 13007KT 10SM OVC048 22/20 A2989 1000 90 2000 130/07 RMK AO2 T02170200
04850KAOH AOH20160622215013106/22/16 21:50:31  5-MIN KAOH 230250Z AUTO 12006KT 10SM OVC048 22/21 A2990 1000 93 2000 130/06 RMK AO2 SLP118 60017 T02170206 55005
04850KAOH AOH20160622215512306/22/16 21:55:31  5-MIN KAOH 230255Z AUTO 12007KT 10SM OVC046 22/21 A2990 1000 93 2000 130/07 RMK AO2 LTG DSNT N T02170206
04850KAOH AOH20160622220012306/22/16 22:00:31  5-MIN KAOH 230300Z AUTO 12007KT 10SM OVC046 22/21 A2990 1000 93 2000 130/07 RMK AO2 LTG DSNT N T02170206
04850KAOH AOH20160622220512306/22/16 22:05:31  5-MIN KAOH 230305Z AUTO 13006KT 10SM OVC046 22/21 A2989 1000 93 2000 130/06 RMK AO2 LTG DSNT N T02170206
04850KAOH AOH20160622221012306/22/16 22:10:31  5-MIN KAOH 230310Z AUTO 13006KT 10SM OVC044 22/21 A2989 1010 93 2100 140/06 RMK AO2 LTG DSNT N T02170206
04850KAOH AOH20160622221514106/22/16 22:15:31  5-MIN KAOH 230315Z AUTO 14007KT 10SM BKN044 BKN055 OVC070 22/21 A2988 1010 93 2100 140/07 RMK AO2 LTG DSNT NW-NE T02170206
04850KAOH AOH20160622222014006/22/16 22:20:31  5-MIN KAOH 230320Z AUTO 14006KT 10SM BKN044 OVC060 22/21 A2987 1020 93 2100 150/06 RMK AO2 LTG DSNT W-NE PRESFR T02170206
04850KAOH AOH20160622222514706/22/16 22:25:31  5-MIN KAOH 230325Z AUTO 14009KT 10SM BKN041 BKN048 OVC060 22/21 A2986 1030 93 2100 140/09 RMK AO2 LTG DSNT W-NE PRESFR T02170206
04850KAOH AOH20160622223015006/22/16 22:30:31  5-MIN KAOH 230330Z AUTO 14008KT 10SM -RA BKN041 OVC050 22/21 A2986 1030 93 2100 150/08 RMK AO2 LTG DSNT ALQDS RAB26 P0000 T02170206
04850KAOH AOH20160622223515706/22/16 22:35:31  5-MIN KAOH 230335Z AUTO 14006KT 10SM -RA BKN039 BKN050 OVC065 22/21 A2985 1040 93 2100 150/06 RMK AO2 LTG DSNT ALQDS RAB26 P0001 T02170206
04850KAOH AOH20160622224016206/22/16 22:40:31  5-MIN KAOH 230340Z AUTO 14006KT 10SM VCTS -RA BKN039 BKN055 OVC065 22/20 A2986 1040 90 2100 140/06 RMK AO2 LTG DSNT ALQDS RAB26 P0001 T02170200
04850KAOH AOH20160622224514806/22/16 22:45:31  5-MIN KAOH 230345Z AUTO 11008KT 10SM VCTS -RA OVC039 22/20 A2984 1050 90 2100 120/08 RMK AO2 LTG DSNT ALQDS RAB26 P0001 T02170200
04850KAOH AOH20160622225015406/22/16 22:50:31  5-MIN KAOH 230350Z AUTO 07008KT 10SM VCTS OVC037 22/20 A2985 1050 90 2100 070/08 RMK AO2 LTG DSNT ALQDS RAB26E48 SLP101 P0001 T02170200
04850KAOH AOH20160622225514406/22/16 22:55:31  5-MIN KAOH 230355Z AUTO 03014KT 9SM -TSRA OVC037 22/20 A2985 1040 90 2100 030/14 RMK AO2 LTG DSNT ALQDS TSB54 P0000 T02170200
04850KAOH AOH20160622230015906/22/16 23:00:31  5-MIN KAOH 230400Z AUTO 03016G21KT 8SM -TSRA FEW014 OVC037 21/21 A2985 1040 97 2000 040/16G21 RMK AO2 LTG DSNT ALQDS TSB0354 P0001 T02110206
04850KAOH AOH20160622230518706/22/16 23:05:31  5-MIN KAOH 230405Z AUTO 06021G27KT 5SM +TSRA BR SCT014 OVC037 21/20 A2981 1080 93 2100 060/21G27 RMK AO2 PK WND 05027/0405 LTG DSNT ALQDS TSB0354 PRESFR P0005 T02110200
04850KAOH AOH20160622231018906/22/16 23:10:31  5-MIN KAOH 230410Z AUTO 05023G28KT 3SM +TSRA BR BKN014 OVC037 21/21 A2980 1090 97 2100 060/23G28 RMK AO2 PK WND 05028/0408 LTG DSNT ALQDS TSB0354 PRESFR P0011 T02110206 $
04850KAOH AOH20160622231519306/22/16 23:15:31  5-MIN KAOH 230415Z AUTO 04022G33KT 2 1/2SM +TSRA BR BKN014 BKN019 OVC036 21/21 A2984 1050 97 2000 040/22G33 RMK AO2 PK WND 06033/0411 LTG DSNT ALQDS TSB0354 P0023 T02110206 $
04850KAOH AOH20160622232019206/22/16 23:20:31  5-MIN KAOH 230420Z AUTO 35020G33KT 1 1/4SM +RA BR BKN016 BKN021 OVC033 21/21 A2990 1000 100 1900 360/20G33 RMK AO2 PK WND 06033/0411 TSB0354E18 PRESRR P0044 T02060206 TSNO $
04850KAOH AOH20160622232516306/22/16 23:25:31  5-MIN KAOH 230425Z AUTO 09032G38KT 1SM +RA BKN016 OVC021 21/ A2978 1100 M 2000 090/32G38 RMK AO2 PK WND 08038/0425 TSB0354E18 P0060 T0206 TSNO $
04850KAOH AOH20160622233017706/22/16 23:30:31  5-MIN KAOH 230430Z AUTO 10035G52KT 1SM +RA BKN016 BKN021 OVC055 20/ A2978 1110 M 2000 110/35G52 RMK AO2 PK WND 09052/0428 TSB0354E18 PRESFR P0065 T0200 TSNO $
04850KAOH AOH20160622233518106/22/16 23:35:31  5-MIN KAOH 230435Z AUTO 14018G52KT 2SM -RA BKN014 BKN021 OVC055 20/ A2982 1070 M 1900 140/18G52 RMK AO2 PK WND 09052/0428 WSHFT 0418 TSB0354E18 P0066 T0200 TSNO $
04850KAOH AOH20160622234019606/22/16 23:40:31  5-MIN KAOH 230440Z AUTO 12017G46KT 090V180 5SM RA SCT016 BKN040 OVC055 21/ A2983 1060 M 2100 130/17G46 100V190 RMK AO2 PK WND 09052/0428 WSHFT 0418 TSB0354E18 P0069 T0211 TSNO $
04850KAOH AOH20160622234518806/22/16 23:45:31  5-MIN KAOH 230445Z AUTO 08019G31KT 5SM +RA SCT014 BKN040 OVC055 21/ A2985 1040 M 2000 090/19G31 RMK AO2 PK WND 09052/0428 WSHFT 0418 TSB0354E18 PRESRR P0073 T0206 TSNO $
04850KAOH AOH20160622235019806/22/16 23:50:31  5-MIN KAOH 230450Z AUTO 03018G25KT 6SM +RA FEW011 BKN038 OVC055 20/ A2984 1050 M 1900 030/18G25 RMK AO2 PK WND 09052/0428 WSHFT 0418 TSB0354E18 SLP097 P0075 T0200 402560156 TSNO $
04850KAOH AOH20160622235517006/22/16 23:55:31  5-MIN KAOH 230455Z AUTO 06021G29KT 6SM +RA FEW013 BKN038 OVC055 19/ A2984 1050 M 1800 060/21G29 RMK AO2 PK WND 06029/0454 WSHFT 0440 P0003 T0194 TSNO $
04850KAOH AOH20160623000018906/23/16 00:00:31  5-MIN KAOH 230500Z AUTO 04020G29KT 4SM +TSRA FEW013 BKN038 OVC050 19/ A2987 1020 M 1800 040/20G29 RMK AO2 PK WND 04026/0500 WSHFT 0440 LTG DSNT ALQDS PRESRR P0014 T0194 $
04850KAOH AOH20160623000518606/23/16 00:05:31  5-MIN KAOH 230505Z AUTO 05018G27KT 1 3/4SM +TSRA FEW013 SCT024 OVC038 19/ A2985 1050 M 1800 060/18G27 RMK AO2 PK WND 04027/0503 WSHFT 0440 LTG DSNT ALQDS P0035 T0194 $
04850KAOH AOH20160623001017506/23/16 00:10:31  5-MIN KAOH 230510Z AUTO 05016G27KT 1SM +TSRA BKN013 OVC038 19/ A2986 1030 M 1800 050/16G27 RMK AO2 PK WND 04027/0503 WSHFT 0440 LTG DSNT ALQDS P0062 T0194 $
04850KAOH AOH20160623001517706/23/16 00:15:31  5-MIN KAOH 230515Z AUTO 09016G21KT 3/4SM +TSRA BKN013 OVC038 19/ A2985 1050 M 1800 090/16G21 RMK AO2 PK WND 04027/0503 WSHFT 0440 LTG DSNT ALQDS P0082 T0194 $
04850KAOH AOH20160623002017506/23/16 00:20:31  5-MIN KAOH 230520Z AUTO 13012G19KT 1SM +TSRA BKN015 OVC037 19/ A2984 1050 M 1800 130/12G19 RMK AO2 PK WND 04027/0503 WSHFT 0440 LTG DSNT ALQDS P0094 T0189 $
04850KAOH AOH20160623002517206/23/16 00:25:31  5-MIN KAOH 230525Z AUTO 09008KT 1 3/4SM TSRA BKN017 OVC039 19/ A2985 1040 M 1800 100/08 RMK AO2 PK WND 04027/0503 WSHFT 0507 LTG DSNT ALQDS P0095 T0194 $
04850KAOH AOH20160623003017606/23/16 00:30:31  5-MIN KAOH 230530Z AUTO 04007KT 5SM -TSRA BKN015 BKN020 OVC039 19/ A2985 1050 M 1800 050/07 RMK AO2 PK WND 04027/0503 WSHFT 0507 LTG DSNT ALQDS P0096 T0194 $
04850KAOH AOH20160623003517706/23/16 00:35:31  5-MIN KAOH 230535Z AUTO 36009KT 10SM -TSRA SCT015 BKN020 OVC037 19/ A2986 1030 M 1800 010/09 RMK AO2 PK WND 04027/0503 WSHFT 0507 LTG DSNT ALQDS P0096 T0194 $
04850KAOH AOH20160623004018406/23/16 00:40:31  5-MIN KAOH 230540Z AUTO 36009KT 9SM VCTS RA SCT017 OVC033 19/ A2987 1020 M 1800 010/09 RMK AO2 PK WND 04027/0503 WSHFT 0507 LTG DSNT ALQDS TSE40 PRESRR P0097 T0194 $
04850KAOH AOH20160623004519106/23/16 00:45:31  5-MIN KAOH 230545Z AUTO 33006KT 6SM VCTS RA SCT019 BKN032 OVC041 19/ A2989 1010 M 1800 340/06 RMK AO2 PK WND 04027/0503 WSHFT 0507 LTG DSNT ALQDS TSE40 PRESRR P0101 T0194 $
04850KAOH AOH20160623005017906/23/16 00:50:31  5-MIN KAOH 230550Z AUTO 00000KT 3SM +TSRA FEW021 BKN025 OVC039 19/ A2987 1020 M 1800 000/00 RMK AO2 PK WND 04027/0503 WSHFT 0507 LTG DSNT ALQDS TSE40B46 P0106 $
04850KAOH AOH20160623005515106/23/16 00:55:31  5-MIN KAOH 230555Z AUTO VRB03KT 2 1/2SM +TSRA FEW009 BKN025 OVC032 19/ A2987 1020 M 1800 VRB/03 RMK AO2 LTG DSNT ALQDS P0002 T0194 $
04850KAOH AOH20160623010014706/23/16 01:00:31  5-MIN KAOH 230600Z AUTO VRB03KT 3SM +TSRA SCT007 BKN025 OVC035 19/ A2985 1040 M 1800 VRB/03 RMK AO2 LTG DSNT ALQDS P0008 T0194 $
04850KAOH AOH20160623010514406/23/16 01:05:31  5-MIN KAOH 230605Z AUTO 34004KT 2 1/2SM +TSRA BKN007 OVC025 19/ A2987 1020 M 1800 340/04 RMK AO2 LTG DSNT ALQDS P0011 T0194 $
04850KAOH AOH20160623011014006/23/16 01:10:31  5-MIN KAOH 230610Z AUTO VRB04KT 3SM +TSRA BKN006 OVC025 19/ A2985 1040 M 1800 VRB/04 RMK AO2 LTG DSNT ALQDS P0013 T0194 $
04850KAOH AOH20160623011515606/23/16 01:15:31  5-MIN KAOH 230615Z AUTO 11010KT 5SM VCTS -RA SCT006 OVC025 19/ A2983 1060 M 1900 120/10 RMK AO2 LTG DSNT ALQDS TSE15 PRESFR P0014 T0194 $
04850KAOH AOH20160623012016306/23/16 01:20:31  5-MIN KAOH 230620Z AUTO 12011KT 8SM VCTS -RA SCT006 BKN012 OVC026 19/ A2982 1070 M 1900 130/11 RMK AO2 LTG DSNT ALQDS TSE15 PRESFR P0015 T0194 $
04850KAOH AOH20160623012515606/23/16 01:25:31  5-MIN KAOH 230625Z AUTO 14012KT 3SM VCTS +RA SCT006 BKN012 OVC026 19/ A2982 1070 M 1900 140/12 RMK AO2 LTG DSNT ALQDS TSE15 P0031 T0194 $
04850KAOH AOH20160623013016406/23/16 01:30:31  5-MIN KAOH 230630Z AUTO 11012KT 2SM VCTS +RA FEW006 BKN027 OVC032 19/ A2983 1060 M 1900 120/12 RMK AO2 VIS 1V5 LTG DSNT ALQDS TSE15 P0036 T0194 $
04850KAOH AOH20160623013515606/23/16 01:35:31  5-MIN KAOH 230635Z AUTO 12015KT 3SM -TSRA FEW006 OVC027 19/ A2979 1090 M 1800 120/15 RMK AO2 LTG DSNT ALQDS TSE15B32 PRESFR P0037 T0189 $
04850KAOH AOH20160623014015606/23/16 01:40:31  5-MIN KAOH 230640Z AUTO 12011KT 8SM -TSRA FEW008 BKN027 OVC049 19/ A2982 1070 M 1800 120/11 RMK AO2 LTG DSNT ALQDS TSE15B32 P0039 T0189 $
04850KAOH AOH20160623014515606/23/16 01:45:31  5-MIN KAOH 230645Z AUTO 09006KT 4SM +TSRA FEW008 BKN024 OVC049 19/ A2983 1060 M 1800 100/06 RMK AO2 LTG DSNT ALQDS TSE15B32 P0049 T0189 $
04850KAOH AOH20160623015015406/23/16 01:50:31  5-MIN KAOH 230650Z AUTO VRB05KT 2 1/2SM +TSRA FEW009 BKN024 OVC030 19/ A2984 1050 M 1800 VRB/05 RMK AO2 LTG DSNT ALQDS TSE15B32 P0057 $
04850KAOH AOH20160623015515506/23/16 01:55:31  5-MIN KAOH 230655Z AUTO 16008KT 4SM VCTS RA FEW009 BKN020 OVC047 19/ A2983 1060 M 1800 170/08 RMK AO2 LTG DSNT ALQDS TSE54 P0002 T0189 $
04850KAOH AOH20160623020015806/23/16 02:00:31  5-MIN KAOH 230700Z AUTO 12012KT 3SM VCTS +RA FEW012 SCT021 OVC030 19/ A2982 1070 M 1900 130/12 RMK AO2 LTG DSNT ALQDS TSE0654 P0011 T0194 $
04850KAOH AOH20160623020516406/23/16 02:05:31  5-MIN KAOH 230705Z AUTO 11003G14KT 4SM -TSRA FEW013 BKN023 OVC029 19/ A2982 1070 M 1900 120/03G14 RMK AO2 LTG DSNT ALQDS TSE0654B05 P0011 T0194 $
04850KAOH AOH20160623021016206/23/16 02:10:31  5-MIN KAOH 230710Z AUTO 08007KT 10SM TS FEW015 BKN023 OVC035 19/ A2982 1070 M 1900 090/07 RMK AO2 LTG DSNT NE-SE RAE10 TSE0654B05 P0011 T0194 $
04850KAOH AOH20160623021516206/23/16 02:15:31  5-MIN KAOH 230715Z AUTO 07009KT 10SM TS FEW012 BKN021 OVC035 19/ A2983 1060 M 1900 070/09 RMK AO2 LTG DSNT NE-SE RAE10 TSE0654B05 P0011 T0194 $
04850KAOH AOH20160623022016206/23/16 02:20:31  5-MIN KAOH 230720Z AUTO 09009KT 10SM FEW015 BKN021 OVC035 19/ A2982 1070 M 1900 100/09 RMK AO2 LTG DSNT NE-SE RAE10 TSE0654B05E20 P0011 T0194 $
04850KAOH AOH20160623022515606/23/16 02:25:31  5-MIN KAOH 230725Z AUTO 08007KT 10SM -RA FEW013 BKN019 OVC034 19/ A2983 1060 M 1900 090/07 RMK AO2 LTG DSNT E TSE0654B05E20 P0012 T0194 $
04850KAOH AOH20160623023015606/23/16 02:30:31  5-MIN KAOH 230730Z AUTO 12009KT 9SM -RA FEW007 BKN019 OVC025 19/ A2982 1070 M 1900 120/09 RMK AO2 LTG DSNT SE TSE0654B05E20 P0013 T0194 $
04850KAOH AOH20160623023514906/23/16 02:35:31  5-MIN KAOH 230735Z AUTO 12010KT 9SM -RA FEW009 OVC019 19/ A2981 1080 M 1900 120/10 RMK AO2 LTG DSNT SE TSE0654B05E20 P0013 T0194 $
04850KAOH AOH20160623024015906/23/16 02:40:31  5-MIN KAOH 230740Z AUTO 12011KT 10SM FEW009 BKN019 OVC050 19/ A2981 1080 M 1900 130/11 RMK AO2 LTG DSNT SE RAE40 TSE0654B05E20 P0013 T0194 $
04850KAOH AOH20160623024514506/23/16 02:45:31  5-MIN KAOH 230745Z AUTO 13013KT 10SM -RA FEW009 BKN019 OVC050 19/ A2982 1070 M 1900 130/13 RMK AO2 TSE0654B05E20 P0013 T0194 $
04850KAOH AOH20160623025013906/23/16 02:50:31  5-MIN KAOH 230750Z AUTO 13013KT 10SM -RA FEW009 SCT018 OVC050 19/ A2981 1080 M 1900 130/13 RMK AO2 TSE0654B05E20 P0013 $
04850KAOH AOH20160623025513106/23/16 02:55:31  5-MIN KAOH 230755Z AUTO 13015KT 10SM -RA FEW009 SCT018 OVC050 19/ A2981 1080 M 1900 140/15 RMK AO2 P0000 T0194 $
04850KAOH AOH20160623030012806/23/16 03:00:31  5-MIN KAOH 230800Z AUTO 13013KT 10SM FEW016 OVC050 19/ A2981 1080 M 1900 130/13 RMK AO2 RAE0758 P0000 T0194 $
04850KAOH AOH20160623030514006/23/16 03:05:31  5-MIN KAOH 230805Z AUTO 14012KT 10SM FEW020 OVC050 19/ A2981 1080 M 1900 150/12 RMK AO2 LTG DSNT SW RAE0758 P0000 T0194 $
04850KAOH AOH20160623031013906/23/16 03:10:31  5-MIN KAOH 230810Z AUTO 14015KT 10SM OVC050 19/ A2981 1080 M 1900 150/15 RMK AO2 LTG DSNT S AND SW RAE0758 P0000 T0194 $
04850KAOH AOH20160623031513506/23/16 03:15:31  5-MIN KAOH 230815Z AUTO 14012KT 10SM OVC050 19/ A2981 1080 M 1900 150/12 RMK AO2 LTG DSNT E-SW RAE0758 P0000 T0194 $
04850KAOH AOH20160623032013806/23/16 03:20:31  5-MIN KAOH 230820Z AUTO 14011KT 10SM OVC050 19/ A2981 1080 M 1900 140/11 RMK AO2 LTG DSNT E AND S RAE0758 P0000 T0194 $
04850KAOH AOH20160623032513406/23/16 03:25:31  5-MIN KAOH 230825Z AUTO 15010KT 10SM OVC050 19/ A2982 1070 M 1900 150/10 RMK AO2 LTG DSNT E-S RAE0758 P0000 T0194 $
04850KAOH AOH20160623033013406/23/16 03:30:31  5-MIN KAOH 230830Z AUTO 14012KT 10SM OVC049 19/ A2981 1080 M 1900 150/12 RMK AO2 LTG DSNT E-S RAE0758 P0000 T0194 $
04850KAOH AOH20160623033513406/23/16 03:35:31  5-MIN KAOH 230835Z AUTO 14013KT 10SM OVC047 19/ A2981 1080 M 1900 150/13 RMK AO2 LTG DSNT E-S RAE0758 P0000 T0194 $
04850KAOH AOH20160623034013906/23/16 03:40:31  5-MIN KAOH 230840Z AUTO 15012KT 10SM OVC045 19/ A2981 1080 M 1900 160/12 RMK AO2 LTG DSNT E AND SE RAE0758 P0000 T0194 $
04850KAOH AOH20160623034513906/23/16 03:45:31  5-MIN KAOH 230845Z AUTO 15009KT 10SM OVC045 19/ A2980 1090 M 1900 150/09 RMK AO2 LTG DSNT E AND SE RAE0758 P0000 T0194 $
04850KAOH AOH20160623035014006/23/16 03:50:31  5-MIN KAOH 230850Z AUTO 15010KT 10SM OVC043 19/ A2981 1080 M 1900 160/10 RMK AO2 RAE0758 SLP087 P0000 60071 T0194 55008 $
04850KAOH AOH20160623035511806/23/16 03:55:31  5-MIN KAOH 230855Z AUTO 15009KT 10SM OVC041 19/ A2981 1080 M 1900 150/09 RMK AO2 LTG DSNT E T0194 $
04850KAOH AOH20160623040011806/23/16 04:00:31  5-MIN KAOH 230900Z AUTO 15009KT 10SM OVC041 19/ A2982 1070 M 1900 150/09 RMK AO2 LTG DSNT E T0194 $
04850KAOH AOH20160623040511806/23/16 04:05:31  5-MIN KAOH 230905Z AUTO 15009KT 10SM OVC041 20/ A2982 1070 M 1900 150/09 RMK AO2 LTG DSNT E T0200 $
04850KAOH AOH20160623041010706/23/16 04:10:31  5-MIN KAOH 230910Z AUTO 15010KT 10SM OVC039 20/ A2982 1070 M 1900 160/10 RMK AO2 T0200 $
04850KAOH AOH20160623041510706/23/16 04:15:31  5-MIN KAOH 230915Z AUTO 15010KT 10SM OVC039 20/ A2981 1080 M 1900 160/10 RMK AO2 T0200 $
04850KAOH AOH20160623042010706/23/16 04:20:31  5-MIN KAOH 230920Z AUTO 16010KT 10SM OVC039 20/ A2981 1080 M 1900 160/10 RMK AO2 T0200 $
04850KAOH AOH20160623042510706/23/16 04:25:31  5-MIN KAOH 230925Z AUTO 15009KT 10SM OVC039 20/ A2981 1080 M 2000 160/09 RMK AO2 T0200 $
04850KAOH AOH20160623043010706/23/16 04:30:31  5-MIN KAOH 230930Z AUTO 15009KT 10SM OVC037 20/ A2981 1080 M 2000 160/09 RMK AO2 T0200 $
04850KAOH AOH20160623043510706/23/16 04:35:31  5-MIN KAOH 230935Z AUTO 16009KT 10SM OVC037 20/ A2982 1070 M 1900 160/09 RMK AO2 T0200 $
04850KAOH AOH20160623044010706/23/16 04:40:31  5-MIN KAOH 230940Z AUTO 16009KT 10SM OVC037 20/ A2982 1070 M 1900 170/09 RMK AO2 T0200 $
04850KAOH AOH20160623044510706/23/16 04:45:31  5-MIN KAOH 230945Z AUTO 16010KT 10SM OVC035 20/ A2981 1080 M 2000 160/10 RMK AO2 T0200 $
04850KAOH AOH20160623045011406/23/16 04:50:31  5-MIN KAOH 230950Z AUTO 16008KT 10SM OVC035 20/ A2981 1080 M 1900 170/08 RMK AO2 SLP088 T0200 $
04850KAOH AOH20160623045510706/23/16 04:55:31  5-MIN KAOH 230955Z AUTO 16009KT 10SM OVC035 21/ A2981 1080 M 2000 160/09 RMK AO2 T0206 $
04850KAOH AOH20160623050011406/23/16 05:00:31  5-MIN KAOH 231000Z AUTO 17010KT 10SM BKN037 OVC055 21/ A2981 1080 M 2000 170/10 RMK AO2 T0206 $
04850KAOH AOH20160623050511406/23/16 05:05:31  5-MIN KAOH 231005Z AUTO 17008KT 10SM BKN035 OVC055 21/ A2981 1080 M 2000 170/08 RMK AO2 T0206 $
04850KAOH AOH20160623051010706/23/16 05:10:31  5-MIN KAOH 231010Z AUTO 17008KT 10SM OVC035 21/ A2981 1080 M 2000 170/08 RMK AO2 T0206 $
04850KAOH AOH20160623051511406/23/16 05:15:31  5-MIN KAOH 231015Z AUTO 17008KT 10SM BKN032 OVC039 21/ A2982 1070 M 2000 180/08 RMK AO2 T0206 $
04850KAOH AOH20160623052011406/23/16 05:20:31  5-MIN KAOH 231020Z AUTO 17008KT 10SM BKN030 OVC039 21/ A2981 1080 M 2000 180/08 RMK AO2 T0206 $
04850KAOH AOH20160623052511406/23/16 05:25:31  5-MIN KAOH 231025Z AUTO 17007KT 10SM BKN032 OVC041 21/ A2981 1080 M 2000 180/07 RMK AO2 T0206 $
04850KAOH AOH20160623053011406/23/16 05:30:31  5-MIN KAOH 231030Z AUTO 18008KT 10SM BKN032 OVC041 21/ A2982 1070 M 2000 190/08 RMK AO2 T0206 $
04850KAOH AOH20160623053511406/23/16 05:35:31  5-MIN KAOH 231035Z AUTO 17008KT 10SM BKN030 OVC041 21/ A2982 1070 M 2000 180/08 RMK AO2 T0206 $
04850KAOH AOH20160623054011406/23/16 05:40:31  5-MIN KAOH 231040Z AUTO 18008KT 10SM SCT030 OVC041 21/ A2981 1080 M 2100 190/08 RMK AO2 T0211 $
04850KAOH AOH20160623054511406/23/16 05:45:31  5-MIN KAOH 231045Z AUTO 18009KT 10SM SCT030 OVC040 21/ A2982 1070 M 2100 190/09 RMK AO2 T0211 $
04850KAOH AOH20160623055011406/23/16 05:50:31  5-MIN KAOH 231050Z AUTO 17008KT 10SM OVC037 21/ A2982 1070 M 2100 180/08 RMK AO2 SLP089 T0211 $
04850KAOH AOH20160623055511406/23/16 05:55:31  5-MIN KAOH 231055Z AUTO 18008KT 10SM SCT032 OVC039 21/ A2981 1080 M 2100 180/08 RMK AO2 T0211 $
04850KAOH AOH20160623060011406/23/16 06:00:31  5-MIN KAOH 231100Z AUTO 18007KT 10SM BKN037 OVC060 21/ A2982 1070 M 2100 190/07 RMK AO2 T0211 $
04850KAOH AOH20160623060511406/23/16 06:05:31  5-MIN KAOH 231105Z AUTO 18007KT 10SM BKN037 OVC055 21/ A2982 1070 M 2100 190/07 RMK AO2 T0211 $
04850KAOH AOH20160623061011406/23/16 06:10:31  5-MIN KAOH 231110Z AUTO 19006KT 10SM SCT037 OVC055 21/ A2982 1070 M 2100 200/06 RMK AO2 T0211 $
04850KAOH AOH20160623061511406/23/16 06:15:31  5-MIN KAOH 231115Z AUTO 19006KT 10SM FEW037 OVC050 21/ A2982 1070 M 2100 200/06 RMK AO2 T0211 $
04850KAOH AOH20160623062011406/23/16 06:20:31  5-MIN KAOH 231120Z AUTO 19006KT 10SM FEW037 OVC050 22/ A2982 1070 M 2100 200/06 RMK AO2 T0217 $
04850KAOH AOH20160623062510706/23/16 06:25:31  5-MIN KAOH 231125Z AUTO 20005KT 10SM OVC050 22/ A2982 1070 M 2100 200/05 RMK AO2 T0217 $
04850KAOH AOH20160623063010706/23/16 06:30:31  5-MIN KAOH 231130Z AUTO 20006KT 10SM OVC050 22/ A2982 1070 M 2100 210/06 RMK AO2 T0217 $
04850KAOH AOH20160623063510706/23/16 06:35:31  5-MIN KAOH 231135Z AUTO 21006KT 10SM OVC050 22/ A2982 1070 M 2100 220/06 RMK AO2 T0217 $
04850KAOH AOH20160623064010706/23/16 06:40:31  5-MIN KAOH 231140Z AUTO 21007KT 10SM OVC050 22/ A2982 1070 M 2100 220/07 RMK AO2 T0217 $
04850KAOH AOH20160623064510706/23/16 06:45:31  5-MIN KAOH 231145Z AUTO 21007KT 10SM OVC050 22/ A2982 1070 M 2100 220/07 RMK AO2 T0217 $
04850KAOH AOH20160623065014406/23/16 06:50:31  5-MIN KAOH 231150Z AUTO 20006KT 10SM OVC050 22/ A2982 1070 M 2100 210/06 RMK AO2 SLP090 60071 70273 T0217 10217 20189 56019 $
04850KAOH AOH20160623065511406/23/16 06:55:31  5-MIN KAOH 231155Z AUTO 22006KT 10SM BKN047 OVC055 22/ A2982 1070 M 2200 220/06 RMK AO2 T0222 $
04850KAOH AOH20160623070010706/23/16 07:00:31  5-MIN KAOH 231200Z AUTO 23007KT 10SM OVC045 22/ A2982 1070 M 2200 230/07 RMK AO2 T0222 $
04850KAOH AOH20160623070511406/23/16 07:05:31  5-MIN KAOH 231205Z AUTO 22007KT 10SM BKN043 OVC050 22/ A2982 1070 M 2200 230/07 RMK AO2 T0222 $
04850KAOH AOH20160623071011406/23/16 07:10:31  5-MIN KAOH 231210Z AUTO 22007KT 10SM BKN040 OVC050 22/ A2982 1070 M 2200 220/07 RMK AO2 T0222 $
04850KAOH AOH20160623071511406/23/16 07:15:31  5-MIN KAOH 231215Z AUTO 21007KT 10SM BKN040 OVC048 22/ A2982 1070 M 2200 220/07 RMK AO2 T0222 $
04850KAOH AOH20160623072010706/23/16 07:20:31  5-MIN KAOH 231220Z AUTO 21006KT 10SM OVC038 22/ A2982 1070 M 2200 220/06 RMK AO2 T0222 $
04850KAOH AOH20160623072510706/23/16 07:25:31  5-MIN KAOH 231225Z AUTO 21008KT 10SM OVC038 22/ A2982 1070 M 2200 220/08 RMK AO2 T0222 $
04850KAOH AOH20160623073010706/23/16 07:30:31  5-MIN KAOH 231230Z AUTO 22007KT 10SM OVC036 22/ A2982 1070 M 2200 220/07 RMK AO2 T0222 $
04850KAOH AOH20160623073510706/23/16 07:35:31  5-MIN KAOH 231235Z AUTO 21006KT 10SM OVC036 22/ A2982 1070 M 2200 220/06 RMK AO2 T0222 $
04850KAOH AOH20160623074010706/23/16 07:40:31  5-MIN KAOH 231240Z AUTO 22006KT 10SM OVC036 22/ A2982 1070 M 2200 220/06 RMK AO2 T0222 $
04850KAOH AOH20160623074511506/23/16 07:45:31  5-MIN KAOH 231245Z AUTO 22006KT 10SM OVC036 22/22 A2982 1070 100 2200 230/06 RMK AO2 T02220222 $
04850KAOH AOH20160623075012206/23/16 07:50:31  5-MIN KAOH 231250Z AUTO 22005KT 10SM OVC033 22/22 A2982 1070 100 2200 220/05 RMK AO2 SLP092 T02220222 $
04850KAOH AOH20160623075511406/23/16 07:55:31  5-MIN KAOH 231255Z AUTO 22006KT 10SM OVC033 22/22 A2982 1070 97 2200 230/06 RMK AO2 T02220217 $
04850KAOH AOH20160623080011406/23/16 08:00:31  5-MIN KAOH 231300Z AUTO 22006KT 10SM OVC033 22/21 A2982 1070 93 2200 220/06 RMK AO2 T02220211 $
04850KAOH AOH20160623080511406/23/16 08:05:31  5-MIN KAOH 231305Z AUTO 22005KT 10SM OVC031 22/21 A2983 1060 93 2200 230/05 RMK AO2 T02220211 $
04850KAOH AOH20160623081011406/23/16 08:10:31  5-MIN KAOH 231310Z AUTO 22006KT 10SM OVC031 22/21 A2983 1060 93 2200 220/06 RMK AO2 T02220211 $
04850KAOH AOH20160623081511406/23/16 08:15:31  5-MIN KAOH 231315Z AUTO 22005KT 10SM OVC030 22/21 A2983 1060 93 2200 230/05 RMK AO2 T02220211 $
04850KAOH AOH20160623082011406/23/16 08:20:31  5-MIN KAOH 231320Z AUTO 21005KT 10SM OVC030 22/21 A2983 1060 93 2200 220/05 RMK AO2 T02220211 $
04850KAOH AOH20160623082511406/23/16 08:25:31  5-MIN KAOH 231325Z AUTO 22005KT 10SM OVC028 22/21 A2983 1060 93 2200 220/05 RMK AO2 T02220211 $
04850KAOH AOH20160623083011406/23/16 08:30:31  5-MIN KAOH 231330Z AUTO 21005KT 10SM OVC028 23/21 A2983 1060 90 2200 220/05 RMK AO2 T02280211 $
04850KAOH AOH20160623083511406/23/16 08:35:31  5-MIN KAOH 231335Z AUTO 22005KT 10SM OVC028 23/22 A2983 1060 93 2200 230/05 RMK AO2 T02280217 $
04850KAOH AOH20160623084011406/23/16 08:40:31  5-MIN KAOH 231340Z AUTO 21005KT 10SM OVC028 23/22 A2983 1060 93 2200 220/05 RMK AO2 T02280217 $
04850KAOH AOH20160623084511406/23/16 08:45:31  5-MIN KAOH 231345Z AUTO 21006KT 10SM OVC027 23/22 A2983 1060 93 2200 210/06 RMK AO2 T02280217 $
04850KAOH AOH20160623085012106/23/16 08:50:31  5-MIN KAOH 231350Z AUTO 20006KT 10SM OVC027 23/22 A2983 1060 93 2200 210/06 RMK AO2 SLP096 T02280217 $
04850KAOH AOH20160623085511406/23/16 08:55:31  5-MIN KAOH 231355Z AUTO 20005KT 10SM OVC027 23/22 A2983 1060 93 2200 210/05 RMK AO2 T02280217 $
04850KAOH AOH20160623090011406/23/16 09:00:31  5-MIN KAOH 231400Z AUTO 20006KT 10SM OVC026 23/22 A2983 1060 93 2200 210/06 RMK AO2 T02280217 $
04850KAOH AOH20160623090511406/23/16 09:05:31  5-MIN KAOH 231405Z AUTO VRB04KT 10SM OVC026 23/22 A2983 1060 93 2200 VRB/04 RMK AO2 T02280217 $
04850KAOH AOH20160623091011406/23/16 09:10:31  5-MIN KAOH 231410Z AUTO 20006KT 10SM OVC025 23/22 A2983 1060 93 2200 210/06 RMK AO2 T02280217 $
04850KAOH AOH20160623091511406/23/16 09:15:31  5-MIN KAOH 231415Z AUTO 20005KT 10SM OVC025 23/22 A2983 1060 93 2200 210/05 RMK AO2 T02280217 $
04850KAOH AOH20160623092011406/23/16 09:20:31  5-MIN KAOH 231420Z AUTO 20004KT 10SM OVC025 23/22 A2983 1060 93 2200 210/04 RMK AO2 T02280217 $
04850KAOH AOH20160623092511406/23/16 09:25:31  5-MIN KAOH 231425Z AUTO 21005KT 10SM OVC025 23/22 A2983 1060 90 2300 210/05 RMK AO2 T02330217 $
04850KAOH AOH20160623093011406/23/16 09:30:31  5-MIN KAOH 231430Z AUTO 21003KT 10SM OVC025 23/22 A2983 1060 90 2300 220/03 RMK AO2 T02330217 $
04850KAOH AOH20160623093511406/23/16 09:35:31  5-MIN KAOH 231435Z AUTO VRB03KT 10SM OVC025 23/22 A2983 1060 90 2300 VRB/03 RMK AO2 T02330217 $
04850KAOH AOH20160623094011406/23/16 09:40:31  5-MIN KAOH 231440Z AUTO 22004KT 10SM OVC025 23/22 A2983 1060 90 2300 220/04 RMK AO2 T02330217 $
04850KAOH AOH20160623094511406/23/16 09:45:31  5-MIN KAOH 231445Z AUTO 23003KT 10SM OVC023 23/22 A2984 1060 90 2300 240/03 RMK AO2 T02330217 $
04850KAOH AOH20160623095012706/23/16 09:50:31  5-MIN KAOH 231450Z AUTO 26003KT 10SM OVC023 23/22 A2984 1060 90 2300 260/03 RMK AO2 SLP096 T02330217 53003 $
04850KAOH AOH20160623095511406/23/16 09:55:31  5-MIN KAOH 231455Z AUTO 25003KT 10SM OVC023 23/22 A2984 1050 90 2300 250/03 RMK AO2 T02330217 $
04850KAOH AOH20160623100011406/23/16 10:00:31  5-MIN KAOH 231500Z AUTO 23004KT 10SM OVC023 23/22 A2984 1060 90 2300 240/04 RMK AO2 T02330217 $
04850KAOH AOH20160623100511406/23/16 10:05:31  5-MIN KAOH 231505Z AUTO 25003KT 10SM OVC022 24/22 A2984 1060 90 2400 260/03 RMK AO2 T02390222 $
04850KAOH AOH20160623101011406/23/16 10:10:31  5-MIN KAOH 231510Z AUTO 27004KT 10SM OVC022 24/22 A2984 1050 90 2400 280/04 RMK AO2 T02390222 $
04850KAOH AOH20160623101511406/23/16 10:15:31  5-MIN KAOH 231515Z AUTO 27004KT 10SM OVC022 24/22 A2984 1050 90 2400 270/04 RMK AO2 T02390222 $
04850KAOH AOH20160623102011206/23/16 10:20:31  5-MIN KAOH 231520Z AUTO 26004KT 10SM OVC022 24/22 A2984 1060 90 2400 270/04 RMK AO2 T02390222
04850KAOH AOH20160623102511206/23/16 10:25:31  5-MIN KAOH 231525Z AUTO 27003KT 10SM OVC021 24/22 A2984 1050 87 2400 280/03 RMK AO2 T02440222
04850KAOH AOH20160623103011206/23/16 10:30:31  5-MIN KAOH 231530Z AUTO 29004KT 10SM OVC021 24/22 A2984 1050 87 2400 290/04 RMK AO2 T02440222
04850KAOH AOH20160623103511206/23/16 10:35:31  5-MIN KAOH 231535Z AUTO 30004KT 10SM OVC019 24/22 A2984 1050 87 2400 310/04 RMK AO2 T02440222
04850KAOH AOH20160623104011206/23/16 10:40:31  5-MIN KAOH 231540Z AUTO 33004KT 10SM OVC019 24/22 A2984 1050 87 2400 330/04 RMK AO2 T02440222
04850KAOH AOH20160623104511206/23/16 10:45:31  5-MIN KAOH 231545Z AUTO 33004KT 10SM OVC019 24/22 A2984 1050 87 2400 330/04 RMK AO2 T02440222
04850KAOH AOH20160623105011906/23/16 10:50:31  5-MIN KAOH 231550Z AUTO 31004KT 10SM OVC019 24/22 A2984 1050 87 2400 320/04 RMK AO2 SLP097 T02440222
04850KAOH AOH20160623105511206/23/16 10:55:31  5-MIN KAOH 231555Z AUTO 33004KT 10SM OVC018 25/23 A2984 1050 87 2500 330/04 RMK AO2 T02500228
04850KAOH AOH20160623110011906/23/16 11:00:31  5-MIN KAOH 231600Z AUTO 30005KT 10SM BKN018 OVC024 25/22 A2984 1050 84 2500 310/05 RMK AO2 T02500222
04850KAOH AOH20160623110511906/23/16 11:05:31  5-MIN KAOH 231605Z AUTO 34006KT 10SM BKN018 OVC024 25/23 A2984 1050 87 2500 350/06 RMK AO2 T02500228
04850KAOH AOH20160623111011206/23/16 11:10:31  5-MIN KAOH 231610Z AUTO 33006KT 10SM OVC018 25/22 A2985 1050 84 2500 340/06 RMK AO2 T02500222
04850KAOH AOH20160623111511906/23/16 11:15:31  5-MIN KAOH 231615Z AUTO 33007KT 10SM BKN018 OVC023 25/22 A2985 1050 84 2500 330/07 RMK AO2 T02500222
04850KAOH AOH20160623112011906/23/16 11:20:31  5-MIN KAOH 231620Z AUTO 33008KT 10SM BKN018 OVC023 25/23 A2985 1040 87 2500 330/08 RMK AO2 T02500228
04850KAOH AOH20160623112512606/23/16 11:25:31  5-MIN KAOH 231625Z AUTO 33007KT 10SM BKN016 BKN023 OVC030 25/23 A2985 1040 87 2500 340/07 RMK AO2 T02500228
04850KAOH AOH20160623113012606/23/16 11:30:31  5-MIN KAOH 231630Z AUTO 30008KT 10SM BKN016 BKN023 OVC030 26/23 A2985 1040 84 2500 310/08 RMK AO2 T02560228
04850KAOH AOH20160623113511906/23/16 11:35:31  5-MIN KAOH 231635Z AUTO 33007KT 10SM BKN016 OVC027 25/22 A2985 1040 84 2500 330/07 RMK AO2 T02500222
04850KAOH AOH20160623114011906/23/16 11:40:31  5-MIN KAOH 231640Z AUTO 34007KT 10SM BKN016 OVC023 25/22 A2985 1040 84 2500 340/07 RMK AO2 T02500222
04850KAOH AOH20160623114511906/23/16 11:45:31  5-MIN KAOH 231645Z AUTO 32007KT 10SM BKN016 OVC023 25/23 A2985 1040 87 2500 330/07 RMK AO2 T02500228
04850KAOH AOH20160623115012606/23/16 11:50:31  5-MIN KAOH 231650Z AUTO 31008KT 10SM BKN016 OVC025 25/22 A2985 1040 84 2500 320/08 RMK AO2 SLP102 T02500222
04850KAOH AOH20160623115511206/23/16 11:55:31  5-MIN KAOH 231655Z AUTO 33007KT 10SM OVC017 25/22 A2985 1040 84 2500 330/07 RMK AO2 T02500222
04850KAOH AOH20160623120011206/23/16 12:00:31  5-MIN KAOH 231700Z AUTO 33008KT 10SM OVC017 24/22 A2985 1040 87 2400 340/08 RMK AO2 T02440222
04850KAOH AOH20160623120511206/23/16 12:05:31  5-MIN KAOH 231705Z AUTO 33007KT 10SM OVC017 25/22 A2985 1040 84 2500 330/07 RMK AO2 T02500222
04850KAOH AOH20160623121011206/23/16 12:10:31  5-MIN KAOH 231710Z AUTO 32006KT 10SM OVC017 25/22 A2985 1040 84 2500 320/06 RMK AO2 T02500222
04850KAOH AOH20160623121511206/23/16 12:15:31  5-MIN KAOH 231715Z AUTO 33007KT 10SM OVC019 26/23 A2985 1040 84 2500 330/07 RMK AO2 T02560228
04850KAOH AOH20160623122011206/23/16 12:20:31  5-MIN KAOH 231720Z AUTO 31008KT 10SM OVC019 25/23 A2985 1040 87 2500 320/08 RMK AO2 T02500228
04850KAOH AOH20160623122511906/23/16 12:25:31  5-MIN KAOH 231725Z AUTO 32008KT 10SM BKN019 OVC030 25/23 A2985 1040 87 2500 330/08 RMK AO2 T02500228
04850KAOH AOH20160623123012606/23/16 12:30:31  5-MIN KAOH 231730Z AUTO 34008KT 10SM FEW016 BKN021 OVC032 26/23 A2985 1040 84 2500 350/08 RMK AO2 T02560228
04850KAOH AOH20160623123512606/23/16 12:35:31  5-MIN KAOH 231735Z AUTO 35008KT 10SM FEW016 BKN021 OVC032 26/23 A2985 1040 84 2500 360/08 RMK AO2 T02560228
04850KAOH AOH20160623124012606/23/16 12:40:31  5-MIN KAOH 231740Z AUTO 34008KT 10SM SCT016 BKN021 BKN032 26/23 A2985 1040 84 2600 350/08 RMK AO2 T02610233
04850KAOH AOH20160623124512606/23/16 12:45:31  5-MIN KAOH 231745Z AUTO 33008KT 10SM SCT016 BKN021 BKN032 26/23 A2985 1040 87 2500 340/08 RMK AO2 T02560233
04850KAOH AOH20160623125010906/23/16 12:50:31  5-MIN KAOH 231750Z AUTO 32009KT 10SM BKN014 BKN032 26/23 A2986 1040 84 2500 330/09 RMK AO2
04850KAOH AOH20160623125512606/23/16 12:55:31  5-MIN KAOH 231755Z AUTO 34007KT 10SM BKN016 BKN021 BKN032 26/23 A2986 1040 84 2500 340/07 RMK AO2 T02560228
04850KAOH AOH20160623130011906/23/16 13:00:31  5-MIN KAOH 231800Z AUTO 32010KT 10SM BKN016 BKN021 26/23 A2986 1040 84 2500 330/10 RMK AO2 T02560228
04850KAOH AOH20160623130511906/23/16 13:05:31  5-MIN KAOH 231805Z AUTO 34010KT 10SM BKN016 BKN021 25/23 A2986 1030 87 2500 350/10 RMK AO2 T02500228
04850KAOH AOH20160623131011906/23/16 13:10:31  5-MIN KAOH 231810Z AUTO 36011KT 10SM BKN016 OVC023 25/23 A2986 1030 87 2500 010/11 RMK AO2 T02500228
04850KAOH AOH20160623131511906/23/16 13:15:31  5-MIN KAOH 231815Z AUTO 36012KT 10SM FEW012 OVC020 24/23 A2986 1030 90 2400 360/12 RMK AO2 T02440228
04850KAOH AOH20160623132012606/23/16 13:20:31  5-MIN KAOH 231820Z AUTO 36011KT 10SM SCT012 SCT017 OVC022 24/23 A2986 1030 90 2400 010/11 RMK AO2 T02440228
04850KAOH AOH20160623132511906/23/16 13:25:31  5-MIN KAOH 231825Z AUTO 01009KT 10SM SCT012 OVC022 24/22 A2986 1030 90 2300 010/09 RMK AO2 T02390222
04850KAOH AOH20160623133011906/23/16 13:30:31  5-MIN KAOH 231830Z AUTO 36009KT 10SM BKN012 OVC022 24/22 A2986 1030 87 2400 010/09 RMK AO2 T02440222
04850KAOH AOH20160623133511906/23/16 13:35:31  5-MIN KAOH 231835Z AUTO 36011KT 10SM BKN012 OVC022 24/23 A2986 1030 90 2400 360/11 RMK AO2 T02440228
04850KAOH AOH20160623134012606/23/16 13:40:31  5-MIN KAOH 231840Z AUTO 01010KT 10SM BKN011 BKN017 OVC022 24/23 A2986 1030 90 2400 010/10 RMK AO2 T02440228
04850KAOH AOH20160623134511906/23/16 13:45:31  5-MIN KAOH 231845Z AUTO 36010KT 10SM BKN011 OVC017 25/23 A2986 1030 87 2500 360/10 RMK AO2 T02500228
04850KAOH AOH20160623135012606/23/16 13:50:31  5-MIN KAOH 231850Z AUTO 35008KT 10SM BKN011 OVC018 24/23 A2986 1030 90 2400 350/08 RMK AO2 SLP106 T02440228
04850KAOH AOH20160623135511906/23/16 13:55:31  5-MIN KAOH 231855Z AUTO 33008KT 10SM BKN011 BKN016 25/23 A2987 1030 87 2500 340/08 RMK AO2 T02500228
04850KAOH AOH20160623140011906/23/16 14:00:31  5-MIN KAOH 231900Z AUTO 31009KT 10SM BKN011 BKN018 25/23 A2987 1030 87 2500 320/09 RMK AO2 T02500228
04850KAOH AOH20160623140511906/23/16 14:05:31  5-MIN KAOH 231905Z AUTO 32011KT 10SM BKN011 BKN018 25/23 A2987 1030 87 2500 330/11 RMK AO2 T02500228
04850KAOH AOH20160623141011906/23/16 14:10:31  5-MIN KAOH 231910Z AUTO 33008KT 10SM BKN012 BKN018 24/22 A2987 1030 87 2400 330/08 RMK AO2 T02440222
04850KAOH AOH20160623141511906/23/16 14:15:31  5-MIN KAOH 231915Z AUTO 34010KT 10SM BKN012 BKN018 24/22 A2987 1020 87 2400 340/10 RMK AO2 T02440222
04850KAOH AOH20160623142011206/23/16 14:20:31  5-MIN KAOH 231920Z AUTO 35011KT 10SM BKN012 24/22 A2987 1020 90 2300 360/11 RMK AO2 T02390222
04850KAOH AOH20160623142511206/23/16 14:25:31  5-MIN KAOH 231925Z AUTO 36010KT 10SM BKN012 24/22 A2988 1020 87 2400 010/10 RMK AO2 T02440222
04850KAOH AOH20160623143011906/23/16 14:30:31  5-MIN KAOH 231930Z AUTO 35008KT 10SM BKN012 OVC017 24/22 A2988 1020 87 2400 360/08 RMK AO2 T02440222
04850KAOH AOH20160623143511906/23/16 14:35:31  5-MIN KAOH 231935Z AUTO 35008KT 10SM BKN012 OVC017 25/22 A2987 1020 84 2400 350/08 RMK AO2 T02500222
04850KAOH AOH20160623144011206/23/16 14:40:31  5-MIN KAOH 231940Z AUTO 35007KT 10SM BKN012 25/22 A2987 1020 84 2400 360/07 RMK AO2 T02500222
04850KAOH AOH20160623144511206/23/16 14:45:31  5-MIN KAOH 231945Z AUTO 36009KT 10SM BKN012 24/22 A2987 1020 87 2400 010/09 RMK AO2 T02440222
04850KAOH AOH20160623145012606/23/16 14:50:31  5-MIN KAOH 231950Z AUTO 35010KT 10SM BKN012 BKN020 24/22 A2987 1020 87 2400 350/10 RMK AO2 SLP110 T02440222
04850KAOH AOH20160623145511906/23/16 14:55:31  5-MIN KAOH 231955Z AUTO 35009KT 10SM SCT014 BKN018 24/22 A2987 1020 87 2400 360/09 RMK AO2 T02440222
04850KAOH AOH20160623150011206/23/16 15:00:31  5-MIN KAOH 232000Z AUTO 35008KT 10SM BKN016 24/22 A2987 1020 87 2400 360/08 RMK AO2 T02440222
04850KAOH AOH20160623150511206/23/16 15:05:31  5-MIN KAOH 232005Z AUTO 34010KT 10SM BKN016 25/22 A2987 1020 84 2400 350/10 RMK AO2 T02500222
04850KAOH AOH20160623151011906/23/16 15:10:31  5-MIN KAOH 232010Z AUTO 33009KT 10SM BKN016 BKN021 26/22 A2987 1020 81 2500 340/09 RMK AO2 T02560222
04850KAOH AOH20160623151511906/23/16 15:15:31  5-MIN KAOH 232015Z AUTO 35010KT 10SM BKN016 BKN021 26/23 A2987 1020 84 2500 360/10 RMK AO2 T02560228
04850KAOH AOH20160623152011906/23/16 15:20:31  5-MIN KAOH 232020Z AUTO 34008KT 10SM BKN016 BKN021 25/22 A2987 1020 84 2400 340/08 RMK AO2 T02500222
04850KAOH AOH20160623152511906/23/16 15:25:31  5-MIN KAOH 232025Z AUTO 36010KT 10SM BKN016 BKN021 25/22 A2987 1020 84 2400 360/10 RMK AO2 T02500222
04850KAOH AOH20160623153011906/23/16 15:30:31  5-MIN KAOH 232030Z AUTO 34012KT 10SM BKN018 BKN023 26/22 A2987 1020 81 2500 350/12 RMK AO2 T02560222
04850KAOH AOH20160623153511206/23/16 15:35:31  5-MIN KAOH 232035Z AUTO 34011KT 10SM BKN020 26/22 A2987 1020 81 2500 350/11 RMK AO2 T02560222
04850KAOH AOH20160623154011206/23/16 15:40:31  5-MIN KAOH 232040Z AUTO 36012KT 10SM BKN020 24/22 A2987 1020 84 2400 010/12 RMK AO2 T02440217
04850KAOH AOH20160623154511906/23/16 15:45:31  5-MIN KAOH 232045Z AUTO 35009KT 10SM BKN020 OVC026 25/22 A2987 1020 81 2500 360/09 RMK AO2 T02500217
04850KAOH AOH20160623155013906/23/16 15:50:31  5-MIN KAOH 232050Z AUTO 36011KT 10SM SCT015 BKN021 OVC026 24/22 A2987 1020 84 2400 010/11 RMK AO2 SLP109 T02440217 53007
04850KAOH AOH20160623155511906/23/16 15:55:31  5-MIN KAOH 232055Z AUTO 36012KT 10SM SCT015 BKN021 24/22 A2987 1020 84 2400 360/12 RMK AO2 T02440217
04850KAOH AOH20160623160011806/23/16 16:00:31  5-MIN KAOH 232100Z AUTO 34010KT 9SM SCT015 OVC021 24/22 A2987 1020 84 2400 350/10 RMK AO2 T02440217
04850KAOH AOH20160623160511806/23/16 16:05:31  5-MIN KAOH 232105Z AUTO 36010KT 8SM SCT015 OVC021 24/22 A2987 1020 84 2400 010/10 RMK AO2 T02440217
04850KAOH AOH20160623161011806/23/16 16:10:31  5-MIN KAOH 232110Z AUTO 36010KT 8SM SCT015 OVC021 24/22 A2987 1020 84 2400 360/10 RMK AO2 T02440217
04850KAOH AOH20160623161512306/23/16 16:15:31  5-MIN KAOH 232115Z AUTO 35009KT 9SM OVC021 24/22 A2987 1020 84 2400 350/09 RMK AO2 CIG 014V025 T02440217
04850KAOH AOH20160623162011206/23/16 16:20:31  5-MIN KAOH 232120Z AUTO 36010KT 10SM OVC019 24/22 A2987 1020 84 2400 010/10 RMK AO2 T02440217
04850KAOH AOH20160623162511906/23/16 16:25:31  5-MIN KAOH 232125Z AUTO 35009KT 10SM BKN019 OVC025 24/21 A2987 1020 81 2400 360/09 RMK AO2 T02440211
04850KAOH AOH20160623163011906/23/16 16:30:31  5-MIN KAOH 232130Z AUTO 36009KT 10SM BKN022 OVC027 24/22 A2987 1020 84 2400 010/09 RMK AO2 T02440217
04850KAOH AOH20160623163511906/23/16 16:35:31  5-MIN KAOH 232135Z AUTO 36011KT 10SM SCT018 OVC026 24/21 A2987 1020 81 2400 360/11 RMK AO2 T02440211
04850KAOH AOH20160623164011906/23/16 16:40:31  5-MIN KAOH 232140Z AUTO 01009KT 10SM SCT018 OVC024 24/22 A2987 1020 84 2400 020/09 RMK AO2 T02440217
04850KAOH AOH20160623164511906/23/16 16:45:31  5-MIN KAOH 232145Z AUTO 02010KT 10SM SCT018 OVC024 25/22 A2987 1020 81 2500 030/10 RMK AO2 T02500217
04850KAOH AOH20160623165013306/23/16 16:50:31  5-MIN KAOH 232150Z AUTO 01010KT 10SM FEW016 BKN024 OVC030 24/21 A2987 1020 81 2400 020/10 RMK AO2 SLP110 T02440211
04850KAOH AOH20160623165511906/23/16 16:55:31  5-MIN KAOH 232155Z AUTO 36010KT 10SM FEW016 OVC025 24/21 A2987 1020 84 2300 010/10 RMK AO2 T02390211
04850KAOH AOH20160623170011906/23/16 17:00:31  5-MIN KAOH 232200Z AUTO 02010KT 10SM SCT016 OVC025 24/21 A2987 1020 84 2300 030/10 RMK AO2 T02390211
04850KAOH AOH20160623170512606/23/16 17:05:31  5-MIN KAOH 232205Z AUTO 02011KT 10SM BKN016 BKN023 OVC028 24/21 A2988 1020 81 2300 030/11 RMK AO2 T02390206
04850KAOH AOH20160623171012606/23/16 17:10:31  5-MIN KAOH 232210Z AUTO 02010KT 10SM SCT018 BKN025 OVC029 24/21 A2988 1020 84 2300 030/10 RMK AO2 T02390211
04850KAOH AOH20160623171512606/23/16 17:15:31  5-MIN KAOH 232215Z AUTO 02013KT 10SM SCT018 BKN025 OVC029 24/21 A2988 1020 84 2300 030/13 RMK AO2 T02390211
04850KAOH AOH20160623172012606/23/16 17:20:31  5-MIN KAOH 232220Z AUTO 03012KT 10SM SCT018 BKN024 OVC029 23/21 A2988 1010 84 2300 040/12 RMK AO2 T02330206
04850KAOH AOH20160623172511906/23/16 17:25:31  5-MIN KAOH 232225Z AUTO 02008KT 10SM BKN018 OVC030 24/21 A2988 1010 84 2300 030/08 RMK AO2 T02390211
04850KAOH AOH20160623173013206/23/16 17:30:31  5-MIN KAOH 232230Z AUTO 03012G17KT 10SM BKN018 BKN025 BKN030 23/21 A2988 1020 84 2300 040/12G17 RMK AO2 T02330206
04850KAOH AOH20160623173513206/23/16 17:35:31  5-MIN KAOH 232235Z AUTO 02013G17KT 10SM FEW015 SCT021 BKN030 23/21 A2988 1020 84 2300 030/13G17 RMK AO2 T02330206
04850KAOH AOH20160623174011906/23/16 17:40:31  5-MIN KAOH 232240Z AUTO 02009KT 10SM SCT019 BKN030 23/20 A2988 1010 81 2200 030/09 RMK AO2 T02330200
04850KAOH AOH20160623174511206/23/16 17:45:31  5-MIN KAOH 232245Z AUTO 03007KT 10SM BKN019 23/21 A2988 1010 84 2300 040/07 RMK AO2 T02330206
04850KAOH AOH20160623175011906/23/16 17:50:31  5-MIN KAOH 232250Z AUTO 03010KT 10SM BKN019 23/21 A2988 1010 84 2200 030/10 RMK AO2 SLP113 T02330206
04850KAOH AOH20160623175511206/23/16 17:55:31  5-MIN KAOH 232255Z AUTO 03012KT 10SM BKN019 23/20 A2989 1010 84 2200 040/12 RMK AO2 T02280200
04850KAOH AOH20160623180011206/23/16 18:00:31  5-MIN KAOH 232300Z AUTO 03009KT 10SM BKN019 23/20 A2989 1010 84 2200 040/09 RMK AO2 T02280200
04850KAOH AOH20160623180511206/23/16 18:05:31  5-MIN KAOH 232305Z AUTO 02008KT 10SM BKN019 23/20 A2989 1000 84 2200 020/08 RMK AO2 T02280200
04850KAOH AOH20160623181011206/23/16 18:10:31  5-MIN KAOH 232310Z AUTO 02006KT 10SM OVC019 23/20 A2989 1000 81 2200 030/06 RMK AO2 T02330200
04850KAOH AOH20160623181512606/23/16 18:15:31  5-MIN KAOH 232315Z AUTO 03008KT 10SM BKN019 BKN024 BKN032 23/20 A2990 1000 81 2200 030/08 RMK AO2 T02330200
04850KAOH AOH20160623182011906/23/16 18:20:31  5-MIN KAOH 232320Z AUTO 02008KT 10SM SCT019 BKN034 23/20 A2990 1000 84 2200 020/08 RMK AO2 T02280200
04850KAOH AOH20160623182511906/23/16 18:25:31  5-MIN KAOH 232325Z AUTO 02007KT 10SM SCT021 OVC034 23/20 A2990 1000 84 2200 020/07 RMK AO2 T02280200
04850KAOH AOH20160623183011906/23/16 18:30:31  5-MIN KAOH 232330Z AUTO 02009KT 10SM SCT021 OVC036 23/21 A2990 1000 87 2200 030/09 RMK AO2 T02280206
04850KAOH AOH20160623183512606/23/16 18:35:31  5-MIN KAOH 232335Z AUTO 02008KT 10SM SCT021 BKN036 OVC046 23/20 A2990 1000 84 2200 030/08 RMK AO2 T02280200
04850KAOH AOH20160623184012506/23/16 18:40:31  5-MIN KAOH 232340Z AUTO 02011KT 10SM FEW015 SCT021 BKN036 23/20 A2990 990 81 2200 030/11 RMK AO2 T02330200
04850KAOH AOH20160623184512506/23/16 18:45:31  5-MIN KAOH 232345Z AUTO 05010KT 10SM SCT015 BKN020 OVC050 23/20 A2991 990 81 2200 050/10 RMK AO2 T02330200
04850KAOH AOH20160623185011506/23/16 18:50:31  5-MIN KAOH 232350Z AUTO 04011KT 10SM SCT015 BKN020 BKN039 23/20 A2991 990 84 2200 050/11 RMK AO2
04850KAOH AOH20160623185512506/23/16 18:55:31  5-MIN KAOH 232355Z AUTO 04011KT 10SM SCT015 BKN020 BKN039 22/19 A2991 980 84 2100 040/11 RMK AO2 T02220194
04850KAOH AOH20160623190011806/23/16 19:00:31  5-MIN KAOH 240000Z AUTO 04010KT 10SM BKN018 BKN048 22/19 A2991 980 84 2100 040/10 RMK AO2 T02220194
04850KAOH AOH20160623190511806/23/16 19:05:31  5-MIN KAOH 240005Z AUTO 03009KT 10SM BKN018 BKN024 22/19 A2992 980 84 2100 040/09 RMK AO2 T02220194
04850KAOH AOH20160623191011806/23/16 19:10:31  5-MIN KAOH 240010Z AUTO 04007KT 10SM BKN018 BKN024 22/20 A2992 970 87 2100 040/07 RMK AO2 T02220200
04850KAOH AOH20160623191511806/23/16 19:15:31  5-MIN KAOH 240015Z AUTO 04009KT 10SM FEW015 BKN024 22/19 A2992 970 84 2100 040/09 RMK AO2 T02220194
04850KAOH AOH20160623192011806/23/16 19:20:31  5-MIN KAOH 240020Z AUTO 06006KT 10SM SCT015 BKN024 22/20 A2992 970 87 2100 070/06 RMK AO2 T02220200
04850KAOH AOH20160623192511806/23/16 19:25:31  5-MIN KAOH 240025Z AUTO 06010KT 10SM SCT015 BKN024 22/19 A2992 980 87 2000 060/10 RMK AO2 T02170194
04850KAOH AOH20160623193011806/23/16 19:30:31  5-MIN KAOH 240030Z AUTO 06006KT 10SM FEW015 SCT024 22/19 A2992 980 87 2000 060/06 RMK AO2 T02170194
04850KAOH AOH20160623193511806/23/16 19:35:31  5-MIN KAOH 240035Z AUTO 06007KT 10SM FEW015 SCT024 22/19 A2993 970 87 2000 060/07 RMK AO2 T02170194
04850KAOH AOH20160623194011806/23/16 19:40:31  5-MIN KAOH 240040Z AUTO 06005KT 10SM FEW015 FEW024 22/19 A2993 970 87 2000 060/05 RMK AO2 T02170194
04850KAOH AOH20160623194511106/23/16 19:45:31  5-MIN KAOH 240045Z AUTO 06007KT 10SM FEW014 22/19 A2993 970 87 2000 070/07 RMK AO2 T02170194
04850KAOH AOH20160623195011506/23/16 19:50:31  5-MIN KAOH 240050Z AUTO 06006KT 10SM CLR 22/19 A2993 970 87 2000 070/06 RMK AO2 SLP129 T02170194
04850KAOH AOH20160623195510806/23/16 19:55:31  5-MIN KAOH 240055Z AUTO 07005KT 10SM CLR 21/19 A2993 970 90 1900 070/05 RMK AO2 T02110194
04850KAOH AOH20160623200010806/23/16 20:00:31  5-MIN KAOH 240100Z AUTO 08007KT 10SM CLR 21/19 A2993 970 90 1900 080/07 RMK AO2 T02110194
04850KAOH AOH20160623200510806/23/16 20:05:31  5-MIN KAOH 240105Z AUTO 07006KT 10SM CLR 21/19 A2993 960 90 1900 080/06 RMK AO2 T02110194
04850KAOH AOH20160623201011106/23/16 20:10:31  5-MIN KAOH 240110Z AUTO 06006KT 10SM FEW013 22/19 A2994 960 84 2100 070/06 RMK AO2 T02220194
04850KAOH AOH20160623201511106/23/16 20:15:31  5-MIN KAOH 240115Z AUTO 06005KT 10SM FEW013 21/19 A2994 960 90 1900 060/05 RMK AO2 T02110194
04850KAOH AOH20160623202011806/23/16 20:20:31  5-MIN KAOH 240120Z AUTO 05004KT 10SM FEW013 SCT050 21/19 A2994 960 90 1900 060/04 RMK AO2 T02110194
04850KAOH AOH20160623202511806/23/16 20:25:31  5-MIN KAOH 240125Z AUTO 05004KT 10SM FEW013 BKN050 21/19 A2994 960 90 1900 060/04 RMK AO2 T02110194
04850KAOH AOH20160623203011806/23/16 20:30:31  5-MIN KAOH 240130Z AUTO 06004KT 10SM SCT013 BKN050 21/20 A2994 960 93 1900 070/04 RMK AO2 T02110200
04850KAOH AOH20160623203511806/23/16 20:35:31  5-MIN KAOH 240135Z AUTO 06005KT 10SM SCT013 BKN050 21/20 A2994 960 93 1900 060/05 RMK AO2 T02110200
04850KAOH AOH20160623204011806/23/16 20:40:31  5-MIN KAOH 240140Z AUTO 05006KT 10SM FEW013 OVC050 21/20 A2994 960 93 1900 060/06 RMK AO2 T02110200
04850KAOH AOH20160623204511806/23/16 20:45:31  5-MIN KAOH 240145Z AUTO 05005KT 10SM FEW013 OVC050 21/19 A2994 960 90 1900 060/05 RMK AO2 T02110194
04850KAOH AOH20160623205012506/23/16 20:50:31  5-MIN KAOH 240150Z AUTO 06005KT 10SM FEW013 OVC050 21/19 A2995 950 93 1900 060/05 RMK AO2 SLP134 T02060194
04850KAOH AOH20160623205511806/23/16 20:55:31  5-MIN KAOH 240155Z AUTO 06006KT 10SM FEW013 BKN050 21/19 A2995 950 93 1900 070/06 RMK AO2 T02060194
04850KAOH AOH20160623210011106/23/16 21:00:31  5-MIN KAOH 240200Z AUTO 07005KT 10SM SCT050 21/19 A2995 950 93 1900 080/05 RMK AO2 T02060194
04850KAOH AOH20160623210511106/23/16 21:05:31  5-MIN KAOH 240205Z AUTO 08005KT 10SM SCT050 21/19 A2995 950 93 1900 090/05 RMK AO2 T02060194
04850KAOH AOH20160623211011106/23/16 21:10:31  5-MIN KAOH 240210Z AUTO 08006KT 10SM FEW050 21/19 A2995 950 93 1900 080/06 RMK AO2 T02060194
04850KAOH AOH20160623211511106/23/16 21:15:31  5-MIN KAOH 240215Z AUTO 06004KT 10SM FEW050 21/19 A2995 950 93 1900 060/04 RMK AO2 T02060194
04850KAOH AOH20160623212010806/23/16 21:20:31  5-MIN KAOH 240220Z AUTO 04005KT 10SM CLR 21/19 A2995 950 93 1900 040/05 RMK AO2 T02060194
04850KAOH AOH20160623212510806/23/16 21:25:31  5-MIN KAOH 240225Z AUTO 03005KT 10SM CLR 20/19 A2995 950 97 1800 040/05 RMK AO2 T02000194
04850KAOH AOH20160623213011106/23/16 21:30:31  5-MIN KAOH 240230Z AUTO 05005KT 10SM FEW010 20/19 A2995 950 97 1800 050/05 RMK AO2 T02000194
04850KAOH AOH20160623213511106/23/16 21:35:31  5-MIN KAOH 240235Z AUTO 05004KT 10SM SCT012 20/19 A2996 940 97 1800 050/04 RMK AO2 T02000194
04850KAOH AOH20160623214011106/23/16 21:40:31  5-MIN KAOH 240240Z AUTO 04004KT 10SM BKN012 21/19 A2996 940 93 1800 050/04 RMK AO2 T02060194
04850KAOH AOH20160623214511106/23/16 21:45:31  5-MIN KAOH 240245Z AUTO 04004KT 10SM BKN012 20/19 A2996 940 97 1800 050/04 RMK AO2 T02000194
04850KAOH AOH20160623215012406/23/16 21:50:31  5-MIN KAOH 240250Z AUTO 03005KT 10SM BKN012 20/19 A2996 940 97 1800 040/05 RMK AO2 SLP138 T02000194 51009
04850KAOH AOH20160623215511106/23/16 21:55:31  5-MIN KAOH 240255Z AUTO 04005KT 10SM BKN013 20/19 A2996 940 97 1800 040/05 RMK AO2 T02000194
04850KAOH AOH20160623220011106/23/16 22:00:31  5-MIN KAOH 240300Z AUTO 03005KT 10SM SCT013 20/19 A2996 950 97 1800 040/05 RMK AO2 T02000194
04850KAOH AOH20160623220511106/23/16 22:05:31  5-MIN KAOH 240305Z AUTO 03006KT 10SM FEW013 20/19 A2996 950 97 1800 040/06 RMK AO2 T02000194
04850KAOH AOH20160623221011106/23/16 22:10:31  5-MIN KAOH 240310Z AUTO 03006KT 10SM FEW013 20/19 A2995 950 97 1800 040/06 RMK AO2 T02000194
04850KAOH AOH20160623221510806/23/16 22:15:31  5-MIN KAOH 240315Z AUTO 03006KT 10SM CLR 20/19 A2995 950 97 1800 040/06 RMK AO2 T02000194
04850KAOH AOH20160623222010806/23/16 22:20:31  5-MIN KAOH 240320Z AUTO 03006KT 10SM CLR 20/19 A2995 950 97 1800 040/06 RMK AO2 T02000194
04850KAOH AOH20160623222510806/23/16 22:25:31  5-MIN KAOH 240325Z AUTO 04007KT 10SM CLR 20/19 A2995 950 97 1800 040/07 RMK AO2 T02000194
04850KAOH AOH20160623223010806/23/16 22:30:31  5-MIN KAOH 240330Z AUTO 03006KT 10SM CLR 20/19 A2995 950 93 1800 040/06 RMK AO2 T02000189
04850KAOH AOH20160623223510806/23/16 22:35:31  5-MIN KAOH 240335Z AUTO 04007KT 10SM CLR 19/19 A2995 950 97 1700 040/07 RMK AO2 T01940189
04850KAOH AOH20160623224010806/23/16 22:40:31  5-MIN KAOH 240340Z AUTO 04005KT 10SM CLR 19/19 A2996 940 97 1700 050/05 RMK AO2 T01940189
04850KAOH AOH20160623224510806/23/16 22:45:31  5-MIN KAOH 240345Z AUTO 05005KT 10SM CLR 19/19 A2995 950 97 1700 060/05 RMK AO2 T01940189
04850KAOH AOH20160623225011406/23/16 22:50:31  5-MIN KAOH 240350Z AUTO 05005KT 9SM CLR 19/19 A2995 950 97 1700 060/05 RMK AO2 SLP137 T01940189
04850KAOH AOH20160623225510806/23/16 22:55:31  5-MIN KAOH 240355Z AUTO 04005KT 10SM CLR 19/19 A2995 950 97 1700 050/05 RMK AO2 T01940189
04850KAOH AOH20160623230010806/23/16 23:00:31  5-MIN KAOH 240400Z AUTO 04004KT 10SM CLR 19/19 A2996 940 97 1700 050/04 RMK AO2 T01940189
04850KAOH AOH20160623230510806/23/16 23:05:31  5-MIN KAOH 240405Z AUTO 05006KT 10SM CLR 19/18 A2996 940 93 1700 050/06 RMK AO2 T01940183
04850KAOH AOH20160623231010806/23/16 23:10:31  5-MIN KAOH 240410Z AUTO 04004KT 10SM CLR 19/18 A2996 940 93 1700 050/04 RMK AO2 T01940183
04850KAOH AOH20160623231510806/23/16 23:15:31  5-MIN KAOH 240415Z AUTO 04004KT 10SM CLR 19/18 A2997 930 93 1700 040/04 RMK AO2 T01940183
04850KAOH AOH20160623232010806/23/16 23:20:31  5-MIN KAOH 240420Z AUTO 04004KT 10SM CLR 19/18 A2997 930 93 1700 050/04 RMK AO2 T01940183
04850KAOH AOH20160623232510806/23/16 23:25:31  5-MIN KAOH 240425Z AUTO 04005KT 10SM CLR 19/18 A2997 930 93 1700 040/05 RMK AO2 T01940183
04850KAOH AOH20160623233010806/23/16 23:30:31  5-MIN KAOH 240430Z AUTO 04005KT 10SM CLR 19/18 A2997 930 93 1600 040/05 RMK AO2 T01890178
04850KAOH AOH20160623233511106/23/16 23:35:31  5-MIN KAOH 240435Z AUTO 04005KT 10SM FEW090 19/18 A2997 930 93 1600 040/05 RMK AO2 T01890178
04850KAOH AOH20160623234011106/23/16 23:40:31  5-MIN KAOH 240440Z AUTO 04004KT 10SM SCT085 19/18 A2997 930 93 1600 050/04 RMK AO2 T01890178
04850KAOH AOH20160623234511106/23/16 23:45:31  5-MIN KAOH 240445Z AUTO 04005KT 10SM SCT085 19/18 A2997 940 93 1600 050/05 RMK AO2 T01890178
04850KAOH AOH20160623235012806/23/16 23:50:31  5-MIN KAOH 240450Z AUTO 04006KT 10SM SCT085 19/18 A2996 940 93 1600 050/06 RMK AO2 SLP140 T01890178 402610189
04850KAOH AOH20160623235511106/23/16 23:55:31  5-MIN KAOH 240455Z AUTO 04006KT 10SM SCT085 19/17 A2996 940 90 1700 050/06 RMK AO2 T01890172
04850KAOH AOH20160624000011106/24/16 00:00:31  5-MIN KAOH 240500Z AUTO 05006KT 10SM FEW085 19/17 A2996 940 90 1700 050/06 RMK AO2 T01890172
04850KAOH AOH20160624000511106/24/16 00:05:31  5-MIN KAOH 240505Z AUTO 05006KT 10SM FEW085 18/17 A2996 940 93 1600 050/06 RMK AO2 T01830172
04850KAOH AOH20160624001011106/24/16 00:10:31  5-MIN KAOH 240510Z AUTO 05007KT 10SM FEW085 18/17 A2996 940 93 1600 050/07 RMK AO2 T01830172
04850KAOH AOH20160624001510806/24/16 00:15:31  5-MIN KAOH 240515Z AUTO 04005KT 10SM CLR 18/17 A2997 940 93 1600 050/05 RMK AO2 T01830172
04850KAOH AOH20160624002010806/24/16 00:20:31  5-MIN KAOH 240520Z AUTO 04006KT 10SM CLR 18/17 A2996 940 90 1600 050/06 RMK AO2 T01830167
04850KAOH AOH20160624002510806/24/16 00:25:31  5-MIN KAOH 240525Z AUTO 04006KT 10SM CLR 18/17 A2997 940 90 1600 040/06 RMK AO2 T01830167
04850KAOH AOH20160624003010806/24/16 00:30:31  5-MIN KAOH 240530Z AUTO 05004KT 10SM CLR 18/17 A2997 930 90 1600 050/04 RMK AO2 T01830167
04850KAOH AOH20160624003510806/24/16 00:35:31  5-MIN KAOH 240535Z AUTO 06005KT 10SM CLR 18/17 A2997 930 90 1600 060/05 RMK AO2 T01830167
04850KAOH AOH20160624004010806/24/16 00:40:31  5-MIN KAOH 240540Z AUTO 06004KT 10SM CLR 18/17 A2997 930 90 1600 070/04 RMK AO2 T01830167
04850KAOH AOH20160624004510806/24/16 00:45:31  5-MIN KAOH 240545Z AUTO 06004KT 10SM CLR 18/17 A2998 920 93 1500 070/04 RMK AO2 T01780167
04850KAOH AOH20160624005013306/24/16 00:50:31  5-MIN KAOH 240550Z AUTO 06003KT 10SM CLR 18/16 A2998 920 90 1500 070/03 RMK AO2 SLP146 T01780161 10222 20178 51015
04850KAOH AOH20160624005510806/24/16 00:55:31  5-MIN KAOH 240555Z AUTO 05003KT 10SM CLR 18/16 A2998 920 90 1500 060/03 RMK AO2 T01780161
04850KAOH AOH20160624010010806/24/16 01:00:31  5-MIN KAOH 240600Z AUTO 00000KT 10SM CLR 18/16 A2998 920 90 1500 000/00 RMK AO2 T01780161
04850KAOH AOH20160624010510806/24/16 01:05:31  5-MIN KAOH 240605Z AUTO 00000KT 10SM CLR 18/16 A2999 920 90 1500 000/00 RMK AO2 T01780161
04850KAOH AOH20160624011010806/24/16 01:10:31  5-MIN KAOH 240610Z AUTO 00000KT 10SM CLR 18/16 A2999 920 90 1500 000/00 RMK AO2 T01780161
04850KAOH AOH20160624011511106/24/16 01:15:31  5-MIN KAOH 240615Z AUTO 00000KT 10SM FEW100 18/16 A2999 920 90 1500 000/00 RMK AO2 T01780161
04850KAOH AOH20160624012011106/24/16 01:20:31  5-MIN KAOH 240620Z AUTO 04003KT 10SM FEW100 18/16 A2999 920 90 1500 050/03 RMK AO2 T01780161
04850KAOH AOH20160624012510806/24/16 01:25:31  5-MIN KAOH 240625Z AUTO 05004KT 10SM CLR 18/16 A2999 920 90 1500 050/04 RMK AO2 T01780161
04850KAOH AOH20160624013010806/24/16 01:30:31  5-MIN KAOH 240630Z AUTO 05004KT 10SM CLR 18/16 A2999 920 90 1500 060/04 RMK AO2 T01780161
04850KAOH AOH20160624013510806/24/16 01:35:31  5-MIN KAOH 240635Z AUTO 05004KT 10SM CLR 18/16 A2999 920 90 1500 050/04 RMK AO2 T01780161
04850KAOH AOH20160624014010806/24/16 01:40:31  5-MIN KAOH 240640Z AUTO 05004KT 10SM CLR 17/16 A2999 920 93 1400 050/04 RMK AO2 T01720161
04850KAOH AOH20160624014511106/24/16 01:45:31  5-MIN KAOH 240645Z AUTO 05005KT 10SM FEW100 17/16 A2998 920 93 1400 060/05 RMK AO2 T01720161
04850KAOH AOH20160624015011806/24/16 01:50:31  5-MIN KAOH 240650Z AUTO 06005KT 10SM SCT100 17/16 A2998 920 93 1400 060/05 RMK AO2 SLP146 T01720161
04850KAOH AOH20160624015511106/24/16 01:55:31  5-MIN KAOH 240655Z AUTO 04006KT 10SM SCT100 18/16 A2998 920 90 1500 050/06 RMK AO2 T01780161
04850KAOH AOH20160624020011106/24/16 02:00:31  5-MIN KAOH 240700Z AUTO 04006KT 10SM SCT100 18/16 A2998 920 87 1500 050/06 RMK AO2 T01780156
04850KAOH AOH20160624020511106/24/16 02:05:31  5-MIN KAOH 240705Z AUTO 04005KT 10SM BKN100 17/16 A2998 920 90 1400 050/05 RMK AO2 T01720156
04850KAOH AOH20160624021011106/24/16 02:10:31  5-MIN KAOH 240710Z AUTO 05004KT 10SM BKN100 17/16 A2998 920 90 1400 050/04 RMK AO2 T01720156
04850KAOH AOH20160624021511106/24/16 02:15:31  5-MIN KAOH 240715Z AUTO 06004KT 10SM SCT100 18/16 A2998 920 87 1500 060/04 RMK AO2 T01780156
04850KAOH AOH20160624022011106/24/16 02:20:31  5-MIN KAOH 240720Z AUTO 05005KT 10SM FEW100 18/16 A2998 920 87 1500 050/05 RMK AO2 T01780156
04850KAOH AOH20160624022511106/24/16 02:25:31  5-MIN KAOH 240725Z AUTO 06005KT 10SM FEW100 17/16 A2998 920 90 1400 060/05 RMK AO2 T01720156
04850KAOH AOH20160624023011106/24/16 02:30:31  5-MIN KAOH 240730Z AUTO 06006KT 10SM SCT095 18/16 A2998 920 87 1500 070/06 RMK AO2 T01780156
04850KAOH AOH20160624023511106/24/16 02:35:31  5-MIN KAOH 240735Z AUTO 06006KT 10SM SCT095 17/16 A2998 920 90 1400 060/06 RMK AO2 T01720156
04850KAOH AOH20160624024011106/24/16 02:40:31  5-MIN KAOH 240740Z AUTO 06006KT 10SM SCT095 17/16 A2998 920 90 1400 060/06 RMK AO2 T01720156
04850KAOH AOH20160624024511106/24/16 02:45:31  5-MIN KAOH 240745Z AUTO 06004KT 10SM FEW095 17/16 A2998 920 90 1400 060/04 RMK AO2 T01720156
04850KAOH AOH20160624025011806/24/16 02:50:31  5-MIN KAOH 240750Z AUTO 06005KT 10SM FEW095 17/16 A2998 930 90 1400 060/05 RMK AO2 SLP144 T01720156
04850KAOH AOH20160624025511106/24/16 02:55:31  5-MIN KAOH 240755Z AUTO 05004KT 10SM SCT090 17/16 A2997 930 90 1400 060/04 RMK AO2 T01720156
04850KAOH AOH20160624030011106/24/16 03:00:31  5-MIN KAOH 240800Z AUTO 04005KT 10SM SCT090 17/16 A2998 930 90 1400 050/05 RMK AO2 T01720156
04850KAOH AOH20160624030511106/24/16 03:05:31  5-MIN KAOH 240805Z AUTO 05004KT 10SM FEW090 17/16 A2997 930 90 1400 050/04 RMK AO2 T01720156
04850KAOH AOH20160624031011106/24/16 03:10:31  5-MIN KAOH 240810Z AUTO 04006KT 10SM FEW090 17/16 A2997 930 90 1400 050/06 RMK AO2 T01720156
04850KAOH AOH20160624031511106/24/16 03:15:31  5-MIN KAOH 240815Z AUTO 04006KT 10SM FEW090 17/16 A2997 930 90 1400 050/06 RMK AO2 T01720156
04850KAOH AOH20160624032011106/24/16 03:20:31  5-MIN KAOH 240820Z AUTO 05006KT 10SM FEW090 17/16 A2997 930 90 1400 050/06 RMK AO2 T01720156
04850KAOH AOH20160624032511106/24/16 03:25:31  5-MIN KAOH 240825Z AUTO 05006KT 10SM FEW090 17/16 A2997 930 90 1400 050/06 RMK AO2 T01720156
04850KAOH AOH20160624033010806/24/16 03:30:31  5-MIN KAOH 240830Z AUTO 05004KT 10SM CLR 17/16 A2998 930 90 1400 050/04 RMK AO2 T01720156
04850KAOH AOH20160624033510806/24/16 03:35:31  5-MIN KAOH 240835Z AUTO 05005KT 10SM CLR 17/15 A2997 930 87 1400 050/05 RMK AO2 T01720150
04850KAOH AOH20160624034010806/24/16 03:40:31  5-MIN KAOH 240840Z AUTO 05005KT 10SM CLR 17/15 A2997 930 87 1400 050/05 RMK AO2 T01720150
04850KAOH AOH20160624034510806/24/16 03:45:31  5-MIN KAOH 240845Z AUTO 05006KT 10SM CLR 17/15 A2997 930 90 1400 060/06 RMK AO2 T01670150
04850KAOH AOH20160624035012106/24/16 03:50:31  5-MIN KAOH 240850Z AUTO 05006KT 10SM CLR 17/15 A2997 930 90 1400 060/06 RMK AO2 SLP143 T01670150 53008
04850KAOH AOH20160624035510806/24/16 03:55:31  5-MIN KAOH 240855Z AUTO 05006KT 10SM CLR 17/15 A2997 930 90 1400 060/06 RMK AO2 T01670150
04850KAOH AOH20160624040010806/24/16 04:00:31  5-MIN KAOH 240900Z AUTO 05006KT 10SM CLR 17/15 A2997 930 90 1400 060/06 RMK AO2 T01670150
04850KAOH AOH20160624040510806/24/16 04:05:31  5-MIN KAOH 240905Z AUTO 05005KT 10SM CLR 17/15 A2997 930 90 1400 060/05 RMK AO2 T01670150
04850KAOH AOH20160624041010806/24/16 04:10:31  5-MIN KAOH 240910Z AUTO 05006KT 10SM CLR 17/15 A2997 930 90 1400 060/06 RMK AO2 T01670150
04850KAOH AOH20160624041510806/24/16 04:15:31  5-MIN KAOH 240915Z AUTO 05006KT 10SM CLR 17/15 A2998 930 90 1400 060/06 RMK AO2 T01670150
04850KAOH AOH20160624042010806/24/16 04:20:31  5-MIN KAOH 240920Z AUTO 05006KT 10SM CLR 17/15 A2998 930 90 1400 050/06 RMK AO2 T01670150
04850KAOH AOH20160624042510806/24/16 04:25:31  5-MIN KAOH 240925Z AUTO 04005KT 10SM CLR 17/15 A2998 920 90 1400 050/05 RMK AO2 T01670150
04850KAOH AOH20160624043010806/24/16 04:30:31  5-MIN KAOH 240930Z AUTO 04006KT 10SM CLR 17/15 A2998 920 90 1400 050/06 RMK AO2 T01670150
04850KAOH AOH20160624043510806/24/16 04:35:31  5-MIN KAOH 240935Z AUTO 04005KT 10SM CLR 17/15 A2999 920 90 1400 050/05 RMK AO2 T01670150
04850KAOH AOH20160624044010806/24/16 04:40:31  5-MIN KAOH 240940Z AUTO 03005KT 10SM CLR 17/15 A2999 910 90 1400 040/05 RMK AO2 T01670150
04850KAOH AOH20160624044510806/24/16 04:45:31  5-MIN KAOH 240945Z AUTO 04005KT 10SM CLR 17/15 A2999 910 90 1400 040/05 RMK AO2 T01670150
04850KAOH AOH20160624045011506/24/16 04:50:31  5-MIN KAOH 240950Z AUTO 03006KT 10SM CLR 17/15 A2999 910 90 1400 040/06 RMK AO2 SLP152 T01670150
04850KAOH AOH20160624045510806/24/16 04:55:31  5-MIN KAOH 240955Z AUTO 04005KT 10SM CLR 17/15 A3000 910 90 1400 050/05 RMK AO2 T01670150
04850KAOH AOH20160624050010806/24/16 05:00:31  5-MIN KAOH 241000Z AUTO 04004KT 10SM CLR 17/15 A3000 900 90 1300 050/04 RMK AO2 T01670150
04850KAOH AOH20160624050511106/24/16 05:05:31  5-MIN KAOH 241005Z AUTO 03004KT 10SM FEW100 17/15 A3000 900 90 1300 040/04 RMK AO2 T01670150
04850KAOH AOH20160624051011106/24/16 05:10:31  5-MIN KAOH 241010Z AUTO 04004KT 10SM FEW100 17/15 A3001 900 90 1300 040/04 RMK AO2 T01670150
04850KAOH AOH20160624051511106/24/16 05:15:31  5-MIN KAOH 241015Z AUTO 04004KT 10SM SCT100 16/15 A3001 900 93 1300 050/04 RMK AO2 T01610150
04850KAOH AOH20160624052011106/24/16 05:20:31  5-MIN KAOH 241020Z AUTO 04005KT 10SM SCT100 16/15 A3001 900 93 1300 040/05 RMK AO2 T01610150
04850KAOH AOH20160624052511106/24/16 05:25:31  5-MIN KAOH 241025Z AUTO 04005KT 10SM BKN100 16/15 A3001 900 93 1300 050/05 RMK AO2 T01610150
04850KAOH AOH20160624053011106/24/16 05:30:31  5-MIN KAOH 241030Z AUTO 04004KT 10SM BKN100 17/15 A3001 900 90 1300 050/04 RMK AO2 T01670150
04850KAOH AOH20160624053511106/24/16 05:35:31  5-MIN KAOH 241035Z AUTO 05004KT 10SM BKN100 17/15 A3001 890 90 1300 050/04 RMK AO2 T01670150
04850KAOH AOH20160624054011106/24/16 05:40:31  5-MIN KAOH 241040Z AUTO 05004KT 10SM BKN100 17/15 A3001 890 90 1300 050/04 RMK AO2 T01670150
04850KAOH AOH20160624054511106/24/16 05:45:31  5-MIN KAOH 241045Z AUTO 05005KT 10SM OVC100 17/15 A3001 890 90 1300 060/05 RMK AO2 T01670150
04850KAOH AOH20160624055011806/24/16 05:50:31  5-MIN KAOH 241050Z AUTO 06003KT 10SM BKN100 17/15 A3001 890 90 1300 060/03 RMK AO2 SLP158 T01670150
04850KAOH AOH20160624055511806/24/16 05:55:31  5-MIN KAOH 241055Z AUTO 05005KT 10SM FEW085 OVC100 17/15 A3001 890 90 1300 050/05 RMK AO2 T01670150
04850KAOH AOH20160624060011806/24/16 06:00:31  5-MIN KAOH 241100Z AUTO 05005KT 10SM SCT085 BKN100 17/15 A3002 890 90 1300 050/05 RMK AO2 T01670150
04850KAOH AOH20160624060511806/24/16 06:05:31  5-MIN KAOH 241105Z AUTO 05004KT 10SM SCT085 BKN100 17/15 A3002 890 90 1300 060/04 RMK AO2 T01670150
04850KAOH AOH20160624061011806/24/16 06:10:31  5-MIN KAOH 241110Z AUTO 05006KT 10SM BKN085 BKN100 17/15 A3002 890 90 1300 060/06 RMK AO2 T01670150
04850KAOH AOH20160624061511806/24/16 06:15:31  5-MIN KAOH 241115Z AUTO 05006KT 10SM BKN085 BKN100 17/15 A3002 890 90 1300 050/06 RMK AO2 T01670150
04850KAOH AOH20160624062011806/24/16 06:20:31  5-MIN KAOH 241120Z AUTO 05007KT 10SM BKN085 BKN100 17/15 A3002 880 87 1400 060/07 RMK AO2 T01720150
04850KAOH AOH20160624062511806/24/16 06:25:31  5-MIN KAOH 241125Z AUTO 06006KT 10SM BKN085 BKN100 17/15 A3002 880 87 1400 060/06 RMK AO2 T01720150
04850KAOH AOH20160624063011106/24/16 06:30:31  5-MIN KAOH 241130Z AUTO 06005KT 10SM BKN085 17/15 A3002 880 87 1400 060/05 RMK AO2 T01720150
04850KAOH AOH20160624063511106/24/16 06:35:31  5-MIN KAOH 241135Z AUTO 06006KT 10SM BKN085 17/16 A3002 880 90 1400 070/06 RMK AO2 T01720156
04850KAOH AOH20160624064011106/24/16 06:40:31  5-MIN KAOH 241140Z AUTO 06007KT 10SM BKN085 18/16 A3003 880 87 1400 060/07 RMK AO2 T01780156
04850KAOH AOH20160624064511806/24/16 06:45:31  5-MIN KAOH 241145Z AUTO 06006KT 10SM BKN090 OVC100 18/16 A3003 880 87 1400 060/06 RMK AO2 T01780156
04850KAOH AOH20160624065014306/24/16 06:50:31  5-MIN KAOH 241150Z AUTO 06005KT 10SM BKN090 OVC100 18/16 A3003 870 87 1400 060/05 RMK AO2 SLP164 T01780156 10178 20161 58004
04850KAOH AOH20160624065511806/24/16 06:55:31  5-MIN KAOH 241155Z AUTO 06006KT 10SM BKN090 OVC100 18/16 A3003 870 87 1400 060/06 RMK AO2 T01780156
04850KAOH AOH20160624070011806/24/16 07:00:31  5-MIN KAOH 241200Z AUTO 06007KT 10SM BKN090 BKN100 18/16 A3003 870 87 1400 060/07 RMK AO2 T01780156
04850KAOH AOH20160624070511106/24/16 07:05:31  5-MIN KAOH 241205Z AUTO 06006KT 10SM BKN100 18/16 A3004 870 84 1500 070/06 RMK AO2 T01830156
04850KAOH AOH20160624071011106/24/16 07:10:31  5-MIN KAOH 241210Z AUTO 05007KT 10SM BKN100 18/16 A3004 870 84 1500 060/07 RMK AO2 T01830156
04850KAOH AOH20160624071511806/24/16 07:15:31  5-MIN KAOH 241215Z AUTO 06008KT 10SM FEW090 SCT100 18/16 A3004 870 84 1500 060/08 RMK AO2 T01830156
04850KAOH AOH20160624072011806/24/16 07:20:31  5-MIN KAOH 241220Z AUTO 05009KT 10SM FEW090 FEW100 18/16 A3004 870 84 1500 050/09 RMK AO2 T01830156
04850KAOH AOH20160624072511106/24/16 07:25:31  5-MIN KAOH 241225Z AUTO 06006KT 10SM FEW110 19/16 A3004 870 84 1600 070/06 RMK AO2 T01890161
04850KAOH AOH20160624073010806/24/16 07:30:31  5-MIN KAOH 241230Z AUTO 05008KT 10SM CLR 19/16 A3004 860 84 1600 050/08 RMK AO2 T01890161
04850KAOH AOH20160624073510806/24/16 07:35:31  5-MIN KAOH 241235Z AUTO 05007KT 10SM CLR 19/16 A3005 860 81 1600 050/07 RMK AO2 T01940161
04850KAOH AOH20160624074010806/24/16 07:40:31  5-MIN KAOH 241240Z AUTO 05007KT 10SM CLR 19/16 A3005 860 81 1600 060/07 RMK AO2 T01940161
04850KAOH AOH20160624074510806/24/16 07:45:31  5-MIN KAOH 241245Z AUTO 06008KT 10SM CLR 19/16 A3005 860 81 1600 060/08 RMK AO2 T01940161
04850KAOH AOH20160624075011506/24/16 07:50:31  5-MIN KAOH 241250Z AUTO 07006KT 10SM CLR 20/16 A3005 860 78 1700 070/06 RMK AO2 SLP170 T02000161
04850KAOH AOH20160624075511106/24/16 07:55:31  5-MIN KAOH 241255Z AUTO 05006KT 10SM FEW100 20/16 A3005 860 78 1700 060/06 RMK AO2 T02000161
04850KAOH AOH20160624080011106/24/16 08:00:31  5-MIN KAOH 241300Z AUTO 05008KT 10SM SCT100 20/16 A3005 850 78 1700 060/08 RMK AO2 T02000161
04850KAOH AOH20160624080511106/24/16 08:05:31  5-MIN KAOH 241305Z AUTO 06008KT 10SM SCT100 20/16 A3006 850 75 1700 060/08 RMK AO2 T02000156
04850KAOH AOH20160624081011106/24/16 08:10:31  5-MIN KAOH 241310Z AUTO 07005KT 10SM SCT100 21/16 A3006 850 75 1700 070/05 RMK AO2 T02060161
04850KAOH AOH20160624081511106/24/16 08:15:31  5-MIN KAOH 241315Z AUTO 06008KT 10SM SCT100 21/16 A3006 850 75 1700 070/08 RMK AO2 T02060161
04850KAOH AOH20160624082011106/24/16 08:20:31  5-MIN KAOH 241320Z AUTO 05007KT 10SM SCT100 21/16 A3006 850 73 1700 060/07 RMK AO2 T02060156
04850KAOH AOH20160624082511106/24/16 08:25:31  5-MIN KAOH 241325Z AUTO 07007KT 10SM SCT100 21/16 A3006 850 70 1800 070/07 RMK AO2 T02110156
04850KAOH AOH20160624083011106/24/16 08:30:31  5-MIN KAOH 241330Z AUTO 06006KT 10SM SCT100 21/16 A3007 840 73 1800 070/06 RMK AO2 T02110161
04850KAOH AOH20160624083511106/24/16 08:35:31  5-MIN KAOH 241335Z AUTO 06005KT 10SM FEW100 21/16 A3007 840 70 1800 060/05 RMK AO2 T02110156
04850KAOH AOH20160624084011106/24/16 08:40:31  5-MIN KAOH 241340Z AUTO 06008KT 10SM FEW100 21/16 A3007 840 73 1800 070/08 RMK AO2 T02110161
04850KAOH AOH20160624084511106/24/16 08:45:31  5-MIN KAOH 241345Z AUTO 05008KT 10SM FEW100 22/16 A3007 840 70 1900 060/08 RMK AO2 T02170161
04850KAOH AOH20160624085011506/24/16 08:50:31  5-MIN KAOH 241350Z AUTO 06007KT 10SM CLR 22/16 A3007 840 68 1900 060/07 RMK AO2 SLP175 T02170156
04850KAOH AOH20160624085510806/24/16 08:55:31  5-MIN KAOH 241355Z AUTO 04009KT 10SM CLR 21/16 A3007 840 70 1800 050/09 RMK AO2 T02110156
04850KAOH AOH20160624090010806/24/16 09:00:31  5-MIN KAOH 241400Z AUTO 05008KT 10SM CLR 22/16 A3007 840 68 1800 060/08 RMK AO2 T02170156
04850KAOH AOH20160624090510806/24/16 09:05:31  5-MIN KAOH 241405Z AUTO 05008KT 10SM CLR 22/16 A3007 840 68 1800 050/08 RMK AO2 T02170156
04850KAOH AOH20160624091010806/24/16 09:10:31  5-MIN KAOH 241410Z AUTO 05010KT 10SM CLR 22/15 A3007 840 65 1800 050/10 RMK AO2 T02170150
04850KAOH AOH20160624091510806/24/16 09:15:31  5-MIN KAOH 241415Z AUTO 06008KT 10SM CLR 22/14 A3007 840 63 1800 060/08 RMK AO2 T02170144
04850KAOH AOH20160624092010806/24/16 09:20:31  5-MIN KAOH 241420Z AUTO 03009KT 10SM CLR 22/16 A3007 840 65 1900 030/09 RMK AO2 T02220156
04850KAOH AOH20160624092510806/24/16 09:25:31  5-MIN KAOH 241425Z AUTO 06011KT 10SM CLR 22/15 A3007 840 63 1900 060/11 RMK AO2 T02220150
04850KAOH AOH20160624093010806/24/16 09:30:31  5-MIN KAOH 241430Z AUTO 05009KT 10SM CLR 22/14 A3007 840 61 1900 050/09 RMK AO2 T02220144
04850KAOH AOH20160624093510806/24/16 09:35:31  5-MIN KAOH 241435Z AUTO 05008KT 10SM CLR 22/15 A3007 840 63 1900 060/08 RMK AO2 T02220150
04850KAOH AOH20160624094010806/24/16 09:40:31  5-MIN KAOH 241440Z AUTO 06007KT 10SM CLR 23/15 A3007 840 61 2000 060/07 RMK AO2 T02280150
04850KAOH AOH20160624094510806/24/16 09:45:31  5-MIN KAOH 241445Z AUTO 06009KT 10SM CLR 23/15 A3007 840 61 2000 060/09 RMK AO2 T02280150
04850KAOH AOH20160624095012106/24/16 09:50:31  5-MIN KAOH 241450Z AUTO 05009KT 10SM CLR 23/15 A3007 840 61 2000 060/09 RMK AO2 SLP176 T02280150 51021
04850KAOH AOH20160624095510806/24/16 09:55:31  5-MIN KAOH 241455Z AUTO 05011KT 10SM CLR 23/14 A3007 840 57 2000 060/11 RMK AO2 T02280139
04850KAOH AOH20160624100010806/24/16 10:00:31  5-MIN KAOH 241500Z AUTO 07010KT 10SM CLR 23/14 A3007 840 59 2000 070/10 RMK AO2 T02280144
04850KAOH AOH20160624100510806/24/16 10:05:31  5-MIN KAOH 241505Z AUTO 08009KT 10SM CLR 23/14 A3008 830 57 2000 080/09 RMK AO2 T02330144
04850KAOH AOH20160624101010806/24/16 10:10:31  5-MIN KAOH 241510Z AUTO 06010KT 10SM CLR 24/15 A3008 830 57 2100 070/10 RMK AO2 T02390150
04850KAOH AOH20160624101512406/24/16 10:15:31  5-MIN KAOH 241515Z AUTO 05008KT 360V080 10SM CLR 24/15 A3008 830 57 2100 060/08 010V090 RMK AO2 T02390150
04850KAOH AOH20160624102010806/24/16 10:20:31  5-MIN KAOH 241520Z AUTO 06007KT 10SM CLR 24/15 A3008 830 57 2100 070/07 RMK AO2 T02390150
04850KAOH AOH20160624102510806/24/16 10:25:31  5-MIN KAOH 241525Z AUTO 05007KT 10SM CLR 24/15 A3008 830 57 2100 060/07 RMK AO2 T02390150
04850KAOH AOH20160624103010806/24/16 10:30:31  5-MIN KAOH 241530Z AUTO 05009KT 10SM CLR 23/15 A3008 830 59 2000 050/09 RMK AO2 T02330150
04850KAOH AOH20160624103510806/24/16 10:35:31  5-MIN KAOH 241535Z AUTO 04007KT 10SM CLR 24/15 A3008 830 57 2100 050/07 RMK AO2 T02390150
04850KAOH AOH20160624104010806/24/16 10:40:31  5-MIN KAOH 241540Z AUTO 07008KT 10SM CLR 24/14 A3008 830 55 2100 070/08 RMK AO2 T02390144
04850KAOH AOH20160624104510806/24/16 10:45:31  5-MIN KAOH 241545Z AUTO 07009KT 10SM CLR 24/14 A3008 830 53 2100 080/09 RMK AO2 T02440144
04850KAOH AOH20160624105011506/24/16 10:50:31  5-MIN KAOH 241550Z AUTO 08009KT 10SM CLR 24/14 A3008 830 55 2100 090/09 RMK AO2 SLP181 T02390144
04850KAOH AOH20160624105510806/24/16 10:55:31  5-MIN KAOH 241555Z AUTO 07007KT 10SM CLR 24/15 A3008 830 55 2100 070/07 RMK AO2 T02440150
04850KAOH AOH20160624110010806/24/16 11:00:31  5-MIN KAOH 241600Z AUTO 04007KT 10SM CLR 24/16 A3008 830 57 2100 040/07 RMK AO2 T02440156
04850KAOH AOH20160624110510806/24/16 11:05:31  5-MIN KAOH 241605Z AUTO 05006KT 10SM CLR 24/14 A3008 830 53 2100 060/06 RMK AO2 T02440144
04850KAOH AOH20160624111010806/24/16 11:10:31  5-MIN KAOH 241610Z AUTO 05007KT 10SM CLR 24/14 A3008 830 53 2100 060/07 RMK AO2 T02440144
04850KAOH AOH20160624111510806/24/16 11:15:31  5-MIN KAOH 241615Z AUTO 05007KT 10SM CLR 24/14 A3008 830 51 2100 060/07 RMK AO2 T02440139
04850KAOH AOH20160624112010806/24/16 11:20:31  5-MIN KAOH 241620Z AUTO 05008KT 10SM CLR 24/15 A3008 830 55 2100 060/08 RMK AO2 T02440150
04850KAOH AOH20160624112510806/24/16 11:25:31  5-MIN KAOH 241625Z AUTO 03007KT 10SM CLR 24/14 A3008 830 51 2200 040/07 RMK AO2 T02440139
04850KAOH AOH20160624113010806/24/16 11:30:31  5-MIN KAOH 241630Z AUTO 02008KT 10SM CLR 25/15 A3008 830 53 2200 030/08 RMK AO2 T02500150
04850KAOH AOH20160624113510806/24/16 11:35:31  5-MIN KAOH 241635Z AUTO 05009KT 10SM CLR 24/14 A3008 830 53 2200 060/09 RMK AO2 T02440144
04850KAOH AOH20160624114010806/24/16 11:40:31  5-MIN KAOH 241640Z AUTO 04008KT 10SM CLR 24/14 A3008 830 51 2200 050/08 RMK AO2 T02440139
04850KAOH AOH20160624114510806/24/16 11:45:31  5-MIN KAOH 241645Z AUTO 03011KT 10SM CLR 24/14 A3008 830 51 2200 040/11 RMK AO2 T02440139
04850KAOH AOH20160624115011506/24/16 11:50:31  5-MIN KAOH 241650Z AUTO 04009KT 10SM CLR 24/14 A3007 840 53 2200 050/09 RMK AO2 SLP178 T02440144
04850KAOH AOH20160624115510806/24/16 11:55:31  5-MIN KAOH 241655Z AUTO 03008KT 10SM CLR 25/14 A3007 840 49 2200 030/08 RMK AO2 T02500139
04850KAOH AOH20160624120010806/24/16 12:00:31  5-MIN KAOH 241700Z AUTO 03010KT 10SM CLR 25/15 A3007 840 53 2200 040/10 RMK AO2 T02500150
04850KAOH AOH20160624120510806/24/16 12:05:31  5-MIN KAOH 241705Z AUTO 03009KT 10SM CLR 25/14 A3008 830 51 2200 030/09 RMK AO2 T02500144
04850KAOH AOH20160624121010806/24/16 12:10:31  5-MIN KAOH 241710Z AUTO 03008KT 10SM CLR 25/14 A3007 840 51 2200 040/08 RMK AO2 T02500144
04850KAOH AOH20160624121511406/24/16 12:15:31  5-MIN KAOH 241715Z AUTO 03005G15KT 10SM CLR 25/13 A3008 830 48 2200 030/05G15 RMK AO2 T02500133
04850KAOH AOH20160624122011406/24/16 12:20:31  5-MIN KAOH 241720Z AUTO 04010G15KT 10SM CLR 25/14 A3008 830 49 2200 050/10G15 RMK AO2 T02500139
04850KAOH AOH20160624122510806/24/16 12:25:31  5-MIN KAOH 241725Z AUTO 06007KT 10SM CLR 25/14 A3008 830 49 2200 060/07 RMK AO2 T02500139
04850KAOH AOH20160624123010806/24/16 12:30:31  5-MIN KAOH 241730Z AUTO 07008KT 10SM CLR 25/14 A3008 830 51 2200 080/08 RMK AO2 T02500144
04850KAOH AOH20160624123510806/24/16 12:35:31  5-MIN KAOH 241735Z AUTO 07008KT 10SM CLR 25/14 A3008 830 51 2200 080/08 RMK AO2 T02500144
04850KAOH AOH20160624124010806/24/16 12:40:31  5-MIN KAOH 241740Z AUTO 04008KT 10SM CLR 25/14 A3008 830 51 2200 050/08 RMK AO2 T02500144
04850KAOH AOH20160624124511406/24/16 12:45:31  5-MIN KAOH 241745Z AUTO 02011G14KT 10SM CLR 25/16 A3008 830 55 2200 020/11G14 RMK AO2 T02500156
04850KAOH AOH20160624125013306/24/16 12:50:31  5-MIN KAOH 241750Z AUTO 02011KT 10SM CLR 26/14 A3008 830 49 2300 020/11 RMK AO2 SLP180 T02560144 10256 20178 51012
04850KAOH AOH20160624125510806/24/16 12:55:31  5-MIN KAOH 241755Z AUTO 05007KT 10SM CLR 25/14 A3008 830 49 2200 050/07 RMK AO2 T02500139
04850KAOH AOH20160624130010806/24/16 13:00:31  5-MIN KAOH 241800Z AUTO 01007KT 10SM CLR 26/14 A3008 830 49 2300 010/07 RMK AO2 T02560144
04850KAOH AOH20160624130510806/24/16 13:05:31  5-MIN KAOH 241805Z AUTO 02009KT 10SM CLR 26/14 A3009 820 49 2300 030/09 RMK AO2 T02560144
04850KAOH AOH20160624131010806/24/16 13:10:31  5-MIN KAOH 241810Z AUTO 03008KT 10SM CLR 26/14 A3009 820 48 2300 040/08 RMK AO2 T02560139
04850KAOH AOH20160624131510806/24/16 13:15:31  5-MIN KAOH 241815Z AUTO 03009KT 10SM CLR 26/13 A3008 830 46 2300 040/09 RMK AO2 T02560133
04850KAOH AOH20160624132010806/24/16 13:20:31  5-MIN KAOH 241820Z AUTO 01011KT 10SM CLR 26/14 A3008 830 48 2300 020/11 RMK AO2 T02560139
04850KAOH AOH20160624132510806/24/16 13:25:31  5-MIN KAOH 241825Z AUTO 36010KT 10SM CLR 26/13 A3008 830 46 2300 010/10 RMK AO2 T02560133
04850KAOH AOH20160624133010806/24/16 13:30:31  5-MIN KAOH 241830Z AUTO 02012KT 10SM CLR 26/13 A3008 830 46 2300 030/12 RMK AO2 T02560133
04850KAOH AOH20160624133510806/24/16 13:35:31  5-MIN KAOH 241835Z AUTO 04009KT 10SM CLR 26/14 A3008 830 48 2300 050/09 RMK AO2 T02560139
04850KAOH AOH20160624134010806/24/16 13:40:31  5-MIN KAOH 241840Z AUTO 06009KT 10SM CLR 26/14 A3009 820 48 2300 070/09 RMK AO2 T02560139
04850KAOH AOH20160624134510806/24/16 13:45:31  5-MIN KAOH 241845Z AUTO 02009KT 10SM CLR 26/14 A3009 820 49 2300 030/09 RMK AO2 T02560144
04850KAOH AOH20160624135011506/24/16 13:50:31  5-MIN KAOH 241850Z AUTO 03008KT 10SM CLR 26/14 A3009 820 49 2300 030/08 RMK AO2 SLP182 T02560144
04850KAOH AOH20160624135510806/24/16 13:55:31  5-MIN KAOH 241855Z AUTO 03006KT 10SM CLR 26/14 A3009 820 48 2300 040/06 RMK AO2 T02610144
04850KAOH AOH20160624140011406/24/16 14:00:31  5-MIN KAOH 241900Z AUTO 01009G15KT 10SM CLR 26/14 A3009 820 48 2300 010/09G15 RMK AO2 T02610144
04850KAOH AOH20160624140511406/24/16 14:05:31  5-MIN KAOH 241905Z AUTO 04008G15KT 10SM CLR 26/14 A3009 820 48 2300 040/08G15 RMK AO2 T02610144
04850KAOH AOH20160624141010806/24/16 14:10:31  5-MIN KAOH 241910Z AUTO 03008KT 10SM CLR 26/14 A3009 820 49 2300 040/08 RMK AO2 T02560144
04850KAOH AOH20160624141510806/24/16 14:15:31  5-MIN KAOH 241915Z AUTO 02006KT 10SM CLR 26/14 A3008 830 48 2300 030/06 RMK AO2 T02610144
04850KAOH AOH20160624142012406/24/16 14:20:31  5-MIN KAOH 241920Z AUTO 03007KT 360V060 10SM CLR 26/14 A3008 830 46 2300 030/07 010V070 RMK AO2 T02610139
04850KAOH AOH20160624142510806/24/16 14:25:31  5-MIN KAOH 241925Z AUTO VRB06KT 10SM CLR 27/16 A3008 830 50 2400 VRB/06 RMK AO2 T02670156
04850KAOH AOH20160624143010806/24/16 14:30:31  5-MIN KAOH 241930Z AUTO 05007KT 10SM CLR 27/16 A3008 830 50 2400 060/07 RMK AO2 T02670156
04850KAOH AOH20160624143510806/24/16 14:35:31  5-MIN KAOH 241935Z AUTO 02006KT 10SM CLR 26/15 A3009 820 50 2300 030/06 RMK AO2 T02610150
04850KAOH AOH20160624144010806/24/16 14:40:31  5-MIN KAOH 241940Z AUTO VRB06KT 10SM CLR 27/16 A3009 820 52 2400 VRB/06 RMK AO2 T02670161
04850KAOH AOH20160624144510806/24/16 14:45:31  5-MIN KAOH 241945Z AUTO 36009KT 10SM CLR 26/14 A3009 820 48 2300 360/09 RMK AO2 T02610144
04850KAOH AOH20160624145011506/24/16 14:50:31  5-MIN KAOH 241950Z AUTO VRB06KT 10SM CLR 26/14 A3009 820 48 2300 VRB/06 RMK AO2 SLP183 T02610144
04850KAOH AOH20160624145510806/24/16 14:55:31  5-MIN KAOH 241955Z AUTO 05007KT 10SM CLR 27/16 A3009 820 50 2400 060/07 RMK AO2 T02670156
04850KAOH AOH20160624150010806/24/16 15:00:31  5-MIN KAOH 242000Z AUTO 02007KT 10SM CLR 27/14 A3008 830 46 2400 030/07 RMK AO2 T02670144
04850KAOH AOH20160624150510806/24/16 15:05:31  5-MIN KAOH 242005Z AUTO 07008KT 10SM CLR 26/14 A3009 820 48 2300 080/08 RMK AO2 T02610144
04850KAOH AOH20160624151010806/24/16 15:10:31  5-MIN KAOH 242010Z AUTO 04010KT 10SM CLR 27/14 A3009 830 46 2400 040/10 RMK AO2 T02670144
04850KAOH AOH20160624151510806/24/16 15:15:31  5-MIN KAOH 242015Z AUTO 05010KT 10SM CLR 26/14 A3008 830 46 2300 060/10 RMK AO2 T02610139
04850KAOH AOH20160624152010806/24/16 15:20:31  5-MIN KAOH 242020Z AUTO 04010KT 10SM CLR 26/14 A3008 830 46 2300 050/10 RMK AO2 T02610139
04850KAOH AOH20160624152510806/24/16 15:25:31  5-MIN KAOH 242025Z AUTO 02007KT 10SM CLR 27/14 A3008 830 46 2400 030/07 RMK AO2 T02670144
04850KAOH AOH20160624153010806/24/16 15:30:31  5-MIN KAOH 242030Z AUTO 02009KT 10SM CLR 27/14 A3008 830 46 2400 030/09 RMK AO2 T02670144
04850KAOH AOH20160624153510806/24/16 15:35:31  5-MIN KAOH 242035Z AUTO 04010KT 10SM CLR 26/14 A3008 830 46 2300 040/10 RMK AO2 T02610139
04850KAOH AOH20160624154010806/24/16 15:40:31  5-MIN KAOH 242040Z AUTO 05011KT 10SM CLR 26/13 A3008 830 44 2300 060/11 RMK AO2 T02610133
04850KAOH AOH20160624154510806/24/16 15:45:31  5-MIN KAOH 242045Z AUTO 05009KT 10SM CLR 26/13 A3008 830 44 2300 060/09 RMK AO2 T02610133
04850KAOH AOH20160624155012106/24/16 15:50:31  5-MIN KAOH 242050Z AUTO 02005KT 10SM CLR 27/13 A3008 830 43 2400 030/05 RMK AO2 SLP181 T02670133 51005
04850KAOH AOH20160624155510806/24/16 15:55:31  5-MIN KAOH 242055Z AUTO 05008KT 10SM CLR 27/14 A3008 830 45 2400 050/08 RMK AO2 T02670139
04850KAOH AOH20160624160010806/24/16 16:00:31  5-MIN KAOH 242100Z AUTO 05006KT 10SM CLR 26/13 A3008 830 43 2300 050/06 RMK AO2 T02610128
04850KAOH AOH20160624160510806/24/16 16:05:31  5-MIN KAOH 242105Z AUTO 04009KT 10SM CLR 26/13 A3008 830 44 2300 050/09 RMK AO2 T02610133
04850KAOH AOH20160624161010806/24/16 16:10:31  5-MIN KAOH 242110Z AUTO 06008KT 10SM CLR 26/12 A3008 830 40 2300 060/08 RMK AO2 T02610117
04850KAOH AOH20160624161510806/24/16 16:15:31  5-MIN KAOH 242115Z AUTO 05004KT 10SM CLR 27/12 A3008 830 40 2400 060/04 RMK AO2 T02670122
04850KAOH AOH20160624162010806/24/16 16:20:31  5-MIN KAOH 242120Z AUTO 04006KT 10SM CLR 26/13 A3008 830 43 2300 040/06 RMK AO2 T02610128
04850KAOH AOH20160624162510806/24/16 16:25:31  5-MIN KAOH 242125Z AUTO 05004KT 10SM CLR 26/12 A3008 830 41 2300 050/04 RMK AO2 T02610122
04850KAOH AOH20160624163010806/24/16 16:30:31  5-MIN KAOH 242130Z AUTO 06005KT 10SM CLR 27/13 A3008 830 43 2400 060/05 RMK AO2 T02670133
04850KAOH AOH20160624163510806/24/16 16:35:31  5-MIN KAOH 242135Z AUTO 08007KT 10SM CLR 27/13 A3008 830 43 2400 080/07 RMK AO2 T02670133
04850KAOH AOH20160624164010806/24/16 16:40:31  5-MIN KAOH 242140Z AUTO 07005KT 10SM CLR 27/13 A3008 830 43 2400 080/05 RMK AO2 T02670133
04850KAOH AOH20160624164510806/24/16 16:45:31  5-MIN KAOH 242145Z AUTO 03006KT 10SM CLR 27/14 A3009 830 45 2400 040/06 RMK AO2 T02670139
04850KAOH AOH20160624165011506/24/16 16:50:31  5-MIN KAOH 242150Z AUTO VRB06KT 10SM CLR 27/14 A3009 820 46 2400 VRB/06 RMK AO2 SLP182 T02670144
04850KAOH AOH20160624165510806/24/16 16:55:31  5-MIN KAOH 242155Z AUTO 04005KT 10SM CLR 26/13 A3008 830 44 2300 040/05 RMK AO2 T02610133
04850KAOH AOH20160624170010806/24/16 17:00:31  5-MIN KAOH 242200Z AUTO 09005KT 10SM CLR 26/14 A3008 830 46 2300 090/05 RMK AO2 T02610139
04850KAOH AOH20160624170510806/24/16 17:05:31  5-MIN KAOH 242205Z AUTO 04006KT 10SM CLR 26/14 A3008 830 46 2300 040/06 RMK AO2 T02610139
04850KAOH AOH20160624171010806/24/16 17:10:31  5-MIN KAOH 242210Z AUTO 07006KT 10SM CLR 26/13 A3008 830 44 2300 070/06 RMK AO2 T02610133
04850KAOH AOH20160624171510806/24/16 17:15:31  5-MIN KAOH 242215Z AUTO 07007KT 10SM CLR 27/14 A3008 830 45 2400 080/07 RMK AO2 T02670139
04850KAOH AOH20160624172010806/24/16 17:20:31  5-MIN KAOH 242220Z AUTO 06007KT 10SM CLR 26/13 A3008 830 44 2300 060/07 RMK AO2 T02610133
04850KAOH AOH20160624172510806/24/16 17:25:31  5-MIN KAOH 242225Z AUTO 08006KT 10SM CLR 26/14 A3008 830 46 2300 090/06 RMK AO2 T02610139
04850KAOH AOH20160624173010806/24/16 17:30:31  5-MIN KAOH 242230Z AUTO 04005KT 10SM CLR 27/13 A3008 830 43 2400 040/05 RMK AO2 T02670133
04850KAOH AOH20160624173510806/24/16 17:35:31  5-MIN KAOH 242235Z AUTO 04006KT 10SM CLR 26/13 A3008 830 44 2300 050/06 RMK AO2 T02610133
04850KAOH AOH20160624174010806/24/16 17:40:31  5-MIN KAOH 242240Z AUTO 05005KT 10SM CLR 26/13 A3008 830 43 2300 050/05 RMK AO2 T02610128
04850KAOH AOH20160624174510806/24/16 17:45:31  5-MIN KAOH 242245Z AUTO 04004KT 10SM CLR 26/14 A3008 830 46 2300 050/04 RMK AO2 T02610139
04850KAOH AOH20160624175011506/24/16 17:50:31  5-MIN KAOH 242250Z AUTO 06004KT 10SM CLR 26/14 A3008 830 46 2300 070/04 RMK AO2 SLP181 T02610139
04850KAOH AOH20160624175510806/24/16 17:55:31  5-MIN KAOH 242255Z AUTO 03004KT 10SM CLR 26/14 A3008 830 46 2300 040/04 RMK AO2 T02610139
04850KAOH AOH20160624180010806/24/16 18:00:31  5-MIN KAOH 242300Z AUTO 02006KT 10SM CLR 26/14 A3008 830 46 2300 020/06 RMK AO2 T02610139
04850KAOH AOH20160624180510806/24/16 18:05:31  5-MIN KAOH 242305Z AUTO 03005KT 10SM CLR 26/14 A3008 830 49 2300 040/05 RMK AO2 T02560144
04850KAOH AOH20160624181010806/24/16 18:10:31  5-MIN KAOH 242310Z AUTO 04005KT 10SM CLR 26/14 A3008 830 49 2300 040/05 RMK AO2 T02560144
04850KAOH AOH20160624181510806/24/16 18:15:31  5-MIN KAOH 242315Z AUTO 06005KT 10SM CLR 26/14 A3008 830 49 2300 070/05 RMK AO2 T02560144
04850KAOH AOH20160624182010806/24/16 18:20:31  5-MIN KAOH 242320Z AUTO 04006KT 10SM CLR 26/14 A3008 830 48 2300 040/06 RMK AO2 T02560139
04850KAOH AOH20160624182510806/24/16 18:25:31  5-MIN KAOH 242325Z AUTO 04006KT 10SM CLR 26/14 A3008 830 48 2300 040/06 RMK AO2 T02560139
04850KAOH AOH20160624183010806/24/16 18:30:31  5-MIN KAOH 242330Z AUTO 05007KT 10SM CLR 25/14 A3008 830 51 2200 060/07 RMK AO2 T02500144
04850KAOH AOH20160624183510806/24/16 18:35:31  5-MIN KAOH 242335Z AUTO 05005KT 10SM CLR 25/14 A3008 830 49 2200 060/05 RMK AO2 T02500139
04850KAOH AOH20160624184010806/24/16 18:40:31  5-MIN KAOH 242340Z AUTO 04006KT 10SM CLR 25/14 A3008 830 49 2200 050/06 RMK AO2 T02500139
04850KAOH AOH20160624184510806/24/16 18:45:31  5-MIN KAOH 242345Z AUTO 06008KT 10SM CLR 25/14 A3008 830 49 2200 070/08 RMK AO2 T02500139
04850KAOH AOH20160624185013306/24/16 18:50:31  5-MIN KAOH 242350Z AUTO 05007KT 10SM CLR 25/14 A3008 830 49 2200 060/07 RMK AO2 SLP182 T02500139 10267 20250 50000
04850KAOH AOH20160624185510806/24/16 18:55:31  5-MIN KAOH 242355Z AUTO 05007KT 10SM CLR 25/13 A3008 830 48 2200 060/07 RMK AO2 T02500133
04850KAOH AOH20160624190010806/24/16 19:00:31  5-MIN KAOH 250000Z AUTO 05006KT 10SM CLR 24/13 A3009 820 49 2100 060/06 RMK AO2 T02440133
04850KAOH AOH20160624190510806/24/16 19:05:31  5-MIN KAOH 250005Z AUTO 05006KT 10SM CLR 24/13 A3009 820 49 2100 050/06 RMK AO2 T02440133
04850KAOH AOH20160624191010806/24/16 19:10:31  5-MIN KAOH 250010Z AUTO 05006KT 10SM CLR 24/13 A3009 820 49 2100 050/06 RMK AO2 T02440133
04850KAOH AOH20160624191510806/24/16 19:15:31  5-MIN KAOH 250015Z AUTO 04005KT 10SM CLR 24/13 A3009 820 51 2100 050/05 RMK AO2 T02390133
04850KAOH AOH20160624192010806/24/16 19:20:31  5-MIN KAOH 250020Z AUTO 05005KT 10SM CLR 24/13 A3009 820 51 2100 060/05 RMK AO2 T02390133
04850KAOH AOH20160624192510806/24/16 19:25:31  5-MIN KAOH 250025Z AUTO 05005KT 10SM CLR 24/13 A3009 820 51 2100 060/05 RMK AO2 T02390133
04850KAOH AOH20160624193010806/24/16 19:30:31  5-MIN KAOH 250030Z AUTO 05005KT 10SM CLR 23/14 A3009 820 55 2000 060/05 RMK AO2 T02330139
04850KAOH AOH20160624193510806/24/16 19:35:31  5-MIN KAOH 250035Z AUTO 05005KT 10SM CLR 23/13 A3009 820 53 2000 050/05 RMK AO2 T02330133
04850KAOH AOH20160624194010806/24/16 19:40:31  5-MIN KAOH 250040Z AUTO 05005KT 10SM CLR 23/14 A3009 820 57 2000 060/05 RMK AO2 T02280139
04850KAOH AOH20160624194510806/24/16 19:45:31  5-MIN KAOH 250045Z AUTO 05005KT 10SM CLR 23/14 A3009 820 57 2000 050/05 RMK AO2 T02280139
04850KAOH AOH20160624195011506/24/16 19:50:31  5-MIN KAOH 250050Z AUTO 05004KT 10SM CLR 23/14 A3009 820 57 2000 050/04 RMK AO2 SLP183 T02280139
04850KAOH AOH20160624195510806/24/16 19:55:31  5-MIN KAOH 250055Z AUTO 05004KT 10SM CLR 23/14 A3009 820 57 2000 060/04 RMK AO2 T02280139
04850KAOH AOH20160624200010806/24/16 20:00:31  5-MIN KAOH 250100Z AUTO 05004KT 10SM CLR 22/14 A3009 820 59 1900 060/04 RMK AO2 T02220139
04850KAOH AOH20160624200510806/24/16 20:05:31  5-MIN KAOH 250105Z AUTO 05005KT 10SM CLR 22/13 A3009 820 56 1900 060/05 RMK AO2 T02220133
04850KAOH AOH20160624201010806/24/16 20:10:31  5-MIN KAOH 250110Z AUTO 05005KT 10SM CLR 22/13 A3009 820 54 1900 060/05 RMK AO2 T02220128
04850KAOH AOH20160624201510806/24/16 20:15:31  5-MIN KAOH 250115Z AUTO 06005KT 10SM CLR 22/13 A3009 820 56 1800 060/05 RMK AO2 T02170128
04850KAOH AOH20160624202010806/24/16 20:20:31  5-MIN KAOH 250120Z AUTO 06005KT 10SM CLR 22/13 A3009 820 56 1800 070/05 RMK AO2 T02170128
04850KAOH AOH20160624202510806/24/16 20:25:31  5-MIN KAOH 250125Z AUTO 06004KT 10SM CLR 21/13 A3009 820 58 1800 060/04 RMK AO2 T02110128
04850KAOH AOH20160624203010806/24/16 20:30:31  5-MIN KAOH 250130Z AUTO 06004KT 10SM CLR 21/13 A3009 820 58 1800 060/04 RMK AO2 T02110128
04850KAOH AOH20160624203510806/24/16 20:35:31  5-MIN KAOH 250135Z AUTO 06005KT 10SM CLR 21/13 A3009 820 58 1800 070/05 RMK AO2 T02110128
04850KAOH AOH20160624204010806/24/16 20:40:31  5-MIN KAOH 250140Z AUTO 06005KT 10SM CLR 21/13 A3009 820 60 1700 070/05 RMK AO2 T02060128
04850KAOH AOH20160624204510806/24/16 20:45:31  5-MIN KAOH 250145Z AUTO 06005KT 10SM CLR 21/13 A3009 820 60 1700 070/05 RMK AO2 T02060128
04850KAOH AOH20160624205011506/24/16 20:50:31  5-MIN KAOH 250150Z AUTO 06005KT 10SM CLR 21/13 A3010 820 60 1700 070/05 RMK AO2 SLP185 T02060128
04850KAOH AOH20160624205510806/24/16 20:55:31  5-MIN KAOH 250155Z AUTO 07005KT 10SM CLR 20/12 A3010 810 60 1600 070/05 RMK AO2 T02000122
04850KAOH AOH20160624210010806/24/16 21:00:31  5-MIN KAOH 250200Z AUTO 07005KT 10SM CLR 19/13 A3010 810 67 1600 080/05 RMK AO2 T01940133
04850KAOH AOH20160624210510806/24/16 21:05:31  5-MIN KAOH 250205Z AUTO 07005KT 10SM CLR 19/14 A3010 810 70 1600 080/05 RMK AO2 T01940139
04850KAOH AOH20160624211010806/24/16 21:10:31  5-MIN KAOH 250210Z AUTO 07005KT 10SM CLR 19/14 A3010 810 70 1600 080/05 RMK AO2 T01940139
04850KAOH AOH20160624211510806/24/16 21:15:31  5-MIN KAOH 250215Z AUTO 07005KT 10SM CLR 19/14 A3010 810 70 1600 080/05 RMK AO2 T01940139
04850KAOH AOH20160624212010806/24/16 21:20:31  5-MIN KAOH 250220Z AUTO 07004KT 10SM CLR 19/14 A3011 810 72 1500 080/04 RMK AO2 T01890139
04850KAOH AOH20160624212510806/24/16 21:25:31  5-MIN KAOH 250225Z AUTO 07004KT 10SM CLR 19/14 A3011 800 70 1500 080/04 RMK AO2 T01940139
04850KAOH AOH20160624213010806/24/16 21:30:31  5-MIN KAOH 250230Z AUTO 07004KT 10SM CLR 19/13 A3011 800 70 1500 080/04 RMK AO2 T01890133
04850KAOH AOH20160624213510806/24/16 21:35:31  5-MIN KAOH 250235Z AUTO 08003KT 10SM CLR 19/13 A3011 800 67 1500 090/03 RMK AO2 T01940133
04850KAOH AOH20160624214010806/24/16 21:40:31  5-MIN KAOH 250240Z AUTO 08003KT 10SM CLR 19/13 A3011 800 67 1500 090/03 RMK AO2 T01940133
04850KAOH AOH20160624214510806/24/16 21:45:31  5-MIN KAOH 250245Z AUTO 07003KT 10SM CLR 19/13 A3011 800 67 1500 080/03 RMK AO2 T01940133
04850KAOH AOH20160624215012106/24/16 21:50:31  5-MIN KAOH 250250Z AUTO 07003KT 10SM CLR 19/13 A3011 800 70 1500 070/03 RMK AO2 SLP191 T01890133 51001
04850KAOH AOH20160624215510806/24/16 21:55:31  5-MIN KAOH 250255Z AUTO 07003KT 10SM CLR 19/14 A3012 800 72 1500 070/03 RMK AO2 T01890139
04850KAOH AOH20160624220010806/24/16 22:00:31  5-MIN KAOH 250300Z AUTO 06003KT 10SM CLR 19/12 A3012 790 62 1500 070/03 RMK AO2 T01940122
04850KAOH AOH20160624220510806/24/16 22:05:31  5-MIN KAOH 250305Z AUTO 06003KT 10SM CLR 19/13 A3012 790 67 1500 070/03 RMK AO2 T01890128
04850KAOH AOH20160624221010806/24/16 22:10:31  5-MIN KAOH 250310Z AUTO 06004KT 10SM CLR 19/13 A3012 790 70 1500 060/04 RMK AO2 T01890133
04850KAOH AOH20160624221510806/24/16 22:15:31  5-MIN KAOH 250315Z AUTO 06004KT 10SM CLR 19/13 A3012 790 70 1500 070/04 RMK AO2 T01890133
04850KAOH AOH20160624222010806/24/16 22:20:31  5-MIN KAOH 250320Z AUTO 06004KT 10SM CLR 18/14 A3012 790 75 1400 070/04 RMK AO2 T01830139
04850KAOH AOH20160624222510806/24/16 22:25:31  5-MIN KAOH 250325Z AUTO 06004KT 10SM CLR 18/14 A3012 790 78 1300 060/04 RMK AO2 T01780139
04850KAOH AOH20160624223010806/24/16 22:30:31  5-MIN KAOH 250330Z AUTO 05004KT 10SM CLR 18/13 A3012 790 72 1400 060/04 RMK AO2 T01830133
04850KAOH AOH20160624223510806/24/16 22:35:31  5-MIN KAOH 250335Z AUTO 06004KT 10SM CLR 18/13 A3012 800 70 1400 070/04 RMK AO2 T01830128
04850KAOH AOH20160624224010806/24/16 22:40:31  5-MIN KAOH 250340Z AUTO 06004KT 10SM CLR 18/12 A3012 800 67 1400 060/04 RMK AO2 T01830122
04850KAOH AOH20160624224510806/24/16 22:45:31  5-MIN KAOH 250345Z AUTO 06003KT 10SM CLR 18/12 A3012 790 67 1400 070/03 RMK AO2 T01830122
04850KAOH AOH20160624225011506/24/16 22:50:31  5-MIN KAOH 250350Z AUTO 06004KT 10SM CLR 18/12 A3012 790 67 1400 060/04 RMK AO2 SLP193 T01830122
04850KAOH AOH20160624225510806/24/16 22:55:31  5-MIN KAOH 250355Z AUTO 05003KT 10SM CLR 18/12 A3012 790 67 1400 060/03 RMK AO2 T01830122
04850KAOH AOH20160624230010806/24/16 23:00:31  5-MIN KAOH 250400Z AUTO 06004KT 10SM CLR 18/12 A3012 790 67 1400 060/04 RMK AO2 T01830122
04850KAOH AOH20160624230510806/24/16 23:05:31  5-MIN KAOH 250405Z AUTO 06004KT 10SM CLR 18/12 A3012 790 67 1400 060/04 RMK AO2 T01830122
04850KAOH AOH20160624231010806/24/16 23:10:31  5-MIN KAOH 250410Z AUTO 06003KT 10SM CLR 18/12 A3012 800 69 1300 070/03 RMK AO2 T01780122
04850KAOH AOH20160624231510806/24/16 23:15:31  5-MIN KAOH 250415Z AUTO 07004KT 10SM CLR 18/12 A3012 790 69 1300 070/04 RMK AO2 T01780122
04850KAOH AOH20160624232010806/24/16 23:20:31  5-MIN KAOH 250420Z AUTO 07003KT 10SM CLR 18/13 A3012 790 72 1300 070/03 RMK AO2 T01780128
04850KAOH AOH20160624232510806/24/16 23:25:31  5-MIN KAOH 250425Z AUTO 06004KT 10SM CLR 17/13 A3012 790 80 1200 070/04 RMK AO2 T01670133
04850KAOH AOH20160624233010806/24/16 23:30:31  5-MIN KAOH 250430Z AUTO 06004KT 10SM CLR 17/13 A3012 790 75 1300 070/04 RMK AO2 T01720128
04850KAOH AOH20160624233510806/24/16 23:35:31  5-MIN KAOH 250435Z AUTO 06003KT 10SM CLR 17/13 A3012 790 75 1300 070/03 RMK AO2 T01720128
04850KAOH AOH20160624234010806/24/16 23:40:31  5-MIN KAOH 250440Z AUTO 06003KT 10SM CLR 17/13 A3012 790 75 1300 070/03 RMK AO2 T01720128
04850KAOH AOH20160624234510806/24/16 23:45:31  5-MIN KAOH 250445Z AUTO 07003KT 10SM CLR 18/12 A3012 790 67 1300 080/03 RMK AO2 T01780117
04850KAOH AOH20160624235012506/24/16 23:50:31  5-MIN KAOH 250450Z AUTO 00000KT 10SM CLR 18/12 A3012 790 67 1300 000/00 RMK AO2 SLP195 T01780117 402670161
04850KAOH AOH20160624235510806/24/16 23:55:31  5-MIN KAOH 250455Z AUTO 07003KT 10SM CLR 18/12 A3013 790 67 1300 070/03 RMK AO2 T01780117
04850KAOH AOH20160625000010806/25/16 00:00:31  5-MIN KAOH 250500Z AUTO 08003KT 10SM CLR 18/12 A3013 790 69 1300 080/03 RMK AO2 T01780122
04850KAOH AOH20160625000510806/25/16 00:05:31  5-MIN KAOH 250505Z AUTO 00000KT 10SM CLR 17/12 A3013 790 69 1300 000/00 RMK AO2 T01720117
04850KAOH AOH20160625001010806/25/16 00:10:31  5-MIN KAOH 250510Z AUTO 00000KT 10SM CLR 18/12 A3013 790 67 1300 000/00 RMK AO2 T01780117
04850KAOH AOH20160625001510806/25/16 00:15:31  5-MIN KAOH 250515Z AUTO 00000KT 10SM CLR 18/12 A3013 780 67 1300 000/00 RMK AO2 T01780117
04850KAOH AOH20160625002010806/25/16 00:20:31  5-MIN KAOH 250520Z AUTO 00000KT 10SM CLR 16/13 A3013 780 83 1100 000/00 RMK AO2 T01610133
04850KAOH AOH20160625002510806/25/16 00:25:31  5-MIN KAOH 250525Z AUTO 00000KT 10SM CLR 16/14 A3013 780 90 1100 000/00 RMK AO2 T01610144
04850KAOH AOH20160625003010806/25/16 00:30:31  5-MIN KAOH 250530Z AUTO 00000KT 10SM CLR 16/14 A3013 780 90 1100 000/00 RMK AO2 T01610144
04850KAOH AOH20160625003510806/25/16 00:35:31  5-MIN KAOH 250535Z AUTO 00000KT 10SM CLR 16/14 A3013 780 86 1100 000/00 RMK AO2 T01610139
04850KAOH AOH20160625004010806/25/16 00:40:31  5-MIN KAOH 250540Z AUTO 00000KT 10SM CLR 16/14 A3013 780 86 1100 000/00 RMK AO2 T01610139
04850KAOH AOH20160625004510806/25/16 00:45:31  5-MIN KAOH 250545Z AUTO 00000KT 10SM CLR 17/14 A3013 780 83 1200 000/00 RMK AO2 T01670139
04850KAOH AOH20160625005013306/25/16 00:50:31  5-MIN KAOH 250550Z AUTO 00000KT 10SM CLR 16/14 A3013 780 86 1100 000/00 RMK AO2 SLP197 T01610139 10250 20161 53010
04850KAOH AOH20160625005510806/25/16 00:55:31  5-MIN KAOH 250555Z AUTO 00000KT 10SM CLR 16/14 A3013 780 86 1100 000/00 RMK AO2 T01610139
04850KAOH AOH20160625010010806/25/16 01:00:31  5-MIN KAOH 250600Z AUTO 00000KT 10SM CLR 16/14 A3013 790 86 1100 000/00 RMK AO2 T01610139
04850KAOH AOH20160625010510806/25/16 01:05:31  5-MIN KAOH 250605Z AUTO 00000KT 10SM CLR 16/13 A3013 790 83 1100 000/00 RMK AO2 T01610133
04850KAOH AOH20160625011010806/25/16 01:10:31  5-MIN KAOH 250610Z AUTO 00000KT 10SM CLR 16/14 A3013 790 90 1100 000/00 RMK AO2 T01560139
04850KAOH AOH20160625011510806/25/16 01:15:31  5-MIN KAOH 250615Z AUTO 00000KT 10SM CLR 16/14 A3013 790 90 1100 000/00 RMK AO2 T01560139
04850KAOH AOH20160625012010806/25/16 01:20:31  5-MIN KAOH 250620Z AUTO 00000KT 10SM CLR 16/13 A3013 790 86 1100 000/00 RMK AO2 T01560133
04850KAOH AOH20160625012510806/25/16 01:25:31  5-MIN KAOH 250625Z AUTO 00000KT 10SM CLR 16/13 A3013 790 83 1100 000/00 RMK AO2 T01610133
04850KAOH AOH20160625013010806/25/16 01:30:31  5-MIN KAOH 250630Z AUTO 00000KT 10SM CLR 16/13 A3013 790 86 1100 000/00 RMK AO2 T01560133
04850KAOH AOH20160625013510806/25/16 01:35:31  5-MIN KAOH 250635Z AUTO 00000KT 10SM CLR 16/13 A3013 790 86 1100 000/00 RMK AO2 T01560133
04850KAOH AOH20160625014010806/25/16 01:40:31  5-MIN KAOH 250640Z AUTO 00000KT 10SM CLR 16/13 A3013 790 86 1100 000/00 RMK AO2 T01560133
04850KAOH AOH20160625014510806/25/16 01:45:31  5-MIN KAOH 250645Z AUTO 00000KT 10SM CLR 16/13 A3013 790 86 1100 000/00 RMK AO2 T01560133
04850KAOH AOH20160625015011506/25/16 01:50:31  5-MIN KAOH 250650Z AUTO 00000KT 10SM CLR 16/13 A3013 790 83 1100 000/00 RMK AO2 SLP196 T01560128
04850KAOH AOH20160625015510806/25/16 01:55:31  5-MIN KAOH 250655Z AUTO 00000KT 10SM CLR 15/13 A3012 790 90 1000 000/00 RMK AO2 T01500133
04850KAOH AOH20160625020010806/25/16 02:00:31  5-MIN KAOH 250700Z AUTO 00000KT 10SM CLR 15/13 A3012 790 90 1000 000/00 RMK AO2 T01500133
04850KAOH AOH20160625020510806/25/16 02:05:31  5-MIN KAOH 250705Z AUTO 00000KT 10SM CLR 15/14 A3012 790 93 1000 000/00 RMK AO2 T01500139
04850KAOH AOH20160625021010806/25/16 02:10:31  5-MIN KAOH 250710Z AUTO 00000KT 10SM CLR 15/14 A3012 790 93 1000 000/00 RMK AO2 T01500139
04850KAOH AOH20160625021510806/25/16 02:15:31  5-MIN KAOH 250715Z AUTO 00000KT 10SM CLR 16/13 A3013 790 86 1100 000/00 RMK AO2 T01560133
04850KAOH AOH20160625022010806/25/16 02:20:31  5-MIN KAOH 250720Z AUTO 00000KT 10SM CLR 15/13 A3012 790 86 1000 000/00 RMK AO2 T01500128
04850KAOH AOH20160625022510806/25/16 02:25:31  5-MIN KAOH 250725Z AUTO 00000KT 10SM CLR 15/13 A3012 790 90 1000 000/00 RMK AO2 T01500133
04850KAOH AOH20160625023010806/25/16 02:30:31  5-MIN KAOH 250730Z AUTO 00000KT 10SM CLR 15/13 A3013 790 90 1000 000/00 RMK AO2 T01500133
04850KAOH AOH20160625023510706/25/16 02:35:31  5-MIN KAOH 250735Z AUTO 00000KT 10SM CLR 14/13 A3013 790 93 900 000/00 RMK AO2 T01440133
04850KAOH AOH20160625024010806/25/16 02:40:31  5-MIN KAOH 250740Z AUTO 00000KT 10SM CLR 15/13 A3013 790 90 1000 000/00 RMK AO2 T01500133
04850KAOH AOH20160625024510806/25/16 02:45:31  5-MIN KAOH 250745Z AUTO 00000KT 10SM CLR 15/13 A3013 790 90 1000 000/00 RMK AO2 T01500133
04850KAOH AOH20160625025011506/25/16 02:50:31  5-MIN KAOH 250750Z AUTO 00000KT 10SM CLR 15/13 A3012 790 90 1000 000/00 RMK AO2 SLP196 T01500133
04850KAOH AOH20160625025510806/25/16 02:55:31  5-MIN KAOH 250755Z AUTO 00000KT 10SM CLR 15/13 A3012 790 90 1000 000/00 RMK AO2 T01500133
04850KAOH AOH20160625030010806/25/16 03:00:31  5-MIN KAOH 250800Z AUTO 00000KT 10SM CLR 16/13 A3012 790 83 1100 000/00 RMK AO2 T01560128
04850KAOH AOH20160625030510806/25/16 03:05:31  5-MIN KAOH 250805Z AUTO 00000KT 10SM CLR 16/12 A3012 790 77 1100 000/00 RMK AO2 T01560117
04850KAOH AOH20160625031010806/25/16 03:10:31  5-MIN KAOH 250810Z AUTO 00000KT 10SM CLR 15/13 A3012 790 86 1000 000/00 RMK AO2 T01500128
04850KAOH AOH20160625031510806/25/16 03:15:31  5-MIN KAOH 250815Z AUTO 00000KT 10SM CLR 15/13 A3012 790 86 1000 000/00 RMK AO2 T01500128
04850KAOH AOH20160625032010806/25/16 03:20:31  5-MIN KAOH 250820Z AUTO 00000KT 10SM CLR 15/12 A3012 790 80 1000 000/00 RMK AO2 T01500117
04850KAOH AOH20160625032510806/25/16 03:25:31  5-MIN KAOH 250825Z AUTO 00000KT 10SM CLR 15/12 A3012 790 80 1000 000/00 RMK AO2 T01500117
04850KAOH AOH20160625033010806/25/16 03:30:31  5-MIN KAOH 250830Z AUTO 00000KT 10SM CLR 16/12 A3012 790 80 1100 000/00 RMK AO2 T01560122
04850KAOH AOH20160625033510806/25/16 03:35:31  5-MIN KAOH 250835Z AUTO 00000KT 10SM CLR 15/13 A3012 790 86 1000 000/00 RMK AO2 T01500128
04850KAOH AOH20160625034010706/25/16 03:40:31  5-MIN KAOH 250840Z AUTO 00000KT 10SM CLR 14/13 A3012 790 90 900 000/00 RMK AO2 T01440128
04850KAOH AOH20160625034510706/25/16 03:45:31  5-MIN KAOH 250845Z AUTO 00000KT 10SM CLR 14/13 A3012 790 93 900 000/00 RMK AO2 T01440133
04850KAOH AOH20160625035012006/25/16 03:50:31  5-MIN KAOH 250850Z AUTO 00000KT 10SM CLR 14/13 A3013 790 90 900 000/00 RMK AO2 SLP197 T01440128 52005
04850KAOH AOH20160625035510706/25/16 03:55:31  5-MIN KAOH 250855Z AUTO 07003KT 10SM CLR 14/13 A3013 790 90 900 080/03 RMK AO2 T01440128
04850KAOH AOH20160625040010706/25/16 04:00:31  5-MIN KAOH 250900Z AUTO 07003KT 10SM CLR 14/13 A3013 790 93 900 080/03 RMK AO2 T01390128
04850KAOH AOH20160625040510706/25/16 04:05:31  5-MIN KAOH 250905Z AUTO 08003KT 10SM CLR 14/13 A3013 780 90 900 090/03 RMK AO2 T01440128
04850KAOH AOH20160625041010706/25/16 04:10:31  5-MIN KAOH 250910Z AUTO 09003KT 10SM CLR 14/12 A3013 780 86 900 090/03 RMK AO2 T01440122
04850KAOH AOH20160625041510706/25/16 04:15:31  5-MIN KAOH 250915Z AUTO 09003KT 10SM CLR 14/13 A3013 780 93 900 090/03 RMK AO2 T01390128
04850KAOH AOH20160625042010706/25/16 04:20:31  5-MIN KAOH 250920Z AUTO 09003KT 10SM CLR 14/12 A3013 780 86 900 090/03 RMK AO2 T01440122
04850KAOH AOH20160625042510706/25/16 04:25:31  5-MIN KAOH 250925Z AUTO 08003KT 10SM CLR 14/13 A3013 780 90 900 090/03 RMK AO2 T01440128
04850KAOH AOH20160625043010706/25/16 04:30:31  5-MIN KAOH 250930Z AUTO 08003KT 10SM CLR 14/12 A3013 780 86 900 090/03 RMK AO2 T01440122
04850KAOH AOH20160625043510706/25/16 04:35:31  5-MIN KAOH 250935Z AUTO 08003KT 10SM CLR 14/12 A3013 780 83 900 090/03 RMK AO2 T01440117
04850KAOH AOH20160625044010706/25/16 04:40:31  5-MIN KAOH 250940Z AUTO 09003KT 10SM CLR 14/12 A3013 780 83 900 090/03 RMK AO2 T01440117
04850KAOH AOH20160625044510706/25/16 04:45:31  5-MIN KAOH 250945Z AUTO 08003KT 10SM CLR 14/12 A3013 780 83 900 090/03 RMK AO2 T01440117
04850KAOH AOH20160625045011406/25/16 04:50:31  5-MIN KAOH 250950Z AUTO 08004KT 10SM CLR 14/12 A3013 780 83 900 090/04 RMK AO2 SLP198 T01440117
04850KAOH AOH20160625045510706/25/16 04:55:31  5-MIN KAOH 250955Z AUTO 09004KT 10SM CLR 14/12 A3013 780 83 900 090/04 RMK AO2 T01440117
04850KAOH AOH20160625050010706/25/16 05:00:31  5-MIN KAOH 251000Z AUTO 09004KT 10SM CLR 14/12 A3013 780 83 900 090/04 RMK AO2 T01440117
04850KAOH AOH20160625050510806/25/16 05:05:31  5-MIN KAOH 251005Z AUTO 10004KT 10SM CLR 15/11 A3013 780 74 1000 100/04 RMK AO2 T01500106
04850KAOH AOH20160625051010706/25/16 05:10:31  5-MIN KAOH 251010Z AUTO 10004KT 10SM CLR 14/11 A3013 780 80 900 110/04 RMK AO2 T01440111
04850KAOH AOH20160625051510706/25/16 05:15:31  5-MIN KAOH 251015Z AUTO 10003KT 10SM CLR 14/12 A3014 780 83 900 110/03 RMK AO2 T01440117
04850KAOH AOH20160625052010706/25/16 05:20:31  5-MIN KAOH 251020Z AUTO 12004KT 10SM CLR 14/11 A3014 780 80 900 130/04 RMK AO2 T01440111
04850KAOH AOH20160625052510806/25/16 05:25:31  5-MIN KAOH 251025Z AUTO 00000KT 10SM CLR 15/11 A3014 770 77 1000 000/00 RMK AO2 T01500111
04850KAOH AOH20160625053010806/25/16 05:30:31  5-MIN KAOH 251030Z AUTO 00000KT 10SM CLR 16/11 A3014 770 72 1100 000/00 RMK AO2 T01560106
04850KAOH AOH20160625053510806/25/16 05:35:31  5-MIN KAOH 251035Z AUTO 00000KT 10SM CLR 16/11 A3015 770 72 1100 000/00 RMK AO2 T01560106
04850KAOH AOH20160625054010806/25/16 05:40:31  5-MIN KAOH 251040Z AUTO 00000KT 10SM CLR 15/12 A3015 770 80 1000 000/00 RMK AO2 T01500117
04850KAOH AOH20160625054510806/25/16 05:45:31  5-MIN KAOH 251045Z AUTO 00000KT 10SM CLR 15/12 A3015 770 80 1000 000/00 RMK AO2 T01500117
04850KAOH AOH20160625055011506/25/16 05:50:31  5-MIN KAOH 251050Z AUTO 00000KT 10SM CLR 16/12 A3015 770 80 1100 000/00 RMK AO2 SLP203 T01560122
04850KAOH AOH20160625055510806/25/16 05:55:31  5-MIN KAOH 251055Z AUTO 00000KT 10SM CLR 16/13 A3015 770 83 1100 000/00 RMK AO2 T01560128
04850KAOH AOH20160625060010806/25/16 06:00:31  5-MIN KAOH 251100Z AUTO 08003KT 10SM CLR 16/13 A3015 770 83 1100 080/03 RMK AO2 T01560128
04850KAOH AOH20160625060510806/25/16 06:05:31  5-MIN KAOH 251105Z AUTO 07003KT 10SM CLR 16/13 A3015 770 86 1100 070/03 RMK AO2 T01560133
04850KAOH AOH20160625061010806/25/16 06:10:31  5-MIN KAOH 251110Z AUTO 08004KT 10SM CLR 16/13 A3015 770 80 1100 090/04 RMK AO2 T01610128
04850KAOH AOH20160625061510806/25/16 06:15:31  5-MIN KAOH 251115Z AUTO 09003KT 10SM CLR 17/13 A3015 770 77 1200 090/03 RMK AO2 T01670128
04850KAOH AOH20160625062010806/25/16 06:20:31  5-MIN KAOH 251120Z AUTO 09003KT 10SM CLR 17/13 A3015 770 77 1200 100/03 RMK AO2 T01670128
04850KAOH AOH20160625062510806/25/16 06:25:31  5-MIN KAOH 251125Z AUTO 09003KT 10SM CLR 17/13 A3015 770 78 1200 100/03 RMK AO2 T01720133
04850KAOH AOH20160625063010806/25/16 06:30:31  5-MIN KAOH 251130Z AUTO 09003KT 10SM CLR 17/13 A3015 770 78 1200 100/03 RMK AO2 T01720133
04850KAOH AOH20160625063510806/25/16 06:35:31  5-MIN KAOH 251135Z AUTO 09003KT 10SM CLR 18/13 A3015 760 75 1300 100/03 RMK AO2 T01780133
04850KAOH AOH20160625064010806/25/16 06:40:31  5-MIN KAOH 251140Z AUTO 00000KT 10SM CLR 18/13 A3015 760 75 1300 000/00 RMK AO2 T01780133
04850KAOH AOH20160625064510806/25/16 06:45:31  5-MIN KAOH 251145Z AUTO 11003KT 10SM CLR 18/13 A3015 760 72 1400 120/03 RMK AO2 T01830133
04850KAOH AOH20160625065013306/25/16 06:50:31  5-MIN KAOH 251150Z AUTO 11003KT 10SM CLR 18/12 A3015 760 67 1400 110/03 RMK AO2 SLP205 T01830122 10183 20139 55001
04850KAOH AOH20160625065510806/25/16 06:55:31  5-MIN KAOH 251155Z AUTO 00000KT 10SM CLR 18/13 A3016 760 70 1400 000/00 RMK AO2 T01830128
04850KAOH AOH20160625070010806/25/16 07:00:31  5-MIN KAOH 251200Z AUTO 00000KT 10SM CLR 18/13 A3016 760 72 1400 000/00 RMK AO2 T01830133
04850KAOH AOH20160625070510806/25/16 07:05:31  5-MIN KAOH 251205Z AUTO 00000KT 10SM CLR 19/13 A3016 760 67 1400 000/00 RMK AO2 T01890128
04850KAOH AOH20160625071010806/25/16 07:10:31  5-MIN KAOH 251210Z AUTO 09003KT 10SM CLR 19/12 A3016 750 62 1500 090/03 RMK AO2 T01940122
04850KAOH AOH20160625071510806/25/16 07:15:31  5-MIN KAOH 251215Z AUTO 08003KT 10SM CLR 19/12 A3016 750 62 1500 080/03 RMK AO2 T01940122
04850KAOH AOH20160625072010806/25/16 07:20:31  5-MIN KAOH 251220Z AUTO 09004KT 10SM CLR 19/12 A3017 750 62 1500 100/04 RMK AO2 T01940122
04850KAOH AOH20160625072510806/25/16 07:25:31  5-MIN KAOH 251225Z AUTO 10003KT 10SM CLR 19/11 A3017 750 58 1500 110/03 RMK AO2 T01940111
04850KAOH AOH20160625073010806/25/16 07:30:31  5-MIN KAOH 251230Z AUTO 10004KT 10SM CLR 20/11 A3017 750 56 1500 110/04 RMK AO2 T02000111
04850KAOH AOH20160625073510806/25/16 07:35:31  5-MIN KAOH 251235Z AUTO 10004KT 10SM CLR 20/11 A3017 750 56 1500 110/04 RMK AO2 T02000111
04850KAOH AOH20160625074010806/25/16 07:40:31  5-MIN KAOH 251240Z AUTO 10005KT 10SM CLR 21/11 A3017 750 54 1600 110/05 RMK AO2 T02060111
04850KAOH AOH20160625074510806/25/16 07:45:31  5-MIN KAOH 251245Z AUTO 10005KT 10SM CLR 21/11 A3017 750 52 1600 100/05 RMK AO2 T02060106
04850KAOH AOH20160625075011506/25/16 07:50:31  5-MIN KAOH 251250Z AUTO 10005KT 10SM CLR 21/11 A3017 750 52 1600 100/05 RMK AO2 SLP210 T02060106
04850KAOH AOH20160625075510806/25/16 07:55:31  5-MIN KAOH 251255Z AUTO 09005KT 10SM CLR 21/10 A3017 750 50 1600 090/05 RMK AO2 T02060100
04850KAOH AOH20160625080010806/25/16 08:00:31  5-MIN KAOH 251300Z AUTO 09006KT 10SM CLR 21/11 A3017 750 50 1700 100/06 RMK AO2 T02110106
04850KAOH AOH20160625080510806/25/16 08:05:31  5-MIN KAOH 251305Z AUTO 10005KT 10SM CLR 21/11 A3017 750 50 1700 110/05 RMK AO2 T02110106
04850KAOH AOH20160625081010806/25/16 08:10:31  5-MIN KAOH 251310Z AUTO 10005KT 10SM CLR 21/11 A3017 740 52 1700 100/05 RMK AO2 T02110111
04850KAOH AOH20160625081510806/25/16 08:15:31  5-MIN KAOH 251315Z AUTO 11003KT 10SM CLR 21/11 A3018 740 52 1700 110/03 RMK AO2 T02110111
04850KAOH AOH20160625082010806/25/16 08:20:31  5-MIN KAOH 251320Z AUTO 09004KT 10SM CLR 22/12 A3018 740 52 1700 090/04 RMK AO2 T02170117
04850KAOH AOH20160625082510806/25/16 08:25:31  5-MIN KAOH 251325Z AUTO 08005KT 10SM CLR 22/11 A3018 740 50 1700 090/05 RMK AO2 T02170111
04850KAOH AOH20160625083010806/25/16 08:30:31  5-MIN KAOH 251330Z AUTO 08005KT 10SM CLR 22/11 A3018 740 49 1700 080/05 RMK AO2 T02170106
04850KAOH AOH20160625083510806/25/16 08:35:31  5-MIN KAOH 251335Z AUTO 10004KT 10SM CLR 22/11 A3018 740 50 1700 110/04 RMK AO2 T02170111
04850KAOH AOH20160625084010806/25/16 08:40:31  5-MIN KAOH 251340Z AUTO 10004KT 10SM CLR 22/12 A3018 740 51 1800 110/04 RMK AO2 T02220117
04850KAOH AOH20160625084510806/25/16 08:45:31  5-MIN KAOH 251345Z AUTO 09005KT 10SM CLR 22/12 A3018 740 51 1800 100/05 RMK AO2 T02220117
04850KAOH AOH20160625085011506/25/16 08:50:31  5-MIN KAOH 251350Z AUTO 10004KT 10SM CLR 23/12 A3018 740 51 1900 110/04 RMK AO2 SLP213 T02280122
04850KAOH AOH20160625085510806/25/16 08:55:31  5-MIN KAOH 251355Z AUTO 10004KT 10SM CLR 23/12 A3018 740 49 1900 100/04 RMK AO2 T02280117
04850KAOH AOH20160625090010806/25/16 09:00:31  5-MIN KAOH 251400Z AUTO 09004KT 10SM CLR 23/12 A3018 740 49 1900 090/04 RMK AO2 T02280117
04850KAOH AOH20160625090510806/25/16 09:05:31  5-MIN KAOH 251405Z AUTO 10004KT 10SM CLR 23/11 A3018 740 47 1900 110/04 RMK AO2 T02280111
04850KAOH AOH20160625091010806/25/16 09:10:31  5-MIN KAOH 251410Z AUTO 11004KT 10SM CLR 23/11 A3018 740 45 1900 120/04 RMK AO2 T02330111
04850KAOH AOH20160625091510806/25/16 09:15:31  5-MIN KAOH 251415Z AUTO 05004KT 10SM CLR 23/11 A3018 740 45 1900 060/04 RMK AO2 T02330111
04850KAOH AOH20160625092010806/25/16 09:20:31  5-MIN KAOH 251420Z AUTO 09004KT 10SM CLR 23/11 A3018 740 45 1900 100/04 RMK AO2 T02330111
04850KAOH AOH20160625092510806/25/16 09:25:31  5-MIN KAOH 251425Z AUTO 06004KT 10SM CLR 23/11 A3018 740 44 1900 070/04 RMK AO2 T02330106
04850KAOH AOH20160625093010806/25/16 09:30:31  5-MIN KAOH 251430Z AUTO 08005KT 10SM CLR 23/11 A3018 740 44 1900 090/05 RMK AO2 T02330106
04850KAOH AOH20160625093510806/25/16 09:35:31  5-MIN KAOH 251435Z AUTO 09005KT 10SM CLR 24/11 A3018 740 42 2000 100/05 RMK AO2 T02390106
04850KAOH AOH20160625094010806/25/16 09:40:31  5-MIN KAOH 251440Z AUTO 10004KT 10SM CLR 24/11 A3018 740 42 2000 110/04 RMK AO2 T02390106
04850KAOH AOH20160625094510806/25/16 09:45:31  5-MIN KAOH 251445Z AUTO 10004KT 10SM CLR 24/11 A3018 740 41 2000 100/04 RMK AO2 T02440106
04850KAOH AOH20160625095012106/25/16 09:50:31  5-MIN KAOH 251450Z AUTO 06004KT 10SM CLR 24/11 A3018 740 42 2000 070/04 RMK AO2 SLP214 T02390106 53009
04850KAOH AOH20160625095510806/25/16 09:55:31  5-MIN KAOH 251455Z AUTO VRB03KT 10SM CLR 24/11 A3018 740 42 2000 VRB/03 RMK AO2 T02440111
04850KAOH AOH20160625100010806/25/16 10:00:31  5-MIN KAOH 251500Z AUTO 12004KT 10SM CLR 24/10 A3018 740 39 2000 130/04 RMK AO2 T02440100
04850KAOH AOH20160625100510806/25/16 10:05:31  5-MIN KAOH 251505Z AUTO 10004KT 10SM CLR 24/10 A3018 740 39 2000 110/04 RMK AO2 T02440100
04850KAOH AOH20160625101010806/25/16 10:10:31  5-MIN KAOH 251510Z AUTO 11004KT 10SM CLR 25/10 A3018 740 38 2100 120/04 RMK AO2 T02500100
04850KAOH AOH20160625101510806/25/16 10:15:31  5-MIN KAOH 251515Z AUTO 00000KT 10SM CLR 24/10 A3018 740 39 2000 000/00 RMK AO2 T02440100
04850KAOH AOH20160625102010806/25/16 10:20:31  5-MIN KAOH 251520Z AUTO 08003KT 10SM CLR 25/11 A3018 740 39 2100 090/03 RMK AO2 T02500106
04850KAOH AOH20160625102510806/25/16 10:25:31  5-MIN KAOH 251525Z AUTO 08004KT 10SM CLR 25/10 A3018 740 38 2100 080/04 RMK AO2 T02500100
04850KAOH AOH20160625103010806/25/16 10:30:31  5-MIN KAOH 251530Z AUTO 07003KT 10SM CLR 25/09 A3018 740 37 2100 080/03 RMK AO2 T02500094
04850KAOH AOH20160625103510806/25/16 10:35:31  5-MIN KAOH 251535Z AUTO 00000KT 10SM CLR 25/07 A3018 740 31 2100 000/00 RMK AO2 T02500072
04850KAOH AOH20160625104010806/25/16 10:40:31  5-MIN KAOH 251540Z AUTO 07004KT 10SM CLR 26/09 A3018 740 34 2200 080/04 RMK AO2 T02560089
04850KAOH AOH20160625104510806/25/16 10:45:31  5-MIN KAOH 251545Z AUTO 07004KT 10SM CLR 26/10 A3018 740 37 2200 080/04 RMK AO2 T02560100
04850KAOH AOH20160625105011506/25/16 10:50:31  5-MIN KAOH 251550Z AUTO 07004KT 10SM CLR 25/10 A3018 740 38 2100 080/04 RMK AO2 SLP213 T02500100
04850KAOH AOH20160625105510806/25/16 10:55:31  5-MIN KAOH 251555Z AUTO VRB03KT 10SM CLR 26/10 A3018 740 37 2200 VRB/03 RMK AO2 T02560100
04850KAOH AOH20160625110010806/25/16 11:00:31  5-MIN KAOH 251600Z AUTO 04003KT 10SM CLR 25/10 A3018 740 38 2100 040/03 RMK AO2 T02500100
04850KAOH AOH20160625110510806/25/16 11:05:31  5-MIN KAOH 251605Z AUTO 00000KT 10SM CLR 26/10 A3018 740 37 2200 000/00 RMK AO2 T02560100
04850KAOH AOH20160625111010806/25/16 11:10:31  5-MIN KAOH 251610Z AUTO 00000KT 10SM CLR 26/10 A3018 740 37 2200 000/00 RMK AO2 T02560100
04850KAOH AOH20160625111510806/25/16 11:15:31  5-MIN KAOH 251615Z AUTO VRB03KT 10SM CLR 26/11 A3018 740 38 2200 VRB/03 RMK AO2 T02560106
04850KAOH AOH20160625112010806/25/16 11:20:31  5-MIN KAOH 251620Z AUTO 04003KT 10SM CLR 26/09 A3018 740 35 2200 050/03 RMK AO2 T02560094
04850KAOH AOH20160625112510806/25/16 11:25:31  5-MIN KAOH 251625Z AUTO 06003KT 10SM CLR 26/11 A3017 740 38 2200 070/03 RMK AO2 T02610111
04850KAOH AOH20160625113010806/25/16 11:30:31  5-MIN KAOH 251630Z AUTO 00000KT 10SM CLR 26/09 A3017 750 34 2200 000/00 RMK AO2 T02610094
04850KAOH AOH20160625113510806/25/16 11:35:31  5-MIN KAOH 251635Z AUTO 00000KT 10SM CLR 26/11 A3017 750 37 2200 000/00 RMK AO2 T02610106
04850KAOH AOH20160625114010806/25/16 11:40:31  5-MIN KAOH 251640Z AUTO 05004KT 10SM CLR 26/11 A3017 750 38 2200 050/04 RMK AO2 T02610111
04850KAOH AOH20160625114510806/25/16 11:45:31  5-MIN KAOH 251645Z AUTO 36006KT 10SM CLR 26/11 A3017 750 37 2200 010/06 RMK AO2 T02610106
04850KAOH AOH20160625115011506/25/16 11:50:31  5-MIN KAOH 251650Z AUTO VRB03KT 10SM CLR 26/11 A3017 750 37 2200 VRB/03 RMK AO2 SLP210 T02610106
04850KAOH AOH20160625115510806/25/16 11:55:31  5-MIN KAOH 251655Z AUTO 07003KT 10SM CLR 27/11 A3017 750 37 2300 070/03 RMK AO2 T02670111
04850KAOH AOH20160625120010806/25/16 12:00:31  5-MIN KAOH 251700Z AUTO 10003KT 10SM CLR 27/10 A3017 750 34 2300 100/03 RMK AO2 T02670100
04850KAOH AOH20160625120510806/25/16 12:05:31  5-MIN KAOH 251705Z AUTO 00000KT 10SM CLR 27/09 A3017 750 33 2300 000/00 RMK AO2 T02670094
04850KAOH AOH20160625121010806/25/16 12:10:31  5-MIN KAOH 251710Z AUTO VRB03KT 10SM CLR 27/11 A3017 750 37 2300 VRB/03 RMK AO2 T02670111
04850KAOH AOH20160625121510806/25/16 12:15:31  5-MIN KAOH 251715Z AUTO 13004KT 10SM CLR 27/10 A3016 750 34 2300 130/04 RMK AO2 T02670100
04850KAOH AOH20160625122010806/25/16 12:20:31  5-MIN KAOH 251720Z AUTO VRB03KT 10SM CLR 27/09 A3016 750 32 2300 VRB/03 RMK AO2 T02670089
04850KAOH AOH20160625122510806/25/16 12:25:31  5-MIN KAOH 251725Z AUTO VRB03KT 10SM CLR 27/09 A3016 760 33 2300 VRB/03 RMK AO2 T02670094
04850KAOH AOH20160625123010806/25/16 12:30:31  5-MIN KAOH 251730Z AUTO 00000KT 10SM CLR 27/10 A3016 760 33 2400 000/00 RMK AO2 T02720100
04850KAOH AOH20160626203015206/26/16 20:30:31  5-MIN KAOH 270130Z AUTO 27010KT 10SM -RA FEW033 SCT110 23/21 A3000 900 84 2100 280/10 RMK AO2 LTG DSNT SE AND S RAB27 P0000 T02330206
04850KAOH AOH20160626203514006/26/16 20:35:31  5-MIN KAOH 270135Z AUTO 26008KT 10SM -RA SCT110 23/21 A3000 900 87 2100 270/08 RMK AO2 LTG DSNT E-S RAB27 P0000 T02330211
04850KAOH AOH20160626204014506/26/16 20:40:31  5-MIN KAOH 270140Z AUTO 24009KT 10SM -RA SCT110 23/21 A3000 900 87 2100 250/09 RMK AO2 LTG DSNT E AND SE RAB27 P0000 T02330211
04850KAOH AOH20160626204513806/26/16 20:45:31  5-MIN KAOH 270145Z AUTO 25009KT 10SM -RA SCT110 23/21 A3000 910 87 2100 250/09 RMK AO2 LTG DSNT E RAB27 P0000 T02280206
04850KAOH AOH20160626205013406/26/16 20:50:31  5-MIN KAOH 270150Z AUTO 25008KT 10SM -RA BKN110 22/21 A3000 900 90 2000 260/08 RMK AO2 RAB27 SLP152 P0001 T02220206
04850KAOH AOH20160626205512106/26/16 20:55:31  5-MIN KAOH 270155Z AUTO 26006KT 10SM -RA BKN110 22/21 A3000 900 90 2000 260/06 RMK AO2 P0001 T02220206
04850KAOH AOH20160626210012106/26/16 21:00:31  5-MIN KAOH 270200Z AUTO 24004KT 10SM -RA FEW110 22/21 A3000 900 90 2000 250/04 RMK AO2 P0001 T02220206
04850KAOH AOH20160626210512106/26/16 21:05:31  5-MIN KAOH 270205Z AUTO 21004KT 10SM -RA FEW110 22/21 A3001 890 90 2000 220/04 RMK AO2 P0002 T02220206
04850KAOH AOH20160626211012106/26/16 21:10:31  5-MIN KAOH 270210Z AUTO 19004KT 10SM -RA FEW110 22/21 A3002 890 90 2000 200/04 RMK AO2 P0002 T02220206
04850KAOH AOH20160626211512106/26/16 21:15:31  5-MIN KAOH 270215Z AUTO 16005KT 10SM -RA FEW110 22/21 A3002 880 90 2000 170/05 RMK AO2 P0002 T02220206
04850KAOH AOH20160626212012106/26/16 21:20:31  5-MIN KAOH 270220Z AUTO 15005KT 10SM -RA FEW120 22/21 A3002 880 93 1900 160/05 RMK AO2 P0002 T02170206
04850KAOH AOH20160626212512106/26/16 21:25:31  5-MIN KAOH 270225Z AUTO 17004KT 10SM -RA SCT120 22/21 A3003 880 93 1900 180/04 RMK AO2 P0003 T02170206
04850KAOH AOH20160626213012106/26/16 21:30:31  5-MIN KAOH 270230Z AUTO 17005KT 10SM -RA BKN110 22/21 A3003 870 97 1900 180/05 RMK AO2 P0003 T02170211
04850KAOH AOH20160626213512106/26/16 21:35:31  5-MIN KAOH 270235Z AUTO 18005KT 10SM -RA BKN120 22/21 A3004 870 93 1900 180/05 RMK AO2 P0003 T02170206
04850KAOH AOH20160626214012106/26/16 21:40:31  5-MIN KAOH 270240Z AUTO 22003KT 10SM -RA BKN120 22/21 A3005 860 93 1900 220/03 RMK AO2 P0003 T02170206
04850KAOH AOH20160626214512106/26/16 21:45:31  5-MIN KAOH 270245Z AUTO 00000KT 10SM -RA BKN120 22/21 A3005 860 93 1900 000/00 RMK AO2 P0003 T02170206
04850KAOH AOH20160626215014006/26/16 21:50:31  5-MIN KAOH 270250Z AUTO 00000KT 10SM -RA BKN120 22/21 A3005 860 93 1900 000/00 RMK AO2 SLP168 P0003 60004 T02170206 53011
04850KAOH AOH20160626215512106/26/16 21:55:31  5-MIN KAOH 270255Z AUTO 00000KT 10SM -RA BKN110 22/21 A3005 860 93 1900 000/00 RMK AO2 P0000 T02170206
04850KAOH AOH20160626220012106/26/16 22:00:31  5-MIN KAOH 270300Z AUTO 15005KT 10SM -RA BKN110 22/21 A3005 860 97 1900 160/05 RMK AO2 P0000 T02170211
04850KAOH AOH20160626220512806/26/16 22:05:31  5-MIN KAOH 270305Z AUTO 15007KT 10SM -RA BKN100 BKN120 22/21 A3005 860 97 1900 160/07 RMK AO2 P0000 T02170211
04850KAOH AOH20160626221012806/26/16 22:10:31  5-MIN KAOH 270310Z AUTO 16008KT 10SM -RA FEW090 BKN110 22/21 A3005 860 97 1900 170/08 RMK AO2 P0000 T02170211
04850KAOH AOH20160626221512306/26/16 22:15:31  5-MIN KAOH 270315Z AUTO 16006KT 10SM SCT100 22/21 A3006 850 93 1900 170/06 RMK AO2 RAE11 P0000 T02170206
04850KAOH AOH20160626222012306/26/16 22:20:31  5-MIN KAOH 270320Z AUTO 17006KT 10SM SCT100 22/21 A3006 850 93 1900 180/06 RMK AO2 RAE11 P0000 T02170206
04850KAOH AOH20160626222512306/26/16 22:25:31  5-MIN KAOH 270325Z AUTO 17008KT 10SM FEW090 22/21 A3005 860 97 1900 170/08 RMK AO2 RAE11 P0000 T02170211
04850KAOH AOH20160626223012306/26/16 22:30:31  5-MIN KAOH 270330Z AUTO 17007KT 10SM SCT085 22/21 A3005 860 93 1900 180/07 RMK AO2 RAE11 P0000 T02220211
04850KAOH AOH20160626223513006/26/16 22:35:31  5-MIN KAOH 270335Z AUTO 19006KT 10SM FEW065 SCT085 22/21 A3005 860 97 1900 190/06 RMK AO2 RAE11 P0000 T02170211
04850KAOH AOH20160626224013006/26/16 22:40:31  5-MIN KAOH 270340Z AUTO 19008KT 10SM FEW065 BKN085 22/21 A3005 860 93 1900 190/08 RMK AO2 RAE11 P0000 T02220211
04850KAOH AOH20160626224513006/26/16 22:45:31  5-MIN KAOH 270345Z AUTO 17008KT 10SM SCT065 BKN085 22/21 A3004 860 93 1900 180/08 RMK AO2 RAE11 P0000 T02220211
04850KAOH AOH20160626225014406/26/16 22:50:31  5-MIN KAOH 270350Z AUTO 19007KT 10SM SCT065 BKN080 BKN095 22/21 A3005 860 93 1900 190/07 RMK AO2 RAE11 SLP166 P0000 T02220211
04850KAOH AOH20160626225512506/26/16 22:55:31  5-MIN KAOH 270355Z AUTO 19007KT 10SM FEW065 SCT080 BKN095 22/21 A3005 860 93 1900 200/07 RMK AO2 T02220211
04850KAOH AOH20160626230012506/26/16 23:00:31  5-MIN KAOH 270400Z AUTO 19006KT 10SM FEW065 SCT080 SCT095 22/21 A3005 860 93 1900 200/06 RMK AO2 T02220211
04850KAOH AOH20160626230512506/26/16 23:05:31  5-MIN KAOH 270405Z AUTO 22006KT 10SM FEW065 FEW080 SCT095 22/21 A3005 850 93 1900 230/06 RMK AO2 T02220211
04850KAOH AOH20160626231011806/26/16 23:10:31  5-MIN KAOH 270410Z AUTO 21005KT 10SM FEW080 FEW095 22/21 A3005 860 93 1900 210/05 RMK AO2 T02220211
04850KAOH AOH20160626231510806/26/16 23:15:31  5-MIN KAOH 270415Z AUTO 23003KT 10SM CLR 22/21 A3005 860 93 1900 240/03 RMK AO2 T02220211
04850KAOH AOH20160626232010806/26/16 23:20:31  5-MIN KAOH 270420Z AUTO 20005KT 10SM CLR 22/21 A3005 860 93 1900 210/05 RMK AO2 T02220211
04850KAOH AOH20160626232510806/26/16 23:25:31  5-MIN KAOH 270425Z AUTO 22005KT 10SM CLR 22/21 A3005 860 93 1900 220/05 RMK AO2 T02220211
04850KAOH AOH20160626233010806/26/16 23:30:31  5-MIN KAOH 270430Z AUTO 22005KT 10SM CLR 22/21 A3005 860 93 1900 230/05 RMK AO2 T02220211
04850KAOH AOH20160626233510806/26/16 23:35:31  5-MIN KAOH 270435Z AUTO 22005KT 10SM CLR 22/21 A3005 860 93 1900 230/05 RMK AO2 T02220211
04850KAOH AOH20160626234010806/26/16 23:40:31  5-MIN KAOH 270440Z AUTO 23004KT 10SM CLR 22/21 A3005 860 97 1900 230/04 RMK AO2 T02170211
04850KAOH AOH20160626234510806/26/16 23:45:31  5-MIN KAOH 270445Z AUTO 24003KT 10SM CLR 22/21 A3005 860 97 1900 240/03 RMK AO2 T02170211
04850KAOH AOH20160626235012506/26/16 23:50:31  5-MIN KAOH 270450Z AUTO 24005KT 10SM CLR 22/21 A3005 860 97 1900 240/05 RMK AO2 SLP167 T02170211 403280194
04850KAOH AOH20160626235510806/26/16 23:55:31  5-MIN KAOH 270455Z AUTO 25004KT 10SM CLR 22/21 A3005 860 97 1900 260/04 RMK AO2 T02170211
04850KAOH AOH20160627000010806/27/16 00:00:31  5-MIN KAOH 270500Z AUTO 22003KT 10SM CLR 22/21 A3005 850 97 1900 230/03 RMK AO2 T02170211
04850KAOH AOH20160627000510806/27/16 00:05:31  5-MIN KAOH 270505Z AUTO 21003KT 10SM CLR 22/21 A3005 850 97 1900 220/03 RMK AO2 T02170211
04850KAOH AOH20160627001010806/27/16 00:10:31  5-MIN KAOH 270510Z AUTO 22003KT 10SM CLR 22/21 A3006 850 97 1900 230/03 RMK AO2 T02170211
04850KAOH AOH20160627001510806/27/16 00:15:31  5-MIN KAOH 270515Z AUTO 23003KT 10SM CLR 22/21 A3005 850 97 1900 240/03 RMK AO2 T02170211
04850KAOH AOH20160627002010806/27/16 00:20:31  5-MIN KAOH 270520Z AUTO 24004KT 10SM CLR 22/21 A3006 850 97 1900 250/04 RMK AO2 T02170211
04850KAOH AOH20160627002510806/27/16 00:25:31  5-MIN KAOH 270525Z AUTO 23003KT 10SM CLR 22/21 A3006 850 97 1900 240/03 RMK AO2 T02170211
04850KAOH AOH20160627003010806/27/16 00:30:31  5-MIN KAOH 270530Z AUTO 23003KT 10SM CLR 22/21 A3006 850 97 1900 240/03 RMK AO2 T02170211
04850KAOH AOH20160627003510806/27/16 00:35:31  5-MIN KAOH 270535Z AUTO 22003KT 10SM CLR 22/21 A3006 850 97 1900 220/03 RMK AO2 T02170211
04850KAOH AOH20160627004010806/27/16 00:40:31  5-MIN KAOH 270540Z AUTO 00000KT 10SM CLR 22/21 A3005 860 97 1900 000/00 RMK AO2 T02170211
04850KAOH AOH20160627004510806/27/16 00:45:31  5-MIN KAOH 270545Z AUTO 00000KT 10SM CLR 22/21 A3005 850 97 1900 000/00 RMK AO2 T02170211
04850KAOH AOH20160627005013906/27/16 00:50:31  5-MIN KAOH 270550Z AUTO 00000KT 10SM CLR 22/21 A3006 850 97 1900 000/00 RMK AO2 SLP169 60004 T02170211 10244 20217 53011
04850KAOH AOH20160627005510906/27/16 00:55:31  5-MIN KAOH 270555Z AUTO 00000KT 10SM CLR 21/21 A3005 850 100 1800 000/00 RMK AO2 T02110211
04850KAOH AOH20160627010010806/27/16 01:00:31  5-MIN KAOH 270600Z AUTO 00000KT 10SM CLR 22/21 A3005 860 97 1900 000/00 RMK AO2 T02170211
04850KAOH AOH20160627010510806/27/16 01:05:31  5-MIN KAOH 270605Z AUTO 00000KT 10SM CLR 22/21 A3005 860 97 1900 000/00 RMK AO2 T02170211
04850KAOH AOH20160627011011106/27/16 01:10:31  5-MIN KAOH 270610Z AUTO 00000KT 10SM FEW060 22/21 A3004 860 97 1900 000/00 RMK AO2 T02170211
04850KAOH AOH20160627011511206/27/16 01:15:31  5-MIN KAOH 270615Z AUTO 00000KT 10SM FEW060 21/21 A3004 860 100 1800 000/00 RMK AO2 T02110211
04850KAOH AOH20160627012011206/27/16 01:20:31  5-MIN KAOH 270620Z AUTO 00000KT 10SM FEW060 21/21 A3004 870 100 1800 000/00 RMK AO2 T02110211
04850KAOH AOH20160627012511206/27/16 01:25:31  5-MIN KAOH 270625Z AUTO 22003KT 10SM FEW060 21/21 A3004 870 100 1800 230/03 RMK AO2 T02110211
04850KAOH AOH20160627013011106/27/16 01:30:31  5-MIN KAOH 270630Z AUTO 21003KT 9SM FEW060 21/21 A3004 870 100 1800 210/03 RMK AO2 T02110211
04850KAOH AOH20160627013510706/27/16 01:35:31  5-MIN KAOH 270635Z AUTO 20003KT 8SM CLR 22/21 A3004 870 97 1900 210/03 RMK AO2 T02170211
04850KAOH AOH20160627014010706/27/16 01:40:31  5-MIN KAOH 270640Z AUTO 19003KT 8SM CLR 22/21 A3003 870 97 1900 200/03 RMK AO2 T02170211
04850KAOH AOH20160627014510806/27/16 01:45:31  5-MIN KAOH 270645Z AUTO 20003KT 8SM CLR 21/21 A3003 870 100 1800 210/03 RMK AO2 T02110211
04850KAOH AOH20160627015011506/27/16 01:50:31  5-MIN KAOH 270650Z AUTO 19003KT 8SM CLR 21/21 A3003 870 100 1800 200/03 RMK AO2 SLP161 T02110211
04850KAOH AOH20160627015510806/27/16 01:55:31  5-MIN KAOH 270655Z AUTO 19004KT 8SM CLR 21/21 A3004 870 100 1800 200/04 RMK AO2 T02110211
04850KAOH AOH20160627020011106/27/16 02:00:31  5-MIN KAOH 270700Z AUTO 18004KT 8SM FEW055 21/21 A3004 870 100 1800 190/04 RMK AO2 T02110211
04850KAOH AOH20160627020511106/27/16 02:05:31  5-MIN KAOH 270705Z AUTO 18003KT 7SM FEW055 21/21 A3003 870 100 1800 190/03 RMK AO2 T02110211
04850KAOH AOH20160627021011106/27/16 02:10:31  5-MIN KAOH 270710Z AUTO 21003KT 7SM FEW055 21/21 A3003 870 100 1800 210/03 RMK AO2 T02110211
04850KAOH AOH20160627021511406/27/16 02:15:31  5-MIN KAOH 270715Z AUTO 00000KT 6SM BR FEW055 21/21 A3003 880 100 1800 000/00 RMK AO2 T02110211
04850KAOH AOH20160627022011106/27/16 02:20:31  5-MIN KAOH 270720Z AUTO 26004KT 7SM FEW055 21/21 A3003 880 100 1800 260/04 RMK AO2 T02110211
04850KAOH AOH20160627022511106/27/16 02:25:31  5-MIN KAOH 270725Z AUTO 25004KT 7SM FEW055 21/21 A3003 880 100 1800 260/04 RMK AO2 T02110211
04850KAOH AOH20160627023011106/27/16 02:30:31  5-MIN KAOH 270730Z AUTO 24004KT 6SM BR CLR 21/21 A3003 880 100 1800 250/04 RMK AO2 T02110211
04850KAOH AOH20160627023510806/27/16 02:35:31  5-MIN KAOH 270735Z AUTO 23004KT 7SM CLR 21/21 A3003 880 100 1800 240/04 RMK AO2 T02110211
04850KAOH AOH20160627024010806/27/16 02:40:31  5-MIN KAOH 270740Z AUTO 24004KT 8SM CLR 21/21 A3003 880 100 1800 250/04 RMK AO2 T02110211
04850KAOH AOH20160627024511106/27/16 02:45:31  5-MIN KAOH 270745Z AUTO 26004KT 8SM FEW060 21/21 A3003 880 100 1800 260/04 RMK AO2 T02110211
04850KAOH AOH20160627025011806/27/16 02:50:31  5-MIN KAOH 270750Z AUTO 28004KT 8SM FEW060 21/21 A3003 880 100 1800 280/04 RMK AO2 SLP159 T02110211
04850KAOH AOH20160627025511406/27/16 02:55:31  5-MIN KAOH 270755Z AUTO 29005KT 6SM BR FEW055 21/21 A3003 880 100 1800 300/05 RMK AO2 T02110211
04850KAOH AOH20160627030011406/27/16 03:00:31  5-MIN KAOH 270800Z AUTO 29004KT 4SM BR FEW055 21/21 A3003 880 100 1800 300/04 RMK AO2 T02060206
04850KAOH AOH20160627030511406/27/16 03:05:31  5-MIN KAOH 270805Z AUTO 28005KT 4SM BR FEW060 21/21 A3003 880 100 1800 290/05 RMK AO2 T02060206
04850KAOH AOH20160627031011406/27/16 03:10:31  5-MIN KAOH 270810Z AUTO 28005KT 5SM BR FEW060 21/21 A3003 880 100 1800 290/05 RMK AO2 T02060206
04850KAOH AOH20160627031511106/27/16 03:15:31  5-MIN KAOH 270815Z AUTO 28006KT 5SM BR CLR 21/21 A3003 880 100 1800 290/06 RMK AO2 T02060206
04850KAOH AOH20160627032011106/27/16 03:20:31  5-MIN KAOH 270820Z AUTO 28006KT 6SM BR CLR 21/21 A3003 880 100 1800 280/06 RMK AO2 T02110211
04850KAOH AOH20160627032510806/27/16 03:25:31  5-MIN KAOH 270825Z AUTO 29007KT 7SM CLR 21/21 A3003 880 100 1800 290/07 RMK AO2 T02110211
04850KAOH AOH20160627033010806/27/16 03:30:31  5-MIN KAOH 270830Z AUTO 29007KT 8SM CLR 21/21 A3003 880 100 1800 290/07 RMK AO2 T02110211
04850KAOH AOH20160627033510706/27/16 03:35:31  5-MIN KAOH 270835Z AUTO 28007KT 9SM CLR 22/21 A3003 880 97 1900 290/07 RMK AO2 T02170211
04850KAOH AOH20160627034010706/27/16 03:40:31  5-MIN KAOH 270840Z AUTO 28007KT 9SM CLR 22/21 A3003 870 97 1900 290/07 RMK AO2 T02170211
04850KAOH AOH20160627034511006/27/16 03:45:31  5-MIN KAOH 270845Z AUTO 28008KT 8SM FEW006 22/21 A3003 870 97 1900 290/08 RMK AO2 T02170211
04850KAOH AOH20160627035012306/27/16 03:50:31  5-MIN KAOH 270850Z AUTO 28008KT 8SM SCT006 22/21 A3003 870 97 1900 290/08 RMK AO2 SLP161 T02170211 55007
04850KAOH AOH20160627035511006/27/16 03:55:31  5-MIN KAOH 270855Z AUTO 29007KT 8SM BKN006 22/21 A3003 870 97 1900 290/07 RMK AO2 T02170211
04850KAOH AOH20160627040011106/27/16 04:00:31  5-MIN KAOH 270900Z AUTO 29008KT 8SM BKN006 22/22 A3003 870 100 1900 290/08 RMK AO2 T02170217
04850KAOH AOH20160627040511106/27/16 04:05:31  5-MIN KAOH 270905Z AUTO 29008KT 7SM BKN004 22/22 A3003 870 100 1900 300/08 RMK AO2 T02170217
04850KAOH AOH20160627041011106/27/16 04:10:31  5-MIN KAOH 270910Z AUTO 29008KT 7SM OVC004 22/22 A3004 870 100 1900 290/08 RMK AO2 T02170217
04850KAOH AOH20160627041511406/27/16 04:15:31  5-MIN KAOH 270915Z AUTO 29008KT 6SM BR OVC004 22/22 A3004 870 100 1900 290/08 RMK AO2 T02170217
04850KAOH AOH20160627042011406/27/16 04:20:31  5-MIN KAOH 270920Z AUTO 28006KT 6SM BR OVC004 22/22 A3004 870 100 1900 290/06 RMK AO2 T02170217
04850KAOH AOH20160627042511406/27/16 04:25:31  5-MIN KAOH 270925Z AUTO 28006KT 6SM BR OVC004 22/22 A3004 870 100 1900 290/06 RMK AO2 T02170217
04850KAOH AOH20160627043011406/27/16 04:30:31  5-MIN KAOH 270930Z AUTO 28006KT 6SM BR OVC004 22/22 A3004 870 100 1900 290/06 RMK AO2 T02170217
04850KAOH AOH20160627043511406/27/16 04:35:31  5-MIN KAOH 270935Z AUTO 29006KT 6SM BR OVC004 22/22 A3004 870 100 1900 290/06 RMK AO2 T02170217
04850KAOH AOH20160627044011406/27/16 04:40:31  5-MIN KAOH 270940Z AUTO 29006KT 5SM BR OVC004 22/22 A3004 870 100 1900 290/06 RMK AO2 T02170217
04850KAOH AOH20160627044511406/27/16 04:45:31  5-MIN KAOH 270945Z AUTO 29006KT 5SM BR BKN004 22/22 A3004 870 100 1900 300/06 RMK AO2 T02170217
04850KAOH AOH20160627045012106/27/16 04:50:31  5-MIN KAOH 270950Z AUTO 28005KT 5SM BR BKN004 22/22 A3004 870 100 1900 290/05 RMK AO2 SLP164 T02170217
04850KAOH AOH20160627045511406/27/16 04:55:31  5-MIN KAOH 270955Z AUTO 28005KT 5SM BR BKN004 21/21 A3004 860 100 1800 290/05 RMK AO2 T02110211
04850KAOH AOH20160627050011406/27/16 05:00:31  5-MIN KAOH 271000Z AUTO 27005KT 5SM BR BKN004 21/21 A3004 860 100 1800 280/05 RMK AO2 T02110211
04850KAOH AOH20160627050511406/27/16 05:05:31  5-MIN KAOH 271005Z AUTO 27005KT 5SM BR BKN004 21/21 A3004 860 100 1800 280/05 RMK AO2 T02110211
04850KAOH AOH20160627051011406/27/16 05:10:31  5-MIN KAOH 271010Z AUTO 27004KT 4SM BR BKN004 21/21 A3004 860 100 1800 280/04 RMK AO2 T02110211
04850KAOH AOH20160627051511406/27/16 05:15:31  5-MIN KAOH 271015Z AUTO 28004KT 3SM BR SCT004 21/21 A3004 860 100 1800 280/04 RMK AO2 T02110211
04850KAOH AOH20160627052011406/27/16 05:20:31  5-MIN KAOH 271020Z AUTO 27005KT 3SM BR SCT004 21/21 A3004 860 100 1800 280/05 RMK AO2 T02110211
04850KAOH AOH20160627052511406/27/16 05:25:31  5-MIN KAOH 271025Z AUTO 28004KT 3SM BR FEW004 21/21 A3005 860 100 1800 280/04 RMK AO2 T02110211
04850KAOH AOH20160627053011406/27/16 05:30:31  5-MIN KAOH 271030Z AUTO 26004KT 3SM BR FEW004 21/21 A3005 860 100 1800 260/04 RMK AO2 T02110211
04850KAOH AOH20160627053511406/27/16 05:35:31  5-MIN KAOH 271035Z AUTO 24003KT 3SM BR FEW004 21/21 A3005 860 100 1800 250/03 RMK AO2 T02110211
04850KAOH AOH20160627054011106/27/16 05:40:31  5-MIN KAOH 271040Z AUTO 24003KT 3SM BR CLR 21/21 A3005 860 100 1800 240/03 RMK AO2 T02110211
04850KAOH AOH20160627054511406/27/16 05:45:31  5-MIN KAOH 271045Z AUTO 24003KT 3SM BR FEW003 21/21 A3005 860 100 1800 250/03 RMK AO2 T02110211
04850KAOH AOH20160627055010806/27/16 05:50:31  5-MIN KAOH 271050Z AUTO 24003KT 2 1/2SM BR SCT003 21/21 A3005 860 100 1800 250/03 RMK AO2
04850KAOH AOH20160627055511806/27/16 05:55:31  5-MIN KAOH 271055Z AUTO 25004KT 2 1/2SM BR BKN002 22/22 A3005 850 100 1900 250/04 RMK AO2 T02170217
04850KAOH AOH20160627060011406/27/16 06:00:31  5-MIN KAOH 271100Z AUTO 25005KT 3SM BR BKN002 22/22 A3005 860 100 1900 250/05 RMK AO2 T02170217
04850KAOH AOH20160627060511406/27/16 06:05:31  5-MIN KAOH 271105Z AUTO 25004KT 3SM BR BKN002 22/22 A3005 860 100 1900 260/04 RMK AO2 T02170217
04850KAOH AOH20160627061011806/27/16 06:10:31  5-MIN KAOH 271110Z AUTO 25004KT 2 1/2SM BR OVC002 22/22 A3005 860 100 1900 250/04 RMK AO2 T02170217
04850KAOH AOH20160627061511806/27/16 06:15:31  5-MIN KAOH 271115Z AUTO 25004KT 2 1/2SM BR OVC002 22/22 A3005 860 100 1900 250/04 RMK AO2 T02170217
04850KAOH AOH20160627062011806/27/16 06:20:31  5-MIN KAOH 271120Z AUTO 25005KT 2 1/2SM BR OVC002 22/22 A3005 860 100 1900 250/05 RMK AO2 T02170217
04850KAOH AOH20160627062511406/27/16 06:25:31  5-MIN KAOH 271125Z AUTO 25005KT 2SM BR OVC002 22/22 A3005 860 100 1900 250/05 RMK AO2 T02170217
04850KAOH AOH20160627063011406/27/16 06:30:31  5-MIN KAOH 271130Z AUTO 25005KT 2SM BR OVC002 22/22 A3005 860 100 1900 260/05 RMK AO2 T02170217
04850KAOH AOH20160627063511806/27/16 06:35:31  5-MIN KAOH 271135Z AUTO 25005KT 2 1/2SM BR BKN002 22/22 A3005 850 100 1900 250/05 RMK AO2 T02170217
04850KAOH AOH20160627064011406/27/16 06:40:31  5-MIN KAOH 271140Z AUTO 24004KT 3SM BR BKN002 22/22 A3005 850 100 1900 250/04 RMK AO2 T02170217
04850KAOH AOH20160627064511406/27/16 06:45:31  5-MIN KAOH 271145Z AUTO 23004KT 3SM BR BKN002 22/22 A3006 850 100 1900 240/04 RMK AO2 T02170217
04850KAOH AOH20160627065014506/27/16 06:50:31  5-MIN KAOH 271150Z AUTO 23004KT 4SM BR BKN002 22/22 A3006 850 100 1900 240/04 RMK AO2 SLP171 70057 T02170217 10217 20206 56001
04850KAOH AOH20160627065511406/27/16 06:55:31  5-MIN KAOH 271155Z AUTO 22004KT 4SM BR BKN002 22/22 A3006 850 100 1900 230/04 RMK AO2 T02170217
04850KAOH AOH20160627070011306/27/16 07:00:31  5-MIN KAOH 271200Z AUTO 22005KT 4SM BR BKN003 22/22 A3006 850 97 1900 230/05 RMK AO2 T02220217
04850KAOH AOH20160627070511406/27/16 07:05:31  5-MIN KAOH 271205Z AUTO 22005KT 4SM BR BKN003 22/22 A3006 850 100 1900 230/05 RMK AO2 T02170217
04850KAOH AOH20160627071011306/27/16 07:10:31  5-MIN KAOH 271210Z AUTO 23004KT 4SM BR OVC003 22/22 A3006 850 97 1900 240/04 RMK AO2 T02220217
04850KAOH AOH20160627071511406/27/16 07:15:31  5-MIN KAOH 271215Z AUTO 22004KT 5SM BR BKN003 22/22 A3006 850 100 1900 220/04 RMK AO2 T02220222
04850KAOH AOH20160627072011406/27/16 07:20:31  5-MIN KAOH 271220Z AUTO 24005KT 5SM BR BKN004 22/22 A3006 840 100 1900 250/05 RMK AO2 T02220222
04850KAOH AOH20160627072511406/27/16 07:25:31  5-MIN KAOH 271225Z AUTO 25005KT 5SM BR BKN004 22/22 A3007 840 100 1900 250/05 RMK AO2 T02220222
04850KAOH AOH20160627073011406/27/16 07:30:31  5-MIN KAOH 271230Z AUTO 25005KT 5SM BR BKN004 22/22 A3007 840 100 1900 260/05 RMK AO2 T02220222
04850KAOH AOH20160627073511306/27/16 07:35:31  5-MIN KAOH 271235Z AUTO 26006KT 6SM BR BKN004 23/22 A3007 840 97 2000 270/06 RMK AO2 T02280222
04850KAOH AOH20160627074011306/27/16 07:40:31  5-MIN KAOH 271240Z AUTO 25007KT 6SM BR BKN004 23/22 A3007 840 97 2000 260/07 RMK AO2 T02280222
04850KAOH AOH20160627074511306/27/16 07:45:31  5-MIN KAOH 271245Z AUTO 27007KT 5SM BR BKN005 23/22 A3007 840 97 2000 270/07 RMK AO2 T02280222
04850KAOH AOH20160627075010306/27/16 07:50:31  5-MIN KAOH 271250Z AUTO 26005KT 5SM BR BKN005 23/22 A3007 840 97 2000 270/05 RMK AO2
04850KAOH AOH20160627075511306/27/16 07:55:31  5-MIN KAOH 271255Z AUTO 28005KT 5SM BR BKN005 23/22 A3007 840 97 2000 280/05 RMK AO2 T02280222
04850KAOH AOH20160627080011306/27/16 08:00:31  5-MIN KAOH 271300Z AUTO 29004KT 6SM BR SCT005 23/22 A3007 840 93 2000 300/04 RMK AO2 T02330222
04850KAOH AOH20160627080511306/27/16 08:05:31  5-MIN KAOH 271305Z AUTO 29004KT 6SM BR SCT005 23/22 A3007 840 93 2000 300/04 RMK AO2 T02330222
04850KAOH AOH20160627081011006/27/16 08:10:31  5-MIN KAOH 271310Z AUTO 27003KT 7SM FEW005 23/22 A3007 840 93 2000 280/03 RMK AO2 T02330222
04850KAOH AOH20160627081511006/27/16 08:15:31  5-MIN KAOH 271315Z AUTO 28004KT 8SM FEW005 24/22 A3007 840 87 2100 290/04 RMK AO2 T02390217
04850KAOH AOH20160627082010706/27/16 08:20:31  5-MIN KAOH 271320Z AUTO 31004KT 9SM CLR 24/22 A3007 840 87 2100 310/04 RMK AO2 T02390217
04850KAOH AOH20160627082510806/27/16 08:25:31  5-MIN KAOH 271325Z AUTO 31005KT 10SM CLR 24/21 A3007 840 84 2100 310/05 RMK AO2 T02390211
04850KAOH AOH20160627083010806/27/16 08:30:31  5-MIN KAOH 271330Z AUTO 28004KT 10SM CLR 24/21 A3007 840 81 2200 290/04 RMK AO2 T02440211
04850KAOH AOH20160627083510806/27/16 08:35:31  5-MIN KAOH 271335Z AUTO 30004KT 10SM CLR 24/21 A3007 840 81 2200 310/04 RMK AO2 T02440211
04850KAOH AOH20160627084010806/27/16 08:40:31  5-MIN KAOH 271340Z AUTO 31005KT 10SM CLR 24/21 A3007 840 78 2200 320/05 RMK AO2 T02440206
04850KAOH AOH20160627084510806/27/16 08:45:31  5-MIN KAOH 271345Z AUTO 31007KT 10SM CLR 25/21 A3007 840 76 2200 320/07 RMK AO2 T02500206
04850KAOH AOH20160627085011506/27/16 08:50:31  5-MIN KAOH 271350Z AUTO 31007KT 10SM CLR 25/21 A3007 840 76 2200 310/07 RMK AO2 SLP175 T02500206
04850KAOH AOH20160627085510806/27/16 08:55:31  5-MIN KAOH 271355Z AUTO 31006KT 10SM CLR 25/21 A3007 840 76 2200 320/06 RMK AO2 T02500206
04850KAOH AOH20160627090010806/27/16 09:00:31  5-MIN KAOH 271400Z AUTO 30005KT 10SM CLR 25/21 A3007 840 76 2200 310/05 RMK AO2 T02500206
04850KAOH AOH20160627090510806/27/16 09:05:31  5-MIN KAOH 271405Z AUTO 30006KT 10SM CLR 25/20 A3007 840 73 2200 300/06 RMK AO2 T02500200
04850KAOH AOH20160627091010806/27/16 09:10:31  5-MIN KAOH 271410Z AUTO 29005KT 10SM CLR 25/20 A3007 840 73 2200 300/05 RMK AO2 T02500200
04850KAOH AOH20160627091510806/27/16 09:15:31  5-MIN KAOH 271415Z AUTO 30005KT 10SM CLR 26/21 A3007 840 73 2300 300/05 RMK AO2 T02560206
04850KAOH AOH20160627092010806/27/16 09:20:31  5-MIN KAOH 271420Z AUTO 26005KT 10SM CLR 25/20 A3007 840 73 2200 270/05 RMK AO2 T02500200
04850KAOH AOH20160627092510806/27/16 09:25:31  5-MIN KAOH 271425Z AUTO 27004KT 10SM CLR 26/21 A3007 840 73 2300 270/04 RMK AO2 T02560206
04850KAOH AOH20160627093010806/27/16 09:30:31  5-MIN KAOH 271430Z AUTO 27005KT 10SM CLR 26/21 A3007 840 73 2300 280/05 RMK AO2 T02560206
04850KAOH AOH20160627093510806/27/16 09:35:31  5-MIN KAOH 271435Z AUTO 30004KT 10SM CLR 26/20 A3007 840 68 2400 300/04 RMK AO2 T02610200
04850KAOH AOH20160627094010806/27/16 09:40:31  5-MIN KAOH 271440Z AUTO 27004KT 10SM CLR 26/20 A3007 840 68 2400 280/04 RMK AO2 T02610200
04850KAOH AOH20160627094510806/27/16 09:45:31  5-MIN KAOH 271445Z AUTO 00000KT 10SM CLR 26/19 A3006 850 66 2400 000/00 RMK AO2 T02610194
04850KAOH AOH20160627095012106/27/16 09:50:31  5-MIN KAOH 271450Z AUTO 26005KT 10SM CLR 26/20 A3006 850 68 2400 270/05 RMK AO2 SLP173 T02610200 51008
04850KAOH AOH20160627095510806/27/16 09:55:31  5-MIN KAOH 271455Z AUTO VRB03KT 10SM CLR 27/20 A3006 850 66 2400 VRB/03 RMK AO2 T02670200
04850KAOH AOH20160627100010806/27/16 10:00:31  5-MIN KAOH 271500Z AUTO 27004KT 10SM CLR 27/20 A3006 840 66 2400 270/04 RMK AO2 T02670200
04850KAOH AOH20160627100510806/27/16 10:05:31  5-MIN KAOH 271505Z AUTO 26006KT 10SM CLR 27/20 A3006 840 66 2400 260/06 RMK AO2 T02670200
04850KAOH AOH20160627101010806/27/16 10:10:31  5-MIN KAOH 271510Z AUTO 28005KT 10SM CLR 27/20 A3006 840 66 2400 290/05 RMK AO2 T02670200
04850KAOH AOH20160627101510806/27/16 10:15:31  5-MIN KAOH 271515Z AUTO 27006KT 10SM CLR 27/19 A3006 840 62 2500 280/06 RMK AO2 T02720194
04850KAOH AOH20160627102010806/27/16 10:20:31  5-MIN KAOH 271520Z AUTO VRB05KT 10SM CLR 27/19 A3006 840 62 2500 VRB/05 RMK AO2 T02720194
04850KAOH AOH20160627102510806/27/16 10:25:31  5-MIN KAOH 271525Z AUTO 24005KT 10SM CLR 27/20 A3006 840 64 2500 240/05 RMK AO2 T02720200
04850KAOH AOH20160627103010806/27/16 10:30:31  5-MIN KAOH 271530Z AUTO 29005KT 10SM CLR 27/20 A3007 840 64 2500 300/05 RMK AO2 T02720200
04850KAOH AOH20160627103510806/27/16 10:35:31  5-MIN KAOH 271535Z AUTO 27003KT 10SM CLR 27/20 A3007 840 64 2500 280/03 RMK AO2 T02720200
04850KAOH AOH20160627104012406/27/16 10:40:31  5-MIN KAOH 271540Z AUTO 25008KT 210V280 10SM CLR 28/21 A3007 840 64 2500 260/08 220V290 RMK AO2 T02780206
04850KAOH AOH20160627104510806/27/16 10:45:31  5-MIN KAOH 271545Z AUTO 23007KT 10SM CLR 28/20 A3006 840 62 2500 230/07 RMK AO2 T02780200
04850KAOH AOH20160627105011506/27/16 10:50:31  5-MIN KAOH 271550Z AUTO 28006KT 10SM CLR 28/20 A3007 840 62 2500 290/06 RMK AO2 SLP174 T02780200
04850KAOH AOH20160627105510806/27/16 10:55:31  5-MIN KAOH 271555Z AUTO VRB03KT 10SM CLR 28/19 A3007 840 58 2500 VRB/03 RMK AO2 T02780189
04850KAOH AOH20160627110010806/27/16 11:00:31  5-MIN KAOH 271600Z AUTO 25007KT 10SM CLR 28/19 A3007 840 60 2500 260/07 RMK AO2 T02780194
04850KAOH AOH20160627110510806/27/16 11:05:31  5-MIN KAOH 271605Z AUTO 23003KT 10SM CLR 28/19 A3007 840 60 2500 240/03 RMK AO2 T02780194
04850KAOH AOH20160627111010806/27/16 11:10:31  5-MIN KAOH 271610Z AUTO 25006KT 10SM CLR 28/20 A3007 840 60 2600 260/06 RMK AO2 T02830200
04850KAOH AOH20160627111510806/27/16 11:15:31  5-MIN KAOH 271615Z AUTO 24008KT 10SM CLR 28/19 A3007 840 58 2600 250/08 RMK AO2 T02830194
04850KAOH AOH20160627112010806/27/16 11:20:31  5-MIN KAOH 271620Z AUTO 25007KT 10SM CLR 28/19 A3007 840 56 2600 260/07 RMK AO2 T02830189
04850KAOH AOH20160627112510806/27/16 11:25:31  5-MIN KAOH 271625Z AUTO 26005KT 10SM CLR 29/20 A3007 840 58 2700 270/05 RMK AO2 T02890200
04850KAOH AOH20160627113010806/27/16 11:30:31  5-MIN KAOH 271630Z AUTO 28009KT 10SM CLR 29/19 A3007 840 54 2700 280/09 RMK AO2 T02890189
04850KAOH AOH20160627113510806/27/16 11:35:31  5-MIN KAOH 271635Z AUTO 25007KT 10SM CLR 29/18 A3006 850 52 2700 260/07 RMK AO2 T02890183
04850KAOH AOH20160627114010806/27/16 11:40:31  5-MIN KAOH 271640Z AUTO 26009KT 10SM CLR 29/18 A3006 850 50 2700 260/09 RMK AO2 T02890178
04850KAOH AOH20160627114511106/27/16 11:45:31  5-MIN KAOH 271645Z AUTO 26010KT 10SM FEW055 29/18 A3006 850 52 2700 260/10 RMK AO2 T02890183
04850KAOH AOH20160627115011506/27/16 11:50:31  5-MIN KAOH 271650Z AUTO 28010KT 10SM CLR 29/18 A3006 850 50 2700 290/10 RMK AO2 SLP171 T02940183
04850KAOH AOH20160627115511106/27/16 11:55:31  5-MIN KAOH 271655Z AUTO 30006KT 10SM FEW055 29/17 A3006 850 48 2700 310/06 RMK AO2 T02890172
04850KAOH AOH20160627120011106/27/16 12:00:31  5-MIN KAOH 271700Z AUTO 30008KT 10SM FEW055 29/16 A3006 850 44 2700 300/08 RMK AO2 T02940161
04850KAOH AOH20160627120510806/27/16 12:05:31  5-MIN KAOH 271705Z AUTO 26007KT 10SM CLR 29/17 A3006 850 48 2700 260/07 RMK AO2 T02890172
04850KAOH AOH20160627121010806/27/16 12:10:31  5-MIN KAOH 271710Z AUTO 29007KT 10SM CLR 29/15 A3006 850 41 2700 300/07 RMK AO2 T02940150
04850KAOH AOH20160627121511706/27/16 12:15:31  5-MIN KAOH 271715Z AUTO 30007G15KT 10SM FEW070 29/15 A3006 850 41 2700 310/07G15 RMK AO2 T02940150
04850KAOH AOH20160627122011106/27/16 12:20:31  5-MIN KAOH 271720Z AUTO 29010KT 10SM FEW070 29/18 A3005 850 49 2700 290/10 RMK AO2 T02940178
04850KAOH AOH20160627122511106/27/16 12:25:31  5-MIN KAOH 271725Z AUTO 27009KT 10SM FEW070 29/18 A3005 860 49 2700 280/09 RMK AO2 T02940178
04850KAOH AOH20160627123011106/27/16 12:30:31  5-MIN KAOH 271730Z AUTO 25009KT 10SM FEW070 29/17 A3005 860 47 2700 250/09 RMK AO2 T02940172
04850KAOH AOH20160627123511106/27/16 12:35:31  5-MIN KAOH 271735Z AUTO 28007KT 10SM FEW070 29/18 A3005 860 49 2700 280/07 RMK AO2 T02940178
04850KAOH AOH20160627124011106/27/16 12:40:31  5-MIN KAOH 271740Z AUTO 26010KT 10SM FEW070 29/17 A3005 860 47 2700 270/10 RMK AO2 T02940172
04850KAOH AOH20160627124511106/27/16 12:45:31  5-MIN KAOH 271745Z AUTO 27008KT 10SM FEW070 29/18 A3004 860 49 2800 280/08 RMK AO2 T02940178
04850KAOH AOH20160627125013606/27/16 12:50:31  5-MIN KAOH 271750Z AUTO 26006KT 10SM FEW070 29/18 A3004 860 49 2800 270/06 RMK AO2 SLP165 T02940178 10294 20217 50002
04850KAOH AOH20160627125510806/27/16 12:55:31  5-MIN KAOH 271755Z AUTO 26011KT 10SM CLR 30/17 A3004 870 45 2800 270/11 RMK AO2 T03000172
04850KAOH AOH20160627130010806/27/16 13:00:31  5-MIN KAOH 271800Z AUTO 26008KT 10SM CLR 30/18 A3004 870 47 2800 270/08 RMK AO2 T03000178
04850KAOH AOH20160627130510806/27/16 13:05:31  5-MIN KAOH 271805Z AUTO 28009KT 10SM CLR 30/17 A3003 870 45 2800 280/09 RMK AO2 T03000172
04850KAOH AOH20160627131010806/27/16 13:10:31  5-MIN KAOH 271810Z AUTO 26009KT 10SM CLR 30/17 A3003 870 45 2800 270/09 RMK AO2 T03000172
04850KAOH AOH20160627131510806/27/16 13:15:31  5-MIN KAOH 271815Z AUTO 26008KT 10SM CLR 30/16 A3003 880 42 2800 260/08 RMK AO2 T03000161
04850KAOH AOH20160627132010806/27/16 13:20:31  5-MIN KAOH 271820Z AUTO 28012KT 10SM CLR 30/17 A3003 880 44 2800 290/12 RMK AO2 T03000167
04850KAOH AOH20160627132510806/27/16 13:25:31  5-MIN KAOH 271825Z AUTO 29009KT 10SM CLR 30/17 A3002 880 44 2800 290/09 RMK AO2 T03000167
04850KAOH AOH20160627133010806/27/16 13:30:31  5-MIN KAOH 271830Z AUTO 30009KT 10SM CLR 30/16 A3002 880 41 2800 310/09 RMK AO2 T03000156
04850KAOH AOH20160627133510806/27/16 13:35:31  5-MIN KAOH 271835Z AUTO 25007KT 10SM CLR 30/17 A3002 880 44 2800 260/07 RMK AO2 T03000167
04850KAOH AOH20160627134010806/27/16 13:40:31  5-MIN KAOH 271840Z AUTO 28007KT 10SM CLR 30/17 A3002 880 44 2800 290/07 RMK AO2 T03000167
04850KAOH AOH20160627134510806/27/16 13:45:31  5-MIN KAOH 271845Z AUTO 28007KT 10SM CLR 30/16 A3002 890 42 2800 280/07 RMK AO2 T03000161
04850KAOH AOH20160627135011506/27/16 13:50:31  5-MIN KAOH 271850Z AUTO 28008KT 10SM CLR 31/17 A3002 890 42 2900 280/08 RMK AO2 SLP157 T03060167
04850KAOH AOH20160627135510806/27/16 13:55:31  5-MIN KAOH 271855Z AUTO 29011KT 10SM CLR 30/17 A3002 890 45 2800 290/11 RMK AO2 T03000172
04850KAOH AOH20160627140010806/27/16 14:00:31  5-MIN KAOH 271900Z AUTO 29008KT 10SM CLR 30/16 A3002 890 42 2800 290/08 RMK AO2 T03000161
04850KAOH AOH20160627140511106/27/16 14:05:31  5-MIN KAOH 271905Z AUTO 27010KT 10SM FEW075 30/17 A3002 890 44 2800 280/10 RMK AO2 T03000167
04850KAOH AOH20160627141011706/27/16 14:10:31  5-MIN KAOH 271910Z AUTO 28013G17KT 10SM FEW075 31/18 A3001 890 47 2900 290/13G17 RMK AO2 T03060183
04850KAOH AOH20160627141511706/27/16 14:15:31  5-MIN KAOH 271915Z AUTO 31010G17KT 10SM FEW075 30/17 A3001 890 45 2800 320/10G17 RMK AO2 T03000172
04850KAOH AOH20160627142011106/27/16 14:20:31  5-MIN KAOH 271920Z AUTO 28008KT 10SM FEW075 31/17 A3001 890 44 2900 280/08 RMK AO2 T03060172
04850KAOH AOH20160627142511106/27/16 14:25:31  5-MIN KAOH 271925Z AUTO 27015KT 10SM FEW075 31/17 A3001 890 44 2900 270/15 RMK AO2 T03060172
04850KAOH AOH20160627143011706/27/16 14:30:31  5-MIN KAOH 271930Z AUTO 29012G18KT 10SM FEW075 31/18 A3001 900 46 2900 290/12G18 RMK AO2 T03060178
04850KAOH AOH20160627143511106/27/16 14:35:31  5-MIN KAOH 271935Z AUTO 27012KT 10SM FEW075 31/17 A3000 900 44 2900 280/12 RMK AO2 T03060172
04850KAOH AOH20160627144011706/27/16 14:40:31  5-MIN KAOH 271940Z AUTO 27010G18KT 10SM FEW075 31/17 A3000 900 44 2900 280/10G18 RMK AO2 T03060172
04850KAOH AOH20160627144511406/27/16 14:45:31  5-MIN KAOH 271945Z AUTO 29010G18KT 10SM CLR 31/17 A3000 900 44 2900 300/10G18 RMK AO2 T03060172
04850KAOH AOH20160627145012106/27/16 14:50:31  5-MIN KAOH 271950Z AUTO 29010G16KT 10SM CLR 31/18 A3000 910 46 2900 300/10G16 RMK AO2 SLP149 T03060178
04850KAOH AOH20160627145510806/27/16 14:55:31  5-MIN KAOH 271955Z AUTO 27010KT 10SM CLR 31/18 A3000 910 47 2900 280/10 RMK AO2 T03060183
04850KAOH AOH20160627150010806/27/16 15:00:31  5-MIN KAOH 272000Z AUTO 27011KT 10SM CLR 31/17 A3000 910 42 2900 280/11 RMK AO2 T03060167
04850KAOH AOH20160627150511406/27/16 15:05:31  5-MIN KAOH 272005Z AUTO 27013G16KT 10SM CLR 31/18 A2999 910 47 2900 280/13G16 RMK AO2 T03060183
04850KAOH AOH20160627151011706/27/16 15:10:31  5-MIN KAOH 272010Z AUTO 28011G16KT 10SM FEW070 31/18 A2999 910 46 2900 280/11G16 RMK AO2 T03060178
04850KAOH AOH20160627151511106/27/16 15:15:31  5-MIN KAOH 272015Z AUTO 30009KT 10SM FEW070 31/17 A2999 910 42 2900 300/09 RMK AO2 T03060167
04850KAOH AOH20160627152010806/27/16 15:20:31  5-MIN KAOH 272020Z AUTO 28009KT 10SM CLR 31/17 A2999 920 42 2900 290/09 RMK AO2 T03060167
04850KAOH AOH20160627152511406/27/16 15:25:31  5-MIN KAOH 272025Z AUTO 26012G16KT 10SM CLR 31/17 A2999 920 44 2900 270/12G16 RMK AO2 T03060172
04850KAOH AOH20160627153011406/27/16 15:30:31  5-MIN KAOH 272030Z AUTO 29009G16KT 10SM CLR 31/17 A2998 920 44 2900 290/09G16 RMK AO2 T03060172
04850KAOH AOH20160627153511406/27/16 15:35:31  5-MIN KAOH 272035Z AUTO 28013G18KT 10SM CLR 31/16 A2998 920 41 2900 280/13G18 RMK AO2 T03060161
04850KAOH AOH20160627154011406/27/16 15:40:31  5-MIN KAOH 272040Z AUTO 28012G18KT 10SM CLR 31/17 A2998 920 42 2900 290/12G18 RMK AO2 T03060167
04850KAOH AOH20160627154510806/27/16 15:45:31  5-MIN KAOH 272045Z AUTO 27013KT 10SM CLR 31/17 A2998 920 42 2900 280/13 RMK AO2 T03060167
04850KAOH AOH20160627155012106/27/16 15:50:31  5-MIN KAOH 272050Z AUTO 29009KT 10SM CLR 31/17 A2998 920 42 2900 290/09 RMK AO2 SLP142 T03060167 58007
04850KAOH AOH20160627155510806/27/16 15:55:31  5-MIN KAOH 272055Z AUTO 29010KT 10SM CLR 31/17 A2997 930 44 3000 290/10 RMK AO2 T03060172
04850KAOH AOH20160627160010806/27/16 16:00:31  5-MIN KAOH 272100Z AUTO 27009KT 10SM CLR 31/17 A2997 930 44 3000 280/09 RMK AO2 T03060172
04850KAOH AOH20160627160510806/27/16 16:05:31  5-MIN KAOH 272105Z AUTO 27014KT 10SM CLR 31/17 A2997 930 44 3000 270/14 RMK AO2 T03060172
04850KAOH AOH20160627161010806/27/16 16:10:31  5-MIN KAOH 272110Z AUTO 28014KT 10SM CLR 31/17 A2997 930 42 3000 290/14 RMK AO2 T03060167
04850KAOH AOH20160627161510806/27/16 16:15:31  5-MIN KAOH 272115Z AUTO 31010KT 10SM CLR 31/17 A2997 930 42 3000 320/10 RMK AO2 T03060167
04850KAOH AOH20160627162010806/27/16 16:20:31  5-MIN KAOH 272120Z AUTO 30012KT 10SM CLR 31/17 A2997 930 42 3000 310/12 RMK AO2 T03060167
04850KAOH AOH20160627162510806/27/16 16:25:31  5-MIN KAOH 272125Z AUTO 28013KT 10SM CLR 31/17 A2997 930 42 3000 290/13 RMK AO2 T03060167
04850KAOH AOH20160627163010806/27/16 16:30:31  5-MIN KAOH 272130Z AUTO 29012KT 10SM CLR 31/16 A2997 930 41 3000 300/12 RMK AO2 T03060161
04850KAOH AOH20160627163510806/27/16 16:35:31  5-MIN KAOH 272135Z AUTO 29012KT 10SM CLR 31/17 A2997 930 42 3000 300/12 RMK AO2 T03060167
04850KAOH AOH20160627164010806/27/16 16:40:31  5-MIN KAOH 272140Z AUTO 29013KT 10SM CLR 31/16 A2997 930 41 3000 300/13 RMK AO2 T03060161
04850KAOH AOH20160627164510806/27/16 16:45:31  5-MIN KAOH 272145Z AUTO 28010KT 10SM CLR 31/18 A2997 940 46 3000 280/10 RMK AO2 T03060178
04850KAOH AOH20160627165011506/27/16 16:50:31  5-MIN KAOH 272150Z AUTO 29012KT 10SM CLR 31/17 A2997 940 44 3000 290/12 RMK AO2 SLP138 T03060172
04850KAOH AOH20160627165510806/27/16 16:55:31  5-MIN KAOH 272155Z AUTO 27012KT 10SM CLR 31/17 A2996 940 44 3000 270/12 RMK AO2 T03060172
04850KAOH AOH20160627170010806/27/16 17:00:31  5-MIN KAOH 272200Z AUTO 28011KT 10SM CLR 31/17 A2996 940 42 3000 280/11 RMK AO2 T03060167
04850KAOH AOH20160627170510806/27/16 17:05:31  5-MIN KAOH 272205Z AUTO 28009KT 10SM CLR 31/17 A2996 940 44 3000 280/09 RMK AO2 T03060172
04850KAOH AOH20160627171010806/27/16 17:10:31  5-MIN KAOH 272210Z AUTO 27013KT 10SM CLR 31/17 A2996 940 44 3000 280/13 RMK AO2 T03060172
04850KAOH AOH20160627171510806/27/16 17:15:31  5-MIN KAOH 272215Z AUTO 29009KT 10SM CLR 31/17 A2996 940 44 3000 300/09 RMK AO2 T03060172
04850KAOH AOH20160627172010806/27/16 17:20:31  5-MIN KAOH 272220Z AUTO 28008KT 10SM CLR 31/18 A2996 940 46 3000 290/08 RMK AO2 T03060178
04850KAOH AOH20160627172510806/27/16 17:25:31  5-MIN KAOH 272225Z AUTO 28011KT 10SM CLR 31/18 A2996 940 46 3000 290/11 RMK AO2 T03060178
04850KAOH AOH20160627173010806/27/16 17:30:31  5-MIN KAOH 272230Z AUTO 27011KT 10SM CLR 30/18 A2997 940 47 2900 280/11 RMK AO2 T03000178
04850KAOH AOH20160627173510806/27/16 17:35:31  5-MIN KAOH 272235Z AUTO 28011KT 10SM CLR 30/18 A2996 940 47 2900 280/11 RMK AO2 T03000178
04850KAOH AOH20160627174011106/27/16 17:40:31  5-MIN KAOH 272240Z AUTO 26011KT 10SM FEW080 30/18 A2996 940 47 2900 270/11 RMK AO2 T03000178
04850KAOH AOH20160627174511106/27/16 17:45:31  5-MIN KAOH 272245Z AUTO 27011KT 10SM FEW085 29/18 A2996 940 50 2800 280/11 RMK AO2 T02940183
04850KAOH AOH20160627175011806/27/16 17:50:31  5-MIN KAOH 272250Z AUTO 28012KT 10SM FEW090 30/18 A2996 940 49 2900 280/12 RMK AO2 SLP139 T03000183
04850KAOH AOH20160627175511106/27/16 17:55:31  5-MIN KAOH 272255Z AUTO 27012KT 10SM SCT090 29/18 A2997 940 50 2800 270/12 RMK AO2 T02890178
04850KAOH AOH20160627180011106/27/16 18:00:31  5-MIN KAOH 272300Z AUTO 26009KT 10SM BKN090 29/18 A2997 940 52 2800 270/09 RMK AO2 T02890183
04850KAOH AOH20160627180511106/27/16 18:05:31  5-MIN KAOH 272305Z AUTO 25009KT 10SM BKN090 30/18 A2996 940 49 2900 260/09 RMK AO2 T03000183
04850KAOH AOH20160627181011806/27/16 18:10:31  5-MIN KAOH 272310Z AUTO 26008KT 10SM FEW080 BKN090 30/18 A2996 940 49 2900 260/08 RMK AO2 T03000183
04850KAOH AOH20160627181511106/27/16 18:15:31  5-MIN KAOH 272315Z AUTO 27009KT 10SM SCT090 30/19 A2997 940 51 2900 280/09 RMK AO2 T03000189
04850KAOH AOH20160627182011106/27/16 18:20:31  5-MIN KAOH 272320Z AUTO 26011KT 10SM SCT090 30/18 A2997 940 49 2900 270/11 RMK AO2 T03000183
04850KAOH AOH20160627182511106/27/16 18:25:31  5-MIN KAOH 272325Z AUTO 26008KT 10SM SCT090 29/19 A2997 940 54 2800 270/08 RMK AO2 T02890189
04850KAOH AOH20160627183011806/27/16 18:30:31  5-MIN KAOH 272330Z AUTO 28006KT 10SM FEW080 FEW095 29/19 A2997 940 56 2800 290/06 RMK AO2 T02890194
04850KAOH AOH20160627183510806/27/16 18:35:31  5-MIN KAOH 272335Z AUTO 27005KT 10SM CLR 28/19 A2997 930 58 2700 280/05 RMK AO2 T02830194
04850KAOH AOH20160627184010806/27/16 18:40:31  5-MIN KAOH 272340Z AUTO 25008KT 10SM CLR 28/19 A2997 930 60 2700 260/08 RMK AO2 T02780194
04850KAOH AOH20160627184511106/27/16 18:45:31  5-MIN KAOH 272345Z AUTO 25008KT 10SM FEW090 28/19 A2997 930 56 2700 260/08 RMK AO2 T02830189
04850KAOH AOH20160627185013606/27/16 18:50:31  5-MIN KAOH 272350Z AUTO 25007KT 10SM FEW085 28/19 A2997 930 56 2700 260/07 RMK AO2 SLP141 T02830189 10306 20278 56022
04850KAOH AOH20160627185511806/27/16 18:55:31  5-MIN KAOH 272355Z AUTO 25008KT 10SM FEW065 SCT090 29/19 A2997 930 54 2800 260/08 RMK AO2 T02890189
04850KAOH AOH20160627190011806/27/16 19:00:31  5-MIN KAOH 280000Z AUTO 24010KT 10SM FEW070 BKN090 29/19 A2997 930 52 2800 250/10 RMK AO2 T02940189
04850KAOH AOH20160627190511806/27/16 19:05:31  5-MIN KAOH 280005Z AUTO 25012KT 10SM FEW070 BKN090 29/19 A2997 930 54 2800 260/12 RMK AO2 T02890189
04850KAOH AOH20160627191011806/27/16 19:10:31  5-MIN KAOH 280010Z AUTO 25010KT 10SM FEW070 BKN090 29/19 A2997 930 54 2800 260/10 RMK AO2 T02890189
04850KAOH AOH20160627191511806/27/16 19:15:31  5-MIN KAOH 280015Z AUTO 25009KT 10SM FEW065 BKN090 29/19 A2997 930 54 2800 260/09 RMK AO2 T02890189
04850KAOH AOH20160627192011806/27/16 19:20:31  5-MIN KAOH 280020Z AUTO 25009KT 10SM FEW065 OVC090 29/19 A2997 930 54 2800 250/09 RMK AO2 T02890189
04850KAOH AOH20160627192511106/27/16 19:25:31  5-MIN KAOH 280025Z AUTO 25009KT 10SM OVC090 29/19 A2997 930 54 2800 250/09 RMK AO2 T02890189
04850KAOH AOH20160627193011106/27/16 19:30:31  5-MIN KAOH 280030Z AUTO 25008KT 10SM BKN090 28/19 A2997 930 56 2700 250/08 RMK AO2 T02830189
04850KAOH AOH20160627193511806/27/16 19:35:31  5-MIN KAOH 280035Z AUTO 24008KT 10SM FEW080 BKN095 28/19 A2997 930 56 2700 250/08 RMK AO2 T02830189
04850KAOH AOH20160627194011806/27/16 19:40:31  5-MIN KAOH 280040Z AUTO 24006KT 10SM SCT080 BKN100 28/19 A2997 930 58 2600 250/06 RMK AO2 T02780189
04850KAOH AOH20160627194511806/27/16 19:45:31  5-MIN KAOH 280045Z AUTO 24006KT 10SM FEW075 BKN100 28/19 A2997 930 58 2600 250/06 RMK AO2 T02780189
04850KAOH AOH20160627195012506/27/16 19:50:31  5-MIN KAOH 280050Z AUTO 24006KT 10SM FEW070 BKN095 28/19 A2998 930 58 2600 250/06 RMK AO2 SLP142 T02780189
04850KAOH AOH20160627195511806/27/16 19:55:31  5-MIN KAOH 280055Z AUTO 24006KT 10SM FEW070 BKN100 27/19 A2997 930 60 2600 240/06 RMK AO2 T02720189
04850KAOH AOH20160627200011806/27/16 20:00:31  5-MIN KAOH 280100Z AUTO 23007KT 10SM FEW070 BKN100 28/19 A2997 930 58 2600 240/07 RMK AO2 T02780189
04850KAOH AOH20160627200511806/27/16 20:05:31  5-MIN KAOH 280105Z AUTO 23007KT 10SM FEW070 BKN100 28/19 A2997 930 58 2600 240/07 RMK AO2 T02780189
04850KAOH AOH20160627201011806/27/16 20:10:31  5-MIN KAOH 280110Z AUTO 24007KT 10SM FEW070 BKN100 28/19 A2997 930 58 2600 240/07 RMK AO2 T02780189
04850KAOH AOH20160627201511806/27/16 20:15:31  5-MIN KAOH 280115Z AUTO 23007KT 10SM SCT070 BKN100 28/19 A2997 930 58 2600 240/07 RMK AO2 T02780189
04850KAOH AOH20160627202011806/27/16 20:20:31  5-MIN KAOH 280120Z AUTO 23006KT 10SM SCT070 BKN100 28/19 A2997 930 58 2600 230/06 RMK AO2 T02780189
04850KAOH AOH20160627202511806/27/16 20:25:31  5-MIN KAOH 280125Z AUTO 22005KT 10SM SCT070 SCT100 27/19 A2997 930 60 2600 230/05 RMK AO2 T02720189
04850KAOH AOH20160627203012506/27/16 20:30:31  5-MIN KAOH 280130Z AUTO 22005KT 10SM SCT065 BKN080 BKN100 27/19 A2997 930 60 2600 230/05 RMK AO2 T02720189
04850KAOH AOH20160627203511606/27/16 20:35:31  5-MIN KAOH 280135Z AUTO 24007KT 10SM VCTS BKN070 27/19 A2997 930 60 2600 250/07 RMK AO2 T02720189
04850KAOH AOH20160627204011606/27/16 20:40:31  5-MIN KAOH 280140Z AUTO 26008KT 10SM VCTS BKN070 27/19 A2998 920 60 2600 270/08 RMK AO2 T02720189
04850KAOH AOH20160627204512706/27/16 20:45:31  5-MIN KAOH 280145Z AUTO 28006KT 10SM TS BKN065 BKN075 26/20 A2998 920 68 2400 290/06 RMK AO2 TSB42 T02610200
04850KAOH AOH20160627205016106/27/16 20:50:31  5-MIN KAOH 280150Z AUTO 31017G24KT 8SM -TSRA FEW049 BKN060 OVC070 26/19 A2999 920 66 2400 310/17G24 RMK AO2 RAB47 TSB42 SLP147 P0002 T02610194
04850KAOH AOH20160627205514206/27/16 20:55:31  5-MIN KAOH 280155Z AUTO 35009G24KT 8SM -TSRA FEW049 BKN060 OVC075 25/19 A2999 910 68 2300 350/09G24 RMK AO2 P0000 T02500189
04850KAOH AOH20160627210015906/27/16 21:00:31  5-MIN KAOH 280200Z AUTO 36007KT 10SM VCTS -RA SCT060 BKN080 OVC090 24/20 A2999 910 76 2300 010/07 RMK AO2 LTG DSNT E TSE0157 P0000 T02440200
04850KAOH AOH20160627210516106/27/16 21:05:31  5-MIN KAOH 280205Z AUTO 00000KT 10SM VCTS FEW055 BKN070 OVC090 24/21 A2999 910 78 2200 000/00 RMK AO2 LTG DSNT E RAE05 TSE0157 P0000 T02440206
04850KAOH AOH20160627211016106/27/16 21:10:31  5-MIN KAOH 280210Z AUTO 00000KT 10SM VCTS FEW055 SCT070 OVC090 24/21 A3000 910 81 2200 000/00 RMK AO2 LTG DSNT E RAE05 TSE0157 P0000 T02390206
04850KAOH AOH20160627211515006/27/16 21:15:31  5-MIN KAOH 280215Z AUTO 19003KT 10SM VCTS FEW050 SCT080 OVC095 25/19 A3000 910 71 2300 200/03 RMK AO2 RAE05 TSE0157 P0000 T02500194
04850KAOH AOH20160627212015506/27/16 21:20:31  5-MIN KAOH 280220Z AUTO 00000KT 10SM VCTS SCT080 BKN095 24/20 A3000 910 76 2200 000/00 RMK AO2 LTG DSNT SW RAE05 TSE0157 P0000 T02440200
04850KAOH AOH20160627212514306/27/16 21:25:31  5-MIN KAOH 280225Z AUTO 00000KT 10SM BKN090 25/20 A3000 900 73 2300 000/00 RMK AO2 LTG DSNT SW RAE05 TSE0157 P0000 T02500200
04850KAOH AOH20160627213015006/27/16 21:30:31  5-MIN KAOH 280230Z AUTO 00000KT 10SM FEW080 SCT095 24/21 A3000 900 81 2200 000/00 RMK AO2 LTG DSNT SW RAE05 TSE0157 P0000 T02390206
04850KAOH AOH20160627213513806/27/16 21:35:31  5-MIN KAOH 280235Z AUTO 09003KT 10SM FEW070 SCT095 23/21 A3000 900 90 2100 100/03 RMK AO2 RAE05 TSE0157 P0000 T02280211
04850KAOH AOH20160627214013106/27/16 21:40:31  5-MIN KAOH 280240Z AUTO 00000KT 10SM FEW100 22/21 A3000 900 93 2000 000/00 RMK AO2 RAE05 TSE0157 P0000 T02220211
04850KAOH AOH20160627214512806/27/16 21:45:31  5-MIN KAOH 280245Z AUTO 00000KT 10SM CLR 22/21 A3000 900 93 2000 000/00 RMK AO2 RAE05 TSE0157 P0000 T02220211
04850KAOH AOH20160627215014706/27/16 21:50:31  5-MIN KAOH 280250Z AUTO 00000KT 10SM CLR 22/21 A3000 900 93 2000 000/00 RMK AO2 RAE05 TSE0157 SLP152 P0000 60003 T02220211 55001
04850KAOH AOH20160627215510806/27/16 21:55:31  5-MIN KAOH 280255Z AUTO 00000KT 10SM CLR 22/21 A3001 900 93 2000 000/00 RMK AO2 T02220211
04850KAOH AOH20160627220012006/27/16 22:00:31  5-MIN KAOH 280300Z AUTO 00000KT 10SM CLR 22/21 A3001 900 97 1900 000/00 RMK AO2 LTG DSNT SE T02170211
04850KAOH AOH20160627220512006/27/16 22:05:31  5-MIN KAOH 280305Z AUTO 36004KT 10SM CLR 22/21 A3000 900 93 1900 010/04 RMK AO2 LTG DSNT SE T02170206
04850KAOH AOH20160627221012006/27/16 22:10:31  5-MIN KAOH 280310Z AUTO 34005KT 10SM CLR 22/21 A3000 900 93 1900 350/05 RMK AO2 LTG DSNT SE T02170206
04850KAOH AOH20160627221510806/27/16 22:15:31  5-MIN KAOH 280315Z AUTO 33005KT 10SM CLR 22/20 A3000 900 87 2000 340/05 RMK AO2 T02220200
04850KAOH AOH20160627222010806/27/16 22:20:31  5-MIN KAOH 280320Z AUTO 33005KT 10SM CLR 22/21 A3001 900 90 2000 340/05 RMK AO2 T02220206
04850KAOH AOH20160627222510806/27/16 22:25:31  5-MIN KAOH 280325Z AUTO 34004KT 10SM CLR 22/21 A3000 900 93 1900 350/04 RMK AO2 T02170206
04850KAOH AOH20160627223010806/27/16 22:30:31  5-MIN KAOH 280330Z AUTO 34004KT 10SM CLR 22/21 A3001 900 93 1900 340/04 RMK AO2 T02170206
04850KAOH AOH20160627223510806/27/16 22:35:31  5-MIN KAOH 280335Z AUTO 33005KT 10SM CLR 22/20 A3001 900 90 1900 340/05 RMK AO2 T02170200
04850KAOH AOH20160627224010806/27/16 22:40:31  5-MIN KAOH 280340Z AUTO 34004KT 10SM CLR 22/20 A3001 890 90 1900 340/04 RMK AO2 T02170200
04850KAOH AOH20160627224510806/27/16 22:45:31  5-MIN KAOH 280345Z AUTO 34003KT 10SM CLR 22/19 A3001 890 84 2000 340/03 RMK AO2 T02220194
04850KAOH AOH20160627225011506/27/16 22:50:31  5-MIN KAOH 280350Z AUTO 32004KT 10SM CLR 23/19 A3001 890 78 2000 330/04 RMK AO2 SLP154 T02280189
04850KAOH AOH20160627225510806/27/16 22:55:31  5-MIN KAOH 280355Z AUTO 32005KT 10SM CLR 23/18 A3001 890 76 2000 330/05 RMK AO2 T02280183
04850KAOH AOH20160627230010806/27/16 23:00:31  5-MIN KAOH 280400Z AUTO 34007KT 10SM CLR 23/18 A3001 900 73 2000 340/07 RMK AO2 T02280178
04850KAOH AOH20160627230510806/27/16 23:05:31  5-MIN KAOH 280405Z AUTO 34006KT 10SM CLR 23/17 A3001 890 70 2000 340/06 RMK AO2 T02280172
04850KAOH AOH20160627231010806/27/16 23:10:31  5-MIN KAOH 280410Z AUTO 34005KT 10SM CLR 23/17 A3001 890 70 2000 340/05 RMK AO2 T02280172
04850KAOH AOH20160627231510806/27/16 23:15:31  5-MIN KAOH 280415Z AUTO 34005KT 10SM CLR 22/17 A3001 890 73 2000 340/05 RMK AO2 T02220172
04850KAOH AOH20160627232010806/27/16 23:20:31  5-MIN KAOH 280420Z AUTO 33005KT 10SM CLR 22/17 A3002 890 73 2000 340/05 RMK AO2 T02220172
04850KAOH AOH20160627232510806/27/16 23:25:31  5-MIN KAOH 280425Z AUTO 33005KT 10SM CLR 22/17 A3002 890 73 2000 340/05 RMK AO2 T02220172
04850KAOH AOH20160627233010806/27/16 23:30:31  5-MIN KAOH 280430Z AUTO 33005KT 10SM CLR 22/17 A3002 890 75 1900 330/05 RMK AO2 T02170172
04850KAOH AOH20160627233510806/27/16 23:35:31  5-MIN KAOH 280435Z AUTO 33004KT 10SM CLR 22/18 A3002 890 78 1900 340/04 RMK AO2 T02170178
04850KAOH AOH20160627234010806/27/16 23:40:31  5-MIN KAOH 280440Z AUTO 33003KT 10SM CLR 22/17 A3002 890 75 1900 330/03 RMK AO2 T02170172
04850KAOH AOH20160627234510806/27/16 23:45:31  5-MIN KAOH 280445Z AUTO 33003KT 10SM CLR 22/18 A3002 890 78 1900 340/03 RMK AO2 T02170178
04850KAOH AOH20160627235012506/27/16 23:50:31  5-MIN KAOH 280450Z AUTO 33004KT 10SM CLR 21/18 A3002 890 81 1800 330/04 RMK AO2 SLP157 T02110178 403060206
04850KAOH AOH20160627235510806/27/16 23:55:31  5-MIN KAOH 280455Z AUTO 33005KT 10SM CLR 21/17 A3002 890 78 1800 340/05 RMK AO2 T02110172
04850KAOH AOH20160628000010806/28/16 00:00:31  5-MIN KAOH 280500Z AUTO 33004KT 10SM CLR 21/18 A3002 890 81 1800 330/04 RMK AO2 T02110178
04850KAOH AOH20160628000510806/28/16 00:05:31  5-MIN KAOH 280505Z AUTO 33004KT 10SM CLR 21/18 A3002 890 84 1800 330/04 RMK AO2 T02060178
04850KAOH AOH20160628001010806/28/16 00:10:31  5-MIN KAOH 280510Z AUTO 33004KT 10SM CLR 21/18 A3002 890 84 1800 340/04 RMK AO2 T02060178
04850KAOH AOH20160628001510806/28/16 00:15:31  5-MIN KAOH 280515Z AUTO 33004KT 10SM CLR 21/18 A3002 890 84 1800 340/04 RMK AO2 T02060178
04850KAOH AOH20160628002010806/28/16 00:20:31  5-MIN KAOH 280520Z AUTO 32005KT 10SM CLR 20/18 A3002 890 87 1700 330/05 RMK AO2 T02000178
04850KAOH AOH20160628002510806/28/16 00:25:31  5-MIN KAOH 280525Z AUTO 32005KT 10SM CLR 21/17 A3002 890 81 1800 330/05 RMK AO2 T02060172
04850KAOH AOH20160628003010806/28/16 00:30:31  5-MIN KAOH 280530Z AUTO 32006KT 10SM CLR 21/18 A3002 890 84 1800 320/06 RMK AO2 T02060178
04850KAOH AOH20160628003510806/28/16 00:35:31  5-MIN KAOH 280535Z AUTO 32006KT 10SM CLR 21/18 A3002 890 84 1800 330/06 RMK AO2 T02060178
04850KAOH AOH20160628004010806/28/16 00:40:31  5-MIN KAOH 280540Z AUTO 32006KT 10SM CLR 20/18 A3002 890 87 1700 330/06 RMK AO2 T02000178
04850KAOH AOH20160628004510806/28/16 00:45:31  5-MIN KAOH 280545Z AUTO 32006KT 10SM CLR 21/18 A3002 890 84 1800 330/06 RMK AO2 T02060178
04850KAOH AOH20160628005013906/28/16 00:50:31  5-MIN KAOH 280550Z AUTO 32005KT 10SM CLR 21/17 A3002 890 81 1800 330/05 RMK AO2 SLP157 60003 T02060172 10294 20200 53009
04850KAOH AOH20160628005510806/28/16 00:55:31  5-MIN KAOH 280555Z AUTO 33005KT 10SM CLR 21/17 A3002 890 81 1800 340/05 RMK AO2 T02060172
04850KAOH AOH20160628010010806/28/16 01:00:31  5-MIN KAOH 280600Z AUTO 33004KT 10SM CLR 21/17 A3002 880 81 1800 330/04 RMK AO2 T02060172
04850KAOH AOH20160628010510806/28/16 01:05:31  5-MIN KAOH 280605Z AUTO 32005KT 10SM CLR 21/17 A3002 890 81 1800 330/05 RMK AO2 T02060172
04850KAOH AOH20160628011010806/28/16 01:10:31  5-MIN KAOH 280610Z AUTO 32005KT 10SM CLR 20/17 A3002 880 84 1700 330/05 RMK AO2 T02000172
04850KAOH AOH20160628011510806/28/16 01:15:31  5-MIN KAOH 280615Z AUTO 33005KT 10SM CLR 20/17 A3002 880 84 1700 330/05 RMK AO2 T02000172
04850KAOH AOH20160628012010806/28/16 01:20:31  5-MIN KAOH 280620Z AUTO 32005KT 10SM CLR 20/17 A3002 880 84 1700 330/05 RMK AO2 T02000172
04850KAOH AOH20160628012510806/28/16 01:25:31  5-MIN KAOH 280625Z AUTO 33005KT 10SM CLR 20/17 A3002 890 84 1700 340/05 RMK AO2 T02000172
04850KAOH AOH20160628013010806/28/16 01:30:31  5-MIN KAOH 280630Z AUTO 32004KT 10SM CLR 20/17 A3002 890 84 1700 330/04 RMK AO2 T02000172
04850KAOH AOH20160628013510806/28/16 01:35:31  5-MIN KAOH 280635Z AUTO 32005KT 10SM CLR 20/17 A3002 890 84 1700 320/05 RMK AO2 T02000172
04850KAOH AOH20160628014010806/28/16 01:40:31  5-MIN KAOH 280640Z AUTO 32005KT 10SM CLR 20/17 A3002 890 84 1700 320/05 RMK AO2 T02000172
04850KAOH AOH20160628014510806/28/16 01:45:31  5-MIN KAOH 280645Z AUTO 32006KT 10SM CLR 19/17 A3002 890 87 1600 320/06 RMK AO2 T01940172
04850KAOH AOH20160628015011506/28/16 01:50:31  5-MIN KAOH 280650Z AUTO 32006KT 10SM CLR 19/17 A3002 890 87 1600 320/06 RMK AO2 SLP157 T01940172
04850KAOH AOH20160628015510806/28/16 01:55:31  5-MIN KAOH 280655Z AUTO 32006KT 10SM CLR 19/17 A3002 880 87 1600 320/06 RMK AO2 T01940172
04850KAOH AOH20160628020010806/28/16 02:00:31  5-MIN KAOH 280700Z AUTO 32007KT 10SM CLR 19/17 A3002 880 87 1600 320/07 RMK AO2 T01940172
04850KAOH AOH20160628020510806/28/16 02:05:31  5-MIN KAOH 280705Z AUTO 32007KT 10SM CLR 19/17 A3002 880 84 1600 320/07 RMK AO2 T01940167
04850KAOH AOH20160628021010806/28/16 02:10:31  5-MIN KAOH 280710Z AUTO 32007KT 10SM CLR 20/17 A3002 880 81 1700 330/07 RMK AO2 T02000167
04850KAOH AOH20160628021510806/28/16 02:15:31  5-MIN KAOH 280715Z AUTO 32007KT 10SM CLR 20/17 A3002 880 81 1700 330/07 RMK AO2 T02000167
04850KAOH AOH20160628022010806/28/16 02:20:31  5-MIN KAOH 280720Z AUTO 32007KT 10SM CLR 20/17 A3002 880 81 1700 330/07 RMK AO2 T02000167
04850KAOH AOH20160628022510806/28/16 02:25:31  5-MIN KAOH 280725Z AUTO 32007KT 10SM CLR 20/17 A3002 880 81 1700 320/07 RMK AO2 T02000167
04850KAOH AOH20160628023010806/28/16 02:30:31  5-MIN KAOH 280730Z AUTO 32007KT 10SM CLR 19/17 A3002 880 84 1600 330/07 RMK AO2 T01940167
04850KAOH AOH20160628023510806/28/16 02:35:31  5-MIN KAOH 280735Z AUTO 32007KT 10SM CLR 19/17 A3003 880 84 1600 320/07 RMK AO2 T01940167
04850KAOH AOH20160628024010806/28/16 02:40:31  5-MIN KAOH 280740Z AUTO 32007KT 10SM CLR 19/17 A3002 880 84 1600 320/07 RMK AO2 T01940167
04850KAOH AOH20160628024510806/28/16 02:45:31  5-MIN KAOH 280745Z AUTO 32008KT 10SM CLR 19/17 A3002 880 84 1600 330/08 RMK AO2 T01940167
04850KAOH AOH20160628025011506/28/16 02:50:31  5-MIN KAOH 280750Z AUTO 32007KT 10SM CLR 19/17 A3002 890 84 1600 330/07 RMK AO2 SLP158 T01940167
04850KAOH AOH20160628025510806/28/16 02:55:31  5-MIN KAOH 280755Z AUTO 32007KT 10SM CLR 19/17 A3002 890 84 1700 330/07 RMK AO2 T01940167
04850KAOH AOH20160628030010806/28/16 03:00:31  5-MIN KAOH 280800Z AUTO 32006KT 10SM CLR 19/17 A3002 890 84 1600 320/06 RMK AO2 T01940167
04850KAOH AOH20160628030510806/28/16 03:05:31  5-MIN KAOH 280805Z AUTO 32007KT 10SM CLR 19/17 A3002 880 87 1600 320/07 RMK AO2 T01890167
04850KAOH AOH20160628031010806/28/16 03:10:31  5-MIN KAOH 280810Z AUTO 32007KT 10SM CLR 19/17 A3002 880 87 1600 330/07 RMK AO2 T01890167
04850KAOH AOH20160628031510806/28/16 03:15:31  5-MIN KAOH 280815Z AUTO 32007KT 10SM CLR 19/16 A3002 880 84 1600 330/07 RMK AO2 T01890161
04850KAOH AOH20160628032010806/28/16 03:20:31  5-MIN KAOH 280820Z AUTO 32006KT 10SM CLR 19/16 A3002 880 84 1600 330/06 RMK AO2 T01890161
04850KAOH AOH20160628032510806/28/16 03:25:31  5-MIN KAOH 280825Z AUTO 33007KT 10SM CLR 19/16 A3003 880 84 1600 330/07 RMK AO2 T01890161
04850KAOH AOH20160628033010806/28/16 03:30:31  5-MIN KAOH 280830Z AUTO 32005KT 10SM CLR 19/16 A3003 880 84 1600 330/05 RMK AO2 T01890161
04850KAOH AOH20160628033510806/28/16 03:35:31  5-MIN KAOH 280835Z AUTO 32006KT 10SM CLR 19/16 A3003 880 84 1600 320/06 RMK AO2 T01890161
04850KAOH AOH20160628034010806/28/16 03:40:31  5-MIN KAOH 280840Z AUTO 32005KT 10SM CLR 19/16 A3003 880 84 1600 330/05 RMK AO2 T01890161
04850KAOH AOH20160628034510806/28/16 03:45:31  5-MIN KAOH 280845Z AUTO 32005KT 10SM CLR 19/16 A3003 880 84 1600 330/05 RMK AO2 T01890161
04850KAOH AOH20160628035012106/28/16 03:50:31  5-MIN KAOH 280850Z AUTO 32005KT 10SM CLR 18/16 A3003 880 87 1500 330/05 RMK AO2 SLP160 T01830161 51004
04850KAOH AOH20160628035510806/28/16 03:55:31  5-MIN KAOH 280855Z AUTO 32005KT 10SM CLR 18/16 A3003 880 87 1500 330/05 RMK AO2 T01830161
04850KAOH AOH20160628040010806/28/16 04:00:31  5-MIN KAOH 280900Z AUTO 33006KT 10SM CLR 18/16 A3002 880 87 1500 340/06 RMK AO2 T01830161
04850KAOH AOH20160628040510806/28/16 04:05:31  5-MIN KAOH 280905Z AUTO 33005KT 10SM CLR 19/16 A3002 880 81 1600 340/05 RMK AO2 T01890156
04850KAOH AOH20160628041010806/28/16 04:10:31  5-MIN KAOH 280910Z AUTO 33005KT 10SM CLR 18/16 A3002 880 87 1500 330/05 RMK AO2 T01830161
04850KAOH AOH20160628041510806/28/16 04:15:31  5-MIN KAOH 280915Z AUTO 34005KT 10SM CLR 18/16 A3002 880 84 1500 340/05 RMK AO2 T01830156
04850KAOH AOH20160628042010806/28/16 04:20:31  5-MIN KAOH 280920Z AUTO 33004KT 10SM CLR 18/16 A3002 880 84 1500 340/04 RMK AO2 T01830156
04850KAOH AOH20160628042510806/28/16 04:25:31  5-MIN KAOH 280925Z AUTO 33004KT 10SM CLR 18/16 A3002 880 84 1500 330/04 RMK AO2 T01830156
04850KAOH AOH20160628043010806/28/16 04:30:31  5-MIN KAOH 280930Z AUTO 33004KT 10SM CLR 18/16 A3002 880 84 1500 330/04 RMK AO2 T01830156
04850KAOH AOH20160628043510806/28/16 04:35:31  5-MIN KAOH 280935Z AUTO 32004KT 10SM CLR 18/16 A3002 880 84 1500 330/04 RMK AO2 T01830156
04850KAOH AOH20160628044010806/28/16 04:40:31  5-MIN KAOH 280940Z AUTO 32005KT 10SM CLR 18/16 A3003 880 90 1400 320/05 RMK AO2 T01780161
04850KAOH AOH20160628044510806/28/16 04:45:31  5-MIN KAOH 280945Z AUTO 31004KT 10SM CLR 17/16 A3003 880 93 1400 320/04 RMK AO2 T01720161
04850KAOH AOH20160628045011506/28/16 04:50:31  5-MIN KAOH 280950Z AUTO 32005KT 10SM CLR 17/16 A3003 880 90 1400 320/05 RMK AO2 SLP162 T01720156
04850KAOH AOH20160628045510806/28/16 04:55:31  5-MIN KAOH 280955Z AUTO 30003KT 10SM CLR 17/16 A3003 880 90 1400 310/03 RMK AO2 T01720156
04850KAOH AOH20160628050010806/28/16 05:00:31  5-MIN KAOH 281000Z AUTO 30003KT 10SM CLR 17/16 A3003 880 90 1400 300/03 RMK AO2 T01720156
04850KAOH AOH20160628050510806/28/16 05:05:31  5-MIN KAOH 281005Z AUTO 30003KT 10SM CLR 17/16 A3003 880 90 1400 310/03 RMK AO2 T01720156
04850KAOH AOH20160628051010806/28/16 05:10:31  5-MIN KAOH 281010Z AUTO 30003KT 10SM CLR 17/16 A3003 880 90 1400 310/03 RMK AO2 T01720156
04850KAOH AOH20160628051510806/28/16 05:15:31  5-MIN KAOH 281015Z AUTO 30003KT 10SM CLR 17/16 A3003 880 90 1400 310/03 RMK AO2 T01720156
04850KAOH AOH20160628052010806/28/16 05:20:31  5-MIN KAOH 281020Z AUTO 30003KT 10SM CLR 17/16 A3003 870 90 1400 310/03 RMK AO2 T01720156
04850KAOH AOH20160628052510806/28/16 05:25:31  5-MIN KAOH 281025Z AUTO 31003KT 10SM CLR 17/16 A3004 870 90 1400 320/03 RMK AO2 T01720156
04850KAOH AOH20160628053010806/28/16 05:30:31  5-MIN KAOH 281030Z AUTO 32004KT 10SM CLR 17/16 A3004 870 90 1400 330/04 RMK AO2 T01720156
04850KAOH AOH20160628053510806/28/16 05:35:31  5-MIN KAOH 281035Z AUTO 32004KT 10SM CLR 17/16 A3004 870 93 1400 330/04 RMK AO2 T01720161
04850KAOH AOH20160628054010806/28/16 05:40:31  5-MIN KAOH 281040Z AUTO 31003KT 10SM CLR 17/16 A3004 870 93 1400 310/03 RMK AO2 T01720161
04850KAOH AOH20160628054510806/28/16 05:45:31  5-MIN KAOH 281045Z AUTO 30004KT 10SM CLR 17/16 A3004 870 93 1400 310/04 RMK AO2 T01720161
04850KAOH AOH20160628055011506/28/16 05:50:31  5-MIN KAOH 281050Z AUTO 30003KT 10SM CLR 17/16 A3004 870 93 1400 300/03 RMK AO2 SLP164 T01720161
04850KAOH AOH20160628055510806/28/16 05:55:31  5-MIN KAOH 281055Z AUTO 30004KT 10SM CLR 17/16 A3004 870 93 1400 310/04 RMK AO2 T01720161
04850KAOH AOH20160628060010806/28/16 06:00:31  5-MIN KAOH 281100Z AUTO 31004KT 10SM CLR 17/17 A3004 870 96 1400 310/04 RMK AO2 T01720167
04850KAOH AOH20160628060510806/28/16 06:05:31  5-MIN KAOH 281105Z AUTO 32004KT 10SM CLR 18/17 A3004 870 93 1400 320/04 RMK AO2 T01780167
04850KAOH AOH20160628061010806/28/16 06:10:31  5-MIN KAOH 281110Z AUTO 32006KT 10SM CLR 18/16 A3004 860 90 1400 330/06 RMK AO2 T01780161
04850KAOH AOH20160628061510806/28/16 06:15:31  5-MIN KAOH 281115Z AUTO 32005KT 10SM CLR 18/16 A3004 860 87 1500 320/05 RMK AO2 T01830161
04850KAOH AOH20160628062010806/28/16 06:20:31  5-MIN KAOH 281120Z AUTO 31006KT 10SM CLR 18/16 A3004 860 87 1500 320/06 RMK AO2 T01830161
04850KAOH AOH20160628062510806/28/16 06:25:31  5-MIN KAOH 281125Z AUTO 32006KT 10SM CLR 18/16 A3005 860 87 1500 330/06 RMK AO2 T01830161
04850KAOH AOH20160628063010806/28/16 06:30:31  5-MIN KAOH 281130Z AUTO 32006KT 10SM CLR 18/16 A3005 860 87 1500 330/06 RMK AO2 T01830161
04850KAOH AOH20160628063510806/28/16 06:35:31  5-MIN KAOH 281135Z AUTO 32008KT 10SM CLR 19/16 A3005 860 84 1600 330/08 RMK AO2 T01890161
04850KAOH AOH20160628064010806/28/16 06:40:31  5-MIN KAOH 281140Z AUTO 32006KT 10SM CLR 19/16 A3005 860 84 1600 330/06 RMK AO2 T01890161
04850KAOH AOH20160628064510806/28/16 06:45:31  5-MIN KAOH 281145Z AUTO 32008KT 10SM CLR 19/16 A3005 860 84 1600 320/08 RMK AO2 T01890161
04850KAOH AOH20160628065013906/28/16 06:50:31  5-MIN KAOH 281150Z AUTO 32007KT 10SM CLR 19/16 A3005 860 84 1500 330/07 RMK AO2 SLP169 70003 T01890161 10206 20172 53002
04850KAOH AOH20160628065510806/28/16 06:55:31  5-MIN KAOH 281155Z AUTO 33009KT 10SM CLR 19/16 A3005 850 84 1500 330/09 RMK AO2 T01890161
04850KAOH AOH20160628070010806/28/16 07:00:31  5-MIN KAOH 281200Z AUTO 32009KT 10SM CLR 19/16 A3006 850 84 1500 330/09 RMK AO2 T01890161
04850KAOH AOH20160628070510806/28/16 07:05:31  5-MIN KAOH 281205Z AUTO 33007KT 10SM CLR 19/16 A3006 850 81 1500 330/07 RMK AO2 T01890156
04850KAOH AOH20160628071010806/28/16 07:10:31  5-MIN KAOH 281210Z AUTO 34010KT 10SM CLR 19/16 A3006 850 81 1500 350/10 RMK AO2 T01890156
04850KAOH AOH20160628071510806/28/16 07:15:31  5-MIN KAOH 281215Z AUTO 33008KT 10SM CLR 19/16 A3006 850 81 1600 340/08 RMK AO2 T01940161
04850KAOH AOH20160628072010806/28/16 07:20:31  5-MIN KAOH 281220Z AUTO 33009KT 10SM CLR 19/16 A3006 850 78 1600 340/09 RMK AO2 T01940156
04850KAOH AOH20160628072510806/28/16 07:25:31  5-MIN KAOH 281225Z AUTO 33009KT 10SM CLR 19/16 A3006 850 78 1600 330/09 RMK AO2 T01940156
04850KAOH AOH20160628073010806/28/16 07:30:31  5-MIN KAOH 281230Z AUTO 35007KT 10SM CLR 19/16 A3006 850 78 1600 360/07 RMK AO2 T01940156
04850KAOH AOH20160628073510806/28/16 07:35:31  5-MIN KAOH 281235Z AUTO 33006KT 10SM CLR 19/16 A3006 850 81 1600 340/06 RMK AO2 T01940161
04850KAOH AOH20160628074010806/28/16 07:40:31  5-MIN KAOH 281240Z AUTO 33009KT 10SM CLR 19/16 A3006 850 81 1600 340/09 RMK AO2 T01940161
04850KAOH AOH20160628074510806/28/16 07:45:31  5-MIN KAOH 281245Z AUTO 33007KT 10SM CLR 20/16 A3006 850 78 1700 340/07 RMK AO2 T02000161
04850KAOH AOH20160628075011506/28/16 07:50:31  5-MIN KAOH 281250Z AUTO 33008KT 10SM CLR 19/16 A3006 850 78 1600 330/08 RMK AO2 SLP173 T01940156
04850KAOH AOH20160628075510806/28/16 07:55:31  5-MIN KAOH 281255Z AUTO 33006KT 10SM CLR 20/16 A3006 850 75 1700 340/06 RMK AO2 T02000156
04850KAOH AOH20160628080010806/28/16 08:00:31  5-MIN KAOH 281300Z AUTO 31006KT 10SM CLR 20/16 A3006 850 78 1700 320/06 RMK AO2 T02000161
04850KAOH AOH20160628080510806/28/16 08:05:31  5-MIN KAOH 281305Z AUTO 33007KT 10SM CLR 20/16 A3007 840 78 1700 330/07 RMK AO2 T02000161
04850KAOH AOH20160628081010806/28/16 08:10:31  5-MIN KAOH 281310Z AUTO 35007KT 10SM CLR 20/16 A3007 840 78 1700 350/07 RMK AO2 T02000161
04850KAOH AOH20160628081510806/28/16 08:15:31  5-MIN KAOH 281315Z AUTO 34006KT 10SM CLR 21/16 A3007 840 75 1700 350/06 RMK AO2 T02060161
04850KAOH AOH20160628082010806/28/16 08:20:31  5-MIN KAOH 281320Z AUTO 30006KT 10SM CLR 21/16 A3007 840 75 1700 310/06 RMK AO2 T02060161
04850KAOH AOH20160628082510806/28/16 08:25:31  5-MIN KAOH 281325Z AUTO 34005KT 10SM CLR 21/16 A3007 840 75 1700 340/05 RMK AO2 T02060161
04850KAOH AOH20160628083010806/28/16 08:30:31  5-MIN KAOH 281330Z AUTO 33006KT 10SM CLR 21/16 A3007 840 75 1700 330/06 RMK AO2 T02060161
04850KAOH AOH20160628083510806/28/16 08:35:31  5-MIN KAOH 281335Z AUTO 34004KT 10SM CLR 21/16 A3006 840 75 1700 350/04 RMK AO2 T02060161
04850KAOH AOH20160628084010806/28/16 08:40:31  5-MIN KAOH 281340Z AUTO VRB05KT 10SM CLR 21/16 A3006 840 75 1700 VRB/05 RMK AO2 T02060161
04850KAOH AOH20160628084510806/28/16 08:45:31  5-MIN KAOH 281345Z AUTO 34005KT 10SM CLR 21/16 A3006 850 75 1700 340/05 RMK AO2 T02060161
04850KAOH AOH20160628085011506/28/16 08:50:31  5-MIN KAOH 281350Z AUTO 31004KT 10SM CLR 21/16 A3006 850 75 1700 320/04 RMK AO2 SLP173 T02060161
04850KAOH AOH20160628085510806/28/16 08:55:31  5-MIN KAOH 281355Z AUTO 30004KT 10SM CLR 21/17 A3006 850 75 1800 300/04 RMK AO2 T02110167
04850KAOH AOH20160628090010806/28/16 09:00:31  5-MIN KAOH 281400Z AUTO 29007KT 10SM CLR 21/17 A3006 850 75 1800 300/07 RMK AO2 T02110167
04850KAOH AOH20160628090510806/28/16 09:05:31  5-MIN KAOH 281405Z AUTO 30008KT 10SM CLR 21/17 A3006 850 75 1800 310/08 RMK AO2 T02110167
04850KAOH AOH20160628091010806/28/16 09:10:31  5-MIN KAOH 281410Z AUTO 31007KT 10SM CLR 21/16 A3006 850 73 1800 320/07 RMK AO2 T02110161
04850KAOH AOH20160628091510806/28/16 09:15:31  5-MIN KAOH 281415Z AUTO 33008KT 10SM CLR 21/16 A3006 850 73 1800 330/08 RMK AO2 T02110161
04850KAOH AOH20160628092010806/28/16 09:20:31  5-MIN KAOH 281420Z AUTO 32006KT 10SM CLR 21/16 A3006 850 73 1800 320/06 RMK AO2 T02110161
04850KAOH AOH20160628092511106/28/16 09:25:31  5-MIN KAOH 281425Z AUTO 33009KT 10SM FEW027 22/16 A3006 850 70 1900 340/09 RMK AO2 T02170161
04850KAOH AOH20160628093011106/28/16 09:30:31  5-MIN KAOH 281430Z AUTO 30006KT 10SM FEW027 22/17 A3006 850 73 1900 310/06 RMK AO2 T02170167
04850KAOH AOH20160628093511806/28/16 09:35:31  5-MIN KAOH 281435Z AUTO 29006KT 10SM FEW028 SCT035 22/17 A3006 850 73 1900 300/06 RMK AO2 T02170167
04850KAOH AOH20160628094011806/28/16 09:40:31  5-MIN KAOH 281440Z AUTO 30007KT 10SM SCT028 BKN035 22/17 A3006 850 73 1900 300/07 RMK AO2 T02170167
04850KAOH AOH20160628094511806/28/16 09:45:31  5-MIN KAOH 281445Z AUTO 29007KT 10SM BKN028 BKN035 21/16 A3006 850 73 1800 290/07 RMK AO2 T02110161
04850KAOH AOH20160628095013106/28/16 09:50:31  5-MIN KAOH 281450Z AUTO 29008KT 10SM SCT028 BKN035 22/16 A3006 850 70 1900 300/08 RMK AO2 SLP174 T02170161 53009
04850KAOH AOH20160628095511806/28/16 09:55:31  5-MIN KAOH 281455Z AUTO 30007KT 10SM SCT028 BKN035 22/16 A3006 850 70 1900 310/07 RMK AO2 T02170161
04850KAOH AOH20160628100011806/28/16 10:00:31  5-MIN KAOH 281500Z AUTO 30007KT 10SM SCT028 BKN035 22/16 A3006 850 70 1900 310/07 RMK AO2 T02170161
04850KAOH AOH20160628100511806/28/16 10:05:31  5-MIN KAOH 281505Z AUTO 31009KT 10SM SCT028 SCT035 22/16 A3006 850 70 1900 320/09 RMK AO2 T02170161
04850KAOH AOH20160628101011806/28/16 10:10:31  5-MIN KAOH 281510Z AUTO 31008KT 10SM SCT030 SCT050 22/16 A3006 850 68 1900 320/08 RMK AO2 T02220161
04850KAOH AOH20160628101511806/28/16 10:15:31  5-MIN KAOH 281515Z AUTO 33008KT 10SM FEW030 SCT050 22/16 A3006 850 68 1900 330/08 RMK AO2 T02220161
04850KAOH AOH20160628102012506/28/16 10:20:31  5-MIN KAOH 281520Z AUTO 32011KT 10SM FEW030 SCT039 BKN050 22/16 A3006 840 68 1900 330/11 RMK AO2 T02220161
04850KAOH AOH20160628102512506/28/16 10:25:31  5-MIN KAOH 281525Z AUTO 32010KT 10SM FEW032 FEW039 BKN050 22/16 A3006 850 65 1900 330/10 RMK AO2 T02220156
04850KAOH AOH20160628103011806/28/16 10:30:31  5-MIN KAOH 281530Z AUTO 33009KT 10SM FEW034 SCT050 23/16 A3006 850 65 2000 330/09 RMK AO2 T02280161
04850KAOH AOH20160628103511106/28/16 10:35:31  5-MIN KAOH 281535Z AUTO 32009KT 10SM FEW050 23/16 A3006 840 65 2000 330/09 RMK AO2 T02280161
04850KAOH AOH20160628104011806/28/16 10:40:31  5-MIN KAOH 281540Z AUTO 35010KT 10SM FEW048 SCT055 23/16 A3006 840 65 2000 360/10 RMK AO2 T02280161
04850KAOH AOH20160628104512506/28/16 10:45:31  5-MIN KAOH 281545Z AUTO 34008KT 10SM FEW035 FEW048 BKN055 22/16 A3007 840 65 1900 350/08 RMK AO2 T02220156
04850KAOH AOH20160628105012506/28/16 10:50:31  5-MIN KAOH 281550Z AUTO 33010KT 10SM SCT035 BKN055 22/16 A3007 840 65 1900 340/10 RMK AO2 SLP174 T02220156
04850KAOH AOH20160628105511806/28/16 10:55:31  5-MIN KAOH 281555Z AUTO 32008KT 10SM SCT035 BKN055 22/16 A3007 840 68 1900 320/08 RMK AO2 T02170156
04850KAOH AOH20160628110011806/28/16 11:00:31  5-MIN KAOH 281600Z AUTO 30008KT 10SM SCT037 BKN055 22/16 A3006 840 65 1900 310/08 RMK AO2 T02220156
04850KAOH AOH20160628110511806/28/16 11:05:31  5-MIN KAOH 281605Z AUTO 35009KT 10SM SCT037 BKN055 23/16 A3006 850 65 2000 360/09 RMK AO2 T02280161
04850KAOH AOH20160628111012406/28/16 11:10:31  5-MIN KAOH 281610Z AUTO 33008G16KT 10SM SCT036 BKN055 23/16 A3006 850 65 2000 340/08G16 RMK AO2 T02280161
04850KAOH AOH20160628111511806/28/16 11:15:31  5-MIN KAOH 281615Z AUTO 34009KT 10SM FEW036 BKN055 22/16 A3006 850 65 1900 350/09 RMK AO2 T02220156
04850KAOH AOH20160628112011806/28/16 11:20:31  5-MIN KAOH 281620Z AUTO 33006KT 10SM FEW036 BKN055 22/16 A3006 850 65 1900 340/06 RMK AO2 T02220156
04850KAOH AOH20160628112511806/28/16 11:25:31  5-MIN KAOH 281625Z AUTO 35008KT 10SM FEW036 SCT055 23/16 A3006 850 63 2000 350/08 RMK AO2 T02280156
04850KAOH AOH20160628113012506/28/16 11:30:31  5-MIN KAOH 281630Z AUTO 32008KT 10SM FEW036 FEW050 SCT060 23/15 A3006 850 61 2000 320/08 RMK AO2 T02280150
04850KAOH AOH20160628113512506/28/16 11:35:31  5-MIN KAOH 281635Z AUTO 33009KT 10SM FEW039 SCT050 BKN060 22/16 A3006 850 65 1900 330/09 RMK AO2 T02220156
04850KAOH AOH20160628114012506/28/16 11:40:31  5-MIN KAOH 281640Z AUTO 33010KT 10SM FEW039 FEW050 BKN060 23/15 A3006 850 61 2000 340/10 RMK AO2 T02280150
04850KAOH AOH20160628114511806/28/16 11:45:31  5-MIN KAOH 281645Z AUTO 32010KT 10SM FEW050 SCT060 23/15 A3006 850 59 2000 320/10 RMK AO2 T02330150
04850KAOH AOH20160628115012506/28/16 11:50:31  5-MIN KAOH 281650Z AUTO 31006KT 10SM FEW045 BKN060 23/15 A3006 850 61 2000 310/06 RMK AO2 SLP174 T02280150
04850KAOH AOH20160628115512506/28/16 11:55:31  5-MIN KAOH 281655Z AUTO 34008KT 10SM FEW040 SCT049 BKN060 23/16 A3006 850 63 2000 340/08 RMK AO2 T02280156
04850KAOH AOH20160628120011806/28/16 12:00:31  5-MIN KAOH 281700Z AUTO 32010KT 10SM SCT038 BKN060 22/15 A3006 850 63 1900 330/10 RMK AO2 T02220150
04850KAOH AOH20160628120511806/28/16 12:05:31  5-MIN KAOH 281705Z AUTO 32009KT 10SM FEW038 BKN060 23/16 A3006 850 63 2000 330/09 RMK AO2 T02280156
04850KAOH AOH20160628121011806/28/16 12:10:31  5-MIN KAOH 281710Z AUTO 30007KT 10SM FEW038 SCT060 23/16 A3006 850 63 2000 310/07 RMK AO2 T02280156
04850KAOH AOH20160628121511806/28/16 12:15:31  5-MIN KAOH 281715Z AUTO 33007KT 10SM FEW038 BKN065 23/16 A3006 850 63 2100 330/07 RMK AO2 T02330161
04850KAOH AOH20160628122012506/28/16 12:20:31  5-MIN KAOH 281720Z AUTO 31008KT 10SM SCT038 SCT050 BKN060 23/15 A3006 850 61 2000 320/08 RMK AO2 T02280150
04850KAOH AOH20160628122512506/28/16 12:25:31  5-MIN KAOH 281725Z AUTO 30010KT 10SM SCT038 BKN050 BKN060 22/15 A3006 850 63 1900 310/10 RMK AO2 T02220150
04850KAOH AOH20160628123012506/28/16 12:30:31  5-MIN KAOH 281730Z AUTO 32013KT 10SM BKN040 BKN049 BKN060 22/15 A3006 850 63 1900 320/13 RMK AO2 T02220150
04850KAOH AOH20160628123512506/28/16 12:35:31  5-MIN KAOH 281735Z AUTO 30013KT 10SM SCT040 BKN047 BKN060 23/16 A3006 850 63 2000 300/13 RMK AO2 T02280156
04850KAOH AOH20160628124012506/28/16 12:40:31  5-MIN KAOH 281740Z AUTO 32009KT 10SM SCT038 SCT048 BKN060 23/16 A3005 850 61 2100 330/09 RMK AO2 T02330156
04850KAOH AOH20160628124512506/28/16 12:45:31  5-MIN KAOH 281745Z AUTO 33009KT 10SM SCT038 SCT048 SCT065 23/16 A3006 850 63 2000 330/09 RMK AO2 T02280156
04850KAOH AOH20160628125015006/28/16 12:50:31  5-MIN KAOH 281750Z AUTO 31010KT 10SM FEW038 SCT047 SCT065 23/16 A3006 850 61 2100 320/10 RMK AO2 SLP172 T02330156 10233 20189 50003
04850KAOH AOH20160628125512506/28/16 12:55:31  5-MIN KAOH 281755Z AUTO 30010KT 10SM FEW040 FEW050 SCT065 23/15 A3005 850 59 2100 310/10 RMK AO2 T02330150
04850KAOH AOH20160628130011806/28/16 13:00:31  5-MIN KAOH 281800Z AUTO 33010KT 10SM FEW045 SCT060 23/15 A3005 860 59 2100 330/10 RMK AO2 T02330150
04850KAOH AOH20160628130512406/28/16 13:05:31  5-MIN KAOH 281805Z AUTO 32012G16KT 10SM SCT045 BKN060 23/14 A3005 860 57 2100 330/12G16 RMK AO2 T02330144
04850KAOH AOH20160628131012406/28/16 13:10:31  5-MIN KAOH 281810Z AUTO 31009G16KT 10SM SCT045 BKN060 23/14 A3005 860 59 2000 320/09G16 RMK AO2 T02280144
04850KAOH AOH20160628131512406/28/16 13:15:31  5-MIN KAOH 281815Z AUTO 31013G17KT 10SM SCT045 BKN060 24/16 A3005 860 59 2100 320/13G17 RMK AO2 T02390156
04850KAOH AOH20160628132011806/28/16 13:20:31  5-MIN KAOH 281820Z AUTO 31015KT 10SM BKN048 BKN060 23/14 A3005 860 59 2000 310/15 RMK AO2 T02280144
04850KAOH AOH20160628132512406/28/16 13:25:31  5-MIN KAOH 281825Z AUTO 32010G20KT 10SM BKN048 BKN060 23/15 A3005 860 59 2100 330/10G20 RMK AO2 T02330150
04850KAOH AOH20160628133012406/28/16 13:30:31  5-MIN KAOH 281830Z AUTO 31009G16KT 10SM SCT044 BKN060 23/15 A3005 860 59 2100 320/09G16 RMK AO2 T02330150
04850KAOH AOH20160628133512506/28/16 13:35:31  5-MIN KAOH 281835Z AUTO 31014KT 10SM SCT040 BKN049 BKN060 23/15 A3005 860 61 2000 320/14 RMK AO2 T02280150
04850KAOH AOH20160628134011806/28/16 13:40:31  5-MIN KAOH 281840Z AUTO 29015KT 10SM SCT042 BKN055 23/15 A3005 860 59 2100 290/15 RMK AO2 T02330150
04850KAOH AOH20160628134512506/28/16 13:45:31  5-MIN KAOH 281845Z AUTO 29010KT 10SM FEW040 SCT049 BKN060 23/15 A3005 860 59 2100 300/10 RMK AO2 T02330150
04850KAOH AOH20160628135013106/28/16 13:50:31  5-MIN KAOH 281850Z AUTO 32014G21KT 10SM SCT042 BKN060 23/15 A3005 860 61 2000 330/14G21 RMK AO2 SLP170 T02280150
04850KAOH AOH20160628135512406/28/16 13:55:31  5-MIN KAOH 281855Z AUTO 32012G21KT 10SM SCT042 BKN055 23/15 A3005 860 59 2100 330/12G21 RMK AO2 T02330150
04850KAOH AOH20160628140012506/28/16 14:00:31  5-MIN KAOH 281900Z AUTO 31013KT 10SM FEW040 SCT050 SCT060 23/15 A3005 860 59 2100 320/13 RMK AO2 T02330150
04850KAOH AOH20160628140513106/28/16 14:05:31  5-MIN KAOH 281905Z AUTO 31017G22KT 10SM FEW042 SCT050 SCT060 23/14 A3005 860 59 2000 310/17G22 RMK AO2 T02280144
04850KAOH AOH20160628141012406/28/16 14:10:31  5-MIN KAOH 281910Z AUTO 31012G22KT 10SM FEW045 BKN055 22/14 A3005 860 61 1900 320/12G22 RMK AO2 T02220144
04850KAOH AOH20160628141511806/28/16 14:15:31  5-MIN KAOH 281915Z AUTO 31016KT 10SM SCT045 BKN055 22/14 A3005 860 61 1900 310/16 RMK AO2 T02220144
04850KAOH AOH20160628142011806/28/16 14:20:31  5-MIN KAOH 281920Z AUTO 31014KT 10SM SCT045 BKN060 23/15 A3005 860 61 2000 320/14 RMK AO2 T02280150
04850KAOH AOH20160628142511806/28/16 14:25:31  5-MIN KAOH 281925Z AUTO 31012KT 10SM SCT045 SCT060 23/15 A3005 860 59 2100 310/12 RMK AO2 T02330150
04850KAOH AOH20160628143012406/28/16 14:30:31  5-MIN KAOH 281930Z AUTO 31015G21KT 10SM SCT045 SCT060 23/14 A3005 860 59 2000 320/15G21 RMK AO2 T02280144
04850KAOH AOH20160628143512406/28/16 14:35:31  5-MIN KAOH 281935Z AUTO 33015G21KT 10SM FEW045 SCT055 23/14 A3005 860 57 2100 330/15G21 RMK AO2 T02330144
04850KAOH AOH20160628144011106/28/16 14:40:31  5-MIN KAOH 281940Z AUTO 31016KT 10SM FEW043 23/14 A3005 860 59 2000 320/16 RMK AO2 T02280144
04850KAOH AOH20160628144511706/28/16 14:45:31  5-MIN KAOH 281945Z AUTO 33013G20KT 10SM FEW043 23/14 A3005 860 57 2100 330/13G20 RMK AO2 T02330144
04850KAOH AOH20160628145012406/28/16 14:50:31  5-MIN KAOH 281950Z AUTO 30015G20KT 10SM FEW042 23/14 A3005 860 57 2100 310/15G20 RMK AO2 SLP169 T02330144
04850KAOH AOH20160628145511706/28/16 14:55:31  5-MIN KAOH 281955Z AUTO 31015G19KT 10SM FEW042 23/14 A3005 860 57 2000 320/15G19 RMK AO2 T02280139
04850KAOH AOH20160628150011706/28/16 15:00:31  5-MIN KAOH 282000Z AUTO 31014G19KT 10SM FEW042 23/14 A3005 860 57 2000 310/14G19 RMK AO2 T02280139
04850KAOH AOH20160628150511106/28/16 15:05:31  5-MIN KAOH 282005Z AUTO 30014KT 10SM SCT042 23/14 A3005 850 59 2000 310/14 RMK AO2 T02280144
04850KAOH AOH20160628151011106/28/16 15:10:31  5-MIN KAOH 282010Z AUTO 31013KT 10SM FEW042 23/14 A3005 850 57 2000 320/13 RMK AO2 T02280139
04850KAOH AOH20160628151511706/28/16 15:15:31  5-MIN KAOH 282015Z AUTO 33013G20KT 10SM FEW042 23/14 A3005 850 57 2000 330/13G20 RMK AO2 T02280139
04850KAOH AOH20160628152011706/28/16 15:20:31  5-MIN KAOH 282020Z AUTO 31011G20KT 10SM FEW042 23/13 A3006 850 55 2000 320/11G20 RMK AO2 T02280133
04850KAOH AOH20160628152511106/28/16 15:25:31  5-MIN KAOH 282025Z AUTO 32015KT 10SM FEW042 23/14 A3006 850 57 2000 330/15 RMK AO2 T02280139
04850KAOH AOH20160628153011706/28/16 15:30:31  5-MIN KAOH 282030Z AUTO 32014G21KT 10SM FEW042 22/13 A3006 850 56 1900 330/14G21 RMK AO2 T02220133
04850KAOH AOH20160628153511406/28/16 15:35:31  5-MIN KAOH 282035Z AUTO 32014G21KT 10SM CLR 22/14 A3006 850 59 1900 330/14G21 RMK AO2 T02220139
04850KAOH AOH20160628154011106/28/16 15:40:31  5-MIN KAOH 282040Z AUTO 34013KT 10SM FEW043 22/13 A3006 850 56 1900 350/13 RMK AO2 T02220133
04850KAOH AOH20160628154511706/28/16 15:45:31  5-MIN KAOH 282045Z AUTO 32010G18KT 10SM FEW043 22/13 A3006 850 56 1900 330/10G18 RMK AO2 T02220133
04850KAOH AOH20160628155012706/28/16 15:50:31  5-MIN KAOH 282050Z AUTO 30015G19KT 10SM CLR 23/14 A3006 850 57 2000 310/15G19 RMK AO2 SLP174 T02280139 58002
04850KAOH AOH20160628155511406/28/16 15:55:31  5-MIN KAOH 282055Z AUTO 30014G19KT 10SM CLR 22/13 A3006 850 56 1900 310/14G19 RMK AO2 T02220133
04850KAOH AOH20160628160010806/28/16 16:00:31  5-MIN KAOH 282100Z AUTO 31015KT 10SM CLR 22/13 A3006 850 56 1900 310/15 RMK AO2 T02220133
04850KAOH AOH20160628160511406/28/16 16:05:31  5-MIN KAOH 282105Z AUTO 32012G19KT 10SM CLR 22/14 A3006 850 59 1900 330/12G19 RMK AO2 T02220139
04850KAOH AOH20160628161011406/28/16 16:10:31  5-MIN KAOH 282110Z AUTO 32016G22KT 10SM CLR 22/14 A3006 850 59 1900 330/16G22 RMK AO2 T02220139
04850KAOH AOH20160628161511406/28/16 16:15:31  5-MIN KAOH 282115Z AUTO 32013G22KT 10SM CLR 22/13 A3006 850 58 1900 320/13G22 RMK AO2 T02170133
04850KAOH AOH20160628162010806/28/16 16:20:31  5-MIN KAOH 282120Z AUTO 32013KT 10SM CLR 22/13 A3006 850 58 1900 320/13 RMK AO2 T02170133
04850KAOH AOH20160628162511406/28/16 16:25:31  5-MIN KAOH 282125Z AUTO 33012G19KT 10SM CLR 22/14 A3006 850 59 1900 330/12G19 RMK AO2 T02220139
04850KAOH AOH20160628163011406/28/16 16:30:31  5-MIN KAOH 282130Z AUTO 32014G20KT 10SM CLR 22/13 A3006 850 58 1900 330/14G20 RMK AO2 T02170133
04850KAOH AOH20160628163511406/28/16 16:35:31  5-MIN KAOH 282135Z AUTO 33012G20KT 10SM CLR 21/13 A3006 850 61 1800 340/12G20 RMK AO2 T02110133
04850KAOH AOH20160628164010806/28/16 16:40:31  5-MIN KAOH 282140Z AUTO 32014KT 10SM CLR 22/13 A3006 840 58 1900 330/14 RMK AO2 T02170133
04850KAOH AOH20160628164511106/28/16 16:45:31  5-MIN KAOH 282145Z AUTO 31013KT 10SM FEW044 22/13 A3007 840 58 1900 320/13 RMK AO2 T02170133
04850KAOH AOH20160628165011806/28/16 16:50:31  5-MIN KAOH 282150Z AUTO 31013KT 10SM SCT040 22/13 A3006 840 58 1900 320/13 RMK AO2 SLP177 T02170133
04850KAOH AOH20160628165511106/28/16 16:55:31  5-MIN KAOH 282155Z AUTO 33012KT 10SM SCT042 22/13 A3007 840 58 1900 330/12 RMK AO2 T02170133
04850KAOH AOH20160628170011106/28/16 17:00:31  5-MIN KAOH 282200Z AUTO 32014KT 10SM BKN042 21/14 A3007 840 63 1800 330/14 RMK AO2 T02110139
04850KAOH AOH20160628170511106/28/16 17:05:31  5-MIN KAOH 282205Z AUTO 32013KT 10SM BKN042 21/13 A3007 840 63 1700 330/13 RMK AO2 T02060133
04850KAOH AOH20160628171011106/28/16 17:10:31  5-MIN KAOH 282210Z AUTO 33010KT 10SM BKN042 21/13 A3007 840 61 1800 330/10 RMK AO2 T02110133
04850KAOH AOH20160628171511706/28/16 17:15:31  5-MIN KAOH 282215Z AUTO 31014G21KT 10SM SCT042 21/13 A3006 840 60 1700 320/14G21 RMK AO2 T02060128
04850KAOH AOH20160628172011706/28/16 17:20:31  5-MIN KAOH 282220Z AUTO 32015G21KT 10SM SCT042 21/13 A3007 840 60 1700 330/15G21 RMK AO2 T02060128
04850KAOH AOH20160628172511106/28/16 17:25:31  5-MIN KAOH 282225Z AUTO 32015KT 10SM FEW042 21/13 A3007 840 60 1700 320/15 RMK AO2 T02060128
04850KAOH AOH20160628173011106/28/16 17:30:31  5-MIN KAOH 282230Z AUTO 32014KT 10SM FEW042 20/13 A3006 840 63 1700 330/14 RMK AO2 T02000128
04850KAOH AOH20160628173511406/28/16 17:35:31  5-MIN KAOH 282235Z AUTO 33013G20KT 10SM CLR 21/13 A3006 850 63 1700 330/13G20 RMK AO2 T02060133
04850KAOH AOH20160628174011406/28/16 17:40:31  5-MIN KAOH 282240Z AUTO 33013G20KT 10SM CLR 20/13 A3006 840 63 1700 340/13G20 RMK AO2 T02000128
04850KAOH AOH20160628174511406/28/16 17:45:31  5-MIN KAOH 282245Z AUTO 32013G19KT 10SM CLR 20/13 A3006 840 63 1700 330/13G19 RMK AO2 T02000128
04850KAOH AOH20160628175011506/28/16 17:50:31  5-MIN KAOH 282250Z AUTO 33014KT 10SM CLR 20/12 A3007 840 60 1700 330/14 RMK AO2 SLP177 T02000122
04850KAOH AOH20160628175510806/28/16 17:55:31  5-MIN KAOH 282255Z AUTO 33013KT 10SM CLR 19/13 A3007 840 65 1600 340/13 RMK AO2 T01940128
04850KAOH AOH20160628180010806/28/16 18:00:31  5-MIN KAOH 282300Z AUTO 32013KT 10SM CLR 19/12 A3007 840 62 1600 320/13 RMK AO2 T01940122
04850KAOH AOH20160628180510806/28/16 18:05:31  5-MIN KAOH 282305Z AUTO 33012KT 10SM CLR 19/12 A3006 840 62 1600 340/12 RMK AO2 T01940122
04850KAOH AOH20160628181010806/28/16 18:10:31  5-MIN KAOH 282310Z AUTO 32010KT 10SM CLR 19/13 A3007 840 65 1600 330/10 RMK AO2 T01940128
04850KAOH AOH20160628181511106/28/16 18:15:31  5-MIN KAOH 282315Z AUTO 33012KT 10SM FEW033 19/13 A3007 840 65 1600 330/12 RMK AO2 T01940128
04850KAOH AOH20160628182010806/28/16 18:20:31  5-MIN KAOH 282320Z AUTO 33014KT 10SM CLR 19/12 A3007 840 62 1600 330/14 RMK AO2 T01940122
04850KAOH AOH20160628182510806/28/16 18:25:31  5-MIN KAOH 282325Z AUTO 32014KT 10SM CLR 19/12 A3007 840 62 1600 320/14 RMK AO2 T01940122
04850KAOH AOH20160628183010806/28/16 18:30:31  5-MIN KAOH 282330Z AUTO 31015KT 10SM CLR 19/12 A3007 840 65 1500 310/15 RMK AO2 T01890122
04850KAOH AOH20160628183510806/28/16 18:35:31  5-MIN KAOH 282335Z AUTO 32014KT 10SM CLR 19/12 A3007 840 65 1500 330/14 RMK AO2 T01890122
04850KAOH AOH20160628184010806/28/16 18:40:31  5-MIN KAOH 282340Z AUTO 33014KT 10SM CLR 19/12 A3007 840 65 1500 330/14 RMK AO2 T01890122
04850KAOH AOH20160628184510806/28/16 18:45:31  5-MIN KAOH 282345Z AUTO 32012KT 10SM CLR 19/12 A3007 840 65 1500 330/12 RMK AO2 T01890122
04850KAOH AOH20160628185013306/28/16 18:50:31  5-MIN KAOH 282350Z AUTO 31013KT 10SM CLR 19/12 A3007 840 65 1500 320/13 RMK AO2 SLP179 T01890122 10239 20189 53003
04850KAOH AOH20160628185510806/28/16 18:55:31  5-MIN KAOH 282355Z AUTO 31012KT 10SM CLR 18/12 A3007 840 67 1500 320/12 RMK AO2 T01830122
04850KAOH AOH20160628190010806/28/16 19:00:31  5-MIN KAOH 290000Z AUTO 32010KT 10SM CLR 18/12 A3007 840 67 1500 330/10 RMK AO2 T01830122
04850KAOH AOH20160628190511106/28/16 19:05:31  5-MIN KAOH 290005Z AUTO 33009KT 10SM FEW031 18/12 A3007 840 67 1500 340/09 RMK AO2 T01830122
04850KAOH AOH20160628191011106/28/16 19:10:31  5-MIN KAOH 290010Z AUTO 33007KT 10SM FEW031 18/12 A3007 840 67 1500 340/07 RMK AO2 T01830122
04850KAOH AOH20160628191511106/28/16 19:15:31  5-MIN KAOH 290015Z AUTO 33008KT 10SM FEW031 18/12 A3007 840 67 1500 340/08 RMK AO2 T01830122
04850KAOH AOH20160628192011106/28/16 19:20:31  5-MIN KAOH 290020Z AUTO 32010KT 10SM FEW031 18/12 A3007 840 69 1400 330/10 RMK AO2 T01780122
04850KAOH AOH20160628192511106/28/16 19:25:31  5-MIN KAOH 290025Z AUTO 32010KT 10SM FEW031 18/12 A3007 840 67 1400 330/10 RMK AO2 T01780117
04850KAOH AOH20160628193011106/28/16 19:30:31  5-MIN KAOH 290030Z AUTO 32010KT 10SM FEW031 18/12 A3007 840 67 1400 320/10 RMK AO2 T01780117
04850KAOH AOH20160628193510806/28/16 19:35:31  5-MIN KAOH 290035Z AUTO 32009KT 10SM CLR 18/12 A3007 840 67 1400 330/09 RMK AO2 T01780117
04850KAOH AOH20160628194010806/28/16 19:40:31  5-MIN KAOH 290040Z AUTO 32009KT 10SM CLR 18/12 A3007 840 69 1400 320/09 RMK AO2 T01780122
04850KAOH AOH20160628194510806/28/16 19:45:31  5-MIN KAOH 290045Z AUTO 32011KT 10SM CLR 18/12 A3007 840 67 1400 330/11 RMK AO2 T01780117
04850KAOH AOH20160628195011506/28/16 19:50:31  5-MIN KAOH 290050Z AUTO 32009KT 10SM CLR 18/12 A3007 840 67 1400 330/09 RMK AO2 SLP177 T01780117
04850KAOH AOH20160628195510806/28/16 19:55:31  5-MIN KAOH 290055Z AUTO 32009KT 10SM CLR 18/12 A3007 840 67 1400 330/09 RMK AO2 T01780117
04850KAOH AOH20160628200010806/28/16 20:00:31  5-MIN KAOH 290100Z AUTO 33008KT 10SM CLR 18/12 A3007 840 67 1400 330/08 RMK AO2 T01780117
04850KAOH AOH20160628200510806/28/16 20:05:31  5-MIN KAOH 290105Z AUTO 32007KT 10SM CLR 17/12 A3007 840 72 1300 320/07 RMK AO2 T01720122
04850KAOH AOH20160628201010806/28/16 20:10:31  5-MIN KAOH 290110Z AUTO 32009KT 10SM CLR 17/12 A3007 840 72 1300 320/09 RMK AO2 T01720122
04850KAOH AOH20160628201510806/28/16 20:15:31  5-MIN KAOH 290115Z AUTO 32008KT 10SM CLR 17/12 A3007 840 72 1300 320/08 RMK AO2 T01720122
04850KAOH AOH20160628202010806/28/16 20:20:31  5-MIN KAOH 290120Z AUTO 32008KT 10SM CLR 17/12 A3007 840 72 1300 320/08 RMK AO2 T01720122
04850KAOH AOH20160628202510806/28/16 20:25:31  5-MIN KAOH 290125Z AUTO 32007KT 10SM CLR 17/12 A3007 840 72 1300 320/07 RMK AO2 T01720122
04850KAOH AOH20160628203010806/28/16 20:30:31  5-MIN KAOH 290130Z AUTO 32007KT 10SM CLR 17/12 A3007 840 72 1300 320/07 RMK AO2 T01720122
04850KAOH AOH20160628203510806/28/16 20:35:31  5-MIN KAOH 290135Z AUTO 31008KT 10SM CLR 17/12 A3007 840 75 1300 320/08 RMK AO2 T01670122
04850KAOH AOH20160628204010806/28/16 20:40:31  5-MIN KAOH 290140Z AUTO 32007KT 10SM CLR 17/12 A3007 840 72 1300 330/07 RMK AO2 T01720122
04850KAOH AOH20160628204510806/28/16 20:45:31  5-MIN KAOH 290145Z AUTO 32007KT 10SM CLR 17/12 A3007 840 75 1300 330/07 RMK AO2 T01670122
04850KAOH AOH20160628205011506/28/16 20:50:31  5-MIN KAOH 290150Z AUTO 32010KT 10SM CLR 17/12 A3007 840 75 1300 320/10 RMK AO2 SLP178 T01670122
04850KAOH AOH20160628205510806/28/16 20:55:31  5-MIN KAOH 290155Z AUTO 32008KT 10SM CLR 17/12 A3007 840 75 1300 330/08 RMK AO2 T01670122
04850KAOH AOH20160628210010806/28/16 21:00:31  5-MIN KAOH 290200Z AUTO 32008KT 10SM CLR 17/12 A3007 840 75 1300 330/08 RMK AO2 T01670122
04850KAOH AOH20160628210510806/28/16 21:05:31  5-MIN KAOH 290205Z AUTO 33007KT 10SM CLR 17/12 A3007 840 75 1300 330/07 RMK AO2 T01670122
04850KAOH AOH20160628211010806/28/16 21:10:31  5-MIN KAOH 290210Z AUTO 33007KT 10SM CLR 17/12 A3007 840 75 1300 330/07 RMK AO2 T01670122
04850KAOH AOH20160628211510806/28/16 21:15:31  5-MIN KAOH 290215Z AUTO 33006KT 10SM CLR 17/12 A3007 840 75 1300 340/06 RMK AO2 T01670122
04850KAOH AOH20160628212011106/28/16 21:20:31  5-MIN KAOH 290220Z AUTO 33007KT 10SM FEW041 17/12 A3007 840 75 1300 330/07 RMK AO2 T01670122
04850KAOH AOH20160628212511106/28/16 21:25:31  5-MIN KAOH 290225Z AUTO 33006KT 10SM FEW041 17/12 A3007 840 75 1300 340/06 RMK AO2 T01670122
04850KAOH AOH20160628213011106/28/16 21:30:31  5-MIN KAOH 290230Z AUTO 33006KT 10SM FEW041 17/12 A3007 840 75 1300 340/06 RMK AO2 T01670122
04850KAOH AOH20160628213511106/28/16 21:35:31  5-MIN KAOH 290235Z AUTO 34007KT 10SM SCT041 17/12 A3007 840 75 1300 340/07 RMK AO2 T01670122
04850KAOH AOH20160628214011106/28/16 21:40:31  5-MIN KAOH 290240Z AUTO 33008KT 10SM BKN041 17/12 A3007 840 75 1300 340/08 RMK AO2 T01670122
04850KAOH AOH20160628214511106/28/16 21:45:31  5-MIN KAOH 290245Z AUTO 34006KT 10SM BKN041 17/12 A3007 840 75 1300 340/06 RMK AO2 T01670122
04850KAOH AOH20160628215012406/28/16 21:50:31  5-MIN KAOH 290250Z AUTO 34008KT 10SM BKN041 17/12 A3007 840 75 1300 350/08 RMK AO2 SLP180 T01670122 52003
04850KAOH AOH20160628215511106/28/16 21:55:31  5-MIN KAOH 290255Z AUTO 34007KT 10SM OVC041 17/12 A3007 840 75 1300 340/07 RMK AO2 T01670122
04850KAOH AOH20160628220011106/28/16 22:00:31  5-MIN KAOH 290300Z AUTO 34008KT 10SM OVC039 17/12 A3007 840 72 1300 350/08 RMK AO2 T01720122
04850KAOH AOH20160628220511106/28/16 22:05:31  5-MIN KAOH 290305Z AUTO 34007KT 10SM OVC039 17/12 A3007 840 72 1300 350/07 RMK AO2 T01720122
04850KAOH AOH20160628221011106/28/16 22:10:31  5-MIN KAOH 290310Z AUTO 34007KT 10SM OVC037 17/12 A3007 840 75 1300 350/07 RMK AO2 T01670122
04850KAOH AOH20160628221511806/28/16 22:15:31  5-MIN KAOH 290315Z AUTO 34007KT 10SM BKN037 OVC044 17/12 A3007 840 75 1300 350/07 RMK AO2 T01670122
04850KAOH AOH20160628222011806/28/16 22:20:31  5-MIN KAOH 290320Z AUTO 34007KT 10SM SCT035 OVC045 17/12 A3007 840 75 1300 350/07 RMK AO2 T01670122
04850KAOH AOH20160628222511806/28/16 22:25:31  5-MIN KAOH 290325Z AUTO 35006KT 10SM FEW033 OVC045 17/12 A3007 840 75 1300 350/06 RMK AO2 T01670122
04850KAOH AOH20160628223011806/28/16 22:30:31  5-MIN KAOH 290330Z AUTO 34006KT 10SM FEW036 OVC045 17/12 A3007 840 75 1300 350/06 RMK AO2 T01670122
04850KAOH AOH20160628223511806/28/16 22:35:31  5-MIN KAOH 290335Z AUTO 35008KT 10SM FEW036 OVC047 17/12 A3007 840 75 1300 350/08 RMK AO2 T01670122
04850KAOH AOH20160628224011106/28/16 22:40:31  5-MIN KAOH 290340Z AUTO 34005KT 10SM OVC047 17/12 A3007 840 75 1300 350/05 RMK AO2 T01670122
04850KAOH AOH20160628224511106/28/16 22:45:31  5-MIN KAOH 290345Z AUTO 34007KT 10SM OVC047 17/13 A3007 840 77 1300 340/07 RMK AO2 T01670128
04850KAOH AOH20160628225011806/28/16 22:50:31  5-MIN KAOH 290350Z AUTO 34006KT 10SM OVC047 17/12 A3007 840 75 1300 350/06 RMK AO2 SLP180 T01670122
04850KAOH AOH20160628225511106/28/16 22:55:31  5-MIN KAOH 290355Z AUTO 34006KT 10SM OVC049 17/12 A3007 840 75 1300 350/06 RMK AO2 T01670122
04850KAOH AOH20160628230011106/28/16 23:00:31  5-MIN KAOH 290400Z AUTO 34006KT 10SM OVC049 17/13 A3007 840 77 1300 350/06 RMK AO2 T01670128
04850KAOH AOH20160628230511106/28/16 23:05:31  5-MIN KAOH 290405Z AUTO 35006KT 10SM OVC049 17/13 A3007 840 77 1300 360/06 RMK AO2 T01670128
04850KAOH AOH20160628231011106/28/16 23:10:31  5-MIN KAOH 290410Z AUTO 35005KT 10SM OVC049 17/13 A3007 840 77 1300 360/05 RMK AO2 T01670128
04850KAOH AOH20160628231511106/28/16 23:15:31  5-MIN KAOH 290415Z AUTO 35006KT 10SM OVC049 17/13 A3007 840 77 1300 360/06 RMK AO2 T01670128
04850KAOH AOH20160628232011106/28/16 23:20:31  5-MIN KAOH 290420Z AUTO 35005KT 10SM OVC050 17/13 A3007 840 77 1300 360/05 RMK AO2 T01670128
04850KAOH AOH20160628232511106/28/16 23:25:31  5-MIN KAOH 290425Z AUTO 36005KT 10SM OVC050 17/13 A3007 840 77 1300 360/05 RMK AO2 T01670128
04850KAOH AOH20160628233011106/28/16 23:30:31  5-MIN KAOH 290430Z AUTO 35006KT 10SM OVC050 17/13 A3007 830 77 1300 350/06 RMK AO2 T01670128
04850KAOH AOH20160628233511106/28/16 23:35:31  5-MIN KAOH 290435Z AUTO 34006KT 10SM OVC050 17/13 A3008 830 77 1300 350/06 RMK AO2 T01670128
04850KAOH AOH20160628234011106/28/16 23:40:31  5-MIN KAOH 290440Z AUTO 35006KT 10SM OVC050 17/13 A3007 830 77 1300 350/06 RMK AO2 T01670128
04850KAOH AOH20160628234511106/28/16 23:45:31  5-MIN KAOH 290445Z AUTO 35005KT 10SM OVC050 17/13 A3007 840 77 1300 360/05 RMK AO2 T01670128
04850KAOH AOH20160628235012806/28/16 23:50:31  5-MIN KAOH 290450Z AUTO 35005KT 10SM OVC050 17/13 A3007 840 77 1300 350/05 RMK AO2 SLP179 T01670128 402390167
04850KAOH AOH20160628235511106/28/16 23:55:31  5-MIN KAOH 290455Z AUTO 35006KT 10SM OVC050 17/13 A3007 840 77 1300 360/06 RMK AO2 T01670128
04850KAOH AOH20160629000011106/29/16 00:00:31  5-MIN KAOH 290500Z AUTO 35005KT 10SM OVC050 17/13 A3007 840 77 1300 360/05 RMK AO2 T01670128
04850KAOH AOH20160629000511106/29/16 00:05:31  5-MIN KAOH 290505Z AUTO 35004KT 10SM OVC050 17/13 A3007 840 80 1300 350/04 RMK AO2 T01670133
04850KAOH AOH20160629001011106/29/16 00:10:31  5-MIN KAOH 290510Z AUTO 35005KT 10SM OVC055 16/13 A3007 840 83 1200 360/05 RMK AO2 T01610133
04850KAOH AOH20160629001511106/29/16 00:15:31  5-MIN KAOH 290515Z AUTO 35005KT 10SM OVC055 16/13 A3007 840 83 1200 350/05 RMK AO2 T01610133
04850KAOH AOH20160629002011106/29/16 00:20:31  5-MIN KAOH 290520Z AUTO 34004KT 10SM OVC055 16/13 A3007 840 83 1200 350/04 RMK AO2 T01610133
04850KAOH AOH20160629002511106/29/16 00:25:31  5-MIN KAOH 290525Z AUTO 36004KT 10SM OVC055 17/13 A3007 840 80 1300 360/04 RMK AO2 T01670133
04850KAOH AOH20160629003011106/29/16 00:30:31  5-MIN KAOH 290530Z AUTO 35004KT 10SM OVC055 16/13 A3007 840 83 1200 360/04 RMK AO2 T01610133
04850KAOH AOH20160629003511106/29/16 00:35:31  5-MIN KAOH 290535Z AUTO 35004KT 10SM OVC055 16/13 A3007 840 83 1200 360/04 RMK AO2 T01610133
04850KAOH AOH20160629004011106/29/16 00:40:31  5-MIN KAOH 290540Z AUTO 35004KT 10SM OVC055 16/13 A3007 840 83 1200 360/04 RMK AO2 T01610133
04850KAOH AOH20160629004511106/29/16 00:45:31  5-MIN KAOH 290545Z AUTO 36003KT 10SM OVC055 16/13 A3007 840 83 1200 010/03 RMK AO2 T01610133
04850KAOH AOH20160629005013606/29/16 00:50:31  5-MIN KAOH 290550Z AUTO 36003KT 10SM OVC055 16/13 A3007 840 83 1200 010/03 RMK AO2 SLP177 T01610133 10183 20161 53000
04850KAOH AOH20160629005511106/29/16 00:55:31  5-MIN KAOH 290555Z AUTO 01004KT 10SM OVC055 16/13 A3007 840 83 1200 010/04 RMK AO2 T01610133
04850KAOH AOH20160629010011106/29/16 01:00:31  5-MIN KAOH 290600Z AUTO 01004KT 10SM OVC055 16/13 A3007 840 83 1200 010/04 RMK AO2 T01610133
04850KAOH AOH20160629010511106/29/16 01:05:31  5-MIN KAOH 290605Z AUTO 01005KT 10SM OVC055 16/13 A3007 840 83 1200 010/05 RMK AO2 T01610133
04850KAOH AOH20160629011011106/29/16 01:10:31  5-MIN KAOH 290610Z AUTO 36004KT 10SM OVC055 16/13 A3007 840 80 1200 010/04 RMK AO2 T01610128
04850KAOH AOH20160629011511106/29/16 01:15:31  5-MIN KAOH 290615Z AUTO 36005KT 10SM OVC055 16/13 A3007 840 80 1200 360/05 RMK AO2 T01610128
04850KAOH AOH20160629012011106/29/16 01:20:31  5-MIN KAOH 290620Z AUTO 35005KT 10SM OVC055 16/13 A3007 840 83 1200 360/05 RMK AO2 T01610133
04850KAOH AOH20160629012511106/29/16 01:25:31  5-MIN KAOH 290625Z AUTO 36005KT 10SM OVC055 16/13 A3006 840 83 1200 360/05 RMK AO2 T01610133
04850KAOH AOH20160629013011106/29/16 01:30:31  5-MIN KAOH 290630Z AUTO 35005KT 10SM OVC055 16/13 A3007 840 86 1100 350/05 RMK AO2 T01560133
04850KAOH AOH20160629013511106/29/16 01:35:31  5-MIN KAOH 290635Z AUTO 35005KT 10SM OVC055 16/13 A3007 840 86 1100 350/05 RMK AO2 T01560133
04850KAOH AOH20160629014011106/29/16 01:40:31  5-MIN KAOH 290640Z AUTO 35004KT 10SM OVC055 16/13 A3007 840 86 1100 360/04 RMK AO2 T01560133
04850KAOH AOH20160629014511106/29/16 01:45:31  5-MIN KAOH 290645Z AUTO 35004KT 10SM OVC055 16/13 A3007 840 86 1100 350/04 RMK AO2 T01560133
04850KAOH AOH20160629015011806/29/16 01:50:31  5-MIN KAOH 290650Z AUTO 35004KT 10SM OVC055 16/13 A3007 840 86 1100 350/04 RMK AO2 SLP178 T01560133
04850KAOH AOH20160629015511106/29/16 01:55:31  5-MIN KAOH 290655Z AUTO 35005KT 10SM OVC055 16/13 A3007 840 86 1100 350/05 RMK AO2 T01560133
04850KAOH AOH20160629020011106/29/16 02:00:31  5-MIN KAOH 290700Z AUTO 34004KT 10SM BKN055 16/13 A3007 840 86 1100 350/04 RMK AO2 T01560133
04850KAOH AOH20160629020511106/29/16 02:05:31  5-MIN KAOH 290705Z AUTO 33004KT 10SM BKN055 16/13 A3007 840 86 1100 340/04 RMK AO2 T01560133
04850KAOH AOH20160629021011106/29/16 02:10:31  5-MIN KAOH 290710Z AUTO 34005KT 10SM BKN055 15/13 A3007 840 90 1100 350/05 RMK AO2 T01500133
04850KAOH AOH20160629021511106/29/16 02:15:31  5-MIN KAOH 290715Z AUTO 34004KT 10SM SCT055 16/13 A3007 840 86 1100 350/04 RMK AO2 T01560133
04850KAOH AOH20160629022011106/29/16 02:20:31  5-MIN KAOH 290720Z AUTO 34005KT 10SM FEW055 15/13 A3007 840 90 1100 340/05 RMK AO2 T01500133
04850KAOH AOH20160629022511106/29/16 02:25:31  5-MIN KAOH 290725Z AUTO 34005KT 10SM FEW055 15/13 A3007 840 90 1100 340/05 RMK AO2 T01500133
04850KAOH AOH20160629023010806/29/16 02:30:31  5-MIN KAOH 290730Z AUTO 33004KT 10SM CLR 15/13 A3007 840 90 1100 340/04 RMK AO2 T01500133
04850KAOH AOH20160629023510806/29/16 02:35:31  5-MIN KAOH 290735Z AUTO 33005KT 10SM CLR 15/13 A3007 840 90 1100 340/05 RMK AO2 T01500133
04850KAOH AOH20160629024010806/29/16 02:40:31  5-MIN KAOH 290740Z AUTO 34005KT 10SM CLR 15/13 A3007 840 90 1100 340/05 RMK AO2 T01500133
04850KAOH AOH20160629024510806/29/16 02:45:31  5-MIN KAOH 290745Z AUTO 34006KT 10SM CLR 15/13 A3007 840 90 1100 340/06 RMK AO2 T01500133
04850KAOH AOH20160629025011506/29/16 02:50:31  5-MIN KAOH 290750Z AUTO 34006KT 10SM CLR 15/13 A3007 840 90 1100 340/06 RMK AO2 SLP179 T01500133
04850KAOH AOH20160629025510806/29/16 02:55:31  5-MIN KAOH 290755Z AUTO 34005KT 10SM CLR 15/13 A3007 830 90 1100 340/05 RMK AO2 T01500133
04850KAOH AOH20160629030010806/29/16 03:00:31  5-MIN KAOH 290800Z AUTO 34005KT 10SM CLR 15/13 A3008 830 90 1100 340/05 RMK AO2 T01500133
04850KAOH AOH20160629030510806/29/16 03:05:31  5-MIN KAOH 290805Z AUTO 34006KT 10SM CLR 14/13 A3008 830 93 1000 340/06 RMK AO2 T01440133
04850KAOH AOH20160629031010806/29/16 03:10:31  5-MIN KAOH 290810Z AUTO 34006KT 10SM CLR 14/13 A3007 840 90 1000 340/06 RMK AO2 T01440128
04850KAOH AOH20160629031510806/29/16 03:15:31  5-MIN KAOH 290815Z AUTO 33005KT 10SM CLR 14/13 A3007 840 90 1000 340/05 RMK AO2 T01440128
04850KAOH AOH20160629032010806/29/16 03:20:31  5-MIN KAOH 290820Z AUTO 34006KT 10SM CLR 14/13 A3007 840 90 1000 340/06 RMK AO2 T01440128
04850KAOH AOH20160629032510806/29/16 03:25:31  5-MIN KAOH 290825Z AUTO 33005KT 10SM CLR 14/13 A3008 830 90 1000 340/05 RMK AO2 T01440128
04850KAOH AOH20160629033010806/29/16 03:30:31  5-MIN KAOH 290830Z AUTO 33004KT 10SM CLR 14/13 A3008 830 90 1000 340/04 RMK AO2 T01440128
04850KAOH AOH20160629033510806/29/16 03:35:31  5-MIN KAOH 290835Z AUTO 34005KT 10SM CLR 14/13 A3008 830 90 1000 340/05 RMK AO2 T01440128
04850KAOH AOH20160629034010806/29/16 03:40:31  5-MIN KAOH 290840Z AUTO 33005KT 10SM CLR 14/13 A3008 830 90 1000 340/05 RMK AO2 T01440128
04850KAOH AOH20160629034510806/29/16 03:45:31  5-MIN KAOH 290845Z AUTO 33005KT 10SM CLR 14/13 A3008 830 90 1000 340/05 RMK AO2 T01440128
04850KAOH AOH20160629035012106/29/16 03:50:31  5-MIN KAOH 290850Z AUTO 33006KT 10SM CLR 14/13 A3008 830 90 1000 340/06 RMK AO2 SLP183 T01440128 58001
04850KAOH AOH20160629035510806/29/16 03:55:31  5-MIN KAOH 290855Z AUTO 33006KT 10SM CLR 14/13 A3008 830 90 1000 340/06 RMK AO2 T01440128
04850KAOH AOH20160629040010806/29/16 04:00:31  5-MIN KAOH 290900Z AUTO 34007KT 10SM CLR 14/13 A3008 830 90 1000 340/07 RMK AO2 T01440128
04850KAOH AOH20160629040510806/29/16 04:05:31  5-MIN KAOH 290905Z AUTO 34006KT 10SM CLR 14/13 A3009 820 90 1000 350/06 RMK AO2 T01440128
04850KAOH AOH20160629041010806/29/16 04:10:31  5-MIN KAOH 290910Z AUTO 34005KT 10SM CLR 14/13 A3009 820 90 1000 340/05 RMK AO2 T01440128
04850KAOH AOH20160629041510706/29/16 04:15:31  5-MIN KAOH 290915Z AUTO 33005KT 10SM CLR 14/13 A3009 820 93 900 340/05 RMK AO2 T01390128
04850KAOH AOH20160629042010706/29/16 04:20:31  5-MIN KAOH 290920Z AUTO 34004KT 10SM CLR 14/13 A3008 830 93 900 350/04 RMK AO2 T01390128
04850KAOH AOH20160629042510706/29/16 04:25:31  5-MIN KAOH 290925Z AUTO 34004KT 10SM CLR 14/13 A3009 820 93 900 340/04 RMK AO2 T01390128
04850KAOH AOH20160630123010806/30/16 12:30:31  5-MIN KAOH 301730Z AUTO 18005KT 10SM CLR 24/11 A3004 870 41 2200 190/05 RMK AO2 T02440106
04850KAOH AOH20160630123510806/30/16 12:35:31  5-MIN KAOH 301735Z AUTO VRB04KT 10SM CLR 24/11 A3004 870 41 2200 VRB/04 RMK AO2 T02440106
04850KAOH AOH20160630124009806/30/16 12:40:31  5-MIN KAOH 301740Z AUTO 10SM CLR 24/11 A3004 870 41 2200 M /M RMK AO2 T02440106
04850KAOH AOH20160630124510806/30/16 12:45:31  5-MIN KAOH 301745Z AUTO 27005KT 10SM CLR 25/11 A3004 870 39 2300 270/05 RMK AO2 T02500106
04850KAOH AOH20160630125013306/30/16 12:50:31  5-MIN KAOH 301750Z AUTO 30005KT 10SM CLR 24/11 A3003 870 41 2200 310/05 RMK AO2 SLP165 T02440106 10250 20167 58003
04850KAOH AOH20160630125510806/30/16 12:55:31  5-MIN KAOH 301755Z AUTO 29004KT 10SM CLR 24/10 A3003 870 39 2200 290/04 RMK AO2 T02440100
04850KAOH AOH20160630130011106/30/16 13:00:31  5-MIN KAOH 301800Z AUTO VRB04KT 10SM FEW065 24/10 A3003 870 39 2200 VRB/04 RMK AO2 T02440100
04850KAOH AOH20160630130511106/30/16 13:05:31  5-MIN KAOH 301805Z AUTO 16007KT 10SM FEW065 25/11 A3003 870 39 2300 170/07 RMK AO2 T02500106
04850KAOH AOH20160630131011106/30/16 13:10:31  5-MIN KAOH 301810Z AUTO VRB05KT 10SM FEW065 25/11 A3003 880 41 2300 VRB/05 RMK AO2 T02500111
04850KAOH AOH20160630131511106/30/16 13:15:31  5-MIN KAOH 301815Z AUTO 29007KT 10SM FEW065 25/10 A3003 880 38 2300 290/07 RMK AO2 T02500100
04850KAOH AOH20160630132011106/30/16 13:20:31  5-MIN KAOH 301820Z AUTO 32006KT 10SM FEW065 25/10 A3003 880 38 2300 330/06 RMK AO2 T02500100
04850KAOH AOH20160630132511106/30/16 13:25:31  5-MIN KAOH 301825Z AUTO VRB04KT 10SM FEW065 25/11 A3003 880 39 2300 VRB/04 RMK AO2 T02500106
04850KAOH AOH20160630133010806/30/16 13:30:31  5-MIN KAOH 301830Z AUTO 28006KT 10SM CLR 25/10 A3003 880 38 2300 290/06 RMK AO2 T02500100
04850KAOH AOH20160630133510806/30/16 13:35:31  5-MIN KAOH 301835Z AUTO 32006KT 10SM CLR 25/09 A3002 880 37 2300 320/06 RMK AO2 T02500094
04850KAOH AOH20160630134012406/30/16 13:40:31  5-MIN KAOH 301840Z AUTO 19009KT 160V240 10SM CLR 24/10 A3002 880 39 2200 190/09 170V250 RMK AO2 T02440100
04850KAOH AOH20160630134510806/30/16 13:45:31  5-MIN KAOH 301845Z AUTO 21006KT 10SM CLR 24/10 A3002 880 39 2200 210/06 RMK AO2 T02440100
04850KAOH AOH20160630135011506/30/16 13:50:31  5-MIN KAOH 301850Z AUTO 28006KT 10SM CLR 24/10 A3002 880 39 2200 290/06 RMK AO2 SLP161 T02440100
04850KAOH AOH20160630135510806/30/16 13:55:31  5-MIN KAOH 301855Z AUTO 28007KT 10SM CLR 25/10 A3002 880 38 2300 290/07 RMK AO2 T02500100
04850KAOH AOH20160630140010806/30/16 14:00:31  5-MIN KAOH 301900Z AUTO 24004KT 10SM CLR 25/10 A3002 890 38 2300 250/04 RMK AO2 T02500100
04850KAOH AOH20160630140510806/30/16 14:05:31  5-MIN KAOH 301905Z AUTO VRB04KT 10SM CLR 24/09 A3002 890 36 2200 VRB/04 RMK AO2 T02440089
04850KAOH AOH20160630141010806/30/16 14:10:31  5-MIN KAOH 301910Z AUTO VRB03KT 10SM CLR 25/09 A3001 890 37 2300 VRB/03 RMK AO2 T02500094
04850KAOH AOH20160630141510806/30/16 14:15:31  5-MIN KAOH 301915Z AUTO VRB04KT 10SM CLR 24/09 A3001 900 36 2200 VRB/04 RMK AO2 T02440089
04850KAOH AOH20160630142010806/30/16 14:20:31  5-MIN KAOH 301920Z AUTO 00000KT 10SM CLR 26/11 A3001 890 37 2400 000/00 RMK AO2 T02610106
04850KAOH AOH20160630142510806/30/16 14:25:31  5-MIN KAOH 301925Z AUTO 00000KT 10SM CLR 26/11 A3001 890 37 2400 000/00 RMK AO2 T02610106
04850KAOH AOH20160630143010806/30/16 14:30:31  5-MIN KAOH 301930Z AUTO 00000KT 10SM CLR 25/09 A3001 890 37 2300 000/00 RMK AO2 T02500094
04850KAOH AOH20160630143510106/30/16 14:35:31  5-MIN KAOH 301935Z AUTO 10SM FEW070 26/10 A3001 890 37 2400 M /M RMK AO2 T02560100
04850KAOH AOH20160630144011106/30/16 14:40:31  5-MIN KAOH 301940Z AUTO 17005KT 10SM FEW070 26/10 A3001 900 37 2400 180/05 RMK AO2 T02560100
04850KAOH AOH20160630144510806/30/16 14:45:31  5-MIN KAOH 301945Z AUTO 22004KT 10SM CLR 25/09 A3001 900 37 2300 220/04 RMK AO2 T02500094
04850KAOH AOH20160630145011806/30/16 14:50:31  5-MIN KAOH 301950Z AUTO 26010KT 10SM SCT070 26/11 A3001 900 38 2400 270/10 RMK AO2 SLP157 T02560106
04850KAOH AOH20160630145511106/30/16 14:55:31  5-MIN KAOH 301955Z AUTO 25009KT 10SM SCT070 26/10 A3001 900 37 2400 250/09 RMK AO2 T02560100
04850KAOH AOH20160630150011106/30/16 15:00:31  5-MIN KAOH 302000Z AUTO 24004KT 10SM FEW070 26/09 A3001 900 35 2400 240/04 RMK AO2 T02560094
04850KAOH AOH20160630150511106/30/16 15:05:31  5-MIN KAOH 302005Z AUTO 24009KT 10SM FEW070 26/09 A3001 900 35 2400 240/09 RMK AO2 T02560094
04850KAOH AOH20160630151011106/30/16 15:10:31  5-MIN KAOH 302010Z AUTO 24005KT 10SM FEW070 26/09 A3001 900 34 2400 240/05 RMK AO2 T02560089
04850KAOH AOH20160630151510106/30/16 15:15:31  5-MIN KAOH 302015Z AUTO 10SM FEW070 26/09 A3000 900 35 2400 M /M RMK AO2 T02560094
04850KAOH AOH20160630152012406/30/16 15:20:31  5-MIN KAOH 302020Z AUTO 25007KT 220V280 10SM CLR 26/10 A3000 900 37 2400 260/07 230V290 RMK AO2 T02560100
04850KAOH AOH20160630152510806/30/16 15:25:31  5-MIN KAOH 302025Z AUTO 26008KT 10SM CLR 26/09 A3000 900 35 2400 260/08 RMK AO2 T02560094
04850KAOH AOH20160630153010806/30/16 15:30:31  5-MIN KAOH 302030Z AUTO VRB05KT 10SM CLR 26/08 A3000 900 33 2400 VRB/05 RMK AO2 T02560083
04850KAOH AOH20160630153510806/30/16 15:35:31  5-MIN KAOH 302035Z AUTO VRB06KT 10SM CLR 26/09 A3000 910 35 2400 VRB/06 RMK AO2 T02560094
04850KAOH AOH20160630154010806/30/16 15:40:31  5-MIN KAOH 302040Z AUTO 26007KT 10SM CLR 26/10 A3000 900 37 2400 260/07 RMK AO2 T02560100
04850KAOH AOH20160630154510806/30/16 15:45:31  5-MIN KAOH 302045Z AUTO 22007KT 10SM CLR 26/11 A3000 910 40 2400 230/07 RMK AO2 T02560111
04850KAOH AOH20160630155012106/30/16 15:50:31  5-MIN KAOH 302050Z AUTO 23006KT 10SM CLR 25/10 A3000 900 38 2300 230/06 RMK AO2 SLP154 T02500100 58014
04850KAOH AOH20160630155510806/30/16 15:55:31  5-MIN KAOH 302055Z AUTO 23009KT 10SM CLR 25/11 A3000 900 41 2300 230/09 RMK AO2 T02500111
04850KAOH AOH20160630160010806/30/16 16:00:31  5-MIN KAOH 302100Z AUTO 26005KT 10SM CLR 25/11 A3000 900 39 2300 270/05 RMK AO2 T02500106
04850KAOH AOH20160630160510806/30/16 16:05:31  5-MIN KAOH 302105Z AUTO 23007KT 10SM CLR 26/11 A3000 900 38 2400 240/07 RMK AO2 T02560106
04850KAOH AOH20160630161010806/30/16 16:10:31  5-MIN KAOH 302110Z AUTO 22008KT 10SM CLR 26/11 A2999 910 38 2400 230/08 RMK AO2 T02560106
04850KAOH AOH20160630161510806/30/16 16:15:31  5-MIN KAOH 302115Z AUTO 27008KT 10SM CLR 26/11 A3000 910 38 2400 280/08 RMK AO2 T02560106
04850KAOH AOH20160630162010806/30/16 16:20:31  5-MIN KAOH 302120Z AUTO 25009KT 10SM CLR 25/11 A2999 910 39 2300 260/09 RMK AO2 T02500106
04850KAOH AOH20160630162510806/30/16 16:25:31  5-MIN KAOH 302125Z AUTO 25008KT 10SM CLR 25/11 A3000 910 39 2300 250/08 RMK AO2 T02500106
04850KAOH AOH20160630163010806/30/16 16:30:31  5-MIN KAOH 302130Z AUTO 26006KT 10SM CLR 25/11 A3000 900 39 2300 260/06 RMK AO2 T02500106
04850KAOH AOH20160630163510806/30/16 16:35:31  5-MIN KAOH 302135Z AUTO 24008KT 10SM CLR 25/11 A3000 900 41 2300 250/08 RMK AO2 T02500111
04850KAOH AOH20160630164010806/30/16 16:40:31  5-MIN KAOH 302140Z AUTO 27007KT 10SM CLR 25/11 A3000 900 39 2300 280/07 RMK AO2 T02500106
04850KAOH AOH20160630164510806/30/16 16:45:31  5-MIN KAOH 302145Z AUTO 25005KT 10SM CLR 25/09 A3000 910 37 2300 250/05 RMK AO2 T02500094
04850KAOH AOH20160630165011506/30/16 16:50:31  5-MIN KAOH 302150Z AUTO 26005KT 10SM CLR 25/11 A2999 910 39 2300 260/05 RMK AO2 SLP152 T02500106
04850KAOH AOH20160630165510806/30/16 16:55:31  5-MIN KAOH 302155Z AUTO 26005KT 10SM CLR 25/11 A2999 910 39 2300 270/05 RMK AO2 T02500106
04850KAOH AOH20160630170010806/30/16 17:00:31  5-MIN KAOH 302200Z AUTO 23006KT 10SM CLR 24/11 A2999 910 42 2300 240/06 RMK AO2 T02440111
04850KAOH AOH20160630170510806/30/16 17:05:31  5-MIN KAOH 302205Z AUTO 25007KT 10SM CLR 24/11 A2999 910 41 2200 260/07 RMK AO2 T02440106
04850KAOH AOH20160630171010806/30/16 17:10:31  5-MIN KAOH 302210Z AUTO 25008KT 10SM CLR 25/11 A2999 910 39 2300 260/08 RMK AO2 T02500106
04850KAOH AOH20160630171510806/30/16 17:15:31  5-MIN KAOH 302215Z AUTO 26007KT 10SM CLR 26/11 A2999 910 38 2400 270/07 RMK AO2 T02560106
04850KAOH AOH20160630172010806/30/16 17:20:31  5-MIN KAOH 302220Z AUTO 27008KT 10SM CLR 26/10 A2999 910 37 2400 280/08 RMK AO2 T02560100
04850KAOH AOH20160630172510806/30/16 17:25:31  5-MIN KAOH 302225Z AUTO 24009KT 10SM CLR 26/10 A2999 920 37 2400 250/09 RMK AO2 T02560100
04850KAOH AOH20160630173010806/30/16 17:30:31  5-MIN KAOH 302230Z AUTO 27007KT 10SM CLR 25/09 A2999 920 37 2300 280/07 RMK AO2 T02500094
04850KAOH AOH20160630173510806/30/16 17:35:31  5-MIN KAOH 302235Z AUTO 26009KT 10SM CLR 25/09 A2998 920 37 2300 270/09 RMK AO2 T02500094
04850KAOH AOH20160630174010806/30/16 17:40:31  5-MIN KAOH 302240Z AUTO 26005KT 10SM CLR 25/10 A2998 920 38 2300 260/05 RMK AO2 T02500100
04850KAOH AOH20160630174510806/30/16 17:45:31  5-MIN KAOH 302245Z AUTO 24005KT 10SM CLR 25/10 A2998 920 38 2300 250/05 RMK AO2 T02500100
04850KAOH AOH20160630175011506/30/16 17:50:31  5-MIN KAOH 302250Z AUTO 24005KT 10SM CLR 25/11 A2998 920 39 2300 240/05 RMK AO2 SLP149 T02500106
04850KAOH AOH20160630175510806/30/16 17:55:31  5-MIN KAOH 302255Z AUTO 25004KT 10SM CLR 25/11 A2998 920 39 2300 250/04 RMK AO2 T02500106
04850KAOH AOH20160630180010806/30/16 18:00:31  5-MIN KAOH 302300Z AUTO 28004KT 10SM CLR 25/11 A2998 920 39 2300 280/04 RMK AO2 T02500106
04850KAOH AOH20160630180510806/30/16 18:05:31  5-MIN KAOH 302305Z AUTO 26004KT 10SM CLR 25/10 A2998 920 38 2300 270/04 RMK AO2 T02500100
04850KAOH AOH20160630181010806/30/16 18:10:31  5-MIN KAOH 302310Z AUTO 24007KT 10SM CLR 24/10 A2998 930 39 2300 250/07 RMK AO2 T02440100
04850KAOH AOH20160630181510806/30/16 18:15:31  5-MIN KAOH 302315Z AUTO 24006KT 10SM CLR 24/11 A2997 930 41 2300 250/06 RMK AO2 T02440106
04850KAOH AOH20160630182010806/30/16 18:20:31  5-MIN KAOH 302320Z AUTO 25006KT 10SM CLR 24/10 A2997 930 39 2300 260/06 RMK AO2 T02440100
04850KAOH AOH20160630182510806/30/16 18:25:31  5-MIN KAOH 302325Z AUTO 25005KT 10SM CLR 24/11 A2997 930 41 2300 250/05 RMK AO2 T02440106
04850KAOH AOH20160630183010806/30/16 18:30:31  5-MIN KAOH 302330Z AUTO 24004KT 10SM CLR 24/11 A2997 930 42 2300 250/04 RMK AO2 T02440111
04850KAOH AOH20160630183510806/30/16 18:35:31  5-MIN KAOH 302335Z AUTO 24005KT 10SM CLR 24/11 A2997 930 42 2300 250/05 RMK AO2 T02440111
04850KAOH AOH20160630184010806/30/16 18:40:31  5-MIN KAOH 302340Z AUTO 25005KT 10SM CLR 24/11 A2997 930 42 2300 260/05 RMK AO2 T02440111
04850KAOH AOH20160630184510806/30/16 18:45:31  5-MIN KAOH 302345Z AUTO 23004KT 10SM CLR 24/11 A2997 930 42 2300 240/04 RMK AO2 T02440111
04850KAOH AOH20160630185013306/30/16 18:50:31  5-MIN KAOH 302350Z AUTO 23005KT 10SM CLR 24/11 A2997 930 41 2300 230/05 RMK AO2 SLP143 T02440106 10261 20244 56011
04850KAOH AOH20160630185510806/30/16 18:55:31  5-MIN KAOH 302355Z AUTO 23004KT 10SM CLR 24/11 A2997 930 41 2300 230/04 RMK AO2 T02440106
04850KAOH AOH20160630190010806/30/16 19:00:31  5-MIN KAOH 010000Z AUTO 26005KT 10SM CLR 24/11 A2997 930 41 2300 270/05 RMK AO2 T02440106
04850KAOH AOH20160630190510806/30/16 19:05:31  5-MIN KAOH 010005Z AUTO 26005KT 10SM CLR 24/11 A2997 930 41 2300 260/05 RMK AO2 T02440106
04850KAOH AOH20160630191010806/30/16 19:10:31  5-MIN KAOH 010010Z AUTO 26003KT 10SM CLR 24/10 A2997 930 39 2300 260/03 RMK AO2 T02440100
04850KAOH AOH20160630191510806/30/16 19:15:31  5-MIN KAOH 010015Z AUTO 25003KT 10SM CLR 24/10 A2997 930 41 2200 260/03 RMK AO2 T02390100
04850KAOH AOH20160630192010806/30/16 19:20:31  5-MIN KAOH 010020Z AUTO 25004KT 10SM CLR 24/11 A2997 930 42 2200 260/04 RMK AO2 T02390106
04850KAOH AOH20160630192510806/30/16 19:25:31  5-MIN KAOH 010025Z AUTO 25003KT 10SM CLR 24/11 A2997 930 44 2200 250/03 RMK AO2 T02390111
04850KAOH AOH20160630193010806/30/16 19:30:31  5-MIN KAOH 010030Z AUTO 00000KT 10SM CLR 23/12 A2997 930 47 2200 000/00 RMK AO2 T02330117
04850KAOH AOH20160630193510806/30/16 19:35:31  5-MIN KAOH 010035Z AUTO 22003KT 10SM CLR 24/11 A2997 930 42 2200 230/03 RMK AO2 T02390106
04850KAOH AOH20160630194010806/30/16 19:40:31  5-MIN KAOH 010040Z AUTO 23003KT 10SM CLR 24/11 A2997 930 42 2200 230/03 RMK AO2 T02390106
04850KAOH AOH20160630194510806/30/16 19:45:31  5-MIN KAOH 010045Z AUTO 00000KT 10SM CLR 23/12 A2997 930 49 2100 000/00 RMK AO2 T02330122
04850KAOH AOH20160630195011506/30/16 19:50:31  5-MIN KAOH 010050Z AUTO 22003KT 10SM CLR 23/12 A2997 930 47 2200 220/03 RMK AO2 SLP142 T02330117
04850KAOH AOH20160630195510806/30/16 19:55:31  5-MIN KAOH 010055Z AUTO 21003KT 10SM CLR 23/11 A2997 930 44 2200 210/03 RMK AO2 T02330106
04850KAOH AOH20160630200010806/30/16 20:00:31  5-MIN KAOH 010100Z AUTO 24003KT 10SM CLR 23/11 A2997 930 44 2100 240/03 RMK AO2 T02330106
04850KAOH AOH20160630200510806/30/16 20:05:31  5-MIN KAOH 010105Z AUTO 00000KT 10SM CLR 22/12 A2998 930 54 2000 000/00 RMK AO2 T02170122
04850KAOH AOH20160630201010806/30/16 20:10:31  5-MIN KAOH 010110Z AUTO 00000KT 10SM CLR 22/15 A2998 930 65 2000 000/00 RMK AO2 T02170150
04850KAOH AOH20160630201510806/30/16 20:15:31  5-MIN KAOH 010115Z AUTO 29003KT 10SM CLR 21/16 A2998 920 73 1900 300/03 RMK AO2 T02110161
04850KAOH AOH20160630202010806/30/16 20:20:31  5-MIN KAOH 010120Z AUTO 00000KT 10SM CLR 21/16 A2998 930 73 1900 000/00 RMK AO2 T02110161
04850KAOH AOH20160630202510806/30/16 20:25:31  5-MIN KAOH 010125Z AUTO 00000KT 10SM CLR 22/14 A2998 920 61 1900 000/00 RMK AO2 T02170139
04850KAOH AOH20160630203010806/30/16 20:30:31  5-MIN KAOH 010130Z AUTO 00000KT 10SM CLR 22/12 A2998 920 52 2000 000/00 RMK AO2 T02220122
04850KAOH AOH20160630203510806/30/16 20:35:31  5-MIN KAOH 010135Z AUTO 24003KT 10SM CLR 22/12 A2999 920 51 2000 240/03 RMK AO2 T02220117
04850KAOH AOH20160630204010806/30/16 20:40:31  5-MIN KAOH 010140Z AUTO 23004KT 10SM CLR 22/12 A2999 920 51 2000 240/04 RMK AO2 T02220117
04850KAOH AOH20160630204510806/30/16 20:45:31  5-MIN KAOH 010145Z AUTO 22003KT 10SM CLR 22/12 A2999 920 51 2000 230/03 RMK AO2 T02220117
04850KAOH AOH20160630205011506/30/16 20:50:31  5-MIN KAOH 010150Z AUTO 22004KT 10SM CLR 22/12 A2999 920 51 2000 230/04 RMK AO2 SLP148 T02220117
04850KAOH AOH20160630205510806/30/16 20:55:31  5-MIN KAOH 010155Z AUTO 22004KT 10SM CLR 22/12 A2999 910 51 2000 220/04 RMK AO2 T02220117
04850KAOH AOH20160630210011106/30/16 21:00:31  5-MIN KAOH 010200Z AUTO 21004KT 10SM SCT110 22/11 A2999 910 49 2000 220/04 RMK AO2 T02220111
04850KAOH AOH20160630210511106/30/16 21:05:31  5-MIN KAOH 010205Z AUTO 18003KT 10SM BKN110 22/12 A2998 920 52 1900 190/03 RMK AO2 T02170117
04850KAOH AOH20160630211011106/30/16 21:10:31  5-MIN KAOH 010210Z AUTO 18004KT 10SM BKN110 21/13 A2999 920 58 1900 190/04 RMK AO2 T02110128
04850KAOH AOH20160630211511106/30/16 21:15:31  5-MIN KAOH 010215Z AUTO 19004KT 10SM BKN110 21/13 A2999 920 58 1900 200/04 RMK AO2 T02110128
04850KAOH AOH20160630212011106/30/16 21:20:31  5-MIN KAOH 010220Z AUTO 18005KT 10SM SCT110 21/13 A2999 920 63 1800 180/05 RMK AO2 T02060133
04850KAOH AOH20160630212511106/30/16 21:25:31  5-MIN KAOH 010225Z AUTO 18005KT 10SM SCT110 21/14 A2999 910 65 1800 190/05 RMK AO2 T02060139
04850KAOH AOH20160630213011106/30/16 21:30:31  5-MIN KAOH 010230Z AUTO 18005KT 10SM FEW110 20/14 A2998 920 70 1800 180/05 RMK AO2 T02000144
04850KAOH AOH20160630213511106/30/16 21:35:31  5-MIN KAOH 010235Z AUTO 17005KT 10SM FEW110 20/15 A2998 920 72 1800 180/05 RMK AO2 T02000150
04850KAOH AOH20160630214010806/30/16 21:40:31  5-MIN KAOH 010240Z AUTO 17005KT 10SM CLR 20/15 A2998 920 72 1800 180/05 RMK AO2 T02000150
04850KAOH AOH20160630214511106/30/16 21:45:31  5-MIN KAOH 010245Z AUTO 17005KT 10SM FEW095 20/15 A2998 920 72 1800 180/05 RMK AO2 T02000150
04850KAOH AOH20160630215012406/30/16 21:50:31  5-MIN KAOH 010250Z AUTO 17005KT 10SM SCT095 20/14 A2998 920 70 1800 180/05 RMK AO2 SLP148 T02000144 58010
04850KAOH AOH20160630215511106/30/16 21:55:31  5-MIN KAOH 010255Z AUTO 17005KT 10SM BKN095 20/15 A2998 920 72 1800 180/05 RMK AO2 T02000150
04850KAOH AOH20160630220011106/30/16 22:00:31  5-MIN KAOH 010300Z AUTO 17005KT 10SM BKN095 20/15 A2998 920 72 1800 180/05 RMK AO2 T02000150
04850KAOH AOH20160630220511106/30/16 22:05:31  5-MIN KAOH 010305Z AUTO 18004KT 10SM BKN095 20/14 A2998 920 70 1800 180/04 RMK AO2 T02000144
04850KAOH AOH20160630221011106/30/16 22:10:31  5-MIN KAOH 010310Z AUTO 17004KT 10SM BKN095 20/14 A2998 920 70 1800 180/04 RMK AO2 T02000144
04850KAOH AOH20160630221511806/30/16 22:15:31  5-MIN KAOH 010315Z AUTO 17004KT 10SM SCT095 BKN120 19/14 A2998 920 72 1700 180/04 RMK AO2 T01940144
04850KAOH AOH20160630222011806/30/16 22:20:31  5-MIN KAOH 010320Z AUTO 17004KT 10SM SCT095 BKN120 19/14 A2998 920 72 1700 180/04 RMK AO2 T01940144
04850KAOH AOH20160630222511806/30/16 22:25:31  5-MIN KAOH 010325Z AUTO 17004KT 10SM FEW090 BKN120 19/14 A2998 930 72 1700 180/04 RMK AO2 T01940144
04850KAOH AOH20160630223011106/30/16 22:30:31  5-MIN KAOH 010330Z AUTO 18004KT 10SM BKN120 19/14 A2997 930 72 1700 190/04 RMK AO2 T01940144
04850KAOH AOH20160630223511106/30/16 22:35:31  5-MIN KAOH 010335Z AUTO 17005KT 10SM BKN120 19/14 A2997 930 72 1700 180/05 RMK AO2 T01940144
04850KAOH AOH20160630224011106/30/16 22:40:31  5-MIN KAOH 010340Z AUTO 17005KT 10SM BKN120 19/14 A2997 930 72 1700 180/05 RMK AO2 T01940144
04850KAOH AOH20160630224511106/30/16 22:45:31  5-MIN KAOH 010345Z AUTO 17006KT 10SM SCT120 19/14 A2997 930 72 1700 180/06 RMK AO2 T01940144
04850KAOH AOH20160630225011806/30/16 22:50:31  5-MIN KAOH 010350Z AUTO 17006KT 10SM SCT120 19/14 A2997 930 72 1700 180/06 RMK AO2 SLP143 T01940144
04850KAOH AOH20160630225511106/30/16 22:55:31  5-MIN KAOH 010355Z AUTO 17006KT 10SM SCT120 20/14 A2997 930 70 1800 180/06 RMK AO2 T02000144
04850KAOH AOH20160630230011106/30/16 23:00:31  5-MIN KAOH 010400Z AUTO 17006KT 10SM SCT120 20/14 A2997 930 70 1800 180/06 RMK AO2 T02000144
04850KAOH AOH20160630230511106/30/16 23:05:31  5-MIN KAOH 010405Z AUTO 17006KT 10SM BKN120 20/14 A2997 930 67 1800 180/06 RMK AO2 T02000139
04850KAOH AOH20160630231011106/30/16 23:10:31  5-MIN KAOH 010410Z AUTO 17006KT 10SM BKN120 20/14 A2997 930 67 1800 180/06 RMK AO2 T02000139
04850KAOH AOH20160630231511106/30/16 23:15:31  5-MIN KAOH 010415Z AUTO 17006KT 10SM BKN110 19/14 A2997 940 70 1700 180/06 RMK AO2 T01940139
04850KAOH AOH20160630232011106/30/16 23:20:31  5-MIN KAOH 010420Z AUTO 17006KT 10SM OVC110 19/14 A2996 940 70 1700 180/06 RMK AO2 T01940139
04850KAOH AOH20160630232511106/30/16 23:25:31  5-MIN KAOH 010425Z AUTO 17006KT 10SM OVC110 20/14 A2996 940 67 1800 180/06 RMK AO2 T02000139
04850KAOH AOH20160630233011106/30/16 23:30:31  5-MIN KAOH 010430Z AUTO 17005KT 10SM OVC110 20/14 A2996 940 67 1800 180/05 RMK AO2 T02000139
04850KAOH AOH20160630233511106/30/16 23:35:31  5-MIN KAOH 010435Z AUTO 17005KT 10SM OVC110 20/13 A2996 940 65 1800 180/05 RMK AO2 T02000133
04850KAOH AOH20160630234011106/30/16 23:40:31  5-MIN KAOH 010440Z AUTO 17006KT 10SM OVC110 19/14 A2996 940 70 1700 180/06 RMK AO2 T01940139
04850KAOH AOH20160630234511106/30/16 23:45:31  5-MIN KAOH 010445Z AUTO 17005KT 10SM OVC110 19/14 A2996 940 70 1700 180/05 RMK AO2 T01940139
04850KAOH AOH20160630235013506/30/16 23:50:31  5-MIN KAOH 010450Z AUTO 17006KT 10SM FEW080 OVC110 19/14 A2995 950 70 1700 180/06 RMK AO2 SLP137 T01940139 402610139
04850KAOH AOH20160630235511806/30/16 23:55:31  5-MIN KAOH 010455Z AUTO 17005KT 10SM FEW085 OVC110 19/13 A2995 950 67 1700 180/05 RMK AO2 T01940133
