53144K9L2 9L220160207183010202/07/16 18:30:31  5-MIN K9L2 080230Z AUTO 00000KT 10SM CLR 13/M07 A3030 1950 24 2300 000/00 RMK AO2 $
53144K9L2 9L220160207183510202/07/16 18:35:31  5-MIN K9L2 080235Z AUTO 00000KT 10SM CLR 14/M07 A3030 1950 22 2300 000/00 RMK AO2 $
53144K9L2 9L220160207184010202/07/16 18:40:31  5-MIN K9L2 080240Z AUTO 00000KT 10SM CLR 14/M08 A3030 1950 21 2300 000/00 RMK AO2 $
53144K9L2 9L220160207184510202/07/16 18:45:31  5-MIN K9L2 080245Z AUTO 00000KT 10SM CLR 15/M08 A3030 1950 19 2400 000/00 RMK AO2 $
53144K9L2 9L220160207185010202/07/16 18:50:31  5-MIN K9L2 080250Z AUTO 00000KT 10SM CLR 14/M08 A3030 1950 20 2400 000/00 RMK AO2 $
53144K9L2 9L220160207185512502/07/16 18:55:31  5-MIN K9L2 080255Z AUTO 00000KT 10SM CLR 14/M08 A3030 1950 20 2400 000/00 RMK AO2 SLP271 T01441083 55009 $
53144K9L2 9L220160207190010202/07/16 19:00:31  5-MIN K9L2 080300Z AUTO 00000KT 10SM CLR 14/M08 A3030 1950 21 2300 000/00 RMK AO2 $
53144K9L2 9L220160207190510202/07/16 19:05:31  5-MIN K9L2 080305Z AUTO 00000KT 10SM CLR 13/M08 A3031 1950 23 2200 000/00 RMK AO2 $
53144K9L2 9L220160207191010202/07/16 19:10:31  5-MIN K9L2 080310Z AUTO 00000KT 10SM CLR 11/M07 A3031 1950 27 2000 000/00 RMK AO2 $
53144K9L2 9L220160207191510202/07/16 19:15:31  5-MIN K9L2 080315Z AUTO 36003KT 10SM CLR 12/M07 A3031 1950 26 2000 350/03 RMK AO2 $
53144K9L2 9L220160207192010202/07/16 19:20:31  5-MIN K9L2 080320Z AUTO 02004KT 10SM CLR 11/M07 A3031 1940 27 2000 360/04 RMK AO2 $
53144K9L2 9L220160207192510202/07/16 19:25:31  5-MIN K9L2 080325Z AUTO 02004KT 10SM CLR 11/M07 A3031 1940 27 2000 010/04 RMK AO2 $
53144K9L2 9L220160207193010202/07/16 19:30:31  5-MIN K9L2 080330Z AUTO 03003KT 10SM CLR 11/M07 A3031 1940 27 2000 020/03 RMK AO2 $
53144K9L2 9L220160207193510202/07/16 19:35:31  5-MIN K9L2 080335Z AUTO 00000KT 10SM CLR 11/M07 A3031 1940 28 1900 000/00 RMK AO2 $
53144K9L2 9L220160207194010202/07/16 19:40:31  5-MIN K9L2 080340Z AUTO 00000KT 10SM CLR 11/M07 A3031 1940 27 2000 000/00 RMK AO2 $
53144K9L2 9L220160207194510202/07/16 19:45:31  5-MIN K9L2 080345Z AUTO 00000KT 10SM CLR 12/M07 A3031 1940 26 2000 000/00 RMK AO2 $
53144K9L2 9L220160207195010202/07/16 19:50:31  5-MIN K9L2 080350Z AUTO 00000KT 10SM CLR 11/M07 A3032 1940 27 2000 000/00 RMK AO2 $
53144K9L2 9L220160207195511902/07/16 19:55:31  5-MIN K9L2 080355Z AUTO 00000KT 10SM CLR 11/M07 A3032 1940 28 1900 000/00 RMK AO2 SLP276 T01061072 $
53144K9L2 9L220160207200010202/07/16 20:00:31  5-MIN K9L2 080400Z AUTO 00000KT 10SM CLR 09/M07 A3032 1930 31 1800 000/00 RMK AO2 $
53144K9L2 9L220160207200510202/07/16 20:05:31  5-MIN K9L2 080405Z AUTO 00000KT 10SM CLR 10/M07 A3032 1930 30 1800 000/00 RMK AO2 $
53144K9L2 9L220160207201010202/07/16 20:10:31  5-MIN K9L2 080410Z AUTO 33003KT 10SM CLR 09/M07 A3032 1940 31 1800 320/03 RMK AO2 $
53144K9L2 9L220160207201510202/07/16 20:15:31  5-MIN K9L2 080415Z AUTO 00000KT 10SM CLR 09/M07 A3032 1940 31 1800 000/00 RMK AO2 $
53144K9L2 9L220160207202010202/07/16 20:20:31  5-MIN K9L2 080420Z AUTO 33005KT 10SM CLR 09/M07 A3032 1930 31 1800 320/05 RMK AO2 $
53144K9L2 9L220160207202510202/07/16 20:25:31  5-MIN K9L2 080425Z AUTO 32006KT 10SM CLR 09/M07 A3032 1940 31 1800 310/06 RMK AO2 $
53144K9L2 9L220160207203010202/07/16 20:30:31  5-MIN K9L2 080430Z AUTO 33006KT 10SM CLR 10/M07 A3032 1940 30 1800 310/06 RMK AO2 $
53144K9L2 9L220160207203510202/07/16 20:35:31  5-MIN K9L2 080435Z AUTO 33005KT 10SM CLR 10/M07 A3032 1930 30 1800 320/05 RMK AO2 $
53144K9L2 9L220160207204010202/07/16 20:40:31  5-MIN K9L2 080440Z AUTO 33005KT 10SM CLR 09/M07 A3032 1930 31 1800 310/05 RMK AO2 $
53144K9L2 9L220160207204510202/07/16 20:45:31  5-MIN K9L2 080445Z AUTO 33006KT 10SM CLR 09/M07 A3032 1930 31 1800 310/06 RMK AO2 $
53144K9L2 9L220160207205010202/07/16 20:50:31  5-MIN K9L2 080450Z AUTO 34004KT 10SM CLR 09/M07 A3032 1930 31 1800 320/04 RMK AO2 $
53144K9L2 9L220160207205511902/07/16 20:55:31  5-MIN K9L2 080455Z AUTO 32005KT 10SM CLR 08/M06 A3032 1930 35 1600 310/05 RMK AO2 SLP278 T00831061 $
53144K9L2 9L220160207210010202/07/16 21:00:31  5-MIN K9L2 080500Z AUTO 32005KT 10SM CLR 08/M06 A3032 1930 35 1600 310/05 RMK AO2 $
53144K9L2 9L220160207210510202/07/16 21:05:31  5-MIN K9L2 080505Z AUTO 32004KT 10SM CLR 07/M06 A3032 1930 38 1500 310/04 RMK AO2 $
53144K9L2 9L220160207211010202/07/16 21:10:31  5-MIN K9L2 080510Z AUTO 32003KT 10SM CLR 07/M06 A3032 1930 38 1500 310/03 RMK AO2 $
53144K9L2 9L220160207211510202/07/16 21:15:31  5-MIN K9L2 080515Z AUTO 33003KT 10SM CLR 07/M06 A3032 1940 39 1400 320/03 RMK AO2 $
53144K9L2 9L220160207212010202/07/16 21:20:31  5-MIN K9L2 080520Z AUTO 00000KT 10SM CLR 06/M06 A3032 1930 43 1400 000/00 RMK AO2 $
53144K9L2 9L220160207212510202/07/16 21:25:31  5-MIN K9L2 080525Z AUTO 00000KT 10SM CLR 07/M06 A3032 1930 41 1400 000/00 RMK AO2 $
53144K9L2 9L220160207213010202/07/16 21:30:31  5-MIN K9L2 080530Z AUTO 00000KT 10SM CLR 07/M06 A3032 1930 39 1400 000/00 RMK AO2 $
53144K9L2 9L220160207213510202/07/16 21:35:31  5-MIN K9L2 080535Z AUTO 00000KT 10SM CLR 07/M06 A3033 1930 41 1400 000/00 RMK AO2 $
53144K9L2 9L220160207214010202/07/16 21:40:31  5-MIN K9L2 080540Z AUTO 28004KT 10SM CLR 07/M06 A3033 1930 40 1500 260/04 RMK AO2 $
53144K9L2 9L220160207214510202/07/16 21:45:31  5-MIN K9L2 080545Z AUTO 29004KT 10SM CLR 07/M06 A3033 1930 41 1400 280/04 RMK AO2 $
53144K9L2 9L220160207215010202/07/16 21:50:31  5-MIN K9L2 080550Z AUTO 28003KT 10SM CLR 08/M06 A3033 1930 38 1600 270/03 RMK AO2 $
53144K9L2 9L220160207215513702/07/16 21:55:31  5-MIN K9L2 080555Z AUTO 29003KT 10SM CLR 07/M06 A3033 1930 40 1500 280/03 RMK AO2 SLP278 T00721056 10222 20061 53009 $
53144K9L2 9L220160207220010202/07/16 22:00:31  5-MIN K9L2 080600Z AUTO 00000KT 10SM CLR 07/M06 A3033 1930 40 1500 000/00 RMK AO2 $
53144K9L2 9L220160207220510202/07/16 22:05:31  5-MIN K9L2 080605Z AUTO 00000KT 10SM CLR 07/M06 A3033 1930 40 1500 000/00 RMK AO2 $
53144K9L2 9L220160207221010202/07/16 22:10:31  5-MIN K9L2 080610Z AUTO 32003KT 10SM CLR 07/M06 A3033 1930 40 1500 310/03 RMK AO2 $
53144K9L2 9L220160207221510202/07/16 22:15:31  5-MIN K9L2 080615Z AUTO 31004KT 10SM CLR 07/M06 A3033 1930 40 1500 290/04 RMK AO2 $
53144K9L2 9L220160207222010202/07/16 22:20:31  5-MIN K9L2 080620Z AUTO 00000KT 10SM CLR 07/M06 A3033 1920 40 1500 000/00 RMK AO2 $
53144K9L2 9L220160207222510202/07/16 22:25:31  5-MIN K9L2 080625Z AUTO 00000KT 10SM CLR 07/M06 A3033 1920 40 1500 000/00 RMK AO2 $
53144K9L2 9L220160207223010202/07/16 22:30:31  5-MIN K9L2 080630Z AUTO 30004KT 10SM CLR 07/M06 A3033 1920 41 1400 290/04 RMK AO2 $
53144K9L2 9L220160207223510202/07/16 22:35:31  5-MIN K9L2 080635Z AUTO 00000KT 10SM CLR 07/M05 A3033 1920 41 1500 000/00 RMK AO2 $
53144K9L2 9L220160207224010202/07/16 22:40:31  5-MIN K9L2 080640Z AUTO 00000KT 10SM CLR 07/M05 A3033 1920 41 1500 000/00 RMK AO2 $
53144K9L2 9L220160207224510202/07/16 22:45:31  5-MIN K9L2 080645Z AUTO 00000KT 10SM CLR 06/M05 A3034 1920 45 1400 000/00 RMK AO2 $
53144K9L2 9L220160207225010202/07/16 22:50:31  5-MIN K9L2 080650Z AUTO 00000KT 10SM CLR 06/M05 A3034 1920 45 1300 000/00 RMK AO2 $
53144K9L2 9L220160207225511902/07/16 22:55:31  5-MIN K9L2 080655Z AUTO 00000KT 10SM CLR 06/M05 A3034 1920 45 1300 000/00 RMK AO2 SLP278 T00611050 $
53144K9L2 9L220160207230010202/07/16 23:00:31  5-MIN K9L2 080700Z AUTO 00000KT 10SM CLR 06/M05 A3034 1920 45 1300 000/00 RMK AO2 $
53144K9L2 9L220160207230510202/07/16 23:05:31  5-MIN K9L2 080705Z AUTO 00000KT 10SM CLR 06/M05 A3034 1920 45 1300 000/00 RMK AO2 $
53144K9L2 9L220160207231010202/07/16 23:10:31  5-MIN K9L2 080710Z AUTO 35003KT 10SM CLR 06/M05 A3034 1920 45 1300 330/03 RMK AO2 $
53144K9L2 9L220160207231510202/07/16 23:15:31  5-MIN K9L2 080715Z AUTO 00000KT 10SM CLR 06/M05 A3034 1920 45 1300 000/00 RMK AO2 $
53144K9L2 9L220160207232010202/07/16 23:20:31  5-MIN K9L2 080720Z AUTO 00000KT 10SM CLR 06/M05 A3034 1920 46 1300 000/00 RMK AO2 $
53144K9L2 9L220160207232510202/07/16 23:25:31  5-MIN K9L2 080725Z AUTO 00000KT 10SM CLR 05/M05 A3034 1920 48 1200 000/00 RMK AO2 $
53144K9L2 9L220160207233010202/07/16 23:30:31  5-MIN K9L2 080730Z AUTO 00000KT 10SM CLR 05/M05 A3034 1920 48 1200 000/00 RMK AO2 $
53144K9L2 9L220160207233510202/07/16 23:35:31  5-MIN K9L2 080735Z AUTO 00000KT 10SM CLR 05/M05 A3034 1920 48 1200 000/00 RMK AO2 $
53144K9L2 9L220160207234010202/07/16 23:40:31  5-MIN K9L2 080740Z AUTO 00000KT 10SM CLR 05/M05 A3034 1920 48 1200 000/00 RMK AO2 $
53144K9L2 9L220160207234510202/07/16 23:45:31  5-MIN K9L2 080745Z AUTO 00000KT 10SM CLR 06/M05 A3034 1920 46 1300 000/00 RMK AO2 $
53144K9L2 9L220160207235010202/07/16 23:50:31  5-MIN K9L2 080750Z AUTO 34004KT 10SM CLR 06/M05 A3034 1920 46 1300 330/04 RMK AO2 $
53144K9L2 9L220160207235512902/07/16 23:55:31  5-MIN K9L2 080755Z AUTO 01003KT 10SM CLR 06/M05 A3034 1920 45 1300 360/03 RMK AO2 SLP275 T00611050 402331017 $
53144K9L2 9L220160208023008602/08/16 02:30:31  5-MIN K9L2 081030Z AUTO 36008KT M M M 350/08 RMK AO2 PWINO FZRANO $
53144K9L2 9L220160208023509302/08/16 02:35:31  5-MIN K9L2 081035Z AUTO 36007KT 08/M05 A3033 1930 40 1600 350/07 RMK AO2 $
53144K9L2 9L220160208024009802/08/16 02:40:31  5-MIN K9L2 081040Z AUTO 36006KT 10SM 08/M05 A3033 1930 40 1600 350/06 RMK AO2 $
53144K9L2 9L220160208024509802/08/16 02:45:31  5-MIN K9L2 081045Z AUTO 36003KT 10SM 07/M05 A3033 1930 41 1500 340/03 RMK AO2 $
53144K9L2 9L220160208025009802/08/16 02:50:31  5-MIN K9L2 081050Z AUTO 00000KT 10SM 07/M05 A3033 1930 43 1400 000/00 RMK AO2 $
53144K9L2 9L220160208025511502/08/16 02:55:31  5-MIN K9L2 081055Z AUTO 00000KT 10SM 06/M05 A3033 1930 45 1400 000/00 RMK AO2 SLP272 T00611050 $
53144K9L2 9L220160208030010202/08/16 03:00:31  5-MIN K9L2 081100Z AUTO 00000KT 10SM CLR 06/M05 A3033 1930 45 1400 000/00 RMK AO2 $
53144K9L2 9L220160208030510202/08/16 03:05:31  5-MIN K9L2 081105Z AUTO 00000KT 10SM CLR 06/M05 A3033 1930 46 1300 000/00 RMK AO2 $
53144K9L2 9L220160208031010202/08/16 03:10:31  5-MIN K9L2 081110Z AUTO 00000KT 10SM CLR 06/M05 A3033 1930 46 1300 000/00 RMK AO2 $
53144K9L2 9L220160208031510202/08/16 03:15:31  5-MIN K9L2 081115Z AUTO 00000KT 10SM CLR 06/M05 A3033 1930 46 1300 000/00 RMK AO2 $
53144K9L2 9L220160208032010202/08/16 03:20:31  5-MIN K9L2 081120Z AUTO 00000KT 10SM CLR 05/M05 A3033 1930 48 1200 000/00 RMK AO2 $
53144K9L2 9L220160208032510202/08/16 03:25:31  5-MIN K9L2 081125Z AUTO 00000KT 10SM CLR 06/M05 A3033 1930 46 1300 000/00 RMK AO2 $
53144K9L2 9L220160208033010202/08/16 03:30:31  5-MIN K9L2 081130Z AUTO 00000KT 10SM CLR 05/M05 A3032 1930 48 1200 000/00 RMK AO2 $
53144K9L2 9L220160208033510202/08/16 03:35:31  5-MIN K9L2 081135Z AUTO 00000KT 10SM CLR 04/M05 A3032 1930 50 1200 000/00 RMK AO2 $
53144K9L2 9L220160208034010202/08/16 03:40:31  5-MIN K9L2 081140Z AUTO 35004KT 10SM CLR 04/M05 A3033 1930 52 1100 340/04 RMK AO2 $
53144K9L2 9L220160208034510202/08/16 03:45:31  5-MIN K9L2 081145Z AUTO 36003KT 10SM CLR 04/M05 A3033 1930 50 1200 350/03 RMK AO2 $
53144K9L2 9L220160208035010202/08/16 03:50:31  5-MIN K9L2 081150Z AUTO 36003KT 10SM CLR 05/M05 A3033 1930 48 1200 350/03 RMK AO2 $
53144K9L2 9L220160208035514302/08/16 03:55:31  5-MIN K9L2 081155Z AUTO 33004KT 10SM CLR 04/M05 A3033 1920 52 1100 310/04 RMK AO2 SLP273 6//// 7//// T00391050 10100 20039 $
53144K9L2 9L220160208040010202/08/16 04:00:31  5-MIN K9L2 081200Z AUTO 00000KT 10SM CLR 03/M05 A3033 1920 54 1000 000/00 RMK AO2 $
53144K9L2 9L220160208040510202/08/16 04:05:31  5-MIN K9L2 081205Z AUTO 28003KT 10SM CLR 03/M05 A3033 1920 54 1000 270/03 RMK AO2 $
53144K9L2 9L220160208041010202/08/16 04:10:31  5-MIN K9L2 081210Z AUTO 31004KT 10SM CLR 04/M05 A3033 1920 52 1100 290/04 RMK AO2 $
53144K9L2 9L220160208041510202/08/16 04:15:31  5-MIN K9L2 081215Z AUTO 31004KT 10SM CLR 03/M05 A3033 1920 54 1000 300/04 RMK AO2 $
53144K9L2 9L220160208042010202/08/16 04:20:31  5-MIN K9L2 081220Z AUTO 33004KT 10SM CLR 04/M05 A3034 1920 50 1100 320/04 RMK AO2 $
53144K9L2 9L220160208042510202/08/16 04:25:31  5-MIN K9L2 081225Z AUTO 33003KT 10SM CLR 05/M05 A3034 1920 48 1200 320/03 RMK AO2 $
53144K9L2 9L220160208043010202/08/16 04:30:31  5-MIN K9L2 081230Z AUTO 34003KT 10SM CLR 04/M05 A3034 1920 50 1100 330/03 RMK AO2 $
53144K9L2 9L220160208043510202/08/16 04:35:31  5-MIN K9L2 081235Z AUTO 35003KT 10SM CLR 04/M05 A3034 1920 50 1100 330/03 RMK AO2 $
53144K9L2 9L220160208044010202/08/16 04:40:31  5-MIN K9L2 081240Z AUTO 33003KT 10SM CLR 04/M05 A3034 1910 52 1100 320/03 RMK AO2 $
53144K9L2 9L220160208044510802/08/16 04:45:31  5-MIN K9L2 081245Z AUTO 00000KT 10SM CLR 02/M05 A3034 1910 59 900 000/00 RMK AO2 FZRANO $
53144K9L2 9L220160208045010102/08/16 04:50:31  5-MIN K9L2 081250Z AUTO 32003KT 10SM CLR 03/M05 A3034 1910 56 900 300/03 RMK AO2 $
53144K9L2 9L220160208045511802/08/16 04:55:31  5-MIN K9L2 081255Z AUTO 32004KT 10SM CLR 03/M05 A3035 1910 56 900 310/04 RMK AO2 SLP277 T00281050 $
53144K9L2 9L220160208050010202/08/16 05:00:31  5-MIN K9L2 081300Z AUTO 34006KT 10SM CLR 03/M05 A3035 1910 54 1000 320/06 RMK AO2 $
53144K9L2 9L220160208050510202/08/16 05:05:31  5-MIN K9L2 081305Z AUTO 35008KT 10SM CLR 04/M05 A3035 1910 50 1100 330/08 RMK AO2 $
53144K9L2 9L220160208051010202/08/16 05:10:31  5-MIN K9L2 081310Z AUTO 35007KT 10SM CLR 06/M05 A3035 1910 46 1300 340/07 RMK AO2 $
53144K9L2 9L220160208051510202/08/16 05:15:31  5-MIN K9L2 081315Z AUTO 36008KT 10SM CLR 06/M06 A3035 1910 44 1300 350/08 RMK AO2 $
53144K9L2 9L220160208052010202/08/16 05:20:31  5-MIN K9L2 081320Z AUTO 36008KT 10SM CLR 06/M06 A3035 1910 44 1300 350/08 RMK AO2 $
53144K9L2 9L220160208052510202/08/16 05:25:31  5-MIN K9L2 081325Z AUTO 36006KT 10SM CLR 06/M05 A3035 1910 46 1300 350/06 RMK AO2 $
53144K9L2 9L220160208053010202/08/16 05:30:31  5-MIN K9L2 081330Z AUTO 01007KT 10SM CLR 05/M06 A3035 1910 46 1200 350/07 RMK AO2 $
53144K9L2 9L220160208053510202/08/16 05:35:31  5-MIN K9L2 081335Z AUTO 36006KT 10SM CLR 05/M05 A3035 1910 48 1200 350/06 RMK AO2 $
53144K9L2 9L220160208054010202/08/16 05:40:31  5-MIN K9L2 081340Z AUTO 01008KT 10SM CLR 05/M05 A3035 1910 48 1200 360/08 RMK AO2 $
53144K9L2 9L220160208054510202/08/16 05:45:31  5-MIN K9L2 081345Z AUTO 01008KT 10SM CLR 06/M06 A3035 1910 44 1300 360/08 RMK AO2 $
53144K9L2 9L220160208055010202/08/16 05:50:31  5-MIN K9L2 081350Z AUTO 02009KT 10SM CLR 05/M06 A3035 1910 46 1200 360/09 RMK AO2 $
53144K9L2 9L220160208055511902/08/16 05:55:31  5-MIN K9L2 081355Z AUTO 02008KT 10SM CLR 06/M06 A3035 1910 44 1300 010/08 RMK AO2 SLP275 T00561056 $
53144K9L2 9L220160208060010202/08/16 06:00:31  5-MIN K9L2 081400Z AUTO 03008KT 10SM CLR 06/M06 A3035 1910 44 1300 020/08 RMK AO2 $
53144K9L2 9L220160208060510202/08/16 06:05:31  5-MIN K9L2 081405Z AUTO 03008KT 10SM CLR 05/M06 A3035 1910 46 1200 010/08 RMK AO2 $
53144K9L2 9L220160208061010202/08/16 06:10:31  5-MIN K9L2 081410Z AUTO 02007KT 10SM CLR 05/M06 A3035 1910 46 1200 010/07 RMK AO2 $
53144K9L2 9L220160208061510202/08/16 06:15:31  5-MIN K9L2 081415Z AUTO 01008KT 10SM CLR 04/M05 A3035 1900 50 1100 360/08 RMK AO2 $
53144K9L2 9L220160208062010202/08/16 06:20:31  5-MIN K9L2 081420Z AUTO 02008KT 10SM CLR 05/M05 A3035 1910 48 1200 360/08 RMK AO2 $
53144K9L2 9L220160208062510202/08/16 06:25:31  5-MIN K9L2 081425Z AUTO 02008KT 10SM CLR 05/M05 A3035 1910 48 1200 360/08 RMK AO2 $
53144K9L2 9L220160208063010202/08/16 06:30:31  5-MIN K9L2 081430Z AUTO 01007KT 10SM CLR 04/M05 A3035 1900 50 1100 360/07 RMK AO2 $
53144K9L2 9L220160208063510202/08/16 06:35:31  5-MIN K9L2 081435Z AUTO 02007KT 10SM CLR 05/M05 A3035 1900 48 1200 010/07 RMK AO2 $
53144K9L2 9L220160208064010202/08/16 06:40:31  5-MIN K9L2 081440Z AUTO 01008KT 10SM CLR 06/M05 A3036 1900 46 1300 350/08 RMK AO2 $
53144K9L2 9L220160208064510202/08/16 06:45:31  5-MIN K9L2 081445Z AUTO 36007KT 10SM CLR 05/M05 A3036 1900 48 1200 350/07 RMK AO2 $
53144K9L2 9L220160208065010202/08/16 06:50:31  5-MIN K9L2 081450Z AUTO 01008KT 10SM CLR 05/M05 A3036 1900 48 1200 360/08 RMK AO2 $
53144K9L2 9L220160208065511902/08/16 06:55:31  5-MIN K9L2 081455Z AUTO 01008KT 10SM CLR 06/M05 A3036 1900 46 1300 350/08 RMK AO2 SLP280 T00561050 $
53144K9L2 9L220160208070010202/08/16 07:00:31  5-MIN K9L2 081500Z AUTO 02007KT 10SM CLR 06/M05 A3036 1900 45 1300 360/07 RMK AO2 $
53144K9L2 9L220160208070510202/08/16 07:05:31  5-MIN K9L2 081505Z AUTO 02008KT 10SM CLR 07/M05 A3036 1900 43 1400 010/08 RMK AO2 $
53144K9L2 9L220160208071010202/08/16 07:10:31  5-MIN K9L2 081510Z AUTO 02008KT 10SM CLR 06/M05 A3036 1900 45 1300 010/08 RMK AO2 $
53144K9L2 9L220160208071510202/08/16 07:15:31  5-MIN K9L2 081515Z AUTO 02008KT 10SM CLR 07/M05 A3036 1890 43 1400 360/08 RMK AO2 $
53144K9L2 9L220160208072010202/08/16 07:20:31  5-MIN K9L2 081520Z AUTO 02007KT 10SM CLR 08/M05 A3036 1890 40 1500 010/07 RMK AO2 $
53144K9L2 9L220160208072510202/08/16 07:25:31  5-MIN K9L2 081525Z AUTO 02006KT 10SM CLR 09/M05 A3036 1890 37 1700 010/06 RMK AO2 $
53144K9L2 9L220160208073010202/08/16 07:30:31  5-MIN K9L2 081530Z AUTO 02007KT 10SM CLR 09/M05 A3037 1890 35 1700 010/07 RMK AO2 $
53144K9L2 9L220160208073510202/08/16 07:35:31  5-MIN K9L2 081535Z AUTO 03007KT 10SM CLR 09/M04 A3037 1890 37 1700 020/07 RMK AO2 $
53144K9L2 9L220160208074010202/08/16 07:40:31  5-MIN K9L2 081540Z AUTO 03006KT 10SM CLR 10/M04 A3037 1890 36 1800 010/06 RMK AO2 $
53144K9L2 9L220160208074510202/08/16 07:45:31  5-MIN K9L2 081545Z AUTO 02005KT 10SM CLR 10/M04 A3037 1890 37 1800 010/05 RMK AO2 $
53144K9L2 9L220160208075010202/08/16 07:50:31  5-MIN K9L2 081550Z AUTO 02006KT 10SM CLR 09/M04 A3037 1890 39 1700 010/06 RMK AO2 $
53144K9L2 9L220160208075511902/08/16 07:55:31  5-MIN K9L2 081555Z AUTO 03004KT 10SM CLR 10/M04 A3037 1890 37 1800 010/04 RMK AO2 SLP282 T01001039 $
53144K9L2 9L220160208080010202/08/16 08:00:31  5-MIN K9L2 081600Z AUTO 00000KT 10SM CLR 11/M04 A3037 1890 36 1800 000/00 RMK AO2 $
53144K9L2 9L220160208080510202/08/16 08:05:31  5-MIN K9L2 081605Z AUTO 00000KT 10SM CLR 11/M03 A3037 1890 36 1900 000/00 RMK AO2 $
53144K9L2 9L220160208081010202/08/16 08:10:31  5-MIN K9L2 081610Z AUTO 00000KT 10SM CLR 12/M04 A3037 1890 33 2000 000/00 RMK AO2 $
53144K9L2 9L220160208081510202/08/16 08:15:31  5-MIN K9L2 081615Z AUTO 02003KT 10SM CLR 12/M04 A3037 1890 33 2000 010/03 RMK AO2 $
53144K9L2 9L220160208082010202/08/16 08:20:31  5-MIN K9L2 081620Z AUTO 02003KT 10SM CLR 12/M03 A3037 1890 33 2000 010/03 RMK AO2 $
53144K9L2 9L220160208082510202/08/16 08:25:31  5-MIN K9L2 081625Z AUTO 00000KT 10SM CLR 13/M03 A3037 1890 32 2100 000/00 RMK AO2 $
53144K9L2 9L220160208083010202/08/16 08:30:31  5-MIN K9L2 081630Z AUTO 01003KT 10SM CLR 13/M03 A3038 1880 32 2100 360/03 RMK AO2 $
53144K9L2 9L220160208083510202/08/16 08:35:31  5-MIN K9L2 081635Z AUTO 00000KT 10SM CLR 13/M03 A3038 1880 31 2200 000/00 RMK AO2 $
53144K9L2 9L220160208084010202/08/16 08:40:31  5-MIN K9L2 081640Z AUTO 04003KT 10SM CLR 14/M04 A3038 1880 29 2200 030/03 RMK AO2 $
53144K9L2 9L220160208084510202/08/16 08:45:31  5-MIN K9L2 081645Z AUTO 04004KT 10SM CLR 14/M04 A3038 1880 26 2300 020/04 RMK AO2 $
53144K9L2 9L220160208085010202/08/16 08:50:31  5-MIN K9L2 081650Z AUTO 00000KT 10SM CLR 14/M04 A3038 1880 29 2200 000/00 RMK AO2 $
53144K9L2 9L220160208085511902/08/16 08:55:31  5-MIN K9L2 081655Z AUTO 00000KT 10SM CLR 14/M04 A3038 1880 29 2200 000/00 RMK AO2 SLP287 T01391039 $
53144K9L2 9L220160208090010202/08/16 09:00:31  5-MIN K9L2 081700Z AUTO 00000KT 10SM CLR 13/M04 A3038 1880 28 2200 000/00 RMK AO2 $
53144K9L2 9L220160208090510202/08/16 09:05:31  5-MIN K9L2 081705Z AUTO 00000KT 10SM CLR 14/M04 A3038 1880 26 2300 000/00 RMK AO2 $
53144K9L2 9L220160208091010202/08/16 09:10:31  5-MIN K9L2 081710Z AUTO 00000KT 10SM CLR 14/M04 A3038 1880 26 2300 000/00 RMK AO2 $
53144K9L2 9L220160208091510202/08/16 09:15:31  5-MIN K9L2 081715Z AUTO VRB03KT 10SM CLR 15/M04 A3038 1880 25 2400 VRB/03 RMK AO2 $
53144K9L2 9L220160208092010202/08/16 09:20:31  5-MIN K9L2 081720Z AUTO 01003KT 10SM CLR 16/M04 A3038 1880 24 2500 360/03 RMK AO2 $
53144K9L2 9L220160208092510202/08/16 09:25:31  5-MIN K9L2 081725Z AUTO 03004KT 10SM CLR 17/M05 A3038 1880 22 2500 010/04 RMK AO2 $
53144K9L2 9L220160208093010202/08/16 09:30:31  5-MIN K9L2 081730Z AUTO 04005KT 10SM CLR 17/M06 A3038 1880 21 2500 030/05 RMK AO2 $
53144K9L2 9L220160208093510202/08/16 09:35:31  5-MIN K9L2 081735Z AUTO 05004KT 10SM CLR 17/M06 A3038 1880 21 2500 030/04 RMK AO2 $
53144K9L2 9L220160208094010202/08/16 09:40:31  5-MIN K9L2 081740Z AUTO 05003KT 10SM CLR 17/M05 A3038 1880 21 2600 030/03 RMK AO2 $
53144K9L2 9L220160208094510202/08/16 09:45:31  5-MIN K9L2 081745Z AUTO 04005KT 10SM CLR 17/M05 A3038 1880 21 2600 030/05 RMK AO2 $
53144K9L2 9L220160208095010202/08/16 09:50:31  5-MIN K9L2 081750Z AUTO 00000KT 10SM CLR 17/M05 A3038 1880 21 2600 000/00 RMK AO2 $
53144K9L2 9L220160208095513702/08/16 09:55:31  5-MIN K9L2 081755Z AUTO 05004KT 10SM CLR 18/M05 A3038 1880 20 2700 040/04 RMK AO2 SLP286 T01781050 10178 20022 51009 $
53144K9L2 9L220160208100010202/08/16 10:00:31  5-MIN K9L2 081800Z AUTO 07004KT 10SM CLR 18/M05 A3038 1880 20 2700 050/04 RMK AO2 $
53144K9L2 9L220160208100510202/08/16 10:05:31  5-MIN K9L2 081805Z AUTO 06003KT 10SM CLR 18/M06 A3038 1880 19 2700 040/03 RMK AO2 $
53144K9L2 9L220160208101010202/08/16 10:10:31  5-MIN K9L2 081810Z AUTO VRB04KT 10SM CLR 19/M06 A3038 1880 18 2800 VRB/04 RMK AO2 $
53144K9L2 9L220160208101510202/08/16 10:15:31  5-MIN K9L2 081815Z AUTO 07005KT 10SM CLR 18/M06 A3038 1880 19 2700 060/05 RMK AO2 $
53144K9L2 9L220160208102010202/08/16 10:20:31  5-MIN K9L2 081820Z AUTO 10004KT 10SM CLR 19/M06 A3038 1880 17 2800 080/04 RMK AO2 $
53144K9L2 9L220160208102510202/08/16 10:25:31  5-MIN K9L2 081825Z AUTO 12005KT 10SM CLR 18/M06 A3038 1880 18 2700 110/05 RMK AO2 $
53144K9L2 9L220160208103010202/08/16 10:30:31  5-MIN K9L2 081830Z AUTO 08007KT 10SM CLR 19/M06 A3037 1890 17 2900 070/07 RMK AO2 $
53144K9L2 9L220160208103510202/08/16 10:35:31  5-MIN K9L2 081835Z AUTO 09009KT 10SM CLR 19/M06 A3037 1890 17 2900 080/09 RMK AO2 $
53144K9L2 9L220160208104010202/08/16 10:40:31  5-MIN K9L2 081840Z AUTO 08008KT 10SM CLR 19/M07 A3037 1890 16 2900 070/08 RMK AO2 $
53144K9L2 9L220160208104510202/08/16 10:45:31  5-MIN K9L2 081845Z AUTO 08009KT 10SM CLR 20/M06 A3037 1890 16 2900 060/09 RMK AO2 $
53144K9L2 9L220160208105010202/08/16 10:50:31  5-MIN K9L2 081850Z AUTO 09008KT 10SM CLR 20/M06 A3037 1890 16 2900 070/08 RMK AO2 $
53144K9L2 9L220160208105511902/08/16 10:55:31  5-MIN K9L2 081855Z AUTO 09009KT 10SM CLR 20/M06 A3037 1890 16 2900 080/09 RMK AO2 SLP281 T02001061 $
53144K9L2 9L220160208110010202/08/16 11:00:31  5-MIN K9L2 081900Z AUTO 09010KT 10SM CLR 20/M06 A3036 1890 16 3000 080/10 RMK AO2 $
53144K9L2 9L220160208110510202/08/16 11:05:31  5-MIN K9L2 081905Z AUTO 10008KT 10SM CLR 20/M06 A3036 1900 16 3000 080/08 RMK AO2 $
53144K9L2 9L220160208111010202/08/16 11:10:31  5-MIN K9L2 081910Z AUTO 09009KT 10SM CLR 21/M06 A3036 1900 16 3000 080/09 RMK AO2 $
53144K9L2 9L220160208111510202/08/16 11:15:31  5-MIN K9L2 081915Z AUTO 10010KT 10SM CLR 21/M06 A3036 1900 16 3000 080/10 RMK AO2 $
53144K9L2 9L220160208112010202/08/16 11:20:31  5-MIN K9L2 081920Z AUTO 09009KT 10SM CLR 21/M06 A3036 1900 16 3000 080/09 RMK AO2 $
53144K9L2 9L220160208112510202/08/16 11:25:31  5-MIN K9L2 081925Z AUTO 09011KT 10SM CLR 21/M06 A3035 1900 15 3100 080/11 RMK AO2 $
53144K9L2 9L220160208113010202/08/16 11:30:31  5-MIN K9L2 081930Z AUTO 11011KT 10SM CLR 21/M06 A3035 1910 15 3100 090/11 RMK AO2 $
53144K9L2 9L220160208113510202/08/16 11:35:31  5-MIN K9L2 081935Z AUTO 09011KT 10SM CLR 21/M06 A3035 1910 15 3100 080/11 RMK AO2 $
53144K9L2 9L220160208114010202/08/16 11:40:31  5-MIN K9L2 081940Z AUTO 10012KT 10SM CLR 21/M06 A3035 1910 15 3100 080/12 RMK AO2 $
53144K9L2 9L220160208114510202/08/16 11:45:31  5-MIN K9L2 081945Z AUTO 10010KT 10SM CLR 22/M06 A3034 1910 15 3200 080/10 RMK AO2 $
53144K9L2 9L220160208115010202/08/16 11:50:31  5-MIN K9L2 081950Z AUTO 09008KT 10SM CLR 21/M06 A3034 1920 15 3100 080/08 RMK AO2 $
53144K9L2 9L220160208115511902/08/16 11:55:31  5-MIN K9L2 081955Z AUTO 10009KT 10SM CLR 22/M06 A3034 1920 15 3200 090/09 RMK AO2 SLP270 T02171061 $
53144K9L2 9L220160208120010202/08/16 12:00:31  5-MIN K9L2 082000Z AUTO 09009KT 10SM CLR 22/M06 A3033 1920 15 3200 080/09 RMK AO2 $
53144K9L2 9L220160208120510202/08/16 12:05:31  5-MIN K9L2 082005Z AUTO 10006KT 10SM CLR 22/M06 A3033 1930 15 3200 090/06 RMK AO2 $
53144K9L2 9L220160208121010202/08/16 12:10:31  5-MIN K9L2 082010Z AUTO 09010KT 10SM CLR 22/M06 A3033 1930 14 3200 080/10 RMK AO2 $
53144K9L2 9L220160208121510202/08/16 12:15:31  5-MIN K9L2 082015Z AUTO 09011KT 10SM CLR 23/M06 A3032 1930 14 3300 080/11 RMK AO2 $
53144K9L2 9L220160208122010202/08/16 12:20:31  5-MIN K9L2 082020Z AUTO 08009KT 10SM CLR 23/M07 A3032 1930 13 3300 070/09 RMK AO2 $
53144K9L2 9L220160208122510802/08/16 12:25:31  5-MIN K9L2 082025Z AUTO 07008G16KT 10SM CLR 23/M07 A3032 1940 13 3300 060/08G16 RMK AO2 $
53144K9L2 9L220160208123010202/08/16 12:30:31  5-MIN K9L2 082030Z AUTO 07008KT 10SM CLR 23/M07 A3031 1940 13 3300 050/08 RMK AO2 $
53144K9L2 9L220160208123510202/08/16 12:35:31  5-MIN K9L2 082035Z AUTO 08010KT 10SM CLR 23/M07 A3031 1940 13 3300 070/10 RMK AO2 $
53144K9L2 9L220160208124010202/08/16 12:40:31  5-MIN K9L2 082040Z AUTO 07008KT 10SM CLR 23/M07 A3031 1950 12 3400 050/08 RMK AO2 $
53144K9L2 9L220160208124510802/08/16 12:45:31  5-MIN K9L2 082045Z AUTO 05012G17KT 10SM CLR 23/M07 A3030 1950 12 3400 040/12G17 RMK AO2 $
53144K9L2 9L220160208125010802/08/16 12:50:31  5-MIN K9L2 082050Z AUTO 06013G22KT 10SM CLR 24/M08 A3030 1950 11 3500 050/13G22 RMK AO2 $
53144K9L2 9L220160208125513102/08/16 12:55:31  5-MIN K9L2 082055Z AUTO 03016G22KT 10SM CLR 24/M08 A3030 1960 11 3500 020/16G22 RMK AO2 SLP255 T02391083 51006 $
53144K9L2 9L220160208130010802/08/16 13:00:31  5-MIN K9L2 082100Z AUTO 05014G22KT 10SM CLR 24/M08 A3030 1960 11 3500 040/14G22 RMK AO2 $
53144K9L2 9L220160208130510802/08/16 13:05:31  5-MIN K9L2 082105Z AUTO 03017G22KT 10SM CLR 24/M08 A3029 1960 10 3500 010/17G22 RMK AO2 $
53144K9L2 9L220160208131010802/08/16 13:10:31  5-MIN K9L2 082110Z AUTO 04015G23KT 10SM CLR 24/M09 A3029 1960 10 3500 030/15G23 RMK AO2 $
53144K9L2 9L220160208131510802/08/16 13:15:31  5-MIN K9L2 082115Z AUTO 06016G23KT 10SM CLR 24/M09 A3029 1970 10 3500 040/16G23 RMK AO2 $
53144K9L2 9L220160208132010802/08/16 13:20:31  5-MIN K9L2 082120Z AUTO 04016G22KT 10SM CLR 24/M09 A3029 1970 10 3500 030/16G22 RMK AO2 $
53144K9L2 9L220160208132510802/08/16 13:25:31  5-MIN K9L2 082125Z AUTO 04014G20KT 10SM CLR 25/M09 A3028 1970 10 3600 030/14G20 RMK AO2 $
53144K9L2 9L220160208133010802/08/16 13:30:31  5-MIN K9L2 082130Z AUTO 05011G21KT 10SM CLR 25/M09 A3028 1970 09 3600 030/11G21 RMK AO2 $
53144K9L2 9L220160208133510802/08/16 13:35:31  5-MIN K9L2 082135Z AUTO 05015G21KT 10SM CLR 25/M09 A3028 1970 09 3600 040/15G21 RMK AO2 $
53144K9L2 9L220160208134010802/08/16 13:40:31  5-MIN K9L2 082140Z AUTO 06016G21KT 10SM CLR 24/M09 A3028 1970 10 3500 050/16G21 RMK AO2 $
53144K9L2 9L220160208134510802/08/16 13:45:31  5-MIN K9L2 082145Z AUTO 07013G21KT 10SM CLR 24/M09 A3028 1970 10 3500 060/13G21 RMK AO2 $
53144K9L2 9L220160208135010802/08/16 13:50:31  5-MIN K9L2 082150Z AUTO 06012G20KT 10SM CLR 24/M09 A3028 1980 10 3600 050/12G20 RMK AO2 $
53144K9L2 9L220160208135512502/08/16 13:55:31  5-MIN K9L2 082155Z AUTO 07014G20KT 10SM CLR 24/M10 A3027 1980 09 3600 050/14G20 RMK AO2 SLP247 T02441100 $
53144K9L2 9L220160208140010802/08/16 14:00:31  5-MIN K9L2 082200Z AUTO 07013G21KT 10SM CLR 24/M09 A3027 1980 10 3600 050/13G21 RMK AO2 $
53144K9L2 9L220160208140510802/08/16 14:05:31  5-MIN K9L2 082205Z AUTO 05014G21KT 10SM CLR 25/M10 A3027 1980 09 3600 040/14G21 RMK AO2 $
53144K9L2 9L220160208141010802/08/16 14:10:31  5-MIN K9L2 082210Z AUTO 06012G20KT 10SM CLR 24/M10 A3027 1980 09 3600 050/12G20 RMK AO2 $
53144K9L2 9L220160208141510202/08/16 14:15:31  5-MIN K9L2 082215Z AUTO 07014KT 10SM CLR 24/M09 A3027 1980 10 3600 060/14 RMK AO2 $
53144K9L2 9L220160208142010202/08/16 14:20:31  5-MIN K9L2 082220Z AUTO 07013KT 10SM CLR 24/M09 A3027 1980 10 3600 060/13 RMK AO2 $
53144K9L2 9L220160208142510202/08/16 14:25:31  5-MIN K9L2 082225Z AUTO 08011KT 10SM CLR 24/M09 A3027 1980 10 3600 070/11 RMK AO2 $
53144K9L2 9L220160208143010202/08/16 14:30:31  5-MIN K9L2 082230Z AUTO 08013KT 10SM CLR 24/M09 A3027 1980 10 3600 060/13 RMK AO2 $
53144K9L2 9L220160208143510202/08/16 14:35:31  5-MIN K9L2 082235Z AUTO 07012KT 10SM CLR 24/M10 A3026 1990 09 3600 060/12 RMK AO2 $
53144K9L2 9L220160208144010802/08/16 14:40:31  5-MIN K9L2 082240Z AUTO 08015G19KT 10SM CLR 25/M09 A3026 1990 09 3600 060/15G19 RMK AO2 $
53144K9L2 9L220160208144510802/08/16 14:45:31  5-MIN K9L2 082245Z AUTO 09011G19KT 10SM CLR 24/M09 A3026 1990 10 3600 070/11G19 RMK AO2 $
53144K9L2 9L220160208145010202/08/16 14:50:31  5-MIN K9L2 082250Z AUTO 08013KT 10SM CLR 25/M09 A3026 1990 09 3600 070/13 RMK AO2 $
53144K9L2 9L220160208145511902/08/16 14:55:31  5-MIN K9L2 082255Z AUTO 08011KT 10SM CLR 24/M10 A3026 1990 09 3600 070/11 RMK AO2 SLP243 T02441100 $
53144K9L2 9L220160208150010202/08/16 15:00:31  5-MIN K9L2 082300Z AUTO 08013KT 10SM CLR 25/M10 A3026 1990 09 3600 060/13 RMK AO2 $
53144K9L2 9L220160208150510202/08/16 15:05:31  5-MIN K9L2 082305Z AUTO 08012KT 10SM CLR 25/M09 A3026 1990 09 3600 070/12 RMK AO2 $
53144K9L2 9L220160208151010202/08/16 15:10:31  5-MIN K9L2 082310Z AUTO 08013KT 10SM CLR 25/M10 A3026 1990 09 3600 070/13 RMK AO2 $
53144K9L2 9L220160208151510202/08/16 15:15:31  5-MIN K9L2 082315Z AUTO 08013KT 10SM CLR 25/M10 A3026 1990 09 3600 070/13 RMK AO2 $
53144K9L2 9L220160208152010202/08/16 15:20:31  5-MIN K9L2 082320Z AUTO 07014KT 10SM CLR 24/M10 A3026 1990 09 3600 060/14 RMK AO2 $
53144K9L2 9L220160208152510202/08/16 15:25:31  5-MIN K9L2 082325Z AUTO 07013KT 10SM CLR 25/M11 A3026 1990 08 3600 050/13 RMK AO2 $
53144K9L2 9L220160208153010202/08/16 15:30:31  5-MIN K9L2 082330Z AUTO 07013KT 10SM CLR 24/M10 A3026 1990 09 3600 060/13 RMK AO2 $
53144K9L2 9L220160208153510202/08/16 15:35:31  5-MIN K9L2 082335Z AUTO 07011KT 10SM CLR 25/M10 A3026 1990 09 3600 050/11 RMK AO2 $
53144K9L2 9L220160208154010202/08/16 15:40:31  5-MIN K9L2 082340Z AUTO 06013KT 10SM CLR 25/M10 A3026 1990 09 3600 050/13 RMK AO2 $
53144K9L2 9L220160208154510202/08/16 15:45:31  5-MIN K9L2 082345Z AUTO 08009KT 10SM CLR 24/M09 A3026 1990 10 3600 070/09 RMK AO2 $
53144K9L2 9L220160208155010202/08/16 15:50:31  5-MIN K9L2 082350Z AUTO 08006KT 10SM CLR 24/M09 A3026 1990 10 3600 070/06 RMK AO2 $
53144K9L2 9L220160208155513702/08/16 15:55:31  5-MIN K9L2 082355Z AUTO 09009KT 10SM CLR 24/M10 A3026 1990 09 3600 080/09 RMK AO2 SLP244 T02441100 10250 20178 58028 $
53144K9L2 9L220160208160010202/08/16 16:00:31  5-MIN K9L2 090000Z AUTO 06009KT 10SM CLR 24/M09 A3026 1990 10 3600 050/09 RMK AO2 $
53144K9L2 9L220160208160510202/08/16 16:05:31  5-MIN K9L2 090005Z AUTO 09009KT 10SM CLR 24/M09 A3026 1990 10 3600 080/09 RMK AO2 $
53144K9L2 9L220160208161010202/08/16 16:10:31  5-MIN K9L2 090010Z AUTO 08008KT 10SM CLR 24/M09 A3026 1990 10 3500 070/08 RMK AO2 $
53144K9L2 9L220160208161510202/08/16 16:15:31  5-MIN K9L2 090015Z AUTO 09008KT 10SM CLR 24/M09 A3026 1990 10 3500 080/08 RMK AO2 $
53144K9L2 9L220160208162010202/08/16 16:20:31  5-MIN K9L2 090020Z AUTO 05009KT 10SM CLR 24/M09 A3026 1990 10 3600 040/09 RMK AO2 $
53144K9L2 9L220160208162510802/08/16 16:25:31  5-MIN K9L2 090025Z AUTO 05012G16KT 10SM CLR 24/M09 A3026 1990 10 3600 040/12G16 RMK AO2 $
53144K9L2 9L220160208163010202/08/16 16:30:31  5-MIN K9L2 090030Z AUTO 09009KT 10SM CLR 24/M09 A3026 1990 10 3500 070/09 RMK AO2 $
53144K9L2 9L220160208163510202/08/16 16:35:31  5-MIN K9L2 090035Z AUTO 09012KT 10SM CLR 23/M09 A3026 1990 11 3400 080/12 RMK AO2 $
53144K9L2 9L220160208164010202/08/16 16:40:31  5-MIN K9L2 090040Z AUTO 09011KT 10SM CLR 23/M08 A3026 1990 12 3400 080/11 RMK AO2 $
53144K9L2 9L220160208164510202/08/16 16:45:31  5-MIN K9L2 090045Z AUTO 09010KT 10SM CLR 23/M08 A3027 1980 12 3400 080/10 RMK AO2 $
53144K9L2 9L220160208165010202/08/16 16:50:31  5-MIN K9L2 090050Z AUTO 10011KT 10SM CLR 23/M08 A3027 1980 12 3400 080/11 RMK AO2 $
53144K9L2 9L220160208165511902/08/16 16:55:31  5-MIN K9L2 090055Z AUTO 09011KT 10SM CLR 22/M08 A3027 1980 12 3300 080/11 RMK AO2 SLP249 T02221083 $
53144K9L2 9L220160208170010202/08/16 17:00:31  5-MIN K9L2 090100Z AUTO 09012KT 10SM CLR 22/M08 A3027 1980 12 3300 080/12 RMK AO2 $
53144K9L2 9L220160208170510202/08/16 17:05:31  5-MIN K9L2 090105Z AUTO 10009KT 10SM CLR 22/M08 A3027 1980 12 3200 090/09 RMK AO2 $
53144K9L2 9L220160208171010202/08/16 17:10:31  5-MIN K9L2 090110Z AUTO 09008KT 10SM CLR 21/M08 A3027 1980 13 3200 080/08 RMK AO2 $
53144K9L2 9L220160208171510202/08/16 17:15:31  5-MIN K9L2 090115Z AUTO 09010KT 10SM CLR 21/M08 A3027 1980 13 3200 080/10 RMK AO2 $
53144K9L2 9L220160208172010202/08/16 17:20:31  5-MIN K9L2 090120Z AUTO 09010KT 10SM CLR 21/M08 A3027 1980 13 3200 080/10 RMK AO2 $
53144K9L2 9L220160208172510202/08/16 17:25:31  5-MIN K9L2 090125Z AUTO 09009KT 10SM CLR 21/M08 A3027 1980 13 3200 080/09 RMK AO2 $
53144K9L2 9L220160208173010202/08/16 17:30:31  5-MIN K9L2 090130Z AUTO 09008KT 10SM CLR 21/M08 A3027 1980 14 3100 070/08 RMK AO2 $
53144K9L2 9L220160208173510202/08/16 17:35:31  5-MIN K9L2 090135Z AUTO 09007KT 10SM CLR 20/M08 A3027 1980 14 3100 070/07 RMK AO2 $
53144K9L2 9L220160208174010202/08/16 17:40:31  5-MIN K9L2 090140Z AUTO 08008KT 10SM CLR 20/M08 A3027 1980 14 3100 070/08 RMK AO2 $
53144K9L2 9L220160208174510202/08/16 17:45:31  5-MIN K9L2 090145Z AUTO 08006KT 10SM CLR 19/M08 A3027 1980 15 3000 070/06 RMK AO2 $
53144K9L2 9L220160208175010202/08/16 17:50:31  5-MIN K9L2 090150Z AUTO 08007KT 10SM CLR 18/M08 A3027 1980 16 2900 070/07 RMK AO2 $
53144K9L2 9L220160208175511902/08/16 17:55:31  5-MIN K9L2 090155Z AUTO 08007KT 10SM CLR 18/M07 A3027 1980 17 2800 070/07 RMK AO2 SLP253 T01781072 $
53144K9L2 9L220160208180010202/08/16 18:00:31  5-MIN K9L2 090200Z AUTO 09006KT 10SM CLR 18/M07 A3027 1980 17 2900 070/06 RMK AO2 $
53144K9L2 9L220160208180510202/08/16 18:05:31  5-MIN K9L2 090205Z AUTO 08007KT 10SM CLR 18/M07 A3027 1980 17 2900 070/07 RMK AO2 $
53144K9L2 9L220160208181010202/08/16 18:10:31  5-MIN K9L2 090210Z AUTO 07006KT 10SM CLR 17/M07 A3028 1970 18 2700 060/06 RMK AO2 $
53144K9L2 9L220160208181510202/08/16 18:15:31  5-MIN K9L2 090215Z AUTO 07006KT 10SM CLR 16/M07 A3028 1970 20 2500 050/06 RMK AO2 $
53144K9L2 9L220160208182010202/08/16 18:20:31  5-MIN K9L2 090220Z AUTO 06006KT 10SM CLR 16/M07 A3028 1970 20 2500 040/06 RMK AO2 $
53144K9L2 9L220160208182510202/08/16 18:25:31  5-MIN K9L2 090225Z AUTO 06007KT 10SM CLR 16/M07 A3028 1970 20 2500 050/07 RMK AO2 $
53144K9L2 9L220160208183010202/08/16 18:30:31  5-MIN K9L2 090230Z AUTO 07008KT 10SM CLR 16/M07 A3028 1970 20 2500 060/08 RMK AO2 $
53144K9L2 9L220160208183510202/08/16 18:35:31  5-MIN K9L2 090235Z AUTO 07008KT 10SM CLR 17/M07 A3028 1970 18 2700 060/08 RMK AO2 $
53144K9L2 9L220160208184010202/08/16 18:40:31  5-MIN K9L2 090240Z AUTO 07007KT 10SM CLR 16/M07 A3028 1970 19 2600 060/07 RMK AO2 $
53144K9L2 9L220160208184510202/08/16 18:45:31  5-MIN K9L2 090245Z AUTO 07008KT 10SM CLR 16/M07 A3028 1970 19 2600 060/08 RMK AO2 $
53144K9L2 9L220160208185010202/08/16 18:50:31  5-MIN K9L2 090250Z AUTO 06008KT 10SM CLR 16/M07 A3028 1970 19 2600 050/08 RMK AO2 $
53144K9L2 9L220160208185512502/08/16 18:55:31  5-MIN K9L2 090255Z AUTO 06008KT 10SM CLR 16/M07 A3028 1970 20 2500 050/08 RMK AO2 SLP258 T01561072 56011 $
53144K9L2 9L220160208190010202/08/16 19:00:31  5-MIN K9L2 090300Z AUTO 07008KT 10SM CLR 16/M07 A3028 1970 19 2600 050/08 RMK AO2 $
53144K9L2 9L220160208190510202/08/16 19:05:31  5-MIN K9L2 090305Z AUTO 06008KT 10SM CLR 16/M07 A3029 1970 19 2600 050/08 RMK AO2 $
53144K9L2 9L220160208191010202/08/16 19:10:31  5-MIN K9L2 090310Z AUTO 07006KT 10SM CLR 16/M07 A3029 1970 19 2600 050/06 RMK AO2 $
53144K9L2 9L220160208191510202/08/16 19:15:31  5-MIN K9L2 090315Z AUTO 06006KT 10SM CLR 16/M07 A3029 1960 20 2500 050/06 RMK AO2 $
53144K9L2 9L220160208192010202/08/16 19:20:31  5-MIN K9L2 090320Z AUTO 06007KT 10SM CLR 15/M07 A3029 1960 21 2500 050/07 RMK AO2 $
53144K9L2 9L220160208192510202/08/16 19:25:31  5-MIN K9L2 090325Z AUTO 06007KT 10SM CLR 14/M07 A3029 1960 21 2400 040/07 RMK AO2 $
53144K9L2 9L220160208193010202/08/16 19:30:31  5-MIN K9L2 090330Z AUTO 06006KT 10SM CLR 14/M07 A3029 1960 21 2400 050/06 RMK AO2 $
53144K9L2 9L220160208193510202/08/16 19:35:31  5-MIN K9L2 090335Z AUTO 07006KT 10SM CLR 14/M07 A3029 1960 21 2400 050/06 RMK AO2 $
53144K9L2 9L220160208194010202/08/16 19:40:31  5-MIN K9L2 090340Z AUTO 06004KT 10SM CLR 15/M07 A3030 1960 21 2500 050/04 RMK AO2 $
53144K9L2 9L220160208194510202/08/16 19:45:31  5-MIN K9L2 090345Z AUTO 08003KT 10SM CLR 15/M07 A3030 1960 21 2400 070/03 RMK AO2 $
53144K9L2 9L220160208195010202/08/16 19:50:31  5-MIN K9L2 090350Z AUTO 00000KT 10SM CLR 14/M07 A3030 1960 22 2300 000/00 RMK AO2 $
53144K9L2 9L220160208195511902/08/16 19:55:31  5-MIN K9L2 090355Z AUTO 11003KT 10SM CLR 13/M07 A3030 1960 23 2300 090/03 RMK AO2 SLP260 T01331072 $
53144K9L2 9L220160209185010202/09/16 18:50:31  5-MIN K9L2 100250Z AUTO VRB03KT 10SM CLR 12/M02 A3023 2020 36 2200 VRB/03 RMK AO2 $
53144K9L2 9L220160209185512502/09/16 18:55:31  5-MIN K9L2 100255Z AUTO 14003KT 10SM CLR 13/M02 A3023 2020 35 2300 130/03 RMK AO2 SLP247 T01281022 55013 $
53144K9L2 9L220160209190010202/09/16 19:00:31  5-MIN K9L2 100300Z AUTO 00000KT 10SM CLR 13/M02 A3023 2020 35 2300 000/00 RMK AO2 $
53144K9L2 9L220160209190510202/09/16 19:05:31  5-MIN K9L2 100305Z AUTO 00000KT 10SM CLR 13/M02 A3023 2020 35 2300 000/00 RMK AO2 $
53144K9L2 9L220160209191010202/09/16 19:10:31  5-MIN K9L2 100310Z AUTO 00000KT 10SM CLR 13/M02 A3023 2020 35 2300 000/00 RMK AO2 $
53144K9L2 9L220160209191510202/09/16 19:15:31  5-MIN K9L2 100315Z AUTO 00000KT 10SM CLR 12/M02 A3023 2020 36 2200 000/00 RMK AO2 $
53144K9L2 9L220160209192010202/09/16 19:20:31  5-MIN K9L2 100320Z AUTO 00000KT 10SM CLR 12/M02 A3023 2020 36 2200 000/00 RMK AO2 $
53144K9L2 9L220160209192510202/09/16 19:25:31  5-MIN K9L2 100325Z AUTO 00000KT 10SM CLR 12/M02 A3023 2020 38 2100 000/00 RMK AO2 $
53144K9L2 9L220160209193010202/09/16 19:30:31  5-MIN K9L2 100330Z AUTO 00000KT 10SM CLR 11/M03 A3023 2020 39 2000 000/00 RMK AO2 $
53144K9L2 9L220160209193510202/09/16 19:35:31  5-MIN K9L2 100335Z AUTO 33004KT 10SM CLR 10/M03 A3023 2010 40 1900 320/04 RMK AO2 $
53144K9L2 9L220160209194010202/09/16 19:40:31  5-MIN K9L2 100340Z AUTO 31005KT 10SM CLR 10/M02 A3024 2010 42 1900 300/05 RMK AO2 $
53144K9L2 9L220160209194510202/09/16 19:45:31  5-MIN K9L2 100345Z AUTO 31007KT 10SM CLR 11/M02 A3024 2010 40 2000 290/07 RMK AO2 $
53144K9L2 9L220160209195010202/09/16 19:50:31  5-MIN K9L2 100350Z AUTO 31007KT 10SM CLR 11/M02 A3025 2000 39 2100 300/07 RMK AO2 $
53144K9L2 9L220160209195511902/09/16 19:55:31  5-MIN K9L2 100355Z AUTO 31007KT 10SM CLR 11/M02 A3025 2000 40 2000 300/07 RMK AO2 SLP251 T01061022 $
53144K9L2 9L220160209200010202/09/16 20:00:31  5-MIN K9L2 100400Z AUTO 32007KT 10SM CLR 11/M02 A3025 2000 39 2000 310/07 RMK AO2 $
53144K9L2 9L220160209200510202/09/16 20:05:31  5-MIN K9L2 100405Z AUTO 32007KT 10SM CLR 11/M02 A3025 2000 39 2000 310/07 RMK AO2 $
53144K9L2 9L220160209201010202/09/16 20:10:31  5-MIN K9L2 100410Z AUTO 35003KT 10SM CLR 11/M03 A3025 2000 37 2000 330/03 RMK AO2 $
53144K9L2 9L220160209201510202/09/16 20:15:31  5-MIN K9L2 100415Z AUTO VRB04KT 10SM CLR 11/M03 A3025 2000 37 2000 VRB/04 RMK AO2 $
53144K9L2 9L220160209202010202/09/16 20:20:31  5-MIN K9L2 100420Z AUTO 36004KT 10SM CLR 11/M03 A3026 1990 39 2000 350/04 RMK AO2 $
53144K9L2 9L220160209202510202/09/16 20:25:31  5-MIN K9L2 100425Z AUTO 34004KT 10SM CLR 11/M03 A3026 1990 39 2000 320/04 RMK AO2 $
53144K9L2 9L220160209203010202/09/16 20:30:31  5-MIN K9L2 100430Z AUTO 33003KT 10SM CLR 11/M03 A3026 1990 37 2000 320/03 RMK AO2 $
53144K9L2 9L220160209203510202/09/16 20:35:31  5-MIN K9L2 100435Z AUTO 32005KT 10SM CLR 11/M03 A3026 1990 37 2000 310/05 RMK AO2 $
53144K9L2 9L220160209204010202/09/16 20:40:31  5-MIN K9L2 100440Z AUTO 32005KT 10SM CLR 10/M03 A3026 1990 40 1900 310/05 RMK AO2 $
53144K9L2 9L220160209204510202/09/16 20:45:31  5-MIN K9L2 100445Z AUTO 01003KT 10SM CLR 10/M03 A3026 1990 40 1900 360/03 RMK AO2 $
53144K9L2 9L220160209205010202/09/16 20:50:31  5-MIN K9L2 100450Z AUTO 01005KT 10SM CLR 09/M03 A3026 1990 42 1800 360/05 RMK AO2 $
53144K9L2 9L220160209205511902/09/16 20:55:31  5-MIN K9L2 100455Z AUTO 36006KT 10SM CLR 09/M03 A3026 1990 42 1800 350/06 RMK AO2 SLP255 T00941028 $
53144K9L2 9L220160209210010202/09/16 21:00:31  5-MIN K9L2 100500Z AUTO 35003KT 10SM CLR 09/M03 A3026 1990 43 1800 340/03 RMK AO2 $
53144K9L2 9L220160209210510202/09/16 21:05:31  5-MIN K9L2 100505Z AUTO 33003KT 10SM CLR 08/M03 A3026 1990 45 1700 320/03 RMK AO2 $
53144K9L2 9L220160209211010202/09/16 21:10:31  5-MIN K9L2 100510Z AUTO 31004KT 10SM CLR 08/M03 A3027 1980 45 1700 300/04 RMK AO2 $
53144K9L2 9L220160209211510202/09/16 21:15:31  5-MIN K9L2 100515Z AUTO 30004KT 10SM CLR 08/M03 A3026 1990 45 1700 280/04 RMK AO2 $
53144K9L2 9L220160209212010202/09/16 21:20:31  5-MIN K9L2 100520Z AUTO 32004KT 10SM CLR 08/M03 A3026 1990 45 1700 310/04 RMK AO2 $
53144K9L2 9L220160209212510202/09/16 21:25:31  5-MIN K9L2 100525Z AUTO 31003KT 10SM CLR 09/M03 A3026 1990 43 1800 300/03 RMK AO2 $
53144K9L2 9L220160209213010202/09/16 21:30:31  5-MIN K9L2 100530Z AUTO 31003KT 10SM CLR 08/M03 A3026 1990 45 1700 300/03 RMK AO2 $
53144K9L2 9L220160209213510202/09/16 21:35:31  5-MIN K9L2 100535Z AUTO 00000KT 10SM CLR 08/M03 A3026 1990 45 1600 000/00 RMK AO2 $
53144K9L2 9L220160209214010202/09/16 21:40:31  5-MIN K9L2 100540Z AUTO 00000KT 10SM CLR 08/M03 A3026 1990 43 1700 000/00 RMK AO2 $
53144K9L2 9L220160209214510202/09/16 21:45:31  5-MIN K9L2 100545Z AUTO 00000KT 10SM CLR 08/M03 A3025 1990 43 1700 000/00 RMK AO2 $
53144K9L2 9L220160209215010202/09/16 21:50:31  5-MIN K9L2 100550Z AUTO 00000KT 10SM CLR 08/M03 A3025 2000 43 1700 000/00 RMK AO2 $
53144K9L2 9L220160209215513702/09/16 21:55:31  5-MIN K9L2 100555Z AUTO 00000KT 10SM CLR 08/M03 A3025 2000 43 1700 000/00 RMK AO2 SLP250 T00831033 10250 20078 53002 $
53144K9L2 9L220160209220010202/09/16 22:00:31  5-MIN K9L2 100600Z AUTO 12003KT 10SM CLR 08/M03 A3025 2000 43 1700 110/03 RMK AO2 $
53144K9L2 9L220160209220510202/09/16 22:05:31  5-MIN K9L2 100605Z AUTO 12003KT 10SM CLR 09/M03 A3025 2000 42 1800 110/03 RMK AO2 $
53144K9L2 9L220160209221010202/09/16 22:10:31  5-MIN K9L2 100610Z AUTO 00000KT 10SM CLR 08/M03 A3025 2000 43 1700 000/00 RMK AO2 $
53144K9L2 9L220160209221510202/09/16 22:15:31  5-MIN K9L2 100615Z AUTO 12004KT 10SM CLR 08/M03 A3024 2000 43 1700 110/04 RMK AO2 $
53144K9L2 9L220160209222010202/09/16 22:20:31  5-MIN K9L2 100620Z AUTO 00000KT 10SM CLR 08/M03 A3025 2000 43 1700 000/00 RMK AO2 $
53144K9L2 9L220160209222510202/09/16 22:25:31  5-MIN K9L2 100625Z AUTO 00000KT 10SM CLR 07/M03 A3026 1990 47 1600 000/00 RMK AO2 $
53144K9L2 9L220160209223010202/09/16 22:30:31  5-MIN K9L2 100630Z AUTO 00000KT 10SM CLR 07/M03 A3026 1990 49 1500 000/00 RMK AO2 $
53144K9L2 9L220160209223510202/09/16 22:35:31  5-MIN K9L2 100635Z AUTO 00000KT 10SM CLR 06/M03 A3026 1990 51 1400 000/00 RMK AO2 $
53144K9L2 9L220160209224010202/09/16 22:40:31  5-MIN K9L2 100640Z AUTO 00000KT 10SM CLR 06/M03 A3026 1990 51 1400 000/00 RMK AO2 $
53144K9L2 9L220160209224510202/09/16 22:45:31  5-MIN K9L2 100645Z AUTO 00000KT 10SM CLR 06/M03 A3026 1990 51 1400 000/00 RMK AO2 $
53144K9L2 9L220160209225010202/09/16 22:50:31  5-MIN K9L2 100650Z AUTO 00000KT 10SM CLR 06/M03 A3026 1990 51 1400 000/00 RMK AO2 $
53144K9L2 9L220160209225511902/09/16 22:55:31  5-MIN K9L2 100655Z AUTO 00000KT 10SM CLR 06/M03 A3026 1990 51 1400 000/00 RMK AO2 SLP248 T00611033 $
53144K9L2 9L220160209230010202/09/16 23:00:31  5-MIN K9L2 100700Z AUTO 00000KT 10SM CLR 06/M04 A3026 1990 50 1400 000/00 RMK AO2 $
53144K9L2 9L220160209230510202/09/16 23:05:31  5-MIN K9L2 100705Z AUTO 30003KT 10SM CLR 05/M04 A3026 1990 52 1300 290/03 RMK AO2 $
53144K9L2 9L220160209231010202/09/16 23:10:31  5-MIN K9L2 100710Z AUTO 29005KT 10SM CLR 05/M04 A3026 1990 52 1300 270/05 RMK AO2 $
53144K9L2 9L220160209231510202/09/16 23:15:31  5-MIN K9L2 100715Z AUTO 29004KT 10SM CLR 06/M04 A3026 1990 50 1400 270/04 RMK AO2 $
53144K9L2 9L220160209232010202/09/16 23:20:31  5-MIN K9L2 100720Z AUTO 29003KT 10SM CLR 06/M04 A3026 1990 50 1400 280/03 RMK AO2 $
53144K9L2 9L220160209232510202/09/16 23:25:31  5-MIN K9L2 100725Z AUTO 29004KT 10SM CLR 05/M04 A3026 1990 52 1300 270/04 RMK AO2 $
53144K9L2 9L220160209233010202/09/16 23:30:31  5-MIN K9L2 100730Z AUTO 29004KT 10SM CLR 06/M04 A3026 1990 48 1400 270/04 RMK AO2 $
53144K9L2 9L220160209233510202/09/16 23:35:31  5-MIN K9L2 100735Z AUTO 29004KT 10SM CLR 06/M04 A3026 1990 50 1400 270/04 RMK AO2 $
53144K9L2 9L220160209234010202/09/16 23:40:31  5-MIN K9L2 100740Z AUTO 30004KT 10SM CLR 06/M04 A3026 1990 50 1400 290/04 RMK AO2 $
53144K9L2 9L220160209234510202/09/16 23:45:31  5-MIN K9L2 100745Z AUTO 30004KT 10SM CLR 05/M04 A3026 1990 52 1300 290/04 RMK AO2 $
53144K9L2 9L220160209235010202/09/16 23:50:31  5-MIN K9L2 100750Z AUTO 29006KT 10SM CLR 05/M04 A3026 1990 52 1300 270/06 RMK AO2 $
53144K9L2 9L220160209235512902/09/16 23:55:31  5-MIN K9L2 100755Z AUTO 28008KT 10SM CLR 06/M04 A3026 1990 50 1400 270/08 RMK AO2 SLP249 T00561039 402501006 $
53144K9L2 9L220160210000010202/10/16 00:00:31  5-MIN K9L2 100800Z AUTO 30004KT 10SM CLR 06/M04 A3026 1990 50 1400 290/04 RMK AO2 $
53144K9L2 9L220160210000510202/10/16 00:05:31  5-MIN K9L2 100805Z AUTO 31005KT 10SM CLR 06/M04 A3026 1990 50 1400 290/05 RMK AO2 $
53144K9L2 9L220160210001010202/10/16 00:10:31  5-MIN K9L2 100810Z AUTO 29006KT 10SM CLR 06/M04 A3026 1990 48 1400 280/06 RMK AO2 $
53144K9L2 9L220160210001510202/10/16 00:15:31  5-MIN K9L2 100815Z AUTO 30007KT 10SM CLR 06/M04 A3026 1990 48 1400 280/07 RMK AO2 $
53144K9L2 9L220160210002010202/10/16 00:20:31  5-MIN K9L2 100820Z AUTO VRB03KT 10SM CLR 06/M04 A3026 1990 48 1400 VRB/03 RMK AO2 $
53144K9L2 9L220160210002510202/10/16 00:25:31  5-MIN K9L2 100825Z AUTO 00000KT 10SM CLR 06/M04 A3026 1990 46 1400 000/00 RMK AO2 $
53144K9L2 9L220160210003010202/10/16 00:30:31  5-MIN K9L2 100830Z AUTO 00000KT 10SM CLR 06/M04 A3026 1990 46 1400 000/00 RMK AO2 $
53144K9L2 9L220160210003510202/10/16 00:35:31  5-MIN K9L2 100835Z AUTO 12003KT 10SM CLR 06/M04 A3026 1990 50 1400 110/03 RMK AO2 $
53144K9L2 9L220160210004010202/10/16 00:40:31  5-MIN K9L2 100840Z AUTO 09004KT 10SM CLR 05/M04 A3026 1990 52 1300 080/04 RMK AO2 $
53144K9L2 9L220160210004510202/10/16 00:45:31  5-MIN K9L2 100845Z AUTO 12003KT 10SM CLR 06/M04 A3027 1980 50 1400 100/03 RMK AO2 $
53144K9L2 9L220160210005010202/10/16 00:50:31  5-MIN K9L2 100850Z AUTO 00000KT 10SM CLR 06/M04 A3027 1980 48 1400 000/00 RMK AO2 $
53144K9L2 9L220160210005512502/10/16 00:55:31  5-MIN K9L2 100855Z AUTO 15003KT 10SM CLR 06/M04 A3027 1980 48 1400 140/03 RMK AO2 SLP249 T00561044 50008 $
53144K9L2 9L220160210010010202/10/16 01:00:31  5-MIN K9L2 100900Z AUTO 16003KT 10SM CLR 05/M04 A3027 1980 52 1300 150/03 RMK AO2 $
53144K9L2 9L220160210010510202/10/16 01:05:31  5-MIN K9L2 100905Z AUTO 00000KT 10SM CLR 05/M04 A3027 1980 52 1300 000/00 RMK AO2 $
53144K9L2 9L220160210011010202/10/16 01:10:31  5-MIN K9L2 100910Z AUTO 00000KT 10SM CLR 05/M04 A3027 1980 52 1300 000/00 RMK AO2 $
53144K9L2 9L220160210011510202/10/16 01:15:31  5-MIN K9L2 100915Z AUTO 00000KT 10SM CLR 05/M04 A3027 1980 52 1300 000/00 RMK AO2 $
53144K9L2 9L220160210012010202/10/16 01:20:31  5-MIN K9L2 100920Z AUTO 00000KT 10SM CLR 05/M04 A3027 1980 52 1300 000/00 RMK AO2 $
53144K9L2 9L220160210012510202/10/16 01:25:31  5-MIN K9L2 100925Z AUTO 00000KT 10SM CLR 04/M04 A3027 1980 55 1200 000/00 RMK AO2 $
53144K9L2 9L220160210013010202/10/16 01:30:31  5-MIN K9L2 100930Z AUTO 00000KT 10SM CLR 04/M04 A3027 1980 54 1200 000/00 RMK AO2 $
53144K9L2 9L220160210013510202/10/16 01:35:31  5-MIN K9L2 100935Z AUTO 00000KT 10SM CLR 04/M04 A3027 1980 57 1200 000/00 RMK AO2 $
53144K9L2 9L220160210014010202/10/16 01:40:31  5-MIN K9L2 100940Z AUTO 00000KT 10SM CLR 04/M04 A3027 1980 54 1200 000/00 RMK AO2 $
53144K9L2 9L220160210014510202/10/16 01:45:31  5-MIN K9L2 100945Z AUTO 00000KT 10SM CLR 03/M04 A3027 1990 57 1100 000/00 RMK AO2 $
53144K9L2 9L220160210015010202/10/16 01:50:31  5-MIN K9L2 100950Z AUTO 00000KT 10SM CLR 03/M04 A3026 1990 57 1100 000/00 RMK AO2 $
53144K9L2 9L220160210015511902/10/16 01:55:31  5-MIN K9L2 100955Z AUTO 00000KT 10SM CLR 03/M04 A3026 1990 57 1100 000/00 RMK AO2 SLP248 T00331044 $
53144K9L2 9L220160210020010902/10/16 02:00:31  5-MIN K9L2 101000Z AUTO 00000KT 10SM CLR 02/M05 A3026 1990 59 1000 000/00 RMK AO2 FZRANO $
53144K9L2 9L220160210020510202/10/16 02:05:31  5-MIN K9L2 101005Z AUTO 00000KT 10SM CLR 03/M04 A3026 1990 57 1100 000/00 RMK AO2 $
53144K9L2 9L220160210021010202/10/16 02:10:31  5-MIN K9L2 101010Z AUTO 00000KT 10SM CLR 04/M04 A3026 1990 54 1200 000/00 RMK AO2 $
53144K9L2 9L220160210021510202/10/16 02:15:31  5-MIN K9L2 101015Z AUTO 00000KT 10SM CLR 03/M04 A3026 1990 57 1100 000/00 RMK AO2 $
53144K9L2 9L220160210022010202/10/16 02:20:31  5-MIN K9L2 101020Z AUTO 00000KT 10SM CLR 03/M05 A3026 1990 56 1000 000/00 RMK AO2 $
53144K9L2 9L220160210022510902/10/16 02:25:31  5-MIN K9L2 101025Z AUTO 27003KT 10SM CLR 02/M05 A3026 1990 59 1000 250/03 RMK AO2 FZRANO $
53144K9L2 9L220160210023010802/10/16 02:30:31  5-MIN K9L2 101030Z AUTO 29004KT 10SM CLR 02/M05 A3026 1990 61 900 280/04 RMK AO2 FZRANO $
53144K9L2 9L220160210023510802/10/16 02:35:31  5-MIN K9L2 101035Z AUTO 29003KT 10SM CLR 02/M05 A3026 1990 61 900 280/03 RMK AO2 FZRANO $
53144K9L2 9L220160210024010802/10/16 02:40:31  5-MIN K9L2 101040Z AUTO 30003KT 10SM CLR 02/M05 A3026 1990 61 900 290/03 RMK AO2 FZRANO $
53144K9L2 9L220160210024510802/10/16 02:45:31  5-MIN K9L2 101045Z AUTO 30003KT 10SM CLR 02/M05 A3026 1990 61 900 290/03 RMK AO2 FZRANO $
53144K9L2 9L220160210025010802/10/16 02:50:31  5-MIN K9L2 101050Z AUTO 00000KT 10SM CLR 02/M05 A3026 1990 61 900 000/00 RMK AO2 FZRANO $
53144K9L2 9L220160210025512502/10/16 02:55:31  5-MIN K9L2 101055Z AUTO 00000KT 10SM CLR 02/M05 A3026 1990 61 900 000/00 RMK AO2 SLP247 T00171050 FZRANO $
53144K9L2 9L220160210030010802/10/16 03:00:31  5-MIN K9L2 101100Z AUTO 00000KT 10SM CLR 02/M05 A3026 1990 61 900 000/00 RMK AO2 FZRANO $
53144K9L2 9L220160210030510802/10/16 03:05:31  5-MIN K9L2 101105Z AUTO 00000KT 10SM CLR 02/M05 A3026 1990 61 900 000/00 RMK AO2 FZRANO $
53144K9L2 9L220160210031010902/10/16 03:10:31  5-MIN K9L2 101110Z AUTO 00000KT 10SM CLR 02/M04 A3026 1990 61 1000 000/00 RMK AO2 FZRANO $
53144K9L2 9L220160210031510902/10/16 03:15:31  5-MIN K9L2 101115Z AUTO 30004KT 10SM CLR 02/M04 A3026 1990 61 1000 290/04 RMK AO2 FZRANO $
53144K9L2 9L220160210032010802/10/16 03:20:31  5-MIN K9L2 101120Z AUTO 31004KT 10SM CLR 02/M04 A3026 1990 64 900 300/04 RMK AO2 FZRANO $
53144K9L2 9L220160210032510802/10/16 03:25:31  5-MIN K9L2 101125Z AUTO 31005KT 10SM CLR 02/M04 A3026 1990 64 900 300/05 RMK AO2 FZRANO $
53144K9L2 9L220160210033010802/10/16 03:30:31  5-MIN K9L2 101130Z AUTO 30005KT 10SM CLR 02/M04 A3026 1990 64 900 290/05 RMK AO2 FZRANO $
53144K9L2 9L220160210033510902/10/16 03:35:31  5-MIN K9L2 101135Z AUTO 32004KT 10SM CLR 02/M04 A3026 1990 61 1000 310/04 RMK AO2 FZRANO $
53144K9L2 9L220160210034010902/10/16 03:40:31  5-MIN K9L2 101140Z AUTO 33003KT 10SM CLR 02/M04 A3026 1990 61 1000 320/03 RMK AO2 FZRANO $
53144K9L2 9L220160210034510802/10/16 03:45:31  5-MIN K9L2 101145Z AUTO 36003KT 10SM CLR 02/M04 A3027 1980 64 900 350/03 RMK AO2 FZRANO $
53144K9L2 9L220160210035010802/10/16 03:50:31  5-MIN K9L2 101150Z AUTO 00000KT 10SM CLR 01/M05 A3027 1980 66 700 000/00 RMK AO2 FZRANO $
53144K9L2 9L220160210035514302/10/16 03:55:31  5-MIN K9L2 101155Z AUTO 02003KT 10SM CLR 01/M05 A3026 1990 66 700 360/03 RMK AO2 SLP249 T00061050 10089 20006 53006 FZRANO $
53144K9L2 9L220160210040010802/10/16 04:00:31  5-MIN K9L2 101200Z AUTO 00000KT 10SM CLR 01/M05 A3026 1990 66 800 000/00 RMK AO2 FZRANO $
53144K9L2 9L220160210040510802/10/16 04:05:31  5-MIN K9L2 101205Z AUTO 00000KT 10SM CLR 01/M05 A3026 1990 66 800 000/00 RMK AO2 FZRANO $
53144K9L2 9L220160210041010802/10/16 04:10:31  5-MIN K9L2 101210Z AUTO 00000KT 10SM CLR 01/M05 A3027 1980 66 700 000/00 RMK AO2 FZRANO $
53144K9L2 9L220160210041510802/10/16 04:15:31  5-MIN K9L2 101215Z AUTO 00000KT 10SM CLR 01/M05 A3027 1980 66 700 000/00 RMK AO2 FZRANO $
53144K9L2 9L220160210042010802/10/16 04:20:31  5-MIN K9L2 101220Z AUTO 00000KT 10SM CLR 00/M06 A3027 1980 66 700 000/00 RMK AO2 FZRANO $
53144K9L2 9L220160210042510802/10/16 04:25:31  5-MIN K9L2 101225Z AUTO 00000KT 10SM CLR 00/M06 A3027 1980 66 700 000/00 RMK AO2 FZRANO $
53144K9L2 9L220160210043010802/10/16 04:30:31  5-MIN K9L2 101230Z AUTO 00000KT 10SM CLR 00/M06 A3027 1980 66 700 000/00 RMK AO2 FZRANO $
53144K9L2 9L220160210043510802/10/16 04:35:31  5-MIN K9L2 101235Z AUTO 00000KT 10SM CLR 00/M06 A3027 1980 66 700 000/00 RMK AO2 FZRANO $
53144K9L2 9L220160210044010802/10/16 04:40:31  5-MIN K9L2 101240Z AUTO 00000KT 10SM CLR 00/M06 A3027 1980 66 700 000/00 RMK AO2 FZRANO $
53144K9L2 9L220160210044510802/10/16 04:45:31  5-MIN K9L2 101245Z AUTO 01003KT 10SM CLR 00/M06 A3027 1980 66 700 350/03 RMK AO2 FZRANO $
53144K9L2 9L220160210045010802/10/16 04:50:31  5-MIN K9L2 101250Z AUTO 04003KT 10SM CLR 00/M06 A3027 1980 66 700 030/03 RMK AO2 FZRANO $
53144K9L2 9L220160210045512502/10/16 04:55:31  5-MIN K9L2 101255Z AUTO 00000KT 10SM CLR 00/M06 A3027 1980 66 700 000/00 RMK AO2 SLP253 T00001056 FZRANO $
53144K9L2 9L220160210050010802/10/16 05:00:31  5-MIN K9L2 101300Z AUTO 00000KT 10SM CLR 00/M06 A3027 1980 66 700 000/00 RMK AO2 FZRANO $
53144K9L2 9L220160210050510802/10/16 05:05:31  5-MIN K9L2 101305Z AUTO 00000KT 10SM CLR 00/M06 A3027 1980 66 700 000/00 RMK AO2 FZRANO $
53144K9L2 9L220160210051010802/10/16 05:10:31  5-MIN K9L2 101310Z AUTO 00000KT 10SM CLR 01/M06 A3027 1980 63 700 000/00 RMK AO2 FZRANO $
53144K9L2 9L220160210051510802/10/16 05:15:31  5-MIN K9L2 101315Z AUTO 00000KT 10SM CLR 01/M06 A3027 1980 63 700 000/00 RMK AO2 FZRANO $
53144K9L2 9L220160210052010802/10/16 05:20:31  5-MIN K9L2 101320Z AUTO 00000KT 10SM CLR 01/M06 A3027 1980 63 700 000/00 RMK AO2 FZRANO $
53144K9L2 9L220160210052510802/10/16 05:25:31  5-MIN K9L2 101325Z AUTO 00000KT 10SM CLR 01/M06 A3027 1980 63 700 000/00 RMK AO2 FZRANO $
53144K9L2 9L220160210053010802/10/16 05:30:31  5-MIN K9L2 101330Z AUTO 00000KT 10SM CLR 01/M06 A3027 1980 63 700 000/00 RMK AO2 FZRANO $
53144K9L2 9L220160210053510802/10/16 05:35:31  5-MIN K9L2 101335Z AUTO 00000KT 10SM CLR 00/M06 A3027 1980 66 700 000/00 RMK AO2 FZRANO $
53144K9L2 9L220160210054010802/10/16 05:40:31  5-MIN K9L2 101340Z AUTO 00000KT 10SM CLR 00/M06 A3028 1980 66 700 000/00 RMK AO2 FZRANO $
53144K9L2 9L220160210054510802/10/16 05:45:31  5-MIN K9L2 101345Z AUTO 00000KT 10SM CLR 00/M06 A3028 1970 66 700 000/00 RMK AO2 FZRANO $
53144K9L2 9L220160210055010802/10/16 05:50:31  5-MIN K9L2 101350Z AUTO 00000KT 10SM CLR 00/M06 A3028 1970 66 700 000/00 RMK AO2 FZRANO $
53144K9L2 9L220160210055512502/10/16 05:55:31  5-MIN K9L2 101355Z AUTO 00000KT 10SM CLR 00/M06 A3028 1970 66 700 000/00 RMK AO2 SLP260 T00001056 FZRANO $
53144K9L2 9L220160210060010902/10/16 06:00:31  5-MIN K9L2 101400Z AUTO 00000KT 10SM CLR M01/M06 A3028 1970 69 600 000/00 RMK AO2 FZRANO $
53144K9L2 9L220160210060510902/10/16 06:05:31  5-MIN K9L2 101405Z AUTO 29004KT 10SM CLR M01/M06 A3029 1970 69 600 280/04 RMK AO2 FZRANO $
53144K9L2 9L220160210061010902/10/16 06:10:31  5-MIN K9L2 101410Z AUTO 00000KT 10SM CLR M01/M06 A3028 1970 69 600 000/00 RMK AO2 FZRANO $
53144K9L2 9L220160210061510902/10/16 06:15:31  5-MIN K9L2 101415Z AUTO 00000KT 10SM CLR M01/M06 A3028 1970 69 600 000/00 RMK AO2 FZRANO $
53144K9L2 9L220160210062010902/10/16 06:20:31  5-MIN K9L2 101420Z AUTO 00000KT 10SM CLR M01/M06 A3028 1970 69 600 000/00 RMK AO2 FZRANO $
53144K9L2 9L220160210062510902/10/16 06:25:31  5-MIN K9L2 101425Z AUTO 00000KT 10SM CLR M01/M06 A3029 1970 69 600 000/00 RMK AO2 FZRANO $
53144K9L2 9L220160210063010902/10/16 06:30:31  5-MIN K9L2 101430Z AUTO 00000KT 10SM CLR M01/M06 A3029 1970 72 500 000/00 RMK AO2 FZRANO $
53144K9L2 9L220160210063510902/10/16 06:35:31  5-MIN K9L2 101435Z AUTO 00000KT 10SM CLR M01/M06 A3029 1970 72 500 000/00 RMK AO2 FZRANO $
53144K9L2 9L220160210064010902/10/16 06:40:31  5-MIN K9L2 101440Z AUTO 00000KT 10SM CLR M01/M06 A3029 1970 69 600 000/00 RMK AO2 FZRANO $
53144K9L2 9L220160210064510902/10/16 06:45:31  5-MIN K9L2 101445Z AUTO 31003KT 10SM CLR M01/M06 A3029 1960 69 600 300/03 RMK AO2 FZRANO $
53144K9L2 9L220160210065010902/10/16 06:50:31  5-MIN K9L2 101450Z AUTO 31004KT 10SM CLR M01/M06 A3029 1960 69 600 300/04 RMK AO2 FZRANO $
53144K9L2 9L220160210065513102/10/16 06:55:31  5-MIN K9L2 101455Z AUTO 30004KT 10SM CLR 00/M06 A3029 1960 66 700 290/04 RMK AO2 SLP268 T00001056 55002 FZRANO $
53144K9L2 9L220160210070010802/10/16 07:00:31  5-MIN K9L2 101500Z AUTO 31004KT 10SM CLR 00/M05 A3029 1960 69 700 300/04 RMK AO2 FZRANO $
53144K9L2 9L220160210070510802/10/16 07:05:31  5-MIN K9L2 101505Z AUTO 32004KT 10SM CLR 01/M05 A3030 1960 66 700 300/04 RMK AO2 FZRANO $
53144K9L2 9L220160210071010802/10/16 07:10:31  5-MIN K9L2 101510Z AUTO 30003KT 10SM CLR 01/M05 A3030 1960 66 700 290/03 RMK AO2 FZRANO $
53144K9L2 9L220160210071510802/10/16 07:15:31  5-MIN K9L2 101515Z AUTO 00000KT 10SM CLR 01/M05 A3030 1960 66 700 000/00 RMK AO2 FZRANO $
53144K9L2 9L220160210072010802/10/16 07:20:31  5-MIN K9L2 101520Z AUTO 00000KT 10SM CLR 01/M05 A3029 1960 64 800 000/00 RMK AO2 FZRANO $
53144K9L2 9L220160210072510802/10/16 07:25:31  5-MIN K9L2 101525Z AUTO 00000KT 10SM CLR 02/M04 A3030 1960 64 900 000/00 RMK AO2 FZRANO $
53144K9L2 9L220160210073010802/10/16 07:30:31  5-MIN K9L2 101530Z AUTO 00000KT 10SM CLR 02/M04 A3030 1950 61 900 000/00 RMK AO2 FZRANO $
53144K9L2 9L220160210073510202/10/16 07:35:31  5-MIN K9L2 101535Z AUTO 00000KT 10SM CLR 03/M04 A3030 1950 61 1000 000/00 RMK AO2 $
53144K9L2 9L220160210074010202/10/16 07:40:31  5-MIN K9L2 101540Z AUTO 00000KT 10SM CLR 03/M04 A3030 1950 59 1000 000/00 RMK AO2 $
53144K9L2 9L220160210074510202/10/16 07:45:31  5-MIN K9L2 101545Z AUTO 00000KT 10SM CLR 04/M04 A3030 1950 57 1100 000/00 RMK AO2 $
53144K9L2 9L220160210075010202/10/16 07:50:31  5-MIN K9L2 101550Z AUTO 00000KT 10SM CLR 04/M04 A3031 1950 55 1200 000/00 RMK AO2 $
53144K9L2 9L220160210075511902/10/16 07:55:31  5-MIN K9L2 101555Z AUTO 00000KT 10SM CLR 05/M03 A3031 1950 55 1200 000/00 RMK AO2 SLP271 T00501033 $
53144K9L2 9L220160210080010202/10/16 08:00:31  5-MIN K9L2 101600Z AUTO 00000KT 10SM CLR 05/M03 A3031 1940 55 1200 000/00 RMK AO2 $
53144K9L2 9L220160210080510202/10/16 08:05:31  5-MIN K9L2 101605Z AUTO 00000KT 10SM CLR 05/M04 A3031 1940 52 1200 000/00 RMK AO2 $
53144K9L2 9L220160210081010202/10/16 08:10:31  5-MIN K9L2 101610Z AUTO 00000KT 10SM CLR 06/M04 A3031 1940 48 1400 000/00 RMK AO2 $
53144K9L2 9L220160210081510202/10/16 08:15:31  5-MIN K9L2 101615Z AUTO 00000KT 10SM CLR 06/M04 A3031 1940 48 1400 000/00 RMK AO2 $
53144K9L2 9L220160210082010202/10/16 08:20:31  5-MIN K9L2 101620Z AUTO 00000KT 10SM CLR 06/M04 A3031 1940 48 1400 000/00 RMK AO2 $
53144K9L2 9L220160210082510202/10/16 08:25:31  5-MIN K9L2 101625Z AUTO 00000KT 10SM CLR 06/M04 A3031 1940 50 1300 000/00 RMK AO2 $
53144K9L2 9L220160210083010202/10/16 08:30:31  5-MIN K9L2 101630Z AUTO 00000KT 10SM CLR 06/M04 A3032 1940 48 1300 000/00 RMK AO2 $
53144K9L2 9L220160210083510202/10/16 08:35:31  5-MIN K9L2 101635Z AUTO 00000KT 10SM CLR 06/M04 A3032 1930 48 1300 000/00 RMK AO2 $
53144K9L2 9L220160210084010202/10/16 08:40:31  5-MIN K9L2 101640Z AUTO 00000KT 10SM CLR 06/M04 A3032 1930 48 1300 000/00 RMK AO2 $
53144K9L2 9L220160210084510202/10/16 08:45:31  5-MIN K9L2 101645Z AUTO 00000KT 10SM CLR 06/M04 A3032 1930 48 1300 000/00 RMK AO2 $
53144K9L2 9L220160210085010202/10/16 08:50:31  5-MIN K9L2 101650Z AUTO 00000KT 10SM CLR 06/M04 A3032 1930 50 1300 000/00 RMK AO2 $
53144K9L2 9L220160210085511902/10/16 08:55:31  5-MIN K9L2 101655Z AUTO 13003KT 10SM CLR 06/M04 A3033 1930 48 1400 110/03 RMK AO2 SLP278 T00611039 $
53144K9L2 9L220160210090010202/10/16 09:00:31  5-MIN K9L2 101700Z AUTO 00000KT 10SM CLR 06/M04 A3033 1920 48 1400 000/00 RMK AO2 $
53144K9L2 9L220160210090510202/10/16 09:05:31  5-MIN K9L2 101705Z AUTO 00000KT 10SM CLR 06/M04 A3033 1920 48 1400 000/00 RMK AO2 $
53144K9L2 9L220160210091010202/10/16 09:10:31  5-MIN K9L2 101710Z AUTO 00000KT 10SM CLR 07/M04 A3033 1920 47 1400 000/00 RMK AO2 $
53144K9L2 9L220160210091510202/10/16 09:15:31  5-MIN K9L2 101715Z AUTO 15003KT 10SM CLR 07/M03 A3033 1920 49 1400 130/03 RMK AO2 $
53144K9L2 9L220160210092010202/10/16 09:20:31  5-MIN K9L2 101720Z AUTO 14004KT 10SM CLR 07/M03 A3033 1930 49 1400 130/04 RMK AO2 $
53144K9L2 9L220160210092510202/10/16 09:25:31  5-MIN K9L2 101725Z AUTO 13003KT 10SM CLR 07/M03 A3033 1930 49 1500 120/03 RMK AO2 $
53144K9L2 9L220160210093010202/10/16 09:30:31  5-MIN K9L2 101730Z AUTO 00000KT 10SM CLR 07/M03 A3033 1930 49 1500 000/00 RMK AO2 $
53144K9L2 9L220160210093510202/10/16 09:35:31  5-MIN K9L2 101735Z AUTO 00000KT 10SM CLR 07/M03 A3033 1930 49 1500 000/00 RMK AO2 $
53144K9L2 9L220160210094010202/10/16 09:40:31  5-MIN K9L2 101740Z AUTO 14003KT 10SM CLR 08/M03 A3033 1930 47 1600 120/03 RMK AO2 $
53144K9L2 9L220160210094510202/10/16 09:45:31  5-MIN K9L2 101745Z AUTO 00000KT 10SM CLR 08/M03 A3033 1930 45 1600 000/00 RMK AO2 $
53144K9L2 9L220160210095010202/10/16 09:50:31  5-MIN K9L2 101750Z AUTO 00000KT 10SM CLR 08/M03 A3033 1930 45 1600 000/00 RMK AO2 $
53144K9L2 9L220160210095513702/10/16 09:55:31  5-MIN K9L2 101755Z AUTO 00000KT 10SM CLR 09/M03 A3033 1930 42 1700 000/00 RMK AO2 SLP276 T00891033 10089 21011 53009 $
53144K9L2 9L220160210100010202/10/16 10:00:31  5-MIN K9L2 101800Z AUTO 00000KT 10SM CLR 09/M03 A3033 1920 40 1800 000/00 RMK AO2 $
53144K9L2 9L220160210100510202/10/16 10:05:31  5-MIN K9L2 101805Z AUTO 00000KT 10SM CLR 09/M03 A3033 1920 40 1800 000/00 RMK AO2 $
53144K9L2 9L220160210101010202/10/16 10:10:31  5-MIN K9L2 101810Z AUTO 00000KT 10SM CLR 10/M03 A3033 1920 39 1800 000/00 RMK AO2 $
53144K9L2 9L220160210101510202/10/16 10:15:31  5-MIN K9L2 101815Z AUTO 17003KT 10SM CLR 11/M03 A3033 1930 37 1900 160/03 RMK AO2 $
53144K9L2 9L220160210102010202/10/16 10:20:31  5-MIN K9L2 101820Z AUTO 17003KT 10SM CLR 11/M03 A3033 1930 37 1900 160/03 RMK AO2 $
53144K9L2 9L220160210102510202/10/16 10:25:31  5-MIN K9L2 101825Z AUTO 17003KT 10SM CLR 11/M03 A3033 1930 36 2000 160/03 RMK AO2 $
53144K9L2 9L220160210103010202/10/16 10:30:31  5-MIN K9L2 101830Z AUTO 17003KT 10SM CLR 11/M03 A3033 1930 36 2000 150/03 RMK AO2 $
53144K9L2 9L220160210103510202/10/16 10:35:31  5-MIN K9L2 101835Z AUTO 18003KT 10SM CLR 12/M03 A3032 1930 35 2000 160/03 RMK AO2 $
53144K9L2 9L220160210104010202/10/16 10:40:31  5-MIN K9L2 101840Z AUTO 00000KT 10SM CLR 12/M03 A3032 1930 35 2000 000/00 RMK AO2 $
53144K9L2 9L220160210104510202/10/16 10:45:31  5-MIN K9L2 101845Z AUTO 00000KT 10SM CLR 13/M03 A3032 1940 32 2200 000/00 RMK AO2 $
53144K9L2 9L220160210105010202/10/16 10:50:31  5-MIN K9L2 101850Z AUTO 00000KT 10SM CLR 13/M03 A3032 1940 32 2200 000/00 RMK AO2 $
53144K9L2 9L220160210105511902/10/16 10:55:31  5-MIN K9L2 101855Z AUTO 00000KT 10SM CLR 13/M04 A3032 1940 30 2200 000/00 RMK AO2 SLP270 T01331039 $
53144K9L2 9L220160210110010202/10/16 11:00:31  5-MIN K9L2 101900Z AUTO 00000KT 10SM CLR 14/M04 A3032 1940 29 2300 000/00 RMK AO2 $
53144K9L2 9L220160210110510202/10/16 11:05:31  5-MIN K9L2 101905Z AUTO 15003KT 10SM CLR 14/M04 A3031 1940 26 2400 140/03 RMK AO2 $
53144K9L2 9L220160210111010202/10/16 11:10:31  5-MIN K9L2 101910Z AUTO 14004KT 10SM CLR 14/M04 A3031 1940 26 2400 130/04 RMK AO2 $
53144K9L2 9L220160210111510202/10/16 11:15:31  5-MIN K9L2 101915Z AUTO 14003KT 10SM CLR 15/M04 A3031 1940 25 2400 130/03 RMK AO2 $
53144K9L2 9L220160210112010202/10/16 11:20:31  5-MIN K9L2 101920Z AUTO 00000KT 10SM CLR 15/M04 A3031 1950 25 2400 000/00 RMK AO2 $
53144K9L2 9L220160210112510202/10/16 11:25:31  5-MIN K9L2 101925Z AUTO 14003KT 10SM CLR 15/M05 A3030 1950 24 2400 130/03 RMK AO2 $
53144K9L2 9L220160210113010202/10/16 11:30:31  5-MIN K9L2 101930Z AUTO 00000KT 10SM CLR 16/M05 A3030 1950 24 2500 000/00 RMK AO2 $
53144K9L2 9L220160210113510202/10/16 11:35:31  5-MIN K9L2 101935Z AUTO 00000KT 10SM CLR 16/M04 A3029 1960 25 2500 000/00 RMK AO2 $
53144K9L2 9L220160210114010202/10/16 11:40:31  5-MIN K9L2 101940Z AUTO 00000KT 10SM CLR 16/M04 A3029 1960 24 2600 000/00 RMK AO2 $
53144K9L2 9L220160210114510202/10/16 11:45:31  5-MIN K9L2 101945Z AUTO 00000KT 10SM CLR 16/M05 A3029 1960 23 2600 000/00 RMK AO2 $
53144K9L2 9L220160210115010202/10/16 11:50:31  5-MIN K9L2 101950Z AUTO 00000KT 10SM CLR 17/M05 A3029 1970 22 2700 000/00 RMK AO2 $
53144K9L2 9L220160210115511902/10/16 11:55:31  5-MIN K9L2 101955Z AUTO 14003KT 10SM CLR 17/M05 A3029 1970 21 2700 130/03 RMK AO2 SLP257 T01721050 $
53144K9L2 9L220160210120010202/10/16 12:00:31  5-MIN K9L2 102000Z AUTO 00000KT 10SM CLR 17/M05 A3028 1970 21 2700 000/00 RMK AO2 $
53144K9L2 9L220160210120510202/10/16 12:05:31  5-MIN K9L2 102005Z AUTO 00000KT 10SM CLR 18/M05 A3028 1970 20 2800 000/00 RMK AO2 $
53144K9L2 9L220160210121010202/10/16 12:10:31  5-MIN K9L2 102010Z AUTO 00000KT 10SM CLR 18/M05 A3028 1970 20 2800 000/00 RMK AO2 $
53144K9L2 9L220160210121510202/10/16 12:15:31  5-MIN K9L2 102015Z AUTO 00000KT 10SM CLR 19/M05 A3028 1980 18 3000 000/00 RMK AO2 $
53144K9L2 9L220160210122010202/10/16 12:20:31  5-MIN K9L2 102020Z AUTO 00000KT 10SM CLR 19/M05 A3027 1980 18 3000 000/00 RMK AO2 $
53144K9L2 9L220160210122510202/10/16 12:25:31  5-MIN K9L2 102025Z AUTO 00000KT 10SM CLR 20/M05 A3027 1980 18 3100 000/00 RMK AO2 $
53144K9L2 9L220160210123010202/10/16 12:30:31  5-MIN K9L2 102030Z AUTO 00000KT 10SM CLR 20/M05 A3026 1990 18 3100 000/00 RMK AO2 $
53144K9L2 9L220160210123510202/10/16 12:35:31  5-MIN K9L2 102035Z AUTO 00000KT 10SM CLR 21/M04 A3026 1990 17 3200 000/00 RMK AO2 $
53144K9L2 9L220160210124010202/10/16 12:40:31  5-MIN K9L2 102040Z AUTO 00000KT 10SM CLR 21/M05 A3026 1990 17 3100 000/00 RMK AO2 $
53144K9L2 9L220160210124510202/10/16 12:45:31  5-MIN K9L2 102045Z AUTO 00000KT 10SM CLR 21/M05 A3025 2000 17 3200 000/00 RMK AO2 $
53144K9L2 9L220160210125010202/10/16 12:50:31  5-MIN K9L2 102050Z AUTO 00000KT 10SM CLR 21/M04 A3025 2000 17 3200 000/00 RMK AO2 $
53144K9L2 9L220160210125512502/10/16 12:55:31  5-MIN K9L2 102055Z AUTO 11003KT 10SM CLR 21/M05 A3025 2000 17 3200 100/03 RMK AO2 SLP241 T02111050 51012 $
53144K9L2 9L220160210130010202/10/16 13:00:31  5-MIN K9L2 102100Z AUTO 00000KT 10SM CLR 21/M05 A3024 2010 17 3200 000/00 RMK AO2 $
53144K9L2 9L220160210130510202/10/16 13:05:31  5-MIN K9L2 102105Z AUTO 00000KT 10SM CLR 21/M05 A3024 2010 17 3200 000/00 RMK AO2 $
53144K9L2 9L220160210131010202/10/16 13:10:31  5-MIN K9L2 102110Z AUTO 00000KT 10SM CLR 21/M05 A3024 2010 17 3200 000/00 RMK AO2 $
53144K9L2 9L220160210131510202/10/16 13:15:31  5-MIN K9L2 102115Z AUTO 00000KT 10SM CLR 22/M05 A3023 2010 16 3300 000/00 RMK AO2 $
53144K9L2 9L220160210132010202/10/16 13:20:31  5-MIN K9L2 102120Z AUTO 00000KT 10SM CLR 22/M05 A3023 2020 16 3300 000/00 RMK AO2 $
53144K9L2 9L220160210132510202/10/16 13:25:31  5-MIN K9L2 102125Z AUTO 08003KT 10SM CLR 22/M06 A3023 2020 15 3400 070/03 RMK AO2 $
53144K9L2 9L220160210133010202/10/16 13:30:31  5-MIN K9L2 102130Z AUTO 00000KT 10SM CLR 22/M06 A3023 2020 14 3400 000/00 RMK AO2 $
53144K9L2 9L220160210133510202/10/16 13:35:31  5-MIN K9L2 102135Z AUTO 00000KT 10SM CLR 22/M06 A3023 2020 15 3400 000/00 RMK AO2 $
53144K9L2 9L220160210134010202/10/16 13:40:31  5-MIN K9L2 102140Z AUTO VRB03KT 10SM CLR 22/M06 A3022 2020 14 3400 VRB/03 RMK AO2 $
53144K9L2 9L220160210134510202/10/16 13:45:31  5-MIN K9L2 102145Z AUTO 18003KT 10SM CLR 22/M07 A3022 2030 14 3400 170/03 RMK AO2 $
53144K9L2 9L220160210135010202/10/16 13:50:31  5-MIN K9L2 102150Z AUTO 00000KT 10SM CLR 22/M06 A3022 2030 14 3400 000/00 RMK AO2 $
53144K9L2 9L220160210135511902/10/16 13:55:31  5-MIN K9L2 102155Z AUTO 00000KT 10SM CLR 22/M07 A3022 2030 14 3400 000/00 RMK AO2 SLP233 T02221067 $
53144K9L2 9L220160210140010202/10/16 14:00:31  5-MIN K9L2 102200Z AUTO 00000KT 10SM CLR 23/M06 A3022 2030 14 3400 000/00 RMK AO2 $
53144K9L2 9L220160210140510202/10/16 14:05:31  5-MIN K9L2 102205Z AUTO 00000KT 10SM CLR 23/M06 A3022 2030 14 3400 000/00 RMK AO2 $
53144K9L2 9L220160210141010202/10/16 14:10:31  5-MIN K9L2 102210Z AUTO 00000KT 10SM CLR 23/M06 A3021 2030 14 3400 000/00 RMK AO2 $
53144K9L2 9L220160210141510202/10/16 14:15:31  5-MIN K9L2 102215Z AUTO 00000KT 10SM CLR 23/M06 A3021 2030 14 3400 000/00 RMK AO2 $
53144K9L2 9L220160210142010202/10/16 14:20:31  5-MIN K9L2 102220Z AUTO 00000KT 10SM CLR 23/M06 A3021 2040 14 3400 000/00 RMK AO2 $
53144K9L2 9L220160210142510202/10/16 14:25:31  5-MIN K9L2 102225Z AUTO 00000KT 10SM CLR 23/M07 A3021 2040 13 3400 000/00 RMK AO2 $
53144K9L2 9L220160210143010202/10/16 14:30:31  5-MIN K9L2 102230Z AUTO 00000KT 10SM CLR 23/M06 A3020 2040 13 3500 000/00 RMK AO2 $
53144K9L2 9L220160210143510202/10/16 14:35:31  5-MIN K9L2 102235Z AUTO 00000KT 10SM CLR 24/M07 A3020 2040 12 3600 000/00 RMK AO2 $
53144K9L2 9L220160210144010202/10/16 14:40:31  5-MIN K9L2 102240Z AUTO 00000KT 10SM CLR 23/M07 A3020 2040 13 3500 000/00 RMK AO2 $
53144K9L2 9L220160210144510202/10/16 14:45:31  5-MIN K9L2 102245Z AUTO 00000KT 10SM CLR 23/M07 A3020 2050 12 3500 000/00 RMK AO2 $
53144K9L2 9L220160210145010202/10/16 14:50:31  5-MIN K9L2 102250Z AUTO VRB03KT 10SM CLR 23/M07 A3020 2050 12 3500 VRB/03 RMK AO2 $
53144K9L2 9L220160210145511902/10/16 14:55:31  5-MIN K9L2 102255Z AUTO 00000KT 10SM CLR 23/M07 A3020 2050 13 3500 000/00 RMK AO2 SLP225 T02331067 $
53144K9L2 9L220160210150010202/10/16 15:00:31  5-MIN K9L2 102300Z AUTO 00000KT 10SM CLR 23/M07 A3020 2050 13 3500 000/00 RMK AO2 $
53144K9L2 9L220160210150510202/10/16 15:05:31  5-MIN K9L2 102305Z AUTO 00000KT 10SM CLR 23/M07 A3020 2050 13 3500 000/00 RMK AO2 $
53144K9L2 9L220160210151010202/10/16 15:10:31  5-MIN K9L2 102310Z AUTO 00000KT 10SM CLR 23/M07 A3020 2050 13 3500 000/00 RMK AO2 $
53144K9L2 9L220160210151510202/10/16 15:15:31  5-MIN K9L2 102315Z AUTO 00000KT 10SM CLR 23/M07 A3019 2050 13 3500 000/00 RMK AO2 $
53144K9L2 9L220160210152010202/10/16 15:20:31  5-MIN K9L2 102320Z AUTO 00000KT 10SM CLR 23/M07 A3019 2050 13 3500 000/00 RMK AO2 $
53144K9L2 9L220160210152510202/10/16 15:25:31  5-MIN K9L2 102325Z AUTO 00000KT 10SM CLR 23/M07 A3019 2050 12 3500 000/00 RMK AO2 $
53144K9L2 9L220160210153010202/10/16 15:30:31  5-MIN K9L2 102330Z AUTO 00000KT 10SM CLR 23/M07 A3019 2050 12 3500 000/00 RMK AO2 $
53144K9L2 9L220160210153510202/10/16 15:35:31  5-MIN K9L2 102335Z AUTO 00000KT 10SM CLR 23/M07 A3019 2050 12 3500 000/00 RMK AO2 $
53144K9L2 9L220160210154010202/10/16 15:40:31  5-MIN K9L2 102340Z AUTO 00000KT 10SM CLR 24/M07 A3019 2050 12 3600 000/00 RMK AO2 $
53144K9L2 9L220160210154510202/10/16 15:45:31  5-MIN K9L2 102345Z AUTO 00000KT 10SM CLR 24/M07 A3019 2050 12 3600 000/00 RMK AO2 $
53144K9L2 9L220160210155010202/10/16 15:50:31  5-MIN K9L2 102350Z AUTO 28004KT 10SM CLR 24/M07 A3020 2050 12 3600 270/04 RMK AO2 $
53144K9L2 9L220160210155513702/10/16 15:55:31  5-MIN K9L2 102355Z AUTO 26003KT 10SM CLR 24/M07 A3020 2050 12 3600 250/03 RMK AO2 SLP226 T02391072 10239 20089 58027 $
53144K9L2 9L220160210160010202/10/16 16:00:31  5-MIN K9L2 110000Z AUTO 30003KT 10SM CLR 24/M07 A3020 2050 12 3600 290/03 RMK AO2 $
53144K9L2 9L220160210160510202/10/16 16:05:31  5-MIN K9L2 110005Z AUTO 29004KT 10SM CLR 24/M07 A3019 2050 12 3600 270/04 RMK AO2 $
53144K9L2 9L220160210161010202/10/16 16:10:31  5-MIN K9L2 110010Z AUTO 32004KT 10SM CLR 24/M07 A3019 2050 12 3600 310/04 RMK AO2 $
53144K9L2 9L220160210161510202/10/16 16:15:31  5-MIN K9L2 110015Z AUTO 31004KT 10SM CLR 24/M07 A3019 2050 12 3600 290/04 RMK AO2 $
53144K9L2 9L220160210162010202/10/16 16:20:31  5-MIN K9L2 110020Z AUTO 33003KT 10SM CLR 24/M07 A3019 2050 12 3600 310/03 RMK AO2 $
53144K9L2 9L220160210162510202/10/16 16:25:31  5-MIN K9L2 110025Z AUTO 32003KT 10SM CLR 24/M07 A3019 2050 12 3600 300/03 RMK AO2 $
53144K9L2 9L220160210163010202/10/16 16:30:31  5-MIN K9L2 110030Z AUTO 33003KT 10SM CLR 24/M07 A3019 2050 12 3600 320/03 RMK AO2 $
53144K9L2 9L220160210163510202/10/16 16:35:31  5-MIN K9L2 110035Z AUTO 00000KT 10SM CLR 24/M07 A3019 2050 12 3600 000/00 RMK AO2 $
53144K9L2 9L220160210164010202/10/16 16:40:31  5-MIN K9L2 110040Z AUTO 00000KT 10SM CLR 24/M07 A3019 2050 12 3600 000/00 RMK AO2 $
53144K9L2 9L220160210164510202/10/16 16:45:31  5-MIN K9L2 110045Z AUTO 00000KT 10SM CLR 24/M07 A3019 2050 12 3600 000/00 RMK AO2 $
53144K9L2 9L220160210165010202/10/16 16:50:31  5-MIN K9L2 110050Z AUTO 34003KT 10SM CLR 24/M07 A3019 2050 12 3600 320/03 RMK AO2 $
53144K9L2 9L220160210165511902/10/16 16:55:31  5-MIN K9L2 110055Z AUTO 33003KT 10SM CLR 23/M07 A3019 2050 13 3500 320/03 RMK AO2 SLP225 T02331067 $
53144K9L2 9L220160210170010202/10/16 17:00:31  5-MIN K9L2 110100Z AUTO 00000KT 10SM CLR 23/M06 A3019 2050 14 3500 000/00 RMK AO2 $
53144K9L2 9L220160210170510202/10/16 17:05:31  5-MIN K9L2 110105Z AUTO 34003KT 10SM CLR 23/M05 A3019 2050 15 3500 330/03 RMK AO2 $
53144K9L2 9L220160210171010202/10/16 17:10:31  5-MIN K9L2 110110Z AUTO 35004KT 10SM CLR 23/M05 A3019 2050 15 3500 330/04 RMK AO2 $
53144K9L2 9L220160210171510202/10/16 17:15:31  5-MIN K9L2 110115Z AUTO 33004KT 10SM CLR 22/M04 A3020 2050 17 3300 320/04 RMK AO2 $
53144K9L2 9L220160210172010202/10/16 17:20:31  5-MIN K9L2 110120Z AUTO 32004KT 10SM CLR 21/M04 A3020 2050 18 3300 310/04 RMK AO2 $
53144K9L2 9L220160210172510202/10/16 17:25:31  5-MIN K9L2 110125Z AUTO 33005KT 10SM CLR 20/M04 A3020 2050 19 3100 320/05 RMK AO2 $
53144K9L2 9L220160210173010202/10/16 17:30:31  5-MIN K9L2 110130Z AUTO 33005KT 10SM CLR 19/M04 A3020 2050 20 3100 320/05 RMK AO2 $
53144K9L2 9L220160210173510202/10/16 17:35:31  5-MIN K9L2 110135Z AUTO 33004KT 10SM CLR 18/M04 A3020 2050 21 2900 310/04 RMK AO2 $
53144K9L2 9L220160210174010202/10/16 17:40:31  5-MIN K9L2 110140Z AUTO 32004KT 10SM CLR 18/M04 A3020 2040 21 2900 310/04 RMK AO2 $
53144K9L2 9L220160210174510202/10/16 17:45:31  5-MIN K9L2 110145Z AUTO 32004KT 10SM CLR 17/M04 A3020 2040 22 2800 300/04 RMK AO2 $
53144K9L2 9L220160210175010202/10/16 17:50:31  5-MIN K9L2 110150Z AUTO 31004KT 10SM CLR 17/M04 A3020 2040 23 2700 300/04 RMK AO2 $
53144K9L2 9L220160210175511902/10/16 17:55:31  5-MIN K9L2 110155Z AUTO 32004KT 10SM CLR 16/M04 A3020 2040 24 2700 310/04 RMK AO2 SLP234 T01611044 $
53144K9L2 9L220160210180010202/10/16 18:00:31  5-MIN K9L2 110200Z AUTO 32004KT 10SM CLR 16/M04 A3020 2040 25 2600 300/04 RMK AO2 $
53144K9L2 9L220160210180510202/10/16 18:05:31  5-MIN K9L2 110205Z AUTO 32005KT 10SM CLR 15/M04 A3021 2040 27 2600 300/05 RMK AO2 $
53144K9L2 9L220160210181010202/10/16 18:10:31  5-MIN K9L2 110210Z AUTO 32005KT 10SM CLR 14/M04 A3021 2040 28 2500 300/05 RMK AO2 $
53144K9L2 9L220160210181510202/10/16 18:15:31  5-MIN K9L2 110215Z AUTO 32005KT 10SM CLR 14/M04 A3021 2040 29 2400 300/05 RMK AO2 $
53144K9L2 9L220160210182010202/10/16 18:20:31  5-MIN K9L2 110220Z AUTO 30005KT 10SM CLR 13/M03 A3021 2040 31 2400 290/05 RMK AO2 $
53144K9L2 9L220160210182510202/10/16 18:25:31  5-MIN K9L2 110225Z AUTO 30006KT 10SM CLR 13/M03 A3021 2040 31 2400 290/06 RMK AO2 $
53144K9L2 9L220160210183010202/10/16 18:30:31  5-MIN K9L2 110230Z AUTO 30007KT 10SM CLR 13/M03 A3021 2040 32 2300 290/07 RMK AO2 $
53144K9L2 9L220160210183510202/10/16 18:35:31  5-MIN K9L2 110235Z AUTO 30007KT 10SM CLR 13/M03 A3021 2030 32 2300 290/07 RMK AO2 $
53144K9L2 9L220160210184010202/10/16 18:40:31  5-MIN K9L2 110240Z AUTO 31006KT 10SM CLR 12/M03 A3021 2040 33 2200 290/06 RMK AO2 $
53144K9L2 9L220160210184510202/10/16 18:45:31  5-MIN K9L2 110245Z AUTO 31005KT 10SM CLR 12/M03 A3021 2040 33 2200 300/05 RMK AO2 $
53144K9L2 9L220160210185010202/10/16 18:50:31  5-MIN K9L2 110250Z AUTO 31004KT 10SM CLR 12/M03 A3021 2030 35 2200 300/04 RMK AO2 $
53144K9L2 9L220160210185512502/10/16 18:55:31  5-MIN K9L2 110255Z AUTO 31005KT 10SM CLR 12/M03 A3021 2030 35 2200 300/05 RMK AO2 SLP241 T01171033 56016 $
53144K9L2 9L220160210190010202/10/16 19:00:31  5-MIN K9L2 110300Z AUTO 31005KT 10SM CLR 11/M03 A3021 2030 36 2100 290/05 RMK AO2 $
53144K9L2 9L220160210190510202/10/16 19:05:31  5-MIN K9L2 110305Z AUTO 30005KT 10SM CLR 11/M03 A3021 2030 36 2100 290/05 RMK AO2 $
53144K9L2 9L220160210191010202/10/16 19:10:31  5-MIN K9L2 110310Z AUTO 30005KT 10SM CLR 11/M03 A3021 2030 36 2100 290/05 RMK AO2 $
53144K9L2 9L220160210191510202/10/16 19:15:31  5-MIN K9L2 110315Z AUTO 31004KT 10SM CLR 11/M03 A3022 2030 37 2000 290/04 RMK AO2 $
53144K9L2 9L220160210192010202/10/16 19:20:31  5-MIN K9L2 110320Z AUTO 30004KT 10SM CLR 10/M03 A3022 2030 39 2000 290/04 RMK AO2 $
53144K9L2 9L220160210192510202/10/16 19:25:31  5-MIN K9L2 110325Z AUTO 30003KT 10SM CLR 10/M04 A3022 2030 37 2000 290/03 RMK AO2 $
53144K9L2 9L220160210193010202/10/16 19:30:31  5-MIN K9L2 110330Z AUTO 31003KT 10SM CLR 10/M04 A3022 2030 37 1900 300/03 RMK AO2 $
53144K9L2 9L220160210193510202/10/16 19:35:31  5-MIN K9L2 110335Z AUTO 00000KT 10SM CLR 11/M03 A3022 2030 37 2000 000/00 RMK AO2 $
53144K9L2 9L220160210194010202/10/16 19:40:31  5-MIN K9L2 110340Z AUTO 00000KT 10SM CLR 09/M03 A3022 2030 40 1900 000/00 RMK AO2 $
53144K9L2 9L220160210194510202/10/16 19:45:31  5-MIN K9L2 110345Z AUTO 00000KT 10SM CLR 09/M04 A3022 2020 40 1800 000/00 RMK AO2 $
53144K9L2 9L220160210195010202/10/16 19:50:31  5-MIN K9L2 110350Z AUTO 00000KT 10SM CLR 09/M03 A3022 2020 40 1900 000/00 RMK AO2 $
53144K9L2 9L220160210195511902/10/16 19:55:31  5-MIN K9L2 110355Z AUTO 00000KT 10SM CLR 09/M03 A3022 2020 40 1900 000/00 RMK AO2 SLP243 T00941033 $
53144K9L2 9L220160210200010202/10/16 20:00:31  5-MIN K9L2 110400Z AUTO 00000KT 10SM CLR 08/M04 A3022 2020 42 1700 000/00 RMK AO2 $
53144K9L2 9L220160210200510202/10/16 20:05:31  5-MIN K9L2 110405Z AUTO 00000KT 10SM CLR 08/M04 A3022 2020 42 1700 000/00 RMK AO2 $
53144K9L2 9L220160210201010202/10/16 20:10:31  5-MIN K9L2 110410Z AUTO 00000KT 10SM CLR 09/M04 A3022 2020 40 1800 000/00 RMK AO2 $
53144K9L2 9L220160210201510202/10/16 20:15:31  5-MIN K9L2 110415Z AUTO 36003KT 10SM CLR 09/M04 A3022 2020 40 1800 350/03 RMK AO2 $
53144K9L2 9L220160210202010202/10/16 20:20:31  5-MIN K9L2 110420Z AUTO 00000KT 10SM CLR 09/M04 A3022 2020 40 1800 000/00 RMK AO2 $
53144K9L2 9L220160210202510202/10/16 20:25:31  5-MIN K9L2 110425Z AUTO 33003KT 10SM CLR 09/M04 A3022 2020 40 1800 310/03 RMK AO2 $
53144K9L2 9L220160210203010202/10/16 20:30:31  5-MIN K9L2 110430Z AUTO 35004KT 10SM CLR 08/M04 A3022 2020 43 1700 340/04 RMK AO2 $
53144K9L2 9L220160210203510202/10/16 20:35:31  5-MIN K9L2 110435Z AUTO 35004KT 10SM CLR 08/M04 A3022 2020 42 1700 340/04 RMK AO2 $
53144K9L2 9L220160210204010202/10/16 20:40:31  5-MIN K9L2 110440Z AUTO 35005KT 10SM CLR 09/M04 A3023 2020 40 1800 340/05 RMK AO2 $
53144K9L2 9L220160210204510202/10/16 20:45:31  5-MIN K9L2 110445Z AUTO 35004KT 10SM CLR 09/M04 A3023 2020 40 1800 340/04 RMK AO2 $
53144K9L2 9L220160210205010202/10/16 20:50:31  5-MIN K9L2 110450Z AUTO 34005KT 10SM CLR 09/M04 A3023 2020 40 1800 330/05 RMK AO2 $
53144K9L2 9L220160210205511902/10/16 20:55:31  5-MIN K9L2 110455Z AUTO 34004KT 10SM CLR 09/M04 A3023 2020 40 1800 330/04 RMK AO2 SLP244 T00891039 $
53144K9L2 9L220160210210010202/10/16 21:00:31  5-MIN K9L2 110500Z AUTO 34004KT 10SM CLR 09/M04 A3023 2020 40 1800 330/04 RMK AO2 $
53144K9L2 9L220160210210510202/10/16 21:05:31  5-MIN K9L2 110505Z AUTO 35003KT 10SM CLR 08/M04 A3023 2020 42 1700 330/03 RMK AO2 $
53144K9L2 9L220160210211010202/10/16 21:10:31  5-MIN K9L2 110510Z AUTO 00000KT 10SM CLR 08/M04 A3023 2020 43 1700 000/00 RMK AO2 $
53144K9L2 9L220160210211510202/10/16 21:15:31  5-MIN K9L2 110515Z AUTO 00000KT 10SM CLR 08/M04 A3023 2020 43 1700 000/00 RMK AO2 $
53144K9L2 9L220160210212010202/10/16 21:20:31  5-MIN K9L2 110520Z AUTO 00000KT 10SM CLR 07/M04 A3023 2020 45 1600 000/00 RMK AO2 $
53144K9L2 9L220160210212510202/10/16 21:25:31  5-MIN K9L2 110525Z AUTO 00000KT 10SM CLR 07/M04 A3023 2010 45 1500 000/00 RMK AO2 $
53144K9L2 9L220160210213010202/10/16 21:30:31  5-MIN K9L2 110530Z AUTO 28003KT 10SM CLR 06/M04 A3023 2020 46 1500 270/03 RMK AO2 $
53144K9L2 9L220160210213510202/10/16 21:35:31  5-MIN K9L2 110535Z AUTO 29004KT 10SM CLR 06/M04 A3023 2010 46 1500 270/04 RMK AO2 $
53144K9L2 9L220160210214010202/10/16 21:40:31  5-MIN K9L2 110540Z AUTO 00000KT 10SM CLR 06/M04 A3023 2010 46 1500 000/00 RMK AO2 $
53144K9L2 9L220160210214510202/10/16 21:45:31  5-MIN K9L2 110545Z AUTO 00000KT 10SM CLR 06/M04 A3024 2010 46 1500 000/00 RMK AO2 $
53144K9L2 9L220160210215010202/10/16 21:50:31  5-MIN K9L2 110550Z AUTO 00000KT 10SM CLR 06/M04 A3024 2010 46 1500 000/00 RMK AO2 $
53144K9L2 9L220160210215513702/10/16 21:55:31  5-MIN K9L2 110555Z AUTO 00000KT 10SM CLR 06/M04 A3024 2010 46 1500 000/00 RMK AO2 SLP247 T00611044 10239 20061 53005 $
53144K9L2 9L220160210220010202/10/16 22:00:31  5-MIN K9L2 110600Z AUTO 00000KT 10SM CLR 06/M04 A3024 2010 46 1500 000/00 RMK AO2 $
53144K9L2 9L220160210220510202/10/16 22:05:31  5-MIN K9L2 110605Z AUTO 00000KT 10SM CLR 06/M04 A3024 2010 46 1500 000/00 RMK AO2 $
53144K9L2 9L220160210221010202/10/16 22:10:31  5-MIN K9L2 110610Z AUTO 00000KT 10SM CLR 06/M04 A3024 2010 48 1400 000/00 RMK AO2 $
53144K9L2 9L220160210221510202/10/16 22:15:31  5-MIN K9L2 110615Z AUTO 00000KT 10SM CLR 05/M04 A3024 2010 50 1300 000/00 RMK AO2 $
53144K9L2 9L220160210222010202/10/16 22:20:31  5-MIN K9L2 110620Z AUTO 00000KT 10SM CLR 05/M04 A3024 2010 52 1300 000/00 RMK AO2 $
53144K9L2 9L220160210222510202/10/16 22:25:31  5-MIN K9L2 110625Z AUTO 00000KT 10SM CLR 05/M04 A3023 2010 52 1300 000/00 RMK AO2 $
53144K9L2 9L220160210223010202/10/16 22:30:31  5-MIN K9L2 110630Z AUTO 00000KT 10SM CLR 05/M04 A3024 2010 52 1300 000/00 RMK AO2 $
53144K9L2 9L220160210223510202/10/16 22:35:31  5-MIN K9L2 110635Z AUTO 00000KT 10SM CLR 06/M04 A3024 2010 50 1400 000/00 RMK AO2 $
53144K9L2 9L220160210224010202/10/16 22:40:31  5-MIN K9L2 110640Z AUTO 00000KT 10SM CLR 06/M04 A3024 2010 50 1400 000/00 RMK AO2 $
53144K9L2 9L220160210224510202/10/16 22:45:31  5-MIN K9L2 110645Z AUTO 29003KT 10SM CLR 06/M04 A3024 2010 50 1400 280/03 RMK AO2 $
53144K9L2 9L220160210225010202/10/16 22:50:31  5-MIN K9L2 110650Z AUTO 28003KT 10SM CLR 05/M04 A3024 2010 52 1300 260/03 RMK AO2 $
53144K9L2 9L220160210225511902/10/16 22:55:31  5-MIN K9L2 110655Z AUTO 00000KT 10SM CLR 05/M04 A3024 2010 52 1300 000/00 RMK AO2 SLP244 T00501039 $
53144K9L2 9L220160210230010202/10/16 23:00:31  5-MIN K9L2 110700Z AUTO 00000KT 10SM CLR 06/M04 A3024 2010 50 1400 000/00 RMK AO2 $
53144K9L2 9L220160210230510202/10/16 23:05:31  5-MIN K9L2 110705Z AUTO 00000KT 10SM CLR 06/M04 A3024 2010 48 1500 000/00 RMK AO2 $
53144K9L2 9L220160210231010202/10/16 23:10:31  5-MIN K9L2 110710Z AUTO 00000KT 10SM CLR 06/M04 A3024 2010 50 1400 000/00 RMK AO2 $
53144K9L2 9L220160210231510202/10/16 23:15:31  5-MIN K9L2 110715Z AUTO 00000KT 10SM CLR 06/M04 A3024 2010 50 1400 000/00 RMK AO2 $
53144K9L2 9L220160210232010202/10/16 23:20:31  5-MIN K9L2 110720Z AUTO 00000KT 10SM CLR 06/M04 A3024 2010 50 1400 000/00 RMK AO2 $
53144K9L2 9L220160210232510202/10/16 23:25:31  5-MIN K9L2 110725Z AUTO 00000KT 10SM CLR 06/M04 A3024 2010 48 1500 000/00 RMK AO2 $
53144K9L2 9L220160210233010202/10/16 23:30:31  5-MIN K9L2 110730Z AUTO 11003KT 10SM CLR 06/M04 A3024 2010 46 1500 090/03 RMK AO2 $
53144K9L2 9L220160210233510202/10/16 23:35:31  5-MIN K9L2 110735Z AUTO 00000KT 10SM CLR 05/M04 A3024 2010 50 1300 000/00 RMK AO2 $
53144K9L2 9L220160210234010202/10/16 23:40:31  5-MIN K9L2 110740Z AUTO 12004KT 10SM CLR 05/M04 A3024 2010 52 1300 110/04 RMK AO2 $
53144K9L2 9L220160210234510202/10/16 23:45:31  5-MIN K9L2 110745Z AUTO 14004KT 10SM CLR 06/M04 A3024 2010 48 1400 120/04 RMK AO2 $
53144K9L2 9L220160210235010202/10/16 23:50:31  5-MIN K9L2 110750Z AUTO 15004KT 10SM CLR 06/M04 A3024 2010 48 1400 130/04 RMK AO2 $
53144K9L2 9L220160210235512902/10/16 23:55:31  5-MIN K9L2 110755Z AUTO 15005KT 10SM CLR 06/M04 A3024 2010 48 1400 130/05 RMK AO2 SLP240 T00561044 402391011 $
53144K9L2 9L220160211000010202/11/16 00:00:31  5-MIN K9L2 110800Z AUTO 14003KT 10SM CLR 06/M04 A3024 2010 48 1400 130/03 RMK AO2 $
53144K9L2 9L220160211000510202/11/16 00:05:31  5-MIN K9L2 110805Z AUTO 00000KT 10SM CLR 06/M04 A3024 2010 48 1400 000/00 RMK AO2 $
53144K9L2 9L220160211001010202/11/16 00:10:31  5-MIN K9L2 110810Z AUTO 00000KT 10SM CLR 06/M04 A3024 2010 48 1400 000/00 RMK AO2 $
53144K9L2 9L220160211001510202/11/16 00:15:31  5-MIN K9L2 110815Z AUTO 00000KT 10SM CLR 05/M04 A3024 2010 50 1300 000/00 RMK AO2 $
53144K9L2 9L220160211002010202/11/16 00:20:31  5-MIN K9L2 110820Z AUTO 00000KT 10SM CLR 05/M04 A3024 2010 50 1300 000/00 RMK AO2 $
53144K9L2 9L220160211002510202/11/16 00:25:31  5-MIN K9L2 110825Z AUTO 00000KT 10SM CLR 05/M04 A3024 2010 50 1300 000/00 RMK AO2 $
53144K9L2 9L220160211003010202/11/16 00:30:31  5-MIN K9L2 110830Z AUTO 00000KT 10SM CLR 03/M05 A3024 2010 54 1100 000/00 RMK AO2 $
53144K9L2 9L220160211003510202/11/16 00:35:31  5-MIN K9L2 110835Z AUTO 00000KT 10SM CLR 03/M04 A3024 2010 57 1100 000/00 RMK AO2 $
53144K9L2 9L220160211004010202/11/16 00:40:31  5-MIN K9L2 110840Z AUTO 00000KT 10SM CLR 03/M05 A3023 2010 54 1100 000/00 RMK AO2 $
53144K9L2 9L220160211004510202/11/16 00:45:31  5-MIN K9L2 110845Z AUTO 00000KT 10SM CLR 03/M05 A3023 2010 56 1100 000/00 RMK AO2 $
53144K9L2 9L220160211005010202/11/16 00:50:31  5-MIN K9L2 110850Z AUTO 00000KT 10SM CLR 03/M04 A3023 2010 57 1100 000/00 RMK AO2 $
53144K9L2 9L220160211005512502/11/16 00:55:31  5-MIN K9L2 110855Z AUTO 00000KT 10SM CLR 03/M05 A3023 2010 56 1100 000/00 RMK AO2 SLP239 T00281050 52008 $
53144K9L2 9L220160211010010202/11/16 01:00:31  5-MIN K9L2 110900Z AUTO 00000KT 10SM CLR 03/M05 A3023 2010 56 1100 000/00 RMK AO2 $
53144K9L2 9L220160211010510202/11/16 01:05:31  5-MIN K9L2 110905Z AUTO 00000KT 10SM CLR 03/M04 A3023 2020 59 1100 000/00 RMK AO2 $
53144K9L2 9L220160211011010202/11/16 01:10:31  5-MIN K9L2 110910Z AUTO 00000KT 10SM CLR 03/M04 A3023 2010 57 1100 000/00 RMK AO2 $
53144K9L2 9L220160211011510202/11/16 01:15:31  5-MIN K9L2 110915Z AUTO 00000KT 10SM CLR 03/M04 A3023 2010 59 1100 000/00 RMK AO2 $
53144K9L2 9L220160211012010202/11/16 01:20:31  5-MIN K9L2 110920Z AUTO 00000KT 10SM CLR 03/M04 A3023 2010 59 1100 000/00 RMK AO2 $
53144K9L2 9L220160211012510202/11/16 01:25:31  5-MIN K9L2 110925Z AUTO 00000KT 10SM CLR 03/M05 A3023 2020 56 1100 000/00 RMK AO2 $
53144K9L2 9L220160211013010902/11/16 01:30:31  5-MIN K9L2 110930Z AUTO 00000KT 10SM CLR 02/M05 A3023 2020 59 1000 000/00 RMK AO2 FZRANO $
53144K9L2 9L220160211013510802/11/16 01:35:31  5-MIN K9L2 110935Z AUTO 03003KT 10SM CLR 02/M05 A3023 2010 61 900 020/03 RMK AO2 FZRANO $
53144K9L2 9L220160211014010802/11/16 01:40:31  5-MIN K9L2 110940Z AUTO 00000KT 10SM CLR 02/M05 A3023 2010 61 900 000/00 RMK AO2 FZRANO $
53144K9L2 9L220160211014510902/11/16 01:45:31  5-MIN K9L2 110945Z AUTO 00000KT 10SM CLR 02/M05 A3023 2020 59 1000 000/00 RMK AO2 FZRANO $
53144K9L2 9L220160211015010802/11/16 01:50:31  5-MIN K9L2 110950Z AUTO 00000KT 10SM CLR 02/M05 A3023 2020 61 900 000/00 RMK AO2 FZRANO $
53144K9L2 9L220160211015512502/11/16 01:55:31  5-MIN K9L2 110955Z AUTO 00000KT 10SM CLR 02/M05 A3023 2010 61 900 000/00 RMK AO2 SLP239 T00171050 FZRANO $
53144K9L2 9L220160211020010902/11/16 02:00:31  5-MIN K9L2 111000Z AUTO 00000KT 10SM CLR 02/M05 A3024 2010 59 1000 000/00 RMK AO2 FZRANO $
53144K9L2 9L220160211020510802/11/16 02:05:31  5-MIN K9L2 111005Z AUTO 00000KT 10SM CLR 02/M05 A3023 2010 61 900 000/00 RMK AO2 FZRANO $
53144K9L2 9L220160211021010802/11/16 02:10:31  5-MIN K9L2 111010Z AUTO 00000KT 10SM CLR 01/M05 A3023 2010 64 900 000/00 RMK AO2 FZRANO $
53144K9L2 9L220160211021510802/11/16 02:15:31  5-MIN K9L2 111015Z AUTO 00000KT 10SM CLR 01/M05 A3023 2020 64 900 000/00 RMK AO2 FZRANO $
53144K9L2 9L220160211022010802/11/16 02:20:31  5-MIN K9L2 111020Z AUTO 00000KT 10SM CLR 01/M05 A3023 2020 64 900 000/00 RMK AO2 FZRANO $
53144K9L2 9L220160211022510802/11/16 02:25:31  5-MIN K9L2 111025Z AUTO 00000KT 10SM CLR 01/M05 A3023 2020 64 900 000/00 RMK AO2 FZRANO $
53144K9L2 9L220160211023010802/11/16 02:30:31  5-MIN K9L2 111030Z AUTO 00000KT 10SM CLR 02/M05 A3023 2010 61 900 000/00 RMK AO2 FZRANO $
53144K9L2 9L220160211023510802/11/16 02:35:31  5-MIN K9L2 111035Z AUTO 36003KT 10SM CLR 01/M05 A3023 2020 64 900 340/03 RMK AO2 FZRANO $
53144K9L2 9L220160211024010802/11/16 02:40:31  5-MIN K9L2 111040Z AUTO 36004KT 10SM CLR 01/M05 A3023 2020 64 900 340/04 RMK AO2 FZRANO $
53144K9L2 9L220160211024510902/11/16 02:45:31  5-MIN K9L2 111045Z AUTO 36004KT 10SM CLR 02/M04 A3023 2020 61 1000 340/04 RMK AO2 FZRANO $
53144K9L2 9L220160211025010802/11/16 02:50:31  5-MIN K9L2 111050Z AUTO 00000KT 10SM CLR 02/M05 A3023 2020 61 900 000/00 RMK AO2 FZRANO $
53144K9L2 9L220160211025512502/11/16 02:55:31  5-MIN K9L2 111055Z AUTO 00000KT 10SM CLR 02/M05 A3023 2020 61 900 000/00 RMK AO2 SLP237 T00171050 FZRANO $
53144K9L2 9L220160211030010802/11/16 03:00:31  5-MIN K9L2 111100Z AUTO 00000KT 10SM CLR 02/M05 A3023 2020 61 900 000/00 RMK AO2 FZRANO $
53144K9L2 9L220160211030510802/11/16 03:05:31  5-MIN K9L2 111105Z AUTO 00000KT 10SM CLR 01/M05 A3023 2020 64 900 000/00 RMK AO2 FZRANO $
53144K9L2 9L220160211031010802/11/16 03:10:31  5-MIN K9L2 111110Z AUTO 00000KT 10SM CLR 02/M05 A3023 2020 61 900 000/00 RMK AO2 FZRANO $
53144K9L2 9L220160211031510802/11/16 03:15:31  5-MIN K9L2 111115Z AUTO 00000KT 10SM CLR 02/M05 A3023 2020 61 900 000/00 RMK AO2 FZRANO $
53144K9L2 9L220160211032010802/11/16 03:20:31  5-MIN K9L2 111120Z AUTO 00000KT 10SM CLR 02/M05 A3023 2020 61 900 000/00 RMK AO2 FZRANO $
53144K9L2 9L220160211032510802/11/16 03:25:31  5-MIN K9L2 111125Z AUTO 00000KT 10SM CLR 02/M05 A3023 2020 61 900 000/00 RMK AO2 FZRANO $
53144K9L2 9L220160211033010902/11/16 03:30:31  5-MIN K9L2 111130Z AUTO 00000KT 10SM CLR 02/M05 A3023 2020 59 1000 000/00 RMK AO2 FZRANO $
53144K9L2 9L220160211033510802/11/16 03:35:31  5-MIN K9L2 111135Z AUTO 00000KT 10SM CLR 02/M05 A3023 2020 61 900 000/00 RMK AO2 FZRANO $
53144K9L2 9L220160211034010802/11/16 03:40:31  5-MIN K9L2 111140Z AUTO 00000KT 10SM CLR 01/M06 A3023 2020 63 800 000/00 RMK AO2 FZRANO $
53144K9L2 9L220160211034510802/11/16 03:45:31  5-MIN K9L2 111145Z AUTO 00000KT 10SM CLR 02/M05 A3023 2020 61 900 000/00 RMK AO2 FZRANO $
53144K9L2 9L220160211035010802/11/16 03:50:31  5-MIN K9L2 111150Z AUTO 00000KT 10SM CLR 01/M05 A3023 2020 64 900 000/00 RMK AO2 FZRANO $
53144K9L2 9L220160211035514302/11/16 03:55:31  5-MIN K9L2 111155Z AUTO 00000KT 10SM CLR 01/M05 A3023 2020 64 900 000/00 RMK AO2 SLP237 T00111050 10061 20006 58001 FZRANO $
53144K9L2 9L220160211040010802/11/16 04:00:31  5-MIN K9L2 111200Z AUTO 00000KT 10SM CLR 02/M05 A3023 2020 61 900 000/00 RMK AO2 FZRANO $
53144K9L2 9L220160211040510802/11/16 04:05:31  5-MIN K9L2 111205Z AUTO 00000KT 10SM CLR 01/M06 A3023 2020 61 900 000/00 RMK AO2 FZRANO $
53144K9L2 9L220160211041010802/11/16 04:10:31  5-MIN K9L2 111210Z AUTO 00000KT 10SM CLR 02/M06 A3023 2020 59 900 000/00 RMK AO2 FZRANO $
53144K9L2 9L220160211041510802/11/16 04:15:31  5-MIN K9L2 111215Z AUTO 00000KT 10SM CLR 01/M06 A3023 2020 61 900 000/00 RMK AO2 FZRANO $
53144K9L2 9L220160211042010802/11/16 04:20:31  5-MIN K9L2 111220Z AUTO 00000KT 10SM CLR 01/M06 A3023 2020 63 800 000/00 RMK AO2 FZRANO $
53144K9L2 9L220160211042510802/11/16 04:25:31  5-MIN K9L2 111225Z AUTO 00000KT 10SM CLR 01/M06 A3023 2020 61 900 000/00 RMK AO2 FZRANO $
53144K9L2 9L220160211043010802/11/16 04:30:31  5-MIN K9L2 111230Z AUTO 00000KT 10SM CLR 00/M06 A3023 2020 66 700 000/00 RMK AO2 FZRANO $
53144K9L2 9L220160211043510802/11/16 04:35:31  5-MIN K9L2 111235Z AUTO 00000KT 10SM CLR 00/M06 A3023 2020 66 700 000/00 RMK AO2 FZRANO $
53144K9L2 9L220160211044010802/11/16 04:40:31  5-MIN K9L2 111240Z AUTO 00000KT 10SM CLR 00/M06 A3023 2020 66 700 000/00 RMK AO2 FZRANO $
53144K9L2 9L220160211044510802/11/16 04:45:31  5-MIN K9L2 111245Z AUTO 33003KT 10SM CLR 00/M06 A3023 2020 66 700 320/03 RMK AO2 FZRANO $
53144K9L2 9L220160211045010802/11/16 04:50:31  5-MIN K9L2 111250Z AUTO 33003KT 10SM CLR 00/M06 A3023 2020 66 700 320/03 RMK AO2 FZRANO $
53144K9L2 9L220160211045512502/11/16 04:55:31  5-MIN K9L2 111255Z AUTO 33003KT 10SM CLR 00/M06 A3023 2020 66 700 320/03 RMK AO2 SLP239 T00001056 FZRANO $
53144K9L2 9L220160211050010802/11/16 05:00:31  5-MIN K9L2 111300Z AUTO 32003KT 10SM CLR 00/M06 A3023 2020 66 700 310/03 RMK AO2 FZRANO $
53144K9L2 9L220160211050510802/11/16 05:05:31  5-MIN K9L2 111305Z AUTO 00000KT 10SM CLR 00/M05 A3023 2020 69 700 000/00 RMK AO2 FZRANO $
53144K9L2 9L220160211051010802/11/16 05:10:31  5-MIN K9L2 111310Z AUTO 00000KT 10SM CLR 00/M06 A3023 2020 66 700 000/00 RMK AO2 FZRANO $
53144K9L2 9L220160211051510802/11/16 05:15:31  5-MIN K9L2 111315Z AUTO 00000KT 10SM CLR 00/M05 A3023 2020 69 700 000/00 RMK AO2 FZRANO $
53144K9L2 9L220160211052010802/11/16 05:20:31  5-MIN K9L2 111320Z AUTO 00000KT 10SM CLR 00/M06 A3023 2020 66 700 000/00 RMK AO2 FZRANO $
53144K9L2 9L220160211052510902/11/16 05:25:31  5-MIN K9L2 111325Z AUTO 00000KT 10SM CLR M01/M06 A3023 2020 69 700 000/00 RMK AO2 FZRANO $
53144K9L2 9L220160211053010902/11/16 05:30:31  5-MIN K9L2 111330Z AUTO 00000KT 10SM CLR M01/M06 A3023 2020 69 700 000/00 RMK AO2 FZRANO $
53144K9L2 9L220160211053510902/11/16 05:35:31  5-MIN K9L2 111335Z AUTO 00000KT 10SM CLR M01/M06 A3023 2020 69 600 000/00 RMK AO2 FZRANO $
53144K9L2 9L220160211054010802/11/16 05:40:31  5-MIN K9L2 111340Z AUTO 00000KT 10SM CLR 00/M06 A3023 2010 66 700 000/00 RMK AO2 FZRANO $
53144K9L2 9L220160211054510802/11/16 05:45:31  5-MIN K9L2 111345Z AUTO 00000KT 10SM CLR 00/M06 A3023 2020 66 700 000/00 RMK AO2 FZRANO $
53144K9L2 9L220160211055010802/11/16 05:50:31  5-MIN K9L2 111350Z AUTO 00000KT 10SM CLR 00/M06 A3023 2020 66 700 000/00 RMK AO2 FZRANO $
53144K9L2 9L220160211055512602/11/16 05:55:31  5-MIN K9L2 111355Z AUTO 00000KT 10SM CLR M01/M06 A3023 2020 69 700 000/00 RMK AO2 SLP245 T10061056 FZRANO $
53144K9L2 9L220160211060010902/11/16 06:00:31  5-MIN K9L2 111400Z AUTO 00000KT 10SM CLR M01/M06 A3023 2010 69 600 000/00 RMK AO2 FZRANO $
53144K9L2 9L220160211060510902/11/16 06:05:31  5-MIN K9L2 111405Z AUTO 00000KT 10SM CLR M01/M06 A3023 2010 72 600 000/00 RMK AO2 FZRANO $
53144K9L2 9L220160211061010902/11/16 06:10:31  5-MIN K9L2 111410Z AUTO 00000KT 10SM CLR M01/M06 A3024 2010 72 600 000/00 RMK AO2 FZRANO $
53144K9L2 9L220160211061510902/11/16 06:15:31  5-MIN K9L2 111415Z AUTO 00000KT 10SM CLR M01/M06 A3024 2010 69 600 000/00 RMK AO2 FZRANO $
53144K9L2 9L220160211062010902/11/16 06:20:31  5-MIN K9L2 111420Z AUTO 00000KT 10SM CLR M01/M06 A3024 2010 69 600 000/00 RMK AO2 FZRANO $
53144K9L2 9L220160211062510902/11/16 06:25:31  5-MIN K9L2 111425Z AUTO 00000KT 10SM CLR M01/M06 A3024 2010 72 600 000/00 RMK AO2 FZRANO $
53144K9L2 9L220160211063010902/11/16 06:30:31  5-MIN K9L2 111430Z AUTO 00000KT 10SM CLR M01/M06 A3024 2010 72 600 000/00 RMK AO2 FZRANO $
53144K9L2 9L220160211063510902/11/16 06:35:31  5-MIN K9L2 111435Z AUTO 00000KT 10SM CLR M01/M06 A3024 2010 72 600 000/00 RMK AO2 FZRANO $
53144K9L2 9L220160211064010902/11/16 06:40:31  5-MIN K9L2 111440Z AUTO 00000KT 10SM CLR M01/M06 A3024 2010 72 600 000/00 RMK AO2 FZRANO $
53144K9L2 9L220160211064510902/11/16 06:45:31  5-MIN K9L2 111445Z AUTO 00000KT 10SM CLR M01/M06 A3024 2010 72 600 000/00 RMK AO2 FZRANO $
53144K9L2 9L220160211065010902/11/16 06:50:31  5-MIN K9L2 111450Z AUTO 00000KT 10SM CLR M01/M06 A3024 2010 69 600 000/00 RMK AO2 FZRANO $
53144K9L2 9L220160211065513202/11/16 06:55:31  5-MIN K9L2 111455Z AUTO 00000KT 10SM CLR M01/M06 A3024 2010 69 600 000/00 RMK AO2 SLP252 T10061056 56001 FZRANO $
53144K9L2 9L220160211070010902/11/16 07:00:31  5-MIN K9L2 111500Z AUTO 00000KT 10SM CLR M01/M06 A3024 2010 69 600 000/00 RMK AO2 FZRANO $
53144K9L2 9L220160211070510802/11/16 07:05:31  5-MIN K9L2 111505Z AUTO 00000KT 10SM CLR 00/M06 A3024 2010 66 700 000/00 RMK AO2 FZRANO $
53144K9L2 9L220160211071010802/11/16 07:10:31  5-MIN K9L2 111510Z AUTO 00000KT 10SM CLR 00/M05 A3024 2010 69 700 000/00 RMK AO2 FZRANO $
53144K9L2 9L220160211071510802/11/16 07:15:31  5-MIN K9L2 111515Z AUTO 00000KT 10SM CLR 01/M05 A3024 2010 64 800 000/00 RMK AO2 FZRANO $
53144K9L2 9L220160211072010802/11/16 07:20:31  5-MIN K9L2 111520Z AUTO 00000KT 10SM CLR 02/M05 A3024 2000 61 900 000/00 RMK AO2 FZRANO $
53144K9L2 9L220160211072510802/11/16 07:25:31  5-MIN K9L2 111525Z AUTO 00000KT 10SM CLR 02/M04 A3025 2000 64 900 000/00 RMK AO2 FZRANO $
53144K9L2 9L220160211073010902/11/16 07:30:31  5-MIN K9L2 111530Z AUTO 00000KT 10SM CLR 02/M04 A3025 2000 61 1000 000/00 RMK AO2 FZRANO $
53144K9L2 9L220160211073510202/11/16 07:35:31  5-MIN K9L2 111535Z AUTO 00000KT 10SM CLR 03/M04 A3025 2000 61 1000 000/00 RMK AO2 $
53144K9L2 9L220160211074010202/11/16 07:40:31  5-MIN K9L2 111540Z AUTO 00000KT 10SM CLR 03/M04 A3025 2000 59 1100 000/00 RMK AO2 $
53144K9L2 9L220160211074510202/11/16 07:45:31  5-MIN K9L2 111545Z AUTO 00000KT 10SM CLR 03/M04 A3025 2000 57 1100 000/00 RMK AO2 $
53144K9L2 9L220160211075010202/11/16 07:50:31  5-MIN K9L2 111550Z AUTO 00000KT 10SM CLR 03/M04 A3025 1990 57 1100 000/00 RMK AO2 $
53144K9L2 9L220160211075511902/11/16 07:55:31  5-MIN K9L2 111555Z AUTO 00000KT 10SM CLR 03/M05 A3025 1990 56 1000 000/00 RMK AO2 SLP256 T00281050 $
53144K9L2 9L220160211080010202/11/16 08:00:31  5-MIN K9L2 111600Z AUTO 00000KT 10SM CLR 03/M05 A3026 1990 56 1000 000/00 RMK AO2 $
53144K9L2 9L220160211080510202/11/16 08:05:31  5-MIN K9L2 111605Z AUTO 00000KT 10SM CLR 03/M05 A3026 1990 56 1000 000/00 RMK AO2 $
53144K9L2 9L220160211081010202/11/16 08:10:31  5-MIN K9L2 111610Z AUTO 00000KT 10SM CLR 03/M05 A3026 1990 56 1000 000/00 RMK AO2 $
53144K9L2 9L220160211081510202/11/16 08:15:31  5-MIN K9L2 111615Z AUTO 00000KT 10SM CLR 03/M05 A3026 1990 54 1100 000/00 RMK AO2 $
53144K9L2 9L220160211082010202/11/16 08:20:31  5-MIN K9L2 111620Z AUTO 00000KT 10SM CLR 03/M05 A3026 1990 54 1100 000/00 RMK AO2 $
53144K9L2 9L220160211082510202/11/16 08:25:31  5-MIN K9L2 111625Z AUTO 00000KT 10SM CLR 04/M05 A3026 1990 52 1200 000/00 RMK AO2 $
53144K9L2 9L220160211083010202/11/16 08:30:31  5-MIN K9L2 111630Z AUTO 00000KT 10SM CLR 04/M04 A3026 1990 52 1200 000/00 RMK AO2 $
53144K9L2 9L220160211083510202/11/16 08:35:31  5-MIN K9L2 111635Z AUTO 00000KT 10SM CLR 04/M04 A3026 1990 52 1200 000/00 RMK AO2 $
53144K9L2 9L220160211084010202/11/16 08:40:31  5-MIN K9L2 111640Z AUTO 00000KT 10SM CLR 05/M04 A3026 1990 50 1300 000/00 RMK AO2 $
53144K9L2 9L220160211084510202/11/16 08:45:31  5-MIN K9L2 111645Z AUTO 00000KT 10SM CLR 05/M04 A3026 1990 50 1300 000/00 RMK AO2 $
53144K9L2 9L220160211085010202/11/16 08:50:31  5-MIN K9L2 111650Z AUTO 00000KT 10SM CLR 06/M04 A3026 1990 48 1400 000/00 RMK AO2 $
53144K9L2 9L220160211085511902/11/16 08:55:31  5-MIN K9L2 111655Z AUTO 00000KT 10SM CLR 06/M04 A3026 1990 48 1400 000/00 RMK AO2 SLP257 T00561044 $
53144K9L2 9L220160211090010202/11/16 09:00:31  5-MIN K9L2 111700Z AUTO 00000KT 10SM CLR 06/M04 A3026 1990 48 1400 000/00 RMK AO2 $
53144K9L2 9L220160211090510202/11/16 09:05:31  5-MIN K9L2 111705Z AUTO 00000KT 10SM CLR 06/M04 A3027 1980 48 1400 000/00 RMK AO2 $
53144K9L2 9L220160211091010202/11/16 09:10:31  5-MIN K9L2 111710Z AUTO 00000KT 10SM CLR 07/M03 A3027 1980 49 1500 000/00 RMK AO2 $
53144K9L2 9L220160211091510202/11/16 09:15:31  5-MIN K9L2 111715Z AUTO 00000KT 10SM CLR 07/M04 A3027 1980 45 1600 000/00 RMK AO2 $
53144K9L2 9L220160211092010202/11/16 09:20:31  5-MIN K9L2 111720Z AUTO 00000KT 10SM CLR 07/M04 A3027 1980 45 1600 000/00 RMK AO2 $
53144K9L2 9L220160211092510202/11/16 09:25:31  5-MIN K9L2 111725Z AUTO 00000KT 10SM CLR 07/M03 A3027 1980 47 1600 000/00 RMK AO2 $
53144K9L2 9L220160211093010202/11/16 09:30:31  5-MIN K9L2 111730Z AUTO 00000KT 10SM CLR 08/M03 A3027 1980 45 1600 000/00 RMK AO2 $
53144K9L2 9L220160211093510202/11/16 09:35:31  5-MIN K9L2 111735Z AUTO 00000KT 10SM CLR 08/M03 A3027 1980 43 1700 000/00 RMK AO2 $
53144K9L2 9L220160211094010202/11/16 09:40:31  5-MIN K9L2 111740Z AUTO 00000KT 10SM CLR 08/M03 A3027 1980 43 1700 000/00 RMK AO2 $
53144K9L2 9L220160211094510202/11/16 09:45:31  5-MIN K9L2 111745Z AUTO 00000KT 10SM CLR 08/M03 A3027 1980 43 1700 000/00 RMK AO2 $
53144K9L2 9L220160211095010202/11/16 09:50:31  5-MIN K9L2 111750Z AUTO 00000KT 10SM CLR 09/M03 A3027 1980 43 1800 000/00 RMK AO2 $
53144K9L2 9L220160211095513702/11/16 09:55:31  5-MIN K9L2 111755Z AUTO 00000KT 10SM CLR 09/M03 A3027 1980 42 1800 000/00 RMK AO2 SLP259 T00941028 10094 21011 53003 $
53144K9L2 9L220160211100010202/11/16 10:00:31  5-MIN K9L2 111800Z AUTO 00000KT 10SM CLR 09/M03 A3027 1980 42 1800 000/00 RMK AO2 $
53144K9L2 9L220160211100510202/11/16 10:05:31  5-MIN K9L2 111805Z AUTO 00000KT 10SM CLR 10/M03 A3027 1980 40 1900 000/00 RMK AO2 $
53144K9L2 9L220160211101010202/11/16 10:10:31  5-MIN K9L2 111810Z AUTO 00000KT 10SM CLR 10/M03 A3027 1980 40 1900 000/00 RMK AO2 $
53144K9L2 9L220160211101510202/11/16 10:15:31  5-MIN K9L2 111815Z AUTO 00000KT 10SM CLR 11/M03 A3027 1980 39 2000 000/00 RMK AO2 $
53144K9L2 9L220160211102010202/11/16 10:20:31  5-MIN K9L2 111820Z AUTO 00000KT 10SM CLR 11/M03 A3027 1980 37 2000 000/00 RMK AO2 $
53144K9L2 9L220160211102510202/11/16 10:25:31  5-MIN K9L2 111825Z AUTO 00000KT 10SM CLR 12/M03 A3027 1980 36 2100 000/00 RMK AO2 $
53144K9L2 9L220160211103010202/11/16 10:30:31  5-MIN K9L2 111830Z AUTO 00000KT 10SM CLR 12/M03 A3027 1980 35 2200 000/00 RMK AO2 $
53144K9L2 9L220160211103510202/11/16 10:35:31  5-MIN K9L2 111835Z AUTO 00000KT 10SM CLR 13/M03 A3027 1980 33 2200 000/00 RMK AO2 $
53144K9L2 9L220160211104010202/11/16 10:40:31  5-MIN K9L2 111840Z AUTO 15003KT 10SM CLR 13/M03 A3027 1990 33 2200 140/03 RMK AO2 $
53144K9L2 9L220160211104510202/11/16 10:45:31  5-MIN K9L2 111845Z AUTO 00000KT 10SM CLR 13/M03 A3026 1990 33 2200 000/00 RMK AO2 $
53144K9L2 9L220160211105010202/11/16 10:50:31  5-MIN K9L2 111850Z AUTO 16003KT 10SM CLR 13/M03 A3026 1990 32 2300 140/03 RMK AO2 $
53144K9L2 9L220160211105511902/11/16 10:55:31  5-MIN K9L2 111855Z AUTO 00000KT 10SM CLR 13/M03 A3026 1990 32 2300 000/00 RMK AO2 SLP251 T01331028 $
53144K9L2 9L220160211110010202/11/16 11:00:31  5-MIN K9L2 111900Z AUTO 17003KT 10SM CLR 14/M02 A3026 1990 32 2400 160/03 RMK AO2 $
53144K9L2 9L220160211110510202/11/16 11:05:31  5-MIN K9L2 111905Z AUTO 17003KT 10SM CLR 14/M02 A3026 1990 31 2400 160/03 RMK AO2 $
53144K9L2 9L220160211111010202/11/16 11:10:31  5-MIN K9L2 111910Z AUTO 16003KT 10SM CLR 15/M02 A3025 2000 30 2500 150/03 RMK AO2 $
53144K9L2 9L220160211111510202/11/16 11:15:31  5-MIN K9L2 111915Z AUTO 16004KT 10SM CLR 15/M02 A3025 2000 30 2500 150/04 RMK AO2 $
53144K9L2 9L220160211112010202/11/16 11:20:31  5-MIN K9L2 111920Z AUTO 17003KT 10SM CLR 15/M03 A3025 2000 29 2500 150/03 RMK AO2 $
53144K9L2 9L220160211112510202/11/16 11:25:31  5-MIN K9L2 111925Z AUTO 16003KT 10SM CLR 16/M03 A3025 2000 28 2600 150/03 RMK AO2 $
53144K9L2 9L220160211113010202/11/16 11:30:31  5-MIN K9L2 111930Z AUTO 16003KT 10SM CLR 16/M03 A3025 2000 27 2600 140/03 RMK AO2 $
53144K9L2 9L220160211113510202/11/16 11:35:31  5-MIN K9L2 111935Z AUTO 15003KT 10SM CLR 16/M03 A3024 2000 27 2600 140/03 RMK AO2 $
53144K9L2 9L220160211114010202/11/16 11:40:31  5-MIN K9L2 111940Z AUTO 00000KT 10SM CLR 16/M03 A3024 2010 26 2600 000/00 RMK AO2 $
53144K9L2 9L220160211114510202/11/16 11:45:31  5-MIN K9L2 111945Z AUTO 00000KT 10SM CLR 17/M03 A3024 2010 25 2700 000/00 RMK AO2 $
53144K9L2 9L220160211115010202/11/16 11:50:31  5-MIN K9L2 111950Z AUTO 00000KT 10SM CLR 17/M03 A3024 2010 25 2700 000/00 RMK AO2 $
53144K9L2 9L220160211115511902/11/16 11:55:31  5-MIN K9L2 111955Z AUTO 00000KT 10SM CLR 17/M03 A3024 2010 24 2800 000/00 RMK AO2 SLP239 T01721033 $
53144K9L2 9L220160211120010202/11/16 12:00:31  5-MIN K9L2 112000Z AUTO 00000KT 10SM CLR 18/M03 A3023 2010 23 2800 000/00 RMK AO2 $
53144K9L2 9L220160211120510202/11/16 12:05:31  5-MIN K9L2 112005Z AUTO 00000KT 10SM CLR 18/M03 A3023 2020 23 2800 000/00 RMK AO2 $
53144K9L2 9L220160211121010202/11/16 12:10:31  5-MIN K9L2 112010Z AUTO 00000KT 10SM CLR 18/M03 A3023 2020 23 2900 000/00 RMK AO2 $
53144K9L2 9L220160211121510202/11/16 12:15:31  5-MIN K9L2 112015Z AUTO 00000KT 10SM CLR 18/M03 A3022 2020 22 2900 000/00 RMK AO2 $
53144K9L2 9L220160211122010202/11/16 12:20:31  5-MIN K9L2 112020Z AUTO 00000KT 10SM CLR 18/M04 A3022 2030 21 2900 000/00 RMK AO2 $
53144K9L2 9L220160211122510202/11/16 12:25:31  5-MIN K9L2 112025Z AUTO 00000KT 10SM CLR 19/M03 A3022 2030 22 3000 000/00 RMK AO2 $
53144K9L2 9L220160211123010202/11/16 12:30:31  5-MIN K9L2 112030Z AUTO 00000KT 10SM CLR 19/M04 A3021 2030 21 3000 000/00 RMK AO2 $
53144K9L2 9L220160211123510202/11/16 12:35:31  5-MIN K9L2 112035Z AUTO 00000KT 10SM CLR 19/M04 A3021 2030 21 3000 000/00 RMK AO2 $
53144K9L2 9L220160211124010202/11/16 12:40:31  5-MIN K9L2 112040Z AUTO 00000KT 10SM CLR 19/M04 A3021 2040 20 3100 000/00 RMK AO2 $
53144K9L2 9L220160211124510202/11/16 12:45:31  5-MIN K9L2 112045Z AUTO 00000KT 10SM CLR 20/M04 A3021 2040 19 3100 000/00 RMK AO2 $
53144K9L2 9L220160211125010202/11/16 12:50:31  5-MIN K9L2 112050Z AUTO 00000KT 10SM CLR 20/M04 A3020 2040 18 3100 000/00 RMK AO2 $
53144K9L2 9L220160211125512502/11/16 12:55:31  5-MIN K9L2 112055Z AUTO 00000KT 10SM CLR 21/M04 A3020 2050 18 3200 000/00 RMK AO2 SLP227 T02061044 51010 $
53144K9L2 9L220160211130010202/11/16 13:00:31  5-MIN K9L2 112100Z AUTO 00000KT 10SM CLR 21/M04 A3020 2050 18 3200 000/00 RMK AO2 $
53144K9L2 9L220160211130510202/11/16 13:05:31  5-MIN K9L2 112105Z AUTO 00000KT 10SM CLR 21/M04 A3020 2050 17 3300 000/00 RMK AO2 $
53144K9L2 9L220160211131010202/11/16 13:10:31  5-MIN K9L2 112110Z AUTO 00000KT 10SM CLR 21/M04 A3019 2050 17 3300 000/00 RMK AO2 $
53144K9L2 9L220160211131510202/11/16 13:15:31  5-MIN K9L2 112115Z AUTO 00000KT 10SM CLR 21/M04 A3019 2050 17 3300 000/00 RMK AO2 $
53144K9L2 9L220160211132010202/11/16 13:20:31  5-MIN K9L2 112120Z AUTO 00000KT 10SM CLR 22/M04 A3019 2060 17 3300 000/00 RMK AO2 $
53144K9L2 9L220160211132510202/11/16 13:25:31  5-MIN K9L2 112125Z AUTO 00000KT 10SM CLR 22/M06 A3019 2060 15 3300 000/00 RMK AO2 $
53144K9L2 9L220160211133010202/11/16 13:30:31  5-MIN K9L2 112130Z AUTO 00000KT 10SM CLR 22/M06 A3018 2060 15 3400 000/00 RMK AO2 $
53144K9L2 9L220160211133510202/11/16 13:35:31  5-MIN K9L2 112135Z AUTO 00000KT 10SM CLR 22/M07 A3018 2060 14 3400 000/00 RMK AO2 $
53144K9L2 9L220160211134010202/11/16 13:40:31  5-MIN K9L2 112140Z AUTO 00000KT 10SM CLR 22/M07 A3018 2060 14 3400 000/00 RMK AO2 $
53144K9L2 9L220160211134510202/11/16 13:45:31  5-MIN K9L2 112145Z AUTO 00000KT 10SM CLR 23/M07 A3018 2070 13 3500 000/00 RMK AO2 $
53144K9L2 9L220160211135010202/11/16 13:50:31  5-MIN K9L2 112150Z AUTO 13003KT 10SM CLR 23/M06 A3017 2070 14 3500 120/03 RMK AO2 $
53144K9L2 9L220160211135511902/11/16 13:55:31  5-MIN K9L2 112155Z AUTO 00000KT 10SM CLR 23/M07 A3017 2070 13 3500 000/00 RMK AO2 SLP218 T02281067 $
53144K9L2 9L220160211140010202/11/16 14:00:31  5-MIN K9L2 112200Z AUTO 00000KT 10SM CLR 23/M06 A3018 2070 13 3500 000/00 RMK AO2 $
53144K9L2 9L220160211140510202/11/16 14:05:31  5-MIN K9L2 112205Z AUTO 00000KT 10SM CLR 23/M07 A3017 2070 13 3500 000/00 RMK AO2 $
53144K9L2 9L220160211141010202/11/16 14:10:31  5-MIN K9L2 112210Z AUTO 17003KT 10SM CLR 23/M07 A3017 2070 13 3500 160/03 RMK AO2 $
53144K9L2 9L220160211141510202/11/16 14:15:31  5-MIN K9L2 112215Z AUTO 14003KT 10SM CLR 23/M07 A3017 2070 13 3500 130/03 RMK AO2 $
53144K9L2 9L220160211142010202/11/16 14:20:31  5-MIN K9L2 112220Z AUTO 00000KT 10SM CLR 23/M07 A3017 2070 13 3500 000/00 RMK AO2 $
53144K9L2 9L220160211142510202/11/16 14:25:31  5-MIN K9L2 112225Z AUTO 16004KT 10SM CLR 23/M07 A3017 2070 13 3500 150/04 RMK AO2 $
53144K9L2 9L220160211143010202/11/16 14:30:31  5-MIN K9L2 112230Z AUTO 16004KT 10SM CLR 23/M07 A3017 2070 13 3500 150/04 RMK AO2 $
53144K9L2 9L220160211143510202/11/16 14:35:31  5-MIN K9L2 112235Z AUTO 14003KT 10SM CLR 23/M07 A3017 2070 13 3500 130/03 RMK AO2 $
53144K9L2 9L220160211144010202/11/16 14:40:31  5-MIN K9L2 112240Z AUTO 16003KT 10SM CLR 23/M07 A3017 2070 13 3500 150/03 RMK AO2 $
53144K9L2 9L220160211144510202/11/16 14:45:31  5-MIN K9L2 112245Z AUTO 00000KT 10SM CLR 23/M07 A3017 2070 13 3500 000/00 RMK AO2 $
53144K9L2 9L220160211145010202/11/16 14:50:31  5-MIN K9L2 112250Z AUTO 00000KT 10SM CLR 23/M07 A3017 2070 13 3500 000/00 RMK AO2 $
53144K9L2 9L220160211145511902/11/16 14:55:31  5-MIN K9L2 112255Z AUTO 00000KT 10SM CLR 23/M07 A3017 2080 13 3500 000/00 RMK AO2 SLP215 T02331067 $
53144K9L2 9L220160211150010202/11/16 15:00:31  5-MIN K9L2 112300Z AUTO 18003KT 10SM CLR 23/M07 A3017 2080 13 3600 160/03 RMK AO2 $
53144K9L2 9L220160211150510202/11/16 15:05:31  5-MIN K9L2 112305Z AUTO 00000KT 10SM CLR 23/M07 A3016 2080 13 3600 000/00 RMK AO2 $
53144K9L2 9L220160211151010202/11/16 15:10:31  5-MIN K9L2 112310Z AUTO 00000KT 10SM CLR 24/M07 A3016 2080 12 3600 000/00 RMK AO2 $
53144K9L2 9L220160211151510202/11/16 15:15:31  5-MIN K9L2 112315Z AUTO 18003KT 10SM CLR 24/M07 A3016 2080 12 3600 160/03 RMK AO2 $
53144K9L2 9L220160211152010202/11/16 15:20:31  5-MIN K9L2 112320Z AUTO 17003KT 10SM CLR 23/M07 A3016 2080 13 3600 160/03 RMK AO2 $
53144K9L2 9L220160211152510202/11/16 15:25:31  5-MIN K9L2 112325Z AUTO 18003KT 10SM CLR 24/M07 A3016 2080 12 3600 170/03 RMK AO2 $
53144K9L2 9L220160211153010202/11/16 15:30:31  5-MIN K9L2 112330Z AUTO 19004KT 10SM CLR 24/M07 A3016 2080 12 3600 170/04 RMK AO2 $
53144K9L2 9L220160211153510202/11/16 15:35:31  5-MIN K9L2 112335Z AUTO 00000KT 10SM CLR 23/M07 A3016 2080 13 3600 000/00 RMK AO2 $
53144K9L2 9L220160211154010202/11/16 15:40:31  5-MIN K9L2 112340Z AUTO 00000KT 10SM CLR 24/M07 A3016 2080 12 3600 000/00 RMK AO2 $
53144K9L2 9L220160211154510202/11/16 15:45:31  5-MIN K9L2 112345Z AUTO 19003KT 10SM CLR 24/M07 A3016 2080 12 3600 180/03 RMK AO2 $
53144K9L2 9L220160211155010202/11/16 15:50:31  5-MIN K9L2 112350Z AUTO 00000KT 10SM CLR 24/M07 A3016 2080 12 3600 000/00 RMK AO2 $
53144K9L2 9L220160211155513702/11/16 15:55:31  5-MIN K9L2 112355Z AUTO 18003KT 10SM CLR 24/M07 A3016 2080 12 3600 170/03 RMK AO2 SLP214 T02391067 10239 20094 58023 $
53144K9L2 9L220160211160010202/11/16 16:00:31  5-MIN K9L2 120000Z AUTO 20003KT 10SM CLR 24/M07 A3017 2080 12 3600 190/03 RMK AO2 $
53144K9L2 9L220160211160510202/11/16 16:05:31  5-MIN K9L2 120005Z AUTO 00000KT 10SM CLR 24/M07 A3017 2080 12 3600 000/00 RMK AO2 $
53144K9L2 9L220160211161010202/11/16 16:10:31  5-MIN K9L2 120010Z AUTO 00000KT 10SM CLR 24/M07 A3017 2080 12 3600 000/00 RMK AO2 $
53144K9L2 9L220160211161510202/11/16 16:15:31  5-MIN K9L2 120015Z AUTO 00000KT 10SM CLR 24/M07 A3017 2070 12 3600 000/00 RMK AO2 $
53144K9L2 9L220160211162010202/11/16 16:20:31  5-MIN K9L2 120020Z AUTO 26003KT 10SM CLR 24/M07 A3017 2070 12 3600 240/03 RMK AO2 $
53144K9L2 9L220160211162510202/11/16 16:25:31  5-MIN K9L2 120025Z AUTO 00000KT 10SM CLR 24/M07 A3017 2070 12 3600 000/00 RMK AO2 $
53144K9L2 9L220160211163010202/11/16 16:30:31  5-MIN K9L2 120030Z AUTO 24004KT 10SM CLR 24/M07 A3017 2070 12 3600 230/04 RMK AO2 $
53144K9L2 9L220160211163510202/11/16 16:35:31  5-MIN K9L2 120035Z AUTO 26003KT 10SM CLR 24/M07 A3017 2070 12 3600 250/03 RMK AO2 $
53144K9L2 9L220160211164010202/11/16 16:40:31  5-MIN K9L2 120040Z AUTO 26003KT 10SM CLR 23/M07 A3017 2070 12 3500 250/03 RMK AO2 $
53144K9L2 9L220160211164510202/11/16 16:45:31  5-MIN K9L2 120045Z AUTO 26003KT 10SM CLR 23/M07 A3017 2070 13 3500 250/03 RMK AO2 $
53144K9L2 9L220160211165010202/11/16 16:50:31  5-MIN K9L2 120050Z AUTO 27003KT 10SM CLR 23/M07 A3017 2070 12 3500 260/03 RMK AO2 $
53144K9L2 9L220160211165511902/11/16 16:55:31  5-MIN K9L2 120055Z AUTO 28003KT 10SM CLR 23/M07 A3017 2070 13 3500 270/03 RMK AO2 SLP218 T02281067 $
53144K9L2 9L220160211170010202/11/16 17:00:31  5-MIN K9L2 120100Z AUTO 29003KT 10SM CLR 23/M07 A3018 2070 13 3500 280/03 RMK AO2 $
53144K9L2 9L220160211170510202/11/16 17:05:31  5-MIN K9L2 120105Z AUTO 28004KT 10SM CLR 22/M06 A3018 2070 14 3400 270/04 RMK AO2 $
53144K9L2 9L220160211171010202/11/16 17:10:31  5-MIN K9L2 120110Z AUTO 29004KT 10SM CLR 22/M06 A3018 2070 15 3400 270/04 RMK AO2 $
53144K9L2 9L220160211171510202/11/16 17:15:31  5-MIN K9L2 120115Z AUTO 29004KT 10SM CLR 21/M06 A3018 2070 15 3300 270/04 RMK AO2 $
53144K9L2 9L220160211172010202/11/16 17:20:31  5-MIN K9L2 120120Z AUTO 28004KT 10SM CLR 21/M06 A3018 2070 16 3200 270/04 RMK AO2 $
53144K9L2 9L220160211172510202/11/16 17:25:31  5-MIN K9L2 120125Z AUTO 28004KT 10SM CLR 20/M06 A3018 2070 17 3200 270/04 RMK AO2 $
53144K9L2 9L220160211173010202/11/16 17:30:31  5-MIN K9L2 120130Z AUTO 29004KT 10SM CLR 20/M06 A3018 2070 17 3200 270/04 RMK AO2 $
53144K9L2 9L220160211173510202/11/16 17:35:31  5-MIN K9L2 120135Z AUTO 29004KT 10SM CLR 19/M06 A3018 2060 17 3100 280/04 RMK AO2 $
53144K9L2 9L220160211174010202/11/16 17:40:31  5-MIN K9L2 120140Z AUTO 29004KT 10SM CLR 18/M06 A3018 2060 19 3000 280/04 RMK AO2 $
53144K9L2 9L220160211174510202/11/16 17:45:31  5-MIN K9L2 120145Z AUTO 28004KT 10SM CLR 18/M06 A3018 2060 20 2900 270/04 RMK AO2 $
53144K9L2 9L220160211175010202/11/16 17:50:31  5-MIN K9L2 120150Z AUTO 29004KT 10SM CLR 17/M06 A3018 2060 19 2800 280/04 RMK AO2 $
53144K9L2 9L220160211175511902/11/16 17:55:31  5-MIN K9L2 120155Z AUTO 29004KT 10SM CLR 17/M06 A3018 2060 21 2800 280/04 RMK AO2 SLP226 T01671056 $
53144K9L2 9L220160211180010202/11/16 18:00:31  5-MIN K9L2 120200Z AUTO 29004KT 10SM CLR 16/M06 A3018 2060 22 2700 280/04 RMK AO2 $
53144K9L2 9L220160211180510202/11/16 18:05:31  5-MIN K9L2 120205Z AUTO 30004KT 10SM CLR 16/M05 A3018 2060 24 2600 280/04 RMK AO2 $
53144K9L2 9L220160211181010202/11/16 18:10:31  5-MIN K9L2 120210Z AUTO 30005KT 10SM CLR 15/M05 A3018 2060 24 2600 290/05 RMK AO2 $
53144K9L2 9L220160211181510202/11/16 18:15:31  5-MIN K9L2 120215Z AUTO 30006KT 10SM CLR 14/M05 A3019 2060 25 2500 290/06 RMK AO2 $
53144K9L2 9L220160211182010202/11/16 18:20:31  5-MIN K9L2 120220Z AUTO 30007KT 10SM CLR 14/M05 A3019 2060 25 2500 280/07 RMK AO2 $
53144K9L2 9L220160211182510202/11/16 18:25:31  5-MIN K9L2 120225Z AUTO 29007KT 10SM CLR 14/M05 A3019 2060 26 2400 280/07 RMK AO2 $
53144K9L2 9L220160211183010202/11/16 18:30:31  5-MIN K9L2 120230Z AUTO 29007KT 10SM CLR 14/M05 A3019 2050 26 2400 280/07 RMK AO2 $
53144K9L2 9L220160211183510202/11/16 18:35:31  5-MIN K9L2 120235Z AUTO 29007KT 10SM CLR 13/M04 A3019 2050 30 2300 280/07 RMK AO2 $
53144K9L2 9L220160211184010202/11/16 18:40:31  5-MIN K9L2 120240Z AUTO 29007KT 10SM CLR 13/M05 A3019 2050 28 2300 280/07 RMK AO2 $
53144K9L2 9L220160211184510202/11/16 18:45:31  5-MIN K9L2 120245Z AUTO 29008KT 10SM CLR 13/M05 A3019 2050 28 2300 280/08 RMK AO2 $
53144K9L2 9L220160211185010202/11/16 18:50:31  5-MIN K9L2 120250Z AUTO 30007KT 10SM CLR 13/M04 A3019 2050 30 2300 280/07 RMK AO2 $
53144K9L2 9L220160211185512502/11/16 18:55:31  5-MIN K9L2 120255Z AUTO 29008KT 10SM CLR 13/M04 A3019 2050 30 2300 280/08 RMK AO2 SLP234 T01281044 56011 $
53144K9L2 9L220160211190010202/11/16 19:00:31  5-MIN K9L2 120300Z AUTO 29008KT 10SM CLR 12/M04 A3019 2050 31 2200 280/08 RMK AO2 $
53144K9L2 9L220160211190510202/11/16 19:05:31  5-MIN K9L2 120305Z AUTO 29008KT 10SM CLR 12/M04 A3019 2050 31 2200 280/08 RMK AO2 $
53144K9L2 9L220160211191010202/11/16 19:10:31  5-MIN K9L2 120310Z AUTO 31004KT 10SM CLR 12/M04 A3020 2050 32 2200 300/04 RMK AO2 $
53144K9L2 9L220160211191510202/11/16 19:15:31  5-MIN K9L2 120315Z AUTO 30006KT 10SM CLR 12/M04 A3019 2050 31 2200 290/06 RMK AO2 $
53144K9L2 9L220160211192010202/11/16 19:20:31  5-MIN K9L2 120320Z AUTO 31005KT 10SM CLR 12/M04 A3019 2050 32 2200 290/05 RMK AO2 $
53144K9L2 9L220160211192510202/11/16 19:25:31  5-MIN K9L2 120325Z AUTO 00000KT 10SM CLR 11/M04 A3019 2050 33 2100 000/00 RMK AO2 $
53144K9L2 9L220160211193010202/11/16 19:30:31  5-MIN K9L2 120330Z AUTO 00000KT 10SM CLR 11/M04 A3020 2050 36 2000 000/00 RMK AO2 $
53144K9L2 9L220160211193510202/11/16 19:35:31  5-MIN K9L2 120335Z AUTO 00000KT 10SM CLR 11/M04 A3020 2050 34 2100 000/00 RMK AO2 $
53144K9L2 9L220160211194010202/11/16 19:40:31  5-MIN K9L2 120340Z AUTO 00000KT 10SM CLR 11/M04 A3020 2050 33 2100 000/00 RMK AO2 $
53144K9L2 9L220160211194510202/11/16 19:45:31  5-MIN K9L2 120345Z AUTO 00000KT 10SM CLR 12/M04 A3020 2050 31 2200 000/00 RMK AO2 $
53144K9L2 9L220160211195010202/11/16 19:50:31  5-MIN K9L2 120350Z AUTO 00000KT 10SM CLR 12/M04 A3020 2050 32 2200 000/00 RMK AO2 $
53144K9L2 9L220160211195511902/11/16 19:55:31  5-MIN K9L2 120355Z AUTO 00000KT 10SM CLR 12/M04 A3020 2040 31 2200 000/00 RMK AO2 SLP234 T01221044 $
53144K9L2 9L220160211200010202/11/16 20:00:31  5-MIN K9L2 120400Z AUTO 26003KT 10SM CLR 09/M05 A3020 2040 35 1900 250/03 RMK AO2 $
53144K9L2 9L220160211200510202/11/16 20:05:31  5-MIN K9L2 120405Z AUTO 28003KT 10SM CLR 09/M05 A3020 2040 37 1800 270/03 RMK AO2 $
53144K9L2 9L220160211201010202/11/16 20:10:31  5-MIN K9L2 120410Z AUTO 28003KT 10SM CLR 09/M05 A3020 2040 35 1900 260/03 RMK AO2 $
53144K9L2 9L220160211201510202/11/16 20:15:31  5-MIN K9L2 120415Z AUTO 00000KT 10SM CLR 09/M05 A3020 2040 37 1800 000/00 RMK AO2 $
53144K9L2 9L220160211202010202/11/16 20:20:31  5-MIN K9L2 120420Z AUTO 25003KT 10SM CLR 09/M04 A3021 2040 38 1800 240/03 RMK AO2 $
53144K9L2 9L220160211202510202/11/16 20:25:31  5-MIN K9L2 120425Z AUTO 00000KT 10SM CLR 09/M04 A3021 2040 37 1900 000/00 RMK AO2 $
53144K9L2 9L220160211203010202/11/16 20:30:31  5-MIN K9L2 120430Z AUTO 00000KT 10SM CLR 09/M04 A3021 2040 38 1800 000/00 RMK AO2 $
53144K9L2 9L220160211203510202/11/16 20:35:31  5-MIN K9L2 120435Z AUTO 21003KT 10SM CLR 09/M04 A3021 2040 37 1900 200/03 RMK AO2 $
53144K9L2 9L220160211204010202/11/16 20:40:31  5-MIN K9L2 120440Z AUTO 00000KT 10SM CLR 08/M04 A3021 2040 40 1800 000/00 RMK AO2 $
53144K9L2 9L220160211204510202/11/16 20:45:31  5-MIN K9L2 120445Z AUTO 00000KT 10SM CLR 08/M04 A3021 2040 40 1800 000/00 RMK AO2 $
53144K9L2 9L220160211205010202/11/16 20:50:31  5-MIN K9L2 120450Z AUTO 00000KT 10SM CLR 09/M04 A3021 2040 40 1800 000/00 RMK AO2 $
53144K9L2 9L220160211205511902/11/16 20:55:31  5-MIN K9L2 120455Z AUTO 20003KT 10SM CLR 09/M04 A3021 2040 40 1800 180/03 RMK AO2 SLP237 T00891039 $
53144K9L2 9L220160211210010202/11/16 21:00:31  5-MIN K9L2 120500Z AUTO 18003KT 10SM CLR 08/M04 A3021 2040 41 1700 170/03 RMK AO2 $
53144K9L2 9L220160211210510202/11/16 21:05:31  5-MIN K9L2 120505Z AUTO 00000KT 10SM CLR 07/M04 A3021 2040 43 1600 000/00 RMK AO2 $
53144K9L2 9L220160211211010202/11/16 21:10:31  5-MIN K9L2 120510Z AUTO 15003KT 10SM CLR 08/M04 A3021 2040 41 1700 140/03 RMK AO2 $
53144K9L2 9L220160211211510202/11/16 21:15:31  5-MIN K9L2 120515Z AUTO 00000KT 10SM CLR 07/M05 A3021 2040 41 1600 000/00 RMK AO2 $
53144K9L2 9L220160211212010202/11/16 21:20:31  5-MIN K9L2 120520Z AUTO 00000KT 10SM CLR 07/M04 A3021 2040 45 1600 000/00 RMK AO2 $
53144K9L2 9L220160211212510202/11/16 21:25:31  5-MIN K9L2 120525Z AUTO 00000KT 10SM CLR 07/M04 A3021 2040 45 1600 000/00 RMK AO2 $
53144K9L2 9L220160211213010202/11/16 21:30:31  5-MIN K9L2 120530Z AUTO 00000KT 10SM CLR 07/M04 A3021 2040 45 1600 000/00 RMK AO2 $
53144K9L2 9L220160211213510202/11/16 21:35:31  5-MIN K9L2 120535Z AUTO 00000KT 10SM CLR 07/M04 A3021 2040 45 1600 000/00 RMK AO2 $
53144K9L2 9L220160211214010202/11/16 21:40:31  5-MIN K9L2 120540Z AUTO 00000KT 10SM CLR 06/M04 A3021 2030 46 1500 000/00 RMK AO2 $
53144K9L2 9L220160211214510202/11/16 21:45:31  5-MIN K9L2 120545Z AUTO 34003KT 10SM CLR 06/M04 A3021 2030 46 1500 330/03 RMK AO2 $
53144K9L2 9L220160211215010202/11/16 21:50:31  5-MIN K9L2 120550Z AUTO 34003KT 10SM CLR 07/M04 A3021 2030 47 1600 330/03 RMK AO2 $
53144K9L2 9L220160211215513702/11/16 21:55:31  5-MIN K9L2 120555Z AUTO 33003KT 10SM CLR 06/M04 A3021 2030 48 1500 320/03 RMK AO2 SLP239 T00611039 10239 20061 52009 $
53144K9L2 9L220160211220010202/11/16 22:00:31  5-MIN K9L2 120600Z AUTO 00000KT 10SM CLR 06/M04 A3021 2030 48 1500 000/00 RMK AO2 $
53144K9L2 9L220160211220510202/11/16 22:05:31  5-MIN K9L2 120605Z AUTO 31005KT 10SM CLR 06/M04 A3022 2030 48 1500 300/05 RMK AO2 $
53144K9L2 9L220160211221010202/11/16 22:10:31  5-MIN K9L2 120610Z AUTO 31005KT 10SM CLR 06/M04 A3022 2030 48 1500 300/05 RMK AO2 $
53144K9L2 9L220160211221510202/11/16 22:15:31  5-MIN K9L2 120615Z AUTO 31005KT 10SM CLR 06/M04 A3022 2030 48 1500 300/05 RMK AO2 $
53144K9L2 9L220160211222010202/11/16 22:20:31  5-MIN K9L2 120620Z AUTO 32005KT 10SM CLR 06/M04 A3022 2030 48 1500 300/05 RMK AO2 $
53144K9L2 9L220160211222510202/11/16 22:25:31  5-MIN K9L2 120625Z AUTO 31004KT 10SM CLR 06/M03 A3022 2030 51 1500 300/04 RMK AO2 $
53144K9L2 9L220160211223010202/11/16 22:30:31  5-MIN K9L2 120630Z AUTO 33005KT 10SM CLR 06/M03 A3022 2030 51 1500 310/05 RMK AO2 $
53144K9L2 9L220160211223510202/11/16 22:35:31  5-MIN K9L2 120635Z AUTO 35004KT 10SM CLR 06/M03 A3022 2030 53 1400 340/04 RMK AO2 $
53144K9L2 9L220160211224010202/11/16 22:40:31  5-MIN K9L2 120640Z AUTO 33004KT 10SM CLR 06/M03 A3022 2030 53 1400 320/04 RMK AO2 $
53144K9L2 9L220160211224510202/11/16 22:45:31  5-MIN K9L2 120645Z AUTO 34005KT 10SM CLR 06/M03 A3022 2030 53 1400 320/05 RMK AO2 $
53144K9L2 9L220160211225010202/11/16 22:50:31  5-MIN K9L2 120650Z AUTO 35004KT 10SM CLR 06/M03 A3022 2030 53 1400 340/04 RMK AO2 $
53144K9L2 9L220160211225511902/11/16 22:55:31  5-MIN K9L2 120655Z AUTO 34003KT 10SM CLR 06/M04 A3022 2030 50 1400 330/03 RMK AO2 SLP238 T00561039 $
53144K9L2 9L220160211230010202/11/16 23:00:31  5-MIN K9L2 120700Z AUTO 34003KT 10SM CLR 06/M04 A3022 2030 50 1400 320/03 RMK AO2 $
53144K9L2 9L220160211230510202/11/16 23:05:31  5-MIN K9L2 120705Z AUTO 00000KT 10SM CLR 06/M03 A3022 2030 53 1400 000/00 RMK AO2 $
53144K9L2 9L220160211231010202/11/16 23:10:31  5-MIN K9L2 120710Z AUTO 00000KT 10SM CLR 06/M03 A3022 2030 53 1400 000/00 RMK AO2 $
53144K9L2 9L220160211231510202/11/16 23:15:31  5-MIN K9L2 120715Z AUTO 00000KT 10SM CLR 06/M03 A3022 2030 53 1400 000/00 RMK AO2 $
53144K9L2 9L220160211232010202/11/16 23:20:31  5-MIN K9L2 120720Z AUTO 00000KT 10SM CLR 06/M03 A3022 2030 51 1500 000/00 RMK AO2 $
53144K9L2 9L220160211232510202/11/16 23:25:31  5-MIN K9L2 120725Z AUTO 00000KT 10SM CLR 06/M03 A3022 2030 53 1400 000/00 RMK AO2 $
53144K9L2 9L220160211233010202/11/16 23:30:31  5-MIN K9L2 120730Z AUTO 00000KT 10SM CLR 06/M04 A3022 2030 50 1400 000/00 RMK AO2 $
53144K9L2 9L220160211233510202/11/16 23:35:31  5-MIN K9L2 120735Z AUTO 00000KT 10SM CLR 05/M04 A3022 2020 52 1300 000/00 RMK AO2 $
53144K9L2 9L220160211234010202/11/16 23:40:31  5-MIN K9L2 120740Z AUTO 00000KT 10SM CLR 05/M04 A3022 2020 52 1300 000/00 RMK AO2 $
53144K9L2 9L220160211234510202/11/16 23:45:31  5-MIN K9L2 120745Z AUTO 00000KT 10SM CLR 05/M04 A3022 2020 52 1300 000/00 RMK AO2 $
53144K9L2 9L220160211235010202/11/16 23:50:31  5-MIN K9L2 120750Z AUTO 00000KT 10SM CLR 05/M04 A3022 2020 52 1300 000/00 RMK AO2 $
53144K9L2 9L220160211235512902/11/16 23:55:31  5-MIN K9L2 120755Z AUTO 00000KT 10SM CLR 05/M04 A3022 2030 52 1300 000/00 RMK AO2 SLP236 T00501039 402391011 $
53144K9L2 9L220160212000010202/12/16 00:00:31  5-MIN K9L2 120800Z AUTO 00000KT 10SM CLR 05/M04 A3022 2020 52 1300 000/00 RMK AO2 $
53144K9L2 9L220160212000510202/12/16 00:05:31  5-MIN K9L2 120805Z AUTO 00000KT 10SM CLR 05/M03 A3022 2020 55 1300 000/00 RMK AO2 $
53144K9L2 9L220160212001010202/12/16 00:10:31  5-MIN K9L2 120810Z AUTO 00000KT 10SM CLR 04/M04 A3022 2020 57 1200 000/00 RMK AO2 $
53144K9L2 9L220160212001510202/12/16 00:15:31  5-MIN K9L2 120815Z AUTO 00000KT 10SM CLR 03/M04 A3022 2030 59 1100 000/00 RMK AO2 $
53144K9L2 9L220160212002010202/12/16 00:20:31  5-MIN K9L2 120820Z AUTO 00000KT 10SM CLR 03/M04 A3022 2030 59 1100 000/00 RMK AO2 $
53144K9L2 9L220160212002510202/12/16 00:25:31  5-MIN K9L2 120825Z AUTO 00000KT 10SM CLR 03/M04 A3022 2030 59 1100 000/00 RMK AO2 $
53144K9L2 9L220160212003010202/12/16 00:30:31  5-MIN K9L2 120830Z AUTO 00000KT 10SM CLR 03/M04 A3022 2030 59 1100 000/00 RMK AO2 $
53144K9L2 9L220160212003510202/12/16 00:35:31  5-MIN K9L2 120835Z AUTO 00000KT 10SM CLR 03/M04 A3022 2030 61 1100 000/00 RMK AO2 $
53144K9L2 9L220160212004010202/12/16 00:40:31  5-MIN K9L2 120840Z AUTO 00000KT 10SM CLR 03/M04 A3022 2030 61 1100 000/00 RMK AO2 $
53144K9L2 9L220160212004510202/12/16 00:45:31  5-MIN K9L2 120845Z AUTO 00000KT 10SM CLR 03/M04 A3022 2030 59 1100 000/00 RMK AO2 $
53144K9L2 9L220160212005010202/12/16 00:50:31  5-MIN K9L2 120850Z AUTO 00000KT 10SM CLR 03/M04 A3022 2030 59 1100 000/00 RMK AO2 $
53144K9L2 9L220160212005512502/12/16 00:55:31  5-MIN K9L2 120855Z AUTO 00000KT 10SM CLR 03/M04 A3022 2030 59 1100 000/00 RMK AO2 SLP235 T00281044 51007 $
53144K9L2 9L220160212010010202/12/16 01:00:31  5-MIN K9L2 120900Z AUTO 00000KT 10SM CLR 03/M04 A3022 2030 59 1100 000/00 RMK AO2 $
53144K9L2 9L220160212010510202/12/16 01:05:31  5-MIN K9L2 120905Z AUTO 00000KT 10SM CLR 03/M04 A3022 2030 59 1100 000/00 RMK AO2 $
53144K9L2 9L220160212011010202/12/16 01:10:31  5-MIN K9L2 120910Z AUTO 00000KT 10SM CLR 03/M04 A3022 2020 59 1100 000/00 RMK AO2 $
53144K9L2 9L220160212011510202/12/16 01:15:31  5-MIN K9L2 120915Z AUTO 00000KT 10SM CLR 03/M04 A3022 2020 59 1100 000/00 RMK AO2 $
53144K9L2 9L220160212012010902/12/16 01:20:31  5-MIN K9L2 120920Z AUTO 00000KT 10SM CLR 02/M04 A3022 2030 61 1000 000/00 RMK AO2 FZRANO $
53144K9L2 9L220160212012510902/12/16 01:25:31  5-MIN K9L2 120925Z AUTO 00000KT 10SM CLR 02/M04 A3022 2030 61 1000 000/00 RMK AO2 FZRANO $
53144K9L2 9L220160212013010902/12/16 01:30:31  5-MIN K9L2 120930Z AUTO 00000KT 10SM CLR 02/M04 A3022 2030 61 1000 000/00 RMK AO2 FZRANO $
53144K9L2 9L220160212013510902/12/16 01:35:31  5-MIN K9L2 120935Z AUTO 00000KT 10SM CLR 02/M04 A3022 2030 61 1000 000/00 RMK AO2 FZRANO $
53144K9L2 9L220160212014010902/12/16 01:40:31  5-MIN K9L2 120940Z AUTO 00000KT 10SM CLR 02/M05 A3022 2030 59 1000 000/00 RMK AO2 FZRANO $
53144K9L2 9L220160212014510802/12/16 01:45:31  5-MIN K9L2 120945Z AUTO 00000KT 10SM CLR 02/M05 A3022 2030 61 900 000/00 RMK AO2 FZRANO $
53144K9L2 9L220160212015010802/12/16 01:50:31  5-MIN K9L2 120950Z AUTO 00000KT 10SM CLR 02/M05 A3022 2030 61 900 000/00 RMK AO2 FZRANO $
53144K9L2 9L220160212015512502/12/16 01:55:31  5-MIN K9L2 120955Z AUTO 00000KT 10SM CLR 02/M05 A3022 2030 61 900 000/00 RMK AO2 SLP233 T00171050 FZRANO $
53144K9L2 9L220160212020010902/12/16 02:00:31  5-MIN K9L2 121000Z AUTO 32003KT 10SM CLR 02/M05 A3022 2030 59 1000 310/03 RMK AO2 FZRANO $
53144K9L2 9L220160212020510902/12/16 02:05:31  5-MIN K9L2 121005Z AUTO 31004KT 10SM CLR 02/M04 A3022 2030 61 1000 300/04 RMK AO2 FZRANO $
53144K9L2 9L220160212021010802/12/16 02:10:31  5-MIN K9L2 121010Z AUTO 31003KT 10SM CLR 02/M04 A3022 2030 64 900 300/03 RMK AO2 FZRANO $
53144K9L2 9L220160212021510802/12/16 02:15:31  5-MIN K9L2 121015Z AUTO 00000KT 10SM CLR 02/M04 A3022 2030 64 900 000/00 RMK AO2 FZRANO $
53144K9L2 9L220160212022010802/12/16 02:20:31  5-MIN K9L2 121020Z AUTO 00000KT 10SM CLR 02/M04 A3021 2030 64 900 000/00 RMK AO2 FZRANO $
53144K9L2 9L220160212022510802/12/16 02:25:31  5-MIN K9L2 121025Z AUTO 00000KT 10SM CLR 02/M04 A3021 2030 64 900 000/00 RMK AO2 FZRANO $
53144K9L2 9L220160212023010802/12/16 02:30:31  5-MIN K9L2 121030Z AUTO 00000KT 10SM CLR 02/M04 A3021 2030 64 900 000/00 RMK AO2 FZRANO $
53144K9L2 9L220160212023510802/12/16 02:35:31  5-MIN K9L2 121035Z AUTO 00000KT 10SM CLR 01/M04 A3021 2030 66 900 000/00 RMK AO2 FZRANO $
53144K9L2 9L220160212024010802/12/16 02:40:31  5-MIN K9L2 121040Z AUTO 34003KT 10SM CLR 02/M04 A3021 2030 64 900 330/03 RMK AO2 FZRANO $
53144K9L2 9L220160212024510802/12/16 02:45:31  5-MIN K9L2 121045Z AUTO 00000KT 10SM CLR 02/M04 A3021 2030 64 900 000/00 RMK AO2 FZRANO $
53144K9L2 9L220160212103510202/12/16 10:35:31  5-MIN K9L2 121835Z AUTO 00000KT 10SM CLR 13/M02 A3025 2000 35 2200 000/00 RMK AO2 $
53144K9L2 9L220160212104010202/12/16 10:40:31  5-MIN K9L2 121840Z AUTO 00000KT 10SM CLR 14/M02 A3025 2000 32 2400 000/00 RMK AO2 $
53144K9L2 9L220160212104510202/12/16 10:45:31  5-MIN K9L2 121845Z AUTO 00000KT 10SM CLR 14/M02 A3025 2000 32 2400 000/00 RMK AO2 $
53144K9L2 9L220160212105010202/12/16 10:50:31  5-MIN K9L2 121850Z AUTO 00000KT 10SM CLR 14/M02 A3025 2000 32 2400 000/00 RMK AO2 $
53144K9L2 9L220160212105512502/12/16 10:55:31  5-MIN K9L2 121855Z AUTO 00000KT 1 1/2SM HZ CLR 14/M02 A3024 2000 31 2400 000/00 RMK AO2 SLP245 T01441022 $
53144K9L2 9L220160212110010802/12/16 11:00:31  5-MIN K9L2 121900Z AUTO 00000KT 1 1/2SM HZ CLR 15/M02 A3024 2010 30 2500 000/00 RMK AO2 $
53144K9L2 9L220160212110510102/12/16 11:05:31  5-MIN K9L2 121905Z AUTO 00000KT 9SM CLR 15/M03 A3024 2010 29 2500 000/00 RMK AO2 $
53144K9L2 9L220160212111010202/12/16 11:10:31  5-MIN K9L2 121910Z AUTO 00000KT 10SM CLR 16/M02 A3024 2010 28 2600 000/00 RMK AO2 $
53144K9L2 9L220160212111510202/12/16 11:15:31  5-MIN K9L2 121915Z AUTO 00000KT 10SM CLR 16/M02 A3024 2010 29 2600 000/00 RMK AO2 $
53144K9L2 9L220160212112010202/12/16 11:20:31  5-MIN K9L2 121920Z AUTO 14003KT 10SM CLR 16/M02 A3024 2010 28 2600 130/03 RMK AO2 $
53144K9L2 9L220160212112510202/12/16 11:25:31  5-MIN K9L2 121925Z AUTO 14003KT 10SM CLR 16/M02 A3023 2010 28 2600 130/03 RMK AO2 $
53144K9L2 9L220160212113010202/12/16 11:30:31  5-MIN K9L2 121930Z AUTO 00000KT 10SM CLR 16/M02 A3023 2020 28 2700 000/00 RMK AO2 $
53144K9L2 9L220160212113510202/12/16 11:35:31  5-MIN K9L2 121935Z AUTO 14003KT 10SM CLR 17/M02 A3023 2020 27 2700 130/03 RMK AO2 $
53144K9L2 9L220160212114010202/12/16 11:40:31  5-MIN K9L2 121940Z AUTO 13003KT 10SM CLR 17/M02 A3022 2020 27 2700 120/03 RMK AO2 $
53144K9L2 9L220160212114510202/12/16 11:45:31  5-MIN K9L2 121945Z AUTO 14003KT 10SM CLR 17/M03 A3022 2020 25 2800 130/03 RMK AO2 $
53144K9L2 9L220160212115010202/12/16 11:50:31  5-MIN K9L2 121950Z AUTO 14003KT 10SM CLR 17/M03 A3022 2030 25 2800 120/03 RMK AO2 $
53144K9L2 9L220160212115511902/12/16 11:55:31  5-MIN K9L2 121955Z AUTO 17003KT 10SM CLR 18/M03 A3022 2030 24 2900 160/03 RMK AO2 SLP233 T01781028 $
53144K9L2 9L220160212120010202/12/16 12:00:31  5-MIN K9L2 122000Z AUTO 00000KT 10SM CLR 18/M03 A3021 2030 23 2900 000/00 RMK AO2 $
53144K9L2 9L220160212120510202/12/16 12:05:31  5-MIN K9L2 122005Z AUTO 00000KT 10SM CLR 18/M03 A3021 2040 22 2900 000/00 RMK AO2 $
53144K9L2 9L220160212121010202/12/16 12:10:31  5-MIN K9L2 122010Z AUTO 00000KT 10SM CLR 19/M03 A3021 2040 22 3000 000/00 RMK AO2 $
53144K9L2 9L220160212121510202/12/16 12:15:31  5-MIN K9L2 122015Z AUTO 00000KT 10SM CLR 19/M03 A3020 2040 22 3000 000/00 RMK AO2 $
53144K9L2 9L220160212122010202/12/16 12:20:31  5-MIN K9L2 122020Z AUTO 15003KT 10SM CLR 19/M03 A3020 2040 22 3000 130/03 RMK AO2 $
53144K9L2 9L220160212122510202/12/16 12:25:31  5-MIN K9L2 122025Z AUTO 00000KT 10SM CLR 19/M03 A3020 2050 22 3000 000/00 RMK AO2 $
53144K9L2 9L220160212123010202/12/16 12:30:31  5-MIN K9L2 122030Z AUTO 00000KT 10SM CLR 19/M03 A3019 2050 21 3100 000/00 RMK AO2 $
53144K9L2 9L220160212123510202/12/16 12:35:31  5-MIN K9L2 122035Z AUTO 00000KT 10SM CLR 20/M03 A3019 2050 20 3100 000/00 RMK AO2 $
53144K9L2 9L220160212124010202/12/16 12:40:31  5-MIN K9L2 122040Z AUTO 17003KT 10SM CLR 20/M03 A3019 2060 20 3100 150/03 RMK AO2 $
53144K9L2 9L220160212124510202/12/16 12:45:31  5-MIN K9L2 122045Z AUTO 00000KT 10SM CLR 20/M03 A3018 2060 20 3200 000/00 RMK AO2 $
53144K9L2 9L220160212125010202/12/16 12:50:31  5-MIN K9L2 122050Z AUTO 14003KT 10SM CLR 20/M03 A3018 2060 20 3200 130/03 RMK AO2 $
53144K9L2 9L220160212125512502/12/16 12:55:31  5-MIN K9L2 122055Z AUTO 00000KT 10SM CLR 20/M03 A3018 2060 20 3200 000/00 RMK AO2 SLP220 T02001033 50005 $
53144K9L2 9L220160212130010202/12/16 13:00:31  5-MIN K9L2 122100Z AUTO 13003KT 10SM CLR 21/M03 A3018 2070 19 3200 120/03 RMK AO2 $
53144K9L2 9L220160212130510202/12/16 13:05:31  5-MIN K9L2 122105Z AUTO 13003KT 10SM CLR 21/M03 A3017 2070 19 3300 120/03 RMK AO2 $
53144K9L2 9L220160212131010202/12/16 13:10:31  5-MIN K9L2 122110Z AUTO VRB03KT 10SM CLR 21/M03 A3017 2070 19 3300 VRB/03 RMK AO2 $
53144K9L2 9L220160212131510202/12/16 13:15:31  5-MIN K9L2 122115Z AUTO 00000KT 10SM CLR 21/M03 A3017 2080 19 3300 000/00 RMK AO2 $
53144K9L2 9L220160212132010202/12/16 13:20:31  5-MIN K9L2 122120Z AUTO 00000KT 10SM CLR 21/M03 A3016 2080 19 3300 000/00 RMK AO2 $
53144K9L2 9L220160212132510202/12/16 13:25:31  5-MIN K9L2 122125Z AUTO 00000KT 10SM CLR 22/M03 A3016 2080 18 3400 000/00 RMK AO2 $
53144K9L2 9L220160212133010202/12/16 13:30:31  5-MIN K9L2 122130Z AUTO 00000KT 10SM CLR 22/M03 A3016 2090 17 3400 000/00 RMK AO2 $
53144K9L2 9L220160212133510202/12/16 13:35:31  5-MIN K9L2 122135Z AUTO 00000KT 10SM CLR 22/M03 A3015 2090 17 3400 000/00 RMK AO2 $
53144K9L2 9L220160212134010202/12/16 13:40:31  5-MIN K9L2 122140Z AUTO 00000KT 10SM CLR 22/M03 A3015 2090 18 3400 000/00 RMK AO2 $
53144K9L2 9L220160212134510202/12/16 13:45:31  5-MIN K9L2 122145Z AUTO 00000KT 10SM CLR 22/M03 A3015 2090 17 3400 000/00 RMK AO2 $
53144K9L2 9L220160212135010202/12/16 13:50:31  5-MIN K9L2 122150Z AUTO 00000KT 10SM CLR 22/M03 A3015 2090 17 3400 000/00 RMK AO2 $
53144K9L2 9L220160212135511902/12/16 13:55:31  5-MIN K9L2 122155Z AUTO 15003KT 10SM CLR 22/M03 A3015 2090 17 3400 140/03 RMK AO2 SLP209 T02221033 $
53144K9L2 9L220160212140010202/12/16 14:00:31  5-MIN K9L2 122200Z AUTO 00000KT 10SM CLR 22/M03 A3014 2100 17 3400 000/00 RMK AO2 $
53144K9L2 9L220160212140510202/12/16 14:05:31  5-MIN K9L2 122205Z AUTO 00000KT 10SM CLR 22/M03 A3014 2100 17 3500 000/00 RMK AO2 $
53144K9L2 9L220160212141010202/12/16 14:10:31  5-MIN K9L2 122210Z AUTO 00000KT 10SM CLR 23/M04 A3014 2100 16 3500 150/03 RMK AO2 $
53144K9L2 9L220160212143010202/12/16 14:30:31  5-MIN K9L2 122230Z AUTO 16003KT 10SM CLR 23/M04 A3014 2100 16 3500 150/03 RMK AO2 $
53144K9L2 9L220160212143510202/12/16 14:35:31  5-MIN K9L2 122235Z AUTO 15003KT 10SM CLR 23/M04 A3014 2100 16 3500 130/03 RMK AO2 $
53144K9L2 9L220160212144010202/12/16 14:40:31  5-MIN K9L2 122240Z AUTO 16003KT 10SM CLR 23/M04 A3014 2100 16 3500 140/03 RMK AO2 $
53144K9L2 9L220160212144510202/12/16 14:45:31  5-MIN K9L2 122245Z AUTO 15003KT 10SM CLR 23/M04 A3014 2100 15 3600 140/03 RMK AO2 $
53144K9L2 9L220160212145010202/12/16 14:50:31  5-MIN K9L2 122250Z AUTO 15003KT 10SM CLR 23/M05 A3013 2110 14 3600 130/03 RMK AO2 $
53144K9L2 9L220160212145511902/12/16 14:55:31  5-MIN K9L2 122255Z AUTO 16003KT 10SM CLR 23/M05 A3013 2110 14 3600 150/03 RMK AO2 SLP204 T02331050 $
53144K9L2 9L220160212150010202/12/16 15:00:31  5-MIN K9L2 122300Z AUTO 15003KT 10SM CLR 23/M05 A3013 2110 14 3600 140/03 RMK AO2 $
53144K9L2 9L220160212150510202/12/16 15:05:31  5-MIN K9L2 122305Z AUTO 00000KT 10SM CLR 23/M05 A3013 2110 14 3600 000/00 RMK AO2 $
53144K9L2 9L220160212151010202/12/16 15:10:31  5-MIN K9L2 122310Z AUTO 15003KT 10SM CLR 23/M05 A3013 2110 14 3600 130/03 RMK AO2 $
53144K9L2 9L220160212151510202/12/16 15:15:31  5-MIN K9L2 122315Z AUTO 17003KT 10SM CLR 23/M05 A3013 2110 14 3600 160/03 RMK AO2 $
53144K9L2 9L220160212152010202/12/16 15:20:31  5-MIN K9L2 122320Z AUTO 17003KT 10SM CLR 23/M05 A3013 2110 14 3600 150/03 RMK AO2 $
53144K9L2 9L220160212152510202/12/16 15:25:31  5-MIN K9L2 122325Z AUTO 16003KT 10SM CLR 23/M05 A3013 2110 14 3600 140/03 RMK AO2 $
53144K9L2 9L220160212153010202/12/16 15:30:31  5-MIN K9L2 122330Z AUTO 16003KT 10SM CLR 23/M05 A3013 2110 14 3600 140/03 RMK AO2 $
53144K9L2 9L220160212153510202/12/16 15:35:31  5-MIN K9L2 122335Z AUTO 17004KT 10SM CLR 23/M05 A3013 2110 14 3600 160/04 RMK AO2 $
53144K9L2 9L220160212154005102/12/16 15:40:31  5-MIN K9L2 122340Z AUTO 16003KT 
53144K9L2 9L220160212160510202/12/16 16:05:31  5-MIN K9L2 130005Z AUTO 18004KT 10SM CLR 23/M06 A3013 2110 14 3500 170/04 RMK AO2 $
53144K9L2 9L220160212161010202/12/16 16:10:31  5-MIN K9L2 130010Z AUTO 18004KT 10SM CLR 23/M06 A3013 2110 14 3600 170/04 RMK AO2 $
53144K9L2 9L220160212161510202/12/16 16:15:31  5-MIN K9L2 130015Z AUTO 18003KT 10SM CLR 23/M06 A3013 2110 14 3500 170/03 RMK AO2 $
53144K9L2 9L220160212162010202/12/16 16:20:31  5-MIN K9L2 130020Z AUTO 19004KT 10SM CLR 23/M06 A3013 2110 14 3500 180/04 RMK AO2 $
53144K9L2 9L220160212162510202/12/16 16:25:31  5-MIN K9L2 130025Z AUTO 19004KT 10SM CLR 23/M06 A3013 2110 14 3500 180/04 RMK AO2 $
53144K9L2 9L220160212163010202/12/16 16:30:31  5-MIN K9L2 130030Z AUTO 19003KT 10SM CLR 23/M06 A3013 2110 14 3500 180/03 RMK AO2 $
53144K9L2 9L220160212163510202/12/16 16:35:31  5-MIN K9L2 130035Z AUTO 19003KT 10SM CLR 23/M06 A3013 2110 14 3500 180/03 RMK AO2 $
53144K9L2 9L220160212164010202/12/16 16:40:31  5-MIN K9L2 130040Z AUTO 19004KT 10SM CLR 23/M06 A3013 2110 14 3500 180/04 RMK AO2 $
53144K9L2 9L220160212164510202/12/16 16:45:31  5-MIN K9L2 130045Z AUTO 20003KT 10SM CLR 23/M06 A3013 2110 14 3500 190/03 RMK AO2 $
53144K9L2 9L220160212165010202/12/16 16:50:31  5-MIN K9L2 130050Z AUTO 20003KT 10SM CLR 22/M06 A3013 2110 15 3500 180/03 RMK AO2 $
53144K9L2 9L220160212165511902/12/16 16:55:31  5-MIN K9L2 130055Z AUTO 20003KT 10SM CLR 22/M06 A3013 2110 15 3500 190/03 RMK AO2 SLP204 T02221056 $
53144K9L2 9L220160212170010202/12/16 17:00:31  5-MIN K9L2 130100Z AUTO 21003KT 10SM CLR 22/M06 A3013 2110 14 3500 200/03 RMK AO2 $
53144K9L2 9L220160212170510202/12/16 17:05:31  5-MIN K9L2 130105Z AUTO 20003KT 10SM CLR 22/M06 A3013 2110 15 3400 190/03 RMK AO2 $
53144K9L2 9L220160212171010202/12/16 17:10:31  5-MIN K9L2 130110Z AUTO 21004KT 10SM CLR 21/M06 A3013 2110 16 3300 190/04 RMK AO2 $
53144K9L2 9L220160212171510202/12/16 17:15:31  5-MIN K9L2 130115Z AUTO 21003KT 10SM CLR 21/M06 A3013 2110 16 3300 190/03 RMK AO2 $
53144K9L2 9L220160212172010202/12/16 17:20:31  5-MIN K9L2 130120Z AUTO 22003KT 10SM CLR 21/M06 A3013 2110 16 3300 200/03 RMK AO2 $
53144K9L2 9L220160212172510202/12/16 17:25:31  5-MIN K9L2 130125Z AUTO 00000KT 10SM CLR 20/M06 A3013 2110 17 3200 000/00 RMK AO2 $
53144K9L2 9L220160212173010202/12/16 17:30:31  5-MIN K9L2 130130Z AUTO 00000KT 10SM CLR 19/M06 A3013 2110 18 3100 000/00 RMK AO2 $
53144K9L2 9L220160212173510202/12/16 17:35:31  5-MIN K9L2 130135Z AUTO 00000KT 10SM CLR 19/M05 A3013 2110 19 3100 000/00 RMK AO2 $
53144K9L2 9L220160212174010202/12/16 17:40:31  5-MIN K9L2 130140Z AUTO 00000KT 10SM CLR 18/M05 A3013 2110 20 3000 000/00 RMK AO2 $
53144K9L2 9L220160212174510202/12/16 17:45:31  5-MIN K9L2 130145Z AUTO 00000KT 10SM CLR 18/M04 A3013 2110 21 3000 000/00 RMK AO2 $
53144K9L2 9L220160212175010202/12/16 17:50:31  5-MIN K9L2 130150Z AUTO 00000KT 10SM CLR 18/M05 A3013 2110 20 3000 000/00 RMK AO2 $
53144K9L2 9L220160212175511902/12/16 17:55:31  5-MIN K9L2 130155Z AUTO 00000KT 10SM CLR 18/M04 A3013 2110 21 3000 000/00 RMK AO2 SLP209 T01781044 $
53144K9L2 9L220160212180010202/12/16 18:00:31  5-MIN K9L2 130200Z AUTO 00000KT 10SM CLR 17/M05 A3013 2110 22 2800 000/00 RMK AO2 $
53144K9L2 9L220160212180510202/12/16 18:05:31  5-MIN K9L2 130205Z AUTO 26003KT 10SM CLR 16/M05 A3013 2110 24 2700 250/03 RMK AO2 $
53144K9L2 9L220160212181010202/12/16 18:10:31  5-MIN K9L2 130210Z AUTO 27003KT 10SM CLR 16/M05 A3013 2110 24 2700 260/03 RMK AO2 $
53144K9L2 9L220160212181516402/12/16 18:15:31  5-MIN K9L2 130215Z AUTO 27003KT 10SM CLR 1502/12/16 18:30:31  5-MIN K9L2 130230Z AUTO 26003KT 10SM CLR 12/M05 A3014 2100 29 2300 250/03 RMK AO2 $
53144K9L2 9L220160212183510202/12/16 18:35:31  5-MIN K9L2 130235Z AUTO 27004KT 10SM CLR 12/M05 A3014 2100 30 2200 260/04 RMK AO2 $
53144K9L2 9L220160212184010202/12/16 18:40:31  5-MIN K9L2 130240Z AUTO 28004KT 10SM CLR 12/M05 A3014 2100 30 2200 270/04 RMK AO2 $
53144K9L2 9L220160212184510202/12/16 18:45:31  5-MIN K9L2 130245Z AUTO 28004KT 10SM CLR 12/M06 A3014 2100 28 2300 260/04 RMK AO2 $
53144K9L2 9L220160212185010202/12/16 18:50:31  5-MIN K9L2 130250Z AUTO 26004KT 10SM CLR 12/M06 A3014 2100 27 2300 250/04 RMK AO2 $
53144K9L2 9L220160212185512502/12/16 18:55:31  5-MIN K9L2 130255Z AUTO 27004KT 10SM CLR 12/M06 A3014 2100 27 2300 260/04 RMK AO2 SLP216 T01221061 56016 $
53144K9L2 9L220160212190010202/12/16 19:00:31  5-MIN K9L2 130300Z AUTO 29006KT 10SM CLR 12/M06 A3014 2100 28 2300 270/06 RMK AO2 $
53144K9L2 9L220160212190510202/12/16 19:05:31  5-MIN K9L2 130305Z AUTO 29005KT 10SM CLR 12/M06 A3014 2100 28 2300 270/05 RMK AO2 $
53144K9L2 9L220160212191010202/12/16 19:10:31  5-MIN K9L2 130310Z AUTO 29004KT 10SM CLR 12/M06 A3014 2100 29 2200 270/04 RMK AO2 $
53144K9L2 9L220160212191510202/12/16 19:15:31  5-MIN K9L2 130315Z AUTO 29004KT 10SM CLR 12/M06 A3014 2100 28 2300 280/04 RMK AO2 $
53144K9L2 9L220160212192010202/12/16 19:20:31  5-MIN K9L2 130320Z AUTO 30004KT 10SM CLR 12/M06 A3014 2100 28 2300 290/04 RMK AO2 $
53144K9L2 9L220160212192510202/12/16 19:25:31  5-MIN K9L2 130325Z AUTO 31005KT 10SM CLR 12/M06 A3014 2100 28 2200 300/05 RMK AO2 $
53144K9L2 9L220160212193010202/12/16 19:30:31  5-MIN K9L2 130330Z AUTO 31004KT 10SM CLR 12/M06 A3014 2100 28 2200 290/04 RMK AO2 $
53144K9L2 9L220160212193510202/12/16 19:35:31  5-MIN K9L2 130335Z AUTO 30004KT 10SM CLR 11/M06 A3014 2100 29 2200 290/04 RMK AO2 $
53144K9L2 9L220160212194010202/12/16 19:40:31  5-MIN K9L2 130340Z AUTO 30003KT 10SM CLR 11/M06 A3014 2100 29 2200 290/03 RMK AO2 $
53144K9L2 9L220160212194510202/12/16 19:45:31  5-MIN K9L2 130345Z AUTO 00000KT 10SM CLR 11/M06 A3014 2100 29 2200 000/00 RMK AO2 $
53144K9L2 9L220160212195010202/12/16 19:50:31  5-MIN K9L2 130350Z AUTO 00000KT 10SM CLR 11/M06 A3015 2090 29 2200 000/00 RMK AO2 $
53144K9L2 9L220160212195511902/12/16 19:55:31  5-MIN K9L2 130355Z AUTO 00000KT 10SM CLR 11/M06 A3015 2090 30 2200 000/00 RMK AO2 SLP216 T01111056 $
53144K9L2 9L220160212200010202/12/16 20:00:31  5-MIN K9L2 130400Z AUTO 00000KT 10SM CLR 11/M06 A3015 2090 30 2200 000/00 RMK AO2 $
53144K9L2 9L220160212200510202/12/16 20:05:31  5-MIN K9L2 130405Z AUTO 00000KT 10SM CLR 11/M05 A3015 2090 32 2200 000/00 RMK AO2 $
53144K9L2 9L220160212201010202/12/16 20:10:31  5-MIN K9L2 130410Z AUTO 00000KT 10SM CLR 11/M04 A3015 2090 33 2200 000/00 RMK AO2 $
53144K9L2 9L220160212201510202/12/16 20:15:31  5-MIN K9L2 130415Z AUTO 00000KT 10SM CLR 10/M05 A3015 2090 34 2000 000/00 RMK AO2 $
53144K9L2 9L220160212202010202/12/16 20:20:31  5-MIN K9L2 130420Z AUTO 00000KT 10SM CLR 10/M05 A3015 2090 34 2000 000/00 RMK AO2 $
53144K9L2 9L220160212202510202/12/16 20:25:31  5-MIN K9L2 130425Z AUTO 00000KT 10SM CLR 09/M05 A3015 2090 35 2000 000/00 RMK AO2 $
53144K9L2 9L220160212203010202/12/16 20:30:31  5-MIN K9L2 130430Z AUTO 00000KT 10SM CLR 09/M04 A3015 2090 37 2000 000/00 RMK AO2 $
53144K9L2 9L220160212203510202/12/16 20:35:31  5-MIN K9L2 130435Z AUTO 00000KT 10SM CLR 10/M04 A3015 2090 36 2000 000/00 RMK AO2 $
53144K9L2 9L220160212204010202/12/16 20:40:31  5-MIN K9L2 130440Z AUTO 00000KT 10SM CLR 10/M04 A3015 2090 36 2000 000/00 RMK AO2 $
53144K9L2 9L220160212204510202/12/16 20:45:31  5-MIN K9L2 130445Z AUTO 00000KT 10SM CLR 09/M04 A3015 2090 39 2000 000/00 RMK AO2 $
53144K9L2 9L220160212205010202/12/16 20:50:31  5-MIN K9L2 130450Z AUTO 00000KT 10SM CLR 09/M04 A3015 2090 38 1900 000/00 RMK AO2 $
53144K9L2 9L220160212205511902/12/16 20:55:31  5-MIN K9L2 130455Z AUTO 20003KT 10SM CLR 08/M04 A3016 2090 40 1800 190/03 RMK AO2 SLP221 T00831044 $
53144K9L2 9L220160212210010202/12/16 21:00:31  5-MIN K9L2 130500Z AUTO 00000KT 10SM CLR 08/M04 A3016 2080 40 1800 000/00 RMK AO2 $
53144K9L2 9L220160212210510202/12/16 21:05:31  5-MIN K9L2 130505Z AUTO 00000KT 10SM CLR 09/M04 A3016 2080 39 2000 000/00 RMK AO2 $
53144K9L2 9L220160212211010202/12/16 21:10:31  5-MIN K9L2 130510Z AUTO 00000KT 10SM CLR 09/M04 A3016 2080 40 1900 000/00 RMK AO2 $
53144K9L2 9L220160212211510202/12/16 21:15:31  5-MIN K9L2 130515Z AUTO 00000KT 10SM CLR 08/M04 A3016 2080 43 1800 000/00 RMK AO2 $
53144K9L2 9L220160212212010202/12/16 21:20:31  5-MIN K9L2 130520Z AUTO 00000KT 10SM CLR 07/M03 A3016 2080 47 1700 000/00 RMK AO2 $
53144K9L2 9L220160212212510202/12/16 21:25:31  5-MIN K9L2 130525Z AUTO 00000KT 10SM CLR 08/M03 A3016 2080 45 1800 000/00 RMK AO2 $
53144K9L2 9L220160212213010202/12/16 21:30:31  5-MIN K9L2 130530Z AUTO 00000KT 10SM CLR 08/M04 A3016 2080 42 1800 000/00 RMK AO2 $
53144K9L2 9L220160212213510202/12/16 21:35:31  5-MIN K9L2 130535Z AUTO 00000KT 10SM CLR 09/M04 A3016 2080 40 1900 000/00 RMK AO2 $
53144K9L2 9L220160212214010202/12/16 21:40:31  5-MIN K9L2 130540Z AUTO 00000KT 10SM CLR 07/M04 A3016 2080 43 1700 000/00 RMK AO2 $
53144K9L2 9L220160212214510202/12/16 21:45:31  5-MIN K9L2 130545Z AUTO 00000KT 10SM CLR 07/M04 A3016 2080 43 1700 000/00 RMK AO2 $
53144K9L2 9L220160212215010202/12/16 21:50:31  5-MIN K9L2 130550Z AUTO 22003KT 10SM CLR 06/M04 A3016 2080 46 1500 200/03 RMK AO2 $
53144K9L2 9L220160212215513702/12/16 21:55:31  5-MIN K9L2 130555Z AUTO 21003KT 10SM CLR 06/M04 A3016 2080 46 1500 200/03 RMK AO2 SLP221 T00611044 10233 20061 53004 $
53144K9L2 9L220160212220010202/12/16 22:00:31  5-MIN K9L2 130600Z AUTO 19004KT 10SM CLR 06/M04 A3016 2080 46 1500 180/04 RMK AO2 $
53144K9L2 9L220160212220510202/12/16 22:05:31  5-MIN K9L2 130605Z AUTO 18003KT 10SM CLR 06/M04 A3016 2080 46 1500 170/03 RMK AO2 $
53144K9L2 9L220160212221010202/12/16 22:10:31  5-MIN K9L2 130610Z AUTO 17003KT 10SM CLR 06/M04 A3016 2080 46 1500 150/03 RMK AO2 $
53144K9L2 9L220160212221510202/12/16 22:15:31  5-MIN K9L2 130615Z AUTO 13003KT 10SM CLR 06/M04 A3016 2080 46 1500 120/03 RMK AO2 $
53144K9L2 9L220160212222010202/12/16 22:20:31  5-MIN K9L2 130620Z AUTO 09003KT 10SM CLR 07/M04 A3016 2080 45 1600 080/03 RMK AO2 $
53144K9L2 9L220160212222510202/12/16 22:25:31  5-MIN K9L2 130625Z AUTO 00000KT 10SM CLR 06/M04 A3016 2080 46 1500 000/00 RMK AO2 $
53144K9L2 9L220160212223010202/12/16 22:30:31  5-MIN K9L2 130630Z AUTO 00000KT 10SM CLR 07/M04 A3016 2080 45 1600 000/00 RMK AO2 $
53144K9L2 9L220160213091510202/13/16 09:15:31  5-MIN K9L2 131715Z AUTO 00000KT 10SM CLR 07/M02 A3020 2040 51 1600 000/00 RMK AO2 $
53144K9L2 9L220160213092010202/13/16 09:20:31  5-MIN K9L2 131720Z AUTO 00000KT 10SM CLR 08/M02 A3020 2040 49 1700 000/00 RMK AO2 $
53144K9L2 9L220160213092510202/13/16 09:25:31  5-MIN K9L2 131725Z AUTO 00000KT 10SM CLR 08/M02 A3020 2040 47 1800 000/00 RMK AO2 $
53144K9L2 9L220160213093010202/13/16 09:30:31  5-MIN K9L2 131730Z AUTO 00000KT 10SM CLR 09/M02 A3021 2040 47 1800 000/00 RMK AO2 $
53144K9L2 9L220160213093510202/13/16 09:35:31  5-MIN K9L2 131735Z AUTO 00000KT 10SM CLR 09/M02 A3020 2040 47 1800 000/00 RMK AO2 $
53144K9L2 9L220160213094010202/13/16 09:40:31  5-MIN K9L2 131740Z AUTO 00000KT 10SM CLR 09/M02 A3020 2040 47 1800 000/00 RMK AO2 $
53144K9L2 9L220160213094510202/13/16 09:45:31  5-MIN K9L2 131745Z AUTO 00000KT 10SM CLR 09/M02 A3020 2040 45 1900 000/00 RMK AO2 $
53144K9L2 9L220160213095010202/13/16 09:50:31  5-MIN K9L2 131750Z AUTO 15004KT 10SM CLR 09/M02 A3020 2050 45 1900 130/04 RMK AO2 $
53144K9L2 9L220160213095513702/13/16 09:55:31  5-MIN K9L2 131755Z AUTO 15003KT 10SM CLR 09/M02 A3020 2050 45 1900 140/03 RMK AO2 SLP233 T00941017 10094 21011 53010 $
53144K9L2 9L220160213100010202/13/16 10:00:31  5-MIN K9L2 131800Z AUTO 16004KT 10SM CLR 10/M02 A3020 2050 44 2000 140/04 RMK AO2 $
53144K9L2 9L220160213100510202/13/16 10:05:31  5-MIN K9L2 131805Z AUTO 18003KT 10SM CLR 09/M02 A3020 2050 45 1900 160/03 RMK AO2 $
53144K9L2 9L220160213101010202/13/16 10:10:31  5-MIN K9L2 131810Z AUTO 17003KT 10SM CLR 10/M01 A3020 2050 46 2000 160/03 RMK AO2 $
53144K9L2 9L220160213101510202/13/16 10:15:31  5-MIN K9L2 131815Z AUTO 16003KT 10SM CLR 10/M01 A3020 2050 46 2000 150/03 RMK AO2 $
53144K9L2 9L220160213102010202/13/16 10:20:31  5-MIN K9L2 131820Z AUTO 15003KT 10SM CLR 11/M01 A3020 2050 44 2000 140/03 RMK AO2 $
53144K9L2 9L220160213102510202/13/16 10:25:31  5-MIN K9L2 131825Z AUTO 00000KT 10SM CLR 11/M01 A3020 2050 42 2100 000/00 RMK AO2 $
53144K9L2 9L220160213103010202/13/16 10:30:31  5-MIN K9L2 131830Z AUTO 15003KT 10SM CLR 11/M01 A3019 2050 44 2100 140/03 RMK AO2 $
53144K9L2 9L220160213103510202/13/16 10:35:31  5-MIN K9L2 131835Z AUTO 15003KT 10SM CLR 12/M01 A3019 2050 42 2200 140/03 RMK AO2 $
53144K9L2 9L220160213104010202/13/16 10:40:31  5-MIN K9L2 131840Z AUTO 00000KT 10SM CLR 13/M01 A3019 2050 39 2300 000/00 RMK AO2 $
53144K9L2 9L220160213104510202/13/16 10:45:31  5-MIN K9L2 131845Z AUTO 00000KT 10SM CLR 13/M01 A3019 2050 39 2300 000/00 RMK AO2 $
53144K9L2 9L220160213105010202/13/16 10:50:31  5-MIN K9L2 131850Z AUTO 00000KT 10SM CLR 13/M01 A3019 2050 38 2400 000/00 RMK AO2 $
53144K9L2 9L220160213105511902/13/16 10:55:31  5-MIN K9L2 131855Z AUTO 00000KT 10SM CLR 14/M01 A3019 2060 35 2400 000/00 RMK AO2 SLP227 T01391011 $
53144K9L2 9L220160213110010202/13/16 11:00:31  5-MIN K9L2 131900Z AUTO 00000KT 10SM CLR 14/M01 A3018 2060 35 2400 000/00 RMK AO2 $
53144K9L2 9L220160213110510202/13/16 11:05:31  5-MIN K9L2 131905Z AUTO 00000KT 10SM CLR 14/M01 A3018 2060 35 2500 000/00 RMK AO2 $
53144K9L2 9L220160213111010202/13/16 11:10:31  5-MIN K9L2 131910Z AUTO 14003KT 10SM CLR 14/M01 A3018 2060 34 2500 130/03 RMK AO2 $
53144K9L2 9L220160213111510202/13/16 11:15:31  5-MIN K9L2 131915Z AUTO 00000KT 10SM CLR 15/M01 A3018 2070 33 2600 000/00 RMK AO2 $
53144K9L2 9L220160213112010202/13/16 11:20:31  5-MIN K9L2 131920Z AUTO 00000KT 10SM CLR 16/M01 A3018 2070 33 2600 000/00 RMK AO2 $
53144K9L2 9L220160213112510202/13/16 11:25:31  5-MIN K9L2 131925Z AUTO 00000KT 10SM CLR 16/M01 A3017 2070 30 2700 000/00 RMK AO2 $
53144K9L2 9L220160213113010202/13/16 11:30:31  5-MIN K9L2 131930Z AUTO 00000KT 10SM CLR 17/M01 A3017 2070 31 2800 000/00 RMK AO2 $
53144K9L2 9L220160213113510202/13/16 11:35:31  5-MIN K9L2 131935Z AUTO 00000KT 10SM CLR 17/M01 A3017 2070 29 2900 000/00 RMK AO2 $
53144K9L2 9L220160213114010202/13/16 11:40:31  5-MIN K9L2 131940Z AUTO 00000KT 10SM CLR 17/M01 A3017 2080 28 2900 000/00 RMK AO2 $
53144K9L2 9L220160213114510202/13/16 11:45:31  5-MIN K9L2 131945Z AUTO 08003KT 10SM CLR 18/M01 A3016 2080 27 2900 070/03 RMK AO2 $
53144K9L2 9L220160213115010202/13/16 11:50:31  5-MIN K9L2 131950Z AUTO 00000KT 10SM CLR 18/M01 A3016 2080 26 3000 000/00 RMK AO2 $
53144K9L2 9L220160213115511902/13/16 11:55:31  5-MIN K9L2 131955Z AUTO 00000KT 10SM CLR 18/M01 A3015 2090 26 3000 000/00 RMK AO2 SLP212 T01831011 $
53144K9L2 9L220160213120010202/13/16 12:00:31  5-MIN K9L2 132000Z AUTO 00000KT 10SM CLR 18/M01 A3015 2090 26 3000 000/00 RMK AO2 $
53144K9L2 9L220160213120510202/13/16 12:05:31  5-MIN K9L2 132005Z AUTO 00000KT 10SM CLR 19/M01 A3015 2090 25 3100 000/00 RMK AO2 $
53144K9L2 9L220160213121010202/13/16 12:10:31  5-MIN K9L2 132010Z AUTO 00000KT 10SM CLR 19/M01 A3015 2090 25 3100 000/00 RMK AO2 $
53144K9L2 9L220160213121510202/13/16 12:15:31  5-MIN K9L2 132015Z AUTO 00000KT 10SM CLR 20/M01 A3014 2100 24 3200 000/00 RMK AO2 $
53144K9L2 9L220160213122010202/13/16 12:20:31  5-MIN K9L2 132020Z AUTO 00000KT 10SM CLR 20/M02 A3014 2100 23 3200 000/00 RMK AO2 $
53144K9L2 9L220160213122510202/13/16 12:25:31  5-MIN K9L2 132025Z AUTO 00000KT 10SM CLR 21/M02 A3014 2100 21 3300 000/00 RMK AO2 $
53144K9L2 9L220160213123010202/13/16 12:30:31  5-MIN K9L2 132030Z AUTO 00000KT 10SM CLR 21/M03 A3013 2110 19 3300 000/00 RMK AO2 $
53144K9L2 9L220160213123510202/13/16 12:35:31  5-MIN K9L2 132035Z AUTO 00000KT 10SM CLR 21/M03 A3013 2110 19 3300 000/00 RMK AO2 $
53144K9L2 9L220160213124010202/13/16 12:40:31  5-MIN K9L2 132040Z AUTO 00000KT 10SM CLR 22/M03 A3012 2110 18 3400 000/00 RMK AO2 $
53144K9L2 9L220160213124510202/13/16 12:45:31  5-MIN K9L2 132045Z AUTO 00000KT 10SM CLR 22/M03 A3013 2110 18 3500 000/00 RMK AO2 $
53144K9L2 9L220160213125010202/13/16 12:50:31  5-MIN K9L2 132050Z AUTO 00000KT 10SM CLR 22/M03 A3013 2110 17 3500 000/00 RMK AO2 $
53144K9L2 9L220160213125512502/13/16 12:55:31  5-MIN K9L2 132055Z AUTO 30003KT 10SM CLR 23/M03 A3013 2110 17 3500 290/03 RMK AO2 SLP200 T02281033 50005 $
53144K9L2 9L220160213130010202/13/16 13:00:31  5-MIN K9L2 132100Z AUTO 00000KT 10SM CLR 22/M04 A3013 2110 17 3500 000/00 RMK AO2 $
53144K9L2 9L220160213130510202/13/16 13:05:31  5-MIN K9L2 132105Z AUTO 00000KT 10SM CLR 22/M04 A3012 2120 16 3500 000/00 RMK AO2 $
53144K9L2 9L220160213131010202/13/16 13:10:31  5-MIN K9L2 132110Z AUTO 27004KT 10SM CLR 23/M04 A3012 2120 16 3500 250/04 RMK AO2 $
53144K9L2 9L220160213131510202/13/16 13:15:31  5-MIN K9L2 132115Z AUTO VRB03KT 10SM CLR 23/M04 A3012 2120 16 3500 VRB/03 RMK AO2 $
53144K9L2 9L220160213132010202/13/16 13:20:31  5-MIN K9L2 132120Z AUTO 00000KT 10SM CLR 23/M04 A3012 2120 16 3500 000/00 RMK AO2 $
53144K9L2 9L220160213132510202/13/16 13:25:31  5-MIN K9L2 132125Z AUTO 00000KT 10SM CLR 23/M04 A3012 2120 16 3500 000/00 RMK AO2 $
53144K9L2 9L220160213133010202/13/16 13:30:31  5-MIN K9L2 132130Z AUTO 00000KT 10SM CLR 23/M04 A3012 2120 16 3600 000/00 RMK AO2 $
53144K9L2 9L220160213133510202/13/16 13:35:31  5-MIN K9L2 132135Z AUTO 00000KT 10SM CLR 23/M04 A3012 2120 16 3600 000/00 RMK AO2 $
53144K9L2 9L220160213134010202/13/16 13:40:31  5-MIN K9L2 132140Z AUTO 14003KT 10SM CLR 23/M04 A3012 2120 16 3600 130/03 RMK AO2 $
53144K9L2 9L220160213134510202/13/16 13:45:31  5-MIN K9L2 132145Z AUTO VRB03KT 10SM CLR 23/M04 A3012 2120 16 3600 VRB/03 RMK AO2 $
53144K9L2 9L220160213135010202/13/16 13:50:31  5-MIN K9L2 132150Z AUTO 26004KT 10SM CLR 24/M04 A3012 2120 14 3700 250/04 RMK AO2 $
53144K9L2 9L220160213135511902/13/16 13:55:31  5-MIN K9L2 132155Z AUTO 34004KT 10SM CLR 24/M05 A3012 2120 13 3700 330/04 RMK AO2 SLP198 T02441050 $
53144K9L2 9L220160213140010202/13/16 14:00:31  5-MIN K9L2 132200Z AUTO VRB06KT 10SM CLR 25/M04 A3012 2120 14 3800 VRB/06 RMK AO2 $
53144K9L2 9L220160213140510202/13/16 14:05:31  5-MIN K9L2 132205Z AUTO VRB04KT 10SM CLR 24/M04 A3012 2120 14 3700 VRB/04 RMK AO2 $
53144K9L2 9L220160213141010202/13/16 14:10:31  5-MIN K9L2 132210Z AUTO 00000KT 10SM CLR 25/M05 A3012 2120 13 3800 000/00 RMK AO2 $
53144K9L2 9L220160213141510202/13/16 14:15:31  5-MIN K9L2 132215Z AUTO 29005KT 10SM CLR 24/M05 A3011 2120 13 3700 280/05 RMK AO2 $
53144K9L2 9L220160213142010202/13/16 14:20:31  5-MIN K9L2 132220Z AUTO 00000KT 10SM CLR 24/M05 A3011 2120 14 3700 000/00 RMK AO2 $
53144K9L2 9L220160213142510202/13/16 14:25:31  5-MIN K9L2 132225Z AUTO 26005KT 10SM CLR 24/M05 A3012 2120 13 3700 240/05 RMK AO2 $
53144K9L2 9L220160213143010202/13/16 14:30:31  5-MIN K9L2 132230Z AUTO 00000KT 10SM CLR 24/M05 A3012 2120 13 3700 000/00 RMK AO2 $
53144K9L2 9L220160213143510202/13/16 14:35:31  5-MIN K9L2 132235Z AUTO VRB03KT 10SM CLR 25/M05 A3011 2130 13 3800 VRB/03 RMK AO2 $
53144K9L2 9L220160213144010202/13/16 14:40:31  5-MIN K9L2 132240Z AUTO VRB03KT 10SM CLR 25/M05 A3011 2130 13 3800 VRB/03 RMK AO2 $
53144K9L2 9L220160213144510202/13/16 14:45:31  5-MIN K9L2 132245Z AUTO 31004KT 10SM CLR 25/M05 A3012 2120 13 3800 300/04 RMK AO2 $
53144K9L2 9L220160213145017702/13/16 14:50:31  5-MIN K9L2 132250Z AUTO 00000KT 10SM CLR 24/M06 A3012 2120 13 3700 000/00 RMK AO2 $02/13/16 14:55:31  5-MI 10SM CLR 25/M05 A3012 2120 13 3800 300/05 RMK AO2 $
53144K9L2 9L220160213151010202/13/16 15:10:31  5-MIN K9L2 132310Z AUTO 29004KT 10SM CLR 24/M06 A3011 2120 12 3700 270/04 RMK AO2 $
53144K9L2 9L220160213151510202/13/16 15:15:31  5-MIN K9L2 132315Z AUTO 32008KT 10SM CLR 24/M06 A3011 2120 12 3700 310/08 RMK AO2 $
53144K9L2 9L220160213152010202/13/16 15:20:31  5-MIN K9L2 132320Z AUTO 34007KT 10SM CLR 26/M06 A3012 2120 12 3900 330/07 RMK AO2 $
53144K9L2 9L220160213152510202/13/16 15:25:31  5-MIN K9L2 132325Z AUTO 34005KT 10SM CLR 26/M06 A3012 2120 12 3900 330/05 RMK AO2 $
53144K9L2 9L220160213153010202/13/16 15:30:31  5-MIN K9L2 132330Z AUTO 31006KT 10SM CLR 25/M06 A3012 2120 12 3800 290/06 RMK AO2 $
53144K9L2 9L220160213153510202/13/16 15:35:31  5-MIN K9L2 132335Z AUTO 34007KT 10SM CLR 26/M06 A3012 2120 12 3900 330/07 RMK AO2 $
53144K9L2 9L220160213154010202/13/16 15:40:31  5-MIN K9L2 132340Z AUTO 00000KT 10SM CLR 26/M06 A3012 2120 12 3900 000/00 RMK AO2 $
53144K9L2 9L220160213154510202/13/16 15:45:31  5-MIN K9L2 132345Z AUTO 33003KT 10SM CLR 26/M06 A3011 2120 12 3900 320/03 RMK AO2 $
53144K9L2 9L220160213155010202/13/16 15:50:31  5-MIN K9L2 132350Z AUTO 32004KT 10SM CLR 25/M06 A3011 2130 12 3800 310/04 RMK AO2 $
53144K9L2 9L220160213155513702/13/16 15:55:31  5-MIN K9L2 132355Z AUTO 32004KT 10SM CLR 26/M06 A3011 2130 12 3900 310/04 RMK AO2 SLP195 T02561061 10256 20094 58023 $
53144K9L2 9L220160213160010202/13/16 16:00:31  5-MIN K9L2 140000Z AUTO 30003KT 10SM CLR 25/M06 A3011 2130 12 3800 290/03 RMK AO2 $
53144K9L2 9L220160213160510202/13/16 16:05:31  5-MIN K9L2 140005Z AUTO 32007KT 10SM CLR 25/M06 A3011 2130 12 3800 310/07 RMK AO2 $
53144K9L2 9L220160213161010202/13/16 16:10:31  5-MIN K9L2 140010Z AUTO 32005KT 10SM CLR 25/M06 A3011 2130 12 3800 300/05 RMK AO2 $
53144K9L2 9L220160213161510202/13/16 16:15:31  5-MIN K9L2 140015Z AUTO 34005KT 10SM CLR 25/M06 A3011 2130 12 3800 330/05 RMK AO2 $
53144K9L2 9L220160213162010202/13/16 16:20:31  5-MIN K9L2 140020Z AUTO 36003KT 10SM CLR 25/M06 A3011 2130 12 3800 340/03 RMK AO2 $
53144K9L2 9L220160213162510202/13/16 16:25:31  5-MIN K9L2 140025Z AUTO 33004KT 10SM CLR 25/M07 A3011 2130 11 3800 320/04 RMK AO2 $
53144K9L2 9L220160213163010202/13/16 16:30:31  5-MIN K9L2 140030Z AUTO 00000KT 10SM CLR 25/M06 A3011 2130 12 3800 000/00 RMK AO2 $
53144K9L2 9L220160213163510202/13/16 16:35:31  5-MIN K9L2 140035Z AUTO 34004KT 10SM CLR 25/M06 A3011 2130 12 3800 320/04 RMK AO2 $
53144K9L2 9L220160213164010202/13/16 16:40:31  5-MIN K9L2 140040Z AUTO 33004KT 10SM CLR 25/M06 A3011 2130 12 3800 320/04 RMK AO2 $
53144K9L2 9L220160213164510202/13/16 16:45:31  5-MIN K9L2 140045Z AUTO 34003KT 10SM CLR 25/M06 A3011 2130 12 3800 330/03 RMK AO2 $
53144K9L2 9L220160213165010202/13/16 16:50:31  5-MIN K9L2 140050Z AUTO 33004KT 10SM CLR 24/M06 A3011 2130 13 3700 310/04 RMK AO2 $
53144K9L2 9L220160213165511902/13/16 16:55:31  5-MIN K9L2 140055Z AUTO 34004KT 10SM CLR 24/M06 A3011 2130 13 3700 330/04 RMK AO2 SLP195 T02391056 $
53144K9L2 9L220160213170010202/13/16 17:00:31  5-MIN K9L2 140100Z AUTO 33003KT 10SM CLR 24/M06 A3011 2130 13 3700 320/03 RMK AO2 $
53144K9L2 9L220160213170510202/13/16 17:05:31  5-MIN K9L2 140105Z AUTO 32003KT 10SM CLR 23/M06 A3011 2120 14 3600 310/03 RMK AO2 $
53144K9L2 9L220160213171010202/13/16 17:10:31  5-MIN K9L2 140110Z AUTO 32004KT 10SM CLR 23/M05 A3012 2120 15 3500 310/04 RMK AO2 $
53144K9L2 9L220160213171510202/13/16 17:15:31  5-MIN K9L2 140115Z AUTO 32004KT 10SM CLR 22/M05 A3012 2120 15 3500 310/04 RMK AO2 $
53144K9L2 9L220160213172010202/13/16 17:20:31  5-MIN K9L2 140120Z AUTO 31004KT 10SM CLR 22/M05 A3012 2120 16 3400 300/04 RMK AO2 $
53144K9L2 9L220160213172510202/13/16 17:25:31  5-MIN K9L2 140125Z AUTO 31004KT 10SM CLR 21/M04 A3012 2120 18 3300 300/04 RMK AO2 $
53144K9L2 9L220160213173010202/13/16 17:30:31  5-MIN K9L2 140130Z AUTO 31005KT 10SM CLR 21/M05 A3012 2110 17 3300 300/05 RMK AO2 $
53144K9L2 9L220160213173510202/13/16 17:35:31  5-MIN K9L2 140135Z AUTO 30004KT 10SM CLR 20/M05 A3013 2110 18 3200 280/04 RMK AO2 $
53144K9L2 9L220160213174010202/13/16 17:40:31  5-MIN K9L2 140140Z AUTO 30005KT 10SM CLR 19/M04 A3013 2110 20 3100 290/05 RMK AO2 $
53144K9L2 9L220160213174510202/13/16 17:45:31  5-MIN K9L2 140145Z AUTO 29006KT 10SM CLR 18/M04 A3013 2110 21 3000 280/06 RMK AO2 $
53144K9L2 9L220160213175010202/13/16 17:50:31  5-MIN K9L2 140150Z AUTO 29006KT 10SM CLR 18/M04 A3013 2110 21 3000 280/06 RMK AO2 $
53144K9L2 9L220160213175511902/13/16 17:55:31  5-MIN K9L2 140155Z AUTO 29006KT 10SM CLR 17/M03 A3013 2110 25 2900 270/06 RMK AO2 SLP208 T01721028 $
53144K9L2 9L220160213180010202/13/16 18:00:31  5-MIN K9L2 140200Z AUTO 28007KT 10SM CLR 16/M02 A3013 2110 29 2800 260/07 RMK AO2 $
53144K9L2 9L220160213180510202/13/16 18:05:31  5-MIN K9L2 140205Z AUTO 28008KT 10SM CLR 16/M01 A3014 2100 30 2800 270/08 RMK AO2 $
53144K9L2 9L220160213181010202/13/16 18:10:31  5-MIN K9L2 140210Z AUTO 29008KT 10SM CLR 16/M01 A3014 2100 32 2800 280/08 RMK AO2 $
53144K9L2 9L220160213181510102/13/16 18:15:31  5-MIN K9L2 140215Z AUTO 29009KT 10SM CLR 16/00 A3014 2100 34 2700 280/09 RMK AO2 $
53144K9L2 9L220160213182010102/13/16 18:20:31  5-MIN K9L2 140220Z AUTO 28007KT 10SM CLR 16/00 A3014 2100 34 2700 270/07 RMK AO2 $
53144K9L2 9L220160213182510102/13/16 18:25:31  5-MIN K9L2 140225Z AUTO 28006KT 10SM CLR 16/01 A3014 2100 36 2700 270/06 RMK AO2 $
53144K9L2 9L220160213183010102/13/16 18:30:31  5-MIN K9L2 140230Z AUTO 27004KT 10SM CLR 15/01 A3013 2110 38 2600 260/04 RMK AO2 $
53144K9L2 9L220160213183510102/13/16 18:35:31  5-MIN K9L2 140235Z AUTO 26003KT 10SM CLR 15/01 A3013 2110 38 2600 240/03 RMK AO2 $
53144K9L2 9L220160213184010102/13/16 18:40:31  5-MIN K9L2 140240Z AUTO 28004KT 10SM CLR 15/01 A3013 2110 38 2600 270/04 RMK AO2 $
53144K9L2 9L220160213184510102/13/16 18:45:31  5-MIN K9L2 140245Z AUTO 28006KT 10SM CLR 15/02 A3013 2110 40 2600 270/06 RMK AO2 $
53144K9L2 9L220160213185010102/13/16 18:50:31  5-MIN K9L2 140250Z AUTO 19003KT 10SM CLR 14/02 A3013 2110 43 2500 180/03 RMK AO2 $
53144K9L2 9L220160213185512402/13/16 18:55:31  5-MIN K9L2 140255Z AUTO 28004KT 10SM CLR 14/02 A3013 2110 43 2500 270/04 RMK AO2 SLP212 T01390017 58005 $
53144K9L2 9L220160213190010102/13/16 19:00:31  5-MIN K9L2 140300Z AUTO 28010KT 10SM CLR 14/03 A3013 2110 45 2600 270/10 RMK AO2 $
53144K9L2 9L220160213190510102/13/16 19:05:31  5-MIN K9L2 140305Z AUTO 29010KT 10SM CLR 15/03 A3013 2110 45 2600 270/10 RMK AO2 $
53144K9L2 9L220160213191010002/13/16 19:10:31  5-MIN K9L2 140310Z AUTO 29011KT 9SM CLR 14/04 A3013 2110 49 2600 280/11 RMK AO2 $
53144K9L2 9L220160213191510002/13/16 19:15:31  5-MIN K9L2 140315Z AUTO 29011KT 9SM CLR 14/04 A3014 2100 50 2500 280/11 RMK AO2 $
53144K9L2 9L220160213192010002/13/16 19:20:31  5-MIN K9L2 140320Z AUTO 29012KT 9SM CLR 14/04 A3014 2100 50 2500 280/12 RMK AO2 $
53144K9L2 9L220160213192510002/13/16 19:25:31  5-MIN K9L2 140325Z AUTO 29010KT 8SM CLR 14/04 A3014 2100 50 2500 270/10 RMK AO2 $
53144K9L2 9L220160213193010002/13/16 19:30:31  5-MIN K9L2 140330Z AUTO 28010KT 8SM CLR 14/04 A3014 2100 50 2500 270/10 RMK AO2 $
53144K9L2 9L220160213193510002/13/16 19:35:31  5-MIN K9L2 140335Z AUTO 30007KT 8SM CLR 13/04 A3014 2100 52 2400 290/07 RMK AO2 $
53144K9L2 9L220160213194010002/13/16 19:40:31  5-MIN K9L2 140340Z AUTO 31005KT 8SM CLR 13/04 A3014 2100 54 2400 300/05 RMK AO2 $
53144K9L2 9L220160213194510002/13/16 19:45:31  5-MIN K9L2 140345Z AUTO 34003KT 8SM CLR 13/04 A3014 2100 54 2400 330/03 RMK AO2 $
53144K9L2 9L220160213195010002/13/16 19:50:31  5-MIN K9L2 140350Z AUTO 00000KT 8SM CLR 12/03 A3015 2090 54 2300 000/00 RMK AO2 $
53144K9L2 9L220160213195511702/13/16 19:55:31  5-MIN K9L2 140355Z AUTO 00000KT 9SM CLR 12/03 A3015 2090 54 2300 000/00 RMK AO2 SLP215 T01220033 $
53144K9L2 9L220160213200010002/13/16 20:00:31  5-MIN K9L2 140400Z AUTO 00000KT 9SM CLR 12/03 A3015 2090 54 2300 000/00 RMK AO2 $
53144K9L2 9L220160213200510002/13/16 20:05:31  5-MIN K9L2 140405Z AUTO 00000KT 8SM CLR 13/04 A3015 2090 54 2400 000/00 RMK AO2 $
53144K9L2 9L220160213201010002/13/16 20:10:31  5-MIN K9L2 140410Z AUTO 00000KT 8SM CLR 12/03 A3015 2090 56 2200 000/00 RMK AO2 $
53144K9L2 9L220160213201510002/13/16 20:15:31  5-MIN K9L2 140415Z AUTO 00000KT 8SM CLR 12/03 A3015 2090 54 2300 000/00 RMK AO2 $
53144K9L2 9L220160213202010002/13/16 20:20:31  5-MIN K9L2 140420Z AUTO 00000KT 8SM CLR 12/03 A3015 2090 54 2300 000/00 RMK AO2 $
53144K9L2 9L220160213202510002/13/16 20:25:31  5-MIN K9L2 140425Z AUTO 00000KT 8SM CLR 12/03 A3015 2090 54 2200 000/00 RMK AO2 $
53144K9L2 9L220160213203010002/13/16 20:30:31  5-MIN K9L2 140430Z AUTO 00000KT 8SM CLR 12/03 A3015 2090 54 2300 000/00 RMK AO2 $
53144K9L2 9L220160213203510002/13/16 20:35:31  5-MIN K9L2 140435Z AUTO 00000KT 8SM CLR 12/03 A3015 2090 54 2300 000/00 RMK AO2 $
53144K9L2 9L220160213204010002/13/16 20:40:31  5-MIN K9L2 140440Z AUTO 00000KT 9SM CLR 11/03 A3015 2090 56 2200 000/00 RMK AO2 $
53144K9L2 9L220160213204510002/13/16 20:45:31  5-MIN K9L2 140445Z AUTO 14003KT 9SM CLR 12/03 A3015 2090 54 2200 130/03 RMK AO2 $
53144K9L2 9L220160213205010102/13/16 20:50:31  5-MIN K9L2 140450Z AUTO 14004KT 10SM CLR 11/01 A3015 2090 50 2200 130/04 RMK AO2 $
53144K9L2 9L220160213205511802/13/16 20:55:31  5-MIN K9L2 140455Z AUTO 17003KT 10SM CLR 11/01 A3016 2090 48 2200 160/03 RMK AO2 SLP217 T01110006 $
53144K9L2 9L220160213210010102/13/16 21:00:31  5-MIN K9L2 140500Z AUTO 19003KT 10SM CLR 11/00 A3016 2080 46 2100 180/03 RMK AO2 $
53144K9L2 9L220160213210510102/13/16 21:05:31  5-MIN K9L2 140505Z AUTO 22003KT 10SM CLR 10/00 A3016 2080 49 2000 200/03 RMK AO2 $
53144K9L2 9L220160213211010102/13/16 21:10:31  5-MIN K9L2 140510Z AUTO 24004KT 10SM CLR 09/00 A3016 2080 53 1900 230/04 RMK AO2 $
53144K9L2 9L220160214064511002/14/16 06:45:31  5-MIN K9L2 141445Z AUTO 00000KT 5SM HZ CLR 01/M02 A3017 2080 78 900 000/00 RMK AO2 FZRANO $
53144K9L2 9L220160214065011002/14/16 06:50:31  5-MIN K9L2 141450Z AUTO 02003KT 5SM HZ CLR 01/M03 A3018 2070 78 900 010/03 RMK AO2 FZRANO $
53144K9L2 9L220160214065513302/14/16 06:55:31  5-MIN K9L2 141455Z AUTO 00000KT 5SM HZ CLR 01/M03 A3016 2080 78 900 000/00 RMK AO2 SLP222 T00061028 58003 FZRANO $
53144K9L2 9L220160214070011002/14/16 07:00:31  5-MIN K9L2 141500Z AUTO 00000KT 5SM HZ CLR 01/M02 A3017 2070 78 900 000/00 RMK AO2 FZRANO $
53144K9L2 9L220160214070511002/14/16 07:05:31  5-MIN K9L2 141505Z AUTO 00000KT 5SM HZ CLR 01/M02 A3017 2070 78 900 000/00 RMK AO2 FZRANO $
53144K9L2 9L220160214071011002/14/16 07:10:31  5-MIN K9L2 141510Z AUTO 00000KT 5SM HZ CLR 01/M02 A3017 2070 78 900 000/00 RMK AO2 FZRANO $
53144K9L2 9L220160214071511102/14/16 07:15:31  5-MIN K9L2 141515Z AUTO 00000KT 5SM HZ CLR 02/M02 A3018 2060 75 1000 000/00 RMK AO2 FZRANO $
53144K9L2 9L220160214072011102/14/16 07:20:31  5-MIN K9L2 141520Z AUTO 00000KT 5SM HZ CLR 02/M02 A3018 2060 75 1100 000/00 RMK AO2 FZRANO $
53144K9L2 9L220160214072511102/14/16 07:25:31  5-MIN K9L2 141525Z AUTO 00000KT 5SM HZ CLR 02/M02 A3018 2070 75 1100 000/00 RMK AO2 FZRANO $
53144K9L2 9L220160214073010402/14/16 07:30:31  5-MIN K9L2 141530Z AUTO 00000KT 5SM HZ CLR 03/M02 A3018 2070 72 1100 000/00 RMK AO2 $
53144K9L2 9L220160214073510402/14/16 07:35:31  5-MIN K9L2 141535Z AUTO 00000KT 5SM HZ CLR 03/M02 A3019 2060 70 1200 000/00 RMK AO2 $
53144K9L2 9L220160214074010402/14/16 07:40:31  5-MIN K9L2 141540Z AUTO 00000KT 6SM HZ CLR 04/M01 A3019 2060 70 1200 000/00 RMK AO2 $
53144K9L2 9L220160214074510402/14/16 07:45:31  5-MIN K9L2 141545Z AUTO 00000KT 6SM HZ CLR 04/M01 A3019 2050 70 1200 000/00 RMK AO2 $
53144K9L2 9L220160214075010402/14/16 07:50:31  5-MIN K9L2 141550Z AUTO 00000KT 6SM HZ CLR 05/M01 A3020 2050 64 1400 000/00 RMK AO2 $
53144K9L2 9L220160214075512102/14/16 07:55:31  5-MIN K9L2 141555Z AUTO 36004KT 6SM HZ CLR 06/M01 A3020 2050 65 1400 350/04 RMK AO2 SLP231 T00561006 $
53144K9L2 9L220160214080010102/14/16 08:00:31  5-MIN K9L2 141600Z AUTO 00000KT 7SM CLR 06/M01 A3020 2050 62 1500 000/00 RMK AO2 $
53144K9L2 9L220160214080510402/14/16 08:05:31  5-MIN K9L2 141605Z AUTO 00000KT 6SM HZ CLR 06/M01 A3020 2050 62 1500 000/00 RMK AO2 $
53144K9L2 9L220160214081010302/14/16 08:10:31  5-MIN K9L2 141610Z AUTO 00000KT 6SM HZ CLR 06/00 A3020 2040 65 1500 000/00 RMK AO2 $
53144K9L2 9L220160214081510002/14/16 08:15:31  5-MIN K9L2 141615Z AUTO 00000KT 7SM CLR 07/00 A3019 2050 62 1600 000/00 RMK AO2 $
53144K9L2 9L220160214082010002/14/16 08:20:31  5-MIN K9L2 141620Z AUTO 00000KT 8SM CLR 07/00 A3020 2050 62 1600 000/00 RMK AO2 $
53144K9L2 9L220160214082510002/14/16 08:25:31  5-MIN K9L2 141625Z AUTO 00000KT 9SM CLR 07/00 A3020 2050 60 1600 000/00 RMK AO2 $
53144K9L2 9L220160214083010002/14/16 08:30:31  5-MIN K9L2 141630Z AUTO 00000KT 9SM CLR 08/01 A3020 2050 60 1700 000/00 RMK AO2 $
53144K9L2 9L220160214083510002/14/16 08:35:31  5-MIN K9L2 141635Z AUTO 00000KT 9SM CLR 08/01 A3019 2050 60 1700 000/00 RMK AO2 $
53144K9L2 9L220160214084010002/14/16 08:40:31  5-MIN K9L2 141640Z AUTO 00000KT 9SM CLR 08/01 A3019 2050 58 1800 000/00 RMK AO2 $
53144K9L2 9L220160214084510002/14/16 08:45:31  5-MIN K9L2 141645Z AUTO 00000KT 9SM CLR 09/01 A3020 2050 56 1800 000/00 RMK AO2 $
53144K9L2 9L220160214085010002/14/16 08:50:31  5-MIN K9L2 141650Z AUTO 00000KT 9SM CLR 09/01 A3020 2040 53 1900 000/00 RMK AO2 $
53144K9L2 9L220160214085511702/14/16 08:55:31  5-MIN K9L2 141655Z AUTO 00000KT 9SM CLR 10/01 A3020 2040 52 2000 000/00 RMK AO2 SLP230 T01000006 $
53144K9L2 9L220160214090010102/14/16 09:00:31  5-MIN K9L2 141700Z AUTO 00000KT 10SM CLR 11/01 A3020 2040 50 2000 000/00 RMK AO2 $
53144K9L2 9L220160214090510002/14/16 09:05:31  5-MIN K9L2 141705Z AUTO 00000KT 9SM CLR 11/01 A3020 2050 52 2000 000/00 RMK AO2 $
53144K9L2 9L220160214091010002/14/16 09:10:31  5-MIN K9L2 141710Z AUTO 00000KT 9SM CLR 11/01 A3020 2050 52 2000 000/00 RMK AO2 $
53144K9L2 9L220160214091510002/14/16 09:15:31  5-MIN K9L2 141715Z AUTO 00000KT 9SM CLR 11/01 A3020 2050 52 2000 000/00 RMK AO2 $
53144K9L2 9L220160214092010002/14/16 09:20:31  5-MIN K9L2 141720Z AUTO 00000KT 9SM CLR 11/01 A3020 2040 50 2100 000/00 RMK AO2 $
53144K9L2 9L220160214092510102/14/16 09:25:31  5-MIN K9L2 141725Z AUTO 00000KT 10SM CLR 11/01 A3020 2040 50 2100 000/00 RMK AO2 $
53144K9L2 9L220160214093010102/14/16 09:30:31  5-MIN K9L2 141730Z AUTO 00000KT 10SM CLR 12/01 A3020 2040 48 2200 000/00 RMK AO2 $
53144K9L2 9L220160214093510102/14/16 09:35:31  5-MIN K9L2 141735Z AUTO 00000KT 10SM CLR 12/01 A3020 2040 48 2200 000/00 RMK AO2 $
53144K9L2 9L220160214094010102/14/16 09:40:31  5-MIN K9L2 141740Z AUTO 00000KT 10SM CLR 12/01 A3020 2040 46 2200 000/00 RMK AO2 $
53144K9L2 9L220160214094510102/14/16 09:45:31  5-MIN K9L2 141745Z AUTO 00000KT 10SM CLR 12/02 A3020 2050 48 2200 000/00 RMK AO2 $
53144K9L2 9L220160214095010002/14/16 09:50:31  5-MIN K9L2 141750Z AUTO 00000KT 9SM CLR 12/02 A3020 2050 48 2200 000/00 RMK AO2 $
53144K9L2 9L220160214095513602/14/16 09:55:31  5-MIN K9L2 141755Z AUTO 15003KT 10SM CLR 13/02 A3020 2050 46 2300 140/03 RMK AO2 SLP229 T01280017 10128 20006 55002 $
53144K9L2 9L220160214100010102/14/16 10:00:31  5-MIN K9L2 141800Z AUTO 00000KT 10SM CLR 13/02 A3020 2040 46 2300 000/00 RMK AO2 $
53144K9L2 9L220160214100510102/14/16 10:05:31  5-MIN K9L2 141805Z AUTO 00000KT 10SM CLR 13/02 A3020 2040 45 2400 000/00 RMK AO2 $
53144K9L2 9L220160214101010002/14/16 10:10:31  5-MIN K9L2 141810Z AUTO 16003KT 9SM CLR 13/02 A3020 2040 45 2400 150/03 RMK AO2 $
53144K9L2 9L220160214101510002/14/16 10:15:31  5-MIN K9L2 141815Z AUTO 17003KT 9SM CLR 14/02 A3020 2050 43 2400 160/03 RMK AO2 $
53144K9L2 9L220160214102010002/14/16 10:20:31  5-MIN K9L2 141820Z AUTO 00000KT 9SM CLR 14/02 A3020 2040 41 2500 000/00 RMK AO2 $
53144K9L2 9L220160214102510002/14/16 10:25:31  5-MIN K9L2 141825Z AUTO 14003KT 9SM CLR 14/02 A3020 2040 41 2500 130/03 RMK AO2 $
53144K9L2 9L220160214103010102/14/16 10:30:31  5-MIN K9L2 141830Z AUTO 00000KT 10SM CLR 14/02 A3020 2040 41 2500 000/00 RMK AO2 $
53144K9L2 9L220160214103510102/14/16 10:35:31  5-MIN K9L2 141835Z AUTO 00000KT 10SM CLR 14/02 A3020 2040 41 2500 000/00 RMK AO2 $
53144K9L2 9L220160214104010102/14/16 10:40:31  5-MIN K9L2 141840Z AUTO 16003KT 10SM CLR 15/02 A3020 2040 40 2600 150/03 RMK AO2 $
53144K9L2 9L220160214104510102/14/16 10:45:31  5-MIN K9L2 141845Z AUTO 15003KT 10SM CLR 15/02 A3020 2040 40 2600 130/03 RMK AO2 $
53144K9L2 9L220160214105010102/14/16 10:50:31  5-MIN K9L2 141850Z AUTO VRB03KT 10SM CLR 15/02 A3021 2040 40 2600 VRB/03 RMK AO2 $
53144K9L2 9L220160214105511802/14/16 10:55:31  5-MIN K9L2 141855Z AUTO 00000KT 10SM CLR 16/02 A3021 2040 39 2600 000/00 RMK AO2 SLP229 T01560017 $
53144K9L2 9L220160214110010102/14/16 11:00:31  5-MIN K9L2 141900Z AUTO 00000KT 10SM CLR 16/02 A3021 2040 39 2600 000/00 RMK AO2 $
53144K9L2 9L220160214110510102/14/16 11:05:31  5-MIN K9L2 141905Z AUTO 00000KT 10SM CLR 16/02 A3020 2040 37 2700 000/00 RMK AO2 $
53144K9L2 9L220160214111010102/14/16 11:10:31  5-MIN K9L2 141910Z AUTO 00000KT 10SM CLR 16/02 A3020 2040 37 2700 000/00 RMK AO2 $
53144K9L2 9L220160214111510102/14/16 11:15:31  5-MIN K9L2 141915Z AUTO 00000KT 10SM CLR 17/02 A3020 2050 37 2800 000/00 RMK AO2 $
53144K9L2 9L220160214112010102/14/16 11:20:31  5-MIN K9L2 141920Z AUTO 11003KT 10SM CLR 17/02 A3019 2050 36 2800 100/03 RMK AO2 $
53144K9L2 9L220160214112510102/14/16 11:25:31  5-MIN K9L2 141925Z AUTO 13003KT 10SM CLR 17/02 A3019 2050 35 2800 120/03 RMK AO2 $
53144K9L2 9L220160214113010102/14/16 11:30:31  5-MIN K9L2 141930Z AUTO 10003KT 10SM CLR 17/02 A3019 2050 36 2800 090/03 RMK AO2 $
53144K9L2 9L220160214113510102/14/16 11:35:31  5-MIN K9L2 141935Z AUTO 00000KT 10SM CLR 18/02 A3019 2060 33 2900 000/00 RMK AO2 $
53144K9L2 9L220160214114010102/14/16 11:40:31  5-MIN K9L2 141940Z AUTO 00000KT 10SM CLR 18/02 A3018 2060 33 2900 000/00 RMK AO2 $
53144K9L2 9L220160214114510102/14/16 11:45:31  5-MIN K9L2 141945Z AUTO VRB04KT 10SM CLR 18/02 A3018 2070 33 2900 VRB/04 RMK AO2 $
53144K9L2 9L220160214115010102/14/16 11:50:31  5-MIN K9L2 141950Z AUTO 11005KT 10SM CLR 18/02 A3017 2070 32 3000 100/05 RMK AO2 $
53144K9L2 9L220160214115511802/14/16 11:55:31  5-MIN K9L2 141955Z AUTO 08003KT 10SM CLR 18/02 A3017 2070 32 3000 070/03 RMK AO2 SLP218 T01830017 $
53144K9L2 9L220160214120010102/14/16 12:00:31  5-MIN K9L2 142000Z AUTO 07004KT 10SM CLR 19/02 A3017 2070 30 3100 060/04 RMK AO2 $
53144K9L2 9L220160214120510102/14/16 12:05:31  5-MIN K9L2 142005Z AUTO 02004KT 10SM CLR 20/01 A3017 2070 28 3200 360/04 RMK AO2 $
53144K9L2 9L220160214121010102/14/16 12:10:31  5-MIN K9L2 142010Z AUTO 02005KT 10SM CLR 21/01 A3017 2070 25 3300 360/05 RMK AO2 $
53144K9L2 9L220160214121510102/14/16 12:15:31  5-MIN K9L2 142015Z AUTO VRB04KT 10SM CLR 22/01 A3017 2070 24 3400 VRB/04 RMK AO2 $
53144K9L2 9L220160214122010102/14/16 12:20:31  5-MIN K9L2 142020Z AUTO 03003KT 10SM CLR 21/01 A3017 2080 25 3300 020/03 RMK AO2 $
53144K9L2 9L220160214122510102/14/16 12:25:31  5-MIN K9L2 142025Z AUTO 00000KT 10SM CLR 21/01 A3017 2070 25 3300 000/00 RMK AO2 $
53144K9L2 9L220160214123010102/14/16 12:30:31  5-MIN K9L2 142030Z AUTO VRB03KT 10SM CLR 22/01 A3017 2080 24 3400 VRB/03 RMK AO2 $
53144K9L2 9L220160214123510102/14/16 12:35:31  5-MIN K9L2 142035Z AUTO 00000KT 10SM CLR 22/01 A3016 2080 24 3400 000/00 RMK AO2 $
53144K9L2 9L220160214124010102/14/16 12:40:31  5-MIN K9L2 142040Z AUTO 12003KT 10SM CLR 22/01 A3016 2080 25 3400 110/03 RMK AO2 $
53144K9L2 9L220160214124510102/14/16 12:45:31  5-MIN K9L2 142045Z AUTO 00000KT 10SM CLR 22/01 A3016 2090 24 3400 000/00 RMK AO2 $
53144K9L2 9L220160214125010102/14/16 12:50:31  5-MIN K9L2 142050Z AUTO 00000KT 10SM CLR 23/01 A3015 2090 22 3500 000/00 RMK AO2 $
53144K9L2 9L220160214125512402/14/16 12:55:31  5-MIN K9L2 142055Z AUTO 09004KT 10SM CLR 22/01 A3015 2090 24 3400 080/04 RMK AO2 SLP208 T02170006 50013 $
53144K9L2 9L220160214130010102/14/16 13:00:31  5-MIN K9L2 142100Z AUTO 00000KT 10SM CLR 22/00 A3014 2100 22 3500 000/00 RMK AO2 $
53144K9L2 9L220160214130510202/14/16 13:05:31  5-MIN K9L2 142105Z AUTO 00000KT 10SM CLR 23/M01 A3014 2100 21 3500 000/00 RMK AO2 $
53144K9L2 9L220160214131010202/14/16 13:10:31  5-MIN K9L2 142110Z AUTO 02006KT 10SM CLR 23/M02 A3014 2100 18 3600 360/06 RMK AO2 $
53144K9L2 9L220160214131510202/14/16 13:15:31  5-MIN K9L2 142115Z AUTO 36005KT 10SM CLR 23/M02 A3014 2100 18 3600 350/05 RMK AO2 $
53144K9L2 9L220160214132010202/14/16 13:20:31  5-MIN K9L2 142120Z AUTO 35004KT 10SM CLR 23/M02 A3014 2100 18 3600 340/04 RMK AO2 $
53144K9L2 9L220160214132510202/14/16 13:25:31  5-MIN K9L2 142125Z AUTO 32003KT 10SM CLR 23/M02 A3014 2100 18 3600 310/03 RMK AO2 $
53144K9L2 9L220160214133010202/14/16 13:30:31  5-MIN K9L2 142130Z AUTO 31004KT 10SM CLR 23/M02 A3014 2100 18 3600 300/04 RMK AO2 $
53144K9L2 9L220160214133510202/14/16 13:35:31  5-MIN K9L2 142135Z AUTO 30003KT 10SM CLR 23/M02 A3014 2100 18 3600 290/03 RMK AO2 $
53144K9L2 9L220160214134010202/14/16 13:40:31  5-MIN K9L2 142140Z AUTO 31003KT 10SM CLR 23/M02 A3014 2100 18 3600 300/03 RMK AO2 $
53144K9L2 9L220160214134510202/14/16 13:45:31  5-MIN K9L2 142145Z AUTO 34003KT 10SM CLR 23/M02 A3014 2100 18 3600 320/03 RMK AO2 $
53144K9L2 9L220160214135010202/14/16 13:50:31  5-MIN K9L2 142150Z AUTO 36004KT 10SM CLR 23/M02 A3013 2110 18 3600 350/04 RMK AO2 $
53144K9L2 9L220160214135511902/14/16 13:55:31  5-MIN K9L2 142155Z AUTO 36005KT 10SM CLR 24/M02 A3013 2110 17 3600 350/05 RMK AO2 SLP203 T02391022 $
53144K9L2 9L220160214140010202/14/16 14:00:31  5-MIN K9L2 142200Z AUTO 05006KT 10SM CLR 24/M02 A3013 2110 17 3600 040/06 RMK AO2 $
53144K9L2 9L220160214140510202/14/16 14:05:31  5-MIN K9L2 142205Z AUTO VRB05KT 10SM CLR 24/M02 A3013 2110 17 3700 VRB/05 RMK AO2 $
53144K9L2 9L220160214141010802/14/16 14:10:31  5-MIN K9L2 142210Z AUTO 07012G17KT 10SM CLR 25/M08 A3013 2110 10 3800 060/12G17 RMK AO2 $
53144K9L2 9L220160214141510802/14/16 14:15:31  5-MIN K9L2 142215Z AUTO 07013G17KT 10SM CLR 25/M11 A3013 2110 08 3800 060/13G17 RMK AO2 $
53144K9L2 9L220160214142010202/14/16 14:20:31  5-MIN K9L2 142220Z AUTO 07012KT 10SM CLR 25/M11 A3013 2110 08 3800 050/12 RMK AO2 $
53144K9L2 9L220160214142510202/14/16 14:25:31  5-MIN K9L2 142225Z AUTO 06012KT 10SM CLR 25/M11 A3012 2120 08 3800 050/12 RMK AO2 $
53144K9L2 9L220160214143010202/14/16 14:30:31  5-MIN K9L2 142230Z AUTO 05009KT 10SM CLR 24/M11 A3012 2120 09 3700 040/09 RMK AO2 $
53144K9L2 9L220160214143510202/14/16 14:35:31  5-MIN K9L2 142235Z AUTO 07012KT 10SM CLR 24/M10 A3012 2120 09 3700 060/12 RMK AO2 $
53144K9L2 9L220160214144010202/14/16 14:40:31  5-MIN K9L2 142240Z AUTO 08009KT 10SM CLR 24/M10 A3012 2120 09 3700 070/09 RMK AO2 $
53144K9L2 9L220160214144510202/14/16 14:45:31  5-MIN K9L2 142245Z AUTO 07009KT 10SM CLR 24/M10 A3012 2120 09 3700 060/09 RMK AO2 $
53144K9L2 9L220160214145010202/14/16 14:50:31  5-MIN K9L2 142250Z AUTO 07012KT 10SM CLR 24/M10 A3012 2120 09 3700 060/12 RMK AO2 $
53144K9L2 9L220160214145511902/14/16 14:55:31  5-MIN K9L2 142255Z AUTO 07014KT 10SM CLR 24/M10 A3012 2120 09 3700 060/14 RMK AO2 SLP198 T02391100 $
53144K9L2 9L220160214150010202/14/16 15:00:31  5-MIN K9L2 142300Z AUTO 07013KT 10SM CLR 24/M10 A3012 2120 09 3700 050/13 RMK AO2 $
53144K9L2 9L220160214150510202/14/16 15:05:31  5-MIN K9L2 142305Z AUTO 06013KT 10SM CLR 23/M10 A3012 2120 10 3600 050/13 RMK AO2 $
53144K9L2 9L220160214151010202/14/16 15:10:31  5-MIN K9L2 142310Z AUTO 06012KT 10SM CLR 23/M10 A3012 2120 10 3600 050/12 RMK AO2 $
53144K9L2 9L220160214151510202/14/16 15:15:31  5-MIN K9L2 142315Z AUTO 06012KT 10SM CLR 23/M10 A3012 2120 10 3600 050/12 RMK AO2 $
53144K9L2 9L220160214152010202/14/16 15:20:31  5-MIN K9L2 142320Z AUTO 06011KT 10SM CLR 24/M10 A3012 2120 09 3700 050/11 RMK AO2 $
53144K9L2 9L220160214152510202/14/16 15:25:31  5-MIN K9L2 142325Z AUTO 07009KT 10SM CLR 24/M10 A3012 2120 09 3700 050/09 RMK AO2 $
53144K9L2 9L220160214153010202/14/16 15:30:31  5-MIN K9L2 142330Z AUTO 06012KT 10SM CLR 23/M10 A3012 2120 10 3600 040/12 RMK AO2 $
53144K9L2 9L220160214153510202/14/16 15:35:31  5-MIN K9L2 142335Z AUTO 06010KT 10SM CLR 23/M10 A3012 2120 10 3600 040/10 RMK AO2 $
53144K9L2 9L220160214154010202/14/16 15:40:31  5-MIN K9L2 142340Z AUTO 06010KT 10SM CLR 24/M10 A3012 2120 09 3700 050/10 RMK AO2 $
53144K9L2 9L220160214154510202/14/16 15:45:31  5-MIN K9L2 142345Z AUTO 05009KT 10SM CLR 24/M09 A3012 2120 10 3700 040/09 RMK AO2 $
53144K9L2 9L220160214155010202/14/16 15:50:31  5-MIN K9L2 142350Z AUTO 06008KT 10SM CLR 24/M09 A3012 2120 10 3700 050/08 RMK AO2 $
53144K9L2 9L220160214155513702/14/16 15:55:31  5-MIN K9L2 142355Z AUTO 07009KT 10SM CLR 24/M09 A3012 2120 10 3700 050/09 RMK AO2 SLP196 T02441094 10250 20128 58017 $
53144K9L2 9L220160214160010202/14/16 16:00:31  5-MIN K9L2 150000Z AUTO 06010KT 10SM CLR 24/M09 A3011 2120 10 3700 040/10 RMK AO2 $
53144K9L2 9L220160214160510202/14/16 16:05:31  5-MIN K9L2 150005Z AUTO 06009KT 10SM CLR 24/M09 A3011 2120 10 3700 050/09 RMK AO2 $
53144K9L2 9L220160214161010202/14/16 16:10:31  5-MIN K9L2 150010Z AUTO 06008KT 10SM CLR 24/M09 A3011 2130 10 3700 040/08 RMK AO2 $
53144K9L2 9L220160214161510202/14/16 16:15:31  5-MIN K9L2 150015Z AUTO 06009KT 10SM CLR 23/M09 A3011 2120 10 3600 050/09 RMK AO2 $
53144K9L2 9L220160214162010202/14/16 16:20:31  5-MIN K9L2 150020Z AUTO 07008KT 10SM CLR 23/M09 A3011 2120 10 3600 060/08 RMK AO2 $
53144K9L2 9L220160214162510202/14/16 16:25:31  5-MIN K9L2 150025Z AUTO 07007KT 10SM CLR 23/M09 A3011 2130 10 3600 060/07 RMK AO2 $
53144K9L2 9L220160214163010202/14/16 16:30:31  5-MIN K9L2 150030Z AUTO 07008KT 10SM CLR 23/M09 A3011 2120 11 3500 060/08 RMK AO2 $
53144K9L2 9L220160214163510202/14/16 16:35:31  5-MIN K9L2 150035Z AUTO 07006KT 10SM CLR 23/M09 A3011 2120 11 3500 050/06 RMK AO2 $
53144K9L2 9L220160214164010202/14/16 16:40:31  5-MIN K9L2 150040Z AUTO 06005KT 10SM CLR 23/M09 A3011 2120 11 3500 050/05 RMK AO2 $
53144K9L2 9L220160214164510202/14/16 16:45:31  5-MIN K9L2 150045Z AUTO 06005KT 10SM CLR 23/M08 A3011 2130 12 3500 050/05 RMK AO2 $
53144K9L2 9L220160214165010202/14/16 16:50:31  5-MIN K9L2 150050Z AUTO 07004KT 10SM CLR 22/M08 A3011 2130 12 3500 050/04 RMK AO2 $
53144K9L2 9L220160214165511902/14/16 16:55:31  5-MIN K9L2 150055Z AUTO 06003KT 10SM CLR 22/M08 A3011 2130 12 3500 050/03 RMK AO2 SLP197 T02221083 $
53144K9L2 9L220160214170010202/14/16 17:00:31  5-MIN K9L2 150100Z AUTO 05004KT 10SM CLR 22/M08 A3011 2130 12 3500 040/04 RMK AO2 $
53144K9L2 9L220160214170510202/14/16 17:05:31  5-MIN K9L2 150105Z AUTO 06003KT 10SM CLR 22/M08 A3011 2120 12 3500 050/03 RMK AO2 $
53144K9L2 9L220160214171010202/14/16 17:10:31  5-MIN K9L2 150110Z AUTO 04003KT 10SM CLR 22/M08 A3012 2120 12 3500 030/03 RMK AO2 $
53144K9L2 9L220160214171510202/14/16 17:15:31  5-MIN K9L2 150115Z AUTO 06006KT 10SM CLR 22/M08 A3012 2120 12 3500 040/06 RMK AO2 $
53144K9L2 9L220160214172010202/14/16 17:20:31  5-MIN K9L2 150120Z AUTO 05007KT 10SM CLR 22/M07 A3012 2120 13 3400 040/07 RMK AO2 $
53144K9L2 9L220160214172510202/14/16 17:25:31  5-MIN K9L2 150125Z AUTO 05007KT 10SM CLR 21/M08 A3013 2110 13 3300 040/07 RMK AO2 $
53144K9L2 9L220160214173010202/14/16 17:30:31  5-MIN K9L2 150130Z AUTO 05007KT 10SM CLR 21/M08 A3013 2110 14 3300 040/07 RMK AO2 $
53144K9L2 9L220160214173510202/14/16 17:35:31  5-MIN K9L2 150135Z AUTO 05007KT 10SM CLR 20/M07 A3013 2110 15 3200 040/07 RMK AO2 $
53144K9L2 9L220160214174010202/14/16 17:40:31  5-MIN K9L2 150140Z AUTO 05007KT 10SM CLR 19/M07 A3013 2110 15 3200 030/07 RMK AO2 $
53144K9L2 9L220160214174510202/14/16 17:45:31  5-MIN K9L2 150145Z AUTO 05005KT 10SM CLR 19/M07 A3013 2110 16 3100 030/05 RMK AO2 $
53144K9L2 9L220160214175010202/14/16 17:50:31  5-MIN K9L2 150150Z AUTO 04005KT 10SM CLR 18/M07 A3013 2110 17 3000 030/05 RMK AO2 $
53144K9L2 9L220160214175511902/14/16 17:55:31  5-MIN K9L2 150155Z AUTO 05004KT 10SM CLR 18/M07 A3013 2110 17 3000 040/04 RMK AO2 SLP204 T01831072 $
53144K9L2 9L220160214180010202/14/16 18:00:31  5-MIN K9L2 150200Z AUTO 05003KT 10SM CLR 18/M07 A3013 2110 18 3000 030/03 RMK AO2 $
53144K9L2 9L220160214180510202/14/16 18:05:31  5-MIN K9L2 150205Z AUTO 04003KT 10SM CLR 18/M07 A3013 2110 17 3000 030/03 RMK AO2 $
53144K9L2 9L220160214181010202/14/16 18:10:31  5-MIN K9L2 150210Z AUTO 04004KT 10SM CLR 18/M07 A3013 2110 18 3000 030/04 RMK AO2 $
53144K9L2 9L220160214181510202/14/16 18:15:31  5-MIN K9L2 150215Z AUTO 04005KT 10SM CLR 18/M07 A3013 2110 17 3000 020/05 RMK AO2 $
53144K9L2 9L220160214182010202/14/16 18:20:31  5-MIN K9L2 150220Z AUTO 04004KT 10SM CLR 17/M07 A3013 2110 19 2900 030/04 RMK AO2 $
53144K9L2 9L220160214182510202/14/16 18:25:31  5-MIN K9L2 150225Z AUTO 04006KT 10SM CLR 17/M07 A3014 2100 19 2800 020/06 RMK AO2 $
53144K9L2 9L220160214183010202/14/16 18:30:31  5-MIN K9L2 150230Z AUTO 04006KT 10SM CLR 17/M07 A3014 2100 19 2800 020/06 RMK AO2 $
53144K9L2 9L220160214183510202/14/16 18:35:31  5-MIN K9L2 150235Z AUTO 05006KT 10SM CLR 17/M07 A3014 2100 19 2900 040/06 RMK AO2 $
53144K9L2 9L220160214184010202/14/16 18:40:31  5-MIN K9L2 150240Z AUTO 03005KT 10SM CLR 17/M07 A3014 2100 19 2800 020/05 RMK AO2 $
53144K9L2 9L220160214184510202/14/16 18:45:31  5-MIN K9L2 150245Z AUTO 03005KT 10SM CLR 16/M06 A3015 2090 22 2700 020/05 RMK AO2 $
53144K9L2 9L220160214185010202/14/16 18:50:31  5-MIN K9L2 150250Z AUTO 02006KT 10SM CLR 16/M06 A3015 2090 22 2700 010/06 RMK AO2 $
53144K9L2 9L220160214185512502/14/16 18:55:31  5-MIN K9L2 150255Z AUTO 01005KT 10SM CLR 16/M06 A3015 2090 22 2700 360/05 RMK AO2 SLP216 T01561061 56010 $
53144K9L2 9L220160214190010202/14/16 19:00:31  5-MIN K9L2 150300Z AUTO 35006KT 10SM CLR 14/M06 A3015 2090 24 2500 340/06 RMK AO2 $
53144K9L2 9L220160214190510202/14/16 19:05:31  5-MIN K9L2 150305Z AUTO 35006KT 10SM CLR 14/M06 A3016 2090 24 2500 340/06 RMK AO2 $
53144K9L2 9L220160214191010202/14/16 19:10:31  5-MIN K9L2 150310Z AUTO 01004KT 10SM CLR 14/M06 A3016 2080 24 2500 350/04 RMK AO2 $
53144K9L2 9L220160214191510202/14/16 19:15:31  5-MIN K9L2 150315Z AUTO 03003KT 10SM CLR 14/M06 A3016 2080 24 2500 020/03 RMK AO2 $
53144K9L2 9L220160214192010202/14/16 19:20:31  5-MIN K9L2 150320Z AUTO 03003KT 10SM CLR 15/M06 A3016 2080 23 2600 020/03 RMK AO2 $
53144K9L2 9L220160214192510202/14/16 19:25:31  5-MIN K9L2 150325Z AUTO 03006KT 10SM CLR 15/M06 A3016 2080 23 2600 010/06 RMK AO2 $
53144K9L2 9L220160214193010202/14/16 19:30:31  5-MIN K9L2 150330Z AUTO 36006KT 10SM CLR 15/M06 A3016 2080 23 2600 350/06 RMK AO2 $
53144K9L2 9L220160214193510202/14/16 19:35:31  5-MIN K9L2 150335Z AUTO 36006KT 10SM CLR 14/M06 A3016 2080 25 2500 340/06 RMK AO2 $
53144K9L2 9L220160214194010202/14/16 19:40:31  5-MIN K9L2 150340Z AUTO 35008KT 10SM CLR 14/M06 A3016 2080 25 2500 340/08 RMK AO2 $
53144K9L2 9L220160214194510202/14/16 19:45:31  5-MIN K9L2 150345Z AUTO 35007KT 10SM CLR 14/M05 A3016 2080 26 2500 330/07 RMK AO2 $
53144K9L2 9L220160214195010202/14/16 19:50:31  5-MIN K9L2 150350Z AUTO 31007KT 10SM CLR 13/M05 A3016 2080 27 2400 300/07 RMK AO2 $
53144K9L2 9L220160214195517702/14/16 19:55:31  5-MIN K9L2 150355Z AUTO 30006KT 10SM CLR 13/M05 A3017 2080 28 2300 280/06 RMK AO2 SLP219 T01281050 $02/14/16 20:00:31  5-M A3017 2070 27 2300 000/00 RMK AO2 $
53144K9L2 9L220160214201510202/14/16 20:15:31  5-MIN K9L2 150415Z AUTO 00000KT 10SM CLR 13/M06 A3018 2070 26 2400 000/00 RMK AO2 $
53144K9L2 9L220160214202010202/14/16 20:20:31  5-MIN K9L2 150420Z AUTO 00000KT 10SM CLR 13/M06 A3018 2060 27 2300 000/00 RMK AO2 $
53144K9L2 9L220160214202510202/14/16 20:25:31  5-MIN K9L2 150425Z AUTO 00000KT 10SM CLR 13/M05 A3019 2060 27 2400 000/00 RMK AO2 $
53144K9L2 9L220160214203010202/14/16 20:30:31  5-MIN K9L2 150430Z AUTO 00000KT 10SM CLR 13/M05 A3019 2050 28 2300 000/00 RMK AO2 $
53144K9L2 9L220160214203510202/14/16 20:35:31  5-MIN K9L2 150435Z AUTO 36004KT 10SM CLR 12/M05 A3019 2050 30 2200 340/04 RMK AO2 $
53144K9L2 9L220160214204010202/14/16 20:40:31  5-MIN K9L2 150440Z AUTO 00000KT 10SM CLR 12/M04 A3019 2050 32 2200 000/00 RMK AO2 $
53144K9L2 9L220160214204510202/14/16 20:45:31  5-MIN K9L2 150445Z AUTO 10003KT 10SM CLR 11/M04 A3019 2050 33 2100 090/03 RMK AO2 $
53144K9L2 9L220160214205010202/14/16 20:50:31  5-MIN K9L2 150450Z AUTO 00000KT 10SM CLR 11/M04 A3019 2050 33 2100 000/00 RMK AO2 $
53144K9L2 9L220160214205511902/14/16 20:55:31  5-MIN K9L2 150455Z AUTO 34004KT 10SM CLR 10/M04 A3019 2050 36 2000 320/04 RMK AO2 SLP228 T01001044 $
53144K9L2 9L220160214210010202/14/16 21:00:31  5-MIN K9L2 150500Z AUTO 34007KT 10SM CLR 10/M03 A3019 2050 39 2000 330/07 RMK AO2 $
53144K9L2 9L220160214210510202/14/16 21:05:31  5-MIN K9L2 150505Z AUTO 33009KT 10SM CLR 11/M03 A3019 2050 39 2000 320/09 RMK AO2 $
53144K9L2 9L220160214211010202/14/16 21:10:31  5-MIN K9L2 150510Z AUTO 34009KT 10SM CLR 11/M03 A3020 2050 36 2100 320/09 RMK AO2 $
53144K9L2 9L220160214211510202/14/16 21:15:31  5-MIN K9L2 150515Z AUTO 34008KT 10SM CLR 11/M03 A3020 2050 36 2100 330/08 RMK AO2 $
53144K9L2 9L220160214212010202/14/16 21:20:31  5-MIN K9L2 150520Z AUTO 34007KT 10SM CLR 11/M03 A3020 2040 37 2000 330/07 RMK AO2 $
53144K9L2 9L220160214212510202/14/16 21:25:31  5-MIN K9L2 150525Z AUTO 33004KT 10SM CLR 11/M03 A3021 2040 37 2000 320/04 RMK AO2 $
53144K9L2 9L220160214213010202/14/16 21:30:31  5-MIN K9L2 150530Z AUTO 00000KT 10SM CLR 10/M03 A3021 2040 39 2000 000/00 RMK AO2 $
53144K9L2 9L220160214213510202/14/16 21:35:31  5-MIN K9L2 150535Z AUTO 32004KT 10SM CLR 10/M03 A3021 2040 40 2000 310/04 RMK AO2 $
53144K9L2 9L220160214214010202/14/16 21:40:31  5-MIN K9L2 150540Z AUTO 34005KT 10SM CLR 10/M03 A3021 2040 40 2000 320/05 RMK AO2 $
53144K9L2 9L220160214214510202/14/16 21:45:31  5-MIN K9L2 150545Z AUTO 33004KT 10SM CLR 10/M03 A3021 2040 40 2000 310/04 RMK AO2 $
53144K9L2 9L220160214215010202/14/16 21:50:31  5-MIN K9L2 150550Z AUTO 35004KT 10SM CLR 10/M03 A3021 2040 40 2000 340/04 RMK AO2 $
53144K9L2 9L220160214215513702/14/16 21:55:31  5-MIN K9L2 150555Z AUTO 34005KT 10SM CLR 10/M03 A3021 2040 40 2000 330/05 RMK AO2 SLP230 T01001028 10244 20100 53011 $
53144K9L2 9L220160214220010202/14/16 22:00:31  5-MIN K9L2 150600Z AUTO 34004KT 10SM CLR 09/M03 A3021 2040 42 1900 330/04 RMK AO2 $
53144K9L2 9L220160214220510202/14/16 22:05:31  5-MIN K9L2 150605Z AUTO 34004KT 10SM CLR 09/M03 A3020 2040 42 1900 330/04 RMK AO2 $
53144K9L2 9L220160214221010202/14/16 22:10:31  5-MIN K9L2 150610Z AUTO 31003KT 10SM CLR 09/M03 A3020 2040 42 1900 300/03 RMK AO2 $
53144K9L2 9L220160214221510202/14/16 22:15:31  5-MIN K9L2 150615Z AUTO 00000KT 10SM CLR 09/M03 A3020 2040 43 1800 000/00 RMK AO2 $
53144K9L2 9L220160214222010202/14/16 22:20:31  5-MIN K9L2 150620Z AUTO 31004KT 10SM CLR 09/M03 A3021 2040 43 1800 290/04 RMK AO2 $
53144K9L2 9L220160214222510202/14/16 22:25:31  5-MIN K9L2 150625Z AUTO 00000KT 10SM CLR 09/M03 A3021 2040 43 1800 000/00 RMK AO2 $
53144K9L2 9L220160214223010202/14/16 22:30:31  5-MIN K9L2 150630Z AUTO 00000KT 10SM CLR 09/M03 A3021 2040 42 1900 000/00 RMK AO2 $
53144K9L2 9L220160214223510202/14/16 22:35:31  5-MIN K9L2 150635Z AUTO 00000KT 10SM CLR 09/M03 A3020 2040 42 1900 000/00 RMK AO2 $
53144K9L2 9L220160214224010202/14/16 22:40:31  5-MIN K9L2 150640Z AUTO 00000KT 10SM CLR 09/M03 A3021 2040 43 1800 000/00 RMK AO2 $
53144K9L2 9L220160214224510202/14/16 22:45:31  5-MIN K9L2 150645Z AUTO 07004KT 10SM CLR 09/M03 A3021 2030 42 1800 060/04 RMK AO2 $
53144K9L2 9L220160214225010202/14/16 22:50:31  5-MIN K9L2 150650Z AUTO 00000KT 10SM CLR 09/M03 A3021 2040 40 1900 000/00 RMK AO2 $
53144K9L2 9L220160214225511902/14/16 22:55:31  5-MIN K9L2 150655Z AUTO 01003KT 10SM CLR 09/M03 A3021 2040 42 1800 360/03 RMK AO2 SLP230 T00891033 $
53144K9L2 9L220160214230010202/14/16 23:00:31  5-MIN K9L2 150700Z AUTO 00000KT 10SM CLR 08/M04 A3021 2030 43 1700 000/00 RMK AO2 $
53144K9L2 9L220160214230510202/14/16 23:05:31  5-MIN K9L2 150705Z AUTO 00000KT 10SM CLR 08/M03 A3021 2030 45 1700 000/00 RMK AO2 $
53144K9L2 9L220160214231010202/14/16 23:10:31  5-MIN K9L2 150710Z AUTO 00000KT 10SM CLR 08/M03 A3022 2030 45 1700 000/00 RMK AO2 $
53144K9L2 9L220160214231510202/14/16 23:15:31  5-MIN K9L2 150715Z AUTO 34003KT 10SM CLR 08/M03 A3021 2030 47 1700 330/03 RMK AO2 $
53144K9L2 9L220160214232010202/14/16 23:20:31  5-MIN K9L2 150720Z AUTO 00000KT 10SM CLR 08/M03 A3021 2030 47 1700 000/00 RMK AO2 $
53144K9L2 9L220160214232510202/14/16 23:25:31  5-MIN K9L2 150725Z AUTO 32004KT 10SM CLR 08/M03 A3021 2030 45 1800 310/04 RMK AO2 $
53144K9L2 9L220160214233010202/14/16 23:30:31  5-MIN K9L2 150730Z AUTO 32007KT 10SM CLR 08/M03 A3021 2040 43 1800 310/07 RMK AO2 $
53144K9L2 9L220160214233510202/14/16 23:35:31  5-MIN K9L2 150735Z AUTO 32007KT 10SM CLR 08/M03 A3021 2040 45 1800 300/07 RMK AO2 $
53144K9L2 9L220160214234010202/14/16 23:40:31  5-MIN K9L2 150740Z AUTO 31005KT 10SM CLR 09/M03 A3021 2040 43 1800 300/05 RMK AO2 $
53144K9L2 9L220160214234510202/14/16 23:45:31  5-MIN K9L2 150745Z AUTO 00000KT 10SM CLR 09/M03 A3021 2040 40 1900 000/00 RMK AO2 $
53144K9L2 9L220160214235010202/14/16 23:50:31  5-MIN K9L2 150750Z AUTO 00000KT 10SM CLR 09/M03 A3021 2040 40 1900 000/00 RMK AO2 $
53144K9L2 9L220160214235512902/14/16 23:55:31  5-MIN K9L2 150755Z AUTO 00000KT 10SM CLR 09/M03 A3021 2040 42 1800 000/00 RMK AO2 SLP227 T00891033 402500006 $
53144K9L2 9L220160215000010202/15/16 00:00:31  5-MIN K9L2 150800Z AUTO 29003KT 10SM CLR 08/M03 A3020 2040 43 1800 280/03 RMK AO2 $
53144K9L2 9L220160215000510202/15/16 00:05:31  5-MIN K9L2 150805Z AUTO 28004KT 10SM CLR 08/M03 A3020 2040 45 1700 270/04 RMK AO2 $
53144K9L2 9L220160215001010202/15/16 00:10:31  5-MIN K9L2 150810Z AUTO 30004KT 10SM CLR 08/M03 A3021 2040 43 1800 280/04 RMK AO2 $
53144K9L2 9L220160215001510202/15/16 00:15:31  5-MIN K9L2 150815Z AUTO 31006KT 10SM CLR 08/M03 A3021 2040 45 1700 290/06 RMK AO2 $
53144K9L2 9L220160215002010202/15/16 00:20:31  5-MIN K9L2 150820Z AUTO 30006KT 10SM CLR 08/M03 A3020 2040 45 1700 290/06 RMK AO2 $
53144K9L2 9L220160215002510202/15/16 00:25:31  5-MIN K9L2 150825Z AUTO 31003KT 10SM CLR 08/M03 A3020 2040 45 1700 300/03 RMK AO2 $
53144K9L2 9L220160215003010202/15/16 00:30:31  5-MIN K9L2 150830Z AUTO VRB04KT 10SM CLR 08/M03 A3020 2040 45 1700 VRB/04 RMK AO2 $
53144K9L2 9L220160215003510202/15/16 00:35:31  5-MIN K9L2 150835Z AUTO 23003KT 10SM CLR 08/M03 A3020 2040 43 1800 220/03 RMK AO2 $
53144K9L2 9L220160215004010202/15/16 00:40:31  5-MIN K9L2 150840Z AUTO 00000KT 10SM CLR 08/M03 A3020 2040 43 1800 000/00 RMK AO2 $
53144K9L2 9L220160215004510202/15/16 00:45:31  5-MIN K9L2 150845Z AUTO 00000KT 10SM CLR 08/M03 A3020 2040 43 1800 000/00 RMK AO2 $
53144K9L2 9L220160215005010202/15/16 00:50:31  5-MIN K9L2 150850Z AUTO 00000KT 10SM CLR 07/M04 A3021 2040 45 1600 000/00 RMK AO2 $
53144K9L2 9L220160215005512502/15/16 00:55:31  5-MIN K9L2 150855Z AUTO 11003KT 10SM CLR 08/M03 A3020 2040 43 1800 100/03 RMK AO2 SLP224 T00831033 51019 $
53144K9L2 9L220160215010010202/15/16 01:00:31  5-MIN K9L2 150900Z AUTO 00000KT 10SM CLR 08/M03 A3021 2040 45 1700 000/00 RMK AO2 $
53144K9L2 9L220160215010510202/15/16 01:05:31  5-MIN K9L2 150905Z AUTO 00000KT 10SM CLR 06/M04 A3021 2040 48 1500 000/00 RMK AO2 $
53144K9L2 9L220160215011010202/15/16 01:10:31  5-MIN K9L2 150910Z AUTO 34004KT 10SM CLR 06/M04 A3021 2040 48 1500 330/04 RMK AO2 $
53144K9L2 9L220160215011510202/15/16 01:15:31  5-MIN K9L2 150915Z AUTO 32004KT 10SM CLR 06/M03 A3021 2040 51 1500 300/04 RMK AO2 $
53144K9L2 9L220160215012010202/15/16 01:20:31  5-MIN K9L2 150920Z AUTO 27004KT 10SM CLR 06/M04 A3021 2040 48 1500 250/04 RMK AO2 $
53144K9L2 9L220160215012510202/15/16 01:25:31  5-MIN K9L2 150925Z AUTO 00000KT 10SM CLR 06/M04 A3021 2040 48 1500 000/00 RMK AO2 $
53144K9L2 9L220160215013010202/15/16 01:30:31  5-MIN K9L2 150930Z AUTO 00000KT 10SM CLR 06/M04 A3021 2040 48 1500 000/00 RMK AO2 $
53144K9L2 9L220160215013510202/15/16 01:35:31  5-MIN K9L2 150935Z AUTO 34003KT 10SM CLR 06/M04 A3021 2040 48 1500 320/03 RMK AO2 $
53144K9L2 9L220160215014010202/15/16 01:40:31  5-MIN K9L2 150940Z AUTO 00000KT 10SM CLR 06/M04 A3021 2040 50 1400 000/00 RMK AO2 $
53144K9L2 9L220160215014510202/15/16 01:45:31  5-MIN K9L2 150945Z AUTO 00000KT 10SM CLR 06/M04 A3021 2040 50 1400 000/00 RMK AO2 $
53144K9L2 9L220160215015010202/15/16 01:50:31  5-MIN K9L2 150950Z AUTO 00000KT 10SM CLR 06/M04 A3020 2040 50 1400 000/00 RMK AO2 $
53144K9L2 9L220160215015511902/15/16 01:55:31  5-MIN K9L2 150955Z AUTO 00000KT 10SM CLR 07/M03 A3020 2040 49 1600 000/00 RMK AO2 SLP224 T00671033 $
53144K9L2 9L220160215020010202/15/16 02:00:31  5-MIN K9L2 151000Z AUTO 00000KT 10SM CLR 06/M03 A3020 2050 51 1500 000/00 RMK AO2 $
53144K9L2 9L220160215020510202/15/16 02:05:31  5-MIN K9L2 151005Z AUTO 29003KT 10SM CLR 06/M04 A3019 2050 50 1400 280/03 RMK AO2 $
53144K9L2 9L220160215021010202/15/16 02:10:31  5-MIN K9L2 151010Z AUTO 31003KT 10SM CLR 06/M03 A3019 2050 51 1500 290/03 RMK AO2 $
53144K9L2 9L220160215021510202/15/16 02:15:31  5-MIN K9L2 151015Z AUTO 00000KT 10SM CLR 05/M03 A3019 2050 55 1400 000/00 RMK AO2 $
53144K9L2 9L220160215022010202/15/16 02:20:31  5-MIN K9L2 151020Z AUTO 00000KT 10SM CLR 05/M03 A3019 2050 57 1400 000/00 RMK AO2 $
53144K9L2 9L220160215022510202/15/16 02:25:31  5-MIN K9L2 151025Z AUTO 32003KT 10SM CLR 05/M03 A3019 2060 55 1400 310/03 RMK AO2 $
53144K9L2 9L220160215023010202/15/16 02:30:31  5-MIN K9L2 151030Z AUTO 00000KT 10SM CLR 05/M03 A3019 2050 55 1400 000/00 RMK AO2 $
53144K9L2 9L220160215023510202/15/16 02:35:31  5-MIN K9L2 151035Z AUTO 33003KT 10SM CLR 06/M03 A3019 2050 55 1400 310/03 RMK AO2 $
53144K9L2 9L220160215024010202/15/16 02:40:31  5-MIN K9L2 151040Z AUTO 32004KT 10SM CLR 05/M03 A3019 2060 57 1400 310/04 RMK AO2 $
53144K9L2 9L220160215024510202/15/16 02:45:31  5-MIN K9L2 151045Z AUTO 32004KT 10SM CLR 06/M03 A3019 2060 55 1500 310/04 RMK AO2 $
53144K9L2 9L220160215025010202/15/16 02:50:31  5-MIN K9L2 151050Z AUTO 28003KT 10SM CLR 05/M03 A3019 2060 57 1400 270/03 RMK AO2 $
53144K9L2 9L220160215025511902/15/16 02:55:31  5-MIN K9L2 151055Z AUTO 28004KT 10SM CLR 06/M03 A3019 2060 55 1400 270/04 RMK AO2 SLP219 T00561028 $
53144K9L2 9L220160215030010202/15/16 03:00:31  5-MIN K9L2 151100Z AUTO 00000KT 10SM CLR 05/M03 A3019 2050 57 1400 000/00 RMK AO2 $
53144K9L2 9L220160215030510202/15/16 03:05:31  5-MIN K9L2 151105Z AUTO 00000KT 10SM CLR 05/M03 A3019 2060 57 1400 000/00 RMK AO2 $
53144K9L2 9L220160215031010202/15/16 03:10:31  5-MIN K9L2 151110Z AUTO 00000KT 10SM CLR 06/M03 A3019 2050 55 1400 000/00 RMK AO2 $
53144K9L2 9L220160215031510202/15/16 03:15:31  5-MIN K9L2 151115Z AUTO 01004KT 10SM CLR 06/M03 A3019 2060 55 1500 350/04 RMK AO2 $
53144K9L2 9L220160215032010202/15/16 03:20:31  5-MIN K9L2 151120Z AUTO 36005KT 10SM CLR 06/M03 A3019 2060 55 1400 340/05 RMK AO2 $
53144K9L2 9L220160215032510202/15/16 03:25:31  5-MIN K9L2 151125Z AUTO 35005KT 10SM CLR 06/M03 A3019 2060 55 1500 330/05 RMK AO2 $
53144K9L2 9L220160215033010202/15/16 03:30:31  5-MIN K9L2 151130Z AUTO 01003KT 10SM CLR 06/M03 A3018 2060 55 1500 350/03 RMK AO2 $
53144K9L2 9L220160215033510202/15/16 03:35:31  5-MIN K9L2 151135Z AUTO 00000KT 10SM CLR 06/M03 A3019 2060 55 1500 000/00 RMK AO2 $
53144K9L2 9L220160215034010202/15/16 03:40:31  5-MIN K9L2 151140Z AUTO 03003KT 10SM CLR 05/M03 A3018 2060 55 1400 010/03 RMK AO2 $
53144K9L2 9L220160215034510202/15/16 03:45:31  5-MIN K9L2 151145Z AUTO 00000KT 10SM CLR 06/M03 A3018 2060 53 1500 000/00 RMK AO2 $
53144K9L2 9L220160215035010202/15/16 03:50:31  5-MIN K9L2 151150Z AUTO 08003KT 10SM CLR 05/M04 A3018 2060 52 1400 070/03 RMK AO2 $
53144K9L2 9L220160215035513702/15/16 03:55:31  5-MIN K9L2 151155Z AUTO 06003KT 10SM CLR 05/M04 A3018 2070 50 1400 050/03 RMK AO2 SLP215 T00501044 10094 20050 58001 $
53144K9L2 9L220160215040010202/15/16 04:00:31  5-MIN K9L2 151200Z AUTO 00000KT 10SM CLR 04/M04 A3018 2060 55 1300 000/00 RMK AO2 $
53144K9L2 9L220160215040510202/15/16 04:05:31  5-MIN K9L2 151205Z AUTO 00000KT 10SM CLR 05/M04 A3018 2060 52 1400 000/00 RMK AO2 $
53144K9L2 9L220160215041010202/15/16 04:10:31  5-MIN K9L2 151210Z AUTO 00000KT 10SM CLR 04/M04 A3018 2060 55 1300 000/00 RMK AO2 $
53144K9L2 9L220160215041510202/15/16 04:15:31  5-MIN K9L2 151215Z AUTO 00000KT 10SM CLR 04/M04 A3018 2060 57 1300 000/00 RMK AO2 $
53144K9L2 9L220160215042010202/15/16 04:20:31  5-MIN K9L2 151220Z AUTO 00000KT 10SM CLR 04/M04 A3019 2060 57 1300 000/00 RMK AO2 $
53144K9L2 9L220160215042510202/15/16 04:25:31  5-MIN K9L2 151225Z AUTO 00000KT 10SM CLR 04/M04 A3019 2060 55 1300 000/00 RMK AO2 $
53144K9L2 9L220160215043010202/15/16 04:30:31  5-MIN K9L2 151230Z AUTO 00000KT 10SM CLR 04/M04 A3019 2060 55 1300 000/00 RMK AO2 $
53144K9L2 9L220160215043510202/15/16 04:35:31  5-MIN K9L2 151235Z AUTO 00000KT 10SM CLR 04/M04 A3019 2060 55 1300 000/00 RMK AO2 $
53144K9L2 9L220160215044010202/15/16 04:40:31  5-MIN K9L2 151240Z AUTO 28003KT 10SM CLR 03/M04 A3019 2060 59 1200 270/03 RMK AO2 $
53144K9L2 9L220160215044510202/15/16 04:45:31  5-MIN K9L2 151245Z AUTO 00000KT 10SM CLR 04/M03 A3019 2050 59 1200 000/00 RMK AO2 $
53144K9L2 9L220160215045010202/15/16 04:50:31  5-MIN K9L2 151250Z AUTO 00000KT 10SM CLR 04/M04 A3019 2050 57 1200 000/00 RMK AO2 $
53144K9L2 9L220160215045511902/15/16 04:55:31  5-MIN K9L2 151255Z AUTO 00000KT 10SM CLR 03/M04 A3019 2060 59 1200 000/00 RMK AO2 SLP223 T00331039 $
53144K9L2 9L220160215050010202/15/16 05:00:31  5-MIN K9L2 151300Z AUTO 00000KT 10SM CLR 03/M04 A3019 2060 59 1200 000/00 RMK AO2 $
53144K9L2 9L220160215050510202/15/16 05:05:31  5-MIN K9L2 151305Z AUTO 00000KT 10SM CLR 04/M04 A3019 2050 57 1200 000/00 RMK AO2 $
53144K9L2 9L220160215051010202/15/16 05:10:31  5-MIN K9L2 151310Z AUTO 00000KT 10SM CLR 03/M04 A3020 2050 59 1200 000/00 RMK AO2 $
53144K9L2 9L220160215051510202/15/16 05:15:31  5-MIN K9L2 151315Z AUTO 00000KT 10SM CLR 03/M04 A3019 2050 59 1200 000/00 RMK AO2 $
53144K9L2 9L220160215052010202/15/16 05:20:31  5-MIN K9L2 151320Z AUTO 00000KT 10SM CLR 04/M04 A3019 2050 57 1200 000/00 RMK AO2 $
53144K9L2 9L220160215052510202/15/16 05:25:31  5-MIN K9L2 151325Z AUTO 00000KT 10SM CLR 03/M04 A3019 2050 59 1200 000/00 RMK AO2 $
53144K9L2 9L220160215053010202/15/16 05:30:31  5-MIN K9L2 151330Z AUTO 00000KT 10SM CLR 03/M04 A3019 2050 59 1200 000/00 RMK AO2 $
53144K9L2 9L220160215053510202/15/16 05:35:31  5-MIN K9L2 151335Z AUTO 00000KT 10SM CLR 03/M04 A3020 2050 59 1200 000/00 RMK AO2 $
53144K9L2 9L220160215054010202/15/16 05:40:31  5-MIN K9L2 151340Z AUTO 00000KT 10SM CLR 03/M04 A3019 2050 59 1200 000/00 RMK AO2 $
53144K9L2 9L220160215054510202/15/16 05:45:31  5-MIN K9L2 151345Z AUTO 00000KT 10SM CLR 03/M04 A3019 2050 59 1200 000/00 RMK AO2 $
53144K9L2 9L220160215055010202/15/16 05:50:31  5-MIN K9L2 151350Z AUTO 00000KT 10SM CLR 03/M04 A3019 2050 59 1200 000/00 RMK AO2 $
53144K9L2 9L220160215055511902/15/16 05:55:31  5-MIN K9L2 151355Z AUTO 00000KT 10SM CLR 03/M04 A3019 2050 59 1200 000/00 RMK AO2 SLP227 T00331039 $
53144K9L2 9L220160216025511902/16/16 02:55:31  5-MIN K9L2 161055Z AUTO 00000KT 10SM CLR 06/M01 A3009 2140 62 1600 000/00 RMK AO2 SLP186 T00561011 $
53144K9L2 9L220160216030010202/16/16 03:00:31  5-MIN K9L2 161100Z AUTO 00000KT 10SM CLR 05/M02 A3009 2140 62 1500 000/00 RMK AO2 $
53144K9L2 9L220160216030510202/16/16 03:05:31  5-MIN K9L2 161105Z AUTO 00000KT 10SM CLR 04/M02 A3009 2140 64 1400 000/00 RMK AO2 $
53144K9L2 9L220160216031010202/16/16 03:10:31  5-MIN K9L2 161110Z AUTO 00000KT 10SM CLR 04/M02 A3009 2150 64 1400 000/00 RMK AO2 $
53144K9L2 9L220160216031510202/16/16 03:15:31  5-MIN K9L2 161115Z AUTO 00000KT 10SM CLR 05/M02 A3009 2150 62 1500 000/00 RMK AO2 $
53144K9L2 9L220160216032010202/16/16 03:20:31  5-MIN K9L2 161120Z AUTO 00000KT 10SM CLR 06/M02 A3009 2150 59 1600 000/00 RMK AO2 $
53144K9L2 9L220160216032510202/16/16 03:25:31  5-MIN K9L2 161125Z AUTO 00000KT 10SM CLR 06/M02 A3009 2150 59 1600 000/00 RMK AO2 $
53144K9L2 9L220160216033010202/16/16 03:30:31  5-MIN K9L2 161130Z AUTO 00000KT 10SM CLR 04/M02 A3009 2150 62 1400 000/00 RMK AO2 $
53144K9L2 9L220160216033510202/16/16 03:35:31  5-MIN K9L2 161135Z AUTO 00000KT 10SM CLR 04/M02 A3009 2150 64 1400 000/00 RMK AO2 $
53144K9L2 9L220160216034010202/16/16 03:40:31  5-MIN K9L2 161140Z AUTO 00000KT 10SM CLR 04/M02 A3009 2140 67 1400 000/00 RMK AO2 $
53144K9L2 9L220160216034510202/16/16 03:45:31  5-MIN K9L2 161145Z AUTO 00000KT 10SM CLR 04/M02 A3009 2150 62 1400 000/00 RMK AO2 $
53144K9L2 9L220160216035010202/16/16 03:50:31  5-MIN K9L2 161150Z AUTO 00000KT 10SM CLR 04/M02 A3009 2150 62 1400 000/00 RMK AO2 $
53144K9L2 9L220160216035513702/16/16 03:55:31  5-MIN K9L2 161155Z AUTO 00000KT 10SM CLR 04/M02 A3009 2150 62 1400 000/00 RMK AO2 SLP185 T00441022 10111 20039 58003 $
53144K9L2 9L220160216040010202/16/16 04:00:31  5-MIN K9L2 161200Z AUTO 00000KT 10SM CLR 03/M03 A3009 2150 64 1300 000/00 RMK AO2 $
53144K9L2 9L220160216040510202/16/16 04:05:31  5-MIN K9L2 161205Z AUTO 00000KT 10SM CLR 03/M03 A3009 2150 64 1300 000/00 RMK AO2 $
53144K9L2 9L220160216041010202/16/16 04:10:31  5-MIN K9L2 161210Z AUTO 00000KT 10SM CLR 04/M02 A3008 2150 64 1400 000/00 RMK AO2 $
53144K9L2 9L220160216041510202/16/16 04:15:31  5-MIN K9L2 161215Z AUTO 00000KT 10SM CLR 04/M02 A3008 2150 64 1400 000/00 RMK AO2 $
53144K9L2 9L220160216042010202/16/16 04:20:31  5-MIN K9L2 161220Z AUTO 00000KT 10SM CLR 03/M03 A3009 2150 64 1300 000/00 RMK AO2 $
53144K9L2 9L220160216042510202/16/16 04:25:31  5-MIN K9L2 161225Z AUTO 00000KT 10SM CLR 03/M03 A3008 2150 64 1300 000/00 RMK AO2 $
53144K9L2 9L220160216043010202/16/16 04:30:31  5-MIN K9L2 161230Z AUTO 00000KT 10SM CLR 03/M02 A3008 2150 67 1300 000/00 RMK AO2 $
53144K9L2 9L220160216043510202/16/16 04:35:31  5-MIN K9L2 161235Z AUTO 00000KT 10SM CLR 03/M03 A3008 2150 64 1300 000/00 RMK AO2 $
53144K9L2 9L220160216044010202/16/16 04:40:31  5-MIN K9L2 161240Z AUTO 00000KT 10SM CLR 03/M03 A3008 2150 67 1200 000/00 RMK AO2 $
53144K9L2 9L220160216044510202/16/16 04:45:31  5-MIN K9L2 161245Z AUTO 00000KT 10SM CLR 03/M03 A3009 2150 64 1300 000/00 RMK AO2 $
53144K9L2 9L220160216045010202/16/16 04:50:31  5-MIN K9L2 161250Z AUTO 00000KT 10SM CLR 03/M03 A3008 2150 67 1200 000/00 RMK AO2 $
53144K9L2 9L220160216045512602/16/16 04:55:31  5-MIN K9L2 161255Z AUTO 00000KT 10SM CLR 02/M03 A3008 2150 69 1200 000/00 RMK AO2 SLP184 T00221028 FZRANO $
53144K9L2 9L220160216050010202/16/16 05:00:31  5-MIN K9L2 161300Z AUTO 00000KT 10SM CLR 03/M03 A3008 2150 67 1200 000/00 RMK AO2 $
53144K9L2 9L220160216050510202/16/16 05:05:31  5-MIN K9L2 161305Z AUTO 00000KT 10SM CLR 03/M03 A3008 2150 67 1200 000/00 RMK AO2 $
53144K9L2 9L220160216051010202/16/16 05:10:31  5-MIN K9L2 161310Z AUTO 00000KT 10SM CLR 03/M03 A3008 2150 67 1200 000/00 RMK AO2 $
53144K9L2 9L220160216051510202/16/16 05:15:31  5-MIN K9L2 161315Z AUTO 00000KT 10SM CLR 03/M03 A3008 2150 67 1200 000/00 RMK AO2 $
53144K9L2 9L220160216052010202/16/16 05:20:31  5-MIN K9L2 161320Z AUTO 00000KT 10SM CLR 03/M03 A3009 2150 67 1200 000/00 RMK AO2 $
53144K9L2 9L220160216052510202/16/16 05:25:31  5-MIN K9L2 161325Z AUTO 00000KT 10SM CLR 03/M03 A3008 2150 67 1200 000/00 RMK AO2 $
53144K9L2 9L220160216053010902/16/16 05:30:31  5-MIN K9L2 161330Z AUTO 00000KT 10SM CLR 02/M03 A3008 2160 69 1200 000/00 RMK AO2 FZRANO $
53144K9L2 9L220160216053510202/16/16 05:35:31  5-MIN K9L2 161335Z AUTO 00000KT 10SM CLR 03/M03 A3008 2160 67 1200 000/00 RMK AO2 $
53144K9L2 9L220160216054010902/16/16 05:40:31  5-MIN K9L2 161340Z AUTO 03003KT 10SM CLR 02/M03 A3008 2160 67 1200 020/03 RMK AO2 FZRANO $
53144K9L2 9L220160216054510902/16/16 05:45:31  5-MIN K9L2 161345Z AUTO 00000KT 10SM CLR 02/M03 A3007 2160 69 1100 000/00 RMK AO2 FZRANO $
53144K9L2 9L220160216055010902/16/16 05:50:31  5-MIN K9L2 161350Z AUTO 01003KT 10SM CLR 02/M03 A3007 2160 67 1200 360/03 RMK AO2 FZRANO $
53144K9L2 9L220160216055512602/16/16 05:55:31  5-MIN K9L2 161355Z AUTO 00000KT 10SM CLR 02/M03 A3007 2160 69 1200 000/00 RMK AO2 SLP186 T00221028 FZRANO $
53144K9L2 9L220160216060010902/16/16 06:00:31  5-MIN K9L2 161400Z AUTO 00000KT 10SM CLR 02/M03 A3008 2160 67 1200 000/00 RMK AO2 FZRANO $
53144K9L2 9L220160216060510902/16/16 06:05:31  5-MIN K9L2 161405Z AUTO 00000KT 10SM CLR 02/M03 A3008 2160 69 1100 000/00 RMK AO2 FZRANO $
53144K9L2 9L220160216061010902/16/16 06:10:31  5-MIN K9L2 161410Z AUTO 00000KT 10SM CLR 02/M03 A3008 2150 69 1100 000/00 RMK AO2 FZRANO $
53144K9L2 9L220160216061510902/16/16 06:15:31  5-MIN K9L2 161415Z AUTO 00000KT 10SM CLR 01/M03 A3008 2160 72 1000 000/00 RMK AO2 FZRANO $
53144K9L2 9L220160216062010902/16/16 06:20:31  5-MIN K9L2 161420Z AUTO 00000KT 10SM CLR 01/M03 A3008 2160 72 1000 000/00 RMK AO2 FZRANO $
53144K9L2 9L220160216062510902/16/16 06:25:31  5-MIN K9L2 161425Z AUTO 00000KT 10SM CLR 01/M03 A3008 2160 72 1000 000/00 RMK AO2 FZRANO $
53144K9L2 9L220160216063010902/16/16 06:30:31  5-MIN K9L2 161430Z AUTO 00000KT 10SM CLR 02/M03 A3008 2160 69 1100 000/00 RMK AO2 FZRANO $
53144K9L2 9L220160216063510902/16/16 06:35:31  5-MIN K9L2 161435Z AUTO 36003KT 10SM CLR 02/M03 A3008 2160 72 1100 340/03 RMK AO2 FZRANO $
53144K9L2 9L220160216064010902/16/16 06:40:31  5-MIN K9L2 161440Z AUTO 00000KT 10SM CLR 02/M03 A3008 2150 72 1100 000/00 RMK AO2 FZRANO $
53144K9L2 9L220160216064510902/16/16 06:45:31  5-MIN K9L2 161445Z AUTO 00000KT 10SM CLR 02/M03 A3008 2160 72 1100 000/00 RMK AO2 FZRANO $
53144K9L2 9L220160216065010902/16/16 06:50:31  5-MIN K9L2 161450Z AUTO 00000KT 10SM CLR 02/M02 A3008 2160 72 1200 000/00 RMK AO2 FZRANO $
53144K9L2 9L220160216065513202/16/16 06:55:31  5-MIN K9L2 161455Z AUTO 36003KT 10SM CLR 02/M02 A3007 2160 72 1200 340/03 RMK AO2 SLP189 T00221022 56007 FZRANO $
53144K9L2 9L220160216070010202/16/16 07:00:31  5-MIN K9L2 161500Z AUTO 00000KT 10SM CLR 03/M02 A3007 2160 69 1200 000/00 RMK AO2 $
53144K9L2 9L220160216070510202/16/16 07:05:31  5-MIN K9L2 161505Z AUTO 02003KT 10SM CLR 03/M02 A3007 2160 67 1300 010/03 RMK AO2 $
53144K9L2 9L220160216071010202/16/16 07:10:31  5-MIN K9L2 161510Z AUTO 05003KT 10SM CLR 04/M02 A3007 2160 64 1400 030/03 RMK AO2 $
53144K9L2 9L220160216071510202/16/16 07:15:31  5-MIN K9L2 161515Z AUTO 00000KT 10SM CLR 04/M03 A3008 2160 62 1400 000/00 RMK AO2 $
53144K9L2 9L220160216072010202/16/16 07:20:31  5-MIN K9L2 161520Z AUTO 00000KT 10SM CLR 04/M03 A3008 2160 59 1400 000/00 RMK AO2 $
53144K9L2 9L220160216072510202/16/16 07:25:31  5-MIN K9L2 161525Z AUTO 00000KT 10SM CLR 05/M02 A3008 2150 59 1500 000/00 RMK AO2 $
53144K9L2 9L220160216073010202/16/16 07:30:31  5-MIN K9L2 161530Z AUTO 00000KT 10SM CLR 05/M02 A3009 2150 59 1500 000/00 RMK AO2 $
53144K9L2 9L220160216073510202/16/16 07:35:31  5-MIN K9L2 161535Z AUTO 00000KT 10SM CLR 06/M02 A3009 2150 57 1600 000/00 RMK AO2 $
53144K9L2 9L220160216074010202/16/16 07:40:31  5-MIN K9L2 161540Z AUTO 00000KT 10SM CLR 06/M02 A3009 2150 55 1600 000/00 RMK AO2 $
53144K9L2 9L220160216074510202/16/16 07:45:31  5-MIN K9L2 161545Z AUTO 01003KT 10SM CLR 07/M02 A3009 2150 55 1700 360/03 RMK AO2 $
53144K9L2 9L220160216075010202/16/16 07:50:31  5-MIN K9L2 161550Z AUTO 02003KT 10SM CLR 07/M02 A3009 2150 55 1700 010/03 RMK AO2 $
53144K9L2 9L220160216075511902/16/16 07:55:31  5-MIN K9L2 161555Z AUTO 00000KT 10SM CLR 07/M02 A3009 2150 53 1800 000/00 RMK AO2 SLP193 T00721017 $
53144K9L2 9L220160216080010202/16/16 08:00:31  5-MIN K9L2 161600Z AUTO 00000KT 10SM CLR 07/M02 A3009 2150 53 1800 000/00 RMK AO2 $
53144K9L2 9L220160216080510202/16/16 08:05:31  5-MIN K9L2 161605Z AUTO 00000KT 10SM CLR 08/M01 A3009 2150 53 1800 000/00 RMK AO2 $
53144K9L2 9L220160216081010202/16/16 08:10:31  5-MIN K9L2 161610Z AUTO 00000KT 10SM CLR 08/M01 A3009 2140 53 1800 000/00 RMK AO2 $
53144K9L2 9L220160216081510202/16/16 08:15:31  5-MIN K9L2 161615Z AUTO 00000KT 10SM CLR 08/M01 A3009 2140 53 1800 000/00 RMK AO2 $
53144K9L2 9L220160216082010202/16/16 08:20:31  5-MIN K9L2 161620Z AUTO 00000KT 10SM CLR 08/M01 A3009 2140 53 1800 000/00 RMK AO2 $
53144K9L2 9L220160216082510202/16/16 08:25:31  5-MIN K9L2 161625Z AUTO 00000KT 10SM CLR 08/M01 A3009 2140 51 1900 000/00 RMK AO2 $
53144K9L2 9L220160216083010202/16/16 08:30:31  5-MIN K9L2 161630Z AUTO 00000KT 10SM CLR 08/M02 A3009 2140 51 1800 000/00 RMK AO2 $
53144K9L2 9L220160216083510202/16/16 08:35:31  5-MIN K9L2 161635Z AUTO 00000KT 10SM CLR 08/M01 A3009 2140 51 1900 000/00 RMK AO2 $
53144K9L2 9L220160216084010202/16/16 08:40:31  5-MIN K9L2 161640Z AUTO 00000KT 10SM CLR 08/M01 A3009 2140 51 1900 000/00 RMK AO2 $
53144K9L2 9L220160216084510202/16/16 08:45:31  5-MIN K9L2 161645Z AUTO 00000KT 10SM CLR 08/M01 A3009 2140 51 1900 000/00 RMK AO2 $
53144K9L2 9L220160216085010202/16/16 08:50:31  5-MIN K9L2 161650Z AUTO 00000KT 10SM CLR 09/M01 A3010 2140 49 2000 000/00 RMK AO2 $
53144K9L2 9L220160216085511902/16/16 08:55:31  5-MIN K9L2 161655Z AUTO 00000KT 10SM CLR 09/M01 A3010 2140 51 2000 000/00 RMK AO2 SLP195 T00891006 $
53144K9L2 9L220160216090010202/16/16 09:00:31  5-MIN K9L2 161700Z AUTO 14003KT 10SM CLR 09/M01 A3009 2140 49 2000 130/03 RMK AO2 $
53144K9L2 9L220160216090510202/16/16 09:05:31  5-MIN K9L2 161705Z AUTO 15003KT 10SM CLR 09/M01 A3009 2140 49 2000 140/03 RMK AO2 $
53144K9L2 9L220160216091010102/16/16 09:10:31  5-MIN K9L2 161710Z AUTO 00000KT 10SM CLR 09/00 A3009 2150 51 2000 000/00 RMK AO2 $
53144K9L2 9L220160216091510102/16/16 09:15:31  5-MIN K9L2 161715Z AUTO 14003KT 10SM CLR 10/00 A3009 2150 49 2100 130/03 RMK AO2 $
53144K9L2 9L220160216092010102/16/16 09:20:31  5-MIN K9L2 161720Z AUTO 00000KT 10SM CLR 10/01 A3009 2150 52 2100 000/00 RMK AO2 $
53144K9L2 9L220160216092510102/16/16 09:25:31  5-MIN K9L2 161725Z AUTO 00000KT 10SM CLR 10/01 A3009 2140 52 2100 000/00 RMK AO2 $
53144K9L2 9L220160216093010102/16/16 09:30:31  5-MIN K9L2 161730Z AUTO 00000KT 10SM CLR 11/01 A3009 2140 50 2200 000/00 RMK AO2 $
53144K9L2 9L220160216093510102/16/16 09:35:31  5-MIN K9L2 161735Z AUTO 00000KT 10SM CLR 11/01 A3009 2140 50 2200 000/00 RMK AO2 $
53144K9L2 9L220160216094010102/16/16 09:40:31  5-MIN K9L2 161740Z AUTO 16003KT 10SM CLR 12/01 A3009 2140 46 2300 150/03 RMK AO2 $
53144K9L2 9L220160216094510102/16/16 09:45:31  5-MIN K9L2 161745Z AUTO 16003KT 10SM CLR 12/01 A3009 2150 46 2300 140/03 RMK AO2 $
53144K9L2 9L220160216095010102/16/16 09:50:31  5-MIN K9L2 161750Z AUTO 16003KT 10SM CLR 12/01 A3009 2150 46 2300 150/03 RMK AO2 $
53144K9L2 9L220160216095513602/16/16 09:55:31  5-MIN K9L2 161755Z AUTO 00000KT 10SM CLR 12/01 A3009 2150 44 2400 000/00 RMK AO2 SLP191 T01220006 10122 20011 56004 $
53144K9L2 9L220160216100010102/16/16 10:00:31  5-MIN K9L2 161800Z AUTO 00000KT 10SM CLR 12/01 A3009 2140 44 2400 000/00 RMK AO2 $
53144K9L2 9L220160216100510102/16/16 10:05:31  5-MIN K9L2 161805Z AUTO 00000KT 10SM CLR 12/01 A3009 2140 44 2400 000/00 RMK AO2 $
53144K9L2 9L220160216101010102/16/16 10:10:31  5-MIN K9L2 161810Z AUTO 16003KT 10SM CLR 13/01 A3010 2140 43 2400 140/03 RMK AO2 $
53144K9L2 9L220160216101510102/16/16 10:15:31  5-MIN K9L2 161815Z AUTO 18003KT 10SM CLR 13/01 A3010 2140 41 2500 170/03 RMK AO2 $
53144K9L2 9L220160216102010102/16/16 10:20:31  5-MIN K9L2 161820Z AUTO 00000KT 10SM CLR 13/01 A3010 2140 41 2500 000/00 RMK AO2 $
53144K9L2 9L220160216102510102/16/16 10:25:31  5-MIN K9L2 161825Z AUTO 00000KT 10SM CLR 14/01 A3009 2140 40 2500 000/00 RMK AO2 $
53144K9L2 9L220160216103010102/16/16 10:30:31  5-MIN K9L2 161830Z AUTO 00000KT 10SM CLR 14/01 A3009 2140 38 2600 000/00 RMK AO2 $
53144K9L2 9L220160216103510102/16/16 10:35:31  5-MIN K9L2 161835Z AUTO 00000KT 10SM CLR 15/01 A3009 2150 37 2700 000/00 RMK AO2 $
53144K9L2 9L220160216104010102/16/16 10:40:31  5-MIN K9L2 161840Z AUTO 00000KT 10SM CLR 16/01 A3008 2150 36 2800 000/00 RMK AO2 $
53144K9L2 9L220160216104510102/16/16 10:45:31  5-MIN K9L2 161845Z AUTO 00000KT 10SM CLR 16/01 A3008 2160 34 2800 000/00 RMK AO2 $
53144K9L2 9L220160216105010102/16/16 10:50:31  5-MIN K9L2 161850Z AUTO 00000KT 10SM CLR 16/01 A3007 2160 34 2800 000/00 RMK AO2 $
53144K9L2 9L220160216105511802/16/16 10:55:31  5-MIN K9L2 161855Z AUTO 00000KT 10SM CLR 16/01 A3007 2170 34 2800 000/00 RMK AO2 SLP180 T01610006 $
53144K9L2 9L220160216110010102/16/16 11:00:31  5-MIN K9L2 161900Z AUTO 00000KT 10SM CLR 17/01 A3006 2170 33 2900 000/00 RMK AO2 $
53144K9L2 9L220160216110510102/16/16 11:05:31  5-MIN K9L2 161905Z AUTO 00000KT 10SM CLR 17/01 A3006 2170 32 3000 000/00 RMK AO2 $
53144K9L2 9L220160216111010102/16/16 11:10:31  5-MIN K9L2 161910Z AUTO 00000KT 10SM CLR 18/01 A3006 2170 31 3000 000/00 RMK AO2 $
53144K9L2 9L220160216111510102/16/16 11:15:31  5-MIN K9L2 161915Z AUTO 00000KT 10SM CLR 17/01 A3006 2170 32 3000 000/00 RMK AO2 $
53144K9L2 9L220160216112010102/16/16 11:20:31  5-MIN K9L2 161920Z AUTO 15003KT 10SM CLR 17/01 A3006 2180 32 3000 140/03 RMK AO2 $
53144K9L2 9L220160216112510102/16/16 11:25:31  5-MIN K9L2 161925Z AUTO 00000KT 10SM CLR 18/01 A3006 2180 31 3000 000/00 RMK AO2 $
53144K9L2 9L220160216113010102/16/16 11:30:31  5-MIN K9L2 161930Z AUTO 00000KT 10SM CLR 18/01 A3005 2180 30 3100 000/00 RMK AO2 $
53144K9L2 9L220160216113510102/16/16 11:35:31  5-MIN K9L2 161935Z AUTO 00000KT 10SM CLR 18/01 A3005 2180 30 3100 000/00 RMK AO2 $
53144K9L2 9L220160216114010102/16/16 11:40:31  5-MIN K9L2 161940Z AUTO 00000KT 10SM CLR 19/01 A3005 2180 29 3200 000/00 RMK AO2 $
53144K9L2 9L220160216114510102/16/16 11:45:31  5-MIN K9L2 161945Z AUTO 00000KT 10SM CLR 20/01 A3005 2180 27 3300 000/00 RMK AO2 $
53144K9L2 9L220160216115010102/16/16 11:50:31  5-MIN K9L2 161950Z AUTO 00000KT 10SM CLR 20/01 A3005 2190 27 3300 000/00 RMK AO2 $
53144K9L2 9L220160216115511802/16/16 11:55:31  5-MIN K9L2 161955Z AUTO 00000KT 10SM CLR 21/01 A3004 2190 26 3400 000/00 RMK AO2 SLP169 T02060006 $
53144K9L2 9L220160216120010102/16/16 12:00:31  5-MIN K9L2 162000Z AUTO 00000KT 10SM CLR 21/01 A3004 2190 25 3400 000/00 RMK AO2 $
53144K9L2 9L220160216120510102/16/16 12:05:31  5-MIN K9L2 162005Z AUTO 00000KT 10SM CLR 22/01 A3004 2200 24 3500 000/00 RMK AO2 $
53144K9L2 9L220160216121010102/16/16 12:10:31  5-MIN K9L2 162010Z AUTO 00000KT 10SM CLR 22/01 A3003 2200 23 3600 000/00 RMK AO2 $
53144K9L2 9L220160216121510102/16/16 12:15:31  5-MIN K9L2 162015Z AUTO 00000KT 10SM CLR 22/00 A3003 2200 22 3600 000/00 RMK AO2 $
53144K9L2 9L220160216122010102/16/16 12:20:31  5-MIN K9L2 162020Z AUTO 15003KT 10SM CLR 22/01 A3002 2210 23 3600 140/03 RMK AO2 $
53144K9L2 9L220160216122510102/16/16 12:25:31  5-MIN K9L2 162025Z AUTO 15003KT 10SM CLR 23/01 A3002 2210 22 3700 140/03 RMK AO2 $
53144K9L2 9L220160216123010102/16/16 12:30:31  5-MIN K9L2 162030Z AUTO 16004KT 10SM CLR 22/00 A3001 2220 22 3600 140/04 RMK AO2 $
53144K9L2 9L220160216123510202/16/16 12:35:31  5-MIN K9L2 162035Z AUTO 18003KT 10SM CLR 22/M01 A3001 2220 21 3600 160/03 RMK AO2 $
53144K9L2 9L220160216124010202/16/16 12:40:31  5-MIN K9L2 162040Z AUTO 00000KT 10SM CLR 23/M02 A3001 2220 19 3700 000/00 RMK AO2 $
53144K9L2 9L220160216124510202/16/16 12:45:31  5-MIN K9L2 162045Z AUTO 00000KT 10SM CLR 23/M02 A3001 2220 19 3700 000/00 RMK AO2 $
53144K9L2 9L220160216125010202/16/16 12:50:31  5-MIN K9L2 162050Z AUTO 18003KT 10SM CLR 23/M02 A3000 2230 18 3700 170/03 RMK AO2 $
53144K9L2 9L220160216125506702/16/16 12:55:31  5-MIN K9L2 162055Z AUTO CLR M M M M /M RMK AO2 $
53144K9L2 9L220160216130009902/16/16 13:00:31  5-MIN K9L2 162100Z AUTO 00000KT 23/M02 A3000 2230 18 3700 000/00 RMK AO2 PWINO $
53144K9L2 9L220160216130509802/16/16 13:05:31  5-MIN K9L2 162105Z AUTO VRB03KT 10SM 24/M02 A3000 2230 17 3800 VRB/03 RMK AO2 $
53144K9L2 9L220160216131009802/16/16 13:10:31  5-MIN K9L2 162110Z AUTO 00000KT 10SM 23/M03 A2999 2240 17 3700 000/00 RMK AO2 $
53144K9L2 9L220160216131509802/16/16 13:15:31  5-MIN K9L2 162115Z AUTO VRB04KT 10SM 24/M03 A2998 2240 16 3800 VRB/04 RMK AO2 $
53144K9L2 9L220160216132009802/16/16 13:20:31  5-MIN K9L2 162120Z AUTO VRB03KT 10SM 24/M02 A2998 2250 17 3800 VRB/03 RMK AO2 $
53144K9L2 9L220160216132510202/16/16 13:25:31  5-MIN K9L2 162125Z AUTO VRB03KT 10SM CLR 24/M03 A2998 2250 16 3800 VRB/03 RMK AO2 $
53144K9L2 9L220160216133010102/16/16 13:30:31  5-MIN K9L2 162130Z AUTO VRB03KT 9SM CLR 24/M03 A2997 2250 16 3800 VRB/03 RMK AO2 $
53144K9L2 9L220160216133510102/16/16 13:35:31  5-MIN K9L2 162135Z AUTO 13003KT 9SM CLR 24/M02 A2997 2260 17 3900 110/03 RMK AO2 $
53144K9L2 9L220160216134010202/16/16 13:40:31  5-MIN K9L2 162140Z AUTO 00000KT 10SM CLR 24/M02 A2997 2260 17 3800 000/00 RMK AO2 $
53144K9L2 9L220160216134510202/16/16 13:45:31  5-MIN K9L2 162145Z AUTO VRB03KT 10SM CLR 24/M02 A2997 2260 17 3900 VRB/03 RMK AO2 $
53144K9L2 9L220160216135010202/16/16 13:50:31  5-MIN K9L2 162150Z AUTO 00000KT 10SM CLR 24/M02 A2997 2260 17 3900 000/00 RMK AO2 $
53144K9L2 9L220160216135511902/16/16 13:55:31  5-MIN K9L2 162155Z AUTO 00000KT 10SM CLR 24/M02 A2996 2260 17 3900 000/00 RMK AO2 SLP140 T02441022 $
53144K9L2 9L220160216140010202/16/16 14:00:31  5-MIN K9L2 162200Z AUTO 00000KT 10SM CLR 24/M02 A2996 2260 17 3900 000/00 RMK AO2 $
53144K9L2 9L220160216140510202/16/16 14:05:31  5-MIN K9L2 162205Z AUTO 00000KT 10SM CLR 24/M02 A2996 2260 17 3900 000/00 RMK AO2 $
53144K9L2 9L220160216141010202/16/16 14:10:31  5-MIN K9L2 162210Z AUTO 08003KT 10SM CLR 25/M02 A2996 2260 16 4000 070/03 RMK AO2 $
53144K9L2 9L220160216141510202/16/16 14:15:31  5-MIN K9L2 162215Z AUTO 00000KT 10SM CLR 26/M02 A2996 2270 15 4000 000/00 RMK AO2 $
53144K9L2 9L220160216142010202/16/16 14:20:31  5-MIN K9L2 162220Z AUTO 00000KT 10SM CLR 26/M02 A2996 2270 15 4000 000/00 RMK AO2 $
53144K9L2 9L220160216142510202/16/16 14:25:31  5-MIN K9L2 162225Z AUTO 00000KT 10SM CLR 25/M03 A2995 2280 15 4000 000/00 RMK AO2 $
53144K9L2 9L220160216143010202/16/16 14:30:31  5-MIN K9L2 162230Z AUTO 00000KT 10SM CLR 26/M03 A2995 2280 15 4000 000/00 RMK AO2 $
53144K9L2 9L220160216143510202/16/16 14:35:31  5-MIN K9L2 162235Z AUTO 00000KT 10SM CLR 26/M03 A2995 2280 14 4000 000/00 RMK AO2 $
53144K9L2 9L220160216144010202/16/16 14:40:31  5-MIN K9L2 162240Z AUTO 00000KT 10SM CLR 26/M03 A2995 2280 14 4000 000/00 RMK AO2 $
53144K9L2 9L220160216144510202/16/16 14:45:31  5-MIN K9L2 162245Z AUTO 35003KT 10SM CLR 26/M03 A2994 2280 15 4000 340/03 RMK AO2 $
53144K9L2 9L220160216145010202/16/16 14:50:31  5-MIN K9L2 162250Z AUTO 00000KT 10SM CLR 26/M04 A2994 2280 13 4100 000/00 RMK AO2 $
53144K9L2 9L220160217011010202/17/16 01:10:31  5-MIN K9L2 170910Z AUTO 00000KT 10SM CLR 05/M04 A2992 2300 52 1700 000/00 RMK AO2 $
53144K9L2 9L220160217011510202/17/16 01:15:31  5-MIN K9L2 170915Z AUTO 05004KT 10SM CLR 04/M04 A2992 2300 55 1600 030/04 RMK AO2 $
53144K9L2 9L220160217012010202/17/16 01:20:31  5-MIN K9L2 170920Z AUTO 06004KT 10SM CLR 05/M04 A2992 2300 52 1700 050/04 RMK AO2 $
53144K9L2 9L220160217012510202/17/16 01:25:31  5-MIN K9L2 170925Z AUTO 07003KT 10SM CLR 05/M04 A2992 2300 52 1700 060/03 RMK AO2 $
53144K9L2 9L220160217013010202/17/16 01:30:31  5-MIN K9L2 170930Z AUTO 00000KT 10SM CLR 05/M04 A2992 2300 52 1700 000/00 RMK AO2 $
53144K9L2 9L220160217013510202/17/16 01:35:31  5-MIN K9L2 170935Z AUTO 00000KT 10SM CLR 05/M04 A2992 2300 52 1700 000/00 RMK AO2 $
53144K9L2 9L220160217014010202/17/16 01:40:31  5-MIN K9L2 170940Z AUTO 00000KT 10SM CLR 05/M04 A2992 2300 52 1700 000/00 RMK AO2 $
53144K9L2 9L220160217014510202/17/16 01:45:31  5-MIN K9L2 170945Z AUTO 00000KT 10SM CLR 04/M04 A2992 2310 55 1600 000/00 RMK AO2 $
53144K9L2 9L220160217015010202/17/16 01:50:31  5-MIN K9L2 170950Z AUTO 00000KT 10SM CLR 04/M04 A2991 2310 52 1600 000/00 RMK AO2 $
53144K9L2 9L220160217015511902/17/16 01:55:31  5-MIN K9L2 170955Z AUTO 05003KT 10SM CLR 04/M04 A2991 2310 52 1600 040/03 RMK AO2 SLP125 T00441044 $
53144K9L2 9L220160217020010202/17/16 02:00:31  5-MIN K9L2 171000Z AUTO 05004KT 10SM CLR 04/M04 A2991 2310 54 1600 040/04 RMK AO2 $
53144K9L2 9L220160217020510202/17/16 02:05:31  5-MIN K9L2 171005Z AUTO 00000KT 10SM CLR 04/M04 A2991 2310 52 1600 000/00 RMK AO2 $
53144K9L2 9L220160217021010202/17/16 02:10:31  5-MIN K9L2 171010Z AUTO 00000KT 10SM CLR 04/M04 A2991 2320 52 1600 000/00 RMK AO2 $
53144K9L2 9L220160217021510202/17/16 02:15:31  5-MIN K9L2 171015Z AUTO 00000KT 10SM CLR 04/M05 A2991 2320 52 1600 000/00 RMK AO2 $
53144K9L2 9L220160217022010202/17/16 02:20:31  5-MIN K9L2 171020Z AUTO 00000KT 10SM CLR 04/M05 A2991 2320 52 1600 000/00 RMK AO2 $
53144K9L2 9L220160217022510202/17/16 02:25:31  5-MIN K9L2 171025Z AUTO VRB03KT 10SM CLR 03/M04 A2990 2320 57 1500 VRB/03 RMK AO2 $
53144K9L2 9L220160217023010202/17/16 02:30:31  5-MIN K9L2 171030Z AUTO 00000KT 10SM CLR 03/M04 A2990 2320 57 1500 000/00 RMK AO2 $
53144K9L2 9L220160217023510202/17/16 02:35:31  5-MIN K9L2 171035Z AUTO 00000KT 10SM CLR 03/M04 A2990 2320 57 1500 000/00 RMK AO2 $
53144K9L2 9L220160217024010202/17/16 02:40:31  5-MIN K9L2 171040Z AUTO 36003KT 10SM CLR 03/M04 A2989 2330 57 1500 350/03 RMK AO2 $
53144K9L2 9L220160217024510202/17/16 02:45:31  5-MIN K9L2 171045Z AUTO 00000KT 10SM CLR 03/M04 A2989 2330 57 1500 000/00 RMK AO2 $
53144K9L2 9L220160217025010202/17/16 02:50:31  5-MIN K9L2 171050Z AUTO 00000KT 10SM CLR 04/M04 A2989 2330 54 1600 000/00 RMK AO2 $
53144K9L2 9L220160217025511902/17/16 02:55:31  5-MIN K9L2 171055Z AUTO 00000KT 10SM CLR 03/M04 A2989 2330 57 1500 000/00 RMK AO2 SLP117 T00331044 $
53144K9L2 9L220160217030010202/17/16 03:00:31  5-MIN K9L2 171100Z AUTO 00000KT 10SM CLR 03/M04 A2989 2330 57 1500 000/00 RMK AO2 $
53144K9L2 9L220160217030510902/17/16 03:05:31  5-MIN K9L2 171105Z AUTO 28003KT 10SM CLR 02/M04 A2989 2330 61 1400 270/03 RMK AO2 FZRANO $
53144K9L2 9L220160217031010202/17/16 03:10:31  5-MIN K9L2 171110Z AUTO 28004KT 10SM CLR 03/M04 A2988 2340 59 1500 270/04 RMK AO2 $
53144K9L2 9L220160217031510202/17/16 03:15:31  5-MIN K9L2 171115Z AUTO 00000KT 10SM CLR 04/M04 A2988 2340 57 1600 000/00 RMK AO2 $
53144K9L2 9L220160217032010202/17/16 03:20:31  5-MIN K9L2 171120Z AUTO 00000KT 10SM CLR 04/M04 A2988 2340 57 1600 000/00 RMK AO2 $
53144K9L2 9L220160217032510202/17/16 03:25:31  5-MIN K9L2 171125Z AUTO 00000KT 10SM CLR 03/M04 A2988 2340 59 1500 000/00 RMK AO2 $
53144K9L2 9L220160217033010202/17/16 03:30:31  5-MIN K9L2 171130Z AUTO 29003KT 10SM CLR 03/M04 A2988 2340 59 1500 280/03 RMK AO2 $
53144K9L2 9L220160217033510202/17/16 03:35:31  5-MIN K9L2 171135Z AUTO 29006KT 10SM CLR 03/M04 A2988 2340 61 1500 280/06 RMK AO2 $
53144K9L2 9L220160217034010202/17/16 03:40:31  5-MIN K9L2 171140Z AUTO 30006KT 10SM CLR 03/M04 A2988 2340 59 1500 280/06 RMK AO2 $
53144K9L2 9L220160217034510202/17/16 03:45:31  5-MIN K9L2 171145Z AUTO 29006KT 10SM CLR 03/M04 A2988 2340 59 1500 280/06 RMK AO2 $
53144K9L2 9L220160217035010202/17/16 03:50:31  5-MIN K9L2 171150Z AUTO 29006KT 10SM CLR 03/M04 A2988 2340 61 1500 280/06 RMK AO2 $
53144K9L2 9L220160217035514302/17/16 03:55:31  5-MIN K9L2 171155Z AUTO 30008KT 10SM CLR 03/M03 A2988 2340 64 1500 290/08 RMK AO2 SLP115 7//// T00281033 10089 20022 53004 $
53144K9L2 9L220160217040010202/17/16 04:00:31  5-MIN K9L2 171200Z AUTO 30007KT 10SM CLR 03/M03 A2989 2330 61 1500 280/07 RMK AO2 $
53144K9L2 9L220160217040510202/17/16 04:05:31  5-MIN K9L2 171205Z AUTO 30006KT 10SM CLR 04/M03 A2989 2330 59 1600 290/06 RMK AO2 $
53144K9L2 9L220160217041010202/17/16 04:10:31  5-MIN K9L2 171210Z AUTO 31005KT 10SM CLR 04/M03 A2989 2330 59 1600 300/05 RMK AO2 $
53144K9L2 9L220160217041510202/17/16 04:15:31  5-MIN K9L2 171215Z AUTO 31005KT 10SM CLR 04/M03 A2989 2330 59 1600 290/05 RMK AO2 $
53144K9L2 9L220160217042010202/17/16 04:20:31  5-MIN K9L2 171220Z AUTO 30005KT 10SM CLR 04/M03 A2988 2340 62 1600 290/05 RMK AO2 $
53144K9L2 9L220160217042510202/17/16 04:25:31  5-MIN K9L2 171225Z AUTO 28005KT 10SM CLR 04/M03 A2988 2340 62 1600 270/05 RMK AO2 $
53144K9L2 9L220160217043010202/17/16 04:30:31  5-MIN K9L2 171230Z AUTO 29005KT 10SM CLR 04/M03 A2988 2340 62 1600 270/05 RMK AO2 $
53144K9L2 9L220160217043510202/17/16 04:35:31  5-MIN K9L2 171235Z AUTO 28003KT 10SM CLR 04/M03 A2988 2340 59 1700 270/03 RMK AO2 $
53144K9L2 9L220160217044010202/17/16 04:40:31  5-MIN K9L2 171240Z AUTO 30003KT 10SM CLR 04/M03 A2988 2340 59 1700 290/03 RMK AO2 $
53144K9L2 9L220160217044510202/17/16 04:45:31  5-MIN K9L2 171245Z AUTO 00000KT 10SM CLR 04/M03 A2988 2340 62 1600 000/00 RMK AO2 $
53144K9L2 9L220160217045010202/17/16 04:50:31  5-MIN K9L2 171250Z AUTO 00000KT 10SM CLR 04/M03 A2988 2340 62 1600 000/00 RMK AO2 $
53144K9L2 9L220160217045511902/17/16 04:55:31  5-MIN K9L2 171255Z AUTO 00000KT 10SM CLR 04/M03 A2988 2340 62 1600 000/00 RMK AO2 SLP111 T00391028 $
53144K9L2 9L220160217050010202/17/16 05:00:31  5-MIN K9L2 171300Z AUTO 00000KT 10SM CLR 04/M03 A2987 2350 62 1600 000/00 RMK AO2 $
53144K9L2 9L220160217050510202/17/16 05:05:31  5-MIN K9L2 171305Z AUTO 00000KT 10SM CLR 03/M03 A2988 2340 61 1500 000/00 RMK AO2 $
53144K9L2 9L220160217051010202/17/16 05:10:31  5-MIN K9L2 171310Z AUTO 00000KT 10SM CLR 03/M03 A2988 2340 61 1500 000/00 RMK AO2 $
53144K9L2 9L220160217051510202/17/16 05:15:31  5-MIN K9L2 171315Z AUTO 19003KT 10SM CLR 03/M04 A2988 2340 61 1500 180/03 RMK AO2 $
53144K9L2 9L220160217052010902/17/16 05:20:31  5-MIN K9L2 171320Z AUTO 00000KT 10SM CLR 02/M04 A2988 2340 64 1400 000/00 RMK AO2 FZRANO $
53144K9L2 9L220160217052510902/17/16 05:25:31  5-MIN K9L2 171325Z AUTO 00000KT 10SM CLR 02/M04 A2988 2340 61 1400 000/00 RMK AO2 FZRANO $
53144K9L2 9L220160217053010902/17/16 05:30:31  5-MIN K9L2 171330Z AUTO 00000KT 10SM CLR 02/M04 A2988 2340 64 1300 000/00 RMK AO2 FZRANO $
53144K9L2 9L220160217053510902/17/16 05:35:31  5-MIN K9L2 171335Z AUTO 00000KT 10SM CLR 02/M04 A2988 2340 64 1300 000/00 RMK AO2 FZRANO $
53144K9L2 9L220160217054010902/17/16 05:40:31  5-MIN K9L2 171340Z AUTO 00000KT 10SM CLR 01/M04 A2988 2340 66 1300 000/00 RMK AO2 FZRANO $
53144K9L2 9L220160217054510902/17/16 05:45:31  5-MIN K9L2 171345Z AUTO 00000KT 10SM CLR 02/M04 A2988 2340 64 1300 000/00 RMK AO2 FZRANO $
53144K9L2 9L220160217055010902/17/16 05:50:31  5-MIN K9L2 171350Z AUTO 00000KT 10SM CLR 02/M04 A2988 2340 64 1400 000/00 RMK AO2 FZRANO $
53144K9L2 9L220160217055512602/17/16 05:55:31  5-MIN K9L2 171355Z AUTO 00000KT 10SM CLR 02/M04 A2988 2340 64 1400 000/00 RMK AO2 SLP117 T00221039 FZRANO $
53144K9L2 9L220160217060010902/17/16 06:00:31  5-MIN K9L2 171400Z AUTO 00000KT 10SM CLR 02/M04 A2988 2340 64 1300 000/00 RMK AO2 FZRANO $
53144K9L2 9L220160217060510902/17/16 06:05:31  5-MIN K9L2 171405Z AUTO 00000KT 10SM CLR 02/M04 A2988 2340 64 1300 000/00 RMK AO2 FZRANO $
53144K9L2 9L220160217061010902/17/16 06:10:31  5-MIN K9L2 171410Z AUTO 00000KT 10SM CLR 02/M04 A2988 2340 64 1300 000/00 RMK AO2 FZRANO $
53144K9L2 9L220160217061510902/17/16 06:15:31  5-MIN K9L2 171415Z AUTO 00000KT 10SM CLR 01/M04 A2988 2340 66 1300 000/00 RMK AO2 FZRANO $
53144K9L2 9L220160217062010902/17/16 06:20:31  5-MIN K9L2 171420Z AUTO 00000KT 10SM CLR 02/M04 A2987 2350 64 1300 000/00 RMK AO2 FZRANO $
53144K9L2 9L220160217062510902/17/16 06:25:31  5-MIN K9L2 171425Z AUTO 00000KT 10SM CLR 02/M04 A2987 2350 64 1300 000/00 RMK AO2 FZRANO $
53144K9L2 9L220160217063010902/17/16 06:30:31  5-MIN K9L2 171430Z AUTO 00000KT 10SM CLR 02/M04 A2987 2350 64 1300 000/00 RMK AO2 FZRANO $
53144K9L2 9L220160217063510902/17/16 06:35:31  5-MIN K9L2 171435Z AUTO 00000KT 10SM CLR 02/M04 A2987 2350 64 1300 000/00 RMK AO2 FZRANO $
53144K9L2 9L220160217064010902/17/16 06:40:31  5-MIN K9L2 171440Z AUTO 00000KT 10SM CLR 01/M04 A2987 2350 66 1300 000/00 RMK AO2 FZRANO $
53144K9L2 9L220160217064510902/17/16 06:45:31  5-MIN K9L2 171445Z AUTO 00000KT 10SM CLR 01/M04 A2987 2350 66 1300 000/00 RMK AO2 FZRANO $
53144K9L2 9L220160217065010902/17/16 06:50:31  5-MIN K9L2 171450Z AUTO 00000KT 10SM CLR 01/M04 A2987 2350 66 1300 000/00 RMK AO2 FZRANO $
53144K9L2 9L220160217065513202/17/16 06:55:31  5-MIN K9L2 171455Z AUTO 00000KT 10SM CLR 02/M04 A2987 2350 64 1300 000/00 RMK AO2 SLP120 T00171044 56013 FZRANO $
53144K9L2 9L220160217070010902/17/16 07:00:31  5-MIN K9L2 171500Z AUTO 00000KT 10SM CLR 02/M04 A2987 2350 64 1400 000/00 RMK AO2 FZRANO $
53144K9L2 9L220160217070510202/17/16 07:05:31  5-MIN K9L2 171505Z AUTO 00000KT 10SM CLR 03/M04 A2987 2350 61 1500 000/00 RMK AO2 $
53144K9L2 9L220160217071010202/17/16 07:10:31  5-MIN K9L2 171510Z AUTO 00000KT 10SM CLR 04/M04 A2987 2350 57 1600 000/00 RMK AO2 $
53144K9L2 9L220160217071510202/17/16 07:15:31  5-MIN K9L2 171515Z AUTO 00000KT 10SM CLR 04/M04 A2987 2350 57 1600 000/00 RMK AO2 $
53144K9L2 9L220160217072010202/17/16 07:20:31  5-MIN K9L2 171520Z AUTO 00000KT 10SM CLR 04/M03 A2987 2350 57 1700 000/00 RMK AO2 $
53144K9L2 9L220160217072510202/17/16 07:25:31  5-MIN K9L2 171525Z AUTO 00000KT 10SM CLR 05/M03 A2987 2350 55 1700 000/00 RMK AO2 $
53144K9L2 9L220160217073010202/17/16 07:30:31  5-MIN K9L2 171530Z AUTO 00000KT 10SM CLR 05/M03 A2988 2340 57 1700 000/00 RMK AO2 $
53144K9L2 9L220160217073510202/17/16 07:35:31  5-MIN K9L2 171535Z AUTO 00000KT 10SM CLR 06/M03 A2988 2340 55 1800 000/00 RMK AO2 $
53144K9L2 9L220160217074010202/17/16 07:40:31  5-MIN K9L2 171540Z AUTO 00000KT 10SM CLR 06/M03 A2988 2340 53 1900 000/00 RMK AO2 $
53144K9L2 9L220160217074510202/17/16 07:45:31  5-MIN K9L2 171545Z AUTO 32006KT 10SM CLR 07/M03 A2988 2340 51 1900 310/06 RMK AO2 $
53144K9L2 9L220160217075010202/17/16 07:50:31  5-MIN K9L2 171550Z AUTO 31006KT 10SM CLR 07/M02 A2989 2330 53 1900 300/06 RMK AO2 $
53144K9L2 9L220160217075511902/17/16 07:55:31  5-MIN K9L2 171555Z AUTO 31004KT 10SM CLR 08/M02 A2988 2340 51 2100 300/04 RMK AO2 SLP122 T00781017 $
53144K9L2 9L220160217080010202/17/16 08:00:31  5-MIN K9L2 171600Z AUTO 30004KT 10SM CLR 08/M02 A2988 2340 49 2100 290/04 RMK AO2 $
53144K9L2 9L220160217080510202/17/16 08:05:31  5-MIN K9L2 171605Z AUTO 30004KT 10SM CLR 09/M02 A2988 2340 47 2200 290/04 RMK AO2 $
53144K9L2 9L220160217081010202/17/16 08:10:31  5-MIN K9L2 171610Z AUTO 00000KT 10SM CLR 09/M02 A2989 2330 45 2300 000/00 RMK AO2 $
53144K9L2 9L220160217081510202/17/16 08:15:31  5-MIN K9L2 171615Z AUTO 00000KT 10SM CLR 11/M01 A2988 2340 44 2400 000/00 RMK AO2 $
53144K9L2 9L220160217082010202/17/16 08:20:31  5-MIN K9L2 171620Z AUTO 00000KT 10SM CLR 11/M01 A2989 2330 44 2400 000/00 RMK AO2 $
53144K9L2 9L220160217082510202/17/16 08:25:31  5-MIN K9L2 171625Z AUTO 00000KT 10SM CLR 12/M01 A2988 2340 41 2500 000/00 RMK AO2 $
53144K9L2 9L220160217083010202/17/16 08:30:31  5-MIN K9L2 171630Z AUTO 00000KT 10SM CLR 11/M01 A2988 2340 42 2500 000/00 RMK AO2 $
53144K9L2 9L220160217083510202/17/16 08:35:31  5-MIN K9L2 171635Z AUTO 11003KT 10SM CLR 10/M02 A2988 2340 44 2300 100/03 RMK AO2 $
53144K9L2 9L220160217084010202/17/16 08:40:31  5-MIN K9L2 171640Z AUTO 00000KT 10SM CLR 11/M02 A2988 2340 42 2400 000/00 RMK AO2 $
53144K9L2 9L220160217084510202/17/16 08:45:31  5-MIN K9L2 171645Z AUTO 00000KT 10SM CLR 11/M01 A2988 2340 44 2400 000/00 RMK AO2 $
53144K9L2 9L220160217085010202/17/16 08:50:31  5-MIN K9L2 171650Z AUTO 00000KT 10SM CLR 11/M01 A2988 2340 42 2500 000/00 RMK AO2 $
53144K9L2 9L220160217085511902/17/16 08:55:31  5-MIN K9L2 171655Z AUTO 00000KT 10SM CLR 11/M01 A2988 2340 42 2500 000/00 RMK AO2 SLP119 T01111011 $
53144K9L2 9L220160217090010202/17/16 09:00:31  5-MIN K9L2 171700Z AUTO 00000KT 10SM CLR 12/M01 A2988 2340 41 2500 000/00 RMK AO2 $
53144K9L2 9L220160217090510202/17/16 09:05:31  5-MIN K9L2 171705Z AUTO 10003KT 10SM CLR 12/M01 A2988 2340 39 2600 080/03 RMK AO2 $
53144K9L2 9L220160217091010202/17/16 09:10:31  5-MIN K9L2 171710Z AUTO 00000KT 10SM CLR 12/M02 A2988 2340 38 2600 000/00 RMK AO2 $
53144K9L2 9L220160217091510202/17/16 09:15:31  5-MIN K9L2 171715Z AUTO 00000KT 10SM CLR 13/M02 A2989 2330 36 2700 000/00 RMK AO2 $
53144K9L2 9L220160217092010202/17/16 09:20:31  5-MIN K9L2 171720Z AUTO 11003KT 10SM CLR 13/M02 A2989 2330 36 2700 100/03 RMK AO2 $
53144K9L2 9L220160217092510202/17/16 09:25:31  5-MIN K9L2 171725Z AUTO 11005KT 10SM CLR 13/M02 A2988 2340 36 2700 100/05 RMK AO2 $
53144K9L2 9L220160217093010202/17/16 09:30:31  5-MIN K9L2 171730Z AUTO 00000KT 10SM CLR 13/M02 A2987 2350 35 2700 000/00 RMK AO2 $
53144K9L2 9L220160217093510202/17/16 09:35:31  5-MIN K9L2 171735Z AUTO 12005KT 10SM CLR 13/M01 A2987 2350 36 2700 100/05 RMK AO2 $
53144K9L2 9L220160217094010202/17/16 09:40:31  5-MIN K9L2 171740Z AUTO 11006KT 10SM CLR 13/M01 A2987 2350 36 2700 090/06 RMK AO2 $
53144K9L2 9L220160217094510202/17/16 09:45:31  5-MIN K9L2 171745Z AUTO 16003KT 10SM CLR 14/M01 A2987 2350 35 2800 140/03 RMK AO2 $
53144K9L2 9L220160217095010202/17/16 09:50:31  5-MIN K9L2 171750Z AUTO 18004KT 10SM CLR 14/M01 A2988 2340 37 2800 160/04 RMK AO2 $
53144K9L2 9L220160217095513702/17/16 09:55:31  5-MIN K9L2 171755Z AUTO VRB03KT 10SM CLR 14/M01 A2987 2350 37 2800 VRB/03 RMK AO2 SLP115 T01391006 10139 20011 58005 $
53144K9L2 9L220160217100010102/17/16 10:00:31  5-MIN K9L2 171800Z AUTO 00000KT 10SM CLR 14/00 A2988 2340 38 2800 000/00 RMK AO2 $
53144K9L2 9L220160217100510102/17/16 10:05:31  5-MIN K9L2 171805Z AUTO 00000KT 10SM CLR 14/00 A2988 2340 38 2800 000/00 RMK AO2 $
53144K9L2 9L220160217101010202/17/16 10:10:31  5-MIN K9L2 171810Z AUTO 00000KT 10SM CLR 14/M01 A2988 2340 37 2800 000/00 RMK AO2 $
53144K9L2 9L220160217101510202/17/16 10:15:31  5-MIN K9L2 171815Z AUTO 00000KT 10SM CLR 14/M01 A2987 2350 37 2800 000/00 RMK AO2 $
53144K9L2 9L220160217102010102/17/16 10:20:31  5-MIN K9L2 171820Z AUTO 00000KT 10SM CLR 14/00 A2987 2350 37 2900 000/00 RMK AO2 $
53144K9L2 9L220160217102510202/17/16 10:25:31  5-MIN K9L2 171825Z AUTO 13003KT 10SM CLR 14/M01 A2987 2350 35 2900 110/03 RMK AO2 $
53144K9L2 9L220160217103010202/17/16 10:30:31  5-MIN K9L2 171830Z AUTO 14003KT 10SM CLR 14/M01 A2987 2350 35 2900 120/03 RMK AO2 $
53144K9L2 9L220160217103510202/17/16 10:35:31  5-MIN K9L2 171835Z AUTO 00000KT 10SM CLR 14/M01 A2986 2360 35 2900 000/00 RMK AO2 $
53144K9L2 9L220160217104010202/17/16 10:40:31  5-MIN K9L2 171840Z AUTO 00000KT 10SM CLR 14/M01 A2986 2360 35 2900 000/00 RMK AO2 $
53144K9L2 9L220160217104510202/17/16 10:45:31  5-MIN K9L2 171845Z AUTO 13003KT 10SM CLR 14/M01 A2986 2360 35 2900 120/03 RMK AO2 $
53144K9L2 9L220160217105010102/17/16 10:50:31  5-MIN K9L2 171850Z AUTO 15003KT 10SM CLR 15/00 A2986 2360 35 2900 140/03 RMK AO2 $
53144K9L2 9L220160217105511802/17/16 10:55:31  5-MIN K9L2 171855Z AUTO 17004KT 10SM CLR 15/00 A2985 2370 35 3000 150/04 RMK AO2 SLP108 T01500000 $
53144K9L2 9L220160217110010102/17/16 11:00:31  5-MIN K9L2 171900Z AUTO 16004KT 10SM CLR 15/00 A2986 2360 35 2900 150/04 RMK AO2 $
53144K9L2 9L220160217110510102/17/16 11:05:31  5-MIN K9L2 171905Z AUTO 18004KT 10SM CLR 16/00 A2986 2360 34 3000 160/04 RMK AO2 $
53144K9L2 9L220160217111010102/17/16 11:10:31  5-MIN K9L2 171910Z AUTO 21003KT 10SM CLR 16/00 A2986 2360 34 3000 190/03 RMK AO2 $
53144K9L2 9L220160217111510102/17/16 11:15:31  5-MIN K9L2 171915Z AUTO 18003KT 10SM CLR 16/00 A2986 2360 34 3000 170/03 RMK AO2 $
53144K9L2 9L220160217112010202/17/16 11:20:31  5-MIN K9L2 171920Z AUTO 19004KT 10SM CLR 16/M01 A2986 2360 32 3100 180/04 RMK AO2 $
53144K9L2 9L220160217112510202/17/16 11:25:31  5-MIN K9L2 171925Z AUTO 19005KT 10SM CLR 16/M01 A2985 2360 32 3100 180/05 RMK AO2 $
53144K9L2 9L220160217113010202/17/16 11:30:31  5-MIN K9L2 171930Z AUTO 19005KT 10SM CLR 17/M01 A2985 2360 31 3100 180/05 RMK AO2 $
53144K9L2 9L220160217113510202/17/16 11:35:31  5-MIN K9L2 171935Z AUTO 19003KT 10SM CLR 17/M01 A2985 2370 29 3100 180/03 RMK AO2 $
53144K9L2 9L220160217114010502/17/16 11:40:31  5-MIN K9L2 171940Z AUTO 18003KT 10SM FEW090 17/M01 A2985 2370 28 3200 170/03 RMK AO2 $
53144K9L2 9L220160217114510502/17/16 11:45:31  5-MIN K9L2 171945Z AUTO 00000KT 10SM SCT095 17/M01 A2985 2370 28 3200 000/00 RMK AO2 $
53144K9L2 9L220160217115010502/17/16 11:50:31  5-MIN K9L2 171950Z AUTO 15004KT 10SM SCT095 17/M01 A2984 2380 28 3200 140/04 RMK AO2 $
53144K9L2 9L220160217115512202/17/16 11:55:31  5-MIN K9L2 171955Z AUTO 16003KT 10SM SCT090 18/M01 A2984 2380 28 3300 140/03 RMK AO2 SLP103 T01781006 $
53144K9L2 9L220160217120010502/17/16 12:00:31  5-MIN K9L2 172000Z AUTO 16003KT 10SM FEW090 18/M01 A2983 2380 28 3300 140/03 RMK AO2 $
53144K9L2 9L220160217120510502/17/16 12:05:31  5-MIN K9L2 172005Z AUTO 13003KT 10SM FEW090 19/M01 A2983 2390 26 3400 120/03 RMK AO2 $
53144K9L2 9L220160217121010502/17/16 12:10:31  5-MIN K9L2 172010Z AUTO 12003KT 10SM FEW095 19/M01 A2983 2390 26 3400 100/03 RMK AO2 $
53144K9L2 9L220160217121510502/17/16 12:15:31  5-MIN K9L2 172015Z AUTO 12003KT 10SM FEW090 19/M01 A2982 2390 26 3400 110/03 RMK AO2 $
53144K9L2 9L220160217122010202/17/16 12:20:31  5-MIN K9L2 172020Z AUTO 00000KT 10SM CLR 19/M01 A2983 2390 25 3400 000/00 RMK AO2 $
53144K9L2 9L220160217122510202/17/16 12:25:31  5-MIN K9L2 172025Z AUTO 00000KT 10SM CLR 19/M01 A2983 2390 25 3400 000/00 RMK AO2 $
53144K9L2 9L220160217123010202/17/16 12:30:31  5-MIN K9L2 172030Z AUTO 00000KT 10SM CLR 19/M01 A2982 2390 25 3500 000/00 RMK AO2 $
53144K9L2 9L220160217123510202/17/16 12:35:31  5-MIN K9L2 172035Z AUTO 00000KT 10SM CLR 20/M01 A2982 2400 24 3600 000/00 RMK AO2 $
53144K9L2 9L220160217124010202/17/16 12:40:31  5-MIN K9L2 172040Z AUTO VRB05KT 10SM CLR 20/M01 A2982 2400 25 3600 VRB/05 RMK AO2 $
53144K9L2 9L220160217124510202/17/16 12:45:31  5-MIN K9L2 172045Z AUTO 26008KT 10SM CLR 21/M01 A2981 2400 24 3600 240/08 RMK AO2 $
53144K9L2 9L220160217125010502/17/16 12:50:31  5-MIN K9L2 172050Z AUTO 27010KT 10SM FEW090 21/M01 A2981 2400 23 3700 250/10 RMK AO2 $
53144K9L2 9L220160217125512802/17/16 12:55:31  5-MIN K9L2 172055Z AUTO 26008KT 10SM FEW090 21/M01 A2981 2410 23 3700 250/08 RMK AO2 SLP091 T02111006 50001 $
53144K9L2 9L220160217130010502/17/16 13:00:31  5-MIN K9L2 172100Z AUTO 27008KT 10SM FEW090 21/M01 A2981 2410 23 3700 260/08 RMK AO2 $
53144K9L2 9L220160217130510502/17/16 13:05:31  5-MIN K9L2 172105Z AUTO 28007KT 10SM FEW090 21/M01 A2980 2410 23 3700 270/07 RMK AO2 $
53144K9L2 9L220160217131010502/17/16 13:10:31  5-MIN K9L2 172110Z AUTO 26004KT 10SM FEW095 21/M01 A2980 2410 24 3700 250/04 RMK AO2 $
53144K9L2 9L220160217131510502/17/16 13:15:31  5-MIN K9L2 172115Z AUTO 26006KT 10SM SCT100 21/M01 A2980 2410 24 3700 240/06 RMK AO2 $
53144K9L2 9L220160217132011102/17/16 13:20:31  5-MIN K9L2 172120Z AUTO 26010G15KT 10SM BKN095 21/M01 A2980 2420 23 3700 250/10G15 RMK AO2 $
53144K9L2 9L220160217132511102/17/16 13:25:31  5-MIN K9L2 172125Z AUTO 26012G15KT 10SM BKN095 21/M01 A2979 2420 22 3700 240/12G15 RMK AO2 $
53144K9L2 9L220160217133010502/17/16 13:30:31  5-MIN K9L2 172130Z AUTO 25013KT 10SM BKN090 21/M01 A2980 2420 23 3700 240/13 RMK AO2 $
53144K9L2 9L220160217133510502/17/16 13:35:31  5-MIN K9L2 172135Z AUTO 26010KT 10SM OVC090 21/M01 A2980 2420 23 3700 250/10 RMK AO2 $
53144K9L2 9L220160217134011802/17/16 13:40:31  5-MIN K9L2 172140Z AUTO 26014G18KT 10SM FEW055 OVC090 21/M01 A2979 2420 23 3700 240/14G18 RMK AO2 $
53144K9L2 9L220160217134512802/17/16 13:45:31  5-MIN K9L2 172145Z AUTO 26010KT 10SM -RA FEW050 OVC090 20/M01 A2979 2420 25 3600 250/10 RMK AO2 RAB45 P0000 $
53144K9L2 9L220160217135015102/17/16 13:50:31  5-MIN K9L2 172150Z AUTO 25019G26KT 10SM -RA FEW050 OVC090 20/00 A2979 2420 26 3600 240/19G26 RMK AO2 PK WND 25026/2150 RAB45 P0000 $
53144K9L2 9L220160217135516802/17/16 13:55:31  5-MIN K9L2 172155Z AUTO 25019G26KT 10SM -RA FEW050 OVC090 19/01 A2979 2430 29 3500 240/19G26 RMK AO2 PK WND 25026/2150 RAB45 SLP085 P0000 T01940011 $
53144K9L2 9L220160217140014502/17/16 14:00:31  5-MIN K9L2 172200Z AUTO 25019G28KT 10SM -RA FEW050 OVC090 18/03 A2979 2430 35 3400 240/19G28 RMK AO2 PK WND 25028/2158 P0000 $
53144K9L2 9L220160217140515202/17/16 14:05:31  5-MIN K9L2 172205Z AUTO 25019G28KT 10SM -RA FEW050 SCT070 OVC090 18/02 A2978 2430 35 3400 240/19G28 RMK AO2 PK WND 25028/2158 P0000 $
53144K9L2 9L220160217141014502/17/16 14:10:31  5-MIN K9L2 172210Z AUTO 25021G26KT 10SM -RA FEW070 OVC085 18/02 A2978 2430 35 3400 240/21G26 RMK AO2 PK WND 25028/2158 P0000 $
53144K9L2 9L220160217141514502/17/16 14:15:31  5-MIN K9L2 172215Z AUTO 25020G27KT 10SM -RA BKN080 OVC090 18/02 A2978 2430 35 3400 240/20G27 RMK AO2 PK WND 25028/2158 P0000 $
53144K9L2 9L220160217142014502/17/16 14:20:31  5-MIN K9L2 172220Z AUTO 26021G28KT 10SM -RA BKN075 OVC090 17/03 A2979 2430 37 3300 240/21G28 RMK AO2 PK WND 26028/2219 P0000 $
53144K9L2 9L220160217142514502/17/16 14:25:31  5-MIN K9L2 172225Z AUTO 26018G28KT 10SM -RA BKN075 OVC090 17/03 A2979 2430 39 3300 240/18G28 RMK AO2 PK WND 26028/2219 P0000 $
53144K9L2 9L220160217143014502/17/16 14:30:31  5-MIN K9L2 172230Z AUTO 26019G27KT 10SM -RA BKN075 OVC090 17/03 A2979 2430 40 3200 240/19G27 RMK AO2 PK WND 26028/2219 P0000 $
53144K9L2 9L220160217143514502/17/16 14:35:31  5-MIN K9L2 172235Z AUTO 25015G25KT 10SM -RA BKN065 OVC080 17/03 A2979 2420 39 3200 240/15G25 RMK AO2 PK WND 26028/2219 P0000 $
53144K9L2 9L220160217144015202/17/16 14:40:31  5-MIN K9L2 172240Z AUTO 25016G22KT 10SM -RA FEW050 BKN065 OVC080 17/03 A2979 2420 39 3200 240/16G22 RMK AO2 PK WND 26028/2219 P0000 $
53144K9L2 9L220160217144514502/17/16 14:45:31  5-MIN K9L2 172245Z AUTO 25019G27KT 10SM -RA BKN065 OVC080 17/03 A2979 2420 39 3200 240/19G27 RMK AO2 PK WND 26028/2219 P0000 $
53144K9L2 9L220160217145014502/17/16 14:50:31  5-MIN K9L2 172250Z AUTO 26017G27KT 10SM -RA BKN065 OVC085 17/03 A2979 2420 39 3200 240/17G27 RMK AO2 PK WND 26028/2219 P0000 $
53144K9L2 9L220160217145515502/17/16 14:55:31  5-MIN K9L2 172255Z AUTO 26016G25KT 10SM -RA OVC065 16/03 A2979 2420 42 3200 250/16G25 RMK AO2 PK WND 26028/2219 SLP089 P0000 T01610033 $
53144K9L2 9L220160217150012002/17/16 15:00:31  5-MIN K9L2 172300Z AUTO 26017G25KT 10SM -RA OVC060 16/03 A2979 2430 42 3200 250/17G25 RMK AO2 P0000 $
53144K9L2 9L220160217150512002/17/16 15:05:31  5-MIN K9L2 172305Z AUTO 25018G25KT 10SM -RA OVC060 16/03 A2978 2430 42 3200 240/18G25 RMK AO2 P0000 $
53144K9L2 9L220160217151012202/17/16 15:10:31  5-MIN K9L2 172310Z AUTO 25020G25KT 10SM OVC060 17/02 A2978 2430 37 3200 240/20G25 RMK AO2 RAE10 P0000 $
53144K9L2 9L220160217151513802/17/16 15:15:31  5-MIN K9L2 172315Z AUTO 25020G29KT 10SM -RA OVC055 17/02 A2978 2430 36 3200 240/20G29 RMK AO2 PK WND 25029/2313 P0000 $
53144K9L2 9L220160217152013802/17/16 15:20:31  5-MIN K9L2 172320Z AUTO 25021G29KT 10SM -RA OVC055 17/02 A2978 2430 36 3200 240/21G29 RMK AO2 PK WND 26029/2317 P0000 $
53144K9L2 9L220160217152513802/17/16 15:25:31  5-MIN K9L2 172325Z AUTO 25024G31KT 10SM -RA OVC055 16/03 A2979 2420 40 3200 240/24G31 RMK AO2 PK WND 25031/2324 P0000 $
53144K9L2 9L220160217153013802/17/16 15:30:31  5-MIN K9L2 172330Z AUTO 25021G31KT 10SM -RA OVC055 16/03 A2980 2420 43 3100 240/21G31 RMK AO2 PK WND 25031/2324 P0000 $
53144K9L2 9L220160217153513802/17/16 15:35:31  5-MIN K9L2 172335Z AUTO 26020G28KT 10SM -RA OVC055 15/04 A2980 2410 47 3000 240/20G28 RMK AO2 PK WND 25031/2324 P0000 $
53144K9L2 9L220160217154013802/17/16 15:40:31  5-MIN K9L2 172340Z AUTO 26018G26KT 10SM -RA OVC060 14/04 A2980 2410 51 2900 250/18G26 RMK AO2 PK WND 25031/2324 P0000 $
53144K9L2 9L220160217154513802/17/16 15:45:31  5-MIN K9L2 172345Z AUTO 26020G25KT 10SM -RA OVC060 14/05 A2980 2410 53 2900 250/20G25 RMK AO2 PK WND 25031/2324 P0000 $
53144K9L2 9L220160217155013802/17/16 15:50:31  5-MIN K9L2 172350Z AUTO 26020G27KT 10SM -RA OVC060 14/06 A2980 2410 57 2900 250/20G27 RMK AO2 PK WND 25031/2324 P0000 $
53144K9L2 9L220160217155517902/17/16 15:55:31  5-MIN K9L2 172355Z AUTO 26019G27KT 10SM -RA OVC060 13/06 A2981 2400 59 2800 240/19G27 RMK AO2 PK WND 25031/2324 SLP100 P0000 60000 T01330056 10211 20133 58021 $
53144K9L2 9L220160217160012002/17/16 16:00:31  5-MIN K9L2 180000Z AUTO 25017G24KT 10SM -RA OVC060 13/06 A2982 2400 59 2800 240/17G24 RMK AO2 P0000 $
53144K9L2 9L220160217160513802/17/16 16:05:31  5-MIN K9L2 180005Z AUTO 25019G26KT 10SM -RA OVC055 13/06 A2982 2390 59 2800 240/19G26 RMK AO2 PK WND 25026/0002 P0001 $
53144K9L2 9L220160217161014502/17/16 16:10:31  5-MIN K9L2 180010Z AUTO 26018G26KT 10SM -RA BKN050 OVC060 13/06 A2983 2390 59 2800 250/18G26 RMK AO2 PK WND 25026/0002 P0001 $
53144K9L2 9L220160217161514602/17/16 16:15:31  5-MIN K9L2 180015Z AUTO 26014KT 10SM -RA BKN050 OVC060 13/06 A2984 2380 63 2700 250/14 RMK AO2 PK WND 25026/0002 PRESRR P0001 $
53144K9L2 9L220160217162013702/17/16 16:20:31  5-MIN K9L2 180020Z AUTO 27013KT 8SM RA BKN050 OVC060 12/07 A2984 2380 68 2600 250/13 RMK AO2 PK WND 25026/0002 P0002 $
53144K9L2 9L220160217162513102/17/16 16:25:31  5-MIN K9L2 180025Z AUTO 27012KT 6SM -RA OVC050 12/07 A2984 2380 74 2600 250/12 RMK AO2 PK WND 25026/0002 P0002 $
53144K9L2 9L220160217163013802/17/16 16:30:31  5-MIN K9L2 180030Z AUTO 26012KT 6SM -RA BKN050 OVC060 12/07 A2983 2380 74 2600 250/12 RMK AO2 PK WND 25026/0002 P0003 $
53144K9L2 9L220160217163513802/17/16 16:35:31  5-MIN K9L2 180035Z AUTO 25011KT 6SM -RA SCT050 OVC060 12/07 A2983 2380 74 2600 240/11 RMK AO2 PK WND 25026/0002 P0004 $
53144K9L2 9L220160217164013102/17/16 16:40:31  5-MIN K9L2 180040Z AUTO 25010KT 6SM -RA OVC060 12/07 A2983 2380 74 2600 240/10 RMK AO2 PK WND 25026/0002 P0004 $
53144K9L2 9L220160217164513802/17/16 16:45:31  5-MIN K9L2 180045Z AUTO 25009KT 7SM -RA BKN060 OVC075 12/07 A2983 2390 74 2600 230/09 RMK AO2 PK WND 25026/0002 P0004 $
53144K9L2 9L220160217165014502/17/16 16:50:31  5-MIN K9L2 180050Z AUTO 26007KT 8SM -RA FEW050 BKN065 OVC090 12/07 A2983 2390 74 2600 240/07 RMK AO2 PK WND 25026/0002 P0004 $
53144K9L2 9L220160217165516302/17/16 16:55:31  5-MIN K9L2 180055Z AUTO 29008KT 10SM -RA BKN060 BKN075 OVC090 12/07 A2983 2380 74 2600 270/08 RMK AO2 PK WND 25026/0002 SLP108 P0004 T01170072 $
53144K9L2 9L220160217170012802/17/16 17:00:31  5-MIN K9L2 180100Z AUTO 31010KT 10SM -RA FEW050 BKN065 OVC090 12/08 A2984 2380 77 2600 290/10 RMK AO2 P0000 $
53144K9L2 9L220160217170512802/17/16 17:05:31  5-MIN K9L2 180105Z AUTO 28007KT 10SM -RA FEW047 BKN060 OVC090 11/08 A2983 2380 80 2500 270/07 RMK AO2 P0001 $
53144K9L2 9L220160217171012802/17/16 17:10:31  5-MIN K9L2 180110Z AUTO 29009KT 10SM -RA SCT050 BKN060 OVC090 11/08 A2983 2380 80 2500 270/09 RMK AO2 P0001 $
53144K9L2 9L220160217171512802/17/16 17:15:31  5-MIN K9L2 180115Z AUTO 29010KT 10SM -RA BKN048 BKN060 OVC090 12/07 A2983 2380 74 2600 280/10 RMK AO2 P0001 $
53144K9L2 9L220160217172012802/17/16 17:20:31  5-MIN K9L2 180120Z AUTO 29009KT 10SM -RA BKN046 BKN060 OVC085 12/07 A2984 2380 74 2600 280/09 RMK AO2 P0001 $
53144K9L2 9L220160217172512102/17/16 17:25:31  5-MIN K9L2 180125Z AUTO 28009KT 10SM -RA BKN044 OVC055 12/07 A2984 2380 74 2600 270/09 RMK AO2 P0001 $
53144K9L2 9L220160217173012302/17/16 17:30:31  5-MIN K9L2 180130Z AUTO 29008KT 10SM BKN044 OVC055 12/07 A2983 2380 74 2600 270/08 RMK AO2 RAE29 P0001 $
53144K9L2 9L220160217173511602/17/16 17:35:31  5-MIN K9L2 180135Z AUTO 29007KT 10SM OVC042 12/07 A2983 2380 71 2600 270/07 RMK AO2 RAE29 P0001 $
53144K9L2 9L220160217174011402/17/16 17:40:31  5-MIN K9L2 180140Z AUTO 28008KT 10SM -RA OVC042 12/07 A2984 2370 71 2600 260/08 RMK AO2 P0001 $
53144K9L2 9L220160217174512002/17/16 17:45:31  5-MIN K9L2 180145Z AUTO 26012G15KT 10SM -RA OVC042 12/06 A2985 2370 68 2600 250/12G15 RMK AO2 P0001 $
53144K9L2 9L220160217175011402/17/16 17:50:31  5-MIN K9L2 180150Z AUTO 25013KT 10SM -RA OVC040 12/06 A2985 2370 66 2600 240/13 RMK AO2 P0001 $
53144K9L2 9L220160217175513802/17/16 17:55:31  5-MIN K9L2 180155Z AUTO 25014KT 10SM -RA BKN040 OVC055 12/05 A2985 2370 63 2600 240/14 RMK AO2 SLP114 P0001 T01170050 $
53144K9L2 9L220160217180012102/17/16 18:00:31  5-MIN K9L2 180200Z AUTO 25012KT 10SM -RA BKN040 OVC050 12/05 A2985 2360 63 2600 240/12 RMK AO2 P0000 $
53144K9L2 9L220160217180512102/17/16 18:05:31  5-MIN K9L2 180205Z AUTO 24012KT 10SM -RA SCT040 OVC050 12/05 A2986 2360 63 2600 230/12 RMK AO2 P0000 $
53144K9L2 9L220160217181012102/17/16 18:10:31  5-MIN K9L2 180210Z AUTO 25011KT 10SM -RA FEW040 OVC055 12/05 A2986 2360 63 2600 240/11 RMK AO2 P0000 $
53144K9L2 9L220160217181512102/17/16 18:15:31  5-MIN K9L2 180215Z AUTO 26010KT 10SM -RA FEW042 OVC055 12/05 A2986 2360 63 2600 250/10 RMK AO2 P0000 $
53144K9L2 9L220160217182012002/17/16 18:20:31  5-MIN K9L2 180220Z AUTO 26009G16KT 10SM -RA OVC060 11/05 A2986 2360 66 2500 250/09G16 RMK AO2 P0000 $
53144K9L2 9L220160217182512102/17/16 18:25:31  5-MIN K9L2 180225Z AUTO 25010KT 10SM -RA BKN060 OVC070 11/05 A2986 2360 66 2500 230/10 RMK AO2 P0000 $
53144K9L2 9L220160217183011402/17/16 18:30:31  5-MIN K9L2 180230Z AUTO 25012KT 10SM -RA OVC060 11/05 A2986 2350 66 2500 240/12 RMK AO2 P0000 $
53144K9L2 9L220160217183511402/17/16 18:35:31  5-MIN K9L2 180235Z AUTO 26011KT 10SM -RA OVC065 11/05 A2986 2360 66 2500 250/11 RMK AO2 P0000 $
53144K9L2 9L220160217184011402/17/16 18:40:31  5-MIN K9L2 180240Z AUTO 27010KT 10SM -RA OVC065 11/06 A2986 2360 71 2400 260/10 RMK AO2 P0000 $
53144K9L2 9L220160217184511402/17/16 18:45:31  5-MIN K9L2 180245Z AUTO 28009KT 10SM -RA OVC065 11/06 A2986 2360 71 2400 260/09 RMK AO2 P0000 $
53144K9L2 9L220160217185011402/17/16 18:50:31  5-MIN K9L2 180250Z AUTO 28010KT 10SM -RA OVC065 10/06 A2986 2360 77 2400 270/10 RMK AO2 P0000 $
53144K9L2 9L220160217185514302/17/16 18:55:31  5-MIN K9L2 180255Z AUTO 28012KT 10SM -RA OVC070 10/06 A2986 2360 77 2400 270/12 RMK AO2 SLP120 P0001 60006 T01000061 53002 $
53144K9L2 9L220160217190011402/17/16 19:00:31  5-MIN K9L2 180300Z AUTO 28013KT 10SM -RA OVC070 10/06 A2986 2360 77 2400 270/13 RMK AO2 P0000 $
53144K9L2 9L220160217190511302/17/16 19:05:31  5-MIN K9L2 180305Z AUTO 27013KT 9SM -RA OVC065 10/06 A2986 2360 77 2400 260/13 RMK AO2 P0001 $
53144K9L2 9L220160217191011402/17/16 19:10:31  5-MIN K9L2 180310Z AUTO 27016KT 10SM -RA OVC065 10/06 A2987 2350 77 2400 260/16 RMK AO2 P0001 $
53144K9L2 9L220160217191511402/17/16 19:15:31  5-MIN K9L2 180315Z AUTO 26015KT 10SM -RA OVC065 10/06 A2987 2350 77 2300 250/15 RMK AO2 P0002 $
53144K9L2 9L220160217192011202/17/16 19:20:31  5-MIN K9L2 180320Z AUTO 26015KT 9SM RA OVC065 10/06 A2987 2350 77 2300 250/15 RMK AO2 P0002 $
53144K9L2 9L220160217192511302/17/16 19:25:31  5-MIN K9L2 180325Z AUTO 26013KT 8SM -RA OVC060 10/06 A2987 2350 77 2300 240/13 RMK AO2 P0003 $
53144K9L2 9L220160217193011302/17/16 19:30:31  5-MIN K9L2 180330Z AUTO 26013KT 9SM -RA OVC060 09/06 A2987 2350 79 2300 240/13 RMK AO2 P0004 $
53144K9L2 9L220160217193511202/17/16 19:35:31  5-MIN K9L2 180335Z AUTO 25012KT 8SM RA OVC060 09/06 A2986 2360 79 2300 230/12 RMK AO2 P0004 $
53144K9L2 9L220160217194011302/17/16 19:40:31  5-MIN K9L2 180340Z AUTO 23011KT 7SM -RA OVC060 09/07 A2985 2370 83 2300 220/11 RMK AO2 P0005 $
53144K9L2 9L220160217194512002/17/16 19:45:31  5-MIN K9L2 180345Z AUTO 23010KT 7SM -RA OVC060 09/07 A2985 2370 83 2300 220/10 RMK AO2 PRESFR P0006 $
53144K9L2 9L220160217195011202/17/16 19:50:31  5-MIN K9L2 180350Z AUTO 22011KT 7SM RA OVC060 10/07 A2984 2380 80 2400 210/11 RMK AO2 P0007 $
53144K9L2 9L220160217195513002/17/16 19:55:31  5-MIN K9L2 180355Z AUTO 22009KT 7SM -RA OVC060 09/07 A2984 2380 83 2300 200/09 RMK AO2 SLP109 P0008 T00940067 $
53144K9L2 9L220160217200011302/17/16 20:00:31  5-MIN K9L2 180400Z AUTO 21009KT 7SM -RA OVC060 10/07 A2985 2370 80 2400 200/09 RMK AO2 P0000 $
53144K9L2 9L220160217200511302/17/16 20:05:31  5-MIN K9L2 180405Z AUTO 20006KT 7SM -RA OVC055 10/07 A2984 2380 80 2400 180/06 RMK AO2 P0001 $
53144K9L2 9L220160217201011302/17/16 20:10:31  5-MIN K9L2 180410Z AUTO 17006KT 7SM -RA OVC055 09/07 A2983 2390 83 2300 150/06 RMK AO2 P0001 $
53144K9L2 9L220160217201512702/17/16 20:15:31  5-MIN K9L2 180415Z AUTO 00000KT 7SM -RA BKN055 BKN065 OVC080 10/07 A2983 2390 80 2400 000/00 RMK AO2 P0002 $
53144K9L2 9L220160217202012702/17/16 20:20:31  5-MIN K9L2 180420Z AUTO 28004KT 8SM -RA FEW049 BKN060 OVC080 09/07 A2986 2360 83 2300 270/04 RMK AO2 P0002 $
53144K9L2 9L220160217202513502/17/16 20:25:31  5-MIN K9L2 180425Z AUTO 28005KT 10SM -RA FEW047 BKN060 OVC080 09/07 A2986 2350 86 2300 270/05 RMK AO2 PRESRR P0002 $
53144K9L2 9L220160217203012802/17/16 20:30:31  5-MIN K9L2 180430Z AUTO 29003KT 10SM -RA FEW047 BKN060 OVC090 09/07 A2986 2360 86 2300 270/03 RMK AO2 P0002 $
53144K9L2 9L220160217203512802/17/16 20:35:31  5-MIN K9L2 180435Z AUTO 00000KT 10SM -RA FEW029 BKN080 OVC090 10/07 A2984 2380 80 2400 000/00 RMK AO2 P0002 $
53144K9L2 9L220160217204012802/17/16 20:40:31  5-MIN K9L2 180440Z AUTO 05004KT 10SM -RA FEW029 SCT080 BKN090 09/07 A2984 2380 83 2300 040/04 RMK AO2 P0002 $
53144K9L2 9L220160217204513002/17/16 20:45:31  5-MIN K9L2 180445Z AUTO 00000KT 10SM FEW050 SCT080 BKN095 09/07 A2985 2370 86 2300 000/00 RMK AO2 RAE41 P0002 $
53144K9L2 9L220160217205011602/17/16 20:50:31  5-MIN K9L2 180450Z AUTO 00000KT 10SM SCT090 09/07 A2984 2380 86 2300 000/00 RMK AO2 RAE41 P0002 $
53144K9L2 9L220160217205513302/17/16 20:55:31  5-MIN K9L2 180455Z AUTO 00000KT 10SM SCT090 09/07 A2984 2370 86 2300 000/00 RMK AO2 RAE41 SLP107 P0002 T00940072 $
53144K9L2 9L220160217210010402/17/16 21:00:31  5-MIN K9L2 180500Z AUTO 00000KT 10SM FEW090 09/07 A2983 2390 86 2300 000/00 RMK AO2 $
53144K9L2 9L220160217210510402/17/16 21:05:31  5-MIN K9L2 180505Z AUTO 00000KT 10SM FEW090 09/07 A2984 2380 86 2300 000/00 RMK AO2 $
53144K9L2 9L220160217211010402/17/16 21:10:31  5-MIN K9L2 180510Z AUTO 00000KT 10SM FEW095 09/07 A2984 2380 86 2300 000/00 RMK AO2 $
53144K9L2 9L220160217211510102/17/16 21:15:31  5-MIN K9L2 180515Z AUTO 00000KT 10SM CLR 09/07 A2984 2380 86 2300 000/00 RMK AO2 $
53144K9L2 9L220160217212010102/17/16 21:20:31  5-MIN K9L2 180520Z AUTO 00000KT 10SM CLR 09/07 A2983 2390 86 2300 000/00 RMK AO2 $
53144K9L2 9L220160217212510802/17/16 21:25:31  5-MIN K9L2 180525Z AUTO 00000KT 10SM CLR 09/07 A2982 2400 86 2300 000/00 RMK AO2 PRESFR $
53144K9L2 9L220160217213010102/17/16 21:30:31  5-MIN K9L2 180530Z AUTO 00000KT 10SM CLR 09/07 A2982 2390 86 2300 000/00 RMK AO2 $
53144K9L2 9L220160217213510102/17/16 21:35:31  5-MIN K9L2 180535Z AUTO 29005KT 10SM CLR 09/07 A2984 2380 83 2300 280/05 RMK AO2 $
53144K9L2 9L220160217214010102/17/16 21:40:31  5-MIN K9L2 180540Z AUTO 27004KT 10SM CLR 09/07 A2983 2380 83 2300 260/04 RMK AO2 $
53144K9L2 9L220160217214510102/17/16 21:45:31  5-MIN K9L2 180545Z AUTO 28004KT 10SM CLR 09/07 A2984 2380 83 2300 270/04 RMK AO2 $
53144K9L2 9L220160217215010102/17/16 21:50:31  5-MIN K9L2 180550Z AUTO 25003KT 10SM CLR 09/07 A2982 2390 83 2300 240/03 RMK AO2 $
53144K9L2 9L220160217215514202/17/16 21:55:31  5-MIN K9L2 180555Z AUTO 00000KT 10SM CLR 09/07 A2981 2400 83 2300 000/00 RMK AO2 SLP095 60016 T00940067 10133 20094 51015 $
53144K9L2 9L220160217220010102/17/16 22:00:31  5-MIN K9L2 180600Z AUTO VRB03KT 10SM CLR 09/07 A2981 2400 83 2300 VRB/03 RMK AO2 $
53144K9L2 9L220160217220510102/17/16 22:05:31  5-MIN K9L2 180605Z AUTO 35004KT 10SM CLR 09/07 A2981 2400 83 2300 330/04 RMK AO2 $
53144K9L2 9L220160217221010402/17/16 22:10:31  5-MIN K9L2 180610Z AUTO 31006KT 10SM FEW015 09/07 A2982 2400 83 2300 300/06 RMK AO2 $
53144K9L2 9L220160217221510402/17/16 22:15:31  5-MIN K9L2 180615Z AUTO 31005KT 10SM SCT015 09/07 A2982 2400 83 2300 300/05 RMK AO2 $
53144K9L2 9L220160217222011102/17/16 22:20:31  5-MIN K9L2 180620Z AUTO 30004KT 10SM SCT015 BKN019 09/07 A2981 2400 83 2300 290/04 RMK AO2 $
53144K9L2 9L220160217222511102/17/16 22:25:31  5-MIN K9L2 180625Z AUTO 28005KT 10SM BKN013 BKN019 09/07 A2981 2400 83 2300 270/05 RMK AO2 $
53144K9L2 9L220160217223010402/17/16 22:30:31  5-MIN K9L2 180630Z AUTO 30005KT 10SM BKN013 09/07 A2981 2410 83 2400 290/05 RMK AO2 $
53144K9L2 9L220160217223510402/17/16 22:35:31  5-MIN K9L2 180635Z AUTO 31004KT 10SM BKN013 09/07 A2981 2410 83 2400 300/04 RMK AO2 $
53144K9L2 9L220160217224011102/17/16 22:40:31  5-MIN K9L2 180640Z AUTO 31007KT 10SM BKN013 BKN019 09/07 A2982 2400 86 2300 290/07 RMK AO2 $
53144K9L2 9L220160217224510402/17/16 22:45:31  5-MIN K9L2 180645Z AUTO 30009KT 10SM BKN015 09/07 A2983 2390 83 2300 290/09 RMK AO2 $
53144K9L2 9L220160217225011102/17/16 22:50:31  5-MIN K9L2 180650Z AUTO 30005KT 10SM BKN013 BKN019 09/07 A2983 2390 83 2300 280/05 RMK AO2 $
53144K9L2 9L220160217225512802/17/16 22:55:31  5-MIN K9L2 180655Z AUTO 29005KT 10SM BKN013 BKN019 09/07 A2982 2390 86 2300 280/05 RMK AO2 SLP097 T00940072 $
53144K9L2 9L220160217230011102/17/16 23:00:31  5-MIN K9L2 180700Z AUTO 29004KT 10SM SCT013 BKN021 09/07 A2981 2400 86 2300 270/04 RMK AO2 $
53144K9L2 9L220160217230511102/17/16 23:05:31  5-MIN K9L2 180705Z AUTO 27005KT 10SM SCT013 BKN021 09/07 A2981 2410 86 2300 250/05 RMK AO2 $
53144K9L2 9L220160217231011102/17/16 23:10:31  5-MIN K9L2 180710Z AUTO 27007KT 10SM FEW013 SCT021 09/07 A2981 2410 86 2400 250/07 RMK AO2 $
53144K9L2 9L220160217231510402/17/16 23:15:31  5-MIN K9L2 180715Z AUTO 27010KT 10SM FEW011 10/07 A2980 2410 80 2400 250/10 RMK AO2 $
53144K9L2 9L220160217232010402/17/16 23:20:31  5-MIN K9L2 180720Z AUTO 26012KT 10SM FEW021 11/07 A2980 2410 80 2500 250/12 RMK AO2 $
53144K9L2 9L220160217232510402/17/16 23:25:31  5-MIN K9L2 180725Z AUTO 26014KT 10SM FEW065 11/07 A2981 2410 77 2600 240/14 RMK AO2 $
53144K9L2 9L220160217233010402/17/16 23:30:31  5-MIN K9L2 180730Z AUTO 25015KT 10SM SCT065 11/07 A2980 2410 77 2600 240/15 RMK AO2 $
53144K9L2 9L220160217233511102/17/16 23:35:31  5-MIN K9L2 180735Z AUTO 25011KT 10SM FEW002 BKN060 11/07 A2980 2410 77 2600 240/11 RMK AO2 $
53144K9L2 9L220160217234012402/17/16 23:40:31  5-MIN K9L2 180740Z AUTO 26017G22KT 10SM FEW002 SCT006 BKN065 12/07 A2980 2410 74 2600 250/17G22 RMK AO2 $
53144K9L2 9L220160217234512402/17/16 23:45:31  5-MIN K9L2 180745Z AUTO 27015G22KT 10SM SCT002 SCT007 BKN014 11/07 A2980 2410 77 2600 250/15G22 RMK AO2 $
53144K9L2 9L220160217235013002/17/16 23:50:31  5-MIN K9L2 180750Z AUTO 26015KT 10SM SCT002 BKN007 OVC060 11/07 A2980 2410 77 2600 250/15 RMK AO2 CIG 005V011 $
53144K9L2 9L220160217235515702/17/16 23:55:31  5-MIN K9L2 180755Z AUTO 27015KT 10SM FEW002 BKN009 OVC015 11/07 A2980 2410 77 2600 260/15 RMK AO2 CIG 005V011 SLP086 T01110072 402110011 $
53144K9L2 9L220160218000011802/18/16 00:00:31  5-MIN K9L2 180800Z AUTO 27017KT 10SM FEW002 BKN014 OVC019 11/07 A2980 2420 77 2600 260/17 RMK AO2 $
53144K9L2 9L220160218000512402/18/16 00:05:31  5-MIN K9L2 180805Z AUTO 26013G21KT 10SM FEW002 SCT009 OVC014 11/07 A2980 2410 77 2600 250/13G21 RMK AO2 $
53144K9L2 9L220160218001011102/18/16 00:10:31  5-MIN K9L2 180810Z AUTO 27014KT 10SM FEW002 OVC012 11/07 A2980 2410 77 2600 260/14 RMK AO2 $
53144K9L2 9L220160218001512902/18/16 00:15:31  5-MIN K9L2 180815Z AUTO 27014G20KT 10SM BKN010 OVC016 11/07 A2980 2410 77 2600 260/14G20 RMK AO2 CIG 006V014 $
53144K9L2 9L220160218002012902/18/16 00:20:31  5-MIN K9L2 180820Z AUTO 26013G20KT 10SM BKN008 OVC014 11/07 A2980 2410 77 2600 250/13G20 RMK AO2 CIG 007V011 $
53144K9L2 9L220160218002512302/18/16 00:25:31  5-MIN K9L2 180825Z AUTO 26013KT 10SM BKN008 OVC014 11/07 A2980 2410 77 2600 250/13 RMK AO2 CIG 005V010 $
53144K9L2 9L220160218003012902/18/16 00:30:31  5-MIN K9L2 180830Z AUTO 26015G22KT 10SM BKN006 OVC011 11/07 A2980 2410 74 2600 250/15G22 RMK AO2 CIG 004V008 $
53144K9L2 9L220160218003512902/18/16 00:35:31  5-MIN K9L2 180835Z AUTO 25015G22KT 10SM BKN006 OVC011 12/07 A2980 2410 71 2600 240/15G22 RMK AO2 CIG 004V009 $
53144K9L2 9L220160218004012202/18/16 00:40:31  5-MIN K9L2 180840Z AUTO 25012G23KT 10SM OVC006 12/07 A2980 2410 71 2600 240/12G23 RMK AO2 CIG 004V010 $
53144K9L2 9L220160218004512202/18/16 00:45:31  5-MIN K9L2 180845Z AUTO 25011G23KT 10SM OVC006 11/07 A2980 2410 74 2600 240/11G23 RMK AO2 CIG 003V008 $
53144K9L2 9L220160218005012902/18/16 00:50:31  5-MIN K9L2 180850Z AUTO 25010G18KT 10SM BKN006 OVC013 11/07 A2980 2410 74 2600 230/10G18 RMK AO2 CIG 003V008 $
53144K9L2 9L220160218005514102/18/16 00:55:31  5-MIN K9L2 180855Z AUTO 24013KT 10SM BKN006 BKN013 OVC019 11/07 A2980 2420 74 2600 230/13 RMK AO2 SLP083 T01110067 58014 $
53144K9L2 9L220160218010012402/18/16 01:00:31  5-MIN K9L2 180900Z AUTO 24016G20KT 10SM BKN006 BKN013 OVC018 11/07 A2979 2420 74 2600 220/16G20 RMK AO2 $
53144K9L2 9L220160218010511702/18/16 01:05:31  5-MIN K9L2 180905Z AUTO 23015G22KT 10SM SCT006 BKN013 11/07 A2979 2420 74 2600 220/15G22 RMK AO2 $
53144K9L2 9L220160218011012402/18/16 01:10:31  5-MIN K9L2 180910Z AUTO 23018G22KT 10SM FEW004 SCT009 BKN013 12/07 A2979 2420 71 2600 210/18G22 RMK AO2 $
53144K9L2 9L220160218011511702/18/16 01:15:31  5-MIN K9L2 180915Z AUTO 23016G23KT 10SM FEW009 BKN015 12/07 A2980 2420 71 2600 220/16G23 RMK AO2 $
53144K9L2 9L220160218012011702/18/16 01:20:31  5-MIN K9L2 180920Z AUTO 24014G23KT 10SM FEW009 BKN015 12/07 A2980 2420 74 2600 220/14G23 RMK AO2 $
53144K9L2 9L220160218012511702/18/16 01:25:31  5-MIN K9L2 180925Z AUTO 24017G21KT 10SM BKN010 BKN016 12/07 A2980 2420 74 2600 230/17G21 RMK AO2 $
53144K9L2 9L220160218013011702/18/16 01:30:31  5-MIN K9L2 180930Z AUTO 25014G21KT 10SM BKN010 BKN016 12/07 A2980 2420 74 2600 240/14G21 RMK AO2 $
53144K9L2 9L220160218013511102/18/16 01:35:31  5-MIN K9L2 180935Z AUTO 26015KT 10SM SCT010 BKN014 12/07 A2980 2410 74 2600 250/15 RMK AO2 $
53144K9L2 9L220160218014011102/18/16 01:40:31  5-MIN K9L2 180940Z AUTO 26016KT 10SM BKN010 OVC015 11/07 A2980 2410 77 2600 250/16 RMK AO2 $
53144K9L2 9L220160218014511802/18/16 01:45:31  5-MIN K9L2 180945Z AUTO 26016KT 10SM FEW003 BKN009 OVC012 12/07 A2980 2410 74 2600 250/16 RMK AO2 $
53144K9L2 9L220160218015013002/18/16 01:50:31  5-MIN K9L2 180950Z AUTO 27016KT 10SM BKN006 BKN009 OVC012 12/07 A2981 2410 74 2600 260/16 RMK AO2 CIG 002V007 $
53144K9L2 9L220160218015515302/18/16 01:55:31  5-MIN K9L2 180955Z AUTO 28017G23KT 10SM SCT003 BKN006 OVC012 12/07 A2981 2400 74 2600 260/17G23 RMK AO2 CIG 005V009 SLP089 T01170072 $
53144K9L2 9L220160218020012902/18/16 02:00:31  5-MIN K9L2 181000Z AUTO 28016G23KT 10SM BKN003 OVC006 12/07 A2981 2400 74 2600 270/16G23 RMK AO2 CIG 001V006 $
53144K9L2 9L220160218020512302/18/16 02:05:31  5-MIN K9L2 181005Z AUTO 28015KT 10SM BKN003 OVC007 12/07 A2981 2400 74 2600 270/15 RMK AO2 CIG 001V005 $
53144K9L2 9L220160218021011102/18/16 02:10:31  5-MIN K9L2 181010Z AUTO 28015KT 10SM BKN001 OVC005 12/07 A2982 2400 74 2600 270/15 RMK AO2 $
53144K9L2 9L220160218021511702/18/16 02:15:31  5-MIN K9L2 181015Z AUTO 28014G20KT 10SM BKN001 OVC005 12/07 A2982 2400 74 2600 260/14G20 RMK AO2 $
53144K9L2 9L220160218022010402/18/16 02:20:31  5-MIN K9L2 181020Z AUTO 27014KT 10SM OVC001 12/07 A2982 2400 74 2600 260/14 RMK AO2 $
53144K9L2 9L220160218022511002/18/16 02:25:31  5-MIN K9L2 181025Z AUTO 26013G19KT 10SM OVC001 12/07 A2982 2400 74 2600 250/13G19 RMK AO2 $
53144K9L2 9L220160218023010402/18/16 02:30:31  5-MIN K9L2 181030Z AUTO 28010KT 10SM OVC001 12/07 A2982 2400 74 2600 260/10 RMK AO2 $
53144K9L2 9L220160218023510402/18/16 02:35:31  5-MIN K9L2 181035Z AUTO 28011KT 10SM OVC001 11/07 A2982 2400 77 2500 260/11 RMK AO2 $
53144K9L2 9L220160218024010402/18/16 02:40:31  5-MIN K9L2 181040Z AUTO 28013KT 10SM OVC001 11/07 A2982 2400 77 2500 260/13 RMK AO2 $
53144K9L2 9L220160218024511602/18/16 02:45:31  5-MIN K9L2 181045Z AUTO 28011KT 10SM OVC001 11/07 A2982 2400 77 2500 260/11 RMK AO2 CIG 001V006 $
53144K9L2 9L220160218025012302/18/16 02:50:31  5-MIN K9L2 181050Z AUTO 28010KT 10SM BKN001 OVC006 11/07 A2982 2400 77 2500 270/10 RMK AO2 CIG 001V004 $
53144K9L2 9L220160218025512802/18/16 02:55:31  5-MIN K9L2 181055Z AUTO 30008KT 10SM BKN001 OVC006 11/07 A2982 2400 77 2500 280/08 RMK AO2 SLP093 T01110072 $
53144K9L2 9L220160218030011102/18/16 03:00:31  5-MIN K9L2 181100Z AUTO 29009KT 10SM BKN002 OVC007 11/07 A2982 2400 77 2500 280/09 RMK AO2 $
53144K9L2 9L220160218030511602/18/16 03:05:31  5-MIN K9L2 181105Z AUTO 28010KT 10SM OVC002 11/07 A2982 2400 77 2500 270/10 RMK AO2 CIG 001V006 $
53144K9L2 9L220160218031011602/18/16 03:10:31  5-MIN K9L2 181110Z AUTO 27007KT 10SM OVC004 11/07 A2981 2400 77 2500 260/07 RMK AO2 CIG 001V007 $
53144K9L2 9L220160218031511602/18/16 03:15:31  5-MIN K9L2 181115Z AUTO 30008KT 10SM OVC004 11/07 A2981 2410 77 2500 280/08 RMK AO2 CIG 001V008 $
53144K9L2 9L220160218032011802/18/16 03:20:31  5-MIN K9L2 181120Z AUTO 28010KT 10SM BKN004 BKN009 OVC014 11/07 A2981 2410 77 2500 270/10 RMK AO2 $
53144K9L2 9L220160218032511802/18/16 03:25:31  5-MIN K9L2 181125Z AUTO 30011KT 10SM SCT002 BKN006 OVC014 11/07 A2980 2410 77 2600 290/11 RMK AO2 $
53144K9L2 9L220160218033011802/18/16 03:30:31  5-MIN K9L2 181130Z AUTO 27008KT 10SM FEW002 BKN006 OVC048 11/07 A2980 2420 77 2600 260/08 RMK AO2 $
53144K9L2 9L220160218033511802/18/16 03:35:31  5-MIN K9L2 181135Z AUTO 26009KT 10SM SCT004 BKN012 OVC046 11/07 A2980 2420 77 2600 240/09 RMK AO2 $
53144K9L2 9L220160218034013402/18/16 03:40:31  5-MIN K9L2 181140Z AUTO 26010KT 220V290 10SM FEW004 SCT009 OVC045 11/07 A2979 2420 77 2600 240/10 210V280 RMK AO2 $
53144K9L2 9L220160218034512402/18/16 03:45:31  5-MIN K9L2 181145Z AUTO 26013G19KT 10SM FEW004 SCT015 BKN045 11/07 A2979 2420 77 2600 240/13G19 RMK AO2 $
53144K9L2 9L220160218035011702/18/16 03:50:31  5-MIN K9L2 181150Z AUTO 26013G19KT 10SM FEW004 BKN042 11/07 A2979 2420 77 2600 250/13G19 RMK AO2 $
53144K9L2 9L220160218035515802/18/16 03:55:31  5-MIN K9L2 181155Z AUTO 27013G21KT 10SM FEW014 BKN040 11/07 A2979 2420 77 2600 260/13G21 RMK AO2 SLP086 70016 T01110072 10117 20094 58006 $
53144K9L2 9L220160218040011702/18/16 04:00:31  5-MIN K9L2 181200Z AUTO 26013G21KT 10SM FEW030 BKN040 11/07 A2979 2420 77 2600 250/13G21 RMK AO2 $
53144K9L2 9L220160218040511102/18/16 04:05:31  5-MIN K9L2 181205Z AUTO 25012KT 10SM BKN036 BKN044 11/07 A2979 2420 77 2600 240/12 RMK AO2 $
53144K9L2 9L220160218041011002/18/16 04:10:31  5-MIN K9L2 181210Z AUTO 24016G20KT 10SM BKN036 12/07 A2979 2420 74 2600 230/16G20 RMK AO2 $
53144K9L2 9L220160218041511702/18/16 04:15:31  5-MIN K9L2 181215Z AUTO 25017G22KT 10SM FEW024 OVC036 12/07 A2979 2420 74 2600 230/17G22 RMK AO2 $
53144K9L2 9L220160218042012402/18/16 04:20:31  5-MIN K9L2 181220Z AUTO 24015G22KT 10SM SCT017 SCT024 OVC036 12/07 A2980 2420 74 2600 230/15G22 RMK AO2 $
53144K9L2 9L220160218042511702/18/16 04:25:31  5-MIN K9L2 181225Z AUTO 24015G23KT 10SM BKN017 OVC034 12/07 A2980 2420 74 2600 230/15G23 RMK AO2 $
53144K9L2 9L220160218043012402/18/16 04:30:31  5-MIN K9L2 181230Z AUTO 24014G23KT 10SM SCT013 BKN017 OVC034 12/07 A2980 2410 74 2600 230/14G23 RMK AO2 $
53144K9L2 9L220160218043512402/18/16 04:35:31  5-MIN K9L2 181235Z AUTO 24017G25KT 10SM BKN011 BKN019 OVC032 12/07 A2980 2410 74 2600 230/17G25 RMK AO2 $
53144K9L2 9L220160218044011702/18/16 04:40:31  5-MIN K9L2 181240Z AUTO 24015G25KT 10SM BKN013 OVC019 12/07 A2980 2410 74 2600 230/15G25 RMK AO2 $
53144K9L2 9L220160218044511702/18/16 04:45:31  5-MIN K9L2 181245Z AUTO 24012G21KT 10SM BKN013 OVC019 12/07 A2980 2410 74 2600 230/12G21 RMK AO2 $
53144K9L2 9L220160218045011002/18/16 04:50:31  5-MIN K9L2 181250Z AUTO 24010G18KT 10SM OVC013 12/07 A2981 2410 74 2600 230/10G18 RMK AO2 $
53144K9L2 9L220160218045514102/18/16 04:55:31  5-MIN K9L2 181255Z AUTO 24010G18KT 10SM FEW008 BKN015 OVC047 12/07 A2981 2410 74 2600 230/10G18 RMK AO2 SLP092 T01170072 $
53144K9L2 9L220160218050012402/18/16 05:00:31  5-MIN K9L2 181300Z AUTO 25011G18KT 10SM BKN012 BKN017 OVC047 12/07 A2981 2410 74 2600 240/11G18 RMK AO2 $
53144K9L2 9L220160218050511802/18/16 05:05:31  5-MIN K9L2 181305Z AUTO 25010KT 10SM BKN012 BKN020 OVC048 12/07 A2981 2400 74 2600 240/10 RMK AO2 $
53144K9L2 9L220160218051011802/18/16 05:10:31  5-MIN K9L2 181310Z AUTO 25011KT 10SM BKN012 BKN018 OVC048 12/07 A2981 2400 74 2600 240/11 RMK AO2 $
53144K9L2 9L220160218051512402/18/16 05:15:31  5-MIN K9L2 181315Z AUTO 25014G20KT 10SM BKN012 BKN017 OVC023 12/08 A2981 2400 77 2600 230/14G20 RMK AO2 $
53144K9L2 9L220160218052012402/18/16 05:20:31  5-MIN K9L2 181320Z AUTO 25015G20KT 10SM BKN012 BKN017 OVC023 12/07 A2981 2400 74 2600 230/15G20 RMK AO2 $
53144K9L2 9L220160218052512602/18/16 05:25:31  5-MIN K9L2 181325Z AUTO 24017KT 9SM -RA FEW009 OVC014 12/08 A2982 2400 77 2600 230/17 RMK AO2 RAB24 P0000 $
53144K9L2 9L220160218053014002/18/16 05:30:31  5-MIN K9L2 181330Z AUTO 24016G21KT 10SM -RA FEW007 BKN012 OVC017 11/08 A2982 2400 80 2500 230/16G21 RMK AO2 RAB24 P0000 $
53144K9L2 9L220160218053513402/18/16 05:35:31  5-MIN K9L2 181335Z AUTO 24017KT 10SM -RA FEW007 BKN012 OVC023 11/08 A2981 2400 83 2500 220/17 RMK AO2 RAB24 P0000 $
53144K9L2 9L220160218054013902/18/16 05:40:31  5-MIN K9L2 181340Z AUTO 24018G23KT 10SM FEW003 BKN012 OVC018 11/08 A2982 2400 83 2500 230/18G23 RMK AO2 RAB24E36 P0000 $
53144K9L2 9L220160218054514002/18/16 05:45:31  5-MIN K9L2 181345Z AUTO 24019G24KT 10SM -RA SCT003 BKN012 OVC020 11/08 A2982 2400 83 2500 230/19G24 RMK AO2 RAB24 P0000 $
53144K9L2 9L220160218055013902/18/16 05:50:31  5-MIN K9L2 181350Z AUTO 24016G24KT 10SM SCT003 BKN007 OVC020 11/08 A2982 2390 83 2500 230/16G24 RMK AO2 RAB24E50 P0000 $
53144K9L2 9L220160218055515602/18/16 05:55:31  5-MIN K9L2 181355Z AUTO 24017G23KT 10SM FEW003 BKN009 OVC020 11/08 A2982 2390 83 2500 230/17G23 RMK AO2 RAB24E50 SLP098 P0000 T01110083 $
53144K9L2 9L220160218060012402/18/16 06:00:31  5-MIN K9L2 181400Z AUTO 24018G23KT 10SM FEW003 BKN015 OVC022 11/08 A2982 2390 83 2500 230/18G23 RMK AO2 $
53144K9L2 9L220160218060512402/18/16 06:05:31  5-MIN K9L2 181405Z AUTO 25016G23KT 10SM FEW003 BKN015 OVC022 11/08 A2982 2390 80 2500 230/16G23 RMK AO2 $
53144K9L2 9L220160218061013402/18/16 06:10:31  5-MIN K9L2 181410Z AUTO 25016KT 10SM -RA FEW001 BKN009 OVC019 11/08 A2983 2390 80 2500 230/16 RMK AO2 RAB10 P0000 $
53144K9L2 9L220160218061513902/18/16 06:15:31  5-MIN K9L2 181415Z AUTO 25018G23KT 8SM -RA FEW001 BKN011 OVC019 11/08 A2983 2380 80 2500 240/18G23 RMK AO2 RAB10 P0000 $
53144K9L2 9L220160218062013902/18/16 06:20:31  5-MIN K9L2 181420Z AUTO 25014G23KT 7SM -RA SCT006 BKN011 OVC019 11/08 A2984 2380 83 2400 230/14G23 RMK AO2 RAB10 P0000 $
53144K9L2 9L220160218062513302/18/16 06:25:31  5-MIN K9L2 181425Z AUTO 25014KT 9SM -RA FEW003 BKN008 OVC019 11/08 A2984 2380 83 2400 240/14 RMK AO2 RAB10 P0001 $
53144K9L2 9L220160218063014502/18/16 06:30:31  5-MIN K9L2 181430Z AUTO 25015KT 8SM -RA SCT001 BKN006 OVC012 11/08 A2984 2380 83 2400 240/15 RMK AO2 RAB10 CIG 004V009 P0001 $
53144K9L2 9L220160218063513302/18/16 06:35:31  5-MIN K9L2 181435Z AUTO 26015KT 6SM -RA BKN001 BKN006 OVC012 11/08 A2985 2370 83 2400 250/15 RMK AO2 RAB10 P0001 $
53144K9L2 9L220160218064013602/18/16 06:40:31  5-MIN K9L2 181440Z AUTO 28015KT 6SM -RA BR BKN001 BKN006 OVC012 10/08 A2985 2360 86 2400 260/15 RMK AO2 RAB10 P0001 $
53144K9L2 9L220160218064513202/18/16 06:45:31  5-MIN K9L2 181445Z AUTO 27017G24KT 5SM -RA BKN001 OVC006 09/07 A2986 2360 83 2300 260/17G24 RMK AO2 RAB10 P0002 $
53144K9L2 9L220160218065012502/18/16 06:50:31  5-MIN K9L2 181450Z AUTO 28018G24KT 5SM -RA OVC001 09/06 A2986 2360 83 2200 270/18G24 RMK AO2 RAB10 P0003 $
53144K9L2 9L220160218065515402/18/16 06:55:31  5-MIN K9L2 181455Z AUTO 28018G23KT 6SM -RA OVC001 09/06 A2986 2350 79 2200 270/18G23 RMK AO2 RAB10 SLP116 P0003 60003 T00890056 58001 $
53144K9L2 9L220160218070012002/18/16 07:00:31  5-MIN K9L2 181500Z AUTO 28019G24KT 10SM -RA OVC001 08/05 A2987 2350 79 2100 270/19G24 RMK AO2 P0000 $
53144K9L2 9L220160218070512202/18/16 07:05:31  5-MIN K9L2 181505Z AUTO 28018G25KT 10SM OVC001 08/05 A2987 2340 79 2100 270/18G25 RMK AO2 RAE03 P0000 $
53144K9L2 9L220160218071012202/18/16 07:10:31  5-MIN K9L2 181510Z AUTO 28017G25KT 10SM OVC001 08/04 A2988 2340 76 2100 270/17G25 RMK AO2 RAE03 P0000 $
53144K9L2 9L220160218071512202/18/16 07:15:31  5-MIN K9L2 181515Z AUTO 28019G23KT 10SM OVC001 08/04 A2988 2340 76 2100 260/19G23 RMK AO2 RAE03 P0000 $
53144K9L2 9L220160218072012202/18/16 07:20:31  5-MIN K9L2 181520Z AUTO 28015G23KT 10SM OVC001 08/04 A2989 2330 76 2100 270/15G23 RMK AO2 RAE03 P0000 $
53144K9L2 9L220160218072511602/18/16 07:25:31  5-MIN K9L2 181525Z AUTO 28017KT 10SM OVC001 08/04 A2989 2330 73 2100 270/17 RMK AO2 RAE03 P0000 $
53144K9L2 9L220160218073011602/18/16 07:30:31  5-MIN K9L2 181530Z AUTO 28017KT 10SM OVC001 08/04 A2989 2330 73 2100 260/17 RMK AO2 RAE03 P0000 $
53144K9L2 9L220160218073514102/18/16 07:35:31  5-MIN K9L2 181535Z AUTO 28016G23KT 10SM BKN001 OVC006 08/04 A2989 2330 73 2100 270/16G23 RMK AO2 RAE03 CIG 001V004 P0000 $
53144K9L2 9L220160218074014102/18/16 07:40:31  5-MIN K9L2 181540Z AUTO 27016G23KT 10SM BKN001 OVC008 08/03 A2990 2320 70 2100 260/16G23 RMK AO2 RAE03 CIG 001V004 P0000 $
53144K9L2 9L220160218074513502/18/16 07:45:31  5-MIN K9L2 181545Z AUTO 28017KT 10SM SCT001 OVC008 08/03 A2990 2320 70 2100 270/17 RMK AO2 RAE03 CIG 006V012 P0000 $
53144K9L2 9L220160218075014102/18/16 07:50:31  5-MIN K9L2 181550Z AUTO 28014G22KT 10SM SCT001 OVC008 08/03 A2991 2310 70 2100 270/14G22 RMK AO2 RAE03 CIG 005V012 P0000 $
53144K9L2 9L220160218075515802/18/16 07:55:31  5-MIN K9L2 181555Z AUTO 28015G22KT 10SM FEW001 OVC008 09/04 A2991 2310 71 2200 270/15G22 RMK AO2 RAE03 CIG 006V012 SLP133 P0000 T00890039 $
53144K9L2 9L220160218080011602/18/16 08:00:31  5-MIN K9L2 181600Z AUTO 29016KT 10SM OVC008 09/04 A2992 2310 71 2200 270/16 RMK AO2 CIG 003V010 $
53144K9L2 9L220160218080511702/18/16 08:05:31  5-MIN K9L2 181605Z AUTO 28015G21KT 10SM BKN006 OVC010 09/04 A2992 2300 71 2200 270/15G21 RMK AO2 $
53144K9L2 9L220160218081011002/18/16 08:10:31  5-MIN K9L2 181610Z AUTO 28015G21KT 10SM OVC006 09/04 A2992 2300 68 2200 270/15G21 RMK AO2 $
53144K9L2 9L220160218081512402/18/16 08:15:31  5-MIN K9L2 181615Z AUTO 28016G21KT 10SM BKN006 BKN014 OVC020 09/04 A2993 2290 68 2200 270/16G21 RMK AO2 $
53144K9L2 9L220160218082011702/18/16 08:20:31  5-MIN K9L2 181620Z AUTO 28016G22KT 10SM BKN006 OVC020 09/04 A2993 2290 68 2200 270/16G22 RMK AO2 $
53144K9L2 9L220160218082511702/18/16 08:25:31  5-MIN K9L2 181625Z AUTO 28015G22KT 10SM SCT006 OVC020 09/04 A2993 2290 68 2200 270/15G22 RMK AO2 $
53144K9L2 9L220160218083011102/18/16 08:30:31  5-MIN K9L2 181630Z AUTO 28016KT 10SM FEW006 OVC020 09/04 A2993 2290 68 2200 270/16 RMK AO2 $
53144K9L2 9L220160218083511102/18/16 08:35:31  5-MIN K9L2 181635Z AUTO 28014KT 10SM FEW008 OVC020 10/03 A2994 2290 63 2300 270/14 RMK AO2 $
53144K9L2 9L220160218084011002/18/16 08:40:31  5-MIN K9L2 181640Z AUTO 27016G22KT 10SM OVC020 10/03 A2994 2290 63 2300 260/16G22 RMK AO2 $
53144K9L2 9L220160218084511002/18/16 08:45:31  5-MIN K9L2 181645Z AUTO 27016G22KT 10SM OVC022 10/03 A2994 2280 63 2300 260/16G22 RMK AO2 $
53144K9L2 9L220160218085011102/18/16 08:50:31  5-MIN K9L2 181650Z AUTO 28014KT 10SM BKN022 OVC026 10/03 A2995 2280 63 2300 260/14 RMK AO2 $
53144K9L2 9L220160218085513402/18/16 08:55:31  5-MIN K9L2 181655Z AUTO 28018G23KT 10SM SCT021 OVC026 10/03 A2995 2280 60 2300 270/18G23 RMK AO2 SLP144 T01000028 $
53144K9L2 9L220160218090011702/18/16 09:00:31  5-MIN K9L2 181700Z AUTO 28015G23KT 10SM FEW019 OVC026 10/03 A2995 2270 63 2300 270/15G23 RMK AO2 $
53144K9L2 9L220160218090511002/18/16 09:05:31  5-MIN K9L2 181705Z AUTO 28017G23KT 10SM OVC026 11/03 A2996 2270 58 2300 270/17G23 RMK AO2 $
53144K9L2 9L220160218091011702/18/16 09:10:31  5-MIN K9L2 181710Z AUTO 28017G23KT 10SM BKN026 OVC044 11/03 A2996 2270 58 2300 270/17G23 RMK AO2 $
53144K9L2 9L220160218091511702/18/16 09:15:31  5-MIN K9L2 181715Z AUTO 29017G25KT 10SM BKN028 BKN044 11/03 A2996 2260 58 2300 270/17G25 RMK AO2 $
53144K9L2 9L220160218092011702/18/16 09:20:31  5-MIN K9L2 181720Z AUTO 28016G25KT 10SM BKN030 OVC044 11/03 A2997 2260 58 2300 270/16G25 RMK AO2 $
53144K9L2 9L220160218092512402/18/16 09:25:31  5-MIN K9L2 181725Z AUTO 28016G22KT 10SM BKN030 BKN044 OVC050 11/03 A2997 2260 58 2300 270/16G22 RMK AO2 $
53144K9L2 9L220160218093011702/18/16 09:30:31  5-MIN K9L2 181730Z AUTO 29017G21KT 10SM SCT030 BKN046 11/03 A2997 2250 58 2300 270/17G21 RMK AO2 $
53144K9L2 9L220160218093511802/18/16 09:35:31  5-MIN K9L2 181735Z AUTO 28014KT 10SM FEW030 BKN044 BKN050 11/03 A2998 2250 58 2300 270/14 RMK AO2 $
53144K9L2 9L220160218094011802/18/16 09:40:31  5-MIN K9L2 181740Z AUTO 29017KT 10SM FEW030 SCT034 BKN044 11/03 A2998 2240 58 2300 270/17 RMK AO2 $
53144K9L2 9L220160218094511702/18/16 09:45:31  5-MIN K9L2 181745Z AUTO 28015G20KT 10SM FEW032 BKN044 11/03 A2999 2240 56 2300 270/15G20 RMK AO2 $
53144K9L2 9L220160218095012402/18/16 09:50:31  5-MIN K9L2 181750Z AUTO 29016G20KT 10SM FEW030 SCT038 BKN047 12/03 A2999 2240 56 2400 280/16G20 RMK AO2 $
53144K9L2 9L220160218095515902/18/16 09:55:31  5-MIN K9L2 181755Z AUTO 30016KT 10SM FEW030 BKN039 BKN046 12/03 A3000 2230 54 2500 280/16 RMK AO2 SLP158 60003 T01220033 10122 20083 53022 $
53144K9L2 9L220160218100012402/18/16 10:00:31  5-MIN K9L2 181800Z AUTO 30015G21KT 10SM SCT030 BKN039 BKN046 12/03 A3000 2230 54 2500 280/15G21 RMK AO2 $
53144K9L2 9L220160218100512402/18/16 10:05:31  5-MIN K9L2 181805Z AUTO 29017G23KT 10SM SCT030 BKN039 OVC048 12/03 A3000 2230 54 2400 280/17G23 RMK AO2 $
53144K9L2 9L220160218101012402/18/16 10:10:31  5-MIN K9L2 181810Z AUTO 29017G23KT 10SM SCT030 BKN039 OVC048 12/03 A3001 2220 54 2500 280/17G23 RMK AO2 $
53144K9L2 9L220160218101512402/18/16 10:15:31  5-MIN K9L2 181815Z AUTO 29019G24KT 10SM BKN028 BKN039 OVC048 12/03 A3001 2220 52 2500 280/19G24 RMK AO2 $
53144K9L2 9L220160218102012402/18/16 10:20:31  5-MIN K9L2 181820Z AUTO 29019G24KT 10SM BKN028 BKN039 OVC048 12/03 A3001 2220 52 2500 280/19G24 RMK AO2 $
53144K9L2 9L220160218102511802/18/16 10:25:31  5-MIN K9L2 181825Z AUTO 29017KT 10SM BKN028 BKN039 OVC048 12/03 A3001 2220 52 2500 270/17 RMK AO2 $
53144K9L2 9L220160218103011802/18/16 10:30:31  5-MIN K9L2 181830Z AUTO 29014KT 10SM BKN030 BKN039 OVC048 13/03 A3001 2220 50 2500 270/14 RMK AO2 $
53144K9L2 9L220160218103511802/18/16 10:35:31  5-MIN K9L2 181835Z AUTO 28016KT 10SM BKN030 BKN040 BKN046 13/03 A3001 2220 50 2500 270/16 RMK AO2 $
53144K9L2 9L220160218104011702/18/16 10:40:31  5-MIN K9L2 181840Z AUTO 28018G22KT 10SM SCT030 BKN040 13/03 A3001 2220 48 2600 270/18G22 RMK AO2 $
53144K9L2 9L220160218104511702/18/16 10:45:31  5-MIN K9L2 181845Z AUTO 28014G22KT 10SM SCT030 SCT040 13/03 A3001 2220 50 2600 270/14G22 RMK AO2 $
53144K9L2 9L220160218105011702/18/16 10:50:31  5-MIN K9L2 181850Z AUTO 28017G20KT 10SM FEW030 SCT040 13/03 A3000 2230 48 2600 270/17G20 RMK AO2 $
53144K9L2 9L220160218105512702/18/16 10:55:31  5-MIN K9L2 181855Z AUTO 28019G23KT 10SM FEW032 14/03 A3001 2220 47 2600 270/19G23 RMK AO2 SLP161 T01390028 $
53144K9L2 9L220160218110011002/18/16 11:00:31  5-MIN K9L2 181900Z AUTO 29018G24KT 10SM FEW042 14/02 A3001 2220 45 2600 280/18G24 RMK AO2 $
53144K9L2 9L220160218110510702/18/16 11:05:31  5-MIN K9L2 181905Z AUTO 30019G24KT 10SM CLR 14/02 A3001 2220 45 2600 290/19G24 RMK AO2 $
53144K9L2 9L220160218111010702/18/16 11:10:31  5-MIN K9L2 181910Z AUTO 29019G24KT 10SM CLR 13/02 A3001 2220 46 2600 270/19G24 RMK AO2 $
53144K9L2 9L220160218111510702/18/16 11:15:31  5-MIN K9L2 181915Z AUTO 29019G24KT 10SM CLR 14/02 A3001 2220 43 2600 280/19G24 RMK AO2 $
53144K9L2 9L220160218112010702/18/16 11:20:31  5-MIN K9L2 181920Z AUTO 28016G24KT 10SM CLR 14/02 A3001 2220 45 2600 270/16G24 RMK AO2 $
53144K9L2 9L220160218112510102/18/16 11:25:31  5-MIN K9L2 181925Z AUTO 29016KT 10SM CLR 14/02 A3001 2220 43 2600 280/16 RMK AO2 $
53144K9L2 9L220160218113010102/18/16 11:30:31  5-MIN K9L2 181930Z AUTO 28018KT 10SM CLR 14/02 A3001 2220 41 2700 270/18 RMK AO2 $
53144K9L2 9L220160218113510102/18/16 11:35:31  5-MIN K9L2 181935Z AUTO 30016KT 10SM CLR 14/01 A3000 2230 40 2700 280/16 RMK AO2 $
53144K9L2 9L220160218114010102/18/16 11:40:31  5-MIN K9L2 181940Z AUTO 29015KT 10SM CLR 14/01 A3001 2220 40 2700 280/15 RMK AO2 $
53144K9L2 9L220160218114510102/18/16 11:45:31  5-MIN K9L2 181945Z AUTO 29015KT 10SM CLR 14/02 A3001 2220 43 2700 280/15 RMK AO2 $
53144K9L2 9L220160218115010102/18/16 11:50:31  5-MIN K9L2 181950Z AUTO 30015KT 10SM CLR 14/02 A3001 2220 41 2700 280/15 RMK AO2 $
53144K9L2 9L220160218115511802/18/16 11:55:31  5-MIN K9L2 181955Z AUTO 29015KT 10SM CLR 14/02 A3001 2220 41 2700 270/15 RMK AO2 SLP161 T01440017 $
53144K9L2 9L220160218120010102/18/16 12:00:31  5-MIN K9L2 182000Z AUTO 29014KT 10SM CLR 14/02 A3000 2220 41 2700 280/14 RMK AO2 $
53144K9L2 9L220160218120510102/18/16 12:05:31  5-MIN K9L2 182005Z AUTO 29013KT 10SM CLR 15/02 A3000 2230 40 2800 270/13 RMK AO2 $
53144K9L2 9L220160218121010102/18/16 12:10:31  5-MIN K9L2 182010Z AUTO 28015KT 10SM CLR 15/01 A3000 2230 38 2800 260/15 RMK AO2 $
53144K9L2 9L220160218121510102/18/16 12:15:31  5-MIN K9L2 182015Z AUTO 28013KT 10SM CLR 14/01 A2999 2240 38 2700 270/13 RMK AO2 $
53144K9L2 9L220160218122010102/18/16 12:20:31  5-MIN K9L2 182020Z AUTO 27013KT 10SM CLR 15/01 A2999 2240 37 2800 260/13 RMK AO2 $
53144K9L2 9L220160218122510702/18/16 12:25:31  5-MIN K9L2 182025Z AUTO 26015G19KT 10SM CLR 15/01 A2998 2250 37 2800 250/15G19 RMK AO2 $
53144K9L2 9L220160218123010102/18/16 12:30:31  5-MIN K9L2 182030Z AUTO 26013KT 10SM CLR 15/01 A2998 2250 37 2800 250/13 RMK AO2 $
53144K9L2 9L220160218123510102/18/16 12:35:31  5-MIN K9L2 182035Z AUTO 27013KT 10SM CLR 16/01 A2999 2240 36 2900 260/13 RMK AO2 $
53144K9L2 9L220160218124010102/18/16 12:40:31  5-MIN K9L2 182040Z AUTO 28013KT 10SM CLR 16/01 A2998 2250 36 2900 270/13 RMK AO2 $
53144K9L2 9L220160218124510102/18/16 12:45:31  5-MIN K9L2 182045Z AUTO 27014KT 10SM CLR 16/00 A2998 2240 34 2900 260/14 RMK AO2 $
53144K9L2 9L220160218125010102/18/16 12:50:31  5-MIN K9L2 182050Z AUTO 27015KT 10SM CLR 16/01 A2998 2250 36 2900 260/15 RMK AO2 $
53144K9L2 9L220160218125512402/18/16 12:55:31  5-MIN K9L2 182055Z AUTO 26014KT 10SM CLR 16/00 A2997 2250 34 2900 250/14 RMK AO2 SLP147 T01560000 51042 $
53144K9L2 9L220160218130010102/18/16 13:00:31  5-MIN K9L2 182100Z AUTO 27015KT 10SM CLR 16/01 A2997 2260 34 2900 250/15 RMK AO2 $
53144K9L2 9L220160218130510102/18/16 13:05:31  5-MIN K9L2 182105Z AUTO 25014KT 10SM CLR 16/00 A2997 2250 34 2900 240/14 RMK AO2 $
53144K9L2 9L220160218131010702/18/16 13:10:31  5-MIN K9L2 182110Z AUTO 26010G19KT 10SM CLR 16/00 A2997 2250 33 2900 250/10G19 RMK AO2 $
53144K9L2 9L220160218131510702/18/16 13:15:31  5-MIN K9L2 182115Z AUTO 26014G18KT 10SM CLR 16/00 A2997 2250 33 2900 250/14G18 RMK AO2 $
53144K9L2 9L220160218132010702/18/16 13:20:31  5-MIN K9L2 182120Z AUTO 27012G18KT 10SM CLR 16/00 A2997 2260 34 2900 250/12G18 RMK AO2 $
53144K9L2 9L220160218132510702/18/16 13:25:31  5-MIN K9L2 182125Z AUTO 28012G18KT 10SM CLR 16/00 A2997 2260 34 2900 270/12G18 RMK AO2 $
53144K9L2 9L220160218133010102/18/16 13:30:31  5-MIN K9L2 182130Z AUTO 28013KT 10SM CLR 16/00 A2997 2260 34 2900 270/13 RMK AO2 $
53144K9L2 9L220160218133510702/18/16 13:35:31  5-MIN K9L2 182135Z AUTO 29012G18KT 10SM CLR 16/01 A2997 2260 34 2900 280/12G18 RMK AO2 $
53144K9L2 9L220160218134010702/18/16 13:40:31  5-MIN K9L2 182140Z AUTO 28013G18KT 10SM CLR 16/01 A2997 2260 34 2900 260/13G18 RMK AO2 $
53144K9L2 9L220160218134510102/18/16 13:45:31  5-MIN K9L2 182145Z AUTO 27011KT 10SM CLR 16/01 A2997 2260 34 3000 260/11 RMK AO2 $
53144K9L2 9L220160218135010102/18/16 13:50:31  5-MIN K9L2 182150Z AUTO 28011KT 10SM CLR 16/01 A2997 2260 34 2900 260/11 RMK AO2 $
53144K9L2 9L220160218135511802/18/16 13:55:31  5-MIN K9L2 182155Z AUTO 29011KT 10SM CLR 17/01 A2997 2260 33 3000 280/11 RMK AO2 SLP144 T01670006 $
53144K9L2 9L220160218140010102/18/16 14:00:31  5-MIN K9L2 182200Z AUTO 29010KT 10SM CLR 17/01 A2997 2260 33 3100 270/10 RMK AO2 $
53144K9L2 9L220160218140510102/18/16 14:05:31  5-MIN K9L2 182205Z AUTO 26009KT 10SM CLR 16/01 A2997 2260 36 3000 250/09 RMK AO2 $
53144K9L2 9L220160218141010702/18/16 14:10:31  5-MIN K9L2 182210Z AUTO 29014G19KT 10SM CLR 16/01 A2997 2260 34 2900 280/14G19 RMK AO2 $
53144K9L2 9L220160218141510702/18/16 14:15:31  5-MIN K9L2 182215Z AUTO 29016G20KT 10SM CLR 16/00 A2997 2260 33 3000 280/16G20 RMK AO2 $
53144K9L2 9L220160218142010802/18/16 14:20:31  5-MIN K9L2 182220Z AUTO 29016G21KT 10SM CLR 16/M01 A2997 2260 32 3000 280/16G21 RMK AO2 $
53144K9L2 9L220160218142510202/18/16 14:25:31  5-MIN K9L2 182225Z AUTO 28016KT 10SM CLR 16/M01 A2996 2260 32 3000 270/16 RMK AO2 $
53144K9L2 9L220160218143010202/18/16 14:30:31  5-MIN K9L2 182230Z AUTO 29016KT 10SM CLR 16/M01 A2996 2260 32 3000 280/16 RMK AO2 $
53144K9L2 9L220160218143510202/18/16 14:35:31  5-MIN K9L2 182235Z AUTO 29016KT 10SM CLR 16/M01 A2996 2260 32 3000 280/16 RMK AO2 $
53144K9L2 9L220160218144010702/18/16 14:40:31  5-MIN K9L2 182240Z AUTO 30016G21KT 10SM CLR 16/00 A2996 2260 33 3000 280/16G21 RMK AO2 $
53144K9L2 9L220160218144510702/18/16 14:45:31  5-MIN K9L2 182245Z AUTO 29018G23KT 10SM CLR 16/00 A2996 2260 33 3000 280/18G23 RMK AO2 $
53144K9L2 9L220160218145010802/18/16 14:50:31  5-MIN K9L2 182250Z AUTO 28020G24KT 10SM CLR 16/M01 A2996 2260 31 2900 270/20G24 RMK AO2 $
53144K9L2 9L220160218145511902/18/16 14:55:31  5-MIN K9L2 182255Z AUTO 29018KT 10SM CLR 16/M01 A2996 2260 31 2900 280/18 RMK AO2 SLP143 T01561011 $
53144K9L2 9L220160218150010202/18/16 15:00:31  5-MIN K9L2 182300Z AUTO 29018KT 10SM CLR 16/M01 A2996 2260 32 3000 270/18 RMK AO2 $
53144K9L2 9L220160218150510202/18/16 15:05:31  5-MIN K9L2 182305Z AUTO 29018KT 10SM CLR 16/M01 A2996 2270 33 2900 270/18 RMK AO2 $
53144K9L2 9L220160218151010202/18/16 15:10:31  5-MIN K9L2 182310Z AUTO 29018KT 10SM CLR 16/M01 A2997 2260 33 2900 280/18 RMK AO2 $
53144K9L2 9L220160218151510802/18/16 15:15:31  5-MIN K9L2 182315Z AUTO 28015G23KT 10SM CLR 16/M01 A2997 2260 33 2900 270/15G23 RMK AO2 $
53144K9L2 9L220160218152010802/18/16 15:20:31  5-MIN K9L2 182320Z AUTO 28016G23KT 10SM CLR 16/M01 A2997 2260 33 2900 260/16G23 RMK AO2 $
53144K9L2 9L220160218152510802/18/16 15:25:31  5-MIN K9L2 182325Z AUTO 28014G21KT 10SM CLR 16/M01 A2997 2260 33 2900 270/14G21 RMK AO2 $
53144K9L2 9L220160218153010202/18/16 15:30:31  5-MIN K9L2 182330Z AUTO 28015KT 10SM CLR 16/M01 A2997 2250 33 2900 270/15 RMK AO2 $
53144K9L2 9L220160218153510102/18/16 15:35:31  5-MIN K9L2 182335Z AUTO 28012KT 10SM CLR 16/00 A2997 2250 34 2900 260/12 RMK AO2 $
53144K9L2 9L220160218154010202/18/16 15:40:31  5-MIN K9L2 182340Z AUTO 27015KT 10SM CLR 16/M01 A2997 2250 33 2900 260/15 RMK AO2 $
53144K9L2 9L220160218154510102/18/16 15:45:31  5-MIN K9L2 182345Z AUTO 27014KT 10SM CLR 16/00 A2997 2250 34 2900 260/14 RMK AO2 $
53144K9L2 9L220160218155010102/18/16 15:50:31  5-MIN K9L2 182350Z AUTO 26013KT 10SM CLR 16/01 A2997 2250 36 2900 250/13 RMK AO2 $
53144K9L2 9L220160218155513602/18/16 15:55:31  5-MIN K9L2 182355Z AUTO 27014KT 10SM CLR 16/00 A2997 2260 34 2900 250/14 RMK AO2 SLP147 T01560000 10172 20117 58008 $
53144K9L2 9L220160218160010202/18/16 16:00:31  5-MIN K9L2 190000Z AUTO 26015KT 10SM CLR 16/M01 A2997 2250 33 2900 250/15 RMK AO2 $
53144K9L2 9L220160218160510102/18/16 16:05:31  5-MIN K9L2 190005Z AUTO 27015KT 10SM CLR 16/00 A2997 2250 34 2900 260/15 RMK AO2 $
53144K9L2 9L220160218161010102/18/16 16:10:31  5-MIN K9L2 190010Z AUTO 27015KT 10SM CLR 15/00 A2997 2260 35 2800 260/15 RMK AO2 $
53144K9L2 9L220160218161510802/18/16 16:15:31  5-MIN K9L2 190015Z AUTO 27018G22KT 10SM CLR 14/M01 A2997 2260 35 2800 250/18G22 RMK AO2 $
53144K9L2 9L220160218162010102/18/16 16:20:31  5-MIN K9L2 190020Z AUTO 27018KT 10SM CLR 14/00 A2997 2260 37 2800 260/18 RMK AO2 $
53144K9L2 9L220160218162510102/18/16 16:25:31  5-MIN K9L2 190025Z AUTO 28016KT 10SM CLR 14/00 A2997 2250 37 2800 260/16 RMK AO2 $
53144K9L2 9L220160218163010102/18/16 16:30:31  5-MIN K9L2 190030Z AUTO 27015KT 10SM CLR 14/00 A2997 2250 37 2800 260/15 RMK AO2 $
53144K9L2 9L220160218163510102/18/16 16:35:31  5-MIN K9L2 190035Z AUTO 27014KT 10SM CLR 14/00 A2997 2250 37 2800 260/14 RMK AO2 $
53144K9L2 9L220160218164010202/18/16 16:40:31  5-MIN K9L2 190040Z AUTO 27015KT 10SM CLR 14/M01 A2997 2260 35 2800 260/15 RMK AO2 $
53144K9L2 9L220160218164510202/18/16 16:45:31  5-MIN K9L2 190045Z AUTO 28012KT 10SM CLR 14/M01 A2997 2260 35 2800 270/12 RMK AO2 $
53144K9L2 9L220160218165010202/18/16 16:50:31  5-MIN K9L2 190050Z AUTO 28013KT 10SM CLR 14/M01 A2997 2260 37 2700 270/13 RMK AO2 $
53144K9L2 9L220160218165511902/18/16 16:55:31  5-MIN K9L2 190055Z AUTO 27014KT 10SM CLR 14/M01 A2997 2260 37 2700 260/14 RMK AO2 SLP146 T01391006 $
53144K9L2 9L220160218170010202/18/16 17:00:31  5-MIN K9L2 190100Z AUTO 26011KT 10SM CLR 14/M01 A2997 2260 37 2700 250/11 RMK AO2 $
53144K9L2 9L220160218170510102/18/16 17:05:31  5-MIN K9L2 190105Z AUTO 27007KT 10SM CLR 13/00 A2997 2250 40 2600 260/07 RMK AO2 $
53144K9L2 9L220160218171010102/18/16 17:10:31  5-MIN K9L2 190110Z AUTO 28008KT 10SM CLR 13/00 A2997 2250 40 2600 270/08 RMK AO2 $
53144K9L2 9L220160218171510102/18/16 17:15:31  5-MIN K9L2 190115Z AUTO 28008KT 10SM CLR 13/00 A2997 2260 40 2600 270/08 RMK AO2 $
53144K9L2 9L220160218172010102/18/16 17:20:31  5-MIN K9L2 190120Z AUTO 28009KT 10SM CLR 13/01 A2997 2250 43 2600 270/09 RMK AO2 $
53144K9L2 9L220160218172510102/18/16 17:25:31  5-MIN K9L2 190125Z AUTO 27006KT 10SM CLR 13/01 A2998 2250 43 2600 260/06 RMK AO2 $
53144K9L2 9L220160218173010102/18/16 17:30:31  5-MIN K9L2 190130Z AUTO 29006KT 10SM CLR 13/00 A2997 2250 41 2600 280/06 RMK AO2 $
53144K9L2 9L220160218173013002/18/16 17:30:31  5-MIN K9L2 190130Z AUTO 29006KT 10SM CLR 13/00 A2997 2250 41 2600 280/06 RMK AO2 $2260 43 2500 270/07 RMK AO2 $
53144K9L2 9L220160218173510102/18/16 17:35:31  5-MIN K9L2 190135Z AUTO 28007KT 10SM CLR 12/00 A2997 2260 43 2500 270/07 RMK AO2 $
53144K9L2 9L220160218174010102/18/16 17:40:31  5-MIN K9L2 190140Z AUTO 28006KT 10SM CLR 12/01 A2997 2260 46 2400 270/06 RMK AO2 $
53144K9L2 9L220160218174507202/18/16 17:45:31  5-MIN K9L2 190145Z AUTO 27007KT 10SM CLR 12/01 A2997 
53144K9L2 9L220160218174510102/18/16 17:45:31  5-MIN K9L2 190145Z AUTO 27007KT 10SM CLR 12/01 A2997 2260 46 2400 250/07 RMK AO2 $
53144K9L2 9L220160218175010102/18/16 17:50:31  5-MIN K9L2 190150Z AUTO 25008KT 10SM CLR 12/01 A2997 2260 46 2400 240/08 RMK AO2 $
53144K9L2 9L220160218175511802/18/16 17:55:31  5-MIN K9L2 190155Z AUTO 28005KT 10SM CLR 11/01 A2997 2250 48 2400 260/05 RMK AO2 SLP151 T01110006 $
53144K9L2 9L220160218180010102/18/16 18:00:31  5-MIN K9L2 190200Z AUTO 26005KT 10SM CLR 11/01 A2997 2250 50 2300 250/05 RMK AO2 $
53144K9L2 9L220160218180507202/18/16 18:05:31  5-MIN K9L2 190205Z AUTO 27010KT 10SM CLR 11/01 A2997 
53144K9L2 9L220160218180510102/18/16 18:05:31  5-MIN K9L2 190205Z AUTO 27010KT 10SM CLR 11/01 A2997 2260 50 2300 260/10 RMK AO2 $
53144K9L2 9L220160218181010102/18/16 18:10:31  5-MIN K9L2 190210Z AUTO 28011KT 10SM CLR 11/01 A2997 2250 50 2300 270/11 RMK AO2 $
53144K9L2 9L220160218181510102/18/16 18:15:31  5-MIN K9L2 190215Z AUTO 28011KT 10SM CLR 11/00 A2998 2250 48 2300 260/11 RMK AO2 $
53144K9L2 9L220160218182010102/18/16 18:20:31  5-MIN K9L2 190220Z AUTO 27011KT 10SM CLR 10/00 A2998 2250 49 2200 260/11 RMK AO2 $
53144K9L2 9L220160218182510102/18/16 18:25:31  5-MIN K9L2 190225Z AUTO 28011KT 10SM CLR 10/00 A2998 2250 49 2200 270/11 RMK AO2 $
53144K9L2 9L220160218182513002/18/16 18:25:31  5-MIN K9L2 190225Z AUTO 28011KT 10SM CLR 10/00 A2998 2250 49 2200 270/11 RMK AO2 $2250 49 2200 260/14 RMK AO2 $
53144K9L2 9L220160218183010102/18/16 18:30:31  5-MIN K9L2 190230Z AUTO 27014KT 10SM CLR 10/00 A2998 2250 49 2200 260/14 RMK AO2 $
53144K9L2 9L220160218183510102/18/16 18:35:31  5-MIN K9L2 190235Z AUTO 27014KT 10SM CLR 10/00 A2998 2250 49 2200 260/14 RMK AO2 $
53144K9L2 9L220160218183513002/18/16 18:35:31  5-MIN K9L2 190235Z AUTO 27014KT 10SM CLR 10/00 A2998 2250 49 2200 260/14 RMK AO2 $2240 49 2200 270/10 RMK AO2 $
53144K9L2 9L220160218184010102/18/16 18:40:31  5-MIN K9L2 190240Z AUTO 28010KT 10SM CLR 10/00 A2999 2240 49 2200 270/10 RMK AO2 $
53144K9L2 9L220160218184510102/18/16 18:45:31  5-MIN K9L2 190245Z AUTO 28010KT 10SM CLR 10/00 A2999 2240 49 2200 270/10 RMK AO2 $
53144K9L2 9L220160218185010102/18/16 18:50:31  5-MIN K9L2 190250Z AUTO 29012KT 10SM CLR 10/00 A2999 2230 49 2200 280/12 RMK AO2 $
53144K9L2 9L220160218185015302/18/16 18:50:31  5-MIN K9L2 190250Z AUTO 29012KT 10SM CLR 10/00 A2999 2230 49 2200 280/12 RMK AO2 $2230 49 2200 290/10 RMK AO2 SLP161 T01000000 55001 $
53144K9L2 9L220160218185512402/18/16 18:55:31  5-MIN K9L2 190255Z AUTO 30010KT 10SM CLR 10/00 A3000 2230 49 2200 290/10 RMK AO2 SLP161 T01000000 55001 $
53144K9L2 9L220160218190010102/18/16 19:00:31  5-MIN K9L2 190300Z AUTO 31009KT 10SM CLR 09/00 A3000 2230 51 2100 290/09 RMK AO2 $
53144K9L2 9L220160218190510102/18/16 19:05:31  5-MIN K9L2 190305Z AUTO 32007KT 10SM CLR 09/00 A3000 2230 51 2100 310/07 RMK AO2 $
53144K9L2 9L220160218191010102/18/16 19:10:31  5-MIN K9L2 190310Z AUTO 30007KT 10SM CLR 09/00 A3000 2230 53 2100 290/07 RMK AO2 $
53144K9L2 9L220160218191510102/18/16 19:15:31  5-MIN K9L2 190315Z AUTO 29008KT 10SM CLR 09/00 A3000 2220 53 2100 320/07 RMK AO2 $
53144K9L2 9L220160218191510102/18/16 19:15:31  5-MIN K9L2 190315Z AUTO 29008KT 10SM CLR 09/00 A3000 2230 53 2100 280/08 RMK AO2 $
53144K9L2 9L220160218192010102/18/16 19:20:31  5-MIN K9L2 190320Z AUTO 33007KT 10SM CLR 09/00 A3001 2220 53 2100 320/07 RMK AO2 $
53144K9L2 9L220160218192510102/18/16 19:25:31  5-MIN K9L2 190325Z AUTO 01005KT 10SM CLR 08/00 A3001 2220 55 2000 350/05 RMK AO2 $
53144K9L2 9L220160218193010102/18/16 19:30:31  5-MIN K9L2 190330Z AUTO VRB05KT 10SM CLR 08/00 A3001 2220 55 2000 VRB/05 RMK AO2 $
53144K9L2 9L220160218193510102/18/16 19:35:31  5-MIN K9L2 190335Z AUTO 33007KT 10SM CLR 09/00 A3001 2220 53 2100 320/07 RMK AO2 $
53144K9L2 9L220160218194010102/18/16 19:40:31  5-MIN K9L2 190340Z AUTO 31004KT 10SM CLR 09/00 A3001 2220 53 2100 300/04 RMK AO2 $
53144K9L2 9L220160218194510202/18/16 19:45:31  5-MIN K9L2 190345Z AUTO 29003KT 10SM CLR 09/M01 A3001 2220 49 2100 270/03 RMK AO2 $
53144K9L2 9L220160218195010202/18/16 19:50:31  5-MIN K9L2 190350Z AUTO 35003KT 10SM CLR 09/M01 A3001 2220 51 2100 340/03 RMK AO2 $
53144K9L2 9L220160218195020602/18/16 19:50:31  5-MIN K9L2 190350Z AUTO 35003KT 10SM CLR 09/M01 A3001 2220 51 2100 340/03 RMK AO2 $2220 51 2100 000/00 RMK AO2 SLP168 T00891006 $2210 55 2000 000/00 RMK AO2 $2210 55 2000 170/06 RMK AO2 $
53144K9L2 9L220160218195511902/18/16 19:55:31  5-MIN K9L2 190355Z AUTO 00000KT 10SM CLR 09/M01 A3001 2220 51 2100 000/00 RMK AO2 SLP168 T00891006 $
53144K9L2 9L220160218200010102/18/16 20:00:31  5-MIN K9L2 190400Z AUTO 00000KT 10SM CLR 08/00 A3002 2210 55 2000 000/00 RMK AO2 $
53144K9L2 9L220160218200510102/18/16 20:05:31  5-MIN K9L2 190405Z AUTO 00000KT 10SM CLR 08/00 A3002 2210 55 2000 000/00 RMK AO2 $
53144K9L2 9L220160218201010102/18/16 20:10:31  5-MIN K9L2 190410Z AUTO 18006KT 10SM CLR 08/00 A3002 2210 55 2000 170/06 RMK AO2 $
53144K9L2 9L220160218201510102/18/16 20:15:31  5-MIN K9L2 190415Z AUTO 21008KT 10SM CLR 08/01 A3002 2210 55 2000 190/07 RMK AO2 $
53144K9L2 9L220160218201510102/18/16 20:15:31  5-MIN K9L2 190415Z AUTO 21008KT 10SM CLR 08/01 A3002 2210 58 2000 200/08 RMK AO2 $
53144K9L2 9L220160218202010102/18/16 20:20:31  5-MIN K9L2 190420Z AUTO 20007KT 10SM CLR 08/00 A3002 2210 55 2000 190/07 RMK AO2 $
53144K9L2 9L220160218202510102/18/16 20:25:31  5-MIN K9L2 190425Z AUTO 20006KT 10SM CLR 08/00 A3002 2210 55 2000 180/06 RMK AO2 $
53144K9L2 9L220160218203010102/18/16 20:30:31  5-MIN K9L2 190430Z AUTO 18006KT 10SM CLR 08/01 A3002 2210 60 1900 170/06 RMK AO2 $
53144K9L2 9L220160218203510102/18/16 20:35:31  5-MIN K9L2 190435Z AUTO 21006KT 10SM CLR 08/01 A3002 2210 62 1900 190/06 RMK AO2 $
53144K9L2 9L220160218204007202/18/16 20:40:31  5-MIN K9L2 190440Z AUTO 22006KT 10SM CLR 08/01 A3002 
53144K9L2 9L220160218204010102/18/16 20:40:31  5-MIN K9L2 190440Z AUTO 22006KT 10SM CLR 08/01 A3002 2210 62 1900 210/06 RMK AO2 $
53144K9L2 9L220160218204510102/18/16 20:45:31  5-MIN K9L2 190445Z AUTO 20008KT 10SM CLR 08/01 A3002 2210 62 1900 190/08 RMK AO2 $
53144K9L2 9L220160218205010102/18/16 20:50:31  5-MIN K9L2 190450Z AUTO 20007KT 10SM CLR 07/02 A3003 2210 68 1800 190/07 RMK AO2 $
53144K9L2 9L220160218205011802/18/16 20:50:31  5-MIN K9L2 190450Z AUTO 20007KT 10SM CLR 07/02 A3003 2200 65 1800 160/04 RMK AO2 SLP175 T00720011 $
53144K9L2 9L220160218205511802/18/16 20:55:31  5-MIN K9L2 190455Z AUTO 17004KT 10SM CLR 07/01 A3003 2200 65 1800 160/04 RMK AO2 SLP175 T00720011 $
53144K9L2 9L220160218210010102/18/16 21:00:31  5-MIN K9L2 190500Z AUTO 15005KT 10SM CLR 06/02 A3003 2200 73 1700 140/05 RMK AO2 $
53144K9L2 9L220160218210010102/18/16 21:00:31  5-MIN K9L2 190500Z AUTO 15005KT 10SM CLR 06/02 A3p0: 2200 73 1700 140/05 RMK AO2 $
53144K9L2 9L220160218210510102/18/16 21:05:31  5-MIN K9L2 190505Z AUTO 20005KT 10SM CLR 06/02 A3003 2200 73 1700 180/05 RMK AO2 $
53144K9L2 9L220160218211010102/18/16 21:10:31  5-MIN K9L2 190510Z AUTO 20004KT 10SM CLR 06/02 A3004 2190 73 1700 190/04 RMK AO2 $
53144K9L2 9L220160218211510102/18/16 21:15:31  5-MIN K9L2 190515Z AUTO 19006KT 10SM CLR 07/02 A3004 2200 70 1800 180/06 RMK AO2 $
53144K9L2 9L220160218211515902/18/16 21:15:31  5-MIN K9L2 190515Z AUTO 19006KT 10SM CLR 07/02 A3004 2200 70 1800 180/06 RMK AO2 $2200 73 1700 200/06 RMK AO2 $2200 73 1700 000/00 RMK AO2 $
53144K9L2 9L220160218212010102/18/16 21:20:31  5-MIN K9L2 190520Z AUTO 21006KT 10SM CLR 06/02 A3003 2200 73 1700 200/06 RMK AO2 $
53144K9L2 9L220160218212510102/18/16 21:25:31  5-MIN K9L2 190525Z AUTO 00000KT 10SM CLR 06/02 A3003 2200 73 1700 000/00 RMK AO2 $
53144K9L2 9L220160218213007202/18/16 21:30:31  5-MIN K9L2 190530Z AUTO 01004KT 10SM CLR 06/02 A3003 
53144K9L2 9L220160218213010102/18/16 21:30:31  5-MIN K9L2 190530Z AUTO 01004KT 10SM CLR 06/02 A3003 2200 76 1600 360/04 RMK AO2 $
53144K9L2 9L220160218213510102/18/16 21:35:31  5-MIN K9L2 190535Z AUTO 00000KT 10SM CLR 06/02 A3003 2200 76 1600 000/00 RMK AO2 $
53144K9L2 9L220160218214010102/18/16 21:40:31  5-MIN K9L2 190540Z AUTO 32004KT 10SM CLR 06/01 A3003 2200 73 1600 310/04 RMK AO2 $
53144K9L2 9L220160218214510102/18/16 21:45:31  5-MIN K9L2 190545Z AUTO 34004KT 10SM CLR 06/01 A3004 2190 70 1700 330/04 RMK AO2 $
53144K9L2 9L220160218214513002/18/16 21:45:31  5-MIN K9L2 190545Z AUTO 34004KT 10SM CLR 06/01 A3004 2190 70 1700 330/04 RMK AO2 $2190 73 1600 VRB/03 RMK AO2 $
53144K9L2 9L220160218215010102/18/16 21:50:31  5-MIN K9L2 190550Z AUTO VRB03KT 10SM CLR 06/01 A3004 2190 73 1600 VRB/03 RMK AO2 $
53144K9L2 9L220160218215513602/18/16 21:55:31  5-MIN K9L2 190555Z AUTO 14003KT 10SM CLR 06/02 A3004 2190 73 1700 120/03 RMK AO2 SLP176 T00610017 10156 20056 53008 $
53144K9L2 9L220160218220007202/18/16 22:00:31  5-MIN K9L2 190600Z AUTO 00000KT 10SM CLR 06/01 A3004 
53144K9L2 9L220160218220010102/18/16 22:00:31  5-MIN K9L2 190600Z AUTO 00000KT 10SM CLR 06/01 A3004 2190 73 1600 000/00 RMK AO2 $
53144K9L2 9L220160218220510102/18/16 22:05:31  5-MIN K9L2 190605Z AUTO 00000KT 10SM CLR 06/01 A3004 2200 73 1600 000/00 RMK AO2 $
53144K9L2 9L220160218221010102/18/16 22:10:31  5-MIN K9L2 190610Z AUTO 00000KT 10SM CLR 06/01 A3004 2190 73 1600 000/00 RMK AO2 $
53144K9L2 9L220160218221510102/18/16 22:15:31  5-MIN K9L2 190615Z AUTO 00000KT 10SM CLR 05/01 A3004 2190 76 1600 000/00 RMK AO2 $
53144K9L2 9L220160218222010102/18/16 22:20:31  5-MIN K9L2 190620Z AUTO 00000KT 10SM CLR 04/01 A3004 2200 79 1500 000/00 RMK AO2 $
53144K9L2 9L220160218222510102/18/16 22:25:31  5-MIN K9L2 190625Z AUTO 12004KT 10SLhCLR 05/01 A3004 2190 76 1600 100/04 RMK AO2 $
53144K9L2 9L220160218223010102/18/16 22:30:31  5-MIN K9L2 190630Z AUTO 00000KT 10SM CLR 05/01 A3004 2200 76 1600 000/00 RMK AO2 $
53144K9L2 9L220160218223510102/18/16 22:35:31  5-MIN K9L2 190635Z AUTO 15004KT 10SM CLR 05/01 A3004 2200 76 1600 140/04 RMK AO2 $
53144K9L2 9L220160218224010102/18/16 22:40:31  5-MIN K9L2 190640Z AUTO 00000KT 10SM CLR 05/01 A3004 2200 76 1600 000/00 RMK AO2 $
53144K9L2 9L220160218225010102/18/16 22:50:31  5-MIN K9L2 190650Z AUTO 21003KT 10SM CLR 04/01 A3003 2200 79 1400 200/03 RMK AO2 $
53144K9L2 9L220160218225523402/18/16 22:55:31  5-MIN K9L2 190655Z AUTO 00000KT 10SM CLR 04/01 A3004 2200 79 1400 000/00 RMK AO2 SLP176 T00390006 $2200 79 1500 170/05 RMK AO2 $2200 82 1400 190/05 RMK AO2 $2190 79 1400 000/00 RMK AO2 $2200 76 1500 000/00 RMK AO2 $
53144K9L2 9L220160218232513002/18/16 23:25:31  5-MIN K9L2 190725Z AUTO 00000KT 10SM CLR 04/01 A3003 2200 79 1400 000/00 RMK AO2 $2200 79 1400 000/00 RMK AO2 $
53144K9L2 9L220160218233510102/18/16 23:35:31  5-MIN K9L2 190735Z AUTO 00000KT 10SM CLR 03/01 A3003 2200 82 1400 000/00 RMK AO2 $
53144K9L2 9L220160218234010102/18/16 23:40:31  5-MIN K9L2 190740Z AUTO 00000KT 10SM CLR 04/01 A3003 2200 79 1400 150/04 RMK AO2 $
53144K9L2 9L220160218235007202/18/16 23:50:31  5-MIN K9L2 190750Z AUTO 19004KT 10SM CLR 04/01 A3003 
53144K9L2 9L220160218235512802/18/16 23:55:31  5-MIN K9L2 190755Z AUTO 00000KT 10SM CLR 04/01 A3003 2200 79 1400 000/00 RMK AO2 SLP172 T00390006 401720033 $
53144K9L2 9L220160219000010102/19/16 00:00:31  5-MIN K9L2 190800Z AUTO 01004KT 10SM CLR 03/00 A3003 2200 82 1300 360/04 RMK AO2 $
53144K9L2 9L220160219000510902/19/16 00:05:31  5-MIN K9L2 190805Z AUTO 01003KT 10SM CLR 02/M01 A3003 2200 82 1200 360/03 RMK AO2 FZRANO $
53144K9L2 9L220160219001007302/19/16 00:10:31  5-MIN K9L2 190810Z AUTO 00000KT 10SM CLR 02/M01 A3003 
53144K9L2 9L220160219001510902/19/16 00:15:31  5-MIN K9L2 190815Z AUTO 03005KT 10SM CLR 02/M01 A3003 2200 82 1200 020/05 RMK AO2 FZRANO $
53144K9L2 9L220160219002010902/19/16 00:20:31  5-MIN K9L2 190820Z AUTO 00000KT 10SM CLR 02/M01 A3002 2210 82 1200 000/00 RMK AO2 FZRANO $
53144K9L2 9L220160219002514502/19/16 00:25:31  5-MIN K9L2 190825Z AUTO 00000KT 10SM CLR 02/M01 A3002 2210 82 1200 000/00 RMK AO2 FZRANO $2210 82 1200 000/00 RMK AO2 FZRANO $
53144K9L2 9L220160219003510902/19/16 00:35:31  5-MIN K9L2 190835Z AUTO 00000KT 10SM CLR 02/M01 A3003 2200 85 1200 000/00 RMK AO2 FZRANO $
53144K9L2 9L220160219004510902/19/16 00:45:31  5-MIN K9L2 190845Z AUTO 00000KT 10SM CLR 02/M01 A3003 2200 85 1200 000/00 RMK AO2 FZRANO $
53144K9L2 9L220160219005013202/19/16 00:50:31  5-MIN K9L2 190850Z AUTO 31003KT 10SM CLR 02/M01 A3003 2200 85 1100 000/00 RMK AO2 SLP174 T00111011 51014 FZRANO $
53144K9L2 9L220160219010014502/19/16 01:00:31  5-MIN K9L2 190900Z AUTO 01003KT 10SM CLR 02/M01 A3003 2200 82 1200 340/03 RMK AO2 FZRANO $2200 85 1100 330/03 RMK AO2 FZRANO $
53144K9L2 9L220160219011514502/19/16 01:15:31  5-MIN K9L2 190915Z AUTO 00000KT 10SM CLR 02/M01 A3003 2200 85 1200 000/00 RMK AO2 FZRANO $2200 85 1200 300/03 RMK AO2 FZRANO $
53144K9L2 9L220160219012510902/19/16 01:25:31  5-MIN K9L2 190925Z AUTO 00000KT 10SM CLR 02/M01 A3003 2200 85 1200 000/00 RMK AO2 FZRANO $
53144K9L2 9L220160219013014502/19/16 01:30:31  5-MIN K9L2 190930Z AUTO 00000KT 10SM CLR 02/M01 A3003 2200 85 1200 000/00 RMK AO2 FZRANO $2200 82 1200 000/00 RMK AO2 FZRANO $
53144K9L2 9L220160219014510902/19/16 01:45:31  5-MIN K9L2 190945Z AUTO 00000KT 10SM CLR 01/M01 A3003 2200 89 1100 000/00 RMK AO2 FZRANO $
53144K9L2 9L220160219015516202/19/16 01:55:31  5-MIN K9L2 190955Z AUTO 00000KT 10SM CLR 01/M01 A3003 2200 85 1100 000/00 RMK AO2 SLP175 T00111011 FZRANO $2200 85 1100 000/00 RMK AO2 FZRANO $
53144K9L2 9L220160219035510402/19/16 03:55:31  5-MIN K9L2 191155Z AUTO 00000KT 10SM 00/M02 A3004 2190 96 900 000/00 RMK AO2 FZRANO $
53144K9L2 9L220160219040510502/19/16 04:05:31  5-MIN K9L2 191205Z AUTO 00000KT 10SM 01/M01 A3003 2200 92 1000 000/00 RMK AO2 FZRANO $
53144K9L2 9L220160219041010502/19/16 04:10:31  5-MIN K9L2 191210Z AUTO 00000KT 10SM 00/M01 A3003 2210 85 1000 000/00 RMK AO2 FZRANO $
53144K9L2 9L220160219042010902/19/16 04:20:31  5-MIN K9L2 191220Z AUTO 00000KT 10SM CLR 00/M02 A3002 2210 85 1000 000/00 RMK AO2 FZRANO $
53144K9L2 9L220160219042510902/19/16 04:25:31  5-MIN K9L2 191225Z AUTO 00000KT 10SM CLR 00/M02 A3002 2210 85 1000 000/00 RMK AO2 FZRANO $
53144K9L2 9L220160219043010902/19/16 04:30:31  5-MIN K9L2 191230Z AUTO 30003KT 10SM CLR M01/M03 A3002 2210 85 900 290/03 RMK AO2 FZRANO $
53144K9L2 9L220160219043510902/19/16 04:35:31  5-MIN K9L2 191235Z AUTO 00000KT 10SM CLR 00/M02 A3002 2210 85 1000 000/00 RMK AO2 FZRANO $
53144K9L2 9L220160219044510902/19/16 04:45:31  5-MIN K9L2 191245Z AUTO 00000KT 10SM CLR 01/M02 A3002 2210 85 1000 000/00 RMK AO2 FZRANO $
53144K9L2 9L220160219045010902/19/16 04:50:31  5-MIN K9L2 191250Z AUTO 00000KT 10SM CLR 00/M02 A3002 2210 85 1000 000/00 RMK AO2 FZRANO $
53144K9L2 9L220160219050010802/19/16 05:00:31  5-MIN K9L2 191300Z AUTO 32005KT 10SM CLR 00/M03 A3003 2200 81 900 310/05 RMK AO2 FZRANO $
53144K9L2 9L220160219050510902/19/16 05:05:31  5-MIN K9L2 191305Z AUTO 33005KT 10SM CLR M01/M03 A3003 2200 85 900 310/05 RMK AO2 FZRANO $
53144K9L2 9L220160219051014402/19/16 05:10:31  5-MIN K9L2 191310Z AUTO 31005KT 10SM CLR M01/M02 A3004 2190 88 900 300/05 RMK AO2 FZRANO $2190 85 900 320/03 RMK AO2 FZRANO $
53144K9L2 9L220160219052010802/19/16 05:20:31  5-MIN K9L2 191320Z AUTO 32005KT 10SM CLR 00/M02 A3004 2190 85 900 310/05 RMK AO2 FZRANO $
53144K9L2 9L220160219052510802/19/16 05:25:31  5-MIN K9L2 191325Z AUTO 32004KT 10SM CLR 00/M02 A3004 2190 85 900 310/04 RMK AO2 FZRANO $
53144K9L2 9L220160219053010802/19/16 05:30:31  5-MIN K9L2 191330Z AUTO 33004KT 10SM CLR 00/M02 A3004 2190 85 900 320/04 RMK AO2 FZRANO $
53144K9L2 9L220160219053514302/19/16 05:35:31  5-MIN K9L2 191335Z AUTO 33004KT 10SM CLR 00/M02 A3004 2190 85 900 320/04 RMK AO2 FZRANO $2190 85 900 330/04 RMK AO2 FZRANO $
53144K9L2 9L220160219054510802/19/16 05:45:31  5-MIN K9L2 191345Z AUTO 36003KT 10SM CLR 00/M02 A3005 2180 85 900 350/03 RMK AO2 FZRANO $
53144K9L2 9L220160219055019502/19/16 05:50:31  5-MIN K9L2 191350Z AUTO 00000KT 10SM CLR 00/M02 A3005 2180 85 900 000/00 RMK AO2 FZRANO $2190 85 900 000/00 RMK AO2 SLP182 T00001022 FZRANO $2180 85 900 000/00 RMK AO2 FZRANO $
53144K9L2 9L220160219060010802/19/16 06:00:31  5-MIN K9L2 191400Z AUTO 00000KT 10SM CLR 00/M02 A3005 2180 85 900 000/00 RMK AO2 FZRANO $
53144K9L2 9L220160219060510802/19/16 06:05:31  5-MIN K9L2 191405Z AUTO 00000KT 10SM CLR 00/M03 A3005 2190 81 900 000/00 RMK AO2 FZRANO $
53144K9L2 9L220160219061010802/19/16 06:10:31  5-MIN K9L2 191410Z AUTO 00000KT 10SM CLR 00/M03 A3005 2180 81 900 000/00 RMK AO2 FZRANO $
53144K9L2 9L220160219061510802/19/16 06:15:31  5-MIN K9L2 191415Z AUTO 01003KT 10SM CLR 00/M03 A3005 2180 81 900 350/03 RMK AO2 FZRANO $
53144K9L2 9L220160219061514302/19/16 06:15:31  5-MIN K9L2 191415Z AUTO 01003KT 10SM CLR 00/M03 A3005 2180 81 900 350/03 RMK AO2 FZRANO $2180 85 900 000/00 RMK AO2 FZRANO $
53144K9L2 9L220160219062010902/19/16 06:20:31  5-MIN K9L2 191420Z AUTO 00000KT 10SM CLR M01/M03 A3005 2180 85 900 000/00 RMK AO2 FZRANO $
53144K9L2 9L220160219062510902/19/16 06:25:31  5-MIN K9L2 191425Z AUTO 00000KT 10SM CLR M01/M03 A3005 2180 85 900 000/00 RMK AO2 FZRANO $
53144K9L2 9L220160219063007402/19/16 06:30:31  5-MIN K9L2 191430Z AUTO 00000KT 10SM CLR M01/M03 A3005 
53144K9L2 9L220160219063010902/19/16 06:30:31  5-MIN K9L2 191430Z AUTO 00000KT 10SM CLR M01/M03 A3005 2180 85 900 000/00 RMK AO2 FZRANO $
53144K9L2 9L220160219063510802/19/16 06:35:31  5-MIN K9L2 191435Z AUTO 00000KT 10SM CLR 00/M03 A3005 2180 81 900 000/00 RMK AO2 FZRANO $
53144K9L2 9L220160219064010802/19/16 06:40:31  5-MIN K9L2 191440Z AUTO 00000KT 10SM CLR 00/M03 A3005 2180 81 900 000/00 RMK AO2 FZRANO $
53144K9L2 9L220160219064510802/19/16 06:45:31  5-MIN K9L2 191445Z AUTO 00000KT 10SM CLR 00/M02 A3005 2180 85 900 000/00 RMK AO2 FZRANO $
53144K9L2 9L220160219065010802/19/16 06:50:31  5-MIN K9L2 191450Z AUTO 15003KT 10SM CLR 00/M02 A3005 2180 85 900 140/03 RMK AO2 FZRANO $
53144K9L2 9L220160219065512502/19/16 06:55:31  5-MIN K9L2 191455Z AUTO 00000KT 10SM CLR 00/M02 A3005 2180 85 900 000/00 RMK AO2 SLP186 T00001022 FZRANO $
53144K9L2 9L220160219070010802/19/16 07:00:31  5-MIN K9L2 191500Z AUTO 00000KT 10SM CLR 00/M02 A3006 2180 85 900 000/00 RMK AO2 FZRANO $
53144K9L2 9L220160219070510802/19/16 07:05:31  5-MIN K9L2 191505Z AUTO 00000KT 10SM CLR 00/M02 A3006 2170 85 900 000/00 RMK AO2 FZRANO $
53144K9L2 9L220160219071010902/19/16 07:10:31  5-MIN K9L2 191510Z AUTO 00000KT 10SM CLR 01/M02 A3006 2170 85 1000 000/00 RMK AO2 FZRANO $
53144K9L2 9L220160219071510902/19/16 07:15:31  5-MIN K9L2 191515Z AUTO 00000KT 10SM CLR 01/M01 A3006 2170 85 1100 000/00 RMK AO2 FZRANO $
53144K9L2 9L220160219072010902/19/16 07:20:31  5-MIN K9L2 191520Z AUTO 00000KT 10SM CLR 01/M01 A3006 2170 92 1000 000/00 RMK AO2 FZRANO $
53144K9L2 9L220160219072510902/19/16 07:25:31  5-MIN K9L2 191525Z AUTO 00000KT 10SM CLR 01/M01 A3006 2170 85 1100 000/00 RMK AO2 FZRANO $
53144K9L2 9L220160219073010902/19/16 07:30:31  5-MIN K9L2 191530Z AUTO 00000KT 10SM CLR 02/M01 A3006 2170 82 1100 000/00 RMK AO2 FZRANO $
53144K9L2 9L220160219073510902/19/16 07:35:31  5-MIN K9L2 191535Z AUTO 00000KT 10SM CLR 02/M01 A3006 2170 82 1100 000/00 RMK AO2 FZRANO $
53144K9L2 9L220160219074010902/19/16 07:40:31  5-MIN K9L2 191540Z AUTO 00000KT 10SM CLR 02/M01 A3007 2170 82 1200 000/00 RMK AO2 FZRANO $
53144K9L2 9L220160219074510902/19/16 07:45:31  5-MIN K9L2 191545Z AUTO 00000KT 10SM CLR 02/M01 A3007 2160 82 1200 000/00 RMK AO2 FZRANO $
53144K9L2 9L220160219075010202/19/16 07:50:31  5-MIN K9L2 191550Z AUTO 00000KT 10SM CLR 03/M01 A3007 2160 76 1300 000/00 RMK AO2 $
53144K9L2 9L220160219075511902/19/16 07:55:31  5-MIN K9L2 191555Z AUTO 00000KT 10SM CLR 03/M01 A3007 2160 76 1300 000/00 RMK AO2 SLP191 T00331006 $
53144K9L2 9L220160219080010102/19/16 08:00:31  5-MIN K9L2 191600Z AUTO 00000KT 10SM CLR 03/00 A3008 2160 79 1300 000/00 RMK AO2 $
53144K9L2 9L220160219080510102/19/16 08:05:31  5-MIN K9L2 191605Z AUTO 00000KT 10SM CLR 03/00 A3007 2160 82 1200 000/00 RMK AO2 $
53144K9L2 9L220160219081010102/19/16 08:10:31  5-MIN K9L2 191610Z AUTO 00000KT 10SM CLR 03/00 A3008 2160 79 1300 000/00 RMK AO2 $
53144K9L2 9L220160219081510102/19/16 08:15:31  5-MIN K9L2 191615Z AUTO 00000KT 10SM CLR 04/01 A3008 2160 79 1400 000/00 RMK AO2 $
53144K9L2 9L220160219082010102/19/16 08:20:31  5-MIN K9L2 191620Z AUTO 00000KT 10SM CLR 04/01 A3008 2160 76 1400 000/00 RMK AO2 $
53144K9L2 9L220160219082510102/19/16 08:25:31  5-MIN K9L2 191625Z AUTO 00000KT 10SM CLR 05/01 A3008 2160 73 1500 000/00 RMK AO2 $
53144K9L2 9L220160219083010102/19/16 08:30:31  5-MIN K9L2 191630Z AUTO 00000KT 10SM CLR 06/01 A3008 2150 70 1600 000/00 RMK AO2 $
53144K9L2 9L220160219083510102/19/16 08:35:31  5-MIN K9L2 191635Z AUTO 36003KT 10SM CLR 06/01 A3008 2150 70 1600 350/03 RMK AO2 $
53144K9L2 9L220160219084010102/19/16 08:40:31  5-MIN K9L2 191640Z AUTO 36003KT 10SM CLR 06/01 A3009 2150 70 1600 350/03 RMK AO2 $
53144K9L2 9L220160219084510102/19/16 08:45:31  5-MIN K9L2 191645Z AUTO 36004KT 10SM CLR 07/01 A3009 2150 67 1700 350/04 RMK AO2 $
53144K9L2 9L220160219085010102/19/16 08:50:31  5-MIN K9L2 191650Z AUTO 00000KT 10SM CLR 07/01 A3008 2150 67 1700 000/00 RMK AO2 $
53144K9L2 9L220160219085511802/19/16 08:55:31  5-MIN K9L2 191655Z AUTO 00000KT 10SM CLR 07/01 A3008 2150 67 1700 000/00 RMK AO2 SLP193 T00670011 $
53144K9L2 9L220160219090010102/19/16 09:00:31  5-MIN K9L2 191700Z AUTO 03003KT 10SM CLR 07/02 A3008 2150 68 1800 010/03 RMK AO2 $
53144K9L2 9L220160219090510102/19/16 09:05:31  5-MIN K9L2 191705Z AUTO 00000KT 10SM CLR 07/02 A3008 2150 68 1800 000/00 RMK AO2 $
53144K9L2 9L220160219091010102/19/16 09:10:31  5-MIN K9L2 191710Z AUTO 00000KT 10SM CLR 08/02 A3008 2150 65 1800 000/00 RMK AO2 $
53144K9L2 9L220160219091510102/19/16 09:15:31  5-MIN K9L2 191715Z AUTO 00000KT 10SM CLR 07/02 A3008 2150 68 1800 000/00 RMK AO2 $
53144K9L2 9L220160219092010102/19/16 09:20:31  5-MIN K9L2 191720Z AUTO 00000KT 10SM CLR 08/02 A3008 2150 65 1800 000/00 RMK AO2 $
53144K9L2 9L220160219092510102/19/16 09:25:31  5-MIN K9L2 191725Z AUTO 11003KT 10SM CLR 07/02 A3009 2150 68 1800 090/03 RMK AO2 $
53144K9L2 9L220160219093010102/19/16 09:30:31  5-MIN K9L2 191730Z AUTO 00000KT 10SM CLR 08/02 A3009 2150 65 1800 000/00 RMK AO2 $
53144K9L2 9L220160219093510102/19/16 09:35:31  5-MIN K9L2 191735Z AUTO 00000KT 10SM CLR 08/02 A3009 2150 65 1800 000/00 RMK AO2 $
53144K9L2 9L220160219094010102/19/16 09:40:31  5-MIN K9L2 191740Z AUTO 00000KT 10SM CLR 08/02 A3009 2150 65 1800 000/00 RMK AO2 $
53144K9L2 9L220160219094510102/19/16 09:45:31  5-MIN K9L2 191745Z AUTO 00000KT 10SM CLR 08/02 A3009 2140 65 1800 000/00 RMK AO2 $
53144K9L2 9L220160219095010102/19/16 09:50:31  5-MIN K9L2 191750Z AUTO 00000KT 10SM CLR 08/02 A3010 2140 65 1900 000/00 RMK AO2 $
53144K9L2 9L220160219095513602/19/16 09:55:31  5-MIN K9L2 191755Z AUTO 00000KT 10SM CLR 08/02 A3009 2140 65 1900 000/00 RMK AO2 SLP197 T00830022 10083 21006 53005 $
53144K9L2 9L220160219100010102/19/16 10:00:31  5-MIN K9L2 191800Z AUTO 14003KT 10SM CLR 09/02 A3009 2140 63 2000 130/03 RMK AO2 $
53144K9L2 9L220160219100510102/19/16 10:05:31  5-MIN K9L2 191805Z AUTO 15003KT 10SM CLR 09/02 A3009 2140 63 2000 130/03 RMK AO2 $
53144K9L2 9L220160219101010102/19/16 10:10:31  5-MIN K9L2 191810Z AUTO 00000KT 10SM CLR 09/02 A3009 2140 63 2000 000/00 RMK AO2 $
53144K9L2 9L220160219101510102/19/16 10:15:31  5-MIN K9L2 191815Z AUTO 00000KT 10SM CLR 09/03 A3010 2140 63 2000 000/00 RMK AO2 $
53144K9L2 9L220160219102010102/19/16 10:20:31  5-MIN K9L2 191820Z AUTO 10003KT 10SM CLR 09/03 A3010 2140 63 2000 090/03 RMK AO2 $
53144K9L2 9L220160219102510102/19/16 10:25:31  5-MIN K9L2 191825Z AUTO 00000KT 10SM CLR 10/03 A3010 2140 60 2100 000/00 RMK AO2 $
53144K9L2 9L220160219103010102/19/16 10:30:31  5-MIN K9L2 191830Z AUTO 00000KT 10SM CLR 11/03 A3010 2140 58 2100 000/00 RMK AO2 $
53144K9L2 9L220160219103510102/19/16 10:35:31  5-MIN K9L2 191835Z AUTO 00000KT 10SM CLR 11/03 A3010 2140 61 2100 000/00 RMK AO2 $
53144K9L2 9L220160219104010102/19/16 10:40:31  5-MIN K9L2 191840Z AUTO 00000KT 10SM CLR 11/03 A3010 2140 58 2200 000/00 RMK AO2 $
53144K9L2 9L220160219104510102/19/16 10:45:31  5-MIN K9L2 191845Z AUTO 00000KT 10SM CLR 11/03 A3010 2140 58 2200 000/00 RMK AO2 $
53144K9L2 9L220160219105010102/19/16 10:50:31  5-MIN K9L2 191850Z AUTO 14003KT 10SM CLR 12/04 A3010 2130 58 2300 120/03 RMK AO2 $
53144K9L2 9L220160219105511802/19/16 10:55:31  5-MIN K9L2 191855Z AUTO 15003KT 10SM CLR 12/04 A3010 2140 58 2300 140/03 RMK AO2 SLP198 T01170039 $
53144K9L2 9L220160219110010102/19/16 11:00:31  5-MIN K9L2 191900Z AUTO 13004KT 10SM CLR 12/04 A3010 2140 58 2300 120/04 RMK AO2 $
53144K9L2 9L220160219110510102/19/16 11:05:31  5-MIN K9L2 191905Z AUTO 12004KT 10SM CLR 12/04 A3010 2140 59 2300 110/04 RMK AO2 $
53144K9L2 9L220160219111010102/19/16 11:10:31  5-MIN K9L2 191910Z AUTO 11005KT 10SM CLR 12/04 A3009 2140 59 2400 100/05 RMK AO2 $
53144K9L2 9L220160219111510102/19/16 11:15:31  5-MIN K9L2 191915Z AUTO 11004KT 10SM CLR 13/04 A3009 2150 54 2500 100/04 RMK AO2 $
53144K9L2 9L220160219112010102/19/16 11:20:31  5-MIN K9L2 191920Z AUTO 14004KT 10SM CLR 13/04 A3008 2150 54 2500 130/04 RMK AO2 $
53144K9L2 9L220160219112510102/19/16 11:25:31  5-MIN K9L2 191925Z AUTO 14005KT 10SM CLR 14/04 A3008 2150 50 2600 120/05 RMK AO2 $
53144K9L2 9L220160219113010102/19/16 11:30:31  5-MIN K9L2 191930Z AUTO VRB05KT 10SM CLR 15/03 A3007 2160 45 2700 VRB/05 RMK AO2 $
53144K9L2 9L220160219113511702/19/16 11:35:31  5-MIN K9L2 191935Z AUTO 25008KT 210V290 10SM CLR 17/01 A3007 2160 33 2900 240/08 200V280 RMK AO2 $
53144K9L2 9L220160219114010202/19/16 11:40:31  5-MIN K9L2 191940Z AUTO 23010KT 10SM CLR 17/M02 A3008 2160 27 3000 220/10 RMK AO2 $
53144K9L2 9L220160219114510202/19/16 11:45:31  5-MIN K9L2 191945Z AUTO 26008KT 10SM CLR 18/M01 A3008 2160 28 3000 250/08 RMK AO2 $
53144K9L2 9L220160219115010202/19/16 11:50:31  5-MIN K9L2 191950Z AUTO 25007KT 10SM CLR 17/M01 A3007 2160 28 3000 240/07 RMK AO2 $
53144K9L2 9L220160219115511802/19/16 11:55:31  5-MIN K9L2 191955Z AUTO 21004KT 10SM CLR 18/01 A3007 2170 31 3000 200/04 RMK AO2 SLP182 T01780006 $
53144K9L2 9L220160219120010102/19/16 12:00:31  5-MIN K9L2 192000Z AUTO 23006KT 10SM CLR 17/00 A3006 2170 31 3000 220/06 RMK AO2 $
53144K9L2 9L220160219120510102/19/16 12:05:31  5-MIN K9L2 192005Z AUTO 24007KT 10SM CLR 18/00 A3006 2170 30 3000 230/07 RMK AO2 $
53144K9L2 9L220160219121010202/19/16 12:10:31  5-MIN K9L2 192010Z AUTO 22009KT 10SM CLR 18/M01 A3006 2170 28 3000 200/09 RMK AO2 $
53144K9L2 9L220160219121510202/19/16 12:15:31  5-MIN K9L2 192015Z AUTO 21005KT 10SM CLR 18/M02 A3006 2170 26 3000 200/05 RMK AO2 $
53144K9L2 9L220160219122010802/19/16 12:20:31  5-MIN K9L2 192020Z AUTO 24010G14KT 10SM CLR 18/M01 A3007 2170 26 3100 230/10G14 RMK AO2 $
53144K9L2 9L220160219122510702/19/16 12:25:31  5-MIN K9L2 192025Z AUTO 25011G16KT 10SM CLR 18/00 A3007 2170 30 3000 240/11G16 RMK AO2 $
53144K9L2 9L220160219123010702/19/16 12:30:31  5-MIN K9L2 192030Z AUTO 23012G16KT 10SM CLR 18/01 A3006 2170 30 3100 210/12G16 RMK AO2 $
53144K9L2 9L220160219123510102/19/16 12:35:31  5-MIN K9L2 192035Z AUTO 21010KT 10SM CLR 18/01 A3006 2170 30 3100 200/10 RMK AO2 $
53144K9L2 9L220160219124010702/19/16 12:40:31  5-MIN K9L2 192040Z AUTO 25006G15KT 10SM CLR 18/01 A3006 2170 30 3100 240/06G15 RMK AO2 $
53144K9L2 9L220160219124510102/19/16 12:45:31  5-MIN K9L2 192045Z AUTO 23011KT 10SM CLR 18/00 A3006 2180 29 3100 220/11 RMK AO2 $
53144K9L2 9L220160219125010202/19/16 12:50:31  5-MIN K9L2 192050Z AUTO 25003KT 10SM CLR 18/M01 A3006 2180 27 3100 240/03 RMK AO2 $
53144K9L2 9L220160219125512502/19/16 12:55:31  5-MIN K9L2 192055Z AUTO 23008KT 10SM CLR 18/M01 A3005 2180 27 3100 210/08 RMK AO2 SLP178 T01831006 51013 $
53144K9L2 9L220160219130010802/19/16 13:00:31  5-MIN K9L2 192100Z AUTO 25009G15KT 10SM CLR 19/M01 A3005 2180 25 3200 240/09G15 RMK AO2 $
53144K9L2 9L220160219130510202/19/16 13:05:31  5-MIN K9L2 192105Z AUTO 25009KT 10SM CLR 19/M01 A3005 2180 25 3200 240/09 RMK AO2 $
53144K9L2 9L220160219131010202/19/16 13:10:31  5-MIN K9L2 192110Z AUTO 25011KT 10SM CLR 19/M01 A3005 2180 26 3200 240/11 RMK AO2 $
53144K9L2 9L220160219131510202/19/16 13:15:31  5-MIN K9L2 192115Z AUTO 25012KT 10SM CLR 19/M01 A3005 2190 26 3200 230/12 RMK AO2 $
53144K9L2 9L220160219132010102/19/16 13:20:31  5-MIN K9L2 192120Z AUTO 27007KT 10SM CLR 19/00 A3004 2190 28 3200 250/07 RMK AO2 $
53144K9L2 9L220160219132510202/19/16 13:25:31  5-MIN K9L2 192125Z AUTO 25007KT 10SM CLR 19/M01 A3004 2190 26 3200 230/07 RMK AO2 $
53144K9L2 9L220160219133010802/19/16 13:30:31  5-MIN K9L2 192130Z AUTO 28012G16KT 10SM CLR 19/M03 A3004 2190 22 3300 270/12G16 RMK AO2 $
53144K9L2 9L220160219133510802/19/16 13:35:31  5-MIN K9L2 192135Z AUTO 25008G16KT 10SM CLR 19/M03 A3004 2200 21 3300 230/08G16 RMK AO2 $
53144K9L2 9L220160219134011802/19/16 13:40:31  5-MIN K9L2 192140Z AUTO 23008KT 210V280 10SM CLR 19/M04 A3003 2200 21 3200 220/08 200V270 RMK AO2 $
53144K9L2 9L220160219134510202/19/16 13:45:31  5-MIN K9L2 192145Z AUTO 23009KT 10SM CLR 19/M02 A3003 2200 23 3300 210/09 RMK AO2 $
53144K9L2 9L220160219135010202/19/16 13:50:31  5-MIN K9L2 192150Z AUTO 22008KT 10SM CLR 19/M02 A3003 2200 23 3200 210/08 RMK AO2 $
53144K9L2 9L220160219135511902/19/16 13:55:31  5-MIN K9L2 192155Z AUTO 23010KT 10SM CLR 19/M04 A3003 2200 19 3300 210/10 RMK AO2 SLP169 T01941044 $
53144K9L2 9L220160219140010202/19/16 14:00:31  5-MIN K9L2 192200Z AUTO 22009KT 10SM CLR 19/M04 A3003 2200 19 3300 210/09 RMK AO2 $
53144K9L2 9L220160219140510202/19/16 14:05:31  5-MIN K9L2 192205Z AUTO 25007KT 10SM CLR 19/M02 A3003 2200 23 3300 240/07 RMK AO2 $
53144K9L2 9L220160219141010202/19/16 14:10:31  5-MIN K9L2 192210Z AUTO 24007KT 10SM CLR 19/M02 A3003 2200 24 3300 230/07 RMK AO2 $
53144K9L2 9L220160219141510802/19/16 14:15:31  5-MIN K9L2 192215Z AUTO 25008G14KT 10SM CLR 19/M01 A3002 2210 25 3300 230/08G14 RMK AO2 $
53144K9L2 9L220160219142010202/19/16 14:20:31  5-MIN K9L2 192220Z AUTO 25007KT 10SM CLR 19/M01 A3002 2210 25 3300 230/07 RMK AO2 $
53144K9L2 9L220160219142512402/19/16 14:25:31  5-MIN K9L2 192225Z AUTO 24009G19KT 210V280 10SM CLR 19/M01 A3002 2210 26 3300 220/09G19 200V270 RMK AO2 $
53144K9L2 9L220160219143010802/19/16 14:30:31  5-MIN K9L2 192230Z AUTO 25006G19KT 10SM CLR 19/M01 A3002 2210 26 3300 240/06G19 RMK AO2 $
53144K9L2 9L220160219143510102/19/16 14:35:31  5-MIN K9L2 192235Z AUTO 26010KT 10SM CLR 20/00 A3002 2210 26 3300 240/10 RMK AO2 $
53144K9L2 9L220160219144010202/19/16 14:40:31  5-MIN K9L2 192240Z AUTO 26009KT 10SM CLR 20/M01 A3002 2210 25 3300 250/09 RMK AO2 $
53144K9L2 9L220160219144510102/19/16 14:45:31  5-MIN K9L2 192245Z AUTO 26012KT 10SM CLR 19/00 A3002 2210 27 3300 240/12 RMK AO2 $
53144K9L2 9L220160219145010102/19/16 14:50:31  5-MIN K9L2 192250Z AUTO 27008KT 10SM CLR 19/00 A3002 2210 27 3300 260/08 RMK AO2 $
53144K9L2 9L220160219145511802/19/16 14:55:31  5-MIN K9L2 192255Z AUTO 27011KT 10SM CLR 20/00 A3002 2210 26 3300 250/11 RMK AO2 SLP166 T02000000 $
53144K9L2 9L220160219150010102/19/16 15:00:31  5-MIN K9L2 192300Z AUTO 23007KT 10SM CLR 19/00 A3001 2220 27 3300 220/07 RMK AO2 $
53144K9L2 9L220160219150510702/19/16 15:05:31  5-MIN K9L2 192305Z AUTO 25011G16KT 10SM CLR 20/00 A3001 2220 26 3300 240/11G16 RMK AO2 $
53144K9L2 9L220160219151010102/19/16 15:10:31  5-MIN K9L2 192310Z AUTO 24011KT 10SM CLR 20/00 A3001 2220 26 3300 230/11 RMK AO2 $
53144K9L2 9L220160219151510202/19/16 15:15:31  5-MIN K9L2 192315Z AUTO 24013KT 10SM CLR 20/M01 A3001 2220 25 3300 220/13 RMK AO2 $
53144K9L2 9L220160219152010202/19/16 15:20:31  5-MIN K9L2 192320Z AUTO 22013KT 10SM CLR 19/M02 A3001 2220 24 3300 210/13 RMK AO2 $
53144K9L2 9L220160219152510802/19/16 15:25:31  5-MIN K9L2 192325Z AUTO 23013G19KT 10SM CLR 19/M02 A3001 2220 23 3300 220/13G19 RMK AO2 $
53144K9L2 9L220160219153010802/19/16 15:30:31  5-MIN K9L2 192330Z AUTO 23013G19KT 10SM CLR 19/M02 A3001 2220 23 3300 210/13G19 RMK AO2 $
53144K9L2 9L220160219153510202/19/16 15:35:31  5-MIN K9L2 192335Z AUTO 23012KT 10SM CLR 19/M02 A3001 2220 23 3300 210/12 RMK AO2 $
53144K9L2 9L220160219154010202/19/16 15:40:31  5-MIN K9L2 192340Z AUTO 23013KT 10SM CLR 19/M02 A3001 2220 23 3300 220/13 RMK AO2 $
53144K9L2 9L220160219154510202/19/16 15:45:31  5-MIN K9L2 192345Z AUTO 22014KT 10SM CLR 19/M02 A3001 2220 23 3300 210/14 RMK AO2 $
53144K9L2 9L220160219155010202/19/16 15:50:31  5-MIN K9L2 192350Z AUTO 23012KT 10SM CLR 19/M02 A3001 2220 24 3300 220/12 RMK AO2 $
53144K9L2 9L220160219155513702/19/16 15:55:31  5-MIN K9L2 192355Z AUTO 25013KT 10SM CLR 19/M01 A3001 2220 25 3300 230/13 RMK AO2 SLP165 T01941011 10200 20089 58013 $
53144K9L2 9L220160219160010202/19/16 16:00:31  5-MIN K9L2 200000Z AUTO 25012KT 10SM CLR 19/M01 A3001 2220 25 3300 230/12 RMK AO2 $
53144K9L2 9L220160219160510202/19/16 16:05:31  5-MIN K9L2 200005Z AUTO 24012KT 10SM CLR 19/M02 A3001 2220 24 3200 230/12 RMK AO2 $
53144K9L2 9L220160219161010202/19/16 16:10:31  5-MIN K9L2 200010Z AUTO 24013KT 10SM CLR 19/M02 A3001 2220 23 3200 230/13 RMK AO2 $
53144K9L2 9L220160219161510202/19/16 16:15:31  5-MIN K9L2 200015Z AUTO 24012KT 10SM CLR 19/M02 A3001 2220 23 3200 230/12 RMK AO2 $
53144K9L2 9L220160219162010202/19/16 16:20:31  5-MIN K9L2 200020Z AUTO 25012KT 10SM CLR 19/M02 A3001 2220 24 3200 240/12 RMK AO2 $
53144K9L2 9L220160219162510802/19/16 16:25:31  5-MIN K9L2 200025Z AUTO 25015G19KT 10SM CLR 19/M02 A3001 2220 23 3200 240/15G19 RMK AO2 $
53144K9L2 9L220160219163010202/19/16 16:30:31  5-MIN K9L2 200030Z AUTO 25016KT 10SM CLR 19/M03 A3001 2220 22 3200 230/16 RMK AO2 $
53144K9L2 9L220160219163510202/19/16 16:35:31  5-MIN K9L2 200035Z AUTO 25014KT 10SM CLR 19/M02 A3001 2220 23 3200 240/14 RMK AO2 $
53144K9L2 9L220160219164010202/19/16 16:40:31  5-MIN K9L2 200040Z AUTO 24014KT 10SM CLR 18/M02 A3001 2220 25 3200 230/14 RMK AO2 $
53144K9L2 9L220160219164510202/19/16 16:45:31  5-MIN K9L2 200045Z AUTO 25013KT 10SM CLR 18/M02 A3001 2220 25 3200 230/13 RMK AO2 $
53144K9L2 9L220160219165010202/19/16 16:50:31  5-MIN K9L2 200050Z AUTO 24009KT 10SM CLR 18/M02 A3001 2220 25 3200 230/09 RMK AO2 $
53144K9L2 9L220160219165511902/19/16 16:55:31  5-MIN K9L2 200055Z AUTO 24012KT 10SM CLR 18/M01 A3001 2220 27 3200 230/12 RMK AO2 SLP166 T01831006 $
53144K9L2 9L220160219170010102/19/16 17:00:31  5-MIN K9L2 200100Z AUTO 24013KT 10SM CLR 18/00 A3001 2220 30 3100 230/13 RMK AO2 $
53144K9L2 9L220160219170510102/19/16 17:05:31  5-MIN K9L2 200105Z AUTO 24012KT 10SM CLR 18/01 A3002 2210 31 3100 230/12 RMK AO2 $
53144K9L2 9L220160219171010102/19/16 17:10:31  5-MIN K9L2 200110Z AUTO 24011KT 10SM CLR 17/01 A3002 2210 32 3000 220/11 RMK AO2 $
53144K9L2 9L220160219171510102/19/16 17:15:31  5-MIN K9L2 200115Z AUTO 23013KT 10SM CLR 17/01 A3002 2210 33 3000 220/13 RMK AO2 $
53144K9L2 9L220160219172010102/19/16 17:20:31  5-MIN K9L2 200120Z AUTO 23011KT 10SM CLR 17/02 A3002 2210 35 3000 220/11 RMK AO2 $
53144K9L2 9L220160219172510102/19/16 17:25:31  5-MIN K9L2 200125Z AUTO 24011KT 10SM CLR 17/02 A3002 2210 37 3000 220/11 RMK AO2 $
53144K9L2 9L220160219173010102/19/16 17:30:31  5-MIN K9L2 200130Z AUTO 24012KT 10SM CLR 17/02 A3003 2210 37 2900 220/12 RMK AO2 $
53144K9L2 9L220160219173510102/19/16 17:35:31  5-MIN K9L2 200135Z AUTO 24012KT 10SM CLR 16/02 A3003 2210 39 2900 230/12 RMK AO2 $
53144K9L2 9L220160219174010102/19/16 17:40:31  5-MIN K9L2 200140Z AUTO 24010KT 10SM CLR 16/02 A3003 2200 39 2900 230/10 RMK AO2 $
53144K9L2 9L220160219174510102/19/16 17:45:31  5-MIN K9L2 200145Z AUTO 27005KT 10SM CLR 16/02 A3003 2200 40 2800 250/05 RMK AO2 $
53144K9L2 9L220160219175010102/19/16 17:50:31  5-MIN K9L2 200150Z AUTO 28006KT 10SM CLR 15/03 A3003 2200 43 2700 270/06 RMK AO2 $
53144K9L2 9L220160219175511802/19/16 17:55:31  5-MIN K9L2 200155Z AUTO 27008KT 10SM CLR 14/02 A3003 2200 43 2700 260/08 RMK AO2 SLP176 T01440022 $
53144K9L2 9L220160219213510202/19/16 21:35:31  5-MIN K9L2 200535Z AUTO 01003KT 10SM CLR 09/M01 A3010 2130 51 1900 360/03 RMK AO2 $
53144K9L2 9L220160219214010202/19/16 21:40:31  5-MIN K9L2 200540Z AUTO 34004KT 10SM CLR 10/M01 A3010 2130 46 2100 330/04 RMK AO2 $
53144K9L2 9L220160219214510202/19/16 21:45:31  5-MIN K9L2 200545Z AUTO 36003KT 10SM CLR 08/M01 A3011 2130 53 1900 340/03 RMK AO2 $
53144K9L2 9L220160219215010202/19/16 21:50:31  5-MIN K9L2 200550Z AUTO 07005KT 10SM CLR 07/M01 A3011 2130 57 1700 060/05 RMK AO2 $
53144K9L2 9L220160219215513702/19/16 21:55:31  5-MIN K9L2 200555Z AUTO 07004KT 10SM CLR 08/M01 A3011 2130 53 1900 060/04 RMK AO2 SLP202 T00831006 10194 20072 53009 $
53144K9L2 9L220160219220010102/19/16 22:00:31  5-MIN K9L2 200600Z AUTO 06004KT 10SM CLR 08/00 A3011 2130 55 1900 050/04 RMK AO2 $
53144K9L2 9L220160219220510102/19/16 22:05:31  5-MIN K9L2 200605Z AUTO 08005KT 10SM CLR 08/00 A3011 2130 58 1800 060/05 RMK AO2 $
53144K9L2 9L220160219221010102/19/16 22:10:31  5-MIN K9L2 200610Z AUTO 09003KT 10SM CLR 08/00 A3011 2130 58 1800 080/03 RMK AO2 $
53144K9L2 9L220160219221510202/19/16 22:15:31  5-MIN K9L2 200615Z AUTO 11004KT 10SM CLR 08/M01 A3011 2130 55 1800 100/04 RMK AO2 $
53144K9L2 9L220160219222010202/19/16 22:20:31  5-MIN K9L2 200620Z AUTO 12003KT 10SM CLR 08/M01 A3011 2130 55 1800 110/03 RMK AO2 $
53144K9L2 9L220160219222510202/19/16 22:25:31  5-MIN K9L2 200625Z AUTO 13003KT 10SM CLR 07/M01 A3011 2120 60 1700 120/03 RMK AO2 $
53144K9L2 9L220160219223010202/19/16 22:30:31  5-MIN K9L2 200630Z AUTO 14003KT 10SM CLR 07/M01 A3011 2130 60 1700 120/03 RMK AO2 $
53144K9L2 9L220160219223510202/19/16 22:35:31  5-MIN K9L2 200635Z AUTO 16003KT 10SM CLR 06/M01 A3011 2130 62 1600 150/03 RMK AO2 $
53144K9L2 9L220160219224010202/19/16 22:40:31  5-MIN K9L2 200640Z AUTO 16003KT 10SM CLR 07/M01 A3011 2130 60 1700 140/03 RMK AO2 $
53144K9L2 9L220160219224510202/19/16 22:45:31  5-MIN K9L2 200645Z AUTO 00000KT 10SM CLR 07/M01 A3011 2130 60 1700 000/00 RMK AO2 $
53144K9L2 9L220160219225010202/19/16 22:50:31  5-MIN K9L2 200650Z AUTO 15003KT 10SM CLR 06/M01 A3011 2130 62 1600 140/03 RMK AO2 $
53144K9L2 9L220160219225511902/19/16 22:55:31  5-MIN K9L2 200655Z AUTO VRB03KT 10SM CLR 06/M01 A3011 2130 62 1600 VRB/03 RMK AO2 SLP202 T00611006 $
53144K9L2 9L220160219230010202/19/16 23:00:31  5-MIN K9L2 200700Z AUTO 00000KT 10SM CLR 06/M01 A3011 2130 62 1600 000/00 RMK AO2 $
53144K9L2 9L220160219230510202/19/16 23:05:31  5-MIN K9L2 200705Z AUTO 00000KT 10SM CLR 06/M01 A3011 2130 65 1500 000/00 RMK AO2 $
53144K9L2 9L220160219231010202/19/16 23:10:31  5-MIN K9L2 200710Z AUTO 00000KT 10SM CLR 06/M01 A3011 2130 65 1500 000/00 RMK AO2 $
53144K9L2 9L220160219231510202/19/16 23:15:31  5-MIN K9L2 200715Z AUTO 00000KT 10SM CLR 05/M01 A3011 2120 64 1500 000/00 RMK AO2 $
53144K9L2 9L220160219232010202/19/16 23:20:31  5-MIN K9L2 200720Z AUTO 00000KT 10SM CLR 06/M01 A3012 2120 65 1500 000/00 RMK AO2 $
53144K9L2 9L220160219232510202/19/16 23:25:31  5-MIN K9L2 200725Z AUTO 00000KT 10SM CLR 04/M01 A3012 2120 67 1400 000/00 RMK AO2 $
53144K9L2 9L220160219233010202/19/16 23:30:31  5-MIN K9L2 200730Z AUTO 00000KT 10SM CLR 04/M01 A3012 2120 70 1300 000/00 RMK AO2 $
53144K9L2 9L220160219233510202/19/16 23:35:31  5-MIN K9L2 200735Z AUTO 00000KT 10SM CLR 04/M01 A3012 2120 70 1300 000/00 RMK AO2 $
53144K9L2 9L220160219234010202/19/16 23:40:31  5-MIN K9L2 200740Z AUTO 00000KT 10SM CLR 03/M01 A3012 2120 72 1300 000/00 RMK AO2 $
53144K9L2 9L220160219234510202/19/16 23:45:31  5-MIN K9L2 200745Z AUTO 03003KT 10SM CLR 03/M01 A3012 2120 72 1300 010/03 RMK AO2 $
53144K9L2 9L220160219235010202/19/16 23:50:31  5-MIN K9L2 200750Z AUTO 36003KT 10SM CLR 03/M01 A3012 2120 72 1300 350/03 RMK AO2 $
53144K9L2 9L220160219235512902/19/16 23:55:31  5-MIN K9L2 200755Z AUTO 36003KT 10SM CLR 03/M01 A3012 2120 75 1200 350/03 RMK AO2 SLP202 T00281011 402001006 $
53144K9L2 9L220160220000010202/20/16 00:00:31  5-MIN K9L2 200800Z AUTO 05003KT 10SM CLR 03/M01 A3011 2120 75 1200 030/03 RMK AO2 $
53144K9L2 9L220160220000510202/20/16 00:05:31  5-MIN K9L2 200805Z AUTO 00000KT 10SM CLR 03/M01 A3011 2120 75 1200 000/00 RMK AO2 $
53144K9L2 9L220160220001010202/20/16 00:10:31  5-MIN K9L2 200810Z AUTO 00000KT 10SM CLR 03/M01 A3012 2120 75 1200 000/00 RMK AO2 $
53144K9L2 9L220160220001510902/20/16 00:15:31  5-MIN K9L2 200815Z AUTO 36003KT 10SM CLR 02/M02 A3012 2120 75 1100 340/03 RMK AO2 FZRANO $
53144K9L2 9L220160220002010902/20/16 00:20:31  5-MIN K9L2 200820Z AUTO 35003KT 10SM CLR 02/M01 A3012 2120 78 1100 330/03 RMK AO2 FZRANO $
53144K9L2 9L220160220002510202/20/16 00:25:31  5-MIN K9L2 200825Z AUTO 34003KT 10SM CLR 03/M01 A3012 2120 75 1200 330/03 RMK AO2 $
53144K9L2 9L220160220003010202/20/16 00:30:31  5-MIN K9L2 200830Z AUTO 00000KT 10SM CLR 03/M01 A3012 2120 75 1200 000/00 RMK AO2 $
53144K9L2 9L220160220003510202/20/16 00:35:31  5-MIN K9L2 200835Z AUTO 00000KT 10SM CLR 03/M01 A3012 2120 75 1200 000/00 RMK AO2 $
53144K9L2 9L220160220004010202/20/16 00:40:31  5-MIN K9L2 200840Z AUTO 00000KT 10SM CLR 03/M01 A3012 2120 75 1200 000/00 RMK AO2 $
53144K9L2 9L220160220004510202/20/16 00:45:31  5-MIN K9L2 200845Z AUTO 00000KT 10SM CLR 03/M01 A3012 2120 75 1200 000/00 RMK AO2 $
53144K9L2 9L220160220005010902/20/16 00:50:31  5-MIN K9L2 200850Z AUTO 00000KT 10SM CLR 02/M02 A3012 2120 75 1100 000/00 RMK AO2 FZRANO $
53144K9L2 9L220160220005513202/20/16 00:55:31  5-MIN K9L2 200855Z AUTO 00000KT 10SM CLR 02/M02 A3012 2120 78 1100 000/00 RMK AO2 SLP201 T00171017 53022 FZRANO $
53144K9L2 9L220160220010010902/20/16 01:00:31  5-MIN K9L2 200900Z AUTO 00000KT 10SM CLR 02/M02 A3012 2120 78 1100 000/00 RMK AO2 FZRANO $
53144K9L2 9L220160220010510902/20/16 01:05:31  5-MIN K9L2 200905Z AUTO 35003KT 10SM CLR 02/M02 A3012 2120 78 1100 340/03 RMK AO2 FZRANO $
53144K9L2 9L220160220011010902/20/16 01:10:31  5-MIN K9L2 200910Z AUTO 00000KT 10SM CLR 02/M02 A3012 2120 75 1100 000/00 RMK AO2 FZRANO $
53144K9L2 9L220160220011510902/20/16 01:15:31  5-MIN K9L2 200915Z AUTO 00000KT 10SM CLR 02/M02 A3012 2120 78 1100 000/00 RMK AO2 FZRANO $
53144K9L2 9L220160220012010902/20/16 01:20:31  5-MIN K9L2 200920Z AUTO 00000KT 10SM CLR 02/M02 A3011 2120 78 1100 000/00 RMK AO2 FZRANO $
53144K9L2 9L220160220012510902/20/16 01:25:31  5-MIN K9L2 200925Z AUTO 00000KT 10SM CLR 01/M02 A3012 2120 78 1000 000/00 RMK AO2 FZRANO $
53144K9L2 9L220160220013010802/20/16 01:30:31  5-MIN K9L2 200930Z AUTO 28003KT 10SM CLR 01/M02 A3012 2120 82 900 270/03 RMK AO2 FZRANO $
53144K9L2 9L220160220013510902/20/16 01:35:31  5-MIN K9L2 200935Z AUTO 31003KT 10SM CLR 01/M02 A3012 2120 78 1000 300/03 RMK AO2 FZRANO $
53144K9L2 9L220160220014010902/20/16 01:40:31  5-MIN K9L2 200940Z AUTO 31004KT 10SM CLR 02/M02 A3012 2120 78 1100 300/04 RMK AO2 FZRANO $
53144K9L2 9L220160220014510902/20/16 01:45:31  5-MIN K9L2 200945Z AUTO 33003KT 10SM CLR 01/M02 A3012 2120 78 1000 320/03 RMK AO2 FZRANO $
53144K9L2 9L220160220015010902/20/16 01:50:31  5-MIN K9L2 200950Z AUTO 35003KT 10SM CLR 01/M02 A3011 2120 78 1000 340/03 RMK AO2 FZRANO $
53144K9L2 9L220160220015512602/20/16 01:55:31  5-MIN K9L2 200955Z AUTO 32003KT 10SM CLR 01/M02 A3011 2120 78 1000 310/03 RMK AO2 SLP200 T00111022 FZRANO $
53144K9L2 9L220160220020010902/20/16 02:00:31  5-MIN K9L2 201000Z AUTO 00000KT 10SM CLR 01/M02 A3011 2120 78 1000 000/00 RMK AO2 FZRANO $
53144K9L2 9L220160220020510902/20/16 02:05:31  5-MIN K9L2 201005Z AUTO 00000KT 10SM CLR 01/M02 A3011 2130 78 1000 000/00 RMK AO2 FZRANO $
53144K9L2 9L220160220021010802/20/16 02:10:31  5-MIN K9L2 201010Z AUTO 00000KT 10SM CLR 01/M03 A3011 2120 78 900 000/00 RMK AO2 FZRANO $
53144K9L2 9L220160220021510802/20/16 02:15:31  5-MIN K9L2 201015Z AUTO 00000KT 10SM CLR 01/M03 A3011 2120 78 900 000/00 RMK AO2 FZRANO $
53144K9L2 9L220160220022010802/20/16 02:20:31  5-MIN K9L2 201020Z AUTO 00000KT 10SM CLR 01/M03 A3011 2130 78 900 000/00 RMK AO2 FZRANO $
53144K9L2 9L220160220022510802/20/16 02:25:31  5-MIN K9L2 201025Z AUTO 00000KT 10SM CLR 01/M03 A3011 2130 78 900 000/00 RMK AO2 FZRANO $
53144K9L2 9L220160220023010802/20/16 02:30:31  5-MIN K9L2 201030Z AUTO 00000KT 10SM CLR 01/M03 A3011 2130 78 900 000/00 RMK AO2 FZRANO $
53144K9L2 9L220160220023510802/20/16 02:35:31  5-MIN K9L2 201035Z AUTO 00000KT 10SM CLR 00/M03 A3011 2130 81 900 000/00 RMK AO2 FZRANO $
53144K9L2 9L220160220024010802/20/16 02:40:31  5-MIN K9L2 201040Z AUTO 36004KT 10SM CLR 00/M03 A3010 2130 81 900 350/04 RMK AO2 FZRANO $
53144K9L2 9L220160220024510802/20/16 02:45:31  5-MIN K9L2 201045Z AUTO 00000KT 10SM CLR 00/M03 A3010 2130 81 900 000/00 RMK AO2 FZRANO $
53144K9L2 9L220160220025010802/20/16 02:50:31  5-MIN K9L2 201050Z AUTO 00000KT 10SM CLR 00/M03 A3010 2140 81 900 000/00 RMK AO2 FZRANO $
53144K9L2 9L220160220025512502/20/16 02:55:31  5-MIN K9L2 201055Z AUTO 01003KT 10SM CLR 00/M03 A3010 2140 81 900 360/03 RMK AO2 SLP195 T00001028 FZRANO $
53144K9L2 9L220160220030010802/20/16 03:00:31  5-MIN K9L2 201100Z AUTO 01004KT 10SM CLR 00/M03 A3009 2140 81 900 360/04 RMK AO2 FZRANO $
53144K9L2 9L220160220030510802/20/16 03:05:31  5-MIN K9L2 201105Z AUTO 02003KT 10SM CLR 00/M03 A3009 2140 81 900 360/03 RMK AO2 FZRANO $
53144K9L2 9L220160220031010802/20/16 03:10:31  5-MIN K9L2 201110Z AUTO 01003KT 10SM CLR 00/M03 A3009 2140 81 900 360/03 RMK AO2 FZRANO $
53144K9L2 9L220160220031510802/20/16 03:15:31  5-MIN K9L2 201115Z AUTO 03003KT 10SM CLR 00/M03 A3009 2150 81 900 010/03 RMK AO2 FZRANO $
53144K9L2 9L220160220032010802/20/16 03:20:31  5-MIN K9L2 201120Z AUTO 01004KT 10SM CLR 00/M03 A3009 2150 81 900 360/04 RMK AO2 FZRANO $
53144K9L2 9L220160220032510802/20/16 03:25:31  5-MIN K9L2 201125Z AUTO 01005KT 10SM CLR 00/M03 A3009 2150 81 900 360/05 RMK AO2 FZRANO $
53144K9L2 9L220160220033010802/20/16 03:30:31  5-MIN K9L2 201130Z AUTO 36006KT 10SM CLR 00/M03 A3009 2150 81 900 340/06 RMK AO2 FZRANO $
53144K9L2 9L220160220033510902/20/16 03:35:31  5-MIN K9L2 201135Z AUTO 02003KT 10SM CLR 01/M02 A3009 2150 82 1000 360/03 RMK AO2 FZRANO $
53144K9L2 9L220160220034010802/20/16 03:40:31  5-MIN K9L2 201140Z AUTO 00000KT 10SM CLR 00/M02 A3009 2150 85 900 000/00 RMK AO2 FZRANO $
53144K9L2 9L220160220034510802/20/16 03:45:31  5-MIN K9L2 201145Z AUTO 00000KT 10SM CLR 00/M03 A3009 2150 81 900 000/00 RMK AO2 FZRANO $
53144K9L2 9L220160220035010802/20/16 03:50:31  5-MIN K9L2 201150Z AUTO 35003KT 10SM CLR 00/M03 A3009 2150 81 900 340/03 RMK AO2 FZRANO $
53144K9L2 9L220160220035514302/20/16 03:55:31  5-MIN K9L2 201155Z AUTO 35006KT 10SM CLR 00/M03 A3009 2150 81 900 340/06 RMK AO2 SLP193 T00001028 10083 20000 50002 FZRANO $
53144K9L2 9L220160220040010802/20/16 04:00:31  5-MIN K9L2 201200Z AUTO 34007KT 10SM CLR 00/M02 A3009 2140 85 900 330/07 RMK AO2 FZRANO $
53144K9L2 9L220160220040510802/20/16 04:05:31  5-MIN K9L2 201205Z AUTO 35006KT 10SM CLR 00/M02 A3009 2140 85 900 330/06 RMK AO2 FZRANO $
53144K9L2 9L220160220041010802/20/16 04:10:31  5-MIN K9L2 201210Z AUTO 34004KT 10SM CLR 00/M02 A3009 2150 85 900 320/04 RMK AO2 FZRANO $
53144K9L2 9L220160220041510802/20/16 04:15:31  5-MIN K9L2 201215Z AUTO 36003KT 10SM CLR 00/M02 A3009 2150 85 900 340/03 RMK AO2 FZRANO $
53144K9L2 9L220160220042010802/20/16 04:20:31  5-MIN K9L2 201220Z AUTO 35005KT 10SM CLR 00/M02 A3009 2150 85 900 340/05 RMK AO2 FZRANO $
53144K9L2 9L220160220042510802/20/16 04:25:31  5-MIN K9L2 201225Z AUTO 34005KT 10SM CLR 00/M03 A3009 2140 81 900 330/05 RMK AO2 FZRANO $
53144K9L2 9L220160220043010802/20/16 04:30:31  5-MIN K9L2 201230Z AUTO 00000KT 10SM CLR 00/M03 A3009 2140 81 900 000/00 RMK AO2 FZRANO $
53144K9L2 9L220160220043510802/20/16 04:35:31  5-MIN K9L2 201235Z AUTO 00000KT 10SM CLR 00/M03 A3009 2140 81 900 000/00 RMK AO2 FZRANO $
53144K9L2 9L220160220044010802/20/16 04:40:31  5-MIN K9L2 201240Z AUTO 35003KT 10SM CLR 00/M03 A3009 2140 81 900 330/03 RMK AO2 FZRANO $
53144K9L2 9L220160220044510902/20/16 04:45:31  5-MIN K9L2 201245Z AUTO 01005KT 10SM CLR M01/M03 A3009 2140 81 800 350/05 RMK AO2 FZRANO $
53144K9L2 9L220160220045010902/20/16 04:50:31  5-MIN K9L2 201250Z AUTO 36004KT 10SM CLR M01/M03 A3010 2140 81 800 350/04 RMK AO2 FZRANO $
53144K9L2 9L220160220045512602/20/16 04:55:31  5-MIN K9L2 201255Z AUTO 00000KT 10SM CLR M01/M03 A3010 2140 81 800 000/00 RMK AO2 SLP197 T10061033 FZRANO $
53144K9L2 9L220160220050010902/20/16 05:00:31  5-MIN K9L2 201300Z AUTO 00000KT 10SM CLR M01/M03 A3010 2140 81 800 000/00 RMK AO2 FZRANO $
53144K9L2 9L220160220050510902/20/16 05:05:31  5-MIN K9L2 201305Z AUTO 00000KT 10SM CLR M01/M03 A3010 2140 81 800 000/00 RMK AO2 FZRANO $
53144K9L2 9L220160220051010902/20/16 05:10:31  5-MIN K9L2 201310Z AUTO 00000KT 10SM CLR M01/M03 A3010 2140 81 800 000/00 RMK AO2 FZRANO $
53144K9L2 9L220160220051510902/20/16 05:15:31  5-MIN K9L2 201315Z AUTO 00000KT 10SM CLR M01/M03 A3010 2140 85 700 000/00 RMK AO2 FZRANO $
53144K9L2 9L220160220052010902/20/16 05:20:31  5-MIN K9L2 201320Z AUTO 00000KT 10SM CLR M01/M03 A3010 2140 81 800 000/00 RMK AO2 FZRANO $
53144K9L2 9L220160220052510902/20/16 05:25:31  5-MIN K9L2 201325Z AUTO 00000KT 10SM CLR M01/M04 A3010 2130 81 700 000/00 RMK AO2 FZRANO $
53144K9L2 9L220160220053010902/20/16 05:30:31  5-MIN K9L2 201330Z AUTO 35003KT 10SM CLR M01/M04 A3010 2140 81 700 330/03 RMK AO2 FZRANO $
53144K9L2 9L220160220053510902/20/16 05:35:31  5-MIN K9L2 201335Z AUTO 35003KT 10SM CLR M01/M04 A3010 2130 81 700 330/03 RMK AO2 FZRANO $
53144K9L2 9L220160220054010902/20/16 05:40:31  5-MIN K9L2 201340Z AUTO 34004KT 10SM CLR M01/M04 A3011 2130 81 700 330/04 RMK AO2 FZRANO $
53144K9L2 9L220160220054510902/20/16 05:45:31  5-MIN K9L2 201345Z AUTO 36004KT 10SM CLR M01/M04 A3011 2130 81 700 350/04 RMK AO2 FZRANO $
53144K9L2 9L220160220055010902/20/16 05:50:31  5-MIN K9L2 201350Z AUTO 33003KT 10SM CLR M01/M03 A3011 2130 81 800 320/03 RMK AO2 FZRANO $
53144K9L2 9L220160220055512602/20/16 05:55:31  5-MIN K9L2 201355Z AUTO 00000KT 10SM CLR M01/M03 A3010 2130 85 700 000/00 RMK AO2 SLP203 T10111033 FZRANO $
53144K9L2 9L220160220060010902/20/16 06:00:31  5-MIN K9L2 201400Z AUTO 00000KT 10SM CLR M01/M03 A3011 2130 85 700 000/00 RMK AO2 FZRANO $
53144K9L2 9L220160220060510902/20/16 06:05:31  5-MIN K9L2 201405Z AUTO 00000KT 10SM CLR M01/M03 A3011 2130 85 700 000/00 RMK AO2 FZRANO $
53144K9L2 9L220160220061010902/20/16 06:10:31  5-MIN K9L2 201410Z AUTO 34003KT 10SM CLR M01/M04 A3011 2130 81 700 320/03 RMK AO2 FZRANO $
53144K9L2 9L220160220061510902/20/16 06:15:31  5-MIN K9L2 201415Z AUTO 34003KT 10SM CLR M01/M04 A3010 2130 81 700 320/03 RMK AO2 FZRANO $
53144K9L2 9L220160220062010902/20/16 06:20:31  5-MIN K9L2 201420Z AUTO 36003KT 10SM CLR M01/M04 A3011 2130 81 700 350/03 RMK AO2 FZRANO $
53144K9L2 9L220160220062510902/20/16 06:25:31  5-MIN K9L2 201425Z AUTO 34003KT 10SM CLR M01/M03 A3011 2130 85 700 330/03 RMK AO2 FZRANO $
53144K9L2 9L220160220063010902/20/16 06:30:31  5-MIN K9L2 201430Z AUTO 33004KT 10SM CLR M01/M03 A3011 2130 85 700 320/04 RMK AO2 FZRANO $
53144K9L2 9L220160220063510902/20/16 06:35:31  5-MIN K9L2 201435Z AUTO 35005KT 10SM CLR M01/M03 A3012 2120 85 700 330/05 RMK AO2 FZRANO $
53144K9L2 9L220160220064010902/20/16 06:40:31  5-MIN K9L2 201440Z AUTO 35004KT 10SM CLR M01/M03 A3012 2120 85 700 340/04 RMK AO2 FZRANO $
53144K9L2 9L220160220064510902/20/16 06:45:31  5-MIN K9L2 201445Z AUTO 36004KT 10SM CLR M01/M03 A3012 2120 81 800 350/04 RMK AO2 FZRANO $
53144K9L2 9L220160220065010902/20/16 06:50:31  5-MIN K9L2 201450Z AUTO 36003KT 10SM CLR M01/M03 A3013 2110 81 800 350/03 RMK AO2 FZRANO $
53144K9L2 9L220160220065513202/20/16 06:55:31  5-MIN K9L2 201455Z AUTO 00000KT 10SM CLR M01/M03 A3013 2110 85 800 000/00 RMK AO2 SLP212 T10061028 58007 FZRANO $
53144K9L2 9L220160220070010802/20/16 07:00:31  5-MIN K9L2 201500Z AUTO 36003KT 10SM CLR 00/M03 A3013 2110 81 800 340/03 RMK AO2 FZRANO $
53144K9L2 9L220160220070510802/20/16 07:05:31  5-MIN K9L2 201505Z AUTO 35003KT 10SM CLR 00/M03 A3013 2110 81 800 340/03 RMK AO2 FZRANO $
53144K9L2 9L220160220071010802/20/16 07:10:31  5-MIN K9L2 201510Z AUTO 34003KT 10SM CLR 01/M02 A3013 2110 82 900 330/03 RMK AO2 FZRANO $
53144K9L2 9L220160220071510902/20/16 07:15:31  5-MIN K9L2 201515Z AUTO 33003KT 10SM CLR 01/M02 A3013 2100 82 1000 320/03 RMK AO2 FZRANO $
53144K9L2 9L220160220072010902/20/16 07:20:31  5-MIN K9L2 201520Z AUTO 00000KT 10SM CLR 02/M01 A3014 2100 82 1000 000/00 RMK AO2 FZRANO $
53144K9L2 9L220160220072510902/20/16 07:25:31  5-MIN K9L2 201525Z AUTO 00000KT 10SM CLR 02/M01 A3014 2100 78 1100 000/00 RMK AO2 FZRANO $
53144K9L2 9L220160220073010202/20/16 07:30:31  5-MIN K9L2 201530Z AUTO 32003KT 10SM CLR 03/M01 A3014 2100 79 1200 310/03 RMK AO2 $
53144K9L2 9L220160220073510202/20/16 07:35:31  5-MIN K9L2 201535Z AUTO 00000KT 10SM CLR 03/M01 A3014 2100 76 1200 000/00 RMK AO2 $
53144K9L2 9L220160220074010202/20/16 07:40:31  5-MIN K9L2 201540Z AUTO 00000KT 10SM CLR 04/M01 A3014 2100 73 1300 000/00 RMK AO2 $
53144K9L2 9L220160220074510102/20/16 07:45:31  5-MIN K9L2 201545Z AUTO 00000KT 10SM CLR 04/00 A3015 2090 73 1400 000/00 RMK AO2 $
53144K9L2 9L220160220075010102/20/16 07:50:31  5-MIN K9L2 201550Z AUTO 00000KT 10SM CLR 05/00 A3015 2090 70 1400 000/00 RMK AO2 $
53144K9L2 9L220160220075511802/20/16 07:55:31  5-MIN K9L2 201555Z AUTO 00000KT 10SM CLR 06/01 A3015 2090 70 1500 000/00 RMK AO2 SLP217 T00560006 $
53144K9L2 9L220160220080010102/20/16 08:00:31  5-MIN K9L2 201600Z AUTO 01003KT 10SM CLR 06/01 A3015 2090 67 1600 350/03 RMK AO2 $
53144K9L2 9L220160220080510102/20/16 08:05:31  5-MIN K9L2 201605Z AUTO 36003KT 10SM CLR 07/01 A3015 2090 65 1600 350/03 RMK AO2 $
53144K9L2 9L220160220081010102/20/16 08:10:31  5-MIN K9L2 201610Z AUTO 35003KT 10SM CLR 07/01 A3015 2090 65 1600 340/03 RMK AO2 $
53144K9L2 9L220160220081510102/20/16 08:15:31  5-MIN K9L2 201615Z AUTO 00000KT 10SM CLR 07/01 A3015 2090 65 1600 000/00 RMK AO2 $
53144K9L2 9L220160220082010102/20/16 08:20:31  5-MIN K9L2 201620Z AUTO 00000KT 10SM CLR 07/01 A3016 2080 62 1700 000/00 RMK AO2 $
53144K9L2 9L220160220082510102/20/16 08:25:31  5-MIN K9L2 201625Z AUTO 35003KT 10SM CLR 07/01 A3016 2080 62 1700 340/03 RMK AO2 $
53144K9L2 9L220160220083010102/20/16 08:30:31  5-MIN K9L2 201630Z AUTO 36003KT 10SM CLR 08/00 A3016 2080 58 1700 350/03 RMK AO2 $
53144K9L2 9L220160220083510102/20/16 08:35:31  5-MIN K9L2 201635Z AUTO 00000KT 10SM CLR 08/00 A3016 2080 58 1700 000/00 RMK AO2 $
53144K9L2 9L220160220084010102/20/16 08:40:31  5-MIN K9L2 201640Z AUTO 00000KT 10SM CLR 08/00 A3016 2080 55 1800 000/00 RMK AO2 $
53144K9L2 9L220160220084510102/20/16 08:45:31  5-MIN K9L2 201645Z AUTO 00000KT 10SM CLR 08/00 A3017 2070 55 1800 000/00 RMK AO2 $
53144K9L2 9L220160220151508602/20/16 15:15:31  5-MIN K9L2 202315Z AUTO 18003KT M M M 170/03 RMK AO2 PWINO FZRANO $
53144K9L2 9L220160220152009302/20/16 15:20:31  5-MIN K9L2 202320Z AUTO 00000KT 19/M01 A3008 2150 26 3200 000/00 RMK AO2 $
53144K9L2 9L220160220152509802/20/16 15:25:31  5-MIN K9L2 202325Z AUTO VRB03KT 10SM 19/M01 A3008 2160 26 3200 VRB/03 RMK AO2 $
53144K9L2 9L220160220153009802/20/16 15:30:31  5-MIN K9L2 202330Z AUTO VRB03KT 10SM 19/M01 A3008 2160 26 3200 VRB/03 RMK AO2 $
53144K9L2 9L220160220153509802/20/16 15:35:31  5-MIN K9L2 202335Z AUTO 15004KT 10SM 19/M01 A3008 2160 26 3200 130/04 RMK AO2 $
53144K9L2 9L220160220154009802/20/16 15:40:31  5-MIN K9L2 202340Z AUTO 15003KT 10SM 19/M01 A3007 2160 26 3200 140/03 RMK AO2 $
53144K9L2 9L220160220154510202/20/16 15:45:31  5-MIN K9L2 202345Z AUTO 16004KT 10SM CLR 20/M01 A3007 2160 25 3300 150/04 RMK AO2 $
53144K9L2 9L220160220155010202/20/16 15:50:31  5-MIN K9L2 202350Z AUTO 16003KT 10SM CLR 19/M01 A3007 2160 26 3200 150/03 RMK AO2 $
53144K9L2 9L220160220155513702/20/16 15:55:31  5-MIN K9L2 202355Z AUTO 13003KT 10SM CLR 19/M01 A3007 2160 26 3200 120/03 RMK AO2 SLP179 6//// T01941006 10200 21011 $
53144K9L2 9L220160221181013102/21/16 18:10:31  5-MIN K9L2 220210Z AUTO 28011KT 10SM CLR 16/M03 A3010 2140 27 2700 270/11 RMK AO2 $2140 28 2700 270/11 RMK AO2 $
53144K9L2 9L220160221182010202/21/16 18:20:31  5-MIN K9L2 220220Z AUTO 28010KT 10SM CLR 15/M03 A3010 2140 29 2700 270/10 RMK AO2 $
53144K9L2 9L220160221182510202/21/16 18:25:31  5-MIN K9L2 220225Z AUTO 28009KT 10SM CLR 15/M03 A3010 2140 29 2700 260/09 RMK AO2 $
53144K9L2 9L220160221183010202/21/16 18:30:31  5-MIN K9L2 220230Z AUTO 28008KT 10SM CLR 14/M02 A3010 2130 31 2600 260/08 RMK AO2 $
53144K9L2 9L220160221183510202/21/16 18:35:31  5-MIN K9L2 220235Z AUTO 27007KT 10SM CLR 14/M02 A3011 2130 31 2600 260/07 RMK AO2 $
53144K9L2 9L220160221184010202/21/16 18:40:31  5-MIN K9L2 220240Z AUTO 28008KT 10SM CLR 14/M02 A3011 2130 32 2500 260/08 RMK AO2 $
53144K9L2 9L220160221184510202/21/16 18:45:31  5-MIN K9L2 220245Z AUTO 28008KT 10SM CLR 14/M02 A3011 2130 32 2500 270/08 RMK AO2 $
53144K9L2 9L220160221185007302/21/16 18:50:31  5-MIN K9L2 220250Z AUTO 28007KT 10SM CLR 13/M02 A3011 
53144K9L2 9L220160221185507302/21/16 18:55:31  5-MIN K9L2 220255Z AUTO 29007KT 10SM CLR 13/M02 A3011 
53144K9L2 9L220160221190010202/21/16 19:00:31  5-MIN K9L2 220300Z AUTO 28008KT 10SM CLR 13/M02 A3011 2120 35 2500 270/08 RMK AO2 $
53144K9L2 9L220160221190510202/21/16 19:05:31  5-MIN K9L2 220305Z AUTO 29008KT 10SM CLR 13/M02 A3012 2120 35 2500 270/08 RMK AO2 $
53144K9L2 9L220160221191013102/21/16 19:10:31  5-MIN K9L2 220310Z AUTO 29009KT 10SM CLR 13/M02 A3012 2120 35 2500 280/09 RMK AO2 $2120 35 2500 280/08 RMK AO2 $
53144K9L2 9L220160221192010202/21/16 19:20:31  5-MIN K9L2 220320Z AUTO 29007KT 10SM CLR 13/M02 A3011 2120 36 2400 280/07 RMK AO2 $
53144K9L2 9L220160221192507302/21/16 19:25:31  5-MIN K9L2 220325Z AUTO 30004KT 10SM CLR 13/M01 A3012 
53144K9L2 9L220160221193010202/21/16 19:30:31  5-MIN K9L2 220330Z AUTO 28003KT 10SM CLR 12/M01 A3012 2120 39 2300 270/03 RMK AO2 $
53144K9L2 9L220160221193510202/21/16 19:35:31  5-MIN K9L2 220335Z AUTO 29003KT 10SM CLR 12/M01 A3012 2120 39 2300 280/03 RMK AO2 $
53144K9L2 9L220160221194013102/21/16 19:40:31  5-MIN K9L2 220340Z AUTO 30007KT 10SM CLR 12/M01 A3012 2120 39 2300 280/07 RMK AO2 $2110 39 2300 280/06 RMK AO2 $
53144K9L2 9L220160221195010202/21/16 19:50:31  5-MIN K9L2 220350Z AUTO 12004KT 10SM CLR 12/M01 A3013 2110 41 2300 100/04 RMK AO2 $
53144K9L2 9L220160221200010202/21/16 20:00:31  5-MIN K9L2 220400Z AUTO 00000KT 10SM CLR 13/M01 A3013 2110 36 2400 000/00 RMK AO2 $
53144K9L2 9L220160221200513102/21/16 20:05:31  5-MIN K9L2 220405Z AUTO 00000KT 10SM CLR 13/M01 A3013 2110 36 2400 000/00 RMK AO2 $2110 38 2400 110/03 RMK AO2 $
53144K9L2 9L220160221201516002/21/16 20:15:31  5-MIN K9L2 220415Z AUTO 00000KT 10SM CLR 13/M01 A3013 2110 38 2400 000/00 RMK AO2 $2110 41 2200 000/00 RMK AO2 $2110 41 2200 230/04 RMK AO2 $
53144K9L2 9L220160221203010202/21/16 20:30:31  5-MIN K9L2 220430Z AUTO 00000KT 10SM CLR 11/M01 A3013 2110 42 2200 000/00 RMK AO2 $
53144K9L2 9L220160221203510202/21/16 20:35:31  5-MIN K9L2 220435Z AUTO 00000KT 10SM CLR 11/M01 A3013 2110 44 2100 000/00 RMK AO2 $
53144K9L2 9L220160221204010202/21/16 20:40:31  5-MIN K9L2 220440Z AUTO 00000KT 10SM CLR 11/M01 A3013 2110 42 2200 000/00 RMK AO2 $
53144K9L2 9L220160221204510202/21/16 20:45:31  5-MIN K9L2 220445Z AUTO 26004KT 10SM CLR 11/M01 A3013 2110 44 2100 250/04 RMK AO2 $
53144K9L2 9L220160221205010202/21/16 20:50:31  5-MIN K9L2 220450Z AUTO 00000KT 10SM CLR 11/M02 A3013 2110 42 2100 000/00 RMK AO2 $
53144K9L2 9L220160221205507302/21/16 20:55:31  5-MIN K9L2 220455Z AUTO 00000KT 10SM CLR 11/M02 A3013 
53144K9L2 9L220160221210010202/21/16 21:00:31  5-MIN K9L2 220500Z AUTO 18003KT 10SM CLR 11/M02 A3013 2110 41 2200 160/03 RMK AO2 $
53144K9L2 9L220160221210510202/21/16 21:05:31  5-MIN K9L2 220505Z AUTO 16006KT 10SM CLR 11/M02 A3013 2110 41 2200 140/06 RMK AO2 $
53144K9L2 9L220160221211010202/21/16 21:10:31  5-MIN K9L2 220510Z AUTO 19006KT 10SM CLR 11/M02 A3013 2110 40 2100 180/06 RMK AO2 $
53144K9L2 9L220160221211510202/21/16 21:15:31  5-MIN K9L2 220515Z AUTO 20006KT 10SM CLR 10/M03 A3013 2110 40 2100 190/06 RMK AO2 $
53144K9L2 9L220160221212013102/21/16 21:20:31  5-MIN K9L2 220520Z AUTO 20009KT 10SM CLR 10/M03 A3012 2120 40 2100 190/09 RMK AO2 $2110 42 2000 170/08 RMK AO2 $
53144K9L2 9L220160221213018902/21/16 21:30:31  5-MIN K9L2 220530Z AUTO 19006KT 10SM CLR 09/M03 A3013 2110 42 2000 170/06 RMK AO2 $2110 42 2000 210/07 RMK AO2 $2110 42 2000 190/05 RMK AO2 $2110 43 1900 150/04 RMK AO2 $
53144K9L2 9L220160221215513702/21/16 21:55:31  5-MIN K9L2 220555Z AUTO 20008KT 10SM CLR 09/M03 A3012 2120 42 2000 190/08 RMK AO2 SLP203 T00941028 10239 20089 53008 $
53144K9L2 9L220160221220010202/21/16 22:00:31  5-MIN K9L2 220600Z AUTO 19007KT 10SM CLR 09/M03 A3012 2110 43 1900 180/07 RMK AO2 $
53144K9L2 9L220160221220513102/21/16 22:05:31  5-MIN K9L2 220605Z AUTO 19008KT 10SM CLR 09/M03 A3012 2120 43 1900 180/08 RMK AO2 $2110 42 1900 180/07 RMK AO2 $
53144K9L2 9L220160221221510302/21/16 22:15:31  5-MIN K9L2 220615Z AUTO 20006KT 10SM CLR 09/M03 A3013 M2810 42 1900 190/06 RMK AO2 $
53144K9L2 9L220160221222010202/21/16 22:20:31  5-MIN K9L2 220620Z AUTO 19006KT 10SM CLR 09/M04 A3013 2110 40 1900 180/06 RMK AO2 $
53144K9L2 9L220160221222510202/21/16 22:25:31  5-MIN K9L2 220625Z AUTO 20007KT 10SM CLR 09/M04 A3013 2110 40 1900 190/07 RMK AO2 $
53144K9L2 9L220160221223010202/21/16 22:30:31  5-MIN K9L2 220630Z AUTO 20005KT 10SM CLR 08/M04 A3013 2110 42 1900 190/05 RMK AO2 $
53144K9L2 9L220160221223510202/21/16 22:35:31  5-MIN K9L2 220635Z AUTO 20006KT 10SM CLR 08/M04 A3013 2110 42 1900 180/06 RMK AO2 $
53144K9L2 9L220160221224010202/21/16 22:40:31  5-MIN K9L2 220640Z AUTO 18005KT 10SM CLR 08/M04 A3013 2110 43 1800 170/05 RMK AO2 $
53144K9L2 9L220160221224510202/21/16 22:45:31  5-MIN K9L2 220645Z AUTO 20006KT 10SM CLR 08/M04 A3013 2110 42 1800 190/06 RMK AO2 $
53144K9L2 9L220160221225010202/21/16 22:50:31  5-MIN K9L2 220650Z AUTO 18005KT 10SM CLR 08/M04 A3013 2110 42 1800 160/05 RMK AO2 $
53144K9L2 9L220160221225514802/21/16 22:55:31  5-MIN K9L2 220655Z AUTO 21005KT 10SM CLR 08/M04 A3013 2110 43 1800 190/05 RMK AO2 SLP204 T00781039 $2110 43 1800 190/04 RMK AO2 $
53144K9L2 9L220160221230510202/21/16 23:05:31  5-MIN K9L2 220705Z AUTO 21004KT 10SM CLR 07/M03 A3013 2110 47 1700 190/04 RMK AO2 $
53144K9L2 9L220160221231010202/21/16 23:10:31  5-MIN K9L2 220710Z AUTO 00000KT 10SM CLR 07/M03 A3012 2110 49 1700 000/00 RMK AO2 $
53144K9L2 9L220160221231510202/21/16 23:15:31  5-MIN K9L2 220715Z AUTO 20004KT 10SM CLR 07/M03 A3012 2120 49 1700 180/04 RMK AO2 $
53144K9L2 9L220160221232013102/21/16 23:20:31  5-MIN K9L2 220720Z AUTO 16004KT 10SM CLR 07/M03 A3012 2120 49 1700 150/04 RMK AO2 $2120 45 1700 170/05 RMK AO2 $
53144K9L2 9L220160221233010202/21/16 23:30:31  5-MIN K9L2 220730Z AUTO 19006KT 10SM CLR 07/M04 A3011 2120 45 1700 180/06 RMK AO2 $
53144K9L2 9L220160221233510202/21/16 23:35:31  5-MIN K9L2 220735Z AUTO 19006KT 10SM CLR 07/M04 A3011 2130 43 1700 170/06 RMK AO2 $
53144K9L2 9L220160221234010202/21/16 23:40:31  5-MIN K9L2 220740Z AUTO 19008KT 10SM CLR 07/M04 A3010 2130 45 1700 170/08 RMK AO2 $
53144K9L2 9L220160221234513102/21/16 23:45:31  5-MIN K9L2 220745Z AUTO 20006KT 10SM CLR 07/M04 A3010 2130 45 1700 190/06 RMK AO2 $2130 45 1700 190/07 RMK AO2 $
53144K9L2 9L220160221235512902/21/16 23:55:31  5-MIN K9L2 220755Z AUTO 20006KT 10SM CLR 07/M04 A3011 2130 47 1700 190/06 RMK AO2 SLP196 T00671039 402391011 $
53144K9L2 9L220160222000010202/22/16 00:00:31  5-MIN K9L2 220800Z AUTO 20007KT 10SM CLR 07/M04 A3011 2130 45 1700 190/07 RMK AO2 $
53144K9L2 9L220160222000510202/22/16 00:05:31  5-MIN K9L2 220805Z AUTO 22004KT 10SM CLR 07/M04 A3010 2130 47 1700 200/04 RMK AO2 $
53144K9L2 9L220160222001010202/22/16 00:10:31  5-MIN K9L2 220810Z AUTO 20006KT 10SM CLR 07/M03 A3010 2140 49 1700 180/06 RMK AO2 $
53144K9L2 9L220160222001510202/22/16 00:15:31  5-MIN K9L2 220815Z AUTO 21005KT 10SM CLR 07/M04 A3010 2140 47 1700 200/05 RMK AO2 $
53144K9L2 9L220160222002013102/22/16 00:20:31  5-MIN K9L2 220820Z AUTO 20004KT 10SM CLR 07/M04 A3010 2140 47 1700 190/04 RMK AO2 $2140 45 1700 000/00 RMK AO2 $
53144K9L2 9L220160222003010202/22/16 00:30:31  5-MIN K9L2 220830Z AUTO 00000KT 10SM CLR 07/M04 A3010 2140 45 1700 000/00 RMK AO2 $
53144K9L2 9L220160222003513102/22/16 00:35:31  5-MIN K9L2 220835Z AUTO 00000KT 10SM CLR 06/M04 A3010 2140 48 1600 000/00 RMK AO2 $2140 50 1600 000/00 RMK AO2 $
53144K9L2 9L220160222004510202/22/16 00:45:31  5-MIN K9L2 220845Z AUTO 18003KT 10SM CLR 06/M04 A3010 2140 48 1600 170/03 RMK AO2 $
53144K9L2 9L220160222005010202/22/16 00:50:31  5-MIN K9L2 220850Z AUTO 00000KT 10SM CLR 05/M04 A3010 2140 50 1500 000/00 RMK AO2 $
53144K9L2 9L220160222005512502/22/16 00:55:31  5-MIN K9L2 220855Z AUTO 19005KT 10SM CLR 05/M05 A3009 2140 48 1500 180/05 RMK AO2 SLP189 T00501050 50004 $
53144K9L2 9L220160222010010202/22/16 01:00:31  5-MIN K9L2 220900Z AUTO 20003KT 10SM CLR 06/M06 A3009 2150 44 1600 180/03 RMK AO2 $
53144K9L2 9L220160222010510202/22/16 01:05:31  5-MIN K9L2 220905Z AUTO 18004KT 10SM CLR 06/M06 A3008 2150 44 1600 170/04 RMK AO2 $
53144K9L2 9L220160222011010202/22/16 01:10:31  5-MIN K9L2 220910Z AUTO 18003KT 10SM CLR 06/M06 A3008 2150 44 1600 170/03 RMK AO2 $
53144K9L2 9L220160222011510202/22/16 01:15:31  5-MIN K9L2 220915Z AUTO 20004KT 10SM CLR 06/M06 A3008 2150 44 1600 180/04 RMK AO2 $
53144K9L2 9L220160222012013102/22/16 01:20:31  5-MIN K9L2 220920Z AUTO 20005KT 10SM CLR 06/M05 A3008 2160 44 1600 200/03 RMK AO2 $2160 50 1400 190/04 RMK AO2 $
53144K9L2 9L220160222013510202/22/16 01:35:31  5-MIN K9L2 220935Z AUTO 23003KT 10SM CLR 04/M04 A3007 2160 54 1400 220/03 RMK AO2 $
53144K9L2 9L220160222014010202/22/16 01:40:31  5-MIN K9L2 220940Z AUTO 24003KT 10SM CLR 04/M04 A3007 2160 57 1400 220/03 RMK AO2 $
53144K9L2 9L220160222014510202/22/16 01:45:31  5-MIN K9L2 220945Z AUTO 00000KT 10SM CLR 03/M04 A3007 2160 59 1300 000/00 RMK AO2 $
53144K9L2 9L220160222015007302/22/16 01:50:31  5-MIN K9L2 220950Z AUTO 00000KT 10SM CLR 04/M04 A3007 
53144K9L2 9L220160222015511902/22/16 01:55:31  5-MIN K9L2 220955Z AUTO 00000KT 10SM CLR 03/M04 A3006 2170 61 1300 000/00 RMK AO2 SLP180 T00281039 $
53144K9L2 9L220160222020010202/22/16 02:00:31  5-MIN K9L2 221000Z AUTO 34004KT 10SM CLR 03/M04 A3007 2170 61 1300 330/04 RMK AO2 $
53144K9L2 9L220160222020510202/22/16 02:05:31  5-MIN K9L2 221005Z AUTO 02004KT 10SM CLR 03/M04 A3006 2170 61 1300 010/04 RMK AO2 $
53144K9L2 9L220160222021010202/22/16 02:10:31  5-MIN K9L2 221010Z AUTO 01005KT 10SM CLR 03/M04 A3005 2180 59 1300 360/05 RMK AO2 $
53144K9L2 9L220160222021510202/22/16 02:15:31  5-MIN K9L2 221015Z AUTO 02005KT 10SM CLR 03/M04 A3005 2180 61 1300 360/05 RMK AO2 $
53144K9L2 9L220160222022010902/22/16 02:20:31  5-MIN K9L2 221020Z AUTO 03005KT 10SM CLR 02/M04 A3005 2190 61 1200 010/05 RMK AO2 FZRANO $
53144K9L2 9L220160222022510902/22/16 02:25:31  5-MIN K9L2 221025Z AUTO 05005KT 10SM CLR 02/M04 A3004 2190 61 1200 040/05 RMK AO2 FZRANO $
53144K9L2 9L220160222023010202/22/16 02:30:31  5-MIN K9L2 221030Z AUTO 02003KT 10SM CLR 03/M04 A3004 2190 59 1300 360/03 RMK AO2 $
53144K9L2 9L220160222023510202/22/16 02:35:31  5-MIN K9L2 221035Z AUTO 02003KT 10SM CLR 03/M04 A3004 2200 61 1300 360/03 RMK AO2 $
53144K9L2 9L220160222024010902/22/16 02:40:31  5-MIN K9L2 221040Z AUTO 00000KT 10SM CLR 02/M04 A3003 2200 64 1200 000/00 RMK AO2 FZRANO $
53144K9L2 9L220160222024514502/22/16 02:45:31  5-MIN K9L2 221045Z AUTO 00000KT 10SM CLR 02/M04 A3003 2210 64 1200 000/00 RMK AO2 FZRANO $2200 64 1200 VRB/04 RMK AO2 FZRANO $
53144K9L2 9L220160222025514802/22/16 02:55:31  5-MIN K9L2 221055Z AUTO 00000KT 10SM CLR 03/M04 A3002 2210 61 1300 000/00 RMK AO2 SLP164 T00281039 $2210 59 1400 340/03 RMK AO2 $
53144K9L2 9L220160222030510902/22/16 03:05:31  5-MIN K9L2 221105Z AUTO 01004KT 10SM CLR 02/M04 A3002 2210 64 1200 360/04 RMK AO2 FZRANO $
53144K9L2 9L220160222031010902/22/16 03:10:31  5-MIN K9L2 221110Z AUTO 01005KT 10SM CLR 02/M04 A3002 2210 64 1200 360/05 RMK AO2 FZRANO $
53144K9L2 9L220160222031510902/22/16 03:15:31  5-MIN K9L2 221115Z AUTO 04003KT 10SM CLR 02/M04 A3001 2220 64 1200 030/03 RMK AO2 FZRANO $
53144K9L2 9L220160222032010202/22/16 03:20:31  5-MIN K9L2 221120Z AUTO 05004KT 10SM CLR 03/M04 A3002 2210 61 1300 040/04 RMK AO2 $
53144K9L2 9L220160222032510902/22/16 03:25:31  5-MIN K9L2 221125Z AUTO 04005KT 10SM CLR 02/M04 A3002 2210 64 1200 030/05 RMK AO2 FZRANO $
53144K9L2 9L220160222033010202/22/16 03:30:31  5-MIN K9L2 221130Z AUTO 03007KT 10SM CLR 03/M04 A3003 2210 59 1400 010/07 RMK AO2 $
53144K9L2 9L220160222033513102/22/16 03:35:31  5-MIN K9L2 221135Z AUTO 04005KT 10SM CLR 03/M04 A3002 2210 59 1300 030/05 RMK AO2 $2210 59 1300 010/08 RMK AO2 $
53144K9L2 9L220160222034514502/22/16 03:45:31  5-MIN K9L2 221145Z AUTO 03008KT 10SM CLR 02/M04 A3002 2210 61 1200 020/08 RMK AO2 FZRANO $2210 61 1200 050/07 RMK AO2 FZRANO $
53144K9L2 9L220160222035514302/22/16 03:55:31  5-MIN K9L2 221155Z AUTO 06009KT 10SM CLR 03/M04 A3002 2210 59 1300 050/09 RMK AO2 SLP165 70001 T00281044 10094 20022 58010 $
53144K9L2 9L220160222040010202/22/16 04:00:31  5-MIN K9L2 221200Z AUTO 07010KT 10SM CLR 03/M05 A3002 2210 54 1400 050/10 RMK AO2 $
53144K9L2 9L220160222040510202/22/16 04:05:31  5-MIN K9L2 221205Z AUTO 07011KT 10SM CLR 04/M05 A3003 2200 52 1400 060/11 RMK AO2 $
53144K9L2 9L220160222041010902/22/16 04:10:31  5-MIN K9L2 221210Z AUTO 07011KT 10SM CLR 04/M05 A3004 2190 50 1500 060/11 RMK AO2 PRESRR $
53144K9L2 9L220160222041510202/22/16 04:15:31  5-MIN K9L2 221215Z AUTO 06008KT 10SM CLR 04/M05 A3004 2190 50 1500 040/08 RMK AO2 $
53144K9L2 9L220160222042010202/22/16 04:20:31  5-MIN K9L2 221220Z AUTO 08007KT 10SM CLR 04/M05 A3004 2190 50 1500 070/07 RMK AO2 $
53144K9L2 9L220160222042510202/22/16 04:25:31  5-MIN K9L2 221225Z AUTO 06005KT 10SM CLR 06/M06 A3004 2190 44 1600 050/05 RMK AO2 $
53144K9L2 9L220160222043010202/22/16 04:30:31  5-MIN K9L2 221230Z AUTO 06007KT 10SM CLR 04/M06 A3004 2190 48 1500 050/07 RMK AO2 $
53144K9L2 9L220160222043510202/22/16 04:35:31  5-MIN K9L2 221235Z AUTO 08006KT 10SM CLR 04/M06 A3004 2200 48 1500 070/06 RMK AO2 $
53144K9L2 9L220160222044013102/22/16 04:40:31  5-MIN K9L2 221240Z AUTO 08006KT 10SM CLR 06/M06 A3004 2190 44 1600 060/06 RMK AO2 $2200 43 1600 080/06 RMK AO2 $
53144K9L2 9L220160222045010202/22/16 04:50:31  5-MIN K9L2 221250Z AUTO 03008KT 10SM CLR 06/M06 A3004 2190 41 1700 020/08 RMK AO2 $
53144K9L2 9L220160222045511902/22/16 04:55:31  5-MIN K9L2 221255Z AUTO 07004KT 10SM CLR 04/M06 A3004 2190 48 1500 050/04 RMK AO2 SLP172 T00441056 $
53144K9L2 9L220160222050010202/22/16 05:00:31  5-MIN K9L2 221300Z AUTO 05003KT 10SM CLR 04/M06 A3004 2190 50 1400 040/03 RMK AO2 $
53144K9L2 9L220160222050510202/22/16 05:05:31  5-MIN K9L2 221305Z AUTO 02005KT 10SM CLR 04/M06 A3005 2180 50 1400 360/05 RMK AO2 $
53144K9L2 9L220160222051010202/22/16 05:10:31  5-MIN K9L2 221310Z AUTO 00000KT 10SM CLR 04/M05 A3005 2180 52 1400 000/00 RMK AO2 $
53144K9L2 9L220160222051510202/22/16 05:15:31  5-MIN K9L2 221315Z AUTO VRB03KT 10SM CLR 04/M06 A3005 2180 50 1400 VRB/03 RMK AO2 $
53144K9L2 9L220160222052010202/22/16 05:20:31  5-MIN K9L2 221320Z AUTO 11003KT 10SM CLR 04/M06 A3005 2180 50 1400 090/03 RMK AO2 $
53144K9L2 9L220160222052016002/22/16 05:20:31  5-MIN K9L2 221320Z AUTO 11003KT 10SM CLR 04/M06 A3005 2180 50 1400 090/03 RMK AO2 $2180 50 1400 150/05 RMK AO2 $2180 54 1300 000/00 RMK AO2 $
53144K9L2 9L220160222052510202/22/16 05:25:31  5-MIN K9L2 221325Z AUTO 16005KT 10SM CLR 04/M06 A3005 2180 50 1400 150/05 RMK AO2 $
53144K9L2 9L220160222053010202/22/16 05:30:31  5-MIN K9L2 221330Z AUTO 00000KT 10SM CLR 03/M05 A3005 2180 54 1300 000/00 RMK AO2 $
53144K9L2 9L220160222053510202/22/16 05:35:31  5-MIN K9L2 221335Z AUTO 18004KT 10SM CLR 04/M06 A3005 2180 50 1400 170/04 RMK AO2 $
53144K9L2 9L220160222054010202/22/16 05:40:31  5-MIN K9L2 221340Z AUTO 36007KT 10SM CLR 03/M05 A3006 2170 54 1300 350/07 RMK AO2 $
53144K9L2 9L220160222054510202/22/16 05:45:31  5-MIN K9L2 221345Z AUTO 31004KT 10SM CLR 03/M05 A3005 2180 54 1300 290/04 RMK AO2 $
53144K9L2 9L220160222055010202/22/16 05:50:31  5-MIN K9L2 221350Z AUTO 23005KT 10SM CLR 03/M05 A3005 2190 56 1300 220/05 RMK AO2 $
53144K9L2 9L220160222055511902/22/16 05:55:31  5-MIN K9L2 221355Z AUTO 00000KT 10SM CLR 03/M05 A3005 2190 56 1300 000/00 RMK AO2 SLP179 T00281050 $
53144K9L2 9L220160222060010202/22/16 06:00:31  5-MIN K9L2 221400Z AUTO 31003KT 10SM CLR 04/M05 A3005 2190 52 1400 290/03 RMK AO2 $
53144K9L2 9L220160222060510202/22/16 06:05:31  5-MIN K9L2 221405Z AUTO 30003KT 10SM CLR 04/M05 A3005 2180 52 1400 280/03 RMK AO2 $
53144K9L2 9L220160222061010202/22/16 06:10:31  5-MIN K9L2 221410Z AUTO 36003KT 10SM CLR 03/M05 A3005 2180 54 1300 350/03 RMK AO2 $
53144K9L2 9L220160222061510202/22/16 06:15:31  5-MIN K9L2 221415Z AUTO 00000KT 10SM CLR 04/M05 A3006 2170 52 1400 000/00 RMK AO2 $
53144K9L2 9L220160222062010202/22/16 06:20:31  5-MIN K9L2 221420Z AUTO 00000KT 10SM CLR 04/M05 A3007 2170 52 1400 000/00 RMK AO2 $
53144K9L2 9L220160222062510902/22/16 06:25:31  5-MIN K9L2 221425Z AUTO 06008KT 10SM CLR 03/M05 A3008 2160 54 1300 040/08 RMK AO2 PRESRR $
53144K9L2 9L220160222063010202/22/16 06:30:31  5-MIN K9L2 221430Z AUTO 00000KT 10SM CLR 03/M05 A3008 2160 54 1300 000/00 RMK AO2 $
53144K9L2 9L220160222063510202/22/16 06:35:31  5-MIN K9L2 221435Z AUTO 00000KT 10SM CLR 03/M05 A3008 2160 56 1200 000/00 RMK AO2 $
53144K9L2 9L220160222064010202/22/16 06:40:31  5-MIN K9L2 221440Z AUTO VRB04KT 10SM CLR 03/M05 A3009 2150 56 1200 VRB/04 RMK AO2 $
53144K9L2 9L220160222064510202/22/16 06:45:31  5-MIN K9L2 221445Z AUTO 00000KT 10SM CLR 03/M05 A3009 2150 56 1200 000/00 RMK AO2 $
53144K9L2 9L220160222065010202/22/16 06:50:31  5-MIN K9L2 221450Z AUTO 00000KT 10SM CLR 03/M04 A3009 2140 59 1200 000/00 RMK AO2 $
53144K9L2 9L220160222065513202/22/16 06:55:31  5-MIN K9L2 221455Z AUTO 06009KT 10SM CLR 03/M04 A3010 2130 57 1300 050/09 RMK AO2 PRESRR SLP200 T00331044 55021 $
53144K9L2 9L220160222070010202/22/16 07:00:31  5-MIN K9L2 221500Z AUTO 04005KT 10SM CLR 04/M04 A3010 2140 55 1400 030/05 RMK AO2 $
53144K9L2 9L220160222070510202/22/16 07:05:31  5-MIN K9L2 221505Z AUTO 00000KT 10SM CLR 04/M04 A3010 2130 55 1400 000/00 RMK AO2 $
53144K9L2 9L220160222071010202/22/16 07:10:31  5-MIN K9L2 221510Z AUTO 00000KT 10SM CLR 05/M04 A3011 2130 52 1500 000/00 RMK AO2 $
53144K9L2 9L220160222071510202/22/16 07:15:31  5-MIN K9L2 221515Z AUTO 00000KT 10SM CLR 06/M04 A3011 2130 50 1500 000/00 RMK AO2 $
53144K9L2 9L220160222072010202/22/16 07:20:31  5-MIN K9L2 221520Z AUTO 00000KT 10SM CLR 06/M03 A3011 2130 53 1500 000/00 RMK AO2 $
53144K9L2 9L220160222072510202/22/16 07:25:31  5-MIN K9L2 221525Z AUTO 00000KT 10SM CLR 06/M03 A3011 2130 51 1600 000/00 RMK AO2 $
53144K9L2 9L220160222073010202/22/16 07:30:31  5-MIN K9L2 221530Z AUTO 25003KT 10SM CLR 07/M03 A3011 2130 51 1700 240/03 RMK AO2 $
53144K9L2 9L220160222073510202/22/16 07:35:31  5-MIN K9L2 221535Z AUTO 25003KT 10SM CLR 07/M03 A3011 2130 51 1700 240/03 RMK AO2 $
53144K9L2 9L220160222074010202/22/16 07:40:31  5-MIN K9L2 221540Z AUTO 26004KT 10SM CLR 07/M03 A3011 2120 49 1700 240/04 RMK AO2 $
53144K9L2 9L220160222074510202/22/16 07:45:31  5-MIN K9L2 221545Z AUTO 00000KT 10SM CLR 08/M02 A3012 2120 47 1900 000/00 RMK AO2 $
53144K9L2 9L220160222075010202/22/16 07:50:31  5-MIN K9L2 221550Z AUTO 00000KT 10SM CLR 08/M02 A3012 2120 47 1900 000/00 RMK AO2 $
53144K9L2 9L220160222075511902/22/16 07:55:31  5-MIN K9L2 221555Z AUTO VRB03KT 10SM CLR 09/M02 A3013 2110 45 1900 VRB/03 RMK AO2 SLP203 T00891022 $
53144K9L2 9L220160222080010202/22/16 08:00:31  5-MIN K9L2 221600Z AUTO 00000KT 10SM CLR 08/M03 A3013 2110 45 1900 000/00 RMK AO2 $
53144K9L2 9L220160222080510202/22/16 08:05:31  5-MIN K9L2 221605Z AUTO 09003KT 10SM CLR 08/M02 A3013 2110 47 1800 080/03 RMK AO2 $
53144K9L2 9L220160222081010202/22/16 08:10:31  5-MIN K9L2 221610Z AUTO 14003KT 10SM CLR 09/M02 A3013 2110 45 1900 130/03 RMK AO2 $
53144K9L2 9L220160222081510202/22/16 08:15:31  5-MIN K9L2 221615Z AUTO 14003KT 10SM CLR 08/M02 A3014 2100 47 1800 120/03 RMK AO2 $
53144K9L2 9L220160222082010202/22/16 08:20:31  5-MIN K9L2 221620Z AUTO 00000KT 10SM CLR 08/M02 A3014 2100 49 1800 000/00 RMK AO2 $
53144K9L2 9L220160222082510202/22/16 08:25:31  5-MIN K9L2 221625Z AUTO 00000KT 10SM CLR 09/M02 A3014 2100 47 1900 000/00 RMK AO2 $
53144K9L2 9L220160222083010202/22/16 08:30:31  5-MIN K9L2 221630Z AUTO 00000KT 10SM CLR 09/M02 A3014 2100 45 2000 000/00 RMK AO2 $
53144K9L2 9L220160222083510202/22/16 08:35:31  5-MIN K9L2 221635Z AUTO 00000KT 10SM CLR 10/M02 A3014 2100 44 2000 000/00 RMK AO2 $
53144K9L2 9L220160222084010202/22/16 08:40:31  5-MIN K9L2 221640Z AUTO 00000KT 10SM CLR 11/M02 A3014 2100 42 2100 000/00 RMK AO2 $
53144K9L2 9L220160222084510202/22/16 08:45:31  5-MIN K9L2 221645Z AUTO 00000KT 10SM CLR 11/M02 A3014 2100 41 2200 000/00 RMK AO2 $
53144K9L2 9L220160222085010202/22/16 08:50:31  5-MIN K9L2 221650Z AUTO 00000KT 10SM CLR 11/M02 A3014 2100 41 2200 000/00 RMK AO2 $
53144K9L2 9L220160222085511902/22/16 08:55:31  5-MIN K9L2 221655Z AUTO 00000KT 10SM CLR 12/M02 A3014 2100 39 2200 000/00 RMK AO2 SLP207 T01171017 $
53144K9L2 9L220160222090010202/22/16 09:00:31  5-MIN K9L2 221700Z AUTO 00000KT 10SM CLR 12/M02 A3014 2100 38 2200 000/00 RMK AO2 $
53144K9L2 9L220160222090510202/22/16 09:05:31  5-MIN K9L2 221705Z AUTO 00000KT 10SM CLR 12/M02 A3014 2100 36 2300 000/00 RMK AO2 $
53144K9L2 9L220160222091010202/22/16 09:10:31  5-MIN K9L2 221710Z AUTO 00000KT 10SM CLR 13/M02 A3013 2110 35 2400 000/00 RMK AO2 $
53144K9L2 9L220160222091510202/22/16 09:15:31  5-MIN K9L2 221715Z AUTO 00000KT 10SM CLR 13/M02 A3013 2110 35 2400 000/00 RMK AO2 $
53144K9L2 9L220160222092010202/22/16 09:20:31  5-MIN K9L2 221720Z AUTO 00000KT 10SM CLR 14/M03 A3013 2110 31 2500 000/00 RMK AO2 $
53144K9L2 9L220160222092510202/22/16 09:25:31  5-MIN K9L2 221725Z AUTO 00000KT 10SM CLR 14/M03 A3013 2100 31 2500 000/00 RMK AO2 $
53144K9L2 9L220160222093010202/22/16 09:30:31  5-MIN K9L2 221730Z AUTO 00000KT 10SM CLR 14/M02 A3014 2100 31 2600 000/00 RMK AO2 $
53144K9L2 9L220160222093510202/22/16 09:35:31  5-MIN K9L2 221735Z AUTO 00000KT 10SM CLR 14/M02 A3013 2110 31 2600 000/00 RMK AO2 $
53144K9L2 9L220160222094010202/22/16 09:40:31  5-MIN K9L2 221740Z AUTO 00000KT 10SM CLR 15/M03 A3013 2110 28 2600 000/00 RMK AO2 $
53144K9L2 9L220160222094510202/22/16 09:45:31  5-MIN K9L2 221745Z AUTO 00000KT 10SM CLR 14/M02 A3013 2110 31 2600 000/00 RMK AO2 $
53144K9L2 9L220160222095010202/22/16 09:50:31  5-MIN K9L2 221750Z AUTO 00000KT 10SM CLR 14/M02 A3013 2110 31 2600 000/00 RMK AO2 $
53144K9L2 9L220160222095513702/22/16 09:55:31  5-MIN K9L2 221755Z AUTO 00000KT 10SM CLR 14/M03 A3013 2110 30 2600 000/00 RMK AO2 SLP204 T01441028 10150 20028 53025 $
53144K9L2 9L220160222100010202/22/16 10:00:31  5-MIN K9L2 221800Z AUTO 13003KT 10SM CLR 15/M02 A3013 2110 30 2600 120/03 RMK AO2 $
53144K9L2 9L220160222100510202/22/16 10:05:31  5-MIN K9L2 221805Z AUTO 00000KT 10SM CLR 15/M03 A3013 2110 29 2600 000/00 RMK AO2 $
53144K9L2 9L220160222101010202/22/16 10:10:31  5-MIN K9L2 221810Z AUTO 00000KT 10SM CLR 16/M03 A3013 2110 28 2700 000/00 RMK AO2 $
53144K9L2 9L220160222101510202/22/16 10:15:31  5-MIN K9L2 221815Z AUTO 00000KT 10SM CLR 16/M03 A3013 2110 28 2700 000/00 RMK AO2 $
53144K9L2 9L220160222102010202/22/16 10:20:31  5-MIN K9L2 221820Z AUTO 16003KT 10SM CLR 16/M03 A3013 2110 28 2700 150/03 RMK AO2 $
53144K9L2 9L220160222102510202/22/16 10:25:31  5-MIN K9L2 221825Z AUTO 15003KT 10SM CLR 16/M03 A3013 2100 28 2700 140/03 RMK AO2 $
53144K9L2 9L220160222103010202/22/16 10:30:31  5-MIN K9L2 221830Z AUTO 17003KT 10SM CLR 16/M03 A3013 2110 27 2800 160/03 RMK AO2 $
53144K9L2 9L220160222103510202/22/16 10:35:31  5-MIN K9L2 221835Z AUTO 00000KT 10SM CLR 16/M03 A3014 2100 27 2800 000/00 RMK AO2 $
53144K9L2 9L220160222104010202/22/16 10:40:31  5-MIN K9L2 221840Z AUTO VRB03KT 10SM CLR 17/M02 A3013 2110 27 2800 VRB/03 RMK AO2 $
53144K9L2 9L220160222104510202/22/16 10:45:31  5-MIN K9L2 221845Z AUTO 17003KT 10SM CLR 17/M02 A3013 2110 27 2800 160/03 RMK AO2 $
53144K9L2 9L220160222105010202/22/16 10:50:31  5-MIN K9L2 221850Z AUTO 00000KT 10SM CLR 17/M02 A3014 2100 28 2800 000/00 RMK AO2 $
53144K9L2 9L220160222105511902/22/16 10:55:31  5-MIN K9L2 221855Z AUTO 00000KT 10SM CLR 17/M02 A3014 2100 26 2900 000/00 RMK AO2 SLP205 T01721022 $
53144K9L2 9L220160222110010202/22/16 11:00:31  5-MIN K9L2 221900Z AUTO 00000KT 10SM CLR 18/M02 A3014 2100 25 3000 000/00 RMK AO2 $
53144K9L2 9L220160222110510202/22/16 11:05:31  5-MIN K9L2 221905Z AUTO 00000KT 10SM CLR 19/M02 A3014 2100 23 3100 000/00 RMK AO2 $
53144K9L2 9L220160222111010202/22/16 11:10:31  5-MIN K9L2 221910Z AUTO 00000KT 10SM CLR 19/M03 A3013 2110 21 3100 000/00 RMK AO2 $
53144K9L2 9L220160222111510202/22/16 11:15:31  5-MIN K9L2 221915Z AUTO 15003KT 10SM CLR 19/M03 A3013 2110 22 3200 140/03 RMK AO2 $
53144K9L2 9L220160222112010202/22/16 11:20:31  5-MIN K9L2 221920Z AUTO 00000KT 10SM CLR 19/M03 A3013 2110 22 3200 000/00 RMK AO2 $
53144K9L2 9L220160222112510202/22/16 11:25:31  5-MIN K9L2 221925Z AUTO 00000KT 10SM CLR 20/M03 A3013 2110 20 3200 000/00 RMK AO2 $
53144K9L2 9L220160222113010202/22/16 11:30:31  5-MIN K9L2 221930Z AUTO VRB03KT 10SM CLR 21/M03 A3012 2120 19 3300 VRB/03 RMK AO2 $
53144K9L2 9L220160222113510202/22/16 11:35:31  5-MIN K9L2 221935Z AUTO 15003KT 10SM CLR 21/M03 A3012 2120 20 3300 140/03 RMK AO2 $
53144K9L2 9L220160222114010202/22/16 11:40:31  5-MIN K9L2 221940Z AUTO 00000KT 10SM CLR 21/M03 A3011 2130 19 3300 000/00 RMK AO2 $
53144K9L2 9L220160222114510202/22/16 11:45:31  5-MIN K9L2 221945Z AUTO 18005KT 10SM CLR 21/M03 A3011 2130 19 3400 170/05 RMK AO2 $
53144K9L2 9L220160222115010202/22/16 11:50:31  5-MIN K9L2 221950Z AUTO 15004KT 10SM CLR 21/M03 A3011 2130 19 3300 130/04 RMK AO2 $
53144K9L2 9L220160222115511902/22/16 11:55:31  5-MIN K9L2 221955Z AUTO 08004KT 10SM CLR 21/M04 A3010 2130 18 3400 070/04 RMK AO2 SLP191 T02111039 $
53144K9L2 9L220160222120010202/22/16 12:00:31  5-MIN K9L2 222000Z AUTO 02003KT 10SM CLR 22/M06 A3010 2140 15 3400 010/03 RMK AO2 $
53144K9L2 9L220160222120510202/22/16 12:05:31  5-MIN K9L2 222005Z AUTO 01003KT 10SM CLR 22/M06 A3009 2140 14 3500 360/03 RMK AO2 $
53144K9L2 9L220160222121010202/22/16 12:10:31  5-MIN K9L2 222010Z AUTO 03004KT 10SM CLR 22/M06 A3009 2140 14 3500 010/04 RMK AO2 $
53144K9L2 9L220160222121510202/22/16 12:15:31  5-MIN K9L2 222015Z AUTO 08004KT 10SM CLR 22/M06 A3009 2150 14 3500 070/04 RMK AO2 $
53144K9L2 9L220160222122010202/22/16 12:20:31  5-MIN K9L2 222020Z AUTO VRB03KT 10SM CLR 22/M06 A3009 2150 14 3500 VRB/03 RMK AO2 $
53144K9L2 9L220160222122510202/22/16 12:25:31  5-MIN K9L2 222025Z AUTO 02007KT 10SM CLR 23/M07 A3009 2150 13 3600 010/07 RMK AO2 $
53144K9L2 9L220160222123010202/22/16 12:30:31  5-MIN K9L2 222030Z AUTO 04007KT 10SM CLR 23/M08 A3009 2150 12 3600 030/07 RMK AO2 $
53144K9L2 9L220160222123510202/22/16 12:35:31  5-MIN K9L2 222035Z AUTO 07006KT 10SM CLR 23/M07 A3008 2150 13 3600 050/06 RMK AO2 $
53144K9L2 9L220160222124010202/22/16 12:40:31  5-MIN K9L2 222040Z AUTO 05006KT 10SM CLR 22/M07 A3008 2160 13 3500 030/06 RMK AO2 $
53144K9L2 9L220160222124510202/22/16 12:45:31  5-MIN K9L2 222045Z AUTO 04003KT 10SM CLR 22/M07 A3008 2160 13 3500 030/03 RMK AO2 $
53144K9L2 9L220160222125010202/22/16 12:50:31  5-MIN K9L2 222050Z AUTO VRB04KT 10SM CLR 22/M07 A3007 2160 14 3500 VRB/04 RMK AO2 $
53144K9L2 9L220160222125513102/22/16 12:55:31  5-MIN K9L2 222055Z AUTO 03011G18KT 10SM CLR 23/M07 A3007 2160 13 3600 020/11G18 RMK AO2 SLP180 T02281072 50010 $
53144K9L2 9L220160222130010802/22/16 13:00:31  5-MIN K9L2 222100Z AUTO 02011G18KT 10SM CLR 23/M08 A3007 2160 11 3700 010/11G18 RMK AO2 $
53144K9L2 9L220160222130510202/22/16 13:05:31  5-MIN K9L2 222105Z AUTO 02008KT 10SM CLR 23/M08 A3007 2170 11 3700 010/08 RMK AO2 $
53144K9L2 9L220160222131010202/22/16 13:10:31  5-MIN K9L2 222110Z AUTO 36010KT 10SM CLR 23/M08 A3006 2170 11 3700 350/10 RMK AO2 $
53144K9L2 9L220160222131510202/22/16 13:15:31  5-MIN K9L2 222115Z AUTO 04007KT 10SM CLR 23/M08 A3006 2170 11 3700 030/07 RMK AO2 $
53144K9L2 9L220160222132010202/22/16 13:20:31  5-MIN K9L2 222120Z AUTO 05011KT 10SM CLR 23/M09 A3006 2170 11 3600 030/11 RMK AO2 $
53144K9L2 9L220160222132510202/22/16 13:25:31  5-MIN K9L2 222125Z AUTO 05004KT 10SM CLR 23/M08 A3006 2170 12 3600 040/04 RMK AO2 $
53144K9L2 9L220160222133010202/22/16 13:30:31  5-MIN K9L2 222130Z AUTO 04009KT 10SM CLR 23/M08 A3006 2180 11 3700 030/09 RMK AO2 $
53144K9L2 9L220160222133510202/22/16 13:35:31  5-MIN K9L2 222135Z AUTO 04004KT 10SM CLR 23/M08 A3005 2180 12 3600 030/04 RMK AO2 $
53144K9L2 9L220160222134010202/22/16 13:40:31  5-MIN K9L2 222140Z AUTO 04006KT 10SM CLR 23/M09 A3005 2180 11 3600 030/06 RMK AO2 $
53144K9L2 9L220160222134510202/22/16 13:45:31  5-MIN K9L2 222145Z AUTO 03007KT 10SM CLR 23/M09 A3005 2180 11 3700 020/07 RMK AO2 $
53144K9L2 9L220160222135010202/22/16 13:50:31  5-MIN K9L2 222150Z AUTO 01005KT 10SM CLR 23/M09 A3005 2180 11 3700 360/05 RMK AO2 $
53144K9L2 9L220160222135511902/22/16 13:55:31  5-MIN K9L2 222155Z AUTO VRB04KT 10SM CLR 23/M09 A3005 2190 11 3700 VRB/04 RMK AO2 SLP173 T02331089 $
53144K9L2 9L220160222140010202/22/16 14:00:31  5-MIN K9L2 222200Z AUTO 10006KT 10SM CLR 23/M09 A3004 2190 11 3700 080/06 RMK AO2 $
53144K9L2 9L220160222140510202/22/16 14:05:31  5-MIN K9L2 222205Z AUTO VRB04KT 10SM CLR 23/M09 A3004 2190 11 3600 VRB/04 RMK AO2 $
53144K9L2 9L220160222141010202/22/16 14:10:31  5-MIN K9L2 222210Z AUTO VRB03KT 10SM CLR 22/M09 A3004 2190 11 3600 VRB/03 RMK AO2 $
53144K9L2 9L220160222141510202/22/16 14:15:31  5-MIN K9L2 222215Z AUTO 00000KT 10SM CLR 22/M10 A3004 2190 10 3600 000/00 RMK AO2 $
53144K9L2 9L220160222142010202/22/16 14:20:31  5-MIN K9L2 222220Z AUTO 00000KT 10SM CLR 23/M10 A3004 2190 10 3700 000/00 RMK AO2 $
53144K9L2 9L220160222142510202/22/16 14:25:31  5-MIN K9L2 222225Z AUTO 03007KT 10SM CLR 23/M10 A3003 2200 10 3700 020/07 RMK AO2 $
53144K9L2 9L220160222143010202/22/16 14:30:31  5-MIN K9L2 222230Z AUTO 05009KT 10SM CLR 24/M10 A3003 2200 09 3800 040/09 RMK AO2 $
53144K9L2 9L220160222143510202/22/16 14:35:31  5-MIN K9L2 222235Z AUTO 03006KT 10SM CLR 23/M11 A3003 2200 09 3700 020/06 RMK AO2 $
53144K9L2 9L220160222144010202/22/16 14:40:31  5-MIN K9L2 222240Z AUTO 35004KT 10SM CLR 24/M11 A3003 2200 09 3800 330/04 RMK AO2 $
53144K9L2 9L220160222144510202/22/16 14:45:31  5-MIN K9L2 222245Z AUTO 32004KT 10SM CLR 23/M11 A3003 2200 09 3700 310/04 RMK AO2 $
53144K9L2 9L220160222145010202/22/16 14:50:31  5-MIN K9L2 222250Z AUTO 02003KT 10SM CLR 24/M11 A3003 2200 09 3800 010/03 RMK AO2 $
53144K9L2 9L220160222145511902/22/16 14:55:31  5-MIN K9L2 222255Z AUTO 07008KT 10SM CLR 23/M11 A3003 2200 09 3700 050/08 RMK AO2 SLP166 T02331106 $
53144K9L2 9L220160222150016402/22/16 15:00:31  5-MIN K9L2 222300Z AUTO 06006KT 10SM CLR 23/M11 A3003 :15:31  5-MIN K9L2 222315Z AUTO 10005KT 10SM CLR 23/M10 A3003 2200 10 3600 090/05 RMK AO2 $
53144K9L2 9L220160222152006002/22/16 15:20:31  5-MIN K9L2 222320Z AUTO 00000K3 RMK AO2 $
53144K9L2 9L220160222153510202/22/16 15:35:31  5-MIN K9L2 222335Z AUTO 10004KT 10SM CLR 23/M10 A3002 2210 10 3600 090/04 RMK AO2 $
53144K9L2 9L220160222154010202/22/16 15:40:31  5-MIN K9L2 222340Z AUTO 00000KT 10SM CLR 23/M11 A3003 2200 10 3600 000/00 RMK AO2 $
53144K9L2 9L220160222154510202/22/16 15:45:31  5-MIN K9L2 222345Z AUTO 00000KT 10SM CLR 23/M11 A3003 2200 10 3600 000/00 RMK AO2 $
53144K9L2 9L220160222155010202/22/16 15:50:31  5-MIN K9L2 222350Z AUTO 00000KT 10SM CLR 23/M10 A3003 2210 10 3600 000/00 RMK AO2 $
53144K9L2 9L220160222155513702/22/16 15:55:31  5-MIN K9L2 222355Z AUTO 00000KT 10SM CLR 23/M10 A3002 2210 10 3600 000/00 RMK AO2 SLP166 T02281100 10239 20144 58020 $
53144K9L2 9L220160222160010202/22/16 16:00:31  5-MIN K9L2 230000Z AUTO 13003KT 10SM CLR 23/M10 A3002 2210 10 3600 120/03 RMK AO2 $
53144K9L2 9L220160222160510202/22/16 16:05:31  5-MIN K9L2 230005Z AUTO 15003KT 10SM CLR 23/M10 A3002 2210 10 3600 140/03 RMK AO2 $
53144K9L2 9L220160222161010202/22/16 16:10:31  5-MIN K9L2 230010Z AUTO 14003KT 10SM CLR 23/M10 A3002 2210 10 3700 120/03 RMK AO2 $
53144K9L2 9L220160222161510202/22/16 16:15:31  5-MIN K9L2 230015Z AUTO 14003KT 10SM CLR 22/M10 A3002 2210 10 3600 120/03 RMK AO2 $
53144K9L2 9L220160222162010202/22/16 16:20:31  5-MIN K9L2 230020Z AUTO 15005KT 10SM CLR 22/M10 A3002 2210 10 3600 140/05 RMK AO2 $
53144K9L2 9L220160222162510202/22/16 16:25:31  5-MIN K9L2 230025Z AUTO 17004KT 10SM CLR 22/M10 A3002 2210 10 3600 150/04 RMK AO2 $
53144K9L2 9L220160222163010202/22/16 16:30:31  5-MIN K9L2 230030Z AUTO 17004KT 10SM CLR 22/M10 A3002 2210 10 3600 160/04 RMK AO2 $
53144K9L2 9L220160222163510202/22/16 16:35:31  5-MIN K9L2 230035Z AUTO 19003KT 10SM CLR 22/M10 A3002 2210 10 3600 170/03 RMK AO2 $
53144K9L2 9L220160222164010202/22/16 16:40:31  5-MIN K9L2 230040Z AUTO 00000KT 10SM CLR 22/M10 A3002 2210 10 3600 000/00 RMK AO2 $
53144K9L2 9L220160222164510202/22/16 16:45:31  5-MIN K9L2 230045Z AUTO 00000KT 10SM CLR 22/M10 A3002 2210 10 3600 000/00 RMK AO2 $
53144K9L2 9L220160222165010202/22/16 16:50:31  5-MIN K9L2 230050Z AUTO 00000KT 10SM CLR 22/M10 A3002 2210 10 3600 000/00 RMK AO2 $
53144K9L2 9L220160224004010202/24/16 00:40:31  5-MIN K9L2 240840Z AUTO 36007KT 10SM CLR 05/M07 A3022 2030 42 1300 350/07 RMK AO2 $
53144K9L2 9L220160224004510202/24/16 00:45:31  5-MIN K9L2 240845Z AUTO 36007KT 10SM CLR 04/M07 A3022 2020 46 1200 350/07 RMK AO2 $
53144K9L2 9L220160224005010202/24/16 00:50:31  5-MIN K9L2 240850Z AUTO 35006KT 10SM CLR 04/M07 A3022 2030 46 1200 340/06 RMK AO2 $
53144K9L2 9L220160224005512502/24/16 00:55:31  5-MIN K9L2 240855Z AUTO 34006KT 10SM CLR 03/M07 A3022 2030 48 1100 330/06 RMK AO2 SLP236 T00331067 51016 $
53144K9L2 9L220160224010010202/24/16 01:00:31  5-MIN K9L2 240900Z AUTO 32006KT 10SM CLR 03/M07 A3022 2030 48 1100 310/06 RMK AO2 $
53144K9L2 9L220160224010510202/24/16 01:05:31  5-MIN K9L2 240905Z AUTO 30003KT 10SM CLR 03/M07 A3022 2030 48 1100 290/03 RMK AO2 $
53144K9L2 9L220160224011010202/24/16 01:10:31  5-MIN K9L2 240910Z AUTO 30004KT 10SM CLR 03/M07 A3022 2030 50 1100 290/04 RMK AO2 $
53144K9L2 9L220160224011510202/24/16 01:15:31  5-MIN K9L2 240915Z AUTO 29005KT 10SM CLR 03/M07 A3022 2030 50 1100 280/05 RMK AO2 $
53144K9L2 9L220160224012010202/24/16 01:20:31  5-MIN K9L2 240920Z AUTO 30005KT 10SM CLR 03/M07 A3022 2030 50 1100 280/05 RMK AO2 $
53144K9L2 9L220160224012510202/24/16 01:25:31  5-MIN K9L2 240925Z AUTO 31005KT 10SM CLR 03/M07 A3022 2030 50 1100 300/05 RMK AO2 $
53144K9L2 9L220160224013010202/24/16 01:30:31  5-MIN K9L2 240930Z AUTO 32005KT 10SM CLR 03/M07 A3022 2030 50 1100 310/05 RMK AO2 $
53144K9L2 9L220160224013510202/24/16 01:35:31  5-MIN K9L2 240935Z AUTO 31003KT 10SM CLR 03/M07 A3022 2030 50 1100 290/03 RMK AO2 $
53144K9L2 9L220160224014010202/24/16 01:40:31  5-MIN K9L2 240940Z AUTO 31003KT 10SM CLR 03/M07 A3022 2030 50 1100 300/03 RMK AO2 $
53144K9L2 9L220160224014510902/24/16 01:45:31  5-MIN K9L2 240945Z AUTO 33003KT 10SM CLR 02/M07 A3022 2030 52 1000 310/03 RMK AO2 FZRANO $
53144K9L2 9L220160224015010202/24/16 01:50:31  5-MIN K9L2 240950Z AUTO 33004KT 10SM CLR 03/M07 A3022 2030 50 1100 320/04 RMK AO2 $
53144K9L2 9L220160224015511902/24/16 01:55:31  5-MIN K9L2 240955Z AUTO 34004KT 10SM CLR 03/M07 A3022 2030 50 1100 320/04 RMK AO2 SLP234 T00281067 $
53144K9L2 9L220160224020010202/24/16 02:00:31  5-MIN K9L2 241000Z AUTO 34004KT 10SM CLR 03/M07 A3022 2030 50 1100 320/04 RMK AO2 $
53144K9L2 9L220160224020510202/24/16 02:05:31  5-MIN K9L2 241005Z AUTO 35003KT 10SM CLR 03/M07 A3022 2030 50 1100 330/03 RMK AO2 $
53144K9L2 9L220160224021010202/24/16 02:10:31  5-MIN K9L2 241010Z AUTO 36003KT 10SM CLR 03/M07 A3021 2030 50 1100 350/03 RMK AO2 $
53144K9L2 9L220160224021510202/24/16 02:15:31  5-MIN K9L2 241015Z AUTO 01003KT 10SM CLR 03/M07 A3021 2030 50 1100 350/03 RMK AO2 $
53144K9L2 9L220160224022010202/24/16 02:20:31  5-MIN K9L2 241020Z AUTO 35004KT 10SM CLR 03/M07 A3021 2030 50 1100 340/04 RMK AO2 $
53144K9L2 9L220160224022510802/24/16 02:25:31  5-MIN K9L2 241025Z AUTO 36003KT 10SM CLR 02/M07 A3021 2030 54 900 350/03 RMK AO2 FZRANO $
53144K9L2 9L220160224023010902/24/16 02:30:31  5-MIN K9L2 241030Z AUTO 02004KT 10SM CLR 02/M07 A3021 2030 52 1000 360/04 RMK AO2 FZRANO $
53144K9L2 9L220160224023510902/24/16 02:35:31  5-MIN K9L2 241035Z AUTO 00000KT 10SM CLR 02/M07 A3021 2030 52 1000 000/00 RMK AO2 FZRANO $
53144K9L2 9L220160224024010802/24/16 02:40:31  5-MIN K9L2 241040Z AUTO 00000KT 10SM CLR 02/M07 A3021 2030 54 900 000/00 RMK AO2 FZRANO $
53144K9L2 9L220160224024510802/24/16 02:45:31  5-MIN K9L2 241045Z AUTO 00000KT 10SM CLR 02/M07 A3021 2040 54 900 000/00 RMK AO2 FZRANO $
53144K9L2 9L220160224025010902/24/16 02:50:31  5-MIN K9L2 241050Z AUTO 00000KT 10SM CLR 02/M07 A3021 2040 54 1000 000/00 RMK AO2 FZRANO $
53144K9L2 9L220160224025512602/24/16 02:55:31  5-MIN K9L2 241055Z AUTO 00000KT 10SM CLR 02/M07 A3021 2040 54 1000 000/00 RMK AO2 SLP233 T00171067 FZRANO $
53144K9L2 9L220160224030010802/24/16 03:00:31  5-MIN K9L2 241100Z AUTO 00000KT 10SM CLR 01/M07 A3021 2040 56 900 000/00 RMK AO2 FZRANO $
53144K9L2 9L220160224030510802/24/16 03:05:31  5-MIN K9L2 241105Z AUTO 00000KT 10SM CLR 01/M07 A3021 2040 54 900 000/00 RMK AO2 FZRANO $
53144K9L2 9L220160224031010902/24/16 03:10:31  5-MIN K9L2 241110Z AUTO 00000KT 10SM CLR 02/M07 A3021 2040 52 1000 000/00 RMK AO2 FZRANO $
53144K9L2 9L220160224031510902/24/16 03:15:31  5-MIN K9L2 241115Z AUTO 00000KT 10SM CLR 02/M07 A3021 2040 52 1000 000/00 RMK AO2 FZRANO $
53144K9L2 9L220160224032010202/24/16 03:20:31  5-MIN K9L2 241120Z AUTO 00000KT 10SM CLR 03/M07 A3021 2040 50 1100 000/00 RMK AO2 $
53144K9L2 9L220160224032510902/24/16 03:25:31  5-MIN K9L2 241125Z AUTO 00000KT 10SM CLR 02/M07 A3021 2040 52 1000 000/00 RMK AO2 FZRANO $
53144K9L2 9L220160224033010902/24/16 03:30:31  5-MIN K9L2 241130Z AUTO 00000KT 10SM CLR 02/M07 A3021 2030 52 1000 000/00 RMK AO2 FZRANO $
53144K9L2 9L220160224033510902/24/16 03:35:31  5-MIN K9L2 241135Z AUTO 00000KT 10SM CLR 02/M07 A3021 2030 52 1000 000/00 RMK AO2 FZRANO $
53144K9L2 9L220160224034010902/24/16 03:40:31  5-MIN K9L2 241140Z AUTO 00000KT 10SM CLR 02/M07 A3021 2040 52 1000 000/00 RMK AO2 FZRANO $
53144K9L2 9L220160224034510802/24/16 03:45:31  5-MIN K9L2 241145Z AUTO 00000KT 10SM CLR 02/M07 A3021 2040 54 900 000/00 RMK AO2 FZRANO $
53144K9L2 9L220160224035010902/24/16 03:50:31  5-MIN K9L2 241150Z AUTO 04003KT 10SM CLR 02/M07 A3021 2040 52 1000 030/03 RMK AO2 FZRANO $
53144K9L2 9L220160224035514402/24/16 03:55:31  5-MIN K9L2 241155Z AUTO 03003KT 10SM CLR 02/M07 A3021 2040 52 1000 020/03 RMK AO2 SLP231 T00221067 10061 20011 51005 FZRANO $
53144K9L2 9L220160224040010902/24/16 04:00:31  5-MIN K9L2 241200Z AUTO 03003KT 10SM CLR 02/M07 A3021 2040 52 1000 020/03 RMK AO2 FZRANO $
53144K9L2 9L220160224040510902/24/16 04:05:31  5-MIN K9L2 241205Z AUTO 02003KT 10SM CLR 02/M07 A3021 2040 54 1000 010/03 RMK AO2 FZRANO $
53144K9L2 9L220160224041010802/24/16 04:10:31  5-MIN K9L2 241210Z AUTO 01003KT 10SM CLR 01/M07 A3021 2040 56 900 360/03 RMK AO2 FZRANO $
53144K9L2 9L220160224041510802/24/16 04:15:31  5-MIN K9L2 241215Z AUTO 01003KT 10SM CLR 01/M07 A3021 2040 56 900 350/03 RMK AO2 FZRANO $
53144K9L2 9L220160224042010802/24/16 04:20:31  5-MIN K9L2 241220Z AUTO 35003KT 10SM CLR 02/M07 A3021 2040 54 900 340/03 RMK AO2 FZRANO $
53144K9L2 9L220160224042510802/24/16 04:25:31  5-MIN K9L2 241225Z AUTO 34003KT 10SM CLR 01/M07 A3021 2030 56 900 330/03 RMK AO2 FZRANO $
53144K9L2 9L220160224043010802/24/16 04:30:31  5-MIN K9L2 241230Z AUTO 36003KT 10SM CLR 01/M07 A3021 2030 58 800 350/03 RMK AO2 FZRANO $
53144K9L2 9L220160224043510802/24/16 04:35:31  5-MIN K9L2 241235Z AUTO 36004KT 10SM CLR 00/M07 A3021 2030 61 700 350/04 RMK AO2 FZRANO $
53144K9L2 9L220160224044010802/24/16 04:40:31  5-MIN K9L2 241240Z AUTO 36004KT 10SM CLR 00/M07 A3022 2030 61 700 350/04 RMK AO2 FZRANO $
53144K9L2 9L220160224044510802/24/16 04:45:31  5-MIN K9L2 241245Z AUTO 01004KT 10SM CLR 00/M07 A3022 2030 61 700 350/04 RMK AO2 FZRANO $
53144K9L2 9L220160224045010802/24/16 04:50:31  5-MIN K9L2 241250Z AUTO 02005KT 10SM CLR 00/M07 A3022 2030 61 700 360/05 RMK AO2 FZRANO $
53144K9L2 9L220160224045512502/24/16 04:55:31  5-MIN K9L2 241255Z AUTO 01005KT 10SM CLR 00/M07 A3022 2030 61 700 350/05 RMK AO2 SLP238 T00001067 FZRANO $
53144K9L2 9L220160224050010802/24/16 05:00:31  5-MIN K9L2 241300Z AUTO 36005KT 10SM CLR 00/M07 A3022 2030 61 700 340/05 RMK AO2 FZRANO $
53144K9L2 9L220160224050510802/24/16 05:05:31  5-MIN K9L2 241305Z AUTO 35005KT 10SM CLR 01/M07 A3022 2030 58 800 340/05 RMK AO2 FZRANO $
53144K9L2 9L220160224051010802/24/16 05:10:31  5-MIN K9L2 241310Z AUTO 35005KT 10SM CLR 00/M07 A3022 2020 61 700 340/05 RMK AO2 FZRANO $
53144K9L2 9L220160224051510802/24/16 05:15:31  5-MIN K9L2 241315Z AUTO 34006KT 10SM CLR 00/M07 A3022 2020 61 700 330/06 RMK AO2 FZRANO $
53144K9L2 9L220160224052010802/24/16 05:20:31  5-MIN K9L2 241320Z AUTO 36006KT 10SM CLR 01/M07 A3022 2020 58 800 340/06 RMK AO2 FZRANO $
53144K9L2 9L220160224052510802/24/16 05:25:31  5-MIN K9L2 241325Z AUTO 01005KT 10SM CLR 00/M07 A3022 2020 61 700 350/05 RMK AO2 FZRANO $
53144K9L2 9L220160224053010802/24/16 05:30:31  5-MIN K9L2 241330Z AUTO 02005KT 10SM CLR 01/M07 A3022 2020 58 800 360/05 RMK AO2 FZRANO $
53144K9L2 9L220160224053510802/24/16 05:35:31  5-MIN K9L2 241335Z AUTO 00000KT 10SM CLR 01/M07 A3023 2020 58 800 000/00 RMK AO2 FZRANO $
53144K9L2 9L220160224054010802/24/16 05:40:31  5-MIN K9L2 241340Z AUTO 00000KT 10SM CLR 00/M07 A3023 2020 61 700 000/00 RMK AO2 FZRANO $
53144K9L2 9L220160224054510902/24/16 05:45:31  5-MIN K9L2 241345Z AUTO 00000KT 10SM CLR M01/M07 A3023 2020 61 700 000/00 RMK AO2 FZRANO $
53144K9L2 9L220160224055010902/24/16 05:50:31  5-MIN K9L2 241350Z AUTO 00000KT 10SM CLR M01/M07 A3023 2020 63 600 000/00 RMK AO2 FZRANO $
53144K9L2 9L220160224055512602/24/16 05:55:31  5-MIN K9L2 241355Z AUTO 00000KT 10SM CLR M01/M07 A3023 2020 63 600 000/00 RMK AO2 SLP244 T10111072 FZRANO $
53144K9L2 9L220160224060010902/24/16 06:00:31  5-MIN K9L2 241400Z AUTO 00000KT 10SM CLR M01/M07 A3023 2020 63 600 000/00 RMK AO2 FZRANO $
53144K9L2 9L220160224060510802/24/16 06:05:31  5-MIN K9L2 241405Z AUTO 00000KT 10SM CLR 00/M07 A3023 2020 58 700 000/00 RMK AO2 FZRANO $
53144K9L2 9L220160224061010802/24/16 06:10:31  5-MIN K9L2 241410Z AUTO 00000KT 10SM CLR 00/M07 A3023 2020 58 700 000/00 RMK AO2 FZRANO $
53144K9L2 9L220160224061510802/24/16 06:15:31  5-MIN K9L2 241415Z AUTO 34003KT 10SM CLR 02/M07 A3023 2020 54 900 330/03 RMK AO2 FZRANO $
53144K9L2 9L220160224062010802/24/16 06:20:31  5-MIN K9L2 241420Z AUTO 34003KT 10SM CLR 01/M07 A3024 2010 56 900 330/03 RMK AO2 FZRANO $
53144K9L2 9L220160224062510802/24/16 06:25:31  5-MIN K9L2 241425Z AUTO 33004KT 10SM CLR 01/M07 A3024 2010 54 900 310/04 RMK AO2 FZRANO $
53144K9L2 9L220160224063010802/24/16 06:30:31  5-MIN K9L2 241430Z AUTO 00000KT 10SM CLR 01/M07 A3024 2010 56 800 000/00 RMK AO2 FZRANO $
53144K9L2 9L220160224063510802/24/16 06:35:31  5-MIN K9L2 241435Z AUTO 00000KT 10SM CLR 01/M07 A3024 2010 56 800 000/00 RMK AO2 FZRANO $
53144K9L2 9L220160224064010802/24/16 06:40:31  5-MIN K9L2 241440Z AUTO 00000KT 10SM CLR 01/M07 A3024 2010 58 800 000/00 RMK AO2 FZRANO $
53144K9L2 9L220160224064510802/24/16 06:45:31  5-MIN K9L2 241445Z AUTO 00000KT 10SM CLR 00/M07 A3024 2010 61 700 000/00 RMK AO2 FZRANO $
53144K9L2 9L220160224065010902/24/16 06:50:31  5-MIN K9L2 241450Z AUTO 00000KT 10SM CLR M01/M07 A3024 2000 61 600 000/00 RMK AO2 FZRANO $
53144K9L2 9L220160224065513102/24/16 06:55:31  5-MIN K9L2 241455Z AUTO 00000KT 10SM CLR 01/M07 A3025 2000 58 800 000/00 RMK AO2 SLP253 T00061067 56004 FZRANO $
53144K9L2 9L220160224070010802/24/16 07:00:31  5-MIN K9L2 241500Z AUTO 00000KT 10SM CLR 01/M07 A3025 2000 56 800 000/00 RMK AO2 FZRANO $
53144K9L2 9L220160224070510802/24/16 07:05:31  5-MIN K9L2 241505Z AUTO 00000KT 10SM CLR 02/M07 A3025 2000 54 900 000/00 RMK AO2 FZRANO $
53144K9L2 9L220160224071010802/24/16 07:10:31  5-MIN K9L2 241510Z AUTO 00000KT 10SM CLR 02/M07 A3025 1990 54 900 000/00 RMK AO2 FZRANO $
53144K9L2 9L220160224071510902/24/16 07:15:31  5-MIN K9L2 241515Z AUTO 00000KT 10SM CLR 02/M06 A3026 1990 54 1000 000/00 RMK AO2 FZRANO $
53144K9L2 9L220160224072010202/24/16 07:20:31  5-MIN K9L2 241520Z AUTO 14003KT 10SM CLR 03/M07 A3026 1990 50 1000 130/03 RMK AO2 $
53144K9L2 9L220160224072510902/24/16 07:25:31  5-MIN K9L2 241525Z AUTO 00000KT 10SM CLR 02/M07 A3026 1990 52 1000 000/00 RMK AO2 FZRANO $
53144K9L2 9L220160224073010902/24/16 07:30:31  5-MIN K9L2 241530Z AUTO 13003KT 10SM CLR 02/M07 A3026 1990 50 1000 120/03 RMK AO2 FZRANO $
53144K9L2 9L220160224073510202/24/16 07:35:31  5-MIN K9L2 241535Z AUTO 00000KT 10SM CLR 03/M07 A3026 1990 48 1000 000/00 RMK AO2 $
53144K9L2 9L220160224074010202/24/16 07:40:31  5-MIN K9L2 241540Z AUTO 00000KT 10SM CLR 03/M07 A3027 1980 50 1000 000/00 RMK AO2 $
53144K9L2 9L220160224074510202/24/16 07:45:31  5-MIN K9L2 241545Z AUTO 00000KT 10SM CLR 03/M07 A3027 1980 48 1100 000/00 RMK AO2 $
53144K9L2 9L220160224075010202/24/16 07:50:31  5-MIN K9L2 241550Z AUTO 00000KT 10SM CLR 03/M07 A3027 1980 48 1000 000/00 RMK AO2 $
53144K9L2 9L220160224075511902/24/16 07:55:31  5-MIN K9L2 241555Z AUTO 00000KT 10SM CLR 03/M07 A3027 1980 48 1100 000/00 RMK AO2 SLP261 T00331067 $
53144K9L2 9L220160224080010202/24/16 08:00:31  5-MIN K9L2 241600Z AUTO 00000KT 10SM CLR 04/M07 A3027 1980 46 1200 000/00 RMK AO2 $
53144K9L2 9L220160224080510202/24/16 08:05:31  5-MIN K9L2 241605Z AUTO 15003KT 10SM CLR 04/M07 A3028 1970 46 1100 130/03 RMK AO2 $
53144K9L2 9L220160224081010202/24/16 08:10:31  5-MIN K9L2 241610Z AUTO 16003KT 10SM CLR 03/M07 A3028 1970 48 1100 140/03 RMK AO2 $
53144K9L2 9L220160224081510202/24/16 08:15:31  5-MIN K9L2 241615Z AUTO 16004KT 10SM CLR 04/M07 A3028 1970 46 1100 140/04 RMK AO2 $
53144K9L2 9L220160224082010202/24/16 08:20:31  5-MIN K9L2 241620Z AUTO 15003KT 10SM CLR 04/M07 A3028 1970 46 1100 140/03 RMK AO2 $
53144K9L2 9L220160224082510202/24/16 08:25:31  5-MIN K9L2 241625Z AUTO 00000KT 10SM CLR 04/M07 A3028 1970 44 1200 000/00 RMK AO2 $
53144K9L2 9L220160224083010202/24/16 08:30:31  5-MIN K9L2 241630Z AUTO 00000KT 10SM CLR 05/M06 A3028 1970 44 1300 000/00 RMK AO2 $
53144K9L2 9L220160224083510202/24/16 08:35:31  5-MIN K9L2 241635Z AUTO 00000KT 10SM CLR 06/M06 A3028 1970 43 1300 000/00 RMK AO2 $
53144K9L2 9L220160224084010202/24/16 08:40:31  5-MIN K9L2 241640Z AUTO 00000KT 10SM CLR 06/M06 A3029 1970 43 1300 000/00 RMK AO2 $
53144K9L2 9L220160224084510202/24/16 08:45:31  5-MIN K9L2 241645Z AUTO 00000KT 10SM CLR 06/M06 A3029 1970 41 1400 000/00 RMK AO2 $
53144K9L2 9L220160224085010202/24/16 08:50:31  5-MIN K9L2 241650Z AUTO 00000KT 10SM CLR 07/M07 A3029 1970 38 1500 000/00 RMK AO2 $
53144K9L2 9L220160224085511902/24/16 08:55:31  5-MIN K9L2 241655Z AUTO 00000KT 10SM CLR 07/M06 A3028 1970 38 1500 000/00 RMK AO2 SLP264 T00721061 $
53144K9L2 9L220160224090010202/24/16 09:00:31  5-MIN K9L2 241700Z AUTO 00000KT 10SM CLR 08/M06 A3028 1970 35 1700 000/00 RMK AO2 $
53144K9L2 9L220160224090510202/24/16 09:05:31  5-MIN K9L2 241705Z AUTO 00000KT 10SM CLR 09/M06 A3028 1970 35 1700 000/00 RMK AO2 $
53144K9L2 9L220160224091010202/24/16 09:10:31  5-MIN K9L2 241710Z AUTO 00000KT 10SM CLR 10/M06 A3028 1970 33 1900 000/00 RMK AO2 $
53144K9L2 9L220160224091510202/24/16 09:15:31  5-MIN K9L2 241715Z AUTO VRB03KT 10SM CLR 11/M06 A3028 1970 30 2000 VRB/03 RMK AO2 $
53144K9L2 9L220160224092010202/24/16 09:20:31  5-MIN K9L2 241720Z AUTO 35003KT 10SM CLR 12/M06 A3028 1970 28 2100 340/03 RMK AO2 $
53144K9L2 9L220160224092510202/24/16 09:25:31  5-MIN K9L2 241725Z AUTO 36003KT 10SM CLR 12/M06 A3028 1970 27 2100 340/03 RMK AO2 $
53144K9L2 9L220160224093010202/24/16 09:30:31  5-MIN K9L2 241730Z AUTO 00000KT 10SM CLR 13/M07 A3028 1970 25 2200 000/00 RMK AO2 $
53144K9L2 9L220160224093510202/24/16 09:35:31  5-MIN K9L2 241735Z AUTO 00000KT 10SM CLR 13/M07 A3028 1970 24 2300 000/00 RMK AO2 $
53144K9L2 9L220160224094010202/24/16 09:40:31  5-MIN K9L2 241740Z AUTO 00000KT 10SM CLR 13/M07 A3028 1970 23 2300 000/00 RMK AO2 $
53144K9L2 9L220160224094510202/24/16 09:45:31  5-MIN K9L2 241745Z AUTO 14004KT 10SM CLR 13/M06 A3028 1970 26 2200 130/04 RMK AO2 $
53144K9L2 9L220160224095010202/24/16 09:50:31  5-MIN K9L2 241750Z AUTO 00000KT 10SM CLR 12/M05 A3028 1970 29 2100 000/00 RMK AO2 $
53144K9L2 9L220160224095513702/24/16 09:55:31  5-MIN K9L2 241755Z AUTO 00000KT 10SM CLR 12/M06 A3028 1970 28 2100 000/00 RMK AO2 SLP258 T01221056 10133 21011 53013 $
53144K9L2 9L220160224100010202/24/16 10:00:31  5-MIN K9L2 241800Z AUTO 14003KT 10SM CLR 13/M06 A3028 1970 27 2200 130/03 RMK AO2 $
53144K9L2 9L220160224100510202/24/16 10:05:31  5-MIN K9L2 241805Z AUTO 00000KT 10SM CLR 13/M06 A3028 1980 27 2200 000/00 RMK AO2 $
53144K9L2 9L220160224101010202/24/16 10:10:31  5-MIN K9L2 241810Z AUTO 00000KT 10SM CLR 13/M06 A3027 1980 25 2300 000/00 RMK AO2 $
53144K9L2 9L220160224101510202/24/16 10:15:31  5-MIN K9L2 241815Z AUTO 00000KT 10SM CLR 13/M06 A3027 1980 25 2300 000/00 RMK AO2 $
53144K9L2 9L220160224102010202/24/16 10:20:31  5-MIN K9L2 241820Z AUTO 16003KT 10SM CLR 14/M06 A3027 1980 24 2300 150/03 RMK AO2 $
53144K9L2 9L220160224102510202/24/16 10:25:31  5-MIN K9L2 241825Z AUTO 00000KT 10SM CLR 14/M06 A3027 1980 24 2300 000/00 RMK AO2 $
53144K9L2 9L220160224103010202/24/16 10:30:31  5-MIN K9L2 241830Z AUTO 00000KT 10SM CLR 14/M06 A3027 1980 23 2400 000/00 RMK AO2 $
53144K9L2 9L220160224103510202/24/16 10:35:31  5-MIN K9L2 241835Z AUTO 00000KT 10SM CLR 15/M07 A3027 1980 22 2500 000/00 RMK AO2 $
53144K9L2 9L220160224104010202/24/16 10:40:31  5-MIN K9L2 241840Z AUTO 00000KT 10SM CLR 15/M07 A3027 1980 21 2500 000/00 RMK AO2 $
53144K9L2 9L220160224104510202/24/16 10:45:31  5-MIN K9L2 241845Z AUTO 15003KT 10SM CLR 16/M07 A3027 1980 20 2500 140/03 RMK AO2 $
53144K9L2 9L220160224105010202/24/16 10:50:31  5-MIN K9L2 241850Z AUTO 00000KT 10SM CLR 16/M07 A3027 1980 20 2500 000/00 RMK AO2 $
53144K9L2 9L220160224105511902/24/16 10:55:31  5-MIN K9L2 241855Z AUTO 00000KT 10SM CLR 16/M07 A3027 1990 20 2500 000/00 RMK AO2 SLP253 T01561072 $
53144K9L2 9L220160224110010202/24/16 11:00:31  5-MIN K9L2 241900Z AUTO 00000KT 10SM CLR 16/M07 A3026 1990 19 2600 000/00 RMK AO2 $
53144K9L2 9L220160224110510202/24/16 11:05:31  5-MIN K9L2 241905Z AUTO 00000KT 10SM CLR 16/M08 A3026 1990 18 2600 000/00 RMK AO2 $
53144K9L2 9L220160224111010202/24/16 11:10:31  5-MIN K9L2 241910Z AUTO 10003KT 10SM CLR 17/M08 A3026 1990 17 2700 090/03 RMK AO2 $
53144K9L2 9L220160224111510202/24/16 11:15:31  5-MIN K9L2 241915Z AUTO VRB03KT 10SM CLR 17/M08 A3026 1990 17 2700 VRB/03 RMK AO2 $
53144K9L2 9L220160224112010202/24/16 11:20:31  5-MIN K9L2 241920Z AUTO 14005KT 10SM CLR 17/M09 A3025 2000 16 2700 130/05 RMK AO2 $
53144K9L2 9L220160224112510202/24/16 11:25:31  5-MIN K9L2 241925Z AUTO 16004KT 10SM CLR 17/M08 A3025 2000 18 2700 150/04 RMK AO2 $
53144K9L2 9L220160224113010202/24/16 11:30:31  5-MIN K9L2 241930Z AUTO 18003KT 10SM CLR 17/M08 A3025 2000 17 2700 160/03 RMK AO2 $
53144K9L2 9L220160224113510202/24/16 11:35:31  5-MIN K9L2 241935Z AUTO 17005KT 10SM CLR 17/M09 A3024 2000 16 2700 160/05 RMK AO2 $
53144K9L2 9L220160224114010202/24/16 11:40:31  5-MIN K9L2 241940Z AUTO 00000KT 10SM CLR 17/M09 A3024 2010 15 2800 000/00 RMK AO2 $
53144K9L2 9L220160224114510202/24/16 11:45:31  5-MIN K9L2 241945Z AUTO VRB03KT 10SM CLR 17/M09 A3024 2010 16 2800 VRB/03 RMK AO2 $
53144K9L2 9L220160224115010202/24/16 11:50:31  5-MIN K9L2 241950Z AUTO 14004KT 10SM CLR 17/M09 A3023 2010 16 2800 130/04 RMK AO2 $
53144K9L2 9L220160224115511902/24/16 11:55:31  5-MIN K9L2 241955Z AUTO 14004KT 10SM CLR 17/M09 A3023 2020 16 2800 130/04 RMK AO2 SLP239 T01721089 $
53144K9L2 9L220160224120010202/24/16 12:00:31  5-MIN K9L2 242000Z AUTO 17003KT 10SM CLR 17/M09 A3023 2020 16 2800 150/03 RMK AO2 $
53144K9L2 9L220160224120510202/24/16 12:05:31  5-MIN K9L2 242005Z AUTO 00000KT 10SM CLR 18/M09 A3022 2020 14 2900 000/00 RMK AO2 $
53144K9L2 9L220160224121010202/24/16 12:10:31  5-MIN K9L2 242010Z AUTO 13004KT 10SM CLR 18/M09 A3022 2030 14 2900 120/04 RMK AO2 $
53144K9L2 9L220160224121510202/24/16 12:15:31  5-MIN K9L2 242015Z AUTO VRB04KT 10SM CLR 18/M09 A3021 2030 14 2900 VRB/04 RMK AO2 $
53144K9L2 9L220160224122010202/24/16 12:20:31  5-MIN K9L2 242020Z AUTO 00000KT 10SM CLR 18/M10 A3021 2040 13 2900 000/00 RMK AO2 $
53144K9L2 9L220160224122510202/24/16 12:25:31  5-MIN K9L2 242025Z AUTO 12005KT 10SM CLR 18/M10 A3021 2040 13 2900 110/05 RMK AO2 $
53144K9L2 9L220160224123010202/24/16 12:30:31  5-MIN K9L2 242030Z AUTO 16003KT 10SM CLR 18/M11 A3020 2040 12 2900 150/03 RMK AO2 $
53144K9L2 9L220160224123510202/24/16 12:35:31  5-MIN K9L2 242035Z AUTO VRB06KT 10SM CLR 19/M11 A3020 2040 12 3000 VRB/06 RMK AO2 $
53144K9L2 9L220160224124010202/24/16 12:40:31  5-MIN K9L2 242040Z AUTO 01004KT 10SM CLR 20/M12 A3020 2050 11 3100 360/04 RMK AO2 $
53144K9L2 9L220160224124510202/24/16 12:45:31  5-MIN K9L2 242045Z AUTO 09007KT 10SM CLR 20/M12 A3019 2050 11 3100 080/07 RMK AO2 $
53144K9L2 9L220160224125010202/24/16 12:50:31  5-MIN K9L2 242050Z AUTO 00000KT 10SM CLR 19/M12 A3019 2050 11 3000 000/00 RMK AO2 $
53144K9L2 9L220160224125512502/24/16 12:55:31  5-MIN K9L2 242055Z AUTO 00000KT 10SM CLR 19/M12 A3019 2050 11 3000 000/00 RMK AO2 SLP224 T01891122 50008 $
53144K9L2 9L220160224130010202/24/16 13:00:31  5-MIN K9L2 242100Z AUTO 04006KT 10SM CLR 20/M12 A3019 2060 10 3100 030/06 RMK AO2 $
53144K9L2 9L220160224130510202/24/16 13:05:31  5-MIN K9L2 242105Z AUTO VRB03KT 10SM CLR 20/M12 A3018 2060 10 3200 VRB/03 RMK AO2 $
53144K9L2 9L220160224131010202/24/16 13:10:31  5-MIN K9L2 242110Z AUTO VRB04KT 10SM CLR 20/M12 A3018 2060 10 3200 VRB/04 RMK AO2 $
53144K9L2 9L220160224131510202/24/16 13:15:31  5-MIN K9L2 242115Z AUTO 00000KT 10SM CLR 20/M13 A3018 2060 10 3200 000/00 RMK AO2 $
53144K9L2 9L220160224132010202/24/16 13:20:31  5-MIN K9L2 242120Z AUTO 14004KT 10SM CLR 19/M12 A3018 2070 10 3100 120/04 RMK AO2 $
53144K9L2 9L220160224132510202/24/16 13:25:31  5-MIN K9L2 242125Z AUTO 07007KT 10SM CLR 20/M12 A3018 2070 10 3200 060/07 RMK AO2 $
53144K9L2 9L220160224133010202/24/16 13:30:31  5-MIN K9L2 242130Z AUTO 08004KT 10SM CLR 20/M12 A3018 2070 10 3200 060/04 RMK AO2 $
53144K9L2 9L220160224133510202/24/16 13:35:31  5-MIN K9L2 242135Z AUTO VRB03KT 10SM CLR 19/M13 A3018 2070 10 3100 VRB/03 RMK AO2 $
53144K9L2 9L220160224134010202/24/16 13:40:31  5-MIN K9L2 242140Z AUTO 00000KT 10SM CLR 19/M13 A3017 2070 10 3100 000/00 RMK AO2 $
53144K9L2 9L220160224134510202/24/16 13:45:31  5-MIN K9L2 242145Z AUTO 07006KT 10SM CLR 20/M12 A3017 2070 10 3200 060/06 RMK AO2 $
53144K9L2 9L220160224135010202/24/16 13:50:31  5-MIN K9L2 242150Z AUTO 13005KT 10SM CLR 20/M12 A3017 2070 10 3200 120/05 RMK AO2 $
53144K9L2 9L220160224135511902/24/16 13:55:31  5-MIN K9L2 242155Z AUTO 05005KT 10SM CLR 20/M12 A3017 2070 10 3200 040/05 RMK AO2 SLP217 T02001122 $
53144K9L2 9L220160224140010202/24/16 14:00:31  5-MIN K9L2 242200Z AUTO 07003KT 10SM CLR 19/M12 A3017 2070 10 3100 060/03 RMK AO2 $
53144K9L2 9L220160224140510202/24/16 14:05:31  5-MIN K9L2 242205Z AUTO 00000KT 10SM CLR 20/M13 A3017 2080 10 3200 000/00 RMK AO2 $
53144K9L2 9L220160224141010202/24/16 14:10:31  5-MIN K9L2 242210Z AUTO 00000KT 10SM CLR 20/M12 A3016 2080 10 3200 000/00 RMK AO2 $
53144K9L2 9L220160224141510202/24/16 14:15:31  5-MIN K9L2 242215Z AUTO 16004KT 10SM CLR 19/M12 A3016 2080 10 3100 150/04 RMK AO2 $
53144K9L2 9L220160224142010202/24/16 14:20:31  5-MIN K9L2 242220Z AUTO VRB05KT 10SM CLR 20/M12 A3016 2090 10 3200 VRB/05 RMK AO2 $
53144K9L2 9L220160224142510202/24/16 14:25:31  5-MIN K9L2 242225Z AUTO 12006KT 10SM CLR 20/M12 A3015 2090 11 3200 110/06 RMK AO2 $
53144K9L2 9L220160224143010202/24/16 14:30:31  5-MIN K9L2 242230Z AUTO 15005KT 10SM CLR 20/M12 A3015 2090 10 3200 130/05 RMK AO2 $
53144K9L2 9L220160224143510202/24/16 14:35:31  5-MIN K9L2 242235Z AUTO 15005KT 10SM CLR 20/M12 A3015 2090 10 3200 140/05 RMK AO2 $
53144K9L2 9L220160224144010202/24/16 14:40:31  5-MIN K9L2 242240Z AUTO VRB04KT 10SM CLR 20/M12 A3015 2090 10 3200 VRB/04 RMK AO2 $
53144K9L2 9L220160224144510202/24/16 14:45:31  5-MIN K9L2 242245Z AUTO 16004KT 10SM CLR 19/M12 A3015 2090 10 3100 150/04 RMK AO2 $
53144K9L2 9L220160224145010202/24/16 14:50:31  5-MIN K9L2 242250Z AUTO 17004KT 10SM CLR 20/M12 A3015 2090 11 3200 150/04 RMK AO2 $
53144K9L2 9L220160224145511902/24/16 14:55:31  5-MIN K9L2 242255Z AUTO VRB04KT 10SM CLR 20/M12 A3015 2090 11 3200 VRB/04 RMK AO2 SLP210 T02001117 $
53144K9L2 9L220160224150010202/24/16 15:00:31  5-MIN K9L2 242300Z AUTO 00000KT 10SM CLR 20/M12 A3015 2090 11 3200 000/00 RMK AO2 $
53144K9L2 9L220160224150510202/24/16 15:05:31  5-MIN K9L2 242305Z AUTO 14003KT 10SM CLR 21/M12 A3015 2100 10 3300 130/03 RMK AO2 $
53144K9L2 9L220160224151010202/24/16 15:10:31  5-MIN K9L2 242310Z AUTO 11005KT 10SM CLR 21/M12 A3014 2100 10 3300 100/05 RMK AO2 $
53144K9L2 9L220160224151510202/24/16 15:15:31  5-MIN K9L2 242315Z AUTO VRB04KT 10SM CLR 20/M12 A3014 2100 11 3200 VRB/04 RMK AO2 $
53144K9L2 9L220160224152010202/24/16 15:20:31  5-MIN K9L2 242320Z AUTO 00000KT 10SM CLR 20/M12 A3014 2100 11 3200 000/00 RMK AO2 $
53144K9L2 9L220160224152510202/24/16 15:25:31  5-MIN K9L2 242325Z AUTO 18003KT 10SM CLR 20/M12 A3014 2100 11 3200 160/03 RMK AO2 $
53144K9L2 9L220160224153010202/24/16 15:30:31  5-MIN K9L2 242330Z AUTO 16004KT 10SM CLR 20/M12 A3014 2100 11 3200 140/04 RMK AO2 $
53144K9L2 9L220160224153510202/24/16 15:35:31  5-MIN K9L2 242335Z AUTO VRB03KT 10SM CLR 20/M12 A3014 2100 11 3200 VRB/03 RMK AO2 $
53144K9L2 9L220160224154010202/24/16 15:40:31  5-MIN K9L2 242340Z AUTO 15004KT 10SM CLR 20/M12 A3014 2100 11 3200 130/04 RMK AO2 $
53144K9L2 9L220160224154510202/24/16 15:45:31  5-MIN K9L2 242345Z AUTO 13004KT 10SM CLR 20/M12 A3014 2100 11 3200 120/04 RMK AO2 $
53144K9L2 9L220160224155010202/24/16 15:50:31  5-MIN K9L2 242350Z AUTO 14005KT 10SM CLR 20/M12 A3014 2100 11 3200 120/05 RMK AO2 $
53144K9L2 9L220160224155513702/24/16 15:55:31  5-MIN K9L2 242355Z AUTO 15005KT 10SM CLR 20/M12 A3014 2100 11 3200 140/05 RMK AO2 SLP206 T02001117 10206 20122 58028 $
53144K9L2 9L220160224160010202/24/16 16:00:31  5-MIN K9L2 250000Z AUTO 15003KT 10SM CLR 20/M12 A3014 2100 11 3200 140/03 RMK AO2 $
53144K9L2 9L220160224160510202/24/16 16:05:31  5-MIN K9L2 250005Z AUTO 16004KT 10SM CLR 20/M12 A3014 2100 11 3200 140/04 RMK AO2 $
53144K9L2 9L220160224161010202/24/16 16:10:31  5-MIN K9L2 250010Z AUTO 16003KT 10SM CLR 20/M12 A3013 2100 11 3200 140/03 RMK AO2 $
53144K9L2 9L220160224161510202/24/16 16:15:31  5-MIN K9L2 250015Z AUTO 14004KT 10SM CLR 20/M11 A3013 2110 11 3200 130/04 RMK AO2 $
53144K9L2 9L220160224162010202/24/16 16:20:31  5-MIN K9L2 250020Z AUTO 14003KT 10SM CLR 19/M12 A3013 2110 11 3100 130/03 RMK AO2 $
53144K9L2 9L220160224162510202/24/16 16:25:31  5-MIN K9L2 250025Z AUTO 16003KT 10SM CLR 20/M11 A3013 2110 11 3200 140/03 RMK AO2 $
53144K9L2 9L220160224163010202/24/16 16:30:31  5-MIN K9L2 250030Z AUTO 16003KT 10SM CLR 20/M11 A3013 2110 11 3200 150/03 RMK AO2 $
53144K9L2 9L220160224163510202/24/16 16:35:31  5-MIN K9L2 250035Z AUTO 15003KT 10SM CLR 20/M11 A3013 2110 11 3200 130/03 RMK AO2 $
53144K9L2 9L220160224164010202/24/16 16:40:31  5-MIN K9L2 250040Z AUTO 15004KT 10SM CLR 19/M11 A3013 2110 11 3100 140/04 RMK AO2 $
53144K9L2 9L220160224164510202/24/16 16:45:31  5-MIN K9L2 250045Z AUTO 14004KT 10SM CLR 19/M11 A3013 2110 11 3100 130/04 RMK AO2 $
53144K9L2 9L220160224165010202/24/16 16:50:31  5-MIN K9L2 250050Z AUTO 17004KT 10SM CLR 19/M11 A3013 2110 11 3100 150/04 RMK AO2 $
53144K9L2 9L220160224165511902/24/16 16:55:31  5-MIN K9L2 250055Z AUTO 15003KT 10SM CLR 19/M11 A3013 2110 11 3100 140/03 RMK AO2 SLP206 T01941111 $
53144K9L2 9L220160224170010202/24/16 17:00:31  5-MIN K9L2 250100Z AUTO 17003KT 10SM CLR 19/M11 A3013 2110 11 3100 160/03 RMK AO2 $
53144K9L2 9L220160224170510202/24/16 17:05:31  5-MIN K9L2 250105Z AUTO 18003KT 10SM CLR 19/M11 A3013 2110 11 3100 160/03 RMK AO2 $
53144K9L2 9L220160224171010202/24/16 17:10:31  5-MIN K9L2 250110Z AUTO 00000KT 10SM CLR 19/M11 A3013 2110 12 3100 000/00 RMK AO2 $
53144K9L2 9L220160224171510202/24/16 17:15:31  5-MIN K9L2 250115Z AUTO 21003KT 10SM CLR 19/M11 A3013 2110 12 3100 190/03 RMK AO2 $
53144K9L2 9L220160224172010202/24/16 17:20:31  5-MIN K9L2 250120Z AUTO 23003KT 10SM CLR 18/M10 A3013 2110 13 3000 210/03 RMK AO2 $
53144K9L2 9L220160224172510202/24/16 17:25:31  5-MIN K9L2 250125Z AUTO 22004KT 10SM CLR 18/M10 A3013 2110 13 3000 210/04 RMK AO2 $
53144K9L2 9L220160224173010202/24/16 17:30:31  5-MIN K9L2 250130Z AUTO 24003KT 10SM CLR 18/M10 A3013 2110 14 3000 220/03 RMK AO2 $
53144K9L2 9L220160224173510202/24/16 17:35:31  5-MIN K9L2 250135Z AUTO 24003KT 10SM CLR 18/M09 A3013 2110 14 3000 220/03 RMK AO2 $
53144K9L2 9L220160224174010202/24/16 17:40:31  5-MIN K9L2 250140Z AUTO 23003KT 10SM CLR 17/M09 A3013 2110 15 2900 220/03 RMK AO2 $
53144K9L2 9L220160224174510202/24/16 17:45:31  5-MIN K9L2 250145Z AUTO 00000KT 10SM CLR 17/M10 A3013 2110 14 2900 000/00 RMK AO2 $
53144K9L2 9L220160224175010202/24/16 17:50:31  5-MIN K9L2 250150Z AUTO 00000KT 10SM CLR 17/M10 A3014 2100 14 2900 000/00 RMK AO2 $
53144K9L2 9L220160224175511902/24/16 17:55:31  5-MIN K9L2 250155Z AUTO 00000KT 10SM CLR 17/M10 A3014 2100 15 2800 000/00 RMK AO2 SLP212 T01671100 $
53144K9L2 9L220160224180010202/24/16 18:00:31  5-MIN K9L2 250200Z AUTO 24003KT 10SM CLR 17/M10 A3014 2100 15 2800 230/03 RMK AO2 $
53144K9L2 9L220160224180510202/24/16 18:05:31  5-MIN K9L2 250205Z AUTO 24003KT 10SM CLR 16/M10 A3014 2100 16 2700 230/03 RMK AO2 $
53144K9L2 9L220160224181010202/24/16 18:10:31  5-MIN K9L2 250210Z AUTO 25003KT 10SM CLR 16/M09 A3014 2100 17 2700 230/03 RMK AO2 $
53144K9L2 9L220160224181510202/24/16 18:15:31  5-MIN K9L2 250215Z AUTO 25003KT 10SM CLR 14/M09 A3014 2100 19 2600 230/03 RMK AO2 $
53144K9L2 9L220160224182010202/24/16 18:20:31  5-MIN K9L2 250220Z AUTO 25003KT 10SM CLR 14/M08 A3014 2100 20 2500 240/03 RMK AO2 $
53144K9L2 9L220160224182510202/24/16 18:25:31  5-MIN K9L2 250225Z AUTO 25004KT 10SM CLR 14/M08 A3014 2100 20 2500 230/04 RMK AO2 $
53144K9L2 9L220160224183010202/24/16 18:30:31  5-MIN K9L2 250230Z AUTO 25003KT 10SM CLR 13/M09 A3014 2100 20 2400 240/03 RMK AO2 $
53144K9L2 9L220160224183510202/24/16 18:35:31  5-MIN K9L2 250235Z AUTO 26004KT 10SM CLR 13/M09 A3014 2100 20 2400 240/04 RMK AO2 $
53144K9L2 9L220160224184010202/24/16 18:40:31  5-MIN K9L2 250240Z AUTO 26003KT 10SM CLR 13/M09 A3015 2090 21 2400 240/03 RMK AO2 $
53144K9L2 9L220160224184510202/24/16 18:45:31  5-MIN K9L2 250245Z AUTO 26003KT 10SM CLR 12/M08 A3015 2090 24 2200 240/03 RMK AO2 $
53144K9L2 9L220160224185010202/24/16 18:50:31  5-MIN K9L2 250250Z AUTO 26003KT 10SM CLR 12/M08 A3015 2090 24 2200 250/03 RMK AO2 $
53144K9L2 9L220160224185512502/24/16 18:55:31  5-MIN K9L2 250255Z AUTO 28004KT 10SM CLR 11/M08 A3015 2090 27 2100 270/04 RMK AO2 SLP220 T01061078 56017 $
53144K9L2 9L220160224190010202/24/16 19:00:31  5-MIN K9L2 250300Z AUTO 29005KT 10SM CLR 10/M07 A3015 2090 29 2000 280/05 RMK AO2 $
53144K9L2 9L220160224190510202/24/16 19:05:31  5-MIN K9L2 250305Z AUTO 30005KT 10SM CLR 11/M08 A3015 2090 27 2100 290/05 RMK AO2 $
53144K9L2 9L220160224191010202/24/16 19:10:31  5-MIN K9L2 250310Z AUTO 30006KT 10SM CLR 11/M08 A3015 2090 27 2100 290/06 RMK AO2 $
53144K9L2 9L220160224191510202/24/16 19:15:31  5-MIN K9L2 250315Z AUTO 29008KT 10SM CLR 10/M08 A3015 2090 28 2000 280/08 RMK AO2 $
53144K9L2 9L220160224192010202/24/16 19:20:31  5-MIN K9L2 250320Z AUTO 30009KT 10SM CLR 11/M07 A3015 2090 28 2100 290/09 RMK AO2 $
53144K9L2 9L220160224192510202/24/16 19:25:31  5-MIN K9L2 250325Z AUTO 30008KT 10SM CLR 11/M07 A3015 2090 27 2200 290/08 RMK AO2 $
53144K9L2 9L220160224193010202/24/16 19:30:31  5-MIN K9L2 250330Z AUTO 30007KT 10SM CLR 11/M07 A3015 2090 28 2100 290/07 RMK AO2 $
53144K9L2 9L220160224193510202/24/16 19:35:31  5-MIN K9L2 250335Z AUTO 30008KT 10SM CLR 10/M07 A3015 2090 30 2000 280/08 RMK AO2 $
53144K9L2 9L220160224194010202/24/16 19:40:31  5-MIN K9L2 250340Z AUTO 30007KT 10SM CLR 10/M07 A3015 2090 30 2000 290/07 RMK AO2 $
53144K9L2 9L220160224194510202/24/16 19:45:31  5-MIN K9L2 250345Z AUTO 30006KT 10SM CLR 10/M07 A3016 2090 30 2000 290/06 RMK AO2 $
53144K9L2 9L220160224195010202/24/16 19:50:31  5-MIN K9L2 250350Z AUTO 30007KT 10SM CLR 10/M07 A3016 2090 30 2000 280/07 RMK AO2 $
53144K9L2 9L220160224195511902/24/16 19:55:31  5-MIN K9L2 250355Z AUTO 29008KT 10SM CLR 09/M07 A3016 2090 31 2000 280/08 RMK AO2 SLP221 T00941067 $
53144K9L2 9L220160224200010202/24/16 20:00:31  5-MIN K9L2 250400Z AUTO 29008KT 10SM CLR 09/M07 A3016 2090 31 2000 280/08 RMK AO2 $
53144K9L2 9L220160224200510202/24/16 20:05:31  5-MIN K9L2 250405Z AUTO 29008KT 10SM CLR 09/M07 A3016 2090 31 2000 280/08 RMK AO2 $
53144K9L2 9L220160224201010202/24/16 20:10:31  5-MIN K9L2 250410Z AUTO 29008KT 10SM CLR 09/M07 A3016 2090 30 2000 280/08 RMK AO2 $
53144K9L2 9L220160224201510202/24/16 20:15:31  5-MIN K9L2 250415Z AUTO 29008KT 10SM CLR 09/M07 A3016 2080 30 2000 280/08 RMK AO2 $
53144K9L2 9L220160224202010202/24/16 20:20:31  5-MIN K9L2 250420Z AUTO VRB04KT 10SM CLR 09/M07 A3016 2080 30 2000 VRB/04 RMK AO2 $
53144K9L2 9L220160224202510202/24/16 20:25:31  5-MIN K9L2 250425Z AUTO 29004KT 10SM CLR 09/M08 A3016 2080 30 1900 270/04 RMK AO2 $
53144K9L2 9L220160224203010202/24/16 20:30:31  5-MIN K9L2 250430Z AUTO 29006KT 10SM CLR 08/M07 A3016 2080 34 1800 270/06 RMK AO2 $
53144K9L2 9L220160224203510202/24/16 20:35:31  5-MIN K9L2 250435Z AUTO 32005KT 10SM CLR 08/M07 A3016 2080 32 1800 310/05 RMK AO2 $
53144K9L2 9L220160224204010202/24/16 20:40:31  5-MIN K9L2 250440Z AUTO 30004KT 10SM CLR 08/M07 A3016 2080 32 1800 290/04 RMK AO2 $
53144K9L2 9L220160224204510202/24/16 20:45:31  5-MIN K9L2 250445Z AUTO 31003KT 10SM CLR 08/M07 A3016 2080 32 1800 290/03 RMK AO2 $
53144K9L2 9L220160224205010202/24/16 20:50:31  5-MIN K9L2 250450Z AUTO 00000KT 10SM CLR 08/M07 A3016 2080 34 1700 000/00 RMK AO2 $
53144K9L2 9L220160224205511902/24/16 20:55:31  5-MIN K9L2 250455Z AUTO 32003KT 10SM CLR 08/M07 A3016 2080 32 1800 310/03 RMK AO2 SLP222 T00831072 $
53144K9L2 9L220160224210010202/24/16 21:00:31  5-MIN K9L2 250500Z AUTO 31003KT 10SM CLR 08/M07 A3016 2080 35 1700 300/03 RMK AO2 $
53144K9L2 9L220160224210510202/24/16 21:05:31  5-MIN K9L2 250505Z AUTO 00000KT 10SM CLR 08/M07 A3017 2070 35 1700 000/00 RMK AO2 $
53144K9L2 9L220160224211010202/24/16 21:10:31  5-MIN K9L2 250510Z AUTO 00000KT 10SM CLR 08/M07 A3017 2070 34 1800 000/00 RMK AO2 $
53144K9L2 9L220160224211510202/24/16 21:15:31  5-MIN K9L2 250515Z AUTO 32004KT 10SM CLR 08/M07 A3017 2070 35 1700 300/04 RMK AO2 $
53144K9L2 9L220160224212010202/24/16 21:20:31  5-MIN K9L2 250520Z AUTO 32004KT 10SM CLR 07/M07 A3017 2070 36 1700 310/04 RMK AO2 $
53144K9L2 9L220160224212510202/24/16 21:25:31  5-MIN K9L2 250525Z AUTO 32004KT 10SM CLR 08/M07 A3017 2070 35 1700 300/04 RMK AO2 $
53144K9L2 9L220160224213010202/24/16 21:30:31  5-MIN K9L2 250530Z AUTO 32004KT 10SM CLR 08/M07 A3017 2070 35 1700 310/04 RMK AO2 $
53144K9L2 9L220160224213510202/24/16 21:35:31  5-MIN K9L2 250535Z AUTO 30003KT 10SM CLR 08/M06 A3017 2070 35 1800 290/03 RMK AO2 $
53144K9L2 9L220160224214010202/24/16 21:40:31  5-MIN K9L2 250540Z AUTO 30003KT 10SM CLR 08/M06 A3017 2070 36 1700 280/03 RMK AO2 $
53144K9L2 9L220160224214510202/24/16 21:45:31  5-MIN K9L2 250545Z AUTO 34004KT 10SM CLR 07/M06 A3017 2070 38 1700 330/04 RMK AO2 $
53144K9L2 9L220160224215010202/24/16 21:50:31  5-MIN K9L2 250550Z AUTO 35003KT 10SM CLR 07/M06 A3017 2070 38 1700 330/03 RMK AO2 $
53144K9L2 9L220160224215513702/24/16 21:55:31  5-MIN K9L2 250555Z AUTO 00000KT 10SM CLR 07/M06 A3017 2070 38 1700 000/00 RMK AO2 SLP220 T00721061 10200 20072 53004 $
53144K9L2 9L220160224220010202/24/16 22:00:31  5-MIN K9L2 250600Z AUTO 00000KT 10SM CLR 07/M06 A3017 2070 38 1700 000/00 RMK AO2 $
53144K9L2 9L220160224220510202/24/16 22:05:31  5-MIN K9L2 250605Z AUTO 00000KT 10SM CLR 07/M06 A3017 2070 39 1600 000/00 RMK AO2 $
53144K9L2 9L220160224221010202/24/16 22:10:31  5-MIN K9L2 250610Z AUTO 00000KT 10SM CLR 07/M06 A3017 2070 38 1700 000/00 RMK AO2 $
53144K9L2 9L220160224221510202/24/16 22:15:31  5-MIN K9L2 250615Z AUTO 00000KT 10SM CLR 06/M06 A3017 2070 41 1500 000/00 RMK AO2 $
53144K9L2 9L220160224222010202/24/16 22:20:31  5-MIN K9L2 250620Z AUTO 00000KT 10SM CLR 06/M06 A3017 2070 43 1500 000/00 RMK AO2 $
53144K9L2 9L220160224222510202/24/16 22:25:31  5-MIN K9L2 250625Z AUTO 00000KT 10SM CLR 05/M06 A3017 2070 44 1400 000/00 RMK AO2 $
53144K9L2 9L220160224223010202/24/16 22:30:31  5-MIN K9L2 250630Z AUTO 00000KT 10SM CLR 06/M06 A3017 2070 43 1500 000/00 RMK AO2 $
53144K9L2 9L220160224223510202/24/16 22:35:31  5-MIN K9L2 250635Z AUTO 00000KT 10SM CLR 06/M06 A3017 2070 43 1500 000/00 RMK AO2 $
53144K9L2 9L220160224224010202/24/16 22:40:31  5-MIN K9L2 250640Z AUTO 00000KT 10SM CLR 07/M06 A3017 2070 41 1600 000/00 RMK AO2 $
53144K9L2 9L220160224224510202/24/16 22:45:31  5-MIN K9L2 250645Z AUTO 00000KT 10SM CLR 07/M06 A3017 2070 41 1600 000/00 RMK AO2 $
53144K9L2 9L220160224225010202/24/16 22:50:31  5-MIN K9L2 250650Z AUTO 00000KT 10SM CLR 06/M06 A3017 2070 43 1500 000/00 RMK AO2 $
53144K9L2 9L220160224225511902/24/16 22:55:31  5-MIN K9L2 250655Z AUTO 00000KT 10SM CLR 06/M06 A3017 2070 41 1500 000/00 RMK AO2 SLP218 T00611061 $
53144K9L2 9L220160224230010202/24/16 23:00:31  5-MIN K9L2 250700Z AUTO 00000KT 10SM CLR 06/M06 A3017 2070 41 1500 000/00 RMK AO2 $
53144K9L2 9L220160224230510202/24/16 23:05:31  5-MIN K9L2 250705Z AUTO 00000KT 10SM CLR 06/M06 A3017 2070 41 1500 000/00 RMK AO2 $
53144K9L2 9L220160224231010202/24/16 23:10:31  5-MIN K9L2 250710Z AUTO 00000KT 10SM CLR 06/M06 A3017 2070 43 1500 000/00 RMK AO2 $
53144K9L2 9L220160224231510202/24/16 23:15:31  5-MIN K9L2 250715Z AUTO 00000KT 10SM CLR 05/M06 A3017 2070 44 1400 000/00 RMK AO2 $
53144K9L2 9L220160224232010202/24/16 23:20:31  5-MIN K9L2 250720Z AUTO 00000KT 10SM CLR 05/M06 A3017 2070 44 1400 000/00 RMK AO2 $
53144K9L2 9L220160224232510202/24/16 23:25:31  5-MIN K9L2 250725Z AUTO 00000KT 10SM CLR 05/M06 A3017 2070 44 1400 000/00 RMK AO2 $
53144K9L2 9L220160224233010202/24/16 23:30:31  5-MIN K9L2 250730Z AUTO 00000KT 10SM CLR 04/M06 A3017 2070 46 1300 000/00 RMK AO2 $
53144K9L2 9L220160224233510202/24/16 23:35:31  5-MIN K9L2 250735Z AUTO 00000KT 10SM CLR 04/M06 A3017 2070 46 1300 000/00 RMK AO2 $
53144K9L2 9L220160224234010202/24/16 23:40:31  5-MIN K9L2 250740Z AUTO 00000KT 10SM CLR 04/M06 A3017 2070 48 1300 000/00 RMK AO2 $
53144K9L2 9L220160224234510202/24/16 23:45:31  5-MIN K9L2 250745Z AUTO 00000KT 10SM CLR 04/M06 A3017 2070 48 1300 000/00 RMK AO2 $
53144K9L2 9L220160224235010202/24/16 23:50:31  5-MIN K9L2 250750Z AUTO 00000KT 10SM CLR 04/M06 A3017 2070 48 1300 000/00 RMK AO2 $
53144K9L2 9L220160224235512902/24/16 23:55:31  5-MIN K9L2 250755Z AUTO 00000KT 10SM CLR 03/M06 A3017 2070 50 1200 000/00 RMK AO2 SLP220 T00331061 402061011 $
53144K9L2 9L220160225000010202/25/16 00:00:31  5-MIN K9L2 250800Z AUTO 00000KT 10SM CLR 03/M06 A3017 2070 50 1200 000/00 RMK AO2 $
53144K9L2 9L220160225095513702/25/16 09:55:31  5-MIN K9L2 251755Z AUTO 00000KT 10SM CLR 10/M05 A3022 2020 34 1900 000/00 RMK AO2 SLP240 T01001050 10100 21011 52010 $
53144K9L2 9L220160225100010202/25/16 10:00:31  5-MIN K9L2 251800Z AUTO 00000KT 10SM CLR 10/M04 A3022 2020 36 1900 000/00 RMK AO2 $
53144K9L2 9L220160225100510202/25/16 10:05:31  5-MIN K9L2 251805Z AUTO 00000KT 10SM CLR 10/M04 A3021 2030 36 1900 000/00 RMK AO2 $
53144K9L2 9L220160225101010202/25/16 10:10:31  5-MIN K9L2 251810Z AUTO 00000KT 10SM CLR 11/M05 A3022 2030 33 2000 000/00 RMK AO2 $
53144K9L2 9L220160225101510202/25/16 10:15:31  5-MIN K9L2 251815Z AUTO 00000KT 10SM CLR 11/M04 A3022 2030 34 2000 000/00 RMK AO2 $
53144K9L2 9L220160225102010202/25/16 10:20:31  5-MIN K9L2 251820Z AUTO 00000KT 10SM CLR 11/M05 A3022 2030 32 2100 000/00 RMK AO2 $
53144K9L2 9L220160225102510202/25/16 10:25:31  5-MIN K9L2 251825Z AUTO 00000KT 10SM CLR 11/M05 A3022 2030 32 2100 000/00 RMK AO2 $
53144K9L2 9L220160225103010202/25/16 10:30:31  5-MIN K9L2 251830Z AUTO 00000KT 10SM CLR 12/M05 A3022 2030 30 2100 000/00 RMK AO2 $
53144K9L2 9L220160225103510202/25/16 10:35:31  5-MIN K9L2 251835Z AUTO 00000KT 10SM CLR 12/M05 A3022 2030 30 2100 000/00 RMK AO2 $
53144K9L2 9L220160225104010202/25/16 10:40:31  5-MIN K9L2 251840Z AUTO 12003KT 10SM CLR 12/M06 A3022 2030 28 2200 100/03 RMK AO2 $
53144K9L2 9L220160225104510202/25/16 10:45:31  5-MIN K9L2 251845Z AUTO 00000KT 10SM CLR 13/M06 A3021 2030 27 2300 000/00 RMK AO2 $
53144K9L2 9L220160225105010202/25/16 10:50:31  5-MIN K9L2 251850Z AUTO 00000KT 10SM CLR 13/M06 A3021 2030 26 2300 000/00 RMK AO2 $
53144K9L2 9L220160225105511902/25/16 10:55:31  5-MIN K9L2 251855Z AUTO 00000KT 10SM CLR 13/M06 A3021 2030 26 2300 000/00 RMK AO2 SLP235 T01331056 $
53144K9L2 9L220160225110013102/25/16 11:00:31  5-MIN K9L2 251900Z AUTO 00000KT 10SM CLR 13/M06 A3021 2030 26 2300 000/00 RMK AO2 $2030 25 2400 000/00 RMK AO2 $
53144K9L2 9L220160225111010202/25/16 11:10:31  5-MIN K9L2 251910Z AUTO 00000KT 10SM CLR 14/M06 A3021 2040 24 2400 000/00 RMK AO2 $
53144K9L2 9L220160225111510202/25/16 11:15:31  5-MIN K9L2 251915Z AUTO 00000KT 10SM CLR 14/M06 A3021 2040 23 2500 000/00 RMK AO2 $
53144K9L2 9L220160225112010202/25/16 11:20:31  5-MIN K9L2 251920Z AUTO 00000KT 10SM CLR 16/M06 A3020 2040 23 2600 000/00 RMK AO2 $
53144K9L2 9L220160225112510202/25/16 11:25:31  5-MIN K9L2 251925Z AUTO 00000KT 10SM CLR 16/M06 A3020 2040 22 2600 000/00 RMK AO2 $
53144K9L2 9L220160225113010202/25/16 11:30:31  5-MIN K9L2 251930Z AUTO 00000KT 10SM CLR 16/M06 A3020 2050 22 2600 000/00 RMK AO2 $
53144K9L2 9L220160225113510202/25/16 11:35:31  5-MIN K9L2 251935Z AUTO 00000KT 10SM CLR 16/M06 A3020 2050 21 2700 000/00 RMK AO2 $
53144K9L2 9L220160225114010202/25/16 11:40:31  5-MIN K9L2 251940Z AUTO 00000KT 10SM CLR 17/M06 A3019 2050 20 2800 000/00 RMK AO2 $
53144K9L2 9L220160225114510202/25/16 11:45:31  5-MIN K9L2 251945Z AUTO 00000KT 10SM CLR 17/M07 A3019 2050 19 2800 000/00 RMK AO2 $
53144K9L2 9L220160225115010202/25/16 11:50:31  5-MIN K9L2 251950Z AUTO 00000KT 10SM CLR 17/M07 A3019 2050 19 2800 000/00 RMK AO2 $
53144K9L2 9L220160225115511902/25/16 11:55:31  5-MIN K9L2 251955Z AUTO 00000KT 10SM CLR 18/M07 A3019 2060 17 3000 000/00 RMK AO2 SLP224 T01831072 $
53144K9L2 9L220160225120010202/25/16 12:00:31  5-MIN K9L2 252000Z AUTO 00000KT 10SM CLR 19/M07 A3018 2060 15 3100 000/00 RMK AO2 $
53144K9L2 9L220160225120510202/25/16 12:05:31  5-MIN K9L2 252005Z AUTO 00000KT 10SM CLR 19/M07 A3018 2060 15 3100 000/00 RMK AO2 $
53144K9L2 9L220160225121010202/25/16 12:10:31  5-MIN K9L2 252010Z AUTO 00000KT 10SM CLR 19/M07 A3018 2060 15 3100 000/00 RMK AO2 $
53144K9L2 9L220160225121510202/25/16 12:15:31  5-MIN K9L2 252015Z AUTO 00000KT 10SM CLR 19/M08 A3018 2070 12 3200 000/00 RMK AO2 $
53144K9L2 9L220160225123013102/25/16 12:30:31  5-MIN K9L2 252030Z AUTO 00000KT 10SM CLR 20/M11 A3017 2080 12 3200 000/00 RMK AO2 $2080 12 3100 000/00 RMK AO2 $
53144K9L2 9L220160225124010202/25/16 12:40:31  5-MIN K9L2 252040Z AUTO 00000KT 10SM CLR 20/M11 A3016 2080 12 3200 000/00 RMK AO2 $
53144K9L2 9L220160225124513102/25/16 12:45:31  5-MIN K9L2 252045Z AUTO VRB03KT 10SM CLR 20/M11 A3016 2080 12 3200 VRB/03 RMK AO2 $2090 12 3200 VRB/03 RMK AO2 $
53144K9L2 9L220160225125512502/25/16 12:55:31  5-MIN K9L2 252055Z AUTO 16003KT 10SM CLR 21/M10 A3015 2090 12 3300 140/03 RMK AO2 SLP211 T02061100 50009 $
53144K9L2 9L220160225130010202/25/16 13:00:31  5-MIN K9L2 252100Z AUTO 10003KT 10SM CLR 21/M09 A3015 2090 13 3300 080/03 RMK AO2 $
53144K9L2 9L220160225130510202/25/16 13:05:31  5-MIN K9L2 252105Z AUTO 00000KT 10SM CLR 21/M09 A3015 2090 12 3300 000/00 RMK AO2 $
53144K9L2 9L220160225131010202/25/16 13:10:31  5-MIN K9L2 252110Z AUTO 00000KT 10SM CLR 21/M09 A3015 2090 12 3300 000/00 RMK AO2 $
53144K9L2 9L220160225131510202/25/16 13:15:31  5-MIN K9L2 252115Z AUTO 00000KT 10SM CLR 21/M09 A3014 2100 12 3300 000/00 RMK AO2 $
53144K9L2 9L220160225132010202/25/16 13:20:31  5-MIN K9L2 252120Z AUTO 11003KT 10SM CLR 21/M09 A3014 2100 12 3300 090/03 RMK AO2 $
53144K9L2 9L220160225132510202/25/16 13:25:31  5-MIN K9L2 252125Z AUTO 00000KT 10SM CLR 22/M08 A3014 2100 12 3400 000/00 RMK AO2 $
53144K9L2 9L220160225133010202/25/16 13:30:31  5-MIN K9L2 252130Z AUTO 16004KT 10SM CLR 22/M09 A3013 2110 12 3400 150/04 RMK AO2 $
53144K9L2 9L220160225133510202/25/16 13:35:31  5-MIN K9L2 252135Z AUTO 10003KT 10SM CLR 22/M08 A3013 2110 12 3400 090/03 RMK AO2 $
53144K9L2 9L220160225134010202/25/16 13:40:31  5-MIN K9L2 252140Z AUTO VRB04KT 10SM CLR 22/M08 A3013 2110 12 3400 VRB/04 RMK AO2 $
53144K9L2 9L220160225134510202/25/16 13:45:31  5-MIN K9L2 252145Z AUTO 00000KT 10SM CLR 22/M08 A3013 2110 12 3500 000/00 RMK AO2 $
53144K9L2 9L220160225135010202/25/16 13:50:31  5-MIN K9L2 252150Z AUTO 12004KT 10SM CLR 22/M08 A3012 2110 12 3500 110/04 RMK AO2 $
53144K9L2 9L220160225135511902/25/16 13:55:31  5-MIN K9L2 252155Z AUTO 10004KT 10SM CLR 22/M08 A3012 2120 12 3500 090/04 RMK AO2 SLP200 T02221078 $
53144K9L2 9L220160225140010202/25/16 14:00:31  5-MIN K9L2 252200Z AUTO VRB03KT 10SM CLR 23/M07 A3012 2120 13 3500 VRB/03 RMK AO2 $
53144K9L2 9L220160225140510202/25/16 14:05:31  5-MIN K9L2 252205Z AUTO 09004KT 10SM CLR 23/M07 A3012 2120 13 3500 080/04 RMK AO2 $
53144K9L2 9L220160225141010202/25/16 14:10:31  5-MIN K9L2 252210Z AUTO 00000KT 10SM CLR 23/M07 A3012 2120 13 3500 000/00 RMK AO2 $
53144K9L2 9L220160225141510202/25/16 14:15:31  5-MIN K9L2 252215Z AUTO 07004KT 10SM CLR 23/M07 A3012 2120 13 3500 060/04 RMK AO2 $
53144K9L2 9L220160225142010202/25/16 14:20:31  5-MIN K9L2 252220Z AUTO VRB04KT 10SM CLR 23/M07 A3012 2120 12 3600 VRB/04 RMK AO2 $
53144K9L2 9L220160225142510202/25/16 14:25:31  5-MIN K9L2 252225Z AUTO VRB03KT 10SM CLR 23/M07 A3012 2120 13 3500 VRB/03 RMK AO2 $
53144K9L2 9L220160225143010202/25/16 14:30:31  5-MIN K9L2 252230Z AUTO VRB04KT 10SM CLR 24/M07 A3012 2120 12 3700 VRB/04 RMK AO2 $
53144K9L2 9L220160225143510202/25/16 14:35:31  5-MIN K9L2 252235Z AUTO 28003KT 10SM CLR 23/M07 A3012 2120 12 3600 270/03 RMK AO2 $
53144K9L2 9L220160225144010202/25/16 14:40:31  5-MIN K9L2 252240Z AUTO VRB04KT 10SM CLR 24/M07 A3012 2120 12 3700 VRB/04 RMK AO2 $
53144K9L2 9L220160225144510202/25/16 14:45:31  5-MIN K9L2 252245Z AUTO 02004KT 10SM CLR 24/M07 A3012 2120 12 3700 360/04 RMK AO2 $
53144K9L2 9L220160225145010202/25/16 14:50:31  5-MIN K9L2 252250Z AUTO 04004KT 10SM CLR 24/M07 A3012 2120 11 3700 020/04 RMK AO2 $
53144K9L2 9L220160225145511902/25/16 14:55:31  5-MIN K9L2 252255Z AUTO 00000KT 10SM CLR 24/M07 A3012 2120 12 3700 000/00 RMK AO2 SLP197 T02391072 $
53144K9L2 9L220160225150010202/25/16 15:00:31  5-MIN K9L2 252300Z AUTO 08006KT 10SM CLR 24/M08 A3011 2120 11 3700 060/06 RMK AO2 $
53144K9L2 9L220160225150510202/25/16 15:05:31  5-MIN K9L2 252305Z AUTO 06005KT 10SM CLR 23/M08 A3011 2130 11 3600 050/05 RMK AO2 $
53144K9L2 9L220160225151010202/25/16 15:10:31  5-MIN K9L2 252310Z AUTO 06006KT 10SM CLR 24/M08 A3011 2130 11 3700 040/06 RMK AO2 $
53144K9L2 9L220160225151510202/25/16 15:15:31  5-MIN K9L2 252315Z AUTO 05005KT 10SM CLR 24/M08 A3011 2130 11 3700 040/05 RMK AO2 $
53144K9L2 9L220160225152010202/25/16 15:20:31  5-MIN K9L2 252320Z AUTO 08005KT 10SM CLR 24/M08 A3011 2130 11 3700 070/05 RMK AO2 $
53144K9L2 9L220160225152510202/25/16 15:25:31  5-MIN K9L2 252325Z AUTO VRB04KT 10SM CLR 24/M08 A3011 2130 11 3700 VRB/04 RMK AO2 $
53144K9L2 9L220160225153010202/25/16 15:30:31  5-MIN K9L2 252330Z AUTO 08004KT 10SM CLR 24/M08 A3011 2130 11 3700 070/04 RMK AO2 $
53144K9L2 9L220160225153510202/25/16 15:35:31  5-MIN K9L2 252335Z AUTO 00000KT 10SM CLR 23/M08 A3011 2130 11 3600 000/00 RMK AO2 $
53144K9L2 9L220160225154010202/25/16 15:40:31  5-MIN K9L2 252340Z AUTO 08005KT 10SM CLR 24/M08 A3011 2130 11 3700 070/05 RMK AO2 $
53144K9L2 9L220160225154510202/25/16 15:45:31  5-MIN K9L2 252345Z AUTO 09005KT 10SM CLR 24/M08 A3011 2130 11 3700 070/05 RMK AO2 $
53144K9L2 9L220160225155010202/25/16 15:50:31  5-MIN K9L2 252350Z AUTO 09003KT 10SM CLR 24/M08 A3011 2130 11 3700 070/03 RMK AO2 $
53144K9L2 9L220160225155513702/25/16 15:55:31  5-MIN K9L2 252355Z AUTO VRB03KT 10SM CLR 24/M08 A3011 2130 11 3700 VRB/03 RMK AO2 SLP194 T02391083 10244 20100 58023 $
53144K9L2 9L220160225160010202/25/16 16:00:31  5-MIN K9L2 260000Z AUTO 09005KT 10SM CLR 24/M08 A3011 2130 11 3700 080/05 RMK AO2 $
53144K9L2 9L220160225160510202/25/16 16:05:31  5-MIN K9L2 260005Z AUTO 10005KT 10SM CLR 24/M08 A3011 2130 11 3700 080/05 RMK AO2 $
53144K9L2 9L220160225161010202/25/16 16:10:31  5-MIN K9L2 260010Z AUTO 10004KT 10SM CLR 24/M08 A3011 2130 11 3700 090/04 RMK AO2 $
53144K9L2 9L220160225161510202/25/16 16:15:31  5-MIN K9L2 260015Z AUTO 07003KT 10SM CLR 23/M08 A3011 2130 11 3600 060/03 RMK AO2 $
53144K9L2 9L220160225162010202/25/16 16:20:31  5-MIN K9L2 260020Z AUTO VRB03KT 10SM CLR 23/M08 A3011 2130 11 3600 VRB/03 RMK AO2 $
53144K9L2 9L220160225162510202/25/16 16:25:31  5-MIN K9L2 260025Z AUTO 06003KT 10SM CLR 24/M08 A3011 2130 11 3700 040/03 RMK AO2 $
53144K9L2 9L220160225163010202/25/16 16:30:31  5-MIN K9L2 260030Z AUTO 04005KT 10SM CLR 24/M08 A3011 2130 11 3700 030/05 RMK AO2 $
53144K9L2 9L220160225163510202/25/16 16:35:31  5-MIN K9L2 260035Z AUTO 05003KT 10SM CLR 24/M08 A3011 2130 11 3700 030/03 RMK AO2 $
53144K9L2 9L220160225164010202/25/16 16:40:31  5-MIN K9L2 260040Z AUTO 00000KT 10SM CLR 24/M08 A3011 2130 11 3700 000/00 RMK AO2 $
53144K9L2 9L220160225164510202/25/16 16:45:31  5-MIN K9L2 260045Z AUTO 00000KT 10SM CLR 24/M07 A3011 2130 12 3700 000/00 RMK AO2 $
53144K9L2 9L220160225165010202/25/16 16:50:31  5-MIN K9L2 260050Z AUTO 34004KT 10SM CLR 24/M07 A3011 2130 12 3700 320/04 RMK AO2 $
53144K9L2 9L220160225165511902/25/16 16:55:31  5-MIN K9L2 260055Z AUTO 00000KT 10SM CLR 24/M08 A3011 2130 11 3700 000/00 RMK AO2 SLP195 T02391078 $
53144K9L2 9L220160225170010202/25/16 17:00:31  5-MIN K9L2 260100Z AUTO 00000KT 10SM CLR 23/M07 A3011 2130 12 3600 000/00 RMK AO2 $
53144K9L2 9L220160225170510202/25/16 17:05:31  5-MIN K9L2 260105Z AUTO 36003KT 10SM CLR 23/M07 A3011 2130 13 3600 350/03 RMK AO2 $
53144K9L2 9L220160225171010202/25/16 17:10:31  5-MIN K9L2 260110Z AUTO 00000KT 10SM CLR 23/M06 A3011 2130 14 3600 000/00 RMK AO2 $
53144K9L2 9L220160225172010202/25/16 17:20:31  5-MIN K9L2 260120Z AUTO 33004KT 10SM CLR 22/M05 A3011 2130 16 3400 320/04 RMK AO2 $
53144K9L2 9L220160225172510202/25/16 17:25:31  5-MIN K9L2 260125Z AUTO 33005KT 10SM CLR 22/M04 A3011 2130 17 3400 320/05 RMK AO2 $
53144K9L2 9L220160225173010202/25/16 17:30:31  5-MIN K9L2 260130Z AUTO 33005KT 10SM CLR 21/M04 A3011 2130 18 3300 320/05 RMK AO2 $
53144K9L2 9L220160225173510202/25/16 17:35:31  5-MIN K9L2 260135Z AUTO 32004KT 10SM CLR 20/M04 A3011 2130 18 3200 310/04 RMK AO2 $
53144K9L2 9L220160225174010202/25/16 17:40:31  5-MIN K9L2 260140Z AUTO 32004KT 10SM CLR 19/M04 A3011 2130 19 3200 310/04 RMK AO2 $
53144K9L2 9L220160225174510202/25/16 17:45:31  5-MIN K9L2 260145Z AUTO 31004KT 10SM CLR 19/M04 A3011 2130 20 3100 300/04 RMK AO2 $
53144K9L2 9L220160225175010202/25/16 17:50:31  5-MIN K9L2 260150Z AUTO 31004KT 10SM CLR 18/M04 A3011 2130 21 3000 300/04 RMK AO2 $
53144K9L2 9L220160225175511902/25/16 17:55:31  5-MIN K9L2 260155Z AUTO 31004KT 10SM CLR 18/M04 A3011 2130 21 3000 300/04 RMK AO2 SLP200 T01781044 $
53144K9L2 9L220160225180010202/25/16 18:00:31  5-MIN K9L2 260200Z AUTO 31004KT 10SM CLR 18/M04 A3011 2130 21 3000 300/04 RMK AO2 $
53144K9L2 9L220160225180510202/25/16 18:05:31  5-MIN K9L2 260205Z AUTO 31003KT 10SM CLR 17/M04 A3011 2130 23 2900 300/03 RMK AO2 $
53144K9L2 9L220160225181010202/25/16 18:10:31  5-MIN K9L2 260210Z AUTO 29003KT 10SM CLR 16/M04 A3011 2130 25 2800 280/03 RMK AO2 $
53144K9L2 9L220160225181510202/25/16 18:15:31  5-MIN K9L2 260215Z AUTO 29004KT 10SM CLR 15/M04 A3011 2130 27 2700 280/04 RMK AO2 $
53144K9L2 9L220160225182010202/25/16 18:20:31  5-MIN K9L2 260220Z AUTO 29005KT 10SM CLR 15/M04 A3011 2130 27 2700 270/05 RMK AO2 $
53144K9L2 9L220160225182510202/25/16 18:25:31  5-MIN K9L2 260225Z AUTO 29006KT 10SM CLR 14/M04 A3011 2130 28 2600 270/06 RMK AO2 $
53144K9L2 9L220160225183010202/25/16 18:30:31  5-MIN K9L2 260230Z AUTO 29007KT 10SM CLR 14/M04 A3011 2130 28 2600 270/07 RMK AO2 $
53144K9L2 9L220160225183509202/25/16 18:35:31  5-MIN K9L2 260235Z AUTO 10SM CLR 14/M04 A3011 2130 29 2500 M /M RMK AO2 $
53144K9L2 9L220160225184010202/25/16 18:40:31  5-MIN K9L2 260240Z AUTO 29007KT 10SM CLR 14/M04 A3011 2120 29 2500 280/07 RMK AO2 $
53144K9L2 9L220160225184510202/25/16 18:45:31  5-MIN K9L2 260245Z AUTO 29008KT 10SM CLR 14/M04 A3011 2120 29 2500 280/08 RMK AO2 $
53144K9L2 9L220160225185010202/25/16 18:50:31  5-MIN K9L2 260250Z AUTO 29008KT 10SM CLR 13/M04 A3011 2120 30 2500 280/08 RMK AO2 $
53144K9L2 9L220160225185512502/25/16 18:55:31  5-MIN K9L2 260255Z AUTO 29008KT 10SM CLR 13/M04 A3012 2120 30 2500 280/08 RMK AO2 SLP206 T01331039 56015 $
53144K9L2 9L220160225190010202/25/16 19:00:31  5-MIN K9L2 260300Z AUTO 29008KT 10SM CLR 13/M04 A3012 2120 30 2500 280/08 RMK AO2 $
53144K9L2 9L220160225190510202/25/16 19:05:31  5-MIN K9L2 260305Z AUTO 29008KT 10SM CLR 13/M04 A3012 2120 31 2400 280/08 RMK AO2 $
53144K9L2 9L220160225191010202/25/16 19:10:31  5-MIN K9L2 260310Z AUTO 30008KT 10SM CLR 13/M04 A3012 2120 31 2400 280/08 RMK AO2 $
53144K9L2 9L220160225191510202/25/16 19:15:31  5-MIN K9L2 260315Z AUTO 30008KT 10SM CLR 13/M03 A3012 2120 32 2400 280/08 RMK AO2 $
53144K9L2 9L220160225192010202/25/16 19:20:31  5-MIN K9L2 260320Z AUTO 30008KT 10SM CLR 12/M03 A3012 2120 33 2300 280/08 RMK AO2 $
53144K9L2 9L220160225192510202/25/16 19:25:31  5-MIN K9L2 260325Z AUTO 30007KT 10SM CLR 12/M03 A3012 2120 33 2300 290/07 RMK AO2 $
53144K9L2 9L220160225193010202/25/16 19:30:31  5-MIN K9L2 260330Z AUTO 30006KT 10SM CLR 12/M03 A3012 2120 33 2300 290/06 RMK AO2 $
53144K9L2 9L220160225193510202/25/16 19:35:31  5-MIN K9L2 260335Z AUTO 30005KT 10SM CLR 12/M04 A3012 2120 33 2300 290/05 RMK AO2 $
53144K9L2 9L220160225194010202/25/16 19:40:31  5-MIN K9L2 260340Z AUTO 30006KT 10SM CLR 12/M04 A3013 2110 33 2300 290/06 RMK AO2 $
53144K9L2 9L220160225194510202/25/16 19:45:31  5-MIN K9L2 260345Z AUTO 32004KT 10SM CLR 12/M04 A3013 2110 33 2300 300/04 RMK AO2 $
53144K9L2 9L220160225195010202/25/16 19:50:31  5-MIN K9L2 260350Z AUTO 32004KT 10SM CLR 12/M04 A3013 2110 33 2300 300/04 RMK AO2 $
53144K9L2 9L220160225195511902/25/16 19:55:31  5-MIN K9L2 260355Z AUTO 31004KT 10SM CLR 12/M04 A3013 2110 33 2300 290/04 RMK AO2 SLP209 T01171039 $
53144K9L2 9L220160225200010202/25/16 20:00:31  5-MIN K9L2 260400Z AUTO 31004KT 10SM CLR 12/M04 A3013 2110 33 2200 290/04 RMK AO2 $
53144K9L2 9L220160225200510202/25/16 20:05:31  5-MIN K9L2 260405Z AUTO 31004KT 10SM CLR 12/M04 A3013 2110 33 2200 300/04 RMK AO2 $
53144K9L2 9L220160225201010202/25/16 20:10:31  5-MIN K9L2 260410Z AUTO 00000KT 10SM CLR 12/M04 A3014 2100 33 2200 000/00 RMK AO2 $
53144K9L2 9L220160225201510202/25/16 20:15:31  5-MIN K9L2 260415Z AUTO 00000KT 10SM CLR 11/M04 A3014 2100 34 2200 000/00 RMK AO2 $
53144K9L2 9L220160225202010202/25/16 20:20:31  5-MIN K9L2 260420Z AUTO 00000KT 10SM CLR 11/M04 A3014 2100 36 2100 000/00 RMK AO2 $
53144K9L2 9L220160225202510202/25/16 20:25:31  5-MIN K9L2 260425Z AUTO 32003KT 10SM CLR 10/M04 A3014 2100 37 2000 310/03 RMK AO2 $
53144K9L2 9L220160225203010202/25/16 20:30:31  5-MIN K9L2 260430Z AUTO 34004KT 10SM CLR 09/M04 A3014 2100 39 2000 330/04 RMK AO2 $
53144K9L2 9L220160225203510202/25/16 20:35:31  5-MIN K9L2 260435Z AUTO 34003KT 10SM CLR 10/M04 A3014 2100 37 2000 330/03 RMK AO2 $
53144K9L2 9L220160225204010202/25/16 20:40:31  5-MIN K9L2 260440Z AUTO 32003KT 10SM CLR 11/M04 A3014 2100 36 2100 310/03 RMK AO2 $
53144K9L2 9L220160225204510202/25/16 20:45:31  5-MIN K9L2 260445Z AUTO 35003KT 10SM CLR 10/M04 A3014 2100 37 2000 330/03 RMK AO2 $
53144K9L2 9L220160225205010202/25/16 20:50:31  5-MIN K9L2 260450Z AUTO 35003KT 10SM CLR 10/M04 A3014 2100 37 2000 340/03 RMK AO2 $
53144K9L2 9L220160225205511902/25/16 20:55:31  5-MIN K9L2 260455Z AUTO 34004KT 10SM CLR 10/M04 A3014 2100 37 2000 330/04 RMK AO2 SLP215 T01001039 $
53144K9L2 9L220160225210010202/25/16 21:00:31  5-MIN K9L2 260500Z AUTO 34003KT 10SM CLR 10/M04 A3014 2100 37 2000 330/03 RMK AO2 $
53144K9L2 9L220160225210510202/25/16 21:05:31  5-MIN K9L2 260505Z AUTO 32003KT 10SM CLR 10/M04 A3014 2100 37 2000 310/03 RMK AO2 $
53144K9L2 9L220160225211010202/25/16 21:10:31  5-MIN K9L2 260510Z AUTO 31003KT 10SM CLR 10/M04 A3014 2100 37 2000 290/03 RMK AO2 $
53144K9L2 9L220160225211510202/25/16 21:15:31  5-MIN K9L2 260515Z AUTO 00000KT 10SM CLR 09/M04 A3015 2090 39 2000 000/00 RMK AO2 $
53144K9L2 9L220160225212010202/25/16 21:20:31  5-MIN K9L2 260520Z AUTO 00000KT 10SM CLR 09/M04 A3015 2090 40 1900 000/00 RMK AO2 $
53144K9L2 9L220160225212510202/25/16 21:25:31  5-MIN K9L2 260525Z AUTO 00000KT 10SM CLR 09/M03 A3015 2090 42 1900 000/00 RMK AO2 $
53144K9L2 9L220160225213010202/25/16 21:30:31  5-MIN K9L2 260530Z AUTO 33003KT 10SM CLR 08/M03 A3015 2090 43 1800 310/03 RMK AO2 $
53144K9L2 9L220160225213510202/25/16 21:35:31  5-MIN K9L2 260535Z AUTO 33003KT 10SM CLR 08/M03 A3015 2090 43 1800 320/03 RMK AO2 $
53144K9L2 9L220160225214010202/25/16 21:40:31  5-MIN K9L2 260540Z AUTO 24003KT 10SM CLR 08/M03 A3016 2080 45 1800 230/03 RMK AO2 $
53144K9L2 9L220160225214510202/25/16 21:45:31  5-MIN K9L2 260545Z AUTO 29003KT 10SM CLR 07/M04 A3016 2080 45 1700 280/03 RMK AO2 $
53144K9L2 9L220160225215010202/25/16 21:50:31  5-MIN K9L2 260550Z AUTO 29003KT 10SM CLR 07/M04 A3016 2080 47 1600 270/03 RMK AO2 $
53144K9L2 9L220160227060510002/27/16 06:05:31  5-MIN K9L2 271405Z AUTO 23009KT 9SM CLR 14/05 A3007 2170 55 2600 220/09 RMK AO2 $
53144K9L2 9L220160227061010102/27/16 06:10:31  5-MIN K9L2 271410Z AUTO 23012KT 10SM CLR 14/04 A3007 2170 52 2600 210/12 RMK AO2 $
53144K9L2 9L220160227061510102/27/16 06:15:31  5-MIN K9L2 271415Z AUTO 23010KT 10SM CLR 13/04 A3006 2170 52 2500 210/10 RMK AO2 $
53144K9L2 9L220160227062010702/27/16 06:20:31  5-MIN K9L2 271420Z AUTO 24015G22KT 10SM CLR 14/04 A3005 2180 49 2700 230/15G22 RMK AO2 $
53144K9L2 9L220160227062510602/27/16 06:25:31  5-MIN K9L2 271425Z AUTO 27019G25KT 8SM CLR 14/04 A3004 2190 49 2700 250/19G25 RMK AO2 $
53144K9L2 9L220160227063012402/27/16 06:30:31  5-MIN K9L2 271430Z AUTO 26020G27KT 7SM CLR 15/04 A3005 2190 47 2700 250/20G27 RMK AO2 PK WND 27027/1429 $
53144K9L2 9L220160227063512402/27/16 06:35:31  5-MIN K9L2 271435Z AUTO 27013G27KT 7SM CLR 15/03 A3006 2170 45 2700 260/13G27 RMK AO2 PK WND 27027/1429 $
53144K9L2 9L220160227064012402/27/16 06:40:31  5-MIN K9L2 271440Z AUTO 26010G25KT 9SM CLR 15/03 A3007 2170 45 2700 250/10G25 RMK AO2 PK WND 27027/1429 $
53144K9L2 9L220160227064511802/27/16 06:45:31  5-MIN K9L2 271445Z AUTO 24009KT 9SM CLR 15/03 A3007 2160 45 2700 230/09 RMK AO2 PK WND 27027/1429 $
53144K9L2 9L220160227065011802/27/16 06:50:31  5-MIN K9L2 271450Z AUTO 22004KT 9SM CLR 14/04 A3007 2160 50 2600 200/04 RMK AO2 PK WND 27027/1429 $
53144K9L2 9L220160227065514102/27/16 06:55:31  5-MIN K9L2 271455Z AUTO 28007KT 9SM CLR 14/04 A3008 2160 49 2600 260/07 RMK AO2 PK WND 27027/1429 SLP180 T01440039 55003 $
53144K9L2 9L220160227070010002/27/16 07:00:31  5-MIN K9L2 271500Z AUTO 27010KT 9SM CLR 14/04 A3008 2160 49 2600 260/10 RMK AO2 $
53144K9L2 9L220160227070510002/27/16 07:05:31  5-MIN K9L2 271505Z AUTO 25008KT 9SM CLR 14/04 A3007 2160 49 2600 240/08 RMK AO2 $
53144K9L2 9L220160227071010002/27/16 07:10:31  5-MIN K9L2 271510Z AUTO 22006KT 8SM CLR 13/04 A3008 2160 54 2500 210/06 RMK AO2 $
53144K9L2 9L220160227071510002/27/16 07:15:31  5-MIN K9L2 271515Z AUTO 17011KT 8SM CLR 13/04 A3008 2150 54 2500 160/11 RMK AO2 $
53144K9L2 9L220160227072010002/27/16 07:20:31  5-MIN K9L2 271520Z AUTO 19009KT 8SM CLR 12/05 A3008 2160 61 2400 180/09 RMK AO2 $
53144K9L2 9L220160227072510002/27/16 07:25:31  5-MIN K9L2 271525Z AUTO 25005KT 8SM CLR 14/04 A3008 2160 52 2600 240/05 RMK AO2 $
53144K9L2 9L220160227073010002/27/16 07:30:31  5-MIN K9L2 271530Z AUTO 20005KT 8SM CLR 14/04 A3008 2150 52 2600 190/05 RMK AO2 $
53144K9L2 9L220160227073510002/27/16 07:35:31  5-MIN K9L2 271535Z AUTO 18005KT 8SM CLR 14/04 A3009 2150 51 2600 160/05 RMK AO2 $
53144K9L2 9L220160227074010002/27/16 07:40:31  5-MIN K9L2 271540Z AUTO 19007KT 8SM CLR 13/05 A3008 2150 57 2500 180/07 RMK AO2 $
53144K9L2 9L220160227074510002/27/16 07:45:31  5-MIN K9L2 271545Z AUTO 19007KT 8SM CLR 13/05 A3009 2150 57 2500 180/07 RMK AO2 $
53144K9L2 9L220160227075010002/27/16 07:50:31  5-MIN K9L2 271550Z AUTO 18011KT 7SM CLR 13/05 A3009 2150 59 2400 160/11 RMK AO2 $
53144K9L2 9L220160227075511702/27/16 07:55:31  5-MIN K9L2 271555Z AUTO 20010KT 7SM CLR 13/06 A3009 2140 61 2400 180/10 RMK AO2 SLP186 T01280056 $
53144K9L2 9L220160227080010002/27/16 08:00:31  5-MIN K9L2 271600Z AUTO 21008KT 7SM CLR 14/06 A3009 2140 57 2600 190/08 RMK AO2 $
53144K9L2 9L220160227080510002/27/16 08:05:31  5-MIN K9L2 271605Z AUTO 20006KT 8SM CLR 14/06 A3009 2140 55 2600 190/06 RMK AO2 $
53144K9L2 9L220160227081010002/27/16 08:10:31  5-MIN K9L2 271610Z AUTO 20006KT 8SM CLR 15/05 A3009 2140 51 2700 190/06 RMK AO2 $
53144K9L2 9L220160227081510002/27/16 08:15:31  5-MIN K9L2 271615Z AUTO 19007KT 8SM CLR 15/05 A3009 2140 51 2700 170/07 RMK AO2 $
53144K9L2 9L220160227082010002/27/16 08:20:31  5-MIN K9L2 271620Z AUTO 18006KT 9SM CLR 16/05 A3009 2150 49 2700 170/06 RMK AO2 $
53144K9L2 9L220160227082510002/27/16 08:25:31  5-MIN K9L2 271625Z AUTO 18006KT 9SM CLR 16/05 A3009 2150 47 2800 170/06 RMK AO2 $
53144K9L2 9L220160227083010002/27/16 08:30:31  5-MIN K9L2 271630Z AUTO 19006KT 9SM CLR 16/05 A3009 2150 47 2800 170/06 RMK AO2 $
53144K9L2 9L220160227083510002/27/16 08:35:31  5-MIN K9L2 271635Z AUTO 19006KT 9SM CLR 16/05 A3009 2140 47 2800 170/06 RMK AO2 $
53144K9L2 9L220160227084010002/27/16 08:40:31  5-MIN K9L2 271640Z AUTO 19004KT 9SM CLR 17/05 A3009 2140 45 2900 170/04 RMK AO2 $
53144K9L2 9L220160227084510002/27/16 08:45:31  5-MIN K9L2 271645Z AUTO 18005KT 9SM CLR 17/04 A3009 2140 44 2900 170/05 RMK AO2 $
53144K9L2 9L220160227085010102/27/16 08:50:31  5-MIN K9L2 271650Z AUTO 17006KT 10SM CLR 17/04 A3009 2140 42 2900 160/06 RMK AO2 $
53144K9L2 9L220160227085511802/27/16 08:55:31  5-MIN K9L2 271655Z AUTO 17004KT 10SM CLR 17/04 A3010 2140 42 2900 160/04 RMK AO2 SLP184 T01720044 $
53144K9L2 9L220160227090010102/27/16 09:00:31  5-MIN K9L2 271700Z AUTO 17005KT 10SM CLR 17/04 A3010 2140 41 2900 160/05 RMK AO2 $
53144K9L2 9L220160227090510102/27/16 09:05:31  5-MIN K9L2 271705Z AUTO 17005KT 10SM CLR 17/04 A3010 2140 41 2900 150/05 RMK AO2 $
53144K9L2 9L220160227091010102/27/16 09:10:31  5-MIN K9L2 271710Z AUTO 17005KT 10SM CLR 18/04 A3010 2140 39 3000 160/05 RMK AO2 $
53144K9L2 9L220160227091510102/27/16 09:15:31  5-MIN K9L2 271715Z AUTO 15005KT 10SM CLR 18/03 A3010 2130 38 3000 140/05 RMK AO2 $
53144K9L2 9L220160227092010102/27/16 09:20:31  5-MIN K9L2 271720Z AUTO 17005KT 10SM CLR 18/03 A3010 2130 38 3000 160/05 RMK AO2 $
53144K9L2 9L220160227092510102/27/16 09:25:31  5-MIN K9L2 271725Z AUTO 16005KT 10SM CLR 18/03 A3011 2130 38 3000 140/05 RMK AO2 $
53144K9L2 9L220160227093010102/27/16 09:30:31  5-MIN K9L2 271730Z AUTO 15004KT 10SM CLR 18/03 A3011 2130 35 3000 140/04 RMK AO2 $
53144K9L2 9L220160227093510102/27/16 09:35:31  5-MIN K9L2 271735Z AUTO 14003KT 10SM CLR 18/03 A3011 2130 35 3000 130/03 RMK AO2 $
53144K9L2 9L220160227094010102/27/16 09:40:31  5-MIN K9L2 271740Z AUTO 15005KT 10SM CLR 18/03 A3011 2130 35 3000 130/05 RMK AO2 $
53144K9L2 9L220160227094510102/27/16 09:45:31  5-MIN K9L2 271745Z AUTO 14004KT 10SM CLR 18/03 A3011 2130 35 3000 130/04 RMK AO2 $
53144K9L2 9L220160227095010102/27/16 09:50:31  5-MIN K9L2 271750Z AUTO 14004KT 10SM CLR 19/03 A3011 2130 34 3100 120/04 RMK AO2 $
53144K9L2 9L220160227095513602/27/16 09:55:31  5-MIN K9L2 271755Z AUTO 13005KT 10SM CLR 19/02 A3011 2130 31 3200 110/05 RMK AO2 SLP188 T01940022 10194 20089 53003 $
53144K9L2 9L220160227100010102/27/16 10:00:31  5-MIN K9L2 271800Z AUTO 12004KT 10SM CLR 19/02 A3011 2130 31 3200 110/04 RMK AO2 $
53144K9L2 9L220160227100510102/27/16 10:05:31  5-MIN K9L2 271805Z AUTO 12005KT 10SM CLR 20/02 A3011 2130 30 3200 110/05 RMK AO2 $
53144K9L2 9L220160227101010102/27/16 10:10:31  5-MIN K9L2 271810Z AUTO 11004KT 10SM CLR 20/02 A3011 2130 30 3200 100/04 RMK AO2 $
53144K9L2 9L220160227101510102/27/16 10:15:31  5-MIN K9L2 271815Z AUTO 10004KT 10SM CLR 21/03 A3011 2130 30 3300 090/04 RMK AO2 $
53144K9L2 9L220160227102010102/27/16 10:20:31  5-MIN K9L2 271820Z AUTO 12005KT 10SM CLR 20/03 A3011 2130 31 3200 100/05 RMK AO2 $
53144K9L2 9L220160227102510102/27/16 10:25:31  5-MIN K9L2 271825Z AUTO 12005KT 10SM CLR 21/03 A3011 2130 30 3400 110/05 RMK AO2 $
53144K9L2 9L220160227103010102/27/16 10:30:31  5-MIN K9L2 271830Z AUTO 11006KT 10SM CLR 21/03 A3010 2130 30 3400 100/06 RMK AO2 $
53144K9L2 9L220160227103510102/27/16 10:35:31  5-MIN K9L2 271835Z AUTO 12005KT 10SM CLR 21/03 A3010 2130 29 3400 110/05 RMK AO2 $
53144K9L2 9L220160227104010102/27/16 10:40:31  5-MIN K9L2 271840Z AUTO 11004KT 10SM CLR 21/02 A3010 2130 28 3400 090/04 RMK AO2 $
53144K9L2 9L220160227104510102/27/16 10:45:31  5-MIN K9L2 271845Z AUTO 12003KT 10SM CLR 21/02 A3010 2130 27 3400 110/03 RMK AO2 $
53144K9L2 9L220160227105010102/27/16 10:50:31  5-MIN K9L2 271850Z AUTO 10003KT 10SM CLR 21/01 A3010 2140 26 3400 090/03 RMK AO2 $
53144K9L2 9L220160227105511802/27/16 10:55:31  5-MIN K9L2 271855Z AUTO VRB04KT 10SM CLR 22/01 A3010 2140 24 3400 VRB/04 RMK AO2 SLP186 T02170006 $
53144K9L2 9L220160227110010102/27/16 11:00:31  5-MIN K9L2 271900Z AUTO VRB03KT 10SM CLR 22/01 A3010 2140 24 3400 VRB/03 RMK AO2 $
53144K9L2 9L220160227110510102/27/16 11:05:31  5-MIN K9L2 271905Z AUTO 14003KT 10SM CLR 21/01 A3010 2140 25 3400 120/03 RMK AO2 $
53144K9L2 9L220160227111010102/27/16 11:10:31  5-MIN K9L2 271910Z AUTO 00000KT 10SM CLR 21/01 A3010 2140 25 3400 000/00 RMK AO2 $
53144K9L2 9L220160227111510102/27/16 11:15:31  5-MIN K9L2 271915Z AUTO 00000KT 10SM CLR 21/00 A3009 2140 24 3400 000/00 RMK AO2 $
53144K9L2 9L220160227112010102/27/16 11:20:31  5-MIN K9L2 271920Z AUTO 00000KT 10SM CLR 22/00 A3009 2140 23 3400 000/00 RMK AO2 $
53144K9L2 9L220160227112510102/27/16 11:25:31  5-MIN K9L2 271925Z AUTO 12003KT 10SM CLR 22/00 A3009 2150 22 3500 100/03 RMK AO2 $
53144K9L2 9L220160227113010102/27/16 11:30:31  5-MIN K9L2 271930Z AUTO VRB03KT 10SM CLR 22/00 A3009 2150 22 3500 VRB/03 RMK AO2 $
53144K9L2 9L220160227113510202/27/16 11:35:31  5-MIN K9L2 271935Z AUTO 00000KT 10SM CLR 22/M01 A3009 2150 21 3500 000/00 RMK AO2 $
53144K9L2 9L220160227114010102/27/16 11:40:31  5-MIN K9L2 271940Z AUTO 12003KT 10SM CLR 22/00 A3008 2150 22 3500 110/03 RMK AO2 $
53144K9L2 9L220160227114510102/27/16 11:45:31  5-MIN K9L2 271945Z AUTO VRB03KT 10SM CLR 22/00 A3008 2160 22 3500 VRB/03 RMK AO2 $
53144K9L2 9L220160227115010202/27/16 11:50:31  5-MIN K9L2 271950Z AUTO VRB03KT 10SM CLR 23/M01 A3007 2160 21 3600 VRB/03 RMK AO2 $
53144K9L2 9L220160227115511802/27/16 11:55:31  5-MIN K9L2 271955Z AUTO 00000KT 10SM CLR 22/00 A3007 2160 22 3500 000/00 RMK AO2 SLP176 T02220000 $
53144K9L2 9L220160227120010102/27/16 12:00:31  5-MIN K9L2 272000Z AUTO 00000KT 10SM CLR 23/00 A3007 2170 22 3600 000/00 RMK AO2 $
53144K9L2 9L220160227120510102/27/16 12:05:31  5-MIN K9L2 272005Z AUTO 14004KT 10SM CLR 23/00 A3006 2170 22 3600 130/04 RMK AO2 $
53144K9L2 9L220160227121010102/27/16 12:10:31  5-MIN K9L2 272010Z AUTO 17003KT 10SM CLR 23/00 A3006 2170 21 3700 160/03 RMK AO2 $
53144K9L2 9L220160227121510202/27/16 12:15:31  5-MIN K9L2 272015Z AUTO 18004KT 10SM CLR 23/M01 A3006 2180 20 3700 170/04 RMK AO2 $
53144K9L2 9L220160227122010202/27/16 12:20:31  5-MIN K9L2 272020Z AUTO 15005KT 10SM CLR 23/M01 A3006 2180 21 3600 140/05 RMK AO2 $
53144K9L2 9L220160227122510202/27/16 12:25:31  5-MIN K9L2 272025Z AUTO 15005KT 10SM CLR 23/M01 A3005 2180 20 3700 140/05 RMK AO2 $
53144K9L2 9L220160227123010202/27/16 12:30:31  5-MIN K9L2 272030Z AUTO 16004KT 10SM CLR 23/M01 A3005 2180 20 3700 150/04 RMK AO2 $
53144K9L2 9L220160227123510202/27/16 12:35:31  5-MIN K9L2 272035Z AUTO 00000KT 10SM CLR 23/M01 A3005 2180 20 3700 000/00 RMK AO2 $
53144K9L2 9L220160227124010202/27/16 12:40:31  5-MIN K9L2 272040Z AUTO 16003KT 10SM CLR 24/M01 A3005 2190 19 3700 150/03 RMK AO2 $
53144K9L2 9L220160227124510202/27/16 12:45:31  5-MIN K9L2 272045Z AUTO 00000KT 10SM CLR 24/M01 A3004 2190 19 3700 000/00 RMK AO2 $
53144K9L2 9L220160227125010202/27/16 12:50:31  5-MIN K9L2 272050Z AUTO 16004KT 10SM CLR 24/M01 A3004 2190 19 3800 140/04 RMK AO2 $
53144K9L2 9L220160227125512502/27/16 12:55:31  5-MIN K9L2 272055Z AUTO VRB03KT 10SM CLR 24/M01 A3004 2200 19 3800 VRB/03 RMK AO2 SLP165 T02391006 53009 $
53144K9L2 9L220160227130010202/27/16 13:00:31  5-MIN K9L2 272100Z AUTO 15004KT 10SM CLR 24/M01 A3003 2200 19 3800 140/04 RMK AO2 $
53144K9L2 9L220160227130510202/27/16 13:05:31  5-MIN K9L2 272105Z AUTO 00000KT 10SM CLR 24/M01 A3003 2200 19 3800 000/00 RMK AO2 $
53144K9L2 9L220160227131010202/27/16 13:10:31  5-MIN K9L2 272110Z AUTO VRB03KT 10SM CLR 24/M01 A3002 2210 19 3800 VRB/03 RMK AO2 $
53144K9L2 9L220160227131510202/27/16 13:15:31  5-MIN K9L2 272115Z AUTO VRB03KT 10SM CLR 24/M01 A3002 2210 19 3800 VRB/03 RMK AO2 $
53144K9L2 9L220160227132010202/27/16 13:20:31  5-MIN K9L2 272120Z AUTO 11003KT 10SM CLR 24/M01 A3002 2210 19 3800 090/03 RMK AO2 $
53144K9L2 9L220160227132510202/27/16 13:25:31  5-MIN K9L2 272125Z AUTO 14004KT 10SM CLR 25/M01 A3002 2210 17 3900 120/04 RMK AO2 $
53144K9L2 9L220160227133010202/27/16 13:30:31  5-MIN K9L2 272130Z AUTO 18004KT 10SM CLR 25/M01 A3002 2210 17 3900 170/04 RMK AO2 $
53144K9L2 9L220160227133510202/27/16 13:35:31  5-MIN K9L2 272135Z AUTO 00000KT 10SM CLR 24/M01 A3001 2220 18 3800 000/00 RMK AO2 $
53144K9L2 9L220160227134010202/27/16 13:40:31  5-MIN K9L2 272140Z AUTO VRB04KT 10SM CLR 24/M01 A3001 2220 18 3800 VRB/04 RMK AO2 $
53144K9L2 9L220160227134510202/27/16 13:45:31  5-MIN K9L2 272145Z AUTO 15005KT 10SM CLR 24/M01 A3001 2220 18 3800 130/05 RMK AO2 $
53144K9L2 9L220160227135010202/27/16 13:50:31  5-MIN K9L2 272150Z AUTO 13003KT 10SM CLR 25/M01 A3001 2220 17 3900 110/03 RMK AO2 $
53144K9L2 9L220160227135511902/27/16 13:55:31  5-MIN K9L2 272155Z AUTO 13005KT 10SM CLR 25/M01 A3001 2220 17 3900 120/05 RMK AO2 SLP155 T02501011 $
53144K9L2 9L220160227140010202/27/16 14:00:31  5-MIN K9L2 272200Z AUTO VRB03KT 10SM CLR 25/M01 A3000 2230 17 3900 VRB/03 RMK AO2 $
53144K9L2 9L220160227140510202/27/16 14:05:31  5-MIN K9L2 272205Z AUTO 13004KT 10SM CLR 25/M01 A3000 2230 17 3900 120/04 RMK AO2 $
53144K9L2 9L220160227141010202/27/16 14:10:31  5-MIN K9L2 272210Z AUTO VRB03KT 10SM CLR 26/M02 A3000 2230 16 4000 VRB/03 RMK AO2 $
53144K9L2 9L220160227141510202/27/16 14:15:31  5-MIN K9L2 272215Z AUTO 17004KT 10SM CLR 26/M02 A3000 2230 16 4000 160/04 RMK AO2 $
53144K9L2 9L220160227142010202/27/16 14:20:31  5-MIN K9L2 272220Z AUTO 17003KT 10SM CLR 26/M02 A3000 2230 16 4000 160/03 RMK AO2 $
53144K9L2 9L220160227142510202/27/16 14:25:31  5-MIN K9L2 272225Z AUTO 17004KT 10SM CLR 26/M02 A3000 2230 16 4000 160/04 RMK AO2 $
53144K9L2 9L220160227143010202/27/16 14:30:31  5-MIN K9L2 272230Z AUTO 16004KT 10SM CLR 26/M02 A3000 2230 16 4100 150/04 RMK AO2 $
53144K9L2 9L220160227143510202/27/16 14:35:31  5-MIN K9L2 272235Z AUTO 15004KT 10SM CLR 26/M02 A2999 2240 15 4000 140/04 RMK AO2 $
53144K9L2 9L220160227144010202/27/16 14:40:31  5-MIN K9L2 272240Z AUTO 17004KT 10SM CLR 26/M02 A2999 2240 15 4000 150/04 RMK AO2 $
53144K9L2 9L220160227144510202/27/16 14:45:31  5-MIN K9L2 272245Z AUTO 15004KT 10SM CLR 26/M02 A2999 2240 15 4100 140/04 RMK AO2 $
53144K9L2 9L220160227145010202/27/16 14:50:31  5-MIN K9L2 272250Z AUTO 16006KT 10SM CLR 26/M03 A2999 2240 14 4100 140/06 RMK AO2 $
53144K9L2 9L220160227145511902/27/16 14:55:31  5-MIN K9L2 272255Z AUTO 14005KT 10SM CLR 26/M03 A2999 2240 14 4100 130/05 RMK AO2 SLP146 T02611028 $
53144K9L2 9L220160227150010202/27/16 15:00:31  5-MIN K9L2 272300Z AUTO VRB04KT 10SM CLR 26/M03 A2998 2240 14 4100 VRB/04 RMK AO2 $
53144K9L2 9L220160227150510202/27/16 15:05:31  5-MIN K9L2 272305Z AUTO 15005KT 10SM CLR 26/M03 A2998 2240 14 4100 140/05 RMK AO2 $
53144K9L2 9L220160227151010202/27/16 15:10:31  5-MIN K9L2 272310Z AUTO 16005KT 10SM CLR 26/M03 A2998 2250 14 4100 150/05 RMK AO2 $
53144K9L2 9L220160227151510202/27/16 15:15:31  5-MIN K9L2 272315Z AUTO 18007KT 10SM CLR 27/M02 A2998 2250 14 4100 170/07 RMK AO2 $
53144K9L2 9L220160227152010202/27/16 15:20:31  5-MIN K9L2 272320Z AUTO 20006KT 10SM CLR 26/M02 A2998 2250 15 4100 180/06 RMK AO2 $
53144K9L2 9L220160227152510202/27/16 15:25:31  5-MIN K9L2 272325Z AUTO 22007KT 10SM CLR 27/M03 A2998 2250 14 4100 210/07 RMK AO2 $
53144K9L2 9L220160227153010202/27/16 15:30:31  5-MIN K9L2 272330Z AUTO 27012KT 10SM CLR 27/M03 A2998 2250 13 4100 250/12 RMK AO2 $
53144K9L2 9L220160227153510802/27/16 15:35:31  5-MIN K9L2 272335Z AUTO 28016G20KT 10SM CLR 27/M03 A2998 2250 14 4100 260/16G20 RMK AO2 $
53144K9L2 9L220160227154010802/27/16 15:40:31  5-MIN K9L2 272340Z AUTO 27014G20KT 10SM CLR 26/M03 A2998 2250 14 4100 260/14G20 RMK AO2 $
53144K9L2 9L220160227154511302/27/16 15:45:31  5-MIN K9L2 272345Z AUTO 28013KT 10SM CLR 26/M03 A2998 2250 14 4100 260/13 RMK AO2 WSHFT 2328 $
53144K9L2 9L220160227155011302/27/16 15:50:31  5-MIN K9L2 272350Z AUTO 27014KT 10SM CLR 26/M02 A2998 2250 15 4100 260/14 RMK AO2 WSHFT 2328 $
53144K9L2 9L220160227155514802/27/16 15:55:31  5-MIN K9L2 272355Z AUTO 27013KT 10SM CLR 26/M02 A2998 2250 15 4100 260/13 RMK AO2 WSHFT 2328 SLP141 T02611022 10267 20194 58024 $
53144K9L2 9L220160227160010202/27/16 16:00:31  5-MIN K9L2 280000Z AUTO 28015KT 10SM CLR 26/M02 A2998 2250 16 4000 270/15 RMK AO2 $
53144K9L2 9L220160227160510202/27/16 16:05:31  5-MIN K9L2 280005Z AUTO 28015KT 10SM CLR 26/M02 A2997 2250 16 4000 260/15 RMK AO2 $
53144K9L2 9L220160227161010202/27/16 16:10:31  5-MIN K9L2 280010Z AUTO 27017KT 10SM CLR 26/M02 A2997 2250 16 4000 260/17 RMK AO2 $
53144K9L2 9L220160227161510202/27/16 16:15:31  5-MIN K9L2 280015Z AUTO 27017KT 10SM CLR 25/M01 A2997 2250 17 4000 260/17 RMK AO2 $
53144K9L2 9L220160227162010202/27/16 16:20:31  5-MIN K9L2 280020Z AUTO 27017KT 10SM CLR 25/M02 A2997 2250 17 4000 260/17 RMK AO2 $
53144K9L2 9L220160227162510202/27/16 16:25:31  5-MIN K9L2 280025Z AUTO 27017KT 10SM CLR 24/M01 A2997 2250 19 3900 260/17 RMK AO2 $
53144K9L2 9L220160227163010102/27/16 16:30:31  5-MIN K9L2 280030Z AUTO 28020KT 10SM CLR 24/00 A2997 2250 19 3900 270/20 RMK AO2 $
53144K9L2 9L220160227163510702/27/16 16:35:31  5-MIN K9L2 280035Z AUTO 28020G25KT 10SM CLR 24/00 A2998 2250 20 3800 270/20G25 RMK AO2 $
53144K9L2 9L220160227164010102/27/16 16:40:31  5-MIN K9L2 280040Z AUTO 27018KT 10SM CLR 24/00 A2998 2250 20 3800 260/18 RMK AO2 $
53144K9L2 9L220160227164510102/27/16 16:45:31  5-MIN K9L2 280045Z AUTO 27019KT 10SM CLR 23/01 A2998 2250 22 3800 260/19 RMK AO2 $
53144K9L2 9L220160227165010702/27/16 16:50:31  5-MIN K9L2 280050Z AUTO 28018G25KT 10SM CLR 23/01 A2998 2250 22 3700 260/18G25 RMK AO2 $
53144K9L2 9L220160227165512402/27/16 16:55:31  5-MIN K9L2 280055Z AUTO 28019G25KT 10SM CLR 22/01 A2998 2250 23 3600 260/19G25 RMK AO2 SLP146 T02220006 $
53144K9L2 9L220160227170010702/27/16 17:00:31  5-MIN K9L2 280100Z AUTO 28019G25KT 10SM CLR 22/01 A2998 2250 25 3600 260/19G25 RMK AO2 $
53144K9L2 9L220160227170512502/27/16 17:05:31  5-MIN K9L2 280105Z AUTO 27021G27KT 10SM CLR 22/01 A2998 2250 25 3600 260/21G27 RMK AO2 PK WND 27027/0105 $
53144K9L2 9L220160227171012502/27/16 17:10:31  5-MIN K9L2 280110Z AUTO 27019G27KT 10SM CLR 22/01 A2998 2250 25 3600 260/19G27 RMK AO2 PK WND 27027/0105 $
53144K9L2 9L220160227171512502/27/16 17:15:31  5-MIN K9L2 280115Z AUTO 27019G25KT 10SM CLR 21/02 A2998 2240 27 3500 260/19G25 RMK AO2 PK WND 27027/0105 $
53144K9L2 9L220160227172012502/27/16 17:20:31  5-MIN K9L2 280120Z AUTO 26015G23KT 10SM CLR 21/02 A2998 2240 27 3500 250/15G23 RMK AO2 PK WND 27027/0105 $
53144K9L2 9L220160227172511902/27/16 17:25:31  5-MIN K9L2 280125Z AUTO 25014KT 10SM CLR 21/02 A2998 2250 28 3400 240/14 RMK AO2 PK WND 27027/0105 $
53144K9L2 9L220160227173011902/27/16 17:30:31  5-MIN K9L2 280130Z AUTO 25012KT 10SM CLR 21/02 A2998 2250 28 3400 240/12 RMK AO2 PK WND 27027/0105 $
53144K9L2 9L220160227173511902/27/16 17:35:31  5-MIN K9L2 280135Z AUTO 25012KT 10SM CLR 21/02 A2998 2240 28 3400 240/12 RMK AO2 PK WND 27027/0105 $
53144K9L2 9L220160227174011902/27/16 17:40:31  5-MIN K9L2 280140Z AUTO 26013KT 10SM CLR 20/02 A2998 2240 29 3400 240/13 RMK AO2 PK WND 27027/0105 $
53144K9L2 9L220160227174512502/27/16 17:45:31  5-MIN K9L2 280145Z AUTO 26012G19KT 10SM CLR 20/01 A2999 2240 28 3400 240/12G19 RMK AO2 PK WND 27027/0105 $
53144K9L2 9L220160227175012502/27/16 17:50:31  5-MIN K9L2 280150Z AUTO 26010G19KT 10SM CLR 20/01 A2999 2240 27 3400 250/10G19 RMK AO2 PK WND 27027/0105 $
53144K9L2 9L220160227175513602/27/16 17:55:31  5-MIN K9L2 280155Z AUTO 26011KT 10SM CLR 20/01 A2999 2240 27 3400 250/11 RMK AO2 PK WND 27027/0105 SLP146 T02000006 $
53144K9L2 9L220160227180010102/27/16 18:00:31  5-MIN K9L2 280200Z AUTO 27010KT 10SM CLR 20/01 A2999 2240 28 3400 250/10 RMK AO2 $
53144K9L2 9L220160228184510102/28/16 18:45:31  5-MIN K9L2 290245Z AUTO 28009KT 10SM CLR 18/03 A3005 2180 35 3100 270/09 RMK AO2 $
53144K9L2 9L220160228185010102/28/16 18:50:31  5-MIN K9L2 290250Z AUTO 28010KT 10SM CLR 18/03 A3005 2190 35 3100 260/10 RMK AO2 $
53144K9L2 9L220160228185512402/28/16 18:55:31  5-MIN K9L2 290255Z AUTO 28010KT 10SM CLR 18/03 A3005 2190 35 3100 260/10 RMK AO2 SLP172 T01830028 57011 $
53144K9L2 9L220160228190010102/28/16 19:00:31  5-MIN K9L2 290300Z AUTO 28009KT 10SM CLR 18/03 A3005 2190 35 3100 260/09 RMK AO2 $
53144K9L2 9L220160228190510102/28/16 19:05:31  5-MIN K9L2 290305Z AUTO 28009KT 10SM CLR 18/03 A3004 2190 36 3100 260/09 RMK AO2 $
53144K9L2 9L220160228191010102/28/16 19:10:31  5-MIN K9L2 290310Z AUTO 28010KT 10SM CLR 18/03 A3004 2190 36 3100 260/10 RMK AO2 $
53144K9L2 9L220160228191510102/28/16 19:15:31  5-MIN K9L2 290315Z AUTO 28009KT 10SM CLR 18/03 A3005 2180 36 3100 270/09 RMK AO2 $
53144K9L2 9L220160228192010102/28/16 19:20:31  5-MIN K9L2 290320Z AUTO 28011KT 10SM CLR 18/03 A3005 2180 36 3000 270/11 RMK AO2 $
53144K9L2 9L220160228192510102/28/16 19:25:31  5-MIN K9L2 290325Z AUTO 28011KT 10SM CLR 18/03 A3005 2180 36 3000 270/11 RMK AO2 $
53144K9L2 9L220160228193010102/28/16 19:30:31  5-MIN K9L2 290330Z AUTO 28013KT 10SM CLR 18/03 A3005 2180 36 3000 260/13 RMK AO2 $
53144K9L2 9L220160228193510102/28/16 19:35:31  5-MIN K9L2 290335Z AUTO 27012KT 10SM CLR 18/03 A3005 2180 36 3000 260/12 RMK AO2 $
53144K9L2 9L220160228194010102/28/16 19:40:31  5-MIN K9L2 290340Z AUTO 27013KT 10SM CLR 18/03 A3005 2180 36 3000 260/13 RMK AO2 $
53144K9L2 9L220160228194510102/28/16 19:45:31  5-MIN K9L2 290345Z AUTO 27013KT 10SM CLR 18/02 A3006 2180 35 3000 260/13 RMK AO2 $
53144K9L2 9L220160228195010102/28/16 19:50:31  5-MIN K9L2 290350Z AUTO 27012KT 10SM CLR 18/02 A3006 2180 33 3000 260/12 RMK AO2 $
53144K9L2 9L220160228195511802/28/16 19:55:31  5-MIN K9L2 290355Z AUTO 27012KT 10SM CLR 18/02 A3006 2180 33 3000 260/12 RMK AO2 SLP174 T01780017 $
53144K9L2 9L220160228200010102/28/16 20:00:31  5-MIN K9L2 290400Z AUTO 28011KT 10SM CLR 17/01 A3006 2170 33 3000 260/11 RMK AO2 $
53144K9L2 9L220160228200510102/28/16 20:05:31  5-MIN K9L2 290405Z AUTO 29010KT 10SM CLR 17/01 A3006 2170 33 3000 270/10 RMK AO2 $
53144K9L2 9L220160228201010102/28/16 20:10:31  5-MIN K9L2 290410Z AUTO 28009KT 10SM CLR 17/01 A3006 2170 34 2900 270/09 RMK AO2 $
53144K9L2 9L220160228201510102/28/16 20:15:31  5-MIN K9L2 290415Z AUTO 27009KT 10SM CLR 17/01 A3006 2170 34 2900 260/09 RMK AO2 $
53144K9L2 9L220160228202010102/28/16 20:20:31  5-MIN K9L2 290420Z AUTO 28010KT 10SM CLR 17/02 A3006 2170 36 2900 270/10 RMK AO2 $
53144K9L2 9L220160228202510102/28/16 20:25:31  5-MIN K9L2 290425Z AUTO 28011KT 10SM CLR 17/02 A3006 2170 37 2900 270/11 RMK AO2 $
53144K9L2 9L220160228203010102/28/16 20:30:31  5-MIN K9L2 290430Z AUTO 28012KT 10SM CLR 17/02 A3006 2170 37 2900 270/12 RMK AO2 $
53144K9L2 9L220160228203510102/28/16 20:35:31  5-MIN K9L2 290435Z AUTO 29011KT 10SM CLR 17/03 A3007 2170 39 2900 280/11 RMK AO2 $
53144K9L2 9L220160228204010102/28/16 20:40:31  5-MIN K9L2 290440Z AUTO 29010KT 10SM CLR 16/03 A3007 2160 40 2800 280/10 RMK AO2 $
53144K9L2 9L220160228204510102/28/16 20:45:31  5-MIN K9L2 290445Z AUTO 30008KT 10SM CLR 16/03 A3007 2160 40 2800 280/08 RMK AO2 $
53144K9L2 9L220160228205010102/28/16 20:50:31  5-MIN K9L2 290450Z AUTO 34005KT 10SM CLR 16/03 A3007 2160 40 2800 330/05 RMK AO2 $
53144K9L2 9L220160228205511802/28/16 20:55:31  5-MIN K9L2 290455Z AUTO 02005KT 10SM CLR 15/02 A3007 2160 40 2700 360/05 RMK AO2 SLP179 T01500017 $
53144K9L2 9L220160228210010102/28/16 21:00:31  5-MIN K9L2 290500Z AUTO 01003KT 10SM CLR 15/02 A3007 2160 40 2700 350/03 RMK AO2 $
53144K9L2 9L220160228210510102/28/16 21:05:31  5-MIN K9L2 290505Z AUTO 00000KT 10SM CLR 15/02 A3007 2160 40 2700 000/00 RMK AO2 $
53144K9L2 9L220160228211010102/28/16 21:10:31  5-MIN K9L2 290510Z AUTO VRB03KT 10SM CLR 15/02 A3008 2160 40 2700 VRB/03 RMK AO2 $
53144K9L2 9L220160228211510102/28/16 21:15:31  5-MIN K9L2 290515Z AUTO 00000KT 10SM CLR 15/02 A3009 2150 40 2700 000/00 RMK AO2 $
53144K9L2 9L220160228212010102/28/16 21:20:31  5-MIN K9L2 290520Z AUTO 00000KT 10SM CLR 15/02 A3009 2150 40 2700 000/00 RMK AO2 $
53144K9L2 9L220160228212510102/28/16 21:25:31  5-MIN K9L2 290525Z AUTO 00000KT 10SM CLR 15/02 A3009 2150 40 2700 000/00 RMK AO2 $
53144K9L2 9L220160228213010102/28/16 21:30:31  5-MIN K9L2 290530Z AUTO 20003KT 10SM CLR 15/02 A3009 2150 40 2700 190/03 RMK AO2 $
53144K9L2 9L220160228213510102/28/16 21:35:31  5-MIN K9L2 290535Z AUTO 24004KT 10SM CLR 14/02 A3009 2150 41 2600 230/04 RMK AO2 $
53144K9L2 9L220160228214010102/28/16 21:40:31  5-MIN K9L2 290540Z AUTO 24004KT 10SM CLR 14/02 A3009 2150 41 2600 230/04 RMK AO2 $
53144K9L2 9L220160228214510102/28/16 21:45:31  5-MIN K9L2 290545Z AUTO 24004KT 10SM CLR 14/02 A3009 2150 45 2600 230/04 RMK AO2 $
53144K9L2 9L220160228215010102/28/16 21:50:31  5-MIN K9L2 290550Z AUTO 22004KT 10SM CLR 14/02 A3008 2150 45 2600 210/04 RMK AO2 $
53144K9L2 9L220160228215513602/28/16 21:55:31  5-MIN K9L2 290555Z AUTO 25003KT 10SM CLR 13/02 A3008 2150 46 2500 230/03 RMK AO2 SLP182 T01330022 10256 20133 53003 $
53144K9L2 9L220160228220010102/28/16 22:00:31  5-MIN K9L2 290600Z AUTO 21004KT 10SM CLR 13/02 A3008 2150 48 2400 200/04 RMK AO2 $
53144K9L2 9L220160228220510102/28/16 22:05:31  5-MIN K9L2 290605Z AUTO 22004KT 10SM CLR 13/02 A3008 2150 46 2500 200/04 RMK AO2 $
53144K9L2 9L220160228221010102/28/16 22:10:31  5-MIN K9L2 290610Z AUTO 23003KT 10SM CLR 13/02 A3009 2150 46 2400 220/03 RMK AO2 $
53144K9L2 9L220160228221510102/28/16 22:15:31  5-MIN K9L2 290615Z AUTO 21004KT 10SM CLR 12/02 A3009 2150 48 2400 200/04 RMK AO2 $
53144K9L2 9L220160228222010102/28/16 22:20:31  5-MIN K9L2 290620Z AUTO 25004KT 10SM CLR 12/02 A3008 2150 50 2300 240/04 RMK AO2 $
53144K9L2 9L220160228222510102/28/16 22:25:31  5-MIN K9L2 290625Z AUTO 23004KT 10SM CLR 12/02 A3009 2150 50 2400 220/04 RMK AO2 $
53144K9L2 9L220160228223010102/28/16 22:30:31  5-MIN K9L2 290630Z AUTO 24003KT 10SM CLR 12/02 A3009 2150 50 2300 220/03 RMK AO2 $
53144K9L2 9L220160228223510102/28/16 22:35:31  5-MIN K9L2 290635Z AUTO 00000KT 10SM CLR 12/02 A3008 2150 50 2300 000/00 RMK AO2 $
53144K9L2 9L220160228224010102/28/16 22:40:31  5-MIN K9L2 290640Z AUTO 00000KT 10SM CLR 13/02 A3009 2150 46 2400 000/00 RMK AO2 $
53144K9L2 9L220160228224510102/28/16 22:45:31  5-MIN K9L2 290645Z AUTO 00000KT 10SM CLR 12/02 A3009 2150 48 2400 000/00 RMK AO2 $
53144K9L2 9L220160228225010102/28/16 22:50:31  5-MIN K9L2 290650Z AUTO 20004KT 10SM CLR 12/02 A3008 2150 48 2400 180/04 RMK AO2 $
53144K9L2 9L220160228225511802/28/16 22:55:31  5-MIN K9L2 290655Z AUTO 21005KT 10SM CLR 12/02 A3008 2150 50 2300 200/05 RMK AO2 SLP183 T01170017 $
53144K9L2 9L220160228230010102/28/16 23:00:31  5-MIN K9L2 290700Z AUTO 21003KT 10SM CLR 12/02 A3009 2150 50 2300 190/03 RMK AO2 $
53144K9L2 9L220160228230510102/28/16 23:05:31  5-MIN K9L2 290705Z AUTO 20004KT 10SM CLR 12/02 A3009 2150 50 2300 190/04 RMK AO2 $
53144K9L2 9L220160228231010102/28/16 23:10:31  5-MIN K9L2 290710Z AUTO 22003KT 10SM CLR 12/02 A3009 2150 50 2300 210/03 RMK AO2 $
53144K9L2 9L220160228231510102/28/16 23:15:31  5-MIN K9L2 290715Z AUTO 00000KT 10SM CLR 11/02 A3009 2150 52 2200 000/00 RMK AO2 $
53144K9L2 9L220160228232010102/28/16 23:20:31  5-MIN K9L2 290720Z AUTO 00000KT 10SM CLR 12/02 A3009 2150 48 2400 000/00 RMK AO2 $
53144K9L2 9L220160228232510102/28/16 23:25:31  5-MIN K9L2 290725Z AUTO 17003KT 10SM CLR 12/02 A3009 2150 48 2400 160/03 RMK AO2 $
53144K9L2 9L220160228233010102/28/16 23:30:31  5-MIN K9L2 290730Z AUTO 20004KT 10SM CLR 12/02 A3009 2150 50 2300 180/04 RMK AO2 $
53144K9L2 9L220160228233510102/28/16 23:35:31  5-MIN K9L2 290735Z AUTO 19004KT 10SM CLR 11/01 A3008 2150 50 2200 170/04 RMK AO2 $
53144K9L2 9L220160228234010102/28/16 23:40:31  5-MIN K9L2 290740Z AUTO 17004KT 10SM CLR 11/02 A3008 2150 52 2200 160/04 RMK AO2 $
53144K9L2 9L220160228234510102/28/16 23:45:31  5-MIN K9L2 290745Z AUTO 18006KT 10SM CLR 12/02 A3008 2160 50 2400 170/06 RMK AO2 $
53144K9L2 9L220160228235010102/28/16 23:50:31  5-MIN K9L2 290750Z AUTO 18007KT 10SM CLR 12/03 A3007 2160 52 2400 160/07 RMK AO2 $
53144K9L2 9L220160228235512802/28/16 23:55:31  5-MIN K9L2 290755Z AUTO 18007KT 10SM CLR 12/03 A3007 2160 52 2400 160/07 RMK AO2 SLP176 T01220028 402610067 $
53144K9L2 9L220160229000010102/29/16 00:00:31  5-MIN K9L2 290800Z AUTO 19005KT 10SM CLR 12/03 A3007 2160 54 2300 180/05 RMK AO2 $
53144K9L2 9L220160229000510102/29/16 00:05:31  5-MIN K9L2 290805Z AUTO 19005KT 10SM CLR 12/03 A3007 2160 54 2300 180/05 RMK AO2 $
53144K9L2 9L220160229001010102/29/16 00:10:31  5-MIN K9L2 290810Z AUTO 18004KT 10SM CLR 12/03 A3007 2160 54 2300 160/04 RMK AO2 $
53144K9L2 9L220160229001510102/29/16 00:15:31  5-MIN K9L2 290815Z AUTO 17004KT 10SM CLR 12/02 A3007 2160 52 2300 150/04 RMK AO2 $
53144K9L2 9L220160229002010102/29/16 00:20:31  5-MIN K9L2 290820Z AUTO 16004KT 10SM CLR 12/02 A3007 2160 52 2300 140/04 RMK AO2 $
53144K9L2 9L220160229002510102/29/16 00:25:31  5-MIN K9L2 290825Z AUTO 17005KT 10SM CLR 12/03 A3007 2160 54 2300 160/05 RMK AO2 $
53144K9L2 9L220160229003010102/29/16 00:30:31  5-MIN K9L2 290830Z AUTO 18005KT 10SM CLR 12/03 A3007 2160 54 2300 160/05 RMK AO2 $
53144K9L2 9L220160229003510102/29/16 00:35:31  5-MIN K9L2 290835Z AUTO 20005KT 10SM CLR 12/03 A3007 2160 54 2300 190/05 RMK AO2 $
53144K9L2 9L220160229004010102/29/16 00:40:31  5-MIN K9L2 290840Z AUTO 21005KT 10SM CLR 11/02 A3007 2160 56 2200 200/05 RMK AO2 $
53144K9L2 9L220160229004510102/29/16 00:45:31  5-MIN K9L2 290845Z AUTO 21004KT 10SM CLR 11/02 A3007 2170 54 2300 200/04 RMK AO2 $
53144K9L2 9L220160229005010102/29/16 00:50:31  5-MIN K9L2 290850Z AUTO 00000KT 10SM CLR 11/02 A3007 2170 56 2200 000/00 RMK AO2 $
53144K9L2 9L220160229005512402/29/16 00:55:31  5-MIN K9L2 290855Z AUTO 00000KT 10SM CLR 11/02 A3007 2170 54 2300 000/00 RMK AO2 SLP173 T01110022 51011 $
53144K9L2 9L220160229010010102/29/16 01:00:31  5-MIN K9L2 290900Z AUTO 17003KT 10SM CLR 11/02 A3006 2170 54 2300 150/03 RMK AO2 $
53144K9L2 9L220160229010510102/29/16 01:05:31  5-MIN K9L2 290905Z AUTO 19005KT 10SM CLR 12/02 A3007 2170 50 2300 170/05 RMK AO2 $
53144K9L2 9L220160229011010102/29/16 01:10:31  5-MIN K9L2 290910Z AUTO 18006KT 10SM CLR 11/02 A3007 2170 52 2300 170/06 RMK AO2 $
53144K9L2 9L220160229011510102/29/16 01:15:31  5-MIN K9L2 290915Z AUTO 18007KT 10SM CLR 11/02 A3007 2170 52 2300 160/07 RMK AO2 $
53144K9L2 9L220160229012010102/29/16 01:20:31  5-MIN K9L2 290920Z AUTO 18006KT 10SM CLR 11/02 A3007 2170 52 2300 170/06 RMK AO2 $
53144K9L2 9L220160229012510102/29/16 01:25:31  5-MIN K9L2 290925Z AUTO 17006KT 10SM CLR 11/01 A3007 2170 50 2300 160/06 RMK AO2 $
53144K9L2 9L220160229013010102/29/16 01:30:31  5-MIN K9L2 290930Z AUTO 17007KT 10SM CLR 11/01 A3006 2170 50 2300 160/07 RMK AO2 $
53144K9L2 9L220160229013510102/29/16 01:35:31  5-MIN K9L2 290935Z AUTO 18007KT 10SM CLR 11/01 A3006 2170 50 2300 170/07 RMK AO2 $
53144K9L2 9L220160229014010102/29/16 01:40:31  5-MIN K9L2 290940Z AUTO 18009KT 10SM CLR 11/01 A3006 2170 50 2300 170/09 RMK AO2 $
53144K9L2 9L220160229014510102/29/16 01:45:31  5-MIN K9L2 290945Z AUTO 20007KT 10SM CLR 11/01 A3006 2170 50 2300 180/07 RMK AO2 $
53144K9L2 9L220160229015010102/29/16 01:50:31  5-MIN K9L2 290950Z AUTO 20008KT 10SM CLR 11/01 A3006 2170 50 2300 180/08 RMK AO2 $
53144K9L2 9L220160229015511802/29/16 01:55:31  5-MIN K9L2 290955Z AUTO 20006KT 10SM CLR 11/01 A3006 2180 52 2200 190/06 RMK AO2 SLP170 T01060011 $
53144K9L2 9L220160229020010102/29/16 02:00:31  5-MIN K9L2 291000Z AUTO 22004KT 10SM CLR 10/01 A3006 2180 52 2100 210/04 RMK AO2 $
53144K9L2 9L220160229020510102/29/16 02:05:31  5-MIN K9L2 291005Z AUTO 21005KT 10SM CLR 10/01 A3006 2180 52 2100 200/05 RMK AO2 $
53144K9L2 9L220160229021010102/29/16 02:10:31  5-MIN K9L2 291010Z AUTO 00000KT 10SM CLR 10/01 A3005 2180 52 2100 000/00 RMK AO2 $
53144K9L2 9L220160229021510102/29/16 02:15:31  5-MIN K9L2 291015Z AUTO 00000KT 10SM CLR 10/01 A3005 2180 52 2100 000/00 RMK AO2 $
53144K9L2 9L220160229022010102/29/16 02:20:31  5-MIN K9L2 291020Z AUTO 00000KT 10SM CLR 10/01 A3006 2180 52 2100 000/00 RMK AO2 $
53144K9L2 9L220160229022510102/29/16 02:25:31  5-MIN K9L2 291025Z AUTO 00000KT 10SM CLR 10/01 A3005 2180 52 2100 000/00 RMK AO2 $
53144K9L2 9L220160229023010102/29/16 02:30:31  5-MIN K9L2 291030Z AUTO 15003KT 10SM CLR 10/01 A3005 2180 52 2100 140/03 RMK AO2 $
53144K9L2 9L220160229023510102/29/16 02:35:31  5-MIN K9L2 291035Z AUTO 00000KT 10SM CLR 10/01 A3005 2180 52 2100 000/00 RMK AO2 $
53144K9L2 9L220160229024010102/29/16 02:40:31  5-MIN K9L2 291040Z AUTO 00000KT 10SM CLR 09/01 A3006 2180 53 2100 000/00 RMK AO2 $
53144K9L2 9L220160229024510102/29/16 02:45:31  5-MIN K9L2 291045Z AUTO 00000KT 10SM CLR 09/01 A3006 2180 56 2000 000/00 RMK AO2 $
53144K9L2 9L220160229025010102/29/16 02:50:31  5-MIN K9L2 291050Z AUTO 00000KT 10SM CLR 10/01 A3005 2180 52 2100 000/00 RMK AO2 $
53144K9L2 9L220160229025511802/29/16 02:55:31  5-MIN K9L2 291055Z AUTO 00000KT 10SM CLR 09/01 A3006 2180 56 2000 000/00 RMK AO2 SLP171 T00890006 $
53144K9L2 9L220160229030010102/29/16 03:00:31  5-MIN K9L2 291100Z AUTO 00000KT 10SM CLR 08/00 A3006 2170 58 1900 000/00 RMK AO2 $
53144K9L2 9L220160229030510102/29/16 03:05:31  5-MIN K9L2 291105Z AUTO 30004KT 10SM CLR 07/01 A3006 2170 65 1700 290/04 RMK AO2 $
53144K9L2 9L220160229031010102/29/16 03:10:31  5-MIN K9L2 291110Z AUTO 33007KT 10SM CLR 07/01 A3006 2170 65 1700 320/07 RMK AO2 $
53144K9L2 9L220160229031510102/29/16 03:15:31  5-MIN K9L2 291115Z AUTO 00000KT 10SM CLR 07/01 A3006 2170 65 1700 000/00 RMK AO2 $
53144K9L2 9L220160229032010102/29/16 03:20:31  5-MIN K9L2 291120Z AUTO 32005KT 10SM CLR 07/01 A3006 2180 65 1700 310/05 RMK AO2 $
53144K9L2 9L220160229032510102/29/16 03:25:31  5-MIN K9L2 291125Z AUTO 31007KT 10SM CLR 07/01 A3006 2170 65 1700 300/07 RMK AO2 $
53144K9L2 9L220160229033010102/29/16 03:30:31  5-MIN K9L2 291130Z AUTO 32005KT 10SM CLR 07/01 A3007 2170 65 1700 310/05 RMK AO2 $
53144K9L2 9L220160229033510102/29/16 03:35:31  5-MIN K9L2 291135Z AUTO 31006KT 10SM CLR 07/01 A3007 2170 65 1700 290/06 RMK AO2 $
53144K9L2 9L220160229034010102/29/16 03:40:31  5-MIN K9L2 291140Z AUTO 33006KT 10SM CLR 07/01 A3007 2170 65 1700 320/06 RMK AO2 $
53144K9L2 9L220160229034510102/29/16 03:45:31  5-MIN K9L2 291145Z AUTO 32003KT 10SM CLR 07/01 A3007 2170 65 1700 310/03 RMK AO2 $
53144K9L2 9L220160229035010102/29/16 03:50:31  5-MIN K9L2 291150Z AUTO 32003KT 10SM CLR 06/01 A3006 2170 67 1700 310/03 RMK AO2 $
53144K9L2 9L220160229035513602/29/16 03:55:31  5-MIN K9L2 291155Z AUTO 00000KT 10SM CLR 06/01 A3006 2170 67 1700 000/00 RMK AO2 SLP173 T00610006 10133 20061 58005 $
53144K9L2 9L220160229040010102/29/16 04:00:31  5-MIN K9L2 291200Z AUTO 29004KT 10SM CLR 06/01 A3007 2170 70 1600 280/04 RMK AO2 $
53144K9L2 9L220160229040510102/29/16 04:05:31  5-MIN K9L2 291205Z AUTO 30005KT 10SM CLR 06/01 A3007 2160 70 1600 290/05 RMK AO2 $
53144K9L2 9L220160229041010102/29/16 04:10:31  5-MIN K9L2 291210Z AUTO 30006KT 10SM CLR 06/01 A3007 2160 67 1700 290/06 RMK AO2 $
53144K9L2 9L220160229041510102/29/16 04:15:31  5-MIN K9L2 291215Z AUTO 32005KT 10SM CLR 06/01 A3007 2160 67 1700 300/05 RMK AO2 $
53144K9L2 9L220160229042010102/29/16 04:20:31  5-MIN K9L2 291220Z AUTO 31005KT 10SM CLR 06/01 A3007 2160 67 1700 300/05 RMK AO2 $
53144K9L2 9L220160229042510102/29/16 04:25:31  5-MIN K9L2 291225Z AUTO 34004KT 10SM CLR 06/01 A3007 2170 67 1700 320/04 RMK AO2 $
53144K9L2 9L220160229043010102/29/16 04:30:31  5-MIN K9L2 291230Z AUTO 33005KT 10SM CLR 06/01 A3007 2160 67 1600 320/05 RMK AO2 $
53144K9L2 9L220160229043510102/29/16 04:35:31  5-MIN K9L2 291235Z AUTO 32003KT 10SM CLR 06/01 A3008 2160 67 1600 300/03 RMK AO2 $
53144K9L2 9L220160229044010102/29/16 04:40:31  5-MIN K9L2 291240Z AUTO 31003KT 10SM CLR 06/01 A3008 2160 70 1600 300/03 RMK AO2 $
53144K9L2 9L220160229044510102/29/16 04:45:31  5-MIN K9L2 291245Z AUTO 34003KT 10SM CLR 06/00 A3008 2160 67 1600 330/03 RMK AO2 $
53144K9L2 9L220160229045010102/29/16 04:50:31  5-MIN K9L2 291250Z AUTO 00000KT 10SM CLR 06/00 A3008 2160 67 1600 000/00 RMK AO2 $
53144K9L2 9L220160229045511802/29/16 04:55:31  5-MIN K9L2 291255Z AUTO 34003KT 10SM CLR 06/00 A3008 2150 67 1600 330/03 RMK AO2 SLP182 T00560000 $
53144K9L2 9L220160229050010102/29/16 05:00:31  5-MIN K9L2 291300Z AUTO 01005KT 10SM CLR 06/00 A3008 2150 67 1600 350/05 RMK AO2 $
53144K9L2 9L220160229050510102/29/16 05:05:31  5-MIN K9L2 291305Z AUTO 02005KT 10SM CLR 06/00 A3008 2150 67 1600 360/05 RMK AO2 $
53144K9L2 9L220160229051010102/29/16 05:10:31  5-MIN K9L2 291310Z AUTO 01003KT 10SM CLR 06/00 A3008 2150 67 1600 360/03 RMK AO2 $
53144K9L2 9L220160229051510102/29/16 05:15:31  5-MIN K9L2 291315Z AUTO 03003KT 10SM CLR 06/00 A3008 2150 67 1600 020/03 RMK AO2 $
53144K9L2 9L220160229052010102/29/16 05:20:31  5-MIN K9L2 291320Z AUTO 00000KT 10SM CLR 06/00 A3009 2150 67 1600 000/00 RMK AO2 $
53144K9L2 9L220160229052510102/29/16 05:25:31  5-MIN K9L2 291325Z AUTO 00000KT 10SM CLR 06/00 A3009 2150 67 1600 000/00 RMK AO2 $
53144K9L2 9L220160229053010102/29/16 05:30:31  5-MIN K9L2 291330Z AUTO 00000KT 10SM CLR 06/00 A3009 2150 67 1600 000/00 RMK AO2 $
53144K9L2 9L220160229053510202/29/16 05:35:31  5-MIN K9L2 291335Z AUTO 00000KT 10SM CLR 04/M01 A3009 2140 70 1400 000/00 RMK AO2 $
53144K9L2 9L220160229054010202/29/16 05:40:31  5-MIN K9L2 291340Z AUTO 23003KT 10SM CLR 04/M01 A3009 2140 70 1400 220/03 RMK AO2 $
53144K9L2 9L220160229054510202/29/16 05:45:31  5-MIN K9L2 291345Z AUTO 00000KT 10SM CLR 04/M01 A3009 2150 70 1400 000/00 RMK AO2 $
53144K9L2 9L220160229055010202/29/16 05:50:31  5-MIN K9L2 291350Z AUTO 00000KT 10SM CLR 04/M01 A3009 2140 70 1400 000/00 RMK AO2 $
53144K9L2 9L220160229055511902/29/16 05:55:31  5-MIN K9L2 291355Z AUTO 00000KT 10SM CLR 04/M01 A3009 2140 70 1400 000/00 RMK AO2 SLP189 T00441006 $
53144K9L2 9L220160229060010202/29/16 06:00:31  5-MIN K9L2 291400Z AUTO 00000KT 10SM CLR 04/M01 A3009 2150 67 1400 000/00 RMK AO2 $
53144K9L2 9L220160229060510202/29/16 06:05:31  5-MIN K9L2 291405Z AUTO 00000KT 10SM CLR 04/M01 A3009 2150 70 1400 000/00 RMK AO2 $
53144K9L2 9L220160229061010202/29/16 06:10:31  5-MIN K9L2 291410Z AUTO 00000KT 10SM CLR 04/M01 A3009 2150 70 1400 000/00 RMK AO2 $
53144K9L2 9L220160229061510202/29/16 06:15:31  5-MIN K9L2 291415Z AUTO 00000KT 10SM CLR 04/M01 A3009 2140 70 1400 000/00 RMK AO2 $
53144K9L2 9L220160229062010202/29/16 06:20:31  5-MIN K9L2 291420Z AUTO 00000KT 10SM CLR 05/M01 A3009 2140 67 1500 000/00 RMK AO2 $
53144K9L2 9L220160229062510202/29/16 06:25:31  5-MIN K9L2 291425Z AUTO 00000KT 10SM CLR 04/M01 A3010 2140 70 1400 000/00 RMK AO2 $
53144K9L2 9L220160229063010202/29/16 06:30:31  5-MIN K9L2 291430Z AUTO 34003KT 10SM CLR 03/M02 A3010 2140 70 1300 330/03 RMK AO2 $
53144K9L2 9L220160229063510202/29/16 06:35:31  5-MIN K9L2 291435Z AUTO 00000KT 10SM CLR 03/M01 A3010 2140 72 1300 000/00 RMK AO2 $
53144K9L2 9L220160229064010202/29/16 06:40:31  5-MIN K9L2 291440Z AUTO 00000KT 10SM CLR 04/M01 A3010 2140 70 1400 000/00 RMK AO2 $
