54779K12N 12N20160501000010005/01/16 00:00:31  5-MIN K12N 010500Z AUTO 00000KT 10/M01 A3019 330 47 -100 000/00 RMK AO1 T01001006
54779K12N 12N20160501000510005/01/16 00:05:31  5-MIN K12N 010505Z AUTO 00000KT 10/M01 A3019 340 47 -100 000/00 RMK AO1 T01001006
54779K12N 12N20160501001010005/01/16 00:10:31  5-MIN K12N 010510Z AUTO VRB03KT 10/M01 A3019 340 47 -100 VRB/03 RMK AO1 T01001006
54779K12N 12N20160501001510005/01/16 00:15:31  5-MIN K12N 010515Z AUTO VRB03KT 10/M01 A3019 340 47 -100 VRB/03 RMK AO1 T01001006
54779K12N 12N20160501002010005/01/16 00:20:31  5-MIN K12N 010520Z AUTO 19003KT 10/M01 A3019 340 47 -100 200/03 RMK AO1 T01001006
54779K12N 12N20160501002510005/01/16 00:25:31  5-MIN K12N 010525Z AUTO VRB03KT 10/M01 A3019 340 47 -100 VRB/03 RMK AO1 T01001006
54779K12N 12N20160501003009905/01/16 00:30:31  5-MIN K12N 010530Z AUTO VRB03KT 10/00 A3019 340 49 -100 VRB/03 RMK AO1 T01000000
54779K12N 12N20160501003509905/01/16 00:35:31  5-MIN K12N 010535Z AUTO VRB05KT 10/00 A3019 340 49 -100 VRB/05 RMK AO1 T01000000
54779K12N 12N20160501004009905/01/16 00:40:31  5-MIN K12N 010540Z AUTO 19003KT 10/00 A3019 340 49 -100 200/03 RMK AO1 T01000000
54779K12N 12N20160501004509905/01/16 00:45:31  5-MIN K12N 010545Z AUTO VRB03KT 09/00 A3019 340 51 -200 VRB/03 RMK AO1 T00940000
54779K12N 12N20160501005012405/01/16 00:50:31  5-MIN K12N 010550Z AUTO 17003KT 09/01 A3019 330 53 -200 190/03 RMK AO1 SLP224 T00940006 10133 20089 51004
54779K12N 12N20160501005509905/01/16 00:55:31  5-MIN K12N 010555Z AUTO 00000KT 09/01 A3019 340 53 -200 000/00 RMK AO1 T00940006
54779K12N 12N20160501010009905/01/16 01:00:31  5-MIN K12N 010600Z AUTO 00000KT 09/01 A3019 340 53 -200 000/00 RMK AO1 T00940006
54779K12N 12N20160501010509905/01/16 01:05:31  5-MIN K12N 010605Z AUTO VRB03KT 09/01 A3018 340 53 -200 VRB/03 RMK AO1 T00940006
54779K12N 12N20160501011009905/01/16 01:10:31  5-MIN K12N 010610Z AUTO 00000KT 09/01 A3018 350 53 -100 000/00 RMK AO1 T00940006
54779K12N 12N20160501011509905/01/16 01:15:31  5-MIN K12N 010615Z AUTO 00000KT 09/01 A3018 350 56 -100 000/00 RMK AO1 T00940011
54779K12N 12N20160501012009905/01/16 01:20:31  5-MIN K12N 010620Z AUTO VRB03KT 09/01 A3018 350 53 -100 VRB/03 RMK AO1 T00940006
54779K12N 12N20160501012509905/01/16 01:25:31  5-MIN K12N 010625Z AUTO VRB03KT 09/01 A3018 350 53 -100 VRB/03 RMK AO1 T00940006
54779K12N 12N20160501013009905/01/16 01:30:31  5-MIN K12N 010630Z AUTO 00000KT 09/01 A3018 350 53 -100 000/00 RMK AO1 T00940006
54779K12N 12N20160501013509905/01/16 01:35:31  5-MIN K12N 010635Z AUTO 00000KT 09/01 A3018 350 56 -200 000/00 RMK AO1 T00890006
54779K12N 12N20160501014009905/01/16 01:40:31  5-MIN K12N 010640Z AUTO 00000KT 09/01 A3018 340 58 -200 000/00 RMK AO1 T00890011
54779K12N 12N20160501014509905/01/16 01:45:31  5-MIN K12N 010645Z AUTO 00000KT 09/01 A3019 340 56 -200 000/00 RMK AO1 T00890006
54779K12N 12N20160501015010605/01/16 01:50:31  5-MIN K12N 010650Z AUTO 19003KT 09/01 A3019 340 58 -200 210/03 RMK AO1 SLP225 T00890011
54779K12N 12N20160501015509905/01/16 01:55:31  5-MIN K12N 010655Z AUTO 00000KT 09/01 A3019 340 58 -200 000/00 RMK AO1 T00890011
54779K12N 12N20160501020009905/01/16 02:00:31  5-MIN K12N 010700Z AUTO 00000KT 09/02 A3019 340 60 -200 000/00 RMK AO1 T00890017
54779K12N 12N20160501020509905/01/16 02:05:31  5-MIN K12N 010705Z AUTO 16003KT 09/02 A3019 340 60 -200 170/03 RMK AO1 T00890017
54779K12N 12N20160501021009905/01/16 02:10:31  5-MIN K12N 010710Z AUTO 00000KT 09/02 A3019 340 60 -200 000/00 RMK AO1 T00890017
54779K12N 12N20160501021509905/01/16 02:15:31  5-MIN K12N 010715Z AUTO 00000KT 09/02 A3019 340 60 -200 000/00 RMK AO1 T00890017
54779K12N 12N20160501022009905/01/16 02:20:31  5-MIN K12N 010720Z AUTO 00000KT 09/02 A3019 340 60 -200 000/00 RMK AO1 T00890017
54779K12N 12N20160501022509905/01/16 02:25:31  5-MIN K12N 010725Z AUTO 00000KT 09/02 A3018 340 60 -200 000/00 RMK AO1 T00890017
54779K12N 12N20160501023009905/01/16 02:30:31  5-MIN K12N 010730Z AUTO 00000KT 08/02 A3018 350 63 -300 000/00 RMK AO1 T00830017
54779K12N 12N20160501023509905/01/16 02:35:31  5-MIN K12N 010735Z AUTO 00000KT 08/02 A3018 350 63 -300 000/00 RMK AO1 T00830017
54779K12N 12N20160501024009905/01/16 02:40:31  5-MIN K12N 010740Z AUTO 00000KT 08/02 A3018 350 63 -300 000/00 RMK AO1 T00830017
54779K12N 12N20160501024509905/01/16 02:45:31  5-MIN K12N 010745Z AUTO 17003KT 08/02 A3018 350 63 -300 180/03 RMK AO1 T00830017
54779K12N 12N20160501025010605/01/16 02:50:31  5-MIN K12N 010750Z AUTO 00000KT 08/01 A3018 350 60 -300 000/00 RMK AO1 SLP220 T00830011
54779K12N 12N20160501025509905/01/16 02:55:31  5-MIN K12N 010755Z AUTO 00000KT 08/02 A3018 350 63 -300 000/00 RMK AO1 T00830017
54779K12N 12N20160501030009905/01/16 03:00:31  5-MIN K12N 010800Z AUTO 00000KT 08/01 A3018 350 60 -300 000/00 RMK AO1 T00830011
54779K12N 12N20160501030509905/01/16 03:05:31  5-MIN K12N 010805Z AUTO VRB03KT 08/01 A3018 350 60 -300 VRB/03 RMK AO1 T00830011
54779K12N 12N20160501031009905/01/16 03:10:31  5-MIN K12N 010810Z AUTO 21003KT 08/01 A3018 350 60 -300 220/03 RMK AO1 T00830011
54779K12N 12N20160501031509905/01/16 03:15:31  5-MIN K12N 010815Z AUTO 00000KT 08/01 A3018 350 60 -300 000/00 RMK AO1 T00830011
54779K12N 12N20160501032009905/01/16 03:20:31  5-MIN K12N 010820Z AUTO 20004KT 08/01 A3018 340 60 -300 210/04 RMK AO1 T00830011
54779K12N 12N20160501032509905/01/16 03:25:31  5-MIN K12N 010825Z AUTO 20003KT 08/01 A3018 340 60 -300 210/03 RMK AO1 T00830011
54779K12N 12N20160501033009905/01/16 03:30:31  5-MIN K12N 010830Z AUTO 20003KT 08/01 A3018 340 60 -300 210/03 RMK AO1 T00830011
54779K12N 12N20160501033509905/01/16 03:35:31  5-MIN K12N 010835Z AUTO 00000KT 08/02 A3018 350 63 -300 000/00 RMK AO1 T00830017
54779K12N 12N20160501034009905/01/16 03:40:31  5-MIN K12N 010840Z AUTO 00000KT 08/02 A3018 350 63 -300 000/00 RMK AO1 T00830017
54779K12N 12N20160501034509905/01/16 03:45:31  5-MIN K12N 010845Z AUTO 00000KT 08/01 A3018 350 60 -300 000/00 RMK AO1 T00830011
54779K12N 12N20160501035011205/01/16 03:50:31  5-MIN K12N 010850Z AUTO 00000KT 08/02 A3018 340 63 -300 000/00 RMK AO1 SLP222 T00830017 58008
54779K12N 12N20160501035509905/01/16 03:55:31  5-MIN K12N 010855Z AUTO 00000KT 08/01 A3018 350 60 -300 000/00 RMK AO1 T00830011
54779K12N 12N20160501040009905/01/16 04:00:31  5-MIN K12N 010900Z AUTO 00000KT 08/03 A3018 350 70 -300 000/00 RMK AO1 T00780028
54779K12N 12N20160501040509905/01/16 04:05:31  5-MIN K12N 010905Z AUTO 00000KT 08/03 A3018 350 70 -300 000/00 RMK AO1 T00780028
54779K12N 12N20160501041009905/01/16 04:10:31  5-MIN K12N 010910Z AUTO 00000KT 08/03 A3018 350 73 -300 000/00 RMK AO1 T00780033
54779K12N 12N20160501041509905/01/16 04:15:31  5-MIN K12N 010915Z AUTO 00000KT 08/03 A3017 350 70 -300 000/00 RMK AO1 T00780028
54779K12N 12N20160501042009905/01/16 04:20:31  5-MIN K12N 010920Z AUTO 00000KT 08/03 A3017 350 70 -300 000/00 RMK AO1 T00780028
54779K12N 12N20160501042509905/01/16 04:25:31  5-MIN K12N 010925Z AUTO 00000KT 08/03 A3017 350 70 -300 000/00 RMK AO1 T00780028
54779K12N 12N20160501043009905/01/16 04:30:31  5-MIN K12N 010930Z AUTO 00000KT 08/03 A3017 350 70 -300 000/00 RMK AO1 T00780028
54779K12N 12N20160501043509905/01/16 04:35:31  5-MIN K12N 010935Z AUTO 00000KT 08/03 A3018 350 73 -300 000/00 RMK AO1 T00780033
54779K12N 12N20160501044009905/01/16 04:40:31  5-MIN K12N 010940Z AUTO 00000KT 08/03 A3018 350 73 -300 000/00 RMK AO1 T00780033
54779K12N 12N20160501044509905/01/16 04:45:31  5-MIN K12N 010945Z AUTO 00000KT 08/03 A3018 350 73 -400 000/00 RMK AO1 T00780033
54779K12N 12N20160501045010605/01/16 04:50:31  5-MIN K12N 010950Z AUTO 00000KT 08/03 A3018 340 70 -400 000/00 RMK AO1 SLP222 T00780028
54779K12N 12N20160501045509905/01/16 04:55:31  5-MIN K12N 010955Z AUTO 00000KT 08/03 A3018 350 70 -300 000/00 RMK AO1 T00780028
54779K12N 12N20160501050009905/01/16 05:00:31  5-MIN K12N 011000Z AUTO 00000KT 08/03 A3018 350 73 -300 000/00 RMK AO1 T00780033
54779K12N 12N20160501050509905/01/16 05:05:31  5-MIN K12N 011005Z AUTO 00000KT 08/04 A3018 350 76 -300 000/00 RMK AO1 T00780039
54779K12N 12N20160501051009905/01/16 05:10:31  5-MIN K12N 011010Z AUTO 00000KT 07/04 A3018 350 79 -400 000/00 RMK AO1 T00720039
54779K12N 12N20160501051509905/01/16 05:15:31  5-MIN K12N 011015Z AUTO 00000KT 07/04 A3018 340 79 -400 000/00 RMK AO1 T00720039
54779K12N 12N20160501052009905/01/16 05:20:31  5-MIN K12N 011020Z AUTO 00000KT 07/04 A3018 340 82 -400 000/00 RMK AO1 T00720044
54779K12N 12N20160501052509905/01/16 05:25:31  5-MIN K12N 011025Z AUTO 00000KT 07/04 A3019 340 79 -400 000/00 RMK AO1 T00720039
54779K12N 12N20160501053009905/01/16 05:30:31  5-MIN K12N 011030Z AUTO 00000KT 07/04 A3019 340 82 -400 000/00 RMK AO1 T00720044
54779K12N 12N20160501053509905/01/16 05:35:31  5-MIN K12N 011035Z AUTO 00000KT 07/04 A3019 340 82 -400 000/00 RMK AO1 T00720044
54779K12N 12N20160501054009905/01/16 05:40:31  5-MIN K12N 011040Z AUTO 00000KT 07/04 A3019 340 82 -400 000/00 RMK AO1 T00720044
54779K12N 12N20160501054509905/01/16 05:45:31  5-MIN K12N 011045Z AUTO 00000KT 07/04 A3019 340 82 -400 000/00 RMK AO1 T00720044
54779K12N 12N20160501055010605/01/16 05:50:31  5-MIN K12N 011050Z AUTO 00000KT 07/04 A3019 340 82 -400 000/00 RMK AO1 SLP225 T00720044
54779K12N 12N20160501055509905/01/16 05:55:31  5-MIN K12N 011055Z AUTO 00000KT 07/04 A3019 340 82 -400 000/00 RMK AO1 T00720044
54779K12N 12N20160501060009905/01/16 06:00:31  5-MIN K12N 011100Z AUTO 00000KT 07/04 A3019 340 82 -400 000/00 RMK AO1 T00720044
54779K12N 12N20160501060509905/01/16 06:05:31  5-MIN K12N 011105Z AUTO 00000KT 07/04 A3019 330 82 -400 000/00 RMK AO1 T00720044
54779K12N 12N20160501061009905/01/16 06:10:31  5-MIN K12N 011110Z AUTO 00000KT 07/04 A3019 340 82 -400 000/00 RMK AO1 T00720044
54779K12N 12N20160501061509905/01/16 06:15:31  5-MIN K12N 011115Z AUTO 00000KT 07/05 A3019 330 89 -500 000/00 RMK AO1 T00670050
54779K12N 12N20160501062009905/01/16 06:20:31  5-MIN K12N 011120Z AUTO 00000KT 07/04 A3019 330 82 -400 000/00 RMK AO1 T00720044
54779K12N 12N20160501062509905/01/16 06:25:31  5-MIN K12N 011125Z AUTO 00000KT 07/04 A3019 330 82 -400 000/00 RMK AO1 T00720044
54779K12N 12N20160501063010505/01/16 06:30:31  5-MIN K12N 011130Z AUTO 00000KT 07/04 A3019 330 86 -500 000/00 RMK AO1 P0001 T00670044
54779K12N 12N20160501063510505/01/16 06:35:31  5-MIN K12N 011135Z AUTO 00000KT 07/04 A3019 330 86 -500 000/00 RMK AO1 P0001 T00670044
54779K12N 12N20160501064010505/01/16 06:40:31  5-MIN K12N 011140Z AUTO 00000KT 07/04 A3019 330 86 -500 000/00 RMK AO1 P0001 T00670044
54779K12N 12N20160501064510505/01/16 06:45:31  5-MIN K12N 011145Z AUTO 00000KT 07/04 A3019 330 86 -500 000/00 RMK AO1 P0002 T00670044
54779K12N 12N20160501065014205/01/16 06:50:31  5-MIN K12N 011150Z AUTO 00000KT 07/04 A3020 330 86 -500 000/00 RMK AO1 SLP229 P0002 60002 70002 T00670044 10094 20067 55003
54779K12N 12N20160501065509905/01/16 06:55:31  5-MIN K12N 011155Z AUTO 00000KT 07/04 A3020 330 86 -500 000/00 RMK AO1 T00670044
54779K12N 12N20160501070009905/01/16 07:00:31  5-MIN K12N 011200Z AUTO 00000KT 07/05 A3020 330 89 -500 000/00 RMK AO1 T00670050
54779K12N 12N20160501070510505/01/16 07:05:31  5-MIN K12N 011205Z AUTO 00000KT 07/05 A3020 330 89 -500 000/00 RMK AO1 P0001 T00670050
54779K12N 12N20160501071010505/01/16 07:10:31  5-MIN K12N 011210Z AUTO 00000KT 07/05 A3020 330 89 -500 000/00 RMK AO1 P0002 T00670050
54779K12N 12N20160501071510505/01/16 07:15:31  5-MIN K12N 011215Z AUTO 00000KT 07/05 A3020 330 89 -500 000/00 RMK AO1 P0002 T00670050
54779K12N 12N20160501072010505/01/16 07:20:31  5-MIN K12N 011220Z AUTO 00000KT 07/05 A3020 330 89 -500 000/00 RMK AO1 P0003 T00670050
54779K12N 12N20160501072510505/01/16 07:25:31  5-MIN K12N 011225Z AUTO 00000KT 07/05 A3019 330 89 -500 000/00 RMK AO1 P0003 T00670050
54779K12N 12N20160501073010505/01/16 07:30:31  5-MIN K12N 011230Z AUTO 00000KT 07/05 A3019 340 89 -500 000/00 RMK AO1 P0004 T00670050
54779K12N 12N20160501073510505/01/16 07:35:31  5-MIN K12N 011235Z AUTO 16005KT 07/05 A3018 350 89 -500 170/05 RMK AO1 P0004 T00670050
54779K12N 12N20160501074010505/01/16 07:40:31  5-MIN K12N 011240Z AUTO 00000KT 07/04 A3018 350 86 -500 000/00 RMK AO1 P0005 T00670044
54779K12N 12N20160501074510505/01/16 07:45:31  5-MIN K12N 011245Z AUTO VRB03KT 07/04 A3018 350 86 -500 VRB/03 RMK AO1 P0005 T00670044
54779K12N 12N20160501075011205/01/16 07:50:31  5-MIN K12N 011250Z AUTO 20003KT 07/03 A3019 340 79 -500 210/03 RMK AO1 SLP226 P0006 T00670033
54779K12N 12N20160501075509905/01/16 07:55:31  5-MIN K12N 011255Z AUTO VRB03KT 06/03 A3019 340 79 -600 VRB/03 RMK AO1 T00610028
54779K12N 12N20160501080009905/01/16 08:00:31  5-MIN K12N 011300Z AUTO VRB03KT 06/03 A3019 340 79 -600 VRB/03 RMK AO1 T00610028
54779K12N 12N20160501080509905/01/16 08:05:31  5-MIN K12N 011305Z AUTO 00000KT 06/02 A3019 330 76 -600 000/00 RMK AO1 T00610022
54779K12N 12N20160501081009905/01/16 08:10:31  5-MIN K12N 011310Z AUTO 00000KT 06/03 A3020 330 79 -600 000/00 RMK AO1 T00610028
54779K12N 12N20160501081510505/01/16 08:15:31  5-MIN K12N 011315Z AUTO 00000KT 06/03 A3019 340 79 -600 000/00 RMK AO1 P0001 T00610028
54779K12N 12N20160501082010505/01/16 08:20:31  5-MIN K12N 011320Z AUTO VRB03KT 06/03 A3019 340 82 -600 VRB/03 RMK AO1 P0002 T00610033
54779K12N 12N20160501082510505/01/16 08:25:31  5-MIN K12N 011325Z AUTO 00000KT 06/02 A3019 330 76 -600 000/00 RMK AO1 P0002 T00610022
54779K12N 12N20160501083010505/01/16 08:30:31  5-MIN K12N 011330Z AUTO 00000KT 06/03 A3019 340 79 -600 000/00 RMK AO1 P0002 T00610028
54779K12N 12N20160501083510505/01/16 08:35:31  5-MIN K12N 011335Z AUTO VRB04KT 06/03 A3019 340 79 -600 VRB/04 RMK AO1 P0002 T00610028
54779K12N 12N20160501084010505/01/16 08:40:31  5-MIN K12N 011340Z AUTO 00000KT 06/03 A3018 340 79 -600 000/00 RMK AO1 P0002 T00610028
54779K12N 12N20160501084510505/01/16 08:45:31  5-MIN K12N 011345Z AUTO 22003KT 06/03 A3019 340 79 -600 230/03 RMK AO1 P0002 T00610028
54779K12N 12N20160501085011205/01/16 08:50:31  5-MIN K12N 011350Z AUTO VRB03KT 06/03 A3019 340 79 -600 VRB/03 RMK AO1 SLP226 P0003 T00610028
54779K12N 12N20160501085509905/01/16 08:55:31  5-MIN K12N 011355Z AUTO VRB03KT 06/03 A3019 340 79 -600 VRB/03 RMK AO1 T00610028
54779K12N 12N20160501090009905/01/16 09:00:31  5-MIN K12N 011400Z AUTO 20003KT 06/03 A3019 340 85 -600 220/03 RMK AO1 T00560033
54779K12N 12N20160501090509905/01/16 09:05:31  5-MIN K12N 011405Z AUTO 20003KT 06/03 A3019 340 85 -600 210/03 RMK AO1 T00560033
54779K12N 12N20160501091009905/01/16 09:10:31  5-MIN K12N 011410Z AUTO 00000KT 06/03 A3018 340 85 -600 000/00 RMK AO1 T00560033
54779K12N 12N20160501091509905/01/16 09:15:31  5-MIN K12N 011415Z AUTO VRB03KT 06/03 A3019 340 82 -600 VRB/03 RMK AO1 T00610033
54779K12N 12N20160501092009905/01/16 09:20:31  5-MIN K12N 011420Z AUTO VRB03KT 06/03 A3018 340 82 -600 VRB/03 RMK AO1 T00610033
54779K12N 12N20160501092509905/01/16 09:25:31  5-MIN K12N 011425Z AUTO 17004KT 06/03 A3018 350 82 -600 180/04 RMK AO1 T00610033
54779K12N 12N20160501093009905/01/16 09:30:31  5-MIN K12N 011430Z AUTO 00000KT 06/03 A3018 350 82 -600 000/00 RMK AO1 T00610033
54779K12N 12N20160501093509905/01/16 09:35:31  5-MIN K12N 011435Z AUTO 21004KT 06/03 A3018 340 82 -600 220/04 RMK AO1 T00610033
54779K12N 12N20160501094009905/01/16 09:40:31  5-MIN K12N 011440Z AUTO 00000KT 06/03 A3018 340 82 -600 000/00 RMK AO1 T00610033
54779K12N 12N20160501094509905/01/16 09:45:31  5-MIN K12N 011445Z AUTO VRB03KT 06/03 A3018 350 82 -600 VRB/03 RMK AO1 T00610033
54779K12N 12N20160501095011805/01/16 09:50:31  5-MIN K12N 011450Z AUTO VRB03KT 06/03 A3018 350 82 -500 VRB/03 RMK AO1 SLP223 60009 T00610033 53006
54779K12N 12N20160501095509905/01/16 09:55:31  5-MIN K12N 011455Z AUTO VRB03KT 06/03 A3017 360 82 -500 VRB/03 RMK AO1 T00610033
54779K12N 12N20160501100010505/01/16 10:00:31  5-MIN K12N 011500Z AUTO 19004KT 06/03 A3017 350 82 -500 200/04 RMK AO1 P0001 T00610033
54779K12N 12N20160501100510505/01/16 10:05:31  5-MIN K12N 011505Z AUTO VRB03KT 06/03 A3017 350 82 -500 VRB/03 RMK AO1 P0001 T00610033
54779K12N 12N20160501210009905/01/16 21:00:31  5-MIN K12N 020200Z AUTO 00000KT 08/07 A3009 430 93 -200 000/00 RMK AO1 T00780067
54779K12N 12N20160501210509905/01/16 21:05:31  5-MIN K12N 020205Z AUTO 00000KT 08/07 A3008 440 93 -200 000/00 RMK AO1 T00780067
54779K12N 12N20160501211009905/01/16 21:10:31  5-MIN K12N 020210Z AUTO 00000KT 08/07 A3008 440 93 -200 000/00 RMK AO1 T00780067
54779K12N 12N20160501211509905/01/16 21:15:31  5-MIN K12N 020215Z AUTO 00000KT 08/07 A3008 440 93 -200 000/00 RMK AO1 T00780067
54779K12N 12N20160501212009905/01/16 21:20:31  5-MIN K12N 020220Z AUTO 00000KT 08/07 A3008 440 93 -200 000/00 RMK AO1 T00780067
54779K12N 12N20160501212509905/01/16 21:25:31  5-MIN K12N 020225Z AUTO 00000KT 08/07 A3008 440 93 -200 000/00 RMK AO1 T00780067
54779K12N 12N20160501213009905/01/16 21:30:31  5-MIN K12N 020230Z AUTO 00000KT 08/07 A3008 440 93 -200 000/00 RMK AO1 T00780067
54779K12N 12N20160501213509905/01/16 21:35:31  5-MIN K12N 020235Z AUTO 08003KT 08/07 A3008 440 93 -200 090/03 RMK AO1 T00780067
54779K12N 12N20160501214009905/01/16 21:40:31  5-MIN K12N 020240Z AUTO 00000KT 08/07 A3007 440 93 -200 000/00 RMK AO1 T00780067
54779K12N 12N20160501214509905/01/16 21:45:31  5-MIN K12N 020245Z AUTO 00000KT 08/07 A3008 440 93 -200 000/00 RMK AO1 T00780067
54779K12N 12N20160501215011205/01/16 21:50:31  5-MIN K12N 020250Z AUTO 00000KT 08/07 A3008 440 93 -200 000/00 RMK AO1 SLP189 T00780067 55002
54779K12N 12N20160501215509905/01/16 21:55:31  5-MIN K12N 020255Z AUTO 00000KT 08/07 A3008 440 93 -200 000/00 RMK AO1 T00780067
54779K12N 12N20160501220006105/01/16 22:00:31  5-MIN K12N 020300Z AUTO M M M M /M RMK AO1
54779K12N 12N20160501220510105/01/16 22:05:31  5-MIN K12N 020305Z AUTO 00000KT 08/07 A3008 440 93 -200 000/00 RMK AO1 T00780067 $
54779K12N 12N20160501221010105/01/16 22:10:31  5-MIN K12N 020310Z AUTO 00000KT 08/07 A3008 440 93 -200 000/00 RMK AO1 T00780067 $
54779K12N 12N20160501221510105/01/16 22:15:31  5-MIN K12N 020315Z AUTO 00000KT 08/07 A3008 440 93 -200 000/00 RMK AO1 T00780067 $
54779K12N 12N20160501222010105/01/16 22:20:31  5-MIN K12N 020320Z AUTO 00000KT 08/07 A3007 440 93 -200 000/00 RMK AO1 T00780067 $
54779K12N 12N20160501222510105/01/16 22:25:31  5-MIN K12N 020325Z AUTO 00000KT 08/07 A3007 450 93 -200 000/00 RMK AO1 T00780067 $
54779K12N 12N20160501223010105/01/16 22:30:31  5-MIN K12N 020330Z AUTO 00000KT 08/07 A3007 450 93 -200 000/00 RMK AO1 T00780067 $
54779K12N 12N20160501223510105/01/16 22:35:31  5-MIN K12N 020335Z AUTO 00000KT 08/07 A3007 450 93 -200 000/00 RMK AO1 T00780067 $
54779K12N 12N20160501224010105/01/16 22:40:31  5-MIN K12N 020340Z AUTO 00000KT 08/07 A3007 450 93 -200 000/00 RMK AO1 T00780067 $
54779K12N 12N20160501224510105/01/16 22:45:31  5-MIN K12N 020345Z AUTO 00000KT 08/07 A3007 450 93 -200 000/00 RMK AO1 T00780067 $
54779K12N 12N20160501225010805/01/16 22:50:31  5-MIN K12N 020350Z AUTO 15003KT 07/06 A3006 450 93 -300 160/03 RMK AO1 SLP184 T00720061 $
54779K12N 12N20160501225510105/01/16 22:55:31  5-MIN K12N 020355Z AUTO VRB03KT 07/06 A3006 460 93 -300 VRB/03 RMK AO1 T00720061 $
54779K12N 12N20160501230010105/01/16 23:00:31  5-MIN K12N 020400Z AUTO 00000KT 07/06 A3006 450 93 -300 000/00 RMK AO1 T00720061 $
54779K12N 12N20160501230510105/01/16 23:05:31  5-MIN K12N 020405Z AUTO 15003KT 07/06 A3007 450 93 -300 170/03 RMK AO1 T00720061 $
54779K12N 12N20160501231010105/01/16 23:10:31  5-MIN K12N 020410Z AUTO 00000KT 07/06 A3007 450 93 -300 000/00 RMK AO1 T00720061 $
54779K12N 12N20160501231510105/01/16 23:15:31  5-MIN K12N 020415Z AUTO 00000KT 07/06 A3007 450 93 -300 000/00 RMK AO1 T00720061 $
54779K12N 12N20160501232010105/01/16 23:20:31  5-MIN K12N 020420Z AUTO 16003KT 07/06 A3007 450 93 -300 180/03 RMK AO1 T00720061 $
54779K12N 12N20160501232510105/01/16 23:25:31  5-MIN K12N 020425Z AUTO 00000KT 07/06 A3007 450 93 -300 000/00 RMK AO1 T00720061 $
54779K12N 12N20160501233010105/01/16 23:30:31  5-MIN K12N 020430Z AUTO 00000KT 07/06 A3007 450 93 -300 000/00 RMK AO1 T00720061 $
54779K12N 12N20160501233510105/01/16 23:35:31  5-MIN K12N 020435Z AUTO VRB03KT 07/06 A3006 450 93 -300 VRB/03 RMK AO1 T00720061 $
54779K12N 12N20160501234010105/01/16 23:40:31  5-MIN K12N 020440Z AUTO VRB03KT 07/06 A3006 460 93 -300 VRB/03 RMK AO1 T00720061 $
54779K12N 12N20160501234510105/01/16 23:45:31  5-MIN K12N 020445Z AUTO 00000KT 07/06 A3006 450 93 -300 000/00 RMK AO1 T00720061 $
54779K12N 12N20160501235011805/01/16 23:50:31  5-MIN K12N 020450Z AUTO 08003KT 07/06 A3006 450 93 -300 090/03 RMK AO1 SLP184 T00720061 401000056 $
54779K12N 12N20160501235510105/01/16 23:55:31  5-MIN K12N 020455Z AUTO 00000KT 07/06 A3006 460 93 -300 000/00 RMK AO1 T00720061 $
54779K12N 12N20160502000010105/02/16 00:00:31  5-MIN K12N 020500Z AUTO 00000KT 07/06 A3005 460 93 -300 000/00 RMK AO1 T00720061 $
54779K12N 12N20160502000510105/02/16 00:05:31  5-MIN K12N 020505Z AUTO 00000KT 07/06 A3005 460 93 -300 000/00 RMK AO1 T00720061 $
54779K12N 12N20160502001010105/02/16 00:10:31  5-MIN K12N 020510Z AUTO 00000KT 07/06 A3005 470 96 -300 000/00 RMK AO1 T00670061 $
54779K12N 12N20160502001510105/02/16 00:15:31  5-MIN K12N 020515Z AUTO 00000KT 07/06 A3005 470 96 -300 000/00 RMK AO1 T00670061 $
54779K12N 12N20160502002010105/02/16 00:20:31  5-MIN K12N 020520Z AUTO 00000KT 07/06 A3004 470 96 -300 000/00 RMK AO1 T00670061 $
54779K12N 12N20160502002510105/02/16 00:25:31  5-MIN K12N 020525Z AUTO 00000KT 07/06 A3005 470 96 -300 000/00 RMK AO1 T00670061 $
54779K12N 12N20160502003010105/02/16 00:30:31  5-MIN K12N 020530Z AUTO 00000KT 07/06 A3004 480 96 -300 000/00 RMK AO1 T00670061 $
54779K12N 12N20160502003510105/02/16 00:35:31  5-MIN K12N 020535Z AUTO 00000KT 07/06 A3004 480 93 -300 000/00 RMK AO1 T00720061 $
54779K12N 12N20160502004010105/02/16 00:40:31  5-MIN K12N 020540Z AUTO 00000KT 07/06 A3003 480 93 -300 000/00 RMK AO1 T00720061 $
54779K12N 12N20160502004510105/02/16 00:45:31  5-MIN K12N 020545Z AUTO 00000KT 07/06 A3003 480 93 -200 000/00 RMK AO1 T00720061 $
54779K12N 12N20160502005012005/02/16 00:50:31  5-MIN K12N 020550Z AUTO 00000KT 07/06 A3004 470 93 -300 000/00 RMK AO1 SLP177 T00720061 10083 20067 $
54779K12N 12N20160502005510105/02/16 00:55:31  5-MIN K12N 020555Z AUTO 00000KT 07/06 A3004 480 96 -300 000/00 RMK AO1 T00670061 $
54779K12N 12N20160502010010105/02/16 01:00:31  5-MIN K12N 020600Z AUTO 00000KT 07/06 A3004 480 93 -300 000/00 RMK AO1 T00670056 $
54779K12N 12N20160502010510105/02/16 01:05:31  5-MIN K12N 020605Z AUTO 00000KT 07/06 A3003 480 93 -300 000/00 RMK AO1 T00670056 $
54779K12N 12N20160502011010105/02/16 01:10:31  5-MIN K12N 020610Z AUTO 00000KT 07/06 A3003 480 93 -300 000/00 RMK AO1 T00670056 $
54779K12N 12N20160502011510105/02/16 01:15:31  5-MIN K12N 020615Z AUTO 00000KT 07/06 A3003 490 93 -300 000/00 RMK AO1 T00670056 $
54779K12N 12N20160502012010105/02/16 01:20:31  5-MIN K12N 020620Z AUTO 00000KT 07/06 A3003 490 93 -300 000/00 RMK AO1 T00670056 $
54779K12N 12N20160502012510105/02/16 01:25:31  5-MIN K12N 020625Z AUTO 00000KT 07/06 A3003 490 93 -300 000/00 RMK AO1 T00670056 $
54779K12N 12N20160502013010105/02/16 01:30:31  5-MIN K12N 020630Z AUTO 00000KT 07/06 A3003 490 93 -300 000/00 RMK AO1 T00670056 $
54779K12N 12N20160502013510105/02/16 01:35:31  5-MIN K12N 020635Z AUTO 00000KT 07/06 A3003 490 96 -300 000/00 RMK AO1 T00670061 $
54779K12N 12N20160502014010105/02/16 01:40:31  5-MIN K12N 020640Z AUTO 00000KT 07/06 A3003 480 93 -300 000/00 RMK AO1 T00670056 $
54779K12N 12N20160502014510105/02/16 01:45:31  5-MIN K12N 020645Z AUTO 00000KT 07/06 A3003 490 93 -300 000/00 RMK AO1 T00670056 $
54779K12N 12N20160502015010805/02/16 01:50:31  5-MIN K12N 020650Z AUTO 00000KT 07/06 A3003 490 89 -200 000/00 RMK AO1 SLP172 T00720056 $
54779K12N 12N20160502015510105/02/16 01:55:31  5-MIN K12N 020655Z AUTO 00000KT 07/06 A3003 480 89 -200 000/00 RMK AO1 T00720056 $
54779K12N 12N20160502020010105/02/16 02:00:31  5-MIN K12N 020700Z AUTO 00000KT 07/06 A3003 490 89 -200 000/00 RMK AO1 T00720056 $
54779K12N 12N20160502020510105/02/16 02:05:31  5-MIN K12N 020705Z AUTO 00000KT 07/06 A3002 490 93 -300 000/00 RMK AO1 T00670056 $
54779K12N 12N20160502021010105/02/16 02:10:31  5-MIN K12N 020710Z AUTO 00000KT 07/06 A3002 490 93 -300 000/00 RMK AO1 T00670056 $
54779K12N 12N20160502021510105/02/16 02:15:31  5-MIN K12N 020715Z AUTO 00000KT 07/06 A3003 490 93 -300 000/00 RMK AO1 T00670056 $
54779K12N 12N20160502022010105/02/16 02:20:31  5-MIN K12N 020720Z AUTO 00000KT 07/06 A3003 480 93 -300 000/00 RMK AO1 T00670056 $
54779K12N 12N20160502022510105/02/16 02:25:31  5-MIN K12N 020725Z AUTO 00000KT 07/06 A3003 480 89 -300 000/00 RMK AO1 T00720056 $
54779K12N 12N20160502023010105/02/16 02:30:31  5-MIN K12N 020730Z AUTO 08003KT 07/06 A3002 490 89 -200 100/03 RMK AO1 T00720056 $
54779K12N 12N20160502023510105/02/16 02:35:31  5-MIN K12N 020735Z AUTO 00000KT 07/06 A3002 500 89 -200 000/00 RMK AO1 T00720056 $
54779K12N 12N20160502024010805/02/16 02:40:31  5-MIN K12N 020740Z AUTO 07003KT 07/06 A3001 500 93 -300 080/03 RMK AO1 PRESFR T00670056 $
54779K12N 12N20160502024510805/02/16 02:45:31  5-MIN K12N 020745Z AUTO 07003KT 07/06 A3000 510 93 -300 080/03 RMK AO1 PRESFR T00670056 $
54779K12N 12N20160502025010805/02/16 02:50:31  5-MIN K12N 020750Z AUTO 00000KT 07/06 A3000 510 93 -300 000/00 RMK AO1 SLP164 T00670056 $
54779K12N 12N20160502025510105/02/16 02:55:31  5-MIN K12N 020755Z AUTO 00000KT 07/06 A3000 510 93 -300 000/00 RMK AO1 T00670056 $
54779K12N 12N20160502030010105/02/16 03:00:31  5-MIN K12N 020800Z AUTO 00000KT 07/06 A3000 510 93 -200 000/00 RMK AO1 T00720061 $
54779K12N 12N20160502030510105/02/16 03:05:31  5-MIN K12N 020805Z AUTO 00000KT 07/06 A3000 510 93 -200 000/00 RMK AO1 T00720061 $
54779K12N 12N20160502031010105/02/16 03:10:31  5-MIN K12N 020810Z AUTO 00000KT 07/06 A3000 510 93 -200 000/00 RMK AO1 T00720061 $
54779K12N 12N20160502031510105/02/16 03:15:31  5-MIN K12N 020815Z AUTO 00000KT 07/06 A3000 520 89 -200 000/00 RMK AO1 T00720056 $
54779K12N 12N20160502032010105/02/16 03:20:31  5-MIN K12N 020820Z AUTO 00000KT 07/06 A3000 520 89 -200 000/00 RMK AO1 T00720056 $
54779K12N 12N20160502032510105/02/16 03:25:31  5-MIN K12N 020825Z AUTO 00000KT 07/06 A3000 510 93 -200 000/00 RMK AO1 T00720061 $
54779K12N 12N20160502033010105/02/16 03:30:31  5-MIN K12N 020830Z AUTO 00000KT 07/06 A3000 520 93 -200 000/00 RMK AO1 T00720061 $
54779K12N 12N20160502033510105/02/16 03:35:31  5-MIN K12N 020835Z AUTO 00000KT 07/06 A3000 510 93 -200 000/00 RMK AO1 T00720061 $
54779K12N 12N20160502034010105/02/16 03:40:31  5-MIN K12N 020840Z AUTO 00000KT 07/06 A2999 520 93 -200 000/00 RMK AO1 T00720061 $
54779K12N 12N20160502034510105/02/16 03:45:31  5-MIN K12N 020845Z AUTO 00000KT 07/06 A3000 520 93 -200 000/00 RMK AO1 T00720061 $
54779K12N 12N20160502035010805/02/16 03:50:31  5-MIN K12N 020850Z AUTO 00000KT 07/06 A3000 510 89 -200 000/00 RMK AO1 SLP163 T00720056 $
54779K12N 12N20160502035510105/02/16 03:55:31  5-MIN K12N 020855Z AUTO 00000KT 07/06 A3000 510 93 -200 000/00 RMK AO1 T00720061 $
54779K12N 12N20160502040010105/02/16 04:00:31  5-MIN K12N 020900Z AUTO 00000KT 07/06 A3001 510 93 -200 000/00 RMK AO1 T00720061 $
54779K12N 12N20160502040510105/02/16 04:05:31  5-MIN K12N 020905Z AUTO 00000KT 07/06 A3001 510 93 -200 000/00 RMK AO1 T00720061 $
54779K12N 12N20160502041010105/02/16 04:10:31  5-MIN K12N 020910Z AUTO 00000KT 07/06 A3000 510 93 -200 000/00 RMK AO1 T00720061 $
54779K12N 12N20160502041510105/02/16 04:15:31  5-MIN K12N 020915Z AUTO 00000KT 07/06 A3000 510 93 -200 000/00 RMK AO1 T00720061 $
54779K12N 12N20160502042010105/02/16 04:20:31  5-MIN K12N 020920Z AUTO 00000KT 07/06 A3000 510 96 -300 000/00 RMK AO1 T00670061 $
54779K12N 12N20160502042510105/02/16 04:25:31  5-MIN K12N 020925Z AUTO 06003KT 07/06 A2999 520 96 -300 070/03 RMK AO1 T00670061 $
54779K12N 12N20160502043010105/02/16 04:30:31  5-MIN K12N 020930Z AUTO 00000KT 07/06 A2999 520 93 -300 000/00 RMK AO1 T00670056 $
54779K12N 12N20160502043510105/02/16 04:35:31  5-MIN K12N 020935Z AUTO 00000KT 07/06 A2999 520 96 -300 000/00 RMK AO1 T00670061 $
54779K12N 12N20160502044010105/02/16 04:40:31  5-MIN K12N 020940Z AUTO 00000KT 07/06 A2999 520 93 -200 000/00 RMK AO1 T00720061 $
54779K12N 12N20160502044510105/02/16 04:45:31  5-MIN K12N 020945Z AUTO 00000KT 07/06 A2999 520 93 -200 000/00 RMK AO1 T00720061 $
54779K12N 12N20160502045010805/02/16 04:50:31  5-MIN K12N 020950Z AUTO 00000KT 07/06 A2999 520 93 -200 000/00 RMK AO1 SLP160 T00720061 $
54779K12N 12N20160502045510105/02/16 04:55:31  5-MIN K12N 020955Z AUTO 00000KT 07/06 A2999 520 93 -200 000/00 RMK AO1 T00720061 $
54779K12N 12N20160502050010105/02/16 05:00:31  5-MIN K12N 021000Z AUTO 00000KT 07/06 A2999 520 93 -200 000/00 RMK AO1 T00720061 $
54779K12N 12N20160502050510105/02/16 05:05:31  5-MIN K12N 021005Z AUTO 00000KT 07/06 A2999 520 93 -200 000/00 RMK AO1 T00720061 $
54779K12N 12N20160502051010105/02/16 05:10:31  5-MIN K12N 021010Z AUTO 00000KT 07/06 A2999 520 93 -200 000/00 RMK AO1 T00720061 $
54779K12N 12N20160502051510105/02/16 05:15:31  5-MIN K12N 021015Z AUTO 00000KT 07/06 A2999 520 93 -200 000/00 RMK AO1 T00720061 $
54779K12N 12N20160502052010105/02/16 05:20:31  5-MIN K12N 021020Z AUTO 05004KT 07/06 A2998 530 93 -200 060/04 RMK AO1 T00720061 $
54779K12N 12N20160502052510105/02/16 05:25:31  5-MIN K12N 021025Z AUTO 04004KT 07/06 A2998 530 93 -200 050/04 RMK AO1 T00720061 $
54779K12N 12N20160502053010105/02/16 05:30:31  5-MIN K12N 021030Z AUTO 04004KT 07/06 A2998 530 93 -200 050/04 RMK AO1 T00720061 $
54779K12N 12N20160502053510105/02/16 05:35:31  5-MIN K12N 021035Z AUTO 00000KT 07/06 A2998 530 93 -200 000/00 RMK AO1 T00720061 $
54779K12N 12N20160502054010105/02/16 05:40:31  5-MIN K12N 021040Z AUTO 00000KT 07/06 A2998 530 93 -200 000/00 RMK AO1 T00720061 $
54779K12N 12N20160502054510105/02/16 05:45:31  5-MIN K12N 021045Z AUTO 05004KT 07/06 A2997 540 93 -200 070/04 RMK AO1 T00720061 $
54779K12N 12N20160502055010805/02/16 05:50:31  5-MIN K12N 021050Z AUTO 00000KT 07/06 A2996 550 93 -200 000/00 RMK AO1 SLP150 T00720061 $
54779K12N 12N20160502055510105/02/16 05:55:31  5-MIN K12N 021055Z AUTO VRB03KT 07/06 A2997 540 93 -200 VRB/03 RMK AO1 T00720061 $
54779K12N 12N20160502060010105/02/16 06:00:31  5-MIN K12N 021100Z AUTO 00000KT 07/06 A2997 540 93 -200 000/00 RMK AO1 T00720061 $
54779K12N 12N20160502060510105/02/16 06:05:31  5-MIN K12N 021105Z AUTO 00000KT 07/07 A2997 540 96 -200 000/00 RMK AO1 T00720067 $
54779K12N 12N20160502061010105/02/16 06:10:31  5-MIN K12N 021110Z AUTO 00000KT 07/06 A2997 540 93 -200 000/00 RMK AO1 T00720061 $
54779K12N 12N20160502061510105/02/16 06:15:31  5-MIN K12N 021115Z AUTO 00000KT 07/06 A2997 540 93 -200 000/00 RMK AO1 T00720061 $
54779K12N 12N20160502062010105/02/16 06:20:31  5-MIN K12N 021120Z AUTO 00000KT 08/07 A2997 540 93 -100 000/00 RMK AO1 T00780067 $
54779K12N 12N20160502062510105/02/16 06:25:31  5-MIN K12N 021125Z AUTO 00000KT 07/07 A2997 540 96 -200 000/00 RMK AO1 T00720067 $
54779K12N 12N20160502063010105/02/16 06:30:31  5-MIN K12N 021130Z AUTO 00000KT 08/07 A2997 540 93 -100 000/00 RMK AO1 T00780067 $
54779K12N 12N20160502063510105/02/16 06:35:31  5-MIN K12N 021135Z AUTO 00000KT 08/07 A2998 530 93 -100 000/00 RMK AO1 T00780067 $
54779K12N 12N20160502064010105/02/16 06:40:31  5-MIN K12N 021140Z AUTO 08003KT 08/07 A2997 540 93 -100 090/03 RMK AO1 T00780067 $
54779K12N 12N20160502064510105/02/16 06:45:31  5-MIN K12N 021145Z AUTO 00000KT 08/07 A2997 540 93 -100 000/00 RMK AO1 T00780067 $
54779K12N 12N20160502065013205/02/16 06:50:31  5-MIN K12N 021150Z AUTO 00000KT 08/06 A2998 530 89 -100 000/00 RMK AO1 SLP155 70021 T00780061 10078 20067 56015 $
54779K12N 12N20160502065510105/02/16 06:55:31  5-MIN K12N 021155Z AUTO 21003KT 08/07 A2998 530 93 -100 230/03 RMK AO1 T00780067 $
54779K12N 12N20160502070010105/02/16 07:00:31  5-MIN K12N 021200Z AUTO VRB03KT 08/07 A2998 530 93 -100 VRB/03 RMK AO1 T00780067 $
54779K12N 12N20160502070510105/02/16 07:05:31  5-MIN K12N 021205Z AUTO 19003KT 08/07 A2999 530 93 -100 200/03 RMK AO1 T00780067 $
54779K12N 12N20160502071009905/02/16 07:10:31  5-MIN K12N 021210Z AUTO 17003KT 08/07 A2998 530 93 -100 180/03 RMK AO1 T00780067
54779K12N 12N20160502071509905/02/16 07:15:31  5-MIN K12N 021215Z AUTO 20004KT 08/07 A2999 520 93 -100 210/04 RMK AO1 T00780067
54779K12N 12N20160502072009905/02/16 07:20:31  5-MIN K12N 021220Z AUTO 17005KT 08/06 A2998 530 89 -100 190/05 RMK AO1 T00780061
54779K12N 12N20160502072509905/02/16 07:25:31  5-MIN K12N 021225Z AUTO VRB03KT 08/06 A2998 530 89 -100 VRB/03 RMK AO1 T00780061
54779K12N 12N20160502073009905/02/16 07:30:31  5-MIN K12N 021230Z AUTO 21004KT 08/07 A2999 520 93 -100 230/04 RMK AO1 T00780067
54779K12N 12N20160502073509905/02/16 07:35:31  5-MIN K12N 021235Z AUTO 17003KT 08/06 A2998 530 89 -100 180/03 RMK AO1 T00780061
54779K12N 12N20160502074009905/02/16 07:40:31  5-MIN K12N 021240Z AUTO 00000KT 07/06 A2998 530 93 -200 000/00 RMK AO1 T00720061
54779K12N 12N20160502074509905/02/16 07:45:31  5-MIN K12N 021245Z AUTO 21003KT 07/06 A2998 530 93 -200 220/03 RMK AO1 T00720061
54779K12N 12N20160502075010605/02/16 07:50:31  5-MIN K12N 021250Z AUTO 00000KT 07/06 A2999 520 93 -200 000/00 RMK AO1 SLP159 T00720061
54779K12N 12N20160502075509905/02/16 07:55:31  5-MIN K12N 021255Z AUTO VRB03KT 07/07 A2999 520 96 -200 VRB/03 RMK AO1 T00720067
54779K12N 12N20160502080009905/02/16 08:00:31  5-MIN K12N 021300Z AUTO 00000KT 07/07 A2999 520 96 -200 000/00 RMK AO1 T00720067
54779K12N 12N20160502080509905/02/16 08:05:31  5-MIN K12N 021305Z AUTO 21005KT 08/07 A3000 520 93 -100 230/05 RMK AO1 T00780067
54779K12N 12N20160502081010605/02/16 08:10:31  5-MIN K12N 021310Z AUTO 22006KT 08/07 A3001 500 93 -200 240/06 RMK AO1 PRESRR T00780067
54779K12N 12N20160502081510605/02/16 08:15:31  5-MIN K12N 021315Z AUTO 21006KT 08/07 A3002 500 93 -200 220/06 RMK AO1 PRESRR T00780067
54779K12N 12N20160502082009905/02/16 08:20:31  5-MIN K12N 021320Z AUTO 20004KT 08/07 A3002 500 93 -200 210/04 RMK AO1 T00780067
54779K12N 12N20160502082509905/02/16 08:25:31  5-MIN K12N 021325Z AUTO VRB05KT 08/07 A3001 500 93 -200 VRB/05 RMK AO1 T00780067
54779K12N 12N20160502083009905/02/16 08:30:31  5-MIN K12N 021330Z AUTO 00000KT 08/07 A3000 510 96 -100 000/00 RMK AO1 T00780072
54779K12N 12N20160502083509905/02/16 08:35:31  5-MIN K12N 021335Z AUTO VRB04KT 08/07 A3000 510 96 -100 VRB/04 RMK AO1 T00780072
54779K12N 12N20160502084009905/02/16 08:40:31  5-MIN K12N 021340Z AUTO 18003KT 08/07 A3000 510 96 -100 200/03 RMK AO1 T00780072
54779K12N 12N20160502084510505/02/16 08:45:31  5-MIN K12N 021345Z AUTO VRB04KT 08/07 A2999 520 96 -100 VRB/04 RMK AO1 P0001 T00780072
54779K12N 12N20160502085011205/02/16 08:50:31  5-MIN K12N 021350Z AUTO VRB03KT 08/07 A2999 520 96 -100 VRB/03 RMK AO1 SLP159 P0001 T00780072
54779K12N 12N20160502085510605/02/16 08:55:31  5-MIN K12N 021355Z AUTO 00000KT 08/07 A2998 530 96 -100 000/00 RMK AO1 PRESFR T00780072
54779K12N 12N20160502092509605/02/16 09:25:31  5-MIN K12N 021425Z AUTO VRB03KT 08/07 A2994 560 93 0 VRB/03 RMK AO1 T00830072
54779K12N 12N20160502093009605/02/16 09:30:31  5-MIN K12N 021430Z AUTO VRB03KT 09/07 A2995 560 89 0 VRB/03 RMK AO1 T00890072
54779K12N 12N20160502093509605/02/16 09:35:31  5-MIN K12N 021435Z AUTO 24004KT 09/07 A2995 560 89 0 260/04 RMK AO1 T00890072
54779K12N 12N20160502094009605/02/16 09:40:31  5-MIN K12N 021440Z AUTO 23004KT 08/07 A2995 550 89 0 250/04 RMK AO1 T00830067
54779K12N 12N20160502094509605/02/16 09:45:31  5-MIN K12N 021445Z AUTO 23004KT 08/07 A2995 550 89 0 240/04 RMK AO1 T00830067
54779K12N 12N20160502095011505/02/16 09:50:31  5-MIN K12N 021450Z AUTO 00000KT 08/07 A2995 560 93 0 000/00 RMK AO1 SLP146 60001 T00830072 55005
54779K12N 12N20160502095509605/02/16 09:55:31  5-MIN K12N 021455Z AUTO 00000KT 09/07 A2995 560 89 0 000/00 RMK AO1 T00890072
54779K12N 12N20160502100009605/02/16 10:00:31  5-MIN K12N 021500Z AUTO 00000KT 09/07 A2994 560 89 0 000/00 RMK AO1 T00890072
54779K12N 12N20160502100509605/02/16 10:05:31  5-MIN K12N 021505Z AUTO VRB03KT 09/07 A2995 560 89 0 VRB/03 RMK AO1 T00890072
54779K12N 12N20160502101009605/02/16 10:10:31  5-MIN K12N 021510Z AUTO 00000KT 09/07 A2995 560 89 0 000/00 RMK AO1 T00890072
54779K12N 12N20160502101509605/02/16 10:15:31  5-MIN K12N 021515Z AUTO VRB03KT 09/07 A2995 560 89 0 VRB/03 RMK AO1 T00890072
54779K12N 12N20160502102009605/02/16 10:20:31  5-MIN K12N 021520Z AUTO 22003KT 09/08 A2995 560 93 0 240/03 RMK AO1 T00890078
54779K12N 12N20160502102509605/02/16 10:25:31  5-MIN K12N 021525Z AUTO 21004KT 09/08 A2995 560 93 0 220/04 RMK AO1 T00890078
54779K12N 12N20160502103009605/02/16 10:30:31  5-MIN K12N 021530Z AUTO VRB03KT 09/08 A2994 570 93 0 VRB/03 RMK AO1 T00890078
54779K12N 12N20160502103509605/02/16 10:35:31  5-MIN K12N 021535Z AUTO VRB03KT 09/08 A2994 570 93 0 VRB/03 RMK AO1 T00890078
54779K12N 12N20160502104009605/02/16 10:40:31  5-MIN K12N 021540Z AUTO 20003KT 09/08 A2995 560 93 0 210/03 RMK AO1 T00890078
54779K12N 12N20160502104509805/02/16 10:45:31  5-MIN K12N 021545Z AUTO VRB03KT 09/08 A2995 560 93 100 VRB/03 RMK AO1 T00940083
54779K12N 12N20160502105010305/02/16 10:50:31  5-MIN K12N 021550Z AUTO 22003KT 09/08 A2995 560 96 0 230/03 RMK AO1 SLP146 T00890083
54779K12N 12N20160502105509805/02/16 10:55:31  5-MIN K12N 021555Z AUTO 00000KT 09/08 A2995 560 93 100 000/00 RMK AO1 T00940083
54779K12N 12N20160502110009805/02/16 11:00:31  5-MIN K12N 021600Z AUTO 30003KT 09/08 A2995 560 93 100 310/03 RMK AO1 T00940083
54779K12N 12N20160502110509805/02/16 11:05:31  5-MIN K12N 021605Z AUTO VRB04KT 09/08 A2995 560 93 100 VRB/04 RMK AO1 T00940083
54779K12N 12N20160502111009805/02/16 11:10:31  5-MIN K12N 021610Z AUTO 00000KT 09/08 A2995 560 93 100 000/00 RMK AO1 T00940083
54779K12N 12N20160502111509805/02/16 11:15:31  5-MIN K12N 021615Z AUTO 00000KT 09/08 A2995 560 93 100 000/00 RMK AO1 T00940083
54779K12N 12N20160502112009805/02/16 11:20:31  5-MIN K12N 021620Z AUTO 19003KT 09/08 A2994 570 93 100 210/03 RMK AO1 T00940083
54779K12N 12N20160502112509805/02/16 11:25:31  5-MIN K12N 021625Z AUTO 00000KT 09/09 A2994 570 96 100 000/00 RMK AO1 T00940089
54779K12N 12N20160502113009805/02/16 11:30:31  5-MIN K12N 021630Z AUTO VRB03KT 10/09 A2994 570 93 100 VRB/03 RMK AO1 T01000089
54779K12N 12N20160502113509805/02/16 11:35:31  5-MIN K12N 021635Z AUTO VRB03KT 10/09 A2993 570 93 200 VRB/03 RMK AO1 T01000089
54779K12N 12N20160502114009805/02/16 11:40:31  5-MIN K12N 021640Z AUTO VRB03KT 10/09 A2993 570 93 200 VRB/03 RMK AO1 T01000089
54779K12N 12N20160502114509805/02/16 11:45:31  5-MIN K12N 021645Z AUTO 22004KT 10/09 A2993 570 93 200 240/04 RMK AO1 T01000089
54779K12N 12N20160502115010505/02/16 11:50:31  5-MIN K12N 021650Z AUTO 21004KT 10/09 A2993 570 93 200 230/04 RMK AO1 SLP140 T01000089
54779K12N 12N20160502115509805/02/16 11:55:31  5-MIN K12N 021655Z AUTO VRB03KT 10/09 A2993 570 93 200 VRB/03 RMK AO1 T01000089
54779K12N 12N20160502120009805/02/16 12:00:31  5-MIN K12N 021700Z AUTO VRB03KT 10/09 A2993 580 93 200 VRB/03 RMK AO1 T01000089
54779K12N 12N20160502120509805/02/16 12:05:31  5-MIN K12N 021705Z AUTO 00000KT 10/09 A2993 580 93 200 000/00 RMK AO1 T01000089
54779K12N 12N20160502121009805/02/16 12:10:31  5-MIN K12N 021710Z AUTO 23004KT 11/09 A2992 580 93 200 240/04 RMK AO1 T01060094
54779K12N 12N20160502121509805/02/16 12:15:31  5-MIN K12N 021715Z AUTO 00000KT 11/09 A2992 590 93 200 000/00 RMK AO1 T01060094
54779K12N 12N20160502122009805/02/16 12:20:31  5-MIN K12N 021720Z AUTO VRB03KT 11/10 A2992 590 93 300 VRB/03 RMK AO1 T01110100
54779K12N 12N20160502122509805/02/16 12:25:31  5-MIN K12N 021725Z AUTO VRB03KT 11/09 A2992 590 89 300 VRB/03 RMK AO1 T01110094
54779K12N 12N20160502123009805/02/16 12:30:31  5-MIN K12N 021730Z AUTO 00000KT 12/09 A2992 580 86 400 000/00 RMK AO1 T01170094
54779K12N 12N20160502123509805/02/16 12:35:31  5-MIN K12N 021735Z AUTO VRB03KT 12/10 A2993 580 89 400 VRB/03 RMK AO1 T01170100
54779K12N 12N20160502124009805/02/16 12:40:31  5-MIN K12N 021740Z AUTO 00000KT 11/09 A2993 580 89 300 000/00 RMK AO1 T01110094
54779K12N 12N20160502124509805/02/16 12:45:31  5-MIN K12N 021745Z AUTO 00000KT 11/09 A2993 580 89 300 000/00 RMK AO1 T01110094
54779K12N 12N20160502125012905/02/16 12:50:31  5-MIN K12N 021750Z AUTO 00000KT 12/09 A2993 580 86 400 000/00 RMK AO1 SLP137 60002 T01170094 10117 20072 58011
54779K12N 12N20160502125509805/02/16 12:55:31  5-MIN K12N 021755Z AUTO 00000KT 12/09 A2992 580 86 400 000/00 RMK AO1 T01170094
54779K12N 12N20160502130009805/02/16 13:00:31  5-MIN K12N 021800Z AUTO 31003KT 12/09 A2992 580 86 400 320/03 RMK AO1 T01170094
54779K12N 12N20160502130509805/02/16 13:05:31  5-MIN K12N 021805Z AUTO VRB03KT 12/10 A2992 580 89 400 VRB/03 RMK AO1 T01170100
54779K12N 12N20160502131009805/02/16 13:10:31  5-MIN K12N 021810Z AUTO 24004KT 12/09 A2992 580 86 400 260/04 RMK AO1 T01170094
54779K12N 12N20160502131509805/02/16 13:15:31  5-MIN K12N 021815Z AUTO 21005KT 12/10 A2992 580 89 400 220/05 RMK AO1 T01170100
54779K12N 12N20160502132009805/02/16 13:20:31  5-MIN K12N 021820Z AUTO 21004KT 12/10 A2992 580 89 400 230/04 RMK AO1 T01170100
54779K12N 12N20160502132509805/02/16 13:25:31  5-MIN K12N 021825Z AUTO VRB03KT 12/10 A2992 580 89 400 VRB/03 RMK AO1 T01170100
54779K12N 12N20160502133009805/02/16 13:30:31  5-MIN K12N 021830Z AUTO VRB04KT 12/10 A2992 580 89 400 VRB/04 RMK AO1 T01170100
54779K12N 12N20160502133509805/02/16 13:35:31  5-MIN K12N 021835Z AUTO 23004KT 12/10 A2992 590 86 400 240/04 RMK AO1 T01220100
54779K12N 12N20160502134009805/02/16 13:40:31  5-MIN K12N 021840Z AUTO 22008KT 12/10 A2992 590 86 400 230/08 RMK AO1 T01220100
54779K12N 12N20160502134509805/02/16 13:45:31  5-MIN K12N 021845Z AUTO 23006KT 12/10 A2991 590 86 400 240/06 RMK AO1 T01220100
54779K12N 12N20160502135010505/02/16 13:50:31  5-MIN K12N 021850Z AUTO 22006KT 12/10 A2991 600 86 400 230/06 RMK AO1 SLP130 T01220100
54779K12N 12N20160502135509805/02/16 13:55:31  5-MIN K12N 021855Z AUTO 22004KT 13/11 A2990 600 86 500 230/04 RMK AO1 T01280106
54779K12N 12N20160502140009805/02/16 14:00:31  5-MIN K12N 021900Z AUTO 22007KT 13/11 A2990 610 86 500 230/07 RMK AO1 T01280106
54779K12N 12N20160502140509805/02/16 14:05:31  5-MIN K12N 021905Z AUTO 21007KT 13/11 A2989 610 83 600 220/07 RMK AO1 T01330106
54779K12N 12N20160502141009805/02/16 14:10:31  5-MIN K12N 021910Z AUTO 22008KT 13/11 A2989 610 86 500 230/08 RMK AO1 T01280106
54779K12N 12N20160502141511405/02/16 14:15:31  5-MIN K12N 021915Z AUTO 22007KT 180V240 13/11 A2989 610 83 600 230/07 190V250 RMK AO1 T01330106
54779K12N 12N20160502142009805/02/16 14:20:31  5-MIN K12N 021920Z AUTO 22008KT 13/11 A2989 610 83 600 230/08 RMK AO1 T01330106
54779K12N 12N20160502142509805/02/16 14:25:31  5-MIN K12N 021925Z AUTO 24006KT 13/11 A2990 610 83 600 260/06 RMK AO1 T01330106
54779K12N 12N20160502143009805/02/16 14:30:31  5-MIN K12N 021930Z AUTO 23006KT 13/10 A2990 610 80 600 240/06 RMK AO1 T01330100
54779K12N 12N20160502143509805/02/16 14:35:31  5-MIN K12N 021935Z AUTO 22006KT 13/11 A2990 610 83 600 230/06 RMK AO1 T01330106
54779K12N 12N20160502144009805/02/16 14:40:31  5-MIN K12N 021940Z AUTO VRB04KT 13/11 A2990 610 83 600 VRB/04 RMK AO1 T01330106
54779K12N 12N20160502144509805/02/16 14:45:31  5-MIN K12N 021945Z AUTO 24006KT 14/11 A2989 610 80 700 250/06 RMK AO1 T01390106
54779K12N 12N20160502145010505/02/16 14:50:31  5-MIN K12N 021950Z AUTO 23006KT 13/11 A2989 610 83 600 240/06 RMK AO1 SLP124 T01330106
54779K12N 12N20160502145509805/02/16 14:55:31  5-MIN K12N 021955Z AUTO 23006KT 14/11 A2989 610 80 700 240/06 RMK AO1 T01390106
54779K12N 12N20160502150009805/02/16 15:00:31  5-MIN K12N 022000Z AUTO VRB03KT 14/11 A2989 610 80 700 VRB/03 RMK AO1 T01390106
54779K12N 12N20160502150509805/02/16 15:05:31  5-MIN K12N 022005Z AUTO 19003KT 14/11 A2989 620 83 700 210/03 RMK AO1 T01390111
54779K12N 12N20160502151009805/02/16 15:10:31  5-MIN K12N 022010Z AUTO VRB05KT 15/11 A2989 610 77 800 VRB/05 RMK AO1 T01500111
54779K12N 12N20160502151509805/02/16 15:15:31  5-MIN K12N 022015Z AUTO VRB04KT 14/11 A2989 620 80 700 VRB/04 RMK AO1 T01440111
54779K12N 12N20160502152009805/02/16 15:20:31  5-MIN K12N 022020Z AUTO 21005KT 15/11 A2989 620 77 800 220/05 RMK AO1 T01500111
54779K12N 12N20160502152509805/02/16 15:25:31  5-MIN K12N 022025Z AUTO 18004KT 15/11 A2989 620 77 800 190/04 RMK AO1 T01500111
54779K12N 12N20160502153009805/02/16 15:30:31  5-MIN K12N 022030Z AUTO 21003KT 15/11 A2988 620 77 800 220/03 RMK AO1 T01500111
54779K12N 12N20160502153509805/02/16 15:35:31  5-MIN K12N 022035Z AUTO VRB05KT 16/12 A2988 620 77 900 VRB/05 RMK AO1 T01560117
54779K12N 12N20160502154009805/02/16 15:40:31  5-MIN K12N 022040Z AUTO 21004KT 16/11 A2988 620 74 900 220/04 RMK AO1 T01560111
54779K12N 12N20160502154509805/02/16 15:45:31  5-MIN K12N 022045Z AUTO VRB03KT 16/12 A2989 620 75 900 VRB/03 RMK AO1 T01610117
54779K12N 12N20160502155011105/02/16 15:50:31  5-MIN K12N 022050Z AUTO 00000KT 16/12 A2988 620 75 900 000/00 RMK AO1 SLP121 T01610117 58007
54779K12N 12N20160502155509805/02/16 15:55:31  5-MIN K12N 022055Z AUTO VRB05KT 16/12 A2989 620 75 900 VRB/05 RMK AO1 T01610117
54779K12N 12N20160502160009805/02/16 16:00:31  5-MIN K12N 022100Z AUTO 20004KT 16/12 A2989 610 75 900 210/04 RMK AO1 T01610117
54779K12N 12N20160502160509805/02/16 16:05:31  5-MIN K12N 022105Z AUTO 00000KT 16/12 A2989 610 75 900 000/00 RMK AO1 T01610117
54779K12N 12N20160502161008905/02/16 16:10:31  5-MIN K12N 022110Z AUTO 17/12 A2989 610 72 1000 M /M RMK AO1 T01670117
54779K12N 12N20160502161509905/02/16 16:15:31  5-MIN K12N 022115Z AUTO VRB03KT 17/12 A2989 610 72 1000 VRB/03 RMK AO1 T01670117
54779K12N 12N20160502162009905/02/16 16:20:31  5-MIN K12N 022120Z AUTO 18003KT 17/12 A2989 610 72 1000 200/03 RMK AO1 T01670117
54779K12N 12N20160502162509905/02/16 16:25:31  5-MIN K12N 022125Z AUTO VRB04KT 17/12 A2989 610 72 1000 VRB/04 RMK AO1 T01670117
54779K12N 12N20160502163009905/02/16 16:30:31  5-MIN K12N 022130Z AUTO VRB03KT 17/12 A2989 610 72 1100 VRB/03 RMK AO1 T01720122
54779K12N 12N20160502163509905/02/16 16:35:31  5-MIN K12N 022135Z AUTO 19003KT 17/12 A2989 610 72 1000 200/03 RMK AO1 T01670117
54779K12N 12N20160502164009905/02/16 16:40:31  5-MIN K12N 022140Z AUTO 18003KT 17/12 A2989 610 72 1000 190/03 RMK AO1 T01670117
54779K12N 12N20160502164509905/02/16 16:45:31  5-MIN K12N 022145Z AUTO 00000KT 17/12 A2989 610 69 1100 000/00 RMK AO1 T01720117
54779K12N 12N20160502165010605/02/16 16:50:31  5-MIN K12N 022150Z AUTO 19003KT 17/12 A2989 620 72 1000 200/03 RMK AO1 SLP120 T01670117
54779K12N 12N20160502165509905/02/16 16:55:31  5-MIN K12N 022155Z AUTO VRB03KT 17/12 A2988 620 72 1100 VRB/03 RMK AO1 T01720122
54779K12N 12N20160502170009905/02/16 17:00:31  5-MIN K12N 022200Z AUTO 00000KT 17/12 A2988 620 69 1100 000/00 RMK AO1 T01720117
54779K12N 12N20160502170509905/02/16 17:05:31  5-MIN K12N 022205Z AUTO 00000KT 17/12 A2989 620 72 1100 000/00 RMK AO1 T01720122
54779K12N 12N20160502171009905/02/16 17:10:31  5-MIN K12N 022210Z AUTO 00000KT 17/12 A2988 620 72 1100 000/00 RMK AO1 T01720122
54779K12N 12N20160502171509905/02/16 17:15:31  5-MIN K12N 022215Z AUTO 34005KT 18/12 A2988 620 67 1100 350/05 RMK AO1 T01780117
54779K12N 12N20160502172009905/02/16 17:20:31  5-MIN K12N 022220Z AUTO 36005KT 18/12 A2989 620 65 1200 010/05 RMK AO1 T01830117
54779K12N 12N20160502172509905/02/16 17:25:31  5-MIN K12N 022225Z AUTO 01006KT 18/12 A2989 610 65 1200 020/06 RMK AO1 T01830117
54779K12N 12N20160502173009905/02/16 17:30:31  5-MIN K12N 022230Z AUTO VRB06KT 18/12 A2989 610 67 1100 VRB/06 RMK AO1 T01780117
54779K12N 12N20160502173509905/02/16 17:35:31  5-MIN K12N 022235Z AUTO VRB05KT 18/11 A2989 620 64 1100 VRB/05 RMK AO1 T01780111
54779K12N 12N20160502174009905/02/16 17:40:31  5-MIN K12N 022240Z AUTO 36004KT 18/11 A2989 620 64 1100 020/04 RMK AO1 T01780111
54779K12N 12N20160502174509905/02/16 17:45:31  5-MIN K12N 022245Z AUTO VRB03KT 18/11 A2989 610 62 1200 VRB/03 RMK AO1 T01830111
54779K12N 12N20160502175010605/02/16 17:50:31  5-MIN K12N 022250Z AUTO 01004KT 18/11 A2989 620 62 1200 020/04 RMK AO1 SLP120 T01830111
54779K12N 12N20160502175509905/02/16 17:55:31  5-MIN K12N 022255Z AUTO 35003KT 18/11 A2990 610 62 1100 360/03 RMK AO1 T01780106
54779K12N 12N20160502180009905/02/16 18:00:31  5-MIN K12N 022300Z AUTO 36004KT 18/11 A2990 600 64 1100 010/04 RMK AO1 T01780111
54779K12N 12N20160502180509905/02/16 18:05:31  5-MIN K12N 022305Z AUTO 35004KT 18/11 A2991 600 62 1100 360/04 RMK AO1 T01780106
54779K12N 12N20160502181009905/02/16 18:10:31  5-MIN K12N 022310Z AUTO 00000KT 17/10 A2991 600 62 1000 000/00 RMK AO1 T01720100
54779K12N 12N20160502181509905/02/16 18:15:31  5-MIN K12N 022315Z AUTO 35004KT 17/10 A2991 600 62 1000 360/04 RMK AO1 T01720100
54779K12N 12N20160502182009905/02/16 18:20:31  5-MIN K12N 022320Z AUTO 35007KT 17/10 A2991 600 62 1000 010/07 RMK AO1 T01720100
54779K12N 12N20160502182509905/02/16 18:25:31  5-MIN K12N 022325Z AUTO 36004KT 17/11 A2991 590 67 1000 010/04 RMK AO1 T01670106
54779K12N 12N20160502183009805/02/16 18:30:31  5-MIN K12N 022330Z AUTO 00000KT 16/11 A2991 590 69 900 000/00 RMK AO1 T01610106
54779K12N 12N20160502183509805/02/16 18:35:31  5-MIN K12N 022335Z AUTO 00000KT 16/11 A2992 590 69 900 000/00 RMK AO1 T01610106
54779K12N 12N20160502184009805/02/16 18:40:31  5-MIN K12N 022340Z AUTO 01003KT 16/11 A2991 590 69 900 020/03 RMK AO1 T01610106
54779K12N 12N20160502184509805/02/16 18:45:31  5-MIN K12N 022345Z AUTO 00000KT 16/11 A2992 590 72 800 000/00 RMK AO1 T01560106
54779K12N 12N20160502185012305/02/16 18:50:31  5-MIN K12N 022350Z AUTO 00000KT 15/11 A2992 590 74 800 000/00 RMK AO1 SLP132 T01500106 10183 20117 56013
54779K12N 12N20160502185509805/02/16 18:55:31  5-MIN K12N 022355Z AUTO 00000KT 15/11 A2993 580 74 800 000/00 RMK AO1 T01500106
54779K12N 12N20160502190009805/02/16 19:00:31  5-MIN K12N 030000Z AUTO 00000KT 14/11 A2993 580 77 700 000/00 RMK AO1 T01440106
54779K12N 12N20160502190509805/02/16 19:05:31  5-MIN K12N 030005Z AUTO 00000KT 14/11 A2993 580 83 600 000/00 RMK AO1 T01390111
54779K12N 12N20160502191009805/02/16 19:10:31  5-MIN K12N 030010Z AUTO 00000KT 14/11 A2992 580 83 600 000/00 RMK AO1 T01390111
54779K12N 12N20160502191509805/02/16 19:15:31  5-MIN K12N 030015Z AUTO 00000KT 13/11 A2992 580 83 600 000/00 RMK AO1 T01330106
54779K12N 12N20160502192009805/02/16 19:20:31  5-MIN K12N 030020Z AUTO 00000KT 13/11 A2992 590 83 600 000/00 RMK AO1 T01330106
54779K12N 12N20160502192509805/02/16 19:25:31  5-MIN K12N 030025Z AUTO 00000KT 13/11 A2991 590 86 500 000/00 RMK AO1 T01280106
54779K12N 12N20160502193009805/02/16 19:30:31  5-MIN K12N 030030Z AUTO 00000KT 12/10 A2992 590 86 400 000/00 RMK AO1 T01220100
54779K12N 12N20160502193509805/02/16 19:35:31  5-MIN K12N 030035Z AUTO 00000KT 12/10 A2992 590 89 400 000/00 RMK AO1 T01170100
54779K12N 12N20160502194009805/02/16 19:40:31  5-MIN K12N 030040Z AUTO 00000KT 12/11 A2992 590 89 400 000/00 RMK AO1 T01220106
54779K12N 12N20160502194509805/02/16 19:45:31  5-MIN K12N 030045Z AUTO 00000KT 12/11 A2992 590 89 400 000/00 RMK AO1 T01220106
54779K12N 12N20160502195010505/02/16 19:50:31  5-MIN K12N 030050Z AUTO 00000KT 12/11 A2992 590 89 400 000/00 RMK AO1 SLP134 T01220106
54779K12N 12N20160502195509805/02/16 19:55:31  5-MIN K12N 030055Z AUTO 00000KT 12/11 A2992 580 89 400 000/00 RMK AO1 T01220106
54779K12N 12N20160502200009805/02/16 20:00:31  5-MIN K12N 030100Z AUTO 00000KT 12/11 A2992 590 89 400 000/00 RMK AO1 T01220106
54779K12N 12N20160502200509805/02/16 20:05:31  5-MIN K12N 030105Z AUTO 00000KT 12/11 A2991 590 89 400 000/00 RMK AO1 T01220106
54779K12N 12N20160502201009805/02/16 20:10:31  5-MIN K12N 030110Z AUTO 00000KT 12/11 A2992 590 89 400 000/00 RMK AO1 T01220106
54779K12N 12N20160502201509805/02/16 20:15:31  5-MIN K12N 030115Z AUTO 00000KT 12/11 A2993 580 89 400 000/00 RMK AO1 T01220106
54779K12N 12N20160502202009805/02/16 20:20:31  5-MIN K12N 030120Z AUTO 00000KT 12/11 A2993 580 89 400 000/00 RMK AO1 T01220106
54779K12N 12N20160502202509805/02/16 20:25:31  5-MIN K12N 030125Z AUTO 00000KT 12/11 A2993 580 89 400 000/00 RMK AO1 T01220106
54779K12N 12N20160502203009805/02/16 20:30:31  5-MIN K12N 030130Z AUTO 00000KT 12/11 A2993 570 89 400 000/00 RMK AO1 T01220106
54779K12N 12N20160502203509805/02/16 20:35:31  5-MIN K12N 030135Z AUTO 35003KT 12/10 A2993 580 86 400 010/03 RMK AO1 T01220100
54779K12N 12N20160502204009805/02/16 20:40:31  5-MIN K12N 030140Z AUTO 00000KT 13/10 A2993 580 83 500 000/00 RMK AO1 T01280100
54779K12N 12N20160502204509805/02/16 20:45:31  5-MIN K12N 030145Z AUTO 04004KT 12/11 A2993 580 89 400 050/04 RMK AO1 T01220106
54779K12N 12N20160502205010505/02/16 20:50:31  5-MIN K12N 030150Z AUTO 00000KT 13/11 A2992 580 86 500 000/00 RMK AO1 SLP134 T01280106
54779K12N 12N20160502205509805/02/16 20:55:31  5-MIN K12N 030155Z AUTO 00000KT 13/11 A2992 580 86 500 000/00 RMK AO1 T01280106
54779K12N 12N20160502210009805/02/16 21:00:31  5-MIN K12N 030200Z AUTO 00000KT 13/11 A2993 580 86 500 000/00 RMK AO1 T01280106
54779K12N 12N20160502210509805/02/16 21:05:31  5-MIN K12N 030205Z AUTO 36003KT 13/11 A2993 570 86 500 010/03 RMK AO1 T01280106
54779K12N 12N20160502211009805/02/16 21:10:31  5-MIN K12N 030210Z AUTO 00000KT 13/11 A2993 570 86 500 000/00 RMK AO1 T01280106
54779K12N 12N20160502211509805/02/16 21:15:31  5-MIN K12N 030215Z AUTO 00000KT 12/11 A2994 570 89 400 000/00 RMK AO1 T01220106
54779K12N 12N20160502212009805/02/16 21:20:31  5-MIN K12N 030220Z AUTO 00000KT 12/11 A2993 570 89 400 000/00 RMK AO1 T01220106
54779K12N 12N20160503184509805/03/16 18:45:31  5-MIN K12N 032345Z AUTO 00000KT 11/10 A2983 670 96 300 000/00 RMK AO1 T01060100
54779K12N 12N20160503185012305/03/16 18:50:31  5-MIN K12N 032350Z AUTO VRB03KT 11/10 A2983 670 96 300 VRB/03 RMK AO1 SLP103 T01060100 10117 20106 55007
54779K12N 12N20160503185509805/03/16 18:55:31  5-MIN K12N 032355Z AUTO 36003KT 11/09 A2983 670 93 300 010/03 RMK AO1 T01060094
54779K12N 12N20160503190009805/03/16 19:00:31  5-MIN K12N 040000Z AUTO 00000KT 11/09 A2983 670 93 300 000/00 RMK AO1 T01060094
54779K12N 12N20160503190509805/03/16 19:05:31  5-MIN K12N 040005Z AUTO 00000KT 11/10 A2983 670 96 300 000/00 RMK AO1 T01060100
54779K12N 12N20160503191009805/03/16 19:10:31  5-MIN K12N 040010Z AUTO 04003KT 11/09 A2983 670 93 300 060/03 RMK AO1 T01060094
54779K12N 12N20160503191509805/03/16 19:15:31  5-MIN K12N 040015Z AUTO 04003KT 11/09 A2983 670 93 300 060/03 RMK AO1 T01060094
54779K12N 12N20160503192009805/03/16 19:20:31  5-MIN K12N 040020Z AUTO 04004KT 11/09 A2983 670 93 300 060/04 RMK AO1 T01060094
54779K12N 12N20160503192509805/03/16 19:25:31  5-MIN K12N 040025Z AUTO 04003KT 11/10 A2983 670 96 300 060/03 RMK AO1 T01060100
54779K12N 12N20160503193010405/03/16 19:30:31  5-MIN K12N 040030Z AUTO 05003KT 11/10 A2983 670 96 300 060/03 RMK AO1 P0001 T01060100
54779K12N 12N20160503193510405/03/16 19:35:31  5-MIN K12N 040035Z AUTO 00000KT 11/10 A2983 670 96 300 000/00 RMK AO1 P0001 T01060100
54779K12N 12N20160503194010405/03/16 19:40:31  5-MIN K12N 040040Z AUTO 04003KT 11/10 A2983 670 96 300 050/03 RMK AO1 P0001 T01060100
54779K12N 12N20160503194510405/03/16 19:45:31  5-MIN K12N 040045Z AUTO 00000KT 11/10 A2983 670 96 300 000/00 RMK AO1 P0001 T01060100
54779K12N 12N20160503195011105/03/16 19:50:31  5-MIN K12N 040050Z AUTO 05003KT 11/10 A2983 670 96 300 060/03 RMK AO1 SLP104 P0001 T01060100
54779K12N 12N20160503195509805/03/16 19:55:31  5-MIN K12N 040055Z AUTO 05004KT 11/09 A2983 670 93 300 060/04 RMK AO1 T01060094
54779K12N 12N20160503200009805/03/16 20:00:31  5-MIN K12N 040100Z AUTO 00000KT 11/09 A2983 660 93 300 000/00 RMK AO1 T01060094
54779K12N 12N20160503200509805/03/16 20:05:31  5-MIN K12N 040105Z AUTO 00000KT 11/10 A2984 660 96 300 000/00 RMK AO1 T01060100
54779K12N 12N20160503201009805/03/16 20:10:31  5-MIN K12N 040110Z AUTO 00000KT 11/10 A2984 660 96 300 000/00 RMK AO1 T01060100
54779K12N 12N20160503201509805/03/16 20:15:31  5-MIN K12N 040115Z AUTO 00000KT 11/10 A2984 660 96 300 000/00 RMK AO1 T01060100
54779K12N 12N20160503202009805/03/16 20:20:31  5-MIN K12N 040120Z AUTO 00000KT 11/10 A2984 660 96 300 000/00 RMK AO1 T01060100
54779K12N 12N20160503202509805/03/16 20:25:31  5-MIN K12N 040125Z AUTO 00000KT 11/10 A2984 660 96 300 000/00 RMK AO1 T01060100
54779K12N 12N20160503203009805/03/16 20:30:31  5-MIN K12N 040130Z AUTO 00000KT 11/10 A2984 660 96 300 000/00 RMK AO1 T01060100
54779K12N 12N20160503203509805/03/16 20:35:31  5-MIN K12N 040135Z AUTO 03003KT 11/10 A2984 660 96 300 050/03 RMK AO1 T01060100
54779K12N 12N20160503204009805/03/16 20:40:31  5-MIN K12N 040140Z AUTO 00000KT 11/09 A2984 660 93 300 000/00 RMK AO1 T01060094
54779K12N 12N20160503204509805/03/16 20:45:31  5-MIN K12N 040145Z AUTO VRB03KT 11/09 A2983 660 93 300 VRB/03 RMK AO1 T01060094
54779K12N 12N20160503205010505/03/16 20:50:31  5-MIN K12N 040150Z AUTO 00000KT 11/09 A2983 670 93 300 000/00 RMK AO1 SLP105 T01060094
54779K12N 12N20160503205509805/03/16 20:55:31  5-MIN K12N 040155Z AUTO 04003KT 11/10 A2983 660 96 300 050/03 RMK AO1 T01060100
54779K12N 12N20160503210009805/03/16 21:00:31  5-MIN K12N 040200Z AUTO 04004KT 11/09 A2983 670 93 300 050/04 RMK AO1 T01060094
54779K12N 12N20160503210509805/03/16 21:05:31  5-MIN K12N 040205Z AUTO 04003KT 11/09 A2983 670 93 300 060/03 RMK AO1 T01060094
54779K12N 12N20160503211009805/03/16 21:10:31  5-MIN K12N 040210Z AUTO 00000KT 11/09 A2983 670 93 300 000/00 RMK AO1 T01060094
54779K12N 12N20160503211509805/03/16 21:15:31  5-MIN K12N 040215Z AUTO 00000KT 11/09 A2983 670 93 300 000/00 RMK AO1 T01060094
54779K12N 12N20160503212009805/03/16 21:20:31  5-MIN K12N 040220Z AUTO 00000KT 11/10 A2983 670 96 300 000/00 RMK AO1 T01060100
54779K12N 12N20160503212509805/03/16 21:25:31  5-MIN K12N 040225Z AUTO 00000KT 11/10 A2982 680 96 300 000/00 RMK AO1 T01060100
54779K12N 12N20160503213009805/03/16 21:30:31  5-MIN K12N 040230Z AUTO 00000KT 11/09 A2982 670 93 300 000/00 RMK AO1 T01060094
54779K12N 12N20160503213509805/03/16 21:35:31  5-MIN K12N 040235Z AUTO 00000KT 11/10 A2982 670 96 300 000/00 RMK AO1 T01060100
54779K12N 12N20160503214009805/03/16 21:40:31  5-MIN K12N 040240Z AUTO 00000KT 11/10 A2982 680 96 300 000/00 RMK AO1 T01060100
54779K12N 12N20160503214509805/03/16 21:45:31  5-MIN K12N 040245Z AUTO 00000KT 11/10 A2982 680 96 300 000/00 RMK AO1 T01060100
54779K12N 12N20160503215011705/03/16 21:50:31  5-MIN K12N 040250Z AUTO 00000KT 11/10 A2982 680 96 300 000/00 RMK AO1 SLP100 60001 T01060100 53007
54779K12N 12N20160503215509805/03/16 21:55:31  5-MIN K12N 040255Z AUTO 00000KT 11/10 A2982 680 96 400 000/00 RMK AO1 T01060100
54779K12N 12N20160503220009805/03/16 22:00:31  5-MIN K12N 040300Z AUTO 00000KT 11/10 A2982 680 96 400 000/00 RMK AO1 T01060100
54779K12N 12N20160503220509805/03/16 22:05:31  5-MIN K12N 040305Z AUTO 00000KT 11/10 A2982 680 96 400 000/00 RMK AO1 T01060100
54779K12N 12N20160503221009805/03/16 22:10:31  5-MIN K12N 040310Z AUTO 00000KT 11/10 A2982 680 96 400 000/00 RMK AO1 T01060100
54779K12N 12N20160503221509805/03/16 22:15:31  5-MIN K12N 040315Z AUTO 00000KT 11/10 A2982 680 96 400 000/00 RMK AO1 T01060100
54779K12N 12N20160503222009805/03/16 22:20:31  5-MIN K12N 040320Z AUTO 00000KT 11/10 A2982 680 96 400 000/00 RMK AO1 T01060100
54779K12N 12N20160503222509805/03/16 22:25:31  5-MIN K12N 040325Z AUTO 00000KT 11/10 A2982 680 96 400 000/00 RMK AO1 T01060100
54779K12N 12N20160503223009805/03/16 22:30:31  5-MIN K12N 040330Z AUTO 00000KT 11/10 A2982 680 96 300 000/00 RMK AO1 T01060100
54779K12N 12N20160503223509805/03/16 22:35:31  5-MIN K12N 040335Z AUTO 00000KT 11/10 A2982 680 96 300 000/00 RMK AO1 T01060100
54779K12N 12N20160503224009805/03/16 22:40:31  5-MIN K12N 040340Z AUTO 00000KT 11/10 A2982 680 96 300 000/00 RMK AO1 T01060100
54779K12N 12N20160503224509805/03/16 22:45:31  5-MIN K12N 040345Z AUTO 00000KT 11/10 A2982 680 96 400 000/00 RMK AO1 T01060100
54779K12N 12N20160503225010505/03/16 22:50:31  5-MIN K12N 040350Z AUTO 00000KT 11/10 A2982 680 96 400 000/00 RMK AO1 SLP099 T01060100
54779K12N 12N20160503225509805/03/16 22:55:31  5-MIN K12N 040355Z AUTO 00000KT 11/09 A2981 680 93 400 000/00 RMK AO1 T01060094
54779K12N 12N20160503230009805/03/16 23:00:31  5-MIN K12N 040400Z AUTO 00000KT 11/09 A2981 690 93 400 000/00 RMK AO1 T01060094
54779K12N 12N20160503230509805/03/16 23:05:31  5-MIN K12N 040405Z AUTO 00000KT 11/09 A2981 690 93 400 000/00 RMK AO1 T01060094
54779K12N 12N20160503231009805/03/16 23:10:31  5-MIN K12N 040410Z AUTO 00000KT 11/09 A2981 690 93 400 000/00 RMK AO1 T01060094
54779K12N 12N20160503231509805/03/16 23:15:31  5-MIN K12N 040415Z AUTO 00000KT 11/09 A2981 690 93 400 000/00 RMK AO1 T01060094
54779K12N 12N20160503232009805/03/16 23:20:31  5-MIN K12N 040420Z AUTO 00000KT 11/09 A2980 690 93 400 000/00 RMK AO1 T01060094
54779K12N 12N20160503232509805/03/16 23:25:31  5-MIN K12N 040425Z AUTO 00000KT 11/09 A2981 690 93 400 000/00 RMK AO1 T01060094
54779K12N 12N20160503233009805/03/16 23:30:31  5-MIN K12N 040430Z AUTO 00000KT 11/09 A2980 690 93 400 000/00 RMK AO1 T01060094
54779K12N 12N20160503233509805/03/16 23:35:31  5-MIN K12N 040435Z AUTO 00000KT 11/09 A2980 690 93 400 000/00 RMK AO1 T01060094
54779K12N 12N20160503234009805/03/16 23:40:31  5-MIN K12N 040440Z AUTO 00000KT 11/09 A2981 690 93 400 000/00 RMK AO1 T01060094
54779K12N 12N20160503234509805/03/16 23:45:31  5-MIN K12N 040445Z AUTO 00000KT 11/09 A2981 690 93 400 000/00 RMK AO1 T01060094
54779K12N 12N20160503235011505/03/16 23:50:31  5-MIN K12N 040450Z AUTO 00000KT 11/09 A2981 690 93 400 000/00 RMK AO1 SLP095 T01060094 401170094
54779K12N 12N20160503235509805/03/16 23:55:31  5-MIN K12N 040455Z AUTO 00000KT 11/09 A2981 690 93 400 000/00 RMK AO1 T01060094
54779K12N 12N20160504000009805/04/16 00:00:31  5-MIN K12N 040500Z AUTO 00000KT 11/09 A2981 690 93 400 000/00 RMK AO1 T01060094
54779K12N 12N20160504000509805/04/16 00:05:31  5-MIN K12N 040505Z AUTO 00000KT 11/09 A2981 690 93 400 000/00 RMK AO1 T01060094
54779K12N 12N20160504001009805/04/16 00:10:31  5-MIN K12N 040510Z AUTO 00000KT 11/09 A2980 690 93 400 000/00 RMK AO1 T01060094
54779K12N 12N20160504001509805/04/16 00:15:31  5-MIN K12N 040515Z AUTO 00000KT 10/09 A2980 690 96 300 000/00 RMK AO1 T01000094
54779K12N 12N20160504002009805/04/16 00:20:31  5-MIN K12N 040520Z AUTO 00000KT 11/09 A2980 690 93 400 000/00 RMK AO1 T01060094
54779K12N 12N20160504002509805/04/16 00:25:31  5-MIN K12N 040525Z AUTO 00000KT 11/09 A2980 700 93 400 000/00 RMK AO1 T01060094
54779K12N 12N20160504003009805/04/16 00:30:31  5-MIN K12N 040530Z AUTO 00000KT 11/09 A2980 700 93 400 000/00 RMK AO1 T01060094
54779K12N 12N20160504003509805/04/16 00:35:31  5-MIN K12N 040535Z AUTO 00000KT 11/10 A2980 700 96 400 000/00 RMK AO1 T01060100
54779K12N 12N20160504004009805/04/16 00:40:31  5-MIN K12N 040540Z AUTO 00000KT 10/09 A2980 700 96 300 000/00 RMK AO1 T01000094
54779K12N 12N20160504004509805/04/16 00:45:31  5-MIN K12N 040545Z AUTO 00000KT 10/09 A2980 700 96 300 000/00 RMK AO1 T01000094
54779K12N 12N20160504005012905/04/16 00:50:31  5-MIN K12N 040550Z AUTO 00000KT 11/10 A2980 700 96 400 000/00 RMK AO1 SLP091 60001 T01060100 10106 20100 58004
54779K12N 12N20160504005509805/04/16 00:55:31  5-MIN K12N 040555Z AUTO 00000KT 11/10 A2980 700 96 400 000/00 RMK AO1 T01060100
54779K12N 12N20160504010009805/04/16 01:00:31  5-MIN K12N 040600Z AUTO 00000KT 11/10 A2980 700 96 400 000/00 RMK AO1 T01060100
54779K12N 12N20160504010509905/04/16 01:05:31  5-MIN K12N 040605Z AUTO 00000KT 10/10 A2980 700 100 300 000/00 RMK AO1 T01000100
54779K12N 12N20160504011009805/04/16 01:10:31  5-MIN K12N 040610Z AUTO 00000KT 11/10 A2980 700 96 400 000/00 RMK AO1 T01060100
54779K12N 12N20160504011509805/04/16 01:15:31  5-MIN K12N 040615Z AUTO 00000KT 11/10 A2980 700 96 400 000/00 RMK AO1 T01060100
54779K12N 12N20160504012009805/04/16 01:20:31  5-MIN K12N 040620Z AUTO 00000KT 11/09 A2980 700 93 400 000/00 RMK AO1 T01060094
54779K12N 12N20160504012509805/04/16 01:25:31  5-MIN K12N 040625Z AUTO 00000KT 11/09 A2980 700 93 400 000/00 RMK AO1 T01060094
54779K12N 12N20160504013009805/04/16 01:30:31  5-MIN K12N 040630Z AUTO 00000KT 10/09 A2980 700 96 300 000/00 RMK AO1 T01000094
54779K12N 12N20160504013509805/04/16 01:35:31  5-MIN K12N 040635Z AUTO 00000KT 10/09 A2979 710 96 300 000/00 RMK AO1 T01000094
54779K12N 12N20160504014009805/04/16 01:40:31  5-MIN K12N 040640Z AUTO 00000KT 10/09 A2979 710 96 300 000/00 RMK AO1 T01000094
54779K12N 12N20160504014509805/04/16 01:45:31  5-MIN K12N 040645Z AUTO 00000KT 10/09 A2979 710 96 300 000/00 RMK AO1 T01000094
54779K12N 12N20160504015010505/04/16 01:50:31  5-MIN K12N 040650Z AUTO 00000KT 10/09 A2979 710 96 300 000/00 RMK AO1 SLP088 T01000094
54779K12N 12N20160504015509805/04/16 01:55:31  5-MIN K12N 040655Z AUTO 00000KT 10/09 A2979 710 96 300 000/00 RMK AO1 T01000094
54779K12N 12N20160504020009805/04/16 02:00:31  5-MIN K12N 040700Z AUTO 00000KT 10/09 A2978 710 96 300 000/00 RMK AO1 T01000094
54779K12N 12N20160504020509805/04/16 02:05:31  5-MIN K12N 040705Z AUTO 00000KT 11/09 A2978 710 93 400 000/00 RMK AO1 T01060094
54779K12N 12N20160504021009805/04/16 02:10:31  5-MIN K12N 040710Z AUTO 00000KT 10/09 A2979 710 96 300 000/00 RMK AO1 T01000094
54779K12N 12N20160504021509805/04/16 02:15:31  5-MIN K12N 040715Z AUTO 00000KT 10/09 A2978 710 96 300 000/00 RMK AO1 T01000094
54779K12N 12N20160504022009805/04/16 02:20:31  5-MIN K12N 040720Z AUTO 00000KT 11/09 A2978 710 93 400 000/00 RMK AO1 T01060094
54779K12N 12N20160504022509805/04/16 02:25:31  5-MIN K12N 040725Z AUTO 00000KT 10/09 A2978 710 96 300 000/00 RMK AO1 T01000094
54779K12N 12N20160504023009805/04/16 02:30:31  5-MIN K12N 040730Z AUTO 00000KT 10/09 A2978 710 96 300 000/00 RMK AO1 T01000094
54779K12N 12N20160504023509805/04/16 02:35:31  5-MIN K12N 040735Z AUTO 00000KT 10/09 A2979 710 96 300 000/00 RMK AO1 T01000094
54779K12N 12N20160504024009805/04/16 02:40:31  5-MIN K12N 040740Z AUTO 00000KT 10/09 A2979 710 96 300 000/00 RMK AO1 T01000094
54779K12N 12N20160504024509805/04/16 02:45:31  5-MIN K12N 040745Z AUTO 00000KT 10/09 A2978 710 96 300 000/00 RMK AO1 T01000094
54779K12N 12N20160504025010505/04/16 02:50:31  5-MIN K12N 040750Z AUTO 00000KT 10/09 A2978 710 96 300 000/00 RMK AO1 SLP086 T01000094
54779K12N 12N20160504025509805/04/16 02:55:31  5-MIN K12N 040755Z AUTO 00000KT 10/09 A2978 710 96 300 000/00 RMK AO1 T01000094
54779K12N 12N20160504030009805/04/16 03:00:31  5-MIN K12N 040800Z AUTO 00000KT 10/09 A2978 710 96 300 000/00 RMK AO1 T01000094
54779K12N 12N20160504030509805/04/16 03:05:31  5-MIN K12N 040805Z AUTO 00000KT 10/09 A2978 710 96 300 000/00 RMK AO1 T01000094
54779K12N 12N20160504031009805/04/16 03:10:31  5-MIN K12N 040810Z AUTO 00000KT 10/09 A2978 710 96 300 000/00 RMK AO1 T01000094
54779K12N 12N20160504031509805/04/16 03:15:31  5-MIN K12N 040815Z AUTO 00000KT 10/09 A2978 710 96 300 000/00 RMK AO1 T01000094
54779K12N 12N20160504032009805/04/16 03:20:31  5-MIN K12N 040820Z AUTO 00000KT 10/09 A2978 710 96 300 000/00 RMK AO1 T01000094
54779K12N 12N20160504032509805/04/16 03:25:31  5-MIN K12N 040825Z AUTO VRB03KT 10/09 A2978 710 93 300 VRB/03 RMK AO1 T01000089
54779K12N 12N20160504033009805/04/16 03:30:31  5-MIN K12N 040830Z AUTO 00000KT 10/09 A2978 710 93 300 000/00 RMK AO1 T01000089
54779K12N 12N20160504033509805/04/16 03:35:31  5-MIN K12N 040835Z AUTO 00000KT 10/09 A2978 710 93 300 000/00 RMK AO1 T01000089
54779K12N 12N20160504034009805/04/16 03:40:31  5-MIN K12N 040840Z AUTO 00000KT 10/09 A2978 720 93 300 000/00 RMK AO1 T01000089
54779K12N 12N20160504034509805/04/16 03:45:31  5-MIN K12N 040845Z AUTO 00000KT 10/09 A2978 710 93 300 000/00 RMK AO1 T01000089
54779K12N 12N20160504035011105/04/16 03:50:31  5-MIN K12N 040850Z AUTO 00000KT 10/09 A2978 710 93 300 000/00 RMK AO1 SLP087 T01000089 58007
54779K12N 12N20160504035509805/04/16 03:55:31  5-MIN K12N 040855Z AUTO 00000KT 10/09 A2979 710 93 300 000/00 RMK AO1 T01000089
54779K12N 12N20160504040009805/04/16 04:00:31  5-MIN K12N 040900Z AUTO 20003KT 10/09 A2979 710 93 300 210/03 RMK AO1 T01000089
54779K12N 12N20160504040510405/04/16 04:05:31  5-MIN K12N 040905Z AUTO 00000KT 10/09 A2979 710 93 300 000/00 RMK AO1 P0001 T01000089
54779K12N 12N20160504041010405/04/16 04:10:31  5-MIN K12N 040910Z AUTO VRB03KT 10/09 A2979 710 93 300 VRB/03 RMK AO1 P0001 T01000089
54779K12N 12N20160504041510405/04/16 04:15:31  5-MIN K12N 040915Z AUTO 19003KT 10/09 A2979 710 93 300 210/03 RMK AO1 P0002 T01000089
54779K12N 12N20160504042010405/04/16 04:20:31  5-MIN K12N 040920Z AUTO 00000KT 10/09 A2979 700 93 300 000/00 RMK AO1 P0002 T01000089
54779K12N 12N20160504042510405/04/16 04:25:31  5-MIN K12N 040925Z AUTO 20003KT 10/09 A2979 700 93 300 210/03 RMK AO1 P0002 T01000089
54779K12N 12N20160504043010405/04/16 04:30:31  5-MIN K12N 040930Z AUTO 00000KT 09/09 A2979 700 96 200 000/00 RMK AO1 P0002 T00940089
54779K12N 12N20160504043510405/04/16 04:35:31  5-MIN K12N 040935Z AUTO 00000KT 10/09 A2979 700 93 300 000/00 RMK AO1 P0003 T01000089
54779K12N 12N20160504044010405/04/16 04:40:31  5-MIN K12N 040940Z AUTO 00000KT 10/09 A2979 710 93 300 000/00 RMK AO1 P0003 T01000089
54779K12N 12N20160504044510405/04/16 04:45:31  5-MIN K12N 040945Z AUTO 00000KT 10/09 A2979 700 93 300 000/00 RMK AO1 P0003 T01000089
54779K12N 12N20160504045011105/04/16 04:50:31  5-MIN K12N 040950Z AUTO 00000KT 10/09 A2979 710 93 300 000/00 RMK AO1 SLP090 P0004 T01000089
54779K12N 12N20160504045510405/04/16 04:55:31  5-MIN K12N 040955Z AUTO 00000KT 10/09 A2979 700 93 300 000/00 RMK AO1 P0001 T01000089
54779K12N 12N20160504050010405/04/16 05:00:31  5-MIN K12N 041000Z AUTO 00000KT 09/09 A2979 710 96 200 000/00 RMK AO1 P0001 T00940089
54779K12N 12N20160504050510405/04/16 05:05:31  5-MIN K12N 041005Z AUTO 00000KT 09/09 A2979 710 96 200 000/00 RMK AO1 P0001 T00940089
54779K12N 12N20160504051010405/04/16 05:10:31  5-MIN K12N 041010Z AUTO 00000KT 09/09 A2979 710 96 200 000/00 RMK AO1 P0001 T00940089
54779K12N 12N20160504051510405/04/16 05:15:31  5-MIN K12N 041015Z AUTO 00000KT 10/09 A2979 710 93 300 000/00 RMK AO1 P0001 T01000089
54779K12N 12N20160504052010405/04/16 05:20:31  5-MIN K12N 041020Z AUTO 00000KT 09/09 A2979 710 96 300 000/00 RMK AO1 P0001 T00940089
54779K12N 12N20160504052510405/04/16 05:25:31  5-MIN K12N 041025Z AUTO 00000KT 09/09 A2979 710 96 300 000/00 RMK AO1 P0001 T00940089
54779K12N 12N20160504053010405/04/16 05:30:31  5-MIN K12N 041030Z AUTO 00000KT 09/09 A2979 710 96 300 000/00 RMK AO1 P0002 T00940089
54779K12N 12N20160504053510405/04/16 05:35:31  5-MIN K12N 041035Z AUTO 00000KT 09/09 A2979 710 96 300 000/00 RMK AO1 P0002 T00940089
54779K12N 12N20160504054010405/04/16 05:40:31  5-MIN K12N 041040Z AUTO 00000KT 09/09 A2979 710 96 300 000/00 RMK AO1 P0004 T00940089
54779K12N 12N20160504054510405/04/16 05:45:31  5-MIN K12N 041045Z AUTO 00000KT 10/09 A2979 710 93 300 000/00 RMK AO1 P0005 T01000089
54779K12N 12N20160504055011105/04/16 05:50:31  5-MIN K12N 041050Z AUTO 00000KT 09/09 A2979 710 96 200 000/00 RMK AO1 SLP090 P0005 T00940089
54779K12N 12N20160504055509805/04/16 05:55:31  5-MIN K12N 041055Z AUTO 00000KT 10/09 A2979 710 93 300 000/00 RMK AO1 T01000089
54779K12N 12N20160504060009805/04/16 06:00:31  5-MIN K12N 041100Z AUTO 00000KT 10/08 A2979 710 89 300 000/00 RMK AO1 T01000083
54779K12N 12N20160504060509805/04/16 06:05:31  5-MIN K12N 041105Z AUTO 00000KT 10/08 A2979 710 89 300 000/00 RMK AO1 T01000083
54779K12N 12N20160504061009805/04/16 06:10:31  5-MIN K12N 041110Z AUTO 00000KT 10/08 A2979 710 89 300 000/00 RMK AO1 T01000083
54779K12N 12N20160504061509805/04/16 06:15:31  5-MIN K12N 041115Z AUTO VRB05KT 09/08 A2979 700 93 200 VRB/05 RMK AO1 T00940083
54779K12N 12N20160504062009405/04/16 06:20:31  5-MIN K12N 041120Z AUTO 09/08 A2979 700 93 200 M /M RMK AO1 P0001 T00940083
54779K12N 12N20160504062510405/04/16 06:25:31  5-MIN K12N 041125Z AUTO 12003KT 09/08 A2979 700 93 200 130/03 RMK AO1 P0001 T00940083
54779K12N 12N20160504063010405/04/16 06:30:31  5-MIN K12N 041130Z AUTO 00000KT 09/08 A2979 700 89 200 000/00 RMK AO1 P0001 T00940078
54779K12N 12N20160504063510405/04/16 06:35:31  5-MIN K12N 041135Z AUTO 00000KT 09/08 A2980 700 89 200 000/00 RMK AO1 P0001 T00940078
54779K12N 12N20160504064010405/04/16 06:40:31  5-MIN K12N 041140Z AUTO 00000KT 09/08 A2980 700 93 200 000/00 RMK AO1 P0001 T00940083
54779K12N 12N20160504064510405/04/16 06:45:31  5-MIN K12N 041145Z AUTO 00000KT 09/08 A2980 700 89 200 000/00 RMK AO1 P0001 T00940078
54779K12N 12N20160504065014105/04/16 06:50:31  5-MIN K12N 041150Z AUTO VRB03KT 09/08 A2980 700 89 200 VRB/03 RMK AO1 SLP092 P0001 60011 70019 T00940078 10106 20094 55004
54779K12N 12N20160504065509805/04/16 06:55:31  5-MIN K12N 041155Z AUTO 00000KT 09/08 A2980 700 89 200 000/00 RMK AO1 T00940078
54779K12N 12N20160504070009805/04/16 07:00:31  5-MIN K12N 041200Z AUTO VRB03KT 09/08 A2979 700 89 200 VRB/03 RMK AO1 T00940078
54779K12N 12N20160504070509805/04/16 07:05:31  5-MIN K12N 041205Z AUTO 00000KT 09/08 A2979 700 89 200 000/00 RMK AO1 T00940078
54779K12N 12N20160504071009805/04/16 07:10:31  5-MIN K12N 041210Z AUTO 00000KT 09/08 A2979 710 89 200 000/00 RMK AO1 T00940078
54779K12N 12N20160504071509805/04/16 07:15:31  5-MIN K12N 041215Z AUTO 03003KT 09/08 A2979 710 89 300 050/03 RMK AO1 T00940078
54779K12N 12N20160504072010405/04/16 07:20:31  5-MIN K12N 041220Z AUTO 00000KT 09/08 A2979 710 89 300 000/00 RMK AO1 P0001 T00940078
54779K12N 12N20160504072510405/04/16 07:25:31  5-MIN K12N 041225Z AUTO 05003KT 09/08 A2979 710 89 300 060/03 RMK AO1 P0001 T00940078
54779K12N 12N20160504073010405/04/16 07:30:31  5-MIN K12N 041230Z AUTO 00000KT 09/08 A2978 710 89 300 000/00 RMK AO1 P0001 T00940078
54779K12N 12N20160504073510405/04/16 07:35:31  5-MIN K12N 041235Z AUTO VRB03KT 09/08 A2978 720 93 300 VRB/03 RMK AO1 P0001 T00940083
54779K12N 12N20160504074010405/04/16 07:40:31  5-MIN K12N 041240Z AUTO 00000KT 09/08 A2978 720 89 300 000/00 RMK AO1 P0001 T00940078
54779K12N 12N20160504074510405/04/16 07:45:31  5-MIN K12N 041245Z AUTO VRB03KT 09/08 A2978 720 89 300 VRB/03 RMK AO1 P0001 T00940078
54779K12N 12N20160504075011105/04/16 07:50:31  5-MIN K12N 041250Z AUTO VRB03KT 10/08 A2978 720 89 300 VRB/03 RMK AO1 SLP085 P0001 T01000083
54779K12N 12N20160504075509805/04/16 07:55:31  5-MIN K12N 041255Z AUTO VRB03KT 09/08 A2977 720 89 300 VRB/03 RMK AO1 T00940078
54779K12N 12N20160504080009805/04/16 08:00:31  5-MIN K12N 041300Z AUTO VRB03KT 09/08 A2977 720 89 300 VRB/03 RMK AO1 T00940078
54779K12N 12N20160504080509805/04/16 08:05:31  5-MIN K12N 041305Z AUTO VRB03KT 09/08 A2977 730 89 300 VRB/03 RMK AO1 T00940078
54779K12N 12N20160504081009805/04/16 08:10:31  5-MIN K12N 041310Z AUTO VRB05KT 09/08 A2976 730 89 300 VRB/05 RMK AO1 T00940078
54779K12N 12N20160504081509805/04/16 08:15:31  5-MIN K12N 041315Z AUTO VRB03KT 09/07 A2976 730 86 300 VRB/03 RMK AO1 T00940072
54779K12N 12N20160504082009805/04/16 08:20:31  5-MIN K12N 041320Z AUTO VRB03KT 09/07 A2976 730 86 300 VRB/03 RMK AO1 T00940072
54779K12N 12N20160504082509805/04/16 08:25:31  5-MIN K12N 041325Z AUTO VRB03KT 09/08 A2977 730 89 300 VRB/03 RMK AO1 T00940078
54779K12N 12N20160504083009805/04/16 08:30:31  5-MIN K12N 041330Z AUTO 00000KT 09/08 A2977 720 89 300 000/00 RMK AO1 T00940078
54779K12N 12N20160504083509805/04/16 08:35:31  5-MIN K12N 041335Z AUTO 00000KT 09/08 A2978 720 89 300 000/00 RMK AO1 T00940078
54779K12N 12N20160504084009805/04/16 08:40:31  5-MIN K12N 041340Z AUTO 00000KT 09/08 A2978 710 89 300 000/00 RMK AO1 T00940078
54779K12N 12N20160504084509805/04/16 08:45:31  5-MIN K12N 041345Z AUTO 07003KT 09/08 A2978 720 89 300 080/03 RMK AO1 T00940078
54779K12N 12N20160504085010505/04/16 08:50:31  5-MIN K12N 041350Z AUTO VRB03KT 09/07 A2978 720 86 300 VRB/03 RMK AO1 SLP085 T00940072
54779K12N 12N20160504085509805/04/16 08:55:31  5-MIN K12N 041355Z AUTO 00000KT 09/07 A2978 720 86 300 000/00 RMK AO1 T00940072
54779K12N 12N20160504090009805/04/16 09:00:31  5-MIN K12N 041400Z AUTO 04004KT 09/08 A2978 720 89 300 050/04 RMK AO1 T00940078
54779K12N 12N20160504090509805/04/16 09:05:31  5-MIN K12N 041405Z AUTO 00000KT 09/08 A2978 720 89 300 000/00 RMK AO1 T00940078
54779K12N 12N20160504091009805/04/16 09:10:31  5-MIN K12N 041410Z AUTO VRB03KT 09/07 A2978 720 86 300 VRB/03 RMK AO1 T00940072
54779K12N 12N20160504091509805/04/16 09:15:31  5-MIN K12N 041415Z AUTO 00000KT 10/08 A2978 720 86 300 000/00 RMK AO1 T01000078
54779K12N 12N20160504092009805/04/16 09:20:31  5-MIN K12N 041420Z AUTO 00000KT 10/08 A2978 720 86 300 000/00 RMK AO1 T01000078
54779K12N 12N20160504092509805/04/16 09:25:31  5-MIN K12N 041425Z AUTO 00000KT 10/08 A2978 720 86 300 000/00 RMK AO1 T01000078
54779K12N 12N20160504093009805/04/16 09:30:31  5-MIN K12N 041430Z AUTO 00000KT 10/07 A2978 720 83 300 000/00 RMK AO1 T01000072
54779K12N 12N20160504093509805/04/16 09:35:31  5-MIN K12N 041435Z AUTO 00000KT 10/07 A2978 720 83 300 000/00 RMK AO1 T01000072
54779K12N 12N20160504094009805/04/16 09:40:31  5-MIN K12N 041440Z AUTO 00000KT 10/08 A2978 720 86 300 000/00 RMK AO1 T01000078
54779K12N 12N20160504094509805/04/16 09:45:31  5-MIN K12N 041445Z AUTO VRB03KT 10/08 A2978 720 86 300 VRB/03 RMK AO1 T01000078
54779K12N 12N20160504095011705/04/16 09:50:31  5-MIN K12N 041450Z AUTO VRB04KT 10/08 A2977 720 86 300 VRB/04 RMK AO1 SLP084 60002 T01000078 52003
54779K12N 12N20160504095509805/04/16 09:55:31  5-MIN K12N 041455Z AUTO VRB04KT 10/08 A2977 720 86 300 VRB/04 RMK AO1 T01000078
54779K12N 12N20160504100009805/04/16 10:00:31  5-MIN K12N 041500Z AUTO 00000KT 10/07 A2978 720 83 300 000/00 RMK AO1 T01000072
54779K12N 12N20160504100509805/04/16 10:05:31  5-MIN K12N 041505Z AUTO 07005KT 10/07 A2978 720 83 300 080/05 RMK AO1 T01000072
54779K12N 12N20160504101009805/04/16 10:10:31  5-MIN K12N 041510Z AUTO VRB03KT 10/07 A2978 720 83 300 VRB/03 RMK AO1 T01000072
54779K12N 12N20160504101509805/04/16 10:15:31  5-MIN K12N 041515Z AUTO VRB03KT 10/07 A2978 720 83 300 VRB/03 RMK AO1 T01000072
54779K12N 12N20160504102009805/04/16 10:20:31  5-MIN K12N 041520Z AUTO 06005KT 09/07 A2978 720 86 300 070/05 RMK AO1 T00940072
54779K12N 12N20160504102509805/04/16 10:25:31  5-MIN K12N 041525Z AUTO 01003KT 10/07 A2978 720 83 300 030/03 RMK AO1 T01000072
54779K12N 12N20160504103009805/04/16 10:30:31  5-MIN K12N 041530Z AUTO VRB03KT 10/07 A2977 720 83 300 VRB/03 RMK AO1 T01000072
54779K12N 12N20160504103509805/04/16 10:35:31  5-MIN K12N 041535Z AUTO VRB03KT 10/08 A2977 720 86 300 VRB/03 RMK AO1 T01000078
54779K12N 12N20160504104009805/04/16 10:40:31  5-MIN K12N 041540Z AUTO VRB04KT 10/08 A2977 720 86 300 VRB/04 RMK AO1 T01000078
54779K12N 12N20160504104509805/04/16 10:45:31  5-MIN K12N 041545Z AUTO VRB04KT 10/08 A2977 720 86 300 VRB/04 RMK AO1 T01000078
54779K12N 12N20160504105010505/04/16 10:50:31  5-MIN K12N 041550Z AUTO 00000KT 10/08 A2977 720 86 300 000/00 RMK AO1 SLP084 T01000078
54779K12N 12N20160504105509805/04/16 10:55:31  5-MIN K12N 041555Z AUTO VRB03KT 10/08 A2977 720 86 300 VRB/03 RMK AO1 T01000078
54779K12N 12N20160504110008805/04/16 11:00:31  5-MIN K12N 041600Z AUTO 10/08 A2977 720 86 300 M /M RMK AO1 T01000078
54779K12N 12N20160504110509805/04/16 11:05:31  5-MIN K12N 041605Z AUTO 00000KT 09/08 A2977 720 89 300 000/00 RMK AO1 T00940078
54779K12N 12N20160504111009805/04/16 11:10:31  5-MIN K12N 041610Z AUTO VRB04KT 09/08 A2977 720 89 300 VRB/04 RMK AO1 T00940078
54779K12N 12N20160504111509805/04/16 11:15:31  5-MIN K12N 041615Z AUTO VRB03KT 10/08 A2977 730 86 300 VRB/03 RMK AO1 T01000078
54779K12N 12N20160504112009805/04/16 11:20:31  5-MIN K12N 041620Z AUTO 00000KT 10/08 A2977 730 86 300 000/00 RMK AO1 T01000078
54779K12N 12N20160504112509805/04/16 11:25:31  5-MIN K12N 041625Z AUTO VRB03KT 09/08 A2977 730 89 300 VRB/03 RMK AO1 T00940078
54779K12N 12N20160504113009805/04/16 11:30:31  5-MIN K12N 041630Z AUTO 00000KT 10/08 A2976 730 86 300 000/00 RMK AO1 T01000078
54779K12N 12N20160504113509805/04/16 11:35:31  5-MIN K12N 041635Z AUTO 07004KT 10/08 A2977 730 89 300 090/04 RMK AO1 T01000083
54779K12N 12N20160504114009805/04/16 11:40:31  5-MIN K12N 041640Z AUTO 00000KT 10/08 A2976 730 89 300 000/00 RMK AO1 T01000083
54779K12N 12N20160504114509805/04/16 11:45:31  5-MIN K12N 041645Z AUTO 00000KT 10/08 A2976 730 89 300 000/00 RMK AO1 T01000083
54779K12N 12N20160504115010505/04/16 11:50:31  5-MIN K12N 041650Z AUTO 00000KT 10/08 A2976 730 89 300 000/00 RMK AO1 SLP080 T01000083
54779K12N 12N20160504115509805/04/16 11:55:31  5-MIN K12N 041655Z AUTO 00000KT 10/08 A2976 730 89 300 000/00 RMK AO1 T01000083
54779K12N 12N20160504120009805/04/16 12:00:31  5-MIN K12N 041700Z AUTO 00000KT 10/08 A2976 730 89 300 000/00 RMK AO1 T01000083
54779K12N 12N20160504120509805/04/16 12:05:31  5-MIN K12N 041705Z AUTO VRB04KT 10/08 A2976 730 89 300 VRB/04 RMK AO1 T01000083
54779K12N 12N20160504121009805/04/16 12:10:31  5-MIN K12N 041710Z AUTO 05003KT 10/08 A2976 730 86 300 060/03 RMK AO1 T01000078
54779K12N 12N20160504121509805/04/16 12:15:31  5-MIN K12N 041715Z AUTO VRB04KT 10/08 A2976 730 89 300 VRB/04 RMK AO1 T01000083
54779K12N 12N20160504122009805/04/16 12:20:31  5-MIN K12N 041720Z AUTO 00000KT 10/08 A2976 730 89 300 000/00 RMK AO1 T01000083
54779K12N 12N20160504122509805/04/16 12:25:31  5-MIN K12N 041725Z AUTO 02003KT 10/08 A2976 730 89 300 040/03 RMK AO1 T01000083
54779K12N 12N20160504123009805/04/16 12:30:31  5-MIN K12N 041730Z AUTO VRB03KT 10/08 A2976 730 89 400 VRB/03 RMK AO1 T01000083
54779K12N 12N20160504123509805/04/16 12:35:31  5-MIN K12N 041735Z AUTO 04004KT 10/08 A2976 740 89 400 050/04 RMK AO1 T01000083
54779K12N 12N20160504124009805/04/16 12:40:31  5-MIN K12N 041740Z AUTO 00000KT 10/08 A2976 740 89 400 000/00 RMK AO1 T01000083
54779K12N 12N20160504124509805/04/16 12:45:31  5-MIN K12N 041745Z AUTO 01003KT 10/08 A2976 730 89 300 020/03 RMK AO1 T01000083
54779K12N 12N20160504125012905/04/16 12:50:31  5-MIN K12N 041750Z AUTO 00000KT 10/08 A2976 740 89 400 000/00 RMK AO1 SLP078 60002 T01000083 10100 20094 56007
54779K12N 12N20160504125509805/04/16 12:55:31  5-MIN K12N 041755Z AUTO VRB03KT 10/08 A2976 740 89 400 VRB/03 RMK AO1 T01000083
54779K12N 12N20160504130009805/04/16 13:00:31  5-MIN K12N 041800Z AUTO VRB03KT 10/08 A2975 740 89 400 VRB/03 RMK AO1 T01000083
54779K12N 12N20160504130509805/04/16 13:05:31  5-MIN K12N 041805Z AUTO VRB04KT 10/08 A2975 750 89 400 VRB/04 RMK AO1 T01000083
54779K12N 12N20160504131009805/04/16 13:10:31  5-MIN K12N 041810Z AUTO 04004KT 10/08 A2974 750 89 400 050/04 RMK AO1 T01000083
54779K12N 12N20160504131509805/04/16 13:15:31  5-MIN K12N 041815Z AUTO 03003KT 10/08 A2974 750 89 400 050/03 RMK AO1 T01000083
54779K12N 12N20160504132009805/04/16 13:20:31  5-MIN K12N 041820Z AUTO 03003KT 10/08 A2974 750 89 400 050/03 RMK AO1 T01000083
54779K12N 12N20160504132509805/04/16 13:25:31  5-MIN K12N 041825Z AUTO VRB04KT 10/08 A2974 750 89 400 VRB/04 RMK AO1 T01000083
54779K12N 12N20160504133009805/04/16 13:30:31  5-MIN K12N 041830Z AUTO 00000KT 10/08 A2974 750 89 400 000/00 RMK AO1 T01000083
54779K12N 12N20160504133509805/04/16 13:35:31  5-MIN K12N 041835Z AUTO VRB04KT 10/08 A2973 760 89 400 VRB/04 RMK AO1 T01000083
54779K12N 12N20160504134009805/04/16 13:40:31  5-MIN K12N 041840Z AUTO VRB04KT 10/08 A2973 760 86 400 VRB/04 RMK AO1 T01000078
54779K12N 12N20160504134509805/04/16 13:45:31  5-MIN K12N 041845Z AUTO VRB03KT 11/08 A2973 760 86 500 VRB/03 RMK AO1 T01060083
54779K12N 12N20160504135010505/04/16 13:50:31  5-MIN K12N 041850Z AUTO VRB04KT 11/08 A2973 760 80 500 VRB/04 RMK AO1 SLP069 T01110078
54779K12N 12N20160504135509805/04/16 13:55:31  5-MIN K12N 041855Z AUTO VRB03KT 11/08 A2973 760 80 500 VRB/03 RMK AO1 T01110078
54779K12N 12N20160504140009805/04/16 14:00:31  5-MIN K12N 041900Z AUTO 05005KT 11/08 A2973 760 80 500 070/05 RMK AO1 T01110078
54779K12N 12N20160504140509805/04/16 14:05:31  5-MIN K12N 041905Z AUTO VRB03KT 11/07 A2973 760 80 500 VRB/03 RMK AO1 T01060072
54779K12N 12N20160504141009805/04/16 14:10:31  5-MIN K12N 041910Z AUTO 00000KT 11/08 A2973 760 83 400 000/00 RMK AO1 T01060078
54779K12N 12N20160504141509805/04/16 14:15:31  5-MIN K12N 041915Z AUTO 00000KT 11/07 A2973 760 80 400 000/00 RMK AO1 T01060072
54779K12N 12N20160504142009805/04/16 14:20:31  5-MIN K12N 041920Z AUTO VRB06KT 11/08 A2973 760 83 500 VRB/06 RMK AO1 T01060078
54779K12N 12N20160504142509805/04/16 14:25:31  5-MIN K12N 041925Z AUTO VRB04KT 10/08 A2973 760 86 400 VRB/04 RMK AO1 T01000078
54779K12N 12N20160504143009805/04/16 14:30:31  5-MIN K12N 041930Z AUTO VRB03KT 10/08 A2973 760 86 400 VRB/03 RMK AO1 T01000078
54779K12N 12N20160504143509805/04/16 14:35:31  5-MIN K12N 041935Z AUTO 00000KT 11/08 A2973 770 83 500 000/00 RMK AO1 T01060078
54779K12N 12N20160504144009805/04/16 14:40:31  5-MIN K12N 041940Z AUTO VRB04KT 11/08 A2973 770 83 500 VRB/04 RMK AO1 T01060078
54779K12N 12N20160504144511405/04/16 14:45:31  5-MIN K12N 041945Z AUTO 04007KT 020V090 11/08 A2972 770 83 500 060/07 030V100 RMK AO1 T01060078
54779K12N 12N20160504145010505/04/16 14:50:31  5-MIN K12N 041950Z AUTO 05004KT 10/08 A2972 770 86 400 070/04 RMK AO1 SLP067 T01000078
54779K12N 12N20160504145509805/04/16 14:55:31  5-MIN K12N 041955Z AUTO VRB04KT 10/08 A2972 770 86 400 VRB/04 RMK AO1 T01000078
54779K12N 12N20160504150009805/04/16 15:00:31  5-MIN K12N 042000Z AUTO 04003KT 11/08 A2972 770 86 500 050/03 RMK AO1 T01060083
54779K12N 12N20160504150509805/04/16 15:05:31  5-MIN K12N 042005Z AUTO 00000KT 11/08 A2972 770 86 500 000/00 RMK AO1 T01060083
54779K12N 12N20160504151008805/04/16 15:10:31  5-MIN K12N 042010Z AUTO 11/08 A2972 770 86 500 M /M RMK AO1 T01060083
54779K12N 12N20160504151509805/04/16 15:15:31  5-MIN K12N 042015Z AUTO VRB04KT 11/08 A2972 770 83 500 VRB/04 RMK AO1 T01060078
54779K12N 12N20160504152009805/04/16 15:20:31  5-MIN K12N 042020Z AUTO VRB04KT 11/07 A2972 780 80 500 VRB/04 RMK AO1 T01060072
54779K12N 12N20160504152509805/04/16 15:25:31  5-MIN K12N 042025Z AUTO VRB04KT 10/07 A2972 770 83 400 VRB/04 RMK AO1 T01000072
54779K12N 12N20160504153009805/04/16 15:30:31  5-MIN K12N 042030Z AUTO VRB03KT 10/07 A2972 770 83 400 VRB/03 RMK AO1 T01000072
54779K12N 12N20160504153509805/04/16 15:35:31  5-MIN K12N 042035Z AUTO VRB04KT 11/07 A2972 770 80 500 VRB/04 RMK AO1 T01060072
54779K12N 12N20160504154009805/04/16 15:40:31  5-MIN K12N 042040Z AUTO VRB04KT 10/07 A2972 770 83 400 VRB/04 RMK AO1 T01000072
54779K12N 12N20160504154509805/04/16 15:45:31  5-MIN K12N 042045Z AUTO VRB03KT 10/07 A2972 770 83 400 VRB/03 RMK AO1 T01000072
54779K12N 12N20160504155011105/04/16 15:50:31  5-MIN K12N 042050Z AUTO 00000KT 10/07 A2972 770 83 400 000/00 RMK AO1 SLP066 T01000072 58006
54779K12N 12N20160504155509805/04/16 15:55:31  5-MIN K12N 042055Z AUTO 14003KT 10/07 A2972 770 83 400 150/03 RMK AO1 T01000072
54779K12N 12N20160504160009805/04/16 16:00:31  5-MIN K12N 042100Z AUTO 00000KT 10/08 A2972 770 86 400 000/00 RMK AO1 T01000078
54779K12N 12N20160504160509805/04/16 16:05:31  5-MIN K12N 042105Z AUTO VRB03KT 10/08 A2972 770 86 400 VRB/03 RMK AO1 T01000078
54779K12N 12N20160504161009805/04/16 16:10:31  5-MIN K12N 042110Z AUTO 00000KT 10/08 A2972 770 86 400 000/00 RMK AO1 T01000078
54779K12N 12N20160504161509805/04/16 16:15:31  5-MIN K12N 042115Z AUTO 00000KT 10/08 A2972 770 86 400 000/00 RMK AO1 T01000078
54779K12N 12N20160504162009805/04/16 16:20:31  5-MIN K12N 042120Z AUTO 00000KT 10/07 A2973 770 83 400 000/00 RMK AO1 T01000072
54779K12N 12N20160504162509805/04/16 16:25:31  5-MIN K12N 042125Z AUTO 00000KT 10/07 A2972 770 83 400 000/00 RMK AO1 T01000072
54779K12N 12N20160504163009805/04/16 16:30:31  5-MIN K12N 042130Z AUTO 00000KT 10/07 A2973 770 83 400 000/00 RMK AO1 T01000072
54779K12N 12N20160504163509805/04/16 16:35:31  5-MIN K12N 042135Z AUTO VRB03KT 10/08 A2973 770 86 400 VRB/03 RMK AO1 T01000078
54779K12N 12N20160504164009805/04/16 16:40:31  5-MIN K12N 042140Z AUTO 05003KT 10/08 A2973 760 86 400 060/03 RMK AO1 T01000078
54779K12N 12N20160504164509805/04/16 16:45:31  5-MIN K12N 042145Z AUTO VRB04KT 10/08 A2973 760 86 400 VRB/04 RMK AO1 T01000078
54779K12N 12N20160504165010505/04/16 16:50:31  5-MIN K12N 042150Z AUTO VRB04KT 10/08 A2973 760 89 400 VRB/04 RMK AO1 SLP068 T01000083
54779K12N 12N20160504165509805/04/16 16:55:31  5-MIN K12N 042155Z AUTO 04004KT 09/08 A2973 760 93 300 050/04 RMK AO1 T00940083
54779K12N 12N20160504170009805/04/16 17:00:31  5-MIN K12N 042200Z AUTO VRB04KT 09/08 A2973 760 93 300 VRB/04 RMK AO1 T00940083
54779K12N 12N20160504170509805/04/16 17:05:31  5-MIN K12N 042205Z AUTO 04006KT 09/08 A2973 760 93 300 060/06 RMK AO1 T00940083
54779K12N 12N20160504171009805/04/16 17:10:31  5-MIN K12N 042210Z AUTO 04007KT 09/08 A2973 760 93 300 050/07 RMK AO1 T00940083
54779K12N 12N20160504171509805/04/16 17:15:31  5-MIN K12N 042215Z AUTO 04004KT 09/08 A2973 760 93 300 060/04 RMK AO1 T00940083
54779K12N 12N20160504172009805/04/16 17:20:31  5-MIN K12N 042220Z AUTO VRB05KT 09/08 A2973 760 93 300 VRB/05 RMK AO1 T00940083
54779K12N 12N20160504172509805/04/16 17:25:31  5-MIN K12N 042225Z AUTO 04006KT 09/08 A2972 770 93 300 060/06 RMK AO1 T00940083
54779K12N 12N20160504173009805/04/16 17:30:31  5-MIN K12N 042230Z AUTO 04005KT 09/08 A2972 770 93 300 050/05 RMK AO1 T00940083
54779K12N 12N20160504173509805/04/16 17:35:31  5-MIN K12N 042235Z AUTO 05005KT 09/08 A2972 770 93 300 060/05 RMK AO1 T00940083
54779K12N 12N20160504174009805/04/16 17:40:31  5-MIN K12N 042240Z AUTO 04005KT 09/08 A2972 770 93 300 050/05 RMK AO1 T00940083
54779K12N 12N20160504174509805/04/16 17:45:31  5-MIN K12N 042245Z AUTO VRB06KT 09/08 A2972 770 93 300 VRB/06 RMK AO1 T00940083
54779K12N 12N20160504175010505/04/16 17:50:31  5-MIN K12N 042250Z AUTO VRB04KT 09/08 A2972 770 93 300 VRB/04 RMK AO1 SLP068 T00940083
54779K12N 12N20160504175509805/04/16 17:55:31  5-MIN K12N 042255Z AUTO 03004KT 09/08 A2972 770 93 300 040/04 RMK AO1 T00940083
54779K12N 12N20160504180009805/04/16 18:00:31  5-MIN K12N 042300Z AUTO 04005KT 09/08 A2972 770 93 300 060/05 RMK AO1 T00940083
54779K12N 12N20160504180509805/04/16 18:05:31  5-MIN K12N 042305Z AUTO VRB06KT 09/08 A2972 770 93 300 VRB/06 RMK AO1 T00940083
54779K12N 12N20160504181009805/04/16 18:10:31  5-MIN K12N 042310Z AUTO VRB05KT 09/08 A2972 770 93 300 VRB/05 RMK AO1 T00940083
54779K12N 12N20160504181509805/04/16 18:15:31  5-MIN K12N 042315Z AUTO VRB05KT 09/08 A2973 760 93 300 VRB/05 RMK AO1 T00940083
54779K12N 12N20160504182009805/04/16 18:20:31  5-MIN K12N 042320Z AUTO 04005KT 09/08 A2973 760 93 300 060/05 RMK AO1 T00940083
54779K12N 12N20160504182509805/04/16 18:25:31  5-MIN K12N 042325Z AUTO 04005KT 09/08 A2973 760 93 300 050/05 RMK AO1 T00940083
54779K12N 12N20160504183009805/04/16 18:30:31  5-MIN K12N 042330Z AUTO 04006KT 09/08 A2973 760 89 300 060/06 RMK AO1 T00940078
54779K12N 12N20160504183509805/04/16 18:35:31  5-MIN K12N 042335Z AUTO VRB05KT 09/08 A2973 760 89 300 VRB/05 RMK AO1 T00940078
54779K12N 12N20160504184009805/04/16 18:40:31  5-MIN K12N 042340Z AUTO VRB04KT 09/08 A2973 760 89 300 VRB/04 RMK AO1 T00940078
54779K12N 12N20160504184509805/04/16 18:45:31  5-MIN K12N 042345Z AUTO 04005KT 09/08 A2973 760 89 300 050/05 RMK AO1 T00940078
54779K12N 12N20160504185012305/04/16 18:50:31  5-MIN K12N 042350Z AUTO 04005KT 09/08 A2973 760 89 300 050/05 RMK AO1 SLP070 T00940078 10111 20094 56012
54779K12N 12N20160504185509805/04/16 18:55:31  5-MIN K12N 042355Z AUTO VRB06KT 09/08 A2973 760 89 300 VRB/06 RMK AO1 T00940078
54779K12N 12N20160504190009805/04/16 19:00:31  5-MIN K12N 050000Z AUTO 03005KT 09/08 A2973 760 89 300 050/05 RMK AO1 T00940078
54779K12N 12N20160504190509805/04/16 19:05:31  5-MIN K12N 050005Z AUTO VRB05KT 09/08 A2973 760 89 300 VRB/05 RMK AO1 T00940078
54779K12N 12N20160504191009805/04/16 19:10:31  5-MIN K12N 050010Z AUTO 04005KT 09/08 A2973 760 89 300 050/05 RMK AO1 T00940078
54779K12N 12N20160504191509805/04/16 19:15:31  5-MIN K12N 050015Z AUTO VRB04KT 09/08 A2974 750 93 200 VRB/04 RMK AO1 T00890078
54779K12N 12N20160504192009805/04/16 19:20:31  5-MIN K12N 050020Z AUTO VRB03KT 09/08 A2974 750 89 300 VRB/03 RMK AO1 T00940078
54779K12N 12N20160504192509805/04/16 19:25:31  5-MIN K12N 050025Z AUTO VRB03KT 09/08 A2975 750 89 300 VRB/03 RMK AO1 T00940078
54779K12N 12N20160504193009805/04/16 19:30:31  5-MIN K12N 050030Z AUTO VRB03KT 09/08 A2975 740 89 300 VRB/03 RMK AO1 T00940078
54779K12N 12N20160504193509805/04/16 19:35:31  5-MIN K12N 050035Z AUTO VRB03KT 09/08 A2975 740 93 300 VRB/03 RMK AO1 T00940083
54779K12N 12N20160504194009805/04/16 19:40:31  5-MIN K12N 050040Z AUTO 04003KT 09/08 A2975 740 89 300 050/03 RMK AO1 T00940078
54779K12N 12N20160504194509805/04/16 19:45:31  5-MIN K12N 050045Z AUTO VRB03KT 09/08 A2975 740 93 200 VRB/03 RMK AO1 T00890078
54779K12N 12N20160504195010505/04/16 19:50:31  5-MIN K12N 050050Z AUTO 05004KT 09/08 A2975 740 93 200 060/04 RMK AO1 SLP078 T00890078
54779K12N 12N20160504195509805/04/16 19:55:31  5-MIN K12N 050055Z AUTO 04003KT 09/08 A2975 740 89 300 050/03 RMK AO1 T00940078
54779K12N 12N20160504200009805/04/16 20:00:31  5-MIN K12N 050100Z AUTO 05004KT 09/08 A2976 740 89 300 060/04 RMK AO1 T00940078
54779K12N 12N20160504200509805/04/16 20:05:31  5-MIN K12N 050105Z AUTO VRB03KT 09/08 A2976 730 89 300 VRB/03 RMK AO1 T00940078
54779K12N 12N20160504201009805/04/16 20:10:31  5-MIN K12N 050110Z AUTO 00000KT 09/08 A2976 730 89 300 000/00 RMK AO1 T00940078
54779K12N 12N20160504201509805/04/16 20:15:31  5-MIN K12N 050115Z AUTO VRB03KT 09/08 A2976 730 89 300 VRB/03 RMK AO1 T00940078
54779K12N 12N20160504202009805/04/16 20:20:31  5-MIN K12N 050120Z AUTO VRB04KT 09/08 A2976 740 89 300 VRB/04 RMK AO1 T00940078
54779K12N 12N20160504202509805/04/16 20:25:31  5-MIN K12N 050125Z AUTO 00000KT 09/08 A2976 740 89 300 000/00 RMK AO1 T00940078
54779K12N 12N20160504203009805/04/16 20:30:31  5-MIN K12N 050130Z AUTO VRB04KT 09/08 A2976 740 89 300 VRB/04 RMK AO1 T00940078
54779K12N 12N20160504203509805/04/16 20:35:31  5-MIN K12N 050135Z AUTO VRB04KT 09/08 A2976 740 93 200 VRB/04 RMK AO1 T00890078
54779K12N 12N20160504204009805/04/16 20:40:31  5-MIN K12N 050140Z AUTO VRB04KT 09/08 A2976 740 93 200 VRB/04 RMK AO1 T00890078
54779K12N 12N20160504204509805/04/16 20:45:31  5-MIN K12N 050145Z AUTO VRB03KT 09/08 A2976 740 93 200 VRB/03 RMK AO1 T00890078
54779K12N 12N20160504205010505/04/16 20:50:31  5-MIN K12N 050150Z AUTO VRB03KT 09/08 A2976 740 93 200 VRB/03 RMK AO1 SLP079 T00890078
54779K12N 12N20160504205509805/04/16 20:55:31  5-MIN K12N 050155Z AUTO VRB04KT 09/08 A2976 740 93 200 VRB/04 RMK AO1 T00890078
54779K12N 12N20160504210009805/04/16 21:00:31  5-MIN K12N 050200Z AUTO VRB03KT 09/08 A2976 740 93 200 VRB/03 RMK AO1 T00890078
54779K12N 12N20160504210509805/04/16 21:05:31  5-MIN K12N 050205Z AUTO 04005KT 09/07 A2976 740 89 200 060/05 RMK AO1 T00890072
54779K12N 12N20160504211009805/04/16 21:10:31  5-MIN K12N 050210Z AUTO 04005KT 09/07 A2976 740 89 200 060/05 RMK AO1 T00890072
54779K12N 12N20160504211509805/04/16 21:15:31  5-MIN K12N 050215Z AUTO 04004KT 09/07 A2976 740 89 200 050/04 RMK AO1 T00890072
54779K12N 12N20160504212009805/04/16 21:20:31  5-MIN K12N 050220Z AUTO 03004KT 09/07 A2975 740 89 200 050/04 RMK AO1 T00890072
54779K12N 12N20160504212509805/04/16 21:25:31  5-MIN K12N 050225Z AUTO 04005KT 09/07 A2975 740 89 200 050/05 RMK AO1 T00890072
54779K12N 12N20160504213009805/04/16 21:30:31  5-MIN K12N 050230Z AUTO 04006KT 09/07 A2975 740 89 200 060/06 RMK AO1 T00890072
54779K12N 12N20160504213509805/04/16 21:35:31  5-MIN K12N 050235Z AUTO 04005KT 09/07 A2975 750 89 200 060/05 RMK AO1 T00890072
54779K12N 12N20160504214009805/04/16 21:40:31  5-MIN K12N 050240Z AUTO 05005KT 09/07 A2975 750 89 200 060/05 RMK AO1 T00890072
54779K12N 12N20160504214509805/04/16 21:45:31  5-MIN K12N 050245Z AUTO 04006KT 09/07 A2975 750 89 200 050/06 RMK AO1 T00890072
54779K12N 12N20160504215011105/04/16 21:50:31  5-MIN K12N 050250Z AUTO 04005KT 09/07 A2974 750 89 200 060/05 RMK AO1 SLP075 T00890072 52003
54779K12N 12N20160504215509805/04/16 21:55:31  5-MIN K12N 050255Z AUTO 05005KT 09/07 A2975 750 86 200 060/05 RMK AO1 T00890067
54779K12N 12N20160504220009805/04/16 22:00:31  5-MIN K12N 050300Z AUTO 03005KT 08/07 A2974 750 89 200 050/05 RMK AO1 T00830067
54779K12N 12N20160504220509805/04/16 22:05:31  5-MIN K12N 050305Z AUTO 04006KT 08/07 A2974 750 89 200 050/06 RMK AO1 T00830067
54779K12N 12N20160504221009805/04/16 22:10:31  5-MIN K12N 050310Z AUTO VRB05KT 08/07 A2974 750 89 200 VRB/05 RMK AO1 T00830067
54779K12N 12N20160504221509805/04/16 22:15:31  5-MIN K12N 050315Z AUTO 05005KT 08/07 A2974 750 89 200 060/05 RMK AO1 T00830067
54779K12N 12N20160504222009805/04/16 22:20:31  5-MIN K12N 050320Z AUTO 04004KT 09/07 A2974 750 86 200 050/04 RMK AO1 T00890067
54779K12N 12N20160504222509805/04/16 22:25:31  5-MIN K12N 050325Z AUTO 04004KT 09/07 A2974 750 86 200 050/04 RMK AO1 T00890067
54779K12N 12N20160504223009805/04/16 22:30:31  5-MIN K12N 050330Z AUTO 04004KT 09/07 A2974 760 86 200 050/04 RMK AO1 T00890067
54779K12N 12N20160504223509805/04/16 22:35:31  5-MIN K12N 050335Z AUTO VRB03KT 09/07 A2973 760 86 200 VRB/03 RMK AO1 T00890067
54779K12N 12N20160504224009805/04/16 22:40:31  5-MIN K12N 050340Z AUTO 03004KT 09/07 A2973 760 89 200 040/04 RMK AO1 T00890072
54779K12N 12N20160504224509805/04/16 22:45:31  5-MIN K12N 050345Z AUTO VRB04KT 08/07 A2974 760 93 200 VRB/04 RMK AO1 T00830072
54779K12N 12N20160504225010505/04/16 22:50:31  5-MIN K12N 050350Z AUTO 04004KT 08/07 A2974 760 89 200 050/04 RMK AO1 SLP073 T00830067
54779K12N 12N20160504225509805/04/16 22:55:31  5-MIN K12N 050355Z AUTO 04004KT 08/07 A2974 750 93 200 050/04 RMK AO1 T00830072
54779K12N 12N20160504230009805/04/16 23:00:31  5-MIN K12N 050400Z AUTO 04006KT 08/07 A2974 750 89 200 050/06 RMK AO1 T00830067
54779K12N 12N20160504230509805/04/16 23:05:31  5-MIN K12N 050405Z AUTO 04005KT 08/07 A2974 750 89 200 050/05 RMK AO1 T00830067
54779K12N 12N20160504231009805/04/16 23:10:31  5-MIN K12N 050410Z AUTO VRB05KT 08/07 A2974 750 89 200 VRB/05 RMK AO1 T00830067
54779K12N 12N20160504231509805/04/16 23:15:31  5-MIN K12N 050415Z AUTO VRB05KT 08/07 A2974 750 89 200 VRB/05 RMK AO1 T00830067
54779K12N 12N20160504232009805/04/16 23:20:31  5-MIN K12N 050420Z AUTO 03005KT 08/07 A2974 750 89 200 050/05 RMK AO1 T00830067
54779K12N 12N20160504232509805/04/16 23:25:31  5-MIN K12N 050425Z AUTO 03004KT 08/07 A2974 750 89 200 050/04 RMK AO1 T00830067
54779K12N 12N20160504233009805/04/16 23:30:31  5-MIN K12N 050430Z AUTO 03005KT 08/07 A2974 750 89 200 050/05 RMK AO1 T00830067
54779K12N 12N20160504233509805/04/16 23:35:31  5-MIN K12N 050435Z AUTO VRB04KT 08/07 A2974 750 89 200 VRB/04 RMK AO1 T00830067
54779K12N 12N20160504234009805/04/16 23:40:31  5-MIN K12N 050440Z AUTO 04006KT 08/07 A2974 750 89 200 060/06 RMK AO1 T00830067
54779K12N 12N20160504234509805/04/16 23:45:31  5-MIN K12N 050445Z AUTO 05006KT 08/07 A2974 750 89 200 060/06 RMK AO1 T00830067
54779K12N 12N20160504235011505/04/16 23:50:31  5-MIN K12N 050450Z AUTO 04006KT 08/06 A2974 750 86 200 050/06 RMK AO1 SLP074 T00830061 401110083
54779K12N 12N20160504235509805/04/16 23:55:31  5-MIN K12N 050455Z AUTO VRB05KT 08/06 A2974 750 86 200 VRB/05 RMK AO1 T00830061
54779K12N 12N20160505000009805/05/16 00:00:31  5-MIN K12N 050500Z AUTO 04004KT 08/06 A2975 750 86 200 050/04 RMK AO1 T00830061
54779K12N 12N20160505000509805/05/16 00:05:31  5-MIN K12N 050505Z AUTO 04005KT 08/06 A2975 750 86 200 060/05 RMK AO1 T00830061
54779K12N 12N20160505001009805/05/16 00:10:31  5-MIN K12N 050510Z AUTO 04005KT 08/06 A2975 750 86 200 050/05 RMK AO1 T00830061
54779K12N 12N20160505001509805/05/16 00:15:31  5-MIN K12N 050515Z AUTO 04003KT 08/06 A2974 750 86 200 050/03 RMK AO1 T00830061
54779K12N 12N20160505002009805/05/16 00:20:31  5-MIN K12N 050520Z AUTO VRB04KT 08/06 A2974 750 86 200 VRB/04 RMK AO1 T00830061
54779K12N 12N20160505002509805/05/16 00:25:31  5-MIN K12N 050525Z AUTO 04005KT 08/06 A2974 750 86 200 060/05 RMK AO1 T00830061
54779K12N 12N20160505003009805/05/16 00:30:31  5-MIN K12N 050530Z AUTO 04004KT 08/06 A2974 750 89 100 050/04 RMK AO1 T00780061
54779K12N 12N20160505003509805/05/16 00:35:31  5-MIN K12N 050535Z AUTO 04006KT 08/06 A2974 760 89 100 050/06 RMK AO1 T00780061
54779K12N 12N20160505004009805/05/16 00:40:31  5-MIN K12N 050540Z AUTO VRB04KT 08/06 A2973 760 89 100 VRB/04 RMK AO1 T00780061
54779K12N 12N20160505004509805/05/16 00:45:31  5-MIN K12N 050545Z AUTO 04005KT 08/06 A2973 760 86 200 050/05 RMK AO1 T00830061
54779K12N 12N20160505005012305/05/16 00:50:31  5-MIN K12N 050550Z AUTO 04006KT 08/06 A2973 760 89 100 050/06 RMK AO1 SLP069 T00780061 10094 20078 50005
54779K12N 12N20160505005509805/05/16 00:55:31  5-MIN K12N 050555Z AUTO 05006KT 08/06 A2973 760 89 100 060/06 RMK AO1 T00780061
54779K12N 12N20160505010009805/05/16 01:00:31  5-MIN K12N 050600Z AUTO 03004KT 08/06 A2973 760 89 100 050/04 RMK AO1 T00780061
54779K12N 12N20160505010509805/05/16 01:05:31  5-MIN K12N 050605Z AUTO VRB05KT 08/06 A2973 760 89 100 VRB/05 RMK AO1 T00780061
54779K12N 12N20160505011009805/05/16 01:10:31  5-MIN K12N 050610Z AUTO VRB06KT 08/06 A2973 760 86 100 VRB/06 RMK AO1 T00780056
54779K12N 12N20160505011509805/05/16 01:15:31  5-MIN K12N 050615Z AUTO 05005KT 08/06 A2974 760 86 100 060/05 RMK AO1 T00780056
54779K12N 12N20160505012009805/05/16 01:20:31  5-MIN K12N 050620Z AUTO VRB05KT 08/06 A2974 760 89 100 VRB/05 RMK AO1 T00780061
54779K12N 12N20160505012509805/05/16 01:25:31  5-MIN K12N 050625Z AUTO 04004KT 08/06 A2974 750 89 100 050/04 RMK AO1 T00780061
54779K12N 12N20160505013009805/05/16 01:30:31  5-MIN K12N 050630Z AUTO 03004KT 08/06 A2974 750 89 100 040/04 RMK AO1 T00780061
54779K12N 12N20160505013509605/05/16 01:35:31  5-MIN K12N 050635Z AUTO 04004KT 07/06 A2974 750 93 0 050/04 RMK AO1 T00720061
54779K12N 12N20160505014009605/05/16 01:40:31  5-MIN K12N 050640Z AUTO 04005KT 07/06 A2974 750 93 0 050/05 RMK AO1 T00720061
54779K12N 12N20160505014509605/05/16 01:45:31  5-MIN K12N 050645Z AUTO 04004KT 07/06 A2974 750 93 0 050/04 RMK AO1 T00720061
54779K12N 12N20160505015010305/05/16 01:50:31  5-MIN K12N 050650Z AUTO 04004KT 07/07 A2974 750 96 0 050/04 RMK AO1 SLP073 T00720067
54779K12N 12N20160505015509605/05/16 01:55:31  5-MIN K12N 050655Z AUTO 02003KT 07/07 A2974 760 96 0 030/03 RMK AO1 T00720067
54779K12N 12N20160505020009605/05/16 02:00:31  5-MIN K12N 050700Z AUTO VRB04KT 07/06 A2973 760 93 0 VRB/04 RMK AO1 T00720061
54779K12N 12N20160505020509805/05/16 02:05:31  5-MIN K12N 050705Z AUTO VRB04KT 07/07 A2972 770 96 100 VRB/04 RMK AO1 T00720067
54779K12N 12N20160505021009805/05/16 02:10:31  5-MIN K12N 050710Z AUTO VRB03KT 07/07 A2972 770 96 100 VRB/03 RMK AO1 T00720067
54779K12N 12N20160505021509805/05/16 02:15:31  5-MIN K12N 050715Z AUTO VRB03KT 07/06 A2972 770 93 100 VRB/03 RMK AO1 T00720061
54779K12N 12N20160505022009805/05/16 02:20:31  5-MIN K12N 050720Z AUTO 04006KT 07/06 A2972 770 93 100 050/06 RMK AO1 T00720061
54779K12N 12N20160505022509805/05/16 02:25:31  5-MIN K12N 050725Z AUTO 04006KT 07/06 A2972 770 93 100 060/06 RMK AO1 T00720061
54779K12N 12N20160505023009805/05/16 02:30:31  5-MIN K12N 050730Z AUTO VRB05KT 07/06 A2972 770 93 100 VRB/05 RMK AO1 T00720061
54779K12N 12N20160505023509805/05/16 02:35:31  5-MIN K12N 050735Z AUTO 04006KT 07/06 A2971 780 93 100 060/06 RMK AO1 T00720061
54779K12N 12N20160505024009805/05/16 02:40:31  5-MIN K12N 050740Z AUTO 05005KT 07/06 A2971 780 93 100 060/05 RMK AO1 T00720061
54779K12N 12N20160505024509805/05/16 02:45:31  5-MIN K12N 050745Z AUTO 04005KT 07/06 A2971 780 93 100 050/05 RMK AO1 T00720061
54779K12N 12N20160505025010505/05/16 02:50:31  5-MIN K12N 050750Z AUTO 05005KT 07/06 A2971 780 93 100 060/05 RMK AO1 SLP065 T00720061
54779K12N 12N20160505025509805/05/16 02:55:31  5-MIN K12N 050755Z AUTO 04004KT 07/06 A2971 780 93 100 050/04 RMK AO1 T00720061
54779K12N 12N20160505030009805/05/16 03:00:31  5-MIN K12N 050800Z AUTO VRB04KT 07/06 A2971 780 93 100 VRB/04 RMK AO1 T00720061
54779K12N 12N20160505030509805/05/16 03:05:31  5-MIN K12N 050805Z AUTO 04005KT 07/06 A2971 780 93 100 050/05 RMK AO1 T00720061
54779K12N 12N20160505031009805/05/16 03:10:31  5-MIN K12N 050810Z AUTO 05007KT 07/06 A2971 780 93 100 060/07 RMK AO1 T00720061
54779K12N 12N20160506001009805/06/16 00:10:31  5-MIN K12N 060510Z AUTO 03006KT 11/07 A2966 830 77 600 050/06 RMK AO1 T01110072
54779K12N 12N20160506001509805/06/16 00:15:31  5-MIN K12N 060515Z AUTO VRB06KT 11/07 A2966 830 77 600 VRB/06 RMK AO1 T01110072
54779K12N 12N20160506002009805/06/16 00:20:31  5-MIN K12N 060520Z AUTO 04005KT 11/07 A2966 830 77 600 050/05 RMK AO1 T01110072
54779K12N 12N20160506002511405/06/16 00:25:31  5-MIN K12N 060525Z AUTO 03008KT 330V050 11/07 A2966 830 77 600 050/08 340V060 RMK AO1 T01110072
54779K12N 12N20160506003009805/06/16 00:30:31  5-MIN K12N 060530Z AUTO VRB06KT 11/07 A2967 820 77 600 VRB/06 RMK AO1 T01110072
54779K12N 12N20160506003509805/06/16 00:35:31  5-MIN K12N 060535Z AUTO VRB06KT 11/07 A2967 820 77 600 VRB/06 RMK AO1 T01110072
54779K12N 12N20160506004009805/06/16 00:40:31  5-MIN K12N 060540Z AUTO 05007KT 11/07 A2967 820 77 600 060/07 RMK AO1 T01110072
54779K12N 12N20160506004509805/06/16 00:45:31  5-MIN K12N 060545Z AUTO 05005KT 11/07 A2968 810 77 600 060/05 RMK AO1 T01110072
54779K12N 12N20160506005012305/06/16 00:50:31  5-MIN K12N 060550Z AUTO VRB03KT 11/07 A2968 810 77 600 VRB/03 RMK AO1 SLP052 T01110072 10128 20111 51011
54779K12N 12N20160506005509805/06/16 00:55:31  5-MIN K12N 060555Z AUTO 04003KT 11/07 A2969 800 77 600 050/03 RMK AO1 T01110072
54779K12N 12N20160506010009805/06/16 01:00:31  5-MIN K12N 060600Z AUTO 04005KT 11/07 A2969 800 77 600 060/05 RMK AO1 T01110072
54779K12N 12N20160506010509805/06/16 01:05:31  5-MIN K12N 060605Z AUTO 04005KT 11/07 A2969 800 77 600 050/05 RMK AO1 T01110072
54779K12N 12N20160506011009805/06/16 01:10:31  5-MIN K12N 060610Z AUTO VRB04KT 11/07 A2969 800 80 500 VRB/04 RMK AO1 T01060072
54779K12N 12N20160506011509805/06/16 01:15:31  5-MIN K12N 060615Z AUTO VRB03KT 11/07 A2969 800 80 500 VRB/03 RMK AO1 T01060072
54779K12N 12N20160506012009805/06/16 01:20:31  5-MIN K12N 060620Z AUTO VRB04KT 11/07 A2969 800 80 500 VRB/04 RMK AO1 T01060072
54779K12N 12N20160506012509805/06/16 01:25:31  5-MIN K12N 060625Z AUTO VRB03KT 11/07 A2969 800 80 500 VRB/03 RMK AO1 T01060072
54779K12N 12N20160506013009805/06/16 01:30:31  5-MIN K12N 060630Z AUTO 04004KT 11/07 A2969 800 80 500 050/04 RMK AO1 T01060072
54779K12N 12N20160506013509805/06/16 01:35:31  5-MIN K12N 060635Z AUTO VRB05KT 11/08 A2969 800 83 500 VRB/05 RMK AO1 T01060078
54779K12N 12N20160506014009805/06/16 01:40:31  5-MIN K12N 060640Z AUTO VRB03KT 11/08 A2968 810 83 500 VRB/03 RMK AO1 T01060078
54779K12N 12N20160506014509805/06/16 01:45:31  5-MIN K12N 060645Z AUTO VRB03KT 11/08 A2968 810 83 500 VRB/03 RMK AO1 T01060078
54779K12N 12N20160506015010505/06/16 01:50:31  5-MIN K12N 060650Z AUTO VRB03KT 11/08 A2968 810 83 500 VRB/03 RMK AO1 SLP051 T01060078
54779K12N 12N20160506015509805/06/16 01:55:31  5-MIN K12N 060655Z AUTO 35005KT 11/08 A2968 810 83 500 010/05 RMK AO1 T01060078
54779K12N 12N20160506020009805/06/16 02:00:31  5-MIN K12N 060700Z AUTO 36005KT 11/08 A2968 810 83 500 010/05 RMK AO1 T01060078
54779K12N 12N20160506020509805/06/16 02:05:31  5-MIN K12N 060705Z AUTO 01003KT 11/08 A2968 810 83 500 020/03 RMK AO1 T01060078
54779K12N 12N20160506021009805/06/16 02:10:31  5-MIN K12N 060710Z AUTO 00000KT 11/08 A2968 810 83 500 000/00 RMK AO1 T01060078
54779K12N 12N20160506021509805/06/16 02:15:31  5-MIN K12N 060715Z AUTO VRB03KT 11/08 A2968 810 83 500 VRB/03 RMK AO1 T01060078
54779K12N 12N20160506022009805/06/16 02:20:31  5-MIN K12N 060720Z AUTO VRB04KT 11/08 A2968 810 83 500 VRB/04 RMK AO1 T01060078
54779K12N 12N20160506022509805/06/16 02:25:31  5-MIN K12N 060725Z AUTO 36004KT 11/08 A2968 810 83 500 020/04 RMK AO1 T01060078
54779K12N 12N20160506023009805/06/16 02:30:31  5-MIN K12N 060730Z AUTO 36004KT 11/08 A2968 810 83 500 010/04 RMK AO1 T01060078
54779K12N 12N20160506023509805/06/16 02:35:31  5-MIN K12N 060735Z AUTO VRB03KT 11/08 A2968 810 83 500 VRB/03 RMK AO1 T01060078
54779K12N 12N20160506024009805/06/16 02:40:31  5-MIN K12N 060740Z AUTO 00000KT 11/08 A2968 810 83 500 000/00 RMK AO1 T01060078
54779K12N 12N20160506024509805/06/16 02:45:31  5-MIN K12N 060745Z AUTO 05005KT 11/08 A2968 810 83 500 060/05 RMK AO1 T01060078
54779K12N 12N20160506025010505/06/16 02:50:31  5-MIN K12N 060750Z AUTO 05005KT 11/08 A2968 810 83 500 060/05 RMK AO1 SLP051 T01060078
54779K12N 12N20160506025509805/06/16 02:55:31  5-MIN K12N 060755Z AUTO VRB04KT 11/08 A2968 810 83 500 VRB/04 RMK AO1 T01060078
54779K12N 12N20160506030009805/06/16 03:00:31  5-MIN K12N 060800Z AUTO 03003KT 11/08 A2968 810 83 500 040/03 RMK AO1 T01060078
54779K12N 12N20160506030509805/06/16 03:05:31  5-MIN K12N 060805Z AUTO VRB03KT 11/08 A2967 810 83 500 VRB/03 RMK AO1 T01060078
54779K12N 12N20160506031009805/06/16 03:10:31  5-MIN K12N 060810Z AUTO VRB03KT 11/08 A2967 810 83 500 VRB/03 RMK AO1 T01060078
54779K12N 12N20160506031509805/06/16 03:15:31  5-MIN K12N 060815Z AUTO 01003KT 11/08 A2967 810 83 500 020/03 RMK AO1 T01060078
54779K12N 12N20160506032009805/06/16 03:20:31  5-MIN K12N 060820Z AUTO 01004KT 11/08 A2967 820 83 500 020/04 RMK AO1 T01060078
54779K12N 12N20160506032509805/06/16 03:25:31  5-MIN K12N 060825Z AUTO VRB05KT 11/08 A2967 820 83 500 VRB/05 RMK AO1 T01060078
54779K12N 12N20160506033009805/06/16 03:30:31  5-MIN K12N 060830Z AUTO VRB03KT 11/08 A2967 820 83 500 VRB/03 RMK AO1 T01060078
54779K12N 12N20160506033509805/06/16 03:35:31  5-MIN K12N 060835Z AUTO 00000KT 11/08 A2967 820 83 500 000/00 RMK AO1 T01060078
54779K12N 12N20160506034009805/06/16 03:40:31  5-MIN K12N 060840Z AUTO 03003KT 11/08 A2967 820 83 500 050/03 RMK AO1 T01060078
54779K12N 12N20160506034509805/06/16 03:45:31  5-MIN K12N 060845Z AUTO VRB04KT 10/08 A2967 820 86 500 VRB/04 RMK AO1 T01000078
54779K12N 12N20160506035011105/06/16 03:50:31  5-MIN K12N 060850Z AUTO 00000KT 11/08 A2967 820 83 500 000/00 RMK AO1 SLP046 T01060078 55000
54779K12N 12N20160506035509805/06/16 03:55:31  5-MIN K12N 060855Z AUTO 04005KT 11/08 A2967 820 83 500 060/05 RMK AO1 T01060078
54779K12N 12N20160506040009805/06/16 04:00:31  5-MIN K12N 060900Z AUTO 04007KT 11/08 A2967 820 83 500 050/07 RMK AO1 T01060078
54779K12N 12N20160506040509805/06/16 04:05:31  5-MIN K12N 060905Z AUTO VRB04KT 11/08 A2966 830 83 500 VRB/04 RMK AO1 T01060078
54779K12N 12N20160506041009805/06/16 04:10:31  5-MIN K12N 060910Z AUTO VRB03KT 11/08 A2966 830 83 500 VRB/03 RMK AO1 T01060078
54779K12N 12N20160506041509805/06/16 04:15:31  5-MIN K12N 060915Z AUTO VRB06KT 11/08 A2965 840 83 500 VRB/06 RMK AO1 T01060078
54779K12N 12N20160506042009805/06/16 04:20:31  5-MIN K12N 060920Z AUTO VRB04KT 11/08 A2965 840 83 500 VRB/04 RMK AO1 T01060078
54779K12N 12N20160506042509805/06/16 04:25:31  5-MIN K12N 060925Z AUTO VRB05KT 11/08 A2965 830 83 500 VRB/05 RMK AO1 T01060078
54779K12N 12N20160506043009805/06/16 04:30:31  5-MIN K12N 060930Z AUTO 03006KT 11/08 A2965 830 83 500 050/06 RMK AO1 T01060078
54779K12N 12N20160506043509805/06/16 04:35:31  5-MIN K12N 060935Z AUTO 04006KT 10/07 A2966 830 83 500 050/06 RMK AO1 T01000072
54779K12N 12N20160506044011405/06/16 04:40:31  5-MIN K12N 060940Z AUTO 04007KT 340V050 10/07 A2966 830 83 500 050/07 350V060 RMK AO1 T01000072
54779K12N 12N20160506044509805/06/16 04:45:31  5-MIN K12N 060945Z AUTO VRB06KT 10/07 A2966 820 83 500 VRB/06 RMK AO1 T01000072
54779K12N 12N20160506045010505/06/16 04:50:31  5-MIN K12N 060950Z AUTO VRB04KT 10/07 A2966 820 83 500 VRB/04 RMK AO1 SLP046 T01000072
54779K12N 12N20160506045509805/06/16 04:55:31  5-MIN K12N 060955Z AUTO 04007KT 10/07 A2967 820 83 500 060/07 RMK AO1 T01000072
54779K12N 12N20160506050009805/06/16 05:00:31  5-MIN K12N 061000Z AUTO VRB05KT 10/07 A2968 810 83 400 VRB/05 RMK AO1 T01000072
54779K12N 12N20160506050510405/06/16 05:05:31  5-MIN K12N 061005Z AUTO VRB04KT 10/07 A2968 810 83 400 VRB/04 RMK AO1 P0001 T01000072
54779K12N 12N20160506051011105/06/16 05:10:31  5-MIN K12N 061010Z AUTO 00000KT 10/08 A2969 800 86 400 000/00 RMK AO1 PRESRR P0001 T01000078
54779K12N 12N20160506051510405/06/16 05:15:31  5-MIN K12N 061015Z AUTO 00000KT 09/08 A2969 800 89 400 000/00 RMK AO1 P0002 T00940078
54779K12N 12N20160506052010405/06/16 05:20:31  5-MIN K12N 061020Z AUTO 00000KT 09/08 A2969 800 89 400 000/00 RMK AO1 P0002 T00940078
54779K12N 12N20160506052510405/06/16 05:25:31  5-MIN K12N 061025Z AUTO 00000KT 09/08 A2969 800 89 400 000/00 RMK AO1 P0004 T00940078
54779K12N 12N20160506053010405/06/16 05:30:31  5-MIN K12N 061030Z AUTO 00000KT 09/08 A2969 800 89 400 000/00 RMK AO1 P0005 T00940078
54779K12N 12N20160506053510405/06/16 05:35:31  5-MIN K12N 061035Z AUTO 00000KT 09/08 A2969 800 89 400 000/00 RMK AO1 P0005 T00940078
54779K12N 12N20160506054010405/06/16 05:40:31  5-MIN K12N 061040Z AUTO 00000KT 09/08 A2969 800 89 400 000/00 RMK AO1 P0005 T00940078
54779K12N 12N20160506054510405/06/16 05:45:31  5-MIN K12N 061045Z AUTO 04003KT 09/08 A2969 790 93 400 060/03 RMK AO1 P0007 T00940083
54779K12N 12N20160506055011105/06/16 05:50:31  5-MIN K12N 061050Z AUTO 04003KT 09/08 A2969 790 93 400 050/03 RMK AO1 SLP056 P0009 T00940083
54779K12N 12N20160506055510405/06/16 05:55:31  5-MIN K12N 061055Z AUTO 00000KT 09/08 A2970 790 93 400 000/00 RMK AO1 P0001 T00940083
54779K12N 12N20160506060010405/06/16 06:00:31  5-MIN K12N 061100Z AUTO 00000KT 09/08 A2970 790 93 400 000/00 RMK AO1 P0001 T00940083
54779K12N 12N20160506060510405/06/16 06:05:31  5-MIN K12N 061105Z AUTO VRB03KT 09/08 A2970 790 93 400 VRB/03 RMK AO1 P0001 T00940083
54779K12N 12N20160506061010405/06/16 06:10:31  5-MIN K12N 061110Z AUTO VRB03KT 09/08 A2970 790 93 400 VRB/03 RMK AO1 P0002 T00940083
54779K12N 12N20160506061510405/06/16 06:15:31  5-MIN K12N 061115Z AUTO VRB04KT 09/08 A2969 800 93 400 VRB/04 RMK AO1 P0002 T00940083
54779K12N 12N20160506062010405/06/16 06:20:31  5-MIN K12N 061120Z AUTO 36005KT 09/08 A2969 800 93 400 010/05 RMK AO1 P0003 T00940083
54779K12N 12N20160506062510405/06/16 06:25:31  5-MIN K12N 061125Z AUTO 00000KT 09/08 A2969 800 93 400 000/00 RMK AO1 P0003 T00940083
54779K12N 12N20160506063010405/06/16 06:30:31  5-MIN K12N 061130Z AUTO VRB04KT 09/08 A2969 800 93 400 VRB/04 RMK AO1 P0004 T00940083
54779K12N 12N20160506063510405/06/16 06:35:31  5-MIN K12N 061135Z AUTO VRB04KT 09/08 A2969 800 93 400 VRB/04 RMK AO1 P0007 T00940083
54779K12N 12N20160506064010405/06/16 06:40:31  5-MIN K12N 061140Z AUTO VRB03KT 09/08 A2969 800 93 400 VRB/03 RMK AO1 P0008 T00940083
54779K12N 12N20160506064510405/06/16 06:45:31  5-MIN K12N 061145Z AUTO VRB05KT 09/08 A2969 800 93 400 VRB/05 RMK AO1 P0008 T00940083
54779K12N 12N20160506065014105/06/16 06:50:31  5-MIN K12N 061150Z AUTO 00000KT 09/08 A2969 800 93 400 000/00 RMK AO1 SLP054 P0009 60018 70018 T00940083 10111 20094 58006
54779K12N 12N20160506065509805/06/16 06:55:31  5-MIN K12N 061155Z AUTO 36006KT 09/08 A2969 800 93 400 010/06 RMK AO1 T00940083
54779K12N 12N20160506070010405/06/16 07:00:31  5-MIN K12N 061200Z AUTO VRB03KT 09/08 A2969 800 93 400 VRB/03 RMK AO1 P0001 T00940083
54779K12N 12N20160506070510405/06/16 07:05:31  5-MIN K12N 061205Z AUTO 04007KT 09/08 A2969 800 93 400 050/07 RMK AO1 P0002 T00940083
54779K12N 12N20160506071010405/06/16 07:10:31  5-MIN K12N 061210Z AUTO 04007KT 09/08 A2969 800 93 400 060/07 RMK AO1 P0002 T00940083
54779K12N 12N20160506071510405/06/16 07:15:31  5-MIN K12N 061215Z AUTO 03004KT 09/08 A2969 800 93 400 050/04 RMK AO1 P0002 T00940083
54779K12N 12N20160506072010405/06/16 07:20:31  5-MIN K12N 061220Z AUTO 03007KT 09/08 A2969 790 93 400 050/07 RMK AO1 P0002 T00940083
54779K12N 12N20160506072510405/06/16 07:25:31  5-MIN K12N 061225Z AUTO 05005KT 09/08 A2970 790 93 400 060/05 RMK AO1 P0002 T00940083
54779K12N 12N20160506073012005/06/16 07:30:31  5-MIN K12N 061230Z AUTO 04008KT 350V060 09/08 A2970 790 93 400 050/08 360V070 RMK AO1 P0002 T00940083
54779K12N 12N20160506073512005/06/16 07:35:31  5-MIN K12N 061235Z AUTO 04007KT 350V070 09/08 A2970 790 93 400 050/07 360V080 RMK AO1 P0002 T00940083
54779K12N 12N20160506074010405/06/16 07:40:31  5-MIN K12N 061240Z AUTO VRB06KT 09/08 A2970 790 93 400 VRB/06 RMK AO1 P0003 T00940083
54779K12N 12N20160506074510405/06/16 07:45:31  5-MIN K12N 061245Z AUTO VRB06KT 09/08 A2970 790 93 400 VRB/06 RMK AO1 P0004 T00940083
54779K12N 12N20160506075011105/06/16 07:50:31  5-MIN K12N 061250Z AUTO 03007KT 09/08 A2970 790 93 400 050/07 RMK AO1 SLP057 P0005 T00940083
54779K12N 12N20160506075509805/06/16 07:55:31  5-MIN K12N 061255Z AUTO 05006KT 09/08 A2971 780 93 300 060/06 RMK AO1 T00940083
54779K12N 12N20160506080010405/06/16 08:00:31  5-MIN K12N 061300Z AUTO 05008KT 09/08 A2971 780 93 300 060/08 RMK AO1 P0001 T00940083
54779K12N 12N20160506080510405/06/16 08:05:31  5-MIN K12N 061305Z AUTO 04006KT 09/08 A2972 770 89 300 050/06 RMK AO1 P0001 T00940078
54779K12N 12N20160506081012005/06/16 08:10:31  5-MIN K12N 061310Z AUTO 04007KT 350V050 09/08 A2971 780 89 300 050/07 360V060 RMK AO1 P0003 T00940078
54779K12N 12N20160506081512005/06/16 08:15:31  5-MIN K12N 061315Z AUTO 02007KT 350V050 09/08 A2970 790 93 300 030/07 360V060 RMK AO1 P0005 T00940083
54779K12N 12N20160506082012605/06/16 08:20:31  5-MIN K12N 061320Z AUTO 04007G16KT 340V050 09/08 A2970 790 93 400 050/07G16 350V060 RMK AO1 P0006 T00940083
54779K12N 12N20160506082511005/06/16 08:25:31  5-MIN K12N 061325Z AUTO VRB05G16KT 09/08 A2969 800 93 400 VRB/05G16 RMK AO1 P0008 T00940083
54779K12N 12N20160506083011005/06/16 08:30:31  5-MIN K12N 061330Z AUTO 04011G17KT 10/09 A2970 790 93 400 050/11G17 RMK AO1 P0008 T01000089
54779K12N 12N20160506083512605/06/16 08:35:31  5-MIN K12N 061335Z AUTO 03008G17KT 340V060 09/08 A2969 800 93 400 050/08G17 350V070 RMK AO1 P0009 T00940083
54779K12N 12N20160506084011005/06/16 08:40:31  5-MIN K12N 061340Z AUTO 03008G15KT 10/09 A2969 800 93 400 050/08G15 RMK AO1 P0010 T01000089
54779K12N 12N20160506084510405/06/16 08:45:31  5-MIN K12N 061345Z AUTO 03007KT 10/09 A2969 800 93 400 050/07 RMK AO1 P0010 T01000089
54779K12N 12N20160506085011105/06/16 08:50:31  5-MIN K12N 061350Z AUTO 04008KT 10/08 A2969 800 89 400 050/08 RMK AO1 SLP056 P0011 T01000083
54779K12N 12N20160506085512005/06/16 08:55:31  5-MIN K12N 061355Z AUTO 03009G15KT 340V050 10/08 A2969 800 89 400 050/09G15 350V060 RMK AO1 T01000083
54779K12N 12N20160506090012005/06/16 09:00:31  5-MIN K12N 061400Z AUTO 04008G15KT 350V050 09/08 A2969 800 93 400 050/08G15 360V060 RMK AO1 T00940083
54779K12N 12N20160506090510405/06/16 09:05:31  5-MIN K12N 061405Z AUTO 04008G15KT 10/09 A2969 800 93 400 060/08G15 RMK AO1 T01000089
54779K12N 12N20160506091010405/06/16 09:10:31  5-MIN K12N 061410Z AUTO VRB06KT 10/09 A2969 800 93 400 VRB/06 RMK AO1 P0001 T01000089
54779K12N 12N20160506091512605/06/16 09:15:31  5-MIN K12N 061415Z AUTO 03008G16KT 310V050 10/08 A2968 810 89 400 040/08G16 320V060 RMK AO1 P0002 T01000083
54779K12N 12N20160506092011005/06/16 09:20:31  5-MIN K12N 061420Z AUTO 04011G16KT 09/08 A2968 810 93 400 050/11G16 RMK AO1 P0002 T00940083
54779K12N 12N20160506092511005/06/16 09:25:31  5-MIN K12N 061425Z AUTO 04010G16KT 09/08 A2968 810 93 400 050/10G16 RMK AO1 P0003 T00940083
54779K12N 12N20160506093012605/06/16 09:30:31  5-MIN K12N 061430Z AUTO 03010G16KT 280V050 09/08 A2968 810 93 400 050/10G16 290V060 RMK AO1 P0003 T00940083
54779K12N 12N20160506093511005/06/16 09:35:31  5-MIN K12N 061435Z AUTO VRB06G15KT 09/08 A2968 810 93 400 VRB/06G15 RMK AO1 P0003 T00940083
54779K12N 12N20160506094012605/06/16 09:40:31  5-MIN K12N 061440Z AUTO 03010G16KT 340V050 09/08 A2967 810 93 400 050/10G16 350V060 RMK AO1 P0004 T00940083
54779K12N 12N20160506094512605/06/16 09:45:31  5-MIN K12N 061445Z AUTO 04009G16KT 350V060 09/08 A2969 800 93 400 050/09G16 360V070 RMK AO1 P0005 T00940083
54779K12N 12N20160506095013605/06/16 09:50:31  5-MIN K12N 061450Z AUTO 05008G14KT 09/08 A2970 790 89 400 060/08G14 RMK AO1 PRESRR SLP059 P0005 60021 T00940078 50006
54779K12N 12N20160506095509805/06/16 09:55:31  5-MIN K12N 061455Z AUTO 03007KT 09/08 A2970 790 89 400 040/07 RMK AO1 T00940078
54779K12N 12N20160506100010405/06/16 10:00:31  5-MIN K12N 061500Z AUTO 04008KT 09/08 A2970 790 93 300 060/08 RMK AO1 P0004 T00940083
54779K12N 12N20160506100510405/06/16 10:05:31  5-MIN K12N 061505Z AUTO 04007KT 09/08 A2971 780 93 300 050/07 RMK AO1 P0007 T00940083
54779K12N 12N20160506101010405/06/16 10:10:31  5-MIN K12N 061510Z AUTO 03004KT 09/08 A2971 780 93 300 040/04 RMK AO1 P0008 T00940083
54779K12N 12N20160506101510405/06/16 10:15:31  5-MIN K12N 061515Z AUTO 04004KT 09/08 A2972 770 93 300 050/04 RMK AO1 P0010 T00940083
54779K12N 12N20160506102010405/06/16 10:20:31  5-MIN K12N 061520Z AUTO 04006KT 09/08 A2972 770 93 300 050/06 RMK AO1 P0011 T00940083
54779K12N 12N20160506102510405/06/16 10:25:31  5-MIN K12N 061525Z AUTO 03005KT 09/08 A2972 770 93 300 050/05 RMK AO1 P0012 T00940083
54779K12N 12N20160506103010405/06/16 10:30:31  5-MIN K12N 061530Z AUTO 04005KT 10/09 A2973 760 93 400 050/05 RMK AO1 P0012 T01000089
54779K12N 12N20160506103510405/06/16 10:35:31  5-MIN K12N 061535Z AUTO VRB03KT 10/09 A2973 770 93 400 VRB/03 RMK AO1 P0012 T01000089
54779K12N 12N20160506104010405/06/16 10:40:31  5-MIN K12N 061540Z AUTO 04004KT 10/09 A2973 770 93 400 050/04 RMK AO1 P0013 T01000089
54779K12N 12N20160506104510405/06/16 10:45:31  5-MIN K12N 061545Z AUTO VRB03KT 10/09 A2973 770 93 400 VRB/03 RMK AO1 P0013 T01000089
54779K12N 12N20160506105011105/06/16 10:50:31  5-MIN K12N 061550Z AUTO 03004KT 10/09 A2972 770 93 400 040/04 RMK AO1 SLP067 P0013 T01000089
54779K12N 12N20160506105509805/06/16 10:55:31  5-MIN K12N 061555Z AUTO 04004KT 09/09 A2973 760 96 300 050/04 RMK AO1 T00940089
54779K12N 12N20160506110010405/06/16 11:00:31  5-MIN K12N 061600Z AUTO VRB03KT 10/09 A2973 760 93 400 VRB/03 RMK AO1 P0001 T01000089
54779K12N 12N20160506110510405/06/16 11:05:31  5-MIN K12N 061605Z AUTO VRB04KT 10/09 A2973 760 93 400 VRB/04 RMK AO1 P0001 T01000089
54779K12N 12N20160506111010405/06/16 11:10:31  5-MIN K12N 061610Z AUTO VRB03KT 10/09 A2972 770 96 400 VRB/03 RMK AO1 P0001 T01000094
54779K12N 12N20160506111510405/06/16 11:15:31  5-MIN K12N 061615Z AUTO 03004KT 11/10 A2972 770 96 500 040/04 RMK AO1 P0001 T01060100
54779K12N 12N20160506112010405/06/16 11:20:31  5-MIN K12N 061620Z AUTO VRB03KT 11/10 A2972 770 96 500 VRB/03 RMK AO1 P0001 T01060100
54779K12N 12N20160506112510405/06/16 11:25:31  5-MIN K12N 061625Z AUTO VRB05KT 11/10 A2971 780 96 500 VRB/05 RMK AO1 P0001 T01060100
54779K12N 12N20160506113010405/06/16 11:30:31  5-MIN K12N 061630Z AUTO VRB05KT 11/09 A2971 780 93 500 VRB/05 RMK AO1 P0001 T01060094
54779K12N 12N20160506113510405/06/16 11:35:31  5-MIN K12N 061635Z AUTO VRB03KT 11/09 A2971 780 93 500 VRB/03 RMK AO1 P0001 T01060094
54779K12N 12N20160506114010405/06/16 11:40:31  5-MIN K12N 061640Z AUTO 03005KT 11/09 A2971 780 93 500 040/05 RMK AO1 P0001 T01060094
54779K12N 12N20160506114510405/06/16 11:45:31  5-MIN K12N 061645Z AUTO VRB06KT 11/09 A2971 780 89 500 VRB/06 RMK AO1 P0001 T01060089
54779K12N 12N20160506115011105/06/16 11:50:31  5-MIN K12N 061650Z AUTO VRB06KT 11/09 A2972 780 93 500 VRB/06 RMK AO1 SLP063 P0001 T01060094
54779K12N 12N20160506115509805/06/16 11:55:31  5-MIN K12N 061655Z AUTO 03005KT 11/09 A2971 780 93 500 050/05 RMK AO1 T01060094
54779K12N 12N20160506120010405/06/16 12:00:31  5-MIN K12N 061700Z AUTO 04007KT 11/09 A2971 780 89 500 060/07 RMK AO1 P0001 T01110094
54779K12N 12N20160506120510405/06/16 12:05:31  5-MIN K12N 061705Z AUTO VRB06KT 11/09 A2971 780 93 500 VRB/06 RMK AO1 P0001 T01060094
54779K12N 12N20160506123510405/06/16 12:35:31  5-MIN K12N 061735Z AUTO 04006KT 11/09 A2971 780 93 500 050/06 RMK AO1 P0001 T01060094
54779K12N 12N20160506124010405/06/16 12:40:31  5-MIN K12N 061740Z AUTO 04005KT 11/09 A2971 780 93 500 050/05 RMK AO1 P0001 T01060094
54779K12N 12N20160506124510405/06/16 12:45:31  5-MIN K12N 061745Z AUTO 04006KT 11/09 A2971 780 93 500 050/06 RMK AO1 P0001 T01060094
54779K12N 12N20160506125013505/06/16 12:50:31  5-MIN K12N 061750Z AUTO VRB05KT 11/09 A2971 780 93 500 VRB/05 RMK AO1 SLP062 P0001 60038 T01060094 10111 20094 51003
54779K12N 12N20160506125509805/06/16 12:55:31  5-MIN K12N 061755Z AUTO VRB05KT 11/09 A2972 780 93 500 VRB/05 RMK AO1 T01060094
54779K12N 12N20160506130009805/06/16 13:00:31  5-MIN K12N 061800Z AUTO 04004KT 11/09 A2972 770 89 500 050/04 RMK AO1 T01110094
54779K12N 12N20160506130509805/06/16 13:05:31  5-MIN K12N 061805Z AUTO VRB05KT 11/09 A2972 770 93 500 VRB/05 RMK AO1 T01060094
54779K12N 12N20160506131009805/06/16 13:10:31  5-MIN K12N 061810Z AUTO VRB06KT 11/09 A2972 770 89 500 VRB/06 RMK AO1 T01110094
54779K12N 12N20160506131509805/06/16 13:15:31  5-MIN K12N 061815Z AUTO 03004KT 11/09 A2972 770 93 500 040/04 RMK AO1 T01060094
54779K12N 12N20160506132009805/06/16 13:20:31  5-MIN K12N 061820Z AUTO VRB04KT 11/09 A2972 770 89 500 VRB/04 RMK AO1 T01110094
54779K12N 12N20160506132509805/06/16 13:25:31  5-MIN K12N 061825Z AUTO 04005KT 11/09 A2972 770 93 500 050/05 RMK AO1 T01060094
54779K12N 12N20160506133009805/06/16 13:30:31  5-MIN K12N 061830Z AUTO VRB05KT 11/09 A2972 770 93 500 VRB/05 RMK AO1 T01060094
54779K12N 12N20160506133509805/06/16 13:35:31  5-MIN K12N 061835Z AUTO VRB04KT 11/09 A2972 770 93 500 VRB/04 RMK AO1 T01060094
54779K12N 12N20160506134009805/06/16 13:40:31  5-MIN K12N 061840Z AUTO VRB03KT 11/09 A2972 770 93 500 VRB/03 RMK AO1 T01060094
54779K12N 12N20160506134509805/06/16 13:45:31  5-MIN K12N 061845Z AUTO 04008KT 11/09 A2972 770 93 500 050/08 RMK AO1 T01060094
54779K12N 12N20160506135012105/06/16 13:50:31  5-MIN K12N 061850Z AUTO 04007KT 360V100 11/09 A2972 770 93 500 050/07 010V110 RMK AO1 SLP066 T01060094
54779K12N 12N20160506135509805/06/16 13:55:31  5-MIN K12N 061855Z AUTO VRB05KT 11/09 A2972 770 93 500 VRB/05 RMK AO1 T01060094
54779K12N 12N20160506140009805/06/16 14:00:31  5-MIN K12N 061900Z AUTO 04005KT 11/09 A2972 770 93 500 050/05 RMK AO1 T01060094
54779K12N 12N20160506140509805/06/16 14:05:31  5-MIN K12N 061905Z AUTO VRB06KT 11/09 A2972 770 89 500 VRB/06 RMK AO1 T01110094
54779K12N 12N20160506141009805/06/16 14:10:31  5-MIN K12N 061910Z AUTO VRB06KT 11/09 A2972 770 89 500 VRB/06 RMK AO1 T01110094
54779K12N 12N20160506141509805/06/16 14:15:31  5-MIN K12N 061915Z AUTO VRB03KT 11/09 A2972 770 89 500 VRB/03 RMK AO1 T01110094
54779K12N 12N20160506142008805/06/16 14:20:31  5-MIN K12N 061920Z AUTO 11/09 A2972 770 89 500 M /M RMK AO1 T01110094
54779K12N 12N20160506142511405/06/16 14:25:31  5-MIN K12N 061925Z AUTO 06007KT 030V090 11/09 A2972 780 89 500 080/07 040V100 RMK AO1 T01110094
54779K12N 12N20160506143011405/06/16 14:30:31  5-MIN K12N 061930Z AUTO 05007KT 030V100 11/09 A2971 780 89 500 070/07 040V110 RMK AO1 T01110094
54779K12N 12N20160506143509805/06/16 14:35:31  5-MIN K12N 061935Z AUTO VRB05KT 11/09 A2972 780 89 500 VRB/05 RMK AO1 T01110094
54779K12N 12N20160506144011405/06/16 14:40:31  5-MIN K12N 061940Z AUTO 07007KT 010V110 11/09 A2972 770 89 500 080/07 020V120 RMK AO1 T01110094
54779K12N 12N20160506144509805/06/16 14:45:31  5-MIN K12N 061945Z AUTO 04007KT 11/09 A2972 770 89 500 060/07 RMK AO1 T01110094
54779K12N 12N20160506145010505/06/16 14:50:31  5-MIN K12N 061950Z AUTO VRB03KT 11/09 A2972 770 89 500 VRB/03 RMK AO1 SLP066 T01110094
54779K12N 12N20160506145509805/06/16 14:55:31  5-MIN K12N 061955Z AUTO VRB06KT 12/09 A2972 770 86 600 VRB/06 RMK AO1 T01170094
54779K12N 12N20160506150009805/06/16 15:00:31  5-MIN K12N 062000Z AUTO 04006KT 12/09 A2972 770 86 600 050/06 RMK AO1 T01170094
54779K12N 12N20160506150512005/06/16 15:05:31  5-MIN K12N 062005Z AUTO 06008G17KT 030V130 12/09 A2972 770 86 600 080/08G17 040V140 RMK AO1 T01170094
54779K12N 12N20160506151012005/06/16 15:10:31  5-MIN K12N 062010Z AUTO 06007G17KT 010V130 12/09 A2972 780 86 600 070/07G17 020V140 RMK AO1 T01170094
54779K12N 12N20160506151509805/06/16 15:15:31  5-MIN K12N 062015Z AUTO VRB04KT 12/09 A2972 770 86 600 VRB/04 RMK AO1 T01170094
54779K12N 12N20160506152009805/06/16 15:20:31  5-MIN K12N 062020Z AUTO VRB04KT 12/09 A2972 770 86 600 VRB/04 RMK AO1 T01170094
54779K12N 12N20160506152509805/06/16 15:25:31  5-MIN K12N 062025Z AUTO 07008KT 11/09 A2972 770 89 500 080/08 RMK AO1 T01110094
54779K12N 12N20160506153009805/06/16 15:30:31  5-MIN K12N 062030Z AUTO VRB03KT 11/09 A2972 770 89 500 VRB/03 RMK AO1 T01110094
54779K12N 12N20160506153509805/06/16 15:35:31  5-MIN K12N 062035Z AUTO VRB06KT 11/09 A2972 770 89 500 VRB/06 RMK AO1 T01110094
54779K12N 12N20160506154009805/06/16 15:40:31  5-MIN K12N 062040Z AUTO VRB06KT 11/09 A2972 770 89 500 VRB/06 RMK AO1 T01110094
54779K12N 12N20160506154508805/06/16 15:45:31  5-MIN K12N 062045Z AUTO 11/09 A2972 770 89 500 M /M RMK AO1 T01110094
54779K12N 12N20160506155010105/06/16 15:50:31  5-MIN K12N 062050Z AUTO 11/09 A2972 780 89 500 M /M RMK AO1 SLP063 T01110094 51006
54779K12N 12N20160506155509805/06/16 15:55:31  5-MIN K12N 062055Z AUTO VRB05KT 11/09 A2972 770 89 500 VRB/05 RMK AO1 T01110094
54779K12N 12N20160506160009805/06/16 16:00:31  5-MIN K12N 062100Z AUTO VRB06KT 11/09 A2972 770 89 500 VRB/06 RMK AO1 T01110094
54779K12N 12N20160506160509805/06/16 16:05:31  5-MIN K12N 062105Z AUTO VRB04KT 11/09 A2972 770 89 500 VRB/04 RMK AO1 T01110094
54779K12N 12N20160506161009805/06/16 16:10:31  5-MIN K12N 062110Z AUTO VRB06KT 11/09 A2972 770 89 500 VRB/06 RMK AO1 T01110094
54779K12N 12N20160506161509805/06/16 16:15:31  5-MIN K12N 062115Z AUTO VRB04KT 11/09 A2972 770 89 500 VRB/04 RMK AO1 T01110094
54779K12N 12N20160506162009805/06/16 16:20:31  5-MIN K12N 062120Z AUTO VRB03KT 11/09 A2973 760 89 500 VRB/03 RMK AO1 T01110094
54779K12N 12N20160506162509805/06/16 16:25:31  5-MIN K12N 062125Z AUTO VRB04KT 11/09 A2973 760 89 500 VRB/04 RMK AO1 T01110094
54779K12N 12N20160506163009805/06/16 16:30:31  5-MIN K12N 062130Z AUTO VRB04KT 11/09 A2973 760 89 500 VRB/04 RMK AO1 T01110094
54779K12N 12N20160506163509805/06/16 16:35:31  5-MIN K12N 062135Z AUTO VRB03KT 11/09 A2973 760 89 500 VRB/03 RMK AO1 T01110094
54779K12N 12N20160506164009805/06/16 16:40:31  5-MIN K12N 062140Z AUTO VRB03KT 11/09 A2973 760 89 500 VRB/03 RMK AO1 T01110094
54779K12N 12N20160506164509805/06/16 16:45:31  5-MIN K12N 062145Z AUTO VRB06KT 11/09 A2973 760 89 500 VRB/06 RMK AO1 T01110094
54779K12N 12N20160506165010505/06/16 16:50:31  5-MIN K12N 062150Z AUTO 00000KT 11/09 A2973 760 89 500 000/00 RMK AO1 SLP070 T01110094
54779K12N 12N20160506165508805/06/16 16:55:31  5-MIN K12N 062155Z AUTO 11/09 A2973 760 89 500 M /M RMK AO1 T01110094
54779K12N 12N20160506170008805/06/16 17:00:31  5-MIN K12N 062200Z AUTO 11/09 A2973 760 89 500 M /M RMK AO1 T01110094
54779K12N 12N20160506170509805/06/16 17:05:31  5-MIN K12N 062205Z AUTO VRB05KT 11/09 A2974 750 86 500 VRB/05 RMK AO1 T01110089
54779K12N 12N20160506171009805/06/16 17:10:31  5-MIN K12N 062210Z AUTO VRB03KT 11/09 A2973 760 89 500 VRB/03 RMK AO1 T01110094
54779K12N 12N20160506171509805/06/16 17:15:31  5-MIN K12N 062215Z AUTO 00000KT 11/09 A2974 750 89 500 000/00 RMK AO1 T01110094
54779K12N 12N20160506172009805/06/16 17:20:31  5-MIN K12N 062220Z AUTO 00000KT 11/09 A2974 760 89 500 000/00 RMK AO1 T01110094
54779K12N 12N20160506172509805/06/16 17:25:31  5-MIN K12N 062225Z AUTO VRB03KT 11/09 A2974 750 89 500 VRB/03 RMK AO1 T01110094
54779K12N 12N20160506173009805/06/16 17:30:31  5-MIN K12N 062230Z AUTO 00000KT 11/09 A2975 740 86 500 000/00 RMK AO1 T01110089
54779K12N 12N20160506173509805/06/16 17:35:31  5-MIN K12N 062235Z AUTO VRB06KT 11/09 A2975 740 86 500 VRB/06 RMK AO1 T01110089
54779K12N 12N20160506174011405/06/16 17:40:31  5-MIN K12N 062240Z AUTO 07007KT 030V100 11/09 A2975 750 86 500 080/07 040V110 RMK AO1 T01110089
54779K12N 12N20160506174509805/06/16 17:45:31  5-MIN K12N 062245Z AUTO VRB04KT 11/09 A2975 740 86 500 VRB/04 RMK AO1 T01110089
54779K12N 12N20160506175010505/06/16 17:50:31  5-MIN K12N 062250Z AUTO VRB03KT 11/09 A2975 740 86 500 VRB/03 RMK AO1 SLP076 T01110089
54779K12N 12N20160506175509805/06/16 17:55:31  5-MIN K12N 062255Z AUTO VRB03KT 11/09 A2976 740 86 500 VRB/03 RMK AO1 T01110089
54779K12N 12N20160506180009805/06/16 18:00:31  5-MIN K12N 062300Z AUTO VRB03KT 11/09 A2975 740 86 500 VRB/03 RMK AO1 T01110089
54779K12N 12N20160506180509805/06/16 18:05:31  5-MIN K12N 062305Z AUTO VRB03KT 11/09 A2975 750 89 400 VRB/03 RMK AO1 T01060089
54779K12N 12N20160506181009805/06/16 18:10:31  5-MIN K12N 062310Z AUTO VRB04KT 11/09 A2975 740 89 400 VRB/04 RMK AO1 T01060089
54779K12N 12N20160506181509805/06/16 18:15:31  5-MIN K12N 062315Z AUTO VRB03KT 11/09 A2975 740 89 400 VRB/03 RMK AO1 T01060089
54779K12N 12N20160506182009805/06/16 18:20:31  5-MIN K12N 062320Z AUTO VRB03KT 11/09 A2975 740 89 400 VRB/03 RMK AO1 T01060089
54779K12N 12N20160506182509805/06/16 18:25:31  5-MIN K12N 062325Z AUTO VRB03KT 11/09 A2975 740 89 400 VRB/03 RMK AO1 T01060089
54779K12N 12N20160506183009805/06/16 18:30:31  5-MIN K12N 062330Z AUTO 05005KT 11/09 A2976 740 89 400 070/05 RMK AO1 T01060089
54779K12N 12N20160506183509805/06/16 18:35:31  5-MIN K12N 062335Z AUTO VRB03KT 11/09 A2976 740 89 400 VRB/03 RMK AO1 T01060089
54779K12N 12N20160506184008805/06/16 18:40:31  5-MIN K12N 062340Z AUTO 11/09 A2976 740 89 400 M /M RMK AO1 T01060089
54779K12N 12N20160506184509805/06/16 18:45:31  5-MIN K12N 062345Z AUTO 04004KT 11/09 A2976 740 89 400 050/04 RMK AO1 T01060089
54779K12N 12N20160506185012305/06/16 18:50:31  5-MIN K12N 062350Z AUTO 04005KT 11/09 A2976 730 89 400 050/05 RMK AO1 SLP080 T01060089 10117 20106 50001
54779K12N 12N20160506185509805/06/16 18:55:31  5-MIN K12N 062355Z AUTO 07003KT 10/09 A2976 730 93 300 080/03 RMK AO1 T01000089
54779K12N 12N20160506190009805/06/16 19:00:31  5-MIN K12N 070000Z AUTO VRB04KT 10/09 A2976 730 93 300 VRB/04 RMK AO1 T01000089
54779K12N 12N20160506190509805/06/16 19:05:31  5-MIN K12N 070005Z AUTO VRB03KT 10/09 A2977 730 93 300 VRB/03 RMK AO1 T01000089
54779K12N 12N20160506191009805/06/16 19:10:31  5-MIN K12N 070010Z AUTO VRB03KT 10/09 A2977 720 93 300 VRB/03 RMK AO1 T01000089
54779K12N 12N20160506191509805/06/16 19:15:31  5-MIN K12N 070015Z AUTO 05004KT 10/09 A2977 720 93 300 060/04 RMK AO1 T01000089
54779K12N 12N20160506192009805/06/16 19:20:31  5-MIN K12N 070020Z AUTO 00000KT 10/09 A2977 720 93 300 000/00 RMK AO1 T01000089
54779K12N 12N20160506192509805/06/16 19:25:31  5-MIN K12N 070025Z AUTO 04004KT 10/09 A2978 720 93 300 050/04 RMK AO1 T01000089
54779K12N 12N20160506193009805/06/16 19:30:31  5-MIN K12N 070030Z AUTO VRB05KT 10/09 A2978 720 93 300 VRB/05 RMK AO1 T01000089
54779K12N 12N20160506193509805/06/16 19:35:31  5-MIN K12N 070035Z AUTO 04004KT 10/09 A2978 720 93 300 050/04 RMK AO1 T01000089
54779K12N 12N20160506194009805/06/16 19:40:31  5-MIN K12N 070040Z AUTO VRB03KT 10/09 A2978 720 93 300 VRB/03 RMK AO1 T01000089
54779K12N 12N20160506194510405/06/16 19:45:31  5-MIN K12N 070045Z AUTO VRB04KT 10/09 A2978 720 93 300 VRB/04 RMK AO1 P0001 T01000089
54779K12N 12N20160506195011105/06/16 19:50:31  5-MIN K12N 070050Z AUTO 03004KT 10/09 A2978 720 93 300 050/04 RMK AO1 SLP086 P0001 T01000089
54779K12N 12N20160506195509805/06/16 19:55:31  5-MIN K12N 070055Z AUTO 03004KT 10/08 A2978 720 89 300 040/04 RMK AO1 T01000083
54779K12N 12N20160506200009805/06/16 20:00:31  5-MIN K12N 070100Z AUTO 04004KT 10/08 A2978 710 89 300 050/04 RMK AO1 T01000083
54779K12N 12N20160506200509805/06/16 20:05:31  5-MIN K12N 070105Z AUTO VRB03KT 10/08 A2978 710 89 300 VRB/03 RMK AO1 T01000083
54779K12N 12N20160506201009805/06/16 20:10:31  5-MIN K12N 070110Z AUTO 00000KT 10/08 A2979 710 89 300 000/00 RMK AO1 T01000083
54779K12N 12N20160506201509805/06/16 20:15:31  5-MIN K12N 070115Z AUTO VRB03KT 10/09 A2979 710 93 300 VRB/03 RMK AO1 T01000089
54779K12N 12N20160506202009805/06/16 20:20:31  5-MIN K12N 070120Z AUTO VRB03KT 10/08 A2979 710 89 300 VRB/03 RMK AO1 T01000083
54779K12N 12N20160506202509805/06/16 20:25:31  5-MIN K12N 070125Z AUTO VRB03KT 10/08 A2979 710 89 300 VRB/03 RMK AO1 T01000083
54779K12N 12N20160506203009805/06/16 20:30:31  5-MIN K12N 070130Z AUTO VRB05KT 10/08 A2979 710 89 300 VRB/05 RMK AO1 T01000083
54779K12N 12N20160506203509805/06/16 20:35:31  5-MIN K12N 070135Z AUTO 04003KT 10/08 A2979 700 89 300 050/03 RMK AO1 T01000083
54779K12N 12N20160506204009805/06/16 20:40:31  5-MIN K12N 070140Z AUTO VRB03KT 10/08 A2980 700 89 300 VRB/03 RMK AO1 T01000083
54779K12N 12N20160506204509805/06/16 20:45:31  5-MIN K12N 070145Z AUTO VRB04KT 10/08 A2979 700 89 300 VRB/04 RMK AO1 T01000083
54779K12N 12N20160506205010505/06/16 20:50:31  5-MIN K12N 070150Z AUTO 07004KT 10/08 A2980 700 89 300 080/04 RMK AO1 SLP091 T01000083
54779K12N 12N20160506205509805/06/16 20:55:31  5-MIN K12N 070155Z AUTO VRB03KT 10/08 A2980 700 89 300 VRB/03 RMK AO1 T01000083
54779K12N 12N20160506210009805/06/16 21:00:31  5-MIN K12N 070200Z AUTO 00000KT 10/08 A2979 700 89 300 000/00 RMK AO1 T01000083
54779K12N 12N20160506210509805/06/16 21:05:31  5-MIN K12N 070205Z AUTO 00000KT 10/08 A2979 700 89 300 000/00 RMK AO1 T01000083
54779K12N 12N20160506211009805/06/16 21:10:31  5-MIN K12N 070210Z AUTO 00000KT 10/08 A2980 700 89 300 000/00 RMK AO1 T01000083
54779K12N 12N20160506211508805/06/16 21:15:31  5-MIN K12N 070215Z AUTO 10/08 A2979 700 89 300 M /M RMK AO1 T01000083
54779K12N 12N20160506212009805/06/16 21:20:31  5-MIN K12N 070220Z AUTO VRB03KT 10/08 A2979 700 89 300 VRB/03 RMK AO1 T01000083
54779K12N 12N20160506212509805/06/16 21:25:31  5-MIN K12N 070225Z AUTO 06003KT 09/08 A2979 700 93 200 080/03 RMK AO1 T00940083
54779K12N 12N20160506213009805/06/16 21:30:31  5-MIN K12N 070230Z AUTO 00000KT 09/08 A2980 700 93 200 000/00 RMK AO1 T00940083
54779K12N 12N20160506213509805/06/16 21:35:31  5-MIN K12N 070235Z AUTO 00000KT 09/08 A2980 700 93 200 000/00 RMK AO1 T00940083
54779K12N 12N20160506214009805/06/16 21:40:31  5-MIN K12N 070240Z AUTO VRB03KT 09/08 A2980 700 93 200 VRB/03 RMK AO1 T00940083
54779K12N 12N20160506214509805/06/16 21:45:31  5-MIN K12N 070245Z AUTO VRB04KT 09/08 A2980 700 93 200 VRB/04 RMK AO1 T00940083
54779K12N 12N20160506215011705/06/16 21:50:31  5-MIN K12N 070250Z AUTO VRB04KT 09/08 A2980 700 89 200 VRB/04 RMK AO1 SLP093 60001 T00940078 51016
54779K12N 12N20160506215509805/06/16 21:55:31  5-MIN K12N 070255Z AUTO 05005KT 09/08 A2980 700 89 200 060/05 RMK AO1 T00940078
54779K12N 12N20160506220009805/06/16 22:00:31  5-MIN K12N 070300Z AUTO VRB04KT 09/08 A2980 700 89 200 VRB/04 RMK AO1 T00940078
54779K12N 12N20160506220509805/06/16 22:05:31  5-MIN K12N 070305Z AUTO 00000KT 09/08 A2980 700 89 200 000/00 RMK AO1 T00940078
54779K12N 12N20160506221009805/06/16 22:10:31  5-MIN K12N 070310Z AUTO VRB03KT 09/08 A2980 700 89 200 VRB/03 RMK AO1 T00940078
54779K12N 12N20160506221509805/06/16 22:15:31  5-MIN K12N 070315Z AUTO 00000KT 09/08 A2980 700 89 200 000/00 RMK AO1 T00940078
54779K12N 12N20160506222009805/06/16 22:20:31  5-MIN K12N 070320Z AUTO VRB05KT 09/08 A2980 700 89 200 VRB/05 RMK AO1 T00940078
54779K12N 12N20160506222509805/06/16 22:25:31  5-MIN K12N 070325Z AUTO VRB04KT 09/08 A2980 700 89 200 VRB/04 RMK AO1 T00940078
54779K12N 12N20160506223009805/06/16 22:30:31  5-MIN K12N 070330Z AUTO 06003KT 09/08 A2980 700 89 200 080/03 RMK AO1 T00940078
54779K12N 12N20160506223509805/06/16 22:35:31  5-MIN K12N 070335Z AUTO VRB03KT 09/08 A2980 700 89 200 VRB/03 RMK AO1 T00940078
54779K12N 12N20160506224009805/06/16 22:40:31  5-MIN K12N 070340Z AUTO 05004KT 09/08 A2980 700 89 200 060/04 RMK AO1 T00940078
54779K12N 12N20160506224509805/06/16 22:45:31  5-MIN K12N 070345Z AUTO 00000KT 09/08 A2980 700 89 200 000/00 RMK AO1 T00940078
54779K12N 12N20160506225010505/06/16 22:50:31  5-MIN K12N 070350Z AUTO VRB03KT 09/08 A2980 700 89 200 VRB/03 RMK AO1 SLP092 T00940078
54779K12N 12N20160506225509805/06/16 22:55:31  5-MIN K12N 070355Z AUTO 08003KT 09/08 A2980 700 89 200 090/03 RMK AO1 T00940078
54779K12N 12N20160506230009805/06/16 23:00:31  5-MIN K12N 070400Z AUTO VRB03KT 09/08 A2980 700 89 200 VRB/03 RMK AO1 T00940078
54779K12N 12N20160506230509805/06/16 23:05:31  5-MIN K12N 070405Z AUTO 00000KT 09/08 A2980 700 89 200 000/00 RMK AO1 T00940078
54779K12N 12N20160506231009805/06/16 23:10:31  5-MIN K12N 070410Z AUTO 00000KT 09/08 A2980 690 89 200 000/00 RMK AO1 T00940078
54779K12N 12N20160506231509805/06/16 23:15:31  5-MIN K12N 070415Z AUTO VRB04KT 09/08 A2980 690 89 200 VRB/04 RMK AO1 T00940078
54779K12N 12N20160506232009805/06/16 23:20:31  5-MIN K12N 070420Z AUTO VRB03KT 09/08 A2980 690 89 200 VRB/03 RMK AO1 T00940078
54779K12N 12N20160506232509805/06/16 23:25:31  5-MIN K12N 070425Z AUTO VRB03KT 09/08 A2980 700 89 200 VRB/03 RMK AO1 T00940078
54779K12N 12N20160506233009805/06/16 23:30:31  5-MIN K12N 070430Z AUTO 00000KT 09/08 A2980 700 89 200 000/00 RMK AO1 T00940078
54779K12N 12N20160506233509805/06/16 23:35:31  5-MIN K12N 070435Z AUTO 00000KT 09/08 A2980 700 89 200 000/00 RMK AO1 T00940078
54779K12N 12N20160506234009805/06/16 23:40:31  5-MIN K12N 070440Z AUTO 00000KT 09/08 A2980 700 89 200 000/00 RMK AO1 T00940078
54779K12N 12N20160506234509805/06/16 23:45:31  5-MIN K12N 070445Z AUTO 00000KT 09/08 A2980 700 89 200 000/00 RMK AO1 T00940078
54779K12N 12N20160506235011505/06/16 23:50:31  5-MIN K12N 070450Z AUTO 04003KT 09/08 A2980 700 89 200 060/03 RMK AO1 SLP093 T00940078 401170094
54779K12N 12N20160506235509805/06/16 23:55:31  5-MIN K12N 070455Z AUTO 03004KT 09/08 A2980 700 89 200 040/04 RMK AO1 T00940078
54779K12N 12N20160507000009805/07/16 00:00:31  5-MIN K12N 070500Z AUTO 00000KT 09/08 A2980 700 89 200 000/00 RMK AO1 T00940078
54779K12N 12N20160507000509805/07/16 00:05:31  5-MIN K12N 070505Z AUTO VRB03KT 09/08 A2980 700 89 200 VRB/03 RMK AO1 T00940078
54779K12N 12N20160507001009805/07/16 00:10:31  5-MIN K12N 070510Z AUTO 05003KT 09/08 A2980 700 89 200 070/03 RMK AO1 T00940078
54779K12N 12N20160507001509805/07/16 00:15:31  5-MIN K12N 070515Z AUTO VRB03KT 09/08 A2980 700 89 200 VRB/03 RMK AO1 T00940078
54779K12N 12N20160507002009805/07/16 00:20:31  5-MIN K12N 070520Z AUTO 04003KT 09/08 A2980 700 89 200 050/03 RMK AO1 T00940078
54779K12N 12N20160507002509805/07/16 00:25:31  5-MIN K12N 070525Z AUTO 03003KT 09/08 A2979 700 89 200 040/03 RMK AO1 T00940078
54779K12N 12N20160507003009805/07/16 00:30:31  5-MIN K12N 070530Z AUTO 00000KT 09/08 A2980 700 89 200 000/00 RMK AO1 T00940078
54779K12N 12N20160507201510005/07/16 20:15:31  5-MIN K12N 080115Z AUTO 00000KT 11/10 A2973 770 93 500 000/00 RMK AO1 T01110100 $
54779K12N 12N20160507202010005/07/16 20:20:31  5-MIN K12N 080120Z AUTO 00000KT 11/09 A2973 770 89 500 000/00 RMK AO1 T01110094 $
54779K12N 12N20160507202510005/07/16 20:25:31  5-MIN K12N 080125Z AUTO 00000KT 11/09 A2973 770 93 500 000/00 RMK AO1 T01060094 $
54779K12N 12N20160507203010005/07/16 20:30:31  5-MIN K12N 080130Z AUTO 00000KT 11/09 A2973 770 93 500 000/00 RMK AO1 T01060094 $
54779K12N 12N20160507203510005/07/16 20:35:31  5-MIN K12N 080135Z AUTO 00000KT 11/09 A2972 770 93 500 000/00 RMK AO1 T01060094 $
54779K12N 12N20160507204010005/07/16 20:40:31  5-MIN K12N 080140Z AUTO 00000KT 10/09 A2972 770 93 400 000/00 RMK AO1 T01000089 $
54779K12N 12N20160507204510005/07/16 20:45:31  5-MIN K12N 080145Z AUTO 00000KT 10/09 A2972 770 93 400 000/00 RMK AO1 T01000089 $
54779K12N 12N20160507205010705/07/16 20:50:31  5-MIN K12N 080150Z AUTO 00000KT 10/09 A2972 770 93 400 000/00 RMK AO1 SLP067 T01000089 $
54779K12N 12N20160507205510005/07/16 20:55:31  5-MIN K12N 080155Z AUTO 00000KT 10/09 A2972 770 93 400 000/00 RMK AO1 T01000089 $
54779K12N 12N20160507210010005/07/16 21:00:31  5-MIN K12N 080200Z AUTO 00000KT 10/08 A2972 770 89 400 000/00 RMK AO1 T01000083 $
54779K12N 12N20160507210510005/07/16 21:05:31  5-MIN K12N 080205Z AUTO 00000KT 10/09 A2972 770 93 400 000/00 RMK AO1 T01000089 $
54779K12N 12N20160507211010005/07/16 21:10:31  5-MIN K12N 080210Z AUTO 00000KT 09/08 A2972 770 93 300 000/00 RMK AO1 T00940083 $
54779K12N 12N20160507211510005/07/16 21:15:31  5-MIN K12N 080215Z AUTO 00000KT 09/08 A2972 770 93 300 000/00 RMK AO1 T00940083 $
54779K12N 12N20160507212010005/07/16 21:20:31  5-MIN K12N 080220Z AUTO 00000KT 09/08 A2972 770 96 300 000/00 RMK AO1 T00890083 $
54779K12N 12N20160507212510005/07/16 21:25:31  5-MIN K12N 080225Z AUTO 00000KT 09/08 A2972 770 96 300 000/00 RMK AO1 T00890083 $
54779K12N 12N20160507213010005/07/16 21:30:31  5-MIN K12N 080230Z AUTO 00000KT 09/08 A2972 770 96 300 000/00 RMK AO1 T00890083 $
54779K12N 12N20160507213510005/07/16 21:35:31  5-MIN K12N 080235Z AUTO 00000KT 09/08 A2972 770 96 300 000/00 RMK AO1 T00890083 $
54779K12N 12N20160507214010005/07/16 21:40:31  5-MIN K12N 080240Z AUTO 00000KT 09/08 A2972 770 96 300 000/00 RMK AO1 T00890083 $
54779K12N 12N20160507214510005/07/16 21:45:31  5-MIN K12N 080245Z AUTO 00000KT 09/08 A2972 770 93 300 000/00 RMK AO1 T00890078 $
54779K12N 12N20160507215011305/07/16 21:50:31  5-MIN K12N 080250Z AUTO 00000KT 09/08 A2972 770 93 300 000/00 RMK AO1 SLP065 T00890078 55001 $
54779K12N 12N20160507215510005/07/16 21:55:31  5-MIN K12N 080255Z AUTO 00000KT 08/08 A2972 770 96 200 000/00 RMK AO1 T00830078 $
54779K12N 12N20160507220010005/07/16 22:00:31  5-MIN K12N 080300Z AUTO 00000KT 08/07 A2972 770 93 200 000/00 RMK AO1 T00830072 $
54779K12N 12N20160507220510005/07/16 22:05:31  5-MIN K12N 080305Z AUTO 00000KT 09/08 A2971 780 93 300 000/00 RMK AO1 T00890078 $
54779K12N 12N20160507221010005/07/16 22:10:31  5-MIN K12N 080310Z AUTO 00000KT 09/08 A2971 780 93 300 000/00 RMK AO1 T00890078 $
54779K12N 12N20160507221510005/07/16 22:15:31  5-MIN K12N 080315Z AUTO 00000KT 08/08 A2971 780 96 200 000/00 RMK AO1 T00830078 $
54779K12N 12N20160507222010005/07/16 22:20:31  5-MIN K12N 080320Z AUTO 00000KT 08/08 A2971 780 96 200 000/00 RMK AO1 T00830078 $
54779K12N 12N20160507222510005/07/16 22:25:31  5-MIN K12N 080325Z AUTO 00000KT 08/07 A2971 780 93 200 000/00 RMK AO1 T00830072 $
54779K12N 12N20160507223010005/07/16 22:30:31  5-MIN K12N 080330Z AUTO 00000KT 08/07 A2971 780 96 100 000/00 RMK AO1 T00780072 $
54779K12N 12N20160507223510005/07/16 22:35:31  5-MIN K12N 080335Z AUTO 00000KT 08/07 A2971 780 93 100 000/00 RMK AO1 T00780067 $
54779K12N 12N20160507224010005/07/16 22:40:31  5-MIN K12N 080340Z AUTO 00000KT 08/07 A2970 790 93 100 000/00 RMK AO1 T00780067 $
54779K12N 12N20160507224510005/07/16 22:45:31  5-MIN K12N 080345Z AUTO 00000KT 08/07 A2970 790 96 100 000/00 RMK AO1 T00780072 $
54779K12N 12N20160507225010705/07/16 22:50:31  5-MIN K12N 080350Z AUTO 00000KT 08/07 A2971 780 96 100 000/00 RMK AO1 SLP062 T00780072 $
54779K12N 12N20160507225510005/07/16 22:55:31  5-MIN K12N 080355Z AUTO 00000KT 08/07 A2971 780 96 100 000/00 RMK AO1 T00780072 $
54779K12N 12N20160507230010005/07/16 23:00:31  5-MIN K12N 080400Z AUTO 00000KT 08/07 A2971 780 96 100 000/00 RMK AO1 T00780072 $
54779K12N 12N20160507230510005/07/16 23:05:31  5-MIN K12N 080405Z AUTO 00000KT 07/07 A2971 780 96 100 000/00 RMK AO1 T00720067 $
54779K12N 12N20160507231010005/07/16 23:10:31  5-MIN K12N 080410Z AUTO 00000KT 08/07 A2971 780 93 100 000/00 RMK AO1 T00780067 $
54779K12N 12N20160507231510005/07/16 23:15:31  5-MIN K12N 080415Z AUTO 00000KT 08/07 A2971 780 93 100 000/00 RMK AO1 T00780067 $
54779K12N 12N20160507232010005/07/16 23:20:31  5-MIN K12N 080420Z AUTO 20003KT 08/07 A2971 780 93 100 210/03 RMK AO1 T00780067 $
54779K12N 12N20160507232510005/07/16 23:25:31  5-MIN K12N 080425Z AUTO 00000KT 08/07 A2971 780 96 100 000/00 RMK AO1 T00780072 $
54779K12N 12N20160507233010005/07/16 23:30:31  5-MIN K12N 080430Z AUTO 00000KT 08/07 A2971 780 96 100 000/00 RMK AO1 T00780072 $
54779K12N 12N20160507233510005/07/16 23:35:31  5-MIN K12N 080435Z AUTO 00000KT 07/07 A2971 780 96 100 000/00 RMK AO1 T00720067 $
54779K12N 12N20160507234010005/07/16 23:40:31  5-MIN K12N 080440Z AUTO 22003KT 07/07 A2971 780 96 100 240/03 RMK AO1 T00720067 $
54779K12N 12N20160507234510005/07/16 23:45:31  5-MIN K12N 080445Z AUTO 21003KT 08/07 A2971 780 93 100 230/03 RMK AO1 T00780067 $
54779K12N 12N20160507235011705/07/16 23:50:31  5-MIN K12N 080450Z AUTO 21003KT 08/07 A2972 780 96 100 230/03 RMK AO1 SLP064 T00780072 401440072 $
54779K12N 12N20160507235510005/07/16 23:55:31  5-MIN K12N 080455Z AUTO 00000KT 07/07 A2971 780 96 100 000/00 RMK AO1 T00720067 $
54779K12N 12N20160508000009905/08/16 00:00:31  5-MIN K12N 080500Z AUTO 00000KT 07/07 A2971 780 100 0 000/00 RMK AO1 T00670067 $
54779K12N 12N20160508000509805/08/16 00:05:31  5-MIN K12N 080505Z AUTO 00000KT 07/06 A2971 780 96 0 000/00 RMK AO1 T00670061 $
54779K12N 12N20160508001009805/08/16 00:10:31  5-MIN K12N 080510Z AUTO 00000KT 07/06 A2971 780 96 0 000/00 RMK AO1 T00670061 $
54779K12N 12N20160508001509805/08/16 00:15:31  5-MIN K12N 080515Z AUTO 00000KT 07/06 A2970 790 93 0 000/00 RMK AO1 T00670056 $
54779K12N 12N20160508002009805/08/16 00:20:31  5-MIN K12N 080520Z AUTO 21003KT 07/06 A2971 780 93 0 230/03 RMK AO1 T00670056 $
54779K12N 12N20160508002509805/08/16 00:25:31  5-MIN K12N 080525Z AUTO 00000KT 07/06 A2970 790 96 0 000/00 RMK AO1 T00670061 $
54779K12N 12N20160508003009805/08/16 00:30:31  5-MIN K12N 080530Z AUTO 23003KT 07/06 A2970 790 96 0 240/03 RMK AO1 T00670061 $
54779K12N 12N20160508003510005/08/16 00:35:31  5-MIN K12N 080535Z AUTO 22003KT 07/06 A2970 790 93 100 230/03 RMK AO1 T00720061 $
54779K12N 12N20160508004010005/08/16 00:40:31  5-MIN K12N 080540Z AUTO 20003KT 07/07 A2969 790 96 100 210/03 RMK AO1 T00720067 $
54779K12N 12N20160508004510005/08/16 00:45:31  5-MIN K12N 080545Z AUTO 21003KT 07/07 A2969 800 96 100 230/03 RMK AO1 T00720067 $
54779K12N 12N20160508005012505/08/16 00:50:31  5-MIN K12N 080550Z AUTO 00000KT 07/07 A2969 800 96 100 000/00 RMK AO1 SLP056 T00720067 10122 20067 58003 $
54779K12N 12N20160508005509905/08/16 00:55:31  5-MIN K12N 080555Z AUTO 00000KT 07/07 A2969 800 100 0 000/00 RMK AO1 T00670067 $
54779K12N 12N20160508010009805/08/16 01:00:31  5-MIN K12N 080600Z AUTO 00000KT 07/06 A2969 800 96 0 000/00 RMK AO1 T00670061 $
54779K12N 12N20160508010509805/08/16 01:05:31  5-MIN K12N 080605Z AUTO 00000KT 07/06 A2969 800 96 0 000/00 RMK AO1 T00670061 $
54779K12N 12N20160508011010005/08/16 01:10:31  5-MIN K12N 080610Z AUTO 00000KT 07/07 A2969 800 96 100 000/00 RMK AO1 T00720067 $
54779K12N 12N20160508011510005/08/16 01:15:31  5-MIN K12N 080615Z AUTO 00000KT 07/07 A2968 810 96 100 000/00 RMK AO1 T00720067 $
54779K12N 12N20160508012010005/08/16 01:20:31  5-MIN K12N 080620Z AUTO 22003KT 07/07 A2968 810 96 100 230/03 RMK AO1 T00720067 $
54779K12N 12N20160508012510005/08/16 01:25:31  5-MIN K12N 080625Z AUTO 00000KT 08/07 A2969 800 96 200 000/00 RMK AO1 T00780072 $
54779K12N 12N20160508013010105/08/16 01:30:31  5-MIN K12N 080630Z AUTO 00000KT 07/07 A2968 810 100 100 000/00 RMK AO1 T00720072 $
54779K12N 12N20160508013510105/08/16 01:35:31  5-MIN K12N 080635Z AUTO 00000KT 07/07 A2968 810 100 100 000/00 RMK AO1 T00720072 $
54779K12N 12N20160508014010005/08/16 01:40:31  5-MIN K12N 080640Z AUTO 00000KT 08/07 A2968 810 96 200 000/00 RMK AO1 T00780072 $
54779K12N 12N20160508014510005/08/16 01:45:31  5-MIN K12N 080645Z AUTO 00000KT 08/07 A2968 810 96 200 000/00 RMK AO1 T00780072 $
54779K12N 12N20160508015010705/08/16 01:50:31  5-MIN K12N 080650Z AUTO 00000KT 08/07 A2967 810 96 200 000/00 RMK AO1 SLP050 T00780072 $
54779K12N 12N20160508015510005/08/16 01:55:31  5-MIN K12N 080655Z AUTO 00000KT 08/07 A2967 820 96 200 000/00 RMK AO1 T00780072 $
54779K12N 12N20160508020010205/08/16 02:00:31  5-MIN K12N 080700Z AUTO 00000KT 08/08 A2967 820 96 200 000/00 RMK AO1 T00830078 $0 
54779K12N 12N20160508054511605/08/16 05:45:31  5-MIN K12N 081045Z AU A2963 850 93 500 VRB/05 RMK AO1 P0010 T01000089 $KT 10/09 A2962 860 93 500 
54779K12N 12N20160508061505005/08/16 06:15:31  5-MIN K12N 081115Z AUTO 220050 
54779K12N 12N20160508062005005/08/16 06:20:31  5-MIN K12N 081120Z AUTO 230050 
54779K12N 12N20160508062505005/08/16 06:25:31  5-MIN K12N 081125Z AUTO 210040 
54779K12N 12N20160508063040705/08/16 06:30:31  5-MIN K12N 081130Z AUTO VRB03 A2964 840 96 500 VRB/03 R230/04 RMK AO1 P05/08/16 06:45:3TO 210030 MK AO1 P $05/08/16 07:10:3 A2965 840 96 5001060100 $05/08/161215Z AUTO VRB03VRB/03 RMK AO1 T $ $05/08/16 07:40:3KT 11/10 A2964 8MK AO1 T01060100 $1245Z AUTO 22004230/04 RMK AO1 T01060100 $MK AO1 SLP040 T0$230/04 RMK AO1 T05/08/16 08:00:3 A2964 840 96 500  $VRB/04 RMK AO1 TTING COMPLETE, 1D.
54779K12N 12N20160508071510005/08/16 07:15:31  5-MIN K12N 081215Z AUTO VRB03KT 11/10 A2964 840 96 500 VRB/03 RMK AO1 T01060100 $
54779K12N 12N20160508072010005/08/16 07:20:31  5-MIN K12N 081220Z AUTO 21004KT 11/10 A2964 840 96 600 220/04 RMK AO1 T01060100 $
54779K12N 12N20160508072510005/08/16 07:25:31  5-MIN K12N 081225Z AUTO VRB04KT 11/10 A2965 840 96 500 VRB/04 RMK AO1 T01060100 $
54779K12N 12N20160508073010005/08/16 07:30:31  5-MIN K12N 081230Z AUTO 22004KT 11/10 A2965 840 96 500 230/04 RMK AO1 T01060100 $
54779K12N 12N20160508073510005/08/16 07:35:31  5-MIN K12N 081235Z AUTO VRB04KT 11/10 A2964 840 96 600 VRB/04 RMK AO1 T01060100 $
54779K12N 12N20160508074010005/08/16 07:40:31  5-MIN K12N 081240Z AUTO VRB04KT 11/10 A2964 840 96 600 VRB/04 RMK AO1 T01060100 $
54779K12N 12N20160508074510005/08/16 07:45:31  5-MIN K12N 081245Z AUTO 22004KT 11/10 A2964 840 96 500 230/04 RMK AO1 T01060100 $
54779K12N 12N20160508075010705/08/16 07:50:31  5-MIN K12N 081250Z AUTO 22004KT 11/10 A2965 840 96 500 240/04 RMK AO1 SLP040 T01060100 $
54779K12N 12N20160508075510005/08/16 07:55:31  5-MIN K12N 081255Z AUTO 22004KT 11/10 A2965 840 96 500 230/04 RMK AO1 T01060100 $
54779K12N 12N20160508080010005/08/16 08:00:31  5-MIN K12N 081300Z AUTO 22007KT 11/10 A2964 840 96 500 230/07 RMK AO1 T01060100 $
54779K12N 12N20160508080510005/08/16 08:05:31  5-MIN K12N 081305Z AUTO 22003KT 11/09 A2965 840 93 500 230/03 RMK AO1 T01060094 $
54779K12N 12N20160508081010005/08/16 08:10:31  5-MIN K12N 081310Z AUTO VRB04KT 11/10 A2964 840 96 600 VRB/04 RMK AO1 T01060100 $
54779K12N 12N20160508081510005/08/16 08:15:31  5-MIN K12N 081315Z AUTO VRB04KT 11/10 A2964 850 96 600 VRB/04 RMK AO1 T01060100 $
54779K12N 12N20160508082010005/08/16 08:20:31  5-MIN K12N 081320Z AUTO 21004KT 11/10 A2964 850 93 600 220/04 RMK AO1 T01110100 $
54779K12N 12N20160508082510005/08/16 08:25:31  5-MIN K12N 081325Z AUTO VRB04KT 11/10 A2963 850 93 600 VRB/04 RMK AO1 T01110100 $
54779K12N 12N20160508083010005/08/16 08:30:31  5-MIN K12N 081330Z AUTO VRB03KT 12/11 A2963 850 93 700 VRB/03 RMK AO1 T01170106 $
54779K12N 12N20160508083510005/08/16 08:35:31  5-MIN K12N 081335Z AUTO 22005KT 12/11 A2963 850 93 700 230/05 RMK AO1 T01170106 $
54779K12N 12N20160508084010005/08/16 08:40:31  5-MIN K12N 081340Z AUTO VRB06KT 12/11 A2963 850 93 700 VRB/06 RMK AO1 T01170106 $
54779K12N 12N20160508084510005/08/16 08:45:31  5-MIN K12N 081345Z AUTO VRB04KT 12/10 A2963 850 89 700 VRB/04 RMK AO1 T01170100 $
54779K12N 12N20160508085010705/08/16 08:50:31  5-MIN K12N 081350Z AUTO 23006KT 12/11 A2964 850 93 700 240/06 RMK AO1 SLP036 T01170106 $
54779K12N 12N20160508085510005/08/16 08:55:31  5-MIN K12N 081355Z AUTO VRB05KT 12/11 A2964 850 89 800 VRB/05 RMK AO1 T01220106 $
54779K12N 12N20160508090010005/08/16 09:00:31  5-MIN K12N 081400Z AUTO 23005KT 13/11 A2964 850 89 800 240/05 RMK AO1 T01280111 $
54779K12N 12N20160508090510005/08/16 09:05:31  5-MIN K12N 081405Z AUTO 22005KT 13/11 A2964 850 86 900 240/05 RMK AO1 T01330111 $
54779K12N 12N20160508091010005/08/16 09:10:31  5-MIN K12N 081410Z AUTO VRB04KT 13/11 A2964 850 86 800 VRB/04 RMK AO1 T01280106 $
54779K12N 12N20160508091510005/08/16 09:15:31  5-MIN K12N 081415Z AUTO 26004KT 13/11 A2964 850 83 900 280/04 RMK AO1 T01330106 $
54779K12N 12N20160508092010105/08/16 09:20:31  5-MIN K12N 081420Z AUTO VRB05KT 14/11 A2964 850 83 1000 VRB/05 RMK AO1 T01390111 $
54779K12N 12N20160508092510105/08/16 09:25:31  5-MIN K12N 081425Z AUTO VRB03KT 14/11 A2964 850 83 1000 VRB/03 RMK AO1 T01390111 $
54779K12N 12N20160508093010105/08/16 09:30:31  5-MIN K12N 081430Z AUTO 00000KT 14/11 A2964 850 83 1000 000/00 RMK AO1 T01390111 $
54779K12N 12N20160508093510105/08/16 09:35:31  5-MIN K12N 081435Z AUTO VRB03KT 14/11 A2964 850 80 1000 VRB/03 RMK AO1 T01440111 $
54779K12N 12N20160508094010105/08/16 09:40:31  5-MIN K12N 081440Z AUTO VRB05KT 14/11 A2964 850 80 1000 VRB/05 RMK AO1 T01440111 $
54779K12N 12N20160508094510105/08/16 09:45:31  5-MIN K12N 081445Z AUTO VRB04KT 16/11 A2964 840 72 1100 VRB/04 RMK AO1 T01560106 $
54779K12N 12N20160508095013005/08/16 09:50:31  5-MIN K12N 081450Z AUTO 27008KT 240V300 16/10 A2964 840 67 1200 290/08 250V310 RMK AO1 SLP037 T01610100 53006 $
54779K12N 12N20160508095510105/08/16 09:55:31  5-MIN K12N 081455Z AUTO VRB06KT 17/09 A2964 840 62 1300 VRB/06 RMK AO1 T01670094 $
54779K12N 12N20160508100010105/08/16 10:00:31  5-MIN K12N 081500Z AUTO 33007KT 16/08 A2965 840 57 1200 340/07 RMK AO1 T01610078 $
54779K12N 12N20160508100511705/08/16 10:05:31  5-MIN K12N 081505Z AUTO 33007KT 290V030 16/07 A2965 830 57 1100 350/07 300V040 RMK AO1 T01560072 $
54779K12N 12N20160508101011705/08/16 10:10:31  5-MIN K12N 081510Z AUTO 33007KT 280V010 16/06 A2965 830 53 1100 340/07 290V020 RMK AO1 T01560061 $
54779K12N 12N20160508101510105/08/16 10:15:31  5-MIN K12N 081515Z AUTO VRB05KT 16/06 A2966 830 53 1100 VRB/05 RMK AO1 T01560061 $
54779K12N 12N20160508102010105/08/16 10:20:31  5-MIN K12N 081520Z AUTO VRB06KT 16/06 A2966 830 51 1100 VRB/06 RMK AO1 T01560056 $
54779K12N 12N20160508102512305/08/16 10:25:31  5-MIN K12N 081525Z AUTO 34012G15KT 300V010 16/06 A2967 820 51 1100 350/12G15 310V020 RMK AO1 T01560056 $
54779K12N 12N20160508103010705/08/16 10:30:31  5-MIN K12N 081530Z AUTO VRB06G19KT 16/05 A2967 820 49 1100 VRB/06G19 RMK AO1 T01560050 $
54779K12N 12N20160508103510705/08/16 10:35:31  5-MIN K12N 081535Z AUTO 34008G19KT 16/05 A2967 820 47 1200 350/08G19 RMK AO1 T01610050 $
54779K12N 12N20160508104011705/08/16 10:40:31  5-MIN K12N 081540Z AUTO 30008KT 250V350 17/04 A2967 820 44 1200 320/08 260V360 RMK AO1 T01670044 $
54779K12N 12N20160508104512305/08/16 10:45:31  5-MIN K12N 081545Z AUTO 35010G21KT 320V040 16/04 A2967 820 45 1200 360/10G21 330V050 RMK AO1 T01610044 $
54779K12N 12N20160508105013005/08/16 10:50:31  5-MIN K12N 081550Z AUTO 35012G21KT 330V050 16/04 A2968 810 44 1200 010/12G21 340V060 RMK AO1 SLP050 T01610039 $
54779K12N 12N20160508105512305/08/16 10:55:31  5-MIN K12N 081555Z AUTO 34013G25KT 300V360 16/03 A2968 810 42 1200 350/13G25 310V010 RMK AO1 T01610033 $
54779K12N 12N20160508110012305/08/16 11:00:31  5-MIN K12N 081600Z AUTO 33010G25KT 290V030 16/03 A2969 800 40 1200 350/10G25 300V040 RMK AO1 T01610028 $
54779K12N 12N20160508110512305/08/16 11:05:31  5-MIN K12N 081605Z AUTO 33008G20KT 260V360 16/03 A2969 800 42 1200 340/08G20 270V010 RMK AO1 T01610033 $
54779K12N 12N20160508111012305/08/16 11:10:31  5-MIN K12N 081610Z AUTO 34009G20KT 300V030 16/03 A2969 800 40 1200 350/09G20 310V040 RMK AO1 T01610028 $
54779K12N 12N20160508111512305/08/16 11:15:31  5-MIN K12N 081615Z AUTO 32010G20KT 280V360 16/02 A2970 790 40 1100 330/10G20 290V010 RMK AO1 T01560022 $
54779K12N 12N20160508112010705/08/16 11:20:31  5-MIN K12N 081620Z AUTO 30011G20KT 16/02 A2971 780 40 1100 310/11G20 RMK AO1 T01560022 $
54779K12N 12N20160508112512305/08/16 11:25:31  5-MIN K12N 081625Z AUTO 36009G19KT 330V050 16/02 A2971 780 40 1100 020/09G19 340V060 RMK AO1 T01560022 $
54779K12N 12N20160508113010705/08/16 11:30:31  5-MIN K12N 081630Z AUTO VRB05G19KT 16/03 A2971 780 42 1100 VRB/05G19 RMK AO1 T01560028 $
54779K12N 12N20160508113512305/08/16 11:35:31  5-MIN K12N 081635Z AUTO 32008G15KT 280V040 15/02 A2972 780 42 1000 340/08G15 290V050 RMK AO1 T01500022 $
54779K12N 12N20160508114010105/08/16 11:40:31  5-MIN K12N 081640Z AUTO VRB04KT 15/02 A2972 770 40 1000 VRB/04 RMK AO1 T01500017 $
54779K12N 12N20160508114509105/08/16 11:45:31  5-MIN K12N 081645Z AUTO 16/02 A2972 770 40 1100 M /M RMK AO1 T01560022 $
54779K12N 12N20160508115013005/08/16 11:50:31  5-MIN K12N 081650Z AUTO 34009G17KT 310V040 16/02 A2973 760 37 1100 350/09G17 320V050 RMK AO1 SLP066 T01610017 $
54779K12N 12N20160508115512305/08/16 11:55:31  5-MIN K12N 081655Z AUTO 35012G20KT 320V030 16/00 A2973 760 34 1000 010/12G20 330V040 RMK AO1 T01560000 $
54779K12N 12N20160508120010705/08/16 12:00:31  5-MIN K12N 081700Z AUTO 35007G20KT 16/01 A2973 770 36 1000 360/07G20 RMK AO1 T01560006 $
54779K12N 12N20160508120512305/08/16 12:05:31  5-MIN K12N 081705Z AUTO 32011G22KT 290V360 16/01 A2973 760 36 1000 330/11G22 300V010 RMK AO1 T01560006 $
54779K12N 12N20160508121012305/08/16 12:10:31  5-MIN K12N 081710Z AUTO 36007G22KT 300V070 16/00 A2973 760 34 1000 010/07G22 310V080 RMK AO1 T01560000 $
54779K12N 12N20160508121511805/08/16 12:15:31  5-MIN K12N 081715Z AUTO 36008KT 320V050 16/M01 A2973 770 33 1000 020/08 330V060 RMK AO1 T01561006 $
54779K12N 12N20160508122012405/08/16 12:20:31  5-MIN K12N 081720Z AUTO 35008G25KT 320V020 16/M01 A2973 770 33 1100 360/08G25 330V030 RMK AO1 T01561006 $
54779K12N 12N20160508122510805/08/16 12:25:31  5-MIN K12N 081725Z AUTO VRB06G25KT 15/M01 A2973 760 34 1000 VRB/06G25 RMK AO1 T01501006 $
54779K12N 12N20160508123010705/08/16 12:30:31  5-MIN K12N 081730Z AUTO VRB06G18KT 16/00 A2973 760 34 1000 VRB/06G18 RMK AO1 T01560000 $
54779K12N 12N20160508123512305/08/16 12:35:31  5-MIN K12N 081735Z AUTO 34010G18KT 290V040 17/01 A2973 760 33 1200 350/10G18 300V050 RMK AO1 T01670006 $
54779K12N 12N20160508124012405/08/16 12:40:31  5-MIN K12N 081740Z AUTO 35008G25KT 290V090 16/M01 A2973 760 32 1100 010/08G25 300V100 RMK AO1 T01611006 $
54779K12N 12N20160508124512305/08/16 12:45:31  5-MIN K12N 081745Z AUTO 34008G25KT 290V030 16/00 A2973 760 33 1100 350/08G25 300V040 RMK AO1 T01610000 $
54779K12N 12N20160508125014905/08/16 12:50:31  5-MIN K12N 081750Z AUTO 31007G19KT 260V360 16/M01 A2973 760 32 1100 320/07G19 270V010 RMK AO1 SLP068 T01611006 10167 20100 55003 $
54779K12N 12N20160508125512405/08/16 12:55:31  5-MIN K12N 081755Z AUTO 31007G19KT 270V350 17/M01 A2973 760 31 1200 320/07G19 280V360 RMK AO1 T01671006 $
54779K12N 12N20160508130010805/08/16 13:00:31  5-MIN K12N 081800Z AUTO 35010G17KT 17/M01 A2974 760 29 1200 010/10G17 RMK AO1 T01671011 $
54779K12N 12N20160508130512405/08/16 13:05:31  5-MIN K12N 081805Z AUTO 35008G21KT 300V030 16/M02 A2974 750 29 1100 360/08G21 310V040 RMK AO1 T01611017 $
54779K12N 12N20160508131010805/08/16 13:10:31  5-MIN K12N 081810Z AUTO VRB06G21KT 17/M01 A2974 750 29 1200 VRB/06G21 RMK AO1 T01671011 $
54779K12N 12N20160508131512405/08/16 13:15:31  5-MIN K12N 081815Z AUTO 33011G23KT 270V020 17/M02 A2974 750 28 1200 340/11G23 280V030 RMK AO1 T01671017 $
54779K12N 12N20160508132012405/08/16 13:20:31  5-MIN K12N 081820Z AUTO 32011G23KT 260V360 17/M01 A2975 750 29 1200 330/11G23 270V010 RMK AO1 T01721006 $
54779K12N 12N20160508132514205/08/16 13:25:31  5-MIN K12N 081825Z AUTO 33015G27KT 290V020 17/M02 A2975 740 27 1200 340/15G27 300V030 RMK AO1 PK WND 30027/1825 T01721017 $
54779K12N 12N20160508133012605/08/16 13:30:31  5-MIN K12N 081830Z AUTO 31013G27KT 16/M03 A2975 740 27 1100 320/13G27 RMK AO1 PK WND 30027/1825 T01611028 $
54779K12N 12N20160508133514205/08/16 13:35:31  5-MIN K12N 081835Z AUTO 33013G24KT 300V010 16/M03 A2976 740 26 1100 350/13G24 310V020 RMK AO1 PK WND 30027/1825 T01611033 $
54779K12N 12N20160508134014205/08/16 13:40:31  5-MIN K12N 081840Z AUTO 32011G21KT 270V020 16/M04 A2976 740 25 1100 330/11G21 280V030 RMK AO1 PK WND 30027/1825 T01611039 $
54779K12N 12N20160508134514205/08/16 13:45:31  5-MIN K12N 081845Z AUTO 33011G20KT 290V010 17/M04 A2976 740 24 1100 340/11G20 300V020 RMK AO1 PK WND 30027/1825 T01671039 $
54779K12N 12N20160508135014905/08/16 13:50:31  5-MIN K12N 081850Z AUTO 35010G21KT 280V050 17/M03 A2976 730 25 1100 360/10G21 290V060 RMK AO1 PK WND 30027/1825 SLP077 T01671033 $
54779K12N 12N20160508135512405/08/16 13:55:31  5-MIN K12N 081855Z AUTO 32011G22KT 280V020 16/M03 A2976 730 26 1100 340/11G22 290V030 RMK AO1 T01611033 $
54779K12N 12N20160508140010805/08/16 14:00:31  5-MIN K12N 081900Z AUTO 36012G22KT 17/M03 A2976 730 26 1100 010/12G22 RMK AO1 T01671028 $
54779K12N 12N20160508140512405/08/16 14:05:31  5-MIN K12N 081905Z AUTO 35011G20KT 310V020 16/M03 A2976 740 27 1100 360/11G20 320V030 RMK AO1 T01611028 $
54779K12N 12N20160508141012405/08/16 14:10:31  5-MIN K12N 081910Z AUTO 33011G21KT 290V360 16/M03 A2976 730 26 1100 340/11G21 300V010 RMK AO1 T01611033 $
54779K12N 12N20160508141510805/08/16 14:15:31  5-MIN K12N 081915Z AUTO 34013G22KT 17/M03 A2976 740 25 1100 360/13G22 RMK AO1 T01671033 $
54779K12N 12N20160508142012405/08/16 14:20:31  5-MIN K12N 081920Z AUTO 30007G22KT 250V340 17/M04 A2976 740 24 1100 310/07G22 260V350 RMK AO1 T01671039 $
54779K12N 12N20160508142510805/08/16 14:25:31  5-MIN K12N 081925Z AUTO 31011G22KT 17/M03 A2976 730 25 1100 320/11G22 RMK AO1 T01671033 $
54779K12N 12N20160508143010805/08/16 14:30:31  5-MIN K12N 081930Z AUTO VRB06G20KT 16/M04 A2976 730 25 1100 VRB/06G20 RMK AO1 T01611039 $
54779K12N 12N20160508143512405/08/16 14:35:31  5-MIN K12N 081935Z AUTO 33008G20KT 290V100 17/M03 A2976 740 25 1200 340/08G20 300V110 RMK AO1 T01721028 $
54779K12N 12N20160508144012405/08/16 14:40:31  5-MIN K12N 081940Z AUTO 35010G19KT 300V050 17/M02 A2976 730 27 1100 360/10G19 310V060 RMK AO1 T01671022 $
54779K12N 12N20160508144512405/08/16 14:45:31  5-MIN K12N 081945Z AUTO 36009G20KT 320V030 17/M03 A2976 730 26 1100 020/09G20 330V040 RMK AO1 T01671028 $
54779K12N 12N20160508145013105/08/16 14:50:31  5-MIN K12N 081950Z AUTO 34008G20KT 270V020 17/M03 A2977 730 26 1100 350/08G20 280V030 RMK AO1 SLP079 T01671028 $
54779K12N 12N20160508145509205/08/16 14:55:31  5-MIN K12N 081955Z AUTO 17/M02 A2976 730 26 1200 M /M RMK AO1 T01721022 $
54779K12N 12N20160508150010805/08/16 15:00:31  5-MIN K12N 082000Z AUTO 36009G15KT 17/M02 A2977 730 26 1200 010/09G15 RMK AO1 T01721022 $
54779K12N 12N20160508150512405/08/16 15:05:31  5-MIN K12N 082005Z AUTO 32008G15KT 170V010 17/M02 A2977 730 26 1200 330/08G15 180V020 RMK AO1 T01721022 $
54779K12N 12N20160508151012405/08/16 15:10:31  5-MIN K12N 082010Z AUTO 32008G24KT 290V350 17/M03 A2976 730 25 1100 340/08G24 300V360 RMK AO1 T01671033 $
54779K12N 12N20160508151512205/08/16 15:15:31  5-MIN K12N 082015Z AUTO 35011G18KT 290V040 17/M03 A2976 730 26 1100 360/11G18 300V050 RMK AO1 T01671028
54779K12N 12N20160508152012205/08/16 15:20:31  5-MIN K12N 082020Z AUTO 36010G21KT 320V040 16/M03 A2976 730 26 1100 010/10G21 330V050 RMK AO1 T01611033
54779K12N 12N20160508152512205/08/16 15:25:31  5-MIN K12N 082025Z AUTO 35008G21KT 310V020 16/M03 A2977 730 26 1100 010/08G21 320V030 RMK AO1 T01611033
54779K12N 12N20160508153012205/08/16 15:30:31  5-MIN K12N 082030Z AUTO 32008G24KT 290V360 17/M03 A2977 730 25 1100 330/08G24 300V010 RMK AO1 T01671033
54779K12N 12N20160508153510605/08/16 15:35:31  5-MIN K12N 082035Z AUTO 34011G24KT 17/M03 A2976 730 26 1100 360/11G24 RMK AO1 T01671028
54779K12N 12N20160508154012205/08/16 15:40:31  5-MIN K12N 082040Z AUTO 34009G17KT 310V020 17/M03 A2977 730 26 1100 360/09G17 320V030 RMK AO1 T01671028
54779K12N 12N20160508154510005/08/16 15:45:31  5-MIN K12N 082045Z AUTO VRB06KT 17/M02 A2977 730 27 1100 VRB/06 RMK AO1 T01671022
54779K12N 12N20160508155012905/08/16 15:50:31  5-MIN K12N 082050Z AUTO 36009G16KT 300V100 17/M03 A2977 720 26 1100 020/09G16 310V110 RMK AO1 SLP080 T01671028
54779K12N 12N20160508155510605/08/16 15:55:31  5-MIN K12N 082055Z AUTO 33008G16KT 16/M03 A2977 720 27 1100 340/08G16 RMK AO1 T01611028
54779K12N 12N20160508160012205/08/16 16:00:31  5-MIN K12N 082100Z AUTO 33008G14KT 270V050 17/M02 A2977 720 26 1200 350/08G14 280V060 RMK AO1 T01721022
54779K12N 12N20160508160512205/08/16 16:05:31  5-MIN K12N 082105Z AUTO 30008G14KT 230V040 17/M03 A2977 720 26 1100 310/08G14 240V050 RMK AO1 T01671028
54779K12N 12N20160508161012205/08/16 16:10:31  5-MIN K12N 082110Z AUTO 34010G20KT 300V030 17/M03 A2977 720 24 1200 360/10G20 310V040 RMK AO1 T01721033
54779K12N 12N20160508161512205/08/16 16:15:31  5-MIN K12N 082115Z AUTO 33012G23KT 260V360 17/M03 A2977 720 24 1200 340/12G23 270V010 RMK AO1 T01721033
54779K12N 12N20160508162012205/08/16 16:20:31  5-MIN K12N 082120Z AUTO 31011G23KT 260V360 17/M03 A2978 720 24 1200 320/11G23 270V010 RMK AO1 T01721033
54779K12N 12N20160508162512205/08/16 16:25:31  5-MIN K12N 082125Z AUTO 35007G18KT 300V060 17/M03 A2978 720 26 1100 360/07G18 310V070 RMK AO1 T01671028
54779K12N 12N20160508163010605/08/16 16:30:31  5-MIN K12N 082130Z AUTO 34008G14KT 17/M02 A2978 710 27 1100 350/08G14 RMK AO1 T01671022
54779K12N 12N20160508163512205/08/16 16:35:31  5-MIN K12N 082135Z AUTO 36007G14KT 320V050 17/M02 A2979 710 27 1100 020/07G14 330V060 RMK AO1 T01671022
54779K12N 12N20160508164010005/08/16 16:40:31  5-MIN K12N 082140Z AUTO 33008KT 17/M02 A2979 710 27 1100 350/08 RMK AO1 T01671022
54779K12N 12N20160508164512205/08/16 16:45:31  5-MIN K12N 082145Z AUTO 35011G17KT 320V020 17/M03 A2979 710 26 1100 360/11G17 330V030 RMK AO1 T01671028
54779K12N 12N20160508165012905/08/16 16:50:31  5-MIN K12N 082150Z AUTO 34007G19KT 290V040 16/M03 A2979 700 27 1000 350/07G19 300V050 RMK AO1 SLP087 T01611028
54779K12N 12N20160508165512205/08/16 16:55:31  5-MIN K12N 082155Z AUTO 34007G19KT 300V010 16/M02 A2979 700 28 1000 350/07G19 310V020 RMK AO1 T01611022
54779K12N 12N20160508170010605/08/16 17:00:31  5-MIN K12N 082200Z AUTO 35006G15KT 16/M02 A2980 700 28 1000 360/06G15 RMK AO1 T01611022
54779K12N 12N20160508170510605/08/16 17:05:31  5-MIN K12N 082205Z AUTO VRB06G15KT 16/M02 A2980 700 29 1000 VRB/06G15 RMK AO1 T01611017
54779K12N 12N20160508171012205/08/16 17:10:31  5-MIN K12N 082210Z AUTO 36007G17KT 340V050 16/M02 A2980 700 28 1000 010/07G17 350V060 RMK AO1 T01611022
54779K12N 12N20160508171512205/08/16 17:15:31  5-MIN K12N 082215Z AUTO 32007G17KT 290V350 16/M02 A2980 700 28 1000 330/07G17 300V360 RMK AO1 T01611022
54779K12N 12N20160508172010005/08/16 17:20:31  5-MIN K12N 082220Z AUTO VRB04KT 16/M02 A2980 700 29 1000 VRB/04 RMK AO1 T01611017
54779K12N 12N20160508172510005/08/16 17:25:31  5-MIN K12N 082225Z AUTO VRB05KT 16/M02 A2980 700 28 1000 VRB/05 RMK AO1 T01611022
54779K12N 12N20160508173009005/08/16 17:30:31  5-MIN K12N 082230Z AUTO 17/M02 A2980 690 27 1100 M /M RMK AO1 T01671022
54779K12N 12N20160508173510005/08/16 17:35:31  5-MIN K12N 082235Z AUTO VRB04KT 16/M02 A2980 690 29 1000 VRB/04 RMK AO1 T01611017
54779K12N 12N20160508174010005/08/16 17:40:31  5-MIN K12N 082240Z AUTO 35006KT 16/M02 A2981 690 29 1000 360/06 RMK AO1 T01611017
54779K12N 12N20160508174510005/08/16 17:45:31  5-MIN K12N 082245Z AUTO 36005KT 16/M02 A2981 690 29 1000 010/05 RMK AO1 T01611017
54779K12N 12N20160508175010705/08/16 17:50:31  5-MIN K12N 082250Z AUTO VRB06KT 16/M02 A2981 690 28 1000 VRB/06 RMK AO1 SLP093 T01611022
54779K12N 12N20160508175510005/08/16 17:55:31  5-MIN K12N 082255Z AUTO VRB05KT 16/M02 A2981 690 29 1000 VRB/05 RMK AO1 T01561022
54779K12N 12N20160508180010605/08/16 18:00:31  5-MIN K12N 082300Z AUTO 34009G15KT 16/M02 A2981 690 29 1000 360/09G15 RMK AO1 T01561022
54779K12N 12N20160508180510505/08/16 18:05:31  5-MIN K12N 082305Z AUTO VRB04G15KT 16/M03 A2981 680 28 900 VRB/04G15 RMK AO1 T01561028
54779K12N 12N20160508181009905/08/16 18:10:31  5-MIN K12N 082310Z AUTO 35008KT 16/M03 A2981 680 28 900 010/08 RMK AO1 T01561028
54779K12N 12N20160508181509905/08/16 18:15:31  5-MIN K12N 082315Z AUTO 36006KT 15/M02 A2982 680 30 900 010/06 RMK AO1 T01501022
54779K12N 12N20160508182009905/08/16 18:20:31  5-MIN K12N 082320Z AUTO 36004KT 15/M02 A2982 680 30 900 020/04 RMK AO1 T01501022
54779K12N 12N20160508182509905/08/16 18:25:31  5-MIN K12N 082325Z AUTO VRB05KT 15/M02 A2982 670 30 900 VRB/05 RMK AO1 T01501022
54779K12N 12N20160508183009905/08/16 18:30:31  5-MIN K12N 082330Z AUTO VRB03KT 15/M02 A2983 670 30 900 VRB/03 RMK AO1 T01501022
54779K12N 12N20160508183509905/08/16 18:35:31  5-MIN K12N 082335Z AUTO 36003KT 15/M02 A2983 670 30 900 010/03 RMK AO1 T01501022
54779K12N 12N20160508184009905/08/16 18:40:31  5-MIN K12N 082340Z AUTO VRB06KT 14/M02 A2983 670 31 800 VRB/06 RMK AO1 T01441022
54779K12N 12N20160508184509905/08/16 18:45:31  5-MIN K12N 082345Z AUTO VRB05KT 15/M02 A2984 660 30 900 VRB/05 RMK AO1 T01501022
54779K12N 12N20160508185011805/08/16 18:50:31  5-MIN K12N 082350Z AUTO VRB05KT 15/M02 A2984 660 30 900 VRB/05 RMK AO1 SLP104 T01501022 10172 20144
54779K12N 12N20160508185509905/08/16 18:55:31  5-MIN K12N 082355Z AUTO VRB03KT 15/M03 A2984 660 29 900 VRB/03 RMK AO1 T01501028
54779K12N 12N20160508190009905/08/16 19:00:31  5-MIN K12N 090000Z AUTO VRB03KT 14/M02 A2984 660 31 800 VRB/03 RMK AO1 T01441022
54779K12N 12N20160508190509905/08/16 19:05:31  5-MIN K12N 090005Z AUTO VRB03KT 14/M02 A2984 660 31 800 VRB/03 RMK AO1 T01441022
54779K12N 12N20160508191009905/08/16 19:10:31  5-MIN K12N 090010Z AUTO VRB03KT 14/M02 A2985 650 31 800 VRB/03 RMK AO1 T01441022
54779K12N 12N20160508191509905/08/16 19:15:31  5-MIN K12N 090015Z AUTO 00000KT 14/M02 A2985 650 32 700 000/00 RMK AO1 T01391022
54779K12N 12N20160508192009905/08/16 19:20:31  5-MIN K12N 090020Z AUTO 00000KT 13/M01 A2985 650 36 600 000/00 RMK AO1 T01331011
54779K12N 12N20160508192509905/08/16 19:25:31  5-MIN K12N 090025Z AUTO 00000KT 13/M01 A2985 650 38 600 000/00 RMK AO1 T01281011
54779K12N 12N20160508193009905/08/16 19:30:31  5-MIN K12N 090030Z AUTO 00000KT 13/M01 A2986 640 38 600 000/00 RMK AO1 T01281011
54779K12N 12N20160508193509805/08/16 19:35:31  5-MIN K12N 090035Z AUTO 00000KT 12/00 A2986 640 43 500 000/00 RMK AO1 T01220000
54779K12N 12N20160508194009805/08/16 19:40:31  5-MIN K12N 090040Z AUTO 00000KT 11/01 A2987 640 50 400 000/00 RMK AO1 T01110011
54779K12N 12N20160508194509805/08/16 19:45:31  5-MIN K12N 090045Z AUTO 00000KT 11/01 A2987 630 48 400 000/00 RMK AO1 T01110006
54779K12N 12N20160508195010505/08/16 19:50:31  5-MIN K12N 090050Z AUTO 00000KT 11/01 A2987 630 48 400 000/00 RMK AO1 SLP115 T01110006
54779K12N 12N20160508195509805/08/16 19:55:31  5-MIN K12N 090055Z AUTO 00000KT 10/02 A2987 630 56 200 000/00 RMK AO1 T01000017
54779K12N 12N20160508200009805/08/16 20:00:31  5-MIN K12N 090100Z AUTO 00000KT 10/02 A2987 630 58 200 000/00 RMK AO1 T01000022
54779K12N 12N20160508200509805/08/16 20:05:31  5-MIN K12N 090105Z AUTO 00000KT 10/03 A2988 630 60 200 000/00 RMK AO1 T01000028
54779K12N 12N20160508201009805/08/16 20:10:31  5-MIN K12N 090110Z AUTO 00000KT 10/03 A2988 620 63 200 000/00 RMK AO1 T01000033
54779K12N 12N20160508201509805/08/16 20:15:31  5-MIN K12N 090115Z AUTO 00000KT 09/02 A2988 620 60 100 000/00 RMK AO1 T00940022
54779K12N 12N20160508202009805/08/16 20:20:31  5-MIN K12N 090120Z AUTO 00000KT 09/02 A2988 620 60 100 000/00 RMK AO1 T00940022
54779K12N 12N20160508202509805/08/16 20:25:31  5-MIN K12N 090125Z AUTO 00000KT 09/02 A2989 620 63 100 000/00 RMK AO1 T00890022
54779K12N 12N20160508203009805/08/16 20:30:31  5-MIN K12N 090130Z AUTO 00000KT 09/02 A2989 610 60 100 000/00 RMK AO1 T00940022
54779K12N 12N20160508203509805/08/16 20:35:31  5-MIN K12N 090135Z AUTO 00000KT 09/03 A2989 610 68 100 000/00 RMK AO1 T00890033
54779K12N 12N20160508204009805/08/16 20:40:31  5-MIN K12N 090140Z AUTO 00000KT 09/04 A2989 610 71 100 000/00 RMK AO1 T00890039
54779K12N 12N20160508204509805/08/16 20:45:31  5-MIN K12N 090145Z AUTO 00000KT 09/02 A2990 610 63 100 000/00 RMK AO1 T00890022
54779K12N 12N20160508205010505/08/16 20:50:31  5-MIN K12N 090150Z AUTO 00000KT 09/03 A2990 610 68 100 000/00 RMK AO1 SLP126 T00890033
54779K12N 12N20160508205509605/08/16 20:55:31  5-MIN K12N 090155Z AUTO 00000KT 08/03 A2990 610 68 0 000/00 RMK AO1 T00830028
54779K12N 12N20160508210009605/08/16 21:00:31  5-MIN K12N 090200Z AUTO 00000KT 08/03 A2990 600 70 0 000/00 RMK AO1 T00830033
54779K12N 12N20160508210509605/08/16 21:05:31  5-MIN K12N 090205Z AUTO 00000KT 08/04 A2990 600 76 0 000/00 RMK AO1 T00780039
54779K12N 12N20160508211009605/08/16 21:10:31  5-MIN K12N 090210Z AUTO 00000KT 08/04 A2991 600 73 0 000/00 RMK AO1 T00830039
54779K12N 12N20160508211509605/08/16 21:15:31  5-MIN K12N 090215Z AUTO 00000KT 08/04 A2991 590 76 0 000/00 RMK AO1 T00780039
54779K12N 12N20160508212009605/08/16 21:20:31  5-MIN K12N 090220Z AUTO 00000KT 08/03 A2991 590 70 0 000/00 RMK AO1 T00780028
54779K12N 12N20160508212509605/08/16 21:25:31  5-MIN K12N 090225Z AUTO 00000KT 08/03 A2992 590 68 0 000/00 RMK AO1 T00830028
54779K12N 12N20160508213009605/08/16 21:30:31  5-MIN K12N 090230Z AUTO 00000KT 08/03 A2992 590 68 0 000/00 RMK AO1 T00830028
54779K12N 12N20160508213509605/08/16 21:35:31  5-MIN K12N 090235Z AUTO 00000KT 08/04 A2992 590 73 0 000/00 RMK AO1 T00830039
54779K12N 12N20160508214009605/08/16 21:40:31  5-MIN K12N 090240Z AUTO 00000KT 08/04 A2992 590 73 0 000/00 RMK AO1 T00830039
54779K12N 12N20160508214509905/08/16 21:45:31  5-MIN K12N 090245Z AUTO 00000KT 08/04 A2992 580 79 -100 000/00 RMK AO1 T00780044
54779K12N 12N20160508215011205/08/16 21:50:31  5-MIN K12N 090250Z AUTO 00000KT 08/05 A2992 580 82 -100 000/00 RMK AO1 SLP134 T00780050 53022
54779K12N 12N20160508215509605/08/16 21:55:31  5-MIN K12N 090255Z AUTO 00000KT 08/04 A2993 580 76 0 000/00 RMK AO1 T00830044
54779K12N 12N20160508220009605/08/16 22:00:31  5-MIN K12N 090300Z AUTO 00000KT 08/04 A2993 580 76 0 000/00 RMK AO1 T00830044
54779K12N 12N20160508220509905/08/16 22:05:31  5-MIN K12N 090305Z AUTO 00000KT 07/04 A2993 580 82 -100 000/00 RMK AO1 T00720044
54779K12N 12N20160508221009905/08/16 22:10:31  5-MIN K12N 090310Z AUTO 00000KT 07/04 A2993 570 82 -100 000/00 RMK AO1 T00720044
54779K12N 12N20160508221509905/08/16 22:15:31  5-MIN K12N 090315Z AUTO 00000KT 07/04 A2994 570 82 -100 000/00 RMK AO1 T00720044
54779K12N 12N20160508222009905/08/16 22:20:31  5-MIN K12N 090320Z AUTO 00000KT 07/04 A2994 570 82 -100 000/00 RMK AO1 T00720044
54779K12N 12N20160508222509905/08/16 22:25:31  5-MIN K12N 090325Z AUTO 00000KT 07/04 A2994 570 82 -100 000/00 RMK AO1 T00720044
54779K12N 12N20160508223009905/08/16 22:30:31  5-MIN K12N 090330Z AUTO 00000KT 07/04 A2994 560 82 -100 000/00 RMK AO1 T00720044
54779K12N 12N20160508223509905/08/16 22:35:31  5-MIN K12N 090335Z AUTO 00000KT 07/05 A2995 560 89 -200 000/00 RMK AO1 T00670050
54779K12N 12N20160508224009905/08/16 22:40:31  5-MIN K12N 090340Z AUTO 00000KT 07/04 A2995 560 86 -200 000/00 RMK AO1 T00670044
54779K12N 12N20160508224509905/08/16 22:45:31  5-MIN K12N 090345Z AUTO 00000KT 07/04 A2995 560 86 -200 000/00 RMK AO1 T00670044
54779K12N 12N20160508225010605/08/16 22:50:31  5-MIN K12N 090350Z AUTO 00000KT 07/04 A2995 560 86 -200 000/00 RMK AO1 SLP142 T00670044
54779K12N 12N20160508225509905/08/16 22:55:31  5-MIN K12N 090355Z AUTO 00000KT 06/04 A2995 560 86 -300 000/00 RMK AO1 T00610039
54779K12N 12N20160508230009905/08/16 23:00:31  5-MIN K12N 090400Z AUTO 00000KT 06/04 A2995 560 86 -300 000/00 RMK AO1 T00610039
54779K12N 12N20160508230509905/08/16 23:05:31  5-MIN K12N 090405Z AUTO 00000KT 07/04 A2995 560 86 -200 000/00 RMK AO1 T00670044
54779K12N 12N20160508231009905/08/16 23:10:31  5-MIN K12N 090410Z AUTO 22003KT 06/04 A2995 560 86 -300 230/03 RMK AO1 T00610039
54779K12N 12N20160508231509905/08/16 23:15:31  5-MIN K12N 090415Z AUTO 20003KT 06/04 A2995 560 86 -300 220/03 RMK AO1 T00610039
54779K12N 12N20160508232009905/08/16 23:20:31  5-MIN K12N 090420Z AUTO 21003KT 06/04 A2995 560 89 -400 230/03 RMK AO1 T00560039
54779K12N 12N20160508232520005/08/16 23:25:31  5-MIN K12N 090425Z AUTO 00000KT 06/03 A2995 550 82 -30:31  5-:31  5-MINV0 05/0y2 -12N 0903000/00 R0000KT 40Z 5:31000 60 8100  000/0Z AUTO 06400 2 40Z 44000/00Z AUTO /04 A29 05/08/1 
54779K12N 12N20160509051009905/09/16 05:10:31  5-MIN K12N 091010Z AUTO 00000KT 04/03 A2997 540 92 -600 000/00 RMK AO1 T00390028
54779K12N 12N20160509051509905/09/16 05:15:31  5-MIN K12N 091015Z AUTO 21003KT 04/03 A2997 540 89 -500 220/03 RMK AO1 T00440028
54779K12N 12N20160509052009905/09/16 05:20:31  5-MIN K12N 091020Z AUTO 00000KT 04/03 A2997 540 89 -500 000/00 RMK AO1 T00440028
54779K12N 12N20160509052509905/09/16 05:25:31  5-MIN K12N 091025Z AUTO 00000KT 04/03 A2997 540 89 -500 000/00 RMK AO1 T00440028
54779K12N 12N20160509053009905/09/16 05:30:31  5-MIN K12N 091030Z AUTO 00000KT 04/03 A2997 540 92 -500 000/00 RMK AO1 T00440033
54779K12N 12N20160509053509905/09/16 05:35:31  5-MIN K12N 091035Z AUTO 00000KT 04/03 A2997 540 92 -500 000/00 RMK AO1 T00440033
54779K12N 12N20160509054009905/09/16 05:40:31  5-MIN K12N 091040Z AUTO 20003KT 04/03 A2997 540 92 -500 220/03 RMK AO1 T00440033
54779K12N 12N20160509054509905/09/16 05:45:31  5-MIN K12N 091045Z AUTO 00000KT 04/03 A2997 540 92 -500 000/00 RMK AO1 T00440033
54779K12N 12N20160509055010605/09/16 05:50:31  5-MIN K12N 091050Z AUTO 00000KT 05/03 A2998 530 89 -500 000/00 RMK AO1 SLP153 T00500033
54779K12N 12N20160509055509905/09/16 05:55:31  5-MIN K12N 091055Z AUTO 00000KT 05/04 A2998 530 96 -500 000/00 RMK AO1 T00500044
54779K12N 12N20160509060009905/09/16 06:00:31  5-MIN K12N 091100Z AUTO 00000KT 06/04 A2998 530 92 -400 000/00 RMK AO1 T00560044
54779K12N 12N20160509060509905/09/16 06:05:31  5-MIN K12N 091105Z AUTO 00000KT 06/04 A2998 530 89 -300 000/00 RMK AO1 T00610044
54779K12N 12N20160509061009905/09/16 06:10:31  5-MIN K12N 091110Z AUTO 00000KT 06/04 A2998 530 89 -300 000/00 RMK AO1 T00610044
54779K12N 12N20160509061509905/09/16 06:15:31  5-MIN K12N 091115Z AUTO 00000KT 07/05 A2998 530 89 -300 000/00 RMK AO1 T00670050
54779K12N 12N20160509062009905/09/16 06:20:31  5-MIN K12N 091120Z AUTO 00000KT 07/05 A2999 530 89 -300 000/00 RMK AO1 T00670050
54779K12N 12N20160509062509905/09/16 06:25:31  5-MIN K12N 091125Z AUTO 00000KT 08/05 A2999 520 82 -100 000/00 RMK AO1 T00780050
54779K12N 12N20160509063009905/09/16 06:30:31  5-MIN K12N 091130Z AUTO 00000KT 08/05 A2999 520 82 -100 000/00 RMK AO1 T00780050
54779K12N 12N20160509063509905/09/16 06:35:31  5-MIN K12N 091135Z AUTO 00000KT 08/05 A2999 520 79 -100 000/00 RMK AO1 T00830050
54779K12N 12N20160509064009605/09/16 06:40:31  5-MIN K12N 091140Z AUTO 00000KT 09/04 A3000 520 71 0 000/00 RMK AO1 T00890039
54779K12N 12N20160509064509605/09/16 06:45:31  5-MIN K12N 091145Z AUTO 00000KT 09/04 A3000 510 71 0 000/00 RMK AO1 T00890039
54779K12N 12N20160509065012105/09/16 06:50:31  5-MIN K12N 091150Z AUTO 17003KT 09/03 A3000 520 65 0 180/03 RMK AO1 SLP158 T00940033 10094 20033 53004
54779K12N 12N20160509065509805/09/16 06:55:31  5-MIN K12N 091155Z AUTO 00000KT 10/03 A3000 510 63 100 000/00 RMK AO1 T01000033
54779K12N 12N20160509070009805/09/16 07:00:31  5-MIN K12N 091200Z AUTO VRB03KT 11/03 A3000 510 61 100 VRB/03 RMK AO1 T01060033
54779K12N 12N20160509070509805/09/16 07:05:31  5-MIN K12N 091205Z AUTO VRB03KT 11/03 A3000 510 61 100 VRB/03 RMK AO1 T01060033
54779K12N 12N20160509071009805/09/16 07:10:31  5-MIN K12N 091210Z AUTO 20003KT 11/02 A3000 510 56 100 210/03 RMK AO1 T01060022
54779K12N 12N20160509071509805/09/16 07:15:31  5-MIN K12N 091215Z AUTO 20004KT 11/03 A3000 510 56 200 210/04 RMK AO1 T01110028
54779K12N 12N20160509072009805/09/16 07:20:31  5-MIN K12N 091220Z AUTO VRB05KT 11/02 A3000 510 54 200 VRB/05 RMK AO1 T01110022
54779K12N 12N20160509072509805/09/16 07:25:31  5-MIN K12N 091225Z AUTO 20005KT 12/02 A3000 510 52 300 220/05 RMK AO1 T01170022
54779K12N 12N20160509073009805/09/16 07:30:31  5-MIN K12N 091230Z AUTO 21005KT 12/02 A3000 510 52 300 220/05 RMK AO1 T01170022
54779K12N 12N20160509073509805/09/16 07:35:31  5-MIN K12N 091235Z AUTO 22005KT 12/02 A3000 510 50 300 240/05 RMK AO1 T01170017
54779K12N 12N20160509074009805/09/16 07:40:31  5-MIN K12N 091240Z AUTO 21005KT 12/02 A3000 510 50 300 230/05 RMK AO1 T01220022
54779K12N 12N20160509074509805/09/16 07:45:31  5-MIN K12N 091245Z AUTO 21004KT 12/02 A3000 510 50 300 230/04 RMK AO1 T01220022
54779K12N 12N20160509075010505/09/16 07:50:31  5-MIN K12N 091250Z AUTO 21004KT 12/02 A3000 510 50 300 220/04 RMK AO1 SLP161 T01220022
54779K12N 12N20160509075509805/09/16 07:55:31  5-MIN K12N 091255Z AUTO 00000KT 13/03 A3000 510 50 400 000/00 RMK AO1 T01280028
54779K12N 12N20160509080009805/09/16 08:00:31  5-MIN K12N 091300Z AUTO 18003KT 13/03 A3000 510 48 500 190/03 RMK AO1 T01330028
54779K12N 12N20160509080509805/09/16 08:05:31  5-MIN K12N 091305Z AUTO VRB03KT 13/03 A3000 510 48 500 VRB/03 RMK AO1 T01330028
54779K12N 12N20160509081009805/09/16 08:10:31  5-MIN K12N 091310Z AUTO 19003KT 13/02 A3000 510 46 500 200/03 RMK AO1 T01330022
54779K12N 12N20160509081509805/09/16 08:15:31  5-MIN K12N 091315Z AUTO VRB03KT 14/03 A3001 510 47 500 VRB/03 RMK AO1 T01390028
54779K12N 12N20160509082009805/09/16 08:20:31  5-MIN K12N 091320Z AUTO VRB06KT 14/01 A3001 510 40 600 VRB/06 RMK AO1 T01440011
54779K12N 12N20160509082509805/09/16 08:25:31  5-MIN K12N 091325Z AUTO VRB05KT 15/01 A3001 510 37 700 VRB/05 RMK AO1 T01500006
54779K12N 12N20160509083011405/09/16 08:30:31  5-MIN K12N 091330Z AUTO 33007KT 300V360 15/01 A3000 510 37 700 340/07 310V010 RMK AO1 T01500006
54779K12N 12N20160509083509805/09/16 08:35:31  5-MIN K12N 091335Z AUTO VRB05KT 15/01 A3001 510 37 700 VRB/05 RMK AO1 T01500006
54779K12N 12N20160509084009805/09/16 08:40:31  5-MIN K12N 091340Z AUTO VRB03KT 15/01 A3001 510 37 700 VRB/03 RMK AO1 T01500006
54779K12N 12N20160509084509805/09/16 08:45:31  5-MIN K12N 091345Z AUTO VRB03KT 16/01 A3001 510 37 700 VRB/03 RMK AO1 T01560011
54779K12N 12N20160509085010505/09/16 08:50:31  5-MIN K12N 091350Z AUTO VRB05KT 16/01 A3001 510 36 800 VRB/05 RMK AO1 SLP161 T01610011
54779K12N 12N20160509085509805/09/16 08:55:31  5-MIN K12N 091355Z AUTO VRB04KT 16/01 A3001 500 34 800 VRB/04 RMK AO1 T01610006
54779K12N 12N20160509090009805/09/16 09:00:31  5-MIN K12N 091400Z AUTO VRB04KT 16/01 A3001 510 36 800 VRB/04 RMK AO1 T01610011
54779K12N 12N20160509090509805/09/16 09:05:31  5-MIN K12N 091405Z AUTO VRB05KT 16/01 A3000 510 34 800 VRB/05 RMK AO1 T01610006
54779K12N 12N20160509091009805/09/16 09:10:31  5-MIN K12N 091410Z AUTO 32007KT 16/01 A3000 510 36 800 330/07 RMK AO1 T01610011
54779K12N 12N20160509091509805/09/16 09:15:31  5-MIN K12N 091415Z AUTO 31005KT 17/01 A3000 510 34 900 320/05 RMK AO1 T01670011
54779K12N 12N20160509092009805/09/16 09:20:31  5-MIN K12N 091420Z AUTO VRB04KT 17/01 A3001 510 34 900 VRB/04 RMK AO1 T01670011
54779K12N 12N20160509092509805/09/16 09:25:31  5-MIN K12N 091425Z AUTO VRB05KT 17/01 A3000 510 34 900 VRB/05 RMK AO1 T01670011
54779K12N 12N20160509093009805/09/16 09:30:31  5-MIN K12N 091430Z AUTO 31004KT 17/02 A3000 510 35 900 320/04 RMK AO1 T01720017
54779K12N 12N20160509093509805/09/16 09:35:31  5-MIN K12N 091435Z AUTO VRB05KT 17/01 A3000 510 33 900 VRB/05 RMK AO1 T01720011
54779K12N 12N20160509094009805/09/16 09:40:31  5-MIN K12N 091440Z AUTO VRB06KT 17/01 A3001 510 32 900 VRB/06 RMK AO1 T01720006
54779K12N 12N20160509094509805/09/16 09:45:31  5-MIN K12N 091445Z AUTO VRB06KT 17/01 A3001 500 32 900 VRB/06 RMK AO1 T01720006
54779K12N 12N20160509095012705/09/16 09:50:31  5-MIN K12N 091450Z AUTO 29008KT 260V340 17/00 A3001 510 31 900 300/08 270V350 RMK AO1 SLP161 T01720000 53013
54779K12N 12N20160509095509905/09/16 09:55:31  5-MIN K12N 091455Z AUTO VRB05KT 18/01 A3001 510 32 1000 VRB/05 RMK AO1 T01780011
54779K12N 12N20160509100009805/09/16 10:00:31  5-MIN K12N 091500Z AUTO VRB05KT 17/01 A3001 500 33 900 VRB/05 RMK AO1 T01720011
54779K12N 12N20160509100509905/09/16 10:05:31  5-MIN K12N 091505Z AUTO VRB03KT 18/01 A3001 500 31 1000 VRB/03 RMK AO1 T01780006
54779K12N 12N20160509101009905/09/16 10:10:31  5-MIN K12N 091510Z AUTO VRB05KT 19/02 A3001 500 32 1100 VRB/05 RMK AO1 T01890022
54779K12N 12N20160509101510505/09/16 10:15:31  5-MIN K12N 091515Z AUTO 21010G15KT 18/01 A3001 500 32 1000 230/10G15 RMK AO1 T01780011
54779K12N 12N20160509102012105/09/16 10:20:31  5-MIN K12N 091520Z AUTO 23008G15KT 200V270 18/01 A3001 500 31 1000 250/08G15 210V280 RMK AO1 T01780006
54779K12N 12N20160509102512105/09/16 10:25:31  5-MIN K12N 091525Z AUTO 24009G15KT 200V310 18/01 A3001 500 32 1000 250/09G15 210V320 RMK AO1 T01780011
54779K12N 12N20160509103010505/09/16 10:30:31  5-MIN K12N 091530Z AUTO 23007G15KT 18/01 A3001 500 30 1100 250/07G15 RMK AO1 T01830006
54779K12N 12N20160509103509905/09/16 10:35:31  5-MIN K12N 091535Z AUTO VRB06KT 19/02 A3001 500 32 1100 VRB/06 RMK AO1 T01890022
54779K12N 12N20160509104012105/09/16 10:40:31  5-MIN K12N 091540Z AUTO 22009G15KT 170V240 19/02 A3001 500 31 1100 230/09G15 180V250 RMK AO1 T01890017
54779K12N 12N20160509104510505/09/16 10:45:31  5-MIN K12N 091545Z AUTO VRB04G15KT 19/02 A3001 500 31 1100 VRB/04G15 RMK AO1 T01890017
54779K12N 12N20160509105011205/09/16 10:50:31  5-MIN K12N 091550Z AUTO VRB06G15KT 19/02 A3001 510 31 1100 VRB/06G15 RMK AO1 SLP161 T01890017
54779K12N 12N20160509105508905/09/16 10:55:31  5-MIN K12N 091555Z AUTO 19/01 A3000 510 30 1100 M /M RMK AO1 T01890011
54779K12N 12N20160509110011505/09/16 11:00:31  5-MIN K12N 091600Z AUTO 25008KT 190V280 19/01 A3000 510 29 1100 260/08 200V290 RMK AO1 T01890006
54779K12N 12N20160509110510505/09/16 11:05:31  5-MIN K12N 091605Z AUTO VRB05G18KT 19/00 A3000 510 28 1100 VRB/05G18 RMK AO1 T01890000
54779K12N 12N20160509111012105/09/16 11:10:31  5-MIN K12N 091610Z AUTO 23010G18KT 190V250 19/01 A3000 510 29 1200 240/10G18 200V260 RMK AO1 T01940011
54779K12N 12N20160509111512105/09/16 11:15:31  5-MIN K12N 091615Z AUTO 27009G18KT 190V360 19/00 A2999 520 27 1200 280/09G18 200V010 RMK AO1 T01940000
54779K12N 12N20160509112012105/09/16 11:20:31  5-MIN K12N 091620Z AUTO 24010G20KT 200V290 20/01 A2999 520 27 1300 260/10G20 210V300 RMK AO1 T02000006
54779K12N 12N20160509112510505/09/16 11:25:31  5-MIN K12N 091625Z AUTO VRB06G20KT 20/00 A2999 520 26 1300 VRB/06G20 RMK AO1 T02000000
54779K12N 12N20160509113011505/09/16 11:30:31  5-MIN K12N 091630Z AUTO 23008KT 190V270 20/01 A2999 520 28 1300 240/08 200V280 RMK AO1 T02000011
54779K12N 12N20160509113512105/09/16 11:35:31  5-MIN K12N 091635Z AUTO 23010G19KT 180V260 20/01 A2999 520 27 1300 240/10G19 190V270 RMK AO1 T02000006
54779K12N 12N20160509114010505/09/16 11:40:31  5-MIN K12N 091640Z AUTO VRB04G19KT 21/00 A2999 520 25 1300 VRB/04G19 RMK AO1 T02060000
54779K12N 12N20160509114511505/09/16 11:45:31  5-MIN K12N 091645Z AUTO 27007KT 220V340 21/01 A2999 520 26 1300 280/07 230V350 RMK AO1 T02060006
54779K12N 12N20160509115012905/09/16 11:50:31  5-MIN K12N 091650Z AUTO 29010G17KT 250V330 20/M01 A2999 520 25 1300 300/10G17 260V340 RMK AO1 SLP154 T02001006
54779K12N 12N20160509115512405/09/16 11:55:31  5-MIN K12N 091655Z AUTO 24011G22KT 200V270 20/M01 A2999 520 25 1300 260/11G22 210V280 RMK AO1 T02001006 $
54779K12N 12N20160509120010805/09/16 12:00:31  5-MIN K12N 091700Z AUTO VRB06G22KT 20/M01 A2999 520 24 1300 VRB/06G22 RMK AO1 T02001011 $
54779K12N 12N20160509120509205/09/16 12:05:31  5-MIN K12N 091705Z AUTO 20/M01 A2999 520 24 1300 M /M RMK AO1 T02001011 $
54779K12N 12N20160509121012405/09/16 12:10:31  5-MIN K12N 091710Z AUTO 24011G22KT 210V280 19/M02 A2999 520 24 1200 250/11G22 220V290 RMK AO1 T01941017 $
54779K12N 12N20160509121510805/09/16 12:15:31  5-MIN K12N 091715Z AUTO VRB06G22KT 20/M02 A2999 520 23 1300 VRB/06G22 RMK AO1 T02001017 $
54779K12N 12N20160509122012805/09/16 12:20:31  5-MIN K12N 091720Z AUTO 28008G17KT 200V310 20/M02 A2999 520 22 1300 290/08G17 210V320 RMK AO1 T02001022 PNO $
54779K12N 12N20160509122512805/09/16 12:25:31  5-MIN K12N 091725Z AUTO 23011G22KT 190V270 19/M02 A2999 520 24 1200 250/11G22 200V280 RMK AO1 T01941017 PNO $
54779K12N 12N20160509123009605/09/16 12:30:31  5-MIN K12N 091730Z AUTO 19/M02 A2999 520 24 1200 M /M RMK AO1 T01941017 PNO $
54779K12N 12N20160509123509605/09/16 12:35:31  5-MIN K12N 091735Z AUTO 19/M02 A2999 520 24 1200 M /M RMK AO1 T01941017 PNO $
54779K12N 12N20160509124009605/09/16 12:40:31  5-MIN K12N 091740Z AUTO 19/M02 A2999 520 24 1200 M /M RMK AO1 T01941017 PNO $
54779K12N 12N20160509124507305/09/16 12:45:31  5-MIN K12N 091745Z AUTO A2999 M M M M /M RMK AO1 PNO $
54779K12N 12N20160509125010305/09/16 12:50:31  5-MIN K12N 091750Z AUTO A2999 M M M M /M RMK AO1 SLPNO 6//// 10206 20100 50003 PNO $
54779K12N 12N20160509125507305/09/16 12:55:31  5-MIN K12N 091755Z AUTO A2998 M M M M /M RMK AO1 PNO $
54779K12N 12N20160509130007305/09/16 13:00:31  5-MIN K12N 091800Z AUTO A2999 M M M M /M RMK AO1 PNO $
54779K12N 12N20160509130507305/09/16 13:05:31  5-MIN K12N 091805Z AUTO A2998 M M M M /M RMK AO1 PNO $
54779K12N 12N20160509131007305/09/16 13:10:31  5-MIN K12N 091810Z AUTO A2998 M M M M /M RMK AO1 PNO $
54779K12N 12N20160509131507305/09/16 13:15:31  5-MIN K12N 091815Z AUTO A2998 M M M M /M RMK AO1 PNO $
54779K12N 12N20160509132009605/09/16 13:20:31  5-MIN K12N 091820Z AUTO 21/M01 A2998 530 23 1300 M /M RMK AO1 T02061011 PNO $
54779K12N 12N20160509132509005/09/16 13:25:31  5-MIN K12N 091825Z AUTO 21/M01 A2998 530 23 1300 M /M RMK AO1 T02061011
54779K12N 12N20160509133009005/09/16 13:30:31  5-MIN K12N 091830Z AUTO 21/M01 A2998 530 22 1400 M /M RMK AO1 T02111011
54779K12N 12N20160509133512205/09/16 13:35:31  5-MIN K12N 091835Z AUTO 31010G17KT 250V360 21/M01 A2998 530 22 1400 320/10G17 260V010 RMK AO1 T02111011
54779K12N 12N20160509134012205/09/16 13:40:31  5-MIN K12N 091840Z AUTO 29007G17KT 210V020 21/M01 A2997 540 22 1400 300/07G17 220V030 RMK AO1 T02111011
54779K12N 12N20160509134512205/09/16 13:45:31  5-MIN K12N 091845Z AUTO 30011G23KT 280V340 21/M01 A2997 540 22 1400 320/11G23 290V350 RMK AO1 T02111011
54779K12N 12N20160509135009905/09/16 13:50:31  5-MIN K12N 091850Z AUTO 21/M01 A2997 540 23 1400 M /M RMK AO1 SLP149 T02111006 $
54779K12N 12N20160509135509105/09/16 13:55:31  5-MIN K12N 091855Z AUTO 22/00 A2997 540 23 1500 M /M RMK AO1 T02170000 $
54779K12N 12N20160509140009205/09/16 14:00:31  5-MIN K12N 091900Z AUTO 21/M01 A2997 540 23 1400 M /M RMK AO1 T02111006 $
54779K12N 12N20160509140509205/09/16 14:05:31  5-MIN K12N 091905Z AUTO 21/M01 A2996 550 23 1400 M /M RMK AO1 T02111006 $
54779K12N 12N20160509141009105/09/16 14:10:31  5-MIN K12N 091910Z AUTO 22/00 A2996 550 23 1500 M /M RMK AO1 T02170000 $
54779K12N 12N20160509141509105/09/16 14:15:31  5-MIN K12N 091915Z AUTO 22/01 A2996 550 23 1600 M /M RMK AO1 T02220006 $
54779K12N 12N20160509142009105/09/16 14:20:31  5-MIN K12N 091920Z AUTO 22/00 A2995 550 23 1500 M /M RMK AO1 T02170000 $
54779K12N 12N20160509142510705/09/16 14:25:31  5-MIN K12N 091925Z AUTO VRB06G14KT 22/00 A2995 560 23 1500 VRB/06G14 RMK AO1 T02170000 $
54779K12N 12N20160509143012405/09/16 14:30:31  5-MIN K12N 091930Z AUTO 30008G17KT 220V360 22/M01 A2995 560 22 1500 310/08G17 230V010 RMK AO1 T02171006 $
54779K12N 12N20160509143508905/09/16 14:35:31  5-MIN K12N 091935Z AUTO 21/00 A2995 560 24 1400 M /M RMK AO1 T02110000
54779K12N 12N20160509144009905/09/16 14:40:31  5-MIN K12N 091940Z AUTO VRB06KT 22/00 A2995 560 23 1500 VRB/06 RMK AO1 T02170000
54779K12N 12N20160509144510005/09/16 14:45:31  5-MIN K12N 091945Z AUTO VRB04KT 21/M01 A2995 560 23 1400 VRB/04 RMK AO1 T02111006
54779K12N 12N20160509145012805/09/16 14:50:31  5-MIN K12N 091950Z AUTO 33009G16KT 280V010 22/01 A2995 560 24 1600 340/09G16 290V020 RMK AO1 SLP141 T02220011
54779K12N 12N20160509145510605/09/16 14:55:31  5-MIN K12N 091955Z AUTO VRB04G16KT 22/M01 A2994 560 22 1500 VRB/04G16 RMK AO1 T02171006
54779K12N 12N20160509150010005/09/16 15:00:31  5-MIN K12N 092000Z AUTO VRB03KT 22/M01 A2994 570 22 1500 VRB/03 RMK AO1 T02171006
54779K12N 12N20160509150509905/09/16 15:05:31  5-MIN K12N 092005Z AUTO VRB05KT 22/00 A2994 570 23 1500 VRB/05 RMK AO1 T02170000
54779K12N 12N20160509151009905/09/16 15:10:31  5-MIN K12N 092010Z AUTO VRB04KT 22/00 A2994 570 23 1500 VRB/04 RMK AO1 T02170000
54779K12N 12N20160509151510005/09/16 15:15:31  5-MIN K12N 092015Z AUTO VRB05KT 22/M01 A2994 570 22 1500 VRB/05 RMK AO1 T02171006
54779K12N 12N20160509152009905/09/16 15:20:31  5-MIN K12N 092020Z AUTO VRB06KT 22/00 A2994 570 22 1600 VRB/06 RMK AO1 T02220000
54779K12N 12N20160509152509905/09/16 15:25:31  5-MIN K12N 092025Z AUTO 00000KT 22/01 A2994 570 24 1600 000/00 RMK AO1 T02220011
54779K12N 12N20160509153009905/09/16 15:30:31  5-MIN K12N 092030Z AUTO 29005KT 22/01 A2994 570 23 1600 300/05 RMK AO1 T02220006
54779K12N 12N20160509153510005/09/16 15:35:31  5-MIN K12N 092035Z AUTO VRB04KT 22/M01 A2994 570 21 1600 VRB/04 RMK AO1 T02221006
54779K12N 12N20160509154011605/09/16 15:40:31  5-MIN K12N 092040Z AUTO 29007KT 250V340 22/M01 A2994 570 22 1500 300/07 260V350 RMK AO1 T02171006
54779K12N 12N20160509154510005/09/16 15:45:31  5-MIN K12N 092045Z AUTO VRB05KT 21/M01 A2993 570 23 1500 VRB/05 RMK AO1 T02111006
54779K12N 12N20160509155010205/09/16 15:50:31  5-MIN K12N 092050Z AUTO 22/00 A2993 570 23 1500 M /M RMK AO1 SLP136 T02170000 58007
54779K12N 12N20160509155511505/09/16 15:55:31  5-MIN K12N 092055Z AUTO 26007KT 220V320 21/00 A2993 570 24 1500 270/07 230V330 RMK AO1 T02110000
54779K12N 12N20160509160012105/09/16 16:00:31  5-MIN K12N 092100Z AUTO 30009G15KT 270V330 21/00 A2993 570 24 1500 320/09G15 280V340 RMK AO1 T02110000
54779K12N 12N20160509160512105/09/16 16:05:31  5-MIN K12N 092105Z AUTO 32008G15KT 280V360 21/01 A2993 570 25 1500 330/08G15 290V010 RMK AO1 T02110006
54779K12N 12N20160509161009905/09/16 16:10:31  5-MIN K12N 092110Z AUTO VRB05KT 22/01 A2994 570 24 1500 VRB/05 RMK AO1 T02170006
54779K12N 12N20160509161509905/09/16 16:15:31  5-MIN K12N 092115Z AUTO VRB05KT 22/01 A2994 570 24 1500 VRB/05 RMK AO1 T02170006
54779K12N 12N20160509162010505/09/16 16:20:31  5-MIN K12N 092120Z AUTO 30009G15KT 22/00 A2994 570 23 1500 310/09G15 RMK AO1 T02170000
54779K12N 12N20160509162510505/09/16 16:25:31  5-MIN K12N 092125Z AUTO VRB05G16KT 21/01 A2994 570 25 1500 VRB/05G16 RMK AO1 T02110006
54779K12N 12N20160509163010505/09/16 16:30:31  5-MIN K12N 092130Z AUTO VRB05G16KT 22/01 A2994 570 24 1500 VRB/05G16 RMK AO1 T02170006
54779K12N 12N20160509163509905/09/16 16:35:31  5-MIN K12N 092135Z AUTO VRB06KT 22/00 A2994 570 23 1500 VRB/06 RMK AO1 T02170000
54779K12N 12N20160509164008905/09/16 16:40:31  5-MIN K12N 092140Z AUTO 21/01 A2994 570 25 1400 M /M RMK AO1 T02110006
54779K12N 12N20160509164509905/09/16 16:45:31  5-MIN K12N 092145Z AUTO 23005KT 22/01 A2994 570 24 1500 240/05 RMK AO1 T02170006
54779K12N 12N20160509165010605/09/16 16:50:31  5-MIN K12N 092150Z AUTO VRB03KT 21/04 A2994 560 32 1400 VRB/03 RMK AO1 SLP140 T02110039
54779K12N 12N20160509165509905/09/16 16:55:31  5-MIN K12N 092155Z AUTO VRB06KT 21/04 A2995 560 34 1400 VRB/06 RMK AO1 T02060044
54779K12N 12N20160509170009905/09/16 17:00:31  5-MIN K12N 092200Z AUTO VRB05KT 21/04 A2995 560 34 1400 VRB/05 RMK AO1 T02060044
54779K12N 12N20160509170509905/09/16 17:05:31  5-MIN K12N 092205Z AUTO 22007KT 20/05 A2995 560 37 1300 230/07 RMK AO1 T02000050
54779K12N 12N20160509171009905/09/16 17:10:31  5-MIN K12N 092210Z AUTO 22006KT 20/06 A2995 560 38 1300 230/06 RMK AO1 T02000056
54779K12N 12N20160509171509905/09/16 17:15:31  5-MIN K12N 092215Z AUTO 22006KT 20/06 A2995 560 38 1300 240/06 RMK AO1 T02000056
54779K12N 12N20160509172009905/09/16 17:20:31  5-MIN K12N 092220Z AUTO VRB04KT 21/01 A2996 550 26 1400 VRB/04 RMK AO1 T02110011
54779K12N 12N20160509172509905/09/16 17:25:31  5-MIN K12N 092225Z AUTO VRB04KT 20/04 A2996 550 34 1300 VRB/04 RMK AO1 T02000039
54779K12N 12N20160509173009905/09/16 17:30:31  5-MIN K12N 092230Z AUTO 22007KT 20/04 A2996 550 35 1300 240/07 RMK AO1 T02000044
54779K12N 12N20160509173509905/09/16 17:35:31  5-MIN K12N 092235Z AUTO 23006KT 20/05 A2996 550 37 1300 240/06 RMK AO1 T02000050
54779K12N 12N20160509174009905/09/16 17:40:31  5-MIN K12N 092240Z AUTO VRB05KT 20/05 A2996 550 37 1300 VRB/05 RMK AO1 T02000050
54779K12N 12N20160509174509905/09/16 17:45:31  5-MIN K12N 092245Z AUTO 34005KT 20/03 A2997 540 31 1300 350/05 RMK AO1 T02000028
54779K12N 12N20160509175010605/09/16 17:50:31  5-MIN K12N 092250Z AUTO 00000KT 20/02 A2997 540 29 1300 000/00 RMK AO1 SLP149 T02000017
54779K12N 12N20160509175509905/09/16 17:55:31  5-MIN K12N 092255Z AUTO VRB04KT 20/01 A2997 540 28 1300 VRB/04 RMK AO1 T02000011
54779K12N 12N20160509180009905/09/16 18:00:31  5-MIN K12N 092300Z AUTO VRB04KT 20/01 A2997 540 28 1300 VRB/04 RMK AO1 T02000011
54779K12N 12N20160509180509905/09/16 18:05:31  5-MIN K12N 092305Z AUTO 33003KT 19/02 A2998 530 30 1200 340/03 RMK AO1 T01940017
54779K12N 12N20160509181009905/09/16 18:10:31  5-MIN K12N 092310Z AUTO 00000KT 19/01 A2998 530 29 1200 000/00 RMK AO1 T01940011
54779K12N 12N20160509181509905/09/16 18:15:31  5-MIN K12N 092315Z AUTO 00000KT 19/02 A2999 520 31 1100 000/00 RMK AO1 T01890017
54779K12N 12N20160509182009905/09/16 18:20:31  5-MIN K12N 092320Z AUTO 00000KT 18/03 A2999 520 35 1100 000/00 RMK AO1 T01830028
54779K12N 12N20160509182509905/09/16 18:25:31  5-MIN K12N 092325Z AUTO 00000KT 18/03 A2999 520 38 1000 000/00 RMK AO1 T01780033
54779K12N 12N20160509183009905/09/16 18:30:31  5-MIN K12N 092330Z AUTO 00000KT 18/02 A2999 520 32 1100 000/00 RMK AO1 T01830017
54779K12N 12N20160509183509805/09/16 18:35:31  5-MIN K12N 092335Z AUTO 00000KT 17/02 A3000 520 35 900 000/00 RMK AO1 T01720017
54779K12N 12N20160509184009805/09/16 18:40:31  5-MIN K12N 092340Z AUTO 00000KT 17/03 A3000 510 39 900 000/00 RMK AO1 T01670028
54779K12N 12N20160509184509805/09/16 18:45:31  5-MIN K12N 092345Z AUTO 00000KT 17/03 A3000 510 40 900 000/00 RMK AO1 T01670033
54779K12N 12N20160509185012305/09/16 18:50:31  5-MIN K12N 092350Z AUTO 00000KT 16/04 A3000 510 44 800 000/00 RMK AO1 SLP159 T01610039 10222 20161 56017
54779K12N 12N20160509185509805/09/16 18:55:31  5-MIN K12N 092355Z AUTO 00000KT 16/05 A3000 510 47 800 000/00 RMK AO1 T01610050
54779K12N 12N20160509190009805/09/16 19:00:31  5-MIN K12N 100000Z AUTO 00000KT 16/05 A3000 510 49 700 000/00 RMK AO1 T01560050
54779K12N 12N20160509190509805/09/16 19:05:31  5-MIN K12N 100005Z AUTO 00000KT 15/05 A3000 510 51 700 000/00 RMK AO1 T01500050
54779K12N 12N20160509191009805/09/16 19:10:31  5-MIN K12N 100010Z AUTO 00000KT 15/05 A3000 510 51 700 000/00 RMK AO1 T01500050
54779K12N 12N20160509191509805/09/16 19:15:31  5-MIN K12N 100015Z AUTO 00000KT 15/04 A3000 510 49 700 000/00 RMK AO1 T01500044
54779K12N 12N20160509192009805/09/16 19:20:31  5-MIN K12N 100020Z AUTO 00000KT 15/04 A3001 510 49 700 000/00 RMK AO1 T01500044
54779K12N 12N20160509192509805/09/16 19:25:31  5-MIN K12N 100025Z AUTO 00000KT 14/04 A3001 500 51 600 000/00 RMK AO1 T01440044
54779K12N 12N20160509193009805/09/16 19:30:31  5-MIN K12N 100030Z AUTO 00000KT 14/05 A3002 490 55 500 000/00 RMK AO1 T01390050
54779K12N 12N20160509193509805/09/16 19:35:31  5-MIN K12N 100035Z AUTO 00000KT 14/05 A3002 490 55 500 000/00 RMK AO1 T01390050
54779K12N 12N20160509194009805/09/16 19:40:31  5-MIN K12N 100040Z AUTO 00000KT 14/04 A3002 490 51 600 000/00 RMK AO1 T01440044
54779K12N 12N20160509194509805/09/16 19:45:31  5-MIN K12N 100045Z AUTO 00000KT 14/06 A3003 490 57 500 000/00 RMK AO1 T01390056
54779K12N 12N20160509195010505/09/16 19:50:31  5-MIN K12N 100050Z AUTO 00000KT 13/05 A3004 480 57 400 000/00 RMK AO1 SLP171 T01330050
54779K12N 12N20160509195510505/09/16 19:55:31  5-MIN K12N 100055Z AUTO 00000KT 13/06 A3004 470 59 400 000/00 RMK AO1 PRESRR T01330056
54779K12N 12N20160509200010505/09/16 20:00:31  5-MIN K12N 100100Z AUTO 00000KT 13/06 A3005 470 61 400 000/00 RMK AO1 PRESRR T01330061
54779K12N 12N20160509200509805/09/16 20:05:31  5-MIN K12N 100105Z AUTO 00000KT 13/06 A3005 460 59 400 000/00 RMK AO1 T01330056
54779K12N 12N20160509201009805/09/16 20:10:31  5-MIN K12N 100110Z AUTO 00000KT 13/06 A3005 460 63 300 000/00 RMK AO1 T01280061
54779K12N 12N20160509201509805/09/16 20:15:31  5-MIN K12N 100115Z AUTO 00000KT 12/07 A3006 450 68 300 000/00 RMK AO1 T01220067
54779K12N 12N20160509202009805/09/16 20:20:31  5-MIN K12N 100120Z AUTO 00000KT 12/07 A3007 450 68 300 000/00 RMK AO1 T01220067
54779K12N 12N20160509202509805/09/16 20:25:31  5-MIN K12N 100125Z AUTO VRB03KT 13/05 A3007 450 59 300 VRB/03 RMK AO1 T01280050
54779K12N 12N20160509203009805/09/16 20:30:31  5-MIN K12N 100130Z AUTO 00000KT 12/05 A3007 450 61 300 000/00 RMK AO1 T01220050
54779K12N 12N20160509203509805/09/16 20:35:31  5-MIN K12N 100135Z AUTO 03003KT 12/05 A3007 440 61 300 040/03 RMK AO1 T01220050
54779K12N 12N20160509204009805/09/16 20:40:31  5-MIN K12N 100140Z AUTO 00000KT 13/05 A3008 440 59 300 000/00 RMK AO1 T01280050
54779K12N 12N20160509204509805/09/16 20:45:31  5-MIN K12N 100145Z AUTO 00000KT 14/03 A3008 440 47 400 000/00 RMK AO1 T01390028
54779K12N 12N20160509205010505/09/16 20:50:31  5-MIN K12N 100150Z AUTO 00000KT 13/03 A3008 430 50 400 000/00 RMK AO1 SLP186 T01330033
54779K12N 12N20160509205509805/09/16 20:55:31  5-MIN K12N 100155Z AUTO 00000KT 13/04 A3009 430 54 300 000/00 RMK AO1 T01280039
54779K12N 12N20160509210009805/09/16 21:00:31  5-MIN K12N 100200Z AUTO 00000KT 13/03 A3009 430 52 300 000/00 RMK AO1 T01280033
54779K12N 12N20160509210509805/09/16 21:05:31  5-MIN K12N 100205Z AUTO 36003KT 13/03 A3009 430 52 300 010/03 RMK AO1 T01280033
54779K12N 12N20160509211009805/09/16 21:10:31  5-MIN K12N 100210Z AUTO 00000KT 13/03 A3009 430 52 300 000/00 RMK AO1 T01280033
54779K12N 12N20160509211509805/09/16 21:15:31  5-MIN K12N 100215Z AUTO 00000KT 12/04 A3009 430 56 200 000/00 RMK AO1 T01220039
54779K12N 12N20160509212009805/09/16 21:20:31  5-MIN K12N 100220Z AUTO 00000KT 12/05 A3009 430 61 200 000/00 RMK AO1 T01220050
54779K12N 12N20160509212509805/09/16 21:25:31  5-MIN K12N 100225Z AUTO 00000KT 12/05 A3009 430 63 200 000/00 RMK AO1 T01170050
54779K12N 12N20160509213009805/09/16 21:30:31  5-MIN K12N 100230Z AUTO 00000KT 12/05 A3010 420 63 200 000/00 RMK AO1 T01170050
54779K12N 12N20160509213509805/09/16 21:35:31  5-MIN K12N 100235Z AUTO 00000KT 12/05 A3010 420 63 200 000/00 RMK AO1 T01170050
54779K12N 12N20160509214009805/09/16 21:40:31  5-MIN K12N 100240Z AUTO 00000KT 12/05 A3010 420 63 200 000/00 RMK AO1 T01170050
54779K12N 12N20160509214509805/09/16 21:45:31  5-MIN K12N 100245Z AUTO 00000KT 12/04 A3011 410 61 200 000/00 RMK AO1 T01170044
54779K12N 12N20160509215011105/09/16 21:50:31  5-MIN K12N 100250Z AUTO 00000KT 11/04 A3011 410 63 100 000/00 RMK AO1 SLP195 T01110044 53022
54779K12N 12N20160509215509805/09/16 21:55:31  5-MIN K12N 100255Z AUTO 01004KT 12/04 A3011 410 58 100 020/04 RMK AO1 T01170039
54779K12N 12N20160509220009805/09/16 22:00:31  5-MIN K12N 100300Z AUTO 36005KT 12/02 A3011 410 48 200 020/05 RMK AO1 T01220017
54779K12N 12N20160509220509805/09/16 22:05:31  5-MIN K12N 100305Z AUTO 36004KT 13/01 A3011 410 43 300 010/04 RMK AO1 T01280006
54779K12N 12N20160509221009805/09/16 22:10:31  5-MIN K12N 100310Z AUTO 36004KT 13/01 A3012 400 43 300 020/04 RMK AO1 T01280006
54779K12N 12N20160509221509805/09/16 22:15:31  5-MIN K12N 100315Z AUTO 36004KT 13/01 A3012 400 43 300 020/04 RMK AO1 T01280006
54779K12N 12N20160509222009805/09/16 22:20:31  5-MIN K12N 100320Z AUTO 00000KT 12/01 A3012 400 46 200 000/00 RMK AO1 T01220011
54779K12N 12N20160509222509805/09/16 22:25:31  5-MIN K12N 100325Z AUTO 00000KT 12/01 A3013 400 46 200 000/00 RMK AO1 T01220011
54779K12N 12N20160509223009805/09/16 22:30:31  5-MIN K12N 100330Z AUTO 00000KT 12/02 A3013 390 52 100 000/00 RMK AO1 T01170022
54779K12N 12N20160509223509805/09/16 22:35:31  5-MIN K12N 100335Z AUTO 00000KT 12/02 A3013 390 50 100 000/00 RMK AO1 T01170017
54779K12N 12N20160509224009805/09/16 22:40:31  5-MIN K12N 100340Z AUTO 35003KT 11/01 A3013 390 50 100 010/03 RMK AO1 T01110011
54779K12N 12N20160509224509805/09/16 22:45:31  5-MIN K12N 100345Z AUTO VRB04KT 12/01 A3013 390 46 100 VRB/04 RMK AO1 T01170006
54779K12N 12N20160509225010505/09/16 22:50:31  5-MIN K12N 100350Z AUTO 01003KT 12/01 A3013 400 46 100 020/03 RMK AO1 SLP200 T01170006
54779K12N 12N20160509225509805/09/16 22:55:31  5-MIN K12N 100355Z AUTO VRB04KT 12/01 A3013 400 44 200 VRB/04 RMK AO1 T01220006
54779K12N 12N20160509230009805/09/16 23:00:31  5-MIN K12N 100400Z AUTO 36006KT 12/01 A3013 390 46 200 010/06 RMK AO1 T01220011
54779K12N 12N20160509230509805/09/16 23:05:31  5-MIN K12N 100405Z AUTO 36005KT 12/01 A3013 390 46 100 010/05 RMK AO1 T01170006
54779K12N 12N20160509231009805/09/16 23:10:31  5-MIN K12N 100410Z AUTO 36007KT 12/00 A3014 380 43 200 010/07 RMK AO1 T01220000
54779K12N 12N20160509231509805/09/16 23:15:31  5-MIN K12N 100415Z AUTO 36006KT 12/00 A3014 380 43 200 010/06 RMK AO1 T01220000
54779K12N 12N20160509232009805/09/16 23:20:31  5-MIN K12N 100420Z AUTO 36007KT 12/00 A3014 380 44 100 010/07 RMK AO1 T01170000
54779K12N 12N20160509232509805/09/16 23:25:31  5-MIN K12N 100425Z AUTO VRB05KT 12/00 A3014 380 44 100 VRB/05 RMK AO1 T01170000
54779K12N 12N20160509233009805/09/16 23:30:31  5-MIN K12N 100430Z AUTO VRB04KT 12/00 A3015 370 44 100 VRB/04 RMK AO1 T01170000
54779K12N 12N20160509233509805/09/16 23:35:31  5-MIN K12N 100435Z AUTO VRB05KT 12/00 A3015 370 44 100 VRB/05 RMK AO1 T01170000
54779K12N 12N20160509234009805/09/16 23:40:31  5-MIN K12N 100440Z AUTO VRB03KT 12/01 A3016 370 46 100 VRB/03 RMK AO1 T01170006
54779K12N 12N20160509234509805/09/16 23:45:31  5-MIN K12N 100445Z AUTO VRB03KT 12/00 A3016 370 44 100 VRB/03 RMK AO1 T01170000
54779K12N 12N20160509235011305/09/16 23:50:31  5-MIN K12N 100450Z AUTO 03003KT 11/01 A3016 370 50 0 050/03 RMK AO1 SLP210 T01060006 402220033
54779K12N 12N20160509235509605/09/16 23:55:31  5-MIN K12N 100455Z AUTO VRB03KT 11/00 A3016 370 46 0 VRB/03 RMK AO1 T01110000
54779K12N 12N20160510000009605/10/16 00:00:31  5-MIN K12N 100500Z AUTO 03003KT 11/00 A3016 370 48 0 040/03 RMK AO1 T01060000
54779K12N 12N20160510000509605/10/16 00:05:31  5-MIN K12N 100505Z AUTO 00000KT 11/00 A3016 370 48 0 000/00 RMK AO1 T01060000
54779K12N 12N20160510001009905/10/16 00:10:31  5-MIN K12N 100510Z AUTO 36004KT 10/00 A3016 370 49 -100 010/04 RMK AO1 T01000000
54779K12N 12N20160510001510005/10/16 00:15:31  5-MIN K12N 100515Z AUTO 35005KT 10/M01 A3016 370 47 -100 010/05 RMK AO1 T01001006
54779K12N 12N20160510002010005/10/16 00:20:31  5-MIN K12N 100520Z AUTO 36006KT 10/M01 A3016 360 46 -100 010/06 RMK AO1 T01001011
54779K12N 12N20160510002510005/10/16 00:25:31  5-MIN K12N 100525Z AUTO 35006KT 10/M01 A3017 360 46 -100 010/06 RMK AO1 T01001011
54779K12N 12N20160510003009705/10/16 00:30:31  5-MIN K12N 100530Z AUTO 36005KT 11/M01 A3016 360 44 0 020/05 RMK AO1 T01061011
54779K12N 12N20160510003509705/10/16 00:35:31  5-MIN K12N 100535Z AUTO 36004KT 11/M01 A3016 360 46 0 020/04 RMK AO1 T01061006
54779K12N 12N20160510004010005/10/16 00:40:31  5-MIN K12N 100540Z AUTO 36005KT 10/M01 A3016 360 47 -100 010/05 RMK AO1 T01001006
54779K12N 12N20160510004510005/10/16 00:45:31  5-MIN K12N 100545Z AUTO 01004KT 10/M01 A3016 360 47 -100 020/04 RMK AO1 T01001006
54779K12N 12N20160510005012405/10/16 00:50:31  5-MIN K12N 100550Z AUTO VRB04KT 10/M01 A3016 360 47 -100 VRB/04 RMK AO1 SLPNO T01001006 10161 20100 51037
54779K12N 12N20160510005510005/10/16 00:55:31  5-MIN K12N 100555Z AUTO VRB03KT 10/M01 A3016 360 46 -100 VRB/03 RMK AO1 T01001011
54779K12N 12N20160510010010005/10/16 01:00:31  5-MIN K12N 100600Z AUTO VRB03KT 10/M01 A3016 360 46 -100 VRB/03 RMK AO1 T01001011
54779K12N 12N20160510010510005/10/16 01:05:31  5-MIN K12N 100605Z AUTO VRB03KT 09/M01 A3016 360 47 -100 VRB/03 RMK AO1 T00941011
54779K12N 12N20160510011010005/10/16 01:10:31  5-MIN K12N 100610Z AUTO 01004KT 09/M02 A3017 360 45 -100 020/04 RMK AO1 T00941017
54779K12N 12N20160510011510005/10/16 01:15:31  5-MIN K12N 100615Z AUTO VRB03KT 09/M02 A3016 360 45 -100 VRB/03 RMK AO1 T00941017
54779K12N 12N20160510012010005/10/16 01:20:31  5-MIN K12N 100620Z AUTO 00000KT 09/M02 A3017 360 45 -100 000/00 RMK AO1 T00941017
54779K12N 12N20160510012510005/10/16 01:25:31  5-MIN K12N 100625Z AUTO 05003KT 09/M01 A3017 360 49 -200 060/03 RMK AO1 T00891011
54779K12N 12N20160510013010005/10/16 01:30:31  5-MIN K12N 100630Z AUTO 00000KT 08/M02 A3017 360 49 -300 000/00 RMK AO1 T00831017
54779K12N 12N20160510013510005/10/16 01:35:31  5-MIN K12N 100635Z AUTO VRB03KT 08/M02 A3017 360 47 -300 VRB/03 RMK AO1 T00831022
54779K12N 12N20160510014010005/10/16 01:40:31  5-MIN K12N 100640Z AUTO 00000KT 08/M02 A3017 350 47 -300 000/00 RMK AO1 T00831022
54779K12N 12N20160510014510005/10/16 01:45:31  5-MIN K12N 100645Z AUTO 00000KT 08/M01 A3018 350 53 -300 000/00 RMK AO1 T00781011
54779K12N 12N20160510015010705/10/16 01:50:31  5-MIN K12N 100650Z AUTO 00000KT 07/M01 A3018 350 57 -400 000/00 RMK AO1 SLP218 T00721006
54779K12N 12N20160510015510005/10/16 01:55:31  5-MIN K12N 100655Z AUTO 00000KT 07/M02 A3018 350 53 -400 000/00 RMK AO1 T00721017
54779K12N 12N20160510020010005/10/16 02:00:31  5-MIN K12N 100700Z AUTO 00000KT 07/M01 A3018 350 57 -500 000/00 RMK AO1 T00671011
54779K12N 12N20160510020510005/10/16 02:05:31  5-MIN K12N 100705Z AUTO 00000KT 07/M01 A3018 340 57 -400 000/00 RMK AO1 T00721006
54779K12N 12N20160510021009905/10/16 02:10:31  5-MIN K12N 100710Z AUTO 00000KT 06/02 A3018 340 73 -600 000/00 RMK AO1 T00610017
54779K12N 12N20160510021509905/10/16 02:15:31  5-MIN K12N 100715Z AUTO 00000KT 07/00 A3018 340 62 -500 000/00 RMK AO1 T00670000
54779K12N 12N20160510022010005/10/16 02:20:31  5-MIN K12N 100720Z AUTO 00000KT 06/M01 A3018 340 60 -600 000/00 RMK AO1 T00611011
54779K12N 12N20160510022510005/10/16 02:25:31  5-MIN K12N 100725Z AUTO 00000KT 06/M01 A3019 340 60 -600 000/00 RMK AO1 T00611011
54779K12N 12N20160510023010005/10/16 02:30:31  5-MIN K12N 100730Z AUTO 00000KT 06/M01 A3019 340 62 -600 000/00 RMK AO1 T00561011
54779K12N 12N20160510023510005/10/16 02:35:31  5-MIN K12N 100735Z AUTO 00000KT 06/M01 A3019 340 60 -600 000/00 RMK AO1 T00611011
54779K12N 12N20160510024010005/10/16 02:40:31  5-MIN K12N 100740Z AUTO 00000KT 06/M01 A3019 330 60 -600 000/00 RMK AO1 T00611011
54779K12N 12N20160510024510005/10/16 02:45:31  5-MIN K12N 100745Z AUTO 00000KT 06/M01 A3019 330 65 -600 000/00 RMK AO1 T00561006
54779K12N 12N20160510025010605/10/16 02:50:31  5-MIN K12N 100750Z AUTO 00000KT 06/01 A3019 340 70 -600 000/00 RMK AO1 SLP223 T00560006
54779K12N 12N20160510025509905/10/16 02:55:31  5-MIN K12N 100755Z AUTO 00000KT 06/00 A3019 330 67 -600 000/00 RMK AO1 T00560000
54779K12N 12N20160510030010005/10/16 03:00:31  5-MIN K12N 100800Z AUTO 00000KT 06/M01 A3019 330 65 -600 000/00 RMK AO1 T00561006
54779K12N 12N20160510030510005/10/16 03:05:31  5-MIN K12N 100805Z AUTO 00000KT 06/M01 A3019 330 65 -600 000/00 RMK AO1 T00561006
54779K12N 12N20160510031009905/10/16 03:10:31  5-MIN K12N 100810Z AUTO 00000KT 06/00 A3019 330 67 -600 000/00 RMK AO1 T00560000
54779K12N 12N20160510031509905/10/16 03:15:31  5-MIN K12N 100815Z AUTO 00000KT 06/00 A3019 330 67 -600 000/00 RMK AO1 T00560000
54779K12N 12N20160510032009905/10/16 03:20:31  5-MIN K12N 100820Z AUTO 00000KT 06/00 A3020 330 67 -600 000/00 RMK AO1 T00560000
54779K12N 12N20160510032509905/10/16 03:25:31  5-MIN K12N 100825Z AUTO 00000KT 06/01 A3020 330 70 -600 000/00 RMK AO1 T00560006
54779K12N 12N20160510033009905/10/16 03:30:31  5-MIN K12N 100830Z AUTO 00000KT 05/01 A3020 330 76 -700 000/00 RMK AO1 T00500011
54779K12N 12N20160510033509905/10/16 03:35:31  5-MIN K12N 100835Z AUTO 00000KT 04/00 A3020 330 73 -800 000/00 RMK AO1 T00440000
54779K12N 12N20160510034010005/10/16 03:40:31  5-MIN K12N 100840Z AUTO 00000KT 05/M01 A3020 330 67 -700 000/00 RMK AO1 T00501006
54779K12N 12N20160510034510005/10/16 03:45:31  5-MIN K12N 100845Z AUTO 00000KT 05/M01 A3020 330 67 -700 000/00 RMK AO1 T00501006
54779K12N 12N20160510035011305/10/16 03:50:31  5-MIN K12N 100850Z AUTO 00000KT 04/M01 A3020 330 70 -800 000/00 RMK AO1 SLP226 T00441006 51017
54779K12N 12N20160510035509905/10/16 03:55:31  5-MIN K12N 100855Z AUTO 00000KT 04/00 A3020 330 73 -800 000/00 RMK AO1 T00440000
54779K12N 12N20160510040009905/10/16 04:00:31  5-MIN K12N 100900Z AUTO 00000KT 04/01 A3020 330 76 -800 000/00 RMK AO1 T00440006
54779K12N 12N20160510040509905/10/16 04:05:31  5-MIN K12N 100905Z AUTO 00000KT 04/01 A3021 320 76 -800 000/00 RMK AO1 T00440006
54779K12N 12N20160510071510005/10/16 07:15:31  5-MIN K12N 101215Z AUTO 00000KT 10/M02 A3027 260 44 -200 000/00 RMK AO1 T01001017
54779K12N 12N20160510072009705/10/16 07:20:31  5-MIN K12N 101220Z AUTO 00000KT 11/M02 A3027 270 41 0 000/00 RMK AO1 T01111017
54779K12N 12N20160510072509705/10/16 07:25:31  5-MIN K12N 101225Z AUTO 00000KT 11/M03 A3027 260 37 0 000/00 RMK AO1 T01111028
54779K12N 12N20160510073009705/10/16 07:30:31  5-MIN K12N 101230Z AUTO 00000KT 12/M02 A3027 270 39 0 000/00 RMK AO1 T01171017
54779K12N 12N20160510073509705/10/16 07:35:31  5-MIN K12N 101235Z AUTO 00000KT 12/M02 A3027 270 38 0 000/00 RMK AO1 T01171022
54779K12N 12N20160510074009705/10/16 07:40:31  5-MIN K12N 101240Z AUTO 00000KT 12/M03 A3026 270 36 0 000/00 RMK AO1 T01171028
54779K12N 12N20160510074509705/10/16 07:45:31  5-MIN K12N 101245Z AUTO 00000KT 12/M02 A3027 270 36 0 000/00 RMK AO1 T01221022
54779K12N 12N20160510075010405/10/16 07:50:31  5-MIN K12N 101250Z AUTO 00000KT 12/M03 A3026 270 36 0 000/00 RMK AO1 SLP248 T01171028
54779K12N 12N20160510075509705/10/16 07:55:31  5-MIN K12N 101255Z AUTO 04003KT 12/M03 A3026 270 36 0 060/03 RMK AO1 T01171028
54779K12N 12N20160510080009705/10/16 08:00:31  5-MIN K12N 101300Z AUTO 05004KT 12/M03 A3026 270 33 0 060/04 RMK AO1 T01221033
54779K12N 12N20160510080509905/10/16 08:05:31  5-MIN K12N 101305Z AUTO 04004KT 13/M04 A3026 270 31 100 050/04 RMK AO1 T01281039
54779K12N 12N20160510081009905/10/16 08:10:31  5-MIN K12N 101310Z AUTO 04005KT 13/M04 A3026 270 31 100 060/05 RMK AO1 T01281039
54779K12N 12N20160510081509905/10/16 08:15:31  5-MIN K12N 101315Z AUTO 04005KT 13/M04 A3026 270 30 100 060/05 RMK AO1 T01281044
54779K12N 12N20160510082009905/10/16 08:20:31  5-MIN K12N 101320Z AUTO 04005KT 13/M04 A3026 270 31 100 060/05 RMK AO1 T01281039
54779K12N 12N20160510082509905/10/16 08:25:31  5-MIN K12N 101325Z AUTO 08006KT 13/M05 A3026 270 28 100 090/06 RMK AO1 T01281050
54779K12N 12N20160510083009905/10/16 08:30:31  5-MIN K12N 101330Z AUTO VRB04KT 13/M04 A3026 270 31 100 VRB/04 RMK AO1 T01281039
54779K12N 12N20160510083509905/10/16 08:35:31  5-MIN K12N 101335Z AUTO 36003KT 13/M04 A3026 270 30 200 010/03 RMK AO1 T01331039
54779K12N 12N20160510084009905/10/16 08:40:31  5-MIN K12N 101340Z AUTO VRB03KT 13/M04 A3026 270 30 200 VRB/03 RMK AO1 T01331039
54779K12N 12N20160510084509905/10/16 08:45:31  5-MIN K12N 101345Z AUTO VRB03KT 13/M06 A3026 270 26 200 VRB/03 RMK AO1 T01331056
54779K12N 12N20160510085010605/10/16 08:50:31  5-MIN K12N 101350Z AUTO VRB03KT 14/M03 A3026 270 30 200 VRB/03 RMK AO1 SLP247 T01391033
54779K12N 12N20160510085509905/10/16 08:55:31  5-MIN K12N 101355Z AUTO VRB03KT 14/M04 A3026 270 29 200 VRB/03 RMK AO1 T01391039
54779K12N 12N20160510090009905/10/16 09:00:31  5-MIN K12N 101400Z AUTO 04003KT 14/M03 A3027 270 30 200 050/03 RMK AO1 T01391033
54779K12N 12N20160510090509905/10/16 09:05:31  5-MIN K12N 101405Z AUTO 00000KT 13/M04 A3027 270 28 200 000/00 RMK AO1 T01331044
54779K12N 12N20160510091009905/10/16 09:10:31  5-MIN K12N 101410Z AUTO 00000KT 13/M05 A3027 270 27 200 000/00 RMK AO1 T01331050
54779K12N 12N20160510091509905/10/16 09:15:31  5-MIN K12N 101415Z AUTO 20003KT 13/M04 A3027 270 30 100 220/03 RMK AO1 T01281044
54779K12N 12N20160510092009905/10/16 09:20:31  5-MIN K12N 101420Z AUTO 00000KT 13/M06 A3026 270 26 200 000/00 RMK AO1 T01331056
54779K12N 12N20160510092509905/10/16 09:25:31  5-MIN K12N 101425Z AUTO VRB04KT 14/M04 A3026 270 27 200 VRB/04 RMK AO1 T01391044
54779K12N 12N20160510093009905/10/16 09:30:31  5-MIN K12N 101430Z AUTO 00000KT 14/M03 A3026 270 30 300 000/00 RMK AO1 T01441028
54779K12N 12N20160510093509905/10/16 09:35:31  5-MIN K12N 101435Z AUTO VRB03KT 14/M04 A3026 270 27 200 VRB/03 RMK AO1 T01391044
54779K12N 12N20160510094009905/10/16 09:40:31  5-MIN K12N 101440Z AUTO 00000KT 14/M03 A3026 270 29 300 000/00 RMK AO1 T01441033
54779K12N 12N20160510094509905/10/16 09:45:31  5-MIN K12N 101445Z AUTO VRB03KT 15/M03 A3026 270 28 400 VRB/03 RMK AO1 T01501033
54779K12N 12N20160510095011205/10/16 09:50:31  5-MIN K12N 101450Z AUTO VRB03KT 16/M03 A3026 270 28 400 VRB/03 RMK AO1 SLP247 T01561028 51024
54779K12N 12N20160510095509905/10/16 09:55:31  5-MIN K12N 101455Z AUTO VRB03KT 14/M04 A3026 270 27 200 VRB/03 RMK AO1 T01391044
54779K12N 12N20160510100009905/10/16 10:00:31  5-MIN K12N 101500Z AUTO 00000KT 15/M04 A3026 270 27 400 000/00 RMK AO1 T01501039
54779K12N 12N20160510100509905/10/16 10:05:31  5-MIN K12N 101505Z AUTO VRB04KT 16/M03 A3025 280 28 400 VRB/04 RMK AO1 T01561028
54779K12N 12N20160510101009905/10/16 10:10:31  5-MIN K12N 101510Z AUTO 20005KT 16/M03 A3025 280 28 400 210/05 RMK AO1 T01561028
54779K12N 12N20160510101509905/10/16 10:15:31  5-MIN K12N 101515Z AUTO 31005KT 16/M03 A3025 280 28 400 320/05 RMK AO1 T01561028
54779K12N 12N20160510102009905/10/16 10:20:31  5-MIN K12N 101520Z AUTO 01003KT 16/M03 A3026 280 27 500 020/03 RMK AO1 T01611028
54779K12N 12N20160510102509905/10/16 10:25:31  5-MIN K12N 101525Z AUTO 22005KT 16/M02 A3026 280 29 400 230/05 RMK AO1 T01561022
54779K12N 12N20160510103009905/10/16 10:30:31  5-MIN K12N 101530Z AUTO VRB03KT 15/M03 A3026 280 29 400 VRB/03 RMK AO1 T01501028
54779K12N 12N20160510103509905/10/16 10:35:31  5-MIN K12N 101535Z AUTO 00000KT 15/M03 A3025 280 28 400 000/00 RMK AO1 T01501033
54779K12N 12N20160510104009905/10/16 10:40:31  5-MIN K12N 101540Z AUTO 00000KT 16/M03 A3025 280 28 500 000/00 RMK AO1 T01561028
54779K12N 12N20160510104509905/10/16 10:45:31  5-MIN K12N 101545Z AUTO 12003KT 16/M03 A3025 280 28 500 140/03 RMK AO1 T01561028
54779K12N 12N20160510105009605/10/16 10:50:31  5-MIN K12N 101550Z AUTO 16/M03 A3025 280 28 500 M /M RMK AO1 SLP243 T01561028
54779K12N 12N20160510105509905/10/16 10:55:31  5-MIN K12N 101555Z AUTO 00000KT 16/M03 A3025 280 28 500 000/00 RMK AO1 T01561028
54779K12N 12N20160510110009905/10/16 11:00:31  5-MIN K12N 101600Z AUTO 24004KT 15/M04 A3025 290 27 400 250/04 RMK AO1 T01501039
54779K12N 12N20160510110509905/10/16 11:05:31  5-MIN K12N 101605Z AUTO 20003KT 15/M03 A3024 290 28 400 220/03 RMK AO1 T01501033
54779K12N 12N20160510111009905/10/16 11:10:31  5-MIN K12N 101610Z AUTO VRB04KT 16/M03 A3025 290 28 500 VRB/04 RMK AO1 T01561028
54779K12N 12N20160510111509905/10/16 11:15:31  5-MIN K12N 101615Z AUTO 22005KT 16/M02 A3025 290 29 500 230/05 RMK AO1 T01561022
54779K12N 12N20160510112009905/10/16 11:20:31  5-MIN K12N 101620Z AUTO 18005KT 15/M03 A3024 290 29 400 190/05 RMK AO1 T01501028
54779K12N 12N20160510112509905/10/16 11:25:31  5-MIN K12N 101625Z AUTO 24006KT 16/M02 A3024 290 29 500 250/06 RMK AO1 T01561022
54779K12N 12N20160510113009905/10/16 11:30:31  5-MIN K12N 101630Z AUTO 19003KT 16/M02 A3024 290 29 500 200/03 RMK AO1 T01561022
54779K12N 12N20160510113509905/10/16 11:35:31  5-MIN K12N 101635Z AUTO VRB06KT 16/M02 A3024 290 29 500 VRB/06 RMK AO1 T01561022
54779K12N 12N20160510114009905/10/16 11:40:31  5-MIN K12N 101640Z AUTO 23007KT 16/M02 A3024 300 28 500 240/07 RMK AO1 T01611022
54779K12N 12N20160510114509905/10/16 11:45:31  5-MIN K12N 101645Z AUTO VRB04KT 16/M02 A3023 300 30 500 VRB/04 RMK AO1 T01561017
54779K12N 12N20160510115010605/10/16 11:50:31  5-MIN K12N 101650Z AUTO 21007KT 16/M02 A3023 300 30 500 230/07 RMK AO1 SLP236 T01561017
54779K12N 12N20160510115509905/10/16 11:55:31  5-MIN K12N 101655Z AUTO 20005KT 16/M02 A3023 300 29 500 210/05 RMK AO1 T01561022
54779K12N 12N20160510120009905/10/16 12:00:31  5-MIN K12N 101700Z AUTO VRB06KT 16/M02 A3023 300 30 500 VRB/06 RMK AO1 T01561017
54779K12N 12N20160510120509905/10/16 12:05:31  5-MIN K12N 101705Z AUTO 22012KT 16/M01 A3023 300 31 500 230/12 RMK AO1 T01561011
54779K12N 12N20160510121010505/10/16 12:10:31  5-MIN K12N 101710Z AUTO 22010G15KT 16/M01 A3022 310 33 500 230/10G15 RMK AO1 T01561006
54779K12N 12N20160510121510505/10/16 12:15:31  5-MIN K12N 101715Z AUTO 22008G15KT 16/M01 A3022 310 33 500 230/08G15 RMK AO1 T01561006
54779K12N 12N20160510122010505/10/16 12:20:31  5-MIN K12N 101720Z AUTO 23007G15KT 16/M01 A3022 300 33 500 240/07G15 RMK AO1 T01561006
54779K12N 12N20160510122509905/10/16 12:25:31  5-MIN K12N 101725Z AUTO 23006KT 16/M01 A3022 310 32 500 240/06 RMK AO1 T01611006
54779K12N 12N20160510123009805/10/16 12:30:31  5-MIN K12N 101730Z AUTO VRB05KT 16/00 A3022 310 33 600 VRB/05 RMK AO1 T01610000
54779K12N 12N20160510123509905/10/16 12:35:31  5-MIN K12N 101735Z AUTO VRB05KT 16/M01 A3023 300 33 500 VRB/05 RMK AO1 T01561006
54779K12N 12N20160510124011505/10/16 12:40:31  5-MIN K12N 101740Z AUTO 20007KT 160V230 16/M01 A3023 300 33 500 210/07 170V240 RMK AO1 T01561006
54779K12N 12N20160510124510505/10/16 12:45:31  5-MIN K12N 101745Z AUTO 21011G16KT 16/M01 A3022 300 33 500 220/11G16 RMK AO1 T01561006
54779K12N 12N20160510125014605/10/16 12:50:31  5-MIN K12N 101750Z AUTO 23008G16KT 180V260 15/M01 A3023 300 33 400 240/08G16 190V270 RMK AO1 SLP236 T01501011 10167 20094 56005
54779K12N 12N20160510125510505/10/16 12:55:31  5-MIN K12N 101755Z AUTO 23008G15KT 15/M02 A3023 300 31 400 240/08G15 RMK AO1 T01501017
54779K12N 12N20160510130010505/10/16 13:00:31  5-MIN K12N 101800Z AUTO 22009G15KT 15/M02 A3023 300 30 400 240/09G15 RMK AO1 T01501022
54779K12N 12N20160510130509905/10/16 13:05:31  5-MIN K12N 101805Z AUTO 24008KT 15/M03 A3023 300 29 400 250/08 RMK AO1 T01501028
54779K12N 12N20160510131009905/10/16 13:10:31  5-MIN K12N 101810Z AUTO VRB06KT 15/M03 A3023 300 29 400 VRB/06 RMK AO1 T01501028
54779K12N 12N20160510131509905/10/16 13:15:31  5-MIN K12N 101815Z AUTO 22006KT 15/M02 A3023 300 30 400 240/06 RMK AO1 T01501022
54779K12N 12N20160510132012105/10/16 13:20:31  5-MIN K12N 101820Z AUTO 23007G15KT 190V290 15/M02 A3023 300 31 400 240/07G15 200V300 RMK AO1 T01501017
54779K12N 12N20160510132510505/10/16 13:25:31  5-MIN K12N 101825Z AUTO VRB05G15KT 14/M02 A3023 300 31 300 VRB/05G15 RMK AO1 T01441022
54779K12N 12N20160510133009905/10/16 13:30:31  5-MIN K12N 101830Z AUTO 23006KT 14/M01 A3022 310 34 400 240/06 RMK AO1 T01441011
54779K12N 12N20160510133509905/10/16 13:35:31  5-MIN K12N 101835Z AUTO 23010KT 14/M02 A3022 310 33 400 250/10 RMK AO1 T01441017
54779K12N 12N20160510134009905/10/16 13:40:31  5-MIN K12N 101840Z AUTO VRB04KT 14/M02 A3022 310 33 400 VRB/04 RMK AO1 T01441017
54779K12N 12N20160510134509905/10/16 13:45:31  5-MIN K12N 101845Z AUTO 22008KT 14/M02 A3022 310 34 300 230/08 RMK AO1 T01391017
54779K12N 12N20160510135010605/10/16 13:50:31  5-MIN K12N 101850Z AUTO 22007KT 14/M02 A3022 310 33 400 230/07 RMK AO1 SLP235 T01441017
54779K12N 12N20160510135509905/10/16 13:55:31  5-MIN K12N 101855Z AUTO 23009KT 14/M02 A3022 310 32 300 240/09 RMK AO1 T01391022
54779K12N 12N20160510140009905/10/16 14:00:31  5-MIN K12N 101900Z AUTO VRB06KT 14/M02 A3022 310 32 300 VRB/06 RMK AO1 T01391022
54779K12N 12N20160510140509905/10/16 14:05:31  5-MIN K12N 101905Z AUTO 22007KT 14/M02 A3022 310 34 300 230/07 RMK AO1 T01391017
54779K12N 12N20160510141009905/10/16 14:10:31  5-MIN K12N 101910Z AUTO 22008KT 14/M02 A3021 320 34 300 230/08 RMK AO1 T01391017
54779K12N 12N20160510141511505/10/16 14:15:31  5-MIN K12N 101915Z AUTO 22008KT 190V250 13/M01 A3021 320 36 200 230/08 200V260 RMK AO1 T01331011
54779K12N 12N20160510142009905/10/16 14:20:31  5-MIN K12N 101920Z AUTO 21006KT 13/M01 A3021 320 36 200 220/06 RMK AO1 T01331011
54779K12N 12N20160510142509905/10/16 14:25:31  5-MIN K12N 101925Z AUTO 22006KT 13/M01 A3021 320 36 200 230/06 RMK AO1 T01331011
54779K12N 12N20160510143009905/10/16 14:30:31  5-MIN K12N 101930Z AUTO 21006KT 13/M01 A3020 320 38 200 220/06 RMK AO1 T01331006
54779K12N 12N20160510143511405/10/16 14:35:31  5-MIN K12N 101935Z AUTO 22007KT 180V240 13/00 A3020 330 40 200 230/07 190V250 RMK AO1 T01330000
54779K12N 12N20160510144009905/10/16 14:40:31  5-MIN K12N 101940Z AUTO 22004KT 13/M01 A3020 330 38 200 230/04 RMK AO1 T01331006
54779K12N 12N20160510144509805/10/16 14:45:31  5-MIN K12N 101945Z AUTO VRB06KT 13/00 A3020 330 40 300 VRB/06 RMK AO1 T01330000
54779K12N 12N20160510145010505/10/16 14:50:31  5-MIN K12N 101950Z AUTO VRB06KT 13/00 A3020 330 40 200 VRB/06 RMK AO1 SLP229 T01330000
54779K12N 12N20160510145509805/10/16 14:55:31  5-MIN K12N 101955Z AUTO VRB05KT 13/00 A3019 330 40 300 VRB/05 RMK AO1 T01330000
54779K12N 12N20160510150009805/10/16 15:00:31  5-MIN K12N 102000Z AUTO VRB04KT 13/01 A3019 330 41 300 VRB/04 RMK AO1 T01330006
54779K12N 12N20160510150509805/10/16 15:05:31  5-MIN K12N 102005Z AUTO 21006KT 13/01 A3020 330 41 300 230/06 RMK AO1 T01330006
54779K12N 12N20160510151009805/10/16 15:10:31  5-MIN K12N 102010Z AUTO 21006KT 13/01 A3020 330 41 300 220/06 RMK AO1 T01330006
54779K12N 12N20160510151509805/10/16 15:15:31  5-MIN K12N 102015Z AUTO 21007KT 13/00 A3019 330 40 300 230/07 RMK AO1 T01330000
54779K12N 12N20160510152009805/10/16 15:20:31  5-MIN K12N 102020Z AUTO 21006KT 13/01 A3019 330 41 300 220/06 RMK AO1 T01330006
54779K12N 12N20160510152509805/10/16 15:25:31  5-MIN K12N 102025Z AUTO 22008KT 13/01 A3019 330 41 300 230/08 RMK AO1 T01330006
54779K12N 12N20160510153010405/10/16 15:30:31  5-MIN K12N 102030Z AUTO 22006G14KT 13/00 A3019 340 40 300 230/06G14 RMK AO1 T01330000
54779K12N 12N20160510153509805/10/16 15:35:31  5-MIN K12N 102035Z AUTO 22006KT 13/00 A3019 340 40 300 230/06 RMK AO1 T01330000
54779K12N 12N20160510154011405/10/16 15:40:31  5-MIN K12N 102040Z AUTO 21007KT 170V240 13/00 A3019 340 40 300 220/07 180V250 RMK AO1 T01330000
54779K12N 12N20160510154509805/10/16 15:45:31  5-MIN K12N 102045Z AUTO VRB06KT 13/00 A3019 340 40 300 VRB/06 RMK AO1 T01330000
54779K12N 12N20160510155011105/10/16 15:50:31  5-MIN K12N 102050Z AUTO 22006KT 13/01 A3019 340 41 300 230/06 RMK AO1 SLP225 T01330006 56010
54779K12N 12N20160510155509805/10/16 15:55:31  5-MIN K12N 102055Z AUTO 21008KT 13/01 A3019 340 43 300 230/08 RMK AO1 T01330011
54779K12N 12N20160510160010405/10/16 16:00:31  5-MIN K12N 102100Z AUTO 21006G15KT 13/01 A3019 340 43 300 220/06G15 RMK AO1 T01330011
54779K12N 12N20160510160509805/10/16 16:05:31  5-MIN K12N 102105Z AUTO 23006KT 13/02 A3018 340 45 300 250/06 RMK AO1 T01330017
54779K12N 12N20160510161009805/10/16 16:10:31  5-MIN K12N 102110Z AUTO 23005KT 13/02 A3018 340 45 300 240/05 RMK AO1 T01330017
54779K12N 12N20160510161509805/10/16 16:15:31  5-MIN K12N 102115Z AUTO 22003KT 13/02 A3018 350 46 300 230/03 RMK AO1 T01330022
54779K12N 12N20160510162009805/10/16 16:20:31  5-MIN K12N 102120Z AUTO 20005KT 13/02 A3018 350 46 300 210/05 RMK AO1 T01330022
54779K12N 12N20160510162509805/10/16 16:25:31  5-MIN K12N 102125Z AUTO VRB06KT 13/03 A3018 350 48 300 VRB/06 RMK AO1 T01330028
54779K12N 12N20160510163009805/10/16 16:30:31  5-MIN K12N 102130Z AUTO VRB03KT 14/03 A3017 350 47 300 VRB/03 RMK AO1 T01390028
54779K12N 12N20160510163509805/10/16 16:35:31  5-MIN K12N 102135Z AUTO VRB03KT 14/03 A3017 350 47 300 VRB/03 RMK AO1 T01390028
54779K12N 12N20160510164009805/10/16 16:40:31  5-MIN K12N 102140Z AUTO VRB04KT 14/03 A3017 360 48 300 VRB/04 RMK AO1 T01390033
54779K12N 12N20160510164509805/10/16 16:45:31  5-MIN K12N 102145Z AUTO VRB03KT 14/03 A3017 360 48 300 VRB/03 RMK AO1 T01390033
54779K12N 12N20160510165010505/10/16 16:50:31  5-MIN K12N 102150Z AUTO 20004KT 14/04 A3017 360 50 400 210/04 RMK AO1 SLP219 T01390039
54779K12N 12N20160510165509805/10/16 16:55:31  5-MIN K12N 102155Z AUTO VRB05KT 14/03 A3017 360 48 400 VRB/05 RMK AO1 T01390033
54779K12N 12N20160510170009805/10/16 17:00:31  5-MIN K12N 102200Z AUTO 22005KT 14/04 A3017 360 50 400 230/05 RMK AO1 T01390039
54779K12N 12N20160510170509805/10/16 17:05:31  5-MIN K12N 102205Z AUTO VRB03KT 14/03 A3016 360 48 400 VRB/03 RMK AO1 T01390033
54779K12N 12N20160510171009805/10/16 17:10:31  5-MIN K12N 102210Z AUTO VRB04KT 14/04 A3016 360 50 400 VRB/04 RMK AO1 T01390039
54779K12N 12N20160510171509805/10/16 17:15:31  5-MIN K12N 102215Z AUTO 22004KT 14/04 A3017 360 50 400 230/04 RMK AO1 T01390039
54779K12N 12N20160510172009805/10/16 17:20:31  5-MIN K12N 102220Z AUTO VRB04KT 14/04 A3017 360 52 400 VRB/04 RMK AO1 T01390044
54779K12N 12N20160510172509805/10/16 17:25:31  5-MIN K12N 102225Z AUTO 20003KT 14/04 A3017 360 52 300 210/03 RMK AO1 T01390044
54779K12N 12N20160510173009805/10/16 17:30:31  5-MIN K12N 102230Z AUTO VRB03KT 14/04 A3017 360 52 400 VRB/03 RMK AO1 T01390044
54779K12N 12N20160510173509805/10/16 17:35:31  5-MIN K12N 102235Z AUTO 00000KT 14/05 A3016 360 55 400 000/00 RMK AO1 T01390050
54779K12N 12N20160510174009805/10/16 17:40:31  5-MIN K12N 102240Z AUTO VRB03KT 14/04 A3016 360 52 400 VRB/03 RMK AO1 T01390044
54779K12N 12N20160510174509805/10/16 17:45:31  5-MIN K12N 102245Z AUTO 23004KT 14/05 A3016 360 55 400 240/04 RMK AO1 T01390050
54779K12N 12N20160510175010505/10/16 17:50:31  5-MIN K12N 102250Z AUTO VRB03KT 14/05 A3016 360 55 400 VRB/03 RMK AO1 SLP217 T01390050
54779K12N 12N20160510175509805/10/16 17:55:31  5-MIN K12N 102255Z AUTO VRB04KT 14/05 A3016 360 55 400 VRB/04 RMK AO1 T01390050
54779K12N 12N20160510180009805/10/16 18:00:31  5-MIN K12N 102300Z AUTO 22005KT 14/05 A3016 360 55 400 230/05 RMK AO1 T01390050
54779K12N 12N20160510180509805/10/16 18:05:31  5-MIN K12N 102305Z AUTO VRB04KT 14/06 A3016 360 57 400 VRB/04 RMK AO1 T01390056
54779K12N 12N20160510181009805/10/16 18:10:31  5-MIN K12N 102310Z AUTO 20003KT 14/06 A3016 360 57 400 220/03 RMK AO1 T01390056
54779K12N 12N20160510181509805/10/16 18:15:31  5-MIN K12N 102315Z AUTO 22005KT 14/06 A3016 360 57 400 230/05 RMK AO1 T01390056
54779K12N 12N20160510182009805/10/16 18:20:31  5-MIN K12N 102320Z AUTO 22004KT 13/06 A3016 360 59 300 240/04 RMK AO1 T01330056
54779K12N 12N20160510182509805/10/16 18:25:31  5-MIN K12N 102325Z AUTO VRB03KT 13/06 A3016 360 59 300 VRB/03 RMK AO1 T01330056
54779K12N 12N20160510183009805/10/16 18:30:31  5-MIN K12N 102330Z AUTO 00000KT 13/06 A3016 360 61 300 000/00 RMK AO1 T01330061
54779K12N 12N20160510183509805/10/16 18:35:31  5-MIN K12N 102335Z AUTO 00000KT 13/06 A3016 360 59 300 000/00 RMK AO1 T01330056
54779K12N 12N20160510184009805/10/16 18:40:31  5-MIN K12N 102340Z AUTO 00000KT 13/06 A3016 360 63 200 000/00 RMK AO1 T01280061
54779K12N 12N20160510184509805/10/16 18:45:31  5-MIN K12N 102345Z AUTO 00000KT 13/06 A3016 360 63 200 000/00 RMK AO1 T01280061
54779K12N 12N20160510185012305/10/16 18:50:31  5-MIN K12N 102350Z AUTO 00000KT 13/06 A3016 360 63 200 000/00 RMK AO1 SLP215 T01280061 10150 20128 58013
54779K12N 12N20160510185509805/10/16 18:55:31  5-MIN K12N 102355Z AUTO 00000KT 13/06 A3016 360 63 200 000/00 RMK AO1 T01280061
54779K12N 12N20160510190009805/10/16 19:00:31  5-MIN K12N 110000Z AUTO 00000KT 13/06 A3016 360 63 200 000/00 RMK AO1 T01280061
54779K12N 12N20160510190509805/10/16 19:05:31  5-MIN K12N 110005Z AUTO 20003KT 13/06 A3017 360 63 200 210/03 RMK AO1 T01280061
54779K12N 12N20160510191009805/10/16 19:10:31  5-MIN K12N 110010Z AUTO 00000KT 13/06 A3017 360 63 200 000/00 RMK AO1 T01280061
54779K12N 12N20160510191509805/10/16 19:15:31  5-MIN K12N 110015Z AUTO 00000KT 13/06 A3017 360 61 200 000/00 RMK AO1 T01280056
54779K12N 12N20160510192009805/10/16 19:20:31  5-MIN K12N 110020Z AUTO 00000KT 12/06 A3017 360 66 200 000/00 RMK AO1 T01220061
54779K12N 12N20160510192509805/10/16 19:25:31  5-MIN K12N 110025Z AUTO 00000KT 12/06 A3017 360 66 100 000/00 RMK AO1 T01220061
54779K12N 12N20160510193009805/10/16 19:30:31  5-MIN K12N 110030Z AUTO VRB03KT 12/06 A3017 360 66 100 VRB/03 RMK AO1 T01220061
54779K12N 12N20160510193509805/10/16 19:35:31  5-MIN K12N 110035Z AUTO VRB03KT 12/06 A3017 350 66 100 VRB/03 RMK AO1 T01220061
54779K12N 12N20160510194009805/10/16 19:40:31  5-MIN K12N 110040Z AUTO VRB03KT 12/06 A3017 350 66 100 VRB/03 RMK AO1 T01220061
54779K12N 12N20160510194509805/10/16 19:45:31  5-MIN K12N 110045Z AUTO 18003KT 12/06 A3017 350 66 100 200/03 RMK AO1 T01220061
54779K12N 12N20160510195010505/10/16 19:50:31  5-MIN K12N 110050Z AUTO 20003KT 12/06 A3018 350 66 100 220/03 RMK AO1 SLP219 T01220061
54779K12N 12N20160510195509805/10/16 19:55:31  5-MIN K12N 110055Z AUTO 00000KT 12/06 A3018 350 68 100 000/00 RMK AO1 T01170061
54779K12N 12N20160510200009805/10/16 20:00:31  5-MIN K12N 110100Z AUTO 18003KT 12/06 A3018 350 68 100 190/03 RMK AO1 T01170061
54779K12N 12N20160510200509805/10/16 20:05:31  5-MIN K12N 110105Z AUTO 19003KT 12/06 A3018 350 68 100 200/03 RMK AO1 T01170061
54779K12N 12N20160510201009805/10/16 20:10:31  5-MIN K12N 110110Z AUTO 17003KT 12/06 A3018 340 68 100 190/03 RMK AO1 T01170061
54779K12N 12N20160510201509805/10/16 20:15:31  5-MIN K12N 110115Z AUTO 18003KT 12/06 A3019 340 68 100 190/03 RMK AO1 T01170061
54779K12N 12N20160510202009805/10/16 20:20:31  5-MIN K12N 110120Z AUTO 00000KT 12/06 A3019 340 68 100 000/00 RMK AO1 T01170061
54779K12N 12N20160510202509805/10/16 20:25:31  5-MIN K12N 110125Z AUTO 18003KT 12/06 A3019 340 68 100 190/03 RMK AO1 T01170061
54779K12N 12N20160510203009805/10/16 20:30:31  5-MIN K12N 110130Z AUTO 00000KT 12/06 A3019 340 68 100 000/00 RMK AO1 T01170061
54779K12N 12N20160510203509605/10/16 20:35:31  5-MIN K12N 110135Z AUTO 00000KT 11/07 A3019 340 74 0 000/00 RMK AO1 T01110067
54779K12N 12N20160510204009605/10/16 20:40:31  5-MIN K12N 110140Z AUTO 00000KT 11/07 A3019 330 74 0 000/00 RMK AO1 T01110067
54779K12N 12N20160510204509605/10/16 20:45:31  5-MIN K12N 110145Z AUTO 00000KT 11/06 A3019 330 71 0 000/00 RMK AO1 T01110061
54779K12N 12N20160510205010305/10/16 20:50:31  5-MIN K12N 110150Z AUTO 00000KT 11/07 A3019 330 77 0 000/00 RMK AO1 SLP225 T01060067
54779K12N 12N20160510205509605/10/16 20:55:31  5-MIN K12N 110155Z AUTO 00000KT 11/07 A3019 330 77 0 000/00 RMK AO1 T01060067
54779K12N 12N20160510210009905/10/16 21:00:31  5-MIN K12N 110200Z AUTO 00000KT 10/07 A3020 330 80 -100 000/00 RMK AO1 T01000067
54779K12N 12N20160510210509905/10/16 21:05:31  5-MIN K12N 110205Z AUTO 00000KT 10/07 A3019 330 80 -100 000/00 RMK AO1 T01000067
54779K12N 12N20160510211009905/10/16 21:10:31  5-MIN K12N 110210Z AUTO 21003KT 09/07 A3019 330 83 -200 230/03 RMK AO1 T00940067
54779K12N 12N20160510211509905/10/16 21:15:31  5-MIN K12N 110215Z AUTO 00000KT 09/07 A3019 330 83 -200 000/00 RMK AO1 T00940067
54779K12N 12N20160510212009905/10/16 21:20:31  5-MIN K12N 110220Z AUTO 00000KT 09/07 A3019 340 86 -200 000/00 RMK AO1 T00890067
54779K12N 12N20160510212509905/10/16 21:25:31  5-MIN K12N 110225Z AUTO 21003KT 09/07 A3019 340 86 -200 220/03 RMK AO1 T00890067
54779K12N 12N20160510213009905/10/16 21:30:31  5-MIN K12N 110230Z AUTO 20003KT 09/07 A3019 340 86 -200 220/03 RMK AO1 T00890067
54779K12N 12N20160510213509905/10/16 21:35:31  5-MIN K12N 110235Z AUTO 00000KT 09/07 A3019 330 86 -200 000/00 RMK AO1 T00890067
54779K12N 12N20160510214009905/10/16 21:40:31  5-MIN K12N 110240Z AUTO 21003KT 09/07 A3019 340 86 -200 220/03 RMK AO1 T00890067
54779K12N 12N20160510214509905/10/16 21:45:31  5-MIN K12N 110245Z AUTO 21003KT 09/07 A3019 330 86 -200 220/03 RMK AO1 T00890067
54779K12N 12N20160510215011205/10/16 21:50:31  5-MIN K12N 110250Z AUTO 21003KT 08/07 A3019 340 89 -300 220/03 RMK AO1 SLP224 T00830067 55008
54779K12N 12N20160510215509905/10/16 21:55:31  5-MIN K12N 110255Z AUTO 21003KT 08/07 A3019 330 89 -300 220/03 RMK AO1 T00830067
54779K12N 12N20160510220009905/10/16 22:00:31  5-MIN K12N 110300Z AUTO 00000KT 08/07 A3019 330 89 -300 000/00 RMK AO1 T00830067
54779K12N 12N20160510220509905/10/16 22:05:31  5-MIN K12N 110305Z AUTO 00000KT 08/06 A3019 330 89 -400 000/00 RMK AO1 T00780061
54779K12N 12N20160510221009905/10/16 22:10:31  5-MIN K12N 110310Z AUTO 00000KT 08/06 A3020 330 89 -400 000/00 RMK AO1 T00780061
54779K12N 12N20160510221509905/10/16 22:15:31  5-MIN K12N 110315Z AUTO 00000KT 07/06 A3019 330 93 -400 000/00 RMK AO1 T00720061
54779K12N 12N20160510222009905/10/16 22:20:31  5-MIN K12N 110320Z AUTO 00000KT 07/06 A3020 330 89 -400 000/00 RMK AO1 T00720056
54779K12N 12N20160510222509905/10/16 22:25:31  5-MIN K12N 110325Z AUTO 00000KT 08/06 A3019 330 89 -400 000/00 RMK AO1 T00780061
54779K12N 12N20160510223009905/10/16 22:30:31  5-MIN K12N 110330Z AUTO 00000KT 07/06 A3019 330 93 -400 000/00 RMK AO1 T00720061
54779K12N 12N20160510223509905/10/16 22:35:31  5-MIN K12N 110335Z AUTO 00000KT 07/06 A3019 330 89 -400 000/00 RMK AO1 T00720056
54779K12N 12N20160510224009905/10/16 22:40:31  5-MIN K12N 110340Z AUTO 00000KT 07/06 A3019 330 89 -400 000/00 RMK AO1 T00720056
54779K12N 12N20160510224509905/10/16 22:45:31  5-MIN K12N 110345Z AUTO 00000KT 07/06 A3019 340 89 -400 000/00 RMK AO1 T00720056
54779K12N 12N20160510225010605/10/16 22:50:31  5-MIN K12N 110350Z AUTO 00000KT 07/06 A3019 340 89 -400 000/00 RMK AO1 SLP225 T00720056
54779K12N 12N20160510225509905/10/16 22:55:31  5-MIN K12N 110355Z AUTO 00000KT 07/06 A3019 330 89 -400 000/00 RMK AO1 T00720056
54779K12N 12N20160510230009905/10/16 23:00:31  5-MIN K12N 110400Z AUTO 00000KT 07/06 A3019 340 93 -500 000/00 RMK AO1 T00670056
54779K12N 12N20160510230509905/10/16 23:05:31  5-MIN K12N 110405Z AUTO 00000KT 07/06 A3019 340 93 -500 000/00 RMK AO1 T00670056
54779K12N 12N20160510231009905/10/16 23:10:31  5-MIN K12N 110410Z AUTO 00000KT 07/06 A3019 330 93 -500 000/00 RMK AO1 T00670056
54779K12N 12N20160510231509905/10/16 23:15:31  5-MIN K12N 110415Z AUTO 00000KT 07/06 A3019 330 93 -500 000/00 RMK AO1 T00670056
54779K12N 12N20160510232009905/10/16 23:20:31  5-MIN K12N 110420Z AUTO 21003KT 07/06 A3019 330 93 -500 230/03 RMK AO1 T00670056
54779K12N 12N20160510232509905/10/16 23:25:31  5-MIN K12N 110425Z AUTO 00000KT 07/06 A3020 330 89 -400 000/00 RMK AO1 T00720056
54779K12N 12N20160510233009905/10/16 23:30:31  5-MIN K12N 110430Z AUTO 00000KT 07/06 A3020 330 93 -500 000/00 RMK AO1 T00670056
54779K12N 12N20160510233509905/10/16 23:35:31  5-MIN K12N 110435Z AUTO 00000KT 07/06 A3020 330 93 -500 000/00 RMK AO1 T00670056
54779K12N 12N20160510234009905/10/16 23:40:31  5-MIN K12N 110440Z AUTO 00000KT 07/06 A3019 330 93 -500 000/00 RMK AO1 T00670056
54779K12N 12N20160510234509905/10/16 23:45:31  5-MIN K12N 110445Z AUTO 00000KT 07/06 A3020 330 93 -400 000/00 RMK AO1 T00720061
54779K12N 12N20160510235011605/10/16 23:50:31  5-MIN K12N 110450Z AUTO 00000KT 07/06 A3020 330 93 -500 000/00 RMK AO1 SLP227 T00670056 401670039
54779K12N 12N20160510235509905/10/16 23:55:31  5-MIN K12N 110455Z AUTO 00000KT 07/06 A3020 330 93 -500 000/00 RMK AO1 T00670056
54779K12N 12N20160511000009905/11/16 00:00:31  5-MIN K12N 110500Z AUTO 00000KT 07/06 A3019 330 93 -500 000/00 RMK AO1 T00670056
54779K12N 12N20160511000509905/11/16 00:05:31  5-MIN K12N 110505Z AUTO 00000KT 07/06 A3019 330 93 -500 000/00 RMK AO1 T00670056
54779K12N 12N20160511001009905/11/16 00:10:31  5-MIN K12N 110510Z AUTO 00000KT 07/06 A3020 330 93 -500 000/00 RMK AO1 T00670056
54779K12N 12N20160511001509905/11/16 00:15:31  5-MIN K12N 110515Z AUTO 00000KT 07/06 A3020 330 93 -500 000/00 RMK AO1 T00670056
54779K12N 12N20160511002009905/11/16 00:20:31  5-MIN K12N 110520Z AUTO 00000KT 06/05 A3020 330 93 -600 000/00 RMK AO1 T00610050
54779K12N 12N20160511002509905/11/16 00:25:31  5-MIN K12N 110525Z AUTO 00000KT 07/05 A3019 330 89 -500 000/00 RMK AO1 T00670050
54779K12N 12N20160511003009905/11/16 00:30:31  5-MIN K12N 110530Z AUTO 00000KT 07/06 A3019 330 93 -500 000/00 RMK AO1 T00670056
54779K12N 12N20160511003509905/11/16 00:35:31  5-MIN K12N 110535Z AUTO 00000KT 06/05 A3019 330 93 -600 000/00 RMK AO1 T00610050
54779K12N 12N20160511004009905/11/16 00:40:31  5-MIN K12N 110540Z AUTO 00000KT 06/05 A3019 330 93 -600 000/00 RMK AO1 T00610050
54779K12N 12N20160511004509905/11/16 00:45:31  5-MIN K12N 110545Z AUTO 00000KT 06/05 A3019 340 93 -600 000/00 RMK AO1 T00610050
54779K12N 12N20160511005012405/11/16 00:50:31  5-MIN K12N 110550Z AUTO 00000KT 06/05 A3019 340 93 -600 000/00 RMK AO1 SLP225 T00610050 10128 20061 50009
54779K12N 12N20160511005509905/11/16 00:55:31  5-MIN K12N 110555Z AUTO 00000KT 06/05 A3019 340 93 -600 000/00 RMK AO1 T00610050
54779K12N 12N20160511010009905/11/16 01:00:31  5-MIN K12N 110600Z AUTO 00000KT 07/05 A3019 340 89 -500 000/00 RMK AO1 T00670050
54779K12N 12N20160511010509905/11/16 01:05:31  5-MIN K12N 110605Z AUTO 00000KT 06/06 A3019 340 96 -600 000/00 RMK AO1 T00610056
54779K12N 12N20160511011009905/11/16 01:10:31  5-MIN K12N 110610Z AUTO 00000KT 06/05 A3019 340 93 -600 000/00 RMK AO1 T00610050
54779K12N 12N20160511011509905/11/16 01:15:31  5-MIN K12N 110615Z AUTO 00000KT 06/05 A3019 340 93 -600 000/00 RMK AO1 T00610050
54779K12N 12N20160511012009905/11/16 01:20:31  5-MIN K12N 110620Z AUTO 00000KT 06/05 A3019 340 93 -600 000/00 RMK AO1 T00610050
54779K12N 12N20160511012509905/11/16 01:25:31  5-MIN K12N 110625Z AUTO 00000KT 06/05 A3019 340 93 -600 000/00 RMK AO1 T00610050
54779K12N 12N20160511013009905/11/16 01:30:31  5-MIN K12N 110630Z AUTO 00000KT 06/05 A3019 340 93 -600 000/00 RMK AO1 T00610050
54779K12N 12N20160511013509905/11/16 01:35:31  5-MIN K12N 110635Z AUTO 00000KT 06/05 A3019 340 96 -600 000/00 RMK AO1 T00560050
54779K12N 12N20160511014009905/11/16 01:40:31  5-MIN K12N 110640Z AUTO 00000KT 06/05 A3019 340 96 -600 000/00 RMK AO1 T00560050
54779K12N 12N20160511014509905/11/16 01:45:31  5-MIN K12N 110645Z AUTO 00000KT 06/05 A3018 340 93 -600 000/00 RMK AO1 T00610050
54779K12N 12N20160511015010605/11/16 01:50:31  5-MIN K12N 110650Z AUTO 00000KT 06/05 A3018 340 93 -600 000/00 RMK AO1 SLP223 T00610050
54779K12N 12N20160511015509905/11/16 01:55:31  5-MIN K12N 110655Z AUTO 00000KT 06/05 A3018 340 93 -600 000/00 RMK AO1 T00610050
54779K12N 12N20160511020009905/11/16 02:00:31  5-MIN K12N 110700Z AUTO 00000KT 06/05 A3018 340 93 -600 000/00 RMK AO1 T00610050
54779K12N 12N20160511020509905/11/16 02:05:31  5-MIN K12N 110705Z AUTO 00000KT 06/05 A3018 340 93 -600 000/00 RMK AO1 T00610050
54779K12N 12N20160511021009905/11/16 02:10:31  5-MIN K12N 110710Z AUTO 00000KT 06/05 A3018 350 93 -600 000/00 RMK AO1 T00610050
54779K12N 12N20160511021509905/11/16 02:15:31  5-MIN K12N 110715Z AUTO 00000KT 06/05 A3018 340 93 -600 000/00 RMK AO1 T00610050
54779K12N 12N20160511022009905/11/16 02:20:31  5-MIN K12N 110720Z AUTO 00000KT 06/05 A3018 340 93 -600 000/00 RMK AO1 T00610050
54779K12N 12N20160511022509905/11/16 02:25:31  5-MIN K12N 110725Z AUTO VRB03KT 07/06 A3018 340 93 -500 VRB/03 RMK AO1 T00670056
54779K12N 12N20160511023009905/11/16 02:30:31  5-MIN K12N 110730Z AUTO VRB03KT 07/06 A3018 340 93 -500 VRB/03 RMK AO1 T00670056
54779K12N 12N20160511023509905/11/16 02:35:31  5-MIN K12N 110735Z AUTO 00000KT 07/06 A3019 340 96 -500 000/00 RMK AO1 T00670061
54779K12N 12N20160511024009905/11/16 02:40:31  5-MIN K12N 110740Z AUTO 00000KT 07/06 A3018 340 96 -500 000/00 RMK AO1 T00670061
54779K12N 12N20160511024509905/11/16 02:45:31  5-MIN K12N 110745Z AUTO 00000KT 06/06 A3019 340 96 -600 000/00 RMK AO1 T00610056
54779K12N 12N20160511025010605/11/16 02:50:31  5-MIN K12N 110750Z AUTO 00000KT 07/06 A3019 340 93 -500 000/00 RMK AO1 SLP225 T00670056
54779K12N 12N20160511025509905/11/16 02:55:31  5-MIN K12N 110755Z AUTO 00000KT 06/06 A3019 340 96 -600 000/00 RMK AO1 T00610056
54779K12N 12N20160511030009905/11/16 03:00:31  5-MIN K12N 110800Z AUTO 00000KT 06/06 A3019 340 96 -600 000/00 RMK AO1 T00610056
54779K12N 12N20160511030509905/11/16 03:05:31  5-MIN K12N 110805Z AUTO 00000KT 06/06 A3019 340 96 -600 000/00 RMK AO1 T00610056
54779K12N 12N20160511031009905/11/16 03:10:31  5-MIN K12N 110810Z AUTO 00000KT 06/05 A3019 340 93 -600 000/00 RMK AO1 T00610050
54779K12N 12N20160511031509905/11/16 03:15:31  5-MIN K12N 110815Z AUTO 00000KT 06/05 A3019 340 93 -600 000/00 RMK AO1 T00610050
54779K12N 12N20160511032009905/11/16 03:20:31  5-MIN K12N 110820Z AUTO 00000KT 06/05 A3019 340 93 -600 000/00 RMK AO1 T00610050
54779K12N 12N20160511032509905/11/16 03:25:31  5-MIN K12N 110825Z AUTO 20003KT 06/05 A3020 330 93 -600 210/03 RMK AO1 T00610050
54779K12N 12N20160511033009905/11/16 03:30:31  5-MIN K12N 110830Z AUTO 17003KT 06/05 A3019 330 96 -600 180/03 RMK AO1 T00560050
54779K12N 12N20160511033509905/11/16 03:35:31  5-MIN K12N 110835Z AUTO 00000KT 06/05 A3019 330 96 -600 000/00 RMK AO1 T00560050
54779K12N 12N20160511034009905/11/16 03:40:31  5-MIN K12N 110840Z AUTO 00000KT 06/04 A3019 340 92 -600 000/00 RMK AO1 T00560044
54779K12N 12N20160511034509905/11/16 03:45:31  5-MIN K12N 110845Z AUTO 00000KT 05/04 A3019 340 96 -700 000/00 RMK AO1 T00500044
54779K12N 12N20160511035011205/11/16 03:50:31  5-MIN K12N 110850Z AUTO 00000KT 05/04 A3019 340 96 -700 000/00 RMK AO1 SLP226 T00500044 58002
54779K12N 12N20160511035509905/11/16 03:55:31  5-MIN K12N 110855Z AUTO 00000KT 05/04 A3019 340 96 -700 000/00 RMK AO1 T00500044
54779K12N 12N20160511040009905/11/16 04:00:31  5-MIN K12N 110900Z AUTO 00000KT 05/04 A3019 340 96 -700 000/00 RMK AO1 T00500044
54779K12N 12N20160511040509905/11/16 04:05:31  5-MIN K12N 110905Z AUTO 00000KT 05/04 A3019 340 92 -700 000/00 RMK AO1 T00500039
54779K12N 12N20160511041009905/11/16 04:10:31  5-MIN K12N 110910Z AUTO 00000KT 05/04 A3018 340 96 -700 000/00 RMK AO1 T00500044
54779K12N 12N20160511041509905/11/16 04:15:31  5-MIN K12N 110915Z AUTO 00000KT 05/04 A3018 340 96 -700 000/00 RMK AO1 T00500044
54779K12N 12N20160511042009905/11/16 04:20:31  5-MIN K12N 110920Z AUTO 00000KT 05/04 A3019 340 96 -700 000/00 RMK AO1 T00500044
54779K12N 12N20160511042509905/11/16 04:25:31  5-MIN K12N 110925Z AUTO 00000KT 05/04 A3018 340 96 -700 000/00 RMK AO1 T00500044
54779K12N 12N20160511043009905/11/16 04:30:31  5-MIN K12N 110930Z AUTO 00000KT 05/04 A3018 340 96 -700 000/00 RMK AO1 T00500044
54779K12N 12N20160511043509905/11/16 04:35:31  5-MIN K12N 110935Z AUTO 00000KT 05/04 A3019 340 96 -700 000/00 RMK AO1 T00500044
54779K12N 12N20160511044009905/11/16 04:40:31  5-MIN K12N 110940Z AUTO 00000KT 05/04 A3019 340 96 -700 000/00 RMK AO1 T00500044
54779K12N 12N20160511044509905/11/16 04:45:31  5-MIN K12N 110945Z AUTO 00000KT 05/04 A3019 340 96 -700 000/00 RMK AO1 T00500044
54779K12N 12N20160511045010605/11/16 04:50:31  5-MIN K12N 110950Z AUTO 00000KT 05/04 A3019 340 96 -700 000/00 RMK AO1 SLP226 T00500044
54779K12N 12N20160511045509905/11/16 04:55:31  5-MIN K12N 110955Z AUTO 00000KT 05/04 A3019 340 92 -700 000/00 RMK AO1 T00500039
54779K12N 12N20160511050009905/11/16 05:00:31  5-MIN K12N 111000Z AUTO 00000KT 05/04 A3019 340 92 -700 000/00 RMK AO1 T00500039
54779K12N 12N20160511050509905/11/16 05:05:31  5-MIN K12N 111005Z AUTO 00000KT 06/04 A3019 340 92 -600 000/00 RMK AO1 T00560044
54779K12N 12N20160511051009905/11/16 05:10:31  5-MIN K12N 111010Z AUTO 00000KT 06/04 A3019 330 92 -600 000/00 RMK AO1 T00560044
54779K12N 12N20160511051509905/11/16 05:15:31  5-MIN K12N 111015Z AUTO 00000KT 06/04 A3020 330 92 -600 000/00 RMK AO1 T00560044
54779K12N 12N20160511052009905/11/16 05:20:31  5-MIN K12N 111020Z AUTO 00000KT 06/04 A3020 330 92 -600 000/00 RMK AO1 T00560044
54779K12N 12N20160511052509905/11/16 05:25:31  5-MIN K12N 111025Z AUTO 00000KT 06/04 A3020 330 92 -600 000/00 RMK AO1 T00560044
54779K12N 12N20160511053009905/11/16 05:30:31  5-MIN K12N 111030Z AUTO VRB03KT 06/05 A3020 320 96 -600 VRB/03 RMK AO1 T00560050
54779K12N 12N20160511053509905/11/16 05:35:31  5-MIN K12N 111035Z AUTO 00000KT 06/04 A3021 320 92 -700 000/00 RMK AO1 T00560044
54779K12N 12N20160511054009905/11/16 05:40:31  5-MIN K12N 111040Z AUTO 00000KT 06/04 A3021 320 92 -700 000/00 RMK AO1 T00560044
54779K12N 12N20160511054509905/11/16 05:45:31  5-MIN K12N 111045Z AUTO 00000KT 06/05 A3021 320 96 -700 000/00 RMK AO1 T00560050
54779K12N 12N20160511055010605/11/16 05:50:31  5-MIN K12N 111050Z AUTO 00000KT 06/06 A3021 320 96 -600 000/00 RMK AO1 SLP232 T00610056
54779K12N 12N20160511055510005/11/16 05:55:31  5-MIN K12N 111055Z AUTO 00000KT 06/06 A3021 320 100 -600 000/00 RMK AO1 T00610061
54779K12N 12N20160511060009905/11/16 06:00:31  5-MIN K12N 111100Z AUTO 00000KT 07/06 A3021 320 96 -500 000/00 RMK AO1 T00670061
54779K12N 12N20160511060510005/11/16 06:05:31  5-MIN K12N 111105Z AUTO 00000KT 07/07 A3021 320 100 -500 000/00 RMK AO1 T00670067
54779K12N 12N20160511061010005/11/16 06:10:31  5-MIN K12N 111110Z AUTO 00000KT 07/07 A3021 320 100 -500 000/00 RMK AO1 T00720072
54779K12N 12N20160511061510005/11/16 06:15:31  5-MIN K12N 111115Z AUTO 00000KT 07/07 A3021 320 100 -500 000/00 RMK AO1 T00720072
54779K12N 12N20160511062009905/11/16 06:20:31  5-MIN K12N 111120Z AUTO 00000KT 08/07 A3021 320 96 -400 000/00 RMK AO1 T00780072
54779K12N 12N20160511062509905/11/16 06:25:31  5-MIN K12N 111125Z AUTO 00000KT 08/07 A3021 320 93 -300 000/00 RMK AO1 T00830072
54779K12N 12N20160511063009905/11/16 06:30:31  5-MIN K12N 111130Z AUTO 00000KT 08/07 A3021 320 89 -300 000/00 RMK AO1 T00830067
54779K12N 12N20160511063509905/11/16 06:35:31  5-MIN K12N 111135Z AUTO 00000KT 08/07 A3021 320 93 -300 000/00 RMK AO1 T00830072
54779K12N 12N20160511064009905/11/16 06:40:31  5-MIN K12N 111140Z AUTO 00000KT 09/07 A3021 320 89 -200 000/00 RMK AO1 T00890072
54779K12N 12N20160511064509905/11/16 06:45:31  5-MIN K12N 111145Z AUTO 05003KT 09/07 A3021 320 86 -200 060/03 RMK AO1 T00940072
54779K12N 12N20160511065012405/11/16 06:50:31  5-MIN K12N 111150Z AUTO 00000KT 10/07 A3020 320 83 -100 000/00 RMK AO1 SLP230 T01000072 10100 20044 56000
54779K12N 12N20160511065509605/11/16 06:55:31  5-MIN K12N 111155Z AUTO 00000KT 11/08 A3021 320 80 0 000/00 RMK AO1 T01110078
54779K12N 12N20160511070009605/11/16 07:00:31  5-MIN K12N 111200Z AUTO 00000KT 11/08 A3021 320 80 0 000/00 RMK AO1 T01110078
54779K12N 12N20160511070509605/11/16 07:05:31  5-MIN K12N 111205Z AUTO VRB03KT 12/08 A3020 320 80 0 VRB/03 RMK AO1 T01170083
54779K12N 12N20160511071009805/11/16 07:10:31  5-MIN K12N 111210Z AUTO 00000KT 12/08 A3020 330 74 100 000/00 RMK AO1 T01220078
54779K12N 12N20160511071509805/11/16 07:15:31  5-MIN K12N 111215Z AUTO 00000KT 13/08 A3020 330 71 200 000/00 RMK AO1 T01280078
54779K12N 12N20160511072009805/11/16 07:20:31  5-MIN K12N 111220Z AUTO 00000KT 13/08 A3020 330 71 200 000/00 RMK AO1 T01280078
54779K12N 12N20160511072509805/11/16 07:25:31  5-MIN K12N 111225Z AUTO VRB03KT 13/07 A3020 330 66 200 VRB/03 RMK AO1 T01280067
54779K12N 12N20160511073009805/11/16 07:30:31  5-MIN K12N 111230Z AUTO 03005KT 13/06 A3020 330 61 200 050/05 RMK AO1 T01330061
54779K12N 12N20160511073509805/11/16 07:35:31  5-MIN K12N 111235Z AUTO VRB05KT 13/05 A3020 330 57 200 VRB/05 RMK AO1 T01330050
54779K12N 12N20160511074009805/11/16 07:40:31  5-MIN K12N 111240Z AUTO VRB03KT 13/05 A3020 330 57 200 VRB/03 RMK AO1 T01330050
54779K12N 12N20160511074509805/11/16 07:45:31  5-MIN K12N 111245Z AUTO VRB03KT 14/06 A3020 330 57 300 VRB/03 RMK AO1 T01390056
54779K12N 12N20160511075010505/11/16 07:50:31  5-MIN K12N 111250Z AUTO 00000KT 14/06 A3020 320 57 300 000/00 RMK AO1 SLP227 T01390056
54779K12N 12N20160511075509805/11/16 07:55:31  5-MIN K12N 111255Z AUTO 04005KT 14/06 A3020 320 59 300 050/05 RMK AO1 T01390061
54779K12N 12N20160511080009805/11/16 08:00:31  5-MIN K12N 111300Z AUTO VRB04KT 14/06 A3020 320 59 300 VRB/04 RMK AO1 T01390061
54779K12N 12N20160511080509805/11/16 08:05:31  5-MIN K12N 111305Z AUTO 04005KT 14/06 A3021 320 55 400 050/05 RMK AO1 T01440056
54779K12N 12N20160511081009805/11/16 08:10:31  5-MIN K12N 111310Z AUTO 03003KT 14/06 A3021 320 55 400 050/03 RMK AO1 T01440056
54779K12N 12N20160511081509805/11/16 08:15:31  5-MIN K12N 111315Z AUTO 04003KT 15/06 A3021 320 53 400 050/03 RMK AO1 T01500056
54779K12N 12N20160511082009805/11/16 08:20:31  5-MIN K12N 111320Z AUTO 00000KT 15/06 A3021 320 55 400 000/00 RMK AO1 T01500061
54779K12N 12N20160511082509805/11/16 08:25:31  5-MIN K12N 111325Z AUTO VRB03KT 16/06 A3021 320 53 500 VRB/03 RMK AO1 T01560061
54779K12N 12N20160511083009805/11/16 08:30:31  5-MIN K12N 111330Z AUTO 00000KT 16/07 A3021 320 53 600 000/00 RMK AO1 T01610067
54779K12N 12N20160511083509805/11/16 08:35:31  5-MIN K12N 111335Z AUTO 04003KT 16/06 A3021 320 49 600 060/03 RMK AO1 T01610056
54779K12N 12N20160511084009805/11/16 08:40:31  5-MIN K12N 111340Z AUTO 05004KT 16/05 A3020 320 49 500 060/04 RMK AO1 T01560050
54779K12N 12N20160511084509805/11/16 08:45:31  5-MIN K12N 111345Z AUTO 04004KT 17/04 A3020 330 44 600 050/04 RMK AO1 T01670044
54779K12N 12N20160511085010505/11/16 08:50:31  5-MIN K12N 111350Z AUTO VRB03KT 18/06 A3020 330 44 800 VRB/03 RMK AO1 SLP226 T01780056
54779K12N 12N20160511085509805/11/16 08:55:31  5-MIN K12N 111355Z AUTO 04005KT 18/04 A3020 330 39 800 060/05 RMK AO1 T01780039
54779K12N 12N20160511090009805/11/16 09:00:31  5-MIN K12N 111400Z AUTO 03004KT 18/04 A3020 330 39 800 050/04 RMK AO1 T01780039
54779K12N 12N20160511090509805/11/16 09:05:31  5-MIN K12N 111405Z AUTO 04005KT 17/04 A3020 330 41 700 050/05 RMK AO1 T01720039
54779K12N 12N20160511091009805/11/16 09:10:31  5-MIN K12N 111410Z AUTO VRB03KT 17/03 A3020 330 39 700 VRB/03 RMK AO1 T01720033
54779K12N 12N20160511091509805/11/16 09:15:31  5-MIN K12N 111415Z AUTO VRB03KT 18/04 A3019 330 39 800 VRB/03 RMK AO1 T01780039
54779K12N 12N20160511092009805/11/16 09:20:31  5-MIN K12N 111420Z AUTO VRB03KT 18/04 A3019 330 38 800 VRB/03 RMK AO1 T01830039
54779K12N 12N20160511092509805/11/16 09:25:31  5-MIN K12N 111425Z AUTO 00000KT 18/04 A3019 340 39 800 000/00 RMK AO1 T01830044
54779K12N 12N20160511093009805/11/16 09:30:31  5-MIN K12N 111430Z AUTO VRB03KT 19/04 A3019 340 36 900 VRB/03 RMK AO1 T01890039
54779K12N 12N20160511093509805/11/16 09:35:31  5-MIN K12N 111435Z AUTO 36004KT 19/04 A3019 340 36 900 010/04 RMK AO1 T01890039
54779K12N 12N20160511094009805/11/16 09:40:31  5-MIN K12N 111440Z AUTO VRB03KT 19/03 A3019 340 35 900 VRB/03 RMK AO1 T01890033
54779K12N 12N20160511094509805/11/16 09:45:31  5-MIN K12N 111445Z AUTO 35004KT 19/03 A3019 340 34 900 010/04 RMK AO1 T01890028
54779K12N 12N20160511095011205/11/16 09:50:31  5-MIN K12N 111450Z AUTO 00000KT 20/03 A3019 340 33 1000 000/00 RMK AO1 SLP222 T02000033 50006
54779K12N 12N20160511095509905/11/16 09:55:31  5-MIN K12N 111455Z AUTO 36005KT 20/01 A3018 340 28 1000 010/05 RMK AO1 T02000011
54779K12N 12N20160511100009905/11/16 10:00:31  5-MIN K12N 111500Z AUTO 36004KT 20/01 A3018 340 28 1000 010/04 RMK AO1 T02000011
54779K12N 12N20160511100509905/11/16 10:05:31  5-MIN K12N 111505Z AUTO 03003KT 20/02 A3018 340 29 1000 040/03 RMK AO1 T02000017
54779K12N 12N20160511101009905/11/16 10:10:31  5-MIN K12N 111510Z AUTO 00000KT 21/02 A3018 350 28 1100 000/00 RMK AO1 T02060017
54779K12N 12N20160511101509905/11/16 10:15:31  5-MIN K12N 111515Z AUTO 36003KT 21/02 A3018 350 28 1100 010/03 RMK AO1 T02060017
54779K12N 12N20160511102009905/11/16 10:20:31  5-MIN K12N 111520Z AUTO 36004KT 21/01 A3018 350 26 1100 020/04 RMK AO1 T02060006
54779K12N 12N20160511102509905/11/16 10:25:31  5-MIN K12N 111525Z AUTO 03003KT 21/01 A3018 350 26 1100 050/03 RMK AO1 T02060006
54779K12N 12N20160511103009905/11/16 10:30:31  5-MIN K12N 111530Z AUTO 00000KT 21/00 A3018 350 24 1200 000/00 RMK AO1 T02110000
54779K12N 12N20160511103509905/11/16 10:35:31  5-MIN K12N 111535Z AUTO VRB03KT 21/01 A3018 350 26 1200 VRB/03 RMK AO1 T02110011
54779K12N 12N20160511104009905/11/16 10:40:31  5-MIN K12N 111540Z AUTO 00000KT 21/00 A3018 350 25 1100 000/00 RMK AO1 T02060000
54779K12N 12N20160511104509905/11/16 10:45:31  5-MIN K12N 111545Z AUTO 03003KT 21/01 A3017 350 26 1200 040/03 RMK AO1 T02110011
54779K12N 12N20160511105010605/11/16 10:50:31  5-MIN K12N 111550Z AUTO 00000KT 22/01 A3017 350 24 1200 000/00 RMK AO1 SLP217 T02170006
54779K12N 12N20160511105510005/11/16 10:55:31  5-MIN K12N 111555Z AUTO 00000KT 22/M01 A3017 350 22 1300 000/00 RMK AO1 T02171006
54779K12N 12N20160511110009905/11/16 11:00:31  5-MIN K12N 111600Z AUTO VRB03KT 22/01 A3017 350 24 1300 VRB/03 RMK AO1 T02170006
54779K12N 12N20160511110510005/11/16 11:05:31  5-MIN K12N 111605Z AUTO 00000KT 21/M01 A3017 360 23 1200 000/00 RMK AO1 T02111006
54779K12N 12N20160511111009905/11/16 11:10:31  5-MIN K12N 111610Z AUTO 05003KT 22/01 A3017 360 25 1300 060/03 RMK AO1 T02170011
54779K12N 12N20160511111509905/11/16 11:15:31  5-MIN K12N 111615Z AUTO 00000KT 22/02 A3016 360 25 1300 000/00 RMK AO1 T02220017
54779K12N 12N20160511112009905/11/16 11:20:31  5-MIN K12N 111620Z AUTO 06003KT 22/00 A3016 360 23 1300 070/03 RMK AO1 T02170000
54779K12N 12N20160511112509905/11/16 11:25:31  5-MIN K12N 111625Z AUTO VRB03KT 22/02 A3016 360 25 1300 VRB/03 RMK AO1 T02220017
54779K12N 12N20160511113009905/11/16 11:30:31  5-MIN K12N 111630Z AUTO 00000KT 22/01 A3016 360 23 1300 000/00 RMK AO1 T02220006
54779K12N 12N20160511113509905/11/16 11:35:31  5-MIN K12N 111635Z AUTO VRB03KT 22/01 A3016 360 23 1300 VRB/03 RMK AO1 T02220006
54779K12N 12N20160511114009905/11/16 11:40:31  5-MIN K12N 111640Z AUTO VRB04KT 22/01 A3016 370 23 1300 VRB/04 RMK AO1 T02220006
54779K12N 12N20160511114509905/11/16 11:45:31  5-MIN K12N 111645Z AUTO VRB03KT 22/01 A3016 370 23 1300 VRB/03 RMK AO1 T02220006
54779K12N 12N20160511115010605/11/16 11:50:31  5-MIN K12N 111650Z AUTO 00000KT 22/02 A3016 370 25 1300 000/00 RMK AO1 SLP211 T02220017
54779K12N 12N20160511115509905/11/16 11:55:31  5-MIN K12N 111655Z AUTO 00000KT 23/02 A3015 370 25 1400 000/00 RMK AO1 T02280022
54779K12N 12N20160511120008905/11/16 12:00:31  5-MIN K12N 111700Z AUTO 23/02 A3015 370 24 1400 M /M RMK AO1 T02280017
54779K12N 12N20160511120509905/11/16 12:05:31  5-MIN K12N 111705Z AUTO VRB04KT 23/02 A3015 370 25 1400 VRB/04 RMK AO1 T02280022
54779K12N 12N20160511121009905/11/16 12:10:31  5-MIN K12N 111710Z AUTO 04004KT 23/03 A3015 380 25 1500 050/04 RMK AO1 T02330028
54779K12N 12N20160511121509905/11/16 12:15:31  5-MIN K12N 111715Z AUTO 32004KT 23/03 A3014 380 26 1400 340/04 RMK AO1 T02280028
54779K12N 12N20160511122009905/11/16 12:20:31  5-MIN K12N 111720Z AUTO 01004KT 23/03 A3014 380 26 1400 020/04 RMK AO1 T02280028
54779K12N 12N20160511122509905/11/16 12:25:31  5-MIN K12N 111725Z AUTO 04003KT 23/03 A3014 380 26 1500 050/03 RMK AO1 T02330033
54779K12N 12N20160511123009905/11/16 12:30:31  5-MIN K12N 111730Z AUTO VRB03KT 23/02 A3014 380 25 1400 VRB/03 RMK AO1 T02280022
54779K12N 12N20160511123509905/11/16 12:35:31  5-MIN K12N 111735Z AUTO 05004KT 23/03 A3014 380 27 1400 060/04 RMK AO1 T02280033
54779K12N 12N20160511124009905/11/16 12:40:31  5-MIN K12N 111740Z AUTO 01003KT 23/03 A3014 390 26 1500 030/03 RMK AO1 T02330033
54779K12N 12N20160511124509905/11/16 12:45:31  5-MIN K12N 111745Z AUTO 00000KT 23/04 A3013 390 28 1500 000/00 RMK AO1 T02330039
54779K12N 12N20160511125012405/11/16 12:50:31  5-MIN K12N 111750Z AUTO 36003KT 23/03 A3013 390 27 1400 010/03 RMK AO1 SLP202 T02280033 10233 20111 58007
54779K12N 12N20160511125509905/11/16 12:55:31  5-MIN K12N 111755Z AUTO 04003KT 23/04 A3013 390 29 1500 060/03 RMK AO1 T02330044
54779K12N 12N20160511130009905/11/16 13:00:31  5-MIN K12N 111800Z AUTO 00000KT 23/04 A3013 390 28 1500 000/00 RMK AO1 T02330039
54779K12N 12N20160511130509905/11/16 13:05:31  5-MIN K12N 111805Z AUTO 00000KT 23/03 A3013 390 26 1500 000/00 RMK AO1 T02330033
54779K12N 12N20160511131009905/11/16 13:10:31  5-MIN K12N 111810Z AUTO 00000KT 24/04 A3013 400 27 1600 000/00 RMK AO1 T02440044
54779K12N 12N20160511131509905/11/16 13:15:31  5-MIN K12N 111815Z AUTO 29005KT 24/04 A3012 400 27 1600 310/05 RMK AO1 T02390039
54779K12N 12N20160511132009905/11/16 13:20:31  5-MIN K12N 111820Z AUTO VRB03KT 23/04 A3012 400 29 1500 VRB/03 RMK AO1 T02330044
54779K12N 12N20160511132509905/11/16 13:25:31  5-MIN K12N 111825Z AUTO 00000KT 24/04 A3012 400 28 1600 000/00 RMK AO1 T02390044
54779K12N 12N20160511133009905/11/16 13:30:31  5-MIN K12N 111830Z AUTO 04005KT 24/04 A3012 400 28 1600 050/05 RMK AO1 T02390044
54779K12N 12N20160511133509905/11/16 13:35:31  5-MIN K12N 111835Z AUTO 03005KT 24/06 A3012 400 29 1600 050/05 RMK AO1 T02440056
54779K12N 12N20160511134009905/11/16 13:40:31  5-MIN K12N 111840Z AUTO VRB03KT 24/06 A3012 400 29 1600 VRB/03 RMK AO1 T02440056
54779K12N 12N20160511134509905/11/16 13:45:31  5-MIN K12N 111845Z AUTO VRB05KT 24/05 A3011 410 28 1600 VRB/05 RMK AO1 T02440050
54779K12N 12N20160511135010605/11/16 13:50:31  5-MIN K12N 111850Z AUTO 00000KT 25/06 A3011 410 28 1700 000/00 RMK AO1 SLP194 T02500056
54779K12N 12N20160511135509905/11/16 13:55:31  5-MIN K12N 111855Z AUTO 04004KT 25/06 A3011 410 28 1700 050/04 RMK AO1 T02500056
54779K12N 12N20160511140009905/11/16 14:00:31  5-MIN K12N 111900Z AUTO VRB04KT 26/07 A3010 420 30 1800 VRB/04 RMK AO1 T02560072
54779K12N 12N20160511140509905/11/16 14:05:31  5-MIN K12N 111905Z AUTO VRB03KT 25/06 A3010 420 29 1700 VRB/03 RMK AO1 T02500061
54779K12N 12N20160511141009905/11/16 14:10:31  5-MIN K12N 111910Z AUTO VRB03KT 25/06 A3010 420 29 1700 VRB/03 RMK AO1 T02500061
54779K12N 12N20160511141509905/11/16 14:15:31  5-MIN K12N 111915Z AUTO 00000KT 25/06 A3010 420 28 1700 000/00 RMK AO1 T02500056
54779K12N 12N20160511142009905/11/16 14:20:31  5-MIN K12N 111920Z AUTO VRB03KT 26/07 A3010 420 30 1800 VRB/03 RMK AO1 T02560072
54779K12N 12N20160511142509905/11/16 14:25:31  5-MIN K12N 111925Z AUTO 00000KT 25/06 A3010 420 29 1700 000/00 RMK AO1 T02500061
54779K12N 12N20160511143009905/11/16 14:30:31  5-MIN K12N 111930Z AUTO 20003KT 26/07 A3010 420 29 1800 210/03 RMK AO1 T02560067
54779K12N 12N20160511143509905/11/16 14:35:31  5-MIN K12N 111935Z AUTO VRB04KT 24/05 A3009 430 28 1700 VRB/04 RMK AO1 T02440050
54779K12N 12N20160511144009905/11/16 14:40:31  5-MIN K12N 111940Z AUTO 00000KT 25/06 A3009 430 29 1700 000/00 RMK AO1 T02500061
54779K12N 12N20160511144509905/11/16 14:45:31  5-MIN K12N 111945Z AUTO VRB05KT 26/07 A3009 430 29 1800 VRB/05 RMK AO1 T02610072
54779K12N 12N20160511145010605/11/16 14:50:31  5-MIN K12N 111950Z AUTO VRB03KT 25/06 A3009 430 29 1700 VRB/03 RMK AO1 SLP186 T02500061
54779K12N 12N20160511145509905/11/16 14:55:31  5-MIN K12N 111955Z AUTO 21005KT 24/06 A3009 430 30 1700 230/05 RMK AO1 T02440061
54779K12N 12N20160511150009905/11/16 15:00:31  5-MIN K12N 112000Z AUTO VRB03KT 25/06 A3009 430 29 1700 VRB/03 RMK AO1 T02500061
54779K12N 12N20160511150509905/11/16 15:05:31  5-MIN K12N 112005Z AUTO VRB04KT 26/07 A3009 430 29 1800 VRB/04 RMK AO1 T02560067
54779K12N 12N20160511151009905/11/16 15:10:31  5-MIN K12N 112010Z AUTO 23005KT 25/07 A3009 430 30 1700 250/05 RMK AO1 T02500067
54779K12N 12N20160511151509905/11/16 15:15:31  5-MIN K12N 112015Z AUTO VRB04KT 25/07 A3009 430 30 1700 VRB/04 RMK AO1 T02500067
54779K12N 12N20160511152009905/11/16 15:20:31  5-MIN K12N 112020Z AUTO 23008KT 24/06 A3009 430 30 1700 240/08 RMK AO1 T02440061
54779K12N 12N20160511152508905/11/16 15:25:31  5-MIN K12N 112025Z AUTO 24/06 A3009 430 29 1700 M /M RMK AO1 T02440056
54779K12N 12N20160511153009905/11/16 15:30:31  5-MIN K12N 112030Z AUTO 20005KT 24/06 A3009 430 31 1600 220/05 RMK AO1 T02390061
54779K12N 12N20160511153511505/11/16 15:35:31  5-MIN K12N 112035Z AUTO 21007KT 170V240 24/06 A3009 430 31 1600 220/07 180V250 RMK AO1 T02390061
54779K12N 12N20160511154009905/11/16 15:40:31  5-MIN K12N 112040Z AUTO VRB06KT 24/07 A3009 430 32 1600 VRB/06 RMK AO1 T02390067
54779K12N 12N20160511154511505/11/16 15:45:31  5-MIN K12N 112045Z AUTO 22007KT 190V250 23/06 A3009 430 32 1500 230/07 200V260 RMK AO1 T02330061
54779K12N 12N20160511155011205/11/16 15:50:31  5-MIN K12N 112050Z AUTO 22007KT 23/06 A3009 430 32 1500 230/07 RMK AO1 SLP188 T02330061 58018
54779K12N 12N20160511155509905/11/16 15:55:31  5-MIN K12N 112055Z AUTO 21008KT 23/06 A3009 430 32 1500 220/08 RMK AO1 T02330061
54779K12N 12N20160511160009905/11/16 16:00:31  5-MIN K12N 112100Z AUTO 22008KT 23/07 A3009 430 33 1500 240/08 RMK AO1 T02330067
54779K12N 12N20160511160509905/11/16 16:05:31  5-MIN K12N 112105Z AUTO 24008KT 23/06 A3009 430 33 1500 260/08 RMK AO1 T02280061
54779K12N 12N20160511161009905/11/16 16:10:31  5-MIN K12N 112110Z AUTO 22007KT 23/06 A3009 430 33 1500 240/07 RMK AO1 T02280061
54779K12N 12N20160511161509905/11/16 16:15:31  5-MIN K12N 112115Z AUTO VRB06KT 23/06 A3009 430 33 1500 VRB/06 RMK AO1 T02280061
54779K12N 12N20160511162009905/11/16 16:20:31  5-MIN K12N 112120Z AUTO 21006KT 23/06 A3009 430 33 1500 220/06 RMK AO1 T02280061
54779K12N 12N20160511162509905/11/16 16:25:31  5-MIN K12N 112125Z AUTO VRB06KT 23/06 A3009 430 33 1500 VRB/06 RMK AO1 T02280061
54779K12N 12N20160511163009905/11/16 16:30:31  5-MIN K12N 112130Z AUTO 20005KT 23/06 A3009 430 33 1500 220/05 RMK AO1 T02280061
54779K12N 12N20160511163509905/11/16 16:35:31  5-MIN K12N 112135Z AUTO 22006KT 23/06 A3009 430 32 1500 240/06 RMK AO1 T02330061
54779K12N 12N20160511164009905/11/16 16:40:31  5-MIN K12N 112140Z AUTO 23007KT 23/06 A3009 430 32 1500 240/07 RMK AO1 T02330061
54779K12N 12N20160511164509905/11/16 16:45:31  5-MIN K12N 112145Z AUTO 22004KT 23/06 A3009 430 32 1500 240/04 RMK AO1 T02330061
54779K12N 12N20160511165010605/11/16 16:50:31  5-MIN K12N 112150Z AUTO VRB06KT 23/06 A3008 430 33 1500 VRB/06 RMK AO1 SLP187 T02280061
54779K12N 12N20160511165509905/11/16 16:55:31  5-MIN K12N 112155Z AUTO 22007KT 23/06 A3008 430 33 1500 230/07 RMK AO1 T02280061
54779K12N 12N20160511170009905/11/16 17:00:31  5-MIN K12N 112200Z AUTO VRB04KT 23/06 A3008 430 32 1500 VRB/04 RMK AO1 T02330061
54779K12N 12N20160511170509905/11/16 17:05:31  5-MIN K12N 112205Z AUTO VRB04KT 23/06 A3008 430 31 1500 VRB/04 RMK AO1 T02330056
54779K12N 12N20160511171011505/11/16 17:10:31  5-MIN K12N 112210Z AUTO 22007KT 190V260 23/06 A3008 430 32 1500 230/07 200V270 RMK AO1 T02330061
54779K12N 12N20160511171509905/11/16 17:15:31  5-MIN K12N 112215Z AUTO 24004KT 23/06 A3009 430 32 1500 260/04 RMK AO1 T02330061
54779K12N 12N20160511172009905/11/16 17:20:31  5-MIN K12N 112220Z AUTO 23006KT 23/06 A3009 430 32 1500 240/06 RMK AO1 T02330061
54779K12N 12N20160511172509905/11/16 17:25:31  5-MIN K12N 112225Z AUTO 22009KT 23/06 A3009 430 33 1500 240/09 RMK AO1 T02280061
54779K12N 12N20160511173009905/11/16 17:30:31  5-MIN K12N 112230Z AUTO 22007KT 22/07 A3009 430 36 1400 230/07 RMK AO1 T02220067
54779K12N 12N20160511173509905/11/16 17:35:31  5-MIN K12N 112235Z AUTO 21008KT 22/06 A3009 430 35 1400 220/08 RMK AO1 T02220061
54779K12N 12N20160511174010505/11/16 17:40:31  5-MIN K12N 112240Z AUTO 21008G14KT 22/06 A3009 430 35 1400 230/08G14 RMK AO1 T02220061
54779K12N 12N20160511174510505/11/16 17:45:31  5-MIN K12N 112245Z AUTO 22010G16KT 22/06 A3009 430 36 1300 240/10G16 RMK AO1 T02170061
54779K12N 12N20160511175011205/11/16 17:50:31  5-MIN K12N 112250Z AUTO 22010G16KT 22/06 A3009 430 34 1300 230/10G16 RMK AO1 SLP190 T02170056
54779K12N 12N20160511175509905/11/16 17:55:31  5-MIN K12N 112255Z AUTO 22007KT 21/06 A3010 420 36 1300 240/07 RMK AO1 T02110056
54779K12N 12N20160511180009905/11/16 18:00:31  5-MIN K12N 112300Z AUTO VRB06KT 21/06 A3010 420 36 1300 VRB/06 RMK AO1 T02110056
54779K12N 12N20160511180509905/11/16 18:05:31  5-MIN K12N 112305Z AUTO 22009KT 21/06 A3010 420 36 1300 240/09 RMK AO1 T02110056
54779K12N 12N20160511181009905/11/16 18:10:31  5-MIN K12N 112310Z AUTO VRB06KT 21/06 A3010 420 37 1200 VRB/06 RMK AO1 T02060056
54779K12N 12N20160511181509905/11/16 18:15:31  5-MIN K12N 112315Z AUTO 21007KT 21/06 A3010 420 37 1200 220/07 RMK AO1 T02060056
54779K12N 12N20160511182009905/11/16 18:20:31  5-MIN K12N 112320Z AUTO 22007KT 20/06 A3010 420 38 1100 230/07 RMK AO1 T02000056
54779K12N 12N20160511182509905/11/16 18:25:31  5-MIN K12N 112325Z AUTO 21004KT 20/06 A3010 420 38 1100 220/04 RMK AO1 T02000056
54779K12N 12N20160511183009905/11/16 18:30:31  5-MIN K12N 112330Z AUTO 22006KT 20/06 A3010 420 38 1100 230/06 RMK AO1 T02000056
54779K12N 12N20160511183509905/11/16 18:35:31  5-MIN K12N 112335Z AUTO 22005KT 20/06 A3010 420 38 1100 230/05 RMK AO1 T02000056
54779K12N 12N20160511184009905/11/16 18:40:31  5-MIN K12N 112340Z AUTO 21004KT 19/06 A3011 410 40 1100 230/04 RMK AO1 T01940056
54779K12N 12N20160511184509905/11/16 18:45:31  5-MIN K12N 112345Z AUTO 00000KT 19/06 A3011 410 41 1100 000/00 RMK AO1 T01940061
54779K12N 12N20160511185012405/11/16 18:50:31  5-MIN K12N 112350Z AUTO 21004KT 19/06 A3010 420 41 1100 230/04 RMK AO1 SLP193 T01940061 10261 20194 56014
54779K12N 12N20160511185509905/11/16 18:55:31  5-MIN K12N 112355Z AUTO 00000KT 19/07 A3011 410 44 1000 000/00 RMK AO1 T01890067
54779K12N 12N20160511190009905/11/16 19:00:31  5-MIN K12N 120000Z AUTO VRB03KT 19/07 A3011 410 44 1000 VRB/03 RMK AO1 T01890067
54779K12N 12N20160511190509805/11/16 19:05:31  5-MIN K12N 120005Z AUTO 24003KT 18/07 A3011 410 46 900 260/03 RMK AO1 T01830067
54779K12N 12N20160511191009805/11/16 19:10:31  5-MIN K12N 120010Z AUTO 00000KT 18/07 A3011 410 48 900 000/00 RMK AO1 T01780067
54779K12N 12N20160511191509805/11/16 19:15:31  5-MIN K12N 120015Z AUTO 00000KT 17/07 A3011 410 51 800 000/00 RMK AO1 T01720072
54779K12N 12N20160511192009805/11/16 19:20:31  5-MIN K12N 120020Z AUTO 00000KT 17/09 A3011 410 57 800 000/00 RMK AO1 T01720089
54779K12N 12N20160511192509805/11/16 19:25:31  5-MIN K12N 120025Z AUTO 00000KT 17/08 A3011 410 57 700 000/00 RMK AO1 T01670083
54779K12N 12N20160511193009805/11/16 19:30:31  5-MIN K12N 120030Z AUTO 00000KT 17/08 A3011 410 55 700 000/00 RMK AO1 T01670078
54779K12N 12N20160511193509805/11/16 19:35:31  5-MIN K12N 120035Z AUTO 00000KT 16/08 A3011 410 57 700 000/00 RMK AO1 T01610078
54779K12N 12N20160511194009805/11/16 19:40:31  5-MIN K12N 120040Z AUTO 00000KT 17/08 A3012 410 55 700 000/00 RMK AO1 T01670078
54779K12N 12N20160511194509805/11/16 19:45:31  5-MIN K12N 120045Z AUTO 00000KT 16/08 A3012 400 59 700 000/00 RMK AO1 T01610083
54779K12N 12N20160511195010505/11/16 19:50:31  5-MIN K12N 120050Z AUTO 00000KT 16/09 A3012 400 64 600 000/00 RMK AO1 SLP197 T01560089
54779K12N 12N20160511195509805/11/16 19:55:31  5-MIN K12N 120055Z AUTO 00000KT 16/09 A3012 400 64 600 000/00 RMK AO1 T01560089
54779K12N 12N20160511200009805/11/16 20:00:31  5-MIN K12N 120100Z AUTO 00000KT 16/08 A3012 400 62 600 000/00 RMK AO1 T01560083
54779K12N 12N20160511200509805/11/16 20:05:31  5-MIN K12N 120105Z AUTO 00000KT 15/09 A3012 400 69 500 000/00 RMK AO1 T01500094
54779K12N 12N20160511201009805/11/16 20:10:31  5-MIN K12N 120110Z AUTO 00000KT 15/09 A3012 400 69 500 000/00 RMK AO1 T01500094
54779K12N 12N20160511201509805/11/16 20:15:31  5-MIN K12N 120115Z AUTO 00000KT 15/10 A3012 400 72 500 000/00 RMK AO1 T01500100
54779K12N 12N20160511202009805/11/16 20:20:31  5-MIN K12N 120120Z AUTO 00000KT 15/09 A3012 400 66 500 000/00 RMK AO1 T01500089
54779K12N 12N20160511202509805/11/16 20:25:31  5-MIN K12N 120125Z AUTO 00000KT 14/09 A3012 400 72 500 000/00 RMK AO1 T01440094
54779K12N 12N20160511203009805/11/16 20:30:31  5-MIN K12N 120130Z AUTO 00000KT 14/09 A3013 400 72 500 000/00 RMK AO1 T01440094
54779K12N 12N20160511203509805/11/16 20:35:31  5-MIN K12N 120135Z AUTO 00000KT 14/09 A3013 400 69 500 000/00 RMK AO1 T01440089
54779K12N 12N20160511204009805/11/16 20:40:31  5-MIN K12N 120140Z AUTO 00000KT 14/09 A3013 390 74 400 000/00 RMK AO1 T01390094
54779K12N 12N20160511204509805/11/16 20:45:31  5-MIN K12N 120145Z AUTO 00000KT 14/09 A3013 390 74 400 000/00 RMK AO1 T01390094
54779K12N 12N20160511205010505/11/16 20:50:31  5-MIN K12N 120150Z AUTO 00000KT 14/09 A3013 390 74 400 000/00 RMK AO1 SLP201 T01390094
54779K12N 12N20160511205509805/11/16 20:55:31  5-MIN K12N 120155Z AUTO 21003KT 14/08 A3013 390 66 500 220/03 RMK AO1 T01440083
54779K12N 12N20160511210009805/11/16 21:00:31  5-MIN K12N 120200Z AUTO 00000KT 14/08 A3013 390 69 400 000/00 RMK AO1 T01390083
54779K12N 12N20160511210509805/11/16 21:05:31  5-MIN K12N 120205Z AUTO 20003KT 13/09 A3013 390 74 300 210/03 RMK AO1 T01330089
54779K12N 12N20160511211009805/11/16 21:10:31  5-MIN K12N 120210Z AUTO 21003KT 14/09 A3013 390 71 400 220/03 RMK AO1 T01390089
54779K12N 12N20160511211509805/11/16 21:15:31  5-MIN K12N 120215Z AUTO 22004KT 14/09 A3013 390 71 400 230/04 RMK AO1 T01390089
54779K12N 12N20160511212009805/11/16 21:20:31  5-MIN K12N 120220Z AUTO 20003KT 14/08 A3013 390 69 400 210/03 RMK AO1 T01390083
54779K12N 12N20160511212509805/11/16 21:25:31  5-MIN K12N 120225Z AUTO 19003KT 14/08 A3013 390 69 400 200/03 RMK AO1 T01390083
54779K12N 12N20160511213009805/11/16 21:30:31  5-MIN K12N 120230Z AUTO 00000KT 14/08 A3013 390 66 400 000/00 RMK AO1 T01390078
54779K12N 12N20160511213509805/11/16 21:35:31  5-MIN K12N 120235Z AUTO 00000KT 13/09 A3013 390 77 300 000/00 RMK AO1 T01280089
54779K12N 12N20160511214009805/11/16 21:40:31  5-MIN K12N 120240Z AUTO 00000KT 13/08 A3013 390 71 300 000/00 RMK AO1 T01330083
54779K12N 12N20160511214509805/11/16 21:45:31  5-MIN K12N 120245Z AUTO 00000KT 13/09 A3013 390 80 300 000/00 RMK AO1 T01280094
54779K12N 12N20160511215011105/11/16 21:50:31  5-MIN K12N 120250Z AUTO 00000KT 12/09 A3013 390 83 200 000/00 RMK AO1 SLP201 T01220094 53006
54779K12N 12N20160511215509805/11/16 21:55:31  5-MIN K12N 120255Z AUTO 00000KT 13/09 A3013 390 77 300 000/00 RMK AO1 T01280089
54779K12N 12N20160511220009805/11/16 22:00:31  5-MIN K12N 120300Z AUTO 00000KT 13/09 A3013 390 77 300 000/00 RMK AO1 T01280089
54779K12N 12N20160511220509805/11/16 22:05:31  5-MIN K12N 120305Z AUTO 00000KT 12/08 A3013 390 77 200 000/00 RMK AO1 T01220083
54779K12N 12N20160511221009805/11/16 22:10:31  5-MIN K12N 120310Z AUTO 00000KT 12/09 A3013 390 80 200 000/00 RMK AO1 T01220089
54779K12N 12N20160511221509805/11/16 22:15:31  5-MIN K12N 120315Z AUTO 00000KT 12/08 A3014 390 77 200 000/00 RMK AO1 T01220083
54779K12N 12N20160511222009805/11/16 22:20:31  5-MIN K12N 120320Z AUTO 00000KT 12/08 A3014 390 77 200 000/00 RMK AO1 T01220083
54779K12N 12N20160511222509805/11/16 22:25:31  5-MIN K12N 120325Z AUTO 00000KT 12/09 A3014 390 83 100 000/00 RMK AO1 T01170089
54779K12N 12N20160511223009805/11/16 22:30:31  5-MIN K12N 120330Z AUTO 00000KT 12/08 A3014 390 80 100 000/00 RMK AO1 T01170083
54779K12N 12N20160511223509805/11/16 22:35:31  5-MIN K12N 120335Z AUTO 00000KT 12/09 A3014 390 83 100 000/00 RMK AO1 T01170089
54779K12N 12N20160511224009805/11/16 22:40:31  5-MIN K12N 120340Z AUTO 00000KT 12/09 A3014 390 83 100 000/00 RMK AO1 T01170089
54779K12N 12N20160511224509805/11/16 22:45:31  5-MIN K12N 120345Z AUTO 00000KT 12/09 A3014 390 83 100 000/00 RMK AO1 T01170089
54779K12N 12N20160511225010505/11/16 22:50:31  5-MIN K12N 120350Z AUTO 00000KT 11/09 A3014 380 86 100 000/00 RMK AO1 SLP203 T01110089
54779K12N 12N20160511225509805/11/16 22:55:31  5-MIN K12N 120355Z AUTO 00000KT 12/09 A3014 390 83 100 000/00 RMK AO1 T01170089
54779K12N 12N20160511230009805/11/16 23:00:31  5-MIN K12N 120400Z AUTO 00000KT 11/09 A3014 390 86 100 000/00 RMK AO1 T01110089
54779K12N 12N20160511230509805/11/16 23:05:31  5-MIN K12N 120405Z AUTO 00000KT 11/08 A3014 380 83 100 000/00 RMK AO1 T01110083
54779K12N 12N20160511231009605/11/16 23:10:31  5-MIN K12N 120410Z AUTO 00000KT 11/08 A3014 390 86 0 000/00 RMK AO1 T01060083
54779K12N 12N20160511231509805/11/16 23:15:31  5-MIN K12N 120415Z AUTO 00000KT 11/08 A3014 380 83 100 000/00 RMK AO1 T01110083
54779K12N 12N20160511232009805/11/16 23:20:31  5-MIN K12N 120420Z AUTO 00000KT 11/08 A3014 380 83 100 000/00 RMK AO1 T01110083
54779K12N 12N20160511232509605/11/16 23:25:31  5-MIN K12N 120425Z AUTO 00000KT 11/08 A3014 380 86 0 000/00 RMK AO1 T01060083
54779K12N 12N20160511233009605/11/16 23:30:31  5-MIN K12N 120430Z AUTO 00000KT 11/08 A3014 380 83 0 000/00 RMK AO1 T01110083
54779K12N 12N20160511233509605/11/16 23:35:31  5-MIN K12N 120435Z AUTO 00000KT 11/09 A3014 380 89 0 000/00 RMK AO1 T01060089
54779K12N 12N20160511234009605/11/16 23:40:31  5-MIN K12N 120440Z AUTO 00000KT 11/09 A3014 380 89 0 000/00 RMK AO1 T01060089
54779K12N 12N20160511234509605/11/16 23:45:31  5-MIN K12N 120445Z AUTO 00000KT 11/09 A3014 380 89 0 000/00 RMK AO1 T01060089
54779K12N 12N20160511235011305/11/16 23:50:31  5-MIN K12N 120450Z AUTO 00000KT 11/08 A3014 380 86 0 000/00 RMK AO1 SLP204 T01060083 402610044
54779K12N 12N20160511235509605/11/16 23:55:31  5-MIN K12N 120455Z AUTO 00000KT 11/08 A3014 380 86 0 000/00 RMK AO1 T01060083
54779K12N 12N20160512000009605/12/16 00:00:31  5-MIN K12N 120500Z AUTO 00000KT 11/08 A3014 390 86 0 000/00 RMK AO1 T01060083
54779K12N 12N20160512000509605/12/16 00:05:31  5-MIN K12N 120505Z AUTO 00000KT 11/08 A3014 390 86 0 000/00 RMK AO1 T01060083
54779K12N 12N20160512001009605/12/16 00:10:31  5-MIN K12N 120510Z AUTO 00000KT 10/08 A3013 390 89 0 000/00 RMK AO1 T01000083
54779K12N 12N20160512001509605/12/16 00:15:31  5-MIN K12N 120515Z AUTO 00000KT 11/08 A3013 390 86 0 000/00 RMK AO1 T01060083
54779K12N 12N20160512002009605/12/16 00:20:31  5-MIN K12N 120520Z AUTO 00000KT 10/08 A3013 390 89 0 000/00 RMK AO1 T01000083
54779K12N 12N20160512002509605/12/16 00:25:31  5-MIN K12N 120525Z AUTO 00000KT 11/08 A3013 390 86 0 000/00 RMK AO1 T01060083
54779K12N 12N20160512003009605/12/16 00:30:31  5-MIN K12N 120530Z AUTO 00000KT 10/09 A3013 390 93 0 000/00 RMK AO1 T01000089
54779K12N 12N20160512003509605/12/16 00:35:31  5-MIN K12N 120535Z AUTO 00000KT 10/09 A3013 390 93 0 000/00 RMK AO1 T01000089
54779K12N 12N20160512004009605/12/16 00:40:31  5-MIN K12N 120540Z AUTO 00000KT 10/09 A3013 390 93 0 000/00 RMK AO1 T01000089
54779K12N 12N20160512004509605/12/16 00:45:31  5-MIN K12N 120545Z AUTO 00000KT 10/09 A3013 390 93 0 000/00 RMK AO1 T01000089
54779K12N 12N20160512005012105/12/16 00:50:31  5-MIN K12N 120550Z AUTO 00000KT 10/08 A3013 390 89 0 000/00 RMK AO1 SLP200 T01000083 10189 20100 51009
54779K12N 12N20160512005509605/12/16 00:55:31  5-MIN K12N 120555Z AUTO 00000KT 10/08 A3013 390 89 0 000/00 RMK AO1 T01000083
54779K12N 12N20160512010009605/12/16 01:00:31  5-MIN K12N 120600Z AUTO 00000KT 10/08 A3013 390 89 0 000/00 RMK AO1 T01000083
54779K12N 12N20160512010509605/12/16 01:05:31  5-MIN K12N 120605Z AUTO 00000KT 10/08 A3013 390 89 0 000/00 RMK AO1 T01000083
54779K12N 12N20160512011009605/12/16 01:10:31  5-MIN K12N 120610Z AUTO 00000KT 10/08 A3013 390 89 0 000/00 RMK AO1 T01000083
54779K12N 12N20160512011509605/12/16 01:15:31  5-MIN K12N 120615Z AUTO 00000KT 10/08 A3013 390 89 0 000/00 RMK AO1 T01000083
54779K12N 12N20160512012009905/12/16 01:20:31  5-MIN K12N 120620Z AUTO 00000KT 09/08 A3013 390 93 -100 000/00 RMK AO1 T00940083
54779K12N 12N20160512012509905/12/16 01:25:31  5-MIN K12N 120625Z AUTO 00000KT 09/08 A3013 390 93 -100 000/00 RMK AO1 T00940083
54779K12N 12N20160512013009905/12/16 01:30:31  5-MIN K12N 120630Z AUTO 00000KT 09/08 A3013 400 89 -100 000/00 RMK AO1 T00940078
54779K12N 12N20160512013509905/12/16 01:35:31  5-MIN K12N 120635Z AUTO 00000KT 09/08 A3012 400 89 -100 000/00 RMK AO1 T00940078
54779K12N 12N20160512014009905/12/16 01:40:31  5-MIN K12N 120640Z AUTO 00000KT 09/08 A3012 400 89 -100 000/00 RMK AO1 T00940078
54779K12N 12N20160512014509905/12/16 01:45:31  5-MIN K12N 120645Z AUTO 00000KT 09/08 A3012 400 89 -100 000/00 RMK AO1 T00940078
54779K12N 12N20160512015010605/12/16 01:50:31  5-MIN K12N 120650Z AUTO 00000KT 09/08 A3012 400 89 -100 000/00 RMK AO1 SLP195 T00940078
54779K12N 12N20160512015509905/12/16 01:55:31  5-MIN K12N 120655Z AUTO 00000KT 09/08 A3012 400 93 -100 000/00 RMK AO1 T00940083
54779K12N 12N20160512020009905/12/16 02:00:31  5-MIN K12N 120700Z AUTO 00000KT 09/08 A3012 400 93 -100 000/00 RMK AO1 T00890078
54779K12N 12N20160512020509905/12/16 02:05:31  5-MIN K12N 120705Z AUTO 00000KT 09/08 A3012 400 89 -100 000/00 RMK AO1 T00940078
54779K12N 12N20160512021009905/12/16 02:10:31  5-MIN K12N 120710Z AUTO 00000KT 09/08 A3012 400 93 -100 000/00 RMK AO1 T00890078
54779K12N 12N20160512021509905/12/16 02:15:31  5-MIN K12N 120715Z AUTO 00000KT 09/08 A3012 400 93 -100 000/00 RMK AO1 T00890078
54779K12N 12N20160512022009905/12/16 02:20:31  5-MIN K12N 120720Z AUTO 00000KT 09/08 A3012 400 93 -100 000/00 RMK AO1 T00890078
54779K12N 12N20160512022509905/12/16 02:25:31  5-MIN K12N 120725Z AUTO 00000KT 09/07 A3012 400 89 -100 000/00 RMK AO1 T00890072
54779K12N 12N20160512023009905/12/16 02:30:31  5-MIN K12N 120730Z AUTO 00000KT 09/07 A3012 400 89 -100 000/00 RMK AO1 T00890072
54779K12N 12N20160512023509905/12/16 02:35:31  5-MIN K12N 120735Z AUTO 00000KT 09/07 A3012 400 89 -100 000/00 RMK AO1 T00890072
54779K12N 12N20160512024009905/12/16 02:40:31  5-MIN K12N 120740Z AUTO 00000KT 08/07 A3012 400 93 -200 000/00 RMK AO1 T00830072
54779K12N 12N20160512024509905/12/16 02:45:31  5-MIN K12N 120745Z AUTO 00000KT 08/07 A3012 400 93 -200 000/00 RMK AO1 T00830072
54779K12N 12N20160512025010605/12/16 02:50:31  5-MIN K12N 120750Z AUTO 00000KT 08/07 A3012 400 93 -200 000/00 RMK AO1 SLP196 T00830072
54779K12N 12N20160512025509905/12/16 02:55:31  5-MIN K12N 120755Z AUTO 00000KT 08/07 A3012 400 93 -200 000/00 RMK AO1 T00830072
54779K12N 12N20160512030009905/12/16 03:00:31  5-MIN K12N 120800Z AUTO 00000KT 08/07 A3012 400 93 -200 000/00 RMK AO1 T00830072
54779K12N 12N20160512030509905/12/16 03:05:31  5-MIN K12N 120805Z AUTO 00000KT 08/07 A3012 400 93 -200 000/00 RMK AO1 T00830072
54779K12N 12N20160512031009905/12/16 03:10:31  5-MIN K12N 120810Z AUTO 00000KT 08/07 A3012 400 93 -200 000/00 RMK AO1 T00830072
54779K12N 12N20160512031509905/12/16 03:15:31  5-MIN K12N 120815Z AUTO 00000KT 08/07 A3013 400 93 -200 000/00 RMK AO1 T00830072
54779K12N 12N20160512032009905/12/16 03:20:31  5-MIN K12N 120820Z AUTO 00000KT 08/07 A3013 390 93 -200 000/00 RMK AO1 T00830072
54779K12N 12N20160512032509905/12/16 03:25:31  5-MIN K12N 120825Z AUTO 00000KT 08/07 A3013 400 93 -200 000/00 RMK AO1 T00830072
54779K12N 12N20160512033009905/12/16 03:30:31  5-MIN K12N 120830Z AUTO 00000KT 08/07 A3013 390 93 -200 000/00 RMK AO1 T00830072
54779K12N 12N20160512033509905/12/16 03:35:31  5-MIN K12N 120835Z AUTO 00000KT 08/07 A3013 390 89 -200 000/00 RMK AO1 T00830067
54779K12N 12N20160512034009905/12/16 03:40:31  5-MIN K12N 120840Z AUTO 00000KT 08/07 A3013 390 93 -200 000/00 RMK AO1 T00830072
54779K12N 12N20160512034509905/12/16 03:45:31  5-MIN K12N 120845Z AUTO 00000KT 08/07 A3014 390 93 -200 000/00 RMK AO1 T00830072
54779K12N 12N20160512035011205/12/16 03:50:31  5-MIN K12N 120850Z AUTO 00000KT 08/07 A3014 380 93 -200 000/00 RMK AO1 SLP203 T00830072 58000
54779K12N 12N20160512035509905/12/16 03:55:31  5-MIN K12N 120855Z AUTO 00000KT 08/07 A3014 380 93 -200 000/00 RMK AO1 T00830072
54779K12N 12N20160512040009905/12/16 04:00:31  5-MIN K12N 120900Z AUTO 00000KT 08/07 A3014 380 93 -200 000/00 RMK AO1 T00830072
54779K12N 12N20160512040509905/12/16 04:05:31  5-MIN K12N 120905Z AUTO 00000KT 08/07 A3015 380 93 -200 000/00 RMK AO1 T00830072
54779K12N 12N20160512041009905/12/16 04:10:31  5-MIN K12N 120910Z AUTO 00000KT 08/08 A3015 370 96 -200 000/00 RMK AO1 T00830078
54779K12N 12N20160512041509905/12/16 04:15:31  5-MIN K12N 120915Z AUTO 00000KT 08/08 A3015 370 96 -300 000/00 RMK AO1 T00830078
54779K12N 12N20160512042009905/12/16 04:20:31  5-MIN K12N 120920Z AUTO 00000KT 08/07 A3015 370 93 -300 000/00 RMK AO1 T00830072
54779K12N 12N20160512042509905/12/16 04:25:31  5-MIN K12N 120925Z AUTO 00000KT 08/07 A3015 370 93 -300 000/00 RMK AO1 T00830072
54779K12N 12N20160512043009905/12/16 04:30:31  5-MIN K12N 120930Z AUTO 00000KT 08/07 A3015 380 96 -300 000/00 RMK AO1 T00780072
54779K12N 12N20160512043509905/12/16 04:35:31  5-MIN K12N 120935Z AUTO 00000KT 08/07 A3014 380 93 -200 000/00 RMK AO1 T00830072
54779K12N 12N20160512044009905/12/16 04:40:31  5-MIN K12N 120940Z AUTO 00000KT 08/07 A3014 380 96 -300 000/00 RMK AO1 T00780072
54779K12N 12N20160512044509905/12/16 04:45:31  5-MIN K12N 120945Z AUTO 00000KT 08/07 A3014 380 96 -300 000/00 RMK AO1 T00780072
54779K12N 12N20160512045010605/12/16 04:50:31  5-MIN K12N 120950Z AUTO 00000KT 08/07 A3014 380 93 -200 000/00 RMK AO1 SLP205 T00830072
54779K12N 12N20160512045509905/12/16 04:55:31  5-MIN K12N 120955Z AUTO 00000KT 08/07 A3014 380 93 -300 000/00 RMK AO1 T00780067
54779K12N 12N20160512050009905/12/16 05:00:31  5-MIN K12N 121000Z AUTO 00000KT 08/07 A3015 370 93 -300 000/00 RMK AO1 T00780067
54779K12N 12N20160512050509905/12/16 05:05:31  5-MIN K12N 121005Z AUTO 00000KT 08/07 A3015 370 93 -300 000/00 RMK AO1 T00780067
54779K12N 12N20160512051009905/12/16 05:10:31  5-MIN K12N 121010Z AUTO 00000KT 08/07 A3015 370 93 -300 000/00 RMK AO1 T00780067
54779K12N 12N20160512051509905/12/16 05:15:31  5-MIN K12N 121015Z AUTO 00000KT 08/07 A3015 370 93 -200 000/00 RMK AO1 T00830072
54779K12N 12N20160512052009905/12/16 05:20:31  5-MIN K12N 121020Z AUTO 00000KT 08/07 A3015 370 93 -200 000/00 RMK AO1 T00830072
54779K12N 12N20160512052509905/12/16 05:25:31  5-MIN K12N 121025Z AUTO 00000KT 08/07 A3015 370 96 -300 000/00 RMK AO1 T00780072
54779K12N 12N20160512053009905/12/16 05:30:31  5-MIN K12N 121030Z AUTO 00000KT 08/07 A3015 370 93 -300 000/00 RMK AO1 T00780067
54779K12N 12N20160512053509905/12/16 05:35:31  5-MIN K12N 121035Z AUTO 00000KT 08/07 A3016 370 93 -300 000/00 RMK AO1 T00830072
54779K12N 12N20160512054009905/12/16 05:40:31  5-MIN K12N 121040Z AUTO 00000KT 08/08 A3016 370 96 -300 000/00 RMK AO1 T00830078
54779K12N 12N20160512054509905/12/16 05:45:31  5-MIN K12N 121045Z AUTO 00000KT 08/08 A3016 360 96 -300 000/00 RMK AO1 T00830078
54779K12N 12N20160512055010605/12/16 05:50:31  5-MIN K12N 121050Z AUTO 00000KT 09/08 A3016 360 96 -200 000/00 RMK AO1 SLP212 T00890083
54779K12N 12N20160512055509905/12/16 05:55:31  5-MIN K12N 121055Z AUTO 05003KT 09/08 A3016 360 93 -100 060/03 RMK AO1 T00940083
54779K12N 12N20160512060009905/12/16 06:00:31  5-MIN K12N 121100Z AUTO 00000KT 09/09 A3017 360 96 -100 000/00 RMK AO1 T00940089
54779K12N 12N20160512060509905/12/16 06:05:31  5-MIN K12N 121105Z AUTO 00000KT 10/09 A3017 360 93 -100 000/00 RMK AO1 T01000089
54779K12N 12N20160512061009905/12/16 06:10:31  5-MIN K12N 121110Z AUTO 00000KT 10/09 A3017 360 96 -100 000/00 RMK AO1 T01000094
54779K12N 12N20160512061509905/12/16 06:15:31  5-MIN K12N 121115Z AUTO 05003KT 10/09 A3017 360 96 -100 060/03 RMK AO1 T01000094
54779K12N 12N20160512062009605/12/16 06:20:31  5-MIN K12N 121120Z AUTO 00000KT 11/09 A3017 360 89 0 000/00 RMK AO1 T01060089
54779K12N 12N20160512062509605/12/16 06:25:31  5-MIN K12N 121125Z AUTO VRB03KT 11/09 A3017 360 89 0 VRB/03 RMK AO1 T01060089
54779K12N 12N20160512063009605/12/16 06:30:31  5-MIN K12N 121130Z AUTO 00000KT 11/09 A3017 360 93 0 000/00 RMK AO1 T01060094
54779K12N 12N20160512063509605/12/16 06:35:31  5-MIN K12N 121135Z AUTO VRB03KT 11/09 A3017 360 89 0 VRB/03 RMK AO1 T01110094
54779K12N 12N20160512064009805/12/16 06:40:31  5-MIN K12N 121140Z AUTO 00000KT 12/09 A3017 350 86 100 000/00 RMK AO1 T01170094
54779K12N 12N20160512064509805/12/16 06:45:31  5-MIN K12N 121145Z AUTO 00000KT 12/10 A3017 350 86 100 000/00 RMK AO1 T01220100
54779K12N 12N20160512065012305/12/16 06:50:31  5-MIN K12N 121150Z AUTO VRB04KT 12/09 A3017 350 83 100 VRB/04 RMK AO1 SLP214 T01220094 10128 20078 53003
54779K12N 12N20160512065509805/12/16 06:55:31  5-MIN K12N 121155Z AUTO 00000KT 13/10 A3017 350 83 200 000/00 RMK AO1 T01280100
54779K12N 12N20160512070009805/12/16 07:00:31  5-MIN K12N 121200Z AUTO VRB03KT 13/09 A3017 350 77 300 VRB/03 RMK AO1 T01330094
54779K12N 12N20160512070509805/12/16 07:05:31  5-MIN K12N 121205Z AUTO 00000KT 14/09 A3017 350 74 300 000/00 RMK AO1 T01390094
54779K12N 12N20160512071009805/12/16 07:10:31  5-MIN K12N 121210Z AUTO 00000KT 14/09 A3017 360 74 300 000/00 RMK AO1 T01390094
54779K12N 12N20160512071509805/12/16 07:15:31  5-MIN K12N 121215Z AUTO VRB04KT 14/09 A3017 350 72 400 VRB/04 RMK AO1 T01440094
54779K12N 12N20160512072009805/12/16 07:20:31  5-MIN K12N 121220Z AUTO VRB03KT 15/09 A3017 350 66 500 VRB/03 RMK AO1 T01500089
54779K12N 12N20160512072509805/12/16 07:25:31  5-MIN K12N 121225Z AUTO VRB04KT 14/08 A3017 350 66 400 VRB/04 RMK AO1 T01440083
54779K12N 12N20160512073009805/12/16 07:30:31  5-MIN K12N 121230Z AUTO 04007KT 15/08 A3017 350 62 500 050/07 RMK AO1 T01500078
54779K12N 12N20160512073509805/12/16 07:35:31  5-MIN K12N 121235Z AUTO 04006KT 15/07 A3017 360 59 500 050/06 RMK AO1 T01500072
54779K12N 12N20160512074009805/12/16 07:40:31  5-MIN K12N 121240Z AUTO 03005KT 16/08 A3017 360 62 500 040/05 RMK AO1 T01560083
54779K12N 12N20160512074509805/12/16 07:45:31  5-MIN K12N 121245Z AUTO VRB03KT 16/09 A3017 360 64 500 VRB/03 RMK AO1 T01560089
54779K12N 12N20160512075010505/12/16 07:50:31  5-MIN K12N 121250Z AUTO VRB04KT 16/09 A3017 360 62 600 VRB/04 RMK AO1 SLP213 T01610089
54779K12N 12N20160512075509805/12/16 07:55:31  5-MIN K12N 121255Z AUTO 00000KT 17/09 A3017 360 60 700 000/00 RMK AO1 T01670089
54779K12N 12N20160512080009805/12/16 08:00:31  5-MIN K12N 121300Z AUTO VRB03KT 17/09 A3017 360 57 700 VRB/03 RMK AO1 T01720089
54779K12N 12N20160512080509805/12/16 08:05:31  5-MIN K12N 121305Z AUTO VRB03KT 17/08 A3016 360 55 700 VRB/03 RMK AO1 T01720083
54779K12N 12N20160512081009805/12/16 08:10:31  5-MIN K12N 121310Z AUTO VRB03KT 17/08 A3016 360 55 700 VRB/03 RMK AO1 T01720083
54779K12N 12N20160512081509805/12/16 08:15:31  5-MIN K12N 121315Z AUTO VRB03KT 18/09 A3016 360 55 800 VRB/03 RMK AO1 T01780089
54779K12N 12N20160512082009805/12/16 08:20:31  5-MIN K12N 121320Z AUTO 00000KT 18/09 A3016 370 54 900 000/00 RMK AO1 T01830089
54779K12N 12N20160512082509805/12/16 08:25:31  5-MIN K12N 121325Z AUTO VRB04KT 18/09 A3016 370 54 900 VRB/04 RMK AO1 T01830089
54779K12N 12N20160512083009805/12/16 08:30:31  5-MIN K12N 121330Z AUTO VRB03KT 18/08 A3016 370 53 800 VRB/03 RMK AO1 T01780083
54779K12N 12N20160512083509805/12/16 08:35:31  5-MIN K12N 121335Z AUTO 00000KT 18/08 A3015 370 52 900 000/00 RMK AO1 T01830083
54779K12N 12N20160512084009905/12/16 08:40:31  5-MIN K12N 121340Z AUTO 00000KT 19/09 A3015 370 52 1000 000/00 RMK AO1 T01890089
54779K12N 12N20160512084509905/12/16 08:45:31  5-MIN K12N 121345Z AUTO VRB03KT 19/08 A3015 370 48 1000 VRB/03 RMK AO1 T01940083
54779K12N 12N20160512085010605/12/16 08:50:31  5-MIN K12N 121350Z AUTO 00000KT 19/08 A3015 380 48 1000 000/00 RMK AO1 SLP206 T01940083
54779K12N 12N20160512085509905/12/16 08:55:31  5-MIN K12N 121355Z AUTO 00000KT 20/08 A3015 380 45 1100 000/00 RMK AO1 T02000078
54779K12N 12N20160512090009905/12/16 09:00:31  5-MIN K12N 121400Z AUTO 35003KT 21/08 A3014 380 43 1200 010/03 RMK AO1 T02060078
54779K12N 12N20160512090509905/12/16 09:05:31  5-MIN K12N 121405Z AUTO 02003KT 21/08 A3014 380 43 1200 030/03 RMK AO1 T02110083
54779K12N 12N20160512091009905/12/16 09:10:31  5-MIN K12N 121410Z AUTO 01003KT 21/07 A3014 380 40 1200 030/03 RMK AO1 T02110072
54779K12N 12N20160512091509905/12/16 09:15:31  5-MIN K12N 121415Z AUTO 00000KT 21/07 A3014 390 40 1200 000/00 RMK AO1 T02110072
54779K12N 12N20160512092009905/12/16 09:20:31  5-MIN K12N 121420Z AUTO VRB03KT 21/07 A3014 390 38 1200 VRB/03 RMK AO1 T02110067
54779K12N 12N20160512092509905/12/16 09:25:31  5-MIN K12N 121425Z AUTO 36003KT 22/06 A3013 390 36 1300 010/03 RMK AO1 T02170061
54779K12N 12N20160512093009905/12/16 09:30:31  5-MIN K12N 121430Z AUTO VRB03KT 22/06 A3013 390 33 1400 VRB/03 RMK AO1 T02220056
54779K12N 12N20160512093509905/12/16 09:35:31  5-MIN K12N 121435Z AUTO VRB04KT 22/06 A3013 390 34 1300 VRB/04 RMK AO1 T02170056
54779K12N 12N20160512094009905/12/16 09:40:31  5-MIN K12N 121440Z AUTO 00000KT 22/03 A3013 390 27 1400 000/00 RMK AO1 T02220028
54779K12N 12N20160512094509905/12/16 09:45:31  5-MIN K12N 121445Z AUTO 00000KT 23/03 A3013 400 26 1400 000/00 RMK AO1 T02280028
54779K12N 12N20160512095011205/12/16 09:50:31  5-MIN K12N 121450Z AUTO 16004KT 22/01 A3012 400 24 1400 170/04 RMK AO1 SLP197 T02220011 53010
54779K12N 12N20160512095509905/12/16 09:55:31  5-MIN K12N 121455Z AUTO 00000KT 23/02 A3012 400 24 1400 000/00 RMK AO1 T02280017
54779K12N 12N20160512100009905/12/16 10:00:31  5-MIN K12N 121500Z AUTO 00000KT 23/02 A3012 400 24 1500 000/00 RMK AO1 T02330017
54779K12N 12N20160512100509905/12/16 10:05:31  5-MIN K12N 121505Z AUTO 00000KT 23/03 A3012 400 26 1500 000/00 RMK AO1 T02330033
54779K12N 12N20160512101009905/12/16 10:10:31  5-MIN K12N 121510Z AUTO VRB04KT 23/02 A3012 400 24 1500 VRB/04 RMK AO1 T02330017
54779K12N 12N20160512101509905/12/16 10:15:31  5-MIN K12N 121515Z AUTO 17005KT 23/01 A3012 400 22 1400 180/05 RMK AO1 T02280006
54779K12N 12N20160512102009905/12/16 10:20:31  5-MIN K12N 121520Z AUTO VRB04KT 23/01 A3012 400 22 1400 VRB/04 RMK AO1 T02280006
54779K12N 12N20160512102509905/12/16 10:25:31  5-MIN K12N 121525Z AUTO 23006KT 23/01 A3012 400 23 1500 240/06 RMK AO1 T02330011
54779K12N 12N20160512103009905/12/16 10:30:31  5-MIN K12N 121530Z AUTO 20005KT 23/02 A3012 400 24 1500 210/05 RMK AO1 T02330017
54779K12N 12N20160512103509905/12/16 10:35:31  5-MIN K12N 121535Z AUTO VRB05KT 23/01 A3012 400 23 1500 VRB/05 RMK AO1 T02330011
54779K12N 12N20160512104009905/12/16 10:40:31  5-MIN K12N 121540Z AUTO VRB05KT 23/02 A3012 400 24 1500 VRB/05 RMK AO1 T02330017
54779K12N 12N20160512104509905/12/16 10:45:31  5-MIN K12N 121545Z AUTO VRB03KT 23/02 A3012 400 24 1500 VRB/03 RMK AO1 T02330017
54779K12N 12N20160512105010605/12/16 10:50:31  5-MIN K12N 121550Z AUTO VRB03KT 23/01 A3012 400 22 1500 VRB/03 RMK AO1 SLP196 T02330006
54779K12N 12N20160512105509905/12/16 10:55:31  5-MIN K12N 121555Z AUTO VRB05KT 23/01 A3012 400 22 1500 VRB/05 RMK AO1 T02330006
54779K12N 12N20160512110009905/12/16 11:00:31  5-MIN K12N 121600Z AUTO VRB03KT 24/02 A3011 410 23 1600 VRB/03 RMK AO1 T02390017
54779K12N 12N20160512110509905/12/16 11:05:31  5-MIN K12N 121605Z AUTO VRB03KT 24/02 A3011 410 22 1600 VRB/03 RMK AO1 T02440017
54779K12N 12N20160512111009905/12/16 11:10:31  5-MIN K12N 121610Z AUTO VRB04KT 24/02 A3011 410 23 1600 VRB/04 RMK AO1 T02390017
54779K12N 12N20160512111509905/12/16 11:15:31  5-MIN K12N 121615Z AUTO VRB05KT 24/02 A3011 410 23 1600 VRB/05 RMK AO1 T02390017
54779K12N 12N20160512112009905/12/16 11:20:31  5-MIN K12N 121620Z AUTO VRB06KT 24/02 A3010 420 23 1600 VRB/06 RMK AO1 T02440022
54779K12N 12N20160512112509905/12/16 11:25:31  5-MIN K12N 121625Z AUTO 23004KT 24/01 A3010 420 22 1600 240/04 RMK AO1 T02390011
54779K12N 12N20160512113009905/12/16 11:30:31  5-MIN K12N 121630Z AUTO VRB04KT 24/02 A3010 420 22 1600 VRB/04 RMK AO1 T02440017
54779K12N 12N20160512113509905/12/16 11:35:31  5-MIN K12N 121635Z AUTO VRB04KT 25/02 A3010 420 22 1700 VRB/04 RMK AO1 T02500022
54779K12N 12N20160512114009905/12/16 11:40:31  5-MIN K12N 121640Z AUTO 11004KT 24/01 A3010 420 20 1700 120/04 RMK AO1 T02440006
54779K12N 12N20160512114509905/12/16 11:45:31  5-MIN K12N 121645Z AUTO 00000KT 24/01 A3009 430 20 1700 000/00 RMK AO1 T02440006
54779K12N 12N20160512115009605/12/16 11:50:31  5-MIN K12N 121650Z AUTO 24/02 A3009 430 22 1700 M /M RMK AO1 SLP186 T02440017
54779K12N 12N20160512115509905/12/16 11:55:31  5-MIN K12N 121655Z AUTO VRB04KT 25/02 A3009 430 21 1700 VRB/04 RMK AO1 T02500017
54779K12N 12N20160512120009905/12/16 12:00:31  5-MIN K12N 121700Z AUTO VRB06KT 25/01 A3009 430 20 1700 VRB/06 RMK AO1 T02500006
54779K12N 12N20160512120509905/12/16 12:05:31  5-MIN K12N 121705Z AUTO VRB05KT 24/01 A3009 430 21 1700 VRB/05 RMK AO1 T02440011
54779K12N 12N20160512121009905/12/16 12:10:31  5-MIN K12N 121710Z AUTO 09005KT 24/01 A3009 430 21 1700 100/05 RMK AO1 T02440011
54779K12N 12N20160512121509905/12/16 12:15:31  5-MIN K12N 121715Z AUTO 00000KT 26/02 A3009 430 21 1800 000/00 RMK AO1 T02560017
54779K12N 12N20160512122009905/12/16 12:20:31  5-MIN K12N 121720Z AUTO VRB06KT 26/03 A3008 440 22 1800 VRB/06 RMK AO1 T02560028
54779K12N 12N20160512122511505/12/16 12:25:31  5-MIN K12N 121725Z AUTO 18007KT 150V230 26/02 A3008 440 21 1800 200/07 160V240 RMK AO1 T02560022
54779K12N 12N20160512123009905/12/16 12:30:31  5-MIN K12N 121730Z AUTO 22005KT 26/01 A3008 440 20 1800 240/05 RMK AO1 T02560011
54779K12N 12N20160512123508905/12/16 12:35:31  5-MIN K12N 121735Z AUTO 26/02 A3008 440 21 1800 M /M RMK AO1 T02560022
54779K12N 12N20160512124009905/12/16 12:40:31  5-MIN K12N 121740Z AUTO VRB03KT 25/02 A3008 440 21 1700 VRB/03 RMK AO1 T02500017
54779K12N 12N20160512124509905/12/16 12:45:31  5-MIN K12N 121745Z AUTO 00000KT 26/02 A3007 440 21 1800 000/00 RMK AO1 T02560017
54779K12N 12N20160512125012405/12/16 12:50:31  5-MIN K12N 121750Z AUTO 00000KT 26/02 A3007 450 21 1800 000/00 RMK AO1 SLP179 T02560017 10261 20128 58017
54779K12N 12N20160512125509905/12/16 12:55:31  5-MIN K12N 121755Z AUTO VRB04KT 26/02 A3007 450 20 1900 VRB/04 RMK AO1 T02610017
54779K12N 12N20160512130008905/12/16 13:00:31  5-MIN K12N 121800Z AUTO 26/02 A3007 450 21 1800 M /M RMK AO1 T02560017
54779K12N 12N20160512130509905/12/16 13:05:31  5-MIN K12N 121805Z AUTO 20005KT 26/03 A3007 450 21 1900 220/05 RMK AO1 T02610028
54779K12N 12N20160512131009905/12/16 13:10:31  5-MIN K12N 121810Z AUTO VRB05KT 26/02 A3006 450 21 1800 VRB/05 RMK AO1 T02560022
54779K12N 12N20160512131509905/12/16 13:15:31  5-MIN K12N 121815Z AUTO 00000KT 26/02 A3006 450 21 1800 000/00 RMK AO1 T02560017
54779K12N 12N20160512132009905/12/16 13:20:31  5-MIN K12N 121820Z AUTO 23004KT 26/02 A3006 460 21 1800 240/04 RMK AO1 T02560017
54779K12N 12N20160512132509905/12/16 13:25:31  5-MIN K12N 121825Z AUTO VRB03KT 26/01 A3006 460 20 1800 VRB/03 RMK AO1 T02560011
54779K12N 12N20160512133009905/12/16 13:30:31  5-MIN K12N 121830Z AUTO 21006KT 26/02 A3006 460 20 1900 230/06 RMK AO1 T02610017
54779K12N 12N20160512133509905/12/16 13:35:31  5-MIN K12N 121835Z AUTO VRB03KT 26/02 A3006 460 20 1900 VRB/03 RMK AO1 T02610017
54779K12N 12N20160512134009905/12/16 13:40:31  5-MIN K12N 121840Z AUTO 00000KT 26/03 A3005 460 21 1900 000/00 RMK AO1 T02610028
54779K12N 12N20160512134509905/12/16 13:45:31  5-MIN K12N 121845Z AUTO 23009KT 27/02 A3005 460 20 2000 240/09 RMK AO1 T02670022
54779K12N 12N20160512135011205/12/16 13:50:31  5-MIN K12N 121850Z AUTO 21007G16KT 26/01 A3005 460 18 1900 220/07G16 RMK AO1 SLP173 T02610006
54779K12N 12N20160512135510505/12/16 13:55:31  5-MIN K12N 121855Z AUTO VRB05G16KT 26/01 A3005 460 18 1900 VRB/05G16 RMK AO1 T02610006
54779K12N 12N20160512140009905/12/16 14:00:31  5-MIN K12N 121900Z AUTO 23005KT 26/00 A3005 470 18 1900 240/05 RMK AO1 T02610000
54779K12N 12N20160512140509905/12/16 14:05:31  5-MIN K12N 121905Z AUTO 16009KT 26/01 A3005 470 19 1900 180/09 RMK AO1 T02610011
54779K12N 12N20160512141009905/12/16 14:10:31  5-MIN K12N 121910Z AUTO 22006KT 26/03 A3005 470 21 1900 230/06 RMK AO1 T02610028
54779K12N 12N20160512141509905/12/16 14:15:31  5-MIN K12N 121915Z AUTO 23005KT 26/01 A3004 470 19 1900 240/05 RMK AO1 T02610011
54779K12N 12N20160512142009905/12/16 14:20:31  5-MIN K12N 121920Z AUTO 23008KT 27/03 A3005 470 22 2000 250/08 RMK AO1 T02670033
54779K12N 12N20160512142509905/12/16 14:25:31  5-MIN K12N 121925Z AUTO VRB04KT 26/02 A3004 470 21 1900 VRB/04 RMK AO1 T02610022
54779K12N 12N20160512143009905/12/16 14:30:31  5-MIN K12N 121930Z AUTO VRB06KT 26/02 A3004 470 21 1900 VRB/06 RMK AO1 T02610022
54779K12N 12N20160512143509905/12/16 14:35:31  5-MIN K12N 121935Z AUTO 22005KT 26/03 A3004 480 22 1900 230/05 RMK AO1 T02610033
54779K12N 12N20160512144009905/12/16 14:40:31  5-MIN K12N 121940Z AUTO VRB03KT 26/02 A3004 480 21 1900 VRB/03 RMK AO1 T02610022
54779K12N 12N20160512144509905/12/16 14:45:31  5-MIN K12N 121945Z AUTO VRB04KT 26/02 A3004 480 20 1900 VRB/04 RMK AO1 T02610017
54779K12N 12N20160512145010605/12/16 14:50:31  5-MIN K12N 121950Z AUTO VRB03KT 26/02 A3004 480 20 1900 VRB/03 RMK AO1 SLP167 T02610017
54779K12N 12N20160512145509905/12/16 14:55:31  5-MIN K12N 121955Z AUTO 22006KT 27/03 A3003 480 22 2000 230/06 RMK AO1 T02670033
54779K12N 12N20160512150011505/12/16 15:00:31  5-MIN K12N 122000Z AUTO 20009KT 170V230 26/03 A3003 480 21 1900 220/09 180V240 RMK AO1 T02610028
54779K12N 12N20160512150511505/12/16 15:05:31  5-MIN K12N 122005Z AUTO 18007KT 150V220 26/03 A3003 480 21 1900 200/07 160V230 RMK AO1 T02610028
54779K12N 12N20160512151009905/12/16 15:10:31  5-MIN K12N 122010Z AUTO VRB03KT 26/02 A3003 490 21 1900 VRB/03 RMK AO1 T02560022
54779K12N 12N20160513232509905/13/16 23:25:31  5-MIN K12N 140425Z AUTO 00000KT 14/14 A2983 670 100 700 000/00 RMK AO1 T01390139
54779K12N 12N20160513233009805/13/16 23:30:31  5-MIN K12N 140430Z AUTO 00000KT 14/13 A2983 670 96 700 000/00 RMK AO1 T01390133
54779K12N 12N20160513233509905/13/16 23:35:31  5-MIN K12N 140435Z AUTO 00000KT 13/13 A2983 670 100 700 000/00 RMK AO1 T01330133
54779K12N 12N20160513234009905/13/16 23:40:31  5-MIN K12N 140440Z AUTO 00000KT 13/13 A2983 670 100 700 000/00 RMK AO1 T01330133
54779K12N 12N20160513234509805/13/16 23:45:31  5-MIN K12N 140445Z AUTO 00000KT 13/13 A2983 670 96 700 000/00 RMK AO1 T01330128
54779K12N 12N20160513235011505/13/16 23:50:31  5-MIN K12N 140450Z AUTO 00000KT 13/13 A2983 670 96 700 000/00 RMK AO1 SLP099 T01330128 401830133
54779K12N 12N20160513235509805/13/16 23:55:31  5-MIN K12N 140455Z AUTO 00000KT 13/13 A2983 670 96 700 000/00 RMK AO1 T01330128
54779K12N 12N20160514000009805/14/16 00:00:31  5-MIN K12N 140500Z AUTO 00000KT 13/13 A2983 670 96 700 000/00 RMK AO1 T01330128
54779K12N 12N20160514000509805/14/16 00:05:31  5-MIN K12N 140505Z AUTO 00000KT 13/13 A2983 670 96 700 000/00 RMK AO1 T01330128
54779K12N 12N20160514001009905/14/16 00:10:31  5-MIN K12N 140510Z AUTO 00000KT 13/13 A2983 670 100 700 000/00 RMK AO1 T01330133
54779K12N 12N20160514001509805/14/16 00:15:31  5-MIN K12N 140515Z AUTO 00000KT 13/13 A2983 670 96 700 000/00 RMK AO1 T01330128
54779K12N 12N20160514002009905/14/16 00:20:31  5-MIN K12N 140520Z AUTO 00000KT 13/13 A2983 670 100 600 000/00 RMK AO1 T01280128
54779K12N 12N20160514002509905/14/16 00:25:31  5-MIN K12N 140525Z AUTO 00000KT 13/13 A2983 670 100 600 000/00 RMK AO1 T01280128
54779K12N 12N20160514003009905/14/16 00:30:31  5-MIN K12N 140530Z AUTO 00000KT 13/13 A2983 670 100 600 000/00 RMK AO1 T01280128
54779K12N 12N20160514003509905/14/16 00:35:31  5-MIN K12N 140535Z AUTO 00000KT 13/13 A2983 670 100 600 000/00 RMK AO1 T01280128
54779K12N 12N20160514004009905/14/16 00:40:31  5-MIN K12N 140540Z AUTO 00000KT 13/13 A2983 670 100 600 000/00 RMK AO1 T01280128
54779K12N 12N20160514004509805/14/16 00:45:31  5-MIN K12N 140545Z AUTO 00000KT 13/12 A2983 670 96 600 000/00 RMK AO1 T01280122
54779K12N 12N20160514005012405/14/16 00:50:31  5-MIN K12N 140550Z AUTO 00000KT 12/12 A2983 670 100 500 000/00 RMK AO1 SLP099 T01220122 10172 20122 50013
54779K12N 12N20160514005509905/14/16 00:55:31  5-MIN K12N 140555Z AUTO 00000KT 12/12 A2983 670 100 500 000/00 RMK AO1 T01220122
54779K12N 12N20160514010009905/14/16 01:00:31  5-MIN K12N 140600Z AUTO 00000KT 12/12 A2983 670 100 500 000/00 RMK AO1 T01220122
54779K12N 12N20160514010509905/14/16 01:05:31  5-MIN K12N 140605Z AUTO 00000KT 12/12 A2982 670 100 500 000/00 RMK AO1 T01170117
54779K12N 12N20160514011009905/14/16 01:10:31  5-MIN K12N 140610Z AUTO 00000KT 12/12 A2983 670 100 500 000/00 RMK AO1 T01170117
54779K12N 12N20160514011509905/14/16 01:15:31  5-MIN K12N 140615Z AUTO 00000KT 12/12 A2983 670 100 500 000/00 RMK AO1 T01170117
54779K12N 12N20160514012007105/14/16 01:20:31  5-MIN K12N 140620Z AUTO 00000KT M M M 000/00 RMK AO1
54779K12N 12N20160514012509805/14/16 01:25:31  5-MIN K12N 140625Z AUTO 00000KT 12/11 A2983 670 96 500 000/00 RMK AO1 T01170111
54779K12N 12N20160514013009805/14/16 01:30:31  5-MIN K12N 140630Z AUTO 00000KT 12/11 A2982 680 96 500 000/00 RMK AO1 T01170111
54779K12N 12N20160514013509805/14/16 01:35:31  5-MIN K12N 140635Z AUTO 00000KT 12/11 A2982 680 96 500 000/00 RMK AO1 T01170111
54779K12N 12N20160514014009905/14/16 01:40:31  5-MIN K12N 140640Z AUTO 00000KT 11/11 A2982 680 100 400 000/00 RMK AO1 T01110111
54779K12N 12N20160514014509905/14/16 01:45:31  5-MIN K12N 140645Z AUTO 00000KT 11/11 A2982 680 100 400 000/00 RMK AO1 T01110111
54779K12N 12N20160514015010605/14/16 01:50:31  5-MIN K12N 140650Z AUTO 00000KT 11/11 A2982 680 100 400 000/00 RMK AO1 SLP097 T01110111
54779K12N 12N20160514015509905/14/16 01:55:31  5-MIN K12N 140655Z AUTO 00000KT 11/11 A2982 680 100 400 000/00 RMK AO1 T01110111
54779K12N 12N20160514020009905/14/16 02:00:31  5-MIN K12N 140700Z AUTO 00000KT 11/11 A2982 680 100 400 000/00 RMK AO1 T01110111
54779K12N 12N20160514020509805/14/16 02:05:31  5-MIN K12N 140705Z AUTO 00000KT 12/11 A2982 680 96 500 000/00 RMK AO1 T01170111
54779K12N 12N20160514021009805/14/16 02:10:31  5-MIN K12N 140710Z AUTO 00000KT 12/11 A2982 680 96 500 000/00 RMK AO1 T01170111
54779K12N 12N20160514021509805/14/16 02:15:31  5-MIN K12N 140715Z AUTO 00000KT 12/11 A2982 680 96 500 000/00 RMK AO1 T01170111
54779K12N 12N20160514022009905/14/16 02:20:31  5-MIN K12N 140720Z AUTO 00000KT 11/11 A2982 680 100 400 000/00 RMK AO1 T01110111
54779K12N 12N20160514022509905/14/16 02:25:31  5-MIN K12N 140725Z AUTO 00000KT 11/11 A2982 680 100 400 000/00 RMK AO1 T01110111
54779K12N 12N20160514023009905/14/16 02:30:31  5-MIN K12N 140730Z AUTO 00000KT 11/11 A2982 680 100 400 000/00 RMK AO1 T01110111
54779K12N 12N20160514023509805/14/16 02:35:31  5-MIN K12N 140735Z AUTO 00000KT 11/11 A2982 680 96 400 000/00 RMK AO1 T01110106
54779K12N 12N20160514024009905/14/16 02:40:31  5-MIN K12N 140740Z AUTO 00000KT 11/11 A2982 680 100 300 000/00 RMK AO1 T01060106
54779K12N 12N20160514024509905/14/16 02:45:31  5-MIN K12N 140745Z AUTO 00000KT 11/11 A2982 670 100 300 000/00 RMK AO1 T01060106
54779K12N 12N20160514025010605/14/16 02:50:31  5-MIN K12N 140750Z AUTO 00000KT 11/11 A2983 670 100 300 000/00 RMK AO1 SLP099 T01060106
54779K12N 12N20160514025509805/14/16 02:55:31  5-MIN K12N 140755Z AUTO 00000KT 11/10 A2983 670 96 300 000/00 RMK AO1 T01060100
54779K12N 12N20160514030009805/14/16 03:00:31  5-MIN K12N 140800Z AUTO 00000KT 11/10 A2983 670 96 300 000/00 RMK AO1 T01060100
54779K12N 12N20160514030509905/14/16 03:05:31  5-MIN K12N 140805Z AUTO 00000KT 10/10 A2983 670 100 300 000/00 RMK AO1 T01000100
54779K12N 12N20160514031009905/14/16 03:10:31  5-MIN K12N 140810Z AUTO 00000KT 10/10 A2983 670 100 300 000/00 RMK AO1 T01000100
54779K12N 12N20160514031509905/14/16 03:15:31  5-MIN K12N 140815Z AUTO 00000KT 10/10 A2982 670 100 300 000/00 RMK AO1 T01000100
54779K12N 12N20160514032009905/14/16 03:20:31  5-MIN K12N 140820Z AUTO 00000KT 10/10 A2982 670 100 300 000/00 RMK AO1 T01000100
54779K12N 12N20160514032509905/14/16 03:25:31  5-MIN K12N 140825Z AUTO 00000KT 10/10 A2982 680 100 300 000/00 RMK AO1 T01000100
54779K12N 12N20160514033009905/14/16 03:30:31  5-MIN K12N 140830Z AUTO 00000KT 10/10 A2982 680 100 300 000/00 RMK AO1 T01000100
54779K12N 12N20160514033509905/14/16 03:35:31  5-MIN K12N 140835Z AUTO 00000KT 10/10 A2982 680 100 300 000/00 RMK AO1 T01000100
54779K12N 12N20160514034009905/14/16 03:40:31  5-MIN K12N 140840Z AUTO 00000KT 10/10 A2982 680 100 300 000/00 RMK AO1 T01000100
54779K12N 12N20160514034509905/14/16 03:45:31  5-MIN K12N 140845Z AUTO 00000KT 10/10 A2982 680 100 300 000/00 RMK AO1 T01000100
54779K12N 12N20160514035010605/14/16 03:50:31  5-MIN K12N 140850Z AUTO 00000KT 10/10 A2982 680 100 300 000/00 RMK AO1 SLP096 T01000100
54779K12N 12N20160514035509805/14/16 03:55:31  5-MIN K12N 140855Z AUTO 00000KT 10/09 A2982 680 96 300 000/00 RMK AO1 T01000094
54779K12N 12N20160514040009905/14/16 04:00:31  5-MIN K12N 140900Z AUTO 00000KT 10/10 A2982 680 100 300 000/00 RMK AO1 T01000100
54779K12N 12N20160514040509805/14/16 04:05:31  5-MIN K12N 140905Z AUTO 00000KT 10/09 A2982 680 96 300 000/00 RMK AO1 T01000094
54779K12N 12N20160514041009805/14/16 04:10:31  5-MIN K12N 140910Z AUTO 00000KT 10/09 A2982 680 96 300 000/00 RMK AO1 T01000094
54779K12N 12N20160514041509805/14/16 04:15:31  5-MIN K12N 140915Z AUTO 00000KT 10/09 A2981 680 96 300 000/00 RMK AO1 T01000094
54779K12N 12N20160514042009805/14/16 04:20:31  5-MIN K12N 140920Z AUTO 00000KT 10/09 A2981 680 96 300 000/00 RMK AO1 T01000094
54779K12N 12N20160514042509905/14/16 04:25:31  5-MIN K12N 140925Z AUTO 00000KT 09/09 A2981 680 100 200 000/00 RMK AO1 T00940094
54779K12N 12N20160514043009905/14/16 04:30:31  5-MIN K12N 140930Z AUTO 00000KT 09/09 A2982 680 100 200 000/00 RMK AO1 T00940094
54779K12N 12N20160514043509805/14/16 04:35:31  5-MIN K12N 140935Z AUTO 00000KT 09/09 A2981 680 96 200 000/00 RMK AO1 T00940089
54779K12N 12N20160514044009805/14/16 04:40:31  5-MIN K12N 140940Z AUTO 00000KT 09/09 A2981 690 96 200 000/00 RMK AO1 T00940089
54779K12N 12N20160514044509805/14/16 04:45:31  5-MIN K12N 140945Z AUTO 00000KT 09/09 A2981 690 96 200 000/00 RMK AO1 T00940089
54779K12N 12N20160514045010505/14/16 04:50:31  5-MIN K12N 140950Z AUTO 00000KT 09/09 A2981 690 96 200 000/00 RMK AO1 SLP094 T00940089
54779K12N 12N20160514045509805/14/16 04:55:31  5-MIN K12N 140955Z AUTO 00000KT 09/09 A2981 690 96 200 000/00 RMK AO1 T00940089
54779K12N 12N20160514050009805/14/16 05:00:31  5-MIN K12N 141000Z AUTO 00000KT 09/09 A2981 690 96 200 000/00 RMK AO1 T00940089
54779K12N 12N20160514050509805/14/16 05:05:31  5-MIN K12N 141005Z AUTO 00000KT 09/09 A2981 690 96 200 000/00 RMK AO1 T00940089
54779K12N 12N20160514051009805/14/16 05:10:31  5-MIN K12N 141010Z AUTO 00000KT 09/09 A2981 690 96 200 000/00 RMK AO1 T00940089
54779K12N 12N20160514051509805/14/16 05:15:31  5-MIN K12N 141015Z AUTO 00000KT 09/09 A2981 690 96 200 000/00 RMK AO1 T00940089
54779K12N 12N20160514052009805/14/16 05:20:31  5-MIN K12N 141020Z AUTO 00000KT 09/09 A2981 690 96 200 000/00 RMK AO1 T00940089
54779K12N 12N20160514052509805/14/16 05:25:31  5-MIN K12N 141025Z AUTO 00000KT 09/09 A2981 690 96 200 000/00 RMK AO1 T00940089
54779K12N 12N20160514053009805/14/16 05:30:31  5-MIN K12N 141030Z AUTO 00000KT 09/09 A2981 690 96 200 000/00 RMK AO1 T00940089
54779K12N 12N20160514053509805/14/16 05:35:31  5-MIN K12N 141035Z AUTO 00000KT 09/09 A2981 690 96 200 000/00 RMK AO1 T00940089
54779K12N 12N20160514054009805/14/16 05:40:31  5-MIN K12N 141040Z AUTO 00000KT 09/09 A2981 690 96 200 000/00 RMK AO1 T00940089
54779K12N 12N20160514054509805/14/16 05:45:31  5-MIN K12N 141045Z AUTO 00000KT 09/09 A2981 680 96 200 000/00 RMK AO1 T00940089
54779K12N 12N20160514055010605/14/16 05:50:31  5-MIN K12N 141050Z AUTO 00000KT 09/09 A2982 680 100 200 000/00 RMK AO1 SLP095 T00940094
54779K12N 12N20160514055509905/14/16 05:55:31  5-MIN K12N 141055Z AUTO 00000KT 09/09 A2981 680 100 200 000/00 RMK AO1 T00940094
54779K12N 12N20160514060009905/14/16 06:00:31  5-MIN K12N 141100Z AUTO 00000KT 09/09 A2981 680 100 200 000/00 RMK AO1 T00940094
54779K12N 12N20160514060509905/14/16 06:05:31  5-MIN K12N 141105Z AUTO 00000KT 10/10 A2981 680 100 300 000/00 RMK AO1 T01000100
54779K12N 12N20160514061009905/14/16 06:10:31  5-MIN K12N 141110Z AUTO 00000KT 10/10 A2981 690 100 300 000/00 RMK AO1 T01000100
54779K12N 12N20160514061509805/14/16 06:15:31  5-MIN K12N 141115Z AUTO 00000KT 11/10 A2981 690 96 400 000/00 RMK AO1 T01060100
54779K12N 12N20160514062009805/14/16 06:20:31  5-MIN K12N 141120Z AUTO 00000KT 11/10 A2981 690 96 400 000/00 RMK AO1 T01060100
54779K12N 12N20160514062509905/14/16 06:25:31  5-MIN K12N 141125Z AUTO 00000KT 11/11 A2981 690 100 400 000/00 RMK AO1 T01060106
54779K12N 12N20160514063009905/14/16 06:30:31  5-MIN K12N 141130Z AUTO 00000KT 11/11 A2981 690 100 400 000/00 RMK AO1 T01110111
54779K12N 12N20160514063509905/14/16 06:35:31  5-MIN K12N 141135Z AUTO 00000KT 11/11 A2981 690 100 400 000/00 RMK AO1 T01110111
54779K12N 12N20160514064009805/14/16 06:40:31  5-MIN K12N 141140Z AUTO 00000KT 12/11 A2981 690 96 500 000/00 RMK AO1 T01170111
54779K12N 12N20160514064509805/14/16 06:45:31  5-MIN K12N 141145Z AUTO 00000KT 12/12 A2981 690 96 600 000/00 RMK AO1 T01220117
54779K12N 12N20160514065012305/14/16 06:50:31  5-MIN K12N 141150Z AUTO 00000KT 12/12 A2980 690 96 600 000/00 RMK AO1 SLP091 70036 T01220117 10122 20089
54779K12N 12N20160514065509805/14/16 06:55:31  5-MIN K12N 141155Z AUTO 00000KT 13/12 A2980 690 93 600 000/00 RMK AO1 T01280117
54779K12N 12N20160514070009805/14/16 07:00:31  5-MIN K12N 141200Z AUTO 00000KT 13/12 A2980 700 93 700 000/00 RMK AO1 T01330122
54779K12N 12N20160514070509805/14/16 07:05:31  5-MIN K12N 141205Z AUTO 00000KT 13/13 A2980 700 96 700 000/00 RMK AO1 T01330128
54779K12N 12N20160514071009805/14/16 07:10:31  5-MIN K12N 141210Z AUTO 00000KT 14/13 A2980 700 93 800 000/00 RMK AO1 T01390128
54779K12N 12N20160514071509805/14/16 07:15:31  5-MIN K12N 141215Z AUTO 00000KT 14/13 A2980 700 90 800 000/00 RMK AO1 T01440128
54779K12N 12N20160514072009805/14/16 07:20:31  5-MIN K12N 141220Z AUTO 00000KT 14/13 A2979 710 90 800 000/00 RMK AO1 T01440128
54779K12N 12N20160514072509805/14/16 07:25:31  5-MIN K12N 141225Z AUTO 00000KT 15/13 A2979 710 86 900 000/00 RMK AO1 T01500128
54779K12N 12N20160514073009805/14/16 07:30:31  5-MIN K12N 141230Z AUTO 00000KT 14/12 A2979 710 86 800 000/00 RMK AO1 T01440122
54779K12N 12N20160514073509805/14/16 07:35:31  5-MIN K12N 141235Z AUTO 00000KT 15/12 A2979 710 83 900 000/00 RMK AO1 T01500122
54779K12N 12N20160514074009905/14/16 07:40:31  5-MIN K12N 141240Z AUTO 00000KT 16/12 A2979 710 80 1000 000/00 RMK AO1 T01560122
54779K12N 12N20160514074509905/14/16 07:45:31  5-MIN K12N 141245Z AUTO 00000KT 16/12 A2978 710 80 1000 000/00 RMK AO1 T01560122
54779K12N 12N20160514075010605/14/16 07:50:31  5-MIN K12N 141250Z AUTO 00000KT 16/12 A2979 710 77 1000 000/00 RMK AO1 SLP084 T01610122
54779K12N 12N20160514075509905/14/16 07:55:31  5-MIN K12N 141255Z AUTO 00000KT 16/12 A2979 710 77 1000 000/00 RMK AO1 T01610122
54779K12N 12N20160514080009905/14/16 08:00:31  5-MIN K12N 141300Z AUTO 00000KT 17/12 A2978 710 72 1100 000/00 RMK AO1 T01670117
54779K12N 12N20160514080509905/14/16 08:05:31  5-MIN K12N 141305Z AUTO 00000KT 17/12 A2978 710 72 1100 000/00 RMK AO1 T01670117
54779K12N 12N20160514081009905/14/16 08:10:31  5-MIN K12N 141310Z AUTO 00000KT 17/11 A2978 710 69 1100 000/00 RMK AO1 T01670111
54779K12N 12N20160514081509905/14/16 08:15:31  5-MIN K12N 141315Z AUTO 00000KT 17/12 A2978 710 69 1200 000/00 RMK AO1 T01720117
54779K12N 12N20160514082009905/14/16 08:20:31  5-MIN K12N 141320Z AUTO 00000KT 17/11 A2978 720 67 1200 000/00 RMK AO1 T01720111
54779K12N 12N20160514082509905/14/16 08:25:31  5-MIN K12N 141325Z AUTO VRB03KT 18/12 A2978 720 67 1300 VRB/03 RMK AO1 T01780117
54779K12N 12N20160514083009905/14/16 08:30:31  5-MIN K12N 141330Z AUTO 00000KT 18/11 A2977 720 64 1300 000/00 RMK AO1 T01780111
54779K12N 12N20160514083509905/14/16 08:35:31  5-MIN K12N 141335Z AUTO 00000KT 18/11 A2977 730 64 1300 000/00 RMK AO1 T01780111
54779K12N 12N20160514084009905/14/16 08:40:31  5-MIN K12N 141340Z AUTO 00000KT 18/11 A2976 730 62 1300 000/00 RMK AO1 T01830111
54779K12N 12N20160514084509905/14/16 08:45:31  5-MIN K12N 141345Z AUTO 00000KT 18/10 A2976 730 58 1300 000/00 RMK AO1 T01830100
54779K12N 12N20160514085010605/14/16 08:50:31  5-MIN K12N 141350Z AUTO 00000KT 18/09 A2976 730 56 1300 000/00 RMK AO1 SLP075 T01830094
54779K12N 12N20160514085509905/14/16 08:55:31  5-MIN K12N 141355Z AUTO 22003KT 19/09 A2976 730 54 1400 230/03 RMK AO1 T01890094
54779K12N 12N20160514090009905/14/16 09:00:31  5-MIN K12N 141400Z AUTO 20003KT 18/08 A2976 730 52 1300 210/03 RMK AO1 T01830083
54779K12N 12N20160514090509905/14/16 09:05:31  5-MIN K12N 141405Z AUTO 00000KT 19/10 A2976 740 56 1400 000/00 RMK AO1 T01890100
54779K12N 12N20160514091009905/14/16 09:10:31  5-MIN K12N 141410Z AUTO 00000KT 19/09 A2976 730 52 1500 000/00 RMK AO1 T01940094
54779K12N 12N20160514091509905/14/16 09:15:31  5-MIN K12N 141415Z AUTO 00000KT 20/10 A2976 740 52 1500 000/00 RMK AO1 T02000100
54779K12N 12N20160514092009905/14/16 09:20:31  5-MIN K12N 141420Z AUTO 12004KT 19/11 A2976 740 56 1500 140/04 RMK AO1 T01940106
54779K12N 12N20160514092509905/14/16 09:25:31  5-MIN K12N 141425Z AUTO 11003KT 19/09 A2975 740 54 1400 130/03 RMK AO1 T01890094
54779K12N 12N20160514093009905/14/16 09:30:31  5-MIN K12N 141430Z AUTO 00000KT 19/09 A2975 740 52 1500 000/00 RMK AO1 T01940094
54779K12N 12N20160514093509905/14/16 09:35:31  5-MIN K12N 141435Z AUTO 00000KT 19/10 A2975 740 54 1500 000/00 RMK AO1 T01940100
54779K12N 12N20160514094009905/14/16 09:40:31  5-MIN K12N 141440Z AUTO VRB03KT 19/09 A2975 750 52 1500 VRB/03 RMK AO1 T01940094
54779K12N 12N20160514094509905/14/16 09:45:31  5-MIN K12N 141445Z AUTO VRB03KT 19/10 A2974 750 54 1500 VRB/03 RMK AO1 T01940100
54779K12N 12N20160514095011205/14/16 09:50:31  5-MIN K12N 141450Z AUTO VRB03KT 20/10 A2974 750 52 1600 VRB/03 RMK AO1 SLP066 T02000100 57006
54779K12N 12N20160514095509905/14/16 09:55:31  5-MIN K12N 141455Z AUTO 21005KT 20/10 A2974 760 52 1600 220/05 RMK AO1 T02000100
54779K12N 12N20160514100009905/14/16 10:00:31  5-MIN K12N 141500Z AUTO 21006KT 20/09 A2974 760 50 1600 230/06 RMK AO1 T02000094
54779K12N 12N20160514100510505/14/16 10:05:31  5-MIN K12N 141505Z AUTO VRB05G15KT 20/08 A2973 760 46 1600 VRB/05G15 RMK AO1 T02000083
54779K12N 12N20160514101012105/14/16 10:10:31  5-MIN K12N 141510Z AUTO 20007G15KT 150V240 21/08 A2973 760 45 1600 210/07G15 160V250 RMK AO1 T02060083
54779K12N 12N20160514101509905/14/16 10:15:31  5-MIN K12N 141515Z AUTO VRB05KT 21/09 A2974 760 46 1600 VRB/05 RMK AO1 T02060089
54779K12N 12N20160514102009905/14/16 10:20:31  5-MIN K12N 141520Z AUTO 22010KT 20/09 A2973 760 50 1600 230/10 RMK AO1 T02000094
54779K12N 12N20160514102509905/14/16 10:25:31  5-MIN K12N 141525Z AUTO 22009KT 20/10 A2973 760 52 1600 240/09 RMK AO1 T02000100
54779K12N 12N20160514103009905/14/16 10:30:31  5-MIN K12N 141530Z AUTO 19007KT 21/10 A2973 760 50 1600 200/07 RMK AO1 T02060100
54779K12N 12N20160514103508905/14/16 10:35:31  5-MIN K12N 141535Z AUTO 21/11 A2973 760 52 1600 M /M RMK AO1 T02060106
54779K12N 12N20160514104009905/14/16 10:40:31  5-MIN K12N 141540Z AUTO VRB06KT 21/10 A2973 760 50 1600 VRB/06 RMK AO1 T02060100
54779K12N 12N20160514104509905/14/16 10:45:31  5-MIN K12N 141545Z AUTO VRB06KT 20/11 A2973 760 54 1600 VRB/06 RMK AO1 T02000106
54779K12N 12N20160514105010605/14/16 10:50:31  5-MIN K12N 141550Z AUTO VRB05KT 21/10 A2973 760 50 1600 VRB/05 RMK AO1 SLP062 T02060100
54779K12N 12N20160514105509905/14/16 10:55:31  5-MIN K12N 141555Z AUTO 23005KT 21/11 A2972 770 50 1700 240/05 RMK AO1 T02110106
54779K12N 12N20160514110012105/14/16 11:00:31  5-MIN K12N 141600Z AUTO 20007G15KT 140V240 21/11 A2972 770 52 1600 210/07G15 150V250 RMK AO1 T02060106
54779K12N 12N20160514110512105/14/16 11:05:31  5-MIN K12N 141605Z AUTO 18007G16KT 140V230 21/10 A2972 770 50 1600 200/07G16 150V240 RMK AO1 T02060100
54779K12N 12N20160514111012105/14/16 11:10:31  5-MIN K12N 141610Z AUTO 20008G16KT 130V240 21/09 A2971 780 48 1600 210/08G16 140V250 RMK AO1 T02060094
54779K12N 12N20160514111510505/14/16 11:15:31  5-MIN K12N 141615Z AUTO 21009G20KT 21/10 A2971 780 50 1600 220/09G20 RMK AO1 T02060100
54779K12N 12N20160514112012105/14/16 11:20:31  5-MIN K12N 141620Z AUTO 21008G20KT 160V230 20/11 A2971 780 54 1600 220/08G20 170V240 RMK AO1 T02000106
54779K12N 12N20160514211509805/14/16 21:15:31  5-MIN K12N 150215Z AUTO 00000KT 12/07 A2969 800 68 700 000/00 RMK AO1 T01220067
54779K12N 12N20160514212009805/14/16 21:20:31  5-MIN K12N 150220Z AUTO 00000KT 12/07 A2969 800 68 700 000/00 RMK AO1 T01220067
54779K12N 12N20160514212509805/14/16 21:25:31  5-MIN K12N 150225Z AUTO 00000KT 12/07 A2969 800 68 700 000/00 RMK AO1 T01220067
54779K12N 12N20160514213009805/14/16 21:30:31  5-MIN K12N 150230Z AUTO 00000KT 12/07 A2969 800 71 700 000/00 RMK AO1 T01220072
54779K12N 12N20160514213509805/14/16 21:35:31  5-MIN K12N 150235Z AUTO 00000KT 12/07 A2969 800 74 600 000/00 RMK AO1 T01170072
54779K12N 12N20160514214009805/14/16 21:40:31  5-MIN K12N 150240Z AUTO 00000KT 12/07 A2969 800 68 700 000/00 RMK AO1 T01220067
54779K12N 12N20160514214509805/14/16 21:45:31  5-MIN K12N 150245Z AUTO 00000KT 12/07 A2969 800 68 700 000/00 RMK AO1 T01220067
54779K12N 12N20160514215011105/14/16 21:50:31  5-MIN K12N 150250Z AUTO 00000KT 12/07 A2969 790 74 600 000/00 RMK AO1 SLP052 T01170072 51005
54779K12N 12N20160514215509805/14/16 21:55:31  5-MIN K12N 150255Z AUTO 00000KT 12/07 A2969 800 71 600 000/00 RMK AO1 T01170067
54779K12N 12N20160514220009805/14/16 22:00:31  5-MIN K12N 150300Z AUTO 00000KT 12/07 A2970 790 71 600 000/00 RMK AO1 T01170067
54779K12N 12N20160514220509805/14/16 22:05:31  5-MIN K12N 150305Z AUTO VRB03KT 12/07 A2970 790 71 600 VRB/03 RMK AO1 T01170067
54779K12N 12N20160514221011405/14/16 22:10:31  5-MIN K12N 150310Z AUTO 31007KT 280V350 12/07 A2969 800 71 600 320/07 290V360 RMK AO1 T01170067
54779K12N 12N20160514221509805/14/16 22:15:31  5-MIN K12N 150315Z AUTO VRB05KT 12/06 A2970 790 68 600 VRB/05 RMK AO1 T01170061
54779K12N 12N20160514222009805/14/16 22:20:31  5-MIN K12N 150320Z AUTO VRB06KT 12/06 A2970 790 66 700 VRB/06 RMK AO1 T01220061
54779K12N 12N20160514222509805/14/16 22:25:31  5-MIN K12N 150325Z AUTO VRB06KT 12/06 A2969 790 66 700 VRB/06 RMK AO1 T01220061
54779K12N 12N20160514223009805/14/16 22:30:31  5-MIN K12N 150330Z AUTO VRB05KT 12/06 A2969 800 63 700 VRB/05 RMK AO1 T01220056
54779K12N 12N20160514223510405/14/16 22:35:31  5-MIN K12N 150335Z AUTO VRB05G15KT 12/06 A2969 800 66 600 VRB/05G15 RMK AO1 T01170056
54779K12N 12N20160514224010405/14/16 22:40:31  5-MIN K12N 150340Z AUTO VRB03G15KT 12/06 A2969 800 66 600 VRB/03G15 RMK AO1 T01170056
54779K12N 12N20160514224509805/14/16 22:45:31  5-MIN K12N 150345Z AUTO VRB06KT 12/06 A2969 800 66 600 VRB/06 RMK AO1 T01170056
54779K12N 12N20160514225010505/14/16 22:50:31  5-MIN K12N 150350Z AUTO 32009KT 12/05 A2969 800 63 600 330/09 RMK AO1 SLP051 T01170050
54779K12N 12N20160514225509805/14/16 22:55:31  5-MIN K12N 150355Z AUTO VRB04KT 12/05 A2969 800 63 600 VRB/04 RMK AO1 T01170050
54779K12N 12N20160514230009805/14/16 23:00:31  5-MIN K12N 150400Z AUTO 35006KT 11/05 A2969 800 66 600 360/06 RMK AO1 T01110050
54779K12N 12N20160514230509805/14/16 23:05:31  5-MIN K12N 150405Z AUTO VRB05KT 11/04 A2969 800 63 600 VRB/05 RMK AO1 T01110044
54779K12N 12N20160514231009805/14/16 23:10:31  5-MIN K12N 150410Z AUTO VRB05KT 11/04 A2969 800 63 600 VRB/05 RMK AO1 T01110044
54779K12N 12N20160514231509805/14/16 23:15:31  5-MIN K12N 150415Z AUTO 36004KT 11/04 A2970 790 63 600 010/04 RMK AO1 T01110044
54779K12N 12N20160514232009805/14/16 23:20:31  5-MIN K12N 150420Z AUTO 35004KT 11/05 A2970 790 68 500 360/04 RMK AO1 T01060050
54779K12N 12N20160514232509805/14/16 23:25:31  5-MIN K12N 150425Z AUTO VRB06KT 11/04 A2970 790 66 500 VRB/06 RMK AO1 T01060044
54779K12N 12N20160514233009805/14/16 23:30:31  5-MIN K12N 150430Z AUTO 00000KT 11/04 A2970 790 63 500 000/00 RMK AO1 T01060039
54779K12N 12N20160514233509805/14/16 23:35:31  5-MIN K12N 150435Z AUTO VRB04KT 11/04 A2971 780 66 500 VRB/04 RMK AO1 T01060044
54779K12N 12N20160514234011405/14/16 23:40:31  5-MIN K12N 150440Z AUTO 34008KT 280V010 11/03 A2971 780 61 500 350/08 290V020 RMK AO1 T01060033
54779K12N 12N20160514234509805/14/16 23:45:31  5-MIN K12N 150445Z AUTO VRB05KT 10/03 A2971 780 60 400 VRB/05 RMK AO1 T01000028
54779K12N 12N20160514235011505/14/16 23:50:31  5-MIN K12N 150450Z AUTO VRB05KT 10/03 A2971 780 60 400 VRB/05 RMK AO1 SLP059 T01000028 402280089
54779K12N 12N20160514235509805/14/16 23:55:31  5-MIN K12N 150455Z AUTO VRB03KT 10/03 A2971 780 60 400 VRB/03 RMK AO1 T01000028
54779K12N 12N20160515000009805/15/16 00:00:31  5-MIN K12N 150500Z AUTO VRB03KT 10/03 A2971 780 60 400 VRB/03 RMK AO1 T01000028
54779K12N 12N20160515000509805/15/16 00:05:31  5-MIN K12N 150505Z AUTO VRB06KT 10/02 A2972 770 58 400 VRB/06 RMK AO1 T01000022
54779K12N 12N20160515001009805/15/16 00:10:31  5-MIN K12N 150510Z AUTO VRB05KT 10/02 A2972 770 58 400 VRB/05 RMK AO1 T01000022
54779K12N 12N20160515001511405/15/16 00:15:31  5-MIN K12N 150515Z AUTO 31007KT 260V340 09/02 A2972 780 60 300 320/07 270V350 RMK AO1 T00940022
54779K12N 12N20160515002012005/15/16 00:20:31  5-MIN K12N 150520Z AUTO 34008G15KT 300V010 09/02 A2971 780 58 300 350/08G15 310V020 RMK AO1 T00940017
54779K12N 12N20160515002510405/15/16 00:25:31  5-MIN K12N 150525Z AUTO VRB05G15KT 09/02 A2971 780 60 300 VRB/05G15 RMK AO1 T00890017
54779K12N 12N20160515003009805/15/16 00:30:31  5-MIN K12N 150530Z AUTO VRB05KT 09/02 A2971 780 60 300 VRB/05 RMK AO1 T00890017
54779K12N 12N20160515003509805/15/16 00:35:31  5-MIN K12N 150535Z AUTO VRB04KT 09/02 A2971 780 60 300 VRB/04 RMK AO1 T00890017
54779K12N 12N20160515004009805/15/16 00:40:31  5-MIN K12N 150540Z AUTO VRB04KT 09/02 A2971 780 60 300 VRB/04 RMK AO1 T00890017
54779K12N 12N20160515004509805/15/16 00:45:31  5-MIN K12N 150545Z AUTO VRB04KT 08/02 A2971 780 63 200 VRB/04 RMK AO1 T00830017
54779K12N 12N20160515005012305/15/16 00:50:31  5-MIN K12N 150550Z AUTO 00000KT 08/02 A2970 790 63 200 000/00 RMK AO1 SLP057 T00830017 10133 20083 50018
54779K12N 12N20160515005509805/15/16 00:55:31  5-MIN K12N 150555Z AUTO VRB04KT 08/02 A2971 780 63 200 VRB/04 RMK AO1 T00830017
54779K12N 12N20160515010009805/15/16 01:00:31  5-MIN K12N 150600Z AUTO VRB05KT 08/02 A2971 780 63 200 VRB/05 RMK AO1 T00830017
54779K12N 12N20160515010509805/15/16 01:05:31  5-MIN K12N 150605Z AUTO VRB03KT 08/02 A2971 780 63 200 VRB/03 RMK AO1 T00830017
54779K12N 12N20160515011009805/15/16 01:10:31  5-MIN K12N 150610Z AUTO VRB04KT 08/01 A2971 780 60 200 VRB/04 RMK AO1 T00830011
54779K12N 12N20160515011509805/15/16 01:15:31  5-MIN K12N 150615Z AUTO VRB03KT 08/01 A2971 780 60 200 VRB/03 RMK AO1 T00830011
54779K12N 12N20160515012009805/15/16 01:20:31  5-MIN K12N 150620Z AUTO VRB05KT 08/01 A2971 780 62 100 VRB/05 RMK AO1 T00780011
54779K12N 12N20160515012509805/15/16 01:25:31  5-MIN K12N 150625Z AUTO VRB04KT 08/01 A2971 780 60 200 VRB/04 RMK AO1 T00830011
54779K12N 12N20160515013009805/15/16 01:30:31  5-MIN K12N 150630Z AUTO 00000KT 08/01 A2971 780 62 100 000/00 RMK AO1 T00780011
54779K12N 12N20160515013509805/15/16 01:35:31  5-MIN K12N 150635Z AUTO VRB05KT 08/01 A2972 770 62 100 VRB/05 RMK AO1 T00780011
54779K12N 12N20160515014009805/15/16 01:40:31  5-MIN K12N 150640Z AUTO VRB06KT 08/01 A2972 770 60 100 VRB/06 RMK AO1 T00780006
54779K12N 12N20160515014509805/15/16 01:45:31  5-MIN K12N 150645Z AUTO VRB03KT 08/01 A2972 770 60 100 VRB/03 RMK AO1 T00780006
54779K12N 12N20160515015010505/15/16 01:50:31  5-MIN K12N 150650Z AUTO VRB03KT 08/01 A2972 770 60 100 VRB/03 RMK AO1 SLP063 T00780006
54779K12N 12N20160515015508805/15/16 01:55:31  5-MIN K12N 150655Z AUTO 08/01 A2972 770 60 100 M /M RMK AO1 T00780006
54779K12N 12N20160515020009805/15/16 02:00:31  5-MIN K12N 150700Z AUTO VRB03KT 08/01 A2972 770 60 100 VRB/03 RMK AO1 T00780006
54779K12N 12N20160515020509805/15/16 02:05:31  5-MIN K12N 150705Z AUTO VRB04KT 08/01 A2973 770 60 100 VRB/04 RMK AO1 T00780006
54779K12N 12N20160515021009805/15/16 02:10:31  5-MIN K12N 150710Z AUTO VRB05KT 07/01 A2973 770 62 100 VRB/05 RMK AO1 T00720006
54779K12N 12N20160515021509805/15/16 02:15:31  5-MIN K12N 150715Z AUTO VRB03KT 07/01 A2973 770 62 100 VRB/03 RMK AO1 T00720006
54779K12N 12N20160515022009805/15/16 02:20:31  5-MIN K12N 150720Z AUTO VRB05KT 07/00 A2973 760 60 100 VRB/05 RMK AO1 T00720000
54779K12N 12N20160515022509805/15/16 02:25:31  5-MIN K12N 150725Z AUTO VRB03KT 07/00 A2973 760 60 100 VRB/03 RMK AO1 T00720000
54779K12N 12N20160515023009805/15/16 02:30:31  5-MIN K12N 150730Z AUTO 32006KT 07/00 A2973 770 60 100 330/06 RMK AO1 T00720000
54779K12N 12N20160515023509805/15/16 02:35:31  5-MIN K12N 150735Z AUTO VRB04KT 07/00 A2973 760 60 100 VRB/04 RMK AO1 T00720000
54779K12N 12N20160515024009605/15/16 02:40:31  5-MIN K12N 150740Z AUTO 00000KT 07/00 A2973 760 60 0 000/00 RMK AO1 T00720000
54779K12N 12N20160515024509605/15/16 02:45:31  5-MIN K12N 150745Z AUTO 00000KT 07/00 A2974 760 60 0 000/00 RMK AO1 T00720000
54779K12N 12N20160515025010305/15/16 02:50:31  5-MIN K12N 150750Z AUTO 00000KT 07/00 A2974 760 60 0 000/00 RMK AO1 SLP067 T00720000
54779K12N 12N20160515025509605/15/16 02:55:31  5-MIN K12N 150755Z AUTO 00000KT 07/00 A2974 760 60 0 000/00 RMK AO1 T00720000
54779K12N 12N20160515030009605/15/16 03:00:31  5-MIN K12N 150800Z AUTO 00000KT 07/00 A2974 750 60 0 000/00 RMK AO1 T00720000
54779K12N 12N20160515030509605/15/16 03:05:31  5-MIN K12N 150805Z AUTO 00000KT 07/00 A2974 760 62 0 000/00 RMK AO1 T00670000
54779K12N 12N20160515031009605/15/16 03:10:31  5-MIN K12N 150810Z AUTO 00000KT 07/00 A2974 750 62 0 000/00 RMK AO1 T00670000
54779K12N 12N20160515031509605/15/16 03:15:31  5-MIN K12N 150815Z AUTO 00000KT 06/01 A2974 750 67 0 000/00 RMK AO1 T00610006
54779K12N 12N20160515032009605/15/16 03:20:31  5-MIN K12N 150820Z AUTO 00000KT 07/01 A2974 750 65 0 000/00 RMK AO1 T00670006
54779K12N 12N20160515032509605/15/16 03:25:31  5-MIN K12N 150825Z AUTO 00000KT 06/01 A2974 750 67 0 000/00 RMK AO1 T00610006
54779K12N 12N20160515033009605/15/16 03:30:31  5-MIN K12N 150830Z AUTO 00000KT 06/01 A2973 760 67 0 000/00 RMK AO1 T00610006
54779K12N 12N20160515033509605/15/16 03:35:31  5-MIN K12N 150835Z AUTO 00000KT 06/00 A2973 760 65 0 000/00 RMK AO1 T00610000
54779K12N 12N20160515034009605/15/16 03:40:31  5-MIN K12N 150840Z AUTO 00000KT 06/01 A2973 760 67 0 000/00 RMK AO1 T00610006
54779K12N 12N20160515034509605/15/16 03:45:31  5-MIN K12N 150845Z AUTO 00000KT 06/01 A2974 760 67 0 000/00 RMK AO1 T00610006
54779K12N 12N20160515035010905/15/16 03:50:31  5-MIN K12N 150850Z AUTO 00000KT 06/01 A2974 750 67 0 000/00 RMK AO1 SLP069 T00610006 52006
54779K12N 12N20160515035509605/15/16 03:55:31  5-MIN K12N 150855Z AUTO 00000KT 06/01 A2974 750 67 0 000/00 RMK AO1 T00610006
54779K12N 12N20160515040009905/15/16 04:00:31  5-MIN K12N 150900Z AUTO 00000KT 06/01 A2974 750 70 -100 000/00 RMK AO1 T00560006
54779K12N 12N20160515040509905/15/16 04:05:31  5-MIN K12N 150905Z AUTO 00000KT 06/01 A2974 750 67 -100 000/00 RMK AO1 T00610006
54779K12N 12N20160515041009905/15/16 04:10:31  5-MIN K12N 150910Z AUTO 00000KT 06/01 A2975 750 67 -100 000/00 RMK AO1 T00610006
54779K12N 12N20160515041509905/15/16 04:15:31  5-MIN K12N 150915Z AUTO 00000KT 06/01 A2975 750 67 -100 000/00 RMK AO1 T00610006
54779K12N 12N20160515042009905/15/16 04:20:31  5-MIN K12N 150920Z AUTO 00000KT 06/01 A2975 740 67 -100 000/00 RMK AO1 T00610006
54779K12N 12N20160515042509905/15/16 04:25:31  5-MIN K12N 150925Z AUTO 00000KT 06/01 A2976 740 73 -100 000/00 RMK AO1 T00560011
54779K12N 12N20160515043009905/15/16 04:30:31  5-MIN K12N 150930Z AUTO 00000KT 06/01 A2976 730 73 -100 000/00 RMK AO1 T00560011
54779K12N 12N20160515043509905/15/16 04:35:31  5-MIN K12N 150935Z AUTO VRB03KT 06/01 A2977 730 73 -100 VRB/03 RMK AO1 T00560011
54779K12N 12N20160515044009905/15/16 04:40:31  5-MIN K12N 150940Z AUTO 18003KT 06/01 A2977 730 73 -200 190/03 RMK AO1 T00560011
54779K12N 12N20160515044509905/15/16 04:45:31  5-MIN K12N 150945Z AUTO 00000KT 06/01 A2977 720 73 -200 000/00 RMK AO1 T00560011
54779K12N 12N20160515045010605/15/16 04:50:31  5-MIN K12N 150950Z AUTO 00000KT 06/01 A2977 720 73 -200 000/00 RMK AO1 SLP083 T00560011
54779K12N 12N20160515045509905/15/16 04:55:31  5-MIN K12N 150955Z AUTO 00000KT 06/01 A2977 720 73 -200 000/00 RMK AO1 T00560011
54779K12N 12N20160515050009905/15/16 05:00:31  5-MIN K12N 151000Z AUTO 00000KT 06/01 A2977 720 70 -200 000/00 RMK AO1 T00560006
54779K12N 12N20160515050509905/15/16 05:05:31  5-MIN K12N 151005Z AUTO 00000KT 06/01 A2977 720 73 -200 000/00 RMK AO1 T00560011
54779K12N 12N20160515051009905/15/16 05:10:31  5-MIN K12N 151010Z AUTO VRB03KT 06/01 A2978 720 73 -200 VRB/03 RMK AO1 T00560011
54779K12N 12N20160515051509905/15/16 05:15:31  5-MIN K12N 151015Z AUTO 21004KT 06/01 A2978 710 70 -100 220/04 RMK AO1 T00610011
54779K12N 12N20160515052009905/15/16 05:20:31  5-MIN K12N 151020Z AUTO 00000KT 06/01 A2978 710 70 -100 000/00 RMK AO1 T00610011
54779K12N 12N20160515052509905/15/16 05:25:31  5-MIN K12N 151025Z AUTO VRB03KT 06/02 A2978 710 73 -100 VRB/03 RMK AO1 T00610017
54779K12N 12N20160515053009905/15/16 05:30:31  5-MIN K12N 151030Z AUTO VRB04KT 06/01 A2978 710 70 -100 VRB/04 RMK AO1 T00610011
54779K12N 12N20160515053509905/15/16 05:35:31  5-MIN K12N 151035Z AUTO VRB03KT 06/02 A2978 710 73 -100 VRB/03 RMK AO1 T00610017
54779K12N 12N20160515054009605/15/16 05:40:31  5-MIN K12N 151040Z AUTO VRB03KT 07/02 A2978 710 70 0 VRB/03 RMK AO1 T00670017
54779K12N 12N20160515054509605/15/16 05:45:31  5-MIN K12N 151045Z AUTO VRB04KT 07/02 A2978 710 70 0 VRB/04 RMK AO1 T00670017
54779K12N 12N20160515055010305/15/16 05:50:31  5-MIN K12N 151050Z AUTO VRB05KT 07/02 A2978 710 68 0 VRB/05 RMK AO1 SLP088 T00720017
54779K12N 12N20160515055509605/15/16 05:55:31  5-MIN K12N 151055Z AUTO VRB04KT 07/02 A2978 710 68 0 VRB/04 RMK AO1 T00720017
54779K12N 12N20160515060009605/15/16 06:00:31  5-MIN K12N 151100Z AUTO VRB06KT 07/02 A2978 710 68 0 VRB/06 RMK AO1 T00720017
54779K12N 12N20160515060511405/15/16 06:05:31  5-MIN K12N 151105Z AUTO 26007KT 200V280 08/02 A2979 710 65 100 270/07 210V290 RMK AO1 T00780017
54779K12N 12N20160515061009805/15/16 06:10:31  5-MIN K12N 151110Z AUTO VRB04KT 08/02 A2979 710 65 100 VRB/04 RMK AO1 T00780017
54779K12N 12N20160515061509805/15/16 06:15:31  5-MIN K12N 151115Z AUTO VRB06KT 08/02 A2979 710 65 100 VRB/06 RMK AO1 T00780017
54779K12N 12N20160515062009805/15/16 06:20:31  5-MIN K12N 151120Z AUTO VRB05KT 08/02 A2979 710 63 100 VRB/05 RMK AO1 T00830017
54779K12N 12N20160515062509805/15/16 06:25:31  5-MIN K12N 151125Z AUTO VRB06KT 08/02 A2979 710 63 100 VRB/06 RMK AO1 T00830017
54779K12N 12N20160515063008805/15/16 06:30:31  5-MIN K12N 151130Z AUTO 08/02 A2978 710 65 100 M /M RMK AO1 T00830022
54779K12N 12N20160515063509805/15/16 06:35:31  5-MIN K12N 151135Z AUTO 22006KT 08/02 A2979 710 65 100 230/06 RMK AO1 T00830022
54779K12N 12N20160515064009805/15/16 06:40:31  5-MIN K12N 151140Z AUTO VRB06KT 08/02 A2979 710 65 100 VRB/06 RMK AO1 T00830022
54779K12N 12N20160515064510405/15/16 06:45:31  5-MIN K12N 151145Z AUTO VRB04G14KT 09/02 A2979 710 63 200 VRB/04G14 RMK AO1 T00890022
54779K12N 12N20160515065013505/15/16 06:50:31  5-MIN K12N 151150Z AUTO VRB04G14KT 09/02 A2979 710 63 200 VRB/04G14 RMK AO1 SLP088 70006 T00890022 10089 20056 51010
54779K12N 12N20160515065509805/15/16 06:55:31  5-MIN K12N 151155Z AUTO VRB03KT 09/02 A2979 710 63 200 VRB/03 RMK AO1 T00890022
54779K12N 12N20160515070008805/15/16 07:00:31  5-MIN K12N 151200Z AUTO 09/02 A2979 710 60 200 M /M RMK AO1 T00890017
54779K12N 12N20160515070509805/15/16 07:05:31  5-MIN K12N 151205Z AUTO 00000KT 09/02 A2979 710 58 300 000/00 RMK AO1 T00940017
54779K12N 12N20160515071010405/15/16 07:10:31  5-MIN K12N 151210Z AUTO 27010G17KT 09/02 A2979 710 58 300 290/10G17 RMK AO1 T00940017
54779K12N 12N20160515071510405/15/16 07:15:31  5-MIN K12N 151215Z AUTO VRB05G17KT 09/02 A2979 710 58 300 VRB/05G17 RMK AO1 T00940017
54779K12N 12N20160515072009805/15/16 07:20:31  5-MIN K12N 151220Z AUTO VRB04KT 10/02 A2979 710 58 300 VRB/04 RMK AO1 T01000022
54779K12N 12N20160515072509805/15/16 07:25:31  5-MIN K12N 151225Z AUTO VRB06KT 10/02 A2979 710 58 300 VRB/06 RMK AO1 T01000022
54779K12N 12N20160515073009805/15/16 07:30:31  5-MIN K12N 151230Z AUTO VRB06KT 10/02 A2979 710 58 300 VRB/06 RMK AO1 T01000022
54779K12N 12N20160515073511405/15/16 07:35:31  5-MIN K12N 151235Z AUTO 30008KT 260V330 10/02 A2979 710 56 300 320/08 270V340 RMK AO1 T01000017
54779K12N 12N20160515074012005/15/16 07:40:31  5-MIN K12N 151240Z AUTO 27009G15KT 240V330 10/02 A2979 710 56 300 280/09G15 250V340 RMK AO1 T01000017
54779K12N 12N20160515074512005/15/16 07:45:31  5-MIN K12N 151245Z AUTO 30008G15KT 270V330 10/01 A2979 710 54 300 310/08G15 280V340 RMK AO1 T01000011
54779K12N 12N20160515075012105/15/16 07:50:31  5-MIN K12N 151250Z AUTO 30008KT 220V350 10/01 A2979 710 54 300 310/08 230V360 RMK AO1 SLP089 T01000011
54779K12N 12N20160515075510405/15/16 07:55:31  5-MIN K12N 151255Z AUTO VRB05G16KT 10/01 A2979 710 54 300 VRB/05G16 RMK AO1 T01000011
54779K12N 12N20160515080010405/15/16 08:00:31  5-MIN K12N 151300Z AUTO VRB05G16KT 11/01 A2979 710 52 400 VRB/05G16 RMK AO1 T01060011
54779K12N 12N20160515080509805/15/16 08:05:31  5-MIN K12N 151305Z AUTO VRB06KT 10/01 A2979 710 54 300 VRB/06 RMK AO1 T01000011
54779K12N 12N20160515081012005/15/16 08:10:31  5-MIN K12N 151310Z AUTO 32009G15KT 280V360 11/01 A2979 710 52 400 330/09G15 290V010 RMK AO1 T01060011
54779K12N 12N20160515081512005/15/16 08:15:31  5-MIN K12N 151315Z AUTO 32007G16KT 250V360 11/02 A2979 710 52 500 330/07G16 260V010 RMK AO1 T01110017
54779K12N 12N20160515082010405/15/16 08:20:31  5-MIN K12N 151320Z AUTO VRB05G16KT 11/02 A2979 710 52 500 VRB/05G16 RMK AO1 T01110017
54779K12N 12N20160515082508805/15/16 08:25:31  5-MIN K12N 151325Z AUTO 10/01 A2979 710 54 300 M /M RMK AO1 T01000011
54779K12N 12N20160515083009805/15/16 08:30:31  5-MIN K12N 151330Z AUTO VRB05KT 11/02 A2979 710 54 400 VRB/05 RMK AO1 T01060017
54779K12N 12N20160515083509805/15/16 08:35:31  5-MIN K12N 151335Z AUTO VRB05KT 10/01 A2979 710 54 300 VRB/05 RMK AO1 T01000011
54779K12N 12N20160515084009805/15/16 08:40:31  5-MIN K12N 151340Z AUTO VRB06KT 10/01 A2979 710 54 300 VRB/06 RMK AO1 T01000011
54779K12N 12N20160515084509805/15/16 08:45:31  5-MIN K12N 151345Z AUTO VRB06KT 11/02 A2978 710 52 500 VRB/06 RMK AO1 T01110017
54779K12N 12N20160515085010505/15/16 08:50:31  5-MIN K12N 151350Z AUTO VRB06KT 12/02 A2978 710 52 500 VRB/06 RMK AO1 SLP085 T01170022
54779K12N 12N20160515085509805/15/16 08:55:31  5-MIN K12N 151355Z AUTO VRB05KT 11/02 A2979 710 54 400 VRB/05 RMK AO1 T01060017
54779K12N 12N20160515090009805/15/16 09:00:31  5-MIN K12N 151400Z AUTO VRB05KT 11/01 A2978 710 52 400 VRB/05 RMK AO1 T01060011
54779K12N 12N20160515090512005/15/16 09:05:31  5-MIN K12N 151405Z AUTO 27010G16KT 210V350 11/01 A2979 710 52 400 280/10G16 220V360 RMK AO1 T01060011
54779K12N 12N20160515091012005/15/16 09:10:31  5-MIN K12N 151410Z AUTO 31010G18KT 250V350 09/01 A2980 700 56 200 320/10G18 260V360 RMK AO1 T00940011
54779K12N 12N20160515091512005/15/16 09:15:31  5-MIN K12N 151415Z AUTO 34007G18KT 260V020 08/01 A2980 700 60 100 350/07G18 270V030 RMK AO1 T00830011
54779K12N 12N20160515092010405/15/16 09:20:31  5-MIN K12N 151420Z AUTO 31010G18KT 08/02 A2980 700 63 100 330/10G18 RMK AO1 T00830017
54779K12N 12N20160515092510205/15/16 09:25:31  5-MIN K12N 151425Z AUTO VRB06G18KT 08/02 A2980 700 68 0 VRB/06G18 RMK AO1 T00780022
54779K12N 12N20160515093010205/15/16 09:30:31  5-MIN K12N 151430Z AUTO VRB03G14KT 08/02 A2980 700 68 0 VRB/03G14 RMK AO1 T00780022
54779K12N 12N20160515093509805/15/16 09:35:31  5-MIN K12N 151435Z AUTO VRB04KT 08/03 A2980 700 68 100 VRB/04 RMK AO1 T00830028
54779K12N 12N20160515094008805/15/16 09:40:31  5-MIN K12N 151440Z AUTO 08/03 A2980 700 68 100 M /M RMK AO1 T00830028
54779K12N 12N20160515094510405/15/16 09:45:31  5-MIN K12N 151445Z AUTO 31008G15KT 09/02 A2980 700 63 200 320/08G15 RMK AO1 T00890022
54779K12N 12N20160515095013305/15/16 09:50:31  5-MIN K12N 151450Z AUTO 31007G15KT 240V030 09/02 A2979 700 60 200 320/07G15 250V040 RMK AO1 SLP090 T00940022 51016
54779K12N 12N20160515095509805/15/16 09:55:31  5-MIN K12N 151455Z AUTO VRB04KT 10/02 A2979 710 58 300 VRB/04 RMK AO1 T01000022
54779K12N 12N20160515100012005/15/16 10:00:31  5-MIN K12N 151500Z AUTO 30009G17KT 260V340 10/02 A2979 710 58 300 310/09G17 270V350 RMK AO1 T01000022
54779K12N 12N20160515100510405/15/16 10:05:31  5-MIN K12N 151505Z AUTO VRB04G17KT 11/02 A2979 710 54 500 VRB/04G17 RMK AO1 T01110022
54779K12N 12N20160515101009805/15/16 10:10:31  5-MIN K12N 151510Z AUTO VRB06KT 11/02 A2978 710 54 500 VRB/06 RMK AO1 T01110022
54779K12N 12N20160515101512005/15/16 10:15:31  5-MIN K12N 151515Z AUTO 31008G14KT 290V010 12/02 A2978 710 50 500 330/08G14 300V020 RMK AO1 T01170017
54779K12N 12N20160515102010405/15/16 10:20:31  5-MIN K12N 151520Z AUTO VRB06G16KT 12/01 A2978 710 48 500 VRB/06G16 RMK AO1 T01170011
54779K12N 12N20160515102512005/15/16 10:25:31  5-MIN K12N 151525Z AUTO 26007G16KT 150V320 11/01 A2978 720 52 400 270/07G16 160V330 RMK AO1 T01060011
54779K12N 12N20160515103010405/15/16 10:30:31  5-MIN K12N 151530Z AUTO VRB06G16KT 11/00 A2978 710 48 400 VRB/06G16 RMK AO1 T01060000
54779K12N 12N20160515103510405/15/16 10:35:31  5-MIN K12N 151535Z AUTO VRB04G16KT 11/01 A2978 720 48 500 VRB/04G16 RMK AO1 T01110006
54779K12N 12N20160515104009805/15/16 10:40:31  5-MIN K12N 151540Z AUTO VRB04KT 11/01 A2978 710 48 500 VRB/04 RMK AO1 T01110006
54779K12N 12N20160515104509905/15/16 10:45:31  5-MIN K12N 151545Z AUTO VRB06KT 11/M01 A2978 720 44 500 VRB/06 RMK AO1 T01111006
54779K12N 12N20160515105010605/15/16 10:50:31  5-MIN K12N 151550Z AUTO 28005KT 12/M01 A2978 720 42 500 290/05 RMK AO1 SLP085 T01171006
54779K12N 12N20160515105508905/15/16 10:55:31  5-MIN K12N 151555Z AUTO 11/M02 A2978 720 42 400 M /M RMK AO1 T01061017
54779K12N 12N20160515110011505/15/16 11:00:31  5-MIN K12N 151600Z AUTO 33008KT 280V010 10/M02 A2978 720 42 300 340/08 290V020 RMK AO1 T01001022
54779K12N 12N20160515110509905/15/16 11:05:31  5-MIN K12N 151605Z AUTO VRB03KT 10/M02 A2978 710 44 300 VRB/03 RMK AO1 T01001017
54779K12N 12N20160515111008905/15/16 11:10:31  5-MIN K12N 151610Z AUTO 10/M01 A2978 710 46 300 M /M RMK AO1 T01001011
54779K12N 12N20160515111509905/15/16 11:15:31  5-MIN K12N 151615Z AUTO 34006KT 10/M01 A2978 710 46 300 360/06 RMK AO1 T01001011
54779K12N 12N20160515112012105/15/16 11:20:31  5-MIN K12N 151620Z AUTO 32010G22KT 270V010 10/M01 A2979 700 47 300 330/10G22 280V020 RMK AO1 T01001006
54779K12N 12N20160515112512105/15/16 11:25:31  5-MIN K12N 151625Z AUTO 35009G22KT 300V050 09/M01 A2979 700 51 200 360/09G22 310V060 RMK AO1 T00891006
54779K12N 12N20160515113012105/15/16 11:30:31  5-MIN K12N 151630Z AUTO 35008G21KT 300V020 09/M01 A2979 700 51 200 360/08G21 310V030 RMK AO1 T00891006
54779K12N 12N20160515113510405/15/16 11:35:31  5-MIN K12N 151635Z AUTO VRB05G17KT 09/00 A2980 700 53 200 VRB/05G17 RMK AO1 T00890000
54779K12N 12N20160515114011505/15/16 11:40:31  5-MIN K12N 151640Z AUTO 29007KT 220V350 09/M01 A2979 700 51 200 300/07 230V360 RMK AO1 T00891006
54779K12N 12N20160515114512105/15/16 11:45:31  5-MIN K12N 151645Z AUTO 30008G15KT 260V320 09/M01 A2980 700 47 200 310/08G15 270V330 RMK AO1 T00941011
54779K12N 12N20160515115011205/15/16 11:50:31  5-MIN K12N 151650Z AUTO VRB05G15KT 09/M01 A2980 700 47 200 VRB/05G15 RMK AO1 SLP092 T00941011
54779K12N 12N20160515115511505/15/16 11:55:31  5-MIN K12N 151655Z AUTO 30007KT 280V340 09/M02 A2980 700 47 200 320/07 290V350 RMK AO1 T00891017
54779K12N 12N20160515120009905/15/16 12:00:31  5-MIN K12N 151700Z AUTO VRB04KT 09/M01 A2979 700 47 200 VRB/04 RMK AO1 T00941011
54779K12N 12N20160515120509905/15/16 12:05:31  5-MIN K12N 151705Z AUTO VRB06KT 09/M02 A2979 700 45 200 VRB/06 RMK AO1 T00941017
54779K12N 12N20160515121009905/15/16 12:10:31  5-MIN K12N 151710Z AUTO 29007KT 09/M02 A2979 700 45 200 300/07 RMK AO1 T00941017
54779K12N 12N20160515121509905/15/16 12:15:31  5-MIN K12N 151715Z AUTO VRB06KT 09/M02 A2979 700 45 200 VRB/06 RMK AO1 T00941017
54779K12N 12N20160515122009905/15/16 12:20:31  5-MIN K12N 151720Z AUTO VRB03KT 10/M01 A2979 700 46 300 VRB/03 RMK AO1 T01001011
54779K12N 12N20160515122509905/15/16 12:25:31  5-MIN K12N 151725Z AUTO VRB06KT 10/M01 A2979 710 46 300 VRB/06 RMK AO1 T01001011
54779K12N 12N20160515123010505/15/16 12:30:31  5-MIN K12N 151730Z AUTO VRB06G18KT 10/M01 A2979 700 46 300 VRB/06G18 RMK AO1 T01001011
54779K12N 12N20160515123510505/15/16 12:35:31  5-MIN K12N 151735Z AUTO VRB06G18KT 10/M01 A2979 710 46 300 VRB/06G18 RMK AO1 T01001011
54779K12N 12N20160515124012105/15/16 12:40:31  5-MIN K12N 151740Z AUTO 24008G15KT 220V280 11/M01 A2979 710 46 400 260/08G15 230V290 RMK AO1 T01061006
54779K12N 12N20160515124510505/15/16 12:45:31  5-MIN K12N 151745Z AUTO VRB05G16KT 11/M01 A2979 710 44 400 VRB/05G16 RMK AO1 T01111006
54779K12N 12N20160515125013005/15/16 12:50:31  5-MIN K12N 151750Z AUTO 35009G16KT 11/M01 A2979 710 44 400 360/09G16 RMK AO1 SLP090 T01111006 10117 20078 51001
54779K12N 12N20160515125512105/15/16 12:55:31  5-MIN K12N 151755Z AUTO 33009G16KT 280V040 11/M01 A2979 710 46 400 340/09G16 290V050 RMK AO1 T01061006
54779K12N 12N20160515130009905/15/16 13:00:31  5-MIN K12N 151800Z AUTO VRB03KT 11/M01 A2978 710 46 400 VRB/03 RMK AO1 T01061006
54779K12N 12N20160515130508805/15/16 13:05:31  5-MIN K12N 151805Z AUTO 12/00 A2978 710 44 500 M /M RMK AO1 T01170000
54779K12N 12N20160515131011405/15/16 13:10:31  5-MIN K12N 151810Z AUTO 26007KT 210V340 12/00 A2978 710 44 500 270/07 220V350 RMK AO1 T01170000
54779K12N 12N20160515131512105/15/16 13:15:31  5-MIN K12N 151815Z AUTO 30007G18KT 260V330 11/M02 A2979 710 42 400 310/07G18 270V340 RMK AO1 T01061017
54779K12N 12N20160515132012105/15/16 13:20:31  5-MIN K12N 151820Z AUTO 27010G18KT 210V320 11/M02 A2979 710 42 400 280/10G18 220V330 RMK AO1 T01061017
54779K12N 12N20160515132512105/15/16 13:25:31  5-MIN K12N 151825Z AUTO 28010G17KT 240V310 11/M03 A2978 710 37 400 290/10G17 250V320 RMK AO1 T01061033
54779K12N 12N20160515133012105/15/16 13:30:31  5-MIN K12N 151830Z AUTO 24007G17KT 200V310 11/M04 A2978 710 36 400 260/07G17 210V320 RMK AO1 T01061039
54779K12N 12N20160515133511505/15/16 13:35:31  5-MIN K12N 151835Z AUTO 26007KT 240V310 11/M04 A2978 710 34 500 280/07 250V320 RMK AO1 T01111039
54779K12N 12N20160515134010505/15/16 13:40:31  5-MIN K12N 151840Z AUTO VRB05G16KT 12/M04 A2978 720 33 500 VRB/05G16 RMK AO1 T01171039
54779K12N 12N20160515134508905/15/16 13:45:31  5-MIN K12N 151845Z AUTO 12/M03 A2978 710 35 500 M /M RMK AO1 T01171033
54779K12N 12N20160515135011205/15/16 13:50:31  5-MIN K12N 151850Z AUTO 22011G17KT 12/M04 A2978 710 33 500 240/11G17 RMK AO1 SLP087 T01171039
54779K12N 12N20160515135512105/15/16 13:55:31  5-MIN K12N 151855Z AUTO 27009G17KT 210V310 12/M04 A2978 710 32 500 280/09G17 220V320 RMK AO1 T01171044
54779K12N 12N20160515140010505/15/16 14:00:31  5-MIN K12N 151900Z AUTO VRB05G16KT 12/M04 A2979 710 32 500 VRB/05G16 RMK AO1 T01171044
54779K12N 12N20160515140508905/15/16 14:05:31  5-MIN K12N 151905Z AUTO 12/M04 A2978 710 33 500 M /M RMK AO1 T01171039
54779K12N 12N20160515141009905/15/16 14:10:31  5-MIN K12N 151910Z AUTO VRB06KT 12/M04 A2978 710 33 500 VRB/06 RMK AO1 T01171039
54779K12N 12N20160515141511505/15/16 14:15:31  5-MIN K12N 151915Z AUTO 25007KT 210V280 12/M03 A2979 710 35 500 260/07 220V290 RMK AO1 T01171033
54779K12N 12N20160515142009905/15/16 14:20:31  5-MIN K12N 151920Z AUTO 32008KT 11/M04 A2979 700 34 400 340/08 RMK AO1 T01111039
54779K12N 12N20160515142512105/15/16 14:25:31  5-MIN K12N 151925Z AUTO 32007G18KT 260V010 11/M03 A2980 700 37 400 340/07G18 270V020 RMK AO1 T01061033
54779K12N 12N20160515143008905/15/16 14:30:31  5-MIN K12N 151930Z AUTO 11/M02 A2980 700 39 400 M /M RMK AO1 T01111022
54779K12N 12N20160515143510505/15/16 14:35:31  5-MIN K12N 151935Z AUTO 33011G19KT 12/M03 A2980 700 36 500 350/11G19 RMK AO1 T01171028
54779K12N 12N20160515144012105/15/16 14:40:31  5-MIN K12N 151940Z AUTO 29011G19KT 210V330 12/M03 A2979 700 35 600 310/11G19 220V340 RMK AO1 T01221028
54779K12N 12N20160515144512105/15/16 14:45:31  5-MIN K12N 151945Z AUTO 31007G18KT 270V350 12/M04 A2979 710 32 600 330/07G18 280V360 RMK AO1 T01221039
54779K12N 12N20160515145009605/15/16 14:50:31  5-MIN K12N 151950Z AUTO 13/M04 A2979 700 31 600 M /M RMK AO1 SLP091 T01281039
54779K12N 12N20160515145510505/15/16 14:55:31  5-MIN K12N 151955Z AUTO VRB06G17KT 12/M04 A2980 700 32 500 VRB/06G17 RMK AO1 T01171044
54779K12N 12N20160515150010505/15/16 15:00:31  5-MIN K12N 152000Z AUTO VRB05G17KT 12/M04 A2980 700 33 500 VRB/05G17 RMK AO1 T01171039
54779K12N 12N20160515150510505/15/16 15:05:31  5-MIN K12N 152005Z AUTO VRB06G17KT 11/M04 A2980 700 34 400 VRB/06G17 RMK AO1 T01111039
54779K12N 12N20160515151010505/15/16 15:10:31  5-MIN K12N 152010Z AUTO VRB05G14KT 11/M03 A2980 700 36 400 VRB/05G14 RMK AO1 T01111033
54779K12N 12N20160515151511505/15/16 15:15:31  5-MIN K12N 152015Z AUTO 24007KT 210V300 12/M03 A2980 700 36 500 260/07 220V310 RMK AO1 T01171028
54779K12N 12N20160515152009905/15/16 15:20:31  5-MIN K12N 152020Z AUTO VRB06KT 11/M02 A2980 700 39 400 VRB/06 RMK AO1 T01111022
54779K12N 12N20160515152509905/15/16 15:25:31  5-MIN K12N 152025Z AUTO VRB06KT 11/M02 A2980 700 39 400 VRB/06 RMK AO1 T01111022
54779K12N 12N20160515153009905/15/16 15:30:31  5-MIN K12N 152030Z AUTO VRB05KT 11/M02 A2980 700 39 400 VRB/05 RMK AO1 T01111022
54779K12N 12N20160515153509905/15/16 15:35:31  5-MIN K12N 152035Z AUTO 22007KT 11/M02 A2980 700 41 400 230/07 RMK AO1 T01111017
54779K12N 12N20160515154012105/15/16 15:40:31  5-MIN K12N 152040Z AUTO 26009G19KT 220V330 11/M02 A2981 690 41 400 280/09G19 230V340 RMK AO1 T01111017
54779K12N 12N20160515154512105/15/16 15:45:31  5-MIN K12N 152045Z AUTO 25007G19KT 190V290 11/M02 A2981 690 40 400 260/07G19 200V300 RMK AO1 T01061022
54779K12N 12N20160515155013405/15/16 15:50:31  5-MIN K12N 152050Z AUTO 28011G19KT 240V310 11/M03 A2981 690 39 400 290/11G19 250V320 RMK AO1 SLP098 T01061028 56000
54779K12N 12N20160515155512105/15/16 15:55:31  5-MIN K12N 152055Z AUTO 23007G19KT 190V260 11/M03 A2981 690 37 400 240/07G19 200V270 RMK AO1 T01061033
54779K12N 12N20160515160010505/15/16 16:00:31  5-MIN K12N 152100Z AUTO VRB06G16KT 11/M02 A2981 680 40 400 VRB/06G16 RMK AO1 T01061022
54779K12N 12N20160515160511505/15/16 16:05:31  5-MIN K12N 152105Z AUTO 24007KT 210V300 11/M01 A2982 680 44 400 250/07 220V310 RMK AO1 T01061011
54779K12N 12N20160515161012105/15/16 16:10:31  5-MIN K12N 152110Z AUTO 25008G17KT 210V270 11/M01 A2982 680 46 300 260/08G17 220V280 RMK AO1 T01061006
54779K12N 12N20160515161512005/15/16 16:15:31  5-MIN K12N 152115Z AUTO 23007G17KT 190V290 11/00 A2982 680 48 300 250/07G17 200V300 RMK AO1 T01060000
54779K12N 12N20160515162012105/15/16 16:20:31  5-MIN K12N 152120Z AUTO 25007G17KT 220V290 11/M01 A2982 680 46 300 260/07G17 230V300 RMK AO1 T01061006
54779K12N 12N20160515162510505/15/16 16:25:31  5-MIN K12N 152125Z AUTO VRB06G17KT 11/M01 A2982 680 46 300 VRB/06G17 RMK AO1 T01061006
54779K12N 12N20160515163010405/15/16 16:30:31  5-MIN K12N 152130Z AUTO 23009G17KT 11/00 A2982 680 48 300 240/09G17 RMK AO1 T01060000
54779K12N 12N20160515163510405/15/16 16:35:31  5-MIN K12N 152135Z AUTO 24008G16KT 11/01 A2982 670 50 300 250/08G16 RMK AO1 T01060006
54779K12N 12N20160515164009805/15/16 16:40:31  5-MIN K12N 152140Z AUTO 24008KT 11/01 A2982 670 50 300 260/08 RMK AO1 T01060006
54779K12N 12N20160515164511405/15/16 16:45:31  5-MIN K12N 152145Z AUTO 23010KT 180V250 10/01 A2983 670 52 300 240/10 190V260 RMK AO1 T01000006
54779K12N 12N20160515165012105/15/16 16:50:31  5-MIN K12N 152150Z AUTO 23008KT 200V270 10/02 A2983 670 56 300 240/08 210V280 RMK AO1 SLP105 T01000017
54779K12N 12N20160515165512005/15/16 16:55:31  5-MIN K12N 152155Z AUTO 23008G16KT 190V270 09/01 A2983 670 56 200 250/08G16 200V280 RMK AO1 T00940011
54779K12N 12N20160515170010405/15/16 17:00:31  5-MIN K12N 152200Z AUTO 22010G17KT 09/01 A2983 670 58 100 230/10G17 RMK AO1 T00890011
54779K12N 12N20160515170510405/15/16 17:05:31  5-MIN K12N 152205Z AUTO 23010G16KT 09/01 A2984 660 58 100 240/10G16 RMK AO1 T00890011
54779K12N 12N20160515171012505/15/16 17:10:31  5-MIN K12N 152210Z AUTO 29012G23KT 200V360 08/02 A2987 630 63 0 310/12G23 210V010 RMK AO1 PRESRR T00830017
54779K12N 12N20160515171511105/15/16 17:15:31  5-MIN K12N 152215Z AUTO VRB05G23KT 05/02 A2987 630 79 -300 VRB/05G23 RMK AO1 P0005 T00500017
54779K12N 12N20160515172010505/15/16 17:20:31  5-MIN K12N 152220Z AUTO 00000KT 04/02 A2986 640 85 -400 000/00 RMK AO1 P0008 T00440022
54779K12N 12N20160515172510505/15/16 17:25:31  5-MIN K12N 152225Z AUTO 00000KT 05/02 A2986 640 82 -300 000/00 RMK AO1 P0008 T00500022
54779K12N 12N20160515173010505/15/16 17:30:31  5-MIN K12N 152230Z AUTO VRB03KT 05/03 A2986 640 85 -300 VRB/03 RMK AO1 P0008 T00500028
54779K12N 12N20160515173510505/15/16 17:35:31  5-MIN K12N 152235Z AUTO 18003KT 06/03 A2986 640 82 -300 200/03 RMK AO1 P0008 T00560028
54779K12N 12N20160515174010505/15/16 17:40:31  5-MIN K12N 152240Z AUTO VRB06KT 06/03 A2987 640 85 -300 VRB/06 RMK AO1 P0008 T00560033
54779K12N 12N20160515174510505/15/16 17:45:31  5-MIN K12N 152245Z AUTO VRB03KT 07/03 A2987 630 79 -100 VRB/03 RMK AO1 P0008 T00670033
54779K12N 12N20160515175011205/15/16 17:50:31  5-MIN K12N 152250Z AUTO VRB06KT 07/03 A2987 630 79 -100 VRB/06 RMK AO1 SLP120 P0008 T00670033
54779K12N 12N20160515175509905/15/16 17:55:31  5-MIN K12N 152255Z AUTO VRB04KT 07/02 A2987 630 73 -100 VRB/04 RMK AO1 T00670022
54779K12N 12N20160515180009905/15/16 18:00:31  5-MIN K12N 152300Z AUTO VRB05KT 07/02 A2987 630 73 -100 VRB/05 RMK AO1 T00670022
54779K12N 12N20160515180509905/15/16 18:05:31  5-MIN K12N 152305Z AUTO VRB04KT 07/02 A2987 630 68 -100 VRB/04 RMK AO1 T00720017
54779K12N 12N20160515181009905/15/16 18:10:31  5-MIN K12N 152310Z AUTO 22004KT 07/02 A2987 630 70 -100 230/04 RMK AO1 T00720022
54779K12N 12N20160515181509905/15/16 18:15:31  5-MIN K12N 152315Z AUTO 22004KT 07/02 A2987 630 68 -100 240/04 RMK AO1 T00720017
54779K12N 12N20160515182009905/15/16 18:20:31  5-MIN K12N 152320Z AUTO 20005KT 07/02 A2987 630 68 -100 210/05 RMK AO1 T00720017
54779K12N 12N20160515182509905/15/16 18:25:31  5-MIN K12N 152325Z AUTO VRB04KT 07/01 A2987 630 65 -100 VRB/04 RMK AO1 T00720011
54779K12N 12N20160515183009905/15/16 18:30:31  5-MIN K12N 152330Z AUTO VRB03KT 07/02 A2987 630 70 -100 VRB/03 RMK AO1 T00670017
54779K12N 12N20160515183509905/15/16 18:35:31  5-MIN K12N 152335Z AUTO VRB04KT 07/01 A2988 630 67 -100 VRB/04 RMK AO1 T00670011
54779K12N 12N20160515184009905/15/16 18:40:31  5-MIN K12N 152340Z AUTO 21005KT 07/02 A2988 620 70 -100 220/05 RMK AO1 T00670017
54779K12N 12N20160515184509905/15/16 18:45:31  5-MIN K12N 152345Z AUTO 23003KT 07/02 A2988 620 70 -100 240/03 RMK AO1 T00670017
54779K12N 12N20160515185013005/15/16 18:50:31  5-MIN K12N 152350Z AUTO VRB03KT 07/02 A2988 620 70 -100 VRB/03 RMK AO1 SLP123 60008 T00670017 10128 20044 53008
54779K12N 12N20160515185509905/15/16 18:55:31  5-MIN K12N 152355Z AUTO 23004KT 07/02 A2988 620 70 -100 240/04 RMK AO1 T00670017
54779K12N 12N20160515190009905/15/16 19:00:31  5-MIN K12N 160000Z AUTO 00000KT 07/02 A2989 610 70 -200 000/00 RMK AO1 T00670017
54779K12N 12N20160515190509905/15/16 19:05:31  5-MIN K12N 160005Z AUTO 20003KT 07/01 A2989 610 67 -200 220/03 RMK AO1 T00670011
54779K12N 12N20160515191009905/15/16 19:10:31  5-MIN K12N 160010Z AUTO VRB03KT 07/01 A2990 610 67 -200 VRB/03 RMK AO1 T00670011
54779K12N 12N20160515191509905/15/16 19:15:31  5-MIN K12N 160015Z AUTO 21003KT 07/02 A2990 610 70 -200 220/03 RMK AO1 T00670017
54779K12N 12N20160515192009905/15/16 19:20:31  5-MIN K12N 160020Z AUTO 21003KT 06/02 A2990 600 73 -200 220/03 RMK AO1 T00610017
54779K12N 12N20160515192509905/15/16 19:25:31  5-MIN K12N 160025Z AUTO 20003KT 07/02 A2990 600 70 -200 220/03 RMK AO1 T00670017
54779K12N 12N20160515193009905/15/16 19:30:31  5-MIN K12N 160030Z AUTO VRB03KT 07/02 A2991 600 70 -200 VRB/03 RMK AO1 T00670017
54779K12N 12N20160515193509905/15/16 19:35:31  5-MIN K12N 160035Z AUTO VRB05KT 07/01 A2991 590 67 -200 VRB/05 RMK AO1 T00670011
54779K12N 12N20160515194010605/15/16 19:40:31  5-MIN K12N 160040Z AUTO VRB06KT 07/01 A2992 580 62 -100 VRB/06 RMK AO1 PRESRR T00720006
54779K12N 12N20160515194512805/15/16 19:45:31  5-MIN K12N 160045Z AUTO 33008G19KT 270V030 07/00 A2993 580 62 -200 340/08G19 280V040 RMK AO1 PRESRR T00670000
54779K12N 12N20160515195011205/15/16 19:50:31  5-MIN K12N 160050Z AUTO VRB03G19KT 06/00 A2993 580 65 -300 VRB/03G19 RMK AO1 SLP138 T00610000
54779K12N 12N20160515195509905/15/16 19:55:31  5-MIN K12N 160055Z AUTO VRB04KT 06/00 A2993 580 65 -300 VRB/04 RMK AO1 T00610000
54779K12N 12N20160515200010005/15/16 20:00:31  5-MIN K12N 160100Z AUTO VRB05KT 06/M01 A2993 580 62 -300 VRB/05 RMK AO1 T00611006
54779K12N 12N20160515200509905/15/16 20:05:31  5-MIN K12N 160105Z AUTO 00000KT 06/00 A2993 570 67 -300 000/00 RMK AO1 T00560000
54779K12N 12N20160515201010005/15/16 20:10:31  5-MIN K12N 160110Z AUTO VRB04KT 06/M01 A2994 570 65 -300 VRB/04 RMK AO1 T00561006
54779K12N 12N20160515201510005/15/16 20:15:31  5-MIN K12N 160115Z AUTO 00000KT 06/M01 A2994 570 65 -300 000/00 RMK AO1 T00561006
54779K12N 12N20160515202010005/15/16 20:20:31  5-MIN K12N 160120Z AUTO 00000KT 06/M01 A2994 560 65 -400 000/00 RMK AO1 T00561006
54779K12N 12N20160515202510005/15/16 20:25:31  5-MIN K12N 160125Z AUTO 00000KT 06/M01 A2995 560 65 -400 000/00 RMK AO1 T00561006
54779K12N 12N20160515203010005/15/16 20:30:31  5-MIN K12N 160130Z AUTO VRB04KT 06/M01 A2995 560 65 -400 VRB/04 RMK AO1 T00561006
54779K12N 12N20160515203510005/15/16 20:35:31  5-MIN K12N 160135Z AUTO 00000KT 06/M01 A2995 560 65 -400 000/00 RMK AO1 T00561006
54779K12N 12N20160515204010005/15/16 20:40:31  5-MIN K12N 160140Z AUTO 00000KT 05/M01 A2995 550 67 -400 000/00 RMK AO1 T00501006
54779K12N 12N20160515204510005/15/16 20:45:31  5-MIN K12N 160145Z AUTO 00000KT 05/M01 A2995 550 67 -400 000/00 RMK AO1 T00501006
54779K12N 12N20160515205010705/15/16 20:50:31  5-MIN K12N 160150Z AUTO 00000KT 06/M01 A2996 550 62 -400 000/00 RMK AO1 SLP147 T00561011
54779K12N 12N20160515205510005/15/16 20:55:31  5-MIN K12N 160155Z AUTO VRB04KT 05/M01 A2996 550 64 -400 VRB/04 RMK AO1 T00501011
54779K12N 12N20160515210010005/15/16 21:00:31  5-MIN K12N 160200Z AUTO 00000KT 06/M01 A2996 550 62 -400 000/00 RMK AO1 T00561011
54779K12N 12N20160515210510005/15/16 21:05:31  5-MIN K12N 160205Z AUTO 00000KT 05/M01 A2996 540 64 -400 000/00 RMK AO1 T00501011
54779K12N 12N20160515211010005/15/16 21:10:31  5-MIN K12N 160210Z AUTO 21004KT 05/M01 A2997 540 64 -400 230/04 RMK AO1 T00501011
54779K12N 12N20160515211510005/15/16 21:15:31  5-MIN K12N 160215Z AUTO 00000KT 06/M01 A2997 540 62 -400 000/00 RMK AO1 T00561011
54779K12N 12N20160515212010005/15/16 21:20:31  5-MIN K12N 160220Z AUTO 00000KT 05/M01 A2997 540 67 -400 000/00 RMK AO1 T00501006
54779K12N 12N20160515212510005/15/16 21:25:31  5-MIN K12N 160225Z AUTO 00000KT 05/M01 A2997 540 67 -400 000/00 RMK AO1 T00501006
54779K12N 12N20160515213010005/15/16 21:30:31  5-MIN K12N 160230Z AUTO 00000KT 05/M01 A2997 540 67 -400 000/00 RMK AO1 T00501006
54779K12N 12N20160515213510005/15/16 21:35:31  5-MIN K12N 160235Z AUTO 22003KT 05/M01 A2997 540 67 -500 240/03 RMK AO1 T00501006
54779K12N 12N20160515214010005/15/16 21:40:31  5-MIN K12N 160240Z AUTO 25005KT 05/M01 A2997 540 67 -500 270/05 RMK AO1 T00501006
54779K12N 12N20160515214510005/15/16 21:45:31  5-MIN K12N 160245Z AUTO 22006KT 05/M01 A2997 530 67 -500 240/06 RMK AO1 T00501006
54779K12N 12N20160515215011205/15/16 21:50:31  5-MIN K12N 160250Z AUTO VRB03KT 04/00 A2998 530 76 -600 VRB/03 RMK AO1 SLP156 T00390000 51024
54779K12N 12N20160515215509905/15/16 21:55:31  5-MIN K12N 160255Z AUTO 21003KT 04/01 A2998 530 79 -600 220/03 RMK AO1 T00390006
54779K12N 12N20160515220009905/15/16 22:00:31  5-MIN K12N 160300Z AUTO 00000KT 04/01 A2998 530 79 -600 000/00 RMK AO1 T00390006
54779K12N 12N20160515220509905/15/16 22:05:31  5-MIN K12N 160305Z AUTO 00000KT 04/01 A2998 530 79 -600 000/00 RMK AO1 T00390006
54779K12N 12N20160515221009905/15/16 22:10:31  5-MIN K12N 160310Z AUTO VRB03KT 04/00 A2998 530 76 -600 VRB/03 RMK AO1 T00390000
54779K12N 12N20160515221510005/15/16 22:15:31  5-MIN K12N 160315Z AUTO VRB03KT 04/M01 A2998 530 67 -500 VRB/03 RMK AO1 T00441011
54779K12N 12N20160515222010005/15/16 22:20:31  5-MIN K12N 160320Z AUTO VRB03KT 04/M01 A2998 530 67 -500 VRB/03 RMK AO1 T00441011
54779K12N 12N20160515222510005/15/16 22:25:31  5-MIN K12N 160325Z AUTO VRB04KT 04/M01 A2998 530 67 -500 VRB/04 RMK AO1 T00441011
54779K12N 12N20160515223010005/15/16 22:30:31  5-MIN K12N 160330Z AUTO 00000KT 04/M02 A2998 530 64 -500 000/00 RMK AO1 T00441017
54779K12N 12N20160515223510005/15/16 22:35:31  5-MIN K12N 160335Z AUTO 00000KT 04/M02 A2998 530 64 -500 000/00 RMK AO1 T00441017
54779K12N 12N20160515224010005/15/16 22:40:31  5-MIN K12N 160340Z AUTO 00000KT 05/M02 A2998 530 59 -500 000/00 RMK AO1 T00501022
54779K12N 12N20160515224510005/15/16 22:45:31  5-MIN K12N 160345Z AUTO 00000KT 04/M02 A2998 530 62 -500 000/00 RMK AO1 T00441022
54779K12N 12N20160515225010705/15/16 22:50:31  5-MIN K12N 160350Z AUTO VRB03KT 04/M02 A2998 530 64 -600 VRB/03 RMK AO1 SLP157 T00391022
54779K12N 12N20160515225510005/15/16 22:55:31  5-MIN K12N 160355Z AUTO 00000KT 04/M02 A2998 530 62 -500 000/00 RMK AO1 T00441022
54779K12N 12N20160515230010005/15/16 23:00:31  5-MIN K12N 160400Z AUTO 00000KT 04/M02 A2998 530 62 -500 000/00 RMK AO1 T00441022
54779K12N 12N20160515230510005/15/16 23:05:31  5-MIN K12N 160405Z AUTO 00000KT 04/M02 A2998 530 62 -500 000/00 RMK AO1 T00441022
54779K12N 12N20160515231010005/15/16 23:10:31  5-MIN K12N 160410Z AUTO VRB04KT 04/M02 A2998 530 62 -500 VRB/04 RMK AO1 T00441022
54779K12N 12N20160515231510005/15/16 23:15:31  5-MIN K12N 160415Z AUTO 00000KT 04/M03 A2999 520 59 -500 000/00 RMK AO1 T00441028
54779K12N 12N20160515232010005/15/16 23:20:31  5-MIN K12N 160420Z AUTO 00000KT 04/M02 A2999 520 62 -500 000/00 RMK AO1 T00441022
54779K12N 12N20160515232510005/15/16 23:25:31  5-MIN K12N 160425Z AUTO 00000KT 04/M03 A2999 520 59 -500 000/00 RMK AO1 T00441028
54779K12N 12N20160515233010005/15/16 23:30:31  5-MIN K12N 160430Z AUTO VRB03KT 04/M02 A2999 520 64 -600 VRB/03 RMK AO1 T00391022
54779K12N 12N20160515233510005/15/16 23:35:31  5-MIN K12N 160435Z AUTO 00000KT 04/M03 A2999 520 62 -600 000/00 RMK AO1 T00391028
54779K12N 12N20160515234010005/15/16 23:40:31  5-MIN K12N 160440Z AUTO VRB03KT 04/M03 A2999 520 57 -500 VRB/03 RMK AO1 T00441033
54779K12N 12N20160515234510005/15/16 23:45:31  5-MIN K12N 160445Z AUTO 00000KT 04/M03 A3000 520 57 -500 000/00 RMK AO1 T00441033
54779K12N 12N20160515235011705/15/16 23:50:31  5-MIN K12N 160450Z AUTO 00000KT 04/M03 A3000 520 57 -500 000/00 RMK AO1 SLP162 T00441033 401280039
54779K12N 12N20160515235510005/15/16 23:55:31  5-MIN K12N 160455Z AUTO VRB03KT 04/M04 A3000 520 55 -500 VRB/03 RMK AO1 T00441039
54779K12N 12N20160516000010005/16/16 00:00:31  5-MIN K12N 160500Z AUTO VRB03KT 04/M04 A3000 520 55 -500 VRB/03 RMK AO1 T00441039
54779K12N 12N20160516000510005/16/16 00:05:31  5-MIN K12N 160505Z AUTO 00000KT 04/M03 A3000 520 59 -600 000/00 RMK AO1 T00391033
54779K12N 12N20160516001010005/16/16 00:10:31  5-MIN K12N 160510Z AUTO 00000KT 04/M03 A3000 520 59 -600 000/00 RMK AO1 T00391033
54779K12N 12N20160516001510005/16/16 00:15:31  5-MIN K12N 160515Z AUTO VRB04KT 04/M03 A3000 520 59 -600 VRB/04 RMK AO1 T00391033
54779K12N 12N20160516002010005/16/16 00:20:31  5-MIN K12N 160520Z AUTO 00000KT 04/M04 A3000 520 55 -500 000/00 RMK AO1 T00441039
54779K12N 12N20160516002510005/16/16 00:25:31  5-MIN K12N 160525Z AUTO 00000KT 04/M04 A3000 520 55 -500 000/00 RMK AO1 T00441039
54779K12N 12N20160516003010005/16/16 00:30:31  5-MIN K12N 160530Z AUTO 00000KT 04/M04 A3000 510 57 -600 000/00 RMK AO1 T00391039
54779K12N 12N20160516003510005/16/16 00:35:31  5-MIN K12N 160535Z AUTO 00000KT 04/M04 A3000 510 57 -600 000/00 RMK AO1 T00391039
54779K12N 12N20160516004010005/16/16 00:40:31  5-MIN K12N 160540Z AUTO 00000KT 04/M04 A3000 510 57 -600 000/00 RMK AO1 T00391039
54779K12N 12N20160516004510005/16/16 00:45:31  5-MIN K12N 160545Z AUTO VRB03KT 04/M04 A3000 510 57 -600 VRB/03 RMK AO1 T00391039
54779K12N 12N20160516005012505/16/16 00:50:31  5-MIN K12N 160550Z AUTO 19003KT 03/M03 A3000 510 64 -700 200/03 RMK AO1 SLP162 T00331028 10072 20033 51031
54779K12N 12N20160516005510005/16/16 00:55:31  5-MIN K12N 160555Z AUTO 20003KT 03/M03 A3000 510 64 -700 210/03 RMK AO1 T00331028
54779K12N 12N20160516010010005/16/16 01:00:31  5-MIN K12N 160600Z AUTO 00000KT 03/M03 A3000 520 64 -700 000/00 RMK AO1 T00331028
54779K12N 12N20160516010510005/16/16 01:05:31  5-MIN K12N 160605Z AUTO 00000KT 03/M03 A3000 510 67 -800 000/00 RMK AO1 T00281028
54779K12N 12N20160516011010005/16/16 01:10:31  5-MIN K12N 160610Z AUTO 00000KT 03/M02 A3000 520 69 -800 000/00 RMK AO1 T00281022
54779K12N 12N20160516011510005/16/16 01:15:31  5-MIN K12N 160615Z AUTO 00000KT 03/M03 A2999 520 67 -800 000/00 RMK AO1 T00281028
54779K12N 12N20160516012010005/16/16 01:20:31  5-MIN K12N 160620Z AUTO 18003KT 03/M03 A2999 520 67 -800 190/03 RMK AO1 T00281028
54779K12N 12N20160516012510005/16/16 01:25:31  5-MIN K12N 160625Z AUTO 00000KT 03/M03 A2999 520 67 -800 000/00 RMK AO1 T00281028
54779K12N 12N20160516013010005/16/16 01:30:31  5-MIN K12N 160630Z AUTO 00000KT 03/M03 A3000 520 67 -800 000/00 RMK AO1 T00281028
54779K12N 12N20160516013510005/16/16 01:35:31  5-MIN K12N 160635Z AUTO 00000KT 02/M02 A3000 520 72 -800 000/00 RMK AO1 T00221022
54779K12N 12N20160516014010005/16/16 01:40:31  5-MIN K12N 160640Z AUTO 00000KT 02/M02 A3000 520 72 -800 000/00 RMK AO1 T00221022
54779K12N 12N20160516014510005/16/16 01:45:31  5-MIN K12N 160645Z AUTO 18003KT 02/M02 A3000 520 72 -800 190/03 RMK AO1 T00221022
54779K12N 12N20160516015010705/16/16 01:50:31  5-MIN K12N 160650Z AUTO 00000KT 02/M02 A3000 520 72 -800 000/00 RMK AO1 SLP162 T00221022
54779K12N 12N20160516015510005/16/16 01:55:31  5-MIN K12N 160655Z AUTO 18003KT 02/M02 A3000 510 72 -800 190/03 RMK AO1 T00221022
54779K12N 12N20160516020010005/16/16 02:00:31  5-MIN K12N 160700Z AUTO 00000KT 02/M02 A3000 510 72 -800 000/00 RMK AO1 T00221022
54779K12N 12N20160516020510005/16/16 02:05:31  5-MIN K12N 160705Z AUTO 18003KT 02/M02 A3000 510 72 -800 200/03 RMK AO1 T00221022
54779K12N 12N20160516021010005/16/16 02:10:31  5-MIN K12N 160710Z AUTO 00000KT 02/M03 A3000 510 69 -800 000/00 RMK AO1 T00221028
54779K12N 12N20160516021510005/16/16 02:15:31  5-MIN K12N 160715Z AUTO 00000KT 02/M02 A3000 510 72 -800 000/00 RMK AO1 T00221022
54779K12N 12N20160516022010005/16/16 02:20:31  5-MIN K12N 160720Z AUTO 00000KT 02/M02 A3000 510 72 -800 000/00 RMK AO1 T00221022
54779K12N 12N20160516022510005/16/16 02:25:31  5-MIN K12N 160725Z AUTO 00000KT 02/M02 A3000 510 72 -800 000/00 RMK AO1 T00221022
54779K12N 12N20160516023010005/16/16 02:30:31  5-MIN K12N 160730Z AUTO 00000KT 02/M02 A3000 510 72 -800 000/00 RMK AO1 T00221022
54779K12N 12N20160516023510005/16/16 02:35:31  5-MIN K12N 160735Z AUTO 00000KT 02/M02 A3001 510 72 -800 000/00 RMK AO1 T00221022
54779K12N 12N20160516024010005/16/16 02:40:31  5-MIN K12N 160740Z AUTO 00000KT 02/M02 A3001 510 72 -800 000/00 RMK AO1 T00221022
54779K12N 12N20160516024510005/16/16 02:45:31  5-MIN K12N 160745Z AUTO VRB03KT 02/M02 A3001 510 72 -800 VRB/03 RMK AO1 T00221022
54779K12N 12N20160516025010705/16/16 02:50:31  5-MIN K12N 160750Z AUTO 18003KT 02/M02 A3001 500 72 -800 190/03 RMK AO1 SLP166 T00221022
54779K12N 12N20160516025510005/16/16 02:55:31  5-MIN K12N 160755Z AUTO VRB03KT 02/M02 A3001 500 72 -800 VRB/03 RMK AO1 T00221022
54779K12N 12N20160516030010005/16/16 03:00:31  5-MIN K12N 160800Z AUTO 00000KT 02/M02 A3001 500 72 -800 000/00 RMK AO1 T00221022
54779K12N 12N20160516030510005/16/16 03:05:31  5-MIN K12N 160805Z AUTO 00000KT 02/M02 A3001 500 72 -800 000/00 RMK AO1 T00221022
54779K12N 12N20160516031010005/16/16 03:10:31  5-MIN K12N 160810Z AUTO 00000KT 02/M02 A3001 500 72 -800 000/00 RMK AO1 T00221022
54779K12N 12N20160516031510005/16/16 03:15:31  5-MIN K12N 160815Z AUTO 00000KT 02/M02 A3001 500 72 -800 000/00 RMK AO1 T00221022
54779K12N 12N20160516032010005/16/16 03:20:31  5-MIN K12N 160820Z AUTO VRB03KT 02/M02 A3001 500 72 -800 VRB/03 RMK AO1 T00221022
54779K12N 12N20160516032510005/16/16 03:25:31  5-MIN K12N 160825Z AUTO VRB04KT 02/M02 A3001 500 72 -800 VRB/04 RMK AO1 T00221022
54779K12N 12N20160516033010005/16/16 03:30:31  5-MIN K12N 160830Z AUTO 00000KT 02/M02 A3001 500 72 -800 000/00 RMK AO1 T00221022
54779K12N 12N20160516033510005/16/16 03:35:31  5-MIN K12N 160835Z AUTO 00000KT 02/M02 A3002 500 72 -800 000/00 RMK AO1 T00221022
54779K12N 12N20160516034010005/16/16 03:40:31  5-MIN K12N 160840Z AUTO VRB03KT 02/M02 A3002 500 72 -800 VRB/03 RMK AO1 T00221022
54779K12N 12N20160516034510005/16/16 03:45:31  5-MIN K12N 160845Z AUTO VRB03KT 02/M02 A3002 490 72 -900 VRB/03 RMK AO1 T00221022
54779K12N 12N20160516035011305/16/16 03:50:31  5-MIN K12N 160850Z AUTO 00000KT 02/M02 A3002 490 72 -900 000/00 RMK AO1 SLP171 T00221022 51007
54779K12N 12N20160516035510005/16/16 03:55:31  5-MIN K12N 160855Z AUTO VRB03KT 02/M02 A3002 490 72 -900 VRB/03 RMK AO1 T00221022
54779K12N 12N20160516040010005/16/16 04:00:31  5-MIN K12N 160900Z AUTO 19004KT 02/M02 A3003 490 72 -900 200/04 RMK AO1 T00221022
54779K12N 12N20160516040510005/16/16 04:05:31  5-MIN K12N 160905Z AUTO VRB03KT 02/M02 A3003 490 72 -900 VRB/03 RMK AO1 T00221022
54779K12N 12N20160516041010005/16/16 04:10:31  5-MIN K12N 160910Z AUTO 00000KT 02/M02 A3003 490 72 -900 000/00 RMK AO1 T00221022
54779K12N 12N20160516041510005/16/16 04:15:31  5-MIN K12N 160915Z AUTO VRB03KT 02/M02 A3003 480 72 -900 VRB/03 RMK AO1 T00221022
54779K12N 12N20160516042010005/16/16 04:20:31  5-MIN K12N 160920Z AUTO 00000KT 02/M02 A3003 480 72 -900 000/00 RMK AO1 T00221022
54779K12N 12N20160516042510005/16/16 04:25:31  5-MIN K12N 160925Z AUTO VRB03KT 02/M02 A3003 480 72 -900 VRB/03 RMK AO1 T00221022
54779K12N 12N20160516043010005/16/16 04:30:31  5-MIN K12N 160930Z AUTO 19003KT 02/M02 A3003 480 72 -900 200/03 RMK AO1 T00221022
54779K12N 12N20160516043510005/16/16 04:35:31  5-MIN K12N 160935Z AUTO VRB03KT 02/M02 A3004 480 72 -900 VRB/03 RMK AO1 T00221022
54779K12N 12N20160516044010005/16/16 04:40:31  5-MIN K12N 160940Z AUTO 00000KT 02/M02 A3004 480 72 -900 000/00 RMK AO1 T00221022
54779K12N 12N20160516044510005/16/16 04:45:31  5-MIN K12N 160945Z AUTO VRB03KT 02/M02 A3004 480 72 -900 VRB/03 RMK AO1 T00221022
54779K12N 12N20160516045010705/16/16 04:50:31  5-MIN K12N 160950Z AUTO VRB04KT 02/M02 A3004 470 72 -900 VRB/04 RMK AO1 SLP178 T00221022
54779K12N 12N20160516045510005/16/16 04:55:31  5-MIN K12N 160955Z AUTO VRB04KT 02/M02 A3004 470 72 -900 VRB/04 RMK AO1 T00221022
54779K12N 12N20160516050010005/16/16 05:00:31  5-MIN K12N 161000Z AUTO VRB04KT 02/M02 A3005 470 72 -900 VRB/04 RMK AO1 T00221022
54779K12N 12N20160516050510005/16/16 05:05:31  5-MIN K12N 161005Z AUTO VRB03KT 02/M02 A3005 470 72 -900 VRB/03 RMK AO1 T00221022
54779K12N 12N20160516051010005/16/16 05:10:31  5-MIN K12N 161010Z AUTO VRB04KT 02/M02 A3005 470 72 -900 VRB/04 RMK AO1 T00221022
54779K12N 12N20160516051510005/16/16 05:15:31  5-MIN K12N 161015Z AUTO 18003KT 02/M02 A3005 470 75 -900 190/03 RMK AO1 T00221017
54779K12N 12N20160516052010005/16/16 05:20:31  5-MIN K12N 161020Z AUTO VRB04KT 02/M02 A3005 460 75 -900 VRB/04 RMK AO1 T00221017
54779K12N 12N20160516052510005/16/16 05:25:31  5-MIN K12N 161025Z AUTO 18004KT 02/M02 A3005 460 72 -900 190/04 RMK AO1 T00221022
54779K12N 12N20160516053010005/16/16 05:30:31  5-MIN K12N 161030Z AUTO VRB03KT 02/M02 A3005 460 72 -900 VRB/03 RMK AO1 T00221022
54779K12N 12N20160516053510005/16/16 05:35:31  5-MIN K12N 161035Z AUTO VRB03KT 02/M02 A3006 460 75 -900 VRB/03 RMK AO1 T00221017
54779K12N 12N20160516054010005/16/16 05:40:31  5-MIN K12N 161040Z AUTO 00000KT 02/M02 A3006 460 75 -900 000/00 RMK AO1 T00221017
54779K12N 12N20160516054510005/16/16 05:45:31  5-MIN K12N 161045Z AUTO 18003KT 03/M02 A3006 460 72 -800 190/03 RMK AO1 T00281017
54779K12N 12N20160516055010705/16/16 05:50:31  5-MIN K12N 161050Z AUTO 22004KT 03/M02 A3006 450 72 -800 230/04 RMK AO1 SLP186 T00281017
54779K12N 12N20160516055510005/16/16 05:55:31  5-MIN K12N 161055Z AUTO VRB03KT 03/M02 A3007 450 70 -800 VRB/03 RMK AO1 T00331017
54779K12N 12N20160516060010005/16/16 06:00:31  5-MIN K12N 161100Z AUTO 00000KT 03/M01 A3007 450 72 -800 000/00 RMK AO1 T00331011
54779K12N 12N20160516060510005/16/16 06:05:31  5-MIN K12N 161105Z AUTO VRB04KT 04/M01 A3007 450 70 -700 VRB/04 RMK AO1 T00391011
54779K12N 12N20160516061010005/16/16 06:10:31  5-MIN K12N 161110Z AUTO VRB04KT 04/M02 A3007 450 67 -700 VRB/04 RMK AO1 T00391017
54779K12N 12N20160516061510005/16/16 06:15:31  5-MIN K12N 161115Z AUTO VRB05KT 04/M02 A3007 450 64 -600 VRB/05 RMK AO1 T00441017
54779K12N 12N20160516062011605/16/16 06:20:31  5-MIN K12N 161120Z AUTO 22007KT 180V250 04/M02 A3007 450 62 -600 230/07 190V260 RMK AO1 T00441022
54779K12N 12N20160516062510005/16/16 06:25:31  5-MIN K12N 161125Z AUTO 23004KT 05/M02 A3007 450 62 -600 240/04 RMK AO1 T00501017
54779K12N 12N20160516063010005/16/16 06:30:31  5-MIN K12N 161130Z AUTO VRB04KT 04/M02 A3007 450 62 -600 VRB/04 RMK AO1 T00441022
54779K12N 12N20160516063510005/16/16 06:35:31  5-MIN K12N 161135Z AUTO VRB04KT 05/M02 A3007 440 62 -600 VRB/04 RMK AO1 T00501017
54779K12N 12N20160516064011605/16/16 06:40:31  5-MIN K12N 161140Z AUTO 23007KT 190V320 06/M02 A3007 450 59 -500 240/07 200V330 RMK AO1 T00561017
54779K12N 12N20160516064510005/16/16 06:45:31  5-MIN K12N 161145Z AUTO VRB04KT 05/M02 A3008 440 59 -600 VRB/04 RMK AO1 T00501022
54779K12N 12N20160516065012105/16/16 06:50:31  5-MIN K12N 161150Z AUTO 05/M02 A3008 440 59 -600 M /M RMK AO1 SLP191 70008 T00501022 10056 20017 53009
54779K12N 12N20160516065510005/16/16 06:55:31  5-MIN K12N 161155Z AUTO VRB04KT 05/M02 A3008 440 59 -600 VRB/04 RMK AO1 T00501022
54779K12N 12N20160516070009005/16/16 07:00:31  5-MIN K12N 161200Z AUTO 06/M02 A3008 440 59 -500 M /M RMK AO1 T00561017
54779K12N 12N20160516070509005/16/16 07:05:31  5-MIN K12N 161205Z AUTO 06/M02 A3008 440 57 -400 M /M RMK AO1 T00611017
54779K12N 12N20160516071010005/16/16 07:10:31  5-MIN K12N 161210Z AUTO 26005KT 06/M02 A3008 440 57 -400 270/05 RMK AO1 T00611017
54779K12N 12N20160516071510005/16/16 07:15:31  5-MIN K12N 161215Z AUTO VRB04KT 06/M02 A3008 440 57 -400 VRB/04 RMK AO1 T00611017
54779K12N 12N20160516072010005/16/16 07:20:31  5-MIN K12N 161220Z AUTO VRB06KT 07/M02 A3008 440 55 -400 VRB/06 RMK AO1 T00671017
54779K12N 12N20160516072510005/16/16 07:25:31  5-MIN K12N 161225Z AUTO VRB03KT 07/M02 A3008 440 55 -400 VRB/03 RMK AO1 T00671017
54779K12N 12N20160516073009005/16/16 07:30:31  5-MIN K12N 161230Z AUTO 07/M02 A3008 440 55 -400 M /M RMK AO1 T00671017
54779K12N 12N20160516073510005/16/16 07:35:31  5-MIN K12N 161235Z AUTO VRB04KT 07/M02 A3008 440 55 -400 VRB/04 RMK AO1 T00671017
54779K12N 12N20160516074010005/16/16 07:40:31  5-MIN K12N 161240Z AUTO VRB03KT 07/M02 A3007 440 55 -400 VRB/03 RMK AO1 T00671017
54779K12N 12N20160516074510005/16/16 07:45:31  5-MIN K12N 161245Z AUTO VRB04KT 06/M02 A3007 440 57 -400 VRB/04 RMK AO1 T00611017
54779K12N 12N20160516075010705/16/16 07:50:31  5-MIN K12N 161250Z AUTO 00000KT 06/M02 A3007 440 57 -400 000/00 RMK AO1 SLP189 T00611017
54779K12N 12N20160516075510005/16/16 07:55:31  5-MIN K12N 161255Z AUTO VRB05KT 07/M02 A3007 450 53 -400 VRB/05 RMK AO1 T00671022
54779K12N 12N20160516080010005/16/16 08:00:31  5-MIN K12N 161300Z AUTO VRB05KT 07/M02 A3007 450 51 -300 VRB/05 RMK AO1 T00721022
54779K12N 12N20160516080510005/16/16 08:05:31  5-MIN K12N 161305Z AUTO VRB03KT 08/M02 A3007 450 49 -200 VRB/03 RMK AO1 T00831017
54779K12N 12N20160516081012205/16/16 08:10:31  5-MIN K12N 161310Z AUTO 31007G15KT 250V060 08/M02 A3007 450 47 -200 330/07G15 260V070 RMK AO1 T00831022
54779K12N 12N20160516081509005/16/16 08:15:31  5-MIN K12N 161315Z AUTO 08/M03 A3007 450 43 -200 M /M RMK AO1 T00831033
54779K12N 12N20160516082009005/16/16 08:20:31  5-MIN K12N 161320Z AUTO 09/M03 A3007 450 43 -100 M /M RMK AO1 T00891028
54779K12N 12N20160516082510005/16/16 08:25:31  5-MIN K12N 161325Z AUTO 28008KT 09/M03 A3007 450 42 -100 300/08 RMK AO1 T00891033
54779K12N 12N20160516083009005/16/16 08:30:31  5-MIN K12N 161330Z AUTO 08/M04 A3006 450 42 -100 M /M RMK AO1 T00831039
54779K12N 12N20160516083511605/16/16 08:35:31  5-MIN K12N 161335Z AUTO 29007KT 230V360 08/M04 A3007 450 41 -200 310/07 240V010 RMK AO1 T00781044
54779K12N 12N20160516084009005/16/16 08:40:31  5-MIN K12N 161340Z AUTO 08/M04 A3006 450 42 -100 M /M RMK AO1 T00831039
54779K12N 12N20160516084512205/16/16 08:45:31  5-MIN K12N 161345Z AUTO 34011G19KT 310V030 08/M04 A3007 450 42 -200 360/11G19 320V040 RMK AO1 T00831039
54779K12N 12N20160516085012905/16/16 08:50:31  5-MIN K12N 161350Z AUTO 35010G20KT 260V030 09/M04 A3006 460 40 -100 360/10G20 270V040 RMK AO1 SLP183 T00891039
54779K12N 12N20160516085512205/16/16 08:55:31  5-MIN K12N 161355Z AUTO 33007G24KT 290V010 09/M04 A3007 450 40 -100 350/07G24 300V020 RMK AO1 T00891039
54779K12N 12N20160516090010605/16/16 09:00:31  5-MIN K12N 161400Z AUTO VRB04G24KT 08/M03 A3007 450 43 -200 VRB/04G24 RMK AO1 T00831033
54779K12N 12N20160516090510605/16/16 09:05:31  5-MIN K12N 161405Z AUTO 32007G16KT 09/M04 A3006 450 40 -100 330/07G16 RMK AO1 T00891039
54779K12N 12N20160516091010005/16/16 09:10:31  5-MIN K12N 161410Z AUTO VRB06KT 09/M03 A3006 450 42 -100 VRB/06 RMK AO1 T00891033
54779K12N 12N20160516091509005/16/16 09:15:31  5-MIN K12N 161415Z AUTO 09/M04 A3006 450 40 -100 M /M RMK AO1 T00891039
54779K12N 12N20160516092009005/16/16 09:20:31  5-MIN K12N 161420Z AUTO 09/M04 A3006 450 40 -100 M /M RMK AO1 T00891039
54779K12N 12N20160516092509705/16/16 09:25:31  5-MIN K12N 161425Z AUTO 32008KT 09/M03 A3006 450 40 0 330/08 RMK AO1 T00941033
54779K12N 12N20160516093011905/16/16 09:30:31  5-MIN K12N 161430Z AUTO 30007G17KT 240V100 09/M03 A3006 460 40 0 310/07G17 250V110 RMK AO1 T00941033
54779K12N 12N20160516093511905/16/16 09:35:31  5-MIN K12N 161435Z AUTO 31008G17KT 270V010 10/M03 A3006 450 39 0 330/08G17 280V020 RMK AO1 T01001033
54779K12N 12N20160516094008705/16/16 09:40:31  5-MIN K12N 161440Z AUTO 10/M03 A3007 450 39 0 M /M RMK AO1 T01001033
54779K12N 12N20160516094509705/16/16 09:45:31  5-MIN K12N 161445Z AUTO VRB06KT 10/M04 A3007 450 37 0 VRB/06 RMK AO1 T01001039
54779K12N 12N20160516095013405/16/16 09:50:31  5-MIN K12N 161450Z AUTO 33010G20KT 240V060 11/M03 A3006 450 37 100 350/10G20 250V070 RMK AO1 SLP185 T01061033 51018
54779K12N 12N20160516095512105/16/16 09:55:31  5-MIN K12N 161455Z AUTO 32008G21KT 210V050 11/M04 A3006 460 34 100 330/08G21 220V060 RMK AO1 T01111039
54779K12N 12N20160516100012105/16/16 10:00:31  5-MIN K12N 161500Z AUTO 31008G23KT 250V070 11/M04 A3006 460 34 100 330/08G23 260V080 RMK AO1 T01061044
54779K12N 12N20160516100512105/16/16 10:05:31  5-MIN K12N 161505Z AUTO 33009G23KT 280V010 12/M03 A3006 460 35 200 340/09G23 290V020 RMK AO1 T01171033
54779K12N 12N20160516101010505/16/16 10:10:31  5-MIN K12N 161510Z AUTO VRB06G18KT 12/M03 A3006 460 35 200 VRB/06G18 RMK AO1 T01171033
54779K12N 12N20160516101512105/16/16 10:15:31  5-MIN K12N 161515Z AUTO 31011G20KT 280V350 11/M04 A3006 450 33 100 320/11G20 290V360 RMK AO1 T01111044
54779K12N 12N20160516102012105/16/16 10:20:31  5-MIN K12N 161520Z AUTO 33012G21KT 290V020 11/M04 A3006 450 33 100 350/12G21 300V030 RMK AO1 T01111044
54779K12N 12N20160516102512105/16/16 10:25:31  5-MIN K12N 161525Z AUTO 33010G22KT 280V010 12/M04 A3006 460 33 200 340/10G22 290V020 RMK AO1 T01171039
54779K12N 12N20160516103012105/16/16 10:30:31  5-MIN K12N 161530Z AUTO 33012G22KT 300V010 12/M04 A3006 450 33 200 350/12G22 310V020 RMK AO1 T01171039
54779K12N 12N20160516103512105/16/16 10:35:31  5-MIN K12N 161535Z AUTO 34008G21KT 280V050 12/M04 A3006 450 33 200 350/08G21 290V060 RMK AO1 T01171039
54779K12N 12N20160516104012105/16/16 10:40:31  5-MIN K12N 161540Z AUTO 30011G19KT 260V330 12/M03 A3007 450 33 300 310/11G19 270V340 RMK AO1 T01221033
54779K12N 12N20160516104510505/16/16 10:45:31  5-MIN K12N 161545Z AUTO 30008G19KT 12/M03 A3007 450 33 300 310/08G19 RMK AO1 T01221033
54779K12N 12N20160516105011205/16/16 10:50:31  5-MIN K12N 161550Z AUTO 34011G17KT 13/M03 A3007 450 33 300 350/11G17 RMK AO1 SLP185 T01281028
54779K12N 12N20160516105512105/16/16 10:55:31  5-MIN K12N 161555Z AUTO 32008G19KT 250V010 12/M03 A3007 450 33 300 330/08G19 260V020 RMK AO1 T01221033
54779K12N 12N20160516110012105/16/16 11:00:31  5-MIN K12N 161600Z AUTO 33007G19KT 270V020 12/M03 A3007 440 33 300 340/07G19 280V030 RMK AO1 T01221033
54779K12N 12N20160516110512105/16/16 11:05:31  5-MIN K12N 161605Z AUTO 32009G18KT 260V350 12/M04 A3007 450 32 300 330/09G18 270V360 RMK AO1 T01221039
54779K12N 12N20160516111010505/16/16 11:10:31  5-MIN K12N 161610Z AUTO VRB06G21KT 12/M05 A3007 450 29 300 VRB/06G21 RMK AO1 T01221050
54779K12N 12N20160516111512105/16/16 11:15:31  5-MIN K12N 161615Z AUTO 32007G21KT 210V080 13/M03 A3007 450 33 300 330/07G21 220V090 RMK AO1 T01281028
54779K12N 12N20160516112012105/16/16 11:20:31  5-MIN K12N 161620Z AUTO 33007G21KT 250V010 13/M04 A3006 460 31 300 350/07G21 260V020 RMK AO1 T01281039
54779K12N 12N20160516112512105/16/16 11:25:31  5-MIN K12N 161625Z AUTO 34010G22KT 310V030 13/M04 A3006 450 30 400 360/10G22 320V040 RMK AO1 T01331039
54779K12N 12N20160516113012105/16/16 11:30:31  5-MIN K12N 161630Z AUTO 33010G22KT 270V020 13/M03 A3006 450 32 300 340/10G22 280V030 RMK AO1 T01281033
54779K12N 12N20160516113512105/16/16 11:35:31  5-MIN K12N 161635Z AUTO 35010G20KT 310V030 13/M04 A3006 460 30 400 360/10G20 320V040 RMK AO1 T01331039
54779K12N 12N20160516114010505/16/16 11:40:31  5-MIN K12N 161640Z AUTO VRB06G20KT 13/M03 A3006 460 31 400 VRB/06G20 RMK AO1 T01331033
54779K12N 12N20160516114512105/16/16 11:45:31  5-MIN K12N 161645Z AUTO 28009G19KT 130V320 13/M04 A3006 460 28 400 300/09G19 140V330 RMK AO1 T01331044
54779K12N 12N20160516115012805/16/16 11:50:31  5-MIN K12N 161650Z AUTO 30010G19KT 260V320 13/M04 A3006 460 30 400 310/10G19 270V330 RMK AO1 SLP182 T01331039
54779K12N 12N20160516115512105/16/16 11:55:31  5-MIN K12N 161655Z AUTO 29011G24KT 220V350 14/M04 A3006 460 29 500 300/11G24 230V360 RMK AO1 T01391039
54779K12N 12N20160516120012105/16/16 12:00:31  5-MIN K12N 161700Z AUTO 32010G24KT 270V360 14/M04 A3006 460 29 500 330/10G24 280V010 RMK AO1 T01391039
54779K12N 12N20160516120512105/16/16 12:05:31  5-MIN K12N 161705Z AUTO 32011G17KT 280V360 14/M04 A3005 460 29 500 330/11G17 290V010 RMK AO1 T01391039
54779K12N 12N20160516121012105/16/16 12:10:31  5-MIN K12N 161710Z AUTO 24009G21KT 170V290 14/M04 A3005 460 29 500 250/09G21 180V300 RMK AO1 T01391039
54779K12N 12N20160516121512105/16/16 12:15:31  5-MIN K12N 161715Z AUTO 24008G21KT 200V300 14/M03 A3005 470 29 500 260/08G21 210V310 RMK AO1 T01441033
54779K12N 12N20160516122010505/16/16 12:20:31  5-MIN K12N 161720Z AUTO VRB06G15KT 14/M04 A3004 470 28 600 VRB/06G15 RMK AO1 T01441039
54779K12N 12N20160516122512105/16/16 12:25:31  5-MIN K12N 161725Z AUTO 32012G21KT 280V030 15/M03 A3004 470 29 600 330/12G21 290V040 RMK AO1 T01501028
54779K12N 12N20160516123012105/16/16 12:30:31  5-MIN K12N 161730Z AUTO 30011G21KT 220V010 14/M04 A3005 470 26 500 320/11G21 230V020 RMK AO1 T01441044
54779K12N 12N20160516123512105/16/16 12:35:31  5-MIN K12N 161735Z AUTO 31007G23KT 230V020 15/M03 A3005 470 28 600 320/07G23 240V030 RMK AO1 T01501033
54779K12N 12N20160516124012105/16/16 12:40:31  5-MIN K12N 161740Z AUTO 31008G23KT 260V360 15/M04 A3004 470 27 600 320/08G23 270V010 RMK AO1 T01501039
54779K12N 12N20160516124512105/16/16 12:45:31  5-MIN K12N 161745Z AUTO 34011G16KT 290V010 16/M03 A3004 470 28 700 350/11G16 300V020 RMK AO1 T01561028
54779K12N 12N20160516125014605/16/16 12:50:31  5-MIN K12N 161750Z AUTO 34012G21KT 280V010 15/M04 A3004 470 27 600 350/12G21 290V020 RMK AO1 SLP176 T01501039 10156 20050 56006
54779K12N 12N20160516125512105/16/16 12:55:31  5-MIN K12N 161755Z AUTO 33008G21KT 260V040 16/M03 A3004 470 27 700 340/08G21 270V050 RMK AO1 T01561033
54779K12N 12N20160516130012105/16/16 13:00:31  5-MIN K12N 161800Z AUTO 30012G19KT 280V350 16/M03 A3004 470 27 700 320/12G19 290V360 RMK AO1 T01561033
54779K12N 12N20160516130512105/16/16 13:05:31  5-MIN K12N 161805Z AUTO 30009G19KT 260V330 16/M03 A3004 470 27 700 310/09G19 270V340 RMK AO1 T01561033
54779K12N 12N20160516131012105/16/16 13:10:31  5-MIN K12N 161810Z AUTO 30007G19KT 230V350 16/M03 A3004 470 27 700 310/07G19 240V360 RMK AO1 T01561033
54779K12N 12N20160516131512105/16/16 13:15:31  5-MIN K12N 161815Z AUTO 33010G21KT 300V030 16/M03 A3004 480 27 700 340/10G21 310V040 RMK AO1 T01561033
54779K12N 12N20160516132012105/16/16 13:20:31  5-MIN K12N 161820Z AUTO 34008G21KT 290V030 16/M03 A3004 480 27 800 360/08G21 300V040 RMK AO1 T01611028
54779K12N 12N20160516132512105/16/16 13:25:31  5-MIN K12N 161825Z AUTO 33011G20KT 290V360 16/M03 A3004 480 26 800 340/11G20 300V010 RMK AO1 T01611033
54779K12N 12N20160516133012105/16/16 13:30:31  5-MIN K12N 161830Z AUTO 33011G18KT 260V020 16/M03 A3004 470 27 800 350/11G18 270V030 RMK AO1 T01611028
54779K12N 12N20160516133512105/16/16 13:35:31  5-MIN K12N 161835Z AUTO 31010G22KT 250V010 16/M03 A3004 480 27 800 320/10G22 260V020 RMK AO1 T01611028
54779K12N 12N20160516134010505/16/16 13:40:31  5-MIN K12N 161840Z AUTO VRB06G22KT 17/M02 A3004 480 27 800 VRB/06G22 RMK AO1 T01671022
54779K12N 12N20160516134512105/16/16 13:45:31  5-MIN K12N 161845Z AUTO 28008G18KT 240V330 16/M03 A3004 480 27 800 290/08G18 250V340 RMK AO1 T01611028
54779K12N 12N20160516135012805/16/16 13:50:31  5-MIN K12N 161850Z AUTO 24013G24KT 200V270 16/M03 A3004 480 26 800 250/13G24 210V280 RMK AO1 SLP174 T01611033
54779K12N 12N20160516135512105/16/16 13:55:31  5-MIN K12N 161855Z AUTO 31009G24KT 240V360 16/M03 A3004 480 27 800 330/09G24 250V010 RMK AO1 T01611028
54779K12N 12N20160516140012105/16/16 14:00:31  5-MIN K12N 161900Z AUTO 28010G16KT 240V330 17/M03 A3004 480 26 800 300/10G16 250V340 RMK AO1 T01671028
54779K12N 12N20160516140510505/16/16 14:05:31  5-MIN K12N 161905Z AUTO VRB06G17KT 17/M03 A3004 480 26 800 VRB/06G17 RMK AO1 T01671028
54779K12N 12N20160516141012105/16/16 14:10:31  5-MIN K12N 161910Z AUTO 31007G17KT 250V040 17/M03 A3004 480 26 800 320/07G17 260V050 RMK AO1 T01671028
54779K12N 12N20160516141512105/16/16 14:15:31  5-MIN K12N 161915Z AUTO 30009G17KT 210V360 17/M02 A3004 480 27 800 310/09G17 220V010 RMK AO1 T01671022
54779K12N 12N20160516142010505/16/16 14:20:31  5-MIN K12N 161920Z AUTO VRB06G17KT 17/M02 A3004 480 27 800 VRB/06G17 RMK AO1 T01671022
54779K12N 12N20160516142512105/16/16 14:25:31  5-MIN K12N 161925Z AUTO 31008G17KT 220V040 17/M02 A3004 480 26 900 320/08G17 230V050 RMK AO1 T01721022
54779K12N 12N20160516143009005/16/16 14:30:31  5-MIN K12N 161930Z AUTO 18/M01 A3004 480 27 1000 M /M RMK AO1 T01831006
54779K12N 12N20160516143512105/16/16 14:35:31  5-MIN K12N 161935Z AUTO 33011G20KT 290V020 17/M02 A3004 470 27 800 340/11G20 300V030 RMK AO1 T01671022
54779K12N 12N20160516144012105/16/16 14:40:31  5-MIN K12N 161940Z AUTO 34010G20KT 300V030 17/M02 A3004 470 27 800 360/10G20 310V040 RMK AO1 T01671022
54779K12N 12N20160516144513905/16/16 14:45:31  5-MIN K12N 161945Z AUTO 36013G26KT 330V030 17/M02 A3004 470 26 900 010/13G26 340V040 RMK AO1 PK WND 35026/1942 T01721022
54779K12N 12N20160516145013005/16/16 14:50:31  5-MIN K12N 161950Z AUTO 35008G26KT 17/M02 A3004 470 26 900 010/08G26 RMK AO1 PK WND 35026/1942 SLP175 T01721022
54779K12N 12N20160516145512205/16/16 14:55:31  5-MIN K12N 161955Z AUTO 35008G16KT 310V050 18/M01 A3004 470 28 1000 010/08G16 320V060 RMK AO1 T01781006
54779K12N 12N20160516150012205/16/16 15:00:31  5-MIN K12N 162000Z AUTO 32011G20KT 260V070 18/M02 A3004 470 26 1000 330/11G20 270V080 RMK AO1 T01781017
54779K12N 12N20160516150512105/16/16 15:05:31  5-MIN K12N 162005Z AUTO 30010G20KT 280V350 17/M02 A3004 470 26 900 320/10G20 290V360 RMK AO1 T01721022
54779K12N 12N20160516151012205/16/16 15:10:31  5-MIN K12N 162010Z AUTO 30009G19KT 200V010 18/M02 A3004 470 26 1000 310/09G19 210V020 RMK AO1 T01781017
54779K12N 12N20160516151512105/16/16 15:15:31  5-MIN K12N 162015Z AUTO 30008G19KT 210V360 17/M02 A3004 470 27 900 320/08G19 220V010 RMK AO1 T01721017
54779K12N 12N20160516152012105/16/16 15:20:31  5-MIN K12N 162020Z AUTO 27008G19KT 190V010 17/M02 A3004 470 26 900 290/08G19 200V020 RMK AO1 T01721022
54779K12N 12N20160516152510605/16/16 15:25:31  5-MIN K12N 162025Z AUTO 31011G16KT 18/M02 A3004 480 25 1000 320/11G16 RMK AO1 T01781022
54779K12N 12N20160516153010505/16/16 15:30:31  5-MIN K12N 162030Z AUTO 31010G16KT 18/M01 A3004 470 27 900 320/10G16 RMK AO1 T01781011
54779K12N 12N20160516153510605/16/16 15:35:31  5-MIN K12N 162035Z AUTO VRB06G21KT 18/M02 A3004 470 26 1000 VRB/06G21 RMK AO1 T01781017
54779K12N 12N20160516154010605/16/16 15:40:31  5-MIN K12N 162040Z AUTO VRB06G21KT 18/M02 A3004 470 25 1000 VRB/06G21 RMK AO1 T01831017
54779K12N 12N20160516154512205/16/16 15:45:31  5-MIN K12N 162045Z AUTO 32010G17KT 280V360 18/M02 A3004 470 26 1000 340/10G17 290V010 RMK AO1 T01781017
54779K12N 12N20160516155013405/16/16 15:50:31  5-MIN K12N 162050Z AUTO 32010G17KT 280V020 17/M02 A3004 470 26 900 330/10G17 290V030 RMK AO1 SLP175 T01721022 58006
54779K12N 12N20160516155512105/16/16 15:55:31  5-MIN K12N 162055Z AUTO 34009G15KT 300V010 17/M02 A3004 470 27 900 350/09G15 310V020 RMK AO1 T01721017
54779K12N 12N20160516160012105/16/16 16:00:31  5-MIN K12N 162100Z AUTO 33009G16KT 290V360 17/M02 A3004 470 27 900 340/09G16 300V010 RMK AO1 T01721017
54779K12N 12N20160516160510605/16/16 16:05:31  5-MIN K12N 162105Z AUTO VRB06G16KT 18/M01 A3004 470 26 1000 VRB/06G16 RMK AO1 T01831011
54779K12N 12N20160516161009905/16/16 16:10:31  5-MIN K12N 162110Z AUTO VRB06KT 18/M02 A3005 470 26 900 VRB/06 RMK AO1 T01781017
54779K12N 12N20160516161509905/16/16 16:15:31  5-MIN K12N 162115Z AUTO VRB05KT 17/M02 A3004 470 27 900 VRB/05 RMK AO1 T01721017
54779K12N 12N20160516162009905/16/16 16:20:31  5-MIN K12N 162120Z AUTO VRB06KT 18/M02 A3004 470 26 900 VRB/06 RMK AO1 T01781017
54779K12N 12N20160516162512105/16/16 16:25:31  5-MIN K12N 162125Z AUTO 34008G15KT 290V020 18/M02 A3005 470 26 900 350/08G15 300V030 RMK AO1 T01781017
54779K12N 12N20160516163012105/16/16 16:30:31  5-MIN K12N 162130Z AUTO 36007G16KT 330V050 18/M01 A3005 470 27 900 010/07G16 340V060 RMK AO1 T01781011
54779K12N 12N20160516163512105/16/16 16:35:31  5-MIN K12N 162135Z AUTO 33008G18KT 290V360 18/M01 A3005 470 27 900 340/08G18 300V010 RMK AO1 T01781011
54779K12N 12N20160516164012105/16/16 16:40:31  5-MIN K12N 162140Z AUTO 30007G18KT 240V020 18/M02 A3005 470 26 900 310/07G18 250V030 RMK AO1 T01781017
54779K12N 12N20160516164510005/16/16 16:45:31  5-MIN K12N 162145Z AUTO VRB06KT 18/M01 A3005 460 26 1000 VRB/06 RMK AO1 T01831011
54779K12N 12N20160516165012905/16/16 16:50:31  5-MIN K12N 162150Z AUTO 31007G15KT 270V350 18/M02 A3005 460 25 1000 330/07G15 280V360 RMK AO1 SLP179 T01831017
54779K12N 12N20160516165510605/16/16 16:55:31  5-MIN K12N 162155Z AUTO VRB06G15KT 18/M01 A3005 460 26 1000 VRB/06G15 RMK AO1 T01831011
54779K12N 12N20160516170010505/16/16 17:00:31  5-MIN K12N 162200Z AUTO 32008G14KT 18/M01 A3006 460 27 900 330/08G14 RMK AO1 T01781011
54779K12N 12N20160516170510505/16/16 17:05:31  5-MIN K12N 162205Z AUTO VRB05G14KT 18/M01 A3006 460 27 900 VRB/05G14 RMK AO1 T01781011
54779K12N 12N20160516171012205/16/16 17:10:31  5-MIN K12N 162210Z AUTO 33011G17KT 250V020 18/M01 A3006 460 26 1000 340/11G17 260V030 RMK AO1 T01831011
54779K12N 12N20160516171510505/16/16 17:15:31  5-MIN K12N 162215Z AUTO VRB04G18KT 18/M02 A3006 450 26 900 VRB/04G18 RMK AO1 T01781017
54779K12N 12N20160516172008905/16/16 17:20:31  5-MIN K12N 162220Z AUTO 18/M02 A3006 450 26 900 M /M RMK AO1 T01781017
54779K12N 12N20160516172508905/16/16 17:25:31  5-MIN K12N 162225Z AUTO 18/M01 A3006 450 27 900 M /M RMK AO1 T01781011
54779K12N 12N20160516173009905/16/16 17:30:31  5-MIN K12N 162230Z AUTO 29003KT 18/M01 A3006 450 27 900 300/03 RMK AO1 T01781011
54779K12N 12N20160516173508905/16/16 17:35:31  5-MIN K12N 162235Z AUTO 18/M01 A3007 450 27 900 M /M RMK AO1 T01781011
54779K12N 12N20160516174009905/16/16 17:40:31  5-MIN K12N 162240Z AUTO VRB04KT 18/M01 A3007 450 27 900 VRB/04 RMK AO1 T01781011
54779K12N 12N20160516174509905/16/16 17:45:31  5-MIN K12N 162245Z AUTO VRB03KT 18/M01 A3007 450 28 900 VRB/03 RMK AO1 T01781006
54779K12N 12N20160516175010705/16/16 17:50:31  5-MIN K12N 162250Z AUTO 00000KT 18/M01 A3007 450 27 1000 000/00 RMK AO1 SLP184 T01831006
54779K12N 12N20160516175509905/16/16 17:55:31  5-MIN K12N 162255Z AUTO VRB04KT 18/M01 A3007 450 27 900 VRB/04 RMK AO1 T01781011
54779K12N 12N20160516180009905/16/16 18:00:31  5-MIN K12N 162300Z AUTO VRB05KT 17/M01 A3007 450 28 900 VRB/05 RMK AO1 T01721011
54779K12N 12N20160516180509905/16/16 18:05:31  5-MIN K12N 162305Z AUTO VRB03KT 18/M02 A3007 450 26 900 VRB/03 RMK AO1 T01781017
54779K12N 12N20160516181009905/16/16 18:10:31  5-MIN K12N 162310Z AUTO VRB03KT 18/M01 A3007 450 27 900 VRB/03 RMK AO1 T01781011
54779K12N 12N20160516181509905/16/16 18:15:31  5-MIN K12N 162315Z AUTO 30005KT 17/M01 A3007 440 28 800 310/05 RMK AO1 T01721011
54779K12N 12N20160516182009905/16/16 18:20:31  5-MIN K12N 162320Z AUTO VRB04KT 17/M01 A3007 440 28 800 VRB/04 RMK AO1 T01721011
54779K12N 12N20160516182509905/16/16 18:25:31  5-MIN K12N 162325Z AUTO 00000KT 17/M01 A3008 440 29 800 000/00 RMK AO1 T01721006
54779K12N 12N20160516183009905/16/16 18:30:31  5-MIN K12N 162330Z AUTO VRB03KT 17/M01 A3008 440 29 800 VRB/03 RMK AO1 T01671011
54779K12N 12N20160516183509905/16/16 18:35:31  5-MIN K12N 162335Z AUTO 00000KT 16/M01 A3008 440 30 700 000/00 RMK AO1 T01611011
54779K12N 12N20160516184009905/16/16 18:40:31  5-MIN K12N 162340Z AUTO 00000KT 16/M01 A3008 440 30 700 000/00 RMK AO1 T01611011
54779K12N 12N20160516184509805/16/16 18:45:31  5-MIN K12N 162345Z AUTO 00000KT 16/00 A3008 440 34 600 000/00 RMK AO1 T01560000
54779K12N 12N20160516185012305/16/16 18:50:31  5-MIN K12N 162350Z AUTO 00000KT 15/01 A3008 440 38 600 000/00 RMK AO1 SLP188 T01500011 10183 20150 55000
54779K12N 12N20160516185509805/16/16 18:55:31  5-MIN K12N 162355Z AUTO 00000KT 14/01 A3008 440 40 500 000/00 RMK AO1 T01440011
54779K12N 12N20160516190009805/16/16 19:00:31  5-MIN K12N 170000Z AUTO 00000KT 14/02 A3008 440 43 400 000/00 RMK AO1 T01390017
54779K12N 12N20160516190509805/16/16 19:05:31  5-MIN K12N 170005Z AUTO 00000KT 14/02 A3008 440 43 400 000/00 RMK AO1 T01390017
54779K12N 12N20160516191009805/16/16 19:10:31  5-MIN K12N 170010Z AUTO 00000KT 13/03 A3008 430 50 300 000/00 RMK AO1 T01280028
54779K12N 12N20160516191509805/16/16 19:15:31  5-MIN K12N 170015Z AUTO 00000KT 13/02 A3009 430 48 300 000/00 RMK AO1 T01280022
54779K12N 12N20160516192009805/16/16 19:20:31  5-MIN K12N 170020Z AUTO 00000KT 12/02 A3009 430 50 200 000/00 RMK AO1 T01220022
54779K12N 12N20160516192509805/16/16 19:25:31  5-MIN K12N 170025Z AUTO 00000KT 12/03 A3009 430 54 200 000/00 RMK AO1 T01170028
54779K12N 12N20160516193009805/16/16 19:30:31  5-MIN K12N 170030Z AUTO 00000KT 12/02 A3009 430 50 200 000/00 RMK AO1 T01220022
54779K12N 12N20160516193509805/16/16 19:35:31  5-MIN K12N 170035Z AUTO 00000KT 12/03 A3009 430 52 200 000/00 RMK AO1 T01220028
54779K12N 12N20160516194009805/16/16 19:40:31  5-MIN K12N 170040Z AUTO 00000KT 12/03 A3009 430 54 200 000/00 RMK AO1 T01170028
54779K12N 12N20160516194509805/16/16 19:45:31  5-MIN K12N 170045Z AUTO 00000KT 12/04 A3009 430 58 200 000/00 RMK AO1 T01170039
54779K12N 12N20160516195010505/16/16 19:50:31  5-MIN K12N 170050Z AUTO 00000KT 11/03 A3010 420 58 100 000/00 RMK AO1 SLP194 T01110033
54779K12N 12N20160516195509605/16/16 19:55:31  5-MIN K12N 170055Z AUTO 00000KT 11/03 A3010 420 61 0 000/00 RMK AO1 T01060033
54779K12N 12N20160516200009605/16/16 20:00:31  5-MIN K12N 170100Z AUTO 00000KT 11/05 A3010 420 68 0 000/00 RMK AO1 T01060050
54779K12N 12N20160516200509605/16/16 20:05:31  5-MIN K12N 170105Z AUTO 00000KT 11/05 A3010 420 68 0 000/00 RMK AO1 T01060050
54779K12N 12N20160516201009805/16/16 20:10:31  5-MIN K12N 170110Z AUTO 20003KT 11/04 A3010 420 61 100 210/03 RMK AO1 T01110039
54779K12N 12N20160516201509805/16/16 20:15:31  5-MIN K12N 170115Z AUTO 21003KT 11/04 A3010 410 61 100 220/03 RMK AO1 T01110039
54779K12N 12N20160516202009605/16/16 20:20:31  5-MIN K12N 170120Z AUTO 20003KT 11/04 A3011 410 63 0 220/03 RMK AO1 T01060039
54779K12N 12N20160516202509605/16/16 20:25:31  5-MIN K12N 170125Z AUTO 21003KT 11/04 A3011 410 66 0 220/03 RMK AO1 T01060044
54779K12N 12N20160516203009605/16/16 20:30:31  5-MIN K12N 170130Z AUTO 20003KT 10/04 A3011 410 68 0 220/03 RMK AO1 T01000044
54779K12N 12N20160516203509605/16/16 20:35:31  5-MIN K12N 170135Z AUTO 21003KT 10/04 A3011 410 68 0 220/03 RMK AO1 T01000044
54779K12N 12N20160516204009605/16/16 20:40:31  5-MIN K12N 170140Z AUTO 21003KT 10/04 A3012 400 68 0 220/03 RMK AO1 T01000044
54779K12N 12N20160516204509605/16/16 20:45:31  5-MIN K12N 170145Z AUTO 21003KT 10/04 A3012 400 65 0 220/03 RMK AO1 T01000039
54779K12N 12N20160516205010305/16/16 20:50:31  5-MIN K12N 170150Z AUTO 21003KT 10/04 A3012 400 68 0 230/03 RMK AO1 SLP203 T01000044
54779K12N 12N20160516205509605/16/16 20:55:31  5-MIN K12N 170155Z AUTO 21003KT 10/04 A3012 400 68 0 220/03 RMK AO1 T01000044
54779K12N 12N20160516210009905/16/16 21:00:31  5-MIN K12N 170200Z AUTO 21003KT 09/05 A3012 400 74 -100 220/03 RMK AO1 T00940050
54779K12N 12N20160516210509905/16/16 21:05:31  5-MIN K12N 170205Z AUTO 00000KT 09/05 A3013 400 74 -100 000/00 RMK AO1 T00940050
54779K12N 12N20160516211009905/16/16 21:10:31  5-MIN K12N 170210Z AUTO 00000KT 09/05 A3013 400 76 -200 000/00 RMK AO1 T00890050
54779K12N 12N20160516211509905/16/16 21:15:31  5-MIN K12N 170215Z AUTO 00000KT 09/06 A3013 400 79 -200 000/00 RMK AO1 T00890056
54779K12N 12N20160516212009905/16/16 21:20:31  5-MIN K12N 170220Z AUTO 00000KT 09/05 A3013 390 76 -200 000/00 RMK AO1 T00890050
54779K12N 12N20160516212509905/16/16 21:25:31  5-MIN K12N 170225Z AUTO 00000KT 08/06 A3013 390 82 -200 000/00 RMK AO1 T00830056
54779K12N 12N20160516213009905/16/16 21:30:31  5-MIN K12N 170230Z AUTO 00000KT 08/05 A3013 390 79 -200 000/00 RMK AO1 T00830050
54779K12N 12N20160516213509905/16/16 21:35:31  5-MIN K12N 170235Z AUTO 00000KT 08/05 A3013 390 79 -200 000/00 RMK AO1 T00830050
54779K12N 12N20160516214009905/16/16 21:40:31  5-MIN K12N 170240Z AUTO 00000KT 08/05 A3013 390 79 -200 000/00 RMK AO1 T00830050
54779K12N 12N20160516214509905/16/16 21:45:31  5-MIN K12N 170245Z AUTO 00000KT 08/05 A3013 390 79 -200 000/00 RMK AO1 T00830050
54779K12N 12N20160516215011205/16/16 21:50:31  5-MIN K12N 170250Z AUTO 00000KT 09/05 A3014 390 76 -200 000/00 RMK AO1 SLP207 T00890050 51013
54779K12N 12N20160516215509905/16/16 21:55:31  5-MIN K12N 170255Z AUTO 00000KT 08/05 A3013 390 79 -200 000/00 RMK AO1 T00830050
54779K12N 12N20160516220009905/16/16 22:00:31  5-MIN K12N 170300Z AUTO 00000KT 08/06 A3014 390 82 -200 000/00 RMK AO1 T00830056
54779K12N 12N20160516220509905/16/16 22:05:31  5-MIN K12N 170305Z AUTO 00000KT 08/05 A3014 380 79 -200 000/00 RMK AO1 T00830050
54779K12N 12N20160516221009905/16/16 22:10:31  5-MIN K12N 170310Z AUTO 00000KT 08/05 A3014 390 79 -200 000/00 RMK AO1 T00830050
54779K12N 12N20160516221509905/16/16 22:15:31  5-MIN K12N 170315Z AUTO 00000KT 08/05 A3013 390 79 -200 000/00 RMK AO1 T00830050
54779K12N 12N20160516222009905/16/16 22:20:31  5-MIN K12N 170320Z AUTO 00000KT 08/05 A3013 390 79 -200 000/00 RMK AO1 T00830050
54779K12N 12N20160516222509905/16/16 22:25:31  5-MIN K12N 170325Z AUTO 00000KT 08/05 A3013 390 82 -300 000/00 RMK AO1 T00780050
54779K12N 12N20160516223009905/16/16 22:30:31  5-MIN K12N 170330Z AUTO 00000KT 08/05 A3013 390 82 -300 000/00 RMK AO1 T00780050
54779K12N 12N20160516223509905/16/16 22:35:31  5-MIN K12N 170335Z AUTO 00000KT 07/05 A3013 390 86 -400 000/00 RMK AO1 T00720050
54779K12N 12N20160516224009905/16/16 22:40:31  5-MIN K12N 170340Z AUTO 00000KT 07/04 A3013 390 82 -400 000/00 RMK AO1 T00720044
54779K12N 12N20160516224509905/16/16 22:45:31  5-MIN K12N 170345Z AUTO 00000KT 07/04 A3013 390 82 -400 000/00 RMK AO1 T00720044
54779K12N 12N20160516225010605/16/16 22:50:31  5-MIN K12N 170350Z AUTO 00000KT 08/05 A3014 390 82 -300 000/00 RMK AO1 SLP207 T00780050
54779K12N 12N20160516225509905/16/16 22:55:31  5-MIN K12N 170355Z AUTO 00000KT 07/05 A3014 390 86 -400 000/00 RMK AO1 T00720050
54779K12N 12N20160516230009905/16/16 23:00:31  5-MIN K12N 170400Z AUTO 00000KT 07/05 A3014 390 86 -400 000/00 RMK AO1 T00720050
54779K12N 12N20160516230509905/16/16 23:05:31  5-MIN K12N 170405Z AUTO 18003KT 07/05 A3014 380 86 -400 190/03 RMK AO1 T00720050
54779K12N 12N20160516231009905/16/16 23:10:31  5-MIN K12N 170410Z AUTO 19003KT 07/05 A3014 380 86 -400 200/03 RMK AO1 T00720050
54779K12N 12N20160516231509905/16/16 23:15:31  5-MIN K12N 170415Z AUTO VRB03KT 07/04 A3014 380 82 -400 VRB/03 RMK AO1 T00720044
54779K12N 12N20160516232009905/16/16 23:20:31  5-MIN K12N 170420Z AUTO 00000KT 08/04 A3014 380 79 -300 000/00 RMK AO1 T00780044
54779K12N 12N20160516232509905/16/16 23:25:31  5-MIN K12N 170425Z AUTO VRB03KT 07/04 A3014 380 82 -400 VRB/03 RMK AO1 T00720044
54779K12N 12N20160516233009905/16/16 23:30:31  5-MIN K12N 170430Z AUTO 00000KT 07/04 A3015 380 82 -400 000/00 RMK AO1 T00720044
54779K12N 12N20160516233509905/16/16 23:35:31  5-MIN K12N 170435Z AUTO 00000KT 07/05 A3015 380 86 -400 000/00 RMK AO1 T00720050
54779K12N 12N20160516234009905/16/16 23:40:31  5-MIN K12N 170440Z AUTO 00000KT 08/05 A3015 380 82 -300 000/00 RMK AO1 T00780050
54779K12N 12N20160516234509905/16/16 23:45:31  5-MIN K12N 170445Z AUTO 00000KT 07/04 A3015 380 82 -400 000/00 RMK AO1 T00720044
54779K12N 12N20160516235011605/16/16 23:50:31  5-MIN K12N 170450Z AUTO 00000KT 07/04 A3015 380 82 -400 000/00 RMK AO1 SLP211 T00720044 401830017
54779K12N 12N20160516235509905/16/16 23:55:31  5-MIN K12N 170455Z AUTO 00000KT 07/03 A3015 380 76 -400 000/00 RMK AO1 T00720033
54779K12N 12N20160517000009905/17/16 00:00:31  5-MIN K12N 170500Z AUTO 00000KT 07/03 A3015 380 76 -400 000/00 RMK AO1 T00720033
54779K12N 12N20160517000509905/17/16 00:05:31  5-MIN K12N 170505Z AUTO 00000KT 08/04 A3015 380 79 -300 000/00 RMK AO1 T00780044
54779K12N 12N20160517001009905/17/16 00:10:31  5-MIN K12N 170510Z AUTO 00000KT 07/04 A3015 380 82 -400 000/00 RMK AO1 T00720044
54779K12N 12N20160517001509905/17/16 00:15:31  5-MIN K12N 170515Z AUTO 00000KT 07/04 A3015 380 82 -400 000/00 RMK AO1 T00720044
54779K12N 12N20160517002009905/17/16 00:20:31  5-MIN K12N 170520Z AUTO 00000KT 07/04 A3015 370 82 -400 000/00 RMK AO1 T00720044
54779K12N 12N20160517002509905/17/16 00:25:31  5-MIN K12N 170525Z AUTO 00000KT 07/04 A3015 380 82 -400 000/00 RMK AO1 T00720044
54779K12N 12N20160517003009905/17/16 00:30:31  5-MIN K12N 170530Z AUTO 20004KT 07/04 A3015 370 82 -400 220/04 RMK AO1 T00720044
54779K12N 12N20160517003509905/17/16 00:35:31  5-MIN K12N 170535Z AUTO 21004KT 08/04 A3015 370 76 -300 220/04 RMK AO1 T00780039
54779K12N 12N20160517004009905/17/16 00:40:31  5-MIN K12N 170540Z AUTO 21003KT 07/04 A3015 370 82 -400 220/03 RMK AO1 T00720044
54779K12N 12N20160517004509905/17/16 00:45:31  5-MIN K12N 170545Z AUTO 00000KT 07/04 A3015 380 82 -400 000/00 RMK AO1 T00720044
54779K12N 12N20160517005012405/17/16 00:50:31  5-MIN K12N 170550Z AUTO 20003KT 07/05 A3015 380 86 -400 220/03 RMK AO1 SLP210 T00720050 10144 20072 51018
54779K12N 12N20160517005509905/17/16 00:55:31  5-MIN K12N 170555Z AUTO 21003KT 07/05 A3015 380 86 -400 220/03 RMK AO1 T00720050
54779K12N 12N20160517010009905/17/16 01:00:31  5-MIN K12N 170600Z AUTO 00000KT 07/04 A3015 380 86 -400 000/00 RMK AO1 T00670044
54779K12N 12N20160517010509905/17/16 01:05:31  5-MIN K12N 170605Z AUTO 00000KT 07/04 A3015 370 86 -500 000/00 RMK AO1 T00670044
54779K12N 12N20160517011009905/17/16 01:10:31  5-MIN K12N 170610Z AUTO 00000KT 07/04 A3015 370 86 -500 000/00 RMK AO1 T00670044
54779K12N 12N20160517011509905/17/16 01:15:31  5-MIN K12N 170615Z AUTO 00000KT 07/05 A3015 370 89 -500 000/00 RMK AO1 T00670050
54779K12N 12N20160517012009905/17/16 01:20:31  5-MIN K12N 170620Z AUTO 00000KT 07/05 A3015 370 89 -500 000/00 RMK AO1 T00670050
54779K12N 12N20160517012509905/17/16 01:25:31  5-MIN K12N 170625Z AUTO 00000KT 07/04 A3015 370 86 -500 000/00 RMK AO1 T00670044
54779K12N 12N20160517013009905/17/16 01:30:31  5-MIN K12N 170630Z AUTO 00000KT 07/04 A3015 370 86 -500 000/00 RMK AO1 T00670044
54779K12N 12N20160517013509905/17/16 01:35:31  5-MIN K12N 170635Z AUTO 20003KT 07/04 A3015 370 82 -400 210/03 RMK AO1 T00720044
54779K12N 12N20160517014009905/17/16 01:40:31  5-MIN K12N 170640Z AUTO 21003KT 07/05 A3015 370 86 -400 220/03 RMK AO1 T00720050
54779K12N 12N20160517014509905/17/16 01:45:31  5-MIN K12N 170645Z AUTO 00000KT 07/05 A3015 370 89 -500 000/00 RMK AO1 T00670050
54779K12N 12N20160517015010605/17/16 01:50:31  5-MIN K12N 170650Z AUTO 21003KT 07/05 A3015 370 89 -500 230/03 RMK AO1 SLP211 T00670050
54779K12N 12N20160517015509905/17/16 01:55:31  5-MIN K12N 170655Z AUTO 19003KT 07/05 A3015 370 86 -400 200/03 RMK AO1 T00720050
54779K12N 12N20160517020009905/17/16 02:00:31  5-MIN K12N 170700Z AUTO 00000KT 07/05 A3015 370 86 -400 000/00 RMK AO1 T00720050
54779K12N 12N20160517020509905/17/16 02:05:31  5-MIN K12N 170705Z AUTO 21003KT 07/05 A3015 370 89 -500 220/03 RMK AO1 T00670050
54779K12N 12N20160517021009905/17/16 02:10:31  5-MIN K12N 170710Z AUTO 20003KT 07/05 A3015 370 86 -400 220/03 RMK AO1 T00720050
54779K12N 12N20160517021509905/17/16 02:15:31  5-MIN K12N 170715Z AUTO 00000KT 07/05 A3015 370 86 -400 000/00 RMK AO1 T00720050
54779K12N 12N20160517022009905/17/16 02:20:31  5-MIN K12N 170720Z AUTO 21003KT 07/05 A3016 370 86 -400 230/03 RMK AO1 T00720050
54779K12N 12N20160517022509905/17/16 02:25:31  5-MIN K12N 170725Z AUTO 00000KT 07/06 A3016 370 89 -400 000/00 RMK AO1 T00720056
54779K12N 12N20160517023009905/17/16 02:30:31  5-MIN K12N 170730Z AUTO 00000KT 07/06 A3016 370 89 -400 000/00 RMK AO1 T00720056
54779K12N 12N20160517023509905/17/16 02:35:31  5-MIN K12N 170735Z AUTO 00000KT 07/06 A3016 370 89 -400 000/00 RMK AO1 T00720056
54779K12N 12N20160517024009905/17/16 02:40:31  5-MIN K12N 170740Z AUTO 00000KT 07/06 A3016 370 89 -400 000/00 RMK AO1 T00720056
54779K12N 12N20160517024509905/17/16 02:45:31  5-MIN K12N 170745Z AUTO 00000KT 08/06 A3016 360 86 -300 000/00 RMK AO1 T00780056
54779K12N 12N20160517025010605/17/16 02:50:31  5-MIN K12N 170750Z AUTO 00000KT 08/06 A3016 360 86 -300 000/00 RMK AO1 SLP214 T00780056
54779K12N 12N20160517025509905/17/16 02:55:31  5-MIN K12N 170755Z AUTO 00000KT 08/06 A3016 360 86 -300 000/00 RMK AO1 T00780056
54779K12N 12N20160517030009905/17/16 03:00:31  5-MIN K12N 170800Z AUTO 00000KT 08/06 A3016 360 86 -300 000/00 RMK AO1 T00780056
54779K12N 12N20160517030509905/17/16 03:05:31  5-MIN K12N 170805Z AUTO 00000KT 08/06 A3016 360 86 -300 000/00 RMK AO1 T00780056
54779K12N 12N20160517031009905/17/16 03:10:31  5-MIN K12N 170810Z AUTO 00000KT 08/06 A3016 360 86 -300 000/00 RMK AO1 T00780056
54779K12N 12N20160517031509905/17/16 03:15:31  5-MIN K12N 170815Z AUTO 00000KT 08/06 A3016 360 86 -300 000/00 RMK AO1 T00780056
54779K12N 12N20160517032009905/17/16 03:20:31  5-MIN K12N 170820Z AUTO 00000KT 08/06 A3016 360 86 -300 000/00 RMK AO1 T00780056
54779K12N 12N20160517032509905/17/16 03:25:31  5-MIN K12N 170825Z AUTO 00000KT 08/06 A3016 360 86 -300 000/00 RMK AO1 T00780056
54779K12N 12N20160517033009905/17/16 03:30:31  5-MIN K12N 170830Z AUTO 00000KT 08/05 A3016 360 82 -300 000/00 RMK AO1 T00780050
54779K12N 12N20160517033509905/17/16 03:35:31  5-MIN K12N 170835Z AUTO 00000KT 08/06 A3016 360 86 -300 000/00 RMK AO1 T00780056
54779K12N 12N20160517034009905/17/16 03:40:31  5-MIN K12N 170840Z AUTO 21003KT 08/06 A3016 360 86 -300 220/03 RMK AO1 T00780056
54779K12N 12N20160517034509905/17/16 03:45:31  5-MIN K12N 170845Z AUTO 21003KT 08/06 A3016 360 86 -300 220/03 RMK AO1 T00780056
54779K12N 12N20160517035011205/17/16 03:50:31  5-MIN K12N 170850Z AUTO 21003KT 08/06 A3016 360 86 -300 220/03 RMK AO1 SLP214 T00780056 51004
54779K12N 12N20160517035509905/17/16 03:55:31  5-MIN K12N 170855Z AUTO 20003KT 08/06 A3016 360 86 -300 220/03 RMK AO1 T00780056
54779K12N 12N20160517040009905/17/16 04:00:31  5-MIN K12N 170900Z AUTO 21003KT 08/06 A3017 360 86 -300 220/03 RMK AO1 T00780056
54779K12N 12N20160517040509905/17/16 04:05:31  5-MIN K12N 170905Z AUTO 21003KT 08/05 A3017 360 82 -300 220/03 RMK AO1 T00780050
54779K12N 12N20160517041009905/17/16 04:10:31  5-MIN K12N 170910Z AUTO 22003KT 08/05 A3017 360 82 -300 230/03 RMK AO1 T00780050
54779K12N 12N20160517041509905/17/16 04:15:31  5-MIN K12N 170915Z AUTO 00000KT 08/05 A3017 360 82 -300 000/00 RMK AO1 T00780050
54779K12N 12N20160517042009905/17/16 04:20:31  5-MIN K12N 170920Z AUTO 00000KT 08/05 A3017 360 82 -300 000/00 RMK AO1 T00780050
54779K12N 12N20160517042509905/17/16 04:25:31  5-MIN K12N 170925Z AUTO 20003KT 08/06 A3017 350 86 -300 220/03 RMK AO1 T00780056
54779K12N 12N20160517043009905/17/16 04:30:31  5-MIN K12N 170930Z AUTO 00000KT 08/06 A3017 350 86 -300 000/00 RMK AO1 T00780056
54779K12N 12N20160517043509905/17/16 04:35:31  5-MIN K12N 170935Z AUTO 00000KT 08/05 A3017 360 79 -300 000/00 RMK AO1 T00830050
54779K12N 12N20160517044009905/17/16 04:40:31  5-MIN K12N 170940Z AUTO 00000KT 08/06 A3017 350 86 -300 000/00 RMK AO1 T00780056
54779K12N 12N20160517044509905/17/16 04:45:31  5-MIN K12N 170945Z AUTO 00000KT 08/06 A3017 350 82 -300 000/00 RMK AO1 T00830056
54779K12N 12N20160517045010605/17/16 04:50:31  5-MIN K12N 170950Z AUTO 00000KT 08/06 A3017 350 86 -300 000/00 RMK AO1 SLP217 T00780056
54779K12N 12N20160517045509905/17/16 04:55:31  5-MIN K12N 170955Z AUTO 00000KT 08/06 A3017 350 82 -300 000/00 RMK AO1 T00830056
54779K12N 12N20160517050009905/17/16 05:00:31  5-MIN K12N 171000Z AUTO 00000KT 08/06 A3018 350 82 -300 000/00 RMK AO1 T00830056
54779K12N 12N20160517050509905/17/16 05:05:31  5-MIN K12N 171005Z AUTO 00000KT 08/06 A3018 350 82 -300 000/00 RMK AO1 T00830056
54779K12N 12N20160517051009905/17/16 05:10:31  5-MIN K12N 171010Z AUTO 00000KT 08/06 A3018 350 82 -300 000/00 RMK AO1 T00830056
54779K12N 12N20160517051509905/17/16 05:15:31  5-MIN K12N 171015Z AUTO 00000KT 09/06 A3018 350 79 -200 000/00 RMK AO1 T00890056
54779K12N 12N20160517052009905/17/16 05:20:31  5-MIN K12N 171020Z AUTO 00000KT 09/06 A3018 350 79 -200 000/00 RMK AO1 T00890056
54779K12N 12N20160517052509905/17/16 05:25:31  5-MIN K12N 171025Z AUTO 00000KT 09/05 A3018 350 76 -200 000/00 RMK AO1 T00890050
54779K12N 12N20160517053009905/17/16 05:30:31  5-MIN K12N 171030Z AUTO 00000KT 09/06 A3018 350 79 -200 000/00 RMK AO1 T00890056
54779K12N 12N20160517053509905/17/16 05:35:31  5-MIN K12N 171035Z AUTO 00000KT 08/05 A3018 350 79 -300 000/00 RMK AO1 T00830050
54779K12N 12N20160517054009905/17/16 05:40:31  5-MIN K12N 171040Z AUTO 00000KT 09/06 A3018 350 79 -200 000/00 RMK AO1 T00890056
54779K12N 12N20160517054509905/17/16 05:45:31  5-MIN K12N 171045Z AUTO 00000KT 09/06 A3018 350 79 -200 000/00 RMK AO1 T00890056
54779K12N 12N20160517055010605/17/16 05:50:31  5-MIN K12N 171050Z AUTO 00000KT 09/06 A3018 340 83 -200 000/00 RMK AO1 SLP220 T00890061
54779K12N 12N20160517055509905/17/16 05:55:31  5-MIN K12N 171055Z AUTO 00000KT 09/06 A3019 340 79 -200 000/00 RMK AO1 T00940061
54779K12N 12N20160517060009905/17/16 06:00:31  5-MIN K12N 171100Z AUTO 17003KT 09/05 A3019 340 74 -200 180/03 RMK AO1 T00940050
54779K12N 12N20160517060509905/17/16 06:05:31  5-MIN K12N 171105Z AUTO 19003KT 10/04 A3019 340 68 -100 200/03 RMK AO1 T01000044
54779K12N 12N20160517061009905/17/16 06:10:31  5-MIN K12N 171110Z AUTO 00000KT 10/05 A3019 340 71 -100 000/00 RMK AO1 T01000050
54779K12N 12N20160517061509905/17/16 06:15:31  5-MIN K12N 171115Z AUTO 19003KT 10/04 A3019 340 68 -100 200/03 RMK AO1 T01000044
54779K12N 12N20160517062009605/17/16 06:20:31  5-MIN K12N 171120Z AUTO VRB03KT 11/04 A3019 340 66 0 VRB/03 RMK AO1 T01060044
54779K12N 12N20160517062509605/17/16 06:25:31  5-MIN K12N 171125Z AUTO 20003KT 11/05 A3019 340 68 0 210/03 RMK AO1 T01060050
54779K12N 12N20160517063009605/17/16 06:30:31  5-MIN K12N 171130Z AUTO 00000KT 11/04 A3019 330 66 0 000/00 RMK AO1 T01060044
54779K12N 12N20160517063509605/17/16 06:35:31  5-MIN K12N 171135Z AUTO 00000KT 11/04 A3019 330 66 0 000/00 RMK AO1 T01060044
54779K12N 12N20160517064009605/17/16 06:40:31  5-MIN K12N 171140Z AUTO VRB03KT 11/04 A3019 330 66 0 VRB/03 RMK AO1 T01060044
54779K12N 12N20160517064509605/17/16 06:45:31  5-MIN K12N 171145Z AUTO 00000KT 11/04 A3019 330 63 0 000/00 RMK AO1 T01060039
54779K12N 12N20160517065012105/17/16 06:50:31  5-MIN K12N 171150Z AUTO 00000KT 11/04 A3020 330 63 0 000/00 RMK AO1 SLP225 T01110044 10111 20067 51005
54779K12N 12N20160517065509605/17/16 06:55:31  5-MIN K12N 171155Z AUTO 00000KT 11/04 A3020 330 63 0 000/00 RMK AO1 T01110044
54779K12N 12N20160517070009605/17/16 07:00:31  5-MIN K12N 171200Z AUTO VRB03KT 11/04 A3020 330 63 0 VRB/03 RMK AO1 T01110044
54779K12N 12N20160517070509605/17/16 07:05:31  5-MIN K12N 171205Z AUTO 00000KT 11/04 A3020 320 63 0 000/00 RMK AO1 T01110044
54779K12N 12N20160517071009605/17/16 07:10:31  5-MIN K12N 171210Z AUTO 00000KT 11/04 A3020 320 63 0 000/00 RMK AO1 T01110044
54779K12N 12N20160517071509605/17/16 07:15:31  5-MIN K12N 171215Z AUTO 00000KT 11/04 A3021 320 63 0 000/00 RMK AO1 T01110044
54779K12N 12N20160517072009605/17/16 07:20:31  5-MIN K12N 171220Z AUTO 00000KT 12/04 A3021 320 61 0 000/00 RMK AO1 T01170044
54779K12N 12N20160517072509605/17/16 07:25:31  5-MIN K12N 171225Z AUTO 00000KT 12/04 A3021 320 61 0 000/00 RMK AO1 T01170044
54779K12N 12N20160517073009605/17/16 07:30:31  5-MIN K12N 171230Z AUTO 00000KT 12/04 A3021 320 61 0 000/00 RMK AO1 T01170044
54779K12N 12N20160517073509605/17/16 07:35:31  5-MIN K12N 171235Z AUTO 00000KT 12/04 A3021 320 61 0 000/00 RMK AO1 T01170044
54779K12N 12N20160517074009805/17/16 07:40:31  5-MIN K12N 171240Z AUTO VRB03KT 12/04 A3021 320 59 100 VRB/03 RMK AO1 T01220044
54779K12N 12N20160517074509805/17/16 07:45:31  5-MIN K12N 171245Z AUTO VRB03KT 12/04 A3021 320 59 100 VRB/03 RMK AO1 T01220044
54779K12N 12N20160517075010505/17/16 07:50:31  5-MIN K12N 171250Z AUTO 20003KT 12/04 A3021 320 59 100 210/03 RMK AO1 SLP232 T01220044
54779K12N 12N20160517075509805/17/16 07:55:31  5-MIN K12N 171255Z AUTO VRB04KT 12/04 A3021 320 59 100 VRB/04 RMK AO1 T01220044
54779K12N 12N20160517080009805/17/16 08:00:31  5-MIN K12N 171300Z AUTO 21005KT 13/04 A3021 320 56 200 220/05 RMK AO1 T01280044
54779K12N 12N20160517080509805/17/16 08:05:31  5-MIN K12N 171305Z AUTO VRB04KT 13/04 A3022 310 56 200 VRB/04 RMK AO1 T01280044
54779K12N 12N20160517081009805/17/16 08:10:31  5-MIN K12N 171310Z AUTO 21005KT 13/04 A3022 310 56 200 220/05 RMK AO1 T01280044
54779K12N 12N20160517081509805/17/16 08:15:31  5-MIN K12N 171315Z AUTO 20004KT 13/04 A3022 310 56 200 210/04 RMK AO1 T01280044
54779K12N 12N20160517082009805/17/16 08:20:31  5-MIN K12N 171320Z AUTO VRB03KT 13/04 A3022 310 54 200 VRB/03 RMK AO1 T01330044
54779K12N 12N20160517082509805/17/16 08:25:31  5-MIN K12N 171325Z AUTO 21004KT 13/04 A3022 310 54 200 230/04 RMK AO1 T01330044
54779K12N 12N20160517083009805/17/16 08:30:31  5-MIN K12N 171330Z AUTO 21006KT 14/04 A3021 310 52 300 230/06 RMK AO1 T01390044
54779K12N 12N20160517083509805/17/16 08:35:31  5-MIN K12N 171335Z AUTO 22005KT 14/04 A3021 320 52 300 230/05 RMK AO1 T01390044
54779K12N 12N20160517084009805/17/16 08:40:31  5-MIN K12N 171340Z AUTO 21004KT 14/04 A3021 320 52 300 220/04 RMK AO1 T01390044
54779K12N 12N20160517084509805/17/16 08:45:31  5-MIN K12N 171345Z AUTO 21005KT 14/04 A3021 310 51 400 220/05 RMK AO1 T01440044
54779K12N 12N20160517085010505/17/16 08:50:31  5-MIN K12N 171350Z AUTO 22004KT 14/04 A3021 310 49 400 230/04 RMK AO1 SLP232 T01440039
54779K12N 12N20160517085509805/17/16 08:55:31  5-MIN K12N 171355Z AUTO VRB03KT 14/04 A3021 320 49 400 VRB/03 RMK AO1 T01440039
54779K12N 12N20160517090009805/17/16 09:00:31  5-MIN K12N 171400Z AUTO VRB03KT 15/04 A3021 320 49 400 VRB/03 RMK AO1 T01500044
54779K12N 12N20160517090509805/17/16 09:05:31  5-MIN K12N 171405Z AUTO 22003KT 15/04 A3021 320 49 400 240/03 RMK AO1 T01500044
54779K12N 12N20160517091009805/17/16 09:10:31  5-MIN K12N 171410Z AUTO 00000KT 16/04 A3021 320 47 500 000/00 RMK AO1 T01560044
54779K12N 12N20160517091508805/17/16 09:15:31  5-MIN K12N 171415Z AUTO 16/04 A3021 320 44 600 M /M RMK AO1 T01610039
54779K12N 12N20160517092009805/17/16 09:20:31  5-MIN K12N 171420Z AUTO 23004KT 16/03 A3020 320 42 600 250/04 RMK AO1 T01610033
54779K12N 12N20160517092509805/17/16 09:25:31  5-MIN K12N 171425Z AUTO VRB03KT 16/03 A3020 330 42 600 VRB/03 RMK AO1 T01610033
54779K12N 12N20160517093009805/17/16 09:30:31  5-MIN K12N 171430Z AUTO VRB03KT 16/04 A3020 320 44 600 VRB/03 RMK AO1 T01610039
54779K12N 12N20160517093509805/17/16 09:35:31  5-MIN K12N 171435Z AUTO 00000KT 17/04 A3020 330 42 600 000/00 RMK AO1 T01670039
54779K12N 12N20160517094009805/17/16 09:40:31  5-MIN K12N 171440Z AUTO 26004KT 17/03 A3020 330 40 600 280/04 RMK AO1 T01670033
54779K12N 12N20160517094509805/17/16 09:45:31  5-MIN K12N 171445Z AUTO VRB03KT 17/04 A3020 330 41 700 VRB/03 RMK AO1 T01720039
54779K12N 12N20160517095011105/17/16 09:50:31  5-MIN K12N 171450Z AUTO VRB04KT 17/04 A3020 330 42 700 VRB/04 RMK AO1 SLP225 T01720044 53013
54779K12N 12N20160517095509805/17/16 09:55:31  5-MIN K12N 171455Z AUTO VRB05KT 17/03 A3020 330 39 700 VRB/05 RMK AO1 T01720033
54779K12N 12N20160517100009805/17/16 10:00:31  5-MIN K12N 171500Z AUTO 00000KT 17/04 A3020 330 42 600 000/00 RMK AO1 T01670039
54779K12N 12N20160517100509805/17/16 10:05:31  5-MIN K12N 171505Z AUTO 00000KT 17/03 A3020 330 39 700 000/00 RMK AO1 T01720033
54779K12N 12N20160517101009805/17/16 10:10:31  5-MIN K12N 171510Z AUTO VRB03KT 18/04 A3020 330 41 800 VRB/03 RMK AO1 T01780044
54779K12N 12N20160517101509805/17/16 10:15:31  5-MIN K12N 171515Z AUTO 27003KT 18/04 A3020 330 41 800 280/03 RMK AO1 T01780044
54779K12N 12N20160517102009805/17/16 10:20:31  5-MIN K12N 171520Z AUTO 00000KT 18/04 A3019 330 39 800 000/00 RMK AO1 T01780039
54779K12N 12N20160517102509805/17/16 10:25:31  5-MIN K12N 171525Z AUTO 21006KT 18/04 A3019 340 41 800 230/06 RMK AO1 T01780044
54779K12N 12N20160517103009805/17/16 10:30:31  5-MIN K12N 171530Z AUTO 00000KT 18/04 A3019 340 39 800 000/00 RMK AO1 T01780039
54779K12N 12N20160517103509805/17/16 10:35:31  5-MIN K12N 171535Z AUTO 00000KT 18/04 A3019 340 39 800 000/00 RMK AO1 T01780039
54779K12N 12N20160517104009805/17/16 10:40:31  5-MIN K12N 171540Z AUTO VRB03KT 19/05 A3018 340 39 900 VRB/03 RMK AO1 T01890050
54779K12N 12N20160517104509805/17/16 10:45:31  5-MIN K12N 171545Z AUTO VRB06KT 18/03 A3018 340 36 900 VRB/06 RMK AO1 T01830033
54779K12N 12N20160517105010505/17/16 10:50:31  5-MIN K12N 171550Z AUTO VRB06KT 18/04 A3018 350 38 900 VRB/06 RMK AO1 SLP219 T01830039
54779K12N 12N20160517105510405/17/16 10:55:31  5-MIN K12N 171555Z AUTO 21006G14KT 18/04 A3018 350 41 800 220/06G14 RMK AO1 T01780044
54779K12N 12N20160517110010405/17/16 11:00:31  5-MIN K12N 171600Z AUTO 20005G14KT 18/04 A3018 350 41 800 210/05G14 RMK AO1 T01780044
54779K12N 12N20160517110511405/17/16 11:05:31  5-MIN K12N 171605Z AUTO 21007KT 170V240 18/04 A3018 350 39 800 230/07 180V250 RMK AO1 T01780039
54779K12N 12N20160517111009805/17/16 11:10:31  5-MIN K12N 171610Z AUTO VRB05KT 18/04 A3018 350 39 800 VRB/05 RMK AO1 T01780039
54779K12N 12N20160517111509805/17/16 11:15:31  5-MIN K12N 171615Z AUTO 21008KT 17/04 A3018 350 41 700 220/08 RMK AO1 T01720039
54779K12N 12N20160517112011405/17/16 11:20:31  5-MIN K12N 171620Z AUTO 22009KT 180V240 17/03 A3017 350 39 700 230/09 190V250 RMK AO1 T01720033
54779K12N 12N20160517112511405/17/16 11:25:31  5-MIN K12N 171625Z AUTO 22007KT 180V260 17/03 A3017 350 37 700 240/07 190V270 RMK AO1 T01720028
54779K12N 12N20160517113011405/17/16 11:30:31  5-MIN K12N 171630Z AUTO 22007KT 190V250 17/03 A3017 360 39 700 240/07 200V260 RMK AO1 T01720033
54779K12N 12N20160517113511405/17/16 11:35:31  5-MIN K12N 171635Z AUTO 22009KT 180V250 17/02 A3017 360 36 700 240/09 190V260 RMK AO1 T01720022
54779K12N 12N20160517114009805/17/16 11:40:31  5-MIN K12N 171640Z AUTO 21008KT 17/02 A3016 360 35 700 220/08 RMK AO1 T01720017
54779K12N 12N20160517114509805/17/16 11:45:31  5-MIN K12N 171645Z AUTO VRB06KT 17/02 A3016 360 35 700 VRB/06 RMK AO1 T01720017
54779K12N 12N20160517115010505/17/16 11:50:31  5-MIN K12N 171650Z AUTO 22007KT 17/02 A3016 360 35 700 230/07 RMK AO1 SLP214 T01720017
54779K12N 12N20160517115509805/17/16 11:55:31  5-MIN K12N 171655Z AUTO VRB05KT 17/02 A3016 360 36 700 VRB/05 RMK AO1 T01720022
54779K12N 12N20160517120009805/17/16 12:00:31  5-MIN K12N 171700Z AUTO VRB06KT 17/02 A3016 360 36 700 VRB/06 RMK AO1 T01720022
54779K12N 12N20160517120509805/17/16 12:05:31  5-MIN K12N 171705Z AUTO 23008KT 17/01 A3016 360 32 800 240/08 RMK AO1 T01720006
54779K12N 12N20160517121009805/17/16 12:10:31  5-MIN K12N 171710Z AUTO VRB06KT 17/01 A3016 360 33 700 VRB/06 RMK AO1 T01720011
54779K12N 12N20160517121509805/17/16 12:15:31  5-MIN K12N 171715Z AUTO 22007KT 17/01 A3016 360 33 700 230/07 RMK AO1 T01720011
54779K12N 12N20160517122009805/17/16 12:20:31  5-MIN K12N 171720Z AUTO 22007KT 17/01 A3016 360 34 700 230/07 RMK AO1 T01670011
54779K12N 12N20160517122509805/17/16 12:25:31  5-MIN K12N 171725Z AUTO 21004KT 17/01 A3016 360 34 700 220/04 RMK AO1 T01670011
54779K12N 12N20160517123009805/17/16 12:30:31  5-MIN K12N 171730Z AUTO VRB05KT 17/02 A3016 360 35 700 VRB/05 RMK AO1 T01720017
54779K12N 12N20160517123511405/17/16 12:35:31  5-MIN K12N 171735Z AUTO 21007KT 170V240 17/02 A3017 360 36 700 220/07 180V250 RMK AO1 T01670017
54779K12N 12N20160517124009805/17/16 12:40:31  5-MIN K12N 171740Z AUTO 22008KT 17/01 A3017 360 34 700 230/08 RMK AO1 T01670011
54779K12N 12N20160517124509805/17/16 12:45:31  5-MIN K12N 171745Z AUTO 22008KT 17/01 A3017 360 34 700 240/08 RMK AO1 T01670011
54779K12N 12N20160517125013905/17/16 12:50:31  5-MIN K12N 171750Z AUTO 21008KT 150V230 17/01 A3016 360 34 700 220/08 160V240 RMK AO1 SLP215 T01670011 10189 20111 58001
54779K12N 12N20160517125509805/17/16 12:55:31  5-MIN K12N 171755Z AUTO 23007KT 17/01 A3016 360 33 700 240/07 RMK AO1 T01670006
54779K12N 12N20160517130009805/17/16 13:00:31  5-MIN K12N 171800Z AUTO 23007KT 17/02 A3016 360 36 700 240/07 RMK AO1 T01670017
54779K12N 12N20160517130511405/17/16 13:05:31  5-MIN K12N 171805Z AUTO 21007KT 170V250 17/02 A3016 360 36 700 220/07 180V260 RMK AO1 T01670017
54779K12N 12N20160517131010405/17/16 13:10:31  5-MIN K12N 171810Z AUTO 21009G17KT 17/02 A3016 360 36 700 220/09G17 RMK AO1 T01670017
54779K12N 12N20160517131512005/17/16 13:15:31  5-MIN K12N 171815Z AUTO 22008G17KT 200V260 17/02 A3017 360 37 700 230/08G17 210V270 RMK AO1 T01670022
54779K12N 12N20160517132009805/17/16 13:20:31  5-MIN K12N 171820Z AUTO 21007KT 17/02 A3016 360 37 700 230/07 RMK AO1 T01670022
54779K12N 12N20160517132509805/17/16 13:25:31  5-MIN K12N 171825Z AUTO 22009KT 17/02 A3017 360 37 700 230/09 RMK AO1 T01670022
54779K12N 12N20160517133009805/17/16 13:30:31  5-MIN K12N 171830Z AUTO VRB06KT 17/02 A3017 360 37 700 VRB/06 RMK AO1 T01670022
54779K12N 12N20160517133511405/17/16 13:35:31  5-MIN K12N 171835Z AUTO 21007KT 170V230 17/03 A3016 360 39 700 220/07 180V240 RMK AO1 T01670028
54779K12N 12N20160517134011405/17/16 13:40:31  5-MIN K12N 171840Z AUTO 21007KT 170V240 17/02 A3016 360 37 700 220/07 180V250 RMK AO1 T01670022
54779K12N 12N20160517134509805/17/16 13:45:31  5-MIN K12N 171845Z AUTO 21009KT 17/02 A3016 360 37 700 230/09 RMK AO1 T01670022
54779K12N 12N20160517135010505/17/16 13:50:31  5-MIN K12N 171850Z AUTO 21006KT 16/02 A3016 360 39 600 230/06 RMK AO1 SLP214 T01610022
54779K12N 12N20160517135511405/17/16 13:55:31  5-MIN K12N 171855Z AUTO 19007KT 160V230 17/02 A3016 370 37 700 210/07 170V240 RMK AO1 T01670022
54779K12N 12N20160517140009805/17/16 14:00:31  5-MIN K12N 171900Z AUTO 20006KT 16/02 A3016 370 39 600 210/06 RMK AO1 T01610022
54779K12N 12N20160517140509805/17/16 14:05:31  5-MIN K12N 171905Z AUTO 21012KT 16/02 A3016 370 39 600 220/12 RMK AO1 T01610022
54779K12N 12N20160517141011405/17/16 14:10:31  5-MIN K12N 171910Z AUTO 20007KT 150V230 16/03 A3016 370 40 600 210/07 160V240 RMK AO1 T01610028
54779K12N 12N20160517141509805/17/16 14:15:31  5-MIN K12N 171915Z AUTO 22009KT 16/03 A3015 370 40 600 230/09 RMK AO1 T01610028
54779K12N 12N20160517142009805/17/16 14:20:31  5-MIN K12N 171920Z AUTO 22007KT 16/03 A3015 370 40 600 230/07 RMK AO1 T01610028
54779K12N 12N20160517142509805/17/16 14:25:31  5-MIN K12N 171925Z AUTO 21006KT 16/03 A3015 380 42 600 220/06 RMK AO1 T01610033
54779K12N 12N20160517143009805/17/16 14:30:31  5-MIN K12N 171930Z AUTO 22008KT 16/03 A3014 380 42 600 240/08 RMK AO1 T01610033
54779K12N 12N20160517143509805/17/16 14:35:31  5-MIN K12N 171935Z AUTO 22009KT 16/03 A3014 380 42 600 230/09 RMK AO1 T01610033
54779K12N 12N20160517144009805/17/16 14:40:31  5-MIN K12N 171940Z AUTO 22008KT 16/04 A3015 380 44 600 230/08 RMK AO1 T01610039
54779K12N 12N20160517144509805/17/16 14:45:31  5-MIN K12N 171945Z AUTO VRB06KT 16/03 A3014 380 42 600 VRB/06 RMK AO1 T01610033
54779K12N 12N20160517145010505/17/16 14:50:31  5-MIN K12N 171950Z AUTO 19006KT 16/04 A3014 380 44 600 210/06 RMK AO1 SLP208 T01610039
54779K12N 12N20160517145508805/17/16 14:55:31  5-MIN K12N 171955Z AUTO 16/04 A3014 380 44 600 M /M RMK AO1 T01610039
54779K12N 12N20160517150009805/17/16 15:00:31  5-MIN K12N 172000Z AUTO 23006KT 16/04 A3014 380 45 600 240/06 RMK AO1 T01610044
54779K12N 12N20160517150509805/17/16 15:05:31  5-MIN K12N 172005Z AUTO 22008KT 16/04 A3014 390 44 600 230/08 RMK AO1 T01610039
54779K12N 12N20160517151009805/17/16 15:10:31  5-MIN K12N 172010Z AUTO 20005KT 16/04 A3014 390 44 600 220/05 RMK AO1 T01610039
54779K12N 12N20160517151511405/17/16 15:15:31  5-MIN K12N 172015Z AUTO 20008KT 150V230 16/04 A3013 390 45 600 210/08 160V240 RMK AO1 T01610044
54779K12N 12N20160517152011405/17/16 15:20:31  5-MIN K12N 172020Z AUTO 20007KT 160V230 16/04 A3013 390 44 700 210/07 170V240 RMK AO1 T01610039
54779K12N 12N20160517152509805/17/16 15:25:31  5-MIN K12N 172025Z AUTO VRB04KT 17/04 A3013 390 44 700 VRB/04 RMK AO1 T01670044
54779K12N 12N20160517153009805/17/16 15:30:31  5-MIN K12N 172030Z AUTO 22007KT 17/04 A3013 390 44 700 230/07 RMK AO1 T01670044
54779K12N 12N20160517153509805/17/16 15:35:31  5-MIN K12N 172035Z AUTO 23007KT 16/04 A3013 390 44 700 240/07 RMK AO1 T01610039
54779K12N 12N20160517154009805/17/16 15:40:31  5-MIN K12N 172040Z AUTO 22007KT 16/04 A3013 390 44 700 230/07 RMK AO1 T01610039
54779K12N 12N20160517154509805/17/16 15:45:31  5-MIN K12N 172045Z AUTO VRB06KT 16/04 A3013 390 44 700 VRB/06 RMK AO1 T01610039
54779K12N 12N20160517155011105/17/16 15:50:31  5-MIN K12N 172050Z AUTO 21008KT 16/04 A3013 400 44 700 220/08 RMK AO1 SLP202 T01610039 55011
54779K12N 12N20160517155509805/17/16 15:55:31  5-MIN K12N 172055Z AUTO 22006KT 16/04 A3012 400 45 700 230/06 RMK AO1 T01610044
54779K12N 12N20160517160009805/17/16 16:00:31  5-MIN K12N 172100Z AUTO 22007KT 16/04 A3013 390 45 700 240/07 RMK AO1 T01610044
54779K12N 12N20160519192509805/19/16 19:25:31  5-MIN K12N 200025Z AUTO 00000KT 14/04 A3011 410 49 500 000/00 RMK AO1 T01440039
54779K12N 12N20160519193009805/19/16 19:30:31  5-MIN K12N 200030Z AUTO 00000KT 14/04 A3011 410 50 400 000/00 RMK AO1 T01390039
54779K12N 12N20160519193509805/19/16 19:35:31  5-MIN K12N 200035Z AUTO 00000KT 14/03 A3012 400 47 400 000/00 RMK AO1 T01390028
54779K12N 12N20160519194009805/19/16 19:40:31  5-MIN K12N 200040Z AUTO 00000KT 13/03 A3012 400 50 300 000/00 RMK AO1 T01330033
54779K12N 12N20160519194509805/19/16 19:45:31  5-MIN K12N 200045Z AUTO 00000KT 13/06 A3012 400 59 300 000/00 RMK AO1 T01330056
54779K12N 12N20160519195010505/19/16 19:50:31  5-MIN K12N 200050Z AUTO 00000KT 13/06 A3012 400 61 300 000/00 RMK AO1 SLP199 T01330061
54779K12N 12N20160519195509805/19/16 19:55:31  5-MIN K12N 200055Z AUTO 00000KT 13/06 A3012 400 63 300 000/00 RMK AO1 T01280061
54779K12N 12N20160519200009805/19/16 20:00:31  5-MIN K12N 200100Z AUTO 00000KT 13/06 A3013 390 63 300 000/00 RMK AO1 T01280061
54779K12N 12N20160519200509805/19/16 20:05:31  5-MIN K12N 200105Z AUTO 00000KT 13/07 A3013 390 66 300 000/00 RMK AO1 T01280067
54779K12N 12N20160519201009805/19/16 20:10:31  5-MIN K12N 200110Z AUTO 00000KT 12/06 A3013 390 66 200 000/00 RMK AO1 T01220061
54779K12N 12N20160519201509805/19/16 20:15:31  5-MIN K12N 200115Z AUTO 00000KT 12/06 A3013 390 63 200 000/00 RMK AO1 T01220056
54779K12N 12N20160519202009805/19/16 20:20:31  5-MIN K12N 200120Z AUTO 00000KT 12/06 A3014 380 68 100 000/00 RMK AO1 T01170061
54779K12N 12N20160519202509805/19/16 20:25:31  5-MIN K12N 200125Z AUTO 00000KT 12/07 A3014 380 71 100 000/00 RMK AO1 T01170067
54779K12N 12N20160519203009805/19/16 20:30:31  5-MIN K12N 200130Z AUTO 00000KT 12/06 A3014 380 68 100 000/00 RMK AO1 T01170061
54779K12N 12N20160519203509805/19/16 20:35:31  5-MIN K12N 200135Z AUTO 00000KT 12/07 A3015 380 71 100 000/00 RMK AO1 T01170067
54779K12N 12N20160519204009605/19/16 20:40:31  5-MIN K12N 200140Z AUTO 00000KT 11/06 A3015 380 71 0 000/00 RMK AO1 T01110061
54779K12N 12N20160519204509605/19/16 20:45:31  5-MIN K12N 200145Z AUTO 00000KT 11/06 A3015 370 71 0 000/00 RMK AO1 T01110061
54779K12N 12N20160519205010305/19/16 20:50:31  5-MIN K12N 200150Z AUTO 00000KT 11/06 A3015 370 68 0 000/00 RMK AO1 SLP210 T01110056
54779K12N 12N20160519205509605/19/16 20:55:31  5-MIN K12N 200155Z AUTO 00000KT 11/06 A3015 370 71 0 000/00 RMK AO1 T01110061
54779K12N 12N20160519210009605/19/16 21:00:31  5-MIN K12N 200200Z AUTO 00000KT 11/06 A3016 370 74 0 000/00 RMK AO1 T01060061
54779K12N 12N20160519210509605/19/16 21:05:31  5-MIN K12N 200205Z AUTO 00000KT 11/06 A3016 370 68 0 000/00 RMK AO1 T01110056
54779K12N 12N20160519211009605/19/16 21:10:31  5-MIN K12N 200210Z AUTO 00000KT 11/06 A3016 370 71 0 000/00 RMK AO1 T01060056
54779K12N 12N20160519211509605/19/16 21:15:31  5-MIN K12N 200215Z AUTO 00000KT 11/06 A3016 370 71 0 000/00 RMK AO1 T01060056
54779K12N 12N20160519212009605/19/16 21:20:31  5-MIN K12N 200220Z AUTO 00000KT 11/06 A3016 370 71 0 000/00 RMK AO1 T01060056
54779K12N 12N20160519212509605/19/16 21:25:31  5-MIN K12N 200225Z AUTO 00000KT 11/06 A3016 370 71 0 000/00 RMK AO1 T01060056
54779K12N 12N20160519213009905/19/16 21:30:31  5-MIN K12N 200230Z AUTO 00000KT 10/06 A3016 360 74 -100 000/00 RMK AO1 T01000056
54779K12N 12N20160519213509905/19/16 21:35:31  5-MIN K12N 200235Z AUTO 00000KT 10/06 A3016 360 77 -100 000/00 RMK AO1 T01000061
54779K12N 12N20160519214009905/19/16 21:40:31  5-MIN K12N 200240Z AUTO 00000KT 10/06 A3016 360 74 -100 000/00 RMK AO1 T01000056
54779K12N 12N20160519214509905/19/16 21:45:31  5-MIN K12N 200245Z AUTO 00000KT 10/05 A3016 360 71 -100 000/00 RMK AO1 T01000050
54779K12N 12N20160519215011205/19/16 21:50:31  5-MIN K12N 200250Z AUTO 00000KT 10/05 A3017 360 71 -100 000/00 RMK AO1 SLP215 T01000050 53016
54779K12N 12N20160519215509905/19/16 21:55:31  5-MIN K12N 200255Z AUTO 00000KT 10/06 A3017 360 74 -100 000/00 RMK AO1 T01000056
54779K12N 12N20160519220009905/19/16 22:00:31  5-MIN K12N 200300Z AUTO 00000KT 09/06 A3017 350 76 -100 000/00 RMK AO1 T00940056
54779K12N 12N20160519220509905/19/16 22:05:31  5-MIN K12N 200305Z AUTO 00000KT 09/06 A3017 350 76 -100 000/00 RMK AO1 T00940056
54779K12N 12N20160519221009905/19/16 22:10:31  5-MIN K12N 200310Z AUTO 00000KT 09/06 A3017 350 79 -100 000/00 RMK AO1 T00940061
54779K12N 12N20160519221509905/19/16 22:15:31  5-MIN K12N 200315Z AUTO 00000KT 09/06 A3017 350 83 -200 000/00 RMK AO1 T00890061
54779K12N 12N20160519222009905/19/16 22:20:31  5-MIN K12N 200320Z AUTO 00000KT 09/07 A3017 350 86 -200 000/00 RMK AO1 T00890067
54779K12N 12N20160519222509905/19/16 22:25:31  5-MIN K12N 200325Z AUTO 00000KT 09/07 A3017 350 86 -200 000/00 RMK AO1 T00890067
54779K12N 12N20160519223009905/19/16 22:30:31  5-MIN K12N 200330Z AUTO 00000KT 09/07 A3017 350 86 -200 000/00 RMK AO1 T00890067
54779K12N 12N20160519223509905/19/16 22:35:31  5-MIN K12N 200335Z AUTO 00000KT 09/07 A3017 350 86 -200 000/00 RMK AO1 T00890067
54779K12N 12N20160519224009905/19/16 22:40:31  5-MIN K12N 200340Z AUTO 00000KT 09/07 A3017 350 86 -200 000/00 RMK AO1 T00890067
54779K12N 12N20160519224509905/19/16 22:45:31  5-MIN K12N 200345Z AUTO 00000KT 09/07 A3017 350 86 -200 000/00 RMK AO1 T00890067
54779K12N 12N20160519225010605/19/16 22:50:31  5-MIN K12N 200350Z AUTO 00000KT 09/07 A3017 350 86 -200 000/00 RMK AO1 SLP216 T00890067
54779K12N 12N20160519225509905/19/16 22:55:31  5-MIN K12N 200355Z AUTO 00000KT 09/07 A3017 350 86 -200 000/00 RMK AO1 T00890067
54779K12N 12N20160519230009905/19/16 23:00:31  5-MIN K12N 200400Z AUTO 00000KT 09/06 A3018 350 83 -200 000/00 RMK AO1 T00890061
54779K12N 12N20160519230509905/19/16 23:05:31  5-MIN K12N 200405Z AUTO 00000KT 09/06 A3018 350 83 -200 000/00 RMK AO1 T00890061
54779K12N 12N20160519231009905/19/16 23:10:31  5-MIN K12N 200410Z AUTO 00000KT 08/06 A3018 350 82 -300 000/00 RMK AO1 T00830056
54779K12N 12N20160519231509905/19/16 23:15:31  5-MIN K12N 200415Z AUTO 00000KT 08/06 A3018 350 82 -300 000/00 RMK AO1 T00830056
54779K12N 12N20160519232009905/19/16 23:20:31  5-MIN K12N 200420Z AUTO 00000KT 08/06 A3018 350 82 -300 000/00 RMK AO1 T00830056
54779K12N 12N20160519232509905/19/16 23:25:31  5-MIN K12N 200425Z AUTO 00000KT 08/05 A3018 340 79 -300 000/00 RMK AO1 T00830050
54779K12N 12N20160519233009905/19/16 23:30:31  5-MIN K12N 200430Z AUTO 00000KT 08/06 A3018 340 86 -400 000/00 RMK AO1 T00780056
54779K12N 12N20160519233509905/19/16 23:35:31  5-MIN K12N 200435Z AUTO 00000KT 08/06 A3018 340 86 -400 000/00 RMK AO1 T00780056
54779K12N 12N20160519234009905/19/16 23:40:31  5-MIN K12N 200440Z AUTO 00000KT 08/06 A3018 340 86 -400 000/00 RMK AO1 T00780056
54779K12N 12N20160519234509905/19/16 23:45:31  5-MIN K12N 200445Z AUTO 00000KT 08/06 A3019 340 86 -400 000/00 RMK AO1 T00780056
54779K12N 12N20160519235011605/19/16 23:50:31  5-MIN K12N 200450Z AUTO 00000KT 08/06 A3019 340 86 -400 000/00 RMK AO1 SLP221 T00780056 402220078
54779K12N 12N20160519235509905/19/16 23:55:31  5-MIN K12N 200455Z AUTO 00000KT 08/06 A3019 340 86 -400 000/00 RMK AO1 T00780056
54779K12N 12N20160520000009905/20/16 00:00:31  5-MIN K12N 200500Z AUTO 00000KT 08/06 A3018 340 86 -400 000/00 RMK AO1 T00780056
54779K12N 12N20160520000509905/20/16 00:05:31  5-MIN K12N 200505Z AUTO 00000KT 08/06 A3018 340 86 -400 000/00 RMK AO1 T00780056
54779K12N 12N20160520001009905/20/16 00:10:31  5-MIN K12N 200510Z AUTO 00000KT 07/05 A3018 340 86 -400 000/00 RMK AO1 T00720050
54779K12N 12N20160520001509905/20/16 00:15:31  5-MIN K12N 200515Z AUTO 00000KT 07/05 A3019 340 86 -400 000/00 RMK AO1 T00720050
54779K12N 12N20160520002009905/20/16 00:20:31  5-MIN K12N 200520Z AUTO 00000KT 07/05 A3019 340 86 -400 000/00 RMK AO1 T00720050
54779K12N 12N20160520002509905/20/16 00:25:31  5-MIN K12N 200525Z AUTO 00000KT 07/06 A3018 340 89 -400 000/00 RMK AO1 T00720056
54779K12N 12N20160520003009905/20/16 00:30:31  5-MIN K12N 200530Z AUTO 00000KT 07/05 A3018 340 86 -400 000/00 RMK AO1 T00720050
54779K12N 12N20160520003509905/20/16 00:35:31  5-MIN K12N 200535Z AUTO 00000KT 07/06 A3018 340 89 -400 000/00 RMK AO1 T00720056
54779K12N 12N20160520004009905/20/16 00:40:31  5-MIN K12N 200540Z AUTO 00000KT 07/05 A3018 340 86 -400 000/00 RMK AO1 T00720050
54779K12N 12N20160520004509905/20/16 00:45:31  5-MIN K12N 200545Z AUTO 00000KT 07/05 A3018 340 89 -500 000/00 RMK AO1 T00670050
54779K12N 12N20160520005012405/20/16 00:50:31  5-MIN K12N 200550Z AUTO 00000KT 07/05 A3018 340 89 -500 000/00 RMK AO1 SLP220 T00670050 10178 20067 51021
54779K12N 12N20160520005509905/20/16 00:55:31  5-MIN K12N 200555Z AUTO 00000KT 07/05 A3018 340 89 -500 000/00 RMK AO1 T00670050
54779K12N 12N20160520010009905/20/16 01:00:31  5-MIN K12N 200600Z AUTO 00000KT 07/05 A3018 340 89 -500 000/00 RMK AO1 T00670050
54779K12N 12N20160520010509905/20/16 01:05:31  5-MIN K12N 200605Z AUTO 00000KT 07/05 A3018 340 89 -500 000/00 RMK AO1 T00670050
54779K12N 12N20160520011009905/20/16 01:10:31  5-MIN K12N 200610Z AUTO 00000KT 07/05 A3018 350 89 -500 000/00 RMK AO1 T00670050
54779K12N 12N20160520011509905/20/16 01:15:31  5-MIN K12N 200615Z AUTO 00000KT 07/05 A3018 340 89 -500 000/00 RMK AO1 T00670050
54779K12N 12N20160520012009905/20/16 01:20:31  5-MIN K12N 200620Z AUTO 00000KT 07/04 A3018 350 86 -500 000/00 RMK AO1 T00670044
54779K12N 12N20160520012509905/20/16 01:25:31  5-MIN K12N 200625Z AUTO 00000KT 07/05 A3018 340 89 -500 000/00 RMK AO1 T00670050
54779K12N 12N20160520013009905/20/16 01:30:31  5-MIN K12N 200630Z AUTO 00000KT 07/05 A3018 340 89 -500 000/00 RMK AO1 T00670050
54779K12N 12N20160520013509905/20/16 01:35:31  5-MIN K12N 200635Z AUTO 00000KT 07/05 A3018 340 89 -500 000/00 RMK AO1 T00670050
54779K12N 12N20160520014009905/20/16 01:40:31  5-MIN K12N 200640Z AUTO 00000KT 07/05 A3018 350 89 -500 000/00 RMK AO1 T00670050
54779K12N 12N20160520014509905/20/16 01:45:31  5-MIN K12N 200645Z AUTO 00000KT 07/05 A3018 350 89 -500 000/00 RMK AO1 T00670050
54779K12N 12N20160520015010605/20/16 01:50:31  5-MIN K12N 200650Z AUTO 00000KT 06/05 A3018 340 93 -600 000/00 RMK AO1 SLP220 T00610050
54779K12N 12N20160520015509905/20/16 01:55:31  5-MIN K12N 200655Z AUTO 00000KT 06/04 A3018 340 89 -600 000/00 RMK AO1 T00610044
54779K12N 12N20160520020009905/20/16 02:00:31  5-MIN K12N 200700Z AUTO 00000KT 06/04 A3019 340 89 -600 000/00 RMK AO1 T00610044
54779K12N 12N20160520020509905/20/16 02:05:31  5-MIN K12N 200705Z AUTO 21003KT 06/05 A3019 340 93 -600 230/03 RMK AO1 T00610050
54779K12N 12N20160520021009905/20/16 02:10:31  5-MIN K12N 200710Z AUTO 00000KT 06/04 A3019 340 89 -600 000/00 RMK AO1 T00610044
54779K12N 12N20160520021509905/20/16 02:15:31  5-MIN K12N 200715Z AUTO 00000KT 06/04 A3019 340 89 -600 000/00 RMK AO1 T00610044
54779K12N 12N20160520022009905/20/16 02:20:31  5-MIN K12N 200720Z AUTO 00000KT 06/04 A3019 340 89 -600 000/00 RMK AO1 T00610044
54779K12N 12N20160520022509905/20/16 02:25:31  5-MIN K12N 200725Z AUTO 00000KT 06/04 A3019 340 89 -600 000/00 RMK AO1 T00610044
54779K12N 12N20160520023009905/20/16 02:30:31  5-MIN K12N 200730Z AUTO 00000KT 06/04 A3019 340 89 -600 000/00 RMK AO1 T00610044
54779K12N 12N20160520023509905/20/16 02:35:31  5-MIN K12N 200735Z AUTO 00000KT 06/04 A3019 340 89 -600 000/00 RMK AO1 T00610044
54779K12N 12N20160520024009905/20/16 02:40:31  5-MIN K12N 200740Z AUTO 00000KT 06/04 A3020 330 89 -600 000/00 RMK AO1 T00610044
54779K12N 12N20160520024509905/20/16 02:45:31  5-MIN K12N 200745Z AUTO 00000KT 06/04 A3020 330 92 -600 000/00 RMK AO1 T00560044
54779K12N 12N20160520025010605/20/16 02:50:31  5-MIN K12N 200750Z AUTO 00000KT 06/04 A3020 330 92 -600 000/00 RMK AO1 SLP226 T00560044
54779K12N 12N20160520025509905/20/16 02:55:31  5-MIN K12N 200755Z AUTO 00000KT 06/04 A3020 330 92 -600 000/00 RMK AO1 T00560044
54779K12N 12N20160520030009905/20/16 03:00:31  5-MIN K12N 200800Z AUTO 00000KT 06/04 A3020 330 92 -600 000/00 RMK AO1 T00560044
54779K12N 12N20160520030509905/20/16 03:05:31  5-MIN K12N 200805Z AUTO 00000KT 06/04 A3020 320 92 -600 000/00 RMK AO1 T00560044
54779K12N 12N20160520031009905/20/16 03:10:31  5-MIN K12N 200810Z AUTO 00000KT 06/04 A3021 320 92 -700 000/00 RMK AO1 T00560044
54779K12N 12N20160520031509905/20/16 03:15:31  5-MIN K12N 200815Z AUTO 00000KT 06/04 A3021 320 92 -700 000/00 RMK AO1 T00560044
54779K12N 12N20160520032009905/20/16 03:20:31  5-MIN K12N 200820Z AUTO 00000KT 06/04 A3021 320 92 -700 000/00 RMK AO1 T00560044
54779K12N 12N20160520032509905/20/16 03:25:31  5-MIN K12N 200825Z AUTO 00000KT 05/04 A3021 320 92 -700 000/00 RMK AO1 T00500039
54779K12N 12N20160520033009905/20/16 03:30:31  5-MIN K12N 200830Z AUTO 00000KT 06/04 A3021 320 89 -700 000/00 RMK AO1 T00560039
54779K12N 12N20160520033509905/20/16 03:35:31  5-MIN K12N 200835Z AUTO 00000KT 06/04 A3022 310 92 -700 000/00 RMK AO1 T00560044
54779K12N 12N20160520034009905/20/16 03:40:31  5-MIN K12N 200840Z AUTO 00000KT 06/04 A3022 310 92 -700 000/00 RMK AO1 T00560044
54779K12N 12N20160520034509905/20/16 03:45:31  5-MIN K12N 200845Z AUTO 00000KT 06/04 A3022 310 89 -700 000/00 RMK AO1 T00560039
54779K12N 12N20160520035011205/20/16 03:50:31  5-MIN K12N 200850Z AUTO 00000KT 05/04 A3022 310 92 -700 000/00 RMK AO1 SLP233 T00500039 50004
54779K12N 12N20160520035509905/20/16 03:55:31  5-MIN K12N 200855Z AUTO 00000KT 06/04 A3022 310 89 -700 000/00 RMK AO1 T00560039
54779K12N 12N20160520040009905/20/16 04:00:31  5-MIN K12N 200900Z AUTO 00000KT 05/04 A3022 310 92 -700 000/00 RMK AO1 T00500039
54779K12N 12N20160520040509905/20/16 04:05:31  5-MIN K12N 200905Z AUTO 00000KT 05/04 A3022 310 92 -700 000/00 RMK AO1 T00500039
54779K12N 12N20160520041009905/20/16 04:10:31  5-MIN K12N 200910Z AUTO 00000KT 05/04 A3023 300 92 -700 000/00 RMK AO1 T00500039
54779K12N 12N20160520041509905/20/16 04:15:31  5-MIN K12N 200915Z AUTO 00000KT 05/03 A3023 300 89 -700 000/00 RMK AO1 T00500033
54779K12N 12N20160520042009905/20/16 04:20:31  5-MIN K12N 200920Z AUTO 00000KT 05/03 A3023 300 89 -700 000/00 RMK AO1 T00500033
54779K12N 12N20160520042509905/20/16 04:25:31  5-MIN K12N 200925Z AUTO 00000KT 05/03 A3023 300 89 -700 000/00 RMK AO1 T00500033
54779K12N 12N20160520043009905/20/16 04:30:31  5-MIN K12N 200930Z AUTO 00000KT 05/03 A3023 300 89 -700 000/00 RMK AO1 T00500033
54779K12N 12N20160520043509905/20/16 04:35:31  5-MIN K12N 200935Z AUTO 00000KT 05/03 A3023 300 89 -700 000/00 RMK AO1 T00500033
54779K12N 12N20160520044009905/20/16 04:40:31  5-MIN K12N 200940Z AUTO 00000KT 05/03 A3023 300 89 -700 000/00 RMK AO1 T00500033
54779K12N 12N20160520044509905/20/16 04:45:31  5-MIN K12N 200945Z AUTO 00000KT 05/03 A3023 300 89 -700 000/00 RMK AO1 T00500033
54779K12N 12N20160520045010605/20/16 04:50:31  5-MIN K12N 200950Z AUTO 00000KT 05/03 A3023 300 89 -700 000/00 RMK AO1 SLP236 T00500033
54779K12N 12N20160520045509905/20/16 04:55:31  5-MIN K12N 200955Z AUTO 00000KT 05/03 A3023 300 89 -700 000/00 RMK AO1 T00500033
54779K12N 12N20160520050009905/20/16 05:00:31  5-MIN K12N 201000Z AUTO 00000KT 05/03 A3023 300 89 -700 000/00 RMK AO1 T00500033
54779K12N 12N20160520050509905/20/16 05:05:31  5-MIN K12N 201005Z AUTO 00000KT 05/03 A3023 300 89 -700 000/00 RMK AO1 T00500033
54779K12N 12N20160520051009905/20/16 05:10:31  5-MIN K12N 201010Z AUTO 00000KT 05/03 A3023 300 89 -700 000/00 RMK AO1 T00500033
54779K12N 12N20160520051509905/20/16 05:15:31  5-MIN K12N 201015Z AUTO 00000KT 05/04 A3023 300 92 -800 000/00 RMK AO1 T00500039
54779K12N 12N20160520052009905/20/16 05:20:31  5-MIN K12N 201020Z AUTO 00000KT 05/04 A3023 300 92 -800 000/00 RMK AO1 T00500039
54779K12N 12N20160520052509905/20/16 05:25:31  5-MIN K12N 201025Z AUTO 00000KT 06/04 A3024 290 89 -700 000/00 RMK AO1 T00560039
54779K12N 12N20160520053009905/20/16 05:30:31  5-MIN K12N 201030Z AUTO 00000KT 06/04 A3024 290 89 -700 000/00 RMK AO1 T00560039
54779K12N 12N20160520053509905/20/16 05:35:31  5-MIN K12N 201035Z AUTO 00000KT 06/04 A3024 290 92 -700 000/00 RMK AO1 T00560044
54779K12N 12N20160520054009905/20/16 05:40:31  5-MIN K12N 201040Z AUTO 00000KT 06/04 A3024 290 92 -700 000/00 RMK AO1 T00560044
54779K12N 12N20160520054509905/20/16 05:45:31  5-MIN K12N 201045Z AUTO 00000KT 06/05 A3024 290 93 -600 000/00 RMK AO1 T00610050
54779K12N 12N20160520055010605/20/16 05:50:31  5-MIN K12N 201050Z AUTO 00000KT 06/06 A3024 290 96 -600 000/00 RMK AO1 SLP241 T00610056
54779K12N 12N20160520055509905/20/16 05:55:31  5-MIN K12N 201055Z AUTO 00000KT 07/06 A3024 290 93 -600 000/00 RMK AO1 T00670056
54779K12N 12N20160520060009905/20/16 06:00:31  5-MIN K12N 201100Z AUTO 00000KT 07/06 A3024 290 96 -600 000/00 RMK AO1 T00670061
54779K12N 12N20160520060509905/20/16 06:05:31  5-MIN K12N 201105Z AUTO 00000KT 07/06 A3025 280 96 -600 000/00 RMK AO1 T00670061
54779K12N 12N20160520061009905/20/16 06:10:31  5-MIN K12N 201110Z AUTO 00000KT 07/06 A3025 280 96 -600 000/00 RMK AO1 T00670061
54779K12N 12N20160520061509905/20/16 06:15:31  5-MIN K12N 201115Z AUTO 00000KT 07/06 A3025 280 93 -500 000/00 RMK AO1 T00720061
54779K12N 12N20160520062009905/20/16 06:20:31  5-MIN K12N 201120Z AUTO 00000KT 07/07 A3025 280 96 -500 000/00 RMK AO1 T00720067
54779K12N 12N20160520062509905/20/16 06:25:31  5-MIN K12N 201125Z AUTO 00000KT 07/06 A3026 280 93 -500 000/00 RMK AO1 T00720061
54779K12N 12N20160520063009905/20/16 06:30:31  5-MIN K12N 201130Z AUTO 00000KT 07/06 A3026 270 93 -500 000/00 RMK AO1 T00720061
54779K12N 12N20160520063509905/20/16 06:35:31  5-MIN K12N 201135Z AUTO 00000KT 08/07 A3026 270 93 -400 000/00 RMK AO1 T00780067
54779K12N 12N20160520064009905/20/16 06:40:31  5-MIN K12N 201140Z AUTO 00000KT 08/06 A3026 270 89 -400 000/00 RMK AO1 T00780061
54779K12N 12N20160520064509905/20/16 06:45:31  5-MIN K12N 201145Z AUTO 00000KT 08/06 A3027 270 86 -400 000/00 RMK AO1 T00830061
54779K12N 12N20160520065012405/20/16 06:50:31  5-MIN K12N 201150Z AUTO 00000KT 08/07 A3027 260 89 -400 000/00 RMK AO1 SLP250 T00830067 10083 20050 53014
54779K12N 12N20160520065509905/20/16 06:55:31  5-MIN K12N 201155Z AUTO 00000KT 09/07 A3027 260 89 -300 000/00 RMK AO1 T00890072
54779K12N 12N20160520070009905/20/16 07:00:31  5-MIN K12N 201200Z AUTO 00000KT 09/07 A3027 260 86 -300 000/00 RMK AO1 T00940072
54779K12N 12N20160520070509905/20/16 07:05:31  5-MIN K12N 201205Z AUTO 00000KT 09/07 A3027 260 86 -300 000/00 RMK AO1 T00940072
54779K12N 12N20160520071009905/20/16 07:10:31  5-MIN K12N 201210Z AUTO 00000KT 10/08 A3028 260 86 -200 000/00 RMK AO1 T01000078
54779K12N 12N20160520071509905/20/16 07:15:31  5-MIN K12N 201215Z AUTO 00000KT 11/08 A3028 260 83 -100 000/00 RMK AO1 T01060078
54779K12N 12N20160520072009905/20/16 07:20:31  5-MIN K12N 201220Z AUTO 00000KT 11/07 A3028 260 77 -100 000/00 RMK AO1 T01110072
54779K12N 12N20160520202009805/20/16 20:20:31  5-MIN K12N 210120Z AUTO VRB05KT 18/06 A3019 340 42 800 VRB/05 RMK AO1 T01830056
54779K12N 12N20160520202509805/20/16 20:25:31  5-MIN K12N 210125Z AUTO VRB06KT 18/06 A3019 340 44 800 VRB/06 RMK AO1 T01780056
54779K12N 12N20160520203009805/20/16 20:30:31  5-MIN K12N 210130Z AUTO VRB06KT 18/06 A3019 340 44 800 VRB/06 RMK AO1 T01780056
54779K12N 12N20160520203509805/20/16 20:35:31  5-MIN K12N 210135Z AUTO VRB05KT 18/06 A3019 330 44 800 VRB/05 RMK AO1 T01780056
54779K12N 12N20160520204009805/20/16 20:40:31  5-MIN K12N 210140Z AUTO VRB04KT 18/06 A3019 330 44 800 VRB/04 RMK AO1 T01780056
54779K12N 12N20160520204509805/20/16 20:45:31  5-MIN K12N 210145Z AUTO 19004KT 18/06 A3019 330 44 800 200/04 RMK AO1 T01780056
54779K12N 12N20160520205010505/20/16 20:50:31  5-MIN K12N 210150Z AUTO 21003KT 17/06 A3020 330 46 700 220/03 RMK AO1 SLP222 T01720056
54779K12N 12N20160520205509805/20/16 20:55:31  5-MIN K12N 210155Z AUTO VRB03KT 17/06 A3020 330 46 700 VRB/03 RMK AO1 T01720056
54779K12N 12N20160520210009805/20/16 21:00:31  5-MIN K12N 210200Z AUTO 23004KT 17/06 A3020 330 47 600 240/04 RMK AO1 T01670056
54779K12N 12N20160520210509805/20/16 21:05:31  5-MIN K12N 210205Z AUTO 00000KT 16/06 A3020 330 51 600 000/00 RMK AO1 T01610061
54779K12N 12N20160520211009805/20/16 21:10:31  5-MIN K12N 210210Z AUTO 00000KT 16/07 A3020 330 57 500 000/00 RMK AO1 T01560072
54779K12N 12N20160520211509805/20/16 21:15:31  5-MIN K12N 210215Z AUTO 00000KT 16/07 A3020 330 55 500 000/00 RMK AO1 T01560067
54779K12N 12N20160520212009805/20/16 21:20:31  5-MIN K12N 210220Z AUTO 00000KT 15/07 A3020 330 59 400 000/00 RMK AO1 T01500072
54779K12N 12N20160520212509805/20/16 21:25:31  5-MIN K12N 210225Z AUTO 00000KT 16/07 A3020 330 55 500 000/00 RMK AO1 T01560067
54779K12N 12N20160520213009805/20/16 21:30:31  5-MIN K12N 210230Z AUTO 00000KT 14/07 A3020 330 61 400 000/00 RMK AO1 T01440072
54779K12N 12N20160520213509805/20/16 21:35:31  5-MIN K12N 210235Z AUTO 00000KT 15/08 A3020 330 62 400 000/00 RMK AO1 T01500078
54779K12N 12N20160520214009805/20/16 21:40:31  5-MIN K12N 210240Z AUTO 00000KT 14/08 A3020 330 64 400 000/00 RMK AO1 T01440078
54779K12N 12N20160520214509805/20/16 21:45:31  5-MIN K12N 210245Z AUTO 00000KT 14/07 A3020 330 61 400 000/00 RMK AO1 T01440072
54779K12N 12N20160520215011105/20/16 21:50:31  5-MIN K12N 210250Z AUTO 00000KT 14/09 A3020 330 71 300 000/00 RMK AO1 SLP223 T01390089 55004
54779K12N 12N20160520215509805/20/16 21:55:31  5-MIN K12N 210255Z AUTO 00000KT 13/08 A3020 330 71 200 000/00 RMK AO1 T01330083
54779K12N 12N20160520220009805/20/16 22:00:31  5-MIN K12N 210300Z AUTO 00000KT 14/07 A3020 330 64 300 000/00 RMK AO1 T01390072
54779K12N 12N20160520220509805/20/16 22:05:31  5-MIN K12N 210305Z AUTO 00000KT 14/07 A3020 330 64 300 000/00 RMK AO1 T01390072
54779K12N 12N20160520221009805/20/16 22:10:31  5-MIN K12N 210310Z AUTO 00000KT 14/08 A3020 320 66 300 000/00 RMK AO1 T01390078
54779K12N 12N20160520221509805/20/16 22:15:31  5-MIN K12N 210315Z AUTO 00000KT 14/07 A3020 320 64 300 000/00 RMK AO1 T01390072
54779K12N 12N20160520222009805/20/16 22:20:31  5-MIN K12N 210320Z AUTO 00000KT 13/07 A3020 320 66 200 000/00 RMK AO1 T01330072
54779K12N 12N20160520222509805/20/16 22:25:31  5-MIN K12N 210325Z AUTO 00000KT 13/07 A3020 320 66 200 000/00 RMK AO1 T01330072
54779K12N 12N20160520223009805/20/16 22:30:31  5-MIN K12N 210330Z AUTO 00000KT 13/07 A3020 330 66 200 000/00 RMK AO1 T01330072
54779K12N 12N20160520223509805/20/16 22:35:31  5-MIN K12N 210335Z AUTO 00000KT 13/08 A3020 330 71 200 000/00 RMK AO1 T01330083
54779K12N 12N20160520224009805/20/16 22:40:31  5-MIN K12N 210340Z AUTO 00000KT 13/08 A3020 330 71 200 000/00 RMK AO1 T01280078
54779K12N 12N20160520224509805/20/16 22:45:31  5-MIN K12N 210345Z AUTO 00000KT 13/07 A3020 320 66 200 000/00 RMK AO1 T01330072
54779K12N 12N20160520225010505/20/16 22:50:31  5-MIN K12N 210350Z AUTO 00000KT 13/08 A3021 320 71 200 000/00 RMK AO1 SLP226 T01280078
54779K12N 12N20160520225509805/20/16 22:55:31  5-MIN K12N 210355Z AUTO 00000KT 13/08 A3020 320 71 200 000/00 RMK AO1 T01280078
54779K12N 12N20160520230009805/20/16 23:00:31  5-MIN K12N 210400Z AUTO 00000KT 13/08 A3020 320 74 200 000/00 RMK AO1 T01280083
54779K12N 12N20160520230509805/20/16 23:05:31  5-MIN K12N 210405Z AUTO 00000KT 13/08 A3020 330 71 200 000/00 RMK AO1 T01280078
54779K12N 12N20160520231009805/20/16 23:10:31  5-MIN K12N 210410Z AUTO 00000KT 13/08 A3020 330 71 200 000/00 RMK AO1 T01280078
54779K12N 12N20160520231509805/20/16 23:15:31  5-MIN K12N 210415Z AUTO 00000KT 13/08 A3020 330 71 200 000/00 RMK AO1 T01280078
54779K12N 12N20160520232009805/20/16 23:20:31  5-MIN K12N 210420Z AUTO 00000KT 13/08 A3020 330 71 200 000/00 RMK AO1 T01280078
54779K12N 12N20160520232509805/20/16 23:25:31  5-MIN K12N 210425Z AUTO 00000KT 13/07 A3020 330 66 200 000/00 RMK AO1 T01330072
54779K12N 12N20160520233009805/20/16 23:30:31  5-MIN K12N 210430Z AUTO 00000KT 13/08 A3020 330 69 200 000/00 RMK AO1 T01330078
54779K12N 12N20160520233509805/20/16 23:35:31  5-MIN K12N 210435Z AUTO 00000KT 13/08 A3020 330 71 200 000/00 RMK AO1 T01280078
54779K12N 12N20160520234009805/20/16 23:40:31  5-MIN K12N 210440Z AUTO 21003KT 13/08 A3020 330 71 200 230/03 RMK AO1 T01280078
54779K12N 12N20160520234509805/20/16 23:45:31  5-MIN K12N 210445Z AUTO 00000KT 13/08 A3020 330 71 200 000/00 RMK AO1 T01280078
54779K12N 12N20160520235011505/20/16 23:50:31  5-MIN K12N 210450Z AUTO 00000KT 12/08 A3019 330 77 100 000/00 RMK AO1 SLP222 T01220083 402440050
54779K12N 12N20160520235509805/20/16 23:55:31  5-MIN K12N 210455Z AUTO 23003KT 12/08 A3019 330 77 100 240/03 RMK AO1 T01220083
54779K12N 12N20160521000009805/21/16 00:00:31  5-MIN K12N 210500Z AUTO 00000KT 12/08 A3019 340 74 100 000/00 RMK AO1 T01220078
54779K12N 12N20160521000509805/21/16 00:05:31  5-MIN K12N 210505Z AUTO 00000KT 12/08 A3019 340 77 100 000/00 RMK AO1 T01170078
54779K12N 12N20160521001009805/21/16 00:10:31  5-MIN K12N 210510Z AUTO 00000KT 12/08 A3019 340 74 100 000/00 RMK AO1 T01220078
54779K12N 12N20160521001509805/21/16 00:15:31  5-MIN K12N 210515Z AUTO 00000KT 12/08 A3019 340 74 100 000/00 RMK AO1 T01220078
54779K12N 12N20160521002009805/21/16 00:20:31  5-MIN K12N 210520Z AUTO 22003KT 12/08 A3019 340 80 100 240/03 RMK AO1 T01170083
54779K12N 12N20160521002509805/21/16 00:25:31  5-MIN K12N 210525Z AUTO 00000KT 12/08 A3019 340 80 100 000/00 RMK AO1 T01170083
54779K12N 12N20160521003009605/21/16 00:30:31  5-MIN K12N 210530Z AUTO 00000KT 11/08 A3019 340 83 0 000/00 RMK AO1 T01110083
54779K12N 12N20160521003509605/21/16 00:35:31  5-MIN K12N 210535Z AUTO 00000KT 11/08 A3018 340 83 0 000/00 RMK AO1 T01060078
54779K12N 12N20160521004009605/21/16 00:40:31  5-MIN K12N 210540Z AUTO 00000KT 11/08 A3018 350 83 0 000/00 RMK AO1 T01060078
54779K12N 12N20160521004509605/21/16 00:45:31  5-MIN K12N 210545Z AUTO 00000KT 11/08 A3018 350 80 0 000/00 RMK AO1 T01110078
54779K12N 12N20160521005012105/21/16 00:50:31  5-MIN K12N 210550Z AUTO 00000KT 11/08 A3018 350 80 0 000/00 RMK AO1 SLP216 T01110078 10189 20106 51010
54779K12N 12N20160521005509605/21/16 00:55:31  5-MIN K12N 210555Z AUTO 00000KT 11/07 A3018 350 80 0 000/00 RMK AO1 T01060072
54779K12N 12N20160521010009605/21/16 01:00:31  5-MIN K12N 210600Z AUTO 00000KT 11/07 A3018 350 80 0 000/00 RMK AO1 T01060072
54779K12N 12N20160521010509605/21/16 01:05:31  5-MIN K12N 210605Z AUTO 00000KT 11/07 A3018 350 80 0 000/00 RMK AO1 T01060072
54779K12N 12N20160521011009605/21/16 01:10:31  5-MIN K12N 210610Z AUTO 00000KT 11/08 A3017 350 83 0 000/00 RMK AO1 T01060078
54779K12N 12N20160521011509605/21/16 01:15:31  5-MIN K12N 210615Z AUTO 00000KT 11/08 A3017 350 83 0 000/00 RMK AO1 T01060078
54779K12N 12N20160521012009905/21/16 01:20:31  5-MIN K12N 210620Z AUTO 00000KT 10/08 A3017 350 86 -100 000/00 RMK AO1 T01000078
54779K12N 12N20160521012509905/21/16 01:25:31  5-MIN K12N 210625Z AUTO 00000KT 10/08 A3017 350 86 -100 000/00 RMK AO1 T01000078
54779K12N 12N20160521013009905/21/16 01:30:31  5-MIN K12N 210630Z AUTO 00000KT 10/08 A3017 350 86 -100 000/00 RMK AO1 T01000078
54779K12N 12N20160521013509905/21/16 01:35:31  5-MIN K12N 210635Z AUTO 00000KT 10/08 A3017 360 86 -100 000/00 RMK AO1 T01000078
54779K12N 12N20160521014009905/21/16 01:40:31  5-MIN K12N 210640Z AUTO 00000KT 10/08 A3017 360 86 -100 000/00 RMK AO1 T01000078
54779K12N 12N20160521014509905/21/16 01:45:31  5-MIN K12N 210645Z AUTO 00000KT 10/08 A3017 360 86 -100 000/00 RMK AO1 T01000078
54779K12N 12N20160521015010605/21/16 01:50:31  5-MIN K12N 210650Z AUTO 00000KT 10/08 A3017 360 86 -100 000/00 RMK AO1 SLP213 T01000078
54779K12N 12N20160521015509905/21/16 01:55:31  5-MIN K12N 210655Z AUTO 00000KT 09/07 A3017 360 86 -100 000/00 RMK AO1 T00940072
54779K12N 12N20160521020009905/21/16 02:00:31  5-MIN K12N 210700Z AUTO 00000KT 09/07 A3017 360 86 -100 000/00 RMK AO1 T00940072
54779K12N 12N20160521020509905/21/16 02:05:31  5-MIN K12N 210705Z AUTO 00000KT 09/07 A3017 360 83 -100 000/00 RMK AO1 T00940067
54779K12N 12N20160521021009905/21/16 02:10:31  5-MIN K12N 210710Z AUTO 00000KT 09/07 A3016 360 86 -100 000/00 RMK AO1 T00940072
54779K12N 12N20160521021509905/21/16 02:15:31  5-MIN K12N 210715Z AUTO 00000KT 09/07 A3017 360 86 -100 000/00 RMK AO1 T00940072
54779K12N 12N20160521022009905/21/16 02:20:31  5-MIN K12N 210720Z AUTO 00000KT 09/07 A3017 360 89 -200 000/00 RMK AO1 T00890072
54779K12N 12N20160521022509905/21/16 02:25:31  5-MIN K12N 210725Z AUTO 00000KT 09/07 A3017 360 86 -100 000/00 RMK AO1 T00940072
54779K12N 12N20160521023009905/21/16 02:30:31  5-MIN K12N 210730Z AUTO 00000KT 09/07 A3017 360 86 -100 000/00 RMK AO1 T00940072
54779K12N 12N20160521023509905/21/16 02:35:31  5-MIN K12N 210735Z AUTO 00000KT 09/07 A3017 360 89 -200 000/00 RMK AO1 T00890072
54779K12N 12N20160521024009905/21/16 02:40:31  5-MIN K12N 210740Z AUTO 00000KT 09/07 A3017 360 86 -200 000/00 RMK AO1 T00890067
54779K12N 12N20160521024509905/21/16 02:45:31  5-MIN K12N 210745Z AUTO 00000KT 09/07 A3017 350 86 -200 000/00 RMK AO1 T00890067
54779K12N 12N20160521025010605/21/16 02:50:31  5-MIN K12N 210750Z AUTO 00000KT 09/07 A3017 350 86 -200 000/00 RMK AO1 SLP215 T00890067
54779K12N 12N20160521025509905/21/16 02:55:31  5-MIN K12N 210755Z AUTO 00000KT 09/07 A3017 350 86 -200 000/00 RMK AO1 T00890067
54779K12N 12N20160521030009905/21/16 03:00:31  5-MIN K12N 210800Z AUTO 00000KT 08/06 A3018 350 86 -300 000/00 RMK AO1 T00830061
54779K12N 12N20160521030509905/21/16 03:05:31  5-MIN K12N 210805Z AUTO 00000KT 08/06 A3017 350 86 -300 000/00 RMK AO1 T00830061
54779K12N 12N20160521031009905/21/16 03:10:31  5-MIN K12N 210810Z AUTO 00000KT 08/06 A3017 350 86 -300 000/00 RMK AO1 T00830061
54779K12N 12N20160521031509905/21/16 03:15:31  5-MIN K12N 210815Z AUTO 00000KT 08/07 A3017 360 89 -300 000/00 RMK AO1 T00830067
54779K12N 12N20160521032009905/21/16 03:20:31  5-MIN K12N 210820Z AUTO 00000KT 08/07 A3017 360 89 -300 000/00 RMK AO1 T00830067
54779K12N 12N20160521032509905/21/16 03:25:31  5-MIN K12N 210825Z AUTO 00000KT 09/07 A3017 350 86 -200 000/00 RMK AO1 T00890067
54779K12N 12N20160521033009905/21/16 03:30:31  5-MIN K12N 210830Z AUTO 00000KT 09/07 A3017 350 86 -200 000/00 RMK AO1 T00890067
54779K12N 12N20160521033509905/21/16 03:35:31  5-MIN K12N 210835Z AUTO 00000KT 09/07 A3017 360 86 -200 000/00 RMK AO1 T00890067
54779K12N 12N20160521034009905/21/16 03:40:31  5-MIN K12N 210840Z AUTO 00000KT 09/07 A3017 360 86 -200 000/00 RMK AO1 T00890067
54779K12N 12N20160521034509905/21/16 03:45:31  5-MIN K12N 210845Z AUTO 00000KT 09/07 A3017 350 89 -200 000/00 RMK AO1 T00890072
54779K12N 12N20160521035011205/21/16 03:50:31  5-MIN K12N 210850Z AUTO 00000KT 09/07 A3017 350 89 -200 000/00 RMK AO1 SLP214 T00890072 58007
54779K12N 12N20160521035509905/21/16 03:55:31  5-MIN K12N 210855Z AUTO 00000KT 09/07 A3017 350 89 -200 000/00 RMK AO1 T00890072
54779K12N 12N20160521040009905/21/16 04:00:31  5-MIN K12N 210900Z AUTO 00000KT 09/07 A3017 350 89 -200 000/00 RMK AO1 T00890072
54779K12N 12N20160521040509905/21/16 04:05:31  5-MIN K12N 210905Z AUTO 00000KT 09/07 A3017 360 89 -200 000/00 RMK AO1 T00890072
54779K12N 12N20160521041009905/21/16 04:10:31  5-MIN K12N 210910Z AUTO 00000KT 09/07 A3017 360 86 -200 000/00 RMK AO1 T00890067
54779K12N 12N20160521041509905/21/16 04:15:31  5-MIN K12N 210915Z AUTO 00000KT 09/07 A3017 360 86 -200 000/00 RMK AO1 T00890067
54779K12N 12N20160521042009905/21/16 04:20:31  5-MIN K12N 210920Z AUTO 00000KT 09/07 A3017 360 86 -200 000/00 RMK AO1 T00890067
54779K12N 12N20160521042509905/21/16 04:25:31  5-MIN K12N 210925Z AUTO 00000KT 09/07 A3017 360 86 -200 000/00 RMK AO1 T00890067
54779K12N 12N20160521043009905/21/16 04:30:31  5-MIN K12N 210930Z AUTO 00000KT 08/07 A3016 360 89 -300 000/00 RMK AO1 T00830067
54779K12N 12N20160521043509905/21/16 04:35:31  5-MIN K12N 210935Z AUTO 00000KT 09/07 A3016 360 86 -200 000/00 RMK AO1 T00890067
54779K12N 12N20160521044009905/21/16 04:40:31  5-MIN K12N 210940Z AUTO 00000KT 09/07 A3016 360 86 -200 000/00 RMK AO1 T00890067
54779K12N 12N20160521044509905/21/16 04:45:31  5-MIN K12N 210945Z AUTO 00000KT 09/07 A3016 360 89 -200 000/00 RMK AO1 T00890072
54779K12N 12N20160521045010605/21/16 04:50:31  5-MIN K12N 210950Z AUTO 00000KT 09/07 A3016 360 89 -200 000/00 RMK AO1 SLP210 T00890072
54779K12N 12N20160521045509905/21/16 04:55:31  5-MIN K12N 210955Z AUTO 00000KT 09/07 A3016 370 89 -200 000/00 RMK AO1 T00890072
54779K12N 12N20160521050009905/21/16 05:00:31  5-MIN K12N 211000Z AUTO 00000KT 09/07 A3016 370 86 -100 000/00 RMK AO1 T00940072
54779K12N 12N20160521050509905/21/16 05:05:31  5-MIN K12N 211005Z AUTO 00000KT 09/08 A3016 370 89 -100 000/00 RMK AO1 T00940078
54779K12N 12N20160521051009905/21/16 05:10:31  5-MIN K12N 211010Z AUTO 00000KT 09/08 A3015 370 89 -100 000/00 RMK AO1 T00940078
54779K12N 12N20160521051509905/21/16 05:15:31  5-MIN K12N 211015Z AUTO 00000KT 09/08 A3015 370 89 -100 000/00 RMK AO1 T00940078
54779K12N 12N20160521052009605/21/16 05:20:31  5-MIN K12N 211020Z AUTO 00000KT 10/08 A3015 370 86 0 000/00 RMK AO1 T01000078
54779K12N 12N20160521052509605/21/16 05:25:31  5-MIN K12N 211025Z AUTO 00000KT 10/08 A3015 370 86 0 000/00 RMK AO1 T01000078
54779K12N 12N20160521053009605/21/16 05:30:31  5-MIN K12N 211030Z AUTO 00000KT 10/08 A3015 380 86 0 000/00 RMK AO1 T01000078
54779K12N 12N20160521053509605/21/16 05:35:31  5-MIN K12N 211035Z AUTO 00000KT 10/08 A3015 370 86 0 000/00 RMK AO1 T01000078
54779K12N 12N20160521054009605/21/16 05:40:31  5-MIN K12N 211040Z AUTO 00000KT 10/08 A3015 370 86 0 000/00 RMK AO1 T01000078
54779K12N 12N20160521054509605/21/16 05:45:31  5-MIN K12N 211045Z AUTO 00000KT 10/08 A3015 370 86 0 000/00 RMK AO1 T01000078
54779K12N 12N20160521055010305/21/16 05:50:31  5-MIN K12N 211050Z AUTO 00000KT 11/08 A3015 370 83 0 000/00 RMK AO1 SLP206 T01060078
54779K12N 12N20160521055509605/21/16 05:55:31  5-MIN K12N 211055Z AUTO 00000KT 11/08 A3015 370 83 0 000/00 RMK AO1 T01060078
54779K12N 12N20160521060009605/21/16 06:00:31  5-MIN K12N 211100Z AUTO 00000KT 11/08 A3015 370 86 0 000/00 RMK AO1 T01060083
54779K12N 12N20160521060509605/21/16 06:05:31  5-MIN K12N 211105Z AUTO 00000KT 11/08 A3015 380 83 0 000/00 RMK AO1 T01110083
54779K12N 12N20160521061009605/21/16 06:10:31  5-MIN K12N 211110Z AUTO 00000KT 11/08 A3014 380 83 0 000/00 RMK AO1 T01110083
54779K12N 12N20160521061509605/21/16 06:15:31  5-MIN K12N 211115Z AUTO 00000KT 11/08 A3015 380 83 0 000/00 RMK AO1 T01110083
54779K12N 12N20160521062009605/21/16 06:20:31  5-MIN K12N 211120Z AUTO 00000KT 11/08 A3014 380 83 0 000/00 RMK AO1 T01110083
54779K12N 12N20160521062509605/21/16 06:25:31  5-MIN K12N 211125Z AUTO 00000KT 11/08 A3014 380 80 0 000/00 RMK AO1 T01110078
54779K12N 12N20160521063009605/21/16 06:30:31  5-MIN K12N 211130Z AUTO 00000KT 11/08 A3015 380 80 0 000/00 RMK AO1 T01110078
54779K12N 12N20160521063509605/21/16 06:35:31  5-MIN K12N 211135Z AUTO 00000KT 11/08 A3015 370 80 0 000/00 RMK AO1 T01110078
54779K12N 12N20160521064009605/21/16 06:40:31  5-MIN K12N 211140Z AUTO 00000KT 11/08 A3015 370 83 0 000/00 RMK AO1 T01110083
54779K12N 12N20160521064509805/21/16 06:45:31  5-MIN K12N 211145Z AUTO 00000KT 12/08 A3015 370 80 100 000/00 RMK AO1 T01170083
54779K12N 12N20160521065012305/21/16 06:50:31  5-MIN K12N 211150Z AUTO 00000KT 12/08 A3015 380 80 100 000/00 RMK AO1 SLP207 T01170083 10117 20083 56002
54779K12N 12N20160521065509805/21/16 06:55:31  5-MIN K12N 211155Z AUTO 00000KT 12/08 A3015 380 77 100 000/00 RMK AO1 T01170078
54779K12N 12N20160521070009805/21/16 07:00:31  5-MIN K12N 211200Z AUTO 00000KT 12/08 A3015 370 74 200 000/00 RMK AO1 T01220078
54779K12N 12N20160521070509805/21/16 07:05:31  5-MIN K12N 211205Z AUTO 00000KT 12/07 A3015 380 74 100 000/00 RMK AO1 T01170072
54779K12N 12N20160521071009805/21/16 07:10:31  5-MIN K12N 211210Z AUTO 00000KT 12/08 A3015 380 77 100 000/00 RMK AO1 T01170078
54779K12N 12N20160521071509805/21/16 07:15:31  5-MIN K12N 211215Z AUTO 00000KT 12/08 A3014 380 74 200 000/00 RMK AO1 T01220078
54779K12N 12N20160521072009805/21/16 07:20:31  5-MIN K12N 211220Z AUTO 00000KT 12/08 A3014 380 74 200 000/00 RMK AO1 T01220078
54779K12N 12N20160521072509805/21/16 07:25:31  5-MIN K12N 211225Z AUTO 00000KT 12/08 A3014 380 74 200 000/00 RMK AO1 T01220078
54779K12N 12N20160521073009805/21/16 07:30:31  5-MIN K12N 211230Z AUTO 00000KT 12/08 A3014 380 74 200 000/00 RMK AO1 T01220078
54779K12N 12N20160521073509805/21/16 07:35:31  5-MIN K12N 211235Z AUTO 00000KT 12/08 A3014 380 74 200 000/00 RMK AO1 T01220078
54779K12N 12N20160521074009805/21/16 07:40:31  5-MIN K12N 211240Z AUTO 00000KT 12/08 A3014 390 74 200 000/00 RMK AO1 T01220078
54779K12N 12N20160521074509805/21/16 07:45:31  5-MIN K12N 211245Z AUTO 00000KT 12/08 A3014 390 74 200 000/00 RMK AO1 T01220078
54779K12N 12N20160521075010505/21/16 07:50:31  5-MIN K12N 211250Z AUTO 00000KT 13/08 A3014 390 71 300 000/00 RMK AO1 SLP202 T01280078
54779K12N 12N20160521075509805/21/16 07:55:31  5-MIN K12N 211255Z AUTO 00000KT 12/08 A3014 390 77 200 000/00 RMK AO1 T01220083
54779K12N 12N20160521080009805/21/16 08:00:31  5-MIN K12N 211300Z AUTO 00000KT 13/08 A3014 390 74 300 000/00 RMK AO1 T01280083
54779K12N 12N20160521080509805/21/16 08:05:31  5-MIN K12N 211305Z AUTO 00000KT 13/08 A3013 390 74 300 000/00 RMK AO1 T01280083
54779K12N 12N20160521081009805/21/16 08:10:31  5-MIN K12N 211310Z AUTO 00000KT 13/08 A3013 390 74 300 000/00 RMK AO1 T01280083
54779K12N 12N20160521081509805/21/16 08:15:31  5-MIN K12N 211315Z AUTO 00000KT 13/08 A3013 390 74 300 000/00 RMK AO1 T01280083
54779K12N 12N20160521082009805/21/16 08:20:31  5-MIN K12N 211320Z AUTO 00000KT 13/08 A3013 390 74 300 000/00 RMK AO1 T01280083
54779K12N 12N20160521082509805/21/16 08:25:31  5-MIN K12N 211325Z AUTO 00000KT 13/08 A3013 390 74 300 000/00 RMK AO1 T01280083
54779K12N 12N20160521083009805/21/16 08:30:31  5-MIN K12N 211330Z AUTO 00000KT 13/08 A3013 390 74 300 000/00 RMK AO1 T01280083
54779K12N 12N20160521083509805/21/16 08:35:31  5-MIN K12N 211335Z AUTO 00000KT 13/08 A3013 390 71 300 000/00 RMK AO1 T01330083
54779K12N 12N20160521084009805/21/16 08:40:31  5-MIN K12N 211340Z AUTO 00000KT 13/08 A3013 390 71 300 000/00 RMK AO1 T01330083
54779K12N 12N20160521084509805/21/16 08:45:31  5-MIN K12N 211345Z AUTO 00000KT 13/09 A3013 390 74 300 000/00 RMK AO1 T01330089
54779K12N 12N20160521085010505/21/16 08:50:31  5-MIN K12N 211350Z AUTO 00000KT 13/09 A3013 390 74 300 000/00 RMK AO1 SLP200 T01330089
54779K12N 12N20160521085509805/21/16 08:55:31  5-MIN K12N 211355Z AUTO 03003KT 13/09 A3012 400 74 300 040/03 RMK AO1 T01330089
54779K12N 12N20160521090009805/21/16 09:00:31  5-MIN K12N 211400Z AUTO 00000KT 13/09 A3012 410 74 300 000/00 RMK AO1 T01330089
54779K12N 12N20160521090509805/21/16 09:05:31  5-MIN K12N 211405Z AUTO VRB03KT 13/09 A3012 400 74 300 VRB/03 RMK AO1 T01330089
54779K12N 12N20160521091009805/21/16 09:10:31  5-MIN K12N 211410Z AUTO VRB03KT 13/09 A3011 410 74 300 VRB/03 RMK AO1 T01330089
54779K12N 12N20160521091509805/21/16 09:15:31  5-MIN K12N 211415Z AUTO 01003KT 14/09 A3011 410 74 400 020/03 RMK AO1 T01390094
54779K12N 12N20160521092009805/21/16 09:20:31  5-MIN K12N 211420Z AUTO 05003KT 14/09 A3011 410 74 400 060/03 RMK AO1 T01390094
54779K12N 12N20160521092509805/21/16 09:25:31  5-MIN K12N 211425Z AUTO 24003KT 14/10 A3012 400 77 400 250/03 RMK AO1 T01390100
54779K12N 12N20160521093009805/21/16 09:30:31  5-MIN K12N 211430Z AUTO 00000KT 14/09 A3011 410 74 400 000/00 RMK AO1 T01390094
54779K12N 12N20160521093509805/21/16 09:35:31  5-MIN K12N 211435Z AUTO 00000KT 14/10 A3011 410 74 500 000/00 RMK AO1 T01440100
54779K12N 12N20160521094009805/21/16 09:40:31  5-MIN K12N 211440Z AUTO 00000KT 15/10 A3011 410 72 600 000/00 RMK AO1 T01500100
54779K12N 12N20160521094509805/21/16 09:45:31  5-MIN K12N 211445Z AUTO 23003KT 15/11 A3011 410 74 500 240/03 RMK AO1 T01500106
54779K12N 12N20160521095011105/21/16 09:50:31  5-MIN K12N 211450Z AUTO VRB03KT 16/09 A3011 410 67 600 VRB/03 RMK AO1 SLP194 T01560094 56007
54779K12N 12N20160521095509805/21/16 09:55:31  5-MIN K12N 211455Z AUTO VRB05KT 16/08 A3011 410 59 700 VRB/05 RMK AO1 T01610083
54779K12N 12N20160521100009805/21/16 10:00:31  5-MIN K12N 211500Z AUTO VRB04KT 16/07 A3011 410 55 700 VRB/04 RMK AO1 T01610072
54779K12N 12N20160521100509805/21/16 10:05:31  5-MIN K12N 211505Z AUTO 00000KT 16/07 A3011 410 53 700 000/00 RMK AO1 T01610067
54779K12N 12N20160521101009805/21/16 10:10:31  5-MIN K12N 211510Z AUTO 00000KT 16/07 A3010 420 53 700 000/00 RMK AO1 T01610067
54779K12N 12N20160521101509805/21/16 10:15:31  5-MIN K12N 211515Z AUTO 00000KT 16/06 A3010 420 51 700 000/00 RMK AO1 T01610061
54779K12N 12N20160521102009805/21/16 10:20:31  5-MIN K12N 211520Z AUTO 00000KT 17/07 A3010 420 51 800 000/00 RMK AO1 T01670067
54779K12N 12N20160521102509805/21/16 10:25:31  5-MIN K12N 211525Z AUTO VRB03KT 17/06 A3010 420 49 800 VRB/03 RMK AO1 T01670061
54779K12N 12N20160521103009805/21/16 10:30:31  5-MIN K12N 211530Z AUTO 00000KT 17/06 A3009 430 49 800 000/00 RMK AO1 T01670061
54779K12N 12N20160521103509805/21/16 10:35:31  5-MIN K12N 211535Z AUTO 00000KT 17/07 A3009 430 49 800 000/00 RMK AO1 T01720067
54779K12N 12N20160521104009805/21/16 10:40:31  5-MIN K12N 211540Z AUTO 00000KT 18/06 A3009 430 44 900 000/00 RMK AO1 T01780056
54779K12N 12N20160521104509805/21/16 10:45:31  5-MIN K12N 211545Z AUTO VRB03KT 17/06 A3008 430 47 800 VRB/03 RMK AO1 T01720061
54779K12N 12N20160521105010505/21/16 10:50:31  5-MIN K12N 211550Z AUTO 22003KT 17/06 A3008 430 46 800 240/03 RMK AO1 SLP185 T01720056
54779K12N 12N20160521105509805/21/16 10:55:31  5-MIN K12N 211555Z AUTO VRB05KT 17/06 A3008 430 46 800 VRB/05 RMK AO1 T01720056
54779K12N 12N20160521110009805/21/16 11:00:31  5-MIN K12N 211600Z AUTO 00000KT 17/05 A3009 430 44 800 000/00 RMK AO1 T01720050
54779K12N 12N20160521110509805/21/16 11:05:31  5-MIN K12N 211605Z AUTO VRB05KT 17/06 A3009 430 46 800 VRB/05 RMK AO1 T01720056
54779K12N 12N20160521111009805/21/16 11:10:31  5-MIN K12N 211610Z AUTO 00000KT 17/06 A3008 430 46 800 000/00 RMK AO1 T01720056
54779K12N 12N20160521111509805/21/16 11:15:31  5-MIN K12N 211615Z AUTO VRB03KT 17/06 A3008 430 46 800 VRB/03 RMK AO1 T01720056
54779K12N 12N20160521112009805/21/16 11:20:31  5-MIN K12N 211620Z AUTO VRB04KT 17/05 A3008 440 44 800 VRB/04 RMK AO1 T01720050
54779K12N 12N20160521112509805/21/16 11:25:31  5-MIN K12N 211625Z AUTO VRB03KT 18/06 A3008 440 44 900 VRB/03 RMK AO1 T01780056
54779K12N 12N20160521113009805/21/16 11:30:31  5-MIN K12N 211630Z AUTO VRB04KT 18/06 A3008 440 44 900 VRB/04 RMK AO1 T01780056
54779K12N 12N20160521113509805/21/16 11:35:31  5-MIN K12N 211635Z AUTO VRB03KT 18/06 A3008 430 44 900 VRB/03 RMK AO1 T01780056
54779K12N 12N20160521114009805/21/16 11:40:31  5-MIN K12N 211640Z AUTO VRB03KT 18/06 A3008 440 44 900 VRB/03 RMK AO1 T01780056
54779K12N 12N20160521114509805/21/16 11:45:31  5-MIN K12N 211645Z AUTO 16005KT 17/06 A3007 450 46 900 180/05 RMK AO1 T01720056
54779K12N 12N20160521115010505/21/16 11:50:31  5-MIN K12N 211650Z AUTO 16004KT 18/06 A3007 440 44 900 170/04 RMK AO1 SLP182 T01780056
54779K12N 12N20160521115509905/21/16 11:55:31  5-MIN K12N 211655Z AUTO VRB04KT 18/06 A3007 450 42 1000 VRB/04 RMK AO1 T01830056
54779K12N 12N20160521120009805/21/16 12:00:31  5-MIN K12N 211700Z AUTO 00000KT 18/06 A3007 450 44 900 000/00 RMK AO1 T01780056
54779K12N 12N20160521120508905/21/16 12:05:31  5-MIN K12N 211705Z AUTO 18/06 A3007 450 42 1000 M /M RMK AO1 T01830056
54779K12N 12N20160521121009805/21/16 12:10:31  5-MIN K12N 211710Z AUTO VRB05KT 18/06 A3007 450 44 900 VRB/05 RMK AO1 T01780056
54779K12N 12N20160521121509805/21/16 12:15:31  5-MIN K12N 211715Z AUTO 00000KT 18/06 A3007 450 46 900 000/00 RMK AO1 T01780061
54779K12N 12N20160521122009905/21/16 12:20:31  5-MIN K12N 211720Z AUTO 00000KT 18/06 A3007 450 42 1000 000/00 RMK AO1 T01830056
54779K12N 12N20160521122509805/21/16 12:25:31  5-MIN K12N 211725Z AUTO VRB03KT 18/06 A3006 450 44 900 VRB/03 RMK AO1 T01780056
54779K12N 12N20160521123011405/21/16 12:30:31  5-MIN K12N 211730Z AUTO 14007KT 100V190 17/05 A3006 460 44 900 160/07 110V200 RMK AO1 T01720050
54779K12N 12N20160521123508805/21/16 12:35:31  5-MIN K12N 211735Z AUTO 17/04 A3005 460 42 900 M /M RMK AO1 T01720044
54779K12N 12N20160521124009805/21/16 12:40:31  5-MIN K12N 211740Z AUTO VRB06KT 17/05 A3005 470 44 900 VRB/06 RMK AO1 T01720050
54779K12N 12N20160521124509805/21/16 12:45:31  5-MIN K12N 211745Z AUTO VRB05KT 17/05 A3004 470 44 900 VRB/05 RMK AO1 T01720050
54779K12N 12N20160521125012305/21/16 12:50:31  5-MIN K12N 211750Z AUTO VRB03KT 17/06 A3005 470 46 900 VRB/03 RMK AO1 SLP174 T01720056 10183 20117 56013
54779K12N 12N20160521125509805/21/16 12:55:31  5-MIN K12N 211755Z AUTO 00000KT 18/06 A3005 470 46 900 000/00 RMK AO1 T01780061
54779K12N 12N20160521130009805/21/16 13:00:31  5-MIN K12N 211800Z AUTO VRB03KT 17/06 A3004 470 47 900 VRB/03 RMK AO1 T01720061
54779K12N 12N20160521130509905/21/16 13:05:31  5-MIN K12N 211805Z AUTO 00000KT 18/06 A3004 480 46 1000 000/00 RMK AO1 T01780061
54779K12N 12N20160521131009905/21/16 13:10:31  5-MIN K12N 211810Z AUTO VRB03KT 18/06 A3003 480 44 1000 VRB/03 RMK AO1 T01780056
54779K12N 12N20160521131509905/21/16 13:15:31  5-MIN K12N 211815Z AUTO 00000KT 18/06 A3003 480 44 1000 000/00 RMK AO1 T01780056
54779K12N 12N20160521132009905/21/16 13:20:31  5-MIN K12N 211820Z AUTO 00000KT 18/05 A3003 490 41 1000 000/00 RMK AO1 T01830050
54779K12N 12N20160521132509905/21/16 13:25:31  5-MIN K12N 211825Z AUTO VRB03KT 18/04 A3002 490 39 1000 VRB/03 RMK AO1 T01780039
54779K12N 12N20160521133009905/21/16 13:30:31  5-MIN K12N 211830Z AUTO 13007KT 18/04 A3002 490 39 1000 140/07 RMK AO1 T01780039
54779K12N 12N20160521133509905/21/16 13:35:31  5-MIN K12N 211835Z AUTO VRB03KT 18/04 A3002 490 41 1000 VRB/03 RMK AO1 T01780044
54779K12N 12N20160521134009905/21/16 13:40:31  5-MIN K12N 211840Z AUTO VRB04KT 18/04 A3003 490 39 1000 VRB/04 RMK AO1 T01780039
54779K12N 12N20160521134509905/21/16 13:45:31  5-MIN K12N 211845Z AUTO VRB05KT 18/04 A3003 490 39 1000 VRB/05 RMK AO1 T01780039
54779K12N 12N20160521135010605/21/16 13:50:31  5-MIN K12N 211850Z AUTO VRB03KT 18/04 A3003 490 39 1000 VRB/03 RMK AO1 SLP167 T01780039
54779K12N 12N20160521135509805/21/16 13:55:31  5-MIN K12N 211855Z AUTO VRB05KT 17/04 A3002 490 41 900 VRB/05 RMK AO1 T01720039
54779K12N 12N20160521140009805/21/16 14:00:31  5-MIN K12N 211900Z AUTO VRB04KT 17/03 A3002 490 39 900 VRB/04 RMK AO1 T01720033
54779K12N 12N20160521140509905/21/16 14:05:31  5-MIN K12N 211905Z AUTO VRB04KT 18/04 A3002 490 39 1000 VRB/04 RMK AO1 T01780039
54779K12N 12N20160521141009905/21/16 14:10:31  5-MIN K12N 211910Z AUTO 00000KT 18/04 A3002 500 39 1000 000/00 RMK AO1 T01780039
54779K12N 12N20160521141509905/21/16 14:15:31  5-MIN K12N 211915Z AUTO VRB03KT 18/04 A3001 500 39 1000 VRB/03 RMK AO1 T01830044
54779K12N 12N20160521142008905/21/16 14:20:31  5-MIN K12N 211920Z AUTO 18/04 A3001 500 39 1000 M /M RMK AO1 T01830044
54779K12N 12N20160521142509905/21/16 14:25:31  5-MIN K12N 211925Z AUTO VRB05KT 18/04 A3001 500 39 1000 VRB/05 RMK AO1 T01780039
54779K12N 12N20160521143009905/21/16 14:30:31  5-MIN K12N 211930Z AUTO VRB04KT 18/04 A3001 500 39 1000 VRB/04 RMK AO1 T01780039
54779K12N 12N20160521143509805/21/16 14:35:31  5-MIN K12N 211935Z AUTO VRB03KT 17/03 A3001 500 39 900 VRB/03 RMK AO1 T01720033
54779K12N 12N20160521144009805/21/16 14:40:31  5-MIN K12N 211940Z AUTO VRB04KT 17/03 A3001 510 39 900 VRB/04 RMK AO1 T01720033
54779K12N 12N20160521144509805/21/16 14:45:31  5-MIN K12N 211945Z AUTO VRB03KT 17/04 A3001 500 41 900 VRB/03 RMK AO1 T01720039
54779K12N 12N20160521145010605/21/16 14:50:31  5-MIN K12N 211950Z AUTO VRB03KT 18/04 A3001 500 39 1000 VRB/03 RMK AO1 SLP161 T01780039
54779K12N 12N20160521145508805/21/16 14:55:31  5-MIN K12N 211955Z AUTO 17/03 A3001 500 39 900 M /M RMK AO1 T01720033
54779K12N 12N20160521150009805/21/16 15:00:31  5-MIN K12N 212000Z AUTO VRB05KT 17/03 A3001 510 39 900 VRB/05 RMK AO1 T01720033
54779K12N 12N20160521150509805/21/16 15:05:31  5-MIN K12N 212005Z AUTO 00000KT 17/03 A3001 500 37 900 000/00 RMK AO1 T01720028
54779K12N 12N20160521151009805/21/16 15:10:31  5-MIN K12N 212010Z AUTO VRB04KT 17/03 A3001 510 37 900 VRB/04 RMK AO1 T01720028
54779K12N 12N20160521151509805/21/16 15:15:31  5-MIN K12N 212015Z AUTO VRB04KT 17/04 A3000 510 41 900 VRB/04 RMK AO1 T01720039
54779K12N 12N20160521152009805/21/16 15:20:31  5-MIN K12N 212020Z AUTO VRB04KT 17/04 A3000 510 41 900 VRB/04 RMK AO1 T01720039
54779K12N 12N20160521152509805/21/16 15:25:31  5-MIN K12N 212025Z AUTO VRB05KT 17/04 A3000 510 41 900 VRB/05 RMK AO1 T01720039
54779K12N 12N20160521153009905/21/16 15:30:31  5-MIN K12N 212030Z AUTO VRB04KT 18/04 A3000 520 39 1000 VRB/04 RMK AO1 T01780039
54779K12N 12N20160521153509805/21/16 15:35:31  5-MIN K12N 212035Z AUTO 00000KT 17/04 A2999 520 41 900 000/00 RMK AO1 T01720039
54779K12N 12N20160521154009805/21/16 15:40:31  5-MIN K12N 212040Z AUTO VRB04KT 17/04 A2999 520 41 900 VRB/04 RMK AO1 T01720039
54779K12N 12N20160521154509805/21/16 15:45:31  5-MIN K12N 212045Z AUTO VRB03KT 17/03 A2999 520 39 900 VRB/03 RMK AO1 T01720033
54779K12N 12N20160521155011105/21/16 15:50:31  5-MIN K12N 212050Z AUTO 00000KT 17/04 A2998 530 41 900 000/00 RMK AO1 SLP153 T01720039 56020
54779K12N 12N20160521155509805/21/16 15:55:31  5-MIN K12N 212055Z AUTO VRB03KT 17/04 A2999 520 41 900 VRB/03 RMK AO1 T01720039
54779K12N 12N20160521160009805/21/16 16:00:31  5-MIN K12N 212100Z AUTO 16006KT 17/03 A2999 520 39 900 180/06 RMK AO1 T01670028
54779K12N 12N20160521160509805/21/16 16:05:31  5-MIN K12N 212105Z AUTO VRB04KT 17/03 A2999 520 39 900 VRB/04 RMK AO1 T01720033
54779K12N 12N20160521161009805/21/16 16:10:31  5-MIN K12N 212110Z AUTO VRB05KT 17/03 A2999 520 37 900 VRB/05 RMK AO1 T01720028
54779K12N 12N20160521161509805/21/16 16:15:31  5-MIN K12N 212115Z AUTO VRB03KT 17/03 A2999 520 39 900 VRB/03 RMK AO1 T01670028
54779K12N 12N20160521162009805/21/16 16:20:31  5-MIN K12N 212120Z AUTO VRB05KT 17/03 A2999 520 39 900 VRB/05 RMK AO1 T01670028
54779K12N 12N20160521162509805/21/16 16:25:31  5-MIN K12N 212125Z AUTO VRB03KT 17/03 A2998 530 39 900 VRB/03 RMK AO1 T01670028
54779K12N 12N20160521163009805/21/16 16:30:31  5-MIN K12N 212130Z AUTO VRB04KT 17/03 A2998 530 40 900 VRB/04 RMK AO1 T01670033
54779K12N 12N20160521163509805/21/16 16:35:31  5-MIN K12N 212135Z AUTO 00000KT 17/03 A2998 530 39 900 000/00 RMK AO1 T01670028
54779K12N 12N20160521164009805/21/16 16:40:31  5-MIN K12N 212140Z AUTO 00000KT 17/03 A2998 530 40 900 000/00 RMK AO1 T01670033
54779K12N 12N20160521164509805/21/16 16:45:31  5-MIN K12N 212145Z AUTO 00000KT 17/03 A2998 530 40 900 000/00 RMK AO1 T01670033
54779K12N 12N20160521165010505/21/16 16:50:31  5-MIN K12N 212150Z AUTO 00000KT 17/03 A2998 530 40 900 000/00 RMK AO1 SLP152 T01670033
54779K12N 12N20160521165509805/21/16 16:55:31  5-MIN K12N 212155Z AUTO 00000KT 17/04 A2998 530 42 900 000/00 RMK AO1 T01670039
54779K12N 12N20160521170009805/21/16 17:00:31  5-MIN K12N 212200Z AUTO VRB03KT 17/03 A2998 530 40 900 VRB/03 RMK AO1 T01670033
54779K12N 12N20160521170509805/21/16 17:05:31  5-MIN K12N 212205Z AUTO 00000KT 17/03 A2998 530 40 900 000/00 RMK AO1 T01670033
54779K12N 12N20160521171009805/21/16 17:10:31  5-MIN K12N 212210Z AUTO 00000KT 17/03 A2998 530 40 900 000/00 RMK AO1 T01670033
54779K12N 12N20160521171509805/21/16 17:15:31  5-MIN K12N 212215Z AUTO 06003KT 17/03 A2998 530 40 900 070/03 RMK AO1 T01670033
54779K12N 12N20160521172009805/21/16 17:20:31  5-MIN K12N 212220Z AUTO 00000KT 17/03 A2998 530 40 900 000/00 RMK AO1 T01670033
54779K12N 12N20160521172509805/21/16 17:25:31  5-MIN K12N 212225Z AUTO 00000KT 17/03 A2998 530 40 900 000/00 RMK AO1 T01670033
54779K12N 12N20160521173009805/21/16 17:30:31  5-MIN K12N 212230Z AUTO 15003KT 17/03 A2998 530 39 900 160/03 RMK AO1 T01670028
54779K12N 12N20160521173509805/21/16 17:35:31  5-MIN K12N 212235Z AUTO 00000KT 16/03 A2997 540 40 800 000/00 RMK AO1 T01610028
54779K12N 12N20160521174009805/21/16 17:40:31  5-MIN K12N 212240Z AUTO 00000KT 17/03 A2997 540 39 900 000/00 RMK AO1 T01670028
54779K12N 12N20160521174509805/21/16 17:45:31  5-MIN K12N 212245Z AUTO 00000KT 16/05 A2997 540 47 800 000/00 RMK AO1 T01610050
54779K12N 12N20160521175010505/21/16 17:50:31  5-MIN K12N 212250Z AUTO 00000KT 16/06 A2997 540 53 800 000/00 RMK AO1 SLP148 T01560061
54779K12N 12N20160521175509805/21/16 17:55:31  5-MIN K12N 212255Z AUTO 00000KT 16/07 A2997 540 55 800 000/00 RMK AO1 T01560067
54779K12N 12N20160521180009805/21/16 18:00:31  5-MIN K12N 212300Z AUTO 00000KT 15/07 A2997 540 59 700 000/00 RMK AO1 T01500072
54779K12N 12N20160521180509805/21/16 18:05:31  5-MIN K12N 212305Z AUTO 00000KT 15/08 A2996 540 62 700 000/00 RMK AO1 T01500078
54779K12N 12N20160521181009805/21/16 18:10:31  5-MIN K12N 212310Z AUTO 00000KT 15/07 A2996 540 59 700 000/00 RMK AO1 T01500072
54779K12N 12N20160521181509805/21/16 18:15:31  5-MIN K12N 212315Z AUTO 00000KT 15/07 A2996 550 59 700 000/00 RMK AO1 T01500072
54779K12N 12N20160521182009805/21/16 18:20:31  5-MIN K12N 212320Z AUTO 00000KT 14/08 A2996 550 64 700 000/00 RMK AO1 T01440078
54779K12N 12N20160521182509805/21/16 18:25:31  5-MIN K12N 212325Z AUTO 00000KT 14/08 A2996 550 66 600 000/00 RMK AO1 T01390078
54779K12N 12N20160521183009805/21/16 18:30:31  5-MIN K12N 212330Z AUTO 00000KT 13/08 A2995 550 71 500 000/00 RMK AO1 T01330083
54779K12N 12N20160521183510405/21/16 18:35:31  5-MIN K12N 212335Z AUTO 00000KT 13/08 A2996 550 74 500 000/00 RMK AO1 P0001 T01280083
54779K12N 12N20160521184010405/21/16 18:40:31  5-MIN K12N 212340Z AUTO 00000KT 12/09 A2995 550 83 400 000/00 RMK AO1 P0002 T01220094
54779K12N 12N20160521184510405/21/16 18:45:31  5-MIN K12N 212345Z AUTO 00000KT 12/10 A2996 550 86 400 000/00 RMK AO1 P0002 T01220100
54779K12N 12N20160521185013505/21/16 18:50:31  5-MIN K12N 212350Z AUTO 00000KT 12/10 A2995 550 89 300 000/00 RMK AO1 SLP144 P0002 60002 T01170100 10183 20117 56020
54779K12N 12N20160521185509805/21/16 18:55:31  5-MIN K12N 212355Z AUTO 00000KT 12/10 A2995 560 89 300 000/00 RMK AO1 T01170100
54779K12N 12N20160521190009805/21/16 19:00:31  5-MIN K12N 220000Z AUTO 00000KT 12/10 A2995 560 89 300 000/00 RMK AO1 T01170100
54779K12N 12N20160521190509805/21/16 19:05:31  5-MIN K12N 220005Z AUTO 00000KT 12/10 A2995 560 89 300 000/00 RMK AO1 T01170100
54779K12N 12N20160521191009805/21/16 19:10:31  5-MIN K12N 220010Z AUTO 00000KT 12/10 A2995 560 89 300 000/00 RMK AO1 T01170100
54779K12N 12N20160521191509805/21/16 19:15:31  5-MIN K12N 220015Z AUTO 00000KT 12/10 A2995 560 89 300 000/00 RMK AO1 T01170100
54779K12N 12N20160521192010405/21/16 19:20:31  5-MIN K12N 220020Z AUTO 00000KT 12/11 A2995 560 93 300 000/00 RMK AO1 P0001 T01170106
54779K12N 12N20160521192510405/21/16 19:25:31  5-MIN K12N 220025Z AUTO 00000KT 12/11 A2995 560 93 300 000/00 RMK AO1 P0001 T01170106
54779K12N 12N20160521193010405/21/16 19:30:31  5-MIN K12N 220030Z AUTO 00000KT 11/10 A2995 560 93 300 000/00 RMK AO1 P0001 T01110100
54779K12N 12N20160521193510405/21/16 19:35:31  5-MIN K12N 220035Z AUTO 00000KT 11/10 A2995 560 93 300 000/00 RMK AO1 P0001 T01110100
54779K12N 12N20160521194010405/21/16 19:40:31  5-MIN K12N 220040Z AUTO 00000KT 12/11 A2995 560 93 300 000/00 RMK AO1 P0001 T01170106
54779K12N 12N20160521194510405/21/16 19:45:31  5-MIN K12N 220045Z AUTO 00000KT 12/11 A2994 570 93 300 000/00 RMK AO1 P0001 T01170106
54779K12N 12N20160521195011105/21/16 19:50:31  5-MIN K12N 220050Z AUTO 00000KT 11/11 A2994 570 96 300 000/00 RMK AO1 SLP139 P0001 T01110106
54779K12N 12N20160521195509805/21/16 19:55:31  5-MIN K12N 220055Z AUTO 00000KT 11/11 A2994 570 96 300 000/00 RMK AO1 T01110106
54779K12N 12N20160521200009805/21/16 20:00:31  5-MIN K12N 220100Z AUTO 00000KT 12/11 A2994 570 93 300 000/00 RMK AO1 T01170106
54779K12N 12N20160521200509805/21/16 20:05:31  5-MIN K12N 220105Z AUTO 00000KT 12/11 A2994 570 93 300 000/00 RMK AO1 T01170106
54779K12N 12N20160521201009805/21/16 20:10:31  5-MIN K12N 220110Z AUTO 00000KT 12/11 A2994 570 93 300 000/00 RMK AO1 T01170106
54779K12N 12N20160521201509805/21/16 20:15:31  5-MIN K12N 220115Z AUTO 00000KT 12/11 A2994 570 93 300 000/00 RMK AO1 T01170106
54779K12N 12N20160521202009805/21/16 20:20:31  5-MIN K12N 220120Z AUTO 00000KT 12/11 A2994 570 93 300 000/00 RMK AO1 T01170106
54779K12N 12N20160521202509805/21/16 20:25:31  5-MIN K12N 220125Z AUTO 05003KT 12/11 A2994 570 93 300 070/03 RMK AO1 T01170106
54779K12N 12N20160521203009805/21/16 20:30:31  5-MIN K12N 220130Z AUTO 00000KT 12/10 A2994 570 89 300 000/00 RMK AO1 T01170100
54779K12N 12N20160521203509805/21/16 20:35:31  5-MIN K12N 220135Z AUTO 00000KT 12/10 A2994 570 89 300 000/00 RMK AO1 T01170100
54779K12N 12N20160521204010405/21/16 20:40:31  5-MIN K12N 220140Z AUTO 00000KT 12/10 A2994 560 89 300 000/00 RMK AO1 P0001 T01170100
54779K12N 12N20160521204510405/21/16 20:45:31  5-MIN K12N 220145Z AUTO 00000KT 11/10 A2994 560 93 300 000/00 RMK AO1 P0001 T01110100
54779K12N 12N20160521205011105/21/16 20:50:31  5-MIN K12N 220150Z AUTO 00000KT 11/10 A2994 560 93 300 000/00 RMK AO1 SLP140 P0002 T01110100
54779K12N 12N20160521205509805/21/16 20:55:31  5-MIN K12N 220155Z AUTO 00000KT 11/10 A2994 560 93 300 000/00 RMK AO1 T01110100
54779K12N 12N20160521210009805/21/16 21:00:31  5-MIN K12N 220200Z AUTO 00000KT 11/11 A2994 560 96 300 000/00 RMK AO1 T01110106
54779K12N 12N20160521210509805/21/16 21:05:31  5-MIN K12N 220205Z AUTO 00000KT 11/11 A2994 560 96 300 000/00 RMK AO1 T01110106
54779K12N 12N20160521211010405/21/16 21:10:31  5-MIN K12N 220210Z AUTO 00000KT 11/10 A2994 570 93 300 000/00 RMK AO1 P0001 T01110100
54779K12N 12N20160521211510405/21/16 21:15:31  5-MIN K12N 220215Z AUTO 00000KT 11/10 A2994 570 96 200 000/00 RMK AO1 P0002 T01060100
54779K12N 12N20160521212010405/21/16 21:20:31  5-MIN K12N 220220Z AUTO 00000KT 11/10 A2994 570 93 300 000/00 RMK AO1 P0003 T01110100
54779K12N 12N20160521212510405/21/16 21:25:31  5-MIN K12N 220225Z AUTO 00000KT 11/11 A2994 560 96 300 000/00 RMK AO1 P0003 T01110106
54779K12N 12N20160521213010405/21/16 21:30:31  5-MIN K12N 220230Z AUTO 00000KT 11/11 A2994 570 96 300 000/00 RMK AO1 P0004 T01110106
54779K12N 12N20160521213510405/21/16 21:35:31  5-MIN K12N 220235Z AUTO 00000KT 11/11 A2994 570 96 300 000/00 RMK AO1 P0005 T01110106
54779K12N 12N20160521214010405/21/16 21:40:31  5-MIN K12N 220240Z AUTO 00000KT 11/11 A2993 580 96 300 000/00 RMK AO1 P0006 T01110106
54779K12N 12N20160521214511105/21/16 21:45:31  5-MIN K12N 220245Z AUTO 00000KT 11/11 A2992 580 96 300 000/00 RMK AO1 PRESFR P0007 T01110106
54779K12N 12N20160521215013005/21/16 21:50:31  5-MIN K12N 220250Z AUTO 06003KT 11/11 A2992 590 96 300 070/03 RMK AO1 PRESFR SLP130 P0008 60011 T01110106 58012
54779K12N 12N20160521215509805/21/16 21:55:31  5-MIN K12N 220255Z AUTO 00000KT 11/11 A2991 590 96 300 000/00 RMK AO1 T01110106
54779K12N 12N20160521220010405/21/16 22:00:31  5-MIN K12N 220300Z AUTO 00000KT 11/10 A2991 600 93 300 000/00 RMK AO1 P0001 T01110100
54779K12N 12N20160521220510405/21/16 22:05:31  5-MIN K12N 220305Z AUTO 06003KT 11/10 A2990 600 93 300 070/03 RMK AO1 P0001 T01110100
54779K12N 12N20160521221010405/21/16 22:10:31  5-MIN K12N 220310Z AUTO 00000KT 11/10 A2991 600 93 300 000/00 RMK AO1 P0002 T01110100
54779K12N 12N20160521221510405/21/16 22:15:31  5-MIN K12N 220315Z AUTO 00000KT 11/10 A2990 600 93 300 000/00 RMK AO1 P0002 T01110100
54779K12N 12N20160521222010405/21/16 22:20:31  5-MIN K12N 220320Z AUTO 05003KT 11/10 A2990 600 93 300 060/03 RMK AO1 P0002 T01110100
54779K12N 12N20160521222510405/21/16 22:25:31  5-MIN K12N 220325Z AUTO 00000KT 11/10 A2990 600 96 300 000/00 RMK AO1 P0003 T01060100
54779K12N 12N20160521223010405/21/16 22:30:31  5-MIN K12N 220330Z AUTO 00000KT 11/10 A2990 600 96 300 000/00 RMK AO1 P0003 T01060100
54779K12N 12N20160521223510405/21/16 22:35:31  5-MIN K12N 220335Z AUTO 00000KT 11/10 A2990 600 93 300 000/00 RMK AO1 P0003 T01110100
54779K12N 12N20160521224010405/21/16 22:40:31  5-MIN K12N 220340Z AUTO 00000KT 11/10 A2990 600 93 300 000/00 RMK AO1 P0003 T01110100
54779K12N 12N20160521224510405/21/16 22:45:31  5-MIN K12N 220345Z AUTO 00000KT 11/10 A2990 600 96 300 000/00 RMK AO1 P0004 T01060100
54779K12N 12N20160521225011105/21/16 22:50:31  5-MIN K12N 220350Z AUTO 00000KT 11/10 A2990 600 96 300 000/00 RMK AO1 SLP125 P0005 T01060100
54779K12N 12N20160521225510405/21/16 22:55:31  5-MIN K12N 220355Z AUTO 00000KT 11/10 A2990 610 96 300 000/00 RMK AO1 P0001 T01060100
54779K12N 12N20160521230010405/21/16 23:00:31  5-MIN K12N 220400Z AUTO 00000KT 11/10 A2990 610 96 300 000/00 RMK AO1 P0001 T01060100
54779K12N 12N20160521230510405/21/16 23:05:31  5-MIN K12N 220405Z AUTO 00000KT 11/10 A2990 600 96 300 000/00 RMK AO1 P0002 T01060100
54779K12N 12N20160521231010405/21/16 23:10:31  5-MIN K12N 220410Z AUTO 00000KT 11/10 A2990 610 96 300 000/00 RMK AO1 P0002 T01060100
54779K12N 12N20160521231510405/21/16 23:15:31  5-MIN K12N 220415Z AUTO 05003KT 11/10 A2989 610 96 300 060/03 RMK AO1 P0002 T01060100
54779K12N 12N20160521232010405/21/16 23:20:31  5-MIN K12N 220420Z AUTO 06003KT 11/10 A2989 610 96 300 070/03 RMK AO1 P0002 T01060100
54779K12N 12N20160521232510405/21/16 23:25:31  5-MIN K12N 220425Z AUTO 05003KT 11/09 A2989 610 93 300 060/03 RMK AO1 P0003 T01060094
54779K12N 12N20160521233010405/21/16 23:30:31  5-MIN K12N 220430Z AUTO 04003KT 11/09 A2989 620 89 300 050/03 RMK AO1 P0003 T01110094
54779K12N 12N20160521233510405/21/16 23:35:31  5-MIN K12N 220435Z AUTO 05004KT 11/10 A2988 620 93 300 060/04 RMK AO1 P0003 T01110100
54779K12N 12N20160521234010405/21/16 23:40:31  5-MIN K12N 220440Z AUTO 05003KT 11/09 A2988 620 93 300 060/03 RMK AO1 P0003 T01060094
54779K12N 12N20160521234510405/21/16 23:45:31  5-MIN K12N 220445Z AUTO 00000KT 11/09 A2988 620 93 300 000/00 RMK AO1 P0003 T01060094
54779K12N 12N20160521235012105/21/16 23:50:31  5-MIN K12N 220450Z AUTO 00000KT 11/09 A2988 620 93 300 000/00 RMK AO1 SLP118 P0003 T01060094 401830083
54779K12N 12N20160521235509805/21/16 23:55:31  5-MIN K12N 220455Z AUTO 00000KT 11/09 A2988 620 93 300 000/00 RMK AO1 T01060094
54779K12N 12N20160522000009805/22/16 00:00:31  5-MIN K12N 220500Z AUTO 05003KT 11/09 A2988 620 93 300 070/03 RMK AO1 T01060094
54779K12N 12N20160522000509805/22/16 00:05:31  5-MIN K12N 220505Z AUTO 05003KT 11/09 A2988 620 93 300 060/03 RMK AO1 T01060094
54779K12N 12N20160522001010405/22/16 00:10:31  5-MIN K12N 220510Z AUTO 05004KT 11/09 A2988 620 89 300 060/04 RMK AO1 P0001 T01060089
54779K12N 12N20160522001510405/22/16 00:15:31  5-MIN K12N 220515Z AUTO 05003KT 11/09 A2988 620 89 300 060/03 RMK AO1 P0001 T01060089
54779K12N 12N20160522002010405/22/16 00:20:31  5-MIN K12N 220520Z AUTO 05004KT 10/09 A2988 630 93 200 060/04 RMK AO1 P0001 T01000089
54779K12N 12N20160522002510405/22/16 00:25:31  5-MIN K12N 220525Z AUTO 00000KT 10/09 A2987 640 93 200 000/00 RMK AO1 P0001 T01000089
54779K12N 12N20160522003010405/22/16 00:30:31  5-MIN K12N 220530Z AUTO VRB03KT 10/09 A2987 640 93 200 VRB/03 RMK AO1 P0001 T01000089
54779K12N 12N20160522003510405/22/16 00:35:31  5-MIN K12N 220535Z AUTO 06003KT 10/09 A2986 640 93 200 070/03 RMK AO1 P0001 T01000089
54779K12N 12N20160522004010405/22/16 00:40:31  5-MIN K12N 220540Z AUTO 06003KT 10/09 A2986 640 93 200 080/03 RMK AO1 P0001 T01000089
54779K12N 12N20160522004510405/22/16 00:45:31  5-MIN K12N 220545Z AUTO 05003KT 10/09 A2986 640 93 200 070/03 RMK AO1 P0001 T01000089
54779K12N 12N20160522005013505/22/16 00:50:31  5-MIN K12N 220550Z AUTO 05003KT 10/09 A2986 640 93 200 060/03 RMK AO1 SLP110 P0001 60020 T01000089 10117 20100 58013
54779K12N 12N20160522005509805/22/16 00:55:31  5-MIN K12N 220555Z AUTO 06003KT 10/09 A2986 640 96 200 070/03 RMK AO1 T01000094
54779K12N 12N20160522010009805/22/16 01:00:31  5-MIN K12N 220600Z AUTO 00000KT 10/09 A2986 640 96 200 000/00 RMK AO1 T01000094
54779K12N 12N20160522010509805/22/16 01:05:31  5-MIN K12N 220605Z AUTO 00000KT 10/09 A2986 640 96 200 000/00 RMK AO1 T01000094
54779K12N 12N20160522011009805/22/16 01:10:31  5-MIN K12N 220610Z AUTO 00000KT 10/09 A2986 640 96 200 000/00 RMK AO1 T01000094
54779K12N 12N20160522011509805/22/16 01:15:31  5-MIN K12N 220615Z AUTO 00000KT 11/09 A2986 640 93 300 000/00 RMK AO1 T01060094
54779K12N 12N20160522012009805/22/16 01:20:31  5-MIN K12N 220620Z AUTO 00000KT 11/09 A2986 650 93 300 000/00 RMK AO1 T01060094
54779K12N 12N20160522012509805/22/16 01:25:31  5-MIN K12N 220625Z AUTO 00000KT 11/09 A2986 650 93 300 000/00 RMK AO1 T01060094
54779K12N 12N20160522013009805/22/16 01:30:31  5-MIN K12N 220630Z AUTO 00000KT 11/09 A2985 650 93 300 000/00 RMK AO1 T01060094
54779K12N 12N20160522013509805/22/16 01:35:31  5-MIN K12N 220635Z AUTO 00000KT 11/09 A2985 650 93 300 000/00 RMK AO1 T01060094
54779K12N 12N20160522014009805/22/16 01:40:31  5-MIN K12N 220640Z AUTO 00000KT 11/09 A2985 650 93 300 000/00 RMK AO1 T01060094
54779K12N 12N20160522014509805/22/16 01:45:31  5-MIN K12N 220645Z AUTO 00000KT 11/09 A2984 660 93 300 000/00 RMK AO1 T01060094
54779K12N 12N20160522015010505/22/16 01:50:31  5-MIN K12N 220650Z AUTO 00000KT 11/09 A2984 660 93 300 000/00 RMK AO1 SLP105 T01060094
54779K12N 12N20160522015509805/22/16 01:55:31  5-MIN K12N 220655Z AUTO 00000KT 11/09 A2984 660 93 300 000/00 RMK AO1 T01060094
54779K12N 12N20160522020009805/22/16 02:00:31  5-MIN K12N 220700Z AUTO 00000KT 11/09 A2984 660 93 300 000/00 RMK AO1 T01060094
54779K12N 12N20160522020509805/22/16 02:05:31  5-MIN K12N 220705Z AUTO 00000KT 11/09 A2984 660 93 300 000/00 RMK AO1 T01060094
54779K12N 12N20160522021009805/22/16 02:10:31  5-MIN K12N 220710Z AUTO 00000KT 11/09 A2984 660 93 300 000/00 RMK AO1 T01060094
54779K12N 12N20160522021509805/22/16 02:15:31  5-MIN K12N 220715Z AUTO 00000KT 11/09 A2984 660 93 300 000/00 RMK AO1 T01060094
54779K12N 12N20160522022009805/22/16 02:20:31  5-MIN K12N 220720Z AUTO 00000KT 11/09 A2983 660 93 300 000/00 RMK AO1 T01060094
54779K12N 12N20160522022509805/22/16 02:25:31  5-MIN K12N 220725Z AUTO 00000KT 11/09 A2984 660 93 300 000/00 RMK AO1 T01060094
54779K12N 12N20160522023009805/22/16 02:30:31  5-MIN K12N 220730Z AUTO 00000KT 11/09 A2983 670 93 300 000/00 RMK AO1 T01060094
54779K12N 12N20160522023509805/22/16 02:35:31  5-MIN K12N 220735Z AUTO 00000KT 11/09 A2983 670 93 300 000/00 RMK AO1 T01060094
54779K12N 12N20160522024009805/22/16 02:40:31  5-MIN K12N 220740Z AUTO 00000KT 11/09 A2983 670 93 300 000/00 RMK AO1 T01060094
54779K12N 12N20160522024509805/22/16 02:45:31  5-MIN K12N 220745Z AUTO 00000KT 11/09 A2983 670 93 300 000/00 RMK AO1 T01060094
54779K12N 12N20160522025010505/22/16 02:50:31  5-MIN K12N 220750Z AUTO 00000KT 11/09 A2983 670 93 300 000/00 RMK AO1 SLP101 T01060094
54779K12N 12N20160522025509805/22/16 02:55:31  5-MIN K12N 220755Z AUTO 05003KT 11/09 A2983 670 93 300 070/03 RMK AO1 T01060094
54779K12N 12N20160522030009805/22/16 03:00:31  5-MIN K12N 220800Z AUTO 00000KT 11/09 A2983 670 93 300 000/00 RMK AO1 T01060094
54779K12N 12N20160522030509805/22/16 03:05:31  5-MIN K12N 220805Z AUTO 00000KT 11/09 A2983 670 93 300 000/00 RMK AO1 T01060094
54779K12N 12N20160522031009805/22/16 03:10:31  5-MIN K12N 220810Z AUTO 00000KT 11/09 A2983 670 93 300 000/00 RMK AO1 T01060094
54779K12N 12N20160522031509805/22/16 03:15:31  5-MIN K12N 220815Z AUTO 00000KT 11/09 A2983 670 93 300 000/00 RMK AO1 T01060094
54779K12N 12N20160522032009805/22/16 03:20:31  5-MIN K12N 220820Z AUTO 00000KT 11/09 A2983 670 93 300 000/00 RMK AO1 T01060094
54779K12N 12N20160522032509805/22/16 03:25:31  5-MIN K12N 220825Z AUTO 36003KT 11/09 A2983 670 93 300 010/03 RMK AO1 T01060094
54779K12N 12N20160522033009805/22/16 03:30:31  5-MIN K12N 220830Z AUTO 00000KT 11/09 A2984 660 93 300 000/00 RMK AO1 T01060094
54779K12N 12N20160522033509805/22/16 03:35:31  5-MIN K12N 220835Z AUTO 00000KT 11/09 A2984 660 93 300 000/00 RMK AO1 T01060094
54779K12N 12N20160522034009805/22/16 03:40:31  5-MIN K12N 220840Z AUTO 00000KT 11/09 A2984 660 93 300 000/00 RMK AO1 T01060094
54779K12N 12N20160522034509805/22/16 03:45:31  5-MIN K12N 220845Z AUTO 00000KT 11/09 A2984 660 93 300 000/00 RMK AO1 T01060094
54779K12N 12N20160522035011105/22/16 03:50:31  5-MIN K12N 220850Z AUTO 00000KT 11/09 A2984 660 93 300 000/00 RMK AO1 SLP104 T01060094 58019
54779K12N 12N20160522035509805/22/16 03:55:31  5-MIN K12N 220855Z AUTO 00000KT 11/10 A2984 660 96 300 000/00 RMK AO1 T01060100
54779K12N 12N20160522040009805/22/16 04:00:31  5-MIN K12N 220900Z AUTO 00000KT 11/10 A2984 660 96 300 000/00 RMK AO1 T01060100
54779K12N 12N20160522040509805/22/16 04:05:31  5-MIN K12N 220905Z AUTO 00000KT 11/09 A2984 660 93 300 000/00 RMK AO1 T01060094
54779K12N 12N20160522041009805/22/16 04:10:31  5-MIN K12N 220910Z AUTO 00000KT 11/09 A2984 660 93 300 000/00 RMK AO1 T01060094
54779K12N 12N20160522041509805/22/16 04:15:31  5-MIN K12N 220915Z AUTO 00000KT 11/09 A2984 660 93 300 000/00 RMK AO1 T01060094
54779K12N 12N20160522042009805/22/16 04:20:31  5-MIN K12N 220920Z AUTO 00000KT 11/09 A2984 660 93 300 000/00 RMK AO1 T01060094
54779K12N 12N20160522042509805/22/16 04:25:31  5-MIN K12N 220925Z AUTO 00000KT 11/09 A2984 660 93 300 000/00 RMK AO1 T01060094
54779K12N 12N20160522043009805/22/16 04:30:31  5-MIN K12N 220930Z AUTO 00000KT 11/09 A2984 660 93 300 000/00 RMK AO1 T01060094
54779K12N 12N20160522043509805/22/16 04:35:31  5-MIN K12N 220935Z AUTO 00000KT 11/09 A2984 660 93 300 000/00 RMK AO1 T01060094
54779K12N 12N20160522044009805/22/16 04:40:31  5-MIN K12N 220940Z AUTO 00000KT 11/09 A2984 660 93 300 000/00 RMK AO1 T01060094
54779K12N 12N20160522044509805/22/16 04:45:31  5-MIN K12N 220945Z AUTO 00000KT 11/09 A2984 660 93 300 000/00 RMK AO1 T01060094
54779K12N 12N20160522045010505/22/16 04:50:31  5-MIN K12N 220950Z AUTO 00000KT 11/09 A2985 650 93 300 000/00 RMK AO1 SLP105 T01060094
54779K12N 12N20160522045509805/22/16 04:55:31  5-MIN K12N 220955Z AUTO 00000KT 11/09 A2984 660 93 300 000/00 RMK AO1 T01060094
54779K12N 12N20160522050009805/22/16 05:00:31  5-MIN K12N 221000Z AUTO 00000KT 11/09 A2985 650 93 300 000/00 RMK AO1 T01060094
54779K12N 12N20160522050509805/22/16 05:05:31  5-MIN K12N 221005Z AUTO 00000KT 10/09 A2985 650 96 200 000/00 RMK AO1 T01000094
54779K12N 12N20160522051009805/22/16 05:10:31  5-MIN K12N 221010Z AUTO 00000KT 11/09 A2985 650 93 300 000/00 RMK AO1 T01060094
54779K12N 12N20160522051509805/22/16 05:15:31  5-MIN K12N 221015Z AUTO 00000KT 11/09 A2985 650 93 300 000/00 RMK AO1 T01060094
54779K12N 12N20160522052009805/22/16 05:20:31  5-MIN K12N 221020Z AUTO 00000KT 11/09 A2984 660 93 300 000/00 RMK AO1 T01060094
54779K12N 12N20160522052509805/22/16 05:25:31  5-MIN K12N 221025Z AUTO 00000KT 11/09 A2984 660 93 300 000/00 RMK AO1 T01060094
54779K12N 12N20160522053009805/22/16 05:30:31  5-MIN K12N 221030Z AUTO 00000KT 11/09 A2984 660 93 300 000/00 RMK AO1 T01060094
54779K12N 12N20160522053509805/22/16 05:35:31  5-MIN K12N 221035Z AUTO 00000KT 11/09 A2984 660 93 300 000/00 RMK AO1 T01060094
54779K12N 12N20160522054009805/22/16 05:40:31  5-MIN K12N 221040Z AUTO 00000KT 11/10 A2984 660 96 300 000/00 RMK AO1 T01060100
54779K12N 12N20160522054509805/22/16 05:45:31  5-MIN K12N 221045Z AUTO 00000KT 11/10 A2984 660 96 300 000/00 RMK AO1 T01060100
54779K12N 12N20160522055010505/22/16 05:50:31  5-MIN K12N 221050Z AUTO 00000KT 11/09 A2985 650 93 300 000/00 RMK AO1 SLP106 T01060094
54779K12N 12N20160522055509805/22/16 05:55:31  5-MIN K12N 221055Z AUTO 00000KT 11/09 A2985 650 93 300 000/00 RMK AO1 T01060094
54779K12N 12N20160522060009805/22/16 06:00:31  5-MIN K12N 221100Z AUTO 00000KT 11/09 A2985 650 93 300 000/00 RMK AO1 T01060094
54779K12N 12N20160522060509805/22/16 06:05:31  5-MIN K12N 221105Z AUTO 00000KT 11/09 A2985 650 93 300 000/00 RMK AO1 T01060094
54779K12N 12N20160522061009805/22/16 06:10:31  5-MIN K12N 221110Z AUTO 00000KT 11/09 A2985 650 89 400 000/00 RMK AO1 T01110094
54779K12N 12N20160522061509805/22/16 06:15:31  5-MIN K12N 221115Z AUTO 00000KT 11/10 A2985 650 93 400 000/00 RMK AO1 T01110100
54779K12N 12N20160522062009805/22/16 06:20:31  5-MIN K12N 221120Z AUTO 00000KT 11/09 A2985 650 89 400 000/00 RMK AO1 T01110094
54779K12N 12N20160522062509805/22/16 06:25:31  5-MIN K12N 221125Z AUTO 00000KT 11/09 A2985 650 89 400 000/00 RMK AO1 T01110094
54779K12N 12N20160522063009805/22/16 06:30:31  5-MIN K12N 221130Z AUTO 00000KT 11/09 A2985 650 89 400 000/00 RMK AO1 T01110094
54779K12N 12N20160522063509805/22/16 06:35:31  5-MIN K12N 221135Z AUTO 00000KT 11/09 A2985 650 89 400 000/00 RMK AO1 T01110094
54779K12N 12N20160522064009805/22/16 06:40:31  5-MIN K12N 221140Z AUTO 00000KT 12/09 A2985 650 86 400 000/00 RMK AO1 T01170094
54779K12N 12N20160522064509805/22/16 06:45:31  5-MIN K12N 221145Z AUTO 00000KT 12/10 A2985 650 89 400 000/00 RMK AO1 T01170100
54779K12N 12N20160522065012905/22/16 06:50:31  5-MIN K12N 221150Z AUTO 00000KT 12/09 A2985 650 83 500 000/00 RMK AO1 SLP109 70022 T01220094 10122 20100 55005
54779K12N 12N20160522065509805/22/16 06:55:31  5-MIN K12N 221155Z AUTO 00000KT 12/10 A2985 650 86 500 000/00 RMK AO1 T01220100
54779K12N 12N20160522070009805/22/16 07:00:31  5-MIN K12N 221200Z AUTO 00000KT 12/10 A2985 650 86 500 000/00 RMK AO1 T01220100
54779K12N 12N20160522070509805/22/16 07:05:31  5-MIN K12N 221205Z AUTO 00000KT 12/09 A2985 650 83 500 000/00 RMK AO1 T01220094
54779K12N 12N20160522071009805/22/16 07:10:31  5-MIN K12N 221210Z AUTO 00000KT 12/09 A2985 650 83 500 000/00 RMK AO1 T01220094
54779K12N 12N20160522071509805/22/16 07:15:31  5-MIN K12N 221215Z AUTO 00000KT 13/10 A2985 650 83 600 000/00 RMK AO1 T01280100
54779K12N 12N20160522072009805/22/16 07:20:31  5-MIN K12N 221220Z AUTO 35003KT 13/10 A2985 650 83 600 360/03 RMK AO1 T01280100
54779K12N 12N20160522072509805/22/16 07:25:31  5-MIN K12N 221225Z AUTO 36003KT 13/10 A2986 650 83 600 010/03 RMK AO1 T01280100
54779K12N 12N20160522073009805/22/16 07:30:31  5-MIN K12N 221230Z AUTO 35003KT 13/10 A2986 640 83 600 360/03 RMK AO1 T01280100
54779K12N 12N20160522073509805/22/16 07:35:31  5-MIN K12N 221235Z AUTO 00000KT 13/10 A2986 650 80 600 000/00 RMK AO1 T01330100
54779K12N 12N20160522074009805/22/16 07:40:31  5-MIN K12N 221240Z AUTO 00000KT 13/10 A2986 650 80 600 000/00 RMK AO1 T01330100
54779K12N 12N20160522074509805/22/16 07:45:31  5-MIN K12N 221245Z AUTO 00000KT 13/10 A2985 650 80 600 000/00 RMK AO1 T01330100
54779K12N 12N20160522075010505/22/16 07:50:31  5-MIN K12N 221250Z AUTO 05003KT 13/09 A2985 650 77 600 060/03 RMK AO1 SLP109 T01330094
54779K12N 12N20160522075509805/22/16 07:55:31  5-MIN K12N 221255Z AUTO 00000KT 13/09 A2985 650 77 600 000/00 RMK AO1 T01330094
54779K12N 12N20160522080009805/22/16 08:00:31  5-MIN K12N 221300Z AUTO VRB03KT 14/09 A2986 650 74 700 VRB/03 RMK AO1 T01390094
54779K12N 12N20160522080509805/22/16 08:05:31  5-MIN K12N 221305Z AUTO 04003KT 14/10 A2986 640 77 700 050/03 RMK AO1 T01390100
54779K12N 12N20160522081009805/22/16 08:10:31  5-MIN K12N 221310Z AUTO 05004KT 13/09 A2986 640 77 600 060/04 RMK AO1 T01330094
54779K12N 12N20160522081509805/22/16 08:15:31  5-MIN K12N 221315Z AUTO 00000KT 13/09 A2986 640 77 600 000/00 RMK AO1 T01330094
54779K12N 12N20160522082009805/22/16 08:20:31  5-MIN K12N 221320Z AUTO 02003KT 14/10 A2986 640 77 700 040/03 RMK AO1 T01390100
54779K12N 12N20160522082509805/22/16 08:25:31  5-MIN K12N 221325Z AUTO VRB03KT 14/09 A2986 640 74 700 VRB/03 RMK AO1 T01390094
54779K12N 12N20160522083009805/22/16 08:30:31  5-MIN K12N 221330Z AUTO VRB03KT 15/10 A2986 640 72 800 VRB/03 RMK AO1 T01500100
54779K12N 12N20160522083509805/22/16 08:35:31  5-MIN K12N 221335Z AUTO VRB04KT 15/10 A2986 640 72 800 VRB/04 RMK AO1 T01500100
54779K12N 12N20160522084009805/22/16 08:40:31  5-MIN K12N 221340Z AUTO 02003KT 14/09 A2986 640 72 800 040/03 RMK AO1 T01440094
54779K12N 12N20160522084509805/22/16 08:45:31  5-MIN K12N 221345Z AUTO VRB03KT 15/09 A2986 640 69 800 VRB/03 RMK AO1 T01500094
54779K12N 12N20160522085010505/22/16 08:50:31  5-MIN K12N 221350Z AUTO 04004KT 15/10 A2986 640 72 800 050/04 RMK AO1 SLP110 T01500100
54779K12N 12N20160522085509805/22/16 08:55:31  5-MIN K12N 221355Z AUTO 04004KT 15/10 A2986 640 72 800 060/04 RMK AO1 T01500100
54779K12N 12N20160522090009805/22/16 09:00:31  5-MIN K12N 221400Z AUTO 03004KT 16/09 A2986 640 67 900 050/04 RMK AO1 T01560094
54779K12N 12N20160522090509805/22/16 09:05:31  5-MIN K12N 221405Z AUTO 04004KT 16/10 A2986 640 69 900 050/04 RMK AO1 T01560100
54779K12N 12N20160522091009805/22/16 09:10:31  5-MIN K12N 221410Z AUTO 04004KT 16/10 A2986 640 69 900 050/04 RMK AO1 T01560100
54779K12N 12N20160522091509805/22/16 09:15:31  5-MIN K12N 221415Z AUTO 04003KT 16/10 A2986 640 69 900 050/03 RMK AO1 T01560100
54779K12N 12N20160522092009805/22/16 09:20:31  5-MIN K12N 221420Z AUTO 04003KT 16/10 A2986 640 69 900 050/03 RMK AO1 T01560100
54779K12N 12N20160522092509805/22/16 09:25:31  5-MIN K12N 221425Z AUTO VRB03KT 16/10 A2986 640 69 900 VRB/03 RMK AO1 T01560100
54779K12N 12N20160522093009905/22/16 09:30:31  5-MIN K12N 221430Z AUTO 00000KT 16/10 A2986 650 67 1000 000/00 RMK AO1 T01610100
54779K12N 12N20160522093509905/22/16 09:35:31  5-MIN K12N 221435Z AUTO 00000KT 16/10 A2985 650 67 1000 000/00 RMK AO1 T01610100
54779K12N 12N20160522094009905/22/16 09:40:31  5-MIN K12N 221440Z AUTO VRB03KT 16/10 A2985 650 67 1000 VRB/03 RMK AO1 T01610100
54779K12N 12N20160522094509905/22/16 09:45:31  5-MIN K12N 221445Z AUTO 00000KT 17/10 A2985 650 64 1000 000/00 RMK AO1 T01670100
54779K12N 12N20160522095011205/22/16 09:50:31  5-MIN K12N 221450Z AUTO 03003KT 16/10 A2985 650 67 1000 040/03 RMK AO1 SLP107 T01610100 53003
54779K12N 12N20160522095509905/22/16 09:55:31  5-MIN K12N 221455Z AUTO 04003KT 17/11 A2985 650 67 1000 050/03 RMK AO1 T01670106
54779K12N 12N20160522100009905/22/16 10:00:31  5-MIN K12N 221500Z AUTO 00000KT 17/10 A2985 650 64 1000 000/00 RMK AO1 T01670100
54779K12N 12N20160522100509905/22/16 10:05:31  5-MIN K12N 221505Z AUTO VRB03KT 17/10 A2985 650 62 1100 VRB/03 RMK AO1 T01720100
54779K12N 12N20160522101009905/22/16 10:10:31  5-MIN K12N 221510Z AUTO VRB05KT 18/09 A2985 650 58 1200 VRB/05 RMK AO1 T01780094
54779K12N 12N20160522101509905/22/16 10:15:31  5-MIN K12N 221515Z AUTO 36004KT 18/09 A2985 650 58 1200 010/04 RMK AO1 T01780094
54779K12N 12N20160522102008905/22/16 10:20:31  5-MIN K12N 221520Z AUTO 18/08 A2985 650 53 1200 M /M RMK AO1 T01780083
54779K12N 12N20160522102509905/22/16 10:25:31  5-MIN K12N 221525Z AUTO 04008KT 18/08 A2985 650 51 1200 050/08 RMK AO1 T01780078
54779K12N 12N20160522103009905/22/16 10:30:31  5-MIN K12N 221530Z AUTO VRB03KT 18/08 A2985 650 53 1200 VRB/03 RMK AO1 T01780083
54779K12N 12N20160522103509905/22/16 10:35:31  5-MIN K12N 221535Z AUTO VRB06KT 18/08 A2985 650 52 1200 VRB/06 RMK AO1 T01830083
54779K12N 12N20160522104009905/22/16 10:40:31  5-MIN K12N 221540Z AUTO VRB05KT 18/09 A2985 650 54 1200 VRB/05 RMK AO1 T01830089
54779K12N 12N20160522104509905/22/16 10:45:31  5-MIN K12N 221545Z AUTO VRB06KT 18/08 A2984 660 53 1200 VRB/06 RMK AO1 T01780083
54779K12N 12N20160522105010605/22/16 10:50:31  5-MIN K12N 221550Z AUTO VRB03KT 18/09 A2984 660 54 1200 VRB/03 RMK AO1 SLP104 T01830089
54779K12N 12N20160522105509905/22/16 10:55:31  5-MIN K12N 221555Z AUTO VRB03KT 18/09 A2984 660 54 1200 VRB/03 RMK AO1 T01830089
54779K12N 12N20160522110009905/22/16 11:00:31  5-MIN K12N 221600Z AUTO VRB05KT 19/09 A2984 660 54 1300 VRB/05 RMK AO1 T01890094
54779K12N 12N20160522110509905/22/16 11:05:31  5-MIN K12N 221605Z AUTO VRB04KT 18/09 A2984 660 54 1200 VRB/04 RMK AO1 T01830089
54779K12N 12N20160522111009905/22/16 11:10:31  5-MIN K12N 221610Z AUTO VRB03KT 18/08 A2984 660 52 1200 VRB/03 RMK AO1 T01830083
54779K12N 12N20160522111509905/22/16 11:15:31  5-MIN K12N 221615Z AUTO VRB03KT 18/09 A2984 660 54 1200 VRB/03 RMK AO1 T01830089
54779K12N 12N20160522112009905/22/16 11:20:31  5-MIN K12N 221620Z AUTO VRB04KT 18/09 A2984 660 54 1200 VRB/04 RMK AO1 T01830089
54779K12N 12N20160522112509905/22/16 11:25:31  5-MIN K12N 221625Z AUTO VRB04KT 18/09 A2984 660 54 1200 VRB/04 RMK AO1 T01830089
54779K12N 12N20160522113009905/22/16 11:30:31  5-MIN K12N 221630Z AUTO 04007KT 18/09 A2984 660 54 1200 050/07 RMK AO1 T01830089
54779K12N 12N20160522113509905/22/16 11:35:31  5-MIN K12N 221635Z AUTO 04007KT 18/09 A2984 660 54 1200 060/07 RMK AO1 T01830089
54779K12N 12N20160522114009905/22/16 11:40:31  5-MIN K12N 221640Z AUTO VRB05KT 18/08 A2984 660 53 1200 VRB/05 RMK AO1 T01780083
54779K12N 12N20160522114509905/22/16 11:45:31  5-MIN K12N 221645Z AUTO 05005KT 18/08 A2984 660 53 1200 060/05 RMK AO1 T01780083
54779K12N 12N20160522115010605/22/16 11:50:31  5-MIN K12N 221650Z AUTO 03004KT 18/08 A2984 660 52 1200 040/04 RMK AO1 SLP103 T01830083
54779K12N 12N20160522115509905/22/16 11:55:31  5-MIN K12N 221655Z AUTO 04004KT 18/09 A2984 660 54 1200 050/04 RMK AO1 T01830089
54779K12N 12N20160522120009905/22/16 12:00:31  5-MIN K12N 221700Z AUTO 00000KT 18/09 A2984 660 56 1200 000/00 RMK AO1 T01830094
54779K12N 12N20160522120509905/22/16 12:05:31  5-MIN K12N 221705Z AUTO VRB03KT 18/09 A2984 660 56 1200 VRB/03 RMK AO1 T01830094
54779K12N 12N20160522121009905/22/16 12:10:31  5-MIN K12N 221710Z AUTO VRB03KT 18/09 A2984 660 54 1200 VRB/03 RMK AO1 T01830089
54779K12N 12N20160522121509905/22/16 12:15:31  5-MIN K12N 221715Z AUTO 04005KT 18/09 A2984 660 54 1200 050/05 RMK AO1 T01830089
54779K12N 12N20160522122009905/22/16 12:20:31  5-MIN K12N 221720Z AUTO VRB04KT 18/09 A2984 660 54 1200 VRB/04 RMK AO1 T01830089
54779K12N 12N20160522122509905/22/16 12:25:31  5-MIN K12N 221725Z AUTO VRB04KT 19/09 A2984 660 54 1300 VRB/04 RMK AO1 T01890094
54779K12N 12N20160522123009905/22/16 12:30:31  5-MIN K12N 221730Z AUTO 35003KT 19/09 A2984 660 54 1300 010/03 RMK AO1 T01890094
54779K12N 12N20160522123509905/22/16 12:35:31  5-MIN K12N 221735Z AUTO VRB03KT 19/09 A2984 660 54 1300 VRB/03 RMK AO1 T01890094
54779K12N 12N20160522124009905/22/16 12:40:31  5-MIN K12N 221740Z AUTO VRB03KT 18/09 A2984 660 56 1200 VRB/03 RMK AO1 T01830094
54779K12N 12N20160522124509905/22/16 12:45:31  5-MIN K12N 221745Z AUTO 03003KT 18/09 A2984 660 56 1200 040/03 RMK AO1 T01830094
54779K12N 12N20160522125012405/22/16 12:50:31  5-MIN K12N 221750Z AUTO VRB03KT 18/09 A2984 660 56 1200 VRB/03 RMK AO1 SLP103 T01830094 10189 20122 58001
54779K12N 12N20160522125509905/22/16 12:55:31  5-MIN K12N 221755Z AUTO 00000KT 19/09 A2984 660 54 1300 000/00 RMK AO1 T01890094
54779K12N 12N20160522130009905/22/16 13:00:31  5-MIN K12N 221800Z AUTO 04004KT 18/09 A2984 660 56 1200 050/04 RMK AO1 T01830094
54779K12N 12N20160522130509905/22/16 13:05:31  5-MIN K12N 221805Z AUTO 00000KT 19/09 A2984 660 54 1300 000/00 RMK AO1 T01890094
54779K12N 12N20160522131009905/22/16 13:10:31  5-MIN K12N 221810Z AUTO 00000KT 19/10 A2984 660 56 1300 000/00 RMK AO1 T01890100
54779K12N 12N20160522131509905/22/16 13:15:31  5-MIN K12N 221815Z AUTO VRB03KT 19/09 A2984 660 54 1300 VRB/03 RMK AO1 T01890094
54779K12N 12N20160522132009905/22/16 13:20:31  5-MIN K12N 221820Z AUTO VRB03KT 19/09 A2984 660 52 1300 VRB/03 RMK AO1 T01890089
54779K12N 12N20160522132509905/22/16 13:25:31  5-MIN K12N 221825Z AUTO VRB03KT 19/09 A2984 660 54 1300 VRB/03 RMK AO1 T01890094
54779K12N 12N20160522133009905/22/16 13:30:31  5-MIN K12N 221830Z AUTO VRB03KT 19/09 A2983 670 52 1300 VRB/03 RMK AO1 T01890089
54779K12N 12N20160522133509905/22/16 13:35:31  5-MIN K12N 221835Z AUTO VRB03KT 19/09 A2983 670 52 1400 VRB/03 RMK AO1 T01940094
54779K12N 12N20160522134009905/22/16 13:40:31  5-MIN K12N 221840Z AUTO 04004KT 19/09 A2983 670 52 1400 050/04 RMK AO1 T01940094
54779K12N 12N20160522134509905/22/16 13:45:31  5-MIN K12N 221845Z AUTO 00000KT 19/09 A2983 670 52 1400 000/00 RMK AO1 T01940094
54779K12N 12N20160522135010605/22/16 13:50:31  5-MIN K12N 221850Z AUTO VRB04KT 20/09 A2983 670 50 1400 VRB/04 RMK AO1 SLP100 T02000094
54779K12N 12N20160522135509905/22/16 13:55:31  5-MIN K12N 221855Z AUTO 05004KT 20/09 A2983 670 48 1400 070/04 RMK AO1 T02000089
54779K12N 12N20160522140009905/22/16 14:00:31  5-MIN K12N 221900Z AUTO 00000KT 20/09 A2983 670 50 1400 000/00 RMK AO1 T02000094
54779K12N 12N20160522140509905/22/16 14:05:31  5-MIN K12N 221905Z AUTO VRB03KT 20/08 A2983 670 46 1400 VRB/03 RMK AO1 T02000083
54779K12N 12N20160522141009905/22/16 14:10:31  5-MIN K12N 221910Z AUTO 36004KT 20/08 A2983 670 45 1400 010/04 RMK AO1 T02000078
54779K12N 12N20160522141509905/22/16 14:15:31  5-MIN K12N 221915Z AUTO VRB03KT 20/07 A2983 670 43 1500 VRB/03 RMK AO1 T02000072
54779K12N 12N20160522142009905/22/16 14:20:31  5-MIN K12N 221920Z AUTO VRB05KT 20/08 A2982 670 45 1500 VRB/05 RMK AO1 T02000078
54779K12N 12N20160522142509905/22/16 14:25:31  5-MIN K12N 221925Z AUTO VRB04KT 20/08 A2982 670 45 1500 VRB/04 RMK AO1 T02000078
54779K12N 12N20160522143009905/22/16 14:30:31  5-MIN K12N 221930Z AUTO VRB05KT 20/07 A2983 670 43 1500 VRB/05 RMK AO1 T02000072
54779K12N 12N20160522143509905/22/16 14:35:31  5-MIN K12N 221935Z AUTO VRB04KT 21/07 A2983 670 40 1500 VRB/04 RMK AO1 T02060067
54779K12N 12N20160522144009905/22/16 14:40:31  5-MIN K12N 221940Z AUTO VRB04KT 21/07 A2982 670 41 1500 VRB/04 RMK AO1 T02060072
54779K12N 12N20160522144509905/22/16 14:45:31  5-MIN K12N 221945Z AUTO VRB04KT 21/08 A2982 680 43 1500 VRB/04 RMK AO1 T02060078
54779K12N 12N20160522145010605/22/16 14:50:31  5-MIN K12N 221950Z AUTO VRB03KT 21/07 A2982 670 41 1500 VRB/03 RMK AO1 SLP097 T02060072
54779K12N 12N20160522145509905/22/16 14:55:31  5-MIN K12N 221955Z AUTO VRB04KT 21/07 A2982 670 41 1500 VRB/04 RMK AO1 T02060072
54779K12N 12N20160522150009905/22/16 15:00:31  5-MIN K12N 222000Z AUTO VRB03KT 21/07 A2982 680 41 1500 VRB/03 RMK AO1 T02060072
54779K12N 12N20160522150509905/22/16 15:05:31  5-MIN K12N 222005Z AUTO 36006KT 21/08 A2982 680 43 1500 010/06 RMK AO1 T02060078
54779K12N 12N20160522151009905/22/16 15:10:31  5-MIN K12N 222010Z AUTO VRB03KT 21/07 A2982 680 41 1500 VRB/03 RMK AO1 T02060072
54779K12N 12N20160522151509905/22/16 15:15:31  5-MIN K12N 222015Z AUTO 05004KT 21/07 A2982 680 40 1500 060/04 RMK AO1 T02060067
54779K12N 12N20160522152009905/22/16 15:20:31  5-MIN K12N 222020Z AUTO 00000KT 21/07 A2982 680 40 1500 000/00 RMK AO1 T02060067
54779K12N 12N20160522152509905/22/16 15:25:31  5-MIN K12N 222025Z AUTO VRB03KT 20/07 A2982 670 41 1500 VRB/03 RMK AO1 T02000067
54779K12N 12N20160522153009905/22/16 15:30:31  5-MIN K12N 222030Z AUTO 05003KT 20/07 A2982 670 41 1500 060/03 RMK AO1 T02000067
54779K12N 12N20160522153509905/22/16 15:35:31  5-MIN K12N 222035Z AUTO 00000KT 20/08 A2982 670 45 1500 000/00 RMK AO1 T02000078
54779K12N 12N20160522154009905/22/16 15:40:31  5-MIN K12N 222040Z AUTO 00000KT 19/08 A2982 670 48 1400 000/00 RMK AO1 T01940083
54779K12N 12N20160522154509905/22/16 15:45:31  5-MIN K12N 222045Z AUTO 00000KT 19/08 A2983 670 48 1400 000/00 RMK AO1 T01940083
54779K12N 12N20160522155011205/22/16 15:50:31  5-MIN K12N 222050Z AUTO 00000KT 19/09 A2983 670 52 1300 000/00 RMK AO1 SLP098 T01890089 56005
54779K12N 12N20160522155509905/22/16 15:55:31  5-MIN K12N 222055Z AUTO 00000KT 18/11 A2983 670 60 1300 000/00 RMK AO1 T01830106
54779K12N 12N20160522160009905/22/16 16:00:31  5-MIN K12N 222100Z AUTO VRB03KT 19/09 A2982 670 52 1300 VRB/03 RMK AO1 T01890089
54779K12N 12N20160522160509905/22/16 16:05:31  5-MIN K12N 222105Z AUTO 00000KT 19/09 A2982 680 52 1300 000/00 RMK AO1 T01890089
54779K12N 12N20160522161009905/22/16 16:10:31  5-MIN K12N 222110Z AUTO 00000KT 18/09 A2982 680 56 1300 000/00 RMK AO1 T01830094
54779K12N 12N20160522161509905/22/16 16:15:31  5-MIN K12N 222115Z AUTO 00000KT 18/10 A2982 680 58 1300 000/00 RMK AO1 T01830100
54779K12N 12N20160522162009905/22/16 16:20:31  5-MIN K12N 222120Z AUTO 00000KT 18/11 A2982 680 62 1200 000/00 RMK AO1 T01780106
54779K12N 12N20160522162509905/22/16 16:25:31  5-MIN K12N 222125Z AUTO 00000KT 18/10 A2982 680 60 1200 000/00 RMK AO1 T01780100
54779K12N 12N20160522163009905/22/16 16:30:31  5-MIN K12N 222130Z AUTO 00000KT 17/11 A2982 680 67 1100 000/00 RMK AO1 T01720111
54779K12N 12N20160522163509905/22/16 16:35:31  5-MIN K12N 222135Z AUTO 00000KT 17/11 A2982 680 67 1100 000/00 RMK AO1 T01720111
54779K12N 12N20160522164009905/22/16 16:40:31  5-MIN K12N 222140Z AUTO 00000KT 17/11 A2982 680 67 1100 000/00 RMK AO1 T01720111
54779K12N 12N20160522164509905/22/16 16:45:31  5-MIN K12N 222145Z AUTO 00000KT 18/11 A2982 680 64 1200 000/00 RMK AO1 T01780111
54779K12N 12N20160522165010605/22/16 16:50:31  5-MIN K12N 222150Z AUTO 00000KT 18/11 A2982 680 64 1200 000/00 RMK AO1 SLP098 T01780111
54779K12N 12N20160522165509905/22/16 16:55:31  5-MIN K12N 222155Z AUTO 00000KT 18/11 A2982 670 64 1200 000/00 RMK AO1 T01780111
54779K12N 12N20160522170009905/22/16 17:00:31  5-MIN K12N 222200Z AUTO 00000KT 17/12 A2983 670 69 1100 000/00 RMK AO1 T01720117
54779K12N 12N20160522170509905/22/16 17:05:31  5-MIN K12N 222205Z AUTO 00000KT 17/12 A2983 670 69 1100 000/00 RMK AO1 T01720117
54779K12N 12N20160522171009905/22/16 17:10:31  5-MIN K12N 222210Z AUTO 00000KT 17/12 A2983 670 69 1100 000/00 RMK AO1 T01720117
54779K12N 12N20160522171509905/22/16 17:15:31  5-MIN K12N 222215Z AUTO 00000KT 17/12 A2983 670 69 1100 000/00 RMK AO1 T01720117
54779K12N 12N20160522172009905/22/16 17:20:31  5-MIN K12N 222220Z AUTO 00000KT 17/12 A2983 670 69 1100 000/00 RMK AO1 T01720117
54779K12N 12N20160522172509905/22/16 17:25:31  5-MIN K12N 222225Z AUTO 00000KT 17/12 A2983 670 69 1100 000/00 RMK AO1 T01720117
54779K12N 12N20160522173009905/22/16 17:30:31  5-MIN K12N 222230Z AUTO 00000KT 18/11 A2984 660 64 1200 000/00 RMK AO1 T01780111
54779K12N 12N20160522173509905/22/16 17:35:31  5-MIN K12N 222235Z AUTO 00000KT 17/11 A2984 660 67 1100 000/00 RMK AO1 T01720111
54779K12N 12N20160522174009905/22/16 17:40:31  5-MIN K12N 222240Z AUTO 00000KT 18/11 A2984 660 64 1200 000/00 RMK AO1 T01780111
54779K12N 12N20160522174509905/22/16 17:45:31  5-MIN K12N 222245Z AUTO 00000KT 18/12 A2984 660 67 1200 000/00 RMK AO1 T01780117
54779K12N 12N20160522175010605/22/16 17:50:31  5-MIN K12N 222250Z AUTO 00000KT 17/12 A2984 660 69 1100 000/00 RMK AO1 SLP104 T01720117
54779K12N 12N20160522175509905/22/16 17:55:31  5-MIN K12N 222255Z AUTO 00000KT 17/12 A2984 660 69 1100 000/00 RMK AO1 T01720117
54779K12N 12N20160522180009905/22/16 18:00:31  5-MIN K12N 222300Z AUTO 00000KT 17/12 A2984 660 72 1100 000/00 RMK AO1 T01720122
54779K12N 12N20160522180509905/22/16 18:05:31  5-MIN K12N 222305Z AUTO 00000KT 17/12 A2984 660 72 1100 000/00 RMK AO1 T01720122
54779K12N 12N20160522181009905/22/16 18:10:31  5-MIN K12N 222310Z AUTO 00000KT 17/12 A2984 660 72 1100 000/00 RMK AO1 T01720122
54779K12N 12N20160522181509905/22/16 18:15:31  5-MIN K12N 222315Z AUTO 00000KT 17/13 A2984 660 75 1100 000/00 RMK AO1 T01720128
54779K12N 12N20160522182009905/22/16 18:20:31  5-MIN K12N 222320Z AUTO 00000KT 17/13 A2984 660 75 1100 000/00 RMK AO1 T01720128
54779K12N 12N20160522182509905/22/16 18:25:31  5-MIN K12N 222325Z AUTO 00000KT 17/13 A2984 660 75 1100 000/00 RMK AO1 T01720128
54779K12N 12N20160522183009905/22/16 18:30:31  5-MIN K12N 222330Z AUTO 00000KT 17/12 A2985 650 75 1000 000/00 RMK AO1 T01670122
54779K12N 12N20160522183509905/22/16 18:35:31  5-MIN K12N 222335Z AUTO 00000KT 17/13 A2985 650 77 1000 000/00 RMK AO1 T01670128
54779K12N 12N20160522184009905/22/16 18:40:31  5-MIN K12N 222340Z AUTO 00000KT 16/13 A2985 650 80 1000 000/00 RMK AO1 T01610128
54779K12N 12N20160522184509905/22/16 18:45:31  5-MIN K12N 222345Z AUTO 00000KT 16/13 A2985 650 80 1000 000/00 RMK AO1 T01610128
54779K12N 12N20160522185012305/22/16 18:50:31  5-MIN K12N 222350Z AUTO 00000KT 16/12 A2985 650 80 900 000/00 RMK AO1 SLP108 T01560122 10206 20156 55003
54779K12N 12N20160522185509805/22/16 18:55:31  5-MIN K12N 222355Z AUTO 00000KT 16/12 A2986 650 80 900 000/00 RMK AO1 T01560122
54779K12N 12N20160522190009805/22/16 19:00:31  5-MIN K12N 230000Z AUTO 00000KT 16/12 A2986 650 80 900 000/00 RMK AO1 T01560122
54779K12N 12N20160522190509805/22/16 19:05:31  5-MIN K12N 230005Z AUTO 00000KT 15/12 A2986 640 83 800 000/00 RMK AO1 T01500122
54779K12N 12N20160522191009805/22/16 19:10:31  5-MIN K12N 230010Z AUTO 00000KT 15/12 A2986 640 80 800 000/00 RMK AO1 T01500117
54779K12N 12N20160522191509805/22/16 19:15:31  5-MIN K12N 230015Z AUTO 00000KT 15/12 A2986 640 80 800 000/00 RMK AO1 T01500117
54779K12N 12N20160522192009805/22/16 19:20:31  5-MIN K12N 230020Z AUTO 00000KT 14/12 A2986 640 83 800 000/00 RMK AO1 T01440117
54779K12N 12N20160522192509805/22/16 19:25:31  5-MIN K12N 230025Z AUTO 00000KT 14/12 A2986 640 86 700 000/00 RMK AO1 T01390117
54779K12N 12N20160522193009805/22/16 19:30:31  5-MIN K12N 230030Z AUTO 00000KT 14/12 A2987 640 83 800 000/00 RMK AO1 T01440117
54779K12N 12N20160522193509805/22/16 19:35:31  5-MIN K12N 230035Z AUTO 00000KT 14/12 A2987 630 86 700 000/00 RMK AO1 T01390117
54779K12N 12N20160522194009805/22/16 19:40:31  5-MIN K12N 230040Z AUTO 00000KT 14/12 A2987 630 86 700 000/00 RMK AO1 T01390117
54779K12N 12N20160522194509805/22/16 19:45:31  5-MIN K12N 230045Z AUTO 00000KT 13/12 A2987 630 89 600 000/00 RMK AO1 T01330117
54779K12N 12N20160522195010505/22/16 19:50:31  5-MIN K12N 230050Z AUTO 00000KT 13/12 A2987 630 89 600 000/00 RMK AO1 SLP115 T01330117
54779K12N 12N20160522195509805/22/16 19:55:31  5-MIN K12N 230055Z AUTO 00000KT 13/12 A2988 630 89 600 000/00 RMK AO1 T01330117
54779K12N 12N20160522200009805/22/16 20:00:31  5-MIN K12N 230100Z AUTO 00000KT 13/12 A2988 630 93 500 000/00 RMK AO1 T01280117
54779K12N 12N20160522200509805/22/16 20:05:31  5-MIN K12N 230105Z AUTO 00000KT 13/11 A2988 630 89 500 000/00 RMK AO1 T01280111
54779K12N 12N20160522201009805/22/16 20:10:31  5-MIN K12N 230110Z AUTO 00000KT 13/12 A2988 620 93 500 000/00 RMK AO1 T01280117
54779K12N 12N20160522201509805/22/16 20:15:31  5-MIN K12N 230115Z AUTO 00000KT 13/12 A2988 620 93 500 000/00 RMK AO1 T01280117
54779K12N 12N20160522202009805/22/16 20:20:31  5-MIN K12N 230120Z AUTO 00000KT 13/12 A2988 620 93 500 000/00 RMK AO1 T01280117
54779K12N 12N20160522202509805/22/16 20:25:31  5-MIN K12N 230125Z AUTO 00000KT 13/11 A2988 620 89 500 000/00 RMK AO1 T01280111
54779K12N 12N20160522203009805/22/16 20:30:31  5-MIN K12N 230130Z AUTO 00000KT 13/11 A2988 620 89 500 000/00 RMK AO1 T01280111
54779K12N 12N20160522203509805/22/16 20:35:31  5-MIN K12N 230135Z AUTO 00000KT 13/12 A2989 610 93 500 000/00 RMK AO1 T01280117
54779K12N 12N20160522204009805/22/16 20:40:31  5-MIN K12N 230140Z AUTO 00000KT 13/12 A2989 610 93 500 000/00 RMK AO1 T01280117
54779K12N 12N20160522204509805/22/16 20:45:31  5-MIN K12N 230145Z AUTO 00000KT 13/12 A2989 610 93 500 000/00 RMK AO1 T01280117
54779K12N 12N20160522205010505/22/16 20:50:31  5-MIN K12N 230150Z AUTO 00000KT 13/12 A2989 610 93 500 000/00 RMK AO1 SLP121 T01280117
54779K12N 12N20160522205509805/22/16 20:55:31  5-MIN K12N 230155Z AUTO 00000KT 13/12 A2989 610 93 500 000/00 RMK AO1 T01280117
54779K12N 12N20160522210009805/22/16 21:00:31  5-MIN K12N 230200Z AUTO 00000KT 13/12 A2989 610 89 600 000/00 RMK AO1 T01330117
54779K12N 12N20160522210509805/22/16 21:05:31  5-MIN K12N 230205Z AUTO 00000KT 13/12 A2989 610 93 500 000/00 RMK AO1 T01280117
54779K12N 12N20160522211009805/22/16 21:10:31  5-MIN K12N 230210Z AUTO 00000KT 13/12 A2989 610 93 500 000/00 RMK AO1 T01280117
54779K12N 12N20160522211509805/22/16 21:15:31  5-MIN K12N 230215Z AUTO 00000KT 13/12 A2989 610 93 500 000/00 RMK AO1 T01280117
54779K12N 12N20160522212009805/22/16 21:20:31  5-MIN K12N 230220Z AUTO 00000KT 13/12 A2989 610 89 600 000/00 RMK AO1 T01330117
54779K12N 12N20160522212509805/22/16 21:25:31  5-MIN K12N 230225Z AUTO 00000KT 13/12 A2989 610 89 600 000/00 RMK AO1 T01330117
54779K12N 12N20160522213009805/22/16 21:30:31  5-MIN K12N 230230Z AUTO 00000KT 13/12 A2989 610 93 500 000/00 RMK AO1 T01280117
54779K12N 12N20160522213509805/22/16 21:35:31  5-MIN K12N 230235Z AUTO 00000KT 13/12 A2989 610 93 500 000/00 RMK AO1 T01280117
54779K12N 12N20160522214009805/22/16 21:40:31  5-MIN K12N 230240Z AUTO 00000KT 13/12 A2989 610 93 500 000/00 RMK AO1 T01280117
54779K12N 12N20160522214509805/22/16 21:45:31  5-MIN K12N 230245Z AUTO 00000KT 12/11 A2989 610 93 500 000/00 RMK AO1 T01220111
54779K12N 12N20160522215011105/22/16 21:50:31  5-MIN K12N 230250Z AUTO 00000KT 12/11 A2990 610 93 500 000/00 RMK AO1 SLP123 T01220111 53010
54779K12N 12N20160522215509805/22/16 21:55:31  5-MIN K12N 230255Z AUTO 00000KT 12/11 A2990 610 93 500 000/00 RMK AO1 T01220111
54779K12N 12N20160522220009805/22/16 22:00:31  5-MIN K12N 230300Z AUTO 00000KT 12/11 A2990 610 93 500 000/00 RMK AO1 T01220111
54779K12N 12N20160522220509805/22/16 22:05:31  5-MIN K12N 230305Z AUTO 00000KT 12/11 A2990 610 96 400 000/00 RMK AO1 T01170111
54779K12N 12N20160522221009805/22/16 22:10:31  5-MIN K12N 230310Z AUTO 00000KT 12/11 A2990 600 93 400 000/00 RMK AO1 T01170106
54779K12N 12N20160522221509805/22/16 22:15:31  5-MIN K12N 230315Z AUTO 00000KT 12/11 A2990 600 96 400 000/00 RMK AO1 T01170111
54779K12N 12N20160522222009805/22/16 22:20:31  5-MIN K12N 230320Z AUTO 00000KT 12/11 A2990 600 93 400 000/00 RMK AO1 T01170106
54779K12N 12N20160522222509805/22/16 22:25:31  5-MIN K12N 230325Z AUTO 00000KT 12/11 A2990 610 93 400 000/00 RMK AO1 T01170106
54779K12N 12N20160522223009805/22/16 22:30:31  5-MIN K12N 230330Z AUTO 00000KT 12/11 A2990 610 93 400 000/00 RMK AO1 T01170106
54779K12N 12N20160522223509805/22/16 22:35:31  5-MIN K12N 230335Z AUTO 00000KT 12/11 A2990 600 93 400 000/00 RMK AO1 T01170106
54779K12N 12N20160522224009805/22/16 22:40:31  5-MIN K12N 230340Z AUTO 00000KT 12/11 A2990 600 93 400 000/00 RMK AO1 T01170106
54779K12N 12N20160522224509805/22/16 22:45:31  5-MIN K12N 230345Z AUTO 00000KT 11/10 A2990 600 93 300 000/00 RMK AO1 T01110100
54779K12N 12N20160522225010505/22/16 22:50:31  5-MIN K12N 230350Z AUTO 00000KT 11/10 A2990 600 93 300 000/00 RMK AO1 SLP124 T01110100
54779K12N 12N20160522225509805/22/16 22:55:31  5-MIN K12N 230355Z AUTO 00000KT 11/10 A2990 600 93 300 000/00 RMK AO1 T01110100
54779K12N 12N20160522230009805/22/16 23:00:31  5-MIN K12N 230400Z AUTO 00000KT 11/10 A2990 600 93 300 000/00 RMK AO1 T01110100
54779K12N 12N20160522230509805/22/16 23:05:31  5-MIN K12N 230405Z AUTO 00000KT 11/10 A2990 600 96 300 000/00 RMK AO1 T01060100
54779K12N 12N20160522231009805/22/16 23:10:31  5-MIN K12N 230410Z AUTO 00000KT 11/10 A2990 600 93 300 000/00 RMK AO1 T01110100
54779K12N 12N20160522231509805/22/16 23:15:31  5-MIN K12N 230415Z AUTO 00000KT 11/10 A2990 600 93 300 000/00 RMK AO1 T01110100
54779K12N 12N20160522232009805/22/16 23:20:31  5-MIN K12N 230420Z AUTO 00000KT 11/10 A2990 600 96 300 000/00 RMK AO1 T01060100
54779K12N 12N20160522232509805/22/16 23:25:31  5-MIN K12N 230425Z AUTO 00000KT 11/10 A2991 600 93 300 000/00 RMK AO1 T01110100
54779K12N 12N20160522233009805/22/16 23:30:31  5-MIN K12N 230430Z AUTO 00000KT 11/10 A2990 600 96 300 000/00 RMK AO1 T01060100
54779K12N 12N20160522233509805/22/16 23:35:31  5-MIN K12N 230435Z AUTO 00000KT 11/10 A2991 600 96 200 000/00 RMK AO1 T01060100
54779K12N 12N20160522234009805/22/16 23:40:31  5-MIN K12N 230440Z AUTO 00000KT 11/09 A2991 600 93 200 000/00 RMK AO1 T01060094
54779K12N 12N20160522234509805/22/16 23:45:31  5-MIN K12N 230445Z AUTO 00000KT 10/09 A2990 600 96 200 000/00 RMK AO1 T01000094
54779K12N 12N20160522235011505/22/16 23:50:31  5-MIN K12N 230450Z AUTO 00000KT 11/09 A2990 600 93 300 000/00 RMK AO1 SLP125 T01060094 402060100
54779K12N 12N20160522235509805/22/16 23:55:31  5-MIN K12N 230455Z AUTO 00000KT 11/09 A2990 600 93 300 000/00 RMK AO1 T01060094
54779K12N 12N20160523000009805/23/16 00:00:31  5-MIN K12N 230500Z AUTO 00000KT 10/09 A2991 600 96 200 000/00 RMK AO1 T01000094
54779K12N 12N20160523000509805/23/16 00:05:31  5-MIN K12N 230505Z AUTO 00000KT 10/09 A2990 600 96 200 000/00 RMK AO1 T01000094
54779K12N 12N20160523001009805/23/16 00:10:31  5-MIN K12N 230510Z AUTO 00000KT 10/09 A2990 600 96 200 000/00 RMK AO1 T01000094
54779K12N 12N20160523001509805/23/16 00:15:31  5-MIN K12N 230515Z AUTO 00000KT 11/09 A2990 600 93 300 000/00 RMK AO1 T01060094
54779K12N 12N20160523002009805/23/16 00:20:31  5-MIN K12N 230520Z AUTO 00000KT 10/09 A2990 600 96 200 000/00 RMK AO1 T01000094
54779K12N 12N20160523002509805/23/16 00:25:31  5-MIN K12N 230525Z AUTO 00000KT 10/09 A2990 600 96 200 000/00 RMK AO1 T01000094
54779K12N 12N20160523003009805/23/16 00:30:31  5-MIN K12N 230530Z AUTO 00000KT 10/09 A2990 600 93 200 000/00 RMK AO1 T01000089
54779K12N 12N20160523003509805/23/16 00:35:31  5-MIN K12N 230535Z AUTO 00000KT 10/09 A2990 600 93 200 000/00 RMK AO1 T01000089
54779K12N 12N20160523004009805/23/16 00:40:31  5-MIN K12N 230540Z AUTO 00000KT 10/09 A2990 600 93 200 000/00 RMK AO1 T01000089
54779K12N 12N20160523004509805/23/16 00:45:31  5-MIN K12N 230545Z AUTO 00000KT 10/09 A2990 600 93 200 000/00 RMK AO1 T01000089
54779K12N 12N20160523005012305/23/16 00:50:31  5-MIN K12N 230550Z AUTO 00000KT 10/09 A2990 600 93 200 000/00 RMK AO1 SLP125 T01000089 10156 20100 51014
54779K12N 12N20160523005509805/23/16 00:55:31  5-MIN K12N 230555Z AUTO 00000KT 10/09 A2990 600 93 200 000/00 RMK AO1 T01000089
54779K12N 12N20160523010009805/23/16 01:00:31  5-MIN K12N 230600Z AUTO 00000KT 10/08 A2990 600 89 200 000/00 RMK AO1 T01000083
54779K12N 12N20160523010509805/23/16 01:05:31  5-MIN K12N 230605Z AUTO 00000KT 09/08 A2990 600 93 100 000/00 RMK AO1 T00940083
54779K12N 12N20160523011009805/23/16 01:10:31  5-MIN K12N 230610Z AUTO 00000KT 09/08 A2990 610 93 100 000/00 RMK AO1 T00940083
54779K12N 12N20160523011509805/23/16 01:15:31  5-MIN K12N 230615Z AUTO 00000KT 10/08 A2990 610 89 200 000/00 RMK AO1 T01000083
54779K12N 12N20160523012009805/23/16 01:20:31  5-MIN K12N 230620Z AUTO 00000KT 10/09 A2989 610 93 200 000/00 RMK AO1 T01000089
54779K12N 12N20160523012509805/23/16 01:25:31  5-MIN K12N 230625Z AUTO 00000KT 10/09 A2990 610 93 200 000/00 RMK AO1 T01000089
54779K12N 12N20160523013009805/23/16 01:30:31  5-MIN K12N 230630Z AUTO 00000KT 09/09 A2989 610 96 100 000/00 RMK AO1 T00940089
54779K12N 12N20160523013509805/23/16 01:35:31  5-MIN K12N 230635Z AUTO 00000KT 09/08 A2990 610 93 100 000/00 RMK AO1 T00940083
54779K12N 12N20160523014009805/23/16 01:40:31  5-MIN K12N 230640Z AUTO 00000KT 09/08 A2990 610 93 100 000/00 RMK AO1 T00940083
54779K12N 12N20160523014509805/23/16 01:45:31  5-MIN K12N 230645Z AUTO 00000KT 09/08 A2990 610 93 100 000/00 RMK AO1 T00940083
54779K12N 12N20160523015010505/23/16 01:50:31  5-MIN K12N 230650Z AUTO 00000KT 09/08 A2990 610 93 100 000/00 RMK AO1 SLP122 T00940083
54779K12N 12N20160523015509805/23/16 01:55:31  5-MIN K12N 230655Z AUTO 00000KT 09/08 A2990 600 93 100 000/00 RMK AO1 T00940083
54779K12N 12N20160523020009805/23/16 02:00:31  5-MIN K12N 230700Z AUTO 00000KT 09/08 A2990 610 93 100 000/00 RMK AO1 T00940083
54779K12N 12N20160523020509805/23/16 02:05:31  5-MIN K12N 230705Z AUTO 00000KT 09/08 A2990 610 93 100 000/00 RMK AO1 T00940083
54779K12N 12N20160523021009805/23/16 02:10:31  5-MIN K12N 230710Z AUTO 00000KT 09/08 A2990 610 93 100 000/00 RMK AO1 T00940083
54779K12N 12N20160523021509805/23/16 02:15:31  5-MIN K12N 230715Z AUTO 00000KT 09/08 A2990 610 96 100 000/00 RMK AO1 T00890083
54779K12N 12N20160523022009805/23/16 02:20:31  5-MIN K12N 230720Z AUTO 00000KT 09/08 A2990 610 96 100 000/00 RMK AO1 T00890083
54779K12N 12N20160523022509805/23/16 02:25:31  5-MIN K12N 230725Z AUTO 00000KT 09/08 A2990 610 93 100 000/00 RMK AO1 T00940083
54779K12N 12N20160523023009805/23/16 02:30:31  5-MIN K12N 230730Z AUTO 00000KT 09/08 A2990 610 96 100 000/00 RMK AO1 T00890083
54779K12N 12N20160523023509805/23/16 02:35:31  5-MIN K12N 230735Z AUTO 00000KT 09/08 A2990 610 93 100 000/00 RMK AO1 T00890078
54779K12N 12N20160523024009805/23/16 02:40:31  5-MIN K12N 230740Z AUTO 00000KT 09/08 A2990 610 93 100 000/00 RMK AO1 T00940083
54779K12N 12N20160523024509805/23/16 02:45:31  5-MIN K12N 230745Z AUTO 00000KT 09/08 A2990 610 96 100 000/00 RMK AO1 T00890083
54779K12N 12N20160523025010505/23/16 02:50:31  5-MIN K12N 230750Z AUTO 00000KT 09/08 A2990 600 93 100 000/00 RMK AO1 SLP123 T00940083
54779K12N 12N20160523025509805/23/16 02:55:31  5-MIN K12N 230755Z AUTO 00000KT 09/08 A2990 600 93 100 000/00 RMK AO1 T00940083
54779K12N 12N20160523030009805/23/16 03:00:31  5-MIN K12N 230800Z AUTO 00000KT 09/08 A2991 600 93 100 000/00 RMK AO1 T00940083
54779K12N 12N20160523030509805/23/16 03:05:31  5-MIN K12N 230805Z AUTO 00000KT 09/09 A2991 600 96 100 000/00 RMK AO1 T00940089
54779K12N 12N20160523031009805/23/16 03:10:31  5-MIN K12N 230810Z AUTO 00000KT 09/09 A2991 600 96 100 000/00 RMK AO1 T00940089
54779K12N 12N20160523031509805/23/16 03:15:31  5-MIN K12N 230815Z AUTO 00000KT 09/09 A2991 600 96 100 000/00 RMK AO1 T00940089
54779K12N 12N20160523032009805/23/16 03:20:31  5-MIN K12N 230820Z AUTO 00000KT 09/09 A2991 600 96 100 000/00 RMK AO1 T00940089
54779K12N 12N20160523032509805/23/16 03:25:31  5-MIN K12N 230825Z AUTO 00000KT 09/09 A2991 600 96 100 000/00 RMK AO1 T00940089
54779K12N 12N20160523033009805/23/16 03:30:31  5-MIN K12N 230830Z AUTO 00000KT 10/09 A2991 590 93 200 000/00 RMK AO1 T01000089
54779K12N 12N20160523033509805/23/16 03:35:31  5-MIN K12N 230835Z AUTO 00000KT 09/09 A2991 590 96 100 000/00 RMK AO1 T00940089
54779K12N 12N20160523034009805/23/16 03:40:31  5-MIN K12N 230840Z AUTO 00000KT 10/09 A2991 590 93 200 000/00 RMK AO1 T01000089
54779K12N 12N20160523034509805/23/16 03:45:31  5-MIN K12N 230845Z AUTO 00000KT 10/09 A2991 590 93 200 000/00 RMK AO1 T01000089
54779K12N 12N20160523035011105/23/16 03:50:31  5-MIN K12N 230850Z AUTO 00000KT 10/09 A2991 590 96 200 000/00 RMK AO1 SLP128 T01000094 50002
54779K12N 12N20160523035509805/23/16 03:55:31  5-MIN K12N 230855Z AUTO 00000KT 10/09 A2991 590 96 200 000/00 RMK AO1 T01000094
54779K12N 12N20160523040009805/23/16 04:00:31  5-MIN K12N 230900Z AUTO 00000KT 10/09 A2991 600 96 200 000/00 RMK AO1 T01000094
54779K12N 12N20160523040509805/23/16 04:05:31  5-MIN K12N 230905Z AUTO 00000KT 10/09 A2991 600 96 200 000/00 RMK AO1 T01000094
54779K12N 12N20160523041009805/23/16 04:10:31  5-MIN K12N 230910Z AUTO 00000KT 10/09 A2991 600 96 200 000/00 RMK AO1 T01000094
54779K12N 12N20160523041509805/23/16 04:15:31  5-MIN K12N 230915Z AUTO 00000KT 10/09 A2991 590 96 200 000/00 RMK AO1 T01000094
54779K12N 12N20160523042009805/23/16 04:20:31  5-MIN K12N 230920Z AUTO 00000KT 10/09 A2991 590 96 200 000/00 RMK AO1 T01000094
54779K12N 12N20160523042509805/23/16 04:25:31  5-MIN K12N 230925Z AUTO 00000KT 11/09 A2991 590 93 200 000/00 RMK AO1 T01060094
54779K12N 12N20160523043009805/23/16 04:30:31  5-MIN K12N 230930Z AUTO 00000KT 11/09 A2992 590 93 200 000/00 RMK AO1 T01060094
54779K12N 12N20160523043509805/23/16 04:35:31  5-MIN K12N 230935Z AUTO 00000KT 11/09 A2992 590 93 200 000/00 RMK AO1 T01060094
54779K12N 12N20160523044009805/23/16 04:40:31  5-MIN K12N 230940Z AUTO 00000KT 11/09 A2992 580 93 200 000/00 RMK AO1 T01060094
54779K12N 12N20160523044509805/23/16 04:45:31  5-MIN K12N 230945Z AUTO 00000KT 10/09 A2992 580 96 200 000/00 RMK AO1 T01000094
54779K12N 12N20160523045010505/23/16 04:50:31  5-MIN K12N 230950Z AUTO 00000KT 10/09 A2992 580 96 200 000/00 RMK AO1 SLP132 T01000094
54779K12N 12N20160523045509805/23/16 04:55:31  5-MIN K12N 230955Z AUTO 00000KT 11/09 A2992 580 93 200 000/00 RMK AO1 T01060094
54779K12N 12N20160523050009805/23/16 05:00:31  5-MIN K12N 231000Z AUTO 00000KT 11/09 A2992 580 93 200 000/00 RMK AO1 T01060094
54779K12N 12N20160523050509805/23/16 05:05:31  5-MIN K12N 231005Z AUTO 00000KT 11/10 A2992 580 96 200 000/00 RMK AO1 T01060100
54779K12N 12N20160523051009805/23/16 05:10:31  5-MIN K12N 231010Z AUTO 00000KT 11/10 A2992 580 96 200 000/00 RMK AO1 T01060100
54779K12N 12N20160523051509805/23/16 05:15:31  5-MIN K12N 231015Z AUTO 00000KT 11/10 A2993 580 96 200 000/00 RMK AO1 T01060100
54779K12N 12N20160523052009805/23/16 05:20:31  5-MIN K12N 231020Z AUTO 00000KT 11/10 A2992 580 96 200 000/00 RMK AO1 T01060100
54779K12N 12N20160523052509805/23/16 05:25:31  5-MIN K12N 231025Z AUTO 00000KT 11/10 A2993 580 93 300 000/00 RMK AO1 T01110100
54779K12N 12N20160523053009805/23/16 05:30:31  5-MIN K12N 231030Z AUTO 00000KT 11/10 A2993 580 93 300 000/00 RMK AO1 T01110100
54779K12N 12N20160523053509805/23/16 05:35:31  5-MIN K12N 231035Z AUTO 00000KT 11/11 A2993 580 96 300 000/00 RMK AO1 T01110106
54779K12N 12N20160523054009805/23/16 05:40:31  5-MIN K12N 231040Z AUTO 00000KT 11/11 A2993 570 96 300 000/00 RMK AO1 T01110106
54779K12N 12N20160523054509805/23/16 05:45:31  5-MIN K12N 231045Z AUTO 00000KT 11/11 A2994 570 96 300 000/00 RMK AO1 T01110106
54779K12N 12N20160523055010505/23/16 05:50:31  5-MIN K12N 231050Z AUTO 00000KT 11/11 A2994 570 96 300 000/00 RMK AO1 SLP136 T01110106
54779K12N 12N20160523055509805/23/16 05:55:31  5-MIN K12N 231055Z AUTO 00000KT 12/11 A2994 570 96 300 000/00 RMK AO1 T01170111
54779K12N 12N20160523060009805/23/16 06:00:31  5-MIN K12N 231100Z AUTO 00000KT 12/11 A2994 570 96 300 000/00 RMK AO1 T01170111
54779K12N 12N20160523060509805/23/16 06:05:31  5-MIN K12N 231105Z AUTO 00000KT 12/11 A2994 570 96 300 000/00 RMK AO1 T01170111
54779K12N 12N20160523061009805/23/16 06:10:31  5-MIN K12N 231110Z AUTO 00000KT 12/11 A2994 570 93 400 000/00 RMK AO1 T01220111
54779K12N 12N20160523061509805/23/16 06:15:31  5-MIN K12N 231115Z AUTO 00000KT 13/12 A2994 560 93 500 000/00 RMK AO1 T01280117
54779K12N 12N20160523062009805/23/16 06:20:31  5-MIN K12N 231120Z AUTO 00000KT 13/12 A2995 560 89 500 000/00 RMK AO1 T01330117
54779K12N 12N20160523062509805/23/16 06:25:31  5-MIN K12N 231125Z AUTO 00000KT 13/11 A2995 560 86 500 000/00 RMK AO1 T01330111
54779K12N 12N20160523063009805/23/16 06:30:31  5-MIN K12N 231130Z AUTO 00000KT 13/11 A2995 560 86 500 000/00 RMK AO1 T01330111
54779K12N 12N20160523063509805/23/16 06:35:31  5-MIN K12N 231135Z AUTO 04003KT 13/11 A2995 560 86 500 050/03 RMK AO1 T01330111
54779K12N 12N20160523064009805/23/16 06:40:31  5-MIN K12N 231140Z AUTO 04003KT 13/11 A2995 560 86 500 050/03 RMK AO1 T01330111
54779K12N 12N20160523064509805/23/16 06:45:31  5-MIN K12N 231145Z AUTO 00000KT 14/11 A2995 560 83 600 000/00 RMK AO1 T01390111
54779K12N 12N20160523065012305/23/16 06:50:31  5-MIN K12N 231150Z AUTO 00000KT 15/12 A2995 560 80 700 000/00 RMK AO1 SLP140 T01500117 10150 20089 53003
54779K12N 12N20160523065509805/23/16 06:55:31  5-MIN K12N 231155Z AUTO 00000KT 15/12 A2995 560 80 700 000/00 RMK AO1 T01500117
54779K12N 12N20160523070009805/23/16 07:00:31  5-MIN K12N 231200Z AUTO 00000KT 15/11 A2995 550 77 700 000/00 RMK AO1 T01500111
54779K12N 12N20160523070509805/23/16 07:05:31  5-MIN K12N 231205Z AUTO 00000KT 16/11 A2996 550 74 800 000/00 RMK AO1 T01560111
54779K12N 12N20160523071009805/23/16 07:10:31  5-MIN K12N 231210Z AUTO 03003KT 16/11 A2996 550 74 800 050/03 RMK AO1 T01560111
54779K12N 12N20160523071509805/23/16 07:15:31  5-MIN K12N 231215Z AUTO 06003KT 14/11 A2996 550 77 700 070/03 RMK AO1 T01440106
54779K12N 12N20160523072009805/23/16 07:20:31  5-MIN K12N 231220Z AUTO 00000KT 14/11 A2995 550 80 700 000/00 RMK AO1 T01440111
54779K12N 12N20160523072509805/23/16 07:25:31  5-MIN K12N 231225Z AUTO 00000KT 16/11 A2995 550 72 900 000/00 RMK AO1 T01610111
54779K12N 12N20160523073009805/23/16 07:30:31  5-MIN K12N 231230Z AUTO 00000KT 17/12 A2995 550 72 900 000/00 RMK AO1 T01670117
54779K12N 12N20160523073509805/23/16 07:35:31  5-MIN K12N 231235Z AUTO 05005KT 16/11 A2996 550 72 900 060/05 RMK AO1 T01610111
54779K12N 12N20160523074009805/23/16 07:40:31  5-MIN K12N 231240Z AUTO 04004KT 16/11 A2995 550 72 900 060/04 RMK AO1 T01610111
54779K12N 12N20160523074509805/23/16 07:45:31  5-MIN K12N 231245Z AUTO 05003KT 16/11 A2995 560 69 900 070/03 RMK AO1 T01610106
54779K12N 12N20160523075010505/23/16 07:50:31  5-MIN K12N 231250Z AUTO 05005KT 16/11 A2996 550 72 900 060/05 RMK AO1 SLP142 T01610111
54779K12N 12N20160523075509805/23/16 07:55:31  5-MIN K12N 231255Z AUTO VRB03KT 16/11 A2996 550 72 900 VRB/03 RMK AO1 T01610111
54779K12N 12N20160523080009805/23/16 08:00:31  5-MIN K12N 231300Z AUTO 04003KT 17/11 A2996 550 69 900 050/03 RMK AO1 T01670111
54779K12N 12N20160523080509905/23/16 08:05:31  5-MIN K12N 231305Z AUTO 00000KT 17/12 A2996 550 69 1000 000/00 RMK AO1 T01720117
54779K12N 12N20160523081009905/23/16 08:10:31  5-MIN K12N 231310Z AUTO VRB03KT 18/12 A2996 550 67 1000 VRB/03 RMK AO1 T01780117
54779K12N 12N20160523081509905/23/16 08:15:31  5-MIN K12N 231315Z AUTO 04003KT 18/12 A2996 550 67 1000 050/03 RMK AO1 T01780117
54779K12N 12N20160523082009905/23/16 08:20:31  5-MIN K12N 231320Z AUTO VRB03KT 18/12 A2996 550 69 1000 VRB/03 RMK AO1 T01780122
54779K12N 12N20160523082509905/23/16 08:25:31  5-MIN K12N 231325Z AUTO VRB03KT 18/12 A2996 550 65 1100 VRB/03 RMK AO1 T01830117
54779K12N 12N20160523083009905/23/16 08:30:31  5-MIN K12N 231330Z AUTO VRB04KT 18/11 A2996 550 62 1100 VRB/04 RMK AO1 T01830111
54779K12N 12N20160523083509905/23/16 08:35:31  5-MIN K12N 231335Z AUTO VRB03KT 18/11 A2996 550 62 1100 VRB/03 RMK AO1 T01830111
54779K12N 12N20160523084009905/23/16 08:40:31  5-MIN K12N 231340Z AUTO 03004KT 18/11 A2996 550 62 1100 050/04 RMK AO1 T01830111
54779K12N 12N20160523084509905/23/16 08:45:31  5-MIN K12N 231345Z AUTO VRB05KT 19/11 A2996 550 58 1200 VRB/05 RMK AO1 T01890106
54779K12N 12N20160523085010605/23/16 08:50:31  5-MIN K12N 231350Z AUTO VRB04KT 19/11 A2996 550 58 1200 VRB/04 RMK AO1 SLP141 T01940111
54779K12N 12N20160523085509905/23/16 08:55:31  5-MIN K12N 231355Z AUTO VRB04KT 19/11 A2995 560 58 1200 VRB/04 RMK AO1 T01940111
54779K12N 12N20160523090009905/23/16 09:00:31  5-MIN K12N 231400Z AUTO VRB04KT 19/11 A2995 560 56 1200 VRB/04 RMK AO1 T01940106
54779K12N 12N20160523090509905/23/16 09:05:31  5-MIN K12N 231405Z AUTO VRB03KT 19/11 A2995 560 58 1200 VRB/03 RMK AO1 T01940111
54779K12N 12N20160523091009905/23/16 09:10:31  5-MIN K12N 231410Z AUTO VRB03KT 20/11 A2995 560 56 1300 VRB/03 RMK AO1 T02000111
54779K12N 12N20160523091509905/23/16 09:15:31  5-MIN K12N 231415Z AUTO 04005KT 20/11 A2994 560 54 1300 050/05 RMK AO1 T02000106
54779K12N 12N20160523092009905/23/16 09:20:31  5-MIN K12N 231420Z AUTO VRB03KT 20/11 A2994 570 56 1300 VRB/03 RMK AO1 T02000111
54779K12N 12N20160523092509905/23/16 09:25:31  5-MIN K12N 231425Z AUTO VRB04KT 20/11 A2994 570 56 1300 VRB/04 RMK AO1 T02000111
54779K12N 12N20160523093009905/23/16 09:30:31  5-MIN K12N 231430Z AUTO VRB03KT 21/11 A2994 570 54 1400 VRB/03 RMK AO1 T02060111
54779K12N 12N20160523093509905/23/16 09:35:31  5-MIN K12N 231435Z AUTO VRB06KT 21/11 A2993 570 54 1400 VRB/06 RMK AO1 T02060111
54779K12N 12N20160523094009905/23/16 09:40:31  5-MIN K12N 231440Z AUTO VRB04KT 21/11 A2994 570 52 1400 VRB/04 RMK AO1 T02060106
54779K12N 12N20160523094509905/23/16 09:45:31  5-MIN K12N 231445Z AUTO VRB03KT 21/11 A2993 570 54 1400 VRB/03 RMK AO1 T02060111
54779K12N 12N20160523095011205/23/16 09:50:31  5-MIN K12N 231450Z AUTO 02004KT 21/11 A2993 570 54 1400 030/04 RMK AO1 SLP133 T02060111 53013
54779K12N 12N20160523095509905/23/16 09:55:31  5-MIN K12N 231455Z AUTO VRB03KT 21/11 A2993 570 52 1500 VRB/03 RMK AO1 T02110111
54779K12N 12N20160523100009905/23/16 10:00:31  5-MIN K12N 231500Z AUTO VRB05KT 22/12 A2993 580 52 1500 VRB/05 RMK AO1 T02170117
54779K12N 12N20160523100511505/23/16 10:05:31  5-MIN K12N 231505Z AUTO 01007KT 310V050 21/11 A2993 580 52 1500 020/07 320V060 RMK AO1 T02110111
54779K12N 12N20160523101009905/23/16 10:10:31  5-MIN K12N 231510Z AUTO VRB05KT 21/11 A2993 580 50 1500 VRB/05 RMK AO1 T02110106
54779K12N 12N20160523101509905/23/16 10:15:31  5-MIN K12N 231515Z AUTO 00000KT 22/12 A2992 580 52 1500 000/00 RMK AO1 T02170117
54779K12N 12N20160523102009905/23/16 10:20:31  5-MIN K12N 231520Z AUTO 04007KT 22/11 A2993 580 50 1500 060/07 RMK AO1 T02170111
54779K12N 12N20160523102509905/23/16 10:25:31  5-MIN K12N 231525Z AUTO VRB06KT 22/11 A2993 580 50 1500 VRB/06 RMK AO1 T02170111
54779K12N 12N20160523103009905/23/16 10:30:31  5-MIN K12N 231530Z AUTO VRB05KT 22/11 A2993 580 49 1500 VRB/05 RMK AO1 T02170106
54779K12N 12N20160523103508905/23/16 10:35:31  5-MIN K12N 231535Z AUTO 22/11 A2993 580 47 1600 M /M RMK AO1 T02220106
54779K12N 12N20160523104011505/23/16 10:40:31  5-MIN K12N 231540Z AUTO 05009KT 020V080 22/11 A2993 580 49 1600 060/09 030V090 RMK AO1 T02220111
54779K12N 12N20160523104509905/23/16 10:45:31  5-MIN K12N 231545Z AUTO VRB04KT 22/11 A2993 580 49 1500 VRB/04 RMK AO1 T02170106
54779K12N 12N20160523105010605/23/16 10:50:31  5-MIN K12N 231550Z AUTO 05007KT 22/11 A2993 570 47 1600 060/07 RMK AO1 SLP133 T02220106
54779K12N 12N20160523105509905/23/16 10:55:31  5-MIN K12N 231555Z AUTO VRB06KT 23/11 A2993 580 45 1700 VRB/06 RMK AO1 T02280106
54779K12N 12N20160523110009905/23/16 11:00:31  5-MIN K12N 231600Z AUTO VRB06KT 23/11 A2993 580 45 1700 VRB/06 RMK AO1 T02280106
54779K12N 12N20160523110509905/23/16 11:05:31  5-MIN K12N 231605Z AUTO VRB04KT 23/11 A2993 570 47 1700 VRB/04 RMK AO1 T02280111
54779K12N 12N20160523111009905/23/16 11:10:31  5-MIN K12N 231610Z AUTO VRB06KT 23/11 A2993 580 47 1700 VRB/06 RMK AO1 T02280111
54779K12N 12N20160523111509905/23/16 11:15:31  5-MIN K12N 231615Z AUTO 36006KT 23/11 A2993 580 45 1700 020/06 RMK AO1 T02330111
54779K12N 12N20160523112009905/23/16 11:20:31  5-MIN K12N 231620Z AUTO 04006KT 23/11 A2993 580 45 1700 050/06 RMK AO1 T02330111
54779K12N 12N20160523112509905/23/16 11:25:31  5-MIN K12N 231625Z AUTO VRB05KT 23/11 A2993 580 45 1700 VRB/05 RMK AO1 T02330111
54779K12N 12N20160523113009905/23/16 11:30:31  5-MIN K12N 231630Z AUTO VRB04KT 23/11 A2993 580 44 1700 VRB/04 RMK AO1 T02330106
54779K12N 12N20160523113509905/23/16 11:35:31  5-MIN K12N 231635Z AUTO VRB06KT 23/11 A2992 580 44 1700 VRB/06 RMK AO1 T02330106
54779K12N 12N20160523114009905/23/16 11:40:31  5-MIN K12N 231640Z AUTO VRB05KT 24/09 A2992 580 39 1800 VRB/05 RMK AO1 T02390094
54779K12N 12N20160523114509905/23/16 11:45:31  5-MIN K12N 231645Z AUTO VRB04KT 24/10 A2992 590 41 1800 VRB/04 RMK AO1 T02390100
54779K12N 12N20160523115010605/23/16 11:50:31  5-MIN K12N 231650Z AUTO VRB05KT 24/09 A2991 590 39 1800 VRB/05 RMK AO1 SLP126 T02390094
54779K12N 12N20160523115509905/23/16 11:55:31  5-MIN K12N 231655Z AUTO VRB06KT 23/10 A2991 590 42 1700 VRB/06 RMK AO1 T02330100
54779K12N 12N20160523120009905/23/16 12:00:31  5-MIN K12N 231700Z AUTO 01006KT 24/10 A2991 590 41 1800 020/06 RMK AO1 T02390100
54779K12N 12N20160523120509905/23/16 12:05:31  5-MIN K12N 231705Z AUTO VRB04KT 24/10 A2991 600 41 1800 VRB/04 RMK AO1 T02390100
54779K12N 12N20160523121011505/23/16 12:10:31  5-MIN K12N 231710Z AUTO 02007KT 350V060 24/09 A2991 600 39 1800 040/07 360V070 RMK AO1 T02390094
54779K12N 12N20160523121510505/23/16 12:15:31  5-MIN K12N 231715Z AUTO VRB04G17KT 23/10 A2991 600 42 1700 VRB/04G17 RMK AO1 T02330100
54779K12N 12N20160523122010505/23/16 12:20:31  5-MIN K12N 231720Z AUTO VRB05G14KT 24/10 A2991 600 39 1900 VRB/05G14 RMK AO1 T02440100
54779K12N 12N20160523122509905/23/16 12:25:31  5-MIN K12N 231725Z AUTO VRB04KT 24/10 A2990 600 39 1900 VRB/04 RMK AO1 T02440100
54779K12N 12N20160523123009905/23/16 12:30:31  5-MIN K12N 231730Z AUTO VRB05KT 24/10 A2990 600 39 1900 VRB/05 RMK AO1 T02440100
54779K12N 12N20160523123509905/23/16 12:35:31  5-MIN K12N 231735Z AUTO VRB04KT 25/10 A2990 600 38 1900 VRB/04 RMK AO1 T02500100
54779K12N 12N20160523124009905/23/16 12:40:31  5-MIN K12N 231740Z AUTO 00000KT 25/11 A2990 600 39 1900 000/00 RMK AO1 T02500106
54779K12N 12N20160523210509805/23/16 21:05:31  5-MIN K12N 240205Z AUTO 00000KT 16/12 A2991 600 77 900 000/00 RMK AO1 T01610122
54779K12N 12N20160523211009805/23/16 21:10:31  5-MIN K12N 240210Z AUTO 00000KT 16/13 A2991 600 80 900 000/00 RMK AO1 T01610128
54779K12N 12N20160523211509805/23/16 21:15:31  5-MIN K12N 240215Z AUTO 00000KT 16/13 A2990 600 80 900 000/00 RMK AO1 T01610128
54779K12N 12N20160523212009805/23/16 21:20:31  5-MIN K12N 240220Z AUTO 00000KT 16/13 A2991 600 80 900 000/00 RMK AO1 T01610128
54779K12N 12N20160523212509805/23/16 21:25:31  5-MIN K12N 240225Z AUTO 00000KT 16/13 A2991 600 80 900 000/00 RMK AO1 T01610128
54779K12N 12N20160523213009805/23/16 21:30:31  5-MIN K12N 240230Z AUTO 00000KT 16/13 A2991 590 80 900 000/00 RMK AO1 T01610128
54779K12N 12N20160523213509805/23/16 21:35:31  5-MIN K12N 240235Z AUTO 00000KT 16/13 A2991 590 80 900 000/00 RMK AO1 T01610128
54779K12N 12N20160523214009805/23/16 21:40:31  5-MIN K12N 240240Z AUTO 00000KT 16/13 A2992 590 80 900 000/00 RMK AO1 T01610128
54779K12N 12N20160523214509905/23/16 21:45:31  5-MIN K12N 240245Z AUTO 00000KT 17/12 A2992 590 75 1000 000/00 RMK AO1 T01670122
54779K12N 12N20160523215011205/23/16 21:50:31  5-MIN K12N 240250Z AUTO VRB03KT 17/12 A2992 590 72 1000 VRB/03 RMK AO1 SLP127 T01720122 53007
54779K12N 12N20160523215509905/23/16 21:55:31  5-MIN K12N 240255Z AUTO VRB03KT 17/12 A2992 590 72 1000 VRB/03 RMK AO1 T01720122
54779K12N 12N20160523220009905/23/16 22:00:31  5-MIN K12N 240300Z AUTO VRB04KT 17/12 A2992 580 72 1000 VRB/04 RMK AO1 T01720122
54779K12N 12N20160523220509905/23/16 22:05:31  5-MIN K12N 240305Z AUTO VRB06KT 17/12 A2992 580 72 1000 VRB/06 RMK AO1 T01720122
54779K12N 12N20160523221009905/23/16 22:10:31  5-MIN K12N 240310Z AUTO VRB03KT 17/12 A2992 580 75 1000 VRB/03 RMK AO1 T01670122
54779K12N 12N20160523221509905/23/16 22:15:31  5-MIN K12N 240315Z AUTO VRB05KT 17/12 A2992 580 75 1000 VRB/05 RMK AO1 T01670122
54779K12N 12N20160523222009905/23/16 22:20:31  5-MIN K12N 240320Z AUTO VRB04KT 17/12 A2992 580 75 1000 VRB/04 RMK AO1 T01670122
54779K12N 12N20160523222509805/23/16 22:25:31  5-MIN K12N 240325Z AUTO VRB03KT 17/12 A2993 580 75 900 VRB/03 RMK AO1 T01670122
54779K12N 12N20160523223009805/23/16 22:30:31  5-MIN K12N 240330Z AUTO 00000KT 17/12 A2993 580 75 900 000/00 RMK AO1 T01670122
54779K12N 12N20160523223509805/23/16 22:35:31  5-MIN K12N 240335Z AUTO VRB04KT 17/12 A2993 580 75 900 VRB/04 RMK AO1 T01670122
54779K12N 12N20160523224009905/23/16 22:40:31  5-MIN K12N 240340Z AUTO VRB03KT 17/13 A2992 580 77 1000 VRB/03 RMK AO1 T01670128
54779K12N 12N20160523224509905/23/16 22:45:31  5-MIN K12N 240345Z AUTO 00000KT 17/13 A2992 590 77 1000 000/00 RMK AO1 T01670128
54779K12N 12N20160523225010505/23/16 22:50:31  5-MIN K12N 240350Z AUTO 20005KT 16/13 A2992 590 80 900 210/05 RMK AO1 SLP126 T01610128
54779K12N 12N20160523225509805/23/16 22:55:31  5-MIN K12N 240355Z AUTO VRB05KT 16/13 A2991 600 80 900 VRB/05 RMK AO1 T01610128
54779K12N 12N20160523230009805/23/16 23:00:31  5-MIN K12N 240400Z AUTO 22004KT 16/13 A2991 600 80 900 230/04 RMK AO1 T01610128
54779K12N 12N20160523230509805/23/16 23:05:31  5-MIN K12N 240405Z AUTO 22004KT 16/13 A2990 600 80 900 230/04 RMK AO1 T01610128
54779K12N 12N20160523231009805/23/16 23:10:31  5-MIN K12N 240410Z AUTO 21004KT 16/13 A2990 600 80 900 220/04 RMK AO1 T01610128
54779K12N 12N20160523231509805/23/16 23:15:31  5-MIN K12N 240415Z AUTO VRB03KT 16/13 A2990 610 80 900 VRB/03 RMK AO1 T01610128
54779K12N 12N20160523232009805/23/16 23:20:31  5-MIN K12N 240420Z AUTO 23004KT 16/13 A2990 610 80 900 240/04 RMK AO1 T01610128
54779K12N 12N20160523232509805/23/16 23:25:31  5-MIN K12N 240425Z AUTO 00000KT 16/13 A2990 610 80 900 000/00 RMK AO1 T01610128
54779K12N 12N20160523233009805/23/16 23:30:31  5-MIN K12N 240430Z AUTO 16003KT 16/13 A2990 610 80 900 170/03 RMK AO1 T01610128
54779K12N 12N20160523233509805/23/16 23:35:31  5-MIN K12N 240435Z AUTO VRB03KT 16/13 A2990 600 80 900 VRB/03 RMK AO1 T01610128
54779K12N 12N20160523234009805/23/16 23:40:31  5-MIN K12N 240440Z AUTO VRB03KT 16/13 A2990 600 80 900 VRB/03 RMK AO1 T01610128
54779K12N 12N20160523234509805/23/16 23:45:31  5-MIN K12N 240445Z AUTO 21004KT 16/13 A2990 610 83 900 220/04 RMK AO1 T01560128
54779K12N 12N20160523235011505/23/16 23:50:31  5-MIN K12N 240450Z AUTO 22004KT 16/13 A2989 610 80 900 230/04 RMK AO1 SLP116 T01610128 402610089
54779K12N 12N20160523235509805/23/16 23:55:31  5-MIN K12N 240455Z AUTO 23004KT 16/13 A2989 610 83 900 240/04 RMK AO1 T01560128
54779K12N 12N20160524000009805/24/16 00:00:31  5-MIN K12N 240500Z AUTO 21004KT 16/13 A2989 620 83 900 220/04 RMK AO1 T01560128
54779K12N 12N20160524000509805/24/16 00:05:31  5-MIN K12N 240505Z AUTO VRB03KT 16/13 A2989 610 83 900 VRB/03 RMK AO1 T01560128
54779K12N 12N20160524001009805/24/16 00:10:31  5-MIN K12N 240510Z AUTO 15003KT 16/13 A2989 610 83 900 160/03 RMK AO1 T01560128
54779K12N 12N20160524001509805/24/16 00:15:31  5-MIN K12N 240515Z AUTO 00000KT 16/13 A2989 620 83 900 000/00 RMK AO1 T01560128
54779K12N 12N20160524002009805/24/16 00:20:31  5-MIN K12N 240520Z AUTO 16003KT 16/13 A2989 610 83 900 170/03 RMK AO1 T01560128
54779K12N 12N20160524002509805/24/16 00:25:31  5-MIN K12N 240525Z AUTO 00000KT 16/13 A2989 610 83 900 000/00 RMK AO1 T01560128
54779K12N 12N20160524003009805/24/16 00:30:31  5-MIN K12N 240530Z AUTO 00000KT 16/13 A2989 610 83 900 000/00 RMK AO1 T01560128
54779K12N 12N20160524003509805/24/16 00:35:31  5-MIN K12N 240535Z AUTO 00000KT 16/13 A2989 610 83 900 000/00 RMK AO1 T01560128
54779K12N 12N20160524004009805/24/16 00:40:31  5-MIN K12N 240540Z AUTO 00000KT 16/13 A2989 610 83 900 000/00 RMK AO1 T01560128
54779K12N 12N20160524004509805/24/16 00:45:31  5-MIN K12N 240545Z AUTO 00000KT 16/12 A2989 610 80 900 000/00 RMK AO1 T01560122
54779K12N 12N20160524005012305/24/16 00:50:31  5-MIN K12N 240550Z AUTO 23004KT 16/12 A2989 610 80 900 240/04 RMK AO1 SLP116 T01560122 10200 20156 53016
54779K12N 12N20160524005509805/24/16 00:55:31  5-MIN K12N 240555Z AUTO 21004KT 16/13 A2989 610 83 900 230/04 RMK AO1 T01560128
54779K12N 12N20160524010009805/24/16 01:00:31  5-MIN K12N 240600Z AUTO 00000KT 16/13 A2989 620 83 900 000/00 RMK AO1 T01560128
54779K12N 12N20160524010509805/24/16 01:05:31  5-MIN K12N 240605Z AUTO 00000KT 16/13 A2989 620 83 900 000/00 RMK AO1 T01560128
54779K12N 12N20160524011009805/24/16 01:10:31  5-MIN K12N 240610Z AUTO 00000KT 16/13 A2989 620 83 900 000/00 RMK AO1 T01560128
54779K12N 12N20160524011509805/24/16 01:15:31  5-MIN K12N 240615Z AUTO 00000KT 15/13 A2989 620 86 800 000/00 RMK AO1 T01500128
54779K12N 12N20160524012009805/24/16 01:20:31  5-MIN K12N 240620Z AUTO 00000KT 15/13 A2989 620 86 800 000/00 RMK AO1 T01500128
54779K12N 12N20160524012509805/24/16 01:25:31  5-MIN K12N 240625Z AUTO 00000KT 15/12 A2989 620 83 800 000/00 RMK AO1 T01500122
54779K12N 12N20160524013009805/24/16 01:30:31  5-MIN K12N 240630Z AUTO 00000KT 15/13 A2989 610 86 800 000/00 RMK AO1 T01500128
54779K12N 12N20160524013509805/24/16 01:35:31  5-MIN K12N 240635Z AUTO 00000KT 15/13 A2989 610 86 800 000/00 RMK AO1 T01500128
54779K12N 12N20160524014009805/24/16 01:40:31  5-MIN K12N 240640Z AUTO 00000KT 15/13 A2989 610 86 800 000/00 RMK AO1 T01500128
54779K12N 12N20160524014509805/24/16 01:45:31  5-MIN K12N 240645Z AUTO 00000KT 15/13 A2989 610 86 800 000/00 RMK AO1 T01500128
54779K12N 12N20160524015010505/24/16 01:50:31  5-MIN K12N 240650Z AUTO VRB03KT 15/13 A2989 610 86 800 VRB/03 RMK AO1 SLP115 T01500128
54779K12N 12N20160524015509805/24/16 01:55:31  5-MIN K12N 240655Z AUTO 00000KT 15/13 A2989 610 86 800 000/00 RMK AO1 T01500128
54779K12N 12N20160524020009805/24/16 02:00:31  5-MIN K12N 240700Z AUTO 00000KT 15/13 A2989 610 86 800 000/00 RMK AO1 T01500128
54779K12N 12N20160524020509805/24/16 02:05:31  5-MIN K12N 240705Z AUTO 16003KT 15/13 A2989 610 86 800 170/03 RMK AO1 T01500128
54779K12N 12N20160524021009805/24/16 02:10:31  5-MIN K12N 240710Z AUTO 00000KT 15/13 A2989 610 86 800 000/00 RMK AO1 T01500128
54779K12N 12N20160524021509805/24/16 02:15:31  5-MIN K12N 240715Z AUTO 00000KT 15/13 A2989 610 86 800 000/00 RMK AO1 T01500128
54779K12N 12N20160524022009805/24/16 02:20:31  5-MIN K12N 240720Z AUTO 00000KT 15/13 A2989 610 86 800 000/00 RMK AO1 T01500128
54779K12N 12N20160524022509805/24/16 02:25:31  5-MIN K12N 240725Z AUTO 00000KT 15/13 A2989 610 86 800 000/00 RMK AO1 T01500128
54779K12N 12N20160524023009805/24/16 02:30:31  5-MIN K12N 240730Z AUTO 00000KT 15/13 A2989 610 86 800 000/00 RMK AO1 T01500128
54779K12N 12N20160524023509805/24/16 02:35:31  5-MIN K12N 240735Z AUTO 00000KT 15/13 A2990 610 86 800 000/00 RMK AO1 T01500128
54779K12N 12N20160524024009805/24/16 02:40:31  5-MIN K12N 240740Z AUTO VRB03KT 15/13 A2989 610 86 800 VRB/03 RMK AO1 T01500128
54779K12N 12N20160524024509805/24/16 02:45:31  5-MIN K12N 240745Z AUTO 00000KT 14/13 A2989 610 90 700 000/00 RMK AO1 T01440128
54779K12N 12N20160524025010505/24/16 02:50:31  5-MIN K12N 240750Z AUTO VRB04KT 14/13 A2989 610 90 700 VRB/04 RMK AO1 SLP117 T01440128
54779K12N 12N20160524025509805/24/16 02:55:31  5-MIN K12N 240755Z AUTO 00000KT 14/13 A2989 610 90 700 000/00 RMK AO1 T01440128
54779K12N 12N20160524030009805/24/16 03:00:31  5-MIN K12N 240800Z AUTO 00000KT 14/13 A2989 610 90 700 000/00 RMK AO1 T01440128
54779K12N 12N20160524030509805/24/16 03:05:31  5-MIN K12N 240805Z AUTO 00000KT 14/13 A2989 610 90 700 000/00 RMK AO1 T01440128
54779K12N 12N20160524031009805/24/16 03:10:31  5-MIN K12N 240810Z AUTO 00000KT 14/13 A2989 610 90 700 000/00 RMK AO1 T01440128
54779K12N 12N20160524031509805/24/16 03:15:31  5-MIN K12N 240815Z AUTO 00000KT 14/13 A2989 610 90 700 000/00 RMK AO1 T01440128
54779K12N 12N20160524032009805/24/16 03:20:31  5-MIN K12N 240820Z AUTO 00000KT 14/13 A2990 610 90 700 000/00 RMK AO1 T01440128
54779K12N 12N20160524032509805/24/16 03:25:31  5-MIN K12N 240825Z AUTO 00000KT 14/13 A2990 610 90 700 000/00 RMK AO1 T01440128
54779K12N 12N20160524033009805/24/16 03:30:31  5-MIN K12N 240830Z AUTO 00000KT 14/13 A2990 610 90 700 000/00 RMK AO1 T01440128
54779K12N 12N20160524033509805/24/16 03:35:31  5-MIN K12N 240835Z AUTO 00000KT 14/13 A2989 610 90 700 000/00 RMK AO1 T01440128
54779K12N 12N20160524034009805/24/16 03:40:31  5-MIN K12N 240840Z AUTO 00000KT 14/13 A2990 610 93 700 000/00 RMK AO1 T01390128
54779K12N 12N20160524034509805/24/16 03:45:31  5-MIN K12N 240845Z AUTO 00000KT 14/13 A2990 610 90 700 000/00 RMK AO1 T01440128
54779K12N 12N20160524035011105/24/16 03:50:31  5-MIN K12N 240850Z AUTO 00000KT 14/13 A2990 600 93 700 000/00 RMK AO1 SLP120 T01390128 56010
54779K12N 12N20160524035509805/24/16 03:55:31  5-MIN K12N 240855Z AUTO 00000KT 14/13 A2990 600 90 700 000/00 RMK AO1 T01440128
54779K12N 12N20160524040009805/24/16 04:00:31  5-MIN K12N 240900Z AUTO 00000KT 14/13 A2991 590 93 600 000/00 RMK AO1 T01390128
54779K12N 12N20160524040509805/24/16 04:05:31  5-MIN K12N 240905Z AUTO 00000KT 14/13 A2991 590 90 700 000/00 RMK AO1 T01440128
54779K12N 12N20160524041009805/24/16 04:10:31  5-MIN K12N 240910Z AUTO 00000KT 14/13 A2991 590 90 700 000/00 RMK AO1 T01440128
54779K12N 12N20160524041509805/24/16 04:15:31  5-MIN K12N 240915Z AUTO 00000KT 14/13 A2992 590 90 700 000/00 RMK AO1 T01440128
54779K12N 12N20160524042009805/24/16 04:20:31  5-MIN K12N 240920Z AUTO 00000KT 14/13 A2991 590 93 600 000/00 RMK AO1 T01390128
54779K12N 12N20160524042509805/24/16 04:25:31  5-MIN K12N 240925Z AUTO 00000KT 14/13 A2992 590 93 600 000/00 RMK AO1 T01390128
54779K12N 12N20160524043009805/24/16 04:30:31  5-MIN K12N 240930Z AUTO 00000KT 14/13 A2992 590 93 600 000/00 RMK AO1 T01390128
54779K12N 12N20160524043509805/24/16 04:35:31  5-MIN K12N 240935Z AUTO 00000KT 14/13 A2992 590 93 600 000/00 RMK AO1 T01390128
54779K12N 12N20160524044009805/24/16 04:40:31  5-MIN K12N 240940Z AUTO 00000KT 14/13 A2992 590 93 600 000/00 RMK AO1 T01390128
54779K12N 12N20160524044509805/24/16 04:45:31  5-MIN K12N 240945Z AUTO 00000KT 14/13 A2991 590 93 600 000/00 RMK AO1 T01390128
54779K12N 12N20160524045010505/24/16 04:50:31  5-MIN K12N 240950Z AUTO 00000KT 14/13 A2991 600 93 600 000/00 RMK AO1 SLP123 T01390128
54779K12N 12N20160524045509805/24/16 04:55:31  5-MIN K12N 240955Z AUTO 12004KT 14/13 A2990 600 93 700 140/04 RMK AO1 T01390128
54779K12N 12N20160524050009805/24/16 05:00:31  5-MIN K12N 241000Z AUTO 13003KT 14/13 A2990 610 93 700 140/03 RMK AO1 T01390128
54779K12N 12N20160524050509805/24/16 05:05:31  5-MIN K12N 241005Z AUTO VRB03KT 14/13 A2990 610 93 700 VRB/03 RMK AO1 T01390128
54779K12N 12N20160524051009805/24/16 05:10:31  5-MIN K12N 241010Z AUTO 28005KT 14/13 A2991 600 93 600 300/05 RMK AO1 T01390128
54779K12N 12N20160524051509805/24/16 05:15:31  5-MIN K12N 241015Z AUTO 00000KT 14/13 A2991 600 93 600 000/00 RMK AO1 T01390128
54779K12N 12N20160524052009805/24/16 05:20:31  5-MIN K12N 241020Z AUTO 00000KT 14/13 A2991 590 96 600 000/00 RMK AO1 T01390133
54779K12N 12N20160524052509805/24/16 05:25:31  5-MIN K12N 241025Z AUTO 00000KT 14/13 A2991 600 96 600 000/00 RMK AO1 T01390133
54779K12N 12N20160524053009805/24/16 05:30:31  5-MIN K12N 241030Z AUTO 00000KT 14/13 A2991 600 93 700 000/00 RMK AO1 T01440133
54779K12N 12N20160524053509805/24/16 05:35:31  5-MIN K12N 241035Z AUTO 00000KT 14/13 A2991 590 93 700 000/00 RMK AO1 T01440133
54779K12N 12N20160524054009805/24/16 05:40:31  5-MIN K12N 241040Z AUTO 00000KT 14/13 A2991 590 93 600 000/00 RMK AO1 T01390128
54779K12N 12N20160524054509805/24/16 05:45:31  5-MIN K12N 241045Z AUTO 00000KT 14/13 A2991 590 90 700 000/00 RMK AO1 T01440128
54779K12N 12N20160524055010505/24/16 05:50:31  5-MIN K12N 241050Z AUTO 00000KT 14/13 A2991 590 93 700 000/00 RMK AO1 SLP125 T01440133
54779K12N 12N20160524055509805/24/16 05:55:31  5-MIN K12N 241055Z AUTO 00000KT 14/13 A2992 590 90 700 000/00 RMK AO1 T01440128
54779K12N 12N20160524060009805/24/16 06:00:31  5-MIN K12N 241100Z AUTO 00000KT 14/13 A2992 590 90 700 000/00 RMK AO1 T01440128
54779K12N 12N20160524060509805/24/16 06:05:31  5-MIN K12N 241105Z AUTO 00000KT 14/13 A2992 590 90 700 000/00 RMK AO1 T01440128
54779K12N 12N20160524061009805/24/16 06:10:31  5-MIN K12N 241110Z AUTO 00000KT 14/13 A2992 590 93 700 000/00 RMK AO1 T01440133
54779K12N 12N20160524061509805/24/16 06:15:31  5-MIN K12N 241115Z AUTO 00000KT 14/13 A2992 580 93 700 000/00 RMK AO1 T01440133
54779K12N 12N20160524062009805/24/16 06:20:31  5-MIN K12N 241120Z AUTO 00000KT 14/13 A2992 580 93 700 000/00 RMK AO1 T01440133
54779K12N 12N20160524062509805/24/16 06:25:31  5-MIN K12N 241125Z AUTO 00000KT 14/13 A2993 580 93 700 000/00 RMK AO1 T01440133
54779K12N 12N20160524063009805/24/16 06:30:31  5-MIN K12N 241130Z AUTO 00000KT 14/13 A2993 580 93 700 000/00 RMK AO1 T01440133
54779K12N 12N20160524063509805/24/16 06:35:31  5-MIN K12N 241135Z AUTO 00000KT 14/13 A2993 580 93 700 000/00 RMK AO1 T01440133
54779K12N 12N20160524064009805/24/16 06:40:31  5-MIN K12N 241140Z AUTO 00000KT 14/13 A2993 570 93 700 000/00 RMK AO1 T01440133
54779K12N 12N20160524064509805/24/16 06:45:31  5-MIN K12N 241145Z AUTO 00000KT 14/13 A2994 570 93 700 000/00 RMK AO1 T01440133
54779K12N 12N20160524065012305/24/16 06:50:31  5-MIN K12N 241150Z AUTO 00000KT 14/13 A2994 570 93 700 000/00 RMK AO1 SLP134 T01440133 10156 20139 53004
54779K12N 12N20160524065509805/24/16 06:55:31  5-MIN K12N 241155Z AUTO 00000KT 14/13 A2994 570 93 700 000/00 RMK AO1 T01440133
54779K12N 12N20160524070009805/24/16 07:00:31  5-MIN K12N 241200Z AUTO 00000KT 15/13 A2994 570 90 700 000/00 RMK AO1 T01500133
54779K12N 12N20160524070509805/24/16 07:05:31  5-MIN K12N 241205Z AUTO 00000KT 15/13 A2994 570 90 700 000/00 RMK AO1 T01500133
54779K12N 12N20160524071009805/24/16 07:10:31  5-MIN K12N 241210Z AUTO 00000KT 15/13 A2995 560 90 700 000/00 RMK AO1 T01500133
54779K12N 12N20160524071509805/24/16 07:15:31  5-MIN K12N 241215Z AUTO 00000KT 15/13 A2995 560 90 700 000/00 RMK AO1 T01500133
54779K12N 12N20160524072009805/24/16 07:20:31  5-MIN K12N 241220Z AUTO 00000KT 14/13 A2994 570 93 700 000/00 RMK AO1 T01440133
54779K12N 12N20160524072509805/24/16 07:25:31  5-MIN K12N 241225Z AUTO 22004KT 15/13 A2994 570 90 700 230/04 RMK AO1 T01500133
54779K12N 12N20160524073009805/24/16 07:30:31  5-MIN K12N 241230Z AUTO 20004KT 15/13 A2994 570 90 700 210/04 RMK AO1 T01500133
54779K12N 12N20160524073509805/24/16 07:35:31  5-MIN K12N 241235Z AUTO 00000KT 15/14 A2995 560 93 700 000/00 RMK AO1 T01500139
54779K12N 12N20160524074009805/24/16 07:40:31  5-MIN K12N 241240Z AUTO 23003KT 15/14 A2995 560 93 700 240/03 RMK AO1 T01500139
54779K12N 12N20160524074509805/24/16 07:45:31  5-MIN K12N 241245Z AUTO 00000KT 15/13 A2995 560 90 700 000/00 RMK AO1 T01500133
54779K12N 12N20160524075010505/24/16 07:50:31  5-MIN K12N 241250Z AUTO 22003KT 15/14 A2995 560 93 700 230/03 RMK AO1 SLP138 T01500139
54779K12N 12N20160524075509805/24/16 07:55:31  5-MIN K12N 241255Z AUTO 00000KT 15/14 A2995 560 93 700 000/00 RMK AO1 T01500139
54779K12N 12N20160524080009805/24/16 08:00:31  5-MIN K12N 241300Z AUTO 00000KT 16/14 A2995 560 90 800 000/00 RMK AO1 T01560139
54779K12N 12N20160524080509805/24/16 08:05:31  5-MIN K12N 241305Z AUTO 00000KT 16/14 A2994 560 90 800 000/00 RMK AO1 T01560139
54779K12N 12N20160524081009805/24/16 08:10:31  5-MIN K12N 241310Z AUTO 23003KT 16/14 A2994 560 90 800 240/03 RMK AO1 T01560139
54779K12N 12N20160524081509805/24/16 08:15:31  5-MIN K12N 241315Z AUTO 00000KT 16/14 A2994 570 90 800 000/00 RMK AO1 T01560139
54779K12N 12N20160524082009805/24/16 08:20:31  5-MIN K12N 241320Z AUTO 00000KT 16/14 A2994 570 90 800 000/00 RMK AO1 T01560139
54779K12N 12N20160524082509805/24/16 08:25:31  5-MIN K12N 241325Z AUTO 00000KT 16/14 A2994 570 90 800 000/00 RMK AO1 T01560139
54779K12N 12N20160524083009805/24/16 08:30:31  5-MIN K12N 241330Z AUTO 00000KT 16/14 A2994 570 90 800 000/00 RMK AO1 T01560139
54779K12N 12N20160524083509805/24/16 08:35:31  5-MIN K12N 241335Z AUTO 00000KT 16/14 A2994 570 86 900 000/00 RMK AO1 T01610139
54779K12N 12N20160524084009805/24/16 08:40:31  5-MIN K12N 241340Z AUTO 23003KT 16/14 A2994 570 86 900 250/03 RMK AO1 T01610139
54779K12N 12N20160524084509805/24/16 08:45:31  5-MIN K12N 241345Z AUTO 00000KT 16/14 A2994 570 86 900 000/00 RMK AO1 T01610139
54779K12N 12N20160524085010505/24/16 08:50:31  5-MIN K12N 241350Z AUTO 00000KT 17/14 A2994 570 83 900 000/00 RMK AO1 SLP136 T01670139
54779K12N 12N20160524085509805/24/16 08:55:31  5-MIN K12N 241355Z AUTO 00000KT 16/14 A2994 570 86 900 000/00 RMK AO1 T01610139
54779K12N 12N20160524090009805/24/16 09:00:31  5-MIN K12N 241400Z AUTO 00000KT 17/14 A2994 570 86 900 000/00 RMK AO1 T01670144
54779K12N 12N20160524090509805/24/16 09:05:31  5-MIN K12N 241405Z AUTO 00000KT 16/14 A2994 570 86 900 000/00 RMK AO1 T01610139
54779K12N 12N20160524091009805/24/16 09:10:31  5-MIN K12N 241410Z AUTO 00000KT 17/14 A2993 570 86 900 000/00 RMK AO1 T01670144
54779K12N 12N20160524091509805/24/16 09:15:31  5-MIN K12N 241415Z AUTO 16003KT 17/14 A2993 570 86 900 170/03 RMK AO1 T01670144
54779K12N 12N20160524092009805/24/16 09:20:31  5-MIN K12N 241420Z AUTO 00000KT 17/14 A2994 570 86 900 000/00 RMK AO1 T01670144
54779K12N 12N20160524092509905/24/16 09:25:31  5-MIN K12N 241425Z AUTO 00000KT 17/14 A2994 570 83 1000 000/00 RMK AO1 T01720144
54779K12N 12N20160524093009905/24/16 09:30:31  5-MIN K12N 241430Z AUTO 00000KT 17/14 A2993 570 83 1000 000/00 RMK AO1 T01720144
54779K12N 12N20160524093509905/24/16 09:35:31  5-MIN K12N 241435Z AUTO 20003KT 17/14 A2993 570 83 1000 210/03 RMK AO1 T01720144
54779K12N 12N20160524094009905/24/16 09:40:31  5-MIN K12N 241440Z AUTO VRB04KT 18/15 A2993 580 83 1100 VRB/04 RMK AO1 T01780150
54779K12N 12N20160524094509905/24/16 09:45:31  5-MIN K12N 241445Z AUTO VRB05KT 18/14 A2993 580 78 1100 VRB/05 RMK AO1 T01830144
54779K12N 12N20160524095011205/24/16 09:50:31  5-MIN K12N 241450Z AUTO VRB05KT 19/14 A2993 580 72 1200 VRB/05 RMK AO1 SLP130 T01890139 53012
54779K12N 12N20160524095509905/24/16 09:55:31  5-MIN K12N 241455Z AUTO 22005KT 18/14 A2993 580 75 1100 230/05 RMK AO1 T01830139
54779K12N 12N20160524100009905/24/16 10:00:31  5-MIN K12N 241500Z AUTO 22005KT 18/13 A2993 570 72 1100 230/05 RMK AO1 T01830133
54779K12N 12N20160524100509905/24/16 10:05:31  5-MIN K12N 241505Z AUTO 22006KT 19/13 A2993 570 70 1200 240/06 RMK AO1 T01890133
54779K12N 12N20160524101009905/24/16 10:10:31  5-MIN K12N 241510Z AUTO VRB05KT 19/13 A2993 570 70 1200 VRB/05 RMK AO1 T01890133
54779K12N 12N20160524101509905/24/16 10:15:31  5-MIN K12N 241515Z AUTO VRB05KT 19/13 A2993 570 67 1300 VRB/05 RMK AO1 T01940133
54779K12N 12N20160524102009905/24/16 10:20:31  5-MIN K12N 241520Z AUTO VRB06KT 19/13 A2993 570 65 1300 VRB/06 RMK AO1 T01940128
54779K12N 12N20160524102509905/24/16 10:25:31  5-MIN K12N 241525Z AUTO VRB04KT 20/13 A2993 570 65 1300 VRB/04 RMK AO1 T02000133
54779K12N 12N20160524103009905/24/16 10:30:31  5-MIN K12N 241530Z AUTO VRB03KT 21/13 A2994 570 63 1400 VRB/03 RMK AO1 T02060133
54779K12N 12N20160524103509905/24/16 10:35:31  5-MIN K12N 241535Z AUTO VRB03KT 21/13 A2994 570 60 1400 VRB/03 RMK AO1 T02060128
54779K12N 12N20160524104009905/24/16 10:40:31  5-MIN K12N 241540Z AUTO VRB03KT 20/12 A2994 570 60 1300 VRB/03 RMK AO1 T02000122
54779K12N 12N20160524104509905/24/16 10:45:31  5-MIN K12N 241545Z AUTO VRB04KT 20/12 A2994 570 60 1300 VRB/04 RMK AO1 T02000122
54779K12N 12N20160524105010605/24/16 10:50:31  5-MIN K12N 241550Z AUTO 23005KT 20/13 A2994 570 63 1300 240/05 RMK AO1 SLP133 T02000128
54779K12N 12N20160524105509905/24/16 10:55:31  5-MIN K12N 241555Z AUTO 27005KT 21/13 A2993 570 60 1400 280/05 RMK AO1 T02060128
54779K12N 12N20160524110009905/24/16 11:00:31  5-MIN K12N 241600Z AUTO VRB03KT 21/13 A2993 570 58 1500 VRB/03 RMK AO1 T02110128
54779K12N 12N20160524110509905/24/16 11:05:31  5-MIN K12N 241605Z AUTO VRB04KT 21/12 A2993 570 56 1500 VRB/04 RMK AO1 T02110122
54779K12N 12N20160524111009905/24/16 11:10:31  5-MIN K12N 241610Z AUTO 22004KT 21/12 A2993 570 56 1400 230/04 RMK AO1 T02060117
54779K12N 12N20160524111509905/24/16 11:15:31  5-MIN K12N 241615Z AUTO 21004KT 21/12 A2993 570 56 1400 220/04 RMK AO1 T02060117
54779K12N 12N20160524112009905/24/16 11:20:31  5-MIN K12N 241620Z AUTO 00000KT 21/12 A2993 580 56 1400 000/00 RMK AO1 T02060117
54779K12N 12N20160524112509905/24/16 11:25:31  5-MIN K12N 241625Z AUTO 22005KT 21/12 A2993 580 54 1500 230/05 RMK AO1 T02110117
54779K12N 12N20160524113009905/24/16 11:30:31  5-MIN K12N 241630Z AUTO 22006KT 22/12 A2993 580 52 1500 240/06 RMK AO1 T02170117
54779K12N 12N20160524113509905/24/16 11:35:31  5-MIN K12N 241635Z AUTO VRB04KT 22/11 A2993 580 50 1500 VRB/04 RMK AO1 T02170111
54779K12N 12N20160524114009905/24/16 11:40:31  5-MIN K12N 241640Z AUTO VRB03KT 21/11 A2993 580 52 1500 VRB/03 RMK AO1 T02110111
54779K12N 12N20160524114509905/24/16 11:45:31  5-MIN K12N 241645Z AUTO VRB03KT 22/12 A2993 580 52 1600 VRB/03 RMK AO1 T02220122
54779K12N 12N20160524115010605/24/16 11:50:31  5-MIN K12N 241650Z AUTO 21004KT 22/12 A2992 580 54 1500 220/04 RMK AO1 SLP128 T02170122
54779K12N 12N20160524115509905/24/16 11:55:31  5-MIN K12N 241655Z AUTO 00000KT 22/11 A2992 580 49 1600 000/00 RMK AO1 T02220111
54779K12N 12N20160524120009905/24/16 12:00:31  5-MIN K12N 241700Z AUTO VRB04KT 23/11 A2992 590 47 1700 VRB/04 RMK AO1 T02280111
54779K12N 12N20160524120509905/24/16 12:05:31  5-MIN K12N 241705Z AUTO VRB05KT 23/11 A2992 590 45 1700 VRB/05 RMK AO1 T02280106
54779K12N 12N20160524121009905/24/16 12:10:31  5-MIN K12N 241710Z AUTO VRB05KT 23/10 A2992 590 44 1700 VRB/05 RMK AO1 T02280100
54779K12N 12N20160524121509905/24/16 12:15:31  5-MIN K12N 241715Z AUTO VRB03KT 23/09 A2992 590 42 1700 VRB/03 RMK AO1 T02280094
54779K12N 12N20160524122009905/24/16 12:20:31  5-MIN K12N 241720Z AUTO 00000KT 23/09 A2991 590 42 1700 000/00 RMK AO1 T02280094
54779K12N 12N20160524122509905/24/16 12:25:31  5-MIN K12N 241725Z AUTO 00000KT 23/09 A2991 590 42 1700 000/00 RMK AO1 T02280094
54779K12N 12N20160524123009905/24/16 12:30:31  5-MIN K12N 241730Z AUTO 00000KT 24/10 A2991 600 41 1800 000/00 RMK AO1 T02390100
54779K12N 12N20160524123509905/24/16 12:35:31  5-MIN K12N 241735Z AUTO 00000KT 23/09 A2991 600 41 1700 000/00 RMK AO1 T02330094
54779K12N 12N20160524124009905/24/16 12:40:31  5-MIN K12N 241740Z AUTO 17003KT 24/09 A2990 600 39 1800 180/03 RMK AO1 T02390094
54779K12N 12N20160524124508905/24/16 12:45:31  5-MIN K12N 241745Z AUTO 24/09 A2991 600 38 1900 M /M RMK AO1 T02440094
54779K12N 12N20160524125012405/24/16 12:50:31  5-MIN K12N 241750Z AUTO 00000KT 23/09 A2990 600 39 1700 000/00 RMK AO1 SLP122 T02330089 10244 20144 58002
54779K12N 12N20160524125509905/24/16 12:55:31  5-MIN K12N 241755Z AUTO 00000KT 24/09 A2990 600 36 1900 000/00 RMK AO1 T02440089
54779K12N 12N20160524130009905/24/16 13:00:31  5-MIN K12N 241800Z AUTO VRB05KT 26/08 A2990 600 33 2000 VRB/05 RMK AO1 T02560083
54779K12N 12N20160524130509905/24/16 13:05:31  5-MIN K12N 241805Z AUTO VRB04KT 26/08 A2990 610 33 2000 VRB/04 RMK AO1 T02560083
54779K12N 12N20160524131011505/24/16 13:10:31  5-MIN K12N 241810Z AUTO 31007KT 280V010 26/07 A2990 610 30 2000 320/07 290V020 RMK AO1 T02560072
54779K12N 12N20160524131509905/24/16 13:15:31  5-MIN K12N 241815Z AUTO VRB03KT 26/08 A2989 610 31 2100 VRB/03 RMK AO1 T02610078
54779K12N 12N20160524132009905/24/16 13:20:31  5-MIN K12N 241820Z AUTO VRB06KT 27/08 A2989 610 31 2100 VRB/06 RMK AO1 T02670083
54779K12N 12N20160524132509905/24/16 13:25:31  5-MIN K12N 241825Z AUTO VRB05KT 26/08 A2989 610 32 2000 VRB/05 RMK AO1 T02560078
54779K12N 12N20160524133009905/24/16 13:30:31  5-MIN K12N 241830Z AUTO VRB03KT 26/08 A2989 610 32 2000 VRB/03 RMK AO1 T02560078
54779K12N 12N20160524133509905/24/16 13:35:31  5-MIN K12N 241835Z AUTO VRB03KT 27/08 A2989 610 29 2100 VRB/03 RMK AO1 T02670078
54779K12N 12N20160524134009905/24/16 13:40:31  5-MIN K12N 241840Z AUTO 06003KT 26/07 A2989 610 29 2100 070/03 RMK AO1 T02610072
54779K12N 12N20160524134509905/24/16 13:45:31  5-MIN K12N 241845Z AUTO VRB03KT 26/07 A2989 620 29 2100 VRB/03 RMK AO1 T02610072
54779K12N 12N20160524135010605/24/16 13:50:31  5-MIN K12N 241850Z AUTO VRB03KT 26/07 A2989 620 29 2100 VRB/03 RMK AO1 SLP115 T02610072
54779K12N 12N20160524135509905/24/16 13:55:31  5-MIN K12N 241855Z AUTO 00000KT 26/06 A2988 620 28 2000 000/00 RMK AO1 T02560061
54779K12N 12N20160524140008905/24/16 14:00:31  5-MIN K12N 241900Z AUTO 26/07 A2989 620 30 2000 M /M RMK AO1 T02560072
54779K12N 12N20160524140509905/24/16 14:05:31  5-MIN K12N 241905Z AUTO 03005KT 25/10 A2989 610 38 2000 050/05 RMK AO1 T02500100
54779K12N 12N20160524141009905/24/16 14:10:31  5-MIN K12N 241910Z AUTO 00000KT 26/09 A2989 620 33 2100 000/00 RMK AO1 T02610089
54779K12N 12N20160524141508905/24/16 14:15:31  5-MIN K12N 241915Z AUTO 27/09 A2989 620 32 2100 M /M RMK AO1 T02670089
54779K12N 12N20160524142009905/24/16 14:20:31  5-MIN K12N 241920Z AUTO 33003KT 26/09 A2989 620 35 2000 340/03 RMK AO1 T02560094
54779K12N 12N20160524142509905/24/16 14:25:31  5-MIN K12N 241925Z AUTO VRB04KT 25/09 A2989 620 35 2000 VRB/04 RMK AO1 T02500089
54779K12N 12N20160524143009905/24/16 14:30:31  5-MIN K12N 241930Z AUTO VRB05KT 27/08 A2988 620 29 2100 VRB/05 RMK AO1 T02670078
54779K12N 12N20160524143509905/24/16 14:35:31  5-MIN K12N 241935Z AUTO VRB03KT 27/09 A2988 620 31 2200 VRB/03 RMK AO1 T02720089
54779K12N 12N20160524144009905/24/16 14:40:31  5-MIN K12N 241940Z AUTO 06005KT 27/08 A2989 620 29 2100 070/05 RMK AO1 T02670078
54779K12N 12N20160524144509905/24/16 14:45:31  5-MIN K12N 241945Z AUTO 04005KT 25/10 A2989 620 38 2000 050/05 RMK AO1 T02500100
54779K12N 12N20160524145010605/24/16 14:50:31  5-MIN K12N 241950Z AUTO 05006KT 26/11 A2989 610 38 2000 060/06 RMK AO1 SLP116 T02560106
54779K12N 12N20160524145509905/24/16 14:55:31  5-MIN K12N 241955Z AUTO VRB04KT 26/10 A2989 610 37 2000 VRB/04 RMK AO1 T02560100
54779K12N 12N20160524150009905/24/16 15:00:31  5-MIN K12N 242000Z AUTO VRB04KT 26/09 A2989 610 35 2000 VRB/04 RMK AO1 T02560094
54779K12N 12N20160524150509905/24/16 15:05:31  5-MIN K12N 242005Z AUTO 05005KT 24/10 A2990 610 39 1900 060/05 RMK AO1 T02440100
54779K12N 12N20160524151009905/24/16 15:10:31  5-MIN K12N 242010Z AUTO VRB05KT 24/11 A2990 600 44 1800 VRB/05 RMK AO1 T02390111
54779K12N 12N20160524151509905/24/16 15:15:31  5-MIN K12N 242015Z AUTO VRB04KT 23/12 A2990 600 47 1700 VRB/04 RMK AO1 T02330117
54779K12N 12N20160524152009905/24/16 15:20:31  5-MIN K12N 242020Z AUTO VRB04KT 23/12 A2990 600 47 1700 VRB/04 RMK AO1 T02330117
54779K12N 12N20160524152509905/24/16 15:25:31  5-MIN K12N 242025Z AUTO VRB06KT 23/12 A2991 600 49 1700 VRB/06 RMK AO1 T02280117
54779K12N 12N20160524153009905/24/16 15:30:31  5-MIN K12N 242030Z AUTO VRB05KT 23/11 A2991 590 47 1700 VRB/05 RMK AO1 T02280111
54779K12N 12N20160524153509905/24/16 15:35:31  5-MIN K12N 242035Z AUTO VRB03KT 22/11 A2991 590 49 1600 VRB/03 RMK AO1 T02220111
54779K12N 12N20160524154009905/24/16 15:40:31  5-MIN K12N 242040Z AUTO 04004KT 22/11 A2992 590 49 1600 060/04 RMK AO1 T02220111
54779K12N 12N20160524154509905/24/16 15:45:31  5-MIN K12N 242045Z AUTO VRB03KT 22/11 A2992 590 49 1600 VRB/03 RMK AO1 T02220111
54779K12N 12N20160524155011205/24/16 15:50:31  5-MIN K12N 242050Z AUTO 00000KT 22/11 A2992 590 49 1600 000/00 RMK AO1 SLP127 T02220111 58009
54779K12N 12N20160524155509905/24/16 15:55:31  5-MIN K12N 242055Z AUTO 00000KT 22/11 A2992 590 49 1600 000/00 RMK AO1 T02220111
54779K12N 12N20160524160009905/24/16 16:00:31  5-MIN K12N 242100Z AUTO 03003KT 22/11 A2992 590 49 1600 050/03 RMK AO1 T02220111
54779K12N 12N20160524160509905/24/16 16:05:31  5-MIN K12N 242105Z AUTO 04004KT 22/11 A2992 580 49 1600 050/04 RMK AO1 T02220111
54779K12N 12N20160524161009905/24/16 16:10:31  5-MIN K12N 242110Z AUTO VRB03KT 22/12 A2992 580 51 1600 VRB/03 RMK AO1 T02220117
54779K12N 12N20160524161509905/24/16 16:15:31  5-MIN K12N 242115Z AUTO VRB04KT 22/12 A2992 580 52 1500 VRB/04 RMK AO1 T02170117
54779K12N 12N20160524162009905/24/16 16:20:31  5-MIN K12N 242120Z AUTO VRB04KT 22/11 A2992 580 50 1500 VRB/04 RMK AO1 T02170111
54779K12N 12N20160524162509905/24/16 16:25:31  5-MIN K12N 242125Z AUTO 05004KT 22/11 A2992 580 49 1500 060/04 RMK AO1 T02170106
54779K12N 12N20160524163009905/24/16 16:30:31  5-MIN K12N 242130Z AUTO VRB04KT 22/11 A2993 580 49 1500 VRB/04 RMK AO1 T02170106
54779K12N 12N20160524163509905/24/16 16:35:31  5-MIN K12N 242135Z AUTO 00000KT 21/11 A2993 580 52 1500 000/00 RMK AO1 T02110111
54779K12N 12N20160524164009905/24/16 16:40:31  5-MIN K12N 242140Z AUTO VRB03KT 21/11 A2993 580 52 1500 VRB/03 RMK AO1 T02110111
54779K12N 12N20160524164509905/24/16 16:45:31  5-MIN K12N 242145Z AUTO VRB03KT 21/11 A2993 580 50 1500 VRB/03 RMK AO1 T02110106
54779K12N 12N20160524165010605/24/16 16:50:31  5-MIN K12N 242150Z AUTO VRB03KT 21/11 A2993 580 52 1500 VRB/03 RMK AO1 SLP131 T02110111
54779K12N 12N20160524202009805/24/16 20:20:31  5-MIN K12N 250120Z AUTO 00000KT 16/12 A2999 520 77 800 000/00 RMK AO1 T01560117
54779K12N 12N20160524202509805/24/16 20:25:31  5-MIN K12N 250125Z AUTO 00000KT 15/12 A2999 530 83 700 000/00 RMK AO1 T01500122
54779K12N 12N20160524203009805/24/16 20:30:31  5-MIN K12N 250130Z AUTO 00000KT 15/12 A2999 520 83 700 000/00 RMK AO1 T01500122
54779K12N 12N20160524203509805/24/16 20:35:31  5-MIN K12N 250135Z AUTO 00000KT 14/12 A2999 520 83 600 000/00 RMK AO1 T01440117
54779K12N 12N20160524204009805/24/16 20:40:31  5-MIN K12N 250140Z AUTO 00000KT 14/12 A2999 520 83 600 000/00 RMK AO1 T01440117
54779K12N 12N20160524204509805/24/16 20:45:31  5-MIN K12N 250145Z AUTO 00000KT 14/12 A2999 520 86 600 000/00 RMK AO1 T01390117
54779K12N 12N20160524205010505/24/16 20:50:31  5-MIN K12N 250150Z AUTO 00000KT 14/12 A2999 520 83 600 000/00 RMK AO1 SLP155 T01440117
54779K12N 12N20160524205509805/24/16 20:55:31  5-MIN K12N 250155Z AUTO 00000KT 14/12 A3000 520 83 600 000/00 RMK AO1 T01440117
54779K12N 12N20160524210009805/24/16 21:00:31  5-MIN K12N 250200Z AUTO 00000KT 14/12 A3000 510 83 600 000/00 RMK AO1 T01440117
54779K12N 12N20160524210509805/24/16 21:05:31  5-MIN K12N 250205Z AUTO 00000KT 14/12 A3000 510 90 500 000/00 RMK AO1 T01390122
54779K12N 12N20160524211009805/24/16 21:10:31  5-MIN K12N 250210Z AUTO 00000KT 14/12 A3000 510 86 500 000/00 RMK AO1 T01390117
54779K12N 12N20160524211509805/24/16 21:15:31  5-MIN K12N 250215Z AUTO 00000KT 14/12 A3000 510 90 500 000/00 RMK AO1 T01390122
54779K12N 12N20160524212009805/24/16 21:20:31  5-MIN K12N 250220Z AUTO 00000KT 14/12 A3001 510 90 500 000/00 RMK AO1 T01390122
54779K12N 12N20160524212509805/24/16 21:25:31  5-MIN K12N 250225Z AUTO 00000KT 14/12 A3001 500 90 500 000/00 RMK AO1 T01390122
54779K12N 12N20160524213009805/24/16 21:30:31  5-MIN K12N 250230Z AUTO 00000KT 14/12 A3001 500 86 500 000/00 RMK AO1 T01390117
54779K12N 12N20160524213509805/24/16 21:35:31  5-MIN K12N 250235Z AUTO 00000KT 13/12 A3001 500 89 500 000/00 RMK AO1 T01330117
54779K12N 12N20160524214009805/24/16 21:40:31  5-MIN K12N 250240Z AUTO 00000KT 13/12 A3001 500 89 500 000/00 RMK AO1 T01330117
54779K12N 12N20160524214509805/24/16 21:45:31  5-MIN K12N 250245Z AUTO 00000KT 13/12 A3001 500 89 500 000/00 RMK AO1 T01330117
54779K12N 12N20160524215011105/24/16 21:50:31  5-MIN K12N 250250Z AUTO 00000KT 13/12 A3001 500 93 400 000/00 RMK AO1 SLP161 T01280117 53014
54779K12N 12N20160524215509805/24/16 21:55:31  5-MIN K12N 250255Z AUTO 00000KT 13/12 A3001 500 93 400 000/00 RMK AO1 T01280117
54779K12N 12N20160524220009805/24/16 22:00:31  5-MIN K12N 250300Z AUTO 00000KT 13/12 A3002 500 93 400 000/00 RMK AO1 T01280117
54779K12N 12N20160524220509805/24/16 22:05:31  5-MIN K12N 250305Z AUTO 00000KT 13/12 A3002 500 93 400 000/00 RMK AO1 T01280117
54779K12N 12N20160524221009805/24/16 22:10:31  5-MIN K12N 250310Z AUTO 00000KT 13/11 A3002 500 89 400 000/00 RMK AO1 T01280111
54779K12N 12N20160524221509805/24/16 22:15:31  5-MIN K12N 250315Z AUTO 00000KT 13/11 A3002 500 89 400 000/00 RMK AO1 T01280111
54779K12N 12N20160524222009805/24/16 22:20:31  5-MIN K12N 250320Z AUTO 00000KT 13/11 A3002 500 89 400 000/00 RMK AO1 T01280111
54779K12N 12N20160524222509805/24/16 22:25:31  5-MIN K12N 250325Z AUTO 00000KT 13/11 A3002 500 89 400 000/00 RMK AO1 T01280111
54779K12N 12N20160524223009805/24/16 22:30:31  5-MIN K12N 250330Z AUTO 00000KT 13/11 A3002 500 89 400 000/00 RMK AO1 T01280111
54779K12N 12N20160524223509805/24/16 22:35:31  5-MIN K12N 250335Z AUTO 19003KT 13/11 A3002 490 89 400 200/03 RMK AO1 T01280111
54779K12N 12N20160524224009805/24/16 22:40:31  5-MIN K12N 250340Z AUTO 20003KT 12/11 A3002 490 93 300 210/03 RMK AO1 T01220111
54779K12N 12N20160524224509805/24/16 22:45:31  5-MIN K12N 250345Z AUTO 00000KT 12/11 A3002 490 93 300 000/00 RMK AO1 T01220111
54779K12N 12N20160524225010505/24/16 22:50:31  5-MIN K12N 250350Z AUTO 00000KT 12/11 A3002 490 93 300 000/00 RMK AO1 SLP164 T01220111
54779K12N 12N20160524225509805/24/16 22:55:31  5-MIN K12N 250355Z AUTO 00000KT 12/11 A3003 490 93 300 000/00 RMK AO1 T01220111
54779K12N 12N20160524230009805/24/16 23:00:31  5-MIN K12N 250400Z AUTO 21003KT 12/11 A3003 490 93 300 220/03 RMK AO1 T01220111
54779K12N 12N20160524230509805/24/16 23:05:31  5-MIN K12N 250405Z AUTO 20003KT 12/11 A3003 490 93 300 210/03 RMK AO1 T01220111
54779K12N 12N20160524231009805/24/16 23:10:31  5-MIN K12N 250410Z AUTO 00000KT 12/11 A3003 490 93 300 000/00 RMK AO1 T01220111
54779K12N 12N20160524231509805/24/16 23:15:31  5-MIN K12N 250415Z AUTO 21003KT 12/11 A3003 490 96 200 230/03 RMK AO1 T01170111
54779K12N 12N20160524232009805/24/16 23:20:31  5-MIN K12N 250420Z AUTO 21003KT 12/11 A3003 480 93 200 220/03 RMK AO1 T01170106
54779K12N 12N20160524232509805/24/16 23:25:31  5-MIN K12N 250425Z AUTO 00000KT 12/11 A3003 480 96 200 000/00 RMK AO1 T01170111
54779K12N 12N20160524233009805/24/16 23:30:31  5-MIN K12N 250430Z AUTO 00000KT 12/11 A3003 480 96 200 000/00 RMK AO1 T01170111
54779K12N 12N20160524233509805/24/16 23:35:31  5-MIN K12N 250435Z AUTO 00000KT 12/11 A3003 480 96 200 000/00 RMK AO1 T01170111
54779K12N 12N20160524234009805/24/16 23:40:31  5-MIN K12N 250440Z AUTO 22003KT 12/11 A3003 480 96 200 230/03 RMK AO1 T01170111
54779K12N 12N20160524234509805/24/16 23:45:31  5-MIN K12N 250445Z AUTO 00000KT 12/11 A3003 490 93 200 000/00 RMK AO1 T01170106
54779K12N 12N20160524235011505/24/16 23:50:31  5-MIN K12N 250450Z AUTO 00000KT 12/11 A3003 480 93 200 000/00 RMK AO1 SLP166 T01170106 402720117
54779K12N 12N20160524235509805/24/16 23:55:31  5-MIN K12N 250455Z AUTO 00000KT 12/11 A3003 490 93 200 000/00 RMK AO1 T01170106
54779K12N 12N20160525000009805/25/16 00:00:31  5-MIN K12N 250500Z AUTO 00000KT 12/11 A3003 490 93 200 000/00 RMK AO1 T01170106
54779K12N 12N20160525000509805/25/16 00:05:31  5-MIN K12N 250505Z AUTO 00000KT 12/11 A3002 490 93 200 000/00 RMK AO1 T01170106
54779K12N 12N20160525001009805/25/16 00:10:31  5-MIN K12N 250510Z AUTO 00000KT 12/11 A3002 490 93 200 000/00 RMK AO1 T01170106
54779K12N 12N20160525001509805/25/16 00:15:31  5-MIN K12N 250515Z AUTO 00000KT 12/11 A3002 490 93 200 000/00 RMK AO1 T01170106
54779K12N 12N20160525002009805/25/16 00:20:31  5-MIN K12N 250520Z AUTO 20003KT 12/11 A3002 490 93 200 210/03 RMK AO1 T01170106
54779K12N 12N20160525002509805/25/16 00:25:31  5-MIN K12N 250525Z AUTO 20003KT 11/11 A3002 490 96 200 220/03 RMK AO1 T01110106
54779K12N 12N20160525003009805/25/16 00:30:31  5-MIN K12N 250530Z AUTO 00000KT 11/11 A3003 490 96 200 000/00 RMK AO1 T01110106
54779K12N 12N20160525003509805/25/16 00:35:31  5-MIN K12N 250535Z AUTO 00000KT 11/11 A3002 490 96 200 000/00 RMK AO1 T01110106
54779K12N 12N20160525004009805/25/16 00:40:31  5-MIN K12N 250540Z AUTO 21003KT 11/11 A3003 490 96 200 230/03 RMK AO1 T01110106
54779K12N 12N20160525004509805/25/16 00:45:31  5-MIN K12N 250545Z AUTO 00000KT 11/11 A3003 480 96 200 000/00 RMK AO1 T01110106
54779K12N 12N20160525005012305/25/16 00:50:31  5-MIN K12N 250550Z AUTO 00000KT 11/11 A3003 480 96 200 000/00 RMK AO1 SLP166 T01110106 10200 20111 53018
54779K12N 12N20160525005509805/25/16 00:55:31  5-MIN K12N 250555Z AUTO 19003KT 11/11 A3003 480 96 200 200/03 RMK AO1 T01110106
54779K12N 12N20160525010009805/25/16 01:00:31  5-MIN K12N 250600Z AUTO 00000KT 11/10 A3003 480 93 200 000/00 RMK AO1 T01110100
54779K12N 12N20160525010509805/25/16 01:05:31  5-MIN K12N 250605Z AUTO 20003KT 11/10 A3003 480 93 200 220/03 RMK AO1 T01110100
54779K12N 12N20160525011009805/25/16 01:10:31  5-MIN K12N 250610Z AUTO 18003KT 11/10 A3003 480 93 200 200/03 RMK AO1 T01110100
54779K12N 12N20160525011509805/25/16 01:15:31  5-MIN K12N 250615Z AUTO 19003KT 11/10 A3003 480 93 200 200/03 RMK AO1 T01110100
54779K12N 12N20160525012009805/25/16 01:20:31  5-MIN K12N 250620Z AUTO 17003KT 11/10 A3003 480 96 100 190/03 RMK AO1 T01060100
54779K12N 12N20160525012509805/25/16 01:25:31  5-MIN K12N 250625Z AUTO 18003KT 11/10 A3003 480 96 100 190/03 RMK AO1 T01060100
54779K12N 12N20160525013009805/25/16 01:30:31  5-MIN K12N 250630Z AUTO 20004KT 11/10 A3003 480 96 100 210/04 RMK AO1 T01060100
54779K12N 12N20160525013509805/25/16 01:35:31  5-MIN K12N 250635Z AUTO 20003KT 11/10 A3003 480 96 100 210/03 RMK AO1 T01060100
54779K12N 12N20160525014009805/25/16 01:40:31  5-MIN K12N 250640Z AUTO 19004KT 11/10 A3003 480 96 100 200/04 RMK AO1 T01060100
54779K12N 12N20160525014509805/25/16 01:45:31  5-MIN K12N 250645Z AUTO 19003KT 11/10 A3003 480 96 100 200/03 RMK AO1 T01060100
54779K12N 12N20160525015010505/25/16 01:50:31  5-MIN K12N 250650Z AUTO 21003KT 11/10 A3004 480 96 100 230/03 RMK AO1 SLP166 T01060100
54779K12N 12N20160525015509805/25/16 01:55:31  5-MIN K12N 250655Z AUTO 20003KT 11/10 A3004 480 96 100 210/03 RMK AO1 T01060100
54779K12N 12N20160525020009805/25/16 02:00:31  5-MIN K12N 250700Z AUTO 20003KT 11/10 A3004 480 96 100 210/03 RMK AO1 T01060100
54779K12N 12N20160525020509805/25/16 02:05:31  5-MIN K12N 250705Z AUTO 20003KT 11/10 A3004 480 96 100 220/03 RMK AO1 T01060100
54779K12N 12N20160525021009805/25/16 02:10:31  5-MIN K12N 250710Z AUTO 20003KT 11/10 A3004 480 96 100 210/03 RMK AO1 T01060100
54779K12N 12N20160525021509805/25/16 02:15:31  5-MIN K12N 250715Z AUTO 21004KT 11/10 A3004 480 96 100 220/04 RMK AO1 T01060100
54779K12N 12N20160525022009805/25/16 02:20:31  5-MIN K12N 250720Z AUTO 00000KT 11/10 A3004 480 96 100 000/00 RMK AO1 T01060100
54779K12N 12N20160525022509805/25/16 02:25:31  5-MIN K12N 250725Z AUTO 21003KT 11/10 A3004 480 96 100 230/03 RMK AO1 T01060100
54779K12N 12N20160525023009805/25/16 02:30:31  5-MIN K12N 250730Z AUTO 00000KT 11/10 A3004 470 96 100 000/00 RMK AO1 T01060100
54779K12N 12N20160525023509805/25/16 02:35:31  5-MIN K12N 250735Z AUTO 00000KT 11/10 A3004 470 96 100 000/00 RMK AO1 T01060100
54779K12N 12N20160525024009805/25/16 02:40:31  5-MIN K12N 250740Z AUTO 21003KT 11/10 A3004 470 96 100 220/03 RMK AO1 T01060100
54779K12N 12N20160525024509605/25/16 02:45:31  5-MIN K12N 250745Z AUTO 21003KT 10/09 A3005 470 96 0 220/03 RMK AO1 T01000094
54779K12N 12N20160525025010305/25/16 02:50:31  5-MIN K12N 250750Z AUTO 00000KT 10/09 A3005 470 96 0 000/00 RMK AO1 SLP171 T01000094
54779K12N 12N20160525025509805/25/16 02:55:31  5-MIN K12N 250755Z AUTO 20003KT 11/10 A3005 470 96 100 210/03 RMK AO1 T01060100
54779K12N 12N20160525030009805/25/16 03:00:31  5-MIN K12N 250800Z AUTO 21003KT 11/10 A3005 470 96 100 220/03 RMK AO1 T01060100
54779K12N 12N20160525030509605/25/16 03:05:31  5-MIN K12N 250805Z AUTO 00000KT 10/09 A3004 470 96 0 000/00 RMK AO1 T01000094
54779K12N 12N20160525031009605/25/16 03:10:31  5-MIN K12N 250810Z AUTO 21003KT 10/09 A3004 470 96 0 220/03 RMK AO1 T01000094
54779K12N 12N20160525031509605/25/16 03:15:31  5-MIN K12N 250815Z AUTO 00000KT 10/09 A3004 470 96 0 000/00 RMK AO1 T01000094
54779K12N 12N20160525032009605/25/16 03:20:31  5-MIN K12N 250820Z AUTO 22003KT 10/09 A3004 470 96 0 230/03 RMK AO1 T01000094
54779K12N 12N20160525032509605/25/16 03:25:31  5-MIN K12N 250825Z AUTO 00000KT 10/09 A3005 470 96 0 000/00 RMK AO1 T01000094
54779K12N 12N20160525033009605/25/16 03:30:31  5-MIN K12N 250830Z AUTO 00000KT 10/09 A3005 470 96 0 000/00 RMK AO1 T01000094
54779K12N 12N20160525033509605/25/16 03:35:31  5-MIN K12N 250835Z AUTO 00000KT 10/09 A3005 470 96 0 000/00 RMK AO1 T01000094
54779K12N 12N20160525034009605/25/16 03:40:31  5-MIN K12N 250840Z AUTO 21003KT 10/09 A3005 470 96 0 220/03 RMK AO1 T01000094
54779K12N 12N20160525034509605/25/16 03:45:31  5-MIN K12N 250845Z AUTO 00000KT 10/09 A3005 470 93 0 000/00 RMK AO1 T01000089
54779K12N 12N20160525035010905/25/16 03:50:31  5-MIN K12N 250850Z AUTO 00000KT 10/09 A3005 460 93 0 000/00 RMK AO1 SLP174 T01000089 51005
54779K12N 12N20160525035509605/25/16 03:55:31  5-MIN K12N 250855Z AUTO 00000KT 10/09 A3005 460 96 0 000/00 RMK AO1 T01000094
54779K12N 12N20160525040009605/25/16 04:00:31  5-MIN K12N 250900Z AUTO 00000KT 10/09 A3006 460 96 0 000/00 RMK AO1 T01000094
54779K12N 12N20160525040509605/25/16 04:05:31  5-MIN K12N 250905Z AUTO 00000KT 10/09 A3006 460 96 0 000/00 RMK AO1 T01000094
54779K12N 12N20160525041009605/25/16 04:10:31  5-MIN K12N 250910Z AUTO 00000KT 10/09 A3006 460 93 0 000/00 RMK AO1 T01000089
54779K12N 12N20160525041509605/25/16 04:15:31  5-MIN K12N 250915Z AUTO 21003KT 09/09 A3006 460 96 0 230/03 RMK AO1 T00940089
54779K12N 12N20160525042009605/25/16 04:20:31  5-MIN K12N 250920Z AUTO 20003KT 09/09 A3006 450 96 0 220/03 RMK AO1 T00940089
54779K12N 12N20160525042509605/25/16 04:25:31  5-MIN K12N 250925Z AUTO 00000KT 10/09 A3006 450 93 0 000/00 RMK AO1 T01000089
54779K12N 12N20160525043009605/25/16 04:30:31  5-MIN K12N 250930Z AUTO 00000KT 10/09 A3006 450 93 0 000/00 RMK AO1 T01000089
54779K12N 12N20160525043509605/25/16 04:35:31  5-MIN K12N 250935Z AUTO 00000KT 09/09 A3006 450 96 0 000/00 RMK AO1 T00940089
54779K12N 12N20160525044009605/25/16 04:40:31  5-MIN K12N 250940Z AUTO 00000KT 09/09 A3006 450 96 0 000/00 RMK AO1 T00940089
54779K12N 12N20160525044509605/25/16 04:45:31  5-MIN K12N 250945Z AUTO 00000KT 09/09 A3006 450 96 0 000/00 RMK AO1 T00940089
54779K12N 12N20160525045010305/25/16 04:50:31  5-MIN K12N 250950Z AUTO 00000KT 09/09 A3006 450 96 0 000/00 RMK AO1 SLP178 T00940089
54779K12N 12N20160525045509605/25/16 04:55:31  5-MIN K12N 250955Z AUTO 00000KT 10/09 A3006 450 93 0 000/00 RMK AO1 T01000089
54779K12N 12N20160525050009605/25/16 05:00:31  5-MIN K12N 251000Z AUTO 00000KT 10/09 A3007 450 93 0 000/00 RMK AO1 T01000089
54779K12N 12N20160525050509605/25/16 05:05:31  5-MIN K12N 251005Z AUTO 00000KT 10/09 A3007 450 96 0 000/00 RMK AO1 T01000094
54779K12N 12N20160525051009605/25/16 05:10:31  5-MIN K12N 251010Z AUTO 00000KT 10/09 A3007 440 96 0 000/00 RMK AO1 T01000094
54779K12N 12N20160525051509605/25/16 05:15:31  5-MIN K12N 251015Z AUTO 00000KT 10/09 A3008 440 93 0 000/00 RMK AO1 T01000089
54779K12N 12N20160525052009605/25/16 05:20:31  5-MIN K12N 251020Z AUTO 00000KT 10/09 A3008 440 96 0 000/00 RMK AO1 T01000094
54779K12N 12N20160525052509605/25/16 05:25:31  5-MIN K12N 251025Z AUTO 00000KT 10/09 A3008 440 96 0 000/00 RMK AO1 T01000094
54779K12N 12N20160525053009605/25/16 05:30:31  5-MIN K12N 251030Z AUTO 00000KT 10/09 A3008 440 96 0 000/00 RMK AO1 T01000094
54779K12N 12N20160525053509605/25/16 05:35:31  5-MIN K12N 251035Z AUTO 00000KT 11/10 A3008 440 96 0 000/00 RMK AO1 T01060100
54779K12N 12N20160525054009705/25/16 05:40:31  5-MIN K12N 251040Z AUTO 00000KT 11/11 A3008 440 100 0 000/00 RMK AO1 T01060106
54779K12N 12N20160525054509705/25/16 05:45:31  5-MIN K12N 251045Z AUTO 00000KT 11/11 A3008 440 100 0 000/00 RMK AO1 T01060106
54779K12N 12N20160525055010505/25/16 05:50:31  5-MIN K12N 251050Z AUTO 00000KT 11/11 A3008 440 96 100 000/00 RMK AO1 SLP184 T01110106
54779K12N 12N20160525055509805/25/16 05:55:31  5-MIN K12N 251055Z AUTO 00000KT 12/11 A3009 430 96 200 000/00 RMK AO1 T01170111
54779K12N 12N20160525060009805/25/16 06:00:31  5-MIN K12N 251100Z AUTO 00000KT 12/11 A3009 430 93 200 000/00 RMK AO1 T01170106
54779K12N 12N20160525060509805/25/16 06:05:31  5-MIN K12N 251105Z AUTO 00000KT 12/11 A3009 430 96 200 000/00 RMK AO1 T01170111
54779K12N 12N20160525061009805/25/16 06:10:31  5-MIN K12N 251110Z AUTO 00000KT 12/11 A3009 430 93 200 000/00 RMK AO1 T01220111
54779K12N 12N20160525061509805/25/16 06:15:31  5-MIN K12N 251115Z AUTO 00000KT 12/11 A3009 430 93 200 000/00 RMK AO1 T01220111
54779K12N 12N20160525062009805/25/16 06:20:31  5-MIN K12N 251120Z AUTO 00000KT 12/11 A3009 420 93 200 000/00 RMK AO1 T01220111
54779K12N 12N20160525062509805/25/16 06:25:31  5-MIN K12N 251125Z AUTO 00000KT 13/12 A3010 420 93 300 000/00 RMK AO1 T01280117
54779K12N 12N20160525063009805/25/16 06:30:31  5-MIN K12N 251130Z AUTO 00000KT 13/12 A3010 420 93 300 000/00 RMK AO1 T01280117
54779K12N 12N20160525063509805/25/16 06:35:31  5-MIN K12N 251135Z AUTO 00000KT 13/12 A3010 420 89 400 000/00 RMK AO1 T01330117
54779K12N 12N20160525064009805/25/16 06:40:31  5-MIN K12N 251140Z AUTO 00000KT 14/12 A3010 420 90 400 000/00 RMK AO1 T01390122
54779K12N 12N20160525064509805/25/16 06:45:31  5-MIN K12N 251145Z AUTO 00000KT 14/12 A3010 420 90 400 000/00 RMK AO1 T01390122
54779K12N 12N20160525065012305/25/16 06:50:31  5-MIN K12N 251150Z AUTO 00000KT 14/12 A3010 420 86 500 000/00 RMK AO1 SLP189 T01440122 10144 20094 52007
54779K12N 12N20160525065509805/25/16 06:55:31  5-MIN K12N 251155Z AUTO 00000KT 15/13 A3010 420 86 600 000/00 RMK AO1 T01500128
54779K12N 12N20160525070009805/25/16 07:00:31  5-MIN K12N 251200Z AUTO 00000KT 15/12 A3010 420 83 600 000/00 RMK AO1 T01500122
54779K12N 12N20160525070509805/25/16 07:05:31  5-MIN K12N 251205Z AUTO 00000KT 15/12 A3010 420 83 600 000/00 RMK AO1 T01500122
54779K12N 12N20160525071009805/25/16 07:10:31  5-MIN K12N 251210Z AUTO 00000KT 16/12 A3010 420 80 600 000/00 RMK AO1 T01560122
54779K12N 12N20160525071509805/25/16 07:15:31  5-MIN K12N 251215Z AUTO 15003KT 16/12 A3010 420 80 600 160/03 RMK AO1 T01560122
54779K12N 12N20160525072009805/25/16 07:20:31  5-MIN K12N 251220Z AUTO 00000KT 16/12 A3011 410 77 700 000/00 RMK AO1 T01610122
54779K12N 12N20160525072509805/25/16 07:25:31  5-MIN K12N 251225Z AUTO 15003KT 16/13 A3011 410 80 700 160/03 RMK AO1 T01610128
54779K12N 12N20160525073009805/25/16 07:30:31  5-MIN K12N 251230Z AUTO 00000KT 17/13 A3011 410 77 700 000/00 RMK AO1 T01670128
54779K12N 12N20160525073509805/25/16 07:35:31  5-MIN K12N 251235Z AUTO 00000KT 17/13 A3011 410 78 800 000/00 RMK AO1 T01720133
54779K12N 12N20160525074009805/25/16 07:40:31  5-MIN K12N 251240Z AUTO VRB03KT 17/13 A3011 410 75 800 VRB/03 RMK AO1 T01720128
54779K12N 12N20160525074509805/25/16 07:45:31  5-MIN K12N 251245Z AUTO VRB03KT 17/13 A3011 410 75 800 VRB/03 RMK AO1 T01720128
54779K12N 12N20160525075010505/25/16 07:50:31  5-MIN K12N 251250Z AUTO 00000KT 18/13 A3011 410 72 900 000/00 RMK AO1 SLP191 T01780128
54779K12N 12N20160525075509805/25/16 07:55:31  5-MIN K12N 251255Z AUTO 00000KT 18/13 A3010 420 72 900 000/00 RMK AO1 T01780128
54779K12N 12N20160525080009805/25/16 08:00:31  5-MIN K12N 251300Z AUTO 00000KT 18/13 A3010 420 70 900 000/00 RMK AO1 T01830128
54779K12N 12N20160525080509905/25/16 08:05:31  5-MIN K12N 251305Z AUTO VRB03KT 19/12 A3010 420 65 1000 VRB/03 RMK AO1 T01890122
54779K12N 12N20160525081009905/25/16 08:10:31  5-MIN K12N 251310Z AUTO 22003KT 19/12 A3010 420 65 1000 230/03 RMK AO1 T01890122
54779K12N 12N20160525081509905/25/16 08:15:31  5-MIN K12N 251315Z AUTO 21004KT 19/13 A3010 420 65 1100 230/04 RMK AO1 T01940128
54779K12N 12N20160525082009905/25/16 08:20:31  5-MIN K12N 251320Z AUTO 00000KT 19/13 A3011 410 65 1100 000/00 RMK AO1 T01940128
54779K12N 12N20160525082509905/25/16 08:25:31  5-MIN K12N 251325Z AUTO 16003KT 19/13 A3011 410 65 1100 170/03 RMK AO1 T01940128
54779K12N 12N20160525083009905/25/16 08:30:31  5-MIN K12N 251330Z AUTO 00000KT 20/13 A3011 410 63 1100 000/00 RMK AO1 T02000128
54779K12N 12N20160525083509905/25/16 08:35:31  5-MIN K12N 251335Z AUTO 00000KT 21/13 A3010 420 60 1200 000/00 RMK AO1 T02060128
54779K12N 12N20160525084009905/25/16 08:40:31  5-MIN K12N 251340Z AUTO 00000KT 21/13 A3010 420 58 1300 000/00 RMK AO1 T02110128
54779K12N 12N20160525084509905/25/16 08:45:31  5-MIN K12N 251345Z AUTO 00000KT 21/12 A3010 420 54 1300 000/00 RMK AO1 T02110117
54779K12N 12N20160525085010605/25/16 08:50:31  5-MIN K12N 251350Z AUTO 22004KT 22/12 A3010 420 52 1300 230/04 RMK AO1 SLP188 T02170117
54779K12N 12N20160525085509905/25/16 08:55:31  5-MIN K12N 251355Z AUTO 00000KT 22/11 A3010 420 49 1400 000/00 RMK AO1 T02220111
54779K12N 12N20160525090009905/25/16 09:00:31  5-MIN K12N 251400Z AUTO VRB03KT 23/11 A3010 420 47 1500 VRB/03 RMK AO1 T02280111
54779K12N 12N20160525090509905/25/16 09:05:31  5-MIN K12N 251405Z AUTO 00000KT 23/11 A3010 420 45 1500 000/00 RMK AO1 T02280106
54779K12N 12N20160525091009905/25/16 09:10:31  5-MIN K12N 251410Z AUTO VRB03KT 23/11 A3010 420 45 1500 VRB/03 RMK AO1 T02280106
54779K12N 12N20160525091509905/25/16 09:15:31  5-MIN K12N 251415Z AUTO VRB03KT 23/11 A3010 420 44 1500 VRB/03 RMK AO1 T02330106
54779K12N 12N20160525092009905/25/16 09:20:31  5-MIN K12N 251420Z AUTO 00000KT 23/10 A3010 420 42 1500 000/00 RMK AO1 T02330100
54779K12N 12N20160525092509905/25/16 09:25:31  5-MIN K12N 251425Z AUTO 00000KT 24/10 A3010 420 41 1600 000/00 RMK AO1 T02390100
54779K12N 12N20160525093009905/25/16 09:30:31  5-MIN K12N 251430Z AUTO 24003KT 24/09 A3010 420 39 1600 250/03 RMK AO1 T02390094
54779K12N 12N20160525093509905/25/16 09:35:31  5-MIN K12N 251435Z AUTO VRB03KT 25/09 A3009 420 35 1700 VRB/03 RMK AO1 T02500089
54779K12N 12N20160525094009905/25/16 09:40:31  5-MIN K12N 251440Z AUTO 31003KT 25/08 A3009 430 34 1700 320/03 RMK AO1 T02500083
54779K12N 12N20160525094509905/25/16 09:45:31  5-MIN K12N 251445Z AUTO 31005KT 26/08 A3009 420 33 1800 320/05 RMK AO1 T02560083
54779K12N 12N20160525095011205/25/16 09:50:31  5-MIN K12N 251450Z AUTO VRB04KT 25/08 A3009 430 34 1700 VRB/04 RMK AO1 SLP186 T02500083 53016
54779K12N 12N20160525095509905/25/16 09:55:31  5-MIN K12N 251455Z AUTO VRB04KT 26/08 A3009 430 33 1800 VRB/04 RMK AO1 T02560083
54779K12N 12N20160525100009905/25/16 10:00:31  5-MIN K12N 251500Z AUTO VRB03KT 26/08 A3009 430 32 1800 VRB/03 RMK AO1 T02610083
54779K12N 12N20160525100509905/25/16 10:05:31  5-MIN K12N 251505Z AUTO VRB03KT 26/08 A3009 430 33 1800 VRB/03 RMK AO1 T02560083
54779K12N 12N20160525101009905/25/16 10:10:31  5-MIN K12N 251510Z AUTO VRB03KT 26/08 A3009 430 32 1800 VRB/03 RMK AO1 T02610083
54779K12N 12N20160525101509905/25/16 10:15:31  5-MIN K12N 251515Z AUTO 00000KT 26/08 A3009 430 32 1900 000/00 RMK AO1 T02610083
54779K12N 12N20160525102009905/25/16 10:20:31  5-MIN K12N 251520Z AUTO 22003KT 26/08 A3009 430 32 1900 240/03 RMK AO1 T02610083
54779K12N 12N20160525102509905/25/16 10:25:31  5-MIN K12N 251525Z AUTO 00000KT 27/09 A3009 430 32 1900 000/00 RMK AO1 T02670089
54779K12N 12N20160525103009905/25/16 10:30:31  5-MIN K12N 251530Z AUTO 00000KT 26/08 A3009 430 32 1900 000/00 RMK AO1 T02610083
54779K12N 12N20160525103509905/25/16 10:35:31  5-MIN K12N 251535Z AUTO 29004KT 27/08 A3009 430 30 2000 300/04 RMK AO1 T02720083
54779K12N 12N20160525104009905/25/16 10:40:31  5-MIN K12N 251540Z AUTO VRB03KT 27/08 A3009 430 31 1900 VRB/03 RMK AO1 T02670083
54779K12N 12N20160525104509905/25/16 10:45:31  5-MIN K12N 251545Z AUTO VRB04KT 27/08 A3009 430 29 1900 VRB/04 RMK AO1 T02670078
54779K12N 12N20160525105010605/25/16 10:50:31  5-MIN K12N 251550Z AUTO 00000KT 27/08 A3009 430 29 1900 000/00 RMK AO1 SLP184 T02670078
54779K12N 12N20160525105508905/25/16 10:55:31  5-MIN K12N 251555Z AUTO 27/08 A3009 430 29 2000 M /M RMK AO1 T02720078
54779K12N 12N20160525110009905/25/16 11:00:31  5-MIN K12N 251600Z AUTO 00000KT 27/08 A3009 430 30 2000 000/00 RMK AO1 T02720083
54779K12N 12N20160525110509905/25/16 11:05:31  5-MIN K12N 251605Z AUTO VRB04KT 28/09 A3009 430 29 2100 VRB/04 RMK AO1 T02830089
54779K12N 12N20160525111009905/25/16 11:10:31  5-MIN K12N 251610Z AUTO VRB05KT 28/08 A3009 430 28 2100 VRB/05 RMK AO1 T02830083
54779K12N 12N20160525111509905/25/16 11:15:31  5-MIN K12N 251615Z AUTO 22008KT 28/08 A3009 430 28 2100 230/08 RMK AO1 T02830083
54779K12N 12N20160525112009905/25/16 11:20:31  5-MIN K12N 251620Z AUTO VRB03KT 28/08 A3009 430 28 2000 VRB/03 RMK AO1 T02780078
54779K12N 12N20160525112509905/25/16 11:25:31  5-MIN K12N 251625Z AUTO 23005KT 28/07 A3008 430 27 2000 240/05 RMK AO1 T02780072
54779K12N 12N20160525113009905/25/16 11:30:31  5-MIN K12N 251630Z AUTO 00000KT 28/08 A3008 440 28 2000 000/00 RMK AO1 T02780078
54779K12N 12N20160525113509905/25/16 11:35:31  5-MIN K12N 251635Z AUTO 13003KT 28/08 A3008 440 29 2000 140/03 RMK AO1 T02780083
54779K12N 12N20160525114009905/25/16 11:40:31  5-MIN K12N 251640Z AUTO VRB05KT 28/08 A3008 440 28 2100 VRB/05 RMK AO1 T02830083
54779K12N 12N20160525114511505/25/16 11:45:31  5-MIN K12N 251645Z AUTO 23007KT 190V270 28/08 A3008 440 27 2100 250/07 200V280 RMK AO1 T02830078
54779K12N 12N20160525115010605/25/16 11:50:31  5-MIN K12N 251650Z AUTO VRB03KT 28/08 A3007 440 28 2100 VRB/03 RMK AO1 SLP178 T02830083
54779K12N 12N20160525115509905/25/16 11:55:31  5-MIN K12N 251655Z AUTO VRB03KT 29/08 A3008 440 26 2200 VRB/03 RMK AO1 T02890078
54779K12N 12N20160525120009905/25/16 12:00:31  5-MIN K12N 251700Z AUTO VRB05KT 29/09 A3007 450 28 2200 VRB/05 RMK AO1 T02890089
54779K12N 12N20160525120511505/25/16 12:05:31  5-MIN K12N 251705Z AUTO 22007KT 170V250 29/07 A3007 440 25 2200 230/07 180V260 RMK AO1 T02890072
54779K12N 12N20160525121009905/25/16 12:10:31  5-MIN K12N 251710Z AUTO 22005KT 28/07 A3007 450 25 2100 240/05 RMK AO1 T02830067
54779K12N 12N20160525121508905/25/16 12:15:31  5-MIN K12N 251715Z AUTO 29/07 A3007 450 25 2200 M /M RMK AO1 T02890072
54779K12N 12N20160525122009905/25/16 12:20:31  5-MIN K12N 251720Z AUTO 21005KT 29/07 A3007 450 25 2200 220/05 RMK AO1 T02890072
54779K12N 12N20160525122509905/25/16 12:25:31  5-MIN K12N 251725Z AUTO VRB06KT 29/08 A3007 450 26 2200 VRB/06 RMK AO1 T02890078
54779K12N 12N20160525123009905/25/16 12:30:31  5-MIN K12N 251730Z AUTO VRB04KT 29/08 A3007 450 26 2200 VRB/04 RMK AO1 T02940083
54779K12N 12N20160525123512105/25/16 12:35:31  5-MIN K12N 251735Z AUTO 22008G14KT 190V250 29/08 A3007 450 27 2200 230/08G14 200V260 RMK AO1 T02890083
54779K12N 12N20160525124010505/25/16 12:40:31  5-MIN K12N 251740Z AUTO VRB06G14KT 29/07 A3007 450 25 2200 VRB/06G14 RMK AO1 T02890072
54779K12N 12N20160525124509905/25/16 12:45:31  5-MIN K12N 251745Z AUTO VRB06KT 29/08 A3007 450 27 2200 VRB/06 RMK AO1 T02890083
54779K12N 12N20160525125012405/25/16 12:50:31  5-MIN K12N 251750Z AUTO VRB04KT 29/08 A3007 450 26 2200 VRB/04 RMK AO1 SLP176 T02890078 10294 20150 58002
54779K12N 12N20160525125509905/25/16 12:55:31  5-MIN K12N 251755Z AUTO VRB05KT 29/07 A3007 450 24 2200 VRB/05 RMK AO1 T02940072
54779K12N 12N20160525130009905/25/16 13:00:31  5-MIN K12N 251800Z AUTO 21007KT 29/07 A3007 450 25 2200 220/07 RMK AO1 T02890072
54779K12N 12N20160525130509905/25/16 13:05:31  5-MIN K12N 251805Z AUTO VRB03KT 29/07 A3006 450 24 2300 VRB/03 RMK AO1 T02940072
54779K12N 12N20160525131009905/25/16 13:10:31  5-MIN K12N 251810Z AUTO 22008KT 29/07 A3007 450 24 2300 230/08 RMK AO1 T02940072
54779K12N 12N20160525131511505/25/16 13:15:31  5-MIN K12N 251815Z AUTO 23007KT 200V270 29/07 A3007 450 24 2200 240/07 210V280 RMK AO1 T02940072
54779K12N 12N20160525132009905/25/16 13:20:31  5-MIN K12N 251820Z AUTO VRB04KT 29/07 A3007 450 23 2200 VRB/04 RMK AO1 T02940067
54779K12N 12N20160525132509905/25/16 13:25:31  5-MIN K12N 251825Z AUTO 22007KT 29/07 A3006 450 23 2300 230/07 RMK AO1 T02940067
54779K12N 12N20160525133010505/25/16 13:30:31  5-MIN K12N 251830Z AUTO 22006G14KT 29/07 A3006 460 23 2300 240/06G14 RMK AO1 T02940067
54779K12N 12N20160525133510505/25/16 13:35:31  5-MIN K12N 251835Z AUTO VRB03G14KT 30/08 A3006 460 24 2300 VRB/03G14 RMK AO1 T03000078
54779K12N 12N20160525134009905/25/16 13:40:31  5-MIN K12N 251840Z AUTO VRB05KT 29/07 A3006 460 24 2300 VRB/05 RMK AO1 T02940072
54779K12N 12N20160525134509905/25/16 13:45:31  5-MIN K12N 251845Z AUTO 23006KT 30/07 A3006 460 22 2300 240/06 RMK AO1 T03000067
54779K12N 12N20160525135012205/25/16 13:50:31  5-MIN K12N 251850Z AUTO 19007KT 140V240 29/07 A3006 460 23 2300 200/07 150V250 RMK AO1 SLP173 T02940067
54779K12N 12N20160525135509905/25/16 13:55:31  5-MIN K12N 251855Z AUTO VRB06KT 30/05 A3006 460 20 2300 VRB/06 RMK AO1 T03000050
54779K12N 12N20160525140011505/25/16 14:00:31  5-MIN K12N 251900Z AUTO 24007KT 210V300 30/04 A3006 460 19 2300 260/07 220V310 RMK AO1 T03000044
54779K12N 12N20160525140509905/25/16 14:05:31  5-MIN K12N 251905Z AUTO VRB05KT 30/05 A3005 460 20 2300 VRB/05 RMK AO1 T03000050
54779K12N 12N20160525141009905/25/16 14:10:31  5-MIN K12N 251910Z AUTO VRB06KT 30/05 A3005 460 20 2300 VRB/06 RMK AO1 T03000050
54779K12N 12N20160525141509905/25/16 14:15:31  5-MIN K12N 251915Z AUTO VRB04KT 30/06 A3005 460 21 2300 VRB/04 RMK AO1 T03000056
54779K12N 12N20160525142008905/25/16 14:20:31  5-MIN K12N 251920Z AUTO 31/05 A3005 470 19 2400 M /M RMK AO1 T03060050
54779K12N 12N20160525142509905/25/16 14:25:31  5-MIN K12N 251925Z AUTO 23009KT 31/05 A3005 460 19 2400 240/09 RMK AO1 T03060050
54779K12N 12N20160525143009905/25/16 14:30:31  5-MIN K12N 251930Z AUTO 23010KT 31/04 A3005 470 18 2400 250/10 RMK AO1 T03060039
54779K12N 12N20160525143509905/25/16 14:35:31  5-MIN K12N 251935Z AUTO VRB06KT 30/03 A3004 470 18 2300 VRB/06 RMK AO1 T03000033
54779K12N 12N20160525144009905/25/16 14:40:31  5-MIN K12N 251940Z AUTO VRB05KT 30/04 A3004 470 18 2300 VRB/05 RMK AO1 T03000039
54779K12N 12N20160525144509905/25/16 14:45:31  5-MIN K12N 251945Z AUTO VRB06KT 30/04 A3004 470 18 2300 VRB/06 RMK AO1 T03000039
54779K12N 12N20160525145010605/25/16 14:50:31  5-MIN K12N 251950Z AUTO 25006KT 30/04 A3004 480 18 2300 260/06 RMK AO1 SLP166 T03000039
54779K12N 12N20160525145511505/25/16 14:55:31  5-MIN K12N 251955Z AUTO 21008KT 170V230 31/04 A3004 480 18 2400 220/08 180V240 RMK AO1 T03060039
54779K12N 12N20160525150009905/25/16 15:00:31  5-MIN K12N 252000Z AUTO 23007KT 30/03 A3004 470 18 2300 240/07 RMK AO1 T03000033
54779K12N 12N20160525150509905/25/16 15:05:31  5-MIN K12N 252005Z AUTO VRB05KT 30/04 A3004 480 18 2300 VRB/05 RMK AO1 T03000039
54779K12N 12N20160525151011505/25/16 15:10:31  5-MIN K12N 252010Z AUTO 23010KT 200V270 30/04 A3004 470 19 2300 240/10 210V280 RMK AO1 T03000044
54779K12N 12N20160525151509905/25/16 15:15:31  5-MIN K12N 252015Z AUTO 22006KT 31/04 A3004 480 18 2400 230/06 RMK AO1 T03060039
54779K12N 12N20160525152012105/25/16 15:20:31  5-MIN K12N 252020Z AUTO 22007G15KT 200V260 30/04 A3004 480 19 2300 230/07G15 210V270 RMK AO1 T03000044
54779K12N 12N20160525152510505/25/16 15:25:31  5-MIN K12N 252025Z AUTO 23007G15KT 30/04 A3004 470 19 2300 240/07G15 RMK AO1 T03000044
54779K12N 12N20160525153011505/25/16 15:30:31  5-MIN K12N 252030Z AUTO 22007KT 190V260 31/04 A3004 470 19 2400 230/07 200V270 RMK AO1 T03060044
54779K12N 12N20160525153509905/25/16 15:35:31  5-MIN K12N 252035Z AUTO VRB04KT 31/04 A3004 470 19 2400 VRB/04 RMK AO1 T03060044
54779K12N 12N20160525154009905/25/16 15:40:31  5-MIN K12N 252040Z AUTO 22005KT 31/06 A3004 480 20 2500 240/05 RMK AO1 T03110061
54779K12N 12N20160525154509905/25/16 15:45:31  5-MIN K12N 252045Z AUTO 21005KT 31/06 A3004 480 20 2400 220/05 RMK AO1 T03060056
54779K12N 12N20160525155012805/25/16 15:50:31  5-MIN K12N 252050Z AUTO 23007KT 190V260 31/05 A3004 480 19 2400 240/07 200V270 RMK AO1 SLP165 T03060050 58009
54779K12N 12N20160525155509905/25/16 15:55:31  5-MIN K12N 252055Z AUTO 23008KT 30/04 A3004 480 18 2300 250/08 RMK AO1 T03000039
54779K12N 12N20160525160009905/25/16 16:00:31  5-MIN K12N 252100Z AUTO VRB05KT 30/04 A3004 470 18 2300 VRB/05 RMK AO1 T03000039
54779K12N 12N20160525160509905/25/16 16:05:31  5-MIN K12N 252105Z AUTO 23008KT 30/05 A3004 470 20 2300 240/08 RMK AO1 T03000050
54779K12N 12N20160525161009905/25/16 16:10:31  5-MIN K12N 252110Z AUTO 22007KT 30/06 A3004 480 22 2300 230/07 RMK AO1 T03000061
54779K12N 12N20160525161509905/25/16 16:15:31  5-MIN K12N 252115Z AUTO VRB05KT 30/06 A3004 480 22 2300 VRB/05 RMK AO1 T03000061
54779K12N 12N20160525162009905/25/16 16:20:31  5-MIN K12N 252120Z AUTO 20006KT 30/06 A3004 480 22 2300 210/06 RMK AO1 T03000061
54779K12N 12N20160525162511505/25/16 16:25:31  5-MIN K12N 252125Z AUTO 22007KT 180V280 30/06 A3004 480 21 2300 230/07 190V290 RMK AO1 T03000056
54779K12N 12N20160525163009905/25/16 16:30:31  5-MIN K12N 252130Z AUTO 22006KT 30/04 A3004 480 19 2300 230/06 RMK AO1 T03000044
54779K12N 12N20160525163509905/25/16 16:35:31  5-MIN K12N 252135Z AUTO 22008KT 30/06 A3004 480 21 2300 230/08 RMK AO1 T03000056
54779K12N 12N20160525164010505/25/16 16:40:31  5-MIN K12N 252140Z AUTO 22008G15KT 30/06 A3004 480 21 2300 240/08G15 RMK AO1 T03000056
54779K12N 12N20160525164510505/25/16 16:45:31  5-MIN K12N 252145Z AUTO VRB06G15KT 30/06 A3004 480 22 2300 VRB/06G15 RMK AO1 T03000061
54779K12N 12N20160525165010605/25/16 16:50:31  5-MIN K12N 252150Z AUTO 21008KT 29/07 A3004 480 23 2300 220/08 RMK AO1 SLP167 T02940067
54779K12N 12N20160525165509905/25/16 16:55:31  5-MIN K12N 252155Z AUTO 21007KT 29/07 A3004 480 23 2300 220/07 RMK AO1 T02940067
54779K12N 12N20160525170009905/25/16 17:00:31  5-MIN K12N 252200Z AUTO 23009KT 29/07 A3004 480 24 2300 240/09 RMK AO1 T02940072
54779K12N 12N20160525170509905/25/16 17:05:31  5-MIN K12N 252205Z AUTO 22008KT 29/07 A3004 480 24 2300 230/08 RMK AO1 T02940072
54779K12N 12N20160525171009905/25/16 17:10:31  5-MIN K12N 252210Z AUTO 22010KT 29/07 A3004 480 24 2300 230/10 RMK AO1 T02940072
54779K12N 12N20160525171509905/25/16 17:15:31  5-MIN K12N 252215Z AUTO 21008KT 29/07 A3004 470 25 2200 220/08 RMK AO1 T02890072
54779K12N 12N20160525172009905/25/16 17:20:31  5-MIN K12N 252220Z AUTO 21007KT 29/07 A3004 470 25 2200 230/07 RMK AO1 T02890072
54779K12N 12N20160525172509905/25/16 17:25:31  5-MIN K12N 252225Z AUTO 21004KT 29/08 A3004 470 26 2200 220/04 RMK AO1 T02890078
54779K12N 12N20160525173009905/25/16 17:30:31  5-MIN K12N 252230Z AUTO 22004KT 29/08 A3004 470 26 2200 230/04 RMK AO1 T02890078
54779K12N 12N20160525173509905/25/16 17:35:31  5-MIN K12N 252235Z AUTO 22004KT 29/08 A3004 470 27 2200 230/04 RMK AO1 T02890083
54779K12N 12N20160525174009905/25/16 17:40:31  5-MIN K12N 252240Z AUTO 21004KT 29/09 A3004 470 28 2200 230/04 RMK AO1 T02890089
54779K12N 12N20160525174509905/25/16 17:45:31  5-MIN K12N 252245Z AUTO 22004KT 28/08 A3004 470 28 2200 230/04 RMK AO1 T02830083
54779K12N 12N20160525175010605/25/16 17:50:31  5-MIN K12N 252250Z AUTO 22004KT 28/08 A3004 470 28 2200 230/04 RMK AO1 SLP167 T02830083
54779K12N 12N20160525175509905/25/16 17:55:31  5-MIN K12N 252255Z AUTO VRB03KT 28/09 A3004 480 29 2200 VRB/03 RMK AO1 T02830089
54779K12N 12N20160525180009905/25/16 18:00:31  5-MIN K12N 252300Z AUTO 21004KT 28/09 A3004 470 30 2100 220/04 RMK AO1 T02780089
54779K12N 12N20160525180509905/25/16 18:05:31  5-MIN K12N 252305Z AUTO 00000KT 28/09 A3004 470 30 2100 000/00 RMK AO1 T02780089
54779K12N 12N20160525181009905/25/16 18:10:31  5-MIN K12N 252310Z AUTO 00000KT 28/09 A3004 470 30 2100 000/00 RMK AO1 T02780089
54779K12N 12N20160525181509905/25/16 18:15:31  5-MIN K12N 252315Z AUTO VRB03KT 27/10 A3004 470 33 2000 VRB/03 RMK AO1 T02720100
54779K12N 12N20160525182009905/25/16 18:20:31  5-MIN K12N 252320Z AUTO 00000KT 27/11 A3004 470 36 2000 000/00 RMK AO1 T02670106
54779K12N 12N20160525182509905/25/16 18:25:31  5-MIN K12N 252325Z AUTO 00000KT 27/11 A3004 470 37 2000 000/00 RMK AO1 T02670111
54779K12N 12N20160525183009905/25/16 18:30:31  5-MIN K12N 252330Z AUTO 00000KT 26/13 A3004 470 44 1800 000/00 RMK AO1 T02560128
54779K12N 12N20160525183509905/25/16 18:35:31  5-MIN K12N 252335Z AUTO 00000KT 26/13 A3004 470 46 1800 000/00 RMK AO1 T02560133
54779K12N 12N20160525184009905/25/16 18:40:31  5-MIN K12N 252340Z AUTO 00000KT 25/14 A3005 470 49 1800 000/00 RMK AO1 T02500139
54779K12N 12N20160525184509905/25/16 18:45:31  5-MIN K12N 252345Z AUTO 00000KT 24/14 A3005 470 51 1700 000/00 RMK AO1 T02440139
54779K12N 12N20160525185012405/25/16 18:50:31  5-MIN K12N 252350Z AUTO 00000KT 23/15 A3005 470 59 1600 000/00 RMK AO1 SLP171 T02330150 10311 20233 56009
54779K12N 12N20160525185509905/25/16 18:55:31  5-MIN K12N 252355Z AUTO 00000KT 23/15 A3005 470 61 1500 000/00 RMK AO1 T02280150
54779K12N 12N20160525190009905/25/16 19:00:31  5-MIN K12N 260000Z AUTO 00000KT 23/14 A3005 470 59 1500 000/00 RMK AO1 T02280144
54779K12N 12N20160525190509905/25/16 19:05:31  5-MIN K12N 260005Z AUTO 00000KT 23/14 A3005 460 57 1500 000/00 RMK AO1 T02280139
54779K12N 12N20160525191009905/25/16 19:10:31  5-MIN K12N 260010Z AUTO 00000KT 22/13 A3005 460 56 1500 000/00 RMK AO1 T02220133
54779K12N 12N20160525191509905/25/16 19:15:31  5-MIN K12N 260015Z AUTO 00000KT 22/13 A3005 460 56 1400 000/00 RMK AO1 T02170128
54779K12N 12N20160525192009905/25/16 19:20:31  5-MIN K12N 260020Z AUTO 00000KT 21/13 A3005 460 61 1300 000/00 RMK AO1 T02110133
54779K12N 12N20160525192509905/25/16 19:25:31  5-MIN K12N 260025Z AUTO 00000KT 21/13 A3005 460 61 1300 000/00 RMK AO1 T02110133
54779K12N 12N20160525193009905/25/16 19:30:31  5-MIN K12N 260030Z AUTO 00000KT 21/13 A3005 460 58 1300 000/00 RMK AO1 T02110128
54779K12N 12N20160525193509905/25/16 19:35:31  5-MIN K12N 260035Z AUTO 00000KT 21/14 A3006 460 63 1300 000/00 RMK AO1 T02110139
54779K12N 12N20160525194009905/25/16 19:40:31  5-MIN K12N 260040Z AUTO 00000KT 21/14 A3006 460 67 1300 000/00 RMK AO1 T02060144
54779K12N 12N20160525194509905/25/16 19:45:31  5-MIN K12N 260045Z AUTO 00000KT 20/14 A3006 460 67 1200 000/00 RMK AO1 T02000139
54779K12N 12N20160525195010605/25/16 19:50:31  5-MIN K12N 260050Z AUTO 00000KT 20/14 A3006 460 67 1200 000/00 RMK AO1 SLP174 T02000139
54779K12N 12N20160525195509905/25/16 19:55:31  5-MIN K12N 260055Z AUTO 00000KT 20/14 A3006 460 70 1200 000/00 RMK AO1 T02000144
54779K12N 12N20160525200009905/25/16 20:00:31  5-MIN K12N 260100Z AUTO 00000KT 19/14 A3006 450 72 1100 000/00 RMK AO1 T01940144
54779K12N 12N20160525200509905/25/16 20:05:31  5-MIN K12N 260105Z AUTO 00000KT 19/14 A3007 450 72 1100 000/00 RMK AO1 T01940144
54779K12N 12N20160525201009905/25/16 20:10:31  5-MIN K12N 260110Z AUTO 00000KT 19/14 A3007 450 70 1100 000/00 RMK AO1 T01940139
54779K12N 12N20160525201509905/25/16 20:15:31  5-MIN K12N 260115Z AUTO 00000KT 19/14 A3008 440 70 1100 000/00 RMK AO1 T01940139
54779K12N 12N20160525202009905/25/16 20:20:31  5-MIN K12N 260120Z AUTO 00000KT 19/13 A3008 440 67 1100 000/00 RMK AO1 T01940133
54779K12N 12N20160525202509905/25/16 20:25:31  5-MIN K12N 260125Z AUTO 00000KT 19/13 A3007 440 67 1000 000/00 RMK AO1 T01890128
54779K12N 12N20160525203009905/25/16 20:30:31  5-MIN K12N 260130Z AUTO 00000KT 19/13 A3008 440 70 1000 000/00 RMK AO1 T01890133
54779K12N 12N20160525203509905/25/16 20:35:31  5-MIN K12N 260135Z AUTO 00000KT 19/13 A3008 440 70 1000 000/00 RMK AO1 T01890133
54779K12N 12N20160525204009905/25/16 20:40:31  5-MIN K12N 260140Z AUTO 00000KT 19/13 A3008 440 67 1000 000/00 RMK AO1 T01890128
54779K12N 12N20160525204509905/25/16 20:45:31  5-MIN K12N 260145Z AUTO 00000KT 19/13 A3008 440 70 1000 000/00 RMK AO1 T01890133
54779K12N 12N20160525205010605/25/16 20:50:31  5-MIN K12N 260150Z AUTO 00000KT 18/14 A3008 440 75 1000 000/00 RMK AO1 SLP179 T01830139
54779K12N 12N20160525205509905/25/16 20:55:31  5-MIN K12N 260155Z AUTO 00000KT 18/13 A3008 440 72 1000 000/00 RMK AO1 T01830133
54779K12N 12N20160525210009905/25/16 21:00:31  5-MIN K12N 260200Z AUTO 00000KT 18/13 A3008 440 72 1000 000/00 RMK AO1 T01830133
54779K12N 12N20160525210509905/25/16 21:05:31  5-MIN K12N 260205Z AUTO 00000KT 18/13 A3008 430 72 1000 000/00 RMK AO1 T01830133
54779K12N 12N20160525211009805/25/16 21:10:31  5-MIN K12N 260210Z AUTO 00000KT 18/13 A3008 430 75 900 000/00 RMK AO1 T01780133
54779K12N 12N20160525211509805/25/16 21:15:31  5-MIN K12N 260215Z AUTO 00000KT 18/13 A3008 430 75 900 000/00 RMK AO1 T01780133
54779K12N 12N20160525212009805/25/16 21:20:31  5-MIN K12N 260220Z AUTO 00000KT 18/13 A3008 430 75 900 000/00 RMK AO1 T01780133
54779K12N 12N20160525212509805/25/16 21:25:31  5-MIN K12N 260225Z AUTO 00000KT 18/13 A3009 430 75 900 000/00 RMK AO1 T01780133
54779K12N 12N20160525213009805/25/16 21:30:31  5-MIN K12N 260230Z AUTO 00000KT 18/13 A3009 430 75 900 000/00 RMK AO1 T01780133
54779K12N 12N20160525213509805/25/16 21:35:31  5-MIN K12N 260235Z AUTO 00000KT 18/13 A3009 430 75 900 000/00 RMK AO1 T01780133
54779K12N 12N20160525214009805/25/16 21:40:31  5-MIN K12N 260240Z AUTO 00000KT 17/13 A3009 430 78 800 000/00 RMK AO1 T01720133
54779K12N 12N20160525214509805/25/16 21:45:31  5-MIN K12N 260245Z AUTO 00000KT 17/13 A3009 430 78 800 000/00 RMK AO1 T01720133
54779K12N 12N20160525215011105/25/16 21:50:31  5-MIN K12N 260250Z AUTO 00000KT 17/13 A3009 430 75 800 000/00 RMK AO1 SLP181 T01720128 53004
54779K12N 12N20160525215509805/25/16 21:55:31  5-MIN K12N 260255Z AUTO 00000KT 17/13 A3009 430 78 800 000/00 RMK AO1 T01720133
54779K12N 12N20160525220009805/25/16 22:00:31  5-MIN K12N 260300Z AUTO 00000KT 17/13 A3009 430 78 800 000/00 RMK AO1 T01720133
54779K12N 12N20160525220509805/25/16 22:05:31  5-MIN K12N 260305Z AUTO 00000KT 17/13 A3009 430 78 800 000/00 RMK AO1 T01720133
54779K12N 12N20160525221009805/25/16 22:10:31  5-MIN K12N 260310Z AUTO 00000KT 17/13 A3009 430 77 800 000/00 RMK AO1 T01670128
54779K12N 12N20160525221509805/25/16 22:15:31  5-MIN K12N 260315Z AUTO 00000KT 17/13 A3009 430 77 800 000/00 RMK AO1 T01670128
54779K12N 12N20160525222009805/25/16 22:20:31  5-MIN K12N 260320Z AUTO 00000KT 17/13 A3009 430 77 800 000/00 RMK AO1 T01670128
54779K12N 12N20160525222509805/25/16 22:25:31  5-MIN K12N 260325Z AUTO 00000KT 17/13 A3009 430 77 800 000/00 RMK AO1 T01670128
54779K12N 12N20160525223009805/25/16 22:30:31  5-MIN K12N 260330Z AUTO 00000KT 17/13 A3009 430 77 800 000/00 RMK AO1 T01670128
54779K12N 12N20160525223509805/25/16 22:35:31  5-MIN K12N 260335Z AUTO 00000KT 17/13 A3009 430 77 800 000/00 RMK AO1 T01670128
54779K12N 12N20160525224009805/25/16 22:40:31  5-MIN K12N 260340Z AUTO 00000KT 16/13 A3009 430 80 700 000/00 RMK AO1 T01610128
54779K12N 12N20160525224509805/25/16 22:45:31  5-MIN K12N 260345Z AUTO 00000KT 17/13 A3009 430 80 800 000/00 RMK AO1 T01670133
54779K12N 12N20160525225010505/25/16 22:50:31  5-MIN K12N 260350Z AUTO 00000KT 17/13 A3009 430 80 800 000/00 RMK AO1 SLP183 T01670133
54779K12N 12N20160525225509805/25/16 22:55:31  5-MIN K12N 260355Z AUTO 00000KT 17/14 A3009 430 83 800 000/00 RMK AO1 T01670139
54779K12N 12N20160525230009805/25/16 23:00:31  5-MIN K12N 260400Z AUTO 00000KT 16/14 A3009 430 86 700 000/00 RMK AO1 T01610139
54779K12N 12N20160525230509805/25/16 23:05:31  5-MIN K12N 260405Z AUTO 00000KT 16/14 A3009 430 86 700 000/00 RMK AO1 T01610139
54779K12N 12N20160525231009805/25/16 23:10:31  5-MIN K12N 260410Z AUTO 00000KT 16/13 A3009 430 83 700 000/00 RMK AO1 T01610133
54779K12N 12N20160525231509805/25/16 23:15:31  5-MIN K12N 260415Z AUTO 00000KT 16/13 A3009 430 83 700 000/00 RMK AO1 T01610133
54779K12N 12N20160525232009805/25/16 23:20:31  5-MIN K12N 260420Z AUTO 00000KT 16/13 A3009 430 83 700 000/00 RMK AO1 T01610133
54779K12N 12N20160525232509805/25/16 23:25:31  5-MIN K12N 260425Z AUTO 00000KT 16/13 A3009 430 80 700 000/00 RMK AO1 T01610128
54779K12N 12N20160525233009805/25/16 23:30:31  5-MIN K12N 260430Z AUTO 00000KT 16/13 A3009 430 83 600 000/00 RMK AO1 T01560128
54779K12N 12N20160525233509805/25/16 23:35:31  5-MIN K12N 260435Z AUTO 00000KT 16/13 A3009 430 86 600 000/00 RMK AO1 T01560133
54779K12N 12N20160525234009805/25/16 23:40:31  5-MIN K12N 260440Z AUTO 00000KT 16/13 A3009 430 86 600 000/00 RMK AO1 T01560133
54779K12N 12N20160525234509805/25/16 23:45:31  5-MIN K12N 260445Z AUTO 00000KT 16/13 A3009 430 86 600 000/00 RMK AO1 T01560133
54779K12N 12N20160525235011505/25/16 23:50:31  5-MIN K12N 260450Z AUTO 00000KT 16/13 A3009 430 86 600 000/00 RMK AO1 SLP182 T01560133 403110094
54779K12N 12N20160525235509805/25/16 23:55:31  5-MIN K12N 260455Z AUTO 00000KT 16/13 A3009 430 86 600 000/00 RMK AO1 T01560133
54779K12N 12N20160526000009805/26/16 00:00:31  5-MIN K12N 260500Z AUTO 00000KT 16/13 A3009 430 86 600 000/00 RMK AO1 T01560133
54779K12N 12N20160526000509805/26/16 00:05:31  5-MIN K12N 260505Z AUTO 00000KT 16/13 A3009 430 86 600 000/00 RMK AO1 T01560133
54779K12N 12N20160526001009805/26/16 00:10:31  5-MIN K12N 260510Z AUTO 00000KT 16/13 A3009 430 86 600 000/00 RMK AO1 T01560133
54779K12N 12N20160526001509805/26/16 00:15:31  5-MIN K12N 260515Z AUTO 00000KT 16/13 A3009 430 86 600 000/00 RMK AO1 T01560133
54779K12N 12N20160526002009805/26/16 00:20:31  5-MIN K12N 260520Z AUTO 00000KT 16/13 A3009 430 86 600 000/00 RMK AO1 T01560133
54779K12N 12N20160526002509805/26/16 00:25:31  5-MIN K12N 260525Z AUTO 00000KT 15/13 A3009 430 90 600 000/00 RMK AO1 T01500133
54779K12N 12N20160526003009805/26/16 00:30:31  5-MIN K12N 260530Z AUTO 00000KT 15/13 A3009 430 90 600 000/00 RMK AO1 T01500133
54779K12N 12N20160526003509805/26/16 00:35:31  5-MIN K12N 260535Z AUTO 00000KT 16/13 A3009 430 86 600 000/00 RMK AO1 T01560133
54779K12N 12N20160526004009805/26/16 00:40:31  5-MIN K12N 260540Z AUTO 00000KT 15/13 A3009 430 86 600 000/00 RMK AO1 T01500128
54779K12N 12N20160526004509805/26/16 00:45:31  5-MIN K12N 260545Z AUTO 00000KT 15/13 A3009 430 90 600 000/00 RMK AO1 T01500133
54779K12N 12N20160526005012305/26/16 00:50:31  5-MIN K12N 260550Z AUTO 00000KT 14/13 A3009 430 90 500 000/00 RMK AO1 SLP183 T01440128 10228 20144 51012
54779K12N 12N20160526005509805/26/16 00:55:31  5-MIN K12N 260555Z AUTO 00000KT 15/13 A3009 430 86 600 000/00 RMK AO1 T01500128
54779K12N 12N20160526010009805/26/16 01:00:31  5-MIN K12N 260600Z AUTO 00000KT 14/13 A3009 420 90 500 000/00 RMK AO1 T01440128
54779K12N 12N20160526010509805/26/16 01:05:31  5-MIN K12N 260605Z AUTO 00000KT 14/13 A3009 420 90 500 000/00 RMK AO1 T01440128
54779K12N 12N20160526011009805/26/16 01:10:31  5-MIN K12N 260610Z AUTO 00000KT 14/13 A3009 420 90 500 000/00 RMK AO1 T01440128
54779K12N 12N20160526011509805/26/16 01:15:31  5-MIN K12N 260615Z AUTO 00000KT 14/13 A3009 430 90 500 000/00 RMK AO1 T01440128
54779K12N 12N20160526012009805/26/16 01:20:31  5-MIN K12N 260620Z AUTO 00000KT 14/13 A3009 420 90 500 000/00 RMK AO1 T01440128
54779K12N 12N20160526012509805/26/16 01:25:31  5-MIN K12N 260625Z AUTO 00000KT 14/13 A3009 430 90 500 000/00 RMK AO1 T01440128
54779K12N 12N20160526013009805/26/16 01:30:31  5-MIN K12N 260630Z AUTO 00000KT 14/13 A3009 430 90 500 000/00 RMK AO1 T01440128
54779K12N 12N20160526013509805/26/16 01:35:31  5-MIN K12N 260635Z AUTO 00000KT 14/13 A3009 420 90 500 000/00 RMK AO1 T01440128
54779K12N 12N20160526014009805/26/16 01:40:31  5-MIN K12N 260640Z AUTO 00000KT 14/13 A3009 430 90 500 000/00 RMK AO1 T01440128
54779K12N 12N20160526014509805/26/16 01:45:31  5-MIN K12N 260645Z AUTO 00000KT 14/13 A3009 420 90 500 000/00 RMK AO1 T01440128
54779K12N 12N20160526015010505/26/16 01:50:31  5-MIN K12N 260650Z AUTO 00000KT 14/13 A3010 420 90 500 000/00 RMK AO1 SLP184 T01440128
54779K12N 12N20160526015509805/26/16 01:55:31  5-MIN K12N 260655Z AUTO 00000KT 14/13 A3010 420 90 500 000/00 RMK AO1 T01440128
54779K12N 12N20160526020009805/26/16 02:00:31  5-MIN K12N 260700Z AUTO 00000KT 14/13 A3010 420 90 500 000/00 RMK AO1 T01440128
54779K12N 12N20160526020509805/26/16 02:05:31  5-MIN K12N 260705Z AUTO 00000KT 14/13 A3010 420 90 500 000/00 RMK AO1 T01440128
54779K12N 12N20160526021009805/26/16 02:10:31  5-MIN K12N 260710Z AUTO 00000KT 14/13 A3010 420 90 500 000/00 RMK AO1 T01440128
54779K12N 12N20160526021509805/26/16 02:15:31  5-MIN K12N 260715Z AUTO 00000KT 14/13 A3010 420 93 400 000/00 RMK AO1 T01390128
54779K12N 12N20160526022009805/26/16 02:20:31  5-MIN K12N 260720Z AUTO 00000KT 14/13 A3010 420 93 400 000/00 RMK AO1 T01390128
54779K12N 12N20160526022509805/26/16 02:25:31  5-MIN K12N 260725Z AUTO 00000KT 14/13 A3010 420 93 400 000/00 RMK AO1 T01390128
54779K12N 12N20160526023009805/26/16 02:30:31  5-MIN K12N 260730Z AUTO 00000KT 14/13 A3010 420 93 400 000/00 RMK AO1 T01390128
54779K12N 12N20160526023509805/26/16 02:35:31  5-MIN K12N 260735Z AUTO 00000KT 14/13 A3010 420 93 400 000/00 RMK AO1 T01390128
54779K12N 12N20160526024009805/26/16 02:40:31  5-MIN K12N 260740Z AUTO 00000KT 14/13 A3010 420 93 400 000/00 RMK AO1 T01390128
54779K12N 12N20160526024509805/26/16 02:45:31  5-MIN K12N 260745Z AUTO 00000KT 14/13 A3010 420 93 400 000/00 RMK AO1 T01390128
54779K12N 12N20160526025010505/26/16 02:50:31  5-MIN K12N 260750Z AUTO 00000KT 14/13 A3010 420 93 400 000/00 RMK AO1 SLP185 T01390128
54779K12N 12N20160526025509805/26/16 02:55:31  5-MIN K12N 260755Z AUTO 00000KT 14/13 A3010 420 93 400 000/00 RMK AO1 T01390128
54779K12N 12N20160526030009805/26/16 03:00:31  5-MIN K12N 260800Z AUTO 00000KT 13/13 A3010 420 96 400 000/00 RMK AO1 T01330128
54779K12N 12N20160526030509805/26/16 03:05:31  5-MIN K12N 260805Z AUTO 00000KT 14/12 A3010 420 90 400 000/00 RMK AO1 T01390122
54779K12N 12N20160526031009805/26/16 03:10:31  5-MIN K12N 260810Z AUTO 00000KT 13/12 A3010 420 93 400 000/00 RMK AO1 T01330122
54779K12N 12N20160526031509805/26/16 03:15:31  5-MIN K12N 260815Z AUTO 00000KT 13/12 A3010 420 93 400 000/00 RMK AO1 T01330122
54779K12N 12N20160526032009805/26/16 03:20:31  5-MIN K12N 260820Z AUTO 00000KT 13/12 A3010 420 93 400 000/00 RMK AO1 T01330122
54779K12N 12N20160526032509805/26/16 03:25:31  5-MIN K12N 260825Z AUTO 00000KT 14/12 A3010 420 90 400 000/00 RMK AO1 T01390122
54779K12N 12N20160526033009805/26/16 03:30:31  5-MIN K12N 260830Z AUTO 00000KT 13/12 A3010 420 93 400 000/00 RMK AO1 T01330122
54779K12N 12N20160526033509805/26/16 03:35:31  5-MIN K12N 260835Z AUTO 00000KT 13/12 A3010 420 93 400 000/00 RMK AO1 T01330122
54779K12N 12N20160526034009805/26/16 03:40:31  5-MIN K12N 260840Z AUTO 00000KT 13/12 A3010 420 93 400 000/00 RMK AO1 T01330122
54779K12N 12N20160526034509805/26/16 03:45:31  5-MIN K12N 260845Z AUTO 00000KT 13/12 A3010 420 93 400 000/00 RMK AO1 T01330122
54779K12N 12N20160526035011105/26/16 03:50:31  5-MIN K12N 260850Z AUTO 00000KT 13/12 A3011 410 93 400 000/00 RMK AO1 SLP187 T01330122 52002
54779K12N 12N20160526035509805/26/16 03:55:31  5-MIN K12N 260855Z AUTO 00000KT 13/12 A3011 410 93 400 000/00 RMK AO1 T01330122
54779K12N 12N20160526040009805/26/16 04:00:31  5-MIN K12N 260900Z AUTO 00000KT 13/12 A3011 410 93 400 000/00 RMK AO1 T01330122
54779K12N 12N20160526040509805/26/16 04:05:31  5-MIN K12N 260905Z AUTO 00000KT 13/12 A3011 410 93 300 000/00 RMK AO1 T01330122
54779K12N 12N20160526041009805/26/16 04:10:31  5-MIN K12N 260910Z AUTO 00000KT 13/12 A3011 410 93 300 000/00 RMK AO1 T01330122
54779K12N 12N20160526041509805/26/16 04:15:31  5-MIN K12N 260915Z AUTO 00000KT 13/12 A3011 410 93 300 000/00 RMK AO1 T01330122
54779K12N 12N20160526042009805/26/16 04:20:31  5-MIN K12N 260920Z AUTO 00000KT 13/12 A3011 410 93 300 000/00 RMK AO1 T01330122
54779K12N 12N20160526042509805/26/16 04:25:31  5-MIN K12N 260925Z AUTO 00000KT 13/12 A3011 410 89 300 000/00 RMK AO1 T01330117
54779K12N 12N20160526043009805/26/16 04:30:31  5-MIN K12N 260930Z AUTO 00000KT 13/12 A3012 400 93 300 000/00 RMK AO1 T01330122
54779K12N 12N20160526043509805/26/16 04:35:31  5-MIN K12N 260935Z AUTO 00000KT 13/12 A3012 400 93 300 000/00 RMK AO1 T01280117
54779K12N 12N20160526044009805/26/16 04:40:31  5-MIN K12N 260940Z AUTO 00000KT 13/12 A3012 400 93 300 000/00 RMK AO1 T01330122
54779K12N 12N20160526044509805/26/16 04:45:31  5-MIN K12N 260945Z AUTO 00000KT 13/12 A3012 400 96 300 000/00 RMK AO1 T01280122
54779K12N 12N20160526045010505/26/16 04:50:31  5-MIN K12N 260950Z AUTO 00000KT 13/12 A3012 400 93 300 000/00 RMK AO1 SLP194 T01280117
54779K12N 12N20160526045509805/26/16 04:55:31  5-MIN K12N 260955Z AUTO 00000KT 13/12 A3012 400 96 300 000/00 RMK AO1 T01280122
54779K12N 12N20160526050009805/26/16 05:00:31  5-MIN K12N 261000Z AUTO 00000KT 13/12 A3012 400 96 300 000/00 RMK AO1 T01280122
54779K12N 12N20160526050509805/26/16 05:05:31  5-MIN K12N 261005Z AUTO 00000KT 13/12 A3012 400 96 300 000/00 RMK AO1 T01280122
54779K12N 12N20160526051009805/26/16 05:10:31  5-MIN K12N 261010Z AUTO 00000KT 13/12 A3013 400 96 300 000/00 RMK AO1 T01280122
54779K12N 12N20160526051509805/26/16 05:15:31  5-MIN K12N 261015Z AUTO 00000KT 13/12 A3013 390 93 300 000/00 RMK AO1 T01330122
54779K12N 12N20160526052009805/26/16 05:20:31  5-MIN K12N 261020Z AUTO 00000KT 13/12 A3013 390 93 300 000/00 RMK AO1 T01330122
54779K12N 12N20160526052509805/26/16 05:25:31  5-MIN K12N 261025Z AUTO 00000KT 13/12 A3013 390 96 300 000/00 RMK AO1 T01280122
54779K12N 12N20160526053009805/26/16 05:30:31  5-MIN K12N 261030Z AUTO 00000KT 13/12 A3013 390 93 300 000/00 RMK AO1 T01330122
54779K12N 12N20160526053509805/26/16 05:35:31  5-MIN K12N 261035Z AUTO 00000KT 13/13 A3013 390 96 300 000/00 RMK AO1 T01330128
54779K12N 12N20160526054009805/26/16 05:40:31  5-MIN K12N 261040Z AUTO 00000KT 13/13 A3013 390 96 300 000/00 RMK AO1 T01330128
54779K12N 12N20160526054509805/26/16 05:45:31  5-MIN K12N 261045Z AUTO 00000KT 14/13 A3013 390 93 400 000/00 RMK AO1 T01390128
54779K12N 12N20160526055010505/26/16 05:50:31  5-MIN K12N 261050Z AUTO 00000KT 14/13 A3014 390 93 400 000/00 RMK AO1 SLP198 T01390128
54779K12N 12N20160526055509805/26/16 05:55:31  5-MIN K12N 261055Z AUTO 00000KT 14/13 A3013 390 96 400 000/00 RMK AO1 T01390133
54779K12N 12N20160526060009805/26/16 06:00:31  5-MIN K12N 261100Z AUTO 00000KT 14/13 A3014 390 93 500 000/00 RMK AO1 T01440133
54779K12N 12N20160526060509805/26/16 06:05:31  5-MIN K12N 261105Z AUTO 00000KT 14/13 A3014 390 93 500 000/00 RMK AO1 T01440133
54779K12N 12N20160526061009805/26/16 06:10:31  5-MIN K12N 261110Z AUTO 00000KT 15/13 A3014 390 90 500 000/00 RMK AO1 T01500133
54779K12N 12N20160526061509805/26/16 06:15:31  5-MIN K12N 261115Z AUTO 00000KT 15/13 A3014 390 90 500 000/00 RMK AO1 T01500133
54779K12N 12N20160526062009805/26/16 06:20:31  5-MIN K12N 261120Z AUTO 00000KT 16/13 A3014 390 86 600 000/00 RMK AO1 T01560133
54779K12N 12N20160526062509805/26/16 06:25:31  5-MIN K12N 261125Z AUTO 00000KT 16/13 A3013 390 83 700 000/00 RMK AO1 T01610133
54779K12N 12N20160526063009805/26/16 06:30:31  5-MIN K12N 261130Z AUTO 00000KT 16/14 A3013 390 86 700 000/00 RMK AO1 T01610139
54779K12N 12N20160526063509805/26/16 06:35:31  5-MIN K12N 261135Z AUTO 00000KT 17/14 A3013 390 83 700 000/00 RMK AO1 T01670139
54779K12N 12N20160526064009805/26/16 06:40:31  5-MIN K12N 261140Z AUTO 00000KT 17/14 A3013 390 83 800 000/00 RMK AO1 T01720144
54779K12N 12N20160526064509805/26/16 06:45:31  5-MIN K12N 261145Z AUTO 00000KT 18/14 A3013 390 81 800 000/00 RMK AO1 T01780144
54779K12N 12N20160526065012305/26/16 06:50:31  5-MIN K12N 261150Z AUTO 00000KT 18/14 A3014 380 78 900 000/00 RMK AO1 SLP199 T01830144 10183 20128 53004
54779K12N 12N20160526065509805/26/16 06:55:31  5-MIN K12N 261155Z AUTO 00000KT 18/15 A3014 380 81 900 000/00 RMK AO1 T01830150
54779K12N 12N20160526070009805/26/16 07:00:31  5-MIN K12N 261200Z AUTO 00000KT 18/15 A3014 380 81 900 000/00 RMK AO1 T01830150
54779K12N 12N20160526070509905/26/16 07:05:31  5-MIN K12N 261205Z AUTO 00000KT 19/15 A3014 380 78 1000 000/00 RMK AO1 T01890150
54779K12N 12N20160526071009905/26/16 07:10:31  5-MIN K12N 261210Z AUTO 00000KT 20/14 A3014 380 67 1100 000/00 RMK AO1 T02000139
54779K12N 12N20160526071509905/26/16 07:15:31  5-MIN K12N 261215Z AUTO 00000KT 21/14 A3014 380 65 1200 000/00 RMK AO1 T02060139
54779K12N 12N20160526072009905/26/16 07:20:31  5-MIN K12N 261220Z AUTO 00000KT 21/14 A3014 380 67 1200 000/00 RMK AO1 T02060144
54779K12N 12N20160526072509905/26/16 07:25:31  5-MIN K12N 261225Z AUTO 00000KT 21/14 A3014 390 65 1200 000/00 RMK AO1 T02060139
54779K12N 12N20160526073009905/26/16 07:30:31  5-MIN K12N 261230Z AUTO 00000KT 21/14 A3014 390 67 1200 000/00 RMK AO1 T02060144
54779K12N 12N20160526073509905/26/16 07:35:31  5-MIN K12N 261235Z AUTO 00000KT 21/14 A3013 390 65 1200 000/00 RMK AO1 T02110144
54779K12N 12N20160526074009905/26/16 07:40:31  5-MIN K12N 261240Z AUTO 00000KT 21/14 A3013 390 63 1200 000/00 RMK AO1 T02110139
54779K12N 12N20160526074509905/26/16 07:45:31  5-MIN K12N 261245Z AUTO 00000KT 22/13 A3013 390 58 1300 000/00 RMK AO1 T02170133
54779K12N 12N20160526075010605/26/16 07:50:31  5-MIN K12N 261250Z AUTO 00000KT 22/13 A3013 390 58 1300 000/00 RMK AO1 SLP196 T02170133
54779K12N 12N20160526075509905/26/16 07:55:31  5-MIN K12N 261255Z AUTO 00000KT 22/13 A3013 390 56 1400 000/00 RMK AO1 T02220133
54779K12N 12N20160526080009905/26/16 08:00:31  5-MIN K12N 261300Z AUTO 00000KT 23/14 A3013 390 57 1400 000/00 RMK AO1 T02280139
54779K12N 12N20160526080509905/26/16 08:05:31  5-MIN K12N 261305Z AUTO 16003KT 23/13 A3013 390 55 1400 170/03 RMK AO1 T02280133
54779K12N 12N20160526081009905/26/16 08:10:31  5-MIN K12N 261310Z AUTO 00000KT 23/13 A3013 390 53 1500 000/00 RMK AO1 T02330133
54779K12N 12N20160526081509905/26/16 08:15:31  5-MIN K12N 261315Z AUTO 00000KT 23/13 A3013 390 53 1500 000/00 RMK AO1 T02330133
54779K12N 12N20160526082009905/26/16 08:20:31  5-MIN K12N 261320Z AUTO 00000KT 23/13 A3013 390 53 1500 000/00 RMK AO1 T02330133
54779K12N 12N20160526082509905/26/16 08:25:31  5-MIN K12N 261325Z AUTO 00000KT 24/13 A3013 390 51 1600 000/00 RMK AO1 T02390133
54779K12N 12N20160526083009905/26/16 08:30:31  5-MIN K12N 261330Z AUTO 00000KT 24/13 A3013 390 49 1600 000/00 RMK AO1 T02390128
54779K12N 12N20160526083509905/26/16 08:35:31  5-MIN K12N 261335Z AUTO VRB03KT 24/13 A3013 400 51 1600 VRB/03 RMK AO1 T02390133
54779K12N 12N20160526084009905/26/16 08:40:31  5-MIN K12N 261340Z AUTO 00000KT 24/13 A3013 400 51 1600 000/00 RMK AO1 T02390133
54779K12N 12N20160526084509905/26/16 08:45:31  5-MIN K12N 261345Z AUTO 16003KT 24/13 A3012 400 51 1600 170/03 RMK AO1 T02390133
54779K12N 12N20160526085010605/26/16 08:50:31  5-MIN K12N 261350Z AUTO 21003KT 24/14 A3012 400 51 1600 230/03 RMK AO1 SLP193 T02440139
54779K12N 12N20160526085509905/26/16 08:55:31  5-MIN K12N 261355Z AUTO VRB03KT 24/14 A3012 400 51 1600 VRB/03 RMK AO1 T02440139
54779K12N 12N20160526090009905/26/16 09:00:31  5-MIN K12N 261400Z AUTO 00000KT 25/14 A3012 400 49 1700 000/00 RMK AO1 T02500139
54779K12N 12N20160526090509905/26/16 09:05:31  5-MIN K12N 261405Z AUTO 00000KT 25/14 A3012 400 49 1700 000/00 RMK AO1 T02500139
54779K12N 12N20160526091009905/26/16 09:10:31  5-MIN K12N 261410Z AUTO 16003KT 25/14 A3012 410 49 1700 170/03 RMK AO1 T02500139
54779K12N 12N20160526091509905/26/16 09:15:31  5-MIN K12N 261415Z AUTO 00000KT 25/13 A3011 410 48 1700 000/00 RMK AO1 T02500133
54779K12N 12N20160526092009905/26/16 09:20:31  5-MIN K12N 261420Z AUTO 00000KT 26/13 A3011 410 46 1800 000/00 RMK AO1 T02560133
54779K12N 12N20160526092509905/26/16 09:25:31  5-MIN K12N 261425Z AUTO 00000KT 26/13 A3011 410 46 1800 000/00 RMK AO1 T02560133
54779K12N 12N20160526093009905/26/16 09:30:31  5-MIN K12N 261430Z AUTO 00000KT 26/13 A3011 410 44 1800 000/00 RMK AO1 T02610133
54779K12N 12N20160526093509905/26/16 09:35:31  5-MIN K12N 261435Z AUTO 00000KT 26/13 A3011 410 44 1800 000/00 RMK AO1 T02610133
54779K12N 12N20160526094009905/26/16 09:40:31  5-MIN K12N 261440Z AUTO 00000KT 27/13 A3011 410 41 1900 000/00 RMK AO1 T02670128
54779K12N 12N20160526094509905/26/16 09:45:31  5-MIN K12N 261445Z AUTO 00000KT 27/12 A3011 410 40 1900 000/00 RMK AO1 T02670122
54779K12N 12N20160526095011205/26/16 09:50:31  5-MIN K12N 261450Z AUTO VRB03KT 27/12 A3011 410 39 2000 VRB/03 RMK AO1 SLP187 T02720122 51012
54779K12N 12N20160526095509905/26/16 09:55:31  5-MIN K12N 261455Z AUTO VRB03KT 27/12 A3010 420 39 2000 VRB/03 RMK AO1 T02720122
54779K12N 12N20160526100009905/26/16 10:00:31  5-MIN K12N 261500Z AUTO VRB03KT 28/13 A3010 420 39 2000 VRB/03 RMK AO1 T02780128
54779K12N 12N20160526100509905/26/16 10:05:31  5-MIN K12N 261505Z AUTO VRB03KT 28/13 A3010 420 39 2000 VRB/03 RMK AO1 T02780128
54779K12N 12N20160526101009905/26/16 10:10:31  5-MIN K12N 261510Z AUTO VRB04KT 28/12 A3010 420 37 2000 VRB/04 RMK AO1 T02780122
54779K12N 12N20160526101509905/26/16 10:15:31  5-MIN K12N 261515Z AUTO VRB03KT 28/13 A3010 420 39 2000 VRB/03 RMK AO1 T02780128
54779K12N 12N20160526102009905/26/16 10:20:31  5-MIN K12N 261520Z AUTO 22004KT 28/12 A3010 420 36 2100 230/04 RMK AO1 T02830122
54779K12N 12N20160526102509905/26/16 10:25:31  5-MIN K12N 261525Z AUTO 00000KT 29/12 A3010 420 35 2200 000/00 RMK AO1 T02890122
54779K12N 12N20160526103009905/26/16 10:30:31  5-MIN K12N 261530Z AUTO 00000KT 29/13 A3010 420 35 2200 000/00 RMK AO1 T02940128
54779K12N 12N20160526103509905/26/16 10:35:31  5-MIN K12N 261535Z AUTO 23003KT 29/13 A3009 430 36 2200 240/03 RMK AO1 T02890128
54779K12N 12N20160526104009905/26/16 10:40:31  5-MIN K12N 261540Z AUTO 00000KT 29/12 A3009 430 34 2200 000/00 RMK AO1 T02890117
54779K12N 12N20160526104509905/26/16 10:45:31  5-MIN K12N 261545Z AUTO 00000KT 30/12 A3009 430 33 2300 000/00 RMK AO1 T03000122
54779K12N 12N20160526105010605/26/16 10:50:31  5-MIN K12N 261550Z AUTO VRB05KT 29/12 A3009 430 34 2200 VRB/05 RMK AO1 SLP182 T02940122
54779K12N 12N20160526105508905/26/16 10:55:31  5-MIN K12N 261555Z AUTO 29/11 A3009 430 31 2200 M /M RMK AO1 T02940111
54779K12N 12N20160526110009905/26/16 11:00:31  5-MIN K12N 261600Z AUTO VRB05KT 30/11 A3009 430 29 2300 VRB/05 RMK AO1 T03000106
54779K12N 12N20160526110509905/26/16 11:05:31  5-MIN K12N 261605Z AUTO VRB04KT 30/11 A3009 430 29 2300 VRB/04 RMK AO1 T03000106
54779K12N 12N20160526111009905/26/16 11:10:31  5-MIN K12N 261610Z AUTO VRB04KT 30/10 A3009 430 28 2300 VRB/04 RMK AO1 T03000100
54779K12N 12N20160526111509905/26/16 11:15:31  5-MIN K12N 261615Z AUTO VRB05KT 30/11 A3009 430 29 2300 VRB/05 RMK AO1 T03000106
54779K12N 12N20160526112009905/26/16 11:20:31  5-MIN K12N 261620Z AUTO VRB05KT 30/10 A3009 430 28 2300 VRB/05 RMK AO1 T03000100
54779K12N 12N20160526112509905/26/16 11:25:31  5-MIN K12N 261625Z AUTO 31006KT 30/11 A3008 430 29 2300 320/06 RMK AO1 T03000106
54779K12N 12N20160526113009905/26/16 11:30:31  5-MIN K12N 261630Z AUTO VRB03KT 30/12 A3008 430 31 2300 VRB/03 RMK AO1 T03000117
54779K12N 12N20160526113509905/26/16 11:35:31  5-MIN K12N 261635Z AUTO VRB03KT 31/12 A3008 430 29 2400 VRB/03 RMK AO1 T03110117
54779K12N 12N20160526114009905/26/16 11:40:31  5-MIN K12N 261640Z AUTO VRB05KT 30/11 A3008 440 29 2300 VRB/05 RMK AO1 T03000106
54779K12N 12N20160526114509905/26/16 11:45:31  5-MIN K12N 261645Z AUTO VRB05KT 30/11 A3008 440 30 2300 VRB/05 RMK AO1 T03000111
54779K12N 12N20160526115010605/26/16 11:50:31  5-MIN K12N 261650Z AUTO VRB06KT 31/11 A3008 440 29 2400 VRB/06 RMK AO1 SLP178 T03060111
54779K12N 12N20160526115509905/26/16 11:55:31  5-MIN K12N 261655Z AUTO VRB06KT 30/08 A3008 440 25 2300 VRB/06 RMK AO1 T03000083
54779K12N 12N20160526120009905/26/16 12:00:31  5-MIN K12N 261700Z AUTO 20007KT 30/08 A3008 440 25 2300 220/07 RMK AO1 T03000083
54779K12N 12N20160526120509905/26/16 12:05:31  5-MIN K12N 261705Z AUTO 23008KT 30/08 A3008 440 25 2300 240/08 RMK AO1 T03000083
54779K12N 12N20160526121009905/26/16 12:10:31  5-MIN K12N 261710Z AUTO 20006KT 30/08 A3007 440 25 2300 220/06 RMK AO1 T03000083
54779K12N 12N20160526121509905/26/16 12:15:31  5-MIN K12N 261715Z AUTO VRB05KT 30/09 A3007 440 26 2300 VRB/05 RMK AO1 T03000089
54779K12N 12N20160526122009905/26/16 12:20:31  5-MIN K12N 261720Z AUTO VRB05KT 31/09 A3007 450 26 2400 VRB/05 RMK AO1 T03060094
54779K12N 12N20160526122509905/26/16 12:25:31  5-MIN K12N 261725Z AUTO VRB04KT 31/09 A3007 450 25 2400 VRB/04 RMK AO1 T03060089
54779K12N 12N20160526123009905/26/16 12:30:31  5-MIN K12N 261730Z AUTO VRB05KT 31/09 A3007 450 26 2400 VRB/05 RMK AO1 T03060094
54779K12N 12N20160526123509905/26/16 12:35:31  5-MIN K12N 261735Z AUTO VRB05KT 31/09 A3007 450 26 2400 VRB/05 RMK AO1 T03060094
54779K12N 12N20160526124009905/26/16 12:40:31  5-MIN K12N 261740Z AUTO 00000KT 31/11 A3007 450 28 2400 000/00 RMK AO1 T03060106
54779K12N 12N20160526124509905/26/16 12:45:31  5-MIN K12N 261745Z AUTO 24009KT 31/10 A3007 450 27 2400 250/09 RMK AO1 T03060100
54779K12N 12N20160526125012405/26/16 12:50:31  5-MIN K12N 261750Z AUTO 22006KT 31/11 A3006 450 28 2400 230/06 RMK AO1 SLP173 T03060106 10311 20183 58012
54779K12N 12N20160526125509905/26/16 12:55:31  5-MIN K12N 261755Z AUTO 00000KT 31/10 A3006 460 27 2400 000/00 RMK AO1 T03060100
54779K12N 12N20160526130009905/26/16 13:00:31  5-MIN K12N 261800Z AUTO 22008KT 31/11 A3006 460 28 2400 230/08 RMK AO1 T03060106
54779K12N 12N20160526130509905/26/16 13:05:31  5-MIN K12N 261805Z AUTO VRB04KT 31/10 A3006 460 27 2400 VRB/04 RMK AO1 T03060100
54779K12N 12N20160526131009905/26/16 13:10:31  5-MIN K12N 261810Z AUTO 22006KT 31/09 A3006 460 26 2400 230/06 RMK AO1 T03060094
54779K12N 12N20160526131509905/26/16 13:15:31  5-MIN K12N 261815Z AUTO 22008KT 31/09 A3006 460 26 2400 240/08 RMK AO1 T03060094
54779K12N 12N20160526132011505/26/16 13:20:31  5-MIN K12N 261820Z AUTO 21007KT 160V230 31/09 A3006 460 26 2400 220/07 170V240 RMK AO1 T03060094
54779K12N 12N20160526132509905/26/16 13:25:31  5-MIN K12N 261825Z AUTO VRB05KT 31/09 A3006 460 26 2400 VRB/05 RMK AO1 T03060094
54779K12N 12N20160526133009905/26/16 13:30:31  5-MIN K12N 261830Z AUTO VRB05KT 31/10 A3006 460 26 2400 VRB/05 RMK AO1 T03110100
54779K12N 12N20160526133509905/26/16 13:35:31  5-MIN K12N 261835Z AUTO 22008KT 31/09 A3006 460 25 2400 230/08 RMK AO1 T03110094
54779K12N 12N20160526134009905/26/16 13:40:31  5-MIN K12N 261840Z AUTO VRB04KT 31/09 A3006 460 26 2400 VRB/04 RMK AO1 T03060094
54779K12N 12N20160526134511505/26/16 13:45:31  5-MIN K12N 261845Z AUTO 23008KT 190V250 31/09 A3006 460 26 2400 240/08 200V260 RMK AO1 T03060094
54779K12N 12N20160526135010605/26/16 13:50:31  5-MIN K12N 261850Z AUTO 22006KT 31/10 A3006 460 27 2400 230/06 RMK AO1 SLP171 T03060100
54779K12N 12N20160526135508905/26/16 13:55:31  5-MIN K12N 261855Z AUTO 30/10 A3006 460 28 2300 M /M RMK AO1 T03000100
54779K12N 12N20160526140009905/26/16 14:00:31  5-MIN K12N 261900Z AUTO 24004KT 31/11 A3005 460 28 2400 250/04 RMK AO1 T03110111
54779K12N 12N20160526140509905/26/16 14:05:31  5-MIN K12N 261905Z AUTO VRB06KT 31/11 A3005 460 28 2400 VRB/06 RMK AO1 T03110111
54779K12N 12N20160526141011505/26/16 14:10:31  5-MIN K12N 261910Z AUTO 19007KT 150V230 31/11 A3005 460 29 2400 200/07 160V240 RMK AO1 T03060111
54779K12N 12N20160526141509905/26/16 14:15:31  5-MIN K12N 261915Z AUTO 23006KT 31/11 A3005 460 29 2400 240/06 RMK AO1 T03060111
54779K12N 12N20160526142010505/26/16 14:20:31  5-MIN K12N 261920Z AUTO VRB06G14KT 31/11 A3005 470 28 2500 VRB/06G14 RMK AO1 T03110111
54779K12N 12N20160526142510505/26/16 14:25:31  5-MIN K12N 261925Z AUTO 22010G14KT 31/12 A3005 470 29 2500 240/10G14 RMK AO1 T03110117
54779K12N 12N20160526143011505/26/16 14:30:31  5-MIN K12N 261930Z AUTO 22007KT 190V260 31/12 A3005 470 29 2500 230/07 200V270 RMK AO1 T03110117
54779K12N 12N20160526143509905/26/16 14:35:31  5-MIN K12N 261935Z AUTO 21006KT 31/11 A3005 460 29 2400 220/06 RMK AO1 T03060111
54779K12N 12N20160526144009905/26/16 14:40:31  5-MIN K12N 261940Z AUTO VRB05KT 31/11 A3005 470 28 2500 VRB/05 RMK AO1 T03110111
54779K12N 12N20160526144509905/26/16 14:45:31  5-MIN K12N 261945Z AUTO VRB05KT 31/11 A3005 470 29 2400 VRB/05 RMK AO1 T03060111
54779K12N 12N20160526145010605/26/16 14:50:31  5-MIN K12N 261950Z AUTO 21005KT 31/11 A3005 470 29 2400 220/05 RMK AO1 SLP167 T03060111
54779K12N 12N20160526145509905/26/16 14:55:31  5-MIN K12N 261955Z AUTO VRB05KT 31/11 A3005 470 29 2400 VRB/05 RMK AO1 T03060111
54779K12N 12N20160526150009905/26/16 15:00:31  5-MIN K12N 262000Z AUTO VRB06KT 31/11 A3005 470 29 2400 VRB/06 RMK AO1 T03060111
54779K12N 12N20160526150509905/26/16 15:05:31  5-MIN K12N 262005Z AUTO 21007KT 31/11 A3005 470 28 2500 220/07 RMK AO1 T03110111
54779K12N 12N20160526151010505/26/16 15:10:31  5-MIN K12N 262010Z AUTO 21008G15KT 31/11 A3005 470 28 2400 230/08G15 RMK AO1 T03060106
54779K12N 12N20160526151510505/26/16 15:15:31  5-MIN K12N 262015Z AUTO 22007G15KT 31/11 A3005 460 28 2400 230/07G15 RMK AO1 T03060106
54779K12N 12N20160526152009905/26/16 15:20:31  5-MIN K12N 262020Z AUTO 23006KT 31/11 A3005 460 28 2400 240/06 RMK AO1 T03060106
54779K12N 12N20160526152509905/26/16 15:25:31  5-MIN K12N 262025Z AUTO 22007KT 31/11 A3005 460 28 2400 230/07 RMK AO1 T03060106
54779K12N 12N20160526153009905/26/16 15:30:31  5-MIN K12N 262030Z AUTO 21006KT 30/10 A3005 460 28 2300 220/06 RMK AO1 T03000100
54779K12N 12N20160526153509905/26/16 15:35:31  5-MIN K12N 262035Z AUTO 21007KT 30/10 A3005 470 28 2300 230/07 RMK AO1 T03000100
54779K12N 12N20160526154010505/26/16 15:40:31  5-MIN K12N 262040Z AUTO 23010G16KT 31/11 A3005 470 28 2400 240/10G16 RMK AO1 T03060106
54779K12N 12N20160526154510505/26/16 15:45:31  5-MIN K12N 262045Z AUTO VRB06G16KT 30/11 A3005 470 29 2300 VRB/06G16 RMK AO1 T03000106
54779K12N 12N20160526155011205/26/16 15:50:31  5-MIN K12N 262050Z AUTO 22007KT 30/11 A3005 470 29 2300 230/07 RMK AO1 SLP168 T03000106 58015
54779K12N 12N20160526155509905/26/16 15:55:31  5-MIN K12N 262055Z AUTO 22006KT 30/11 A3004 470 29 2300 240/06 RMK AO1 T03000106
54779K12N 12N20160526160009905/26/16 16:00:31  5-MIN K12N 262100Z AUTO 00000KT 30/11 A3004 470 30 2300 000/00 RMK AO1 T03000111
54779K12N 12N20160526160509905/26/16 16:05:31  5-MIN K12N 262105Z AUTO VRB06KT 30/12 A3004 470 31 2300 VRB/06 RMK AO1 T03000117
54779K12N 12N20160526161009905/26/16 16:10:31  5-MIN K12N 262110Z AUTO VRB06KT 30/11 A3004 470 29 2300 VRB/06 RMK AO1 T03000106
54779K12N 12N20160526161509905/26/16 16:15:31  5-MIN K12N 262115Z AUTO VRB04KT 30/11 A3004 480 29 2300 VRB/04 RMK AO1 T03000106
54779K12N 12N20160526162009905/26/16 16:20:31  5-MIN K12N 262120Z AUTO 23004KT 30/11 A3004 480 30 2300 240/04 RMK AO1 T03000111
54779K12N 12N20160526162509905/26/16 16:25:31  5-MIN K12N 262125Z AUTO 23008KT 30/11 A3004 480 30 2300 240/08 RMK AO1 T03000111
54779K12N 12N20160526163009905/26/16 16:30:31  5-MIN K12N 262130Z AUTO VRB04KT 30/11 A3004 480 30 2300 VRB/04 RMK AO1 T03000111
54779K12N 12N20160526163509905/26/16 16:35:31  5-MIN K12N 262135Z AUTO VRB05KT 30/11 A3004 480 30 2300 VRB/05 RMK AO1 T03000111
54779K12N 12N20160526164009905/26/16 16:40:31  5-MIN K12N 262140Z AUTO VRB03KT 30/11 A3004 480 30 2300 VRB/03 RMK AO1 T03000111
54779K12N 12N20160526164509905/26/16 16:45:31  5-MIN K12N 262145Z AUTO 23004KT 30/12 A3004 480 31 2300 240/04 RMK AO1 T03000117
54779K12N 12N20160526165010605/26/16 16:50:31  5-MIN K12N 262150Z AUTO 23004KT 30/12 A3004 480 31 2300 240/04 RMK AO1 SLP165 T03000117
54779K12N 12N20160526165509905/26/16 16:55:31  5-MIN K12N 262155Z AUTO VRB04KT 30/12 A3004 480 31 2300 VRB/04 RMK AO1 T03000117
54779K12N 12N20160526170009905/26/16 17:00:31  5-MIN K12N 262200Z AUTO VRB05KT 30/12 A3004 480 31 2300 VRB/05 RMK AO1 T03000117
54779K12N 12N20160526170509905/26/16 17:05:31  5-MIN K12N 262205Z AUTO 23004KT 30/12 A3003 480 31 2300 240/04 RMK AO1 T03000117
54779K12N 12N20160526171009905/26/16 17:10:31  5-MIN K12N 262210Z AUTO 23007KT 30/11 A3003 480 30 2300 250/07 RMK AO1 T03000111
54779K12N 12N20160526171509905/26/16 17:15:31  5-MIN K12N 262215Z AUTO 22004KT 30/11 A3003 480 30 2300 240/04 RMK AO1 T03000111
54779K12N 12N20160526172009905/26/16 17:20:31  5-MIN K12N 262220Z AUTO 22005KT 30/12 A3003 480 31 2400 240/05 RMK AO1 T03000117
54779K12N 12N20160526172509905/26/16 17:25:31  5-MIN K12N 262225Z AUTO 21005KT 29/12 A3003 480 33 2300 220/05 RMK AO1 T02940117
54779K12N 12N20160526173009905/26/16 17:30:31  5-MIN K12N 262230Z AUTO 21004KT 29/12 A3003 480 33 2300 230/04 RMK AO1 T02940117
54779K12N 12N20160526173509905/26/16 17:35:31  5-MIN K12N 262235Z AUTO 22003KT 29/12 A3003 480 34 2300 240/03 RMK AO1 T02940122
54779K12N 12N20160526174009905/26/16 17:40:31  5-MIN K12N 262240Z AUTO 00000KT 29/12 A3003 480 34 2200 000/00 RMK AO1 T02890117
54779K12N 12N20160526174509905/26/16 17:45:31  5-MIN K12N 262245Z AUTO 23003KT 29/13 A3003 480 36 2200 240/03 RMK AO1 T02890128
54779K12N 12N20160526175010605/26/16 17:50:31  5-MIN K12N 262250Z AUTO 00000KT 29/12 A3003 480 35 2200 000/00 RMK AO1 SLP163 T02890122
54779K12N 12N20160526175509905/26/16 17:55:31  5-MIN K12N 262255Z AUTO VRB03KT 29/12 A3003 480 35 2200 VRB/03 RMK AO1 T02890122
54779K12N 12N20160526180009905/26/16 18:00:31  5-MIN K12N 262300Z AUTO 00000KT 28/14 A3003 480 43 2100 000/00 RMK AO1 T02780144
54779K12N 12N20160526180509905/26/16 18:05:31  5-MIN K12N 262305Z AUTO 00000KT 27/15 A3003 480 46 2000 000/00 RMK AO1 T02720150
54779K12N 12N20160526181009905/26/16 18:10:31  5-MIN K12N 262310Z AUTO 00000KT 27/14 A3003 480 45 2000 000/00 RMK AO1 T02720144
54779K12N 12N20160526181509905/26/16 18:15:31  5-MIN K12N 262315Z AUTO 00000KT 27/15 A3003 480 48 2000 000/00 RMK AO1 T02670150
54779K12N 12N20160526182009905/26/16 18:20:31  5-MIN K12N 262320Z AUTO 00000KT 26/14 A3003 480 48 1900 000/00 RMK AO1 T02610144
54779K12N 12N20160526182509905/26/16 18:25:31  5-MIN K12N 262325Z AUTO 00000KT 26/16 A3003 480 53 1900 000/00 RMK AO1 T02560156
54779K12N 12N20160526183009905/26/16 18:30:31  5-MIN K12N 262330Z AUTO 00000KT 26/16 A3003 480 55 1900 000/00 RMK AO1 T02560161
54779K12N 12N20160526183509905/26/16 18:35:31  5-MIN K12N 262335Z AUTO 00000KT 25/17 A3003 480 59 1800 000/00 RMK AO1 T02500167
54779K12N 12N20160526184009905/26/16 18:40:31  5-MIN K12N 262340Z AUTO 00000KT 25/17 A3003 480 59 1800 000/00 RMK AO1 T02500167
54779K12N 12N20160526184509905/26/16 18:45:31  5-MIN K12N 262345Z AUTO 00000KT 25/16 A3003 490 57 1800 000/00 RMK AO1 T02500161
54779K12N 12N20160526185012405/26/16 18:50:31  5-MIN K12N 262350Z AUTO 00000KT 24/17 A3003 490 61 1700 000/00 RMK AO1 SLP162 T02440167 10311 20244 56005
54779K12N 12N20160526185509905/26/16 18:55:31  5-MIN K12N 262355Z AUTO 00000KT 24/17 A3003 480 61 1700 000/00 RMK AO1 T02440167
54779K12N 12N20160526190009905/26/16 19:00:31  5-MIN K12N 270000Z AUTO 00000KT 24/17 A3003 490 66 1700 000/00 RMK AO1 T02390172
54779K12N 12N20160526190509905/26/16 19:05:31  5-MIN K12N 270005Z AUTO 00000KT 24/17 A3003 480 63 1700 000/00 RMK AO1 T02390167
54779K12N 12N20160526191009905/26/16 19:10:31  5-MIN K12N 270010Z AUTO 00000KT 23/16 A3003 480 63 1600 000/00 RMK AO1 T02330161
54779K12N 12N20160526191509905/26/16 19:15:31  5-MIN K12N 270015Z AUTO 00000KT 23/16 A3003 480 63 1600 000/00 RMK AO1 T02330161
54779K12N 12N20160526192009905/26/16 19:20:31  5-MIN K12N 270020Z AUTO 00000KT 23/17 A3003 480 68 1500 000/00 RMK AO1 T02280167
54779K12N 12N20160526192509905/26/16 19:25:31  5-MIN K12N 270025Z AUTO 00000KT 23/17 A3004 480 68 1500 000/00 RMK AO1 T02280167
54779K12N 12N20160526193009905/26/16 19:30:31  5-MIN K12N 270030Z AUTO 00000KT 23/17 A3004 480 68 1500 000/00 RMK AO1 T02280167
54779K12N 12N20160526193509905/26/16 19:35:31  5-MIN K12N 270035Z AUTO 00000KT 22/18 A3004 470 75 1500 000/00 RMK AO1 T02220178
54779K12N 12N20160526194009905/26/16 19:40:31  5-MIN K12N 270040Z AUTO 00000KT 22/17 A3004 470 70 1500 000/00 RMK AO1 T02220167
54779K12N 12N20160526194509905/26/16 19:45:31  5-MIN K12N 270045Z AUTO 00000KT 22/16 A3004 470 65 1500 000/00 RMK AO1 T02220156
54779K12N 12N20160526195010605/26/16 19:50:31  5-MIN K12N 270050Z AUTO 00000KT 22/16 A3004 470 65 1500 000/00 RMK AO1 SLP165 T02220156
54779K12N 12N20160526195509905/26/16 19:55:31  5-MIN K12N 270055Z AUTO 00000KT 22/16 A3004 470 70 1400 000/00 RMK AO1 T02170161
54779K12N 12N20160526200009905/26/16 20:00:31  5-MIN K12N 270100Z AUTO 00000KT 21/17 A3004 470 75 1300 000/00 RMK AO1 T02110167
54779K12N 12N20160526200509905/26/16 20:05:31  5-MIN K12N 270105Z AUTO 00000KT 21/17 A3005 470 75 1300 000/00 RMK AO1 T02110167
54779K12N 12N20160526201009905/26/16 20:10:31  5-MIN K12N 270110Z AUTO 00000KT 21/17 A3005 470 75 1300 000/00 RMK AO1 T02110167
54779K12N 12N20160526201509905/26/16 20:15:31  5-MIN K12N 270115Z AUTO 00000KT 21/17 A3005 470 81 1300 000/00 RMK AO1 T02060172
54779K12N 12N20160526202009905/26/16 20:20:31  5-MIN K12N 270120Z AUTO 00000KT 21/17 A3005 470 75 1300 000/00 RMK AO1 T02110167
54779K12N 12N20160526202509905/26/16 20:25:31  5-MIN K12N 270125Z AUTO 00000KT 21/16 A3004 470 73 1300 000/00 RMK AO1 T02110161
54779K12N 12N20160526203009905/26/16 20:30:31  5-MIN K12N 270130Z AUTO 00000KT 21/16 A3005 470 73 1300 000/00 RMK AO1 T02110161
54779K12N 12N20160526203509905/26/16 20:35:31  5-MIN K12N 270135Z AUTO 00000KT 21/16 A3005 470 75 1300 000/00 RMK AO1 T02060161
54779K12N 12N20160526204009905/26/16 20:40:31  5-MIN K12N 270140Z AUTO 00000KT 21/16 A3005 470 70 1300 000/00 RMK AO1 T02110156
54779K12N 12N20160526204509905/26/16 20:45:31  5-MIN K12N 270145Z AUTO 00000KT 21/15 A3005 470 70 1300 000/00 RMK AO1 T02060150
54779K12N 12N20160526205010605/26/16 20:50:31  5-MIN K12N 270150Z AUTO 00000KT 21/16 A3005 460 73 1300 000/00 RMK AO1 SLP169 T02060156
54779K12N 12N20160526205509905/26/16 20:55:31  5-MIN K12N 270155Z AUTO 00000KT 21/16 A3006 460 73 1300 000/00 RMK AO1 T02060156
54779K12N 12N20160526210009905/26/16 21:00:31  5-MIN K12N 270200Z AUTO 00000KT 21/16 A3006 460 73 1300 000/00 RMK AO1 T02060156
54779K12N 12N20160526210509905/26/16 21:05:31  5-MIN K12N 270205Z AUTO 00000KT 21/15 A3006 460 70 1300 000/00 RMK AO1 T02060150
54779K12N 12N20160526211009905/26/16 21:10:31  5-MIN K12N 270210Z AUTO 00000KT 20/14 A3006 460 70 1200 000/00 RMK AO1 T02000144
54779K12N 12N20160526211509905/26/16 21:15:31  5-MIN K12N 270215Z AUTO 00000KT 20/14 A3006 460 70 1200 000/00 RMK AO1 T02000144
54779K12N 12N20160526212009905/26/16 21:20:31  5-MIN K12N 270220Z AUTO 00000KT 20/14 A3006 460 70 1200 000/00 RMK AO1 T02000144
54779K12N 12N20160526212509905/26/16 21:25:31  5-MIN K12N 270225Z AUTO 00000KT 20/14 A3006 450 70 1200 000/00 RMK AO1 T02000144
54779K12N 12N20160526213009905/26/16 21:30:31  5-MIN K12N 270230Z AUTO 00000KT 20/14 A3006 460 67 1200 000/00 RMK AO1 T02000139
54779K12N 12N20160526213509905/26/16 21:35:31  5-MIN K12N 270235Z AUTO 00000KT 20/14 A3006 460 70 1200 000/00 RMK AO1 T02000144
54779K12N 12N20160526214009905/26/16 21:40:31  5-MIN K12N 270240Z AUTO 00000KT 19/15 A3006 450 75 1100 000/00 RMK AO1 T01940150
54779K12N 12N20160526214509905/26/16 21:45:31  5-MIN K12N 270245Z AUTO 00000KT 20/15 A3006 450 72 1200 000/00 RMK AO1 T02000150
54779K12N 12N20160526215011205/26/16 21:50:31  5-MIN K12N 270250Z AUTO 00000KT 19/16 A3007 450 78 1100 000/00 RMK AO1 SLP173 T01940156 56005
54779K12N 12N20160526215509905/26/16 21:55:31  5-MIN K12N 270255Z AUTO 00000KT 19/15 A3007 450 75 1100 000/00 RMK AO1 T01940150
54779K12N 12N20160526220009905/26/16 22:00:31  5-MIN K12N 270300Z AUTO 00000KT 19/15 A3007 450 75 1100 000/00 RMK AO1 T01940150
54779K12N 12N20160526220509905/26/16 22:05:31  5-MIN K12N 270305Z AUTO 00000KT 19/16 A3007 450 78 1100 000/00 RMK AO1 T01940156
54779K12N 12N20160526221009905/26/16 22:10:31  5-MIN K12N 270310Z AUTO 00000KT 19/16 A3006 450 78 1100 000/00 RMK AO1 T01940156
54779K12N 12N20160526221509905/26/16 22:15:31  5-MIN K12N 270315Z AUTO 00000KT 19/16 A3006 450 78 1100 000/00 RMK AO1 T01940156
54779K12N 12N20160526222009905/26/16 22:20:31  5-MIN K12N 270320Z AUTO 00000KT 19/16 A3007 450 81 1100 000/00 RMK AO1 T01890156
54779K12N 12N20160526222509905/26/16 22:25:31  5-MIN K12N 270325Z AUTO 00000KT 19/14 A3007 450 75 1100 000/00 RMK AO1 T01890144
54779K12N 12N20160526223009905/26/16 22:30:31  5-MIN K12N 270330Z AUTO 00000KT 19/14 A3007 450 75 1100 000/00 RMK AO1 T01890144
54779K12N 12N20160526223509905/26/16 22:35:31  5-MIN K12N 270335Z AUTO 00000KT 19/15 A3006 450 78 1100 000/00 RMK AO1 T01890150
54779K12N 12N20160526224009905/26/16 22:40:31  5-MIN K12N 270340Z AUTO 00000KT 19/14 A3007 450 75 1100 000/00 RMK AO1 T01890144
54779K12N 12N20160526224509905/26/16 22:45:31  5-MIN K12N 270345Z AUTO 00000KT 19/15 A3007 450 78 1100 000/00 RMK AO1 T01890150
54779K12N 12N20160526225010605/26/16 22:50:31  5-MIN K12N 270350Z AUTO 00000KT 19/15 A3006 450 78 1100 000/00 RMK AO1 SLP172 T01890150
54779K12N 12N20160526225509905/26/16 22:55:31  5-MIN K12N 270355Z AUTO 00000KT 19/15 A3006 450 75 1100 000/00 RMK AO1 T01940150
54779K12N 12N20160526230009905/26/16 23:00:31  5-MIN K12N 270400Z AUTO 00000KT 19/16 A3006 450 81 1100 000/00 RMK AO1 T01890156
54779K12N 12N20160526230509905/26/16 23:05:31  5-MIN K12N 270405Z AUTO 00000KT 19/16 A3006 460 81 1100 000/00 RMK AO1 T01890156
54779K12N 12N20160526231009905/26/16 23:10:31  5-MIN K12N 270410Z AUTO 00000KT 19/16 A3006 460 81 1100 000/00 RMK AO1 T01890156
54779K12N 12N20160526231509905/26/16 23:15:31  5-MIN K12N 270415Z AUTO 00000KT 19/15 A3006 460 78 1100 000/00 RMK AO1 T01890150
54779K12N 12N20160526232009905/26/16 23:20:31  5-MIN K12N 270420Z AUTO 00000KT 19/16 A3006 460 81 1100 000/00 RMK AO1 T01890156
54779K12N 12N20160526232509905/26/16 23:25:31  5-MIN K12N 270425Z AUTO 00000KT 19/15 A3006 460 75 1100 000/00 RMK AO1 T01940150
54779K12N 12N20160526233009905/26/16 23:30:31  5-MIN K12N 270430Z AUTO 00000KT 19/15 A3006 460 78 1100 000/00 RMK AO1 T01890150
54779K12N 12N20160526233509905/26/16 23:35:31  5-MIN K12N 270435Z AUTO 00000KT 19/15 A3006 460 78 1100 000/00 RMK AO1 T01890150
54779K12N 12N20160526234009905/26/16 23:40:31  5-MIN K12N 270440Z AUTO 00000KT 19/14 A3006 450 72 1100 000/00 RMK AO1 T01940144
54779K12N 12N20160526234509905/26/16 23:45:31  5-MIN K12N 270445Z AUTO 00000KT 19/14 A3007 450 75 1100 000/00 RMK AO1 T01890144
54779K12N 12N20160526235011605/26/16 23:50:31  5-MIN K12N 270450Z AUTO 00000KT 19/15 A3007 450 78 1100 000/00 RMK AO1 SLP171 T01890150 403110128
54779K12N 12N20160526235509905/26/16 23:55:31  5-MIN K12N 270455Z AUTO 00000KT 19/15 A3007 450 78 1000 000/00 RMK AO1 T01890150
54779K12N 12N20160527000009905/27/16 00:00:31  5-MIN K12N 270500Z AUTO 00000KT 19/14 A3007 450 75 1000 000/00 RMK AO1 T01890144
54779K12N 12N20160527000509905/27/16 00:05:31  5-MIN K12N 270505Z AUTO 00000KT 19/14 A3007 450 75 1000 000/00 RMK AO1 T01890144
54779K12N 12N20160527001009905/27/16 00:10:31  5-MIN K12N 270510Z AUTO 00000KT 18/14 A3007 450 78 1000 000/00 RMK AO1 T01830144
54779K12N 12N20160527001509905/27/16 00:15:31  5-MIN K12N 270515Z AUTO 00000KT 19/14 A3007 450 75 1000 000/00 RMK AO1 T01890144
54779K12N 12N20160527002009905/27/16 00:20:31  5-MIN K12N 270520Z AUTO 00000KT 19/14 A3007 450 75 1000 000/00 RMK AO1 T01890144
54779K12N 12N20160527002509905/27/16 00:25:31  5-MIN K12N 270525Z AUTO 00000KT 19/15 A3007 450 78 1000 000/00 RMK AO1 T01890150
54779K12N 12N20160527003009905/27/16 00:30:31  5-MIN K12N 270530Z AUTO 00000KT 19/16 A3007 450 78 1100 000/00 RMK AO1 T01940156
54779K12N 12N20160527003509905/27/16 00:35:31  5-MIN K12N 270535Z AUTO 00000KT 19/16 A3007 440 78 1100 000/00 RMK AO1 T01940156
54779K12N 12N20160527004009905/27/16 00:40:31  5-MIN K12N 270540Z AUTO 00000KT 19/16 A3007 440 81 1100 000/00 RMK AO1 T01940161
54779K12N 12N20160527004509905/27/16 00:45:31  5-MIN K12N 270545Z AUTO 00000KT 19/16 A3007 450 78 1100 000/00 RMK AO1 T01940156
54779K12N 12N20160527005012405/27/16 00:50:31  5-MIN K12N 270550Z AUTO 00000KT 19/15 A3007 450 75 1100 000/00 RMK AO1 SLP172 T01940150 10244 20183 51012
54779K12N 12N20160527005509905/27/16 00:55:31  5-MIN K12N 270555Z AUTO 00000KT 19/16 A3007 450 78 1100 000/00 RMK AO1 T01940156
54779K12N 12N20160527010009905/27/16 01:00:31  5-MIN K12N 270600Z AUTO 00000KT 19/16 A3007 450 81 1100 000/00 RMK AO1 T01940161
54779K12N 12N20160527010509905/27/16 01:05:31  5-MIN K12N 270605Z AUTO 00000KT 19/16 A3006 450 78 1100 000/00 RMK AO1 T01940156
54779K12N 12N20160527011009905/27/16 01:10:31  5-MIN K12N 270610Z AUTO 00000KT 19/16 A3006 460 78 1100 000/00 RMK AO1 T01940156
54779K12N 12N20160527011509905/27/16 01:15:31  5-MIN K12N 270615Z AUTO 00000KT 19/16 A3006 460 81 1100 000/00 RMK AO1 T01940161
54779K12N 12N20160527012009905/27/16 01:20:31  5-MIN K12N 270620Z AUTO 00000KT 19/16 A3006 460 81 1100 000/00 RMK AO1 T01940161
54779K12N 12N20160527012509905/27/16 01:25:31  5-MIN K12N 270625Z AUTO 22003KT 19/16 A3006 460 81 1100 230/03 RMK AO1 T01940161
54779K12N 12N20160527013009905/27/16 01:30:31  5-MIN K12N 270630Z AUTO 00000KT 19/16 A3006 460 81 1100 000/00 RMK AO1 T01940161
54779K12N 12N20160527013509905/27/16 01:35:31  5-MIN K12N 270635Z AUTO 00000KT 19/16 A3006 460 81 1100 000/00 RMK AO1 T01940161
54779K12N 12N20160527014009905/27/16 01:40:31  5-MIN K12N 270640Z AUTO 00000KT 19/16 A3006 460 81 1100 000/00 RMK AO1 T01940161
54779K12N 12N20160527014509905/27/16 01:45:31  5-MIN K12N 270645Z AUTO 00000KT 19/16 A3006 450 81 1100 000/00 RMK AO1 T01890156
54779K12N 12N20160527015010605/27/16 01:50:31  5-MIN K12N 270650Z AUTO 00000KT 19/16 A3007 450 78 1100 000/00 RMK AO1 SLP173 T01940156
54779K12N 12N20160527015509905/27/16 01:55:31  5-MIN K12N 270655Z AUTO 00000KT 19/16 A3007 450 78 1100 000/00 RMK AO1 T01940156
54779K12N 12N20160527020009905/27/16 02:00:31  5-MIN K12N 270700Z AUTO 00000KT 19/16 A3007 450 81 1100 000/00 RMK AO1 T01940161
54779K12N 12N20160527020509905/27/16 02:05:31  5-MIN K12N 270705Z AUTO 00000KT 19/16 A3007 440 81 1000 000/00 RMK AO1 T01890156
54779K12N 12N20160527021009905/27/16 02:10:31  5-MIN K12N 270710Z AUTO 00000KT 19/16 A3007 440 81 1000 000/00 RMK AO1 T01890156
54779K12N 12N20160527021509905/27/16 02:15:31  5-MIN K12N 270715Z AUTO 00000KT 19/16 A3008 440 81 1000 000/00 RMK AO1 T01890156
54779K12N 12N20160527022009905/27/16 02:20:31  5-MIN K12N 270720Z AUTO 00000KT 19/16 A3008 440 81 1000 000/00 RMK AO1 T01890156
54779K12N 12N20160527022509905/27/16 02:25:31  5-MIN K12N 270725Z AUTO 00000KT 19/16 A3008 440 78 1100 000/00 RMK AO1 T01940156
54779K12N 12N20160527023009905/27/16 02:30:31  5-MIN K12N 270730Z AUTO 00000KT 19/16 A3008 440 78 1100 000/00 RMK AO1 T01940156
54779K12N 12N20160527023509905/27/16 02:35:31  5-MIN K12N 270735Z AUTO 19003KT 20/16 A3008 440 75 1200 200/03 RMK AO1 T02000156
54779K12N 12N20160527024009905/27/16 02:40:31  5-MIN K12N 270740Z AUTO 17003KT 21/15 A3008 440 68 1300 180/03 RMK AO1 T02110150
54779K12N 12N20160527024509905/27/16 02:45:31  5-MIN K12N 270745Z AUTO VRB03KT 21/14 A3008 440 65 1300 VRB/03 RMK AO1 T02110144
54779K12N 12N20160527025010605/27/16 02:50:31  5-MIN K12N 270750Z AUTO VRB04KT 22/15 A3008 440 65 1400 VRB/04 RMK AO1 SLP176 T02170150
54779K12N 12N20160527025509905/27/16 02:55:31  5-MIN K12N 270755Z AUTO VRB03KT 21/15 A3008 440 68 1300 VRB/03 RMK AO1 T02110150
54779K12N 12N20160527030009905/27/16 03:00:31  5-MIN K12N 270800Z AUTO 00000KT 21/15 A3008 440 68 1300 000/00 RMK AO1 T02110150
54779K12N 12N20160527030509905/27/16 03:05:31  5-MIN K12N 270805Z AUTO VRB03KT 21/16 A3008 440 70 1300 VRB/03 RMK AO1 T02110156
54779K12N 12N20160527031009905/27/16 03:10:31  5-MIN K12N 270810Z AUTO 00000KT 21/16 A3008 440 73 1200 000/00 RMK AO1 T02060156
54779K12N 12N20160527031510505/27/16 03:15:31  5-MIN K12N 270815Z AUTO 00000KT 20/16 A3008 440 78 1200 000/00 RMK AO1 P0001 T02000161
54779K12N 12N20160527032010505/27/16 03:20:31  5-MIN K12N 270820Z AUTO 19003KT 20/17 A3008 440 81 1200 200/03 RMK AO1 P0001 T02000167
54779K12N 12N20160527032510505/27/16 03:25:31  5-MIN K12N 270825Z AUTO 00000KT 20/17 A3008 440 81 1200 000/00 RMK AO1 P0001 T02000167
54779K12N 12N20160527033010505/27/16 03:30:31  5-MIN K12N 270830Z AUTO 00000KT 19/17 A3008 440 87 1100 000/00 RMK AO1 P0001 T01940172
54779K12N 12N20160527033510505/27/16 03:35:31  5-MIN K12N 270835Z AUTO 00000KT 19/17 A3008 440 87 1100 000/00 RMK AO1 P0001 T01940172
54779K12N 12N20160527034010505/27/16 03:40:31  5-MIN K12N 270840Z AUTO 18003KT 19/17 A3008 440 87 1100 190/03 RMK AO1 P0001 T01940172
54779K12N 12N20160527034510505/27/16 03:45:31  5-MIN K12N 270845Z AUTO 18003KT 19/18 A3008 440 90 1100 190/03 RMK AO1 P0001 T01940178
54779K12N 12N20160527035012405/27/16 03:50:31  5-MIN K12N 270850Z AUTO 00000KT 19/18 A3007 440 90 1100 000/00 RMK AO1 SLP174 P0001 60001 T01940178 53001
54779K12N 12N20160527035509905/27/16 03:55:31  5-MIN K12N 270855Z AUTO 00000KT 19/18 A3007 440 90 1100 000/00 RMK AO1 T01940178
54779K12N 12N20160527040009905/27/16 04:00:31  5-MIN K12N 270900Z AUTO 00000KT 19/18 A3007 450 90 1100 000/00 RMK AO1 T01940178
54779K12N 12N20160527040509905/27/16 04:05:31  5-MIN K12N 270905Z AUTO 00000KT 19/18 A3007 440 90 1100 000/00 RMK AO1 T01940178
54779K12N 12N20160527193509905/27/16 19:35:31  5-MIN K12N 280035Z AUTO 00000KT 24/21 A3003 490 78 1700 000/00 RMK AO1 T02440206
54779K12N 12N20160527194009905/27/16 19:40:31  5-MIN K12N 280040Z AUTO 00000KT 24/20 A3003 490 76 1700 000/00 RMK AO1 T02440200
54779K12N 12N20160527194509905/27/16 19:45:31  5-MIN K12N 280045Z AUTO 00000KT 24/20 A3003 480 76 1700 000/00 RMK AO1 T02440200
54779K12N 12N20160527195010605/27/16 19:50:31  5-MIN K12N 280050Z AUTO 00000KT 24/21 A3003 480 78 1700 000/00 RMK AO1 SLP163 T02440206
54779K12N 12N20160527195509905/27/16 19:55:31  5-MIN K12N 280055Z AUTO 00000KT 24/20 A3004 480 78 1700 000/00 RMK AO1 T02390200
54779K12N 12N20160527200009905/27/16 20:00:31  5-MIN K12N 280100Z AUTO 00000KT 24/21 A3004 470 81 1700 000/00 RMK AO1 T02390206
54779K12N 12N20160527200509905/27/16 20:05:31  5-MIN K12N 280105Z AUTO 00000KT 24/20 A3004 470 78 1700 000/00 RMK AO1 T02390200
54779K12N 12N20160527201009905/27/16 20:10:31  5-MIN K12N 280110Z AUTO 00000KT 24/20 A3005 470 78 1600 000/00 RMK AO1 T02390200
54779K12N 12N20160527201509905/27/16 20:15:31  5-MIN K12N 280115Z AUTO 00000KT 24/20 A3005 470 78 1600 000/00 RMK AO1 T02390200
54779K12N 12N20160527202009905/27/16 20:20:31  5-MIN K12N 280120Z AUTO 00000KT 24/20 A3005 470 78 1600 000/00 RMK AO1 T02390200
54779K12N 12N20160527202509905/27/16 20:25:31  5-MIN K12N 280125Z AUTO 21004KT 23/20 A3005 470 81 1600 220/04 RMK AO1 T02330200
54779K12N 12N20160527203009905/27/16 20:30:31  5-MIN K12N 280130Z AUTO 21003KT 24/19 A3005 460 73 1700 220/03 RMK AO1 T02440194
54779K12N 12N20160527203509905/27/16 20:35:31  5-MIN K12N 280135Z AUTO 21003KT 24/19 A3005 460 73 1700 220/03 RMK AO1 T02440194
54779K12N 12N20160527204009905/27/16 20:40:31  5-MIN K12N 280140Z AUTO 20003KT 24/20 A3005 460 78 1600 210/03 RMK AO1 T02390200
54779K12N 12N20160527204509905/27/16 20:45:31  5-MIN K12N 280145Z AUTO 21003KT 23/20 A3005 460 81 1600 220/03 RMK AO1 T02330200
54779K12N 12N20160527205010605/27/16 20:50:31  5-MIN K12N 280150Z AUTO 00000KT 24/19 A3006 460 76 1600 000/00 RMK AO1 SLP169 T02390194
54779K12N 12N20160527205509905/27/16 20:55:31  5-MIN K12N 280155Z AUTO 00000KT 23/20 A3006 460 81 1600 000/00 RMK AO1 T02330200
54779K12N 12N20160527210009905/27/16 21:00:31  5-MIN K12N 280200Z AUTO 00000KT 23/20 A3006 460 84 1500 000/00 RMK AO1 T02280200
54779K12N 12N20160527210509905/27/16 21:05:31  5-MIN K12N 280205Z AUTO 00000KT 23/20 A3006 460 84 1500 000/00 RMK AO1 T02280200
54779K12N 12N20160527211009905/27/16 21:10:31  5-MIN K12N 280210Z AUTO 00000KT 23/20 A3006 460 84 1500 000/00 RMK AO1 T02280200
54779K12N 12N20160527211509905/27/16 21:15:31  5-MIN K12N 280215Z AUTO 00000KT 23/20 A3006 460 84 1500 000/00 RMK AO1 T02280200
54779K12N 12N20160527212009905/27/16 21:20:31  5-MIN K12N 280220Z AUTO 00000KT 23/20 A3006 460 84 1500 000/00 RMK AO1 T02280200
54779K12N 12N20160527212509905/27/16 21:25:31  5-MIN K12N 280225Z AUTO 00000KT 23/20 A3006 460 84 1500 000/00 RMK AO1 T02280200
54779K12N 12N20160527213009905/27/16 21:30:31  5-MIN K12N 280230Z AUTO 00000KT 23/20 A3006 460 84 1500 000/00 RMK AO1 T02280200
54779K12N 12N20160527213509905/27/16 21:35:31  5-MIN K12N 280235Z AUTO 00000KT 22/20 A3006 450 87 1400 000/00 RMK AO1 T02220200
54779K12N 12N20160527214009905/27/16 21:40:31  5-MIN K12N 280240Z AUTO 18003KT 22/20 A3006 460 87 1400 200/03 RMK AO1 T02220200
54779K12N 12N20160527214509905/27/16 21:45:31  5-MIN K12N 280245Z AUTO 19003KT 23/19 A3006 460 78 1600 200/03 RMK AO1 T02330194
54779K12N 12N20160527215011205/27/16 21:50:31  5-MIN K12N 280250Z AUTO 18003KT 23/19 A3006 460 78 1600 200/03 RMK AO1 SLP169 T02330194 53001
54779K12N 12N20160527215509905/27/16 21:55:31  5-MIN K12N 280255Z AUTO 00000KT 23/19 A3006 460 81 1500 000/00 RMK AO1 T02280194
54779K12N 12N20160527220009905/27/16 22:00:31  5-MIN K12N 280300Z AUTO 00000KT 23/19 A3006 460 81 1500 000/00 RMK AO1 T02280194
54779K12N 12N20160527220509905/27/16 22:05:31  5-MIN K12N 280305Z AUTO 00000KT 23/20 A3006 450 84 1500 000/00 RMK AO1 T02280200
54779K12N 12N20160527221009905/27/16 22:10:31  5-MIN K12N 280310Z AUTO 00000KT 23/19 A3006 450 81 1500 000/00 RMK AO1 T02280194
54779K12N 12N20160527221509905/27/16 22:15:31  5-MIN K12N 280315Z AUTO 00000KT 23/19 A3006 450 78 1500 000/00 RMK AO1 T02280189
54779K12N 12N20160527222009905/27/16 22:20:31  5-MIN K12N 280320Z AUTO 00000KT 22/19 A3006 460 84 1400 000/00 RMK AO1 T02220194
54779K12N 12N20160527222509905/27/16 22:25:31  5-MIN K12N 280325Z AUTO 00000KT 22/19 A3006 450 84 1400 000/00 RMK AO1 T02220194
54779K12N 12N20160527223009905/27/16 22:30:31  5-MIN K12N 280330Z AUTO 00000KT 22/19 A3006 450 84 1400 000/00 RMK AO1 T02220194
54779K12N 12N20160527223509905/27/16 22:35:31  5-MIN K12N 280335Z AUTO 00000KT 22/19 A3007 450 84 1400 000/00 RMK AO1 T02220194
54779K12N 12N20160527224009905/27/16 22:40:31  5-MIN K12N 280340Z AUTO 00000KT 22/19 A3007 450 84 1400 000/00 RMK AO1 T02220194
54779K12N 12N20160527224509905/27/16 22:45:31  5-MIN K12N 280345Z AUTO 00000KT 22/19 A3007 450 84 1400 000/00 RMK AO1 T02220194
54779K12N 12N20160527225010605/27/16 22:50:31  5-MIN K12N 280350Z AUTO 00000KT 22/20 A3007 450 87 1400 000/00 RMK AO1 SLP171 T02220200
54779K12N 12N20160527225509905/27/16 22:55:31  5-MIN K12N 280355Z AUTO 00000KT 22/20 A3007 450 90 1400 000/00 RMK AO1 T02170200
54779K12N 12N20160527230009905/27/16 23:00:31  5-MIN K12N 280400Z AUTO 00000KT 23/19 A3007 450 81 1500 000/00 RMK AO1 T02280194
54779K12N 12N20160527230509905/27/16 23:05:31  5-MIN K12N 280405Z AUTO 20003KT 23/19 A3007 450 78 1600 210/03 RMK AO1 T02330194
54779K12N 12N20160527231009905/27/16 23:10:31  5-MIN K12N 280410Z AUTO 20003KT 23/19 A3007 450 81 1500 210/03 RMK AO1 T02280194
54779K12N 12N20160527231509905/27/16 23:15:31  5-MIN K12N 280415Z AUTO VRB03KT 24/19 A3007 440 73 1600 VRB/03 RMK AO1 T02390189
54779K12N 12N20160527232009905/27/16 23:20:31  5-MIN K12N 280420Z AUTO 20003KT 23/19 A3007 440 78 1600 210/03 RMK AO1 T02330194
54779K12N 12N20160527232509905/27/16 23:25:31  5-MIN K12N 280425Z AUTO 20003KT 24/19 A3008 440 76 1600 210/03 RMK AO1 T02390194
54779K12N 12N20160527233009905/27/16 23:30:31  5-MIN K12N 280430Z AUTO VRB03KT 24/19 A3008 440 76 1600 VRB/03 RMK AO1 T02390194
54779K12N 12N20160527233509905/27/16 23:35:31  5-MIN K12N 280435Z AUTO VRB03KT 24/19 A3008 440 76 1600 VRB/03 RMK AO1 T02390194
54779K12N 12N20160527234009905/27/16 23:40:31  5-MIN K12N 280440Z AUTO 00000KT 24/19 A3008 440 76 1600 000/00 RMK AO1 T02390194
54779K12N 12N20160527234509905/27/16 23:45:31  5-MIN K12N 280445Z AUTO 19003KT 24/19 A3008 440 76 1600 210/03 RMK AO1 T02390194
54779K12N 12N20160527235011605/27/16 23:50:31  5-MIN K12N 280450Z AUTO 00000KT 24/19 A3008 440 76 1600 000/00 RMK AO1 SLP175 T02390194 403060183
54779K12N 12N20160527235509905/27/16 23:55:31  5-MIN K12N 280455Z AUTO 00000KT 23/19 A3008 440 78 1500 000/00 RMK AO1 T02330194
54779K12N 12N20160528000009905/28/16 00:00:31  5-MIN K12N 280500Z AUTO VRB03KT 23/19 A3008 440 78 1500 VRB/03 RMK AO1 T02330194
54779K12N 12N20160528000509905/28/16 00:05:31  5-MIN K12N 280505Z AUTO 00000KT 23/19 A3008 440 78 1500 000/00 RMK AO1 T02330194
54779K12N 12N20160528001009905/28/16 00:10:31  5-MIN K12N 280510Z AUTO 00000KT 24/19 A3008 440 76 1600 000/00 RMK AO1 T02390194
54779K12N 12N20160528001509905/28/16 00:15:31  5-MIN K12N 280515Z AUTO 00000KT 23/19 A3008 430 78 1500 000/00 RMK AO1 T02330194
54779K12N 12N20160528002009905/28/16 00:20:31  5-MIN K12N 280520Z AUTO 00000KT 23/19 A3008 440 78 1500 000/00 RMK AO1 T02330194
54779K12N 12N20160528002509905/28/16 00:25:31  5-MIN K12N 280525Z AUTO 00000KT 23/19 A3008 440 81 1500 000/00 RMK AO1 T02280194
54779K12N 12N20160528003009905/28/16 00:30:31  5-MIN K12N 280530Z AUTO VRB03KT 23/19 A3008 440 78 1500 VRB/03 RMK AO1 T02330194
54779K12N 12N20160528003509905/28/16 00:35:31  5-MIN K12N 280535Z AUTO 00000KT 23/19 A3008 440 78 1500 000/00 RMK AO1 T02330194
54779K12N 12N20160528004009905/28/16 00:40:31  5-MIN K12N 280540Z AUTO 20003KT 23/19 A3008 430 78 1500 210/03 RMK AO1 T02330194
54779K12N 12N20160528004509905/28/16 00:45:31  5-MIN K12N 280545Z AUTO 20003KT 23/19 A3008 430 78 1500 210/03 RMK AO1 T02330194
54779K12N 12N20160528005011805/28/16 00:50:31  5-MIN K12N 280550Z AUTO 19003KT 23/19 A3009 430 78 1500 210/03 RMK AO1 SLP177 T02330194 10261 20217
54779K12N 12N20160528005509905/28/16 00:55:31  5-MIN K12N 280555Z AUTO 00000KT 23/19 A3009 430 81 1500 000/00 RMK AO1 T02280194
54779K12N 12N20160528010009905/28/16 01:00:31  5-MIN K12N 280600Z AUTO 19003KT 23/19 A3009 430 81 1500 210/03 RMK AO1 T02280194
54779K12N 12N20160528010509905/28/16 01:05:31  5-MIN K12N 280605Z AUTO 00000KT 23/19 A3009 430 81 1500 000/00 RMK AO1 T02280194
54779K12N 12N20160528011009905/28/16 01:10:31  5-MIN K12N 280610Z AUTO 19003KT 23/19 A3009 430 81 1500 210/03 RMK AO1 T02280194
54779K12N 12N20160528011509905/28/16 01:15:31  5-MIN K12N 280615Z AUTO 20003KT 23/19 A3009 430 81 1500 220/03 RMK AO1 T02280194
54779K12N 12N20160528012009905/28/16 01:20:31  5-MIN K12N 280620Z AUTO 00000KT 23/19 A3009 430 81 1500 000/00 RMK AO1 T02280194
54779K12N 12N20160528012509905/28/16 01:25:31  5-MIN K12N 280625Z AUTO 20003KT 23/19 A3009 430 81 1500 210/03 RMK AO1 T02280194
54779K12N 12N20160528013009905/28/16 01:30:31  5-MIN K12N 280630Z AUTO 19003KT 23/19 A3009 430 81 1500 210/03 RMK AO1 T02280194
54779K12N 12N20160528013509905/28/16 01:35:31  5-MIN K12N 280635Z AUTO 19003KT 23/19 A3009 430 81 1500 200/03 RMK AO1 T02280194
54779K12N 12N20160528014009905/28/16 01:40:31  5-MIN K12N 280640Z AUTO 00000KT 23/19 A3009 430 81 1500 000/00 RMK AO1 T02280194
54779K12N 12N20160528014509905/28/16 01:45:31  5-MIN K12N 280645Z AUTO 00000KT 22/19 A3009 430 84 1400 000/00 RMK AO1 T02220194
54779K12N 12N20160528015010605/28/16 01:50:31  5-MIN K12N 280650Z AUTO 00000KT 22/19 A3009 430 84 1400 000/00 RMK AO1 SLP179 T02220194
54779K12N 12N20160528015509905/28/16 01:55:31  5-MIN K12N 280655Z AUTO 00000KT 22/19 A3009 430 84 1400 000/00 RMK AO1 T02220194
54779K12N 12N20160528020009905/28/16 02:00:31  5-MIN K12N 280700Z AUTO 00000KT 22/19 A3009 430 87 1300 000/00 RMK AO1 T02170194
54779K12N 12N20160528020509905/28/16 02:05:31  5-MIN K12N 280705Z AUTO 00000KT 22/19 A3009 430 84 1400 000/00 RMK AO1 T02220194
54779K12N 12N20160528021009905/28/16 02:10:31  5-MIN K12N 280710Z AUTO 00000KT 22/19 A3009 430 84 1400 000/00 RMK AO1 T02220194
54779K12N 12N20160528021509905/28/16 02:15:31  5-MIN K12N 280715Z AUTO 00000KT 22/19 A3009 430 87 1300 000/00 RMK AO1 T02170194
54779K12N 12N20160528022009905/28/16 02:20:31  5-MIN K12N 280720Z AUTO 00000KT 22/19 A3009 430 87 1300 000/00 RMK AO1 T02170194
54779K12N 12N20160528022509905/28/16 02:25:31  5-MIN K12N 280725Z AUTO 00000KT 22/19 A3009 430 87 1300 000/00 RMK AO1 T02170194
54779K12N 12N20160528023009905/28/16 02:30:31  5-MIN K12N 280730Z AUTO 00000KT 22/19 A3009 430 87 1300 000/00 RMK AO1 T02170194
54779K12N 12N20160528023509905/28/16 02:35:31  5-MIN K12N 280735Z AUTO 00000KT 21/19 A3009 430 90 1300 000/00 RMK AO1 T02110194
54779K12N 12N20160528024009905/28/16 02:40:31  5-MIN K12N 280740Z AUTO 00000KT 22/19 A3009 430 87 1300 000/00 RMK AO1 T02170194
54779K12N 12N20160528024509905/28/16 02:45:31  5-MIN K12N 280745Z AUTO 00000KT 21/19 A3009 430 90 1300 000/00 RMK AO1 T02110194
54779K12N 12N20160528025010605/28/16 02:50:31  5-MIN K12N 280750Z AUTO 00000KT 21/19 A3009 430 90 1300 000/00 RMK AO1 SLP180 T02110194
54779K12N 12N20160528025509905/28/16 02:55:31  5-MIN K12N 280755Z AUTO 00000KT 21/19 A3009 430 90 1300 000/00 RMK AO1 T02110194
54779K12N 12N20160528030009905/28/16 03:00:31  5-MIN K12N 280800Z AUTO 00000KT 21/19 A3009 430 90 1300 000/00 RMK AO1 T02110194
54779K12N 12N20160528030509905/28/16 03:05:31  5-MIN K12N 280805Z AUTO 20003KT 21/19 A3009 430 90 1300 210/03 RMK AO1 T02110194
54779K12N 12N20160528031009905/28/16 03:10:31  5-MIN K12N 280810Z AUTO 20003KT 21/19 A3009 430 90 1300 210/03 RMK AO1 T02110194
54779K12N 12N20160528031509905/28/16 03:15:31  5-MIN K12N 280815Z AUTO 19003KT 21/19 A3009 430 90 1300 200/03 RMK AO1 T02110194
54779K12N 12N20160528032009905/28/16 03:20:31  5-MIN K12N 280820Z AUTO 00000KT 21/19 A3009 430 90 1300 000/00 RMK AO1 T02110194
54779K12N 12N20160528032509905/28/16 03:25:31  5-MIN K12N 280825Z AUTO 00000KT 21/19 A3009 430 90 1300 000/00 RMK AO1 T02110194
54779K12N 12N20160528033009905/28/16 03:30:31  5-MIN K12N 280830Z AUTO 00000KT 21/19 A3009 420 93 1200 000/00 RMK AO1 T02060194
54779K12N 12N20160528033509905/28/16 03:35:31  5-MIN K12N 280835Z AUTO 00000KT 21/19 A3010 420 90 1200 000/00 RMK AO1 T02060189
54779K12N 12N20160528034009905/28/16 03:40:31  5-MIN K12N 280840Z AUTO 19003KT 21/19 A3010 420 90 1200 200/03 RMK AO1 T02060189
54779K12N 12N20160528034509905/28/16 03:45:31  5-MIN K12N 280845Z AUTO 21003KT 21/19 A3010 420 93 1200 220/03 RMK AO1 T02060194
54779K12N 12N20160528035010605/28/16 03:50:31  5-MIN K12N 280850Z AUTO 00000KT 21/19 A3010 420 93 1200 000/00 RMK AO1 SLP182 T02060194
54779K12N 12N20160528035509905/28/16 03:55:31  5-MIN K12N 280855Z AUTO 00000KT 21/19 A3010 420 90 1200 000/00 RMK AO1 T02060189
54779K12N 12N20160528040009905/28/16 04:00:31  5-MIN K12N 280900Z AUTO 00000KT 21/19 A3010 420 93 1200 000/00 RMK AO1 T02060194
54779K12N 12N20160528040509905/28/16 04:05:31  5-MIN K12N 280905Z AUTO 20003KT 21/19 A3010 420 90 1200 210/03 RMK AO1 T02060189
54779K12N 12N20160528041009905/28/16 04:10:31  5-MIN K12N 280910Z AUTO 00000KT 21/19 A3011 410 90 1200 000/00 RMK AO1 T02060189
54779K12N 12N20160528041509905/28/16 04:15:31  5-MIN K12N 280915Z AUTO 00000KT 20/19 A3011 410 93 1100 000/00 RMK AO1 T02000189
54779K12N 12N20160528042009905/28/16 04:20:31  5-MIN K12N 280920Z AUTO 00000KT 21/19 A3011 410 90 1200 000/00 RMK AO1 T02060189
54779K12N 12N20160528042509905/28/16 04:25:31  5-MIN K12N 280925Z AUTO 00000KT 20/19 A3011 410 93 1100 000/00 RMK AO1 T02000189
54779K12N 12N20160528043009905/28/16 04:30:31  5-MIN K12N 280930Z AUTO 00000KT 20/19 A3011 410 93 1100 000/00 RMK AO1 T02000189
54779K12N 12N20160528043509905/28/16 04:35:31  5-MIN K12N 280935Z AUTO 00000KT 20/19 A3011 410 93 1100 000/00 RMK AO1 T02000189
54779K12N 12N20160528044009905/28/16 04:40:31  5-MIN K12N 280940Z AUTO 00000KT 20/19 A3012 410 93 1100 000/00 RMK AO1 T02000189
54779K12N 12N20160528044509905/28/16 04:45:31  5-MIN K12N 280945Z AUTO 00000KT 20/19 A3012 400 93 1100 000/00 RMK AO1 T02000189
54779K12N 12N20160528045010605/28/16 04:50:31  5-MIN K12N 280950Z AUTO 00000KT 20/19 A3012 400 93 1100 000/00 RMK AO1 SLP190 T02000189
54779K12N 12N20160528045509905/28/16 04:55:31  5-MIN K12N 280955Z AUTO 00000KT 20/19 A3012 400 93 1100 000/00 RMK AO1 T02000189
54779K12N 12N20160528050009905/28/16 05:00:31  5-MIN K12N 281000Z AUTO 00000KT 20/19 A3012 400 93 1100 000/00 RMK AO1 T02000189
54779K12N 12N20160528050509905/28/16 05:05:31  5-MIN K12N 281005Z AUTO 00000KT 20/19 A3012 400 93 1100 000/00 RMK AO1 T02000189
54779K12N 12N20160528051009905/28/16 05:10:31  5-MIN K12N 281010Z AUTO 00000KT 20/19 A3012 400 93 1100 000/00 RMK AO1 T02000189
54779K12N 12N20160528051509905/28/16 05:15:31  5-MIN K12N 281015Z AUTO 18003KT 20/19 A3013 400 93 1100 190/03 RMK AO1 T02000189
54779K12N 12N20160528052009905/28/16 05:20:31  5-MIN K12N 281020Z AUTO 00000KT 20/19 A3013 400 93 1100 000/00 RMK AO1 T02000189
54779K12N 12N20160528052509905/28/16 05:25:31  5-MIN K12N 281025Z AUTO 00000KT 20/19 A3013 400 93 1100 000/00 RMK AO1 T02000189
54779K12N 12N20160528053009905/28/16 05:30:31  5-MIN K12N 281030Z AUTO 00000KT 20/19 A3013 390 93 1100 000/00 RMK AO1 T02000189
54779K12N 12N20160528053509905/28/16 05:35:31  5-MIN K12N 281035Z AUTO 00000KT 21/19 A3013 390 90 1200 000/00 RMK AO1 T02060189
54779K12N 12N20160528054009905/28/16 05:40:31  5-MIN K12N 281040Z AUTO VRB03KT 21/19 A3013 390 90 1200 VRB/03 RMK AO1 T02060189
54779K12N 12N20160528054509905/28/16 05:45:31  5-MIN K12N 281045Z AUTO 00000KT 21/19 A3013 390 90 1200 000/00 RMK AO1 T02060189
54779K12N 12N20160528055010605/28/16 05:50:31  5-MIN K12N 281050Z AUTO 00000KT 21/19 A3013 390 87 1200 000/00 RMK AO1 SLP194 T02110189
54779K12N 12N20160528055509905/28/16 05:55:31  5-MIN K12N 281055Z AUTO 00000KT 21/19 A3013 390 90 1200 000/00 RMK AO1 T02110194
54779K12N 12N20160528060009905/28/16 06:00:31  5-MIN K12N 281100Z AUTO 00000KT 21/19 A3013 390 87 1200 000/00 RMK AO1 T02110189
54779K12N 12N20160528060509905/28/16 06:05:31  5-MIN K12N 281105Z AUTO 00000KT 22/19 A3013 390 84 1300 000/00 RMK AO1 T02170189
54779K12N 12N20160528061009905/28/16 06:10:31  5-MIN K12N 281110Z AUTO 22003KT 22/19 A3013 390 84 1300 230/03 RMK AO1 T02170189
54779K12N 12N20160528061509905/28/16 06:15:31  5-MIN K12N 281115Z AUTO 23003KT 22/19 A3013 390 84 1300 240/03 RMK AO1 T02170189
54779K12N 12N20160528062009905/28/16 06:20:31  5-MIN K12N 281120Z AUTO VRB03KT 22/19 A3013 390 84 1300 VRB/03 RMK AO1 T02170189
54779K12N 12N20160528062509905/28/16 06:25:31  5-MIN K12N 281125Z AUTO VRB03KT 22/19 A3013 390 84 1300 VRB/03 RMK AO1 T02170189
54779K12N 12N20160528063009905/28/16 06:30:31  5-MIN K12N 281130Z AUTO 22004KT 22/19 A3013 390 81 1400 230/04 RMK AO1 T02220189
54779K12N 12N20160528063509905/28/16 06:35:31  5-MIN K12N 281135Z AUTO VRB05KT 23/19 A3013 390 78 1400 VRB/05 RMK AO1 T02280189
54779K12N 12N20160528064009905/28/16 06:40:31  5-MIN K12N 281140Z AUTO 21005KT 22/19 A3013 390 81 1400 220/05 RMK AO1 T02220189
54779K12N 12N20160528064509905/28/16 06:45:31  5-MIN K12N 281145Z AUTO 20005KT 22/19 A3013 390 81 1400 210/05 RMK AO1 T02220189
54779K12N 12N20160528065012405/28/16 06:50:31  5-MIN K12N 281150Z AUTO 21005KT 23/19 A3013 390 78 1400 220/05 RMK AO1 SLP195 T02280189 10228 20200 53004
54779K12N 12N20160528065509905/28/16 06:55:31  5-MIN K12N 281155Z AUTO 21004KT 23/19 A3013 390 78 1400 220/04 RMK AO1 T02280189
54779K12N 12N20160528070009905/28/16 07:00:31  5-MIN K12N 281200Z AUTO VRB04KT 23/19 A3013 390 78 1400 VRB/04 RMK AO1 T02280189
54779K12N 12N20160528070509905/28/16 07:05:31  5-MIN K12N 281205Z AUTO 21005KT 23/19 A3013 390 76 1500 220/05 RMK AO1 T02330189
54779K12N 12N20160528071009905/28/16 07:10:31  5-MIN K12N 281210Z AUTO VRB04KT 23/19 A3014 390 76 1500 VRB/04 RMK AO1 T02330189
54779K12N 12N20160528071509905/28/16 07:15:31  5-MIN K12N 281215Z AUTO VRB04KT 23/19 A3014 390 76 1500 VRB/04 RMK AO1 T02330189
54779K12N 12N20160528072009905/28/16 07:20:31  5-MIN K12N 281220Z AUTO 22004KT 24/19 A3014 390 73 1500 240/04 RMK AO1 T02390189
54779K12N 12N20160528072509905/28/16 07:25:31  5-MIN K12N 281225Z AUTO 00000KT 24/19 A3014 390 73 1500 000/00 RMK AO1 T02390189
54779K12N 12N20160528073009905/28/16 07:30:31  5-MIN K12N 281230Z AUTO 17003KT 24/19 A3014 380 73 1500 180/03 RMK AO1 T02390189
54779K12N 12N20160528073509905/28/16 07:35:31  5-MIN K12N 281235Z AUTO VRB03KT 24/19 A3014 380 73 1500 VRB/03 RMK AO1 T02390189
54779K12N 12N20160528074009905/28/16 07:40:31  5-MIN K12N 281240Z AUTO VRB03KT 24/19 A3014 380 76 1500 VRB/03 RMK AO1 T02390194
54779K12N 12N20160528074509905/28/16 07:45:31  5-MIN K12N 281245Z AUTO VRB04KT 24/19 A3014 380 73 1600 VRB/04 RMK AO1 T02440194
54779K12N 12N20160528075010605/28/16 07:50:31  5-MIN K12N 281250Z AUTO VRB03KT 24/19 A3014 380 73 1600 VRB/03 RMK AO1 SLP198 T02440194
54779K12N 12N20160528075509905/28/16 07:55:31  5-MIN K12N 281255Z AUTO 00000KT 24/19 A3014 380 73 1600 000/00 RMK AO1 T02440194
54779K12N 12N20160528080009905/28/16 08:00:31  5-MIN K12N 281300Z AUTO 21006KT 24/19 A3014 380 73 1600 220/06 RMK AO1 T02440194
54779K12N 12N20160528080509905/28/16 08:05:31  5-MIN K12N 281305Z AUTO VRB04KT 25/19 A3014 380 71 1700 VRB/04 RMK AO1 T02500194
54779K12N 12N20160528081009905/28/16 08:10:31  5-MIN K12N 281310Z AUTO 21003KT 25/19 A3014 380 71 1700 220/03 RMK AO1 T02500194
54779K12N 12N20160528081509905/28/16 08:15:31  5-MIN K12N 281315Z AUTO 22005KT 25/19 A3014 380 71 1700 240/05 RMK AO1 T02500194
54779K12N 12N20160528082009905/28/16 08:20:31  5-MIN K12N 281320Z AUTO 21004KT 25/19 A3014 380 71 1700 220/04 RMK AO1 T02500194
54779K12N 12N20160528082509905/28/16 08:25:31  5-MIN K12N 281325Z AUTO VRB03KT 26/20 A3014 380 71 1700 VRB/03 RMK AO1 T02560200
54779K12N 12N20160528083009905/28/16 08:30:31  5-MIN K12N 281330Z AUTO VRB05KT 26/19 A3014 380 68 1700 VRB/05 RMK AO1 T02560194
54779K12N 12N20160528083509905/28/16 08:35:31  5-MIN K12N 281335Z AUTO VRB04KT 26/19 A3014 380 66 1800 VRB/04 RMK AO1 T02610194
54779K12N 12N20160528084009905/28/16 08:40:31  5-MIN K12N 281340Z AUTO 21004KT 26/19 A3014 380 66 1800 220/04 RMK AO1 T02610194
54779K12N 12N20160528084509905/28/16 08:45:31  5-MIN K12N 281345Z AUTO 20006KT 26/19 A3014 380 66 1800 210/06 RMK AO1 T02610194
54779K12N 12N20160528085010605/28/16 08:50:31  5-MIN K12N 281350Z AUTO 21005KT 26/19 A3014 380 66 1800 230/05 RMK AO1 SLP197 T02610194
54779K12N 12N20160528085509905/28/16 08:55:31  5-MIN K12N 281355Z AUTO 24004KT 27/19 A3014 380 64 1900 250/04 RMK AO1 T02670194
54779K12N 12N20160528090009905/28/16 09:00:31  5-MIN K12N 281400Z AUTO VRB05KT 26/19 A3014 380 66 1800 VRB/05 RMK AO1 T02610194
54779K12N 12N20160528090509905/28/16 09:05:31  5-MIN K12N 281405Z AUTO VRB04KT 27/19 A3014 380 64 1900 VRB/04 RMK AO1 T02670194
54779K12N 12N20160528091009905/28/16 09:10:31  5-MIN K12N 281410Z AUTO 21005KT 27/19 A3014 380 64 1900 220/05 RMK AO1 T02670194
54779K12N 12N20160528091509905/28/16 09:15:31  5-MIN K12N 281415Z AUTO VRB03KT 27/19 A3014 380 64 1900 VRB/03 RMK AO1 T02670194
54779K12N 12N20160528092009905/28/16 09:20:31  5-MIN K12N 281420Z AUTO VRB04KT 27/19 A3014 380 62 1900 VRB/04 RMK AO1 T02720194
54779K12N 12N20160528092509905/28/16 09:25:31  5-MIN K12N 281425Z AUTO 20007KT 27/20 A3014 380 64 1900 220/07 RMK AO1 T02720200
54779K12N 12N20160528093009905/28/16 09:30:31  5-MIN K12N 281430Z AUTO 25003KT 27/20 A3014 380 64 1900 260/03 RMK AO1 T02720200
54779K12N 12N20160528093509905/28/16 09:35:31  5-MIN K12N 281435Z AUTO 21005KT 28/20 A3014 380 62 2000 230/05 RMK AO1 T02780200
54779K12N 12N20160528094009905/28/16 09:40:31  5-MIN K12N 281440Z AUTO 21006KT 27/20 A3014 380 64 1900 230/06 RMK AO1 T02720200
54779K12N 12N20160528094509905/28/16 09:45:31  5-MIN K12N 281445Z AUTO VRB06KT 28/19 A3014 380 60 2000 VRB/06 RMK AO1 T02780194
54779K12N 12N20160528095011205/28/16 09:50:31  5-MIN K12N 281450Z AUTO 22005KT 28/19 A3014 380 60 2000 230/05 RMK AO1 SLP198 T02780194 51012
54779K12N 12N20160528095509905/28/16 09:55:31  5-MIN K12N 281455Z AUTO 18004KT 28/19 A3014 380 60 2000 190/04 RMK AO1 T02780194
54779K12N 12N20160528100009905/28/16 10:00:31  5-MIN K12N 281500Z AUTO 24006KT 28/19 A3014 380 58 2000 260/06 RMK AO1 T02830194
54779K12N 12N20160528100509905/28/16 10:05:31  5-MIN K12N 281505Z AUTO VRB04KT 28/19 A3014 380 58 2000 VRB/04 RMK AO1 T02830194
54779K12N 12N20160528101009905/28/16 10:10:31  5-MIN K12N 281510Z AUTO VRB03KT 28/20 A3014 380 60 2000 VRB/03 RMK AO1 T02830200
54779K12N 12N20160528101509905/28/16 10:15:31  5-MIN K12N 281515Z AUTO 22006KT 29/20 A3014 380 58 2100 230/06 RMK AO1 T02890200
54779K12N 12N20160528102009905/28/16 10:20:31  5-MIN K12N 281520Z AUTO VRB03KT 29/20 A3014 380 58 2100 VRB/03 RMK AO1 T02890200
54779K12N 12N20160528102508905/28/16 10:25:31  5-MIN K12N 281525Z AUTO 29/20 A3014 380 58 2100 M /M RMK AO1 T02890200
54779K12N 12N20160528103009905/28/16 10:30:31  5-MIN K12N 281530Z AUTO 21005KT 29/20 A3014 380 58 2100 220/05 RMK AO1 T02890200
54779K12N 12N20160528103508905/28/16 10:35:31  5-MIN K12N 281535Z AUTO 29/20 A3014 380 58 2100 M /M RMK AO1 T02890200
54779K12N 12N20160528104009905/28/16 10:40:31  5-MIN K12N 281540Z AUTO 21005KT 29/20 A3014 380 58 2100 220/05 RMK AO1 T02890200
54779K12N 12N20160528104509905/28/16 10:45:31  5-MIN K12N 281545Z AUTO VRB05KT 29/19 A3014 380 54 2200 VRB/05 RMK AO1 T02940194
54779K12N 12N20160528105010605/28/16 10:50:31  5-MIN K12N 281550Z AUTO VRB03KT 30/19 A3013 390 52 2200 VRB/03 RMK AO1 SLP195 T03000194
54779K12N 12N20160528105509905/28/16 10:55:31  5-MIN K12N 281555Z AUTO 21005KT 30/19 A3013 390 52 2200 220/05 RMK AO1 T03000194
54779K12N 12N20160528110009905/28/16 11:00:31  5-MIN K12N 281600Z AUTO 00000KT 30/19 A3013 390 51 2200 000/00 RMK AO1 T03000189
54779K12N 12N20160528110509905/28/16 11:05:31  5-MIN K12N 281605Z AUTO 24004KT 30/19 A3013 390 52 2200 260/04 RMK AO1 T03000194
54779K12N 12N20160528111009905/28/16 11:10:31  5-MIN K12N 281610Z AUTO VRB04KT 31/19 A3013 390 51 2300 VRB/04 RMK AO1 T03060194
54779K12N 12N20160528111509905/28/16 11:15:31  5-MIN K12N 281615Z AUTO 00000KT 31/19 A3013 390 49 2300 000/00 RMK AO1 T03060189
54779K12N 12N20160528112009905/28/16 11:20:31  5-MIN K12N 281620Z AUTO VRB03KT 31/19 A3013 400 49 2300 VRB/03 RMK AO1 T03060189
54779K12N 12N20160528112509905/28/16 11:25:31  5-MIN K12N 281625Z AUTO VRB03KT 31/19 A3012 400 49 2400 VRB/03 RMK AO1 T03110194
54779K12N 12N20160528113009905/28/16 11:30:31  5-MIN K12N 281630Z AUTO 00000KT 31/19 A3012 400 49 2400 000/00 RMK AO1 T03110194
54779K12N 12N20160528113509905/28/16 11:35:31  5-MIN K12N 281635Z AUTO VRB05KT 31/19 A3012 400 47 2400 VRB/05 RMK AO1 T03110189
54779K12N 12N20160528114009905/28/16 11:40:31  5-MIN K12N 281640Z AUTO 00000KT 32/19 A3012 400 46 2400 000/00 RMK AO1 T03170189
54779K12N 12N20160528114508905/28/16 11:45:31  5-MIN K12N 281645Z AUTO 32/18 A3012 400 44 2400 M /M RMK AO1 T03170183
54779K12N 12N20160528115010605/28/16 11:50:31  5-MIN K12N 281650Z AUTO VRB03KT 31/18 A3012 400 46 2300 VRB/03 RMK AO1 SLP188 T03060178
54779K12N 12N20160528115508905/28/16 11:55:31  5-MIN K12N 281655Z AUTO 31/19 A3012 410 47 2400 M /M RMK AO1 T03110189
54779K12N 12N20160528120009905/28/16 12:00:31  5-MIN K12N 281700Z AUTO 23004KT 31/18 A3011 410 44 2400 240/04 RMK AO1 T03110178
54779K12N 12N20160528120509905/28/16 12:05:31  5-MIN K12N 281705Z AUTO VRB06KT 32/18 A3011 410 44 2400 VRB/06 RMK AO1 T03170183
54779K12N 12N20160528121009905/28/16 12:10:31  5-MIN K12N 281710Z AUTO VRB04KT 32/18 A3011 410 44 2400 VRB/04 RMK AO1 T03170183
54779K12N 12N20160528121509905/28/16 12:15:31  5-MIN K12N 281715Z AUTO 20004KT 32/18 A3011 410 43 2500 210/04 RMK AO1 T03220183
54779K12N 12N20160528122009905/28/16 12:20:31  5-MIN K12N 281720Z AUTO 25006KT 32/18 A3011 410 44 2400 260/06 RMK AO1 T03170183
54779K12N 12N20160528122509905/28/16 12:25:31  5-MIN K12N 281725Z AUTO VRB04KT 32/19 A3011 410 46 2400 VRB/04 RMK AO1 T03170189
54779K12N 12N20160528123009905/28/16 12:30:31  5-MIN K12N 281730Z AUTO 22005KT 31/18 A3011 410 47 2300 230/05 RMK AO1 T03060183
54779K12N 12N20160528123509905/28/16 12:35:31  5-MIN K12N 281735Z AUTO 22007KT 32/18 A3011 410 44 2400 240/07 RMK AO1 T03170183
54779K12N 12N20160528124009905/28/16 12:40:31  5-MIN K12N 281740Z AUTO 22004KT 32/18 A3011 410 44 2400 230/04 RMK AO1 T03170183
54779K12N 12N20160528124509905/28/16 12:45:31  5-MIN K12N 281745Z AUTO 24004KT 32/18 A3011 410 44 2400 250/04 RMK AO1 T03170183
54779K12N 12N20160528125012405/28/16 12:50:31  5-MIN K12N 281750Z AUTO 22006KT 32/18 A3011 410 43 2500 230/06 RMK AO1 SLP183 T03220183 10322 20228 51003
54779K12N 12N20160528125509905/28/16 12:55:31  5-MIN K12N 281755Z AUTO VRB03KT 32/18 A3011 410 44 2400 VRB/03 RMK AO1 T03170183
54779K12N 12N20160528130009905/28/16 13:00:31  5-MIN K12N 281800Z AUTO VRB03KT 31/18 A3011 410 44 2400 VRB/03 RMK AO1 T03110178
54779K12N 12N20160528130509905/28/16 13:05:31  5-MIN K12N 281805Z AUTO VRB06KT 32/18 A3011 410 43 2500 VRB/06 RMK AO1 T03170178
54779K12N 12N20160528131009905/28/16 13:10:31  5-MIN K12N 281810Z AUTO VRB05KT 32/18 A3011 410 43 2500 VRB/05 RMK AO1 T03170178
54779K12N 12N20160528131509905/28/16 13:15:31  5-MIN K12N 281815Z AUTO VRB04KT 32/18 A3010 420 43 2500 VRB/04 RMK AO1 T03170178
54779K12N 12N20160528132009905/28/16 13:20:31  5-MIN K12N 281820Z AUTO VRB05KT 32/17 A3010 420 41 2500 VRB/05 RMK AO1 T03170172
54779K12N 12N20160528132511505/28/16 13:25:31  5-MIN K12N 281825Z AUTO 21007KT 180V250 32/18 A3010 420 43 2500 220/07 190V260 RMK AO1 T03170178
54779K12N 12N20160528133009905/28/16 13:30:31  5-MIN K12N 281830Z AUTO 22007KT 32/18 A3010 420 43 2500 230/07 RMK AO1 T03170178
54779K12N 12N20160528133508905/28/16 13:35:31  5-MIN K12N 281835Z AUTO 31/18 A3010 420 44 2400 M /M RMK AO1 T03110178
54779K12N 12N20160528134009905/28/16 13:40:31  5-MIN K12N 281840Z AUTO VRB04KT 32/18 A3009 430 44 2500 VRB/04 RMK AO1 T03170183
54779K12N 12N20160528134509905/28/16 13:45:31  5-MIN K12N 281845Z AUTO VRB05KT 32/18 A3009 420 43 2500 VRB/05 RMK AO1 T03220183
54779K12N 12N20160528135010605/28/16 13:50:31  5-MIN K12N 281850Z AUTO VRB04KT 31/18 A3009 420 46 2400 VRB/04 RMK AO1 SLP180 T03110183
54779K12N 12N20160528135509905/28/16 13:55:31  5-MIN K12N 281855Z AUTO VRB03KT 32/19 A3010 420 46 2500 VRB/03 RMK AO1 T03170189
54779K12N 12N20160528140009905/28/16 14:00:31  5-MIN K12N 281900Z AUTO VRB05KT 32/18 A3010 420 44 2500 VRB/05 RMK AO1 T03170183
54779K12N 12N20160528140509905/28/16 14:05:31  5-MIN K12N 281905Z AUTO 34008KT 31/19 A3010 420 49 2300 360/08 RMK AO1 T03060189
54779K12N 12N20160528141009905/28/16 14:10:31  5-MIN K12N 281910Z AUTO VRB05KT 30/20 A3010 420 54 2300 VRB/05 RMK AO1 T03000200
54779K12N 12N20160528141509905/28/16 14:15:31  5-MIN K12N 281915Z AUTO VRB05KT 28/19 A3010 420 58 2100 VRB/05 RMK AO1 T02830194
54779K12N 12N20160528142009905/28/16 14:20:31  5-MIN K12N 281920Z AUTO 00000KT 28/19 A3010 420 58 2100 000/00 RMK AO1 T02830194
54779K12N 12N20160528142509905/28/16 14:25:31  5-MIN K12N 281925Z AUTO 00000KT 28/19 A3010 420 60 2000 000/00 RMK AO1 T02780194
54779K12N 12N20160528143009905/28/16 14:30:31  5-MIN K12N 281930Z AUTO VRB03KT 28/20 A3010 420 62 2000 VRB/03 RMK AO1 T02780200
54779K12N 12N20160528143509905/28/16 14:35:31  5-MIN K12N 281935Z AUTO 06003KT 28/20 A3010 420 62 2000 070/03 RMK AO1 T02780200
54779K12N 12N20160528144009905/28/16 14:40:31  5-MIN K12N 281940Z AUTO VRB03KT 28/20 A3010 420 60 2100 VRB/03 RMK AO1 T02830200
54779K12N 12N20160528144509905/28/16 14:45:31  5-MIN K12N 281945Z AUTO 01003KT 28/20 A3010 420 62 2000 020/03 RMK AO1 T02780200
54779K12N 12N20160528145010605/28/16 14:50:31  5-MIN K12N 281950Z AUTO VRB03KT 27/20 A3010 420 64 2000 VRB/03 RMK AO1 SLP185 T02720200
54779K12N 12N20160528145509905/28/16 14:55:31  5-MIN K12N 281955Z AUTO VRB04KT 27/20 A3010 420 64 2000 VRB/04 RMK AO1 T02720200
54779K12N 12N20160528150009905/28/16 15:00:31  5-MIN K12N 282000Z AUTO 36004KT 27/20 A3010 420 64 2000 010/04 RMK AO1 T02720200
54779K12N 12N20160528150509905/28/16 15:05:31  5-MIN K12N 282005Z AUTO 00000KT 27/20 A3010 420 66 1900 000/00 RMK AO1 T02670200
54779K12N 12N20160528151009905/28/16 15:10:31  5-MIN K12N 282010Z AUTO 00000KT 27/20 A3010 420 66 1900 000/00 RMK AO1 T02670200
54779K12N 12N20160528151509905/28/16 15:15:31  5-MIN K12N 282015Z AUTO 00000KT 27/21 A3010 420 69 1900 000/00 RMK AO1 T02670206
54779K12N 12N20160528152009905/28/16 15:20:31  5-MIN K12N 282020Z AUTO 00000KT 26/20 A3010 420 68 1800 000/00 RMK AO1 T02610200
54779K12N 12N20160528152509905/28/16 15:25:31  5-MIN K12N 282025Z AUTO 35005KT 26/20 A3010 420 68 1800 360/05 RMK AO1 T02610200
54779K12N 12N20160528153009905/28/16 15:30:31  5-MIN K12N 282030Z AUTO 36005KT 26/21 A3011 410 73 1800 010/05 RMK AO1 T02560206
54779K12N 12N20160528153509905/28/16 15:35:31  5-MIN K12N 282035Z AUTO VRB04KT 26/21 A3011 410 76 1800 VRB/04 RMK AO1 T02560211
54779K12N 12N20160528154012105/28/16 15:40:31  5-MIN K12N 282040Z AUTO 01008G14KT 350V050 25/21 A3011 410 76 1700 020/08G14 360V060 RMK AO1 T02500206
54779K12N 12N20160528154510505/28/16 15:45:31  5-MIN K12N 282045Z AUTO VRB04G14KT 25/21 A3011 410 76 1700 VRB/04G14 RMK AO1 T02500206
54779K12N 12N20160528155011205/28/16 15:50:31  5-MIN K12N 282050Z AUTO VRB03KT 25/21 A3011 410 79 1700 VRB/03 RMK AO1 SLP189 T02500211 58012
54779K12N 12N20160528155509905/28/16 15:55:31  5-MIN K12N 282055Z AUTO 04005KT 25/21 A3011 410 79 1700 050/05 RMK AO1 T02500211
54779K12N 12N20160528160009905/28/16 16:00:31  5-MIN K12N 282100Z AUTO 00000KT 24/21 A3012 410 81 1600 000/00 RMK AO1 T02440211
54779K12N 12N20160528160509905/28/16 16:05:31  5-MIN K12N 282105Z AUTO 04004KT 24/21 A3012 410 81 1600 050/04 RMK AO1 T02440211
54779K12N 12N20160528161009905/28/16 16:10:31  5-MIN K12N 282110Z AUTO VRB03KT 24/21 A3011 410 84 1600 VRB/03 RMK AO1 T02390211
54779K12N 12N20160528161509905/28/16 16:15:31  5-MIN K12N 282115Z AUTO 00000KT 24/21 A3011 410 84 1600 000/00 RMK AO1 T02390211
54779K12N 12N20160528162009905/28/16 16:20:31  5-MIN K12N 282120Z AUTO 00000KT 24/21 A3011 410 84 1600 000/00 RMK AO1 T02390211
54779K12N 12N20160528162509905/28/16 16:25:31  5-MIN K12N 282125Z AUTO 00000KT 24/21 A3011 410 84 1600 000/00 RMK AO1 T02390211
54779K12N 12N20160528163009905/28/16 16:30:31  5-MIN K12N 282130Z AUTO 00000KT 24/22 A3011 410 84 1600 000/00 RMK AO1 T02440217
54779K12N 12N20160528163509905/28/16 16:35:31  5-MIN K12N 282135Z AUTO 00000KT 24/22 A3011 410 84 1600 000/00 RMK AO1 T02440217
54779K12N 12N20160528164009905/28/16 16:40:31  5-MIN K12N 282140Z AUTO 34004KT 25/21 A3012 410 79 1700 360/04 RMK AO1 T02500211
54779K12N 12N20160528164509905/28/16 16:45:31  5-MIN K12N 282145Z AUTO VRB03KT 24/21 A3011 410 81 1600 VRB/03 RMK AO1 T02440211
54779K12N 12N20160528165010605/28/16 16:50:31  5-MIN K12N 282150Z AUTO 00000KT 24/22 A3012 400 84 1600 000/00 RMK AO1 SLP191 T02440217
54779K12N 12N20160528165509905/28/16 16:55:31  5-MIN K12N 282155Z AUTO 00000KT 24/22 A3012 400 87 1600 000/00 RMK AO1 T02390217
54779K12N 12N20160528170009905/28/16 17:00:31  5-MIN K12N 282200Z AUTO 00000KT 24/22 A3012 400 84 1600 000/00 RMK AO1 T02440217
54779K12N 12N20160528170509905/28/16 17:05:31  5-MIN K12N 282205Z AUTO 22004KT 24/22 A3013 390 87 1600 240/04 RMK AO1 T02390217
54779K12N 12N20160528171009905/28/16 17:10:31  5-MIN K12N 282210Z AUTO VRB04KT 24/21 A3013 400 81 1600 VRB/04 RMK AO1 T02440211
54779K12N 12N20160528171509905/28/16 17:15:31  5-MIN K12N 282215Z AUTO VRB03KT 24/21 A3012 400 78 1600 VRB/03 RMK AO1 T02440206
54779K12N 12N20160528172009905/28/16 17:20:31  5-MIN K12N 282220Z AUTO 22005KT 24/21 A3012 400 78 1600 230/05 RMK AO1 T02440206
54779K12N 12N20160528172509905/28/16 17:25:31  5-MIN K12N 282225Z AUTO VRB04KT 24/20 A3012 400 76 1600 VRB/04 RMK AO1 T02440200
54779K12N 12N20160528173009905/28/16 17:30:31  5-MIN K12N 282230Z AUTO VRB04KT 24/20 A3012 410 78 1600 VRB/04 RMK AO1 T02390200
54779K12N 12N20160528173509905/28/16 17:35:31  5-MIN K12N 282235Z AUTO 22004KT 24/20 A3012 400 78 1600 240/04 RMK AO1 T02390200
54779K12N 12N20160528174009905/28/16 17:40:31  5-MIN K12N 282240Z AUTO 17003KT 24/21 A3012 400 81 1600 180/03 RMK AO1 T02390206
54779K12N 12N20160528174509905/28/16 17:45:31  5-MIN K12N 282245Z AUTO VRB03KT 23/21 A3012 400 84 1500 VRB/03 RMK AO1 T02330206
54779K12N 12N20160528175010605/28/16 17:50:31  5-MIN K12N 282250Z AUTO 00000KT 24/20 A3012 400 78 1600 000/00 RMK AO1 SLP191 T02390200
54779K12N 12N20160528175509905/28/16 17:55:31  5-MIN K12N 282255Z AUTO 00000KT 24/20 A3012 400 78 1600 000/00 RMK AO1 T02390200
54779K12N 12N20160528180009905/28/16 18:00:31  5-MIN K12N 282300Z AUTO VRB03KT 24/20 A3012 400 78 1600 VRB/03 RMK AO1 T02390200
54779K12N 12N20160528180509905/28/16 18:05:31  5-MIN K12N 282305Z AUTO 00000KT 24/21 A3012 400 81 1600 000/00 RMK AO1 T02390206
54779K12N 12N20160528181009905/28/16 18:10:31  5-MIN K12N 282310Z AUTO 20003KT 24/20 A3012 410 78 1600 220/03 RMK AO1 T02390200
54779K12N 12N20160528181509905/28/16 18:15:31  5-MIN K12N 282315Z AUTO 00000KT 24/21 A3011 410 81 1600 000/00 RMK AO1 T02390206
54779K12N 12N20160528182009905/28/16 18:20:31  5-MIN K12N 282320Z AUTO 26005KT 24/21 A3012 400 81 1600 270/05 RMK AO1 T02390206
54779K12N 12N20160528182509905/28/16 18:25:31  5-MIN K12N 282325Z AUTO 22005KT 24/20 A3012 400 78 1600 230/05 RMK AO1 T02390200
54779K12N 12N20160528183009905/28/16 18:30:31  5-MIN K12N 282330Z AUTO 22004KT 24/20 A3012 400 78 1600 240/04 RMK AO1 T02390200
54779K12N 12N20160528183509905/28/16 18:35:31  5-MIN K12N 282335Z AUTO 22003KT 24/20 A3011 410 78 1600 240/03 RMK AO1 T02390200
54779K12N 12N20160528184009905/28/16 18:40:31  5-MIN K12N 282340Z AUTO 22003KT 24/21 A3011 410 81 1600 230/03 RMK AO1 T02390206
54779K12N 12N20160528184509905/28/16 18:45:31  5-MIN K12N 282345Z AUTO 22003KT 24/21 A3011 410 81 1600 230/03 RMK AO1 T02390206
54779K12N 12N20160528185012405/28/16 18:50:31  5-MIN K12N 282350Z AUTO 23003KT 24/21 A3011 410 81 1600 240/03 RMK AO1 SLP190 T02390206 10322 20233 53001
54779K12N 12N20160528185509905/28/16 18:55:31  5-MIN K12N 282355Z AUTO 22003KT 24/20 A3011 410 78 1600 240/03 RMK AO1 T02390200
54779K12N 12N20160528190009905/28/16 19:00:31  5-MIN K12N 290000Z AUTO 21003KT 24/20 A3011 410 78 1600 220/03 RMK AO1 T02390200
54779K12N 12N20160528190509905/28/16 19:05:31  5-MIN K12N 290005Z AUTO 00000KT 24/21 A3011 410 81 1600 000/00 RMK AO1 T02390206
54779K12N 12N20160528191009905/28/16 19:10:31  5-MIN K12N 290010Z AUTO 00000KT 24/21 A3012 410 81 1600 000/00 RMK AO1 T02390206
54779K12N 12N20160528191509905/28/16 19:15:31  5-MIN K12N 290015Z AUTO 00000KT 24/21 A3012 400 81 1600 000/00 RMK AO1 T02390206
54779K12N 12N20160528192009905/28/16 19:20:31  5-MIN K12N 290020Z AUTO 00000KT 23/21 A3012 400 84 1500 000/00 RMK AO1 T02330206
54779K12N 12N20160528192509905/28/16 19:25:31  5-MIN K12N 290025Z AUTO 00000KT 23/21 A3012 400 84 1500 000/00 RMK AO1 T02330206
54779K12N 12N20160528193009905/28/16 19:30:31  5-MIN K12N 290030Z AUTO 00000KT 23/21 A3012 400 84 1500 000/00 RMK AO1 T02330206
54779K12N 12N20160528193509905/28/16 19:35:31  5-MIN K12N 290035Z AUTO 00000KT 23/21 A3012 400 87 1400 000/00 RMK AO1 T02280206
54779K12N 12N20160528194009905/28/16 19:40:31  5-MIN K12N 290040Z AUTO 00000KT 23/21 A3012 400 87 1400 000/00 RMK AO1 T02280206
54779K12N 12N20160528194509905/28/16 19:45:31  5-MIN K12N 290045Z AUTO 00000KT 22/21 A3012 400 90 1400 000/00 RMK AO1 T02220206
54779K12N 12N20160528195010605/28/16 19:50:31  5-MIN K12N 290050Z AUTO 00000KT 22/21 A3013 400 90 1400 000/00 RMK AO1 SLP194 T02220206
54779K12N 12N20160528195509905/28/16 19:55:31  5-MIN K12N 290055Z AUTO 00000KT 22/21 A3013 400 90 1400 000/00 RMK AO1 T02220206
54779K12N 12N20160528200009905/28/16 20:00:31  5-MIN K12N 290100Z AUTO 00000KT 22/21 A3013 400 90 1400 000/00 RMK AO1 T02220206
54779K12N 12N20160528200509905/28/16 20:05:31  5-MIN K12N 290105Z AUTO 00000KT 22/21 A3013 390 90 1400 000/00 RMK AO1 T02220206
54779K12N 12N20160528201009905/28/16 20:10:31  5-MIN K12N 290110Z AUTO 00000KT 22/21 A3013 390 90 1400 000/00 RMK AO1 T02220206
54779K12N 12N20160528201509905/28/16 20:15:31  5-MIN K12N 290115Z AUTO 00000KT 22/21 A3013 390 90 1400 000/00 RMK AO1 T02220206
54779K12N 12N20160528202009905/28/16 20:20:31  5-MIN K12N 290120Z AUTO 00000KT 22/21 A3013 390 90 1400 000/00 RMK AO1 T02220206
54779K12N 12N20160528202509905/28/16 20:25:31  5-MIN K12N 290125Z AUTO 00000KT 22/21 A3013 390 90 1400 000/00 RMK AO1 T02220206
54779K12N 12N20160528203009905/28/16 20:30:31  5-MIN K12N 290130Z AUTO 00000KT 22/21 A3013 390 93 1300 000/00 RMK AO1 T02170206
54779K12N 12N20160528203509905/28/16 20:35:31  5-MIN K12N 290135Z AUTO 00000KT 22/21 A3014 390 93 1300 000/00 RMK AO1 T02170206
54779K12N 12N20160528204009905/28/16 20:40:31  5-MIN K12N 290140Z AUTO 00000KT 22/21 A3014 380 93 1300 000/00 RMK AO1 T02170206
54779K12N 12N20160528204509905/28/16 20:45:31  5-MIN K12N 290145Z AUTO 00000KT 22/21 A3014 390 93 1300 000/00 RMK AO1 T02170206
54779K12N 12N20160528205010605/28/16 20:50:31  5-MIN K12N 290150Z AUTO 00000KT 22/21 A3014 390 90 1400 000/00 RMK AO1 SLP196 T02220206
54779K12N 12N20160528205509905/28/16 20:55:31  5-MIN K12N 290155Z AUTO 00000KT 22/21 A3014 380 93 1300 000/00 RMK AO1 T02170206
54779K12N 12N20160528210009905/28/16 21:00:31  5-MIN K12N 290200Z AUTO 00000KT 22/21 A3014 380 93 1300 000/00 RMK AO1 T02170206
54779K12N 12N20160528210509905/28/16 21:05:31  5-MIN K12N 290205Z AUTO 00000KT 22/21 A3014 380 93 1300 000/00 RMK AO1 T02170206
54779K12N 12N20160528211009905/28/16 21:10:31  5-MIN K12N 290210Z AUTO 00000KT 22/21 A3014 380 93 1300 000/00 RMK AO1 T02170206
54779K12N 12N20160528211509905/28/16 21:15:31  5-MIN K12N 290215Z AUTO 00000KT 22/21 A3014 380 93 1300 000/00 RMK AO1 T02170206
54779K12N 12N20160528212009905/28/16 21:20:31  5-MIN K12N 290220Z AUTO 22003KT 22/21 A3014 380 93 1300 230/03 RMK AO1 T02170206
54779K12N 12N20160528212509905/28/16 21:25:31  5-MIN K12N 290225Z AUTO 00000KT 22/21 A3014 380 93 1300 000/00 RMK AO1 T02170206
54779K12N 12N20160528213009905/28/16 21:30:31  5-MIN K12N 290230Z AUTO 00000KT 22/21 A3014 380 93 1300 000/00 RMK AO1 T02170206
54779K12N 12N20160528213509905/28/16 21:35:31  5-MIN K12N 290235Z AUTO 00000KT 22/21 A3014 380 93 1300 000/00 RMK AO1 T02170206
54779K12N 12N20160528214009905/28/16 21:40:31  5-MIN K12N 290240Z AUTO 00000KT 22/21 A3013 390 93 1300 000/00 RMK AO1 T02170206
54779K12N 12N20160528214509905/28/16 21:45:31  5-MIN K12N 290245Z AUTO 00000KT 21/21 A3013 390 97 1200 000/00 RMK AO1 T02110206
54779K12N 12N20160528215011205/28/16 21:50:31  5-MIN K12N 290250Z AUTO 00000KT 21/21 A3013 390 97 1200 000/00 RMK AO1 SLP195 T02110206 50001
54779K12N 12N20160528215509905/28/16 21:55:31  5-MIN K12N 290255Z AUTO 00000KT 22/20 A3013 390 90 1300 000/00 RMK AO1 T02170200
54779K12N 12N20160528220009905/28/16 22:00:31  5-MIN K12N 290300Z AUTO 00000KT 21/20 A3013 390 93 1200 000/00 RMK AO1 T02110200
54779K12N 12N20160528220509905/28/16 22:05:31  5-MIN K12N 290305Z AUTO 00000KT 21/20 A3013 390 93 1200 000/00 RMK AO1 T02110200
54779K12N 12N20160528221009905/28/16 22:10:31  5-MIN K12N 290310Z AUTO 00000KT 21/20 A3013 390 93 1200 000/00 RMK AO1 T02110200
54779K12N 12N20160528221509905/28/16 22:15:31  5-MIN K12N 290315Z AUTO 00000KT 21/20 A3014 390 93 1200 000/00 RMK AO1 T02110200
54779K12N 12N20160528222009905/28/16 22:20:31  5-MIN K12N 290320Z AUTO 00000KT 21/20 A3014 390 93 1200 000/00 RMK AO1 T02110200
54779K12N 12N20160528222509905/28/16 22:25:31  5-MIN K12N 290325Z AUTO 00000KT 21/20 A3014 390 93 1200 000/00 RMK AO1 T02110200
54779K12N 12N20160528223009905/28/16 22:30:31  5-MIN K12N 290330Z AUTO 00000KT 21/20 A3013 390 93 1200 000/00 RMK AO1 T02110200
54779K12N 12N20160528223509905/28/16 22:35:31  5-MIN K12N 290335Z AUTO 00000KT 21/20 A3013 390 93 1200 000/00 RMK AO1 T02110200
54779K12N 12N20160528224009905/28/16 22:40:31  5-MIN K12N 290340Z AUTO 00000KT 21/20 A3014 390 93 1200 000/00 RMK AO1 T02110200
54779K12N 12N20160528224509905/28/16 22:45:31  5-MIN K12N 290345Z AUTO 00000KT 21/20 A3014 390 93 1200 000/00 RMK AO1 T02110200
54779K12N 12N20160528225010605/28/16 22:50:31  5-MIN K12N 290350Z AUTO 00000KT 21/20 A3014 390 93 1200 000/00 RMK AO1 SLP196 T02110200
54779K12N 12N20160528225509905/28/16 22:55:31  5-MIN K12N 290355Z AUTO 00000KT 21/20 A3014 380 93 1200 000/00 RMK AO1 T02110200
54779K12N 12N20160528230009905/28/16 23:00:31  5-MIN K12N 290400Z AUTO 00000KT 21/20 A3014 380 93 1200 000/00 RMK AO1 T02110200
54779K12N 12N20160528230509905/28/16 23:05:31  5-MIN K12N 290405Z AUTO 00000KT 21/19 A3014 380 93 1200 000/00 RMK AO1 T02060194
54779K12N 12N20160528231009905/28/16 23:10:31  5-MIN K12N 290410Z AUTO 00000KT 21/19 A3014 380 93 1200 000/00 RMK AO1 T02060194
54779K12N 12N20160528231509905/28/16 23:15:31  5-MIN K12N 290415Z AUTO 00000KT 21/19 A3014 380 93 1200 000/00 RMK AO1 T02060194
54779K12N 12N20160528232009905/28/16 23:20:31  5-MIN K12N 290420Z AUTO 00000KT 21/19 A3014 380 93 1200 000/00 RMK AO1 T02060194
54779K12N 12N20160528232509905/28/16 23:25:31  5-MIN K12N 290425Z AUTO 00000KT 21/19 A3014 380 93 1200 000/00 RMK AO1 T02060194
54779K12N 12N20160528233009905/28/16 23:30:31  5-MIN K12N 290430Z AUTO 00000KT 20/19 A3014 380 97 1100 000/00 RMK AO1 T02000194
54779K12N 12N20160528233509905/28/16 23:35:31  5-MIN K12N 290435Z AUTO 00000KT 20/19 A3014 380 97 1100 000/00 RMK AO1 T02000194
54779K12N 12N20160528234009905/28/16 23:40:31  5-MIN K12N 290440Z AUTO 00000KT 21/19 A3015 380 93 1200 000/00 RMK AO1 T02060194
54779K12N 12N20160528234509905/28/16 23:45:31  5-MIN K12N 290445Z AUTO 00000KT 20/19 A3015 380 97 1100 000/00 RMK AO1 T02000194
54779K12N 12N20160528235011605/28/16 23:50:31  5-MIN K12N 290450Z AUTO 00000KT 21/19 A3015 380 93 1200 000/00 RMK AO1 SLP199 T02060194 403220200
54779K12N 12N20160528235509905/28/16 23:55:31  5-MIN K12N 290455Z AUTO 00000KT 20/19 A3015 380 97 1100 000/00 RMK AO1 T02000194
54779K12N 12N20160529000009905/29/16 00:00:31  5-MIN K12N 290500Z AUTO 00000KT 21/19 A3015 380 93 1200 000/00 RMK AO1 T02060194
54779K12N 12N20160529000509905/29/16 00:05:31  5-MIN K12N 290505Z AUTO 00000KT 20/19 A3015 380 97 1100 000/00 RMK AO1 T02000194
54779K12N 12N20160529001009905/29/16 00:10:31  5-MIN K12N 290510Z AUTO 00000KT 20/19 A3015 380 97 1100 000/00 RMK AO1 T02000194
54779K12N 12N20160529001509905/29/16 00:15:31  5-MIN K12N 290515Z AUTO 00000KT 20/19 A3015 380 97 1100 000/00 RMK AO1 T02000194
54779K12N 12N20160529002009905/29/16 00:20:31  5-MIN K12N 290520Z AUTO 00000KT 20/19 A3014 380 97 1100 000/00 RMK AO1 T02000194
54779K12N 12N20160529002509905/29/16 00:25:31  5-MIN K12N 290525Z AUTO 00000KT 20/19 A3014 380 97 1100 000/00 RMK AO1 T02000194
54779K12N 12N20160529003009905/29/16 00:30:31  5-MIN K12N 290530Z AUTO 00000KT 20/19 A3014 380 97 1100 000/00 RMK AO1 T02000194
54779K12N 12N20160529003509905/29/16 00:35:31  5-MIN K12N 290535Z AUTO 00000KT 20/19 A3014 380 97 1100 000/00 RMK AO1 T02000194
54779K12N 12N20160529004009905/29/16 00:40:31  5-MIN K12N 290540Z AUTO 00000KT 20/19 A3015 380 93 1100 000/00 RMK AO1 T02000189
54779K12N 12N20160529004509905/29/16 00:45:31  5-MIN K12N 290545Z AUTO 00000KT 20/19 A3015 380 93 1100 000/00 RMK AO1 T02000189
54779K12N 12N20160529005012405/29/16 00:50:31  5-MIN K12N 290550Z AUTO 00000KT 20/19 A3015 380 93 1100 000/00 RMK AO1 SLP199 T02000189 10239 20200 50007
54779K12N 12N20160529005509905/29/16 00:55:31  5-MIN K12N 290555Z AUTO 00000KT 20/19 A3015 380 93 1100 000/00 RMK AO1 T02000189
54779K12N 12N20160529010009905/29/16 01:00:31  5-MIN K12N 290600Z AUTO 00000KT 20/19 A3015 380 93 1100 000/00 RMK AO1 T02000189
54779K12N 12N20160529010509905/29/16 01:05:31  5-MIN K12N 290605Z AUTO 00000KT 20/19 A3015 380 93 1100 000/00 RMK AO1 T02000189
54779K12N 12N20160529011009905/29/16 01:10:31  5-MIN K12N 290610Z AUTO 00000KT 20/19 A3015 380 93 1100 000/00 RMK AO1 T02000189
54779K12N 12N20160529011509905/29/16 01:15:31  5-MIN K12N 290615Z AUTO 00000KT 19/19 A3014 380 97 1000 000/00 RMK AO1 T01940189
54779K12N 12N20160529012009905/29/16 01:20:31  5-MIN K12N 290620Z AUTO 00000KT 19/19 A3015 380 97 1000 000/00 RMK AO1 T01940189
54779K12N 12N20160529012509905/29/16 01:25:31  5-MIN K12N 290625Z AUTO 00000KT 20/19 A3014 380 93 1100 000/00 RMK AO1 T02000189
54779K12N 12N20160529013009905/29/16 01:30:31  5-MIN K12N 290630Z AUTO 00000KT 20/19 A3014 380 93 1100 000/00 RMK AO1 T02000189
54779K12N 12N20160529013509905/29/16 01:35:31  5-MIN K12N 290635Z AUTO 00000KT 19/19 A3014 380 97 1000 000/00 RMK AO1 T01940189
54779K12N 12N20160529014009905/29/16 01:40:31  5-MIN K12N 290640Z AUTO 00000KT 19/19 A3014 380 97 1000 000/00 RMK AO1 T01940189
54779K12N 12N20160529014509905/29/16 01:45:31  5-MIN K12N 290645Z AUTO 00000KT 19/19 A3014 380 97 1000 000/00 RMK AO1 T01940189
54779K12N 12N20160529015010605/29/16 01:50:31  5-MIN K12N 290650Z AUTO 00000KT 19/19 A3014 380 97 1000 000/00 RMK AO1 SLP197 T01940189
54779K12N 12N20160529015509905/29/16 01:55:31  5-MIN K12N 290655Z AUTO 00000KT 19/18 A3014 380 93 1000 000/00 RMK AO1 T01940183
54779K12N 12N20160529020009905/29/16 02:00:31  5-MIN K12N 290700Z AUTO 00000KT 19/18 A3014 380 93 1000 000/00 RMK AO1 T01940183
54779K12N 12N20160529020509905/29/16 02:05:31  5-MIN K12N 290705Z AUTO 00000KT 19/18 A3014 380 93 1000 000/00 RMK AO1 T01940183
54779K12N 12N20160529021009905/29/16 02:10:31  5-MIN K12N 290710Z AUTO 00000KT 19/18 A3014 380 97 1000 000/00 RMK AO1 T01890183
54779K12N 12N20160529021509905/29/16 02:15:31  5-MIN K12N 290715Z AUTO 00000KT 19/18 A3014 390 97 1000 000/00 RMK AO1 T01890183
54779K12N 12N20160529022009905/29/16 02:20:31  5-MIN K12N 290720Z AUTO 00000KT 19/18 A3014 390 93 1000 000/00 RMK AO1 T01940183
54779K12N 12N20160529022509905/29/16 02:25:31  5-MIN K12N 290725Z AUTO 00000KT 19/18 A3013 390 93 1000 000/00 RMK AO1 T01940183
54779K12N 12N20160529023009905/29/16 02:30:31  5-MIN K12N 290730Z AUTO 00000KT 19/18 A3013 390 93 1000 000/00 RMK AO1 T01940183
54779K12N 12N20160529023509905/29/16 02:35:31  5-MIN K12N 290735Z AUTO 00000KT 19/18 A3013 390 93 1000 000/00 RMK AO1 T01940183
54779K12N 12N20160529024009905/29/16 02:40:31  5-MIN K12N 290740Z AUTO 00000KT 19/18 A3013 390 93 1000 000/00 RMK AO1 T01940183
54779K12N 12N20160529024509905/29/16 02:45:31  5-MIN K12N 290745Z AUTO 00000KT 19/18 A3013 390 93 1000 000/00 RMK AO1 T01940183
54779K12N 12N20160529025010605/29/16 02:50:31  5-MIN K12N 290750Z AUTO 00000KT 19/18 A3013 390 93 1000 000/00 RMK AO1 SLP196 T01940183
54779K12N 12N20160529025509905/29/16 02:55:31  5-MIN K12N 290755Z AUTO 00000KT 19/18 A3013 390 93 1000 000/00 RMK AO1 T01940183
54779K12N 12N20160529030009905/29/16 03:00:31  5-MIN K12N 290800Z AUTO 00000KT 19/18 A3013 390 97 1000 000/00 RMK AO1 T01890183
54779K12N 12N20160529030509905/29/16 03:05:31  5-MIN K12N 290805Z AUTO 00000KT 19/18 A3013 390 97 1000 000/00 RMK AO1 T01890183
54779K12N 12N20160529031009905/29/16 03:10:31  5-MIN K12N 290810Z AUTO 00000KT 19/18 A3013 390 97 1000 000/00 RMK AO1 T01890183
54779K12N 12N20160529031509905/29/16 03:15:31  5-MIN K12N 290815Z AUTO 00000KT 19/18 A3013 390 97 1000 000/00 RMK AO1 T01890183
54779K12N 12N20160529032009905/29/16 03:20:31  5-MIN K12N 290820Z AUTO 00000KT 19/18 A3013 390 97 1000 000/00 RMK AO1 T01890183
54779K12N 12N20160529032509905/29/16 03:25:31  5-MIN K12N 290825Z AUTO 00000KT 19/18 A3013 390 97 1000 000/00 RMK AO1 T01890183
54779K12N 12N20160529033009905/29/16 03:30:31  5-MIN K12N 290830Z AUTO 00000KT 19/18 A3013 390 97 1000 000/00 RMK AO1 T01890183
54779K12N 12N20160529033509805/29/16 03:35:31  5-MIN K12N 290835Z AUTO 00000KT 18/18 A3013 390 96 900 000/00 RMK AO1 T01830178
54779K12N 12N20160529034009905/29/16 03:40:31  5-MIN K12N 290840Z AUTO 00000KT 19/18 A3014 390 97 1000 000/00 RMK AO1 T01890183
54779K12N 12N20160529034509905/29/16 03:45:31  5-MIN K12N 290845Z AUTO 00000KT 19/18 A3014 380 97 1000 000/00 RMK AO1 T01890183
54779K12N 12N20160529035011205/29/16 03:50:31  5-MIN K12N 290850Z AUTO 00000KT 19/18 A3014 380 97 1000 000/00 RMK AO1 SLP198 T01890183 51004
54779K12N 12N20160529035509905/29/16 03:55:31  5-MIN K12N 290855Z AUTO 00000KT 19/18 A3014 380 97 1000 000/00 RMK AO1 T01890183
54779K12N 12N20160529040009905/29/16 04:00:31  5-MIN K12N 290900Z AUTO 00000KT 19/18 A3014 380 97 1000 000/00 RMK AO1 T01890183
54779K12N 12N20160529040509905/29/16 04:05:31  5-MIN K12N 290905Z AUTO 00000KT 19/18 A3014 380 97 1000 000/00 RMK AO1 T01890183
54779K12N 12N20160529041009805/29/16 04:10:31  5-MIN K12N 290910Z AUTO 00000KT 18/18 A3014 380 96 900 000/00 RMK AO1 T01830178
54779K12N 12N20160529041509805/29/16 04:15:31  5-MIN K12N 290915Z AUTO 00000KT 18/18 A3014 380 96 900 000/00 RMK AO1 T01830178
54779K12N 12N20160529042009805/29/16 04:20:31  5-MIN K12N 290920Z AUTO 00000KT 18/18 A3014 380 96 900 000/00 RMK AO1 T01830178
54779K12N 12N20160529042509805/29/16 04:25:31  5-MIN K12N 290925Z AUTO 00000KT 18/18 A3014 380 96 900 000/00 RMK AO1 T01830178
54779K12N 12N20160529043009805/29/16 04:30:31  5-MIN K12N 290930Z AUTO 00000KT 18/17 A3014 380 93 900 000/00 RMK AO1 T01830172
54779K12N 12N20160529043509805/29/16 04:35:31  5-MIN K12N 290935Z AUTO 00000KT 18/18 A3014 380 96 900 000/00 RMK AO1 T01830178
54779K12N 12N20160529044009805/29/16 04:40:31  5-MIN K12N 290940Z AUTO 00000KT 18/18 A3014 380 96 900 000/00 RMK AO1 T01830178
54779K12N 12N20160529044509905/29/16 04:45:31  5-MIN K12N 290945Z AUTO 00000KT 19/18 A3014 380 93 1000 000/00 RMK AO1 T01890178
54779K12N 12N20160529045010605/29/16 04:50:31  5-MIN K12N 290950Z AUTO 00000KT 19/18 A3015 380 93 1000 000/00 RMK AO1 SLP201 T01890178
54779K12N 12N20160529045509905/29/16 04:55:31  5-MIN K12N 290955Z AUTO 00000KT 19/18 A3014 380 93 1000 000/00 RMK AO1 T01890178
54779K12N 12N20160529050009905/29/16 05:00:31  5-MIN K12N 291000Z AUTO 19003KT 19/18 A3015 380 93 1000 200/03 RMK AO1 T01890178
54779K12N 12N20160529050509905/29/16 05:05:31  5-MIN K12N 291005Z AUTO 19003KT 19/18 A3015 380 93 1000 200/03 RMK AO1 T01890178
54779K12N 12N20160529051009905/29/16 05:10:31  5-MIN K12N 291010Z AUTO 00000KT 19/18 A3015 380 93 1000 000/00 RMK AO1 T01890178
54779K12N 12N20160529051509905/29/16 05:15:31  5-MIN K12N 291015Z AUTO 00000KT 19/18 A3015 380 93 1000 000/00 RMK AO1 T01890178
54779K12N 12N20160529052009905/29/16 05:20:31  5-MIN K12N 291020Z AUTO 00000KT 19/18 A3015 370 97 1000 000/00 RMK AO1 T01890183
54779K12N 12N20160529052509905/29/16 05:25:31  5-MIN K12N 291025Z AUTO 00000KT 19/18 A3015 370 97 1000 000/00 RMK AO1 T01890183
54779K12N 12N20160529053009905/29/16 05:30:31  5-MIN K12N 291030Z AUTO 00000KT 19/18 A3015 370 97 1000 000/00 RMK AO1 T01890183
54779K12N 12N20160529053509905/29/16 05:35:31  5-MIN K12N 291035Z AUTO 00000KT 19/18 A3015 370 97 1000 000/00 RMK AO1 T01890183
54779K12N 12N20160529054009905/29/16 05:40:31  5-MIN K12N 291040Z AUTO 00000KT 19/18 A3015 370 93 1000 000/00 RMK AO1 T01940183
54779K12N 12N20160529054509905/29/16 05:45:31  5-MIN K12N 291045Z AUTO 00000KT 19/18 A3015 370 93 1000 000/00 RMK AO1 T01940183
54779K12N 12N20160529055010605/29/16 05:50:31  5-MIN K12N 291050Z AUTO 00000KT 20/19 A3016 370 93 1100 000/00 RMK AO1 SLP204 T02000189
54779K12N 12N20160529055509905/29/16 05:55:31  5-MIN K12N 291055Z AUTO 00000KT 20/18 A3015 370 90 1100 000/00 RMK AO1 T02000183
54779K12N 12N20160529060009905/29/16 06:00:31  5-MIN K12N 291100Z AUTO 00000KT 20/19 A3016 370 93 1100 000/00 RMK AO1 T02000189
54779K12N 12N20160529060509905/29/16 06:05:31  5-MIN K12N 291105Z AUTO 00000KT 20/18 A3015 370 90 1100 000/00 RMK AO1 T02000183
54779K12N 12N20160529061009905/29/16 06:10:31  5-MIN K12N 291110Z AUTO 00000KT 20/18 A3016 370 90 1100 000/00 RMK AO1 T02000183
54779K12N 12N20160529061509905/29/16 06:15:31  5-MIN K12N 291115Z AUTO 00000KT 20/18 A3016 370 90 1100 000/00 RMK AO1 T02000183
54779K12N 12N20160529062009905/29/16 06:20:31  5-MIN K12N 291120Z AUTO 00000KT 21/18 A3016 370 87 1100 000/00 RMK AO1 T02060183
54779K12N 12N20160529062509905/29/16 06:25:31  5-MIN K12N 291125Z AUTO 00000KT 21/19 A3016 370 90 1100 000/00 RMK AO1 T02060189
54779K12N 12N20160529063009905/29/16 06:30:31  5-MIN K12N 291130Z AUTO 00000KT 21/19 A3016 370 90 1100 000/00 RMK AO1 T02060189
54779K12N 12N20160529063509905/29/16 06:35:31  5-MIN K12N 291135Z AUTO 00000KT 21/19 A3016 370 87 1200 000/00 RMK AO1 T02110189
54779K12N 12N20160529064009905/29/16 06:40:31  5-MIN K12N 291140Z AUTO 00000KT 21/19 A3015 370 87 1200 000/00 RMK AO1 T02110189
54779K12N 12N20160529064509905/29/16 06:45:31  5-MIN K12N 291145Z AUTO 00000KT 22/19 A3015 370 84 1300 000/00 RMK AO1 T02170189
54779K12N 12N20160529065012405/29/16 06:50:31  5-MIN K12N 291150Z AUTO 21003KT 22/18 A3015 370 81 1300 220/03 RMK AO1 SLP203 T02170183 10217 20183 55003
54779K12N 12N20160529065509905/29/16 06:55:31  5-MIN K12N 291155Z AUTO 21003KT 22/18 A3015 370 81 1300 220/03 RMK AO1 T02170183
54779K12N 12N20160529070009905/29/16 07:00:31  5-MIN K12N 291200Z AUTO 22003KT 22/18 A3015 370 75 1300 230/03 RMK AO1 T02220178
54779K12N 12N20160529070509905/29/16 07:05:31  5-MIN K12N 291205Z AUTO 23003KT 22/18 A3015 370 78 1300 240/03 RMK AO1 T02220183
54779K12N 12N20160529071009905/29/16 07:10:31  5-MIN K12N 291210Z AUTO 00000KT 23/18 A3016 370 73 1400 000/00 RMK AO1 T02280178
54779K12N 12N20160529071509905/29/16 07:15:31  5-MIN K12N 291215Z AUTO VRB04KT 23/18 A3015 370 73 1400 VRB/04 RMK AO1 T02280178
54779K12N 12N20160529072009905/29/16 07:20:31  5-MIN K12N 291220Z AUTO 22003KT 23/17 A3016 370 70 1400 240/03 RMK AO1 T02280172
54779K12N 12N20160529072509905/29/16 07:25:31  5-MIN K12N 291225Z AUTO 20004KT 23/17 A3016 370 70 1400 220/04 RMK AO1 T02280172
54779K12N 12N20160529073009905/29/16 07:30:31  5-MIN K12N 291230Z AUTO 21006KT 23/17 A3016 370 68 1400 220/06 RMK AO1 T02280167
54779K12N 12N20160529073509905/29/16 07:35:31  5-MIN K12N 291235Z AUTO VRB03KT 23/17 A3015 370 68 1400 VRB/03 RMK AO1 T02280167
54779K12N 12N20160529074009905/29/16 07:40:31  5-MIN K12N 291240Z AUTO VRB03KT 23/17 A3015 370 68 1500 VRB/03 RMK AO1 T02330172
54779K12N 12N20160529074509905/29/16 07:45:31  5-MIN K12N 291245Z AUTO 21007KT 23/17 A3015 370 66 1500 220/07 RMK AO1 T02330167
54779K12N 12N20160529075010605/29/16 07:50:31  5-MIN K12N 291250Z AUTO 23005KT 24/17 A3015 370 63 1500 250/05 RMK AO1 SLP204 T02390167
54779K12N 12N20160529075509905/29/16 07:55:31  5-MIN K12N 291255Z AUTO VRB04KT 23/17 A3015 370 66 1500 VRB/04 RMK AO1 T02330167
54779K12N 12N20160529080009905/29/16 08:00:31  5-MIN K12N 291300Z AUTO 20004KT 24/17 A3015 370 63 1500 220/04 RMK AO1 T02390167
54779K12N 12N20160529080509905/29/16 08:05:31  5-MIN K12N 291305Z AUTO 21005KT 24/16 A3016 370 61 1500 220/05 RMK AO1 T02390161
54779K12N 12N20160529081009905/29/16 08:10:31  5-MIN K12N 291310Z AUTO 22005KT 24/16 A3016 370 61 1500 230/05 RMK AO1 T02390161
54779K12N 12N20160529081509905/29/16 08:15:31  5-MIN K12N 291315Z AUTO VRB03KT 24/17 A3015 370 63 1500 VRB/03 RMK AO1 T02390167
54779K12N 12N20160529082009905/29/16 08:20:31  5-MIN K12N 291320Z AUTO VRB03KT 24/17 A3015 370 61 1600 VRB/03 RMK AO1 T02440167
54779K12N 12N20160529082509905/29/16 08:25:31  5-MIN K12N 291325Z AUTO 22004KT 24/17 A3015 370 61 1600 230/04 RMK AO1 T02440167
54779K12N 12N20160529083009905/29/16 08:30:31  5-MIN K12N 291330Z AUTO 22004KT 24/17 A3015 370 61 1600 230/04 RMK AO1 T02440167
54779K12N 12N20160529083509905/29/16 08:35:31  5-MIN K12N 291335Z AUTO 21004KT 24/17 A3015 370 61 1600 220/04 RMK AO1 T02440167
54779K12N 12N20160529084009905/29/16 08:40:31  5-MIN K12N 291340Z AUTO VRB03KT 25/17 A3015 370 61 1700 VRB/03 RMK AO1 T02500172
54779K12N 12N20160529084509905/29/16 08:45:31  5-MIN K12N 291345Z AUTO VRB03KT 25/17 A3015 370 61 1700 VRB/03 RMK AO1 T02500172
54779K12N 12N20160529085010605/29/16 08:50:31  5-MIN K12N 291350Z AUTO 24005KT 25/17 A3015 370 59 1700 250/05 RMK AO1 SLP201 T02500167
54779K12N 12N20160529085509905/29/16 08:55:31  5-MIN K12N 291355Z AUTO 24005KT 26/17 A3015 380 57 1700 250/05 RMK AO1 T02560167
54779K12N 12N20160529090009905/29/16 09:00:31  5-MIN K12N 291400Z AUTO VRB05KT 26/17 A3015 380 59 1700 VRB/05 RMK AO1 T02560172
54779K12N 12N20160529090509905/29/16 09:05:31  5-MIN K12N 291405Z AUTO VRB05KT 26/17 A3015 380 57 1800 VRB/05 RMK AO1 T02610172
54779K12N 12N20160529091009905/29/16 09:10:31  5-MIN K12N 291410Z AUTO 22005KT 26/17 A3015 380 55 1800 240/05 RMK AO1 T02610167
54779K12N 12N20160529091509905/29/16 09:15:31  5-MIN K12N 291415Z AUTO VRB03KT 26/17 A3014 380 57 1800 VRB/03 RMK AO1 T02610172
54779K12N 12N20160529092009905/29/16 09:20:31  5-MIN K12N 291420Z AUTO 22006KT 26/17 A3014 380 57 1800 230/06 RMK AO1 T02610172
54779K12N 12N20160529092509905/29/16 09:25:31  5-MIN K12N 291425Z AUTO VRB04KT 27/17 A3014 380 55 1900 VRB/04 RMK AO1 T02670172
54779K12N 12N20160529093009905/29/16 09:30:31  5-MIN K12N 291430Z AUTO 25004KT 27/17 A3014 380 55 1900 260/04 RMK AO1 T02670172
54779K12N 12N20160529093509905/29/16 09:35:31  5-MIN K12N 291435Z AUTO 22006KT 27/18 A3014 380 56 1900 230/06 RMK AO1 T02720178
54779K12N 12N20160529094009905/29/16 09:40:31  5-MIN K12N 291440Z AUTO VRB04KT 27/18 A3014 380 57 1900 VRB/04 RMK AO1 T02670178
54779K12N 12N20160529094509905/29/16 09:45:31  5-MIN K12N 291445Z AUTO VRB03KT 27/18 A3014 380 56 1900 VRB/03 RMK AO1 T02720178
54779K12N 12N20160529095011205/29/16 09:50:31  5-MIN K12N 291450Z AUTO VRB03KT 27/17 A3014 380 55 1900 VRB/03 RMK AO1 SLP199 T02670172 50005
54779K12N 12N20160529095509905/29/16 09:55:31  5-MIN K12N 291455Z AUTO 24005KT 27/18 A3014 380 57 1900 260/05 RMK AO1 T02670178
54779K12N 12N20160529100009905/29/16 10:00:31  5-MIN K12N 291500Z AUTO VRB03KT 27/18 A3014 380 57 1900 VRB/03 RMK AO1 T02670178
54779K12N 12N20160529100509905/29/16 10:05:31  5-MIN K12N 291505Z AUTO 26004KT 27/18 A3014 380 56 1900 270/04 RMK AO1 T02720178
54779K12N 12N20160529101009905/29/16 10:10:31  5-MIN K12N 291510Z AUTO 23004KT 28/18 A3014 380 56 2000 240/04 RMK AO1 T02780183
54779K12N 12N20160529101509905/29/16 10:15:31  5-MIN K12N 291515Z AUTO 26003KT 28/18 A3014 390 56 2000 270/03 RMK AO1 T02780183
54779K12N 12N20160529102009905/29/16 10:20:31  5-MIN K12N 291520Z AUTO VRB04KT 28/19 A3014 390 56 2000 VRB/04 RMK AO1 T02830189
54779K12N 12N20160529102509905/29/16 10:25:31  5-MIN K12N 291525Z AUTO VRB03KT 28/18 A3013 390 56 2000 VRB/03 RMK AO1 T02780183
54779K12N 12N20160529103009905/29/16 10:30:31  5-MIN K12N 291530Z AUTO 00000KT 28/18 A3013 390 54 2000 000/00 RMK AO1 T02830183
54779K12N 12N20160529103509905/29/16 10:35:31  5-MIN K12N 291535Z AUTO 21005KT 28/18 A3013 390 54 2100 220/05 RMK AO1 T02830183
54779K12N 12N20160529104009905/29/16 10:40:31  5-MIN K12N 291540Z AUTO VRB05KT 28/18 A3013 390 56 2000 VRB/05 RMK AO1 T02780183
54779K12N 12N20160529104509905/29/16 10:45:31  5-MIN K12N 291545Z AUTO VRB03KT 28/18 A3013 390 54 2100 VRB/03 RMK AO1 T02830183
54779K12N 12N20160529105010605/29/16 10:50:31  5-MIN K12N 291550Z AUTO VRB03KT 29/19 A3013 390 54 2100 VRB/03 RMK AO1 SLP194 T02890189
54779K12N 12N20160529105509905/29/16 10:55:31  5-MIN K12N 291555Z AUTO 00000KT 29/18 A3013 390 52 2100 000/00 RMK AO1 T02890183
54779K12N 12N20160529110009905/29/16 11:00:31  5-MIN K12N 291600Z AUTO 23005KT 29/18 A3013 390 52 2100 240/05 RMK AO1 T02890183
54779K12N 12N20160529110509905/29/16 11:05:31  5-MIN K12N 291605Z AUTO 26005KT 29/19 A3013 390 54 2100 270/05 RMK AO1 T02890189
54779K12N 12N20160529111009905/29/16 11:10:31  5-MIN K12N 291610Z AUTO VRB03KT 29/19 A3013 390 54 2100 VRB/03 RMK AO1 T02890189
54779K12N 12N20160529111509905/29/16 11:15:31  5-MIN K12N 291615Z AUTO 00000KT 29/19 A3013 400 52 2200 000/00 RMK AO1 T02940189
54779K12N 12N20160529112011505/29/16 11:20:31  5-MIN K12N 291620Z AUTO 21008KT 190V250 29/18 A3013 400 50 2200 230/08 200V260 RMK AO1 T02940183
54779K12N 12N20160529112509905/29/16 11:25:31  5-MIN K12N 291625Z AUTO 00000KT 29/18 A3012 400 50 2200 000/00 RMK AO1 T02940183
54779K12N 12N20160529113009905/29/16 11:30:31  5-MIN K12N 291630Z AUTO VRB03KT 30/18 A3012 400 49 2300 VRB/03 RMK AO1 T03000183
54779K12N 12N20160529113509905/29/16 11:35:31  5-MIN K12N 291635Z AUTO VRB03KT 30/18 A3012 400 49 2300 VRB/03 RMK AO1 T03000183
54779K12N 12N20160529114009905/29/16 11:40:31  5-MIN K12N 291640Z AUTO 00000KT 29/18 A3011 410 50 2200 000/00 RMK AO1 T02940183
54779K12N 12N20160529114509905/29/16 11:45:31  5-MIN K12N 291645Z AUTO 23006KT 30/18 A3011 410 49 2300 240/06 RMK AO1 T03000183
54779K12N 12N20160529115010605/29/16 11:50:31  5-MIN K12N 291650Z AUTO VRB06KT 30/18 A3011 410 49 2300 VRB/06 RMK AO1 SLP187 T03000183
54779K12N 12N20160529115511505/29/16 11:55:31  5-MIN K12N 291655Z AUTO 18007KT 140V210 30/18 A3011 410 49 2300 200/07 150V220 RMK AO1 T03000183
54779K12N 12N20160529120009905/29/16 12:00:31  5-MIN K12N 291700Z AUTO VRB05KT 30/18 A3011 410 49 2300 VRB/05 RMK AO1 T03000183
54779K12N 12N20160529120511505/29/16 12:05:31  5-MIN K12N 291705Z AUTO 23007KT 200V260 31/18 A3011 410 47 2300 250/07 210V270 RMK AO1 T03060183
54779K12N 12N20160529121009905/29/16 12:10:31  5-MIN K12N 291710Z AUTO 23007KT 29/18 A3011 410 49 2200 240/07 RMK AO1 T02940178
54779K12N 12N20160529121509905/29/16 12:15:31  5-MIN K12N 291715Z AUTO 22008KT 30/18 A3011 410 47 2300 230/08 RMK AO1 T03000178
54779K12N 12N20160529122009905/29/16 12:20:31  5-MIN K12N 291720Z AUTO 21008KT 30/18 A3010 420 47 2300 230/08 RMK AO1 T03000178
54779K12N 12N20160529122509905/29/16 12:25:31  5-MIN K12N 291725Z AUTO VRB06KT 30/17 A3010 420 45 2300 VRB/06 RMK AO1 T03000172
54779K12N 12N20160529123008905/29/16 12:30:31  5-MIN K12N 291730Z AUTO 31/17 A3010 420 44 2300 M /M RMK AO1 T03060172
54779K12N 12N20160529123509905/29/16 12:35:31  5-MIN K12N 291735Z AUTO 23010KT 31/17 A3010 420 44 2300 240/10 RMK AO1 T03060172
54779K12N 12N20160529124009905/29/16 12:40:31  5-MIN K12N 291740Z AUTO 20005KT 31/17 A3010 420 44 2300 210/05 RMK AO1 T03060172
54779K12N 12N20160529124509905/29/16 12:45:31  5-MIN K12N 291745Z AUTO VRB06KT 30/17 A3010 420 44 2300 VRB/06 RMK AO1 T03000167
54779K12N 12N20160529125012405/29/16 12:50:31  5-MIN K12N 291750Z AUTO VRB06KT 31/17 A3010 420 44 2300 VRB/06 RMK AO1 SLP183 T03060172 10306 20217 58003
54779K12N 12N20160529125509905/29/16 12:55:31  5-MIN K12N 291755Z AUTO VRB05KT 30/17 A3010 420 45 2300 VRB/05 RMK AO1 T03000172
54779K12N 12N20160529130009905/29/16 13:00:31  5-MIN K12N 291800Z AUTO 22005KT 30/18 A3010 420 47 2300 230/05 RMK AO1 T03000178
54779K12N 12N20160529130509905/29/16 13:05:31  5-MIN K12N 291805Z AUTO 22007KT 31/18 A3010 420 46 2300 240/07 RMK AO1 T03060178
54779K12N 12N20160529131010505/29/16 13:10:31  5-MIN K12N 291810Z AUTO 21006G15KT 30/17 A3009 420 45 2300 230/06G15 RMK AO1 T03000172
54779K12N 12N20160529131509905/29/16 13:15:31  5-MIN K12N 291815Z AUTO VRB06KT 29/17 A3009 430 47 2200 VRB/06 RMK AO1 T02940172
54779K12N 12N20160529132009905/29/16 13:20:31  5-MIN K12N 291820Z AUTO VRB05KT 29/18 A3009 430 49 2200 VRB/05 RMK AO1 T02940178
54779K12N 12N20160529132509905/29/16 13:25:31  5-MIN K12N 291825Z AUTO VRB03KT 29/18 A3009 430 49 2200 VRB/03 RMK AO1 T02940178
54779K12N 12N20160529133009905/29/16 13:30:31  5-MIN K12N 291830Z AUTO VRB05KT 30/18 A3009 430 47 2300 VRB/05 RMK AO1 T03000178
54779K12N 12N20160529133509905/29/16 13:35:31  5-MIN K12N 291835Z AUTO VRB06KT 30/18 A3009 430 47 2300 VRB/06 RMK AO1 T03000178
54779K12N 12N20160529134009905/29/16 13:40:31  5-MIN K12N 291840Z AUTO VRB05KT 30/18 A3009 430 47 2300 VRB/05 RMK AO1 T03000178
54779K12N 12N20160529134509905/29/16 13:45:31  5-MIN K12N 291845Z AUTO VRB05KT 30/18 A3009 430 47 2300 VRB/05 RMK AO1 T03000178
54779K12N 12N20160529135010605/29/16 13:50:31  5-MIN K12N 291850Z AUTO VRB06KT 30/17 A3009 430 45 2300 VRB/06 RMK AO1 SLP178 T03000172
54779K12N 12N20160529135509905/29/16 13:55:31  5-MIN K12N 291855Z AUTO VRB06KT 29/17 A3009 430 47 2200 VRB/06 RMK AO1 T02940172
54779K12N 12N20160529140009905/29/16 14:00:31  5-MIN K12N 291900Z AUTO VRB05KT 29/17 A3009 430 47 2200 VRB/05 RMK AO1 T02940172
54779K12N 12N20160529140509905/29/16 14:05:31  5-MIN K12N 291905Z AUTO VRB06KT 29/17 A3008 440 45 2200 VRB/06 RMK AO1 T02940167
54779K12N 12N20160529141009905/29/16 14:10:31  5-MIN K12N 291910Z AUTO VRB06KT 29/17 A3008 440 47 2200 VRB/06 RMK AO1 T02940172
54779K12N 12N20160529141509905/29/16 14:15:31  5-MIN K12N 291915Z AUTO 20006KT 30/17 A3008 440 45 2300 210/06 RMK AO1 T03000172
54779K12N 12N20160529142009905/29/16 14:20:31  5-MIN K12N 291920Z AUTO VRB05KT 30/17 A3008 440 45 2300 VRB/05 RMK AO1 T03000172
54779K12N 12N20160529142509905/29/16 14:25:31  5-MIN K12N 291925Z AUTO 21006KT 31/17 A3008 440 44 2400 220/06 RMK AO1 T03060172
54779K12N 12N20160529143009905/29/16 14:30:31  5-MIN K12N 291930Z AUTO VRB04KT 30/17 A3007 440 45 2300 VRB/04 RMK AO1 T03000172
54779K12N 12N20160529143511505/29/16 14:35:31  5-MIN K12N 291935Z AUTO 18008KT 150V210 31/17 A3007 450 44 2400 190/08 160V220 RMK AO1 T03060172
54779K12N 12N20160529144009905/29/16 14:40:31  5-MIN K12N 291940Z AUTO VRB06KT 30/17 A3007 450 45 2300 VRB/06 RMK AO1 T03000172
54779K12N 12N20160529144508905/29/16 14:45:31  5-MIN K12N 291945Z AUTO 31/18 A3007 450 46 2400 M /M RMK AO1 T03060178
54779K12N 12N20160529145010605/29/16 14:50:31  5-MIN K12N 291950Z AUTO 15003KT 29/17 A3007 450 47 2200 160/03 RMK AO1 SLP173 T02940172
54779K12N 12N20160529145509905/29/16 14:55:31  5-MIN K12N 291955Z AUTO VRB04KT 29/17 A3007 450 47 2300 VRB/04 RMK AO1 T02940172
54779K12N 12N20160529150009905/29/16 15:00:31  5-MIN K12N 292000Z AUTO VRB05KT 29/17 A3006 450 45 2300 VRB/05 RMK AO1 T02940167
54779K12N 12N20160529150509905/29/16 15:05:31  5-MIN K12N 292005Z AUTO VRB05KT 30/17 A3006 450 44 2300 VRB/05 RMK AO1 T03000167
54779K12N 12N20160529151009905/29/16 15:10:31  5-MIN K12N 292010Z AUTO VRB05KT 30/16 A3006 450 42 2300 VRB/05 RMK AO1 T03000161
54779K12N 12N20160529151509905/29/16 15:15:31  5-MIN K12N 292015Z AUTO 23006KT 30/16 A3006 460 42 2300 240/06 RMK AO1 T03000161
54779K12N 12N20160529152011505/29/16 15:20:31  5-MIN K12N 292020Z AUTO 21008KT 150V240 30/16 A3006 460 41 2300 220/08 160V250 RMK AO1 T03000156
54779K12N 12N20160529152510505/29/16 15:25:31  5-MIN K12N 292025Z AUTO 22011G14KT 30/15 A3006 460 39 2300 230/11G14 RMK AO1 T03000150
54779K12N 12N20160529153010505/29/16 15:30:31  5-MIN K12N 292030Z AUTO 21006G14KT 30/15 A3006 460 39 2300 230/06G14 RMK AO1 T03000150
54779K12N 12N20160529153509905/29/16 15:35:31  5-MIN K12N 292035Z AUTO 21006KT 31/16 A3006 460 39 2400 220/06 RMK AO1 T03060156
54779K12N 12N20160529154009905/29/16 15:40:31  5-MIN K12N 292040Z AUTO VRB05KT 30/14 A3006 460 38 2300 VRB/05 RMK AO1 T03000144
54779K12N 12N20160529154509905/29/16 15:45:31  5-MIN K12N 292045Z AUTO VRB06KT 29/14 A3006 460 39 2300 VRB/06 RMK AO1 T02940144
54779K12N 12N20160529155011205/29/16 15:50:31  5-MIN K12N 292050Z AUTO VRB05KT 30/14 A3006 460 36 2300 VRB/05 RMK AO1 SLP170 T03000139 56015
54779K12N 12N20160529155509905/29/16 15:55:31  5-MIN K12N 292055Z AUTO VRB04KT 30/14 A3006 460 36 2300 VRB/04 RMK AO1 T03000139
54779K12N 12N20160529160009905/29/16 16:00:31  5-MIN K12N 292100Z AUTO VRB06KT 30/13 A3006 460 35 2300 VRB/06 RMK AO1 T03000133
54779K12N 12N20160529160509905/29/16 16:05:31  5-MIN K12N 292105Z AUTO 20007KT 30/12 A3006 460 33 2300 210/07 RMK AO1 T03000122
54779K12N 12N20160529161009905/29/16 16:10:31  5-MIN K12N 292110Z AUTO 21006KT 30/12 A3005 460 31 2300 230/06 RMK AO1 T03000117
54779K12N 12N20160529161509905/29/16 16:15:31  5-MIN K12N 292115Z AUTO VRB05KT 30/12 A3006 460 31 2300 VRB/05 RMK AO1 T03000117
54779K12N 12N20160529162011505/29/16 16:20:31  5-MIN K12N 292120Z AUTO 17007KT 140V230 30/12 A3006 460 31 2300 180/07 150V240 RMK AO1 T03000117
54779K12N 12N20160529162509905/29/16 16:25:31  5-MIN K12N 292125Z AUTO 21006KT 30/11 A3006 460 30 2300 230/06 RMK AO1 T03000111
54779K12N 12N20160529163009905/29/16 16:30:31  5-MIN K12N 292130Z AUTO 19004KT 30/11 A3005 460 30 2300 200/04 RMK AO1 T03000111
54779K12N 12N20160529163509905/29/16 16:35:31  5-MIN K12N 292135Z AUTO VRB05KT 29/11 A3006 460 31 2300 VRB/05 RMK AO1 T02940111
54779K12N 12N20160529164009905/29/16 16:40:31  5-MIN K12N 292140Z AUTO VRB06KT 29/13 A3005 460 35 2300 VRB/06 RMK AO1 T02940128
54779K12N 12N20160529164509905/29/16 16:45:31  5-MIN K12N 292145Z AUTO VRB06KT 29/13 A3005 460 35 2300 VRB/06 RMK AO1 T02940128
54779K12N 12N20160529165010605/29/16 16:50:31  5-MIN K12N 292150Z AUTO 23008KT 30/12 A3005 460 33 2300 240/08 RMK AO1 SLP167 T03000122
54779K12N 12N20160529165509905/29/16 16:55:31  5-MIN K12N 292155Z AUTO 20005KT 29/12 A3005 460 34 2300 210/05 RMK AO1 T02940122
54779K12N 12N20160529170011505/29/16 17:00:31  5-MIN K12N 292200Z AUTO 22008KT 180V240 29/12 A3005 470 34 2300 230/08 190V250 RMK AO1 T02940122
54779K12N 12N20160529170509905/29/16 17:05:31  5-MIN K12N 292205Z AUTO VRB04KT 29/12 A3005 470 33 2300 VRB/04 RMK AO1 T02940117
54779K12N 12N20160529171009905/29/16 17:10:31  5-MIN K12N 292210Z AUTO 22007KT 29/12 A3005 470 34 2300 230/07 RMK AO1 T02940122
54779K12N 12N20160529171509905/29/16 17:15:31  5-MIN K12N 292215Z AUTO VRB04KT 29/13 A3005 470 35 2300 VRB/04 RMK AO1 T02940128
54779K12N 12N20160529172009905/29/16 17:20:31  5-MIN K12N 292220Z AUTO VRB05KT 29/12 A3005 470 34 2300 VRB/05 RMK AO1 T02940122
54779K12N 12N20160529172509905/29/16 17:25:31  5-MIN K12N 292225Z AUTO VRB05KT 29/12 A3005 470 34 2300 VRB/05 RMK AO1 T02940122
54779K12N 12N20160529173009905/29/16 17:30:31  5-MIN K12N 292230Z AUTO VRB06KT 29/12 A3005 470 34 2200 VRB/06 RMK AO1 T02890117
54779K12N 12N20160529173509905/29/16 17:35:31  5-MIN K12N 292235Z AUTO VRB05KT 29/12 A3005 470 35 2200 VRB/05 RMK AO1 T02890122
54779K12N 12N20160529174009905/29/16 17:40:31  5-MIN K12N 292240Z AUTO 22007KT 29/12 A3005 470 35 2200 230/07 RMK AO1 T02890122
54779K12N 12N20160529174509905/29/16 17:45:31  5-MIN K12N 292245Z AUTO VRB05KT 29/12 A3005 470 34 2200 VRB/05 RMK AO1 T02890117
54779K12N 12N20160529175010605/29/16 17:50:31  5-MIN K12N 292250Z AUTO 23006KT 29/12 A3005 470 35 2200 240/06 RMK AO1 SLP166 T02890122
54779K12N 12N20160529175509905/29/16 17:55:31  5-MIN K12N 292255Z AUTO 00000KT 28/13 A3005 470 37 2100 000/00 RMK AO1 T02830128
54779K12N 12N20160529180009905/29/16 18:00:31  5-MIN K12N 292300Z AUTO 00000KT 28/13 A3005 470 40 2100 000/00 RMK AO1 T02780133
54779K12N 12N20160529180509905/29/16 18:05:31  5-MIN K12N 292305Z AUTO 00000KT 28/13 A3005 470 39 2100 000/00 RMK AO1 T02830133
54779K12N 12N20160529181009905/29/16 18:10:31  5-MIN K12N 292310Z AUTO 00000KT 28/14 A3005 470 43 2100 000/00 RMK AO1 T02780144
54779K12N 12N20160529181509905/29/16 18:15:31  5-MIN K12N 292315Z AUTO 00000KT 27/15 A3005 470 46 2000 000/00 RMK AO1 T02720150
54779K12N 12N20160529182009905/29/16 18:20:31  5-MIN K12N 292320Z AUTO 00000KT 27/15 A3005 470 48 2000 000/00 RMK AO1 T02670150
54779K12N 12N20160529182509905/29/16 18:25:31  5-MIN K12N 292325Z AUTO 00000KT 27/16 A3005 470 50 2000 000/00 RMK AO1 T02670156
54779K12N 12N20160529183009905/29/16 18:30:31  5-MIN K12N 292330Z AUTO 00000KT 26/16 A3005 470 53 1900 000/00 RMK AO1 T02610161
54779K12N 12N20160529183509905/29/16 18:35:31  5-MIN K12N 292335Z AUTO 00000KT 26/17 A3005 470 55 1900 000/00 RMK AO1 T02610167
54779K12N 12N20160529184009905/29/16 18:40:31  5-MIN K12N 292340Z AUTO 00000KT 26/17 A3005 460 57 1800 000/00 RMK AO1 T02560167
54779K12N 12N20160529184509905/29/16 18:45:31  5-MIN K12N 292345Z AUTO 00000KT 26/16 A3005 460 55 1800 000/00 RMK AO1 T02560161
54779K12N 12N20160529185012405/29/16 18:50:31  5-MIN K12N 292350Z AUTO 00000KT 26/16 A3005 460 55 1800 000/00 RMK AO1 SLP168 T02560161 10306 20256 56014
54779K12N 12N20160529185509905/29/16 18:55:31  5-MIN K12N 292355Z AUTO 00000KT 25/17 A3005 460 59 1800 000/00 RMK AO1 T02500167
54779K12N 12N20160529190009905/29/16 19:00:31  5-MIN K12N 300000Z AUTO 00000KT 25/17 A3005 460 61 1800 000/00 RMK AO1 T02500172
54779K12N 12N20160529190509905/29/16 19:05:31  5-MIN K12N 300005Z AUTO 00000KT 25/17 A3005 460 61 1800 000/00 RMK AO1 T02500172
54779K12N 12N20160529191009905/29/16 19:10:31  5-MIN K12N 300010Z AUTO 00000KT 24/18 A3005 460 66 1700 000/00 RMK AO1 T02440178
54779K12N 12N20160529191509905/29/16 19:15:31  5-MIN K12N 300015Z AUTO 00000KT 24/17 A3005 460 63 1700 000/00 RMK AO1 T02440172
54779K12N 12N20160529192009905/29/16 19:20:31  5-MIN K12N 300020Z AUTO 00000KT 25/16 A3005 460 57 1800 000/00 RMK AO1 T02500161
54779K12N 12N20160529192509905/29/16 19:25:31  5-MIN K12N 300025Z AUTO 00000KT 24/16 A3005 460 59 1700 000/00 RMK AO1 T02440161
54779K12N 12N20160529193009905/29/16 19:30:31  5-MIN K12N 300030Z AUTO 00000KT 24/16 A3005 460 59 1700 000/00 RMK AO1 T02440161
54779K12N 12N20160529193509905/29/16 19:35:31  5-MIN K12N 300035Z AUTO 00000KT 24/17 A3005 460 63 1600 000/00 RMK AO1 T02390167
54779K12N 12N20160529194009905/29/16 19:40:31  5-MIN K12N 300040Z AUTO 00000KT 24/17 A3005 470 63 1600 000/00 RMK AO1 T02390167
54779K12N 12N20160529194509905/29/16 19:45:31  5-MIN K12N 300045Z AUTO 00000KT 24/17 A3005 460 66 1600 000/00 RMK AO1 T02390172
54779K12N 12N20160529195010605/29/16 19:50:31  5-MIN K12N 300050Z AUTO 00000KT 24/17 A3005 460 63 1600 000/00 RMK AO1 SLP167 T02390167
54779K12N 12N20160529195509905/29/16 19:55:31  5-MIN K12N 300055Z AUTO 00000KT 24/16 A3005 460 61 1600 000/00 RMK AO1 T02390161
54779K12N 12N20160529200009905/29/16 20:00:31  5-MIN K12N 300100Z AUTO 00000KT 24/16 A3005 460 59 1600 000/00 RMK AO1 T02390156
54779K12N 12N20160529200509905/29/16 20:05:31  5-MIN K12N 300105Z AUTO 00000KT 24/16 A3005 460 59 1600 000/00 RMK AO1 T02390156
54779K12N 12N20160529201009905/29/16 20:10:31  5-MIN K12N 300110Z AUTO 00000KT 23/17 A3005 460 68 1600 000/00 RMK AO1 T02330172
54779K12N 12N20160529201509905/29/16 20:15:31  5-MIN K12N 300115Z AUTO 00000KT 23/16 A3006 460 63 1600 000/00 RMK AO1 T02330161
54779K12N 12N20160529202009905/29/16 20:20:31  5-MIN K12N 300120Z AUTO 00000KT 23/17 A3006 460 66 1600 000/00 RMK AO1 T02330167
54779K12N 12N20160529202509905/29/16 20:25:31  5-MIN K12N 300125Z AUTO 00000KT 23/17 A3006 460 68 1600 000/00 RMK AO1 T02330172
54779K12N 12N20160529203009905/29/16 20:30:31  5-MIN K12N 300130Z AUTO 00000KT 23/17 A3006 460 68 1600 000/00 RMK AO1 T02330172
54779K12N 12N20160529203509905/29/16 20:35:31  5-MIN K12N 300135Z AUTO 00000KT 23/17 A3006 460 68 1600 000/00 RMK AO1 T02330172
54779K12N 12N20160529204009905/29/16 20:40:31  5-MIN K12N 300140Z AUTO 00000KT 23/17 A3006 460 66 1600 000/00 RMK AO1 T02330167
54779K12N 12N20160529204509905/29/16 20:45:31  5-MIN K12N 300145Z AUTO 00000KT 23/17 A3006 460 66 1600 000/00 RMK AO1 T02330167
54779K12N 12N20160529205010605/29/16 20:50:31  5-MIN K12N 300150Z AUTO 21003KT 23/17 A3006 450 68 1600 220/03 RMK AO1 SLP172 T02330172
54779K12N 12N20160529205509905/29/16 20:55:31  5-MIN K12N 300155Z AUTO 22004KT 23/17 A3007 450 66 1600 230/04 RMK AO1 T02330167
54779K12N 12N20160529210009905/29/16 21:00:31  5-MIN K12N 300200Z AUTO 21003KT 24/16 A3007 450 59 1600 220/03 RMK AO1 T02390156
54779K12N 12N20160529210509905/29/16 21:05:31  5-MIN K12N 300205Z AUTO 00000KT 24/16 A3007 450 61 1600 000/00 RMK AO1 T02390161
54779K12N 12N20160529211009905/29/16 21:10:31  5-MIN K12N 300210Z AUTO 21003KT 24/16 A3007 450 61 1600 220/03 RMK AO1 T02390161
54779K12N 12N20160529211509905/29/16 21:15:31  5-MIN K12N 300215Z AUTO 20004KT 24/16 A3007 450 61 1600 220/04 RMK AO1 T02390161
54779K12N 12N20160529212009905/29/16 21:20:31  5-MIN K12N 300220Z AUTO 21003KT 24/17 A3006 450 61 1700 220/03 RMK AO1 T02440167
54779K12N 12N20160529212509905/29/16 21:25:31  5-MIN K12N 300225Z AUTO 00000KT 24/17 A3006 450 61 1700 000/00 RMK AO1 T02440167
54779K12N 12N20160529213009905/29/16 21:30:31  5-MIN K12N 300230Z AUTO 00000KT 24/17 A3006 450 63 1600 000/00 RMK AO1 T02390167
54779K12N 12N20160529213509905/29/16 21:35:31  5-MIN K12N 300235Z AUTO 00000KT 24/17 A3006 450 63 1600 000/00 RMK AO1 T02390167
54779K12N 12N20160529214009905/29/16 21:40:31  5-MIN K12N 300240Z AUTO 00000KT 24/17 A3006 450 63 1600 000/00 RMK AO1 T02390167
54779K12N 12N20160529214509905/29/16 21:45:31  5-MIN K12N 300245Z AUTO 20003KT 24/17 A3006 450 66 1600 210/03 RMK AO1 T02390172
54779K12N 12N20160529215011205/29/16 21:50:31  5-MIN K12N 300250Z AUTO 19003KT 24/18 A3006 460 68 1600 200/03 RMK AO1 SLP170 T02390178 55002
54779K12N 12N20160529215509905/29/16 21:55:31  5-MIN K12N 300255Z AUTO 00000KT 24/18 A3006 460 71 1600 000/00 RMK AO1 T02390183
54779K12N 12N20160529220009905/29/16 22:00:31  5-MIN K12N 300300Z AUTO 21004KT 23/18 A3006 450 73 1600 230/04 RMK AO1 T02330183
54779K12N 12N20160529220509905/29/16 22:05:31  5-MIN K12N 300305Z AUTO 22005KT 23/19 A3006 450 76 1600 230/05 RMK AO1 T02330189
54779K12N 12N20160529221009905/29/16 22:10:31  5-MIN K12N 300310Z AUTO 21004KT 23/19 A3006 450 81 1500 230/04 RMK AO1 T02280194
54779K12N 12N20160529221509905/29/16 22:15:31  5-MIN K12N 300315Z AUTO 21003KT 23/19 A3007 450 81 1500 220/03 RMK AO1 T02280194
54779K12N 12N20160529222009905/29/16 22:20:31  5-MIN K12N 300320Z AUTO 22004KT 23/19 A3007 450 81 1500 230/04 RMK AO1 T02280194
54779K12N 12N20160529222509905/29/16 22:25:31  5-MIN K12N 300325Z AUTO 00000KT 23/20 A3007 450 84 1500 000/00 RMK AO1 T02280200
54779K12N 12N20160529223009905/29/16 22:30:31  5-MIN K12N 300330Z AUTO 22003KT 23/20 A3007 450 84 1500 230/03 RMK AO1 T02280200
54779K12N 12N20160529223509905/29/16 22:35:31  5-MIN K12N 300335Z AUTO 00000KT 22/20 A3007 450 87 1400 000/00 RMK AO1 T02220200
54779K12N 12N20160529224009905/29/16 22:40:31  5-MIN K12N 300340Z AUTO 00000KT 22/20 A3007 450 87 1400 000/00 RMK AO1 T02220200
54779K12N 12N20160529224509905/29/16 22:45:31  5-MIN K12N 300345Z AUTO 00000KT 22/20 A3007 450 87 1400 000/00 RMK AO1 T02220200
54779K12N 12N20160529225010605/29/16 22:50:31  5-MIN K12N 300350Z AUTO 00000KT 22/20 A3007 450 87 1400 000/00 RMK AO1 SLP173 T02220200
54779K12N 12N20160529225509905/29/16 22:55:31  5-MIN K12N 300355Z AUTO 00000KT 22/21 A3007 450 90 1400 000/00 RMK AO1 T02220206
54779K12N 12N20160529230009905/29/16 23:00:31  5-MIN K12N 300400Z AUTO 22003KT 22/20 A3007 450 87 1400 240/03 RMK AO1 T02220200
54779K12N 12N20160529230509905/29/16 23:05:31  5-MIN K12N 300405Z AUTO 00000KT 22/20 A3006 450 90 1400 000/00 RMK AO1 T02170200
54779K12N 12N20160529231010505/29/16 23:10:31  5-MIN K12N 300410Z AUTO 23003KT 22/20 A3006 450 90 1400 240/03 RMK AO1 P0001 T02170200
54779K12N 12N20160529231510505/29/16 23:15:31  5-MIN K12N 300415Z AUTO VRB03KT 22/20 A3007 450 90 1400 VRB/03 RMK AO1 P0002 T02170200
54779K12N 12N20160529232010505/29/16 23:20:31  5-MIN K12N 300420Z AUTO 21004KT 22/20 A3007 450 90 1400 230/04 RMK AO1 P0002 T02170200
54779K12N 12N20160529232510505/29/16 23:25:31  5-MIN K12N 300425Z AUTO 00000KT 22/21 A3007 450 93 1400 000/00 RMK AO1 P0002 T02170206
54779K12N 12N20160529233010505/29/16 23:30:31  5-MIN K12N 300430Z AUTO 23006KT 22/20 A3007 450 90 1400 240/06 RMK AO1 P0003 T02170200
54779K12N 12N20160529233510505/29/16 23:35:31  5-MIN K12N 300435Z AUTO 22003KT 21/19 A3007 450 90 1300 230/03 RMK AO1 P0005 T02110194
54779K12N 12N20160529234010505/29/16 23:40:31  5-MIN K12N 300440Z AUTO 23004KT 21/19 A3007 450 90 1300 240/04 RMK AO1 P0005 T02110194
54779K12N 12N20160529234510505/29/16 23:45:31  5-MIN K12N 300445Z AUTO VRB04KT 21/19 A3006 450 90 1300 VRB/04 RMK AO1 P0006 T02110194
54779K12N 12N20160529235012205/29/16 23:50:31  5-MIN K12N 300450Z AUTO 20003KT 21/19 A3006 460 90 1300 210/03 RMK AO1 SLP170 P0007 T02060189 403060183
54779K12N 12N20160529235509905/29/16 23:55:31  5-MIN K12N 300455Z AUTO 00000KT 21/19 A3005 460 90 1300 000/00 RMK AO1 T02060189
54779K12N 12N20160530000010505/30/16 00:00:31  5-MIN K12N 300500Z AUTO 00000KT 21/19 A3005 470 90 1300 000/00 RMK AO1 P0001 T02060189
54779K12N 12N20160530000510505/30/16 00:05:31  5-MIN K12N 300505Z AUTO 00000KT 20/19 A3005 470 93 1200 000/00 RMK AO1 P0002 T02000189
54779K12N 12N20160530001010505/30/16 00:10:31  5-MIN K12N 300510Z AUTO 00000KT 20/19 A3005 470 93 1200 000/00 RMK AO1 P0003 T02000189
54779K12N 12N20160530001510505/30/16 00:15:31  5-MIN K12N 300515Z AUTO 00000KT 20/18 A3005 460 90 1200 000/00 RMK AO1 P0003 T02000183
54779K12N 12N20160530002010505/30/16 00:20:31  5-MIN K12N 300520Z AUTO 00000KT 20/19 A3005 460 93 1200 000/00 RMK AO1 P0004 T02000189
54779K12N 12N20160530002510505/30/16 00:25:31  5-MIN K12N 300525Z AUTO 00000KT 20/18 A3005 460 90 1200 000/00 RMK AO1 P0004 T02000183
54779K12N 12N20160530003010505/30/16 00:30:31  5-MIN K12N 300530Z AUTO 00000KT 20/19 A3005 470 93 1200 000/00 RMK AO1 P0004 T02000189
54779K12N 12N20160530003510505/30/16 00:35:31  5-MIN K12N 300535Z AUTO 00000KT 20/19 A3005 470 93 1200 000/00 RMK AO1 P0004 T02000189
54779K12N 12N20160530004010505/30/16 00:40:31  5-MIN K12N 300540Z AUTO 00000KT 19/19 A3005 470 97 1100 000/00 RMK AO1 P0004 T01940189
54779K12N 12N20160530004510505/30/16 00:45:31  5-MIN K12N 300545Z AUTO 00000KT 19/18 A3005 470 93 1100 000/00 RMK AO1 P0004 T01940183
54779K12N 12N20160530005013605/30/16 00:50:31  5-MIN K12N 300550Z AUTO 00000KT 19/18 A3005 470 93 1100 000/00 RMK AO1 SLP165 P0004 60012 T01940183 10250 20194 50002
54779K12N 12N20160530005509905/30/16 00:55:31  5-MIN K12N 300555Z AUTO 00000KT 19/18 A3004 470 93 1100 000/00 RMK AO1 T01940183
54779K12N 12N20160530010009905/30/16 01:00:31  5-MIN K12N 300600Z AUTO 00000KT 19/18 A3004 470 93 1100 000/00 RMK AO1 T01940183
54779K12N 12N20160530010510505/30/16 01:05:31  5-MIN K12N 300605Z AUTO 00000KT 19/19 A3004 480 97 1100 000/00 RMK AO1 P0001 T01940189
54779K12N 12N20160530011010505/30/16 01:10:31  5-MIN K12N 300610Z AUTO 00000KT 19/19 A3004 480 97 1100 000/00 RMK AO1 P0001 T01940189
54779K12N 12N20160530011510505/30/16 01:15:31  5-MIN K12N 300615Z AUTO 00000KT 19/19 A3003 480 97 1200 000/00 RMK AO1 P0001 T01940189
54779K12N 12N20160530012010505/30/16 01:20:31  5-MIN K12N 300620Z AUTO 00000KT 19/19 A3003 480 97 1200 000/00 RMK AO1 P0001 T01940189
54779K12N 12N20160530012510505/30/16 01:25:31  5-MIN K12N 300625Z AUTO 00000KT 19/18 A3003 480 93 1200 000/00 RMK AO1 P0001 T01940183
54779K12N 12N20160530013010505/30/16 01:30:31  5-MIN K12N 300630Z AUTO 00000KT 19/19 A3003 480 97 1200 000/00 RMK AO1 P0001 T01940189
54779K12N 12N20160530013510505/30/16 01:35:31  5-MIN K12N 300635Z AUTO 00000KT 19/19 A3003 490 97 1200 000/00 RMK AO1 P0002 T01940189
54779K12N 12N20160530014010505/30/16 01:40:31  5-MIN K12N 300640Z AUTO 00000KT 19/19 A3002 490 97 1200 000/00 RMK AO1 P0002 T01940189
54779K12N 12N20160530014510505/30/16 01:45:31  5-MIN K12N 300645Z AUTO 00000KT 19/19 A3002 490 97 1200 000/00 RMK AO1 P0003 T01940189
54779K12N 12N20160530015011205/30/16 01:50:31  5-MIN K12N 300650Z AUTO 00000KT 19/18 A3002 490 93 1200 000/00 RMK AO1 SLP157 P0003 T01940183
54779K12N 12N20160530015509905/30/16 01:55:31  5-MIN K12N 300655Z AUTO 00000KT 19/18 A3002 490 93 1100 000/00 RMK AO1 T01890178
54779K12N 12N20160530020010505/30/16 02:00:31  5-MIN K12N 300700Z AUTO 00000KT 19/18 A3002 490 93 1100 000/00 RMK AO1 P0001 T01890178
54779K12N 12N20160530020510505/30/16 02:05:31  5-MIN K12N 300705Z AUTO 00000KT 18/18 A3002 490 96 1000 000/00 RMK AO1 P0001 T01830178
54779K12N 12N20160530021010505/30/16 02:10:31  5-MIN K12N 300710Z AUTO 00000KT 18/17 A3002 500 93 1000 000/00 RMK AO1 P0001 T01830172
54779K12N 12N20160530021510505/30/16 02:15:31  5-MIN K12N 300715Z AUTO 00000KT 18/17 A3002 500 96 1000 000/00 RMK AO1 P0002 T01780172
54779K12N 12N20160530022010505/30/16 02:20:31  5-MIN K12N 300720Z AUTO 00000KT 18/17 A3001 500 96 1000 000/00 RMK AO1 P0002 T01780172
54779K12N 12N20160530022510505/30/16 02:25:31  5-MIN K12N 300725Z AUTO 00000KT 18/17 A3001 500 96 1000 000/00 RMK AO1 P0002 T01780172
54779K12N 12N20160530023010505/30/16 02:30:31  5-MIN K12N 300730Z AUTO 00000KT 18/17 A3001 500 96 1000 000/00 RMK AO1 P0003 T01780172
54779K12N 12N20160530023510505/30/16 02:35:31  5-MIN K12N 300735Z AUTO 00000KT 18/17 A3001 500 93 1100 000/00 RMK AO1 P0003 T01830172
54779K12N 12N20160530024010505/30/16 02:40:31  5-MIN K12N 300740Z AUTO 00000KT 18/17 A3001 500 93 1000 000/00 RMK AO1 P0003 T01830172
54779K12N 12N20160530024510505/30/16 02:45:31  5-MIN K12N 300745Z AUTO 29003KT 18/17 A3002 490 93 1000 300/03 RMK AO1 P0003 T01830172
54779K12N 12N20160530025011205/30/16 02:50:31  5-MIN K12N 300750Z AUTO 00000KT 18/18 A3002 490 96 1000 000/00 RMK AO1 SLP156 P0003 T01830178
54779K12N 12N20160530025509905/30/16 02:55:31  5-MIN K12N 300755Z AUTO 00000KT 19/18 A3002 500 93 1100 000/00 RMK AO1 T01890178
54779K12N 12N20160530030009905/30/16 03:00:31  5-MIN K12N 300800Z AUTO 00000KT 19/17 A3002 500 90 1100 000/00 RMK AO1 T01890172
54779K12N 12N20160530030509905/30/16 03:05:31  5-MIN K12N 300805Z AUTO 00000KT 18/17 A3001 500 93 1000 000/00 RMK AO1 T01830172
54779K12N 12N20160530031009905/30/16 03:10:31  5-MIN K12N 300810Z AUTO 00000KT 18/18 A3002 500 96 1000 000/00 RMK AO1 T01830178
54779K12N 12N20160530031509905/30/16 03:15:31  5-MIN K12N 300815Z AUTO 00000KT 18/18 A3001 500 96 1000 000/00 RMK AO1 T01830178
54779K12N 12N20160530032009905/30/16 03:20:31  5-MIN K12N 300820Z AUTO 00000KT 18/18 A3001 500 96 1000 000/00 RMK AO1 T01830178
54779K12N 12N20160530032509905/30/16 03:25:31  5-MIN K12N 300825Z AUTO 00000KT 18/18 A3001 500 96 1000 000/00 RMK AO1 T01830178
54779K12N 12N20160530033009905/30/16 03:30:31  5-MIN K12N 300830Z AUTO 00000KT 18/18 A3001 500 96 1000 000/00 RMK AO1 T01830178
54779K12N 12N20160530033509905/30/16 03:35:31  5-MIN K12N 300835Z AUTO 00000KT 18/17 A3002 500 93 1000 000/00 RMK AO1 T01830172
54779K12N 12N20160530034009905/30/16 03:40:31  5-MIN K12N 300840Z AUTO 00000KT 18/17 A3001 500 93 1000 000/00 RMK AO1 T01830172
54779K12N 12N20160530034509905/30/16 03:45:31  5-MIN K12N 300845Z AUTO 00000KT 18/17 A3001 500 93 1000 000/00 RMK AO1 T01830172
54779K12N 12N20160530035011805/30/16 03:50:31  5-MIN K12N 300850Z AUTO 00000KT 18/17 A3001 500 93 1000 000/00 RMK AO1 SLP154 60006 T01830172 58005
54779K12N 12N20160530035509905/30/16 03:55:31  5-MIN K12N 300855Z AUTO 00000KT 18/17 A3001 500 93 1000 000/00 RMK AO1 T01830172
54779K12N 12N20160530040009905/30/16 04:00:31  5-MIN K12N 300900Z AUTO 00000KT 18/17 A3001 500 93 1000 000/00 RMK AO1 T01830172
54779K12N 12N20160530040509905/30/16 04:05:31  5-MIN K12N 300905Z AUTO 00000KT 18/17 A3001 500 90 1000 000/00 RMK AO1 T01830167
54779K12N 12N20160530041009905/30/16 04:10:31  5-MIN K12N 300910Z AUTO 00000KT 18/17 A3002 500 90 1000 000/00 RMK AO1 T01830167
54779K12N 12N20160530041509905/30/16 04:15:31  5-MIN K12N 300915Z AUTO 00000KT 18/17 A3001 500 90 1000 000/00 RMK AO1 T01830167
54779K12N 12N20160530042009905/30/16 04:20:31  5-MIN K12N 300920Z AUTO 05003KT 18/17 A3002 500 93 1000 060/03 RMK AO1 T01830172
54779K12N 12N20160530042509905/30/16 04:25:31  5-MIN K12N 300925Z AUTO 04003KT 18/17 A3001 500 93 1000 060/03 RMK AO1 T01830172
54779K12N 12N20160530043009905/30/16 04:30:31  5-MIN K12N 300930Z AUTO VRB03KT 18/17 A3001 500 93 1000 VRB/03 RMK AO1 T01830172
54779K12N 12N20160530043509905/30/16 04:35:31  5-MIN K12N 300935Z AUTO 00000KT 18/17 A3001 500 93 1000 000/00 RMK AO1 T01830172
54779K12N 12N20160530044010505/30/16 04:40:31  5-MIN K12N 300940Z AUTO 36004KT 18/17 A3002 500 96 1000 010/04 RMK AO1 P0001 T01780172
54779K12N 12N20160530044510505/30/16 04:45:31  5-MIN K12N 300945Z AUTO 00000KT 18/17 A3001 500 93 1000 000/00 RMK AO1 P0003 T01780167
54779K12N 12N20160530045011205/30/16 04:50:31  5-MIN K12N 300950Z AUTO 04003KT 18/17 A3001 500 96 1000 060/03 RMK AO1 SLP154 P0004 T01780172
54779K12N 12N20160530045509905/30/16 04:55:31  5-MIN K12N 300955Z AUTO 05003KT 18/17 A3001 500 96 1000 060/03 RMK AO1 T01780172
54779K12N 12N20160530050009905/30/16 05:00:31  5-MIN K12N 301000Z AUTO 00000KT 18/17 A3002 500 96 1000 000/00 RMK AO1 T01780172
54779K12N 12N20160530050509905/30/16 05:05:31  5-MIN K12N 301005Z AUTO 00000KT 18/17 A3002 500 96 1000 000/00 RMK AO1 T01780172
54779K12N 12N20160530051010505/30/16 05:10:31  5-MIN K12N 301010Z AUTO 00000KT 18/17 A3002 490 96 1000 000/00 RMK AO1 P0001 T01780172
54779K12N 12N20160530051510505/30/16 05:15:31  5-MIN K12N 301015Z AUTO 00000KT 18/17 A3002 500 96 1000 000/00 RMK AO1 P0001 T01780172
54779K12N 12N20160530052010505/30/16 05:20:31  5-MIN K12N 301020Z AUTO 00000KT 18/17 A3002 490 96 1000 000/00 RMK AO1 P0002 T01780172
54779K12N 12N20160530052510505/30/16 05:25:31  5-MIN K12N 301025Z AUTO 33003KT 18/17 A3002 490 96 1000 340/03 RMK AO1 P0002 T01780172
54779K12N 12N20160530053010505/30/16 05:30:31  5-MIN K12N 301030Z AUTO 33003KT 18/17 A3002 490 93 1000 340/03 RMK AO1 P0002 T01780167
54779K12N 12N20160530053510505/30/16 05:35:31  5-MIN K12N 301035Z AUTO 35004KT 18/17 A3002 490 93 1000 360/04 RMK AO1 P0002 T01780167
54779K12N 12N20160530054010505/30/16 05:40:31  5-MIN K12N 301040Z AUTO 35004KT 18/17 A3002 490 93 1000 360/04 RMK AO1 P0002 T01780167
54779K12N 12N20160530054510505/30/16 05:45:31  5-MIN K12N 301045Z AUTO 36003KT 18/17 A3002 490 96 1000 010/03 RMK AO1 P0002 T01780172
54779K12N 12N20160530055011205/30/16 05:50:31  5-MIN K12N 301050Z AUTO 35004KT 18/17 A3002 490 93 1000 010/04 RMK AO1 SLP157 P0002 T01780167
54779K12N 12N20160530055509905/30/16 05:55:31  5-MIN K12N 301055Z AUTO 34003KT 18/17 A3002 490 93 1000 360/03 RMK AO1 T01780167
54779K12N 12N20160530060009905/30/16 06:00:31  5-MIN K12N 301100Z AUTO 35003KT 18/17 A3002 490 93 1000 010/03 RMK AO1 T01780167
54779K12N 12N20160530060509905/30/16 06:05:31  5-MIN K12N 301105Z AUTO 00000KT 18/17 A3002 490 93 1000 000/00 RMK AO1 T01780167
54779K12N 12N20160530061009905/30/16 06:10:31  5-MIN K12N 301110Z AUTO 35003KT 18/17 A3002 490 93 1000 360/03 RMK AO1 T01780167
54779K12N 12N20160530061509905/30/16 06:15:31  5-MIN K12N 301115Z AUTO 00000KT 18/17 A3002 490 93 1000 000/00 RMK AO1 T01780167
54779K12N 12N20160530062009905/30/16 06:20:31  5-MIN K12N 301120Z AUTO 00000KT 18/17 A3002 490 93 1000 000/00 RMK AO1 T01780167
54779K12N 12N20160530062509905/30/16 06:25:31  5-MIN K12N 301125Z AUTO 00000KT 18/17 A3002 490 93 1000 000/00 RMK AO1 T01780167
54779K12N 12N20160530063009905/30/16 06:30:31  5-MIN K12N 301130Z AUTO 00000KT 18/17 A3003 490 93 1000 000/00 RMK AO1 T01780167
54779K12N 12N20160530063509905/30/16 06:35:31  5-MIN K12N 301135Z AUTO 00000KT 18/17 A3003 490 93 1000 000/00 RMK AO1 T01830172
54779K12N 12N20160530064009905/30/16 06:40:31  5-MIN K12N 301140Z AUTO 00000KT 18/17 A3003 490 93 1000 000/00 RMK AO1 T01830172
54779K12N 12N20160530064509905/30/16 06:45:31  5-MIN K12N 301145Z AUTO 00000KT 18/17 A3002 490 93 1000 000/00 RMK AO1 T01830172
54779K12N 12N20160530065013605/30/16 06:50:31  5-MIN K12N 301150Z AUTO 00000KT 19/17 A3002 490 87 1100 000/00 RMK AO1 SLP159 60013 70025 T01890167 10194 20178 56012
54779K12N 12N20160530065509905/30/16 06:55:31  5-MIN K12N 301155Z AUTO 00000KT 19/17 A3002 490 90 1100 000/00 RMK AO1 T01890172
54779K12N 12N20160530070009905/30/16 07:00:31  5-MIN K12N 301200Z AUTO 00000KT 19/17 A3002 490 87 1200 000/00 RMK AO1 T01940172
54779K12N 12N20160530070509905/30/16 07:05:31  5-MIN K12N 301205Z AUTO 00000KT 19/17 A3002 490 87 1200 000/00 RMK AO1 T01940172
54779K12N 12N20160530071009905/30/16 07:10:31  5-MIN K12N 301210Z AUTO 00000KT 19/17 A3002 490 87 1200 000/00 RMK AO1 T01940172
54779K12N 12N20160530071509905/30/16 07:15:31  5-MIN K12N 301215Z AUTO 00000KT 19/18 A3002 490 90 1200 000/00 RMK AO1 T01940178
54779K12N 12N20160530072009905/30/16 07:20:31  5-MIN K12N 301220Z AUTO 00000KT 19/17 A3002 500 90 1100 000/00 RMK AO1 T01890172
54779K12N 12N20160530072509905/30/16 07:25:31  5-MIN K12N 301225Z AUTO 00000KT 19/18 A3002 490 90 1200 000/00 RMK AO1 T01940178
54779K12N 12N20160530073009905/30/16 07:30:31  5-MIN K12N 301230Z AUTO 19003KT 19/18 A3002 490 90 1200 210/03 RMK AO1 T01940178
54779K12N 12N20160530073509905/30/16 07:35:31  5-MIN K12N 301235Z AUTO 00000KT 19/18 A3002 490 90 1200 000/00 RMK AO1 T01940178
54779K12N 12N20160530074009905/30/16 07:40:31  5-MIN K12N 301240Z AUTO 00000KT 20/18 A3002 490 87 1200 000/00 RMK AO1 T02000178
54779K12N 12N20160530074509905/30/16 07:45:31  5-MIN K12N 301245Z AUTO 00000KT 20/18 A3002 490 87 1200 000/00 RMK AO1 T02000178
54779K12N 12N20160530075010605/30/16 07:50:31  5-MIN K12N 301250Z AUTO 15003KT 19/17 A3003 490 87 1200 170/03 RMK AO1 SLP161 T01940172
54779K12N 12N20160530075509905/30/16 07:55:31  5-MIN K12N 301255Z AUTO VRB03KT 20/18 A3003 490 87 1200 VRB/03 RMK AO1 T02000178
54779K12N 12N20160530080009905/30/16 08:00:31  5-MIN K12N 301300Z AUTO 22003KT 19/18 A3003 480 90 1200 240/03 RMK AO1 T01940178
54779K12N 12N20160530080509905/30/16 08:05:31  5-MIN K12N 301305Z AUTO 21003KT 20/18 A3003 480 87 1200 220/03 RMK AO1 T02000178
54779K12N 12N20160530081009905/30/16 08:10:31  5-MIN K12N 301310Z AUTO 00000KT 19/17 A3003 480 87 1200 000/00 RMK AO1 T01940172
54779K12N 12N20160530081509905/30/16 08:15:31  5-MIN K12N 301315Z AUTO 00000KT 19/17 A3003 480 87 1200 000/00 RMK AO1 T01940172
54779K12N 12N20160530082009905/30/16 08:20:31  5-MIN K12N 301320Z AUTO 00000KT 20/18 A3003 480 87 1200 000/00 RMK AO1 T02000178
54779K12N 12N20160530082509905/30/16 08:25:31  5-MIN K12N 301325Z AUTO 00000KT 19/18 A3003 480 90 1200 000/00 RMK AO1 T01940178
54779K12N 12N20160530083009905/30/16 08:30:31  5-MIN K12N 301330Z AUTO 00000KT 20/18 A3003 480 87 1200 000/00 RMK AO1 T02000178
54779K12N 12N20160530083509905/30/16 08:35:31  5-MIN K12N 301335Z AUTO 00000KT 20/18 A3003 480 87 1200 000/00 RMK AO1 T02000178
54779K12N 12N20160530084009905/30/16 08:40:31  5-MIN K12N 301340Z AUTO 00000KT 20/18 A3003 480 87 1200 000/00 RMK AO1 T02000178
54779K12N 12N20160530084509905/30/16 08:45:31  5-MIN K12N 301345Z AUTO 00000KT 20/18 A3003 490 87 1200 000/00 RMK AO1 T02000178
54779K12N 12N20160530085010605/30/16 08:50:31  5-MIN K12N 301350Z AUTO 00000KT 20/18 A3002 490 87 1200 000/00 RMK AO1 SLP160 T02000178
54779K12N 12N20160530085509905/30/16 08:55:31  5-MIN K12N 301355Z AUTO 00000KT 20/18 A3002 490 87 1200 000/00 RMK AO1 T02000178
54779K12N 12N20160530090009905/30/16 09:00:31  5-MIN K12N 301400Z AUTO 00000KT 20/18 A3002 490 87 1200 000/00 RMK AO1 T02000178
54779K12N 12N20160530090509905/30/16 09:05:31  5-MIN K12N 301405Z AUTO VRB03KT 20/18 A3002 490 87 1200 VRB/03 RMK AO1 T02000178
54779K12N 12N20160530091009905/30/16 09:10:31  5-MIN K12N 301410Z AUTO 00000KT 21/18 A3002 490 87 1300 000/00 RMK AO1 T02060183
54779K12N 12N20160530091509905/30/16 09:15:31  5-MIN K12N 301415Z AUTO 22003KT 21/18 A3002 490 87 1300 240/03 RMK AO1 T02060183
54779K12N 12N20160530092009905/30/16 09:20:31  5-MIN K12N 301420Z AUTO 21003KT 21/18 A3002 490 87 1300 220/03 RMK AO1 T02060183
54779K12N 12N20160530092509905/30/16 09:25:31  5-MIN K12N 301425Z AUTO 21003KT 21/18 A3002 500 87 1300 230/03 RMK AO1 T02060183
54779K12N 12N20160530093009905/30/16 09:30:31  5-MIN K12N 301430Z AUTO 00000KT 21/19 A3002 500 87 1400 000/00 RMK AO1 T02110189
54779K12N 12N20160530093509905/30/16 09:35:31  5-MIN K12N 301435Z AUTO 00000KT 21/18 A3001 500 84 1400 000/00 RMK AO1 T02110183
54779K12N 12N20160530094009905/30/16 09:40:31  5-MIN K12N 301440Z AUTO 00000KT 22/19 A3001 500 84 1400 000/00 RMK AO1 T02170189
54779K12N 12N20160530094509905/30/16 09:45:31  5-MIN K12N 301445Z AUTO 22003KT 21/18 A3001 510 84 1400 230/03 RMK AO1 T02110183
54779K12N 12N20160530095011205/30/16 09:50:31  5-MIN K12N 301450Z AUTO 00000KT 21/18 A3001 510 84 1400 000/00 RMK AO1 SLP153 T02110183 52004
54779K12N 12N20160530095509905/30/16 09:55:31  5-MIN K12N 301455Z AUTO 22004KT 23/19 A3001 510 78 1600 240/04 RMK AO1 T02280189
54779K12N 12N20160530100009905/30/16 10:00:31  5-MIN K12N 301500Z AUTO 22005KT 22/18 A3001 510 78 1500 230/05 RMK AO1 T02220183
54779K12N 12N20160530100509905/30/16 10:05:31  5-MIN K12N 301505Z AUTO 23003KT 22/18 A3000 510 78 1500 240/03 RMK AO1 T02220183
54779K12N 12N20160530101009905/30/16 10:10:31  5-MIN K12N 301510Z AUTO 22005KT 22/18 A3000 510 78 1500 240/05 RMK AO1 T02220183
54779K12N 12N20160530101509905/30/16 10:15:31  5-MIN K12N 301515Z AUTO VRB03KT 22/18 A3000 510 78 1500 VRB/03 RMK AO1 T02220183
54779K12N 12N20160530102009905/30/16 10:20:31  5-MIN K12N 301520Z AUTO 00000KT 23/19 A3000 510 78 1600 000/00 RMK AO1 T02280189
54779K12N 12N20160530102509905/30/16 10:25:31  5-MIN K12N 301525Z AUTO 00000KT 23/18 A3000 510 76 1600 000/00 RMK AO1 T02280183
54779K12N 12N20160530103009905/30/16 10:30:31  5-MIN K12N 301530Z AUTO 00000KT 23/19 A3000 510 78 1600 000/00 RMK AO1 T02280189
54779K12N 12N20160530103509905/30/16 10:35:31  5-MIN K12N 301535Z AUTO 00000KT 23/19 A3000 510 78 1600 000/00 RMK AO1 T02280189
54779K12N 12N20160530104009905/30/16 10:40:31  5-MIN K12N 301540Z AUTO 19004KT 23/19 A3000 510 78 1600 210/04 RMK AO1 T02280189
54779K12N 12N20160530104509905/30/16 10:45:31  5-MIN K12N 301545Z AUTO VRB04KT 23/19 A3000 520 76 1600 VRB/04 RMK AO1 T02330189
54779K12N 12N20160530105010605/30/16 10:50:31  5-MIN K12N 301550Z AUTO VRB05KT 23/19 A2999 520 76 1600 VRB/05 RMK AO1 SLP149 T02330189
54779K12N 12N20160530105509905/30/16 10:55:31  5-MIN K12N 301555Z AUTO 00000KT 23/18 A2999 520 73 1600 000/00 RMK AO1 T02330183
54779K12N 12N20160530110009905/30/16 11:00:31  5-MIN K12N 301600Z AUTO VRB03KT 24/18 A2999 520 71 1700 VRB/03 RMK AO1 T02390183
54779K12N 12N20160530110509905/30/16 11:05:31  5-MIN K12N 301605Z AUTO VRB05KT 23/19 A2999 520 76 1600 VRB/05 RMK AO1 T02330189
54779K12N 12N20160530111009905/30/16 11:10:31  5-MIN K12N 301610Z AUTO 00000KT 24/19 A2999 520 73 1700 000/00 RMK AO1 T02390189
54779K12N 12N20160530111509905/30/16 11:15:31  5-MIN K12N 301615Z AUTO VRB04KT 24/18 A2998 530 68 1800 VRB/04 RMK AO1 T02440183
54779K12N 12N20160530112009905/30/16 11:20:31  5-MIN K12N 301620Z AUTO 00000KT 24/18 A2998 530 68 1800 000/00 RMK AO1 T02440183
54779K12N 12N20160530112509905/30/16 11:25:31  5-MIN K12N 301625Z AUTO 29005KT 25/18 A2998 530 66 1800 310/05 RMK AO1 T02500183
54779K12N 12N20160530113009905/30/16 11:30:31  5-MIN K12N 301630Z AUTO VRB03KT 25/18 A2998 530 66 1800 VRB/03 RMK AO1 T02500183
54779K12N 12N20160530113509905/30/16 11:35:31  5-MIN K12N 301635Z AUTO 22005KT 25/19 A2998 530 68 1900 230/05 RMK AO1 T02500189
54779K12N 12N20160530114009905/30/16 11:40:31  5-MIN K12N 301640Z AUTO 15003KT 24/18 A2997 540 66 1800 160/03 RMK AO1 T02440178
54779K12N 12N20160530114509905/30/16 11:45:31  5-MIN K12N 301645Z AUTO VRB03KT 24/18 A2997 530 66 1800 VRB/03 RMK AO1 T02440178
54779K12N 12N20160530115010605/30/16 11:50:31  5-MIN K12N 301650Z AUTO VRB03KT 25/18 A2997 540 66 1900 VRB/03 RMK AO1 SLP142 T02500183
54779K12N 12N20160530115509905/30/16 11:55:31  5-MIN K12N 301655Z AUTO 23005KT 26/18 A2997 540 64 1900 240/05 RMK AO1 T02560183
54779K12N 12N20160530120009905/30/16 12:00:31  5-MIN K12N 301700Z AUTO VRB03KT 26/18 A2997 540 61 1900 VRB/03 RMK AO1 T02560178
54779K12N 12N20160530120509905/30/16 12:05:31  5-MIN K12N 301705Z AUTO VRB03KT 26/18 A2997 540 64 1900 VRB/03 RMK AO1 T02560183
54779K12N 12N20160530121009905/30/16 12:10:31  5-MIN K12N 301710Z AUTO VRB05KT 26/18 A2997 540 61 1900 VRB/05 RMK AO1 T02560178
54779K12N 12N20160530121509905/30/16 12:15:31  5-MIN K12N 301715Z AUTO VRB04KT 26/17 A2997 540 57 2000 VRB/04 RMK AO1 T02610172
54779K12N 12N20160530122009905/30/16 12:20:31  5-MIN K12N 301720Z AUTO VRB06KT 26/18 A2997 540 59 2000 VRB/06 RMK AO1 T02610178
54779K12N 12N20160530122509905/30/16 12:25:31  5-MIN K12N 301725Z AUTO VRB04KT 26/18 A2997 540 59 2000 VRB/04 RMK AO1 T02610178
54779K12N 12N20160530123009905/30/16 12:30:31  5-MIN K12N 301730Z AUTO 25004KT 27/18 A2997 540 57 2100 260/04 RMK AO1 T02670178
54779K12N 12N20160530123509905/30/16 12:35:31  5-MIN K12N 301735Z AUTO VRB06KT 26/18 A2997 540 59 2000 VRB/06 RMK AO1 T02610178
54779K12N 12N20160530124009905/30/16 12:40:31  5-MIN K12N 301740Z AUTO 24005KT 26/17 A2996 550 57 2000 250/05 RMK AO1 T02610172
54779K12N 12N20160530124509905/30/16 12:45:31  5-MIN K12N 301745Z AUTO VRB04KT 27/18 A2996 550 57 2100 VRB/04 RMK AO1 T02670178
54779K12N 12N20160530125012405/30/16 12:50:31  5-MIN K12N 301750Z AUTO VRB04KT 27/18 A2996 550 60 2100 VRB/04 RMK AO1 SLP137 T02670183 10267 20189 58005
54779K12N 12N20160530125509905/30/16 12:55:31  5-MIN K12N 301755Z AUTO 22006KT 27/18 A2996 550 57 2100 230/06 RMK AO1 T02670178
54779K12N 12N20160530130009905/30/16 13:00:31  5-MIN K12N 301800Z AUTO 00000KT 27/18 A2996 550 57 2100 000/00 RMK AO1 T02670178
54779K12N 12N20160530130509905/30/16 13:05:31  5-MIN K12N 301805Z AUTO 19004KT 27/18 A2995 550 57 2100 200/04 RMK AO1 T02670178
54779K12N 12N20160530131009905/30/16 13:10:31  5-MIN K12N 301810Z AUTO VRB03KT 27/18 A2995 550 57 2100 VRB/03 RMK AO1 T02670178
54779K12N 12N20160530131509905/30/16 13:15:31  5-MIN K12N 301815Z AUTO VRB03KT 27/17 A2995 560 55 2100 VRB/03 RMK AO1 T02670172
54779K12N 12N20160530132009905/30/16 13:20:31  5-MIN K12N 301820Z AUTO VRB06KT 27/17 A2995 550 55 2100 VRB/06 RMK AO1 T02670172
54779K12N 12N20160530132509905/30/16 13:25:31  5-MIN K12N 301825Z AUTO 22006KT 27/17 A2995 560 53 2100 240/06 RMK AO1 T02670167
54779K12N 12N20160530133009905/30/16 13:30:31  5-MIN K12N 301830Z AUTO 19003KT 27/17 A2995 560 54 2100 210/03 RMK AO1 T02720172
54779K12N 12N20160530133509905/30/16 13:35:31  5-MIN K12N 301835Z AUTO VRB03KT 27/17 A2995 560 54 2100 VRB/03 RMK AO1 T02720172
54779K12N 12N20160530134008905/30/16 13:40:31  5-MIN K12N 301840Z AUTO 27/17 A2995 560 52 2100 M /M RMK AO1 T02720167
54779K12N 12N20160530134509905/30/16 13:45:31  5-MIN K12N 301845Z AUTO 24005KT 28/17 A2995 560 52 2200 250/05 RMK AO1 T02780172
54779K12N 12N20160530135010605/30/16 13:50:31  5-MIN K12N 301850Z AUTO VRB04KT 28/17 A2995 560 52 2200 VRB/04 RMK AO1 SLP133 T02780172
54779K12N 12N20160530135509905/30/16 13:55:31  5-MIN K12N 301855Z AUTO VRB05KT 27/17 A2995 560 54 2100 VRB/05 RMK AO1 T02720172
54779K12N 12N20160530140009905/30/16 14:00:31  5-MIN K12N 301900Z AUTO VRB03KT 28/17 A2994 560 50 2200 VRB/03 RMK AO1 T02780167
54779K12N 12N20160530140509905/30/16 14:05:31  5-MIN K12N 301905Z AUTO 21005KT 28/17 A2994 560 52 2200 220/05 RMK AO1 T02780172
54779K12N 12N20160530141009905/30/16 14:10:31  5-MIN K12N 301910Z AUTO VRB04KT 28/18 A2994 560 54 2200 VRB/04 RMK AO1 T02780178
54779K12N 12N20160530141509905/30/16 14:15:31  5-MIN K12N 301915Z AUTO 20006KT 28/18 A2994 560 54 2200 220/06 RMK AO1 T02780178
54779K12N 12N20160530142009905/30/16 14:20:31  5-MIN K12N 301920Z AUTO 21006KT 28/18 A2994 560 52 2300 230/06 RMK AO1 T02830178
54779K12N 12N20160530142509905/30/16 14:25:31  5-MIN K12N 301925Z AUTO VRB04KT 28/17 A2994 560 52 2200 VRB/04 RMK AO1 T02780172
54779K12N 12N20160530143009905/30/16 14:30:31  5-MIN K12N 301930Z AUTO 21008KT 28/17 A2994 570 52 2200 220/08 RMK AO1 T02780172
54779K12N 12N20160530143509905/30/16 14:35:31  5-MIN K12N 301935Z AUTO VRB05KT 27/17 A2994 570 54 2100 VRB/05 RMK AO1 T02720172
54779K12N 12N20160530144009905/30/16 14:40:31  5-MIN K12N 301940Z AUTO 22006KT 27/17 A2994 570 54 2100 230/06 RMK AO1 T02720172
54779K12N 12N20160530144509905/30/16 14:45:31  5-MIN K12N 301945Z AUTO VRB06KT 28/17 A2994 570 52 2200 VRB/06 RMK AO1 T02780172
54779K12N 12N20160530145010605/30/16 14:50:31  5-MIN K12N 301950Z AUTO VRB05KT 28/17 A2994 570 50 2300 VRB/05 RMK AO1 SLP129 T02830172
54779K12N 12N20160530145509905/30/16 14:55:31  5-MIN K12N 301955Z AUTO 22006KT 28/17 A2994 570 52 2200 230/06 RMK AO1 T02780172
54779K12N 12N20160530150009905/30/16 15:00:31  5-MIN K12N 302000Z AUTO VRB05KT 28/17 A2993 580 50 2300 VRB/05 RMK AO1 T02830172
54779K12N 12N20160530150509905/30/16 15:05:31  5-MIN K12N 302005Z AUTO 22007KT 28/17 A2993 580 52 2200 240/07 RMK AO1 T02780172
54779K12N 12N20160530151009905/30/16 15:10:31  5-MIN K12N 302010Z AUTO 23006KT 28/17 A2993 580 52 2200 250/06 RMK AO1 T02780172
54779K12N 12N20160530151509905/30/16 15:15:31  5-MIN K12N 302015Z AUTO VRB04KT 28/17 A2993 580 52 2200 VRB/04 RMK AO1 T02780172
54779K12N 12N20160530152009905/30/16 15:20:31  5-MIN K12N 302020Z AUTO 23005KT 28/17 A2992 580 50 2300 240/05 RMK AO1 T02830172
54779K12N 12N20160530152509905/30/16 15:25:31  5-MIN K12N 302025Z AUTO 22006KT 28/17 A2992 580 50 2300 230/06 RMK AO1 T02830172
54779K12N 12N20160530153009905/30/16 15:30:31  5-MIN K12N 302030Z AUTO 20005KT 28/17 A2992 580 50 2200 220/05 RMK AO1 T02780167
54779K12N 12N20160530153509905/30/16 15:35:31  5-MIN K12N 302035Z AUTO 22008KT 28/17 A2992 580 50 2200 230/08 RMK AO1 T02780167
54779K12N 12N20160530154009905/30/16 15:40:31  5-MIN K12N 302040Z AUTO 23006KT 28/17 A2992 580 50 2200 240/06 RMK AO1 T02780167
54779K12N 12N20160530154509905/30/16 15:45:31  5-MIN K12N 302045Z AUTO 23009KT 28/17 A2993 580 50 2200 240/09 RMK AO1 T02780167
54779K12N 12N20160530155011205/30/16 15:50:31  5-MIN K12N 302050Z AUTO VRB05KT 28/17 A2992 580 50 2200 VRB/05 RMK AO1 SLP125 T02780167 58016
54779K12N 12N20160530155509905/30/16 15:55:31  5-MIN K12N 302055Z AUTO 22007KT 28/17 A2993 580 50 2200 240/07 RMK AO1 T02780167
54779K12N 12N20160530160009905/30/16 16:00:31  5-MIN K12N 302100Z AUTO 23006KT 27/16 A2993 580 50 2200 240/06 RMK AO1 T02720161
54779K12N 12N20160530160509905/30/16 16:05:31  5-MIN K12N 302105Z AUTO 22007KT 28/16 A2993 580 46 2200 230/07 RMK AO1 T02780156
54779K12N 12N20160530161009905/30/16 16:10:31  5-MIN K12N 302110Z AUTO 21007KT 28/16 A2993 580 46 2200 230/07 RMK AO1 T02780156
54779K12N 12N20160530161509905/30/16 16:15:31  5-MIN K12N 302115Z AUTO 21007KT 28/16 A2993 580 46 2200 230/07 RMK AO1 T02780156
54779K12N 12N20160530162009905/30/16 16:20:31  5-MIN K12N 302120Z AUTO VRB05KT 28/16 A2993 580 48 2200 VRB/05 RMK AO1 T02780161
54779K12N 12N20160530162509905/30/16 16:25:31  5-MIN K12N 302125Z AUTO VRB05KT 27/17 A2993 580 54 2200 VRB/05 RMK AO1 T02720172
54779K12N 12N20160530163009905/30/16 16:30:31  5-MIN K12N 302130Z AUTO VRB05KT 27/18 A2993 580 56 2200 VRB/05 RMK AO1 T02720178
54779K12N 12N20160530163509905/30/16 16:35:31  5-MIN K12N 302135Z AUTO VRB04KT 28/18 A2993 580 54 2200 VRB/04 RMK AO1 T02780178
54779K12N 12N20160530164009905/30/16 16:40:31  5-MIN K12N 302140Z AUTO VRB06KT 27/17 A2992 580 54 2200 VRB/06 RMK AO1 T02720172
54779K12N 12N20160530164509905/30/16 16:45:31  5-MIN K12N 302145Z AUTO 22006KT 28/18 A2992 580 54 2200 230/06 RMK AO1 T02780178
54779K12N 12N20160530165010605/30/16 16:50:31  5-MIN K12N 302150Z AUTO 21007KT 27/17 A2992 580 54 2200 230/07 RMK AO1 SLP124 T02720172
54779K12N 12N20160530165509905/30/16 16:55:31  5-MIN K12N 302155Z AUTO 22008KT 27/17 A2992 580 54 2200 230/08 RMK AO1 T02720172
54779K12N 12N20160530170011505/30/16 17:00:31  5-MIN K12N 302200Z AUTO 21007KT 160V240 27/17 A2992 580 54 2200 220/07 170V250 RMK AO1 T02720172
54779K12N 12N20160530170509905/30/16 17:05:31  5-MIN K12N 302205Z AUTO VRB06KT 27/17 A2992 580 53 2100 VRB/06 RMK AO1 T02670167
54779K12N 12N20160530171009905/30/16 17:10:31  5-MIN K12N 302210Z AUTO 22007KT 27/17 A2992 590 53 2100 230/07 RMK AO1 T02670167
54779K12N 12N20160530171509905/30/16 17:15:31  5-MIN K12N 302215Z AUTO VRB03KT 27/17 A2992 590 55 2100 VRB/03 RMK AO1 T02670172
54779K12N 12N20160530172009905/30/16 17:20:31  5-MIN K12N 302220Z AUTO VRB03KT 27/18 A2992 590 57 2100 VRB/03 RMK AO1 T02670178
54779K12N 12N20160530172509905/30/16 17:25:31  5-MIN K12N 302225Z AUTO VRB03KT 27/18 A2992 580 57 2100 VRB/03 RMK AO1 T02670178
54779K12N 12N20160530173009905/30/16 17:30:31  5-MIN K12N 302230Z AUTO 00000KT 27/18 A2993 580 57 2100 000/00 RMK AO1 T02670178
54779K12N 12N20160530173509905/30/16 17:35:31  5-MIN K12N 302235Z AUTO VRB03KT 26/18 A2993 580 59 2000 VRB/03 RMK AO1 T02610178
54779K12N 12N20160530174009905/30/16 17:40:31  5-MIN K12N 302240Z AUTO VRB03KT 26/17 A2993 570 57 2000 VRB/03 RMK AO1 T02610172
54779K12N 12N20160530174509905/30/16 17:45:31  5-MIN K12N 302245Z AUTO 16003KT 26/18 A2993 570 64 2000 170/03 RMK AO1 T02560183
54779K12N 12N20160530175010605/30/16 17:50:31  5-MIN K12N 302250Z AUTO 00000KT 25/18 A2994 570 66 1900 000/00 RMK AO1 SLP130 T02500183
54779K12N 12N20160530175509905/30/16 17:55:31  5-MIN K12N 302255Z AUTO 00000KT 26/18 A2994 570 64 2000 000/00 RMK AO1 T02560183
54779K12N 12N20160530180009905/30/16 18:00:31  5-MIN K12N 302300Z AUTO 00000KT 25/18 A2994 560 66 1900 000/00 RMK AO1 T02500183
54779K12N 12N20160530180509905/30/16 18:05:31  5-MIN K12N 302305Z AUTO 00000KT 25/19 A2995 560 68 1900 000/00 RMK AO1 T02500189
54779K12N 12N20160530181009905/30/16 18:10:31  5-MIN K12N 302310Z AUTO 00000KT 24/19 A2995 560 71 1800 000/00 RMK AO1 T02440189
54779K12N 12N20160530181509905/30/16 18:15:31  5-MIN K12N 302315Z AUTO 00000KT 24/19 A2995 550 73 1800 000/00 RMK AO1 T02390189
54779K12N 12N20160530182009905/30/16 18:20:31  5-MIN K12N 302320Z AUTO 00000KT 24/19 A2996 550 76 1700 000/00 RMK AO1 T02390194
54779K12N 12N20160530182509905/30/16 18:25:31  5-MIN K12N 302325Z AUTO 00000KT 24/19 A2996 550 73 1700 000/00 RMK AO1 T02390189
54779K12N 12N20160530183009905/30/16 18:30:31  5-MIN K12N 302330Z AUTO 00000KT 24/19 A2996 550 73 1700 000/00 RMK AO1 T02390189
54779K12N 12N20160530183509905/30/16 18:35:31  5-MIN K12N 302335Z AUTO 00000KT 24/19 A2996 550 73 1700 000/00 RMK AO1 T02390189
54779K12N 12N20160530184009905/30/16 18:40:31  5-MIN K12N 302340Z AUTO 00000KT 24/19 A2996 550 76 1800 000/00 RMK AO1 T02390194
54779K12N 12N20160530184509905/30/16 18:45:31  5-MIN K12N 302345Z AUTO 00000KT 24/19 A2996 550 71 1800 000/00 RMK AO1 T02440189
54779K12N 12N20160530185012405/30/16 18:50:31  5-MIN K12N 302350Z AUTO 00000KT 24/18 A2996 550 68 1800 000/00 RMK AO1 SLP137 T02440183 10283 20239 57010
54779K12N 12N20160530185509905/30/16 18:55:31  5-MIN K12N 302355Z AUTO 19003KT 24/19 A2996 550 73 1800 210/03 RMK AO1 T02390189
54779K12N 12N20160530190009905/30/16 19:00:31  5-MIN K12N 310000Z AUTO 00000KT 24/19 A2996 550 73 1700 000/00 RMK AO1 T02390189
54779K12N 12N20160530190509905/30/16 19:05:31  5-MIN K12N 310005Z AUTO 29004KT 24/19 A2996 550 73 1700 300/04 RMK AO1 T02390189
54779K12N 12N20160530191009905/30/16 19:10:31  5-MIN K12N 310010Z AUTO VRB05KT 24/19 A2996 550 73 1700 VRB/05 RMK AO1 T02390189
54779K12N 12N20160530191509905/30/16 19:15:31  5-MIN K12N 310015Z AUTO VRB06KT 24/18 A2996 550 68 1700 VRB/06 RMK AO1 T02390178
54779K12N 12N20160530192009905/30/16 19:20:31  5-MIN K12N 310020Z AUTO VRB03KT 24/17 A2996 550 66 1700 VRB/03 RMK AO1 T02390172
54779K12N 12N20160530192509905/30/16 19:25:31  5-MIN K12N 310025Z AUTO 00000KT 23/18 A2996 540 70 1700 000/00 RMK AO1 T02330178
54779K12N 12N20160530193010505/30/16 19:30:31  5-MIN K12N 310030Z AUTO 23004KT 23/18 A2996 550 73 1600 240/04 RMK AO1 P0001 T02280178
54779K12N 12N20160530193510505/30/16 19:35:31  5-MIN K12N 310035Z AUTO 00000KT 22/18 A2995 560 78 1600 000/00 RMK AO1 P0002 T02220183
54779K12N 12N20160530194010505/30/16 19:40:31  5-MIN K12N 310040Z AUTO VRB03KT 21/19 A2995 560 90 1400 VRB/03 RMK AO1 P0002 T02110194
54779K12N 12N20160530194510505/30/16 19:45:31  5-MIN K12N 310045Z AUTO 19003KT 21/19 A2994 560 90 1400 200/03 RMK AO1 P0003 T02110194
54779K12N 12N20160530195011205/30/16 19:50:31  5-MIN K12N 310050Z AUTO 20003KT 21/19 A2995 560 93 1400 210/03 RMK AO1 SLP134 P0003 T02060194
54779K12N 12N20160530195509905/30/16 19:55:31  5-MIN K12N 310055Z AUTO 00000KT 21/19 A2994 560 93 1400 000/00 RMK AO1 T02060194
54779K12N 12N20160530200009905/30/16 20:00:31  5-MIN K12N 310100Z AUTO 00000KT 21/19 A2994 560 93 1400 000/00 RMK AO1 T02060194
54779K12N 12N20160530200509905/30/16 20:05:31  5-MIN K12N 310105Z AUTO 00000KT 21/19 A2994 570 93 1400 000/00 RMK AO1 T02060194
54779K12N 12N20160530201009905/30/16 20:10:31  5-MIN K12N 310110Z AUTO 00000KT 21/19 A2994 570 93 1400 000/00 RMK AO1 T02060194
54779K12N 12N20160530201509905/30/16 20:15:31  5-MIN K12N 310115Z AUTO 00000KT 21/19 A2994 570 93 1400 000/00 RMK AO1 T02060194
54779K12N 12N20160530202009905/30/16 20:20:31  5-MIN K12N 310120Z AUTO 00000KT 21/19 A2994 570 93 1400 000/00 RMK AO1 T02060194
54779K12N 12N20160530202509905/30/16 20:25:31  5-MIN K12N 310125Z AUTO 00000KT 21/19 A2995 560 90 1400 000/00 RMK AO1 T02060189
54779K12N 12N20160530203009905/30/16 20:30:31  5-MIN K12N 310130Z AUTO 00000KT 20/19 A2995 560 93 1300 000/00 RMK AO1 T02000189
54779K12N 12N20160530203509905/30/16 20:35:31  5-MIN K12N 310135Z AUTO 00000KT 20/19 A2995 560 93 1300 000/00 RMK AO1 T02000189
54779K12N 12N20160530204009905/30/16 20:40:31  5-MIN K12N 310140Z AUTO 00000KT 20/19 A2995 560 93 1300 000/00 RMK AO1 T02000189
54779K12N 12N20160530204509905/30/16 20:45:31  5-MIN K12N 310145Z AUTO 00000KT 20/19 A2996 550 97 1300 000/00 RMK AO1 T02000194
54779K12N 12N20160530205010605/30/16 20:50:31  5-MIN K12N 310150Z AUTO 00000KT 20/19 A2996 550 97 1300 000/00 RMK AO1 SLP139 T02000194
54779K12N 12N20160530205509905/30/16 20:55:31  5-MIN K12N 310155Z AUTO 00000KT 20/19 A2996 550 93 1300 000/00 RMK AO1 T02000189
54779K12N 12N20160530210009905/30/16 21:00:31  5-MIN K12N 310200Z AUTO 00000KT 20/19 A2996 540 93 1300 000/00 RMK AO1 T02000189
54779K12N 12N20160530210509905/30/16 21:05:31  5-MIN K12N 310205Z AUTO 00000KT 20/19 A2997 540 97 1300 000/00 RMK AO1 T02000194
54779K12N 12N20160530211009905/30/16 21:10:31  5-MIN K12N 310210Z AUTO 00000KT 20/19 A2997 540 93 1300 000/00 RMK AO1 T02000189
54779K12N 12N20160530211509905/30/16 21:15:31  5-MIN K12N 310215Z AUTO 00000KT 20/19 A2997 540 93 1300 000/00 RMK AO1 T02000189
54779K12N 12N20160530212009905/30/16 21:20:31  5-MIN K12N 310220Z AUTO 00000KT 20/19 A2997 540 97 1300 000/00 RMK AO1 T02000194
54779K12N 12N20160530212509905/30/16 21:25:31  5-MIN K12N 310225Z AUTO 21003KT 20/19 A2997 540 93 1300 220/03 RMK AO1 T02000189
54779K12N 12N20160530213009905/30/16 21:30:31  5-MIN K12N 310230Z AUTO 00000KT 20/19 A2996 540 93 1300 000/00 RMK AO1 T02000189
54779K12N 12N20160530213509905/30/16 21:35:31  5-MIN K12N 310235Z AUTO 00000KT 20/19 A2997 540 93 1300 000/00 RMK AO1 T02000189
54779K12N 12N20160530214009905/30/16 21:40:31  5-MIN K12N 310240Z AUTO 00000KT 20/19 A2997 540 93 1300 000/00 RMK AO1 T02000189
54779K12N 12N20160530214509905/30/16 21:45:31  5-MIN K12N 310245Z AUTO 00000KT 20/19 A2997 540 93 1300 000/00 RMK AO1 T02000189
54779K12N 12N20160530215011805/30/16 21:50:31  5-MIN K12N 310250Z AUTO 00000KT 20/19 A2997 540 93 1300 000/00 RMK AO1 SLP144 60003 T02000189 53010
54779K12N 12N20160530215509905/30/16 21:55:31  5-MIN K12N 310255Z AUTO 00000KT 20/19 A2998 530 93 1300 000/00 RMK AO1 T02000189
54779K12N 12N20160530220009905/30/16 22:00:31  5-MIN K12N 310300Z AUTO 00000KT 20/19 A2997 540 93 1300 000/00 RMK AO1 T02000189
54779K12N 12N20160530220509905/30/16 22:05:31  5-MIN K12N 310305Z AUTO 00000KT 20/19 A2997 540 93 1300 000/00 RMK AO1 T02000189
54779K12N 12N20160530221009905/30/16 22:10:31  5-MIN K12N 310310Z AUTO 00000KT 20/19 A2997 540 93 1300 000/00 RMK AO1 T02000189
54779K12N 12N20160530221509905/30/16 22:15:31  5-MIN K12N 310315Z AUTO 00000KT 20/19 A2997 540 93 1300 000/00 RMK AO1 T02000189
54779K12N 12N20160530222009905/30/16 22:20:31  5-MIN K12N 310320Z AUTO 00000KT 20/19 A2997 540 93 1300 000/00 RMK AO1 T02000189
54779K12N 12N20160530222509905/30/16 22:25:31  5-MIN K12N 310325Z AUTO 00000KT 20/19 A2997 540 93 1300 000/00 RMK AO1 T02000189
54779K12N 12N20160530223009905/30/16 22:30:31  5-MIN K12N 310330Z AUTO 00000KT 19/19 A2997 540 97 1200 000/00 RMK AO1 T01940189
54779K12N 12N20160530223509905/30/16 22:35:31  5-MIN K12N 310335Z AUTO 00000KT 20/19 A2997 540 93 1300 000/00 RMK AO1 T02000189
54779K12N 12N20160530224009905/30/16 22:40:31  5-MIN K12N 310340Z AUTO 00000KT 20/19 A2997 540 93 1300 000/00 RMK AO1 T02000189
54779K12N 12N20160530224509905/30/16 22:45:31  5-MIN K12N 310345Z AUTO 00000KT 20/19 A2997 540 93 1300 000/00 RMK AO1 T02000189
54779K12N 12N20160530225010605/30/16 22:50:31  5-MIN K12N 310350Z AUTO 00000KT 20/19 A2997 540 93 1300 000/00 RMK AO1 SLP141 T02000189
54779K12N 12N20160530225509905/30/16 22:55:31  5-MIN K12N 310355Z AUTO 00000KT 20/19 A2997 540 93 1300 000/00 RMK AO1 T02000189
54779K12N 12N20160530230009905/30/16 23:00:31  5-MIN K12N 310400Z AUTO 00000KT 20/19 A2997 540 93 1300 000/00 RMK AO1 T02000189
54779K12N 12N20160530230509905/30/16 23:05:31  5-MIN K12N 310405Z AUTO 00000KT 20/19 A2997 540 93 1300 000/00 RMK AO1 T02000189
54779K12N 12N20160530231009905/30/16 23:10:31  5-MIN K12N 310410Z AUTO 00000KT 19/19 A2997 540 97 1200 000/00 RMK AO1 T01940189
54779K12N 12N20160530231509905/30/16 23:15:31  5-MIN K12N 310415Z AUTO 00000KT 19/19 A2996 550 97 1200 000/00 RMK AO1 T01940189
54779K12N 12N20160530232009905/30/16 23:20:31  5-MIN K12N 310420Z AUTO 00000KT 19/18 A2996 550 93 1200 000/00 RMK AO1 T01940183
54779K12N 12N20160530232509905/30/16 23:25:31  5-MIN K12N 310425Z AUTO 00000KT 19/18 A2996 550 93 1200 000/00 RMK AO1 T01940183
54779K12N 12N20160530233009905/30/16 23:30:31  5-MIN K12N 310430Z AUTO 00000KT 19/18 A2996 550 93 1200 000/00 RMK AO1 T01940183
54779K12N 12N20160530233509905/30/16 23:35:31  5-MIN K12N 310435Z AUTO 00000KT 19/19 A2996 550 97 1200 000/00 RMK AO1 T01940189
54779K12N 12N20160530234009905/30/16 23:40:31  5-MIN K12N 310440Z AUTO 00000KT 19/19 A2996 550 97 1200 000/00 RMK AO1 T01940189
54779K12N 12N20160530234509905/30/16 23:45:31  5-MIN K12N 310445Z AUTO 00000KT 19/19 A2996 550 97 1200 000/00 RMK AO1 T01940189
54779K12N 12N20160530235011605/30/16 23:50:31  5-MIN K12N 310450Z AUTO 00000KT 19/19 A2996 550 97 1200 000/00 RMK AO1 SLP137 T01940189 402830178
54779K12N 12N20160530235509905/30/16 23:55:31  5-MIN K12N 310455Z AUTO 00000KT 20/19 A2996 550 93 1300 000/00 RMK AO1 T02000189
54779K12N 12N20160531000009905/31/16 00:00:31  5-MIN K12N 310500Z AUTO 00000KT 20/19 A2996 550 93 1300 000/00 RMK AO1 T02000189
54779K12N 12N20160531000509905/31/16 00:05:31  5-MIN K12N 310505Z AUTO 00000KT 20/19 A2996 550 93 1300 000/00 RMK AO1 T02000189
54779K12N 12N20160531001009905/31/16 00:10:31  5-MIN K12N 310510Z AUTO 00000KT 20/19 A2996 550 97 1300 000/00 RMK AO1 T02000194
54779K12N 12N20160531001509905/31/16 00:15:31  5-MIN K12N 310515Z AUTO 00000KT 20/19 A2996 550 93 1300 000/00 RMK AO1 T02000189
54779K12N 12N20160531002009905/31/16 00:20:31  5-MIN K12N 310520Z AUTO 00000KT 20/19 A2996 550 97 1300 000/00 RMK AO1 T02000194
54779K12N 12N20160531002509905/31/16 00:25:31  5-MIN K12N 310525Z AUTO 00000KT 20/19 A2996 550 93 1300 000/00 RMK AO1 T02000189
54779K12N 12N20160531003009905/31/16 00:30:31  5-MIN K12N 310530Z AUTO 00000KT 20/19 A2996 550 93 1300 000/00 RMK AO1 T02000189
54779K12N 12N20160531003509905/31/16 00:35:31  5-MIN K12N 310535Z AUTO 00000KT 20/19 A2996 550 93 1300 000/00 RMK AO1 T02000189
54779K12N 12N20160531004009905/31/16 00:40:31  5-MIN K12N 310540Z AUTO 00000KT 20/19 A2995 560 93 1300 000/00 RMK AO1 T02000189
54779K12N 12N20160531004509905/31/16 00:45:31  5-MIN K12N 310545Z AUTO 00000KT 20/19 A2995 550 97 1300 000/00 RMK AO1 T02000194
54779K12N 12N20160531005013005/31/16 00:50:31  5-MIN K12N 310550Z AUTO 00000KT 20/19 A2995 550 97 1300 000/00 RMK AO1 SLP135 60003 T02000194 10244 20194 53007
54779K12N 12N20160531005509905/31/16 00:55:31  5-MIN K12N 310555Z AUTO 00000KT 20/19 A2995 550 93 1300 000/00 RMK AO1 T02000189
54779K12N 12N20160531010009905/31/16 01:00:31  5-MIN K12N 310600Z AUTO 00000KT 20/19 A2995 560 93 1300 000/00 RMK AO1 T02000189
54779K12N 12N20160531010509905/31/16 01:05:31  5-MIN K12N 310605Z AUTO 00000KT 20/19 A2995 560 93 1300 000/00 RMK AO1 T02000189
54779K12N 12N20160531011009905/31/16 01:10:31  5-MIN K12N 310610Z AUTO 00000KT 20/19 A2995 560 93 1300 000/00 RMK AO1 T02000189
54779K12N 12N20160531011507505/31/16 01:15:31  5-MIN K12N 310615Z AUTO 00000KT 20/19 A2995 560 93 1300 
54779K12N 12N20160531011509905/31/16 01:15:31  5-MIN K12N 310615Z AUTO 00000KT 20/19 A2995 560 93 1300 000/00 RMK AO1 T02000189
54779K12N 12N20160531012009905/31/16 01:20:31  5-MIN K12N 310620Z AUTO 00000KT 20/19 A2995 560 93 1300 000/00 RMK AO1 T02000189
54779K12N 12N20160531012509905/31/16 01:25:31  5-MIN K12N 310625Z AUTO 00000KT 20/19 A2995 560 93 1300 000/00 RMK AO1 T02000189
54779K12N 12N20160531013009905/31/16 01:30:31  5-MIN K12N 310630Z AUTO 00000KT 20/19 A2995 560 93 1300 000/00 RMK AO1 T02000189
54779K12N 12N20160531013509905/31/16 01:35:31  5-MIN K12N 310635Z AUTO 00000KT 20/19 A2995 560 93 1300 000/00 RMK AO1 T02000189
54779K12N 12N20160531014009905/31/16 01:40:31  5-MIN K12N 310640Z AUTO 00000KT 20/19 A2995 560 93 1300 000/00 RMK AO1 T02000189
54779K12N 12N20160531014509905/31/16 01:45:31  5-MIN K12N 310645Z AUTO 00000KT 20/19 A2995 560 93 1300 000/00 RMK AO1 T02000189
54779K12N 12N20160531015010605/31/16 01:50:31  5-MIN K12N 310650Z AUTO 00000KT 20/19 A2995 550 93 1300 000/00 RMK AO1 SLP134 T02000189
54779K12N 12N20160531015509905/31/16 01:55:31  5-MIN K12N 310655Z AUTO 00000KT 20/19 A2995 550 93 1300 000/00 RMK AO1 T02000189
54779K12N 12N20160531020009905/31/16 02:00:31  5-MIN K12N 310700Z AUTO 00000KT 19/19 A2995 550 97 1200 000/00 RMK AO1 T01940189
54779K12N 12N20160531020509905/31/16 02:05:31  5-MIN K12N 310705Z AUTO 00000KT 19/18 A2995 550 93 1200 000/00 RMK AO1 T01940183
54779K12N 12N20160531021009905/31/16 02:10:31  5-MIN K12N 310710Z AUTO 00000KT 19/18 A2996 550 93 1200 000/00 RMK AO1 T01940183
