14756KACK ACK20160126064510701/26/16 06:45:31  5-MIN KACK 261145Z 18012KT 10SM CLR 07/03 A3020 -200 76 -1200 200/12 RMK AO2 T00670028 $
14756KACK ACK20160126065013201/26/16 06:50:31  5-MIN KACK 261150Z 18013KT 10SM CLR 07/03 A3020 -200 79 -1200 200/13 RMK AO2 SLP225 T00670033 10067 20039 58019 $
14756KACK ACK20160126065510701/26/16 06:55:31  5-MIN KACK 261155Z 18013KT 10SM CLR 07/03 A3020 -200 79 -1200 200/13 RMK AO2 T00670033 $
14756KACK ACK20160126070010701/26/16 07:00:31  5-MIN KACK 261200Z 18013KT 10SM CLR 07/03 A3019 -200 79 -1200 200/13 RMK AO2 T00670033 $
14756KACK ACK20160126070510701/26/16 07:05:31  5-MIN KACK 261205Z 18014KT 10SM CLR 07/03 A3019 -190 79 -1200 200/14 RMK AO2 T00670033 $
14756KACK ACK20160126071010701/26/16 07:10:31  5-MIN KACK 261210Z 18014KT 10SM CLR 07/03 A3019 -190 79 -1200 200/14 RMK AO2 T00670033 $
14756KACK ACK20160126071510701/26/16 07:15:31  5-MIN KACK 261215Z 18014KT 10SM CLR 07/03 A3019 -190 76 -1100 200/14 RMK AO2 T00720033 $
14756KACK ACK20160126072010701/26/16 07:20:31  5-MIN KACK 261220Z 18013KT 10SM CLR 07/03 A3018 -190 76 -1100 190/13 RMK AO2 T00720033 $
14756KACK ACK20160126072510701/26/16 07:25:31  5-MIN KACK 261225Z 18014KT 10SM CLR 07/03 A3018 -180 76 -1100 200/14 RMK AO2 T00720033 $
14756KACK ACK20160126073010701/26/16 07:30:31  5-MIN KACK 261230Z 18014KT 10SM CLR 07/03 A3017 -180 76 -1100 190/14 RMK AO2 T00720033 $
14756KACK ACK20160126073510701/26/16 07:35:31  5-MIN KACK 261235Z 18015KT 10SM CLR 07/03 A3017 -180 76 -1100 190/15 RMK AO2 T00720033 $
14756KACK ACK20160126074010701/26/16 07:40:31  5-MIN KACK 261240Z 18013KT 10SM CLR 07/04 A3017 -180 79 -1100 190/13 RMK AO2 T00720039 $
14756KACK ACK20160126074510701/26/16 07:45:31  5-MIN KACK 261245Z 18013KT 10SM CLR 07/03 A3017 -180 76 -1100 190/13 RMK AO2 T00720033 $
14756KACK ACK20160126075011401/26/16 07:50:31  5-MIN KACK 261250Z 18014KT 10SM CLR 07/04 A3017 -180 79 -1100 190/14 RMK AO2 SLP217 T00720039 $
14756KACK ACK20160126075510701/26/16 07:55:31  5-MIN KACK 261255Z 18013KT 10SM CLR 07/04 A3017 -180 79 -1100 190/13 RMK AO2 T00720039 $
14756KACK ACK20160126080010701/26/16 08:00:31  5-MIN KACK 261300Z 18014KT 10SM CLR 07/04 A3017 -180 79 -1100 190/14 RMK AO2 T00720039 $
14756KACK ACK20160126080510701/26/16 08:05:31  5-MIN KACK 261305Z 18015KT 10SM CLR 07/04 A3017 -180 79 -1100 200/15 RMK AO2 T00720039 $
14756KACK ACK20160126081010701/26/16 08:10:31  5-MIN KACK 261310Z 19012KT 10SM CLR 07/04 A3017 -180 79 -1100 200/12 RMK AO2 T00720039 $
14756KACK ACK20160126081510701/26/16 08:15:31  5-MIN KACK 261315Z 18013KT 10SM CLR 07/04 A3017 -180 82 -1100 200/13 RMK AO2 T00670039 $
14756KACK ACK20160126082010701/26/16 08:20:31  5-MIN KACK 261320Z 18015KT 10SM CLR 07/04 A3017 -170 79 -1100 200/15 RMK AO2 T00720039 $
14756KACK ACK20160126082510701/26/16 08:25:31  5-MIN KACK 261325Z 19014KT 10SM CLR 07/04 A3017 -170 79 -1100 200/14 RMK AO2 T00720039 $
14756KACK ACK20160126083010701/26/16 08:30:31  5-MIN KACK 261330Z 18015KT 10SM CLR 07/04 A3016 -170 79 -1100 200/15 RMK AO2 T00720039 $
14756KACK ACK20160126083510701/26/16 08:35:31  5-MIN KACK 261335Z 19014KT 10SM CLR 07/04 A3016 -170 79 -1100 200/14 RMK AO2 T00720039 $
14756KACK ACK20160126084010701/26/16 08:40:31  5-MIN KACK 261340Z 18015KT 10SM CLR 07/04 A3016 -170 79 -1100 200/15 RMK AO2 T00720039 $
14756KACK ACK20160126084511001/26/16 08:45:31  5-MIN KACK 261345Z 19015KT 10SM FEW038 07/04 A3016 -170 79 -1100 200/15 RMK AO2 T00720039 $
14756KACK ACK20160126085011701/26/16 08:50:31  5-MIN KACK 261350Z 19014KT 10SM FEW038 07/04 A3016 -170 79 -1100 210/14 RMK AO2 SLP212 T00720039 $
14756KACK ACK20160126085510701/26/16 08:55:31  5-MIN KACK 261355Z 19013KT 10SM CLR 07/04 A3016 -170 79 -1100 210/13 RMK AO2 T00720039 $
14756KACK ACK20160126090010701/26/16 09:00:31  5-MIN KACK 261400Z 19014KT 10SM CLR 07/04 A3016 -170 79 -1100 210/14 RMK AO2 T00720039 $
14756KACK ACK20160126090510701/26/16 09:05:31  5-MIN KACK 261405Z 20015KT 10SM CLR 07/04 A3016 -160 82 -1100 210/15 RMK AO2 T00720044 $
14756KACK ACK20160126091010701/26/16 09:10:31  5-MIN KACK 261410Z 20015KT 10SM CLR 07/04 A3016 -170 79 -1100 210/15 RMK AO2 T00720039 $
14756KACK ACK20160126091510701/26/16 09:15:31  5-MIN KACK 261415Z 20014KT 10SM CLR 08/04 A3015 -160 79 -1000 210/14 RMK AO2 T00780044 $
14756KACK ACK20160126092010701/26/16 09:20:31  5-MIN KACK 261420Z 20015KT 10SM CLR 07/04 A3015 -160 82 -1100 210/15 RMK AO2 T00720044 $
14756KACK ACK20160126092510701/26/16 09:25:31  5-MIN KACK 261425Z 20013KT 10SM CLR 07/04 A3015 -160 82 -1000 210/13 RMK AO2 T00720044 $
14756KACK ACK20160126093010701/26/16 09:30:31  5-MIN KACK 261430Z 20014KT 10SM CLR 07/04 A3015 -160 82 -1000 210/14 RMK AO2 T00720044 $
14756KACK ACK20160126093510701/26/16 09:35:31  5-MIN KACK 261435Z 20015KT 10SM CLR 07/04 A3015 -150 82 -1000 210/15 RMK AO2 T00720044 $
14756KACK ACK20160126094010701/26/16 09:40:31  5-MIN KACK 261440Z 19014KT 10SM CLR 07/04 A3014 -150 82 -1000 210/14 RMK AO2 T00720044 $
14756KACK ACK20160126094510701/26/16 09:45:31  5-MIN KACK 261445Z 19014KT 10SM CLR 07/04 A3014 -150 82 -1000 210/14 RMK AO2 T00720044 $
14756KACK ACK20160126095012001/26/16 09:50:31  5-MIN KACK 261450Z 19013KT 10SM CLR 07/04 A3013 -140 82 -1000 210/13 RMK AO2 SLP204 T00720044 56010 $
14756KACK ACK20160126095510701/26/16 09:55:31  5-MIN KACK 261455Z 19013KT 10SM CLR 07/04 A3013 -140 82 -1000 210/13 RMK AO2 T00720044 $
14756KACK ACK20160126100010701/26/16 10:00:31  5-MIN KACK 261500Z 20014KT 10SM CLR 07/04 A3013 -140 82 -1000 210/14 RMK AO2 T00720044 $
14756KACK ACK20160126100510701/26/16 10:05:31  5-MIN KACK 261505Z 20015KT 10SM CLR 08/04 A3013 -140 79 -1000 210/15 RMK AO2 T00780044 $
14756KACK ACK20160126101010701/26/16 10:10:31  5-MIN KACK 261510Z 20015KT 10SM CLR 08/04 A3013 -140 76 -1000 220/15 RMK AO2 T00780039 $
14756KACK ACK20160126101510701/26/16 10:15:31  5-MIN KACK 261515Z 20014KT 10SM CLR 08/04 A3013 -140 76 -1000 220/14 RMK AO2 T00780039 $
14756KACK ACK20160126102010701/26/16 10:20:31  5-MIN KACK 261520Z 20014KT 10SM CLR 08/04 A3013 -140 76 -1000 220/14 RMK AO2 T00780039 $
14756KACK ACK20160126102510701/26/16 10:25:31  5-MIN KACK 261525Z 20014KT 10SM CLR 08/04 A3013 -140 76 -1000 220/14 RMK AO2 T00780039 $
14756KACK ACK20160126103010701/26/16 10:30:31  5-MIN KACK 261530Z 20014KT 10SM CLR 08/03 A3013 -140 73 -1000 220/14 RMK AO2 T00780033 $
14756KACK ACK20160126103510701/26/16 10:35:31  5-MIN KACK 261535Z 20014KT 10SM CLR 08/04 A3013 -140 76 -1000 220/14 RMK AO2 T00780039 $
14756KACK ACK20160126104010701/26/16 10:40:31  5-MIN KACK 261540Z 20015KT 10SM CLR 08/04 A3012 -130 76 -1000 220/15 RMK AO2 T00780039 $
14756KACK ACK20160126104510601/26/16 10:45:31  5-MIN KACK 261545Z 20013KT 10SM CLR 08/03 A3012 -130 73 -900 220/13 RMK AO2 T00780033 $
14756KACK ACK20160126105011601/26/16 10:50:31  5-MIN KACK 261550Z 20014KT 10SM FEW036 08/03 A3012 -130 73 -900 220/14 RMK AO2 SLP199 T00780033 $
14756KACK ACK20160126105510901/26/16 10:55:31  5-MIN KACK 261555Z 20013KT 10SM SCT038 08/04 A3012 -130 76 -900 210/13 RMK AO2 T00780039 $
14756KACK ACK20160126110010901/26/16 11:00:31  5-MIN KACK 261600Z 20014KT 10SM SCT040 08/04 A3011 -120 76 -900 210/14 RMK AO2 T00780039 $
14756KACK ACK20160126110510901/26/16 11:05:31  5-MIN KACK 261605Z 20014KT 10SM BKN040 08/04 A3011 -120 79 -900 220/14 RMK AO2 T00780044 $
14756KACK ACK20160126111010901/26/16 11:10:31  5-MIN KACK 261610Z 20015KT 10SM BKN040 08/04 A3011 -120 76 -900 220/15 RMK AO2 T00830044 $
14756KACK ACK20160126111510901/26/16 11:15:31  5-MIN KACK 261615Z 20015KT 10SM BKN040 08/04 A3010 -110 76 -900 210/15 RMK AO2 T00830044 $
14756KACK ACK20160126112011501/26/16 11:20:31  5-MIN KACK 261620Z 20015KT 9SM FEW034 BKN042 08/04 A3010 -110 79 -900 210/15 RMK AO2 T00780044 $
14756KACK ACK20160126112511501/26/16 11:25:31  5-MIN KACK 261625Z 20013KT 9SM FEW030 BKN042 08/05 A3010 -110 82 -900 210/13 RMK AO2 T00780050 $
14756KACK ACK20160126113011501/26/16 11:30:31  5-MIN KACK 261630Z 20014KT 9SM FEW030 BKN042 08/04 A3009 -100 79 -900 210/14 RMK AO2 T00780044 $
14756KACK ACK20160126113511501/26/16 11:35:31  5-MIN KACK 261635Z 20014KT 8SM FEW030 BKN042 08/04 A3009 -100 79 -900 210/14 RMK AO2 T00780044 $
14756KACK ACK20160126114011501/26/16 11:40:31  5-MIN KACK 261640Z 20015KT 8SM SCT028 BKN039 08/04 A3009 -100 79 -900 210/15 RMK AO2 T00780044 $
14756KACK ACK20160126114511501/26/16 11:45:31  5-MIN KACK 261645Z 20016KT 9SM SCT028 BKN039 08/05 A3008 -100 82 -900 220/16 RMK AO2 T00780050 $
14756KACK ACK20160126115009701/26/16 11:50:31  5-MIN KACK 261650Z 20015KT 9SM OVC028 08/05 A3008 -90 82 -900 220/15 RMK AO2 $
14756KACK ACK20160126115512101/26/16 11:55:31  5-MIN KACK 261655Z 20015KT 9SM BKN030 BKN035 BKN042 08/05 A3008 -90 82 -900 220/15 RMK AO2 T00780050 $
14756KACK ACK20160126120010701/26/16 12:00:31  5-MIN KACK 261700Z 20016KT 9SM OVC028 08/05 A3007 -90 82 -900 220/16 RMK AO2 T00780050 $
14756KACK ACK20160126120510701/26/16 12:05:31  5-MIN KACK 261705Z 20015KT 9SM OVC028 08/05 A3007 -90 82 -900 210/15 RMK AO2 T00780050 $
14756KACK ACK20160126121010701/26/16 12:10:31  5-MIN KACK 261710Z 20015KT 9SM OVC028 08/05 A3007 -80 82 -900 210/15 RMK AO2 T00780050 $
14756KACK ACK20160126121510701/26/16 12:15:31  5-MIN KACK 261715Z 20015KT 9SM OVC028 08/05 A3006 -70 82 -900 210/15 RMK AO2 T00780050 $
14756KACK ACK20160126122010701/26/16 12:20:31  5-MIN KACK 261720Z 20015KT 8SM OVC028 08/05 A3006 -70 82 -900 210/15 RMK AO2 T00780050 $
14756KACK ACK20160126122511401/26/16 12:25:31  5-MIN KACK 261725Z 19014KT 8SM OVC028 08/05 A3005 -60 82 -900 210/14 RMK AO2 PRESFR T00780050 $
14756KACK ACK20160126123011401/26/16 12:30:31  5-MIN KACK 261730Z 19015KT 8SM OVC028 08/05 A3004 -60 82 -900 210/15 RMK AO2 PRESFR T00780050 $
14756KACK ACK20160126123510701/26/16 12:35:31  5-MIN KACK 261735Z 19015KT 8SM OVC028 08/05 A3004 -60 82 -900 210/15 RMK AO2 T00780050 $
14756KACK ACK20160126124010701/26/16 12:40:31  5-MIN KACK 261740Z 20015KT 8SM OVC028 08/05 A3004 -50 82 -900 210/15 RMK AO2 T00780050 $
14756KACK ACK20160126124511301/26/16 12:45:31  5-MIN KACK 261745Z 20016G23KT 9SM OVC028 08/06 A3003 -50 82 -800 210/16G23 RMK AO2 T00830056 $
14756KACK ACK20160126125009401/26/16 12:50:31  5-MIN KACK 261750Z 20017KT 9SM CLR 09/06 A3003 -50 79 -700 210/17 RMK AO2 $
14756KACK ACK20160126125510501/26/16 12:55:31  5-MIN KACK 261755Z 19016KT 10SM CLR 09/06 A3002 -40 79 -700 210/16 RMK AO2 T00890056 $
14756KACK ACK20160126130010401/26/16 13:00:31  5-MIN KACK 261800Z 19016KT 9SM CLR 09/06 A3002 -40 79 -700 210/16 RMK AO2 T00890056 $
14756KACK ACK20160126130511101/26/16 13:05:31  5-MIN KACK 261805Z 19015KT 9SM CLR 09/06 A3001 -30 79 -700 210/15 RMK AO2 PRESFR T00890056 $
14756KACK ACK20160126131010401/26/16 13:10:31  5-MIN KACK 261810Z 20015KT 9SM CLR 09/06 A3002 -40 79 -700 220/15 RMK AO2 T00890056 $
14756KACK ACK20160126131510401/26/16 13:15:31  5-MIN KACK 261815Z 20016KT 9SM CLR 09/06 A3002 -30 79 -700 220/16 RMK AO2 T00890056 $
14756KACK ACK20160126132010401/26/16 13:20:31  5-MIN KACK 261820Z 20015KT 9SM CLR 09/06 A3002 -30 79 -700 220/15 RMK AO2 T00890056 $
14756KACK ACK20160126132510401/26/16 13:25:31  5-MIN KACK 261825Z 20016KT 9SM CLR 09/06 A3001 -30 83 -700 220/16 RMK AO2 T00890061 $
14756KACK ACK20160126133010401/26/16 13:30:31  5-MIN KACK 261830Z 20014KT 9SM CLR 09/06 A3001 -30 83 -700 220/14 RMK AO2 T00890061 $
14756KACK ACK20160126133510401/26/16 13:35:31  5-MIN KACK 261835Z 20013KT 8SM CLR 09/06 A3001 -30 83 -700 210/13 RMK AO2 T00890061 $
14756KACK ACK20160126134010401/26/16 13:40:31  5-MIN KACK 261840Z 20014KT 8SM CLR 08/06 A3001 -30 86 -800 210/14 RMK AO2 T00830061 $
14756KACK ACK20160126134510401/26/16 13:45:31  5-MIN KACK 261845Z 20014KT 7SM CLR 08/06 A3001 -30 86 -700 210/14 RMK AO2 T00830061 $
14756KACK ACK20160126135011101/26/16 13:50:31  5-MIN KACK 261850Z 20014KT 7SM CLR 08/06 A3001 -20 86 -700 210/14 RMK AO2 SLP160 T00830061 $
14756KACK ACK20160126135510501/26/16 13:55:31  5-MIN KACK 261855Z 20013KT 10SM CLR 08/06 A3001 -20 86 -700 210/13 RMK AO2 T00830061 $
14756KACK ACK20160126140010501/26/16 14:00:31  5-MIN KACK 261900Z 20014KT 10SM CLR 08/06 A3000 -20 86 -700 210/14 RMK AO2 T00830061 $
14756KACK ACK20160126140510501/26/16 14:05:31  5-MIN KACK 261905Z 19014KT 10SM CLR 08/06 A3000 -20 86 -700 210/14 RMK AO2 T00830061 $
14756KACK ACK20160126141010501/26/16 14:10:31  5-MIN KACK 261910Z 20013KT 10SM CLR 08/06 A3000 -20 86 -700 210/13 RMK AO2 T00830061 $
14756KACK ACK20160126141510501/26/16 14:15:31  5-MIN KACK 261915Z 20012KT 10SM CLR 08/06 A3000 -20 89 -800 210/12 RMK AO2 T00780061 $
14756KACK ACK20160126142010501/26/16 14:20:31  5-MIN KACK 261920Z 19012KT 10SM CLR 08/06 A3000 -20 89 -800 210/12 RMK AO2 T00780061 $
14756KACK ACK20160126142510501/26/16 14:25:31  5-MIN KACK 261925Z 19012KT 10SM CLR 08/06 A3000 -20 89 -800 210/12 RMK AO2 T00780061 $
14756KACK ACK20160126143010501/26/16 14:30:31  5-MIN KACK 261930Z 20012KT 10SM CLR 08/06 A3000 -20 89 -800 210/12 RMK AO2 T00780061 $
14756KACK ACK20160126143510501/26/16 14:35:31  5-MIN KACK 261935Z 19012KT 10SM CLR 08/06 A2999 -10 89 -800 210/12 RMK AO2 T00780061 $
14756KACK ACK20160126144010501/26/16 14:40:31  5-MIN KACK 261940Z 19012KT 10SM CLR 08/06 A2999 -10 89 -800 210/12 RMK AO2 T00780061 $
14756KACK ACK20160126144510501/26/16 14:45:31  5-MIN KACK 261945Z 19012KT 10SM CLR 08/06 A2999 -10 89 -800 210/12 RMK AO2 T00780061 $
14756KACK ACK20160126145011001/26/16 14:50:31  5-MIN KACK 261950Z 19012KT 10SM CLR 08/06 A2998 0 89 -800 200/12 RMK AO2 SLP152 T00780061 $
14756KACK ACK20160126145510501/26/16 14:55:31  5-MIN KACK 261955Z 19013KT 5SM BR CLR 08/06 A2998 0 86 -700 210/13 RMK AO2 T00830061 $
14756KACK ACK20160126150010501/26/16 15:00:31  5-MIN KACK 262000Z 20013KT 5SM BR CLR 08/06 A2998 0 86 -700 210/13 RMK AO2 T00830061 $
14756KACK ACK20160126150510501/26/16 15:05:31  5-MIN KACK 262005Z 20013KT 5SM BR CLR 08/06 A2997 0 86 -700 210/13 RMK AO2 T00830061 $
14756KACK ACK20160126151010501/26/16 15:10:31  5-MIN KACK 262010Z 19013KT 5SM BR CLR 08/06 A2997 0 86 -700 210/13 RMK AO2 T00830061 $
14756KACK ACK20160126151510501/26/16 15:15:31  5-MIN KACK 262015Z 19013KT 5SM BR CLR 08/06 A2997 0 89 -800 210/13 RMK AO2 T00780061 $
14756KACK ACK20160126152010501/26/16 15:20:31  5-MIN KACK 262020Z 19011KT 5SM BR CLR 08/06 A2997 0 89 -800 210/11 RMK AO2 T00780061 $
14756KACK ACK20160126152510501/26/16 15:25:31  5-MIN KACK 262025Z 19012KT 5SM BR CLR 08/06 A2997 0 89 -800 210/12 RMK AO2 T00780061 $
14756KACK ACK20160126153010601/26/16 15:30:31  5-MIN KACK 262030Z 20011KT 4SM BR CLR 08/06 A2997 10 89 -800 210/11 RMK AO2 T00780061 $
14756KACK ACK20160126153510601/26/16 15:35:31  5-MIN KACK 262035Z 20012KT 5SM BR CLR 08/06 A2997 10 89 -800 210/12 RMK AO2 T00780061 $
14756KACK ACK20160126154010401/26/16 15:40:31  5-MIN KACK 262040Z 19012KT 5SM BR CLR 08/06 A2996 10 89 -800 210/12 RMK AO2 T00780061
14756KACK ACK20160126154510701/26/16 15:45:31  5-MIN KACK 262045Z 19011KT 4SM BR FEW010 08/06 A2996 10 89 -800 210/11 RMK AO2 T00780061
14756KACK ACK20160126155012001/26/16 15:50:31  5-MIN KACK 262050Z 20012KT 6SM BR FEW010 08/06 A2996 10 89 -800 210/12 RMK AO2 SLP144 T00780061 58036
14756KACK ACK20160126155510701/26/16 15:55:31  5-MIN KACK 262055Z 20013KT 4SM BR FEW010 08/06 A2996 20 89 -800 210/13 RMK AO2 T00780061
14756KACK ACK20160126160010701/26/16 16:00:31  5-MIN KACK 262100Z 20012KT 4SM BR SCT010 08/06 A2996 20 89 -800 210/12 RMK AO2 T00780061
14756KACK ACK20160126160510701/26/16 16:05:31  5-MIN KACK 262105Z 20011KT 3SM BR FEW010 08/06 A2996 20 89 -800 210/11 RMK AO2 T00780061
14756KACK ACK20160126161010701/26/16 16:10:31  5-MIN KACK 262110Z 21011KT 3SM BR FEW010 08/06 A2996 10 89 -800 220/11 RMK AO2 T00780061
14756KACK ACK20160126161510701/26/16 16:15:31  5-MIN KACK 262115Z 21011KT 3SM BR FEW010 08/06 A2996 10 89 -800 230/11 RMK AO2 T00780061
14756KACK ACK20160126162010701/26/16 16:20:31  5-MIN KACK 262120Z 21011KT 3SM BR FEW010 08/07 A2996 10 93 -800 220/11 RMK AO2 T00780067
14756KACK ACK20160126162510701/26/16 16:25:31  5-MIN KACK 262125Z 21011KT 3SM BR FEW010 08/07 A2996 10 93 -800 220/11 RMK AO2 T00780067
14756KACK ACK20160126163010701/26/16 16:30:31  5-MIN KACK 262130Z 20010KT 3SM BR FEW010 08/06 A2995 20 89 -800 220/10 RMK AO2 T00780061
14756KACK ACK20160126163510701/26/16 16:35:31  5-MIN KACK 262135Z 21010KT 3SM BR FEW010 08/06 A2996 20 89 -800 230/10 RMK AO2 T00780061
14756KACK ACK20160126164010701/26/16 16:40:31  5-MIN KACK 262140Z 22010KT 3SM BR FEW010 08/06 A2996 10 89 -800 240/10 RMK AO2 T00780061
14756KACK ACK20160126164510701/26/16 16:45:31  5-MIN KACK 262145Z 22010KT 3SM BR FEW010 07/06 A2996 10 93 -800 230/10 RMK AO2 T00720061
14756KACK ACK20160126165011401/26/16 16:50:31  5-MIN KACK 262150Z 22010KT 3SM BR FEW010 07/06 A2996 10 93 -800 240/10 RMK AO2 SLP146 T00720061
14756KACK ACK20160126165510701/26/16 16:55:31  5-MIN KACK 262155Z 22011KT 5SM BR FEW010 07/06 A2996 10 93 -800 240/11 RMK AO2 T00720061
14756KACK ACK20160126170010701/26/16 17:00:31  5-MIN KACK 262200Z 22012KT 5SM BR FEW010 07/06 A2996 10 93 -800 240/12 RMK AO2 T00720061
14756KACK ACK20160126170510701/26/16 17:05:31  5-MIN KACK 262205Z 22011KT 5SM BR FEW010 07/06 A2996 20 93 -800 230/11 RMK AO2 T00720061
14756KACK ACK20160126171010701/26/16 17:10:31  5-MIN KACK 262210Z 22012KT 5SM BR FEW010 07/06 A2995 20 93 -800 240/12 RMK AO2 T00720061
14756KACK ACK20160126171510701/26/16 17:15:31  5-MIN KACK 262215Z 22012KT 5SM BR FEW010 07/06 A2995 20 93 -800 240/12 RMK AO2 T00720061
14756KACK ACK20160126172010701/26/16 17:20:31  5-MIN KACK 262220Z 22013KT 5SM BR FEW010 08/06 A2995 20 89 -800 240/13 RMK AO2 T00780061
14756KACK ACK20160126172510701/26/16 17:25:31  5-MIN KACK 262225Z 22013KT 5SM BR FEW010 08/06 A2995 20 89 -800 230/13 RMK AO2 T00780061
14756KACK ACK20160126173010701/26/16 17:30:31  5-MIN KACK 262230Z 21013KT 5SM BR FEW010 08/06 A2995 20 89 -800 230/13 RMK AO2 T00780061
14756KACK ACK20160126173510701/26/16 17:35:31  5-MIN KACK 262235Z 21014KT 5SM BR FEW010 08/06 A2995 20 89 -800 220/14 RMK AO2 T00780061
14756KACK ACK20160126174010701/26/16 17:40:31  5-MIN KACK 262240Z 21013KT 5SM BR FEW010 07/06 A2995 20 93 -800 230/13 RMK AO2 T00720061
14756KACK ACK20160126174510701/26/16 17:45:31  5-MIN KACK 262245Z 22013KT 5SM BR FEW010 08/06 A2996 10 86 -800 230/13 RMK AO2 T00780056
14756KACK ACK20160126175011401/26/16 17:50:31  5-MIN KACK 262250Z 22014KT 5SM BR FEW010 08/06 A2996 20 86 -800 230/14 RMK AO2 SLP143 T00780056
14756KACK ACK20160126175510401/26/16 17:55:31  5-MIN KACK 262255Z 21016KT 7SM SCT100 08/06 A2995 20 86 -800 230/16 RMK AO2 T00780056
14756KACK ACK20160126180010401/26/16 18:00:31  5-MIN KACK 262300Z 21017KT 7SM SCT100 08/06 A2994 30 86 -700 230/17 RMK AO2 T00780056
14756KACK ACK20160126180510401/26/16 18:05:31  5-MIN KACK 262305Z 21016KT 8SM FEW100 08/06 A2994 30 86 -700 230/16 RMK AO2 T00780056
14756KACK ACK20160126181010401/26/16 18:10:31  5-MIN KACK 262310Z 21015KT 8SM FEW100 08/05 A2995 20 82 -700 230/15 RMK AO2 T00780050
14756KACK ACK20160126181510401/26/16 18:15:31  5-MIN KACK 262315Z 21014KT 7SM FEW100 08/05 A2995 20 82 -800 230/14 RMK AO2 T00780050
14756KACK ACK20160126182010401/26/16 18:20:31  5-MIN KACK 262320Z 21015KT 7SM FEW100 08/05 A2995 20 82 -700 230/15 RMK AO2 T00780050
14756KACK ACK20160126182510101/26/16 18:25:31  5-MIN KACK 262325Z 21014KT 7SM CLR 08/05 A2995 20 82 -700 230/14 RMK AO2 T00780050
14756KACK ACK20160126183010101/26/16 18:30:31  5-MIN KACK 262330Z 21015KT 7SM CLR 08/05 A2994 30 82 -700 230/15 RMK AO2 T00780050
14756KACK ACK20160126183510101/26/16 18:35:31  5-MIN KACK 262335Z 21014KT 7SM CLR 08/05 A2994 30 82 -700 230/14 RMK AO2 T00780050
14756KACK ACK20160126184010101/26/16 18:40:31  5-MIN KACK 262340Z 22016KT 7SM CLR 08/05 A2995 30 82 -700 230/16 RMK AO2 T00780050
14756KACK ACK20160126184510101/26/16 18:45:31  5-MIN KACK 262345Z 22013KT 8SM CLR 08/05 A2995 20 79 -700 230/13 RMK AO2 T00830050
14756KACK ACK20160126185012601/26/16 18:50:31  5-MIN KACK 262350Z 22013KT 8SM CLR 08/04 A2996 20 79 -800 240/13 RMK AO2 SLP143 T00780044 10089 20072 56024
14756KACK ACK20160126185510101/26/16 18:55:31  5-MIN KACK 262355Z 22013KT 7SM CLR 07/04 A2996 10 82 -800 240/13 RMK AO2 T00720044
14756KACK ACK20160126190010101/26/16 19:00:31  5-MIN KACK 270000Z 23012KT 7SM CLR 07/04 A2996 10 82 -800 240/12 RMK AO2 T00720044
14756KACK ACK20160126190510101/26/16 19:05:31  5-MIN KACK 270005Z 22013KT 7SM CLR 07/04 A2996 10 86 -900 240/13 RMK AO2 T00670044
14756KACK ACK20160126191010101/26/16 19:10:31  5-MIN KACK 270010Z 22012KT 7SM CLR 07/04 A2996 10 82 -800 230/12 RMK AO2 T00720044
14756KACK ACK20160126191510101/26/16 19:15:31  5-MIN KACK 270015Z 22012KT 7SM CLR 07/04 A2996 10 82 -800 240/12 RMK AO2 T00720044
14756KACK ACK20160126192010101/26/16 19:20:31  5-MIN KACK 270020Z 22013KT 7SM CLR 07/04 A2996 10 82 -800 240/13 RMK AO2 T00720044
14756KACK ACK20160126192510101/26/16 19:25:31  5-MIN KACK 270025Z 22013KT 7SM CLR 07/04 A2996 10 82 -800 240/13 RMK AO2 T00720044
14756KACK ACK20160126193010101/26/16 19:30:31  5-MIN KACK 270030Z 22013KT 7SM CLR 07/04 A2996 10 82 -800 240/13 RMK AO2 T00720044
14756KACK ACK20160126193510101/26/16 19:35:31  5-MIN KACK 270035Z 22014KT 7SM CLR 07/04 A2996 10 82 -800 240/14 RMK AO2 T00720044
14756KACK ACK20160126194010101/26/16 19:40:31  5-MIN KACK 270040Z 23013KT 7SM CLR 07/04 A2996 10 82 -800 240/13 RMK AO2 T00720044
14756KACK ACK20160126194510101/26/16 19:45:31  5-MIN KACK 270045Z 23014KT 7SM CLR 07/04 A2996 10 79 -800 240/14 RMK AO2 T00720039
14756KACK ACK20160126195011001/26/16 19:50:31  5-MIN KACK 270050Z 23015KT 7SM CLR 07/04 A2996 10 79 -800 240/15 RMK AO2 SLP146 T00720039 $
14756KACK ACK20160126195510301/26/16 19:55:31  5-MIN KACK 270055Z 23014KT 8SM CLR 07/04 A2996 10 79 -800 240/14 RMK AO2 T00720039 $
14756KACK ACK20160126200010301/26/16 20:00:31  5-MIN KACK 270100Z 22014KT 7SM CLR 07/04 A2995 20 82 -900 240/14 RMK AO2 T00670039 $
14756KACK ACK20160126200510301/26/16 20:05:31  5-MIN KACK 270105Z 23013KT 7SM CLR 07/04 A2995 20 79 -800 240/13 RMK AO2 T00720039 $
14756KACK ACK20160126201010301/26/16 20:10:31  5-MIN KACK 270110Z 23013KT 7SM CLR 07/04 A2995 20 82 -900 240/13 RMK AO2 T00670039 $
14756KACK ACK20160126201510301/26/16 20:15:31  5-MIN KACK 270115Z 23014KT 7SM CLR 07/04 A2996 20 79 -800 240/14 RMK AO2 T00720039 $
14756KACK ACK20160126202010301/26/16 20:20:31  5-MIN KACK 270120Z 23014KT 7SM CLR 07/04 A2996 10 79 -800 240/14 RMK AO2 T00720039 $
14756KACK ACK20160126202510301/26/16 20:25:31  5-MIN KACK 270125Z 23014KT 7SM CLR 07/04 A2996 10 79 -800 240/14 RMK AO2 T00720039 $
14756KACK ACK20160126203010301/26/16 20:30:31  5-MIN KACK 270130Z 23014KT 7SM CLR 07/04 A2996 10 79 -800 240/14 RMK AO2 T00720039 $
14756KACK ACK20160126203510601/26/16 20:35:31  5-MIN KACK 270135Z 23014KT 7SM FEW080 07/04 A2996 10 79 -800 240/14 RMK AO2 T00720039 $
14756KACK ACK20160126204010601/26/16 20:40:31  5-MIN KACK 270140Z 23015KT 8SM FEW080 07/04 A2996 10 79 -800 240/15 RMK AO2 T00720039 $
14756KACK ACK20160126204510301/26/16 20:45:31  5-MIN KACK 270145Z 23015KT 8SM CLR 07/04 A2996 10 79 -800 250/15 RMK AO2 T00720039 $
14756KACK ACK20160126205011001/26/16 20:50:31  5-MIN KACK 270150Z 23014KT 8SM CLR 07/04 A2996 20 79 -800 240/14 RMK AO2 SLP144 T00720039 $
14756KACK ACK20160126205510301/26/16 20:55:31  5-MIN KACK 270155Z 22015KT 8SM CLR 07/04 A2996 20 79 -800 240/15 RMK AO2 T00720039 $
14756KACK ACK20160126210011301/26/16 21:00:31  5-MIN KACK 270200Z AUTO 22014KT 8SM CLR 07/04 A2995 20 79 -800 240/14 RMK AO2 T00720039 TSNO $
14756KACK ACK20160126210511301/26/16 21:05:31  5-MIN KACK 270205Z AUTO 22015KT 8SM CLR 08/04 A2995 20 76 -800 240/15 RMK AO2 T00780039 TSNO $
14756KACK ACK20160126211011301/26/16 21:10:31  5-MIN KACK 270210Z AUTO 23015KT 8SM CLR 07/04 A2995 20 79 -800 240/15 RMK AO2 T00720039 TSNO $
14756KACK ACK20160126211511301/26/16 21:15:31  5-MIN KACK 270215Z AUTO 23014KT 8SM CLR 07/04 A2995 20 79 -800 240/14 RMK AO2 T00720039 TSNO $
14756KACK ACK20160126212011301/26/16 21:20:31  5-MIN KACK 270220Z AUTO 23014KT 7SM CLR 07/04 A2995 20 79 -800 240/14 RMK AO2 T00720039 TSNO $
14756KACK ACK20160126212511601/26/16 21:25:31  5-MIN KACK 270225Z AUTO 23014KT 7SM FEW110 07/04 A2995 20 79 -800 240/14 RMK AO2 T00720039 TSNO $
14756KACK ACK20160126213011601/26/16 21:30:31  5-MIN KACK 270230Z AUTO 23014KT 7SM SCT110 07/04 A2995 20 79 -800 240/14 RMK AO2 T00720039 TSNO $
14756KACK ACK20160126213511601/26/16 21:35:31  5-MIN KACK 270235Z AUTO 23015KT 7SM BKN110 07/04 A2995 20 82 -800 240/15 RMK AO2 T00720044 TSNO $
14756KACK ACK20160126214011601/26/16 21:40:31  5-MIN KACK 270240Z AUTO 23015KT 7SM BKN110 07/04 A2995 20 82 -800 240/15 RMK AO2 T00720044 TSNO $
14756KACK ACK20160126214511601/26/16 21:45:31  5-MIN KACK 270245Z AUTO 23015KT 7SM BKN110 07/04 A2995 20 82 -800 240/15 RMK AO2 T00720044 TSNO $
14756KACK ACK20160126215012901/26/16 21:50:31  5-MIN KACK 270250Z AUTO 23015KT 7SM OVC110 07/04 A2995 30 82 -800 240/15 RMK AO2 SLP140 T00720044 51000 TSNO $
14756KACK ACK20160126215511601/26/16 21:55:31  5-MIN KACK 270255Z AUTO 23016KT 7SM OVC110 07/04 A2995 20 82 -800 240/16 RMK AO2 T00720044 TSNO $
14756KACK ACK20160126220011601/26/16 22:00:31  5-MIN KACK 270300Z AUTO 23014KT 7SM OVC110 07/04 A2995 20 82 -800 240/14 RMK AO2 T00720044 TSNO $
14756KACK ACK20160126220511601/26/16 22:05:31  5-MIN KACK 270305Z AUTO 23014KT 7SM OVC110 07/04 A2995 20 82 -800 240/14 RMK AO2 T00720044 TSNO $
14756KACK ACK20160126221011601/26/16 22:10:31  5-MIN KACK 270310Z AUTO 23015KT 7SM OVC110 07/04 A2995 20 82 -800 240/15 RMK AO2 T00720044 TSNO $
14756KACK ACK20160126221511901/26/16 22:15:31  5-MIN KACK 270315Z AUTO 23015KT 6SM HZ OVC110 07/04 A2995 20 82 -800 240/15 RMK AO2 T00720044 TSNO $
14756KACK ACK20160126222011901/26/16 22:20:31  5-MIN KACK 270320Z AUTO 23015KT 6SM HZ OVC110 07/04 A2994 30 82 -800 240/15 RMK AO2 T00720044 TSNO $
14756KACK ACK20160126222511901/26/16 22:25:31  5-MIN KACK 270325Z AUTO 23014KT 6SM HZ OVC110 07/04 A2994 30 82 -800 250/14 RMK AO2 T00720044 TSNO $
14756KACK ACK20160126223012601/26/16 22:30:31  5-MIN KACK 270330Z AUTO 24014KT 6SM HZ FEW090 OVC110 07/04 A2994 30 82 -800 250/14 RMK AO2 T00720044 TSNO $
14756KACK ACK20160126223512601/26/16 22:35:31  5-MIN KACK 270335Z AUTO 23013KT 6SM HZ FEW090 OVC110 07/04 A2994 30 82 -800 250/13 RMK AO2 T00720044 TSNO $
14756KACK ACK20160126224012601/26/16 22:40:31  5-MIN KACK 270340Z AUTO 23014KT 6SM BR SCT090 OVC110 07/04 A2994 30 86 -900 250/14 RMK AO2 T00670044 TSNO $
14756KACK ACK20160126224512601/26/16 22:45:31  5-MIN KACK 270345Z AUTO 23013KT 5SM BR SCT090 BKN110 07/04 A2993 40 86 -900 250/13 RMK AO2 T00670044 TSNO $
14756KACK ACK20160126225013301/26/16 22:50:31  5-MIN KACK 270350Z AUTO 23013KT 6SM BR BKN090 OVC120 07/04 A2993 40 86 -900 250/13 RMK AO2 SLP136 T00670044 TSNO $
14756KACK ACK20160126225512601/26/16 22:55:31  5-MIN KACK 270355Z AUTO 24013KT 6SM HZ BKN095 OVC110 07/04 A2993 40 82 -800 250/13 RMK AO2 T00720044 TSNO $
14756KACK ACK20160126230011901/26/16 23:00:31  5-MIN KACK 270400Z AUTO 24013KT 5SM BR BKN095 07/04 A2993 40 86 -900 250/13 RMK AO2 T00670044 TSNO $
14756KACK ACK20160126230511901/26/16 23:05:31  5-MIN KACK 270405Z AUTO 24013KT 5SM BR BKN095 07/04 A2993 40 86 -900 250/13 RMK AO2 T00670044 TSNO $
14756KACK ACK20160126231012601/26/16 23:10:31  5-MIN KACK 270410Z AUTO 24013KT 5SM HZ FEW065 BKN095 07/04 A2993 40 82 -800 250/13 RMK AO2 T00720044 TSNO $
14756KACK ACK20160126231512601/26/16 23:15:31  5-MIN KACK 270415Z AUTO 24012KT 5SM HZ SCT065 BKN095 07/04 A2993 40 82 -800 250/12 RMK AO2 T00720044 TSNO $
14756KACK ACK20160126232012601/26/16 23:20:31  5-MIN KACK 270420Z AUTO 23013KT 5SM HZ SCT065 BKN100 07/04 A2993 40 82 -800 250/13 RMK AO2 T00720044 TSNO $
14756KACK ACK20160126232512601/26/16 23:25:31  5-MIN KACK 270425Z AUTO 23012KT 5SM BR SCT065 BKN100 07/04 A2993 40 86 -900 250/12 RMK AO2 T00670044 TSNO $
14756KACK ACK20160126233012601/26/16 23:30:31  5-MIN KACK 270430Z AUTO 24013KT 6SM BR SCT060 OVC095 07/04 A2993 40 86 -900 250/13 RMK AO2 T00670044 TSNO $
14756KACK ACK20160126233512601/26/16 23:35:31  5-MIN KACK 270435Z AUTO 23013KT 6SM BR BKN060 OVC095 07/04 A2993 40 86 -900 240/13 RMK AO2 T00670044 TSNO $
14756KACK ACK20160126234012601/26/16 23:40:31  5-MIN KACK 270440Z AUTO 23013KT 6SM BR BKN065 OVC100 07/04 A2992 50 86 -900 240/13 RMK AO2 T00670044 TSNO $
14756KACK ACK20160126234512601/26/16 23:45:31  5-MIN KACK 270445Z AUTO 23013KT 6SM HZ BKN065 OVC100 07/04 A2992 50 82 -800 250/13 RMK AO2 T00720044 TSNO $
14756KACK ACK20160126235014301/26/16 23:50:31  5-MIN KACK 270450Z AUTO 23013KT 6SM BR BKN060 OVC095 07/04 A2992 50 86 -900 250/13 RMK AO2 SLP133 T00670044 400890033 TSNO $
14756KACK ACK20160126235511901/26/16 23:55:31  5-MIN KACK 270455Z AUTO 24013KT 6SM HZ OVC060 07/04 A2992 50 82 -800 250/13 RMK AO2 T00720044 TSNO $
14756KACK ACK20160127000011901/27/16 00:00:31  5-MIN KACK 270500Z AUTO 23013KT 6SM HZ OVC060 07/04 A2992 50 82 -800 250/13 RMK AO2 T00720044 TSNO $
14756KACK ACK20160127000512601/27/16 00:05:31  5-MIN KACK 270505Z AUTO 24013KT 6SM HZ BKN055 OVC070 07/04 A2992 50 82 -800 250/13 RMK AO2 T00720044 TSNO $
14756KACK ACK20160127001011901/27/16 00:10:31  5-MIN KACK 270510Z AUTO 24013KT 6SM HZ OVC055 07/04 A2992 50 82 -800 250/13 RMK AO2 T00720044 TSNO $
14756KACK ACK20160127001511901/27/16 00:15:31  5-MIN KACK 270515Z AUTO 24012KT 6SM HZ OVC055 07/04 A2992 50 82 -800 250/12 RMK AO2 T00720044 TSNO $
14756KACK ACK20160127002011901/27/16 00:20:31  5-MIN KACK 270520Z AUTO 23013KT 6SM HZ OVC055 07/04 A2992 50 82 -800 250/13 RMK AO2 T00720044 TSNO $
14756KACK ACK20160127002511901/27/16 00:25:31  5-MIN KACK 270525Z AUTO 24012KT 6SM BR OVC060 07/04 A2992 50 86 -900 250/12 RMK AO2 T00670044 TSNO $
14756KACK ACK20160127003012601/27/16 00:30:31  5-MIN KACK 270530Z AUTO 24012KT 5SM HZ BKN060 OVC075 07/04 A2992 50 82 -800 260/12 RMK AO2 T00720044 TSNO $
14756KACK ACK20160127003512601/27/16 00:35:31  5-MIN KACK 270535Z AUTO 24014KT 6SM BR BKN060 OVC075 07/05 A2992 50 86 -800 260/14 RMK AO2 T00720050 TSNO $
14756KACK ACK20160127004012601/27/16 00:40:31  5-MIN KACK 270540Z AUTO 24014KT 6SM BR BKN060 OVC075 07/05 A2992 50 86 -800 260/14 RMK AO2 T00720050 TSNO $
14756KACK ACK20160127004511901/27/16 00:45:31  5-MIN KACK 270545Z AUTO 24013KT 6SM BR OVC070 07/05 A2993 40 86 -800 260/13 RMK AO2 T00720050 TSNO $
14756KACK ACK20160127005015801/27/16 00:50:31  5-MIN KACK 270550Z AUTO 24014KT 6SM BR FEW050 BKN060 OVC075 07/05 A2993 40 86 -800 260/14 RMK AO2 SLP134 T00720050 10078 20067 58003 TSNO $
14756KACK ACK20160127005512601/27/16 00:55:31  5-MIN KACK 270555Z AUTO 24013KT 6SM HZ FEW050 OVC070 08/05 A2992 50 82 -700 260/13 RMK AO2 T00780050 TSNO $
14756KACK ACK20160127010012601/27/16 01:00:31  5-MIN KACK 270600Z AUTO 24013KT 6SM HZ SCT060 OVC070 08/05 A2993 40 82 -700 260/13 RMK AO2 T00780050 TSNO $
14756KACK ACK20160127010512601/27/16 01:05:31  5-MIN KACK 270605Z AUTO 24012KT 6SM BR SCT060 OVC070 07/05 A2992 50 86 -800 250/12 RMK AO2 T00720050 TSNO $
14756KACK ACK20160127011012601/27/16 01:10:31  5-MIN KACK 270610Z AUTO 24011KT 5SM BR SCT055 OVC070 07/05 A2992 50 86 -800 250/11 RMK AO2 T00720050 TSNO $
14756KACK ACK20160127011512601/27/16 01:15:31  5-MIN KACK 270615Z AUTO 24012KT 5SM BR BKN050 OVC070 07/05 A2992 50 86 -800 250/12 RMK AO2 T00720050 TSNO $
14756KACK ACK20160127012012601/27/16 01:20:31  5-MIN KACK 270620Z AUTO 24012KT 5SM BR BKN055 OVC070 07/05 A2992 50 86 -800 260/12 RMK AO2 T00720050 TSNO $
14756KACK ACK20160127012512601/27/16 01:25:31  5-MIN KACK 270625Z AUTO 24011KT 6SM BR BKN055 OVC070 07/05 A2991 60 86 -800 250/11 RMK AO2 T00720050 TSNO $
14756KACK ACK20160127013012601/27/16 01:30:31  5-MIN KACK 270630Z AUTO 23011KT 6SM BR BKN055 OVC070 07/05 A2991 60 86 -800 250/11 RMK AO2 T00720050 TSNO $
14756KACK ACK20160127013512601/27/16 01:35:31  5-MIN KACK 270635Z AUTO 23011KT 5SM HZ BKN055 OVC085 07/04 A2991 50 82 -800 250/11 RMK AO2 T00720044 TSNO $
14756KACK ACK20160127014011901/27/16 01:40:31  5-MIN KACK 270640Z AUTO 23010KT 5SM HZ OVC055 07/04 A2991 60 82 -800 250/10 RMK AO2 T00720044 TSNO $
14756KACK ACK20160127014511901/27/16 01:45:31  5-MIN KACK 270645Z AUTO 23011KT 5SM BR OVC055 07/04 A2991 60 86 -800 250/11 RMK AO2 T00670044 TSNO $
14756KACK ACK20160127015012601/27/16 01:50:31  5-MIN KACK 270650Z AUTO 24010KT 5SM BR OVC055 07/04 A2991 60 86 -800 250/10 RMK AO2 SLP128 T00670044 TSNO $
14756KACK ACK20160127015511901/27/16 01:55:31  5-MIN KACK 270655Z AUTO 23010KT 5SM BR OVC055 07/04 A2991 60 86 -800 250/10 RMK AO2 T00670044 TSNO $
14756KACK ACK20160127020011901/27/16 02:00:31  5-MIN KACK 270700Z AUTO 23009KT 5SM BR OVC050 07/04 A2991 60 86 -800 240/09 RMK AO2 T00670044 TSNO $
14756KACK ACK20160127020511901/27/16 02:05:31  5-MIN KACK 270705Z AUTO 23008KT 5SM BR OVC050 07/04 A2990 70 86 -800 240/08 RMK AO2 T00670044 TSNO $
14756KACK ACK20160127021011901/27/16 02:10:31  5-MIN KACK 270710Z AUTO 23009KT 5SM BR OVC050 07/04 A2990 70 86 -800 250/09 RMK AO2 T00670044 TSNO $
14756KACK ACK20160127021511901/27/16 02:15:31  5-MIN KACK 270715Z AUTO 23010KT 6SM BR OVC050 07/04 A2990 70 86 -800 250/10 RMK AO2 T00670044 TSNO $
14756KACK ACK20160127022011901/27/16 02:20:31  5-MIN KACK 270720Z AUTO 23010KT 6SM BR OVC050 07/04 A2990 70 86 -800 240/10 RMK AO2 T00670044 TSNO $
14756KACK ACK20160127022512601/27/16 02:25:31  5-MIN KACK 270725Z AUTO 23010KT 6SM BR BKN050 OVC065 07/04 A2990 70 86 -800 240/10 RMK AO2 T00670044 TSNO $
14756KACK ACK20160127023012601/27/16 02:30:31  5-MIN KACK 270730Z AUTO 24010KT 6SM BR SCT050 OVC065 07/04 A2990 70 86 -800 250/10 RMK AO2 T00670044 TSNO $
14756KACK ACK20160127023511901/27/16 02:35:31  5-MIN KACK 270735Z AUTO 23010KT 6SM BR OVC060 07/04 A2990 70 86 -800 240/10 RMK AO2 T00670044 TSNO $
14756KACK ACK20160127024011901/27/16 02:40:31  5-MIN KACK 270740Z AUTO 23009KT 6SM BR OVC065 07/04 A2990 70 86 -800 250/09 RMK AO2 T00670044 TSNO $
14756KACK ACK20160127024512601/27/16 02:45:31  5-MIN KACK 270745Z AUTO 24009KT 6SM BR FEW050 OVC065 07/04 A2990 70 86 -800 250/09 RMK AO2 T00670044 TSNO $
14756KACK ACK20160127025012601/27/16 02:50:31  5-MIN KACK 270750Z AUTO 24010KT 6SM BR OVC065 07/04 A2990 70 86 -800 250/10 RMK AO2 SLP124 T00670044 TSNO $
14756KACK ACK20160127025511901/27/16 02:55:31  5-MIN KACK 270755Z AUTO 24010KT 5SM BR OVC065 07/04 A2989 70 86 -800 260/10 RMK AO2 T00670044 TSNO $
14756KACK ACK20160127030011901/27/16 03:00:31  5-MIN KACK 270800Z AUTO 24010KT 5SM BR OVC065 07/04 A2990 70 86 -800 250/10 RMK AO2 T00670044 TSNO $
14756KACK ACK20160127030511901/27/16 03:05:31  5-MIN KACK 270805Z AUTO 24010KT 5SM BR OVC060 07/04 A2989 80 86 -800 250/10 RMK AO2 T00670044 TSNO $
14756KACK ACK20160127031011901/27/16 03:10:31  5-MIN KACK 270810Z AUTO 24009KT 5SM BR OVC060 07/04 A2989 80 86 -800 260/09 RMK AO2 T00670044 TSNO $
14756KACK ACK20160127031511901/27/16 03:15:31  5-MIN KACK 270815Z AUTO 24009KT 5SM BR OVC060 07/05 A2988 80 86 -700 250/09 RMK AO2 T00720050 TSNO $
14756KACK ACK20160127032011901/27/16 03:20:31  5-MIN KACK 270820Z AUTO 23008KT 5SM BR OVC060 07/04 A2988 80 86 -800 250/08 RMK AO2 T00670044 TSNO $
14756KACK ACK20160127032511901/27/16 03:25:31  5-MIN KACK 270825Z AUTO 24008KT 4SM BR OVC060 07/04 A2989 80 86 -800 250/08 RMK AO2 T00670044 TSNO $
14756KACK ACK20160127033011901/27/16 03:30:31  5-MIN KACK 270830Z AUTO 24008KT 4SM BR OVC060 07/04 A2989 80 86 -800 260/08 RMK AO2 T00670044 TSNO $
14756KACK ACK20160127033511901/27/16 03:35:31  5-MIN KACK 270835Z AUTO 24008KT 4SM BR OVC060 07/04 A2989 80 86 -800 250/08 RMK AO2 T00670044 TSNO $
14756KACK ACK20160127034011901/27/16 03:40:31  5-MIN KACK 270840Z AUTO 23007KT 4SM BR OVC060 07/04 A2989 80 86 -800 250/07 RMK AO2 T00670044 TSNO $
14756KACK ACK20160127034511901/27/16 03:45:31  5-MIN KACK 270845Z AUTO 23006KT 4SM BR OVC060 06/04 A2989 80 89 -900 250/06 RMK AO2 T00610044 TSNO $
14756KACK ACK20160127035013201/27/16 03:50:31  5-MIN KACK 270850Z AUTO 23006KT 3SM BR OVC060 06/04 A2988 80 89 -900 240/06 RMK AO2 SLP120 T00610044 56007 TSNO $
14756KACK ACK20160127035511901/27/16 03:55:31  5-MIN KACK 270855Z AUTO 23006KT 3SM BR OVC055 06/04 A2989 80 89 -900 250/06 RMK AO2 T00610044 TSNO $
14756KACK ACK20160127040012301/27/16 04:00:31  5-MIN KACK 270900Z AUTO 23006KT 2 1/2SM BR OVC055 06/04 A2989 80 89 -900 240/06 RMK AO2 T00610044 TSNO $
14756KACK ACK20160127040512301/27/16 04:05:31  5-MIN KACK 270905Z AUTO 23006KT 2 1/2SM BR OVC055 06/04 A2989 80 89 -900 240/06 RMK AO2 T00610044 TSNO $
14756KACK ACK20160127041012301/27/16 04:10:31  5-MIN KACK 270910Z AUTO 23006KT 2 1/2SM BR OVC055 06/04 A2989 80 89 -900 240/06 RMK AO2 T00610044 TSNO $
14756KACK ACK20160127041512301/27/16 04:15:31  5-MIN KACK 270915Z AUTO 22006KT 2 1/2SM BR OVC055 06/04 A2989 80 89 -900 240/06 RMK AO2 T00610044 TSNO $
14756KACK ACK20160127042012301/27/16 04:20:31  5-MIN KACK 270920Z AUTO 22006KT 2 1/2SM BR OVC055 06/04 A2989 80 89 -900 240/06 RMK AO2 T00610044 TSNO $
14756KACK ACK20160127042511901/27/16 04:25:31  5-MIN KACK 270925Z AUTO 22006KT 4SM BR OVC055 06/04 A2989 80 89 -900 240/06 RMK AO2 T00610044 TSNO $
14756KACK ACK20160127043011901/27/16 04:30:31  5-MIN KACK 270930Z AUTO 23006KT 5SM BR OVC050 07/05 A2989 80 89 -800 240/06 RMK AO2 T00670050 TSNO $
14756KACK ACK20160127043511901/27/16 04:35:31  5-MIN KACK 270935Z AUTO 23006KT 5SM BR OVC050 06/04 A2989 80 89 -900 240/06 RMK AO2 T00610044 TSNO $
14756KACK ACK20160127044011901/27/16 04:40:31  5-MIN KACK 270940Z AUTO 24006KT 5SM BR OVC050 06/04 A2989 80 89 -900 250/06 RMK AO2 T00610044 TSNO $
14756KACK ACK20160127044511901/27/16 04:45:31  5-MIN KACK 270945Z AUTO 24006KT 5SM BR OVC050 06/04 A2988 80 89 -900 250/06 RMK AO2 T00610044 TSNO $
14756KACK ACK20160127045012601/27/16 04:50:31  5-MIN KACK 270950Z AUTO 24007KT 5SM BR OVC050 07/04 A2988 90 86 -800 250/07 RMK AO2 SLP118 T00670044 TSNO $
14756KACK ACK20160127045511901/27/16 04:55:31  5-MIN KACK 270955Z AUTO 24008KT 5SM BR OVC050 07/05 A2988 80 89 -800 260/08 RMK AO2 T00670050 TSNO $
14756KACK ACK20160127050011901/27/16 05:00:31  5-MIN KACK 271000Z AUTO 24009KT 5SM BR OVC048 07/05 A2989 80 89 -800 250/09 RMK AO2 T00670050 TSNO $
14756KACK ACK20160127050511901/27/16 05:05:31  5-MIN KACK 271005Z AUTO 24008KT 5SM BR OVC048 07/05 A2989 80 89 -800 260/08 RMK AO2 T00670050 TSNO $
14756KACK ACK20160127051011901/27/16 05:10:31  5-MIN KACK 271010Z AUTO 25010KT 5SM BR OVC048 07/05 A2989 70 86 -800 270/10 RMK AO2 T00720050 TSNO $
14756KACK ACK20160127051511601/27/16 05:15:31  5-MIN KACK 271015Z AUTO 25011KT 7SM OVC048 08/05 A2989 70 82 -700 270/11 RMK AO2 T00780050 TSNO $
14756KACK ACK20160127052011601/27/16 05:20:31  5-MIN KACK 271020Z AUTO 26010KT 9SM OVC048 08/05 A2990 70 82 -700 270/10 RMK AO2 T00780050 TSNO $
14756KACK ACK20160127052511701/27/16 05:25:31  5-MIN KACK 271025Z AUTO 26011KT 10SM OVC048 08/05 A2991 60 82 -700 280/11 RMK AO2 T00780050 TSNO $
14756KACK ACK20160127053011701/27/16 05:30:31  5-MIN KACK 271030Z AUTO 27011KT 10SM OVC048 08/05 A2991 60 82 -700 280/11 RMK AO2 T00780050 TSNO $
14756KACK ACK20160127053511701/27/16 05:35:31  5-MIN KACK 271035Z AUTO 27010KT 10SM OVC050 08/05 A2992 50 82 -700 280/10 RMK AO2 T00780050 TSNO $
14756KACK ACK20160127054011701/27/16 05:40:31  5-MIN KACK 271040Z AUTO 26011KT 10SM OVC050 08/05 A2992 50 82 -700 280/11 RMK AO2 T00780050 TSNO $
14756KACK ACK20160127054511701/27/16 05:45:31  5-MIN KACK 271045Z AUTO 26012KT 10SM OVC050 08/05 A2992 50 82 -700 280/12 RMK AO2 T00780050 TSNO $
14756KACK ACK20160127055012401/27/16 05:50:31  5-MIN KACK 271050Z AUTO 27009KT 10SM OVC050 08/05 A2991 60 82 -700 290/09 RMK AO2 SLP129 T00780050 TSNO $
14756KACK ACK20160127055511701/27/16 05:55:31  5-MIN KACK 271055Z 27011KT 10SM -RA OVC050 08/05 A2991 60 82 -700 290/11 RMK AO2 P0000 T00780050 $
14756KACK ACK20160127060012401/27/16 06:00:31  5-MIN KACK 271100Z 28010KT 10SM -RA OVC050 08/04 A2989 70 79 -700 300/10 RMK AO2 PRESFR P0000 T00780044 $
14756KACK ACK20160127060511901/27/16 06:05:31  5-MIN KACK 271105Z 28008KT 10SM OVC050 08/04 A2989 80 79 -700 290/08 RMK AO2 RAE04 P0000 T00780044 $
14756KACK ACK20160127061011901/27/16 06:10:31  5-MIN KACK 271110Z 28009KT 10SM OVC050 07/04 A2989 70 82 -800 290/09 RMK AO2 RAE04 P0000 T00720044 $
14756KACK ACK20160127061511901/27/16 06:15:31  5-MIN KACK 271115Z 27008KT 10SM OVC048 07/04 A2990 70 82 -800 290/08 RMK AO2 RAE04 P0000 T00720044 $
14756KACK ACK20160127062011701/27/16 06:20:31  5-MIN KACK 271120Z 27009KT 10SM -RA OVC048 07/04 A2991 60 82 -800 290/09 RMK AO2 P0000 T00720044 $
14756KACK ACK20160127062511601/27/16 06:25:31  5-MIN KACK 271125Z 28009KT 9SM -RA OVC048 07/04 A2991 60 82 -800 300/09 RMK AO2 P0000 T00720044 $
14756KACK ACK20160127063011601/27/16 06:30:31  5-MIN KACK 271130Z 28008KT 9SM -RA OVC048 07/04 A2991 60 82 -800 290/08 RMK AO2 P0000 T00720044 $
14756KACK ACK20160127063511701/27/16 06:35:31  5-MIN KACK 271135Z 28009KT 10SM -RA OVC048 07/04 A2991 60 86 -800 300/09 RMK AO2 P0000 T00670044 $
14756KACK ACK20160127064011701/27/16 06:40:31  5-MIN KACK 271140Z 28009KT 10SM -RA OVC048 07/04 A2992 50 86 -900 300/09 RMK AO2 P0000 T00670044 $
14756KACK ACK20160127064511701/27/16 06:45:31  5-MIN KACK 271145Z 28010KT 10SM -RA OVC048 07/04 A2992 50 86 -900 300/10 RMK AO2 P0000 T00670044 $
14756KACK ACK20160127065014701/27/16 06:50:31  5-MIN KACK 271150Z 29009KT 9SM -RA OVC046 07/04 A2992 50 86 -900 310/09 RMK AO2 SLP131 P0000 60000 T00670044 10078 20061 56013 $
14756KACK ACK20160127065511601/27/16 06:55:31  5-MIN KACK 271155Z 29010KT 9SM -RA OVC046 07/04 A2992 50 86 -900 310/10 RMK AO2 P0000 T00670044 $
14756KACK ACK20160127070011601/27/16 07:00:31  5-MIN KACK 271200Z 29008KT 8SM -RA OVC046 07/04 A2992 50 86 -900 310/08 RMK AO2 P0000 T00670044 $
14756KACK ACK20160127070511601/27/16 07:05:31  5-MIN KACK 271205Z 28009KT 7SM -RA OVC046 07/04 A2993 40 86 -900 300/09 RMK AO2 P0000 T00670044 $
14756KACK ACK20160127071011901/27/16 07:10:31  5-MIN KACK 271210Z 29008KT 6SM -RA BR OVC046 07/04 A2993 40 86 -900 300/08 RMK AO2 P0001 T00670044 $
14756KACK ACK20160127071511801/27/16 07:15:31  5-MIN KACK 271215Z 28008KT 6SM RA BR OVC044 07/04 A2993 40 86 -900 300/08 RMK AO2 P0001 T00670044 $
14756KACK ACK20160127072011801/27/16 07:20:31  5-MIN KACK 271220Z 30008KT 4SM RA BR OVC044 06/04 A2993 40 89 -900 310/08 RMK AO2 P0002 T00610044 $
14756KACK ACK20160127072511801/27/16 07:25:31  5-MIN KACK 271225Z 30007KT 4SM RA BR OVC044 06/04 A2993 40 89 -900 310/07 RMK AO2 P0003 T00610044 $
14756KACK ACK20160127073011901/27/16 07:30:31  5-MIN KACK 271230Z 30006KT 4SM -RA BR OVC044 06/04 A2993 40 89 -900 320/06 RMK AO2 P0003 T00610044 $
14756KACK ACK20160127073511901/27/16 07:35:31  5-MIN KACK 271235Z 32006KT 4SM -RA BR OVC042 06/04 A2992 50 89 -900 330/06 RMK AO2 P0003 T00610044 $
14756KACK ACK20160127074011901/27/16 07:40:31  5-MIN KACK 271240Z 31005KT 4SM -RA BR OVC042 06/04 A2992 50 89 -900 330/05 RMK AO2 P0004 T00610044 $
14756KACK ACK20160127074511901/27/16 07:45:31  5-MIN KACK 271245Z 31006KT 5SM -RA BR OVC042 06/04 A2993 40 89 -900 320/06 RMK AO2 P0004 T00610044 $
14756KACK ACK20160127075012601/27/16 07:50:31  5-MIN KACK 271250Z 32006KT 6SM -RA BR OVC042 06/04 A2993 40 89 -900 340/06 RMK AO2 SLP135 P0004 T00610044 $
14756KACK ACK20160127075511901/27/16 07:55:31  5-MIN KACK 271255Z 32006KT 6SM -RA BR OVC042 06/04 A2993 40 89 -900 330/06 RMK AO2 P0000 T00610044 $
14756KACK ACK20160127080011901/27/16 08:00:31  5-MIN KACK 271300Z 31006KT 6SM -RA BR OVC042 06/04 A2994 30 89 -900 330/06 RMK AO2 P0000 T00610044 $
14756KACK ACK20160127080511601/27/16 08:05:31  5-MIN KACK 271305Z 31006KT 7SM -RA OVC042 06/04 A2994 30 89 -900 330/06 RMK AO2 P0000 T00610044 $
14756KACK ACK20160127081011601/27/16 08:10:31  5-MIN KACK 271310Z 31007KT 7SM -RA OVC043 06/04 A2994 30 89 -900 330/07 RMK AO2 P0000 T00610044 $
14756KACK ACK20160127081512001/27/16 08:15:31  5-MIN KACK 271315Z 31005KT 6SM -RA BR OVC043 06/04 A2995 20 89 -1000 320/05 RMK AO2 P0000 T00610044 $
14756KACK ACK20160127082012001/27/16 08:20:31  5-MIN KACK 271320Z 31006KT 5SM -RA BR OVC043 06/04 A2995 30 89 -1000 330/06 RMK AO2 P0000 T00610044 $
14756KACK ACK20160127082512001/27/16 08:25:31  5-MIN KACK 271325Z 31006KT 5SM -RA BR OVC043 06/04 A2995 20 89 -1000 330/06 RMK AO2 P0000 T00610044 $
14756KACK ACK20160127083011901/27/16 08:30:31  5-MIN KACK 271330Z 32006KT 6SM -RA BR OVC044 06/04 A2994 30 86 -900 330/06 RMK AO2 P0001 T00610039 $
14756KACK ACK20160127083511601/27/16 08:35:31  5-MIN KACK 271335Z 33008KT 7SM -RA OVC044 06/04 A2994 30 86 -900 350/08 RMK AO2 P0001 T00610039 $
14756KACK ACK20160127084011701/27/16 08:40:31  5-MIN KACK 271340Z 33008KT 7SM -RA OVC044 06/03 A2994 30 85 -1000 350/08 RMK AO2 P0001 T00560033 $
14756KACK ACK20160127084511701/27/16 08:45:31  5-MIN KACK 271345Z 32007KT 7SM -RA OVC045 06/03 A2995 20 85 -1000 340/07 RMK AO2 P0001 T00560033 $
14756KACK ACK20160127085012401/27/16 08:50:31  5-MIN KACK 271350Z 33007KT 7SM -RA OVC045 06/03 A2995 20 85 -1000 350/07 RMK AO2 SLP142 P0001 T00560033 $
14756KACK ACK20160127085512001/27/16 08:55:31  5-MIN KACK 271355Z 33006KT 6SM -RA BR OVC047 06/03 A2995 20 85 -1000 350/06 RMK AO2 P0000 T00560033 $
14756KACK ACK20160127090012001/27/16 09:00:31  5-MIN KACK 271400Z 33008KT 6SM -RA BR OVC047 05/03 A2996 10 85 -1100 350/08 RMK AO2 P0000 T00500028 $
14756KACK ACK20160127090512401/27/16 09:05:31  5-MIN KACK 271405Z 32007KT 7SM -RA FEW031 OVC047 05/03 A2996 10 85 -1100 340/07 RMK AO2 P0000 T00500028 $
14756KACK ACK20160127091012401/27/16 09:10:31  5-MIN KACK 271410Z 34006KT 7SM -RA SCT029 OVC047 05/03 A2996 10 85 -1100 350/06 RMK AO2 P0001 T00500028 $
14756KACK ACK20160127091513401/27/16 09:15:31  5-MIN KACK 271415Z 34007KT 6SM -RA BR SCT029 BKN036 OVC047 05/03 A2997 10 85 -1100 350/07 RMK AO2 P0001 T00500028 $
14756KACK ACK20160127092013401/27/16 09:20:31  5-MIN KACK 271420Z 34007KT 5SM -RA BR FEW022 BKN034 OVC047 05/03 A2997 10 85 -1100 350/07 RMK AO2 P0002 T00500028 $
14756KACK ACK20160127092512001/27/16 09:25:31  5-MIN KACK 271425Z 33008KT 5SM -RA BR OVC030 05/03 A2997 10 85 -1100 340/08 RMK AO2 P0002 T00500028 $
14756KACK ACK20160127093011701/27/16 09:30:31  5-MIN KACK 271430Z 33009KT 5SM -RA OVC030 05/02 A2996 10 82 -1100 340/09 RMK AO2 P0003 T00500022 $
14756KACK ACK20160127093511701/27/16 09:35:31  5-MIN KACK 271435Z 32007KT 6SM -RA OVC030 05/02 A2996 10 82 -1100 330/07 RMK AO2 P0003 T00500022 $
14756KACK ACK20160127094011701/27/16 09:40:31  5-MIN KACK 271440Z 31007KT 6SM -RA OVC030 05/02 A2997 10 82 -1100 330/07 RMK AO2 P0003 T00500022 $
14756KACK ACK20160127094512001/27/16 09:45:31  5-MIN KACK 271445Z 31005KT 6SM -RA BR OVC030 05/03 A2997 10 85 -1100 330/05 RMK AO2 P0004 T00500028 $
14756KACK ACK20160127095013901/27/16 09:50:31  5-MIN KACK 271450Z 31004KT 6SM -RA BR OVC030 05/03 A2997 10 85 -1100 320/04 RMK AO2 SLP147 P0004 60009 T00500028 53012 $
14756KACK ACK20160127095511701/27/16 09:55:31  5-MIN KACK 271455Z 29003KT 6SM -RA OVC032 05/02 A2996 10 82 -1100 310/03 RMK AO2 P0000 T00500022 $
14756KACK ACK20160127100011701/27/16 10:00:31  5-MIN KACK 271500Z 00000KT 7SM -RA OVC035 05/02 A2996 10 82 -1100 000/00 RMK AO2 P0000 T00500022 $
14756KACK ACK20160127100511701/27/16 10:05:31  5-MIN KACK 271505Z 00000KT 9SM -RA OVC035 05/02 A2995 20 82 -1100 000/00 RMK AO2 P0000 T00500022 $
14756KACK ACK20160127101011801/27/16 10:10:31  5-MIN KACK 271510Z 00000KT 10SM -RA OVC035 05/02 A2995 20 82 -1100 000/00 RMK AO2 P0000 T00500022 $
14756KACK ACK20160127101512701/27/16 10:15:31  5-MIN KACK 271515Z 00000KT 10SM BKN035 OVC045 05/02 A2996 20 82 -1100 000/00 RMK AO2 RAE15 P0000 T00500022 $
14756KACK ACK20160127102012701/27/16 10:20:31  5-MIN KACK 271520Z 00000KT 10SM BKN041 OVC060 05/02 A2996 10 82 -1100 000/00 RMK AO2 RAE15 P0000 T00500022 $
14756KACK ACK20160127102512701/27/16 10:25:31  5-MIN KACK 271525Z 00000KT 10SM BKN041 OVC060 05/02 A2996 10 82 -1100 000/00 RMK AO2 RAE15 P0000 T00500022 $
14756KACK ACK20160127103012701/27/16 10:30:31  5-MIN KACK 271530Z 25003KT 10SM SCT041 OVC065 05/02 A2995 20 82 -1100 260/03 RMK AO2 RAE15 P0000 T00500022 $
14756KACK ACK20160127103513301/27/16 10:35:31  5-MIN KACK 271535Z 22003KT 8SM FEW041 SCT055 OVC070 05/02 A2996 20 82 -1100 240/03 RMK AO2 RAE15 P0000 T00500022 $
14756KACK ACK20160127104013601/27/16 10:40:31  5-MIN KACK 271540Z 22005KT 5SM HZ FEW050 BKN070 OVC095 06/03 A2996 10 82 -1000 230/05 RMK AO2 RAE15 P0000 T00560028 $
14756KACK ACK20160127104512901/27/16 10:45:31  5-MIN KACK 271545Z 23004KT 3SM HZ SCT070 OVC090 06/03 A2996 10 82 -1000 250/04 RMK AO2 RAE15 P0000 T00560028 $
14756KACK ACK20160127105013301/27/16 10:50:31  5-MIN KACK 271550Z 22005KT 7SM SCT070 OVC090 05/03 A2996 10 89 -1100 230/05 RMK AO2 RAE15 SLP145 P0000 T00500033 $
14756KACK ACK20160127105512401/27/16 10:55:31  5-MIN KACK 271555Z 22004KT 5SM BR FEW075 BKN090 BKN110 06/03 A2996 10 85 -1000 230/04 RMK AO2 T00560033 $
14756KACK ACK20160127110012401/27/16 11:00:31  5-MIN KACK 271600Z 22005KT 6SM BR FEW080 BKN095 BKN110 06/03 A2996 20 85 -1000 230/05 RMK AO2 T00560033 $
14756KACK ACK20160127110511701/27/16 11:05:31  5-MIN KACK 271605Z 23006KT 6SM BR SCT090 OVC110 06/03 A2996 10 85 -1000 250/06 RMK AO2 T00560033 $
14756KACK ACK20160127111011001/27/16 11:10:31  5-MIN KACK 271610Z 23007KT 6SM BR OVC100 06/03 A2996 10 85 -1000 250/07 RMK AO2 T00560033 $
14756KACK ACK20160127111511001/27/16 11:15:31  5-MIN KACK 271615Z 24006KT 6SM BR BKN110 06/03 A2996 10 85 -1000 250/06 RMK AO2 T00560033 $
14756KACK ACK20160127112011001/27/16 11:20:31  5-MIN KACK 271620Z 24007KT 6SM BR BKN110 06/03 A2996 10 85 -1000 250/07 RMK AO2 T00560033 $
14756KACK ACK20160127112511001/27/16 11:25:31  5-MIN KACK 271625Z 24008KT 6SM BR BKN110 06/03 A2996 10 85 -1000 260/08 RMK AO2 T00560033 $
14756KACK ACK20160127113011001/27/16 11:30:31  5-MIN KACK 271630Z 24009KT 6SM BR BKN110 06/03 A2996 10 85 -1000 250/09 RMK AO2 T00560033 $
14756KACK ACK20160127113511001/27/16 11:35:31  5-MIN KACK 271635Z 24009KT 6SM BR SCT110 06/03 A2996 10 85 -1000 260/09 RMK AO2 T00560033 $
14756KACK ACK20160127114011001/27/16 11:40:31  5-MIN KACK 271640Z 24009KT 6SM BR FEW110 06/03 A2996 10 85 -1000 260/09 RMK AO2 T00560033 $
14756KACK ACK20160127114511001/27/16 11:45:31  5-MIN KACK 271645Z 24009KT 6SM HZ FEW110 06/03 A2996 10 82 -1000 250/09 RMK AO2 T00610033 $
14756KACK ACK20160127115011401/27/16 11:50:31  5-MIN KACK 271650Z 24010KT 7SM FEW110 06/03 A2996 10 85 -1000 250/10 RMK AO2 SLP145 T00560033 $
14756KACK ACK20160127115511001/27/16 11:55:31  5-MIN KACK 271655Z 24009KT 6SM HZ FEW110 06/03 A2996 20 82 -1000 250/09 RMK AO2 T00610033 $
14756KACK ACK20160127120011001/27/16 12:00:31  5-MIN KACK 271700Z 24009KT 6SM BR SCT110 06/03 A2995 20 85 -1000 250/09 RMK AO2 T00560033 $
14756KACK ACK20160127120510701/27/16 12:05:31  5-MIN KACK 271705Z 25010KT 7SM SCT110 06/03 A2995 20 82 -1000 260/10 RMK AO2 T00610033 $
14756KACK ACK20160127121010601/27/16 12:10:31  5-MIN KACK 271710Z 25009KT 8SM BKN110 06/03 A2994 30 82 -900 270/09 RMK AO2 T00610033 $
14756KACK ACK20160127121510601/27/16 12:15:31  5-MIN KACK 271715Z 26009KT 9SM BKN110 06/03 A2994 30 82 -900 270/09 RMK AO2 T00610033 $
14756KACK ACK20160127122010701/27/16 12:20:31  5-MIN KACK 271720Z 26008KT 10SM BKN110 06/03 A2994 30 79 -900 270/08 RMK AO2 T00610028 $
14756KACK ACK20160127122510701/27/16 12:25:31  5-MIN KACK 271725Z 27008KT 10SM BKN110 06/03 A2993 40 79 -900 280/08 RMK AO2 T00610028 $
14756KACK ACK20160127123010701/27/16 12:30:31  5-MIN KACK 271730Z 27007KT 10SM SCT110 06/03 A2993 40 82 -900 280/07 RMK AO2 T00610033 $
14756KACK ACK20160127123510701/27/16 12:35:31  5-MIN KACK 271735Z 26008KT 10SM SCT110 06/03 A2993 40 79 -900 270/08 RMK AO2 T00610028 $
14756KACK ACK20160127124010701/27/16 12:40:31  5-MIN KACK 271740Z 27010KT 10SM FEW120 06/03 A2993 40 79 -900 280/10 RMK AO2 T00610028 $
14756KACK ACK20160127124510401/27/16 12:45:31  5-MIN KACK 271745Z 26009KT 10SM CLR 07/03 A2993 40 76 -900 280/09 RMK AO2 T00670028 $
14756KACK ACK20160127125013501/27/16 12:50:31  5-MIN KACK 271750Z 27011KT 10SM CLR 07/02 A2993 40 73 -900 290/11 RMK AO2 SLP135 60009 T00670022 10067 20050 51013 $
14756KACK ACK20160127125510201/27/16 12:55:31  5-MIN KACK 271755Z 27009KT 10SM CLR 07/02 A2993 40 70 -900 290/09 RMK AO2 T00670017
14756KACK ACK20160127130010201/27/16 13:00:31  5-MIN KACK 271800Z 27008KT 10SM CLR 07/02 A2993 40 70 -900 290/08 RMK AO2 T00670017
14756KACK ACK20160127130510201/27/16 13:05:31  5-MIN KACK 271805Z 28008KT 10SM CLR 07/02 A2993 40 70 -900 300/08 RMK AO2 T00670017
14756KACK ACK20160127131010201/27/16 13:10:31  5-MIN KACK 271810Z 28007KT 10SM CLR 07/02 A2993 40 73 -900 290/07 RMK AO2 T00670022
14756KACK ACK20160127131510201/27/16 13:15:31  5-MIN KACK 271815Z 28008KT 10SM CLR 07/02 A2993 40 73 -900 300/08 RMK AO2 T00670022
14756KACK ACK20160127132010501/27/16 13:20:31  5-MIN KACK 271820Z 27009KT 10SM FEW022 07/02 A2993 40 73 -900 290/09 RMK AO2 T00670022
14756KACK ACK20160127132510501/27/16 13:25:31  5-MIN KACK 271825Z 28008KT 10SM FEW022 07/02 A2993 40 73 -900 300/08 RMK AO2 T00670022
14756KACK ACK20160127133010201/27/16 13:30:31  5-MIN KACK 271830Z 28009KT 10SM CLR 07/02 A2993 40 70 -900 300/09 RMK AO2 T00670017
14756KACK ACK20160127133510201/27/16 13:35:31  5-MIN KACK 271835Z 29009KT 10SM CLR 07/02 A2993 40 70 -900 310/09 RMK AO2 T00670017
14756KACK ACK20160127134010201/27/16 13:40:31  5-MIN KACK 271840Z 28011KT 10SM CLR 07/01 A2993 40 67 -900 300/11 RMK AO2 T00670011
14756KACK ACK20160127134510201/27/16 13:45:31  5-MIN KACK 271845Z 28009KT 10SM CLR 07/01 A2993 40 65 -800 290/09 RMK AO2 T00720011
14756KACK ACK20160127135010901/27/16 13:50:31  5-MIN KACK 271850Z 29010KT 10SM CLR 07/01 A2993 40 65 -800 310/10 RMK AO2 SLP134 T00720011
14756KACK ACK20160127135510201/27/16 13:55:31  5-MIN KACK 271855Z 31012KT 10SM CLR 07/00 A2993 40 62 -900 320/12 RMK AO2 T00670000
14756KACK ACK20160127140010301/27/16 14:00:31  5-MIN KACK 271900Z 30014KT 10SM CLR 07/M01 A2993 40 57 -900 320/14 RMK AO2 T00671011
14756KACK ACK20160127140510301/27/16 14:05:31  5-MIN KACK 271905Z 29013KT 10SM CLR 07/M01 A2993 40 57 -900 300/13 RMK AO2 T00671011
14756KACK ACK20160127141010301/27/16 14:10:31  5-MIN KACK 271910Z 30011KT 10SM CLR 06/M01 A2993 40 60 -900 310/11 RMK AO2 T00611011
14756KACK ACK20160127141510301/27/16 14:15:31  5-MIN KACK 271915Z 30011KT 10SM CLR 06/M01 A2993 40 60 -900 320/11 RMK AO2 T00611011
14756KACK ACK20160127142010301/27/16 14:20:31  5-MIN KACK 271920Z 30011KT 10SM CLR 06/M02 A2994 30 57 -900 310/11 RMK AO2 T00611017
14756KACK ACK20160127142510301/27/16 14:25:31  5-MIN KACK 271925Z 30010KT 10SM CLR 06/M01 A2994 30 60 -900 320/10 RMK AO2 T00611011
14756KACK ACK20160127143010301/27/16 14:30:31  5-MIN KACK 271930Z 30010KT 10SM CLR 06/M02 A2994 30 57 -900 320/10 RMK AO2 T00611017
14756KACK ACK20160127143510301/27/16 14:35:31  5-MIN KACK 271935Z 30009KT 10SM CLR 06/M02 A2994 30 57 -900 320/09 RMK AO2 T00611017
14756KACK ACK20160127144010401/27/16 14:40:31  5-MIN KACK 271940Z 30011KT 10SM CLR 06/M02 A2995 20 57 -1000 310/11 RMK AO2 T00611017
14756KACK ACK20160127144510301/27/16 14:45:31  5-MIN KACK 271945Z 30009KT 10SM CLR 07/M02 A2995 20 55 -900 320/09 RMK AO2 T00671017
14756KACK ACK20160127145011501/27/16 14:50:31  5-MIN KACK 271950Z AUTO 30010KT 10SM CLR 07/M02 A2995 20 55 -900 320/10 RMK AO2 SLP141 T00671017
14756KACK ACK20160127145510301/27/16 14:55:31  5-MIN KACK 271955Z 30009KT 10SM CLR 07/M02 A2995 20 55 -900 310/09 RMK AO2 T00671017
14756KACK ACK20160127150010901/27/16 15:00:31  5-MIN KACK 272000Z 30011G17KT 10SM CLR 07/M02 A2996 20 55 -900 310/11G17 RMK AO2 T00671017
14756KACK ACK20160127150511001/27/16 15:05:31  5-MIN KACK 272005Z 30012G17KT 10SM CLR 06/M02 A2996 10 57 -1000 320/12G17 RMK AO2 T00611017
14756KACK ACK20160127151010901/27/16 15:10:31  5-MIN KACK 272010Z 30011G17KT 10SM CLR 07/M02 A2996 10 55 -900 320/11G17 RMK AO2 T00671017
14756KACK ACK20160127151510401/27/16 15:15:31  5-MIN KACK 272015Z 30011KT 10SM CLR 06/M02 A2996 10 55 -1000 310/11 RMK AO2 T00611022
14756KACK ACK20160127152010401/27/16 15:20:31  5-MIN KACK 272020Z 30009KT 10SM CLR 06/M02 A2996 20 55 -1000 310/09 RMK AO2 T00611022
14756KACK ACK20160127152510401/27/16 15:25:31  5-MIN KACK 272025Z 30010KT 10SM CLR 06/M02 A2996 10 55 -1000 310/10 RMK AO2 T00611022
14756KACK ACK20160127153010401/27/16 15:30:31  5-MIN KACK 272030Z 29008KT 10SM CLR 06/M02 A2997 10 55 -1000 310/08 RMK AO2 T00611022
14756KACK ACK20160127153510301/27/16 15:35:31  5-MIN KACK 272035Z 29009KT 10SM CLR 06/M02 A2997 0 57 -1000 310/09 RMK AO2 T00611017
14756KACK ACK20160127154010301/27/16 15:40:31  5-MIN KACK 272040Z 30010KT 10SM CLR 06/M02 A2997 0 55 -1000 310/10 RMK AO2 T00611022
14756KACK ACK20160127154510301/27/16 15:45:31  5-MIN KACK 272045Z 30007KT 10SM CLR 06/M02 A2997 0 55 -1000 310/07 RMK AO2 T00611022
14756KACK ACK20160127155011601/27/16 15:50:31  5-MIN KACK 272050Z 30006KT 10SM CLR 06/M02 A2998 0 55 -1000 320/06 RMK AO2 SLP150 T00611022 58010
14756KACK ACK20160127155510301/27/16 15:55:31  5-MIN KACK 272055Z 30007KT 10SM CLR 06/M02 A2998 0 55 -1000 320/07 RMK AO2 T00611022
14756KACK ACK20160127160010301/27/16 16:00:31  5-MIN KACK 272100Z 30007KT 10SM CLR 06/M02 A2998 0 55 -1000 310/07 RMK AO2 T00611022
14756KACK ACK20160127160510501/27/16 16:05:31  5-MIN KACK 272105Z 29005KT 10SM CLR 06/M02 A2999 -10 55 -1000 300/05 RMK AO2 T00611022
14756KACK ACK20160127161010501/27/16 16:10:31  5-MIN KACK 272110Z 28005KT 10SM CLR 06/M02 A2999 -10 57 -1100 290/05 RMK AO2 T00561022
14756KACK ACK20160127161510501/27/16 16:15:31  5-MIN KACK 272115Z 25006KT 10SM CLR 06/M02 A2999 -10 59 -1100 270/06 RMK AO2 T00561017
14756KACK ACK20160127162010501/27/16 16:20:31  5-MIN KACK 272120Z 26006KT 10SM CLR 05/M01 A3000 -20 64 -1100 270/06 RMK AO2 T00501011
14756KACK ACK20160127162510501/27/16 16:25:31  5-MIN KACK 272125Z 26005KT 10SM CLR 05/M01 A3000 -20 64 -1100 280/05 RMK AO2 T00501011
14756KACK ACK20160127163010501/27/16 16:30:31  5-MIN KACK 272130Z 27006KT 10SM CLR 04/M02 A3000 -20 64 -1200 280/06 RMK AO2 T00441017
14756KACK ACK20160127163510501/27/16 16:35:31  5-MIN KACK 272135Z 27006KT 10SM CLR 04/M02 A3000 -20 64 -1200 290/06 RMK AO2 T00441017
14756KACK ACK20160127164010501/27/16 16:40:31  5-MIN KACK 272140Z 27005KT 10SM CLR 04/M02 A3000 -20 67 -1300 290/05 RMK AO2 T00391017
14756KACK ACK20160127164510501/27/16 16:45:31  5-MIN KACK 272145Z 27006KT 10SM CLR 04/M02 A3000 -20 67 -1300 290/06 RMK AO2 T00391017
14756KACK ACK20160127165011201/27/16 16:50:31  5-MIN KACK 272150Z 28005KT 10SM CLR 04/M02 A3000 -20 67 -1300 290/05 RMK AO2 SLP159 T00391017
14756KACK ACK20160127165510501/27/16 16:55:31  5-MIN KACK 272155Z 27005KT 10SM CLR 03/M02 A3000 -20 70 -1400 290/05 RMK AO2 T00331017
14756KACK ACK20160127170010501/27/16 17:00:31  5-MIN KACK 272200Z 27005KT 10SM CLR 03/M02 A3000 -20 70 -1400 290/05 RMK AO2 T00331017
14756KACK ACK20160127170510501/27/16 17:05:31  5-MIN KACK 272205Z 27005KT 10SM CLR 03/M02 A3001 -30 70 -1400 290/05 RMK AO2 T00331017
14756KACK ACK20160127171010501/27/16 17:10:31  5-MIN KACK 272210Z 26004KT 10SM CLR 03/M02 A3001 -30 70 -1400 270/04 RMK AO2 T00331017
14756KACK ACK20160127171510501/27/16 17:15:31  5-MIN KACK 272215Z 26005KT 10SM CLR 03/M02 A3001 -30 70 -1400 270/05 RMK AO2 T00331017
14756KACK ACK20160127172010501/27/16 17:20:31  5-MIN KACK 272220Z 27005KT 10SM CLR 03/M02 A3001 -30 72 -1400 290/05 RMK AO2 T00281017
14756KACK ACK20160127172510501/27/16 17:25:31  5-MIN KACK 272225Z 28006KT 10SM CLR 03/M02 A3001 -20 72 -1400 300/06 RMK AO2 T00281017
14756KACK ACK20160127173010501/27/16 17:30:31  5-MIN KACK 272230Z 29005KT 10SM CLR 03/M02 A3001 -30 72 -1400 300/05 RMK AO2 T00281017
14756KACK ACK20160127173510401/27/16 17:35:31  5-MIN KACK 272235Z 29006KT 9SM CLR 03/M02 A3001 -20 72 -1400 300/06 RMK AO2 T00281017
14756KACK ACK20160127174010401/27/16 17:40:31  5-MIN KACK 272240Z 28006KT 9SM CLR 02/M02 A3000 -20 75 -1500 300/06 RMK AO2 T00221017
14756KACK ACK20160127174510501/27/16 17:45:31  5-MIN KACK 272245Z 29006KT 10SM CLR 02/M02 A3001 -30 75 -1500 300/06 RMK AO2 T00221017
14756KACK ACK20160127175011201/27/16 17:50:31  5-MIN KACK 272250Z 28007KT 10SM CLR 03/M02 A3001 -30 72 -1400 300/07 RMK AO2 SLP162 T00281017
14756KACK ACK20160127175510501/27/16 17:55:31  5-MIN KACK 272255Z 28007KT 10SM CLR 03/M02 A3001 -30 72 -1400 290/07 RMK AO2 T00281017
14756KACK ACK20160127180010501/27/16 18:00:31  5-MIN KACK 272300Z 28007KT 10SM CLR 02/M02 A3001 -30 75 -1500 300/07 RMK AO2 T00221017
14756KACK ACK20160127180510501/27/16 18:05:31  5-MIN KACK 272305Z 29007KT 10SM CLR 02/M02 A3001 -30 75 -1500 300/07 RMK AO2 T00221017
14756KACK ACK20160127181010501/27/16 18:10:31  5-MIN KACK 272310Z 28007KT 10SM CLR 02/M02 A3002 -40 75 -1500 290/07 RMK AO2 T00221017
14756KACK ACK20160127181510501/27/16 18:15:31  5-MIN KACK 272315Z 28007KT 10SM CLR 02/M02 A3003 -40 75 -1500 290/07 RMK AO2 T00221017
14756KACK ACK20160127182010501/27/16 18:20:31  5-MIN KACK 272320Z 28006KT 10SM CLR 02/M02 A3003 -50 75 -1500 300/06 RMK AO2 T00221017
14756KACK ACK20160127182510501/27/16 18:25:31  5-MIN KACK 272325Z 28006KT 10SM CLR 02/M02 A3003 -50 75 -1500 300/06 RMK AO2 T00221017
14756KACK ACK20160127183010501/27/16 18:30:31  5-MIN KACK 272330Z 28007KT 10SM CLR 02/M02 A3003 -40 75 -1500 290/07 RMK AO2 T00221017
14756KACK ACK20160127183510501/27/16 18:35:31  5-MIN KACK 272335Z 27007KT 10SM CLR 02/M02 A3003 -50 75 -1500 280/07 RMK AO2 T00221017
14756KACK ACK20160127184010501/27/16 18:40:31  5-MIN KACK 272340Z 28008KT 10SM CLR 02/M02 A3003 -50 75 -1500 290/08 RMK AO2 T00221017
14756KACK ACK20160127184510501/27/16 18:45:31  5-MIN KACK 272345Z 28007KT 10SM CLR 02/M02 A3003 -50 75 -1500 300/07 RMK AO2 T00221017
14756KACK ACK20160127185013001/27/16 18:50:31  5-MIN KACK 272350Z 28006KT 10SM CLR 02/M02 A3004 -60 75 -1500 290/06 RMK AO2 SLP172 T00221017 10072 20022 53016
14756KACK ACK20160127185510501/27/16 18:55:31  5-MIN KACK 272355Z 27007KT 10SM CLR 02/M02 A3004 -60 75 -1500 290/07 RMK AO2 T00221017
14756KACK ACK20160127190010501/27/16 19:00:31  5-MIN KACK 280000Z 27006KT 10SM CLR 02/M02 A3004 -60 75 -1500 280/06 RMK AO2 T00221017
14756KACK ACK20160127190510501/27/16 19:05:31  5-MIN KACK 280005Z 25005KT 10SM CLR 03/M01 A3005 -70 75 -1500 270/05 RMK AO2 T00281011
14756KACK ACK20160127191010501/27/16 19:10:31  5-MIN KACK 280010Z 25006KT 10SM CLR 02/M01 A3005 -70 82 -1600 260/06 RMK AO2 T00171011
14756KACK ACK20160127191510501/27/16 19:15:31  5-MIN KACK 280015Z 26006KT 10SM CLR 03/M01 A3005 -60 75 -1500 280/06 RMK AO2 T00281011
14756KACK ACK20160127192010501/27/16 19:20:31  5-MIN KACK 280020Z 28005KT 10SM CLR 02/M01 A3004 -50 78 -1500 300/05 RMK AO2 T00221011
14756KACK ACK20160127192510501/27/16 19:25:31  5-MIN KACK 280025Z 29005KT 10SM CLR 03/M01 A3004 -50 79 -1500 310/05 RMK AO2 T00281006
14756KACK ACK20160127193010501/27/16 19:30:31  5-MIN KACK 280030Z 29005KT 10SM CLR 03/M01 A3004 -60 79 -1500 310/05 RMK AO2 T00281006
14756KACK ACK20160127193510501/27/16 19:35:31  5-MIN KACK 280035Z 29005KT 10SM CLR 03/M01 A3004 -60 79 -1500 310/05 RMK AO2 T00281006
14756KACK ACK20160127194010501/27/16 19:40:31  5-MIN KACK 280040Z 29005KT 10SM CLR 03/M01 A3004 -60 79 -1500 300/05 RMK AO2 T00281006
14756KACK ACK20160127194510501/27/16 19:45:31  5-MIN KACK 280045Z 30006KT 10SM CLR 03/M01 A3005 -60 75 -1500 320/06 RMK AO2 T00281011
14756KACK ACK20160127195011201/27/16 19:50:31  5-MIN KACK 280050Z 31006KT 10SM CLR 03/M01 A3004 -60 75 -1500 320/06 RMK AO2 SLP172 T00281011
14756KACK ACK20160127195510501/27/16 19:55:31  5-MIN KACK 280055Z 31007KT 10SM CLR 02/M02 A3004 -60 75 -1500 320/07 RMK AO2 T00221017
14756KACK ACK20160127200010501/27/16 20:00:31  5-MIN KACK 280100Z 31006KT 10SM CLR 02/M02 A3004 -60 75 -1500 320/06 RMK AO2 T00221017
14756KACK ACK20160127200510501/27/16 20:05:31  5-MIN KACK 280105Z 30005KT 10SM CLR 02/M02 A3005 -70 72 -1600 320/05 RMK AO2 T00221022
14756KACK ACK20160127201010501/27/16 20:10:31  5-MIN KACK 280110Z 31006KT 10SM CLR 02/M02 A3005 -60 75 -1600 330/06 RMK AO2 T00221017
14756KACK ACK20160127201510501/27/16 20:15:31  5-MIN KACK 280115Z 31005KT 10SM CLR 02/M02 A3005 -70 72 -1600 330/05 RMK AO2 T00221022
14756KACK ACK20160127202010501/27/16 20:20:31  5-MIN KACK 280120Z 31005KT 10SM CLR 02/M03 A3005 -70 69 -1600 320/05 RMK AO2 T00221028
14756KACK ACK20160127202510501/27/16 20:25:31  5-MIN KACK 280125Z 31006KT 10SM CLR 03/M03 A3006 -80 67 -1500 330/06 RMK AO2 T00281028
14756KACK ACK20160127203010501/27/16 20:30:31  5-MIN KACK 280130Z 31007KT 10SM CLR 03/M03 A3006 -80 64 -1500 330/07 RMK AO2 T00281033
14756KACK ACK20160127203510501/27/16 20:35:31  5-MIN KACK 280135Z 31009KT 10SM CLR 03/M04 A3006 -80 59 -1400 330/09 RMK AO2 T00331039
14756KACK ACK20160127204010501/27/16 20:40:31  5-MIN KACK 280140Z 31009KT 10SM CLR 03/M04 A3006 -80 59 -1400 330/09 RMK AO2 T00331039
14756KACK ACK20160127204510501/27/16 20:45:31  5-MIN KACK 280145Z 30008KT 10SM CLR 04/M04 A3006 -80 57 -1400 310/08 RMK AO2 T00391039
14756KACK ACK20160127205011201/27/16 20:50:31  5-MIN KACK 280150Z 30008KT 10SM CLR 03/M04 A3007 -90 59 -1400 320/08 RMK AO2 SLP183 T00331039
14756KACK ACK20160127205510501/27/16 20:55:31  5-MIN KACK 280155Z 31007KT 10SM CLR 03/M04 A3006 -70 59 -1400 320/07 RMK AO2 T00331039
14756KACK ACK20160127210011501/27/16 21:00:31  5-MIN KACK 280200Z AUTO 31008KT 10SM CLR 03/M04 A3007 -80 59 -1400 330/08 RMK AO2 T00331039 TSNO
14756KACK ACK20160127210511501/27/16 21:05:31  5-MIN KACK 280205Z AUTO 31008KT 10SM CLR 03/M04 A3007 -80 59 -1400 330/08 RMK AO2 T00331039 TSNO
14756KACK ACK20160127211011501/27/16 21:10:31  5-MIN KACK 280210Z AUTO 31008KT 10SM CLR 03/M04 A3008 -90 59 -1400 330/08 RMK AO2 T00331039 TSNO
14756KACK ACK20160127211511501/27/16 21:15:31  5-MIN KACK 280215Z AUTO 32008KT 10SM CLR 03/M04 A3007 -90 59 -1400 340/08 RMK AO2 T00331039 TSNO
14756KACK ACK20160127212011501/27/16 21:20:31  5-MIN KACK 280220Z AUTO 32007KT 10SM CLR 03/M04 A3007 -80 61 -1500 340/07 RMK AO2 T00281039 TSNO
14756KACK ACK20160127212511501/27/16 21:25:31  5-MIN KACK 280225Z AUTO 33007KT 10SM CLR 03/M04 A3007 -80 59 -1500 340/07 RMK AO2 T00281044 TSNO
14756KACK ACK20160127213011501/27/16 21:30:31  5-MIN KACK 280230Z AUTO 32007KT 10SM CLR 03/M04 A3007 -80 59 -1500 340/07 RMK AO2 T00281044 TSNO
14756KACK ACK20160127213511501/27/16 21:35:31  5-MIN KACK 280235Z AUTO 33008KT 10SM CLR 03/M04 A3007 -90 61 -1500 340/08 RMK AO2 T00281039 TSNO
14756KACK ACK20160127214011501/27/16 21:40:31  5-MIN KACK 280240Z AUTO 31008KT 10SM CLR 03/M04 A3008 -90 61 -1500 330/08 RMK AO2 T00281039 TSNO
14756KACK ACK20160127214511601/27/16 21:45:31  5-MIN KACK 280245Z AUTO 32009KT 10SM CLR 03/M04 A3008 -100 57 -1500 330/09 RMK AO2 T00331044 TSNO
14756KACK ACK20160127215012901/27/16 21:50:31  5-MIN KACK 280250Z AUTO 32008KT 10SM CLR 03/M04 A3008 -100 59 -1500 340/08 RMK AO2 SLP186 T00281044 53021 TSNO
14756KACK ACK20160127215511601/27/16 21:55:31  5-MIN KACK 280255Z AUTO 33008KT 10SM CLR 03/M04 A3008 -100 59 -1500 340/08 RMK AO2 T00281044 TSNO
14756KACK ACK20160127220011601/27/16 22:00:31  5-MIN KACK 280300Z AUTO 33008KT 10SM CLR 03/M04 A3008 -100 59 -1500 350/08 RMK AO2 T00281044 TSNO
14756KACK ACK20160127220511601/27/16 22:05:31  5-MIN KACK 280305Z AUTO 33007KT 10SM CLR 03/M04 A3008 -100 59 -1500 350/07 RMK AO2 T00281044 TSNO
14756KACK ACK20160127221011501/27/16 22:10:31  5-MIN KACK 280310Z AUTO 34007KT 10SM CLR 02/M04 A3008 -90 61 -1600 350/07 RMK AO2 T00221044 TSNO
14756KACK ACK20160127221511601/27/16 22:15:31  5-MIN KACK 280315Z AUTO 33006KT 10SM CLR 02/M04 A3008 -100 61 -1600 350/06 RMK AO2 T00221044 TSNO
14756KACK ACK20160127222011601/27/16 22:20:31  5-MIN KACK 280320Z AUTO 33007KT 10SM CLR 02/M04 A3009 -100 61 -1600 340/07 RMK AO2 T00221044 TSNO
14756KACK ACK20160127222511601/27/16 22:25:31  5-MIN KACK 280325Z AUTO 33006KT 10SM CLR 02/M04 A3009 -100 64 -1700 350/06 RMK AO2 T00171044 TSNO
14756KACK ACK20160127223011601/27/16 22:30:31  5-MIN KACK 280330Z AUTO 32008KT 10SM CLR 02/M04 A3009 -100 64 -1700 330/08 RMK AO2 T00171044 TSNO
14756KACK ACK20160127223511601/27/16 22:35:31  5-MIN KACK 280335Z AUTO 32008KT 10SM CLR 02/M04 A3009 -100 61 -1600 330/08 RMK AO2 T00221044 TSNO
14756KACK ACK20160127224011601/27/16 22:40:31  5-MIN KACK 280340Z AUTO 33006KT 10SM CLR 02/M04 A3010 -110 61 -1600 350/06 RMK AO2 T00221044 TSNO
14756KACK ACK20160127224511601/27/16 22:45:31  5-MIN KACK 280345Z AUTO 33007KT 10SM CLR 02/M04 A3009 -110 64 -1700 340/07 RMK AO2 T00171044 TSNO
14756KACK ACK20160127225012301/27/16 22:50:31  5-MIN KACK 280350Z AUTO 31008KT 10SM CLR 02/M04 A3009 -100 64 -1700 330/08 RMK AO2 SLP188 T00171044 TSNO
14756KACK ACK20160127225511601/27/16 22:55:31  5-MIN KACK 280355Z AUTO 32007KT 10SM CLR 02/M04 A3009 -100 64 -1700 340/07 RMK AO2 T00171044 TSNO
14756KACK ACK20160127230011601/27/16 23:00:31  5-MIN KACK 280400Z AUTO 32008KT 10SM CLR 02/M04 A3009 -110 64 -1700 330/08 RMK AO2 T00171044 TSNO
14756KACK ACK20160127230511601/27/16 23:05:31  5-MIN KACK 280405Z AUTO 32009KT 10SM CLR 02/M04 A3009 -100 61 -1600 330/09 RMK AO2 T00221044 TSNO
14756KACK ACK20160127231011601/27/16 23:10:31  5-MIN KACK 280410Z AUTO 32006KT 10SM CLR 02/M04 A3010 -110 64 -1700 340/06 RMK AO2 T00171044 TSNO
14756KACK ACK20160127231511601/27/16 23:15:31  5-MIN KACK 280415Z AUTO 30006KT 10SM CLR 02/M04 A3011 -120 64 -1700 310/06 RMK AO2 T00171044 TSNO
14756KACK ACK20160127232011601/27/16 23:20:31  5-MIN KACK 280420Z AUTO 29006KT 10SM CLR 01/M05 A3011 -120 64 -1800 310/06 RMK AO2 T00111050 TSNO
14756KACK ACK20160127232511601/27/16 23:25:31  5-MIN KACK 280425Z AUTO 31005KT 10SM CLR 01/M05 A3010 -110 64 -1800 330/05 RMK AO2 T00111050 TSNO
14756KACK ACK20160127233011601/27/16 23:30:31  5-MIN KACK 280430Z AUTO 32006KT 10SM CLR 01/M04 A3010 -110 66 -1700 340/06 RMK AO2 T00111044 TSNO
14756KACK ACK20160127233511601/27/16 23:35:31  5-MIN KACK 280435Z AUTO 30006KT 10SM CLR 01/M04 A3010 -110 66 -1700 320/06 RMK AO2 T00111044 TSNO
14756KACK ACK20160127234011601/27/16 23:40:31  5-MIN KACK 280440Z AUTO 29005KT 10SM CLR 01/M04 A3010 -110 66 -1800 310/05 RMK AO2 T00111044 TSNO
14756KACK ACK20160127234511601/27/16 23:45:31  5-MIN KACK 280445Z AUTO 29003KT 10SM CLR 01/M04 A3010 -110 66 -1800 300/03 RMK AO2 T00111044 TSNO
14756KACK ACK20160127235013301/27/16 23:50:31  5-MIN KACK 280450Z AUTO 27004KT 10SM CLR 01/M04 A3011 -120 69 -1800 280/04 RMK AO2 SLP194 T00061044 400780006 TSNO
14756KACK ACK20160127235511601/27/16 23:55:31  5-MIN KACK 280455Z AUTO 29005KT 10SM CLR 01/M05 A3010 -110 66 -1800 310/05 RMK AO2 T00061050 TSNO
14756KACK ACK20160128000011601/28/16 00:00:31  5-MIN KACK 280500Z AUTO 28005KT 10SM CLR 01/M04 A3010 -110 69 -1800 300/05 RMK AO2 T00061044 TSNO
14756KACK ACK20160128000511601/28/16 00:05:31  5-MIN KACK 280505Z AUTO 29005KT 10SM CLR 01/M05 A3010 -120 66 -1800 300/05 RMK AO2 T00061050 TSNO
14756KACK ACK20160128001011601/28/16 00:10:31  5-MIN KACK 280510Z AUTO 30004KT 10SM CLR 01/M04 A3010 -110 66 -1800 310/04 RMK AO2 T00111044 TSNO
14756KACK ACK20160128001511601/28/16 00:15:31  5-MIN KACK 280515Z AUTO 32004KT 10SM CLR 01/M04 A3009 -110 66 -1700 330/04 RMK AO2 T00111044 TSNO
14756KACK ACK20160128002011601/28/16 00:20:31  5-MIN KACK 280520Z AUTO 31004KT 10SM CLR 01/M05 A3010 -110 66 -1800 330/04 RMK AO2 T00061050 TSNO
14756KACK ACK20160128002511601/28/16 00:25:31  5-MIN KACK 280525Z AUTO 29006KT 10SM CLR 01/M05 A3009 -110 66 -1800 310/06 RMK AO2 T00061050 TSNO
14756KACK ACK20160128003011601/28/16 00:30:31  5-MIN KACK 280530Z AUTO 28005KT 10SM CLR 01/M05 A3010 -110 66 -1800 290/05 RMK AO2 T00061050 TSNO
14756KACK ACK20160128003511701/28/16 00:35:31  5-MIN KACK 280535Z AUTO 29005KT 10SM CLR M01/M05 A3010 -110 72 -2000 300/05 RMK AO2 T10061050 TSNO
14756KACK ACK20160128004011601/28/16 00:40:31  5-MIN KACK 280540Z AUTO 29005KT 10SM CLR 00/M05 A3009 -110 69 -1900 310/05 RMK AO2 T00001050 TSNO
14756KACK ACK20160128004511601/28/16 00:45:31  5-MIN KACK 280545Z AUTO 29006KT 10SM CLR 00/M06 A3009 -110 66 -1900 300/06 RMK AO2 T00001056 TSNO
14756KACK ACK20160128005014201/28/16 00:50:31  5-MIN KACK 280550Z AUTO 29007KT 10SM CLR M01/M06 A3010 -110 66 -2000 310/07 RMK AO2 SLP191 T10061061 10039 21006 53016 TSNO
14756KACK ACK20160128005511701/28/16 00:55:31  5-MIN KACK 280555Z AUTO 30006KT 10SM CLR M01/M06 A3010 -110 66 -2000 310/06 RMK AO2 T10061061 TSNO
14756KACK ACK20160128010011701/28/16 01:00:31  5-MIN KACK 280600Z AUTO 30006KT 10SM CLR M01/M06 A3011 -120 66 -2000 320/06 RMK AO2 T10061061 TSNO
14756KACK ACK20160128010511601/28/16 01:05:31  5-MIN KACK 280605Z AUTO 30006KT 10SM CLR 00/M06 A3010 -120 63 -1900 320/06 RMK AO2 T00001061 TSNO
14756KACK ACK20160128011011701/28/16 01:10:31  5-MIN KACK 280610Z AUTO 29006KT 10SM CLR M01/M06 A3010 -110 66 -2000 310/06 RMK AO2 T10061061 TSNO
14756KACK ACK20160128011511701/28/16 01:15:31  5-MIN KACK 280615Z AUTO 30006KT 10SM CLR M01/M06 A3010 -110 66 -2000 320/06 RMK AO2 T10061061 TSNO
14756KACK ACK20160128012011601/28/16 01:20:31  5-MIN KACK 280620Z AUTO 31006KT 10SM CLR 00/M06 A3011 -120 63 -1900 320/06 RMK AO2 T00001061 TSNO
14756KACK ACK20160128012511601/28/16 01:25:31  5-MIN KACK 280625Z AUTO 30007KT 10SM CLR 00/M07 A3010 -110 61 -1900 310/07 RMK AO2 T00001067 TSNO
14756KACK ACK20160128013011701/28/16 01:30:31  5-MIN KACK 280630Z AUTO 30006KT 10SM CLR M01/M07 A3011 -120 63 -2000 320/06 RMK AO2 T10061067 TSNO
14756KACK ACK20160128013511601/28/16 01:35:31  5-MIN KACK 280635Z AUTO 32007KT 10SM CLR 00/M07 A3011 -120 61 -1900 340/07 RMK AO2 T00001067 TSNO
14756KACK ACK20160128014011701/28/16 01:40:31  5-MIN KACK 280640Z AUTO 32007KT 10SM CLR M01/M07 A3010 -110 63 -2000 340/07 RMK AO2 T10061067 TSNO
14756KACK ACK20160128014511601/28/16 01:45:31  5-MIN KACK 280645Z AUTO 31007KT 10SM CLR 00/M07 A3010 -110 61 -1900 320/07 RMK AO2 T00001067 TSNO
14756KACK ACK20160128015012301/28/16 01:50:31  5-MIN KACK 280650Z AUTO 31007KT 10SM CLR 00/M07 A3010 -110 61 -1900 320/07 RMK AO2 SLP193 T00001067 TSNO
14756KACK ACK20160128015511601/28/16 01:55:31  5-MIN KACK 280655Z AUTO 32006KT 10SM CLR 00/M07 A3010 -110 58 -1900 340/06 RMK AO2 T00001072 TSNO
14756KACK ACK20160128020011601/28/16 02:00:31  5-MIN KACK 280700Z AUTO 32005KT 10SM CLR 00/M07 A3011 -120 61 -1900 330/05 RMK AO2 T00001067 TSNO
14756KACK ACK20160128020511601/28/16 02:05:31  5-MIN KACK 280705Z AUTO 31006KT 10SM CLR 00/M07 A3010 -110 61 -1900 330/06 RMK AO2 T00001067 TSNO
14756KACK ACK20160128021011601/28/16 02:10:31  5-MIN KACK 280710Z AUTO 31007KT 10SM CLR 00/M07 A3010 -110 58 -1900 320/07 RMK AO2 T00001072 TSNO
14756KACK ACK20160128021511601/28/16 02:15:31  5-MIN KACK 280715Z AUTO 33006KT 10SM CLR 00/M07 A3010 -110 58 -1900 340/06 RMK AO2 T00001072 TSNO
14756KACK ACK20160128022011701/28/16 02:20:31  5-MIN KACK 280720Z AUTO 34005KT 10SM CLR M01/M07 A3009 -110 63 -2000 350/05 RMK AO2 T10061067 TSNO
14756KACK ACK20160128022511601/28/16 02:25:31  5-MIN KACK 280725Z AUTO 32005KT 10SM CLR 00/M07 A3009 -100 61 -1900 340/05 RMK AO2 T00001067 TSNO
14756KACK ACK20160128023011601/28/16 02:30:31  5-MIN KACK 280730Z AUTO 32005KT 10SM CLR 01/M07 A3009 -100 58 -1800 330/05 RMK AO2 T00061067 TSNO
14756KACK ACK20160128023511601/28/16 02:35:31  5-MIN KACK 280735Z AUTO 32005KT 10SM CLR 00/M07 A3009 -100 58 -1900 330/05 RMK AO2 T00001072 TSNO
14756KACK ACK20160128024011601/28/16 02:40:31  5-MIN KACK 280740Z AUTO 31005KT 10SM CLR 00/M07 A3009 -110 61 -1900 330/05 RMK AO2 T00001067 TSNO
14756KACK ACK20160128024511601/28/16 02:45:31  5-MIN KACK 280745Z AUTO 32006KT 10SM CLR 00/M07 A3009 -110 58 -1900 330/06 RMK AO2 T00001072 TSNO
14756KACK ACK20160128025012301/28/16 02:50:31  5-MIN KACK 280750Z AUTO 32006KT 10SM CLR 00/M07 A3009 -100 58 -1900 330/06 RMK AO2 SLP190 T00001072 TSNO
14756KACK ACK20160128025511601/28/16 02:55:31  5-MIN KACK 280755Z AUTO 32006KT 10SM CLR 00/M07 A3009 -100 58 -1900 330/06 RMK AO2 T00001072 TSNO
14756KACK ACK20160128030011701/28/16 03:00:31  5-MIN KACK 280800Z AUTO 33006KT 10SM CLR M01/M07 A3009 -100 63 -2000 340/06 RMK AO2 T10061067 TSNO
14756KACK ACK20160128030511701/28/16 03:05:31  5-MIN KACK 280805Z AUTO 33006KT 10SM CLR M01/M07 A3009 -100 66 -2000 350/06 RMK AO2 T10111067 TSNO
14756KACK ACK20160128031011701/28/16 03:10:31  5-MIN KACK 280810Z AUTO 33006KT 10SM CLR M01/M07 A3009 -100 63 -2000 340/06 RMK AO2 T10061067 TSNO
14756KACK ACK20160128031511601/28/16 03:15:31  5-MIN KACK 280815Z AUTO 32007KT 10SM CLR 00/M07 A3009 -100 58 -1900 330/07 RMK AO2 T00001072 TSNO
14756KACK ACK20160128032011601/28/16 03:20:31  5-MIN KACK 280820Z AUTO 32006KT 10SM CLR 00/M07 A3009 -110 58 -1900 330/06 RMK AO2 T00001072 TSNO
14756KACK ACK20160128032511701/28/16 03:25:31  5-MIN KACK 280825Z AUTO 33006KT 10SM CLR M01/M07 A3009 -100 63 -2000 340/06 RMK AO2 T10061067 TSNO
14756KACK ACK20160128033011701/28/16 03:30:31  5-MIN KACK 280830Z AUTO 34004KT 10SM CLR M01/M07 A3009 -100 63 -2000 350/04 RMK AO2 T10061067 TSNO
14756KACK ACK20160128033511701/28/16 03:35:31  5-MIN KACK 280835Z AUTO 33005KT 10SM CLR M01/M07 A3008 -100 63 -1900 350/05 RMK AO2 T10061067 TSNO
14756KACK ACK20160128034011601/28/16 03:40:31  5-MIN KACK 280840Z AUTO 32005KT 10SM CLR 00/M07 A3008 -100 61 -1900 340/05 RMK AO2 T00001067 TSNO
14756KACK ACK20160128034511501/28/16 03:45:31  5-MIN KACK 280845Z AUTO 31005KT 10SM CLR 00/M07 A3008 -90 61 -1900 330/05 RMK AO2 T00001067 TSNO
14756KACK ACK20160128035013001/28/16 03:50:31  5-MIN KACK 280850Z AUTO 31004KT 10SM CLR M01/M07 A3009 -100 63 -2000 320/04 RMK AO2 SLP188 T10111072 53004 TSNO
14756KACK ACK20160128035511701/28/16 03:55:31  5-MIN KACK 280855Z AUTO 33003KT 10SM CLR M02/M07 A3008 -100 66 -2100 350/03 RMK AO2 T10171072 TSNO
14756KACK ACK20160128040011601/28/16 04:00:31  5-MIN KACK 280900Z AUTO 35003KT 10SM CLR M01/M07 A3008 -90 63 -1900 010/03 RMK AO2 T10061067 TSNO
14756KACK ACK20160128040511601/28/16 04:05:31  5-MIN KACK 280905Z AUTO 33004KT 10SM CLR M01/M07 A3008 -90 66 -2000 350/04 RMK AO2 T10111067 TSNO
14756KACK ACK20160128041011701/28/16 04:10:31  5-MIN KACK 280910Z AUTO 32005KT 10SM CLR M01/M07 A3008 -100 66 -2000 330/05 RMK AO2 T10111067 TSNO
14756KACK ACK20160128041511701/28/16 04:15:31  5-MIN KACK 280915Z AUTO 31006KT 10SM CLR M01/M07 A3008 -100 63 -1900 320/06 RMK AO2 T10061067 TSNO
14756KACK ACK20160128042011601/28/16 04:20:31  5-MIN KACK 280920Z AUTO 32006KT 10SM CLR M01/M07 A3008 -90 66 -2000 330/06 RMK AO2 T10111067 TSNO
14756KACK ACK20160128042511601/28/16 04:25:31  5-MIN KACK 280925Z AUTO 32005KT 10SM CLR M01/M07 A3008 -90 63 -1900 330/05 RMK AO2 T10061067 TSNO
14756KACK ACK20160128043011601/28/16 04:30:31  5-MIN KACK 280930Z AUTO 32005KT 10SM CLR M01/M06 A3008 -90 66 -1900 330/05 RMK AO2 T10061061 TSNO
14756KACK ACK20160128043511601/28/16 04:35:31  5-MIN KACK 280935Z AUTO 32005KT 10SM CLR M01/M07 A3007 -90 63 -1900 340/05 RMK AO2 T10061067 TSNO
14756KACK ACK20160128044011601/28/16 04:40:31  5-MIN KACK 280940Z AUTO 33005KT 10SM CLR M02/M07 A3007 -90 69 -2100 340/05 RMK AO2 T10171067 TSNO
14756KACK ACK20160128044511601/28/16 04:45:31  5-MIN KACK 280945Z AUTO 33003KT 10SM CLR M02/M07 A3007 -80 72 -2100 350/03 RMK AO2 T10221067 TSNO
14756KACK ACK20160128045012301/28/16 04:50:31  5-MIN KACK 280950Z AUTO 33003KT 10SM CLR M02/M07 A3007 -80 72 -2100 350/03 RMK AO2 SLP181 T10221067 TSNO
14756KACK ACK20160128045511601/28/16 04:55:31  5-MIN KACK 280955Z AUTO 33003KT 10SM CLR M02/M07 A3007 -80 69 -2100 340/03 RMK AO2 T10171067 TSNO
14756KACK ACK20160128050011601/28/16 05:00:31  5-MIN KACK 281000Z AUTO 00000KT 10SM CLR M02/M07 A3007 -90 69 -2100 000/00 RMK AO2 T10171067 TSNO
14756KACK ACK20160128050511601/28/16 05:05:31  5-MIN KACK 281005Z AUTO 00000KT 10SM CLR M02/M06 A3008 -90 72 -2100 000/00 RMK AO2 T10171061 TSNO
14756KACK ACK20160128051011601/28/16 05:10:31  5-MIN KACK 281010Z AUTO 00000KT 10SM CLR M02/M06 A3008 -90 72 -2100 000/00 RMK AO2 T10171061 TSNO
14756KACK ACK20160128051511701/28/16 05:15:31  5-MIN KACK 281015Z AUTO 00000KT 10SM CLR M02/M06 A3009 -100 75 -2200 000/00 RMK AO2 T10221061 TSNO
14756KACK ACK20160128052011701/28/16 05:20:31  5-MIN KACK 281020Z AUTO 00000KT 10SM CLR M04/M07 A3009 -100 81 -2400 000/00 RMK AO2 T10441072 TSNO
14756KACK ACK20160128052511601/28/16 05:25:31  5-MIN KACK 281025Z AUTO 00000KT 10SM CLR M03/M07 A3008 -90 74 -2300 000/00 RMK AO2 T10331072 TSNO
14756KACK ACK20160128053011601/28/16 05:30:31  5-MIN KACK 281030Z AUTO 00000KT 10SM CLR M04/M07 A3007 -90 78 -2400 000/00 RMK AO2 T10391072 TSNO
14756KACK ACK20160128053511601/28/16 05:35:31  5-MIN KACK 281035Z AUTO 00000KT 10SM CLR M04/M07 A3008 -90 78 -2400 000/00 RMK AO2 T10391072 TSNO
14756KACK ACK20160128054011601/28/16 05:40:31  5-MIN KACK 281040Z AUTO 00000KT 10SM CLR M04/M07 A3007 -90 81 -2400 000/00 RMK AO2 T10441072 TSNO
14756KACK ACK20160128054511601/28/16 05:45:31  5-MIN KACK 281045Z AUTO 00000KT 10SM CLR M04/M07 A3007 -90 78 -2400 000/00 RMK AO2 T10391072 TSNO
14756KACK ACK20160128055012301/28/16 05:50:31  5-MIN KACK 281050Z AUTO 00000KT 10SM CLR M04/M07 A3008 -90 81 -2400 000/00 RMK AO2 SLP184 T10391067 TSNO
14756KACK ACK20160128055510601/28/16 05:55:31  5-MIN KACK 281055Z 00000KT 10SM CLR M04/M07 A3008 -90 81 -2400 000/00 RMK AO2 T10391067
14756KACK ACK20160128060010601/28/16 06:00:31  5-MIN KACK 281100Z 00000KT 10SM CLR M03/M07 A3007 -90 78 -2300 000/00 RMK AO2 T10331067
14756KACK ACK20160128060510601/28/16 06:05:31  5-MIN KACK 281105Z 00000KT 10SM CLR M03/M07 A3007 -90 78 -2300 000/00 RMK AO2 T10331067
14756KACK ACK20160128061010601/28/16 06:10:31  5-MIN KACK 281110Z 00000KT 10SM CLR M03/M06 A3008 -90 81 -2300 000/00 RMK AO2 T10331061
14756KACK ACK20160128061510601/28/16 06:15:31  5-MIN KACK 281115Z 00000KT 10SM CLR M03/M06 A3008 -90 81 -2300 000/00 RMK AO2 T10331061
14756KACK ACK20160128062010601/28/16 06:20:31  5-MIN KACK 281120Z 00000KT 10SM CLR M04/M07 A3008 -90 84 -2400 000/00 RMK AO2 T10441067
14756KACK ACK20160128062510601/28/16 06:25:31  5-MIN KACK 281125Z 27003KT 10SM CLR M04/M07 A3007 -90 81 -2400 280/03 RMK AO2 T10441072
14756KACK ACK20160128063010601/28/16 06:30:31  5-MIN KACK 281130Z 00000KT 10SM CLR M04/M07 A3007 -90 78 -2400 000/00 RMK AO2 T10391072
14756KACK ACK20160128063510601/28/16 06:35:31  5-MIN KACK 281135Z 00000KT 10SM CLR M04/M07 A3007 -80 81 -2400 000/00 RMK AO2 T10441072
14756KACK ACK20160128064010601/28/16 06:40:31  5-MIN KACK 281140Z 00000KT 10SM CLR M04/M07 A3007 -90 81 -2400 000/00 RMK AO2 T10391067
14756KACK ACK20160128064510601/28/16 06:45:31  5-MIN KACK 281145Z 29003KT 10SM CLR M04/M06 A3007 -80 85 -2400 310/03 RMK AO2 T10391061
14756KACK ACK20160128065013701/28/16 06:50:31  5-MIN KACK 281150Z 00000KT 10SM CLR M04/M07 A3007 -90 84 -2400 000/00 RMK AO2 SLP183 70009 T10441067 10006 21050 58005
14756KACK ACK20160128065510601/28/16 06:55:31  5-MIN KACK 281155Z 00000KT 10SM CLR M04/M07 A3008 -90 81 -2400 000/00 RMK AO2 T10441072
14756KACK ACK20160128070010601/28/16 07:00:31  5-MIN KACK 281200Z 00000KT 10SM CLR M03/M07 A3008 -90 78 -2300 000/00 RMK AO2 T10331067
14756KACK ACK20160128070510601/28/16 07:05:31  5-MIN KACK 281205Z 00000KT 10SM CLR M03/M07 A3008 -90 78 -2300 000/00 RMK AO2 T10331067
14756KACK ACK20160128071010601/28/16 07:10:31  5-MIN KACK 281210Z 00000KT 10SM CLR M04/M07 A3007 -90 81 -2400 000/00 RMK AO2 T10441072
14756KACK ACK20160128071510601/28/16 07:15:31  5-MIN KACK 281215Z 28003KT 10SM CLR M04/M07 A3007 -90 81 -2400 300/03 RMK AO2 T10391067
14756KACK ACK20160128072010601/28/16 07:20:31  5-MIN KACK 281220Z 00000KT 10SM CLR M04/M07 A3008 -90 81 -2400 000/00 RMK AO2 T10391067
14756KACK ACK20160128072510601/28/16 07:25:31  5-MIN KACK 281225Z 00000KT 10SM CLR M04/M07 A3007 -90 78 -2400 000/00 RMK AO2 T10391072
14756KACK ACK20160128073010601/28/16 07:30:31  5-MIN KACK 281230Z 00000KT 10SM CLR M03/M07 A3007 -90 78 -2300 000/00 RMK AO2 T10331067
14756KACK ACK20160128073510601/28/16 07:35:31  5-MIN KACK 281235Z 00000KT 10SM CLR M02/M06 A3007 -90 78 -2100 000/00 RMK AO2 T10221056
14756KACK ACK20160128074010601/28/16 07:40:31  5-MIN KACK 281240Z 00000KT 10SM CLR M03/M06 A3007 -80 81 -2200 000/00 RMK AO2 T10281056
14756KACK ACK20160128074510601/28/16 07:45:31  5-MIN KACK 281245Z 00000KT 10SM CLR M03/M06 A3007 -80 81 -2200 000/00 RMK AO2 T10281056
14756KACK ACK20160128075011301/28/16 07:50:31  5-MIN KACK 281250Z 00000KT 10SM CLR M03/M06 A3007 -80 85 -2300 000/00 RMK AO2 SLP182 T10331056
14756KACK ACK20160128075510601/28/16 07:55:31  5-MIN KACK 281255Z 00000KT 10SM CLR M02/M05 A3007 -80 81 -2100 000/00 RMK AO2 T10221050
14756KACK ACK20160128080010601/28/16 08:00:31  5-MIN KACK 281300Z 00000KT 10SM CLR M01/M04 A3007 -80 75 -1900 000/00 RMK AO2 T10061044
14756KACK ACK20160128080510601/28/16 08:05:31  5-MIN KACK 281305Z 00000KT 10SM CLR M01/M04 A3007 -80 75 -1900 000/00 RMK AO2 T10061044
14756KACK ACK20160128081012201/28/16 08:10:31  5-MIN KACK 281310Z 00000KT 10SM R24/1800VP6000FT CLR 00/M04 A3007 -90 75 -1900 000/00 RMK AO2 T00001039
14756KACK ACK20160128081512201/28/16 08:15:31  5-MIN KACK 281315Z 00000KT 10SM R24/0400VP6000FT CLR 01/M04 A3007 -90 72 -1800 000/00 RMK AO2 T00061039
14756KACK ACK20160128082010501/28/16 08:20:31  5-MIN KACK 281320Z 32003KT 10SM CLR 01/M04 A3007 -90 69 -1700 340/03 RMK AO2 T00111039
14756KACK ACK20160128082510501/28/16 08:25:31  5-MIN KACK 281325Z 32003KT 10SM CLR 02/M04 A3007 -90 64 -1700 330/03 RMK AO2 T00171044
14756KACK ACK20160128083010501/28/16 08:30:31  5-MIN KACK 281330Z 32003KT 10SM CLR 02/M04 A3007 -90 61 -1600 330/03 RMK AO2 T00221044
14756KACK ACK20160128083510501/28/16 08:35:31  5-MIN KACK 281335Z 00000KT 10SM CLR 02/M05 A3007 -80 59 -1600 000/00 RMK AO2 T00221050
14756KACK ACK20160128084010501/28/16 08:40:31  5-MIN KACK 281340Z 00000KT 10SM CLR 02/M05 A3007 -80 59 -1600 000/00 RMK AO2 T00221050
14756KACK ACK20160128084510501/28/16 08:45:31  5-MIN KACK 281345Z 00000KT 10SM CLR 03/M05 A3007 -80 56 -1500 000/00 RMK AO2 T00281050
14756KACK ACK20160128085011201/28/16 08:50:31  5-MIN KACK 281350Z 00000KT 10SM CLR 03/M05 A3007 -80 56 -1500 000/00 RMK AO2 SLP181 T00281050
14756KACK ACK20160128085510501/28/16 08:55:31  5-MIN KACK 281355Z 00000KT 10SM CLR 02/M05 A3006 -80 59 -1600 000/00 RMK AO2 T00221050
14756KACK ACK20160128090010501/28/16 09:00:31  5-MIN KACK 281400Z 00000KT 10SM CLR 02/M05 A3006 -70 59 -1600 000/00 RMK AO2 T00221050
14756KACK ACK20160128090510501/28/16 09:05:31  5-MIN KACK 281405Z 00000KT 10SM CLR 03/M04 A3006 -70 59 -1500 000/00 RMK AO2 T00281044
14756KACK ACK20160128091010501/28/16 09:10:31  5-MIN KACK 281410Z 00000KT 10SM CLR 03/M04 A3006 -70 59 -1500 000/00 RMK AO2 T00281044
14756KACK ACK20160128091510501/28/16 09:15:31  5-MIN KACK 281415Z 00000KT 10SM CLR 03/M04 A3006 -70 57 -1400 000/00 RMK AO2 T00331044
14756KACK ACK20160128092010501/28/16 09:20:31  5-MIN KACK 281420Z 00000KT 10SM CLR 03/M04 A3005 -70 59 -1500 000/00 RMK AO2 T00281044
14756KACK ACK20160128092510501/28/16 09:25:31  5-MIN KACK 281425Z 00000KT 10SM CLR 03/M04 A3005 -60 59 -1500 000/00 RMK AO2 T00281044
14756KACK ACK20160128093010501/28/16 09:30:31  5-MIN KACK 281430Z 00000KT 10SM CLR 03/M04 A3005 -60 59 -1500 000/00 RMK AO2 T00281044
14756KACK ACK20160128093510501/28/16 09:35:31  5-MIN KACK 281435Z 00000KT 10SM CLR 04/M04 A3004 -60 54 -1300 000/00 RMK AO2 T00391044
14756KACK ACK20160128094010501/28/16 09:40:31  5-MIN KACK 281440Z 00000KT 10SM CLR 04/M04 A3004 -60 54 -1300 000/00 RMK AO2 T00391044
14756KACK ACK20160128094510501/28/16 09:45:31  5-MIN KACK 281445Z 00000KT 10SM CLR 04/M04 A3004 -50 57 -1300 000/00 RMK AO2 T00391039
14756KACK ACK20160128095011801/28/16 09:50:31  5-MIN KACK 281450Z 00000KT 10SM CLR 04/M04 A3004 -50 57 -1300 000/00 RMK AO2 SLP171 T00391039 56004
14756KACK ACK20160128095510501/28/16 09:55:31  5-MIN KACK 281455Z 00000KT 10SM CLR 04/M04 A3003 -50 55 -1300 000/00 RMK AO2 T00441039
14756KACK ACK20160128100010501/28/16 10:00:31  5-MIN KACK 281500Z 00000KT 10SM CLR 04/M04 A3003 -50 52 -1300 000/00 RMK AO2 T00441044
14756KACK ACK20160128100510501/28/16 10:05:31  5-MIN KACK 281505Z 00000KT 10SM CLR 04/M04 A3003 -50 54 -1300 000/00 RMK AO2 T00391044
14756KACK ACK20160128101010501/28/16 10:10:31  5-MIN KACK 281510Z 00000KT 10SM CLR 05/M05 A3003 -50 48 -1200 000/00 RMK AO2 T00501050
14756KACK ACK20160128101510501/28/16 10:15:31  5-MIN KACK 281515Z 00000KT 10SM CLR 04/M06 A3003 -50 46 -1300 000/00 RMK AO2 T00441061
14756KACK ACK20160128102010501/28/16 10:20:31  5-MIN KACK 281520Z 00000KT 10SM CLR 05/M07 A3003 -50 42 -1200 000/00 RMK AO2 T00501067
14756KACK ACK20160128102510501/28/16 10:25:31  5-MIN KACK 281525Z 00000KT 10SM CLR 05/M07 A3003 -40 41 -1200 000/00 RMK AO2 T00501072
14756KACK ACK20160128103010501/28/16 10:30:31  5-MIN KACK 281530Z 00000KT 10SM CLR 05/M07 A3002 -40 42 -1200 000/00 RMK AO2 T00501067
14756KACK ACK20160128103510501/28/16 10:35:31  5-MIN KACK 281535Z 00000KT 10SM CLR 04/M06 A3002 -40 46 -1200 000/00 RMK AO2 T00441061
14756KACK ACK20160128104010501/28/16 10:40:31  5-MIN KACK 281540Z 00000KT 10SM CLR 05/M06 A3002 -40 44 -1200 000/00 RMK AO2 T00501061
14756KACK ACK20160128104510501/28/16 10:45:31  5-MIN KACK 281545Z 00000KT 10SM CLR 05/M06 A3002 -40 44 -1200 000/00 RMK AO2 T00501061
14756KACK ACK20160128105011201/28/16 10:50:31  5-MIN KACK 281550Z VRB03KT 10SM CLR 06/M06 A3002 -40 43 -1100 VRB/03 RMK AO2 SLP165 T00561061
14756KACK ACK20160128105510501/28/16 10:55:31  5-MIN KACK 281555Z 16004KT 10SM CLR 05/M04 A3002 -30 50 -1200 170/04 RMK AO2 T00501044
14756KACK ACK20160128110010501/28/16 11:00:31  5-MIN KACK 281600Z 15005KT 10SM CLR 05/M04 A3001 -30 52 -1200 160/05 RMK AO2 T00501039
14756KACK ACK20160128110510501/28/16 11:05:31  5-MIN KACK 281605Z 16005KT 10SM CLR 05/M04 A3001 -30 52 -1200 180/05 RMK AO2 T00501039
14756KACK ACK20160128111010501/28/16 11:10:31  5-MIN KACK 281610Z 15006KT 10SM CLR 05/M04 A3001 -30 52 -1200 170/06 RMK AO2 T00501039
14756KACK ACK20160128111510501/28/16 11:15:31  5-MIN KACK 281615Z 15005KT 10SM CLR 05/M04 A3000 -20 52 -1200 160/05 RMK AO2 T00501039
14756KACK ACK20160128112010501/28/16 11:20:31  5-MIN KACK 281620Z 13005KT 10SM CLR 05/M04 A3000 -20 52 -1100 150/05 RMK AO2 T00501039
14756KACK ACK20160128112510501/28/16 11:25:31  5-MIN KACK 281625Z 15005KT 10SM CLR 05/M04 A2999 -10 52 -1100 160/05 RMK AO2 T00501039
14756KACK ACK20160128113011201/28/16 11:30:31  5-MIN KACK 281630Z 16006KT 10SM CLR 05/M04 A2999 -10 52 -1100 170/06 RMK AO2 PRESFR T00501039
14756KACK ACK20160128113510501/28/16 11:35:31  5-MIN KACK 281635Z 15006KT 10SM CLR 06/M04 A2999 -10 48 -1100 170/06 RMK AO2 T00561044
14756KACK ACK20160128114010301/28/16 11:40:31  5-MIN KACK 281640Z 16006KT 10SM CLR 05/M05 A2998 0 48 -1100 170/06 RMK AO2 T00501050
14756KACK ACK20160128114510301/28/16 11:45:31  5-MIN KACK 281645Z 16006KT 10SM CLR 05/M04 A2998 0 50 -1100 170/06 RMK AO2 T00501044
14756KACK ACK20160128115011001/28/16 11:50:31  5-MIN KACK 281650Z 14006KT 10SM CLR 05/M05 A2997 0 48 -1100 150/06 RMK AO2 SLP148 T00501050
14756KACK ACK20160128115511101/28/16 11:55:31  5-MIN KACK 281655Z 15006KT 10SM CLR 05/M06 A2996 10 46 -1100 160/06 RMK AO2 PRESFR T00501056
14756KACK ACK20160128120010401/28/16 12:00:31  5-MIN KACK 281700Z 15006KT 10SM CLR 06/M04 A2996 10 48 -1000 160/06 RMK AO2 T00561044
14756KACK ACK20160128120510401/28/16 12:05:31  5-MIN KACK 281705Z 16006KT 10SM CLR 05/M04 A2996 10 50 -1100 170/06 RMK AO2 T00501044
14756KACK ACK20160128121010401/28/16 12:10:31  5-MIN KACK 281710Z 15007KT 10SM CLR 06/M04 A2996 20 48 -1000 170/07 RMK AO2 T00561044
14756KACK ACK20160128121510401/28/16 12:15:31  5-MIN KACK 281715Z 15006KT 10SM CLR 06/M05 A2995 20 46 -1000 160/06 RMK AO2 T00561050
14756KACK ACK20160128122010401/28/16 12:20:31  5-MIN KACK 281720Z 15005KT 10SM CLR 06/M04 A2995 20 48 -1000 160/05 RMK AO2 T00561044
14756KACK ACK20160128122510401/28/16 12:25:31  5-MIN KACK 281725Z 15005KT 10SM CLR 06/M04 A2995 30 50 -1000 160/05 RMK AO2 T00561039
14756KACK ACK20160128123010401/28/16 12:30:31  5-MIN KACK 281730Z 14004KT 10SM CLR 06/M04 A2994 30 48 -1000 160/04 RMK AO2 T00561044
14756KACK ACK20160128123510401/28/16 12:35:31  5-MIN KACK 281735Z 15006KT 10SM CLR 05/M04 A2994 30 50 -1100 160/06 RMK AO2 T00501044
14756KACK ACK20160128124010401/28/16 12:40:31  5-MIN KACK 281740Z 15006KT 10SM CLR 04/M04 A2994 30 55 -1100 160/06 RMK AO2 T00441039
14756KACK ACK20160128124510401/28/16 12:45:31  5-MIN KACK 281745Z 14006KT 10SM CLR 05/M04 A2993 40 50 -1100 160/06 RMK AO2 T00501044
14756KACK ACK20160128125012901/28/16 12:50:31  5-MIN KACK 281750Z 14005KT 10SM CLR 05/M04 A2993 40 50 -1100 160/05 RMK AO2 SLP135 T00501044 10056 21050 58014
14756KACK ACK20160128125510401/28/16 12:55:31  5-MIN KACK 281755Z 13006KT 10SM CLR 04/M04 A2993 40 52 -1100 150/06 RMK AO2 T00441044
14756KACK ACK20160128130010401/28/16 13:00:31  5-MIN KACK 281800Z 13007KT 10SM CLR 05/M04 A2992 50 50 -1100 150/07 RMK AO2 T00501044
14756KACK ACK20160128130510401/28/16 13:05:31  5-MIN KACK 281805Z 13006KT 10SM CLR 05/M04 A2992 50 50 -1100 140/06 RMK AO2 T00501044
14756KACK ACK20160128131010401/28/16 13:10:31  5-MIN KACK 281810Z 13005KT 10SM CLR 06/M04 A2992 50 48 -1000 140/05 RMK AO2 T00561044
14756KACK ACK20160128131510401/28/16 13:15:31  5-MIN KACK 281815Z 14007KT 10SM CLR 06/M04 A2992 50 48 -1000 160/07 RMK AO2 T00561044
14756KACK ACK20160128132010401/28/16 13:20:31  5-MIN KACK 281820Z 14007KT 10SM CLR 06/M04 A2991 50 48 -1000 160/07 RMK AO2 T00561044
14756KACK ACK20160128132510401/28/16 13:25:31  5-MIN KACK 281825Z 14007KT 10SM CLR 06/M05 A2991 60 46 -1000 150/07 RMK AO2 T00561050
14756KACK ACK20160128133010401/28/16 13:30:31  5-MIN KACK 281830Z 14008KT 10SM CLR 06/M05 A2991 60 46 -1000 150/08 RMK AO2 T00561050
14756KACK ACK20160128133510401/28/16 13:35:31  5-MIN KACK 281835Z 14008KT 10SM CLR 06/M04 A2991 60 50 -1000 150/08 RMK AO2 T00561039
14756KACK ACK20160128134010401/28/16 13:40:31  5-MIN KACK 281840Z 13007KT 10SM CLR 05/M04 A2991 60 52 -1000 150/07 RMK AO2 T00501039
14756KACK ACK20160128134510401/28/16 13:45:31  5-MIN KACK 281845Z 12008KT 10SM CLR 05/M03 A2991 60 55 -1000 140/08 RMK AO2 T00501033
14756KACK ACK20160128135011101/28/16 13:50:31  5-MIN KACK 281850Z 13007KT 10SM CLR 05/M03 A2991 60 55 -1000 140/07 RMK AO2 SLP128 T00501033
14756KACK ACK20160128135510401/28/16 13:55:31  5-MIN KACK 281855Z 12008KT 10SM CLR 05/M03 A2990 60 55 -1000 130/08 RMK AO2 T00501033
14756KACK ACK20160128140010401/28/16 14:00:31  5-MIN KACK 281900Z 12008KT 10SM CLR 05/M03 A2990 70 55 -1000 130/08 RMK AO2 T00501033
14756KACK ACK20160128140510401/28/16 14:05:31  5-MIN KACK 281905Z 11008KT 10SM CLR 05/M03 A2989 70 55 -1000 130/08 RMK AO2 T00501033
14756KACK ACK20160128141010401/28/16 14:10:31  5-MIN KACK 281910Z 12007KT 10SM CLR 05/M03 A2989 80 55 -1000 130/07 RMK AO2 T00501033
14756KACK ACK20160128141510401/28/16 14:15:31  5-MIN KACK 281915Z 11007KT 10SM CLR 05/M03 A2989 80 55 -1000 120/07 RMK AO2 T00501033
14756KACK ACK20160128142010401/28/16 14:20:31  5-MIN KACK 281920Z 11008KT 10SM CLR 06/M03 A2989 80 53 -1000 120/08 RMK AO2 T00561033
14756KACK ACK20160128142510401/28/16 14:25:31  5-MIN KACK 281925Z 13007KT 10SM CLR 06/M03 A2989 80 53 -1000 140/07 RMK AO2 T00561033
14756KACK ACK20160128143010301/28/16 14:30:31  5-MIN KACK 281930Z 13008KT 10SM CLR 06/M03 A2988 80 53 -900 140/08 RMK AO2 T00561033
14756KACK ACK20160128143510301/28/16 14:35:31  5-MIN KACK 281935Z 13008KT 10SM CLR 06/M03 A2988 90 53 -900 140/08 RMK AO2 T00561033
14756KACK ACK20160128144010301/28/16 14:40:31  5-MIN KACK 281940Z 12007KT 10SM CLR 06/M03 A2988 90 53 -900 130/07 RMK AO2 T00561033
14756KACK ACK20160128144510301/28/16 14:45:31  5-MIN KACK 281945Z 12008KT 10SM CLR 06/M03 A2987 90 53 -900 130/08 RMK AO2 T00561033
14756KACK ACK20160128145011001/28/16 14:50:31  5-MIN KACK 281950Z 12007KT 10SM CLR 06/M03 A2987 90 53 -900 130/07 RMK AO2 SLP116 T00611028
14756KACK ACK20160128145510301/28/16 14:55:31  5-MIN KACK 281955Z 12008KT 10SM CLR 06/M02 A2988 90 57 -900 140/08 RMK AO2 T00561022
14756KACK ACK20160128150010301/28/16 15:00:31  5-MIN KACK 282000Z 13009KT 10SM CLR 06/M02 A2988 90 55 -900 140/09 RMK AO2 T00611022
14756KACK ACK20160128150510301/28/16 15:05:31  5-MIN KACK 282005Z 13007KT 10SM CLR 06/M02 A2988 90 59 -900 140/07 RMK AO2 T00561017
14756KACK ACK20160128151010401/28/16 15:10:31  5-MIN KACK 282010Z 13007KT 10SM CLR 06/M02 A2987 100 59 -900 150/07 RMK AO2 T00561017
14756KACK ACK20160128151510401/28/16 15:15:31  5-MIN KACK 282015Z 13008KT 10SM CLR 06/M02 A2986 100 59 -900 140/08 RMK AO2 T00561017
14756KACK ACK20160128152010501/28/16 15:20:31  5-MIN KACK 282020Z 12007KT 10SM CLR 05/M01 A2986 100 64 -1000 130/07 RMK AO2 T00501011
14756KACK ACK20160128152510501/28/16 15:25:31  5-MIN KACK 282025Z 12007KT 10SM CLR 05/M01 A2986 110 64 -1000 140/07 RMK AO2 T00501011
14756KACK ACK20160128153010501/28/16 15:30:31  5-MIN KACK 282030Z 11007KT 10SM CLR 05/M01 A2985 110 67 -1000 130/07 RMK AO2 T00501006
14756KACK ACK20160128153510501/28/16 15:35:31  5-MIN KACK 282035Z 12007KT 10SM CLR 05/M01 A2985 110 67 -1000 130/07 RMK AO2 T00501006
14756KACK ACK20160128154010301/28/16 15:40:31  5-MIN KACK 282040Z 12006KT 10SM CLR 06/00 A2985 120 67 -900 130/06 RMK AO2 T00560000
14756KACK ACK20160128154510301/28/16 15:45:31  5-MIN KACK 282045Z 12007KT 10SM CLR 06/00 A2984 130 67 -900 130/07 RMK AO2 T00560000
14756KACK ACK20160128155011601/28/16 15:50:31  5-MIN KACK 282050Z 11007KT 10SM CLR 06/00 A2984 130 67 -900 130/07 RMK AO2 SLP104 T00560000 58035
14756KACK ACK20160128155510301/28/16 15:55:31  5-MIN KACK 282055Z 11006KT 10SM CLR 06/00 A2984 120 67 -900 120/06 RMK AO2 T00560000
14756KACK ACK20160128160010301/28/16 16:00:31  5-MIN KACK 282100Z 11006KT 10SM CLR 06/00 A2984 130 67 -900 130/06 RMK AO2 T00560000
14756KACK ACK20160128160510401/28/16 16:05:31  5-MIN KACK 282105Z 12007KT 10SM CLR 05/00 A2983 130 70 -1000 140/07 RMK AO2 T00500000
14756KACK ACK20160128161010401/28/16 16:10:31  5-MIN KACK 282110Z 12007KT 10SM CLR 05/00 A2983 130 70 -1000 130/07 RMK AO2 T00500000
14756KACK ACK20160128161510301/28/16 16:15:31  5-MIN KACK 282115Z 11006KT 10SM CLR 05/00 A2982 140 70 -900 120/06 RMK AO2 T00500000
14756KACK ACK20160128162010301/28/16 16:20:31  5-MIN KACK 282120Z 11005KT 10SM CLR 05/00 A2982 140 70 -900 120/05 RMK AO2 T00500000
14756KACK ACK20160128162510401/28/16 16:25:31  5-MIN KACK 282125Z 11005KT 10SM CLR 04/00 A2982 140 73 -1000 130/05 RMK AO2 T00440000
14756KACK ACK20160128163010401/28/16 16:30:31  5-MIN KACK 282130Z 12003KT 10SM CLR 04/00 A2983 140 76 -1100 140/03 RMK AO2 T00390000
14756KACK ACK20160128163510501/28/16 16:35:31  5-MIN KACK 282135Z 00000KT 10SM CLR 04/M01 A2983 130 73 -1100 000/00 RMK AO2 T00391006
14756KACK ACK20160128164010401/28/16 16:40:31  5-MIN KACK 282140Z 14003KT 10SM CLR 04/00 A2983 130 76 -1100 150/03 RMK AO2 T00390000
14756KACK ACK20160128164510401/28/16 16:45:31  5-MIN KACK 282145Z 11004KT 10SM CLR 04/00 A2984 130 76 -1100 130/04 RMK AO2 T00390000
14756KACK ACK20160128165011101/28/16 16:50:31  5-MIN KACK 282150Z 00000KT 10SM CLR 03/00 A2984 120 79 -1200 000/00 RMK AO2 SLP104 T00330000
14756KACK ACK20160128165510401/28/16 16:55:31  5-MIN KACK 282155Z 00000KT 10SM CLR 04/00 A2984 120 76 -1100 000/00 RMK AO2 T00390000
14756KACK ACK20160128170010401/28/16 17:00:31  5-MIN KACK 282200Z 00000KT 10SM CLR 03/00 A2984 130 79 -1200 000/00 RMK AO2 T00330000
14756KACK ACK20160128170510401/28/16 17:05:31  5-MIN KACK 282205Z 11003KT 10SM CLR 04/00 A2983 130 76 -1100 120/03 RMK AO2 T00390000
14756KACK ACK20160128171010401/28/16 17:10:31  5-MIN KACK 282210Z 11003KT 10SM CLR 03/00 A2984 130 79 -1200 130/03 RMK AO2 T00330000
14756KACK ACK20160128171510401/28/16 17:15:31  5-MIN KACK 282215Z 12003KT 10SM CLR 03/00 A2984 120 79 -1200 140/03 RMK AO2 T00330000
14756KACK ACK20160128172010501/28/16 17:20:31  5-MIN KACK 282220Z 00000KT 10SM CLR 03/M01 A2984 120 79 -1200 000/00 RMK AO2 T00281006
14756KACK ACK20160128172510501/28/16 17:25:31  5-MIN KACK 282225Z 13003KT 10SM CLR 03/M01 A2984 120 76 -1200 140/03 RMK AO2 T00331006
14756KACK ACK20160128173010501/28/16 17:30:31  5-MIN KACK 282230Z 14003KT 10SM CLR 02/M01 A2984 120 82 -1300 150/03 RMK AO2 T00221006
14756KACK ACK20160128173510501/28/16 17:35:31  5-MIN KACK 282235Z 14004KT 10SM CLR 03/M01 A2984 120 79 -1200 150/04 RMK AO2 T00281006
14756KACK ACK20160128174010501/28/16 17:40:31  5-MIN KACK 282240Z 14004KT 10SM CLR 03/M01 A2984 120 79 -1200 150/04 RMK AO2 T00281006
14756KACK ACK20160128174510501/28/16 17:45:31  5-MIN KACK 282245Z 14004KT 10SM CLR 02/M01 A2983 130 82 -1300 150/04 RMK AO2 T00221006
14756KACK ACK20160128175011101/28/16 17:50:31  5-MIN KACK 282250Z 14006KT 10SM CLR 02/00 A2983 130 85 -1300 150/06 RMK AO2 SLP102 T00220000
14756KACK ACK20160128175510401/28/16 17:55:31  5-MIN KACK 282255Z 14006KT 10SM CLR 03/01 A2983 140 85 -1200 150/06 RMK AO2 T00280006
14756KACK ACK20160128180010401/28/16 18:00:31  5-MIN KACK 282300Z 14006KT 10SM CLR 03/01 A2982 140 85 -1200 150/06 RMK AO2 T00280006
14756KACK ACK20160128180510401/28/16 18:05:31  5-MIN KACK 282305Z 13006KT 10SM CLR 03/01 A2982 140 85 -1200 150/06 RMK AO2 T00280006
14756KACK ACK20160128181010401/28/16 18:10:31  5-MIN KACK 282310Z 13005KT 10SM CLR 02/01 A2982 140 89 -1300 150/05 RMK AO2 T00220006
14756KACK ACK20160128181510401/28/16 18:15:31  5-MIN KACK 282315Z 14003KT 10SM CLR 03/01 A2982 140 85 -1200 160/03 RMK AO2 T00280006
14756KACK ACK20160128182010401/28/16 18:20:31  5-MIN KACK 282320Z 16003KT 10SM CLR 03/01 A2982 140 89 -1200 180/03 RMK AO2 T00280011
14756KACK ACK20160128182510401/28/16 18:25:31  5-MIN KACK 282325Z 13004KT 10SM CLR 04/02 A2982 150 85 -1100 150/04 RMK AO2 T00390017
14756KACK ACK20160128183010401/28/16 18:30:31  5-MIN KACK 282330Z 13006KT 10SM CLR 04/02 A2982 140 82 -1000 150/06 RMK AO2 T00440017
14756KACK ACK20160128183510401/28/16 18:35:31  5-MIN KACK 282335Z 12005KT 10SM CLR 03/01 A2981 150 85 -1100 130/05 RMK AO2 T00330011
14756KACK ACK20160128184010401/28/16 18:40:31  5-MIN KACK 282340Z 13006KT 10SM CLR 03/01 A2981 150 85 -1200 140/06 RMK AO2 T00280006
14756KACK ACK20160128184510401/28/16 18:45:31  5-MIN KACK 282345Z 12003KT 10SM CLR 03/01 A2981 150 85 -1200 130/03 RMK AO2 T00280006
14756KACK ACK20160128185012901/28/16 18:50:31  5-MIN KACK 282350Z 00000KT 10SM CLR 03/01 A2981 150 85 -1200 000/00 RMK AO2 SLP094 T00280006 10061 20022 58031
14756KACK ACK20160128185510401/28/16 18:55:31  5-MIN KACK 282355Z 00000KT 10SM CLR 03/01 A2980 160 89 -1200 000/00 RMK AO2 T00280011
14756KACK ACK20160128190010401/28/16 19:00:31  5-MIN KACK 290000Z 00000KT 10SM CLR 04/01 A2980 160 82 -1100 000/00 RMK AO2 T00390011
14756KACK ACK20160128190510401/28/16 19:05:31  5-MIN KACK 290005Z 00000KT 10SM CLR 04/02 A2981 150 82 -1000 000/00 RMK AO2 T00440017
14756KACK ACK20160128191010401/28/16 19:10:31  5-MIN KACK 290010Z 00000KT 10SM CLR 04/02 A2981 160 85 -1100 000/00 RMK AO2 T00390017
14756KACK ACK20160128191510401/28/16 19:15:31  5-MIN KACK 290015Z 00000KT 10SM CLR 04/02 A2980 160 85 -1100 000/00 RMK AO2 T00390017
14756KACK ACK20160128192010401/28/16 19:20:31  5-MIN KACK 290020Z 00000KT 10SM CLR 04/02 A2980 160 85 -1100 000/00 RMK AO2 T00390017
14756KACK ACK20160128192510401/28/16 19:25:31  5-MIN KACK 290025Z 00000KT 10SM CLR 04/01 A2980 160 82 -1100 000/00 RMK AO2 T00390011
14756KACK ACK20160128193010401/28/16 19:30:31  5-MIN KACK 290030Z 00000KT 10SM CLR 03/01 A2980 160 85 -1100 000/00 RMK AO2 T00330011
14756KACK ACK20160128193510401/28/16 19:35:31  5-MIN KACK 290035Z 00000KT 10SM CLR 03/01 A2980 160 85 -1200 000/00 RMK AO2 T00280006
14756KACK ACK20160128194010401/28/16 19:40:31  5-MIN KACK 290040Z 00000KT 10SM CLR 03/01 A2980 160 85 -1200 000/00 RMK AO2 T00280006
14756KACK ACK20160128194510401/28/16 19:45:31  5-MIN KACK 290045Z 00000KT 10SM CLR 03/01 A2980 160 85 -1100 000/00 RMK AO2 T00330011
14756KACK ACK20160128195011101/28/16 19:50:31  5-MIN KACK 290050Z 10003KT 10SM CLR 03/02 A2980 160 89 -1100 120/03 RMK AO2 SLP091 T00330017
14756KACK ACK20160128195510401/28/16 19:55:31  5-MIN KACK 290055Z 11005KT 10SM CLR 03/01 A2980 160 85 -1100 120/05 RMK AO2 T00330011
14756KACK ACK20160128200010401/28/16 20:00:31  5-MIN KACK 290100Z 11005KT 10SM CLR 03/01 A2979 170 85 -1200 120/05 RMK AO2 T00280006
14756KACK ACK20160128200510401/28/16 20:05:31  5-MIN KACK 290105Z 12006KT 10SM CLR 03/01 A2980 170 82 -1100 130/06 RMK AO2 T00330006
14756KACK ACK20160128201010401/28/16 20:10:31  5-MIN KACK 290110Z 12006KT 10SM CLR 03/01 A2979 170 85 -1100 130/06 RMK AO2 T00330011
14756KACK ACK20160128201510401/28/16 20:15:31  5-MIN KACK 290115Z 12007KT 10SM CLR 03/01 A2979 170 89 -1200 130/07 RMK AO2 T00280011
14756KACK ACK20160128202010401/28/16 20:20:31  5-MIN KACK 290120Z 12008KT 10SM CLR 03/01 A2978 180 85 -1200 130/08 RMK AO2 T00280006
14756KACK ACK20160128202510401/28/16 20:25:31  5-MIN KACK 290125Z 12008KT 10SM CLR 03/01 A2978 180 89 -1200 130/08 RMK AO2 T00280011
14756KACK ACK20160128203010401/28/16 20:30:31  5-MIN KACK 290130Z 12009KT 10SM CLR 03/01 A2977 190 89 -1200 140/09 RMK AO2 T00280011
14756KACK ACK20160128203510401/28/16 20:35:31  5-MIN KACK 290135Z 12007KT 10SM CLR 03/01 A2977 190 89 -1200 130/07 RMK AO2 T00280011
14756KACK ACK20160128204010401/28/16 20:40:31  5-MIN KACK 290140Z 11006KT 10SM CLR 03/02 A2977 190 89 -1100 120/06 RMK AO2 T00330017
14756KACK ACK20160128204510401/28/16 20:45:31  5-MIN KACK 290145Z 10005KT 10SM CLR 03/02 A2977 190 89 -1100 120/05 RMK AO2 T00330017
14756KACK ACK20160128205012101/28/16 20:50:31  5-MIN KACK 290150Z AUTO 09005KT 10SM CLR 04/02 A2976 190 89 -1000 110/05 RMK AO2 SLP079 T00390022 TSNO
14756KACK ACK20160128205511401/28/16 20:55:31  5-MIN KACK 290155Z AUTO 10006KT 10SM CLR 04/02 A2977 190 89 -1000 110/06 RMK AO2 T00390022 TSNO
14756KACK ACK20160128210011401/28/16 21:00:31  5-MIN KACK 290200Z AUTO 10005KT 10SM CLR 04/02 A2977 190 89 -1000 120/05 RMK AO2 T00390022 TSNO
14756KACK ACK20160128210511401/28/16 21:05:31  5-MIN KACK 290205Z AUTO 10006KT 10SM CLR 04/02 A2976 190 89 -1000 120/06 RMK AO2 T00390022 TSNO
14756KACK ACK20160128211011401/28/16 21:10:31  5-MIN KACK 290210Z AUTO 11007KT 10SM CLR 04/02 A2976 200 89 -1000 120/07 RMK AO2 T00390022 TSNO
14756KACK ACK20160128211511401/28/16 21:15:31  5-MIN KACK 290215Z AUTO 11006KT 10SM CLR 04/02 A2976 200 89 -1000 120/06 RMK AO2 T00390022 TSNO
14756KACK ACK20160128212011401/28/16 21:20:31  5-MIN KACK 290220Z AUTO 10005KT 10SM CLR 04/02 A2976 200 89 -1000 120/05 RMK AO2 T00390022 TSNO
14756KACK ACK20160128212511401/28/16 21:25:31  5-MIN KACK 290225Z AUTO 10005KT 10SM CLR 04/02 A2976 200 89 -1000 110/05 RMK AO2 T00390022 TSNO
14756KACK ACK20160128213011401/28/16 21:30:31  5-MIN KACK 290230Z AUTO 10005KT 10SM CLR 04/03 A2976 200 92 -1000 110/05 RMK AO2 T00390028 TSNO
14756KACK ACK20160128213511401/28/16 21:35:31  5-MIN KACK 290235Z AUTO 10005KT 10SM CLR 04/03 A2976 200 92 -1000 110/05 RMK AO2 T00390028 TSNO
14756KACK ACK20160128214011301/28/16 21:40:31  5-MIN KACK 290240Z AUTO 10006KT 10SM CLR 04/03 A2975 200 89 -900 120/06 RMK AO2 T00440028 TSNO
14756KACK ACK20160128214511301/28/16 21:45:31  5-MIN KACK 290245Z AUTO 10007KT 10SM CLR 04/03 A2975 210 89 -900 120/07 RMK AO2 T00440028 TSNO
14756KACK ACK20160128215012601/28/16 21:50:31  5-MIN KACK 290250Z AUTO 10006KT 10SM CLR 04/03 A2975 210 89 -900 120/06 RMK AO2 SLP074 T00440028 58011 TSNO
14756KACK ACK20160128215511301/28/16 21:55:31  5-MIN KACK 290255Z AUTO 10006KT 10SM CLR 04/03 A2974 210 89 -900 120/06 RMK AO2 T00440028 TSNO
14756KACK ACK20160128220011301/28/16 22:00:31  5-MIN KACK 290300Z AUTO 10007KT 10SM CLR 04/03 A2974 210 89 -900 120/07 RMK AO2 T00440028 TSNO
14756KACK ACK20160128220511301/28/16 22:05:31  5-MIN KACK 290305Z AUTO 11006KT 10SM CLR 04/03 A2975 210 89 -900 120/06 RMK AO2 T00440028 TSNO
14756KACK ACK20160128221011401/28/16 22:10:31  5-MIN KACK 290310Z AUTO 11006KT 10SM CLR 04/03 A2974 220 92 -1000 120/06 RMK AO2 T00390028 TSNO
14756KACK ACK20160128221511401/28/16 22:15:31  5-MIN KACK 290315Z AUTO 10006KT 10SM CLR 04/03 A2973 220 92 -1000 120/06 RMK AO2 T00390028 TSNO
14756KACK ACK20160128222011301/28/16 22:20:31  5-MIN KACK 290320Z AUTO 10006KT 10SM CLR 04/03 A2973 220 89 -900 120/06 RMK AO2 T00440028 TSNO
14756KACK ACK20160128222512001/28/16 22:25:31  5-MIN KACK 290325Z AUTO 10007KT 10SM CLR 04/03 A2972 230 89 -900 120/07 RMK AO2 PRESFR T00440028 TSNO
14756KACK ACK20160128223011401/28/16 22:30:31  5-MIN KACK 290330Z AUTO 11007KT 10SM CLR 04/03 A2972 230 92 -1000 130/07 RMK AO2 T00390028 TSNO
14756KACK ACK20160128223511401/28/16 22:35:31  5-MIN KACK 290335Z AUTO 11007KT 10SM CLR 04/02 A2972 240 89 -1000 130/07 RMK AO2 T00390022 TSNO
14756KACK ACK20160128224011401/28/16 22:40:31  5-MIN KACK 290340Z AUTO 11006KT 10SM CLR 04/02 A2972 230 89 -1000 120/06 RMK AO2 T00390022 TSNO
14756KACK ACK20160128224511401/28/16 22:45:31  5-MIN KACK 290345Z AUTO 11007KT 10SM CLR 04/03 A2971 240 92 -1000 120/07 RMK AO2 T00390028 TSNO
14756KACK ACK20160128225012001/28/16 22:50:31  5-MIN KACK 290350Z AUTO 11007KT 10SM CLR 04/03 A2971 250 89 -900 130/07 RMK AO2 SLP060 T00440028 TSNO
14756KACK ACK20160128225511301/28/16 22:55:31  5-MIN KACK 290355Z AUTO 11006KT 10SM CLR 04/03 A2970 250 89 -900 120/06 RMK AO2 T00440028 TSNO
14756KACK ACK20160128230011301/28/16 23:00:31  5-MIN KACK 290400Z AUTO 11007KT 10SM CLR 04/03 A2970 260 89 -900 130/07 RMK AO2 T00440028 TSNO
14756KACK ACK20160128230511301/28/16 23:05:31  5-MIN KACK 290405Z AUTO 11007KT 10SM CLR 04/03 A2970 250 89 -900 130/07 RMK AO2 T00440028 TSNO
14756KACK ACK20160128231011301/28/16 23:10:31  5-MIN KACK 290410Z AUTO 11006KT 10SM CLR 04/03 A2970 250 89 -900 130/06 RMK AO2 T00440028 TSNO
14756KACK ACK20160128231511301/28/16 23:15:31  5-MIN KACK 290415Z AUTO 12007KT 10SM CLR 04/03 A2970 250 89 -900 130/07 RMK AO2 T00440028 TSNO
14756KACK ACK20160128232011301/28/16 23:20:31  5-MIN KACK 290420Z AUTO 11007KT 10SM CLR 04/03 A2969 260 89 -900 120/07 RMK AO2 T00440028 TSNO
14756KACK ACK20160128232511301/28/16 23:25:31  5-MIN KACK 290425Z AUTO 11007KT 10SM CLR 04/03 A2969 260 89 -900 120/07 RMK AO2 T00440028 TSNO
14756KACK ACK20160128233011301/28/16 23:30:31  5-MIN KACK 290430Z AUTO 10005KT 10SM CLR 05/03 A2969 260 89 -800 110/05 RMK AO2 T00500033 TSNO
14756KACK ACK20160128233511301/28/16 23:35:31  5-MIN KACK 290435Z AUTO 10006KT 10SM CLR 05/03 A2969 270 89 -800 110/06 RMK AO2 T00500033 TSNO
14756KACK ACK20160128234011301/28/16 23:40:31  5-MIN KACK 290440Z AUTO 10006KT 10SM CLR 05/03 A2969 260 89 -800 120/06 RMK AO2 T00500033 TSNO
14756KACK ACK20160128234511301/28/16 23:45:31  5-MIN KACK 290445Z AUTO 11006KT 10SM CLR 04/03 A2968 270 92 -900 120/06 RMK AO2 T00440033 TSNO
14756KACK ACK20160128235013001/28/16 23:50:31  5-MIN KACK 290450Z AUTO 11007KT 10SM CLR 04/03 A2968 270 89 -900 120/07 RMK AO2 SLP050 T00440028 400611050 TSNO
14756KACK ACK20160128235511301/28/16 23:55:31  5-MIN KACK 290455Z AUTO 11006KT 10SM CLR 04/03 A2968 270 89 -800 130/06 RMK AO2 T00440028 TSNO
14756KACK ACK20160129000011301/29/16 00:00:31  5-MIN KACK 290500Z AUTO 11006KT 10SM CLR 04/03 A2968 280 89 -800 120/06 RMK AO2 T00440028 TSNO
14756KACK ACK20160129000511301/29/16 00:05:31  5-MIN KACK 290505Z AUTO 11005KT 10SM CLR 04/03 A2968 280 92 -800 120/05 RMK AO2 T00440033 TSNO
14756KACK ACK20160129001011301/29/16 00:10:31  5-MIN KACK 290510Z AUTO 11005KT 10SM CLR 04/03 A2967 280 92 -800 120/05 RMK AO2 T00440033 TSNO
14756KACK ACK20160129001511301/29/16 00:15:31  5-MIN KACK 290515Z AUTO 11005KT 10SM CLR 04/03 A2967 280 92 -800 120/05 RMK AO2 T00440033 TSNO
14756KACK ACK20160129002011301/29/16 00:20:31  5-MIN KACK 290520Z AUTO 10006KT 10SM CLR 04/03 A2966 290 89 -800 110/06 RMK AO2 T00440028 TSNO
14756KACK ACK20160129002511301/29/16 00:25:31  5-MIN KACK 290525Z AUTO 11005KT 10SM CLR 04/03 A2967 280 92 -800 130/05 RMK AO2 T00440033 TSNO
14756KACK ACK20160129003011301/29/16 00:30:31  5-MIN KACK 290530Z AUTO 11006KT 10SM CLR 04/03 A2967 280 92 -800 130/06 RMK AO2 T00440033 TSNO
14756KACK ACK20160129003511301/29/16 00:35:31  5-MIN KACK 290535Z AUTO 11006KT 10SM CLR 04/03 A2967 280 89 -800 130/06 RMK AO2 T00440028 TSNO
14756KACK ACK20160129004011201/29/16 00:40:31  5-MIN KACK 290540Z AUTO 11005KT 9SM CLR 04/03 A2967 280 92 -800 130/05 RMK AO2 T00440033 TSNO
14756KACK ACK20160129004511301/29/16 00:45:31  5-MIN KACK 290545Z AUTO 11005KT 10SM CLR 04/03 A2966 290 92 -800 120/05 RMK AO2 T00440033 TSNO
14756KACK ACK20160129005013801/29/16 00:50:31  5-MIN KACK 290550Z AUTO 11004KT 10SM CLR 04/03 A2966 290 92 -800 120/04 RMK AO2 SLP045 T00440033 10050 20022 58020 TSNO
14756KACK ACK20160129005511301/29/16 00:55:31  5-MIN KACK 290555Z AUTO 11004KT 10SM CLR 04/03 A2966 290 92 -800 130/04 RMK AO2 T00440033 TSNO
14756KACK ACK20160129010011301/29/16 01:00:31  5-MIN KACK 290600Z AUTO 11006KT 10SM CLR 04/03 A2965 300 92 -800 120/06 RMK AO2 T00440033 TSNO
14756KACK ACK20160129010511301/29/16 01:05:31  5-MIN KACK 290605Z AUTO 11004KT 10SM CLR 04/03 A2966 290 89 -800 130/04 RMK AO2 T00440028 TSNO
14756KACK ACK20160129011011301/29/16 01:10:31  5-MIN KACK 290610Z AUTO 10004KT 10SM CLR 04/03 A2965 300 92 -800 120/04 RMK AO2 T00440033 TSNO
14756KACK ACK20160129011511301/29/16 01:15:31  5-MIN KACK 290615Z AUTO 10005KT 10SM CLR 05/03 A2964 310 89 -700 110/05 RMK AO2 T00500033 TSNO
14756KACK ACK20160129012011301/29/16 01:20:31  5-MIN KACK 290620Z AUTO 10005KT 10SM CLR 04/03 A2964 310 92 -800 110/05 RMK AO2 T00440033 TSNO
14756KACK ACK20160129012511301/29/16 01:25:31  5-MIN KACK 290625Z AUTO 10004KT 10SM CLR 04/03 A2963 310 92 -800 120/04 RMK AO2 T00440033 TSNO
14756KACK ACK20160129013012001/29/16 01:30:31  5-MIN KACK 290630Z AUTO 11005KT 10SM CLR 04/03 A2963 320 92 -900 120/05 RMK AO2 PRESFR T00390028 TSNO
14756KACK ACK20160129013512001/29/16 01:35:31  5-MIN KACK 290635Z AUTO 10006KT 10SM CLR 04/03 A2962 330 89 -800 120/06 RMK AO2 PRESFR T00440028 TSNO
14756KACK ACK20160129014011301/29/16 01:40:31  5-MIN KACK 290640Z AUTO 10006KT 10SM CLR 05/03 A2962 330 85 -700 120/06 RMK AO2 T00500028 TSNO
14756KACK ACK20160129014511301/29/16 01:45:31  5-MIN KACK 290645Z AUTO 10005KT 10SM CLR 05/03 A2962 330 89 -700 120/05 RMK AO2 T00500033 TSNO
14756KACK ACK20160129015012001/29/16 01:50:31  5-MIN KACK 290650Z AUTO 09005KT 10SM CLR 05/03 A2961 340 89 -700 110/05 RMK AO2 SLP027 T00500033 TSNO
14756KACK ACK20160129015511301/29/16 01:55:31  5-MIN KACK 290655Z AUTO 09005KT 10SM CLR 05/04 A2961 340 92 -700 110/05 RMK AO2 T00500039 TSNO
14756KACK ACK20160129020011301/29/16 02:00:31  5-MIN KACK 290700Z AUTO 09005KT 10SM CLR 05/04 A2961 340 92 -700 110/05 RMK AO2 T00500039 TSNO
14756KACK ACK20160129020511301/29/16 02:05:31  5-MIN KACK 290705Z AUTO 09006KT 10SM CLR 05/04 A2960 340 92 -700 110/06 RMK AO2 T00500039 TSNO
14756KACK ACK20160129021011601/29/16 02:10:31  5-MIN KACK 290710Z AUTO 09006KT 10SM FEW120 05/04 A2959 350 92 -700 110/06 RMK AO2 T00500039 TSNO
14756KACK ACK20160129021511601/29/16 02:15:31  5-MIN KACK 290715Z AUTO 09005KT 10SM SCT120 05/04 A2959 350 92 -700 100/05 RMK AO2 T00500039 TSNO
14756KACK ACK20160129022011601/29/16 02:20:31  5-MIN KACK 290720Z AUTO 09005KT 10SM SCT120 05/04 A2960 350 92 -700 100/05 RMK AO2 T00500039 TSNO
14756KACK ACK20160129022511601/29/16 02:25:31  5-MIN KACK 290725Z AUTO 09006KT 10SM BKN120 05/04 A2959 350 92 -700 110/06 RMK AO2 T00500039 TSNO
14756KACK ACK20160129023011601/29/16 02:30:31  5-MIN KACK 290730Z AUTO 09006KT 10SM BKN120 06/04 A2959 360 89 -600 100/06 RMK AO2 T00560039 TSNO
14756KACK ACK20160129023511601/29/16 02:35:31  5-MIN KACK 290735Z AUTO 09006KT 10SM BKN120 06/04 A2959 360 89 -600 110/06 RMK AO2 T00560039 TSNO
14756KACK ACK20160129024011601/29/16 02:40:31  5-MIN KACK 290740Z AUTO 08006KT 10SM OVC110 05/04 A2959 360 92 -700 100/06 RMK AO2 T00500039 TSNO
14756KACK ACK20160129024511601/29/16 02:45:31  5-MIN KACK 290745Z AUTO 08006KT 10SM OVC110 06/04 A2958 370 89 -600 090/06 RMK AO2 T00560039 TSNO
14756KACK ACK20160129025012301/29/16 02:50:31  5-MIN KACK 290750Z AUTO 08006KT 10SM OVC110 06/04 A2957 370 89 -600 090/06 RMK AO2 SLP014 T00560039 TSNO
14756KACK ACK20160129025511601/29/16 02:55:31  5-MIN KACK 290755Z AUTO 09007KT 10SM OVC110 06/04 A2957 380 89 -600 100/07 RMK AO2 T00560039 TSNO
14756KACK ACK20160129030011601/29/16 03:00:31  5-MIN KACK 290800Z AUTO 09007KT 10SM OVC110 06/04 A2957 370 89 -600 110/07 RMK AO2 T00560039 TSNO
14756KACK ACK20160129030511601/29/16 03:05:31  5-MIN KACK 290805Z AUTO 09007KT 10SM OVC110 05/04 A2956 380 92 -600 100/07 RMK AO2 T00500039 TSNO
14756KACK ACK20160129031011601/29/16 03:10:31  5-MIN KACK 290810Z AUTO 09006KT 10SM OVC100 06/04 A2957 380 89 -600 100/06 RMK AO2 T00560039 TSNO
14756KACK ACK20160129031511601/29/16 03:15:31  5-MIN KACK 290815Z AUTO 09006KT 10SM OVC100 06/04 A2956 380 89 -600 110/06 RMK AO2 T00560039 TSNO
14756KACK ACK20160129032011601/29/16 03:20:31  5-MIN KACK 290820Z AUTO 09006KT 10SM OVC100 06/04 A2956 380 89 -600 100/06 RMK AO2 T00560039 TSNO
14756KACK ACK20160129032511601/29/16 03:25:31  5-MIN KACK 290825Z AUTO 08005KT 10SM OVC100 06/04 A2957 380 89 -600 100/05 RMK AO2 T00560039 TSNO
14756KACK ACK20160129033011601/29/16 03:30:31  5-MIN KACK 290830Z AUTO 00000KT 10SM OVC100 06/04 A2957 370 89 -600 000/00 RMK AO2 T00560039 TSNO
14756KACK ACK20160129033511601/29/16 03:35:31  5-MIN KACK 290835Z AUTO 06003KT 10SM OVC100 05/04 A2957 370 92 -700 080/03 RMK AO2 T00500039 TSNO
14756KACK ACK20160129034011601/29/16 03:40:31  5-MIN KACK 290840Z AUTO 00000KT 10SM OVC095 05/04 A2957 370 92 -700 000/00 RMK AO2 T00500039 TSNO
14756KACK ACK20160129034511601/29/16 03:45:31  5-MIN KACK 290845Z AUTO 00000KT 10SM OVC090 05/03 A2956 380 89 -600 000/00 RMK AO2 T00500033 TSNO
14756KACK ACK20160129035012901/29/16 03:50:31  5-MIN KACK 290850Z AUTO 06004KT 10SM OVC085 05/03 A2956 390 89 -600 070/04 RMK AO2 SLP008 T00500033 56027 TSNO
14756KACK ACK20160129035511601/29/16 03:55:31  5-MIN KACK 290855Z AUTO 07005KT 10SM OVC090 04/03 A2955 390 89 -700 090/05 RMK AO2 T00440028 TSNO
14756KACK ACK20160129040012301/29/16 04:00:31  5-MIN KACK 290900Z AUTO 06006KT 10SM OVC090 06/03 A2954 400 85 -600 080/06 RMK AO2 PRESFR T00560033 TSNO
14756KACK ACK20160129040511601/29/16 04:05:31  5-MIN KACK 290905Z AUTO 06006KT 10SM OVC085 06/03 A2954 410 85 -500 070/06 RMK AO2 T00560033 TSNO
14756KACK ACK20160129041011601/29/16 04:10:31  5-MIN KACK 290910Z AUTO 06006KT 10SM OVC085 06/04 A2954 410 89 -500 070/06 RMK AO2 T00560039 TSNO
14756KACK ACK20160129041511601/29/16 04:15:31  5-MIN KACK 290915Z AUTO 07006KT 10SM OVC090 06/04 A2954 400 89 -600 080/06 RMK AO2 T00560039 TSNO
14756KACK ACK20160129042011601/29/16 04:20:31  5-MIN KACK 290920Z AUTO 06006KT 10SM OVC090 06/04 A2953 410 89 -500 070/06 RMK AO2 T00560039 TSNO
14756KACK ACK20160129042511601/29/16 04:25:31  5-MIN KACK 290925Z AUTO 06007KT 10SM OVC090 06/04 A2953 420 89 -500 070/07 RMK AO2 T00560039 TSNO
14756KACK ACK20160129043011601/29/16 04:30:31  5-MIN KACK 290930Z AUTO 07006KT 10SM OVC090 06/04 A2953 410 89 -500 080/06 RMK AO2 T00560039 TSNO
14756KACK ACK20160129043511601/29/16 04:35:31  5-MIN KACK 290935Z AUTO 07006KT 10SM OVC085 06/04 A2952 420 89 -500 090/06 RMK AO2 T00560039 TSNO
14756KACK ACK20160129044012301/29/16 04:40:31  5-MIN KACK 290940Z AUTO 07006KT 10SM BKN075 OVC090 06/04 A2952 420 89 -500 090/06 RMK AO2 T00560039 TSNO
14756KACK ACK20160129044512301/29/16 04:45:31  5-MIN KACK 290945Z AUTO 08008KT 10SM BKN070 OVC090 06/04 A2952 430 89 -500 100/08 RMK AO2 T00560039 TSNO
14756KACK ACK20160129045013001/29/16 04:50:31  5-MIN KACK 290950Z AUTO 08006KT 10SM BKN070 OVC090 06/04 A2951 430 89 -500 090/06 RMK AO2 SLP994 T00560039 TSNO
14756KACK ACK20160129045512301/29/16 04:55:31  5-MIN KACK 290955Z AUTO 07006KT 10SM BKN065 OVC080 06/04 A2951 430 89 -500 080/06 RMK AO2 T00560039 TSNO
14756KACK ACK20160129050012301/29/16 05:00:31  5-MIN KACK 291000Z AUTO 07006KT 10SM BKN065 OVC080 06/04 A2951 430 89 -500 080/06 RMK AO2 T00560039 TSNO
14756KACK ACK20160129050511601/29/16 05:05:31  5-MIN KACK 291005Z AUTO 07005KT 10SM OVC065 06/04 A2951 430 89 -500 080/05 RMK AO2 T00560039 TSNO
14756KACK ACK20160129051011601/29/16 05:10:31  5-MIN KACK 291010Z AUTO 04005KT 10SM OVC065 06/04 A2951 430 89 -500 050/05 RMK AO2 T00560039 TSNO
14756KACK ACK20160129051511601/29/16 05:15:31  5-MIN KACK 291015Z AUTO 05006KT 10SM OVC060 05/04 A2950 440 92 -600 060/06 RMK AO2 T00500039 TSNO
14756KACK ACK20160129052011601/29/16 05:20:31  5-MIN KACK 291020Z AUTO 07006KT 10SM OVC060 05/03 A2951 430 89 -600 080/06 RMK AO2 T00500033 TSNO
14756KACK ACK20160129052511601/29/16 05:25:31  5-MIN KACK 291025Z AUTO 07005KT 10SM OVC060 06/04 A2951 430 89 -500 080/05 RMK AO2 T00560039 TSNO
14756KACK ACK20160129053011601/29/16 05:30:31  5-MIN KACK 291030Z AUTO 36004KT 10SM OVC060 06/04 A2950 440 89 -500 010/04 RMK AO2 T00560039 TSNO
14756KACK ACK20160129053511601/29/16 05:35:31  5-MIN KACK 291035Z AUTO 04006KT 10SM OVC060 06/04 A2950 440 89 -500 050/06 RMK AO2 T00560039 TSNO
14756KACK ACK20160129054011601/29/16 05:40:31  5-MIN KACK 291040Z AUTO 06007KT 10SM OVC060 06/04 A2949 450 89 -500 080/07 RMK AO2 T00560039 TSNO
14756KACK ACK20160129054512301/29/16 05:45:31  5-MIN KACK 291045Z AUTO 07010KT 10SM OVC060 06/04 A2947 460 89 -500 090/10 RMK AO2 PRESFR T00560039 TSNO
14756KACK ACK20160129055012001/29/16 05:50:31  5-MIN KACK 291050Z 08011KT 10SM OVC065 06/04 A2946 480 86 -400 100/11 RMK AO2 PRESFR SLP977 T00610039
14756KACK ACK20160129055511301/29/16 05:55:31  5-MIN KACK 291055Z 07009KT 10SM OVC065 06/04 A2945 480 86 -400 080/09 RMK AO2 PRESFR T00610039
14756KACK ACK20160129060010601/29/16 06:00:31  5-MIN KACK 291100Z 09006KT 10SM OVC070 07/04 A2946 480 82 -300 110/06 RMK AO2 T00670039
14756KACK ACK20160129060511301/29/16 06:05:31  5-MIN KACK 291105Z 07003KT 10SM FEW009 OVC070 07/04 A2946 480 82 -300 090/03 RMK AO2 T00670039
14756KACK ACK20160129061011301/29/16 06:10:31  5-MIN KACK 291110Z 36004KT 10SM FEW015 OVC070 06/04 A2946 480 86 -400 010/04 RMK AO2 T00610039
14756KACK ACK20160129061511301/29/16 06:15:31  5-MIN KACK 291115Z 00000KT 10SM FEW015 OVC070 06/04 A2945 490 86 -400 000/00 RMK AO2 T00610039
14756KACK ACK20160129062011301/29/16 06:20:31  5-MIN KACK 291120Z 08003KT 10SM FEW015 OVC070 06/04 A2945 490 86 -400 090/03 RMK AO2 T00610039
14756KACK ACK20160129062511301/29/16 06:25:31  5-MIN KACK 291125Z 00000KT 10SM FEW015 OVC070 06/04 A2944 490 86 -400 000/00 RMK AO2 T00610039
14756KACK ACK20160129063011301/29/16 06:30:31  5-MIN KACK 291130Z 09003KT 10SM FEW015 OVC070 06/04 A2944 490 86 -400 110/03 RMK AO2 T00610039
14756KACK ACK20160129063511301/29/16 06:35:31  5-MIN KACK 291135Z 00000KT 10SM FEW015 OVC070 06/04 A2945 490 86 -400 000/00 RMK AO2 T00610039
14756KACK ACK20160129064011301/29/16 06:40:31  5-MIN KACK 291140Z 00000KT 10SM FEW015 OVC070 06/04 A2945 480 86 -400 000/00 RMK AO2 T00610039
14756KACK ACK20160129064511301/29/16 06:45:31  5-MIN KACK 291145Z 03003KT 10SM FEW015 OVC070 06/04 A2946 480 86 -400 050/03 RMK AO2 T00610039
14756KACK ACK20160129065013801/29/16 06:50:31  5-MIN KACK 291150Z 36004KT 10SM FEW070 OVC085 06/03 A2946 480 85 -500 010/04 RMK AO2 SLP977 T00560033 10067 20039 56038
14756KACK ACK20160129065510601/29/16 06:55:31  5-MIN KACK 291155Z 33005KT 10SM OVC085 06/03 A2945 490 85 -400 350/05 RMK AO2 T00560033
14756KACK ACK20160129070010601/29/16 07:00:31  5-MIN KACK 291200Z 35004KT 10SM OVC080 06/03 A2945 490 85 -400 010/04 RMK AO2 T00560033
14756KACK ACK20160129070511301/29/16 07:05:31  5-MIN KACK 291205Z 01004KT 10SM OVC080 05/03 A2944 500 89 -500 020/04 RMK AO2 PRESFR T00500033
14756KACK ACK20160129071010601/29/16 07:10:31  5-MIN KACK 291210Z 01005KT 10SM OVC080 05/03 A2943 500 89 -500 030/05 RMK AO2 T00500033
14756KACK ACK20160129071510601/29/16 07:15:31  5-MIN KACK 291215Z 01003KT 10SM OVC080 06/03 A2944 500 85 -400 020/03 RMK AO2 T00560033
14756KACK ACK20160129072011301/29/16 07:20:31  5-MIN KACK 291220Z 31003KT 10SM FEW043 OVC080 06/03 A2944 500 85 -400 330/03 RMK AO2 T00560033
14756KACK ACK20160129072511301/29/16 07:25:31  5-MIN KACK 291225Z 32004KT 10SM SCT043 OVC080 06/03 A2943 500 85 -400 340/04 RMK AO2 T00560033
14756KACK ACK20160129073011301/29/16 07:30:31  5-MIN KACK 291230Z 34004KT 10SM BKN043 OVC085 06/03 A2943 500 85 -400 360/04 RMK AO2 T00560033
14756KACK ACK20160129073511301/29/16 07:35:31  5-MIN KACK 291235Z 34004KT 10SM BKN043 OVC085 06/03 A2943 510 85 -400 350/04 RMK AO2 T00560033
14756KACK ACK20160129074011301/29/16 07:40:31  5-MIN KACK 291240Z 00000KT 10SM BKN044 OVC090 06/04 A2942 510 89 -400 000/00 RMK AO2 T00560039
14756KACK ACK20160129074511301/29/16 07:45:31  5-MIN KACK 291245Z 31003KT 10SM BKN044 OVC100 06/03 A2942 510 85 -400 320/03 RMK AO2 T00560033
14756KACK ACK20160129075012001/29/16 07:50:31  5-MIN KACK 291250Z 00000KT 10SM BKN044 OVC100 06/03 A2942 520 85 -400 000/00 RMK AO2 SLP961 T00560033
14756KACK ACK20160129075511301/29/16 07:55:31  5-MIN KACK 291255Z 00000KT 10SM SCT044 OVC100 06/03 A2941 520 85 -400 000/00 RMK AO2 T00560033
14756KACK ACK20160129080011301/29/16 08:00:31  5-MIN KACK 291300Z 00000KT 10SM FEW044 OVC100 06/03 A2941 520 85 -400 000/00 RMK AO2 T00560033
14756KACK ACK20160129080511301/29/16 08:05:31  5-MIN KACK 291305Z 00000KT 10SM FEW044 OVC100 06/04 A2941 520 89 -400 000/00 RMK AO2 T00560039
14756KACK ACK20160129081011301/29/16 08:10:31  5-MIN KACK 291310Z 00000KT 10SM FEW040 OVC100 06/04 A2941 520 86 -300 000/00 RMK AO2 T00610039
14756KACK ACK20160129081512001/29/16 08:15:31  5-MIN KACK 291315Z 11003KT 10SM FEW040 SCT050 OVC100 06/04 A2942 520 86 -300 130/03 RMK AO2 T00610039
14756KACK ACK20160129082012001/29/16 08:20:31  5-MIN KACK 291320Z 00000KT 10SM FEW030 SCT048 OVC100 06/04 A2942 520 86 -300 000/00 RMK AO2 T00610039
14756KACK ACK20160129082512001/29/16 08:25:31  5-MIN KACK 291325Z 11003KT 10SM FEW030 BKN048 OVC100 06/04 A2941 520 86 -300 120/03 RMK AO2 T00610039
14756KACK ACK20160129083012001/29/16 08:30:31  5-MIN KACK 291330Z 00000KT 10SM FEW030 BKN048 OVC095 06/04 A2942 520 86 -300 000/00 RMK AO2 T00610039
14756KACK ACK20160129083512001/29/16 08:35:31  5-MIN KACK 291335Z 00000KT 10SM FEW035 BKN048 OVC090 06/04 A2941 520 86 -300 000/00 RMK AO2 T00610039
14756KACK ACK20160129084012001/29/16 08:40:31  5-MIN KACK 291340Z 00000KT 10SM FEW030 SCT048 OVC090 06/04 A2941 530 86 -300 000/00 RMK AO2 T00610039
14756KACK ACK20160129084512001/29/16 08:45:31  5-MIN KACK 291345Z 00000KT 10SM FEW030 SCT048 OVC085 06/04 A2940 530 86 -300 000/00 RMK AO2 T00610039
14756KACK ACK20160129085012701/29/16 08:50:31  5-MIN KACK 291350Z 08003KT 10SM FEW048 OVC085 06/04 A2939 540 86 -300 090/03 RMK AO2 PRESFR SLP953 T00610039
14756KACK ACK20160129085512001/29/16 08:55:31  5-MIN KACK 291355Z 00000KT 10SM FEW050 FEW070 OVC085 06/04 A2940 540 86 -300 000/00 RMK AO2 T00610039
14756KACK ACK20160129090012001/29/16 09:00:31  5-MIN KACK 291400Z 00000KT 10SM FEW050 SCT070 OVC085 06/04 A2939 540 86 -300 000/00 RMK AO2 T00610039
14756KACK ACK20160129090512001/29/16 09:05:31  5-MIN KACK 291405Z 09005KT 10SM FEW041 SCT049 OVC085 06/03 A2939 550 82 -300 100/05 RMK AO2 T00610033
14756KACK ACK20160129091012001/29/16 09:10:31  5-MIN KACK 291410Z 10005KT 10SM SCT045 SCT070 OVC085 06/03 A2939 540 82 -300 110/05 RMK AO2 T00610033
14756KACK ACK20160129091512001/29/16 09:15:31  5-MIN KACK 291415Z 10005KT 10SM FEW046 SCT070 OVC085 06/03 A2939 550 82 -300 120/05 RMK AO2 T00610033
14756KACK ACK20160129092012001/29/16 09:20:31  5-MIN KACK 291420Z 10004KT 10SM FEW046 SCT075 OVC090 06/03 A2939 540 85 -400 120/04 RMK AO2 T00560033
14756KACK ACK20160129092512001/29/16 09:25:31  5-MIN KACK 291425Z 10006KT 10SM FEW041 FEW049 OVC085 06/03 A2939 550 82 -300 110/06 RMK AO2 T00610033
14756KACK ACK20160129093011301/29/16 09:30:31  5-MIN KACK 291430Z 10007KT 10SM FEW043 OVC090 06/03 A2939 550 85 -400 120/07 RMK AO2 T00560033
14756KACK ACK20160129093510601/29/16 09:35:31  5-MIN KACK 291435Z 10006KT 10SM OVC090 06/03 A2939 540 82 -300 120/06 RMK AO2 T00610033
14756KACK ACK20160129094010601/29/16 09:40:31  5-MIN KACK 291440Z 10004KT 10SM OVC090 06/03 A2939 540 82 -300 120/04 RMK AO2 T00610033
14756KACK ACK20160129094510601/29/16 09:45:31  5-MIN KACK 291445Z 11004KT 10SM OVC090 06/03 A2939 540 82 -300 130/04 RMK AO2 T00610033
14756KACK ACK20160129095012601/29/16 09:50:31  5-MIN KACK 291450Z 00000KT 10SM SCT044 OVC090 06/03 A2940 540 82 -300 000/00 RMK AO2 SLP954 T00610033 55033
14756KACK ACK20160129095512001/29/16 09:55:31  5-MIN KACK 291455Z 25004KT 10SM FEW031 BKN044 OVC090 06/04 A2940 540 86 -300 260/04 RMK AO2 T00610039
14756KACK ACK20160129100012001/29/16 10:00:31  5-MIN KACK 291500Z 26003KT 10SM SCT031 BKN044 OVC085 06/03 A2940 530 85 -400 270/03 RMK AO2 T00560033
14756KACK ACK20160129100512001/29/16 10:05:31  5-MIN KACK 291505Z 22004KT 10SM SCT031 BKN044 OVC090 06/04 A2941 530 89 -400 240/04 RMK AO2 T00560039
14756KACK ACK20160129101011301/29/16 10:10:31  5-MIN KACK 291510Z 25004KT 10SM BKN031 OVC043 06/03 A2941 530 85 -400 260/04 RMK AO2 T00560033
14756KACK ACK20160129101511301/29/16 10:15:31  5-MIN KACK 291515Z 25003KT 10SM BKN031 OVC043 06/03 A2940 530 85 -400 260/03 RMK AO2 T00560033
14756KACK ACK20160129102011301/29/16 10:20:31  5-MIN KACK 291520Z 00000KT 10SM BKN031 OVC044 06/04 A2939 540 89 -400 000/00 RMK AO2 T00560039
14756KACK ACK20160129102512001/29/16 10:25:31  5-MIN KACK 291525Z 00000KT 10SM FEW029 BKN034 OVC046 06/04 A2939 540 89 -400 000/00 RMK AO2 T00560039
14756KACK ACK20160129103012001/29/16 10:30:31  5-MIN KACK 291530Z 00000KT 10SM FEW029 BKN036 OVC046 06/04 A2939 540 89 -400 000/00 RMK AO2 T00560039
14756KACK ACK20160129103512001/29/16 10:35:31  5-MIN KACK 291535Z 27003KT 10SM FEW024 BKN036 OVC046 06/04 A2939 540 89 -400 290/03 RMK AO2 T00560039
14756KACK ACK20160129104012001/29/16 10:40:31  5-MIN KACK 291540Z 26003KT 10SM SCT024 BKN035 OVC044 06/04 A2939 550 89 -400 270/03 RMK AO2 T00560039
14756KACK ACK20160129104512001/29/16 10:45:31  5-MIN KACK 291545Z 26003KT 10SM FEW033 SCT044 OVC046 06/04 A2939 540 89 -400 270/03 RMK AO2 T00560039
14756KACK ACK20160129105012701/29/16 10:50:31  5-MIN KACK 291550Z 25004KT 10SM FEW033 SCT044 OVC046 06/04 A2939 540 86 -300 260/04 RMK AO2 SLP952 T00610039
14756KACK ACK20160129105511301/29/16 10:55:31  5-MIN KACK 291555Z 24003KT 10SM BKN023 OVC044 06/04 A2939 550 86 -300 250/03 RMK AO2 T00610039
14756KACK ACK20160129110010601/29/16 11:00:31  5-MIN KACK 291600Z 23004KT 10SM OVC023 06/04 A2938 550 86 -300 250/04 RMK AO2 T00610039
14756KACK ACK20160129110512901/29/16 11:05:31  5-MIN KACK 291605Z 22004KT 10SM -RA BKN023 OVC044 06/04 A2938 550 86 -300 240/04 RMK AO2 RAB01 P0000 T00610039
14756KACK ACK20160129111012901/29/16 11:10:31  5-MIN KACK 291610Z 23004KT 10SM -RA BKN023 OVC044 06/04 A2937 560 86 -300 250/04 RMK AO2 RAB01 P0000 T00610039
14756KACK ACK20160129111512801/29/16 11:15:31  5-MIN KACK 291615Z 22005KT 10SM BKN023 OVC044 07/04 A2937 560 82 -200 240/05 RMK AO2 RAB01E12 P0000 T00670039
14756KACK ACK20160129112012801/29/16 11:20:31  5-MIN KACK 291620Z 21004KT 10SM BKN023 OVC044 07/03 A2937 560 79 -200 230/04 RMK AO2 RAB01E12 P0000 T00670033
14756KACK ACK20160129112512801/29/16 11:25:31  5-MIN KACK 291625Z 24006KT 10SM BKN023 OVC044 07/04 A2937 570 82 -200 250/06 RMK AO2 RAB01E12 P0000 T00670039
14756KACK ACK20160129113012801/29/16 11:30:31  5-MIN KACK 291630Z 23005KT 10SM BKN023 OVC044 06/04 A2936 570 86 -300 250/05 RMK AO2 RAB01E12 P0000 T00610039
14756KACK ACK20160129113512801/29/16 11:35:31  5-MIN KACK 291635Z 23004KT 10SM BKN023 OVC044 07/04 A2936 570 82 -200 250/04 RMK AO2 RAB01E12 P0000 T00670039
14756KACK ACK20160129114012801/29/16 11:40:31  5-MIN KACK 291640Z VRB03KT 10SM BKN023 OVC044 07/04 A2935 580 82 -200 VRB/03 RMK AO2 RAB01E12 P0000 T00670039
14756KACK ACK20160129114512801/29/16 11:45:31  5-MIN KACK 291645Z 22006KT 10SM BKN023 OVC044 07/04 A2935 580 82 -200 230/06 RMK AO2 RAB01E12 P0000 T00670039
14756KACK ACK20160129115013501/29/16 11:50:31  5-MIN KACK 291650Z 23006KT 10SM BKN023 OVC044 06/04 A2935 580 86 -300 250/06 RMK AO2 RAB01E12 SLP939 P0000 T00610039
14756KACK ACK20160129115511301/29/16 11:55:31  5-MIN KACK 291655Z 24006KT 10SM SCT008 OVC020 06/04 A2935 580 86 -300 250/06 RMK AO2 T00610039
14756KACK ACK20160129120011301/29/16 12:00:31  5-MIN KACK 291700Z 23006KT 10SM SCT008 OVC020 07/04 A2935 580 82 -200 250/06 RMK AO2 T00670039
14756KACK ACK20160129120511301/29/16 12:05:31  5-MIN KACK 291705Z 24007KT 10SM SCT008 OVC020 07/04 A2935 580 82 -200 250/07 RMK AO2 T00670039
14756KACK ACK20160129121011301/29/16 12:10:31  5-MIN KACK 291710Z 23007KT 10SM SCT008 OVC020 07/04 A2935 580 82 -200 250/07 RMK AO2 T00670039
14756KACK ACK20160129121511301/29/16 12:15:31  5-MIN KACK 291715Z 23007KT 10SM SCT008 OVC020 07/04 A2934 590 82 -200 250/07 RMK AO2 T00670039
14756KACK ACK20160129122011301/29/16 12:20:31  5-MIN KACK 291720Z 23007KT 10SM SCT008 OVC020 07/03 A2934 590 79 -200 250/07 RMK AO2 T00670033
14756KACK ACK20160129122511301/29/16 12:25:31  5-MIN KACK 291725Z 23007KT 10SM SCT008 OVC020 07/03 A2934 590 79 -200 250/07 RMK AO2 T00670033
14756KACK ACK20160129123011301/29/16 12:30:31  5-MIN KACK 291730Z 22007KT 10SM SCT008 OVC020 07/03 A2934 590 79 -200 240/07 RMK AO2 T00670033
14756KACK ACK20160129123511301/29/16 12:35:31  5-MIN KACK 291735Z 21006KT 10SM SCT008 OVC020 07/03 A2934 590 76 -100 230/06 RMK AO2 T00720033
14756KACK ACK20160129124011301/29/16 12:40:31  5-MIN KACK 291740Z 22006KT 10SM SCT008 OVC020 07/03 A2934 590 76 -100 230/06 RMK AO2 T00720033
14756KACK ACK20160129124511301/29/16 12:45:31  5-MIN KACK 291745Z 23008KT 10SM SCT008 OVC020 07/03 A2934 590 76 -100 240/08 RMK AO2 T00720033
14756KACK ACK20160129125014401/29/16 12:50:31  5-MIN KACK 291750Z 22007KT 10SM SCT008 OVC020 07/03 A2934 590 76 -100 230/07 RMK AO2 SLP935 60000 T00720033 10072 20050 55020
14756KACK ACK20160129125511301/29/16 12:55:31  5-MIN KACK 291755Z 23008KT 10SM BKN029 OVC085 07/03 A2934 590 76 -100 250/08 RMK AO2 T00720033
14756KACK ACK20160129130011301/29/16 13:00:31  5-MIN KACK 291800Z 23008KT 10SM BKN029 OVC085 07/03 A2934 590 76 -100 250/08 RMK AO2 T00720033
14756KACK ACK20160129130512001/29/16 13:05:31  5-MIN KACK 291805Z 23009KT 10SM FEW019 BKN027 OVC085 07/03 A2934 590 76 -200 250/09 RMK AO2 T00670028
14756KACK ACK20160129131012001/29/16 13:10:31  5-MIN KACK 291810Z 24010KT 10SM SCT021 BKN029 OVC085 07/03 A2935 580 76 -200 250/10 RMK AO2 T00670028
14756KACK ACK20160129131511301/29/16 13:15:31  5-MIN KACK 291815Z 24009KT 10SM BKN021 OVC029 07/03 A2935 580 76 -200 250/09 RMK AO2 T00670028
14756KACK ACK20160129132011301/29/16 13:20:31  5-MIN KACK 291820Z 24010KT 10SM BKN023 OVC029 07/03 A2935 580 76 -200 250/10 RMK AO2 T00670028
14756KACK ACK20160129132510601/29/16 13:25:31  5-MIN KACK 291825Z 24010KT 10SM OVC023 07/03 A2935 580 79 -200 250/10 RMK AO2 T00670033
14756KACK ACK20160129133011301/29/16 13:30:31  5-MIN KACK 291830Z 25013KT 10SM FEW008 OVC021 07/03 A2935 580 79 -200 270/13 RMK AO2 T00670033
14756KACK ACK20160129133512001/29/16 13:35:31  5-MIN KACK 291835Z 26012KT 10SM FEW008 BKN019 OVC024 06/03 A2935 580 82 -300 280/12 RMK AO2 T00610033
14756KACK ACK20160129134012001/29/16 13:40:31  5-MIN KACK 291840Z 26011KT 10SM SCT008 BKN019 OVC024 06/03 A2935 580 82 -300 280/11 RMK AO2 T00610033
14756KACK ACK20160129134512001/29/16 13:45:31  5-MIN KACK 291845Z 27009KT 10SM SCT008 BKN019 OVC024 06/03 A2935 580 79 -300 290/09 RMK AO2 T00610028
14756KACK ACK20160129135012701/29/16 13:50:31  5-MIN KACK 291850Z 28010KT 10SM SCT009 BKN019 OVC025 06/03 A2935 580 79 -300 290/10 RMK AO2 SLP940 T00610028
14756KACK ACK20160129135512001/29/16 13:55:31  5-MIN KACK 291855Z 27009KT 10SM SCT009 BKN018 OVC100 06/03 A2935 580 79 -300 280/09 RMK AO2 T00610028
14756KACK ACK20160129140012001/29/16 14:00:31  5-MIN KACK 291900Z 27009KT 10SM SCT009 BKN027 OVC100 06/03 A2935 580 79 -300 280/09 RMK AO2 T00610028
14756KACK ACK20160129140512001/29/16 14:05:31  5-MIN KACK 291905Z 27008KT 10SM BKN009 BKN027 OVC100 07/03 A2935 580 79 -200 290/08 RMK AO2 T00670033
14756KACK ACK20160129141012001/29/16 14:10:31  5-MIN KACK 291910Z 27011KT 10SM SCT008 BKN019 OVC027 07/03 A2935 580 79 -200 290/11 RMK AO2 T00670033
14756KACK ACK20160129141512001/29/16 14:15:31  5-MIN KACK 291915Z 27010KT 10SM SCT008 BKN019 OVC027 06/03 A2935 580 79 -300 290/10 RMK AO2 T00610028
14756KACK ACK20160129142012001/29/16 14:20:31  5-MIN KACK 291920Z 28007KT 10SM SCT008 BKN019 OVC027 07/03 A2935 580 79 -200 290/07 RMK AO2 T00670033
14756KACK ACK20160129142512001/29/16 14:25:31  5-MIN KACK 291925Z 28009KT 10SM SCT008 BKN019 OVC027 07/03 A2935 580 76 -200 290/09 RMK AO2 T00670028
14756KACK ACK20160129143012001/29/16 14:30:31  5-MIN KACK 291930Z 29011KT 10SM SCT008 BKN019 OVC027 07/03 A2935 580 76 -200 310/11 RMK AO2 T00670028
14756KACK ACK20160129143512001/29/16 14:35:31  5-MIN KACK 291935Z 28011KT 10SM SCT008 BKN019 OVC027 06/03 A2936 570 79 -300 300/11 RMK AO2 T00610028
14756KACK ACK20160129144012001/29/16 14:40:31  5-MIN KACK 291940Z 27008KT 10SM SCT008 BKN019 OVC027 06/03 A2936 570 79 -300 290/08 RMK AO2 T00610028
14756KACK ACK20160129144512001/29/16 14:45:31  5-MIN KACK 291945Z 27008KT 10SM SCT008 BKN019 OVC027 06/03 A2936 570 79 -300 290/08 RMK AO2 T00610028
14756KACK ACK20160129145010801/29/16 14:50:31  5-MIN KACK 291950Z AUTO 28006KT 10SM SCT010 OVC100 06/03 A2936 570 79 -300 290/06 RMK AO2
14756KACK ACK20160129145512301/29/16 14:55:31  5-MIN KACK 291955Z AUTO 26007KT 10SM FEW010 OVC100 06/03 A2936 570 82 -300 280/07 RMK AO2 T00560028 TSNO
14756KACK ACK20160129150012301/29/16 15:00:31  5-MIN KACK 292000Z AUTO 27007KT 10SM FEW010 OVC100 06/03 A2937 560 82 -400 290/07 RMK AO2 T00560028 TSNO
14756KACK ACK20160129150512301/29/16 15:05:31  5-MIN KACK 292005Z AUTO 27008KT 10SM FEW010 OVC100 06/03 A2937 560 82 -400 290/08 RMK AO2 T00560028 TSNO
14756KACK ACK20160129151012301/29/16 15:10:31  5-MIN KACK 292010Z AUTO 27010KT 10SM FEW010 OVC100 06/02 A2937 560 79 -400 290/10 RMK AO2 T00560022 TSNO
14756KACK ACK20160129151511601/29/16 15:15:31  5-MIN KACK 292015Z AUTO 27010KT 10SM OVC100 06/02 A2937 560 79 -400 290/10 RMK AO2 T00560022 TSNO
14756KACK ACK20160129152011601/29/16 15:20:31  5-MIN KACK 292020Z AUTO 28011KT 10SM OVC100 06/02 A2937 560 76 -400 290/11 RMK AO2 T00560017 TSNO
14756KACK ACK20160129152511601/29/16 15:25:31  5-MIN KACK 292025Z AUTO 28009KT 10SM OVC110 05/02 A2937 560 79 -400 290/09 RMK AO2 T00500017 TSNO
14756KACK ACK20160129153011601/29/16 15:30:31  5-MIN KACK 292030Z AUTO 28008KT 10SM OVC110 05/01 A2938 560 76 -400 290/08 RMK AO2 T00500011 TSNO
14756KACK ACK20160129153511601/29/16 15:35:31  5-MIN KACK 292035Z AUTO 27008KT 10SM OVC110 05/01 A2938 550 76 -400 290/08 RMK AO2 T00500011 TSNO
14756KACK ACK20160129154011601/29/16 15:40:31  5-MIN KACK 292040Z AUTO 27011KT 10SM OVC110 05/01 A2938 550 73 -400 280/11 RMK AO2 T00500006 TSNO
14756KACK ACK20160129154511601/29/16 15:45:31  5-MIN KACK 292045Z AUTO 27010KT 10SM OVC110 05/00 A2938 550 70 -400 290/10 RMK AO2 T00500000 TSNO
14756KACK ACK20160129155012901/29/16 15:50:31  5-MIN KACK 292050Z AUTO 28010KT 10SM OVC110 05/00 A2938 550 70 -400 300/10 RMK AO2 SLP950 T00500000 57020 TSNO
14756KACK ACK20160129155510601/29/16 15:55:31  5-MIN KACK 292055Z 27009KT 10SM OVC110 05/00 A2939 550 70 -400 290/09 RMK AO2 T00500000
14756KACK ACK20160129160010601/29/16 16:00:31  5-MIN KACK 292100Z 27008KT 10SM OVC110 05/00 A2939 540 70 -400 290/08 RMK AO2 T00500000
14756KACK ACK20160129160510601/29/16 16:05:31  5-MIN KACK 292105Z 28009KT 10SM OVC110 05/00 A2939 540 70 -400 290/09 RMK AO2 T00500000
14756KACK ACK20160129161010701/29/16 16:10:31  5-MIN KACK 292110Z 28010KT 10SM OVC100 05/M01 A2939 540 67 -400 300/10 RMK AO2 T00501006
14756KACK ACK20160129161510701/29/16 16:15:31  5-MIN KACK 292115Z 29009KT 10SM OVC100 05/M01 A2939 540 67 -400 300/09 RMK AO2 T00501006
14756KACK ACK20160129162010701/29/16 16:20:31  5-MIN KACK 292120Z 29009KT 10SM OVC100 05/M01 A2939 540 64 -400 310/09 RMK AO2 T00501011
14756KACK ACK20160129162510701/29/16 16:25:31  5-MIN KACK 292125Z 28009KT 10SM OVC100 05/M01 A2939 540 64 -400 290/09 RMK AO2 T00501011
14756KACK ACK20160129163010701/29/16 16:30:31  5-MIN KACK 292130Z 27009KT 10SM OVC100 05/M01 A2939 540 64 -400 290/09 RMK AO2 T00501011
14756KACK ACK20160129163510701/29/16 16:35:31  5-MIN KACK 292135Z 26008KT 10SM OVC100 05/M01 A2939 540 64 -500 280/08 RMK AO2 T00501011
14756KACK ACK20160129164010701/29/16 16:40:31  5-MIN KACK 292140Z 28010KT 10SM OVC100 05/M01 A2939 540 67 -500 300/10 RMK AO2 T00501006
14756KACK ACK20160129164510701/29/16 16:45:31  5-MIN KACK 292145Z 28010KT 10SM OVC100 05/M01 A2940 540 67 -500 290/10 RMK AO2 T00501006
14756KACK ACK20160129165011401/29/16 16:50:31  5-MIN KACK 292150Z 27009KT 10SM OVC100 04/M01 A2940 540 70 -500 290/09 RMK AO2 SLP955 T00441006
14756KACK ACK20160129165510601/29/16 16:55:31  5-MIN KACK 292155Z 27009KT 10SM OVC100 04/00 A2940 530 73 -500 290/09 RMK AO2 T00440000
14756KACK ACK20160129170010601/29/16 17:00:31  5-MIN KACK 292200Z 27009KT 10SM OVC100 04/00 A2940 530 73 -500 280/09 RMK AO2 T00440000
14756KACK ACK20160129170510601/29/16 17:05:31  5-MIN KACK 292205Z 26009KT 10SM OVC095 04/00 A2941 530 73 -500 280/09 RMK AO2 T00440000
14756KACK ACK20160129171010601/29/16 17:10:31  5-MIN KACK 292210Z 26009KT 10SM OVC090 04/00 A2941 530 73 -500 280/09 RMK AO2 T00440000
14756KACK ACK20160129171510601/29/16 17:15:31  5-MIN KACK 292215Z 27009KT 10SM OVC090 04/00 A2941 520 73 -500 290/09 RMK AO2 T00440000
14756KACK ACK20160129172010601/29/16 17:20:31  5-MIN KACK 292220Z 28008KT 10SM OVC090 04/00 A2941 520 73 -500 290/08 RMK AO2 T00440000
14756KACK ACK20160129172510601/29/16 17:25:31  5-MIN KACK 292225Z 28008KT 10SM OVC090 04/00 A2942 520 73 -500 290/08 RMK AO2 T00440000
14756KACK ACK20160129173011301/29/16 17:30:31  5-MIN KACK 292230Z 28008KT 10SM BKN090 OVC120 04/00 A2942 520 73 -500 300/08 RMK AO2 T00440000
14756KACK ACK20160129173511301/29/16 17:35:31  5-MIN KACK 292235Z 28008KT 10SM BKN095 BKN120 04/00 A2942 510 73 -500 300/08 RMK AO2 T00440000
14756KACK ACK20160129174011301/29/16 17:40:31  5-MIN KACK 292240Z 28009KT 10SM SCT095 BKN120 04/00 A2942 510 73 -600 300/09 RMK AO2 T00440000
14756KACK ACK20160129174511401/29/16 17:45:31  5-MIN KACK 292245Z 28009KT 10SM SCT100 SCT120 04/M01 A2942 510 70 -600 290/09 RMK AO2 T00441006
14756KACK ACK20160129175012101/29/16 17:50:31  5-MIN KACK 292250Z 28008KT 10SM FEW095 SCT120 04/M01 A2943 510 70 -600 300/08 RMK AO2 SLP965 T00441006
14756KACK ACK20160129175510701/29/16 17:55:31  5-MIN KACK 292255Z 29008KT 10SM FEW110 04/M01 A2943 510 70 -600 300/08 RMK AO2 T00441006
14756KACK ACK20160129180010701/29/16 18:00:31  5-MIN KACK 292300Z 29008KT 10SM FEW110 04/M01 A2943 500 70 -600 300/08 RMK AO2 T00441006
14756KACK ACK20160129180510601/29/16 18:05:31  5-MIN KACK 292305Z 29008KT 10SM FEW110 04/00 A2944 500 73 -600 310/08 RMK AO2 T00440000
14756KACK ACK20160129181010701/29/16 18:10:31  5-MIN KACK 292310Z 29007KT 10SM FEW120 04/M01 A2944 500 70 -600 310/07 RMK AO2 T00441006
14756KACK ACK20160129181510701/29/16 18:15:31  5-MIN KACK 292315Z 31006KT 10SM FEW120 04/M01 A2944 500 70 -600 320/06 RMK AO2 T00441006
14756KACK ACK20160129182010701/29/16 18:20:31  5-MIN KACK 292320Z 33005KT 10SM FEW110 04/M01 A2944 490 70 -600 340/05 RMK AO2 T00441006
14756KACK ACK20160129182510701/29/16 18:25:31  5-MIN KACK 292325Z 35005KT 10SM FEW110 04/M01 A2945 490 70 -600 360/05 RMK AO2 T00441006
14756KACK ACK20160129183010601/29/16 18:30:31  5-MIN KACK 292330Z 33009KT 10SM FEW120 04/00 A2945 490 73 -600 340/09 RMK AO2 T00440000
14756KACK ACK20160129183510601/29/16 18:35:31  5-MIN KACK 292335Z 32007KT 10SM FEW110 04/00 A2945 490 73 -600 330/07 RMK AO2 T00440000
14756KACK ACK20160129184011301/29/16 18:40:31  5-MIN KACK 292340Z 33006KT 10SM FEW090 SCT110 04/00 A2945 480 73 -600 350/06 RMK AO2 T00440000
14756KACK ACK20160129184511301/29/16 18:45:31  5-MIN KACK 292345Z 32007KT 10SM FEW090 SCT110 04/00 A2946 480 73 -600 340/07 RMK AO2 T00440000
14756KACK ACK20160129185013801/29/16 18:50:31  5-MIN KACK 292350Z 32006KT 10SM FEW090 SCT110 04/00 A2946 480 76 -700 340/06 RMK AO2 SLP976 T00390000 10072 20039 53015
14756KACK ACK20160129185511301/29/16 18:55:31  5-MIN KACK 292355Z 32005KT 10SM SCT100 SCT120 04/00 A2946 470 76 -700 330/05 RMK AO2 T00390000
14756KACK ACK20160129190012001/29/16 19:00:31  5-MIN KACK 300000Z 33005KT 10SM FEW060 SCT100 BKN120 04/00 A2947 470 76 -700 340/05 RMK AO2 T00390000
14756KACK ACK20160129190512001/29/16 19:05:31  5-MIN KACK 300005Z 34006KT 10SM SCT060 BKN100 BKN120 04/00 A2947 470 76 -700 360/06 RMK AO2 T00390000
14756KACK ACK20160129191011301/29/16 19:10:31  5-MIN KACK 300010Z 34006KT 10SM SCT060 BKN100 03/00 A2947 470 79 -700 350/06 RMK AO2 T00330000
14756KACK ACK20160129191511301/29/16 19:15:31  5-MIN KACK 300015Z 33005KT 10SM SCT060 BKN100 04/00 A2948 460 76 -700 350/05 RMK AO2 T00390000
14756KACK ACK20160129192011301/29/16 19:20:31  5-MIN KACK 300020Z 32005KT 10SM SCT060 SCT100 03/00 A2948 460 79 -800 340/05 RMK AO2 T00330000
14756KACK ACK20160129192510601/29/16 19:25:31  5-MIN KACK 300025Z 31006KT 10SM SCT060 03/00 A2948 460 79 -800 330/06 RMK AO2 T00330000
14756KACK ACK20160129193010601/29/16 19:30:31  5-MIN KACK 300030Z 32006KT 10SM FEW060 04/00 A2948 460 76 -700 330/06 RMK AO2 T00390000
14756KACK ACK20160129193510601/29/16 19:35:31  5-MIN KACK 300035Z 33007KT 10SM FEW060 04/00 A2949 450 76 -700 340/07 RMK AO2 T00390000
14756KACK ACK20160129194010401/29/16 19:40:31  5-MIN KACK 300040Z 32008KT 10SM CLR 03/M01 A2949 450 76 -800 340/08 RMK AO2 T00331006
14756KACK ACK20160129194510701/29/16 19:45:31  5-MIN KACK 300045Z 32008KT 10SM FEW050 04/M01 A2949 450 73 -700 340/08 RMK AO2 T00391006
14756KACK ACK20160129195011401/29/16 19:50:31  5-MIN KACK 300050Z 33011KT 10SM SCT055 04/M01 A2950 440 70 -700 340/11 RMK AO2 SLP988 T00391011
14756KACK ACK20160129195511301/29/16 19:55:31  5-MIN KACK 300055Z 33014G19KT 10SM BKN055 04/M02 A2950 440 67 -700 350/14G19 RMK AO2 T00391017
14756KACK ACK20160129200010701/29/16 20:00:31  5-MIN KACK 300100Z 32013KT 10SM BKN050 04/M02 A2950 440 64 -600 340/13 RMK AO2 T00441017
14756KACK ACK20160129200511301/29/16 20:05:31  5-MIN KACK 300105Z 32011G19KT 10SM BKN050 04/M02 A2951 440 67 -700 340/11G19 RMK AO2 T00391017
14756KACK ACK20160129201010701/29/16 20:10:31  5-MIN KACK 300110Z 32011KT 10SM OVC050 04/M02 A2951 430 67 -700 330/11 RMK AO2 T00391017
14756KACK ACK20160129201510701/29/16 20:15:31  5-MIN KACK 300115Z 32010KT 10SM BKN050 04/M02 A2951 430 67 -700 330/10 RMK AO2 T00391017
14756KACK ACK20160129202010701/29/16 20:20:31  5-MIN KACK 300120Z 31010KT 10SM BKN050 04/M02 A2952 430 67 -700 330/10 RMK AO2 T00391017
14756KACK ACK20160129202511301/29/16 20:25:31  5-MIN KACK 300125Z 31015G21KT 10SM SCT050 04/M02 A2952 420 67 -700 330/15G21 RMK AO2 T00391017
14756KACK ACK20160129203011301/29/16 20:30:31  5-MIN KACK 300130Z 32015G21KT 10SM FEW050 04/M02 A2952 420 64 -700 330/15G21 RMK AO2 T00391022
14756KACK ACK20160129203510701/29/16 20:35:31  5-MIN KACK 300135Z 32013KT 10SM FEW050 04/M02 A2952 420 64 -700 330/13 RMK AO2 T00391022
14756KACK ACK20160129204010401/29/16 20:40:31  5-MIN KACK 300140Z 32013KT 10SM CLR 04/M02 A2953 420 67 -700 330/13 RMK AO2 T00391017
14756KACK ACK20160129204510401/29/16 20:45:31  5-MIN KACK 300145Z 31011KT 10SM CLR 04/M02 A2953 410 67 -700 330/11 RMK AO2 T00391017
14756KACK ACK20160129205011401/29/16 20:50:31  5-MIN KACK 300150Z 31014KT 10SM FEW047 03/M02 A2953 410 70 -800 320/14 RMK AO2 SLP000 T00331017
14756KACK ACK20160129205511701/29/16 20:55:31  5-MIN KACK 300155Z AUTO 31012KT 10SM FEW047 04/M02 A2953 410 67 -800 320/12 RMK AO2 T00391017 TSNO
14756KACK ACK20160129210012001/29/16 21:00:31  5-MIN KACK 300200Z AUTO 31012G20KT 10SM CLR 03/M02 A2953 410 70 -800 320/12G20 RMK AO2 T00331017 TSNO
14756KACK ACK20160129210511401/29/16 21:05:31  5-MIN KACK 300205Z AUTO 31011KT 10SM CLR 03/M02 A2954 410 70 -800 320/11 RMK AO2 T00331017 TSNO
14756KACK ACK20160129211011401/29/16 21:10:31  5-MIN KACK 300210Z AUTO 31011KT 10SM CLR 03/M02 A2954 400 70 -800 320/11 RMK AO2 T00331017 TSNO
14756KACK ACK20160129211511401/29/16 21:15:31  5-MIN KACK 300215Z AUTO 31012KT 10SM CLR 03/M02 A2954 400 70 -800 320/12 RMK AO2 T00331017 TSNO
14756KACK ACK20160129212011401/29/16 21:20:31  5-MIN KACK 300220Z AUTO 30012KT 10SM CLR 03/M02 A2954 400 70 -800 320/12 RMK AO2 T00331017 TSNO
14756KACK ACK20160129212511401/29/16 21:25:31  5-MIN KACK 300225Z AUTO 30012KT 10SM CLR 03/M02 A2955 400 70 -800 320/12 RMK AO2 T00331017 TSNO
14756KACK ACK20160129213011701/29/16 21:30:31  5-MIN KACK 300230Z AUTO 31012KT 10SM FEW055 03/M02 A2955 400 70 -800 320/12 RMK AO2 T00331017 TSNO
14756KACK ACK20160129213511701/29/16 21:35:31  5-MIN KACK 300235Z AUTO 31013KT 10SM SCT055 03/M02 A2955 390 70 -800 320/13 RMK AO2 T00331017 TSNO
14756KACK ACK20160129214011701/29/16 21:40:31  5-MIN KACK 300240Z AUTO 30013KT 10SM SCT055 03/M02 A2955 390 70 -800 320/13 RMK AO2 T00331017 TSNO
14756KACK ACK20160129214511701/29/16 21:45:31  5-MIN KACK 300245Z AUTO 31011KT 10SM BKN055 03/M02 A2955 390 70 -800 320/11 RMK AO2 T00331017 TSNO
14756KACK ACK20160129215013001/29/16 21:50:31  5-MIN KACK 300250Z AUTO 31012KT 10SM BKN055 03/M02 A2956 390 70 -800 320/12 RMK AO2 SLP008 T00331017 53026 TSNO
14756KACK ACK20160129215511701/29/16 21:55:31  5-MIN KACK 300255Z AUTO 30013KT 10SM BKN055 03/M02 A2956 390 70 -800 320/13 RMK AO2 T00331017 TSNO
14756KACK ACK20160129220011701/29/16 22:00:31  5-MIN KACK 300300Z AUTO 31013KT 10SM BKN055 03/M02 A2956 380 70 -800 330/13 RMK AO2 T00331017 TSNO
14756KACK ACK20160129220511701/29/16 22:05:31  5-MIN KACK 300305Z AUTO 31011KT 10SM BKN055 03/M02 A2956 380 70 -900 320/11 RMK AO2 T00331017 TSNO
14756KACK ACK20160129221011701/29/16 22:10:31  5-MIN KACK 300310Z AUTO 30011KT 10SM BKN055 03/M02 A2957 380 70 -900 320/11 RMK AO2 T00331017 TSNO
14756KACK ACK20160129221511701/29/16 22:15:31  5-MIN KACK 300315Z AUTO 30012KT 10SM BKN055 03/M02 A2957 380 70 -900 320/12 RMK AO2 T00331017 TSNO
14756KACK ACK20160129222011701/29/16 22:20:31  5-MIN KACK 300320Z AUTO 31011KT 10SM BKN055 03/M02 A2957 370 70 -900 320/11 RMK AO2 T00331017 TSNO
14756KACK ACK20160129222511701/29/16 22:25:31  5-MIN KACK 300325Z AUTO 31012KT 10SM BKN055 03/M02 A2958 370 70 -900 320/12 RMK AO2 T00331017 TSNO
14756KACK ACK20160129223012401/29/16 22:30:31  5-MIN KACK 300330Z AUTO 31012KT 10SM FEW031 BKN055 03/M02 A2958 370 70 -900 320/12 RMK AO2 T00331017 TSNO
14756KACK ACK20160129223512401/29/16 22:35:31  5-MIN KACK 300335Z AUTO 31014KT 10SM FEW031 OVC055 03/M02 A2958 360 70 -900 320/14 RMK AO2 T00331017 TSNO
14756KACK ACK20160129224012401/29/16 22:40:31  5-MIN KACK 300340Z AUTO 31012KT 10SM SCT031 OVC055 03/M02 A2959 360 70 -900 320/12 RMK AO2 T00331017 TSNO
14756KACK ACK20160129224512401/29/16 22:45:31  5-MIN KACK 300345Z AUTO 31011KT 10SM BKN031 OVC055 03/M02 A2959 360 70 -900 330/11 RMK AO2 T00331017 TSNO
14756KACK ACK20160129225013701/29/16 22:50:31  5-MIN KACK 300350Z AUTO 31016G20KT 10SM BKN030 OVC055 03/M02 A2959 360 70 -900 330/16G20 RMK AO2 SLP020 T00331017 TSNO
14756KACK ACK20160129225513001/29/16 22:55:31  5-MIN KACK 300355Z AUTO 32016G22KT 10SM BKN030 OVC055 03/M02 A2959 350 70 -900 340/16G22 RMK AO2 T00331017 TSNO
14756KACK ACK20160129230013001/29/16 23:00:31  5-MIN KACK 300400Z AUTO 31015G22KT 10SM BKN030 OVC060 03/M02 A2960 350 70 -900 330/15G22 RMK AO2 T00331017 TSNO
14756KACK ACK20160129230512301/29/16 23:05:31  5-MIN KACK 300405Z AUTO 32012G21KT 10SM OVC030 03/M02 A2960 350 70 -900 330/12G21 RMK AO2 T00331017 TSNO
14756KACK ACK20160129231012301/29/16 23:10:31  5-MIN KACK 300410Z AUTO 32013G21KT 10SM OVC030 03/M02 A2960 350 70 -900 330/13G21 RMK AO2 T00331017 TSNO
14756KACK ACK20160129231512301/29/16 23:15:31  5-MIN KACK 300415Z AUTO 32013G21KT 10SM BKN031 03/M02 A2960 350 70 -900 330/13G21 RMK AO2 T00331017 TSNO
14756KACK ACK20160129232012301/29/16 23:20:31  5-MIN KACK 300420Z AUTO 32016G21KT 10SM SCT031 03/M02 A2960 340 70 -900 330/16G21 RMK AO2 T00331017 TSNO
14756KACK ACK20160129232512301/29/16 23:25:31  5-MIN KACK 300425Z AUTO 32013G21KT 10SM SCT031 03/M02 A2961 340 70 -900 330/13G21 RMK AO2 T00331017 TSNO
14756KACK ACK20160129233012301/29/16 23:30:31  5-MIN KACK 300430Z AUTO 31014G21KT 10SM FEW031 03/M02 A2961 340 70 -900 330/14G21 RMK AO2 T00331017 TSNO
14756KACK ACK20160129233511701/29/16 23:35:31  5-MIN KACK 300435Z AUTO 31013KT 10SM FEW031 03/M02 A2961 330 70 -900 330/13 RMK AO2 T00331017 TSNO
14756KACK ACK20160129234011501/29/16 23:40:31  5-MIN KACK 300440Z AUTO 31013KT 10SM CLR 03/M02 A2962 330 72 -1000 320/13 RMK AO2 T00281017 TSNO
14756KACK ACK20160129234511501/29/16 23:45:31  5-MIN KACK 300445Z AUTO 31014KT 10SM CLR 03/M02 A2962 330 72 -1000 320/14 RMK AO2 T00281017 TSNO
14756KACK ACK20160129235013201/29/16 23:50:31  5-MIN KACK 300450Z AUTO 31012KT 10SM CLR 03/M02 A2962 330 72 -1000 320/12 RMK AO2 SLP030 T00281017 400720028 TSNO
14756KACK ACK20160129235512101/29/16 23:55:31  5-MIN KACK 300455Z AUTO 31013G19KT 10SM CLR 03/M02 A2962 330 72 -1000 320/13G19 RMK AO2 T00281017 TSNO
14756KACK ACK20160130000012101/30/16 00:00:31  5-MIN KACK 300500Z AUTO 30013G20KT 10SM CLR 03/M02 A2962 320 72 -1000 320/13G20 RMK AO2 T00281017 TSNO
14756KACK ACK20160130000512101/30/16 00:05:31  5-MIN KACK 300505Z AUTO 31013G20KT 10SM CLR 03/M02 A2963 320 72 -1000 320/13G20 RMK AO2 T00281017 TSNO
14756KACK ACK20160130001011501/30/16 00:10:31  5-MIN KACK 300510Z AUTO 31013KT 10SM CLR 03/M02 A2963 320 69 -1000 320/13 RMK AO2 T00281022 TSNO
14756KACK ACK20160130001511501/30/16 00:15:31  5-MIN KACK 300515Z AUTO 31015KT 10SM CLR 03/M02 A2963 320 69 -1000 320/15 RMK AO2 T00281022 TSNO
14756KACK ACK20160130002011501/30/16 00:20:31  5-MIN KACK 300520Z AUTO 31014KT 10SM CLR 03/M02 A2964 310 69 -1000 320/14 RMK AO2 T00281022 TSNO
14756KACK ACK20160130002512401/30/16 00:25:31  5-MIN KACK 300525Z AUTO 31013G20KT 10SM FEW055 03/M02 A2964 310 69 -1000 320/13G20 RMK AO2 T00281022 TSNO
14756KACK ACK20160130003012101/30/16 00:30:31  5-MIN KACK 300530Z AUTO 31015G20KT 10SM CLR 03/M02 A2964 310 69 -1000 320/15G20 RMK AO2 T00281022 TSNO
14756KACK ACK20160130003511501/30/16 00:35:31  5-MIN KACK 300535Z AUTO 31015KT 10SM CLR 03/M02 A2964 310 69 -1000 330/15 RMK AO2 T00281022 TSNO
14756KACK ACK20160130004011501/30/16 00:40:31  5-MIN KACK 300540Z AUTO 31014KT 10SM CLR 03/M02 A2965 300 69 -1000 330/14 RMK AO2 T00281022 TSNO
14756KACK ACK20160130004511501/30/16 00:45:31  5-MIN KACK 300545Z AUTO 31014KT 10SM CLR 03/M02 A2965 300 69 -1000 320/14 RMK AO2 T00281022 TSNO
14756KACK ACK20160130005014601/30/16 00:50:31  5-MIN KACK 300550Z AUTO 31013G20KT 10SM CLR 03/M02 A2965 300 69 -1000 330/13G20 RMK AO2 SLP041 T00281022 10044 20028 51032 TSNO
14756KACK ACK20160130005512101/30/16 00:55:31  5-MIN KACK 300555Z AUTO 31013G19KT 10SM CLR 03/M02 A2966 290 69 -1000 320/13G19 RMK AO2 T00281022 TSNO
14756KACK ACK20160130010011501/30/16 01:00:31  5-MIN KACK 300600Z AUTO 31013KT 10SM CLR 03/M02 A2966 290 69 -1000 330/13 RMK AO2 T00281022 TSNO
14756KACK ACK20160130010511501/30/16 01:05:31  5-MIN KACK 300605Z AUTO 31012KT 10SM CLR 03/M02 A2966 290 69 -1000 320/12 RMK AO2 T00281022 TSNO
14756KACK ACK20160130011011501/30/16 01:10:31  5-MIN KACK 300610Z AUTO 31014KT 10SM CLR 03/M02 A2966 290 69 -1000 320/14 RMK AO2 T00281022 TSNO
14756KACK ACK20160130011512101/30/16 01:15:31  5-MIN KACK 300615Z AUTO 31014G20KT 10SM CLR 02/M03 A2967 280 69 -1100 330/14G20 RMK AO2 T00221028 TSNO
14756KACK ACK20160130012012101/30/16 01:20:31  5-MIN KACK 300620Z AUTO 31014G21KT 10SM CLR 03/M03 A2967 280 67 -1000 320/14G21 RMK AO2 T00281028 TSNO
14756KACK ACK20160130012512101/30/16 01:25:31  5-MIN KACK 300625Z AUTO 31014G21KT 10SM CLR 03/M03 A2968 270 67 -1100 330/14G21 RMK AO2 T00281028 TSNO
14756KACK ACK20160130013012401/30/16 01:30:31  5-MIN KACK 300630Z AUTO 31014G21KT 10SM FEW055 03/M03 A2968 270 67 -1100 320/14G21 RMK AO2 T00281028 TSNO
14756KACK ACK20160130013512401/30/16 01:35:31  5-MIN KACK 300635Z AUTO 31016G23KT 10SM FEW055 03/M03 A2969 270 67 -1100 320/16G23 RMK AO2 T00281028 TSNO
14756KACK ACK20160130014012101/30/16 01:40:31  5-MIN KACK 300640Z AUTO 31016G23KT 10SM CLR 02/M03 A2969 260 69 -1100 320/16G23 RMK AO2 T00221028 TSNO
14756KACK ACK20160130014511501/30/16 01:45:31  5-MIN KACK 300645Z AUTO 31013KT 10SM CLR 02/M03 A2969 260 69 -1100 320/13 RMK AO2 T00221028 TSNO
14756KACK ACK20160130015012201/30/16 01:50:31  5-MIN KACK 300650Z AUTO 31013KT 10SM CLR 03/M03 A2969 260 67 -1100 320/13 RMK AO2 SLP055 T00281028 TSNO
14756KACK ACK20160130015511501/30/16 01:55:31  5-MIN KACK 300655Z AUTO 31013KT 10SM CLR 02/M03 A2969 260 69 -1100 320/13 RMK AO2 T00221028 TSNO
14756KACK ACK20160130020011501/30/16 02:00:31  5-MIN KACK 300700Z AUTO 31014KT 10SM CLR 02/M03 A2970 250 69 -1200 320/14 RMK AO2 T00221028 TSNO
14756KACK ACK20160130020511501/30/16 02:05:31  5-MIN KACK 300705Z AUTO 30014KT 10SM CLR 02/M03 A2971 250 69 -1200 320/14 RMK AO2 T00221028 TSNO
14756KACK ACK20160130021011501/30/16 02:10:31  5-MIN KACK 300710Z AUTO 30014KT 10SM CLR 02/M03 A2971 240 69 -1200 320/14 RMK AO2 T00221028 TSNO
14756KACK ACK20160130021512101/30/16 02:15:31  5-MIN KACK 300715Z AUTO 31016G21KT 10SM CLR 02/M03 A2971 240 69 -1200 320/16G21 RMK AO2 T00221028 TSNO
14756KACK ACK20160130022012101/30/16 02:20:31  5-MIN KACK 300720Z AUTO 31012G21KT 10SM CLR 02/M03 A2972 240 67 -1200 320/12G21 RMK AO2 T00221033 TSNO
14756KACK ACK20160130022511501/30/16 02:25:31  5-MIN KACK 300725Z AUTO 30015KT 10SM CLR 02/M03 A2973 230 67 -1200 320/15 RMK AO2 T00221033 TSNO
14756KACK ACK20160130023012201/30/16 02:30:31  5-MIN KACK 300730Z AUTO 31014KT 10SM CLR 02/M03 A2973 220 67 -1200 320/14 RMK AO2 PRESRR T00221033 TSNO
14756KACK ACK20160130023512101/30/16 02:35:31  5-MIN KACK 300735Z AUTO 31016G23KT 10SM CLR 02/M03 A2973 220 67 -1200 320/16G23 RMK AO2 T00221033 TSNO
14756KACK ACK20160130024012101/30/16 02:40:31  5-MIN KACK 300740Z AUTO 31017G24KT 10SM CLR 02/M03 A2974 220 67 -1200 330/17G24 RMK AO2 T00221033 TSNO
14756KACK ACK20160130024512101/30/16 02:45:31  5-MIN KACK 300745Z AUTO 31015G24KT 10SM CLR 02/M04 A2974 220 64 -1200 330/15G24 RMK AO2 T00221039 TSNO
14756KACK ACK20160130025012801/30/16 02:50:31  5-MIN KACK 300750Z AUTO 31016G23KT 10SM CLR 02/M04 A2974 210 64 -1200 320/16G23 RMK AO2 SLP072 T00221039 TSNO
14756KACK ACK20160130025512101/30/16 02:55:31  5-MIN KACK 300755Z AUTO 31012G23KT 10SM CLR 02/M03 A2974 210 67 -1200 330/12G23 RMK AO2 T00221033 TSNO
14756KACK ACK20160130030011501/30/16 03:00:31  5-MIN KACK 300800Z AUTO 31012KT 10SM CLR 02/M03 A2975 210 67 -1200 320/12 RMK AO2 T00221033 TSNO
14756KACK ACK20160130030511501/30/16 03:05:31  5-MIN KACK 300805Z AUTO 31013KT 10SM CLR 02/M03 A2975 210 69 -1300 330/13 RMK AO2 T00171033 TSNO
14756KACK ACK20160130031011501/30/16 03:10:31  5-MIN KACK 300810Z AUTO 31014KT 10SM CLR 02/M03 A2976 200 67 -1200 330/14 RMK AO2 T00221033 TSNO
14756KACK ACK20160130031512101/30/16 03:15:31  5-MIN KACK 300815Z AUTO 31012G20KT 10SM CLR 02/M03 A2976 200 69 -1300 330/12G20 RMK AO2 T00171033 TSNO
14756KACK ACK20160130032012101/30/16 03:20:31  5-MIN KACK 300820Z AUTO 31014G19KT 10SM CLR 02/M03 A2976 200 69 -1300 320/14G19 RMK AO2 T00171033 TSNO
14756KACK ACK20160130032511501/30/16 03:25:31  5-MIN KACK 300825Z AUTO 31013KT 10SM CLR 02/M03 A2977 190 69 -1300 320/13 RMK AO2 T00171033 TSNO
14756KACK ACK20160130033011501/30/16 03:30:31  5-MIN KACK 300830Z AUTO 31014KT 10SM CLR 02/M04 A2977 190 66 -1300 320/14 RMK AO2 T00171039 TSNO
14756KACK ACK20160130033511501/30/16 03:35:31  5-MIN KACK 300835Z AUTO 30014KT 10SM CLR 02/M04 A2977 190 66 -1300 320/14 RMK AO2 T00171039 TSNO
14756KACK ACK20160130034012101/30/16 03:40:31  5-MIN KACK 300840Z AUTO 31016G21KT 10SM CLR 02/M04 A2978 180 66 -1300 320/16G21 RMK AO2 T00171039 TSNO
14756KACK ACK20160130034512101/30/16 03:45:31  5-MIN KACK 300845Z AUTO 31016G23KT 10SM CLR 02/M04 A2978 180 66 -1300 320/16G23 RMK AO2 T00171039 TSNO
14756KACK ACK20160130035013401/30/16 03:50:31  5-MIN KACK 300850Z AUTO 31013G23KT 10SM CLR 02/M04 A2979 170 66 -1300 330/13G23 RMK AO2 SLP086 T00171039 51033 TSNO
14756KACK ACK20160130035511501/30/16 03:55:31  5-MIN KACK 300855Z AUTO 31013KT 10SM CLR 02/M04 A2979 170 66 -1300 320/13 RMK AO2 T00171039 TSNO
14756KACK ACK20160130040012101/30/16 04:00:31  5-MIN KACK 300900Z AUTO 31015G19KT 10SM CLR 02/M04 A2979 170 66 -1300 320/15G19 RMK AO2 T00171039 TSNO
14756KACK ACK20160130040511501/30/16 04:05:31  5-MIN KACK 300905Z AUTO 31013KT 10SM CLR 02/M04 A2980 160 66 -1300 330/13 RMK AO2 T00171039 TSNO
14756KACK ACK20160130041011501/30/16 04:10:31  5-MIN KACK 300910Z AUTO 30014KT 10SM CLR 02/M04 A2980 160 66 -1300 320/14 RMK AO2 T00171039 TSNO
14756KACK ACK20160130041511501/30/16 04:15:31  5-MIN KACK 300915Z AUTO 30012KT 10SM CLR 02/M04 A2980 160 66 -1300 320/12 RMK AO2 T00171039 TSNO
14756KACK ACK20160130042012101/30/16 04:20:31  5-MIN KACK 300920Z AUTO 31014G20KT 10SM CLR 02/M04 A2981 160 66 -1300 320/14G20 RMK AO2 T00171039 TSNO
14756KACK ACK20160130042512101/30/16 04:25:31  5-MIN KACK 300925Z AUTO 30012G20KT 10SM CLR 01/M04 A2981 150 69 -1400 320/12G20 RMK AO2 T00111039 TSNO
14756KACK ACK20160130043011501/30/16 04:30:31  5-MIN KACK 300930Z AUTO 30012KT 10SM CLR 02/M04 A2981 150 66 -1400 320/12 RMK AO2 T00171039 TSNO
14756KACK ACK20160130043511501/30/16 04:35:31  5-MIN KACK 300935Z AUTO 30013KT 10SM CLR 01/M04 A2982 140 69 -1400 310/13 RMK AO2 T00111039 TSNO
14756KACK ACK20160130044011501/30/16 04:40:31  5-MIN KACK 300940Z AUTO 30014KT 10SM CLR 02/M04 A2982 140 66 -1400 310/14 RMK AO2 T00171039 TSNO
14756KACK ACK20160130044511501/30/16 04:45:31  5-MIN KACK 300945Z AUTO 30015KT 10SM CLR 02/M04 A2983 130 66 -1400 310/15 RMK AO2 T00171039 TSNO
14756KACK ACK20160130045012801/30/16 04:50:31  5-MIN KACK 300950Z AUTO 30012G22KT 10SM CLR 01/M04 A2983 130 69 -1400 320/12G22 RMK AO2 SLP102 T00111039 TSNO
14756KACK ACK20160130045511501/30/16 04:55:31  5-MIN KACK 300955Z AUTO 30012KT 10SM CLR 01/M04 A2984 130 69 -1400 310/12 RMK AO2 T00111039 TSNO
14756KACK ACK20160130050011501/30/16 05:00:31  5-MIN KACK 301000Z AUTO 30013KT 10SM CLR 01/M04 A2984 120 69 -1500 310/13 RMK AO2 T00111039 TSNO
14756KACK ACK20160130050511501/30/16 05:05:31  5-MIN KACK 301005Z AUTO 30012KT 10SM CLR 01/M04 A2984 120 69 -1500 320/12 RMK AO2 T00111039 TSNO
14756KACK ACK20160130051011501/30/16 05:10:31  5-MIN KACK 301010Z AUTO 31011KT 10SM CLR 01/M04 A2984 120 69 -1500 320/11 RMK AO2 T00111039 TSNO
14756KACK ACK20160130051511501/30/16 05:15:31  5-MIN KACK 301015Z AUTO 31011KT 10SM CLR 01/M04 A2985 120 69 -1500 320/11 RMK AO2 T00111039 TSNO
14756KACK ACK20160130052011501/30/16 05:20:31  5-MIN KACK 301020Z AUTO 31011KT 10SM CLR 01/M04 A2985 110 69 -1500 320/11 RMK AO2 T00111039 TSNO
14756KACK ACK20160130052511501/30/16 05:25:31  5-MIN KACK 301025Z AUTO 31010KT 10SM CLR 01/M04 A2985 110 69 -1500 320/10 RMK AO2 T00111039 TSNO
14756KACK ACK20160130053011501/30/16 05:30:31  5-MIN KACK 301030Z AUTO 31012KT 10SM CLR 01/M04 A2986 110 69 -1500 320/12 RMK AO2 T00111039 TSNO
14756KACK ACK20160130053511501/30/16 05:35:31  5-MIN KACK 301035Z AUTO 31012KT 10SM CLR 01/M04 A2986 100 69 -1500 320/12 RMK AO2 T00111039 TSNO
14756KACK ACK20160130054011501/30/16 05:40:31  5-MIN KACK 301040Z AUTO 30012KT 10SM CLR 01/M04 A2987 100 69 -1500 320/12 RMK AO2 T00111039 TSNO
14756KACK ACK20160130054511401/30/16 05:45:31  5-MIN KACK 301045Z AUTO 30011KT 10SM CLR 01/M04 A2987 90 69 -1500 320/11 RMK AO2 T00111039 TSNO
14756KACK ACK20160130055012801/30/16 05:50:31  5-MIN KACK 301050Z AUTO 30011KT 10SM CLR 01/M04 A2988 90 69 -1500 320/11 RMK AO2 PRESRR SLP118 T00111039 TSNO
14756KACK ACK20160130055512101/30/16 05:55:31  5-MIN KACK 301055Z AUTO 30010KT 10SM CLR 01/M04 A2988 80 69 -1500 320/10 RMK AO2 PRESRR T00111039 TSNO
14756KACK ACK20160130060010401/30/16 06:00:31  5-MIN KACK 301100Z 30012KT 10SM CLR 01/M04 A2989 80 69 -1500 320/12 RMK AO2 T00111039
14756KACK ACK20160130060510401/30/16 06:05:31  5-MIN KACK 301105Z 30012KT 10SM CLR 01/M04 A2989 70 69 -1500 320/12 RMK AO2 T00111039
14756KACK ACK20160130061011101/30/16 06:10:31  5-MIN KACK 301110Z 30011KT 10SM CLR 01/M04 A2990 70 69 -1500 310/11 RMK AO2 PRESRR T00111039
14756KACK ACK20160130061510401/30/16 06:15:31  5-MIN KACK 301115Z 30012KT 10SM CLR 01/M04 A2990 60 69 -1500 320/12 RMK AO2 T00111039
14756KACK ACK20160130062010401/30/16 06:20:31  5-MIN KACK 301120Z 30012KT 10SM CLR 01/M04 A2990 60 69 -1500 320/12 RMK AO2 T00111039
14756KACK ACK20160130062510401/30/16 06:25:31  5-MIN KACK 301125Z 30011KT 10SM CLR 01/M04 A2991 60 69 -1500 320/11 RMK AO2 T00111039
14756KACK ACK20160130063010401/30/16 06:30:31  5-MIN KACK 301130Z 30010KT 10SM CLR 01/M04 A2991 60 69 -1500 310/10 RMK AO2 T00111039
14756KACK ACK20160130063510401/30/16 06:35:31  5-MIN KACK 301135Z 30012KT 10SM CLR 01/M04 A2991 60 69 -1500 320/12 RMK AO2 T00111039
14756KACK ACK20160130064010401/30/16 06:40:31  5-MIN KACK 301140Z 30010KT 10SM CLR 01/M04 A2992 50 69 -1500 320/10 RMK AO2 T00111039
14756KACK ACK20160130064510401/30/16 06:45:31  5-MIN KACK 301145Z 31011KT 10SM CLR 01/M04 A2992 50 69 -1500 320/11 RMK AO2 T00111039
14756KACK ACK20160130065012901/30/16 06:50:31  5-MIN KACK 301150Z 30011KT 10SM CLR 01/M04 A2992 50 69 -1500 310/11 RMK AO2 SLP132 T00111039 10028 20011 53045
14756KACK ACK20160130065510401/30/16 06:55:31  5-MIN KACK 301155Z 30011KT 10SM CLR 01/M04 A2993 40 69 -1600 320/11 RMK AO2 T00111039
14756KACK ACK20160130070010401/30/16 07:00:31  5-MIN KACK 301200Z 30011KT 10SM CLR 01/M04 A2993 40 69 -1600 320/11 RMK AO2 T00111039
14756KACK ACK20160130070510401/30/16 07:05:31  5-MIN KACK 301205Z 31011KT 10SM CLR 01/M04 A2993 40 69 -1600 330/11 RMK AO2 T00111039
14756KACK ACK20160130071010401/30/16 07:10:31  5-MIN KACK 301210Z 30010KT 10SM CLR 01/M04 A2994 30 69 -1600 320/10 RMK AO2 T00111039
14756KACK ACK20160130071510401/30/16 07:15:31  5-MIN KACK 301215Z 29011KT 10SM CLR 01/M04 A2995 30 69 -1600 310/11 RMK AO2 T00111039
14756KACK ACK20160130072010401/30/16 07:20:31  5-MIN KACK 301220Z 30009KT 10SM CLR 01/M04 A2995 20 69 -1600 310/09 RMK AO2 T00111039
14756KACK ACK20160130072510401/30/16 07:25:31  5-MIN KACK 301225Z 30010KT 10SM CLR 01/M04 A2995 20 69 -1600 310/10 RMK AO2 T00111039
14756KACK ACK20160130073010401/30/16 07:30:31  5-MIN KACK 301230Z 29009KT 10SM CLR 01/M04 A2996 10 69 -1600 300/09 RMK AO2 T00111039
14756KACK ACK20160130073510401/30/16 07:35:31  5-MIN KACK 301235Z 30010KT 10SM CLR 01/M04 A2996 10 69 -1600 310/10 RMK AO2 T00111039
14756KACK ACK20160130074010401/30/16 07:40:31  5-MIN KACK 301240Z 31010KT 10SM CLR 01/M04 A2996 10 69 -1600 320/10 RMK AO2 T00111039
14756KACK ACK20160130074510401/30/16 07:45:31  5-MIN KACK 301245Z 30011KT 10SM CLR 02/M04 A2996 10 66 -1500 320/11 RMK AO2 T00171039
14756KACK ACK20160130075011101/30/16 07:50:31  5-MIN KACK 301250Z 30011KT 10SM CLR 02/M04 A2997 10 66 -1500 320/11 RMK AO2 SLP147 T00171039
14756KACK ACK20160130075510301/30/16 07:55:31  5-MIN KACK 301255Z 30013KT 10SM CLR 02/M04 A2997 0 66 -1500 320/13 RMK AO2 T00171039
14756KACK ACK20160130080010301/30/16 08:00:31  5-MIN KACK 301300Z 31011KT 10SM CLR 02/M04 A2997 0 66 -1500 320/11 RMK AO2 T00171039
14756KACK ACK20160130080510301/30/16 08:05:31  5-MIN KACK 301305Z 32012KT 10SM CLR 02/M04 A2997 0 64 -1500 330/12 RMK AO2 T00221039
14756KACK ACK20160130081010301/30/16 08:10:31  5-MIN KACK 301310Z 31013KT 10SM CLR 02/M04 A2998 0 64 -1500 320/13 RMK AO2 T00221039
14756KACK ACK20160130081510301/30/16 08:15:31  5-MIN KACK 301315Z 31013KT 10SM CLR 02/M04 A2998 0 64 -1500 320/13 RMK AO2 T00221039
14756KACK ACK20160130082010501/30/16 08:20:31  5-MIN KACK 301320Z 31013KT 10SM CLR 02/M04 A2999 -10 64 -1500 330/13 RMK AO2 T00221039
14756KACK ACK20160130082510501/30/16 08:25:31  5-MIN KACK 301325Z 30014KT 10SM CLR 02/M04 A2999 -10 64 -1500 310/14 RMK AO2 T00221039
14756KACK ACK20160130083010501/30/16 08:30:31  5-MIN KACK 301330Z 31015KT 10SM CLR 02/M04 A2999 -10 64 -1500 320/15 RMK AO2 T00221039
14756KACK ACK20160130083510501/30/16 08:35:31  5-MIN KACK 301335Z 30012KT 10SM CLR 02/M04 A2999 -10 64 -1500 320/12 RMK AO2 T00221039
14756KACK ACK20160130084010501/30/16 08:40:31  5-MIN KACK 301340Z 31014KT 10SM CLR 03/M04 A3000 -20 61 -1400 330/14 RMK AO2 T00281039
14756KACK ACK20160130084510501/30/16 08:45:31  5-MIN KACK 301345Z 30013KT 10SM CLR 03/M04 A3000 -20 61 -1400 320/13 RMK AO2 T00281039
14756KACK ACK20160130085011201/30/16 08:50:31  5-MIN KACK 301350Z 31014KT 10SM CLR 03/M04 A3000 -20 61 -1400 330/14 RMK AO2 SLP158 T00281039
14756KACK ACK20160130085510501/30/16 08:55:31  5-MIN KACK 301355Z 31014KT 10SM CLR 03/M04 A3000 -20 61 -1400 330/14 RMK AO2 T00281039
14756KACK ACK20160130090010501/30/16 09:00:31  5-MIN KACK 301400Z 31013KT 10SM CLR 03/M04 A3000 -20 61 -1400 330/13 RMK AO2 T00281039
14756KACK ACK20160130090510701/30/16 09:05:31  5-MIN KACK 301405Z 31012KT 10SM CLR 03/M04 A2999 -10 61 -1400 330/12 RMK AO2 T00281039 $
14756KACK ACK20160130091010701/30/16 09:10:31  5-MIN KACK 301410Z 31013KT 10SM CLR 03/M04 A3000 -20 61 -1400 330/13 RMK AO2 T00281039 $
14756KACK ACK20160130091510701/30/16 09:15:31  5-MIN KACK 301415Z 31012KT 10SM CLR 03/M04 A3000 -20 61 -1400 330/12 RMK AO2 T00281039 $
14756KACK ACK20160130092010701/30/16 09:20:31  5-MIN KACK 301420Z 30011KT 10SM CLR 03/M04 A3000 -20 61 -1400 320/11 RMK AO2 T00281039 $
14756KACK ACK20160130092510701/30/16 09:25:31  5-MIN KACK 301425Z 31011KT 10SM CLR 03/M04 A3000 -20 61 -1400 330/11 RMK AO2 T00281039 $
14756KACK ACK20160130093010701/30/16 09:30:31  5-MIN KACK 301430Z 31011KT 10SM CLR 03/M04 A3001 -30 59 -1400 320/11 RMK AO2 T00331039 $
14756KACK ACK20160130093510701/30/16 09:35:31  5-MIN KACK 301435Z 30012KT 10SM CLR 03/M04 A3001 -30 59 -1400 320/12 RMK AO2 T00331039 $
14756KACK ACK20160130094010701/30/16 09:40:31  5-MIN KACK 301440Z 30010KT 10SM CLR 03/M04 A3002 -40 61 -1500 310/10 RMK AO2 T00281039 $
14756KACK ACK20160130094510701/30/16 09:45:31  5-MIN KACK 301445Z 31010KT 10SM CLR 03/M04 A3002 -40 59 -1400 320/10 RMK AO2 T00331039 $
14756KACK ACK20160130095012001/30/16 09:50:31  5-MIN KACK 301450Z 31010KT 10SM CLR 03/M04 A3002 -40 59 -1400 320/10 RMK AO2 SLP166 T00331039 51047 $
14756KACK ACK20160130095510701/30/16 09:55:31  5-MIN KACK 301455Z 30011KT 10SM CLR 04/M04 A3003 -40 57 -1300 320/11 RMK AO2 T00391039 $
14756KACK ACK20160130100010701/30/16 10:00:31  5-MIN KACK 301500Z 31010KT 10SM CLR 03/M04 A3002 -40 59 -1400 320/10 RMK AO2 T00331039 $
14756KACK ACK20160130100510701/30/16 10:05:31  5-MIN KACK 301505Z 30009KT 10SM CLR 04/M03 A3002 -40 59 -1300 320/09 RMK AO2 T00391033 $
14756KACK ACK20160130101010701/30/16 10:10:31  5-MIN KACK 301510Z 32011KT 10SM CLR 03/M04 A3003 -40 59 -1400 330/11 RMK AO2 T00331039 $
14756KACK ACK20160130101510701/30/16 10:15:31  5-MIN KACK 301515Z 32010KT 10SM CLR 04/M04 A3002 -40 57 -1300 340/10 RMK AO2 T00391039 $
14756KACK ACK20160130102010701/30/16 10:20:31  5-MIN KACK 301520Z 32010KT 10SM CLR 04/M04 A3002 -40 57 -1300 330/10 RMK AO2 T00391039 $
14756KACK ACK20160130102510701/30/16 10:25:31  5-MIN KACK 301525Z 32010KT 10SM CLR 04/M04 A3002 -40 57 -1300 340/10 RMK AO2 T00391039 $
14756KACK ACK20160130103010701/30/16 10:30:31  5-MIN KACK 301530Z 32008KT 10SM CLR 04/M04 A3002 -40 57 -1300 340/08 RMK AO2 T00391039 $
14756KACK ACK20160130103510701/30/16 10:35:31  5-MIN KACK 301535Z 31008KT 10SM CLR 04/M04 A3002 -40 57 -1300 320/08 RMK AO2 T00391039 $
14756KACK ACK20160130104010701/30/16 10:40:31  5-MIN KACK 301540Z 30008KT 10SM CLR 04/M04 A3002 -40 57 -1300 320/08 RMK AO2 T00391039 $
14756KACK ACK20160130104510701/30/16 10:45:31  5-MIN KACK 301545Z 31007KT 10SM CLR 04/M04 A3002 -40 57 -1300 330/07 RMK AO2 T00391039 $
14756KACK ACK20160130105011401/30/16 10:50:31  5-MIN KACK 301550Z 32009KT 10SM CLR 04/M04 A3002 -40 55 -1200 340/09 RMK AO2 SLP165 T00441039 $
14756KACK ACK20160130105510701/30/16 10:55:31  5-MIN KACK 301555Z 31008KT 10SM CLR 04/M04 A3002 -40 57 -1300 320/08 RMK AO2 T00391039 $
14756KACK ACK20160130110010701/30/16 11:00:31  5-MIN KACK 301600Z 30007KT 10SM CLR 04/M04 A3002 -40 57 -1300 310/07 RMK AO2 T00391039 $
14756KACK ACK20160130110510701/30/16 11:05:31  5-MIN KACK 301605Z 30007KT 10SM CLR 04/M04 A3002 -40 55 -1200 320/07 RMK AO2 T00441039 $
14756KACK ACK20160130111010701/30/16 11:10:31  5-MIN KACK 301610Z 33006KT 10SM CLR 04/M04 A3002 -40 55 -1200 340/06 RMK AO2 T00441039 $
14756KACK ACK20160130111510701/30/16 11:15:31  5-MIN KACK 301615Z 34006KT 10SM CLR 04/M04 A3002 -30 55 -1200 350/06 RMK AO2 T00441039 $
14756KACK ACK20160130112010701/30/16 11:20:31  5-MIN KACK 301620Z 33008KT 10SM CLR 04/M04 A3001 -30 55 -1200 340/08 RMK AO2 T00441039 $
14756KACK ACK20160130112510701/30/16 11:25:31  5-MIN KACK 301625Z 31004KT 10SM CLR 04/M04 A3001 -30 55 -1200 320/04 RMK AO2 T00441039 $
14756KACK ACK20160130113010701/30/16 11:30:31  5-MIN KACK 301630Z 33005KT 10SM CLR 05/M04 A3001 -30 52 -1200 350/05 RMK AO2 T00501039 $
14756KACK ACK20160130113510701/30/16 11:35:31  5-MIN KACK 301635Z 31003KT 10SM CLR 04/M04 A3001 -30 55 -1200 330/03 RMK AO2 T00441039 $
14756KACK ACK20160130114010701/30/16 11:40:31  5-MIN KACK 301640Z 30004KT 10SM CLR 05/M04 A3000 -20 52 -1200 310/04 RMK AO2 T00501039 $
14756KACK ACK20160130114510701/30/16 11:45:31  5-MIN KACK 301645Z 27003KT 10SM CLR 04/M04 A3000 -10 55 -1200 280/03 RMK AO2 T00441039 $
14756KACK ACK20160130115011401/30/16 11:50:31  5-MIN KACK 301650Z 00000KT 10SM CLR 04/M04 A3000 -20 55 -1200 000/00 RMK AO2 SLP157 T00441039 $
14756KACK ACK20160130115510701/30/16 11:55:31  5-MIN KACK 301655Z 00000KT 10SM CLR 05/M04 A3000 -10 52 -1100 000/00 RMK AO2 T00501039 $
14756KACK ACK20160130120010701/30/16 12:00:31  5-MIN KACK 301700Z 23008KT 10SM CLR 05/M03 A2999 -10 55 -1100 240/08 RMK AO2 T00501033 $
14756KACK ACK20160130120512301/30/16 12:05:31  5-MIN KACK 301705Z 22008KT 190V260 10SM CLR 05/M03 A3000 -20 57 -1100 230/08 210V280 RMK AO2 T00501028 $
14756KACK ACK20160130121010701/30/16 12:10:31  5-MIN KACK 301710Z 23011KT 10SM CLR 05/M03 A3000 -20 55 -1100 240/11 RMK AO2 T00501033 $
14756KACK ACK20160130121510701/30/16 12:15:31  5-MIN KACK 301715Z 22011KT 10SM CLR 04/M03 A3000 -20 57 -1200 240/11 RMK AO2 T00441033 $
14756KACK ACK20160130122010701/30/16 12:20:31  5-MIN KACK 301720Z 23011KT 10SM CLR 05/M03 A3000 -20 55 -1200 250/11 RMK AO2 T00501033 $
14756KACK ACK20160130122510701/30/16 12:25:31  5-MIN KACK 301725Z 22012KT 10SM CLR 04/M03 A3000 -20 57 -1200 240/12 RMK AO2 T00441033 $
14756KACK ACK20160130123010701/30/16 12:30:31  5-MIN KACK 301730Z 23011KT 10SM CLR 05/M03 A3001 -30 55 -1200 250/11 RMK AO2 T00501033 $
14756KACK ACK20160130123510701/30/16 12:35:31  5-MIN KACK 301735Z 24009KT 10SM CLR 05/M03 A3001 -30 55 -1200 260/09 RMK AO2 T00501033 $
14756KACK ACK20160130124010701/30/16 12:40:31  5-MIN KACK 301740Z 24011KT 10SM CLR 05/M03 A3002 -30 55 -1200 260/11 RMK AO2 T00501033 $
14756KACK ACK20160130124510701/30/16 12:45:31  5-MIN KACK 301745Z 23012KT 10SM CLR 05/M03 A3002 -40 57 -1200 250/12 RMK AO2 T00501028 $
14756KACK ACK20160130125013201/30/16 12:50:31  5-MIN KACK 301750Z 24010KT 10SM CLR 05/M03 A3001 -30 55 -1200 260/10 RMK AO2 SLP163 T00501033 10056 20011 51033 $
14756KACK ACK20160130125510701/30/16 12:55:31  5-MIN KACK 301755Z 23009KT 10SM CLR 04/M03 A3000 -20 59 -1200 240/09 RMK AO2 T00441028 $
14756KACK ACK20160130130010701/30/16 13:00:31  5-MIN KACK 301800Z 23007KT 10SM CLR 04/M03 A3000 -20 57 -1200 250/07 RMK AO2 T00441033 $
14756KACK ACK20160130130510701/30/16 13:05:31  5-MIN KACK 301805Z 23009KT 10SM CLR 04/M03 A3001 -30 59 -1200 250/09 RMK AO2 T00441028 $
14756KACK ACK20160130131010701/30/16 13:10:31  5-MIN KACK 301810Z 23010KT 10SM CLR 04/M03 A3001 -30 59 -1200 250/10 RMK AO2 T00441028 $
14756KACK ACK20160130131510701/30/16 13:15:31  5-MIN KACK 301815Z 24010KT 10SM CLR 04/M03 A3002 -30 59 -1300 250/10 RMK AO2 T00391033 $
14756KACK ACK20160130132010701/30/16 13:20:31  5-MIN KACK 301820Z 24010KT 10SM CLR 04/M03 A3002 -30 59 -1200 250/10 RMK AO2 T00441028 $
14756KACK ACK20160130132510701/30/16 13:25:31  5-MIN KACK 301825Z 24010KT 10SM CLR 04/M03 A3002 -40 59 -1200 250/10 RMK AO2 T00441028 $
14756KACK ACK20160130133010701/30/16 13:30:31  5-MIN KACK 301830Z 24011KT 10SM CLR 04/M03 A3002 -40 59 -1200 250/11 RMK AO2 T00441028 $
14756KACK ACK20160130133510701/30/16 13:35:31  5-MIN KACK 301835Z 23011KT 10SM CLR 04/M02 A3002 -40 62 -1200 250/11 RMK AO2 T00441022 $
14756KACK ACK20160130134010701/30/16 13:40:31  5-MIN KACK 301840Z 23009KT 10SM CLR 04/M03 A3002 -40 59 -1200 250/09 RMK AO2 T00441028 $
14756KACK ACK20160130134510701/30/16 13:45:31  5-MIN KACK 301845Z 22010KT 10SM CLR 04/M03 A3002 -40 59 -1200 240/10 RMK AO2 T00441028 $
14756KACK ACK20160130135011401/30/16 13:50:31  5-MIN KACK 301850Z 23010KT 10SM CLR 04/M02 A3002 -40 62 -1200 250/10 RMK AO2 SLP167 T00441022 $
14756KACK ACK20160130135510701/30/16 13:55:31  5-MIN KACK 301855Z 23010KT 10SM CLR 04/M03 A3003 -40 62 -1300 250/10 RMK AO2 T00391028 $
14756KACK ACK20160130140010701/30/16 14:00:31  5-MIN KACK 301900Z 22008KT 10SM CLR 04/M03 A3002 -40 62 -1300 240/08 RMK AO2 T00391028 $
14756KACK ACK20160130140510701/30/16 14:05:31  5-MIN KACK 301905Z 23010KT 10SM CLR 04/M02 A3002 -40 62 -1200 240/10 RMK AO2 T00441022 $
14756KACK ACK20160130141010701/30/16 14:10:31  5-MIN KACK 301910Z 23010KT 10SM CLR 05/M02 A3003 -40 59 -1200 250/10 RMK AO2 T00501022 $
14756KACK ACK20160130141510701/30/16 14:15:31  5-MIN KACK 301915Z 23011KT 10SM CLR 04/M02 A3003 -50 64 -1300 250/11 RMK AO2 T00441017 $
14756KACK ACK20160130142010701/30/16 14:20:31  5-MIN KACK 301920Z 23011KT 10SM CLR 04/M02 A3003 -50 64 -1300 250/11 RMK AO2 T00391022 $
14756KACK ACK20160130142510701/30/16 14:25:31  5-MIN KACK 301925Z 23012KT 10SM CLR 04/M02 A3003 -50 64 -1300 240/12 RMK AO2 T00391022 $
14756KACK ACK20160130143010701/30/16 14:30:31  5-MIN KACK 301930Z 24010KT 10SM CLR 04/M02 A3003 -50 64 -1300 260/10 RMK AO2 T00391022 $
14756KACK ACK20160130143510701/30/16 14:35:31  5-MIN KACK 301935Z 23010KT 10SM CLR 04/M02 A3003 -50 67 -1300 250/10 RMK AO2 T00391017 $
14756KACK ACK20160130144010701/30/16 14:40:31  5-MIN KACK 301940Z 23012KT 10SM CLR 04/M02 A3003 -50 67 -1300 250/12 RMK AO2 T00391017 $
14756KACK ACK20160130144510701/30/16 14:45:31  5-MIN KACK 301945Z 24011KT 10SM CLR 04/M02 A3003 -40 67 -1300 250/11 RMK AO2 T00391017 $
14756KACK ACK20160130145011401/30/16 14:50:31  5-MIN KACK 301950Z 23012KT 10SM CLR 04/M02 A3003 -50 67 -1300 250/12 RMK AO2 SLP169 T00391017 $
14756KACK ACK20160130145510701/30/16 14:55:31  5-MIN KACK 301955Z 24011KT 10SM CLR 04/M02 A3003 -50 64 -1300 260/11 RMK AO2 T00441017 $
14756KACK ACK20160130150011701/30/16 15:00:31  5-MIN KACK 302000Z AUTO 24012KT 10SM CLR 04/M02 A3003 -50 67 -1300 250/12 RMK AO2 T00391017 TSNO $
14756KACK ACK20160130150511701/30/16 15:05:31  5-MIN KACK 302005Z AUTO 23012KT 10SM CLR 04/M02 A3003 -50 67 -1300 240/12 RMK AO2 T00391017 TSNO $
14756KACK ACK20160130151011701/30/16 15:10:31  5-MIN KACK 302010Z AUTO 23012KT 10SM CLR 04/M02 A3004 -50 67 -1300 240/12 RMK AO2 T00391017 TSNO $
14756KACK ACK20160130151511701/30/16 15:15:31  5-MIN KACK 302015Z AUTO 23011KT 10SM CLR 04/M01 A3004 -50 70 -1300 240/11 RMK AO2 T00391011 TSNO $
14756KACK ACK20160130152011701/30/16 15:20:31  5-MIN KACK 302020Z AUTO 23012KT 10SM CLR 04/M01 A3004 -60 67 -1300 250/12 RMK AO2 T00441011 TSNO $
14756KACK ACK20160130152511701/30/16 15:25:31  5-MIN KACK 302025Z AUTO 23013KT 10SM CLR 04/M01 A3004 -60 67 -1300 250/13 RMK AO2 T00441011 TSNO $
14756KACK ACK20160130153011701/30/16 15:30:31  5-MIN KACK 302030Z AUTO 23011KT 10SM CLR 04/M01 A3004 -60 67 -1300 240/11 RMK AO2 T00441011 TSNO $
14756KACK ACK20160130153511701/30/16 15:35:31  5-MIN KACK 302035Z AUTO 24011KT 10SM CLR 04/M01 A3004 -60 67 -1300 250/11 RMK AO2 T00441011 TSNO $
14756KACK ACK20160130154011701/30/16 15:40:31  5-MIN KACK 302040Z AUTO 23013KT 10SM CLR 04/M01 A3004 -60 67 -1300 250/13 RMK AO2 T00441011 TSNO $
14756KACK ACK20160130154511701/30/16 15:45:31  5-MIN KACK 302045Z AUTO 23014KT 10SM CLR 04/M01 A3004 -60 67 -1300 240/14 RMK AO2 T00441011 TSNO $
14756KACK ACK20160130155013001/30/16 15:50:31  5-MIN KACK 302050Z AUTO 23013KT 10SM CLR 04/M01 A3004 -60 67 -1300 240/13 RMK AO2 SLP172 T00441011 55006 TSNO $
14756KACK ACK20160130155511701/30/16 15:55:31  5-MIN KACK 302055Z AUTO 24013KT 10SM CLR 04/M01 A3004 -60 67 -1300 250/13 RMK AO2 T00441011 TSNO $
14756KACK ACK20160130160011701/30/16 16:00:31  5-MIN KACK 302100Z AUTO 23013KT 10SM CLR 04/M01 A3004 -60 70 -1300 240/13 RMK AO2 T00441006 TSNO $
14756KACK ACK20160130160512001/30/16 16:05:31  5-MIN KACK 302105Z AUTO 23014KT 10SM FEW020 04/M01 A3004 -60 70 -1300 240/14 RMK AO2 T00441006 TSNO $
14756KACK ACK20160130161012001/30/16 16:10:31  5-MIN KACK 302110Z AUTO 23015KT 10SM FEW020 04/M01 A3004 -60 70 -1300 250/15 RMK AO2 T00441006 TSNO $
14756KACK ACK20160130161512001/30/16 16:15:31  5-MIN KACK 302115Z AUTO 23016KT 10SM FEW020 04/M01 A3004 -60 70 -1300 250/16 RMK AO2 T00441006 TSNO $
14756KACK ACK20160130162012001/30/16 16:20:31  5-MIN KACK 302120Z AUTO 23015KT 10SM FEW020 04/M01 A3004 -60 70 -1300 250/15 RMK AO2 T00441006 TSNO $
14756KACK ACK20160130162512001/30/16 16:25:31  5-MIN KACK 302125Z AUTO 23015KT 10SM FEW020 04/M01 A3004 -60 70 -1300 240/15 RMK AO2 T00441006 TSNO $
14756KACK ACK20160130163012001/30/16 16:30:31  5-MIN KACK 302130Z AUTO 22016KT 10SM SCT020 04/M01 A3004 -50 70 -1300 240/16 RMK AO2 T00441006 TSNO $
14756KACK ACK20160130163512001/30/16 16:35:31  5-MIN KACK 302135Z AUTO 23015KT 10SM SCT020 04/M01 A3004 -50 70 -1300 240/15 RMK AO2 T00441006 TSNO $
14756KACK ACK20160130164012001/30/16 16:40:31  5-MIN KACK 302140Z AUTO 23016KT 10SM FEW020 04/M01 A3004 -50 70 -1300 240/16 RMK AO2 T00441006 TSNO $
14756KACK ACK20160130164511001/30/16 16:45:31  5-MIN KACK 302145Z 22016KT 10SM FEW020 04/M01 A3004 -50 70 -1300 240/16 RMK AO2 T00441006 $
14756KACK ACK20160130165011701/30/16 16:50:31  5-MIN KACK 302150Z 22017KT 10SM FEW020 04/M01 A3003 -50 67 -1300 240/17 RMK AO2 SLP169 T00441011 $
14756KACK ACK20160130165511001/30/16 16:55:31  5-MIN KACK 302155Z 22012KT 10SM FEW020 04/M01 A3003 -50 70 -1300 240/12 RMK AO2 T00441006 $
14756KACK ACK20160130170010701/30/16 17:00:31  5-MIN KACK 302200Z 22015KT 10SM CLR 04/M01 A3004 -50 70 -1300 240/15 RMK AO2 T00441006 $
14756KACK ACK20160130170510701/30/16 17:05:31  5-MIN KACK 302205Z 23015KT 10SM CLR 04/M01 A3004 -50 70 -1300 240/15 RMK AO2 T00441006 $
14756KACK ACK20160130171010701/30/16 17:10:31  5-MIN KACK 302210Z 22015KT 10SM CLR 04/M01 A3004 -50 73 -1300 240/15 RMK AO2 T00391006 $
14756KACK ACK20160130171510701/30/16 17:15:31  5-MIN KACK 302215Z 22016KT 10SM CLR 04/M01 A3004 -50 70 -1300 240/16 RMK AO2 T00441006 $
14756KACK ACK20160130172010701/30/16 17:20:31  5-MIN KACK 302220Z 22013KT 10SM CLR 04/M01 A3004 -50 70 -1300 240/13 RMK AO2 T00441006 $
14756KACK ACK20160130172510701/30/16 17:25:31  5-MIN KACK 302225Z 22013KT 10SM CLR 04/M01 A3004 -50 70 -1300 240/13 RMK AO2 T00441006 $
14756KACK ACK20160130173010701/30/16 17:30:31  5-MIN KACK 302230Z 23015KT 10SM CLR 04/M01 A3004 -60 73 -1300 240/15 RMK AO2 T00391006 $
14756KACK ACK20160130173510701/30/16 17:35:31  5-MIN KACK 302235Z 23016KT 10SM CLR 04/M01 A3004 -60 73 -1300 250/16 RMK AO2 T00391006 $
14756KACK ACK20160130174010701/30/16 17:40:31  5-MIN KACK 302240Z 23015KT 10SM CLR 04/M01 A3004 -60 70 -1300 250/15 RMK AO2 T00441006 $
14756KACK ACK20160130174510701/30/16 17:45:31  5-MIN KACK 302245Z 23016KT 10SM CLR 04/M01 A3004 -60 70 -1300 240/16 RMK AO2 T00441006 $
14756KACK ACK20160130175011701/30/16 17:50:31  5-MIN KACK 302250Z 23015KT 10SM FEW020 04/M01 A3005 -60 70 -1300 240/15 RMK AO2 SLP174 T00441006 $
14756KACK ACK20160130175511001/30/16 17:55:31  5-MIN KACK 302255Z 23015KT 10SM FEW020 04/M01 A3005 -60 70 -1300 240/15 RMK AO2 T00441006 $
14756KACK ACK20160130180011001/30/16 18:00:31  5-MIN KACK 302300Z 22014KT 10SM FEW020 04/M01 A3005 -60 70 -1300 240/14 RMK AO2 T00441006 $
14756KACK ACK20160130180511001/30/16 18:05:31  5-MIN KACK 302305Z 22014KT 10SM FEW020 04/M01 A3004 -60 70 -1300 240/14 RMK AO2 T00441006 $
14756KACK ACK20160130181010901/30/16 18:10:31  5-MIN KACK 302310Z 22014KT 10SM FEW020 04/00 A3004 -60 73 -1300 240/14 RMK AO2 T00440000 $
14756KACK ACK20160130181511001/30/16 18:15:31  5-MIN KACK 302315Z 22014KT 10SM FEW020 04/M01 A3004 -50 70 -1300 230/14 RMK AO2 T00441006 $
14756KACK ACK20160130182011001/30/16 18:20:31  5-MIN KACK 302320Z 22016KT 10SM FEW020 04/M01 A3004 -50 70 -1300 230/16 RMK AO2 T00441006 $
14756KACK ACK20160130182510701/30/16 18:25:31  5-MIN KACK 302325Z 22014KT 10SM CLR 04/M01 A3004 -50 70 -1300 230/14 RMK AO2 T00441006 $
14756KACK ACK20160130183010601/30/16 18:30:31  5-MIN KACK 302330Z 22013KT 10SM CLR 04/00 A3004 -50 73 -1300 230/13 RMK AO2 T00440000 $
14756KACK ACK20160130183510601/30/16 18:35:31  5-MIN KACK 302335Z 21013KT 10SM CLR 04/00 A3003 -50 73 -1300 230/13 RMK AO2 T00440000 $
14756KACK ACK20160130184010601/30/16 18:40:31  5-MIN KACK 302340Z 21013KT 10SM CLR 04/00 A3003 -50 73 -1300 230/13 RMK AO2 T00440000 $
14756KACK ACK20160130184510601/30/16 18:45:31  5-MIN KACK 302345Z 22015KT 10SM CLR 04/00 A3003 -50 73 -1300 230/15 RMK AO2 T00440000 $
14756KACK ACK20160130185013101/30/16 18:50:31  5-MIN KACK 302350Z 22014KT 10SM CLR 04/00 A3004 -50 73 -1300 230/14 RMK AO2 SLP171 T00440000 10050 20039 51012 $
14756KACK ACK20160130185511201/30/16 18:55:31  5-MIN KACK 302355Z 21012G21KT 10SM CLR 04/00 A3003 -50 73 -1300 230/12G21 RMK AO2 T00440000 $
14756KACK ACK20160130190010601/30/16 19:00:31  5-MIN KACK 310000Z 22014KT 10SM CLR 04/00 A3003 -50 73 -1300 230/14 RMK AO2 T00440000 $
14756KACK ACK20160130190510601/30/16 19:05:31  5-MIN KACK 310005Z 21016KT 10SM CLR 04/00 A3004 -50 73 -1300 230/16 RMK AO2 T00440000 $
14756KACK ACK20160130191010601/30/16 19:10:31  5-MIN KACK 310010Z 22014KT 10SM CLR 04/00 A3004 -50 73 -1300 230/14 RMK AO2 T00440000 $
14756KACK ACK20160130191510601/30/16 19:15:31  5-MIN KACK 310015Z 21014KT 10SM CLR 04/00 A3004 -50 73 -1300 230/14 RMK AO2 T00440000 $
14756KACK ACK20160130192010601/30/16 19:20:31  5-MIN KACK 310020Z 21013KT 10SM CLR 04/00 A3004 -50 73 -1300 230/13 RMK AO2 T00440000 $
14756KACK ACK20160130192511201/30/16 19:25:31  5-MIN KACK 310025Z 21014G20KT 10SM CLR 04/00 A3004 -50 73 -1300 230/14G20 RMK AO2 T00440000 $
14756KACK ACK20160130193010601/30/16 19:30:31  5-MIN KACK 310030Z 21013KT 10SM CLR 04/00 A3004 -60 73 -1300 230/13 RMK AO2 T00440000 $
14756KACK ACK20160130193510601/30/16 19:35:31  5-MIN KACK 310035Z 21013KT 10SM CLR 04/01 A3004 -60 76 -1300 230/13 RMK AO2 T00440006 $
14756KACK ACK20160130194010601/30/16 19:40:31  5-MIN KACK 310040Z 21015KT 10SM CLR 04/01 A3004 -60 76 -1300 230/15 RMK AO2 T00440006 $
14756KACK ACK20160130194510601/30/16 19:45:31  5-MIN KACK 310045Z 21015KT 10SM CLR 04/01 A3004 -60 76 -1300 220/15 RMK AO2 T00440006 $
14756KACK ACK20160130195011301/30/16 19:50:31  5-MIN KACK 310050Z 21015KT 10SM CLR 05/01 A3004 -50 73 -1200 220/15 RMK AO2 SLP171 T00500006 $
14756KACK ACK20160130195510601/30/16 19:55:31  5-MIN KACK 310055Z 21016KT 10SM CLR 05/01 A3004 -60 73 -1200 220/16 RMK AO2 T00500006 $
14756KACK ACK20160130200010601/30/16 20:00:31  5-MIN KACK 310100Z 20015KT 10SM CLR 05/01 A3003 -50 76 -1200 220/15 RMK AO2 T00500011 $
14756KACK ACK20160130200510601/30/16 20:05:31  5-MIN KACK 310105Z 21016KT 10SM CLR 05/01 A3003 -50 76 -1200 220/16 RMK AO2 T00500011 $
14756KACK ACK20160130201010601/30/16 20:10:31  5-MIN KACK 310110Z 21017KT 10SM CLR 05/01 A3003 -50 76 -1200 220/17 RMK AO2 T00500011 $
14756KACK ACK20160130201510601/30/16 20:15:31  5-MIN KACK 310115Z 21017KT 10SM CLR 05/01 A3003 -50 76 -1200 220/17 RMK AO2 T00500011 $
14756KACK ACK20160130202010601/30/16 20:20:31  5-MIN KACK 310120Z 21016KT 10SM CLR 05/01 A3003 -50 76 -1200 230/16 RMK AO2 T00500011 $
14756KACK ACK20160130202510601/30/16 20:25:31  5-MIN KACK 310125Z 21017KT 10SM CLR 05/01 A3003 -40 76 -1200 230/17 RMK AO2 T00500011 $
14756KACK ACK20160130203011201/30/16 20:30:31  5-MIN KACK 310130Z 21018G24KT 10SM CLR 05/01 A3003 -50 76 -1200 230/18G24 RMK AO2 T00500011 $
14756KACK ACK20160130203511201/30/16 20:35:31  5-MIN KACK 310135Z 22017G24KT 10SM CLR 05/01 A3003 -50 76 -1200 230/17G24 RMK AO2 T00500011 $
14756KACK ACK20160130204010601/30/16 20:40:31  5-MIN KACK 310140Z 22016KT 10SM CLR 05/01 A3003 -50 76 -1200 230/16 RMK AO2 T00500011 $
14756KACK ACK20160130204510601/30/16 20:45:31  5-MIN KACK 310145Z 22016KT 10SM CLR 05/01 A3003 -50 76 -1200 230/16 RMK AO2 T00500011 $
14756KACK ACK20160130205011301/30/16 20:50:31  5-MIN KACK 310150Z 22017KT 10SM CLR 05/01 A3003 -40 76 -1200 230/17 RMK AO2 SLP167 T00500011 $
14756KACK ACK20160130205511201/30/16 20:55:31  5-MIN KACK 310155Z 22018G24KT 10SM CLR 05/02 A3002 -40 79 -1200 230/18G24 RMK AO2 T00500017 $
14756KACK ACK20160130210011201/30/16 21:00:31  5-MIN KACK 310200Z 22018G24KT 10SM CLR 06/02 A3003 -40 76 -1100 230/18G24 RMK AO2 T00560017 $
14756KACK ACK20160130210511601/30/16 21:05:31  5-MIN KACK 310205Z AUTO 22016KT 10SM CLR 06/02 A3003 -50 76 -1100 230/16 RMK AO2 T00560017 TSNO $
14756KACK ACK20160130211011601/30/16 21:10:31  5-MIN KACK 310210Z AUTO 21016KT 10SM CLR 06/02 A3002 -40 76 -1100 230/16 RMK AO2 T00560017 TSNO $
14756KACK ACK20160130211511601/30/16 21:15:31  5-MIN KACK 310215Z AUTO 21015KT 10SM CLR 06/02 A3002 -40 76 -1100 230/15 RMK AO2 T00560017 TSNO $
14756KACK ACK20160130212011601/30/16 21:20:31  5-MIN KACK 310220Z AUTO 22016KT 10SM CLR 06/02 A3003 -40 76 -1100 230/16 RMK AO2 T00560017 TSNO $
14756KACK ACK20160130212511601/30/16 21:25:31  5-MIN KACK 310225Z AUTO 22016KT 10SM CLR 06/02 A3003 -40 76 -1100 230/16 RMK AO2 T00560017 TSNO $
14756KACK ACK20160130213011601/30/16 21:30:31  5-MIN KACK 310230Z AUTO 21014KT 10SM CLR 06/02 A3003 -40 76 -1100 230/14 RMK AO2 T00560017 TSNO $
14756KACK ACK20160130213511601/30/16 21:35:31  5-MIN KACK 310235Z AUTO 21015KT 10SM CLR 06/02 A3002 -40 76 -1100 230/15 RMK AO2 T00560017 TSNO $
14756KACK ACK20160130214011601/30/16 21:40:31  5-MIN KACK 310240Z AUTO 21016KT 10SM CLR 06/02 A3002 -40 79 -1100 230/16 RMK AO2 T00560022 TSNO $
14756KACK ACK20160130214511601/30/16 21:45:31  5-MIN KACK 310245Z AUTO 21014KT 10SM CLR 06/02 A3002 -40 79 -1100 230/14 RMK AO2 T00560022 TSNO $
14756KACK ACK20160130215012901/30/16 21:50:31  5-MIN KACK 310250Z AUTO 21015KT 10SM CLR 06/02 A3002 -40 79 -1100 230/15 RMK AO2 SLP166 T00560022 58002 TSNO $
14756KACK ACK20160130215511601/30/16 21:55:31  5-MIN KACK 310255Z AUTO 22016KT 10SM CLR 06/02 A3002 -40 79 -1100 230/16 RMK AO2 T00560022 TSNO $
14756KACK ACK20160130220011601/30/16 22:00:31  5-MIN KACK 310300Z AUTO 22015KT 10SM CLR 06/02 A3002 -40 79 -1100 230/15 RMK AO2 T00560022 TSNO $
14756KACK ACK20160130220511601/30/16 22:05:31  5-MIN KACK 310305Z AUTO 22015KT 10SM CLR 06/02 A3002 -40 79 -1100 230/15 RMK AO2 T00560022 TSNO $
14756KACK ACK20160130221011601/30/16 22:10:31  5-MIN KACK 310310Z AUTO 22014KT 10SM CLR 06/02 A3001 -30 79 -1100 230/14 RMK AO2 T00560022 TSNO $
14756KACK ACK20160130221511601/30/16 22:15:31  5-MIN KACK 310315Z AUTO 21016KT 10SM CLR 06/02 A3001 -30 79 -1100 230/16 RMK AO2 T00560022 TSNO $
14756KACK ACK20160130222011601/30/16 22:20:31  5-MIN KACK 310320Z AUTO 21015KT 10SM CLR 06/02 A3001 -30 79 -1100 230/15 RMK AO2 T00560022 TSNO $
14756KACK ACK20160130222511601/30/16 22:25:31  5-MIN KACK 310325Z AUTO 21014KT 10SM CLR 06/03 A3001 -30 82 -1100 230/14 RMK AO2 T00560028 TSNO $
14756KACK ACK20160130223011601/30/16 22:30:31  5-MIN KACK 310330Z AUTO 22015KT 10SM CLR 06/03 A3001 -30 82 -1100 230/15 RMK AO2 T00560028 TSNO $
14756KACK ACK20160130223511601/30/16 22:35:31  5-MIN KACK 310335Z AUTO 22016KT 10SM CLR 06/03 A3001 -30 82 -1100 230/16 RMK AO2 T00560028 TSNO $
14756KACK ACK20160130224011601/30/16 22:40:31  5-MIN KACK 310340Z AUTO 22015KT 10SM CLR 06/03 A3001 -30 82 -1100 230/15 RMK AO2 T00560028 TSNO $
14756KACK ACK20160130224511601/30/16 22:45:31  5-MIN KACK 310345Z AUTO 22015KT 10SM CLR 06/03 A3001 -30 79 -1000 230/15 RMK AO2 T00610028 TSNO $
14756KACK ACK20160130225012301/30/16 22:50:31  5-MIN KACK 310350Z AUTO 22016KT 10SM CLR 06/03 A3001 -20 79 -1000 230/16 RMK AO2 SLP160 T00610028 TSNO $
14756KACK ACK20160130225511601/30/16 22:55:31  5-MIN KACK 310355Z AUTO 21016KT 10SM CLR 06/03 A3000 -20 79 -1000 230/16 RMK AO2 T00610028 TSNO $
14756KACK ACK20160130230011601/30/16 23:00:31  5-MIN KACK 310400Z AUTO 21014KT 10SM CLR 06/03 A3000 -20 79 -1000 230/14 RMK AO2 T00610028 TSNO $
14756KACK ACK20160130230511601/30/16 23:05:31  5-MIN KACK 310405Z AUTO 21015KT 10SM CLR 06/03 A3000 -20 79 -1000 230/15 RMK AO2 T00610028 TSNO $
14756KACK ACK20160130231011601/30/16 23:10:31  5-MIN KACK 310410Z AUTO 21015KT 10SM CLR 06/03 A3000 -20 79 -1000 230/15 RMK AO2 T00610028 TSNO $
14756KACK ACK20160130231511601/30/16 23:15:31  5-MIN KACK 310415Z AUTO 22014KT 10SM CLR 06/03 A3001 -20 79 -1000 230/14 RMK AO2 T00610028 TSNO $
14756KACK ACK20160130232011601/30/16 23:20:31  5-MIN KACK 310420Z AUTO 22015KT 10SM CLR 06/03 A3000 -20 79 -1000 230/15 RMK AO2 T00610028 TSNO $
14756KACK ACK20160130232511601/30/16 23:25:31  5-MIN KACK 310425Z AUTO 22015KT 10SM CLR 06/03 A3001 -30 79 -1000 240/15 RMK AO2 T00610028 TSNO $
14756KACK ACK20160130233011601/30/16 23:30:31  5-MIN KACK 310430Z AUTO 22016KT 10SM CLR 06/03 A3001 -30 79 -1000 240/16 RMK AO2 T00610028 TSNO $
14756KACK ACK20160130233511601/30/16 23:35:31  5-MIN KACK 310435Z AUTO 22016KT 10SM CLR 06/03 A3001 -30 79 -1000 240/16 RMK AO2 T00610028 TSNO $
14756KACK ACK20160130234011601/30/16 23:40:31  5-MIN KACK 310440Z AUTO 22017KT 10SM CLR 06/03 A3000 -20 79 -1000 230/17 RMK AO2 T00610028 TSNO $
14756KACK ACK20160130234511601/30/16 23:45:31  5-MIN KACK 310445Z AUTO 22017KT 10SM CLR 06/03 A3000 -20 79 -1000 240/17 RMK AO2 T00610028 TSNO $
14756KACK ACK20160130235013301/30/16 23:50:31  5-MIN KACK 310450Z AUTO 22018KT 10SM CLR 06/03 A3000 -20 82 -1000 240/18 RMK AO2 SLP159 T00610033 400610011 TSNO $
14756KACK ACK20160130235511601/30/16 23:55:31  5-MIN KACK 310455Z AUTO 22015KT 10SM CLR 06/03 A3000 -20 79 -1000 230/15 RMK AO2 T00610028 TSNO $
14756KACK ACK20160131000011601/31/16 00:00:31  5-MIN KACK 310500Z AUTO 22016KT 10SM CLR 06/03 A3000 -20 79 -1000 230/16 RMK AO2 T00610028 TSNO $
14756KACK ACK20160131000511601/31/16 00:05:31  5-MIN KACK 310505Z AUTO 22016KT 10SM CLR 06/03 A2999 -10 82 -1000 230/16 RMK AO2 T00610033 TSNO $
14756KACK ACK20160131001011601/31/16 00:10:31  5-MIN KACK 310510Z AUTO 22016KT 10SM CLR 06/03 A3000 -20 79 -1000 230/16 RMK AO2 T00610028 TSNO $
14756KACK ACK20160131001511601/31/16 00:15:31  5-MIN KACK 310515Z AUTO 22016KT 10SM CLR 06/03 A3000 -20 79 -1000 240/16 RMK AO2 T00610028 TSNO $
14756KACK ACK20160131002011601/31/16 00:20:31  5-MIN KACK 310520Z AUTO 22015KT 10SM CLR 06/03 A3000 -20 79 -1000 240/15 RMK AO2 T00610028 TSNO $
14756KACK ACK20160131002511601/31/16 00:25:31  5-MIN KACK 310525Z AUTO 23016KT 10SM CLR 06/03 A3000 -20 79 -1000 240/16 RMK AO2 T00610028 TSNO $
14756KACK ACK20160131003011601/31/16 00:30:31  5-MIN KACK 310530Z AUTO 23014KT 10SM CLR 06/03 A3000 -20 79 -1000 240/14 RMK AO2 T00610028 TSNO $
14756KACK ACK20160131003511601/31/16 00:35:31  5-MIN KACK 310535Z AUTO 22015KT 10SM CLR 06/03 A3000 -20 79 -1000 240/15 RMK AO2 T00610028 TSNO $
14756KACK ACK20160131004011601/31/16 00:40:31  5-MIN KACK 310540Z AUTO 22015KT 10SM CLR 06/03 A2999 -10 79 -1000 240/15 RMK AO2 T00610028 TSNO $
14756KACK ACK20160131004511601/31/16 00:45:31  5-MIN KACK 310545Z AUTO 22016KT 10SM CLR 06/02 A2999 -10 76 -1000 240/16 RMK AO2 T00610022 TSNO $
14756KACK ACK20160131005014101/31/16 00:50:31  5-MIN KACK 310550Z AUTO 22015KT 10SM CLR 06/02 A2999 -10 76 -1000 240/15 RMK AO2 SLP155 T00610022 10061 20044 58005 TSNO $
14756KACK ACK20160131005511601/31/16 00:55:31  5-MIN KACK 310555Z AUTO 22016KT 10SM CLR 06/02 A2999 -10 76 -1000 240/16 RMK AO2 T00610022 TSNO $
14756KACK ACK20160131010011501/31/16 01:00:31  5-MIN KACK 310600Z AUTO 22016KT 10SM CLR 07/03 A2999 -10 76 -900 240/16 RMK AO2 T00670028 TSNO $
14756KACK ACK20160131010511301/31/16 01:05:31  5-MIN KACK 310605Z AUTO 22016KT 10SM CLR 07/03 A2998 0 76 -900 240/16 RMK AO2 T00670028 TSNO $
14756KACK ACK20160131011011501/31/16 01:10:31  5-MIN KACK 310610Z AUTO 22015KT 10SM CLR 07/03 A2999 -10 76 -900 240/15 RMK AO2 T00670028 TSNO $
14756KACK ACK20160131011511501/31/16 01:15:31  5-MIN KACK 310615Z AUTO 22016KT 10SM CLR 07/03 A2999 -10 76 -900 240/16 RMK AO2 T00670028 TSNO $
14756KACK ACK20160131012011501/31/16 01:20:31  5-MIN KACK 310620Z AUTO 22015KT 10SM CLR 07/03 A2999 -10 76 -900 240/15 RMK AO2 T00670028 TSNO $
14756KACK ACK20160131012511501/31/16 01:25:31  5-MIN KACK 310625Z AUTO 22015KT 10SM CLR 07/03 A2999 -10 76 -900 240/15 RMK AO2 T00670028 TSNO $
14756KACK ACK20160131013011501/31/16 01:30:31  5-MIN KACK 310630Z AUTO 22016KT 10SM CLR 07/03 A2999 -10 76 -900 240/16 RMK AO2 T00670028 TSNO $
14756KACK ACK20160131013511501/31/16 01:35:31  5-MIN KACK 310635Z AUTO 23015KT 10SM CLR 07/03 A2999 -10 76 -900 240/15 RMK AO2 T00670028 TSNO $
14756KACK ACK20160131014011501/31/16 01:40:31  5-MIN KACK 310640Z AUTO 23014KT 9SM CLR 06/03 A2999 -10 79 -1000 240/14 RMK AO2 T00610028 TSNO $
14756KACK ACK20160131014511401/31/16 01:45:31  5-MIN KACK 310645Z AUTO 23013KT 9SM CLR 07/03 A2999 -10 76 -900 240/13 RMK AO2 T00670028 TSNO $
14756KACK ACK20160131015012101/31/16 01:50:31  5-MIN KACK 310650Z AUTO 23014KT 9SM CLR 07/03 A2999 -10 76 -900 240/14 RMK AO2 SLP156 T00670028 TSNO $
14756KACK ACK20160131015511501/31/16 01:55:31  5-MIN KACK 310655Z AUTO 23014KT 9SM CLR 06/03 A3000 -20 79 -1000 250/14 RMK AO2 T00610028 TSNO $
14756KACK ACK20160131020011501/31/16 02:00:31  5-MIN KACK 310700Z AUTO 23014KT 9SM CLR 06/03 A2999 -10 79 -1000 250/14 RMK AO2 T00610028 TSNO $
14756KACK ACK20160131020511501/31/16 02:05:31  5-MIN KACK 310705Z AUTO 23015KT 9SM CLR 06/03 A2999 -10 79 -1000 250/15 RMK AO2 T00610028 TSNO $
14756KACK ACK20160131021011501/31/16 02:10:31  5-MIN KACK 310710Z AUTO 23015KT 9SM CLR 06/03 A2999 -10 79 -1000 250/15 RMK AO2 T00610028 TSNO $
14756KACK ACK20160131021511401/31/16 02:15:31  5-MIN KACK 310715Z AUTO 23015KT 9SM CLR 07/03 A2999 -10 76 -900 250/15 RMK AO2 T00670028 TSNO $
14756KACK ACK20160131022011401/31/16 02:20:31  5-MIN KACK 310720Z AUTO 23015KT 9SM CLR 07/03 A2999 -10 76 -900 250/15 RMK AO2 T00670028 TSNO $
14756KACK ACK20160131022511401/31/16 02:25:31  5-MIN KACK 310725Z AUTO 23015KT 9SM CLR 07/03 A3000 -10 76 -900 250/15 RMK AO2 T00670028 TSNO $
14756KACK ACK20160131023011401/31/16 02:30:31  5-MIN KACK 310730Z AUTO 23015KT 9SM CLR 07/03 A2999 -10 76 -900 240/15 RMK AO2 T00670028 TSNO $
14756KACK ACK20160131023511401/31/16 02:35:31  5-MIN KACK 310735Z AUTO 23014KT 9SM CLR 07/03 A3000 -20 76 -900 250/14 RMK AO2 T00670028 TSNO $
14756KACK ACK20160131024011401/31/16 02:40:31  5-MIN KACK 310740Z AUTO 23013KT 9SM CLR 07/03 A3000 -20 76 -900 250/13 RMK AO2 T00670028 TSNO $
14756KACK ACK20160131024511401/31/16 02:45:31  5-MIN KACK 310745Z AUTO 23013KT 9SM CLR 07/03 A3000 -20 76 -900 250/13 RMK AO2 T00670028 TSNO $
14756KACK ACK20160131025012101/31/16 02:50:31  5-MIN KACK 310750Z AUTO 23013KT 9SM CLR 07/03 A3000 -20 76 -900 250/13 RMK AO2 SLP158 T00670028 TSNO $
14756KACK ACK20160131025511401/31/16 02:55:31  5-MIN KACK 310755Z AUTO 23013KT 8SM CLR 07/03 A2999 -10 76 -900 250/13 RMK AO2 T00670028 TSNO $
14756KACK ACK20160131030011501/31/16 03:00:31  5-MIN KACK 310800Z AUTO 23012KT 8SM CLR 06/03 A2999 -10 79 -1000 240/12 RMK AO2 T00610028 TSNO $
14756KACK ACK20160131030511501/31/16 03:05:31  5-MIN KACK 310805Z AUTO 23012KT 8SM CLR 06/03 A2999 -10 79 -1000 240/12 RMK AO2 T00610028 TSNO $
14756KACK ACK20160131031011401/31/16 03:10:31  5-MIN KACK 310810Z AUTO 23012KT 9SM CLR 07/03 A2999 -10 76 -900 240/12 RMK AO2 T00670028 TSNO $
14756KACK ACK20160131031511401/31/16 03:15:31  5-MIN KACK 310815Z AUTO 22012KT 9SM CLR 07/03 A2999 -10 76 -900 240/12 RMK AO2 T00670028 TSNO $
14756KACK ACK20160131032011401/31/16 03:20:31  5-MIN KACK 310820Z AUTO 22013KT 9SM CLR 07/03 A2999 -10 79 -900 240/13 RMK AO2 T00670033 TSNO $
14756KACK ACK20160131032511401/31/16 03:25:31  5-MIN KACK 310825Z AUTO 23012KT 9SM CLR 07/03 A2999 -10 79 -900 240/12 RMK AO2 T00670033 TSNO $
14756KACK ACK20160131033011501/31/16 03:30:31  5-MIN KACK 310830Z AUTO 23011KT 9SM CLR 06/03 A2999 -10 82 -1000 240/11 RMK AO2 T00610033 TSNO $
14756KACK ACK20160131033511501/31/16 03:35:31  5-MIN KACK 310835Z AUTO 23011KT 8SM CLR 06/03 A2999 -10 82 -1000 240/11 RMK AO2 T00610033 TSNO $
14756KACK ACK20160131034011401/31/16 03:40:31  5-MIN KACK 310840Z AUTO 23011KT 8SM CLR 07/03 A2999 -10 79 -900 240/11 RMK AO2 T00670033 TSNO $
14756KACK ACK20160131034511401/31/16 03:45:31  5-MIN KACK 310845Z AUTO 22011KT 8SM CLR 07/03 A2999 -10 79 -900 240/11 RMK AO2 T00670033 TSNO $
14756KACK ACK20160131035012701/31/16 03:50:31  5-MIN KACK 310850Z AUTO 22011KT 9SM CLR 07/03 A2999 -10 79 -900 240/11 RMK AO2 SLP154 T00670033 56011 TSNO $
14756KACK ACK20160131035511201/31/16 03:55:31  5-MIN KACK 310855Z AUTO 22011KT 9SM CLR 07/03 A2998 0 79 -900 240/11 RMK AO2 T00670033 TSNO $
14756KACK ACK20160131040011201/31/16 04:00:31  5-MIN KACK 310900Z AUTO 22011KT 9SM CLR 07/03 A2998 0 79 -900 240/11 RMK AO2 T00670033 TSNO $
14756KACK ACK20160131040511201/31/16 04:05:31  5-MIN KACK 310905Z AUTO 22011KT 9SM CLR 07/03 A2998 0 79 -900 230/11 RMK AO2 T00670033 TSNO $
14756KACK ACK20160131041011201/31/16 04:10:31  5-MIN KACK 310910Z AUTO 22011KT 9SM CLR 07/03 A2998 0 79 -900 230/11 RMK AO2 T00670033 TSNO $
14756KACK ACK20160131041511201/31/16 04:15:31  5-MIN KACK 310915Z AUTO 22011KT 9SM CLR 07/03 A2998 0 79 -900 230/11 RMK AO2 T00670033 TSNO $
14756KACK ACK20160131042011201/31/16 04:20:31  5-MIN KACK 310920Z AUTO 22011KT 9SM CLR 07/03 A2998 0 79 -900 230/11 RMK AO2 T00670033 TSNO $
14756KACK ACK20160131042511201/31/16 04:25:31  5-MIN KACK 310925Z AUTO 22012KT 9SM CLR 07/03 A2998 0 79 -900 230/12 RMK AO2 T00670033 TSNO $
14756KACK ACK20160131043011201/31/16 04:30:31  5-MIN KACK 310930Z AUTO 22012KT 9SM CLR 07/03 A2998 0 79 -900 230/12 RMK AO2 T00670033 TSNO $
14756KACK ACK20160131043511201/31/16 04:35:31  5-MIN KACK 310935Z AUTO 22011KT 9SM CLR 07/04 A2998 0 82 -900 230/11 RMK AO2 T00670039 TSNO $
14756KACK ACK20160131044011201/31/16 04:40:31  5-MIN KACK 310940Z AUTO 21012KT 8SM CLR 07/04 A2998 0 82 -900 230/12 RMK AO2 T00670039 TSNO $
14756KACK ACK20160131044511201/31/16 04:45:31  5-MIN KACK 310945Z AUTO 22012KT 8SM CLR 07/04 A2998 0 82 -900 230/12 RMK AO2 T00670039 TSNO $
14756KACK ACK20160131045011901/31/16 04:50:31  5-MIN KACK 310950Z AUTO 21012KT 8SM CLR 07/04 A2998 0 82 -900 230/12 RMK AO2 SLP152 T00670039 TSNO $
14756KACK ACK20160131045511201/31/16 04:55:31  5-MIN KACK 310955Z AUTO 21012KT 8SM CLR 07/04 A2998 0 82 -900 230/12 RMK AO2 T00670039 TSNO $
14756KACK ACK20160131050011201/31/16 05:00:31  5-MIN KACK 311000Z AUTO 21012KT 8SM CLR 07/04 A2998 0 82 -900 230/12 RMK AO2 T00670039 TSNO $
14756KACK ACK20160131050511201/31/16 05:05:31  5-MIN KACK 311005Z AUTO 21011KT 8SM CLR 07/04 A2998 0 82 -900 230/11 RMK AO2 T00670039 TSNO $
14756KACK ACK20160131051011201/31/16 05:10:31  5-MIN KACK 311010Z AUTO 21012KT 8SM CLR 07/04 A2998 0 82 -900 230/12 RMK AO2 T00670039 TSNO $
14756KACK ACK20160131051511201/31/16 05:15:31  5-MIN KACK 311015Z AUTO 21012KT 8SM CLR 07/04 A2997 0 82 -900 220/12 RMK AO2 T00670039 TSNO $
14756KACK ACK20160131052011201/31/16 05:20:31  5-MIN KACK 311020Z AUTO 21012KT 8SM CLR 07/04 A2997 0 82 -900 220/12 RMK AO2 T00670039 TSNO $
14756KACK ACK20160131052511201/31/16 05:25:31  5-MIN KACK 311025Z AUTO 21012KT 8SM CLR 07/04 A2997 0 82 -900 220/12 RMK AO2 T00670039 TSNO $
14756KACK ACK20160131053011201/31/16 05:30:31  5-MIN KACK 311030Z AUTO 21012KT 8SM CLR 07/04 A2997 0 82 -900 220/12 RMK AO2 T00670039 TSNO $
14756KACK ACK20160131053511201/31/16 05:35:31  5-MIN KACK 311035Z AUTO 21011KT 8SM CLR 07/04 A2998 0 82 -900 220/11 RMK AO2 T00670039 TSNO $
14756KACK ACK20160131054011201/31/16 05:40:31  5-MIN KACK 311040Z AUTO 21011KT 8SM CLR 07/04 A2998 0 82 -900 230/11 RMK AO2 T00670039 TSNO $
14756KACK ACK20160131054511201/31/16 05:45:31  5-MIN KACK 311045Z AUTO 21012KT 9SM CLR 07/04 A2998 0 82 -900 230/12 RMK AO2 T00670039 TSNO $
14756KACK ACK20160131055010901/31/16 05:50:31  5-MIN KACK 311050Z 21014KT 9SM CLR 07/04 A2997 0 82 -900 220/14 RMK AO2 SLP150 T00670039 $
14756KACK ACK20160131055510201/31/16 05:55:31  5-MIN KACK 311055Z 21013KT 9SM CLR 07/04 A2998 0 82 -900 220/13 RMK AO2 T00670039 $
14756KACK ACK20160131060010201/31/16 06:00:31  5-MIN KACK 311100Z 21013KT 9SM CLR 07/04 A2998 0 82 -900 220/13 RMK AO2 T00670039 $
14756KACK ACK20160131060510201/31/16 06:05:31  5-MIN KACK 311105Z 21013KT 9SM CLR 07/04 A2998 0 82 -900 230/13 RMK AO2 T00670039 $
14756KACK ACK20160131061010201/31/16 06:10:31  5-MIN KACK 311110Z 21013KT 9SM CLR 07/04 A2998 0 82 -900 230/13 RMK AO2 T00670039 $
14756KACK ACK20160131061510201/31/16 06:15:31  5-MIN KACK 311115Z 21013KT 9SM CLR 07/04 A2998 0 82 -900 220/13 RMK AO2 T00670039 $
14756KACK ACK20160131062010201/31/16 06:20:31  5-MIN KACK 311120Z 21013KT 9SM CLR 07/04 A2998 0 82 -900 220/13 RMK AO2 T00670039 $
14756KACK ACK20160131062510201/31/16 06:25:31  5-MIN KACK 311125Z 21013KT 9SM CLR 07/04 A2998 0 82 -900 220/13 RMK AO2 T00670039 $
14756KACK ACK20160131063010201/31/16 06:30:31  5-MIN KACK 311130Z 21013KT 9SM CLR 07/04 A2998 0 82 -900 230/13 RMK AO2 T00670039 $
14756KACK ACK20160131063510201/31/16 06:35:31  5-MIN KACK 311135Z 21013KT 9SM CLR 07/04 A2998 0 79 -900 230/13 RMK AO2 T00720039 $
14756KACK ACK20160131064010201/31/16 06:40:31  5-MIN KACK 311140Z 21014KT 9SM CLR 07/04 A2998 0 79 -900 230/14 RMK AO2 T00720039 $
14756KACK ACK20160131064510201/31/16 06:45:31  5-MIN KACK 311145Z 21014KT 9SM CLR 07/04 A2998 0 79 -900 230/14 RMK AO2 T00720039 $
14756KACK ACK20160131065012701/31/16 06:50:31  5-MIN KACK 311150Z 21014KT 9SM CLR 07/04 A2998 0 79 -900 230/14 RMK AO2 SLP151 T00720039 10072 20061 58001 $
14756KACK ACK20160131065510201/31/16 06:55:31  5-MIN KACK 311155Z 21013KT 9SM CLR 07/04 A2998 0 79 -900 230/13 RMK AO2 T00720039 $
14756KACK ACK20160131070010201/31/16 07:00:31  5-MIN KACK 311200Z 21014KT 8SM CLR 07/04 A2998 0 79 -900 230/14 RMK AO2 T00720039 $
14756KACK ACK20160131070510201/31/16 07:05:31  5-MIN KACK 311205Z 22014KT 8SM CLR 07/04 A2998 0 79 -900 230/14 RMK AO2 T00720039 $
14756KACK ACK20160131071010201/31/16 07:10:31  5-MIN KACK 311210Z 22013KT 8SM CLR 07/04 A2998 0 79 -900 230/13 RMK AO2 T00720039 $
14756KACK ACK20160131071510201/31/16 07:15:31  5-MIN KACK 311215Z 21014KT 8SM CLR 07/04 A2998 0 79 -900 230/14 RMK AO2 T00720039 $
14756KACK ACK20160131072010201/31/16 07:20:31  5-MIN KACK 311220Z 21013KT 8SM CLR 07/04 A2998 0 79 -900 230/13 RMK AO2 T00720039 $
14756KACK ACK20160131072510201/31/16 07:25:31  5-MIN KACK 311225Z 21013KT 8SM CLR 07/04 A2998 0 79 -900 230/13 RMK AO2 T00720039 $
14756KACK ACK20160131073010201/31/16 07:30:31  5-MIN KACK 311230Z 21013KT 8SM CLR 07/04 A2998 0 79 -800 230/13 RMK AO2 T00720039 $
14756KACK ACK20160131073510201/31/16 07:35:31  5-MIN KACK 311235Z 21013KT 8SM CLR 07/04 A2998 0 79 -900 230/13 RMK AO2 T00720039 $
14756KACK ACK20160131074010201/31/16 07:40:31  5-MIN KACK 311240Z 21014KT 8SM CLR 07/04 A2998 0 79 -900 230/14 RMK AO2 T00720039 $
14756KACK ACK20160131074510201/31/16 07:45:31  5-MIN KACK 311245Z 21014KT 8SM CLR 07/04 A2998 0 79 -900 230/14 RMK AO2 T00720039 $
14756KACK ACK20160131075010901/31/16 07:50:31  5-MIN KACK 311250Z 21014KT 8SM CLR 07/04 A2998 0 79 -900 230/14 RMK AO2 SLP153 T00720039 $
14756KACK ACK20160131075510401/31/16 07:55:31  5-MIN KACK 311255Z 22013KT 8SM CLR 07/04 A2999 -10 79 -900 230/13 RMK AO2 T00720039 $
14756KACK ACK20160131080010401/31/16 08:00:31  5-MIN KACK 311300Z 22014KT 8SM CLR 08/04 A2998 -10 76 -800 230/14 RMK AO2 T00780039 $
14756KACK ACK20160131080510401/31/16 08:05:31  5-MIN KACK 311305Z 22013KT 8SM CLR 08/04 A2999 -10 79 -800 230/13 RMK AO2 T00780044 $
14756KACK ACK20160131081010401/31/16 08:10:31  5-MIN KACK 311310Z 22014KT 8SM CLR 08/04 A2999 -10 79 -800 230/14 RMK AO2 T00780044 $
14756KACK ACK20160131081510401/31/16 08:15:31  5-MIN KACK 311315Z 22014KT 9SM CLR 08/04 A2999 -10 76 -800 230/14 RMK AO2 T00780039 $
14756KACK ACK20160131082010201/31/16 08:20:31  5-MIN KACK 311320Z 22013KT 9SM CLR 08/04 A2998 0 73 -700 230/13 RMK AO2 T00830039 $
14756KACK ACK20160131082510201/31/16 08:25:31  5-MIN KACK 311325Z 22013KT 9SM CLR 08/04 A2998 0 76 -800 230/13 RMK AO2 T00780039 $
14756KACK ACK20160131083010201/31/16 08:30:31  5-MIN KACK 311330Z 22012KT 9SM CLR 08/04 A2998 0 76 -700 230/12 RMK AO2 T00830044 $
14756KACK ACK20160131083510201/31/16 08:35:31  5-MIN KACK 311335Z 22013KT 9SM CLR 08/04 A2998 0 76 -700 230/13 RMK AO2 T00830044 $
14756KACK ACK20160131084010401/31/16 08:40:31  5-MIN KACK 311340Z 22013KT 9SM CLR 09/04 A2998 -10 73 -700 230/13 RMK AO2 T00890044 $
14756KACK ACK20160131084510401/31/16 08:45:31  5-MIN KACK 311345Z 22014KT 9SM CLR 09/04 A2999 -10 73 -700 240/14 RMK AO2 T00890044 $
14756KACK ACK20160131085011101/31/16 08:50:31  5-MIN KACK 311350Z 22012KT 9SM CLR 08/04 A2999 -10 76 -700 230/12 RMK AO2 SLP154 T00830044 $
14756KACK ACK20160131085510401/31/16 08:55:31  5-MIN KACK 311355Z 22012KT 9SM CLR 08/04 A2998 -10 76 -700 230/12 RMK AO2 T00830044 $
14756KACK ACK20160131090010201/31/16 09:00:31  5-MIN KACK 311400Z 22011KT 9SM CLR 08/04 A2998 0 76 -700 230/11 RMK AO2 T00830044 $
14756KACK ACK20160131090510201/31/16 09:05:31  5-MIN KACK 311405Z 22011KT 8SM CLR 08/04 A2998 0 76 -700 230/11 RMK AO2 T00830044 $
14756KACK ACK20160131091010201/31/16 09:10:31  5-MIN KACK 311410Z 22012KT 8SM CLR 08/04 A2998 0 76 -700 230/12 RMK AO2 T00830044 $
14756KACK ACK20160131091510201/31/16 09:15:31  5-MIN KACK 311415Z 22011KT 8SM CLR 09/04 A2998 0 73 -600 230/11 RMK AO2 T00890044 $
14756KACK ACK20160131092010201/31/16 09:20:31  5-MIN KACK 311420Z 22012KT 9SM CLR 09/05 A2998 0 76 -700 230/12 RMK AO2 T00890050 $
14756KACK ACK20160131092510401/31/16 09:25:31  5-MIN KACK 311425Z 22011KT 9SM CLR 09/05 A2998 -10 74 -600 240/11 RMK AO2 T00940050 $
14756KACK ACK20160131093010401/31/16 09:30:31  5-MIN KACK 311430Z 22012KT 9SM CLR 09/05 A2999 -10 74 -600 240/12 RMK AO2 T00940050 $
14756KACK ACK20160131093510401/31/16 09:35:31  5-MIN KACK 311435Z 22012KT 9SM CLR 09/05 A2999 -10 76 -700 240/12 RMK AO2 T00890050 $
14756KACK ACK20160131094010401/31/16 09:40:31  5-MIN KACK 311440Z 22012KT 9SM CLR 09/05 A2999 -10 76 -700 230/12 RMK AO2 T00890050 $
14756KACK ACK20160131094510401/31/16 09:45:31  5-MIN KACK 311445Z 22012KT 9SM CLR 09/05 A2999 -10 76 -700 240/12 RMK AO2 T00890050 $
14756KACK ACK20160131095011701/31/16 09:50:31  5-MIN KACK 311450Z 22012KT 8SM CLR 09/04 A2999 -10 73 -700 230/12 RMK AO2 SLP155 T00890044 55002 $
14756KACK ACK20160131095510401/31/16 09:55:31  5-MIN KACK 311455Z 22011KT 8SM CLR 08/04 A2999 -10 76 -700 230/11 RMK AO2 T00830044 $
14756KACK ACK20160131100010401/31/16 10:00:31  5-MIN KACK 311500Z 22010KT 8SM CLR 08/05 A2999 -10 79 -700 240/10 RMK AO2 T00830050 $
14756KACK ACK20160131100510401/31/16 10:05:31  5-MIN KACK 311505Z 22010KT 8SM CLR 09/05 A2999 -10 76 -700 230/10 RMK AO2 T00890050 $
14756KACK ACK20160131101010201/31/16 10:10:31  5-MIN KACK 311510Z 22011KT 8SM CLR 09/05 A2998 0 76 -700 230/11 RMK AO2 T00890050 $
14756KACK ACK20160131101510201/31/16 10:15:31  5-MIN KACK 311515Z 22012KT 8SM CLR 09/05 A2998 0 74 -600 240/12 RMK AO2 T00940050 $
14756KACK ACK20160131102010401/31/16 10:20:31  5-MIN KACK 311520Z 23011KT 8SM CLR 10/06 A2999 -10 74 -500 240/11 RMK AO2 T01000056 $
14756KACK ACK20160131102510201/31/16 10:25:31  5-MIN KACK 311525Z 23012KT 8SM CLR 09/06 A2998 0 76 -600 240/12 RMK AO2 T00940056 $
14756KACK ACK20160131103010201/31/16 10:30:31  5-MIN KACK 311530Z 23011KT 8SM CLR 09/06 A2998 0 76 -600 240/11 RMK AO2 T00940056 $
14756KACK ACK20160131103510201/31/16 10:35:31  5-MIN KACK 311535Z 22011KT 8SM CLR 10/06 A2998 0 74 -500 240/11 RMK AO2 T01000056 $
14756KACK ACK20160131104010201/31/16 10:40:31  5-MIN KACK 311540Z 22010KT 8SM CLR 09/05 A2997 0 76 -600 240/10 RMK AO2 T00890050 $
14756KACK ACK20160131104510301/31/16 10:45:31  5-MIN KACK 311545Z 22011KT 8SM CLR 09/05 A2997 10 76 -600 230/11 RMK AO2 T00890050 $
14756KACK ACK20160131105011001/31/16 10:50:31  5-MIN KACK 311550Z 22011KT 8SM CLR 09/05 A2997 10 76 -600 230/11 RMK AO2 SLP147 T00890050 $
14756KACK ACK20160131105510301/31/16 10:55:31  5-MIN KACK 311555Z 22011KT 8SM CLR 09/06 A2996 10 76 -600 230/11 RMK AO2 T00940056 $
14756KACK ACK20160131110010301/31/16 11:00:31  5-MIN KACK 311600Z 22011KT 8SM CLR 10/06 A2997 10 74 -500 230/11 RMK AO2 T01000056 $
14756KACK ACK20160131110510301/31/16 11:05:31  5-MIN KACK 311605Z 22011KT 8SM CLR 09/06 A2996 10 76 -600 230/11 RMK AO2 T00940056 $
14756KACK ACK20160131111010301/31/16 11:10:31  5-MIN KACK 311610Z 21011KT 8SM CLR 09/05 A2996 10 76 -600 230/11 RMK AO2 T00890050 $
14756KACK ACK20160131111510301/31/16 11:15:31  5-MIN KACK 311615Z 21010KT 8SM CLR 09/06 A2995 20 76 -600 230/10 RMK AO2 T00940056 $
14756KACK ACK20160131112010301/31/16 11:20:31  5-MIN KACK 311620Z 21011KT 8SM CLR 10/06 A2995 20 74 -500 230/11 RMK AO2 T01000056 $
14756KACK ACK20160131112510301/31/16 11:25:31  5-MIN KACK 311625Z 21010KT 9SM CLR 09/06 A2995 20 76 -500 230/10 RMK AO2 T00940056 $
14756KACK ACK20160131113010301/31/16 11:30:31  5-MIN KACK 311630Z 22010KT 9SM CLR 10/06 A2995 20 74 -500 230/10 RMK AO2 T01000056 $
14756KACK ACK20160131113510301/31/16 11:35:31  5-MIN KACK 311635Z 22011KT 9SM CLR 10/06 A2995 20 74 -500 230/11 RMK AO2 T01000056 $
14756KACK ACK20160131114010301/31/16 11:40:31  5-MIN KACK 311640Z 22011KT 9SM CLR 09/05 A2995 20 74 -500 240/11 RMK AO2 T00940050 $
14756KACK ACK20160131114510301/31/16 11:45:31  5-MIN KACK 311645Z 23010KT 9SM CLR 10/05 A2995 30 71 -500 240/10 RMK AO2 T01000050 $
14756KACK ACK20160131115011001/31/16 11:50:31  5-MIN KACK 311650Z 22011KT 9SM CLR 10/05 A2994 30 71 -500 240/11 RMK AO2 SLP140 T01000050 $
14756KACK ACK20160131115510301/31/16 11:55:31  5-MIN KACK 311655Z 22012KT 9SM CLR 09/05 A2994 30 74 -500 230/12 RMK AO2 T00940050 $
14756KACK ACK20160131120010301/31/16 12:00:31  5-MIN KACK 311700Z 22012KT 9SM CLR 09/05 A2994 30 74 -500 240/12 RMK AO2 T00940050 $
14756KACK ACK20160131120510301/31/16 12:05:31  5-MIN KACK 311705Z 22011KT 9SM CLR 09/05 A2994 30 74 -500 230/11 RMK AO2 T00940050 $
14756KACK ACK20160131121010301/31/16 12:10:31  5-MIN KACK 311710Z 23010KT 9SM CLR 10/05 A2994 30 71 -500 240/10 RMK AO2 T01000050 $
14756KACK ACK20160131121510301/31/16 12:15:31  5-MIN KACK 311715Z 22010KT 9SM CLR 10/06 A2994 30 74 -500 240/10 RMK AO2 T01000056 $
14756KACK ACK20160131122010301/31/16 12:20:31  5-MIN KACK 311720Z 22010KT 9SM CLR 09/06 A2994 30 76 -500 230/10 RMK AO2 T00940056 $
14756KACK ACK20160131122510301/31/16 12:25:31  5-MIN KACK 311725Z 22010KT 9SM CLR 09/05 A2994 30 74 -500 240/10 RMK AO2 T00940050 $
14756KACK ACK20160131123010301/31/16 12:30:31  5-MIN KACK 311730Z 22011KT 8SM CLR 09/05 A2994 30 74 -500 240/11 RMK AO2 T00940050 $
14756KACK ACK20160131123510301/31/16 12:35:31  5-MIN KACK 311735Z 23011KT 8SM CLR 09/05 A2994 40 74 -500 250/11 RMK AO2 T00940050 $
14756KACK ACK20160131124010301/31/16 12:40:31  5-MIN KACK 311740Z 23012KT 8SM CLR 09/05 A2993 40 76 -600 240/12 RMK AO2 T00890050 $
14756KACK ACK20160131124510301/31/16 12:45:31  5-MIN KACK 311745Z 22009KT 8SM CLR 09/05 A2992 50 76 -600 240/09 RMK AO2 T00890050 $
14756KACK ACK20160131125012801/31/16 12:50:31  5-MIN KACK 311750Z 22010KT 8SM CLR 09/05 A2992 50 76 -600 240/10 RMK AO2 SLP131 T00890050 10100 20072 51002 $
14756KACK ACK20160131125510301/31/16 12:55:31  5-MIN KACK 311755Z 23011KT 8SM CLR 09/05 A2992 50 74 -500 240/11 RMK AO2 T00940050 $
14756KACK ACK20160131130010301/31/16 13:00:31  5-MIN KACK 311800Z 21010KT 8SM CLR 09/05 A2991 60 76 -600 230/10 RMK AO2 T00890050 $
14756KACK ACK20160131130510301/31/16 13:05:31  5-MIN KACK 311805Z 22010KT 8SM CLR 09/05 A2991 60 76 -600 230/10 RMK AO2 T00890050 $
14756KACK ACK20160131131010301/31/16 13:10:31  5-MIN KACK 311810Z 22011KT 9SM CLR 10/06 A2991 60 74 -400 230/11 RMK AO2 T01000056 $
14756KACK ACK20160131131510301/31/16 13:15:31  5-MIN KACK 311815Z 22009KT 9SM CLR 09/05 A2991 60 74 -500 230/09 RMK AO2 T00940050 $
14756KACK ACK20160131132010301/31/16 13:20:31  5-MIN KACK 311820Z 23010KT 9SM CLR 10/06 A2991 60 74 -400 250/10 RMK AO2 T01000056 $
14756KACK ACK20160131132510301/31/16 13:25:31  5-MIN KACK 311825Z 23012KT 9SM CLR 10/06 A2991 60 74 -400 250/12 RMK AO2 T01000056 $
14756KACK ACK20160131133010301/31/16 13:30:31  5-MIN KACK 311830Z 23013KT 9SM CLR 09/05 A2991 60 74 -500 240/13 RMK AO2 T00940050 $
14756KACK ACK20160131133510301/31/16 13:35:31  5-MIN KACK 311835Z 23012KT 9SM CLR 09/05 A2991 60 74 -500 240/12 RMK AO2 T00940050 $
14756KACK ACK20160131134010301/31/16 13:40:31  5-MIN KACK 311840Z 23011KT 8SM CLR 09/05 A2990 70 74 -500 240/11 RMK AO2 T00940050 $
14756KACK ACK20160131134510301/31/16 13:45:31  5-MIN KACK 311845Z 23011KT 8SM CLR 09/06 A2991 60 76 -500 250/11 RMK AO2 T00940056 $
14756KACK ACK20160131135011001/31/16 13:50:31  5-MIN KACK 311850Z 23011KT 9SM CLR 09/06 A2990 60 76 -500 250/11 RMK AO2 SLP126 T00940056 $
14756KACK ACK20160131135510301/31/16 13:55:31  5-MIN KACK 311855Z 23012KT 8SM CLR 09/05 A2990 60 76 -600 250/12 RMK AO2 T00890050 $
14756KACK ACK20160131140010301/31/16 14:00:31  5-MIN KACK 311900Z 24011KT 7SM CLR 09/05 A2990 70 76 -600 250/11 RMK AO2 T00890050 $
14756KACK ACK20160131140510301/31/16 14:05:31  5-MIN KACK 311905Z 23012KT 7SM CLR 09/05 A2990 70 76 -600 250/12 RMK AO2 T00890050 $
14756KACK ACK20160131141010301/31/16 14:10:31  5-MIN KACK 311910Z 24012KT 7SM CLR 09/05 A2990 60 76 -600 250/12 RMK AO2 T00890050 $
14756KACK ACK20160131141510301/31/16 14:15:31  5-MIN KACK 311915Z 24011KT 7SM CLR 09/05 A2991 60 76 -600 250/11 RMK AO2 T00890050 $
14756KACK ACK20160131142010301/31/16 14:20:31  5-MIN KACK 311920Z 23012KT 7SM CLR 09/05 A2991 60 76 -600 250/12 RMK AO2 T00890050 $
14756KACK ACK20160131142510301/31/16 14:25:31  5-MIN KACK 311925Z 23011KT 7SM CLR 08/05 A2991 60 79 -600 250/11 RMK AO2 T00830050 $
14756KACK ACK20160131143010301/31/16 14:30:31  5-MIN KACK 311930Z 23010KT 7SM CLR 08/05 A2991 60 79 -600 240/10 RMK AO2 T00830050 $
14756KACK ACK20160131143510301/31/16 14:35:31  5-MIN KACK 311935Z 23010KT 8SM CLR 08/05 A2991 60 79 -600 250/10 RMK AO2 T00830050 $
14756KACK ACK20160131144010301/31/16 14:40:31  5-MIN KACK 311940Z 23010KT 8SM CLR 08/05 A2991 60 79 -600 240/10 RMK AO2 T00830050 $
14756KACK ACK20160131144510301/31/16 14:45:31  5-MIN KACK 311945Z 23009KT 8SM CLR 08/05 A2991 60 79 -600 240/09 RMK AO2 T00830050 $
14756KACK ACK20160131145012001/31/16 14:50:31  5-MIN KACK 311950Z AUTO 22009KT 8SM CLR 08/05 A2991 60 79 -600 230/09 RMK AO2 SLP126 T00830050 TSNO $
14756KACK ACK20160131145511301/31/16 14:55:31  5-MIN KACK 311955Z AUTO 20009KT 8SM CLR 08/05 A2990 70 79 -600 220/09 RMK AO2 T00830050 TSNO $
14756KACK ACK20160131150011301/31/16 15:00:31  5-MIN KACK 312000Z AUTO 20008KT 8SM CLR 08/05 A2990 70 82 -700 220/08 RMK AO2 T00780050 TSNO $
14756KACK ACK20160131150511301/31/16 15:05:31  5-MIN KACK 312005Z AUTO 21009KT 7SM CLR 08/05 A2990 70 82 -700 220/09 RMK AO2 T00780050 TSNO $
14756KACK ACK20160131151011301/31/16 15:10:31  5-MIN KACK 312010Z AUTO 21008KT 7SM CLR 08/05 A2990 70 82 -700 230/08 RMK AO2 T00780050 TSNO $
14756KACK ACK20160131151511301/31/16 15:15:31  5-MIN KACK 312015Z AUTO 23009KT 7SM CLR 08/05 A2990 60 82 -700 240/09 RMK AO2 T00780050 TSNO $
14756KACK ACK20160131152011301/31/16 15:20:31  5-MIN KACK 312020Z AUTO 22009KT 7SM CLR 08/06 A2991 60 82 -600 240/09 RMK AO2 T00830056 TSNO $
14756KACK ACK20160131152511301/31/16 15:25:31  5-MIN KACK 312025Z AUTO 22008KT 8SM CLR 08/06 A2991 60 82 -600 240/08 RMK AO2 T00830056 TSNO $
14756KACK ACK20160131153011301/31/16 15:30:31  5-MIN KACK 312030Z AUTO 22008KT 8SM CLR 08/05 A2991 60 79 -600 240/08 RMK AO2 T00830050 TSNO $
14756KACK ACK20160131153511301/31/16 15:35:31  5-MIN KACK 312035Z AUTO 22007KT 8SM CLR 08/06 A2991 60 82 -600 230/07 RMK AO2 T00830056 TSNO $
14756KACK ACK20160131154011301/31/16 15:40:31  5-MIN KACK 312040Z AUTO 21008KT 7SM CLR 08/06 A2990 60 82 -600 230/08 RMK AO2 T00830056 TSNO $
14756KACK ACK20160131154511301/31/16 15:45:31  5-MIN KACK 312045Z AUTO 21008KT 7SM CLR 08/06 A2990 60 86 -700 220/08 RMK AO2 T00780056 TSNO $
14756KACK ACK20160131155012601/31/16 15:50:31  5-MIN KACK 312050Z AUTO 22009KT 7SM CLR 08/05 A2991 60 82 -700 230/09 RMK AO2 SLP128 T00780050 58024 TSNO $
14756KACK ACK20160131155511301/31/16 15:55:31  5-MIN KACK 312055Z AUTO 23008KT 7SM CLR 08/06 A2991 60 82 -600 240/08 RMK AO2 T00830056 TSNO $
14756KACK ACK20160131160011301/31/16 16:00:31  5-MIN KACK 312100Z AUTO 22007KT 7SM CLR 08/06 A2991 60 86 -700 230/07 RMK AO2 T00780056 TSNO $
14756KACK ACK20160131160510301/31/16 16:05:31  5-MIN KACK 312105Z 22009KT 7SM CLR 08/05 A2991 60 82 -700 240/09 RMK AO2 T00780050 $
14756KACK ACK20160131161010301/31/16 16:10:31  5-MIN KACK 312110Z 22009KT 7SM CLR 08/05 A2991 60 82 -700 230/09 RMK AO2 T00780050 $
14756KACK ACK20160131161510301/31/16 16:15:31  5-MIN KACK 312115Z 22007KT 7SM CLR 07/05 A2991 60 86 -800 240/07 RMK AO2 T00720050 $
14756KACK ACK20160131162010601/31/16 16:20:31  5-MIN KACK 312120Z 22008KT 6SM BR CLR 07/05 A2991 60 86 -800 240/08 RMK AO2 T00720050 $
14756KACK ACK20160131162510601/31/16 16:25:31  5-MIN KACK 312125Z 22008KT 6SM BR CLR 07/05 A2991 60 86 -800 240/08 RMK AO2 T00720050 $
14756KACK ACK20160131163010601/31/16 16:30:31  5-MIN KACK 312130Z 23009KT 6SM BR CLR 07/05 A2991 50 86 -800 240/09 RMK AO2 T00720050 $
14756KACK ACK20160131163510601/31/16 16:35:31  5-MIN KACK 312135Z 23008KT 6SM BR CLR 07/05 A2991 60 86 -800 240/08 RMK AO2 T00720050 $
14756KACK ACK20160131164010601/31/16 16:40:31  5-MIN KACK 312140Z 23009KT 6SM BR CLR 07/05 A2991 60 86 -800 240/09 RMK AO2 T00720050 $
14756KACK ACK20160131164510601/31/16 16:45:31  5-MIN KACK 312145Z 23010KT 6SM BR CLR 07/05 A2991 50 86 -800 240/10 RMK AO2 T00720050 $
14756KACK ACK20160131165011301/31/16 16:50:31  5-MIN KACK 312150Z 23009KT 5SM BR CLR 07/05 A2991 60 86 -800 240/09 RMK AO2 SLP129 T00720050 $
14756KACK ACK20160131165510601/31/16 16:55:31  5-MIN KACK 312155Z 22009KT 6SM BR CLR 07/06 A2991 60 89 -800 240/09 RMK AO2 T00720056 $
14756KACK ACK20160131170010601/31/16 17:00:31  5-MIN KACK 312200Z 22009KT 6SM BR CLR 07/06 A2991 60 89 -800 240/09 RMK AO2 T00720056 $
14756KACK ACK20160131170510601/31/16 17:05:31  5-MIN KACK 312205Z 22009KT 6SM BR CLR 07/06 A2991 50 89 -800 240/09 RMK AO2 T00720056 $
14756KACK ACK20160131171010301/31/16 17:10:31  5-MIN KACK 312210Z 22009KT 7SM CLR 07/06 A2991 50 89 -800 230/09 RMK AO2 T00720056 $
14756KACK ACK20160131171510301/31/16 17:15:31  5-MIN KACK 312215Z 21011KT 8SM CLR 07/06 A2991 60 89 -800 230/11 RMK AO2 T00720056 $
14756KACK ACK20160131172010301/31/16 17:20:31  5-MIN KACK 312220Z 21011KT 8SM CLR 07/06 A2991 60 89 -800 220/11 RMK AO2 T00720056 $
14756KACK ACK20160131172510301/31/16 17:25:31  5-MIN KACK 312225Z 21011KT 8SM CLR 07/06 A2991 60 89 -800 220/11 RMK AO2 T00720056 $
14756KACK ACK20160131173010301/31/16 17:30:31  5-MIN KACK 312230Z 21011KT 8SM CLR 07/06 A2992 50 89 -800 230/11 RMK AO2 T00720056 $
14756KACK ACK20160131173510301/31/16 17:35:31  5-MIN KACK 312235Z 21011KT 7SM CLR 07/06 A2992 50 89 -800 230/11 RMK AO2 T00720056 $
14756KACK ACK20160131174010301/31/16 17:40:31  5-MIN KACK 312240Z 21011KT 7SM CLR 07/06 A2992 50 89 -800 230/11 RMK AO2 T00720056 $
14756KACK ACK20160131174510301/31/16 17:45:31  5-MIN KACK 312245Z 21011KT 7SM CLR 07/06 A2992 50 89 -800 220/11 RMK AO2 T00720056 $
14756KACK ACK20160131175011001/31/16 17:50:31  5-MIN KACK 312250Z 21010KT 7SM CLR 07/06 A2992 50 89 -800 220/10 RMK AO2 SLP131 T00720056 $
14756KACK ACK20160131175510301/31/16 17:55:31  5-MIN KACK 312255Z 20009KT 7SM CLR 07/05 A2992 50 89 -800 220/09 RMK AO2 T00670050 $
14756KACK ACK20160131180010301/31/16 18:00:31  5-MIN KACK 312300Z 20009KT 7SM CLR 07/05 A2992 50 89 -900 220/09 RMK AO2 T00670050 $
14756KACK ACK20160131180510301/31/16 18:05:31  5-MIN KACK 312305Z 20009KT 7SM CLR 07/05 A2992 50 86 -800 220/09 RMK AO2 T00720050 $
14756KACK ACK20160131181010301/31/16 18:10:31  5-MIN KACK 312310Z 20009KT 7SM CLR 07/05 A2992 50 86 -800 220/09 RMK AO2 T00720050 $
14756KACK ACK20160131181510301/31/16 18:15:31  5-MIN KACK 312315Z 20009KT 7SM CLR 07/05 A2992 50 89 -900 210/09 RMK AO2 T00670050 $
14756KACK ACK20160131182010301/31/16 18:20:31  5-MIN KACK 312320Z 20009KT 7SM CLR 07/05 A2992 50 89 -900 210/09 RMK AO2 T00670050 $
14756KACK ACK20160131182510301/31/16 18:25:31  5-MIN KACK 312325Z 20009KT 7SM CLR 07/05 A2992 50 89 -900 220/09 RMK AO2 T00670050 $
14756KACK ACK20160131183010301/31/16 18:30:31  5-MIN KACK 312330Z 20009KT 7SM CLR 07/05 A2992 50 89 -900 220/09 RMK AO2 T00670050 $
14756KACK ACK20160131183510301/31/16 18:35:31  5-MIN KACK 312335Z 20009KT 7SM CLR 07/05 A2992 50 89 -900 220/09 RMK AO2 T00670050 $
14756KACK ACK20160131184010301/31/16 18:40:31  5-MIN KACK 312340Z 20009KT 7SM CLR 07/05 A2992 50 89 -900 220/09 RMK AO2 T00670050 $
14756KACK ACK20160131184510301/31/16 18:45:31  5-MIN KACK 312345Z 20009KT 7SM CLR 07/05 A2992 50 89 -900 220/09 RMK AO2 T00670050 $
14756KACK ACK20160131185012801/31/16 18:50:31  5-MIN KACK 312350Z 20009KT 7SM CLR 07/05 A2992 50 89 -900 220/09 RMK AO2 SLP132 T00670050 10100 20067 55003 $
14756KACK ACK20160131185510301/31/16 18:55:31  5-MIN KACK 312355Z 20008KT 7SM CLR 07/05 A2992 50 89 -900 220/08 RMK AO2 T00670050 $
14756KACK ACK20160131190010301/31/16 19:00:31  5-MIN KACK 010000Z 20008KT 7SM CLR 07/05 A2992 50 89 -900 220/08 RMK AO2 T00670050 $
14756KACK ACK20160131190510301/31/16 19:05:31  5-MIN KACK 010005Z 20008KT 7SM CLR 07/05 A2992 50 89 -900 220/08 RMK AO2 T00670050 $
14756KACK ACK20160131191010301/31/16 19:10:31  5-MIN KACK 010010Z 20008KT 7SM CLR 07/05 A2992 50 89 -900 220/08 RMK AO2 T00670050 $
14756KACK ACK20160131191510301/31/16 19:15:31  5-MIN KACK 010015Z 20007KT 7SM CLR 07/05 A2992 50 89 -900 220/07 RMK AO2 T00670050 $
14756KACK ACK20160131192010301/31/16 19:20:31  5-MIN KACK 010020Z 20009KT 7SM CLR 07/05 A2992 50 89 -900 220/09 RMK AO2 T00670050 $
14756KACK ACK20160131192510301/31/16 19:25:31  5-MIN KACK 010025Z 20009KT 7SM CLR 07/05 A2992 50 89 -900 220/09 RMK AO2 T00670050 $
14756KACK ACK20160131193010301/31/16 19:30:31  5-MIN KACK 010030Z 20008KT 7SM CLR 07/05 A2992 50 89 -900 220/08 RMK AO2 T00670050 $
14756KACK ACK20160131193510301/31/16 19:35:31  5-MIN KACK 010035Z 20007KT 7SM CLR 07/05 A2992 50 89 -900 210/07 RMK AO2 T00670050 $
14756KACK ACK20160131194010301/31/16 19:40:31  5-MIN KACK 010040Z 20007KT 7SM CLR 07/05 A2992 50 89 -800 210/07 RMK AO2 T00670050 $
14756KACK ACK20160131194510301/31/16 19:45:31  5-MIN KACK 010045Z 20008KT 7SM CLR 07/05 A2991 60 89 -800 210/08 RMK AO2 T00670050 $
14756KACK ACK20160131195011001/31/16 19:50:31  5-MIN KACK 010050Z 20009KT 7SM CLR 07/05 A2991 60 89 -800 210/09 RMK AO2 SLP129 T00670050 $
14756KACK ACK20160131195510301/31/16 19:55:31  5-MIN KACK 010055Z 20008KT 7SM CLR 07/05 A2991 60 89 -800 210/08 RMK AO2 T00670050 $
14756KACK ACK20160131200010301/31/16 20:00:31  5-MIN KACK 010100Z 19008KT 7SM CLR 07/05 A2990 60 89 -800 210/08 RMK AO2 T00670050 $
14756KACK ACK20160131200510301/31/16 20:05:31  5-MIN KACK 010105Z 19008KT 7SM CLR 07/05 A2990 70 89 -800 210/08 RMK AO2 T00670050 $
14756KACK ACK20160131201010301/31/16 20:10:31  5-MIN KACK 010110Z 19008KT 7SM CLR 07/05 A2990 70 89 -800 210/08 RMK AO2 T00670050 $
14756KACK ACK20160131201510301/31/16 20:15:31  5-MIN KACK 010115Z 19009KT 7SM CLR 07/05 A2990 70 89 -800 200/09 RMK AO2 T00670050 $
14756KACK ACK20160131202010301/31/16 20:20:31  5-MIN KACK 010120Z 19008KT 7SM CLR 07/05 A2990 70 89 -800 210/08 RMK AO2 T00670050 $
14756KACK ACK20160131202510301/31/16 20:25:31  5-MIN KACK 010125Z 19007KT 7SM CLR 07/05 A2990 70 89 -800 210/07 RMK AO2 T00670050 $
14756KACK ACK20160131203010301/31/16 20:30:31  5-MIN KACK 010130Z 19007KT 7SM CLR 07/05 A2990 70 89 -800 210/07 RMK AO2 T00670050 $
14756KACK ACK20160131203510301/31/16 20:35:31  5-MIN KACK 010135Z 19006KT 7SM CLR 07/05 A2990 70 89 -800 210/06 RMK AO2 T00670050 $
14756KACK ACK20160131204010301/31/16 20:40:31  5-MIN KACK 010140Z 19007KT 7SM CLR 07/05 A2989 70 89 -800 210/07 RMK AO2 T00670050 $
14756KACK ACK20160131204510301/31/16 20:45:31  5-MIN KACK 010145Z 19008KT 7SM CLR 07/05 A2989 80 89 -800 210/08 RMK AO2 T00670050 $
14756KACK ACK20160131205011001/31/16 20:50:31  5-MIN KACK 010150Z 19007KT 7SM CLR 07/05 A2989 80 89 -800 210/07 RMK AO2 SLP121 T00670050 $
14756KACK ACK20160131205511301/31/16 20:55:31  5-MIN KACK 010155Z AUTO 19007KT 7SM CLR 07/05 A2989 80 89 -800 210/07 RMK AO2 T00670050 TSNO $
14756KACK ACK20160131210011301/31/16 21:00:31  5-MIN KACK 010200Z AUTO 19008KT 7SM CLR 07/05 A2989 80 89 -800 210/08 RMK AO2 T00670050 TSNO $
14756KACK ACK20160131210511301/31/16 21:05:31  5-MIN KACK 010205Z AUTO 20008KT 7SM CLR 07/05 A2989 80 89 -800 210/08 RMK AO2 T00670050 TSNO $
14756KACK ACK20160131211011301/31/16 21:10:31  5-MIN KACK 010210Z AUTO 19008KT 7SM CLR 07/06 A2988 80 89 -700 210/08 RMK AO2 T00720056 TSNO $
14756KACK ACK20160131211511301/31/16 21:15:31  5-MIN KACK 010215Z AUTO 19010KT 7SM CLR 07/06 A2989 80 89 -700 210/10 RMK AO2 T00720056 TSNO $
14756KACK ACK20160131212011301/31/16 21:20:31  5-MIN KACK 010220Z AUTO 20009KT 7SM CLR 07/06 A2989 80 89 -800 210/09 RMK AO2 T00720056 TSNO $
14756KACK ACK20160131212511301/31/16 21:25:31  5-MIN KACK 010225Z AUTO 19009KT 7SM CLR 07/06 A2989 80 93 -800 210/09 RMK AO2 T00670056 TSNO $
14756KACK ACK20160131213011301/31/16 21:30:31  5-MIN KACK 010230Z AUTO 20009KT 7SM CLR 07/06 A2989 80 93 -800 210/09 RMK AO2 T00670056 TSNO $
14756KACK ACK20160131213511301/31/16 21:35:31  5-MIN KACK 010235Z AUTO 20010KT 7SM CLR 07/06 A2989 70 89 -800 220/10 RMK AO2 T00720056 TSNO $
14756KACK ACK20160131214011601/31/16 21:40:31  5-MIN KACK 010240Z AUTO 20010KT 6SM BR CLR 08/06 A2989 80 89 -700 220/10 RMK AO2 T00780061 TSNO $
14756KACK ACK20160131214511601/31/16 21:45:31  5-MIN KACK 010245Z AUTO 20009KT 6SM BR CLR 08/06 A2989 80 89 -700 220/09 RMK AO2 T00780061 TSNO $
14756KACK ACK20160131215012901/31/16 21:50:31  5-MIN KACK 010250Z AUTO 20009KT 6SM BR CLR 07/06 A2989 80 93 -700 210/09 RMK AO2 SLP121 T00720061 53005 TSNO $
14756KACK ACK20160131215511601/31/16 21:55:31  5-MIN KACK 010255Z AUTO 20008KT 6SM BR CLR 07/06 A2989 80 89 -800 210/08 RMK AO2 T00720056 TSNO $
14756KACK ACK20160131220011601/31/16 22:00:31  5-MIN KACK 010300Z AUTO 20007KT 6SM BR CLR 07/06 A2989 80 93 -800 220/07 RMK AO2 T00670056 TSNO $
14756KACK ACK20160131220511601/31/16 22:05:31  5-MIN KACK 010305Z AUTO 20007KT 6SM BR CLR 07/06 A2989 80 93 -800 220/07 RMK AO2 T00670056 TSNO $
14756KACK ACK20160131221011601/31/16 22:10:31  5-MIN KACK 010310Z AUTO 21006KT 6SM BR CLR 07/06 A2989 70 93 -800 220/06 RMK AO2 T00670056 TSNO $
14756KACK ACK20160131221511601/31/16 22:15:31  5-MIN KACK 010315Z AUTO 20007KT 6SM BR CLR 07/06 A2989 80 93 -800 220/07 RMK AO2 T00670056 TSNO $
14756KACK ACK20160131222011601/31/16 22:20:31  5-MIN KACK 010320Z AUTO 20007KT 6SM BR CLR 07/05 A2989 80 89 -800 220/07 RMK AO2 T00670050 TSNO $
14756KACK ACK20160131222511601/31/16 22:25:31  5-MIN KACK 010325Z AUTO 20007KT 6SM BR CLR 07/05 A2989 80 89 -800 220/07 RMK AO2 T00670050 TSNO $
14756KACK ACK20160131223011601/31/16 22:30:31  5-MIN KACK 010330Z AUTO 21007KT 5SM BR CLR 07/05 A2989 80 89 -800 220/07 RMK AO2 T00670050 TSNO $
14756KACK ACK20160131223511901/31/16 22:35:31  5-MIN KACK 010335Z AUTO 20007KT 5SM BR FEW004 07/06 A2989 80 93 -800 220/07 RMK AO2 T00670056 TSNO $
14756KACK ACK20160131224012601/31/16 22:40:31  5-MIN KACK 010340Z AUTO 20006KT 5SM BR FEW004 SCT010 07/06 A2988 80 93 -800 220/06 RMK AO2 T00670056 TSNO $
14756KACK ACK20160131224512601/31/16 22:45:31  5-MIN KACK 010345Z AUTO 20006KT 5SM BR FEW004 BKN010 07/06 A2988 80 93 -800 220/06 RMK AO2 T00670056 TSNO $
14756KACK ACK20160131225013301/31/16 22:50:31  5-MIN KACK 010350Z AUTO 20005KT 4SM BR FEW004 BKN010 07/06 A2988 80 93 -800 220/05 RMK AO2 SLP119 T00670056 TSNO $
14756KACK ACK20160131225514201/31/16 22:55:31  5-MIN KACK 010355Z AUTO 21007KT 3SM -RA BR FEW004 BKN010 07/06 A2988 80 89 -700 220/07 RMK AO2 RAB55 P0000 T00720056 TSNO $
14756KACK ACK20160131230014401/31/16 23:00:31  5-MIN KACK 010400Z AUTO 20009KT 3SM -RA BR FEW004 OVC009 07/06 A2988 80 89 -700 220/09 RMK AO2 RAB0355 P0000 T00720056 TSNO $
14756KACK ACK20160131230513701/31/16 23:05:31  5-MIN KACK 010405Z AUTO 21010KT 4SM -RA BR BKN009 08/06 A2988 80 89 -700 220/10 RMK AO2 RAB0355 P0000 T00780061 TSNO $
14756KACK ACK20160131231013701/31/16 23:10:31  5-MIN KACK 010410Z AUTO 21012KT 5SM -RA BR BKN009 08/07 A2988 90 89 -600 220/12 RMK AO2 RAB0355 P0000 T00830067 TSNO $
14756KACK ACK20160131231513701/31/16 23:15:31  5-MIN KACK 010415Z AUTO 21012KT 6SM -RA BR SCT009 08/07 A2988 90 89 -600 220/12 RMK AO2 RAB0355 P0000 T00830067 TSNO $
14756KACK ACK20160131232013401/31/16 23:20:31  5-MIN KACK 010420Z AUTO 21012KT 7SM -RA SCT009 08/07 A2988 90 89 -600 220/12 RMK AO2 RAB0355 P0000 T00830067 TSNO $
14756KACK ACK20160131232513701/31/16 23:25:31  5-MIN KACK 010425Z AUTO 21012KT 6SM -RA BR FEW009 08/07 A2988 90 89 -600 220/12 RMK AO2 RAB0355 P0000 T00830067 TSNO $
14756KACK ACK20160131233013401/31/16 23:30:31  5-MIN KACK 010430Z AUTO 21012KT 6SM -RA BR CLR 08/07 A2988 90 89 -600 220/12 RMK AO2 RAB0355 P0000 T00830067 TSNO $
14756KACK ACK20160131233513401/31/16 23:35:31  5-MIN KACK 010435Z AUTO 21011KT 6SM -RA BR CLR 08/07 A2988 90 93 -700 220/11 RMK AO2 RAB0355 P0000 T00780067 TSNO $
14756KACK ACK20160131234013101/31/16 23:40:31  5-MIN KACK 010440Z AUTO 21012KT 7SM -RA CLR 08/07 A2987 90 89 -600 220/12 RMK AO2 RAB0355 P0000 T00830067 TSNO $
14756KACK ACK20160131234513101/31/16 23:45:31  5-MIN KACK 010445Z AUTO 21012KT 7SM -RA CLR 08/07 A2987 90 89 -600 220/12 RMK AO2 RAB0355 P0000 T00830067 TSNO $
14756KACK ACK20160131235014901/31/16 23:50:31  5-MIN KACK 010450Z AUTO 21013KT 7SM -RA CLR 08/07 A2987 100 89 -600 220/13 RMK AO2 RAB0355 SLP114 P0000 T00830067 401000061 TSNO $
14756KACK ACK20160131235512401/31/16 23:55:31  5-MIN KACK 010455Z AUTO 21012KT 7SM -RA CLR 08/07 A2987 100 89 -600 220/12 RMK AO2 P0000 T00830067 TSNO $
