94889KARB ARB20160309144508503/09/16 14:45:31  5-MIN KARB 091945Z AUTO M M M M /M RMK AO2 PWINO FZRANO TSNO PNO $
94889KARB ARB20160309145009103/09/16 14:50:31  5-MIN KARB 091950Z AUTO M M M M /M RMK AO2 SLPNO PWINO FZRANO TSNO PNO $
94889KARB ARB20160309145508503/09/16 14:55:31  5-MIN KARB 091955Z AUTO M M M M /M RMK AO2 PWINO FZRANO TSNO PNO $
94889KARB ARB20160309150008503/09/16 15:00:31  5-MIN KARB 092000Z AUTO M M M M /M RMK AO2 PWINO FZRANO TSNO PNO $
94889KARB ARB20160309150507703/09/16 15:05:31  5-MIN KARB 092005Z AUTO 24016KT A2993 M M M 250/16 RMK AO2
94889KARB ARB20160309151009903/09/16 15:10:31  5-MIN KARB 092010Z AUTO 25017KT 21/12 A2993 830 56 1700 260/17 RMK AO2 T02060117
94889KARB ARB20160309151510403/09/16 15:15:31  5-MIN KARB 092015Z AUTO 25016KT 10SM 21/12 A2993 840 56 1700 260/16 RMK AO2 T02060117
94889KARB ARB20160309152011003/09/16 15:20:31  5-MIN KARB 092020Z AUTO 25013G23KT 10SM 20/12 A2993 830 58 1600 250/13G23 RMK AO2 T02000117
94889KARB ARB20160309152511003/09/16 15:25:31  5-MIN KARB 092025Z AUTO 24014G23KT 10SM 21/12 A2993 830 56 1700 240/14G23 RMK AO2 T02060117
94889KARB ARB20160309153011003/09/16 15:30:31  5-MIN KARB 092030Z AUTO 24018G22KT 10SM 21/12 A2992 840 56 1700 250/18G22 RMK AO2 T02060117
94889KARB ARB20160309153512403/09/16 15:35:31  5-MIN KARB 092035Z AUTO 24018G23KT 10SM SCT035 BKN049 21/12 A2992 840 56 1700 250/18G23 RMK AO2 T02060117
94889KARB ARB20160309154012403/09/16 15:40:31  5-MIN KARB 092040Z AUTO 25018G23KT 10SM SCT035 BKN049 21/12 A2992 840 54 1800 250/18G23 RMK AO2 T02110117
94889KARB ARB20160309154512403/09/16 15:45:31  5-MIN KARB 092045Z AUTO 26016G22KT 10SM FEW035 SCT049 21/12 A2992 840 56 1700 260/16G22 RMK AO2 T02060117
94889KARB ARB20160309155013003/09/16 15:50:31  5-MIN KARB 092050Z AUTO 24017KT 10SM FEW035 FEW049 20/12 A2992 840 58 1700 250/17 RMK AO2 SLPNO 6//// T02000117
94889KARB ARB20160309155511103/09/16 15:55:31  5-MIN KARB 092055Z AUTO 25015KT 10SM FEW035 20/12 A2992 840 58 1700 260/15 RMK AO2 T02000117
94889KARB ARB20160309160010803/09/16 16:00:31  5-MIN KARB 092100Z AUTO 25016KT 10SM CLR 20/12 A2992 840 58 1700 260/16 RMK AO2 T02000117
94889KARB ARB20160309160510803/09/16 16:05:31  5-MIN KARB 092105Z AUTO 25014KT 10SM CLR 20/12 A2992 840 58 1700 260/14 RMK AO2 T02000117
94889KARB ARB20160309161011103/09/16 16:10:31  5-MIN KARB 092110Z AUTO 25010KT 10SM FEW039 19/12 A2992 840 60 1600 250/10 RMK AO2 T01940117
94889KARB ARB20160309161511103/09/16 16:15:31  5-MIN KARB 092115Z AUTO 26012KT 10SM SCT039 19/12 A2992 840 60 1600 260/12 RMK AO2 T01940117
94889KARB ARB20160309162011103/09/16 16:20:31  5-MIN KARB 092120Z AUTO 26011KT 10SM BKN039 19/12 A2993 830 60 1600 270/11 RMK AO2 T01940117
94889KARB ARB20160309162511803/09/16 16:25:31  5-MIN KARB 092125Z AUTO 25011KT 10SM BKN041 BKN049 20/12 A2993 830 58 1600 260/11 RMK AO2 T02000117
94889KARB ARB20160309163011103/09/16 16:30:31  5-MIN KARB 092130Z AUTO 25012KT 10SM BKN041 20/12 A2993 830 58 1600 260/12 RMK AO2 T02000117
94889KARB ARB20160309163511103/09/16 16:35:31  5-MIN KARB 092135Z AUTO 26012KT 10SM BKN041 19/12 A2993 830 60 1600 260/12 RMK AO2 T01940117
94889KARB ARB20160309164011103/09/16 16:40:31  5-MIN KARB 092140Z AUTO 25014KT 10SM BKN041 19/12 A2993 830 60 1600 260/14 RMK AO2 T01940117
94889KARB ARB20160309164511103/09/16 16:45:31  5-MIN KARB 092145Z AUTO 25011KT 10SM BKN041 19/12 A2993 830 60 1600 250/11 RMK AO2 T01940117
94889KARB ARB20160309165011703/09/16 16:50:31  5-MIN KARB 092150Z AUTO 25011KT 10SM BKN041 19/12 A2993 830 60 1600 260/11 RMK AO2 SLPNO T01940117
94889KARB ARB20160309165511103/09/16 16:55:31  5-MIN KARB 092155Z AUTO 25011KT 10SM OVC042 19/12 A2993 830 60 1600 260/11 RMK AO2 T01940117
94889KARB ARB20160309170011103/09/16 17:00:31  5-MIN KARB 092200Z AUTO 25009KT 10SM OVC042 19/12 A2993 830 60 1600 250/09 RMK AO2 T01940117
94889KARB ARB20160309170511103/09/16 17:05:31  5-MIN KARB 092205Z AUTO 25007KT 10SM OVC042 19/12 A2993 830 62 1500 260/07 RMK AO2 T01890117
94889KARB ARB20160309171011803/09/16 17:10:31  5-MIN KARB 092210Z AUTO 24010KT 10SM BKN042 OVC049 19/12 A2993 830 62 1500 250/10 RMK AO2 T01890117
94889KARB ARB20160309171511803/09/16 17:15:31  5-MIN KARB 092215Z AUTO 24009KT 10SM BKN042 OVC049 19/12 A2993 830 62 1500 250/09 RMK AO2 T01890117
94889KARB ARB20160309172011803/09/16 17:20:31  5-MIN KARB 092220Z AUTO 24011KT 10SM SCT042 OVC049 19/12 A2993 830 62 1500 250/11 RMK AO2 T01890117
94889KARB ARB20160309172511803/09/16 17:25:31  5-MIN KARB 092225Z AUTO 24009KT 10SM FEW042 OVC049 19/12 A2993 830 62 1500 250/09 RMK AO2 T01890117
94889KARB ARB20160309173011803/09/16 17:30:31  5-MIN KARB 092230Z AUTO 24008KT 10SM FEW042 OVC050 19/12 A2993 840 62 1500 250/08 RMK AO2 T01890117
94889KARB ARB20160309173511103/09/16 17:35:31  5-MIN KARB 092235Z AUTO 24009KT 10SM OVC050 19/12 A2992 840 62 1500 250/09 RMK AO2 T01890117
94889KARB ARB20160309174011103/09/16 17:40:31  5-MIN KARB 092240Z AUTO 25008KT 10SM OVC050 19/12 A2993 840 62 1500 250/08 RMK AO2 T01890117
94889KARB ARB20160309174511103/09/16 17:45:31  5-MIN KARB 092245Z AUTO 24010KT 10SM OVC050 19/12 A2993 830 62 1500 250/10 RMK AO2 T01890117
94889KARB ARB20160309175011703/09/16 17:50:31  5-MIN KARB 092250Z AUTO 24008KT 10SM OVC050 19/12 A2993 830 62 1500 250/08 RMK AO2 SLPNO T01890117
94889KARB ARB20160309175511103/09/16 17:55:31  5-MIN KARB 092255Z AUTO 24006KT 10SM OVC050 19/12 A2993 830 62 1500 240/06 RMK AO2 T01890117
94889KARB ARB20160309180011103/09/16 18:00:31  5-MIN KARB 092300Z AUTO 23006KT 10SM OVC050 18/12 A2993 830 65 1500 240/06 RMK AO2 T01830117
94889KARB ARB20160309180511103/09/16 18:05:31  5-MIN KARB 092305Z AUTO 23006KT 10SM OVC050 18/12 A2993 830 65 1500 230/06 RMK AO2 T01830117
94889KARB ARB20160309181011103/09/16 18:10:31  5-MIN KARB 092310Z AUTO 23007KT 10SM OVC050 18/12 A2994 820 65 1400 240/07 RMK AO2 T01830117
94889KARB ARB20160309181511103/09/16 18:15:31  5-MIN KARB 092315Z AUTO 23008KT 10SM OVC050 18/12 A2994 820 65 1400 240/08 RMK AO2 T01830117
94889KARB ARB20160309182011103/09/16 18:20:31  5-MIN KARB 092320Z AUTO 23007KT 10SM OVC050 18/12 A2994 820 65 1400 230/07 RMK AO2 T01830117
94889KARB ARB20160309182511103/09/16 18:25:31  5-MIN KARB 092325Z AUTO 23006KT 10SM OVC048 18/12 A2994 820 65 1400 240/06 RMK AO2 T01830117
94889KARB ARB20160309183011103/09/16 18:30:31  5-MIN KARB 092330Z AUTO 23006KT 10SM OVC048 18/12 A2994 820 65 1400 240/06 RMK AO2 T01830117
94889KARB ARB20160309183511103/09/16 18:35:31  5-MIN KARB 092335Z AUTO 23006KT 10SM OVC046 18/12 A2995 820 65 1400 240/06 RMK AO2 T01830117
94889KARB ARB20160309184011103/09/16 18:40:31  5-MIN KARB 092340Z AUTO 23008KT 10SM OVC046 18/12 A2995 820 65 1400 240/08 RMK AO2 T01830117
94889KARB ARB20160309184511103/09/16 18:45:31  5-MIN KARB 092345Z AUTO 23005KT 10SM OVC047 18/12 A2995 820 65 1400 240/05 RMK AO2 T01830117
94889KARB ARB20160309185012303/09/16 18:50:31  5-MIN KARB 092350Z AUTO 23007KT 10SM OVC047 18/12 A2995 810 65 1400 240/07 RMK AO2 SLPNO 6//// T01830117
94889KARB ARB20160309185511103/09/16 18:55:31  5-MIN KARB 092355Z AUTO 23008KT 10SM OVC047 18/12 A2995 810 65 1400 230/08 RMK AO2 T01830117
94889KARB ARB20160309190011103/09/16 19:00:31  5-MIN KARB 100000Z AUTO 22006KT 10SM OVC047 18/12 A2995 810 65 1400 230/06 RMK AO2 T01830117
94889KARB ARB20160309190511103/09/16 19:05:31  5-MIN KARB 100005Z AUTO 21006KT 10SM OVC047 18/12 A2995 820 67 1400 220/06 RMK AO2 T01780117
94889KARB ARB20160309191011103/09/16 19:10:31  5-MIN KARB 100010Z AUTO 21006KT 10SM OVC047 18/12 A2995 810 67 1400 220/06 RMK AO2 T01780117
94889KARB ARB20160309191511103/09/16 19:15:31  5-MIN KARB 100015Z AUTO 21005KT 10SM OVC049 18/12 A2995 810 67 1400 220/05 RMK AO2 T01780117
94889KARB ARB20160309192011103/09/16 19:20:31  5-MIN KARB 100020Z AUTO 22004KT 10SM OVC049 18/12 A2995 810 67 1400 230/04 RMK AO2 T01780117
94889KARB ARB20160309192511103/09/16 19:25:31  5-MIN KARB 100025Z AUTO 21005KT 10SM OVC049 17/12 A2995 810 69 1300 220/05 RMK AO2 T01720117
94889KARB ARB20160309193011103/09/16 19:30:31  5-MIN KARB 100030Z AUTO 20004KT 10SM OVC050 17/12 A2996 810 69 1300 200/04 RMK AO2 T01720117
94889KARB ARB20160309193511103/09/16 19:35:31  5-MIN KARB 100035Z AUTO 19005KT 10SM OVC050 17/12 A2996 810 69 1300 200/05 RMK AO2 T01720117
94889KARB ARB20160309194011103/09/16 19:40:31  5-MIN KARB 100040Z AUTO 20005KT 10SM OVC050 17/12 A2996 810 69 1300 200/05 RMK AO2 T01720117
94889KARB ARB20160309194511103/09/16 19:45:31  5-MIN KARB 100045Z AUTO 20006KT 10SM OVC048 17/12 A2996 800 69 1300 210/06 RMK AO2 T01720117
94889KARB ARB20160309195011203/09/16 19:50:31  5-MIN KARB 100050Z 21006KT 10SM OVC048 17/12 A2997 800 69 1300 210/06 RMK AO2 SLPNO T01720117
94889KARB ARB20160309195511803/09/16 19:55:31  5-MIN KARB 100055Z AUTO 21006KT 10SM BKN043 OVC050 17/12 A2997 800 72 1300 210/06 RMK AO2 T01720122
94889KARB ARB20160309200011803/09/16 20:00:31  5-MIN KARB 100100Z AUTO 21007KT 10SM BKN039 OVC048 17/12 A2997 800 72 1300 210/07 RMK AO2 T01720122
94889KARB ARB20160309200511803/09/16 20:05:31  5-MIN KARB 100105Z AUTO 20007KT 10SM BKN039 OVC046 17/12 A2997 800 72 1300 210/07 RMK AO2 T01720122
94889KARB ARB20160309201011803/09/16 20:10:31  5-MIN KARB 100110Z AUTO 20008KT 10SM BKN039 OVC048 17/12 A2997 800 72 1300 210/08 RMK AO2 T01720122
94889KARB ARB20160309201512503/09/16 20:15:31  5-MIN KARB 100115Z AUTO 20009KT 10SM FEW030 BKN039 OVC048 17/12 A2997 790 72 1300 210/09 RMK AO2 T01720122
94889KARB ARB20160309202011803/09/16 20:20:31  5-MIN KARB 100120Z AUTO 20007KT 10SM SCT030 OVC039 17/12 A2997 790 75 1200 210/07 RMK AO2 T01670122
94889KARB ARB20160309202512503/09/16 20:25:31  5-MIN KARB 100125Z AUTO 21008KT 10SM FEW030 BKN039 OVC049 17/12 A2998 790 75 1200 210/08 RMK AO2 T01670122
94889KARB ARB20160309203012503/09/16 20:30:31  5-MIN KARB 100130Z AUTO 21009KT 10SM FEW030 BKN039 OVC055 17/12 A2997 790 75 1200 210/09 RMK AO2 T01670122
94889KARB ARB20160309203512503/09/16 20:35:31  5-MIN KARB 100135Z AUTO 19009KT 10SM FEW029 BKN043 OVC055 17/12 A2997 790 75 1200 200/09 RMK AO2 T01670122
94889KARB ARB20160309204012503/09/16 20:40:31  5-MIN KARB 100140Z AUTO 20010KT 10SM FEW029 BKN043 OVC055 17/12 A2997 790 75 1200 210/10 RMK AO2 T01670122
94889KARB ARB20160309204512503/09/16 20:45:31  5-MIN KARB 100145Z AUTO 20009KT 10SM FEW029 SCT043 OVC055 17/12 A2998 790 75 1200 210/09 RMK AO2 T01670122
94889KARB ARB20160309205013103/09/16 20:50:31  5-MIN KARB 100150Z AUTO 20009KT 10SM FEW023 BKN047 OVC055 16/12 A2997 790 77 1100 210/09 RMK AO2 SLPNO T01610122
94889KARB ARB20160309205512503/09/16 20:55:31  5-MIN KARB 100155Z AUTO 20011KT 10SM SCT023 BKN030 OVC055 16/12 A2997 790 77 1100 210/11 RMK AO2 T01610122
94889KARB ARB20160309210012503/09/16 21:00:31  5-MIN KARB 100200Z AUTO 20008KT 10SM SCT025 BKN042 OVC060 16/12 A2998 790 77 1100 210/08 RMK AO2 T01610122
94889KARB ARB20160309210512503/09/16 21:05:31  5-MIN KARB 100205Z AUTO 20007KT 10SM FEW025 BKN042 OVC060 16/12 A2998 790 77 1100 210/07 RMK AO2 T01610122
94889KARB ARB20160309211012503/09/16 21:10:31  5-MIN KARB 100210Z AUTO 20008KT 10SM FEW025 BKN042 OVC060 16/12 A2998 780 77 1100 210/08 RMK AO2 T01610122
94889KARB ARB20160309211512503/09/16 21:15:31  5-MIN KARB 100215Z AUTO 20007KT 10SM FEW024 BKN042 OVC060 16/12 A2998 780 77 1100 210/07 RMK AO2 T01610122
94889KARB ARB20160309212012503/09/16 21:20:31  5-MIN KARB 100220Z AUTO 20008KT 10SM FEW024 BKN042 OVC055 16/12 A2998 790 80 1100 200/08 RMK AO2 T01560122
94889KARB ARB20160309212512503/09/16 21:25:31  5-MIN KARB 100225Z AUTO 20009KT 10SM SCT041 BKN055 OVC075 16/12 A2998 780 80 1100 210/09 RMK AO2 T01560122
94889KARB ARB20160309213012503/09/16 21:30:31  5-MIN KARB 100230Z AUTO 20010KT 10SM SCT041 BKN055 OVC075 16/12 A2998 780 80 1100 210/10 RMK AO2 T01560122
94889KARB ARB20160309213512503/09/16 21:35:31  5-MIN KARB 100235Z AUTO 21010KT 10SM FEW016 BKN055 OVC075 16/12 A2998 780 80 1100 210/10 RMK AO2 T01560122
94889KARB ARB20160309214012503/09/16 21:40:31  5-MIN KARB 100240Z AUTO 21007KT 10SM SCT016 BKN060 OVC080 16/12 A2998 780 80 1100 210/07 RMK AO2 T01560122
94889KARB ARB20160309214512503/09/16 21:45:31  5-MIN KARB 100245Z AUTO 21009KT 10SM SCT014 BKN055 OVC090 15/13 A2998 780 86 1000 220/09 RMK AO2 T01500128
94889KARB ARB20160309215010803/09/16 21:50:31  5-MIN KARB 100250Z AUTO 21009KT 10SM BKN014 OVC080 15/13 A2998 780 86 1000 220/09 RMK AO2
94889KARB ARB20160309215511803/09/16 21:55:31  5-MIN KARB 100255Z AUTO 22012KT 10SM BKN012 OVC080 15/13 A2998 780 86 1000 230/12 RMK AO2 T01500128
94889KARB ARB20160309220012403/09/16 22:00:31  5-MIN KARB 100300Z AUTO 21010G16KT 10SM BKN012 OVC085 15/13 A2998 780 86 1000 220/10G16 RMK AO2 T01500128
94889KARB ARB20160309220511103/09/16 22:05:31  5-MIN KARB 100305Z AUTO 23010KT 10SM OVC012 15/13 A2998 780 86 1000 240/10 RMK AO2 T01500128
94889KARB ARB20160309221011103/09/16 22:10:31  5-MIN KARB 100310Z AUTO 22010KT 10SM OVC011 15/13 A2998 780 86 1000 230/10 RMK AO2 T01500128
94889KARB ARB20160309221511103/09/16 22:15:31  5-MIN KARB 100315Z AUTO 22009KT 10SM OVC011 15/13 A2998 780 86 1000 230/09 RMK AO2 T01500128
94889KARB ARB20160309222011103/09/16 22:20:31  5-MIN KARB 100320Z AUTO 22010KT 10SM OVC011 15/13 A2998 780 86 1000 230/10 RMK AO2 T01500128
94889KARB ARB20160309222511103/09/16 22:25:31  5-MIN KARB 100325Z AUTO 23009KT 10SM OVC010 15/13 A2998 780 86 1000 230/09 RMK AO2 T01500128
94889KARB ARB20160309223011103/09/16 22:30:31  5-MIN KARB 100330Z AUTO 22009KT 10SM OVC010 15/13 A2998 780 86 1000 230/09 RMK AO2 T01500128
94889KARB ARB20160309223511103/09/16 22:35:31  5-MIN KARB 100335Z AUTO 22008KT 10SM OVC010 15/13 A2998 780 86 1000 230/08 RMK AO2 T01500128
94889KARB ARB20160309224011103/09/16 22:40:31  5-MIN KARB 100340Z AUTO 23009KT 10SM OVC010 15/13 A2999 780 86 1000 230/09 RMK AO2 T01500128
94889KARB ARB20160309224511103/09/16 22:45:31  5-MIN KARB 100345Z AUTO 22009KT 10SM OVC010 15/13 A2999 780 86 1000 230/09 RMK AO2 T01500128
94889KARB ARB20160309225011703/09/16 22:50:31  5-MIN KARB 100350Z AUTO 22008KT 10SM OVC010 15/13 A2999 780 86 1000 230/08 RMK AO2 SLPNO T01500128
94889KARB ARB20160309225513003/09/16 22:55:31  5-MIN KARB 100355Z AUTO 22008KT 10SM BKN010 OVC049 15/13 A2998 780 86 1000 230/08 RMK AO2 CIG 008V013 T01500128
94889KARB ARB20160309230012303/09/16 23:00:31  5-MIN KARB 100400Z AUTO 22007KT 10SM OVC010 15/13 A2998 780 86 1000 220/07 RMK AO2 CIG 008V013 T01500128
94889KARB ARB20160309230512303/09/16 23:05:31  5-MIN KARB 100405Z AUTO 22008KT 10SM OVC010 15/13 A2998 780 86 1000 220/08 RMK AO2 CIG 008V013 T01500128
94889KARB ARB20160309231012303/09/16 23:10:31  5-MIN KARB 100410Z AUTO 23007KT 10SM OVC010 15/13 A2998 780 86 1000 230/07 RMK AO2 CIG 008V013 T01500128
94889KARB ARB20160309231512303/09/16 23:15:31  5-MIN KARB 100415Z AUTO 23009KT 10SM OVC010 15/13 A2998 780 86 1000 230/09 RMK AO2 CIG 008V013 T01500128
94889KARB ARB20160309232012203/09/16 23:20:31  5-MIN KARB 100420Z AUTO 22007KT 10SM OVC010 14/13 A2998 780 90 900 230/07 RMK AO2 CIG 008V013 T01440128
94889KARB ARB20160309232511103/09/16 23:25:31  5-MIN KARB 100425Z AUTO 22007KT 10SM OVC010 15/13 A2998 780 86 1000 230/07 RMK AO2 T01500128
94889KARB ARB20160309233011003/09/16 23:30:31  5-MIN KARB 100430Z AUTO 23009KT 10SM OVC009 14/13 A2998 780 90 900 240/09 RMK AO2 T01440128
94889KARB ARB20160309233511103/09/16 23:35:31  5-MIN KARB 100435Z AUTO 23009KT 10SM OVC009 15/13 A2998 780 86 1000 240/09 RMK AO2 T01500128
94889KARB ARB20160309234011103/09/16 23:40:31  5-MIN KARB 100440Z AUTO 23008KT 10SM OVC009 15/13 A2998 780 86 1000 230/08 RMK AO2 T01500128
94889KARB ARB20160309234511103/09/16 23:45:31  5-MIN KARB 100445Z AUTO 23010KT 10SM OVC009 15/13 A2998 790 86 1000 230/10 RMK AO2 T01500128
94889KARB ARB20160309235012603/09/16 23:50:31  5-MIN KARB 100450Z AUTO 22008KT 10SM OVC009 14/13 A2998 790 90 900 230/08 RMK AO2 SLPNO T01440128 402110144
94889KARB ARB20160309235511103/09/16 23:55:31  5-MIN KARB 100455Z AUTO 23007KT 10SM OVC009 15/13 A2998 790 86 1000 230/07 RMK AO2 T01500128
94889KARB ARB20160310000011103/10/16 00:00:31  5-MIN KARB 100500Z AUTO 23008KT 10SM OVC009 15/13 A2998 790 86 1000 240/08 RMK AO2 T01500128
94889KARB ARB20160310000511003/10/16 00:05:31  5-MIN KARB 100505Z AUTO 22009KT 10SM OVC009 14/13 A2998 790 90 900 230/09 RMK AO2 T01440128
94889KARB ARB20160310001011003/10/16 00:10:31  5-MIN KARB 100510Z AUTO 23007KT 10SM OVC009 14/13 A2998 790 90 900 240/07 RMK AO2 T01440128
94889KARB ARB20160310001511003/10/16 00:15:31  5-MIN KARB 100515Z AUTO 23008KT 10SM OVC009 14/13 A2998 790 90 900 230/08 RMK AO2 T01440128
94889KARB ARB20160310002011103/10/16 00:20:31  5-MIN KARB 100520Z AUTO 23006KT 10SM OVC009 14/13 A2997 790 90 1000 240/06 RMK AO2 T01440128
94889KARB ARB20160310002511103/10/16 00:25:31  5-MIN KARB 100525Z AUTO 23008KT 10SM OVC009 14/13 A2997 790 90 1000 240/08 RMK AO2 T01440128
94889KARB ARB20160310003011103/10/16 00:30:31  5-MIN KARB 100530Z AUTO 24007KT 10SM OVC009 14/13 A2997 790 90 1000 240/07 RMK AO2 T01440128
94889KARB ARB20160310003511103/10/16 00:35:31  5-MIN KARB 100535Z AUTO 24008KT 10SM OVC009 14/13 A2997 790 90 1000 240/08 RMK AO2 T01440128
94889KARB ARB20160310004011103/10/16 00:40:31  5-MIN KARB 100540Z AUTO 23008KT 10SM OVC009 14/13 A2997 790 90 1000 240/08 RMK AO2 T01440128
94889KARB ARB20160310004512303/10/16 00:45:31  5-MIN KARB 100545Z AUTO 23006KT 10SM OVC009 14/13 A2997 800 90 1000 240/06 RMK AO2 CIG 008V012 T01440128
94889KARB ARB20160310005014703/10/16 00:50:31  5-MIN KARB 100550Z AUTO 22008KT 10SM OVC009 14/13 A2997 800 90 1000 230/08 RMK AO2 CIG 008V013 SLPNO T01440128 10183 20144 51006
94889KARB ARB20160310005512303/10/16 00:55:31  5-MIN KARB 100555Z AUTO 23007KT 10SM OVC009 14/13 A2997 800 90 1000 230/07 RMK AO2 CIG 008V013 T01440128
94889KARB ARB20160310010012303/10/16 01:00:31  5-MIN KARB 100600Z AUTO 22005KT 10SM OVC010 14/13 A2997 800 90 1000 230/05 RMK AO2 CIG 008V013 T01440128
94889KARB ARB20160310010512303/10/16 01:05:31  5-MIN KARB 100605Z AUTO 23005KT 10SM OVC010 14/13 A2996 800 90 1000 230/05 RMK AO2 CIG 008V013 T01440128
94889KARB ARB20160310011011103/10/16 01:10:31  5-MIN KARB 100610Z AUTO 22006KT 10SM OVC010 14/13 A2996 800 90 1000 220/06 RMK AO2 T01440128
94889KARB ARB20160310011511103/10/16 01:15:31  5-MIN KARB 100615Z AUTO 21005KT 10SM OVC010 14/13 A2996 800 90 1000 220/05 RMK AO2 T01440128
94889KARB ARB20160310012011103/10/16 01:20:31  5-MIN KARB 100620Z AUTO 22005KT 10SM OVC010 14/13 A2996 800 90 1000 230/05 RMK AO2 T01440128
94889KARB ARB20160310012511103/10/16 01:25:31  5-MIN KARB 100625Z AUTO 22004KT 10SM OVC010 14/13 A2996 800 90 1000 230/04 RMK AO2 T01440128
94889KARB ARB20160310013011103/10/16 01:30:31  5-MIN KARB 100630Z AUTO 22005KT 10SM OVC010 14/13 A2996 810 90 1000 220/05 RMK AO2 T01440128
94889KARB ARB20160310013511103/10/16 01:35:31  5-MIN KARB 100635Z AUTO 21005KT 10SM OVC010 14/13 A2996 810 90 1000 220/05 RMK AO2 T01440128
94889KARB ARB20160310014011103/10/16 01:40:31  5-MIN KARB 100640Z AUTO 22005KT 10SM OVC010 14/13 A2996 810 90 1000 220/05 RMK AO2 T01440128
94889KARB ARB20160310014511103/10/16 01:45:31  5-MIN KARB 100645Z AUTO 22005KT 10SM OVC010 14/13 A2996 800 90 1000 230/05 RMK AO2 T01440128
94889KARB ARB20160310015011703/10/16 01:50:31  5-MIN KARB 100650Z AUTO 22005KT 10SM OVC010 14/13 A2996 800 90 1000 230/05 RMK AO2 SLPNO T01440128
94889KARB ARB20160310015511103/10/16 01:55:31  5-MIN KARB 100655Z AUTO 21005KT 10SM OVC010 14/13 A2996 800 90 1000 220/05 RMK AO2 T01440128
94889KARB ARB20160310020011103/10/16 02:00:31  5-MIN KARB 100700Z AUTO 21005KT 10SM OVC010 14/13 A2996 800 90 1000 220/05 RMK AO2 T01440128
94889KARB ARB20160310020511103/10/16 02:05:31  5-MIN KARB 100705Z AUTO 22005KT 10SM OVC010 14/13 A2996 800 90 1000 220/05 RMK AO2 T01440128
94889KARB ARB20160310021011103/10/16 02:10:31  5-MIN KARB 100710Z AUTO 22006KT 10SM OVC010 14/13 A2996 800 90 1000 230/06 RMK AO2 T01440128
94889KARB ARB20160310021511103/10/16 02:15:31  5-MIN KARB 100715Z AUTO 22005KT 10SM OVC010 14/13 A2996 800 90 1000 230/05 RMK AO2 T01440128
94889KARB ARB20160310022011103/10/16 02:20:31  5-MIN KARB 100720Z AUTO 22006KT 10SM OVC010 14/13 A2997 800 90 1000 230/06 RMK AO2 T01440128
94889KARB ARB20160310022511003/10/16 02:25:31  5-MIN KARB 100725Z AUTO 22006KT 9SM OVC010 14/13 A2997 800 90 1000 220/06 RMK AO2 T01440128
94889KARB ARB20160310023011003/10/16 02:30:31  5-MIN KARB 100730Z AUTO 22005KT 9SM OVC010 14/13 A2996 800 90 1000 220/05 RMK AO2 T01440128
94889KARB ARB20160310023511003/10/16 02:35:31  5-MIN KARB 100735Z AUTO 21005KT 9SM OVC010 14/13 A2996 800 90 1000 220/05 RMK AO2 T01440128
94889KARB ARB20160310024011003/10/16 02:40:31  5-MIN KARB 100740Z AUTO 22006KT 8SM OVC010 14/13 A2997 800 90 1000 230/06 RMK AO2 T01440128
94889KARB ARB20160310024511003/10/16 02:45:31  5-MIN KARB 100745Z AUTO 22007KT 8SM OVC010 14/13 A2997 800 90 1000 230/07 RMK AO2 T01440128
94889KARB ARB20160310025010003/10/16 02:50:31  5-MIN KARB 100750Z AUTO 22006KT 8SM OVC009 14/13 A2997 790 90 1000 230/06 RMK AO2
94889KARB ARB20160310025511003/10/16 02:55:31  5-MIN KARB 100755Z AUTO 23006KT 8SM OVC009 14/13 A2997 790 90 1000 240/06 RMK AO2 T01440128
94889KARB ARB20160310030011003/10/16 03:00:31  5-MIN KARB 100800Z AUTO 23005KT 8SM OVC009 14/13 A2997 790 90 1000 240/05 RMK AO2 T01440128
94889KARB ARB20160310030511003/10/16 03:05:31  5-MIN KARB 100805Z AUTO 23006KT 8SM OVC008 14/13 A2997 800 90 1000 240/06 RMK AO2 T01440128
94889KARB ARB20160310031010903/10/16 03:10:31  5-MIN KARB 100810Z AUTO 24005KT 8SM OVC008 14/13 A2997 790 93 900 250/05 RMK AO2 T01390128
94889KARB ARB20160310031510903/10/16 03:15:31  5-MIN KARB 100815Z AUTO 24005KT 8SM OVC008 14/13 A2997 790 93 900 250/05 RMK AO2 T01390128
94889KARB ARB20160310032010903/10/16 03:20:31  5-MIN KARB 100820Z AUTO 24006KT 7SM OVC007 14/13 A2997 790 93 900 250/06 RMK AO2 T01390128
94889KARB ARB20160310032510903/10/16 03:25:31  5-MIN KARB 100825Z AUTO 23006KT 7SM OVC007 14/13 A2997 800 93 900 240/06 RMK AO2 T01390128
94889KARB ARB20160310033011203/10/16 03:30:31  5-MIN KARB 100830Z AUTO 24006KT 6SM BR OVC007 14/13 A2997 790 93 900 250/06 RMK AO2 T01390128
94889KARB ARB20160310033511203/10/16 03:35:31  5-MIN KARB 100835Z AUTO 25006KT 5SM BR OVC007 14/13 A2997 790 93 900 260/06 RMK AO2 T01390128
94889KARB ARB20160310034011203/10/16 03:40:31  5-MIN KARB 100840Z AUTO 25005KT 5SM BR OVC006 14/13 A2997 790 93 900 260/05 RMK AO2 T01390128
94889KARB ARB20160310034511203/10/16 03:45:31  5-MIN KARB 100845Z AUTO 25004KT 4SM BR OVC006 14/13 A2997 800 93 900 260/04 RMK AO2 T01390128
94889KARB ARB20160310035012503/10/16 03:50:31  5-MIN KARB 100850Z AUTO 25004KT 4SM BR OVC006 14/13 A2997 800 93 900 260/04 RMK AO2 SLP146 T01390128 58005
94889KARB ARB20160310035511203/10/16 03:55:31  5-MIN KARB 100855Z AUTO 25004KT 4SM BR OVC006 14/13 A2997 800 93 900 260/04 RMK AO2 T01390128
94889KARB ARB20160310040011203/10/16 04:00:31  5-MIN KARB 100900Z AUTO 24004KT 3SM BR OVC006 13/13 A2996 800 96 800 250/04 RMK AO2 T01330128
94889KARB ARB20160310040511203/10/16 04:05:31  5-MIN KARB 100905Z AUTO 23003KT 2SM BR OVC006 13/13 A2996 800 96 800 240/03 RMK AO2 T01330128
94889KARB ARB20160310041011703/10/16 04:10:31  5-MIN KARB 100910Z AUTO 23003KT 1 3/4SM BR OVC005 13/13 A2996 800 100 800 240/03 RMK AO2 T01330133
94889KARB ARB20160310041511703/10/16 04:15:31  5-MIN KARB 100915Z AUTO 24003KT 1 3/4SM BR OVC005 13/13 A2996 800 100 800 250/03 RMK AO2 T01330133
94889KARB ARB20160310042011303/10/16 04:20:31  5-MIN KARB 100920Z AUTO 00000KT 2SM BR OVC004 13/13 A2996 800 100 800 000/00 RMK AO2 T01330133
94889KARB ARB20160310042511303/10/16 04:25:31  5-MIN KARB 100925Z AUTO 00000KT 2SM BR OVC004 13/13 A2996 800 100 800 000/00 RMK AO2 T01330133
94889KARB ARB20160310043011703/10/16 04:30:31  5-MIN KARB 100930Z AUTO 00000KT 1 3/4SM BR OVC004 13/13 A2996 810 100 800 000/00 RMK AO2 T01330133
94889KARB ARB20160310043511703/10/16 04:35:31  5-MIN KARB 100935Z AUTO 00000KT 1 3/4SM BR OVC004 13/13 A2995 810 100 800 000/00 RMK AO2 T01330133
94889KARB ARB20160310044011703/10/16 04:40:31  5-MIN KARB 100940Z AUTO 23003KT 1 3/4SM BR OVC004 13/13 A2995 810 100 800 230/03 RMK AO2 T01330133
94889KARB ARB20160310044511703/10/16 04:45:31  5-MIN KARB 100945Z AUTO 21003KT 1 3/4SM BR OVC004 13/13 A2995 810 100 800 220/03 RMK AO2 T01330133
94889KARB ARB20160310045010703/10/16 04:50:31  5-MIN KARB 100950Z AUTO 21003KT 1 3/4SM BR OVC003 13/13 A2995 810 100 800 210/03 RMK AO2
94889KARB ARB20160310045511703/10/16 04:55:31  5-MIN KARB 100955Z AUTO 19003KT 1 3/4SM BR OVC003 13/13 A2995 810 100 800 200/03 RMK AO2 T01330133
94889KARB ARB20160310050013503/10/16 05:00:31  5-MIN KARB 101000Z AUTO 20003KT 1 3/4SM -RA BR OVC003 13/13 A2995 810 100 800 200/03 RMK AO2 RAB0959 P0000 T01330133
94889KARB ARB20160310050513503/10/16 05:05:31  5-MIN KARB 101005Z AUTO 21004KT 1 3/4SM -RA BR OVC003 13/13 A2996 810 100 800 220/04 RMK AO2 RAB0959 P0000 T01330133
94889KARB ARB20160310051013503/10/16 05:10:31  5-MIN KARB 101010Z AUTO 21003KT 1 3/4SM -RA BR OVC003 13/13 A2995 810 100 800 220/03 RMK AO2 RAB0959 P0000 T01330133
94889KARB ARB20160310051513503/10/16 05:15:31  5-MIN KARB 101015Z AUTO 21003KT 1 1/2SM -RA BR OVC003 13/13 A2995 810 100 800 210/03 RMK AO2 RAB0959 P0000 T01330133
94889KARB ARB20160310052013503/10/16 05:20:31  5-MIN KARB 101020Z AUTO 20004KT 1 1/2SM -RA BR OVC003 13/13 A2995 810 100 800 210/04 RMK AO2 RAB0959 P0000 T01330133
94889KARB ARB20160310052513503/10/16 05:25:31  5-MIN KARB 101025Z AUTO 22003KT 1 3/4SM -RA BR OVC003 13/13 A2995 810 100 800 230/03 RMK AO2 RAB0959 P0000 T01330133
94889KARB ARB20160310053013003/10/16 05:30:31  5-MIN KARB 101030Z AUTO 23003KT 2SM BR OVC002 13/13 A2995 810 100 800 240/03 RMK AO2 RAB0959E30 P0000 T01330133
94889KARB ARB20160310053513003/10/16 05:35:31  5-MIN KARB 101035Z AUTO 22003KT 2SM BR OVC002 13/13 A2995 810 100 800 230/03 RMK AO2 RAB0959E30 P0000 T01330133
94889KARB ARB20160310054013003/10/16 05:40:31  5-MIN KARB 101040Z AUTO 22004KT 2SM BR OVC002 13/13 A2995 810 100 800 230/04 RMK AO2 RAB0959E30 P0000 T01330133
94889KARB ARB20160310054514103/10/16 05:45:31  5-MIN KARB 101045Z AUTO 22003KT 2 1/2SM -RA BR OVC002 13/13 A2995 810 100 800 220/03 RMK AO2 RAB0959E30B43 P0000 T01330133
94889KARB ARB20160310055014803/10/16 05:50:31  5-MIN KARB 101050Z AUTO 22003KT 2 1/2SM -RA BR OVC002 13/13 A2995 810 100 800 220/03 RMK AO2 RAB0959E30B43 SLP141 P0000 T01330133
94889KARB ARB20160310055512503/10/16 05:55:31  5-MIN KARB 101055Z AUTO 22003KT 3SM BR OVC002 13/13 A2995 810 100 800 220/03 RMK AO2 RAE54 P0000 T01330133
94889KARB ARB20160310060012803/10/16 06:00:31  5-MIN KARB 101100Z AUTO 22003KT 3SM BR OVC002 13/13 A2996 810 96 800 230/03 RMK AO2 RAE1054 P0000 T01330128 $
94889KARB ARB20160310060512803/10/16 06:05:31  5-MIN KARB 101105Z AUTO 24004KT 3SM BR OVC003 13/13 A2996 800 96 800 250/04 RMK AO2 RAE1054 P0000 T01330128 $
94889KARB ARB20160310061013503/10/16 06:10:31  5-MIN KARB 101110Z AUTO 24004KT 3SM -RA BR OVC003 13/13 A2996 800 96 800 240/04 RMK AO2 RAE1054B06 P0000 T01330128 $
94889KARB ARB20160310061513503/10/16 06:15:31  5-MIN KARB 101115Z AUTO 24003KT 3SM -RA BR OVC003 13/13 A2997 800 96 800 250/03 RMK AO2 RAE1054B06 P0000 T01330128 $
94889KARB ARB20160310062013403/10/16 06:20:31  5-MIN KARB 101120Z AUTO 28003KT 3SM BR OVC003 13/13 A2997 800 96 800 280/03 RMK AO2 RAE1054B06E16 P0001 T01330128 $
94889KARB ARB20160310062513503/10/16 06:25:31  5-MIN KARB 101125Z AUTO 31003KT 2SM -RA BR OVC003 13/13 A2997 800 96 800 320/03 RMK AO2 RAE1054B06 P0001 T01330128 $
94889KARB ARB20160310063013903/10/16 06:30:31  5-MIN KARB 101130Z AUTO 00000KT 1 3/4SM -RA BR OVC002 13/13 A2997 800 96 800 000/00 RMK AO2 RAE1054B06 P0001 T01330128 $
94889KARB ARB20160310063513903/10/16 06:35:31  5-MIN KARB 101135Z AUTO 31003KT 1 3/4SM -RA BR OVC002 13/13 A2997 800 96 800 310/03 RMK AO2 RAE1054B06 P0001 T01330128 $
94889KARB ARB20160310064013903/10/16 06:40:31  5-MIN KARB 101140Z AUTO 00000KT 1 3/4SM -RA BR OVC002 13/13 A2997 800 96 800 000/00 RMK AO2 RAE1054B06 P0002 T01330128 $
94889KARB ARB20160310064513903/10/16 06:45:31  5-MIN KARB 101145Z AUTO 00000KT 1 1/2SM -RA BR OVC002 13/13 A2997 800 96 800 000/00 RMK AO2 RAE1054B06 P0002 T01330128 $
94889KARB ARB20160310065017503/10/16 06:50:31  5-MIN KARB 101150Z AUTO 30003KT 1 1/2SM BR OVC002 13/13 A2997 800 96 800 300/03 RMK AO2 RAE1054B06E48 SLP147 P0002 60002 7//// T01330128 10144 20133 57001 $
94889KARB ARB20160310065511803/10/16 06:55:31  5-MIN KARB 101155Z AUTO 29003KT 1 1/2SM BR OVC002 13/13 A2997 800 96 800 290/03 RMK AO2 T01330128 $
94889KARB ARB20160310070011803/10/16 07:00:31  5-MIN KARB 101200Z AUTO 27004KT 1 1/2SM BR OVC002 13/13 A2997 800 96 800 280/04 RMK AO2 T01330128 $
94889KARB ARB20160310070511803/10/16 07:05:31  5-MIN KARB 101205Z AUTO 27003KT 1 1/2SM BR OVC002 13/13 A2997 800 96 800 270/03 RMK AO2 T01330128 $
94889KARB ARB20160310071013403/10/16 07:10:31  5-MIN KARB 101210Z AUTO 27004KT 1 1/4SM -RA BR OVC002 13/13 A2997 790 96 800 280/04 RMK AO2 RAB07 P0000 T01330128 $
94889KARB ARB20160310071513403/10/16 07:15:31  5-MIN KARB 101215Z AUTO 27003KT 1 1/4SM -RA BR OVC002 13/13 A2997 790 96 800 270/03 RMK AO2 RAB07 P0000 T01330128 $
94889KARB ARB20160310072013003/10/16 07:20:31  5-MIN KARB 101220Z AUTO 00000KT 1SM -RA BR OVC002 13/13 A2997 790 96 800 000/00 RMK AO2 RAB07 P0001 T01330128 $
94889KARB ARB20160310072513203/10/16 07:25:31  5-MIN KARB 101225Z AUTO 00000KT 3/4SM -RA BR OVC002 13/13 A2997 800 96 800 000/00 RMK AO2 RAB07 P0001 T01330128 $
94889KARB ARB20160310073013203/10/16 07:30:31  5-MIN KARB 101230Z AUTO 00000KT 1/2SM -RA FG OVC003 13/13 A2997 800 96 800 000/00 RMK AO2 RAB07 P0001 T01330128 $
94889KARB ARB20160310073513303/10/16 07:35:31  5-MIN KARB 101235Z AUTO 00000KT 1/4SM -RA FG OVC003 13/13 A2997 800 100 800 000/00 RMK AO2 RAB07 P0001 T01280128 $
94889KARB ARB20160310074013303/10/16 07:40:31  5-MIN KARB 101240Z AUTO 00000KT 1/4SM -RA FG OVC003 13/13 A2997 800 100 800 000/00 RMK AO2 RAB07 P0002 T01280128 $
94889KARB ARB20160310074513903/10/16 07:45:31  5-MIN KARB 101245Z AUTO 00000KT 1/2SM -RA FG BKN003 OVC015 13/13 A2997 800 96 800 000/00 RMK AO2 RAB07 P0002 T01330128 $
94889KARB ARB20160310075014603/10/16 07:50:31  5-MIN KARB 101250Z AUTO 00000KT 1/2SM -RA FG BKN003 OVC015 13/13 A2997 800 96 800 000/00 RMK AO2 RAB07 SLP146 P0002 T01330128 $
94889KARB ARB20160310075513803/10/16 07:55:31  5-MIN KARB 101255Z AUTO 00000KT 1SM -RA BR SCT003 BKN009 OVC015 13/13 A2997 800 96 800 000/00 RMK AO2 P0000 T01330128 $
94889KARB ARB20160310080013703/10/16 08:00:31  5-MIN KARB 101300Z 00000KT 1 1/2SM -RA BR SCT003 BKN009 OVC013 13/13 A2996 800 96 800 000/00 RMK AO2 P0000 T01330128 $
94889KARB ARB20160310080513703/10/16 08:05:31  5-MIN KARB 101305Z 00000KT 1 3/4SM -RA BR SCT005 BKN009 OVC015 13/13 A2997 800 96 800 000/00 RMK AO2 P0000 T01330128 $
94889KARB ARB20160310081013303/10/16 08:10:31  5-MIN KARB 101310Z 00000KT 2SM -RA BR FEW003 BKN007 OVC015 13/13 A2997 800 96 800 000/00 RMK AO2 P0000 T01330128 $
94889KARB ARB20160310081513303/10/16 08:15:31  5-MIN KARB 101315Z 36006KT 2SM -RA BR BKN005 BKN009 OVC016 13/12 A2997 790 96 800 010/06 RMK AO2 P0001 T01280122 $
94889KARB ARB20160310082013703/10/16 08:20:31  5-MIN KARB 101320Z 36006KT 2 1/2SM -RA BR BKN005 BKN009 OVC018 13/12 A2997 800 96 800 360/06 RMK AO2 P0001 T01280122 $
94889KARB ARB20160310082513803/10/16 08:25:31  5-MIN KARB 101325Z 36004KT 3SM -RA BR BKN005 OVC009 13/12 A2997 800 96 800 010/04 RMK AO2 CIG 001V007 P0001 T01280122 $
94889KARB ARB20160310083013303/10/16 08:30:31  5-MIN KARB 101330Z 35005KT 4SM BR OVC007 13/12 A2997 790 96 800 360/05 RMK AO2 RAE30 CIG 001V010 P0001 T01280122 $
94889KARB ARB20160310083514003/10/16 08:35:31  5-MIN KARB 101335Z 36004KT 4SM BR BKN005 OVC009 13/12 A2997 800 96 800 360/04 RMK AO2 RAE30 CIG 001V007 P0001 T01280122 $
94889KARB ARB20160310084013303/10/16 08:40:31  5-MIN KARB 101340Z 35005KT 4SM BR OVC005 13/12 A2997 800 96 800 360/05 RMK AO2 RAE30 CIG 001V009 P0001 T01280122 $
94889KARB ARB20160310084513303/10/16 08:45:31  5-MIN KARB 101345Z 35004KT 4SM BR OVC005 13/12 A2997 800 96 800 360/04 RMK AO2 RAE30 CIG 004V009 P0001 T01280122 $
94889KARB ARB20160310085014703/10/16 08:50:31  5-MIN KARB 101350Z 36004KT 4SM BR BKN005 OVC009 13/12 A2997 800 96 800 010/04 RMK AO2 RAE30 CIG 004V008 SLP148 P0001 T01280122 $
94889KARB ARB20160310085511603/10/16 08:55:31  5-MIN KARB 101355Z 36004KT 4SM BR BKN005 OVC009 13/12 A2997 800 96 800 010/04 RMK AO2 T01280122 $
94889KARB ARB20160310090012803/10/16 09:00:31  5-MIN KARB 101400Z 35003KT 5SM BR SCT005 OVC009 13/12 A2997 800 96 800 360/03 RMK AO2 CIG 007V011 T01280122 $
94889KARB ARB20160310090512803/10/16 09:05:31  5-MIN KARB 101405Z 34005KT 6SM BR SCT005 OVC009 13/12 A2997 790 96 800 350/05 RMK AO2 CIG 008V012 T01280122 $
94889KARB ARB20160310091011603/10/16 09:10:31  5-MIN KARB 101410Z 35006KT 6SM BR FEW005 OVC010 13/12 A2998 790 93 800 360/06 RMK AO2 T01280117 $
94889KARB ARB20160310091511803/10/16 09:15:31  5-MIN KARB 101415Z 34006KT 7SM OVC010 13/12 A2998 790 93 800 350/06 RMK AO2 CIG 004V013 T01280117 $
94889KARB ARB20160310092011303/10/16 09:20:31  5-MIN KARB 101420Z 36005KT 7SM SCT006 OVC010 13/12 A2998 790 93 800 010/05 RMK AO2 T01280117 $
94889KARB ARB20160310092511603/10/16 09:25:31  5-MIN KARB 101425Z 35006KT 6SM BR BKN006 OVC012 13/12 A2999 780 93 700 360/06 RMK AO2 T01280117 $
94889KARB ARB20160310093011403/10/16 09:30:31  5-MIN KARB 101430Z 35006KT 6SM BR BKN006 OVC012 13/12 A2999 780 93 700 350/06 RMK AO2 T01280117
94889KARB ARB20160310093512603/10/16 09:35:31  5-MIN KARB 101435Z 35006KT 5SM BR BKN006 OVC012 13/12 A2998 780 93 700 360/06 RMK AO2 CIG 005V009 T01280117
94889KARB ARB20160310094012603/10/16 09:40:31  5-MIN KARB 101440Z 36005KT 5SM BR BKN006 OVC012 13/12 A2998 780 93 700 360/05 RMK AO2 CIG 005V009 T01280117
94889KARB ARB20160310094511403/10/16 09:45:31  5-MIN KARB 101445Z 36003KT 4SM BR BKN006 OVC012 13/12 A2998 780 96 700 010/03 RMK AO2 T01280122
94889KARB ARB20160310095013303/10/16 09:50:31  5-MIN KARB 101450Z 36003KT 5SM BR BKN006 OVC012 13/12 A2998 790 93 700 360/03 RMK AO2 SLP152 60003 T01280117 53001
94889KARB ARB20160310095511403/10/16 09:55:31  5-MIN KARB 101455Z 34004KT 5SM BR BKN006 OVC012 13/12 A2998 790 96 700 340/04 RMK AO2 T01280122
94889KARB ARB20160310100011403/10/16 10:00:31  5-MIN KARB 101500Z 32005KT 6SM BR BKN006 OVC012 13/12 A2998 790 93 700 330/05 RMK AO2 T01280117
94889KARB ARB20160310100511403/10/16 10:05:31  5-MIN KARB 101505Z 34004KT 5SM BR BKN006 OVC012 13/12 A2998 790 93 700 350/04 RMK AO2 T01280117
94889KARB ARB20160310101011403/10/16 10:10:31  5-MIN KARB 101510Z 34004KT 5SM BR BKN006 OVC012 13/12 A2998 790 93 700 350/04 RMK AO2 T01280117
94889KARB ARB20160310101511403/10/16 10:15:31  5-MIN KARB 101515Z 35005KT 6SM BR BKN005 OVC014 13/12 A2998 790 93 700 350/05 RMK AO2 T01280117
94889KARB ARB20160310102011403/10/16 10:20:31  5-MIN KARB 101520Z 36004KT 6SM BR SCT005 OVC014 13/12 A2998 790 93 700 360/04 RMK AO2 T01280117
94889KARB ARB20160310102511103/10/16 10:25:31  5-MIN KARB 101525Z 34005KT 7SM SCT005 OVC014 13/12 A2998 780 93 700 350/05 RMK AO2 T01280117
94889KARB ARB20160310103011103/10/16 10:30:31  5-MIN KARB 101530Z 34006KT 8SM FEW005 OVC014 13/12 A2999 780 93 700 340/06 RMK AO2 T01280117
94889KARB ARB20160310103511103/10/16 10:35:31  5-MIN KARB 101535Z 34007KT 7SM SCT005 OVC014 13/12 A2998 780 93 700 340/07 RMK AO2 T01280117
94889KARB ARB20160310104011103/10/16 10:40:31  5-MIN KARB 101540Z 35005KT 7SM SCT007 OVC014 13/12 A2998 780 93 700 350/05 RMK AO2 T01280117
94889KARB ARB20160310104511103/10/16 10:45:31  5-MIN KARB 101545Z 34007KT 8SM BKN007 OVC014 13/11 A2998 780 89 700 340/07 RMK AO2 T01280111
94889KARB ARB20160310105013403/10/16 10:50:31  5-MIN KARB 101550Z 34005KT 7SM -RA BKN007 OVC014 13/11 A2998 780 89 700 340/05 RMK AO2 RAB49 SLP153 P0000 T01280111
94889KARB ARB20160310105512103/10/16 10:55:31  5-MIN KARB 101555Z 34004KT 7SM -RA BKN007 OVC016 13/12 A2998 780 93 700 340/04 RMK AO2 P0000 T01280117
94889KARB ARB20160310110012103/10/16 11:00:31  5-MIN KARB 101600Z 32006KT 7SM -RA BKN007 OVC016 13/12 A2998 780 93 700 330/06 RMK AO2 P0000 T01280117
94889KARB ARB20160310110511603/10/16 11:05:31  5-MIN KARB 101605Z 33006KT 7SM OVC007 13/11 A2998 780 89 700 330/06 RMK AO2 RAE03 P0000 T01280111
94889KARB ARB20160310111011603/10/16 11:10:31  5-MIN KARB 101610Z 32007KT 7SM OVC006 12/11 A2998 780 93 700 330/07 RMK AO2 RAE03 P0000 T01220111
94889KARB ARB20160310111511903/10/16 11:15:31  5-MIN KARB 101615Z 32010KT 6SM BR OVC006 12/11 A2999 780 93 700 330/10 RMK AO2 RAE03 P0000 T01220111
94889KARB ARB20160310112012603/10/16 11:20:31  5-MIN KARB 101620Z 33008KT 5SM -RA BR OVC006 12/11 A2998 780 93 600 340/08 RMK AO2 RAE03B19 P0000 T01170106
94889KARB ARB20160310112512603/10/16 11:25:31  5-MIN KARB 101625Z 33009KT 5SM -RA BR OVC006 12/11 A2999 780 93 600 340/09 RMK AO2 RAE03B19 P0000 T01170106
94889KARB ARB20160310113012603/10/16 11:30:31  5-MIN KARB 101630Z 34008KT 5SM -RA BR OVC006 12/11 A2998 780 93 600 350/08 RMK AO2 RAE03B19 P0000 T01170106
94889KARB ARB20160310113512503/10/16 11:35:31  5-MIN KARB 101635Z 36005KT 5SM BR OVC006 12/11 A2998 780 93 600 010/05 RMK AO2 RAE03B19E31 P0000 T01170106
94889KARB ARB20160310114013203/10/16 11:40:31  5-MIN KARB 101640Z 35005KT 4SM BR BKN006 OVC018 12/11 A2998 780 93 600 360/05 RMK AO2 RAE03B19E31 P0000 T01170106
94889KARB ARB20160310114513203/10/16 11:45:31  5-MIN KARB 101645Z 35006KT 5SM BR BKN006 OVC018 12/11 A2999 780 93 600 360/06 RMK AO2 RAE03B19E31 P0000 T01170106
94889KARB ARB20160310115013903/10/16 11:50:31  5-MIN KARB 101650Z 34008KT 5SM BR BKN006 OVC018 12/11 A2999 780 93 600 350/08 RMK AO2 RAE03B19E31 SLP155 P0000 T01170106
94889KARB ARB20160310115511403/10/16 11:55:31  5-MIN KARB 101655Z 34007KT 5SM BR BKN006 OVC018 12/10 A2999 780 89 600 350/07 RMK AO2 T01170100
94889KARB ARB20160310120011403/10/16 12:00:31  5-MIN KARB 101700Z 34008KT 5SM BR SCT006 OVC018 12/10 A2999 770 89 600 350/08 RMK AO2 T01170100
94889KARB ARB20160310120511403/10/16 12:05:31  5-MIN KARB 101705Z 35004KT 5SM BR SCT008 OVC019 12/11 A2999 770 93 600 360/04 RMK AO2 T01170106
94889KARB ARB20160310121011403/10/16 12:10:31  5-MIN KARB 101710Z 34006KT 5SM BR SCT008 OVC019 12/10 A2999 770 89 600 340/06 RMK AO2 T01170100
94889KARB ARB20160310121511403/10/16 12:15:31  5-MIN KARB 101715Z 33006KT 5SM BR SCT007 OVC021 12/10 A3000 770 89 600 340/06 RMK AO2 T01170100
94889KARB ARB20160310122011403/10/16 12:20:31  5-MIN KARB 101720Z 33009KT 5SM BR BKN007 OVC021 12/10 A3000 770 89 600 330/09 RMK AO2 T01170100
94889KARB ARB20160310122511403/10/16 12:25:31  5-MIN KARB 101725Z 33007KT 5SM BR SCT007 OVC021 12/10 A2999 770 89 600 340/07 RMK AO2 T01170100
94889KARB ARB20160310123011403/10/16 12:30:31  5-MIN KARB 101730Z 33005KT 5SM BR SCT008 OVC023 12/10 A2999 770 89 600 340/05 RMK AO2 T01170100
94889KARB ARB20160310123511403/10/16 12:35:31  5-MIN KARB 101735Z 34006KT 5SM BR SCT008 OVC025 12/10 A2999 770 89 600 350/06 RMK AO2 T01170100
94889KARB ARB20160310124011403/10/16 12:40:31  5-MIN KARB 101740Z 35007KT 5SM BR SCT008 OVC025 12/10 A2999 770 89 600 350/07 RMK AO2 T01170100
94889KARB ARB20160310124511403/10/16 12:45:31  5-MIN KARB 101745Z 33007KT 5SM BR BKN008 OVC027 12/10 A2999 780 89 600 340/07 RMK AO2 T01170100
94889KARB ARB20160310125010403/10/16 12:50:31  5-MIN KARB 101750Z 35006KT 5SM BR BKN008 OVC027 12/10 A2998 780 89 600 360/06 RMK AO2
94889KARB ARB20160310125511403/10/16 12:55:31  5-MIN KARB 101755Z 35004KT 5SM BR BKN008 OVC029 12/10 A2998 780 86 700 350/04 RMK AO2 T01220100
94889KARB ARB20160310130011403/10/16 13:00:31  5-MIN KARB 101800Z 35007KT 5SM BR BKN008 OVC029 12/11 A2998 780 89 700 360/07 RMK AO2 T01220106
94889KARB ARB20160310130511403/10/16 13:05:31  5-MIN KARB 101805Z 35006KT 5SM BR BKN009 OVC029 12/10 A2998 790 86 700 350/06 RMK AO2 T01220100
94889KARB ARB20160310131011403/10/16 13:10:31  5-MIN KARB 101810Z 35006KT 5SM BR BKN009 OVC029 12/10 A2997 790 86 700 350/06 RMK AO2 T01220100
94889KARB ARB20160310131511403/10/16 13:15:31  5-MIN KARB 101815Z 33007KT 5SM BR BKN009 OVC029 12/11 A2998 790 89 700 330/07 RMK AO2 T01220106
94889KARB ARB20160310132010703/10/16 13:20:31  5-MIN KARB 101820Z 33009KT 5SM BR OVC009 12/10 A2998 790 89 600 340/09 RMK AO2 T01170100
94889KARB ARB20160310132510703/10/16 13:25:31  5-MIN KARB 101825Z 33009KT 5SM BR OVC009 12/09 A2998 790 86 600 340/09 RMK AO2 T01170094
94889KARB ARB20160310133010703/10/16 13:30:31  5-MIN KARB 101830Z 34008KT 5SM BR OVC009 12/10 A2998 790 89 600 350/08 RMK AO2 T01170100
94889KARB ARB20160310133510703/10/16 13:35:31  5-MIN KARB 101835Z 33008KT 5SM BR OVC009 12/10 A2998 790 89 600 330/08 RMK AO2 T01170100
94889KARB ARB20160310134011903/10/16 13:40:31  5-MIN KARB 101840Z 34007KT 4SM BR OVC009 12/10 A2998 790 89 600 350/07 RMK AO2 CIG 006V010 T01170100
94889KARB ARB20160310134511903/10/16 13:45:31  5-MIN KARB 101845Z 34009KT 4SM BR OVC008 12/10 A2998 790 89 600 350/09 RMK AO2 CIG 006V010 T01170100
94889KARB ARB20160310135011403/10/16 13:50:31  5-MIN KARB 101850Z 33006KT 4SM BR OVC008 12/10 A2998 790 89 600 340/06 RMK AO2 SLP152 T01170100
94889KARB ARB20160310135510703/10/16 13:55:31  5-MIN KARB 101855Z 35008KT 4SM BR OVC008 11/10 A2998 790 93 500 360/08 RMK AO2 T01110100
94889KARB ARB20160310140010703/10/16 14:00:31  5-MIN KARB 101900Z 34007KT 4SM BR OVC007 11/09 A2999 780 89 500 350/07 RMK AO2 T01110094
94889KARB ARB20160310140510703/10/16 14:05:31  5-MIN KARB 101905Z 34010KT 4SM BR OVC007 11/09 A2999 780 89 500 350/10 RMK AO2 T01110094
94889KARB ARB20160310141010703/10/16 14:10:31  5-MIN KARB 101910Z 34007KT 4SM BR OVC007 11/09 A2999 780 89 500 350/07 RMK AO2 T01110094
94889KARB ARB20160310141510703/10/16 14:15:31  5-MIN KARB 101915Z 34008KT 4SM BR OVC007 11/09 A2999 780 89 500 350/08 RMK AO2 T01110094
94889KARB ARB20160310142011903/10/16 14:20:31  5-MIN KARB 101920Z 33009KT 5SM BR OVC007 11/09 A2999 780 89 500 340/09 RMK AO2 CIG 006V010 T01110094
94889KARB ARB20160310142510703/10/16 14:25:31  5-MIN KARB 101925Z 33008KT 5SM BR OVC007 11/09 A2999 780 89 500 340/08 RMK AO2 T01110094
94889KARB ARB20160310143010703/10/16 14:30:31  5-MIN KARB 101930Z 34008KT 6SM BR OVC009 11/09 A2999 780 86 500 340/08 RMK AO2 T01110089
94889KARB ARB20160310143511903/10/16 14:35:31  5-MIN KARB 101935Z 34007KT 6SM BR OVC009 11/09 A2999 770 86 500 340/07 RMK AO2 CIG 007V012 T01110089
94889KARB ARB20160310144011903/10/16 14:40:31  5-MIN KARB 101940Z 33009KT 6SM BR OVC009 11/09 A2999 770 86 500 330/09 RMK AO2 CIG 008V013 T01110089
94889KARB ARB20160310144510403/10/16 14:45:31  5-MIN KARB 101945Z 34008KT 7SM OVC011 12/09 A2999 770 86 600 350/08 RMK AO2 T01170094
94889KARB ARB20160310145011103/10/16 14:50:31  5-MIN KARB 101950Z 34007KT 7SM OVC011 11/09 A2999 780 86 500 350/07 RMK AO2 SLP157 T01110089
94889KARB ARB20160310145510403/10/16 14:55:31  5-MIN KARB 101955Z 35008KT 7SM OVC011 11/09 A2999 780 89 500 360/08 RMK AO2 T01110094
94889KARB ARB20160310150010703/10/16 15:00:31  5-MIN KARB 102000Z 35009KT 6SM BR OVC011 11/09 A2999 780 86 500 360/09 RMK AO2 T01110089
94889KARB ARB20160310150510403/10/16 15:05:31  5-MIN KARB 102005Z 34011KT 7SM OVC014 11/09 A2999 780 86 500 350/11 RMK AO2 T01110089
94889KARB ARB20160310151011803/10/16 15:10:31  5-MIN KARB 102010Z 33009KT 7SM FEW010 BKN014 OVC022 11/09 A2999 780 86 500 340/09 RMK AO2 T01110089
94889KARB ARB20160310151511103/10/16 15:15:31  5-MIN KARB 102015Z 33007KT 8SM SCT012 OVC018 12/09 A2998 780 83 600 340/07 RMK AO2 T01170089
94889KARB ARB20160310152011803/10/16 15:20:31  5-MIN KARB 102020Z 35008KT 8SM FEW012 BKN018 OVC095 12/09 A2998 780 83 600 360/08 RMK AO2 T01170089
94889KARB ARB20160310152511803/10/16 15:25:31  5-MIN KARB 102025Z 33008KT 8SM FEW014 BKN020 OVC095 12/08 A2998 780 80 600 340/08 RMK AO2 T01170083
94889KARB ARB20160310153011803/10/16 15:30:31  5-MIN KARB 102030Z 34008KT 8SM BKN016 BKN022 OVC095 12/08 A2999 780 80 600 350/08 RMK AO2 T01170083
94889KARB ARB20160310153511803/10/16 15:35:31  5-MIN KARB 102035Z 33007KT 8SM BKN016 BKN022 BKN095 11/08 A2998 780 83 500 340/07 RMK AO2 T01110083
94889KARB ARB20160310154011803/10/16 15:40:31  5-MIN KARB 102040Z 33008KT 9SM SCT016 BKN022 OVC100 12/08 A2999 780 80 600 340/08 RMK AO2 T01170083
94889KARB ARB20160310154511803/10/16 15:45:31  5-MIN KARB 102045Z 33006KT 9SM FEW015 SCT020 OVC100 12/08 A2999 780 77 600 330/06 RMK AO2 T01170078
94889KARB ARB20160310155013103/10/16 15:50:31  5-MIN KARB 102050Z 32010KT 9SM SCT015 SCT023 OVC100 12/08 A2999 770 77 600 330/10 RMK AO2 SLP157 T01170078 51004
94889KARB ARB20160310155511803/10/16 15:55:31  5-MIN KARB 102055Z 33008KT 9SM SCT017 SCT024 OVC100 11/08 A2999 770 80 500 330/08 RMK AO2 T01110078
94889KARB ARB20160310160011903/10/16 16:00:31  5-MIN KARB 102100Z 33007KT 10SM FEW017 BKN022 OVC100 11/08 A3000 770 80 500 340/07 RMK AO2 T01110078
94889KARB ARB20160310160511203/10/16 16:05:31  5-MIN KARB 102105Z 33009KT 10SM BKN021 OVC100 12/08 A3000 770 77 600 340/09 RMK AO2 T01170078
94889KARB ARB20160310161011903/10/16 16:10:31  5-MIN KARB 102110Z 35010KT 10SM BKN021 BKN027 OVC100 11/08 A3000 770 80 500 360/10 RMK AO2 T01110078
94889KARB ARB20160310161511903/10/16 16:15:31  5-MIN KARB 102115Z 35009KT 10SM BKN021 BKN027 OVC100 11/07 A3000 770 77 500 350/09 RMK AO2 T01110072
94889KARB ARB20160310162011203/10/16 16:20:31  5-MIN KARB 102120Z 35010KT 10SM SCT019 OVC025 11/07 A3000 770 77 500 350/10 RMK AO2 T01110072
94889KARB ARB20160310162511203/10/16 16:25:31  5-MIN KARB 102125Z 34009KT 10SM BKN021 OVC025 11/07 A3000 770 77 500 350/09 RMK AO2 T01110072
94889KARB ARB20160310163011903/10/16 16:30:31  5-MIN KARB 102130Z 01008KT 10SM BKN019 BKN025 OVC110 11/07 A3000 770 77 500 020/08 RMK AO2 T01110072
94889KARB ARB20160310163511903/10/16 16:35:31  5-MIN KARB 102135Z 35010KT 10SM SCT019 BKN025 OVC110 11/07 A3001 760 77 500 350/10 RMK AO2 T01110072
94889KARB ARB20160310164011903/10/16 16:40:31  5-MIN KARB 102140Z 35009KT 10SM SCT019 BKN025 OVC110 11/07 A3001 760 77 400 360/09 RMK AO2 T01060067
94889KARB ARB20160310164511903/10/16 16:45:31  5-MIN KARB 102145Z 36011KT 10SM SCT019 BKN025 OVC110 11/07 A3002 750 77 400 010/11 RMK AO2 T01060067
94889KARB ARB20160310165011903/10/16 16:50:31  5-MIN KARB 102150Z 01010KT 10SM BKN019 OVC025 11/07 A3002 750 77 400 020/10 RMK AO2 SLP167 T01060067
94889KARB ARB20160310165511203/10/16 16:55:31  5-MIN KARB 102155Z 01011KT 10SM BKN018 OVC025 10/07 A3003 740 80 400 010/11 RMK AO2 T01000067
94889KARB ARB20160310170011703/10/16 17:00:31  5-MIN KARB 102200Z AUTO 36009KT 10SM BKN018 OVC025 10/07 A3003 740 80 400 010/09 RMK AO2 T01000067
94889KARB ARB20160310170511703/10/16 17:05:31  5-MIN KARB 102205Z AUTO 36009KT 10SM BKN018 OVC025 10/07 A3003 740 80 400 010/09 RMK AO2 T01000067
94889KARB ARB20160310171013203/10/16 17:10:31  5-MIN KARB 102210Z AUTO 35009KT 9SM -RA BKN018 OVC025 10/07 A3003 740 80 400 360/09 RMK AO2 RAB10 P0000 T01000067
94889KARB ARB20160310171512603/10/16 17:15:31  5-MIN KARB 102215Z AUTO 35012KT 10SM -RA OVC018 10/07 A3004 730 80 400 360/12 RMK AO2 RAB10 P0000 T01000067
94889KARB ARB20160310172013203/10/16 17:20:31  5-MIN KARB 102220Z AUTO 01008KT 10SM BKN018 OVC095 10/07 A3004 730 80 300 010/08 RMK AO2 RAB10E19 P0000 T01000067
94889KARB ARB20160310172513903/10/16 17:25:31  5-MIN KARB 102225Z AUTO 01006KT 10SM BKN018 BKN023 OVC095 10/07 A3004 730 80 400 020/06 RMK AO2 RAB10E19 P0000 T01000067
94889KARB ARB20160310173013803/10/16 17:30:31  5-MIN KARB 102230Z AUTO 01006KT 9SM SCT018 BKN023 OVC090 10/06 A3004 730 77 300 010/06 RMK AO2 RAB10E19 P0000 T01000061
94889KARB ARB20160310173513903/10/16 17:35:31  5-MIN KARB 102235Z AUTO 35006KT 10SM FEW017 BKN080 OVC100 10/06 A3004 730 77 300 360/06 RMK AO2 RAB10E19 P0000 T01000061
94889KARB ARB20160310174013903/10/16 17:40:31  5-MIN KARB 102240Z AUTO 36005KT 10SM FEW017 BKN080 OVC095 10/06 A3004 730 77 300 360/05 RMK AO2 RAB10E19 P0000 T01000061
94889KARB ARB20160310174513903/10/16 17:45:31  5-MIN KARB 102245Z AUTO 35004KT 10SM FEW023 BKN080 OVC100 10/06 A3003 740 77 400 360/04 RMK AO2 RAB10E19 P0000 T01000061
94889KARB ARB20160310175013903/10/16 17:50:31  5-MIN KARB 102250Z AUTO 35005KT 10SM FEW023 OVC085 10/06 A3003 740 77 400 360/05 RMK AO2 RAB10E19 SLP171 P0000 T01000061
94889KARB ARB20160310175511003/10/16 17:55:31  5-MIN KARB 102255Z AUTO 35006KT 10SM OVC090 10/06 A3004 730 77 300 350/06 RMK AO2 T01000061
94889KARB ARB20160310180011003/10/16 18:00:31  5-MIN KARB 102300Z AUTO 35005KT 10SM OVC090 10/06 A3004 730 77 300 360/05 RMK AO2 T01000061
94889KARB ARB20160310180511003/10/16 18:05:31  5-MIN KARB 102305Z AUTO 01007KT 10SM OVC095 10/06 A3004 730 77 400 020/07 RMK AO2 T01000061
94889KARB ARB20160310181011703/10/16 18:10:31  5-MIN KARB 102310Z AUTO 36005KT 10SM FEW020 OVC095 09/06 A3004 730 76 300 010/05 RMK AO2 T00940056
94889KARB ARB20160310181511703/10/16 18:15:31  5-MIN KARB 102315Z AUTO 36007KT 10SM SCT018 OVC095 09/06 A3004 730 79 300 010/07 RMK AO2 T00940061
94889KARB ARB20160310182011703/10/16 18:20:31  5-MIN KARB 102320Z AUTO 36006KT 10SM BKN018 OVC100 09/06 A3004 730 79 300 360/06 RMK AO2 T00940061
94889KARB ARB20160310182511703/10/16 18:25:31  5-MIN KARB 102325Z AUTO 36009KT 10SM BKN018 OVC100 09/06 A3004 730 79 300 360/09 RMK AO2 T00940061
94889KARB ARB20160310183012403/10/16 18:30:31  5-MIN KARB 102330Z AUTO 01007KT 10SM BKN018 BKN022 OVC100 09/06 A3005 720 79 300 020/07 RMK AO2 T00940061
94889KARB ARB20160310183511703/10/16 18:35:31  5-MIN KARB 102335Z AUTO 04007KT 10SM BKN018 OVC023 09/06 A3004 730 79 300 050/07 RMK AO2 T00940061
94889KARB ARB20160310184011703/10/16 18:40:31  5-MIN KARB 102340Z AUTO 01009KT 10SM BKN018 OVC024 09/06 A3005 720 83 200 020/09 RMK AO2 T00890061
94889KARB ARB20160310184511003/10/16 18:45:31  5-MIN KARB 102345Z AUTO 02009KT 10SM OVC018 09/06 A3005 720 79 200 030/09 RMK AO2 T00890056
94889KARB ARB20160310185014103/10/16 18:50:31  5-MIN KARB 102350Z AUTO 36009KT 10SM OVC018 09/06 A3006 720 79 200 010/09 RMK AO2 SLP180 60000 T00890056 10122 20089 56000
94889KARB ARB20160310185511703/10/16 18:55:31  5-MIN KARB 102355Z AUTO 36010KT 10SM BKN020 OVC024 09/06 A3006 710 79 200 010/10 RMK AO2 T00890056
94889KARB ARB20160310190011703/10/16 19:00:31  5-MIN KARB 110000Z AUTO 36010KT 10SM BKN020 OVC025 09/05 A3007 710 76 200 010/10 RMK AO2 T00890050
94889KARB ARB20160310190511703/10/16 19:05:31  5-MIN KARB 110005Z AUTO 01006KT 10SM BKN020 OVC025 09/05 A3007 710 76 200 010/06 RMK AO2 T00890050
94889KARB ARB20160310191012403/10/16 19:10:31  5-MIN KARB 110010Z AUTO 01008KT 10SM SCT019 BKN025 OVC120 09/05 A3007 710 76 200 020/08 RMK AO2 T00890050
94889KARB ARB20160310191511703/10/16 19:15:31  5-MIN KARB 110015Z AUTO 01006KT 10SM SCT023 BKN120 09/05 A3006 710 76 200 020/06 RMK AO2 T00890050
94889KARB ARB20160310192011703/10/16 19:20:31  5-MIN KARB 110020Z AUTO 36006KT 10SM SCT023 BKN120 08/05 A3007 710 79 100 010/06 RMK AO2 T00830050
94889KARB ARB20160310192511703/10/16 19:25:31  5-MIN KARB 110025Z AUTO 36007KT 10SM FEW025 SCT120 08/05 A3007 700 79 100 360/07 RMK AO2 T00830050
94889KARB ARB20160310193011703/10/16 19:30:31  5-MIN KARB 110030Z AUTO 36006KT 10SM FEW027 FEW120 08/05 A3007 700 79 100 010/06 RMK AO2 T00830050
94889KARB ARB20160310193511003/10/16 19:35:31  5-MIN KARB 110035Z AUTO 03005KT 10SM FEW120 08/05 A3007 700 79 100 040/05 RMK AO2 T00830050
94889KARB ARB20160310194010703/10/16 19:40:31  5-MIN KARB 110040Z AUTO 02006KT 10SM CLR 08/05 A3007 700 79 100 030/06 RMK AO2 T00830050
94889KARB ARB20160310194511003/10/16 19:45:31  5-MIN KARB 110045Z AUTO 02006KT 10SM FEW100 08/05 A3008 700 79 100 030/06 RMK AO2 T00830050
94889KARB ARB20160310195011703/10/16 19:50:31  5-MIN KARB 110050Z AUTO 01006KT 10SM SCT110 08/05 A3008 700 79 100 020/06 RMK AO2 SLP187 T00830050
94889KARB ARB20160310195511003/10/16 19:55:31  5-MIN KARB 110055Z AUTO 02007KT 10SM SCT120 08/04 A3008 700 76 100 020/07 RMK AO2 T00830044
94889KARB ARB20160310200011003/10/16 20:00:31  5-MIN KARB 110100Z AUTO 02007KT 10SM FEW110 08/04 A3008 690 76 100 030/07 RMK AO2 T00830044
94889KARB ARB20160310200511003/10/16 20:05:31  5-MIN KARB 110105Z AUTO 03005KT 10SM FEW110 08/04 A3008 700 76 100 040/05 RMK AO2 T00830044
94889KARB ARB20160310201011003/10/16 20:10:31  5-MIN KARB 110110Z AUTO 03006KT 10SM FEW110 08/04 A3008 700 76 100 040/06 RMK AO2 T00830044
94889KARB ARB20160310201511003/10/16 20:15:31  5-MIN KARB 110115Z AUTO 03006KT 10SM FEW120 08/04 A3008 690 76 100 030/06 RMK AO2 T00830044
94889KARB ARB20160310202010703/10/16 20:20:31  5-MIN KARB 110120Z AUTO 02007KT 10SM CLR 08/04 A3008 690 76 100 020/07 RMK AO2 T00830044
94889KARB ARB20160310202510703/10/16 20:25:31  5-MIN KARB 110125Z AUTO 02005KT 10SM CLR 08/04 A3009 680 76 100 020/05 RMK AO2 T00830044
94889KARB ARB20160310203010703/10/16 20:30:31  5-MIN KARB 110130Z AUTO 01005KT 10SM CLR 08/04 A3009 680 76 100 020/05 RMK AO2 T00830044
94889KARB ARB20160310203510703/10/16 20:35:31  5-MIN KARB 110135Z AUTO 02005KT 10SM CLR 08/04 A3010 680 76 100 020/05 RMK AO2 T00830044
94889KARB ARB20160310204010503/10/16 20:40:31  5-MIN KARB 110140Z AUTO 36003KT 10SM CLR 08/04 A3010 680 79 0 010/03 RMK AO2 T00780044
94889KARB ARB20160310204510703/10/16 20:45:31  5-MIN KARB 110145Z AUTO 36004KT 10SM CLR 08/04 A3010 680 76 100 010/04 RMK AO2 T00830044
94889KARB ARB20160310205011403/10/16 20:50:31  5-MIN KARB 110150Z AUTO 36004KT 10SM CLR 08/04 A3010 670 76 100 010/04 RMK AO2 SLP196 T00830044
94889KARB ARB20160310205510703/10/16 20:55:31  5-MIN KARB 110155Z AUTO 36005KT 10SM CLR 08/04 A3011 670 76 100 010/05 RMK AO2 T00830044
94889KARB ARB20160310210010703/10/16 21:00:31  5-MIN KARB 110200Z AUTO 36004KT 10SM CLR 08/04 A3011 670 76 100 010/04 RMK AO2 T00830044
94889KARB ARB20160310210510503/10/16 21:05:31  5-MIN KARB 110205Z AUTO 36003KT 10SM CLR 08/04 A3011 670 79 0 360/03 RMK AO2 T00780044
94889KARB ARB20160310211010503/10/16 21:10:31  5-MIN KARB 110210Z AUTO 36004KT 10SM CLR 08/04 A3011 670 79 0 360/04 RMK AO2 T00780044
94889KARB ARB20160310211510703/10/16 21:15:31  5-MIN KARB 110215Z AUTO 34003KT 10SM CLR 08/04 A3012 660 76 100 350/03 RMK AO2 T00830044
94889KARB ARB20160310212010503/10/16 21:20:31  5-MIN KARB 110220Z AUTO 33004KT 10SM CLR 08/04 A3012 660 79 0 340/04 RMK AO2 T00780044
94889KARB ARB20160310212510503/10/16 21:25:31  5-MIN KARB 110225Z AUTO 34004KT 10SM CLR 08/04 A3012 660 79 0 340/04 RMK AO2 T00780044
94889KARB ARB20160310213010503/10/16 21:30:31  5-MIN KARB 110230Z AUTO 33004KT 10SM CLR 08/04 A3013 650 79 0 340/04 RMK AO2 T00780044
94889KARB ARB20160310213510503/10/16 21:35:31  5-MIN KARB 110235Z AUTO 34004KT 10SM CLR 08/04 A3012 650 79 0 350/04 RMK AO2 T00780044
94889KARB ARB20160310214010503/10/16 21:40:31  5-MIN KARB 110240Z AUTO 34004KT 10SM CLR 08/04 A3013 650 79 0 350/04 RMK AO2 T00780044
94889KARB ARB20160310214510803/10/16 21:45:31  5-MIN KARB 110245Z AUTO 34004KT 10SM FEW031 08/04 A3013 650 79 0 350/04 RMK AO2 T00780044
94889KARB ARB20160310215012103/10/16 21:50:31  5-MIN KARB 110250Z AUTO 35004KT 10SM SCT031 08/04 A3013 650 79 0 360/04 RMK AO2 SLP205 T00780044 51023
94889KARB ARB20160310215510803/10/16 21:55:31  5-MIN KARB 110255Z AUTO 35003KT 10SM BKN031 08/04 A3013 650 79 0 360/03 RMK AO2 T00780044
94889KARB ARB20160310220010803/10/16 22:00:31  5-MIN KARB 110300Z AUTO 35003KT 10SM BKN031 08/04 A3013 650 79 0 350/03 RMK AO2 T00780044
94889KARB ARB20160310220510803/10/16 22:05:31  5-MIN KARB 110305Z AUTO 33004KT 10SM BKN030 08/04 A3014 640 79 0 340/04 RMK AO2 T00780044
94889KARB ARB20160310221011503/10/16 22:10:31  5-MIN KARB 110310Z AUTO 33005KT 10SM FEW022 OVC030 08/04 A3014 640 79 0 340/05 RMK AO2 T00780044
94889KARB ARB20160310221511503/10/16 22:15:31  5-MIN KARB 110315Z AUTO 34005KT 10SM FEW022 OVC030 08/04 A3014 640 76 0 340/05 RMK AO2 T00830044
94889KARB ARB20160310222011503/10/16 22:20:31  5-MIN KARB 110320Z AUTO 34003KT 10SM FEW022 OVC028 08/04 A3015 630 79 0 340/03 RMK AO2 T00780044
94889KARB ARB20160310222511503/10/16 22:25:31  5-MIN KARB 110325Z AUTO 00000KT 10SM FEW022 OVC028 08/04 A3015 630 79 0 000/00 RMK AO2 T00780044
94889KARB ARB20160310223011503/10/16 22:30:31  5-MIN KARB 110330Z AUTO 32003KT 10SM FEW022 OVC028 08/05 A3015 630 82 0 330/03 RMK AO2 T00780050
94889KARB ARB20160310223511503/10/16 22:35:31  5-MIN KARB 110335Z AUTO 00000KT 10SM FEW021 OVC028 08/04 A3014 640 79 0 000/00 RMK AO2 T00780044
94889KARB ARB20160310224010803/10/16 22:40:31  5-MIN KARB 110340Z AUTO 00000KT 10SM OVC027 08/04 A3014 640 76 0 000/00 RMK AO2 T00830044
94889KARB ARB20160310224510803/10/16 22:45:31  5-MIN KARB 110345Z AUTO 00000KT 10SM OVC027 08/04 A3014 640 79 0 000/00 RMK AO2 T00780044
94889KARB ARB20160310225011503/10/16 22:50:31  5-MIN KARB 110350Z AUTO 01003KT 10SM OVC029 08/04 A3014 640 79 0 010/03 RMK AO2 SLP208 T00780044
94889KARB ARB20160310225510803/10/16 22:55:31  5-MIN KARB 110355Z AUTO 36005KT 10SM OVC029 08/04 A3014 640 79 0 360/05 RMK AO2 T00780044
94889KARB ARB20160310230010803/10/16 23:00:31  5-MIN KARB 110400Z AUTO 35004KT 10SM OVC029 08/04 A3014 640 79 0 350/04 RMK AO2 T00780044
94889KARB ARB20160310230510803/10/16 23:05:31  5-MIN KARB 110405Z AUTO 34005KT 10SM BKN031 08/04 A3014 640 79 0 350/05 RMK AO2 T00780044
94889KARB ARB20160310231011503/10/16 23:10:31  5-MIN KARB 110410Z AUTO 34004KT 10SM SCT021 OVC031 08/04 A3015 630 79 0 350/04 RMK AO2 T00780044
94889KARB ARB20160310231511503/10/16 23:15:31  5-MIN KARB 110415Z AUTO 34006KT 10SM BKN019 OVC031 08/04 A3015 630 79 0 350/06 RMK AO2 T00780044
94889KARB ARB20160310232011503/10/16 23:20:31  5-MIN KARB 110420Z AUTO 35005KT 10SM BKN019 OVC031 08/04 A3015 630 79 0 350/05 RMK AO2 T00780044
94889KARB ARB20160310232511503/10/16 23:25:31  5-MIN KARB 110425Z AUTO 35006KT 10SM BKN018 OVC031 08/04 A3015 630 79 0 360/06 RMK AO2 T00780044
94889KARB ARB20160310233010803/10/16 23:30:31  5-MIN KARB 110430Z AUTO 35005KT 10SM OVC018 08/04 A3014 640 79 0 360/05 RMK AO2 T00780044
94889KARB ARB20160310233510803/10/16 23:35:31  5-MIN KARB 110435Z AUTO 35004KT 10SM OVC018 08/04 A3014 640 79 0 350/04 RMK AO2 T00780044
94889KARB ARB20160310234010803/10/16 23:40:31  5-MIN KARB 110440Z AUTO 35007KT 10SM OVC018 08/04 A3014 640 79 0 350/07 RMK AO2 T00780044
94889KARB ARB20160310234510803/10/16 23:45:31  5-MIN KARB 110445Z AUTO 36006KT 10SM OVC018 08/04 A3014 640 79 0 360/06 RMK AO2 T00780044
94889KARB ARB20160310235012503/10/16 23:50:31  5-MIN KARB 110450Z AUTO 34007KT 10SM OVC018 08/04 A3014 640 79 0 350/07 RMK AO2 SLP209 T00780044 401500078
94889KARB ARB20160310235511103/10/16 23:55:31  5-MIN KARB 110455Z AUTO 35005KT 10SM OVC018 07/04 A3014 640 82 -100 360/05 RMK AO2 T00720044
94889KARB ARB20160311000011103/11/16 00:00:31  5-MIN KARB 110500Z AUTO 34006KT 10SM OVC018 07/04 A3014 640 82 -100 340/06 RMK AO2 T00720044
94889KARB ARB20160311000511103/11/16 00:05:31  5-MIN KARB 110505Z AUTO 34006KT 10SM BKN018 07/04 A3015 630 82 -100 340/06 RMK AO2 T00720044
94889KARB ARB20160311001011103/11/16 00:10:31  5-MIN KARB 110510Z AUTO 34005KT 10SM BKN018 07/04 A3015 630 86 -100 340/05 RMK AO2 T00670044
94889KARB ARB20160311001511103/11/16 00:15:31  5-MIN KARB 110515Z AUTO 35006KT 10SM BKN018 07/04 A3015 630 82 -100 350/06 RMK AO2 T00720044
94889KARB ARB20160311002011103/11/16 00:20:31  5-MIN KARB 110520Z AUTO 34006KT 10SM BKN016 07/04 A3016 620 82 -100 350/06 RMK AO2 T00720044
94889KARB ARB20160311002511103/11/16 00:25:31  5-MIN KARB 110525Z AUTO 34007KT 10SM BKN017 07/04 A3016 620 82 -100 350/07 RMK AO2 T00720044
94889KARB ARB20160311003011103/11/16 00:30:31  5-MIN KARB 110530Z AUTO 34007KT 10SM BKN017 07/04 A3016 620 79 -100 350/07 RMK AO2 T00720039
94889KARB ARB20160311003511103/11/16 00:35:31  5-MIN KARB 110535Z AUTO 33006KT 10SM OVC017 07/04 A3016 620 82 -100 330/06 RMK AO2 T00670039
94889KARB ARB20160311004011103/11/16 00:40:31  5-MIN KARB 110540Z AUTO 33007KT 10SM OVC017 07/04 A3017 610 82 -200 330/07 RMK AO2 T00670039
94889KARB ARB20160311004511103/11/16 00:45:31  5-MIN KARB 110545Z AUTO 34007KT 10SM OVC019 07/04 A3017 610 82 -200 340/07 RMK AO2 T00670039
94889KARB ARB20160311005013603/11/16 00:50:31  5-MIN KARB 110550Z AUTO 34010KT 10SM BKN019 07/04 A3017 610 82 -200 350/10 RMK AO2 SLP219 T00670039 10089 20067 53023
94889KARB ARB20160311005511103/11/16 00:55:31  5-MIN KARB 110555Z AUTO 35008KT 10SM BKN019 06/03 A3017 610 82 -200 360/08 RMK AO2 T00610033
94889KARB ARB20160311010011103/11/16 01:00:31  5-MIN KARB 110600Z AUTO 35007KT 10SM SCT019 06/03 A3017 610 82 -200 350/07 RMK AO2 T00610033
94889KARB ARB20160311010511103/11/16 01:05:31  5-MIN KARB 110605Z AUTO 34006KT 10SM SCT019 06/03 A3017 610 79 -200 350/06 RMK AO2 T00610028
94889KARB ARB20160311011011103/11/16 01:10:31  5-MIN KARB 110610Z AUTO 34007KT 10SM FEW019 06/03 A3017 610 82 -300 350/07 RMK AO2 T00560028
94889KARB ARB20160311011510803/11/16 01:15:31  5-MIN KARB 110615Z AUTO 35008KT 10SM CLR 06/03 A3017 610 82 -300 350/08 RMK AO2 T00560028
94889KARB ARB20160311012010803/11/16 01:20:31  5-MIN KARB 110620Z AUTO 35007KT 10SM CLR 06/03 A3017 610 82 -300 350/07 RMK AO2 T00560028
94889KARB ARB20160311012510803/11/16 01:25:31  5-MIN KARB 110625Z AUTO 34007KT 10SM CLR 06/03 A3018 600 82 -300 350/07 RMK AO2 T00560028
94889KARB ARB20160311013010803/11/16 01:30:31  5-MIN KARB 110630Z AUTO 34008KT 10SM CLR 06/03 A3018 600 82 -300 350/08 RMK AO2 T00560028
94889KARB ARB20160311013510803/11/16 01:35:31  5-MIN KARB 110635Z AUTO 34007KT 10SM CLR 06/03 A3019 590 82 -300 350/07 RMK AO2 T00560028
94889KARB ARB20160311014011503/11/16 01:40:31  5-MIN KARB 110640Z AUTO 34008KT 10SM CLR 06/03 A3019 590 82 -300 350/08 RMK AO2 PRESRR T00560028
94889KARB ARB20160311014510803/11/16 01:45:31  5-MIN KARB 110645Z AUTO 35007KT 10SM CLR 06/03 A3020 590 82 -300 360/07 RMK AO2 T00560028
94889KARB ARB20160311015011503/11/16 01:50:31  5-MIN KARB 110650Z AUTO 34006KT 10SM CLR 06/02 A3020 580 79 -300 350/06 RMK AO2 SLP230 T00560022
94889KARB ARB20160311015510803/11/16 01:55:31  5-MIN KARB 110655Z AUTO 34006KT 10SM CLR 05/02 A3020 580 82 -400 350/06 RMK AO2 T00500022
94889KARB ARB20160311020010803/11/16 02:00:31  5-MIN KARB 110700Z AUTO 34007KT 10SM CLR 05/02 A3020 580 82 -400 350/07 RMK AO2 T00500022
94889KARB ARB20160311020510803/11/16 02:05:31  5-MIN KARB 110705Z AUTO 34004KT 10SM CLR 05/02 A3021 580 82 -400 340/04 RMK AO2 T00500022
94889KARB ARB20160311021010803/11/16 02:10:31  5-MIN KARB 110710Z AUTO 34004KT 10SM CLR 05/02 A3021 580 82 -400 350/04 RMK AO2 T00500022
94889KARB ARB20160311021510803/11/16 02:15:31  5-MIN KARB 110715Z AUTO 34005KT 10SM CLR 04/02 A3020 580 85 -500 340/05 RMK AO2 T00440022
94889KARB ARB20160311022011103/11/16 02:20:31  5-MIN KARB 110720Z AUTO 35005KT 10SM FEW020 04/02 A3020 580 85 -500 360/05 RMK AO2 T00440022
94889KARB ARB20160311022511103/11/16 02:25:31  5-MIN KARB 110725Z AUTO 35006KT 10SM SCT020 05/02 A3021 580 82 -400 350/06 RMK AO2 T00500022
94889KARB ARB20160311023011103/11/16 02:30:31  5-MIN KARB 110730Z AUTO 34004KT 10SM BKN020 05/02 A3021 570 82 -400 350/04 RMK AO2 T00500022
94889KARB ARB20160311023511103/11/16 02:35:31  5-MIN KARB 110735Z AUTO 33004KT 10SM BKN020 05/02 A3021 570 82 -400 340/04 RMK AO2 T00500022
94889KARB ARB20160311024011103/11/16 02:40:31  5-MIN KARB 110740Z AUTO 33005KT 10SM BKN020 05/03 A3022 570 85 -400 340/05 RMK AO2 T00500028
94889KARB ARB20160311024511103/11/16 02:45:31  5-MIN KARB 110745Z AUTO 34005KT 10SM OVC020 05/03 A3021 570 85 -400 350/05 RMK AO2 T00500028
94889KARB ARB20160311025011803/11/16 02:50:31  5-MIN KARB 110750Z AUTO 34005KT 10SM OVC020 06/03 A3021 570 82 -300 350/05 RMK AO2 SLP234 T00560028
94889KARB ARB20160311025511103/11/16 02:55:31  5-MIN KARB 110755Z AUTO 35005KT 10SM OVC019 06/03 A3021 580 82 -300 360/05 RMK AO2 T00560028
94889KARB ARB20160311030011103/11/16 03:00:31  5-MIN KARB 110800Z AUTO 34005KT 10SM OVC019 06/03 A3021 570 82 -300 350/05 RMK AO2 T00560028
94889KARB ARB20160311030511103/11/16 03:05:31  5-MIN KARB 110805Z AUTO 35005KT 10SM OVC019 06/03 A3021 580 82 -300 350/05 RMK AO2 T00560028
94889KARB ARB20160311031011103/11/16 03:10:31  5-MIN KARB 110810Z AUTO 35007KT 10SM OVC019 06/03 A3020 580 82 -300 360/07 RMK AO2 T00560028
94889KARB ARB20160311031511103/11/16 03:15:31  5-MIN KARB 110815Z AUTO 34005KT 10SM OVC019 06/03 A3021 580 82 -300 350/05 RMK AO2 T00560028
94889KARB ARB20160311032011103/11/16 03:20:31  5-MIN KARB 110820Z AUTO 35006KT 10SM OVC018 06/03 A3021 580 82 -300 360/06 RMK AO2 T00560028
94889KARB ARB20160311032511103/11/16 03:25:31  5-MIN KARB 110825Z AUTO 34005KT 10SM OVC016 06/03 A3021 570 82 -300 350/05 RMK AO2 T00560028
94889KARB ARB20160311033011103/11/16 03:30:31  5-MIN KARB 110830Z AUTO 35007KT 10SM OVC016 06/03 A3021 570 82 -300 360/07 RMK AO2 T00560028
94889KARB ARB20160311033511103/11/16 03:35:31  5-MIN KARB 110835Z AUTO 36007KT 10SM OVC016 06/03 A3021 570 82 -300 010/07 RMK AO2 T00560028
94889KARB ARB20160311034011103/11/16 03:40:31  5-MIN KARB 110840Z AUTO 36007KT 10SM OVC016 06/03 A3021 570 82 -300 010/07 RMK AO2 T00560028
94889KARB ARB20160311034511103/11/16 03:45:31  5-MIN KARB 110845Z AUTO 36007KT 10SM OVC014 06/03 A3021 570 82 -300 010/07 RMK AO2 T00560028
94889KARB ARB20160311035012403/11/16 03:50:31  5-MIN KARB 110850Z AUTO 35009KT 10SM OVC014 06/03 A3022 570 82 -300 360/09 RMK AO2 SLP236 T00560028 51017
94889KARB ARB20160311035511103/11/16 03:55:31  5-MIN KARB 110855Z AUTO 36007KT 10SM OVC014 06/03 A3022 570 82 -300 360/07 RMK AO2 T00560028
94889KARB ARB20160311040011103/11/16 04:00:31  5-MIN KARB 110900Z AUTO 01008KT 10SM OVC014 06/03 A3022 570 82 -300 020/08 RMK AO2 T00560028
94889KARB ARB20160311040511103/11/16 04:05:31  5-MIN KARB 110905Z AUTO 02009KT 10SM OVC014 06/02 A3022 570 79 -300 030/09 RMK AO2 T00560022
94889KARB ARB20160311041011103/11/16 04:10:31  5-MIN KARB 110910Z AUTO 01008KT 10SM OVC014 06/03 A3021 570 82 -300 020/08 RMK AO2 T00560028
94889KARB ARB20160311041511103/11/16 04:15:31  5-MIN KARB 110915Z AUTO 02007KT 10SM OVC014 06/02 A3021 570 79 -300 030/07 RMK AO2 T00560022
94889KARB ARB20160311042011103/11/16 04:20:31  5-MIN KARB 110920Z AUTO 03009KT 10SM OVC014 06/02 A3022 570 79 -300 040/09 RMK AO2 T00560022
94889KARB ARB20160311042511103/11/16 04:25:31  5-MIN KARB 110925Z AUTO 02007KT 10SM OVC014 06/02 A3022 570 79 -300 030/07 RMK AO2 T00560022
94889KARB ARB20160311043011103/11/16 04:30:31  5-MIN KARB 110930Z AUTO 03009KT 10SM OVC014 06/02 A3022 560 79 -300 040/09 RMK AO2 T00560022
94889KARB ARB20160311043511103/11/16 04:35:31  5-MIN KARB 110935Z AUTO 02008KT 10SM OVC014 05/02 A3023 560 82 -400 030/08 RMK AO2 T00500022
94889KARB ARB20160311044011103/11/16 04:40:31  5-MIN KARB 110940Z AUTO 03009KT 10SM OVC014 05/02 A3023 560 82 -400 030/09 RMK AO2 T00500022
94889KARB ARB20160311044511103/11/16 04:45:31  5-MIN KARB 110945Z AUTO 03009KT 10SM OVC014 05/02 A3023 550 82 -400 040/09 RMK AO2 T00500022
94889KARB ARB20160311045011803/11/16 04:50:31  5-MIN KARB 110950Z AUTO 04009KT 10SM OVC014 05/02 A3024 550 82 -400 050/09 RMK AO2 SLP244 T00500022
94889KARB ARB20160311045511103/11/16 04:55:31  5-MIN KARB 110955Z AUTO 03010KT 10SM OVC014 05/02 A3024 540 82 -400 040/10 RMK AO2 T00500022
94889KARB ARB20160311050011803/11/16 05:00:31  5-MIN KARB 111000Z AUTO 36009KT 10SM OVC014 05/02 A3025 540 79 -500 360/09 RMK AO2 PRESRR T00500017
94889KARB ARB20160311050511103/11/16 05:05:31  5-MIN KARB 111005Z AUTO 01007KT 10SM OVC014 05/02 A3026 530 82 -500 010/07 RMK AO2 T00500022
94889KARB ARB20160311051011803/11/16 05:10:31  5-MIN KARB 111010Z AUTO 36007KT 10SM OVC014 05/02 A3026 530 82 -500 010/07 RMK AO2 PRESRR T00500022
94889KARB ARB20160311051511103/11/16 05:15:31  5-MIN KARB 111015Z AUTO 01005KT 10SM OVC014 05/02 A3026 530 79 -500 020/05 RMK AO2 T00500017
94889KARB ARB20160311052011103/11/16 05:20:31  5-MIN KARB 111020Z AUTO 02007KT 10SM OVC015 05/02 A3027 520 79 -500 020/07 RMK AO2 T00500017
94889KARB ARB20160311052511103/11/16 05:25:31  5-MIN KARB 111025Z AUTO 35010KT 10SM OVC015 05/02 A3027 520 79 -500 360/10 RMK AO2 T00500017
94889KARB ARB20160311053011103/11/16 05:30:31  5-MIN KARB 111030Z AUTO 36009KT 10SM OVC017 05/01 A3027 520 76 -500 360/09 RMK AO2 T00500011
94889KARB ARB20160311053511103/11/16 05:35:31  5-MIN KARB 111035Z AUTO 35009KT 10SM OVC017 05/01 A3028 510 73 -500 360/09 RMK AO2 T00500006
94889KARB ARB20160311054011103/11/16 05:40:31  5-MIN KARB 111040Z AUTO 35008KT 10SM OVC017 05/01 A3028 510 73 -500 360/08 RMK AO2 T00500006
94889KARB ARB20160311054511103/11/16 05:45:31  5-MIN KARB 111045Z AUTO 35010KT 10SM OVC017 05/01 A3028 510 73 -500 360/10 RMK AO2 T00500006
94889KARB ARB20160311055011803/11/16 05:50:31  5-MIN KARB 111050Z AUTO 36008KT 10SM OVC017 04/01 A3028 510 76 -600 010/08 RMK AO2 SLP258 T00440006
94889KARB ARB20160311055511103/11/16 05:55:31  5-MIN KARB 111055Z AUTO 02007KT 10SM OVC018 04/01 A3029 510 76 -600 020/07 RMK AO2 T00440006
94889KARB ARB20160311060011103/11/16 06:00:31  5-MIN KARB 111100Z AUTO 36007KT 10SM OVC018 04/01 A3029 500 76 -600 010/07 RMK AO2 T00440006
94889KARB ARB20160311060511103/11/16 06:05:31  5-MIN KARB 111105Z AUTO 36007KT 10SM OVC020 04/01 A3029 500 76 -600 010/07 RMK AO2 T00440006
94889KARB ARB20160311061011103/11/16 06:10:31  5-MIN KARB 111110Z AUTO 01006KT 10SM OVC020 04/01 A3029 500 76 -600 020/06 RMK AO2 T00440006
94889KARB ARB20160311061511103/11/16 06:15:31  5-MIN KARB 111115Z AUTO 36004KT 10SM BKN020 04/00 A3029 500 76 -600 360/04 RMK AO2 T00390000
94889KARB ARB20160311062011103/11/16 06:20:31  5-MIN KARB 111120Z AUTO 36004KT 10SM BKN020 04/00 A3029 500 76 -600 010/04 RMK AO2 T00390000
94889KARB ARB20160311062511103/11/16 06:25:31  5-MIN KARB 111125Z AUTO 36004KT 10SM SCT020 04/00 A3029 500 76 -600 010/04 RMK AO2 T00390000
94889KARB ARB20160311063011103/11/16 06:30:31  5-MIN KARB 111130Z AUTO 01005KT 10SM FEW020 03/00 A3029 500 79 -700 020/05 RMK AO2 T00330000
94889KARB ARB20160311063511103/11/16 06:35:31  5-MIN KARB 111135Z AUTO 01004KT 10SM FEW020 03/00 A3029 500 79 -700 010/04 RMK AO2 T00330000
94889KARB ARB20160311064010803/11/16 06:40:31  5-MIN KARB 111140Z AUTO 36005KT 10SM CLR 04/00 A3029 500 76 -600 010/05 RMK AO2 T00390000
94889KARB ARB20160311064510803/11/16 06:45:31  5-MIN KARB 111145Z AUTO 02004KT 10SM CLR 03/00 A3029 500 79 -700 020/04 RMK AO2 T00330000
94889KARB ARB20160311065013903/11/16 06:50:31  5-MIN KARB 111150Z AUTO 36005KT 10SM CLR 03/00 A3030 490 79 -700 010/05 RMK AO2 SLP265 70003 T00330000 10061 20033 50005
94889KARB ARB20160311065510803/11/16 06:55:31  5-MIN KARB 111155Z AUTO 36004KT 10SM CLR 03/00 A3030 490 79 -700 360/04 RMK AO2 T00330000
94889KARB ARB20160311070011503/11/16 07:00:31  5-MIN KARB 111200Z AUTO 35004KT 10SM CLR 03/00 A3031 480 79 -700 360/04 RMK AO2 PRESRR T00330000
94889KARB ARB20160311070511503/11/16 07:05:31  5-MIN KARB 111205Z AUTO 36004KT 10SM CLR 03/00 A3032 480 79 -700 360/04 RMK AO2 PRESRR T00330000
94889KARB ARB20160311071010803/11/16 07:10:31  5-MIN KARB 111210Z AUTO 34003KT 10SM CLR 03/00 A3032 480 79 -700 350/03 RMK AO2 T00330000
94889KARB ARB20160311071510803/11/16 07:15:31  5-MIN KARB 111215Z AUTO 35003KT 10SM CLR 03/00 A3032 480 79 -700 350/03 RMK AO2 T00330000
94889KARB ARB20160311072010803/11/16 07:20:31  5-MIN KARB 111220Z AUTO 35005KT 10SM CLR 03/00 A3032 480 79 -700 360/05 RMK AO2 T00330000
94889KARB ARB20160311072510803/11/16 07:25:31  5-MIN KARB 111225Z AUTO 36003KT 10SM CLR 03/01 A3031 480 82 -700 010/03 RMK AO2 T00330006
94889KARB ARB20160311073010803/11/16 07:30:31  5-MIN KARB 111230Z AUTO 36003KT 10SM CLR 04/01 A3032 480 79 -700 010/03 RMK AO2 T00390006
94889KARB ARB20160311073510803/11/16 07:35:31  5-MIN KARB 111235Z AUTO 35003KT 10SM CLR 04/01 A3032 470 79 -700 360/03 RMK AO2 T00390006
94889KARB ARB20160311074010803/11/16 07:40:31  5-MIN KARB 111240Z AUTO 35003KT 10SM CLR 04/01 A3032 470 79 -700 360/03 RMK AO2 T00390006
94889KARB ARB20160311074510803/11/16 07:45:31  5-MIN KARB 111245Z AUTO 34003KT 10SM CLR 04/01 A3033 470 76 -600 340/03 RMK AO2 T00440006
94889KARB ARB20160311075011503/11/16 07:50:31  5-MIN KARB 111250Z AUTO 34003KT 10SM CLR 04/01 A3033 470 76 -600 350/03 RMK AO2 SLP276 T00440006
94889KARB ARB20160311075510303/11/16 07:55:31  5-MIN KARB 111255Z 33004KT 10SM CLR 04/01 A3033 470 76 -600 340/04 RMK AO2 T00440006
94889KARB ARB20160311080010303/11/16 08:00:31  5-MIN KARB 111300Z 33003KT 10SM CLR 04/01 A3033 460 76 -600 330/03 RMK AO2 T00440006
94889KARB ARB20160311080510303/11/16 08:05:31  5-MIN KARB 111305Z 32003KT 10SM CLR 05/01 A3033 460 73 -500 330/03 RMK AO2 T00500006
94889KARB ARB20160311081010303/11/16 08:10:31  5-MIN KARB 111310Z 31003KT 10SM CLR 04/01 A3033 460 76 -600 320/03 RMK AO2 T00440006
94889KARB ARB20160311081510303/11/16 08:15:31  5-MIN KARB 111315Z 33005KT 10SM CLR 05/01 A3033 460 73 -500 340/05 RMK AO2 T00500006
94889KARB ARB20160311082010303/11/16 08:20:31  5-MIN KARB 111320Z 34004KT 10SM CLR 05/01 A3034 460 73 -500 350/04 RMK AO2 T00500006
94889KARB ARB20160311082510303/11/16 08:25:31  5-MIN KARB 111325Z 33003KT 10SM CLR 05/01 A3034 460 73 -500 330/03 RMK AO2 T00500006
94889KARB ARB20160311083010303/11/16 08:30:31  5-MIN KARB 111330Z 01004KT 10SM CLR 06/01 A3034 460 70 -500 010/04 RMK AO2 T00560006
94889KARB ARB20160311083510303/11/16 08:35:31  5-MIN KARB 111335Z 00000KT 10SM CLR 06/00 A3034 450 67 -500 000/00 RMK AO2 T00560000
94889KARB ARB20160311084010303/11/16 08:40:31  5-MIN KARB 111340Z 36003KT 10SM CLR 06/00 A3035 450 67 -500 010/03 RMK AO2 T00560000
94889KARB ARB20160311084510303/11/16 08:45:31  5-MIN KARB 111345Z 35004KT 10SM CLR 06/00 A3034 450 67 -500 350/04 RMK AO2 T00560000
94889KARB ARB20160311085011003/11/16 08:50:31  5-MIN KARB 111350Z 02004KT 10SM CLR 06/00 A3034 460 67 -500 020/04 RMK AO2 SLP278 T00560000
94889KARB ARB20160311085510303/11/16 08:55:31  5-MIN KARB 111355Z 00000KT 10SM CLR 06/00 A3034 460 67 -500 000/00 RMK AO2 T00560000
94889KARB ARB20160311090010303/11/16 09:00:31  5-MIN KARB 111400Z 01004KT 10SM CLR 06/00 A3034 450 65 -400 020/04 RMK AO2 T00610000
94889KARB ARB20160311090510403/11/16 09:05:31  5-MIN KARB 111405Z 35004KT 10SM CLR 06/M01 A3035 450 62 -400 350/04 RMK AO2 T00611006
94889KARB ARB20160311091010303/11/16 09:10:31  5-MIN KARB 111410Z 34003KT 10SM CLR 06/00 A3035 450 65 -400 350/03 RMK AO2 T00610000
94889KARB ARB20160311091510303/11/16 09:15:31  5-MIN KARB 111415Z 35003KT 10SM CLR 06/00 A3035 440 65 -400 360/03 RMK AO2 T00610000
94889KARB ARB20160311092010303/11/16 09:20:31  5-MIN KARB 111420Z 02005KT 10SM CLR 06/00 A3035 440 65 -400 020/05 RMK AO2 T00610000
94889KARB ARB20160311092510303/11/16 09:25:31  5-MIN KARB 111425Z 01004KT 10SM CLR 07/00 A3035 440 62 -400 010/04 RMK AO2 T00670000
94889KARB ARB20160311093010303/11/16 09:30:31  5-MIN KARB 111430Z VRB04KT 10SM CLR 07/00 A3035 440 62 -400 VRB/04 RMK AO2 T00670000
94889KARB ARB20160311093510303/11/16 09:35:31  5-MIN KARB 111435Z 35004KT 10SM CLR 07/00 A3035 450 62 -400 360/04 RMK AO2 T00670000
94889KARB ARB20160311094010303/11/16 09:40:31  5-MIN KARB 111440Z 01004KT 10SM CLR 07/00 A3035 450 62 -400 020/04 RMK AO2 T00670000
94889KARB ARB20160311094510303/11/16 09:45:31  5-MIN KARB 111445Z VRB05KT 10SM CLR 07/00 A3035 450 62 -400 VRB/05 RMK AO2 T00670000
94889KARB ARB20160311095011603/11/16 09:50:31  5-MIN KARB 111450Z 00000KT 10SM CLR 07/00 A3034 450 62 -400 000/00 RMK AO2 SLP280 T00670000 51028
94889KARB ARB20160311095510303/11/16 09:55:31  5-MIN KARB 111455Z 02004KT 10SM CLR 07/00 A3035 450 60 -300 030/04 RMK AO2 T00720000
94889KARB ARB20160311100010303/11/16 10:00:31  5-MIN KARB 111500Z VRB03KT 10SM CLR 08/01 A3035 450 60 -200 VRB/03 RMK AO2 T00780006
94889KARB ARB20160311100510303/11/16 10:05:31  5-MIN KARB 111505Z 34005KT 10SM CLR 08/00 A3035 450 58 -200 350/05 RMK AO2 T00780000
94889KARB ARB20160311101010303/11/16 10:10:31  5-MIN KARB 111510Z 36005KT 10SM CLR 07/00 A3035 450 60 -300 010/05 RMK AO2 T00720000
94889KARB ARB20160311101510303/11/16 10:15:31  5-MIN KARB 111515Z 34004KT 10SM CLR 07/00 A3036 440 60 -300 350/04 RMK AO2 T00720000
94889KARB ARB20160311102010303/11/16 10:20:31  5-MIN KARB 111520Z 01003KT 10SM CLR 07/00 A3036 440 60 -300 020/03 RMK AO2 T00720000
94889KARB ARB20160311102510303/11/16 10:25:31  5-MIN KARB 111525Z 36004KT 10SM CLR 07/00 A3036 440 60 -300 010/04 RMK AO2 T00720000
94889KARB ARB20160311103010303/11/16 10:30:31  5-MIN KARB 111530Z 04003KT 10SM CLR 07/00 A3036 440 60 -300 050/03 RMK AO2 T00720000
94889KARB ARB20160311103510303/11/16 10:35:31  5-MIN KARB 111535Z 35005KT 10SM CLR 08/00 A3036 440 58 -200 360/05 RMK AO2 T00780000
94889KARB ARB20160311104010303/11/16 10:40:31  5-MIN KARB 111540Z 36003KT 10SM CLR 08/00 A3036 440 58 -200 360/03 RMK AO2 T00780000
94889KARB ARB20160311104510303/11/16 10:45:31  5-MIN KARB 111545Z 35003KT 10SM CLR 08/00 A3035 450 58 -200 360/03 RMK AO2 T00780000
94889KARB ARB20160311105011003/11/16 10:50:31  5-MIN KARB 111550Z 00000KT 10SM CLR 08/00 A3035 450 58 -200 000/00 RMK AO2 SLP282 T00780000
94889KARB ARB20160311105510303/11/16 10:55:31  5-MIN KARB 111555Z VRB03KT 10SM CLR 08/00 A3035 450 55 -200 VRB/03 RMK AO2 T00830000
94889KARB ARB20160311110010303/11/16 11:00:31  5-MIN KARB 111600Z 03004KT 10SM CLR 08/00 A3035 450 55 -200 040/04 RMK AO2 T00830000
94889KARB ARB20160311110510303/11/16 11:05:31  5-MIN KARB 111605Z 36003KT 10SM CLR 08/00 A3035 450 58 -200 360/03 RMK AO2 T00780000
94889KARB ARB20160311111010303/11/16 11:10:31  5-MIN KARB 111610Z 01005KT 10SM CLR 08/00 A3035 450 55 -200 010/05 RMK AO2 T00830000
94889KARB ARB20160311111510303/11/16 11:15:31  5-MIN KARB 111615Z 35004KT 10SM CLR 08/00 A3035 450 55 -200 360/04 RMK AO2 T00830000
94889KARB ARB20160311112010303/11/16 11:20:31  5-MIN KARB 111620Z 36005KT 10SM CLR 08/00 A3035 440 55 -200 360/05 RMK AO2 T00830000
94889KARB ARB20160311112510303/11/16 11:25:31  5-MIN KARB 111625Z VRB05KT 10SM CLR 08/00 A3035 440 55 -200 VRB/05 RMK AO2 T00830000
94889KARB ARB20160311113010303/11/16 11:30:31  5-MIN KARB 111630Z VRB05KT 10SM CLR 08/00 A3036 440 55 -200 VRB/05 RMK AO2 T00830000
94889KARB ARB20160311113510003/11/16 11:35:31  5-MIN KARB 111635Z 01007KT 10SM CLR 09/01 A3036 440 53 0 020/07 RMK AO2 T00940006
94889KARB ARB20160311114011903/11/16 11:40:31  5-MIN KARB 111640Z 36007KT 340V050 10SM CLR 09/01 A3036 440 56 -100 010/07 350V060 RMK AO2 T00890006
94889KARB ARB20160311114510003/11/16 11:45:31  5-MIN KARB 111645Z 01007KT 10SM CLR 09/00 A3036 430 51 0 010/07 RMK AO2 T00940000
94889KARB ARB20160311115011003/11/16 11:50:31  5-MIN KARB 111650Z VRB03KT 10SM CLR 09/00 A3037 430 53 -100 VRB/03 RMK AO2 SLP286 T00890000
94889KARB ARB20160311115510303/11/16 11:55:31  5-MIN KARB 111655Z VRB05KT 10SM CLR 09/00 A3036 430 53 -100 VRB/05 RMK AO2 T00890000
94889KARB ARB20160311120010003/11/16 12:00:31  5-MIN KARB 111700Z 07004KT 10SM CLR 09/01 A3036 440 53 0 070/04 RMK AO2 T00940006
94889KARB ARB20160311120510003/11/16 12:05:31  5-MIN KARB 111705Z 01004KT 10SM CLR 09/00 A3036 440 51 0 010/04 RMK AO2 T00940000
94889KARB ARB20160311121010003/11/16 12:10:31  5-MIN KARB 111710Z 03005KT 10SM CLR 09/00 A3035 440 51 0 040/05 RMK AO2 T00940000
94889KARB ARB20160311121510003/11/16 12:15:31  5-MIN KARB 111715Z 36004KT 10SM CLR 10/00 A3036 440 49 0 010/04 RMK AO2 T01000000
94889KARB ARB20160311122010003/11/16 12:20:31  5-MIN KARB 111720Z VRB03KT 10SM CLR 09/00 A3036 440 51 0 VRB/03 RMK AO2 T00940000
94889KARB ARB20160311122510003/11/16 12:25:31  5-MIN KARB 111725Z 06005KT 10SM CLR 10/00 A3036 440 49 0 070/05 RMK AO2 T01000000
94889KARB ARB20160311123010003/11/16 12:30:31  5-MIN KARB 111730Z VRB03KT 10SM CLR 09/00 A3036 440 51 0 VRB/03 RMK AO2 T00940000
94889KARB ARB20160311123510003/11/16 12:35:31  5-MIN KARB 111735Z VRB03KT 10SM CLR 09/00 A3036 440 51 0 VRB/03 RMK AO2 T00940000
94889KARB ARB20160311124010103/11/16 12:40:31  5-MIN KARB 111740Z 03005KT 10SM CLR 11/M01 A3036 430 46 0 030/05 RMK AO2 T01061006
94889KARB ARB20160311124510103/11/16 12:45:31  5-MIN KARB 111745Z VRB03KT 10SM CLR 11/M01 A3036 440 46 0 VRB/03 RMK AO2 T01061006
94889KARB ARB20160311125012503/11/16 12:50:31  5-MIN KARB 111750Z VRB03KT 10SM CLR 10/00 A3036 440 49 0 VRB/03 RMK AO2 SLP284 T01000000 10106 20033 51014
94889KARB ARB20160311125510203/11/16 12:55:31  5-MIN KARB 111755Z 07007KT 10SM CLR 11/01 A3036 440 50 100 080/07 RMK AO2 T01060006
94889KARB ARB20160311130010003/11/16 13:00:31  5-MIN KARB 111800Z 00000KT 10SM CLR 10/01 A3036 440 52 0 000/00 RMK AO2 T01000006
94889KARB ARB20160311130510003/11/16 13:05:31  5-MIN KARB 111805Z VRB04KT 10SM CLR 11/01 A3036 440 50 0 VRB/04 RMK AO2 T01060006
94889KARB ARB20160311131010003/11/16 13:10:31  5-MIN KARB 111810Z 17003KT 10SM CLR 11/01 A3036 430 50 0 180/03 RMK AO2 T01060006
94889KARB ARB20160311131510003/11/16 13:15:31  5-MIN KARB 111815Z VRB05KT 10SM CLR 11/01 A3036 430 50 0 VRB/05 RMK AO2 T01060006
94889KARB ARB20160311132010203/11/16 13:20:31  5-MIN KARB 111820Z 36006KT 10SM CLR 12/00 A3036 430 44 200 360/06 RMK AO2 T01170000
94889KARB ARB20160311132510203/11/16 13:25:31  5-MIN KARB 111825Z VRB05KT 10SM CLR 11/00 A3036 440 46 100 VRB/05 RMK AO2 T01110000
94889KARB ARB20160311133010203/11/16 13:30:31  5-MIN KARB 111830Z VRB05KT 10SM CLR 11/01 A3036 440 50 100 VRB/05 RMK AO2 T01060006
94889KARB ARB20160311133510203/11/16 13:35:31  5-MIN KARB 111835Z VRB05KT 10SM CLR 11/00 A3036 440 48 100 VRB/05 RMK AO2 T01060000
94889KARB ARB20160311134010303/11/16 13:40:31  5-MIN KARB 111840Z 08004KT 10SM CLR 11/M01 A3036 440 44 100 090/04 RMK AO2 T01111006
94889KARB ARB20160311134510103/11/16 13:45:31  5-MIN KARB 111845Z 12003KT 10SM CLR 11/M01 A3036 430 44 0 120/03 RMK AO2 T01061011
94889KARB ARB20160311135010903/11/16 13:50:31  5-MIN KARB 111850Z 00000KT 10SM CLR 11/00 A3037 430 46 100 000/00 RMK AO2 SLP286 T01110000
94889KARB ARB20160311135510203/11/16 13:55:31  5-MIN KARB 111855Z 00000KT 10SM CLR 12/01 A3037 430 46 200 000/00 RMK AO2 T01170006
94889KARB ARB20160311140010203/11/16 14:00:31  5-MIN KARB 111900Z VRB03KT 10SM CLR 11/01 A3037 430 48 100 VRB/03 RMK AO2 T01110006
94889KARB ARB20160311140510203/11/16 14:05:31  5-MIN KARB 111905Z VRB03KT 10SM CLR 12/01 A3037 430 46 200 VRB/03 RMK AO2 T01170006
94889KARB ARB20160311141010203/11/16 14:10:31  5-MIN KARB 111910Z VRB05KT 10SM CLR 11/00 A3037 430 46 100 VRB/05 RMK AO2 T01110000
94889KARB ARB20160311141510203/11/16 14:15:31  5-MIN KARB 111915Z 00000KT 10SM CLR 11/00 A3037 430 46 100 000/00 RMK AO2 T01110000
94889KARB ARB20160311142010203/11/16 14:20:31  5-MIN KARB 111920Z 14006KT 10SM CLR 12/00 A3037 430 44 200 150/06 RMK AO2 T01170000
94889KARB ARB20160311142510203/11/16 14:25:31  5-MIN KARB 111925Z 15005KT 10SM CLR 12/00 A3037 430 44 200 160/05 RMK AO2 T01170000
94889KARB ARB20160311143010203/11/16 14:30:31  5-MIN KARB 111930Z VRB05KT 10SM CLR 12/00 A3037 430 44 200 VRB/05 RMK AO2 T01170000
94889KARB ARB20160311143510203/11/16 14:35:31  5-MIN KARB 111935Z VRB04KT 10SM CLR 12/00 A3037 430 44 200 VRB/04 RMK AO2 T01170000
94889KARB ARB20160311144010203/11/16 14:40:31  5-MIN KARB 111940Z 09005KT 10SM CLR 12/00 A3036 430 44 200 100/05 RMK AO2 T01170000
94889KARB ARB20160311144510303/11/16 14:45:31  5-MIN KARB 111945Z 16005KT 10SM CLR 12/M01 A3036 440 42 200 160/05 RMK AO2 T01171006
94889KARB ARB20160311145011003/11/16 14:50:31  5-MIN KARB 111950Z 16004KT 10SM CLR 11/M01 A3036 440 44 100 170/04 RMK AO2 SLP284 T01111006
94889KARB ARB20160311145510203/11/16 14:55:31  5-MIN KARB 111955Z VRB05KT 10SM CLR 12/00 A3035 440 44 200 VRB/05 RMK AO2 T01170000
94889KARB ARB20160311150010203/11/16 15:00:31  5-MIN KARB 112000Z 00000KT 10SM CLR 12/00 A3036 430 44 200 000/00 RMK AO2 T01170000
94889KARB ARB20160311150510303/11/16 15:05:31  5-MIN KARB 112005Z 14005KT 10SM CLR 12/M01 A3036 440 42 200 140/05 RMK AO2 T01171006
94889KARB ARB20160311151010303/11/16 15:10:31  5-MIN KARB 112010Z 18004KT 10SM CLR 12/M01 A3035 440 42 200 190/04 RMK AO2 T01171006
94889KARB ARB20160311151510303/11/16 15:15:31  5-MIN KARB 112015Z 14005KT 10SM CLR 12/M01 A3035 450 42 200 150/05 RMK AO2 T01171006
94889KARB ARB20160311152010303/11/16 15:20:31  5-MIN KARB 112020Z 00000KT 10SM CLR 12/M01 A3035 450 42 200 000/00 RMK AO2 T01171006
94889KARB ARB20160311152510203/11/16 15:25:31  5-MIN KARB 112025Z 13004KT 10SM CLR 12/00 A3035 450 43 300 140/04 RMK AO2 T01220000
94889KARB ARB20160311153010203/11/16 15:30:31  5-MIN KARB 112030Z VRB03KT 10SM CLR 12/00 A3034 450 44 200 VRB/03 RMK AO2 T01170000
94889KARB ARB20160311153510203/11/16 15:35:31  5-MIN KARB 112035Z 15007KT 10SM CLR 12/01 A3034 460 44 300 150/07 RMK AO2 T01220006
94889KARB ARB20160311154010203/11/16 15:40:31  5-MIN KARB 112040Z VRB06KT 10SM CLR 12/01 A3034 450 44 300 VRB/06 RMK AO2 T01220006
94889KARB ARB20160311154510203/11/16 15:45:31  5-MIN KARB 112045Z 15005KT 10SM CLR 12/01 A3034 450 44 300 160/05 RMK AO2 T01220006
94889KARB ARB20160311155011503/11/16 15:50:31  5-MIN KARB 112050Z 13005KT 10SM CLR 12/01 A3034 450 46 300 140/05 RMK AO2 SLP278 T01220011 50004
94889KARB ARB20160311155510203/11/16 15:55:31  5-MIN KARB 112055Z 17008KT 10SM CLR 12/03 A3034 460 54 300 170/08 RMK AO2 T01220033
94889KARB ARB20160311160010203/11/16 16:00:31  5-MIN KARB 112100Z 19008KT 10SM CLR 12/03 A3034 450 56 200 190/08 RMK AO2 T01170033
94889KARB ARB20160311160510203/11/16 16:05:31  5-MIN KARB 112105Z 16005KT 10SM CLR 12/04 A3034 460 58 200 170/05 RMK AO2 T01170039
94889KARB ARB20160311161010203/11/16 16:10:31  5-MIN KARB 112110Z 17008KT 10SM CLR 12/04 A3034 450 58 200 180/08 RMK AO2 T01170039
94889KARB ARB20160311161510203/11/16 16:15:31  5-MIN KARB 112115Z VRB06KT 10SM CLR 12/04 A3034 460 58 200 VRB/06 RMK AO2 T01170039
94889KARB ARB20160311162010203/11/16 16:20:31  5-MIN KARB 112120Z 13007KT 10SM CLR 12/04 A3034 460 58 200 130/07 RMK AO2 T01170039
94889KARB ARB20160311162511803/11/16 16:25:31  5-MIN KARB 112125Z 12007KT 090V160 10SM CLR 11/04 A3034 450 63 100 130/07 100V170 RMK AO2 T01110044
94889KARB ARB20160311163010203/11/16 16:30:31  5-MIN KARB 112130Z 13009KT 10SM CLR 11/04 A3035 450 63 100 140/09 RMK AO2 T01060039
94889KARB ARB20160311163510203/11/16 16:35:31  5-MIN KARB 112135Z 14009KT 10SM CLR 11/04 A3035 450 66 100 150/09 RMK AO2 T01060044
94889KARB ARB20160311164010003/11/16 16:40:31  5-MIN KARB 112140Z 13011KT 10SM CLR 10/04 A3035 450 65 0 140/11 RMK AO2 T01000039
94889KARB ARB20160311164510003/11/16 16:45:31  5-MIN KARB 112145Z 13008KT 10SM CLR 10/04 A3035 450 65 0 140/08 RMK AO2 T01000039
94889KARB ARB20160311165010703/11/16 16:50:31  5-MIN KARB 112150Z 16009KT 10SM CLR 10/04 A3035 440 65 0 160/09 RMK AO2 SLP283 T01000039
94889KARB ARB20160311165510503/11/16 16:55:31  5-MIN KARB 112155Z AUTO 15007KT 10SM CLR 10/04 A3036 440 65 0 150/07 RMK AO2 T01000039
94889KARB ARB20160311170010503/11/16 17:00:31  5-MIN KARB 112200Z AUTO 15007KT 10SM CLR 10/04 A3036 440 65 0 150/07 RMK AO2 T01000039
94889KARB ARB20160311170510503/11/16 17:05:31  5-MIN KARB 112205Z AUTO 12007KT 10SM CLR 10/04 A3036 440 65 0 130/07 RMK AO2 T01000039
94889KARB ARB20160311171010503/11/16 17:10:31  5-MIN KARB 112210Z AUTO 12008KT 10SM CLR 10/04 A3036 440 65 0 130/08 RMK AO2 T01000039
94889KARB ARB20160311171510503/11/16 17:15:31  5-MIN KARB 112215Z AUTO 13009KT 10SM CLR 09/04 A3036 440 68 0 130/09 RMK AO2 T00940039
94889KARB ARB20160311172010803/11/16 17:20:31  5-MIN KARB 112220Z AUTO 13008KT 10SM CLR 09/03 A3035 440 68 -100 140/08 RMK AO2 T00890033
94889KARB ARB20160311172510803/11/16 17:25:31  5-MIN KARB 112225Z AUTO 13008KT 10SM CLR 09/03 A3036 440 68 -100 130/08 RMK AO2 T00890033
94889KARB ARB20160311173010803/11/16 17:30:31  5-MIN KARB 112230Z AUTO VRB06KT 10SM CLR 09/03 A3035 440 68 -100 VRB/06 RMK AO2 T00890033
94889KARB ARB20160311173510803/11/16 17:35:31  5-MIN KARB 112235Z AUTO 14008KT 10SM CLR 08/03 A3036 440 70 -200 150/08 RMK AO2 T00830033
94889KARB ARB20160311174010803/11/16 17:40:31  5-MIN KARB 112240Z AUTO 14009KT 10SM CLR 08/03 A3036 440 70 -200 140/09 RMK AO2 T00830033
94889KARB ARB20160311174510803/11/16 17:45:31  5-MIN KARB 112245Z AUTO 14008KT 10SM CLR 08/03 A3035 440 73 -200 150/08 RMK AO2 T00780033
94889KARB ARB20160311175011503/11/16 17:50:31  5-MIN KARB 112250Z AUTO 15007KT 10SM CLR 08/03 A3035 440 73 -200 150/07 RMK AO2 SLP283 T00780033
94889KARB ARB20160311175510303/11/16 17:55:31  5-MIN KARB 112255Z 13007KT 10SM CLR 08/03 A3035 450 73 -200 140/07 RMK AO2 T00780033
94889KARB ARB20160311180010303/11/16 18:00:31  5-MIN KARB 112300Z 13008KT 10SM CLR 08/03 A3035 450 70 -200 140/08 RMK AO2 T00780028
94889KARB ARB20160311180510303/11/16 18:05:31  5-MIN KARB 112305Z 13008KT 10SM CLR 07/03 A3035 450 73 -300 140/08 RMK AO2 T00720028
94889KARB ARB20160311181010303/11/16 18:10:31  5-MIN KARB 112310Z 14006KT 10SM CLR 07/03 A3035 440 73 -300 150/06 RMK AO2 T00720028
94889KARB ARB20160311181510303/11/16 18:15:31  5-MIN KARB 112315Z 14006KT 10SM CLR 07/03 A3036 440 73 -300 140/06 RMK AO2 T00720028
94889KARB ARB20160311182010303/11/16 18:20:31  5-MIN KARB 112320Z 16006KT 10SM CLR 07/03 A3035 440 73 -300 160/06 RMK AO2 T00720028
94889KARB ARB20160311182510303/11/16 18:25:31  5-MIN KARB 112325Z 17005KT 10SM CLR 07/03 A3035 440 76 -400 170/05 RMK AO2 T00670028
94889KARB ARB20160311183010303/11/16 18:30:31  5-MIN KARB 112330Z 16005KT 10SM CLR 07/03 A3035 440 76 -400 170/05 RMK AO2 T00670028
94889KARB ARB20160311183510303/11/16 18:35:31  5-MIN KARB 112335Z 15005KT 10SM CLR 06/02 A3036 440 76 -400 160/05 RMK AO2 T00610022
94889KARB ARB20160311184010303/11/16 18:40:31  5-MIN KARB 112340Z 15008KT 10SM CLR 06/02 A3036 440 76 -400 150/08 RMK AO2 T00610022
94889KARB ARB20160311184510303/11/16 18:45:31  5-MIN KARB 112345Z 14005KT 10SM CLR 06/02 A3036 440 76 -400 150/05 RMK AO2 T00610022
94889KARB ARB20160311185012803/11/16 18:50:31  5-MIN KARB 112350Z 14006KT 10SM CLR 06/02 A3036 440 76 -400 140/06 RMK AO2 SLP287 T00610022 10122 20061 58006
94889KARB ARB20160311185510303/11/16 18:55:31  5-MIN KARB 112355Z 14006KT 10SM CLR 06/02 A3036 440 79 -500 150/06 RMK AO2 T00560022
94889KARB ARB20160311190010303/11/16 19:00:31  5-MIN KARB 120000Z 14005KT 10SM CLR 06/02 A3036 440 79 -500 150/05 RMK AO2 T00560022
94889KARB ARB20160311190510303/11/16 19:05:31  5-MIN KARB 120005Z 14004KT 10SM CLR 05/02 A3036 440 82 -600 150/04 RMK AO2 T00500022
94889KARB ARB20160311191010303/11/16 19:10:31  5-MIN KARB 120010Z 14004KT 10SM CLR 05/02 A3036 440 79 -600 150/04 RMK AO2 T00500017
94889KARB ARB20160311191510303/11/16 19:15:31  5-MIN KARB 120015Z 13005KT 10SM CLR 05/02 A3036 440 82 -600 140/05 RMK AO2 T00500022
94889KARB ARB20160311192010303/11/16 19:20:31  5-MIN KARB 120020Z 13006KT 10SM CLR 04/02 A3036 440 82 -600 130/06 RMK AO2 T00440017
94889KARB ARB20160311192510303/11/16 19:25:31  5-MIN KARB 120025Z 13005KT 10SM CLR 05/02 A3036 440 82 -600 140/05 RMK AO2 T00500022
94889KARB ARB20160311193010303/11/16 19:30:31  5-MIN KARB 120030Z 13005KT 10SM CLR 04/02 A3036 440 82 -600 140/05 RMK AO2 T00440017
94889KARB ARB20160311193510303/11/16 19:35:31  5-MIN KARB 120035Z 13005KT 10SM CLR 04/02 A3036 440 82 -600 130/05 RMK AO2 T00440017
94889KARB ARB20160311194010303/11/16 19:40:31  5-MIN KARB 120040Z 14005KT 10SM CLR 04/02 A3036 440 82 -600 140/05 RMK AO2 T00440017
94889KARB ARB20160311194510303/11/16 19:45:31  5-MIN KARB 120045Z 14003KT 10SM CLR 04/02 A3036 430 82 -600 150/03 RMK AO2 T00440017
94889KARB ARB20160311195011003/11/16 19:50:31  5-MIN KARB 120050Z 13004KT 10SM CLR 04/02 A3036 440 85 -700 140/04 RMK AO2 SLP288 T00390017
94889KARB ARB20160311195510303/11/16 19:55:31  5-MIN KARB 120055Z 15004KT 10SM CLR 03/01 A3036 440 85 -800 160/04 RMK AO2 T00330011
94889KARB ARB20160311200010803/11/16 20:00:31  5-MIN KARB 120100Z AUTO 14004KT 10SM CLR 03/02 A3036 440 89 -800 150/04 RMK AO2 T00330017
94889KARB ARB20160311200510803/11/16 20:05:31  5-MIN KARB 120105Z AUTO 14004KT 10SM CLR 03/02 A3036 440 89 -800 150/04 RMK AO2 T00330017
94889KARB ARB20160311201010803/11/16 20:10:31  5-MIN KARB 120110Z AUTO 15003KT 10SM CLR 03/01 A3036 440 85 -800 150/03 RMK AO2 T00330011
94889KARB ARB20160311201510803/11/16 20:15:31  5-MIN KARB 120115Z AUTO 15004KT 10SM CLR 03/01 A3036 430 85 -800 160/04 RMK AO2 T00330011
94889KARB ARB20160311202010803/11/16 20:20:31  5-MIN KARB 120120Z AUTO 16004KT 10SM CLR 03/01 A3036 440 85 -800 160/04 RMK AO2 T00330011
94889KARB ARB20160311202510803/11/16 20:25:31  5-MIN KARB 120125Z AUTO 16004KT 10SM CLR 03/01 A3036 440 89 -900 170/04 RMK AO2 T00280011
94889KARB ARB20160311203010803/11/16 20:30:31  5-MIN KARB 120130Z AUTO 17004KT 10SM CLR 03/01 A3036 440 89 -900 170/04 RMK AO2 T00280011
94889KARB ARB20160311203510803/11/16 20:35:31  5-MIN KARB 120135Z AUTO 16003KT 10SM CLR 03/01 A3036 440 89 -900 160/03 RMK AO2 T00280011
94889KARB ARB20160311204010803/11/16 20:40:31  5-MIN KARB 120140Z AUTO 12004KT 10SM CLR 03/01 A3036 440 89 -900 130/04 RMK AO2 T00280011
94889KARB ARB20160311204510803/11/16 20:45:31  5-MIN KARB 120145Z AUTO 15005KT 10SM CLR 02/01 A3036 440 92 -900 150/05 RMK AO2 T00220011
94889KARB ARB20160311205011403/11/16 20:50:31  5-MIN KARB 120150Z AUTO 16004KT 9SM CLR 03/01 A3036 440 89 -800 170/04 RMK AO2 SLP286 T00280011
94889KARB ARB20160311205510803/11/16 20:55:31  5-MIN KARB 120155Z AUTO 15004KT 10SM CLR 02/01 A3036 440 92 -900 160/04 RMK AO2 T00220011
94889KARB ARB20160311210010803/11/16 21:00:31  5-MIN KARB 120200Z AUTO 16005KT 10SM CLR 02/01 A3036 440 89 -900 170/05 RMK AO2 T00220006
94889KARB ARB20160311210510803/11/16 21:05:31  5-MIN KARB 120205Z AUTO 16004KT 10SM CLR 02/01 A3036 440 92 -900 170/04 RMK AO2 T00220011
94889KARB ARB20160311211010803/11/16 21:10:31  5-MIN KARB 120210Z AUTO 15003KT 9SM CLR 02/01 A3036 440 92 -1000 160/03 RMK AO2 T00170006
94889KARB ARB20160311211510803/11/16 21:15:31  5-MIN KARB 120215Z AUTO 16005KT 9SM CLR 02/01 A3036 440 92 -1000 170/05 RMK AO2 T00170006
94889KARB ARB20160311212010703/11/16 21:20:31  5-MIN KARB 120220Z AUTO 16005KT 9SM CLR 02/01 A3035 440 89 -900 170/05 RMK AO2 T00220006
94889KARB ARB20160311212510803/11/16 21:25:31  5-MIN KARB 120225Z AUTO 18003KT 9SM CLR 02/01 A3035 440 92 -1000 190/03 RMK AO2 T00170006
94889KARB ARB20160311213010803/11/16 21:30:31  5-MIN KARB 120230Z AUTO 19005KT 9SM CLR 02/01 A3035 440 92 -1000 190/05 RMK AO2 T00170006
94889KARB ARB20160311213510803/11/16 21:35:31  5-MIN KARB 120235Z AUTO 18006KT 8SM CLR 01/00 A3035 440 92 -1100 190/06 RMK AO2 T00110000
94889KARB ARB20160311214010803/11/16 21:40:31  5-MIN KARB 120240Z AUTO 18004KT 8SM CLR 02/01 A3035 440 92 -1000 180/04 RMK AO2 T00170006
94889KARB ARB20160311214510803/11/16 21:45:31  5-MIN KARB 120245Z AUTO 17003KT 8SM CLR 02/01 A3035 440 92 -1000 180/03 RMK AO2 T00170006
94889KARB ARB20160311215012103/11/16 21:50:31  5-MIN KARB 120250Z AUTO 17003KT 8SM CLR 02/00 A3035 440 89 -1000 180/03 RMK AO2 SLP285 T00170000 51007
94889KARB ARB20160311215510803/11/16 21:55:31  5-MIN KARB 120255Z AUTO 17003KT 8SM CLR 01/00 A3036 440 92 -1100 170/03 RMK AO2 T00110000
94889KARB ARB20160311220010803/11/16 22:00:31  5-MIN KARB 120300Z AUTO 15003KT 8SM CLR 02/00 A3036 440 89 -1000 160/03 RMK AO2 T00170000
94889KARB ARB20160311220510803/11/16 22:05:31  5-MIN KARB 120305Z AUTO 15003KT 8SM CLR 01/00 A3036 440 92 -1100 160/03 RMK AO2 T00110000
94889KARB ARB20160311221010803/11/16 22:10:31  5-MIN KARB 120310Z AUTO 16003KT 8SM CLR 01/00 A3036 440 92 -1100 160/03 RMK AO2 T00110000
94889KARB ARB20160311221510803/11/16 22:15:31  5-MIN KARB 120315Z AUTO 15003KT 8SM CLR 01/00 A3036 440 92 -1100 150/03 RMK AO2 T00110000
94889KARB ARB20160311222010803/11/16 22:20:31  5-MIN KARB 120320Z AUTO 16003KT 8SM CLR 01/00 A3036 440 92 -1100 170/03 RMK AO2 T00110000
94889KARB ARB20160311222510803/11/16 22:25:31  5-MIN KARB 120325Z AUTO 18003KT 8SM CLR 01/00 A3036 440 92 -1100 180/03 RMK AO2 T00110000
94889KARB ARB20160311223010803/11/16 22:30:31  5-MIN KARB 120330Z AUTO 00000KT 8SM CLR 01/00 A3036 440 92 -1100 000/00 RMK AO2 T00110000
94889KARB ARB20160311223510803/11/16 22:35:31  5-MIN KARB 120335Z AUTO 00000KT 8SM CLR 01/00 A3036 440 92 -1100 000/00 RMK AO2 T00110000
94889KARB ARB20160311224010803/11/16 22:40:31  5-MIN KARB 120340Z AUTO 00000KT 7SM CLR 01/00 A3035 450 92 -1100 000/00 RMK AO2 T00110000
94889KARB ARB20160311224510803/11/16 22:45:31  5-MIN KARB 120345Z AUTO 17003KT 7SM CLR 01/00 A3035 450 92 -1000 170/03 RMK AO2 T00110000
94889KARB ARB20160311225011503/11/16 22:50:31  5-MIN KARB 120350Z AUTO 00000KT 7SM CLR 01/00 A3035 450 92 -1000 000/00 RMK AO2 SLP283 T00110000
94889KARB ARB20160311225511103/11/16 22:55:31  5-MIN KARB 120355Z AUTO 00000KT 6SM BR CLR 01/00 A3034 450 96 -1100 000/00 RMK AO2 T00060000
94889KARB ARB20160311230011203/11/16 23:00:31  5-MIN KARB 120400Z AUTO 00000KT 6SM BR CLR 00/M01 A3034 450 96 -1200 000/00 RMK AO2 T00001006
94889KARB ARB20160311230511203/11/16 23:05:31  5-MIN KARB 120405Z AUTO 00000KT 5SM BR CLR 00/M01 A3034 460 96 -1200 000/00 RMK AO2 T00001006
94889KARB ARB20160311231011203/11/16 23:10:31  5-MIN KARB 120410Z AUTO 00000KT 4SM BR CLR 00/M01 A3034 460 92 -1200 000/00 RMK AO2 T00001011
94889KARB ARB20160311231511203/11/16 23:15:31  5-MIN KARB 120415Z AUTO 00000KT 5SM BR CLR 01/M01 A3034 460 92 -1100 000/00 RMK AO2 T00061006
94889KARB ARB20160311232011203/11/16 23:20:31  5-MIN KARB 120420Z AUTO 00000KT 5SM BR CLR 01/M01 A3033 460 92 -1100 000/00 RMK AO2 T00061006
94889KARB ARB20160311232511803/11/16 23:25:31  5-MIN KARB 120425Z AUTO 00000KT 5SM BR CLR 00/M01 A3033 460 96 -1200 000/00 RMK AO2 I1000 T00001006
94889KARB ARB20160311233011903/11/16 23:30:31  5-MIN KARB 120430Z AUTO 00000KT 5SM BR CLR M01/M01 A3033 460 96 -1200 000/00 RMK AO2 I1001 T10061011
94889KARB ARB20160311233511903/11/16 23:35:31  5-MIN KARB 120435Z AUTO 00000KT 5SM BR CLR M01/M01 A3033 470 96 -1200 000/00 RMK AO2 I1001 T10061011
94889KARB ARB20160311234012003/11/16 23:40:31  5-MIN KARB 120440Z AUTO 00000KT 4SM BR CLR M01/M01 A3033 470 100 -1300 000/00 RMK AO2 I1001 T10111011
94889KARB ARB20160311234512303/11/16 23:45:31  5-MIN KARB 120445Z AUTO 00000KT 2 1/2SM BR CLR M02/M02 A3033 470 96 -1400 000/00 RMK AO2 I1001 T10171022
94889KARB ARB20160311235013803/11/16 23:50:31  5-MIN KARB 120450Z AUTO 00000KT 3/4SM BR CLR M02/M02 A3033 470 96 -1400 000/00 RMK AO2 SLP276 I1001 T10171022 401221017
94889KARB ARB20160311235511703/11/16 23:55:31  5-MIN KARB 120455Z AUTO 00000KT 1/4SM FZFG CLR M01/M02 A3032 470 96 -1300 000/00 RMK AO2 T10111017
94889KARB ARB20160312000011703/12/16 00:00:31  5-MIN KARB 120500Z AUTO 00000KT 1/4SM FZFG CLR M01/M02 A3032 470 96 -1300 000/00 RMK AO2 T10111017
94889KARB ARB20160312000511703/12/16 00:05:31  5-MIN KARB 120505Z AUTO 00000KT 1/4SM FZFG CLR M01/M02 A3032 470 96 -1300 000/00 RMK AO2 T10111017
94889KARB ARB20160312001012003/12/16 00:10:31  5-MIN KARB 120510Z AUTO 00000KT 1/4SM FZFG VV002 M02/M02 A3032 480 100 -1400 000/00 RMK AO2 T10171017
94889KARB ARB20160312001511903/12/16 00:15:31  5-MIN KARB 120515Z AUTO 00000KT 1/4SM FZFG VV002 M02/M02 A3032 480 96 -1400 000/00 RMK AO2 T10171022
94889KARB ARB20160312002011903/12/16 00:20:31  5-MIN KARB 120520Z AUTO 00000KT 1/2SM FZFG VV002 M02/M02 A3031 480 96 -1400 000/00 RMK AO2 T10171022
94889KARB ARB20160312002512003/12/16 00:25:31  5-MIN KARB 120525Z AUTO 00000KT 1/2SM FZFG VV002 M02/M02 A3031 480 100 -1400 000/00 RMK AO2 T10171017
94889KARB ARB20160312003012003/12/16 00:30:31  5-MIN KARB 120530Z AUTO 00000KT 1/2SM FZFG VV002 M02/M02 A3031 480 100 -1400 000/00 RMK AO2 T10171017
94889KARB ARB20160312003512003/12/16 00:35:31  5-MIN KARB 120535Z AUTO 00000KT 1/4SM FZFG VV002 M03/M03 A3031 480 100 -1500 000/00 RMK AO2 T10281028
94889KARB ARB20160312004011803/12/16 00:40:31  5-MIN KARB 120540Z AUTO 00000KT 1/4SM FZFG CLR M03/M03 A3031 490 100 -1600 000/00 RMK AO2 T10331033
94889KARB ARB20160312004511803/12/16 00:45:31  5-MIN KARB 120545Z AUTO 00000KT 1/4SM FZFG CLR M03/M03 A3030 490 100 -1500 000/00 RMK AO2 T10281028
94889KARB ARB20160312005014903/12/16 00:50:31  5-MIN KARB 120550Z AUTO 00000KT 1/4SM FZFG CLR M02/M02 A3029 500 100 -1400 000/00 RMK AO2 SLP265 I6001 T10221022 10056 21033 57001
94889KARB ARB20160312005511703/12/16 00:55:31  5-MIN KARB 120555Z AUTO 00000KT 1/2SM FZFG CLR M02/M02 A3029 500 96 -1300 000/00 RMK AO2 T10171022
94889KARB ARB20160312010011503/12/16 01:00:31  5-MIN KARB 120600Z AUTO 00000KT 3/4SM BR CLR M01/M02 A3029 500 96 -1300 000/00 RMK AO2 T10111017
94889KARB ARB20160312010511503/12/16 01:05:31  5-MIN KARB 120605Z AUTO 00000KT 3/4SM BR CLR M01/M01 A3029 500 96 -1200 000/00 RMK AO2 T10061011
94889KARB ARB20160312011012303/12/16 01:10:31  5-MIN KARB 120610Z AUTO 00000KT 1 1/4SM BR CLR M01/M01 A3029 500 96 -1200 000/00 RMK AO2 I1000 T10061011
94889KARB ARB20160312011512303/12/16 01:15:31  5-MIN KARB 120615Z AUTO 00000KT 2 1/2SM BR CLR M01/M01 A3029 510 96 -1200 000/00 RMK AO2 I1000 T10061011
94889KARB ARB20160312012012303/12/16 01:20:31  5-MIN KARB 120620Z AUTO 00000KT 2 1/2SM BR CLR M01/M01 A3028 510 96 -1200 000/00 RMK AO2 I1000 T10061011
94889KARB ARB20160312012512303/12/16 01:25:31  5-MIN KARB 120625Z AUTO 00000KT 2 1/2SM BR CLR M01/M01 A3028 510 96 -1200 000/00 RMK AO2 I1001 T10061011
94889KARB ARB20160312013012003/12/16 01:30:31  5-MIN KARB 120630Z AUTO 00000KT 4SM BR CLR M01/M01 A3028 510 100 -1200 000/00 RMK AO2 I1001 T10111011
94889KARB ARB20160312013512003/12/16 01:35:31  5-MIN KARB 120635Z AUTO 00000KT 6SM BR CLR M02/M02 A3028 510 100 -1300 000/00 RMK AO2 I1001 T10171017
94889KARB ARB20160312014011903/12/16 01:40:31  5-MIN KARB 120640Z AUTO 00000KT 6SM BR CLR M02/M02 A3028 510 96 -1300 000/00 RMK AO2 I1001 T10171022
94889KARB ARB20160312014511903/12/16 01:45:31  5-MIN KARB 120645Z AUTO 00000KT 5SM BR CLR M02/M02 A3029 510 96 -1300 000/00 RMK AO2 I1001 T10171022
94889KARB ARB20160312015012603/12/16 01:50:31  5-MIN KARB 120650Z AUTO 26003KT 4SM BR CLR M02/M03 A3028 510 92 -1300 260/03 RMK AO2 SLP262 I1001 T10171028
94889KARB ARB20160312015511703/12/16 01:55:31  5-MIN KARB 120655Z AUTO 26003KT 1 1/2SM BR CLR M02/M02 A3028 510 96 -1300 260/03 RMK AO2 T10171022
94889KARB ARB20160312020011803/12/16 02:00:31  5-MIN KARB 120700Z AUTO 00000KT 1/2SM FZFG CLR M02/M02 A3028 510 100 -1400 000/00 RMK AO2 T10221022
94889KARB ARB20160312020513403/12/16 02:05:31  5-MIN KARB 120705Z AUTO 00000KT 1/2SM FZFG VV003 M03/M03 A3027 520 100 -1500 000/00 RMK AO2 VIS 1/4V1 3/4 T10331033
94889KARB ARB20160312021013003/12/16 02:10:31  5-MIN KARB 120710Z AUTO 00000KT 1 1/4SM BR FEW003 M03/M04 A3027 520 96 -1500 000/00 RMK AO2 VIS 1/2V5 T10331039
94889KARB ARB20160312021511303/12/16 02:15:31  5-MIN KARB 120715Z AUTO 00000KT 5SM BR CLR M02/M04 A3027 520 88 -1400 000/00 RMK AO2 T10221039
94889KARB ARB20160312022011303/12/16 02:20:31  5-MIN KARB 120720Z AUTO 00000KT 5SM BR CLR M02/M03 A3027 520 92 -1400 000/00 RMK AO2 T10221033
94889KARB ARB20160312022511703/12/16 02:25:31  5-MIN KARB 120725Z AUTO 00000KT 1 3/4SM BR CLR M03/M03 A3026 520 96 -1400 000/00 RMK AO2 T10281033
94889KARB ARB20160312023011503/12/16 02:30:31  5-MIN KARB 120730Z AUTO 00000KT 3/4SM BR CLR M03/M03 A3026 520 96 -1400 000/00 RMK AO2 T10281033
94889KARB ARB20160312023511903/12/16 02:35:31  5-MIN KARB 120735Z AUTO 00000KT 1/2SM FZFG VV002 M03/M03 A3026 530 96 -1400 000/00 RMK AO2 T10281033
94889KARB ARB20160312024011903/12/16 02:40:31  5-MIN KARB 120740Z AUTO 00000KT 1/4SM FZFG VV001 M03/M04 A3026 530 96 -1500 000/00 RMK AO2 T10331039
94889KARB ARB20160312024511903/12/16 02:45:31  5-MIN KARB 120745Z AUTO 00000KT 1/4SM FZFG VV001 M03/M03 A3026 530 96 -1400 000/00 RMK AO2 T10281033
94889KARB ARB20160312025012603/12/16 02:50:31  5-MIN KARB 120750Z AUTO 00000KT 1/4SM FZFG VV001 M03/M03 A3026 530 96 -1400 000/00 RMK AO2 SLP253 T10281033
94889KARB ARB20160312025511903/12/16 02:55:31  5-MIN KARB 120755Z AUTO 00000KT 1/4SM FZFG VV001 M02/M03 A3025 530 96 -1400 000/00 RMK AO2 T10221028
94889KARB ARB20160312030012003/12/16 03:00:31  5-MIN KARB 120800Z AUTO 00000KT 1/4SM FZFG VV001 M03/M03 A3025 530 100 -1400 000/00 RMK AO2 T10281028
94889KARB ARB20160312030512003/12/16 03:05:31  5-MIN KARB 120805Z AUTO 00000KT 1/4SM FZFG VV001 M03/M03 A3025 540 100 -1500 000/00 RMK AO2 T10331033
94889KARB ARB20160312031011903/12/16 03:10:31  5-MIN KARB 120810Z AUTO 00000KT 1/4SM FZFG VV001 M03/M03 A3024 540 96 -1400 000/00 RMK AO2 T10281033
94889KARB ARB20160312031511903/12/16 03:15:31  5-MIN KARB 120815Z AUTO 24003KT 1/4SM FZFG VV001 M03/M03 A3024 550 96 -1400 240/03 RMK AO2 T10281033
94889KARB ARB20160312032012503/12/16 03:20:31  5-MIN KARB 120820Z AUTO 26003KT 1/4SM FZFG VV001 M03/M04 A3024 540 96 -1500 260/03 RMK AO2 I1000 T10331039
94889KARB ARB20160312032512503/12/16 03:25:31  5-MIN KARB 120825Z AUTO 27003KT 1/4SM FZFG VV001 M03/M04 A3024 540 96 -1500 270/03 RMK AO2 I1000 T10331039
94889KARB ARB20160312033012503/12/16 03:30:31  5-MIN KARB 120830Z AUTO 26004KT 1/4SM FZFG VV001 M03/M03 A3024 550 96 -1400 270/04 RMK AO2 I1000 T10281033
94889KARB ARB20160312033512503/12/16 03:35:31  5-MIN KARB 120835Z AUTO 26003KT 1/4SM FZFG VV001 M04/M04 A3024 550 96 -1600 270/03 RMK AO2 I1000 T10391044
94889KARB ARB20160312034012703/12/16 03:40:31  5-MIN KARB 120840Z AUTO 00000KT 1/4SM FZFG VV001 M03/M03 A3023 560 96 -1400 000/00 RMK AO2 I1000 T10281033 $
94889KARB ARB20160312034512203/12/16 03:45:31  5-MIN KARB 120845Z AUTO 00000KT 1/4SM FZFG M04/M04 A3023 560 100 -1500 000/00 RMK AO2 I1000 T10391039 $
94889KARB ARB20160312035014103/12/16 03:50:31  5-MIN KARB 120850Z AUTO 00000KT 1/4SM FZFG M04/M04 A3023 560 100 -1500 000/00 RMK AO2 SLP242 I1000 I3/// T10391039 58022 $
94889KARB ARB20160312035511603/12/16 03:55:31  5-MIN KARB 120855Z AUTO 00000KT 1/4SM FZFG M04/M04 A3022 560 100 -1500 000/00 RMK AO2 T10391039 $
94889KARB ARB20160312040011603/12/16 04:00:31  5-MIN KARB 120900Z AUTO 00000KT 1/4SM FZFG M04/M04 A3022 560 100 -1500 000/00 RMK AO2 T10391039 $
94889KARB ARB20160312040511503/12/16 04:05:31  5-MIN KARB 120905Z AUTO 00000KT 1/4SM FZFG M04/M04 A3022 560 96 -1500 000/00 RMK AO2 T10391044 $
94889KARB ARB20160312041011503/12/16 04:10:31  5-MIN KARB 120910Z AUTO 00000KT 1/4SM FZFG M04/M05 A3022 560 92 -1500 000/00 RMK AO2 T10391050 $
94889KARB ARB20160312041512103/12/16 04:15:31  5-MIN KARB 120915Z AUTO 24004KT 1/4SM FZFG M04/M04 A3022 560 96 -1500 240/04 RMK AO2 I1000 T10391044 $
94889KARB ARB20160312042012803/12/16 04:20:31  5-MIN KARB 120920Z AUTO 24004KT 1/4SM FZFG VV001 M04/M04 A3022 560 100 -1500 250/04 RMK AO2 I1000 T10391039 $
94889KARB ARB20160312042512803/12/16 04:25:31  5-MIN KARB 120925Z AUTO 24004KT 1/4SM FZFG VV001 M04/M04 A3022 560 100 -1500 250/04 RMK AO2 I1000 T10391039 $
94889KARB ARB20160312043012803/12/16 04:30:31  5-MIN KARB 120930Z AUTO 00000KT 1/4SM FZFG VV001 M04/M04 A3022 560 100 -1500 000/00 RMK AO2 I1000 T10391039 $
94889KARB ARB20160312043512803/12/16 04:35:31  5-MIN KARB 120935Z AUTO 00000KT 1/2SM FZFG VV001 M04/M04 A3023 560 100 -1500 000/00 RMK AO2 I1000 T10391039 $
94889KARB ARB20160312044012403/12/16 04:40:31  5-MIN KARB 120940Z AUTO 00000KT 2SM BR BKN001 M04/M04 A3022 560 96 -1500 000/00 RMK AO2 I1000 T10391044 $
94889KARB ARB20160312044512403/12/16 04:45:31  5-MIN KARB 120945Z AUTO 00000KT 4SM BR SCT001 M03/M04 A3022 560 92 -1500 000/00 RMK AO2 I1000 T10331044 $
94889KARB ARB20160312045011403/12/16 04:50:31  5-MIN KARB 120950Z AUTO 00000KT 3SM BR SCT001 M03/M04 A3023 560 92 -1500 000/00 RMK AO2 I1000 $
94889KARB ARB20160312045511803/12/16 04:55:31  5-MIN KARB 120955Z AUTO 00000KT 4SM BR FEW001 M03/M04 A3023 560 96 -1500 000/00 RMK AO2 T10331039 $
94889KARB ARB20160312050011803/12/16 05:00:31  5-MIN KARB 121000Z AUTO 24003KT 5SM BR FEW002 M03/M04 A3023 560 96 -1500 250/03 RMK AO2 T10331039 $
94889KARB ARB20160312050511503/12/16 05:05:31  5-MIN KARB 121005Z AUTO 24003KT 5SM BR CLR M03/M04 A3023 560 96 -1500 250/03 RMK AO2 T10331039 $
94889KARB ARB20160312051011503/12/16 05:10:31  5-MIN KARB 121010Z AUTO 23003KT 4SM BR CLR M03/M04 A3022 560 96 -1500 240/03 RMK AO2 T10331039 $
94889KARB ARB20160312051511503/12/16 05:15:31  5-MIN KARB 121015Z AUTO 00000KT 5SM BR CLR M03/M04 A3022 560 96 -1500 000/00 RMK AO2 T10331039 $
94889KARB ARB20160312052011503/12/16 05:20:31  5-MIN KARB 121020Z AUTO 00000KT 5SM BR CLR M04/M05 A3022 560 96 -1600 000/00 RMK AO2 T10441050 $
94889KARB ARB20160312052511503/12/16 05:25:31  5-MIN KARB 121025Z AUTO 00000KT 3SM BR CLR M03/M04 A3023 560 92 -1500 000/00 RMK AO2 T10331044 $
94889KARB ARB20160312053011503/12/16 05:30:31  5-MIN KARB 121030Z AUTO 02003KT 3SM BR CLR M03/M04 A3023 560 92 -1400 020/03 RMK AO2 T10281039 $
94889KARB ARB20160312053511503/12/16 05:35:31  5-MIN KARB 121035Z AUTO 01003KT 5SM BR CLR M03/M03 A3023 560 96 -1400 020/03 RMK AO2 T10281033 $
94889KARB ARB20160312054011503/12/16 05:40:31  5-MIN KARB 121040Z AUTO 00000KT 5SM BR CLR M03/M03 A3023 560 96 -1400 000/00 RMK AO2 T10281033 $
94889KARB ARB20160312054511603/12/16 05:45:31  5-MIN KARB 121045Z AUTO 00000KT 6SM BR CLR M03/M03 A3022 560 100 -1400 000/00 RMK AO2 T10281028 $
94889KARB ARB20160312055012203/12/16 05:50:31  5-MIN KARB 121050Z AUTO 00000KT 6SM BR CLR M03/M03 A3022 570 96 -1400 000/00 RMK AO2 SLP240 T10281033 $
94889KARB ARB20160312055511503/12/16 05:55:31  5-MIN KARB 121055Z AUTO 00000KT 6SM BR CLR M03/M04 A3022 570 92 -1400 000/00 RMK AO2 T10281039 $
94889KARB ARB20160312060011503/12/16 06:00:31  5-MIN KARB 121100Z AUTO 00000KT 6SM BR CLR M03/M04 A3022 560 92 -1500 000/00 RMK AO2 T10331044 $
94889KARB ARB20160312060511203/12/16 06:05:31  5-MIN KARB 121105Z AUTO 00000KT 7SM CLR M03/M04 A3022 560 88 -1400 000/00 RMK AO2 T10281044 $
94889KARB ARB20160312061011203/12/16 06:10:31  5-MIN KARB 121110Z AUTO 00000KT 7SM CLR M03/M04 A3022 570 92 -1400 000/00 RMK AO2 T10281039 $
94889KARB ARB20160312061511203/12/16 06:15:31  5-MIN KARB 121115Z AUTO 00000KT 7SM CLR M03/M03 A3022 570 96 -1400 000/00 RMK AO2 T10281033 $
94889KARB ARB20160312062011203/12/16 06:20:31  5-MIN KARB 121120Z AUTO 00000KT 7SM CLR M03/M03 A3022 570 96 -1400 000/00 RMK AO2 T10281033 $
94889KARB ARB20160312062511203/12/16 06:25:31  5-MIN KARB 121125Z AUTO 00000KT 7SM CLR M03/M03 A3022 570 96 -1400 000/00 RMK AO2 T10281033 $
94889KARB ARB20160312063011203/12/16 06:30:31  5-MIN KARB 121130Z AUTO 00000KT 7SM CLR M03/M03 A3022 570 96 -1400 000/00 RMK AO2 T10281033 $
94889KARB ARB20160312063511503/12/16 06:35:31  5-MIN KARB 121135Z AUTO 00000KT 6SM BR CLR M03/M03 A3022 570 96 -1400 000/00 RMK AO2 T10281033 $
94889KARB ARB20160312064012103/12/16 06:40:31  5-MIN KARB 121140Z AUTO 00000KT 6SM BR CLR M03/M04 A3022 560 92 -1400 000/00 RMK AO2 I1000 T10281039 $
94889KARB ARB20160312064512103/12/16 06:45:31  5-MIN KARB 121145Z AUTO 00000KT 6SM BR CLR M03/M04 A3022 560 92 -1400 000/00 RMK AO2 I1000 T10281039 $
94889KARB ARB20160312065015203/12/16 06:50:31  5-MIN KARB 121150Z AUTO 00000KT 6SM BR CLR M03/M04 A3022 560 92 -1400 000/00 RMK AO2 SLP242 I1000 I6002 T10281039 11006 21044 56019 $
94889KARB ARB20160312065511503/12/16 06:55:31  5-MIN KARB 121155Z AUTO 00000KT 4SM BR CLR M03/M04 A3023 560 92 -1400 000/00 RMK AO2 T10281039 $
94889KARB ARB20160312070012303/12/16 07:00:31  5-MIN KARB 121200Z AUTO 13003KT 2SM BR CLR M04/M04 A3022 560 96 -1500 140/03 RMK AO2 VIS 1V5 T10391044 $
94889KARB ARB20160312070511503/12/16 07:05:31  5-MIN KARB 121205Z AUTO 16003KT 2SM BR CLR M04/M04 A3022 560 96 -1500 170/03 RMK AO2 T10391044 $
94889KARB ARB20160312071011603/12/16 07:10:31  5-MIN KARB 121210Z AUTO 16003KT 3SM BR CLR M04/M04 A3022 570 100 -1500 170/03 RMK AO2 T10391039 $
94889KARB ARB20160312071511503/12/16 07:15:31  5-MIN KARB 121215Z AUTO 17003KT 3SM BR CLR M04/M05 A3022 570 96 -1600 180/03 RMK AO2 T10441050 $
94889KARB ARB20160312072012103/12/16 07:20:31  5-MIN KARB 121220Z AUTO 00000KT 4SM BR CLR M04/M05 A3022 570 96 -1600 000/00 RMK AO2 I1001 T10441050 $
94889KARB ARB20160312072512103/12/16 07:25:31  5-MIN KARB 121225Z AUTO 00000KT 4SM BR CLR M03/M04 A3022 570 92 -1500 000/00 RMK AO2 I1001 T10331044 $
94889KARB ARB20160312073012103/12/16 07:30:31  5-MIN KARB 121230Z AUTO 00000KT 4SM BR CLR M03/M03 A3021 570 96 -1400 000/00 RMK AO2 I1001 T10281033 $
94889KARB ARB20160312073512103/12/16 07:35:31  5-MIN KARB 121235Z AUTO 00000KT 4SM BR CLR M02/M02 A3021 570 96 -1200 000/00 RMK AO2 I1001 T10171022 $
94889KARB ARB20160312074012103/12/16 07:40:31  5-MIN KARB 121240Z AUTO 00000KT 4SM BR CLR M01/M02 A3021 570 96 -1200 000/00 RMK AO2 I1001 T10111017 $
94889KARB ARB20160312074512203/12/16 07:45:31  5-MIN KARB 121245Z AUTO 00000KT 4SM BR CLR M01/M01 A3021 570 100 -1200 000/00 RMK AO2 I1001 T10111011 $
94889KARB ARB20160312075012903/12/16 07:50:31  5-MIN KARB 121250Z AUTO 00000KT 4SM BR CLR M01/M01 A3022 570 100 -1200 000/00 RMK AO2 SLP240 I1001 T10111011 $
94889KARB ARB20160312075512203/12/16 07:55:31  5-MIN KARB 121255Z AUTO 00000KT 3SM BR CLR M01/M01 A3022 570 100 -1100 000/00 RMK AO2 I1000 T10061006 $
94889KARB ARB20160312080011703/12/16 08:00:31  5-MIN KARB 121300Z 00000KT 3SM BR CLR M01/M01 A3022 570 100 -1100 000/00 RMK AO2 I1000 T10061006 $
94889KARB ARB20160312080511503/12/16 08:05:31  5-MIN KARB 121305Z 00000KT 3SM BR CLR 00/M01 A3021 570 96 -1000 000/00 RMK AO2 I1000 T00001006 $
94889KARB ARB20160312081011503/12/16 08:10:31  5-MIN KARB 121310Z 00000KT 3SM BR CLR 00/00 A3021 580 100 -1000 000/00 RMK AO2 I1000 T00000000 $
94889KARB ARB20160312081511503/12/16 08:15:31  5-MIN KARB 121315Z 00000KT 4SM BR CLR 00/00 A3021 580 100 -1000 000/00 RMK AO2 I1000 T00000000 $
94889KARB ARB20160312082011303/12/16 08:20:31  5-MIN KARB 121320Z 00000KT 4SM BR CLR 02/01 A3021 570 96 -800 000/00 RMK AO2 I1000 T00170011 $
94889KARB ARB20160312082511303/12/16 08:25:31  5-MIN KARB 121325Z 04003KT 5SM BR CLR 02/01 A3021 570 96 -800 050/03 RMK AO2 I1000 T00170011 $
94889KARB ARB20160312083011303/12/16 08:30:31  5-MIN KARB 121330Z 00000KT 5SM BR CLR 02/02 A3021 580 96 -700 000/00 RMK AO2 I1000 T00220017 $
94889KARB ARB20160312083511303/12/16 08:35:31  5-MIN KARB 121335Z 00000KT 6SM BR CLR 03/02 A3021 580 92 -700 000/00 RMK AO2 I1000 T00280017 $
94889KARB ARB20160312084011303/12/16 08:40:31  5-MIN KARB 121340Z 02003KT 6SM BR CLR 03/02 A3021 580 92 -600 020/03 RMK AO2 I1000 T00330022 $
94889KARB ARB20160312084511003/12/16 08:45:31  5-MIN KARB 121345Z 03003KT 7SM CLR 03/02 A3021 580 92 -600 040/03 RMK AO2 I1000 T00330022 $
94889KARB ARB20160312085011703/12/16 08:50:31  5-MIN KARB 121350Z 00000KT 7SM CLR 03/03 A3020 580 96 -600 000/00 RMK AO2 SLP235 I1000 T00330028 $
94889KARB ARB20160312085510403/12/16 08:55:31  5-MIN KARB 121355Z 00000KT 8SM CLR 04/03 A3020 580 92 -500 000/00 RMK AO2 T00390028 $
94889KARB ARB20160312090010403/12/16 09:00:31  5-MIN KARB 121400Z 00000KT 8SM CLR 04/03 A3020 590 89 -500 000/00 RMK AO2 T00440028 $
94889KARB ARB20160312090510403/12/16 09:05:31  5-MIN KARB 121405Z 00000KT 8SM CLR 04/03 A3020 590 89 -500 000/00 RMK AO2 T00440028 $
94889KARB ARB20160312091010203/12/16 09:10:31  5-MIN KARB 121410Z 03003KT 8SM CLR 05/03 A3020 580 89 -400 040/03 RMK AO2 T00500033
94889KARB ARB20160312091510203/12/16 09:15:31  5-MIN KARB 121415Z 00000KT 9SM CLR 06/03 A3020 580 79 -300 000/00 RMK AO2 T00610028
94889KARB ARB20160312092010203/12/16 09:20:31  5-MIN KARB 121420Z 00000KT 9SM CLR 06/03 A3019 590 79 -300 000/00 RMK AO2 T00610028
94889KARB ARB20160312092510303/12/16 09:25:31  5-MIN KARB 121425Z 00000KT 10SM CLR 07/03 A3019 590 79 -200 000/00 RMK AO2 T00670033
94889KARB ARB20160312093010303/12/16 09:30:31  5-MIN KARB 121430Z 00000KT 10SM CLR 07/03 A3019 590 79 -200 000/00 RMK AO2 T00670033
94889KARB ARB20160312093510303/12/16 09:35:31  5-MIN KARB 121435Z VRB03KT 10SM CLR 07/03 A3019 600 76 -100 VRB/03 RMK AO2 T00720033
94889KARB ARB20160312094010003/12/16 09:40:31  5-MIN KARB 121440Z 00000KT 10SM CLR 08/03 A3018 600 70 0 000/00 RMK AO2 T00830033
94889KARB ARB20160312094510003/12/16 09:45:31  5-MIN KARB 121445Z 00000KT 10SM CLR 08/03 A3018 600 70 0 000/00 RMK AO2 T00830033
94889KARB ARB20160312095011903/12/16 09:50:31  5-MIN KARB 121450Z 00000KT 10SM CLR 09/03 A3019 600 68 0 000/00 RMK AO2 SLP227 I3/// T00890033 55000
94889KARB ARB20160312095510003/12/16 09:55:31  5-MIN KARB 121455Z 00000KT 10SM CLR 08/03 A3019 590 70 0 000/00 RMK AO2 T00830033
94889KARB ARB20160312100010703/12/16 10:00:31  5-MIN KARB 121500Z 00000KT 10SM CLR 09/03 A3020 580 68 0 000/00 RMK AO2 PRESRR T00890033
94889KARB ARB20160312100510003/12/16 10:05:31  5-MIN KARB 121505Z 18007KT 10SM CLR 09/04 A3020 580 71 0 190/07 RMK AO2 T00890039
94889KARB ARB20160312101010203/12/16 10:10:31  5-MIN KARB 121510Z 18006KT 10SM CLR 09/04 A3020 580 71 100 190/06 RMK AO2 T00940044
94889KARB ARB20160312101510203/12/16 10:15:31  5-MIN KARB 121515Z 20006KT 10SM CLR 10/04 A3021 580 68 200 200/06 RMK AO2 T01000044
94889KARB ARB20160312102010203/12/16 10:20:31  5-MIN KARB 121520Z 19007KT 10SM CLR 10/04 A3021 580 68 200 200/07 RMK AO2 T01000044
94889KARB ARB20160312102510203/12/16 10:25:31  5-MIN KARB 121525Z 20007KT 10SM CLR 10/04 A3020 580 68 200 210/07 RMK AO2 T01000044
94889KARB ARB20160312103010203/12/16 10:30:31  5-MIN KARB 121530Z 20006KT 10SM CLR 10/04 A3020 580 68 200 210/06 RMK AO2 T01000044
94889KARB ARB20160312103510203/12/16 10:35:31  5-MIN KARB 121535Z 20005KT 10SM CLR 10/04 A3019 590 68 200 200/05 RMK AO2 T01000044
94889KARB ARB20160312104010203/12/16 10:40:31  5-MIN KARB 121540Z 20007KT 10SM CLR 10/04 A3019 590 68 200 210/07 RMK AO2 T01000044
94889KARB ARB20160312104510203/12/16 10:45:31  5-MIN KARB 121545Z 18006KT 10SM CLR 10/04 A3019 590 68 200 190/06 RMK AO2 T01000044
94889KARB ARB20160312105010903/12/16 10:50:31  5-MIN KARB 121550Z 22006KT 10SM CLR 11/04 A3019 590 66 200 230/06 RMK AO2 SLP229 T01060044
94889KARB ARB20160312105510203/12/16 10:55:31  5-MIN KARB 121555Z 19006KT 10SM CLR 11/05 A3019 590 66 300 200/06 RMK AO2 T01110050
94889KARB ARB20160312110010203/12/16 11:00:31  5-MIN KARB 121600Z 23005KT 10SM CLR 11/04 A3019 590 63 300 240/05 RMK AO2 T01110044
94889KARB ARB20160312110510203/12/16 11:05:31  5-MIN KARB 121605Z 20006KT 10SM CLR 11/04 A3019 590 63 300 210/06 RMK AO2 T01110044
94889KARB ARB20160312111010203/12/16 11:10:31  5-MIN KARB 121610Z VRB04KT 10SM CLR 11/04 A3019 600 63 300 VRB/04 RMK AO2 T01110044
94889KARB ARB20160312111510203/12/16 11:15:31  5-MIN KARB 121615Z 20006KT 10SM CLR 11/05 A3019 590 66 300 210/06 RMK AO2 T01110050
94889KARB ARB20160312112011803/12/16 11:20:31  5-MIN KARB 121620Z 21007KT 190V250 10SM CLR 12/05 A3019 590 63 400 220/07 200V260 RMK AO2 T01170050
94889KARB ARB20160312112510203/12/16 11:25:31  5-MIN KARB 121625Z 21006KT 10SM CLR 12/05 A3019 590 63 400 220/06 RMK AO2 T01170050
94889KARB ARB20160312113010203/12/16 11:30:31  5-MIN KARB 121630Z 19007KT 10SM CLR 12/05 A3019 590 63 400 190/07 RMK AO2 T01170050
94889KARB ARB20160312113510203/12/16 11:35:31  5-MIN KARB 121635Z 19006KT 10SM CLR 12/05 A3019 590 63 400 190/06 RMK AO2 T01170050
94889KARB ARB20160312114010203/12/16 11:40:31  5-MIN KARB 121640Z 21007KT 10SM CLR 12/05 A3019 590 61 400 220/07 RMK AO2 T01220050
94889KARB ARB20160312114510203/12/16 11:45:31  5-MIN KARB 121645Z 23006KT 10SM CLR 12/05 A3019 590 61 400 230/06 RMK AO2 T01220050
94889KARB ARB20160312115010903/12/16 11:50:31  5-MIN KARB 121650Z VRB06KT 10SM CLR 13/05 A3019 590 59 500 VRB/06 RMK AO2 SLP228 T01280050
94889KARB ARB20160312115510203/12/16 11:55:31  5-MIN KARB 121655Z 24006KT 10SM CLR 12/05 A3019 590 61 400 250/06 RMK AO2 T01220050
94889KARB ARB20160312120010203/12/16 12:00:31  5-MIN KARB 121700Z 24007KT 10SM CLR 13/05 A3020 590 59 500 250/07 RMK AO2 T01280050
94889KARB ARB20160312120510203/12/16 12:05:31  5-MIN KARB 121705Z 23006KT 10SM CLR 13/05 A3019 590 59 500 230/06 RMK AO2 T01280050
94889KARB ARB20160312121010203/12/16 12:10:31  5-MIN KARB 121710Z 20005KT 10SM CLR 13/05 A3018 600 59 500 210/05 RMK AO2 T01280050
94889KARB ARB20160312121510203/12/16 12:15:31  5-MIN KARB 121715Z VRB05KT 10SM CLR 13/05 A3018 600 57 600 VRB/05 RMK AO2 T01330050
94889KARB ARB20160312122010203/12/16 12:20:31  5-MIN KARB 121720Z 00000KT 10SM CLR 13/05 A3018 600 57 600 000/00 RMK AO2 T01330050
94889KARB ARB20160312122510203/12/16 12:25:31  5-MIN KARB 121725Z 28005KT 10SM CLR 13/04 A3017 610 54 600 280/05 RMK AO2 T01330044
94889KARB ARB20160312123010903/12/16 12:30:31  5-MIN KARB 121730Z 24006KT 10SM CLR 13/05 A3016 620 57 600 250/06 RMK AO2 PRESFR T01330050
94889KARB ARB20160312123510203/12/16 12:35:31  5-MIN KARB 121735Z VRB05KT 10SM CLR 13/04 A3016 620 54 600 VRB/05 RMK AO2 T01330044
94889KARB ARB20160312124010203/12/16 12:40:31  5-MIN KARB 121740Z VRB03KT 10SM CLR 13/05 A3016 620 57 600 VRB/03 RMK AO2 T01330050
94889KARB ARB20160312124510203/12/16 12:45:31  5-MIN KARB 121745Z VRB04KT 10SM CLR 14/05 A3016 620 55 700 VRB/04 RMK AO2 T01390050
94889KARB ARB20160312125013303/12/16 12:50:31  5-MIN KARB 121750Z VRB05KT 10SM CLR 14/05 A3016 620 55 700 VRB/05 RMK AO2 SLP219 I6001 T01390050 10139 21044 58012
94889KARB ARB20160312125510203/12/16 12:55:31  5-MIN KARB 121755Z 25007KT 10SM CLR 14/04 A3016 620 52 700 260/07 RMK AO2 T01390044
94889KARB ARB20160312130010203/12/16 13:00:31  5-MIN KARB 121800Z 28003KT 10SM CLR 14/05 A3016 620 55 700 290/03 RMK AO2 T01390050
94889KARB ARB20160312130510203/12/16 13:05:31  5-MIN KARB 121805Z 29004KT 10SM CLR 14/05 A3015 630 53 700 300/04 RMK AO2 T01440050
94889KARB ARB20160312131010903/12/16 13:10:31  5-MIN KARB 121810Z 28003KT 10SM CLR 14/05 A3014 640 53 800 280/03 RMK AO2 PRESFR T01440050
94889KARB ARB20160312131510903/12/16 13:15:31  5-MIN KARB 121815Z 32004KT 10SM CLR 15/05 A3013 640 51 800 330/04 RMK AO2 PRESFR T01500050
94889KARB ARB20160312132010203/12/16 13:20:31  5-MIN KARB 121820Z 00000KT 10SM CLR 14/04 A3013 650 51 800 000/00 RMK AO2 T01440044
94889KARB ARB20160312132510203/12/16 13:25:31  5-MIN KARB 121825Z 23004KT 10SM CLR 14/04 A3013 650 49 800 240/04 RMK AO2 T01440039
94889KARB ARB20160312133010203/12/16 13:30:31  5-MIN KARB 121830Z 31005KT 10SM CLR 14/04 A3012 650 49 800 320/05 RMK AO2 T01440039
94889KARB ARB20160312133510203/12/16 13:35:31  5-MIN KARB 121835Z 00000KT 10SM CLR 15/04 A3012 660 47 900 000/00 RMK AO2 T01500039
94889KARB ARB20160312134010203/12/16 13:40:31  5-MIN KARB 121840Z 00000KT 10SM CLR 14/04 A3012 660 49 800 000/00 RMK AO2 T01440039
94889KARB ARB20160312134510203/12/16 13:45:31  5-MIN KARB 121845Z 28003KT 10SM CLR 15/04 A3012 660 47 900 280/03 RMK AO2 T01500039
94889KARB ARB20160312135010903/12/16 13:50:31  5-MIN KARB 121850Z 24004KT 10SM CLR 15/04 A3012 660 47 900 250/04 RMK AO2 SLP203 T01500039
94889KARB ARB20160312135510203/12/16 13:55:31  5-MIN KARB 121855Z VRB03KT 10SM CLR 15/04 A3011 670 47 900 VRB/03 RMK AO2 T01500039
94889KARB ARB20160312140010203/12/16 14:00:31  5-MIN KARB 121900Z 00000KT 10SM CLR 15/03 A3011 670 45 900 000/00 RMK AO2 T01500033
94889KARB ARB20160312140510203/12/16 14:05:31  5-MIN KARB 121905Z 00000KT 10SM CLR 15/03 A3011 670 45 900 000/00 RMK AO2 T01500033
94889KARB ARB20160312141010203/12/16 14:10:31  5-MIN KARB 121910Z 00000KT 10SM CLR 15/03 A3011 670 45 900 000/00 RMK AO2 T01500033
94889KARB ARB20160312141510203/12/16 14:15:31  5-MIN KARB 121915Z VRB03KT 10SM CLR 16/03 A3011 670 43 900 VRB/03 RMK AO2 T01560033
94889KARB ARB20160312142010203/12/16 14:20:31  5-MIN KARB 121920Z 00000KT 10SM CLR 16/03 A3011 670 43 900 000/00 RMK AO2 T01560033
94889KARB ARB20160312142510203/12/16 14:25:31  5-MIN KARB 121925Z 00000KT 10SM CLR 15/03 A3010 670 43 900 000/00 RMK AO2 T01500028
94889KARB ARB20160312143010203/12/16 14:30:31  5-MIN KARB 121930Z 00000KT 10SM CLR 15/03 A3010 670 43 900 000/00 RMK AO2 T01500028
94889KARB ARB20160312143510203/12/16 14:35:31  5-MIN KARB 121935Z 00000KT 10SM CLR 16/03 A3010 670 42 900 000/00 RMK AO2 T01560028
94889KARB ARB20160312144010203/12/16 14:40:31  5-MIN KARB 121940Z 00000KT 10SM CLR 15/02 A3010 670 42 900 000/00 RMK AO2 T01500022
94889KARB ARB20160312144510203/12/16 14:45:31  5-MIN KARB 121945Z 00000KT 10SM CLR 15/02 A3010 670 42 900 000/00 RMK AO2 T01500022
94889KARB ARB20160312145010903/12/16 14:50:31  5-MIN KARB 121950Z VRB03KT 10SM CLR 15/02 A3010 680 40 900 VRB/03 RMK AO2 SLP197 T01500017
94889KARB ARB20160312145510203/12/16 14:55:31  5-MIN KARB 121955Z 00000KT 10SM CLR 15/02 A3009 680 40 900 000/00 RMK AO2 T01500017
94889KARB ARB20160312150010203/12/16 15:00:31  5-MIN KARB 122000Z 24003KT 10SM CLR 15/02 A3010 680 40 900 240/03 RMK AO2 T01500017
94889KARB ARB20160312150510203/12/16 15:05:31  5-MIN KARB 122005Z 00000KT 10SM CLR 16/02 A3009 680 39 900 000/00 RMK AO2 T01560017
94889KARB ARB20160312151010203/12/16 15:10:31  5-MIN KARB 122010Z 00000KT 10SM CLR 15/02 A3009 690 40 900 000/00 RMK AO2 T01500017
94889KARB ARB20160312151510203/12/16 15:15:31  5-MIN KARB 122015Z 00000KT 10SM CLR 15/02 A3009 690 40 900 000/00 RMK AO2 T01500017
94889KARB ARB20160312152010303/12/16 15:20:31  5-MIN KARB 122020Z 00000KT 10SM CLR 16/02 A3008 690 39 1000 000/00 RMK AO2 T01560017
94889KARB ARB20160312152510303/12/16 15:25:31  5-MIN KARB 122025Z 00000KT 10SM CLR 16/02 A3008 690 39 1000 000/00 RMK AO2 T01560017
94889KARB ARB20160312153010303/12/16 15:30:31  5-MIN KARB 122030Z 00000KT 10SM CLR 16/02 A3007 700 39 1000 000/00 RMK AO2 T01560017
94889KARB ARB20160312153510303/12/16 15:35:31  5-MIN KARB 122035Z 00000KT 10SM CLR 16/02 A3007 700 39 1000 000/00 RMK AO2 T01560017
94889KARB ARB20160312154010303/12/16 15:40:31  5-MIN KARB 122040Z 08003KT 10SM CLR 16/02 A3007 700 40 1000 090/03 RMK AO2 T01560022
94889KARB ARB20160312154510303/12/16 15:45:31  5-MIN KARB 122045Z 00000KT 10SM CLR 16/02 A3007 710 40 1000 000/00 RMK AO2 T01560022
94889KARB ARB20160312155011603/12/16 15:50:31  5-MIN KARB 122050Z 00000KT 10SM CLR 16/02 A3007 710 40 1000 000/00 RMK AO2 SLP186 T01560022 58008
94889KARB ARB20160312155510303/12/16 15:55:31  5-MIN KARB 122055Z 09003KT 10SM CLR 16/03 A3007 710 42 1000 090/03 RMK AO2 T01560028
94889KARB ARB20160312160010303/12/16 16:00:31  5-MIN KARB 122100Z 14003KT 10SM CLR 16/03 A3007 700 42 1000 140/03 RMK AO2 T01560028
94889KARB ARB20160312160510303/12/16 16:05:31  5-MIN KARB 122105Z 15003KT 10SM CLR 16/03 A3007 700 43 1000 160/03 RMK AO2 T01560033
94889KARB ARB20160312161010303/12/16 16:10:31  5-MIN KARB 122110Z 00000KT 10SM CLR 16/03 A3007 700 42 1000 000/00 RMK AO2 T01560028
94889KARB ARB20160312161510303/12/16 16:15:31  5-MIN KARB 122115Z VRB03KT 10SM CLR 16/03 A3007 710 42 1000 VRB/03 RMK AO2 T01560028
94889KARB ARB20160312162010303/12/16 16:20:31  5-MIN KARB 122120Z 13004KT 10SM CLR 16/03 A3007 710 42 1000 130/04 RMK AO2 T01560028
94889KARB ARB20160312162510303/12/16 16:25:31  5-MIN KARB 122125Z 15004KT 10SM CLR 16/03 A3007 700 43 1000 150/04 RMK AO2 T01560033
94889KARB ARB20160312163010303/12/16 16:30:31  5-MIN KARB 122130Z 15003KT 10SM CLR 16/03 A3007 700 43 1000 150/03 RMK AO2 T01560033
94889KARB ARB20160312163510303/12/16 16:35:31  5-MIN KARB 122135Z 14004KT 10SM CLR 16/03 A3007 700 42 1000 150/04 RMK AO2 T01560028
94889KARB ARB20160312164010303/12/16 16:40:31  5-MIN KARB 122140Z VRB04KT 10SM CLR 16/03 A3007 700 42 1000 VRB/04 RMK AO2 T01560028
94889KARB ARB20160312164510203/12/16 16:45:31  5-MIN KARB 122145Z 17004KT 10SM CLR 15/03 A3007 700 43 900 180/04 RMK AO2 T01500028
94889KARB ARB20160312165010903/12/16 16:50:31  5-MIN KARB 122150Z 18003KT 10SM CLR 15/03 A3007 700 43 900 180/03 RMK AO2 SLP187 T01500028
94889KARB ARB20160312165510203/12/16 16:55:31  5-MIN KARB 122155Z 19004KT 10SM CLR 15/03 A3007 700 43 900 200/04 RMK AO2 T01500028
94889KARB ARB20160312170010703/12/16 17:00:31  5-MIN KARB 122200Z AUTO 18004KT 10SM CLR 15/02 A3007 700 42 900 180/04 RMK AO2 T01500022
94889KARB ARB20160312170510703/12/16 17:05:31  5-MIN KARB 122205Z AUTO 16004KT 10SM CLR 15/04 A3007 700 47 900 170/04 RMK AO2 T01500039
94889KARB ARB20160312171010703/12/16 17:10:31  5-MIN KARB 122210Z AUTO 15004KT 10SM CLR 14/04 A3007 700 51 800 160/04 RMK AO2 T01440044
94889KARB ARB20160312171510703/12/16 17:15:31  5-MIN KARB 122215Z AUTO 17004KT 10SM CLR 14/04 A3007 700 51 800 170/04 RMK AO2 T01440044
94889KARB ARB20160312172010703/12/16 17:20:31  5-MIN KARB 122220Z AUTO 17004KT 10SM CLR 14/04 A3007 700 51 800 180/04 RMK AO2 T01440044
94889KARB ARB20160312172510703/12/16 17:25:31  5-MIN KARB 122225Z AUTO 17004KT 10SM CLR 14/05 A3008 700 53 800 180/04 RMK AO2 T01440050
94889KARB ARB20160312173010703/12/16 17:30:31  5-MIN KARB 122230Z AUTO 16004KT 10SM CLR 14/05 A3008 700 55 800 170/04 RMK AO2 T01390050
94889KARB ARB20160312173510703/12/16 17:35:31  5-MIN KARB 122235Z AUTO 16004KT 10SM CLR 14/05 A3007 700 55 800 170/04 RMK AO2 T01390050
94889KARB ARB20160312174010703/12/16 17:40:31  5-MIN KARB 122240Z AUTO 16003KT 10SM CLR 14/04 A3007 700 52 800 170/03 RMK AO2 T01390044
94889KARB ARB20160312174510703/12/16 17:45:31  5-MIN KARB 122245Z AUTO 00000KT 10SM CLR 14/04 A3007 700 52 800 000/00 RMK AO2 T01390044
94889KARB ARB20160312175011403/12/16 17:50:31  5-MIN KARB 122250Z AUTO 15003KT 10SM CLR 14/04 A3007 700 52 800 160/03 RMK AO2 SLP188 T01390044
94889KARB ARB20160312175510703/12/16 17:55:31  5-MIN KARB 122255Z AUTO 15003KT 10SM CLR 13/04 A3007 700 54 700 150/03 RMK AO2 T01330044
94889KARB ARB20160312180010703/12/16 18:00:31  5-MIN KARB 122300Z AUTO 00000KT 10SM CLR 14/04 A3007 700 52 800 000/00 RMK AO2 T01390044
94889KARB ARB20160312180510703/12/16 18:05:31  5-MIN KARB 122305Z AUTO 00000KT 10SM CLR 13/04 A3007 700 54 700 000/00 RMK AO2 T01330044
94889KARB ARB20160312181010703/12/16 18:10:31  5-MIN KARB 122310Z AUTO 00000KT 10SM CLR 13/04 A3007 710 54 700 000/00 RMK AO2 T01330044
94889KARB ARB20160312181510703/12/16 18:15:31  5-MIN KARB 122315Z AUTO 16003KT 10SM CLR 13/04 A3007 710 54 700 160/03 RMK AO2 T01330044
94889KARB ARB20160312182010703/12/16 18:20:31  5-MIN KARB 122320Z AUTO 15003KT 10SM CLR 13/04 A3007 710 54 700 160/03 RMK AO2 T01330044
94889KARB ARB20160312182510703/12/16 18:25:31  5-MIN KARB 122325Z AUTO 00000KT 10SM CLR 13/04 A3007 710 56 600 000/00 RMK AO2 T01280044
94889KARB ARB20160312183010703/12/16 18:30:31  5-MIN KARB 122330Z AUTO 00000KT 10SM CLR 13/04 A3007 710 56 600 000/00 RMK AO2 T01280044
94889KARB ARB20160312183510703/12/16 18:35:31  5-MIN KARB 122335Z AUTO 18003KT 10SM CLR 12/04 A3007 710 59 600 190/03 RMK AO2 T01220044
94889KARB ARB20160312184010703/12/16 18:40:31  5-MIN KARB 122340Z AUTO 19003KT 10SM CLR 12/04 A3007 710 61 500 200/03 RMK AO2 T01170044
94889KARB ARB20160312184510703/12/16 18:45:31  5-MIN KARB 122345Z AUTO 19004KT 10SM CLR 12/04 A3007 710 59 600 200/04 RMK AO2 T01220044
94889KARB ARB20160312185013203/12/16 18:50:31  5-MIN KARB 122350Z AUTO 00000KT 10SM CLR 12/04 A3006 710 61 500 000/00 RMK AO2 SLP186 T01170044 10156 20117 56033
94889KARB ARB20160312185510703/12/16 18:55:31  5-MIN KARB 122355Z AUTO 00000KT 10SM CLR 11/04 A3006 710 63 500 000/00 RMK AO2 T01110044
94889KARB ARB20160312190010703/12/16 19:00:31  5-MIN KARB 130000Z AUTO 00000KT 10SM CLR 11/04 A3006 710 63 500 000/00 RMK AO2 T01110044
94889KARB ARB20160312190510703/12/16 19:05:31  5-MIN KARB 130005Z AUTO 00000KT 10SM CLR 11/04 A3006 710 63 500 000/00 RMK AO2 T01110044
94889KARB ARB20160312191010703/12/16 19:10:31  5-MIN KARB 130010Z AUTO 00000KT 10SM CLR 11/05 A3006 710 66 500 000/00 RMK AO2 T01110050
94889KARB ARB20160312191510703/12/16 19:15:31  5-MIN KARB 130015Z AUTO 00000KT 10SM CLR 12/05 A3006 710 63 500 000/00 RMK AO2 T01170050
94889KARB ARB20160312192010703/12/16 19:20:31  5-MIN KARB 130020Z AUTO 00000KT 10SM CLR 11/05 A3006 710 66 500 000/00 RMK AO2 T01110050
94889KARB ARB20160312192510703/12/16 19:25:31  5-MIN KARB 130025Z AUTO 00000KT 10SM CLR 09/05 A3006 710 74 300 000/00 RMK AO2 T00940050
94889KARB ARB20160312193011003/12/16 19:30:31  5-MIN KARB 130030Z AUTO 00000KT 10SM FEW110 10/05 A3007 710 71 300 000/00 RMK AO2 T01000050
94889KARB ARB20160312193510503/12/16 19:35:31  5-MIN KARB 130035Z 19004KT 10SM FEW110 11/05 A3007 700 68 400 200/04 RMK AO2 T01060050
94889KARB ARB20160312194010703/12/16 19:40:31  5-MIN KARB 130040Z AUTO 19005KT 10SM CLR 10/05 A3007 700 71 300 200/05 RMK AO2 T01000050
94889KARB ARB20160312194510703/12/16 19:45:31  5-MIN KARB 130045Z AUTO 19004KT 10SM CLR 11/05 A3008 700 68 400 200/04 RMK AO2 T01060050
94889KARB ARB20160312195011403/12/16 19:50:31  5-MIN KARB 130050Z AUTO 00000KT 10SM CLR 11/05 A3008 700 66 400 000/00 RMK AO2 SLP191 T01110050
94889KARB ARB20160312195511003/12/16 19:55:31  5-MIN KARB 130055Z AUTO 19004KT 10SM SCT110 11/05 A3008 700 66 400 200/04 RMK AO2 T01110050
94889KARB ARB20160312200011003/12/16 20:00:31  5-MIN KARB 130100Z AUTO 20003KT 10SM BKN110 11/06 A3008 700 68 400 210/03 RMK AO2 T01110056
94889KARB ARB20160312200511003/12/16 20:05:31  5-MIN KARB 130105Z AUTO 00000KT 10SM BKN110 11/06 A3008 690 68 400 000/00 RMK AO2 T01110056
94889KARB ARB20160312201011003/12/16 20:10:31  5-MIN KARB 130110Z AUTO 00000KT 10SM BKN110 11/06 A3008 690 68 400 000/00 RMK AO2 T01110056
94889KARB ARB20160312201511003/12/16 20:15:31  5-MIN KARB 130115Z AUTO 00000KT 10SM BKN110 11/06 A3008 690 71 400 000/00 RMK AO2 T01110061
94889KARB ARB20160312202011003/12/16 20:20:31  5-MIN KARB 130120Z AUTO 18003KT 10SM OVC110 11/06 A3008 690 71 400 180/03 RMK AO2 T01110061
94889KARB ARB20160312202511003/12/16 20:25:31  5-MIN KARB 130125Z AUTO 18003KT 10SM BKN110 11/06 A3008 690 74 400 190/03 RMK AO2 T01060061
94889KARB ARB20160312203011003/12/16 20:30:31  5-MIN KARB 130130Z AUTO 17003KT 10SM BKN110 11/06 A3008 690 74 400 180/03 RMK AO2 T01060061
94889KARB ARB20160312203511003/12/16 20:35:31  5-MIN KARB 130135Z AUTO 17003KT 10SM BKN110 11/06 A3008 700 74 400 180/03 RMK AO2 T01060061
94889KARB ARB20160312204011003/12/16 20:40:31  5-MIN KARB 130140Z AUTO 17003KT 10SM SCT120 11/06 A3007 700 74 400 180/03 RMK AO2 T01060061
94889KARB ARB20160312204511003/12/16 20:45:31  5-MIN KARB 130145Z AUTO 18003KT 10SM SCT120 10/06 A3008 700 77 300 190/03 RMK AO2 T01000061
94889KARB ARB20160312205011703/12/16 20:50:31  5-MIN KARB 130150Z AUTO 19003KT 10SM SCT120 10/06 A3008 690 77 300 200/03 RMK AO2 SLP191 T01000061
94889KARB ARB20160312205511003/12/16 20:55:31  5-MIN KARB 130155Z AUTO 00000KT 10SM FEW110 10/06 A3008 690 77 300 000/00 RMK AO2 T01000061
94889KARB ARB20160312210011003/12/16 21:00:31  5-MIN KARB 130200Z AUTO 00000KT 10SM FEW120 10/06 A3008 700 77 300 000/00 RMK AO2 T01000061
94889KARB ARB20160312210511003/12/16 21:05:31  5-MIN KARB 130205Z AUTO 19005KT 10SM FEW120 10/06 A3008 700 77 300 190/05 RMK AO2 T01000061
94889KARB ARB20160312211011003/12/16 21:10:31  5-MIN KARB 130210Z AUTO 19004KT 10SM FEW120 09/06 A3008 700 79 200 200/04 RMK AO2 T00940061
94889KARB ARB20160312211510703/12/16 21:15:31  5-MIN KARB 130215Z AUTO 19005KT 10SM CLR 09/06 A3008 700 79 200 190/05 RMK AO2 T00940061
94889KARB ARB20160312212010703/12/16 21:20:31  5-MIN KARB 130220Z AUTO 21004KT 10SM CLR 09/06 A3008 700 79 200 220/04 RMK AO2 T00940061
94889KARB ARB20160312212510703/12/16 21:25:31  5-MIN KARB 130225Z AUTO 00000KT 10SM CLR 09/06 A3008 700 79 200 000/00 RMK AO2 T00940061
94889KARB ARB20160312213010703/12/16 21:30:31  5-MIN KARB 130230Z AUTO 24003KT 10SM CLR 09/06 A3008 700 79 200 250/03 RMK AO2 T00940061
94889KARB ARB20160312213510703/12/16 21:35:31  5-MIN KARB 130235Z AUTO 00000KT 10SM CLR 09/06 A3007 700 79 200 000/00 RMK AO2 T00940061
94889KARB ARB20160312214010703/12/16 21:40:31  5-MIN KARB 130240Z AUTO 19003KT 10SM CLR 09/06 A3007 700 79 200 200/03 RMK AO2 T00940061
94889KARB ARB20160312214510703/12/16 21:45:31  5-MIN KARB 130245Z AUTO 20003KT 10SM CLR 09/06 A3007 700 76 200 210/03 RMK AO2 T00940056
94889KARB ARB20160312215012003/12/16 21:50:31  5-MIN KARB 130250Z AUTO 20003KT 10SM CLR 09/06 A3007 700 76 200 200/03 RMK AO2 SLP186 T00940056 58001
94889KARB ARB20160312215510703/12/16 21:55:31  5-MIN KARB 130255Z AUTO 19003KT 10SM CLR 09/06 A3007 700 79 200 200/03 RMK AO2 T00890056
94889KARB ARB20160312220010703/12/16 22:00:31  5-MIN KARB 130300Z AUTO 20004KT 10SM CLR 09/06 A3007 700 79 200 210/04 RMK AO2 T00940061
94889KARB ARB20160312220510703/12/16 22:05:31  5-MIN KARB 130305Z AUTO 19003KT 10SM CLR 09/06 A3007 710 79 200 200/03 RMK AO2 T00940061
94889KARB ARB20160312221010703/12/16 22:10:31  5-MIN KARB 130310Z AUTO 00000KT 10SM CLR 09/06 A3007 710 76 300 000/00 RMK AO2 T00940056
94889KARB ARB20160312221510703/12/16 22:15:31  5-MIN KARB 130315Z AUTO 00000KT 10SM CLR 09/06 A3006 710 79 200 000/00 RMK AO2 T00890056
94889KARB ARB20160312222010703/12/16 22:20:31  5-MIN KARB 130320Z AUTO 00000KT 10SM CLR 09/06 A3006 710 76 300 000/00 RMK AO2 T00940056
94889KARB ARB20160312222510703/12/16 22:25:31  5-MIN KARB 130325Z AUTO 00000KT 10SM CLR 09/06 A3006 710 76 300 000/00 RMK AO2 T00940056
94889KARB ARB20160312223010703/12/16 22:30:31  5-MIN KARB 130330Z AUTO 00000KT 10SM CLR 09/06 A3006 720 76 300 000/00 RMK AO2 T00940056
94889KARB ARB20160312223510703/12/16 22:35:31  5-MIN KARB 130335Z AUTO 00000KT 10SM CLR 09/06 A3005 720 79 200 000/00 RMK AO2 T00890056
94889KARB ARB20160312224010703/12/16 22:40:31  5-MIN KARB 130340Z AUTO 00000KT 10SM CLR 09/06 A3005 720 83 200 000/00 RMK AO2 T00890061
94889KARB ARB20160312224510703/12/16 22:45:31  5-MIN KARB 130345Z AUTO 00000KT 10SM CLR 09/06 A3005 720 83 200 000/00 RMK AO2 T00890061
94889KARB ARB20160312225011403/12/16 22:50:31  5-MIN KARB 130350Z AUTO 00000KT 10SM CLR 09/06 A3005 720 83 200 000/00 RMK AO2 SLP178 T00890061
94889KARB ARB20160312225510603/12/16 22:55:31  5-MIN KARB 130355Z AUTO 00000KT 9SM CLR 09/06 A3005 720 79 200 000/00 RMK AO2 T00890056
94889KARB ARB20160312230010603/12/16 23:00:31  5-MIN KARB 130400Z AUTO 00000KT 9SM CLR 09/06 A3005 720 79 200 000/00 RMK AO2 T00890056
94889KARB ARB20160312230510603/12/16 23:05:31  5-MIN KARB 130405Z AUTO 00000KT 9SM CLR 09/06 A3005 720 79 200 000/00 RMK AO2 T00890056
94889KARB ARB20160312231010703/12/16 23:10:31  5-MIN KARB 130410Z AUTO 00000KT 10SM CLR 09/06 A3005 730 83 200 000/00 RMK AO2 T00890061
94889KARB ARB20160312231510703/12/16 23:15:31  5-MIN KARB 130415Z AUTO 00000KT 10SM CLR 09/06 A3004 730 79 200 000/00 RMK AO2 T00890056
94889KARB ARB20160312232010703/12/16 23:20:31  5-MIN KARB 130420Z AUTO 00000KT 10SM CLR 09/06 A3004 730 79 200 000/00 RMK AO2 T00890056
94889KARB ARB20160312232510703/12/16 23:25:31  5-MIN KARB 130425Z AUTO 00000KT 10SM CLR 08/06 A3004 730 82 100 000/00 RMK AO2 T00830056
94889KARB ARB20160312233010703/12/16 23:30:31  5-MIN KARB 130430Z AUTO 00000KT 10SM CLR 08/06 A3004 730 82 100 000/00 RMK AO2 T00830056
94889KARB ARB20160312233510703/12/16 23:35:31  5-MIN KARB 130435Z AUTO 00000KT 10SM CLR 08/06 A3004 740 82 200 000/00 RMK AO2 T00830056
94889KARB ARB20160312234010703/12/16 23:40:31  5-MIN KARB 130440Z AUTO 00000KT 10SM CLR 08/06 A3003 740 82 200 000/00 RMK AO2 T00830056
94889KARB ARB20160312234511003/12/16 23:45:31  5-MIN KARB 130445Z AUTO 00000KT 10SM FEW120 08/06 A3003 740 86 100 000/00 RMK AO2 T00780056
94889KARB ARB20160312235012703/12/16 23:50:31  5-MIN KARB 130450Z AUTO 00000KT 10SM SCT120 08/06 A3003 740 82 200 000/00 RMK AO2 SLP171 T00830056 401561044
94889KARB ARB20160312235511003/12/16 23:55:31  5-MIN KARB 130455Z AUTO 04003KT 10SM BKN120 08/06 A3003 740 82 200 050/03 RMK AO2 T00830056
94889KARB ARB20160313000011003/13/16 00:00:31  5-MIN KARB 130500Z AUTO 03003KT 10SM BKN120 08/06 A3003 740 82 200 040/03 RMK AO2 T00830056
94889KARB ARB20160313000511003/13/16 00:05:31  5-MIN KARB 130505Z AUTO 04003KT 10SM BKN120 08/06 A3003 740 82 200 040/03 RMK AO2 T00830056
94889KARB ARB20160313001011003/13/16 00:10:31  5-MIN KARB 130510Z AUTO 03003KT 10SM BKN120 08/06 A3002 750 82 200 040/03 RMK AO2 T00830056
94889KARB ARB20160313001511003/13/16 00:15:31  5-MIN KARB 130515Z AUTO 03003KT 10SM BKN120 09/06 A3002 750 79 200 040/03 RMK AO2 T00890056
94889KARB ARB20160313002011003/13/16 00:20:31  5-MIN KARB 130520Z AUTO 03003KT 10SM BKN110 09/06 A3002 750 79 200 030/03 RMK AO2 T00890056
94889KARB ARB20160313002511003/13/16 00:25:31  5-MIN KARB 130525Z AUTO 00000KT 10SM BKN110 09/06 A3002 750 79 200 000/00 RMK AO2 T00890056
94889KARB ARB20160313003011003/13/16 00:30:31  5-MIN KARB 130530Z AUTO 00000KT 10SM OVC110 08/06 A3002 750 82 200 000/00 RMK AO2 T00830056
94889KARB ARB20160313003511003/13/16 00:35:31  5-MIN KARB 130535Z AUTO 00000KT 10SM OVC110 08/06 A3002 750 82 200 000/00 RMK AO2 T00830056
94889KARB ARB20160313004011003/13/16 00:40:31  5-MIN KARB 130540Z AUTO 00000KT 10SM OVC110 09/06 A3002 750 79 200 000/00 RMK AO2 T00890056
94889KARB ARB20160313004511003/13/16 00:45:31  5-MIN KARB 130545Z AUTO 06003KT 10SM OVC110 09/06 A3002 750 79 200 070/03 RMK AO2 T00890056
94889KARB ARB20160313005013503/13/16 00:50:31  5-MIN KARB 130550Z AUTO 07003KT 10SM OVC110 09/06 A3002 750 79 200 070/03 RMK AO2 SLP168 T00890056 10117 20078 50002
94889KARB ARB20160313005511003/13/16 00:55:31  5-MIN KARB 130555Z AUTO 00000KT 10SM OVC110 08/06 A3002 750 82 200 000/00 RMK AO2 T00830056
94889KARB ARB20160313010011003/13/16 01:00:31  5-MIN KARB 130600Z AUTO 04003KT 10SM OVC110 09/06 A3002 750 79 200 050/03 RMK AO2 T00890056
94889KARB ARB20160313010511003/13/16 01:05:31  5-MIN KARB 130605Z AUTO 05003KT 10SM OVC110 09/06 A3002 750 79 200 060/03 RMK AO2 T00890056
94889KARB ARB20160313011011003/13/16 01:10:31  5-MIN KARB 130610Z AUTO 00000KT 10SM OVC110 09/06 A3003 740 79 200 000/00 RMK AO2 T00890056
94889KARB ARB20160313011511003/13/16 01:15:31  5-MIN KARB 130615Z AUTO 03003KT 10SM OVC100 09/06 A3003 740 79 200 040/03 RMK AO2 T00890056
94889KARB ARB20160313012011003/13/16 01:20:31  5-MIN KARB 130620Z AUTO 00000KT 10SM OVC100 08/06 A3003 740 82 200 000/00 RMK AO2 T00830056
94889KARB ARB20160313012511003/13/16 01:25:31  5-MIN KARB 130625Z AUTO 00000KT 10SM OVC100 09/06 A3003 740 79 200 000/00 RMK AO2 T00890056
94889KARB ARB20160313013011003/13/16 01:30:31  5-MIN KARB 130630Z AUTO 06003KT 10SM OVC100 09/06 A3003 740 79 200 070/03 RMK AO2 T00890056
94889KARB ARB20160313013511003/13/16 01:35:31  5-MIN KARB 130635Z AUTO 00000KT 10SM OVC095 09/06 A3002 750 79 200 000/00 RMK AO2 T00890056
94889KARB ARB20160313014011703/13/16 01:40:31  5-MIN KARB 130640Z AUTO 07003KT 10SM FEW065 OVC090 09/06 A3002 750 79 200 080/03 RMK AO2 T00890056
94889KARB ARB20160313014511703/13/16 01:45:31  5-MIN KARB 130645Z AUTO 05003KT 10SM FEW065 OVC090 09/06 A3003 740 79 200 060/03 RMK AO2 T00890056
94889KARB ARB20160313015012403/13/16 01:50:31  5-MIN KARB 130650Z AUTO 00000KT 10SM FEW065 OVC095 09/06 A3003 740 79 200 000/00 RMK AO2 SLP170 T00890056
94889KARB ARB20160313015511703/13/16 01:55:31  5-MIN KARB 130655Z AUTO 01003KT 10SM FEW065 OVC095 09/06 A3003 740 79 200 020/03 RMK AO2 T00890056
94889KARB ARB20160313020011703/13/16 02:00:31  5-MIN KARB 130700Z AUTO 01003KT 10SM FEW065 OVC100 09/06 A3003 740 76 300 020/03 RMK AO2 T00940056
94889KARB ARB20160313020511703/13/16 02:05:31  5-MIN KARB 130705Z AUTO 00000KT 10SM FEW065 OVC100 09/06 A3003 740 79 200 000/00 RMK AO2 T00890056
94889KARB ARB20160313021011003/13/16 02:10:31  5-MIN KARB 130710Z AUTO 00000KT 10SM OVC095 09/06 A3003 740 79 200 000/00 RMK AO2 T00890056
94889KARB ARB20160313021511003/13/16 02:15:31  5-MIN KARB 130715Z AUTO 00000KT 10SM OVC095 09/06 A3003 740 83 200 000/00 RMK AO2 T00890061
94889KARB ARB20160313022011003/13/16 02:20:31  5-MIN KARB 130720Z AUTO 00000KT 10SM OVC095 08/06 A3003 740 82 200 000/00 RMK AO2 T00830056
94889KARB ARB20160313022511003/13/16 02:25:31  5-MIN KARB 130725Z AUTO 00000KT 10SM OVC095 09/06 A3002 750 79 200 000/00 RMK AO2 T00890056
94889KARB ARB20160313023011003/13/16 02:30:31  5-MIN KARB 130730Z AUTO 00000KT 10SM OVC095 09/06 A3002 750 79 200 000/00 RMK AO2 T00890056
94889KARB ARB20160313023511003/13/16 02:35:31  5-MIN KARB 130735Z AUTO 00000KT 10SM OVC100 08/06 A3002 750 82 200 000/00 RMK AO2 T00830056
94889KARB ARB20160313024011003/13/16 02:40:31  5-MIN KARB 130740Z AUTO 08003KT 10SM OVC100 08/06 A3001 760 82 200 090/03 RMK AO2 T00830056
94889KARB ARB20160313024511003/13/16 02:45:31  5-MIN KARB 130745Z AUTO 07004KT 10SM OVC100 09/06 A3001 760 79 200 070/04 RMK AO2 T00890056
94889KARB ARB20160313025011703/13/16 02:50:31  5-MIN KARB 130750Z AUTO 06004KT 10SM OVC100 08/06 A3001 760 82 200 070/04 RMK AO2 SLP164 T00830056
94889KARB ARB20160313025511003/13/16 02:55:31  5-MIN KARB 130755Z AUTO 06004KT 10SM OVC100 08/06 A3001 760 82 200 070/04 RMK AO2 T00830056
94889KARB ARB20160313030011003/13/16 03:00:31  5-MIN KARB 130800Z AUTO 06006KT 10SM OVC100 09/06 A3001 760 79 200 070/06 RMK AO2 T00890056
94889KARB ARB20160313030511003/13/16 03:05:31  5-MIN KARB 130805Z AUTO 08004KT 10SM OVC100 09/06 A3001 760 79 200 090/04 RMK AO2 T00890056
94889KARB ARB20160313031011003/13/16 03:10:31  5-MIN KARB 130810Z AUTO 16006KT 10SM OVC100 09/06 A3002 750 79 200 170/06 RMK AO2 T00890056
94889KARB ARB20160313031511003/13/16 03:15:31  5-MIN KARB 130815Z AUTO 17004KT 10SM OVC100 09/06 A3001 750 79 200 170/04 RMK AO2 T00890056
94889KARB ARB20160313032011003/13/16 03:20:31  5-MIN KARB 130820Z AUTO 16005KT 10SM OVC100 09/06 A3001 760 79 200 170/05 RMK AO2 T00890056
94889KARB ARB20160313032511003/13/16 03:25:31  5-MIN KARB 130825Z AUTO 14003KT 10SM OVC095 09/06 A3001 760 79 200 150/03 RMK AO2 T00890056
94889KARB ARB20160313033011003/13/16 03:30:31  5-MIN KARB 130830Z AUTO 15004KT 10SM OVC095 08/06 A3001 760 82 200 160/04 RMK AO2 T00830056
94889KARB ARB20160313033511003/13/16 03:35:31  5-MIN KARB 130835Z AUTO 16005KT 10SM OVC090 08/06 A3001 760 82 200 170/05 RMK AO2 T00830056
94889KARB ARB20160313034011003/13/16 03:40:31  5-MIN KARB 130840Z AUTO 15004KT 10SM OVC090 08/06 A3001 760 82 200 160/04 RMK AO2 T00830056
94889KARB ARB20160313034511003/13/16 03:45:31  5-MIN KARB 130845Z AUTO 15005KT 10SM OVC085 08/05 A3001 760 79 200 160/05 RMK AO2 T00830050
94889KARB ARB20160313035012303/13/16 03:50:31  5-MIN KARB 130850Z AUTO 15004KT 10SM OVC085 08/05 A3001 760 79 200 160/04 RMK AO2 SLP163 T00830050 56015
94889KARB ARB20160313035511003/13/16 03:55:31  5-MIN KARB 130855Z AUTO 16006KT 10SM OVC085 08/05 A3001 760 79 200 160/06 RMK AO2 T00830050
94889KARB ARB20160313040011003/13/16 04:00:31  5-MIN KARB 130900Z AUTO 14004KT 10SM OVC085 08/04 A3001 760 76 200 150/04 RMK AO2 T00830044
94889KARB ARB20160313040511003/13/16 04:05:31  5-MIN KARB 130905Z AUTO 13004KT 10SM OVC085 08/04 A3001 760 79 100 140/04 RMK AO2 T00780044
94889KARB ARB20160313041011003/13/16 04:10:31  5-MIN KARB 130910Z AUTO 14004KT 10SM OVC085 08/04 A3001 760 79 100 150/04 RMK AO2 T00780044
94889KARB ARB20160313041511703/13/16 04:15:31  5-MIN KARB 130915Z AUTO 00000KT 10SM BKN080 OVC090 08/04 A3001 760 79 100 000/00 RMK AO2 T00780044
94889KARB ARB20160313042011703/13/16 04:20:31  5-MIN KARB 130920Z AUTO 13003KT 10SM BKN080 OVC090 08/04 A3001 760 76 200 140/03 RMK AO2 T00830044
94889KARB ARB20160313042511703/13/16 04:25:31  5-MIN KARB 130925Z AUTO 00000KT 10SM BKN080 OVC090 08/04 A3001 760 79 100 000/00 RMK AO2 T00780044
94889KARB ARB20160313043011003/13/16 04:30:31  5-MIN KARB 130930Z AUTO 00000KT 10SM OVC080 08/04 A3001 760 79 100 000/00 RMK AO2 T00780044
94889KARB ARB20160313043511003/13/16 04:35:31  5-MIN KARB 130935Z AUTO 00000KT 10SM OVC080 08/04 A3001 760 79 100 000/00 RMK AO2 T00780044
94889KARB ARB20160313044011003/13/16 04:40:31  5-MIN KARB 130940Z AUTO 15003KT 10SM OVC080 08/04 A3001 760 79 100 150/03 RMK AO2 T00780044
94889KARB ARB20160313044511703/13/16 04:45:31  5-MIN KARB 130945Z AUTO 14003KT 10SM BKN075 OVC090 08/04 A3001 760 79 100 150/03 RMK AO2 T00780044
94889KARB ARB20160313045011703/13/16 04:50:31  5-MIN KARB 130950Z AUTO 00000KT 10SM OVC075 08/04 A3001 760 79 100 000/00 RMK AO2 SLP162 T00780044
94889KARB ARB20160313045511703/13/16 04:55:31  5-MIN KARB 130955Z AUTO 15003KT 10SM BKN070 OVC085 08/04 A3001 760 79 100 150/03 RMK AO2 T00780044
94889KARB ARB20160313050011003/13/16 05:00:31  5-MIN KARB 131000Z AUTO 00000KT 10SM OVC070 08/04 A3001 760 79 100 000/00 RMK AO2 T00780044
94889KARB ARB20160313050511003/13/16 05:05:31  5-MIN KARB 131005Z AUTO 14003KT 10SM OVC070 08/04 A3000 760 79 100 150/03 RMK AO2 T00780044
94889KARB ARB20160313051011703/13/16 05:10:31  5-MIN KARB 131010Z AUTO 14003KT 10SM BKN070 OVC085 08/04 A3000 760 76 100 150/03 RMK AO2 T00780039
94889KARB ARB20160313051511703/13/16 05:15:31  5-MIN KARB 131015Z AUTO 14003KT 10SM BKN070 OVC090 08/04 A3000 770 76 100 140/03 RMK AO2 T00780039
94889KARB ARB20160313052011703/13/16 05:20:31  5-MIN KARB 131020Z AUTO 14004KT 10SM BKN070 OVC090 08/04 A3000 770 76 100 150/04 RMK AO2 T00780039
94889KARB ARB20160313052511703/13/16 05:25:31  5-MIN KARB 131025Z AUTO 13004KT 10SM BKN070 OVC095 08/04 A3000 770 76 100 140/04 RMK AO2 T00780039
94889KARB ARB20160313053013303/13/16 05:30:31  5-MIN KARB 131030Z AUTO 14005KT 10SM -RA BKN065 OVC080 08/04 A3000 770 76 100 150/05 RMK AO2 RAB29 P0000 T00780039
94889KARB ARB20160313053513303/13/16 05:35:31  5-MIN KARB 131035Z AUTO 12003KT 10SM -RA BKN060 OVC090 08/04 A3000 770 76 100 130/03 RMK AO2 RAB29 P0000 T00780039
94889KARB ARB20160313054013903/13/16 05:40:31  5-MIN KARB 131040Z AUTO 11003KT 10SM BKN060 BKN075 OVC090 08/04 A3000 770 76 100 110/03 RMK AO2 RAB29E40 P0000 T00780039
94889KARB ARB20160313054513303/13/16 05:45:31  5-MIN KARB 131045Z AUTO 11004KT 10SM -RA BKN065 OVC080 08/04 A3000 770 76 100 120/04 RMK AO2 RAB29 P0000 T00780039
94889KARB ARB20160313055014003/13/16 05:50:31  5-MIN KARB 131050Z AUTO 11003KT 10SM -RA BKN065 OVC080 08/04 A3000 770 76 100 120/03 RMK AO2 RAB29 SLP159 P0000 T00780039
94889KARB ARB20160313055512703/13/16 05:55:31  5-MIN KARB 131055Z AUTO 11004KT 10SM -RA SCT060 OVC075 08/04 A3000 770 76 100 120/04 RMK AO2 P0000 T00780039
94889KARB ARB20160313060013103/13/16 06:00:31  5-MIN KARB 131100Z AUTO 09003KT 10SM SCT060 OVC075 08/03 A3000 770 73 100 100/03 RMK AO2 RAE1058 P0000 T00780033
94889KARB ARB20160313060512403/13/16 06:05:31  5-MIN KARB 131105Z AUTO 08004KT 10SM OVC070 08/04 A3000 770 76 100 090/04 RMK AO2 RAE1058 P0000 T00780039
94889KARB ARB20160313061012003/13/16 06:10:31  5-MIN KARB 131110Z AUTO 08004KT 10SM -RA OVC070 08/04 A3000 770 76 100 090/04 RMK AO2 P0000 T00780039
94889KARB ARB20160313061512003/13/16 06:15:31  5-MIN KARB 131115Z AUTO 08004KT 10SM -RA OVC070 08/04 A3000 770 76 100 080/04 RMK AO2 P0001 T00780039
94889KARB ARB20160313062012003/13/16 06:20:31  5-MIN KARB 131120Z AUTO 07004KT 10SM -RA OVC070 07/04 A2999 770 79 100 080/04 RMK AO2 P0001 T00720039
94889KARB ARB20160313062512003/13/16 06:25:31  5-MIN KARB 131125Z AUTO 07004KT 10SM -RA OVC070 07/04 A2999 770 79 100 080/04 RMK AO2 P0001 T00720039
94889KARB ARB20160313063012703/13/16 06:30:31  5-MIN KARB 131130Z AUTO 08004KT 10SM -RA BKN070 OVC090 07/04 A3000 770 79 100 090/04 RMK AO2 P0001 T00720039
94889KARB ARB20160313063512703/13/16 06:35:31  5-MIN KARB 131135Z AUTO 08004KT 10SM -RA BKN070 OVC090 07/04 A3000 770 79 100 080/04 RMK AO2 P0001 T00720039
94889KARB ARB20160313064012703/13/16 06:40:31  5-MIN KARB 131140Z AUTO 08003KT 10SM -RA BKN070 OVC090 07/04 A3000 770 79 100 080/03 RMK AO2 P0001 T00720039
94889KARB ARB20160313064513403/13/16 06:45:31  5-MIN KARB 131145Z AUTO 07003KT 10SM -RA BKN065 BKN080 OVC090 07/04 A3000 770 79 100 080/03 RMK AO2 P0001 T00720039
94889KARB ARB20160313065017003/13/16 06:50:31  5-MIN KARB 131150Z AUTO 08004KT 9SM -RA SCT050 BKN070 OVC080 07/04 A3000 770 79 100 090/04 RMK AO2 SLP162 P0002 60002 70002 T00720039 10094 20072 58005
94889KARB ARB20160313065512603/13/16 06:55:31  5-MIN KARB 131155Z AUTO 08003KT 9SM -RA BKN050 OVC070 07/04 A3000 770 79 100 080/03 RMK AO2 P0000 T00720039
94889KARB ARB20160313070012203/13/16 07:00:31  5-MIN KARB 131200Z 07004KT 10SM -RA BKN055 OVC070 07/04 A3000 770 82 100 070/04 RMK AO2 P0000 T00720044
94889KARB ARB20160313070512103/13/16 07:05:31  5-MIN KARB 131205Z 07004KT 9SM -RA BKN055 OVC070 07/04 A3000 770 82 100 070/04 RMK AO2 P0000 T00720044
94889KARB ARB20160313071011403/13/16 07:10:31  5-MIN KARB 131210Z 07004KT 9SM -RA OVC055 07/04 A3000 770 79 100 080/04 RMK AO2 P0001 T00720039
94889KARB ARB20160313071511403/13/16 07:15:31  5-MIN KARB 131215Z 08005KT 8SM -RA OVC055 07/04 A2999 770 82 100 090/05 RMK AO2 P0001 T00720044
94889KARB ARB20160313072011203/13/16 07:20:31  5-MIN KARB 131220Z 08005KT 8SM -RA OVC055 07/04 A3000 770 86 0 080/05 RMK AO2 P0001 T00670044
94889KARB ARB20160313072511903/13/16 07:25:31  5-MIN KARB 131225Z 00000KT 8SM -RA BKN055 OVC070 07/04 A3000 770 86 0 000/00 RMK AO2 P0002 T00670044
94889KARB ARB20160313073011903/13/16 07:30:31  5-MIN KARB 131230Z 08003KT 8SM -RA BKN055 OVC065 07/04 A3000 770 86 0 090/03 RMK AO2 P0002 T00670044
94889KARB ARB20160313073512803/13/16 07:35:31  5-MIN KARB 131235Z 08003KT 8SM -RA BKN055 BKN070 OVC090 07/04 A3000 770 82 100 090/03 RMK AO2 P0002 T00720044
94889KARB ARB20160313074012603/13/16 07:40:31  5-MIN KARB 131240Z 08005KT 7SM -RA BKN055 BKN070 OVC090 07/04 A3000 770 86 0 090/05 RMK AO2 P0002 T00670044
94889KARB ARB20160313074512603/13/16 07:45:31  5-MIN KARB 131245Z 08004KT 8SM -RA BKN050 BKN060 OVC080 07/04 A3000 770 82 0 090/04 RMK AO2 P0002 T00670039
94889KARB ARB20160313075013303/13/16 07:50:31  5-MIN KARB 131250Z 08005KT 8SM -RA BKN050 BKN070 OVC090 07/04 A3000 770 86 0 090/05 RMK AO2 SLP160 P0002 T00670044
94889KARB ARB20160313075511903/13/16 07:55:31  5-MIN KARB 131255Z 08006KT 6SM -RA BKN050 OVC070 07/04 A2999 770 82 0 090/06 RMK AO2 P0000 T00670039
94889KARB ARB20160313080011903/13/16 08:00:31  5-MIN KARB 131300Z 08005KT 5SM -RA BKN050 OVC075 07/04 A3000 770 82 0 090/05 RMK AO2 P0001 T00670039
94889KARB ARB20160313080511203/13/16 08:05:31  5-MIN KARB 131305Z 08005KT 5SM -RA OVC050 07/04 A3000 770 82 0 090/05 RMK AO2 P0001 T00670039
94889KARB ARB20160313081011203/13/16 08:10:31  5-MIN KARB 131310Z 09005KT 6SM -RA OVC050 07/04 A3000 770 82 0 090/05 RMK AO2 P0001 T00670039
94889KARB ARB20160313081511203/13/16 08:15:31  5-MIN KARB 131315Z 08006KT 8SM -RA OVC050 07/04 A3000 770 82 0 090/06 RMK AO2 P0002 T00670039
94889KARB ARB20160313082011203/13/16 08:20:31  5-MIN KARB 131320Z 08006KT 7SM -RA OVC048 07/04 A3000 770 82 0 080/06 RMK AO2 P0002 T00670039
94889KARB ARB20160313082511203/13/16 08:25:31  5-MIN KARB 131325Z 07006KT 7SM -RA OVC048 07/04 A3000 770 82 0 080/06 RMK AO2 P0002 T00670039
94889KARB ARB20160313083011203/13/16 08:30:31  5-MIN KARB 131330Z 09006KT 7SM -RA OVC048 07/04 A3000 770 82 0 090/06 RMK AO2 P0002 T00670039
94889KARB ARB20160313083511203/13/16 08:35:31  5-MIN KARB 131335Z 09007KT 7SM -RA OVC046 06/04 A3000 770 86 0 090/07 RMK AO2 P0003 T00610039
94889KARB ARB20160313084011503/13/16 08:40:31  5-MIN KARB 131340Z 08007KT 6SM -RA BR OVC046 06/04 A2999 770 86 0 090/07 RMK AO2 P0003 T00610039
94889KARB ARB20160313084511503/13/16 08:45:31  5-MIN KARB 131345Z 08007KT 6SM -RA BR OVC046 06/04 A2999 780 86 0 090/07 RMK AO2 P0004 T00610039
94889KARB ARB20160313085012203/13/16 08:50:31  5-MIN KARB 131350Z 09008KT 6SM -RA BR OVC047 06/04 A2999 780 86 0 090/08 RMK AO2 SLP159 P0004 T00610039
94889KARB ARB20160313085511503/13/16 08:55:31  5-MIN KARB 131355Z 09008KT 6SM -RA BR OVC047 06/04 A2999 780 86 0 100/08 RMK AO2 P0000 T00610039
94889KARB ARB20160313090012003/13/16 09:00:31  5-MIN KARB 131400Z 08006G20KT 5SM RA BR OVC047 06/04 A2999 780 86 0 090/06G20 RMK AO2 P0001 T00610039
94889KARB ARB20160313090512103/13/16 09:05:31  5-MIN KARB 131405Z 10008G20KT 4SM -RA BR OVC047 06/04 A2999 780 86 0 100/08G20 RMK AO2 P0001 T00610039
94889KARB ARB20160313091011503/13/16 09:10:31  5-MIN KARB 131410Z 09008KT 4SM -RA BR OVC045 06/04 A2998 780 86 0 100/08 RMK AO2 P0002 T00610039
94889KARB ARB20160313091511403/13/16 09:15:31  5-MIN KARB 131415Z 09008KT 4SM RA BR OVC045 06/04 A2998 780 89 0 090/08 RMK AO2 P0003 T00610044
94889KARB ARB20160313092011503/13/16 09:20:31  5-MIN KARB 131420Z 09009KT 4SM -RA BR OVC045 06/04 A2998 780 89 0 100/09 RMK AO2 P0003 T00610044
94889KARB ARB20160313092511503/13/16 09:25:31  5-MIN KARB 131425Z 09008KT 5SM -RA BR OVC045 06/04 A2998 780 89 0 100/08 RMK AO2 P0004 T00610044
94889KARB ARB20160313093011503/13/16 09:30:31  5-MIN KARB 131430Z 10009KT 5SM -RA BR OVC044 06/04 A2998 780 89 0 100/09 RMK AO2 P0005 T00610044
94889KARB ARB20160313093511503/13/16 09:35:31  5-MIN KARB 131435Z 09010KT 5SM -RA BR OVC044 06/04 A2998 790 89 0 100/10 RMK AO2 P0005 T00610044
94889KARB ARB20160313094011503/13/16 09:40:31  5-MIN KARB 131440Z 09008KT 5SM -RA BR OVC043 06/04 A2998 790 89 0 100/08 RMK AO2 P0006 T00610044
94889KARB ARB20160313094511503/13/16 09:45:31  5-MIN KARB 131445Z 09009KT 5SM -RA BR OVC041 06/04 A2998 790 89 0 100/09 RMK AO2 P0006 T00610044
94889KARB ARB20160313095013403/13/16 09:50:31  5-MIN KARB 131450Z 10010KT 5SM -RA BR OVC041 06/04 A2997 790 89 0 110/10 RMK AO2 SLP153 P0006 60014 T00610044 55003
94889KARB ARB20160313095511503/13/16 09:55:31  5-MIN KARB 131455Z 09009KT 5SM -RA BR OVC041 06/05 A2997 790 93 0 100/09 RMK AO2 P0000 T00610050
94889KARB ARB20160313100011503/13/16 10:00:31  5-MIN KARB 131500Z 09008KT 6SM -RA BR OVC041 06/05 A2997 800 93 0 090/08 RMK AO2 P0000 T00610050
94889KARB ARB20160313100511503/13/16 10:05:31  5-MIN KARB 131505Z 09010KT 6SM -RA BR OVC041 06/05 A2997 800 93 0 090/10 RMK AO2 P0000 T00610050
94889KARB ARB20160313101011503/13/16 10:10:31  5-MIN KARB 131510Z 09007KT 6SM -RA BR OVC041 07/05 A2996 800 89 0 100/07 RMK AO2 P0001 T00670050
94889KARB ARB20160313101511503/13/16 10:15:31  5-MIN KARB 131515Z 09009KT 6SM -RA BR OVC041 07/06 A2996 810 93 0 090/09 RMK AO2 P0001 T00670056
94889KARB ARB20160313102012803/13/16 10:20:31  5-MIN KARB 131520Z 09009G16KT 6SM -RA BR BKN041 OVC050 07/06 A2996 810 93 0 100/09G16 RMK AO2 P0001 T00670056
94889KARB ARB20160313102513503/13/16 10:25:31  5-MIN KARB 131525Z 08009G16KT 5SM -RA BR FEW032 BKN041 OVC050 07/06 A2995 810 93 0 090/09G16 RMK AO2 P0002 T00670056
94889KARB ARB20160313103012203/13/16 10:30:31  5-MIN KARB 131530Z 09011KT 4SM -RA BR BKN040 OVC050 07/06 A2995 810 93 0 100/11 RMK AO2 P0002 T00670056
94889KARB ARB20160313103512203/13/16 10:35:31  5-MIN KARB 131535Z 09010KT 4SM -RA BR BKN040 OVC055 07/06 A2995 810 93 0 100/10 RMK AO2 P0003 T00670056
94889KARB ARB20160313104012403/13/16 10:40:31  5-MIN KARB 131540Z 09010KT 4SM -RA BR BKN040 OVC060 07/06 A2995 810 89 100 100/10 RMK AO2 P0003 T00720056
94889KARB ARB20160313104513103/13/16 10:45:31  5-MIN KARB 131545Z 09010KT 4SM -RA BR FEW006 BKN039 OVC065 07/06 A2995 820 93 100 090/10 RMK AO2 P0003 T00720061
94889KARB ARB20160313105013803/13/16 10:50:31  5-MIN KARB 131550Z 09010KT 4SM -RA BR FEW006 BKN037 OVC060 07/06 A2995 820 93 100 100/10 RMK AO2 SLP144 P0004 T00720061
94889KARB ARB20160313105513103/13/16 10:55:31  5-MIN KARB 131555Z 10009KT 4SM -RA BR FEW008 BKN039 OVC055 07/06 A2995 820 93 100 100/09 RMK AO2 P0000 T00720061
94889KARB ARB20160313110013103/13/16 11:00:31  5-MIN KARB 131600Z 09010KT 5SM -RA BR FEW006 BKN039 OVC065 07/06 A2995 820 93 100 090/10 RMK AO2 P0000 T00720061
94889KARB ARB20160313110513103/13/16 11:05:31  5-MIN KARB 131605Z 09010KT 5SM -RA BR FEW006 BKN039 OVC050 07/06 A2994 820 93 100 100/10 RMK AO2 P0001 T00720061
94889KARB ARB20160313111012403/13/16 11:10:31  5-MIN KARB 131610Z 10010KT 4SM -RA BR SCT006 OVC039 07/06 A2994 820 93 100 100/10 RMK AO2 P0001 T00720061
94889KARB ARB20160313111512403/13/16 11:15:31  5-MIN KARB 131615Z 08008KT 4SM -RA BR SCT008 OVC037 07/06 A2994 820 93 100 090/08 RMK AO2 P0002 T00720061
94889KARB ARB20160313112012403/13/16 11:20:31  5-MIN KARB 131620Z 09008KT 5SM -RA BR FEW008 OVC037 07/06 A2994 830 93 100 100/08 RMK AO2 P0002 T00720061
94889KARB ARB20160313112512403/13/16 11:25:31  5-MIN KARB 131625Z 09010KT 5SM -RA BR SCT007 OVC037 07/06 A2994 830 93 100 100/10 RMK AO2 P0003 T00720061
94889KARB ARB20160313113012403/13/16 11:30:31  5-MIN KARB 131630Z 09008KT 5SM -RA BR FEW007 OVC037 08/07 A2993 830 93 200 090/08 RMK AO2 P0003 T00780067
94889KARB ARB20160313113512403/13/16 11:35:31  5-MIN KARB 131635Z 10009KT 5SM -RA BR FEW007 OVC037 08/07 A2993 830 93 200 100/09 RMK AO2 P0004 T00780067
94889KARB ARB20160313114012403/13/16 11:40:31  5-MIN KARB 131640Z 10009KT 5SM -RA BR FEW007 OVC036 08/07 A2993 840 93 200 100/09 RMK AO2 P0004 T00780067
94889KARB ARB20160313114512403/13/16 11:45:31  5-MIN KARB 131645Z 09010KT 5SM -RA BR FEW007 OVC036 08/07 A2992 840 93 200 100/10 RMK AO2 P0004 T00780067
94889KARB ARB20160313115013003/13/16 11:50:31  5-MIN KARB 131650Z 09013G18KT 5SM -RA BR OVC036 08/07 A2992 840 93 200 100/13G18 RMK AO2 SLP135 P0005 T00780067
94889KARB ARB20160313115512303/13/16 11:55:31  5-MIN KARB 131655Z 10010G18KT 6SM -RA BR OVC036 08/07 A2992 840 93 200 110/10G18 RMK AO2 P0000 T00780067
94889KARB ARB20160313120012403/13/16 12:00:31  5-MIN KARB 131700Z 10011KT 5SM -RA BR FEW007 OVC034 08/07 A2992 840 93 200 110/11 RMK AO2 P0001 T00780067
94889KARB ARB20160313120512403/13/16 12:05:31  5-MIN KARB 131705Z 10010KT 5SM -RA BR FEW007 OVC034 08/07 A2992 840 93 200 100/10 RMK AO2 P0001 T00780067
94889KARB ARB20160313121013003/13/16 12:10:31  5-MIN KARB 131710Z 10012G16KT 5SM -RA BR FEW007 OVC034 08/07 A2992 850 93 200 100/12G16 RMK AO2 P0002 T00780067
94889KARB ARB20160313121513003/13/16 12:15:31  5-MIN KARB 131715Z 10008G16KT 6SM -RA BR FEW008 OVC032 08/07 A2991 850 93 200 100/08G16 RMK AO2 P0002 T00780067
94889KARB ARB20160313122012703/13/16 12:20:31  5-MIN KARB 131720Z 10009G16KT 7SM -RA FEW008 OVC032 08/07 A2991 850 93 300 110/09G16 RMK AO2 P0002 T00830072
94889KARB ARB20160313122512103/13/16 12:25:31  5-MIN KARB 131725Z 09009KT 7SM -RA FEW007 OVC032 08/07 A2991 850 93 300 100/09 RMK AO2 P0002 T00830072
94889KARB ARB20160313123012103/13/16 12:30:31  5-MIN KARB 131730Z 09010KT 7SM -RA FEW007 OVC032 08/07 A2991 850 93 300 100/10 RMK AO2 P0002 T00830072
94889KARB ARB20160313123512703/13/16 12:35:31  5-MIN KARB 131735Z 10012G19KT 8SM -RA FEW007 OVC032 08/07 A2991 850 93 300 110/12G19 RMK AO2 P0002 T00830072
94889KARB ARB20160313124012803/13/16 12:40:31  5-MIN KARB 131740Z 10012KT 9SM -RA FEW007 SCT013 OVC032 08/07 A2991 850 89 300 110/12 RMK AO2 P0002 T00830067
94889KARB ARB20160313124513403/13/16 12:45:31  5-MIN KARB 131745Z 10011G18KT 8SM -RA FEW008 SCT013 OVC032 08/07 A2990 860 93 300 110/11G18 RMK AO2 P0002 T00830072
94889KARB ARB20160313125015903/13/16 12:50:31  5-MIN KARB 131750Z 10010KT 8SM -RA SCT010 SCT014 OVC032 08/07 A2990 860 93 300 100/10 RMK AO2 SLP129 P0002 60026 T00830072 10083 20061 58009
94889KARB ARB20160313125512803/13/16 12:55:31  5-MIN KARB 131755Z 10011KT 8SM -RA SCT010 SCT014 OVC032 08/07 A2990 860 93 300 100/11 RMK AO2 P0000 T00830072
94889KARB ARB20160313130012803/13/16 13:00:31  5-MIN KARB 131800Z 10011KT 8SM -RA SCT010 BKN014 OVC032 08/07 A2990 860 93 300 110/11 RMK AO2 P0000 T00830072
94889KARB ARB20160313130512103/13/16 13:05:31  5-MIN KARB 131805Z 09009KT 7SM -RA SCT010 OVC032 08/07 A2989 870 93 300 100/09 RMK AO2 P0000 T00830072
94889KARB ARB20160313131012403/13/16 13:10:31  5-MIN KARB 131810Z 11011KT 5SM -RA BR SCT010 OVC030 08/07 A2989 870 93 300 110/11 RMK AO2 P0001 T00830072
94889KARB ARB20160313131512403/13/16 13:15:31  5-MIN KARB 131815Z 10011KT 5SM -RA BR SCT010 OVC030 08/07 A2989 870 93 300 110/11 RMK AO2 P0001 T00830072
94889KARB ARB20160313132012403/13/16 13:20:31  5-MIN KARB 131820Z 10011KT 6SM -RA BR FEW010 OVC030 08/07 A2988 880 93 300 110/11 RMK AO2 P0001 T00830072
94889KARB ARB20160313132513003/13/16 13:25:31  5-MIN KARB 131825Z 11015G20KT 6SM -RA BR FEW008 OVC030 08/07 A2988 880 93 300 120/15G20 RMK AO2 P0002 T00830072
94889KARB ARB20160313133013003/13/16 13:30:31  5-MIN KARB 131830Z 11012G20KT 6SM -RA BR FEW008 OVC029 09/07 A2988 880 89 400 120/12G20 RMK AO2 P0002 T00890072
94889KARB ARB20160313133513003/13/16 13:35:31  5-MIN KARB 131835Z 12012G18KT 6SM -RA BR FEW011 OVC029 09/07 A2988 880 89 400 120/12G18 RMK AO2 P0002 T00890072
94889KARB ARB20160313134012103/13/16 13:40:31  5-MIN KARB 131840Z 10010KT 7SM -RA SCT011 OVC029 09/07 A2987 880 89 400 100/10 RMK AO2 P0003 T00890072
94889KARB ARB20160313134513903/13/16 13:45:31  5-MIN KARB 131845Z 09010G17KT 8SM -RA BKN010 OVC029 08/07 A2987 880 93 300 100/10G17 RMK AO2 CIG 006V013 P0003 T00830072
94889KARB ARB20160313135013003/13/16 13:50:31  5-MIN KARB 131850Z 10011KT 7SM -RA BKN008 BKN012 OVC029 08/07 A2987 890 93 300 100/11 RMK AO2 CIG 006V010 P0003
94889KARB ARB20160313135514303/13/16 13:55:31  5-MIN KARB 131855Z 10009KT 6SM -RA BR BKN008 BKN012 OVC029 08/07 A2987 890 93 300 110/09 RMK AO2 CIG 006V010 P0001 T00830072
94889KARB ARB20160313140014203/13/16 14:00:31  5-MIN KARB 131900Z 10012G20KT 6SM -RA BR BKN008 OVC012 08/07 A2987 890 93 300 110/12G20 RMK AO2 CIG 006V010 P0001 T00830072
94889KARB ARB20160313140513903/13/16 14:05:31  5-MIN KARB 131905Z 09009G20KT 7SM -RA BKN008 OVC012 08/07 A2987 890 93 300 100/09G20 RMK AO2 CIG 006V010 P0001 T00830072
94889KARB ARB20160313141013903/13/16 14:10:31  5-MIN KARB 131910Z 09012G17KT 7SM -RA BKN008 OVC012 08/07 A2986 890 93 300 100/12G17 RMK AO2 CIG 006V010 P0001 T00830072
94889KARB ARB20160313141513903/13/16 14:15:31  5-MIN KARB 131915Z 10011G17KT 7SM -RA BKN008 OVC012 08/07 A2986 900 89 300 100/11G17 RMK AO2 CIG 006V010 P0002 T00830067
94889KARB ARB20160313142013303/13/16 14:20:31  5-MIN KARB 131920Z 10010KT 7SM -RA BKN008 OVC012 08/07 A2986 900 96 300 110/10 RMK AO2 CIG 006V010 P0002 T00780072
94889KARB ARB20160313142514203/13/16 14:25:31  5-MIN KARB 131925Z 10011G17KT 6SM -RA BR BKN008 OVC012 08/07 A2986 900 93 300 110/11G17 RMK AO2 CIG 006V010 P0003 T00780067
94889KARB ARB20160313143013503/13/16 14:30:31  5-MIN KARB 131930Z 10012G19KT 5SM -RA BR OVC008 08/07 A2986 900 93 300 100/12G19 RMK AO2 CIG 006V013 P0003 T00780067
94889KARB ARB20160313143513003/13/16 14:35:31  5-MIN KARB 131935Z 10010G19KT 6SM -RA BR BKN008 OVC011 08/07 A2986 900 93 300 100/10G19 RMK AO2 P0004 T00780067
94889KARB ARB20160313144013503/13/16 14:40:31  5-MIN KARB 131940Z 10010G18KT 6SM -RA BR OVC008 08/07 A2985 900 93 300 100/10G18 RMK AO2 CIG 006V014 P0004 T00780067
94889KARB ARB20160313144512903/13/16 14:45:31  5-MIN KARB 131945Z 09010KT 6SM -RA BR OVC009 08/07 A2985 900 93 300 100/10 RMK AO2 CIG 006V012 P0005 T00780067
94889KARB ARB20160313145013603/13/16 14:50:31  5-MIN KARB 131950Z 09010KT 5SM -RA BR OVC009 08/07 A2985 910 93 300 100/10 RMK AO2 CIG 006V012 SLP110 P0006 T00780067
94889KARB ARB20160313145513503/13/16 14:55:31  5-MIN KARB 131955Z 10011G18KT 5SM -RA BR OVC007 08/07 A2985 910 93 300 110/11G18 RMK AO2 CIG 006V012 P0000 T00780067
94889KARB ARB20160313150014203/13/16 15:00:31  5-MIN KARB 132000Z 10010G18KT 5SM -RA BR BKN007 OVC013 08/07 A2984 910 93 300 100/10G18 RMK AO2 CIG 006V010 P0001 T00780067
94889KARB ARB20160313150514203/13/16 15:05:31  5-MIN KARB 132005Z 09009G18KT 5SM -RA BR BKN008 OVC013 08/07 A2984 910 93 300 100/09G18 RMK AO2 CIG 006V010 P0002 T00780067
94889KARB ARB20160313151013403/13/16 15:10:31  5-MIN KARB 132010Z 10011G18KT 5SM RA BR OVC008 08/07 A2984 910 93 300 100/11G18 RMK AO2 CIG 005V010 P0003 T00780067
94889KARB ARB20160313151512803/13/16 15:15:31  5-MIN KARB 132015Z 09010KT 5SM RA BR OVC008 08/07 A2984 920 93 300 100/10 RMK AO2 CIG 005V010 P0004 T00780067
94889KARB ARB20160313152012903/13/16 15:20:31  5-MIN KARB 132020Z 09013KT 4SM -RA BR OVC007 08/07 A2984 920 93 300 100/13 RMK AO2 CIG 005V010 P0004 T00780067
94889KARB ARB20160313152512803/13/16 15:25:31  5-MIN KARB 132025Z 08010KT 4SM RA BR OVC007 08/07 A2984 920 93 300 090/10 RMK AO2 CIG 005V010 P0005 T00780067
94889KARB ARB20160313153013503/13/16 15:30:31  5-MIN KARB 132030Z 08013G17KT 4SM -RA BR OVC007 08/07 A2984 920 93 300 090/13G17 RMK AO2 CIG 005V010 P0006 T00780067
94889KARB ARB20160313153513503/13/16 15:35:31  5-MIN KARB 132035Z 09010G17KT 5SM -RA BR OVC007 07/06 A2984 920 93 200 090/10G17 RMK AO2 CIG 005V010 P0006 T00720061
94889KARB ARB20160313154013503/13/16 15:40:31  5-MIN KARB 132040Z 10011G19KT 6SM -RA BR OVC006 07/06 A2984 920 93 200 100/11G19 RMK AO2 CIG 005V010 P0006 T00720061
94889KARB ARB20160313154512303/13/16 15:45:31  5-MIN KARB 132045Z 09012G19KT 5SM -RA BR OVC006 07/06 A2983 920 93 200 100/12G19 RMK AO2 P0007 T00720061
94889KARB ARB20160313155013603/13/16 15:50:31  5-MIN KARB 132050Z 08011KT 4SM -RA BR OVC006 07/06 A2983 920 93 200 080/11 RMK AO2 SLP106 P0007 60016 T00720061 58015
94889KARB ARB20160313155511703/13/16 15:55:31  5-MIN KARB 132055Z 08010KT 5SM -RA BR OVC006 07/06 A2983 930 96 200 090/10 RMK AO2 P0000 T00670061
94889KARB ARB20160313160012203/13/16 16:00:31  5-MIN KARB 132100Z AUTO 09014KT 5SM -RA BR OVC006 07/06 A2983 930 93 200 090/14 RMK AO2 P0000 T00670056
94889KARB ARB20160313160512803/13/16 16:05:31  5-MIN KARB 132105Z AUTO 08011G17KT 4SM -RA BR OVC006 07/06 A2983 930 96 200 090/11G17 RMK AO2 P0001 T00670061
94889KARB ARB20160313161012803/13/16 16:10:31  5-MIN KARB 132110Z AUTO 09010G17KT 4SM -RA BR OVC006 07/06 A2983 930 96 200 090/10G17 RMK AO2 P0002 T00670061
94889KARB ARB20160313161512203/13/16 16:15:31  5-MIN KARB 132115Z AUTO 09011KT 4SM -RA BR OVC006 07/06 A2983 930 93 200 090/11 RMK AO2 P0002 T00670056
94889KARB ARB20160313162012203/13/16 16:20:31  5-MIN KARB 132120Z AUTO 09011KT 4SM -RA BR OVC005 07/06 A2982 930 93 200 090/11 RMK AO2 P0002 T00670056
94889KARB ARB20160313162512203/13/16 16:25:31  5-MIN KARB 132125Z AUTO 09011KT 4SM -RA BR OVC005 07/06 A2982 930 93 200 090/11 RMK AO2 P0003 T00670056
94889KARB ARB20160313163012203/13/16 16:30:31  5-MIN KARB 132130Z AUTO 08009KT 4SM -RA BR OVC005 07/06 A2982 930 93 200 090/09 RMK AO2 P0003 T00670056
94889KARB ARB20160313163512803/13/16 16:35:31  5-MIN KARB 132135Z AUTO 09009G17KT 3SM -RA BR OVC005 07/06 A2982 930 93 200 090/09G17 RMK AO2 P0004 T00670056
94889KARB ARB20160313164012803/13/16 16:40:31  5-MIN KARB 132140Z AUTO 08013G17KT 3SM -RA BR OVC005 07/06 A2982 940 93 200 090/13G17 RMK AO2 P0005 T00670056
94889KARB ARB20160313164512203/13/16 16:45:31  5-MIN KARB 132145Z AUTO 09011KT 4SM -RA BR OVC005 07/06 A2982 940 93 200 090/11 RMK AO2 P0005 T00670056
94889KARB ARB20160313165012903/13/16 16:50:31  5-MIN KARB 132150Z AUTO 09012KT 4SM -RA BR OVC005 07/06 A2981 940 93 200 100/12 RMK AO2 SLP099 P0005 T00670056
94889KARB ARB20160313165512803/13/16 16:55:31  5-MIN KARB 132155Z AUTO 09011G18KT 4SM -RA BR OVC005 07/06 A2981 940 93 200 100/11G18 RMK AO2 P0000 T00670056
94889KARB ARB20160313170012203/13/16 17:00:31  5-MIN KARB 132200Z AUTO 09010KT 3SM -RA BR OVC005 07/06 A2981 940 93 200 090/10 RMK AO2 P0001 T00670056
94889KARB ARB20160313170512203/13/16 17:05:31  5-MIN KARB 132205Z AUTO 09010KT 3SM -RA BR OVC005 07/06 A2981 940 93 200 090/10 RMK AO2 P0001 T00670056
94889KARB ARB20160313171012803/13/16 17:10:31  5-MIN KARB 132210Z AUTO 09011G15KT 3SM -RA BR OVC005 07/06 A2981 940 93 200 100/11G15 RMK AO2 P0001 T00670056
94889KARB ARB20160313171512203/13/16 17:15:31  5-MIN KARB 132215Z AUTO 09009KT 4SM -RA BR OVC005 07/06 A2981 940 93 200 090/09 RMK AO2 P0001 T00670056
94889KARB ARB20160313172012203/13/16 17:20:31  5-MIN KARB 132220Z AUTO 09009KT 4SM -RA BR OVC006 07/06 A2981 940 93 200 100/09 RMK AO2 P0001 T00670056
94889KARB ARB20160313172512203/13/16 17:25:31  5-MIN KARB 132225Z AUTO 10008KT 4SM -RA BR OVC006 07/06 A2981 940 93 200 100/08 RMK AO2 P0001 T00670056
94889KARB ARB20160313173012203/13/16 17:30:31  5-MIN KARB 132230Z AUTO 09009KT 3SM -RA BR OVC006 07/06 A2981 940 93 200 100/09 RMK AO2 P0001 T00670056
94889KARB ARB20160313173512203/13/16 17:35:31  5-MIN KARB 132235Z AUTO 09009KT 2SM -RA BR OVC006 07/06 A2981 940 93 200 100/09 RMK AO2 P0002 T00670056
94889KARB ARB20160313174012503/13/16 17:40:31  5-MIN KARB 132240Z AUTO 09008KT 1 3/4SM RA BR OVC006 07/06 A2981 940 93 200 100/08 RMK AO2 P0004 T00670056
94889KARB ARB20160313174513703/13/16 17:45:31  5-MIN KARB 132245Z AUTO 09009KT 1 1/2SM RA BR OVC005 07/06 A2981 950 93 200 090/09 RMK AO2 CIG 005V010 P0006 T00670056
94889KARB ARB20160313175014403/13/16 17:50:31  5-MIN KARB 132250Z AUTO 08007KT 1 3/4SM RA BR OVC005 07/06 A2981 950 93 200 080/07 RMK AO2 CIG 005V010 SLP097 P0006 T00670056
94889KARB ARB20160313175512603/13/16 17:55:31  5-MIN KARB 132255Z AUTO 08010KT 1 3/4SM -RA BR OVC005 07/06 A2981 940 93 200 090/10 RMK AO2 P0000 T00670056
94889KARB ARB20160313180012203/13/16 18:00:31  5-MIN KARB 132300Z AUTO 07010KT 2SM -RA BR OVC005 07/06 A2981 950 93 200 080/10 RMK AO2 P0000 T00670056
94889KARB ARB20160313180513803/13/16 18:05:31  5-MIN KARB 132305Z AUTO 08008KT 1 3/4SM -RA BR OVC005 07/06 A2981 950 93 200 090/08 RMK AO2 CIG 005V011 P0002 T00670056
94889KARB ARB20160313181013803/13/16 18:10:31  5-MIN KARB 132310Z AUTO 09007KT 1 1/4SM +RA BR OVC005 06/06 A2981 950 96 100 090/07 RMK AO2 CIG 004V009 P0004 T00610056
94889KARB ARB20160313181513703/13/16 18:15:31  5-MIN KARB 132315Z AUTO 08008KT 1 1/4SM RA BR OVC005 06/06 A2981 950 96 100 090/08 RMK AO2 CIG 004V009 P0005 T00610056
94889KARB ARB20160313182013703/13/16 18:20:31  5-MIN KARB 132320Z AUTO 08007KT 1 3/4SM RA BR OVC006 06/06 A2980 950 96 100 080/07 RMK AO2 CIG 004V009 P0006 T00610056
94889KARB ARB20160313182512603/13/16 18:25:31  5-MIN KARB 132325Z AUTO 08008KT 2 1/2SM -RA BR OVC006 06/06 A2980 950 96 100 090/08 RMK AO2 P0006 T00610056
94889KARB ARB20160313183012203/13/16 18:30:31  5-MIN KARB 132330Z AUTO 07007KT 4SM -RA BR OVC006 07/06 A2980 950 93 200 080/07 RMK AO2 P0006 T00670056
94889KARB ARB20160313183512203/13/16 18:35:31  5-MIN KARB 132335Z AUTO 08009KT 5SM -RA BR OVC006 07/06 A2980 950 93 200 080/09 RMK AO2 P0007 T00670056
94889KARB ARB20160313184012103/13/16 18:40:31  5-MIN KARB 132340Z AUTO 09007KT 4SM RA BR OVC006 07/06 A2980 950 93 200 100/07 RMK AO2 P0008 T00670056
94889KARB ARB20160313184512103/13/16 18:45:31  5-MIN KARB 132345Z AUTO 09008KT 3SM RA BR OVC006 07/06 A2980 960 93 200 090/08 RMK AO2 P0009 T00670056
94889KARB ARB20160313185015203/13/16 18:50:31  5-MIN KARB 132350Z AUTO 08008KT 3SM RA BR OVC006 07/06 A2979 960 93 200 090/08 RMK AO2 SLP093 P0010 60038 T00670056 10089 20061 58014
94889KARB ARB20160313185512203/13/16 18:55:31  5-MIN KARB 132355Z AUTO 08009KT 3SM -RA BR OVC006 07/06 A2979 960 93 200 090/09 RMK AO2 P0001 T00670056
94889KARB ARB20160313190012203/13/16 19:00:31  5-MIN KARB 140000Z AUTO 09009KT 4SM -RA BR OVC006 07/06 A2979 960 93 200 100/09 RMK AO2 P0001 T00670056
94889KARB ARB20160313190512103/13/16 19:05:31  5-MIN KARB 140005Z AUTO 08010KT 4SM RA BR OVC006 07/06 A2979 960 93 200 090/10 RMK AO2 P0002 T00670056
94889KARB ARB20160313191012203/13/16 19:10:31  5-MIN KARB 140010Z AUTO 08007KT 4SM -RA BR OVC006 07/06 A2979 960 93 200 090/07 RMK AO2 P0003 T00670056
94889KARB ARB20160313191512203/13/16 19:15:31  5-MIN KARB 140015Z AUTO 09010KT 5SM -RA BR OVC006 07/06 A2978 970 93 200 090/10 RMK AO2 P0004 T00670056
94889KARB ARB20160313192012203/13/16 19:20:31  5-MIN KARB 140020Z AUTO 08010KT 5SM -RA BR OVC006 07/06 A2978 970 93 200 090/10 RMK AO2 P0005 T00670056
94889KARB ARB20160313192512103/13/16 19:25:31  5-MIN KARB 140025Z AUTO 08011KT 4SM RA BR OVC006 07/06 A2978 980 93 200 090/11 RMK AO2 P0006 T00670056
94889KARB ARB20160313193012103/13/16 19:30:31  5-MIN KARB 140030Z AUTO 08010KT 4SM RA BR OVC006 07/06 A2978 970 93 200 090/10 RMK AO2 P0007 T00670056
94889KARB ARB20160313193512203/13/16 19:35:31  5-MIN KARB 140035Z AUTO 08009KT 6SM -RA BR OVC005 07/06 A2978 970 93 200 090/09 RMK AO2 P0007 T00670056
94889KARB ARB20160313194011903/13/16 19:40:31  5-MIN KARB 140040Z AUTO 08009KT 7SM -RA OVC005 07/06 A2978 970 93 200 090/09 RMK AO2 P0007 T00670056
94889KARB ARB20160313194512103/13/16 19:45:31  5-MIN KARB 140045Z AUTO 09009KT 7SM OVC005 07/06 A2978 970 93 200 090/09 RMK AO2 RAE41 P0007 T00670056
94889KARB ARB20160313195012803/13/16 19:50:31  5-MIN KARB 140050Z AUTO 09010KT 7SM OVC005 07/06 A2978 970 93 200 100/10 RMK AO2 RAE41 SLP089 P0007 T00670056
94889KARB ARB20160313195510903/13/16 19:55:31  5-MIN KARB 140055Z AUTO 09011KT 7SM OVC005 07/06 A2978 970 96 200 100/11 RMK AO2 T00670061
94889KARB ARB20160313200012503/13/16 20:00:31  5-MIN KARB 140100Z AUTO 09009KT 7SM -RA OVC005 07/06 A2978 970 96 200 100/09 RMK AO2 RAB00 P0000 T00670061
94889KARB ARB20160313200513103/13/16 20:05:31  5-MIN KARB 140105Z AUTO 09011G17KT 8SM -RA OVC005 07/06 A2978 970 96 200 090/11G17 RMK AO2 RAB00 P0000 T00670061
94889KARB ARB20160313201013103/13/16 20:10:31  5-MIN KARB 140110Z AUTO 09010G17KT 8SM -RA OVC005 07/06 A2978 970 96 200 100/10G17 RMK AO2 RAB00 P0000 T00670061
94889KARB ARB20160313201512403/13/16 20:15:31  5-MIN KARB 140115Z AUTO 09011KT 9SM OVC005 07/06 A2978 970 96 200 100/11 RMK AO2 RAB00E11 P0000 T00670061
94889KARB ARB20160313202013103/13/16 20:20:31  5-MIN KARB 140120Z AUTO 09012G17KT 9SM -RA OVC005 07/06 A2978 970 96 200 100/12G17 RMK AO2 RAB00 P0000 T00670061
94889KARB ARB20160313202512503/13/16 20:25:31  5-MIN KARB 140125Z AUTO 09011KT 9SM -RA OVC005 07/06 A2978 970 93 200 100/11 RMK AO2 RAB00 P0000 T00670056
94889KARB ARB20160313203012603/13/16 20:30:31  5-MIN KARB 140130Z AUTO 09012KT 10SM -RA OVC005 07/06 A2978 970 93 200 100/12 RMK AO2 RAB00 P0000 T00670056
94889KARB ARB20160313203512503/13/16 20:35:31  5-MIN KARB 140135Z AUTO 09012KT 10SM OVC005 07/06 A2978 970 93 200 100/12 RMK AO2 RAB00E32 P0000 T00670056
94889KARB ARB20160313204012503/13/16 20:40:31  5-MIN KARB 140140Z AUTO 10009KT 10SM OVC005 07/06 A2977 980 93 200 100/09 RMK AO2 RAB00E32 P0000 T00670056
94889KARB ARB20160313204513103/13/16 20:45:31  5-MIN KARB 140145Z AUTO 10010G16KT 10SM OVC005 07/06 A2977 980 93 200 110/10G16 RMK AO2 RAB00E32 P0000 T00670056
94889KARB ARB20160313205013103/13/16 20:50:31  5-MIN KARB 140150Z AUTO 10009KT 9SM OVC005 07/06 A2977 980 93 300 100/09 RMK AO2 RAB00E32 SLP086 P0000 T00670056
94889KARB ARB20160313205510903/13/16 20:55:31  5-MIN KARB 140155Z AUTO 09008KT 9SM OVC005 07/06 A2977 980 93 300 100/08 RMK AO2 T00670056
94889KARB ARB20160313210010903/13/16 21:00:31  5-MIN KARB 140200Z AUTO 10009KT 9SM OVC005 07/06 A2977 980 93 300 110/09 RMK AO2 T00670056
94889KARB ARB20160313210510903/13/16 21:05:31  5-MIN KARB 140205Z AUTO 10010KT 9SM OVC005 07/06 A2976 990 93 300 100/10 RMK AO2 T00670056
94889KARB ARB20160313211010903/13/16 21:10:31  5-MIN KARB 140210Z AUTO 09009KT 8SM OVC005 07/06 A2976 990 93 300 100/09 RMK AO2 T00670056
94889KARB ARB20160313211510903/13/16 21:15:31  5-MIN KARB 140215Z AUTO 09007KT 7SM OVC005 07/06 A2976 990 93 300 100/07 RMK AO2 T00670056
94889KARB ARB20160313212010903/13/16 21:20:31  5-MIN KARB 140220Z AUTO 09009KT 7SM OVC004 07/06 A2976 990 93 300 100/09 RMK AO2 T00670056
94889KARB ARB20160313212510903/13/16 21:25:31  5-MIN KARB 140225Z AUTO 10009KT 8SM OVC004 07/06 A2976 990 93 300 110/09 RMK AO2 T00670056
94889KARB ARB20160313213010903/13/16 21:30:31  5-MIN KARB 140230Z AUTO 09010KT 7SM OVC004 07/06 A2976 990 93 300 100/10 RMK AO2 T00670056
94889KARB ARB20160313213511303/13/16 21:35:31  5-MIN KARB 140235Z AUTO 09009KT 4SM BR OVC004 07/06 A2975 1000 93 300 100/09 RMK AO2 T00670056
94889KARB ARB20160313214011303/13/16 21:40:31  5-MIN KARB 140240Z AUTO 09010KT 3SM BR OVC004 07/06 A2975 1000 93 300 100/10 RMK AO2 T00670056
94889KARB ARB20160313214511303/13/16 21:45:31  5-MIN KARB 140245Z AUTO 09009KT 3SM BR OVC004 07/06 A2975 1000 93 300 100/09 RMK AO2 T00670056
94889KARB ARB20160313215013203/13/16 21:50:31  5-MIN KARB 140250Z AUTO 09010KT 3SM BR OVC004 07/06 A2975 1000 93 300 100/10 RMK AO2 SLP079 60007 T00670056 56012
94889KARB ARB20160313215511303/13/16 21:55:31  5-MIN KARB 140255Z AUTO 09009KT 4SM BR OVC004 07/06 A2975 1000 96 300 100/09 RMK AO2 T00670061
94889KARB ARB20160313220011303/13/16 22:00:31  5-MIN KARB 140300Z AUTO 10008KT 5SM BR OVC004 07/06 A2975 1000 96 300 100/08 RMK AO2 T00670061
94889KARB ARB20160313220511303/13/16 22:05:31  5-MIN KARB 140305Z AUTO 09006KT 5SM BR OVC004 07/06 A2975 1000 96 300 100/06 RMK AO2 T00670061
94889KARB ARB20160313221011303/13/16 22:10:31  5-MIN KARB 140310Z AUTO 10006KT 5SM BR OVC004 07/06 A2975 1000 96 300 110/06 RMK AO2 T00670061
94889KARB ARB20160313221511303/13/16 22:15:31  5-MIN KARB 140315Z AUTO 10006KT 5SM BR OVC003 07/06 A2975 1000 96 300 110/06 RMK AO2 T00670061
94889KARB ARB20160313222011303/13/16 22:20:31  5-MIN KARB 140320Z AUTO 09008KT 4SM BR OVC003 07/06 A2975 1000 96 300 100/08 RMK AO2 T00670061
94889KARB ARB20160313222511303/13/16 22:25:31  5-MIN KARB 140325Z AUTO 10006KT 3SM BR OVC003 07/06 A2975 1000 96 300 110/06 RMK AO2 T00670061
94889KARB ARB20160313223011303/13/16 22:30:31  5-MIN KARB 140330Z AUTO 10008KT 3SM BR OVC003 07/06 A2975 1000 96 300 110/08 RMK AO2 T00670061
94889KARB ARB20160313223511303/13/16 22:35:31  5-MIN KARB 140335Z AUTO 10009KT 3SM BR OVC003 07/06 A2975 1000 96 300 110/09 RMK AO2 T00670061
94889KARB ARB20160313224011303/13/16 22:40:31  5-MIN KARB 140340Z AUTO 09007KT 3SM BR OVC003 07/06 A2975 1000 96 300 100/07 RMK AO2 T00670061
94889KARB ARB20160313224511303/13/16 22:45:31  5-MIN KARB 140345Z AUTO 10008KT 3SM BR OVC003 07/06 A2974 1000 96 300 110/08 RMK AO2 T00670061
94889KARB ARB20160313225010703/13/16 22:50:31  5-MIN KARB 140350Z AUTO 10008KT 2 1/2SM BR OVC003 07/06 A2974 1010 96 300 110/08 RMK AO2
94889KARB ARB20160313225511303/13/16 22:55:31  5-MIN KARB 140355Z AUTO 10010KT 3SM BR OVC003 07/06 A2974 1010 96 300 100/10 RMK AO2 T00670061
94889KARB ARB20160313230011303/13/16 23:00:31  5-MIN KARB 140400Z AUTO 09009KT 3SM BR OVC003 07/06 A2974 1010 96 300 100/09 RMK AO2 T00670061
94889KARB ARB20160313230511303/13/16 23:05:31  5-MIN KARB 140405Z AUTO 10006KT 3SM BR OVC003 07/06 A2974 1010 96 300 100/06 RMK AO2 T00670061
94889KARB ARB20160313231011303/13/16 23:10:31  5-MIN KARB 140410Z AUTO 10007KT 3SM BR OVC003 07/06 A2974 1010 96 300 110/07 RMK AO2 T00670061
94889KARB ARB20160313231511303/13/16 23:15:31  5-MIN KARB 140415Z AUTO 09008KT 3SM BR OVC003 07/06 A2973 1010 96 300 100/08 RMK AO2 T00670061
94889KARB ARB20160313232011303/13/16 23:20:31  5-MIN KARB 140420Z AUTO 10010KT 3SM BR OVC003 07/06 A2973 1010 96 300 100/10 RMK AO2 T00670061
94889KARB ARB20160313232511303/13/16 23:25:31  5-MIN KARB 140425Z AUTO 10008KT 3SM BR OVC003 07/06 A2973 1020 96 300 100/08 RMK AO2 T00670061
94889KARB ARB20160313233011303/13/16 23:30:31  5-MIN KARB 140430Z AUTO 10008KT 3SM BR OVC003 07/06 A2973 1020 96 300 100/08 RMK AO2 T00670061
94889KARB ARB20160313233511303/13/16 23:35:31  5-MIN KARB 140435Z AUTO 09006KT 3SM BR OVC003 07/06 A2973 1020 96 300 100/06 RMK AO2 T00670061
94889KARB ARB20160313234011303/13/16 23:40:31  5-MIN KARB 140440Z AUTO 09009KT 3SM BR OVC003 07/06 A2973 1020 96 300 100/09 RMK AO2 T00670061
94889KARB ARB20160313234511303/13/16 23:45:31  5-MIN KARB 140445Z AUTO 09008KT 3SM BR OVC003 07/06 A2973 1020 96 300 100/08 RMK AO2 T00670061
94889KARB ARB20160313235013003/13/16 23:50:31  5-MIN KARB 140450Z AUTO 10009KT 3SM BR OVC003 07/06 A2972 1030 96 300 110/09 RMK AO2 SLP068 T00670061 400940061
94889KARB ARB20160313235511303/13/16 23:55:31  5-MIN KARB 140455Z AUTO 11008KT 3SM BR OVC003 07/06 A2972 1030 96 300 120/08 RMK AO2 T00670061
94889KARB ARB20160314000011303/14/16 00:00:31  5-MIN KARB 140500Z AUTO 11009KT 3SM BR OVC002 07/06 A2972 1030 96 300 120/09 RMK AO2 T00670061
94889KARB ARB20160314000511303/14/16 00:05:31  5-MIN KARB 140505Z AUTO 11007KT 3SM BR OVC002 07/06 A2972 1030 96 300 120/07 RMK AO2 T00670061
94889KARB ARB20160314001011303/14/16 00:10:31  5-MIN KARB 140510Z AUTO 11007KT 3SM BR OVC002 07/06 A2972 1030 96 300 110/07 RMK AO2 T00670061
94889KARB ARB20160314001511703/14/16 00:15:31  5-MIN KARB 140515Z AUTO 10007KT 2 1/2SM BR OVC002 07/06 A2971 1030 96 300 110/07 RMK AO2 T00670061
94889KARB ARB20160314002011703/14/16 00:20:31  5-MIN KARB 140520Z AUTO 11008KT 2 1/2SM BR OVC002 07/06 A2971 1030 96 300 120/08 RMK AO2 T00670061
94889KARB ARB20160314002511703/14/16 00:25:31  5-MIN KARB 140525Z AUTO 11006KT 2 1/2SM BR OVC002 07/06 A2971 1030 96 300 110/06 RMK AO2 T00670061
94889KARB ARB20160314003011303/14/16 00:30:31  5-MIN KARB 140530Z AUTO 10006KT 3SM BR OVC002 07/06 A2971 1030 96 300 100/06 RMK AO2 T00670061
94889KARB ARB20160314003511703/14/16 00:35:31  5-MIN KARB 140535Z AUTO 10005KT 2 1/2SM BR OVC002 07/06 A2971 1040 96 300 110/05 RMK AO2 T00670061
94889KARB ARB20160314004011303/14/16 00:40:31  5-MIN KARB 140540Z AUTO 10008KT 2SM BR OVC002 07/06 A2971 1040 96 300 110/08 RMK AO2 T00670061
94889KARB ARB20160314004511703/14/16 00:45:31  5-MIN KARB 140545Z AUTO 10007KT 1 3/4SM BR OVC002 07/06 A2971 1040 96 300 100/07 RMK AO2 T00670061
94889KARB ARB20160314005014803/14/16 00:50:31  5-MIN KARB 140550Z AUTO 11007KT 1 1/2SM BR OVC002 07/06 A2971 1040 96 300 120/07 RMK AO2 SLP064 60007 T00670061 10067 20067 57014
94889KARB ARB20160314005511703/14/16 00:55:31  5-MIN KARB 140555Z AUTO 10005KT 1 1/2SM BR OVC002 07/06 A2971 1040 96 300 110/05 RMK AO2 T00670061
94889KARB ARB20160314010011703/14/16 01:00:31  5-MIN KARB 140600Z AUTO 11006KT 1 1/2SM BR OVC002 07/06 A2971 1040 96 300 120/06 RMK AO2 T00670061
94889KARB ARB20160314010511703/14/16 01:05:31  5-MIN KARB 140605Z AUTO 11005KT 1 1/2SM BR OVC002 07/06 A2971 1040 96 300 120/05 RMK AO2 T00670061
94889KARB ARB20160314011011703/14/16 01:10:31  5-MIN KARB 140610Z AUTO 12005KT 1 1/2SM BR OVC002 07/06 A2971 1040 96 300 120/05 RMK AO2 T00670061
94889KARB ARB20160314011511703/14/16 01:15:31  5-MIN KARB 140615Z AUTO 11003KT 1 1/2SM BR OVC002 07/06 A2971 1040 96 300 120/03 RMK AO2 T00670061
94889KARB ARB20160314012011703/14/16 01:20:31  5-MIN KARB 140620Z AUTO 11004KT 1 1/4SM BR OVC002 07/06 A2971 1040 96 300 120/04 RMK AO2 T00670061
94889KARB ARB20160314012511303/14/16 01:25:31  5-MIN KARB 140625Z AUTO 11004KT 1SM BR OVC002 07/06 A2971 1040 96 300 110/04 RMK AO2 T00670061
94889KARB ARB20160314013011303/14/16 01:30:31  5-MIN KARB 140630Z AUTO 09003KT 1SM BR OVC002 07/06 A2970 1040 96 300 100/03 RMK AO2 T00670061
94889KARB ARB20160314013511603/14/16 01:35:31  5-MIN KARB 140635Z AUTO 11004KT 3/4SM BR OVC002 06/06 A2970 1040 100 300 120/04 RMK AO2 T00610061
94889KARB ARB20160314014011603/14/16 01:40:31  5-MIN KARB 140640Z AUTO 11006KT 3/4SM BR OVC002 06/06 A2970 1040 100 300 120/06 RMK AO2 T00610061
94889KARB ARB20160314014511503/14/16 01:45:31  5-MIN KARB 140645Z AUTO 10004KT 3/4SM BR VV002 06/06 A2970 1050 100 300 100/04 RMK AO2 T00610061
94889KARB ARB20160314015012203/14/16 01:50:31  5-MIN KARB 140650Z AUTO 11004KT 3/4SM BR VV002 06/06 A2970 1050 100 300 120/04 RMK AO2 SLP060 T00610061
94889KARB ARB20160314015511503/14/16 01:55:31  5-MIN KARB 140655Z AUTO 11006KT 1/2SM FG VV002 06/06 A2970 1050 100 300 120/06 RMK AO2 T00610061
94889KARB ARB20160314020011503/14/16 02:00:31  5-MIN KARB 140700Z AUTO 10006KT 1/2SM FG VV002 06/06 A2969 1050 100 300 110/06 RMK AO2 T00610061
94889KARB ARB20160314020511503/14/16 02:05:31  5-MIN KARB 140705Z AUTO 11005KT 1/2SM FG VV002 06/06 A2969 1050 100 300 120/05 RMK AO2 T00610061
94889KARB ARB20160314021013103/14/16 02:10:31  5-MIN KARB 140710Z AUTO 10005KT 1/2SM -RA FG VV002 06/06 A2969 1060 100 300 110/05 RMK AO2 RAB09 P0001 T00610061
94889KARB ARB20160314021513103/14/16 02:15:31  5-MIN KARB 140715Z AUTO 09005KT 1/2SM -RA FG VV002 06/06 A2968 1060 100 300 100/05 RMK AO2 RAB09 P0001 T00610061
94889KARB ARB20160314022013103/14/16 02:20:31  5-MIN KARB 140720Z AUTO 10004KT 3/4SM -RA BR VV002 06/06 A2969 1060 100 300 110/04 RMK AO2 RAB09 P0001 T00610061
94889KARB ARB20160314022513003/14/16 02:25:31  5-MIN KARB 140725Z AUTO 10005KT 1/2SM FG VV002 06/06 A2968 1060 100 300 100/05 RMK AO2 RAB09E24 P0001 T00610061
94889KARB ARB20160314023013003/14/16 02:30:31  5-MIN KARB 140730Z AUTO 11004KT 1/2SM FG VV002 06/06 A2968 1060 100 300 110/04 RMK AO2 RAB09E24 P0001 T00610061
94889KARB ARB20160314023513003/14/16 02:35:31  5-MIN KARB 140735Z AUTO 11005KT 1/2SM FG VV002 06/06 A2968 1060 100 300 120/05 RMK AO2 RAB09E24 P0001 T00610061
94889KARB ARB20160314024013103/14/16 02:40:31  5-MIN KARB 140740Z AUTO 12004KT 1/2SM -RA FG VV002 06/06 A2968 1070 100 300 120/04 RMK AO2 RAB09 P0001 T00610061
94889KARB ARB20160314024513103/14/16 02:45:31  5-MIN KARB 140745Z AUTO 11004KT 1/2SM -RA FG VV002 06/06 A2968 1070 100 300 120/04 RMK AO2 RAB09 P0001 T00610061
94889KARB ARB20160314025013703/14/16 02:50:31  5-MIN KARB 140750Z AUTO 11003KT 3/4SM BR VV002 06/06 A2968 1070 100 300 120/03 RMK AO2 RAB09E47 SLP053 P0001 T00610061
94889KARB ARB20160314025511503/14/16 02:55:31  5-MIN KARB 140755Z AUTO 11003KT 1/2SM FG VV002 06/06 A2968 1070 100 300 120/03 RMK AO2 T00610061
94889KARB ARB20160314030011503/14/16 03:00:31  5-MIN KARB 140800Z AUTO 12004KT 3/4SM BR VV002 06/06 A2967 1070 100 300 120/04 RMK AO2 T00610061
94889KARB ARB20160314030512103/14/16 03:05:31  5-MIN KARB 140805Z AUTO 12003KT 3/4SM BR VV002 06/06 A2967 1070 100 300 120/03 RMK AO2 P0001 T00610061
94889KARB ARB20160314031012103/14/16 03:10:31  5-MIN KARB 140810Z AUTO 09003KT 3/4SM BR VV002 06/06 A2967 1070 100 300 100/03 RMK AO2 P0001 T00610061
94889KARB ARB20160314031511903/14/16 03:15:31  5-MIN KARB 140815Z AUTO 09003KT 1SM BR VV002 06/06 A2967 1070 100 300 100/03 RMK AO2 P0001 T00610061
94889KARB ARB20160314032011903/14/16 03:20:31  5-MIN KARB 140820Z AUTO VRB03KT 1SM BR VV002 06/06 A2967 1070 100 300 VRB/03 RMK AO2 P0001 T00610061
94889KARB ARB20160314032512003/14/16 03:25:31  5-MIN KARB 140825Z AUTO 09003KT 1SM BR OVC002 06/06 A2967 1070 100 300 100/03 RMK AO2 P0001 T00610061
94889KARB ARB20160314033012003/14/16 03:30:31  5-MIN KARB 140830Z AUTO 11003KT 1SM BR OVC002 06/06 A2967 1080 100 300 110/03 RMK AO2 P0001 T00610061
94889KARB ARB20160314033512003/14/16 03:35:31  5-MIN KARB 140835Z AUTO 12003KT 1SM BR OVC002 06/06 A2967 1070 100 300 120/03 RMK AO2 P0001 T00610061
94889KARB ARB20160314034012003/14/16 03:40:31  5-MIN KARB 140840Z AUTO 00000KT 1SM BR OVC002 06/06 A2967 1080 100 300 000/00 RMK AO2 P0001 T00610061
94889KARB ARB20160314034512003/14/16 03:45:31  5-MIN KARB 140845Z AUTO 00000KT 1SM BR OVC002 06/06 A2967 1080 100 300 000/00 RMK AO2 P0001 T00610061
94889KARB ARB20160314035011203/14/16 03:50:31  5-MIN KARB 140850Z AUTO 11003KT 3/4SM BR OVC002 06/06 A2966 1080 100 300 110/03 RMK AO2 P0001
94889KARB ARB20160314035511503/14/16 03:55:31  5-MIN KARB 140855Z AUTO 11003KT 3/4SM BR VV002 06/06 A2967 1080 100 300 120/03 RMK AO2 T00610061
94889KARB ARB20160314040011503/14/16 04:00:31  5-MIN KARB 140900Z AUTO 00000KT 3/4SM BR VV002 06/06 A2967 1080 100 300 000/00 RMK AO2 T00610061
94889KARB ARB20160314040511503/14/16 04:05:31  5-MIN KARB 140905Z AUTO 13003KT 3/4SM BR VV002 06/06 A2967 1080 100 300 140/03 RMK AO2 T00610061
94889KARB ARB20160314041011503/14/16 04:10:31  5-MIN KARB 140910Z AUTO 00000KT 1/2SM FG VV002 06/06 A2966 1080 100 300 000/00 RMK AO2 T00610061
94889KARB ARB20160314041511503/14/16 04:15:31  5-MIN KARB 140915Z AUTO 12003KT 1/2SM FG VV002 06/06 A2966 1080 100 300 130/03 RMK AO2 T00610061
94889KARB ARB20160314042011403/14/16 04:20:31  5-MIN KARB 140920Z AUTO 16003KT 1/2SM FG VV002 07/06 A2967 1080 96 400 160/03 RMK AO2 T00670061
94889KARB ARB20160314042511503/14/16 04:25:31  5-MIN KARB 140925Z AUTO 00000KT 1/2SM FG VV002 07/07 A2967 1080 100 400 000/00 RMK AO2 T00670067
94889KARB ARB20160314043011503/14/16 04:30:31  5-MIN KARB 140930Z AUTO 00000KT 1/2SM FG VV002 07/07 A2966 1080 100 400 000/00 RMK AO2 T00670067
94889KARB ARB20160314043511403/14/16 04:35:31  5-MIN KARB 140935Z AUTO 00000KT 1/2SM FG VV002 07/06 A2966 1080 96 400 000/00 RMK AO2 T00670061
94889KARB ARB20160314044011403/14/16 04:40:31  5-MIN KARB 140940Z AUTO 00000KT 1/4SM FG VV002 07/06 A2967 1080 96 400 000/00 RMK AO2 T00670061
94889KARB ARB20160314044511403/14/16 04:45:31  5-MIN KARB 140945Z AUTO 00000KT 1/4SM FG VV002 07/06 A2967 1080 96 400 000/00 RMK AO2 T00670061
94889KARB ARB20160314045012103/14/16 04:50:31  5-MIN KARB 140950Z AUTO 00000KT 1/4SM FG VV002 07/06 A2967 1080 96 400 000/00 RMK AO2 SLP050 T00670061
94889KARB ARB20160314045511403/14/16 04:55:31  5-MIN KARB 140955Z AUTO 00000KT 1/4SM FG VV002 07/06 A2967 1080 96 400 000/00 RMK AO2 T00670061
94889KARB ARB20160314050011403/14/16 05:00:31  5-MIN KARB 141000Z AUTO 14003KT 1/4SM FG VV002 07/06 A2967 1080 96 400 150/03 RMK AO2 T00670061
94889KARB ARB20160314050511403/14/16 05:05:31  5-MIN KARB 141005Z AUTO 00000KT 1/4SM FG VV002 07/06 A2967 1080 96 400 000/00 RMK AO2 T00670061
94889KARB ARB20160314051011503/14/16 05:10:31  5-MIN KARB 141010Z AUTO 00000KT 1/4SM FG VV002 07/07 A2967 1080 100 400 000/00 RMK AO2 T00670067
94889KARB ARB20160314051511503/14/16 05:15:31  5-MIN KARB 141015Z AUTO 00000KT 1/4SM FG VV002 07/07 A2967 1080 100 400 000/00 RMK AO2 T00670067
94889KARB ARB20160314052011503/14/16 05:20:31  5-MIN KARB 141020Z AUTO 00000KT 1/4SM FG VV002 07/07 A2967 1080 100 400 000/00 RMK AO2 T00670067
94889KARB ARB20160314052511503/14/16 05:25:31  5-MIN KARB 141025Z AUTO 16003KT 1/4SM FG VV002 07/07 A2967 1080 100 400 160/03 RMK AO2 T00670067
94889KARB ARB20160314053011503/14/16 05:30:31  5-MIN KARB 141030Z AUTO 00000KT 1/4SM FG VV002 07/07 A2967 1080 100 400 000/00 RMK AO2 T00670067
94889KARB ARB20160314053511503/14/16 05:35:31  5-MIN KARB 141035Z AUTO 00000KT 1/4SM FG VV002 07/07 A2966 1080 100 400 000/00 RMK AO2 T00670067
94889KARB ARB20160314054011503/14/16 05:40:31  5-MIN KARB 141040Z AUTO 15003KT 1/4SM FG VV002 07/07 A2966 1080 100 400 160/03 RMK AO2 T00670067
94889KARB ARB20160314054511503/14/16 05:45:31  5-MIN KARB 141045Z AUTO 17003KT 1/4SM FG VV002 07/07 A2967 1080 100 400 180/03 RMK AO2 T00670067
94889KARB ARB20160314055012203/14/16 05:50:31  5-MIN KARB 141050Z AUTO 00000KT 1/4SM FG VV002 07/07 A2967 1080 100 400 000/00 RMK AO2 SLP050 T00670067
94889KARB ARB20160314055511503/14/16 05:55:31  5-MIN KARB 141055Z AUTO 00000KT 1/4SM FG VV002 07/07 A2967 1080 100 400 000/00 RMK AO2 T00670067
94889KARB ARB20160314060011503/14/16 06:00:31  5-MIN KARB 141100Z AUTO 00000KT 1/4SM FG VV002 07/07 A2967 1070 100 400 000/00 RMK AO2 T00670067
94889KARB ARB20160314060511503/14/16 06:05:31  5-MIN KARB 141105Z AUTO 00000KT 1/4SM FG VV002 07/07 A2967 1070 100 400 000/00 RMK AO2 T00670067
94889KARB ARB20160314061011503/14/16 06:10:31  5-MIN KARB 141110Z AUTO 00000KT 1/4SM FG VV002 07/07 A2967 1070 100 400 000/00 RMK AO2 T00670067
94889KARB ARB20160314061511503/14/16 06:15:31  5-MIN KARB 141115Z AUTO 19003KT 1/4SM FG VV002 07/07 A2967 1070 100 400 200/03 RMK AO2 T00670067
94889KARB ARB20160314062011503/14/16 06:20:31  5-MIN KARB 141120Z AUTO 00000KT 1/4SM FG VV002 07/07 A2967 1070 100 400 000/00 RMK AO2 T00670067
94889KARB ARB20160314062511403/14/16 06:25:31  5-MIN KARB 141125Z AUTO 00000KT 1/4SM FG VV002 07/07 A2967 1070 96 400 000/00 RMK AO2 T00720067
94889KARB ARB20160314063011403/14/16 06:30:31  5-MIN KARB 141130Z AUTO 00000KT 1/4SM FG VV002 07/07 A2967 1080 96 400 000/00 RMK AO2 T00720067
94889KARB ARB20160314063511403/14/16 06:35:31  5-MIN KARB 141135Z AUTO 00000KT 1/4SM FG VV002 07/07 A2967 1070 96 400 000/00 RMK AO2 T00720067
94889KARB ARB20160314064011403/14/16 06:40:31  5-MIN KARB 141140Z AUTO 00000KT 1/4SM FG VV002 07/07 A2967 1070 96 400 000/00 RMK AO2 T00720067
94889KARB ARB20160314064511403/14/16 06:45:31  5-MIN KARB 141145Z AUTO 00000KT 1/4SM FG VV002 07/07 A2967 1070 96 400 000/00 RMK AO2 T00720067
94889KARB ARB20160314065014703/14/16 06:50:31  5-MIN KARB 141150Z 00000KT 1/4SM FG VV002 07/07 A2967 1070 100 400 000/00 RMK AO2 SLP052 60002 70074 T00720072 10072 20061 56015
94889KARB ARB20160314065511003/14/16 06:55:31  5-MIN KARB 141155Z 20003KT 1/4SM FG VV002 07/07 A2968 1070 100 400 210/03 RMK AO2 T00720072
94889KARB ARB20160314070011003/14/16 07:00:31  5-MIN KARB 141200Z 00000KT 1/4SM FG VV002 07/07 A2968 1070 100 400 000/00 RMK AO2 T00720072
94889KARB ARB20160314070511103/14/16 07:05:31  5-MIN KARB 141205Z 00000KT M1/4SM FG VV002 07/07 A2968 1070 100 400 000/00 RMK AO2 T00720072
94889KARB ARB20160314071011103/14/16 07:10:31  5-MIN KARB 141210Z 21003KT M1/4SM FG VV002 07/07 A2968 1070 100 400 210/03 RMK AO2 T00720072
94889KARB ARB20160314071511103/14/16 07:15:31  5-MIN KARB 141215Z 20004KT M1/4SM FG VV002 07/07 A2968 1070 100 400 210/04 RMK AO2 T00720072
94889KARB ARB20160314072011003/14/16 07:20:31  5-MIN KARB 141220Z 20004KT 1/4SM FG VV002 07/07 A2968 1060 100 400 210/04 RMK AO2 T00720072
94889KARB ARB20160314072511003/14/16 07:25:31  5-MIN KARB 141225Z 20004KT 1/4SM FG VV002 07/07 A2968 1060 100 400 210/04 RMK AO2 T00720072
94889KARB ARB20160314073011003/14/16 07:30:31  5-MIN KARB 141230Z 21004KT 1/4SM FG VV002 07/07 A2968 1060 100 400 220/04 RMK AO2 T00720072
94889KARB ARB20160314073511003/14/16 07:35:31  5-MIN KARB 141235Z 20004KT 1/4SM FG VV002 07/07 A2968 1060 100 400 210/04 RMK AO2 T00720072
94889KARB ARB20160314074011003/14/16 07:40:31  5-MIN KARB 141240Z 20003KT 1/4SM FG VV002 07/07 A2968 1060 100 400 210/03 RMK AO2 T00720072
94889KARB ARB20160314074510903/14/16 07:45:31  5-MIN KARB 141245Z 21004KT 1/4SM FG VV002 08/07 A2968 1060 96 500 210/04 RMK AO2 T00780072
94889KARB ARB20160314075011603/14/16 07:50:31  5-MIN KARB 141250Z 19003KT 1/2SM FG VV003 08/07 A2968 1060 96 500 200/03 RMK AO2 SLP055 T00780072
94889KARB ARB20160314075510903/14/16 07:55:31  5-MIN KARB 141255Z 20003KT 1/2SM FG VV003 08/07 A2968 1060 96 500 200/03 RMK AO2 T00780072
94889KARB ARB20160314080011003/14/16 08:00:31  5-MIN KARB 141300Z 20003KT 3/4SM BR VV003 08/08 A2969 1060 100 500 200/03 RMK AO2 T00780078
94889KARB ARB20160314080510903/14/16 08:05:31  5-MIN KARB 141305Z 21003KT 1SM BR OVC003 08/08 A2969 1060 100 500 210/03 RMK AO2 T00780078
94889KARB ARB20160314081011303/14/16 08:10:31  5-MIN KARB 141310Z 21004KT 1 1/4SM BR OVC003 08/08 A2969 1060 100 500 220/04 RMK AO2 T00780078
94889KARB ARB20160314081511303/14/16 08:15:31  5-MIN KARB 141315Z 21004KT 1 1/2SM BR OVC003 08/08 A2969 1050 100 500 220/04 RMK AO2 T00780078
94889KARB ARB20160314082011303/14/16 08:20:31  5-MIN KARB 141320Z 20004KT 1 3/4SM BR OVC003 08/08 A2969 1050 100 500 210/04 RMK AO2 T00780078
94889KARB ARB20160314082511303/14/16 08:25:31  5-MIN KARB 141325Z 20004KT 1 3/4SM BR OVC003 08/08 A2969 1050 100 500 210/04 RMK AO2 T00780078
94889KARB ARB20160314083010803/14/16 08:30:31  5-MIN KARB 141330Z 20004KT 2SM BR OVC003 08/08 A2969 1050 96 500 210/04 RMK AO2 T00830078
94889KARB ARB20160314083510803/14/16 08:35:31  5-MIN KARB 141335Z 22004KT 2SM BR OVC003 08/08 A2969 1060 96 500 230/04 RMK AO2 T00830078
94889KARB ARB20160314084010903/14/16 08:40:31  5-MIN KARB 141340Z 21006KT 2SM BR OVC003 08/08 A2969 1060 100 500 220/06 RMK AO2 T00830083
94889KARB ARB20160314084510903/14/16 08:45:31  5-MIN KARB 141345Z 22005KT 2SM BR OVC003 09/09 A2969 1060 100 600 220/05 RMK AO2 T00890089
94889KARB ARB20160314085011603/14/16 08:50:31  5-MIN KARB 141350Z 21005KT 2SM BR OVC002 09/09 A2969 1050 100 600 220/05 RMK AO2 SLP057 T00890089
94889KARB ARB20160314085511303/14/16 08:55:31  5-MIN KARB 141355Z 23004KT 2 1/2SM BR OVC002 09/09 A2969 1050 100 600 230/04 RMK AO2 T00890089
94889KARB ARB20160314090010803/14/16 09:00:31  5-MIN KARB 141400Z 23004KT 3SM BR OVC002 09/09 A2969 1050 96 700 240/04 RMK AO2 T00940089
94889KARB ARB20160314090510803/14/16 09:05:31  5-MIN KARB 141405Z 23006KT 3SM BR OVC002 09/09 A2969 1050 96 700 230/06 RMK AO2 T00940089
94889KARB ARB20160314091010803/14/16 09:10:31  5-MIN KARB 141410Z 23006KT 3SM BR OVC002 09/09 A2970 1050 96 700 230/06 RMK AO2 T00940089
94889KARB ARB20160314091510803/14/16 09:15:31  5-MIN KARB 141415Z 22005KT 3SM BR OVC003 09/09 A2969 1050 96 700 230/05 RMK AO2 T00940089
94889KARB ARB20160314092010803/14/16 09:20:31  5-MIN KARB 141420Z 22005KT 3SM BR OVC003 09/09 A2970 1050 96 700 220/05 RMK AO2 T00940089
94889KARB ARB20160314092511303/14/16 09:25:31  5-MIN KARB 141425Z 22005KT 2 1/2SM BR OVC003 09/09 A2970 1050 100 700 230/05 RMK AO2 T00940094
94889KARB ARB20160314093011303/14/16 09:30:31  5-MIN KARB 141430Z 21005KT 1 3/4SM BR OVC003 09/09 A2970 1050 100 700 220/05 RMK AO2 T00940094
94889KARB ARB20160314093511203/14/16 09:35:31  5-MIN KARB 141435Z 22004KT 1 1/2SM BR OVC003 10/09 A2970 1050 96 700 230/04 RMK AO2 T01000094
94889KARB ARB20160314094011303/14/16 09:40:31  5-MIN KARB 141440Z 21005KT 1 1/2SM BR OVC003 10/10 A2970 1050 100 700 220/05 RMK AO2 T01000100
94889KARB ARB20160314094511203/14/16 09:45:31  5-MIN KARB 141445Z 21005KT 1 3/4SM BR OVC002 11/10 A2970 1050 96 800 220/05 RMK AO2 T01060100
94889KARB ARB20160314095009803/14/16 09:50:31  5-MIN KARB 141450Z 23005KT 2SM BR OVC002 11/10 A2970 1050 96 800 240/05 RMK AO2
94889KARB ARB20160314095510803/14/16 09:55:31  5-MIN KARB 141455Z 23006KT 2SM BR OVC002 11/10 A2970 1050 96 800 230/06 RMK AO2 T01060100
94889KARB ARB20160314100011203/14/16 10:00:31  5-MIN KARB 141500Z 22006KT 2 1/2SM BR OVC002 11/10 A2970 1050 96 800 230/06 RMK AO2 T01060100
94889KARB ARB20160314100511303/14/16 10:05:31  5-MIN KARB 141505Z 22005KT 2 1/2SM BR OVC002 11/11 A2970 1050 100 800 220/05 RMK AO2 T01060106
94889KARB ARB20160314101010903/14/16 10:10:31  5-MIN KARB 141510Z 22005KT 3SM BR OVC002 11/11 A2969 1050 100 900 230/05 RMK AO2 T01110111
94889KARB ARB20160314101510903/14/16 10:15:31  5-MIN KARB 141515Z 23005KT 3SM BR OVC002 12/12 A2969 1050 100 900 230/05 RMK AO2 T01170117
94889KARB ARB20160314102010903/14/16 10:20:31  5-MIN KARB 141520Z 25007KT 4SM BR OVC002 12/12 A2969 1050 96 1000 260/07 RMK AO2 T01220117
94889KARB ARB20160314102510903/14/16 10:25:31  5-MIN KARB 141525Z 25006KT 5SM BR OVC002 12/12 A2969 1050 96 1000 260/06 RMK AO2 T01220117
94889KARB ARB20160314103010903/14/16 10:30:31  5-MIN KARB 141530Z 23006KT 6SM BR OVC003 12/12 A2969 1060 96 1000 240/06 RMK AO2 T01220117
94889KARB ARB20160314103511803/14/16 10:35:31  5-MIN KARB 141535Z 23006KT 7SM OVC005 13/12 A2969 1060 93 1100 240/06 RMK AO2 CIG 002V008 T01280117
94889KARB ARB20160314104011803/14/16 10:40:31  5-MIN KARB 141540Z 23005KT 8SM OVC005 13/12 A2969 1060 93 1100 240/05 RMK AO2 CIG 002V008 T01330122
94889KARB ARB20160314104511803/14/16 10:45:31  5-MIN KARB 141545Z 22007KT 9SM OVC005 13/12 A2969 1060 93 1100 230/07 RMK AO2 CIG 003V009 T01330122
94889KARB ARB20160314105012603/14/16 10:50:31  5-MIN KARB 141550Z 23008KT 10SM OVC005 13/12 A2969 1060 93 1100 240/08 RMK AO2 CIG 003V009 SLP054 T01330122
94889KARB ARB20160314105512603/14/16 10:55:31  5-MIN KARB 141555Z 23007KT 10SM BKN006 OVC012 14/12 A2969 1060 90 1200 230/07 RMK AO2 CIG 004V011 T01390122
94889KARB ARB20160314110012603/14/16 11:00:31  5-MIN KARB 141600Z 23007KT 10SM BKN006 OVC012 14/12 A2969 1060 86 1300 240/07 RMK AO2 CIG 005V009 T01440122
94889KARB ARB20160314110511903/14/16 11:05:31  5-MIN KARB 141605Z 23007KT 10SM OVC010 14/12 A2968 1060 90 1200 240/07 RMK AO2 CIG 005V014 T01390122
94889KARB ARB20160314111012603/14/16 11:10:31  5-MIN KARB 141610Z 23008KT 10SM BKN010 OVC013 14/13 A2968 1060 90 1300 240/08 RMK AO2 CIG 006V012 T01440128
94889KARB ARB20160314111512603/14/16 11:15:31  5-MIN KARB 141615Z 24010KT 10SM BKN010 OVC013 14/12 A2969 1060 86 1300 250/10 RMK AO2 CIG 006V012 T01440122
94889KARB ARB20160314112010703/14/16 11:20:31  5-MIN KARB 141620Z 24009KT 10SM OVC013 14/12 A2969 1060 86 1300 250/09 RMK AO2 T01440122
94889KARB ARB20160314112510703/14/16 11:25:31  5-MIN KARB 141625Z 22010KT 10SM OVC013 14/12 A2969 1050 86 1300 220/10 RMK AO2 T01440122
94889KARB ARB20160314113011403/14/16 11:30:31  5-MIN KARB 141630Z 21010KT 10SM BKN013 OVC019 14/12 A2969 1050 86 1300 220/10 RMK AO2 T01440122
94889KARB ARB20160314113511403/14/16 11:35:31  5-MIN KARB 141635Z 22010KT 10SM BKN013 OVC019 14/12 A2969 1050 86 1300 220/10 RMK AO2 T01440122
94889KARB ARB20160314114011403/14/16 11:40:31  5-MIN KARB 141640Z 22009KT 10SM BKN013 OVC017 14/12 A2969 1060 83 1300 230/09 RMK AO2 T01440117
94889KARB ARB20160314114510703/14/16 11:45:31  5-MIN KARB 141645Z 23010KT 10SM OVC015 14/12 A2969 1060 83 1300 230/10 RMK AO2 T01440117
94889KARB ARB20160314115010403/14/16 11:50:31  5-MIN KARB 141650Z 22008KT 10SM BKN015 OVC019 14/12 A2968 1060 83 1300 220/08 RMK AO2
94889KARB ARB20160314115511403/14/16 11:55:31  5-MIN KARB 141655Z 21009KT 10SM BKN013 OVC018 14/12 A2969 1060 83 1300 220/09 RMK AO2 T01440117
94889KARB ARB20160314120011403/14/16 12:00:31  5-MIN KARB 141700Z 21007KT 10SM BKN013 OVC018 14/12 A2968 1060 86 1300 220/07 RMK AO2 T01440122
94889KARB ARB20160314120510703/14/16 12:05:31  5-MIN KARB 141705Z 23010KT 10SM OVC013 14/12 A2968 1060 86 1300 240/10 RMK AO2 T01440122
94889KARB ARB20160314121010703/14/16 12:10:31  5-MIN KARB 141710Z 23010KT 10SM OVC013 14/12 A2968 1060 83 1300 240/10 RMK AO2 T01440117
94889KARB ARB20160314121510703/14/16 12:15:31  5-MIN KARB 141715Z 24009KT 10SM OVC013 14/12 A2968 1060 86 1200 250/09 RMK AO2 T01390117
94889KARB ARB20160314122010703/14/16 12:20:31  5-MIN KARB 141720Z 24007KT 10SM OVC013 14/12 A2968 1060 83 1300 250/07 RMK AO2 T01440117
94889KARB ARB20160314122510703/14/16 12:25:31  5-MIN KARB 141725Z 24006KT 10SM OVC013 14/12 A2968 1070 83 1300 240/06 RMK AO2 T01440117
94889KARB ARB20160314123010703/14/16 12:30:31  5-MIN KARB 141730Z 23007KT 10SM OVC015 14/12 A2968 1070 86 1300 240/07 RMK AO2 T01440122
94889KARB ARB20160314123510703/14/16 12:35:31  5-MIN KARB 141735Z 23006KT 10SM OVC015 14/12 A2967 1070 86 1300 230/06 RMK AO2 T01440122
94889KARB ARB20160314124011403/14/16 12:40:31  5-MIN KARB 141740Z 23007KT 10SM BKN015 OVC022 16/12 A2967 1070 80 1400 230/07 RMK AO2 T01560122
94889KARB ARB20160314124511403/14/16 12:45:31  5-MIN KARB 141745Z 25007KT 10SM BKN017 OVC024 16/12 A2967 1070 80 1400 260/07 RMK AO2 T01560122
94889KARB ARB20160314125013903/14/16 12:50:31  5-MIN KARB 141750Z 23007KT 10SM SCT017 OVC024 16/12 A2967 1070 80 1400 240/07 RMK AO2 SLP048 T01560122 10156 20072 51008
94889KARB ARB20160314125511403/14/16 12:55:31  5-MIN KARB 141755Z 24007KT 10SM SCT017 OVC024 16/12 A2967 1080 80 1400 250/07 RMK AO2 T01560122
94889KARB ARB20160314130011403/14/16 13:00:31  5-MIN KARB 141800Z 25008KT 10SM BKN019 OVC024 16/12 A2967 1080 80 1400 260/08 RMK AO2 T01560122
94889KARB ARB20160314130510703/14/16 13:05:31  5-MIN KARB 141805Z 25008KT 10SM OVC021 15/12 A2967 1080 80 1400 250/08 RMK AO2 T01500117
94889KARB ARB20160314131010703/14/16 13:10:31  5-MIN KARB 141810Z 24008KT 10SM OVC021 15/12 A2967 1080 80 1400 240/08 RMK AO2 T01500117
94889KARB ARB20160314131511403/14/16 13:15:31  5-MIN KARB 141815Z 25007KT 10SM BKN018 OVC023 15/12 A2966 1080 80 1400 260/07 RMK AO2 T01500117
94889KARB ARB20160314132010703/14/16 13:20:31  5-MIN KARB 141820Z 24007KT 10SM OVC018 15/12 A2966 1080 80 1400 250/07 RMK AO2 T01500117
94889KARB ARB20160314132510703/14/16 13:25:31  5-MIN KARB 141825Z 25007KT 10SM OVC018 16/12 A2966 1080 80 1400 250/07 RMK AO2 T01560122
94889KARB ARB20160314133011403/14/16 13:30:31  5-MIN KARB 141830Z 24008KT 10SM BKN018 OVC023 16/12 A2966 1080 80 1400 250/08 RMK AO2 T01560122
94889KARB ARB20160314133511403/14/16 13:35:31  5-MIN KARB 141835Z 24008KT 10SM BKN018 OVC023 16/12 A2966 1090 80 1400 240/08 RMK AO2 T01560122
94889KARB ARB20160314134011403/14/16 13:40:31  5-MIN KARB 141840Z 23007KT 10SM BKN018 OVC028 16/12 A2965 1090 77 1500 240/07 RMK AO2 T01610122
94889KARB ARB20160314134511403/14/16 13:45:31  5-MIN KARB 141845Z 22005KT 10SM SCT018 OVC028 16/12 A2965 1090 77 1500 220/05 RMK AO2 T01610122
94889KARB ARB20160314135012103/14/16 13:50:31  5-MIN KARB 141850Z 22008KT 10SM BKN023 OVC028 16/12 A2965 1090 77 1500 230/08 RMK AO2 SLP042 T01610122
94889KARB ARB20160314135511403/14/16 13:55:31  5-MIN KARB 141855Z 22008KT 10SM SCT020 OVC026 16/12 A2965 1090 77 1500 230/08 RMK AO2 T01610122
94889KARB ARB20160314140011403/14/16 14:00:31  5-MIN KARB 141900Z 23007KT 10SM SCT020 OVC026 16/12 A2965 1090 77 1500 240/07 RMK AO2 T01560117
94889KARB ARB20160314140511403/14/16 14:05:31  5-MIN KARB 141905Z 23005KT 10SM BKN020 OVC028 16/12 A2965 1090 77 1500 240/05 RMK AO2 T01610122
94889KARB ARB20160314141011403/14/16 14:10:31  5-MIN KARB 141910Z 22005KT 10SM BKN020 OVC026 16/12 A2965 1090 80 1500 230/05 RMK AO2 T01560122
94889KARB ARB20160314141511403/14/16 14:15:31  5-MIN KARB 141915Z 23006KT 10SM BKN020 OVC026 16/12 A2965 1090 77 1500 230/06 RMK AO2 T01560117
94889KARB ARB20160314142010703/14/16 14:20:31  5-MIN KARB 141920Z 21005KT 10SM OVC020 16/12 A2965 1090 77 1500 220/05 RMK AO2 T01560117
94889KARB ARB20160314142510703/14/16 14:25:31  5-MIN KARB 141925Z 21005KT 10SM OVC020 16/12 A2965 1100 77 1500 210/05 RMK AO2 T01560117
94889KARB ARB20160314143011403/14/16 14:30:31  5-MIN KARB 141930Z 22006KT 10SM BKN019 OVC028 16/12 A2965 1100 80 1500 220/06 RMK AO2 T01560122
94889KARB ARB20160314143511403/14/16 14:35:31  5-MIN KARB 141935Z 20006KT 10SM BKN019 OVC026 16/12 A2965 1100 80 1500 210/06 RMK AO2 T01560122
94889KARB ARB20160314144011403/14/16 14:40:31  5-MIN KARB 141940Z 21005KT 10SM BKN021 OVC026 16/12 A2965 1090 80 1500 220/05 RMK AO2 T01560122
94889KARB ARB20160314144511403/14/16 14:45:31  5-MIN KARB 141945Z 22006KT 10SM BKN021 OVC026 16/12 A2965 1090 77 1500 230/06 RMK AO2 T01560117
94889KARB ARB20160314145012103/14/16 14:50:31  5-MIN KARB 141950Z 22005KT 10SM BKN019 OVC026 16/12 A2965 1090 80 1500 230/05 RMK AO2 SLP041 T01560122
94889KARB ARB20160314145511403/14/16 14:55:31  5-MIN KARB 141955Z 23005KT 10SM BKN019 OVC026 16/12 A2965 1090 80 1500 240/05 RMK AO2 T01560122
94889KARB ARB20160314150010703/14/16 15:00:31  5-MIN KARB 142000Z 23005KT 10SM OVC019 16/12 A2965 1090 77 1500 240/05 RMK AO2 T01610122
94889KARB ARB20160314150510703/14/16 15:05:31  5-MIN KARB 142005Z 23007KT 10SM OVC019 16/12 A2965 1090 77 1500 240/07 RMK AO2 T01610122
94889KARB ARB20160314151010703/14/16 15:10:31  5-MIN KARB 142010Z 25005KT 10SM OVC019 17/12 A2965 1090 75 1600 260/05 RMK AO2 T01670122
94889KARB ARB20160314151510703/14/16 15:15:31  5-MIN KARB 142015Z 25006KT 10SM OVC020 17/12 A2965 1100 75 1600 260/06 RMK AO2 T01670122
94889KARB ARB20160314152011403/14/16 15:20:31  5-MIN KARB 142020Z 25005KT 10SM BKN020 OVC026 16/12 A2965 1100 77 1500 260/05 RMK AO2 T01610122
94889KARB ARB20160314152511403/14/16 15:25:31  5-MIN KARB 142025Z 27006KT 10SM BKN020 OVC026 16/12 A2964 1100 75 1500 270/06 RMK AO2 T01610117
94889KARB ARB20160314153010703/14/16 15:30:31  5-MIN KARB 142030Z 25007KT 10SM OVC020 16/12 A2964 1100 75 1500 260/07 RMK AO2 T01610117
94889KARB ARB20160314153510703/14/16 15:35:31  5-MIN KARB 142035Z 26006KT 10SM OVC020 16/12 A2964 1100 75 1500 270/06 RMK AO2 T01610117
94889KARB ARB20160314154010703/14/16 15:40:31  5-MIN KARB 142040Z 29008KT 10SM OVC020 16/12 A2965 1100 75 1500 290/08 RMK AO2 T01610117
94889KARB ARB20160314154510703/14/16 15:45:31  5-MIN KARB 142045Z 29007KT 10SM OVC020 16/12 A2965 1100 75 1500 300/07 RMK AO2 T01610117
94889KARB ARB20160314155012503/14/16 15:50:31  5-MIN KARB 142050Z AUTO 29007KT 10SM OVC020 16/12 A2965 1100 75 1500 300/07 RMK AO2 SLP040 T01610117 58006
94889KARB ARB20160314155511903/14/16 15:55:31  5-MIN KARB 142055Z AUTO 30006KT 10SM BKN020 OVC025 16/12 A2964 1100 77 1500 310/06 RMK AO2 T01560117
94889KARB ARB20160314160011903/14/16 16:00:31  5-MIN KARB 142100Z AUTO 30007KT 10SM BKN020 OVC027 16/12 A2964 1100 75 1500 310/07 RMK AO2 T01610117
94889KARB ARB20160314160511903/14/16 16:05:31  5-MIN KARB 142105Z AUTO 31005KT 10SM SCT020 OVC027 16/12 A2964 1100 75 1500 310/05 RMK AO2 T01610117
94889KARB ARB20160314161011903/14/16 16:10:31  5-MIN KARB 142110Z AUTO 30005KT 10SM SCT020 OVC027 16/12 A2964 1100 75 1500 310/05 RMK AO2 T01610117
94889KARB ARB20160314161511903/14/16 16:15:31  5-MIN KARB 142115Z AUTO 32005KT 10SM FEW020 OVC028 16/12 A2964 1100 77 1500 330/05 RMK AO2 T01560117
94889KARB ARB20160314162011903/14/16 16:20:31  5-MIN KARB 142120Z AUTO 32005KT 10SM BKN028 OVC040 16/12 A2964 1100 77 1500 330/05 RMK AO2 T01560117
94889KARB ARB20160314162511903/14/16 16:25:31  5-MIN KARB 142125Z AUTO 32005KT 10SM SCT029 OVC038 16/12 A2964 1100 77 1500 330/05 RMK AO2 T01560117
94889KARB ARB20160314163011203/14/16 16:30:31  5-MIN KARB 142130Z AUTO 30005KT 10SM OVC034 16/12 A2964 1100 77 1500 310/05 RMK AO2 T01560117
94889KARB ARB20160314163511203/14/16 16:35:31  5-MIN KARB 142135Z AUTO 30006KT 10SM OVC034 16/12 A2964 1100 77 1500 310/06 RMK AO2 T01560117
94889KARB ARB20160314164011903/14/16 16:40:31  5-MIN KARB 142140Z AUTO 31006KT 10SM BKN032 OVC039 16/12 A2964 1100 77 1500 310/06 RMK AO2 T01560117
94889KARB ARB20160314164511203/14/16 16:45:31  5-MIN KARB 142145Z AUTO 29004KT 10SM OVC032 16/12 A2964 1100 77 1500 300/04 RMK AO2 T01560117
94889KARB ARB20160314165011903/14/16 16:50:31  5-MIN KARB 142150Z AUTO 30004KT 10SM OVC032 16/12 A2964 1100 77 1500 310/04 RMK AO2 SLP039 T01560117
94889KARB ARB20160314165511203/14/16 16:55:31  5-MIN KARB 142155Z AUTO 30005KT 10SM OVC030 16/12 A2964 1100 77 1500 300/05 RMK AO2 T01560117
94889KARB ARB20160314170011203/14/16 17:00:31  5-MIN KARB 142200Z AUTO 31005KT 10SM OVC030 16/12 A2964 1100 77 1500 310/05 RMK AO2 T01560117
94889KARB ARB20160314170511203/14/16 17:05:31  5-MIN KARB 142205Z AUTO 30005KT 10SM OVC030 16/12 A2965 1100 77 1500 310/05 RMK AO2 T01560117
94889KARB ARB20160314171011203/14/16 17:10:31  5-MIN KARB 142210Z AUTO 30006KT 10SM OVC030 16/12 A2965 1100 77 1500 310/06 RMK AO2 T01560117
94889KARB ARB20160314171511203/14/16 17:15:31  5-MIN KARB 142215Z AUTO 30006KT 10SM OVC030 16/12 A2965 1100 77 1500 310/06 RMK AO2 T01560117
94889KARB ARB20160314172011903/14/16 17:20:31  5-MIN KARB 142220Z AUTO 31004KT 10SM BKN032 OVC050 16/12 A2965 1090 77 1500 310/04 RMK AO2 T01560117
94889KARB ARB20160314172511903/14/16 17:25:31  5-MIN KARB 142225Z AUTO 31005KT 10SM BKN032 OVC050 16/12 A2965 1090 77 1500 320/05 RMK AO2 T01560117
94889KARB ARB20160314173011203/14/16 17:30:31  5-MIN KARB 142230Z AUTO 30005KT 10SM OVC032 16/12 A2965 1090 77 1500 300/05 RMK AO2 T01560117
94889KARB ARB20160314173511203/14/16 17:35:31  5-MIN KARB 142235Z AUTO 31007KT 10SM OVC032 16/12 A2965 1090 77 1500 320/07 RMK AO2 T01560117
94889KARB ARB20160314174011903/14/16 17:40:31  5-MIN KARB 142240Z AUTO 32011KT 10SM FEW019 OVC032 15/12 A2965 1090 80 1400 330/11 RMK AO2 T01500117
94889KARB ARB20160314174511903/14/16 17:45:31  5-MIN KARB 142245Z AUTO 33007KT 10SM SCT017 OVC032 15/11 A2965 1090 77 1400 340/07 RMK AO2 T01500111
94889KARB ARB20160314175010903/14/16 17:50:31  5-MIN KARB 142250Z AUTO 33008KT 10SM BKN017 OVC032 14/11 A2965 1090 80 1300 340/08 RMK AO2
94889KARB ARB20160314175511903/14/16 17:55:31  5-MIN KARB 142255Z AUTO 32007KT 10SM BKN019 OVC032 14/11 A2965 1090 80 1300 330/07 RMK AO2 T01440111
94889KARB ARB20160314180012603/14/16 18:00:31  5-MIN KARB 142300Z AUTO 32009KT 10SM BKN019 BKN025 OVC032 14/11 A2966 1090 80 1300 330/09 RMK AO2 T01440111
94889KARB ARB20160314180511903/14/16 18:05:31  5-MIN KARB 142305Z AUTO 32009KT 10SM BKN019 OVC025 14/11 A2966 1080 80 1300 330/09 RMK AO2 T01440111
94889KARB ARB20160314181011903/14/16 18:10:31  5-MIN KARB 142310Z AUTO 33009KT 10SM BKN019 OVC025 14/11 A2966 1080 77 1300 340/09 RMK AO2 T01440106
94889KARB ARB20160314181511903/14/16 18:15:31  5-MIN KARB 142315Z AUTO 32009KT 10SM BKN019 OVC025 14/11 A2966 1080 80 1200 330/09 RMK AO2 T01390106
94889KARB ARB20160314182011903/14/16 18:20:31  5-MIN KARB 142320Z AUTO 32007KT 10SM BKN021 OVC025 14/11 A2966 1080 80 1200 330/07 RMK AO2 T01390106
94889KARB ARB20160314182511203/14/16 18:25:31  5-MIN KARB 142325Z AUTO 32007KT 10SM OVC023 14/11 A2966 1080 80 1200 330/07 RMK AO2 T01390106
94889KARB ARB20160314183011203/14/16 18:30:31  5-MIN KARB 142330Z AUTO 33008KT 10SM OVC023 14/11 A2966 1080 80 1200 340/08 RMK AO2 T01390106
94889KARB ARB20160314183511203/14/16 18:35:31  5-MIN KARB 142335Z AUTO 33009KT 10SM OVC025 14/11 A2966 1080 80 1200 330/09 RMK AO2 T01390106
94889KARB ARB20160314184011203/14/16 18:40:31  5-MIN KARB 142340Z AUTO 33006KT 10SM OVC025 14/11 A2966 1080 80 1200 340/06 RMK AO2 T01390106
94889KARB ARB20160314184511203/14/16 18:45:31  5-MIN KARB 142345Z AUTO 34007KT 10SM OVC025 14/10 A2966 1080 77 1200 340/07 RMK AO2 T01390100
94889KARB ARB20160314185013703/14/16 18:50:31  5-MIN KARB 142350Z AUTO 34006KT 10SM OVC025 13/10 A2966 1080 80 1200 340/06 RMK AO2 SLP046 T01330100 10167 20133 56008
94889KARB ARB20160314185511203/14/16 18:55:31  5-MIN KARB 142355Z AUTO 34007KT 10SM OVC025 13/10 A2966 1080 80 1200 340/07 RMK AO2 T01330100
94889KARB ARB20160314190011203/14/16 19:00:31  5-MIN KARB 150000Z AUTO 34006KT 10SM OVC025 13/10 A2967 1080 80 1200 350/06 RMK AO2 T01330100
94889KARB ARB20160314190511203/14/16 19:05:31  5-MIN KARB 150005Z AUTO 34007KT 10SM OVC025 13/10 A2966 1080 80 1200 350/07 RMK AO2 T01330100
94889KARB ARB20160314191011203/14/16 19:10:31  5-MIN KARB 150010Z AUTO 34005KT 10SM OVC025 13/10 A2967 1080 80 1200 350/05 RMK AO2 T01330100
94889KARB ARB20160314191511203/14/16 19:15:31  5-MIN KARB 150015Z AUTO 34006KT 10SM OVC025 13/10 A2967 1080 83 1100 350/06 RMK AO2 T01280100
94889KARB ARB20160314192011203/14/16 19:20:31  5-MIN KARB 150020Z AUTO 34005KT 10SM OVC024 13/10 A2967 1070 83 1100 350/05 RMK AO2 T01280100
94889KARB ARB20160314192511903/14/16 19:25:31  5-MIN KARB 150025Z AUTO 35006KT 10SM FEW014 OVC024 13/10 A2967 1070 83 1100 360/06 RMK AO2 T01280100
94889KARB ARB20160314193011903/14/16 19:30:31  5-MIN KARB 150030Z AUTO 34005KT 10SM SCT014 OVC024 13/10 A2967 1070 83 1100 350/05 RMK AO2 T01280100
94889KARB ARB20160314193511903/14/16 19:35:31  5-MIN KARB 150035Z AUTO 35007KT 10SM BKN014 BKN024 12/10 A2967 1070 86 1000 360/07 RMK AO2 T01220100
94889KARB ARB20160314194011903/14/16 19:40:31  5-MIN KARB 150040Z AUTO 35007KT 10SM BKN014 OVC024 12/10 A2967 1070 86 1000 350/07 RMK AO2 T01220100
94889KARB ARB20160314194511903/14/16 19:45:31  5-MIN KARB 150045Z AUTO 35006KT 10SM BKN014 BKN023 12/09 A2967 1070 83 1000 350/06 RMK AO2 T01220094
94889KARB ARB20160314195011903/14/16 19:50:31  5-MIN KARB 150050Z AUTO 35007KT 10SM BKN014 12/09 A2967 1070 83 1000 360/07 RMK AO2 SLP050 T01220094
94889KARB ARB20160314195511203/14/16 19:55:31  5-MIN KARB 150055Z AUTO 35007KT 10SM SCT014 12/09 A2968 1070 86 1000 350/07 RMK AO2 T01170094
94889KARB ARB20160314200011903/14/16 20:00:31  5-MIN KARB 150100Z AUTO 34009KT 10SM SCT014 SCT085 12/09 A2968 1060 86 1000 340/09 RMK AO2 T01170094
94889KARB ARB20160314200511903/14/16 20:05:31  5-MIN KARB 150105Z AUTO 33008KT 10SM SCT014 SCT085 12/09 A2968 1060 86 1000 340/08 RMK AO2 T01170094
94889KARB ARB20160314201011803/14/16 20:10:31  5-MIN KARB 150110Z AUTO 32007KT 10SM SCT016 BKN085 12/09 A2969 1060 86 900 330/07 RMK AO2 T01170094
94889KARB ARB20160314201511803/14/16 20:15:31  5-MIN KARB 150115Z AUTO 32007KT 10SM BKN016 BKN085 12/09 A2969 1050 86 900 330/07 RMK AO2 T01170094
94889KARB ARB20160314202011803/14/16 20:20:31  5-MIN KARB 150120Z AUTO 33008KT 10SM BKN016 BKN085 12/09 A2970 1050 86 900 340/08 RMK AO2 T01170094
94889KARB ARB20160314202512503/14/16 20:25:31  5-MIN KARB 150125Z AUTO 32006KT 10SM SCT010 BKN014 OVC085 12/09 A2970 1040 86 900 330/06 RMK AO2 T01170094
94889KARB ARB20160314203011103/14/16 20:30:31  5-MIN KARB 150130Z AUTO 32009KT 10SM OVC013 12/09 A2971 1040 86 900 330/09 RMK AO2 T01170094
94889KARB ARB20160314203511103/14/16 20:35:31  5-MIN KARB 150135Z AUTO 33009KT 10SM OVC013 11/09 A2971 1040 86 900 330/09 RMK AO2 T01110089
94889KARB ARB20160314204011803/14/16 20:40:31  5-MIN KARB 150140Z AUTO 33009KT 10SM BKN010 OVC015 11/09 A2971 1040 86 900 340/09 RMK AO2 T01110089
94889KARB ARB20160314204511103/14/16 20:45:31  5-MIN KARB 150145Z AUTO 32008KT 10SM OVC010 11/09 A2971 1040 86 900 330/08 RMK AO2 T01110089
94889KARB ARB20160314205011803/14/16 20:50:31  5-MIN KARB 150150Z AUTO 33010KT 10SM OVC010 11/09 A2971 1040 86 900 330/10 RMK AO2 SLP062 T01110089
94889KARB ARB20160314205511103/14/16 20:55:31  5-MIN KARB 150155Z AUTO 33008KT 10SM OVC010 11/09 A2971 1030 86 900 340/08 RMK AO2 T01110089
94889KARB ARB20160314210011103/14/16 21:00:31  5-MIN KARB 150200Z AUTO 34008KT 10SM OVC010 11/09 A2971 1030 86 900 340/08 RMK AO2 T01110089
94889KARB ARB20160314210512303/14/16 21:05:31  5-MIN KARB 150205Z AUTO 33009KT 10SM OVC010 11/09 A2971 1030 86 900 340/09 RMK AO2 CIG 009V013 T01110089
94889KARB ARB20160314211011103/14/16 21:10:31  5-MIN KARB 150210Z AUTO 33009KT 10SM OVC010 11/08 A2971 1030 83 900 340/09 RMK AO2 T01110083
94889KARB ARB20160314211511103/14/16 21:15:31  5-MIN KARB 150215Z AUTO 33009KT 10SM OVC012 11/08 A2971 1030 83 900 340/09 RMK AO2 T01110083
94889KARB ARB20160314212011103/14/16 21:20:31  5-MIN KARB 150220Z AUTO 33010KT 10SM OVC012 11/08 A2972 1030 83 900 340/10 RMK AO2 T01110083
94889KARB ARB20160314212511103/14/16 21:25:31  5-MIN KARB 150225Z AUTO 33008KT 10SM OVC011 11/08 A2972 1030 83 800 340/08 RMK AO2 T01110083
94889KARB ARB20160314213011103/14/16 21:30:31  5-MIN KARB 150230Z AUTO 34007KT 10SM OVC011 11/08 A2972 1030 83 800 340/07 RMK AO2 T01110083
94889KARB ARB20160314213511103/14/16 21:35:31  5-MIN KARB 150235Z AUTO 33008KT 10SM OVC011 11/08 A2972 1030 86 800 340/08 RMK AO2 T01060083
94889KARB ARB20160314214011103/14/16 21:40:31  5-MIN KARB 150240Z AUTO 34007KT 10SM OVC010 11/08 A2972 1030 86 800 340/07 RMK AO2 T01060083
94889KARB ARB20160314214511103/14/16 21:45:31  5-MIN KARB 150245Z AUTO 33009KT 10SM OVC010 11/08 A2972 1030 86 800 340/09 RMK AO2 T01060083
94889KARB ARB20160314215012403/14/16 21:50:31  5-MIN KARB 150250Z AUTO 34008KT 10SM OVC010 11/08 A2972 1020 86 800 340/08 RMK AO2 SLP066 T01060083 53006
94889KARB ARB20160314215511103/14/16 21:55:31  5-MIN KARB 150255Z AUTO 34007KT 10SM OVC010 11/08 A2973 1020 86 800 350/07 RMK AO2 T01060083
94889KARB ARB20160314220011103/14/16 22:00:31  5-MIN KARB 150300Z AUTO 35008KT 10SM OVC010 11/08 A2973 1020 86 800 360/08 RMK AO2 T01060083
94889KARB ARB20160314220511103/14/16 22:05:31  5-MIN KARB 150305Z AUTO 34007KT 10SM OVC010 11/08 A2973 1020 86 800 350/07 RMK AO2 T01060083
94889KARB ARB20160314221011103/14/16 22:10:31  5-MIN KARB 150310Z AUTO 34010KT 10SM OVC010 11/08 A2973 1020 86 800 350/10 RMK AO2 T01060083
94889KARB ARB20160314221511103/14/16 22:15:31  5-MIN KARB 150315Z AUTO 33010KT 10SM OVC010 11/08 A2973 1010 83 800 340/10 RMK AO2 T01060078
94889KARB ARB20160314222011103/14/16 22:20:31  5-MIN KARB 150320Z AUTO 35008KT 10SM OVC010 11/08 A2974 1010 83 800 350/08 RMK AO2 T01060078
94889KARB ARB20160314222511103/14/16 22:25:31  5-MIN KARB 150325Z AUTO 34007KT 10SM OVC010 11/08 A2974 1010 83 800 350/07 RMK AO2 T01060078
94889KARB ARB20160314223013003/14/16 22:30:31  5-MIN KARB 150330Z AUTO 34009KT 10SM BKN010 OVC014 10/08 A2974 1010 86 700 350/09 RMK AO2 CIG 010V013 T01000078
94889KARB ARB20160314223511103/14/16 22:35:31  5-MIN KARB 150335Z AUTO 35006KT 10SM OVC012 11/08 A2974 1010 83 800 360/06 RMK AO2 T01060078
94889KARB ARB20160314224011103/14/16 22:40:31  5-MIN KARB 150340Z AUTO 34006KT 10SM OVC014 10/08 A2974 1010 86 700 350/06 RMK AO2 T01000078
94889KARB ARB20160314224511103/14/16 22:45:31  5-MIN KARB 150345Z AUTO 34006KT 10SM OVC014 11/08 A2974 1010 83 800 350/06 RMK AO2 T01060078
94889KARB ARB20160314225011803/14/16 22:50:31  5-MIN KARB 150350Z AUTO 34007KT 10SM OVC013 10/08 A2974 1010 86 700 340/07 RMK AO2 SLP072 T01000078
94889KARB ARB20160314225511103/14/16 22:55:31  5-MIN KARB 150355Z AUTO 34005KT 10SM OVC013 10/08 A2974 1000 86 700 350/05 RMK AO2 T01000078
94889KARB ARB20160314230011103/14/16 23:00:31  5-MIN KARB 150400Z AUTO 33008KT 10SM OVC013 10/08 A2975 1000 86 700 340/08 RMK AO2 T01000078
94889KARB ARB20160314230511103/14/16 23:05:31  5-MIN KARB 150405Z AUTO 34006KT 10SM OVC013 10/07 A2974 1000 83 700 350/06 RMK AO2 T01000072
94889KARB ARB20160314231011103/14/16 23:10:31  5-MIN KARB 150410Z AUTO 35005KT 10SM OVC013 10/07 A2974 1010 83 700 350/05 RMK AO2 T01000072
94889KARB ARB20160314231511103/14/16 23:15:31  5-MIN KARB 150415Z AUTO 34006KT 10SM OVC013 10/07 A2974 1010 83 700 350/06 RMK AO2 T01000072
94889KARB ARB20160314232011103/14/16 23:20:31  5-MIN KARB 150420Z AUTO 34006KT 10SM OVC013 10/08 A2974 1000 86 700 350/06 RMK AO2 T01000078
94889KARB ARB20160314232511103/14/16 23:25:31  5-MIN KARB 150425Z AUTO 34006KT 10SM OVC013 10/07 A2974 1010 83 700 350/06 RMK AO2 T01000072
94889KARB ARB20160314233011103/14/16 23:30:31  5-MIN KARB 150430Z AUTO 35007KT 10SM OVC014 10/08 A2974 1000 86 700 350/07 RMK AO2 T01000078
94889KARB ARB20160314233511103/14/16 23:35:31  5-MIN KARB 150435Z AUTO 34007KT 10SM OVC014 10/07 A2974 1000 83 700 350/07 RMK AO2 T01000072
94889KARB ARB20160314234011103/14/16 23:40:31  5-MIN KARB 150440Z AUTO 35004KT 10SM OVC014 10/07 A2974 1010 83 700 360/04 RMK AO2 T01000072
94889KARB ARB20160314234511103/14/16 23:45:31  5-MIN KARB 150445Z AUTO 34006KT 10SM OVC014 10/07 A2974 1000 83 700 350/06 RMK AO2 T01000072
94889KARB ARB20160314235010103/14/16 23:50:31  5-MIN KARB 150450Z AUTO 35005KT 10SM OVC015 10/07 A2975 1000 83 700 350/05 RMK AO2
94889KARB ARB20160314235511103/14/16 23:55:31  5-MIN KARB 150455Z AUTO 34005KT 10SM OVC015 10/07 A2975 1000 83 700 350/05 RMK AO2 T01000072
94889KARB ARB20160315000011103/15/16 00:00:31  5-MIN KARB 150500Z AUTO 33006KT 10SM OVC015 10/07 A2975 1000 83 700 330/06 RMK AO2 T01000072
94889KARB ARB20160315000511103/15/16 00:05:31  5-MIN KARB 150505Z AUTO VRB05KT 10SM OVC015 10/07 A2975 1000 83 700 VRB/05 RMK AO2 T01000072
94889KARB ARB20160315001011103/15/16 00:10:31  5-MIN KARB 150510Z AUTO 33007KT 10SM OVC014 10/07 A2975 1000 83 700 340/07 RMK AO2 T01000072
94889KARB ARB20160315001511103/15/16 00:15:31  5-MIN KARB 150515Z AUTO 34007KT 10SM OVC014 10/07 A2975 1000 83 700 350/07 RMK AO2 T01000072
94889KARB ARB20160315002011103/15/16 00:20:31  5-MIN KARB 150520Z AUTO 33007KT 10SM OVC014 10/07 A2975 1000 83 700 340/07 RMK AO2 T01000072
94889KARB ARB20160315002511103/15/16 00:25:31  5-MIN KARB 150525Z AUTO 34006KT 10SM OVC014 10/07 A2975 1000 83 700 350/06 RMK AO2 T01000072
94889KARB ARB20160315003011103/15/16 00:30:31  5-MIN KARB 150530Z AUTO 33008KT 10SM OVC014 10/07 A2975 1000 83 700 340/08 RMK AO2 T01000072
94889KARB ARB20160315003511103/15/16 00:35:31  5-MIN KARB 150535Z AUTO 33007KT 10SM OVC014 10/07 A2975 1000 83 700 340/07 RMK AO2 T01000072
94889KARB ARB20160315004011103/15/16 00:40:31  5-MIN KARB 150540Z AUTO 32007KT 10SM OVC014 10/07 A2975 1000 83 700 330/07 RMK AO2 T01000072
94889KARB ARB20160315004511103/15/16 00:45:31  5-MIN KARB 150545Z AUTO 35006KT 10SM OVC014 10/07 A2975 1000 83 700 350/06 RMK AO2 T01000072
94889KARB ARB20160315005013603/15/16 00:50:31  5-MIN KARB 150550Z AUTO 34007KT 10SM OVC014 10/07 A2975 1000 83 700 340/07 RMK AO2 SLP073 T01000072 10133 20100 51020
94889KARB ARB20160315005511103/15/16 00:55:31  5-MIN KARB 150555Z AUTO 34004KT 10SM OVC015 10/07 A2975 1000 83 700 350/04 RMK AO2 T01000072
94889KARB ARB20160315010011103/15/16 01:00:31  5-MIN KARB 150600Z AUTO 34005KT 10SM OVC015 10/07 A2975 1000 83 700 350/05 RMK AO2 T01000072
94889KARB ARB20160315010511103/15/16 01:05:31  5-MIN KARB 150605Z AUTO 33004KT 10SM OVC015 10/07 A2975 1000 83 700 340/04 RMK AO2 T01000072
94889KARB ARB20160315011011103/15/16 01:10:31  5-MIN KARB 150610Z AUTO 36006KT 10SM OVC015 10/07 A2975 1000 83 700 010/06 RMK AO2 T01000072
94889KARB ARB20160315011511103/15/16 01:15:31  5-MIN KARB 150615Z AUTO 35005KT 10SM OVC015 10/07 A2975 1000 83 700 360/05 RMK AO2 T01000072
94889KARB ARB20160315012011103/15/16 01:20:31  5-MIN KARB 150620Z AUTO 35007KT 10SM OVC015 10/07 A2975 1000 80 700 360/07 RMK AO2 T01000067
94889KARB ARB20160315012511103/15/16 01:25:31  5-MIN KARB 150625Z AUTO 35008KT 10SM OVC015 10/07 A2975 1000 80 700 360/08 RMK AO2 T01000067
94889KARB ARB20160315013011103/15/16 01:30:31  5-MIN KARB 150630Z AUTO 35006KT 10SM OVC015 10/07 A2975 1000 80 700 360/06 RMK AO2 T01000067
94889KARB ARB20160315013511103/15/16 01:35:31  5-MIN KARB 150635Z AUTO 35007KT 10SM OVC015 10/07 A2975 1000 80 700 360/07 RMK AO2 T01000067
94889KARB ARB20160315014011103/15/16 01:40:31  5-MIN KARB 150640Z AUTO 35008KT 10SM OVC015 10/07 A2975 1000 80 700 350/08 RMK AO2 T01000067
94889KARB ARB20160315014511103/15/16 01:45:31  5-MIN KARB 150645Z AUTO 36005KT 10SM OVC016 10/07 A2975 1000 80 700 010/05 RMK AO2 T01000067
94889KARB ARB20160315015011803/15/16 01:50:31  5-MIN KARB 150650Z AUTO 36007KT 10SM OVC016 10/07 A2975 1000 80 700 360/07 RMK AO2 SLP075 T01000067
94889KARB ARB20160315015511103/15/16 01:55:31  5-MIN KARB 150655Z AUTO 35006KT 10SM OVC016 10/07 A2975 1000 80 700 360/06 RMK AO2 T01000067
94889KARB ARB20160315020011103/15/16 02:00:31  5-MIN KARB 150700Z AUTO 34006KT 10SM OVC016 10/07 A2975 1000 80 700 350/06 RMK AO2 T01000067
94889KARB ARB20160315020511103/15/16 02:05:31  5-MIN KARB 150705Z AUTO 34007KT 10SM OVC016 10/07 A2975 1000 80 700 340/07 RMK AO2 T01000067
94889KARB ARB20160315021011103/15/16 02:10:31  5-MIN KARB 150710Z AUTO 33006KT 10SM OVC016 10/07 A2975 1000 80 700 340/06 RMK AO2 T01000067
94889KARB ARB20160315021511103/15/16 02:15:31  5-MIN KARB 150715Z AUTO 34007KT 10SM OVC016 10/07 A2975 1000 80 700 340/07 RMK AO2 T01000067
94889KARB ARB20160315022011103/15/16 02:20:31  5-MIN KARB 150720Z AUTO 34006KT 10SM OVC016 10/06 A2975 1000 77 700 350/06 RMK AO2 T01000061
94889KARB ARB20160315022511103/15/16 02:25:31  5-MIN KARB 150725Z AUTO 34005KT 10SM OVC016 10/06 A2975 1000 77 700 350/05 RMK AO2 T01000061
94889KARB ARB20160315023011103/15/16 02:30:31  5-MIN KARB 150730Z AUTO 35005KT 10SM OVC016 10/07 A2975 1000 80 700 360/05 RMK AO2 T01000067
94889KARB ARB20160315023511103/15/16 02:35:31  5-MIN KARB 150735Z AUTO 34007KT 10SM OVC016 10/07 A2975 1000 80 700 350/07 RMK AO2 T01000067
94889KARB ARB20160315024011103/15/16 02:40:31  5-MIN KARB 150740Z AUTO 34007KT 10SM OVC016 10/07 A2975 1000 80 700 350/07 RMK AO2 T01000067
94889KARB ARB20160315024511103/15/16 02:45:31  5-MIN KARB 150745Z AUTO 35007KT 10SM OVC016 10/07 A2975 1000 80 700 350/07 RMK AO2 T01000067
94889KARB ARB20160315025011803/15/16 02:50:31  5-MIN KARB 150750Z AUTO 36007KT 10SM OVC016 10/07 A2975 1000 80 700 010/07 RMK AO2 SLP073 T01000067
94889KARB ARB20160315025511103/15/16 02:55:31  5-MIN KARB 150755Z AUTO 36005KT 10SM OVC016 10/07 A2975 1000 80 700 010/05 RMK AO2 T01000067
94889KARB ARB20160315030011103/15/16 03:00:31  5-MIN KARB 150800Z AUTO 33004KT 10SM OVC015 10/07 A2975 1000 80 700 340/04 RMK AO2 T01000067
94889KARB ARB20160315030511103/15/16 03:05:31  5-MIN KARB 150805Z AUTO 33006KT 10SM OVC015 09/07 A2975 1000 83 600 340/06 RMK AO2 T00940067
94889KARB ARB20160315031011003/15/16 03:10:31  5-MIN KARB 150810Z AUTO 34005KT 10SM OVC015 10/07 A2976 990 80 700 350/05 RMK AO2 T01000067
94889KARB ARB20160315031511003/15/16 03:15:31  5-MIN KARB 150815Z AUTO 33005KT 10SM OVC015 09/07 A2976 990 83 600 340/05 RMK AO2 T00940067
94889KARB ARB20160315032011003/15/16 03:20:31  5-MIN KARB 150820Z AUTO 34005KT 10SM OVC015 09/07 A2976 990 83 600 340/05 RMK AO2 T00940067
94889KARB ARB20160315032511003/15/16 03:25:31  5-MIN KARB 150825Z AUTO 32006KT 10SM OVC015 09/07 A2976 990 83 600 330/06 RMK AO2 T00940067
94889KARB ARB20160315033011003/15/16 03:30:31  5-MIN KARB 150830Z AUTO 34005KT 10SM OVC014 09/07 A2976 990 83 600 350/05 RMK AO2 T00940067
94889KARB ARB20160315033511003/15/16 03:35:31  5-MIN KARB 150835Z AUTO 34006KT 10SM OVC014 09/07 A2976 990 83 600 350/06 RMK AO2 T00940067
94889KARB ARB20160315034011003/15/16 03:40:31  5-MIN KARB 150840Z AUTO 32007KT 10SM OVC014 09/07 A2976 990 83 600 330/07 RMK AO2 T00940067
94889KARB ARB20160315034511003/15/16 03:45:31  5-MIN KARB 150845Z AUTO 32007KT 10SM OVC014 09/07 A2976 990 83 600 330/07 RMK AO2 T00940067
94889KARB ARB20160315035012303/15/16 03:50:31  5-MIN KARB 150850Z AUTO 35005KT 10SM OVC014 09/07 A2976 990 83 600 360/05 RMK AO2 SLP080 T00940067 51007
94889KARB ARB20160315035511003/15/16 03:55:31  5-MIN KARB 150855Z AUTO 36005KT 10SM OVC014 09/07 A2976 990 83 600 010/05 RMK AO2 T00940067
94889KARB ARB20160315040011003/15/16 04:00:31  5-MIN KARB 150900Z AUTO 36005KT 10SM OVC014 09/07 A2976 990 83 600 010/05 RMK AO2 T00940067
94889KARB ARB20160315040511003/15/16 04:05:31  5-MIN KARB 150905Z AUTO 01006KT 10SM OVC014 09/07 A2977 980 83 600 010/06 RMK AO2 T00940067
94889KARB ARB20160315041011003/15/16 04:10:31  5-MIN KARB 150910Z AUTO 32005KT 10SM OVC014 09/07 A2977 980 83 600 330/05 RMK AO2 T00940067
94889KARB ARB20160315041511003/15/16 04:15:31  5-MIN KARB 150915Z AUTO 31006KT 10SM OVC014 09/07 A2977 980 83 600 320/06 RMK AO2 T00940067
94889KARB ARB20160315042011003/15/16 04:20:31  5-MIN KARB 150920Z AUTO 32006KT 10SM OVC014 09/06 A2977 980 79 600 330/06 RMK AO2 T00940061
94889KARB ARB20160315042511003/15/16 04:25:31  5-MIN KARB 150925Z AUTO 33006KT 10SM OVC014 09/06 A2977 980 79 600 330/06 RMK AO2 T00940061
94889KARB ARB20160315043011003/15/16 04:30:31  5-MIN KARB 150930Z AUTO 36005KT 10SM OVC014 09/06 A2978 980 79 600 010/05 RMK AO2 T00940061
94889KARB ARB20160315043511003/15/16 04:35:31  5-MIN KARB 150935Z AUTO 36006KT 10SM OVC014 09/06 A2978 980 79 600 010/06 RMK AO2 T00940061
94889KARB ARB20160315044011003/15/16 04:40:31  5-MIN KARB 150940Z AUTO 35004KT 10SM OVC014 09/06 A2978 980 79 600 360/04 RMK AO2 T00940061
94889KARB ARB20160315044511003/15/16 04:45:31  5-MIN KARB 150945Z AUTO 34004KT 10SM OVC015 09/06 A2978 980 79 600 350/04 RMK AO2 T00940061
94889KARB ARB20160315045010003/15/16 04:50:31  5-MIN KARB 150950Z AUTO 34007KT 10SM OVC015 09/06 A2978 970 79 600 340/07 RMK AO2
94889KARB ARB20160315045511003/15/16 04:55:31  5-MIN KARB 150955Z AUTO 32006KT 10SM OVC015 09/06 A2978 970 79 600 330/06 RMK AO2 T00940061
94889KARB ARB20160315050011003/15/16 05:00:31  5-MIN KARB 151000Z AUTO 34005KT 10SM OVC015 09/06 A2978 970 79 600 340/05 RMK AO2 T00940061
94889KARB ARB20160315050511003/15/16 05:05:31  5-MIN KARB 151005Z AUTO 35006KT 10SM OVC015 09/06 A2978 970 79 600 360/06 RMK AO2 T00940061
94889KARB ARB20160315051011003/15/16 05:10:31  5-MIN KARB 151010Z AUTO 01006KT 10SM OVC015 09/06 A2978 970 79 600 020/06 RMK AO2 T00940061
94889KARB ARB20160315051511003/15/16 05:15:31  5-MIN KARB 151015Z AUTO 34004KT 10SM OVC015 09/06 A2979 970 79 600 350/04 RMK AO2 T00940061
94889KARB ARB20160315052011003/15/16 05:20:31  5-MIN KARB 151020Z AUTO 33004KT 10SM OVC015 09/06 A2978 970 79 600 340/04 RMK AO2 T00940061
94889KARB ARB20160315052511003/15/16 05:25:31  5-MIN KARB 151025Z AUTO 31005KT 10SM OVC015 09/06 A2978 970 83 500 320/05 RMK AO2 T00890061
94889KARB ARB20160315053011003/15/16 05:30:31  5-MIN KARB 151030Z AUTO 32004KT 10SM OVC015 09/06 A2978 970 79 600 330/04 RMK AO2 T00940061
94889KARB ARB20160315053511003/15/16 05:35:31  5-MIN KARB 151035Z AUTO 33006KT 10SM OVC015 09/06 A2978 970 83 500 330/06 RMK AO2 T00890061
94889KARB ARB20160315054011003/15/16 05:40:31  5-MIN KARB 151040Z AUTO 32003KT 10SM OVC015 09/06 A2978 970 79 600 330/03 RMK AO2 T00940061
94889KARB ARB20160315054511003/15/16 05:45:31  5-MIN KARB 151045Z AUTO 31003KT 10SM OVC015 09/06 A2978 970 83 500 320/03 RMK AO2 T00890061
94889KARB ARB20160315055011703/15/16 05:50:31  5-MIN KARB 151050Z AUTO 31003KT 10SM OVC015 09/06 A2978 970 83 500 320/03 RMK AO2 SLP085 T00890061
94889KARB ARB20160315055511003/15/16 05:55:31  5-MIN KARB 151055Z AUTO 30004KT 10SM OVC014 09/06 A2978 970 83 500 300/04 RMK AO2 T00890061
94889KARB ARB20160315060011003/15/16 06:00:31  5-MIN KARB 151100Z AUTO 30005KT 10SM OVC014 09/06 A2978 970 83 500 310/05 RMK AO2 T00890061
94889KARB ARB20160315060511003/15/16 06:05:31  5-MIN KARB 151105Z AUTO 30005KT 10SM OVC014 09/06 A2978 970 83 500 300/05 RMK AO2 T00890061
94889KARB ARB20160315061011003/15/16 06:10:31  5-MIN KARB 151110Z AUTO 30003KT 10SM OVC014 09/06 A2979 970 83 500 310/03 RMK AO2 T00890061
94889KARB ARB20160315061511003/15/16 06:15:31  5-MIN KARB 151115Z AUTO 31004KT 10SM OVC014 09/06 A2979 970 83 500 310/04 RMK AO2 T00890061
94889KARB ARB20160315062011003/15/16 06:20:31  5-MIN KARB 151120Z AUTO 30003KT 10SM OVC014 09/06 A2979 970 83 500 300/03 RMK AO2 T00890061
94889KARB ARB20160315062511003/15/16 06:25:31  5-MIN KARB 151125Z AUTO 30003KT 10SM OVC014 09/06 A2979 960 83 500 300/03 RMK AO2 T00890061
94889KARB ARB20160315063011003/15/16 06:30:31  5-MIN KARB 151130Z AUTO 31003KT 10SM OVC014 09/06 A2979 970 83 500 320/03 RMK AO2 T00890061
94889KARB ARB20160315063511003/15/16 06:35:31  5-MIN KARB 151135Z AUTO 31003KT 10SM OVC014 09/06 A2979 960 83 500 320/03 RMK AO2 T00890061
94889KARB ARB20160315064011003/15/16 06:40:31  5-MIN KARB 151140Z AUTO 31003KT 10SM OVC014 09/06 A2979 960 83 500 310/03 RMK AO2 T00890061
94889KARB ARB20160315064511003/15/16 06:45:31  5-MIN KARB 151145Z AUTO 00000KT 10SM OVC014 09/06 A2979 960 83 500 000/00 RMK AO2 T00890061
94889KARB ARB20160315065013503/15/16 06:50:31  5-MIN KARB 151150Z AUTO 28005KT 10SM OVC014 09/06 A2980 960 83 500 290/05 RMK AO2 SLP091 T00890061 10100 20089 53006
94889KARB ARB20160315065510503/15/16 06:55:31  5-MIN KARB 151155Z 28005KT 10SM OVC014 09/06 A2980 950 83 500 290/05 RMK AO2 T00890061
94889KARB ARB20160315070010503/15/16 07:00:31  5-MIN KARB 151200Z 28005KT 10SM OVC014 09/06 A2980 950 83 500 280/05 RMK AO2 T00890061
94889KARB ARB20160315070510503/15/16 07:05:31  5-MIN KARB 151205Z 28005KT 10SM OVC014 08/06 A2981 950 86 400 290/05 RMK AO2 T00830061
94889KARB ARB20160315071010503/15/16 07:10:31  5-MIN KARB 151210Z 29005KT 10SM OVC014 08/06 A2981 940 86 400 290/05 RMK AO2 T00830061
94889KARB ARB20160315071510503/15/16 07:15:31  5-MIN KARB 151215Z 29005KT 10SM OVC014 09/06 A2981 940 83 500 290/05 RMK AO2 T00890061
94889KARB ARB20160315072010503/15/16 07:20:31  5-MIN KARB 151220Z 30004KT 10SM OVC014 09/06 A2981 940 83 500 310/04 RMK AO2 T00890061
94889KARB ARB20160315072510503/15/16 07:25:31  5-MIN KARB 151225Z 29005KT 10SM OVC014 09/06 A2982 940 83 500 290/05 RMK AO2 T00890061
94889KARB ARB20160315073010503/15/16 07:30:31  5-MIN KARB 151230Z 29005KT 10SM OVC014 09/06 A2982 940 83 500 300/05 RMK AO2 T00890061
94889KARB ARB20160315073510503/15/16 07:35:31  5-MIN KARB 151235Z 30005KT 10SM OVC014 09/06 A2982 930 83 500 310/05 RMK AO2 T00890061
94889KARB ARB20160315074010503/15/16 07:40:31  5-MIN KARB 151240Z 32004KT 10SM OVC014 09/06 A2982 930 83 500 330/04 RMK AO2 T00890061
94889KARB ARB20160315074510503/15/16 07:45:31  5-MIN KARB 151245Z 32005KT 10SM OVC014 09/06 A2982 930 83 500 320/05 RMK AO2 T00890061
94889KARB ARB20160315075011203/15/16 07:50:31  5-MIN KARB 151250Z 28004KT 10SM OVC014 09/06 A2982 930 79 500 290/04 RMK AO2 SLP100 T00890056
94889KARB ARB20160315075510503/15/16 07:55:31  5-MIN KARB 151255Z 27005KT 10SM OVC014 09/06 A2983 930 83 500 280/05 RMK AO2 T00890061
94889KARB ARB20160315080010503/15/16 08:00:31  5-MIN KARB 151300Z 26004KT 10SM OVC013 09/06 A2983 920 83 500 270/04 RMK AO2 T00890061
94889KARB ARB20160315080510503/15/16 08:05:31  5-MIN KARB 151305Z 26004KT 10SM OVC013 09/06 A2983 920 83 400 270/04 RMK AO2 T00890061
94889KARB ARB20160315081010503/15/16 08:10:31  5-MIN KARB 151310Z 29005KT 10SM OVC013 09/06 A2984 920 79 400 300/05 RMK AO2 T00890056
94889KARB ARB20160315081510503/15/16 08:15:31  5-MIN KARB 151315Z 30004KT 10SM OVC013 09/06 A2984 910 83 400 310/04 RMK AO2 T00890061
94889KARB ARB20160315082010503/15/16 08:20:31  5-MIN KARB 151320Z 30005KT 10SM OVC013 09/06 A2984 910 83 400 300/05 RMK AO2 T00890061
94889KARB ARB20160315082510503/15/16 08:25:31  5-MIN KARB 151325Z 32004KT 10SM OVC013 09/06 A2984 910 79 400 320/04 RMK AO2 T00890056
94889KARB ARB20160315083010503/15/16 08:30:31  5-MIN KARB 151330Z 00000KT 10SM OVC013 09/06 A2985 910 79 400 000/00 RMK AO2 T00890056
94889KARB ARB20160315083510503/15/16 08:35:31  5-MIN KARB 151335Z 00000KT 10SM OVC013 09/06 A2985 910 79 400 000/00 RMK AO2 T00890056
94889KARB ARB20160315084010503/15/16 08:40:31  5-MIN KARB 151340Z 33004KT 10SM OVC013 09/06 A2985 910 79 400 330/04 RMK AO2 T00890056
94889KARB ARB20160315084510503/15/16 08:45:31  5-MIN KARB 151345Z 35005KT 10SM OVC013 09/06 A2985 910 79 400 350/05 RMK AO2 T00890056
94889KARB ARB20160315085011203/15/16 08:50:31  5-MIN KARB 151350Z 32004KT 10SM OVC013 09/06 A2984 910 79 400 330/04 RMK AO2 SLP107 T00890056
94889KARB ARB20160315085510503/15/16 08:55:31  5-MIN KARB 151355Z 02003KT 10SM OVC013 09/06 A2984 910 79 500 030/03 RMK AO2 T00940061
94889KARB ARB20160315090010503/15/16 09:00:31  5-MIN KARB 151400Z 05003KT 10SM OVC013 09/06 A2984 920 76 500 050/03 RMK AO2 T00940056
94889KARB ARB20160315090510503/15/16 09:05:31  5-MIN KARB 151405Z 05003KT 10SM OVC013 09/06 A2984 920 79 500 050/03 RMK AO2 T00940061
94889KARB ARB20160315091010503/15/16 09:10:31  5-MIN KARB 151410Z 00000KT 10SM OVC013 09/06 A2984 910 79 500 000/00 RMK AO2 T00940061
94889KARB ARB20160315091510503/15/16 09:15:31  5-MIN KARB 151415Z 00000KT 10SM OVC013 09/06 A2984 910 79 500 000/00 RMK AO2 T00940061
94889KARB ARB20160315092010503/15/16 09:20:31  5-MIN KARB 151420Z 00000KT 10SM OVC013 09/06 A2984 910 79 500 000/00 RMK AO2 T00940061
94889KARB ARB20160315092510503/15/16 09:25:31  5-MIN KARB 151425Z 03003KT 10SM OVC013 09/06 A2984 920 79 500 040/03 RMK AO2 T00940061
94889KARB ARB20160315093010503/15/16 09:30:31  5-MIN KARB 151430Z 00000KT 10SM OVC013 09/06 A2984 920 76 500 000/00 RMK AO2 T00940056
94889KARB ARB20160315093510503/15/16 09:35:31  5-MIN KARB 151435Z 00000KT 10SM OVC013 09/06 A2984 920 79 500 000/00 RMK AO2 T00940061
94889KARB ARB20160315094010503/15/16 09:40:31  5-MIN KARB 151440Z 04005KT 10SM OVC013 09/06 A2984 920 79 500 050/05 RMK AO2 T00940061
94889KARB ARB20160315094510503/15/16 09:45:31  5-MIN KARB 151445Z 03004KT 10SM OVC013 09/06 A2984 920 76 500 040/04 RMK AO2 T00940056
94889KARB ARB20160315095011803/15/16 09:50:31  5-MIN KARB 151450Z 00000KT 10SM OVC013 09/06 A2984 910 79 500 000/00 RMK AO2 SLP107 T00940061 53007
94889KARB ARB20160315095510503/15/16 09:55:31  5-MIN KARB 151455Z 02004KT 10SM OVC014 09/06 A2984 910 79 500 020/04 RMK AO2 T00940061
94889KARB ARB20160315100010503/15/16 10:00:31  5-MIN KARB 151500Z 01005KT 10SM OVC014 09/06 A2985 910 76 500 010/05 RMK AO2 T00940056
94889KARB ARB20160315100510503/15/16 10:05:31  5-MIN KARB 151505Z 36006KT 10SM OVC014 09/06 A2985 910 76 500 010/06 RMK AO2 T00940056
94889KARB ARB20160315101010503/15/16 10:10:31  5-MIN KARB 151510Z 03003KT 10SM OVC014 09/06 A2985 900 76 500 040/03 RMK AO2 T00940056
94889KARB ARB20160315101510503/15/16 10:15:31  5-MIN KARB 151515Z 32005KT 10SM OVC014 09/06 A2985 900 76 500 320/05 RMK AO2 T00940056
94889KARB ARB20160315102010503/15/16 10:20:31  5-MIN KARB 151520Z 34004KT 10SM OVC014 10/06 A2985 900 74 600 350/04 RMK AO2 T01000056
94889KARB ARB20160315102510503/15/16 10:25:31  5-MIN KARB 151525Z 00000KT 10SM OVC015 09/06 A2985 900 76 500 000/00 RMK AO2 T00940056
94889KARB ARB20160315103010503/15/16 10:30:31  5-MIN KARB 151530Z 01004KT 10SM OVC015 10/06 A2986 900 74 600 020/04 RMK AO2 T01000056
94889KARB ARB20160315103510503/15/16 10:35:31  5-MIN KARB 151535Z 35003KT 10SM OVC015 10/06 A2986 900 74 600 360/03 RMK AO2 T01000056
94889KARB ARB20160315104010503/15/16 10:40:31  5-MIN KARB 151540Z 00000KT 10SM OVC015 10/06 A2986 900 77 600 000/00 RMK AO2 T01000061
94889KARB ARB20160315104510503/15/16 10:45:31  5-MIN KARB 151545Z 00000KT 10SM OVC015 10/06 A2986 890 74 500 000/00 RMK AO2 T01000056
94889KARB ARB20160315105011203/15/16 10:50:31  5-MIN KARB 151550Z 00000KT 10SM OVC015 10/06 A2987 890 77 500 000/00 RMK AO2 SLP115 T01000061
94889KARB ARB20160315105510503/15/16 10:55:31  5-MIN KARB 151555Z 00000KT 10SM OVC015 10/06 A2987 890 77 500 000/00 RMK AO2 T01000061
94889KARB ARB20160315110010503/15/16 11:00:31  5-MIN KARB 151600Z 31003KT 10SM OVC015 10/06 A2986 890 77 500 320/03 RMK AO2 T01000061
94889KARB ARB20160315110510503/15/16 11:05:31  5-MIN KARB 151605Z 00000KT 10SM OVC015 10/06 A2987 890 74 500 000/00 RMK AO2 T01000056
94889KARB ARB20160315111010503/15/16 11:10:31  5-MIN KARB 151610Z 00000KT 10SM OVC016 10/06 A2986 890 77 500 000/00 RMK AO2 T01000061
94889KARB ARB20160315111510503/15/16 11:15:31  5-MIN KARB 151615Z 00000KT 10SM OVC016 10/06 A2986 900 77 600 000/00 RMK AO2 T01000061
94889KARB ARB20160315112010503/15/16 11:20:31  5-MIN KARB 151620Z 00000KT 10SM OVC016 10/06 A2986 900 77 600 000/00 RMK AO2 T01000061
94889KARB ARB20160315112510503/15/16 11:25:31  5-MIN KARB 151625Z 00000KT 10SM OVC016 10/06 A2985 900 77 600 000/00 RMK AO2 T01000061
94889KARB ARB20160315113010503/15/16 11:30:31  5-MIN KARB 151630Z VRB03KT 10SM OVC016 11/06 A2985 910 74 600 VRB/03 RMK AO2 T01060061
94889KARB ARB20160315113510503/15/16 11:35:31  5-MIN KARB 151635Z 00000KT 10SM OVC017 10/06 A2985 910 77 600 000/00 RMK AO2 T01000061
94889KARB ARB20160315114010503/15/16 11:40:31  5-MIN KARB 151640Z 00000KT 10SM OVC017 10/06 A2985 910 74 600 000/00 RMK AO2 T01000056
94889KARB ARB20160315114510503/15/16 11:45:31  5-MIN KARB 151645Z 00000KT 10SM OVC017 10/06 A2985 910 74 600 000/00 RMK AO2 T01000056
94889KARB ARB20160315115011203/15/16 11:50:31  5-MIN KARB 151650Z 00000KT 10SM OVC017 11/06 A2985 910 74 600 000/00 RMK AO2 SLP109 T01060061
94889KARB ARB20160315115510503/15/16 11:55:31  5-MIN KARB 151655Z 12003KT 10SM OVC017 11/06 A2985 910 74 600 130/03 RMK AO2 T01060061
94889KARB ARB20160315120010503/15/16 12:00:31  5-MIN KARB 151700Z 00000KT 10SM OVC017 11/06 A2985 910 71 700 000/00 RMK AO2 T01110061
94889KARB ARB20160315120510503/15/16 12:05:31  5-MIN KARB 151705Z 10004KT 10SM OVC017 11/06 A2985 900 71 700 100/04 RMK AO2 T01110061
94889KARB ARB20160315121010503/15/16 12:10:31  5-MIN KARB 151710Z 00000KT 10SM OVC017 11/06 A2985 910 74 600 000/00 RMK AO2 T01060061
94889KARB ARB20160315121510503/15/16 12:15:31  5-MIN KARB 151715Z 05005KT 10SM OVC018 11/06 A2985 910 71 700 060/05 RMK AO2 T01110061
94889KARB ARB20160315122010503/15/16 12:20:31  5-MIN KARB 151720Z 00000KT 10SM OVC018 11/06 A2985 910 71 700 000/00 RMK AO2 T01110061
94889KARB ARB20160315122510503/15/16 12:25:31  5-MIN KARB 151725Z 00000KT 10SM OVC018 12/06 A2985 910 68 800 000/00 RMK AO2 T01170061
94889KARB ARB20160315123010503/15/16 12:30:31  5-MIN KARB 151730Z 12005KT 10SM OVC018 11/06 A2984 910 71 700 130/05 RMK AO2 T01110061
94889KARB ARB20160315123510503/15/16 12:35:31  5-MIN KARB 151735Z VRB05KT 10SM OVC018 11/06 A2984 920 71 700 VRB/05 RMK AO2 T01110061
94889KARB ARB20160315124010503/15/16 12:40:31  5-MIN KARB 151740Z 00000KT 10SM OVC018 12/06 A2984 920 68 800 000/00 RMK AO2 T01170061
94889KARB ARB20160315124510503/15/16 12:45:31  5-MIN KARB 151745Z 13004KT 10SM OVC018 11/06 A2983 920 71 700 140/04 RMK AO2 T01110061
94889KARB ARB20160315125013003/15/16 12:50:31  5-MIN KARB 151750Z 15007KT 10SM OVC018 12/07 A2983 920 71 800 150/07 RMK AO2 SLP104 T01170067 10117 20083 51015
94889KARB ARB20160315125510503/15/16 12:55:31  5-MIN KARB 151755Z 14006KT 10SM OVC018 12/07 A2984 920 68 800 150/06 RMK AO2 T01220067
94889KARB ARB20160315130010503/15/16 13:00:31  5-MIN KARB 151800Z 16005KT 10SM OVC019 12/07 A2984 920 71 800 170/05 RMK AO2 T01170067
94889KARB ARB20160315130510503/15/16 13:05:31  5-MIN KARB 151805Z 13003KT 10SM OVC019 12/07 A2984 920 68 800 140/03 RMK AO2 T01220067
94889KARB ARB20160315131010503/15/16 13:10:31  5-MIN KARB 151810Z 14004KT 10SM BKN019 11/06 A2983 930 71 700 150/04 RMK AO2 T01110061
94889KARB ARB20160315131510503/15/16 13:15:31  5-MIN KARB 151815Z 00000KT 10SM BKN020 12/06 A2983 930 68 800 000/00 RMK AO2 T01170061
94889KARB ARB20160315132009503/15/16 13:20:31  5-MIN KARB 151820Z 10SM OVC020 12/07 A2983 920 71 800 M /M RMK AO2 T01170067
94889KARB ARB20160315132509503/15/16 13:25:31  5-MIN KARB 151825Z 10SM OVC020 12/07 A2983 930 71 800 M /M RMK AO2 T01170067
94889KARB ARB20160315133010503/15/16 13:30:31  5-MIN KARB 151830Z 15005KT 10SM BKN020 12/07 A2983 920 71 800 150/05 RMK AO2 T01170067
94889KARB ARB20160315133510503/15/16 13:35:31  5-MIN KARB 151835Z VRB06KT 10SM BKN021 12/07 A2983 920 71 800 VRB/06 RMK AO2 T01170067
94889KARB ARB20160315134010503/15/16 13:40:31  5-MIN KARB 151840Z VRB05KT 10SM OVC021 12/07 A2983 930 71 800 VRB/05 RMK AO2 T01170067
94889KARB ARB20160315134510503/15/16 13:45:31  5-MIN KARB 151845Z 12005KT 10SM OVC020 12/07 A2983 930 71 800 130/05 RMK AO2 T01170067
94889KARB ARB20160315135011203/15/16 13:50:31  5-MIN KARB 151850Z VRB03KT 10SM OVC020 12/07 A2982 930 71 800 VRB/03 RMK AO2 SLP100 T01170067
94889KARB ARB20160315135510503/15/16 13:55:31  5-MIN KARB 151855Z 15006KT 10SM OVC020 12/07 A2982 940 68 900 160/06 RMK AO2 T01220067
94889KARB ARB20160315140010503/15/16 14:00:31  5-MIN KARB 151900Z 11006KT 10SM OVC020 12/07 A2982 940 68 900 120/06 RMK AO2 T01220067
94889KARB ARB20160315140510503/15/16 14:05:31  5-MIN KARB 151905Z VRB03KT 10SM OVC021 12/07 A2982 940 71 800 VRB/03 RMK AO2 T01170067
94889KARB ARB20160315141009503/15/16 14:10:31  5-MIN KARB 151910Z 10SM OVC021 12/07 A2982 940 68 900 M /M RMK AO2 T01220067
94889KARB ARB20160315141510503/15/16 14:15:31  5-MIN KARB 151915Z 16005KT 10SM OVC021 12/07 A2981 940 68 900 170/05 RMK AO2 T01220067
94889KARB ARB20160315142010503/15/16 14:20:31  5-MIN KARB 151920Z 18006KT 10SM OVC021 12/07 A2981 940 68 900 180/06 RMK AO2 T01220067
94889KARB ARB20160315142510503/15/16 14:25:31  5-MIN KARB 151925Z 17007KT 10SM OVC021 13/07 A2981 940 66 900 180/07 RMK AO2 T01280067
94889KARB ARB20160315143010503/15/16 14:30:31  5-MIN KARB 151930Z VRB06KT 10SM OVC021 12/07 A2981 940 68 900 VRB/06 RMK AO2 T01220067
94889KARB ARB20160315143510503/15/16 14:35:31  5-MIN KARB 151935Z 19007KT 10SM OVC021 13/07 A2981 940 66 900 200/07 RMK AO2 T01280067
94889KARB ARB20160315144010503/15/16 14:40:31  5-MIN KARB 151940Z VRB03KT 10SM OVC021 13/07 A2981 940 66 900 VRB/03 RMK AO2 T01280067
94889KARB ARB20160315144510503/15/16 14:45:31  5-MIN KARB 151945Z 16005KT 10SM BKN021 12/07 A2981 940 68 900 170/05 RMK AO2 T01220067
94889KARB ARB20160315145011203/15/16 14:50:31  5-MIN KARB 151950Z 18006KT 10SM OVC022 13/07 A2981 940 66 900 180/06 RMK AO2 SLP095 T01280067
94889KARB ARB20160315145510503/15/16 14:55:31  5-MIN KARB 151955Z 18004KT 10SM BKN022 13/07 A2981 940 66 900 190/04 RMK AO2 T01280067
94889KARB ARB20160315150010503/15/16 15:00:31  5-MIN KARB 152000Z VRB03KT 10SM OVC022 12/07 A2981 940 68 900 VRB/03 RMK AO2 T01220067
94889KARB ARB20160315150510603/15/16 15:05:31  5-MIN KARB 152005Z 14005KT 10SM OVC022 13/07 A2981 940 64 1000 140/05 RMK AO2 T01330067
94889KARB ARB20160315151010603/15/16 15:10:31  5-MIN KARB 152010Z VRB05KT 10SM OVC023 14/07 A2981 950 64 1100 VRB/05 RMK AO2 T01390072
94889KARB ARB20160315151510603/15/16 15:15:31  5-MIN KARB 152015Z VRB05KT 10SM OVC023 14/07 A2980 950 64 1100 VRB/05 RMK AO2 T01390072
94889KARB ARB20160315152010603/15/16 15:20:31  5-MIN KARB 152020Z VRB06KT 10SM OVC023 14/07 A2980 950 64 1100 VRB/06 RMK AO2 T01390072
94889KARB ARB20160315152510603/15/16 15:25:31  5-MIN KARB 152025Z 09010KT 10SM OVC024 13/07 A2980 960 66 1000 100/10 RMK AO2 T01330072
94889KARB ARB20160315153010603/15/16 15:30:31  5-MIN KARB 152030Z 07011KT 10SM BKN024 13/07 A2980 960 69 1000 080/11 RMK AO2 T01280072
94889KARB ARB20160315153510503/15/16 15:35:31  5-MIN KARB 152035Z 08010KT 10SM BKN024 12/07 A2980 960 71 900 090/10 RMK AO2 T01220072
94889KARB ARB20160315154010503/15/16 15:40:31  5-MIN KARB 152040Z 08010KT 10SM BKN023 12/07 A2979 960 71 900 090/10 RMK AO2 T01220072
94889KARB ARB20160315154511203/15/16 15:45:31  5-MIN KARB 152045Z 08007KT 10SM BKN019 BKN024 12/07 A2980 960 74 800 090/07 RMK AO2 T01170072
94889KARB ARB20160315155012503/15/16 15:50:31  5-MIN KARB 152050Z 10008KT 10SM BKN019 BKN024 12/07 A2980 950 74 800 110/08 RMK AO2 SLP092 T01170072 58003
94889KARB ARB20160315155511003/15/16 15:55:31  5-MIN KARB 152055Z AUTO 12008KT 10SM BKN019 12/07 A2980 960 74 800 120/08 RMK AO2 T01170072
94889KARB ARB20160315160011003/15/16 16:00:31  5-MIN KARB 152100Z AUTO 11008KT 10SM BKN018 12/07 A2980 960 71 900 120/08 RMK AO2 T01220072
94889KARB ARB20160315160511003/15/16 16:05:31  5-MIN KARB 152105Z AUTO 11009KT 10SM BKN018 12/07 A2980 960 71 900 120/09 RMK AO2 T01220072
94889KARB ARB20160315161011003/15/16 16:10:31  5-MIN KARB 152110Z AUTO 11008KT 10SM BKN018 12/07 A2980 960 71 900 120/08 RMK AO2 T01220072
94889KARB ARB20160315161511003/15/16 16:15:31  5-MIN KARB 152115Z AUTO 10009KT 10SM OVC018 12/07 A2980 960 71 900 110/09 RMK AO2 T01220072
94889KARB ARB20160315162011003/15/16 16:20:31  5-MIN KARB 152120Z AUTO 12009KT 10SM OVC020 12/07 A2979 960 74 800 130/09 RMK AO2 T01170072
94889KARB ARB20160315162511003/15/16 16:25:31  5-MIN KARB 152125Z AUTO 11006KT 10SM OVC020 12/07 A2979 960 74 800 120/06 RMK AO2 T01170072
94889KARB ARB20160315163011003/15/16 16:30:31  5-MIN KARB 152130Z AUTO 13010KT 10SM OVC020 12/07 A2980 960 74 800 130/10 RMK AO2 T01170072
94889KARB ARB20160315163511003/15/16 16:35:31  5-MIN KARB 152135Z AUTO 11008KT 10SM OVC020 11/07 A2980 960 74 800 110/08 RMK AO2 T01110067
94889KARB ARB20160315164011003/15/16 16:40:31  5-MIN KARB 152140Z AUTO 13007KT 10SM OVC018 11/07 A2980 950 74 800 140/07 RMK AO2 T01110067
94889KARB ARB20160315164511003/15/16 16:45:31  5-MIN KARB 152145Z AUTO 13008KT 10SM OVC018 11/07 A2980 960 74 800 140/08 RMK AO2 T01110067
94889KARB ARB20160315165011703/15/16 16:50:31  5-MIN KARB 152150Z AUTO 12010KT 10SM OVC018 11/07 A2980 950 74 800 120/10 RMK AO2 SLP093 T01110067
94889KARB ARB20160315165511003/15/16 16:55:31  5-MIN KARB 152155Z AUTO 11009KT 10SM OVC018 11/07 A2980 950 77 700 110/09 RMK AO2 T01060067
94889KARB ARB20160315170011003/15/16 17:00:31  5-MIN KARB 152200Z AUTO 11007KT 10SM OVC017 11/07 A2980 950 77 700 120/07 RMK AO2 T01060067
94889KARB ARB20160315170511003/15/16 17:05:31  5-MIN KARB 152205Z AUTO 13009KT 10SM OVC017 11/07 A2980 950 77 700 130/09 RMK AO2 T01060067
94889KARB ARB20160315171011003/15/16 17:10:31  5-MIN KARB 152210Z AUTO 14008KT 10SM OVC017 11/07 A2980 960 77 700 140/08 RMK AO2 T01060067
94889KARB ARB20160315171511003/15/16 17:15:31  5-MIN KARB 152215Z AUTO 13010KT 10SM OVC016 10/07 A2980 960 80 600 140/10 RMK AO2 T01000067
94889KARB ARB20160315172011003/15/16 17:20:31  5-MIN KARB 152220Z AUTO 13007KT 10SM OVC016 10/07 A2980 960 80 600 130/07 RMK AO2 T01000067
94889KARB ARB20160315172511003/15/16 17:25:31  5-MIN KARB 152225Z AUTO 11009KT 10SM OVC015 10/07 A2979 960 80 600 120/09 RMK AO2 T01000067
94889KARB ARB20160315173011003/15/16 17:30:31  5-MIN KARB 152230Z AUTO 11008KT 10SM OVC015 10/07 A2980 950 80 600 120/08 RMK AO2 T01000067
94889KARB ARB20160315173511003/15/16 17:35:31  5-MIN KARB 152235Z AUTO 12008KT 10SM OVC015 10/07 A2980 950 80 600 130/08 RMK AO2 T01000067
94889KARB ARB20160315174011003/15/16 17:40:31  5-MIN KARB 152240Z AUTO 12007KT 10SM OVC015 10/07 A2980 950 80 600 130/07 RMK AO2 T01000067
94889KARB ARB20160315174511003/15/16 17:45:31  5-MIN KARB 152245Z AUTO 12009KT 10SM OVC015 10/07 A2980 960 80 600 130/09 RMK AO2 T01000067
94889KARB ARB20160315175010003/15/16 17:50:31  5-MIN KARB 152250Z AUTO 14008KT 10SM OVC014 10/07 A2980 960 80 600 140/08 RMK AO2
94889KARB ARB20160315175511003/15/16 17:55:31  5-MIN KARB 152255Z AUTO 14008KT 10SM OVC014 10/07 A2979 960 80 600 140/08 RMK AO2 T01000067
94889KARB ARB20160315180011003/15/16 18:00:31  5-MIN KARB 152300Z AUTO 11008KT 10SM OVC014 10/07 A2979 960 80 600 120/08 RMK AO2 T01000067
94889KARB ARB20160315180511003/15/16 18:05:31  5-MIN KARB 152305Z AUTO 11009KT 10SM OVC014 09/07 A2980 960 83 600 120/09 RMK AO2 T00940067
94889KARB ARB20160315181011003/15/16 18:10:31  5-MIN KARB 152310Z AUTO 11007KT 10SM OVC013 09/07 A2980 960 83 600 120/07 RMK AO2 T00940067
94889KARB ARB20160315181510903/15/16 18:15:31  5-MIN KARB 152315Z AUTO 11007KT 9SM OVC013 09/07 A2979 960 83 600 110/07 RMK AO2 T00940067
94889KARB ARB20160315182010903/15/16 18:20:31  5-MIN KARB 152320Z AUTO 11009KT 9SM OVC013 09/07 A2979 960 83 600 120/09 RMK AO2 T00940067
94889KARB ARB20160315182510903/15/16 18:25:31  5-MIN KARB 152325Z AUTO 10008KT 9SM OVC013 09/07 A2979 960 83 600 110/08 RMK AO2 T00940067
94889KARB ARB20160315183010903/15/16 18:30:31  5-MIN KARB 152330Z AUTO 11008KT 9SM OVC013 09/07 A2979 960 83 600 120/08 RMK AO2 T00940067
94889KARB ARB20160315183510903/15/16 18:35:31  5-MIN KARB 152335Z AUTO 12010KT 9SM OVC013 09/07 A2979 960 83 600 120/10 RMK AO2 T00940067
94889KARB ARB20160315184011003/15/16 18:40:31  5-MIN KARB 152340Z AUTO 10009KT 10SM OVC013 09/07 A2979 960 83 600 100/09 RMK AO2 T00940067
94889KARB ARB20160315184511003/15/16 18:45:31  5-MIN KARB 152345Z AUTO 10010KT 10SM OVC013 09/07 A2979 960 86 500 100/10 RMK AO2 T00890067
94889KARB ARB20160315185013503/15/16 18:50:31  5-MIN KARB 152350Z AUTO 10009KT 10SM OVC013 09/07 A2979 960 86 500 100/09 RMK AO2 SLP091 T00890067 10139 20089 56012
94889KARB ARB20160315185511003/15/16 18:55:31  5-MIN KARB 152355Z AUTO 11009KT 10SM OVC013 09/07 A2979 960 86 500 110/09 RMK AO2 T00890067
94889KARB ARB20160315190011003/15/16 19:00:31  5-MIN KARB 160000Z AUTO 11009KT 10SM OVC013 09/07 A2979 960 86 500 120/09 RMK AO2 T00890067
94889KARB ARB20160315190511003/15/16 19:05:31  5-MIN KARB 160005Z AUTO 10009KT 10SM OVC013 09/07 A2979 960 86 500 110/09 RMK AO2 T00890067
94889KARB ARB20160315191011003/15/16 19:10:31  5-MIN KARB 160010Z AUTO 11009KT 10SM OVC013 09/07 A2979 970 86 500 110/09 RMK AO2 T00890067
94889KARB ARB20160315191511003/15/16 19:15:31  5-MIN KARB 160015Z AUTO 11011KT 10SM OVC012 09/07 A2978 970 86 500 120/11 RMK AO2 T00890067
94889KARB ARB20160315192011003/15/16 19:20:31  5-MIN KARB 160020Z AUTO 11009KT 10SM OVC012 09/06 A2978 970 83 500 120/09 RMK AO2 T00890061
94889KARB ARB20160315192511003/15/16 19:25:31  5-MIN KARB 160025Z AUTO 12009KT 10SM OVC011 09/06 A2978 970 83 500 120/09 RMK AO2 T00890061
94889KARB ARB20160315193011003/15/16 19:30:31  5-MIN KARB 160030Z AUTO 11010KT 10SM OVC011 09/06 A2979 970 83 500 120/10 RMK AO2 T00890061
94889KARB ARB20160315193511003/15/16 19:35:31  5-MIN KARB 160035Z AUTO 13009KT 10SM OVC011 09/06 A2979 960 83 500 130/09 RMK AO2 T00890061
94889KARB ARB20160315194011003/15/16 19:40:31  5-MIN KARB 160040Z AUTO 10008KT 10SM OVC011 09/06 A2979 960 83 500 100/08 RMK AO2 T00890061
94889KARB ARB20160315194511003/15/16 19:45:31  5-MIN KARB 160045Z AUTO 12009KT 10SM OVC011 09/06 A2979 960 83 500 130/09 RMK AO2 T00890061
94889KARB ARB20160315195011703/15/16 19:50:31  5-MIN KARB 160050Z AUTO 12009KT 10SM OVC011 09/06 A2979 960 83 500 130/09 RMK AO2 SLP092 T00890061
94889KARB ARB20160315195511603/15/16 19:55:31  5-MIN KARB 160055Z AUTO 13010G17KT 10SM OVC011 08/06 A2980 960 86 400 130/10G17 RMK AO2 T00830061
94889KARB ARB20160315200011603/15/16 20:00:31  5-MIN KARB 160100Z AUTO 11010G17KT 10SM OVC011 08/06 A2979 960 86 400 120/10G17 RMK AO2 T00830061
94889KARB ARB20160315200511003/15/16 20:05:31  5-MIN KARB 160105Z AUTO 12010KT 10SM OVC011 08/06 A2979 960 86 400 130/10 RMK AO2 T00830061
94889KARB ARB20160315201011003/15/16 20:10:31  5-MIN KARB 160110Z AUTO 12012KT 10SM OVC011 08/06 A2979 960 86 400 120/12 RMK AO2 T00830061
94889KARB ARB20160315201511003/15/16 20:15:31  5-MIN KARB 160115Z AUTO 13009KT 10SM OVC011 08/06 A2979 960 86 400 130/09 RMK AO2 T00830061
94889KARB ARB20160315202011003/15/16 20:20:31  5-MIN KARB 160120Z AUTO 12012KT 10SM OVC010 08/06 A2979 960 86 400 130/12 RMK AO2 T00830061
94889KARB ARB20160315202511003/15/16 20:25:31  5-MIN KARB 160125Z AUTO 12011KT 10SM OVC010 08/06 A2979 970 86 400 130/11 RMK AO2 T00830061
94889KARB ARB20160315203011003/15/16 20:30:31  5-MIN KARB 160130Z AUTO 12012KT 10SM OVC010 08/06 A2979 970 86 400 130/12 RMK AO2 T00830061
94889KARB ARB20160315203511003/15/16 20:35:31  5-MIN KARB 160135Z AUTO 12011KT 10SM OVC010 08/06 A2979 970 86 400 120/11 RMK AO2 T00830061
94889KARB ARB20160315204011003/15/16 20:40:31  5-MIN KARB 160140Z AUTO 12011KT 10SM OVC010 08/06 A2978 970 86 400 130/11 RMK AO2 T00830061
94889KARB ARB20160315204511003/15/16 20:45:31  5-MIN KARB 160145Z AUTO 11009KT 10SM OVC009 08/06 A2978 970 86 400 120/09 RMK AO2 T00830061
94889KARB ARB20160315205011703/15/16 20:50:31  5-MIN KARB 160150Z AUTO 12010KT 10SM OVC009 08/06 A2978 970 86 400 130/10 RMK AO2 SLP086 T00830061
94889KARB ARB20160315205511003/15/16 20:55:31  5-MIN KARB 160155Z AUTO 11008KT 10SM OVC009 08/06 A2978 980 86 400 120/08 RMK AO2 T00830061
94889KARB ARB20160315210011603/15/16 21:00:31  5-MIN KARB 160200Z AUTO 11011G18KT 10SM OVC009 08/06 A2978 980 89 400 120/11G18 RMK AO2 T00780061
94889KARB ARB20160315210511603/15/16 21:05:31  5-MIN KARB 160205Z AUTO 10010G18KT 10SM OVC008 08/06 A2977 980 89 400 110/10G18 RMK AO2 T00780061
94889KARB ARB20160315211011003/15/16 21:10:31  5-MIN KARB 160210Z AUTO 11010KT 10SM OVC008 08/06 A2977 980 89 400 120/10 RMK AO2 T00780061
94889KARB ARB20160315211511003/15/16 21:15:31  5-MIN KARB 160215Z AUTO 10007KT 10SM OVC008 08/06 A2977 980 89 400 110/07 RMK AO2 T00780061
94889KARB ARB20160315212011003/15/16 21:20:31  5-MIN KARB 160220Z AUTO 10008KT 10SM OVC008 08/06 A2976 990 89 400 110/08 RMK AO2 T00780061
94889KARB ARB20160315212511003/15/16 21:25:31  5-MIN KARB 160225Z AUTO 10009KT 10SM OVC008 08/06 A2976 990 89 400 100/09 RMK AO2 T00780061
94889KARB ARB20160315213011003/15/16 21:30:31  5-MIN KARB 160230Z AUTO 10010KT 10SM OVC008 08/06 A2976 990 89 400 110/10 RMK AO2 T00780061
94889KARB ARB20160315213511003/15/16 21:35:31  5-MIN KARB 160235Z AUTO 10007KT 10SM OVC008 08/06 A2976 990 89 400 100/07 RMK AO2 T00780061
94889KARB ARB20160315214011003/15/16 21:40:31  5-MIN KARB 160240Z AUTO 10008KT 10SM OVC008 08/06 A2976 990 89 400 110/08 RMK AO2 T00780061
94889KARB ARB20160315214511003/15/16 21:45:31  5-MIN KARB 160245Z AUTO 09009KT 10SM OVC008 08/06 A2976 990 89 400 100/09 RMK AO2 T00780061
94889KARB ARB20160315215012203/15/16 21:50:31  5-MIN KARB 160250Z AUTO 10007KT 9SM OVC008 08/06 A2976 990 89 400 110/07 RMK AO2 SLP079 T00780061 56002
94889KARB ARB20160315215510903/15/16 21:55:31  5-MIN KARB 160255Z AUTO 11007KT 9SM OVC008 08/06 A2976 990 89 400 120/07 RMK AO2 T00780061
94889KARB ARB20160315220010903/15/16 22:00:31  5-MIN KARB 160300Z AUTO 10010KT 9SM OVC008 08/06 A2976 990 89 400 110/10 RMK AO2 T00780061
94889KARB ARB20160315220511003/15/16 22:05:31  5-MIN KARB 160305Z AUTO 10009KT 9SM OVC008 08/06 A2975 1000 89 400 110/09 RMK AO2 T00780061
94889KARB ARB20160315221011603/15/16 22:10:31  5-MIN KARB 160310Z AUTO 09007G16KT 9SM OVC008 08/06 A2975 1000 89 400 100/07G16 RMK AO2 T00780061
94889KARB ARB20160315221511003/15/16 22:15:31  5-MIN KARB 160315Z AUTO 10009KT 9SM OVC008 08/06 A2975 1000 89 400 100/09 RMK AO2 T00780061
94889KARB ARB20160315222012203/15/16 22:20:31  5-MIN KARB 160320Z AUTO 10008KT 9SM OVC008 08/06 A2975 1000 89 400 110/08 RMK AO2 CIG 007V011 T00780061
94889KARB ARB20160315222512203/15/16 22:25:31  5-MIN KARB 160325Z AUTO 09008KT 9SM OVC010 08/06 A2974 1000 86 500 100/08 RMK AO2 CIG 007V012 T00830061
94889KARB ARB20160315223012203/15/16 22:30:31  5-MIN KARB 160330Z AUTO 09008KT 9SM OVC010 08/06 A2974 1010 86 500 100/08 RMK AO2 CIG 007V012 T00830061
94889KARB ARB20160315223511003/15/16 22:35:31  5-MIN KARB 160335Z AUTO 08008KT 9SM OVC010 08/06 A2973 1020 86 500 090/08 RMK AO2 T00830061
94889KARB ARB20160315224012603/15/16 22:40:31  5-MIN KARB 160340Z AUTO 09009KT 9SM -RA OVC010 08/06 A2973 1020 86 500 090/09 RMK AO2 RAB39 P0000 T00830061
94889KARB ARB20160315224513303/15/16 22:45:31  5-MIN KARB 160345Z AUTO 08010KT 9SM -RA OVC011 08/07 A2972 1030 93 400 080/10 RMK AO2 RAB39 PRESFR P0000 T00780067
94889KARB ARB20160315225013303/15/16 22:50:31  5-MIN KARB 160350Z AUTO 10009KT 10SM OVC011 08/07 A2972 1030 93 400 110/09 RMK AO2 RAB39E49 SLP067 P0000 T00780067
94889KARB ARB20160315225513503/15/16 22:55:31  5-MIN KARB 160355Z AUTO 08011G15KT 9SM BKN009 OVC013 08/07 A2971 1030 93 500 090/11G15 RMK AO2 CIG 007V012 T00780067
94889KARB ARB20160315230012903/15/16 23:00:31  5-MIN KARB 160400Z AUTO 09009KT 9SM SCT009 OVC013 08/07 A2971 1040 93 500 100/09 RMK AO2 LTG DSNT SW T00780067
94889KARB ARB20160315230514103/15/16 23:05:31  5-MIN KARB 160405Z AUTO 09009KT 9SM BKN009 OVC013 08/07 A2971 1040 93 500 100/09 RMK AO2 LTG DSNT SW CIG 007V012 T00780067
94889KARB ARB20160315231014803/15/16 23:10:31  5-MIN KARB 160410Z AUTO 09010KT 9SM BKN009 OVC013 08/07 A2969 1050 89 500 090/10 RMK AO2 LTG DSNT SW CIG 007V012 PRESFR T00830067
94889KARB ARB20160315231514303/15/16 23:15:31  5-MIN KARB 160415Z AUTO 08012G16KT 10SM BKN009 OVC013 08/07 A2969 1060 93 500 090/12G16 RMK AO2 CIG 007V011 PRESFR T00780067
94889KARB ARB20160315232013703/15/16 23:20:31  5-MIN KARB 160420Z AUTO 08013KT 10SM BKN009 OVC013 08/07 A2968 1070 89 600 090/13 RMK AO2 CIG 007V011 PRESFR T00830067
94889KARB ARB20160315232514003/15/16 23:25:31  5-MIN KARB 160425Z AUTO 09008G16KT 10SM OVC010 08/07 A2968 1070 89 600 100/08G16 RMK AO2 LTG DSNT S CIG 007V013 T00830067
94889KARB ARB20160315233016503/15/16 23:30:31  5-MIN KARB 160430Z AUTO 09008KT 10SM -TSRA OVC010 08/07 A2968 1060 89 600 090/08 RMK AO2 LTG DSNT S AND NW RAB27 TSB28 CIG 007V013 P0000 T00830067
94889KARB ARB20160315233517203/15/16 23:35:31  5-MIN KARB 160435Z AUTO 09008G15KT 7SM -TSRA BKN008 OVC012 08/07 A2968 1060 89 600 100/08G15 RMK AO2 LTG DSNT SE AND S AND NW RAB27 TSB28 P0005 T00830067
94889KARB ARB20160315234016303/15/16 23:40:31  5-MIN KARB 160440Z AUTO 10008KT 5SM -TSRA BR BKN008 OVC012 08/07 A2968 1060 93 500 100/08 RMK AO2 LTG DSNT SE AND NW RAB27 TSB28 P0006 T00780067
94889KARB ARB20160315234515603/15/16 23:45:31  5-MIN KARB 160445Z AUTO 08010KT 6SM -TSRA BR BKN008 OVC012 08/07 A2967 1070 93 500 090/10 RMK AO2 LTG DSNT SE RAB27 TSB28 P0006 T00780067
94889KARB ARB20160315235017203/15/16 23:50:31  5-MIN KARB 160450Z AUTO 09010KT 6SM -TSRA BR OVC008 08/07 A2966 1080 93 500 090/10 RMK AO2 LTG DSNT E AND SE RAB27 TSB28 SLP047 P0007 T00780067 401390078
94889KARB ARB20160315235513903/15/16 23:55:31  5-MIN KARB 160455Z AUTO 08007KT 6SM -TSRA BR OVC008 08/07 A2967 1080 93 500 090/07 RMK AO2 LTG DSNT N-SE P0000 T00780067
94889KARB ARB20160316000015003/16/16 00:00:31  5-MIN KARB 160500Z AUTO 08009KT 6SM VCTS -RA BR OVC008 08/07 A2966 1080 93 500 080/09 RMK AO2 LTG DSNT N-SE TSE0458 P0000 T00780067
94889KARB ARB20160316000515903/16/16 00:05:31  5-MIN KARB 160505Z AUTO 09012KT 7SM VCTS -RA OVC007 08/07 A2966 1080 93 500 090/12 RMK AO2 LTG DSNT N-SE TSE0458 CIG 005V011 P0000 T00780067
94889KARB ARB20160316001015303/16/16 00:10:31  5-MIN KARB 160510Z AUTO 09011KT 7SM -RA OVC007 08/07 A2965 1090 93 500 100/11 RMK AO2 LTG DSNT N-E TSE0458 CIG 005V009 P0000 T00780067
94889KARB ARB20160316001514103/16/16 00:15:31  5-MIN KARB 160515Z AUTO 09009KT 7SM -RA OVC005 07/07 A2965 1090 96 500 090/09 RMK AO2 LTG DSNT N-E TSE0458 P0000 T00720067
94889KARB ARB20160316002014803/16/16 00:20:31  5-MIN KARB 160520Z AUTO 09012KT 7SM VCTS OVC005 07/06 A2965 1090 93 500 090/12 RMK AO2 LTG DSNT N-E RAE20 TSE0458 P0000 T00720061
94889KARB ARB20160316002514803/16/16 00:25:31  5-MIN KARB 160525Z AUTO 09009KT 7SM VCTS OVC005 07/07 A2964 1100 96 500 100/09 RMK AO2 LTG DSNT N-E RAE20 TSE0458 P0000 T00720067
94889KARB ARB20160316003015103/16/16 00:30:31  5-MIN KARB 160530Z AUTO 09011KT 6SM VCTS BR OVC005 07/07 A2964 1100 96 500 100/11 RMK AO2 LTG DSNT N-E RAE20 TSE0458 P0000 T00720067
94889KARB ARB20160316003514603/16/16 00:35:31  5-MIN KARB 160535Z AUTO 10010KT 6SM BR OVC005 07/07 A2964 1100 96 500 100/10 RMK AO2 LTG DSNT N-E RAE20 TSE0458 P0000 T00720067
94889KARB ARB20160316004014903/16/16 00:40:31  5-MIN KARB 160540Z AUTO 10012G18KT 7SM OVC005 07/06 A2964 1100 93 500 100/12G18 RMK AO2 LTG DSNT N-E RAE20 TSE0458 P0000 T00720061
94889KARB ARB20160316004514903/16/16 00:45:31  5-MIN KARB 160545Z AUTO 10012G19KT 7SM OVC005 07/06 A2964 1100 93 500 110/12G19 RMK AO2 LTG DSNT N-E RAE20 TSE0458 P0000 T00720061
94889KARB ARB20160316005018503/16/16 00:50:31  5-MIN KARB 160550Z AUTO 10011G21KT 8SM OVC005 07/06 A2964 1100 93 500 100/11G21 RMK AO2 LTG DSNT N AND NE RAE20 TSE0458 SLP038 P0000 60007 T00720061 10089 20072 56012
94889KARB ARB20160316005513403/16/16 00:55:31  5-MIN KARB 160555Z AUTO 09010G21KT 7SM OVC005 07/06 A2963 1110 93 500 100/10G21 RMK AO2 LTG DSNT N AND NE T00720061
94889KARB ARB20160316010012803/16/16 01:00:31  5-MIN KARB 160600Z AUTO 09010KT 7SM OVC004 07/06 A2963 1110 96 400 100/10 RMK AO2 LTG DSNT N AND NE T00670061
94889KARB ARB20160316010513403/16/16 01:05:31  5-MIN KARB 160605Z AUTO 10012G20KT 7SM OVC004 07/06 A2963 1110 96 400 100/12G20 RMK AO2 LTG DSNT N AND NE T00670061
94889KARB ARB20160316011012803/16/16 01:10:31  5-MIN KARB 160610Z AUTO 09012G20KT 7SM OVC004 07/06 A2963 1110 96 400 100/12G20 RMK AO2 LTG DSNT NE T00670061
94889KARB ARB20160316011511603/16/16 01:15:31  5-MIN KARB 160615Z AUTO 09013G21KT 7SM OVC004 07/06 A2962 1120 96 400 100/13G21 RMK AO2 T00670061
94889KARB ARB20160316012011903/16/16 01:20:31  5-MIN KARB 160620Z AUTO 09013G21KT 6SM BR OVC004 07/06 A2961 1130 96 400 100/13G21 RMK AO2 T00670061
94889KARB ARB20160316012511903/16/16 01:25:31  5-MIN KARB 160625Z AUTO 10012G21KT 6SM BR OVC004 07/06 A2961 1130 96 400 100/12G21 RMK AO2 T00670061
94889KARB ARB20160316013011903/16/16 01:30:31  5-MIN KARB 160630Z AUTO 09012G22KT 6SM BR OVC004 07/06 A2961 1130 96 400 100/12G22 RMK AO2 T00670061
94889KARB ARB20160316013511903/16/16 01:35:31  5-MIN KARB 160635Z AUTO 09011G22KT 6SM BR OVC004 07/06 A2960 1140 96 400 100/11G22 RMK AO2 T00670061
94889KARB ARB20160316014011903/16/16 01:40:31  5-MIN KARB 160640Z AUTO 09013G20KT 6SM BR OVC004 07/06 A2960 1140 96 500 100/13G20 RMK AO2 T00670061
94889KARB ARB20160316014511903/16/16 01:45:31  5-MIN KARB 160645Z AUTO 09013G20KT 6SM BR OVC004 07/06 A2959 1150 96 500 100/13G20 RMK AO2 T00670061
94889KARB ARB20160316015010903/16/16 01:50:31  5-MIN KARB 160650Z AUTO 09017G22KT 6SM BR OVC003 07/06 A2959 1150 96 500 100/17G22 RMK AO2
94889KARB ARB20160316015511903/16/16 01:55:31  5-MIN KARB 160655Z AUTO 09013G22KT 6SM BR OVC003 07/06 A2958 1150 96 500 100/13G22 RMK AO2 T00670061
94889KARB ARB20160316020013703/16/16 02:00:31  5-MIN KARB 160700Z AUTO 10010G18KT 6SM -RA BR OVC003 07/06 A2958 1150 96 500 100/10G18 RMK AO2 RAB0658 P0000 T00670061
94889KARB ARB20160316020514203/16/16 02:05:31  5-MIN KARB 160705Z AUTO 10015G20KT 6SM VCTS -RA BR OVC004 07/06 A2959 1150 93 500 100/15G20 RMK AO2 RAB0658 P0001 T00720061
94889KARB ARB20160316021016003/16/16 02:10:31  5-MIN KARB 160710Z AUTO 09011G20KT 6SM VCTS -RA BR OVC004 07/06 A2958 1160 93 500 100/11G20 RMK AO2 LTG DSNT E AND SE RAB0658 P0001 T00720061
94889KARB ARB20160316021515703/16/16 02:15:31  5-MIN KARB 160715Z AUTO 08014G19KT 7SM VCTS -RA OVC004 07/06 A2957 1160 93 500 090/14G19 RMK AO2 LTG DSNT E AND SE RAB0658 P0001 T00720061
94889KARB ARB20160316022015303/16/16 02:20:31  5-MIN KARB 160720Z AUTO 09012G19KT 7SM VCTS -RA OVC004 07/06 A2959 1150 93 500 100/12G19 RMK AO2 LTG DSNT N-SE RAB0658 P0001 T00720061
94889KARB ARB20160316022515103/16/16 02:25:31  5-MIN KARB 160725Z AUTO 09012G19KT 8SM VCTS OVC004 07/06 A2958 1160 93 500 100/12G19 RMK AO2 LTG DSNT N-E RAB0658E22 P0001 T00720061
94889KARB ARB20160316023015803/16/16 02:30:31  5-MIN KARB 160730Z AUTO 09016G21KT 8SM VCTS OVC004 07/06 A2956 1180 93 600 090/16G21 RMK AO2 LTG DSNT N-E RAB0658E22 PRESFR P0001 T00720061
94889KARB ARB20160316023514603/16/16 02:35:31  5-MIN KARB 160735Z AUTO 10011G21KT 7SM OVC004 07/06 A2956 1180 93 600 100/11G21 RMK AO2 LTG DSNT N-E RAB0658E22 P0002 T00720061
94889KARB ARB20160316024014603/16/16 02:40:31  5-MIN KARB 160740Z AUTO 09011G18KT 7SM OVC004 07/07 A2955 1180 96 600 100/11G18 RMK AO2 LTG DSNT N-E RAB0658E22 P0002 T00720067
94889KARB ARB20160316024514603/16/16 02:45:31  5-MIN KARB 160745Z AUTO 10012G19KT 7SM OVC004 07/07 A2955 1180 96 600 100/12G19 RMK AO2 LTG DSNT N-E RAB0658E22 P0002 T00720067
94889KARB ARB20160316025015803/16/16 02:50:31  5-MIN KARB 160750Z AUTO 10012G21KT 8SM OVC004 08/07 A2955 1180 93 600 110/12G21 RMK AO2 LTG DSNT NE AND E RAB0658E22 SLP008 P0002 T00780067
94889KARB ARB20160316025512803/16/16 02:55:31  5-MIN KARB 160755Z AUTO 11014G21KT 8SM OVC005 08/07 A2955 1190 93 600 110/14G21 RMK AO2 LTG DSNT NE T00780067
94889KARB ARB20160316030011603/16/16 03:00:31  5-MIN KARB 160800Z AUTO 10014G21KT 8SM OVC005 08/07 A2954 1190 93 600 100/14G21 RMK AO2 T00780067
94889KARB ARB20160316030511603/16/16 03:05:31  5-MIN KARB 160805Z AUTO 10014G21KT 8SM OVC005 08/07 A2954 1190 93 600 110/14G21 RMK AO2 T00780067
94889KARB ARB20160316031011603/16/16 03:10:31  5-MIN KARB 160810Z AUTO 11015G20KT 8SM OVC005 08/07 A2954 1190 93 700 120/15G20 RMK AO2 T00780067
94889KARB ARB20160316031511603/16/16 03:15:31  5-MIN KARB 160815Z AUTO 11012G20KT 8SM OVC005 08/07 A2954 1200 93 700 110/12G20 RMK AO2 T00780067
94889KARB ARB20160316032011603/16/16 03:20:31  5-MIN KARB 160820Z AUTO 11011G20KT 8SM OVC005 08/07 A2953 1200 93 700 110/11G20 RMK AO2 T00780067
94889KARB ARB20160316032511003/16/16 03:25:31  5-MIN KARB 160825Z AUTO 10013KT 8SM OVC005 08/07 A2953 1210 93 700 110/13 RMK AO2 T00780067
94889KARB ARB20160316033011603/16/16 03:30:31  5-MIN KARB 160830Z AUTO 10012G19KT 8SM OVC005 08/07 A2953 1210 93 700 110/12G19 RMK AO2 T00780067
94889KARB ARB20160316033511603/16/16 03:35:31  5-MIN KARB 160835Z AUTO 10009G19KT 8SM OVC005 08/07 A2952 1210 93 700 100/09G19 RMK AO2 T00780067
94889KARB ARB20160316034011003/16/16 03:40:31  5-MIN KARB 160840Z AUTO 10009KT 9SM OVC005 08/07 A2952 1210 93 700 100/09 RMK AO2 T00780067
94889KARB ARB20160316034511003/16/16 03:45:31  5-MIN KARB 160845Z AUTO 10011KT 9SM OVC005 08/07 A2952 1210 96 700 100/11 RMK AO2 T00780072
94889KARB ARB20160316035015103/16/16 03:50:31  5-MIN KARB 160850Z AUTO 10011G18KT 070V130 9SM OVC005 08/07 A2952 1220 96 700 110/11G18 080V140 RMK AO2 SLP996 60002 T00780072 56042
94889KARB ARB20160316035511603/16/16 03:55:31  5-MIN KARB 160855Z AUTO 11011G18KT 9SM OVC005 08/07 A2952 1220 96 700 120/11G18 RMK AO2 T00780072
94889KARB ARB20160316040011003/16/16 04:00:31  5-MIN KARB 160900Z AUTO 11012KT 9SM OVC005 08/07 A2952 1220 96 700 120/12 RMK AO2 T00780072
94889KARB ARB20160316040511603/16/16 04:05:31  5-MIN KARB 160905Z AUTO 12012G17KT 9SM OVC006 08/07 A2952 1220 96 700 120/12G17 RMK AO2 T00780072
94889KARB ARB20160316041011603/16/16 04:10:31  5-MIN KARB 160910Z AUTO 12007G17KT 8SM OVC006 08/07 A2951 1220 96 700 120/07G17 RMK AO2 T00780072
94889KARB ARB20160316041511603/16/16 04:15:31  5-MIN KARB 160915Z AUTO 10010G15KT 9SM OVC006 08/07 A2951 1220 93 800 110/10G15 RMK AO2 T00830072
94889KARB ARB20160316042012203/16/16 04:20:31  5-MIN KARB 160920Z AUTO 11011KT 9SM OVC006 08/07 A2951 1220 93 800 120/11 RMK AO2 CIG 005V010 T00830072
94889KARB ARB20160316042512903/16/16 04:25:31  5-MIN KARB 160925Z AUTO 11009KT 9SM BKN006 OVC041 08/07 A2951 1230 93 800 110/09 RMK AO2 CIG 005V010 T00830072
94889KARB ARB20160316043012903/16/16 04:30:31  5-MIN KARB 160930Z AUTO 10009KT 9SM BKN007 OVC039 08/07 A2950 1230 93 800 100/09 RMK AO2 CIG 005V010 T00830072
94889KARB ARB20160316043513003/16/16 04:35:31  5-MIN KARB 160935Z AUTO 10010KT 10SM BKN007 OVC039 08/07 A2950 1230 93 800 110/10 RMK AO2 CIG 005V010 T00830072
94889KARB ARB20160316044011803/16/16 04:40:31  5-MIN KARB 160940Z AUTO 10010KT 10SM BKN007 OVC039 08/07 A2950 1230 93 800 100/10 RMK AO2 T00830072
94889KARB ARB20160316044512403/16/16 04:45:31  5-MIN KARB 160945Z AUTO 11010G17KT 10SM BKN007 OVC039 08/07 A2950 1230 93 800 110/10G17 RMK AO2 T00830072
94889KARB ARB20160316045013103/16/16 04:50:31  5-MIN KARB 160950Z AUTO 11008G17KT 10SM BKN007 OVC038 08/07 A2951 1220 93 800 110/08G17 RMK AO2 SLP993 T00830072
94889KARB ARB20160316045511803/16/16 04:55:31  5-MIN KARB 160955Z AUTO 10008KT 10SM BKN007 OVC038 08/07 A2951 1230 93 800 100/08 RMK AO2 T00830072
94889KARB ARB20160316050011803/16/16 05:00:31  5-MIN KARB 161000Z AUTO 11009KT 10SM BKN007 OVC038 08/07 A2950 1230 93 800 120/09 RMK AO2 T00830072
94889KARB ARB20160316050511103/16/16 05:05:31  5-MIN KARB 161005Z AUTO 11009KT 10SM OVC007 08/07 A2950 1230 93 800 120/09 RMK AO2 T00830072
94889KARB ARB20160316051011103/16/16 05:10:31  5-MIN KARB 161010Z AUTO 10009KT 10SM OVC007 08/07 A2950 1230 93 800 110/09 RMK AO2 T00830072
94889KARB ARB20160316051511003/16/16 05:15:31  5-MIN KARB 161015Z AUTO 10009KT 9SM OVC007 08/07 A2949 1240 93 800 110/09 RMK AO2 T00830072
94889KARB ARB20160316052012303/16/16 05:20:31  5-MIN KARB 161020Z AUTO 10010G18KT 9SM BKN007 OVC030 08/07 A2949 1240 93 800 110/10G18 RMK AO2 T00830072
94889KARB ARB20160316052512303/16/16 05:25:31  5-MIN KARB 161025Z AUTO 10010G18KT 9SM BKN007 OVC028 08/07 A2949 1250 93 800 110/10G18 RMK AO2 T00830072
94889KARB ARB20160316053011803/16/16 05:30:31  5-MIN KARB 161030Z AUTO 11009KT 10SM BKN007 OVC028 08/07 A2949 1240 93 800 120/09 RMK AO2 T00830072
94889KARB ARB20160316053511703/16/16 05:35:31  5-MIN KARB 161035Z AUTO 11009KT 9SM SCT007 OVC028 08/07 A2948 1250 93 800 110/09 RMK AO2 T00830072
94889KARB ARB20160316054011703/16/16 05:40:31  5-MIN KARB 161040Z AUTO 11010KT 9SM SCT007 OVC028 08/07 A2948 1250 93 800 110/10 RMK AO2 T00830072
94889KARB ARB20160316054511703/16/16 05:45:31  5-MIN KARB 161045Z AUTO 11010KT 9SM FEW007 OVC026 08/07 A2948 1250 93 800 110/10 RMK AO2 T00830072
94889KARB ARB20160316055012403/16/16 05:50:31  5-MIN KARB 161050Z AUTO 13006KT 9SM FEW007 OVC026 08/07 A2949 1240 93 800 140/06 RMK AO2 SLP989 T00830072
94889KARB ARB20160316055511703/16/16 05:55:31  5-MIN KARB 161055Z AUTO 12008KT 9SM SCT007 OVC024 08/07 A2950 1240 93 800 130/08 RMK AO2 T00830072
94889KARB ARB20160316060012403/16/16 06:00:31  5-MIN KARB 161100Z AUTO VRB03KT 9SM SCT007 BKN022 OVC027 08/07 A2950 1230 93 800 VRB/03 RMK AO2 T00830072
94889KARB ARB20160316060510703/16/16 06:05:31  5-MIN KARB 161105Z AUTO 9SM BKN007 OVC022 08/07 A2950 1230 93 800 M /M RMK AO2 T00830072
94889KARB ARB20160316061014103/16/16 06:10:31  5-MIN KARB 161110Z AUTO 13009KT 110V170 10SM BKN007 OVC020 09/07 A2952 1220 89 800 140/09 120V180 RMK AO2 PRESRR T00890072
94889KARB ARB20160316061513003/16/16 06:15:31  5-MIN KARB 161115Z AUTO VRB05KT 10SM BKN006 OVC020 09/07 A2951 1220 89 800 VRB/05 RMK AO2 CIG 006V010 T00890072
94889KARB ARB20160316062012903/16/16 06:20:31  5-MIN KARB 161120Z AUTO 14006KT 9SM BKN006 OVC018 09/08 A2952 1210 93 800 150/06 RMK AO2 CIG 006V010 T00890078
94889KARB ARB20160316062512903/16/16 06:25:31  5-MIN KARB 161125Z AUTO 19007KT 9SM BKN007 OVC015 09/08 A2952 1210 93 800 200/07 RMK AO2 CIG 006V010 T00890078
94889KARB ARB20160316063013703/16/16 06:30:31  5-MIN KARB 161130Z AUTO 14007KT 10SM BKN007 BKN013 OVC020 09/08 A2952 1210 93 800 150/07 RMK AO2 CIG 006V011 T00890078
94889KARB ARB20160316063512503/16/16 06:35:31  5-MIN KARB 161135Z AUTO 19004KT 10SM SCT009 BKN016 OVC020 09/08 A2952 1210 93 800 190/04 RMK AO2 T00890078
94889KARB ARB20160316064012503/16/16 06:40:31  5-MIN KARB 161140Z AUTO 17007KT 10SM SCT009 BKN013 OVC020 09/08 A2953 1210 93 800 180/07 RMK AO2 T00890078
94889KARB ARB20160316064512503/16/16 06:45:31  5-MIN KARB 161145Z AUTO 17006KT 10SM FEW008 BKN020 OVC025 09/08 A2952 1210 93 800 170/06 RMK AO2 T00890078
94889KARB ARB20160316065016203/16/16 06:50:31  5-MIN KARB 161150Z AUTO 17004KT 10SM FEW008 BKN019 OVC025 09/07 A2953 1210 89 800 180/04 RMK AO2 SLP000 60002 70009 T00890072 10089 20067 53005
94889KARB ARB20160316065512503/16/16 06:55:31  5-MIN KARB 161155Z AUTO 19004KT 10SM FEW008 BKN019 OVC025 08/07 A2953 1200 93 700 200/04 RMK AO2 T00830072
94889KARB ARB20160316070012503/16/16 07:00:31  5-MIN KARB 161200Z AUTO 18003KT 10SM FEW008 BKN019 OVC025 08/07 A2953 1210 93 700 190/03 RMK AO2 T00830072
94889KARB ARB20160316070512503/16/16 07:05:31  5-MIN KARB 161205Z AUTO 18006KT 10SM FEW008 BKN020 OVC025 08/07 A2953 1200 93 700 180/06 RMK AO2 T00830072
94889KARB ARB20160316071012503/16/16 07:10:31  5-MIN KARB 161210Z AUTO 17005KT 10SM FEW008 BKN020 OVC025 08/07 A2953 1200 93 700 180/05 RMK AO2 T00830072
94889KARB ARB20160316071512503/16/16 07:15:31  5-MIN KARB 161215Z AUTO 18007KT 10SM FEW007 SCT020 OVC025 08/07 A2953 1200 89 700 180/07 RMK AO2 T00830067
94889KARB ARB20160316072011703/16/16 07:20:31  5-MIN KARB 161220Z AUTO 16005KT 9SM SCT020 OVC025 08/07 A2953 1200 89 700 160/05 RMK AO2 T00830067
94889KARB ARB20160316072512403/16/16 07:25:31  5-MIN KARB 161225Z AUTO 18004KT 8SM SCT020 BKN027 OVC070 08/07 A2953 1200 89 700 190/04 RMK AO2 T00830067
94889KARB ARB20160316073012403/16/16 07:30:31  5-MIN KARB 161230Z AUTO 18005KT 8SM BKN022 BKN070 OVC100 08/07 A2953 1200 89 700 190/05 RMK AO2 T00830067
94889KARB ARB20160316073512403/16/16 07:35:31  5-MIN KARB 161235Z AUTO 18006KT 8SM SCT024 BKN065 OVC110 08/07 A2953 1200 93 700 190/06 RMK AO2 T00780067
94889KARB ARB20160316074012403/16/16 07:40:31  5-MIN KARB 161240Z AUTO 19007KT 7SM FEW024 BKN065 BKN110 08/07 A2953 1210 93 700 200/07 RMK AO2 T00780067
94889KARB ARB20160316074512403/16/16 07:45:31  5-MIN KARB 161245Z AUTO 18005KT 7SM FEW026 SCT065 BKN110 08/07 A2953 1210 93 700 190/05 RMK AO2 T00780067
94889KARB ARB20160316075012403/16/16 07:50:31  5-MIN KARB 161250Z AUTO 19006KT 7SM FEW065 SCT110 08/07 A2952 1210 93 700 200/06 RMK AO2 SLP000 T00780067
94889KARB ARB20160316075511703/16/16 07:55:31  5-MIN KARB 161255Z AUTO 18007KT 7SM FEW065 FEW110 08/07 A2952 1210 93 700 190/07 RMK AO2 T00780067
94889KARB ARB20160316080011003/16/16 08:00:31  5-MIN KARB 161300Z AUTO 21007KT 7SM FEW120 08/07 A2952 1210 93 700 220/07 RMK AO2 T00780067
94889KARB ARB20160316080510703/16/16 08:05:31  5-MIN KARB 161305Z AUTO 19007KT 7SM CLR 08/07 A2953 1210 93 700 200/07 RMK AO2 T00830072
94889KARB ARB20160316081011303/16/16 08:10:31  5-MIN KARB 161310Z AUTO 20010G15KT 7SM CLR 09/07 A2953 1210 89 800 210/10G15 RMK AO2 T00890072
94889KARB ARB20160316081511303/16/16 08:15:31  5-MIN KARB 161315Z AUTO 20009G15KT 8SM CLR 09/07 A2953 1210 89 800 210/09G15 RMK AO2 T00890072
94889KARB ARB20160316082010803/16/16 08:20:31  5-MIN KARB 161320Z AUTO 21009KT 10SM CLR 09/07 A2953 1200 86 900 220/09 RMK AO2 T00940072
94889KARB ARB20160316082510803/16/16 08:25:31  5-MIN KARB 161325Z AUTO 21009KT 10SM CLR 09/07 A2953 1200 86 900 210/09 RMK AO2 T00940072
94889KARB ARB20160316083010803/16/16 08:30:31  5-MIN KARB 161330Z AUTO 22010KT 10SM CLR 09/08 A2954 1200 89 900 220/10 RMK AO2 T00940078
94889KARB ARB20160316083510803/16/16 08:35:31  5-MIN KARB 161335Z AUTO 21014KT 10SM CLR 10/07 A2954 1200 83 900 220/14 RMK AO2 T01000072
94889KARB ARB20160316084011103/16/16 08:40:31  5-MIN KARB 161340Z AUTO 22011KT 10SM FEW030 10/08 A2954 1200 86 900 220/11 RMK AO2 T01000078
94889KARB ARB20160316084511203/16/16 08:45:31  5-MIN KARB 161345Z AUTO 21010KT 10SM FEW030 11/08 A2954 1200 83 1000 220/10 RMK AO2 T01060078
94889KARB ARB20160316085012503/16/16 08:50:31  5-MIN KARB 161350Z AUTO 22012G17KT 10SM FEW030 11/08 A2954 1200 83 1000 230/12G17 RMK AO2 SLP004 T01060078
94889KARB ARB20160316085511803/16/16 08:55:31  5-MIN KARB 161355Z AUTO 22014G23KT 10SM FEW030 11/08 A2954 1200 80 1100 230/14G23 RMK AO2 T01110078
94889KARB ARB20160316090011803/16/16 09:00:31  5-MIN KARB 161400Z AUTO 22011G23KT 10SM FEW030 12/07 A2954 1200 74 1100 230/11G23 RMK AO2 T01170072
94889KARB ARB20160316090511203/16/16 09:05:31  5-MIN KARB 161405Z AUTO 23012KT 10SM FEW032 12/08 A2954 1190 77 1100 230/12 RMK AO2 T01170078
94889KARB ARB20160316091011803/16/16 09:10:31  5-MIN KARB 161410Z AUTO 23016G22KT 10SM SCT034 12/07 A2954 1190 74 1100 240/16G22 RMK AO2 T01170072
94889KARB ARB20160316091513603/16/16 09:15:31  5-MIN KARB 161415Z AUTO 23018G27KT 10SM BKN036 12/07 A2954 1190 71 1100 240/18G27 RMK AO2 PK WND 23027/1413 T01170067
94889KARB ARB20160316092014303/16/16 09:20:31  5-MIN KARB 161420Z AUTO 24017G27KT 10SM FEW030 BKN036 12/07 A2955 1190 71 1100 240/17G27 RMK AO2 PK WND 23027/1413 T01170067
94889KARB ARB20160316092514303/16/16 09:25:31  5-MIN KARB 161425Z AUTO 25018G28KT 10SM BKN035 BKN042 12/06 A2954 1190 68 1100 250/18G28 RMK AO2 PK WND 24028/1421 T01170061
94889KARB ARB20160316093014303/16/16 09:30:31  5-MIN KARB 161430Z AUTO 24019G28KT 10SM BKN034 OVC042 12/06 A2954 1190 68 1100 250/19G28 RMK AO2 PK WND 24028/1421 T01170061
94889KARB ARB20160316093513603/16/16 09:35:31  5-MIN KARB 161435Z AUTO 24014G28KT 10SM BKN037 12/06 A2954 1190 68 1100 240/14G28 RMK AO2 PK WND 24028/1421 T01170061
94889KARB ARB20160316094013603/16/16 09:40:31  5-MIN KARB 161440Z AUTO 24015G23KT 10SM BKN039 12/06 A2954 1190 66 1200 240/15G23 RMK AO2 PK WND 24028/1421 T01220061
94889KARB ARB20160316094513603/16/16 09:45:31  5-MIN KARB 161445Z AUTO 24018G26KT 10SM BKN039 13/06 A2954 1190 61 1300 250/18G26 RMK AO2 PK WND 24028/1421 T01330061
94889KARB ARB20160316095014903/16/16 09:50:31  5-MIN KARB 161450Z AUTO 23017G27KT 10SM BKN037 13/07 A2954 1190 64 1300 240/17G27 RMK AO2 PK WND 24028/1421 SLP004 T01330067 53007
94889KARB ARB20160316095513603/16/16 09:55:31  5-MIN KARB 161455Z AUTO 24015G27KT 10SM BKN037 13/06 A2954 1200 63 1300 250/15G27 RMK AO2 PK WND 26026/1455 T01280061
94889KARB ARB20160316100013603/16/16 10:00:31  5-MIN KARB 161500Z AUTO 22016G26KT 10SM BKN037 13/06 A2954 1200 63 1300 230/16G26 RMK AO2 PK WND 26026/1455 T01280061
94889KARB ARB20160316100514303/16/16 10:05:31  5-MIN KARB 161505Z AUTO 23019G26KT 10SM FEW030 BKN037 13/06 A2954 1200 63 1300 240/19G26 RMK AO2 PK WND 22026/1505 T01280061
94889KARB ARB20160316101013603/16/16 10:10:31  5-MIN KARB 161510Z AUTO 23018G27KT 10SM SCT035 13/06 A2954 1200 61 1300 240/18G27 RMK AO2 PK WND 24027/1508 T01280056
94889KARB ARB20160316101513603/16/16 10:15:31  5-MIN KARB 161515Z AUTO 23019G27KT 10SM SCT035 12/06 A2954 1190 63 1200 240/19G27 RMK AO2 PK WND 24027/1512 T01220056
94889KARB ARB20160316102014303/16/16 10:20:31  5-MIN KARB 161520Z AUTO 23021G27KT 10SM SCT037 BKN045 12/06 A2954 1190 63 1200 240/21G27 RMK AO2 PK WND 23027/1519 T01220056
94889KARB ARB20160316102514303/16/16 10:25:31  5-MIN KARB 161525Z AUTO 23024G31KT 10SM FEW034 BKN043 13/06 A2955 1190 61 1200 230/24G31 RMK AO2 PK WND 24031/1524 T01280056
94889KARB ARB20160316103014303/16/16 10:30:31  5-MIN KARB 161530Z AUTO 22020G31KT 10SM SCT036 BKN047 13/06 A2954 1190 59 1300 230/20G31 RMK AO2 PK WND 24031/1524 T01330056
94889KARB ARB20160316103515003/16/16 10:35:31  5-MIN KARB 161535Z AUTO 22022G31KT 10SM SCT035 BKN042 BKN070 13/06 A2955 1190 59 1300 230/22G31 RMK AO2 PK WND 24031/1524 T01330056
94889KARB ARB20160316104015003/16/16 10:40:31  5-MIN KARB 161540Z AUTO 24019G29KT 10SM SCT035 BKN045 BKN065 13/05 A2954 1190 59 1200 240/19G29 RMK AO2 PK WND 24031/1524 T01280050
94889KARB ARB20160316104515003/16/16 10:45:31  5-MIN KARB 161545Z AUTO 24017G26KT 10SM SCT035 BKN046 BKN060 13/06 A2954 1190 59 1300 250/17G26 RMK AO2 PK WND 24031/1524 T01330056
94889KARB ARB20160316105015703/16/16 10:50:31  5-MIN KARB 161550Z AUTO 23019G27KT 10SM SCT035 BKN046 OVC065 13/06 A2954 1190 59 1300 230/19G27 RMK AO2 PK WND 24031/1524 SLP005 T01330056
94889KARB ARB20160316105515003/16/16 10:55:31  5-MIN KARB 161555Z AUTO 23021G28KT 10SM SCT035 BKN050 OVC065 13/05 A2954 1190 59 1300 240/21G28 RMK AO2 PK WND 23028/1554 T01280050
94889KARB ARB20160316110015003/16/16 11:00:31  5-MIN KARB 161600Z AUTO 23018G29KT 10SM SCT035 SCT045 OVC060 13/06 A2954 1190 59 1300 240/18G29 RMK AO2 PK WND 23029/1557 T01330056
94889KARB ARB20160316110515003/16/16 11:05:31  5-MIN KARB 161605Z AUTO 22017G29KT 10SM SCT035 SCT050 OVC060 14/06 A2954 1190 57 1400 230/17G29 RMK AO2 PK WND 23029/1557 T01390056
94889KARB ARB20160316111015003/16/16 11:10:31  5-MIN KARB 161610Z AUTO 23021G30KT 10SM SCT037 BKN050 OVC060 13/05 A2954 1190 59 1200 240/21G30 RMK AO2 PK WND 23030/1606 T01280050
94889KARB ARB20160316111514303/16/16 11:15:31  5-MIN KARB 161615Z AUTO 24021G30KT 10SM SCT035 OVC055 13/05 A2954 1190 59 1200 250/21G30 RMK AO2 PK WND 25030/1615 T01280050
94889KARB ARB20160316112014303/16/16 11:20:31  5-MIN KARB 161620Z AUTO 23018G34KT 10SM SCT037 OVC055 13/05 A2954 1190 59 1200 240/18G34 RMK AO2 PK WND 24034/1617 T01280050
94889KARB ARB20160316112516603/16/16 11:25:31  5-MIN KARB 161625Z AUTO 24021G34KT 10SM -RA BKN037 BKN050 OVC065 12/05 A2955 1190 61 1200 250/21G34 RMK AO2 PK WND 24034/1617 RAB24 P0000 T01220050
94889KARB ARB20160316113015803/16/16 11:30:31  5-MIN KARB 161630Z AUTO 24029G36KT 5SM -RA BKN037 OVC050 11/06 A2956 1170 74 1000 250/29G36 RMK AO2 PK WND 24036/1628 RAB24 P0000 T01060061
94889KARB ARB20160316113516303/16/16 11:35:31  5-MIN KARB 161635Z AUTO 23019G36KT 4SM RA BKN037 BKN050 OVC060 10/06 A2956 1180 77 900 240/19G36 RMK AO2 PK WND 24036/1628 RAB24 P0001 T01000061
94889KARB ARB20160316114016403/16/16 11:40:31  5-MIN KARB 161640Z AUTO 23016G31KT 5SM -RA FEW030 BKN045 OVC055 09/07 A2956 1180 83 800 240/16G31 RMK AO2 PK WND 24036/1628 RAB24 P0001 T00940067
94889KARB ARB20160316114516503/16/16 11:45:31  5-MIN KARB 161645Z AUTO 23017G26KT 10SM -RA SCT038 BKN047 OVC060 10/07 A2956 1170 80 900 240/17G26 RMK AO2 PK WND 24036/1628 RAB24 P0001 T01000067
94889KARB ARB20160316115017303/16/16 11:50:31  5-MIN KARB 161650Z AUTO 23018G26KT 10SM -RA FEW036 SCT045 BKN060 11/07 A2956 1180 77 1000 240/18G26 RMK AO2 PK WND 24036/1628 RAB24 SLP012 P0001 T01110072
94889KARB ARB20160316115515003/16/16 11:55:31  5-MIN KARB 161655Z AUTO 23022G30KT 10SM FEW034 SCT049 BKN065 12/08 A2956 1180 77 1100 240/22G30 RMK AO2 PK WND 23030/1654 T01170078
94889KARB ARB20160316120015503/16/16 12:00:31  5-MIN KARB 161700Z AUTO 22019G30KT 10SM FEW049 SCT060 12/07 A2956 1180 71 1200 230/19G30 RMK AO2 PK WND 23030/1654 LTG DSNT NE T01220072
94889KARB ARB20160316120517803/16/16 12:05:31  5-MIN KARB 161705Z AUTO 23023G35KT 200V260 10SM FEW044 FEW055 SCT070 12/07 A2956 1180 68 1200 230/23G35 210V270 RMK AO2 PK WND 23035/1704 LTG DSNT NE T01220067
94889KARB ARB20160316121015503/16/16 12:10:31  5-MIN KARB 161710Z AUTO 23026G35KT 10SM FEW044 SCT065 12/06 A2956 1180 66 1200 230/26G35 RMK AO2 PK WND 23035/1704 LTG DSNT NE T01220061
94889KARB ARB20160316121514303/16/16 12:15:31  5-MIN KARB 161715Z AUTO 22022G33KT 10SM FEW046 BKN065 12/06 A2956 1180 66 1100 230/22G33 RMK AO2 PK WND 23035/1704 T01170056
94889KARB ARB20160316122015003/16/16 12:20:31  5-MIN KARB 161720Z AUTO 23019G31KT 10SM FEW038 SCT044 BKN060 11/06 A2956 1170 68 1000 240/19G31 RMK AO2 PK WND 23035/1704 T01110056
94889KARB ARB20160316122515003/16/16 12:25:31  5-MIN KARB 161725Z AUTO 23024G32KT 10SM SCT041 SCT050 BKN060 12/05 A2956 1170 63 1100 240/24G32 RMK AO2 PK WND 23035/1704 T01170050
94889KARB ARB20160316123015003/16/16 12:30:31  5-MIN KARB 161730Z AUTO 23019G32KT 10SM SCT041 BKN050 OVC060 12/05 A2956 1170 63 1100 240/19G32 RMK AO2 PK WND 23035/1704 T01170050
94889KARB ARB20160316123515003/16/16 12:35:31  5-MIN KARB 161735Z AUTO 24017G35KT 10SM FEW040 BKN047 OVC060 12/05 A2957 1170 63 1100 240/17G35 RMK AO2 PK WND 24035/1731 T01170050
94889KARB ARB20160316124015003/16/16 12:40:31  5-MIN KARB 161740Z AUTO 24023G35KT 10SM SCT041 BKN049 OVC060 13/06 A2957 1170 61 1200 250/23G35 RMK AO2 PK WND 24035/1731 T01280056
94889KARB ARB20160316124515003/16/16 12:45:31  5-MIN KARB 161745Z AUTO 25019G32KT 10SM SCT041 BKN049 OVC060 14/06 A2957 1160 57 1300 260/19G32 RMK AO2 PK WND 24035/1731 T01390056
94889KARB ARB20160316125018103/16/16 12:50:31  5-MIN KARB 161750Z AUTO 25024G35KT 10SM BKN041 BKN049 BKN060 13/04 A2958 1160 56 1200 250/24G35 RMK AO2 PK WND 24035/1731 SLP016 60001 T01280044 10139 20078 53003
94889KARB ARB20160316125514303/16/16 12:55:31  5-MIN KARB 161755Z AUTO 24019G35KT 10SM SCT041 BKN049 13/05 A2957 1160 57 1300 250/19G35 RMK AO2 PK WND 26028/1754 T01330050
94889KARB ARB20160316130014303/16/16 13:00:31  5-MIN KARB 161800Z AUTO 25025G33KT 10SM SCT041 BKN050 13/04 A2957 1160 52 1300 260/25G33 RMK AO2 PK WND 25033/1759 T01330039
94889KARB ARB20160316130515003/16/16 13:05:31  5-MIN KARB 161805Z AUTO 25019G33KT 10SM SCT041 BKN048 BKN060 13/04 A2958 1160 52 1300 250/19G33 RMK AO2 PK WND 25033/1759 T01330039
94889KARB ARB20160316131014303/16/16 13:10:31  5-MIN KARB 161810Z AUTO 24025G33KT 10SM BKN045 BKN060 14/04 A2958 1160 50 1300 250/25G33 RMK AO2 PK WND 24033/1809 T01390039
94889KARB ARB20160316131514303/16/16 13:15:31  5-MIN KARB 161815Z AUTO 24019G34KT 10SM BKN045 BKN060 13/03 A2958 1160 48 1300 250/19G34 RMK AO2 PK WND 25034/1812 T01330028
94889KARB ARB20160316132014303/16/16 13:20:31  5-MIN KARB 161820Z AUTO 25027G36KT 10SM SCT047 BKN060 14/03 A2958 1160 45 1400 260/27G36 RMK AO2 PK WND 23036/1820 T01440028
94889KARB ARB20160316132515003/16/16 13:25:31  5-MIN KARB 161825Z AUTO 25026G36KT 10SM SCT047 BKN060 BKN075 14/02 A2957 1170 45 1400 250/26G36 RMK AO2 PK WND 25036/1825 T01390022
94889KARB ARB20160316133015003/16/16 13:30:31  5-MIN KARB 161830Z AUTO 24023G36KT 10SM FEW047 BKN065 BKN080 14/02 A2957 1160 43 1300 250/23G36 RMK AO2 PK WND 25036/1825 T01390017
94889KARB ARB20160316133515003/16/16 13:35:31  5-MIN KARB 161835Z AUTO 24019G32KT 10SM FEW045 BKN060 BKN075 13/03 A2958 1160 48 1300 250/19G32 RMK AO2 PK WND 25036/1825 T01330028
94889KARB ARB20160316134015003/16/16 13:40:31  5-MIN KARB 161840Z AUTO 25021G31KT 10SM FEW050 BKN060 BKN080 14/02 A2958 1160 43 1300 260/21G31 RMK AO2 PK WND 25036/1825 T01390017
94889KARB ARB20160316134514303/16/16 13:45:31  5-MIN KARB 161845Z AUTO 23022G38KT 10SM BKN060 BKN080 13/02 A2958 1160 45 1300 240/22G38 RMK AO2 PK WND 24038/1843 T01330017
94889KARB ARB20160316135015703/16/16 13:50:31  5-MIN KARB 161850Z AUTO 25025G39KT 10SM BKN060 BKN070 BKN085 14/02 A2958 1160 43 1300 250/25G39 RMK AO2 PK WND 24039/1850 SLP016 T01390017
94889KARB ARB20160316135514303/16/16 13:55:31  5-MIN KARB 161855Z AUTO 24026G41KT 10SM SCT060 BKN075 15/01 A2958 1160 38 1500 250/26G41 RMK AO2 PK WND 24033/1854 T01500011
94889KARB ARB20160316140015003/16/16 14:00:31  5-MIN KARB 161900Z AUTO 24027G41KT 10SM SCT060 BKN070 OVC090 15/01 A2957 1160 38 1500 250/27G41 RMK AO2 PK WND 25035/1859 T01500011
94889KARB ARB20160316140515003/16/16 14:05:31  5-MIN KARB 161905Z AUTO 24024G37KT 10SM SCT060 BKN075 BKN090 14/01 A2958 1160 40 1400 250/24G37 RMK AO2 PK WND 22037/1902 T01440011
94889KARB ARB20160316141015003/16/16 14:10:31  5-MIN KARB 161910Z AUTO 23028G39KT 10SM SCT060 SCT070 BKN085 14/01 A2958 1160 38 1400 240/28G39 RMK AO2 PK WND 23039/1906 T01440006
94889KARB ARB20160316141514303/16/16 14:15:31  5-MIN KARB 161915Z AUTO 24022G39KT 10SM BKN065 BKN085 14/01 A2958 1160 38 1400 250/22G39 RMK AO2 PK WND 23039/1906 T01440006
94889KARB ARB20160316142014303/16/16 14:20:31  5-MIN KARB 161920Z AUTO 24023G34KT 10SM SCT070 BKN085 14/01 A2959 1150 38 1400 250/23G34 RMK AO2 PK WND 23039/1906 T01440006
94889KARB ARB20160316142514303/16/16 14:25:31  5-MIN KARB 161925Z AUTO 24022G34KT 10SM SCT065 BKN085 15/01 A2959 1150 38 1500 240/22G34 RMK AO2 PK WND 23039/1906 T01500011
94889KARB ARB20160316143014303/16/16 14:30:31  5-MIN KARB 161930Z AUTO 24026G35KT 10SM SCT070 SCT080 16/01 A2959 1150 37 1500 250/26G35 RMK AO2 PK WND 23039/1906 T01560011
94889KARB ARB20160316143514303/16/16 14:35:31  5-MIN KARB 161935Z AUTO 25024G35KT 10SM SCT065 SCT085 15/01 A2959 1150 37 1500 250/24G35 RMK AO2 PK WND 23039/1906 T01500006
94889KARB ARB20160316144014303/16/16 14:40:31  5-MIN KARB 161940Z AUTO 25025G35KT 10SM SCT070 SCT085 15/01 A2959 1150 37 1500 260/25G35 RMK AO2 PK WND 23039/1906 T01500006
94889KARB ARB20160316144514303/16/16 14:45:31  5-MIN KARB 161945Z AUTO 24033G45KT 10SM SCT070 SCT090 16/00 A2959 1150 34 1500 240/33G45 RMK AO2 PK WND 23045/1944 T01560000
94889KARB ARB20160316145015803/16/16 14:50:31  5-MIN KARB 161950Z AUTO 23027G45KT 10SM SCT070 SCT080 SCT100 15/M01 A2959 1150 33 1500 240/27G45 RMK AO2 PK WND 23045/1944 SLP020 T01501011
94889KARB ARB20160316145513703/16/16 14:55:31  5-MIN KARB 161955Z AUTO 23025G43KT 10SM SCT075 16/M01 A2959 1150 33 1500 240/25G43 RMK AO2 PK WND 22032/1954 T01561006
94889KARB ARB20160316150014403/16/16 15:00:31  5-MIN KARB 162000Z AUTO 23028G36KT 10SM SCT070 BKN085 14/M01 A2959 1150 34 1400 240/28G36 RMK AO2 PK WND 24036/2000 T01441011
94889KARB ARB20160316150514403/16/16 15:05:31  5-MIN KARB 162005Z AUTO 24026G37KT 10SM SCT070 BKN085 14/M02 A2960 1140 33 1400 250/26G37 RMK AO2 PK WND 24037/2002 T01441017
94889KARB ARB20160316151014403/16/16 15:10:31  5-MIN KARB 162010Z AUTO 24025G37KT 10SM BKN075 BKN090 14/M02 A2959 1150 33 1400 240/25G37 RMK AO2 PK WND 24037/2002 T01441017
94889KARB ARB20160316151514403/16/16 15:15:31  5-MIN KARB 162015Z AUTO 24028G41KT 10SM BKN075 BKN095 14/M02 A2960 1140 31 1400 250/28G41 RMK AO2 PK WND 22041/2012 T01441022
94889KARB ARB20160316152014403/16/16 15:20:31  5-MIN KARB 162020Z AUTO 25026G41KT 10SM BKN075 BKN095 15/M02 A2959 1150 31 1500 260/26G41 RMK AO2 PK WND 22041/2012 T01501017
94889KARB ARB20160316152514403/16/16 15:25:31  5-MIN KARB 162025Z AUTO 24026G36KT 10SM BKN075 BKN090 15/M02 A2960 1140 30 1400 250/26G36 RMK AO2 PK WND 22041/2012 T01501022
94889KARB ARB20160316153014403/16/16 15:30:31  5-MIN KARB 162030Z AUTO 24023G37KT 10SM BKN075 BKN090 15/M02 A2960 1140 30 1400 250/23G37 RMK AO2 PK WND 22041/2012 T01501022
94889KARB ARB20160316153514403/16/16 15:35:31  5-MIN KARB 162035Z AUTO 24025G37KT 10SM BKN080 BKN095 15/M03 A2960 1140 29 1400 250/25G37 RMK AO2 PK WND 22041/2012 T01501028
94889KARB ARB20160316154014403/16/16 15:40:31  5-MIN KARB 162040Z AUTO 25028G37KT 10SM SCT080 BKN095 15/M03 A2960 1140 29 1400 250/28G37 RMK AO2 PK WND 22041/2012 T01501028
94889KARB ARB20160316154514403/16/16 15:45:31  5-MIN KARB 162045Z AUTO 24025G40KT 10SM SCT080 BKN090 16/M03 A2960 1140 28 1500 250/25G40 RMK AO2 PK WND 22041/2012 T01561028
94889KARB ARB20160316155015003/16/16 15:50:31  5-MIN KARB 162050Z AUTO 24023G40KT 10SM BKN085 15/M03 A2960 1140 29 1400 250/23G40 RMK AO2 PK WND 22041/2012 SLP024 T01501028 53012
94889KARB ARB20160316155513703/16/16 15:55:31  5-MIN KARB 162055Z AUTO 25032G43KT 10SM SCT085 15/M03 A2960 1140 28 1400 260/32G43 RMK AO2 PK WND 25043/2054 T01501033
94889KARB ARB20160316160013703/16/16 16:00:31  5-MIN KARB 162100Z AUTO 24029G43KT 10SM SCT080 14/M04 A2960 1130 26 1400 250/29G43 RMK AO2 PK WND 25043/2054 T01441044
94889KARB ARB20160316160513703/16/16 16:05:31  5-MIN KARB 162105Z AUTO 25030G42KT 10SM BKN085 15/M04 A2961 1130 25 1400 260/30G42 RMK AO2 PK WND 25043/2054 T01501044
94889KARB ARB20160316161013703/16/16 16:10:31  5-MIN KARB 162110Z AUTO 26024G39KT 10SM SCT085 15/M05 A2961 1130 24 1400 260/24G39 RMK AO2 PK WND 25043/2054 T01501050
94889KARB ARB20160316161513703/16/16 16:15:31  5-MIN KARB 162115Z AUTO 25031G41KT 10SM FEW085 15/M05 A2961 1130 24 1400 260/31G41 RMK AO2 PK WND 25043/2054 T01501050
94889KARB ARB20160316162013703/16/16 16:20:31  5-MIN KARB 162120Z AUTO 25028G41KT 10SM FEW085 15/M06 A2961 1130 23 1400 260/28G41 RMK AO2 PK WND 25043/2054 T01501056
94889KARB ARB20160316162513703/16/16 16:25:31  5-MIN KARB 162125Z AUTO 25027G36KT 10SM FEW085 15/M05 A2962 1120 24 1400 260/27G36 RMK AO2 PK WND 25043/2054 T01501050
94889KARB ARB20160316163013703/16/16 16:30:31  5-MIN KARB 162130Z AUTO 26018G36KT 10SM FEW085 15/M05 A2962 1120 24 1400 270/18G36 RMK AO2 PK WND 25043/2054 T01501050
94889KARB ARB20160316163513403/16/16 16:35:31  5-MIN KARB 162135Z AUTO 25022G35KT 10SM CLR 15/M05 A2962 1120 24 1400 260/22G35 RMK AO2 PK WND 25043/2054 T01501050
94889KARB ARB20160316164013403/16/16 16:40:31  5-MIN KARB 162140Z AUTO 25026G34KT 10SM CLR 15/M05 A2962 1120 24 1400 250/26G34 RMK AO2 PK WND 25043/2054 T01501050
94889KARB ARB20160316164513403/16/16 16:45:31  5-MIN KARB 162145Z AUTO 25026G34KT 10SM CLR 14/M05 A2963 1110 25 1300 260/26G34 RMK AO2 PK WND 25043/2054 T01441050
94889KARB ARB20160316165014403/16/16 16:50:31  5-MIN KARB 162150Z AUTO 25018G34KT 10SM FEW095 14/M05 A2963 1110 26 1300 260/18G34 RMK AO2 PK WND 25043/2054 SLP035 T01391050
94889KARB ARB20160316165513703/16/16 16:55:31  5-MIN KARB 162155Z AUTO 26022G33KT 10SM SCT090 14/M05 A2963 1110 26 1300 270/22G33 RMK AO2 PK WND 27028/2155 T01391050
94889KARB ARB20160316170013703/16/16 17:00:31  5-MIN KARB 162200Z AUTO 25026G32KT 10SM BKN090 14/M05 A2964 1100 26 1300 250/26G32 RMK AO2 PK WND 24032/2159 T01391050
94889KARB ARB20160316170513703/16/16 17:05:31  5-MIN KARB 162205Z AUTO 25023G36KT 10SM BKN090 14/M05 A2964 1100 26 1300 250/23G36 RMK AO2 PK WND 26036/2202 T01391050
94889KARB ARB20160316171013703/16/16 17:10:31  5-MIN KARB 162210Z AUTO 24023G36KT 10SM BKN090 14/M04 A2964 1100 27 1300 250/23G36 RMK AO2 PK WND 26036/2202 T01391044
94889KARB ARB20160316171513703/16/16 17:15:31  5-MIN KARB 162215Z AUTO 24022G34KT 10SM BKN095 14/M04 A2965 1100 27 1300 250/22G34 RMK AO2 PK WND 26036/2202 T01391044
94889KARB ARB20160316172014403/16/16 17:20:31  5-MIN KARB 162220Z AUTO 25028G36KT 10SM BKN090 OVC110 14/M04 A2965 1090 26 1300 250/28G36 RMK AO2 PK WND 26036/2218 T01441044
94889KARB ARB20160316172513703/16/16 17:25:31  5-MIN KARB 162225Z AUTO 24019G36KT 10SM BKN095 14/M04 A2965 1090 26 1300 250/19G36 RMK AO2 PK WND 26036/2218 T01441044
94889KARB ARB20160316173013703/16/16 17:30:31  5-MIN KARB 162230Z AUTO 25022G34KT 10SM BKN100 14/M04 A2966 1090 29 1200 260/22G34 RMK AO2 PK WND 26036/2218 T01391039
94889KARB ARB20160316173514403/16/16 17:35:31  5-MIN KARB 162235Z AUTO 26018G29KT 10SM SCT090 SCT110 14/M04 A2966 1080 29 1200 260/18G29 RMK AO2 PK WND 26036/2218 T01391039
94889KARB ARB20160316174014403/16/16 17:40:31  5-MIN KARB 162240Z AUTO 25022G29KT 10SM SCT090 BKN110 14/M03 A2966 1080 30 1200 260/22G29 RMK AO2 PK WND 26036/2218 T01391033
94889KARB ARB20160316174513703/16/16 17:45:31  5-MIN KARB 162245Z AUTO 25021G29KT 10SM SCT090 13/M04 A2967 1080 30 1200 260/21G29 RMK AO2 PK WND 26036/2218 T01331039
94889KARB ARB20160316175015103/16/16 17:50:31  5-MIN KARB 162250Z AUTO 25027G37KT 10SM SCT090 SCT100 13/M04 A2967 1080 28 1200 260/27G37 RMK AO2 PK WND 26037/2247 SLP047 T01331044
94889KARB ARB20160316175513703/16/16 17:55:31  5-MIN KARB 162255Z AUTO 25023G37KT 10SM SCT090 13/M04 A2967 1070 30 1200 250/23G37 RMK AO2 PK WND 24031/2255 T01331039
94889KARB ARB20160316180013703/16/16 18:00:31  5-MIN KARB 162300Z AUTO 24025G34KT 10SM SCT090 13/M04 A2968 1070 30 1200 250/25G34 RMK AO2 PK WND 25034/2257 T01331039
94889KARB ARB20160316180513703/16/16 18:05:31  5-MIN KARB 162305Z AUTO 25022G34KT 10SM SCT090 13/M04 A2968 1060 31 1100 260/22G34 RMK AO2 PK WND 25034/2257 T01281039
94889KARB ARB20160316181013703/16/16 18:10:31  5-MIN KARB 162310Z AUTO 25025G34KT 10SM SCT090 13/M04 A2968 1060 31 1100 250/25G34 RMK AO2 PK WND 25034/2257 T01281039
94889KARB ARB20160316181513703/16/16 18:15:31  5-MIN KARB 162315Z AUTO 24023G34KT 10SM SCT090 13/M04 A2969 1060 31 1100 250/23G34 RMK AO2 PK WND 25034/2257 T01281039
94889KARB ARB20160316182013703/16/16 18:20:31  5-MIN KARB 162320Z AUTO 25025G32KT 10SM SCT090 13/M04 A2969 1060 31 1100 250/25G32 RMK AO2 PK WND 25034/2257 T01281039
94889KARB ARB20160316182513703/16/16 18:25:31  5-MIN KARB 162325Z AUTO 25018G32KT 10SM SCT090 12/M04 A2969 1050 32 1000 250/18G32 RMK AO2 PK WND 25034/2257 T01221039
94889KARB ARB20160316183014403/16/16 18:30:31  5-MIN KARB 162330Z AUTO 24020G26KT 10SM SCT090 SCT100 12/M04 A2969 1050 32 1000 250/20G26 RMK AO2 PK WND 25034/2257 T01221039
94889KARB ARB20160316183514403/16/16 18:35:31  5-MIN KARB 162335Z AUTO 24024G42KT 10SM SCT090 SCT100 12/M04 A2970 1050 32 1000 250/24G42 RMK AO2 PK WND 24042/2335 T01221039
94889KARB ARB20160316184013703/16/16 18:40:31  5-MIN KARB 162340Z AUTO 25019G42KT 10SM SCT095 12/M04 A2970 1040 32 1000 250/19G42 RMK AO2 PK WND 24042/2335 T01221039
94889KARB ARB20160316184513703/16/16 18:45:31  5-MIN KARB 162345Z AUTO 25022G32KT 10SM SCT100 12/M04 A2970 1040 32 1000 250/22G32 RMK AO2 PK WND 24042/2335 T01221039
94889KARB ARB20160316185016203/16/16 18:50:31  5-MIN KARB 162350Z AUTO 25025G35KT 10SM FEW095 12/M04 A2971 1040 32 1000 260/25G35 RMK AO2 PK WND 24042/2335 SLP060 T01221039 10156 20122 53008
94889KARB ARB20160316185514403/16/16 18:55:31  5-MIN KARB 162355Z AUTO 25025G35KT 10SM FEW085 FEW100 12/M04 A2971 1040 32 1000 260/25G35 RMK AO2 PK WND 25033/2354 T01221039
94889KARB ARB20160316190013703/16/16 19:00:31  5-MIN KARB 170000Z AUTO 24023G33KT 10SM FEW085 12/M04 A2971 1030 32 1000 250/23G33 RMK AO2 PK WND 25033/2354 T01221039
94889KARB ARB20160316190513603/16/16 19:05:31  5-MIN KARB 170005Z AUTO 24024G31KT 10SM FEW095 12/M04 A2971 1030 33 900 250/24G31 RMK AO2 PK WND 25033/2354 T01171039
94889KARB ARB20160316191013603/16/16 19:10:31  5-MIN KARB 170010Z AUTO 25017G29KT 10SM FEW080 12/M04 A2972 1030 33 900 260/17G29 RMK AO2 PK WND 25033/2354 T01171039
94889KARB ARB20160316191513603/16/16 19:15:31  5-MIN KARB 170015Z AUTO 25022G26KT 10SM FEW080 12/M03 A2972 1030 35 900 260/22G26 RMK AO2 PK WND 25033/2354 T01171033
94889KARB ARB20160316192013603/16/16 19:20:31  5-MIN KARB 170020Z AUTO 25019G26KT 10SM FEW080 12/M03 A2972 1030 35 900 260/19G26 RMK AO2 PK WND 25033/2354 T01171033
94889KARB ARB20160316192513303/16/16 19:25:31  5-MIN KARB 170025Z AUTO 25020G27KT 10SM CLR 11/M03 A2972 1020 36 800 250/20G27 RMK AO2 PK WND 25033/2354 T01111033
94889KARB ARB20160316193013603/16/16 19:30:31  5-MIN KARB 170030Z AUTO 25019G27KT 10SM FEW080 12/M03 A2973 1020 35 900 250/19G27 RMK AO2 PK WND 25033/2354 T01171033
94889KARB ARB20160316193513603/16/16 19:35:31  5-MIN KARB 170035Z AUTO 25019G27KT 10SM FEW080 11/M03 A2973 1020 36 800 260/19G27 RMK AO2 PK WND 25033/2354 T01111033
94889KARB ARB20160316194013303/16/16 19:40:31  5-MIN KARB 170040Z AUTO 25016G27KT 10SM CLR 11/M03 A2973 1020 37 800 250/16G27 RMK AO2 PK WND 25033/2354 T01111028
94889KARB ARB20160316194513003/16/16 19:45:31  5-MIN KARB 170045Z AUTO 25015KT 10SM FEW080 11/M03 A2973 1010 37 800 250/15 RMK AO2 PK WND 25033/2354 T01111028
94889KARB ARB20160316195014303/16/16 19:50:31  5-MIN KARB 170050Z AUTO 25018G23KT 10SM FEW080 11/M03 A2973 1010 37 800 250/18G23 RMK AO2 PK WND 25033/2354 SLP071 T01111028
94889KARB ARB20160316195511203/16/16 19:55:31  5-MIN KARB 170055Z AUTO 24018KT 10SM FEW080 11/M03 A2974 1010 37 800 250/18 RMK AO2 T01111028
94889KARB ARB20160316200011803/16/16 20:00:31  5-MIN KARB 170100Z AUTO 24013G22KT 10SM SCT080 11/M03 A2974 1010 37 800 250/13G22 RMK AO2 T01111028
94889KARB ARB20160316200511803/16/16 20:05:31  5-MIN KARB 170105Z AUTO 24014G21KT 10SM SCT080 11/M03 A2974 1010 39 800 250/14G21 RMK AO2 T01061028
94889KARB ARB20160316201011803/16/16 20:10:31  5-MIN KARB 170110Z AUTO 24011G22KT 10SM SCT085 11/M03 A2974 1010 37 800 250/11G22 RMK AO2 T01111028
94889KARB ARB20160316201511803/16/16 20:15:31  5-MIN KARB 170115Z AUTO 24013G22KT 10SM SCT085 11/M03 A2974 1010 39 800 250/13G22 RMK AO2 T01061028
94889KARB ARB20160316202011803/16/16 20:20:31  5-MIN KARB 170120Z AUTO 24015G20KT 10SM SCT080 11/M03 A2974 1000 39 800 250/15G20 RMK AO2 T01061028
94889KARB ARB20160316202511203/16/16 20:25:31  5-MIN KARB 170125Z AUTO 24015KT 10SM FEW080 11/M03 A2974 1000 39 800 250/15 RMK AO2 T01061028
94889KARB ARB20160316203011203/16/16 20:30:31  5-MIN KARB 170130Z AUTO 24015KT 10SM FEW085 11/M03 A2974 1000 39 800 250/15 RMK AO2 T01061028
94889KARB ARB20160316203511803/16/16 20:35:31  5-MIN KARB 170135Z AUTO 24017G21KT 10SM FEW085 11/M03 A2975 1000 39 800 240/17G21 RMK AO2 T01061028
94889KARB ARB20160316204011503/16/16 20:40:31  5-MIN KARB 170140Z AUTO 24014G21KT 10SM CLR 11/M03 A2975 1000 39 700 250/14G21 RMK AO2 T01061028
94889KARB ARB20160316204511503/16/16 20:45:31  5-MIN KARB 170145Z AUTO 24014G24KT 10SM CLR 11/M03 A2975 1000 37 800 240/14G24 RMK AO2 T01111028
94889KARB ARB20160316205012203/16/16 20:50:31  5-MIN KARB 170150Z AUTO 23013G24KT 10SM CLR 11/M03 A2975 1000 39 700 240/13G24 RMK AO2 SLP074 T01061028
94889KARB ARB20160316205511503/16/16 20:55:31  5-MIN KARB 170155Z AUTO 24016G21KT 10SM CLR 11/M03 A2975 1000 39 700 250/16G21 RMK AO2 T01061028
94889KARB ARB20160316210011503/16/16 21:00:31  5-MIN KARB 170200Z AUTO 23015G21KT 10SM CLR 11/M02 A2975 1000 40 700 240/15G21 RMK AO2 T01061022
94889KARB ARB20160316210511503/16/16 21:05:31  5-MIN KARB 170205Z AUTO 23013G20KT 10SM CLR 11/M02 A2975 1000 40 700 240/13G20 RMK AO2 T01061022
94889KARB ARB20160316211010903/16/16 21:10:31  5-MIN KARB 170210Z AUTO 24014KT 10SM CLR 11/M02 A2975 1000 40 700 250/14 RMK AO2 T01061022
94889KARB ARB20160316211510903/16/16 21:15:31  5-MIN KARB 170215Z AUTO 24014KT 10SM CLR 11/M02 A2975 1000 40 700 240/14 RMK AO2 T01061022
94889KARB ARB20160316212011503/16/16 21:20:31  5-MIN KARB 170220Z AUTO 24013G21KT 10SM CLR 11/M02 A2975 1000 40 700 250/13G21 RMK AO2 T01061022
94889KARB ARB20160316212511503/16/16 21:25:31  5-MIN KARB 170225Z AUTO 24017G24KT 10SM CLR 11/M02 A2975 1000 40 700 240/17G24 RMK AO2 T01061022
94889KARB ARB20160316213011503/16/16 21:30:31  5-MIN KARB 170230Z AUTO 24013G24KT 10SM CLR 11/M02 A2975 1000 40 700 250/13G24 RMK AO2 T01061022
94889KARB ARB20160316213511503/16/16 21:35:31  5-MIN KARB 170235Z AUTO 24014G22KT 10SM CLR 11/M02 A2975 1000 40 700 240/14G22 RMK AO2 T01061022
94889KARB ARB20160316214011503/16/16 21:40:31  5-MIN KARB 170240Z AUTO 24014G22KT 10SM CLR 10/M02 A2975 1000 42 700 240/14G22 RMK AO2 T01001022
94889KARB ARB20160316214510903/16/16 21:45:31  5-MIN KARB 170245Z AUTO 24011KT 10SM CLR 10/M02 A2975 1000 42 700 240/11 RMK AO2 T01001022
94889KARB ARB20160316215012203/16/16 21:50:31  5-MIN KARB 170250Z AUTO 24011KT 10SM CLR 10/M02 A2975 1000 42 700 250/11 RMK AO2 SLP075 T01001022 53036
94889KARB ARB20160316215510903/16/16 21:55:31  5-MIN KARB 170255Z AUTO 24012KT 10SM CLR 10/M02 A2975 1000 42 700 250/12 RMK AO2 T01001022
94889KARB ARB20160316220010903/16/16 22:00:31  5-MIN KARB 170300Z AUTO 24011KT 10SM CLR 10/M02 A2975 1000 42 700 250/11 RMK AO2 T01001022
94889KARB ARB20160316220511503/16/16 22:05:31  5-MIN KARB 170305Z AUTO 25015G22KT 10SM CLR 10/M02 A2975 1000 42 700 250/15G22 RMK AO2 T01001022
94889KARB ARB20160316221011503/16/16 22:10:31  5-MIN KARB 170310Z AUTO 24013G22KT 10SM CLR 10/M02 A2975 1000 42 700 240/13G22 RMK AO2 T01001022
94889KARB ARB20160316221510903/16/16 22:15:31  5-MIN KARB 170315Z AUTO 24014KT 10SM CLR 10/M02 A2975 1000 42 700 250/14 RMK AO2 T01001022
94889KARB ARB20160316222010803/16/16 22:20:31  5-MIN KARB 170320Z AUTO 24013KT 10SM CLR 10/M02 A2975 990 42 700 240/13 RMK AO2 T01001022
94889KARB ARB20160316222510903/16/16 22:25:31  5-MIN KARB 170325Z AUTO 23009KT 10SM CLR 09/M02 A2975 1000 44 600 240/09 RMK AO2 T00941022
94889KARB ARB20160316223010903/16/16 22:30:31  5-MIN KARB 170330Z AUTO 23009KT 10SM CLR 09/M02 A2975 1000 44 600 240/09 RMK AO2 T00941022
94889KARB ARB20160316223510803/16/16 22:35:31  5-MIN KARB 170335Z AUTO 23011KT 10SM CLR 09/M02 A2975 990 44 600 240/11 RMK AO2 T00941022
94889KARB ARB20160316224010903/16/16 22:40:31  5-MIN KARB 170340Z AUTO 23010KT 10SM CLR 09/M02 A2975 1000 44 600 240/10 RMK AO2 T00941022
94889KARB ARB20160316224510903/16/16 22:45:31  5-MIN KARB 170345Z AUTO 23008KT 10SM CLR 09/M02 A2975 1000 45 500 230/08 RMK AO2 T00891022
94889KARB ARB20160316225011603/16/16 22:50:31  5-MIN KARB 170350Z AUTO 23010KT 10SM CLR 09/M02 A2975 1000 44 600 240/10 RMK AO2 SLP075 T00941022
94889KARB ARB20160316225510903/16/16 22:55:31  5-MIN KARB 170355Z AUTO 24010KT 10SM CLR 09/M02 A2975 1000 44 600 240/10 RMK AO2 T00941022
94889KARB ARB20160316230010903/16/16 23:00:31  5-MIN KARB 170400Z AUTO 23010KT 10SM CLR 09/M02 A2975 1000 44 600 240/10 RMK AO2 T00941022
94889KARB ARB20160316230510903/16/16 23:05:31  5-MIN KARB 170405Z AUTO 23009KT 10SM CLR 09/M02 A2975 1000 47 500 240/09 RMK AO2 T00891017
94889KARB ARB20160316231010903/16/16 23:10:31  5-MIN KARB 170410Z AUTO 22009KT 10SM CLR 09/M02 A2975 1000 47 500 230/09 RMK AO2 T00891017
94889KARB ARB20160316231510903/16/16 23:15:31  5-MIN KARB 170415Z AUTO 22010KT 10SM CLR 08/M02 A2975 1000 49 500 230/10 RMK AO2 T00831017
94889KARB ARB20160316232010803/16/16 23:20:31  5-MIN KARB 170420Z AUTO 24010KT 10SM CLR 09/M02 A2976 990 47 500 250/10 RMK AO2 T00891017
94889KARB ARB20160316232510803/16/16 23:25:31  5-MIN KARB 170425Z AUTO 24014KT 10SM CLR 09/M02 A2976 990 47 500 250/14 RMK AO2 T00891017
94889KARB ARB20160316233011403/16/16 23:30:31  5-MIN KARB 170430Z AUTO 25016G22KT 10SM CLR 09/M02 A2976 990 45 600 260/16G22 RMK AO2 T00941017
94889KARB ARB20160316233511403/16/16 23:35:31  5-MIN KARB 170435Z AUTO 24016G22KT 10SM CLR 09/M02 A2976 990 44 600 250/16G22 RMK AO2 T00941022
94889KARB ARB20160316234011703/16/16 23:40:31  5-MIN KARB 170440Z AUTO 24013G21KT 10SM FEW090 09/M02 A2976 990 44 600 240/13G21 RMK AO2 T00941022
94889KARB ARB20160316234511703/16/16 23:45:31  5-MIN KARB 170445Z AUTO 24013G23KT 10SM FEW090 09/M02 A2976 990 44 600 250/13G23 RMK AO2 T00941022
94889KARB ARB20160316235013403/16/16 23:50:31  5-MIN KARB 170450Z AUTO 24013G23KT 10SM FEW090 09/M02 A2976 990 47 500 250/13G23 RMK AO2 SLP078 T00891017 401560067
94889KARB ARB20160316235511703/16/16 23:55:31  5-MIN KARB 170455Z AUTO 23014G22KT 10SM FEW085 09/M02 A2976 990 44 600 240/14G22 RMK AO2 T00941022
94889KARB ARB20160317000011703/17/16 00:00:31  5-MIN KARB 170500Z AUTO 23012G22KT 10SM SCT085 09/M02 A2976 990 44 600 240/12G22 RMK AO2 T00941022
94889KARB ARB20160317000511703/17/16 00:05:31  5-MIN KARB 170505Z AUTO 23014G20KT 10SM BKN090 09/M02 A2976 990 44 600 240/14G20 RMK AO2 T00941022
94889KARB ARB20160317001011703/17/16 00:10:31  5-MIN KARB 170510Z AUTO 23014G20KT 10SM BKN085 09/M02 A2976 990 44 600 230/14G20 RMK AO2 T00941022
94889KARB ARB20160317001511103/17/16 00:15:31  5-MIN KARB 170515Z AUTO 23013KT 10SM BKN085 09/M02 A2976 990 44 600 240/13 RMK AO2 T00941022
94889KARB ARB20160317002012403/17/16 00:20:31  5-MIN KARB 170520Z AUTO 22010G19KT 10SM BKN090 BKN120 09/M02 A2976 990 47 500 230/10G19 RMK AO2 T00891017
94889KARB ARB20160317002511803/17/16 00:25:31  5-MIN KARB 170525Z AUTO 22012KT 10SM BKN090 BKN110 09/M02 A2976 990 47 500 230/12 RMK AO2 T00891017
94889KARB ARB20160317003013203/17/16 00:30:31  5-MIN KARB 170530Z AUTO 22013G21KT 10SM FEW080 BKN100 BKN110 09/M01 A2975 1000 49 500 220/13G21 RMK AO2 T00891011
94889KARB ARB20160317003512503/17/16 00:35:31  5-MIN KARB 170535Z AUTO 22011G21KT 10SM BKN095 BKN110 09/M01 A2975 1000 49 500 230/11G21 RMK AO2 T00891011
94889KARB ARB20160317004012503/17/16 00:40:31  5-MIN KARB 170540Z AUTO 22013G19KT 10SM SCT095 SCT110 08/M01 A2975 1000 53 500 230/13G19 RMK AO2 T00831006
94889KARB ARB20160317004512503/17/16 00:45:31  5-MIN KARB 170545Z AUTO 23013G18KT 10SM FEW095 SCT110 08/M01 A2974 1000 53 500 230/13G18 RMK AO2 T00831006
94889KARB ARB20160317005013703/17/16 00:50:31  5-MIN KARB 170550Z AUTO 23014KT 10SM FEW095 08/M01 A2975 1000 53 500 240/14 RMK AO2 SLP074 T00831006 10122 20083 51014
94889KARB ARB20160317005511203/17/16 00:55:31  5-MIN KARB 170555Z AUTO 23013KT 10SM FEW100 08/M01 A2975 1000 51 500 240/13 RMK AO2 T00831011
94889KARB ARB20160317010011503/17/16 01:00:31  5-MIN KARB 170600Z AUTO 23011G19KT 10SM CLR 08/M01 A2975 1000 51 500 240/11G19 RMK AO2 T00831011
94889KARB ARB20160317010510903/17/16 01:05:31  5-MIN KARB 170605Z AUTO 23011KT 10SM CLR 08/M01 A2975 1000 51 500 240/11 RMK AO2 T00831011
94889KARB ARB20160317011011203/17/16 01:10:31  5-MIN KARB 170610Z AUTO 23012KT 10SM FEW080 08/M01 A2975 1000 53 400 240/12 RMK AO2 T00781011
94889KARB ARB20160317011511203/17/16 01:15:31  5-MIN KARB 170615Z AUTO 24013KT 10SM FEW080 08/M01 A2975 1000 53 500 240/13 RMK AO2 T00831006
94889KARB ARB20160317012011203/17/16 01:20:31  5-MIN KARB 170620Z AUTO 23012KT 10SM FEW080 08/M01 A2975 1000 55 400 240/12 RMK AO2 T00781006
94889KARB ARB20160317012511203/17/16 01:25:31  5-MIN KARB 170625Z AUTO 22013KT 10SM FEW080 08/M01 A2975 1000 55 400 230/13 RMK AO2 T00781006
94889KARB ARB20160317013011903/17/16 01:30:31  5-MIN KARB 170630Z AUTO 23010KT 10SM FEW065 FEW080 08/M01 A2975 1000 55 400 240/10 RMK AO2 T00781006
94889KARB ARB20160317013511903/17/16 01:35:31  5-MIN KARB 170635Z AUTO 23013KT 10SM FEW065 FEW080 08/M01 A2975 1000 55 400 240/13 RMK AO2 T00781006
94889KARB ARB20160317014010903/17/16 01:40:31  5-MIN KARB 170640Z AUTO 23012KT 10SM CLR 08/M01 A2975 1000 55 400 240/12 RMK AO2 T00781006
94889KARB ARB20160317014510903/17/16 01:45:31  5-MIN KARB 170645Z AUTO 23012KT 10SM CLR 08/M01 A2975 1000 55 400 230/12 RMK AO2 T00781006
94889KARB ARB20160317015011903/17/16 01:50:31  5-MIN KARB 170650Z AUTO 22013KT 10SM FEW060 08/M01 A2975 1000 55 400 230/13 RMK AO2 SLP075 T00781006
94889KARB ARB20160317015511203/17/16 01:55:31  5-MIN KARB 170655Z AUTO 22013KT 10SM FEW065 08/M01 A2975 1000 55 400 230/13 RMK AO2 T00781006
94889KARB ARB20160317020011203/17/16 02:00:31  5-MIN KARB 170700Z AUTO 23012KT 10SM FEW065 08/M01 A2975 1000 53 400 240/12 RMK AO2 T00781011
94889KARB ARB20160317020510903/17/16 02:05:31  5-MIN KARB 170705Z AUTO 23011KT 10SM CLR 07/M01 A2975 1000 57 300 240/11 RMK AO2 T00721006
94889KARB ARB20160317021011503/17/16 02:10:31  5-MIN KARB 170710Z AUTO 23015G20KT 10SM CLR 07/M01 A2975 1000 57 300 240/15G20 RMK AO2 T00721006
94889KARB ARB20160317021511503/17/16 02:15:31  5-MIN KARB 170715Z AUTO 24014G21KT 10SM CLR 07/M01 A2975 1000 57 300 240/14G21 RMK AO2 T00721006
94889KARB ARB20160317022010903/17/16 02:20:31  5-MIN KARB 170720Z AUTO 24014KT 10SM CLR 07/M01 A2975 1000 57 300 250/14 RMK AO2 T00721006
94889KARB ARB20160317022511503/17/16 02:25:31  5-MIN KARB 170725Z AUTO 24018G21KT 10SM CLR 07/M01 A2975 1000 57 300 250/18G21 RMK AO2 T00721006
94889KARB ARB20160317023011503/17/16 02:30:31  5-MIN KARB 170730Z AUTO 24012G21KT 10SM CLR 07/M01 A2975 1000 57 300 250/12G21 RMK AO2 T00721006
94889KARB ARB20160317023510903/17/16 02:35:31  5-MIN KARB 170735Z AUTO 24014KT 10SM CLR 07/M01 A2975 1000 57 300 250/14 RMK AO2 T00721006
94889KARB ARB20160317024010903/17/16 02:40:31  5-MIN KARB 170740Z AUTO 24013KT 10SM CLR 07/M01 A2975 1000 60 300 250/13 RMK AO2 T00671006
94889KARB ARB20160317024510903/17/16 02:45:31  5-MIN KARB 170745Z AUTO 25014KT 10SM CLR 07/M01 A2975 1000 57 300 250/14 RMK AO2 T00721006
94889KARB ARB20160317025011603/17/16 02:50:31  5-MIN KARB 170750Z AUTO 25015KT 10SM CLR 07/M01 A2975 1000 55 300 260/15 RMK AO2 SLP074 T00721011
94889KARB ARB20160317025510903/17/16 02:55:31  5-MIN KARB 170755Z AUTO 25013KT 10SM CLR 07/M02 A2975 1000 53 300 260/13 RMK AO2 T00721017
94889KARB ARB20160317030010903/17/16 03:00:31  5-MIN KARB 170800Z AUTO 25016KT 10SM CLR 07/M02 A2975 1000 53 300 250/16 RMK AO2 T00721017
94889KARB ARB20160317030511503/17/16 03:05:31  5-MIN KARB 170805Z AUTO 25015G22KT 10SM CLR 08/M02 A2974 1010 51 400 260/15G22 RMK AO2 T00781017
94889KARB ARB20160317031011503/17/16 03:10:31  5-MIN KARB 170810Z AUTO 24014G22KT 10SM CLR 07/M02 A2974 1010 53 400 250/14G22 RMK AO2 T00721017
94889KARB ARB20160317031511503/17/16 03:15:31  5-MIN KARB 170815Z AUTO 25014G21KT 10SM CLR 07/M02 A2974 1010 53 400 250/14G21 RMK AO2 T00721017
94889KARB ARB20160317032011503/17/16 03:20:31  5-MIN KARB 170820Z AUTO 25013G21KT 10SM CLR 07/M02 A2974 1010 53 400 250/13G21 RMK AO2 T00721017
94889KARB ARB20160317032510903/17/16 03:25:31  5-MIN KARB 170825Z AUTO 25011KT 10SM CLR 07/M02 A2974 1010 53 400 260/11 RMK AO2 T00721017
94889KARB ARB20160317033010903/17/16 03:30:31  5-MIN KARB 170830Z AUTO 25012KT 10SM CLR 07/M02 A2974 1010 55 300 260/12 RMK AO2 T00671017
94889KARB ARB20160317033510903/17/16 03:35:31  5-MIN KARB 170835Z AUTO 25012KT 10SM CLR 07/M02 A2974 1010 53 400 260/12 RMK AO2 T00721017
94889KARB ARB20160317034010903/17/16 03:40:31  5-MIN KARB 170840Z AUTO 25013KT 10SM CLR 07/M02 A2974 1010 55 300 260/13 RMK AO2 T00671017
94889KARB ARB20160317034511503/17/16 03:45:31  5-MIN KARB 170845Z AUTO 25014G21KT 10SM CLR 07/M02 A2974 1010 55 300 260/14G21 RMK AO2 T00671017
94889KARB ARB20160317035012803/17/16 03:50:31  5-MIN KARB 170850Z AUTO 25013G21KT 10SM CLR 07/M02 A2974 1010 53 400 260/13G21 RMK AO2 SLP072 T00721017 58002
94889KARB ARB20160317035510903/17/16 03:55:31  5-MIN KARB 170855Z AUTO 25013KT 10SM CLR 07/M02 A2974 1010 53 400 260/13 RMK AO2 T00721017
94889KARB ARB20160317040010903/17/16 04:00:31  5-MIN KARB 170900Z AUTO 25012KT 10SM CLR 07/M02 A2974 1010 55 300 260/12 RMK AO2 T00671017
94889KARB ARB20160317040510903/17/16 04:05:31  5-MIN KARB 170905Z AUTO 25012KT 10SM CLR 07/M02 A2974 1010 53 400 260/12 RMK AO2 T00721017
94889KARB ARB20160317041010903/17/16 04:10:31  5-MIN KARB 170910Z AUTO 25011KT 10SM CLR 07/M02 A2974 1010 55 300 260/11 RMK AO2 T00671017
94889KARB ARB20160317041510903/17/16 04:15:31  5-MIN KARB 170915Z AUTO 25012KT 10SM CLR 07/M02 A2974 1010 55 300 260/12 RMK AO2 T00671017
94889KARB ARB20160317042010903/17/16 04:20:31  5-MIN KARB 170920Z AUTO 25012KT 10SM CLR 07/M02 A2974 1010 55 300 260/12 RMK AO2 T00671017
94889KARB ARB20160317042510903/17/16 04:25:31  5-MIN KARB 170925Z AUTO 25013KT 10SM CLR 07/M02 A2974 1010 55 300 260/13 RMK AO2 T00671017
94889KARB ARB20160317043010903/17/16 04:30:31  5-MIN KARB 170930Z AUTO 25011KT 10SM CLR 07/M02 A2974 1010 55 300 250/11 RMK AO2 T00671017
94889KARB ARB20160317043510903/17/16 04:35:31  5-MIN KARB 170935Z AUTO 25010KT 10SM CLR 06/M02 A2974 1010 57 200 260/10 RMK AO2 T00611017
94889KARB ARB20160317044010903/17/16 04:40:31  5-MIN KARB 170940Z AUTO 25010KT 10SM CLR 06/M02 A2974 1010 57 200 250/10 RMK AO2 T00611017
94889KARB ARB20160317044510903/17/16 04:45:31  5-MIN KARB 170945Z AUTO 24009KT 10SM CLR 06/M02 A2974 1010 57 200 250/09 RMK AO2 T00611017
94889KARB ARB20160317045011603/17/16 04:50:31  5-MIN KARB 170950Z AUTO 24008KT 10SM CLR 06/M02 A2974 1010 59 200 250/08 RMK AO2 SLP071 T00561017
94889KARB ARB20160317045510903/17/16 04:55:31  5-MIN KARB 170955Z AUTO 24009KT 10SM CLR 06/M02 A2974 1010 59 200 240/09 RMK AO2 T00561017
94889KARB ARB20160317050010903/17/16 05:00:31  5-MIN KARB 171000Z AUTO 23008KT 10SM CLR 06/M02 A2974 1010 57 200 240/08 RMK AO2 T00611017
94889KARB ARB20160317050510903/17/16 05:05:31  5-MIN KARB 171005Z AUTO 23008KT 10SM CLR 06/M02 A2974 1010 57 200 240/08 RMK AO2 T00611017
94889KARB ARB20160317051010903/17/16 05:10:31  5-MIN KARB 171010Z AUTO 24008KT 10SM CLR 06/M02 A2974 1010 59 200 250/08 RMK AO2 T00561017
94889KARB ARB20160317051510903/17/16 05:15:31  5-MIN KARB 171015Z AUTO 22006KT 10SM CLR 05/M02 A2974 1010 62 100 230/06 RMK AO2 T00501017
94889KARB ARB20160317052010903/17/16 05:20:31  5-MIN KARB 171020Z AUTO 21006KT 10SM CLR 05/M02 A2974 1010 62 100 220/06 RMK AO2 T00501017
94889KARB ARB20160317052510903/17/16 05:25:31  5-MIN KARB 171025Z AUTO 21007KT 10SM CLR 05/M02 A2974 1010 62 100 220/07 RMK AO2 T00501017
94889KARB ARB20160317053010903/17/16 05:30:31  5-MIN KARB 171030Z AUTO 22007KT 10SM CLR 05/M02 A2974 1010 62 100 220/07 RMK AO2 T00501017
94889KARB ARB20160317053510703/17/16 05:35:31  5-MIN KARB 171035Z AUTO 22007KT 10SM CLR 04/M02 A2974 1010 64 0 220/07 RMK AO2 T00441017
94889KARB ARB20160317054010703/17/16 05:40:31  5-MIN KARB 171040Z AUTO 22007KT 10SM CLR 04/M02 A2974 1010 64 0 230/07 RMK AO2 T00441017
94889KARB ARB20160317054510703/17/16 05:45:31  5-MIN KARB 171045Z AUTO 22007KT 10SM CLR 04/M02 A2974 1010 64 0 230/07 RMK AO2 T00441017
94889KARB ARB20160317055011403/17/16 05:50:31  5-MIN KARB 171050Z AUTO 21007KT 10SM CLR 04/M02 A2974 1010 64 0 220/07 RMK AO2 SLP073 T00441017
94889KARB ARB20160317055510703/17/16 05:55:31  5-MIN KARB 171055Z AUTO 21008KT 10SM CLR 04/M01 A2974 1010 67 0 220/08 RMK AO2 T00441011
94889KARB ARB20160317060010703/17/16 06:00:31  5-MIN KARB 171100Z AUTO 21008KT 10SM CLR 04/M01 A2974 1010 67 0 220/08 RMK AO2 T00441011
94889KARB ARB20160317060510703/17/16 06:05:31  5-MIN KARB 171105Z AUTO 21007KT 10SM CLR 04/M01 A2974 1010 67 0 220/07 RMK AO2 T00441011
94889KARB ARB20160317061010703/17/16 06:10:31  5-MIN KARB 171110Z AUTO 22007KT 10SM CLR 04/M01 A2974 1010 67 0 230/07 RMK AO2 T00441011
94889KARB ARB20160317061510703/17/16 06:15:31  5-MIN KARB 171115Z AUTO 22006KT 10SM CLR 04/M01 A2974 1010 70 0 230/06 RMK AO2 T00391011
94889KARB ARB20160317062010703/17/16 06:20:31  5-MIN KARB 171120Z AUTO 22007KT 10SM CLR 04/M01 A2974 1010 70 0 220/07 RMK AO2 T00391011
94889KARB ARB20160317062510703/17/16 06:25:31  5-MIN KARB 171125Z AUTO 21006KT 10SM CLR 04/M01 A2974 1010 70 0 220/06 RMK AO2 T00391011
94889KARB ARB20160317063010703/17/16 06:30:31  5-MIN KARB 171130Z AUTO 21007KT 10SM CLR 04/M01 A2974 1010 70 0 220/07 RMK AO2 T00391011
94889KARB ARB20160317063510703/17/16 06:35:31  5-MIN KARB 171135Z AUTO 21008KT 10SM CLR 04/M01 A2974 1010 67 0 220/08 RMK AO2 T00441011
94889KARB ARB20160317064010703/17/16 06:40:31  5-MIN KARB 171140Z AUTO 22008KT 10SM CLR 04/M01 A2974 1010 70 0 220/08 RMK AO2 T00391011
94889KARB ARB20160317064510703/17/16 06:45:31  5-MIN KARB 171145Z AUTO 22008KT 10SM CLR 04/M01 A2974 1010 70 0 220/08 RMK AO2 T00391011
94889KARB ARB20160317065013803/17/16 06:50:31  5-MIN KARB 171150Z AUTO 22008KT 10SM CLR 04/M01 A2974 1010 67 0 220/08 RMK AO2 SLP074 70001 T00441011 10083 20039 58002
94889KARB ARB20160317065510203/17/16 06:55:31  5-MIN KARB 171155Z 22007KT 10SM CLR 04/M01 A2974 1010 70 0 220/07 RMK AO2 T00391011
94889KARB ARB20160317070010203/17/16 07:00:31  5-MIN KARB 171200Z 22007KT 10SM CLR 04/M01 A2974 1010 70 0 230/07 RMK AO2 T00391011
94889KARB ARB20160317070510203/17/16 07:05:31  5-MIN KARB 171205Z 22008KT 10SM CLR 04/M01 A2974 1000 67 0 230/08 RMK AO2 T00441011
94889KARB ARB20160317071010203/17/16 07:10:31  5-MIN KARB 171210Z 22009KT 10SM CLR 04/M01 A2975 1000 67 0 220/09 RMK AO2 T00441011
94889KARB ARB20160317071510203/17/16 07:15:31  5-MIN KARB 171215Z 22009KT 10SM CLR 04/M01 A2975 1000 67 0 230/09 RMK AO2 T00441011
94889KARB ARB20160317072010203/17/16 07:20:31  5-MIN KARB 171220Z 22008KT 10SM CLR 04/M01 A2975 1000 70 0 230/08 RMK AO2 T00441006
94889KARB ARB20160317072510403/17/16 07:25:31  5-MIN KARB 171225Z 22008KT 10SM CLR 05/M01 A2975 1000 67 100 230/08 RMK AO2 T00501006
94889KARB ARB20160317073010403/17/16 07:30:31  5-MIN KARB 171230Z 23007KT 10SM CLR 05/M01 A2975 1000 67 100 230/07 RMK AO2 T00501006
94889KARB ARB20160317073510403/17/16 07:35:31  5-MIN KARB 171235Z 23008KT 10SM CLR 05/M01 A2975 1000 67 100 240/08 RMK AO2 T00501006
94889KARB ARB20160317074010403/17/16 07:40:31  5-MIN KARB 171240Z 23008KT 10SM CLR 06/M01 A2975 1000 65 100 240/08 RMK AO2 T00561006
94889KARB ARB20160317074510403/17/16 07:45:31  5-MIN KARB 171245Z 24007KT 10SM CLR 06/M01 A2975 1000 65 100 240/07 RMK AO2 T00561006
94889KARB ARB20160317075011103/17/16 07:50:31  5-MIN KARB 171250Z 24007KT 10SM CLR 06/M01 A2975 1000 65 100 240/07 RMK AO2 SLP077 T00561006
94889KARB ARB20160317075510403/17/16 07:55:31  5-MIN KARB 171255Z 23009KT 10SM CLR 06/M01 A2975 1000 62 200 230/09 RMK AO2 T00611006
94889KARB ARB20160317080010403/17/16 08:00:31  5-MIN KARB 171300Z 22009KT 10SM CLR 06/M01 A2975 1000 62 200 230/09 RMK AO2 T00611006
94889KARB ARB20160317080510403/17/16 08:05:31  5-MIN KARB 171305Z 23008KT 10SM CLR 07/M01 A2975 1000 60 300 240/08 RMK AO2 T00671006
94889KARB ARB20160317081010403/17/16 08:10:31  5-MIN KARB 171310Z 23009KT 10SM CLR 07/M01 A2975 1000 60 300 240/09 RMK AO2 T00671006
94889KARB ARB20160317081510403/17/16 08:15:31  5-MIN KARB 171315Z 23010KT 10SM CLR 07/M01 A2975 1000 60 300 240/10 RMK AO2 T00671006
94889KARB ARB20160317082010403/17/16 08:20:31  5-MIN KARB 171320Z 23009KT 10SM CLR 07/M01 A2975 1000 57 300 230/09 RMK AO2 T00721006
94889KARB ARB20160317082510403/17/16 08:25:31  5-MIN KARB 171325Z 23011KT 10SM CLR 07/M01 A2975 1000 57 300 240/11 RMK AO2 T00721006
94889KARB ARB20160317083010403/17/16 08:30:31  5-MIN KARB 171330Z 22009KT 10SM CLR 08/M01 A2975 1000 55 400 230/09 RMK AO2 T00781006
94889KARB ARB20160317083510403/17/16 08:35:31  5-MIN KARB 171335Z 23010KT 10SM CLR 08/M01 A2975 1000 55 400 240/10 RMK AO2 T00781006
94889KARB ARB20160317084010303/17/16 08:40:31  5-MIN KARB 171340Z 24010KT 10SM CLR 08/M01 A2975 990 53 500 250/10 RMK AO2 T00831006
94889KARB ARB20160317084510403/17/16 08:45:31  5-MIN KARB 171345Z 23010KT 10SM CLR 08/M01 A2975 1000 53 500 240/10 RMK AO2 T00831006
94889KARB ARB20160317085011103/17/16 08:50:31  5-MIN KARB 171350Z 22011KT 10SM CLR 08/M01 A2975 1000 53 500 230/11 RMK AO2 SLP077 T00831006
94889KARB ARB20160317085510403/17/16 08:55:31  5-MIN KARB 171355Z 22013KT 10SM CLR 08/M01 A2975 1000 53 500 230/13 RMK AO2 T00831006
94889KARB ARB20160317090011003/17/16 09:00:31  5-MIN KARB 171400Z 22014G19KT 10SM CLR 08/M01 A2975 1000 53 500 220/14G19 RMK AO2 T00831006
94889KARB ARB20160317090511003/17/16 09:05:31  5-MIN KARB 171405Z 23012G19KT 10SM CLR 09/M01 A2975 1000 51 500 240/12G19 RMK AO2 T00891006
94889KARB ARB20160317091010303/17/16 09:10:31  5-MIN KARB 171410Z 24013KT 10SM CLR 09/00 A2975 1000 53 500 250/13 RMK AO2 T00890000
94889KARB ARB20160317091510903/17/16 09:15:31  5-MIN KARB 171415Z 24012G17KT 10SM CLR 09/00 A2975 1000 51 600 250/12G17 RMK AO2 T00940000
94889KARB ARB20160317092012803/17/16 09:20:31  5-MIN KARB 171420Z 28021G28KT 10SM CLR 10/M01 A2975 1000 47 700 290/21G28 RMK AO2 PK WND 27028/1419 T01001006
94889KARB ARB20160317092512803/17/16 09:25:31  5-MIN KARB 171425Z 26017G28KT 10SM CLR 10/M01 A2975 1000 46 700 270/17G28 RMK AO2 PK WND 27028/1419 T01001011
94889KARB ARB20160317093012803/17/16 09:30:31  5-MIN KARB 171430Z 25022G26KT 10SM CLR 10/M01 A2975 1000 46 700 250/22G26 RMK AO2 PK WND 27028/1419 T01001011
94889KARB ARB20160317093512803/17/16 09:35:31  5-MIN KARB 171435Z 26019G33KT 10SM CLR 10/M01 A2975 1000 46 700 270/19G33 RMK AO2 PK WND 26033/1432 T01001011
94889KARB ARB20160317094012803/17/16 09:40:31  5-MIN KARB 171440Z 26024G33KT 10SM CLR 11/M01 A2975 1000 44 700 260/24G33 RMK AO2 PK WND 26033/1432 T01061011
94889KARB ARB20160317094512803/17/16 09:45:31  5-MIN KARB 171445Z 26022G30KT 10SM CLR 10/M02 A2975 1000 42 700 260/22G30 RMK AO2 PK WND 26033/1432 T01001022
94889KARB ARB20160317095014103/17/16 09:50:31  5-MIN KARB 171450Z 25021G30KT 10SM CLR 11/M02 A2975 1000 40 700 260/21G30 RMK AO2 PK WND 26033/1432 SLP076 T01061022 52001
94889KARB ARB20160317095511003/17/16 09:55:31  5-MIN KARB 171455Z 26019G28KT 10SM CLR 11/M02 A2975 1000 42 700 270/19G28 RMK AO2 T01061017
94889KARB ARB20160317100012803/17/16 10:00:31  5-MIN KARB 171500Z 25018G30KT 10SM CLR 11/M02 A2975 1000 40 700 250/18G30 RMK AO2 PK WND 26030/1458 T01061022
94889KARB ARB20160317100512803/17/16 10:05:31  5-MIN KARB 171505Z 27025G30KT 10SM CLR 11/M03 A2975 1000 39 700 280/25G30 RMK AO2 PK WND 26030/1458 T01061028
94889KARB ARB20160317101012803/17/16 10:10:31  5-MIN KARB 171510Z 26020G30KT 10SM CLR 11/M03 A2975 1000 39 700 270/20G30 RMK AO2 PK WND 25030/1510 T01061028
94889KARB ARB20160317101513103/17/16 10:15:31  5-MIN KARB 171515Z 26021G30KT 10SM FEW060 11/M03 A2975 1000 37 800 260/21G30 RMK AO2 PK WND 25030/1511 T01111028
94889KARB ARB20160317102013103/17/16 10:20:31  5-MIN KARB 171520Z 25021G36KT 10SM FEW060 11/M03 A2975 1000 37 800 260/21G36 RMK AO2 PK WND 25036/1517 T01111028
94889KARB ARB20160317102513103/17/16 10:25:31  5-MIN KARB 171525Z 26022G36KT 10SM FEW060 11/M03 A2975 1000 37 800 260/22G36 RMK AO2 PK WND 25036/1517 T01111028
94889KARB ARB20160317103013103/17/16 10:30:31  5-MIN KARB 171530Z 26022G30KT 10SM FEW060 11/M03 A2975 1000 36 800 270/22G30 RMK AO2 PK WND 25036/1517 T01111033
94889KARB ARB20160317103513103/17/16 10:35:31  5-MIN KARB 171535Z 26024G34KT 10SM FEW060 11/M03 A2975 1000 37 800 270/24G34 RMK AO2 PK WND 25036/1517 T01111028
94889KARB ARB20160317104013103/17/16 10:40:31  5-MIN KARB 171540Z 26022G34KT 10SM FEW060 11/M04 A2975 1000 34 800 270/22G34 RMK AO2 PK WND 25036/1517 T01111039
94889KARB ARB20160317104512803/17/16 10:45:31  5-MIN KARB 171545Z 25023G32KT 10SM CLR 12/M03 A2974 1010 35 900 260/23G32 RMK AO2 PK WND 25036/1517 T01171033
94889KARB ARB20160317105013503/17/16 10:50:31  5-MIN KARB 171550Z 26021G36KT 10SM CLR 11/M03 A2974 1010 36 800 270/21G36 RMK AO2 PK WND 25036/1547 SLP073 T01111033
94889KARB ARB20160317105513103/17/16 10:55:31  5-MIN KARB 171555Z 25029G40KT 10SM FEW070 12/M03 A2974 1010 35 900 260/29G40 RMK AO2 PK WND 26040/1555 T01171033
94889KARB ARB20160317110013103/17/16 11:00:31  5-MIN KARB 171600Z 26028G41KT 10SM SCT070 12/M04 A2975 1000 33 900 260/28G41 RMK AO2 PK WND 28041/1600 T01171039
94889KARB ARB20160317110513103/17/16 11:05:31  5-MIN KARB 171605Z 26031G46KT 10SM SCT070 11/M05 A2974 1000 32 800 270/31G46 RMK AO2 PK WND 27046/1603 T01111050
94889KARB ARB20160317111013103/17/16 11:10:31  5-MIN KARB 171610Z 27023G46KT 10SM SCT070 12/M04 A2975 1000 32 900 280/23G46 RMK AO2 PK WND 27046/1603 T01171044
94889KARB ARB20160317111513803/17/16 11:15:31  5-MIN KARB 171615Z 27021G39KT 10SM SCT070 BKN085 12/M04 A2975 1000 32 900 280/21G39 RMK AO2 PK WND 27046/1603 T01171044
94889KARB ARB20160317112013803/17/16 11:20:31  5-MIN KARB 171620Z 27026G34KT 10SM BKN070 BKN085 12/M04 A2975 1000 31 900 280/26G34 RMK AO2 PK WND 27046/1603 T01221044
94889KARB ARB20160317112513103/17/16 11:25:31  5-MIN KARB 171625Z 28026G34KT 10SM BKN070 12/M05 A2975 1000 30 900 280/26G34 RMK AO2 PK WND 27046/1603 T01171050
94889KARB ARB20160317113013803/17/16 11:30:31  5-MIN KARB 171630Z 28021G33KT 10SM BKN075 BKN085 12/M04 A2975 1000 31 900 280/21G33 RMK AO2 PK WND 27046/1603 T01221044
94889KARB ARB20160317113513903/17/16 11:35:31  5-MIN KARB 171635Z 27026G38KT 10SM SCT075 BKN090 13/M04 A2975 1000 30 1000 280/26G38 RMK AO2 PK WND 27046/1603 T01281044
94889KARB ARB20160317114013803/17/16 11:40:31  5-MIN KARB 171640Z 28029G45KT 10SM SCT075 SCT090 12/M06 A2975 1000 27 900 290/29G45 RMK AO2 PK WND 27046/1603 T01221061
94889KARB ARB20160317114513103/17/16 11:45:31  5-MIN KARB 171645Z 28028G45KT 10SM FEW075 12/M06 A2975 1000 28 900 280/28G45 RMK AO2 PK WND 27046/1603 T01221056
94889KARB ARB20160317115013803/17/16 11:50:31  5-MIN KARB 171650Z 28028G42KT 10SM FEW080 12/M06 A2975 1000 29 900 290/28G42 RMK AO2 PK WND 27046/1603 SLP076 T01171056
94889KARB ARB20160317115513103/17/16 11:55:31  5-MIN KARB 171655Z 26018G36KT 10SM FEW080 12/M05 A2975 1000 29 900 270/18G36 RMK AO2 PK WND 26026/1655 T01221050
94889KARB ARB20160317120013203/17/16 12:00:31  5-MIN KARB 171700Z 28025G37KT 10SM FEW080 13/M05 A2975 1000 28 1000 280/25G37 RMK AO2 PK WND 28037/1700 T01281050
94889KARB ARB20160317120513203/17/16 12:05:31  5-MIN KARB 171705Z 27025G37KT 10SM FEW080 13/M06 A2975 1000 27 1000 280/25G37 RMK AO2 PK WND 27037/1703 T01281056
94889KARB ARB20160317121013203/17/16 12:10:31  5-MIN KARB 171710Z 27023G37KT 10SM SCT080 13/M05 A2975 1000 27 1100 280/23G37 RMK AO2 PK WND 25037/1707 T01331050
94889KARB ARB20160317121513203/17/16 12:15:31  5-MIN KARB 171715Z 26028G37KT 10SM SCT075 13/M06 A2975 1000 26 1100 270/28G37 RMK AO2 PK WND 25037/1707 T01331056
94889KARB ARB20160317122013003/17/16 12:20:31  5-MIN KARB 171720Z 28030G43KT 10SM SCT075 12/M06 A2976 990 28 900 280/30G43 RMK AO2 PK WND 25043/1717 T01221056
94889KARB ARB20160317122513003/17/16 12:25:31  5-MIN KARB 171725Z 27029G43KT 10SM SCT075 12/M06 A2975 990 28 900 280/29G43 RMK AO2 PK WND 25043/1717 T01171061
94889KARB ARB20160317123013703/17/16 12:30:31  5-MIN KARB 171730Z 28030G42KT 10SM SCT075 SCT090 12/M06 A2976 990 28 900 290/30G42 RMK AO2 PK WND 25043/1717 T01221056
94889KARB ARB20160317123513803/17/16 12:35:31  5-MIN KARB 171735Z 27026G42KT 10SM SCT075 BKN090 13/M06 A2976 990 27 1000 280/26G42 RMK AO2 PK WND 25043/1717 T01281056
94889KARB ARB20160317124013103/17/16 12:40:31  5-MIN KARB 171740Z 26029G39KT 10SM SCT075 13/M06 A2976 990 27 1000 270/29G39 RMK AO2 PK WND 25043/1717 T01281056
94889KARB ARB20160317124513803/17/16 12:45:31  5-MIN KARB 171745Z 27026G39KT 10SM SCT075 BKN090 13/M05 A2976 990 27 1100 270/26G39 RMK AO2 PK WND 25043/1717 T01331050
94889KARB ARB20160317125016203/17/16 12:50:31  5-MIN KARB 171750Z 26030G41KT 10SM SCT080 SCT090 12/M06 A2976 990 27 900 260/30G41 RMK AO2 PK WND 25043/1717 SLP079 T01221061 10133 20039 50004
94889KARB ARB20160317125513103/17/16 12:55:31  5-MIN KARB 171755Z 27028G41KT 10SM SCT075 13/M06 A2976 990 27 1000 280/28G41 RMK AO2 PK WND 27036/1754 T01281056
94889KARB ARB20160317130013003/17/16 13:00:31  5-MIN KARB 171800Z 27023G37KT 10SM BKN075 12/M06 A2976 990 28 900 280/23G37 RMK AO2 PK WND 27036/1754 T01221056
94889KARB ARB20160317130513103/17/16 13:05:31  5-MIN KARB 171805Z 28023G32KT 10SM SCT080 13/M06 A2976 990 27 1000 290/23G32 RMK AO2 PK WND 27036/1754 T01281056
94889KARB ARB20160317131013003/17/16 13:10:31  5-MIN KARB 171810Z 27022G37KT 10SM SCT080 12/M06 A2976 990 27 900 280/22G37 RMK AO2 PK WND 28037/1808 T01221061
94889KARB ARB20160317131513003/17/16 13:15:31  5-MIN KARB 171815Z 27026G39KT 10SM SCT080 12/M06 A2976 990 28 900 280/26G39 RMK AO2 PK WND 27039/1813 T01221056
94889KARB ARB20160317132013003/17/16 13:20:31  5-MIN KARB 171820Z 28027G39KT 10SM BKN080 12/M06 A2976 990 27 900 290/27G39 RMK AO2 PK WND 27039/1813 T01221061
94889KARB ARB20160317132513003/17/16 13:25:31  5-MIN KARB 171825Z 28030G43KT 10SM BKN080 12/M07 A2976 990 27 900 290/30G43 RMK AO2 PK WND 28043/1823 T01171067
94889KARB ARB20160317133013003/17/16 13:30:31  5-MIN KARB 171830Z 29035G44KT 10SM SCT080 12/M07 A2977 980 26 900 300/35G44 RMK AO2 PK WND 29044/1829 T01221067
94889KARB ARB20160317133513703/17/16 13:35:31  5-MIN KARB 171835Z 28032G44KT 10SM SCT080 SCT095 12/M06 A2976 990 27 900 290/32G44 RMK AO2 PK WND 29044/1829 T01221061
94889KARB ARB20160317134013703/17/16 13:40:31  5-MIN KARB 171840Z 28026G43KT 10SM SCT080 SCT095 12/M06 A2977 980 27 900 280/26G43 RMK AO2 PK WND 29044/1829 T01221061
94889KARB ARB20160317134513003/17/16 13:45:31  5-MIN KARB 171845Z 27026G39KT 10SM SCT080 12/M06 A2977 980 27 900 270/26G39 RMK AO2 PK WND 29044/1829 T01221061
94889KARB ARB20160317135013703/17/16 13:50:31  5-MIN KARB 171850Z 27029G41KT 10SM SCT080 12/M06 A2977 980 28 900 270/29G41 RMK AO2 PK WND 29044/1829 SLP081 T01221056
94889KARB ARB20160317135513703/17/16 13:55:31  5-MIN KARB 171855Z 26031G41KT 10SM SCT080 BKN095 12/M06 A2977 980 27 900 270/31G41 RMK AO2 PK WND 26039/1854 T01221061
94889KARB ARB20160317140013703/17/16 14:00:31  5-MIN KARB 171900Z 28030G41KT 10SM SCT080 BKN095 12/M06 A2977 980 28 900 290/30G41 RMK AO2 PK WND 27039/1858 T01221056
94889KARB ARB20160317140513003/17/16 14:05:31  5-MIN KARB 171905Z 26029G41KT 10SM BKN080 12/M06 A2977 980 27 900 270/29G41 RMK AO2 PK WND 28041/1901 T01221061
94889KARB ARB20160317141013003/17/16 14:10:31  5-MIN KARB 171910Z 28022G41KT 10SM BKN080 12/M06 A2977 980 28 900 290/22G41 RMK AO2 PK WND 28041/1901 T01221056
94889KARB ARB20160317141513003/17/16 14:15:31  5-MIN KARB 171915Z 28022G38KT 10SM BKN075 12/M06 A2977 980 28 900 290/22G38 RMK AO2 PK WND 28041/1901 T01221056
94889KARB ARB20160317142013003/17/16 14:20:31  5-MIN KARB 171920Z 29022G32KT 10SM BKN080 12/M06 A2977 980 29 900 290/22G32 RMK AO2 PK WND 28041/1901 T01171056
94889KARB ARB20160317142513003/17/16 14:25:31  5-MIN KARB 171925Z 28024G32KT 10SM BKN075 12/M06 A2977 980 29 900 280/24G32 RMK AO2 PK WND 28041/1901 T01171056
94889KARB ARB20160317143013003/17/16 14:30:31  5-MIN KARB 171930Z 27028G35KT 10SM BKN080 12/M06 A2977 980 29 800 280/28G35 RMK AO2 PK WND 28041/1901 T01171056
94889KARB ARB20160317143513003/17/16 14:35:31  5-MIN KARB 171935Z 28020G38KT 10SM BKN080 12/M06 A2977 980 29 900 290/20G38 RMK AO2 PK WND 28041/1901 T01171056
94889KARB ARB20160317144013003/17/16 14:40:31  5-MIN KARB 171940Z 28030G41KT 10SM BKN080 11/M06 A2978 980 30 800 290/30G41 RMK AO2 PK WND 28041/1901 T01111056
94889KARB ARB20160317144513003/17/16 14:45:31  5-MIN KARB 171945Z 28024G41KT 10SM BKN080 11/M06 A2978 970 29 800 290/24G41 RMK AO2 PK WND 28041/1901 T01111061
94889KARB ARB20160317145013703/17/16 14:50:31  5-MIN KARB 171950Z 27022G39KT 10SM BKN080 11/M06 A2978 970 31 700 280/22G39 RMK AO2 PK WND 28041/1901 SLP086 T01061056
94889KARB ARB20160317145513003/17/16 14:55:31  5-MIN KARB 171955Z 28025G35KT 10SM BKN080 11/M06 A2978 970 31 700 290/25G35 RMK AO2 PK WND 27031/1955 T01061056
94889KARB ARB20160317150013703/17/16 15:00:31  5-MIN KARB 172000Z 27030G38KT 10SM SCT080 BKN095 11/M06 A2978 970 30 800 280/30G38 RMK AO2 PK WND 27038/2000 T01111056
94889KARB ARB20160317150513003/17/16 15:05:31  5-MIN KARB 172005Z 28028G41KT 10SM SCT085 11/M06 A2978 970 29 800 280/28G41 RMK AO2 PK WND 27041/2001 T01111061
94889KARB ARB20160317151013003/17/16 15:10:31  5-MIN KARB 172010Z 28029G41KT 10SM SCT080 12/M06 A2978 970 29 800 290/29G41 RMK AO2 PK WND 27041/2001 T01171056
94889KARB ARB20160317151513003/17/16 15:15:31  5-MIN KARB 172015Z 28024G39KT 10SM SCT080 12/M06 A2978 970 28 800 280/24G39 RMK AO2 PK WND 27041/2001 T01171061
94889KARB ARB20160317152013003/17/16 15:20:31  5-MIN KARB 172020Z 28028G42KT 10SM SCT085 12/M06 A2978 970 29 800 290/28G42 RMK AO2 PK WND 27042/2017 T01171056
94889KARB ARB20160317152513703/17/16 15:25:31  5-MIN KARB 172025Z 29030G42KT 10SM SCT080 BKN090 12/M06 A2978 970 29 800 300/30G42 RMK AO2 PK WND 27042/2017 T01171056
94889KARB ARB20160317153013003/17/16 15:30:31  5-MIN KARB 172030Z 28029G40KT 10SM BKN080 12/M06 A2978 970 28 800 290/29G40 RMK AO2 PK WND 27042/2017 T01171061
94889KARB ARB20160317153513003/17/16 15:35:31  5-MIN KARB 172035Z 28024G39KT 10SM BKN080 11/M06 A2979 960 29 800 290/24G39 RMK AO2 PK WND 27042/2017 T01111061
94889KARB ARB20160317154013003/17/16 15:40:31  5-MIN KARB 172040Z 28029G38KT 10SM SCT080 12/M06 A2979 970 29 800 280/29G38 RMK AO2 PK WND 27042/2017 T01171056
94889KARB ARB20160317154513003/17/16 15:45:31  5-MIN KARB 172045Z 28025G37KT 10SM FEW080 12/M06 A2979 960 28 800 290/25G37 RMK AO2 PK WND 27042/2017 T01171061
94889KARB ARB20160317155014303/17/16 15:50:31  5-MIN KARB 172050Z 28024G36KT 10SM FEW080 12/M06 A2979 960 29 800 290/24G36 RMK AO2 PK WND 27042/2017 SLP090 T01171056 53003
94889KARB ARB20160317155513003/17/16 15:55:31  5-MIN KARB 172055Z 28021G34KT 10SM FEW080 11/M06 A2979 960 30 800 290/21G34 RMK AO2 PK WND 27030/2054 T01111056
94889KARB ARB20160317160013003/17/16 16:00:31  5-MIN KARB 172100Z 28023G33KT 10SM FEW080 11/M06 A2979 960 31 700 290/23G33 RMK AO2 PK WND 27030/2054 T01061056
94889KARB ARB20160317160513003/17/16 16:05:31  5-MIN KARB 172105Z 29024G30KT 10SM FEW075 11/M06 A2979 960 30 800 290/24G30 RMK AO2 PK WND 28030/2102 T01111056
94889KARB ARB20160317161013703/17/16 16:10:31  5-MIN KARB 172110Z 28020G34KT 10SM SCT075 SCT085 12/M06 A2979 960 29 800 290/20G34 RMK AO2 PK WND 28034/2106 T01171056
94889KARB ARB20160317161513003/17/16 16:15:31  5-MIN KARB 172115Z 29025G35KT 10SM SCT080 12/M06 A2980 960 29 800 300/25G35 RMK AO2 PK WND 30035/2111 T01171056
94889KARB ARB20160317162013003/17/16 16:20:31  5-MIN KARB 172120Z 28026G35KT 10SM BKN080 11/M06 A2980 950 29 800 290/26G35 RMK AO2 PK WND 30035/2111 T01111061
94889KARB ARB20160317162513003/17/16 16:25:31  5-MIN KARB 172125Z 29025G34KT 10SM SCT080 11/M06 A2980 950 30 700 300/25G34 RMK AO2 PK WND 30035/2111 T01061061
94889KARB ARB20160317163013703/17/16 16:30:31  5-MIN KARB 172130Z 28024G33KT 10SM FEW075 FEW090 10/M06 A2980 950 33 600 290/24G33 RMK AO2 PK WND 30035/2111 T01001056
94889KARB ARB20160317163513003/17/16 16:35:31  5-MIN KARB 172135Z 28027G37KT 10SM FEW080 11/M06 A2981 950 29 700 290/27G37 RMK AO2 PK WND 29037/2133 T01111061
94889KARB ARB20160317164013003/17/16 16:40:31  5-MIN KARB 172140Z 29019G37KT 10SM FEW090 11/M06 A2981 940 29 700 300/19G37 RMK AO2 PK WND 29037/2133 T01111061
94889KARB ARB20160317164513003/17/16 16:45:31  5-MIN KARB 172145Z 28025G32KT 10SM FEW085 11/M06 A2981 950 30 700 290/25G32 RMK AO2 PK WND 29037/2133 T01111056
94889KARB ARB20160317165013403/17/16 16:50:31  5-MIN KARB 172150Z 29018G32KT 10SM CLR 11/M06 A2981 940 30 700 290/18G32 RMK AO2 PK WND 29037/2133 SLP097 T01111056
94889KARB ARB20160317165513003/17/16 16:55:31  5-MIN KARB 172155Z 28026G34KT 10SM FEW075 11/M06 A2981 940 30 700 290/26G34 RMK AO2 PK WND 28034/2154 T01111056
94889KARB ARB20160317170013003/17/16 17:00:31  5-MIN KARB 172200Z 30028G39KT 10SM SCT075 11/M06 A2982 940 30 700 300/28G39 RMK AO2 PK WND 30039/2159 T01111056
94889KARB ARB20160317170513003/17/16 17:05:31  5-MIN KARB 172205Z 30020G39KT 10SM SCT075 11/M06 A2982 940 30 700 300/20G39 RMK AO2 PK WND 30039/2159 T01061061
94889KARB ARB20160317171013003/17/16 17:10:31  5-MIN KARB 172210Z 30020G33KT 10SM SCT080 11/M06 A2982 930 30 700 310/20G33 RMK AO2 PK WND 30039/2159 T01061061
94889KARB ARB20160317171513003/17/16 17:15:31  5-MIN KARB 172215Z 29023G31KT 10SM BKN075 11/M06 A2983 930 30 700 300/23G31 RMK AO2 PK WND 30039/2159 T01061061
94889KARB ARB20160317172013003/17/16 17:20:31  5-MIN KARB 172220Z 29018G31KT 10SM BKN080 10/M06 A2983 930 31 600 300/18G31 RMK AO2 PK WND 30039/2159 T01001061
94889KARB ARB20160317172513003/17/16 17:25:31  5-MIN KARB 172225Z 30016G26KT 10SM BKN080 10/M06 A2983 920 33 600 300/16G26 RMK AO2 PK WND 30039/2159 T01001056
94889KARB ARB20160317173013003/17/16 17:30:31  5-MIN KARB 172230Z 29021G28KT 10SM BKN080 10/M06 A2983 920 31 600 300/21G28 RMK AO2 PK WND 30039/2159 T01001061
94889KARB ARB20160317173513003/17/16 17:35:31  5-MIN KARB 172235Z 29016G28KT 10SM BKN080 10/M06 A2984 920 33 600 300/16G28 RMK AO2 PK WND 30039/2159 T01001056
94889KARB ARB20160317174013003/17/16 17:40:31  5-MIN KARB 172240Z 29028G37KT 10SM BKN080 10/M06 A2984 920 33 600 300/28G37 RMK AO2 PK WND 30039/2159 T01001056
94889KARB ARB20160317174513003/17/16 17:45:31  5-MIN KARB 172245Z 29017G37KT 10SM BKN080 10/M06 A2984 920 33 600 300/17G37 RMK AO2 PK WND 30039/2159 T01001056
94889KARB ARB20160317175013703/17/16 17:50:31  5-MIN KARB 172250Z 29019G25KT 10SM SCT080 10/M06 A2985 910 33 600 300/19G25 RMK AO2 PK WND 30039/2159 SLP110 T01001056
94889KARB ARB20160317175511203/17/16 17:55:31  5-MIN KARB 172255Z 28019G26KT 10SM SCT080 10/M06 A2985 910 33 600 290/19G26 RMK AO2 T01001056
94889KARB ARB20160317180011203/17/16 18:00:31  5-MIN KARB 172300Z 30015G26KT 10SM FEW080 09/M06 A2985 910 34 500 310/15G26 RMK AO2 T00941056
94889KARB ARB20160317180511203/17/16 18:05:31  5-MIN KARB 172305Z 29013G20KT 10SM FEW075 09/M05 A2985 910 35 500 300/13G20 RMK AO2 T00941050
94889KARB ARB20160317181011203/17/16 18:10:31  5-MIN KARB 172310Z 30015G20KT 10SM FEW080 09/M05 A2985 910 35 500 310/15G20 RMK AO2 T00941050
94889KARB ARB20160317181511203/17/16 18:15:31  5-MIN KARB 172315Z 30012G20KT 10SM SCT075 09/M06 A2985 900 34 500 300/12G20 RMK AO2 T00941056
94889KARB ARB20160317182010603/17/16 18:20:31  5-MIN KARB 172320Z 30015KT 10SM FEW075 09/M05 A2985 900 37 400 300/15 RMK AO2 T00891050
94889KARB ARB20160317182510603/17/16 18:25:31  5-MIN KARB 172325Z 29011KT 10SM FEW070 09/M05 A2985 900 37 400 300/11 RMK AO2 T00891050
94889KARB ARB20160317183011203/17/16 18:30:31  5-MIN KARB 172330Z 29014G20KT 10SM SCT070 09/M05 A2986 900 37 400 300/14G20 RMK AO2 T00891050
94889KARB ARB20160317183511203/17/16 18:35:31  5-MIN KARB 172335Z 29012G20KT 10SM SCT070 08/M05 A2986 900 38 400 300/12G20 RMK AO2 T00831050
94889KARB ARB20160317184011203/17/16 18:40:31  5-MIN KARB 172340Z 30010G18KT 10SM SCT070 08/M05 A2986 900 38 400 310/10G18 RMK AO2 T00831050
94889KARB ARB20160317184510603/17/16 18:45:31  5-MIN KARB 172345Z 30008KT 10SM FEW070 08/M05 A2986 900 38 400 310/08 RMK AO2 T00831050
94889KARB ARB20160317185013103/17/16 18:50:31  5-MIN KARB 172350Z 29010KT 10SM FEW070 08/M05 A2986 900 38 400 300/10 RMK AO2 SLP116 T00831050 10128 20083 53010
94889KARB ARB20160317185511103/17/16 18:55:31  5-MIN KARB 172355Z AUTO 29011KT 10SM FEW070 08/M05 A2986 900 38 400 300/11 RMK AO2 T00831050
94889KARB ARB20160317190011103/17/16 19:00:31  5-MIN KARB 180000Z AUTO 30011KT 10SM FEW070 08/M05 A2986 890 40 300 310/11 RMK AO2 T00781050
94889KARB ARB20160317190511103/17/16 19:05:31  5-MIN KARB 180005Z AUTO 29008KT 10SM FEW070 08/M05 A2986 890 40 300 300/08 RMK AO2 T00781050
94889KARB ARB20160317191010803/17/16 19:10:31  5-MIN KARB 180010Z AUTO 29007KT 10SM CLR 08/M04 A2987 890 41 300 300/07 RMK AO2 T00781044
94889KARB ARB20160317191510803/17/16 19:15:31  5-MIN KARB 180015Z AUTO 30008KT 10SM CLR 08/M05 A2987 890 40 300 300/08 RMK AO2 T00781050
94889KARB ARB20160317192010803/17/16 19:20:31  5-MIN KARB 180020Z AUTO 30007KT 10SM CLR 07/M04 A2987 890 43 200 310/07 RMK AO2 T00721044
94889KARB ARB20160317192510803/17/16 19:25:31  5-MIN KARB 180025Z AUTO 29006KT 10SM CLR 07/M04 A2987 890 43 200 300/06 RMK AO2 T00721044
94889KARB ARB20160317193010803/17/16 19:30:31  5-MIN KARB 180030Z AUTO 30005KT 10SM CLR 07/M04 A2987 890 45 100 300/05 RMK AO2 T00671044
94889KARB ARB20160317193510803/17/16 19:35:31  5-MIN KARB 180035Z AUTO 30006KT 10SM CLR 07/M04 A2987 880 43 200 310/06 RMK AO2 T00721044
94889KARB ARB20160317194010803/17/16 19:40:31  5-MIN KARB 180040Z AUTO 30005KT 10SM CLR 07/M04 A2988 880 45 100 300/05 RMK AO2 T00671044
94889KARB ARB20160317194510803/17/16 19:45:31  5-MIN KARB 180045Z AUTO 29005KT 10SM CLR 06/M04 A2988 880 46 100 300/05 RMK AO2 T00611044
94889KARB ARB20160317195011303/17/16 19:50:31  5-MIN KARB 180050Z AUTO 29004KT 10SM CLR 06/M04 A2988 880 48 0 300/04 RMK AO2 SLP123 T00561044
94889KARB ARB20160317195510603/17/16 19:55:31  5-MIN KARB 180055Z AUTO 28003KT 10SM CLR 05/M04 A2988 880 50 0 290/03 RMK AO2 T00501044
94889KARB ARB20160317200010903/17/16 20:00:31  5-MIN KARB 180100Z AUTO 28004KT 10SM CLR 04/M04 A2988 880 55 -100 290/04 RMK AO2 T00441039
94889KARB ARB20160317200510903/17/16 20:05:31  5-MIN KARB 180105Z AUTO 28004KT 10SM CLR 04/M04 A2988 880 57 -200 290/04 RMK AO2 T00391039
94889KARB ARB20160317201010903/17/16 20:10:31  5-MIN KARB 180110Z AUTO 29003KT 10SM CLR 04/M04 A2988 870 57 -200 290/03 RMK AO2 T00391039
94889KARB ARB20160317201510903/17/16 20:15:31  5-MIN KARB 180115Z AUTO 29003KT 10SM CLR 04/M04 A2988 870 55 -100 300/03 RMK AO2 T00441039
94889KARB ARB20160317202010903/17/16 20:20:31  5-MIN KARB 180120Z AUTO 28003KT 10SM CLR 04/M04 A2989 870 55 -100 290/03 RMK AO2 T00441039
94889KARB ARB20160317202510903/17/16 20:25:31  5-MIN KARB 180125Z AUTO 28003KT 10SM CLR 03/M03 A2989 870 61 -200 290/03 RMK AO2 T00331033
94889KARB ARB20160317203010903/17/16 20:30:31  5-MIN KARB 180130Z AUTO 29003KT 10SM CLR 03/M03 A2989 870 67 -300 290/03 RMK AO2 T00281028
94889KARB ARB20160317203510903/17/16 20:35:31  5-MIN KARB 180135Z AUTO 00000KT 10SM CLR 02/M03 A2989 870 69 -400 000/00 RMK AO2 T00221028
94889KARB ARB20160317204010903/17/16 20:40:31  5-MIN KARB 180140Z AUTO 00000KT 10SM CLR 02/M03 A2989 870 67 -400 000/00 RMK AO2 T00221033
94889KARB ARB20160317204510903/17/16 20:45:31  5-MIN KARB 180145Z AUTO 00000KT 10SM CLR 03/M03 A2989 870 64 -300 000/00 RMK AO2 T00281033
94889KARB ARB20160317205011603/17/16 20:50:31  5-MIN KARB 180150Z AUTO 00000KT 10SM CLR 02/M04 A2989 870 64 -400 000/00 RMK AO2 SLP126 T00221039
94889KARB ARB20160317205510903/17/16 20:55:31  5-MIN KARB 180155Z AUTO 00000KT 10SM CLR 02/M04 A2989 870 64 -400 000/00 RMK AO2 T00221039
94889KARB ARB20160317210010903/17/16 21:00:31  5-MIN KARB 180200Z AUTO 00000KT 10SM CLR 02/M03 A2989 870 69 -500 000/00 RMK AO2 T00171033
94889KARB ARB20160317210510903/17/16 21:05:31  5-MIN KARB 180205Z AUTO 00000KT 10SM CLR 02/M03 A2989 870 69 -500 000/00 RMK AO2 T00171033
94889KARB ARB20160317211010903/17/16 21:10:31  5-MIN KARB 180210Z AUTO 00000KT 10SM CLR 02/M04 A2989 870 66 -500 000/00 RMK AO2 T00171039
94889KARB ARB20160317211510903/17/16 21:15:31  5-MIN KARB 180215Z AUTO 00000KT 10SM CLR 02/M04 A2989 870 66 -500 000/00 RMK AO2 T00171039
94889KARB ARB20160317212011203/17/16 21:20:31  5-MIN KARB 180220Z AUTO 00000KT 10SM FEW090 02/M04 A2989 860 66 -500 000/00 RMK AO2 T00171039
94889KARB ARB20160317212511903/17/16 21:25:31  5-MIN KARB 180225Z AUTO 00000KT 10SM FEW075 SCT090 02/M04 A2990 860 64 -500 000/00 RMK AO2 T00171044
94889KARB ARB20160317213011903/17/16 21:30:31  5-MIN KARB 180230Z AUTO 00000KT 10SM FEW080 BKN090 01/M04 A2990 860 69 -500 000/00 RMK AO2 T00111039
94889KARB ARB20160317213511203/17/16 21:35:31  5-MIN KARB 180235Z AUTO 00000KT 10SM BKN090 02/M03 A2990 860 67 -400 000/00 RMK AO2 T00221033
94889KARB ARB20160317214011203/17/16 21:40:31  5-MIN KARB 180240Z AUTO 00000KT 10SM SCT085 02/M03 A2990 860 69 -500 000/00 RMK AO2 T00171033
94889KARB ARB20160317214511903/17/16 21:45:31  5-MIN KARB 180245Z AUTO 00000KT 10SM FEW080 SCT090 02/M03 A2990 860 72 -500 000/00 RMK AO2 T00171028
94889KARB ARB20160317215013203/17/16 21:50:31  5-MIN KARB 180250Z AUTO 00000KT 10SM FEW080 SCT090 02/M02 A2990 860 75 -500 000/00 RMK AO2 SLP129 T00171022 51022
94889KARB ARB20160317215511203/17/16 21:55:31  5-MIN KARB 180255Z AUTO 00000KT 10SM FEW090 02/M03 A2990 860 72 -500 000/00 RMK AO2 T00171028
94889KARB ARB20160317220010903/17/16 22:00:31  5-MIN KARB 180300Z AUTO 00000KT 10SM CLR 01/M03 A2990 860 75 -600 000/00 RMK AO2 T00061033
94889KARB ARB20160317220510903/17/16 22:05:31  5-MIN KARB 180305Z AUTO 00000KT 10SM CLR 01/M03 A2990 860 75 -600 000/00 RMK AO2 T00061033
94889KARB ARB20160317221010903/17/16 22:10:31  5-MIN KARB 180310Z AUTO 00000KT 10SM CLR 01/M03 A2990 860 72 -500 000/00 RMK AO2 T00111033
94889KARB ARB20160317221510903/17/16 22:15:31  5-MIN KARB 180315Z AUTO 00000KT 10SM CLR 01/M03 A2990 860 72 -500 000/00 RMK AO2 T00111033
94889KARB ARB20160317222010903/17/16 22:20:31  5-MIN KARB 180320Z AUTO 00000KT 10SM CLR 01/M04 A2990 860 72 -600 000/00 RMK AO2 T00061039
94889KARB ARB20160317222510903/17/16 22:25:31  5-MIN KARB 180325Z AUTO 25003KT 10SM CLR 00/M04 A2990 860 75 -700 250/03 RMK AO2 T00001039
94889KARB ARB20160317223010903/17/16 22:30:31  5-MIN KARB 180330Z AUTO 25003KT 10SM CLR 00/M04 A2990 860 75 -700 260/03 RMK AO2 T00001039
94889KARB ARB20160317223510903/17/16 22:35:31  5-MIN KARB 180335Z AUTO 26003KT 10SM CLR 00/M04 A2990 860 75 -700 260/03 RMK AO2 T00001039
94889KARB ARB20160317224010903/17/16 22:40:31  5-MIN KARB 180340Z AUTO 25003KT 10SM CLR 00/M03 A2990 860 78 -700 260/03 RMK AO2 T00001033
94889KARB ARB20160317224510903/17/16 22:45:31  5-MIN KARB 180345Z AUTO 25003KT 10SM CLR 00/M03 A2990 860 81 -700 260/03 RMK AO2 T00001028
94889KARB ARB20160317225011703/17/16 22:50:31  5-MIN KARB 180350Z AUTO 27003KT 10SM CLR M01/M03 A2990 860 85 -700 270/03 RMK AO2 SLP128 T10061028
94889KARB ARB20160317225511003/17/16 22:55:31  5-MIN KARB 180355Z AUTO 27003KT 10SM CLR M01/M03 A2990 860 85 -700 280/03 RMK AO2 T10061028
94889KARB ARB20160317230011003/17/16 23:00:31  5-MIN KARB 180400Z AUTO 26003KT 10SM CLR M01/M03 A2990 860 85 -800 260/03 RMK AO2 T10111033
94889KARB ARB20160317230511003/17/16 23:05:31  5-MIN KARB 180405Z AUTO 26003KT 10SM CLR M01/M03 A2990 860 85 -800 260/03 RMK AO2 T10111033
94889KARB ARB20160317231011003/17/16 23:10:31  5-MIN KARB 180410Z AUTO 00000KT 10SM CLR M01/M03 A2990 860 85 -800 000/00 RMK AO2 T10111033
94889KARB ARB20160317231511003/17/16 23:15:31  5-MIN KARB 180415Z AUTO 00000KT 10SM CLR M01/M03 A2990 860 85 -800 000/00 RMK AO2 T10111033
94889KARB ARB20160317232011003/17/16 23:20:31  5-MIN KARB 180420Z AUTO 00000KT 10SM CLR M01/M04 A2990 860 81 -800 000/00 RMK AO2 T10111039
94889KARB ARB20160317232511003/17/16 23:25:31  5-MIN KARB 180425Z AUTO 00000KT 10SM CLR M01/M04 A2990 860 81 -800 000/00 RMK AO2 T10111039
94889KARB ARB20160317233011003/17/16 23:30:31  5-MIN KARB 180430Z AUTO 00000KT 10SM CLR M01/M03 A2990 860 85 -800 000/00 RMK AO2 T10111033
94889KARB ARB20160317233511003/17/16 23:35:31  5-MIN KARB 180435Z AUTO 00000KT 10SM CLR M01/M03 A2990 860 85 -800 000/00 RMK AO2 T10111033
94889KARB ARB20160317234011003/17/16 23:40:31  5-MIN KARB 180440Z AUTO 00000KT 10SM CLR M01/M04 A2990 860 81 -800 000/00 RMK AO2 T10111039
94889KARB ARB20160317234511303/17/16 23:45:31  5-MIN KARB 180445Z AUTO 00000KT 10SM FEW085 M01/M03 A2989 870 85 -800 000/00 RMK AO2 T10111033
94889KARB ARB20160317235013003/17/16 23:50:31  5-MIN KARB 180450Z AUTO 00000KT 10SM FEW090 M02/M03 A2989 870 88 -900 000/00 RMK AO2 SLP128 T10171033 401331017
94889KARB ARB20160317235511303/17/16 23:55:31  5-MIN KARB 180455Z AUTO 00000KT 10SM FEW090 M01/M03 A2989 870 85 -800 000/00 RMK AO2 T10111033
94889KARB ARB20160318000011303/18/16 00:00:31  5-MIN KARB 180500Z AUTO 00000KT 10SM FEW090 M01/M03 A2989 870 85 -800 000/00 RMK AO2 T10111033
94889KARB ARB20160318000511303/18/16 00:05:31  5-MIN KARB 180505Z AUTO 00000KT 10SM FEW090 M02/M03 A2989 870 88 -900 000/00 RMK AO2 T10171033
94889KARB ARB20160318001011303/18/16 00:10:31  5-MIN KARB 180510Z AUTO 00000KT 10SM FEW090 M02/M03 A2989 870 92 -900 000/00 RMK AO2 T10221033
94889KARB ARB20160318001511003/18/16 00:15:31  5-MIN KARB 180515Z AUTO 00000KT 10SM CLR M02/M03 A2989 870 88 -900 000/00 RMK AO2 T10171033
94889KARB ARB20160318002011003/18/16 00:20:31  5-MIN KARB 180520Z AUTO 00000KT 10SM CLR M02/M03 A2989 870 88 -900 000/00 RMK AO2 T10171033
94889KARB ARB20160318002511003/18/16 00:25:31  5-MIN KARB 180525Z AUTO 00000KT 10SM CLR M01/M03 A2989 870 85 -800 000/00 RMK AO2 T10111033
94889KARB ARB20160318003011003/18/16 00:30:31  5-MIN KARB 180530Z AUTO 31003KT 10SM CLR M01/M03 A2990 860 81 -700 320/03 RMK AO2 T10061033
94889KARB ARB20160318003510903/18/16 00:35:31  5-MIN KARB 180535Z AUTO 00000KT 10SM CLR 00/M03 A2989 870 81 -700 000/00 RMK AO2 T00001028
94889KARB ARB20160318004011003/18/16 00:40:31  5-MIN KARB 180540Z AUTO 00000KT 10SM CLR M02/M04 A2990 860 88 -900 000/00 RMK AO2 T10221039
94889KARB ARB20160318004511003/18/16 00:45:31  5-MIN KARB 180545Z AUTO 00000KT 10SM CLR M02/M03 A2990 860 88 -900 000/00 RMK AO2 T10171033
94889KARB ARB20160318005013603/18/16 00:50:31  5-MIN KARB 180550Z AUTO 00000KT 10SM CLR M02/M04 A2990 860 88 -1000 000/00 RMK AO2 SLP131 T10221039 10083 21022 51013
94889KARB ARB20160318005511103/18/16 00:55:31  5-MIN KARB 180555Z AUTO 24003KT 10SM CLR M02/M03 A2990 860 92 -1000 250/03 RMK AO2 T10221033
94889KARB ARB20160318010011103/18/16 01:00:31  5-MIN KARB 180600Z AUTO 00000KT 10SM CLR M02/M03 A2990 860 92 -1000 000/00 RMK AO2 T10221033
94889KARB ARB20160318010511103/18/16 01:05:31  5-MIN KARB 180605Z AUTO 00000KT 10SM CLR M02/M03 A2990 860 92 -1000 000/00 RMK AO2 T10221033
94889KARB ARB20160318011011103/18/16 01:10:31  5-MIN KARB 180610Z AUTO 00000KT 10SM CLR M03/M03 A2990 860 96 -1000 000/00 RMK AO2 T10281033
94889KARB ARB20160318011511103/18/16 01:15:31  5-MIN KARB 180615Z AUTO 00000KT 10SM CLR M03/M04 A2990 860 92 -1000 000/00 RMK AO2 T10281039
94889KARB ARB20160318012011103/18/16 01:20:31  5-MIN KARB 180620Z AUTO 00000KT 10SM CLR M02/M04 A2990 860 88 -1000 000/00 RMK AO2 T10221039
94889KARB ARB20160318012511003/18/16 01:25:31  5-MIN KARB 180625Z AUTO 32003KT 10SM CLR M02/M03 A2990 860 88 -900 330/03 RMK AO2 T10171033
94889KARB ARB20160318013011003/18/16 01:30:31  5-MIN KARB 180630Z AUTO 00000KT 10SM CLR M01/M03 A2990 860 88 -800 000/00 RMK AO2 T10111028
94889KARB ARB20160318013511103/18/16 01:35:31  5-MIN KARB 180635Z AUTO 00000KT 10SM CLR M02/M04 A2990 860 88 -1000 000/00 RMK AO2 T10221039
94889KARB ARB20160318014011103/18/16 01:40:31  5-MIN KARB 180640Z AUTO 00000KT 10SM CLR M02/M04 A2990 860 88 -1000 000/00 RMK AO2 T10221039
94889KARB ARB20160318014511103/18/16 01:45:31  5-MIN KARB 180645Z AUTO 00000KT 10SM CLR M03/M04 A2990 860 92 -1100 000/00 RMK AO2 T10331044
94889KARB ARB20160318015011803/18/16 01:50:31  5-MIN KARB 180650Z AUTO 00000KT 10SM CLR M03/M04 A2990 860 88 -1000 000/00 RMK AO2 SLP132 T10281044
94889KARB ARB20160318015511103/18/16 01:55:31  5-MIN KARB 180655Z AUTO 00000KT 10SM CLR M02/M04 A2990 860 88 -1000 000/00 RMK AO2 T10221039
94889KARB ARB20160318020011103/18/16 02:00:31  5-MIN KARB 180700Z AUTO 00000KT 10SM CLR M02/M04 A2990 860 88 -1000 000/00 RMK AO2 T10221039
94889KARB ARB20160318020511103/18/16 02:05:31  5-MIN KARB 180705Z AUTO 00000KT 10SM CLR M03/M04 A2990 860 92 -1000 000/00 RMK AO2 T10281039
94889KARB ARB20160318021011103/18/16 02:10:31  5-MIN KARB 180710Z AUTO 00000KT 10SM CLR M02/M04 A2990 860 88 -1000 000/00 RMK AO2 T10221039
94889KARB ARB20160318021511103/18/16 02:15:31  5-MIN KARB 180715Z AUTO 00000KT 10SM CLR M03/M04 A2990 860 92 -1000 000/00 RMK AO2 T10281039
94889KARB ARB20160318022011403/18/16 02:20:31  5-MIN KARB 180720Z AUTO 00000KT 10SM FEW090 M03/M05 A2990 860 88 -1100 000/00 RMK AO2 T10331050
94889KARB ARB20160318022511403/18/16 02:25:31  5-MIN KARB 180725Z AUTO 00000KT 10SM SCT090 M03/M04 A2990 860 88 -1000 000/00 RMK AO2 T10281044
94889KARB ARB20160318023011403/18/16 02:30:31  5-MIN KARB 180730Z AUTO 00000KT 10SM BKN090 M03/M04 A2990 860 88 -1000 000/00 RMK AO2 T10281044
94889KARB ARB20160318023511403/18/16 02:35:31  5-MIN KARB 180735Z AUTO 00000KT 10SM BKN090 M03/M04 A2989 870 92 -1000 000/00 RMK AO2 T10281039
94889KARB ARB20160318024011403/18/16 02:40:31  5-MIN KARB 180740Z AUTO 00000KT 10SM SCT090 M03/M04 A2989 870 92 -1000 000/00 RMK AO2 T10281039
94889KARB ARB20160318024511403/18/16 02:45:31  5-MIN KARB 180745Z AUTO 00000KT 10SM SCT090 M03/M04 A2989 870 92 -1000 000/00 RMK AO2 T10281039
94889KARB ARB20160318025012103/18/16 02:50:31  5-MIN KARB 180750Z AUTO 00000KT 10SM SCT090 M03/M04 A2989 870 92 -1000 000/00 RMK AO2 SLP126 T10281039
94889KARB ARB20160318025512003/18/16 02:55:31  5-MIN KARB 180755Z AUTO 00000KT 10SM FEW090 M03/M04 A2988 870 92 -1000 000/00 RMK AO2 I1000 T10281039
94889KARB ARB20160318030011603/18/16 03:00:31  5-MIN KARB 180800Z AUTO 00000KT 10SM CLR M02/M04 A2989 870 88 -900 000/00 RMK AO2 I1000 T10221039
94889KARB ARB20160318030511603/18/16 03:05:31  5-MIN KARB 180805Z AUTO 00000KT 10SM CLR M02/M03 A2988 880 88 -900 000/00 RMK AO2 I1000 T10171033
94889KARB ARB20160318031011603/18/16 03:10:31  5-MIN KARB 180810Z AUTO 00000KT 10SM CLR M02/M03 A2988 870 88 -900 000/00 RMK AO2 I1000 T10171033
94889KARB ARB20160318031511703/18/16 03:15:31  5-MIN KARB 180815Z AUTO 00000KT 10SM CLR M03/M04 A2988 880 88 -1000 000/00 RMK AO2 I1000 T10281044
94889KARB ARB20160318032011703/18/16 03:20:31  5-MIN KARB 180820Z AUTO 00000KT 10SM CLR M03/M04 A2988 880 88 -1000 000/00 RMK AO2 I1000 T10281044
94889KARB ARB20160318032512003/18/16 03:25:31  5-MIN KARB 180825Z AUTO 00000KT 10SM FEW090 M03/M04 A2988 880 88 -1000 000/00 RMK AO2 I1000 T10281044
94889KARB ARB20160318033012003/18/16 03:30:31  5-MIN KARB 180830Z AUTO 24003KT 10SM FEW090 M03/M04 A2988 880 92 -1100 250/03 RMK AO2 I1000 T10331044
94889KARB ARB20160318033512203/18/16 03:35:31  5-MIN KARB 180835Z AUTO 23004KT 10SM CLR M03/M04 A2988 880 92 -1100 240/04 RMK AO2 I1000 T10331044 TSNO
94889KARB ARB20160318034011803/18/16 03:40:31  5-MIN KARB 180840Z AUTO 20004KT 10SM CLR M04/M04 A2988 880 100 -1100 200/04 RMK AO2 I1000 T10391039
94889KARB ARB20160318034511703/18/16 03:45:31  5-MIN KARB 180845Z AUTO 00000KT 10SM CLR M04/M04 A2988 880 96 -1100 000/00 RMK AO2 I1000 T10391044
94889KARB ARB20160318035013603/18/16 03:50:31  5-MIN KARB 180850Z AUTO 28003KT 10SM CLR M03/M04 A2988 880 92 -1000 290/03 RMK AO2 SLP123 I1000 I3/// T10281039 53000
94889KARB ARB20160318035511103/18/16 03:55:31  5-MIN KARB 180855Z AUTO 28004KT 10SM CLR M03/M04 A2988 880 88 -1000 280/04 RMK AO2 T10281044
94889KARB ARB20160318040011003/18/16 04:00:31  5-MIN KARB 180900Z AUTO 33004KT 10SM CLR M02/M04 A2989 870 88 -900 330/04 RMK AO2 T10221039
94889KARB ARB20160318040511003/18/16 04:05:31  5-MIN KARB 180905Z AUTO 00000KT 10SM CLR M01/M03 A2988 870 85 -800 000/00 RMK AO2 T10111033
94889KARB ARB20160318041011003/18/16 04:10:31  5-MIN KARB 180910Z AUTO 00000KT 10SM CLR M02/M04 A2989 870 88 -900 000/00 RMK AO2 T10221039
94889KARB ARB20160318041511103/18/16 04:15:31  5-MIN KARB 180915Z AUTO 34003KT 10SM CLR M04/M06 A2989 870 88 -1200 350/03 RMK AO2 T10391056
94889KARB ARB20160318042011103/18/16 04:20:31  5-MIN KARB 180920Z AUTO 00000KT 10SM CLR M03/M05 A2989 870 88 -1100 000/00 RMK AO2 T10331050
94889KARB ARB20160318042511103/18/16 04:25:31  5-MIN KARB 180925Z AUTO 00000KT 10SM CLR M03/M05 A2989 870 88 -1100 000/00 RMK AO2 T10331050
94889KARB ARB20160318043011103/18/16 04:30:31  5-MIN KARB 180930Z AUTO 00000KT 10SM CLR M03/M06 A2989 870 85 -1100 000/00 RMK AO2 T10331056
94889KARB ARB20160318043511103/18/16 04:35:31  5-MIN KARB 180935Z AUTO 00000KT 10SM CLR M03/M04 A2989 870 88 -1000 000/00 RMK AO2 T10281044
94889KARB ARB20160318044011103/18/16 04:40:31  5-MIN KARB 180940Z AUTO 00000KT 10SM CLR M03/M04 A2989 870 92 -1100 000/00 RMK AO2 T10331044
94889KARB ARB20160318044511103/18/16 04:45:31  5-MIN KARB 180945Z AUTO 00000KT 10SM CLR M03/M04 A2989 870 92 -1000 000/00 RMK AO2 T10281039
94889KARB ARB20160318045012403/18/16 04:50:31  5-MIN KARB 180950Z AUTO 00000KT 10SM CLR M03/M04 A2989 870 92 -1100 000/00 RMK AO2 SLP128 I1000 T10331044
94889KARB ARB20160318045511103/18/16 04:55:31  5-MIN KARB 180955Z AUTO 00000KT 10SM CLR M04/M05 A2989 870 92 -1200 000/00 RMK AO2 T10391050
94889KARB ARB20160318050011103/18/16 05:00:31  5-MIN KARB 181000Z AUTO 00000KT 10SM CLR M03/M05 A2989 870 88 -1100 000/00 RMK AO2 T10331050
94889KARB ARB20160318050511103/18/16 05:05:31  5-MIN KARB 181005Z AUTO 00000KT 10SM CLR M03/M05 A2990 860 85 -1000 000/00 RMK AO2 T10281050
94889KARB ARB20160318051011003/18/16 05:10:31  5-MIN KARB 181010Z AUTO 00000KT 10SM CLR M02/M04 A2990 860 85 -900 000/00 RMK AO2 T10221044
94889KARB ARB20160318051511103/18/16 05:15:31  5-MIN KARB 181015Z AUTO 00000KT 10SM CLR M03/M05 A2990 860 85 -1000 000/00 RMK AO2 T10281050
94889KARB ARB20160318052011103/18/16 05:20:31  5-MIN KARB 181020Z AUTO 00000KT 10SM CLR M03/M05 A2990 860 85 -1000 000/00 RMK AO2 T10281050
94889KARB ARB20160318052511103/18/16 05:25:31  5-MIN KARB 181025Z AUTO 00000KT 10SM CLR M03/M05 A2990 860 88 -1100 000/00 RMK AO2 T10331050
94889KARB ARB20160318053011103/18/16 05:30:31  5-MIN KARB 181030Z AUTO 00000KT 10SM CLR M03/M05 A2990 860 85 -1000 000/00 RMK AO2 T10281050
94889KARB ARB20160318053511103/18/16 05:35:31  5-MIN KARB 181035Z AUTO 00000KT 10SM CLR M03/M05 A2990 860 88 -1100 000/00 RMK AO2 T10331050
94889KARB ARB20160318054011103/18/16 05:40:31  5-MIN KARB 181040Z AUTO 00000KT 10SM CLR M03/M05 A2990 860 88 -1100 000/00 RMK AO2 T10331050
94889KARB ARB20160318054511103/18/16 05:45:31  5-MIN KARB 181045Z AUTO 00000KT 10SM CLR M03/M04 A2990 860 96 -1100 000/00 RMK AO2 T10331039
94889KARB ARB20160318055011803/18/16 05:50:31  5-MIN KARB 181050Z AUTO 00000KT 10SM CLR M04/M04 A2990 860 96 -1200 000/00 RMK AO2 SLP130 T10391044
94889KARB ARB20160318055511103/18/16 05:55:31  5-MIN KARB 181055Z AUTO 00000KT 10SM CLR M04/M04 A2990 860 96 -1200 000/00 RMK AO2 T10391044
94889KARB ARB20160318060011103/18/16 06:00:31  5-MIN KARB 181100Z AUTO 00000KT 10SM CLR M03/M04 A2990 860 92 -1100 000/00 RMK AO2 T10331044
94889KARB ARB20160318060511103/18/16 06:05:31  5-MIN KARB 181105Z AUTO 00000KT 10SM CLR M03/M05 A2990 860 85 -1000 000/00 RMK AO2 T10281050
94889KARB ARB20160318061011103/18/16 06:10:31  5-MIN KARB 181110Z AUTO 00000KT 10SM CLR M03/M06 A2990 860 85 -1100 000/00 RMK AO2 T10331056
94889KARB ARB20160318061511103/18/16 06:15:31  5-MIN KARB 181115Z AUTO 00000KT 10SM CLR M03/M06 A2990 860 85 -1100 000/00 RMK AO2 T10331056
94889KARB ARB20160318062011103/18/16 06:20:31  5-MIN KARB 181120Z AUTO 00000KT 10SM CLR M04/M06 A2990 860 88 -1200 000/00 RMK AO2 T10391056
94889KARB ARB20160318062511103/18/16 06:25:31  5-MIN KARB 181125Z AUTO 00000KT 10SM CLR M04/M05 A2990 860 92 -1200 000/00 RMK AO2 T10391050
94889KARB ARB20160318063011703/18/16 06:30:31  5-MIN KARB 181130Z AUTO 00000KT 10SM CLR M04/M04 A2990 860 96 -1200 000/00 RMK AO2 I1000 T10391044
94889KARB ARB20160318063511703/18/16 06:35:31  5-MIN KARB 181135Z AUTO 25003KT 10SM CLR M04/M04 A2991 860 96 -1200 260/03 RMK AO2 I1000 T10391044
94889KARB ARB20160318064011703/18/16 06:40:31  5-MIN KARB 181140Z AUTO 24003KT 10SM CLR M04/M05 A2991 850 92 -1200 250/03 RMK AO2 I1000 T10391050
94889KARB ARB20160318064511703/18/16 06:45:31  5-MIN KARB 181145Z AUTO 00000KT 10SM CLR M04/M04 A2991 850 96 -1200 000/00 RMK AO2 I1000 T10391044
94889KARB ARB20160318065014803/18/16 06:50:31  5-MIN KARB 181150Z AUTO 00000KT 10SM CLR M04/M05 A2991 850 92 -1200 000/00 RMK AO2 SLP135 I1000 I6000 T10391050 11006 21039 58007
94889KARB ARB20160318065511103/18/16 06:55:31  5-MIN KARB 181155Z AUTO 00000KT 10SM CLR M03/M04 A2991 850 92 -1000 000/00 RMK AO2 T10281039
94889KARB ARB20160318070010603/18/16 07:00:31  5-MIN KARB 181200Z 00000KT 10SM CLR M03/M04 A2991 850 92 -1000 000/00 RMK AO2 T10281039
94889KARB ARB20160318070510603/18/16 07:05:31  5-MIN KARB 181205Z 24003KT 10SM CLR M04/M05 A2991 850 96 -1300 250/03 RMK AO2 T10441050
94889KARB ARB20160318071010603/18/16 07:10:31  5-MIN KARB 181210Z 24003KT 10SM CLR M04/M05 A2991 850 96 -1300 250/03 RMK AO2 T10441050
94889KARB ARB20160318071510603/18/16 07:15:31  5-MIN KARB 181215Z 00000KT 10SM CLR M04/M06 A2991 850 92 -1300 000/00 RMK AO2 T10441056
94889KARB ARB20160318072010603/18/16 07:20:31  5-MIN KARB 181220Z 00000KT 10SM CLR M04/M05 A2992 840 92 -1200 000/00 RMK AO2 T10391050
94889KARB ARB20160318072510603/18/16 07:25:31  5-MIN KARB 181225Z 00000KT 10SM CLR M03/M04 A2992 850 92 -1100 000/00 RMK AO2 T10331044
94889KARB ARB20160318073010603/18/16 07:30:31  5-MIN KARB 181230Z 00000KT 10SM CLR M03/M04 A2992 840 88 -1000 000/00 RMK AO2 T10281044
94889KARB ARB20160318073510603/18/16 07:35:31  5-MIN KARB 181235Z 00000KT 10SM CLR M02/M03 A2992 840 92 -1000 000/00 RMK AO2 T10221033
94889KARB ARB20160318074010503/18/16 07:40:31  5-MIN KARB 181240Z 00000KT 10SM CLR M02/M03 A2993 830 92 -900 000/00 RMK AO2 T10171028
94889KARB ARB20160318074510503/18/16 07:45:31  5-MIN KARB 181245Z 26004KT 10SM CLR M01/M02 A2993 830 92 -800 270/04 RMK AO2 T10111022
94889KARB ARB20160318075011203/18/16 07:50:31  5-MIN KARB 181250Z 26003KT 10SM CLR M01/M02 A2993 830 92 -800 270/03 RMK AO2 SLP142 T10111022
94889KARB ARB20160318075510503/18/16 07:55:31  5-MIN KARB 181255Z 00000KT 10SM CLR M01/M02 A2993 830 92 -800 000/00 RMK AO2 T10061017
94889KARB ARB20160318080010403/18/16 08:00:31  5-MIN KARB 181300Z 00000KT 10SM CLR 00/M02 A2993 830 88 -700 000/00 RMK AO2 T00001017
94889KARB ARB20160318080510403/18/16 08:05:31  5-MIN KARB 181305Z 00000KT 10SM CLR 00/M01 A2993 830 92 -700 000/00 RMK AO2 T00001011
94889KARB ARB20160318081010403/18/16 08:10:31  5-MIN KARB 181310Z 00000KT 10SM CLR 00/M01 A2993 830 92 -700 000/00 RMK AO2 T00001011
94889KARB ARB20160318081510403/18/16 08:15:31  5-MIN KARB 181315Z 00000KT 10SM CLR 01/M01 A2993 830 89 -600 000/00 RMK AO2 T00061011
94889KARB ARB20160318082010403/18/16 08:20:31  5-MIN KARB 181320Z 00000KT 10SM CLR 01/M01 A2994 830 85 -600 000/00 RMK AO2 T00111011
94889KARB ARB20160318082510403/18/16 08:25:31  5-MIN KARB 181325Z 00000KT 10SM CLR 03/M01 A2994 830 79 -400 000/00 RMK AO2 T00281006
94889KARB ARB20160318083010403/18/16 08:30:31  5-MIN KARB 181330Z 36006KT 10SM CLR 04/M01 A2993 830 70 -200 010/06 RMK AO2 T00391011
94889KARB ARB20160318083510403/18/16 08:35:31  5-MIN KARB 181335Z 36008KT 10SM CLR 04/M01 A2993 830 70 -200 010/08 RMK AO2 T00391011
94889KARB ARB20160318084010403/18/16 08:40:31  5-MIN KARB 181340Z 01005KT 10SM CLR 04/M02 A2993 830 67 -200 020/05 RMK AO2 T00391017
94889KARB ARB20160318084510403/18/16 08:45:31  5-MIN KARB 181345Z 02005KT 10SM CLR 04/M01 A2994 830 67 -200 020/05 RMK AO2 T00441011
94889KARB ARB20160318085011103/18/16 08:50:31  5-MIN KARB 181350Z 34005KT 10SM CLR 04/M02 A2994 820 64 -200 350/05 RMK AO2 SLP145 T00441017
94889KARB ARB20160318085510403/18/16 08:55:31  5-MIN KARB 181355Z 35005KT 10SM CLR 05/M02 A2994 820 62 -100 360/05 RMK AO2 T00501017
94889KARB ARB20160318090010403/18/16 09:00:31  5-MIN KARB 181400Z 33004KT 10SM CLR 05/M02 A2994 820 62 -100 340/04 RMK AO2 T00501017
94889KARB ARB20160318090510403/18/16 09:05:31  5-MIN KARB 181405Z 35005KT 10SM CLR 05/M02 A2994 820 62 -100 350/05 RMK AO2 T00501017
94889KARB ARB20160318091010103/18/16 09:10:31  5-MIN KARB 181410Z 33006KT 10SM CLR 06/M02 A2994 820 59 0 340/06 RMK AO2 T00561017
94889KARB ARB20160318091510103/18/16 09:15:31  5-MIN KARB 181415Z 35004KT 10SM CLR 06/M02 A2994 820 57 0 360/04 RMK AO2 T00561022
94889KARB ARB20160318092010103/18/16 09:20:31  5-MIN KARB 181420Z 35005KT 10SM CLR 06/M02 A2994 820 59 0 360/05 RMK AO2 T00561017
94889KARB ARB20160318092510103/18/16 09:25:31  5-MIN KARB 181425Z 36004KT 10SM CLR 06/M02 A2994 820 59 0 010/04 RMK AO2 T00561017
94889KARB ARB20160318093010103/18/16 09:30:31  5-MIN KARB 181430Z VRB04KT 10SM CLR 06/M02 A2994 820 57 0 VRB/04 RMK AO2 T00611017
94889KARB ARB20160318093510403/18/16 09:35:31  5-MIN KARB 181435Z VRB03KT 10SM FEW070 06/M02 A2995 820 55 0 VRB/03 RMK AO2 T00611022
94889KARB ARB20160318094010403/18/16 09:40:31  5-MIN KARB 181440Z 24003KT 10SM FEW070 06/M02 A2994 820 59 0 240/03 RMK AO2 T00561017
94889KARB ARB20160318094510603/18/16 09:45:31  5-MIN KARB 181445Z VRB03KT 10SM FEW070 07/M02 A2995 820 55 100 VRB/03 RMK AO2 T00671017
94889KARB ARB20160318095011703/18/16 09:50:31  5-MIN KARB 181450Z 29006KT 10SM FEW070 07/M02 A2995 820 55 0 300/06 RMK AO2 SLP147 T00671017 53010
94889KARB ARB20160318095510403/18/16 09:55:31  5-MIN KARB 181455Z VRB04KT 10SM FEW070 07/M02 A2995 810 53 0 VRB/04 RMK AO2 T00671022
94889KARB ARB20160318100010603/18/16 10:00:31  5-MIN KARB 181500Z 29006KT 10SM FEW070 07/M02 A2995 810 53 100 300/06 RMK AO2 T00721017
94889KARB ARB20160318100510603/18/16 10:05:31  5-MIN KARB 181505Z 33008KT 10SM FEW070 07/M02 A2995 810 53 100 330/08 RMK AO2 T00721017
94889KARB ARB20160318101010603/18/16 10:10:31  5-MIN KARB 181510Z 30008KT 10SM FEW070 07/M01 A2996 810 55 100 310/08 RMK AO2 T00721011
94889KARB ARB20160318101510603/18/16 10:15:31  5-MIN KARB 181515Z 31006KT 10SM FEW070 07/M02 A2996 810 53 100 320/06 RMK AO2 T00721017
94889KARB ARB20160318102010603/18/16 10:20:31  5-MIN KARB 181520Z 32012KT 10SM FEW070 08/M02 A2996 810 51 200 330/12 RMK AO2 T00781017
94889KARB ARB20160318102510603/18/16 10:25:31  5-MIN KARB 181525Z 32008KT 10SM SCT070 08/M02 A2996 800 49 200 330/08 RMK AO2 T00781022
94889KARB ARB20160318103010603/18/16 10:30:31  5-MIN KARB 181530Z VRB05KT 10SM BKN075 08/M02 A2997 800 51 200 VRB/05 RMK AO2 T00781017
94889KARB ARB20160318103510603/18/16 10:35:31  5-MIN KARB 181535Z 33012KT 10SM BKN075 08/M02 A2997 800 51 200 340/12 RMK AO2 T00781017
94889KARB ARB20160318104010403/18/16 10:40:31  5-MIN KARB 181540Z 32011KT 10SM BKN075 07/M02 A2997 790 53 0 330/11 RMK AO2 T00671022
94889KARB ARB20160318104511303/18/16 10:45:31  5-MIN KARB 181545Z 33010KT 10SM FEW060 BKN075 07/M02 A2997 790 51 100 340/10 RMK AO2 T00721022
94889KARB ARB20160318105011303/18/16 10:50:31  5-MIN KARB 181550Z 31008KT 10SM OVC075 08/M02 A2997 790 49 200 320/08 RMK AO2 SLP156 T00781022
94889KARB ARB20160318105511303/18/16 10:55:31  5-MIN KARB 181555Z 34012KT 10SM FEW060 OVC075 08/M02 A2998 790 47 200 340/12 RMK AO2 T00831022
94889KARB ARB20160318110011903/18/16 11:00:31  5-MIN KARB 181600Z 34009G16KT 10SM FEW060 OVC075 08/M03 A2998 790 45 100 350/09G16 RMK AO2 T00781033
94889KARB ARB20160318110511903/18/16 11:05:31  5-MIN KARB 181605Z 32011G17KT 10SM FEW060 OVC075 07/M04 A2998 780 45 100 330/11G17 RMK AO2 T00721039
94889KARB ARB20160318212011203/18/16 21:20:31  5-MIN KARB 190220Z AUTO 06009KT 10SM OVC060 03/M01 A3011 670 76 -500 060/09 RMK AO2 T00331006
94889KARB ARB20160318212511203/18/16 21:25:31  5-MIN KARB 190225Z AUTO 04008KT 10SM OVC060 03/M01 A3011 660 76 -500 050/08 RMK AO2 T00331006
94889KARB ARB20160318213011903/18/16 21:30:31  5-MIN KARB 190230Z AUTO 05009KT 10SM FEW018 OVC060 03/M01 A3012 660 76 -500 060/09 RMK AO2 T00331006
94889KARB ARB20160318213511903/18/16 21:35:31  5-MIN KARB 190235Z AUTO 06008KT 10SM SCT018 OVC060 03/M01 A3012 660 76 -500 070/08 RMK AO2 T00331006
94889KARB ARB20160318214011903/18/16 21:40:31  5-MIN KARB 190240Z AUTO 08010KT 10SM BKN018 OVC060 03/M01 A3011 660 76 -500 090/10 RMK AO2 T00331006
94889KARB ARB20160318214511903/18/16 21:45:31  5-MIN KARB 190245Z AUTO 08010KT 10SM BKN018 OVC060 03/M01 A3011 660 79 -600 080/10 RMK AO2 T00281006
94889KARB ARB20160318215010903/18/16 21:50:31  5-MIN KARB 190250Z AUTO 06008KT 10SM SCT018 OVC060 03/M01 A3011 660 75 -600 060/08 RMK AO2
94889KARB ARB20160318215511903/18/16 21:55:31  5-MIN KARB 190255Z AUTO 05008KT 10SM SCT018 OVC060 03/M01 A3012 660 75 -600 060/08 RMK AO2 T00281011
94889KARB ARB20160318220011903/18/16 22:00:31  5-MIN KARB 190300Z AUTO 06007KT 10SM SCT018 OVC060 03/M01 A3012 660 75 -600 070/07 RMK AO2 T00281011
94889KARB ARB20160318220511903/18/16 22:05:31  5-MIN KARB 190305Z AUTO 05005KT 10SM FEW018 OVC060 03/M01 A3012 660 75 -600 060/05 RMK AO2 T00281011
94889KARB ARB20160318221011903/18/16 22:10:31  5-MIN KARB 190310Z AUTO 06006KT 10SM FEW018 OVC060 03/M01 A3012 660 75 -600 070/06 RMK AO2 T00281011
94889KARB ARB20160318221511203/18/16 22:15:31  5-MIN KARB 190315Z AUTO 09007KT 10SM OVC060 03/M02 A3012 660 72 -600 090/07 RMK AO2 T00281017
94889KARB ARB20160318222011203/18/16 22:20:31  5-MIN KARB 190320Z AUTO 06007KT 10SM OVC060 02/M02 A3012 660 75 -600 070/07 RMK AO2 T00221017
94889KARB ARB20160318222511203/18/16 22:25:31  5-MIN KARB 190325Z AUTO 08006KT 10SM OVC060 02/M02 A3012 660 75 -600 080/06 RMK AO2 T00221017
94889KARB ARB20160318223011203/18/16 22:30:31  5-MIN KARB 190330Z AUTO 09005KT 10SM OVC060 02/M02 A3012 650 75 -700 100/05 RMK AO2 T00221017
94889KARB ARB20160318223511203/18/16 22:35:31  5-MIN KARB 190335Z AUTO 08006KT 10SM OVC060 02/M02 A3012 660 75 -600 090/06 RMK AO2 T00221017
94889KARB ARB20160318224011203/18/16 22:40:31  5-MIN KARB 190340Z AUTO 10005KT 10SM OVC060 02/M02 A3012 660 75 -600 100/05 RMK AO2 T00221017
94889KARB ARB20160318224511203/18/16 22:45:31  5-MIN KARB 190345Z AUTO 08003KT 10SM OVC060 02/M02 A3012 660 75 -600 090/03 RMK AO2 T00221017
94889KARB ARB20160318225011903/18/16 22:50:31  5-MIN KARB 190350Z AUTO 08004KT 10SM OVC060 02/M02 A3012 660 75 -600 080/04 RMK AO2 SLP205 T00221017
94889KARB ARB20160318225511203/18/16 22:55:31  5-MIN KARB 190355Z AUTO 07005KT 10SM OVC060 02/M02 A3012 660 75 -600 070/05 RMK AO2 T00221017
94889KARB ARB20160318230011203/18/16 23:00:31  5-MIN KARB 190400Z AUTO 07006KT 10SM OVC060 02/M02 A3012 660 72 -600 080/06 RMK AO2 T00221022
94889KARB ARB20160318230511203/18/16 23:05:31  5-MIN KARB 190405Z AUTO 07005KT 10SM OVC060 02/M02 A3012 660 72 -600 080/05 RMK AO2 T00221022
94889KARB ARB20160318231011203/18/16 23:10:31  5-MIN KARB 190410Z AUTO 07005KT 10SM OVC060 02/M02 A3012 660 72 -600 070/05 RMK AO2 T00221022
94889KARB ARB20160318231511203/18/16 23:15:31  5-MIN KARB 190415Z AUTO 08006KT 10SM OVC060 02/M02 A3012 660 72 -600 080/06 RMK AO2 T00221022
94889KARB ARB20160318232011203/18/16 23:20:31  5-MIN KARB 190420Z AUTO 06007KT 10SM OVC060 02/M03 A3012 660 69 -600 070/07 RMK AO2 T00221028
94889KARB ARB20160318232511203/18/16 23:25:31  5-MIN KARB 190425Z AUTO 08006KT 10SM OVC060 02/M03 A3012 650 69 -700 080/06 RMK AO2 T00221028
94889KARB ARB20160318233011203/18/16 23:30:31  5-MIN KARB 190430Z AUTO 07006KT 10SM OVC060 02/M03 A3012 650 69 -700 080/06 RMK AO2 T00221028
94889KARB ARB20160318233511203/18/16 23:35:31  5-MIN KARB 190435Z AUTO 06006KT 10SM OVC060 02/M03 A3013 650 69 -700 070/06 RMK AO2 T00221028
94889KARB ARB20160318234011203/18/16 23:40:31  5-MIN KARB 190440Z AUTO 06005KT 10SM OVC060 02/M03 A3013 650 72 -700 060/05 RMK AO2 T00171028
94889KARB ARB20160318234511203/18/16 23:45:31  5-MIN KARB 190445Z AUTO 07005KT 10SM OVC060 02/M03 A3013 650 72 -700 070/05 RMK AO2 T00171028
94889KARB ARB20160318235012903/18/16 23:50:31  5-MIN KARB 190450Z AUTO 06006KT 10SM OVC060 02/M03 A3013 650 72 -700 070/06 RMK AO2 SLP209 T00171028 401001044
94889KARB ARB20160318235511203/18/16 23:55:31  5-MIN KARB 190455Z AUTO 06007KT 10SM OVC060 02/M03 A3013 650 72 -700 070/07 RMK AO2 T00171028
94889KARB ARB20160319000011203/19/16 00:00:31  5-MIN KARB 190500Z AUTO 06007KT 10SM OVC060 02/M03 A3013 650 72 -700 060/07 RMK AO2 T00171028
94889KARB ARB20160319000511203/19/16 00:05:31  5-MIN KARB 190505Z AUTO 06009KT 10SM OVC060 02/M03 A3013 650 69 -700 070/09 RMK AO2 T00171033
94889KARB ARB20160319001011203/19/16 00:10:31  5-MIN KARB 190510Z AUTO 07008KT 10SM OVC060 02/M03 A3013 650 69 -700 070/08 RMK AO2 T00171033
94889KARB ARB20160319001511203/19/16 00:15:31  5-MIN KARB 190515Z AUTO 07006KT 10SM OVC060 02/M03 A3013 650 69 -700 070/06 RMK AO2 T00171033
94889KARB ARB20160319002011203/19/16 00:20:31  5-MIN KARB 190520Z AUTO 07009KT 10SM OVC060 01/M03 A3013 640 72 -800 070/09 RMK AO2 T00111033
94889KARB ARB20160319002511203/19/16 00:25:31  5-MIN KARB 190525Z AUTO 07008KT 10SM OVC060 01/M03 A3014 640 72 -800 070/08 RMK AO2 T00111033
94889KARB ARB20160319003011203/19/16 00:30:31  5-MIN KARB 190530Z AUTO 07008KT 10SM OVC060 01/M03 A3014 640 72 -800 070/08 RMK AO2 T00111033
94889KARB ARB20160319003511203/19/16 00:35:31  5-MIN KARB 190535Z AUTO 09006KT 10SM OVC060 01/M03 A3014 640 72 -800 090/06 RMK AO2 T00111033
94889KARB ARB20160319004011203/19/16 00:40:31  5-MIN KARB 190540Z AUTO 09007KT 10SM OVC060 01/M03 A3014 640 75 -800 090/07 RMK AO2 T00111028
94889KARB ARB20160319004511903/19/16 00:45:31  5-MIN KARB 190545Z AUTO 09006KT 10SM FEW045 OVC060 01/M03 A3014 640 72 -800 100/06 RMK AO2 T00111033
94889KARB ARB20160319005014403/19/16 00:50:31  5-MIN KARB 190550Z AUTO 09006KT 10SM FEW045 OVC065 01/M03 A3015 630 75 -900 100/06 RMK AO2 SLP215 T00061033 10050 20006 51014
94889KARB ARB20160319005511903/19/16 00:55:31  5-MIN KARB 190555Z AUTO 09006KT 10SM SCT045 OVC065 01/M03 A3015 630 75 -900 100/06 RMK AO2 T00061033
94889KARB ARB20160319010011903/19/16 01:00:31  5-MIN KARB 190600Z AUTO 10005KT 10SM BKN045 OVC065 01/M04 A3015 630 72 -900 110/05 RMK AO2 T00061039
94889KARB ARB20160319010511903/19/16 01:05:31  5-MIN KARB 190605Z AUTO 09006KT 10SM BKN045 OVC060 01/M04 A3015 630 72 -900 090/06 RMK AO2 T00061039
94889KARB ARB20160319011011903/19/16 01:10:31  5-MIN KARB 190610Z AUTO 09007KT 10SM BKN045 OVC065 01/M04 A3016 620 69 -900 100/07 RMK AO2 T00061044
94889KARB ARB20160319011511903/19/16 01:15:31  5-MIN KARB 190615Z AUTO 08007KT 10SM BKN045 OVC065 01/M05 A3016 620 66 -900 090/07 RMK AO2 T00061050
94889KARB ARB20160319012011903/19/16 01:20:31  5-MIN KARB 190620Z AUTO 08006KT 10SM BKN045 OVC065 01/M05 A3016 620 66 -900 090/06 RMK AO2 T00061050
94889KARB ARB20160319012511203/19/16 01:25:31  5-MIN KARB 190625Z AUTO 08007KT 10SM OVC047 01/M06 A3016 620 63 -900 090/07 RMK AO2 T00061056
94889KARB ARB20160319013012003/19/16 01:30:31  5-MIN KARB 190630Z AUTO 09006KT 10SM BKN045 OVC065 00/M07 A3016 620 61 -1000 090/06 RMK AO2 T00001067
94889KARB ARB20160319013511303/19/16 01:35:31  5-MIN KARB 190635Z AUTO 07007KT 10SM OVC045 00/M07 A3017 620 61 -1000 080/07 RMK AO2 T00001067
94889KARB ARB20160319014012003/19/16 01:40:31  5-MIN KARB 190640Z AUTO 07008KT 10SM BKN045 OVC065 00/M08 A3017 610 56 -1000 080/08 RMK AO2 T00001078
94889KARB ARB20160319014511303/19/16 01:45:31  5-MIN KARB 190645Z AUTO 08007KT 10SM OVC045 00/M07 A3017 610 58 -1000 090/07 RMK AO2 T00001072
94889KARB ARB20160319015012003/19/16 01:50:31  5-MIN KARB 190650Z AUTO 08006KT 10SM OVC045 00/M07 A3017 610 58 -1000 080/06 RMK AO2 SLP222 T00001072
94889KARB ARB20160319015511303/19/16 01:55:31  5-MIN KARB 190655Z AUTO 07008KT 10SM OVC045 00/M07 A3017 610 58 -1000 080/08 RMK AO2 T00001072
94889KARB ARB20160319020011303/19/16 02:00:31  5-MIN KARB 190700Z AUTO 09007KT 10SM OVC045 00/M07 A3017 610 58 -1000 100/07 RMK AO2 T00001072
94889KARB ARB20160319020511403/19/16 02:05:31  5-MIN KARB 190705Z AUTO 08007KT 10SM OVC043 M01/M08 A3017 610 58 -1100 090/07 RMK AO2 T10061078
94889KARB ARB20160319021011403/19/16 02:10:31  5-MIN KARB 190710Z AUTO 08007KT 10SM OVC043 M01/M08 A3017 610 56 -1100 080/07 RMK AO2 T10061083
94889KARB ARB20160319021511403/19/16 02:15:31  5-MIN KARB 190715Z AUTO 07008KT 10SM OVC043 M01/M08 A3017 610 58 -1100 080/08 RMK AO2 T10061078
94889KARB ARB20160319022012103/19/16 02:20:31  5-MIN KARB 190720Z AUTO 08009KT 10SM BKN043 OVC065 M01/M08 A3017 610 58 -1100 090/09 RMK AO2 T10061078
94889KARB ARB20160319022512103/19/16 02:25:31  5-MIN KARB 190725Z AUTO 08008KT 10SM BKN043 OVC065 M01/M08 A3017 610 58 -1100 090/08 RMK AO2 T10061078
94889KARB ARB20160319023012103/19/16 02:30:31  5-MIN KARB 190730Z AUTO 08008KT 10SM BKN042 OVC065 M01/M08 A3017 610 60 -1100 090/08 RMK AO2 T10111078
94889KARB ARB20160319023511403/19/16 02:35:31  5-MIN KARB 190735Z AUTO 08008KT 10SM OVC042 M01/M08 A3017 610 60 -1100 090/08 RMK AO2 T10111078
94889KARB ARB20160319024011403/19/16 02:40:31  5-MIN KARB 190740Z AUTO 08010KT 10SM OVC042 M01/M08 A3017 610 60 -1100 090/10 RMK AO2 T10111078
94889KARB ARB20160319024511403/19/16 02:45:31  5-MIN KARB 190745Z AUTO 09008KT 10SM OVC043 M01/M08 A3017 610 60 -1100 090/08 RMK AO2 T10111078
94889KARB ARB20160319025012103/19/16 02:50:31  5-MIN KARB 190750Z AUTO 08008KT 10SM OVC043 M01/M07 A3017 610 63 -1100 090/08 RMK AO2 SLP224 T10111072
94889KARB ARB20160319025511403/19/16 02:55:31  5-MIN KARB 190755Z AUTO 07007KT 10SM OVC043 M01/M07 A3017 610 63 -1100 080/07 RMK AO2 T10111072
94889KARB ARB20160319030011403/19/16 03:00:31  5-MIN KARB 190800Z AUTO 06008KT 10SM OVC043 M01/M07 A3017 610 63 -1100 070/08 RMK AO2 T10111072
94889KARB ARB20160319030511403/19/16 03:05:31  5-MIN KARB 190805Z AUTO 07008KT 10SM OVC043 M01/M07 A3017 610 63 -1100 070/08 RMK AO2 T10111072
94889KARB ARB20160319031011403/19/16 03:10:31  5-MIN KARB 190810Z AUTO 07006KT 10SM OVC044 M01/M07 A3017 620 63 -1100 080/06 RMK AO2 T10111072
94889KARB ARB20160319031511403/19/16 03:15:31  5-MIN KARB 190815Z AUTO 06009KT 10SM OVC044 M01/M07 A3016 620 63 -1100 060/09 RMK AO2 T10111072
94889KARB ARB20160319032011403/19/16 03:20:31  5-MIN KARB 190820Z AUTO 06008KT 10SM OVC045 M01/M07 A3016 620 63 -1100 070/08 RMK AO2 T10111072
94889KARB ARB20160319032511403/19/16 03:25:31  5-MIN KARB 190825Z AUTO 07006KT 10SM OVC045 M01/M07 A3016 620 63 -1100 080/06 RMK AO2 T10111072
94889KARB ARB20160319033011403/19/16 03:30:31  5-MIN KARB 190830Z AUTO 05007KT 10SM OVC045 M01/M07 A3016 620 63 -1100 060/07 RMK AO2 T10111072
94889KARB ARB20160319033512103/19/16 03:35:31  5-MIN KARB 190835Z AUTO 05009KT 10SM BKN045 OVC060 M01/M07 A3016 620 63 -1100 050/09 RMK AO2 T10111072
94889KARB ARB20160319034012103/19/16 03:40:31  5-MIN KARB 190840Z AUTO 06008KT 10SM BKN045 OVC060 M02/M07 A3016 620 66 -1200 060/08 RMK AO2 T10171072
94889KARB ARB20160319034512103/19/16 03:45:31  5-MIN KARB 190845Z AUTO 06008KT 10SM BKN046 OVC065 M02/M07 A3016 620 66 -1200 070/08 RMK AO2 T10171072
94889KARB ARB20160319035013403/19/16 03:50:31  5-MIN KARB 190850Z AUTO 05010KT 10SM BKN046 OVC065 M02/M07 A3016 620 66 -1200 060/10 RMK AO2 SLP218 T10171072 53011
94889KARB ARB20160319035512103/19/16 03:55:31  5-MIN KARB 190855Z AUTO 06008KT 10SM BKN046 OVC065 M02/M07 A3015 630 66 -1200 070/08 RMK AO2 T10171072
94889KARB ARB20160319040012103/19/16 04:00:31  5-MIN KARB 190900Z AUTO 06008KT 10SM BKN046 OVC065 M02/M08 A3015 630 63 -1200 070/08 RMK AO2 T10171078
94889KARB ARB20160319040512103/19/16 04:05:31  5-MIN KARB 190905Z AUTO 05012KT 10SM BKN046 OVC060 M02/M07 A3015 630 66 -1200 060/12 RMK AO2 T10171072
94889KARB ARB20160319041012103/19/16 04:10:31  5-MIN KARB 190910Z AUTO 06009KT 10SM BKN046 OVC060 M02/M08 A3015 630 63 -1200 070/09 RMK AO2 T10171078
94889KARB ARB20160319041512103/19/16 04:15:31  5-MIN KARB 190915Z AUTO 06009KT 10SM BKN047 OVC060 M02/M08 A3015 630 63 -1200 060/09 RMK AO2 T10171078
94889KARB ARB20160319042012103/19/16 04:20:31  5-MIN KARB 190920Z AUTO 06007KT 10SM SCT047 OVC060 M02/M08 A3014 640 63 -1200 070/07 RMK AO2 T10171078
94889KARB ARB20160319042512103/19/16 04:25:31  5-MIN KARB 190925Z AUTO 05007KT 10SM FEW047 OVC060 M02/M08 A3014 640 63 -1200 060/07 RMK AO2 T10171078
94889KARB ARB20160319043012103/19/16 04:30:31  5-MIN KARB 190930Z AUTO 05007KT 10SM FEW048 OVC060 M02/M08 A3014 630 63 -1200 050/07 RMK AO2 T10171078
94889KARB ARB20160319043511403/19/16 04:35:31  5-MIN KARB 190935Z AUTO 05009KT 10SM OVC060 M02/M08 A3015 630 63 -1200 060/09 RMK AO2 T10171078
94889KARB ARB20160319044011403/19/16 04:40:31  5-MIN KARB 190940Z AUTO 05008KT 10SM OVC060 M02/M08 A3014 630 63 -1200 060/08 RMK AO2 T10171078
94889KARB ARB20160319044511403/19/16 04:45:31  5-MIN KARB 190945Z AUTO 06010KT 10SM OVC060 M02/M08 A3014 640 63 -1200 060/10 RMK AO2 T10171078
94889KARB ARB20160319045012103/19/16 04:50:31  5-MIN KARB 190950Z AUTO 05008KT 10SM OVC060 M02/M08 A3014 640 63 -1200 060/08 RMK AO2 SLP214 T10171078
94889KARB ARB20160319045511403/19/16 04:55:31  5-MIN KARB 190955Z AUTO 05007KT 10SM OVC060 M02/M08 A3014 640 63 -1200 060/07 RMK AO2 T10171078
94889KARB ARB20160319050011403/19/16 05:00:31  5-MIN KARB 191000Z AUTO 05008KT 10SM OVC060 M02/M08 A3014 640 63 -1200 060/08 RMK AO2 T10171078
94889KARB ARB20160319050511403/19/16 05:05:31  5-MIN KARB 191005Z AUTO 05009KT 10SM OVC060 M02/M08 A3014 640 63 -1200 060/09 RMK AO2 T10171078
94889KARB ARB20160319051011403/19/16 05:10:31  5-MIN KARB 191010Z AUTO 06008KT 10SM OVC060 M02/M08 A3014 640 66 -1200 060/08 RMK AO2 T10221078
94889KARB ARB20160319051511403/19/16 05:15:31  5-MIN KARB 191015Z AUTO 06009KT 10SM OVC060 M02/M08 A3014 640 66 -1200 060/09 RMK AO2 T10221078
94889KARB ARB20160319052011403/19/16 05:20:31  5-MIN KARB 191020Z AUTO 05009KT 10SM OVC060 M02/M08 A3013 650 66 -1200 050/09 RMK AO2 T10221078
94889KARB ARB20160319052511403/19/16 05:25:31  5-MIN KARB 191025Z AUTO 05009KT 10SM OVC060 M02/M08 A3013 650 66 -1200 060/09 RMK AO2 T10221078
94889KARB ARB20160319053011403/19/16 05:30:31  5-MIN KARB 191030Z AUTO 05007KT 10SM OVC060 M02/M08 A3014 640 63 -1200 050/07 RMK AO2 T10221083
94889KARB ARB20160319053511403/19/16 05:35:31  5-MIN KARB 191035Z AUTO 05007KT 10SM OVC060 M02/M08 A3014 640 66 -1200 060/07 RMK AO2 T10221078
94889KARB ARB20160319054011403/19/16 05:40:31  5-MIN KARB 191040Z AUTO 04008KT 10SM BKN060 M03/M08 A3013 640 66 -1300 050/08 RMK AO2 T10281083
94889KARB ARB20160319054511403/19/16 05:45:31  5-MIN KARB 191045Z AUTO 04009KT 10SM BKN060 M03/M08 A3013 640 68 -1300 050/09 RMK AO2 T10281078
94889KARB ARB20160319055012103/19/16 05:50:31  5-MIN KARB 191050Z AUTO 05010KT 10SM SCT060 M03/M08 A3014 640 66 -1300 050/10 RMK AO2 SLP213 T10281083
94889KARB ARB20160319055511403/19/16 05:55:31  5-MIN KARB 191055Z AUTO 05008KT 10SM FEW060 M03/M08 A3014 640 66 -1300 060/08 RMK AO2 T10281083
94889KARB ARB20160319060011403/19/16 06:00:31  5-MIN KARB 191100Z AUTO 04009KT 10SM FEW065 M03/M08 A3015 630 66 -1300 050/09 RMK AO2 T10281083
94889KARB ARB20160319060511103/19/16 06:05:31  5-MIN KARB 191105Z AUTO 05008KT 10SM CLR M03/M08 A3015 630 66 -1300 050/08 RMK AO2 T10281083
94889KARB ARB20160319061011103/19/16 06:10:31  5-MIN KARB 191110Z AUTO 05009KT 10SM CLR M03/M08 A3015 630 66 -1300 050/09 RMK AO2 T10281083
94889KARB ARB20160319061511103/19/16 06:15:31  5-MIN KARB 191115Z AUTO 05008KT 10SM CLR M03/M08 A3015 630 66 -1300 060/08 RMK AO2 T10281083
94889KARB ARB20160319062011103/19/16 06:20:31  5-MIN KARB 191120Z AUTO 06007KT 10SM CLR M03/M09 A3015 630 63 -1300 070/07 RMK AO2 T10281089
94889KARB ARB20160319062511103/19/16 06:25:31  5-MIN KARB 191125Z AUTO 06008KT 10SM CLR M02/M09 A3016 620 60 -1200 060/08 RMK AO2 T10221089
94889KARB ARB20160319063011103/19/16 06:30:31  5-MIN KARB 191130Z AUTO 06007KT 10SM CLR M02/M09 A3016 620 60 -1300 070/07 RMK AO2 T10221089
94889KARB ARB20160319063511103/19/16 06:35:31  5-MIN KARB 191135Z AUTO 05007KT 10SM CLR M02/M09 A3016 620 60 -1300 060/07 RMK AO2 T10221089
94889KARB ARB20160319064011103/19/16 06:40:31  5-MIN KARB 191140Z AUTO 05007KT 10SM CLR M03/M09 A3016 620 63 -1300 060/07 RMK AO2 T10281089
94889KARB ARB20160319064511103/19/16 06:45:31  5-MIN KARB 191145Z AUTO 06006KT 10SM CLR M02/M09 A3016 620 58 -1300 070/06 RMK AO2 T10221094
94889KARB ARB20160319065013603/19/16 06:50:31  5-MIN KARB 191150Z AUTO 05007KT 10SM CLR M02/M09 A3017 610 58 -1300 060/07 RMK AO2 SLP223 T10221094 10006 21028 50002
94889KARB ARB20160319065510603/19/16 06:55:31  5-MIN KARB 191155Z 06005KT 10SM CLR M02/M09 A3017 610 58 -1300 070/05 RMK AO2 T10221094
94889KARB ARB20160319070010603/19/16 07:00:31  5-MIN KARB 191200Z 06007KT 10SM CLR M02/M09 A3017 610 58 -1300 070/07 RMK AO2 T10221094
94889KARB ARB20160319070510603/19/16 07:05:31  5-MIN KARB 191205Z 05005KT 10SM CLR M02/M09 A3017 610 58 -1300 060/05 RMK AO2 T10221094
94889KARB ARB20160319071010603/19/16 07:10:31  5-MIN KARB 191210Z 06007KT 10SM CLR M03/M09 A3017 610 60 -1300 070/07 RMK AO2 T10281094
94889KARB ARB20160319071510603/19/16 07:15:31  5-MIN KARB 191215Z 06007KT 10SM CLR M03/M09 A3018 610 60 -1300 060/07 RMK AO2 T10281094
94889KARB ARB20160319072010603/19/16 07:20:31  5-MIN KARB 191220Z 05006KT 10SM CLR M02/M09 A3018 600 58 -1300 060/06 RMK AO2 T10221094
94889KARB ARB20160319072510603/19/16 07:25:31  5-MIN KARB 191225Z 05007KT 10SM CLR M02/M09 A3018 600 58 -1300 060/07 RMK AO2 T10221094
94889KARB ARB20160319073010603/19/16 07:30:31  5-MIN KARB 191230Z VRB05KT 10SM CLR M02/M09 A3018 600 58 -1300 VRB/05 RMK AO2 T10221094
94889KARB ARB20160319073510603/19/16 07:35:31  5-MIN KARB 191235Z 05006KT 10SM CLR M02/M09 A3018 600 58 -1300 050/06 RMK AO2 T10221094
94889KARB ARB20160319074010603/19/16 07:40:31  5-MIN KARB 191240Z 05007KT 10SM CLR M02/M09 A3018 600 58 -1300 050/07 RMK AO2 T10221094
94889KARB ARB20160319074510603/19/16 07:45:31  5-MIN KARB 191245Z 05009KT 10SM CLR M02/M09 A3018 600 58 -1300 060/09 RMK AO2 T10221094
94889KARB ARB20160319075011303/19/16 07:50:31  5-MIN KARB 191250Z 05008KT 10SM CLR M02/M09 A3018 600 58 -1300 060/08 RMK AO2 SLP229 T10221094
94889KARB ARB20160319075510603/19/16 07:55:31  5-MIN KARB 191255Z 05009KT 10SM CLR M02/M09 A3018 600 58 -1300 060/09 RMK AO2 T10221094
94889KARB ARB20160319080010603/19/16 08:00:31  5-MIN KARB 191300Z 06008KT 10SM CLR M02/M10 A3018 600 55 -1300 070/08 RMK AO2 T10221100
94889KARB ARB20160319080510603/19/16 08:05:31  5-MIN KARB 191305Z 06007KT 10SM CLR M02/M09 A3018 600 58 -1300 070/07 RMK AO2 T10221094
94889KARB ARB20160319081010603/19/16 08:10:31  5-MIN KARB 191310Z 07007KT 10SM CLR M02/M10 A3018 600 55 -1300 070/07 RMK AO2 T10221100
94889KARB ARB20160319081512203/19/16 08:15:31  5-MIN KARB 191315Z 07007KT 020V100 10SM CLR M02/M10 A3019 600 55 -1300 070/07 030V110 RMK AO2 T10221100
94889KARB ARB20160319082010603/19/16 08:20:31  5-MIN KARB 191320Z 07006KT 10SM CLR M02/M10 A3019 590 53 -1200 070/06 RMK AO2 T10171100
94889KARB ARB20160319082510603/19/16 08:25:31  5-MIN KARB 191325Z 06008KT 10SM CLR M02/M10 A3019 590 53 -1200 070/08 RMK AO2 T10171100
94889KARB ARB20160319083010603/19/16 08:30:31  5-MIN KARB 191330Z 07008KT 10SM CLR M02/M10 A3019 590 53 -1200 080/08 RMK AO2 T10171100
94889KARB ARB20160319083510603/19/16 08:35:31  5-MIN KARB 191335Z 06006KT 10SM CLR M02/M10 A3020 590 53 -1200 070/06 RMK AO2 T10171100
94889KARB ARB20160319084010603/19/16 08:40:31  5-MIN KARB 191340Z 06006KT 10SM CLR M02/M09 A3020 590 55 -1200 070/06 RMK AO2 T10171094
94889KARB ARB20160319084510603/19/16 08:45:31  5-MIN KARB 191345Z 07007KT 10SM CLR M02/M10 A3020 590 53 -1200 070/07 RMK AO2 T10171100
94889KARB ARB20160319085011903/19/16 08:50:31  5-MIN KARB 191350Z 07010G15KT 10SM CLR M02/M10 A3020 590 53 -1200 080/10G15 RMK AO2 SLP234 T10171100
94889KARB ARB20160319085510603/19/16 08:55:31  5-MIN KARB 191355Z 07007KT 10SM CLR M02/M10 A3020 590 53 -1200 080/07 RMK AO2 T10171100
94889KARB ARB20160319090010603/19/16 09:00:31  5-MIN KARB 191400Z 07009KT 10SM CLR M02/M10 A3020 580 53 -1200 070/09 RMK AO2 T10171100
94889KARB ARB20160319090510903/19/16 09:05:31  5-MIN KARB 191405Z 06009KT 10SM FEW120 M01/M10 A3020 580 51 -1200 070/09 RMK AO2 T10111100
94889KARB ARB20160319091010903/19/16 09:10:31  5-MIN KARB 191410Z 06008KT 10SM FEW120 M01/M10 A3020 580 51 -1200 070/08 RMK AO2 T10111100
94889KARB ARB20160319091510903/19/16 09:15:31  5-MIN KARB 191415Z 06008KT 10SM FEW120 M01/M10 A3020 580 51 -1200 060/08 RMK AO2 T10111100
94889KARB ARB20160319092010903/19/16 09:20:31  5-MIN KARB 191420Z 08009KT 10SM FEW120 M01/M10 A3020 580 51 -1200 080/09 RMK AO2 T10111100
94889KARB ARB20160319092510903/19/16 09:25:31  5-MIN KARB 191425Z 06008KT 10SM FEW120 M01/M10 A3020 580 51 -1200 070/08 RMK AO2 T10111100
94889KARB ARB20160319093011503/19/16 09:30:31  5-MIN KARB 191430Z 05012G16KT 10SM FEW120 M01/M11 A3020 580 49 -1200 060/12G16 RMK AO2 T10111106
94889KARB ARB20160319093510903/19/16 09:35:31  5-MIN KARB 191435Z 07010KT 10SM FEW120 M01/M11 A3020 580 49 -1200 070/10 RMK AO2 T10111106
94889KARB ARB20160319094010903/19/16 09:40:31  5-MIN KARB 191440Z 07009KT 10SM FEW120 M01/M11 A3020 580 49 -1200 080/09 RMK AO2 T10111106
94889KARB ARB20160319094510903/19/16 09:45:31  5-MIN KARB 191445Z 08009KT 10SM FEW120 M01/M11 A3020 580 49 -1200 090/09 RMK AO2 T10111106
94889KARB ARB20160319095011903/19/16 09:50:31  5-MIN KARB 191450Z 06011KT 10SM CLR M01/M11 A3020 580 47 -1100 070/11 RMK AO2 SLP236 T10061106 53004
94889KARB ARB20160319095510603/19/16 09:55:31  5-MIN KARB 191455Z 06010KT 10SM CLR M01/M11 A3021 580 45 -1100 070/10 RMK AO2 T10061111
94889KARB ARB20160319100010603/19/16 10:00:31  5-MIN KARB 191500Z 07008KT 10SM CLR M01/M11 A3021 580 47 -1100 080/08 RMK AO2 T10061106
94889KARB ARB20160319100510503/19/16 10:05:31  5-MIN KARB 191505Z 06008KT 10SM CLR 00/M11 A3020 580 45 -1000 070/08 RMK AO2 T00001106
94889KARB ARB20160319101010503/19/16 10:10:31  5-MIN KARB 191510Z 07009KT 10SM CLR 00/M11 A3020 580 45 -1000 070/09 RMK AO2 T00001106
94889KARB ARB20160319101511003/19/16 10:15:31  5-MIN KARB 191515Z 05009G15KT 10SM CLR 01/M10 A3020 580 45 -900 060/09G15 RMK AO2 T00061100
94889KARB ARB20160319102011003/19/16 10:20:31  5-MIN KARB 191520Z 07008G15KT 10SM CLR 01/M10 A3020 580 43 -900 080/08G15 RMK AO2 T00111100
94889KARB ARB20160319102510403/19/16 10:25:31  5-MIN KARB 191525Z 07010KT 10SM CLR 02/M10 A3020 580 42 -800 080/10 RMK AO2 T00171100
94889KARB ARB20160319103010403/19/16 10:30:31  5-MIN KARB 191530Z 07007KT 10SM CLR 01/M11 A3020 580 41 -900 080/07 RMK AO2 T00111106
94889KARB ARB20160319103511003/19/16 10:35:31  5-MIN KARB 191535Z 04011G16KT 10SM CLR 02/M11 A3020 590 40 -800 050/11G16 RMK AO2 T00171106
94889KARB ARB20160319104011003/19/16 10:40:31  5-MIN KARB 191540Z 04010G16KT 10SM CLR 01/M11 A3019 590 40 -900 050/10G16 RMK AO2 T00111111
94889KARB ARB20160319104510403/19/16 10:45:31  5-MIN KARB 191545Z 06008KT 10SM CLR 01/M11 A3019 590 40 -900 070/08 RMK AO2 T00111111
94889KARB ARB20160319105011103/19/16 10:50:31  5-MIN KARB 191550Z 08009KT 10SM CLR 01/M11 A3019 590 40 -900 080/09 RMK AO2 SLP233 T00111111
94889KARB ARB20160319105510403/19/16 10:55:31  5-MIN KARB 191555Z 05009KT 10SM CLR 01/M11 A3019 590 40 -900 060/09 RMK AO2 T00111111
94889KARB ARB20160319110010403/19/16 11:00:31  5-MIN KARB 191600Z 07010KT 10SM CLR 01/M11 A3019 590 40 -900 080/10 RMK AO2 T00111111
94889KARB ARB20160319110510403/19/16 11:05:31  5-MIN KARB 191605Z 05011KT 10SM CLR 02/M11 A3019 590 40 -800 060/11 RMK AO2 T00171106
94889KARB ARB20160319111010403/19/16 11:10:31  5-MIN KARB 191610Z 07010KT 10SM CLR 02/M11 A3019 590 38 -700 070/10 RMK AO2 T00221106
94889KARB ARB20160319111510403/19/16 11:15:31  5-MIN KARB 191615Z 10011KT 10SM CLR 02/M12 A3019 590 36 -800 100/11 RMK AO2 T00171117
94889KARB ARB20160319112010403/19/16 11:20:31  5-MIN KARB 191620Z 07010KT 10SM CLR 01/M12 A3019 590 38 -900 080/10 RMK AO2 T00111117
94889KARB ARB20160319112510403/19/16 11:25:31  5-MIN KARB 191625Z 06008KT 10SM CLR 02/M11 A3019 590 38 -800 070/08 RMK AO2 T00171111
94889KARB ARB20160319113010403/19/16 11:30:31  5-MIN KARB 191630Z 09008KT 10SM CLR 02/M11 A3019 590 38 -800 100/08 RMK AO2 T00171111
94889KARB ARB20160319113510403/19/16 11:35:31  5-MIN KARB 191635Z 07010KT 10SM CLR 02/M12 A3019 600 36 -800 070/10 RMK AO2 T00171117
94889KARB ARB20160319114010403/19/16 11:40:31  5-MIN KARB 191640Z 05009KT 10SM CLR 02/M11 A3019 590 38 -800 060/09 RMK AO2 T00171111
94889KARB ARB20160319114512003/19/16 11:45:31  5-MIN KARB 191645Z 06008KT 020V090 10SM CLR 02/M12 A3019 600 35 -700 070/08 030V100 RMK AO2 T00221117
94889KARB ARB20160319115011703/19/16 11:50:31  5-MIN KARB 191650Z 08007G15KT 10SM CLR 02/M11 A3019 590 37 -700 090/07G15 RMK AO2 SLP231 T00221111
94889KARB ARB20160319115511003/19/16 11:55:31  5-MIN KARB 191655Z 04007G15KT 10SM CLR 02/M11 A3019 590 37 -700 050/07G15 RMK AO2 T00221111
94889KARB ARB20160319120010403/19/16 12:00:31  5-MIN KARB 191700Z 07011KT 10SM CLR 03/M11 A3019 590 35 -700 080/11 RMK AO2 T00281111
94889KARB ARB20160319120510403/19/16 12:05:31  5-MIN KARB 191705Z 10005KT 10SM CLR 02/M12 A3019 590 36 -800 110/05 RMK AO2 T00171117
94889KARB ARB20160319121010403/19/16 12:10:31  5-MIN KARB 191710Z 07010KT 10SM CLR 02/M11 A3019 590 37 -700 080/10 RMK AO2 T00221111
94889KARB ARB20160319121510403/19/16 12:15:31  5-MIN KARB 191715Z 10008KT 10SM CLR 02/M11 A3019 590 38 -700 110/08 RMK AO2 T00221106
94889KARB ARB20160319122010403/19/16 12:20:31  5-MIN KARB 191720Z 09008KT 10SM CLR 02/M11 A3019 600 37 -700 100/08 RMK AO2 T00221111
94889KARB ARB20160319122510403/19/16 12:25:31  5-MIN KARB 191725Z 10009KT 10SM CLR 03/M11 A3019 600 37 -700 110/09 RMK AO2 T00281106
94889KARB ARB20160319123012603/19/16 12:30:31  5-MIN KARB 191730Z 06011G15KT 020V100 10SM CLR 03/M11 A3018 600 37 -700 070/11G15 030V110 RMK AO2 T00281106
94889KARB ARB20160319123511003/19/16 12:35:31  5-MIN KARB 191735Z 06007G15KT 10SM CLR 03/M11 A3019 600 37 -700 070/07G15 RMK AO2 T00281106
94889KARB ARB20160319124010403/19/16 12:40:31  5-MIN KARB 191740Z 08008KT 10SM CLR 03/M11 A3018 600 35 -600 080/08 RMK AO2 T00331106
94889KARB ARB20160319124510403/19/16 12:45:31  5-MIN KARB 191745Z 07009KT 10SM CLR 03/M11 A3018 600 37 -600 080/09 RMK AO2 T00281106
94889KARB ARB20160319125012903/19/16 12:50:31  5-MIN KARB 191750Z 08009KT 10SM CLR 03/M11 A3018 600 35 -600 090/09 RMK AO2 SLP227 T00331106 10033 21028 51013
94889KARB ARB20160319125511003/19/16 12:55:31  5-MIN KARB 191755Z 05006G14KT 10SM CLR 03/M11 A3018 600 35 -600 060/06G14 RMK AO2 T00281111
94889KARB ARB20160319130011003/19/16 13:00:31  5-MIN KARB 191800Z 04007G14KT 10SM CLR 03/M11 A3018 600 34 -600 040/07G14 RMK AO2 T00331111
94889KARB ARB20160319130511003/19/16 13:05:31  5-MIN KARB 191805Z 09008G14KT 10SM CLR 03/M11 A3017 610 35 -600 090/08G14 RMK AO2 T00331106
94889KARB ARB20160319131010403/19/16 13:10:31  5-MIN KARB 191810Z 09007KT 10SM CLR 03/M11 A3018 610 37 -600 100/07 RMK AO2 T00281106
94889KARB ARB20160319131510403/19/16 13:15:31  5-MIN KARB 191815Z 08007KT 10SM CLR 02/M11 A3017 610 38 -700 090/07 RMK AO2 T00221106
94889KARB ARB20160319132010403/19/16 13:20:31  5-MIN KARB 191820Z 08008KT 10SM CLR 03/M11 A3017 610 37 -600 090/08 RMK AO2 T00281106
94889KARB ARB20160319132510403/19/16 13:25:31  5-MIN KARB 191825Z 04005KT 10SM CLR 02/M12 A3017 610 35 -700 050/05 RMK AO2 T00221117
94889KARB ARB20160319133010403/19/16 13:30:31  5-MIN KARB 191830Z 10008KT 10SM CLR 02/M11 A3017 610 37 -700 110/08 RMK AO2 T00221111
94889KARB ARB20160319133510403/19/16 13:35:31  5-MIN KARB 191835Z 10007KT 10SM CLR 02/M11 A3016 620 37 -700 100/07 RMK AO2 T00221111
94889KARB ARB20160319134010403/19/16 13:40:31  5-MIN KARB 191840Z 10007KT 10SM CLR 02/M11 A3017 620 38 -700 100/07 RMK AO2 T00221106
94889KARB ARB20160319134510403/19/16 13:45:31  5-MIN KARB 191845Z 12008KT 10SM CLR 02/M11 A3016 620 38 -700 120/08 RMK AO2 T00221106
94889KARB ARB20160319135011103/19/16 13:50:31  5-MIN KARB 191850Z 09008KT 10SM CLR 03/M10 A3016 620 38 -600 100/08 RMK AO2 SLP222 T00281100
94889KARB ARB20160319135510403/19/16 13:55:31  5-MIN KARB 191855Z 12007KT 10SM CLR 03/M11 A3016 620 37 -600 120/07 RMK AO2 T00281106
94889KARB ARB20160319140010403/19/16 14:00:31  5-MIN KARB 191900Z 00000KT 10SM CLR 03/M10 A3016 620 37 -600 000/00 RMK AO2 T00331100
94889KARB ARB20160319140509403/19/16 14:05:31  5-MIN KARB 191905Z 10SM CLR 04/M09 A3016 620 36 -400 M /M RMK AO2 T00441094
94889KARB ARB20160319141011003/19/16 14:10:31  5-MIN KARB 191910Z 11010G15KT 10SM CLR 04/M09 A3016 620 37 -400 120/10G15 RMK AO2 T00441089
94889KARB ARB20160319141511003/19/16 14:15:31  5-MIN KARB 191915Z 08009G15KT 10SM CLR 04/M09 A3016 620 36 -400 090/09G15 RMK AO2 T00441094
94889KARB ARB20160319142010403/19/16 14:20:31  5-MIN KARB 191920Z 08008KT 10SM CLR 04/M09 A3016 620 36 -400 090/08 RMK AO2 T00441094
94889KARB ARB20160319142512003/19/16 14:25:31  5-MIN KARB 191925Z 03008KT 360V080 10SM CLR 04/M09 A3016 620 36 -400 040/08 010V090 RMK AO2 T00441094
94889KARB ARB20160319143011003/19/16 14:30:31  5-MIN KARB 191930Z 02007G16KT 10SM CLR 05/M09 A3015 630 36 -300 030/07G16 RMK AO2 T00501089
94889KARB ARB20160319143511003/19/16 14:35:31  5-MIN KARB 191935Z 05006G16KT 10SM CLR 05/M09 A3016 620 36 -300 060/06G16 RMK AO2 T00501089
94889KARB ARB20160319144011003/19/16 14:40:31  5-MIN KARB 191940Z 02009G16KT 10SM CLR 06/M09 A3016 620 34 -300 030/09G16 RMK AO2 T00561089
94889KARB ARB20160319144511003/19/16 14:45:31  5-MIN KARB 191945Z 03010G16KT 10SM CLR 05/M09 A3016 620 34 -300 040/10G16 RMK AO2 T00501094
94889KARB ARB20160319145011103/19/16 14:50:31  5-MIN KARB 191950Z 04008KT 10SM CLR 05/M09 A3016 620 36 -300 040/08 RMK AO2 SLP220 T00501089
94889KARB ARB20160319145510403/19/16 14:55:31  5-MIN KARB 191955Z VRB06KT 10SM CLR 04/M09 A3016 620 36 -400 VRB/06 RMK AO2 T00441094
94889KARB ARB20160319150011003/19/16 15:00:31  5-MIN KARB 192000Z 03011G16KT 10SM CLR 04/M09 A3016 620 37 -400 040/11G16 RMK AO2 T00441089
94889KARB ARB20160319150511003/19/16 15:05:31  5-MIN KARB 192005Z 03011G16KT 10SM CLR 04/M09 A3016 620 39 -500 030/11G16 RMK AO2 T00391089
94889KARB ARB20160319151010403/19/16 15:10:31  5-MIN KARB 192010Z 05007KT 10SM CLR 04/M09 A3016 620 37 -400 060/07 RMK AO2 T00441089
94889KARB ARB20160319151511003/19/16 15:15:31  5-MIN KARB 192015Z 06008G14KT 10SM CLR 04/M08 A3016 620 39 -400 070/08G14 RMK AO2 T00441083
94889KARB ARB20160319152010403/19/16 15:20:31  5-MIN KARB 192020Z 07009KT 10SM CLR 04/M08 A3016 620 39 -400 080/09 RMK AO2 T00441083
94889KARB ARB20160319152510403/19/16 15:25:31  5-MIN KARB 192025Z 08006KT 10SM CLR 04/M08 A3016 620 42 -500 090/06 RMK AO2 T00391078
94889KARB ARB20160319153010403/19/16 15:30:31  5-MIN KARB 192030Z 05006KT 10SM CLR 04/M08 A3016 620 41 -400 050/06 RMK AO2 T00441078
94889KARB ARB20160319153511003/19/16 15:35:31  5-MIN KARB 192035Z 07007G16KT 10SM CLR 04/M08 A3016 620 41 -400 080/07G16 RMK AO2 T00441078
94889KARB ARB20160319154011003/19/16 15:40:31  5-MIN KARB 192040Z 36007G16KT 10SM CLR 04/M08 A3016 620 41 -400 010/07G16 RMK AO2 T00441078
94889KARB ARB20160319154510403/19/16 15:45:31  5-MIN KARB 192045Z 02006KT 10SM CLR 04/M08 A3017 620 40 -500 030/06 RMK AO2 T00391083
94889KARB ARB20160319155011703/19/16 15:50:31  5-MIN KARB 192050Z VRB06KT 10SM CLR 04/M08 A3016 620 41 -400 VRB/06 RMK AO2 SLP223 T00441078 58008
94889KARB ARB20160319155510403/19/16 15:55:31  5-MIN KARB 192055Z 03007KT 10SM CLR 04/M08 A3016 620 41 -400 040/07 RMK AO2 T00441078
94889KARB ARB20160319160010903/19/16 16:00:31  5-MIN KARB 192100Z AUTO 04008KT 10SM CLR 06/M08 A3016 620 37 -300 050/08 RMK AO2 T00561078
94889KARB ARB20160319160510903/19/16 16:05:31  5-MIN KARB 192105Z AUTO 08008KT 10SM CLR 06/M08 A3016 620 37 -300 080/08 RMK AO2 T00561078
94889KARB ARB20160319161010903/19/16 16:10:31  5-MIN KARB 192110Z AUTO VRB05KT 10SM CLR 05/M08 A3016 620 37 -400 VRB/05 RMK AO2 T00501083
94889KARB ARB20160319161511503/19/16 16:15:31  5-MIN KARB 192115Z AUTO 04007G14KT 10SM CLR 05/M08 A3016 620 39 -400 050/07G14 RMK AO2 T00501078
94889KARB ARB20160319162011503/19/16 16:20:31  5-MIN KARB 192120Z AUTO VRB03G14KT 10SM CLR 04/M08 A3016 620 40 -500 VRB/03G14 RMK AO2 T00391083
94889KARB ARB20160319162509903/19/16 16:25:31  5-MIN KARB 192125Z AUTO 10SM CLR 04/M08 A3016 620 39 -400 M /M RMK AO2 T00441083
94889KARB ARB20160319163010903/19/16 16:30:31  5-MIN KARB 192130Z AUTO 01006KT 10SM CLR 04/M08 A3016 620 39 -400 020/06 RMK AO2 T00441083
94889KARB ARB20160319163510903/19/16 16:35:31  5-MIN KARB 192135Z AUTO 07007KT 10SM CLR 04/M08 A3016 620 39 -400 070/07 RMK AO2 T00441083
94889KARB ARB20160319164010903/19/16 16:40:31  5-MIN KARB 192140Z AUTO 07007KT 10SM CLR 04/M08 A3016 620 40 -500 080/07 RMK AO2 T00391083
94889KARB ARB20160319164510403/19/16 16:45:31  5-MIN KARB 192145Z 05010KT 10SM CLR 04/M08 A3016 620 40 -500 050/10 RMK AO2 T00391083
94889KARB ARB20160319165011103/19/16 16:50:31  5-MIN KARB 192150Z 05010KT 10SM CLR 04/M08 A3016 620 40 -500 060/10 RMK AO2 SLP221 T00391083
94889KARB ARB20160319165510403/19/16 16:55:31  5-MIN KARB 192155Z 07008KT 10SM CLR 04/M08 A3016 620 40 -500 070/08 RMK AO2 T00391083
94889KARB ARB20160319170010403/19/16 17:00:31  5-MIN KARB 192200Z 05007KT 10SM CLR 04/M08 A3016 620 40 -500 060/07 RMK AO2 T00391083
94889KARB ARB20160319170510403/19/16 17:05:31  5-MIN KARB 192205Z 05010KT 10SM CLR 03/M08 A3016 620 42 -600 060/10 RMK AO2 T00331083
94889KARB ARB20160319171010403/19/16 17:10:31  5-MIN KARB 192210Z 06008KT 10SM CLR 03/M08 A3016 620 42 -600 060/08 RMK AO2 T00331083
94889KARB ARB20160319171510403/19/16 17:15:31  5-MIN KARB 192215Z 04009KT 10SM CLR 03/M08 A3016 620 42 -600 040/09 RMK AO2 T00331083
94889KARB ARB20160319172010403/19/16 17:20:31  5-MIN KARB 192220Z 07007KT 10SM CLR 03/M08 A3016 620 42 -600 080/07 RMK AO2 T00331083
94889KARB ARB20160319172510403/19/16 17:25:31  5-MIN KARB 192225Z 06007KT 10SM CLR 03/M08 A3016 620 42 -600 060/07 RMK AO2 T00331083
94889KARB ARB20160319173010403/19/16 17:30:31  5-MIN KARB 192230Z 05009KT 10SM CLR 03/M08 A3016 620 42 -600 050/09 RMK AO2 T00331083
94889KARB ARB20160319173510403/19/16 17:35:31  5-MIN KARB 192235Z 03009KT 10SM CLR 03/M08 A3016 620 42 -600 030/09 RMK AO2 T00331083
94889KARB ARB20160319174010403/19/16 17:40:31  5-MIN KARB 192240Z 05010KT 10SM CLR 03/M08 A3016 620 42 -600 060/10 RMK AO2 T00331083
94889KARB ARB20160319174510403/19/16 17:45:31  5-MIN KARB 192245Z 05009KT 10SM CLR 03/M09 A3016 620 40 -600 060/09 RMK AO2 T00331089
94889KARB ARB20160319175011103/19/16 17:50:31  5-MIN KARB 192250Z 07007KT 10SM CLR 03/M09 A3016 620 40 -600 080/07 RMK AO2 SLP222 T00331089
94889KARB ARB20160319175510403/19/16 17:55:31  5-MIN KARB 192255Z 04009KT 10SM CLR 03/M08 A3016 620 42 -600 050/09 RMK AO2 T00331083
94889KARB ARB20160319180010403/19/16 18:00:31  5-MIN KARB 192300Z 04009KT 10SM CLR 03/M09 A3016 620 40 -600 040/09 RMK AO2 T00331089
94889KARB ARB20160319180510403/19/16 18:05:31  5-MIN KARB 192305Z 03009KT 10SM CLR 03/M09 A3016 620 42 -600 040/09 RMK AO2 T00281089
94889KARB ARB20160319181010403/19/16 18:10:31  5-MIN KARB 192310Z 03009KT 10SM CLR 03/M09 A3016 620 42 -600 040/09 RMK AO2 T00281089
94889KARB ARB20160319181510403/19/16 18:15:31  5-MIN KARB 192315Z 04009KT 10SM CLR 03/M09 A3016 620 42 -600 050/09 RMK AO2 T00281089
94889KARB ARB20160319182010403/19/16 18:20:31  5-MIN KARB 192320Z 05007KT 10SM CLR 02/M09 A3017 620 42 -700 050/07 RMK AO2 T00221094
94889KARB ARB20160319182510403/19/16 18:25:31  5-MIN KARB 192325Z 05010KT 10SM CLR 02/M09 A3017 610 42 -700 050/10 RMK AO2 T00221094
94889KARB ARB20160319183010403/19/16 18:30:31  5-MIN KARB 192330Z 04008KT 10SM CLR 02/M09 A3017 610 42 -700 050/08 RMK AO2 T00221094
94889KARB ARB20160319183510403/19/16 18:35:31  5-MIN KARB 192335Z 05009KT 10SM CLR 02/M09 A3017 610 42 -700 060/09 RMK AO2 T00221094
94889KARB ARB20160319184010403/19/16 18:40:31  5-MIN KARB 192340Z 04006KT 10SM CLR 02/M09 A3017 610 43 -800 050/06 RMK AO2 T00171094
94889KARB ARB20160319184510403/19/16 18:45:31  5-MIN KARB 192345Z 03008KT 10SM CLR 02/M09 A3017 610 43 -800 040/08 RMK AO2 T00171094
94889KARB ARB20160319185013403/19/16 18:50:31  5-MIN KARB 192350Z AUTO 04008KT 10SM CLR 02/M09 A3017 610 43 -800 050/08 RMK AO2 SLP226 T00171094 10056 20017 55005
94889KARB ARB20160319185510903/19/16 18:55:31  5-MIN KARB 192355Z AUTO 05009KT 10SM CLR 02/M09 A3017 610 43 -800 060/09 RMK AO2 T00171094
94889KARB ARB20160319190010903/19/16 19:00:31  5-MIN KARB 200000Z AUTO 04008KT 10SM CLR 02/M09 A3017 610 43 -800 040/08 RMK AO2 T00171094
94889KARB ARB20160319190510903/19/16 19:05:31  5-MIN KARB 200005Z AUTO 04008KT 10SM CLR 02/M09 A3017 610 43 -800 050/08 RMK AO2 T00171094
94889KARB ARB20160319191010903/19/16 19:10:31  5-MIN KARB 200010Z AUTO 05006KT 10SM CLR 01/M09 A3017 610 45 -800 050/06 RMK AO2 T00111094
94889KARB ARB20160319191510903/19/16 19:15:31  5-MIN KARB 200015Z AUTO 04005KT 10SM CLR 01/M09 A3018 610 47 -800 050/05 RMK AO2 T00111089
94889KARB ARB20160319192010903/19/16 19:20:31  5-MIN KARB 200020Z AUTO 05007KT 10SM CLR 01/M09 A3018 600 47 -900 050/07 RMK AO2 T00111089
94889KARB ARB20160319192510903/19/16 19:25:31  5-MIN KARB 200025Z AUTO 04006KT 10SM CLR 01/M09 A3018 600 47 -900 040/06 RMK AO2 T00111089
94889KARB ARB20160319193010903/19/16 19:30:31  5-MIN KARB 200030Z AUTO 03007KT 10SM CLR 01/M09 A3018 600 47 -900 040/07 RMK AO2 T00111089
94889KARB ARB20160319193510903/19/16 19:35:31  5-MIN KARB 200035Z AUTO 03009KT 10SM CLR 01/M08 A3018 600 49 -900 040/09 RMK AO2 T00111083
94889KARB ARB20160319194010903/19/16 19:40:31  5-MIN KARB 200040Z AUTO 04009KT 10SM CLR 01/M08 A3018 600 49 -900 050/09 RMK AO2 T00111083
94889KARB ARB20160319194510903/19/16 19:45:31  5-MIN KARB 200045Z AUTO 04008KT 10SM CLR 01/M08 A3018 600 49 -900 050/08 RMK AO2 T00111083
94889KARB ARB20160319195011603/19/16 19:50:31  5-MIN KARB 200050Z AUTO 04008KT 10SM CLR 01/M08 A3018 600 51 -900 040/08 RMK AO2 SLP230 T00061083
94889KARB ARB20160319195510903/19/16 19:55:31  5-MIN KARB 200055Z AUTO 04007KT 10SM CLR 01/M08 A3018 600 54 -900 050/07 RMK AO2 T00061078
94889KARB ARB20160319200010903/19/16 20:00:31  5-MIN KARB 200100Z AUTO 04005KT 10SM CLR 01/M08 A3019 600 54 -900 050/05 RMK AO2 T00061078
94889KARB ARB20160319200510903/19/16 20:05:31  5-MIN KARB 200105Z AUTO 04008KT 10SM CLR 01/M08 A3019 600 54 -900 050/08 RMK AO2 T00061078
94889KARB ARB20160319201010903/19/16 20:10:31  5-MIN KARB 200110Z AUTO 04007KT 10SM CLR 01/M08 A3018 600 54 -900 050/07 RMK AO2 T00061078
94889KARB ARB20160319201510903/19/16 20:15:31  5-MIN KARB 200115Z AUTO 04006KT 10SM CLR 01/M08 A3019 600 54 -900 050/06 RMK AO2 T00061078
94889KARB ARB20160319202010903/19/16 20:20:31  5-MIN KARB 200120Z AUTO 04006KT 10SM CLR 01/M08 A3019 590 54 -900 050/06 RMK AO2 T00061078
94889KARB ARB20160319202510903/19/16 20:25:31  5-MIN KARB 200125Z AUTO 04006KT 10SM CLR 01/M08 A3019 590 54 -900 050/06 RMK AO2 T00061078
94889KARB ARB20160319203010903/19/16 20:30:31  5-MIN KARB 200130Z AUTO 04007KT 10SM CLR 01/M08 A3019 590 54 -900 040/07 RMK AO2 T00061078
94889KARB ARB20160319203510903/19/16 20:35:31  5-MIN KARB 200135Z AUTO 04008KT 10SM CLR 01/M08 A3019 590 54 -900 050/08 RMK AO2 T00061078
94889KARB ARB20160319204010903/19/16 20:40:31  5-MIN KARB 200140Z AUTO 04007KT 10SM CLR 01/M08 A3019 590 54 -900 050/07 RMK AO2 T00061078
94889KARB ARB20160319204510903/19/16 20:45:31  5-MIN KARB 200145Z AUTO 04005KT 10SM CLR 01/M08 A3019 590 54 -900 040/05 RMK AO2 T00061078
94889KARB ARB20160319205011603/19/16 20:50:31  5-MIN KARB 200150Z AUTO 03007KT 10SM CLR 01/M08 A3019 590 54 -900 040/07 RMK AO2 SLP233 T00061078
94889KARB ARB20160319205510903/19/16 20:55:31  5-MIN KARB 200155Z AUTO 05008KT 10SM CLR 01/M08 A3019 590 51 -900 050/08 RMK AO2 T00061083
94889KARB ARB20160319210010903/19/16 21:00:31  5-MIN KARB 200200Z AUTO 03007KT 10SM CLR 01/M08 A3020 590 54 -900 040/07 RMK AO2 T00061078
94889KARB ARB20160319210511003/19/16 21:05:31  5-MIN KARB 200205Z AUTO 04006KT 10SM CLR 00/M08 A3020 590 56 -1000 050/06 RMK AO2 T00001078
94889KARB ARB20160319211011003/19/16 21:10:31  5-MIN KARB 200210Z AUTO 04007KT 10SM CLR 00/M08 A3020 590 56 -1000 050/07 RMK AO2 T00001078
94889KARB ARB20160319211511003/19/16 21:15:31  5-MIN KARB 200215Z AUTO 04006KT 10SM CLR 00/M08 A3020 590 56 -1000 050/06 RMK AO2 T00001078
94889KARB ARB20160319212011003/19/16 21:20:31  5-MIN KARB 200220Z AUTO 05007KT 10SM CLR 00/M08 A3020 590 56 -1000 050/07 RMK AO2 T00001078
94889KARB ARB20160319212511003/19/16 21:25:31  5-MIN KARB 200225Z AUTO 05006KT 10SM CLR 00/M08 A3020 590 56 -1000 060/06 RMK AO2 T00001078
94889KARB ARB20160319213011003/19/16 21:30:31  5-MIN KARB 200230Z AUTO 06006KT 10SM CLR 00/M08 A3020 590 56 -1000 060/06 RMK AO2 T00001078
94889KARB ARB20160319213511003/19/16 21:35:31  5-MIN KARB 200235Z AUTO 05007KT 10SM CLR 00/M08 A3020 590 56 -1000 060/07 RMK AO2 T00001078
94889KARB ARB20160319214011003/19/16 21:40:31  5-MIN KARB 200240Z AUTO 06008KT 10SM CLR 00/M08 A3020 580 56 -1000 070/08 RMK AO2 T00001078
94889KARB ARB20160319214511003/19/16 21:45:31  5-MIN KARB 200245Z AUTO 06007KT 10SM CLR 00/M08 A3020 590 56 -1000 070/07 RMK AO2 T00001078
94889KARB ARB20160319215012403/19/16 21:50:31  5-MIN KARB 200250Z AUTO 06007KT 10SM CLR M01/M08 A3020 580 58 -1100 060/07 RMK AO2 SLP235 T10061078 53003
94889KARB ARB20160319215511103/19/16 21:55:31  5-MIN KARB 200255Z AUTO 05007KT 10SM CLR M01/M08 A3020 590 58 -1100 060/07 RMK AO2 T10061078
94889KARB ARB20160319220011103/19/16 22:00:31  5-MIN KARB 200300Z AUTO 04007KT 10SM CLR M01/M08 A3020 590 58 -1100 040/07 RMK AO2 T10061078
94889KARB ARB20160319220511103/19/16 22:05:31  5-MIN KARB 200305Z AUTO 04006KT 10SM CLR M01/M08 A3020 580 60 -1200 050/06 RMK AO2 T10111078
94889KARB ARB20160319221011103/19/16 22:10:31  5-MIN KARB 200310Z AUTO 04006KT 10SM CLR M01/M08 A3020 590 60 -1200 050/06 RMK AO2 T10111078
94889KARB ARB20160319221511103/19/16 22:15:31  5-MIN KARB 200315Z AUTO 04007KT 10SM CLR M01/M08 A3020 590 60 -1200 040/07 RMK AO2 T10111078
94889KARB ARB20160319222011103/19/16 22:20:31  5-MIN KARB 200320Z AUTO 04008KT 10SM CLR M01/M08 A3020 590 60 -1200 050/08 RMK AO2 T10111078
94889KARB ARB20160319222511103/19/16 22:25:31  5-MIN KARB 200325Z AUTO 04007KT 10SM CLR M02/M08 A3020 590 63 -1200 050/07 RMK AO2 T10171078
94889KARB ARB20160319223011103/19/16 22:30:31  5-MIN KARB 200330Z AUTO 04006KT 10SM CLR M01/M08 A3020 590 60 -1200 050/06 RMK AO2 T10111078
94889KARB ARB20160319223511103/19/16 22:35:31  5-MIN KARB 200335Z AUTO 04006KT 10SM CLR M02/M08 A3020 590 63 -1200 050/06 RMK AO2 T10171078
94889KARB ARB20160319224011103/19/16 22:40:31  5-MIN KARB 200340Z AUTO 04005KT 10SM CLR M02/M08 A3020 590 63 -1200 050/05 RMK AO2 T10171078
94889KARB ARB20160319224511103/19/16 22:45:31  5-MIN KARB 200345Z AUTO 04006KT 10SM CLR M02/M08 A3019 590 63 -1200 040/06 RMK AO2 T10171078
94889KARB ARB20160319225011803/19/16 22:50:31  5-MIN KARB 200350Z AUTO 04006KT 10SM CLR M02/M08 A3019 590 63 -1200 050/06 RMK AO2 SLP234 T10171078
94889KARB ARB20160319225511103/19/16 22:55:31  5-MIN KARB 200355Z AUTO 04006KT 10SM CLR M02/M08 A3019 590 63 -1200 050/06 RMK AO2 T10171078
94889KARB ARB20160319230011103/19/16 23:00:31  5-MIN KARB 200400Z AUTO 03007KT 10SM CLR M02/M08 A3020 590 63 -1200 040/07 RMK AO2 T10171078
94889KARB ARB20160319230511103/19/16 23:05:31  5-MIN KARB 200405Z AUTO 04007KT 10SM CLR M02/M08 A3019 590 60 -1200 040/07 RMK AO2 T10171083
94889KARB ARB20160319231011103/19/16 23:10:31  5-MIN KARB 200410Z AUTO 03007KT 10SM CLR M02/M08 A3019 590 63 -1200 040/07 RMK AO2 T10171078
94889KARB ARB20160319231511103/19/16 23:15:31  5-MIN KARB 200415Z AUTO 04006KT 10SM CLR M02/M08 A3019 590 63 -1200 040/06 RMK AO2 T10171078
94889KARB ARB20160319232011103/19/16 23:20:31  5-MIN KARB 200420Z AUTO 03006KT 10SM CLR M02/M08 A3019 590 63 -1300 040/06 RMK AO2 T10221083
94889KARB ARB20160319232511103/19/16 23:25:31  5-MIN KARB 200425Z AUTO 04005KT 10SM CLR M02/M08 A3019 590 66 -1300 050/05 RMK AO2 T10221078
94889KARB ARB20160319233011103/19/16 23:30:31  5-MIN KARB 200430Z AUTO 03006KT 10SM CLR M02/M08 A3019 590 66 -1300 040/06 RMK AO2 T10221078
94889KARB ARB20160319233511103/19/16 23:35:31  5-MIN KARB 200435Z AUTO 02005KT 10SM CLR M02/M08 A3019 590 66 -1300 030/05 RMK AO2 T10221078
94889KARB ARB20160319234011103/19/16 23:40:31  5-MIN KARB 200440Z AUTO 02008KT 10SM CLR M02/M08 A3019 600 63 -1200 030/08 RMK AO2 T10171078
94889KARB ARB20160319234511103/19/16 23:45:31  5-MIN KARB 200445Z AUTO 04006KT 10SM CLR M02/M08 A3018 600 66 -1300 040/06 RMK AO2 T10221078
94889KARB ARB20160319235012803/19/16 23:50:31  5-MIN KARB 200450Z AUTO 04007KT 10SM CLR M02/M08 A3018 600 66 -1300 040/07 RMK AO2 SLP230 T10221078 400561028
94889KARB ARB20160319235511103/19/16 23:55:31  5-MIN KARB 200455Z AUTO 04008KT 10SM CLR M02/M08 A3018 600 66 -1300 040/08 RMK AO2 T10221078
94889KARB ARB20160320000011103/20/16 00:00:31  5-MIN KARB 200500Z AUTO 04007KT 10SM CLR M02/M08 A3018 600 66 -1300 040/07 RMK AO2 T10221078
94889KARB ARB20160320000511103/20/16 00:05:31  5-MIN KARB 200505Z AUTO 03008KT 10SM CLR M02/M08 A3018 600 66 -1300 040/08 RMK AO2 T10221078
94889KARB ARB20160320001011103/20/16 00:10:31  5-MIN KARB 200510Z AUTO 04008KT 10SM CLR M02/M08 A3018 600 66 -1300 040/08 RMK AO2 T10221078
94889KARB ARB20160320001511103/20/16 00:15:31  5-MIN KARB 200515Z AUTO 03005KT 10SM CLR M02/M08 A3017 610 66 -1300 040/05 RMK AO2 T10221078
94889KARB ARB20160320002011103/20/16 00:20:31  5-MIN KARB 200520Z AUTO 04006KT 10SM CLR M03/M08 A3017 610 68 -1300 040/06 RMK AO2 T10281078
94889KARB ARB20160320002511103/20/16 00:25:31  5-MIN KARB 200525Z AUTO 04007KT 10SM CLR M02/M08 A3017 610 66 -1300 050/07 RMK AO2 T10221078
94889KARB ARB20160320003011103/20/16 00:30:31  5-MIN KARB 200530Z AUTO 04006KT 10SM CLR M03/M08 A3017 610 68 -1300 050/06 RMK AO2 T10281078
94889KARB ARB20160320003511103/20/16 00:35:31  5-MIN KARB 200535Z AUTO 04007KT 10SM CLR M03/M08 A3017 610 68 -1300 050/07 RMK AO2 T10281078
94889KARB ARB20160320004011103/20/16 00:40:31  5-MIN KARB 200540Z AUTO 04006KT 10SM CLR M03/M08 A3017 610 68 -1300 050/06 RMK AO2 T10281078
94889KARB ARB20160320004511103/20/16 00:45:31  5-MIN KARB 200545Z AUTO 04006KT 10SM CLR M03/M07 A3017 610 71 -1300 050/06 RMK AO2 T10281072
94889KARB ARB20160320005013603/20/16 00:50:31  5-MIN KARB 200550Z AUTO 04006KT 10SM CLR M03/M07 A3017 610 71 -1300 050/06 RMK AO2 SLP225 T10281072 10017 21028 51009
94889KARB ARB20160320005511103/20/16 00:55:31  5-MIN KARB 200555Z AUTO 04007KT 10SM CLR M03/M07 A3017 610 71 -1300 050/07 RMK AO2 T10281072
94889KARB ARB20160320010011103/20/16 01:00:31  5-MIN KARB 200600Z AUTO 04007KT 10SM CLR M03/M07 A3017 610 71 -1300 050/07 RMK AO2 T10281072
94889KARB ARB20160320010511103/20/16 01:05:31  5-MIN KARB 200605Z AUTO 04006KT 10SM CLR M03/M07 A3017 620 71 -1300 050/06 RMK AO2 T10281072
94889KARB ARB20160320011011103/20/16 01:10:31  5-MIN KARB 200610Z AUTO 04006KT 10SM CLR M03/M07 A3016 620 71 -1300 040/06 RMK AO2 T10281072
94889KARB ARB20160320011511103/20/16 01:15:31  5-MIN KARB 200615Z AUTO 03006KT 10SM CLR M03/M07 A3016 620 71 -1300 040/06 RMK AO2 T10281072
94889KARB ARB20160320012011103/20/16 01:20:31  5-MIN KARB 200620Z AUTO 03005KT 10SM CLR M03/M07 A3017 620 71 -1300 040/05 RMK AO2 T10281072
94889KARB ARB20160320012511103/20/16 01:25:31  5-MIN KARB 200625Z AUTO 03006KT 10SM CLR M03/M07 A3017 620 71 -1300 040/06 RMK AO2 T10281072
94889KARB ARB20160320013011103/20/16 01:30:31  5-MIN KARB 200630Z AUTO 03007KT 10SM CLR M03/M07 A3017 610 71 -1300 040/07 RMK AO2 T10281072
94889KARB ARB20160320013511103/20/16 01:35:31  5-MIN KARB 200635Z AUTO 03007KT 10SM CLR M03/M07 A3017 610 71 -1300 040/07 RMK AO2 T10281072
94889KARB ARB20160320014011103/20/16 01:40:31  5-MIN KARB 200640Z AUTO 03006KT 10SM CLR M03/M07 A3017 610 71 -1300 040/06 RMK AO2 T10281072
94889KARB ARB20160320014511103/20/16 01:45:31  5-MIN KARB 200645Z AUTO 04006KT 10SM CLR M03/M07 A3017 610 71 -1300 040/06 RMK AO2 T10281072
94889KARB ARB20160320015011803/20/16 01:50:31  5-MIN KARB 200650Z AUTO 04007KT 10SM CLR M03/M07 A3017 610 71 -1300 040/07 RMK AO2 SLP224 T10281072
94889KARB ARB20160320015511103/20/16 01:55:31  5-MIN KARB 200655Z AUTO 04007KT 10SM CLR M03/M07 A3016 620 71 -1300 040/07 RMK AO2 T10281072
94889KARB ARB20160320020011103/20/16 02:00:31  5-MIN KARB 200700Z AUTO 04009KT 10SM CLR M03/M07 A3016 620 71 -1300 040/09 RMK AO2 T10281072
94889KARB ARB20160320020511103/20/16 02:05:31  5-MIN KARB 200705Z AUTO 04007KT 10SM CLR M03/M07 A3016 620 71 -1300 040/07 RMK AO2 T10281072
94889KARB ARB20160320021011103/20/16 02:10:31  5-MIN KARB 200710Z AUTO 03007KT 10SM CLR M03/M07 A3016 620 71 -1300 040/07 RMK AO2 T10281072
94889KARB ARB20160320021511103/20/16 02:15:31  5-MIN KARB 200715Z AUTO 03008KT 10SM CLR M03/M08 A3016 620 68 -1300 040/08 RMK AO2 T10281078
94889KARB ARB20160320022011103/20/16 02:20:31  5-MIN KARB 200720Z AUTO 03007KT 10SM CLR M03/M08 A3016 620 68 -1300 040/07 RMK AO2 T10281078
94889KARB ARB20160320022511103/20/16 02:25:31  5-MIN KARB 200725Z AUTO 03006KT 10SM CLR M03/M08 A3015 630 71 -1400 040/06 RMK AO2 T10331078
94889KARB ARB20160320023011103/20/16 02:30:31  5-MIN KARB 200730Z AUTO 03008KT 10SM CLR M03/M08 A3015 630 71 -1400 040/08 RMK AO2 T10331078
94889KARB ARB20160320023511403/20/16 02:35:31  5-MIN KARB 200735Z AUTO 04007KT 10SM FEW120 M03/M08 A3015 630 71 -1400 050/07 RMK AO2 T10331078
94889KARB ARB20160320024011403/20/16 02:40:31  5-MIN KARB 200740Z AUTO 04007KT 10SM FEW120 M03/M08 A3015 630 71 -1400 050/07 RMK AO2 T10331078
94889KARB ARB20160320024511403/20/16 02:45:31  5-MIN KARB 200745Z AUTO 04006KT 10SM SCT120 M03/M08 A3015 630 71 -1400 050/06 RMK AO2 T10331078
94889KARB ARB20160320025012103/20/16 02:50:31  5-MIN KARB 200750Z AUTO 04006KT 10SM SCT120 M03/M08 A3015 630 71 -1400 050/06 RMK AO2 SLP216 T10331078
94889KARB ARB20160320025511403/20/16 02:55:31  5-MIN KARB 200755Z AUTO 04005KT 10SM BKN120 M03/M08 A3014 640 71 -1400 050/05 RMK AO2 T10331078
94889KARB ARB20160320030011403/20/16 03:00:31  5-MIN KARB 200800Z AUTO 04007KT 10SM SCT120 M03/M08 A3014 640 71 -1400 050/07 RMK AO2 T10331078
94889KARB ARB20160320030511403/20/16 03:05:31  5-MIN KARB 200805Z AUTO 04006KT 10SM SCT120 M03/M08 A3014 640 71 -1400 050/06 RMK AO2 T10331078
94889KARB ARB20160320031011403/20/16 03:10:31  5-MIN KARB 200810Z AUTO 04006KT 10SM SCT120 M03/M08 A3014 640 71 -1400 040/06 RMK AO2 T10331078
94889KARB ARB20160320031511403/20/16 03:15:31  5-MIN KARB 200815Z AUTO 03006KT 10SM FEW110 M03/M08 A3014 640 71 -1400 040/06 RMK AO2 T10331078
94889KARB ARB20160320032011403/20/16 03:20:31  5-MIN KARB 200820Z AUTO 04006KT 10SM FEW110 M03/M08 A3014 640 71 -1400 050/06 RMK AO2 T10331078
94889KARB ARB20160320032511403/20/16 03:25:31  5-MIN KARB 200825Z AUTO 04006KT 10SM SCT110 M03/M08 A3014 640 71 -1400 050/06 RMK AO2 T10331078
94889KARB ARB20160320033011403/20/16 03:30:31  5-MIN KARB 200830Z AUTO 03006KT 10SM SCT110 M03/M08 A3014 640 71 -1400 040/06 RMK AO2 T10331078
94889KARB ARB20160320033511403/20/16 03:35:31  5-MIN KARB 200835Z AUTO 04005KT 10SM SCT110 M03/M08 A3014 640 71 -1400 040/05 RMK AO2 T10331078
94889KARB ARB20160320034011403/20/16 03:40:31  5-MIN KARB 200840Z AUTO 03006KT 10SM SCT110 M03/M08 A3014 640 71 -1400 040/06 RMK AO2 T10331078
94889KARB ARB20160320034511403/20/16 03:45:31  5-MIN KARB 200845Z AUTO 03006KT 10SM BKN110 M03/M08 A3014 640 71 -1400 040/06 RMK AO2 T10331078
94889KARB ARB20160320035012703/20/16 03:50:31  5-MIN KARB 200850Z AUTO 03006KT 10SM BKN110 M03/M08 A3014 640 71 -1400 040/06 RMK AO2 SLP214 T10331078 58010
94889KARB ARB20160320035511403/20/16 03:55:31  5-MIN KARB 200855Z AUTO 03006KT 10SM BKN110 M03/M08 A3014 640 71 -1400 040/06 RMK AO2 T10331078
94889KARB ARB20160320040011403/20/16 04:00:31  5-MIN KARB 200900Z AUTO 02005KT 10SM BKN110 M03/M08 A3014 640 71 -1400 030/05 RMK AO2 T10331078
94889KARB ARB20160320040511403/20/16 04:05:31  5-MIN KARB 200905Z AUTO 03005KT 10SM OVC110 M03/M08 A3014 640 71 -1400 030/05 RMK AO2 T10331078
94889KARB ARB20160320041011403/20/16 04:10:31  5-MIN KARB 200910Z AUTO 03005KT 10SM OVC110 M03/M08 A3014 640 71 -1400 030/05 RMK AO2 T10331078
94889KARB ARB20160320041511403/20/16 04:15:31  5-MIN KARB 200915Z AUTO 02004KT 10SM OVC110 M03/M08 A3014 640 71 -1400 020/04 RMK AO2 T10331078
94889KARB ARB20160320042011403/20/16 04:20:31  5-MIN KARB 200920Z AUTO 01004KT 10SM OVC110 M03/M08 A3014 640 71 -1400 010/04 RMK AO2 T10331078
94889KARB ARB20160320042511403/20/16 04:25:31  5-MIN KARB 200925Z AUTO 01004KT 10SM OVC110 M03/M08 A3014 640 71 -1400 020/04 RMK AO2 T10331078
94889KARB ARB20160320043011403/20/16 04:30:31  5-MIN KARB 200930Z AUTO 01005KT 10SM OVC110 M03/M08 A3014 640 71 -1400 020/05 RMK AO2 T10331078
94889KARB ARB20160320043511403/20/16 04:35:31  5-MIN KARB 200935Z AUTO 01005KT 10SM BKN110 M03/M08 A3014 640 71 -1400 010/05 RMK AO2 T10331078
94889KARB ARB20160320044011403/20/16 04:40:31  5-MIN KARB 200940Z AUTO 36003KT 10SM BKN110 M03/M08 A3014 640 71 -1400 010/03 RMK AO2 T10331078
94889KARB ARB20160320044511403/20/16 04:45:31  5-MIN KARB 200945Z AUTO 36004KT 10SM SCT100 M04/M08 A3014 640 74 -1400 010/04 RMK AO2 T10391078
94889KARB ARB20160320045012103/20/16 04:50:31  5-MIN KARB 200950Z AUTO 36004KT 10SM SCT100 M03/M08 A3014 640 71 -1400 010/04 RMK AO2 SLP214 T10331078
94889KARB ARB20160320045511403/20/16 04:55:31  5-MIN KARB 200955Z AUTO 36004KT 10SM FEW110 M03/M08 A3014 640 71 -1400 010/04 RMK AO2 T10331078
94889KARB ARB20160320050011103/20/16 05:00:31  5-MIN KARB 201000Z AUTO 36004KT 10SM CLR M03/M08 A3014 640 71 -1400 010/04 RMK AO2 T10331078
94889KARB ARB20160320050511103/20/16 05:05:31  5-MIN KARB 201005Z AUTO 36003KT 10SM CLR M03/M08 A3014 640 71 -1400 010/03 RMK AO2 T10331078
94889KARB ARB20160320051011103/20/16 05:10:31  5-MIN KARB 201010Z AUTO 36003KT 10SM CLR M03/M08 A3014 640 71 -1400 360/03 RMK AO2 T10331078
94889KARB ARB20160320051511103/20/16 05:15:31  5-MIN KARB 201015Z AUTO 01004KT 10SM CLR M03/M08 A3014 640 71 -1400 020/04 RMK AO2 T10331078
94889KARB ARB20160320052011403/20/16 05:20:31  5-MIN KARB 201020Z AUTO 01003KT 10SM SCT110 M03/M08 A3014 640 71 -1400 020/03 RMK AO2 T10331078
94889KARB ARB20160320052511403/20/16 05:25:31  5-MIN KARB 201025Z AUTO 02006KT 10SM SCT110 M03/M08 A3014 640 71 -1400 020/06 RMK AO2 T10331078
94889KARB ARB20160320053011403/20/16 05:30:31  5-MIN KARB 201030Z AUTO 01004KT 10SM SCT110 M03/M08 A3014 640 71 -1400 010/04 RMK AO2 T10331078
94889KARB ARB20160320053511403/20/16 05:35:31  5-MIN KARB 201035Z AUTO 01005KT 10SM BKN120 M03/M08 A3014 630 71 -1400 010/05 RMK AO2 T10331078
94889KARB ARB20160320054011403/20/16 05:40:31  5-MIN KARB 201040Z AUTO 01004KT 10SM BKN120 M03/M07 A3014 640 74 -1400 010/04 RMK AO2 T10331072
94889KARB ARB20160320054511403/20/16 05:45:31  5-MIN KARB 201045Z AUTO 01005KT 10SM BKN120 M03/M07 A3014 640 74 -1400 010/05 RMK AO2 T10331072
94889KARB ARB20160320055012103/20/16 05:50:31  5-MIN KARB 201050Z AUTO 36004KT 10SM BKN120 M03/M07 A3014 640 74 -1400 010/04 RMK AO2 SLP216 T10331072
94889KARB ARB20160320055511403/20/16 05:55:31  5-MIN KARB 201055Z AUTO 36004KT 10SM BKN120 M03/M07 A3014 640 74 -1400 010/04 RMK AO2 T10331072
94889KARB ARB20160320060011403/20/16 06:00:31  5-MIN KARB 201100Z AUTO 36005KT 10SM BKN120 M03/M07 A3014 640 74 -1400 010/05 RMK AO2 T10331072
94889KARB ARB20160320060511403/20/16 06:05:31  5-MIN KARB 201105Z AUTO 36004KT 10SM BKN120 M03/M07 A3014 640 74 -1400 010/04 RMK AO2 T10331072
94889KARB ARB20160320061011403/20/16 06:10:31  5-MIN KARB 201110Z AUTO 36004KT 10SM BKN120 M03/M07 A3014 640 74 -1400 010/04 RMK AO2 T10331072
94889KARB ARB20160320061511403/20/16 06:15:31  5-MIN KARB 201115Z AUTO 36004KT 10SM SCT120 M03/M08 A3014 640 71 -1400 360/04 RMK AO2 T10331078
94889KARB ARB20160320062011403/20/16 06:20:31  5-MIN KARB 201120Z AUTO 36005KT 10SM SCT120 M03/M08 A3014 640 71 -1400 010/05 RMK AO2 T10331078
94889KARB ARB20160320062511403/20/16 06:25:31  5-MIN KARB 201125Z AUTO 03004KT 10SM SCT120 M04/M08 A3014 640 74 -1400 030/04 RMK AO2 T10391078
94889KARB ARB20160320063011403/20/16 06:30:31  5-MIN KARB 201130Z AUTO 02006KT 10SM FEW110 M03/M08 A3014 630 71 -1400 020/06 RMK AO2 T10331078
94889KARB ARB20160320063511103/20/16 06:35:31  5-MIN KARB 201135Z AUTO 02005KT 10SM CLR M04/M08 A3014 630 74 -1400 030/05 RMK AO2 T10391078
94889KARB ARB20160320064011103/20/16 06:40:31  5-MIN KARB 201140Z AUTO 02005KT 10SM CLR M04/M08 A3014 640 74 -1400 030/05 RMK AO2 T10391078
94889KARB ARB20160320064511103/20/16 06:45:31  5-MIN KARB 201145Z AUTO 03005KT 10SM CLR M04/M08 A3014 640 74 -1400 030/05 RMK AO2 T10391078
94889KARB ARB20160320065013603/20/16 06:50:31  5-MIN KARB 201150Z AUTO 01006KT 10SM CLR M04/M08 A3014 640 74 -1400 020/06 RMK AO2 SLP217 T10391078 11028 21039 58010
94889KARB ARB20160320065511103/20/16 06:55:31  5-MIN KARB 201155Z AUTO 02006KT 10SM CLR M04/M08 A3014 640 74 -1400 020/06 RMK AO2 T10391078
94889KARB ARB20160320070011103/20/16 07:00:31  5-MIN KARB 201200Z AUTO 02005KT 10SM CLR M03/M07 A3014 640 74 -1400 020/05 RMK AO2 T10331072
94889KARB ARB20160320070510603/20/16 07:05:31  5-MIN KARB 201205Z 02004KT 10SM CLR M04/M07 A3014 640 78 -1400 020/04 RMK AO2 T10391072
94889KARB ARB20160320071010603/20/16 07:10:31  5-MIN KARB 201210Z 02005KT 10SM CLR M04/M08 A3014 640 74 -1400 030/05 RMK AO2 T10391078
94889KARB ARB20160320071510603/20/16 07:15:31  5-MIN KARB 201215Z 02005KT 10SM CLR M04/M07 A3014 640 78 -1400 030/05 RMK AO2 T10391072
94889KARB ARB20160320072010603/20/16 07:20:31  5-MIN KARB 201220Z 36004KT 10SM CLR M03/M07 A3014 640 74 -1400 010/04 RMK AO2 T10331072
94889KARB ARB20160320072510603/20/16 07:25:31  5-MIN KARB 201225Z 01004KT 10SM CLR M03/M07 A3014 640 74 -1400 020/04 RMK AO2 T10331072
94889KARB ARB20160320073010603/20/16 07:30:31  5-MIN KARB 201230Z 01005KT 10SM CLR M03/M07 A3014 640 74 -1400 020/05 RMK AO2 T10331072
94889KARB ARB20160320073510603/20/16 07:35:31  5-MIN KARB 201235Z 02005KT 10SM CLR M03/M07 A3014 640 71 -1300 020/05 RMK AO2 T10281072
94889KARB ARB20160320074010603/20/16 07:40:31  5-MIN KARB 201240Z 36005KT 10SM CLR M02/M07 A3014 640 72 -1200 010/05 RMK AO2 T10221067
94889KARB ARB20160320074510603/20/16 07:45:31  5-MIN KARB 201245Z 01005KT 10SM CLR M02/M07 A3014 640 72 -1200 020/05 RMK AO2 T10221067
94889KARB ARB20160320075011303/20/16 07:50:31  5-MIN KARB 201250Z 01006KT 10SM CLR M02/M07 A3014 640 69 -1200 020/06 RMK AO2 SLP214 T10171067
94889KARB ARB20160320075510603/20/16 07:55:31  5-MIN KARB 201255Z 01006KT 10SM CLR M02/M07 A3014 640 69 -1200 020/06 RMK AO2 T10171067
94889KARB ARB20160320080010603/20/16 08:00:31  5-MIN KARB 201300Z 01006KT 10SM CLR M02/M07 A3013 640 69 -1200 020/06 RMK AO2 T10171067
94889KARB ARB20160320080510603/20/16 08:05:31  5-MIN KARB 201305Z 03006KT 10SM CLR M02/M07 A3013 640 69 -1200 030/06 RMK AO2 T10171067
94889KARB ARB20160320081010603/20/16 08:10:31  5-MIN KARB 201310Z 02006KT 10SM CLR M02/M07 A3013 650 69 -1200 020/06 RMK AO2 T10171067
94889KARB ARB20160320081510603/20/16 08:15:31  5-MIN KARB 201315Z 03007KT 10SM CLR M02/M07 A3013 640 66 -1200 030/07 RMK AO2 T10171072
94889KARB ARB20160320082010603/20/16 08:20:31  5-MIN KARB 201320Z 01006KT 10SM CLR M01/M07 A3014 640 66 -1100 010/06 RMK AO2 T10111067
94889KARB ARB20160320082510603/20/16 08:25:31  5-MIN KARB 201325Z 03007KT 10SM CLR M01/M07 A3014 640 66 -1100 030/07 RMK AO2 T10111067
94889KARB ARB20160320083010603/20/16 08:30:31  5-MIN KARB 201330Z 02006KT 10SM CLR M01/M07 A3014 640 63 -1100 030/06 RMK AO2 T10111072
94889KARB ARB20160320083510603/20/16 08:35:31  5-MIN KARB 201335Z 02007KT 10SM CLR M01/M07 A3014 640 63 -1100 020/07 RMK AO2 T10111072
94889KARB ARB20160320084010603/20/16 08:40:31  5-MIN KARB 201340Z 03005KT 10SM CLR M01/M07 A3014 640 61 -1000 040/05 RMK AO2 T10061072
94889KARB ARB20160320084510403/20/16 08:45:31  5-MIN KARB 201345Z 01006KT 10SM CLR 00/M07 A3014 640 61 -900 020/06 RMK AO2 T00001067
94889KARB ARB20160320085011103/20/16 08:50:31  5-MIN KARB 201350Z 03007KT 10SM CLR 00/M07 A3013 640 61 -900 040/07 RMK AO2 SLP213 T00001067
94889KARB ARB20160320085510403/20/16 08:55:31  5-MIN KARB 201355Z 05005KT 10SM CLR 00/M07 A3013 640 58 -900 050/05 RMK AO2 T00001072
94889KARB ARB20160320090010403/20/16 09:00:31  5-MIN KARB 201400Z 01006KT 10SM CLR 01/M07 A3013 640 58 -900 020/06 RMK AO2 T00061067
94889KARB ARB20160320090510403/20/16 09:05:31  5-MIN KARB 201405Z 01007KT 10SM CLR 01/M07 A3013 640 58 -900 020/07 RMK AO2 T00061067
94889KARB ARB20160320091010403/20/16 09:10:31  5-MIN KARB 201410Z 02006KT 10SM CLR 01/M07 A3013 640 56 -900 030/06 RMK AO2 T00061072
94889KARB ARB20160320091510403/20/16 09:15:31  5-MIN KARB 201415Z 03005KT 10SM CLR 01/M07 A3013 650 56 -900 040/05 RMK AO2 T00061072
94889KARB ARB20160320092010403/20/16 09:20:31  5-MIN KARB 201420Z 02006KT 10SM CLR 01/M07 A3013 650 56 -900 030/06 RMK AO2 T00061072
94889KARB ARB20160320092510403/20/16 09:25:31  5-MIN KARB 201425Z 01005KT 10SM CLR 01/M07 A3013 650 54 -800 020/05 RMK AO2 T00111072
94889KARB ARB20160320093010403/20/16 09:30:31  5-MIN KARB 201430Z 02005KT 10SM CLR 01/M07 A3013 650 54 -800 030/05 RMK AO2 T00111072
94889KARB ARB20160320093510403/20/16 09:35:31  5-MIN KARB 201435Z 04005KT 10SM CLR 02/M07 A3013 650 52 -700 050/05 RMK AO2 T00171072
94889KARB ARB20160320094010403/20/16 09:40:31  5-MIN KARB 201440Z 02005KT 10SM CLR 02/M07 A3013 650 52 -700 020/05 RMK AO2 T00171072
94889KARB ARB20160320094510403/20/16 09:45:31  5-MIN KARB 201445Z 36006KT 10SM CLR 02/M08 A3013 650 49 -700 010/06 RMK AO2 T00171078
94889KARB ARB20160320095011703/20/16 09:50:31  5-MIN KARB 201450Z 36006KT 10SM CLR 02/M08 A3013 650 47 -700 010/06 RMK AO2 SLP210 T00221078 51002
94889KARB ARB20160320095510403/20/16 09:55:31  5-MIN KARB 201455Z VRB06KT 10SM CLR 02/M07 A3013 650 50 -700 VRB/06 RMK AO2 T00221072
94889KARB ARB20160320100010403/20/16 10:00:31  5-MIN KARB 201500Z 34005KT 10SM CLR 02/M08 A3013 650 47 -700 350/05 RMK AO2 T00221078
94889KARB ARB20160320100510403/20/16 10:05:31  5-MIN KARB 201505Z 36006KT 10SM CLR 02/M08 A3012 650 47 -700 010/06 RMK AO2 T00221078
94889KARB ARB20160320101010403/20/16 10:10:31  5-MIN KARB 201510Z 36007KT 10SM CLR 02/M08 A3012 650 47 -700 010/07 RMK AO2 T00171083
94889KARB ARB20160320101510703/20/16 10:15:31  5-MIN KARB 201515Z 34008KT 10SM FEW110 02/M08 A3012 650 47 -700 350/08 RMK AO2 T00221078
94889KARB ARB20160320102010703/20/16 10:20:31  5-MIN KARB 201520Z 35007KT 10SM FEW110 02/M09 A3012 650 44 -700 350/07 RMK AO2 T00221089
94889KARB ARB20160320102510703/20/16 10:25:31  5-MIN KARB 201525Z 35006KT 10SM FEW110 02/M09 A3012 660 44 -600 360/06 RMK AO2 T00221089
94889KARB ARB20160320103010703/20/16 10:30:31  5-MIN KARB 201530Z 01007KT 10SM SCT110 03/M09 A3012 660 42 -600 020/07 RMK AO2 T00281089
94889KARB ARB20160320103509703/20/16 10:35:31  5-MIN KARB 201535Z 10SM BKN110 03/M09 A3012 660 42 -600 M /M RMK AO2 T00281089
94889KARB ARB20160320104010703/20/16 10:40:31  5-MIN KARB 201540Z 34006KT 10SM BKN110 03/M09 A3012 660 40 -600 350/06 RMK AO2 T00281094
94889KARB ARB20160320104510703/20/16 10:45:31  5-MIN KARB 201545Z 33008KT 10SM BKN110 03/M09 A3012 660 40 -600 340/08 RMK AO2 T00281094
94889KARB ARB20160320105011403/20/16 10:50:31  5-MIN KARB 201550Z 01007KT 10SM OVC110 03/M09 A3012 660 40 -500 020/07 RMK AO2 SLP206 T00331089
94889KARB ARB20160320105510703/20/16 10:55:31  5-MIN KARB 201555Z 01004KT 10SM OVC110 03/M09 A3011 660 40 -500 020/04 RMK AO2 T00331089
94889KARB ARB20160320110010703/20/16 11:00:31  5-MIN KARB 201600Z 36008KT 10SM OVC110 04/M08 A3011 660 40 -400 010/08 RMK AO2 T00391083
94889KARB ARB20160320110512303/20/16 11:05:31  5-MIN KARB 201605Z 35007KT 320V040 10SM OVC110 04/M09 A3011 660 39 -400 360/07 330V050 RMK AO2 T00391089
94889KARB ARB20160320111010703/20/16 11:10:31  5-MIN KARB 201610Z 02008KT 10SM OVC110 04/M09 A3011 670 39 -400 030/08 RMK AO2 T00391089
94889KARB ARB20160320111510703/20/16 11:15:31  5-MIN KARB 201615Z 02007KT 10SM OVC110 04/M09 A3011 670 39 -400 030/07 RMK AO2 T00391089
94889KARB ARB20160320112010703/20/16 11:20:31  5-MIN KARB 201620Z 35008KT 10SM OVC110 04/M09 A3011 670 39 -400 360/08 RMK AO2 T00391089
94889KARB ARB20160320112510703/20/16 11:25:31  5-MIN KARB 201625Z 01007KT 10SM OVC110 04/M09 A3011 670 37 -400 020/07 RMK AO2 T00441089
94889KARB ARB20160320113010703/20/16 11:30:31  5-MIN KARB 201630Z 02010KT 10SM OVC110 04/M09 A3011 670 37 -400 020/10 RMK AO2 T00441089
94889KARB ARB20160320113510703/20/16 11:35:31  5-MIN KARB 201635Z 02007KT 10SM OVC110 04/M10 A3011 670 35 -400 020/07 RMK AO2 T00391100
94889KARB ARB20160320114010703/20/16 11:40:31  5-MIN KARB 201640Z 36008KT 10SM OVC110 05/M09 A3011 670 34 -300 010/08 RMK AO2 T00501094
94889KARB ARB20160320114510703/20/16 11:45:31  5-MIN KARB 201645Z 35009KT 10SM OVC110 05/M09 A3011 670 34 -300 360/09 RMK AO2 T00501094
94889KARB ARB20160320115011403/20/16 11:50:31  5-MIN KARB 201650Z 02009KT 10SM OVC110 04/M10 A3010 670 34 -400 030/09 RMK AO2 SLP202 T00441100
94889KARB ARB20160320115512303/20/16 11:55:31  5-MIN KARB 201655Z 01010KT 340V040 10SM OVC110 05/M09 A3010 670 34 -300 020/10 350V050 RMK AO2 T00501094
94889KARB ARB20160320120010703/20/16 12:00:31  5-MIN KARB 201700Z 02009KT 10SM OVC110 04/M10 A3010 670 34 -400 020/09 RMK AO2 T00441100
94889KARB ARB20160320120510703/20/16 12:05:31  5-MIN KARB 201705Z 36008KT 10SM OVC110 04/M10 A3010 670 34 -300 010/08 RMK AO2 T00441100
94889KARB ARB20160320121010703/20/16 12:10:31  5-MIN KARB 201710Z VRB05KT 10SM OVC120 04/M10 A3010 680 34 -300 VRB/05 RMK AO2 T00441100
94889KARB ARB20160320121512303/20/16 12:15:31  5-MIN KARB 201715Z 35007KT 310V030 10SM OVC120 04/M10 A3009 680 34 -300 350/07 320V040 RMK AO2 T00441100
94889KARB ARB20160320122010703/20/16 12:20:31  5-MIN KARB 201720Z 03009KT 10SM OVC120 05/M09 A3009 680 34 -300 030/09 RMK AO2 T00501094
94889KARB ARB20160320122510703/20/16 12:25:31  5-MIN KARB 201725Z 04006KT 10SM OVC120 06/M09 A3009 680 33 -200 040/06 RMK AO2 T00561094
94889KARB ARB20160320123010703/20/16 12:30:31  5-MIN KARB 201730Z 33004KT 10SM OVC120 04/M10 A3009 690 34 -300 340/04 RMK AO2 T00441100
94889KARB ARB20160320123512303/20/16 12:35:31  5-MIN KARB 201735Z 04007KT 360V070 10SM OVC120 04/M10 A3009 690 34 -300 040/07 010V080 RMK AO2 T00441100
94889KARB ARB20160320124009703/20/16 12:40:31  5-MIN KARB 201740Z 10SM OVC120 04/M10 A3008 690 34 -300 M /M RMK AO2 T00441100
94889KARB ARB20160320124510703/20/16 12:45:31  5-MIN KARB 201745Z 05007KT 10SM OVC120 04/M10 A3008 690 34 -300 060/07 RMK AO2 T00441100
94889KARB ARB20160320125013203/20/16 12:50:31  5-MIN KARB 201750Z 00000KT 10SM OVC120 04/M11 A3008 690 34 -400 000/00 RMK AO2 SLP195 T00391106 10056 21039 57005
94889KARB ARB20160320125510703/20/16 12:55:31  5-MIN KARB 201755Z 02008KT 10SM BKN120 05/M10 A3008 690 33 -300 030/08 RMK AO2 T00501100
94889KARB ARB20160320130010703/20/16 13:00:31  5-MIN KARB 201800Z VRB05KT 10SM BKN120 05/M10 A3008 700 33 -300 VRB/05 RMK AO2 T00501100
94889KARB ARB20160320130510703/20/16 13:05:31  5-MIN KARB 201805Z VRB04KT 10SM OVC120 05/M10 A3007 700 33 -300 VRB/04 RMK AO2 T00501100
94889KARB ARB20160320131012303/20/16 13:10:31  5-MIN KARB 201810Z 04008KT 360V070 10SM BKN120 06/M09 A3007 700 33 -200 050/08 010V080 RMK AO2 T00561094
94889KARB ARB20160320131510703/20/16 13:15:31  5-MIN KARB 201815Z VRB06KT 10SM BKN120 05/M10 A3007 700 33 -200 VRB/06 RMK AO2 T00501100
94889KARB ARB20160320132010703/20/16 13:20:31  5-MIN KARB 201820Z VRB03KT 10SM BKN120 05/M11 A3007 710 30 -200 VRB/03 RMK AO2 T00501111
94889KARB ARB20160320132510703/20/16 13:25:31  5-MIN KARB 201825Z 35003KT 10SM BKN120 06/M10 A3007 710 32 -200 350/03 RMK AO2 T00561100
94889KARB ARB20160320133010703/20/16 13:30:31  5-MIN KARB 201830Z VRB06KT 10SM BKN120 06/M10 A3006 710 32 -200 VRB/06 RMK AO2 T00561100
94889KARB ARB20160320133510703/20/16 13:35:31  5-MIN KARB 201835Z 35007KT 10SM BKN120 06/M10 A3006 710 32 -200 360/07 RMK AO2 T00561100
94889KARB ARB20160320134010703/20/16 13:40:31  5-MIN KARB 201840Z 34005KT 10SM SCT120 06/M09 A3006 710 33 -200 350/05 RMK AO2 T00561094
94889KARB ARB20160320134510703/20/16 13:45:31  5-MIN KARB 201845Z 32005KT 10SM FEW120 06/M10 A3006 720 32 -200 330/05 RMK AO2 T00561100
94889KARB ARB20160320135011403/20/16 13:50:31  5-MIN KARB 201850Z VRB04KT 10SM FEW120 06/M10 A3005 720 32 -200 VRB/04 RMK AO2 SLP185 T00561100
94889KARB ARB20160320135510403/20/16 13:55:31  5-MIN KARB 201855Z 33009KT 10SM CLR 06/M10 A3005 720 32 -200 340/09 RMK AO2 T00561100
94889KARB ARB20160320140010403/20/16 14:00:31  5-MIN KARB 201900Z 34008KT 10SM CLR 06/M10 A3005 720 32 -200 350/08 RMK AO2 T00561100
94889KARB ARB20160320140510403/20/16 14:05:31  5-MIN KARB 201905Z 32007KT 10SM CLR 05/M11 A3005 720 31 -200 330/07 RMK AO2 T00501106
94889KARB ARB20160320141010403/20/16 14:10:31  5-MIN KARB 201910Z 35007KT 10SM CLR 06/M11 A3005 730 30 -100 360/07 RMK AO2 T00561106
94889KARB ARB20160320141510403/20/16 14:15:31  5-MIN KARB 201915Z 29007KT 10SM CLR 06/M11 A3004 730 30 -100 300/07 RMK AO2 T00561106
94889KARB ARB20160320142010403/20/16 14:20:31  5-MIN KARB 201920Z 36006KT 10SM CLR 06/M11 A3004 730 29 -100 010/06 RMK AO2 T00611106
94889KARB ARB20160320142510403/20/16 14:25:31  5-MIN KARB 201925Z VRB03KT 10SM CLR 06/M11 A3004 730 29 -100 VRB/03 RMK AO2 T00611106
94889KARB ARB20160320143010403/20/16 14:30:31  5-MIN KARB 201930Z 35006KT 10SM CLR 06/M11 A3004 730 29 -100 360/06 RMK AO2 T00561111
94889KARB ARB20160320143510403/20/16 14:35:31  5-MIN KARB 201935Z 32005KT 10SM CLR 06/M11 A3004 730 28 -100 320/05 RMK AO2 T00611111
94889KARB ARB20160320144010403/20/16 14:40:31  5-MIN KARB 201940Z 36005KT 10SM CLR 06/M11 A3004 730 29 -100 010/05 RMK AO2 T00611106
94889KARB ARB20160320144510403/20/16 14:45:31  5-MIN KARB 201945Z 35005KT 10SM CLR 06/M11 A3003 740 28 -100 350/05 RMK AO2 T00611111
94889KARB ARB20160320145011103/20/16 14:50:31  5-MIN KARB 201950Z VRB03KT 10SM CLR 06/M11 A3003 740 28 -100 VRB/03 RMK AO2 SLP177 T00611111
94889KARB ARB20160320145510103/20/16 14:55:31  5-MIN KARB 201955Z 05009KT 10SM CLR 07/M11 A3003 740 27 0 060/09 RMK AO2 T00671111
94889KARB ARB20160320150010403/20/16 15:00:31  5-MIN KARB 202000Z 36008KT 10SM CLR 06/M11 A3003 740 29 -100 360/08 RMK AO2 T00611106
94889KARB ARB20160320150510403/20/16 15:05:31  5-MIN KARB 202005Z 00000KT 10SM CLR 06/M11 A3003 740 29 -100 000/00 RMK AO2 T00611106
94889KARB ARB20160320151010403/20/16 15:10:31  5-MIN KARB 202010Z 28003KT 10SM CLR 06/M11 A3002 750 28 -100 290/03 RMK AO2 T00611111
94889KARB ARB20160320151510403/20/16 15:15:31  5-MIN KARB 202015Z VRB03KT 10SM CLR 06/M11 A3002 750 28 -100 VRB/03 RMK AO2 T00611111
94889KARB ARB20160320152010103/20/16 15:20:31  5-MIN KARB 202020Z VRB05KT 10SM CLR 07/M11 A3002 750 27 0 VRB/05 RMK AO2 T00671111
94889KARB ARB20160320152510103/20/16 15:25:31  5-MIN KARB 202025Z 02006KT 10SM CLR 07/M11 A3002 750 27 0 020/06 RMK AO2 T00671111
94889KARB ARB20160320153010103/20/16 15:30:31  5-MIN KARB 202030Z 01005KT 10SM CLR 07/M11 A3002 750 27 0 020/05 RMK AO2 T00671111
94889KARB ARB20160320153510403/20/16 15:35:31  5-MIN KARB 202035Z 02003KT 10SM CLR 06/M11 A3002 750 28 -100 030/03 RMK AO2 T00611111
94889KARB ARB20160320154010103/20/16 15:40:31  5-MIN KARB 202040Z 36006KT 10SM CLR 07/M12 A3002 750 26 0 010/06 RMK AO2 T00671117
94889KARB ARB20160320154510103/20/16 15:45:31  5-MIN KARB 202045Z 01006KT 10SM CLR 07/M11 A3001 750 27 0 010/06 RMK AO2 T00671111
94889KARB ARB20160320155011403/20/16 15:50:31  5-MIN KARB 202050Z 33007KT 10SM CLR 07/M11 A3001 760 27 0 340/07 RMK AO2 SLP171 T00671111 58016
94889KARB ARB20160320155510103/20/16 15:55:31  5-MIN KARB 202055Z VRB05KT 10SM CLR 07/M11 A3001 760 28 0 VRB/05 RMK AO2 T00671106
94889KARB ARB20160320160010603/20/16 16:00:31  5-MIN KARB 202100Z AUTO VRB04KT 10SM CLR 06/M12 A3001 760 27 0 VRB/04 RMK AO2 T00611117
94889KARB ARB20160320160510603/20/16 16:05:31  5-MIN KARB 202105Z AUTO 01005KT 10SM CLR 07/M12 A3001 760 26 0 020/05 RMK AO2 T00671117
94889KARB ARB20160320161010603/20/16 16:10:31  5-MIN KARB 202110Z AUTO 29005KT 10SM CLR 07/M11 A3000 760 27 0 300/05 RMK AO2 T00671111
94889KARB ARB20160320161510603/20/16 16:15:31  5-MIN KARB 202115Z AUTO 30003KT 10SM CLR 06/M11 A3000 760 28 0 310/03 RMK AO2 T00611111
94889KARB ARB20160320162010603/20/16 16:20:31  5-MIN KARB 202120Z AUTO 35006KT 10SM CLR 07/M11 A3000 770 28 0 360/06 RMK AO2 T00671106
94889KARB ARB20160320162510603/20/16 16:25:31  5-MIN KARB 202125Z AUTO 34006KT 10SM CLR 07/M11 A3000 770 28 0 340/06 RMK AO2 T00671106
94889KARB ARB20160320163010603/20/16 16:30:31  5-MIN KARB 202130Z AUTO 36006KT 10SM CLR 07/M10 A3000 770 29 0 010/06 RMK AO2 T00671100
94889KARB ARB20160320163510603/20/16 16:35:31  5-MIN KARB 202135Z AUTO 31006KT 10SM CLR 07/M09 A3000 770 30 0 310/06 RMK AO2 T00671094
94889KARB ARB20160320164010603/20/16 16:40:31  5-MIN KARB 202140Z AUTO 31009KT 10SM CLR 06/M09 A3000 760 32 0 320/09 RMK AO2 T00611094
94889KARB ARB20160320164510603/20/16 16:45:31  5-MIN KARB 202145Z AUTO VRB06KT 10SM CLR 07/M09 A3000 760 30 0 VRB/06 RMK AO2 T00671094
94889KARB ARB20160320165011303/20/16 16:50:31  5-MIN KARB 202150Z AUTO 36005KT 10SM CLR 07/M10 A3000 760 29 0 010/05 RMK AO2 SLP168 T00671100
94889KARB ARB20160320165510603/20/16 16:55:31  5-MIN KARB 202155Z AUTO 31010KT 10SM CLR 06/M10 A3000 760 30 0 320/10 RMK AO2 T00611100
94889KARB ARB20160320170010603/20/16 17:00:31  5-MIN KARB 202200Z AUTO 30008KT 10SM CLR 06/M10 A3001 760 30 0 310/08 RMK AO2 T00611100
94889KARB ARB20160320170510603/20/16 17:05:31  5-MIN KARB 202205Z AUTO 35009KT 10SM CLR 07/M10 A3001 760 29 0 360/09 RMK AO2 T00671100
94889KARB ARB20160320171010603/20/16 17:10:31  5-MIN KARB 202210Z AUTO 32007KT 10SM CLR 06/M10 A3001 760 30 0 320/07 RMK AO2 T00611100
94889KARB ARB20160320171510903/20/16 17:15:31  5-MIN KARB 202215Z AUTO 31007KT 10SM CLR 06/M11 A3001 760 30 -100 310/07 RMK AO2 T00561106
94889KARB ARB20160320172010603/20/16 17:20:31  5-MIN KARB 202220Z AUTO 35007KT 10SM CLR 06/M10 A3001 760 30 0 360/07 RMK AO2 T00611100
94889KARB ARB20160320172510603/20/16 17:25:31  5-MIN KARB 202225Z AUTO 35008KT 10SM CLR 06/M10 A3001 760 30 0 360/08 RMK AO2 T00611100
94889KARB ARB20160320173010603/20/16 17:30:31  5-MIN KARB 202230Z AUTO 31010KT 10SM CLR 06/M09 A3002 750 32 0 320/10 RMK AO2 T00611094
94889KARB ARB20160320173510903/20/16 17:35:31  5-MIN KARB 202235Z AUTO 34008KT 10SM CLR 06/M10 A3002 750 32 -100 350/08 RMK AO2 T00561100
94889KARB ARB20160320174010903/20/16 17:40:31  5-MIN KARB 202240Z AUTO 33008KT 10SM CLR 06/M10 A3002 750 32 -100 330/08 RMK AO2 T00561100
94889KARB ARB20160320174510903/20/16 17:45:31  5-MIN KARB 202245Z AUTO 32010KT 10SM CLR 06/M09 A3002 750 33 -100 330/10 RMK AO2 T00561094
94889KARB ARB20160320175011603/20/16 17:50:31  5-MIN KARB 202250Z AUTO 35007KT 10SM CLR 06/M10 A3002 750 32 -100 350/07 RMK AO2 SLP175 T00561100
94889KARB ARB20160320175511503/20/16 17:55:31  5-MIN KARB 202255Z AUTO 33007G16KT 10SM CLR 06/M10 A3003 740 32 -100 340/07G16 RMK AO2 T00561100
94889KARB ARB20160320180010903/20/16 18:00:31  5-MIN KARB 202300Z AUTO 33009KT 10SM CLR 06/M10 A3003 740 32 -100 340/09 RMK AO2 T00561100
94889KARB ARB20160320180510903/20/16 18:05:31  5-MIN KARB 202305Z AUTO 32009KT 10SM CLR 05/M10 A3003 740 33 -200 330/09 RMK AO2 T00501100
94889KARB ARB20160320181010903/20/16 18:10:31  5-MIN KARB 202310Z AUTO 34007KT 10SM CLR 05/M10 A3003 740 33 -200 340/07 RMK AO2 T00501100
94889KARB ARB20160320181510903/20/16 18:15:31  5-MIN KARB 202315Z AUTO 34008KT 10SM CLR 05/M10 A3003 740 33 -200 350/08 RMK AO2 T00501100
94889KARB ARB20160320182010903/20/16 18:20:31  5-MIN KARB 202320Z AUTO 31009KT 10SM CLR 04/M11 A3003 740 33 -300 320/09 RMK AO2 T00441106
94889KARB ARB20160320182510903/20/16 18:25:31  5-MIN KARB 202325Z AUTO 31009KT 10SM CLR 04/M11 A3004 740 31 -300 320/09 RMK AO2 T00441111
94889KARB ARB20160320183010903/20/16 18:30:31  5-MIN KARB 202330Z AUTO 33008KT 10SM CLR 04/M12 A3004 740 29 -300 330/08 RMK AO2 T00441122
94889KARB ARB20160320183510903/20/16 18:35:31  5-MIN KARB 202335Z AUTO 33006KT 10SM CLR 04/M12 A3004 730 30 -300 340/06 RMK AO2 T00391122
94889KARB ARB20160320184010903/20/16 18:40:31  5-MIN KARB 202340Z AUTO 33006KT 10SM CLR 04/M12 A3004 730 31 -300 330/06 RMK AO2 T00391117
94889KARB ARB20160320184510903/20/16 18:45:31  5-MIN KARB 202345Z AUTO 33007KT 10SM CLR 03/M12 A3004 730 32 -400 340/07 RMK AO2 T00331117
94889KARB ARB20160320185013403/20/16 18:50:31  5-MIN KARB 202350Z AUTO 34010KT 10SM CLR 03/M12 A3004 730 32 -400 350/10 RMK AO2 SLP181 T00331117 10072 20033 56023
94889KARB ARB20160320185510903/20/16 18:55:31  5-MIN KARB 202355Z AUTO 34007KT 10SM CLR 03/M12 A3004 730 32 -400 340/07 RMK AO2 T00331117
94889KARB ARB20160320190010903/20/16 19:00:31  5-MIN KARB 210000Z AUTO 34005KT 10SM CLR 03/M11 A3004 730 34 -400 350/05 RMK AO2 T00331111
94889KARB ARB20160320190510903/20/16 19:05:31  5-MIN KARB 210005Z AUTO 35007KT 10SM CLR 03/M12 A3004 730 32 -400 350/07 RMK AO2 T00331117
94889KARB ARB20160320191010903/20/16 19:10:31  5-MIN KARB 210010Z AUTO 34006KT 10SM CLR 03/M12 A3004 730 32 -400 350/06 RMK AO2 T00331117
94889KARB ARB20160320191510903/20/16 19:15:31  5-MIN KARB 210015Z AUTO 34005KT 10SM CLR 03/M11 A3005 730 35 -500 350/05 RMK AO2 T00281111
94889KARB ARB20160320192010903/20/16 19:20:31  5-MIN KARB 210020Z AUTO 34005KT 10SM CLR 03/M11 A3005 730 35 -500 350/05 RMK AO2 T00281111
94889KARB ARB20160320192510903/20/16 19:25:31  5-MIN KARB 210025Z AUTO 34006KT 10SM CLR 03/M11 A3005 720 35 -500 350/06 RMK AO2 T00281111
94889KARB ARB20160320193010903/20/16 19:30:31  5-MIN KARB 210030Z AUTO 34006KT 10SM CLR 03/M11 A3005 720 35 -500 350/06 RMK AO2 T00281111
94889KARB ARB20160320193510903/20/16 19:35:31  5-MIN KARB 210035Z AUTO 34006KT 10SM CLR 03/M11 A3005 720 35 -500 340/06 RMK AO2 T00281111
94889KARB ARB20160320194010903/20/16 19:40:31  5-MIN KARB 210040Z AUTO 34005KT 10SM CLR 03/M11 A3005 720 37 -500 340/05 RMK AO2 T00281106
94889KARB ARB20160320194510903/20/16 19:45:31  5-MIN KARB 210045Z AUTO 34005KT 10SM CLR 02/M11 A3005 720 38 -600 340/05 RMK AO2 T00221106
94889KARB ARB20160320195011603/20/16 19:50:31  5-MIN KARB 210050Z AUTO 34006KT 10SM CLR 02/M11 A3005 720 38 -600 350/06 RMK AO2 SLP185 T00221106
94889KARB ARB20160320195510903/20/16 19:55:31  5-MIN KARB 210055Z AUTO 34005KT 10SM CLR 03/M11 A3005 720 37 -500 350/05 RMK AO2 T00281106
94889KARB ARB20160320200010903/20/16 20:00:31  5-MIN KARB 210100Z AUTO 35004KT 10SM CLR 02/M10 A3005 720 40 -600 350/04 RMK AO2 T00221100
94889KARB ARB20160320200510903/20/16 20:05:31  5-MIN KARB 210105Z AUTO 34004KT 10SM CLR 02/M10 A3005 720 40 -600 350/04 RMK AO2 T00221100
94889KARB ARB20160320201010903/20/16 20:10:31  5-MIN KARB 210110Z AUTO 35004KT 10SM CLR 02/M10 A3005 720 40 -600 350/04 RMK AO2 T00221100
94889KARB ARB20160320201510903/20/16 20:15:31  5-MIN KARB 210115Z AUTO 35004KT 10SM CLR 02/M10 A3005 720 40 -600 350/04 RMK AO2 T00221100
94889KARB ARB20160320202010903/20/16 20:20:31  5-MIN KARB 210120Z AUTO 35003KT 10SM CLR 02/M10 A3005 720 40 -600 350/03 RMK AO2 T00221100
94889KARB ARB20160320202510903/20/16 20:25:31  5-MIN KARB 210125Z AUTO 34003KT 10SM CLR 02/M10 A3005 720 40 -600 350/03 RMK AO2 T00221100
94889KARB ARB20160320203010903/20/16 20:30:31  5-MIN KARB 210130Z AUTO 00000KT 10SM CLR 02/M10 A3005 720 40 -600 000/00 RMK AO2 T00221100
94889KARB ARB20160320203510903/20/16 20:35:31  5-MIN KARB 210135Z AUTO 00000KT 10SM CLR 00/M09 A3005 720 49 -800 000/00 RMK AO2 T00001094
94889KARB ARB20160320204011103/20/16 20:40:31  5-MIN KARB 210140Z AUTO 00000KT 10SM CLR M02/M08 A3005 720 63 -1100 000/00 RMK AO2 T10171078
94889KARB ARB20160320204511103/20/16 20:45:31  5-MIN KARB 210145Z AUTO 00000KT 10SM CLR M02/M07 A3005 720 69 -1100 000/00 RMK AO2 T10221072
94889KARB ARB20160320205011803/20/16 20:50:31  5-MIN KARB 210150Z AUTO 00000KT 10SM CLR M03/M07 A3005 720 75 -1200 000/00 RMK AO2 SLP186 T10281067
94889KARB ARB20160320205511103/20/16 20:55:31  5-MIN KARB 210155Z AUTO 00000KT 10SM CLR M03/M07 A3005 720 71 -1200 000/00 RMK AO2 T10281072
94889KARB ARB20160320210011103/20/16 21:00:31  5-MIN KARB 210200Z AUTO 00000KT 10SM CLR M02/M08 A3005 720 63 -1100 000/00 RMK AO2 T10221083
94889KARB ARB20160320210511103/20/16 21:05:31  5-MIN KARB 210205Z AUTO 25003KT 10SM CLR M02/M09 A3005 720 60 -1100 260/03 RMK AO2 T10221089
94889KARB ARB20160320211011103/20/16 21:10:31  5-MIN KARB 210210Z AUTO 00000KT 10SM CLR M02/M08 A3005 720 63 -1100 000/00 RMK AO2 T10221083
94889KARB ARB20160320211511103/20/16 21:15:31  5-MIN KARB 210215Z AUTO 00000KT 10SM CLR M02/M08 A3005 720 63 -1100 000/00 RMK AO2 T10221083
94889KARB ARB20160320212011103/20/16 21:20:31  5-MIN KARB 210220Z AUTO 00000KT 10SM CLR M02/M08 A3005 720 60 -1100 000/00 RMK AO2 T10171083
94889KARB ARB20160320212511103/20/16 21:25:31  5-MIN KARB 210225Z AUTO 00000KT 10SM CLR M02/M08 A3005 720 63 -1100 000/00 RMK AO2 T10221083
94889KARB ARB20160320213011103/20/16 21:30:31  5-MIN KARB 210230Z AUTO 00000KT 10SM CLR M02/M08 A3005 720 60 -1100 000/00 RMK AO2 T10171083
94889KARB ARB20160320213511103/20/16 21:35:31  5-MIN KARB 210235Z AUTO 26003KT 10SM CLR M02/M09 A3005 720 58 -1100 270/03 RMK AO2 T10221094
94889KARB ARB20160320214011103/20/16 21:40:31  5-MIN KARB 210240Z AUTO 27005KT 10SM CLR M02/M08 A3005 720 63 -1100 280/05 RMK AO2 T10171078
94889KARB ARB20160320214511103/20/16 21:45:31  5-MIN KARB 210245Z AUTO 28005KT 10SM CLR M03/M08 A3005 720 68 -1200 280/05 RMK AO2 T10281078
94889KARB ARB20160320215012403/20/16 21:50:31  5-MIN KARB 210250Z AUTO 28005KT 10SM CLR M03/M08 A3005 720 68 -1200 290/05 RMK AO2 SLP185 T10281078 53010
94889KARB ARB20160320215511103/20/16 21:55:31  5-MIN KARB 210255Z AUTO 27006KT 10SM CLR M03/M07 A3005 720 71 -1200 280/06 RMK AO2 T10281072
94889KARB ARB20160320220011103/20/16 22:00:31  5-MIN KARB 210300Z AUTO 26008KT 10SM CLR M04/M08 A3005 720 74 -1300 270/08 RMK AO2 T10391078
94889KARB ARB20160320220511103/20/16 22:05:31  5-MIN KARB 210305Z AUTO 28006KT 10SM CLR M04/M08 A3005 720 71 -1300 290/06 RMK AO2 T10391083
94889KARB ARB20160320221011103/20/16 22:10:31  5-MIN KARB 210310Z AUTO 28007KT 10SM CLR M03/M08 A3005 720 66 -1200 290/07 RMK AO2 T10281083
94889KARB ARB20160320221511103/20/16 22:15:31  5-MIN KARB 210315Z AUTO 28007KT 10SM CLR M04/M09 A3005 720 68 -1300 290/07 RMK AO2 T10391089
94889KARB ARB20160320222011103/20/16 22:20:31  5-MIN KARB 210320Z AUTO 28006KT 10SM CLR M03/M09 A3005 720 63 -1200 290/06 RMK AO2 T10281089
94889KARB ARB20160320222511103/20/16 22:25:31  5-MIN KARB 210325Z AUTO 29006KT 10SM CLR M02/M08 A3005 720 63 -1100 290/06 RMK AO2 T10221083
94889KARB ARB20160320223011103/20/16 22:30:31  5-MIN KARB 210330Z AUTO 29006KT 10SM CLR M02/M08 A3005 720 63 -1100 290/06 RMK AO2 T10221083
94889KARB ARB20160320223511103/20/16 22:35:31  5-MIN KARB 210335Z AUTO 28006KT 10SM CLR M02/M08 A3005 720 63 -1100 290/06 RMK AO2 T10171078
94889KARB ARB20160320224011103/20/16 22:40:31  5-MIN KARB 210340Z AUTO 28006KT 10SM CLR M02/M07 A3005 720 69 -1100 290/06 RMK AO2 T10221072
94889KARB ARB20160320224511103/20/16 22:45:31  5-MIN KARB 210345Z AUTO 28007KT 10SM CLR M02/M07 A3005 720 69 -1100 290/07 RMK AO2 T10221072
94889KARB ARB20160320225011803/20/16 22:50:31  5-MIN KARB 210350Z AUTO 28006KT 10SM CLR M02/M07 A3005 720 66 -1100 290/06 RMK AO2 SLP183 T10171072
94889KARB ARB20160320225511103/20/16 22:55:31  5-MIN KARB 210355Z AUTO 28006KT 10SM CLR M02/M07 A3005 730 66 -1100 290/06 RMK AO2 T10171072
94889KARB ARB20160320230011103/20/16 23:00:31  5-MIN KARB 210400Z AUTO 28007KT 10SM CLR M02/M07 A3005 730 69 -1100 290/07 RMK AO2 T10171067
94889KARB ARB20160320230511103/20/16 23:05:31  5-MIN KARB 210405Z AUTO 29007KT 10SM CLR M02/M06 A3004 730 72 -1000 290/07 RMK AO2 T10171061
94889KARB ARB20160320231011103/20/16 23:10:31  5-MIN KARB 210410Z AUTO 29006KT 10SM CLR M02/M06 A3004 730 72 -1000 290/06 RMK AO2 T10171061
94889KARB ARB20160320231511103/20/16 23:15:31  5-MIN KARB 210415Z AUTO 28007KT 10SM CLR M01/M06 A3004 730 69 -1000 290/07 RMK AO2 T10111061
94889KARB ARB20160320232011103/20/16 23:20:31  5-MIN KARB 210420Z AUTO 30007KT 10SM CLR M01/M06 A3004 730 72 -1000 300/07 RMK AO2 T10111056
94889KARB ARB20160320232511003/20/16 23:25:31  5-MIN KARB 210425Z AUTO 30008KT 10SM CLR M01/M06 A3004 730 69 -900 300/08 RMK AO2 T10061056
94889KARB ARB20160320233010903/20/16 23:30:31  5-MIN KARB 210430Z AUTO 29009KT 10SM CLR 00/M06 A3004 730 66 -800 300/09 RMK AO2 T00001056
94889KARB ARB20160320233510903/20/16 23:35:31  5-MIN KARB 210435Z AUTO 29008KT 10SM CLR 00/M06 A3004 730 66 -800 300/08 RMK AO2 T00001056
94889KARB ARB20160320234010903/20/16 23:40:31  5-MIN KARB 210440Z AUTO 30008KT 10SM CLR 00/M06 A3004 730 66 -800 310/08 RMK AO2 T00001056
94889KARB ARB20160320234510903/20/16 23:45:31  5-MIN KARB 210445Z AUTO 30008KT 10SM CLR 00/M06 A3004 730 66 -800 310/08 RMK AO2 T00001056
94889KARB ARB20160320235012703/20/16 23:50:31  5-MIN KARB 210450Z AUTO 30008KT 10SM CLR M01/M06 A3004 730 69 -900 310/08 RMK AO2 SLP180 T10061056 400721044
94889KARB ARB20160320235510903/20/16 23:55:31  5-MIN KARB 210455Z AUTO 30008KT 10SM CLR 00/M06 A3004 730 66 -800 310/08 RMK AO2 T00001056
94889KARB ARB20160321000011003/21/16 00:00:31  5-MIN KARB 210500Z AUTO 30007KT 10SM CLR M01/M06 A3004 730 66 -900 310/07 RMK AO2 T10061061
94889KARB ARB20160321000511203/21/16 00:05:31  5-MIN KARB 210505Z AUTO 31008KT 10SM CLR M01/M06 A3004 730 66 -900 310/08 RMK AO2 T10061061 $
94889KARB ARB20160321001011203/21/16 00:10:31  5-MIN KARB 210510Z AUTO 31009KT 10SM CLR M01/M06 A3004 730 66 -900 310/09 RMK AO2 T10061061 $
94889KARB ARB20160321001511203/21/16 00:15:31  5-MIN KARB 210515Z AUTO 31007KT 10SM CLR M01/M06 A3004 730 66 -900 310/07 RMK AO2 T10061061 $
94889KARB ARB20160321002011203/21/16 00:20:31  5-MIN KARB 210520Z AUTO 31007KT 10SM CLR M01/M06 A3004 730 66 -900 320/07 RMK AO2 T10061061 $
94889KARB ARB20160321002511203/21/16 00:25:31  5-MIN KARB 210525Z AUTO 31008KT 10SM CLR M01/M06 A3004 730 66 -900 320/08 RMK AO2 T10061061 $
94889KARB ARB20160321003011203/21/16 00:30:31  5-MIN KARB 210530Z AUTO 31007KT 10SM CLR M01/M06 A3004 730 66 -900 320/07 RMK AO2 T10061061 $
94889KARB ARB20160321003511203/21/16 00:35:31  5-MIN KARB 210535Z AUTO 31007KT 10SM CLR M01/M07 A3004 730 63 -900 310/07 RMK AO2 T10061067 $
94889KARB ARB20160321004011203/21/16 00:40:31  5-MIN KARB 210540Z AUTO 31007KT 10SM CLR M01/M07 A3004 730 63 -900 320/07 RMK AO2 T10061067 $
94889KARB ARB20160321004511203/21/16 00:45:31  5-MIN KARB 210545Z AUTO 31006KT 10SM CLR M01/M07 A3004 730 63 -900 320/06 RMK AO2 T10061067 $
94889KARB ARB20160321005013803/21/16 00:50:31  5-MIN KARB 210550Z AUTO 31006KT 10SM CLR M01/M07 A3004 740 66 -1000 320/06 RMK AO2 SLP179 T10111067 10033 21044 51003 $
94889KARB ARB20160321005511203/21/16 00:55:31  5-MIN KARB 210555Z AUTO 31006KT 10SM CLR M01/M07 A3003 740 63 -900 320/06 RMK AO2 T10061067 $
94889KARB ARB20160321010011303/21/16 01:00:31  5-MIN KARB 210600Z AUTO 31006KT 10SM CLR M01/M07 A3003 740 66 -1000 320/06 RMK AO2 T10111067 $
94889KARB ARB20160321010511203/21/16 01:05:31  5-MIN KARB 210605Z AUTO 32006KT 10SM CLR M01/M07 A3003 740 63 -900 320/06 RMK AO2 T10061067 $
94889KARB ARB20160321011011303/21/16 01:10:31  5-MIN KARB 210610Z AUTO 31004KT 10SM CLR M01/M07 A3003 740 63 -1000 310/04 RMK AO2 T10111072 $
94889KARB ARB20160321011511303/21/16 01:15:31  5-MIN KARB 210615Z AUTO 31006KT 10SM CLR M01/M07 A3003 740 63 -1000 320/06 RMK AO2 T10111072 $
94889KARB ARB20160321012011303/21/16 01:20:31  5-MIN KARB 210620Z AUTO 31006KT 10SM CLR M02/M07 A3003 740 66 -1000 320/06 RMK AO2 T10171072 $
94889KARB ARB20160321012511303/21/16 01:25:31  5-MIN KARB 210625Z AUTO 31006KT 10SM CLR M01/M07 A3003 740 63 -1000 320/06 RMK AO2 T10111072 $
94889KARB ARB20160321013011303/21/16 01:30:31  5-MIN KARB 210630Z AUTO 32006KT 10SM CLR M01/M07 A3003 740 63 -1000 320/06 RMK AO2 T10111072 $
94889KARB ARB20160321013511303/21/16 01:35:31  5-MIN KARB 210635Z AUTO 31006KT 10SM CLR M01/M07 A3003 740 63 -1000 310/06 RMK AO2 T10111072 $
94889KARB ARB20160321014011303/21/16 01:40:31  5-MIN KARB 210640Z AUTO 31006KT 10SM CLR M02/M07 A3003 740 66 -1000 320/06 RMK AO2 T10171072 $
94889KARB ARB20160321014511303/21/16 01:45:31  5-MIN KARB 210645Z AUTO 31006KT 10SM CLR M01/M07 A3003 740 63 -1000 320/06 RMK AO2 T10111072 $
94889KARB ARB20160321015012003/21/16 01:50:31  5-MIN KARB 210650Z AUTO 31007KT 10SM CLR M02/M07 A3003 740 66 -1000 310/07 RMK AO2 SLP177 T10171072 $
94889KARB ARB20160321015511303/21/16 01:55:31  5-MIN KARB 210655Z AUTO 31007KT 10SM CLR M01/M07 A3003 740 63 -1000 320/07 RMK AO2 T10111072 $
94889KARB ARB20160321020011303/21/16 02:00:31  5-MIN KARB 210700Z AUTO 32007KT 10SM CLR M02/M08 A3004 740 63 -1000 320/07 RMK AO2 T10171078 $
94889KARB ARB20160321020511303/21/16 02:05:31  5-MIN KARB 210705Z AUTO 32006KT 10SM CLR M01/M08 A3004 730 60 -1000 320/06 RMK AO2 T10111078 $
94889KARB ARB20160321021011303/21/16 02:10:31  5-MIN KARB 210710Z AUTO 31006KT 10SM CLR M01/M08 A3004 730 60 -1000 320/06 RMK AO2 T10111078 $
94889KARB ARB20160321021511303/21/16 02:15:31  5-MIN KARB 210715Z AUTO 32008KT 10SM CLR M01/M08 A3004 730 60 -1000 320/08 RMK AO2 T10111078 $
94889KARB ARB20160321022011303/21/16 02:20:31  5-MIN KARB 210720Z AUTO 32006KT 10SM CLR M01/M08 A3004 730 60 -1000 330/06 RMK AO2 T10111078 $
94889KARB ARB20160321022511303/21/16 02:25:31  5-MIN KARB 210725Z AUTO 32007KT 10SM CLR M01/M08 A3004 730 60 -1000 330/07 RMK AO2 T10111078 $
94889KARB ARB20160321023011303/21/16 02:30:31  5-MIN KARB 210730Z AUTO 32005KT 10SM CLR M02/M08 A3004 730 63 -1000 330/05 RMK AO2 T10171078 $
94889KARB ARB20160321023511303/21/16 02:35:31  5-MIN KARB 210735Z AUTO 32007KT 10SM CLR M02/M08 A3004 740 63 -1000 330/07 RMK AO2 T10171078 $
94889KARB ARB20160321024011303/21/16 02:40:31  5-MIN KARB 210740Z AUTO 32006KT 10SM CLR M02/M08 A3004 740 60 -1000 330/06 RMK AO2 T10171083 $
94889KARB ARB20160321024511303/21/16 02:45:31  5-MIN KARB 210745Z AUTO 32006KT 10SM CLR M02/M08 A3004 740 60 -1000 330/06 RMK AO2 T10171083 $
94889KARB ARB20160321025012003/21/16 02:50:31  5-MIN KARB 210750Z AUTO 32007KT 10SM CLR M02/M08 A3004 730 60 -1000 330/07 RMK AO2 SLP178 T10171083 $
94889KARB ARB20160321025511303/21/16 02:55:31  5-MIN KARB 210755Z AUTO 32005KT 10SM CLR M02/M08 A3004 730 60 -1000 330/05 RMK AO2 T10171083 $
94889KARB ARB20160321030011303/21/16 03:00:31  5-MIN KARB 210800Z AUTO 32006KT 10SM CLR M02/M08 A3004 730 60 -1000 330/06 RMK AO2 T10171083 $
94889KARB ARB20160321030511303/21/16 03:05:31  5-MIN KARB 210805Z AUTO 31006KT 10SM CLR M02/M08 A3004 730 63 -1100 320/06 RMK AO2 T10221083 $
94889KARB ARB20160321031011303/21/16 03:10:31  5-MIN KARB 210810Z AUTO 32005KT 10SM CLR M02/M08 A3004 730 60 -1000 330/05 RMK AO2 T10171083 $
94889KARB ARB20160321031511303/21/16 03:15:31  5-MIN KARB 210815Z AUTO 32005KT 10SM CLR M02/M08 A3004 730 60 -1000 330/05 RMK AO2 T10171083 $
94889KARB ARB20160321032011303/21/16 03:20:31  5-MIN KARB 210820Z AUTO 32005KT 10SM CLR M02/M08 A3004 730 63 -1100 330/05 RMK AO2 T10221083 $
94889KARB ARB20160321032511303/21/16 03:25:31  5-MIN KARB 210825Z AUTO 32006KT 10SM CLR M02/M08 A3004 730 63 -1100 330/06 RMK AO2 T10221083 $
94889KARB ARB20160321033011303/21/16 03:30:31  5-MIN KARB 210830Z AUTO 32005KT 10SM CLR M02/M08 A3004 730 63 -1100 330/05 RMK AO2 T10221083 $
94889KARB ARB20160321033511303/21/16 03:35:31  5-MIN KARB 210835Z AUTO 31006KT 10SM CLR M02/M08 A3004 730 63 -1100 320/06 RMK AO2 T10221083 $
94889KARB ARB20160321034011303/21/16 03:40:31  5-MIN KARB 210840Z AUTO 31005KT 10SM CLR M02/M08 A3004 730 66 -1100 320/05 RMK AO2 T10221078 $
94889KARB ARB20160321034511303/21/16 03:45:31  5-MIN KARB 210845Z AUTO 32005KT 10SM CLR M02/M08 A3004 730 66 -1100 320/05 RMK AO2 T10221078 $
94889KARB ARB20160321035012603/21/16 03:50:31  5-MIN KARB 210850Z AUTO 33005KT 10SM CLR M02/M08 A3004 730 66 -1100 330/05 RMK AO2 SLP180 T10221078 58006 $
94889KARB ARB20160321035511303/21/16 03:55:31  5-MIN KARB 210855Z AUTO 32004KT 10SM CLR M02/M08 A3004 730 66 -1100 330/04 RMK AO2 T10221078 $
94889KARB ARB20160321040011303/21/16 04:00:31  5-MIN KARB 210900Z AUTO 31005KT 10SM CLR M03/M08 A3004 730 68 -1200 310/05 RMK AO2 T10281078 $
94889KARB ARB20160321040511303/21/16 04:05:31  5-MIN KARB 210905Z AUTO 32004KT 10SM CLR M02/M08 A3004 730 66 -1100 330/04 RMK AO2 T10221078 $
94889KARB ARB20160321041011303/21/16 04:10:31  5-MIN KARB 210910Z AUTO 31005KT 10SM CLR M03/M08 A3004 730 68 -1200 320/05 RMK AO2 T10281078 $
94889KARB ARB20160321041511303/21/16 04:15:31  5-MIN KARB 210915Z AUTO 31005KT 10SM CLR M03/M08 A3005 730 68 -1200 320/05 RMK AO2 T10281078 $
94889KARB ARB20160321042011303/21/16 04:20:31  5-MIN KARB 210920Z AUTO 30006KT 10SM CLR M03/M08 A3005 720 68 -1200 310/06 RMK AO2 T10281078 $
94889KARB ARB20160321042511303/21/16 04:25:31  5-MIN KARB 210925Z AUTO 31007KT 10SM CLR M03/M08 A3005 720 68 -1200 310/07 RMK AO2 T10281078 $
94889KARB ARB20160321043011603/21/16 04:30:31  5-MIN KARB 210930Z AUTO 31005KT 10SM FEW055 M03/M08 A3005 720 68 -1200 320/05 RMK AO2 T10281078 $
94889KARB ARB20160321043511603/21/16 04:35:31  5-MIN KARB 210935Z AUTO 30005KT 10SM SCT055 M03/M08 A3005 720 68 -1200 310/05 RMK AO2 T10281078 $
94889KARB ARB20160321044011603/21/16 04:40:31  5-MIN KARB 210940Z AUTO 30005KT 10SM BKN055 M03/M08 A3005 720 68 -1200 300/05 RMK AO2 T10281078 $
94889KARB ARB20160321044511603/21/16 04:45:31  5-MIN KARB 210945Z AUTO 30005KT 10SM BKN060 M03/M08 A3006 710 68 -1200 310/05 RMK AO2 T10281078 $
94889KARB ARB20160321045012303/21/16 04:50:31  5-MIN KARB 210950Z AUTO 30004KT 10SM BKN060 M03/M08 A3006 710 68 -1200 310/04 RMK AO2 SLP185 T10281078 $
94889KARB ARB20160321045511603/21/16 04:55:31  5-MIN KARB 210955Z AUTO 31005KT 10SM OVC060 M03/M07 A3006 710 71 -1200 320/05 RMK AO2 T10281072 $
94889KARB ARB20160321050011603/21/16 05:00:31  5-MIN KARB 211000Z AUTO 31005KT 10SM OVC060 M02/M07 A3006 710 69 -1100 320/05 RMK AO2 T10221072 $
94889KARB ARB20160321050511603/21/16 05:05:31  5-MIN KARB 211005Z AUTO 31005KT 10SM OVC060 M02/M07 A3006 710 69 -1100 310/05 RMK AO2 T10221072 $
94889KARB ARB20160321051011603/21/16 05:10:31  5-MIN KARB 211010Z AUTO 31005KT 10SM OVC060 M02/M08 A3006 710 66 -1100 310/05 RMK AO2 T10221078 $
94889KARB ARB20160321051511603/21/16 05:15:31  5-MIN KARB 211015Z AUTO 31004KT 10SM OVC060 M03/M08 A3006 710 68 -1200 320/04 RMK AO2 T10281078 $
94889KARB ARB20160321052011603/21/16 05:20:31  5-MIN KARB 211020Z AUTO 32005KT 10SM BKN060 M03/M08 A3006 710 68 -1200 330/05 RMK AO2 T10281078 $
94889KARB ARB20160321052511603/21/16 05:25:31  5-MIN KARB 211025Z AUTO 33004KT 10SM BKN060 M02/M08 A3006 710 66 -1100 330/04 RMK AO2 T10221078 $
94889KARB ARB20160321053011603/21/16 05:30:31  5-MIN KARB 211030Z AUTO 33004KT 10SM OVC060 M02/M07 A3006 710 69 -1100 340/04 RMK AO2 T10221072 $
94889KARB ARB20160321053511603/21/16 05:35:31  5-MIN KARB 211035Z AUTO 33006KT 10SM OVC060 M02/M07 A3006 710 69 -1100 330/06 RMK AO2 T10221072 $
94889KARB ARB20160321054011603/21/16 05:40:31  5-MIN KARB 211040Z AUTO 30005KT 10SM OVC060 M02/M07 A3007 710 69 -1100 310/05 RMK AO2 T10221072 $
94889KARB ARB20160321054511603/21/16 05:45:31  5-MIN KARB 211045Z AUTO 30005KT 10SM OVC055 M02/M07 A3007 710 66 -1100 310/05 RMK AO2 T10171072 $
94889KARB ARB20160321055012303/21/16 05:50:31  5-MIN KARB 211050Z AUTO 30004KT 10SM OVC055 M02/M07 A3007 710 66 -1100 310/04 RMK AO2 SLP189 T10171072 $
94889KARB ARB20160321055511603/21/16 05:55:31  5-MIN KARB 211055Z AUTO 30005KT 10SM OVC055 M02/M07 A3007 710 66 -1100 310/05 RMK AO2 T10171072 $
94889KARB ARB20160321060011603/21/16 06:00:31  5-MIN KARB 211100Z AUTO 30005KT 10SM OVC055 M02/M07 A3007 710 66 -1100 310/05 RMK AO2 T10171072 $
94889KARB ARB20160321060511603/21/16 06:05:31  5-MIN KARB 211105Z AUTO 30005KT 10SM OVC055 M02/M07 A3007 710 69 -1100 310/05 RMK AO2 T10171067 $
94889KARB ARB20160321061011603/21/16 06:10:31  5-MIN KARB 211110Z AUTO 29004KT 10SM OVC055 M02/M07 A3007 700 72 -1100 300/04 RMK AO2 T10221067 $
94889KARB ARB20160321061511603/21/16 06:15:31  5-MIN KARB 211115Z AUTO 29005KT 10SM OVC055 M02/M07 A3007 700 72 -1100 300/05 RMK AO2 T10221067 $
94889KARB ARB20160321062011603/21/16 06:20:31  5-MIN KARB 211120Z AUTO 30005KT 10SM OVC055 M02/M07 A3007 700 72 -1100 300/05 RMK AO2 T10221067 $
94889KARB ARB20160321062511603/21/16 06:25:31  5-MIN KARB 211125Z AUTO 29005KT 10SM OVC055 M02/M07 A3007 700 69 -1100 300/05 RMK AO2 T10221072 $
94889KARB ARB20160321063011603/21/16 06:30:31  5-MIN KARB 211130Z AUTO 28005KT 10SM OVC055 M03/M07 A3007 700 71 -1200 290/05 RMK AO2 T10281072 $
94889KARB ARB20160321063511603/21/16 06:35:31  5-MIN KARB 211135Z AUTO 28004KT 10SM OVC055 M03/M07 A3007 700 75 -1200 280/04 RMK AO2 T10281067 $
94889KARB ARB20160321064011603/21/16 06:40:31  5-MIN KARB 211140Z AUTO 27004KT 10SM OVC055 M03/M07 A3007 700 75 -1200 280/04 RMK AO2 T10281067 $
94889KARB ARB20160321064511603/21/16 06:45:31  5-MIN KARB 211145Z AUTO 28003KT 10SM BKN055 M03/M07 A3007 700 75 -1200 290/03 RMK AO2 T10281067 $
94889KARB ARB20160321065014103/21/16 06:50:31  5-MIN KARB 211150Z AUTO 29003KT 10SM BKN055 M03/M07 A3007 700 75 -1200 300/03 RMK AO2 SLP193 T10281067 11006 21028 53003 $
94889KARB ARB20160321065511103/21/16 06:55:31  5-MIN KARB 211155Z 29003KT 10SM SCT055 M03/M07 A3008 700 75 -1200 290/03 RMK AO2 T10281067 $
94889KARB ARB20160321070011103/21/16 07:00:31  5-MIN KARB 211200Z 29004KT 10SM SCT055 M02/M07 A3008 700 72 -1200 300/04 RMK AO2 T10221067 $
94889KARB ARB20160321070511103/21/16 07:05:31  5-MIN KARB 211205Z 29004KT 10SM FEW055 M02/M07 A3008 690 72 -1200 300/04 RMK AO2 T10221067 $
94889KARB ARB20160321071011103/21/16 07:10:31  5-MIN KARB 211210Z 28005KT 10SM FEW055 M03/M07 A3008 690 75 -1200 290/05 RMK AO2 T10281067 $
94889KARB ARB20160321071510803/21/16 07:15:31  5-MIN KARB 211215Z 28005KT 10SM CLR M03/M07 A3009 690 78 -1300 290/05 RMK AO2 T10331067 $
94889KARB ARB20160321072010803/21/16 07:20:31  5-MIN KARB 211220Z 29005KT 10SM CLR M03/M06 A3009 690 78 -1200 290/05 RMK AO2 T10281061 $
94889KARB ARB20160321072511103/21/16 07:25:31  5-MIN KARB 211225Z 29004KT 10SM SCT050 M02/M06 A3009 690 72 -1100 300/04 RMK AO2 T10171061 $
94889KARB ARB20160321073011103/21/16 07:30:31  5-MIN KARB 211230Z 28004KT 10SM BKN050 M01/M06 A3009 690 69 -1000 290/04 RMK AO2 T10111061 $
94889KARB ARB20160321073511103/21/16 07:35:31  5-MIN KARB 211235Z 29004KT 10SM BKN050 M01/M06 A3009 680 72 -1000 300/04 RMK AO2 T10111056 $
94889KARB ARB20160321074011103/21/16 07:40:31  5-MIN KARB 211240Z 29004KT 10SM BKN050 M01/M06 A3009 680 69 -1000 300/04 RMK AO2 T10061056 $
94889KARB ARB20160321074511103/21/16 07:45:31  5-MIN KARB 211245Z 29005KT 10SM OVC050 M01/M06 A3009 680 69 -1000 290/05 RMK AO2 T10061056 $
94889KARB ARB20160321075011803/21/16 07:50:31  5-MIN KARB 211250Z 29005KT 10SM OVC050 M01/M06 A3009 680 69 -1000 300/05 RMK AO2 SLP197 T10061056 $
94889KARB ARB20160321075510903/21/16 07:55:31  5-MIN KARB 211255Z 30006KT 10SM OVC055 00/M06 A3009 680 66 -900 310/06 RMK AO2 T00001056 $
94889KARB ARB20160321080010903/21/16 08:00:31  5-MIN KARB 211300Z 30007KT 10SM OVC055 00/M06 A3009 680 66 -900 310/07 RMK AO2 T00001056 $
94889KARB ARB20160321080510903/21/16 08:05:31  5-MIN KARB 211305Z 30008KT 10SM OVC050 00/M06 A3009 680 66 -900 310/08 RMK AO2 T00001056 $
94889KARB ARB20160321081010903/21/16 08:10:31  5-MIN KARB 211310Z 29006KT 10SM OVC055 00/M06 A3009 680 63 -900 300/06 RMK AO2 T00001061 $
94889KARB ARB20160321081510903/21/16 08:15:31  5-MIN KARB 211315Z 30008KT 10SM OVC050 00/M06 A3010 680 66 -900 300/08 RMK AO2 T00001056 $
94889KARB ARB20160321082010903/21/16 08:20:31  5-MIN KARB 211320Z 30008KT 10SM OVC050 00/M06 A3010 680 66 -900 310/08 RMK AO2 T00001056 $
94889KARB ARB20160321082510903/21/16 08:25:31  5-MIN KARB 211325Z 30007KT 10SM OVC050 01/M06 A3010 680 63 -800 310/07 RMK AO2 T00061056 $
94889KARB ARB20160321083010903/21/16 08:30:31  5-MIN KARB 211330Z 31006KT 10SM OVC050 01/M06 A3010 680 63 -800 310/06 RMK AO2 T00061056 $
94889KARB ARB20160321083510903/21/16 08:35:31  5-MIN KARB 211335Z 30006KT 10SM OVC050 01/M06 A3010 680 63 -800 310/06 RMK AO2 T00061056 $
94889KARB ARB20160321084010903/21/16 08:40:31  5-MIN KARB 211340Z 33008KT 10SM OVC050 01/M06 A3010 680 63 -800 340/08 RMK AO2 T00061056 $
94889KARB ARB20160321084510903/21/16 08:45:31  5-MIN KARB 211345Z 32008KT 10SM OVC050 01/M06 A3010 680 63 -800 320/08 RMK AO2 T00061056 $
94889KARB ARB20160321085011603/21/16 08:50:31  5-MIN KARB 211350Z 33007KT 10SM OVC050 01/M05 A3010 680 64 -800 330/07 RMK AO2 SLP201 T00111050 $
94889KARB ARB20160321085510903/21/16 08:55:31  5-MIN KARB 211355Z 32008KT 10SM OVC050 02/M05 A3010 680 61 -700 330/08 RMK AO2 T00171050 $
94889KARB ARB20160321090010903/21/16 09:00:31  5-MIN KARB 211400Z 35008KT 10SM OVC050 02/M06 A3010 670 59 -700 350/08 RMK AO2 T00171056 $
94889KARB ARB20160321090510903/21/16 09:05:31  5-MIN KARB 211405Z 32007KT 10SM OVC050 02/M05 A3010 670 61 -700 330/07 RMK AO2 T00171050 $
94889KARB ARB20160321091010903/21/16 09:10:31  5-MIN KARB 211410Z 33009KT 10SM OVC050 02/M06 A3010 670 59 -700 340/09 RMK AO2 T00171056 $
94889KARB ARB20160321091510903/21/16 09:15:31  5-MIN KARB 211415Z 34008KT 10SM OVC050 02/M06 A3011 670 59 -700 350/08 RMK AO2 T00171056 $
94889KARB ARB20160321092010903/21/16 09:20:31  5-MIN KARB 211420Z 33009KT 10SM OVC050 02/M06 A3011 670 59 -700 340/09 RMK AO2 T00171056 $
94889KARB ARB20160321092510903/21/16 09:25:31  5-MIN KARB 211425Z 33008KT 10SM OVC050 01/M06 A3011 670 61 -800 340/08 RMK AO2 T00111056 $
94889KARB ARB20160321093010903/21/16 09:30:31  5-MIN KARB 211430Z 32008KT 10SM OVC050 02/M06 A3011 670 59 -700 330/08 RMK AO2 T00171056 $
94889KARB ARB20160321093510903/21/16 09:35:31  5-MIN KARB 211435Z 33007KT 10SM OVC050 02/M06 A3011 660 59 -700 340/07 RMK AO2 T00171056 $
94889KARB ARB20160321094010903/21/16 09:40:31  5-MIN KARB 211440Z 35007KT 10SM OVC050 02/M06 A3012 660 59 -700 350/07 RMK AO2 T00171056 $
94889KARB ARB20160321094510703/21/16 09:45:31  5-MIN KARB 211445Z VRB06KT 10SM OVC050 02/M06 A3012 660 56 -600 VRB/06 RMK AO2 T00221056
94889KARB ARB20160321095012003/21/16 09:50:31  5-MIN KARB 211450Z 32007KT 10SM OVC050 02/M05 A3012 660 59 -600 330/07 RMK AO2 SLP207 T00221050 51010
94889KARB ARB20160321095510703/21/16 09:55:31  5-MIN KARB 211455Z 32008KT 10SM OVC050 02/M06 A3012 660 59 -700 320/08 RMK AO2 T00171056
94889KARB ARB20160321100011403/21/16 10:00:31  5-MIN KARB 211500Z 29006KT 10SM FEW029 OVC050 02/M06 A3012 660 56 -600 300/06 RMK AO2 T00221056
94889KARB ARB20160321100511403/21/16 10:05:31  5-MIN KARB 211505Z 31006KT 10SM FEW029 OVC050 02/M06 A3012 660 56 -600 320/06 RMK AO2 T00221056
94889KARB ARB20160321101011403/21/16 10:10:31  5-MIN KARB 211510Z 33008KT 10SM FEW031 OVC050 02/M06 A3012 660 56 -600 340/08 RMK AO2 T00221056
94889KARB ARB20160321101511403/21/16 10:15:31  5-MIN KARB 211515Z 31008KT 10SM SCT031 BKN050 02/M06 A3012 660 56 -600 320/08 RMK AO2 T00221056
94889KARB ARB20160321102011403/21/16 10:20:31  5-MIN KARB 211520Z 34010KT 10SM SCT031 BKN050 03/M06 A3012 660 52 -500 340/10 RMK AO2 T00331056
94889KARB ARB20160321102511403/21/16 10:25:31  5-MIN KARB 211525Z 34008KT 10SM FEW031 OVC050 02/M06 A3012 660 56 -600 340/08 RMK AO2 T00221056
94889KARB ARB20160321103011403/21/16 10:30:31  5-MIN KARB 211530Z 30007KT 10SM SCT033 OVC050 03/M05 A3012 660 54 -500 310/07 RMK AO2 T00331050
94889KARB ARB20160321103512103/21/16 10:35:31  5-MIN KARB 211535Z 31009KT 10SM BKN035 BKN044 BKN050 03/M06 A3012 660 54 -600 320/09 RMK AO2 T00281056
94889KARB ARB20160321104012103/21/16 10:40:31  5-MIN KARB 211540Z 30007KT 10SM BKN035 BKN044 BKN050 02/M06 A3012 660 56 -600 310/07 RMK AO2 T00221056
94889KARB ARB20160321104512103/21/16 10:45:31  5-MIN KARB 211545Z 29007KT 10SM BKN033 BKN044 OVC050 03/M06 A3012 660 54 -600 300/07 RMK AO2 T00281056
94889KARB ARB20160321105012103/21/16 10:50:31  5-MIN KARB 211550Z 29010KT 10SM BKN033 BKN047 03/M05 A3012 660 54 -500 300/10 RMK AO2 SLP206 T00331050
94889KARB ARB20160321105512003/21/16 10:55:31  5-MIN KARB 211555Z 31012G18KT 10SM BKN035 BKN048 03/M05 A3012 660 54 -500 320/12G18 RMK AO2 T00331050
94889KARB ARB20160321110012003/21/16 11:00:31  5-MIN KARB 211600Z 29010G18KT 10SM BKN035 BKN045 03/M06 A3012 660 54 -600 300/10G18 RMK AO2 T00281056
94889KARB ARB20160321110511403/21/16 11:05:31  5-MIN KARB 211605Z 29008KT 10SM BKN035 BKN045 03/M05 A3012 660 54 -500 300/08 RMK AO2 T00331050
94889KARB ARB20160321111012003/21/16 11:10:31  5-MIN KARB 211610Z 30015G18KT 10SM BKN035 BKN045 03/M06 A3012 660 52 -500 300/15G18 RMK AO2 T00331056
94889KARB ARB20160321111512003/21/16 11:15:31  5-MIN KARB 211615Z 28013G18KT 10SM BKN035 BKN045 03/M06 A3011 660 52 -600 290/13G18 RMK AO2 T00281061
94889KARB ARB20160321112011403/21/16 11:20:31  5-MIN KARB 211620Z 28010KT 10SM BKN037 BKN045 04/M06 A3011 660 50 -400 290/10 RMK AO2 T00391056
94889KARB ARB20160321112512003/21/16 11:25:31  5-MIN KARB 211625Z 28007G18KT 10SM BKN039 BKN046 03/M06 A3011 660 50 -500 290/07G18 RMK AO2 T00331061
94889KARB ARB20160321113012003/21/16 11:30:31  5-MIN KARB 211630Z 30012G18KT 10SM BKN039 BKN046 04/M06 A3011 660 50 -400 310/12G18 RMK AO2 T00391056
94889KARB ARB20160321113512003/21/16 11:35:31  5-MIN KARB 211635Z 29010G18KT 10SM SCT036 BKN048 04/M06 A3011 660 48 -400 290/10G18 RMK AO2 T00391061
94889KARB ARB20160321114011403/21/16 11:40:31  5-MIN KARB 211640Z 30010KT 10SM SCT038 BKN048 04/M06 A3011 660 48 -400 310/10 RMK AO2 T00391061
94889KARB ARB20160321114511403/21/16 11:45:31  5-MIN KARB 211645Z 28011KT 10SM SCT039 BKN048 03/M06 A3011 660 50 -500 280/11 RMK AO2 T00331061
94889KARB ARB20160321115012103/21/16 11:50:31  5-MIN KARB 211650Z 27010KT 10SM SCT039 BKN048 03/M06 A3011 670 52 -600 280/10 RMK AO2 SLP204 T00281061
94889KARB ARB20160321115511403/21/16 11:55:31  5-MIN KARB 211655Z 33008KT 10SM SCT039 SCT048 04/M06 A3011 670 48 -400 340/08 RMK AO2 T00391061
94889KARB ARB20160321120011403/21/16 12:00:31  5-MIN KARB 211700Z 30011KT 10SM FEW039 BKN050 04/M06 A3011 670 48 -400 310/11 RMK AO2 T00391061
94889KARB ARB20160321120511403/21/16 12:05:31  5-MIN KARB 211705Z 30009KT 10SM SCT042 BKN050 04/M06 A3011 670 46 -400 310/09 RMK AO2 T00441061
94889KARB ARB20160321121010703/21/16 12:10:31  5-MIN KARB 211710Z 29011KT 10SM BKN044 05/M06 A3011 670 44 -300 300/11 RMK AO2 T00501061
94889KARB ARB20160321121511403/21/16 12:15:31  5-MIN KARB 211715Z 34009KT 10SM BKN042 BKN050 04/M07 A3011 670 44 -400 340/09 RMK AO2 T00441067
94889KARB ARB20160321122012303/21/16 12:20:31  5-MIN KARB 211720Z 31013KT 280V350 10SM BKN045 05/M07 A3010 670 42 -300 320/13 290V360 RMK AO2 T00501067
94889KARB ARB20160321122512003/21/16 12:25:31  5-MIN KARB 211725Z 29010G18KT 10SM SCT043 BKN050 03/M07 A3010 670 46 -500 290/10G18 RMK AO2 T00331072
94889KARB ARB20160321123010703/21/16 12:30:31  5-MIN KARB 211730Z 30011KT 10SM BKN045 05/M07 A3010 680 42 -300 310/11 RMK AO2 T00501067
94889KARB ARB20160321123510703/21/16 12:35:31  5-MIN KARB 211735Z 27010KT 10SM BKN045 06/M07 A3010 680 41 -200 280/10 RMK AO2 T00561067
94889KARB ARB20160321124010703/21/16 12:40:31  5-MIN KARB 211740Z 29012KT 10SM BKN045 06/M07 A3010 680 41 -200 300/12 RMK AO2 T00561067
94889KARB ARB20160321124511303/21/16 12:45:31  5-MIN KARB 211745Z 27012G18KT 10SM BKN045 06/M07 A3010 680 41 -200 280/12G18 RMK AO2 T00561067
94889KARB ARB20160321125013203/21/16 12:50:31  5-MIN KARB 211750Z 27011KT 10SM SCT047 06/M07 A3009 680 39 -200 280/11 RMK AO2 SLP198 T00561072 10061 21033 53014
94889KARB ARB20160321125510703/21/16 12:55:31  5-MIN KARB 211755Z 28012KT 10SM BKN047 06/M07 A3010 680 38 -100 280/12 RMK AO2 T00611072
94889KARB ARB20160321130010703/21/16 13:00:31  5-MIN KARB 211800Z 31008KT 10SM BKN049 06/M07 A3009 680 39 -200 310/08 RMK AO2 T00561072
94889KARB ARB20160321130510703/21/16 13:05:31  5-MIN KARB 211805Z 29009KT 10SM BKN049 06/M07 A3009 680 39 -200 300/09 RMK AO2 T00561072
94889KARB ARB20160321131010703/21/16 13:10:31  5-MIN KARB 211810Z 29011KT 10SM SCT050 06/M07 A3009 680 39 -100 300/11 RMK AO2 T00611067
94889KARB ARB20160321131512303/21/16 13:15:31  5-MIN KARB 211815Z 29009KT 250V320 10SM SCT050 06/M08 A3009 680 37 -200 290/09 260V330 RMK AO2 T00561078
94889KARB ARB20160321132011303/21/16 13:20:31  5-MIN KARB 211820Z VRB04G15KT 10SM SCT050 06/M08 A3009 690 36 -200 VRB/04G15 RMK AO2 T00561083
94889KARB ARB20160321132512903/21/16 13:25:31  5-MIN KARB 211825Z 29007G15KT 240V320 10SM SCT050 06/M08 A3009 690 36 -200 290/07G15 250V330 RMK AO2 T00561083
94889KARB ARB20160321133010703/21/16 13:30:31  5-MIN KARB 211830Z VRB06KT 10SM SCT055 06/M08 A3009 690 36 -200 VRB/06 RMK AO2 T00561083
94889KARB ARB20160321133510703/21/16 13:35:31  5-MIN KARB 211835Z 34009KT 10SM FEW055 06/M08 A3008 690 37 -200 350/09 RMK AO2 T00561078
94889KARB ARB20160321134010703/21/16 13:40:31  5-MIN KARB 211840Z 33008KT 10SM FEW055 06/M08 A3008 690 36 -100 330/08 RMK AO2 T00611078
94889KARB ARB20160321134510703/21/16 13:45:31  5-MIN KARB 211845Z 28006KT 10SM SCT055 06/M08 A3008 690 35 -100 290/06 RMK AO2 T00611083
94889KARB ARB20160321135012003/21/16 13:50:31  5-MIN KARB 211850Z 31011G17KT 10SM BKN055 06/M08 A3008 700 36 -200 320/11G17 RMK AO2 SLP192 T00561083
94889KARB ARB20160321135511303/21/16 13:55:31  5-MIN KARB 211855Z 34007G17KT 10SM SCT055 06/M09 A3007 700 33 -100 350/07G17 RMK AO2 T00611089
94889KARB ARB20160321140011003/21/16 14:00:31  5-MIN KARB 211900Z 32009G16KT 10SM SCT055 07/M09 A3007 700 32 0 320/09G16 RMK AO2 T00671089
94889KARB ARB20160321140511003/21/16 14:05:31  5-MIN KARB 211905Z 28010G16KT 10SM SCT055 07/M09 A3007 700 32 0 280/10G16 RMK AO2 T00671089
94889KARB ARB20160321141011003/21/16 14:10:31  5-MIN KARB 211910Z 28011G15KT 10SM BKN055 07/M09 A3007 700 32 0 290/11G15 RMK AO2 T00671089
94889KARB ARB20160321141512903/21/16 14:15:31  5-MIN KARB 211915Z 33008G15KT 280V350 10SM SCT060 06/M09 A3007 710 34 -200 340/08G15 290V360 RMK AO2 T00561089
94889KARB ARB20160321142011303/21/16 14:20:31  5-MIN KARB 211920Z 31008G15KT 10SM SCT060 06/M09 A3007 710 33 -100 320/08G15 RMK AO2 T00611089
94889KARB ARB20160321142510403/21/16 14:25:31  5-MIN KARB 211925Z 28008KT 10SM SCT060 07/M08 A3006 710 32 0 290/08 RMK AO2 T00721083
94889KARB ARB20160321143011003/21/16 14:30:31  5-MIN KARB 211930Z 27011G18KT 10SM BKN060 07/M09 A3007 710 31 0 270/11G18 RMK AO2 T00721089
94889KARB ARB20160321143511003/21/16 14:35:31  5-MIN KARB 211935Z 29007G18KT 10SM SCT060 07/M09 A3007 710 30 0 300/07G18 RMK AO2 T00671094
94889KARB ARB20160321144012003/21/16 14:40:31  5-MIN KARB 211940Z 28007KT 240V320 10SM SCT060 07/M09 A3007 710 32 0 290/07 250V330 RMK AO2 T00671089
94889KARB ARB20160321144511003/21/16 14:45:31  5-MIN KARB 211945Z 28011G17KT 10SM FEW060 07/M08 A3007 710 32 0 290/11G17 RMK AO2 T00721083
94889KARB ARB20160321145011703/21/16 14:50:31  5-MIN KARB 211950Z 28009G19KT 10SM SCT060 07/M09 A3007 710 31 0 280/09G19 RMK AO2 SLP188 T00721089
94889KARB ARB20160321145511003/21/16 14:55:31  5-MIN KARB 211955Z 29015G18KT 10SM SCT060 07/M09 A3007 710 31 0 300/15G18 RMK AO2 T00721089
94889KARB ARB20160321150011003/21/16 15:00:31  5-MIN KARB 212000Z 28011G18KT 10SM SCT060 07/M09 A3006 710 31 0 290/11G18 RMK AO2 T00721089
94889KARB ARB20160321150510403/21/16 15:05:31  5-MIN KARB 212005Z 29012KT 10SM FEW060 07/M10 A3006 710 29 0 290/12 RMK AO2 T00671100
94889KARB ARB20160321151010403/21/16 15:10:31  5-MIN KARB 212010Z 30013KT 10SM FEW060 07/M11 A3006 710 27 0 300/13 RMK AO2 T00721106
94889KARB ARB20160321151510403/21/16 15:15:31  5-MIN KARB 212015Z 30009KT 10SM FEW060 07/M11 A3006 710 28 0 300/09 RMK AO2 T00671106
94889KARB ARB20160321152010103/21/16 15:20:31  5-MIN KARB 212020Z 32009KT 10SM CLR 07/M11 A3006 710 28 0 330/09 RMK AO2 T00671106
94889KARB ARB20160321152510103/21/16 15:25:31  5-MIN KARB 212025Z VRB05KT 10SM CLR 07/M11 A3006 710 28 0 VRB/05 RMK AO2 T00671106
94889KARB ARB20160321153010703/21/16 15:30:31  5-MIN KARB 212030Z 30013G16KT 10SM CLR 07/M10 A3006 710 28 0 300/13G16 RMK AO2 T00721100
94889KARB ARB20160321153512303/21/16 15:35:31  5-MIN KARB 212035Z 26011G21KT 240V310 10SM CLR 07/M11 A3006 710 27 0 270/11G21 250V320 RMK AO2 T00721106
94889KARB ARB20160321154010703/21/16 15:40:31  5-MIN KARB 212040Z 31005G21KT 10SM CLR 07/M11 A3006 710 27 0 310/05G21 RMK AO2 T00721106
94889KARB ARB20160321154510103/21/16 15:45:31  5-MIN KARB 212045Z 29012KT 10SM CLR 07/M11 A3006 710 27 0 300/12 RMK AO2 T00721106
94889KARB ARB20160321155012003/21/16 15:50:31  5-MIN KARB 212050Z 28009G15KT 10SM CLR 07/M10 A3006 710 28 0 280/09G15 RMK AO2 SLP185 T00721100 58007
94889KARB ARB20160321155510603/21/16 15:55:31  5-MIN KARB 212055Z AUTO 29008KT 10SM CLR 07/M10 A3006 710 28 0 300/08 RMK AO2 T00721100
94889KARB ARB20160321160009603/21/16 16:00:31  5-MIN KARB 212100Z AUTO 10SM CLR 07/M11 A3006 720 27 0 M /M RMK AO2 T00721106
94889KARB ARB20160321160509603/21/16 16:05:31  5-MIN KARB 212105Z AUTO 10SM CLR 07/M10 A3005 720 28 0 M /M RMK AO2 T00721100
94889KARB ARB20160321161010603/21/16 16:10:31  5-MIN KARB 212110Z AUTO 29007KT 10SM CLR 07/M10 A3005 720 28 0 300/07 RMK AO2 T00721100
94889KARB ARB20160321161511203/21/16 16:15:31  5-MIN KARB 212115Z AUTO 29014G19KT 10SM CLR 07/M10 A3005 720 28 0 300/14G19 RMK AO2 T00721100
94889KARB ARB20160321162011203/21/16 16:20:31  5-MIN KARB 212120Z AUTO 30013G19KT 10SM CLR 07/M11 A3005 720 27 0 300/13G19 RMK AO2 T00721106
94889KARB ARB20160321162510603/21/16 16:25:31  5-MIN KARB 212125Z AUTO 33008KT 10SM CLR 07/M11 A3005 720 28 0 330/08 RMK AO2 T00671106
94889KARB ARB20160321163010603/21/16 16:30:31  5-MIN KARB 212130Z AUTO 28012KT 10SM CLR 07/M10 A3005 720 28 0 280/12 RMK AO2 T00721100
94889KARB ARB20160321163511203/21/16 16:35:31  5-MIN KARB 212135Z AUTO 29012G17KT 10SM CLR 07/M10 A3005 720 28 0 300/12G17 RMK AO2 T00721100
94889KARB ARB20160321164011203/21/16 16:40:31  5-MIN KARB 212140Z AUTO 29008G17KT 10SM CLR 07/M11 A3005 720 28 0 290/08G17 RMK AO2 T00671106
94889KARB ARB20160321164510603/21/16 16:45:31  5-MIN KARB 212145Z AUTO 31008KT 10SM CLR 07/M11 A3005 720 27 0 320/08 RMK AO2 T00721106
94889KARB ARB20160321165011303/21/16 16:50:31  5-MIN KARB 212150Z AUTO 31005KT 10SM CLR 07/M11 A3005 720 28 0 310/05 RMK AO2 SLP184 T00671106
94889KARB ARB20160321165510603/21/16 16:55:31  5-MIN KARB 212155Z AUTO 30008KT 10SM CLR 07/M10 A3005 720 28 0 310/08 RMK AO2 T00721100
94889KARB ARB20160321170010603/21/16 17:00:31  5-MIN KARB 212200Z AUTO 28009KT 10SM CLR 07/M10 A3005 720 28 0 290/09 RMK AO2 T00721100
94889KARB ARB20160321170510603/21/16 17:05:31  5-MIN KARB 212205Z AUTO 29008KT 10SM CLR 07/M10 A3005 720 29 0 300/08 RMK AO2 T00671100
94889KARB ARB20160321171010603/21/16 17:10:31  5-MIN KARB 212210Z AUTO 28008KT 10SM CLR 07/M10 A3005 720 29 0 290/08 RMK AO2 T00671100
94889KARB ARB20160321171511203/21/16 17:15:31  5-MIN KARB 212215Z AUTO 29009G14KT 10SM CLR 07/M10 A3005 720 29 0 300/09G14 RMK AO2 T00671100
94889KARB ARB20160321172010603/21/16 17:20:31  5-MIN KARB 212220Z AUTO 29008KT 10SM CLR 07/M11 A3005 720 28 0 300/08 RMK AO2 T00671106
94889KARB ARB20160321172510603/21/16 17:25:31  5-MIN KARB 212225Z AUTO 29011KT 10SM CLR 07/M11 A3005 720 28 0 300/11 RMK AO2 T00671106
94889KARB ARB20160321173010603/21/16 17:30:31  5-MIN KARB 212230Z AUTO 30009KT 10SM CLR 07/M10 A3005 720 29 0 310/09 RMK AO2 T00671100
94889KARB ARB20160321173510603/21/16 17:35:31  5-MIN KARB 212235Z AUTO 31009KT 10SM CLR 07/M11 A3005 720 28 0 320/09 RMK AO2 T00671106
94889KARB ARB20160321174010603/21/16 17:40:31  5-MIN KARB 212240Z AUTO 31011KT 10SM CLR 07/M11 A3005 720 28 0 310/11 RMK AO2 T00671106
94889KARB ARB20160321174510903/21/16 17:45:31  5-MIN KARB 212245Z AUTO 30009KT 10SM CLR 06/M10 A3005 720 30 -100 300/09 RMK AO2 T00611100
94889KARB ARB20160321175011603/21/16 17:50:31  5-MIN KARB 212250Z AUTO 29008KT 10SM CLR 06/M10 A3005 720 30 -100 300/08 RMK AO2 SLP183 T00611100
94889KARB ARB20160321175510903/21/16 17:55:31  5-MIN KARB 212255Z AUTO 27007KT 10SM CLR 06/M10 A3005 720 30 -100 280/07 RMK AO2 T00611100
94889KARB ARB20160321180010903/21/16 18:00:31  5-MIN KARB 212300Z AUTO 27007KT 10SM CLR 06/M09 A3005 720 33 -200 280/07 RMK AO2 T00561094
94889KARB ARB20160321180510403/21/16 18:05:31  5-MIN KARB 212305Z 31006KT 10SM CLR 06/M10 A3005 720 30 -100 320/06 RMK AO2 T00611100
94889KARB ARB20160321181010403/21/16 18:10:31  5-MIN KARB 212310Z 30005KT 10SM CLR 06/M10 A3005 720 30 -100 310/05 RMK AO2 T00611100
94889KARB ARB20160321181510403/21/16 18:15:31  5-MIN KARB 212315Z 29005KT 10SM CLR 06/M10 A3005 720 32 -200 300/05 RMK AO2 T00561100
94889KARB ARB20160321182010403/21/16 18:20:31  5-MIN KARB 212320Z 29007KT 10SM CLR 06/M10 A3005 720 32 -200 300/07 RMK AO2 T00561100
94889KARB ARB20160321182510403/21/16 18:25:31  5-MIN KARB 212325Z 31006KT 10SM CLR 06/M10 A3005 720 32 -200 310/06 RMK AO2 T00561100
94889KARB ARB20160321183010403/21/16 18:30:31  5-MIN KARB 212330Z 30006KT 10SM CLR 05/M10 A3005 720 33 -200 310/06 RMK AO2 T00501100
94889KARB ARB20160321183510403/21/16 18:35:31  5-MIN KARB 212335Z 30006KT 10SM CLR 05/M10 A3005 720 33 -200 310/06 RMK AO2 T00501100
94889KARB ARB20160321184010403/21/16 18:40:31  5-MIN KARB 212340Z 30005KT 10SM CLR 05/M10 A3005 720 33 -200 310/05 RMK AO2 T00501100
94889KARB ARB20160321184510403/21/16 18:45:31  5-MIN KARB 212345Z 30004KT 10SM CLR 04/M10 A3005 730 34 -300 310/04 RMK AO2 T00441100
94889KARB ARB20160321185012903/21/16 18:50:31  5-MIN KARB 212350Z 30005KT 10SM CLR 05/M10 A3005 730 33 -200 310/05 RMK AO2 SLP182 T00501100 10078 20044 56012
94889KARB ARB20160321185510403/21/16 18:55:31  5-MIN KARB 212355Z 31004KT 10SM CLR 05/M10 A3005 730 33 -200 310/04 RMK AO2 T00501100
94889KARB ARB20160321190010903/21/16 19:00:31  5-MIN KARB 220000Z AUTO 31004KT 10SM CLR 04/M10 A3005 730 34 -300 310/04 RMK AO2 T00441100
94889KARB ARB20160321190510903/21/16 19:05:31  5-MIN KARB 220005Z AUTO 30004KT 10SM CLR 04/M10 A3005 730 34 -300 310/04 RMK AO2 T00441100
94889KARB ARB20160321191010903/21/16 19:10:31  5-MIN KARB 220010Z AUTO 30004KT 10SM CLR 04/M10 A3005 720 34 -300 310/04 RMK AO2 T00441100
94889KARB ARB20160321191510903/21/16 19:15:31  5-MIN KARB 220015Z AUTO 28003KT 10SM CLR 02/M09 A3005 720 44 -600 290/03 RMK AO2 T00221089
94889KARB ARB20160321192010903/21/16 19:20:31  5-MIN KARB 220020Z AUTO 28003KT 10SM CLR 03/M09 A3005 720 42 -500 290/03 RMK AO2 T00281089
94889KARB ARB20160321192510903/21/16 19:25:31  5-MIN KARB 220025Z AUTO 27003KT 10SM CLR 02/M08 A3005 720 45 -600 280/03 RMK AO2 T00221083
94889KARB ARB20160321193010903/21/16 19:30:31  5-MIN KARB 220030Z AUTO 27003KT 10SM CLR 00/M08 A3005 720 56 -800 280/03 RMK AO2 T00001078
94889KARB ARB20160321193511003/21/16 19:35:31  5-MIN KARB 220035Z AUTO 00000KT 10SM CLR M01/M06 A3005 720 66 -900 000/00 RMK AO2 T10061061
94889KARB ARB20160321194011003/21/16 19:40:31  5-MIN KARB 220040Z AUTO 00000KT 10SM CLR M01/M06 A3005 720 66 -900 000/00 RMK AO2 T10061061
94889KARB ARB20160321194511003/21/16 19:45:31  5-MIN KARB 220045Z AUTO 00000KT 10SM CLR M01/M07 A3005 720 63 -900 000/00 RMK AO2 T10061067
94889KARB ARB20160321195011703/21/16 19:50:31  5-MIN KARB 220050Z AUTO 00000KT 10SM CLR M01/M07 A3005 720 61 -900 000/00 RMK AO2 SLP186 T10061072
94889KARB ARB20160321195510903/21/16 19:55:31  5-MIN KARB 220055Z AUTO 00000KT 10SM CLR 00/M08 A3005 720 56 -900 000/00 RMK AO2 T00001078
94889KARB ARB20160321200011203/21/16 20:00:31  5-MIN KARB 220100Z AUTO 24003KT 10SM FEW120 01/M08 A3005 720 51 -800 250/03 RMK AO2 T00061083
94889KARB ARB20160321200511203/21/16 20:05:31  5-MIN KARB 220105Z AUTO 00000KT 10SM FEW120 01/M09 A3006 710 49 -800 000/00 RMK AO2 T00061089
94889KARB ARB20160321201010903/21/16 20:10:31  5-MIN KARB 220110Z AUTO 26003KT 10SM CLR 01/M08 A3006 710 51 -800 270/03 RMK AO2 T00061083
94889KARB ARB20160321201511203/21/16 20:15:31  5-MIN KARB 220115Z AUTO 25004KT 10SM FEW120 02/M08 A3006 710 47 -700 260/04 RMK AO2 T00171083
94889KARB ARB20160321202011203/21/16 20:20:31  5-MIN KARB 220120Z AUTO 24004KT 10SM FEW120 01/M07 A3007 710 58 -800 250/04 RMK AO2 T00061067
94889KARB ARB20160321202511403/21/16 20:25:31  5-MIN KARB 220125Z AUTO 25004KT 10SM FEW120 M02/M07 A3007 710 69 -1100 260/04 RMK AO2 T10221072
94889KARB ARB20160321203011403/21/16 20:30:31  5-MIN KARB 220130Z AUTO 26004KT 10SM FEW120 M01/M07 A3007 710 63 -1000 270/04 RMK AO2 T10111072
94889KARB ARB20160321203511203/21/16 20:35:31  5-MIN KARB 220135Z AUTO 26004KT 10SM FEW120 01/M07 A3007 700 56 -800 270/04 RMK AO2 T00061072
94889KARB ARB20160321204011203/21/16 20:40:31  5-MIN KARB 220140Z AUTO 29004KT 10SM FEW120 01/M06 A3007 700 58 -700 290/04 RMK AO2 T00111061
94889KARB ARB20160321204510903/21/16 20:45:31  5-MIN KARB 220145Z AUTO 29005KT 10SM CLR 01/M07 A3007 700 54 -700 290/05 RMK AO2 T00111072
94889KARB ARB20160321205011603/21/16 20:50:31  5-MIN KARB 220150Z AUTO 29004KT 10SM CLR 02/M08 A3007 700 49 -700 300/04 RMK AO2 SLP191 T00171078
94889KARB ARB20160321205510903/21/16 20:55:31  5-MIN KARB 220155Z AUTO 29005KT 10SM CLR 02/M08 A3007 700 49 -700 300/05 RMK AO2 T00171078
94889KARB ARB20160321210011203/21/16 21:00:31  5-MIN KARB 220200Z AUTO 29004KT 10SM FEW120 02/M08 A3007 700 49 -700 300/04 RMK AO2 T00171078
94889KARB ARB20160321210511203/21/16 21:05:31  5-MIN KARB 220205Z AUTO 29004KT 10SM SCT110 02/M08 A3007 700 47 -600 300/04 RMK AO2 T00221078
94889KARB ARB20160321211011203/21/16 21:10:31  5-MIN KARB 220210Z AUTO 29003KT 10SM BKN110 01/M07 A3007 700 54 -700 300/03 RMK AO2 T00111072
94889KARB ARB20160321211511203/21/16 21:15:31  5-MIN KARB 220215Z AUTO 29004KT 10SM SCT110 01/M07 A3007 700 54 -700 300/04 RMK AO2 T00111072
94889KARB ARB20160321212011203/21/16 21:20:31  5-MIN KARB 220220Z AUTO 29004KT 10SM SCT110 01/M07 A3007 700 54 -700 300/04 RMK AO2 T00111072
94889KARB ARB20160321212511203/21/16 21:25:31  5-MIN KARB 220225Z AUTO 28003KT 10SM BKN110 01/M08 A3007 700 51 -700 290/03 RMK AO2 T00111078
94889KARB ARB20160321213011203/21/16 21:30:31  5-MIN KARB 220230Z AUTO 28003KT 10SM SCT110 01/M08 A3007 700 49 -700 280/03 RMK AO2 T00111083
94889KARB ARB20160321213511203/21/16 21:35:31  5-MIN KARB 220235Z AUTO 28003KT 10SM SCT110 01/M08 A3007 700 49 -700 280/03 RMK AO2 T00111083
94889KARB ARB20160321214011203/21/16 21:40:31  5-MIN KARB 220240Z AUTO 28003KT 10SM BKN120 02/M08 A3007 700 47 -700 290/03 RMK AO2 T00171083
94889KARB ARB20160321214511203/21/16 21:45:31  5-MIN KARB 220245Z AUTO 28004KT 10SM BKN110 02/M08 A3007 700 47 -700 290/04 RMK AO2 T00171083
94889KARB ARB20160321215012503/21/16 21:50:31  5-MIN KARB 220250Z AUTO 28004KT 10SM BKN110 02/M08 A3007 700 49 -700 290/04 RMK AO2 SLP190 T00171078 56004
94889KARB ARB20160321215511203/21/16 21:55:31  5-MIN KARB 220255Z AUTO 27003KT 10SM SCT110 01/M08 A3007 710 51 -700 280/03 RMK AO2 T00111078
94889KARB ARB20160321220011203/21/16 22:00:31  5-MIN KARB 220300Z AUTO 00000KT 10SM SCT110 01/M08 A3007 710 49 -700 000/00 RMK AO2 T00111083
94889KARB ARB20160321220511203/21/16 22:05:31  5-MIN KARB 220305Z AUTO 00000KT 10SM FEW110 01/M08 A3006 710 51 -700 000/00 RMK AO2 T00111078
94889KARB ARB20160321221011203/21/16 22:10:31  5-MIN KARB 220310Z AUTO 00000KT 10SM FEW110 00/M07 A3006 710 61 -900 000/00 RMK AO2 T00001067
94889KARB ARB20160321221511103/21/16 22:15:31  5-MIN KARB 220315Z AUTO 00000KT 10SM CLR M01/M06 A3006 720 72 -1000 000/00 RMK AO2 T10111056
94889KARB ARB20160321222011303/21/16 22:20:31  5-MIN KARB 220320Z AUTO 00000KT 10SM FEW120 M01/M06 A3005 720 66 -900 000/00 RMK AO2 T10061061
94889KARB ARB20160321222511203/21/16 22:25:31  5-MIN KARB 220325Z AUTO 00000KT 10SM FEW120 00/M07 A3005 720 61 -800 000/00 RMK AO2 T00001067
94889KARB ARB20160321223011203/21/16 22:30:31  5-MIN KARB 220330Z AUTO 00000KT 10SM SCT120 00/M07 A3005 720 61 -800 000/00 RMK AO2 T00001067
94889KARB ARB20160321223511203/21/16 22:35:31  5-MIN KARB 220335Z AUTO 00000KT 10SM BKN120 00/M06 A3005 720 63 -800 000/00 RMK AO2 T00001061
94889KARB ARB20160321224011203/21/16 22:40:31  5-MIN KARB 220340Z AUTO 00000KT 10SM BKN120 00/M07 A3005 720 61 -800 000/00 RMK AO2 T00001067
94889KARB ARB20160321224511203/21/16 22:45:31  5-MIN KARB 220345Z AUTO 00000KT 10SM BKN110 01/M07 A3005 720 56 -800 000/00 RMK AO2 T00061072
94889KARB ARB20160321225011903/21/16 22:50:31  5-MIN KARB 220350Z AUTO 00000KT 10SM OVC110 01/M07 A3005 720 56 -800 000/00 RMK AO2 SLP183 T00061072
94889KARB ARB20160321225511203/21/16 22:55:31  5-MIN KARB 220355Z AUTO 00000KT 10SM OVC110 00/M07 A3005 720 58 -800 000/00 RMK AO2 T00001072
94889KARB ARB20160321230011203/21/16 23:00:31  5-MIN KARB 220400Z AUTO 00000KT 10SM OVC110 01/M08 A3005 720 51 -800 000/00 RMK AO2 T00061083
94889KARB ARB20160321230511203/21/16 23:05:31  5-MIN KARB 220405Z AUTO 00000KT 10SM OVC110 00/M08 A3006 720 53 -900 000/00 RMK AO2 T00001083
94889KARB ARB20160321231011203/21/16 23:10:31  5-MIN KARB 220410Z AUTO 00000KT 10SM OVC110 01/M08 A3006 710 54 -800 000/00 RMK AO2 T00061078
94889KARB ARB20160321231511203/21/16 23:15:31  5-MIN KARB 220415Z AUTO 00000KT 10SM BKN110 00/M07 A3006 710 61 -900 000/00 RMK AO2 T00001067
94889KARB ARB20160321232011403/21/16 23:20:31  5-MIN KARB 220420Z AUTO 00000KT 10SM BKN110 M01/M06 A3006 710 72 -1000 000/00 RMK AO2 T10111056
94889KARB ARB20160321232511403/21/16 23:25:31  5-MIN KARB 220425Z AUTO 26003KT 10SM SCT110 M01/M05 A3007 710 75 -1000 270/03 RMK AO2 T10111050
94889KARB ARB20160321233011303/21/16 23:30:31  5-MIN KARB 220430Z AUTO 26003KT 10SM FEW110 M01/M06 A3007 710 69 -900 270/03 RMK AO2 T10061056
94889KARB ARB20160321233511403/21/16 23:35:31  5-MIN KARB 220435Z AUTO 26003KT 10SM FEW110 M01/M06 A3007 710 72 -1000 260/03 RMK AO2 T10111056
94889KARB ARB20160321234011103/21/16 23:40:31  5-MIN KARB 220440Z AUTO 25003KT 10SM CLR M02/M06 A3007 710 72 -1100 260/03 RMK AO2 T10171061
94889KARB ARB20160321234511103/21/16 23:45:31  5-MIN KARB 220445Z AUTO 25003KT 10SM CLR M01/M07 A3007 710 63 -1000 260/03 RMK AO2 T10111072
94889KARB ARB20160321235012803/21/16 23:50:31  5-MIN KARB 220450Z AUTO 26003KT 10SM CLR M01/M07 A3006 710 63 -1000 260/03 RMK AO2 SLP188 T10111072 400781033
94889KARB ARB20160321235511103/21/16 23:55:31  5-MIN KARB 220455Z AUTO 27003KT 10SM CLR M01/M07 A3006 710 63 -1000 280/03 RMK AO2 T10111072
94889KARB ARB20160322000011103/22/16 00:00:31  5-MIN KARB 220500Z AUTO 00000KT 10SM CLR M01/M07 A3006 710 66 -1000 000/00 RMK AO2 T10111067
94889KARB ARB20160322000511003/22/16 00:05:31  5-MIN KARB 220505Z AUTO 27003KT 10SM CLR M01/M07 A3006 710 61 -900 280/03 RMK AO2 T10061072
94889KARB ARB20160322001011103/22/16 00:10:31  5-MIN KARB 220510Z AUTO 26003KT 10SM CLR M02/M06 A3006 710 75 -1100 270/03 RMK AO2 T10171056
94889KARB ARB20160322001511003/22/16 00:15:31  5-MIN KARB 220515Z AUTO 25003KT 10SM CLR M01/M06 A3006 710 69 -900 260/03 RMK AO2 T10061056
94889KARB ARB20160322002011003/22/16 00:20:31  5-MIN KARB 220520Z AUTO 25003KT 10SM CLR M01/M08 A3006 710 58 -900 250/03 RMK AO2 T10061078
94889KARB ARB20160322002511103/22/16 00:25:31  5-MIN KARB 220525Z AUTO 00000KT 10SM CLR M01/M07 A3006 710 66 -1000 000/00 RMK AO2 T10111067
94889KARB ARB20160322003011103/22/16 00:30:31  5-MIN KARB 220530Z AUTO 00000KT 10SM CLR M01/M07 A3006 710 66 -1000 000/00 RMK AO2 T10111067
94889KARB ARB20160322003511103/22/16 00:35:31  5-MIN KARB 220535Z AUTO 00000KT 10SM CLR M01/M07 A3006 710 66 -1000 000/00 RMK AO2 T10111067
94889KARB ARB20160322004011103/22/16 00:40:31  5-MIN KARB 220540Z AUTO 00000KT 10SM CLR M01/M07 A3006 710 63 -1000 000/00 RMK AO2 T10111072
94889KARB ARB20160322004511103/22/16 00:45:31  5-MIN KARB 220545Z AUTO 00000KT 10SM CLR M01/M07 A3006 710 66 -1000 000/00 RMK AO2 T10111067
94889KARB ARB20160322005013603/22/16 00:50:31  5-MIN KARB 220550Z AUTO 00000KT 10SM CLR M01/M07 A3006 710 66 -1000 000/00 RMK AO2 SLP186 T10111067 10050 21028 50008
94889KARB ARB20160322005511103/22/16 00:55:31  5-MIN KARB 220555Z AUTO 00000KT 10SM CLR M01/M08 A3006 710 60 -1000 000/00 RMK AO2 T10111078
94889KARB ARB20160322010011103/22/16 01:00:31  5-MIN KARB 220600Z AUTO 00000KT 10SM CLR M01/M08 A3006 710 60 -1000 000/00 RMK AO2 T10111078
94889KARB ARB20160322010511103/22/16 01:05:31  5-MIN KARB 220605Z AUTO 00000KT 10SM CLR M02/M08 A3006 710 63 -1100 000/00 RMK AO2 T10171078
94889KARB ARB20160322011011103/22/16 01:10:31  5-MIN KARB 220610Z AUTO 00000KT 10SM CLR M02/M07 A3006 710 69 -1100 000/00 RMK AO2 T10221072
94889KARB ARB20160322011511103/22/16 01:15:31  5-MIN KARB 220615Z AUTO 00000KT 10SM CLR M02/M07 A3006 710 72 -1100 000/00 RMK AO2 T10221067
94889KARB ARB20160322012011103/22/16 01:20:31  5-MIN KARB 220620Z AUTO 00000KT 10SM CLR M02/M07 A3006 720 72 -1100 000/00 RMK AO2 T10221067
94889KARB ARB20160322012511103/22/16 01:25:31  5-MIN KARB 220625Z AUTO 00000KT 10SM CLR M02/M06 A3006 720 75 -1100 000/00 RMK AO2 T10221061
94889KARB ARB20160322013011103/22/16 01:30:31  5-MIN KARB 220630Z AUTO 00000KT 10SM CLR M02/M06 A3005 720 78 -1100 000/00 RMK AO2 T10221056
94889KARB ARB20160322013511103/22/16 01:35:31  5-MIN KARB 220635Z AUTO 00000KT 10SM CLR M02/M06 A3005 720 78 -1100 000/00 RMK AO2 T10221056
94889KARB ARB20160322014011103/22/16 01:40:31  5-MIN KARB 220640Z AUTO 00000KT 10SM CLR M02/M06 A3005 720 75 -1100 000/00 RMK AO2 T10221061
94889KARB ARB20160322014511103/22/16 01:45:31  5-MIN KARB 220645Z AUTO 00000KT 10SM CLR M02/M07 A3005 720 72 -1100 000/00 RMK AO2 T10221067
94889KARB ARB20160322015011803/22/16 01:50:31  5-MIN KARB 220650Z AUTO 00000KT 10SM CLR M02/M07 A3005 720 69 -1100 000/00 RMK AO2 SLP183 T10221072
94889KARB ARB20160322015511103/22/16 01:55:31  5-MIN KARB 220655Z AUTO 00000KT 10SM CLR M02/M07 A3005 720 72 -1100 000/00 RMK AO2 T10221067
94889KARB ARB20160322020011103/22/16 02:00:31  5-MIN KARB 220700Z AUTO 00000KT 10SM CLR M02/M07 A3005 720 72 -1100 000/00 RMK AO2 T10221067
94889KARB ARB20160322020511103/22/16 02:05:31  5-MIN KARB 220705Z AUTO 00000KT 10SM CLR M02/M07 A3005 720 72 -1100 000/00 RMK AO2 T10221067
94889KARB ARB20160322021011103/22/16 02:10:31  5-MIN KARB 220710Z AUTO 00000KT 10SM CLR M02/M07 A3005 720 69 -1100 000/00 RMK AO2 T10221072
94889KARB ARB20160322021511103/22/16 02:15:31  5-MIN KARB 220715Z AUTO 00000KT 10SM CLR M02/M07 A3005 720 69 -1100 000/00 RMK AO2 T10221072
94889KARB ARB20160322022011103/22/16 02:20:31  5-MIN KARB 220720Z AUTO 00000KT 10SM CLR M03/M07 A3004 730 71 -1200 000/00 RMK AO2 T10281072
94889KARB ARB20160322022511103/22/16 02:25:31  5-MIN KARB 220725Z AUTO 00000KT 10SM CLR M02/M07 A3004 730 72 -1100 000/00 RMK AO2 T10221067
94889KARB ARB20160322023011103/22/16 02:30:31  5-MIN KARB 220730Z AUTO 00000KT 10SM CLR M02/M07 A3004 730 69 -1100 000/00 RMK AO2 T10221072
94889KARB ARB20160322023511103/22/16 02:35:31  5-MIN KARB 220735Z AUTO 00000KT 10SM CLR M02/M07 A3004 730 69 -1100 000/00 RMK AO2 T10221072
94889KARB ARB20160322024011103/22/16 02:40:31  5-MIN KARB 220740Z AUTO 00000KT 10SM CLR M02/M07 A3004 730 69 -1100 000/00 RMK AO2 T10221072
94889KARB ARB20160322024511103/22/16 02:45:31  5-MIN KARB 220745Z AUTO 00000KT 10SM CLR M02/M07 A3003 740 69 -1100 000/00 RMK AO2 T10221072
94889KARB ARB20160322025011803/22/16 02:50:31  5-MIN KARB 220750Z AUTO 00000KT 10SM CLR M02/M06 A3003 740 75 -1100 000/00 RMK AO2 SLP176 T10221061
94889KARB ARB20160322025511103/22/16 02:55:31  5-MIN KARB 220755Z AUTO 00000KT 10SM CLR M03/M07 A3003 740 75 -1200 000/00 RMK AO2 T10281067
94889KARB ARB20160322030011103/22/16 03:00:31  5-MIN KARB 220800Z AUTO 00000KT 10SM CLR M03/M07 A3002 750 71 -1200 000/00 RMK AO2 T10281072
94889KARB ARB20160322030511103/22/16 03:05:31  5-MIN KARB 220805Z AUTO 00000KT 10SM CLR M03/M07 A3002 750 71 -1200 000/00 RMK AO2 T10281072
94889KARB ARB20160322031011103/22/16 03:10:31  5-MIN KARB 220810Z AUTO 00000KT 10SM CLR M02/M07 A3002 750 69 -1100 000/00 RMK AO2 T10221072
94889KARB ARB20160322031511103/22/16 03:15:31  5-MIN KARB 220815Z AUTO 00000KT 10SM CLR M03/M07 A3002 750 71 -1200 000/00 RMK AO2 T10281072
94889KARB ARB20160322032011103/22/16 03:20:31  5-MIN KARB 220820Z AUTO 00000KT 10SM CLR M03/M07 A3002 750 74 -1200 000/00 RMK AO2 T10331072
94889KARB ARB20160322032511103/22/16 03:25:31  5-MIN KARB 220825Z AUTO 18003KT 10SM CLR M03/M06 A3002 750 78 -1200 190/03 RMK AO2 T10281061
94889KARB ARB20160322033011103/22/16 03:30:31  5-MIN KARB 220830Z AUTO 17003KT 10SM CLR M03/M06 A3001 760 81 -1200 180/03 RMK AO2 T10331061
94889KARB ARB20160322033511103/22/16 03:35:31  5-MIN KARB 220835Z AUTO 00000KT 10SM CLR M03/M06 A3001 760 81 -1200 000/00 RMK AO2 T10331061
94889KARB ARB20160322034011103/22/16 03:40:31  5-MIN KARB 220840Z AUTO 00000KT 10SM CLR M03/M06 A3001 760 78 -1100 000/00 RMK AO2 T10281061
94889KARB ARB20160322034511403/22/16 03:45:31  5-MIN KARB 220845Z AUTO 00000KT 10SM FEW110 M03/M06 A3000 760 78 -1100 000/00 RMK AO2 T10281061
94889KARB ARB20160322035012703/22/16 03:50:31  5-MIN KARB 220850Z AUTO 17003KT 10SM SCT110 M03/M06 A3000 760 78 -1100 180/03 RMK AO2 SLP167 T10281061 56002
94889KARB ARB20160322035511403/22/16 03:55:31  5-MIN KARB 220855Z AUTO 00000KT 10SM BKN110 M03/M06 A3000 770 78 -1100 000/00 RMK AO2 T10281061
94889KARB ARB20160322040011403/22/16 04:00:31  5-MIN KARB 220900Z AUTO 18003KT 10SM BKN110 M02/M06 A3000 770 72 -1000 190/03 RMK AO2 T10171061
94889KARB ARB20160322040511303/22/16 04:05:31  5-MIN KARB 220905Z AUTO 19004KT 10SM BKN110 M01/M07 A3000 770 66 -900 200/04 RMK AO2 T10111067
94889KARB ARB20160322041011303/22/16 04:10:31  5-MIN KARB 220910Z AUTO 19003KT 10SM BKN110 M01/M07 A3000 770 66 -900 200/03 RMK AO2 T10111067
94889KARB ARB20160322041511303/22/16 04:15:31  5-MIN KARB 220915Z AUTO 19003KT 10SM BKN110 M01/M07 A3000 770 63 -900 200/03 RMK AO2 T10061067
94889KARB ARB20160322042011303/22/16 04:20:31  5-MIN KARB 220920Z AUTO 20003KT 10SM BKN110 M01/M07 A2999 770 63 -800 200/03 RMK AO2 T10061067
94889KARB ARB20160322042511303/22/16 04:25:31  5-MIN KARB 220925Z AUTO 00000KT 10SM SCT110 M01/M07 A2999 780 63 -800 000/00 RMK AO2 T10061067
94889KARB ARB20160322043011203/22/16 04:30:31  5-MIN KARB 220930Z AUTO 18003KT 10SM FEW110 00/M07 A2999 780 61 -800 190/03 RMK AO2 T00001067
94889KARB ARB20160322043511403/22/16 04:35:31  5-MIN KARB 220935Z AUTO 17003KT 10SM FEW100 M02/M07 A2999 780 69 -1100 180/03 RMK AO2 T10221072
94889KARB ARB20160322044011403/22/16 04:40:31  5-MIN KARB 220940Z AUTO 00000KT 10SM SCT100 M02/M07 A2998 780 66 -1000 000/00 RMK AO2 T10171072
94889KARB ARB20160322044511303/22/16 04:45:31  5-MIN KARB 220945Z AUTO 17003KT 10SM SCT100 M01/M07 A2998 790 66 -900 170/03 RMK AO2 T10111067
94889KARB ARB20160322045012103/22/16 04:50:31  5-MIN KARB 220950Z AUTO 00000KT 10SM BKN100 M02/M07 A2998 790 69 -1000 000/00 RMK AO2 SLP158 T10171067
94889KARB ARB20160322045511403/22/16 04:55:31  5-MIN KARB 220955Z AUTO 00000KT 10SM BKN100 M02/M06 A2998 790 72 -1000 000/00 RMK AO2 T10171061
94889KARB ARB20160322050011403/22/16 05:00:31  5-MIN KARB 221000Z AUTO 00000KT 10SM BKN100 M02/M07 A2997 790 69 -1000 000/00 RMK AO2 T10171067
94889KARB ARB20160322050511403/22/16 05:05:31  5-MIN KARB 221005Z AUTO 17003KT 10SM OVC100 M02/M07 A2997 800 69 -1000 180/03 RMK AO2 T10221072
94889KARB ARB20160322051011303/22/16 05:10:31  5-MIN KARB 221010Z AUTO 17003KT 10SM OVC100 M01/M07 A2997 800 66 -900 180/03 RMK AO2 T10111067
94889KARB ARB20160322051511303/22/16 05:15:31  5-MIN KARB 221015Z AUTO 18004KT 10SM OVC100 M01/M07 A2997 800 66 -900 180/04 RMK AO2 T10111067
94889KARB ARB20160322052011303/22/16 05:20:31  5-MIN KARB 221020Z AUTO 18004KT 10SM OVC095 M01/M07 A2997 800 63 -800 190/04 RMK AO2 T10061067
94889KARB ARB20160322052511303/22/16 05:25:31  5-MIN KARB 221025Z AUTO 18004KT 10SM BKN100 M01/M07 A2996 800 63 -800 180/04 RMK AO2 T10061067
94889KARB ARB20160322053011203/22/16 05:30:31  5-MIN KARB 221030Z AUTO 18004KT 10SM BKN100 00/M07 A2996 800 61 -700 190/04 RMK AO2 T00001067
94889KARB ARB20160322053511203/22/16 05:35:31  5-MIN KARB 221035Z AUTO 17005KT 10SM OVC100 00/M06 A2996 810 63 -700 180/05 RMK AO2 T00001061
94889KARB ARB20160322054011203/22/16 05:40:31  5-MIN KARB 221040Z AUTO 17005KT 10SM OVC100 01/M06 A2995 810 61 -700 180/05 RMK AO2 T00061061
94889KARB ARB20160322054511203/22/16 05:45:31  5-MIN KARB 221045Z AUTO 17005KT 10SM OVC100 01/M06 A2995 810 63 -700 180/05 RMK AO2 T00061056
94889KARB ARB20160322055011903/22/16 05:50:31  5-MIN KARB 221050Z AUTO 18005KT 10SM OVC100 01/M06 A2995 810 63 -700 190/05 RMK AO2 SLP149 T00061056
94889KARB ARB20160322055511203/22/16 05:55:31  5-MIN KARB 221055Z AUTO 18005KT 10SM OVC100 01/M05 A2995 820 66 -700 190/05 RMK AO2 T00061050
94889KARB ARB20160322060011203/22/16 06:00:31  5-MIN KARB 221100Z AUTO 18005KT 10SM OVC100 01/M05 A2995 820 66 -700 190/05 RMK AO2 T00061050
94889KARB ARB20160322060511203/22/16 06:05:31  5-MIN KARB 221105Z AUTO 18005KT 10SM OVC095 01/M05 A2994 820 64 -600 190/05 RMK AO2 T00111050
94889KARB ARB20160322061011203/22/16 06:10:31  5-MIN KARB 221110Z AUTO 18005KT 10SM OVC095 01/M04 A2994 820 69 -700 190/05 RMK AO2 T00061044
94889KARB ARB20160322061511203/22/16 06:15:31  5-MIN KARB 221115Z AUTO 18005KT 10SM BKN095 01/M04 A2994 820 66 -600 180/05 RMK AO2 T00111044
94889KARB ARB20160322062011203/22/16 06:20:31  5-MIN KARB 221120Z AUTO 18005KT 10SM BKN090 01/M04 A2994 820 66 -600 190/05 RMK AO2 T00111044
94889KARB ARB20160322062511203/22/16 06:25:31  5-MIN KARB 221125Z AUTO 18005KT 10SM BKN090 01/M04 A2994 830 66 -600 190/05 RMK AO2 T00111044
94889KARB ARB20160322063011203/22/16 06:30:31  5-MIN KARB 221130Z AUTO 18005KT 10SM BKN090 01/M04 A2993 830 69 -600 180/05 RMK AO2 T00111039
94889KARB ARB20160322063511203/22/16 06:35:31  5-MIN KARB 221135Z AUTO 18006KT 10SM BKN085 01/M04 A2993 830 69 -600 190/06 RMK AO2 T00111039
94889KARB ARB20160322064011903/22/16 06:40:31  5-MIN KARB 221140Z AUTO 19005KT 10SM BKN080 BKN090 01/M04 A2993 830 69 -600 190/05 RMK AO2 T00111039
94889KARB ARB20160322064511903/22/16 06:45:31  5-MIN KARB 221145Z AUTO 18005KT 10SM BKN080 BKN090 01/M03 A2993 830 72 -600 190/05 RMK AO2 T00111033
94889KARB ARB20160322065014403/22/16 06:50:31  5-MIN KARB 221150Z AUTO 19005KT 10SM BKN075 OVC090 01/M03 A2993 830 72 -600 200/05 RMK AO2 SLP142 T00111033 10011 21033 58020
94889KARB ARB20160322065511403/22/16 06:55:31  5-MIN KARB 221155Z 19006KT 10SM BKN075 OVC090 02/M03 A2993 830 69 -500 200/06 RMK AO2 T00171033
94889KARB ARB20160322070010703/22/16 07:00:31  5-MIN KARB 221200Z 19006KT 10SM OVC075 02/M03 A2993 830 69 -500 200/06 RMK AO2 T00171033
94889KARB ARB20160322070510703/22/16 07:05:31  5-MIN KARB 221205Z 20006KT 10SM OVC075 02/M03 A2993 830 69 -500 200/06 RMK AO2 T00171033
94889KARB ARB20160322071010703/22/16 07:10:31  5-MIN KARB 221210Z 19005KT 10SM OVC075 02/M03 A2993 830 72 -500 200/05 RMK AO2 T00171028
94889KARB ARB20160322071510703/22/16 07:15:31  5-MIN KARB 221215Z 19005KT 10SM OVC075 02/M03 A2993 830 72 -500 200/05 RMK AO2 T00171028
94889KARB ARB20160322072010703/22/16 07:20:31  5-MIN KARB 221220Z 19005KT 10SM OVC075 02/M03 A2993 830 72 -500 200/05 RMK AO2 T00171028
94889KARB ARB20160322072510703/22/16 07:25:31  5-MIN KARB 221225Z 19006KT 10SM OVC075 02/M02 A2993 830 72 -400 200/06 RMK AO2 T00221022
94889KARB ARB20160322073010703/22/16 07:30:31  5-MIN KARB 221230Z 20006KT 10SM OVC075 02/M02 A2993 830 72 -400 200/06 RMK AO2 T00221022
94889KARB ARB20160322073510703/22/16 07:35:31  5-MIN KARB 221235Z 21005KT 10SM OVC075 02/M02 A2994 830 72 -400 220/05 RMK AO2 T00221022
94889KARB ARB20160322074010703/22/16 07:40:31  5-MIN KARB 221240Z 21006KT 10SM OVC075 02/M02 A2993 830 72 -400 210/06 RMK AO2 T00221022
94889KARB ARB20160322074510703/22/16 07:45:31  5-MIN KARB 221245Z 20006KT 10SM OVC080 02/M02 A2993 840 72 -400 210/06 RMK AO2 T00221022
94889KARB ARB20160322075011403/22/16 07:50:31  5-MIN KARB 221250Z 20007KT 10SM OVC080 02/M02 A2993 840 75 -400 210/07 RMK AO2 SLP141 T00221017
94889KARB ARB20160322075510703/22/16 07:55:31  5-MIN KARB 221255Z 20006KT 10SM OVC080 03/M02 A2992 840 72 -300 200/06 RMK AO2 T00281017
94889KARB ARB20160322080010703/22/16 08:00:31  5-MIN KARB 221300Z 19007KT 10SM OVC080 03/M02 A2991 850 72 -300 200/07 RMK AO2 T00281017
94889KARB ARB20160322080510703/22/16 08:05:31  5-MIN KARB 221305Z 19007KT 10SM OVC080 03/M02 A2991 850 72 -300 200/07 RMK AO2 T00281017
94889KARB ARB20160322081010703/22/16 08:10:31  5-MIN KARB 221310Z 19007KT 10SM OVC080 03/M01 A2991 850 72 -300 200/07 RMK AO2 T00331011
94889KARB ARB20160322081510703/22/16 08:15:31  5-MIN KARB 221315Z 20010KT 10SM BKN080 03/M01 A2991 850 72 -300 210/10 RMK AO2 T00331011
94889KARB ARB20160322082010703/22/16 08:20:31  5-MIN KARB 221320Z 20008KT 10SM BKN080 03/M01 A2990 860 72 -300 210/08 RMK AO2 T00331011
94889KARB ARB20160322082510703/22/16 08:25:31  5-MIN KARB 221325Z 20008KT 10SM BKN080 04/M01 A2990 860 70 -200 210/08 RMK AO2 T00391011
94889KARB ARB20160322083010703/22/16 08:30:31  5-MIN KARB 221330Z 20008KT 10SM BKN080 04/M01 A2990 860 73 -200 210/08 RMK AO2 T00391006
94889KARB ARB20160322083510703/22/16 08:35:31  5-MIN KARB 221335Z 20010KT 10SM SCT080 04/M01 A2990 860 73 -200 210/10 RMK AO2 T00391006
94889KARB ARB20160322084010703/22/16 08:40:31  5-MIN KARB 221340Z 20010KT 10SM SCT080 04/M01 A2990 860 70 -100 210/10 RMK AO2 T00441006
94889KARB ARB20160322084510403/22/16 08:45:31  5-MIN KARB 221345Z 20011KT 10SM FEW080 05/M01 A2990 860 67 0 210/11 RMK AO2 T00501006
94889KARB ARB20160322085011403/22/16 08:50:31  5-MIN KARB 221350Z 21011KT 10SM FEW080 05/M01 A2990 860 67 -100 220/11 RMK AO2 SLP131 T00501006
94889KARB ARB20160322085510403/22/16 08:55:31  5-MIN KARB 221355Z 21011KT 10SM FEW080 05/M01 A2989 870 67 0 210/11 RMK AO2 T00501006
94889KARB ARB20160322090010103/22/16 09:00:31  5-MIN KARB 221400Z 20011KT 10SM CLR 05/M01 A2989 870 67 0 210/11 RMK AO2 T00501006
94889KARB ARB20160322090510303/22/16 09:05:31  5-MIN KARB 221405Z 21011KT 10SM FEW080 06/00 A2990 860 67 0 220/11 RMK AO2 T00560000
94889KARB ARB20160322091010303/22/16 09:10:31  5-MIN KARB 221410Z 21011KT 10SM SCT085 06/00 A2990 860 65 0 210/11 RMK AO2 T00610000
94889KARB ARB20160322091510503/22/16 09:15:31  5-MIN KARB 221415Z 22012KT 10SM BKN085 07/00 A2990 860 62 100 220/12 RMK AO2 T00670000
94889KARB ARB20160322092010503/22/16 09:20:31  5-MIN KARB 221420Z 22011KT 10SM BKN085 07/00 A2990 860 62 100 230/11 RMK AO2 T00670000
94889KARB ARB20160322092510603/22/16 09:25:31  5-MIN KARB 221425Z 22011KT 10SM BKN085 07/M01 A2989 870 60 100 220/11 RMK AO2 T00671006
94889KARB ARB20160322093011103/22/16 09:30:31  5-MIN KARB 221430Z 21010G17KT 10SM OVC085 07/00 A2989 870 60 200 220/10G17 RMK AO2 T00720000
94889KARB ARB20160322093511203/22/16 09:35:31  5-MIN KARB 221435Z 21014G17KT 10SM BKN085 08/M01 A2989 870 55 300 220/14G17 RMK AO2 T00781006
94889KARB ARB20160322094010503/22/16 09:40:31  5-MIN KARB 221440Z 23012KT 10SM BKN085 08/00 A2988 870 55 300 230/12 RMK AO2 T00830000
94889KARB ARB20160322094510503/22/16 09:45:31  5-MIN KARB 221445Z 22015KT 10SM BKN085 09/00 A2988 880 53 400 230/15 RMK AO2 T00890000
94889KARB ARB20160322095011803/22/16 09:50:31  5-MIN KARB 221450Z 22011KT 10SM BKN085 09/00 A2988 880 53 400 220/11 RMK AO2 SLP123 T00890000 56024
94889KARB ARB20160322095511203/22/16 09:55:31  5-MIN KARB 221455Z 22012G19KT 10SM SCT085 09/M01 A2988 880 51 400 230/12G19 RMK AO2 T00891006
94889KARB ARB20160322100011103/22/16 10:00:31  5-MIN KARB 221500Z 21010G19KT 10SM SCT085 09/00 A2988 880 53 400 210/10G19 RMK AO2 T00890000
94889KARB ARB20160322100511103/22/16 10:05:31  5-MIN KARB 221505Z 23013G17KT 10SM BKN085 09/00 A2988 880 51 500 240/13G17 RMK AO2 T00940000
94889KARB ARB20160322101011103/22/16 10:10:31  5-MIN KARB 221510Z 21012G17KT 10SM SCT085 10/00 A2987 880 49 500 220/12G17 RMK AO2 T01000000
94889KARB ARB20160322101510503/22/16 10:15:31  5-MIN KARB 221515Z 20012KT 10SM FEW085 10/00 A2987 890 49 500 200/12 RMK AO2 T01000000
94889KARB ARB20160322102010503/22/16 10:20:31  5-MIN KARB 221520Z 23012KT 10SM FEW085 10/00 A2987 890 49 500 230/12 RMK AO2 T01000000
94889KARB ARB20160322102510503/22/16 10:25:31  5-MIN KARB 221525Z 21011KT 10SM FEW085 11/00 A2986 890 46 700 220/11 RMK AO2 T01110000
94889KARB ARB20160322103011103/22/16 10:30:31  5-MIN KARB 221530Z 22013G19KT 10SM FEW085 11/00 A2986 900 48 600 230/13G19 RMK AO2 T01060000
94889KARB ARB20160322103510803/22/16 10:35:31  5-MIN KARB 221535Z 21014G19KT 10SM CLR 11/00 A2986 900 48 600 220/14G19 RMK AO2 T01060000
94889KARB ARB20160322104010803/22/16 10:40:31  5-MIN KARB 221540Z 20011G19KT 10SM CLR 11/00 A2986 900 48 600 210/11G19 RMK AO2 T01060000
94889KARB ARB20160322104510203/22/16 10:45:31  5-MIN KARB 221545Z 21010KT 10SM CLR 11/00 A2986 900 46 700 210/10 RMK AO2 T01110000
94889KARB ARB20160322105010903/22/16 10:50:31  5-MIN KARB 221550Z 22012KT 10SM CLR 11/00 A2985 910 46 700 230/12 RMK AO2 SLP113 T01110000
94889KARB ARB20160322105510803/22/16 10:55:31  5-MIN KARB 221555Z 20014G18KT 10SM CLR 11/00 A2985 910 46 700 200/14G18 RMK AO2 T01110000
94889KARB ARB20160322110010203/22/16 11:00:31  5-MIN KARB 221600Z 21012KT 10SM CLR 11/00 A2985 910 46 700 220/12 RMK AO2 T01110000
94889KARB ARB20160322110510203/22/16 11:05:31  5-MIN KARB 221605Z 21012KT 10SM CLR 12/00 A2985 910 44 800 220/12 RMK AO2 T01170000
94889KARB ARB20160322111010203/22/16 11:10:31  5-MIN KARB 221610Z 20014KT 10SM CLR 12/00 A2985 910 44 800 200/14 RMK AO2 T01170000
94889KARB ARB20160322111510203/22/16 11:15:31  5-MIN KARB 221615Z 21012KT 10SM CLR 11/00 A2985 910 46 700 220/12 RMK AO2 T01110000
94889KARB ARB20160322112010203/22/16 11:20:31  5-MIN KARB 221620Z 20014KT 10SM CLR 11/00 A2985 910 46 700 210/14 RMK AO2 T01110000
94889KARB ARB20160322112510803/22/16 11:25:31  5-MIN KARB 221625Z 20013G19KT 10SM CLR 11/00 A2985 910 46 700 210/13G19 RMK AO2 T01110000
94889KARB ARB20160322113010203/22/16 11:30:31  5-MIN KARB 221630Z 21011KT 10SM CLR 11/00 A2984 910 46 700 220/11 RMK AO2 T01110000
94889KARB ARB20160322113510803/22/16 11:35:31  5-MIN KARB 221635Z 21015G20KT 10SM CLR 11/00 A2984 910 46 700 210/15G20 RMK AO2 T01110000
94889KARB ARB20160322114010803/22/16 11:40:31  5-MIN KARB 221640Z 21014G20KT 10SM CLR 11/00 A2984 910 46 700 220/14G20 RMK AO2 T01110000
94889KARB ARB20160322114510803/22/16 11:45:31  5-MIN KARB 221645Z 21014G19KT 10SM CLR 11/00 A2984 910 46 700 220/14G19 RMK AO2 T01110000
94889KARB ARB20160322115010903/22/16 11:50:31  5-MIN KARB 221650Z 23014KT 10SM CLR 12/00 A2984 910 44 800 230/14 RMK AO2 SLP110 T01170000
94889KARB ARB20160322115510803/22/16 11:55:31  5-MIN KARB 221655Z 23015G21KT 10SM CLR 12/00 A2984 920 44 800 230/15G21 RMK AO2 T01170000
94889KARB ARB20160322120010803/22/16 12:00:31  5-MIN KARB 221700Z 23016G21KT 10SM CLR 11/00 A2984 920 46 700 230/16G21 RMK AO2 T01110000
94889KARB ARB20160322120510803/22/16 12:05:31  5-MIN KARB 221705Z 22014G22KT 10SM CLR 11/00 A2984 920 46 700 230/14G22 RMK AO2 T01110000
94889KARB ARB20160322121011103/22/16 12:10:31  5-MIN KARB 221710Z 22016G21KT 10SM FEW120 12/00 A2984 910 44 800 230/16G21 RMK AO2 T01170000
94889KARB ARB20160322121511103/22/16 12:15:31  5-MIN KARB 221715Z 22013G21KT 10SM FEW120 11/00 A2984 910 46 700 230/13G21 RMK AO2 T01110000
94889KARB ARB20160322122010203/22/16 12:20:31  5-MIN KARB 221720Z 22011KT 10SM CLR 11/00 A2984 910 46 700 230/11 RMK AO2 T01110000
94889KARB ARB20160322122510803/22/16 12:25:31  5-MIN KARB 221725Z 22013G21KT 10SM CLR 12/00 A2984 910 44 800 230/13G21 RMK AO2 T01170000
94889KARB ARB20160322123011103/22/16 12:30:31  5-MIN KARB 221730Z 23015G21KT 10SM FEW120 12/00 A2984 910 44 800 240/15G21 RMK AO2 T01170000
94889KARB ARB20160322123511103/22/16 12:35:31  5-MIN KARB 221735Z 22011G21KT 10SM FEW120 12/01 A2984 920 46 800 220/11G21 RMK AO2 T01170006
94889KARB ARB20160322124011103/22/16 12:40:31  5-MIN KARB 221740Z 23016G22KT 10SM FEW085 12/00 A2984 920 44 800 240/16G22 RMK AO2 T01170000
94889KARB ARB20160322124511803/22/16 12:45:31  5-MIN KARB 221745Z 24014G22KT 10SM FEW075 BKN090 12/00 A2984 920 44 800 250/14G22 RMK AO2 T01170000
94889KARB ARB20160322125013703/22/16 12:50:31  5-MIN KARB 221750Z 23013KT 10SM BKN080 BKN090 12/00 A2984 920 44 800 240/13 RMK AO2 SLP108 T01170000 10117 20011 58017
94889KARB ARB20160322125511803/22/16 12:55:31  5-MIN KARB 221755Z 23012G20KT 10SM BKN075 BKN090 12/00 A2984 920 44 800 240/12G20 RMK AO2 T01170000
94889KARB ARB20160322130011203/22/16 13:00:31  5-MIN KARB 221800Z 22012KT 10SM BKN070 OVC085 11/00 A2983 920 46 700 230/12 RMK AO2 T01110000
94889KARB ARB20160322130511203/22/16 13:05:31  5-MIN KARB 221805Z 21013KT 10SM BKN070 OVC085 12/00 A2983 930 44 800 220/13 RMK AO2 T01170000
94889KARB ARB20160322131011103/22/16 13:10:31  5-MIN KARB 221810Z 22011G20KT 10SM OVC070 12/00 A2982 930 44 800 230/11G20 RMK AO2 T01170000
94889KARB ARB20160322131511103/22/16 13:15:31  5-MIN KARB 221815Z 23010G20KT 10SM OVC070 12/00 A2982 940 44 800 230/10G20 RMK AO2 T01170000
94889KARB ARB20160322132011203/22/16 13:20:31  5-MIN KARB 221820Z 22011KT 10SM OVC070 12/01 A2981 940 44 900 220/11 RMK AO2 PRESFR T01220006
94889KARB ARB20160322132512603/22/16 13:25:31  5-MIN KARB 221825Z 21009KT 10SM BKN065 BKN080 BKN100 12/00 A2980 950 43 900 220/09 RMK AO2 PRESFR T01220000
94889KARB ARB20160322133011903/22/16 13:30:31  5-MIN KARB 221830Z 21011KT 10SM SCT070 BKN095 12/00 A2980 960 43 900 220/11 RMK AO2 PRESFR T01220000
94889KARB ARB20160322133511203/22/16 13:35:31  5-MIN KARB 221835Z 20011KT 10SM SCT070 BKN090 12/00 A2979 960 43 900 210/11 RMK AO2 T01220000
94889KARB ARB20160322134011303/22/16 13:40:31  5-MIN KARB 221840Z 22009KT 10SM FEW075 BKN095 13/01 A2979 960 43 1000 230/09 RMK AO2 T01280006
94889KARB ARB20160322134511303/22/16 13:45:31  5-MIN KARB 221845Z 21007KT 10SM FEW080 SCT095 13/01 A2979 970 43 1000 220/07 RMK AO2 T01280006
94889KARB ARB20160322135011303/22/16 13:50:31  5-MIN KARB 221850Z 21010KT 10SM BKN100 13/01 A2978 970 43 1000 220/10 RMK AO2 SLP089 T01280006
94889KARB ARB20160322135510603/22/16 13:55:31  5-MIN KARB 221855Z 22009KT 10SM BKN100 13/01 A2978 970 43 1000 230/09 RMK AO2 T01280006
94889KARB ARB20160322140010603/22/16 14:00:31  5-MIN KARB 221900Z 21008KT 10SM SCT100 13/01 A2978 970 43 1000 220/08 RMK AO2 T01280006
94889KARB ARB20160322140510603/22/16 14:05:31  5-MIN KARB 221905Z 20006KT 10SM SCT100 13/01 A2977 980 43 1000 210/06 RMK AO2 T01280006
94889KARB ARB20160322141010603/22/16 14:10:31  5-MIN KARB 221910Z 19007KT 10SM BKN100 13/01 A2977 980 43 1000 200/07 RMK AO2 T01280006
94889KARB ARB20160322141510603/22/16 14:15:31  5-MIN KARB 221915Z 22005KT 10SM BKN100 13/01 A2977 980 43 1100 220/05 RMK AO2 T01330011
94889KARB ARB20160322142010603/22/16 14:20:31  5-MIN KARB 221920Z 21006KT 10SM BKN100 13/01 A2977 990 41 1100 210/06 RMK AO2 T01330006
94889KARB ARB20160322142510603/22/16 14:25:31  5-MIN KARB 221925Z 22006KT 10SM OVC100 13/01 A2976 990 41 1100 220/06 RMK AO2 T01330006
94889KARB ARB20160322143010703/22/16 14:30:31  5-MIN KARB 221930Z 21009KT 10SM OVC100 14/01 A2975 1000 40 1100 220/09 RMK AO2 T01390006
94889KARB ARB20160322143511403/22/16 14:35:31  5-MIN KARB 221935Z 22008KT 10SM OVC100 14/01 A2975 1000 38 1200 230/08 RMK AO2 PRESFR T01440006
94889KARB ARB20160322144010703/22/16 14:40:31  5-MIN KARB 221940Z 23010KT 10SM OVC100 14/01 A2974 1000 38 1200 240/10 RMK AO2 T01440006
94889KARB ARB20160322144510703/22/16 14:45:31  5-MIN KARB 221945Z 22007KT 10SM OVC100 14/01 A2975 1000 40 1100 230/07 RMK AO2 T01390006
94889KARB ARB20160322145011403/22/16 14:50:31  5-MIN KARB 221950Z 22007KT 10SM OVC100 14/01 A2974 1000 41 1100 220/07 RMK AO2 SLP077 T01390011
94889KARB ARB20160322145510703/22/16 14:55:31  5-MIN KARB 221955Z 22008KT 10SM OVC100 14/01 A2974 1010 38 1200 230/08 RMK AO2 T01440006
94889KARB ARB20160322150010703/22/16 15:00:31  5-MIN KARB 222000Z 22010KT 10SM OVC100 14/01 A2974 1010 40 1200 230/10 RMK AO2 T01440011
94889KARB ARB20160322150511303/22/16 15:05:31  5-MIN KARB 222005Z 22013G17KT 10SM BKN100 16/01 A2974 1010 37 1400 220/13G17 RMK AO2 T01560011
94889KARB ARB20160322151010703/22/16 15:10:31  5-MIN KARB 222010Z 21010KT 10SM BKN100 16/01 A2973 1020 36 1400 220/10 RMK AO2 T01610011
94889KARB ARB20160322151511303/22/16 15:15:31  5-MIN KARB 222015Z 21014G23KT 10SM BKN100 16/01 A2972 1030 36 1400 220/14G23 RMK AO2 T01610011
94889KARB ARB20160322152011303/22/16 15:20:31  5-MIN KARB 222020Z 22014G24KT 10SM SCT100 16/01 A2972 1030 36 1400 230/14G24 RMK AO2 T01610011
94889KARB ARB20160322152511303/22/16 15:25:31  5-MIN KARB 222025Z 21010G24KT 10SM SCT110 16/01 A2972 1030 36 1400 220/10G24 RMK AO2 T01610011
94889KARB ARB20160322153011303/22/16 15:30:31  5-MIN KARB 222030Z 21015G22KT 10SM SCT110 16/01 A2972 1030 37 1400 220/15G22 RMK AO2 T01560011
94889KARB ARB20160322153511303/22/16 15:35:31  5-MIN KARB 222035Z 22011G25KT 10SM BKN120 16/01 A2972 1030 37 1400 220/11G25 RMK AO2 T01560011
94889KARB ARB20160322154011303/22/16 15:40:31  5-MIN KARB 222040Z 21008G25KT 10SM SCT110 16/01 A2971 1030 36 1400 220/08G25 RMK AO2 T01610011
94889KARB ARB20160322154511303/22/16 15:45:31  5-MIN KARB 222045Z 21014G19KT 10SM SCT110 16/01 A2971 1030 37 1400 220/14G19 RMK AO2 T01560011
94889KARB ARB20160322155012603/22/16 15:50:31  5-MIN KARB 222050Z 22016G23KT 10SM SCT110 16/01 A2971 1030 37 1400 220/16G23 RMK AO2 SLP066 T01560011 56013
94889KARB ARB20160322155511303/22/16 15:55:31  5-MIN KARB 222055Z 22014G23KT 10SM FEW120 16/01 A2971 1030 36 1400 220/14G23 RMK AO2 T01610011
94889KARB ARB20160322160011303/22/16 16:00:31  5-MIN KARB 222100Z 22013G22KT 10SM FEW120 16/01 A2971 1040 36 1400 220/13G22 RMK AO2 T01610011
94889KARB ARB20160322160511003/22/16 16:05:31  5-MIN KARB 222105Z 22015G23KT 10SM CLR 17/01 A2971 1040 34 1500 230/15G23 RMK AO2 T01670011
94889KARB ARB20160322161011003/22/16 16:10:31  5-MIN KARB 222110Z 22018G23KT 10SM CLR 17/01 A2971 1040 34 1500 230/18G23 RMK AO2 T01670011
94889KARB ARB20160322161511003/22/16 16:15:31  5-MIN KARB 222115Z 23018G23KT 10SM CLR 16/01 A2971 1040 36 1400 230/18G23 RMK AO2 T01610011
94889KARB ARB20160322162011003/22/16 16:20:31  5-MIN KARB 222120Z 21014G25KT 10SM CLR 16/01 A2971 1040 36 1500 220/14G25 RMK AO2 T01610011
94889KARB ARB20160322162511003/22/16 16:25:31  5-MIN KARB 222125Z 21012G25KT 10SM CLR 16/01 A2970 1040 36 1500 220/12G25 RMK AO2 T01610011
94889KARB ARB20160322163011003/22/16 16:30:31  5-MIN KARB 222130Z 21016G22KT 10SM CLR 17/01 A2970 1040 34 1500 220/16G22 RMK AO2 T01670011
94889KARB ARB20160322163511003/22/16 16:35:31  5-MIN KARB 222135Z 20018G25KT 10SM CLR 17/01 A2970 1050 34 1500 210/18G25 RMK AO2 T01670011
94889KARB ARB20160322164011003/22/16 16:40:31  5-MIN KARB 222140Z 22016G25KT 10SM CLR 16/01 A2970 1050 36 1500 230/16G25 RMK AO2 T01610011
94889KARB ARB20160322164511003/22/16 16:45:31  5-MIN KARB 222145Z 22017G23KT 10SM CLR 16/01 A2970 1050 36 1500 230/17G23 RMK AO2 T01610011
94889KARB ARB20160322165011703/22/16 16:50:31  5-MIN KARB 222150Z 22013G23KT 10SM CLR 17/02 A2970 1050 36 1500 220/13G23 RMK AO2 SLP060 T01670017
94889KARB ARB20160322165511003/22/16 16:55:31  5-MIN KARB 222155Z 22014G21KT 10SM CLR 17/01 A2970 1050 34 1500 230/14G21 RMK AO2 T01670011
94889KARB ARB20160322170011003/22/16 17:00:31  5-MIN KARB 222200Z 23012G22KT 10SM CLR 16/01 A2970 1050 36 1500 240/12G22 RMK AO2 T01610011
94889KARB ARB20160322170511003/22/16 17:05:31  5-MIN KARB 222205Z 22013G22KT 10SM CLR 16/01 A2970 1050 36 1500 230/13G22 RMK AO2 T01610011
94889KARB ARB20160322171011003/22/16 17:10:31  5-MIN KARB 222210Z 22012G17KT 10SM CLR 16/01 A2970 1050 36 1500 220/12G17 RMK AO2 T01610011
94889KARB ARB20160322171511003/22/16 17:15:31  5-MIN KARB 222215Z 23016G20KT 10SM CLR 16/02 A2970 1050 37 1500 240/16G20 RMK AO2 T01610017
94889KARB ARB20160322172011003/22/16 17:20:31  5-MIN KARB 222220Z 22018G25KT 10SM CLR 16/01 A2970 1050 36 1500 220/18G25 RMK AO2 T01610011
94889KARB ARB20160322172511003/22/16 17:25:31  5-MIN KARB 222225Z 23013G25KT 10SM CLR 16/02 A2970 1050 37 1500 230/13G25 RMK AO2 T01610017
94889KARB ARB20160322173011003/22/16 17:30:31  5-MIN KARB 222230Z 23015G22KT 10SM CLR 16/02 A2970 1050 37 1500 230/15G22 RMK AO2 T01610017
94889KARB ARB20160322173511003/22/16 17:35:31  5-MIN KARB 222235Z 23014G22KT 10SM CLR 17/02 A2970 1050 36 1500 240/14G22 RMK AO2 T01670017
94889KARB ARB20160322174011003/22/16 17:40:31  5-MIN KARB 222240Z 22013G22KT 10SM CLR 16/02 A2970 1050 37 1500 220/13G22 RMK AO2 T01610017
94889KARB ARB20160322174511003/22/16 17:45:31  5-MIN KARB 222245Z 22016G22KT 10SM CLR 16/01 A2970 1050 36 1500 230/16G22 RMK AO2 T01610011
94889KARB ARB20160322175013503/22/16 17:50:31  5-MIN KARB 222250Z 21017G27KT 10SM CLR 16/01 A2970 1040 37 1400 220/17G27 RMK AO2 PK WND 22027/2247 SLP060 T01560011
94889KARB ARB20160322175511003/22/16 17:55:31  5-MIN KARB 222255Z 22016G27KT 10SM CLR 16/01 A2970 1040 37 1400 230/16G27 RMK AO2 T01560011
94889KARB ARB20160322180011003/22/16 18:00:31  5-MIN KARB 222300Z 23015G23KT 10SM CLR 16/01 A2971 1040 37 1400 230/15G23 RMK AO2 T01560011
94889KARB ARB20160322180511003/22/16 18:05:31  5-MIN KARB 222305Z 23013G23KT 10SM CLR 16/01 A2971 1040 37 1400 240/13G23 RMK AO2 T01560011
94889KARB ARB20160322181010403/22/16 18:10:31  5-MIN KARB 222310Z 22012KT 10SM CLR 15/02 A2971 1040 40 1300 230/12 RMK AO2 T01500017
94889KARB ARB20160322181510403/22/16 18:15:31  5-MIN KARB 222315Z 22014KT 10SM CLR 15/02 A2971 1030 40 1300 230/14 RMK AO2 T01500017
94889KARB ARB20160322182011003/22/16 18:20:31  5-MIN KARB 222320Z 23014G24KT 10SM CLR 15/02 A2972 1030 40 1300 240/14G24 RMK AO2 T01500017
94889KARB ARB20160322182511003/22/16 18:25:31  5-MIN KARB 222325Z 22012G24KT 10SM CLR 14/02 A2972 1030 41 1200 230/12G24 RMK AO2 T01440017
94889KARB ARB20160322183011003/22/16 18:30:31  5-MIN KARB 222330Z 22013G20KT 10SM CLR 14/02 A2972 1020 41 1200 230/13G20 RMK AO2 T01440017
94889KARB ARB20160322183510403/22/16 18:35:31  5-MIN KARB 222335Z 22011KT 10SM CLR 14/02 A2973 1020 41 1200 230/11 RMK AO2 T01440017
94889KARB ARB20160322184011003/22/16 18:40:31  5-MIN KARB 222340Z 22010G20KT 10SM CLR 14/02 A2973 1020 41 1200 230/10G20 RMK AO2 T01440017
94889KARB ARB20160322184511003/22/16 18:45:31  5-MIN KARB 222345Z 23010G20KT 10SM CLR 14/02 A2973 1020 43 1200 240/10G20 RMK AO2 T01390017
94889KARB ARB20160322185013403/22/16 18:50:31  5-MIN KARB 222350Z AUTO 23011KT 10SM CLR 14/02 A2973 1020 43 1200 230/11 RMK AO2 SLP070 T01390017 10167 20111 56041
94889KARB ARB20160322185510903/22/16 18:55:31  5-MIN KARB 222355Z AUTO 22010KT 10SM CLR 14/02 A2973 1020 43 1200 230/10 RMK AO2 T01390017
94889KARB ARB20160322190010903/22/16 19:00:31  5-MIN KARB 230000Z AUTO 22007KT 10SM CLR 13/02 A2973 1020 45 1100 230/07 RMK AO2 T01330017
94889KARB ARB20160322190510903/22/16 19:05:31  5-MIN KARB 230005Z AUTO 22007KT 10SM CLR 13/02 A2973 1020 45 1100 230/07 RMK AO2 T01330017
94889KARB ARB20160322191010903/22/16 19:10:31  5-MIN KARB 230010Z AUTO 22006KT 10SM CLR 13/02 A2973 1020 45 1100 230/06 RMK AO2 T01330017
94889KARB ARB20160322191510903/22/16 19:15:31  5-MIN KARB 230015Z AUTO 21006KT 10SM CLR 13/02 A2972 1020 46 1000 220/06 RMK AO2 T01280017
94889KARB ARB20160322192010903/22/16 19:20:31  5-MIN KARB 230020Z AUTO 22006KT 10SM CLR 13/02 A2972 1030 46 1000 220/06 RMK AO2 T01280017
94889KARB ARB20160322192510903/22/16 19:25:31  5-MIN KARB 230025Z AUTO 22006KT 10SM CLR 13/02 A2972 1020 45 1100 220/06 RMK AO2 T01330017
94889KARB ARB20160322193010903/22/16 19:30:31  5-MIN KARB 230030Z AUTO 21006KT 10SM CLR 13/02 A2972 1020 46 1000 220/06 RMK AO2 T01280017
94889KARB ARB20160322193510903/22/16 19:35:31  5-MIN KARB 230035Z AUTO 22005KT 10SM CLR 13/02 A2973 1020 46 1000 230/05 RMK AO2 T01280017
94889KARB ARB20160322194010903/22/16 19:40:31  5-MIN KARB 230040Z AUTO 21005KT 10SM CLR 12/02 A2973 1020 48 1000 220/05 RMK AO2 T01220017
94889KARB ARB20160322194510903/22/16 19:45:31  5-MIN KARB 230045Z AUTO 22004KT 10SM CLR 12/02 A2973 1020 48 1000 220/04 RMK AO2 T01220017
94889KARB ARB20160322195011603/22/16 19:50:31  5-MIN KARB 230050Z AUTO 21005KT 10SM CLR 12/02 A2973 1020 48 1000 220/05 RMK AO2 SLP070 T01220017
94889KARB ARB20160322195510903/22/16 19:55:31  5-MIN KARB 230055Z AUTO 21005KT 10SM CLR 12/02 A2973 1020 48 1000 220/05 RMK AO2 T01220017
94889KARB ARB20160322200010903/22/16 20:00:31  5-MIN KARB 230100Z AUTO 20004KT 10SM CLR 12/02 A2973 1020 48 1000 210/04 RMK AO2 T01220017
94889KARB ARB20160322200510803/22/16 20:05:31  5-MIN KARB 230105Z AUTO 21004KT 10SM CLR 12/02 A2973 1020 50 900 220/04 RMK AO2 T01170017
94889KARB ARB20160322201010803/22/16 20:10:31  5-MIN KARB 230110Z AUTO 22005KT 10SM CLR 12/02 A2973 1020 50 900 220/05 RMK AO2 T01170017
94889KARB ARB20160322201510803/22/16 20:15:31  5-MIN KARB 230115Z AUTO 21004KT 10SM CLR 11/02 A2973 1020 52 800 220/04 RMK AO2 T01110017
94889KARB ARB20160322202010803/22/16 20:20:31  5-MIN KARB 230120Z AUTO 20004KT 10SM CLR 11/02 A2973 1020 54 800 210/04 RMK AO2 T01060017
94889KARB ARB20160322202510803/22/16 20:25:31  5-MIN KARB 230125Z AUTO 19003KT 10SM CLR 09/02 A2973 1010 58 600 200/03 RMK AO2 T00940017
94889KARB ARB20160322203010803/22/16 20:30:31  5-MIN KARB 230130Z AUTO 20003KT 10SM CLR 09/01 A2974 1010 56 600 210/03 RMK AO2 T00940011
94889KARB ARB20160322203510803/22/16 20:35:31  5-MIN KARB 230135Z AUTO 20004KT 10SM CLR 09/02 A2974 1010 58 600 210/04 RMK AO2 T00940017
94889KARB ARB20160322204010803/22/16 20:40:31  5-MIN KARB 230140Z AUTO 20004KT 10SM CLR 09/02 A2974 1010 58 600 210/04 RMK AO2 T00940017
94889KARB ARB20160322204510803/22/16 20:45:31  5-MIN KARB 230145Z AUTO 20003KT 10SM CLR 10/02 A2974 1010 56 700 210/03 RMK AO2 T01000017
94889KARB ARB20160322205011503/22/16 20:50:31  5-MIN KARB 230150Z AUTO 21003KT 10SM CLR 09/02 A2974 1010 58 600 210/03 RMK AO2 SLP073 T00940017
94889KARB ARB20160322205510803/22/16 20:55:31  5-MIN KARB 230155Z AUTO 20004KT 10SM CLR 09/02 A2974 1010 58 600 210/04 RMK AO2 T00940017
94889KARB ARB20160322210010803/22/16 21:00:31  5-MIN KARB 230200Z AUTO 20003KT 10SM CLR 09/02 A2974 1010 60 600 210/03 RMK AO2 T00890017
94889KARB ARB20160322210510803/22/16 21:05:31  5-MIN KARB 230205Z AUTO 20004KT 10SM CLR 08/02 A2974 1010 63 500 210/04 RMK AO2 T00830017
94889KARB ARB20160322211010803/22/16 21:10:31  5-MIN KARB 230210Z AUTO 20004KT 10SM CLR 08/02 A2974 1010 63 500 210/04 RMK AO2 T00830017
94889KARB ARB20160322211510803/22/16 21:15:31  5-MIN KARB 230215Z AUTO 20004KT 10SM CLR 08/02 A2974 1010 63 500 210/04 RMK AO2 T00830017
94889KARB ARB20160322212010803/22/16 21:20:31  5-MIN KARB 230220Z AUTO 21004KT 10SM CLR 08/02 A2974 1010 63 500 220/04 RMK AO2 T00830017
94889KARB ARB20160322212510803/22/16 21:25:31  5-MIN KARB 230225Z AUTO 20004KT 10SM CLR 09/02 A2974 1010 58 600 210/04 RMK AO2 T00940017
94889KARB ARB20160322213010803/22/16 21:30:31  5-MIN KARB 230230Z AUTO 20005KT 10SM CLR 10/02 A2974 1010 56 700 210/05 RMK AO2 T01000017
94889KARB ARB20160322213510803/22/16 21:35:31  5-MIN KARB 230235Z AUTO 21005KT 10SM CLR 10/02 A2974 1010 58 700 220/05 RMK AO2 T01000022
94889KARB ARB20160322214010803/22/16 21:40:31  5-MIN KARB 230240Z AUTO 22006KT 10SM CLR 11/02 A2974 1010 56 800 220/06 RMK AO2 T01060022
94889KARB ARB20160322214510803/22/16 21:45:31  5-MIN KARB 230245Z AUTO 22006KT 10SM CLR 11/02 A2974 1010 56 800 230/06 RMK AO2 T01060022
94889KARB ARB20160322215012103/22/16 21:50:31  5-MIN KARB 230250Z AUTO 22006KT 10SM CLR 11/02 A2974 1010 56 800 220/06 RMK AO2 SLP073 T01060022 53005
94889KARB ARB20160322215510803/22/16 21:55:31  5-MIN KARB 230255Z AUTO 22006KT 10SM CLR 11/02 A2974 1010 56 800 230/06 RMK AO2 T01060022
94889KARB ARB20160322220010803/22/16 22:00:31  5-MIN KARB 230300Z AUTO 22006KT 10SM CLR 11/02 A2974 1000 56 800 230/06 RMK AO2 T01060022
94889KARB ARB20160322220510803/22/16 22:05:31  5-MIN KARB 230305Z AUTO 23007KT 10SM CLR 11/02 A2974 1000 56 800 230/07 RMK AO2 T01060022
94889KARB ARB20160322221010803/22/16 22:10:31  5-MIN KARB 230310Z AUTO 22007KT 10SM CLR 11/02 A2975 1000 56 800 230/07 RMK AO2 T01060022
94889KARB ARB20160322221510803/22/16 22:15:31  5-MIN KARB 230315Z AUTO 22007KT 10SM CLR 11/02 A2975 1000 56 800 230/07 RMK AO2 T01060022
94889KARB ARB20160322222010803/22/16 22:20:31  5-MIN KARB 230320Z AUTO 22007KT 10SM CLR 11/02 A2975 1000 56 800 230/07 RMK AO2 T01060022
94889KARB ARB20160322222510803/22/16 22:25:31  5-MIN KARB 230325Z AUTO 22007KT 10SM CLR 11/03 A2975 1000 58 700 230/07 RMK AO2 T01060028
94889KARB ARB20160322223010803/22/16 22:30:31  5-MIN KARB 230330Z AUTO 22007KT 10SM CLR 11/03 A2975 1000 56 800 230/07 RMK AO2 T01110028
94889KARB ARB20160322223510803/22/16 22:35:31  5-MIN KARB 230335Z AUTO 22006KT 10SM CLR 11/03 A2975 1000 58 700 230/06 RMK AO2 T01060028
94889KARB ARB20160322224010803/22/16 22:40:31  5-MIN KARB 230340Z AUTO 23006KT 10SM CLR 11/03 A2975 1000 58 700 230/06 RMK AO2 T01060028
94889KARB ARB20160322224510803/22/16 22:45:31  5-MIN KARB 230345Z AUTO 21005KT 10SM CLR 11/03 A2975 1000 58 700 220/05 RMK AO2 T01060028
94889KARB ARB20160322225011503/22/16 22:50:31  5-MIN KARB 230350Z AUTO 23005KT 10SM CLR 11/03 A2975 1000 56 800 230/05 RMK AO2 SLP075 T01110028
94889KARB ARB20160322225510803/22/16 22:55:31  5-MIN KARB 230355Z AUTO 23006KT 10SM CLR 11/03 A2975 1000 58 700 230/06 RMK AO2 T01060028
94889KARB ARB20160322230010803/22/16 23:00:31  5-MIN KARB 230400Z AUTO 22007KT 10SM CLR 11/03 A2975 1000 58 700 230/07 RMK AO2 T01060028
94889KARB ARB20160322230510803/22/16 23:05:31  5-MIN KARB 230405Z AUTO 22006KT 10SM CLR 11/03 A2975 1000 56 800 230/06 RMK AO2 T01110028
94889KARB ARB20160322231010803/22/16 23:10:31  5-MIN KARB 230410Z AUTO 22006KT 10SM CLR 11/03 A2975 1000 56 800 220/06 RMK AO2 T01110028
94889KARB ARB20160322231510803/22/16 23:15:31  5-MIN KARB 230415Z AUTO 22008KT 10SM CLR 11/03 A2975 1000 58 700 220/08 RMK AO2 T01060028
94889KARB ARB20160322232010803/22/16 23:20:31  5-MIN KARB 230420Z AUTO 22007KT 10SM CLR 11/03 A2975 1000 56 800 230/07 RMK AO2 T01110028
94889KARB ARB20160322232510803/22/16 23:25:31  5-MIN KARB 230425Z AUTO 22007KT 10SM CLR 11/03 A2975 1000 56 800 230/07 RMK AO2 T01110028
94889KARB ARB20160322233010803/22/16 23:30:31  5-MIN KARB 230430Z AUTO 22007KT 10SM CLR 12/03 A2975 1000 54 900 230/07 RMK AO2 T01170028
94889KARB ARB20160322233510803/22/16 23:35:31  5-MIN KARB 230435Z AUTO 22007KT 10SM CLR 11/03 A2975 1000 56 800 230/07 RMK AO2 T01110028
94889KARB ARB20160322234010803/22/16 23:40:31  5-MIN KARB 230440Z AUTO 23008KT 10SM CLR 11/03 A2975 1000 56 800 240/08 RMK AO2 T01110028
94889KARB ARB20160322234510803/22/16 23:45:31  5-MIN KARB 230445Z AUTO 22009KT 10SM CLR 12/03 A2975 1000 54 900 230/09 RMK AO2 T01170028
94889KARB ARB20160322235012503/22/16 23:50:31  5-MIN KARB 230450Z AUTO 22008KT 10SM CLR 12/03 A2975 1000 54 900 220/08 RMK AO2 SLP074 T01170028 401671033
94889KARB ARB20160322235510803/22/16 23:55:31  5-MIN KARB 230455Z AUTO 21008KT 10SM CLR 12/03 A2975 1000 54 900 220/08 RMK AO2 T01170028
94889KARB ARB20160323000010803/23/16 00:00:31  5-MIN KARB 230500Z AUTO 22007KT 10SM CLR 12/03 A2975 1000 54 900 230/07 RMK AO2 T01170028
94889KARB ARB20160323000510803/23/16 00:05:31  5-MIN KARB 230505Z AUTO 22007KT 10SM CLR 11/03 A2975 1000 56 800 230/07 RMK AO2 T01110028
94889KARB ARB20160323001010803/23/16 00:10:31  5-MIN KARB 230510Z AUTO 23006KT 10SM CLR 11/03 A2975 1000 56 800 230/06 RMK AO2 T01110028
94889KARB ARB20160323001510803/23/16 00:15:31  5-MIN KARB 230515Z AUTO 22007KT 10SM CLR 11/03 A2975 1000 56 800 230/07 RMK AO2 T01110028
94889KARB ARB20160323002010803/23/16 00:20:31  5-MIN KARB 230520Z AUTO 22007KT 10SM CLR 11/03 A2975 1000 56 800 230/07 RMK AO2 T01110028
94889KARB ARB20160323002510803/23/16 00:25:31  5-MIN KARB 230525Z AUTO 22007KT 10SM CLR 11/03 A2975 1000 56 800 230/07 RMK AO2 T01110028
94889KARB ARB20160323003010803/23/16 00:30:31  5-MIN KARB 230530Z AUTO 22007KT 10SM CLR 11/03 A2975 1000 56 800 230/07 RMK AO2 T01110028
94889KARB ARB20160323003510803/23/16 00:35:31  5-MIN KARB 230535Z AUTO 22006KT 10SM CLR 11/03 A2975 1000 56 800 230/06 RMK AO2 T01110028
94889KARB ARB20160323004010703/23/16 00:40:31  5-MIN KARB 230540Z AUTO 22006KT 10SM CLR 11/02 A2975 990 56 700 230/06 RMK AO2 T01060022
94889KARB ARB20160323004510703/23/16 00:45:31  5-MIN KARB 230545Z AUTO 22006KT 10SM CLR 11/02 A2976 990 56 700 230/06 RMK AO2 T01060022
94889KARB ARB20160323005013203/23/16 00:50:31  5-MIN KARB 230550Z AUTO 22006KT 10SM CLR 11/03 A2976 990 58 700 230/06 RMK AO2 SLP078 T01060028 10139 20078 53005
94889KARB ARB20160323005510703/23/16 00:55:31  5-MIN KARB 230555Z AUTO 22006KT 10SM CLR 11/03 A2976 990 58 700 230/06 RMK AO2 T01060028
94889KARB ARB20160323010010703/23/16 01:00:31  5-MIN KARB 230600Z AUTO 23006KT 10SM CLR 11/03 A2976 990 58 700 230/06 RMK AO2 T01060028
94889KARB ARB20160323010510703/23/16 01:05:31  5-MIN KARB 230605Z AUTO 22006KT 10SM CLR 10/03 A2976 990 60 700 230/06 RMK AO2 T01000028
94889KARB ARB20160323011010703/23/16 01:10:31  5-MIN KARB 230610Z AUTO 22006KT 10SM CLR 10/02 A2976 990 58 700 230/06 RMK AO2 T01000022
94889KARB ARB20160323011510703/23/16 01:15:31  5-MIN KARB 230615Z AUTO 22005KT 10SM CLR 09/02 A2976 990 60 600 220/05 RMK AO2 T00940022
94889KARB ARB20160323012010703/23/16 01:20:31  5-MIN KARB 230620Z AUTO 22005KT 10SM CLR 10/02 A2976 990 58 700 220/05 RMK AO2 T01000022
94889KARB ARB20160323012510703/23/16 01:25:31  5-MIN KARB 230625Z AUTO 22005KT 10SM CLR 10/02 A2976 990 58 700 230/05 RMK AO2 T01000022
94889KARB ARB20160323013010703/23/16 01:30:31  5-MIN KARB 230630Z AUTO 22006KT 10SM CLR 10/02 A2977 980 58 700 230/06 RMK AO2 T01000022
94889KARB ARB20160323013510703/23/16 01:35:31  5-MIN KARB 230635Z AUTO 22006KT 10SM CLR 10/02 A2977 980 58 700 220/06 RMK AO2 T01000022
94889KARB ARB20160323014010703/23/16 01:40:31  5-MIN KARB 230640Z AUTO 21006KT 10SM CLR 10/02 A2977 980 58 700 220/06 RMK AO2 T01000022
94889KARB ARB20160323014510703/23/16 01:45:31  5-MIN KARB 230645Z AUTO 22006KT 10SM CLR 10/02 A2977 980 58 700 230/06 RMK AO2 T01000022
94889KARB ARB20160323015011403/23/16 01:50:31  5-MIN KARB 230650Z AUTO 22005KT 10SM CLR 10/02 A2977 980 58 700 230/05 RMK AO2 SLP082 T01000022
94889KARB ARB20160323015510703/23/16 01:55:31  5-MIN KARB 230655Z AUTO 22006KT 10SM CLR 10/02 A2977 980 58 600 230/06 RMK AO2 T01000022
94889KARB ARB20160323020010703/23/16 02:00:31  5-MIN KARB 230700Z AUTO 23005KT 10SM CLR 09/02 A2978 970 60 600 240/05 RMK AO2 T00940022
94889KARB ARB20160323020510703/23/16 02:05:31  5-MIN KARB 230705Z AUTO 26003KT 10SM CLR 09/02 A2978 970 63 500 260/03 RMK AO2 T00890022
94889KARB ARB20160323021010703/23/16 02:10:31  5-MIN KARB 230710Z AUTO 28004KT 10SM CLR 09/02 A2978 970 63 500 290/04 RMK AO2 T00890022
94889KARB ARB20160323021510703/23/16 02:15:31  5-MIN KARB 230715Z AUTO 32005KT 10SM CLR 09/02 A2978 970 60 600 330/05 RMK AO2 T00940022
94889KARB ARB20160323022010703/23/16 02:20:31  5-MIN KARB 230720Z AUTO 30003KT 10SM CLR 09/02 A2978 970 60 600 300/03 RMK AO2 T00940022
94889KARB ARB20160323022510703/23/16 02:25:31  5-MIN KARB 230725Z AUTO 26004KT 10SM CLR 09/02 A2978 970 60 600 270/04 RMK AO2 T00940022
94889KARB ARB20160323023011003/23/16 02:30:31  5-MIN KARB 230730Z AUTO 23004KT 10SM FEW060 08/02 A2978 970 65 400 240/04 RMK AO2 T00830022
94889KARB ARB20160323023510703/23/16 02:35:31  5-MIN KARB 230735Z AUTO 24003KT 10SM CLR 09/02 A2978 980 63 500 250/03 RMK AO2 T00890022
94889KARB ARB20160323024010703/23/16 02:40:31  5-MIN KARB 230740Z AUTO 24004KT 10SM CLR 08/02 A2978 980 65 400 250/04 RMK AO2 T00830022
94889KARB ARB20160323024510703/23/16 02:45:31  5-MIN KARB 230745Z AUTO 24003KT 10SM CLR 07/02 A2978 970 70 300 250/03 RMK AO2 T00720022
94889KARB ARB20160323025011403/23/16 02:50:31  5-MIN KARB 230750Z AUTO 25003KT 10SM CLR 07/02 A2978 970 73 200 260/03 RMK AO2 SLP085 T00670022
94889KARB ARB20160323025510703/23/16 02:55:31  5-MIN KARB 230755Z AUTO 24004KT 10SM CLR 08/02 A2978 970 65 400 250/04 RMK AO2 T00830022
94889KARB ARB20160323030010703/23/16 03:00:31  5-MIN KARB 230800Z AUTO 24004KT 10SM CLR 08/02 A2978 980 68 400 250/04 RMK AO2 T00780022
94889KARB ARB20160323030510703/23/16 03:05:31  5-MIN KARB 230805Z AUTO 25004KT 10SM CLR 07/02 A2978 980 70 300 260/04 RMK AO2 T00720022
94889KARB ARB20160323031010703/23/16 03:10:31  5-MIN KARB 230810Z AUTO 25004KT 10SM CLR 07/02 A2978 970 70 300 260/04 RMK AO2 T00720022
94889KARB ARB20160323031510703/23/16 03:15:31  5-MIN KARB 230815Z AUTO 26004KT 10SM CLR 07/02 A2978 970 70 300 260/04 RMK AO2 T00720022
94889KARB ARB20160323032010703/23/16 03:20:31  5-MIN KARB 230820Z AUTO 25004KT 10SM CLR 07/02 A2978 970 70 300 260/04 RMK AO2 T00720022
94889KARB ARB20160323032510703/23/16 03:25:31  5-MIN KARB 230825Z AUTO 23004KT 10SM CLR 07/02 A2977 980 70 300 240/04 RMK AO2 T00720022
94889KARB ARB20160323033010703/23/16 03:30:31  5-MIN KARB 230830Z AUTO 23004KT 10SM CLR 08/02 A2978 970 68 400 240/04 RMK AO2 T00780022
94889KARB ARB20160323033510703/23/16 03:35:31  5-MIN KARB 230835Z AUTO 23005KT 10SM CLR 08/02 A2978 970 68 400 240/05 RMK AO2 T00780022
94889KARB ARB20160323034010703/23/16 03:40:31  5-MIN KARB 230840Z AUTO 24005KT 10SM CLR 08/02 A2978 970 65 400 240/05 RMK AO2 T00830022
94889KARB ARB20160323034510703/23/16 03:45:31  5-MIN KARB 230845Z AUTO 24005KT 10SM CLR 08/02 A2978 970 65 400 250/05 RMK AO2 T00830022
94889KARB ARB20160323035012003/23/16 03:50:31  5-MIN KARB 230850Z AUTO 24005KT 10SM CLR 08/02 A2978 970 65 400 250/05 RMK AO2 SLP086 T00830022 53004
94889KARB ARB20160323035510703/23/16 03:55:31  5-MIN KARB 230855Z AUTO 25005KT 10SM CLR 09/02 A2979 970 63 500 250/05 RMK AO2 T00890022
94889KARB ARB20160323040010703/23/16 04:00:31  5-MIN KARB 230900Z AUTO 25005KT 10SM CLR 09/02 A2979 970 63 500 260/05 RMK AO2 T00890022
94889KARB ARB20160323040510703/23/16 04:05:31  5-MIN KARB 230905Z AUTO 25005KT 10SM CLR 08/02 A2979 960 65 400 260/05 RMK AO2 T00830022
94889KARB ARB20160323041010703/23/16 04:10:31  5-MIN KARB 230910Z AUTO 25006KT 10SM CLR 08/02 A2979 960 65 400 260/06 RMK AO2 T00830022
94889KARB ARB20160323041510703/23/16 04:15:31  5-MIN KARB 230915Z AUTO 26005KT 10SM CLR 08/02 A2979 960 65 400 270/05 RMK AO2 T00830022
94889KARB ARB20160323042010703/23/16 04:20:31  5-MIN KARB 230920Z AUTO 27005KT 10SM CLR 08/03 A2979 960 68 400 280/05 RMK AO2 T00830028
94889KARB ARB20160323042510703/23/16 04:25:31  5-MIN KARB 230925Z AUTO 30004KT 10SM CLR 09/02 A2980 960 63 500 310/04 RMK AO2 T00890022
94889KARB ARB20160323043010703/23/16 04:30:31  5-MIN KARB 230930Z AUTO 34006KT 10SM CLR 09/02 A2980 950 60 600 350/06 RMK AO2 T00940022
94889KARB ARB20160323043510703/23/16 04:35:31  5-MIN KARB 230935Z AUTO 35005KT 10SM CLR 09/02 A2980 950 63 500 360/05 RMK AO2 T00890022
94889KARB ARB20160323044010703/23/16 04:40:31  5-MIN KARB 230940Z AUTO 35004KT 10SM CLR 09/02 A2981 950 63 500 360/04 RMK AO2 T00890022
94889KARB ARB20160323044510703/23/16 04:45:31  5-MIN KARB 230945Z AUTO 00000KT 10SM CLR 09/02 A2980 950 60 500 000/00 RMK AO2 T00940022
94889KARB ARB20160323045011403/23/16 04:50:31  5-MIN KARB 230950Z AUTO 36005KT 10SM CLR 09/02 A2981 940 63 500 360/05 RMK AO2 SLP095 T00890022
94889KARB ARB20160323045510703/23/16 04:55:31  5-MIN KARB 230955Z AUTO 36005KT 10SM CLR 09/02 A2981 940 60 500 010/05 RMK AO2 T00940022
94889KARB ARB20160323050010703/23/16 05:00:31  5-MIN KARB 231000Z AUTO 36005KT 10SM CLR 09/03 A2982 940 65 500 010/05 RMK AO2 T00890028
94889KARB ARB20160323050510703/23/16 05:05:31  5-MIN KARB 231005Z AUTO 02005KT 10SM CLR 08/03 A2982 940 68 400 030/05 RMK AO2 T00830028
94889KARB ARB20160323051010703/23/16 05:10:31  5-MIN KARB 231010Z AUTO 02006KT 10SM CLR 08/03 A2982 930 68 400 030/06 RMK AO2 T00830028
94889KARB ARB20160323051510703/23/16 05:15:31  5-MIN KARB 231015Z AUTO 02006KT 10SM CLR 08/03 A2982 930 68 400 030/06 RMK AO2 T00830028
94889KARB ARB20160323052010703/23/16 05:20:31  5-MIN KARB 231020Z AUTO 02007KT 10SM CLR 08/03 A2983 930 70 400 020/07 RMK AO2 T00830033
94889KARB ARB20160323052510703/23/16 05:25:31  5-MIN KARB 231025Z AUTO 02008KT 10SM CLR 08/03 A2983 930 70 400 030/08 RMK AO2 T00830033
94889KARB ARB20160323053010703/23/16 05:30:31  5-MIN KARB 231030Z AUTO 03008KT 10SM CLR 08/03 A2983 930 73 300 030/08 RMK AO2 T00780033
94889KARB ARB20160323053510703/23/16 05:35:31  5-MIN KARB 231035Z AUTO 04007KT 10SM CLR 08/03 A2983 920 73 300 050/07 RMK AO2 T00780033
94889KARB ARB20160323054010703/23/16 05:40:31  5-MIN KARB 231040Z AUTO 04008KT 10SM CLR 08/03 A2984 920 73 300 050/08 RMK AO2 T00780033
94889KARB ARB20160323054510703/23/16 05:45:31  5-MIN KARB 231045Z AUTO 03006KT 10SM CLR 07/03 A2984 910 76 200 040/06 RMK AO2 T00720033
94889KARB ARB20160323055011703/23/16 05:50:31  5-MIN KARB 231050Z AUTO 03008KT 10SM FEW090 07/03 A2984 910 76 200 040/08 RMK AO2 SLP107 T00720033
94889KARB ARB20160323055511003/23/16 05:55:31  5-MIN KARB 231055Z AUTO 03008KT 10SM SCT090 07/03 A2985 910 76 200 040/08 RMK AO2 T00720033
94889KARB ARB20160323060011003/23/16 06:00:31  5-MIN KARB 231100Z AUTO 04008KT 10SM BKN090 07/03 A2985 900 76 200 050/08 RMK AO2 T00720033
94889KARB ARB20160323060511003/23/16 06:05:31  5-MIN KARB 231105Z AUTO 02008KT 10SM BKN090 07/03 A2985 900 76 200 030/08 RMK AO2 T00720033
94889KARB ARB20160323061011003/23/16 06:10:31  5-MIN KARB 231110Z AUTO 04008KT 10SM BKN090 07/03 A2985 910 76 200 050/08 RMK AO2 T00720033
94889KARB ARB20160323061511003/23/16 06:15:31  5-MIN KARB 231115Z AUTO 04008KT 10SM BKN090 07/03 A2985 900 79 200 040/08 RMK AO2 T00670033
94889KARB ARB20160323062011003/23/16 06:20:31  5-MIN KARB 231120Z AUTO 03009KT 10SM SCT090 07/03 A2986 900 79 200 040/09 RMK AO2 T00670033
94889KARB ARB20160323062511003/23/16 06:25:31  5-MIN KARB 231125Z AUTO 03007KT 10SM BKN090 07/03 A2986 900 79 200 040/07 RMK AO2 T00670033
94889KARB ARB20160323063011003/23/16 06:30:31  5-MIN KARB 231130Z AUTO 03011KT 10SM BKN090 07/03 A2985 900 79 200 040/11 RMK AO2 T00670033
94889KARB ARB20160323063511003/23/16 06:35:31  5-MIN KARB 231135Z AUTO 03010KT 10SM BKN090 07/03 A2986 900 79 100 040/10 RMK AO2 T00670033
94889KARB ARB20160323064011003/23/16 06:40:31  5-MIN KARB 231140Z AUTO 03008KT 10SM BKN095 07/03 A2987 890 79 100 040/08 RMK AO2 T00670033
94889KARB ARB20160323064511003/23/16 06:45:31  5-MIN KARB 231145Z AUTO 04007KT 10SM OVC095 06/03 A2987 890 82 100 050/07 RMK AO2 T00610033
94889KARB ARB20160323065013503/23/16 06:50:31  5-MIN KARB 231150Z AUTO 03008KT 10SM OVC095 06/03 A2987 890 82 100 040/08 RMK AO2 SLP117 T00610033 10106 20061 51009
94889KARB ARB20160323065510903/23/16 06:55:31  5-MIN KARB 231155Z AUTO 04008KT 9SM BKN095 06/03 A2987 880 82 100 050/08 RMK AO2 T00610033
94889KARB ARB20160323070010903/23/16 07:00:31  5-MIN KARB 231200Z AUTO 04007KT 9SM BKN095 06/03 A2988 880 82 100 050/07 RMK AO2 T00610033
94889KARB ARB20160323070510903/23/16 07:05:31  5-MIN KARB 231205Z AUTO 04009KT 9SM SCT095 06/03 A2988 880 82 100 040/09 RMK AO2 T00610033
94889KARB ARB20160323071010903/23/16 07:10:31  5-MIN KARB 231210Z AUTO 04011KT 8SM FEW095 06/03 A2988 870 82 100 050/11 RMK AO2 T00610033
94889KARB ARB20160323071510703/23/16 07:15:31  5-MIN KARB 231215Z AUTO 04009KT 8SM FEW095 06/04 A2989 870 86 0 050/09 RMK AO2 T00610039
94889KARB ARB20160323072010403/23/16 07:20:31  5-MIN KARB 231220Z AUTO 04009KT 8SM CLR 06/04 A2989 870 86 0 050/09 RMK AO2 T00610039
94889KARB ARB20160323072510403/23/16 07:25:31  5-MIN KARB 231225Z AUTO 04009KT 8SM CLR 06/04 A2990 860 86 0 050/09 RMK AO2 T00610039
94889KARB ARB20160323073010403/23/16 07:30:31  5-MIN KARB 231230Z AUTO 05008KT 8SM CLR 06/04 A2989 870 86 0 060/08 RMK AO2 T00610039
94889KARB ARB20160323073510703/23/16 07:35:31  5-MIN KARB 231235Z AUTO 07006KT 8SM FEW075 06/03 A2990 860 82 0 080/06 RMK AO2 T00610033
94889KARB ARB20160323074010703/23/16 07:40:31  5-MIN KARB 231240Z AUTO 06008KT 8SM SCT075 06/03 A2990 860 82 0 070/08 RMK AO2 T00610033
94889KARB ARB20160323074510703/23/16 07:45:31  5-MIN KARB 231245Z AUTO 06009KT 7SM BKN075 06/03 A2990 860 82 0 070/09 RMK AO2 T00610033
94889KARB ARB20160323075011403/23/16 07:50:31  5-MIN KARB 231250Z AUTO 05011KT 7SM BKN075 06/03 A2990 860 79 0 060/11 RMK AO2 SLP128 T00610028
94889KARB ARB20160323075510703/23/16 07:55:31  5-MIN KARB 231255Z AUTO 05011KT 7SM BKN080 06/03 A2990 860 79 0 060/11 RMK AO2 T00610028
94889KARB ARB20160323080010703/23/16 08:00:31  5-MIN KARB 231300Z AUTO 07009KT 7SM OVC080 06/03 A2991 860 79 0 080/09 RMK AO2 T00610028
94889KARB ARB20160323080510703/23/16 08:05:31  5-MIN KARB 231305Z AUTO 07009KT 7SM OVC080 06/03 A2991 860 79 0 080/09 RMK AO2 T00610028
94889KARB ARB20160323081010703/23/16 08:10:31  5-MIN KARB 231310Z AUTO 06009KT 7SM OVC080 06/02 A2991 860 76 0 070/09 RMK AO2 T00610022
94889KARB ARB20160323081510703/23/16 08:15:31  5-MIN KARB 231315Z AUTO 08009KT 7SM OVC080 06/02 A2990 860 76 0 080/09 RMK AO2 T00610022
94889KARB ARB20160323082011403/23/16 08:20:31  5-MIN KARB 231320Z AUTO 08009KT 7SM BKN080 OVC100 06/02 A2991 860 76 0 080/09 RMK AO2 T00610022
94889KARB ARB20160323082511403/23/16 08:25:31  5-MIN KARB 231325Z AUTO 07009KT 7SM BKN080 OVC100 06/02 A2991 850 76 0 070/09 RMK AO2 T00610022
94889KARB ARB20160323083011403/23/16 08:30:31  5-MIN KARB 231330Z AUTO 07010KT 7SM SCT080 OVC100 06/02 A2991 850 76 0 080/10 RMK AO2 T00610022
94889KARB ARB20160323083511403/23/16 08:35:31  5-MIN KARB 231335Z AUTO 06009KT 7SM FEW080 OVC100 06/02 A2991 850 76 0 070/09 RMK AO2 T00610022
94889KARB ARB20160323084011403/23/16 08:40:31  5-MIN KARB 231340Z AUTO 07009KT 7SM SCT080 OVC100 06/02 A2992 850 76 0 080/09 RMK AO2 T00610022
94889KARB ARB20160323084511403/23/16 08:45:31  5-MIN KARB 231345Z AUTO 09009KT 7SM SCT080 OVC100 06/02 A2992 840 79 0 090/09 RMK AO2 T00560022
94889KARB ARB20160323085012103/23/16 08:50:31  5-MIN KARB 231350Z AUTO 08007KT 7SM BKN080 OVC100 06/02 A2992 840 79 0 080/07 RMK AO2 SLP135 T00560022
94889KARB ARB20160323085512003/23/16 08:55:31  5-MIN KARB 231355Z AUTO 06011G15KT 7SM BKN080 OVC100 06/02 A2992 840 79 0 060/11G15 RMK AO2 T00560022
94889KARB ARB20160323090011403/23/16 09:00:31  5-MIN KARB 231400Z AUTO 07008KT 7SM BKN080 OVC100 06/02 A2992 840 76 0 080/08 RMK AO2 T00560017
94889KARB ARB20160323090510703/23/16 09:05:31  5-MIN KARB 231405Z AUTO 06011KT 7SM OVC080 06/02 A2992 840 76 0 070/11 RMK AO2 T00560017
94889KARB ARB20160323091010703/23/16 09:10:31  5-MIN KARB 231410Z AUTO 06007KT 7SM OVC080 06/02 A2992 840 76 0 070/07 RMK AO2 T00560017
94889KARB ARB20160323091510703/23/16 09:15:31  5-MIN KARB 231415Z AUTO 06008KT 7SM OVC080 06/02 A2992 840 73 0 070/08 RMK AO2 T00610017
94889KARB ARB20160323092010703/23/16 09:20:31  5-MIN KARB 231420Z AUTO 06009KT 7SM OVC080 06/02 A2993 830 73 0 070/09 RMK AO2 T00610017
94889KARB ARB20160323092511403/23/16 09:25:31  5-MIN KARB 231425Z AUTO 05010KT 7SM FEW048 OVC080 06/02 A2993 830 76 0 060/10 RMK AO2 T00610022
94889KARB ARB20160323093012303/23/16 09:30:31  5-MIN KARB 231430Z AUTO 05010KT 7SM FEW048 BKN080 OVC100 07/02 A2993 830 73 100 060/10 RMK AO2 T00670022
94889KARB ARB20160323093512303/23/16 09:35:31  5-MIN KARB 231435Z AUTO 07007KT 7SM SCT046 BKN080 OVC100 07/02 A2993 830 73 100 080/07 RMK AO2 T00670022
94889KARB ARB20160323094012303/23/16 09:40:31  5-MIN KARB 231440Z AUTO 07011KT 7SM SCT046 BKN085 BKN100 07/02 A2993 830 73 100 070/11 RMK AO2 T00670022
94889KARB ARB20160323094512303/23/16 09:45:31  5-MIN KARB 231445Z AUTO 06009KT 7SM BKN046 BKN080 BKN100 07/02 A2994 820 73 100 070/09 RMK AO2 T00670022
94889KARB ARB20160323095012903/23/16 09:50:31  5-MIN KARB 231450Z AUTO 06010KT 7SM BKN044 BKN100 07/02 A2994 820 70 100 060/10 RMK AO2 SLP142 T00670017 51029
94889KARB ARB20160323095511603/23/16 09:55:31  5-MIN KARB 231455Z AUTO 07010KT 8SM BKN044 OVC100 07/02 A2994 820 70 100 070/10 RMK AO2 T00670017
94889KARB ARB20160323100010903/23/16 10:00:31  5-MIN KARB 231500Z AUTO 07009KT 8SM OVC044 07/02 A2994 820 70 100 080/09 RMK AO2 T00670017
94889KARB ARB20160323100510903/23/16 10:05:31  5-MIN KARB 231505Z AUTO 07006KT 8SM OVC044 07/02 A2994 820 70 100 080/06 RMK AO2 T00670017
94889KARB ARB20160323101010903/23/16 10:10:31  5-MIN KARB 231510Z AUTO 07009KT 8SM OVC043 07/02 A2994 820 70 100 080/09 RMK AO2 T00670017
94889KARB ARB20160323101510903/23/16 10:15:31  5-MIN KARB 231515Z AUTO 06008KT 8SM OVC043 07/02 A2994 830 68 100 070/08 RMK AO2 T00720017
94889KARB ARB20160323102010903/23/16 10:20:31  5-MIN KARB 231520Z AUTO 07011KT 8SM OVC043 07/02 A2994 820 68 100 080/11 RMK AO2 T00720017
94889KARB ARB20160323102510903/23/16 10:25:31  5-MIN KARB 231525Z AUTO 07010KT 9SM OVC043 07/02 A2994 820 68 100 080/10 RMK AO2 T00720017
94889KARB ARB20160323103011503/23/16 10:30:31  5-MIN KARB 231530Z AUTO 05011G16KT 9SM OVC043 07/02 A2995 820 68 100 050/11G16 RMK AO2 T00720017
94889KARB ARB20160323103510903/23/16 10:35:31  5-MIN KARB 231535Z AUTO 06009KT 8SM OVC043 07/02 A2995 810 68 100 070/09 RMK AO2 T00720017
94889KARB ARB20160323104010903/23/16 10:40:31  5-MIN KARB 231540Z AUTO 06010KT 8SM OVC043 07/02 A2995 810 68 100 060/10 RMK AO2 T00720017
94889KARB ARB20160323104510903/23/16 10:45:31  5-MIN KARB 231545Z AUTO 07011KT 8SM OVC043 07/02 A2995 820 68 100 080/11 RMK AO2 T00720017
94889KARB ARB20160323105011603/23/16 10:50:31  5-MIN KARB 231550Z AUTO 06011KT 8SM OVC043 07/02 A2995 820 68 100 070/11 RMK AO2 SLP144 T00720017
94889KARB ARB20160323105510903/23/16 10:55:31  5-MIN KARB 231555Z AUTO 06009KT 8SM OVC043 07/02 A2995 820 68 100 070/09 RMK AO2 T00720017
94889KARB ARB20160323110010903/23/16 11:00:31  5-MIN KARB 231600Z AUTO 07009KT 8SM OVC043 07/02 A2994 820 68 100 080/09 RMK AO2 T00720017
94889KARB ARB20160323110510903/23/16 11:05:31  5-MIN KARB 231605Z AUTO 05011KT 9SM OVC043 08/02 A2994 820 65 200 060/11 RMK AO2 T00780017
94889KARB ARB20160323111010903/23/16 11:10:31  5-MIN KARB 231610Z AUTO 05009KT 9SM OVC043 08/02 A2995 820 65 200 060/09 RMK AO2 T00780017
94889KARB ARB20160323111510903/23/16 11:15:31  5-MIN KARB 231615Z AUTO 05010KT 9SM OVC043 08/02 A2995 820 65 200 060/10 RMK AO2 T00780017
94889KARB ARB20160323112010903/23/16 11:20:31  5-MIN KARB 231620Z AUTO 06008KT 9SM OVC043 07/02 A2995 820 68 100 070/08 RMK AO2 T00720017
94889KARB ARB20160323112510903/23/16 11:25:31  5-MIN KARB 231625Z AUTO 05011KT 9SM OVC043 07/02 A2995 810 68 100 060/11 RMK AO2 T00720017
94889KARB ARB20160323113010903/23/16 11:30:31  5-MIN KARB 231630Z AUTO 06008KT 9SM OVC043 07/02 A2995 820 68 100 070/08 RMK AO2 T00720017
94889KARB ARB20160323113510903/23/16 11:35:31  5-MIN KARB 231635Z AUTO 08008KT 9SM OVC043 07/02 A2995 820 68 100 080/08 RMK AO2 T00720017
94889KARB ARB20160323114010903/23/16 11:40:31  5-MIN KARB 231640Z AUTO 08010KT 9SM OVC041 07/02 A2995 810 68 100 090/10 RMK AO2 T00720017
94889KARB ARB20160323114510903/23/16 11:45:31  5-MIN KARB 231645Z AUTO 08009KT 9SM OVC041 07/01 A2995 820 65 100 090/09 RMK AO2 T00720011
94889KARB ARB20160323115011603/23/16 11:50:31  5-MIN KARB 231650Z AUTO 08009KT 9SM OVC041 07/02 A2995 810 68 100 080/09 RMK AO2 SLP145 T00720017
94889KARB ARB20160323115511003/23/16 11:55:31  5-MIN KARB 231655Z AUTO 07010KT 10SM OVC041 07/02 A2995 810 68 100 070/10 RMK AO2 T00720017
94889KARB ARB20160323120011003/23/16 12:00:31  5-MIN KARB 231700Z AUTO 08010KT 10SM OVC041 07/02 A2994 820 68 100 080/10 RMK AO2 T00720017
94889KARB ARB20160323120511003/23/16 12:05:31  5-MIN KARB 231705Z AUTO 05011KT 10SM OVC041 08/02 A2994 820 65 200 060/11 RMK AO2 T00780017
94889KARB ARB20160323121011003/23/16 12:10:31  5-MIN KARB 231710Z AUTO 05014KT 10SM OVC041 08/02 A2994 820 65 200 060/14 RMK AO2 T00780017
94889KARB ARB20160323121511003/23/16 12:15:31  5-MIN KARB 231715Z AUTO 06010KT 10SM OVC041 08/02 A2995 820 65 200 060/10 RMK AO2 T00780017
94889KARB ARB20160323122011003/23/16 12:20:31  5-MIN KARB 231720Z AUTO 08010KT 10SM OVC041 08/02 A2994 820 65 200 090/10 RMK AO2 T00780017
94889KARB ARB20160323122511003/23/16 12:25:31  5-MIN KARB 231725Z AUTO 07010KT 10SM OVC041 08/02 A2994 820 65 200 080/10 RMK AO2 T00780017
94889KARB ARB20160323123011003/23/16 12:30:31  5-MIN KARB 231730Z AUTO 06009KT 10SM OVC041 08/02 A2994 820 63 300 070/09 RMK AO2 T00830017
94889KARB ARB20160323123511003/23/16 12:35:31  5-MIN KARB 231735Z AUTO 05010KT 10SM OVC041 08/02 A2994 820 63 300 050/10 RMK AO2 T00830017
94889KARB ARB20160323124011003/23/16 12:40:31  5-MIN KARB 231740Z AUTO 08009KT 10SM OVC043 08/02 A2994 820 63 300 090/09 RMK AO2 T00830017
94889KARB ARB20160323124511003/23/16 12:45:31  5-MIN KARB 231745Z AUTO 08010KT 10SM OVC043 08/02 A2995 820 63 300 090/10 RMK AO2 T00830017
94889KARB ARB20160323125013503/23/16 12:50:31  5-MIN KARB 231750Z AUTO 08009KT 10SM OVC043 08/02 A2995 820 65 200 090/09 RMK AO2 SLP143 T00780017 10089 20056 51022
94889KARB ARB20160323125511003/23/16 12:55:31  5-MIN KARB 231755Z AUTO 07009KT 10SM OVC043 08/02 A2995 820 63 300 080/09 RMK AO2 T00830017
94889KARB ARB20160323130011603/23/16 13:00:31  5-MIN KARB 231800Z AUTO 06009G15KT 10SM OVC042 08/02 A2995 820 65 200 070/09G15 RMK AO2 T00780017
94889KARB ARB20160323130511003/23/16 13:05:31  5-MIN KARB 231805Z AUTO 06008KT 10SM OVC042 08/02 A2995 820 65 200 060/08 RMK AO2 T00780017
94889KARB ARB20160323131011003/23/16 13:10:31  5-MIN KARB 231810Z AUTO 05010KT 10SM OVC041 08/02 A2995 820 65 200 050/10 RMK AO2 T00780017
94889KARB ARB20160323131511003/23/16 13:15:31  5-MIN KARB 231815Z AUTO 08010KT 10SM OVC041 08/02 A2995 820 65 200 080/10 RMK AO2 T00780017
94889KARB ARB20160323132011003/23/16 13:20:31  5-MIN KARB 231820Z AUTO 07009KT 10SM OVC043 08/02 A2994 820 65 200 070/09 RMK AO2 T00780017
94889KARB ARB20160323132511003/23/16 13:25:31  5-MIN KARB 231825Z AUTO 07010KT 10SM OVC045 08/02 A2994 820 65 200 080/10 RMK AO2 T00780017
94889KARB ARB20160323133011003/23/16 13:30:31  5-MIN KARB 231830Z AUTO 06010KT 10SM OVC045 08/02 A2994 820 65 200 070/10 RMK AO2 T00780017
94889KARB ARB20160323133511003/23/16 13:35:31  5-MIN KARB 231835Z AUTO 05012KT 10SM OVC043 08/02 A2994 820 65 200 060/12 RMK AO2 T00780017
94889KARB ARB20160323134011003/23/16 13:40:31  5-MIN KARB 231840Z AUTO 06009KT 10SM OVC043 07/02 A2994 820 68 100 070/09 RMK AO2 T00720017
94889KARB ARB20160323134511003/23/16 13:45:31  5-MIN KARB 231845Z AUTO 06010KT 10SM OVC043 07/02 A2993 830 68 100 070/10 RMK AO2 T00720017
94889KARB ARB20160323135011703/23/16 13:50:31  5-MIN KARB 231850Z AUTO 07011KT 10SM OVC043 07/02 A2993 830 68 100 080/11 RMK AO2 SLP137 T00720017
94889KARB ARB20160323135511003/23/16 13:55:31  5-MIN KARB 231855Z AUTO 08009KT 10SM OVC041 07/02 A2992 840 68 100 080/09 RMK AO2 T00720017
94889KARB ARB20160323140011703/23/16 14:00:31  5-MIN KARB 231900Z AUTO 08009KT 10SM OVC041 07/02 A2991 850 68 200 090/09 RMK AO2 PRESFR T00720017
94889KARB ARB20160323140511003/23/16 14:05:31  5-MIN KARB 231905Z AUTO 08010KT 10SM OVC041 07/02 A2992 840 68 100 080/10 RMK AO2 T00720017
94889KARB ARB20160323141011003/23/16 14:10:31  5-MIN KARB 231910Z AUTO 07010KT 10SM OVC041 07/02 A2992 840 68 200 080/10 RMK AO2 T00720017
94889KARB ARB20160323141511003/23/16 14:15:31  5-MIN KARB 231915Z AUTO 09010KT 10SM OVC041 07/02 A2992 840 68 200 100/10 RMK AO2 T00720017
94889KARB ARB20160323142011003/23/16 14:20:31  5-MIN KARB 231920Z AUTO 07007KT 10SM OVC041 07/02 A2992 840 68 100 080/07 RMK AO2 T00720017
94889KARB ARB20160323142511003/23/16 14:25:31  5-MIN KARB 231925Z AUTO 06008KT 10SM OVC041 07/02 A2992 840 68 100 070/08 RMK AO2 T00720017
94889KARB ARB20160323143011003/23/16 14:30:31  5-MIN KARB 231930Z AUTO 07010KT 10SM OVC041 07/02 A2991 850 70 100 080/10 RMK AO2 T00670017
94889KARB ARB20160323143511003/23/16 14:35:31  5-MIN KARB 231935Z AUTO 07010KT 10SM OVC039 07/02 A2992 850 68 200 080/10 RMK AO2 T00720017
94889KARB ARB20160323144011603/23/16 14:40:31  5-MIN KARB 231940Z AUTO 09010G16KT 10SM OVC039 08/02 A2992 840 68 200 100/10G16 RMK AO2 T00780022
94889KARB ARB20160323144511603/23/16 14:45:31  5-MIN KARB 231945Z AUTO 08011G16KT 10SM OVC039 08/02 A2992 840 68 200 090/11G16 RMK AO2 T00780022
94889KARB ARB20160323145013703/23/16 14:50:31  5-MIN KARB 231950Z AUTO 09008G15KT 10SM BKN040 BKN048 OVC090 08/02 A2992 840 68 200 090/08G15 RMK AO2 SLP136 T00780022
94889KARB ARB20160323145512403/23/16 14:55:31  5-MIN KARB 231955Z AUTO 05010KT 10SM BKN040 BKN048 OVC090 08/02 A2993 830 68 200 060/10 RMK AO2 T00780022
94889KARB ARB20160323150012403/23/16 15:00:31  5-MIN KARB 232000Z AUTO 06010KT 10SM SCT040 SCT048 OVC090 07/02 A2993 830 68 100 070/10 RMK AO2 T00720017
94889KARB ARB20160323150511703/23/16 15:05:31  5-MIN KARB 232005Z AUTO 05012KT 10SM SCT044 BKN090 07/02 A2993 830 68 100 060/12 RMK AO2 T00720017
94889KARB ARB20160323151012403/23/16 15:10:31  5-MIN KARB 232010Z AUTO 06011KT 10SM FEW042 SCT049 BKN090 07/02 A2994 830 70 100 070/11 RMK AO2 T00670017
94889KARB ARB20160323151512403/23/16 15:15:31  5-MIN KARB 232015Z AUTO 06010KT 10SM FEW019 BKN049 OVC090 07/02 A2994 830 70 100 070/10 RMK AO2 T00670017
94889KARB ARB20160323152012403/23/16 15:20:31  5-MIN KARB 232020Z AUTO 05010KT 10SM FEW019 BKN049 OVC090 07/02 A2994 830 70 100 060/10 RMK AO2 T00670017
94889KARB ARB20160323152512303/23/16 15:25:31  5-MIN KARB 232025Z AUTO 08011KT 9SM FEW019 BKN050 OVC090 07/02 A2994 820 70 100 080/11 RMK AO2 T00670017
94889KARB ARB20160323153011403/23/16 15:30:31  5-MIN KARB 232030Z AUTO 08011KT 9SM FEW019 BKN050 06/02 A2994 820 73 0 080/11 RMK AO2 T00610017
94889KARB ARB20160323153511603/23/16 15:35:31  5-MIN KARB 232035Z AUTO 04012KT 9SM FEW019 OVC050 07/02 A2994 820 70 100 050/12 RMK AO2 T00670017
94889KARB ARB20160323154011403/23/16 15:40:31  5-MIN KARB 232040Z AUTO 05009KT 9SM FEW019 OVC050 06/02 A2994 820 73 0 060/09 RMK AO2 T00610017
94889KARB ARB20160323154511403/23/16 15:45:31  5-MIN KARB 232045Z AUTO 05011KT 8SM SCT019 OVC050 06/02 A2995 820 73 0 060/11 RMK AO2 T00610017
94889KARB ARB20160323155011003/23/16 15:50:31  5-MIN KARB 232050Z AUTO 07011G17KT 8SM BKN017 OVC050 06/02 A2995 820 73 0 080/11G17 RMK AO2
94889KARB ARB20160323155511403/23/16 15:55:31  5-MIN KARB 232055Z AUTO 05009KT 8SM BKN017 OVC050 06/02 A2995 820 73 0 060/09 RMK AO2 T00610017
94889KARB ARB20160323160011403/23/16 16:00:31  5-MIN KARB 232100Z AUTO 05008KT 8SM BKN017 OVC050 06/02 A2995 820 73 0 060/08 RMK AO2 T00610017
94889KARB ARB20160323160510703/23/16 16:05:31  5-MIN KARB 232105Z AUTO 04010KT 8SM OVC017 06/02 A2995 820 73 0 050/10 RMK AO2 T00610017
94889KARB ARB20160323161010703/23/16 16:10:31  5-MIN KARB 232110Z AUTO 07010KT 8SM OVC017 06/02 A2995 820 76 0 070/10 RMK AO2 T00560017
94889KARB ARB20160323161511303/23/16 16:15:31  5-MIN KARB 232115Z AUTO 04013G18KT 7SM OVC016 06/02 A2995 820 76 0 050/13G18 RMK AO2 T00560017
94889KARB ARB20160323162011303/23/16 16:20:31  5-MIN KARB 232120Z AUTO 04011G18KT 7SM OVC016 06/02 A2995 820 76 0 050/11G18 RMK AO2 T00560017
94889KARB ARB20160323162511003/23/16 16:25:31  5-MIN KARB 232125Z AUTO 05013KT 7SM OVC015 05/02 A2994 820 79 -100 060/13 RMK AO2 T00500017
94889KARB ARB20160323163011903/23/16 16:30:31  5-MIN KARB 232130Z AUTO 05014G19KT 6SM HZ OVC013 05/02 A2994 820 79 -100 050/14G19 RMK AO2 T00500017
94889KARB ARB20160323163511903/23/16 16:35:31  5-MIN KARB 232135Z AUTO 06010G19KT 6SM HZ OVC013 04/02 A2994 820 82 -200 060/10G19 RMK AO2 T00440017
94889KARB ARB20160323164011303/23/16 16:40:31  5-MIN KARB 232140Z AUTO 05012KT 6SM HZ OVC013 04/02 A2994 820 82 -200 060/12 RMK AO2 T00440017
94889KARB ARB20160323164512503/23/16 16:45:31  5-MIN KARB 232145Z AUTO 06010KT 6SM HZ OVC011 04/02 A2994 820 82 -200 070/10 RMK AO2 CIG 009V013 T00440017
94889KARB ARB20160323165013803/23/16 16:50:31  5-MIN KARB 232150Z AUTO 06009G16KT 6SM HZ OVC011 04/02 A2994 820 82 -200 070/09G16 RMK AO2 CIG 009V013 SLP145 T00440017
94889KARB ARB20160323165511903/23/16 16:55:31  5-MIN KARB 232155Z AUTO 05010G16KT 6SM BR OVC010 04/02 A2995 820 85 -200 050/10G16 RMK AO2 T00440022
94889KARB ARB20160323170011903/23/16 17:00:31  5-MIN KARB 232200Z AUTO 05009G15KT 6SM HZ OVC010 04/02 A2995 810 82 -200 060/09G15 RMK AO2 T00440017
94889KARB ARB20160323170511303/23/16 17:05:31  5-MIN KARB 232205Z AUTO 05011KT 6SM HZ OVC010 04/02 A2995 820 82 -200 060/11 RMK AO2 T00440017
94889KARB ARB20160323171011303/23/16 17:10:31  5-MIN KARB 232210Z AUTO 07009KT 6SM BR OVC010 04/02 A2995 820 85 -200 070/09 RMK AO2 T00390017
94889KARB ARB20160323171511303/23/16 17:15:31  5-MIN KARB 232215Z AUTO 06009KT 6SM BR OVC010 04/02 A2995 820 85 -200 070/09 RMK AO2 T00390017
94889KARB ARB20160323172011303/23/16 17:20:31  5-MIN KARB 232220Z AUTO 06007KT 6SM BR OVC009 04/02 A2995 810 85 -200 070/07 RMK AO2 T00390017
94889KARB ARB20160323172511303/23/16 17:25:31  5-MIN KARB 232225Z AUTO 07008KT 6SM BR OVC009 04/02 A2995 810 85 -200 080/08 RMK AO2 T00390017
94889KARB ARB20160323173011303/23/16 17:30:31  5-MIN KARB 232230Z AUTO 06012KT 6SM BR OVC009 04/02 A2995 810 85 -200 070/12 RMK AO2 T00390017
94889KARB ARB20160323173511903/23/16 17:35:31  5-MIN KARB 232235Z AUTO 07008G17KT 6SM BR OVC009 04/02 A2995 810 85 -200 080/08G17 RMK AO2 T00390017
94889KARB ARB20160323174011303/23/16 17:40:31  5-MIN KARB 232240Z AUTO 07011KT 6SM BR OVC008 04/02 A2996 810 85 -300 070/11 RMK AO2 T00390017
94889KARB ARB20160323174511303/23/16 17:45:31  5-MIN KARB 232245Z AUTO 07008KT 6SM BR OVC008 04/02 A2996 810 85 -300 070/08 RMK AO2 T00390017
94889KARB ARB20160323175012003/23/16 17:50:31  5-MIN KARB 232250Z AUTO 06009KT 6SM BR OVC008 04/02 A2996 810 89 -300 070/09 RMK AO2 SLP149 T00390022
94889KARB ARB20160323175511303/23/16 17:55:31  5-MIN KARB 232255Z AUTO 06011KT 6SM BR OVC008 04/02 A2996 810 85 -300 070/11 RMK AO2 T00390017
94889KARB ARB20160323180011303/23/16 18:00:31  5-MIN KARB 232300Z AUTO 07009KT 6SM BR OVC008 04/02 A2996 810 89 -300 080/09 RMK AO2 T00390022
94889KARB ARB20160323180511903/23/16 18:05:31  5-MIN KARB 232305Z AUTO 07011G16KT 6SM BR OVC008 04/02 A2995 810 85 -200 080/11G16 RMK AO2 T00390017
94889KARB ARB20160323181011303/23/16 18:10:31  5-MIN KARB 232310Z AUTO 06011KT 5SM BR OVC008 04/02 A2995 810 85 -200 070/11 RMK AO2 T00390017
94889KARB ARB20160323181511303/23/16 18:15:31  5-MIN KARB 232315Z AUTO 07010KT 5SM BR OVC008 04/02 A2995 810 85 -200 070/10 RMK AO2 T00390017
94889KARB ARB20160323182011303/23/16 18:20:31  5-MIN KARB 232320Z AUTO 07008KT 5SM BR OVC008 04/02 A2995 810 85 -200 080/08 RMK AO2 T00390017
94889KARB ARB20160323182511303/23/16 18:25:31  5-MIN KARB 232325Z AUTO 08010KT 4SM BR OVC008 04/02 A2996 810 89 -300 080/10 RMK AO2 T00390022
94889KARB ARB20160323183011303/23/16 18:30:31  5-MIN KARB 232330Z AUTO 08006KT 4SM BR OVC008 04/02 A2996 810 89 -300 080/06 RMK AO2 T00390022
94889KARB ARB20160323183511303/23/16 18:35:31  5-MIN KARB 232335Z AUTO 07010KT 4SM BR OVC007 03/02 A2996 810 92 -300 070/10 RMK AO2 T00330022
94889KARB ARB20160323184011303/23/16 18:40:31  5-MIN KARB 232340Z AUTO 07009KT 4SM BR OVC007 03/02 A2996 800 92 -300 080/09 RMK AO2 T00330022
94889KARB ARB20160323184512903/23/16 18:45:31  5-MIN KARB 232345Z AUTO 07011KT 3SM -RA BR OVC007 03/02 A2996 800 92 -300 070/11 RMK AO2 RAB43 P0000 T00330022
94889KARB ARB20160323185015503/23/16 18:50:31  5-MIN KARB 232350Z 06008KT 3SM -RA BR OVC007 03/02 A2996 800 92 -300 070/08 RMK AO2 RAB43 SLP152 P0000 60000 T00330022 10083 20033 53001
94889KARB ARB20160323185512703/23/16 18:55:31  5-MIN KARB 232355Z AUTO 08008KT 2 1/2SM -RA BR OVC007 03/02 A2996 800 92 -300 080/08 RMK AO2 P0000 T00330022
94889KARB ARB20160323190012703/23/16 19:00:31  5-MIN KARB 240000Z AUTO 07008KT 2 1/2SM -RA BR OVC007 03/02 A2996 800 92 -300 080/08 RMK AO2 P0000 T00330022
94889KARB ARB20160323190512703/23/16 19:05:31  5-MIN KARB 240005Z AUTO 08006KT 2 1/2SM -RA BR OVC006 03/03 A2996 810 96 -300 080/06 RMK AO2 P0001 T00330028
94889KARB ARB20160323191012703/23/16 19:10:31  5-MIN KARB 240010Z AUTO 06006KT 2 1/2SM -RA BR OVC006 03/03 A2996 810 96 -300 070/06 RMK AO2 P0001 T00330028
94889KARB ARB20160323191512703/23/16 19:15:31  5-MIN KARB 240015Z AUTO 07007KT 2 1/2SM -RA BR OVC006 03/03 A2995 810 96 -300 080/07 RMK AO2 P0001 T00330028
94889KARB ARB20160323192012703/23/16 19:20:31  5-MIN KARB 240020Z AUTO 09007KT 2 1/2SM -RA BR OVC005 03/03 A2995 810 96 -300 100/07 RMK AO2 P0001 T00330028
94889KARB ARB20160323192512703/23/16 19:25:31  5-MIN KARB 240025Z AUTO 08006KT 2 1/2SM -RA BR OVC005 03/03 A2996 810 96 -300 080/06 RMK AO2 P0001 T00330028
94889KARB ARB20160323193012903/23/16 19:30:31  5-MIN KARB 240030Z AUTO 08008KT 2 1/2SM BR OVC005 03/03 A2995 810 96 -300 080/08 RMK AO2 RAE27 P0001 T00330028
94889KARB ARB20160323193512503/23/16 19:35:31  5-MIN KARB 240035Z AUTO 07009KT 3SM BR OVC005 03/03 A2996 810 96 -300 080/09 RMK AO2 RAE27 P0001 T00330028
94889KARB ARB20160323194012503/23/16 19:40:31  5-MIN KARB 240040Z AUTO 07007KT 3SM BR OVC005 04/03 A2996 810 92 -300 080/07 RMK AO2 RAE27 P0002 T00390028
94889KARB ARB20160323194512503/23/16 19:45:31  5-MIN KARB 240045Z AUTO 07006KT 3SM BR OVC005 04/03 A2995 810 92 -200 080/06 RMK AO2 RAE27 P0002 T00390028
94889KARB ARB20160323195013203/23/16 19:50:31  5-MIN KARB 240050Z AUTO 07007KT 4SM BR OVC005 04/03 A2995 810 92 -200 080/07 RMK AO2 RAE27 SLP149 P0002 T00390028
94889KARB ARB20160323195511303/23/16 19:55:31  5-MIN KARB 240055Z AUTO 08009KT 4SM BR OVC005 04/03 A2995 810 92 -200 080/09 RMK AO2 T00390028
94889KARB ARB20160323200011303/23/16 20:00:31  5-MIN KARB 240100Z AUTO 08006KT 4SM BR OVC005 04/03 A2995 810 92 -300 080/06 RMK AO2 T00390028
94889KARB ARB20160323200511303/23/16 20:05:31  5-MIN KARB 240105Z AUTO 08006KT 4SM BR OVC005 04/03 A2996 810 92 -300 080/06 RMK AO2 T00390028
94889KARB ARB20160323201011303/23/16 20:10:31  5-MIN KARB 240110Z AUTO 08008KT 4SM BR OVC005 04/03 A2996 810 92 -300 090/08 RMK AO2 T00390028
94889KARB ARB20160323201511303/23/16 20:15:31  5-MIN KARB 240115Z AUTO 08008KT 4SM BR OVC005 04/03 A2996 800 92 -300 080/08 RMK AO2 T00390028
94889KARB ARB20160323202011303/23/16 20:20:31  5-MIN KARB 240120Z AUTO 08007KT 4SM BR OVC005 04/03 A2996 800 96 -300 090/07 RMK AO2 T00390033
94889KARB ARB20160323202511903/23/16 20:25:31  5-MIN KARB 240125Z AUTO 09009G15KT 4SM BR OVC005 04/03 A2996 810 96 -300 100/09G15 RMK AO2 T00390033
94889KARB ARB20160323203011903/23/16 20:30:31  5-MIN KARB 240130Z AUTO 09011G15KT 4SM BR OVC005 04/03 A2996 800 96 -300 100/11G15 RMK AO2 T00390033
94889KARB ARB20160323203511303/23/16 20:35:31  5-MIN KARB 240135Z AUTO 09008KT 4SM BR OVC005 04/03 A2996 810 96 -300 100/08 RMK AO2 T00390033
94889KARB ARB20160323204011303/23/16 20:40:31  5-MIN KARB 240140Z AUTO 09009KT 4SM BR OVC005 04/03 A2996 800 92 -200 100/09 RMK AO2 T00440033
94889KARB ARB20160323204511303/23/16 20:45:31  5-MIN KARB 240145Z AUTO 10007KT 4SM BR OVC005 04/03 A2997 800 92 -200 100/07 RMK AO2 T00440033
94889KARB ARB20160323205012003/23/16 20:50:31  5-MIN KARB 240150Z AUTO 09006KT 4SM BR OVC005 04/03 A2996 800 92 -200 100/06 RMK AO2 SLP151 T00440033
94889KARB ARB20160323205511303/23/16 20:55:31  5-MIN KARB 240155Z AUTO 09010KT 4SM BR OVC005 04/03 A2996 800 92 -200 100/10 RMK AO2 T00440033
94889KARB ARB20160323210011303/23/16 21:00:31  5-MIN KARB 240200Z AUTO 10007KT 3SM BR OVC005 04/03 A2996 800 92 -200 100/07 RMK AO2 T00440033
94889KARB ARB20160323210511903/23/16 21:05:31  5-MIN KARB 240205Z AUTO 09009G15KT 3SM BR OVC005 04/03 A2996 800 92 -200 100/09G15 RMK AO2 T00440033
94889KARB ARB20160323211011903/23/16 21:10:31  5-MIN KARB 240210Z AUTO 08011G15KT 3SM BR OVC005 04/03 A2996 800 96 -300 090/11G15 RMK AO2 T00390033
94889KARB ARB20160323211511303/23/16 21:15:31  5-MIN KARB 240215Z AUTO 09010KT 3SM BR OVC005 04/03 A2996 810 96 -300 100/10 RMK AO2 T00390033
94889KARB ARB20160323212011703/23/16 21:20:31  5-MIN KARB 240220Z AUTO 09010KT 2 1/2SM BR OVC005 04/03 A2996 810 96 -300 100/10 RMK AO2 T00390033
94889KARB ARB20160323212513303/23/16 21:25:31  5-MIN KARB 240225Z AUTO 09007KT 060V130 2 1/2SM BR OVC005 04/03 A2996 810 92 -300 100/07 070V140 RMK AO2 T00390028
94889KARB ARB20160323213011703/23/16 21:30:31  5-MIN KARB 240230Z AUTO 09009KT 2 1/2SM BR OVC005 04/03 A2996 810 96 -300 100/09 RMK AO2 T00390033
94889KARB ARB20160323213512303/23/16 21:35:31  5-MIN KARB 240235Z AUTO 09009G16KT 2 1/2SM BR OVC006 04/03 A2995 810 92 -200 100/09G16 RMK AO2 T00390028
94889KARB ARB20160323214011703/23/16 21:40:31  5-MIN KARB 240240Z AUTO 10008KT 2 1/2SM BR OVC006 04/03 A2996 810 92 -300 110/08 RMK AO2 T00390028
94889KARB ARB20160323214511703/23/16 21:45:31  5-MIN KARB 240245Z AUTO 08008KT 2 1/2SM BR OVC006 04/03 A2995 820 92 -200 090/08 RMK AO2 T00390028
94889KARB ARB20160323215013603/23/16 21:50:31  5-MIN KARB 240250Z AUTO 10010KT 2 1/2SM BR OVC006 04/03 A2995 820 92 -200 110/10 RMK AO2 SLP146 60002 T00390028 53005
94889KARB ARB20160323215511703/23/16 21:55:31  5-MIN KARB 240255Z AUTO 10009KT 2 1/2SM BR OVC006 04/03 A2995 820 92 -200 110/09 RMK AO2 T00390028
94889KARB ARB20160323220011703/23/16 22:00:31  5-MIN KARB 240300Z AUTO 09009KT 2 1/2SM BR OVC006 04/03 A2994 820 92 -200 100/09 RMK AO2 T00390028
94889KARB ARB20160323220511703/23/16 22:05:31  5-MIN KARB 240305Z AUTO 09008KT 2 1/2SM BR OVC006 04/03 A2994 820 92 -200 100/08 RMK AO2 T00390028
94889KARB ARB20160323221011703/23/16 22:10:31  5-MIN KARB 240310Z AUTO 09007KT 2 1/2SM BR OVC006 04/03 A2994 830 92 -200 100/07 RMK AO2 T00390028
94889KARB ARB20160323221511303/23/16 22:15:31  5-MIN KARB 240315Z AUTO 09009KT 3SM BR OVC006 04/03 A2993 830 92 -200 100/09 RMK AO2 T00390028
94889KARB ARB20160323222011303/23/16 22:20:31  5-MIN KARB 240320Z AUTO 11007KT 3SM BR OVC006 04/03 A2993 830 92 -200 120/07 RMK AO2 T00390028
94889KARB ARB20160323222511703/23/16 22:25:31  5-MIN KARB 240325Z AUTO 10007KT 2 1/2SM BR OVC006 04/03 A2993 830 92 -200 110/07 RMK AO2 T00390028
94889KARB ARB20160323223011703/23/16 22:30:31  5-MIN KARB 240330Z AUTO 10008KT 2 1/2SM BR OVC006 04/03 A2992 840 96 -200 110/08 RMK AO2 T00390033
94889KARB ARB20160323223511703/23/16 22:35:31  5-MIN KARB 240335Z AUTO 10009KT 2 1/2SM BR OVC005 04/03 A2992 840 96 -200 110/09 RMK AO2 T00390033
94889KARB ARB20160323224012503/23/16 22:40:31  5-MIN KARB 240340Z AUTO 10011KT 3SM BR OVC005 04/03 A2992 840 92 -200 110/11 RMK AO2 CIG 003V009 T00390028
94889KARB ARB20160323224513103/23/16 22:45:31  5-MIN KARB 240345Z AUTO 10011G17KT 5SM BR OVC005 03/02 A2992 840 92 -300 110/11G17 RMK AO2 CIG 003V010 T00330022
94889KARB ARB20160323225012903/23/16 22:50:31  5-MIN KARB 240350Z AUTO 09010KT 7SM OVC007 03/02 A2992 840 92 -300 100/10 RMK AO2 CIG 003V010 SLP136 T00330022
94889KARB ARB20160323225512203/23/16 22:55:31  5-MIN KARB 240355Z AUTO 10010KT 9SM OVC008 03/02 A2992 840 92 -300 100/10 RMK AO2 CIG 003V010 T00330022
94889KARB ARB20160323230012203/23/16 23:00:31  5-MIN KARB 240400Z AUTO 10010KT 9SM OVC008 03/02 A2992 840 92 -300 110/10 RMK AO2 CIG 003V010 T00330022
94889KARB ARB20160323230512203/23/16 23:05:31  5-MIN KARB 240405Z AUTO 10010KT 8SM OVC008 03/02 A2992 840 92 -300 110/10 RMK AO2 CIG 004V010 T00330022
94889KARB ARB20160323231012903/23/16 23:10:31  5-MIN KARB 240410Z AUTO 11009KT 7SM BKN006 OVC010 03/02 A2991 850 92 -300 120/09 RMK AO2 CIG 004V009 T00330022
94889KARB ARB20160323231512603/23/16 23:15:31  5-MIN KARB 240415Z AUTO 09012G20KT 5SM BR BKN006 OVC010 03/02 A2991 850 92 -300 100/12G20 RMK AO2 T00330022
94889KARB ARB20160323232012603/23/16 23:20:31  5-MIN KARB 240420Z AUTO 09008G20KT 5SM BR BKN005 OVC010 03/02 A2991 850 96 -300 100/08G20 RMK AO2 T00280022
94889KARB ARB20160323232511303/23/16 23:25:31  5-MIN KARB 240425Z AUTO 09010KT 5SM BR OVC005 03/02 A2991 860 96 -300 090/10 RMK AO2 T00280022
94889KARB ARB20160323233012803/23/16 23:30:31  5-MIN KARB 240430Z AUTO 10011KT 4SM UP BR OVC005 03/02 A2990 860 96 -300 100/11 RMK AO2 UPB27 P0000 T00280022
94889KARB ARB20160323233512803/23/16 23:35:31  5-MIN KARB 240435Z AUTO 10010KT 3SM UP BR OVC005 03/02 A2990 860 96 -300 100/10 RMK AO2 UPB27 P0001 T00280022
94889KARB ARB20160323234012803/23/16 23:40:31  5-MIN KARB 240440Z AUTO 09011KT 4SM UP BR OVC005 03/02 A2990 860 96 -300 100/11 RMK AO2 UPB27 P0001 T00280022
94889KARB ARB20160323234512803/23/16 23:45:31  5-MIN KARB 240445Z AUTO 09009KT 4SM BR OVC005 03/02 A2990 860 96 -300 100/09 RMK AO2 UPB27E41 P0001 T00280022
94889KARB ARB20160323235014503/23/16 23:50:31  5-MIN KARB 240450Z AUTO 10008KT 4SM BR OVC005 03/02 A2990 860 96 -300 100/08 RMK AO2 UPB27E41 SLP130 P0001 T00280022 401170028
94889KARB ARB20160323235511303/23/16 23:55:31  5-MIN KARB 240455Z AUTO 09011KT 4SM BR OVC005 03/02 A2990 860 96 -300 100/11 RMK AO2 T00280022
94889KARB ARB20160324000013603/24/16 00:00:31  5-MIN KARB 240500Z AUTO 10011G16KT 3SM UP BR OVC005 03/02 A2990 860 92 -300 100/11G16 RMK AO2 UPB0457 P0000 T00280017
94889KARB ARB20160324000513603/24/16 00:05:31  5-MIN KARB 240505Z AUTO 10010G16KT 3SM UP BR OVC005 03/02 A2990 860 92 -300 110/10G16 RMK AO2 UPB0457 P0000 T00280017
94889KARB ARB20160324001014303/24/16 00:10:31  5-MIN KARB 240510Z AUTO 10009KT 2 1/2SM -RA BR OVC005 03/02 A2989 870 96 -300 100/09 RMK AO2 UPB0457E08RAB08 P0000 T00280022
94889KARB ARB20160324001514303/24/16 00:15:31  5-MIN KARB 240515Z AUTO 10009KT 2 1/2SM -RA BR OVC005 03/02 A2989 870 96 -300 110/09 RMK AO2 UPB0457E08RAB08 P0001 T00280022
94889KARB ARB20160324002014303/24/16 00:20:31  5-MIN KARB 240520Z AUTO 09011KT 2 1/2SM -RA BR OVC005 03/02 A2989 870 96 -300 100/11 RMK AO2 UPB0457E08RAB08 P0001 T00280022
94889KARB ARB20160324002514303/24/16 00:25:31  5-MIN KARB 240525Z AUTO 09008KT 2 1/2SM -RA BR OVC005 03/02 A2989 870 96 -300 100/08 RMK AO2 UPB0457E08RAB08 P0002 T00280022
94889KARB ARB20160324003014903/24/16 00:30:31  5-MIN KARB 240530Z AUTO 09010G15KT 2 1/2SM -RA BR OVC005 03/02 A2989 870 96 -300 090/10G15 RMK AO2 UPB0457E08RAB08 P0002 T00280022
94889KARB ARB20160324003513903/24/16 00:35:31  5-MIN KARB 240535Z AUTO 09008KT 3SM -RA BR OVC005 03/02 A2988 880 96 -300 100/08 RMK AO2 UPB0457E08RAB08 P0003 T00280022
94889KARB ARB20160324004013903/24/16 00:40:31  5-MIN KARB 240540Z AUTO 08009KT 3SM -RA BR OVC005 03/02 A2988 880 96 -300 090/09 RMK AO2 UPB0457E08RAB08 P0004 T00280022
94889KARB ARB20160324004514303/24/16 00:45:31  5-MIN KARB 240545Z AUTO 08010KT 2 1/2SM -RA BR OVC005 03/02 A2987 880 96 -300 090/10 RMK AO2 UPB0457E08RAB08 P0004 T00280022
94889KARB ARB20160324005017403/24/16 00:50:31  5-MIN KARB 240550Z AUTO 08007KT 2 1/2SM -RA BR OVC004 03/02 A2987 890 96 -300 090/07 RMK AO2 UPB0457E08RAB08 SLP120 P0005 60008 T00280022 10044 20028 58005
94889KARB ARB20160324005512703/24/16 00:55:31  5-MIN KARB 240555Z AUTO 08008KT 2 1/2SM -RA BR OVC004 03/02 A2987 890 96 -300 080/08 RMK AO2 P0001 T00280022
94889KARB ARB20160324010012703/24/16 01:00:31  5-MIN KARB 240600Z AUTO 08008KT 2 1/2SM -RA BR OVC004 03/02 A2987 890 96 -300 090/08 RMK AO2 P0001 T00280022
94889KARB ARB20160324010512703/24/16 01:05:31  5-MIN KARB 240605Z AUTO 08010KT 2 1/2SM -RA BR OVC004 03/02 A2987 890 96 -300 090/10 RMK AO2 P0002 T00280022
94889KARB ARB20160324011012703/24/16 01:10:31  5-MIN KARB 240610Z AUTO 09010KT 2 1/2SM -RA BR OVC004 03/02 A2987 890 96 -300 100/10 RMK AO2 P0002 T00280022
94889KARB ARB20160324011512303/24/16 01:15:31  5-MIN KARB 240615Z AUTO 09010KT 4SM -RA BR OVC004 03/02 A2986 890 96 -300 100/10 RMK AO2 P0002 T00280022
94889KARB ARB20160324012013503/24/16 01:20:31  5-MIN KARB 240620Z AUTO 09011KT 5SM -RA BR OVC004 03/02 A2986 900 92 -300 100/11 RMK AO2 CIG 004V008 P0002 T00280017
94889KARB ARB20160324012514403/24/16 01:25:31  5-MIN KARB 240625Z AUTO 10010KT 4SM -RA BR OVC005 03/02 A2986 900 92 -300 100/10 RMK AO2 UPB22E23 CIG 004V008 P0003 T00280017
94889KARB ARB20160324013014403/24/16 01:30:31  5-MIN KARB 240630Z AUTO 10010KT 4SM -RA BR OVC005 03/02 A2986 900 92 -300 100/10 RMK AO2 UPB22E23 CIG 004V009 P0003 T00280017
94889KARB ARB20160324013515003/24/16 01:35:31  5-MIN KARB 240635Z AUTO 10008G15KT 4SM -RA BR OVC005 03/02 A2985 900 92 -300 100/08G15 RMK AO2 UPB22E23 CIG 004V009 P0003 T00280017
94889KARB ARB20160324014014403/24/16 01:40:31  5-MIN KARB 240640Z AUTO 08007KT 4SM -RA BR OVC005 03/02 A2985 910 96 -300 090/07 RMK AO2 UPB22E23 CIG 004V009 P0003 T00280022
94889KARB ARB20160324014515003/24/16 01:45:31  5-MIN KARB 240645Z AUTO 09010G16KT 4SM -RA BR OVC005 03/02 A2984 910 96 -300 100/10G16 RMK AO2 UPB22E23 CIG 004V009 P0003 T00280022
94889KARB ARB20160324015015103/24/16 01:50:31  5-MIN KARB 240650Z AUTO 09011KT 3SM -RA BR OVC005 03/02 A2984 910 96 -300 090/11 RMK AO2 UPB22E23 CIG 004V009 SLP111 P0004 T00280022
94889KARB ARB20160324015513503/24/16 01:55:31  5-MIN KARB 240655Z AUTO 09008KT 3SM -RA BR OVC005 03/02 A2984 920 96 -300 100/08 RMK AO2 CIG 004V009 P0000 T00280022
94889KARB ARB20160324020012303/24/16 02:00:31  5-MIN KARB 240700Z AUTO 08009KT 3SM -RA BR OVC005 03/02 A2983 920 96 -200 090/09 RMK AO2 P0000 T00280022
94889KARB ARB20160324020512303/24/16 02:05:31  5-MIN KARB 240705Z AUTO 09007KT 3SM -RA BR OVC005 03/02 A2983 920 96 -200 100/07 RMK AO2 P0000 T00280022
94889KARB ARB20160324021012903/24/16 02:10:31  5-MIN KARB 240710Z AUTO 08011G15KT 3SM -RA BR OVC004 03/02 A2983 930 96 -200 090/11G15 RMK AO2 P0001 T00280022
94889KARB ARB20160324021512903/24/16 02:15:31  5-MIN KARB 240715Z AUTO 09011G16KT 3SM -RA BR OVC004 03/02 A2982 930 96 -200 090/11G16 RMK AO2 P0001 T00280022
94889KARB ARB20160324022012303/24/16 02:20:31  5-MIN KARB 240720Z AUTO 08010KT 4SM -RA BR OVC004 03/02 A2982 930 96 -200 090/10 RMK AO2 P0001 T00280022
94889KARB ARB20160324022512303/24/16 02:25:31  5-MIN KARB 240725Z AUTO 07010KT 4SM -RA BR OVC004 03/02 A2982 930 96 -200 070/10 RMK AO2 P0002 T00280022
94889KARB ARB20160324023012803/24/16 02:30:31  5-MIN KARB 240730Z AUTO 09007G14KT 3SM RA BR OVC004 03/02 A2982 930 96 -200 100/07G14 RMK AO2 P0003 T00280022
94889KARB ARB20160324023512303/24/16 02:35:31  5-MIN KARB 240735Z AUTO 08006KT 3SM -RA BR OVC004 03/02 A2982 930 96 -200 090/06 RMK AO2 P0004 T00280022
94889KARB ARB20160324024012303/24/16 02:40:31  5-MIN KARB 240740Z AUTO 07006KT 3SM -RA BR OVC004 03/02 A2982 930 96 -200 080/06 RMK AO2 P0004 T00280022
94889KARB ARB20160324024512303/24/16 02:45:31  5-MIN KARB 240745Z AUTO 08007KT 3SM -RA BR OVC004 03/02 A2983 930 96 -200 090/07 RMK AO2 P0004 T00280022
94889KARB ARB20160324025013003/24/16 02:50:31  5-MIN KARB 240750Z AUTO 07005KT 3SM -RA BR OVC004 03/02 A2982 930 96 -200 080/05 RMK AO2 SLP103 P0005 T00280022
94889KARB ARB20160324025512303/24/16 02:55:31  5-MIN KARB 240755Z AUTO 08006KT 4SM -RA BR OVC004 03/02 A2982 930 96 -200 080/06 RMK AO2 P0000 T00280022
94889KARB ARB20160324030012303/24/16 03:00:31  5-MIN KARB 240800Z AUTO 08008KT 4SM -RA BR OVC004 03/02 A2982 930 96 -200 090/08 RMK AO2 P0001 T00280022
94889KARB ARB20160324030512303/24/16 03:05:31  5-MIN KARB 240805Z AUTO 08006KT 4SM -RA BR OVC004 03/02 A2982 930 96 -200 090/06 RMK AO2 P0001 T00280022
94889KARB ARB20160324031012303/24/16 03:10:31  5-MIN KARB 240810Z AUTO 08008KT 4SM -RA BR OVC004 03/02 A2982 940 96 -200 090/08 RMK AO2 P0001 T00280022
94889KARB ARB20160324031512303/24/16 03:15:31  5-MIN KARB 240815Z AUTO 08006KT 4SM -RA BR OVC004 03/02 A2982 940 96 -200 090/06 RMK AO2 P0002 T00280022
94889KARB ARB20160324032013303/24/16 03:20:31  5-MIN KARB 240820Z AUTO 11004KT 3SM UP BR OVC004 03/02 A2982 940 96 -200 110/04 RMK AO2 RAE17UPB17 P0002 T00280022
94889KARB ARB20160324032514403/24/16 03:25:31  5-MIN KARB 240825Z AUTO 09010KT 2 1/2SM UP BR OVC004 03/02 A2980 950 96 -200 090/10 RMK AO2 RAE17UPB17 PRESFR P0002 T00280022
94889KARB ARB20160324033013703/24/16 03:30:31  5-MIN KARB 240830Z AUTO VRB04KT 2 1/2SM UP BR OVC004 03/02 A2980 950 96 -200 VRB/04 RMK AO2 RAE17UPB17 P0002 T00280022
94889KARB ARB20160324033513403/24/16 03:35:31  5-MIN KARB 240835Z AUTO 10005KT 3SM UP BR OVC004 03/03 A2980 950 100 -200 100/05 RMK AO2 RAE17UPB17 P0002 T00280028
94889KARB ARB20160324034013303/24/16 03:40:31  5-MIN KARB 240840Z AUTO 09006KT 3SM UP BR OVC003 03/02 A2980 950 96 -200 090/06 RMK AO2 RAE17UPB17 P0003 T00280022
94889KARB ARB20160324034513303/24/16 03:45:31  5-MIN KARB 240845Z AUTO 09008KT 3SM UP BR OVC003 03/02 A2979 960 96 -200 090/08 RMK AO2 RAE17UPB17 P0003 T00280022
94889KARB ARB20160324035015203/24/16 03:50:31  5-MIN KARB 240850Z AUTO 08010KT 4SM BR OVC003 03/02 A2979 960 96 -200 090/10 RMK AO2 RAE17UPB17E48 SLP092 P0003 60012 T00280022 58026
94889KARB ARB20160324035511403/24/16 03:55:31  5-MIN KARB 240855Z AUTO VRB05KT 4SM BR OVC003 03/03 A2979 960 100 -200 VRB/05 RMK AO2 T00280028
94889KARB ARB20160324040011403/24/16 04:00:31  5-MIN KARB 240900Z AUTO 09005KT 5SM BR OVC003 03/03 A2979 960 100 -200 100/05 RMK AO2 T00280028
94889KARB ARB20160324040511403/24/16 04:05:31  5-MIN KARB 240905Z AUTO 10006KT 5SM BR OVC003 03/03 A2978 970 100 -200 110/06 RMK AO2 T00280028
94889KARB ARB20160324041011403/24/16 04:10:31  5-MIN KARB 240910Z AUTO 09008KT 5SM BR OVC003 03/03 A2978 970 100 -200 090/08 RMK AO2 T00280028
94889KARB ARB20160324041511303/24/16 04:15:31  5-MIN KARB 240915Z AUTO 08007KT 5SM BR OVC003 03/02 A2977 980 92 -100 080/07 RMK AO2 T00330022
94889KARB ARB20160324042011303/24/16 04:20:31  5-MIN KARB 240920Z AUTO 08007KT 5SM BR OVC003 03/03 A2977 980 96 -100 080/07 RMK AO2 T00330028
94889KARB ARB20160324042511403/24/16 04:25:31  5-MIN KARB 240925Z AUTO 07007KT 5SM BR OVC003 03/03 A2977 980 100 -200 070/07 RMK AO2 T00280028
94889KARB ARB20160324043011403/24/16 04:30:31  5-MIN KARB 240930Z AUTO 08007KT 4SM BR OVC003 03/03 A2977 980 100 -200 080/07 RMK AO2 T00280028
94889KARB ARB20160324043511403/24/16 04:35:31  5-MIN KARB 240935Z AUTO 08007KT 4SM BR OVC003 03/03 A2977 980 100 -200 090/07 RMK AO2 T00280028
94889KARB ARB20160324044011403/24/16 04:40:31  5-MIN KARB 240940Z AUTO 07007KT 4SM BR OVC003 03/03 A2977 980 100 -200 080/07 RMK AO2 T00280028
94889KARB ARB20160324044511303/24/16 04:45:31  5-MIN KARB 240945Z AUTO 07005KT 4SM BR OVC003 03/03 A2977 980 96 -100 080/05 RMK AO2 T00330028
94889KARB ARB20160324045012103/24/16 04:50:31  5-MIN KARB 240950Z AUTO 08006KT 4SM BR OVC003 03/03 A2977 980 100 -200 080/06 RMK AO2 SLP086 T00280028
94889KARB ARB20160324045511403/24/16 04:55:31  5-MIN KARB 240955Z AUTO 07008KT 4SM BR OVC003 03/03 A2976 990 100 -200 080/08 RMK AO2 T00280028
94889KARB ARB20160324050011303/24/16 05:00:31  5-MIN KARB 241000Z AUTO 08008KT 4SM BR OVC003 03/03 A2977 990 96 -100 090/08 RMK AO2 T00330028
94889KARB ARB20160324050511303/24/16 05:05:31  5-MIN KARB 241005Z AUTO 08007KT 4SM BR OVC003 03/03 A2976 990 96 -100 080/07 RMK AO2 T00330028
94889KARB ARB20160324051011303/24/16 05:10:31  5-MIN KARB 241010Z AUTO 08007KT 4SM BR OVC002 03/03 A2976 990 96 -100 090/07 RMK AO2 T00330028
94889KARB ARB20160324051511303/24/16 05:15:31  5-MIN KARB 241015Z AUTO 10005KT 4SM BR OVC002 03/03 A2976 990 96 -100 100/05 RMK AO2 T00330028
94889KARB ARB20160324052011303/24/16 05:20:31  5-MIN KARB 241020Z AUTO 08009KT 4SM BR OVC003 03/03 A2976 990 96 -100 090/09 RMK AO2 T00330028
94889KARB ARB20160324052511403/24/16 05:25:31  5-MIN KARB 241025Z AUTO 08007KT 4SM BR OVC003 03/03 A2975 1000 96 -100 090/07 RMK AO2 T00330028
94889KARB ARB20160324053011403/24/16 05:30:31  5-MIN KARB 241030Z AUTO 08008KT 4SM BR OVC003 03/03 A2975 1000 96 -100 090/08 RMK AO2 T00330028
94889KARB ARB20160324053511403/24/16 05:35:31  5-MIN KARB 241035Z AUTO 09010KT 4SM BR OVC003 03/03 A2975 1000 96 -100 100/10 RMK AO2 T00330028
94889KARB ARB20160324054011403/24/16 05:40:31  5-MIN KARB 241040Z AUTO 09007KT 4SM BR OVC003 03/03 A2975 1000 96 -100 090/07 RMK AO2 T00330028
94889KARB ARB20160324054511403/24/16 05:45:31  5-MIN KARB 241045Z AUTO 08008KT 4SM BR OVC003 03/03 A2974 1010 96 -100 090/08 RMK AO2 T00330028
94889KARB ARB20160324055012103/24/16 05:50:31  5-MIN KARB 241050Z AUTO 09007KT 3SM BR OVC003 03/03 A2974 1000 96 -100 100/07 RMK AO2 SLP077 T00330028
94889KARB ARB20160324055511403/24/16 05:55:31  5-MIN KARB 241055Z AUTO 09006KT 3SM BR OVC003 03/03 A2974 1010 96 -100 100/06 RMK AO2 T00330028
94889KARB ARB20160324060011403/24/16 06:00:31  5-MIN KARB 241100Z AUTO 08008KT 3SM BR OVC003 03/03 A2974 1010 96 -100 090/08 RMK AO2 T00330028
94889KARB ARB20160324060511403/24/16 06:05:31  5-MIN KARB 241105Z AUTO 08007KT 3SM BR OVC003 03/03 A2974 1010 96 -100 090/07 RMK AO2 T00330028
94889KARB ARB20160324061011403/24/16 06:10:31  5-MIN KARB 241110Z AUTO 08007KT 3SM BR OVC003 03/03 A2974 1010 96 -100 080/07 RMK AO2 T00330028
94889KARB ARB20160324061511403/24/16 06:15:31  5-MIN KARB 241115Z AUTO 08007KT 3SM BR OVC003 03/03 A2974 1010 96 -100 080/07 RMK AO2 T00330028
94889KARB ARB20160324062011403/24/16 06:20:31  5-MIN KARB 241120Z AUTO 09008KT 3SM BR OVC003 03/03 A2973 1020 96 -100 090/08 RMK AO2 T00330028
94889KARB ARB20160324062511403/24/16 06:25:31  5-MIN KARB 241125Z AUTO 08009KT 3SM BR OVC002 03/03 A2973 1020 96 -100 090/09 RMK AO2 T00330028
94889KARB ARB20160324063011803/24/16 06:30:31  5-MIN KARB 241130Z AUTO 09006KT 2 1/2SM BR OVC002 03/03 A2973 1020 96 -100 100/06 RMK AO2 T00330028
94889KARB ARB20160324063511403/24/16 06:35:31  5-MIN KARB 241135Z AUTO 09008KT 3SM BR OVC002 03/03 A2973 1020 96 -100 100/08 RMK AO2 T00330028
94889KARB ARB20160324064011403/24/16 06:40:31  5-MIN KARB 241140Z AUTO 09008KT 3SM BR OVC002 03/03 A2973 1010 96 -100 090/08 RMK AO2 T00330028
94889KARB ARB20160324064511403/24/16 06:45:31  5-MIN KARB 241145Z AUTO 08008KT 3SM BR OVC002 03/03 A2973 1020 96 -100 090/08 RMK AO2 T00330028
94889KARB ARB20160324065015203/24/16 06:50:31  5-MIN KARB 241150Z AUTO 09007KT 3SM BR OVC002 03/03 A2973 1020 100 -100 090/07 RMK AO2 SLP073 60012 70020 T00330033 10033 20028 56024
94889KARB ARB20160324065511503/24/16 06:55:31  5-MIN KARB 241155Z AUTO VRB04KT 3SM BR OVC002 03/03 A2973 1020 100 -100 VRB/04 RMK AO2 T00330033
94889KARB ARB20160324070011103/24/16 07:00:31  5-MIN KARB 241200Z AUTO VRB05KT 3SM BR OVC003 04/03 A2973 1010 96 0 VRB/05 RMK AO2 T00390033
94889KARB ARB20160324070511103/24/16 07:05:31  5-MIN KARB 241205Z AUTO 07008KT 3SM BR OVC003 04/03 A2973 1020 96 0 080/08 RMK AO2 T00390033
94889KARB ARB20160324071010103/24/16 07:10:31  5-MIN KARB 241210Z AUTO 3SM BR OVC003 04/03 A2973 1020 96 0 M /M RMK AO2 T00390033
94889KARB ARB20160324071511503/24/16 07:15:31  5-MIN KARB 241215Z AUTO 08009KT 2 1/2SM BR OVC003 04/03 A2972 1030 96 0 080/09 RMK AO2 T00390033
94889KARB ARB20160324072013103/24/16 07:20:31  5-MIN KARB 241220Z AUTO 10006KT 1 3/4SM -RA BR OVC003 04/03 A2971 1040 96 0 100/06 RMK AO2 RAB20 P0000 T00390033
94889KARB ARB20160324072513703/24/16 07:25:31  5-MIN KARB 241225Z AUTO VRB05G15KT 1 3/4SM -RA BR OVC003 04/03 A2971 1030 96 0 VRB/05G15 RMK AO2 RAB20 P0000 T00390033
94889KARB ARB20160324073013303/24/16 07:30:31  5-MIN KARB 241230Z AUTO 10008G15KT 2SM -RA BR OVC003 04/03 A2971 1040 96 0 110/08G15 RMK AO2 RAB20 P0000 T00390033
94889KARB ARB20160324073513403/24/16 07:35:31  5-MIN KARB 241235Z AUTO 09007KT 2SM -RA BR BKN003 OVC041 04/03 A2971 1040 96 0 100/07 RMK AO2 RAB20 P0000 T00390033
94889KARB ARB20160324074013403/24/16 07:40:31  5-MIN KARB 241240Z AUTO VRB06KT 2SM -RA BR BKN003 OVC041 04/03 A2971 1030 96 0 VRB/06 RMK AO2 RAB20 P0000 T00390033
94889KARB ARB20160324074513903/24/16 07:45:31  5-MIN KARB 241245Z AUTO 07012G15KT 2SM BR BKN003 OVC039 04/03 A2971 1040 96 0 080/12G15 RMK AO2 RAB20E45 P0000 T00390033
94889KARB ARB20160324075013103/24/16 07:50:31  5-MIN KARB 241250Z AUTO 2SM -RA BR BKN003 OVC039 04/03 A2971 1040 96 0 M /M RMK AO2 RAB20 SLP064 P0000 T00390033
94889KARB ARB20160324075513203/24/16 07:55:31  5-MIN KARB 241255Z AUTO 08007KT 2SM BR BKN003 OVC039 04/04 A2970 1040 96 100 090/07 RMK AO2 RAE54 P0000 T00440039
94889KARB ARB20160324080013403/24/16 08:00:31  5-MIN KARB 241300Z AUTO 08006KT 2SM BR SCT003 OVC039 04/04 A2970 1050 96 100 090/06 RMK AO2 RAE1254 P0000 T00440039
94889KARB ARB20160324080513003/24/16 08:05:31  5-MIN KARB 241305Z AUTO 08006KT 2SM -RA BR SCT003 OVC039 04/04 A2970 1050 96 100 080/06 RMK AO2 P0000 T00440039
94889KARB ARB20160324081013703/24/16 08:10:31  5-MIN KARB 241310Z AUTO 09007KT 2SM -RA BR SCT003 BKN039 OVC050 04/04 A2970 1050 96 100 100/07 RMK AO2 P0000 T00440039
94889KARB ARB20160324081514303/24/16 08:15:31  5-MIN KARB 241315Z AUTO 10006KT 2 1/2SM BR SCT003 BKN039 OVC048 04/04 A2970 1050 96 100 100/06 RMK AO2 RAE14 P0000 T00440039
94889KARB ARB20160324082013603/24/16 08:20:31  5-MIN KARB 241320Z AUTO 11005KT 2 1/2SM BR SCT003 OVC039 04/04 A2970 1050 96 100 110/05 RMK AO2 RAE14 P0000 T00440039
94889KARB ARB20160324082513203/24/16 08:25:31  5-MIN KARB 241325Z AUTO 11005KT 2SM BR FEW004 OVC039 04/04 A2969 1050 96 100 120/05 RMK AO2 RAE14 P0000 T00440039
94889KARB ARB20160324083014303/24/16 08:30:31  5-MIN KARB 241330Z AUTO 11007KT 2 1/2SM BR FEW004 BKN039 OVC050 04/04 A2969 1060 96 100 120/07 RMK AO2 RAE14 P0000 T00440039
94889KARB ARB20160324083514303/24/16 08:35:31  5-MIN KARB 241335Z AUTO 10006KT 2 1/2SM BR FEW004 BKN039 OVC065 04/04 A2968 1070 96 100 110/06 RMK AO2 RAE14 P0000 T00440039
94889KARB ARB20160324084013903/24/16 08:40:31  5-MIN KARB 241340Z AUTO 10005KT 2SM BR SCT004 BKN039 OVC065 04/04 A2967 1070 96 100 110/05 RMK AO2 RAE14 P0000 T00440039
94889KARB ARB20160324084513903/24/16 08:45:31  5-MIN KARB 241345Z AUTO 11006KT 2SM BR SCT004 BKN039 OVC085 04/04 A2967 1070 96 100 120/06 RMK AO2 RAE14 P0000 T00440039
94889KARB ARB20160324085015003/24/16 08:50:31  5-MIN KARB 241350Z AUTO 10006KT 2 1/2SM BR FEW003 BKN060 OVC080 05/04 A2967 1070 96 200 110/06 RMK AO2 RAE14 SLP052 P0000 T00500044
94889KARB ARB20160324085513103/24/16 08:55:31  5-MIN KARB 241355Z AUTO 10007KT 2 1/2SM BR FEW003 BKN065 OVC080 05/04 A2966 1080 96 200 110/07 RMK AO2 T00500044
94889KARB ARB20160324090014903/24/16 09:00:31  5-MIN KARB 241400Z AUTO 10006KT 2 1/2SM -RA BR FEW003 BKN065 OVC080 05/04 A2966 1080 92 200 110/06 RMK AO2 RAB1359 P0000 T00500039
94889KARB ARB20160324090514903/24/16 09:05:31  5-MIN KARB 241405Z AUTO 10004KT 2 1/2SM -RA BR FEW003 BKN065 OVC080 05/04 A2966 1080 96 200 100/04 RMK AO2 RAB1359 P0001 T00500044
94889KARB ARB20160324091014903/24/16 09:10:31  5-MIN KARB 241410Z AUTO 11005KT 2 1/2SM -RA BR FEW003 BKN065 OVC080 05/04 A2966 1080 96 200 120/05 RMK AO2 RAB1359 P0001 T00500044
94889KARB ARB20160324091513803/24/16 09:15:31  5-MIN KARB 241415Z AUTO VRB04KT 2SM -RA BR BKN060 OVC080 05/04 A2966 1080 96 200 VRB/04 RMK AO2 RAB1359 P0001 T00500044
94889KARB ARB20160324092013803/24/16 09:20:31  5-MIN KARB 241420Z AUTO 09005KT 2SM -RA BR BKN065 OVC080 05/04 A2965 1090 96 200 090/05 RMK AO2 RAB1359 P0002 T00500044
94889KARB ARB20160324092514503/24/16 09:25:31  5-MIN KARB 241425Z AUTO 09005KT 2SM -RA BR FEW041 BKN060 OVC080 05/04 A2965 1090 96 200 100/05 RMK AO2 RAB1359 P0002 T00500044
94889KARB ARB20160324093014203/24/16 09:30:31  5-MIN KARB 241430Z AUTO 10005KT 1 3/4SM -RA BR BKN060 OVC075 06/05 A2964 1100 96 300 110/05 RMK AO2 RAB1359 P0003 T00560050
94889KARB ARB20160324093513803/24/16 09:35:31  5-MIN KARB 241435Z AUTO 11004KT 2SM -RA BR BKN065 OVC080 06/05 A2965 1100 96 300 110/04 RMK AO2 RAB1359 P0003 T00560050
94889KARB ARB20160324094014203/24/16 09:40:31  5-MIN KARB 241440Z AUTO 10004KT 1 3/4SM -RA BR BKN065 OVC080 06/05 A2964 1100 96 300 100/04 RMK AO2 RAB1359 P0004 T00560050
94889KARB ARB20160324094514103/24/16 09:45:31  5-MIN KARB 241445Z AUTO 10004KT 1 3/4SM RA BR BKN065 OVC075 06/05 A2964 1100 96 300 110/04 RMK AO2 RAB1359 P0006 T00560050
94889KARB ARB20160324095016003/24/16 09:50:31  5-MIN KARB 241450Z AUTO 10005KT 1 3/4SM RA BR BKN060 OVC075 06/05 A2964 1100 96 300 110/05 RMK AO2 RAB1359 SLP043 P0007 60007 T00560050 56020
94889KARB ARB20160324095514003/24/16 09:55:31  5-MIN KARB 241455Z AUTO 11006KT 1 3/4SM RA BR FEW023 BKN055 OVC075 06/05 A2964 1100 96 300 110/06 RMK AO2 P0001 T00560050
94889KARB ARB20160324100014003/24/16 10:00:31  5-MIN KARB 241500Z AUTO 09005KT 1 3/4SM RA BR SCT025 BKN050 OVC070 06/05 A2963 1110 96 300 100/05 RMK AO2 P0002 T00560050
94889KARB ARB20160324100514003/24/16 10:05:31  5-MIN KARB 241505Z AUTO 09005KT 1 1/2SM RA BR BKN025 BKN055 OVC070 06/06 A2963 1110 96 300 100/05 RMK AO2 P0003 T00610056
94889KARB ARB20160324101014003/24/16 10:10:31  5-MIN KARB 241510Z AUTO 10004KT 1 1/2SM RA BR BKN025 BKN050 OVC070 06/06 A2963 1110 96 300 110/04 RMK AO2 P0005 T00610056
94889KARB ARB20160324101514003/24/16 10:15:31  5-MIN KARB 241515Z AUTO 11004KT 1 1/2SM RA BR BKN025 BKN034 OVC047 06/06 A2963 1110 96 400 110/04 RMK AO2 P0006 T00610056
94889KARB ARB20160324102012603/24/16 10:20:31  5-MIN KARB 241520Z AUTO 11005KT 1 3/4SM RA BR OVC025 06/06 A2962 1120 96 400 120/05 RMK AO2 P0006 T00610056
94889KARB ARB20160324102512703/24/16 10:25:31  5-MIN KARB 241525Z AUTO 11004KT 1 3/4SM -RA BR OVC024 06/06 A2962 1120 96 400 110/04 RMK AO2 P0007 T00610056
94889KARB ARB20160324103012703/24/16 10:30:31  5-MIN KARB 241530Z AUTO 11003KT 1 3/4SM -RA BR OVC024 06/06 A2962 1120 96 400 120/03 RMK AO2 P0008 T00610056
94889KARB ARB20160324103512603/24/16 10:35:31  5-MIN KARB 241535Z AUTO 09003KT 1 3/4SM RA BR OVC024 06/06 A2962 1120 96 400 090/03 RMK AO2 P0009 T00610056
94889KARB ARB20160324104012603/24/16 10:40:31  5-MIN KARB 241540Z AUTO 10003KT 1 1/2SM RA BR OVC024 07/06 A2962 1120 93 400 110/03 RMK AO2 P0010 T00670056
94889KARB ARB20160324104513303/24/16 10:45:31  5-MIN KARB 241545Z AUTO 10004KT 1 1/2SM RA BR BKN024 OVC034 06/06 A2961 1130 96 400 110/04 RMK AO2 P0012 T00610056
94889KARB ARB20160324105014703/24/16 10:50:31  5-MIN KARB 241550Z AUTO 00000KT 1 1/2SM RA BR FEW022 BKN026 OVC036 07/06 A2961 1130 93 400 000/00 RMK AO2 SLP033 P0014 T00670056
94889KARB ARB20160324105514003/24/16 10:55:31  5-MIN KARB 241555Z AUTO 10003KT 1 1/2SM RA BR FEW015 BKN024 OVC036 07/06 A2961 1130 96 400 110/03 RMK AO2 P0000 T00670061
94889KARB ARB20160324110014003/24/16 11:00:31  5-MIN KARB 241600Z AUTO 12004KT 1 1/4SM RA BR FEW006 BKN026 OVC036 07/06 A2961 1130 96 400 120/04 RMK AO2 P0003 T00670061
94889KARB ARB20160324110514003/24/16 11:05:31  5-MIN KARB 241605Z AUTO 12003KT 1 1/4SM RA BR SCT006 BKN018 OVC036 07/06 A2961 1130 96 400 120/03 RMK AO2 P0005 T00670061
94889KARB ARB20160324111014003/24/16 11:10:31  5-MIN KARB 241610Z AUTO 00000KT 1 1/4SM RA BR BKN006 BKN018 OVC042 07/07 A2960 1140 96 500 000/00 RMK AO2 P0007 T00720067
94889KARB ARB20160324111514003/24/16 11:15:31  5-MIN KARB 241615Z AUTO 00000KT 1 1/4SM RA BR BKN004 BKN018 OVC035 07/07 A2960 1140 96 500 000/00 RMK AO2 P0009 T00720067
94889KARB ARB20160324112013003/24/16 11:20:31  5-MIN KARB 241620Z AUTO 00000KT 1SM RA BR BKN004 OVC013 07/07 A2960 1140 100 500 000/00 RMK AO2 P0011 T00720072
94889KARB ARB20160324112512203/24/16 11:25:31  5-MIN KARB 241625Z AUTO 14004KT 1SM RA BR OVC004 08/07 A2959 1150 96 600 140/04 RMK AO2 P0013 T00780072
94889KARB ARB20160324113012603/24/16 11:30:31  5-MIN KARB 241630Z AUTO 14004KT 1 1/4SM RA BR OVC004 08/08 A2959 1150 96 700 150/04 RMK AO2 P0014 T00830078
94889KARB ARB20160324113512603/24/16 11:35:31  5-MIN KARB 241635Z AUTO 16005KT 1 1/2SM RA BR OVC004 08/08 A2959 1150 96 700 160/05 RMK AO2 P0016 T00830078
94889KARB ARB20160324114012603/24/16 11:40:31  5-MIN KARB 241640Z AUTO 13005KT 1 3/4SM RA BR OVC004 08/08 A2958 1160 96 700 140/05 RMK AO2 P0017 T00830078
94889KARB ARB20160324114512603/24/16 11:45:31  5-MIN KARB 241645Z AUTO 14005KT 1 3/4SM RA BR OVC004 09/08 A2958 1160 96 700 150/05 RMK AO2 P0018 T00890083
94889KARB ARB20160324115013303/24/16 11:50:31  5-MIN KARB 241650Z AUTO 13005KT 1 1/2SM RA BR OVC004 09/08 A2958 1160 96 700 140/05 RMK AO2 SLP020 P0020 T00890083
94889KARB ARB20160324115512603/24/16 11:55:31  5-MIN KARB 241655Z AUTO 13005KT 1 1/2SM RA BR OVC004 09/08 A2958 1160 96 700 130/05 RMK AO2 P0001 T00890083
94889KARB ARB20160324120012603/24/16 12:00:31  5-MIN KARB 241700Z AUTO 22003KT 1 1/4SM RA BR OVC004 09/08 A2958 1160 96 700 220/03 RMK AO2 P0003 T00890083
94889KARB ARB20160324120512703/24/16 12:05:31  5-MIN KARB 241705Z AUTO 15004KT 1 1/4SM RA BR OVC004 08/08 A2957 1160 100 700 160/04 RMK AO2 P0005 T00830083
94889KARB ARB20160324121013303/24/16 12:10:31  5-MIN KARB 241710Z AUTO 15005KT 1 1/2SM RA BR BKN004 OVC012 09/08 A2957 1160 96 700 160/05 RMK AO2 P0007 T00890083
94889KARB ARB20160324121513303/24/16 12:15:31  5-MIN KARB 241715Z AUTO 16004KT 1 1/4SM RA BR BKN004 OVC010 09/08 A2957 1160 96 700 170/04 RMK AO2 P0010 T00890083
94889KARB ARB20160324122014003/24/16 12:20:31  5-MIN KARB 241720Z AUTO 16004KT 1 1/4SM RA BR BKN004 BKN010 OVC013 09/08 A2957 1160 96 700 170/04 RMK AO2 P0012 T00890083
94889KARB ARB20160324122513303/24/16 12:25:31  5-MIN KARB 241725Z AUTO 16004KT 1 1/2SM RA BR BKN004 OVC013 09/08 A2957 1170 96 800 170/04 RMK AO2 P0014 T00890083
94889KARB ARB20160324123013403/24/16 12:30:31  5-MIN KARB 241730Z AUTO 14004KT 1 1/2SM RA BR BKN004 OVC011 09/09 A2956 1170 100 800 150/04 RMK AO2 P0015 T00890089
94889KARB ARB20160324123513303/24/16 12:35:31  5-MIN KARB 241735Z AUTO 16004KT 1 1/2SM RA BR BKN004 OVC011 09/09 A2956 1180 96 800 170/04 RMK AO2 P0017 T00940089
94889KARB ARB20160324124013303/24/16 12:40:31  5-MIN KARB 241740Z AUTO 15004KT 1 3/4SM RA BR BKN004 OVC009 09/09 A2956 1180 96 800 160/04 RMK AO2 P0018 T00940089
94889KARB ARB20160324124512703/24/16 12:45:31  5-MIN KARB 241745Z AUTO 17004KT 1 3/4SM RA BR OVC003 09/09 A2955 1180 100 800 180/04 RMK AO2 P0019 T00940094
94889KARB ARB20160324125011603/24/16 12:50:31  5-MIN KARB 241750Z AUTO 17003KT 1 3/4SM RA BR OVC003 10/09 A2955 1190 96 900 180/03 RMK AO2 P0021
94889KARB ARB20160324125513303/24/16 12:55:31  5-MIN KARB 241755Z AUTO 15004KT 1 1/2SM RA BR OVC003 10/09 A2953 1200 96 900 160/04 RMK AO2 PRESFR P0001 T01000094
94889KARB ARB20160324130013403/24/16 13:00:31  5-MIN KARB 241800Z AUTO 15004KT 1 3/4SM RA BR OVC003 10/10 A2953 1210 100 900 160/04 RMK AO2 PRESFR P0003 T01000100
94889KARB ARB20160324130512303/24/16 13:05:31  5-MIN KARB 241805Z AUTO 16005KT 2SM RA BR OVC003 11/10 A2953 1210 96 1000 160/05 RMK AO2 P0004 T01060100
94889KARB ARB20160324131013003/24/16 13:10:31  5-MIN KARB 241810Z AUTO 15005KT 2SM RA BR OVC003 11/10 A2952 1220 96 1000 160/05 RMK AO2 PRESFR P0005 T01060100
94889KARB ARB20160324131513203/24/16 13:15:31  5-MIN KARB 241815Z AUTO 15006KT 2SM -RA BR OVC003 11/11 A2951 1220 100 1000 160/06 RMK AO2 PRESFR P0006 T01060106
94889KARB ARB20160324132013503/24/16 13:20:31  5-MIN KARB 241820Z AUTO 16006KT 2 1/2SM -RA BR OVC003 11/11 A2951 1230 96 1100 170/06 RMK AO2 PRESFR P0007 T01110106
94889KARB ARB20160324132513103/24/16 13:25:31  5-MIN KARB 241825Z AUTO 16007KT 3SM -RA BR OVC003 11/11 A2950 1230 96 1100 170/07 RMK AO2 PRESFR P0007 T01110106
94889KARB ARB20160324133012403/24/16 13:30:31  5-MIN KARB 241830Z AUTO 16007KT 3SM -RA BR OVC003 11/11 A2949 1240 96 1100 170/07 RMK AO2 P0007 T01110106
94889KARB ARB20160324133513103/24/16 13:35:31  5-MIN KARB 241835Z AUTO 16008KT 3SM -RA BR OVC003 12/11 A2949 1240 96 1200 160/08 RMK AO2 PRESFR P0008 T01170111
94889KARB ARB20160324134013103/24/16 13:40:31  5-MIN KARB 241840Z AUTO 15008KT 3SM -RA BR OVC003 11/11 A2948 1250 96 1100 160/08 RMK AO2 PRESFR P0008 T01110106
94889KARB ARB20160324134512403/24/16 13:45:31  5-MIN KARB 241845Z AUTO 16008KT 3SM -RA BR OVC003 12/11 A2948 1250 96 1200 170/08 RMK AO2 P0008 T01170111
94889KARB ARB20160324135013103/24/16 13:50:31  5-MIN KARB 241850Z AUTO 17008KT 3SM -RA BR OVC003 12/11 A2948 1250 96 1200 180/08 RMK AO2 SLP984 P0009 T01170111
94889KARB ARB20160324135513103/24/16 13:55:31  5-MIN KARB 241855Z AUTO 17008KT 3SM -RA BR BKN003 OVC009 12/11 A2948 1250 96 1200 180/08 RMK AO2 P0000 T01170111
94889KARB ARB20160324140013803/24/16 14:00:31  5-MIN KARB 241900Z AUTO 17009KT 3SM -RA BR BKN003 BKN009 OVC065 12/12 A2947 1260 96 1300 180/09 RMK AO2 P0001 T01220117
94889KARB ARB20160324140515103/24/16 14:05:31  5-MIN KARB 241905Z AUTO 17009G16KT 3SM -RA BR BKN003 BKN009 OVC065 12/12 A2946 1270 96 1300 170/09G16 RMK AO2 PRESFR P0001 T01220117
94889KARB ARB20160324141013803/24/16 14:10:31  5-MIN KARB 241910Z AUTO 18009KT 5SM -RA BR BKN005 BKN013 OVC080 13/12 A2946 1270 93 1300 190/09 RMK AO2 P0001 T01280117
94889KARB ARB20160324141513803/24/16 14:15:31  5-MIN KARB 241915Z AUTO 19011KT 10SM BKN005 BKN013 OVC080 13/12 A2945 1280 93 1400 190/11 RMK AO2 RAE15 P0001 T01330122
94889KARB ARB20160324142013803/24/16 14:20:31  5-MIN KARB 241920Z AUTO 19009KT 10SM SCT007 BKN011 OVC085 13/12 A2945 1280 93 1400 190/09 RMK AO2 RAE15 P0001 T01330122
94889KARB ARB20160324142514403/24/16 14:25:31  5-MIN KARB 241925Z AUTO 19012G20KT 10SM FEW007 BKN011 OVC070 13/12 A2945 1280 93 1400 200/12G20 RMK AO2 RAE15 P0001 T01330122
94889KARB ARB20160324143015103/24/16 14:30:31  5-MIN KARB 241930Z AUTO 19012G20KT 10SM -RA FEW007 BKN011 OVC055 14/12 A2945 1280 90 1500 200/12G20 RMK AO2 RAE15B28 P0001 T01390122
94889KARB ARB20160324143514503/24/16 14:35:31  5-MIN KARB 241935Z AUTO 19012KT 10SM -RA BKN011 BKN055 OVC070 14/12 A2944 1290 90 1500 190/12 RMK AO2 RAE15B28 P0001 T01390122
94889KARB ARB20160324144014403/24/16 14:40:31  5-MIN KARB 241940Z AUTO 19013KT 10SM BKN011 BKN060 OVC085 14/13 A2944 1290 93 1500 200/13 RMK AO2 RAE15B28E38 P0001 T01390128
94889KARB ARB20160324144514403/24/16 14:45:31  5-MIN KARB 241945Z AUTO 20010KT 10SM SCT011 SCT045 OVC060 14/12 A2944 1290 90 1500 200/10 RMK AO2 RAE15B28E38 P0001 T01390122
94889KARB ARB20160324145013403/24/16 14:50:31  5-MIN KARB 241950Z AUTO 19011KT 10SM FEW011 SCT046 OVC060 14/12 A2944 1290 90 1500 200/11 RMK AO2 RAE15B28E38 P0001
94889KARB ARB20160324145513603/24/16 14:55:31  5-MIN KARB 241955Z AUTO 20011KT 10SM -RA FEW010 BKN055 OVC070 14/12 A2944 1290 90 1500 210/11 RMK AO2 P0000 T01390122
94889KARB ARB20160324150013503/24/16 15:00:31  5-MIN KARB 242000Z AUTO 20012KT 9SM -RA FEW015 SCT049 OVC060 14/12 A2944 1290 90 1500 210/12 RMK AO2 P0001 T01390122
94889KARB ARB20160324150513503/24/16 15:05:31  5-MIN KARB 242005Z AUTO 19009KT 7SM -RA FEW015 BKN055 OVC070 14/13 A2943 1300 93 1500 200/09 RMK AO2 P0001 T01390128
94889KARB ARB20160324151013803/24/16 15:10:31  5-MIN KARB 242010Z AUTO 20011KT 6SM -RA BR FEW015 BKN055 OVC070 14/13 A2942 1300 93 1500 200/11 RMK AO2 P0002 T01390128
94889KARB ARB20160324151513503/24/16 15:15:31  5-MIN KARB 242015Z AUTO 19010KT 7SM -RA SCT015 BKN050 OVC070 14/13 A2942 1300 93 1500 200/10 RMK AO2 P0002 T01390128
94889KARB ARB20160324152013603/24/16 15:20:31  5-MIN KARB 242020Z AUTO 19011KT 10SM -RA SCT015 BKN035 OVC070 14/13 A2942 1300 93 1500 200/11 RMK AO2 P0002 T01390128
94889KARB ARB20160324152513603/24/16 15:25:31  5-MIN KARB 242025Z AUTO 20012KT 10SM -RA SCT012 BKN018 OVC070 14/13 A2942 1300 93 1500 210/12 RMK AO2 P0002 T01390128
94889KARB ARB20160324153013603/24/16 15:30:31  5-MIN KARB 242030Z AUTO 19011KT 10SM -RA SCT011 BKN021 OVC070 14/13 A2940 1320 93 1500 190/11 RMK AO2 P0002 T01390128
94889KARB ARB20160324153516603/24/16 15:35:31  5-MIN KARB 242035Z AUTO 17011G20KT 150V210 6SM RA BR BKN014 BKN032 OVC050 14/13 A2939 1330 93 1600 180/11G20 160V220 RMK AO2 PRESFR P0003 T01390128
94889KARB ARB20160324154014403/24/16 15:40:31  5-MIN KARB 242040Z AUTO 22009G20KT 6SM -RA BR SCT009 BKN019 OVC055 14/13 A2941 1320 93 1500 230/09G20 RMK AO2 P0003 T01390128
94889KARB ARB20160324154513603/24/16 15:45:31  5-MIN KARB 242045Z AUTO 22011KT 10SM -RA BKN007 BKN016 OVC030 14/13 A2941 1320 93 1500 230/11 RMK AO2 P0003 T01390128
94889KARB ARB20160324155016103/24/16 15:50:31  5-MIN KARB 242050Z AUTO 21011G18KT 10SM -RA BKN007 BKN019 OVC032 14/13 A2940 1330 93 1500 220/11G18 RMK AO2 SLP957 P0003 60013 T01390128 58035
94889KARB ARB20160324155513503/24/16 15:55:31  5-MIN KARB 242055Z AUTO 23009G18KT 10SM -RA BKN008 OVC032 14/13 A2940 1330 93 1500 240/09G18 RMK AO2 P0000 T01390128
94889KARB ARB20160324160012903/24/16 16:00:31  5-MIN KARB 242100Z AUTO 22011KT 10SM -RA BKN008 OVC015 14/13 A2941 1320 93 1500 230/11 RMK AO2 P0000 T01390128
94889KARB ARB20160324160513403/24/16 16:05:31  5-MIN KARB 242105Z AUTO 21007G14KT 8SM -RA BKN008 OVC013 14/13 A2939 1330 93 1600 210/07G14 RMK AO2 P0001 T01390128
94889KARB ARB20160324161015303/24/16 16:10:31  5-MIN KARB 242110Z AUTO 21013G17KT 7SM -RA BKN008 BKN013 OVC018 14/13 A2940 1330 93 1500 210/13G17 RMK AO2 CIG 006V010 P0001 T01390128
94889KARB ARB20160324161515303/24/16 16:15:31  5-MIN KARB 242115Z AUTO 19015G24KT 9SM -RA BKN008 BKN013 OVC020 14/13 A2939 1330 93 1600 200/15G24 RMK AO2 CIG 006V011 P0002 T01390128
94889KARB ARB20160324162014203/24/16 16:20:31  5-MIN KARB 242120Z AUTO 19014G24KT 10SM -RA SCT008 BKN013 OVC026 14/13 A2939 1340 93 1600 200/14G24 RMK AO2 P0002 T01390128
94889KARB ARB20160324162514903/24/16 16:25:31  5-MIN KARB 242125Z AUTO 17012G23KT 10SM -RA SCT008 BKN013 OVC022 14/13 A2934 1380 93 1600 180/12G23 RMK AO2 PRESFR P0002 T01390128
94889KARB ARB20160324163014203/24/16 16:30:31  5-MIN KARB 242130Z AUTO 20015G23KT 10SM -RA FEW010 BKN013 OVC100 14/12 A2938 1340 90 1600 210/15G23 RMK AO2 P0002 T01390122
94889KARB ARB20160324163514403/24/16 16:35:31  5-MIN KARB 242135Z AUTO 20013G21KT 10SM FEW011 BKN014 OVC110 14/12 A2937 1350 90 1600 200/13G21 RMK AO2 RAE31 P0002 T01390122
94889KARB ARB20160324164014403/24/16 16:40:31  5-MIN KARB 242140Z AUTO 20012G21KT 10SM BKN014 BKN019 OVC030 14/12 A2937 1350 90 1600 200/12G21 RMK AO2 RAE31 P0002 T01390122
94889KARB ARB20160324164513703/24/16 16:45:31  5-MIN KARB 242145Z AUTO 19015G22KT 10SM BKN014 OVC027 14/12 A2938 1350 90 1600 200/15G22 RMK AO2 RAE31 P0002 T01390122
94889KARB ARB20160324165013403/24/16 16:50:31  5-MIN KARB 242150Z AUTO 20012G22KT 10SM SCT013 BKN018 OVC027 14/12 A2938 1350 90 1600 210/12G22 RMK AO2 RAE31 P0002
94889KARB ARB20160324165513203/24/16 16:55:31  5-MIN KARB 242155Z AUTO 19014G22KT 10SM FEW011 BKN018 OVC027 14/12 A2937 1360 90 1600 200/14G22 RMK AO2 T01390122
94889KARB ARB20160324170013203/24/16 17:00:31  5-MIN KARB 242200Z AUTO 20012G19KT 10SM FEW011 BKN017 OVC023 13/12 A2937 1350 93 1500 210/12G19 RMK AO2 T01330122
94889KARB ARB20160324170515003/24/16 17:05:31  5-MIN KARB 242205Z AUTO 23012G19KT 5SM -RA BR FEW009 SCT013 OVC019 13/12 A2938 1340 93 1500 240/12G19 RMK AO2 RAB02 P0001 T01330122
94889KARB ARB20160324171016803/24/16 17:10:31  5-MIN KARB 242210Z AUTO 22015G26KT 5SM -RA BR SCT009 BKN016 OVC024 13/12 A2938 1340 93 1500 230/15G26 RMK AO2 PK WND 23026/2208 RAB02 P0001 T01330122
94889KARB ARB20160324171516603/24/16 17:15:31  5-MIN KARB 242215Z AUTO 22016G28KT 10SM -RA SCT009 BKN018 OVC050 14/12 A2938 1340 86 1600 230/16G28 RMK AO2 PK WND 23028/2212 RAB02 P0001 T01390117
94889KARB ARB20160324172016503/24/16 17:20:31  5-MIN KARB 242220Z AUTO 24014G28KT 10SM FEW009 SCT018 OVC055 14/11 A2938 1340 83 1600 240/14G28 RMK AO2 PK WND 23028/2212 RAB02E16 P0001 T01390111
94889KARB ARB20160324172515903/24/16 17:25:31  5-MIN KARB 242225Z AUTO 24015KT 10SM FEW009 SCT018 OVC055 14/11 A2938 1340 80 1600 240/15 RMK AO2 PK WND 23028/2212 RAB02E16 P0001 T01390106
94889KARB ARB20160324173015203/24/16 17:30:31  5-MIN KARB 242230Z AUTO 25014KT 10SM FEW009 OVC055 14/10 A2938 1350 77 1600 260/14 RMK AO2 PK WND 23028/2212 RAB02E16 P0001 T01390100
94889KARB ARB20160324173515103/24/16 17:35:31  5-MIN KARB 242235Z AUTO 24011G20KT 10SM OVC060 14/10 A2938 1350 77 1600 250/11G20 RMK AO2 PK WND 23028/2212 RAB02E16 P0001 T01390100
94889KARB ARB20160324174014503/24/16 17:40:31  5-MIN KARB 242240Z AUTO 24012KT 10SM OVC060 13/09 A2938 1340 77 1500 250/12 RMK AO2 PK WND 23028/2212 RAB02E16 P0001 T01330094
94889KARB ARB20160324174514503/24/16 17:45:31  5-MIN KARB 242245Z AUTO 24012KT 10SM OVC060 13/09 A2939 1340 77 1500 250/12 RMK AO2 PK WND 23028/2212 RAB02E16 P0001 T01330094
94889KARB ARB20160324175015203/24/16 17:50:31  5-MIN KARB 242250Z AUTO 24010KT 10SM OVC060 13/09 A2939 1340 80 1400 250/10 RMK AO2 PK WND 23028/2212 RAB02E16 SLP953 P0001 T01280094
94889KARB ARB20160324175511203/24/16 17:55:31  5-MIN KARB 242255Z AUTO 23009KT 10SM OVC060 13/09 A2939 1330 80 1400 240/09 RMK AO2 T01280094
94889KARB ARB20160324180011203/24/16 18:00:31  5-MIN KARB 242300Z AUTO 22010KT 10SM OVC060 13/09 A2940 1330 80 1400 230/10 RMK AO2 T01280094
94889KARB ARB20160324180511203/24/16 18:05:31  5-MIN KARB 242305Z AUTO 22009KT 10SM OVC060 13/09 A2940 1330 80 1400 230/09 RMK AO2 T01280094
94889KARB ARB20160324181011203/24/16 18:10:31  5-MIN KARB 242310Z AUTO 21009KT 10SM OVC060 13/09 A2940 1320 80 1400 220/09 RMK AO2 T01280094
94889KARB ARB20160324181511203/24/16 18:15:31  5-MIN KARB 242315Z AUTO 22009KT 10SM OVC060 13/09 A2941 1320 80 1400 230/09 RMK AO2 T01280094
94889KARB ARB20160324182011203/24/16 18:20:31  5-MIN KARB 242320Z AUTO 23009KT 10SM OVC060 13/09 A2941 1320 77 1400 230/09 RMK AO2 T01280089
94889KARB ARB20160324182511903/24/16 18:25:31  5-MIN KARB 242325Z AUTO 23009KT 10SM BKN065 OVC080 12/09 A2941 1320 80 1300 240/09 RMK AO2 T01220089
94889KARB ARB20160324183011903/24/16 18:30:31  5-MIN KARB 242330Z AUTO 23007KT 10SM BKN060 OVC085 12/09 A2941 1320 80 1300 230/07 RMK AO2 T01220089
94889KARB ARB20160324183511903/24/16 18:35:31  5-MIN KARB 242335Z AUTO 23008KT 10SM SCT060 OVC085 12/09 A2941 1320 80 1300 240/08 RMK AO2 T01220089
94889KARB ARB20160324184011903/24/16 18:40:31  5-MIN KARB 242340Z AUTO 23008KT 10SM FEW065 OVC090 12/09 A2940 1320 80 1300 240/08 RMK AO2 T01220089
94889KARB ARB20160324184511903/24/16 18:45:31  5-MIN KARB 242345Z AUTO 23008KT 10SM FEW070 BKN085 12/09 A2940 1320 83 1300 240/08 RMK AO2 T01170089
94889KARB ARB20160324185013803/24/16 18:50:31  5-MIN KARB 242350Z 24008KT 10SM BKN090 12/09 A2940 1320 83 1300 250/08 RMK AO2 SLP959 60016 T01170089 10139 20117 56044
94889KARB ARB20160324185510703/24/16 18:55:31  5-MIN KARB 242355Z 23008KT 10SM BKN085 12/09 A2940 1320 83 1300 240/08 RMK AO2 T01170089
94889KARB ARB20160324190010703/24/16 19:00:31  5-MIN KARB 250000Z 23008KT 10SM OVC080 12/09 A2941 1320 83 1300 230/08 RMK AO2 T01170089
94889KARB ARB20160324190510703/24/16 19:05:31  5-MIN KARB 250005Z 23008KT 10SM BKN080 12/09 A2941 1320 83 1300 240/08 RMK AO2 T01170089
94889KARB ARB20160324191010703/24/16 19:10:31  5-MIN KARB 250010Z 24008KT 10SM OVC080 11/09 A2941 1320 86 1200 240/08 RMK AO2 T01110089
94889KARB ARB20160324191510703/24/16 19:15:31  5-MIN KARB 250015Z 24007KT 10SM BKN080 11/09 A2941 1320 86 1200 240/07 RMK AO2 T01110089
94889KARB ARB20160324192010703/24/16 19:20:31  5-MIN KARB 250020Z 32007KT 10SM BKN085 10/08 A2942 1310 89 1100 330/07 RMK AO2 T01000083
94889KARB ARB20160324192510603/24/16 19:25:31  5-MIN KARB 250025Z 30008KT 10SM BKN085 09/07 A2942 1310 89 900 310/08 RMK AO2 T00890072
94889KARB ARB20160324193010603/24/16 19:30:31  5-MIN KARB 250030Z 30006KT 10SM SCT080 08/07 A2942 1300 89 900 310/06 RMK AO2 T00830067
94889KARB ARB20160324193510603/24/16 19:35:31  5-MIN KARB 250035Z 30006KT 10SM SCT085 08/07 A2943 1300 93 800 300/06 RMK AO2 T00780067
94889KARB ARB20160324194011303/24/16 19:40:31  5-MIN KARB 250040Z 29006KT 10SM FEW030 SCT090 07/07 A2943 1300 96 700 300/06 RMK AO2 T00720067
94889KARB ARB20160324194512003/24/16 19:45:31  5-MIN KARB 250045Z 30006KT 10SM FEW004 SCT030 SCT090 07/07 A2943 1300 96 700 310/06 RMK AO2 T00720067
94889KARB ARB20160324195011903/24/16 19:50:31  5-MIN KARB 250050Z 31007KT 9SM SCT004 BKN030 07/07 A2944 1290 96 700 310/07 RMK AO2 SLP972 T00720067
94889KARB ARB20160324195511203/24/16 19:55:31  5-MIN KARB 250055Z 29006KT 9SM BKN004 BKN030 07/06 A2944 1290 93 700 300/06 RMK AO2 T00720061
94889KARB ARB20160324200011203/24/16 20:00:31  5-MIN KARB 250100Z 30006KT 9SM BKN004 BKN030 07/06 A2945 1280 96 600 310/06 RMK AO2 T00670061
94889KARB ARB20160324200510503/24/16 20:05:31  5-MIN KARB 250105Z 31004KT 8SM BKN004 07/06 A2945 1280 96 600 320/04 RMK AO2 T00670061
94889KARB ARB20160324201011203/24/16 20:10:31  5-MIN KARB 250110Z 30006KT 7SM BKN003 OVC043 07/06 A2946 1270 96 600 310/06 RMK AO2 T00670061
94889KARB ARB20160324201511503/24/16 20:15:31  5-MIN KARB 250115Z 30006KT 6SM BR BKN003 OVC042 07/06 A2946 1270 96 600 310/06 RMK AO2 T00670061
94889KARB ARB20160324202010803/24/16 20:20:31  5-MIN KARB 250120Z 31007KT 6SM BR OVC003 07/06 A2946 1270 93 600 310/07 RMK AO2 T00670056
94889KARB ARB20160324202510503/24/16 20:25:31  5-MIN KARB 250125Z 32009KT 7SM OVC003 06/06 A2947 1260 96 500 330/09 RMK AO2 T00610056
94889KARB ARB20160324203010803/24/16 20:30:31  5-MIN KARB 250130Z 32007KT 6SM BR OVC003 06/05 A2947 1260 96 500 320/07 RMK AO2 T00560050
94889KARB ARB20160324203510803/24/16 20:35:31  5-MIN KARB 250135Z 31008KT 6SM BR OVC003 05/04 A2948 1260 96 400 320/08 RMK AO2 T00500044
94889KARB ARB20160324204010503/24/16 20:40:31  5-MIN KARB 250140Z 32010KT 7SM OVC003 05/04 A2948 1250 92 400 320/10 RMK AO2 T00500039
94889KARB ARB20160324204510603/24/16 20:45:31  5-MIN KARB 250145Z 32008KT 10SM OVC003 04/04 A2948 1250 96 300 320/08 RMK AO2 T00440039
94889KARB ARB20160324205011903/24/16 20:50:31  5-MIN KARB 250150Z 32008G15KT 10SM OVC003 04/03 A2949 1240 92 300 330/08G15 RMK AO2 SLP991 T00440033
94889KARB ARB20160324205511303/24/16 20:55:31  5-MIN KARB 250155Z 31008KT 10SM OVC004 04/03 A2951 1220 92 300 320/08 RMK AO2 PRESRR T00440033
94889KARB ARB20160324210011303/24/16 21:00:31  5-MIN KARB 250200Z 29012KT 10SM OVC004 04/03 A2953 1210 96 200 300/12 RMK AO2 PRESRR T00390033
94889KARB ARB20160324210511903/24/16 21:05:31  5-MIN KARB 250205Z 30012G18KT 10SM OVC004 04/03 A2953 1200 92 200 310/12G18 RMK AO2 PRESRR T00390028
94889KARB ARB20160324211010603/24/16 21:10:31  5-MIN KARB 250210Z 29011KT 10SM OVC005 03/03 A2954 1200 96 100 290/11 RMK AO2 T00330028
94889KARB ARB20160324211512103/24/16 21:15:31  5-MIN KARB 250215Z 29011KT 9SM -RA OVC005 03/02 A2953 1200 92 100 300/11 RMK AO2 RAB11 P0000 T00330022
94889KARB ARB20160324212012103/24/16 21:20:31  5-MIN KARB 250220Z 30010KT 9SM -RA OVC005 03/02 A2954 1200 92 100 300/10 RMK AO2 RAB11 P0000 T00330022
94889KARB ARB20160324212512003/24/16 21:25:31  5-MIN KARB 250225Z 29012KT 8SM OVC005 03/02 A2955 1190 92 100 290/12 RMK AO2 RAB11E23 P0000 T00330022
94889KARB ARB20160324213012603/24/16 21:30:31  5-MIN KARB 250230Z 30014G19KT 7SM OVC005 03/02 A2955 1180 92 100 300/14G19 RMK AO2 RAB11E23 P0000 T00330022
94889KARB ARB20160324213511803/24/16 21:35:31  5-MIN KARB 250235Z 29017KT 8SM OVC005 03/02 A2955 1180 96 0 300/17 RMK AO2 RAB11E23 P0000 T00280022
94889KARB ARB20160324214011803/24/16 21:40:31  5-MIN KARB 250240Z 30016KT 8SM OVC005 03/02 A2956 1180 96 0 310/16 RMK AO2 RAB11E23 P0000 T00280022
94889KARB ARB20160324214511803/24/16 21:45:31  5-MIN KARB 250245Z 30013KT 7SM OVC005 03/02 A2956 1170 92 0 310/13 RMK AO2 RAB11E23 P0000 T00280017
94889KARB ARB20160324215014003/24/16 21:50:31  5-MIN KARB 250250Z 30014KT 6SM BR OVC005 03/02 A2957 1170 92 0 300/14 RMK AO2 RAB11E23 SLP017 P0000 60000 T00280017 53009
94889KARB ARB20160324215510603/24/16 21:55:31  5-MIN KARB 250255Z 31012KT 5SM BR OVC005 03/02 A2957 1170 92 0 320/12 RMK AO2 T00280017
94889KARB ARB20160324220011303/24/16 22:00:31  5-MIN KARB 250300Z 31010KT 4SM BR BKN005 OVC009 03/02 A2957 1170 92 0 320/10 RMK AO2 T00280017
94889KARB ARB20160324220511903/24/16 22:05:31  5-MIN KARB 250305Z 30012G20KT 5SM BR BKN005 OVC009 03/02 A2957 1170 92 0 310/12G20 RMK AO2 T00280017
94889KARB ARB20160324221012803/24/16 22:10:31  5-MIN KARB 250310Z 30010G20KT 8SM SCT006 OVC009 03/02 A2957 1160 92 0 310/10G20 RMK AO2 CIG 009V013 T00280017
94889KARB ARB20160324221512303/24/16 22:15:31  5-MIN KARB 250315Z 30011KT 10SM BKN009 OVC013 03/02 A2958 1160 92 0 310/11 RMK AO2 CIG 005V011 T00280017
94889KARB ARB20160324222011103/24/16 22:20:31  5-MIN KARB 250320Z 30013KT 10SM FEW005 OVC010 03/01 A2958 1160 89 0 310/13 RMK AO2 T00280011
94889KARB ARB20160324222510403/24/16 22:25:31  5-MIN KARB 250325Z 30013KT 10SM OVC010 02/01 A2958 1150 92 0 300/13 RMK AO2 T00220011
94889KARB ARB20160324223011603/24/16 22:30:31  5-MIN KARB 250330Z 30010KT 10SM OVC011 02/01 A2959 1150 92 0 310/10 RMK AO2 CIG 008V013 T00220011
94889KARB ARB20160324223512903/24/16 22:35:31  5-MIN KARB 250335Z 31013G17KT 10SM BKN011 OVC015 02/01 A2959 1150 92 0 320/13G17 RMK AO2 CIG 008V013 T00220011
94889KARB ARB20160324224011003/24/16 22:40:31  5-MIN KARB 250340Z 31011G17KT 10SM OVC011 02/01 A2959 1150 92 0 320/11G17 RMK AO2 T00220011
94889KARB ARB20160324224511703/24/16 22:45:31  5-MIN KARB 250345Z 31010G16KT 10SM BKN011 OVC016 02/01 A2959 1150 92 0 320/10G16 RMK AO2 T00220011
94889KARB ARB20160324225011703/24/16 22:50:31  5-MIN KARB 250350Z 31009G16KT 10SM OVC013 02/01 A2959 1150 89 0 320/09G16 RMK AO2 SLP026 T00220006
94889KARB ARB20160324225511103/24/16 22:55:31  5-MIN KARB 250355Z 30010KT 10SM BKN013 OVC017 02/01 A2959 1150 89 0 310/10 RMK AO2 T00220006
94889KARB ARB20160324230011103/24/16 23:00:31  5-MIN KARB 250400Z 31010KT 10SM BKN013 OVC017 02/01 A2959 1140 89 0 320/10 RMK AO2 T00220006
94889KARB ARB20160324230510403/24/16 23:05:31  5-MIN KARB 250405Z 30009KT 10SM OVC012 02/01 A2960 1140 89 0 310/09 RMK AO2 T00220006
94889KARB ARB20160324231010703/24/16 23:10:31  5-MIN KARB 250410Z 30012KT 10SM OVC012 02/01 A2960 1140 89 -100 310/12 RMK AO2 T00220006
94889KARB ARB20160324231510703/24/16 23:15:31  5-MIN KARB 250415Z 30010KT 10SM OVC012 02/01 A2961 1130 89 -100 310/10 RMK AO2 T00220006
94889KARB ARB20160324232010703/24/16 23:20:31  5-MIN KARB 250420Z 30011KT 10SM OVC011 02/01 A2961 1130 92 -100 310/11 RMK AO2 T00170006
94889KARB ARB20160324232510703/24/16 23:25:31  5-MIN KARB 250425Z 32008KT 10SM OVC011 02/01 A2962 1120 92 -100 330/08 RMK AO2 T00170006
94889KARB ARB20160324233010603/24/16 23:30:31  5-MIN KARB 250430Z 32010KT 9SM OVC011 02/01 A2962 1120 92 -100 330/10 RMK AO2 T00170006
94889KARB ARB20160324233510603/24/16 23:35:31  5-MIN KARB 250435Z 32008KT 9SM OVC011 02/00 A2962 1120 89 -100 320/08 RMK AO2 T00170000
94889KARB ARB20160324234011903/24/16 23:40:31  5-MIN KARB 250440Z 32011G17KT 9SM BKN012 OVC021 02/00 A2962 1120 89 -100 330/11G17 RMK AO2 T00170000
94889KARB ARB20160324234512603/24/16 23:45:31  5-MIN KARB 250445Z 33009G17KT 9SM BKN012 BKN019 OVC024 02/00 A2962 1120 89 -100 330/09G17 RMK AO2 T00170000
94889KARB ARB20160324235011103/24/16 23:50:31  5-MIN KARB 250450Z 32010KT 10SM SCT012 BKN019 OVC024 02/00 A2962 1120 89 -100 330/10 RMK AO2
94889KARB ARB20160324235512103/24/16 23:55:31  5-MIN KARB 250455Z 32010KT 10SM SCT012 SCT019 OVC024 01/00 A2963 1110 92 -200 320/10 RMK AO2 T00110000
94889KARB ARB20160325000012103/25/16 00:00:31  5-MIN KARB 250500Z 31010KT 10SM SCT010 SCT017 OVC024 01/00 A2963 1110 92 -200 320/10 RMK AO2 T00110000
94889KARB ARB20160325000512103/25/16 00:05:31  5-MIN KARB 250505Z 30012KT 10SM SCT010 SCT017 OVC024 01/00 A2964 1100 92 -200 310/12 RMK AO2 T00110000
94889KARB ARB20160325001012103/25/16 00:10:31  5-MIN KARB 250510Z 31009KT 10SM FEW010 SCT018 OVC026 01/00 A2964 1100 92 -200 320/09 RMK AO2 T00110000
94889KARB ARB20160325001511403/25/16 00:15:31  5-MIN KARB 250515Z 31009KT 10SM SCT010 OVC026 01/00 A2964 1100 92 -200 310/09 RMK AO2 T00110000
94889KARB ARB20160325002011403/25/16 00:20:31  5-MIN KARB 250520Z 30009KT 10SM BKN010 OVC026 01/00 A2965 1090 92 -200 310/09 RMK AO2 T00110000
94889KARB ARB20160325002513603/25/16 00:25:31  5-MIN KARB 250525Z 30009KT 8SM -SN BKN010 BKN014 OVC026 01/00 A2965 1090 92 -200 310/09 RMK AO2 SNB24 P0000 T00110000
94889KARB ARB20160325003013903/25/16 00:30:31  5-MIN KARB 250530Z 30009KT 4SM -SN BR BKN010 BKN013 OVC027 01/00 A2966 1080 92 -300 310/09 RMK AO2 SNB24 P0000 T00110000
94889KARB ARB20160325003515003/25/16 00:35:31  5-MIN KARB 250535Z 33010G16KT 2 1/2SM -SN BR BKN008 BKN013 OVC027 01/M01 A2966 1080 92 -300 330/10G16 RMK AO2 SNB24 P0000 T00061006
94889KARB ARB20160325004014603/25/16 00:40:31  5-MIN KARB 250540Z 33011G16KT 2SM -SN BR SCT007 BKN010 OVC015 01/M01 A2967 1080 92 -300 330/11G16 RMK AO2 SNB24 P0000 T00061006
94889KARB ARB20160325004513703/25/16 00:45:31  5-MIN KARB 250545Z 32010KT 2 1/2SM -SN BR BKN010 OVC015 01/M01 A2967 1070 92 -300 330/10 RMK AO2 SNB24 P0000 T00061006
94889KARB ARB20160325005012303/25/16 00:50:31  5-MIN KARB 250550Z 31008KT 4SM -SN BR BKN010 OVC015 01/M01 A2967 1070 92 -300 320/08 RMK AO2 SNB24 P0000
94889KARB ARB20160325005511703/25/16 00:55:31  5-MIN KARB 250555Z 31012KT 8SM -SN OVC010 01/M01 A2968 1070 89 -300 320/12 RMK AO2 P0000 T00061011
94889KARB ARB20160325010012803/25/16 01:00:31  5-MIN KARB 250600Z 32011KT 9SM BKN010 OVC014 01/M01 A2968 1070 89 -300 330/11 RMK AO2 SNE0556 P0000 T00061011
94889KARB ARB20160325010514703/25/16 01:05:31  5-MIN KARB 250605Z 32015G21KT 10SM BKN010 OVC016 01/M01 A2968 1070 89 -300 330/15G21 RMK AO2 SNE0556 CIG 008V013 P0000 T00061011
94889KARB ARB20160325011012803/25/16 01:10:31  5-MIN KARB 250610Z 32013G21KT 10SM OVC012 00/M02 A2968 1070 88 -400 330/13G21 RMK AO2 SNE0556 P0000 T00001017
94889KARB ARB20160325011514203/25/16 01:15:31  5-MIN KARB 250615Z 31012KT 7SM -SN FEW008 BKN012 OVC031 00/M02 A2968 1060 88 -400 320/12 RMK AO2 SNE0556B13 P0000 T00001017
94889KARB ARB20160325012014803/25/16 01:20:31  5-MIN KARB 250620Z 32013G20KT 7SM -SN SCT012 BKN023 OVC050 00/M02 A2968 1060 88 -400 330/13G20 RMK AO2 SNE0556B13 P0000 T00001017
94889KARB ARB20160325012514703/25/16 01:25:31  5-MIN KARB 250625Z 32009G20KT 9SM SCT012 BKN030 OVC050 00/M02 A2969 1060 88 -400 330/09G20 RMK AO2 SNE0556B13E23 P0000 T00001017
94889KARB ARB20160325013014203/25/16 01:30:31  5-MIN KARB 250630Z 32010KT 10SM FEW012 BKN025 OVC050 00/M02 A2969 1060 88 -400 320/10 RMK AO2 SNE0556B13E23 P0000 T00001017
94889KARB ARB20160325013514203/25/16 01:35:31  5-MIN KARB 250635Z 33010KT 10SM BKN015 BKN025 OVC050 00/M02 A2969 1050 85 -400 340/10 RMK AO2 SNE0556B13E23 P0000 T00001022
94889KARB ARB20160325014014203/25/16 01:40:31  5-MIN KARB 250640Z 33011KT 10SM BKN015 BKN019 OVC050 00/M02 A2970 1050 85 -400 340/11 RMK AO2 SNE0556B13E23 P0000 T00001022
94889KARB ARB20160325014513503/25/16 01:45:31  5-MIN KARB 250645Z 32007KT 10SM BKN015 OVC050 00/M02 A2970 1050 85 -400 320/07 RMK AO2 SNE0556B13E23 P0000 T00001022
94889KARB ARB20160325015014203/25/16 01:50:31  5-MIN KARB 250650Z 33010KT 10SM BKN015 OVC050 00/M02 A2970 1040 85 -400 340/10 RMK AO2 SNE0556B13E23 SLP063 P0000 T00001022
94889KARB ARB20160325015511503/25/16 01:55:31  5-MIN KARB 250655Z 32011KT 10SM BKN015 OVC019 00/M02 A2971 1040 85 -400 330/11 RMK AO2 T00001022
94889KARB ARB20160325020011503/25/16 02:00:31  5-MIN KARB 250700Z 32010KT 10SM BKN015 OVC020 00/M02 A2971 1040 85 -500 320/10 RMK AO2 T00001022
94889KARB ARB20160325020510803/25/16 02:05:31  5-MIN KARB 250705Z 33012KT 10SM OVC015 00/M02 A2971 1030 85 -500 330/12 RMK AO2 T00001022
94889KARB ARB20160325021010803/25/16 02:10:31  5-MIN KARB 250710Z 32007KT 10SM OVC014 00/M02 A2972 1030 85 -500 330/07 RMK AO2 T00001022
94889KARB ARB20160325021510903/25/16 02:15:31  5-MIN KARB 250715Z 32011KT 10SM OVC014 M01/M02 A2972 1030 88 -500 330/11 RMK AO2 T10061022
94889KARB ARB20160325022012203/25/16 02:20:31  5-MIN KARB 250720Z 33011G19KT 10SM BKN014 OVC019 M01/M03 A2972 1030 85 -500 330/11G19 RMK AO2 T10061028
94889KARB ARB20160325022511503/25/16 02:25:31  5-MIN KARB 250725Z 34012G19KT 10SM OVC014 M01/M03 A2972 1030 81 -500 340/12G19 RMK AO2 T10061033
94889KARB ARB20160325023010903/25/16 02:30:31  5-MIN KARB 250730Z 33012KT 10SM OVC014 M01/M03 A2973 1020 81 -500 340/12 RMK AO2 T10061033
94889KARB ARB20160325023510903/25/16 02:35:31  5-MIN KARB 250735Z 33012KT 10SM OVC014 M01/M03 A2973 1020 81 -500 330/12 RMK AO2 T10061033
94889KARB ARB20160325024011503/25/16 02:40:31  5-MIN KARB 250740Z 33012G20KT 10SM OVC013 M01/M03 A2973 1010 81 -600 340/12G20 RMK AO2 T10061033
94889KARB ARB20160325024511503/25/16 02:45:31  5-MIN KARB 250745Z 32011G20KT 10SM OVC013 M01/M03 A2974 1010 85 -600 330/11G20 RMK AO2 T10111033
94889KARB ARB20160325025011603/25/16 02:50:31  5-MIN KARB 250750Z 32010KT 10SM OVC013 M01/M03 A2974 1010 85 -600 330/10 RMK AO2 SLP075 T10061028
94889KARB ARB20160325025510903/25/16 02:55:31  5-MIN KARB 250755Z 32012KT 10SM OVC013 M01/M03 A2974 1010 85 -600 320/12 RMK AO2 T10111033
94889KARB ARB20160325030010903/25/16 03:00:31  5-MIN KARB 250800Z 32012KT 10SM OVC013 M01/M03 A2974 1010 85 -600 330/12 RMK AO2 T10111033
94889KARB ARB20160325030510903/25/16 03:05:31  5-MIN KARB 250805Z 33011KT 10SM OVC013 M01/M03 A2974 1010 85 -600 330/11 RMK AO2 T10111033
94889KARB ARB20160325031011503/25/16 03:10:31  5-MIN KARB 250810Z 34014G18KT 10SM OVC013 M01/M03 A2974 1000 85 -600 350/14G18 RMK AO2 T10111033
94889KARB ARB20160325031511503/25/16 03:15:31  5-MIN KARB 250815Z 34011G18KT 10SM OVC013 M01/M04 A2975 1000 81 -600 350/11G18 RMK AO2 T10111039
94889KARB ARB20160325032010903/25/16 03:20:31  5-MIN KARB 250820Z 34012KT 10SM OVC015 M01/M04 A2975 1000 81 -600 340/12 RMK AO2 T10111039
94889KARB ARB20160325032511503/25/16 03:25:31  5-MIN KARB 250825Z 33012G19KT 10SM OVC015 M01/M04 A2975 1000 81 -600 340/12G19 RMK AO2 T10111039
94889KARB ARB20160325033011503/25/16 03:30:31  5-MIN KARB 250830Z 34013G20KT 10SM OVC015 M01/M04 A2975 1000 78 -600 350/13G20 RMK AO2 T10111044
94889KARB ARB20160325033511503/25/16 03:35:31  5-MIN KARB 250835Z 34014G20KT 10SM OVC015 M02/M04 A2975 1000 81 -700 340/14G20 RMK AO2 T10171044
94889KARB ARB20160325034011403/25/16 03:40:31  5-MIN KARB 250840Z 33015G19KT 10SM OVC017 M02/M04 A2976 990 81 -700 340/15G19 RMK AO2 T10171044
94889KARB ARB20160325034511403/25/16 03:45:31  5-MIN KARB 250845Z 33014G21KT 10SM OVC017 M02/M04 A2976 990 81 -700 340/14G21 RMK AO2 T10171044
94889KARB ARB20160325035013303/25/16 03:50:31  5-MIN KARB 250850Z 33013G21KT 10SM OVC019 M02/M05 A2976 990 78 -700 340/13G21 RMK AO2 SLP083 60000 T10171050 51027
94889KARB ARB20160325035510803/25/16 03:55:31  5-MIN KARB 250855Z 33014KT 10SM OVC019 M02/M04 A2977 980 81 -700 340/14 RMK AO2 T10171044
94889KARB ARB20160325040010803/25/16 04:00:31  5-MIN KARB 250900Z 33012KT 10SM OVC019 M02/M05 A2977 980 78 -700 340/12 RMK AO2 T10171050
94889KARB ARB20160325040511403/25/16 04:05:31  5-MIN KARB 250905Z 33014G19KT 10SM OVC019 M02/M05 A2978 970 78 -700 340/14G19 RMK AO2 T10171050
94889KARB ARB20160325041010803/25/16 04:10:31  5-MIN KARB 250910Z 33013KT 10SM OVC019 M02/M06 A2978 970 75 -700 340/13 RMK AO2 T10171056
94889KARB ARB20160325041511403/25/16 04:15:31  5-MIN KARB 250915Z 33014G19KT 10SM OVC019 M02/M06 A2979 960 75 -800 340/14G19 RMK AO2 T10171056
94889KARB ARB20160325042011403/25/16 04:20:31  5-MIN KARB 250920Z 34012G18KT 10SM OVC019 M02/M06 A2979 960 75 -800 340/12G18 RMK AO2 T10171056
94889KARB ARB20160325042511403/25/16 04:25:31  5-MIN KARB 250925Z 33014G20KT 10SM OVC019 M02/M06 A2980 960 75 -800 330/14G20 RMK AO2 T10171056
94889KARB ARB20160325043011403/25/16 04:30:31  5-MIN KARB 250930Z 34012G20KT 10SM OVC019 M02/M06 A2980 950 75 -800 340/12G20 RMK AO2 T10171056
94889KARB ARB20160325043510803/25/16 04:35:31  5-MIN KARB 250935Z 32015KT 10SM OVC018 M02/M06 A2980 950 75 -800 320/15 RMK AO2 T10171056
94889KARB ARB20160325044010803/25/16 04:40:31  5-MIN KARB 250940Z 32012KT 10SM OVC018 M02/M06 A2980 950 78 -800 320/12 RMK AO2 T10221056
94889KARB ARB20160325044511403/25/16 04:45:31  5-MIN KARB 250945Z 33012G18KT 10SM OVC019 M02/M06 A2981 940 78 -800 330/12G18 RMK AO2 T10221056
94889KARB ARB20160325045012103/25/16 04:50:31  5-MIN KARB 250950Z 34010G18KT 10SM OVC019 M02/M06 A2981 940 78 -900 340/10G18 RMK AO2 SLP100 T10221056
94889KARB ARB20160325045510803/25/16 04:55:31  5-MIN KARB 250955Z 34008KT 10SM OVC019 M02/M06 A2982 940 78 -900 350/08 RMK AO2 T10221056
94889KARB ARB20160325050010803/25/16 05:00:31  5-MIN KARB 251000Z 34013KT 10SM OVC019 M02/M06 A2982 930 78 -900 340/13 RMK AO2 T10221056
94889KARB ARB20160325050510803/25/16 05:05:31  5-MIN KARB 251005Z 35013KT 10SM OVC019 M02/M06 A2982 930 75 -900 350/13 RMK AO2 T10221061
94889KARB ARB20160325051010803/25/16 05:10:31  5-MIN KARB 251010Z 33010KT 10SM OVC019 M02/M06 A2983 930 75 -900 340/10 RMK AO2 T10221061
94889KARB ARB20160325051510803/25/16 05:15:31  5-MIN KARB 251015Z 33012KT 10SM OVC019 M02/M06 A2983 920 78 -900 340/12 RMK AO2 T10221056
94889KARB ARB20160325052010803/25/16 05:20:31  5-MIN KARB 251020Z 33015KT 10SM OVC019 M02/M06 A2984 920 75 -900 340/15 RMK AO2 T10221061
94889KARB ARB20160325052510803/25/16 05:25:31  5-MIN KARB 251025Z 34011KT 10SM OVC019 M02/M06 A2984 920 75 -900 340/11 RMK AO2 T10221061
94889KARB ARB20160325053010803/25/16 05:30:31  5-MIN KARB 251030Z 34010KT 10SM OVC019 M02/M06 A2984 910 78 -900 340/10 RMK AO2 T10221056
94889KARB ARB20160325053511403/25/16 05:35:31  5-MIN KARB 251035Z 34013G18KT 10SM OVC019 M02/M06 A2985 910 75 -900 350/13G18 RMK AO2 T10221061
94889KARB ARB20160325054011403/25/16 05:40:31  5-MIN KARB 251040Z 35015G18KT 10SM OVC019 M02/M06 A2985 910 75 -900 360/15G18 RMK AO2 T10221061
94889KARB ARB20160325054511503/25/16 05:45:31  5-MIN KARB 251045Z 34013KT 10SM OVC019 M02/M06 A2986 900 75 -900 340/13 RMK AO2 PRESRR T10221061
94889KARB ARB20160325055012803/25/16 05:50:31  5-MIN KARB 251050Z 34014G18KT 10SM OVC019 M02/M06 A2987 890 75 -900 350/14G18 RMK AO2 PRESRR SLP118 T10221061
94889KARB ARB20160325055511403/25/16 05:55:31  5-MIN KARB 251055Z 34012G20KT 10SM OVC019 M02/M06 A2987 890 75 -900 350/12G20 RMK AO2 T10221061
94889KARB ARB20160325060011403/25/16 06:00:31  5-MIN KARB 251100Z 35011G20KT 10SM OVC019 M02/M07 A2987 890 72 -900 360/11G20 RMK AO2 T10221067
94889KARB ARB20160325060510803/25/16 06:05:31  5-MIN KARB 251105Z 33009KT 10SM OVC019 M02/M06 A2988 880 75 -900 330/09 RMK AO2 T10221061
94889KARB ARB20160325061010803/25/16 06:10:31  5-MIN KARB 251110Z 34009KT 10SM OVC021 M02/M06 A2988 880 75 -900 350/09 RMK AO2 T10221061
94889KARB ARB20160325061510803/25/16 06:15:31  5-MIN KARB 251115Z 33010KT 10SM OVC021 M02/M06 A2989 870 75 -900 330/10 RMK AO2 T10221061
94889KARB ARB20160325062010803/25/16 06:20:31  5-MIN KARB 251120Z 34011KT 10SM OVC021 M02/M06 A2989 870 75 -900 350/11 RMK AO2 T10221061
94889KARB ARB20160325062510803/25/16 06:25:31  5-MIN KARB 251125Z 33009KT 10SM OVC020 M02/M06 A2989 870 75 -900 340/09 RMK AO2 T10221061
94889KARB ARB20160325063011403/25/16 06:30:31  5-MIN KARB 251130Z 34014G19KT 10SM OVC020 M02/M06 A2989 870 75 -900 350/14G19 RMK AO2 T10221061
94889KARB ARB20160325063510803/25/16 06:35:31  5-MIN KARB 251135Z 34013KT 10SM OVC020 M02/M06 A2989 870 75 -900 350/13 RMK AO2 T10221061
94889KARB ARB20160325064010803/25/16 06:40:31  5-MIN KARB 251140Z 35012KT 10SM OVC020 M02/M06 A2990 860 75 -900 360/12 RMK AO2 T10221061
94889KARB ARB20160325064510803/25/16 06:45:31  5-MIN KARB 251145Z 34010KT 10SM OVC020 M02/M06 A2990 860 75 -900 340/10 RMK AO2 T10221061
94889KARB ARB20160325065014603/25/16 06:50:31  5-MIN KARB 251150Z 34011KT 10SM OVC020 M02/M06 A2990 860 75 -1000 350/11 RMK AO2 SLP130 60000 70081 T10221061 10006 21022 51030
94889KARB ARB20160325065510903/25/16 06:55:31  5-MIN KARB 251155Z 34012KT 10SM OVC019 M02/M06 A2990 860 75 -1000 350/12 RMK AO2 T10221061
94889KARB ARB20160325070010903/25/16 07:00:31  5-MIN KARB 251200Z 35010KT 10SM OVC019 M02/M06 A2991 850 75 -1000 360/10 RMK AO2 T10221061
94889KARB ARB20160325070510903/25/16 07:05:31  5-MIN KARB 251205Z 34012KT 10SM OVC019 M02/M06 A2991 850 75 -1000 350/12 RMK AO2 T10221061
94889KARB ARB20160325071011503/25/16 07:10:31  5-MIN KARB 251210Z 35014G19KT 10SM OVC019 M02/M06 A2991 850 75 -1000 360/14G19 RMK AO2 T10221061
94889KARB ARB20160325071511503/25/16 07:15:31  5-MIN KARB 251215Z 35009G19KT 10SM OVC019 M02/M06 A2992 840 75 -1000 360/09G19 RMK AO2 T10221061
94889KARB ARB20160325072010903/25/16 07:20:31  5-MIN KARB 251220Z 35009KT 10SM OVC019 M02/M06 A2992 840 75 -1000 360/09 RMK AO2 T10221061
94889KARB ARB20160325072511503/25/16 07:25:31  5-MIN KARB 251225Z 33011G17KT 10SM OVC019 M02/M06 A2993 830 75 -1000 340/11G17 RMK AO2 T10221061
94889KARB ARB20160325073011503/25/16 07:30:31  5-MIN KARB 251230Z 33011G17KT 10SM OVC019 M02/M06 A2993 830 75 -1000 340/11G17 RMK AO2 T10221061
94889KARB ARB20160325073510903/25/16 07:35:31  5-MIN KARB 251235Z 34010KT 10SM OVC019 M02/M06 A2993 830 75 -1000 350/10 RMK AO2 T10221061
94889KARB ARB20160325074011503/25/16 07:40:31  5-MIN KARB 251240Z 34007G16KT 10SM OVC019 M02/M06 A2994 830 75 -1000 350/07G16 RMK AO2 T10221061
94889KARB ARB20160325074510903/25/16 07:45:31  5-MIN KARB 251245Z 34009KT 10SM OVC019 M02/M06 A2994 820 75 -1000 350/09 RMK AO2 T10221061
94889KARB ARB20160325075011603/25/16 07:50:31  5-MIN KARB 251250Z 36010KT 10SM OVC019 M02/M06 A2995 820 75 -1000 360/10 RMK AO2 SLP148 T10221061
94889KARB ARB20160325075510903/25/16 07:55:31  5-MIN KARB 251255Z 33012KT 10SM OVC019 M02/M06 A2995 810 75 -1000 340/12 RMK AO2 T10221061
94889KARB ARB20160325080010903/25/16 08:00:31  5-MIN KARB 251300Z 33012KT 10SM OVC019 M02/M06 A2995 810 75 -1000 330/12 RMK AO2 T10221061
94889KARB ARB20160325080510903/25/16 08:05:31  5-MIN KARB 251305Z 35009KT 10SM OVC019 M02/M06 A2995 810 75 -1000 350/09 RMK AO2 T10221061
94889KARB ARB20160325081010803/25/16 08:10:31  5-MIN KARB 251310Z 34007KT 10SM OVC019 M02/M06 A2996 810 75 -900 350/07 RMK AO2 T10171056
94889KARB ARB20160325081510903/25/16 08:15:31  5-MIN KARB 251315Z 33010KT 10SM OVC019 M02/M06 A2996 800 72 -1000 340/10 RMK AO2 T10171061
94889KARB ARB20160325082010903/25/16 08:20:31  5-MIN KARB 251320Z 33009KT 10SM OVC019 M02/M06 A2997 800 75 -1000 340/09 RMK AO2 T10171056
94889KARB ARB20160325082510903/25/16 08:25:31  5-MIN KARB 251325Z 33009KT 10SM OVC019 M02/M06 A2997 790 75 -1000 340/09 RMK AO2 T10171056
94889KARB ARB20160325083010903/25/16 08:30:31  5-MIN KARB 251330Z 35008KT 10SM OVC019 M02/M06 A2998 790 75 -1000 360/08 RMK AO2 T10171056
94889KARB ARB20160325083510903/25/16 08:35:31  5-MIN KARB 251335Z 35012KT 10SM OVC019 M02/M06 A2997 790 75 -1000 360/12 RMK AO2 T10171056
94889KARB ARB20160325084010903/25/16 08:40:31  5-MIN KARB 251340Z 35011KT 10SM OVC019 M02/M06 A2997 790 75 -1000 350/11 RMK AO2 T10171056
94889KARB ARB20160325084510903/25/16 08:45:31  5-MIN KARB 251345Z 35010KT 10SM OVC019 M02/M06 A2998 790 75 -1000 360/10 RMK AO2 T10171056
94889KARB ARB20160325085011603/25/16 08:50:31  5-MIN KARB 251350Z 35009KT 10SM OVC019 M02/M06 A2998 790 75 -1000 360/09 RMK AO2 SLP160 T10171056
94889KARB ARB20160325085510903/25/16 08:55:31  5-MIN KARB 251355Z 35009KT 10SM OVC019 M02/M06 A2998 780 75 -1000 360/09 RMK AO2 T10171056
94889KARB ARB20160325090010903/25/16 09:00:31  5-MIN KARB 251400Z 33006KT 10SM OVC019 M02/M06 A2999 780 75 -1000 340/06 RMK AO2 T10171056
94889KARB ARB20160325090510903/25/16 09:05:31  5-MIN KARB 251405Z 35007KT 10SM OVC019 M02/M06 A2999 780 75 -1000 360/07 RMK AO2 T10171056
94889KARB ARB20160325091010903/25/16 09:10:31  5-MIN KARB 251410Z 34006KT 10SM OVC018 M02/M05 A3000 770 78 -1000 350/06 RMK AO2 T10171050
94889KARB ARB20160325091510803/25/16 09:15:31  5-MIN KARB 251415Z 32008KT 10SM OVC018 M01/M05 A3000 770 75 -900 330/08 RMK AO2 T10111050
94889KARB ARB20160325092010903/25/16 09:20:31  5-MIN KARB 251420Z 31006KT 10SM OVC018 M02/M06 A3001 760 75 -1000 320/06 RMK AO2 T10171056
94889KARB ARB20160325092510903/25/16 09:25:31  5-MIN KARB 251425Z 32008KT 10SM OVC018 M02/M05 A3001 760 78 -1000 330/08 RMK AO2 T10171050
94889KARB ARB20160325093010803/25/16 09:30:31  5-MIN KARB 251430Z 34008KT 10SM OVC018 M01/M05 A3001 760 75 -900 340/08 RMK AO2 T10111050
94889KARB ARB20160325093510803/25/16 09:35:31  5-MIN KARB 251435Z 35009KT 10SM OVC018 M01/M05 A3001 750 75 -900 360/09 RMK AO2 T10111050
94889KARB ARB20160325094010803/25/16 09:40:31  5-MIN KARB 251440Z 36007KT 10SM OVC018 M01/M05 A3001 750 75 -900 010/07 RMK AO2 T10111050
94889KARB ARB20160325094510803/25/16 09:45:31  5-MIN KARB 251445Z 32006KT 10SM OVC018 M01/M05 A3002 750 75 -900 330/06 RMK AO2 T10111050
94889KARB ARB20160325095012203/25/16 09:50:31  5-MIN KARB 251450Z 35006KT 10SM OVC018 M01/M05 A3002 750 75 -1000 350/06 RMK AO2 SLP174 T10111050 51044
94889KARB ARB20160325095510903/25/16 09:55:31  5-MIN KARB 251455Z 33008KT 10SM OVC018 M01/M05 A3002 740 75 -1000 340/08 RMK AO2 T10111050
94889KARB ARB20160325100010903/25/16 10:00:31  5-MIN KARB 251500Z 33007KT 10SM OVC018 M01/M05 A3003 740 75 -1000 330/07 RMK AO2 T10111050
94889KARB ARB20160325100510903/25/16 10:05:31  5-MIN KARB 251505Z 36007KT 10SM OVC018 M01/M05 A3003 740 75 -1000 010/07 RMK AO2 T10111050
94889KARB ARB20160325101010903/25/16 10:10:31  5-MIN KARB 251510Z 34008KT 10SM OVC018 M01/M05 A3004 740 75 -1000 350/08 RMK AO2 T10111050
94889KARB ARB20160325101510903/25/16 10:15:31  5-MIN KARB 251515Z 36008KT 10SM OVC018 M01/M05 A3004 730 75 -1000 360/08 RMK AO2 T10111050
94889KARB ARB20160325102010903/25/16 10:20:31  5-MIN KARB 251520Z 33008KT 10SM OVC018 M01/M05 A3004 730 75 -1000 340/08 RMK AO2 T10111050
94889KARB ARB20160325102510903/25/16 10:25:31  5-MIN KARB 251525Z 33008KT 10SM OVC018 M01/M05 A3005 720 75 -1000 330/08 RMK AO2 T10111050
94889KARB ARB20160325103010803/25/16 10:30:31  5-MIN KARB 251530Z 33006KT 10SM OVC018 M01/M05 A3005 720 72 -900 340/06 RMK AO2 T10061050
94889KARB ARB20160325103510803/25/16 10:35:31  5-MIN KARB 251535Z 33006KT 10SM OVC018 M01/M04 A3005 720 75 -900 340/06 RMK AO2 T10061044
94889KARB ARB20160325104010803/25/16 10:40:31  5-MIN KARB 251540Z 33005KT 10SM OVC018 M01/M05 A3005 720 72 -900 340/05 RMK AO2 T10061050
94889KARB ARB20160325104510803/25/16 10:45:31  5-MIN KARB 251545Z 36006KT 10SM OVC018 M01/M04 A3005 720 75 -900 360/06 RMK AO2 T10061044
94889KARB ARB20160325105011503/25/16 10:50:31  5-MIN KARB 251550Z 33005KT 10SM OVC019 M01/M05 A3006 720 72 -900 340/05 RMK AO2 SLP186 T10061050
94889KARB ARB20160325105510803/25/16 10:55:31  5-MIN KARB 251555Z 33009KT 10SM OVC019 M01/M04 A3006 720 75 -900 340/09 RMK AO2 T10061044
94889KARB ARB20160325110010803/25/16 11:00:31  5-MIN KARB 251600Z 32007KT 10SM OVC019 M01/M04 A3005 720 75 -900 320/07 RMK AO2 T10061044
94889KARB ARB20160325110510803/25/16 11:05:31  5-MIN KARB 251605Z 31005KT 10SM OVC019 M01/M04 A3006 720 75 -900 320/05 RMK AO2 T10061044
94889KARB ARB20160325111010803/25/16 11:10:31  5-MIN KARB 251610Z VRB06KT 10SM OVC019 M01/M04 A3006 720 75 -900 VRB/06 RMK AO2 T10061044
94889KARB ARB20160325111510703/25/16 11:15:31  5-MIN KARB 251615Z 31006KT 10SM OVC019 00/M04 A3006 720 72 -900 310/06 RMK AO2 T00001044
94889KARB ARB20160325112010703/25/16 11:20:31  5-MIN KARB 251620Z 34004KT 10SM OVC019 00/M04 A3006 710 72 -900 350/04 RMK AO2 T00001044
94889KARB ARB20160325112510703/25/16 11:25:31  5-MIN KARB 251625Z VRB03KT 10SM OVC019 00/M04 A3006 710 72 -900 VRB/03 RMK AO2 T00001044
94889KARB ARB20160325113010703/25/16 11:30:31  5-MIN KARB 251630Z 31008KT 10SM OVC019 00/M04 A3006 710 75 -900 320/08 RMK AO2 T00001039
94889KARB ARB20160325113510703/25/16 11:35:31  5-MIN KARB 251635Z VRB03KT 10SM OVC019 00/M04 A3006 710 72 -900 VRB/03 RMK AO2 T00001044
94889KARB ARB20160325114010703/25/16 11:40:31  5-MIN KARB 251640Z 31004KT 10SM OVC019 00/M04 A3006 710 72 -900 320/04 RMK AO2 T00001044
94889KARB ARB20160325114510703/25/16 11:45:31  5-MIN KARB 251645Z VRB06KT 10SM OVC019 00/M04 A3006 710 72 -900 VRB/06 RMK AO2 T00001044
94889KARB ARB20160325115011403/25/16 11:50:31  5-MIN KARB 251650Z 33008KT 10SM OVC019 01/M04 A3006 720 72 -800 330/08 RMK AO2 SLP186 T00061039
94889KARB ARB20160325115510703/25/16 11:55:31  5-MIN KARB 251655Z 30006KT 10SM OVC019 01/M04 A3006 710 72 -800 300/06 RMK AO2 T00061039
94889KARB ARB20160325120010703/25/16 12:00:31  5-MIN KARB 251700Z 33007KT 10SM OVC020 01/M04 A3006 710 72 -800 340/07 RMK AO2 T00061039
94889KARB ARB20160325120510703/25/16 12:05:31  5-MIN KARB 251705Z 34005KT 10SM OVC020 01/M04 A3006 710 69 -800 350/05 RMK AO2 T00061044
94889KARB ARB20160325121010703/25/16 12:10:31  5-MIN KARB 251710Z VRB05KT 10SM OVC020 01/M04 A3006 710 66 -700 VRB/05 RMK AO2 T00111044
94889KARB ARB20160325121510703/25/16 12:15:31  5-MIN KARB 251715Z 35006KT 10SM OVC020 01/M04 A3006 710 69 -800 350/06 RMK AO2 T00061044
94889KARB ARB20160325122010703/25/16 12:20:31  5-MIN KARB 251720Z 34005KT 10SM OVC021 02/M04 A3007 710 66 -700 350/05 RMK AO2 T00171039
94889KARB ARB20160325122510703/25/16 12:25:31  5-MIN KARB 251725Z VRB05KT 10SM OVC021 02/M04 A3007 710 66 -700 VRB/05 RMK AO2 T00171039
94889KARB ARB20160325123010703/25/16 12:30:31  5-MIN KARB 251730Z 26003KT 10SM OVC021 02/M03 A3007 710 69 -700 260/03 RMK AO2 T00171033
94889KARB ARB20160325123510703/25/16 12:35:31  5-MIN KARB 251735Z 36004KT 10SM BKN021 02/M03 A3006 710 67 -600 010/04 RMK AO2 T00221033
94889KARB ARB20160325124010703/25/16 12:40:31  5-MIN KARB 251740Z VRB03KT 10SM BKN022 02/M03 A3006 710 67 -600 VRB/03 RMK AO2 T00221033
94889KARB ARB20160325124510703/25/16 12:45:31  5-MIN KARB 251745Z 30005KT 10SM BKN022 02/M04 A3006 710 64 -600 310/05 RMK AO2 T00221039
94889KARB ARB20160325125013203/25/16 12:50:31  5-MIN KARB 251750Z 00000KT 10SM BKN022 01/M04 A3006 710 69 -700 000/00 RMK AO2 SLP187 T00111039 10028 21022 51041
94889KARB ARB20160325125509703/25/16 12:55:31  5-MIN KARB 251755Z 10SM BKN023 02/M04 A3006 710 64 -600 M /M RMK AO2 T00221039
94889KARB ARB20160325130010703/25/16 13:00:31  5-MIN KARB 251800Z VRB03KT 10SM BKN023 03/M04 A3006 710 61 -500 VRB/03 RMK AO2 T00281039
94889KARB ARB20160325130510703/25/16 13:05:31  5-MIN KARB 251805Z 00000KT 10SM BKN023 03/M04 A3006 710 61 -500 000/00 RMK AO2 T00281039
94889KARB ARB20160325131009703/25/16 13:10:31  5-MIN KARB 251810Z 10SM BKN023 03/M03 A3006 710 64 -400 M /M RMK AO2 T00331028
94889KARB ARB20160325131510703/25/16 13:15:31  5-MIN KARB 251815Z VRB05KT 10SM SCT023 03/M03 A3006 710 64 -500 VRB/05 RMK AO2 T00281033
94889KARB ARB20160325132010703/25/16 13:20:31  5-MIN KARB 251820Z VRB03KT 10SM FEW023 03/M03 A3006 710 61 -400 VRB/03 RMK AO2 T00331033
94889KARB ARB20160325132510703/25/16 13:25:31  5-MIN KARB 251825Z 36007KT 10SM FEW024 03/M03 A3006 710 61 -400 360/07 RMK AO2 T00331033
94889KARB ARB20160325133010703/25/16 13:30:31  5-MIN KARB 251830Z 32003KT 10SM FEW024 03/M03 A3006 710 61 -400 330/03 RMK AO2 T00331033
94889KARB ARB20160325133510703/25/16 13:35:31  5-MIN KARB 251835Z 03004KT 10SM FEW024 04/M03 A3006 710 59 -400 030/04 RMK AO2 T00391033
94889KARB ARB20160325134010403/25/16 13:40:31  5-MIN KARB 251840Z 28004KT 10SM CLR 04/M03 A3006 710 59 -400 290/04 RMK AO2 T00391033
94889KARB ARB20160325134510403/25/16 13:45:31  5-MIN KARB 251845Z 29005KT 10SM CLR 04/M03 A3006 710 59 -400 300/05 RMK AO2 T00391033
94889KARB ARB20160325135011103/25/16 13:50:31  5-MIN KARB 251850Z VRB06KT 10SM CLR 04/M03 A3006 710 57 -300 VRB/06 RMK AO2 SLP185 T00441033
94889KARB ARB20160325135509403/25/16 13:55:31  5-MIN KARB 251855Z 10SM CLR 04/M03 A3006 720 57 -300 M /M RMK AO2 T00441033
94889KARB ARB20160325140010403/25/16 14:00:31  5-MIN KARB 251900Z VRB04KT 10SM CLR 05/M03 A3006 710 55 -200 VRB/04 RMK AO2 T00501033
94889KARB ARB20160325140510403/25/16 14:05:31  5-MIN KARB 251905Z 34006KT 10SM CLR 04/M03 A3006 720 59 -300 340/06 RMK AO2 T00441028
94889KARB ARB20160325141010403/25/16 14:10:31  5-MIN KARB 251910Z 30006KT 10SM CLR 04/M03 A3006 720 59 -300 310/06 RMK AO2 T00441028
94889KARB ARB20160325141510403/25/16 14:15:31  5-MIN KARB 251915Z 29005KT 10SM CLR 04/M03 A3005 720 59 -300 300/05 RMK AO2 T00441028
94889KARB ARB20160325142010403/25/16 14:20:31  5-MIN KARB 251920Z 30005KT 10SM CLR 04/M03 A3005 720 59 -300 310/05 RMK AO2 T00441028
94889KARB ARB20160325142510403/25/16 14:25:31  5-MIN KARB 251925Z VRB04KT 10SM CLR 05/M03 A3005 720 57 -200 VRB/04 RMK AO2 T00501028
94889KARB ARB20160325143010403/25/16 14:30:31  5-MIN KARB 251930Z VRB04KT 10SM CLR 05/M03 A3005 720 55 -200 VRB/04 RMK AO2 T00501033
94889KARB ARB20160325143510403/25/16 14:35:31  5-MIN KARB 251935Z VRB03KT 10SM CLR 05/M03 A3005 720 55 -200 VRB/03 RMK AO2 T00501033
94889KARB ARB20160325144010403/25/16 14:40:31  5-MIN KARB 251940Z VRB04KT 10SM CLR 06/M03 A3005 720 55 -200 VRB/04 RMK AO2 T00561028
94889KARB ARB20160325144510403/25/16 14:45:31  5-MIN KARB 251945Z 34006KT 10SM CLR 06/M03 A3006 720 55 -200 350/06 RMK AO2 T00561028
94889KARB ARB20160325145011103/25/16 14:50:31  5-MIN KARB 251950Z VRB04KT 10SM CLR 06/M03 A3006 720 53 -200 VRB/04 RMK AO2 SLP185 T00561033
94889KARB ARB20160325145510403/25/16 14:55:31  5-MIN KARB 251955Z 00000KT 10SM CLR 05/M03 A3006 720 55 -200 000/00 RMK AO2 T00501033
94889KARB ARB20160325150009403/25/16 15:00:31  5-MIN KARB 252000Z 10SM CLR 06/M03 A3006 720 53 -100 M /M RMK AO2 T00611028
94889KARB ARB20160325150510403/25/16 15:05:31  5-MIN KARB 252005Z VRB05KT 10SM CLR 06/M03 A3006 720 53 -200 VRB/05 RMK AO2 T00561033
94889KARB ARB20160325151010403/25/16 15:10:31  5-MIN KARB 252010Z VRB03KT 10SM CLR 06/M03 A3006 720 53 -200 VRB/03 RMK AO2 T00561033
94889KARB ARB20160325151510403/25/16 15:15:31  5-MIN KARB 252015Z 27003KT 10SM CLR 05/M03 A3006 710 57 -200 280/03 RMK AO2 T00501028
94889KARB ARB20160325152010403/25/16 15:20:31  5-MIN KARB 252020Z VRB03KT 10SM CLR 06/M03 A3006 710 53 -200 VRB/03 RMK AO2 T00561033
94889KARB ARB20160325152510403/25/16 15:25:31  5-MIN KARB 252025Z 00000KT 10SM CLR 06/M03 A3006 710 53 -100 000/00 RMK AO2 T00611028
94889KARB ARB20160325153010103/25/16 15:30:31  5-MIN KARB 252030Z VRB03KT 10SM CLR 07/M02 A3006 710 53 0 VRB/03 RMK AO2 T00671022
94889KARB ARB20160325153510403/25/16 15:35:31  5-MIN KARB 252035Z 27005KT 10SM CLR 06/M03 A3006 710 53 -100 270/05 RMK AO2 T00611028
94889KARB ARB20160325154010403/25/16 15:40:31  5-MIN KARB 252040Z 29005KT 10SM CLR 06/M03 A3006 710 53 -200 300/05 RMK AO2 T00561033
94889KARB ARB20160325154510403/25/16 15:45:31  5-MIN KARB 252045Z 30003KT 10SM CLR 06/M03 A3006 710 53 -100 300/03 RMK AO2 T00611028
94889KARB ARB20160325155011703/25/16 15:50:31  5-MIN KARB 252050Z 25005KT 10SM CLR 06/M02 A3006 710 55 -100 260/05 RMK AO2 SLP187 T00611022 51012
94889KARB ARB20160325155510403/25/16 15:55:31  5-MIN KARB 252055Z 35005KT 10SM CLR 06/M03 A3006 710 53 -100 350/05 RMK AO2 T00611028
94889KARB ARB20160325160010103/25/16 16:00:31  5-MIN KARB 252100Z 02005KT 10SM CLR 07/M03 A3006 710 51 0 020/05 RMK AO2 T00671028
94889KARB ARB20160325160510103/25/16 16:05:31  5-MIN KARB 252105Z VRB05KT 10SM CLR 07/M03 A3007 710 51 0 VRB/05 RMK AO2 T00671028
94889KARB ARB20160325161010103/25/16 16:10:31  5-MIN KARB 252110Z 34005KT 10SM CLR 07/M03 A3007 710 51 0 340/05 RMK AO2 T00671028
94889KARB ARB20160325161510103/25/16 16:15:31  5-MIN KARB 252115Z 31005KT 10SM CLR 07/M03 A3007 710 51 0 320/05 RMK AO2 T00671028
94889KARB ARB20160325162010103/25/16 16:20:31  5-MIN KARB 252120Z 33007KT 10SM CLR 07/M03 A3007 700 49 0 340/07 RMK AO2 T00721028
94889KARB ARB20160325162510103/25/16 16:25:31  5-MIN KARB 252125Z 32003KT 10SM CLR 07/M03 A3007 700 51 0 330/03 RMK AO2 T00671028
94889KARB ARB20160325163010103/25/16 16:30:31  5-MIN KARB 252130Z 36004KT 10SM CLR 07/M03 A3007 700 49 0 010/04 RMK AO2 T00721028
94889KARB ARB20160325163510103/25/16 16:35:31  5-MIN KARB 252135Z VRB03KT 10SM CLR 07/M03 A3007 700 49 0 VRB/03 RMK AO2 T00721028
94889KARB ARB20160325164010103/25/16 16:40:31  5-MIN KARB 252140Z VRB05KT 10SM CLR 07/M03 A3007 700 51 0 VRB/05 RMK AO2 T00671028
94889KARB ARB20160325164510103/25/16 16:45:31  5-MIN KARB 252145Z 02004KT 10SM CLR 07/M03 A3007 700 49 0 030/04 RMK AO2 T00721028
94889KARB ARB20160325165010803/25/16 16:50:31  5-MIN KARB 252150Z VRB03KT 10SM CLR 07/M03 A3008 700 51 0 VRB/03 RMK AO2 SLP191 T00671028
94889KARB ARB20160325165510103/25/16 16:55:31  5-MIN KARB 252155Z 00000KT 10SM CLR 07/M03 A3008 700 51 0 000/00 RMK AO2 T00671028
94889KARB ARB20160325170010403/25/16 17:00:31  5-MIN KARB 252200Z 33004KT 10SM CLR 07/M03 A3008 690 51 -100 340/04 RMK AO2 T00671028
94889KARB ARB20160325170510103/25/16 17:05:31  5-MIN KARB 252205Z 02005KT 10SM CLR 07/M03 A3008 690 49 0 020/05 RMK AO2 T00721028
94889KARB ARB20160325171010103/25/16 17:10:31  5-MIN KARB 252210Z VRB03KT 10SM CLR 07/M03 A3008 690 49 0 VRB/03 RMK AO2 T00721028
94889KARB ARB20160325171510103/25/16 17:15:31  5-MIN KARB 252215Z 01004KT 10SM CLR 07/M03 A3009 690 49 0 020/04 RMK AO2 T00721028
94889KARB ARB20160325172010403/25/16 17:20:31  5-MIN KARB 252220Z 00000KT 10SM CLR 07/M03 A3009 680 49 -100 000/00 RMK AO2 T00671033
94889KARB ARB20160325172510103/25/16 17:25:31  5-MIN KARB 252225Z 05003KT 10SM CLR 07/M03 A3009 680 49 0 060/03 RMK AO2 T00721028
94889KARB ARB20160325173010403/25/16 17:30:31  5-MIN KARB 252230Z 00000KT 10SM CLR 07/M03 A3009 680 49 -100 000/00 RMK AO2 T00671033
94889KARB ARB20160325173510403/25/16 17:35:31  5-MIN KARB 252235Z 00000KT 10SM CLR 07/M03 A3009 680 49 -100 000/00 RMK AO2 T00671033
94889KARB ARB20160325174010403/25/16 17:40:31  5-MIN KARB 252240Z 00000KT 10SM CLR 07/M03 A3009 680 51 -100 000/00 RMK AO2 T00671028
94889KARB ARB20160325174510403/25/16 17:45:31  5-MIN KARB 252245Z 00000KT 10SM CLR 07/M03 A3010 680 51 -100 000/00 RMK AO2 T00671028
94889KARB ARB20160325175010803/25/16 17:50:31  5-MIN KARB 252250Z 00000KT 10SM CLR 07/M03 A3010 680 47 0 000/00 RMK AO2 SLP199 T00721033
94889KARB ARB20160325175510403/25/16 17:55:31  5-MIN KARB 252255Z 00000KT 10SM CLR 07/M03 A3010 680 49 -100 000/00 RMK AO2 T00671033
94889KARB ARB20160325180010403/25/16 18:00:31  5-MIN KARB 252300Z 11003KT 10SM CLR 06/M03 A3010 680 51 -100 120/03 RMK AO2 T00611033
94889KARB ARB20160325180510403/25/16 18:05:31  5-MIN KARB 252305Z 00000KT 10SM CLR 06/M03 A3010 670 51 -100 000/00 RMK AO2 T00611033
94889KARB ARB20160325181010403/25/16 18:10:31  5-MIN KARB 252310Z 00000KT 10SM CLR 07/M03 A3010 670 49 -100 000/00 RMK AO2 T00671033
94889KARB ARB20160325181510403/25/16 18:15:31  5-MIN KARB 252315Z 00000KT 10SM CLR 06/M03 A3011 670 53 -200 000/00 RMK AO2 T00611028
94889KARB ARB20160325182010403/25/16 18:20:31  5-MIN KARB 252320Z 00000KT 10SM CLR 06/M03 A3011 670 51 -200 000/00 RMK AO2 T00611033
94889KARB ARB20160325182510403/25/16 18:25:31  5-MIN KARB 252325Z 12003KT 10SM CLR 06/M03 A3011 670 55 -200 130/03 RMK AO2 T00561028
94889KARB ARB20160325183010403/25/16 18:30:31  5-MIN KARB 252330Z 13004KT 10SM CLR 05/M03 A3011 670 57 -300 140/04 RMK AO2 T00501028
94889KARB ARB20160325183510403/25/16 18:35:31  5-MIN KARB 252335Z 15003KT 10SM CLR 06/M03 A3011 670 55 -200 160/03 RMK AO2 T00561028
94889KARB ARB20160325184010403/25/16 18:40:31  5-MIN KARB 252340Z 00000KT 10SM CLR 06/M03 A3011 670 53 -200 000/00 RMK AO2 T00561033
94889KARB ARB20160325184510403/25/16 18:45:31  5-MIN KARB 252345Z 00000KT 10SM CLR 05/M03 A3011 670 57 -300 000/00 RMK AO2 T00501028
94889KARB ARB20160325185012903/25/16 18:50:31  5-MIN KARB 252350Z 00000KT 10SM CLR 05/M03 A3011 660 57 -300 000/00 RMK AO2 SLP205 T00501028 10072 20017 53001
94889KARB ARB20160325185510403/25/16 18:55:31  5-MIN KARB 252355Z 12003KT 10SM CLR 05/M03 A3011 660 57 -300 130/03 RMK AO2 T00501028
94889KARB ARB20160325190010403/25/16 19:00:31  5-MIN KARB 260000Z 12003KT 10SM CLR 04/M02 A3012 660 62 -400 130/03 RMK AO2 T00441022
94889KARB ARB20160325190510403/25/16 19:05:31  5-MIN KARB 260005Z 13005KT 10SM CLR 04/M03 A3012 660 59 -400 140/05 RMK AO2 T00441028
94889KARB ARB20160325191010403/25/16 19:10:31  5-MIN KARB 260010Z 14003KT 10SM CLR 04/M03 A3012 660 59 -400 150/03 RMK AO2 T00441028
94889KARB ARB20160325191510403/25/16 19:15:31  5-MIN KARB 260015Z 14003KT 10SM CLR 04/M03 A3012 660 59 -400 150/03 RMK AO2 T00441028
94889KARB ARB20160325192010403/25/16 19:20:31  5-MIN KARB 260020Z 13003KT 10SM CLR 04/M02 A3012 660 62 -400 130/03 RMK AO2 T00441022
94889KARB ARB20160325192510403/25/16 19:25:31  5-MIN KARB 260025Z 11004KT 10SM CLR 04/M02 A3012 660 64 -400 120/04 RMK AO2 T00391022
94889KARB ARB20160325193010403/25/16 19:30:31  5-MIN KARB 260030Z 10004KT 10SM CLR 04/M02 A3012 660 62 -400 110/04 RMK AO2 T00441022
94889KARB ARB20160325193510403/25/16 19:35:31  5-MIN KARB 260035Z 11004KT 10SM CLR 04/M03 A3012 660 59 -400 110/04 RMK AO2 T00441028
94889KARB ARB20160325194010403/25/16 19:40:31  5-MIN KARB 260040Z 11004KT 10SM CLR 04/M03 A3012 650 62 -400 110/04 RMK AO2 T00391028
94889KARB ARB20160325194510403/25/16 19:45:31  5-MIN KARB 260045Z 13006KT 10SM CLR 03/M03 A3013 650 64 -500 140/06 RMK AO2 T00331028
94889KARB ARB20160325195011103/25/16 19:50:31  5-MIN KARB 260050Z 15006KT 10SM CLR 03/M02 A3013 640 69 -600 160/06 RMK AO2 SLP213 T00281022
94889KARB ARB20160325195510403/25/16 19:55:31  5-MIN KARB 260055Z 16006KT 10SM CLR 02/M02 A3013 640 75 -700 160/06 RMK AO2 T00221017
94889KARB ARB20160325200010403/25/16 20:00:31  5-MIN KARB 260100Z 16006KT 10SM CLR 02/M01 A3014 640 78 -700 170/06 RMK AO2 T00221011
94889KARB ARB20160325200510403/25/16 20:05:31  5-MIN KARB 260105Z 16007KT 10SM CLR 02/M01 A3014 640 78 -700 170/07 RMK AO2 T00221011
94889KARB ARB20160325201010403/25/16 20:10:31  5-MIN KARB 260110Z 16006KT 10SM CLR 02/M01 A3014 640 78 -700 160/06 RMK AO2 T00221011
94889KARB ARB20160325201510403/25/16 20:15:31  5-MIN KARB 260115Z 17005KT 10SM CLR 02/M01 A3015 630 82 -800 180/05 RMK AO2 T00171011
94889KARB ARB20160325202010403/25/16 20:20:31  5-MIN KARB 260120Z 18005KT 10SM CLR 02/M01 A3015 630 82 -800 180/05 RMK AO2 T00171011
94889KARB ARB20160325202510403/25/16 20:25:31  5-MIN KARB 260125Z 18004KT 10SM CLR 02/M01 A3016 620 82 -800 190/04 RMK AO2 T00171011
94889KARB ARB20160325203010403/25/16 20:30:31  5-MIN KARB 260130Z 18004KT 10SM CLR 02/M01 A3016 620 82 -800 190/04 RMK AO2 T00171011
94889KARB ARB20160325203510403/25/16 20:35:31  5-MIN KARB 260135Z 18005KT 10SM CLR 02/M01 A3016 620 82 -800 180/05 RMK AO2 T00171011
94889KARB ARB20160325204010403/25/16 20:40:31  5-MIN KARB 260140Z 18004KT 10SM CLR 02/M01 A3016 620 82 -800 190/04 RMK AO2 T00171011
94889KARB ARB20160325204510403/25/16 20:45:31  5-MIN KARB 260145Z 18005KT 10SM CLR 01/M01 A3016 620 85 -800 190/05 RMK AO2 T00111011
94889KARB ARB20160325205011103/25/16 20:50:31  5-MIN KARB 260150Z 18004KT 10SM CLR 01/M01 A3016 620 85 -800 190/04 RMK AO2 SLP223 T00111011
94889KARB ARB20160325205510403/25/16 20:55:31  5-MIN KARB 260155Z 16003KT 10SM CLR 01/M02 A3017 620 82 -800 170/03 RMK AO2 T00111017
94889KARB ARB20160325210010403/25/16 21:00:31  5-MIN KARB 260200Z 10005KT 10SM CLR 01/M01 A3017 610 85 -800 100/05 RMK AO2 T00111011
94889KARB ARB20160325210510403/25/16 21:05:31  5-MIN KARB 260205Z 12004KT 10SM CLR 01/M01 A3018 610 85 -800 120/04 RMK AO2 T00111011
94889KARB ARB20160325211010403/25/16 21:10:31  5-MIN KARB 260210Z 00000KT 10SM CLR 01/M02 A3017 610 82 -800 000/00 RMK AO2 T00111017
94889KARB ARB20160325211510403/25/16 21:15:31  5-MIN KARB 260215Z 09003KT 10SM CLR 01/M02 A3017 610 82 -800 100/03 RMK AO2 T00111017
94889KARB ARB20160325212010403/25/16 21:20:31  5-MIN KARB 260220Z 07003KT 10SM CLR 01/M02 A3018 610 82 -900 080/03 RMK AO2 T00111017
94889KARB ARB20160325212510403/25/16 21:25:31  5-MIN KARB 260225Z 00000KT 10SM CLR 01/M01 A3018 610 85 -800 000/00 RMK AO2 T00111011
94889KARB ARB20160325213010403/25/16 21:30:31  5-MIN KARB 260230Z 08003KT 10SM CLR 01/M01 A3018 610 85 -800 090/03 RMK AO2 T00111011
94889KARB ARB20160325213510403/25/16 21:35:31  5-MIN KARB 260235Z 08003KT 10SM CLR 01/M01 A3018 610 85 -800 090/03 RMK AO2 T00111011
94889KARB ARB20160325214010403/25/16 21:40:31  5-MIN KARB 260240Z 11003KT 10SM CLR 01/M01 A3018 600 85 -900 110/03 RMK AO2 T00111011
94889KARB ARB20160325214510403/25/16 21:45:31  5-MIN KARB 260245Z 00000KT 10SM CLR 01/M01 A3018 600 89 -900 000/00 RMK AO2 T00061011
94889KARB ARB20160325215011703/25/16 21:50:31  5-MIN KARB 260250Z 00000KT 10SM CLR 01/M01 A3018 600 89 -900 000/00 RMK AO2 SLP228 T00061011 52017
94889KARB ARB20160325215510403/25/16 21:55:31  5-MIN KARB 260255Z 00000KT 10SM CLR 01/M01 A3018 600 89 -900 000/00 RMK AO2 T00061011
94889KARB ARB20160325220010403/25/16 22:00:31  5-MIN KARB 260300Z 11003KT 10SM CLR 01/M01 A3018 600 89 -900 110/03 RMK AO2 T00061011
94889KARB ARB20160325220510403/25/16 22:05:31  5-MIN KARB 260305Z 00000KT 10SM CLR 01/M02 A3018 600 85 -900 000/00 RMK AO2 T00061017
94889KARB ARB20160325221010503/25/16 22:10:31  5-MIN KARB 260310Z 13003KT 10SM CLR 00/M02 A3019 600 88 -1000 140/03 RMK AO2 T00001017
94889KARB ARB20160325221510503/25/16 22:15:31  5-MIN KARB 260315Z 11003KT 10SM CLR 00/M02 A3019 600 88 -1000 110/03 RMK AO2 T00001017
94889KARB ARB20160325222010403/25/16 22:20:31  5-MIN KARB 260320Z 11003KT 10SM CLR 01/M02 A3019 600 85 -900 120/03 RMK AO2 T00061017
94889KARB ARB20160325222510503/25/16 22:25:31  5-MIN KARB 260325Z 10003KT 10SM CLR 00/M02 A3018 600 88 -1000 110/03 RMK AO2 T00001017
94889KARB ARB20160325223010503/25/16 22:30:31  5-MIN KARB 260330Z 11003KT 10SM CLR 00/M02 A3018 600 88 -1000 120/03 RMK AO2 T00001017
94889KARB ARB20160325223510503/25/16 22:35:31  5-MIN KARB 260335Z 11003KT 10SM CLR 00/M02 A3019 600 88 -1000 120/03 RMK AO2 T00001017
94889KARB ARB20160325224010603/25/16 22:40:31  5-MIN KARB 260340Z 00000KT 10SM CLR M01/M02 A3019 590 92 -1100 000/00 RMK AO2 T10061017
94889KARB ARB20160325224510603/25/16 22:45:31  5-MIN KARB 260345Z 12003KT 10SM CLR M01/M02 A3019 590 88 -1100 120/03 RMK AO2 T10061022
94889KARB ARB20160325225011303/25/16 22:50:31  5-MIN KARB 260350Z 00000KT 10SM CLR M01/M02 A3019 590 88 -1100 000/00 RMK AO2 SLP234 T10061022
94889KARB ARB20160325225510603/25/16 22:55:31  5-MIN KARB 260355Z 00000KT 10SM CLR M01/M02 A3019 590 88 -1100 000/00 RMK AO2 T10061022
94889KARB ARB20160325230010603/25/16 23:00:31  5-MIN KARB 260400Z 00000KT 10SM CLR M01/M02 A3019 590 88 -1100 000/00 RMK AO2 T10061022
94889KARB ARB20160325230510603/25/16 23:05:31  5-MIN KARB 260405Z 00000KT 10SM CLR M01/M02 A3019 590 88 -1100 000/00 RMK AO2 T10061022
94889KARB ARB20160325231010603/25/16 23:10:31  5-MIN KARB 260410Z 00000KT 10SM CLR M01/M02 A3020 590 88 -1100 000/00 RMK AO2 T10061022
94889KARB ARB20160325231510603/25/16 23:15:31  5-MIN KARB 260415Z 00000KT 10SM CLR M01/M02 A3020 580 88 -1100 000/00 RMK AO2 T10061022
94889KARB ARB20160325232010603/25/16 23:20:31  5-MIN KARB 260420Z 00000KT 10SM CLR M01/M02 A3020 580 88 -1100 000/00 RMK AO2 T10061022
94889KARB ARB20160325232510603/25/16 23:25:31  5-MIN KARB 260425Z 00000KT 10SM CLR M01/M02 A3020 580 88 -1100 000/00 RMK AO2 T10061022
94889KARB ARB20160325233010503/25/16 23:30:31  5-MIN KARB 260430Z 00000KT 9SM CLR M01/M02 A3020 580 88 -1100 000/00 RMK AO2 T10061022
94889KARB ARB20160325233510503/25/16 23:35:31  5-MIN KARB 260435Z 00000KT 9SM CLR M01/M02 A3020 580 92 -1100 000/00 RMK AO2 T10061017
94889KARB ARB20160325234010603/25/16 23:40:31  5-MIN KARB 260440Z 00000KT 10SM CLR M01/M02 A3020 580 88 -1100 000/00 RMK AO2 T10061022
94889KARB ARB20160325234510503/25/16 23:45:31  5-MIN KARB 260445Z 00000KT 9SM CLR M02/M02 A3020 580 96 -1200 000/00 RMK AO2 T10171022
94889KARB ARB20160325235012203/25/16 23:50:31  5-MIN KARB 260450Z 00000KT 9SM CLR M02/M03 A3020 580 92 -1200 000/00 RMK AO2 SLP236 T10171028 400721022
94889KARB ARB20160325235510503/25/16 23:55:31  5-MIN KARB 260455Z 00000KT 8SM CLR M02/M03 A3020 580 96 -1300 000/00 RMK AO2 T10221028
94889KARB ARB20160326000010503/26/16 00:00:31  5-MIN KARB 260500Z 00000KT 8SM CLR M02/M03 A3020 580 92 -1200 000/00 RMK AO2 T10171028
94889KARB ARB20160326000511103/26/16 00:05:31  5-MIN KARB 260505Z 00000KT 7SM CLR M02/M03 A3020 580 92 -1200 000/00 RMK AO2 I1000 T10171028
94889KARB ARB20160326001011103/26/16 00:10:31  5-MIN KARB 260510Z 00000KT 8SM CLR M02/M03 A3020 590 92 -1200 000/00 RMK AO2 I1000 T10171028
94889KARB ARB20160326001511103/26/16 00:15:31  5-MIN KARB 260515Z 00000KT 8SM CLR M02/M02 A3020 590 96 -1200 000/00 RMK AO2 I1000 T10171022
94889KARB ARB20160326002011103/26/16 00:20:31  5-MIN KARB 260520Z 00000KT 8SM CLR M02/M02 A3020 590 96 -1200 000/00 RMK AO2 I1000 T10171022
94889KARB ARB20160326002511103/26/16 00:25:31  5-MIN KARB 260525Z 00000KT 9SM CLR M02/M02 A3020 590 96 -1200 000/00 RMK AO2 I1000 T10171022
94889KARB ARB20160326003011103/26/16 00:30:31  5-MIN KARB 260530Z 00000KT 8SM CLR M02/M02 A3020 590 96 -1200 000/00 RMK AO2 I1000 T10171022
94889KARB ARB20160326003511103/26/16 00:35:31  5-MIN KARB 260535Z 00000KT 8SM CLR M02/M03 A3020 580 96 -1300 000/00 RMK AO2 I1001 T10221028
94889KARB ARB20160326004011103/26/16 00:40:31  5-MIN KARB 260540Z 00000KT 8SM CLR M03/M03 A3020 580 96 -1400 000/00 RMK AO2 I1001 T10281033
94889KARB ARB20160326004511403/26/16 00:45:31  5-MIN KARB 260545Z 00000KT 6SM BR CLR M03/M04 A3021 580 92 -1400 000/00 RMK AO2 I1001 T10281039
94889KARB ARB20160326005014503/26/16 00:50:31  5-MIN KARB 260550Z 00000KT 4SM BR CLR M02/M03 A3021 570 92 -1300 000/00 RMK AO2 SLP239 I1001 I6001 T10221033 10050 21028 51022
94889KARB ARB20160326005510803/26/16 00:55:31  5-MIN KARB 260555Z 00000KT 4SM BR CLR M03/M03 A3021 580 96 -1400 000/00 RMK AO2 T10281033
94889KARB ARB20160326010010803/26/16 01:00:31  5-MIN KARB 260600Z 22003KT 5SM BR CLR M03/M03 A3021 570 96 -1400 230/03 RMK AO2 T10281033
94889KARB ARB20160326010510803/26/16 01:05:31  5-MIN KARB 260605Z 00000KT 5SM BR CLR M03/M03 A3021 580 96 -1400 000/00 RMK AO2 T10281033
94889KARB ARB20160326011010803/26/16 01:10:31  5-MIN KARB 260610Z 00000KT 6SM BR CLR M03/M03 A3021 580 96 -1400 000/00 RMK AO2 T10281033
94889KARB ARB20160326011511103/26/16 01:15:31  5-MIN KARB 260615Z 00000KT 7SM CLR M03/M03 A3020 580 96 -1400 000/00 RMK AO2 I1000 T10281033
94889KARB ARB20160326012011103/26/16 01:20:31  5-MIN KARB 260620Z 00000KT 8SM CLR M03/M04 A3020 580 92 -1400 000/00 RMK AO2 I1000 T10281039
94889KARB ARB20160326012511103/26/16 01:25:31  5-MIN KARB 260625Z 00000KT 8SM CLR M03/M04 A3020 580 96 -1400 000/00 RMK AO2 I1000 T10331039
94889KARB ARB20160326013011103/26/16 01:30:31  5-MIN KARB 260630Z 00000KT 8SM CLR M03/M04 A3020 590 88 -1400 000/00 RMK AO2 I1000 T10281044
94889KARB ARB20160326013511103/26/16 01:35:31  5-MIN KARB 260635Z 00000KT 7SM CLR M03/M04 A3020 590 88 -1400 000/00 RMK AO2 I1000 T10281044
94889KARB ARB20160326014011103/26/16 01:40:31  5-MIN KARB 260640Z 00000KT 7SM CLR M03/M04 A3020 590 96 -1400 000/00 RMK AO2 I1000 T10331039
94889KARB ARB20160326014511103/26/16 01:45:31  5-MIN KARB 260645Z 00000KT 8SM CLR M03/M04 A3020 580 92 -1400 000/00 RMK AO2 I1001 T10281039
94889KARB ARB20160326015011803/26/16 01:50:31  5-MIN KARB 260650Z 00000KT 8SM CLR M02/M03 A3020 580 92 -1300 000/00 RMK AO2 SLP235 I1001 T10221033
94889KARB ARB20160326015510503/26/16 01:55:31  5-MIN KARB 260655Z 00000KT 9SM CLR M02/M03 A3020 580 92 -1200 000/00 RMK AO2 T10171028
94889KARB ARB20160326020010503/26/16 02:00:31  5-MIN KARB 260700Z 00000KT 9SM CLR M02/M03 A3020 590 92 -1200 000/00 RMK AO2 T10171028
94889KARB ARB20160326020510503/26/16 02:05:31  5-MIN KARB 260705Z 00000KT 9SM CLR M02/M03 A3020 590 92 -1200 000/00 RMK AO2 T10171028
94889KARB ARB20160326021010503/26/16 02:10:31  5-MIN KARB 260710Z 00000KT 9SM CLR M02/M03 A3020 590 92 -1200 000/00 RMK AO2 T10171028
94889KARB ARB20160326021510603/26/16 02:15:31  5-MIN KARB 260715Z 00000KT 10SM CLR M02/M03 A3020 590 92 -1200 000/00 RMK AO2 T10171028
94889KARB ARB20160326022010603/26/16 02:20:31  5-MIN KARB 260720Z 00000KT 10SM CLR M02/M03 A3020 580 88 -1200 000/00 RMK AO2 T10171033
94889KARB ARB20160326022510503/26/16 02:25:31  5-MIN KARB 260725Z 00000KT 8SM CLR M04/M04 A3020 590 96 -1500 000/00 RMK AO2 T10391044
94889KARB ARB20160326023010503/26/16 02:30:31  5-MIN KARB 260730Z 00000KT 7SM CLR M04/M04 A3020 590 96 -1500 000/00 RMK AO2 T10391044
94889KARB ARB20160326023510803/26/16 02:35:31  5-MIN KARB 260735Z 00000KT 6SM BR CLR M04/M05 A3020 590 92 -1500 000/00 RMK AO2 T10391050
94889KARB ARB20160326024010803/26/16 02:40:31  5-MIN KARB 260740Z 00000KT 6SM BR CLR M04/M05 A3020 580 92 -1500 000/00 RMK AO2 T10391050
94889KARB ARB20160326024511103/26/16 02:45:31  5-MIN KARB 260745Z 00000KT 8SM CLR M04/M05 A3020 580 92 -1500 000/00 RMK AO2 I1000 T10391050
94889KARB ARB20160326025011803/26/16 02:50:31  5-MIN KARB 260750Z 00000KT 7SM CLR M04/M05 A3020 580 92 -1500 000/00 RMK AO2 SLP236 I1000 T10391050
94889KARB ARB20160326025510803/26/16 02:55:31  5-MIN KARB 260755Z 00000KT 6SM BR CLR M03/M04 A3020 580 92 -1400 000/00 RMK AO2 T10331044
94889KARB ARB20160326030010503/26/16 03:00:31  5-MIN KARB 260800Z 00000KT 7SM CLR M03/M04 A3020 580 92 -1400 000/00 RMK AO2 T10331044
94889KARB ARB20160326030510503/26/16 03:05:31  5-MIN KARB 260805Z 00000KT 8SM CLR M03/M04 A3020 580 96 -1400 000/00 RMK AO2 T10331039
94889KARB ARB20160326031010503/26/16 03:10:31  5-MIN KARB 260810Z 00000KT 9SM CLR M05/M06 A3020 580 96 -1700 000/00 RMK AO2 T10501056
94889KARB ARB20160326031511103/26/16 03:15:31  5-MIN KARB 260815Z 00000KT 9SM CLR M05/M06 A3020 580 96 -1700 000/00 RMK AO2 I1000 T10501056
94889KARB ARB20160326032011103/26/16 03:20:31  5-MIN KARB 260820Z 00000KT 9SM CLR M04/M06 A3020 580 88 -1500 000/00 RMK AO2 I1000 T10391056
94889KARB ARB20160326032511103/26/16 03:25:31  5-MIN KARB 260825Z 00000KT 8SM CLR M04/M06 A3020 580 92 -1600 000/00 RMK AO2 I1000 T10441056
94889KARB ARB20160326033011103/26/16 03:30:31  5-MIN KARB 260830Z 00000KT 7SM CLR M04/M06 A3020 580 92 -1600 000/00 RMK AO2 I1000 T10441056
94889KARB ARB20160326033511103/26/16 03:35:31  5-MIN KARB 260835Z 00000KT 7SM CLR M04/M06 A3020 580 92 -1600 000/00 RMK AO2 I1000 T10441056
94889KARB ARB20160326034011403/26/16 03:40:31  5-MIN KARB 260840Z 00000KT 6SM BR CLR M04/M06 A3020 580 88 -1500 000/00 RMK AO2 I1001 T10391056
94889KARB ARB20160326034511403/26/16 03:45:31  5-MIN KARB 260845Z 00000KT 6SM BR CLR M04/M06 A3020 580 88 -1500 000/00 RMK AO2 I1001 T10391056
94889KARB ARB20160326035013303/26/16 03:50:31  5-MIN KARB 260850Z 00000KT 6SM BR CLR M04/M05 A3020 580 92 -1500 000/00 RMK AO2 SLP235 I1001 I3/// T10391050 51010
94889KARB ARB20160326035510503/26/16 03:55:31  5-MIN KARB 260855Z 00000KT 7SM CLR M04/M06 A3020 580 88 -1500 000/00 RMK AO2 T10391056
94889KARB ARB20160326040010503/26/16 04:00:31  5-MIN KARB 260900Z 00000KT 8SM CLR M04/M06 A3020 590 88 -1500 000/00 RMK AO2 T10391056
94889KARB ARB20160326040510503/26/16 04:05:31  5-MIN KARB 260905Z 00000KT 7SM CLR M04/M06 A3020 580 92 -1600 000/00 RMK AO2 T10441056
94889KARB ARB20160326041010503/26/16 04:10:31  5-MIN KARB 260910Z 00000KT 7SM CLR M04/M05 A3020 580 96 -1600 000/00 RMK AO2 T10441050
94889KARB ARB20160326041510503/26/16 04:15:31  5-MIN KARB 260915Z 00000KT 7SM CLR M04/M05 A3020 580 96 -1600 000/00 RMK AO2 T10441050
94889KARB ARB20160326042010803/26/16 04:20:31  5-MIN KARB 260920Z 00000KT 6SM BR CLR M04/M05 A3020 580 96 -1600 000/00 RMK AO2 T10441050
94889KARB ARB20160326042510803/26/16 04:25:31  5-MIN KARB 260925Z 00000KT 6SM BR CLR M04/M05 A3020 580 96 -1600 000/00 RMK AO2 T10441050
94889KARB ARB20160326043010803/26/16 04:30:31  5-MIN KARB 260930Z 00000KT 5SM BR CLR M04/M05 A3020 580 96 -1600 000/00 RMK AO2 T10441050
94889KARB ARB20160326043510803/26/16 04:35:31  5-MIN KARB 260935Z 00000KT 4SM BR CLR M04/M05 A3021 580 92 -1500 000/00 RMK AO2 T10391050
94889KARB ARB20160326044010803/26/16 04:40:31  5-MIN KARB 260940Z 00000KT 4SM BR CLR M04/M05 A3020 580 96 -1600 000/00 RMK AO2 T10441050
94889KARB ARB20160326044510803/26/16 04:45:31  5-MIN KARB 260945Z 00000KT 4SM BR CLR M04/M05 A3020 580 92 -1500 000/00 RMK AO2 T10391050
94889KARB ARB20160326045012103/26/16 04:50:31  5-MIN KARB 260950Z 00000KT 6SM BR CLR M04/M05 A3021 580 92 -1500 000/00 RMK AO2 SLP237 I1000 T10391050
94889KARB ARB20160326045510803/26/16 04:55:31  5-MIN KARB 260955Z 00000KT 6SM BR CLR M04/M05 A3021 580 92 -1500 000/00 RMK AO2 T10391050
94889KARB ARB20160326050010803/26/16 05:00:31  5-MIN KARB 261000Z 00000KT 6SM BR CLR M04/M05 A3021 580 96 -1600 000/00 RMK AO2 T10441050
94889KARB ARB20160326050510803/26/16 05:05:31  5-MIN KARB 261005Z 00000KT 6SM BR CLR M04/M05 A3021 580 96 -1600 000/00 RMK AO2 T10441050
94889KARB ARB20160326051010803/26/16 05:10:31  5-MIN KARB 261010Z 05003KT 6SM BR CLR M04/M05 A3020 580 92 -1500 050/03 RMK AO2 T10391050
94889KARB ARB20160326051510803/26/16 05:15:31  5-MIN KARB 261015Z 00000KT 6SM BR CLR M04/M05 A3021 580 92 -1500 000/00 RMK AO2 T10391050
94889KARB ARB20160326052010503/26/16 05:20:31  5-MIN KARB 261020Z 00000KT 7SM CLR M04/M05 A3021 570 92 -1500 000/00 RMK AO2 T10391050
94889KARB ARB20160326052510503/26/16 05:25:31  5-MIN KARB 261025Z 00000KT 7SM CLR M04/M04 A3021 570 96 -1500 000/00 RMK AO2 T10391044
94889KARB ARB20160326053010503/26/16 05:30:31  5-MIN KARB 261030Z 00000KT 7SM CLR M04/M05 A3021 570 92 -1500 000/00 RMK AO2 T10391050
94889KARB ARB20160326053511403/26/16 05:35:31  5-MIN KARB 261035Z 00000KT 7SM FEW014 M04/M05 A3022 570 92 -1500 000/00 RMK AO2 I1000 T10391050
94889KARB ARB20160326054011403/26/16 05:40:31  5-MIN KARB 261040Z 00000KT 7SM SCT014 M04/M06 A3022 570 92 -1600 000/00 RMK AO2 I1000 T10441056
94889KARB ARB20160326054511403/26/16 05:45:31  5-MIN KARB 261045Z 00000KT 7SM BKN014 M05/M06 A3022 560 96 -1700 000/00 RMK AO2 I1000 T10501056
94889KARB ARB20160326055012403/26/16 05:50:31  5-MIN KARB 261050Z 00000KT 6SM BR BKN014 M04/M05 A3022 560 96 -1600 000/00 RMK AO2 SLP242 I1000 T10441050
94889KARB ARB20160326055511103/26/16 05:55:31  5-MIN KARB 261055Z 00000KT 6SM BR BKN015 M04/M05 A3022 560 96 -1600 000/00 RMK AO2 T10441050
94889KARB ARB20160326060011103/26/16 06:00:31  5-MIN KARB 261100Z 00000KT 6SM BR OVC015 M04/M05 A3023 560 96 -1600 000/00 RMK AO2 T10441050
94889KARB ARB20160326060511103/26/16 06:05:31  5-MIN KARB 261105Z 00000KT 6SM BR OVC014 M04/M05 A3023 560 92 -1500 000/00 RMK AO2 T10391050
94889KARB ARB20160326061010803/26/16 06:10:31  5-MIN KARB 261110Z 00000KT 7SM OVC014 M04/M05 A3023 560 96 -1600 000/00 RMK AO2 T10441050
94889KARB ARB20160326061510803/26/16 06:15:31  5-MIN KARB 261115Z 00000KT 7SM OVC014 M03/M04 A3023 560 92 -1500 000/00 RMK AO2 T10331044
94889KARB ARB20160326062010803/26/16 06:20:31  5-MIN KARB 261120Z 14003KT 7SM OVC014 M03/M04 A3023 560 96 -1500 150/03 RMK AO2 T10331039
94889KARB ARB20160326062510803/26/16 06:25:31  5-MIN KARB 261125Z 00000KT 8SM OVC014 M03/M04 A3023 560 92 -1400 000/00 RMK AO2 T10281039
94889KARB ARB20160326063010803/26/16 06:30:31  5-MIN KARB 261130Z 00000KT 8SM OVC014 M03/M04 A3023 550 96 -1500 000/00 RMK AO2 T10331039
94889KARB ARB20160326063510803/26/16 06:35:31  5-MIN KARB 261135Z 00000KT 7SM OVC014 M03/M04 A3023 550 96 -1500 000/00 RMK AO2 T10331039
94889KARB ARB20160326064011103/26/16 06:40:31  5-MIN KARB 261140Z 00000KT 6SM BR OVC014 M03/M04 A3023 550 96 -1500 000/00 RMK AO2 T10331039
94889KARB ARB20160326064511103/26/16 06:45:31  5-MIN KARB 261145Z 00000KT 6SM BR OVC014 M02/M03 A3024 550 92 -1300 000/00 RMK AO2 T10221033
94889KARB ARB20160326065014203/26/16 06:50:31  5-MIN KARB 261150Z 00000KT 6SM BR OVC014 M02/M03 A3024 550 92 -1300 000/00 RMK AO2 SLP248 I6002 T10221033 11017 21050 56003
94889KARB ARB20160326065510803/26/16 06:55:31  5-MIN KARB 261155Z 00000KT 7SM OVC014 M02/M03 A3024 540 92 -1300 000/00 RMK AO2 T10171028
94889KARB ARB20160326070010803/26/16 07:00:31  5-MIN KARB 261200Z 00000KT 7SM OVC013 M02/M03 A3024 540 92 -1300 000/00 RMK AO2 T10171028
94889KARB ARB20160326070511403/26/16 07:05:31  5-MIN KARB 261205Z 00000KT 7SM OVC013 M01/M02 A3025 540 92 -1200 000/00 RMK AO2 I1000 T10111022
94889KARB ARB20160326071011403/26/16 07:10:31  5-MIN KARB 261210Z 00000KT 7SM OVC013 M01/M02 A3025 540 92 -1200 000/00 RMK AO2 I1000 T10111022
94889KARB ARB20160326071511703/26/16 07:15:31  5-MIN KARB 261215Z 04003KT 6SM BR OVC013 M01/M02 A3025 540 92 -1200 040/03 RMK AO2 I1000 T10111022
94889KARB ARB20160326072011703/26/16 07:20:31  5-MIN KARB 261220Z 04003KT 6SM BR OVC014 M01/M02 A3025 540 92 -1100 040/03 RMK AO2 I1000 T10061017
94889KARB ARB20160326072511403/26/16 07:25:31  5-MIN KARB 261225Z 05003KT 7SM OVC014 M01/M02 A3025 530 92 -1100 060/03 RMK AO2 I1000 T10061017
94889KARB ARB20160326073011403/26/16 07:30:31  5-MIN KARB 261230Z 06004KT 7SM OVC014 M01/M02 A3025 530 92 -1100 060/04 RMK AO2 I1000 T10061017
94889KARB ARB20160326073511703/26/16 07:35:31  5-MIN KARB 261235Z 05004KT 6SM BR OVC014 M01/M02 A3025 540 92 -1100 060/04 RMK AO2 I1000 T10061017
94889KARB ARB20160326074011703/26/16 07:40:31  5-MIN KARB 261240Z 06003KT 6SM BR OVC014 M01/M02 A3025 530 92 -1100 070/03 RMK AO2 I1000 T10061017
94889KARB ARB20160326074511703/26/16 07:45:31  5-MIN KARB 261245Z 06004KT 6SM BR OVC014 M01/M02 A3026 530 92 -1200 070/04 RMK AO2 I1000 T10061017
94889KARB ARB20160326075012303/26/16 07:50:31  5-MIN KARB 261250Z 06003KT 6SM BR OVC014 00/M01 A3026 530 92 -1100 070/03 RMK AO2 SLP254 I1000 T00001011
94889KARB ARB20160326075511003/26/16 07:55:31  5-MIN KARB 261255Z 06003KT 6SM BR OVC014 00/M01 A3026 530 92 -1100 060/03 RMK AO2 T00001011
94889KARB ARB20160326080011003/26/16 08:00:31  5-MIN KARB 261300Z 05003KT 6SM BR OVC014 00/M01 A3026 530 92 -1100 060/03 RMK AO2 T00001011
94889KARB ARB20160326080511003/26/16 08:05:31  5-MIN KARB 261305Z 07004KT 6SM BR OVC014 01/M01 A3026 530 89 -1000 070/04 RMK AO2 T00061011
94889KARB ARB20160326081011003/26/16 08:10:31  5-MIN KARB 261310Z 07004KT 6SM BR OVC015 01/M01 A3026 530 89 -1000 070/04 RMK AO2 T00061011
94889KARB ARB20160326081510703/26/16 08:15:31  5-MIN KARB 261315Z 07003KT 7SM OVC015 01/M01 A3026 530 89 -1000 070/03 RMK AO2 T00061011
94889KARB ARB20160326082010703/26/16 08:20:31  5-MIN KARB 261320Z 00000KT 7SM OVC015 01/M01 A3026 530 92 -1000 000/00 RMK AO2 T00061006
94889KARB ARB20160326082510703/26/16 08:25:31  5-MIN KARB 261325Z 00000KT 7SM OVC015 01/M01 A3027 520 89 -1000 000/00 RMK AO2 T00111006
94889KARB ARB20160326083010703/26/16 08:30:31  5-MIN KARB 261330Z 12005KT 8SM OVC015 01/M01 A3026 520 89 -1000 130/05 RMK AO2 T00111006
94889KARB ARB20160326083510703/26/16 08:35:31  5-MIN KARB 261335Z 10006KT 9SM OVC015 01/M01 A3027 520 89 -1000 110/06 RMK AO2 T00111006
94889KARB ARB20160326084010803/26/16 08:40:31  5-MIN KARB 261340Z 12006KT 10SM OVC015 01/M01 A3027 520 85 -1000 130/06 RMK AO2 T00111011
94889KARB ARB20160326084510803/26/16 08:45:31  5-MIN KARB 261345Z 13005KT 10SM OVC015 01/M01 A3027 520 89 -1000 130/05 RMK AO2 T00111006
94889KARB ARB20160326085011503/26/16 08:50:31  5-MIN KARB 261350Z VRB04KT 10SM OVC015 01/M01 A3027 520 89 -1000 VRB/04 RMK AO2 SLP259 T00111006
94889KARB ARB20160326085510803/26/16 08:55:31  5-MIN KARB 261355Z 12005KT 10SM OVC015 01/M01 A3027 520 89 -1000 120/05 RMK AO2 T00111006
94889KARB ARB20160326090010703/26/16 09:00:31  5-MIN KARB 261400Z 13007KT 10SM OVC015 02/M01 A3027 520 85 -900 140/07 RMK AO2 T00171006
94889KARB ARB20160326090510703/26/16 09:05:31  5-MIN KARB 261405Z 13008KT 10SM OVC015 02/M01 A3027 520 85 -900 140/08 RMK AO2 T00171006
94889KARB ARB20160326091010703/26/16 09:10:31  5-MIN KARB 261410Z 12006KT 10SM OVC015 02/M01 A3027 520 82 -900 130/06 RMK AO2 T00171011
94889KARB ARB20160326091510703/26/16 09:15:31  5-MIN KARB 261415Z 11007KT 10SM OVC015 02/M01 A3027 520 82 -900 110/07 RMK AO2 T00171011
94889KARB ARB20160326092010703/26/16 09:20:31  5-MIN KARB 261420Z 12005KT 10SM OVC015 02/M01 A3027 520 85 -900 130/05 RMK AO2 T00171006
94889KARB ARB20160326092510703/26/16 09:25:31  5-MIN KARB 261425Z 15010KT 10SM OVC013 02/M01 A3027 520 85 -900 160/10 RMK AO2 T00171006
94889KARB ARB20160326093010703/26/16 09:30:31  5-MIN KARB 261430Z 14009KT 10SM OVC013 02/M01 A3027 520 82 -900 150/09 RMK AO2 T00171011
94889KARB ARB20160326093510703/26/16 09:35:31  5-MIN KARB 261435Z 13006KT 10SM OVC013 02/M01 A3028 510 82 -900 140/06 RMK AO2 T00171011
94889KARB ARB20160326094010703/26/16 09:40:31  5-MIN KARB 261440Z 14010KT 10SM OVC014 02/M01 A3028 510 82 -900 150/10 RMK AO2 T00171011
94889KARB ARB20160326094510703/26/16 09:45:31  5-MIN KARB 261445Z 15009KT 10SM OVC014 02/M02 A3028 510 78 -900 160/09 RMK AO2 T00171017
94889KARB ARB20160326095012603/26/16 09:50:31  5-MIN KARB 261450Z 14008KT 10SM OVC014 02/M01 A3028 510 82 -900 140/08 RMK AO2 SLP263 I3/// T00171011 53012
94889KARB ARB20160326095510703/26/16 09:55:31  5-MIN KARB 261455Z 12008KT 10SM OVC014 02/M01 A3029 510 78 -800 120/08 RMK AO2 T00221011
94889KARB ARB20160326100010703/26/16 10:00:31  5-MIN KARB 261500Z 12008KT 10SM OVC015 02/M01 A3028 510 78 -800 130/08 RMK AO2 T00221011
94889KARB ARB20160326100510703/26/16 10:05:31  5-MIN KARB 261505Z 13008KT 10SM OVC015 02/M01 A3029 510 78 -800 140/08 RMK AO2 T00221011
94889KARB ARB20160326101010703/26/16 10:10:31  5-MIN KARB 261510Z 13008KT 10SM OVC015 02/M01 A3029 500 78 -800 130/08 RMK AO2 T00221011
94889KARB ARB20160326101510703/26/16 10:15:31  5-MIN KARB 261515Z 14009KT 10SM OVC016 02/M01 A3029 500 78 -800 150/09 RMK AO2 T00221011
94889KARB ARB20160326102010703/26/16 10:20:31  5-MIN KARB 261520Z 15007KT 10SM OVC016 02/M01 A3029 500 78 -800 150/07 RMK AO2 T00221011
94889KARB ARB20160326102510703/26/16 10:25:31  5-MIN KARB 261525Z 13007KT 10SM OVC016 02/M01 A3029 500 78 -800 130/07 RMK AO2 T00221011
94889KARB ARB20160326103010703/26/16 10:30:31  5-MIN KARB 261530Z 13008KT 10SM OVC016 02/M02 A3029 500 75 -800 140/08 RMK AO2 T00221017
94889KARB ARB20160326103510703/26/16 10:35:31  5-MIN KARB 261535Z 13008KT 10SM OVC016 03/M01 A3029 500 75 -800 140/08 RMK AO2 T00281011
94889KARB ARB20160326104010703/26/16 10:40:31  5-MIN KARB 261540Z 14007KT 10SM OVC016 03/M01 A3029 510 75 -800 140/07 RMK AO2 T00281011
94889KARB ARB20160326104510703/26/16 10:45:31  5-MIN KARB 261545Z 14005KT 10SM OVC016 03/M01 A3029 500 75 -800 140/05 RMK AO2 T00281011
94889KARB ARB20160326105013003/26/16 10:50:31  5-MIN KARB 261550Z 12007KT 080V160 10SM OVC016 03/M01 A3029 500 75 -800 120/07 090V170 RMK AO2 SLP264 T00281011
94889KARB ARB20160326105510703/26/16 10:55:31  5-MIN KARB 261555Z 12007KT 10SM OVC016 03/M01 A3028 510 75 -800 130/07 RMK AO2 T00281011
94889KARB ARB20160326110010703/26/16 11:00:31  5-MIN KARB 261600Z 11009KT 10SM OVC016 03/M01 A3028 510 75 -800 120/09 RMK AO2 T00281011
94889KARB ARB20160326110510703/26/16 11:05:31  5-MIN KARB 261605Z 11006KT 10SM OVC016 03/M01 A3028 510 72 -700 120/06 RMK AO2 T00331011
94889KARB ARB20160326111010703/26/16 11:10:31  5-MIN KARB 261610Z 15007KT 10SM OVC017 04/M01 A3028 510 73 -600 160/07 RMK AO2 T00391006
94889KARB ARB20160326111510703/26/16 11:15:31  5-MIN KARB 261615Z VRB06KT 10SM OVC017 04/M01 A3028 510 70 -600 VRB/06 RMK AO2 T00391011
94889KARB ARB20160326112010703/26/16 11:20:31  5-MIN KARB 261620Z 08008KT 10SM OVC017 04/M01 A3028 510 73 -600 090/08 RMK AO2 T00391006
94889KARB ARB20160326112510703/26/16 11:25:31  5-MIN KARB 261625Z 12007KT 10SM OVC018 04/M01 A3027 520 73 -600 130/07 RMK AO2 T00391006
94889KARB ARB20160326113010703/26/16 11:30:31  5-MIN KARB 261630Z 09008KT 10SM OVC018 04/M01 A3027 520 70 -500 100/08 RMK AO2 T00441006
94889KARB ARB20160326113510703/26/16 11:35:31  5-MIN KARB 261635Z 09006KT 10SM BKN018 04/M01 A3027 520 70 -500 100/06 RMK AO2 T00441006
94889KARB ARB20160326114010703/26/16 11:40:31  5-MIN KARB 261640Z 13006KT 10SM BKN018 04/M01 A3027 520 70 -500 140/06 RMK AO2 T00441006
94889KARB ARB20160326114510603/26/16 11:45:31  5-MIN KARB 261645Z 08006KT 10SM BKN018 05/00 A3027 520 70 -500 090/06 RMK AO2 T00500000
94889KARB ARB20160326115011403/26/16 11:50:31  5-MIN KARB 261650Z 10008KT 10SM BKN019 04/M01 A3027 520 70 -500 100/08 RMK AO2 SLP257 T00441006
94889KARB ARB20160326115510703/26/16 11:55:31  5-MIN KARB 261655Z 13005KT 10SM BKN019 05/M01 A3026 530 67 -500 130/05 RMK AO2 T00501006
94889KARB ARB20160326120010703/26/16 12:00:31  5-MIN KARB 261700Z VRB06KT 10SM BKN020 06/M01 A3026 530 65 -400 VRB/06 RMK AO2 T00561006
94889KARB ARB20160326120512303/26/16 12:05:31  5-MIN KARB 261705Z 14007KT 120V180 10SM BKN020 05/M01 A3026 530 67 -500 150/07 130V190 RMK AO2 T00501006
94889KARB ARB20160326121010703/26/16 12:10:31  5-MIN KARB 261710Z 19006KT 10SM SCT021 06/M01 A3026 530 65 -400 190/06 RMK AO2 T00561006
94889KARB ARB20160326121510703/26/16 12:15:31  5-MIN KARB 261715Z VRB05KT 10SM FEW021 06/M01 A3025 530 65 -400 VRB/05 RMK AO2 T00561006
94889KARB ARB20160326122010703/26/16 12:20:31  5-MIN KARB 261720Z 11009KT 10SM FEW021 06/M01 A3025 540 65 -400 110/09 RMK AO2 T00561006
94889KARB ARB20160326122512303/26/16 12:25:31  5-MIN KARB 261725Z 10007KT 060V120 10SM FEW021 06/M01 A3025 540 62 -300 110/07 070V130 RMK AO2 T00611006
94889KARB ARB20160326123010303/26/16 12:30:31  5-MIN KARB 261730Z 09008KT 10SM CLR 07/00 A3025 540 62 -200 100/08 RMK AO2 T00670000
94889KARB ARB20160326123510403/26/16 12:35:31  5-MIN KARB 261735Z 10008KT 10SM CLR 06/M01 A3024 540 62 -300 100/08 RMK AO2 T00611006
94889KARB ARB20160326124011903/26/16 12:40:31  5-MIN KARB 261740Z 10007KT 080V160 10SM CLR 06/00 A3024 540 65 -300 110/07 090V170 RMK AO2 T00610000
94889KARB ARB20160326124510303/26/16 12:45:31  5-MIN KARB 261745Z VRB06KT 10SM CLR 06/00 A3024 550 65 -300 VRB/06 RMK AO2 T00610000
94889KARB ARB20160326125013403/26/16 12:50:31  5-MIN KARB 261750Z 09008KT 10SM CLR 07/00 A3024 550 62 -200 100/08 RMK AO2 SLP248 I6000 T00670000 10067 21022 52015
94889KARB ARB20160326125511903/26/16 12:55:31  5-MIN KARB 261755Z 12008KT 060V140 10SM CLR 07/00 A3024 550 60 -200 130/08 070V150 RMK AO2 T00720000
94889KARB ARB20160326130010303/26/16 13:00:31  5-MIN KARB 261800Z 11008KT 10SM CLR 07/01 A3024 550 62 -200 120/08 RMK AO2 T00720006
94889KARB ARB20160326130510303/26/16 13:05:31  5-MIN KARB 261805Z VRB06KT 10SM CLR 07/00 A3023 550 62 -200 VRB/06 RMK AO2 T00670000
94889KARB ARB20160326131011903/26/16 13:10:31  5-MIN KARB 261810Z 17007KT 120V210 10SM CLR 07/00 A3023 550 60 -200 170/07 130V220 RMK AO2 T00720000
94889KARB ARB20160326131510303/26/16 13:15:31  5-MIN KARB 261815Z 11008KT 10SM CLR 07/00 A3023 560 60 -200 120/08 RMK AO2 T00720000
94889KARB ARB20160326132010303/26/16 13:20:31  5-MIN KARB 261820Z 08006KT 10SM CLR 07/00 A3023 560 60 -200 090/06 RMK AO2 T00720000
94889KARB ARB20160326132510303/26/16 13:25:31  5-MIN KARB 261825Z 07006KT 10SM CLR 07/00 A3023 560 60 -200 080/06 RMK AO2 T00720000
94889KARB ARB20160326133010303/26/16 13:30:31  5-MIN KARB 261830Z 07008KT 10SM CLR 07/00 A3022 560 60 -100 080/08 RMK AO2 T00720000
94889KARB ARB20160326133510303/26/16 13:35:31  5-MIN KARB 261835Z VRB06KT 10SM CLR 08/00 A3022 570 58 -100 VRB/06 RMK AO2 T00780000
94889KARB ARB20160326134010303/26/16 13:40:31  5-MIN KARB 261840Z 12007KT 10SM CLR 08/00 A3022 570 58 -100 130/07 RMK AO2 T00780000
94889KARB ARB20160326134510403/26/16 13:45:31  5-MIN KARB 261845Z 09004KT 10SM CLR 07/M01 A3022 570 57 -100 100/04 RMK AO2 T00721006
94889KARB ARB20160326135011103/26/16 13:50:31  5-MIN KARB 261850Z 10005KT 10SM CLR 08/M01 A3021 570 55 -100 110/05 RMK AO2 SLP238 T00781006
94889KARB ARB20160326135510003/26/16 13:55:31  5-MIN KARB 261855Z 14005KT 10SM CLR 08/00 A3021 570 55 0 140/05 RMK AO2 T00830000
94889KARB ARB20160326140010303/26/16 14:00:31  5-MIN KARB 261900Z 12007KT 10SM CLR 08/00 A3021 580 58 -100 120/07 RMK AO2 T00780000
94889KARB ARB20160326140510403/26/16 14:05:31  5-MIN KARB 261905Z VRB04KT 10SM CLR 08/M01 A3021 580 55 -100 VRB/04 RMK AO2 T00781006
94889KARB ARB20160326141010403/26/16 14:10:31  5-MIN KARB 261910Z 12004KT 10SM CLR 08/M01 A3021 580 55 -100 130/04 RMK AO2 T00781006
94889KARB ARB20160326141510003/26/16 14:15:31  5-MIN KARB 261915Z 11007KT 10SM CLR 08/00 A3020 580 55 0 110/07 RMK AO2 T00830000
94889KARB ARB20160326142009003/26/16 14:20:31  5-MIN KARB 261920Z 10SM CLR 08/00 A3020 580 55 0 M /M RMK AO2 T00830000
94889KARB ARB20160326142510103/26/16 14:25:31  5-MIN KARB 261925Z 11005KT 10SM CLR 08/M01 A3020 580 53 0 120/05 RMK AO2 T00831006
94889KARB ARB20160326143010403/26/16 14:30:31  5-MIN KARB 261930Z 11005KT 10SM CLR 08/M01 A3020 580 53 -100 120/05 RMK AO2 T00781011
94889KARB ARB20160326143510003/26/16 14:35:31  5-MIN KARB 261935Z 08004KT 10SM CLR 08/00 A3020 590 55 0 090/04 RMK AO2 T00830000
94889KARB ARB20160326144010003/26/16 14:40:31  5-MIN KARB 261940Z 10008KT 10SM CLR 09/00 A3019 590 53 0 110/08 RMK AO2 T00890000
94889KARB ARB20160326144510003/26/16 14:45:31  5-MIN KARB 261945Z 08006KT 10SM CLR 09/00 A3019 590 53 0 090/06 RMK AO2 T00890000
94889KARB ARB20160326145010803/26/16 14:50:31  5-MIN KARB 261950Z 11005KT 10SM CLR 08/M01 A3019 590 53 0 120/05 RMK AO2 SLP232 T00831006
94889KARB ARB20160326145510003/26/16 14:55:31  5-MIN KARB 261955Z VRB03KT 10SM CLR 08/00 A3020 590 55 0 VRB/03 RMK AO2 T00830000
94889KARB ARB20160326150009003/26/16 15:00:31  5-MIN KARB 262000Z 10SM CLR 08/00 A3020 590 55 0 M /M RMK AO2 T00830000
94889KARB ARB20160326150510203/26/16 15:05:31  5-MIN KARB 262005Z VRB05KT 10SM CLR 09/01 A3020 580 53 100 VRB/05 RMK AO2 T00940006
94889KARB ARB20160326151010203/26/16 15:10:31  5-MIN KARB 262010Z 10006KT 10SM CLR 09/01 A3020 590 53 100 110/06 RMK AO2 T00940006
94889KARB ARB20160326151510003/26/16 15:15:31  5-MIN KARB 262015Z 09008KT 10SM CLR 09/00 A3020 580 53 0 100/08 RMK AO2 T00890000
94889KARB ARB20160326152011603/26/16 15:20:31  5-MIN KARB 262020Z 10008KT 060V140 10SM CLR 09/00 A3020 580 53 0 110/08 070V150 RMK AO2 T00890000
94889KARB ARB20160326152510003/26/16 15:25:31  5-MIN KARB 262025Z 08008KT 10SM CLR 09/00 A3020 580 53 0 090/08 RMK AO2 T00890000
94889KARB ARB20160326153010003/26/16 15:30:31  5-MIN KARB 262030Z 12008KT 10SM CLR 09/00 A3020 590 53 0 130/08 RMK AO2 T00890000
94889KARB ARB20160326153510003/26/16 15:35:31  5-MIN KARB 262035Z 08006KT 10SM CLR 09/00 A3020 590 53 0 090/06 RMK AO2 T00890000
94889KARB ARB20160326154010103/26/16 15:40:31  5-MIN KARB 262040Z 11005KT 10SM CLR 09/M01 A3020 590 51 0 110/05 RMK AO2 T00891006
94889KARB ARB20160326154510003/26/16 15:45:31  5-MIN KARB 262045Z 08006KT 10SM CLR 09/00 A3019 590 53 0 090/06 RMK AO2 T00890000
94889KARB ARB20160326155011303/26/16 15:50:31  5-MIN KARB 262050Z 11008KT 10SM CLR 09/00 A3019 590 53 0 120/08 RMK AO2 SLP230 T00890000 58015
94889KARB ARB20160326155510003/26/16 15:55:31  5-MIN KARB 262055Z 12006KT 10SM CLR 09/01 A3019 590 56 0 130/06 RMK AO2 T00890006
94889KARB ARB20160326160010003/26/16 16:00:31  5-MIN KARB 262100Z 08007KT 10SM CLR 09/01 A3019 590 56 0 090/07 RMK AO2 T00890006
94889KARB ARB20160326160510203/26/16 16:05:31  5-MIN KARB 262105Z 15006KT 10SM CLR 09/00 A3019 590 51 100 150/06 RMK AO2 T00940000
94889KARB ARB20160326161010003/26/16 16:10:31  5-MIN KARB 262110Z 09004KT 10SM CLR 09/00 A3019 590 53 0 090/04 RMK AO2 T00890000
94889KARB ARB20160326161510003/26/16 16:15:31  5-MIN KARB 262115Z 09008KT 10SM CLR 09/00 A3019 590 53 0 090/08 RMK AO2 T00890000
94889KARB ARB20160326162010003/26/16 16:20:31  5-MIN KARB 262120Z 09008KT 10SM CLR 09/00 A3019 590 53 0 090/08 RMK AO2 T00890000
94889KARB ARB20160326162510003/26/16 16:25:31  5-MIN KARB 262125Z 09008KT 10SM CLR 09/00 A3019 590 53 0 100/08 RMK AO2 T00890000
94889KARB ARB20160326163010003/26/16 16:30:31  5-MIN KARB 262130Z 07005KT 10SM CLR 09/00 A3019 590 53 0 080/05 RMK AO2 T00890000
94889KARB ARB20160326163510003/26/16 16:35:31  5-MIN KARB 262135Z 09006KT 10SM CLR 09/00 A3019 590 53 0 100/06 RMK AO2 T00890000
94889KARB ARB20160326164010003/26/16 16:40:31  5-MIN KARB 262140Z 13006KT 10SM CLR 09/00 A3019 590 53 0 140/06 RMK AO2 T00890000
94889KARB ARB20160326164510003/26/16 16:45:31  5-MIN KARB 262145Z 14005KT 10SM CLR 09/00 A3019 590 53 0 140/05 RMK AO2 T00890000
94889KARB ARB20160326165010703/26/16 16:50:31  5-MIN KARB 262150Z VRB06KT 10SM CLR 09/00 A3020 590 53 0 VRB/06 RMK AO2 SLP232 T00890000
94889KARB ARB20160326165510003/26/16 16:55:31  5-MIN KARB 262155Z 13007KT 10SM CLR 09/00 A3020 590 53 0 140/07 RMK AO2 T00890000
94889KARB ARB20160326170010003/26/16 17:00:31  5-MIN KARB 262200Z 16006KT 10SM CLR 09/00 A3020 590 53 0 170/06 RMK AO2 T00890000
94889KARB ARB20160326170510003/26/16 17:05:31  5-MIN KARB 262205Z 16009KT 10SM CLR 09/01 A3020 580 56 0 160/09 RMK AO2 T00890006
94889KARB ARB20160326171010003/26/16 17:10:31  5-MIN KARB 262210Z 14007KT 10SM CLR 09/01 A3020 580 56 0 150/07 RMK AO2 T00890006
94889KARB ARB20160326171510003/26/16 17:15:31  5-MIN KARB 262215Z 12009KT 10SM CLR 09/01 A3020 590 56 0 130/09 RMK AO2 T00890006
94889KARB ARB20160326172010003/26/16 17:20:31  5-MIN KARB 262220Z VRB05KT 10SM CLR 08/01 A3020 590 58 0 VRB/05 RMK AO2 T00830006
94889KARB ARB20160326172510003/26/16 17:25:31  5-MIN KARB 262225Z 12006KT 10SM CLR 08/01 A3020 590 58 0 130/06 RMK AO2 T00830006
94889KARB ARB20160326173010003/26/16 17:30:31  5-MIN KARB 262230Z 14007KT 10SM CLR 08/01 A3020 590 58 0 150/07 RMK AO2 T00830006
94889KARB ARB20160326173510003/26/16 17:35:31  5-MIN KARB 262235Z 14006KT 10SM CLR 08/01 A3020 580 58 0 150/06 RMK AO2 T00830006
94889KARB ARB20160326174010303/26/16 17:40:31  5-MIN KARB 262240Z 14006KT 10SM CLR 08/01 A3020 580 62 -100 150/06 RMK AO2 T00780011
94889KARB ARB20160326174510303/26/16 17:45:31  5-MIN KARB 262245Z 15007KT 10SM CLR 08/01 A3020 580 62 -100 160/07 RMK AO2 T00780011
94889KARB ARB20160326175011003/26/16 17:50:31  5-MIN KARB 262250Z 13005KT 10SM CLR 08/01 A3020 590 62 -100 140/05 RMK AO2 SLP233 T00780011
94889KARB ARB20160326175510303/26/16 17:55:31  5-MIN KARB 262255Z 15008KT 10SM CLR 08/01 A3020 590 62 -100 150/08 RMK AO2 T00780011
94889KARB ARB20160326180010303/26/16 18:00:31  5-MIN KARB 262300Z 15007KT 10SM CLR 07/01 A3020 590 62 -100 150/07 RMK AO2 T00720006
94889KARB ARB20160326180510303/26/16 18:05:31  5-MIN KARB 262305Z 12007KT 10SM CLR 07/01 A3020 580 65 -100 130/07 RMK AO2 T00720011
94889KARB ARB20160326181010303/26/16 18:10:31  5-MIN KARB 262310Z 12006KT 10SM CLR 07/01 A3020 580 67 -200 130/06 RMK AO2 T00670011
94889KARB ARB20160326181510303/26/16 18:15:31  5-MIN KARB 262315Z 14007KT 10SM CLR 07/01 A3020 580 67 -200 150/07 RMK AO2 T00670011
94889KARB ARB20160326182010303/26/16 18:20:31  5-MIN KARB 262320Z 14006KT 10SM CLR 06/01 A3020 590 67 -300 150/06 RMK AO2 T00610006
94889KARB ARB20160326182510303/26/16 18:25:31  5-MIN KARB 262325Z 13007KT 10SM CLR 06/01 A3019 590 70 -300 140/07 RMK AO2 T00560006
94889KARB ARB20160326183010303/26/16 18:30:31  5-MIN KARB 262330Z 13006KT 10SM CLR 06/01 A3019 590 70 -300 140/06 RMK AO2 T00560006
94889KARB ARB20160326183510303/26/16 18:35:31  5-MIN KARB 262335Z 13006KT 10SM CLR 05/01 A3019 590 73 -400 140/06 RMK AO2 T00500006
94889KARB ARB20160326184010303/26/16 18:40:31  5-MIN KARB 262340Z 13005KT 10SM CLR 05/01 A3020 590 73 -400 140/05 RMK AO2 T00500006
94889KARB ARB20160326184510303/26/16 18:45:31  5-MIN KARB 262345Z 13007KT 10SM CLR 05/01 A3020 580 73 -400 140/07 RMK AO2 T00500006
94889KARB ARB20160326185012803/26/16 18:50:31  5-MIN KARB 262350Z 13004KT 10SM CLR 05/01 A3021 580 73 -400 140/04 RMK AO2 SLP237 T00500006 10100 20050 56017
94889KARB ARB20160326185510303/26/16 18:55:31  5-MIN KARB 262355Z 15008KT 10SM CLR 04/01 A3021 580 76 -500 160/08 RMK AO2 T00440006
94889KARB ARB20160326190010303/26/16 19:00:31  5-MIN KARB 270000Z 15008KT 10SM CLR 04/01 A3021 580 76 -500 160/08 RMK AO2 T00440006
94889KARB ARB20160326190510303/26/16 19:05:31  5-MIN KARB 270005Z 14006KT 10SM CLR 04/01 A3021 580 76 -500 150/06 RMK AO2 T00440006
94889KARB ARB20160326191010303/26/16 19:10:31  5-MIN KARB 270010Z 14005KT 10SM CLR 04/01 A3020 580 79 -500 150/05 RMK AO2 T00390006
94889KARB ARB20160326191510303/26/16 19:15:31  5-MIN KARB 270015Z 14008KT 10SM CLR 04/01 A3020 580 79 -500 150/08 RMK AO2 T00390006
94889KARB ARB20160326192010303/26/16 19:20:31  5-MIN KARB 270020Z 15006KT 10SM CLR 04/01 A3021 580 79 -500 160/06 RMK AO2 T00390006
94889KARB ARB20160326192510303/26/16 19:25:31  5-MIN KARB 270025Z 14007KT 10SM CLR 04/01 A3021 580 79 -500 150/07 RMK AO2 T00390006
94889KARB ARB20160326193010303/26/16 19:30:31  5-MIN KARB 270030Z 15005KT 10SM CLR 03/01 A3021 570 82 -600 160/05 RMK AO2 T00330006
94889KARB ARB20160326193510303/26/16 19:35:31  5-MIN KARB 270035Z 16004KT 10SM CLR 03/01 A3021 570 82 -600 170/04 RMK AO2 T00330006
94889KARB ARB20160326194010303/26/16 19:40:31  5-MIN KARB 270040Z 16004KT 10SM CLR 03/01 A3021 570 85 -700 170/04 RMK AO2 T00280006
94889KARB ARB20160326194510303/26/16 19:45:31  5-MIN KARB 270045Z 14006KT 10SM CLR 03/00 A3021 580 82 -700 150/06 RMK AO2 T00280000
94889KARB ARB20160326195011003/26/16 19:50:31  5-MIN KARB 270050Z 15006KT 10SM CLR 03/00 A3020 580 82 -700 150/06 RMK AO2 SLP236 T00280000
94889KARB ARB20160326195510303/26/16 19:55:31  5-MIN KARB 270055Z 14005KT 10SM CLR 03/00 A3020 580 82 -700 150/05 RMK AO2 T00280000
94889KARB ARB20160326200010303/26/16 20:00:31  5-MIN KARB 270100Z 16005KT 10SM CLR 02/00 A3021 580 85 -700 160/05 RMK AO2 T00220000
94889KARB ARB20160326200510303/26/16 20:05:31  5-MIN KARB 270105Z 17006KT 10SM CLR 02/00 A3021 570 85 -800 180/06 RMK AO2 T00220000
94889KARB ARB20160326201010303/26/16 20:10:31  5-MIN KARB 270110Z 17004KT 10SM CLR 02/00 A3021 570 85 -800 180/04 RMK AO2 T00220000
94889KARB ARB20160326201510303/26/16 20:15:31  5-MIN KARB 270115Z 17004KT 10SM CLR 02/00 A3021 570 85 -700 170/04 RMK AO2 T00220000
94889KARB ARB20160326202010303/26/16 20:20:31  5-MIN KARB 270120Z 16005KT 10SM CLR 02/00 A3021 580 89 -800 160/05 RMK AO2 T00170000
94889KARB ARB20160326202510303/26/16 20:25:31  5-MIN KARB 270125Z 14003KT 10SM CLR 02/00 A3020 580 89 -800 150/03 RMK AO2 T00170000
94889KARB ARB20160326203010303/26/16 20:30:31  5-MIN KARB 270130Z 00000KT 10SM CLR 02/00 A3021 580 89 -800 000/00 RMK AO2 T00170000
94889KARB ARB20160326203510303/26/16 20:35:31  5-MIN KARB 270135Z 15003KT 10SM CLR 02/00 A3021 570 89 -800 160/03 RMK AO2 T00170000
94889KARB ARB20160326204010303/26/16 20:40:31  5-MIN KARB 270140Z 00000KT 10SM CLR 02/00 A3021 580 89 -800 000/00 RMK AO2 T00170000
94889KARB ARB20160326204510403/26/16 20:45:31  5-MIN KARB 270145Z 13003KT 10SM CLR 02/M01 A3020 580 85 -800 130/03 RMK AO2 T00171006
94889KARB ARB20160326205011003/26/16 20:50:31  5-MIN KARB 270150Z 12004KT 10SM CLR 02/00 A3020 580 89 -800 120/04 RMK AO2 SLP234 T00170000
94889KARB ARB20160326205510403/26/16 20:55:31  5-MIN KARB 270155Z 11004KT 10SM CLR 02/M01 A3019 590 85 -800 110/04 RMK AO2 T00171006
94889KARB ARB20160326210010403/26/16 21:00:31  5-MIN KARB 270200Z 09003KT 10SM CLR 02/M01 A3019 590 85 -800 100/03 RMK AO2 T00171006
94889KARB ARB20160326210510403/26/16 21:05:31  5-MIN KARB 270205Z 11003KT 10SM CLR 01/M01 A3019 590 89 -900 120/03 RMK AO2 T00111006
94889KARB ARB20160326211010403/26/16 21:10:31  5-MIN KARB 270210Z 13003KT 10SM CLR 01/M01 A3019 590 89 -900 130/03 RMK AO2 T00111006
94889KARB ARB20160326211510403/26/16 21:15:31  5-MIN KARB 270215Z 13003KT 10SM CLR 01/M01 A3019 590 89 -900 140/03 RMK AO2 T00111006
94889KARB ARB20160326212010403/26/16 21:20:31  5-MIN KARB 270220Z 14004KT 10SM CLR 01/M01 A3020 590 85 -900 150/04 RMK AO2 T00111011
94889KARB ARB20160326212510403/26/16 21:25:31  5-MIN KARB 270225Z 12003KT 10SM CLR 01/M01 A3019 590 89 -900 130/03 RMK AO2 T00061011
94889KARB ARB20160326213010403/26/16 21:30:31  5-MIN KARB 270230Z 13004KT 10SM CLR 01/M01 A3019 590 85 -900 130/04 RMK AO2 T00111011
94889KARB ARB20160326213510403/26/16 21:35:31  5-MIN KARB 270235Z 00000KT 10SM CLR 01/M01 A3019 590 85 -900 000/00 RMK AO2 T00111011
94889KARB ARB20160326214010403/26/16 21:40:31  5-MIN KARB 270240Z 00000KT 10SM CLR 01/M01 A3019 590 89 -900 000/00 RMK AO2 T00061011
94889KARB ARB20160326214510403/26/16 21:45:31  5-MIN KARB 270245Z 00000KT 10SM CLR 01/M01 A3020 590 89 -900 000/00 RMK AO2 T00061011
94889KARB ARB20160326215011703/26/16 21:50:31  5-MIN KARB 270250Z 00000KT 10SM CLR 01/M01 A3019 590 85 -900 000/00 RMK AO2 SLP233 T00111011 53006
94889KARB ARB20160326215510403/26/16 21:55:31  5-MIN KARB 270255Z 00000KT 10SM CLR 01/M01 A3019 590 85 -900 000/00 RMK AO2 T00111011
94889KARB ARB20160326220010503/26/16 22:00:31  5-MIN KARB 270300Z 00000KT 10SM CLR 00/M01 A3019 590 92 -1000 000/00 RMK AO2 T00001011
94889KARB ARB20160326220510403/26/16 22:05:31  5-MIN KARB 270305Z 00000KT 10SM CLR 01/M01 A3019 590 89 -900 000/00 RMK AO2 T00061011
94889KARB ARB20160326221010503/26/16 22:10:31  5-MIN KARB 270310Z 00000KT 10SM CLR 00/M01 A3019 600 92 -1000 000/00 RMK AO2 T00001011
94889KARB ARB20160326221510403/26/16 22:15:31  5-MIN KARB 270315Z 00000KT 10SM CLR 01/M01 A3019 590 89 -900 000/00 RMK AO2 T00061011
94889KARB ARB20160326222010403/26/16 22:20:31  5-MIN KARB 270320Z 00000KT 10SM CLR 01/M01 A3019 590 89 -900 000/00 RMK AO2 T00061011
94889KARB ARB20160326222510503/26/16 22:25:31  5-MIN KARB 270325Z 00000KT 10SM CLR 00/M01 A3019 590 92 -1000 000/00 RMK AO2 T00001011
94889KARB ARB20160326223010603/26/16 22:30:31  5-MIN KARB 270330Z 00000KT 10SM CLR M01/M02 A3018 600 92 -1100 000/00 RMK AO2 T10061017
94889KARB ARB20160326223510503/26/16 22:35:31  5-MIN KARB 270335Z 00000KT 10SM CLR 00/M02 A3019 600 88 -1000 000/00 RMK AO2 T00001017
94889KARB ARB20160326224010603/26/16 22:40:31  5-MIN KARB 270340Z 00000KT 10SM CLR M01/M02 A3018 600 92 -1100 000/00 RMK AO2 T10061017
94889KARB ARB20160326224510603/26/16 22:45:31  5-MIN KARB 270345Z 00000KT 10SM CLR M01/M02 A3018 600 92 -1100 000/00 RMK AO2 T10061017
94889KARB ARB20160326225011203/26/16 22:50:31  5-MIN KARB 270350Z 00000KT 10SM CLR 00/M02 A3019 600 88 -1000 000/00 RMK AO2 SLP230 T00001017
94889KARB ARB20160326225510503/26/16 22:55:31  5-MIN KARB 270355Z 00000KT 10SM CLR 00/M02 A3018 600 88 -1000 000/00 RMK AO2 T00001017
94889KARB ARB20160326230010503/26/16 23:00:31  5-MIN KARB 270400Z 10003KT 10SM CLR 00/M01 A3018 600 92 -1000 110/03 RMK AO2 T00001011
94889KARB ARB20160326230510503/26/16 23:05:31  5-MIN KARB 270405Z 11003KT 10SM CLR 00/M01 A3018 610 92 -1000 120/03 RMK AO2 T00001011
94889KARB ARB20160326231010603/26/16 23:10:31  5-MIN KARB 270410Z 00000KT 10SM CLR M01/M01 A3018 610 96 -1100 000/00 RMK AO2 T10061011
94889KARB ARB20160326231510603/26/16 23:15:31  5-MIN KARB 270415Z 00000KT 10SM CLR M01/M01 A3018 600 96 -1100 000/00 RMK AO2 T10061011
94889KARB ARB20160326232010503/26/16 23:20:31  5-MIN KARB 270420Z 00000KT 10SM CLR 00/M01 A3018 600 92 -1000 000/00 RMK AO2 T00001011
94889KARB ARB20160326232510403/26/16 23:25:31  5-MIN KARB 270425Z 09003KT 10SM CLR 01/M01 A3018 600 92 -900 100/03 RMK AO2 T00061006
94889KARB ARB20160326233010403/26/16 23:30:31  5-MIN KARB 270430Z 09003KT 10SM CLR 01/M01 A3018 600 92 -900 100/03 RMK AO2 T00061006
94889KARB ARB20160326233510403/26/16 23:35:31  5-MIN KARB 270435Z 10003KT 10SM CLR 01/M01 A3018 600 92 -900 110/03 RMK AO2 T00061006
94889KARB ARB20160326234011103/26/16 23:40:31  5-MIN KARB 270440Z 09003KT 10SM CLR 00/M01 A3018 600 92 -1000 100/03 RMK AO2 I1000 T00001011
94889KARB ARB20160326234511103/26/16 23:45:31  5-MIN KARB 270445Z 00000KT 10SM CLR 00/M01 A3018 600 96 -1000 000/00 RMK AO2 I1000 T00001006
94889KARB ARB20160326235012803/26/16 23:50:31  5-MIN KARB 270450Z 09003KT 10SM CLR 00/M01 A3018 600 92 -1000 100/03 RMK AO2 SLP227 I1000 T00001011 401001050
94889KARB ARB20160326235510503/26/16 23:55:31  5-MIN KARB 270455Z 09003KT 10SM CLR 00/M01 A3018 600 92 -1000 100/03 RMK AO2 T00001011
94889KARB ARB20160327000010503/27/16 00:00:31  5-MIN KARB 270500Z 00000KT 10SM CLR 00/M01 A3018 600 92 -1000 000/00 RMK AO2 T00001011
94889KARB ARB20160327000510403/27/16 00:05:31  5-MIN KARB 270505Z 00000KT 9SM CLR 00/M01 A3018 600 92 -1000 000/00 RMK AO2 T00001011
94889KARB ARB20160327001010403/27/16 00:10:31  5-MIN KARB 270510Z 00000KT 9SM CLR 00/M01 A3018 600 92 -1000 000/00 RMK AO2 T00001011
94889KARB ARB20160327001510503/27/16 00:15:31  5-MIN KARB 270515Z 10003KT 8SM CLR M01/M02 A3018 600 92 -1100 110/03 RMK AO2 T10061017
94889KARB ARB20160327002010503/27/16 00:20:31  5-MIN KARB 270520Z 11003KT 8SM CLR M01/M02 A3018 600 92 -1100 120/03 RMK AO2 T10061017
94889KARB ARB20160327002511103/27/16 00:25:31  5-MIN KARB 270525Z 00000KT 9SM CLR M01/M02 A3018 600 92 -1100 000/00 RMK AO2 I1000 T10061017
94889KARB ARB20160327003011103/27/16 00:30:31  5-MIN KARB 270530Z 00000KT 9SM CLR M01/M01 A3018 610 96 -1100 000/00 RMK AO2 I1000 T10061011
94889KARB ARB20160327003511003/27/16 00:35:31  5-MIN KARB 270535Z 10003KT 8SM CLR 00/M01 A3017 610 92 -1000 110/03 RMK AO2 I1000 T00001011
94889KARB ARB20160327004011003/27/16 00:40:31  5-MIN KARB 270540Z 00000KT 8SM CLR 00/M01 A3017 610 92 -1000 000/00 RMK AO2 I1000 T00001011
94889KARB ARB20160327004511003/27/16 00:45:31  5-MIN KARB 270545Z 06003KT 8SM CLR 00/M01 A3017 610 92 -1000 070/03 RMK AO2 I1000 T00001011
94889KARB ARB20160327005014103/27/16 00:50:31  5-MIN KARB 270550Z 07003KT 7SM CLR 00/M01 A3017 610 92 -1000 080/03 RMK AO2 SLP224 I1000 I6000 T00001011 10044 21011 56005
94889KARB ARB20160327005510403/27/16 00:55:31  5-MIN KARB 270555Z 00000KT 7SM CLR 00/M01 A3018 600 96 -1000 000/00 RMK AO2 T00001006
94889KARB ARB20160327010010403/27/16 01:00:31  5-MIN KARB 270600Z 09003KT 7SM CLR 00/M01 A3018 600 96 -1000 100/03 RMK AO2 T00001006
94889KARB ARB20160327010510403/27/16 01:05:31  5-MIN KARB 270605Z 08003KT 8SM CLR 00/M01 A3018 610 96 -1000 080/03 RMK AO2 T00001006
94889KARB ARB20160327011010403/27/16 01:10:31  5-MIN KARB 270610Z 08003KT 8SM CLR 00/M01 A3017 610 92 -1000 080/03 RMK AO2 T00001011
94889KARB ARB20160327011510303/27/16 01:15:31  5-MIN KARB 270615Z 09004KT 9SM CLR 01/M01 A3018 600 89 -900 100/04 RMK AO2 T00061011
94889KARB ARB20160327012010403/27/16 01:20:31  5-MIN KARB 270620Z 07003KT 10SM CLR 01/M01 A3018 600 89 -900 080/03 RMK AO2 T00061011
94889KARB ARB20160327012510403/27/16 01:25:31  5-MIN KARB 270625Z 08004KT 10SM CLR 01/M01 A3018 610 89 -900 090/04 RMK AO2 T00061011
94889KARB ARB20160327013010403/27/16 01:30:31  5-MIN KARB 270630Z 10004KT 10SM CLR 01/M01 A3017 610 89 -900 110/04 RMK AO2 T00061011
94889KARB ARB20160327013510403/27/16 01:35:31  5-MIN KARB 270635Z 09004KT 10SM CLR 01/M01 A3017 610 89 -900 100/04 RMK AO2 T00061011
94889KARB ARB20160327014010403/27/16 01:40:31  5-MIN KARB 270640Z 09003KT 10SM CLR 01/M01 A3018 600 89 -900 100/03 RMK AO2 T00061011
94889KARB ARB20160327014510403/27/16 01:45:31  5-MIN KARB 270645Z 09003KT 10SM CLR 01/M01 A3018 600 89 -900 100/03 RMK AO2 T00061011
94889KARB ARB20160327015011103/27/16 01:50:31  5-MIN KARB 270650Z 10003KT 10SM CLR 01/M02 A3018 610 85 -900 110/03 RMK AO2 SLP225 T00061017
94889KARB ARB20160327015510403/27/16 01:55:31  5-MIN KARB 270655Z 10005KT 10SM CLR 01/M02 A3018 610 85 -900 110/05 RMK AO2 T00061017
94889KARB ARB20160327020010403/27/16 02:00:31  5-MIN KARB 270700Z 11003KT 10SM CLR 01/M02 A3018 600 85 -900 110/03 RMK AO2 T00061017
94889KARB ARB20160327020510403/27/16 02:05:31  5-MIN KARB 270705Z 12003KT 10SM CLR 01/M02 A3018 600 85 -900 130/03 RMK AO2 T00061017
94889KARB ARB20160327021010503/27/16 02:10:31  5-MIN KARB 270710Z 13005KT 10SM CLR 00/M02 A3018 600 88 -1000 130/05 RMK AO2 T00001017
94889KARB ARB20160327021510503/27/16 02:15:31  5-MIN KARB 270715Z 12003KT 10SM CLR 00/M02 A3018 600 88 -1000 130/03 RMK AO2 T00001017
94889KARB ARB20160327022010503/27/16 02:20:31  5-MIN KARB 270720Z 00000KT 10SM CLR 00/M02 A3018 600 88 -1000 000/00 RMK AO2 T00001017
94889KARB ARB20160327022510503/27/16 02:25:31  5-MIN KARB 270725Z 00000KT 10SM CLR 00/M02 A3018 600 88 -1000 000/00 RMK AO2 T00001017
94889KARB ARB20160327023010503/27/16 02:30:31  5-MIN KARB 270730Z 00000KT 10SM CLR 00/M02 A3018 600 85 -1000 000/00 RMK AO2 T00001022
94889KARB ARB20160327023510503/27/16 02:35:31  5-MIN KARB 270735Z 11003KT 10SM CLR 00/M02 A3018 600 88 -1000 120/03 RMK AO2 T00001017
94889KARB ARB20160327024010403/27/16 02:40:31  5-MIN KARB 270740Z 11003KT 10SM CLR 01/M02 A3018 600 85 -900 120/03 RMK AO2 T00061017
94889KARB ARB20160327024510403/27/16 02:45:31  5-MIN KARB 270745Z 00000KT 10SM CLR 01/M02 A3017 610 85 -900 000/00 RMK AO2 T00061017
94889KARB ARB20160327025011203/27/16 02:50:31  5-MIN KARB 270750Z 08003KT 10SM CLR 00/M02 A3017 620 88 -1000 090/03 RMK AO2 SLP221 T00001017
94889KARB ARB20160327025510603/27/16 02:55:31  5-MIN KARB 270755Z 08003KT 10SM CLR M01/M02 A3016 620 92 -1000 080/03 RMK AO2 T10061017
94889KARB ARB20160327030010603/27/16 03:00:31  5-MIN KARB 270800Z 08003KT 10SM CLR M01/M02 A3016 620 88 -1000 080/03 RMK AO2 T10061022
94889KARB ARB20160327030510603/27/16 03:05:31  5-MIN KARB 270805Z 08003KT 10SM CLR M01/M02 A3016 620 92 -1000 090/03 RMK AO2 T10061017
94889KARB ARB20160327031010503/27/16 03:10:31  5-MIN KARB 270810Z 00000KT 10SM CLR 00/M02 A3016 620 88 -1000 000/00 RMK AO2 T00001017
94889KARB ARB20160327031510503/27/16 03:15:31  5-MIN KARB 270815Z 00000KT 10SM CLR 00/M02 A3016 620 88 -1000 000/00 RMK AO2 T00001017
94889KARB ARB20160327032010503/27/16 03:20:31  5-MIN KARB 270820Z 00000KT 10SM CLR 00/M02 A3016 620 88 -1000 000/00 RMK AO2 T00001017
94889KARB ARB20160327032510503/27/16 03:25:31  5-MIN KARB 270825Z 00000KT 10SM CLR 00/M02 A3016 620 88 -1000 000/00 RMK AO2 T00001017
94889KARB ARB20160327033010503/27/16 03:30:31  5-MIN KARB 270830Z 00000KT 10SM CLR 00/M02 A3016 620 88 -1000 000/00 RMK AO2 T00001017
94889KARB ARB20160327033510603/27/16 03:35:31  5-MIN KARB 270835Z 00000KT 10SM CLR M01/M02 A3016 620 92 -1000 000/00 RMK AO2 T10061017
94889KARB ARB20160327034010603/27/16 03:40:31  5-MIN KARB 270840Z 03003KT 10SM CLR M01/M02 A3015 630 92 -1000 040/03 RMK AO2 T10061017
94889KARB ARB20160327034510603/27/16 03:45:31  5-MIN KARB 270845Z 03003KT 10SM CLR M01/M02 A3015 630 92 -1000 030/03 RMK AO2 T10061017
94889KARB ARB20160327035011903/27/16 03:50:31  5-MIN KARB 270850Z 02003KT 10SM CLR M01/M02 A3015 630 96 -1100 030/03 RMK AO2 SLP217 T10111017 56005
94889KARB ARB20160327035510503/27/16 03:55:31  5-MIN KARB 270855Z 03003KT 9SM CLR M01/M02 A3015 630 92 -1000 040/03 RMK AO2 T10061017
94889KARB ARB20160327040010503/27/16 04:00:31  5-MIN KARB 270900Z 03003KT 9SM CLR M01/M02 A3015 630 92 -1000 040/03 RMK AO2 T10061017
94889KARB ARB20160327040510503/27/16 04:05:31  5-MIN KARB 270905Z 04003KT 9SM CLR M01/M02 A3015 630 92 -1000 040/03 RMK AO2 T10061017
94889KARB ARB20160327041010503/27/16 04:10:31  5-MIN KARB 270910Z 04004KT 9SM CLR M01/M02 A3014 640 92 -1000 050/04 RMK AO2 T10061017
94889KARB ARB20160327041510503/27/16 04:15:31  5-MIN KARB 270915Z 05004KT 8SM CLR M01/M02 A3014 640 92 -1100 050/04 RMK AO2 T10111022
94889KARB ARB20160327042010503/27/16 04:20:31  5-MIN KARB 270920Z 04004KT 8SM CLR M01/M02 A3014 640 92 -1100 050/04 RMK AO2 T10111022
94889KARB ARB20160327042510503/27/16 04:25:31  5-MIN KARB 270925Z 05004KT 8SM CLR M01/M02 A3014 640 92 -1100 050/04 RMK AO2 T10111022
94889KARB ARB20160327043010503/27/16 04:30:31  5-MIN KARB 270930Z 04003KT 8SM CLR M01/M02 A3013 640 92 -1100 050/03 RMK AO2 T10111022
94889KARB ARB20160327043510503/27/16 04:35:31  5-MIN KARB 270935Z 04004KT 8SM CLR M01/M02 A3013 640 96 -1100 050/04 RMK AO2 T10111017
94889KARB ARB20160327044010503/27/16 04:40:31  5-MIN KARB 270940Z 07003KT 8SM CLR M01/M02 A3013 640 92 -1000 070/03 RMK AO2 T10061017
94889KARB ARB20160327044510503/27/16 04:45:31  5-MIN KARB 270945Z 06003KT 8SM CLR M01/M02 A3013 650 92 -1000 070/03 RMK AO2 T10061017
94889KARB ARB20160327045011203/27/16 04:50:31  5-MIN KARB 270950Z 00000KT 8SM CLR M01/M02 A3013 650 92 -1000 000/00 RMK AO2 SLP210 T10061017
94889KARB ARB20160327045510503/27/16 04:55:31  5-MIN KARB 270955Z 00000KT 8SM CLR M01/M02 A3013 650 92 -1000 000/00 RMK AO2 T10061017
94889KARB ARB20160327050010503/27/16 05:00:31  5-MIN KARB 271000Z 00000KT 8SM CLR M01/M02 A3013 650 92 -1000 000/00 RMK AO2 T10061017
94889KARB ARB20160327050510503/27/16 05:05:31  5-MIN KARB 271005Z 00000KT 8SM CLR M01/M02 A3013 650 96 -1100 000/00 RMK AO2 T10111017
94889KARB ARB20160327051010503/27/16 05:10:31  5-MIN KARB 271010Z 05003KT 8SM CLR M01/M02 A3013 650 92 -1000 060/03 RMK AO2 T10061017
94889KARB ARB20160327051510503/27/16 05:15:31  5-MIN KARB 271015Z 06003KT 7SM CLR M01/M02 A3013 650 92 -1000 060/03 RMK AO2 T10061017
94889KARB ARB20160327052010503/27/16 05:20:31  5-MIN KARB 271020Z 05003KT 8SM CLR M01/M02 A3013 650 92 -1000 060/03 RMK AO2 T10061017
94889KARB ARB20160327052510503/27/16 05:25:31  5-MIN KARB 271025Z 05004KT 7SM CLR M01/M02 A3013 650 96 -1100 060/04 RMK AO2 T10111017
94889KARB ARB20160327053010503/27/16 05:30:31  5-MIN KARB 271030Z 05004KT 7SM CLR M01/M02 A3013 650 92 -1100 060/04 RMK AO2 T10111022
94889KARB ARB20160327053510503/27/16 05:35:31  5-MIN KARB 271035Z 06004KT 7SM CLR M01/M02 A3012 650 92 -1100 060/04 RMK AO2 T10111022
94889KARB ARB20160327054010503/27/16 05:40:31  5-MIN KARB 271040Z 06003KT 7SM CLR M01/M02 A3012 650 92 -1100 070/03 RMK AO2 T10111022
94889KARB ARB20160327054510503/27/16 05:45:31  5-MIN KARB 271045Z 07003KT 8SM CLR M01/M02 A3012 650 92 -1100 070/03 RMK AO2 T10111022
94889KARB ARB20160327055011203/27/16 05:50:31  5-MIN KARB 271050Z 07003KT 8SM CLR M01/M02 A3012 650 88 -1000 080/03 RMK AO2 SLP207 T10061022
94889KARB ARB20160327055510503/27/16 05:55:31  5-MIN KARB 271055Z 08003KT 8SM CLR M01/M02 A3012 650 88 -1000 080/03 RMK AO2 T10061022
94889KARB ARB20160327060010503/27/16 06:00:31  5-MIN KARB 271100Z 07003KT 8SM CLR M01/M02 A3012 650 92 -1000 080/03 RMK AO2 T10061017
94889KARB ARB20160327060510503/27/16 06:05:31  5-MIN KARB 271105Z 07003KT 8SM CLR M01/M02 A3013 650 92 -1000 070/03 RMK AO2 T10061017
94889KARB ARB20160327061010503/27/16 06:10:31  5-MIN KARB 271110Z 07003KT 8SM CLR M01/M02 A3012 650 92 -1000 080/03 RMK AO2 T10061017
94889KARB ARB20160327061510503/27/16 06:15:31  5-MIN KARB 271115Z 07004KT 8SM CLR M01/M02 A3012 650 92 -1000 080/04 RMK AO2 T10061017
94889KARB ARB20160327062010503/27/16 06:20:31  5-MIN KARB 271120Z 06003KT 7SM CLR M01/M02 A3012 650 92 -1000 070/03 RMK AO2 T10061017
94889KARB ARB20160327062510503/27/16 06:25:31  5-MIN KARB 271125Z 06003KT 7SM CLR M01/M02 A3012 660 92 -1000 070/03 RMK AO2 T10061017
94889KARB ARB20160327063010803/27/16 06:30:31  5-MIN KARB 271130Z 00000KT 6SM BR CLR M01/M02 A3012 660 92 -1000 000/00 RMK AO2 T10061017
94889KARB ARB20160327063510803/27/16 06:35:31  5-MIN KARB 271135Z 00000KT 6SM BR CLR M01/M02 A3012 660 92 -1000 000/00 RMK AO2 T10061017
94889KARB ARB20160327064010803/27/16 06:40:31  5-MIN KARB 271140Z 00000KT 6SM BR CLR M01/M02 A3012 660 92 -1000 000/00 RMK AO2 T10061017
94889KARB ARB20160327064510803/27/16 06:45:31  5-MIN KARB 271145Z 07003KT 6SM BR CLR M01/M02 A3012 660 92 -1000 080/03 RMK AO2 T10061017
94889KARB ARB20160327065013303/27/16 06:50:31  5-MIN KARB 271150Z 07004KT 6SM BR CLR M01/M02 A3011 660 92 -1000 080/04 RMK AO2 SLP204 T10061017 10006 21011 58008
94889KARB ARB20160327065510803/27/16 06:55:31  5-MIN KARB 271155Z 08003KT 6SM BR CLR M01/M02 A3011 670 92 -1000 080/03 RMK AO2 T10061017
94889KARB ARB20160327070010803/27/16 07:00:31  5-MIN KARB 271200Z 08003KT 6SM BR CLR M01/M02 A3011 670 92 -1000 080/03 RMK AO2 T10061017
94889KARB ARB20160327070510603/27/16 07:05:31  5-MIN KARB 271205Z 07003KT 6SM BR CLR 00/M01 A3011 670 92 -900 080/03 RMK AO2 T00001011
94889KARB ARB20160327071010603/27/16 07:10:31  5-MIN KARB 271210Z 08004KT 6SM BR CLR 01/M01 A3011 670 89 -800 090/04 RMK AO2 T00061011
94889KARB ARB20160327071510603/27/16 07:15:31  5-MIN KARB 271215Z 08004KT 6SM BR CLR 01/M01 A3010 670 92 -800 080/04 RMK AO2 T00061006
94889KARB ARB20160327072010603/27/16 07:20:31  5-MIN KARB 271220Z 07004KT 6SM BR CLR 01/M01 A3010 670 89 -800 080/04 RMK AO2 T00111006
94889KARB ARB20160327072510603/27/16 07:25:31  5-MIN KARB 271225Z 08004KT 6SM BR CLR 01/M01 A3010 680 89 -800 090/04 RMK AO2 T00111006
94889KARB ARB20160327073010603/27/16 07:30:31  5-MIN KARB 271230Z 08005KT 6SM BR CLR 02/M01 A3010 680 85 -700 090/05 RMK AO2 T00171006
94889KARB ARB20160327073510503/27/16 07:35:31  5-MIN KARB 271235Z 07005KT 6SM BR CLR 02/00 A3009 680 89 -700 080/05 RMK AO2 T00170000
94889KARB ARB20160327074010503/27/16 07:40:31  5-MIN KARB 271240Z 08004KT 6SM BR CLR 02/00 A3009 680 89 -700 090/04 RMK AO2 T00170000
94889KARB ARB20160327074510503/27/16 07:45:31  5-MIN KARB 271245Z 09004KT 6SM BR CLR 02/01 A3009 680 89 -600 100/04 RMK AO2 T00220006
94889KARB ARB20160327075011203/27/16 07:50:31  5-MIN KARB 271250Z 09004KT 6SM BR CLR 02/01 A3010 680 89 -600 100/04 RMK AO2 SLP199 T00220006
94889KARB ARB20160327075510203/27/16 07:55:31  5-MIN KARB 271255Z 08003KT 7SM CLR 03/01 A3010 680 89 -600 090/03 RMK AO2 T00280011
94889KARB ARB20160327080010203/27/16 08:00:31  5-MIN KARB 271300Z 11004KT 7SM CLR 03/01 A3010 680 89 -600 120/04 RMK AO2 T00280011
94889KARB ARB20160327080510203/27/16 08:05:31  5-MIN KARB 271305Z 11005KT 7SM CLR 03/01 A3010 680 89 -600 120/05 RMK AO2 T00280011
94889KARB ARB20160327081010203/27/16 08:10:31  5-MIN KARB 271310Z 12005KT 7SM CLR 03/01 A3010 680 85 -500 120/05 RMK AO2 T00330011
94889KARB ARB20160327081510203/27/16 08:15:31  5-MIN KARB 271315Z 10004KT 7SM CLR 03/01 A3009 680 85 -500 100/04 RMK AO2 T00330011
94889KARB ARB20160327082010203/27/16 08:20:31  5-MIN KARB 271320Z 10005KT 7SM CLR 04/02 A3009 680 85 -400 110/05 RMK AO2 T00390017
94889KARB ARB20160327082510203/27/16 08:25:31  5-MIN KARB 271325Z 10005KT 7SM CLR 04/01 A3009 690 82 -400 110/05 RMK AO2 T00390011
94889KARB ARB20160327083010203/27/16 08:30:31  5-MIN KARB 271330Z 09004KT 7SM CLR 04/02 A3009 680 85 -400 100/04 RMK AO2 T00390017
94889KARB ARB20160327083510203/27/16 08:35:31  5-MIN KARB 271335Z 11004KT 8SM CLR 04/02 A3009 680 82 -300 120/04 RMK AO2 T00440017
94889KARB ARB20160327084010203/27/16 08:40:31  5-MIN KARB 271340Z 10005KT 8SM CLR 05/02 A3009 680 79 -300 110/05 RMK AO2 T00500017
94889KARB ARB20160327084510203/27/16 08:45:31  5-MIN KARB 271345Z 10004KT 8SM CLR 05/02 A3009 690 79 -300 110/04 RMK AO2 T00500017
94889KARB ARB20160327085010903/27/16 08:50:31  5-MIN KARB 271350Z 11003KT 8SM CLR 06/02 A3008 690 79 -200 120/03 RMK AO2 SLP193 T00560022
94889KARB ARB20160327085510203/27/16 08:55:31  5-MIN KARB 271355Z 11005KT 9SM CLR 06/02 A3008 690 76 -100 110/05 RMK AO2 T00610022
94889KARB ARB20160327090010203/27/16 09:00:31  5-MIN KARB 271400Z 10004KT 9SM CLR 06/02 A3008 700 76 -100 110/04 RMK AO2 T00610022
94889KARB ARB20160327090510303/27/16 09:05:31  5-MIN KARB 271405Z 11004KT 10SM CLR 07/02 A3008 700 73 -100 110/04 RMK AO2 T00670022
94889KARB ARB20160327091010003/27/16 09:10:31  5-MIN KARB 271410Z 12004KT 10SM CLR 07/02 A3008 700 70 0 130/04 RMK AO2 T00720022
94889KARB ARB20160327091510003/27/16 09:15:31  5-MIN KARB 271415Z 11007KT 10SM CLR 07/02 A3007 700 70 0 120/07 RMK AO2 T00720022
94889KARB ARB20160327092010003/27/16 09:20:31  5-MIN KARB 271420Z 12005KT 10SM CLR 08/02 A3007 700 68 0 130/05 RMK AO2 T00780022
94889KARB ARB20160327092510203/27/16 09:25:31  5-MIN KARB 271425Z VRB05KT 10SM CLR 08/03 A3007 700 68 100 VRB/05 RMK AO2 T00830028
94889KARB ARB20160327093010203/27/16 09:30:31  5-MIN KARB 271430Z 13008KT 10SM CLR 08/03 A3007 710 68 100 130/08 RMK AO2 T00830028
94889KARB ARB20160327093510203/27/16 09:35:31  5-MIN KARB 271435Z 15006KT 10SM CLR 08/02 A3006 710 65 100 160/06 RMK AO2 T00830022
94889KARB ARB20160327094010203/27/16 09:40:31  5-MIN KARB 271440Z 12007KT 10SM CLR 08/02 A3005 720 65 100 120/07 RMK AO2 T00830022
94889KARB ARB20160327094510203/27/16 09:45:31  5-MIN KARB 271445Z 16007KT 10SM CLR 09/02 A3005 720 63 200 170/07 RMK AO2 T00890022
94889KARB ARB20160327095012203/27/16 09:50:31  5-MIN KARB 271450Z 14006KT 10SM CLR 09/03 A3004 730 63 300 150/06 RMK AO2 PRESFR SLP178 T00940028 56014
94889KARB ARB20160327095510903/27/16 09:55:31  5-MIN KARB 271455Z 14007KT 10SM CLR 09/03 A3003 740 63 300 150/07 RMK AO2 PRESFR T00940028
94889KARB ARB20160327100010203/27/16 10:00:31  5-MIN KARB 271500Z 13008KT 10SM CLR 09/03 A3003 740 63 300 130/08 RMK AO2 T00940028
94889KARB ARB20160327100510203/27/16 10:05:31  5-MIN KARB 271505Z 13007KT 10SM CLR 09/03 A3004 730 63 300 130/07 RMK AO2 T00940028
94889KARB ARB20160327101010203/27/16 10:10:31  5-MIN KARB 271510Z 15006KT 10SM CLR 10/03 A3004 730 60 300 160/06 RMK AO2 T01000028
94889KARB ARB20160327101510203/27/16 10:15:31  5-MIN KARB 271515Z 15005KT 10SM CLR 10/03 A3005 720 60 300 160/05 RMK AO2 T01000028
94889KARB ARB20160327102010203/27/16 10:20:31  5-MIN KARB 271520Z VRB05KT 10SM CLR 10/03 A3005 720 60 300 VRB/05 RMK AO2 T01000028
94889KARB ARB20160327102510203/27/16 10:25:31  5-MIN KARB 271525Z 15007KT 10SM CLR 11/03 A3005 730 61 400 150/07 RMK AO2 T01060033
94889KARB ARB20160327103010203/27/16 10:30:31  5-MIN KARB 271530Z 13007KT 10SM CLR 11/03 A3004 730 61 400 140/07 RMK AO2 T01060033
94889KARB ARB20160327103510203/27/16 10:35:31  5-MIN KARB 271535Z 15006KT 10SM CLR 11/03 A3004 730 61 400 150/06 RMK AO2 T01060033
94889KARB ARB20160327104010203/27/16 10:40:31  5-MIN KARB 271540Z 18007KT 10SM CLR 11/03 A3005 720 58 500 190/07 RMK AO2 T01110033
94889KARB ARB20160327104510203/27/16 10:45:31  5-MIN KARB 271545Z VRB04KT 10SM CLR 11/03 A3005 720 58 500 VRB/04 RMK AO2 T01110033
94889KARB ARB20160327105010903/27/16 10:50:31  5-MIN KARB 271550Z 14007KT 10SM CLR 12/03 A3005 720 56 500 140/07 RMK AO2 SLP181 T01170033
94889KARB ARB20160327105510203/27/16 10:55:31  5-MIN KARB 271555Z 15004KT 10SM CLR 12/03 A3005 720 56 500 150/04 RMK AO2 T01170033
94889KARB ARB20160327110010203/27/16 11:00:31  5-MIN KARB 271600Z 16007KT 10SM CLR 12/03 A3005 720 54 600 160/07 RMK AO2 T01220033
94889KARB ARB20160327110510203/27/16 11:05:31  5-MIN KARB 271605Z 18007KT 10SM CLR 12/03 A3004 730 54 600 190/07 RMK AO2 T01220033
94889KARB ARB20160327111010203/27/16 11:10:31  5-MIN KARB 271610Z 17005KT 10SM CLR 12/03 A3004 730 54 600 180/05 RMK AO2 T01220033
94889KARB ARB20160327111510203/27/16 11:15:31  5-MIN KARB 271615Z 16005KT 10SM CLR 13/03 A3004 730 52 700 170/05 RMK AO2 T01280033
94889KARB ARB20160327112010203/27/16 11:20:31  5-MIN KARB 271620Z VRB05KT 10SM CLR 13/04 A3004 730 52 700 VRB/05 RMK AO2 T01330039
94889KARB ARB20160327112510203/27/16 11:25:31  5-MIN KARB 271625Z VRB04KT 10SM CLR 13/04 A3004 730 52 700 VRB/04 RMK AO2 T01330039
94889KARB ARB20160327113010203/27/16 11:30:31  5-MIN KARB 271630Z 18003KT 10SM CLR 13/04 A3004 740 54 700 190/03 RMK AO2 T01280039
94889KARB ARB20160327113510203/27/16 11:35:31  5-MIN KARB 271635Z VRB05KT 10SM CLR 14/04 A3003 740 50 800 VRB/05 RMK AO2 T01390039
94889KARB ARB20160327114010203/27/16 11:40:31  5-MIN KARB 271640Z 17005KT 10SM CLR 13/04 A3003 740 54 800 180/05 RMK AO2 T01330044
94889KARB ARB20160327114510203/27/16 11:45:31  5-MIN KARB 271645Z 17004KT 10SM CLR 14/04 A3002 750 52 800 180/04 RMK AO2 T01390044
94889KARB ARB20160327115010903/27/16 11:50:31  5-MIN KARB 271650Z 22005KT 10SM CLR 14/04 A3002 750 52 800 220/05 RMK AO2 SLP169 T01390044
94889KARB ARB20160327115510203/27/16 11:55:31  5-MIN KARB 271655Z 21005KT 10SM CLR 14/04 A3001 760 52 800 220/05 RMK AO2 T01390044
94889KARB ARB20160327120010203/27/16 12:00:31  5-MIN KARB 271700Z 15007KT 10SM CLR 14/04 A3001 760 51 900 150/07 RMK AO2 T01440044
94889KARB ARB20160327120510203/27/16 12:05:31  5-MIN KARB 271705Z 16005KT 10SM CLR 14/04 A3001 760 51 900 170/05 RMK AO2 T01440044
94889KARB ARB20160327121010303/27/16 12:10:31  5-MIN KARB 271710Z VRB04KT 10SM CLR 16/05 A3000 770 49 1000 VRB/04 RMK AO2 T01560050
94889KARB ARB20160327121510303/27/16 12:15:31  5-MIN KARB 271715Z 16006KT 10SM CLR 15/05 A3000 770 51 1000 170/06 RMK AO2 T01500050
94889KARB ARB20160327122010303/27/16 12:20:31  5-MIN KARB 271720Z VRB04KT 10SM CLR 16/04 A3000 770 47 1100 VRB/04 RMK AO2 T01560044
94889KARB ARB20160327122510303/27/16 12:25:31  5-MIN KARB 271725Z VRB03KT 10SM CLR 16/04 A2999 770 47 1100 VRB/03 RMK AO2 T01560044
94889KARB ARB20160327123009303/27/16 12:30:31  5-MIN KARB 271730Z 10SM CLR 16/05 A2999 780 47 1100 M /M RMK AO2 T01610050
94889KARB ARB20160327123510303/27/16 12:35:31  5-MIN KARB 271735Z 19006KT 10SM CLR 16/05 A2999 780 47 1100 190/06 RMK AO2 T01610050
94889KARB ARB20160327124010303/27/16 12:40:31  5-MIN KARB 271740Z 17007KT 10SM CLR 17/05 A2999 780 45 1200 180/07 RMK AO2 T01670050
94889KARB ARB20160327124510303/27/16 12:45:31  5-MIN KARB 271745Z 22004KT 10SM CLR 16/05 A2998 790 47 1100 220/04 RMK AO2 T01610050
94889KARB ARB20160327125012803/27/16 12:50:31  5-MIN KARB 271750Z 00000KT 10SM CLR 16/05 A2998 790 47 1100 000/00 RMK AO2 SLP154 T01610050 10167 21006 58025
94889KARB ARB20160327125510303/27/16 12:55:31  5-MIN KARB 271755Z VRB06KT 10SM CLR 17/05 A2998 790 45 1200 VRB/06 RMK AO2 T01670050
94889KARB ARB20160327130010303/27/16 13:00:31  5-MIN KARB 271800Z 18006KT 10SM CLR 17/05 A2997 790 45 1200 190/06 RMK AO2 T01670050
94889KARB ARB20160327130510303/27/16 13:05:31  5-MIN KARB 271805Z 22005KT 10SM CLR 17/05 A2997 800 44 1300 220/05 RMK AO2 T01720050
94889KARB ARB20160327131010303/27/16 13:10:31  5-MIN KARB 271810Z 00000KT 10SM CLR 17/05 A2997 800 44 1300 000/00 RMK AO2 T01720050
94889KARB ARB20160327131510303/27/16 13:15:31  5-MIN KARB 271815Z 14007KT 10SM CLR 17/05 A2996 810 44 1300 150/07 RMK AO2 T01720050
94889KARB ARB20160327132010303/27/16 13:20:31  5-MIN KARB 271820Z VRB04KT 10SM CLR 17/05 A2995 810 44 1300 VRB/04 RMK AO2 T01720050
94889KARB ARB20160327132511003/27/16 13:25:31  5-MIN KARB 271825Z 13004KT 10SM CLR 17/05 A2994 820 44 1300 140/04 RMK AO2 PRESFR T01720050
94889KARB ARB20160327133011003/27/16 13:30:31  5-MIN KARB 271830Z 16009KT 10SM CLR 18/06 A2994 820 42 1400 170/09 RMK AO2 PRESFR T01830056
94889KARB ARB20160327133510303/27/16 13:35:31  5-MIN KARB 271835Z 19005KT 10SM CLR 18/06 A2993 830 44 1400 200/05 RMK AO2 T01780056
94889KARB ARB20160327134010303/27/16 13:40:31  5-MIN KARB 271840Z 15008KT 10SM CLR 18/05 A2993 830 41 1500 160/08 RMK AO2 T01830050
94889KARB ARB20160327134510303/27/16 13:45:31  5-MIN KARB 271845Z VRB06KT 10SM CLR 19/06 A2993 830 41 1500 VRB/06 RMK AO2 T01890056
94889KARB ARB20160327135011003/27/16 13:50:31  5-MIN KARB 271850Z 15007KT 10SM CLR 19/06 A2993 830 41 1500 160/07 RMK AO2 SLP136 T01890056
94889KARB ARB20160327135510303/27/16 13:55:31  5-MIN KARB 271855Z 16008KT 10SM CLR 19/04 A2992 840 38 1500 170/08 RMK AO2 T01890044
94889KARB ARB20160327140010303/27/16 14:00:31  5-MIN KARB 271900Z 17008KT 10SM CLR 19/04 A2992 840 38 1500 170/08 RMK AO2 T01890044
94889KARB ARB20160327140510303/27/16 14:05:31  5-MIN KARB 271905Z 19006KT 10SM CLR 18/04 A2992 840 39 1500 200/06 RMK AO2 T01830044
94889KARB ARB20160327141010303/27/16 14:10:31  5-MIN KARB 271910Z 19006KT 10SM CLR 19/05 A2992 850 38 1600 190/06 RMK AO2 T01940050
94889KARB ARB20160327141511903/27/16 14:15:31  5-MIN KARB 271915Z 18008KT 160V240 10SM CLR 19/04 A2991 850 37 1600 190/08 170V250 RMK AO2 T01940044
94889KARB ARB20160327142010303/27/16 14:20:31  5-MIN KARB 271920Z 19010KT 10SM CLR 19/04 A2991 850 37 1600 190/10 RMK AO2 T01940044
94889KARB ARB20160327142510303/27/16 14:25:31  5-MIN KARB 271925Z 19010KT 10SM CLR 19/04 A2990 860 38 1600 190/10 RMK AO2 T01890044
94889KARB ARB20160327143010303/27/16 14:30:31  5-MIN KARB 271930Z 20006KT 10SM CLR 19/05 A2990 860 39 1600 200/06 RMK AO2 T01890050
94889KARB ARB20160327143510303/27/16 14:35:31  5-MIN KARB 271935Z 18008KT 10SM CLR 19/05 A2989 870 38 1600 190/08 RMK AO2 T01940050
94889KARB ARB20160327144011603/27/16 14:40:31  5-MIN KARB 271940Z 19011G15KT 10SM CLR 19/04 A2988 870 38 1600 200/11G15 RMK AO2 PRESFR T01890044
94889KARB ARB20160327144510303/27/16 14:45:31  5-MIN KARB 271945Z 22008KT 10SM CLR 19/04 A2988 880 38 1600 220/08 RMK AO2 T01890044
94889KARB ARB20160327145011003/27/16 14:50:31  5-MIN KARB 271950Z 17010KT 10SM CLR 19/05 A2988 880 39 1600 180/10 RMK AO2 SLP120 T01890050
94889KARB ARB20160327145510303/27/16 14:55:31  5-MIN KARB 271955Z 20007KT 10SM CLR 19/05 A2987 890 38 1700 210/07 RMK AO2 T01940050
94889KARB ARB20160327150010303/27/16 15:00:31  5-MIN KARB 272000Z VRB05KT 10SM CLR 19/05 A2986 890 39 1600 VRB/05 RMK AO2 T01890050
94889KARB ARB20160327150510303/27/16 15:05:31  5-MIN KARB 272005Z 17009KT 10SM CLR 19/06 A2986 890 40 1700 180/09 RMK AO2 T01940056
94889KARB ARB20160327151010303/27/16 15:10:31  5-MIN KARB 272010Z 19007KT 10SM CLR 19/06 A2986 890 40 1700 200/07 RMK AO2 T01940056
94889KARB ARB20160327151510303/27/16 15:15:31  5-MIN KARB 272015Z 19007KT 10SM CLR 19/06 A2986 900 40 1700 200/07 RMK AO2 T01940056
94889KARB ARB20160327152010303/27/16 15:20:31  5-MIN KARB 272020Z 16006KT 10SM CLR 19/06 A2986 900 41 1700 160/06 RMK AO2 T01940061
94889KARB ARB20160327152510303/27/16 15:25:31  5-MIN KARB 272025Z 15008KT 10SM CLR 20/06 A2985 900 40 1700 150/08 RMK AO2 T02000061
94889KARB ARB20160327153010303/27/16 15:30:31  5-MIN KARB 272030Z 19005KT 10SM CLR 20/06 A2985 910 40 1700 190/05 RMK AO2 T02000061
94889KARB ARB20160327153510303/27/16 15:35:31  5-MIN KARB 272035Z 17006KT 10SM CLR 20/06 A2985 910 40 1700 170/06 RMK AO2 T02000061
94889KARB ARB20160327154010303/27/16 15:40:31  5-MIN KARB 272040Z 14007KT 10SM CLR 19/06 A2984 910 41 1700 150/07 RMK AO2 T01940061
94889KARB ARB20160327154510303/27/16 15:45:31  5-MIN KARB 272045Z 18008KT 10SM CLR 20/06 A2984 910 40 1700 180/08 RMK AO2 T02000061
94889KARB ARB20160327155011603/27/16 15:50:31  5-MIN KARB 272050Z 19005KT 10SM CLR 19/06 A2984 910 40 1700 190/05 RMK AO2 SLP108 T01940056 58019
94889KARB ARB20160327155510303/27/16 15:55:31  5-MIN KARB 272055Z 15008KT 10SM CLR 20/06 A2984 910 40 1700 150/08 RMK AO2 T02000061
94889KARB ARB20160327160010303/27/16 16:00:31  5-MIN KARB 272100Z 15006KT 10SM CLR 20/06 A2983 920 40 1800 160/06 RMK AO2 T02000061
94889KARB ARB20160327160510303/27/16 16:05:31  5-MIN KARB 272105Z 14009KT 10SM CLR 20/07 A2983 920 41 1800 140/09 RMK AO2 T02000067
94889KARB ARB20160327161010303/27/16 16:10:31  5-MIN KARB 272110Z 16007KT 10SM CLR 20/07 A2983 930 41 1800 160/07 RMK AO2 T02000067
94889KARB ARB20160327161510303/27/16 16:15:31  5-MIN KARB 272115Z 14008KT 10SM CLR 20/07 A2983 930 41 1800 150/08 RMK AO2 T02000067
94889KARB ARB20160327162010303/27/16 16:20:31  5-MIN KARB 272120Z 13008KT 10SM CLR 20/07 A2982 930 41 1800 140/08 RMK AO2 T02000067
94889KARB ARB20160327162510303/27/16 16:25:31  5-MIN KARB 272125Z 16011KT 10SM CLR 19/07 A2982 930 43 1700 160/11 RMK AO2 T01940067
94889KARB ARB20160327163010303/27/16 16:30:31  5-MIN KARB 272130Z 16010KT 10SM CLR 19/07 A2982 930 44 1600 160/10 RMK AO2 T01890067
94889KARB ARB20160327163510303/27/16 16:35:31  5-MIN KARB 272135Z 14009KT 10SM CLR 19/07 A2982 940 44 1600 140/09 RMK AO2 T01890067
94889KARB ARB20160327164010303/27/16 16:40:31  5-MIN KARB 272140Z 14009KT 10SM CLR 19/07 A2981 940 44 1700 150/09 RMK AO2 T01890067
94889KARB ARB20160327164510303/27/16 16:45:31  5-MIN KARB 272145Z 14009KT 10SM CLR 19/07 A2981 940 44 1700 150/09 RMK AO2 T01890067
94889KARB ARB20160327165011003/27/16 16:50:31  5-MIN KARB 272150Z 14010KT 10SM CLR 19/07 A2981 950 44 1700 150/10 RMK AO2 SLP096 T01890067
94889KARB ARB20160327165510303/27/16 16:55:31  5-MIN KARB 272155Z 13007KT 10SM CLR 19/07 A2980 950 44 1700 140/07 RMK AO2 T01890067
94889KARB ARB20160327170010303/27/16 17:00:31  5-MIN KARB 272200Z 14010KT 10SM CLR 18/07 A2980 960 46 1600 150/10 RMK AO2 T01830067
94889KARB ARB20160327170510303/27/16 17:05:31  5-MIN KARB 272205Z 12011KT 10SM CLR 18/07 A2979 960 46 1600 130/11 RMK AO2 T01830067
94889KARB ARB20160327171010303/27/16 17:10:31  5-MIN KARB 272210Z 13010KT 10SM CLR 18/07 A2979 960 46 1600 130/10 RMK AO2 T01830067
94889KARB ARB20160327171510303/27/16 17:15:31  5-MIN KARB 272215Z 13010KT 10SM CLR 18/07 A2979 960 46 1600 140/10 RMK AO2 T01830067
94889KARB ARB20160327172010303/27/16 17:20:31  5-MIN KARB 272220Z 13009KT 10SM CLR 18/07 A2979 960 46 1600 140/09 RMK AO2 T01830067
94889KARB ARB20160327172511603/27/16 17:25:31  5-MIN KARB 272225Z 12014G18KT 10SM CLR 18/07 A2977 980 48 1600 130/14G18 RMK AO2 PRESFR T01780067
94889KARB ARB20160327173010303/27/16 17:30:31  5-MIN KARB 272230Z 13010KT 10SM CLR 18/07 A2978 970 48 1600 140/10 RMK AO2 T01780067
94889KARB ARB20160327173510903/27/16 17:35:31  5-MIN KARB 272235Z 15008G18KT 10SM CLR 17/07 A2979 960 49 1500 150/08G18 RMK AO2 T01720067
94889KARB ARB20160327174010903/27/16 17:40:31  5-MIN KARB 272240Z 14011G18KT 10SM CLR 18/07 A2979 970 48 1600 150/11G18 RMK AO2 T01780067
94889KARB ARB20160327174510303/27/16 17:45:31  5-MIN KARB 272245Z 15009KT 10SM CLR 18/07 A2978 970 48 1600 160/09 RMK AO2 T01780067
94889KARB ARB20160327175011503/27/16 17:50:31  5-MIN KARB 272250Z AUTO 14010KT 10SM CLR 17/07 A2978 970 49 1500 150/10 RMK AO2 SLP087 T01720067
94889KARB ARB20160327175510803/27/16 17:55:31  5-MIN KARB 272255Z AUTO 14006KT 10SM CLR 17/07 A2978 970 49 1500 140/06 RMK AO2 T01720067
94889KARB ARB20160327180010803/27/16 18:00:31  5-MIN KARB 272300Z AUTO 14009KT 10SM CLR 17/07 A2978 970 51 1400 150/09 RMK AO2 T01670067
94889KARB ARB20160327180510803/27/16 18:05:31  5-MIN KARB 272305Z AUTO 13008KT 10SM CLR 17/07 A2978 970 51 1400 130/08 RMK AO2 T01670067
94889KARB ARB20160327181011103/27/16 18:10:31  5-MIN KARB 272310Z AUTO 14006KT 10SM FEW070 16/07 A2977 980 53 1400 140/06 RMK AO2 T01610067
94889KARB ARB20160327181511103/27/16 18:15:31  5-MIN KARB 272315Z AUTO 12007KT 10SM BKN070 16/07 A2978 970 53 1400 130/07 RMK AO2 T01610067
94889KARB ARB20160327182011103/27/16 18:20:31  5-MIN KARB 272320Z AUTO 11007KT 10SM BKN070 16/06 A2977 980 53 1300 120/07 RMK AO2 T01560061
94889KARB ARB20160327182511103/27/16 18:25:31  5-MIN KARB 272325Z AUTO 11007KT 10SM BKN070 16/06 A2976 990 51 1300 110/07 RMK AO2 T01560056
94889KARB ARB20160327183012603/27/16 18:30:31  5-MIN KARB 272330Z AUTO 12009KT 10SM BKN070 BKN085 16/05 A2975 1000 49 1300 130/09 RMK AO2 PRESFR T01560050
94889KARB ARB20160327183511903/27/16 18:35:31  5-MIN KARB 272335Z AUTO 11010KT 10SM BKN070 BKN085 15/04 A2975 1000 49 1300 120/10 RMK AO2 T01500044
94889KARB ARB20160327184012403/27/16 18:40:31  5-MIN KARB 272340Z AUTO 12007KT 10SM BKN080 15/04 A2974 1010 49 1300 130/07 RMK AO2 LTG DSNT SW T01500044
94889KARB ARB20160327184513703/27/16 18:45:31  5-MIN KARB 272345Z AUTO 11009KT 10SM FEW070 BKN085 15/04 A2974 1010 47 1300 120/09 RMK AO2 LTG DSNT SW AND W T01500039
94889KARB ARB20160327185015503/27/16 18:50:31  5-MIN KARB 272350Z AUTO 11006KT 10SM SCT080 14/04 A2974 1010 49 1200 120/06 RMK AO2 LTG DSNT SW AND W SLP074 T01440039 10200 20144 56044
94889KARB ARB20160327185514103/27/16 18:55:31  5-MIN KARB 272355Z AUTO 12006KT 10SM FEW070 SCT085 BKN120 14/03 A2974 1010 47 1200 130/06 RMK AO2 LTG DSNT SW-NW T01440033
94889KARB ARB20160327190014103/27/16 19:00:31  5-MIN KARB 280000Z AUTO 12007KT 10SM FEW070 BKN085 BKN110 14/03 A2974 1010 47 1200 120/07 RMK AO2 LTG DSNT SW-NW T01440033
94889KARB ARB20160327190514203/27/16 19:05:31  5-MIN KARB 280005Z AUTO 13007KT 10SM TS BKN080 BKN095 14/03 A2974 1010 47 1200 130/07 RMK AO2 LTG DSNT S-NW TSB05 T01440033
94889KARB ARB20160327191015703/27/16 19:10:31  5-MIN KARB 280010Z AUTO 12008KT 10SM -TSRA BKN080 BKN095 14/04 A2973 1020 50 1200 120/08 RMK AO2 LTG DSNT S-NW RAB06 TSB05 P0000 T01390039
94889KARB ARB20160327191515803/27/16 19:15:31  5-MIN KARB 280015Z AUTO 11006KT 10SM -TSRA BKN080 OVC110 13/04 A2973 1020 52 1100 120/06 RMK AO2 LTG DSNT ALQDS RAB06 TSB05 P0000 T01330039
94889KARB ARB20160327192015703/27/16 19:20:31  5-MIN KARB 280020Z AUTO 10005KT 10SM VCTS -RA OVC080 13/04 A2972 1020 52 1100 100/05 RMK AO2 LTG DSNT ALQDS RAB06 TSB05E20 P0000 T01330039
94889KARB ARB20160327192515703/27/16 19:25:31  5-MIN KARB 280025Z AUTO 11004KT 10SM VCTS -RA OVC080 13/05 A2972 1020 59 1000 120/04 RMK AO2 LTG DSNT ALQDS RAB06 TSB05E20 P0001 T01280050
94889KARB ARB20160327193016403/27/16 19:30:31  5-MIN KARB 280030Z AUTO 00000KT 10SM VCTS -RA FEW060 OVC075 12/06 A2972 1030 63 1000 000/00 RMK AO2 LTG DSNT ALQDS RAB06 TSB05E20 P0002 T01220056
94889KARB ARB20160327193516203/27/16 19:35:31  5-MIN KARB 280035Z AUTO 28011KT 7SM VCTS -RA SCT055 OVC075 12/07 A2975 1000 71 900 290/11 RMK AO2 LTG DSNT ALQDS RAB06 TSB05E20 P0003 T01170067
94889KARB ARB20160327194015303/27/16 19:40:31  5-MIN KARB 280040Z AUTO 6SM TSRA SCT055 OVC075 11/07 A2974 1010 74 800 M /M RMK AO2 LTG DSNT ALQDS RAB06 TSB05E20B37 P0005 T01110067 $
94889KARB ARB20160327194517703/27/16 19:45:31  5-MIN KARB 280045Z AUTO 27010KT 5SM -TSRA FEW042 SCT055 OVC075 11/07 A2976 990 77 800 270/10 RMK AO2 LTG DSNT ALQDS RAB06 TSB05E20B37 PRESRR P0009 T01110072 $
94889KARB ARB20160327195017703/27/16 19:50:31  5-MIN KARB 280050Z AUTO 32006KT 4SM TSRA FEW045 SCT055 OVC075 11/08 A2975 1000 83 700 320/06 RMK AO2 LTG DSNT ALQDS RAB06 TSB05E20B37 SLP078 P0011 T01060078 $
94889KARB ARB20160327195514603/27/16 19:55:31  5-MIN KARB 280055Z AUTO VRB03KT 4SM -TSRA SCT050 OVC070 11/07 A2975 1000 77 800 VRB/03 RMK AO2 LTG DSNT ALQDS P0000 T01110072 $
94889KARB ARB20160327200014403/27/16 20:00:31  5-MIN KARB 280100Z AUTO 34003KT 6SM -TSRA BKN050 OVC070 11/07 A2975 1000 80 700 340/03 RMK AO2 LTG DSNT ALQDS P0001 T01060072
94889KARB ARB20160327200515303/27/16 20:05:31  5-MIN KARB 280105Z AUTO 32004KT 6SM VCTS -RA BKN050 OVC070 11/08 A2975 1000 83 700 330/04 RMK AO2 LTG DSNT ALQDS TSE01 P0002 T01060078
94889KARB ARB20160327201015503/27/16 20:10:31  5-MIN KARB 280110Z AUTO 34005KT 5SM VCTS RA BR BKN050 OVC070 11/08 A2974 1010 86 800 340/05 RMK AO2 LTG DSNT ALQDS TSE01 P0003 T01060083
94889KARB ARB20160327201515803/27/16 20:15:31  5-MIN KARB 280115Z AUTO 00000KT 5SM -RA BR FEW042 BKN060 OVC070 11/08 A2975 1000 86 700 000/00 RMK AO2 LTG DSNT ALQDS TSE01 P0004 T01060083
94889KARB ARB20160327202015003/27/16 20:20:31  5-MIN KARB 280120Z AUTO 00000KT 5SM -RA BR FEW046 OVC060 10/08 A2974 1010 89 700 000/00 RMK AO2 LTG DSNT NE-S TSE01 P0005 T01000083
94889KARB ARB20160327202515703/27/16 20:25:31  5-MIN KARB 280125Z AUTO 06004KT 6SM -RA BR FEW040 BKN060 OVC080 10/08 A2973 1010 89 700 070/04 RMK AO2 LTG DSNT NE-S TSE01 P0005 T01000083
94889KARB ARB20160327203015703/27/16 20:30:31  5-MIN KARB 280130Z AUTO 05004KT 6SM -RA BR FEW040 BKN060 OVC075 11/09 A2973 1020 89 800 050/04 RMK AO2 LTG DSNT NE-S TSE01 P0006 T01060089
94889KARB ARB20160327203516203/27/16 20:35:31  5-MIN KARB 280135Z AUTO 05005KT 7SM -RA FEW040 BKN080 OVC090 11/09 A2972 1030 89 800 060/05 RMK AO2 LTG DSNT NE-SE TSE01 PRESFR P0006 T01060089
94889KARB ARB20160327204016303/27/16 20:40:31  5-MIN KARB 280140Z AUTO 03007KT 10SM -RA FEW040 BKN075 OVC090 11/09 A2970 1040 89 800 040/07 RMK AO2 LTG DSNT NE-SE TSE01 PRESFR P0006 T01060089
94889KARB ARB20160327204516803/27/16 20:45:31  5-MIN KARB 280145Z AUTO 04008KT 10SM FEW040 FEW065 OVC080 11/08 A2969 1050 86 800 040/08 RMK AO2 LTG DSNT E AND SE RAE41 TSE01 PRESFR P0006 T01060083
94889KARB ARB20160327205016803/27/16 20:50:31  5-MIN KARB 280150Z AUTO 04008KT 10SM FEW040 OVC085 11/08 A2968 1060 86 800 050/08 RMK AO2 LTG DSNT E AND SE RAE41 TSE01 PRESFR SLP054 P0006 T01060083
94889KARB ARB20160327205514303/27/16 20:55:31  5-MIN KARB 280155Z AUTO 06009KT 10SM SCT075 OVC090 11/08 A2967 1070 86 800 070/09 RMK AO2 LTG DSNT E AND SE PRESFR T01060083
94889KARB ARB20160327210012903/27/16 21:00:31  5-MIN KARB 280200Z AUTO 08008KT 10SM OVC090 11/09 A2967 1070 89 800 080/08 RMK AO2 LTG DSNT E AND SE T01060089
94889KARB ARB20160327210512403/27/16 21:05:31  5-MIN KARB 280205Z AUTO 04006KT 10SM BKN085 11/09 A2967 1080 89 800 050/06 RMK AO2 LTG DSNT E-S T01060089
94889KARB ARB20160327211012803/27/16 21:10:31  5-MIN KARB 280210Z AUTO 08004KT 10SM BKN090 11/09 A2967 1070 89 800 090/04 RMK AO2 LTG DSNT E AND S T01060089
94889KARB ARB20160327211513503/27/16 21:15:31  5-MIN KARB 280215Z AUTO 09004KT 10SM SCT090 BKN110 11/09 A2968 1060 89 800 090/04 RMK AO2 LTG DSNT E AND S T01060089
94889KARB ARB20160327212013603/27/16 21:20:31  5-MIN KARB 280220Z AUTO 06003KT 10SM SCT095 BKN110 11/09 A2968 1070 89 800 060/03 RMK AO2 LTG DSNT SE AND S T01060089
94889KARB ARB20160327212513603/27/16 21:25:31  5-MIN KARB 280225Z AUTO 08005KT 10SM BKN095 BKN110 11/09 A2968 1070 89 800 080/05 RMK AO2 LTG DSNT SE AND S T01060089
94889KARB ARB20160327213015203/27/16 21:30:31  5-MIN KARB 280230Z AUTO 11005KT 10SM -RA SCT085 BKN110 11/08 A2968 1070 86 800 110/05 RMK AO2 LTG DSNT SE AND S RAB30 P0000 T01060083
94889KARB ARB20160327213515303/27/16 21:35:31  5-MIN KARB 280235Z AUTO 12006KT 9SM -RA BKN080 BKN100 BKN120 11/08 A2968 1060 86 800 120/06 RMK AO2 LTG DSNT E-S RAB30 P0000 T01060083
94889KARB ARB20160327214015303/27/16 21:40:31  5-MIN KARB 280240Z AUTO 00000KT 7SM -RA FEW050 BKN085 OVC110 11/08 A2969 1050 86 800 000/00 RMK AO2 LTG DSNT E-S RAB30 P0001 T01060083
94889KARB ARB20160327214516303/27/16 21:45:31  5-MIN KARB 280245Z AUTO 17004KT 6SM -RA BR SCT050 BKN075 OVC110 11/08 A2970 1050 86 800 180/04 RMK AO2 LTG DSNT E-S RAB30 PRESRR P0002 T01060083
94889KARB ARB20160327215017903/27/16 21:50:31  5-MIN KARB 280250Z AUTO 14004KT 5SM RA BR FEW019 BKN048 OVC085 10/09 A2969 1050 93 700 140/04 RMK AO2 LTG DSNT E AND SE RAB30 SLP056 P0004 60022 T01000089 58033
94889KARB ARB20160327215515503/27/16 21:55:31  5-MIN KARB 280255Z AUTO 08004KT 4SM +RA BR FEW019 BKN055 OVC085 10/09 A2968 1060 93 800 090/04 RMK AO2 LTG DSNT E AND SE P0000 T01000089
94889KARB ARB20160327220015403/27/16 22:00:31  5-MIN KARB 280300Z AUTO 11004KT 4SM RA BR FEW049 SCT060 OVC075 10/09 A2968 1060 93 800 120/04 RMK AO2 LTG DSNT E AND SE P0001 T01000089
94889KARB ARB20160327220514803/27/16 22:05:31  5-MIN KARB 280305Z AUTO 07003KT 5SM -RA BR FEW039 BKN060 OVC075 10/09 A2967 1070 93 800 080/03 RMK AO2 LTG DSNT E P0002 T01000089
94889KARB ARB20160327221014803/27/16 22:10:31  5-MIN KARB 280310Z AUTO 08004KT 6SM -RA BR BKN039 BKN049 OVC080 10/09 A2967 1070 93 800 090/04 RMK AO2 LTG DSNT E P0002 T01000089
94889KARB ARB20160327221514703/27/16 22:15:31  5-MIN KARB 280315Z AUTO 00000KT 5SM RA BR BKN039 BKN055 OVC070 10/09 A2967 1070 93 800 000/00 RMK AO2 LTG DSNT E P0004 T01000089
94889KARB ARB20160327222014303/27/16 22:20:31  5-MIN KARB 280320Z AUTO 07008KT 4SM RA BR BKN037 BKN055 OVC075 10/09 A2963 1110 93 800 070/08 RMK AO2 PRESFR P0006 T01000089
94889KARB ARB20160327222514703/27/16 22:25:31  5-MIN KARB 280325Z AUTO 05006KT 4SM RA BR BKN037 BKN050 OVC075 10/08 A2963 1110 89 800 060/06 RMK AO2 LTG DSNT S P0007 T01000083
94889KARB ARB20160327223014803/27/16 22:30:31  5-MIN KARB 280330Z AUTO 04007KT 4SM -RA BR SCT037 BKN048 OVC080 10/09 A2963 1110 93 800 050/07 RMK AO2 LTG DSNT S P0007 T01000089
94889KARB ARB20160327223514803/27/16 22:35:31  5-MIN KARB 280335Z AUTO 04005KT 6SM -RA BR SCT037 BKN080 OVC090 10/09 A2963 1110 93 800 050/05 RMK AO2 LTG DSNT S P0008 T01000089
94889KARB ARB20160327224013603/27/16 22:40:31  5-MIN KARB 280340Z AUTO 04007KT 7SM FEW037 BKN080 OVC110 10/08 A2962 1120 89 800 050/07 RMK AO2 RAE38 P0008 T01000083
94889KARB ARB20160327224514503/27/16 22:45:31  5-MIN KARB 280345Z AUTO 06005KT 7SM -RA FEW049 BKN090 OVC110 10/09 A2962 1120 93 800 060/05 RMK AO2 LTG DSNT S P0008 T01000089
94889KARB ARB20160327225015203/27/16 22:50:31  5-MIN KARB 280350Z AUTO 05005KT 7SM -RA FEW075 BKN090 OVC110 10/08 A2962 1120 89 800 060/05 RMK AO2 LTG DSNT S SLP032 P0008 T01000083
94889KARB ARB20160327225514503/27/16 22:55:31  5-MIN KARB 280355Z AUTO 00000KT 8SM -RA SCT070 OVC090 10/08 A2963 1120 89 800 000/00 RMK AO2 LTG DSNT SE AND S P0000 T01000083
94889KARB ARB20160327230013903/27/16 23:00:31  5-MIN KARB 280400Z AUTO 00000KT 7SM -RA BKN070 OVC090 10/09 A2963 1110 93 800 000/00 RMK AO2 LTG DSNT SE P0000 T01000089
94889KARB ARB20160327230514803/27/16 23:05:31  5-MIN KARB 280405Z AUTO 00000KT 6SM -RA BR BKN070 OVC090 10/08 A2963 1110 89 800 000/00 RMK AO2 LTG DSNT SE AND S P0001 T01000083
94889KARB ARB20160327231014803/27/16 23:10:31  5-MIN KARB 280410Z AUTO 00000KT 5SM -RA BR BKN070 OVC090 10/08 A2963 1110 89 800 000/00 RMK AO2 LTG DSNT SE AND S P0002 T01000083
94889KARB ARB20160327231513403/27/16 23:15:31  5-MIN KARB 280415Z AUTO 00000KT 5SM -RA BR OVC070 10/08 A2964 1110 89 800 000/00 RMK AO2 LTG DSNT S P0002 T01000083
94889KARB ARB20160327232013703/27/16 23:20:31  5-MIN KARB 280420Z AUTO 00000KT 5SM -RA BR FEW023 FEW039 OVC070 09/08 A2964 1100 93 700 000/00 RMK AO2 P0003 T00940083
94889KARB ARB20160327232513703/27/16 23:25:31  5-MIN KARB 280425Z AUTO 20005KT 4SM -RA BR SCT023 SCT039 OVC070 09/09 A2965 1090 96 700 210/05 RMK AO2 P0004 T00940089
94889KARB ARB20160327233014403/27/16 23:30:31  5-MIN KARB 280430Z AUTO 24007KT 3SM -RA BR FEW010 BKN023 OVC070 09/09 A2966 1090 96 700 250/07 RMK AO2 PRESRR P0005 T00940089
94889KARB ARB20160327233513603/27/16 23:35:31  5-MIN KARB 280435Z AUTO 23007KT 3SM RA BR SCT008 BKN023 OVC070 09/09 A2965 1090 96 700 230/07 RMK AO2 P0007 T00940089
94889KARB ARB20160327234014803/27/16 23:40:31  5-MIN KARB 280440Z AUTO 25006KT 3SM RA BR BKN008 BKN023 OVC070 09/09 A2964 1100 96 700 260/06 RMK AO2 CIG 007V012 P0008 T00940089
94889KARB ARB20160327234514803/27/16 23:45:31  5-MIN KARB 280445Z AUTO 26008KT 3SM RA BR BKN010 BKN013 OVC023 09/09 A2964 1100 96 700 260/08 RMK AO2 CIG 007V011 P0010 T00940089
94889KARB ARB20160327235015403/27/16 23:50:31  5-MIN KARB 280450Z AUTO 26006KT 4SM -RA BR SCT010 BKN013 OVC020 09/09 A2964 1110 96 700 260/06 RMK AO2 SLP036 P0010 T00940089 402001011
94889KARB ARB20160327235513003/27/16 23:55:31  5-MIN KARB 280455Z AUTO VRB05KT 4SM -RA BR SCT009 OVC013 09/09 A2963 1110 96 700 VRB/05 RMK AO2 P0000 T00940089
94889KARB ARB20160328000013003/28/16 00:00:31  5-MIN KARB 280500Z AUTO 22005KT 5SM -RA BR SCT009 OVC015 09/09 A2963 1110 96 700 220/05 RMK AO2 P0000 T00940089
94889KARB ARB20160328000513003/28/16 00:05:31  5-MIN KARB 280505Z AUTO 24005KT 5SM -RA BR BKN011 OVC017 10/09 A2963 1110 93 800 250/05 RMK AO2 P0000 T01000089
94889KARB ARB20160328001013003/28/16 00:10:31  5-MIN KARB 280510Z AUTO 26008KT 6SM -RA BR BKN013 OVC019 10/09 A2963 1110 93 800 270/08 RMK AO2 P0000 T01000089
94889KARB ARB20160328001513003/28/16 00:15:31  5-MIN KARB 280515Z AUTO 27007KT 6SM -RA BR BKN013 OVC021 10/09 A2963 1110 93 800 280/07 RMK AO2 P0001 T01000089
94889KARB ARB20160328002013003/28/16 00:20:31  5-MIN KARB 280520Z AUTO 28011KT 6SM -RA BR BKN013 OVC021 10/08 A2963 1110 89 800 280/11 RMK AO2 P0001 T01000083
94889KARB ARB20160328002512903/28/16 00:25:31  5-MIN KARB 280525Z AUTO 30010KT 5SM RA BR BKN014 OVC022 09/08 A2962 1120 93 800 310/10 RMK AO2 P0003 T00940083
94889KARB ARB20160328003013603/28/16 00:30:31  5-MIN KARB 280530Z AUTO 30011KT 4SM RA BR BKN014 BKN022 OVC043 09/08 A2962 1120 89 800 300/11 RMK AO2 P0005 T00940078
94889KARB ARB20160328003514903/28/16 00:35:31  5-MIN KARB 280535Z AUTO 29009G17KT 4SM RA BR SCT013 BKN022 OVC043 09/08 A2961 1130 89 800 290/09G17 RMK AO2 PRESFR P0006 T00940078
94889KARB ARB20160328004015003/28/16 00:40:31  5-MIN KARB 280540Z AUTO 31009G17KT 5SM -RA BR SCT013 BKN022 OVC041 09/08 A2959 1140 89 800 320/09G17 RMK AO2 PRESFR P0006 T00940078
94889KARB ARB20160328004514103/28/16 00:45:31  5-MIN KARB 280545Z AUTO 32007KT 7SM -RA SCT012 BKN036 OVC055 09/08 A2959 1150 89 800 330/07 RMK AO2 PRESFR P0006 T00940078
94889KARB ARB20160328005016503/28/16 00:50:31  5-MIN KARB 280550Z AUTO 30007KT 8SM -RA FEW012 BKN046 OVC060 09/08 A2959 1150 89 800 310/07 RMK AO2 SLP019 P0006 60049 T00940078 10144 20094 58012
94889KARB ARB20160328005515203/28/16 00:55:31  5-MIN KARB 280555Z AUTO 30007KT 280V350 9SM FEW012 SCT046 OVC060 09/08 A2959 1150 89 800 310/07 290V360 RMK AO2 RAE54 P0000 T00940078
94889KARB ARB20160328010013903/28/16 01:00:31  5-MIN KARB 280600Z AUTO 30008KT 10SM FEW010 SCT035 OVC060 09/08 A2958 1150 89 800 310/08 RMK AO2 RAE0554 P0000 T00940078
94889KARB ARB20160328010513903/28/16 01:05:31  5-MIN KARB 280605Z AUTO 30007KT 10SM FEW010 SCT037 OVC060 09/08 A2958 1160 89 800 310/07 RMK AO2 RAE0554 P0000 T00940078
94889KARB ARB20160328011013203/28/16 01:10:31  5-MIN KARB 280610Z AUTO 29008KT 10SM SCT010 OVC060 09/08 A2959 1150 89 800 300/08 RMK AO2 RAE0554 P0000 T00940078
94889KARB ARB20160328011513103/28/16 01:15:31  5-MIN KARB 280615Z AUTO 29009KT 9SM BKN010 OVC060 09/08 A2959 1150 93 700 290/09 RMK AO2 RAE0554 P0000 T00890078
94889KARB ARB20160328012013103/28/16 01:20:31  5-MIN KARB 280620Z AUTO 28009KT 9SM BKN009 OVC060 09/08 A2960 1140 93 700 280/09 RMK AO2 RAE0554 P0000 T00890078
94889KARB ARB20160328012515003/28/16 01:25:31  5-MIN KARB 280625Z AUTO 27010KT 8SM -RA BKN009 OVC060 09/08 A2960 1140 93 700 280/10 RMK AO2 RAE0554B25 CIG 007V011 P0000 T00890078
94889KARB ARB20160328013014103/28/16 01:30:31  5-MIN KARB 280630Z AUTO 27009KT 6SM -RA BR BKN009 OVC060 09/08 A2960 1140 93 700 280/09 RMK AO2 RAE0554B25 P0001 T00890078
94889KARB ARB20160328013514103/28/16 01:35:31  5-MIN KARB 280635Z AUTO 28007KT 5SM -RA BR BKN008 OVC055 09/08 A2959 1150 93 700 290/07 RMK AO2 RAE0554B25 P0002 T00890078
94889KARB ARB20160328014014103/28/16 01:40:31  5-MIN KARB 280640Z AUTO 29006KT 6SM -RA BR BKN008 OVC060 09/08 A2958 1150 93 700 300/06 RMK AO2 RAE0554B25 P0002 T00890078
94889KARB ARB20160328014514803/28/16 01:45:31  5-MIN KARB 280645Z AUTO 28006KT 6SM -RA BR SCT008 OVC060 09/08 A2958 1160 93 700 290/06 RMK AO2 RAE0554B25 PRESFR P0002 T00890078
94889KARB ARB20160328015015203/28/16 01:50:31  5-MIN KARB 280650Z AUTO 31007KT 7SM -RA SCT008 OVC060 09/08 A2957 1170 93 800 310/07 RMK AO2 RAE0554B25 PRESFR SLP011 P0002 T00890078
94889KARB ARB20160328015512703/28/16 01:55:31  5-MIN KARB 280655Z AUTO 30005KT 7SM -RA SCT008 OVC060 09/08 A2956 1180 93 800 310/05 RMK AO2 P0000 T00890078
94889KARB ARB20160328020014103/28/16 02:00:31  5-MIN KARB 280700Z AUTO 34005KT 8SM -RA SCT007 BKN060 OVC100 09/08 A2955 1190 93 800 350/05 RMK AO2 PRESFR P0000 T00890078
94889KARB ARB20160328020513403/28/16 02:05:31  5-MIN KARB 280705Z AUTO 34007KT 8SM -RA FEW007 BKN060 OVC110 09/08 A2955 1190 93 800 340/07 RMK AO2 P0000 T00890078
94889KARB ARB20160328021013603/28/16 02:10:31  5-MIN KARB 280710Z AUTO 33006KT 9SM FEW007 SCT060 OVC090 09/08 A2955 1190 93 800 330/06 RMK AO2 RAE06 P0000 T00890078
94889KARB ARB20160328021513603/28/16 02:15:31  5-MIN KARB 280715Z AUTO 31004KT 8SM FEW007 SCT060 OVC090 09/08 A2954 1190 93 800 320/04 RMK AO2 RAE06 P0000 T00890078
94889KARB ARB20160328022012903/28/16 02:20:31  5-MIN KARB 280720Z AUTO 30007KT 8SM FEW007 OVC095 09/08 A2954 1190 93 800 310/07 RMK AO2 RAE06 P0000 T00890078
94889KARB ARB20160328022514303/28/16 02:25:31  5-MIN KARB 280725Z AUTO 25016KT 8SM FEW007 FEW070 OVC095 08/07 A2957 1170 93 700 260/16 RMK AO2 RAE06 PRESRR P0000 T00830072
94889KARB ARB20160328023013603/28/16 02:30:31  5-MIN KARB 280730Z AUTO 26017KT 7SM SCT007 SCT070 OVC090 09/08 A2957 1170 93 800 260/17 RMK AO2 RAE06 P0000 T00890078
94889KARB ARB20160328023512903/28/16 02:35:31  5-MIN KARB 280735Z AUTO 26017KT 7SM BKN007 OVC095 09/08 A2957 1160 93 700 270/17 RMK AO2 RAE06 P0000 T00890078
94889KARB ARB20160328024014603/28/16 02:40:31  5-MIN KARB 280740Z AUTO 26016G23KT 7SM BKN007 OVC095 08/08 A2958 1160 96 700 270/16G23 RMK AO2 WSHFT 0723 RAE06 P0000 T00830078
94889KARB ARB20160328024515303/28/16 02:45:31  5-MIN KARB 280745Z AUTO 27018G24KT 7SM -RA BKN007 OVC100 08/07 A2958 1160 93 700 280/18G24 RMK AO2 WSHFT 0723 RAE06B42 P0000 T00830072
94889KARB ARB20160328025016503/28/16 02:50:31  5-MIN KARB 280750Z AUTO 27017G25KT 8SM -RA OVC007 08/07 A2958 1160 93 700 280/17G25 RMK AO2 WSHFT 0723 RAE06B42 CIG 005V010 SLP016 P0000 T00830072
94889KARB ARB20160328025513803/28/16 02:55:31  5-MIN KARB 280755Z AUTO 27017G25KT 8SM -RA OVC007 08/07 A2958 1160 93 700 280/17G25 RMK AO2 CIG 005V012 P0000 T00830072
94889KARB ARB20160328030013903/28/16 03:00:31  5-MIN KARB 280800Z AUTO 27017KT 7SM -RA BKN008 OVC026 08/07 A2959 1150 93 700 280/17 RMK AO2 CIG 006V012 P0000 T00830072
94889KARB ARB20160328030516603/28/16 03:05:31  5-MIN KARB 280805Z AUTO 27024G32KT 5SM -RA BR BKN008 OVC017 08/07 A2959 1150 93 700 280/24G32 RMK AO2 PK WND 26032/0805 CIG 007V013 P0001 T00830072
94889KARB ARB20160328031017303/28/16 03:10:31  5-MIN KARB 280810Z AUTO 27023G32KT 5SM -RA BR BKN008 BKN015 OVC020 08/07 A2960 1140 93 600 280/23G32 RMK AO2 PK WND 26032/0805 CIG 007V013 P0001 T00780067
94889KARB ARB20160328031517303/28/16 03:15:31  5-MIN KARB 280815Z AUTO 28018G29KT 6SM -RA BR BKN010 BKN015 OVC020 08/06 A2959 1140 89 600 280/18G29 RMK AO2 PK WND 26032/0805 CIG 007V013 P0001 T00780061
94889KARB ARB20160328032017003/28/16 03:20:31  5-MIN KARB 280820Z AUTO 28020G27KT 9SM -RA BKN010 BKN020 OVC026 08/06 A2959 1150 89 600 280/20G27 RMK AO2 PK WND 26032/0805 CIG 008V013 P0001 T00780061
94889KARB ARB20160328032516403/28/16 03:25:31  5-MIN KARB 280825Z AUTO 28016G27KT 10SM -RA BKN010 OVC021 07/06 A2959 1150 93 500 280/16G27 RMK AO2 PK WND 26032/0805 CIG 008V013 P0001 T00720061
94889KARB ARB20160328033017003/28/16 03:30:31  5-MIN KARB 280830Z AUTO 28016G22KT 8SM -RA BKN010 BKN014 OVC021 07/06 A2959 1150 93 500 280/16G22 RMK AO2 PK WND 26032/0805 CIG 008V012 P0001 T00720061
94889KARB ARB20160328033515803/28/16 03:35:31  5-MIN KARB 280835Z AUTO 28014G22KT 7SM -RA BKN010 BKN014 OVC021 07/06 A2959 1150 93 500 290/14G22 RMK AO2 PK WND 26032/0805 P0002 T00720061
94889KARB ARB20160328034014403/28/16 03:40:31  5-MIN KARB 280840Z AUTO 28017G21KT 8SM -RA OVC010 07/06 A2960 1140 93 500 290/17G21 RMK AO2 PK WND 26032/0805 P0002 T00720061
94889KARB ARB20160328034515103/28/16 03:45:31  5-MIN KARB 280845Z AUTO 28014KT 10SM -RA OVC010 07/06 A2960 1140 89 500 290/14 RMK AO2 PK WND 26032/0805 CIG 008V014 P0002 T00720056
94889KARB ARB20160328035017003/28/16 03:50:31  5-MIN KARB 280850Z AUTO 28016KT 10SM -RA OVC010 07/06 A2960 1140 89 500 280/16 RMK AO2 PK WND 26032/0805 CIG 008V014 SLP022 P0002 60005 T00720056 55016
94889KARB ARB20160328035513903/28/16 03:55:31  5-MIN KARB 280855Z AUTO 27019G22KT 10SM -RA OVC010 07/06 A2960 1140 89 500 280/19G22 RMK AO2 CIG 008V014 P0000 T00720056
94889KARB ARB20160328040013703/28/16 04:00:31  5-MIN KARB 280900Z AUTO 28015KT 10SM OVC010 07/06 A2960 1140 93 400 280/15 RMK AO2 RAE0857 CIG 008V014 P0000 T00670056
94889KARB ARB20160328040514303/28/16 04:05:31  5-MIN KARB 280905Z AUTO 28015G22KT 10SM OVC010 07/06 A2961 1130 93 400 290/15G22 RMK AO2 RAE0857 CIG 009V014 P0000 T00670056
94889KARB ARB20160328041013103/28/16 04:10:31  5-MIN KARB 280910Z AUTO 28018G23KT 10SM OVC010 07/06 A2961 1130 93 400 290/18G23 RMK AO2 RAE0857 P0000 T00670056
94889KARB ARB20160328041513103/28/16 04:15:31  5-MIN KARB 280915Z AUTO 28017G24KT 10SM OVC010 07/05 A2961 1130 89 400 290/17G24 RMK AO2 RAE0857 P0000 T00670050
94889KARB ARB20160328042013103/28/16 04:20:31  5-MIN KARB 280920Z AUTO 28016G25KT 10SM OVC010 07/05 A2961 1130 89 400 290/16G25 RMK AO2 RAE0857 P0000 T00670050
94889KARB ARB20160328042513103/28/16 04:25:31  5-MIN KARB 280925Z AUTO 29016G25KT 10SM OVC010 07/05 A2961 1130 89 400 300/16G25 RMK AO2 RAE0857 P0000 T00670050
94889KARB ARB20160328043014903/28/16 04:30:31  5-MIN KARB 280930Z AUTO 29016G26KT 10SM OVC010 07/05 A2961 1130 89 400 290/16G26 RMK AO2 PK WND 28026/0926 RAE0857 P0000 T00670050
94889KARB ARB20160328043514903/28/16 04:35:31  5-MIN KARB 280935Z AUTO 29016G26KT 10SM OVC010 07/05 A2961 1130 89 400 290/16G26 RMK AO2 PK WND 28026/0926 RAE0857 P0000 T00670050
94889KARB ARB20160328044016103/28/16 04:40:31  5-MIN KARB 280940Z AUTO 29019G24KT 10SM OVC010 07/05 A2961 1130 89 400 290/19G24 RMK AO2 PK WND 28026/0926 RAE0857 CIG 009V014 P0000 T00670050
94889KARB ARB20160328044516103/28/16 04:45:31  5-MIN KARB 280945Z AUTO 29014G24KT 10SM OVC010 07/05 A2962 1120 89 400 290/14G24 RMK AO2 PK WND 28026/0926 RAE0857 CIG 009V014 P0000 T00670050
94889KARB ARB20160328045015603/28/16 04:50:31  5-MIN KARB 280950Z AUTO 29015G22KT 10SM OVC010 07/05 A2962 1120 89 400 300/15G22 RMK AO2 PK WND 28026/0926 RAE0857 SLP029 P0000 T00670050
94889KARB ARB20160328045511703/28/16 04:55:31  5-MIN KARB 280955Z AUTO 29016G22KT 10SM OVC010 07/05 A2962 1120 89 400 300/16G22 RMK AO2 T00670050
94889KARB ARB20160328050011703/28/16 05:00:31  5-MIN KARB 281000Z AUTO 28016G25KT 10SM OVC011 07/05 A2962 1120 89 400 290/16G25 RMK AO2 T00670050
94889KARB ARB20160328050513503/28/16 05:05:31  5-MIN KARB 281005Z AUTO 29018G26KT 10SM OVC011 07/05 A2962 1120 89 400 290/18G26 RMK AO2 PK WND 28026/1001 T00670050
94889KARB ARB20160328051013503/28/16 05:10:31  5-MIN KARB 281010Z AUTO 29020G26KT 10SM OVC011 07/05 A2963 1120 89 400 290/20G26 RMK AO2 PK WND 28026/1001 T00670050
94889KARB ARB20160328051513503/28/16 05:15:31  5-MIN KARB 281015Z AUTO 29018G25KT 10SM OVC011 07/05 A2963 1110 89 400 300/18G25 RMK AO2 PK WND 28026/1001 T00670050
94889KARB ARB20160328052014203/28/16 05:20:31  5-MIN KARB 281020Z AUTO 29017G26KT 10SM BKN012 OVC020 07/05 A2963 1110 86 500 300/17G26 RMK AO2 PK WND 30026/1018 T00720050
94889KARB ARB20160328052514903/28/16 05:25:31  5-MIN KARB 281025Z AUTO 30014G26KT 10SM BKN012 BKN017 OVC025 07/05 A2963 1110 86 500 310/14G26 RMK AO2 PK WND 30026/1018 T00720050
94889KARB ARB20160328053014903/28/16 05:30:31  5-MIN KARB 281030Z AUTO 30018G24KT 10SM SCT012 BKN017 OVC025 07/05 A2964 1100 86 500 300/18G24 RMK AO2 PK WND 30026/1018 T00720050
94889KARB ARB20160328053514203/28/16 05:35:31  5-MIN KARB 281035Z AUTO 30016G24KT 10SM SCT014 OVC020 07/05 A2964 1100 89 400 310/16G24 RMK AO2 PK WND 30026/1018 T00670050
94889KARB ARB20160328054013603/28/16 05:40:31  5-MIN KARB 281040Z AUTO 30017KT 10SM BKN016 OVC022 07/04 A2964 1100 86 400 310/17 RMK AO2 PK WND 30026/1018 T00670044
94889KARB ARB20160328054514203/28/16 05:45:31  5-MIN KARB 281045Z AUTO 29020G28KT 10SM BKN016 OVC025 07/04 A2965 1100 86 400 300/20G28 RMK AO2 PK WND 28028/1043 T00670044
94889KARB ARB20160328055014903/28/16 05:50:31  5-MIN KARB 281050Z AUTO 30017G28KT 10SM BKN016 OVC025 07/04 A2965 1090 86 400 300/17G28 RMK AO2 PK WND 28028/1043 SLP041 T00670044
94889KARB ARB20160328055511703/28/16 05:55:31  5-MIN KARB 281055Z AUTO 30017G24KT 10SM OVC016 07/04 A2965 1090 86 400 300/17G24 RMK AO2 T00670044
94889KARB ARB20160328060013503/28/16 06:00:31  5-MIN KARB 281100Z AUTO 30017G28KT 10SM OVC016 07/04 A2966 1080 86 400 300/17G28 RMK AO2 PK WND 29028/1058 T00670044
94889KARB ARB20160328060513503/28/16 06:05:31  5-MIN KARB 281105Z AUTO 30018G28KT 10SM OVC016 07/04 A2966 1080 86 400 310/18G28 RMK AO2 PK WND 29028/1058 T00670044
94889KARB ARB20160328061013503/28/16 06:10:31  5-MIN KARB 281110Z AUTO 30018G24KT 10SM OVC016 07/04 A2967 1080 86 400 310/18G24 RMK AO2 PK WND 29028/1058 T00670044
94889KARB ARB20160328061515103/28/16 06:15:31  5-MIN KARB 281115Z AUTO 30014G24KT 10SM -RA OVC014 07/04 A2967 1070 86 400 300/14G24 RMK AO2 PK WND 29028/1058 RAB11 P0000 T00670044
94889KARB ARB20160328062015803/28/16 06:20:31  5-MIN KARB 281120Z AUTO 30020G29KT 10SM -RA BKN014 OVC020 07/04 A2968 1070 82 400 310/20G29 RMK AO2 PK WND 30029/1119 RAB11 P0000 T00670039
94889KARB ARB20160328062515803/28/16 06:25:31  5-MIN KARB 281125Z AUTO 30019G31KT 10SM -RA BKN016 OVC022 06/03 A2968 1060 82 300 310/19G31 RMK AO2 PK WND 30031/1124 RAB11 P0000 T00610033
94889KARB ARB20160328063015103/28/16 06:30:31  5-MIN KARB 281130Z AUTO 30019G31KT 10SM -RA OVC018 06/04 A2969 1060 86 300 310/19G31 RMK AO2 PK WND 30031/1124 RAB11 P0000 T00610039
94889KARB ARB20160328063515803/28/16 06:35:31  5-MIN KARB 281135Z AUTO 30014G27KT 10SM -RA BKN018 OVC022 06/04 A2969 1050 86 300 310/14G27 RMK AO2 PK WND 30031/1124 RAB11 P0000 T00610039
94889KARB ARB20160328064015103/28/16 06:40:31  5-MIN KARB 281140Z AUTO 30016G29KT 10SM -RA OVC018 06/04 A2970 1050 86 300 300/16G29 RMK AO2 PK WND 30031/1124 RAB11 P0000 T00610039
94889KARB ARB20160328064515003/28/16 06:45:31  5-MIN KARB 281145Z AUTO 30019G29KT 10SM OVC019 06/04 A2970 1040 86 300 310/19G29 RMK AO2 PK WND 30031/1124 RAB11E42 P0000 T00610039
94889KARB ARB20160328065019503/28/16 06:50:31  5-MIN KARB 281150Z AUTO 29019G28KT 10SM -RA BKN017 OVC023 06/04 A2971 1040 86 300 300/19G28 RMK AO2 PK WND 30031/1124 RAB11 SLP061 P0000 60005 70054 T00610039 10094 20061 53011
94889KARB ARB20160328065512203/28/16 06:55:31  5-MIN KARB 281155Z 30016G24KT 10SM -RA OVC017 06/04 A2971 1030 86 300 310/16G24 RMK AO2 P0000 T00610039
94889KARB ARB20160328070013303/28/16 07:00:31  5-MIN KARB 281200Z 30016G24KT 10SM OVC017 06/04 A2972 1030 86 200 310/16G24 RMK AO2 RAE1158 PRESRR P0000 T00610039
94889KARB ARB20160328070512603/28/16 07:05:31  5-MIN KARB 281205Z 30015G25KT 10SM OVC017 06/04 A2972 1030 86 200 310/15G25 RMK AO2 RAE1158 P0000 T00610039
94889KARB ARB20160328071014703/28/16 07:10:31  5-MIN KARB 281210Z 30018G29KT 10SM -RA BKN017 OVC021 06/03 A2973 1020 82 200 310/18G29 RMK AO2 PK WND 29029/1208 P0000 T00610033
94889KARB ARB20160328071514703/28/16 07:15:31  5-MIN KARB 281215Z 30015G29KT 10SM -RA BKN017 OVC025 06/03 A2973 1020 82 200 310/15G29 RMK AO2 PK WND 28029/1215 P0000 T00610033
94889KARB ARB20160328072014703/28/16 07:20:31  5-MIN KARB 281220Z 31015G29KT 10SM -RA BKN017 OVC025 06/03 A2973 1010 85 200 320/15G29 RMK AO2 PK WND 28029/1215 P0000 T00560033
94889KARB ARB20160328072514703/28/16 07:25:31  5-MIN KARB 281225Z 31018G28KT 10SM -RA BKN017 OVC025 06/03 A2974 1010 85 200 310/18G28 RMK AO2 PK WND 28029/1215 P0000 T00560033
94889KARB ARB20160328073014703/28/16 07:30:31  5-MIN KARB 281230Z 31019G28KT 10SM -RA BKN017 OVC024 06/03 A2974 1010 85 200 320/19G28 RMK AO2 PK WND 28029/1215 P0000 T00560033
94889KARB ARB20160328073515403/28/16 07:35:31  5-MIN KARB 281235Z 32016G25KT 10SM -RA BKN017 BKN024 OVC033 06/03 A2974 1000 85 100 330/16G25 RMK AO2 PK WND 28029/1215 P0000 T00560033
94889KARB ARB20160328074014903/28/16 07:40:31  5-MIN KARB 281240Z 31014G25KT 10SM BKN017 OVC024 06/03 A2975 1000 85 100 320/14G25 RMK AO2 PK WND 28029/1215 RAE38 P0000 T00560033
94889KARB ARB20160328074514703/28/16 07:45:31  5-MIN KARB 281245Z 30017G25KT 10SM -RA BKN015 OVC021 06/04 A2975 1000 89 100 310/17G25 RMK AO2 PK WND 28029/1215 P0000 T00560039
94889KARB ARB20160328075015303/28/16 07:50:31  5-MIN KARB 281250Z 31014G25KT 10SM -RA BKN015 OVC020 06/03 A2976 990 85 100 320/14G25 RMK AO2 PK WND 28029/1215 SLP078 P0000 T00560033
94889KARB ARB20160328075513003/28/16 07:55:31  5-MIN KARB 281255Z 31013G21KT 10SM BKN017 OVC022 06/04 A2976 990 89 100 320/13G21 RMK AO2 RAE54 P0000 T00560039
94889KARB ARB20160328080013903/28/16 08:00:31  5-MIN KARB 281300Z 31014G21KT 10SM BKN017 BKN022 OVC026 06/04 A2976 990 89 100 320/14G21 RMK AO2 RAE1254 P0000 T00560039
94889KARB ARB20160328080513203/28/16 08:05:31  5-MIN KARB 281305Z 31012G22KT 10SM BKN016 OVC022 06/04 A2977 980 86 200 320/12G22 RMK AO2 RAE1254 P0000 T00610039
94889KARB ARB20160328081013203/28/16 08:10:31  5-MIN KARB 281310Z 31011G22KT 10SM BKN016 OVC023 06/04 A2977 980 86 200 320/11G22 RMK AO2 RAE1254 P0000 T00610039
94889KARB ARB20160328081513103/28/16 08:15:31  5-MIN KARB 281315Z 32013G19KT 7SM BKN016 OVC021 06/04 A2977 980 86 200 320/13G19 RMK AO2 RAE1254 P0000 T00610039
94889KARB ARB20160328082013103/28/16 08:20:31  5-MIN KARB 281320Z 32014G21KT 7SM BKN016 OVC021 06/04 A2978 970 86 200 330/14G21 RMK AO2 RAE1254 P0000 T00610039
94889KARB ARB20160328082513403/28/16 08:25:31  5-MIN KARB 281325Z 32008G21KT 6SM -RA BR OVC016 06/04 A2978 970 86 200 320/08G21 RMK AO2 RAE1254B21 P0001 T00610039
94889KARB ARB20160328083014103/28/16 08:30:31  5-MIN KARB 281330Z 31011G17KT 6SM -RA BR BKN013 OVC019 06/04 A2978 970 92 100 320/11G17 RMK AO2 RAE1254B21 P0001 T00560044
94889KARB ARB20160328083513803/28/16 08:35:31  5-MIN KARB 281335Z 31012G18KT 8SM -RA BKN013 OVC019 06/04 A2978 970 89 200 310/12G18 RMK AO2 RAE1254B21 P0001 T00610044
94889KARB ARB20160328084013703/28/16 08:40:31  5-MIN KARB 281340Z 31015G23KT 9SM BKN013 OVC019 06/04 A2979 960 86 200 320/15G23 RMK AO2 RAE1254B21E40 P0001 T00610039
94889KARB ARB20160328084513103/28/16 08:45:31  5-MIN KARB 281345Z 31013G23KT 10SM OVC015 06/04 A2979 960 86 200 320/13G23 RMK AO2 RAE1254B21E40 P0001 T00610039
94889KARB ARB20160328085013803/28/16 08:50:31  5-MIN KARB 281350Z 31015G23KT 10SM OVC015 06/04 A2980 960 86 200 320/15G23 RMK AO2 RAE1254B21E40 SLP092 P0001 T00610039
94889KARB ARB20160328085511103/28/16 08:55:31  5-MIN KARB 281355Z 30015G23KT 10SM OVC015 06/04 A2980 950 86 200 310/15G23 RMK AO2 T00610039
94889KARB ARB20160328090012903/28/16 09:00:31  5-MIN KARB 281400Z 31015G27KT 10SM OVC017 06/03 A2980 950 82 200 320/15G27 RMK AO2 PK WND 31027/1356 T00610033
94889KARB ARB20160328090512903/28/16 09:05:31  5-MIN KARB 281405Z 33018G27KT 10SM OVC019 06/03 A2980 950 82 100 330/18G27 RMK AO2 PK WND 31027/1403 T00610033
94889KARB ARB20160328091013603/28/16 09:10:31  5-MIN KARB 281410Z 31014G27KT 10SM BKN019 OVC025 07/03 A2980 950 79 200 320/14G27 RMK AO2 PK WND 31027/1403 T00670033
94889KARB ARB20160328091513603/28/16 09:15:31  5-MIN KARB 281415Z 32015G31KT 10SM BKN019 OVC025 07/03 A2981 950 79 200 330/15G31 RMK AO2 PK WND 33031/1413 T00670033
94889KARB ARB20160328092012903/28/16 09:20:31  5-MIN KARB 281420Z 31016G31KT 10SM OVC023 07/03 A2981 940 79 200 310/16G31 RMK AO2 PK WND 33031/1413 T00670033
94889KARB ARB20160328092512903/28/16 09:25:31  5-MIN KARB 281425Z 31014G23KT 10SM OVC022 07/03 A2981 940 79 200 320/14G23 RMK AO2 PK WND 33031/1413 T00670033
94889KARB ARB20160328093013603/28/16 09:30:31  5-MIN KARB 281430Z 31014G22KT 10SM BKN022 OVC026 07/03 A2982 940 79 200 320/14G22 RMK AO2 PK WND 33031/1413 T00670033
94889KARB ARB20160328093513603/28/16 09:35:31  5-MIN KARB 281435Z 33019G25KT 10SM BKN021 OVC028 07/03 A2982 930 79 200 340/19G25 RMK AO2 PK WND 33031/1413 T00670033
94889KARB ARB20160328094014303/28/16 09:40:31  5-MIN KARB 281440Z 32015G25KT 10SM BKN021 BKN027 OVC033 07/03 A2982 930 76 300 320/15G25 RMK AO2 PK WND 33031/1413 T00720033
94889KARB ARB20160328094513603/28/16 09:45:31  5-MIN KARB 281445Z 32015G24KT 10SM BKN021 OVC030 07/03 A2983 930 76 200 330/15G24 RMK AO2 PK WND 33031/1413 T00670028
94889KARB ARB20160328095016203/28/16 09:50:31  5-MIN KARB 281450Z 31011G23KT 10SM FEW015 BKN020 OVC033 07/03 A2983 920 76 200 320/11G23 RMK AO2 PK WND 33031/1413 SLP104 60001 T00670028 53036
94889KARB ARB20160328095512503/28/16 09:55:31  5-MIN KARB 281455Z 30016G23KT 10SM BKN017 BKN022 OVC033 07/03 A2983 920 79 200 310/16G23 RMK AO2 T00670033
94889KARB ARB20160328100012503/28/16 10:00:31  5-MIN KARB 281500Z 31014G23KT 10SM SCT017 BKN024 OVC032 07/03 A2984 920 79 200 310/14G23 RMK AO2 T00670033
94889KARB ARB20160328100514303/28/16 10:05:31  5-MIN KARB 281505Z 32017G27KT 10SM SCT017 BKN024 OVC030 07/03 A2984 910 79 200 330/17G27 RMK AO2 PK WND 32027/1505 T00670033
94889KARB ARB20160328101014303/28/16 10:10:31  5-MIN KARB 281510Z 31013G27KT 10SM BKN017 BKN023 OVC030 07/03 A2985 910 79 200 310/13G27 RMK AO2 PK WND 32027/1505 T00670033
94889KARB ARB20160328101513003/28/16 10:15:31  5-MIN KARB 281515Z 31013KT 10SM BKN019 OVC027 07/03 A2985 900 79 200 320/13 RMK AO2 PK WND 32027/1505 T00670033
94889KARB ARB20160328102013603/28/16 10:20:31  5-MIN KARB 281520Z 30016G21KT 10SM BKN019 OVC026 07/03 A2986 900 76 200 310/16G21 RMK AO2 PK WND 32027/1505 T00670028
94889KARB ARB20160328102513603/28/16 10:25:31  5-MIN KARB 281525Z 31014G21KT 10SM BKN019 OVC027 07/03 A2986 900 76 100 310/14G21 RMK AO2 PK WND 32027/1505 T00670028
94889KARB ARB20160328103013603/28/16 10:30:31  5-MIN KARB 281530Z 31015G24KT 10SM BKN019 OVC027 06/03 A2986 890 79 100 310/15G24 RMK AO2 PK WND 32027/1505 T00610028
94889KARB ARB20160328103512903/28/16 10:35:31  5-MIN KARB 281535Z 32015G24KT 10SM OVC019 06/03 A2987 890 79 100 330/15G24 RMK AO2 PK WND 32027/1505 T00610028
94889KARB ARB20160328104013603/28/16 10:40:31  5-MIN KARB 281540Z 31012G22KT 10SM BKN020 OVC026 07/03 A2987 890 76 100 310/12G22 RMK AO2 PK WND 32027/1505 T00670028
94889KARB ARB20160328104513603/28/16 10:45:31  5-MIN KARB 281545Z 32013G18KT 10SM BKN020 OVC026 07/03 A2987 890 76 100 320/13G18 RMK AO2 PK WND 32027/1505 T00670028
94889KARB ARB20160328105014303/28/16 10:50:31  5-MIN KARB 281550Z 31012G17KT 10SM BKN020 OVC026 06/03 A2988 880 79 100 310/12G17 RMK AO2 PK WND 32027/1505 SLP120 T00610028
94889KARB ARB20160328105511103/28/16 10:55:31  5-MIN KARB 281555Z 30011G22KT 10SM OVC020 06/03 A2988 880 79 100 310/11G22 RMK AO2 T00610028
94889KARB ARB20160328110011103/28/16 11:00:31  5-MIN KARB 281600Z 31012G22KT 10SM OVC019 07/03 A2988 880 79 100 320/12G22 RMK AO2 T00670033
94889KARB ARB20160328110511803/28/16 11:05:31  5-MIN KARB 281605Z 30013G19KT 10SM BKN017 OVC026 06/03 A2988 880 82 100 310/13G19 RMK AO2 T00610033
94889KARB ARB20160328111011803/28/16 11:10:31  5-MIN KARB 281610Z 29016G24KT 10SM BKN017 OVC026 06/03 A2989 870 82 100 300/16G24 RMK AO2 T00610033
94889KARB ARB20160328111510903/28/16 11:15:31  5-MIN KARB 281615Z 30013G24KT 10SM OVC017 06/03 A2989 870 82 0 310/13G24 RMK AO2 T00560028
94889KARB ARB20160328112010303/28/16 11:20:31  5-MIN KARB 281620Z 30014KT 10SM OVC015 06/03 A2989 870 82 0 310/14 RMK AO2 T00560028
94889KARB ARB20160328112510903/28/16 11:25:31  5-MIN KARB 281625Z 30016G21KT 10SM OVC015 06/03 A2990 860 82 0 300/16G21 RMK AO2 T00560028
94889KARB ARB20160328113010903/28/16 11:30:31  5-MIN KARB 281630Z 30015G21KT 10SM OVC015 06/03 A2990 860 82 0 310/15G21 RMK AO2 T00560028
94889KARB ARB20160328113510903/28/16 11:35:31  5-MIN KARB 281635Z 31015G20KT 10SM OVC013 06/03 A2990 860 82 0 310/15G20 RMK AO2 T00560028
94889KARB ARB20160328114010903/28/16 11:40:31  5-MIN KARB 281640Z 30016G23KT 10SM OVC013 06/03 A2990 860 82 0 310/16G23 RMK AO2 T00560028
94889KARB ARB20160328114510903/28/16 11:45:31  5-MIN KARB 281645Z 30016G23KT 10SM OVC015 06/03 A2991 850 82 0 310/16G23 RMK AO2 T00560028
94889KARB ARB20160328115011603/28/16 11:50:31  5-MIN KARB 281650Z 31013G21KT 10SM OVC015 06/03 A2991 850 79 0 320/13G21 RMK AO2 SLP132 T00610028
94889KARB ARB20160328115510903/28/16 11:55:31  5-MIN KARB 281655Z 32013G21KT 10SM OVC017 06/02 A2991 850 76 0 320/13G21 RMK AO2 T00610022
94889KARB ARB20160328120010903/28/16 12:00:31  5-MIN KARB 281700Z 31013G23KT 10SM OVC017 06/02 A2991 850 76 0 320/13G23 RMK AO2 T00610022
94889KARB ARB20160328120510903/28/16 12:05:31  5-MIN KARB 281705Z 32016G23KT 10SM OVC019 06/02 A2992 850 76 0 330/16G23 RMK AO2 T00610022
94889KARB ARB20160328121010903/28/16 12:10:31  5-MIN KARB 281710Z 32014G23KT 10SM OVC019 06/02 A2992 840 76 0 330/14G23 RMK AO2 T00610022
94889KARB ARB20160328121510903/28/16 12:15:31  5-MIN KARB 281715Z 32013G24KT 10SM OVC019 06/02 A2992 840 76 0 330/13G24 RMK AO2 T00610022
94889KARB ARB20160328122010903/28/16 12:20:31  5-MIN KARB 281720Z 32013G24KT 10SM OVC019 06/02 A2992 840 76 0 320/13G24 RMK AO2 T00610022
94889KARB ARB20160328122510903/28/16 12:25:31  5-MIN KARB 281725Z 32015G22KT 10SM OVC020 06/02 A2993 840 76 0 320/15G22 RMK AO2 T00610022
94889KARB ARB20160328123011103/28/16 12:30:31  5-MIN KARB 281730Z 33015G21KT 10SM OVC020 07/02 A2993 840 73 100 330/15G21 RMK AO2 T00670022
94889KARB ARB20160328123512703/28/16 12:35:31  5-MIN KARB 281735Z 31015G26KT 10SM OVC020 06/02 A2993 830 76 0 320/15G26 RMK AO2 PK WND 32026/1732 T00610022
94889KARB ARB20160328124012703/28/16 12:40:31  5-MIN KARB 281740Z 31014G26KT 10SM OVC020 06/02 A2994 830 76 0 310/14G26 RMK AO2 PK WND 32026/1732 T00610022
94889KARB ARB20160328124512903/28/16 12:45:31  5-MIN KARB 281745Z 32012G23KT 10SM OVC019 07/02 A2994 820 73 100 330/12G23 RMK AO2 PK WND 32026/1732 T00670022
94889KARB ARB20160328125016003/28/16 12:50:31  5-MIN KARB 281750Z 31014G19KT 10SM OVC019 07/02 A2994 820 73 100 320/14G19 RMK AO2 PK WND 32026/1732 SLP142 60001 T00670022 10072 20056 51025
94889KARB ARB20160328125511103/28/16 12:55:31  5-MIN KARB 281755Z 31011G20KT 10SM OVC020 07/02 A2994 820 73 100 320/11G20 RMK AO2 T00670022
94889KARB ARB20160328130011103/28/16 13:00:31  5-MIN KARB 281800Z 31012G20KT 10SM OVC020 07/03 A2994 820 73 100 320/12G20 RMK AO2 T00720028
94889KARB ARB20160328130511103/28/16 13:05:31  5-MIN KARB 281805Z 32011G20KT 10SM OVC020 07/03 A2994 820 73 100 330/11G20 RMK AO2 T00720028
94889KARB ARB20160328131011103/28/16 13:10:31  5-MIN KARB 281810Z 30016G20KT 10SM OVC020 07/03 A2994 820 73 100 310/16G20 RMK AO2 T00720028
94889KARB ARB20160328131511103/28/16 13:15:31  5-MIN KARB 281815Z 31012G24KT 10SM OVC023 07/03 A2995 820 73 100 320/12G24 RMK AO2 T00720028
94889KARB ARB20160328132011103/28/16 13:20:31  5-MIN KARB 281820Z 31014G24KT 10SM OVC023 07/02 A2995 810 70 100 320/14G24 RMK AO2 T00720022
94889KARB ARB20160328132511103/28/16 13:25:31  5-MIN KARB 281825Z 32011G19KT 10SM OVC021 07/03 A2995 810 73 100 330/11G19 RMK AO2 T00720028
94889KARB ARB20160328133011103/28/16 13:30:31  5-MIN KARB 281830Z 33012G19KT 10SM OVC023 07/03 A2996 810 73 100 330/12G19 RMK AO2 T00720028
94889KARB ARB20160328133511103/28/16 13:35:31  5-MIN KARB 281835Z 32013G20KT 10SM OVC023 07/02 A2996 810 70 100 320/13G20 RMK AO2 T00720022
94889KARB ARB20160328134011103/28/16 13:40:31  5-MIN KARB 281840Z 32011G20KT 10SM OVC023 07/02 A2996 800 70 100 330/11G20 RMK AO2 T00720022
94889KARB ARB20160328134511103/28/16 13:45:31  5-MIN KARB 281845Z 31014G18KT 10SM OVC021 07/02 A2996 800 70 100 320/14G18 RMK AO2 T00720022
94889KARB ARB20160328135013203/28/16 13:50:31  5-MIN KARB 281850Z 31015G21KT 260V330 10SM OVC021 07/02 A2997 800 73 0 310/15G21 270V340 RMK AO2 SLP152 T00670022
94889KARB ARB20160328135510903/28/16 13:55:31  5-MIN KARB 281855Z 31013G21KT 10SM OVC021 07/02 A2997 800 73 0 320/13G21 RMK AO2 T00670022
94889KARB ARB20160328140011803/28/16 14:00:31  5-MIN KARB 281900Z 31012G19KT 10SM BKN021 OVC029 07/03 A2997 790 73 100 320/12G19 RMK AO2 T00720028
94889KARB ARB20160328140511803/28/16 14:05:31  5-MIN KARB 281905Z 31014G20KT 10SM BKN021 OVC029 07/02 A2997 790 70 100 320/14G20 RMK AO2 T00720022
94889KARB ARB20160328141011803/28/16 14:10:31  5-MIN KARB 281910Z 31012G20KT 10SM BKN023 OVC027 07/02 A2998 790 70 100 310/12G20 RMK AO2 T00720022
94889KARB ARB20160328141511103/28/16 14:15:31  5-MIN KARB 281915Z 31016G20KT 10SM OVC025 07/02 A2998 790 70 100 320/16G20 RMK AO2 T00720022
94889KARB ARB20160328142011103/28/16 14:20:31  5-MIN KARB 281920Z 33013G20KT 10SM OVC025 07/02 A2998 790 70 100 340/13G20 RMK AO2 T00720022
94889KARB ARB20160328142511103/28/16 14:25:31  5-MIN KARB 281925Z 32015G19KT 10SM OVC025 07/02 A2998 790 68 100 330/15G19 RMK AO2 T00720017
94889KARB ARB20160328143011103/28/16 14:30:31  5-MIN KARB 281930Z 31011G19KT 10SM OVC025 07/02 A2998 790 70 100 320/11G19 RMK AO2 T00720022
94889KARB ARB20160328143511803/28/16 14:35:31  5-MIN KARB 281935Z 32010G18KT 10SM BKN025 OVC030 07/02 A2998 780 70 100 320/10G18 RMK AO2 T00720022
94889KARB ARB20160328144011803/28/16 14:40:31  5-MIN KARB 281940Z 30014G18KT 10SM BKN025 OVC030 07/03 A2999 780 73 100 310/14G18 RMK AO2 T00720028
94889KARB ARB20160328144511803/28/16 14:45:31  5-MIN KARB 281945Z 30010G18KT 10SM BKN025 OVC033 07/02 A2999 780 70 100 310/10G18 RMK AO2 T00720022
94889KARB ARB20160328145011903/28/16 14:50:31  5-MIN KARB 281950Z 30012KT 10SM BKN025 OVC030 07/03 A2999 780 73 100 310/12 RMK AO2 SLP159 T00720028
94889KARB ARB20160328145511803/28/16 14:55:31  5-MIN KARB 281955Z 29015G19KT 10SM BKN021 OVC027 07/03 A2999 780 73 100 300/15G19 RMK AO2 T00720028
94889KARB ARB20160328150011603/28/16 15:00:31  5-MIN KARB 282000Z 31013G19KT 10SM BKN021 OVC027 07/02 A2999 770 73 0 320/13G19 RMK AO2 T00670022
94889KARB ARB20160328150510503/28/16 15:05:31  5-MIN KARB 282005Z 30010KT 10SM OVC021 07/02 A3000 770 70 100 310/10 RMK AO2 T00720022
94889KARB ARB20160328151011803/28/16 15:10:31  5-MIN KARB 282010Z 31010G18KT 10SM BKN021 OVC027 07/02 A3000 770 70 100 310/10G18 RMK AO2 T00720022
94889KARB ARB20160328151511803/28/16 15:15:31  5-MIN KARB 282015Z 31011G18KT 10SM BKN021 OVC027 07/02 A3000 760 70 100 310/11G18 RMK AO2 T00720022
94889KARB ARB20160328152011803/28/16 15:20:31  5-MIN KARB 282020Z 30014G20KT 10SM BKN021 OVC029 07/02 A3000 760 70 100 310/14G20 RMK AO2 T00720022
94889KARB ARB20160328152511603/28/16 15:25:31  5-MIN KARB 282025Z 32010G20KT 10SM BKN021 OVC028 07/02 A3001 760 70 0 330/10G20 RMK AO2 T00720022
94889KARB ARB20160328153012503/28/16 15:30:31  5-MIN KARB 282030Z 31011G19KT 10SM BKN021 BKN030 OVC035 07/02 A3000 760 70 100 320/11G19 RMK AO2 T00720022
94889KARB ARB20160328153512503/28/16 15:35:31  5-MIN KARB 282035Z 33011G16KT 10SM SCT022 BKN033 OVC041 08/02 A3000 760 68 100 330/11G16 RMK AO2 T00780022
94889KARB ARB20160328154011903/28/16 15:40:31  5-MIN KARB 282040Z 33013KT 10SM SCT022 BKN033 OVC041 08/02 A3000 760 68 100 330/13 RMK AO2 T00780022
94889KARB ARB20160328154512503/28/16 15:45:31  5-MIN KARB 282045Z 33011G17KT 10SM FEW022 SCT033 OVC041 08/02 A3000 760 68 100 330/11G17 RMK AO2 T00780022
94889KARB ARB20160328155013203/28/16 15:50:31  5-MIN KARB 282050Z 32011KT 10SM FEW022 BKN035 OVC042 08/02 A3001 760 65 100 330/11 RMK AO2 SLP165 T00780017 51020
94889KARB ARB20160328155512303/28/16 15:55:31  5-MIN KARB 282055Z AUTO 30012G18KT 10SM SCT030 OVC039 08/02 A3001 760 65 100 310/12G18 RMK AO2 T00780017
94889KARB ARB20160328160011703/28/16 16:00:31  5-MIN KARB 282100Z AUTO 31011KT 10SM BKN030 OVC039 08/02 A3001 760 65 100 320/11 RMK AO2 T00780017
94889KARB ARB20160328160512303/28/16 16:05:31  5-MIN KARB 282105Z AUTO 31013G21KT 10SM BKN030 OVC041 08/02 A3001 760 65 100 320/13G21 RMK AO2 T00780017
94889KARB ARB20160328161012303/28/16 16:10:31  5-MIN KARB 282110Z AUTO 31009G21KT 10SM BKN030 OVC038 08/02 A3001 760 65 100 320/09G21 RMK AO2 T00780017
94889KARB ARB20160328161511703/28/16 16:15:31  5-MIN KARB 282115Z AUTO 31011KT 10SM SCT028 OVC038 08/02 A3001 750 65 100 320/11 RMK AO2 T00780017
94889KARB ARB20160328162012103/28/16 16:20:31  5-MIN KARB 282120Z AUTO 30013G18KT 10SM FEW028 OVC038 07/02 A3002 750 70 0 310/13G18 RMK AO2 T00720022
94889KARB ARB20160328162512103/28/16 16:25:31  5-MIN KARB 282125Z AUTO 31012G18KT 10SM SCT030 OVC040 07/02 A3002 750 70 0 310/12G18 RMK AO2 T00720022
94889KARB ARB20160328163012203/28/16 16:30:31  5-MIN KARB 282130Z AUTO 32010KT 10SM FEW024 SCT030 OVC040 07/02 A3002 750 70 0 320/10 RMK AO2 T00720022
94889KARB ARB20160328163512203/28/16 16:35:31  5-MIN KARB 282135Z AUTO 31011KT 10SM SCT022 BKN030 OVC039 07/02 A3003 740 70 0 320/11 RMK AO2 T00720022
94889KARB ARB20160328164012203/28/16 16:40:31  5-MIN KARB 282140Z AUTO 31012KT 10SM BKN022 BKN030 OVC039 07/02 A3003 740 70 0 310/12 RMK AO2 T00720022
94889KARB ARB20160328164512203/28/16 16:45:31  5-MIN KARB 282145Z AUTO 32007KT 10SM BKN022 BKN030 OVC039 07/02 A3003 740 70 0 320/07 RMK AO2 T00720022
94889KARB ARB20160328165012203/28/16 16:50:31  5-MIN KARB 282150Z AUTO 30011KT 10SM BKN022 OVC030 07/02 A3003 740 70 0 310/11 RMK AO2 SLP174 T00720022
94889KARB ARB20160328165510803/28/16 16:55:31  5-MIN KARB 282155Z AUTO 29012KT 10SM OVC023 07/02 A3004 730 73 0 300/12 RMK AO2 T00670022
94889KARB ARB20160328170010803/28/16 17:00:31  5-MIN KARB 282200Z AUTO 30010KT 10SM OVC023 07/02 A3004 730 73 0 310/10 RMK AO2 T00670022
94889KARB ARB20160328170510803/28/16 17:05:31  5-MIN KARB 282205Z AUTO 30006KT 10SM OVC023 07/03 A3004 730 76 0 310/06 RMK AO2 T00670028
94889KARB ARB20160328171010803/28/16 17:10:31  5-MIN KARB 282210Z AUTO 30010KT 10SM OVC023 07/03 A3004 730 76 0 300/10 RMK AO2 T00670028
94889KARB ARB20160328171510803/28/16 17:15:31  5-MIN KARB 282215Z AUTO 30010KT 10SM OVC021 07/02 A3005 730 73 0 310/10 RMK AO2 T00670022
94889KARB ARB20160328172010803/28/16 17:20:31  5-MIN KARB 282220Z AUTO 30009KT 10SM OVC021 07/02 A3005 720 73 0 310/09 RMK AO2 T00670022
94889KARB ARB20160328172510803/28/16 17:25:31  5-MIN KARB 282225Z AUTO 31011KT 10SM OVC021 07/02 A3005 720 73 0 320/11 RMK AO2 T00670022
94889KARB ARB20160328173010803/28/16 17:30:31  5-MIN KARB 282230Z AUTO 30010KT 10SM OVC021 07/02 A3005 720 73 0 310/10 RMK AO2 T00670022
94889KARB ARB20160328173510803/28/16 17:35:31  5-MIN KARB 282235Z AUTO 29011KT 10SM OVC021 07/02 A3005 720 73 0 300/11 RMK AO2 T00670022
94889KARB ARB20160328174010803/28/16 17:40:31  5-MIN KARB 282240Z AUTO 30012KT 10SM OVC021 07/02 A3005 720 73 0 310/12 RMK AO2 T00670022
94889KARB ARB20160328174510803/28/16 17:45:31  5-MIN KARB 282245Z AUTO 31010KT 10SM OVC021 07/02 A3005 720 73 0 320/10 RMK AO2 T00670022
94889KARB ARB20160328175011503/28/16 17:50:31  5-MIN KARB 282250Z AUTO 30010KT 10SM OVC023 07/02 A3005 720 73 0 310/10 RMK AO2 SLP181 T00670022
94889KARB ARB20160328175510803/28/16 17:55:31  5-MIN KARB 282255Z AUTO 30009KT 10SM OVC023 07/02 A3005 720 73 0 310/09 RMK AO2 T00670022
94889KARB ARB20160328180010803/28/16 18:00:31  5-MIN KARB 282300Z AUTO 30008KT 10SM OVC023 07/02 A3005 720 73 0 310/08 RMK AO2 T00670022
94889KARB ARB20160328180510803/28/16 18:05:31  5-MIN KARB 282305Z AUTO 30010KT 10SM OVC021 07/03 A3005 720 76 0 300/10 RMK AO2 T00670028
94889KARB ARB20160328181010803/28/16 18:10:31  5-MIN KARB 282310Z AUTO 30009KT 10SM OVC021 07/02 A3006 720 73 0 310/09 RMK AO2 T00670022
94889KARB ARB20160328181510803/28/16 18:15:31  5-MIN KARB 282315Z AUTO 30011KT 10SM OVC021 07/02 A3006 710 73 0 310/11 RMK AO2 T00670022
94889KARB ARB20160328182010803/28/16 18:20:31  5-MIN KARB 282320Z AUTO 31009KT 10SM OVC021 07/03 A3006 710 76 0 310/09 RMK AO2 T00670028
94889KARB ARB20160328182510803/28/16 18:25:31  5-MIN KARB 282325Z AUTO 30009KT 10SM OVC021 07/03 A3006 710 76 0 310/09 RMK AO2 T00670028
94889KARB ARB20160328183011503/28/16 18:30:31  5-MIN KARB 282330Z AUTO 31012KT 10SM BKN020 OVC041 07/02 A3006 720 73 0 310/12 RMK AO2 T00670022
94889KARB ARB20160328183512203/28/16 18:35:31  5-MIN KARB 282335Z AUTO 31009KT 10SM BKN020 BKN027 OVC041 07/02 A3006 710 73 0 320/09 RMK AO2 T00670022
94889KARB ARB20160328184012503/28/16 18:40:31  5-MIN KARB 282340Z AUTO 31011KT 10SM BKN020 BKN027 OVC043 06/02 A3006 710 76 -100 310/11 RMK AO2 T00610022
94889KARB ARB20160328184512003/28/16 18:45:31  5-MIN KARB 282345Z 31008KT 10SM SCT022 BKN027 OVC046 06/02 A3006 710 76 -100 320/08 RMK AO2 T00610022
94889KARB ARB20160328185014503/28/16 18:50:31  5-MIN KARB 282350Z 31009KT 10SM FEW022 BKN027 OVC044 06/02 A3006 710 76 -100 320/09 RMK AO2 SLP185 T00610022 10078 20061 51022
94889KARB ARB20160328185512003/28/16 18:55:31  5-MIN KARB 282355Z 31008KT 10SM FEW022 SCT027 OVC044 06/02 A3007 700 76 -100 320/08 RMK AO2 T00610022
94889KARB ARB20160328190011803/28/16 19:00:31  5-MIN KARB 290000Z AUTO 31009KT 10SM FEW027 OVC044 06/02 A3007 700 76 -100 320/09 RMK AO2 T00610022
94889KARB ARB20160328190511803/28/16 19:05:31  5-MIN KARB 290005Z AUTO 31010KT 10SM FEW027 OVC045 06/02 A3007 700 76 -100 310/10 RMK AO2 T00610022
94889KARB ARB20160328191011103/28/16 19:10:31  5-MIN KARB 290010Z AUTO 32008KT 10SM BKN047 06/02 A3007 700 73 -100 330/08 RMK AO2 T00610017
94889KARB ARB20160328191511103/28/16 19:15:31  5-MIN KARB 290015Z AUTO 31007KT 10SM BKN047 06/02 A3007 700 73 -100 320/07 RMK AO2 T00610017
94889KARB ARB20160328192011103/28/16 19:20:31  5-MIN KARB 290020Z AUTO 32008KT 10SM BKN046 06/02 A3007 700 73 -100 320/08 RMK AO2 T00610017
94889KARB ARB20160328192511103/28/16 19:25:31  5-MIN KARB 290025Z AUTO 32007KT 10SM BKN046 06/02 A3008 700 76 -200 330/07 RMK AO2 T00560017
94889KARB ARB20160328193011103/28/16 19:30:31  5-MIN KARB 290030Z AUTO 32008KT 10SM BKN046 06/02 A3007 700 76 -200 320/08 RMK AO2 T00560017
94889KARB ARB20160328193511103/28/16 19:35:31  5-MIN KARB 290035Z AUTO 32007KT 10SM SCT046 06/02 A3008 700 76 -200 330/07 RMK AO2 T00560017
94889KARB ARB20160328194011103/28/16 19:40:31  5-MIN KARB 290040Z AUTO 32007KT 10SM SCT046 05/02 A3008 690 79 -300 330/07 RMK AO2 T00500017
94889KARB ARB20160328194511103/28/16 19:45:31  5-MIN KARB 290045Z AUTO 32006KT 10SM SCT045 05/02 A3008 690 79 -300 330/06 RMK AO2 T00500017
94889KARB ARB20160328195011803/28/16 19:50:31  5-MIN KARB 290050Z AUTO 32007KT 10SM FEW045 05/02 A3009 690 79 -300 320/07 RMK AO2 SLP194 T00500017
94889KARB ARB20160328195511103/28/16 19:55:31  5-MIN KARB 290055Z AUTO 32007KT 10SM FEW045 05/02 A3009 680 79 -300 330/07 RMK AO2 T00500017
94889KARB ARB20160328200011103/28/16 20:00:31  5-MIN KARB 290100Z AUTO 31007KT 10SM FEW043 05/02 A3009 680 79 -300 310/07 RMK AO2 T00500017
94889KARB ARB20160328200511103/28/16 20:05:31  5-MIN KARB 290105Z AUTO 32006KT 10SM SCT043 05/01 A3009 680 76 -300 320/06 RMK AO2 T00500011
94889KARB ARB20160328201011103/28/16 20:10:31  5-MIN KARB 290110Z AUTO 32006KT 10SM SCT042 05/01 A3009 680 76 -300 330/06 RMK AO2 T00500011
94889KARB ARB20160328201511103/28/16 20:15:31  5-MIN KARB 290115Z AUTO 31006KT 10SM SCT042 05/01 A3009 680 76 -300 320/06 RMK AO2 T00500011
94889KARB ARB20160328202011103/28/16 20:20:31  5-MIN KARB 290120Z AUTO 31006KT 10SM FEW042 04/01 A3010 680 79 -300 320/06 RMK AO2 T00440011
94889KARB ARB20160328202511103/28/16 20:25:31  5-MIN KARB 290125Z AUTO 32005KT 10SM FEW042 04/01 A3010 680 79 -300 330/05 RMK AO2 T00440011
94889KARB ARB20160328203011103/28/16 20:30:31  5-MIN KARB 290130Z AUTO 32006KT 10SM FEW042 05/01 A3010 670 76 -300 330/06 RMK AO2 T00500011
94889KARB ARB20160328203511103/28/16 20:35:31  5-MIN KARB 290135Z AUTO 32007KT 10SM FEW042 04/01 A3011 670 76 -400 330/07 RMK AO2 T00440006
94889KARB ARB20160328204010803/28/16 20:40:31  5-MIN KARB 290140Z AUTO 32006KT 10SM CLR 05/01 A3011 670 73 -300 330/06 RMK AO2 T00500006
94889KARB ARB20160328204510803/28/16 20:45:31  5-MIN KARB 290145Z AUTO 33006KT 10SM CLR 05/01 A3011 670 73 -300 330/06 RMK AO2 T00500006
94889KARB ARB20160328205011503/28/16 20:50:31  5-MIN KARB 290150Z AUTO 32006KT 10SM CLR 04/01 A3011 660 76 -400 330/06 RMK AO2 SLP202 T00440006
94889KARB ARB20160328205510803/28/16 20:55:31  5-MIN KARB 290155Z AUTO 32005KT 10SM CLR 04/01 A3012 660 76 -400 330/05 RMK AO2 T00440006
94889KARB ARB20160328210010803/28/16 21:00:31  5-MIN KARB 290200Z AUTO 32006KT 10SM CLR 04/01 A3012 660 76 -400 330/06 RMK AO2 T00440006
94889KARB ARB20160328210510803/28/16 21:05:31  5-MIN KARB 290205Z AUTO 32005KT 10SM CLR 04/00 A3012 660 76 -400 320/05 RMK AO2 T00390000
94889KARB ARB20160328211010803/28/16 21:10:31  5-MIN KARB 290210Z AUTO 32006KT 10SM CLR 04/00 A3012 660 73 -400 330/06 RMK AO2 T00440000
94889KARB ARB20160328211510803/28/16 21:15:31  5-MIN KARB 290215Z AUTO 32006KT 10SM CLR 04/00 A3012 660 73 -400 330/06 RMK AO2 T00440000
94889KARB ARB20160328212010803/28/16 21:20:31  5-MIN KARB 290220Z AUTO 33006KT 10SM CLR 04/00 A3012 650 73 -400 330/06 RMK AO2 T00440000
94889KARB ARB20160328212510803/28/16 21:25:31  5-MIN KARB 290225Z AUTO 32007KT 10SM CLR 04/00 A3013 650 73 -400 330/07 RMK AO2 T00440000
94889KARB ARB20160328213010803/28/16 21:30:31  5-MIN KARB 290230Z AUTO 33009KT 10SM CLR 04/00 A3013 650 73 -400 330/09 RMK AO2 T00440000
94889KARB ARB20160328213510803/28/16 21:35:31  5-MIN KARB 290235Z AUTO 33006KT 10SM CLR 04/00 A3013 650 76 -500 340/06 RMK AO2 T00390000
94889KARB ARB20160328214010803/28/16 21:40:31  5-MIN KARB 290240Z AUTO 33005KT 10SM CLR 04/00 A3013 650 76 -500 340/05 RMK AO2 T00390000
94889KARB ARB20160328214510803/28/16 21:45:31  5-MIN KARB 290245Z AUTO 33006KT 10SM CLR 04/00 A3013 650 76 -500 340/06 RMK AO2 T00390000
94889KARB ARB20160328215012103/28/16 21:50:31  5-MIN KARB 290250Z AUTO 33007KT 10SM CLR 04/00 A3013 650 76 -500 330/07 RMK AO2 SLP208 T00390000 51020
94889KARB ARB20160328215510803/28/16 21:55:31  5-MIN KARB 290255Z AUTO 32009KT 10SM CLR 04/00 A3013 650 76 -500 330/09 RMK AO2 T00390000
94889KARB ARB20160328220010803/28/16 22:00:31  5-MIN KARB 290300Z AUTO 32007KT 10SM CLR 04/00 A3013 640 76 -500 320/07 RMK AO2 T00390000
94889KARB ARB20160328220510803/28/16 22:05:31  5-MIN KARB 290305Z AUTO 33007KT 10SM CLR 04/00 A3014 640 76 -500 330/07 RMK AO2 T00390000
94889KARB ARB20160328221010803/28/16 22:10:31  5-MIN KARB 290310Z AUTO 31006KT 10SM CLR 04/00 A3014 640 76 -500 320/06 RMK AO2 T00390000
94889KARB ARB20160328221510803/28/16 22:15:31  5-MIN KARB 290315Z AUTO 32007KT 10SM CLR 03/00 A3014 640 79 -500 330/07 RMK AO2 T00330000
94889KARB ARB20160328222010803/28/16 22:20:31  5-MIN KARB 290320Z AUTO 32006KT 10SM CLR 04/00 A3014 640 76 -500 330/06 RMK AO2 T00390000
94889KARB ARB20160328222510803/28/16 22:25:31  5-MIN KARB 290325Z AUTO 32005KT 10SM CLR 04/00 A3014 640 76 -500 330/05 RMK AO2 T00390000
94889KARB ARB20160328223010803/28/16 22:30:31  5-MIN KARB 290330Z AUTO 32006KT 10SM CLR 03/00 A3014 640 79 -500 330/06 RMK AO2 T00330000
94889KARB ARB20160328223510803/28/16 22:35:31  5-MIN KARB 290335Z AUTO 32006KT 10SM CLR 03/00 A3014 640 79 -500 320/06 RMK AO2 T00330000
94889KARB ARB20160328224010803/28/16 22:40:31  5-MIN KARB 290340Z AUTO 32005KT 10SM CLR 03/00 A3014 640 79 -500 330/05 RMK AO2 T00330000
94889KARB ARB20160328224510803/28/16 22:45:31  5-MIN KARB 290345Z AUTO 33006KT 10SM CLR 03/00 A3014 640 79 -500 340/06 RMK AO2 T00330000
94889KARB ARB20160328225011503/28/16 22:50:31  5-MIN KARB 290350Z AUTO 33007KT 10SM CLR 03/00 A3014 640 79 -500 340/07 RMK AO2 SLP213 T00330000
94889KARB ARB20160328225510803/28/16 22:55:31  5-MIN KARB 290355Z AUTO 33005KT 10SM CLR 03/00 A3014 640 79 -500 340/05 RMK AO2 T00330000
94889KARB ARB20160328230010803/28/16 23:00:31  5-MIN KARB 290400Z AUTO 33007KT 10SM CLR 03/00 A3014 630 79 -500 330/07 RMK AO2 T00330000
94889KARB ARB20160328230510803/28/16 23:05:31  5-MIN KARB 290405Z AUTO 33006KT 10SM CLR 03/00 A3015 630 79 -500 340/06 RMK AO2 T00330000
94889KARB ARB20160328231010903/28/16 23:10:31  5-MIN KARB 290410Z AUTO 33006KT 10SM CLR 03/M01 A3015 630 79 -600 330/06 RMK AO2 T00281006
94889KARB ARB20160328231510903/28/16 23:15:31  5-MIN KARB 290415Z AUTO 32007KT 10SM CLR 03/M01 A3015 630 76 -500 330/07 RMK AO2 T00331006
94889KARB ARB20160328232010903/28/16 23:20:31  5-MIN KARB 290420Z AUTO 32005KT 10SM CLR 03/M01 A3015 630 79 -600 330/05 RMK AO2 T00281006
94889KARB ARB20160328232510903/28/16 23:25:31  5-MIN KARB 290425Z AUTO 32006KT 10SM CLR 03/M01 A3015 630 79 -600 330/06 RMK AO2 T00281006
94889KARB ARB20160328233010903/28/16 23:30:31  5-MIN KARB 290430Z AUTO 32006KT 10SM CLR 03/M01 A3015 630 79 -600 330/06 RMK AO2 T00281006
94889KARB ARB20160328233510903/28/16 23:35:31  5-MIN KARB 290435Z AUTO 33007KT 10SM CLR 03/M01 A3016 620 79 -600 330/07 RMK AO2 T00281006
94889KARB ARB20160328234010903/28/16 23:40:31  5-MIN KARB 290440Z AUTO 32007KT 10SM CLR 03/M01 A3016 620 79 -600 330/07 RMK AO2 T00281006
94889KARB ARB20160328234510903/28/16 23:45:31  5-MIN KARB 290445Z AUTO 32007KT 10SM CLR 03/M01 A3016 620 79 -600 330/07 RMK AO2 T00281006
94889KARB ARB20160328235012603/28/16 23:50:31  5-MIN KARB 290450Z AUTO 32006KT 10SM CLR 02/M01 A3016 620 82 -700 330/06 RMK AO2 SLP218 T00221006 401000022
94889KARB ARB20160328235510903/28/16 23:55:31  5-MIN KARB 290455Z AUTO 32006KT 10SM CLR 02/M01 A3016 620 82 -700 320/06 RMK AO2 T00221006
94889KARB ARB20160329000010903/29/16 00:00:31  5-MIN KARB 290500Z AUTO 32006KT 10SM CLR 02/M01 A3016 620 82 -700 320/06 RMK AO2 T00221006
94889KARB ARB20160329000510903/29/16 00:05:31  5-MIN KARB 290505Z AUTO 31005KT 10SM CLR 02/M01 A3016 620 82 -700 320/05 RMK AO2 T00221006
94889KARB ARB20160329001010903/29/16 00:10:31  5-MIN KARB 290510Z AUTO 31005KT 10SM CLR 02/M01 A3016 620 82 -700 320/05 RMK AO2 T00221006
94889KARB ARB20160329001510903/29/16 00:15:31  5-MIN KARB 290515Z AUTO 31005KT 10SM CLR 02/M01 A3016 620 78 -700 320/05 RMK AO2 T00221011
94889KARB ARB20160329002010903/29/16 00:20:31  5-MIN KARB 290520Z AUTO 32005KT 10SM CLR 02/M01 A3016 620 82 -700 330/05 RMK AO2 T00221006
94889KARB ARB20160329002510903/29/16 00:25:31  5-MIN KARB 290525Z AUTO 32006KT 10SM CLR 02/M01 A3016 620 78 -700 330/06 RMK AO2 T00221011
94889KARB ARB20160329003010903/29/16 00:30:31  5-MIN KARB 290530Z AUTO 32005KT 10SM CLR 02/M01 A3016 620 78 -700 330/05 RMK AO2 T00221011
94889KARB ARB20160329003510903/29/16 00:35:31  5-MIN KARB 290535Z AUTO 32005KT 10SM CLR 02/M01 A3016 620 78 -700 330/05 RMK AO2 T00221011
94889KARB ARB20160329004010903/29/16 00:40:31  5-MIN KARB 290540Z AUTO 32005KT 10SM CLR 02/M01 A3016 620 78 -700 320/05 RMK AO2 T00221011
94889KARB ARB20160329004510903/29/16 00:45:31  5-MIN KARB 290545Z AUTO 31004KT 10SM CLR 02/M01 A3016 620 82 -800 320/04 RMK AO2 T00171011
94889KARB ARB20160329005013403/29/16 00:50:31  5-MIN KARB 290550Z AUTO 32005KT 10SM CLR 02/M01 A3017 620 82 -800 330/05 RMK AO2 SLP221 T00171011 10061 20017 51021
94889KARB ARB20160329005510903/29/16 00:55:31  5-MIN KARB 290555Z AUTO 32005KT 10SM CLR 02/M01 A3017 610 82 -800 320/05 RMK AO2 T00171011
94889KARB ARB20160329010010903/29/16 01:00:31  5-MIN KARB 290600Z AUTO 32005KT 10SM CLR 02/M01 A3017 610 82 -800 320/05 RMK AO2 T00171011
94889KARB ARB20160329010510903/29/16 01:05:31  5-MIN KARB 290605Z AUTO 32006KT 10SM CLR 02/M01 A3017 610 82 -800 330/06 RMK AO2 T00171011
94889KARB ARB20160329011010903/29/16 01:10:31  5-MIN KARB 290610Z AUTO 33005KT 10SM CLR 02/M01 A3017 610 82 -800 330/05 RMK AO2 T00171011
94889KARB ARB20160329011510903/29/16 01:15:31  5-MIN KARB 290615Z AUTO 33006KT 10SM CLR 02/M01 A3017 610 82 -800 330/06 RMK AO2 T00171011
94889KARB ARB20160329012010903/29/16 01:20:31  5-MIN KARB 290620Z AUTO 33005KT 10SM CLR 02/M01 A3017 610 82 -800 330/05 RMK AO2 T00171011
94889KARB ARB20160329012510903/29/16 01:25:31  5-MIN KARB 290625Z AUTO 32006KT 10SM CLR 02/M01 A3017 610 82 -800 330/06 RMK AO2 T00171011
94889KARB ARB20160329013010903/29/16 01:30:31  5-MIN KARB 290630Z AUTO 33006KT 10SM CLR 02/M01 A3017 610 82 -800 330/06 RMK AO2 T00171011
94889KARB ARB20160329013510903/29/16 01:35:31  5-MIN KARB 290635Z AUTO 32006KT 10SM CLR 02/M01 A3017 610 82 -800 330/06 RMK AO2 T00171011
94889KARB ARB20160329014010903/29/16 01:40:31  5-MIN KARB 290640Z AUTO 32006KT 10SM CLR 02/M02 A3017 610 78 -800 330/06 RMK AO2 T00171017
94889KARB ARB20160329014510903/29/16 01:45:31  5-MIN KARB 290645Z AUTO 32006KT 10SM CLR 02/M02 A3017 610 78 -800 330/06 RMK AO2 T00171017
94889KARB ARB20160329015011603/29/16 01:50:31  5-MIN KARB 290650Z AUTO 32006KT 10SM CLR 01/M02 A3017 610 82 -800 330/06 RMK AO2 SLP224 T00111017
94889KARB ARB20160329015510903/29/16 01:55:31  5-MIN KARB 290655Z AUTO 32006KT 10SM CLR 01/M02 A3017 610 82 -800 330/06 RMK AO2 T00111017
94889KARB ARB20160329020010903/29/16 02:00:31  5-MIN KARB 290700Z AUTO 32005KT 10SM CLR 01/M02 A3017 610 82 -800 330/05 RMK AO2 T00111017
94889KARB ARB20160329020510903/29/16 02:05:31  5-MIN KARB 290705Z AUTO 32006KT 10SM CLR 01/M02 A3017 610 82 -800 320/06 RMK AO2 T00111017
94889KARB ARB20160329021010903/29/16 02:10:31  5-MIN KARB 290710Z AUTO 32005KT 10SM CLR 01/M02 A3017 610 82 -800 330/05 RMK AO2 T00111017
94889KARB ARB20160329021510903/29/16 02:15:31  5-MIN KARB 290715Z AUTO 32005KT 10SM CLR 01/M02 A3017 610 85 -900 320/05 RMK AO2 T00061017
94889KARB ARB20160329022010903/29/16 02:20:31  5-MIN KARB 290720Z AUTO 32006KT 10SM CLR 01/M02 A3018 600 85 -900 320/06 RMK AO2 T00061017
94889KARB ARB20160329022510903/29/16 02:25:31  5-MIN KARB 290725Z AUTO 32006KT 10SM CLR 01/M02 A3018 600 82 -900 330/06 RMK AO2 T00111017
94889KARB ARB20160329023010903/29/16 02:30:31  5-MIN KARB 290730Z AUTO 32007KT 10SM CLR 01/M02 A3018 600 82 -900 330/07 RMK AO2 T00111017
94889KARB ARB20160329023510903/29/16 02:35:31  5-MIN KARB 290735Z AUTO 33006KT 10SM CLR 01/M02 A3018 600 82 -900 330/06 RMK AO2 T00111017
94889KARB ARB20160329024010903/29/16 02:40:31  5-MIN KARB 290740Z AUTO 32006KT 10SM CLR 01/M02 A3018 600 82 -900 330/06 RMK AO2 T00111017
94889KARB ARB20160329024510903/29/16 02:45:31  5-MIN KARB 290745Z AUTO 32007KT 10SM CLR 01/M02 A3018 600 82 -900 330/07 RMK AO2 T00111017
94889KARB ARB20160329025011603/29/16 02:50:31  5-MIN KARB 290750Z AUTO 33006KT 10SM CLR 01/M02 A3018 600 82 -900 330/06 RMK AO2 SLP227 T00111017
94889KARB ARB20160329025510903/29/16 02:55:31  5-MIN KARB 290755Z AUTO 32006KT 10SM CLR 01/M02 A3019 600 82 -900 330/06 RMK AO2 T00111017
94889KARB ARB20160329030010903/29/16 03:00:31  5-MIN KARB 290800Z AUTO 32007KT 10SM CLR 01/M02 A3019 590 78 -900 330/07 RMK AO2 T00111022
94889KARB ARB20160329030510903/29/16 03:05:31  5-MIN KARB 290805Z AUTO 32007KT 10SM CLR 01/M02 A3019 590 78 -900 330/07 RMK AO2 T00111022
94889KARB ARB20160329031010903/29/16 03:10:31  5-MIN KARB 290810Z AUTO 32006KT 10SM CLR 01/M02 A3019 590 82 -900 330/06 RMK AO2 T00061022
94889KARB ARB20160329031510903/29/16 03:15:31  5-MIN KARB 290815Z AUTO 32006KT 10SM CLR 01/M02 A3019 590 82 -900 330/06 RMK AO2 T00061022
94889KARB ARB20160329032010903/29/16 03:20:31  5-MIN KARB 290820Z AUTO 32007KT 10SM CLR 01/M02 A3019 590 82 -900 330/07 RMK AO2 T00061022
94889KARB ARB20160329032510903/29/16 03:25:31  5-MIN KARB 290825Z AUTO 33007KT 10SM CLR 01/M02 A3019 590 82 -900 340/07 RMK AO2 T00061022
94889KARB ARB20160329033010903/29/16 03:30:31  5-MIN KARB 290830Z AUTO 33008KT 10SM CLR 01/M02 A3019 590 82 -900 340/08 RMK AO2 T00061022
94889KARB ARB20160329033510903/29/16 03:35:31  5-MIN KARB 290835Z AUTO 33008KT 10SM CLR 01/M02 A3019 590 82 -900 340/08 RMK AO2 T00061022
94889KARB ARB20160329034010903/29/16 03:40:31  5-MIN KARB 290840Z AUTO 33008KT 10SM CLR 01/M02 A3019 590 82 -900 330/08 RMK AO2 T00061022
94889KARB ARB20160329034510903/29/16 03:45:31  5-MIN KARB 290845Z AUTO 32008KT 10SM CLR 01/M02 A3020 590 82 -900 330/08 RMK AO2 T00061022
94889KARB ARB20160329035012203/29/16 03:50:31  5-MIN KARB 290850Z AUTO 33008KT 10SM CLR 01/M02 A3020 580 82 -900 330/08 RMK AO2 SLP232 T00061022 51012
94889KARB ARB20160329035510903/29/16 03:55:31  5-MIN KARB 290855Z AUTO 33008KT 10SM CLR 01/M02 A3020 580 82 -900 330/08 RMK AO2 T00061022
94889KARB ARB20160329040011003/29/16 04:00:31  5-MIN KARB 290900Z AUTO 33008KT 10SM CLR 01/M02 A3020 580 82 -1000 340/08 RMK AO2 T00061022
94889KARB ARB20160329040511003/29/16 04:05:31  5-MIN KARB 290905Z AUTO 33007KT 10SM CLR 01/M02 A3020 580 82 -1000 330/07 RMK AO2 T00061022
94889KARB ARB20160329041011003/29/16 04:10:31  5-MIN KARB 290910Z AUTO 33007KT 10SM CLR 01/M02 A3021 580 82 -1000 330/07 RMK AO2 T00061022
94889KARB ARB20160329041511003/29/16 04:15:31  5-MIN KARB 290915Z AUTO 33007KT 10SM CLR 01/M02 A3021 580 82 -1000 330/07 RMK AO2 T00061022
94889KARB ARB20160329042011003/29/16 04:20:31  5-MIN KARB 290920Z AUTO 33007KT 10SM CLR 01/M02 A3021 580 82 -1000 340/07 RMK AO2 T00061022
94889KARB ARB20160329042511003/29/16 04:25:31  5-MIN KARB 290925Z AUTO 33008KT 10SM CLR 01/M02 A3021 570 82 -1000 340/08 RMK AO2 T00061022
94889KARB ARB20160329043011003/29/16 04:30:31  5-MIN KARB 290930Z AUTO 33008KT 10SM CLR 01/M03 A3021 570 78 -1000 340/08 RMK AO2 T00061028
94889KARB ARB20160329043511003/29/16 04:35:31  5-MIN KARB 290935Z AUTO 33007KT 10SM CLR 01/M03 A3022 570 78 -1000 340/07 RMK AO2 T00061028
94889KARB ARB20160329044011003/29/16 04:40:31  5-MIN KARB 290940Z AUTO 34008KT 10SM CLR 01/M03 A3022 570 78 -1000 350/08 RMK AO2 T00061028
94889KARB ARB20160329044511003/29/16 04:45:31  5-MIN KARB 290945Z AUTO 34009KT 10SM CLR 01/M03 A3022 570 78 -1000 350/09 RMK AO2 T00061028
94889KARB ARB20160329045011703/29/16 04:50:31  5-MIN KARB 290950Z AUTO 34008KT 10SM CLR 01/M03 A3022 570 78 -1000 350/08 RMK AO2 SLP239 T00061028
94889KARB ARB20160329045511003/29/16 04:55:31  5-MIN KARB 290955Z AUTO 34008KT 10SM CLR 00/M03 A3022 570 81 -1000 350/08 RMK AO2 T00001028
94889KARB ARB20160329050011003/29/16 05:00:31  5-MIN KARB 291000Z AUTO 34007KT 10SM CLR 00/M03 A3022 560 81 -1000 350/07 RMK AO2 T00001028
94889KARB ARB20160329050511003/29/16 05:05:31  5-MIN KARB 291005Z AUTO 35007KT 10SM CLR 00/M03 A3023 560 81 -1000 360/07 RMK AO2 T00001028
94889KARB ARB20160329051011003/29/16 05:10:31  5-MIN KARB 291010Z AUTO 35006KT 10SM CLR 00/M03 A3023 560 81 -1100 360/06 RMK AO2 T00001028
94889KARB ARB20160329051511003/29/16 05:15:31  5-MIN KARB 291015Z AUTO 35008KT 10SM CLR 00/M03 A3023 560 81 -1100 360/08 RMK AO2 T00001028
94889KARB ARB20160329052011003/29/16 05:20:31  5-MIN KARB 291020Z AUTO 35007KT 10SM CLR 00/M03 A3023 550 81 -1100 350/07 RMK AO2 T00001028
94889KARB ARB20160329052511003/29/16 05:25:31  5-MIN KARB 291025Z AUTO 34007KT 10SM CLR 00/M03 A3023 550 81 -1100 350/07 RMK AO2 T00001028
94889KARB ARB20160329053011003/29/16 05:30:31  5-MIN KARB 291030Z AUTO 34007KT 10SM CLR 00/M03 A3023 550 81 -1100 350/07 RMK AO2 T00001028
94889KARB ARB20160329053511003/29/16 05:35:31  5-MIN KARB 291035Z AUTO 34007KT 10SM CLR 00/M03 A3023 550 81 -1100 350/07 RMK AO2 T00001028
94889KARB ARB20160329054011003/29/16 05:40:31  5-MIN KARB 291040Z AUTO 35006KT 10SM CLR 00/M03 A3024 550 81 -1100 350/06 RMK AO2 T00001028
94889KARB ARB20160329054511003/29/16 05:45:31  5-MIN KARB 291045Z AUTO 35007KT 10SM CLR 00/M03 A3024 550 81 -1100 350/07 RMK AO2 T00001028
94889KARB ARB20160329055011703/29/16 05:50:31  5-MIN KARB 291050Z AUTO 34007KT 10SM CLR 00/M03 A3024 550 81 -1100 350/07 RMK AO2 SLP248 T00001028
94889KARB ARB20160329055511003/29/16 05:55:31  5-MIN KARB 291055Z AUTO 34006KT 10SM CLR 00/M03 A3024 550 81 -1100 350/06 RMK AO2 T00001028
94889KARB ARB20160329060011003/29/16 06:00:31  5-MIN KARB 291100Z AUTO 35007KT 10SM CLR 00/M03 A3024 540 78 -1100 360/07 RMK AO2 T00001033
94889KARB ARB20160329060511103/29/16 06:05:31  5-MIN KARB 291105Z AUTO 34006KT 10SM CLR M01/M03 A3025 540 81 -1100 350/06 RMK AO2 T10061033
94889KARB ARB20160329061011103/29/16 06:10:31  5-MIN KARB 291110Z AUTO 33006KT 10SM CLR M01/M03 A3025 540 81 -1100 340/06 RMK AO2 T10061033
94889KARB ARB20160329061511103/29/16 06:15:31  5-MIN KARB 291115Z AUTO 34007KT 10SM CLR M01/M03 A3026 530 81 -1200 340/07 RMK AO2 T10061033
94889KARB ARB20160329062011103/29/16 06:20:31  5-MIN KARB 291120Z AUTO 34007KT 10SM CLR M01/M03 A3026 530 81 -1200 340/07 RMK AO2 T10061033
94889KARB ARB20160329062511003/29/16 06:25:31  5-MIN KARB 291125Z AUTO 33007KT 10SM CLR 00/M03 A3026 520 78 -1100 340/07 RMK AO2 T00001033
94889KARB ARB20160329063011103/29/16 06:30:31  5-MIN KARB 291130Z AUTO 33007KT 10SM CLR M01/M03 A3026 530 81 -1200 340/07 RMK AO2 T10061033
94889KARB ARB20160329063511103/29/16 06:35:31  5-MIN KARB 291135Z AUTO 33006KT 10SM CLR M01/M03 A3027 520 81 -1200 340/06 RMK AO2 T10061033
94889KARB ARB20160329064011003/29/16 06:40:31  5-MIN KARB 291140Z AUTO 34007KT 10SM CLR 00/M03 A3027 520 78 -1100 350/07 RMK AO2 T00001033
94889KARB ARB20160329064511003/29/16 06:45:31  5-MIN KARB 291145Z AUTO 34007KT 10SM CLR 00/M03 A3027 520 78 -1100 350/07 RMK AO2 T00001033
94889KARB ARB20160329065013603/29/16 06:50:31  5-MIN KARB 291150Z 35007KT 10SM CLR 00/M03 A3027 520 78 -1100 360/07 RMK AO2 SLP259 70001 T00001033 10017 21006 53012
94889KARB ARB20160329065510503/29/16 06:55:31  5-MIN KARB 291155Z 34007KT 10SM CLR 00/M03 A3028 510 81 -1100 350/07 RMK AO2 T00001028
94889KARB ARB20160329070010503/29/16 07:00:31  5-MIN KARB 291200Z 35007KT 10SM CLR 00/M03 A3028 510 81 -1100 360/07 RMK AO2 T00001028
94889KARB ARB20160329070510503/29/16 07:05:31  5-MIN KARB 291205Z 35006KT 10SM CLR 00/M03 A3028 510 81 -1100 360/06 RMK AO2 T00001028
94889KARB ARB20160329071010503/29/16 07:10:31  5-MIN KARB 291210Z 35008KT 10SM CLR 00/M03 A3028 510 81 -1100 360/08 RMK AO2 T00001028
94889KARB ARB20160329071510503/29/16 07:15:31  5-MIN KARB 291215Z 35008KT 10SM CLR 01/M03 A3028 510 78 -1000 360/08 RMK AO2 T00061028
94889KARB ARB20160329072010503/29/16 07:20:31  5-MIN KARB 291220Z 36008KT 10SM CLR 01/M03 A3028 510 78 -1000 360/08 RMK AO2 T00061028
94889KARB ARB20160329072510503/29/16 07:25:31  5-MIN KARB 291225Z 34007KT 10SM CLR 01/M03 A3029 500 78 -1000 350/07 RMK AO2 T00061028
94889KARB ARB20160329073010503/29/16 07:30:31  5-MIN KARB 291230Z 35008KT 10SM CLR 01/M03 A3029 500 78 -1100 360/08 RMK AO2 T00061028
94889KARB ARB20160329073510503/29/16 07:35:31  5-MIN KARB 291235Z 34008KT 10SM CLR 01/M03 A3029 500 75 -1000 350/08 RMK AO2 T00111028
94889KARB ARB20160329074010503/29/16 07:40:31  5-MIN KARB 291240Z 35008KT 10SM CLR 01/M03 A3029 500 75 -1000 360/08 RMK AO2 T00111028
94889KARB ARB20160329074510503/29/16 07:45:31  5-MIN KARB 291245Z 35008KT 10SM CLR 01/M03 A3030 500 75 -1000 360/08 RMK AO2 T00111028
94889KARB ARB20160329075011203/29/16 07:50:31  5-MIN KARB 291250Z 36009KT 10SM CLR 01/M03 A3030 490 75 -1000 360/09 RMK AO2 SLP267 T00111028
94889KARB ARB20160329075510503/29/16 07:55:31  5-MIN KARB 291255Z 36011KT 10SM CLR 01/M03 A3030 490 75 -1000 010/11 RMK AO2 T00111028
94889KARB ARB20160329080010503/29/16 08:00:31  5-MIN KARB 291300Z 36010KT 10SM CLR 01/M03 A3030 490 75 -1000 010/10 RMK AO2 T00111028
94889KARB ARB20160329080510403/29/16 08:05:31  5-MIN KARB 291305Z 36009KT 10SM CLR 02/M03 A3031 490 72 -900 010/09 RMK AO2 T00171028
94889KARB ARB20160329081010403/29/16 08:10:31  5-MIN KARB 291310Z 01010KT 10SM CLR 02/M03 A3031 480 72 -900 020/10 RMK AO2 T00171028
94889KARB ARB20160329081510403/29/16 08:15:31  5-MIN KARB 291315Z 01008KT 10SM CLR 02/M02 A3031 480 72 -900 010/08 RMK AO2 T00221022
94889KARB ARB20160329082010403/29/16 08:20:31  5-MIN KARB 291320Z 36008KT 10SM CLR 02/M03 A3031 480 69 -900 360/08 RMK AO2 T00221028
94889KARB ARB20160329082510403/29/16 08:25:31  5-MIN KARB 291325Z 01007KT 10SM CLR 03/M02 A3031 480 69 -800 020/07 RMK AO2 T00281022
94889KARB ARB20160329083010403/29/16 08:30:31  5-MIN KARB 291330Z 02009KT 10SM CLR 03/M02 A3031 480 69 -800 030/09 RMK AO2 T00281022
94889KARB ARB20160329083510403/29/16 08:35:31  5-MIN KARB 291335Z 03009KT 10SM CLR 03/M02 A3032 480 69 -800 040/09 RMK AO2 T00281022
94889KARB ARB20160329084010403/29/16 08:40:31  5-MIN KARB 291340Z 01008KT 10SM CLR 03/M03 A3032 480 67 -800 020/08 RMK AO2 T00281028
94889KARB ARB20160329084510403/29/16 08:45:31  5-MIN KARB 291345Z 02007KT 10SM CLR 03/M03 A3032 470 67 -800 030/07 RMK AO2 T00281028
94889KARB ARB20160329085011103/29/16 08:50:31  5-MIN KARB 291350Z 02008KT 10SM CLR 03/M03 A3032 470 64 -700 030/08 RMK AO2 SLP274 T00331028
94889KARB ARB20160329085510403/29/16 08:55:31  5-MIN KARB 291355Z 35008KT 10SM CLR 03/M03 A3032 470 64 -700 360/08 RMK AO2 T00331028
94889KARB ARB20160329090010403/29/16 09:00:31  5-MIN KARB 291400Z 36006KT 10SM CLR 03/M03 A3032 470 64 -700 010/06 RMK AO2 T00331028
94889KARB ARB20160329090510403/29/16 09:05:31  5-MIN KARB 291405Z 02008KT 10SM CLR 03/M03 A3032 470 64 -700 020/08 RMK AO2 T00331028
94889KARB ARB20160329091010403/29/16 09:10:31  5-MIN KARB 291410Z 01006KT 10SM CLR 04/M03 A3032 470 62 -700 020/06 RMK AO2 T00391028
94889KARB ARB20160329091510403/29/16 09:15:31  5-MIN KARB 291415Z 36005KT 10SM CLR 04/M03 A3032 470 62 -700 010/05 RMK AO2 T00391028
94889KARB ARB20160329092010403/29/16 09:20:31  5-MIN KARB 291420Z 02006KT 10SM CLR 04/M02 A3033 470 62 -600 030/06 RMK AO2 T00441022
94889KARB ARB20160329092510403/29/16 09:25:31  5-MIN KARB 291425Z 04007KT 10SM CLR 04/M03 A3033 470 59 -600 040/07 RMK AO2 T00441028
94889KARB ARB20160329093010403/29/16 09:30:31  5-MIN KARB 291430Z 01006KT 10SM CLR 05/M02 A3033 470 59 -500 010/06 RMK AO2 T00501022
94889KARB ARB20160329093510403/29/16 09:35:31  5-MIN KARB 291435Z 36004KT 10SM CLR 04/M03 A3033 460 59 -600 010/04 RMK AO2 T00441028
94889KARB ARB20160329094010403/29/16 09:40:31  5-MIN KARB 291440Z 01006KT 10SM CLR 05/M03 A3033 460 57 -500 020/06 RMK AO2 T00501028
94889KARB ARB20160329094510403/29/16 09:45:31  5-MIN KARB 291445Z 03007KT 10SM CLR 05/M03 A3033 460 55 -500 030/07 RMK AO2 T00501033
94889KARB ARB20160329095011703/29/16 09:50:31  5-MIN KARB 291450Z 35007KT 10SM CLR 05/M03 A3033 460 55 -500 360/07 RMK AO2 SLP277 T00501033 53024
94889KARB ARB20160329095510403/29/16 09:55:31  5-MIN KARB 291455Z 35005KT 10SM CLR 05/M03 A3033 470 57 -500 360/05 RMK AO2 T00501028
94889KARB ARB20160329100010403/29/16 10:00:31  5-MIN KARB 291500Z 04007KT 10SM CLR 05/M04 A3033 460 52 -500 040/07 RMK AO2 T00501039
94889KARB ARB20160329100510403/29/16 10:05:31  5-MIN KARB 291505Z 02007KT 10SM CLR 06/M03 A3033 460 53 -500 030/07 RMK AO2 T00561033
94889KARB ARB20160329101010403/29/16 10:10:31  5-MIN KARB 291510Z 01007KT 10SM CLR 06/M03 A3033 460 53 -500 020/07 RMK AO2 T00561033
94889KARB ARB20160329101510403/29/16 10:15:31  5-MIN KARB 291515Z 03005KT 10SM CLR 06/M04 A3033 460 50 -500 040/05 RMK AO2 T00561039
94889KARB ARB20160329102010403/29/16 10:20:31  5-MIN KARB 291520Z 04009KT 10SM CLR 06/M03 A3033 460 51 -400 040/09 RMK AO2 T00611033
94889KARB ARB20160329102510403/29/16 10:25:31  5-MIN KARB 291525Z 04010KT 10SM CLR 06/M04 A3033 460 48 -400 050/10 RMK AO2 T00611039
94889KARB ARB20160329103010403/29/16 10:30:31  5-MIN KARB 291530Z 03007KT 10SM CLR 06/M04 A3034 460 48 -400 030/07 RMK AO2 T00611039
94889KARB ARB20160329103510403/29/16 10:35:31  5-MIN KARB 291535Z 03008KT 10SM CLR 06/M04 A3034 460 46 -400 030/08 RMK AO2 T00611044
94889KARB ARB20160329104010403/29/16 10:40:31  5-MIN KARB 291540Z 02008KT 10SM CLR 07/M04 A3033 460 45 -300 020/08 RMK AO2 T00671044
94889KARB ARB20160329104510403/29/16 10:45:31  5-MIN KARB 291545Z 03006KT 10SM CLR 07/M04 A3033 460 45 -300 040/06 RMK AO2 T00671044
94889KARB ARB20160329105011103/29/16 10:50:31  5-MIN KARB 291550Z VRB05KT 10SM CLR 07/M04 A3033 460 45 -300 VRB/05 RMK AO2 SLP277 T00671044
94889KARB ARB20160329105510403/29/16 10:55:31  5-MIN KARB 291555Z 36007KT 10SM CLR 07/M04 A3033 460 43 -300 010/07 RMK AO2 T00721044
94889KARB ARB20160329110010403/29/16 11:00:31  5-MIN KARB 291600Z 03007KT 10SM CLR 07/M04 A3033 460 43 -300 030/07 RMK AO2 T00721044
94889KARB ARB20160329110510403/29/16 11:05:31  5-MIN KARB 291605Z 03009KT 10SM CLR 07/M05 A3033 460 41 -300 040/09 RMK AO2 T00721050
94889KARB ARB20160329111010403/29/16 11:10:31  5-MIN KARB 291610Z 05006KT 10SM CLR 07/M06 A3033 460 38 -300 060/06 RMK AO2 T00721061
94889KARB ARB20160329111510403/29/16 11:15:31  5-MIN KARB 291615Z VRB06KT 10SM CLR 08/M05 A3033 460 40 -200 VRB/06 RMK AO2 T00781050
94889KARB ARB20160329112010403/29/16 11:20:31  5-MIN KARB 291620Z 02008KT 10SM CLR 08/M06 A3033 460 38 -200 020/08 RMK AO2 T00781056
94889KARB ARB20160329112510403/29/16 11:25:31  5-MIN KARB 291625Z VRB06KT 10SM CLR 08/M05 A3033 460 40 -200 VRB/06 RMK AO2 T00781050
94889KARB ARB20160329113010403/29/16 11:30:31  5-MIN KARB 291630Z 06009KT 10SM CLR 08/M06 A3033 470 36 -200 070/09 RMK AO2 T00781061
94889KARB ARB20160329113510403/29/16 11:35:31  5-MIN KARB 291635Z 05005KT 10SM CLR 08/M06 A3033 470 36 -200 050/05 RMK AO2 T00781061
94889KARB ARB20160329114010403/29/16 11:40:31  5-MIN KARB 291640Z 04008KT 10SM CLR 08/M05 A3033 470 38 -100 050/08 RMK AO2 T00831050
94889KARB ARB20160329114510403/29/16 11:45:31  5-MIN KARB 291645Z 00000KT 10SM CLR 08/M06 A3033 470 36 -200 000/00 RMK AO2 T00781061
94889KARB ARB20160329115011103/29/16 11:50:31  5-MIN KARB 291650Z VRB06KT 10SM CLR 07/M06 A3033 470 40 -300 VRB/06 RMK AO2 SLP277 T00721056
94889KARB ARB20160329115510403/29/16 11:55:31  5-MIN KARB 291655Z 01006KT 10SM CLR 08/M04 A3033 470 40 -100 020/06 RMK AO2 T00831044
94889KARB ARB20160329120010403/29/16 12:00:31  5-MIN KARB 291700Z 00000KT 10SM CLR 08/M05 A3033 470 38 -100 000/00 RMK AO2 T00831050
94889KARB ARB20160329120510403/29/16 12:05:31  5-MIN KARB 291705Z VRB03KT 10SM CLR 08/M05 A3033 470 40 -200 VRB/03 RMK AO2 T00781050
94889KARB ARB20160329121010403/29/16 12:10:31  5-MIN KARB 291710Z 08004KT 10SM CLR 08/M04 A3032 470 40 -100 090/04 RMK AO2 T00831044
94889KARB ARB20160329121510403/29/16 12:15:31  5-MIN KARB 291715Z VRB05KT 10SM CLR 08/M05 A3032 470 38 -100 VRB/05 RMK AO2 T00831050
94889KARB ARB20160329122010403/29/16 12:20:31  5-MIN KARB 291720Z 03007KT 10SM CLR 09/M05 A3032 470 37 -100 030/07 RMK AO2 T00891050
94889KARB ARB20160329122510403/29/16 12:25:31  5-MIN KARB 291725Z VRB04KT 10SM CLR 08/M06 A3032 470 35 -100 VRB/04 RMK AO2 T00831061
94889KARB ARB20160329123010403/29/16 12:30:31  5-MIN KARB 291730Z 00000KT 10SM CLR 09/M06 A3032 480 35 -100 000/00 RMK AO2 T00891056
94889KARB ARB20160329123510403/29/16 12:35:31  5-MIN KARB 291735Z VRB05KT 10SM CLR 09/M06 A3032 480 35 -100 VRB/05 RMK AO2 T00891056
94889KARB ARB20160329124010403/29/16 12:40:31  5-MIN KARB 291740Z 00000KT 10SM CLR 08/M06 A3031 480 38 -200 000/00 RMK AO2 T00781056
94889KARB ARB20160329124509403/29/16 12:45:31  5-MIN KARB 291745Z 10SM CLR 08/M06 A3031 480 35 -100 M /M RMK AO2 T00831061
94889KARB ARB20160329125012603/29/16 12:50:31  5-MIN KARB 291750Z 05010KT 10SM CLR 09/M06 A3031 480 33 0 050/10 RMK AO2 SLP270 T00941061 10094 20000 51018
94889KARB ARB20160329125510103/29/16 12:55:31  5-MIN KARB 291755Z VRB03KT 10SM CLR 09/M07 A3031 480 31 0 VRB/03 RMK AO2 T00891072
94889KARB ARB20160329130010103/29/16 13:00:31  5-MIN KARB 291800Z VRB04KT 10SM CLR 09/M06 A3031 480 33 0 VRB/04 RMK AO2 T00941061
94889KARB ARB20160329130510103/29/16 13:05:31  5-MIN KARB 291805Z 00000KT 10SM CLR 09/M07 A3031 480 32 0 000/00 RMK AO2 T00891067
94889KARB ARB20160329131010103/29/16 13:10:31  5-MIN KARB 291810Z VRB05KT 10SM CLR 09/M06 A3031 480 33 0 VRB/05 RMK AO2 T00941061
94889KARB ARB20160329131510103/29/16 13:15:31  5-MIN KARB 291815Z 33008KT 10SM CLR 09/M06 A3031 480 33 0 340/08 RMK AO2 T00941061
94889KARB ARB20160329132010103/29/16 13:20:31  5-MIN KARB 291820Z 30005KT 10SM CLR 09/M07 A3031 480 31 0 300/05 RMK AO2 T00941067
94889KARB ARB20160329132510103/29/16 13:25:31  5-MIN KARB 291825Z 35003KT 10SM CLR 09/M07 A3031 480 31 0 360/03 RMK AO2 T00941067
94889KARB ARB20160329133010103/29/16 13:30:31  5-MIN KARB 291830Z 29006KT 10SM CLR 10/M06 A3031 490 31 0 290/06 RMK AO2 T01001061
94889KARB ARB20160329133510103/29/16 13:35:31  5-MIN KARB 291835Z 27005KT 10SM CLR 09/M07 A3030 490 31 0 270/05 RMK AO2 T00941067
94889KARB ARB20160329134010303/29/16 13:40:31  5-MIN KARB 291840Z 04007KT 10SM CLR 10/M07 A3030 490 29 100 040/07 RMK AO2 T01001072
94889KARB ARB20160329134510303/29/16 13:45:31  5-MIN KARB 291845Z 07005KT 10SM CLR 11/M08 A3030 500 27 100 080/05 RMK AO2 T01061078
94889KARB ARB20160329135011003/29/16 13:50:31  5-MIN KARB 291850Z VRB03KT 10SM CLR 10/M08 A3030 490 28 100 VRB/03 RMK AO2 SLP265 T01001078
94889KARB ARB20160329135510303/29/16 13:55:31  5-MIN KARB 291855Z 00000KT 10SM CLR 11/M07 A3030 500 28 100 000/00 RMK AO2 T01061072
94889KARB ARB20160329140010303/29/16 14:00:31  5-MIN KARB 291900Z 00000KT 10SM CLR 10/M07 A3030 490 29 100 000/00 RMK AO2 T01001072
94889KARB ARB20160329140510303/29/16 14:05:31  5-MIN KARB 291905Z VRB03KT 10SM CLR 11/M07 A3029 500 29 100 VRB/03 RMK AO2 T01061067
94889KARB ARB20160329141010303/29/16 14:10:31  5-MIN KARB 291910Z 02006KT 10SM CLR 11/M07 A3029 500 28 100 020/06 RMK AO2 T01061072
94889KARB ARB20160329141510303/29/16 14:15:31  5-MIN KARB 291915Z VRB04KT 10SM CLR 11/M08 A3029 500 27 100 VRB/04 RMK AO2 T01061078
94889KARB ARB20160329142010303/29/16 14:20:31  5-MIN KARB 291920Z VRB05KT 10SM CLR 11/M07 A3029 500 29 100 VRB/05 RMK AO2 T01061067
94889KARB ARB20160329142510303/29/16 14:25:31  5-MIN KARB 291925Z VRB03KT 10SM CLR 11/M07 A3029 500 29 100 VRB/03 RMK AO2 T01061067
94889KARB ARB20160329143010303/29/16 14:30:31  5-MIN KARB 291930Z 07004KT 10SM CLR 11/M07 A3029 500 28 200 080/04 RMK AO2 T01111067
94889KARB ARB20160329143510303/29/16 14:35:31  5-MIN KARB 291935Z 34004KT 10SM CLR 11/M07 A3028 510 27 200 350/04 RMK AO2 T01111072
94889KARB ARB20160329144010303/29/16 14:40:31  5-MIN KARB 291940Z 32006KT 10SM CLR 11/M07 A3028 510 27 200 330/06 RMK AO2 T01111072
94889KARB ARB20160329144510303/29/16 14:45:31  5-MIN KARB 291945Z 31006KT 10SM CLR 11/M07 A3028 510 28 100 320/06 RMK AO2 T01061072
94889KARB ARB20160329145011003/29/16 14:50:31  5-MIN KARB 291950Z 29005KT 10SM CLR 11/M07 A3028 510 28 100 300/05 RMK AO2 SLP260 T01061072
94889KARB ARB20160329145510303/29/16 14:55:31  5-MIN KARB 291955Z 27004KT 10SM CLR 11/M07 A3028 510 28 100 280/04 RMK AO2 T01061072
94889KARB ARB20160329150010303/29/16 15:00:31  5-MIN KARB 292000Z 24005KT 10SM CLR 11/M08 A3028 510 25 100 240/05 RMK AO2 T01061083
94889KARB ARB20160329150510303/29/16 15:05:31  5-MIN KARB 292005Z VRB04KT 10SM CLR 11/M07 A3028 510 27 200 VRB/04 RMK AO2 T01111072
94889KARB ARB20160329151010303/29/16 15:10:31  5-MIN KARB 292010Z 30003KT 10SM CLR 11/M08 A3028 510 26 200 310/03 RMK AO2 T01111078
94889KARB ARB20160329151510303/29/16 15:15:31  5-MIN KARB 292015Z VRB03KT 10SM CLR 11/M08 A3028 510 27 100 VRB/03 RMK AO2 T01061078
94889KARB ARB20160329152010303/29/16 15:20:31  5-MIN KARB 292020Z 30007KT 10SM CLR 11/M08 A3028 510 26 200 310/07 RMK AO2 T01111078
94889KARB ARB20160329152510303/29/16 15:25:31  5-MIN KARB 292025Z 18003KT 10SM CLR 10/M08 A3027 520 26 100 190/03 RMK AO2 T01001083
94889KARB ARB20160329153010303/29/16 15:30:31  5-MIN KARB 292030Z VRB04KT 10SM CLR 10/M08 A3027 520 28 100 VRB/04 RMK AO2 T01001078
94889KARB ARB20160329153510303/29/16 15:35:31  5-MIN KARB 292035Z 21004KT 10SM CLR 11/M08 A3027 520 27 200 220/04 RMK AO2 T01061078
94889KARB ARB20160329154010303/29/16 15:40:31  5-MIN KARB 292040Z 00000KT 10SM CLR 11/M07 A3027 520 28 200 000/00 RMK AO2 T01061072
94889KARB ARB20160329154510303/29/16 15:45:31  5-MIN KARB 292045Z 26006KT 10SM CLR 11/M08 A3027 520 26 200 260/06 RMK AO2 T01111078
94889KARB ARB20160329155012103/29/16 15:50:31  5-MIN KARB 292050Z AUTO 30004KT 10SM CLR 11/M08 A3027 520 25 200 300/04 RMK AO2 SLP255 T01111083 58006
94889KARB ARB20160329155510803/29/16 15:55:31  5-MIN KARB 292055Z AUTO 23004KT 10SM CLR 11/M08 A3027 520 25 200 230/04 RMK AO2 T01061083
94889KARB ARB20160329160010803/29/16 16:00:31  5-MIN KARB 292100Z AUTO VRB03KT 10SM CLR 11/M08 A3027 520 26 200 VRB/03 RMK AO2 T01111078
94889KARB ARB20160329160510803/29/16 16:05:31  5-MIN KARB 292105Z AUTO 25003KT 10SM CLR 11/M08 A3026 520 25 200 250/03 RMK AO2 T01061083
94889KARB ARB20160329161010803/29/16 16:10:31  5-MIN KARB 292110Z AUTO 00000KT 10SM CLR 11/M08 A3026 530 25 200 000/00 RMK AO2 T01061083
94889KARB ARB20160329161510803/29/16 16:15:31  5-MIN KARB 292115Z AUTO 00000KT 10SM CLR 11/M09 A3026 520 24 200 000/00 RMK AO2 T01061089
94889KARB ARB20160329162010803/29/16 16:20:31  5-MIN KARB 292120Z AUTO 00000KT 10SM CLR 11/M09 A3026 520 24 200 000/00 RMK AO2 T01061089
94889KARB ARB20160329162510803/29/16 16:25:31  5-MIN KARB 292125Z AUTO 00000KT 10SM CLR 11/M09 A3026 530 23 200 000/00 RMK AO2 T01061094
94889KARB ARB20160329163010803/29/16 16:30:31  5-MIN KARB 292130Z AUTO VRB03KT 10SM CLR 11/M09 A3026 530 23 200 VRB/03 RMK AO2 T01111089
94889KARB ARB20160329163510803/29/16 16:35:31  5-MIN KARB 292135Z AUTO 00000KT 10SM CLR 11/M09 A3026 530 23 200 000/00 RMK AO2 T01061094
94889KARB ARB20160329164010803/29/16 16:40:31  5-MIN KARB 292140Z AUTO 10005KT 10SM CLR 11/M09 A3026 530 23 200 110/05 RMK AO2 T01061094
94889KARB ARB20160329164510803/29/16 16:45:31  5-MIN KARB 292145Z AUTO VRB03KT 10SM CLR 11/M09 A3025 530 24 200 VRB/03 RMK AO2 T01061089
94889KARB ARB20160329165011503/29/16 16:50:31  5-MIN KARB 292150Z AUTO 00000KT 10SM CLR 11/M09 A3025 530 24 200 000/00 RMK AO2 SLP250 T01061089
94889KARB ARB20160329165510303/29/16 16:55:31  5-MIN KARB 292155Z 00000KT 10SM CLR 11/M09 A3025 530 23 200 000/00 RMK AO2 T01111089
94889KARB ARB20160329170010303/29/16 17:00:31  5-MIN KARB 292200Z 00000KT 10SM CLR 11/M09 A3025 530 23 200 000/00 RMK AO2 T01111089
94889KARB ARB20160329170510303/29/16 17:05:31  5-MIN KARB 292205Z 12003KT 10SM CLR 11/M09 A3025 540 23 200 130/03 RMK AO2 T01061094
94889KARB ARB20160329171010303/29/16 17:10:31  5-MIN KARB 292210Z VRB03KT 10SM CLR 11/M09 A3025 540 24 200 VRB/03 RMK AO2 T01061089
94889KARB ARB20160329171510303/29/16 17:15:31  5-MIN KARB 292215Z 00000KT 10SM CLR 11/M10 A3025 530 22 200 000/00 RMK AO2 T01111100
94889KARB ARB20160329172010303/29/16 17:20:31  5-MIN KARB 292220Z 29004KT 10SM CLR 11/M09 A3025 530 22 200 300/04 RMK AO2 T01111094
94889KARB ARB20160329172510303/29/16 17:25:31  5-MIN KARB 292225Z 30003KT 10SM CLR 11/M09 A3026 530 22 200 300/03 RMK AO2 T01111094
94889KARB ARB20160329173010303/29/16 17:30:31  5-MIN KARB 292230Z VRB04KT 10SM CLR 11/M09 A3026 530 22 200 VRB/04 RMK AO2 T01111094
94889KARB ARB20160329173510303/29/16 17:35:31  5-MIN KARB 292235Z 00000KT 10SM CLR 11/M09 A3026 530 22 200 000/00 RMK AO2 T01111094
94889KARB ARB20160329174010303/29/16 17:40:31  5-MIN KARB 292240Z 24004KT 10SM CLR 11/M08 A3026 530 25 200 250/04 RMK AO2 T01061083
94889KARB ARB20160329174510303/29/16 17:45:31  5-MIN KARB 292245Z 25004KT 10SM CLR 10/M08 A3026 530 28 100 260/04 RMK AO2 T01001078
94889KARB ARB20160329175011003/29/16 17:50:31  5-MIN KARB 292250Z 27003KT 10SM CLR 10/M08 A3026 530 26 100 270/03 RMK AO2 SLP252 T01001083
94889KARB ARB20160329175510103/29/16 17:55:31  5-MIN KARB 292255Z 22006KT 10SM CLR 09/M08 A3025 540 29 0 230/06 RMK AO2 T00941078
94889KARB ARB20160329180010103/29/16 18:00:31  5-MIN KARB 292300Z 23005KT 10SM CLR 09/M07 A3025 540 32 0 240/05 RMK AO2 T00891067
94889KARB ARB20160329180510103/29/16 18:05:31  5-MIN KARB 292305Z 23004KT 10SM CLR 09/M06 A3025 540 34 0 240/04 RMK AO2 T00891061
94889KARB ARB20160329181010103/29/16 18:10:31  5-MIN KARB 292310Z 20004KT 10SM CLR 09/M07 A3025 540 31 0 200/04 RMK AO2 T00891072
94889KARB ARB20160329181510103/29/16 18:15:31  5-MIN KARB 292315Z 21003KT 10SM CLR 09/M08 A3024 540 29 0 210/03 RMK AO2 T00941078
94889KARB ARB20160329182010103/29/16 18:20:31  5-MIN KARB 292320Z 00000KT 10SM CLR 09/M08 A3024 540 27 0 000/00 RMK AO2 T00941083
94889KARB ARB20160329182510103/29/16 18:25:31  5-MIN KARB 292325Z 22003KT 10SM CLR 09/M07 A3024 540 31 0 230/03 RMK AO2 T00891072
94889KARB ARB20160329183010103/29/16 18:30:31  5-MIN KARB 292330Z 22003KT 10SM CLR 08/M07 A3024 550 32 0 220/03 RMK AO2 T00831072
94889KARB ARB20160329183510103/29/16 18:35:31  5-MIN KARB 292335Z VRB03KT 10SM CLR 09/M08 A3024 550 30 0 VRB/03 RMK AO2 T00891078
94889KARB ARB20160329184010403/29/16 18:40:31  5-MIN KARB 292340Z 00000KT 10SM CLR 08/M05 A3024 550 40 -100 000/00 RMK AO2 T00781050
94889KARB ARB20160329184510103/29/16 18:45:31  5-MIN KARB 292345Z 13004KT 10SM CLR 08/M04 A3024 550 40 0 140/04 RMK AO2 T00831044
94889KARB ARB20160329185012903/29/16 18:50:31  5-MIN KARB 292350Z 14004KT 10SM CLR 08/M06 A3024 550 38 -100 150/04 RMK AO2 SLP246 T00781056 10111 20072 57015
94889KARB ARB20160329185510403/29/16 18:55:31  5-MIN KARB 292355Z 14008KT 10SM CLR 07/M03 A3024 550 49 -200 150/08 RMK AO2 T00721028
94889KARB ARB20160329190010903/29/16 19:00:31  5-MIN KARB 300000Z AUTO 14008KT 10SM CLR 07/M01 A3024 550 57 -200 150/08 RMK AO2 T00721006
94889KARB ARB20160329190510803/29/16 19:05:31  5-MIN KARB 300005Z AUTO 14006KT 10SM CLR 07/00 A3024 540 60 -200 150/06 RMK AO2 T00720000
94889KARB ARB20160329191010803/29/16 19:10:31  5-MIN KARB 300010Z AUTO 15005KT 10SM CLR 06/00 A3025 540 65 -300 160/05 RMK AO2 T00610000
94889KARB ARB20160329191510803/29/16 19:15:31  5-MIN KARB 300015Z AUTO 16005KT 10SM CLR 06/00 A3025 540 65 -300 170/05 RMK AO2 T00610000
94889KARB ARB20160329192010803/29/16 19:20:31  5-MIN KARB 300020Z AUTO 15009KT 10SM CLR 06/00 A3024 540 65 -300 160/09 RMK AO2 T00610000
94889KARB ARB20160329192510803/29/16 19:25:31  5-MIN KARB 300025Z AUTO 15007KT 10SM CLR 06/00 A3024 540 65 -300 160/07 RMK AO2 T00610000
94889KARB ARB20160329193010803/29/16 19:30:31  5-MIN KARB 300030Z AUTO 16008KT 10SM CLR 06/00 A3024 540 67 -400 160/08 RMK AO2 T00560000
94889KARB ARB20160329193510903/29/16 19:35:31  5-MIN KARB 300035Z AUTO 16008KT 10SM CLR 06/M01 A3025 540 65 -400 170/08 RMK AO2 T00561006
94889KARB ARB20160329194010903/29/16 19:40:31  5-MIN KARB 300040Z AUTO 17006KT 10SM CLR 05/M01 A3025 540 64 -400 180/06 RMK AO2 T00501011
94889KARB ARB20160329194510903/29/16 19:45:31  5-MIN KARB 300045Z AUTO 16006KT 10SM CLR 05/M01 A3024 550 64 -400 160/06 RMK AO2 T00501011
94889KARB ARB20160329195011603/29/16 19:50:31  5-MIN KARB 300050Z AUTO 14007KT 10SM CLR 05/M01 A3024 550 64 -400 150/07 RMK AO2 SLP248 T00501011
94889KARB ARB20160329195510903/29/16 19:55:31  5-MIN KARB 300055Z AUTO 13007KT 10SM CLR 05/M01 A3023 550 64 -400 140/07 RMK AO2 T00501011
94889KARB ARB20160329200010903/29/16 20:00:31  5-MIN KARB 300100Z AUTO 13005KT 10SM CLR 04/M01 A3024 550 67 -500 140/05 RMK AO2 T00441011
94889KARB ARB20160329200510903/29/16 20:05:31  5-MIN KARB 300105Z AUTO 14004KT 10SM CLR 04/M01 A3024 550 70 -600 150/04 RMK AO2 T00391011
94889KARB ARB20160329201010903/29/16 20:10:31  5-MIN KARB 300110Z AUTO 17003KT 10SM CLR 04/M01 A3024 540 67 -500 170/03 RMK AO2 T00441011
94889KARB ARB20160329201510903/29/16 20:15:31  5-MIN KARB 300115Z AUTO 17003KT 10SM CLR 04/M01 A3024 550 70 -600 180/03 RMK AO2 T00391011
94889KARB ARB20160329202010903/29/16 20:20:31  5-MIN KARB 300120Z AUTO 16004KT 10SM CLR 04/M01 A3024 540 70 -600 160/04 RMK AO2 T00391011
94889KARB ARB20160329202510903/29/16 20:25:31  5-MIN KARB 300125Z AUTO 16004KT 10SM CLR 04/M01 A3024 540 70 -600 170/04 RMK AO2 T00391011
94889KARB ARB20160329203010903/29/16 20:30:31  5-MIN KARB 300130Z AUTO 15005KT 10SM CLR 04/M01 A3024 540 70 -600 160/05 RMK AO2 T00391011
94889KARB ARB20160329203510903/29/16 20:35:31  5-MIN KARB 300135Z AUTO 15004KT 10SM CLR 03/M01 A3024 540 72 -600 150/04 RMK AO2 T00331011
94889KARB ARB20160329204010903/29/16 20:40:31  5-MIN KARB 300140Z AUTO 17004KT 10SM CLR 03/M01 A3025 540 72 -700 180/04 RMK AO2 T00331011
94889KARB ARB20160329204510903/29/16 20:45:31  5-MIN KARB 300145Z AUTO 16004KT 10SM CLR 03/M01 A3025 540 72 -700 170/04 RMK AO2 T00331011
94889KARB ARB20160329205011603/29/16 20:50:31  5-MIN KARB 300150Z AUTO 16005KT 10SM CLR 03/M01 A3025 540 72 -700 170/05 RMK AO2 SLP250 T00331011
94889KARB ARB20160329205510903/29/16 20:55:31  5-MIN KARB 300155Z AUTO 16004KT 10SM CLR 03/M01 A3025 540 72 -700 160/04 RMK AO2 T00331011
94889KARB ARB20160329210010903/29/16 21:00:31  5-MIN KARB 300200Z AUTO 15004KT 10SM CLR 03/M01 A3024 540 72 -700 160/04 RMK AO2 T00331011
94889KARB ARB20160329210510903/29/16 21:05:31  5-MIN KARB 300205Z AUTO 14003KT 10SM CLR 03/M01 A3025 540 72 -700 150/03 RMK AO2 T00331011
94889KARB ARB20160329211010903/29/16 21:10:31  5-MIN KARB 300210Z AUTO 00000KT 10SM CLR 03/M01 A3025 540 75 -700 000/00 RMK AO2 T00281011
94889KARB ARB20160329211510903/29/16 21:15:31  5-MIN KARB 300215Z AUTO 00000KT 10SM CLR 03/M01 A3025 540 75 -700 000/00 RMK AO2 T00281011
94889KARB ARB20160329212010903/29/16 21:20:31  5-MIN KARB 300220Z AUTO 00000KT 10SM CLR 03/M01 A3025 540 72 -700 000/00 RMK AO2 T00331011
94889KARB ARB20160329212510903/29/16 21:25:31  5-MIN KARB 300225Z AUTO 00000KT 10SM CLR 03/M01 A3025 540 72 -700 000/00 RMK AO2 T00331011
94889KARB ARB20160329213010903/29/16 21:30:31  5-MIN KARB 300230Z AUTO 00000KT 10SM CLR 03/M01 A3025 540 75 -700 000/00 RMK AO2 T00281011
94889KARB ARB20160329213510903/29/16 21:35:31  5-MIN KARB 300235Z AUTO 00000KT 10SM CLR 03/M01 A3025 530 75 -700 000/00 RMK AO2 T00281011
94889KARB ARB20160329214010903/29/16 21:40:31  5-MIN KARB 300240Z AUTO 00000KT 10SM CLR 03/M02 A3025 530 72 -700 000/00 RMK AO2 T00281017
94889KARB ARB20160329214510903/29/16 21:45:31  5-MIN KARB 300245Z AUTO 00000KT 10SM CLR 03/M02 A3025 540 72 -700 000/00 RMK AO2 T00281017
94889KARB ARB20160329215012203/29/16 21:50:31  5-MIN KARB 300250Z AUTO 00000KT 10SM CLR 03/M02 A3025 540 72 -700 000/00 RMK AO2 SLP250 T00281017 58010
94889KARB ARB20160329215510903/29/16 21:55:31  5-MIN KARB 300255Z AUTO 00000KT 10SM CLR 02/M02 A3026 530 75 -800 000/00 RMK AO2 T00221017
94889KARB ARB20160329220010903/29/16 22:00:31  5-MIN KARB 300300Z AUTO 00000KT 10SM CLR 03/M02 A3026 530 72 -700 000/00 RMK AO2 T00281017
94889KARB ARB20160329220510903/29/16 22:05:31  5-MIN KARB 300305Z AUTO 00000KT 10SM CLR 02/M02 A3026 530 78 -900 000/00 RMK AO2 T00171017
94889KARB ARB20160329221011003/29/16 22:10:31  5-MIN KARB 300310Z AUTO 00000KT 10SM CLR 00/M03 A3026 530 81 -1100 000/00 RMK AO2 T00001028
94889KARB ARB20160329221511003/29/16 22:15:31  5-MIN KARB 300315Z AUTO 00000KT 10SM CLR 00/M03 A3026 530 81 -1100 000/00 RMK AO2 T00001028
94889KARB ARB20160329222011003/29/16 22:20:31  5-MIN KARB 300320Z AUTO 00000KT 10SM CLR 00/M02 A3026 530 85 -1100 000/00 RMK AO2 T00001022
94889KARB ARB20160329222511003/29/16 22:25:31  5-MIN KARB 300325Z AUTO 00000KT 10SM CLR 01/M02 A3026 530 85 -1000 000/00 RMK AO2 T00061017
94889KARB ARB20160329223011003/29/16 22:30:31  5-MIN KARB 300330Z AUTO 00000KT 10SM CLR 00/M02 A3025 530 88 -1100 000/00 RMK AO2 T00001017
94889KARB ARB20160329223511003/29/16 22:35:31  5-MIN KARB 300335Z AUTO 00000KT 10SM CLR 00/M02 A3026 530 88 -1100 000/00 RMK AO2 T00001017
94889KARB ARB20160329224011003/29/16 22:40:31  5-MIN KARB 300340Z AUTO 00000KT 10SM CLR 00/M02 A3026 530 88 -1100 000/00 RMK AO2 T00001017
94889KARB ARB20160329224511003/29/16 22:45:31  5-MIN KARB 300345Z AUTO 00000KT 10SM CLR 00/M01 A3025 530 92 -1100 000/00 RMK AO2 T00001011
94889KARB ARB20160329225011703/29/16 22:50:31  5-MIN KARB 300350Z AUTO 00000KT 10SM CLR 01/M01 A3025 530 89 -1000 000/00 RMK AO2 SLP251 T00061011
94889KARB ARB20160329225511003/29/16 22:55:31  5-MIN KARB 300355Z AUTO 12003KT 10SM CLR 01/M01 A3025 540 89 -1000 130/03 RMK AO2 T00061011
94889KARB ARB20160329230011003/29/16 23:00:31  5-MIN KARB 300400Z AUTO 00000KT 10SM CLR 00/M01 A3025 540 92 -1100 000/00 RMK AO2 T00001011
94889KARB ARB20160329230511003/29/16 23:05:31  5-MIN KARB 300405Z AUTO 00000KT 10SM CLR 01/M01 A3025 540 89 -1000 000/00 RMK AO2 T00061011
94889KARB ARB20160329231010903/29/16 23:10:31  5-MIN KARB 300410Z AUTO 00000KT 10SM CLR 01/M01 A3025 540 85 -900 000/00 RMK AO2 T00111011
94889KARB ARB20160329231511003/29/16 23:15:31  5-MIN KARB 300415Z AUTO 00000KT 10SM CLR 01/M01 A3025 540 89 -1000 000/00 RMK AO2 T00061011
94889KARB ARB20160329232011103/29/16 23:20:31  5-MIN KARB 300420Z AUTO 00000KT 10SM CLR M01/M02 A3025 540 88 -1100 000/00 RMK AO2 T10061022
94889KARB ARB20160329232511103/29/16 23:25:31  5-MIN KARB 300425Z AUTO 00000KT 10SM CLR M01/M02 A3024 540 88 -1100 000/00 RMK AO2 T10061022
94889KARB ARB20160329233011103/29/16 23:30:31  5-MIN KARB 300430Z AUTO 00000KT 10SM CLR M01/M02 A3024 540 92 -1200 000/00 RMK AO2 T10111022
94889KARB ARB20160329233511103/29/16 23:35:31  5-MIN KARB 300435Z AUTO 00000KT 10SM CLR M01/M02 A3024 550 88 -1100 000/00 RMK AO2 T10061022
94889KARB ARB20160329234011103/29/16 23:40:31  5-MIN KARB 300440Z AUTO 00000KT 10SM CLR M01/M02 A3024 550 96 -1200 000/00 RMK AO2 T10111017
94889KARB ARB20160329234511203/29/16 23:45:31  5-MIN KARB 300445Z AUTO 00000KT 10SM CLR M01/M01 A3024 550 100 -1200 000/00 RMK AO2 T10111011
94889KARB ARB20160329235012803/29/16 23:50:31  5-MIN KARB 300450Z AUTO 00000KT 10SM CLR M01/M02 A3024 550 96 -1200 000/00 RMK AO2 SLP247 T10111017 401111011
94889KARB ARB20160329235511103/29/16 23:55:31  5-MIN KARB 300455Z AUTO 00000KT 10SM CLR M01/M02 A3024 550 92 -1100 000/00 RMK AO2 T10061017
94889KARB ARB20160330000011003/30/16 00:00:31  5-MIN KARB 300500Z AUTO 00000KT 10SM CLR 00/M02 A3024 550 88 -1100 000/00 RMK AO2 T00001017
94889KARB ARB20160330000511603/30/16 00:05:31  5-MIN KARB 300505Z AUTO 00000KT 10SM CLR 00/M02 A3024 550 85 -1100 000/00 RMK AO2 I1000 T00001022
94889KARB ARB20160330001011603/30/16 00:10:31  5-MIN KARB 300510Z AUTO 00000KT 10SM CLR 00/M02 A3024 550 85 -1100 000/00 RMK AO2 I1000 T00001022
94889KARB ARB20160330001511603/30/16 00:15:31  5-MIN KARB 300515Z AUTO 00000KT 10SM CLR 00/M02 A3024 550 85 -1100 000/00 RMK AO2 I1000 T00001022
94889KARB ARB20160330002011703/30/16 00:20:31  5-MIN KARB 300520Z AUTO 00000KT 10SM CLR M01/M02 A3023 550 96 -1200 000/00 RMK AO2 I1000 T10111017
94889KARB ARB20160330002511703/30/16 00:25:31  5-MIN KARB 300525Z AUTO 00000KT 10SM CLR M01/M02 A3023 550 92 -1200 000/00 RMK AO2 I1000 T10111022
94889KARB ARB20160330003011703/30/16 00:30:31  5-MIN KARB 300530Z AUTO 00000KT 10SM CLR M01/M02 A3023 550 96 -1200 000/00 RMK AO2 I1000 T10111017
94889KARB ARB20160330003511703/30/16 00:35:31  5-MIN KARB 300535Z AUTO 00000KT 10SM CLR M01/M02 A3023 550 92 -1200 000/00 RMK AO2 I1001 T10111022
94889KARB ARB20160330004011603/30/16 00:40:31  5-MIN KARB 300540Z AUTO 00000KT 10SM CLR 00/M02 A3023 560 85 -1100 000/00 RMK AO2 I1001 T00001022
94889KARB ARB20160330004511703/30/16 00:45:31  5-MIN KARB 300545Z AUTO 00000KT 10SM CLR M01/M03 A3023 560 85 -1200 000/00 RMK AO2 I1001 T10111033
94889KARB ARB20160330005014803/30/16 00:50:31  5-MIN KARB 300550Z AUTO 00000KT 10SM CLR M02/M03 A3023 560 92 -1300 000/00 RMK AO2 SLP242 I1001 I6001 T10171028 10078 21017 53006
94889KARB ARB20160330005511103/30/16 00:55:31  5-MIN KARB 300555Z AUTO 00000KT 10SM CLR M02/M03 A3022 560 88 -1300 000/00 RMK AO2 T10171033
94889KARB ARB20160330010011103/30/16 01:00:31  5-MIN KARB 300600Z AUTO 00000KT 10SM CLR M01/M03 A3022 560 88 -1200 000/00 RMK AO2 T10111028
94889KARB ARB20160330010511103/30/16 01:05:31  5-MIN KARB 300605Z AUTO 00000KT 10SM CLR M01/M03 A3022 570 88 -1200 000/00 RMK AO2 T10111028
94889KARB ARB20160330011011103/30/16 01:10:31  5-MIN KARB 300610Z AUTO 00000KT 10SM CLR M01/M03 A3022 570 88 -1200 000/00 RMK AO2 T10111028
94889KARB ARB20160330011511703/30/16 01:15:31  5-MIN KARB 300615Z AUTO 00000KT 10SM CLR M01/M02 A3022 570 92 -1200 000/00 RMK AO2 I1000 T10111022
94889KARB ARB20160330012011703/30/16 01:20:31  5-MIN KARB 300620Z AUTO 00000KT 10SM CLR M01/M02 A3021 570 92 -1200 000/00 RMK AO2 I1000 T10111022
94889KARB ARB20160330012511703/30/16 01:25:31  5-MIN KARB 300625Z AUTO 00000KT 10SM CLR M01/M02 A3021 570 92 -1200 000/00 RMK AO2 I1000 T10111022
94889KARB ARB20160330013011703/30/16 01:30:31  5-MIN KARB 300630Z AUTO 00000KT 10SM CLR M01/M02 A3021 570 92 -1200 000/00 RMK AO2 I1000 T10111022
94889KARB ARB20160330013511703/30/16 01:35:31  5-MIN KARB 300635Z AUTO 00000KT 10SM CLR M02/M03 A3021 580 92 -1200 000/00 RMK AO2 I1000 T10171028
94889KARB ARB20160330014011703/30/16 01:40:31  5-MIN KARB 300640Z AUTO 00000KT 10SM CLR M02/M03 A3021 580 92 -1200 000/00 RMK AO2 I1000 T10171028
94889KARB ARB20160330014511703/30/16 01:45:31  5-MIN KARB 300645Z AUTO 00000KT 10SM CLR M02/M03 A3021 580 92 -1200 000/00 RMK AO2 I1000 T10171028
94889KARB ARB20160330015012403/30/16 01:50:31  5-MIN KARB 300650Z AUTO 00000KT 10SM CLR M01/M02 A3020 580 92 -1200 000/00 RMK AO2 SLP234 I1000 T10111022
94889KARB ARB20160330015511103/30/16 01:55:31  5-MIN KARB 300655Z AUTO 00000KT 10SM CLR M01/M02 A3020 580 88 -1100 000/00 RMK AO2 T10061022
94889KARB ARB20160330020011103/30/16 02:00:31  5-MIN KARB 300700Z AUTO 00000KT 10SM CLR M01/M02 A3020 580 88 -1100 000/00 RMK AO2 T10061022
94889KARB ARB20160330020511003/30/16 02:05:31  5-MIN KARB 300705Z AUTO 00000KT 10SM CLR 00/M02 A3020 580 85 -1000 000/00 RMK AO2 T00001022
94889KARB ARB20160330021011103/30/16 02:10:31  5-MIN KARB 300710Z AUTO 00000KT 10SM CLR M01/M03 A3020 580 85 -1100 000/00 RMK AO2 T10061028
94889KARB ARB20160330021511103/30/16 02:15:31  5-MIN KARB 300715Z AUTO 00000KT 10SM CLR M01/M02 A3020 590 88 -1100 000/00 RMK AO2 T10061022
94889KARB ARB20160330022011103/30/16 02:20:31  5-MIN KARB 300720Z AUTO 00000KT 10SM CLR M01/M02 A3020 590 92 -1200 000/00 RMK AO2 T10111022
94889KARB ARB20160330022511103/30/16 02:25:31  5-MIN KARB 300725Z AUTO 00000KT 10SM CLR M01/M02 A3019 590 92 -1200 000/00 RMK AO2 T10111022
94889KARB ARB20160330023011103/30/16 02:30:31  5-MIN KARB 300730Z AUTO 00000KT 10SM CLR M01/M02 A3019 590 88 -1100 000/00 RMK AO2 T10061022
94889KARB ARB20160330023511103/30/16 02:35:31  5-MIN KARB 300735Z AUTO 00000KT 10SM CLR M01/M02 A3019 590 92 -1100 000/00 RMK AO2 T10111022
94889KARB ARB20160330024011103/30/16 02:40:31  5-MIN KARB 300740Z AUTO 00000KT 10SM CLR M01/M03 A3019 600 88 -1100 000/00 RMK AO2 T10111028
94889KARB ARB20160330024511103/30/16 02:45:31  5-MIN KARB 300745Z AUTO 00000KT 10SM CLR M02/M03 A3019 600 92 -1200 000/00 RMK AO2 T10171028
94889KARB ARB20160330025011803/30/16 02:50:31  5-MIN KARB 300750Z AUTO 00000KT 10SM CLR M02/M03 A3019 600 96 -1300 000/00 RMK AO2 SLP228 T10221028
94889KARB ARB20160330025511103/30/16 02:55:31  5-MIN KARB 300755Z AUTO 00000KT 10SM CLR M02/M03 A3018 600 92 -1200 000/00 RMK AO2 T10171028
94889KARB ARB20160330030011103/30/16 03:00:31  5-MIN KARB 300800Z AUTO 00000KT 10SM CLR M02/M03 A3018 600 92 -1300 000/00 RMK AO2 T10221033
94889KARB ARB20160330030511103/30/16 03:05:31  5-MIN KARB 300805Z AUTO 00000KT 10SM CLR M01/M03 A3018 600 88 -1100 000/00 RMK AO2 T10111028
94889KARB ARB20160330031011103/30/16 03:10:31  5-MIN KARB 300810Z AUTO 00000KT 10SM CLR M01/M03 A3018 600 88 -1100 000/00 RMK AO2 T10111028
94889KARB ARB20160330031511103/30/16 03:15:31  5-MIN KARB 300815Z AUTO 00000KT 10SM CLR M02/M03 A3018 600 88 -1200 000/00 RMK AO2 T10171033
94889KARB ARB20160330032011103/30/16 03:20:31  5-MIN KARB 300820Z AUTO 00000KT 10SM CLR M03/M03 A3018 600 96 -1300 000/00 RMK AO2 T10281033
94889KARB ARB20160330032511103/30/16 03:25:31  5-MIN KARB 300825Z AUTO 00000KT 10SM CLR M02/M03 A3018 600 92 -1300 000/00 RMK AO2 T10221033
94889KARB ARB20160330033011103/30/16 03:30:31  5-MIN KARB 300830Z AUTO 00000KT 10SM CLR M02/M03 A3018 600 92 -1300 000/00 RMK AO2 T10221033
94889KARB ARB20160330033511703/30/16 03:35:31  5-MIN KARB 300835Z AUTO 00000KT 10SM CLR M02/M03 A3018 610 92 -1300 000/00 RMK AO2 I1000 T10221033
94889KARB ARB20160330034011703/30/16 03:40:31  5-MIN KARB 300840Z AUTO 00000KT 10SM CLR M02/M03 A3017 610 92 -1300 000/00 RMK AO2 I1000 T10221033
94889KARB ARB20160330034511703/30/16 03:45:31  5-MIN KARB 300845Z AUTO 00000KT 10SM CLR M03/M03 A3017 610 96 -1300 000/00 RMK AO2 I1000 T10281033
94889KARB ARB20160330035013603/30/16 03:50:31  5-MIN KARB 300850Z AUTO 00000KT 10SM CLR M02/M03 A3016 620 92 -1300 000/00 RMK AO2 SLP220 I1000 I3/// T10221033 58010
94889KARB ARB20160330035511103/30/16 03:55:31  5-MIN KARB 300855Z AUTO 00000KT 10SM CLR M02/M03 A3016 620 92 -1300 000/00 RMK AO2 T10221033
94889KARB ARB20160330040011103/30/16 04:00:31  5-MIN KARB 300900Z AUTO 00000KT 10SM CLR M02/M03 A3016 620 92 -1300 000/00 RMK AO2 T10221033
94889KARB ARB20160330040511103/30/16 04:05:31  5-MIN KARB 300905Z AUTO 00000KT 10SM CLR M01/M03 A3016 620 88 -1100 000/00 RMK AO2 T10111028
94889KARB ARB20160330041011103/30/16 04:10:31  5-MIN KARB 300910Z AUTO 00000KT 10SM CLR M01/M03 A3016 620 85 -1000 000/00 RMK AO2 T10061028
94889KARB ARB20160330041511003/30/16 04:15:31  5-MIN KARB 300915Z AUTO 00000KT 10SM CLR 00/M02 A3016 620 85 -1000 000/00 RMK AO2 T00001022
94889KARB ARB20160330042010903/30/16 04:20:31  5-MIN KARB 300920Z AUTO 00000KT 10SM CLR 01/M02 A3016 620 82 -900 000/00 RMK AO2 T00061022
94889KARB ARB20160330042511103/30/16 04:25:31  5-MIN KARB 300925Z AUTO 00000KT 10SM CLR M01/M03 A3015 630 85 -1000 000/00 RMK AO2 T10061028
94889KARB ARB20160330043011003/30/16 04:30:31  5-MIN KARB 300930Z AUTO 13003KT 10SM CLR 00/M03 A3015 630 81 -1000 140/03 RMK AO2 T00001028
94889KARB ARB20160330043511003/30/16 04:35:31  5-MIN KARB 300935Z AUTO 15004KT 10SM CLR 00/M03 A3015 630 81 -1000 160/04 RMK AO2 T00001028
94889KARB ARB20160330044011003/30/16 04:40:31  5-MIN KARB 300940Z AUTO 15004KT 10SM CLR 00/M03 A3015 630 81 -1000 160/04 RMK AO2 T00001028
94889KARB ARB20160330044511003/30/16 04:45:31  5-MIN KARB 300945Z AUTO 00000KT 10SM CLR 00/M03 A3016 620 81 -1000 000/00 RMK AO2 T00001028
94889KARB ARB20160330045011603/30/16 04:50:31  5-MIN KARB 300950Z AUTO 17004KT 10SM CLR 01/M03 A3016 620 78 -900 170/04 RMK AO2 SLP218 T00061028
94889KARB ARB20160330045510903/30/16 04:55:31  5-MIN KARB 300955Z AUTO 18003KT 10SM CLR 01/M03 A3016 620 78 -900 190/03 RMK AO2 T00061028
94889KARB ARB20160330050010903/30/16 05:00:31  5-MIN KARB 301000Z AUTO 18003KT 10SM CLR 01/M03 A3016 620 78 -900 190/03 RMK AO2 T00061028
94889KARB ARB20160330050510903/30/16 05:05:31  5-MIN KARB 301005Z AUTO 00000KT 10SM CLR 01/M03 A3016 620 78 -900 000/00 RMK AO2 T00061028
94889KARB ARB20160330051010903/30/16 05:10:31  5-MIN KARB 301010Z AUTO 00000KT 10SM CLR 01/M03 A3016 620 78 -900 000/00 RMK AO2 T00061028
94889KARB ARB20160330051511003/30/16 05:15:31  5-MIN KARB 301015Z AUTO 00000KT 10SM CLR 00/M03 A3016 620 78 -1000 000/00 RMK AO2 T00001033
94889KARB ARB20160330052011003/30/16 05:20:31  5-MIN KARB 301020Z AUTO 00000KT 10SM CLR 00/M03 A3016 620 78 -1000 000/00 RMK AO2 T00001033
94889KARB ARB20160330052511003/30/16 05:25:31  5-MIN KARB 301025Z AUTO 00000KT 10SM CLR 00/M03 A3016 620 78 -1000 000/00 RMK AO2 T00001033
94889KARB ARB20160330053011003/30/16 05:30:31  5-MIN KARB 301030Z AUTO 00000KT 10SM CLR 00/M03 A3016 620 78 -1000 000/00 RMK AO2 T00001033
94889KARB ARB20160330053511003/30/16 05:35:31  5-MIN KARB 301035Z AUTO 00000KT 10SM CLR 00/M03 A3016 620 78 -1000 000/00 RMK AO2 T00001033
94889KARB ARB20160330054011003/30/16 05:40:31  5-MIN KARB 301040Z AUTO 00000KT 10SM CLR 00/M03 A3016 620 81 -1000 000/00 RMK AO2 T00001028
94889KARB ARB20160330054511103/30/16 05:45:31  5-MIN KARB 301045Z AUTO 00000KT 10SM CLR M02/M04 A3017 610 88 -1300 000/00 RMK AO2 T10221039
94889KARB ARB20160330055011803/30/16 05:50:31  5-MIN KARB 301050Z AUTO 00000KT 10SM CLR M02/M04 A3017 610 88 -1300 000/00 RMK AO2 SLP222 T10221039
94889KARB ARB20160330055511103/30/16 05:55:31  5-MIN KARB 301055Z AUTO 00000KT 10SM CLR M03/M05 A3017 610 88 -1400 000/00 RMK AO2 T10331050
94889KARB ARB20160330060011103/30/16 06:00:31  5-MIN KARB 301100Z AUTO 00000KT 10SM CLR M03/M04 A3016 620 88 -1300 000/00 RMK AO2 T10281044
94889KARB ARB20160330060511103/30/16 06:05:31  5-MIN KARB 301105Z AUTO 00000KT 10SM CLR M02/M04 A3016 620 88 -1300 000/00 RMK AO2 T10221039
94889KARB ARB20160330061011103/30/16 06:10:31  5-MIN KARB 301110Z AUTO 00000KT 10SM CLR M02/M03 A3016 620 92 -1300 000/00 RMK AO2 T10221033
94889KARB ARB20160330061511103/30/16 06:15:31  5-MIN KARB 301115Z AUTO 00000KT 10SM CLR M03/M03 A3016 620 96 -1300 000/00 RMK AO2 T10281033
94889KARB ARB20160330062011103/30/16 06:20:31  5-MIN KARB 301120Z AUTO 00000KT 10SM CLR M03/M03 A3016 620 96 -1300 000/00 RMK AO2 T10281033
94889KARB ARB20160330062511103/30/16 06:25:31  5-MIN KARB 301125Z AUTO 00000KT 10SM CLR M02/M03 A3016 620 88 -1200 000/00 RMK AO2 T10171033
94889KARB ARB20160330063011103/30/16 06:30:31  5-MIN KARB 301130Z AUTO 00000KT 10SM CLR M02/M03 A3016 620 92 -1200 000/00 RMK AO2 T10171028
94889KARB ARB20160330063511103/30/16 06:35:31  5-MIN KARB 301135Z AUTO 00000KT 10SM CLR M02/M03 A3016 620 96 -1200 000/00 RMK AO2 T10221028
94889KARB ARB20160330064011103/30/16 06:40:31  5-MIN KARB 301140Z AUTO 00000KT 10SM CLR M02/M03 A3016 620 92 -1200 000/00 RMK AO2 T10171028
94889KARB ARB20160330064511103/30/16 06:45:31  5-MIN KARB 301145Z AUTO 00000KT 10SM CLR M02/M03 A3016 620 92 -1200 000/00 RMK AO2 T10171028
94889KARB ARB20160330065014203/30/16 06:50:31  5-MIN KARB 301150Z AUTO 00000KT 10SM CLR M02/M03 A3015 630 92 -1200 000/00 RMK AO2 SLP218 I6000 T10171028 10006 21033 58020
94889KARB ARB20160330065511103/30/16 06:55:31  5-MIN KARB 301155Z AUTO 00000KT 10SM CLR M02/M03 A3015 630 92 -1200 000/00 RMK AO2 T10171028
94889KARB ARB20160330070011103/30/16 07:00:31  5-MIN KARB 301200Z AUTO 00000KT 10SM CLR M02/M03 A3014 640 96 -1200 000/00 RMK AO2 T10221028
94889KARB ARB20160330070511103/30/16 07:05:31  5-MIN KARB 301205Z AUTO 00000KT 10SM CLR M01/M02 A3014 640 92 -1100 000/00 RMK AO2 T10111022
94889KARB ARB20160330071010903/30/16 07:10:31  5-MIN KARB 301210Z AUTO 00000KT 10SM CLR 00/M02 A3014 640 88 -900 000/00 RMK AO2 T00001017
94889KARB ARB20160330071510903/30/16 07:15:31  5-MIN KARB 301215Z AUTO 00000KT 10SM CLR 01/M02 A3014 640 85 -900 000/00 RMK AO2 T00061017
94889KARB ARB20160330072010903/30/16 07:20:31  5-MIN KARB 301220Z AUTO 00000KT 10SM CLR 02/M02 A3014 640 78 -700 000/00 RMK AO2 T00171017
94889KARB ARB20160330072510903/30/16 07:25:31  5-MIN KARB 301225Z AUTO 14003KT 10SM CLR 02/M02 A3014 640 78 -700 150/03 RMK AO2 T00171017
94889KARB ARB20160330073010903/30/16 07:30:31  5-MIN KARB 301230Z AUTO 14003KT 10SM CLR 01/M02 A3014 640 82 -800 150/03 RMK AO2 T00111017
94889KARB ARB20160330073510903/30/16 07:35:31  5-MIN KARB 301235Z AUTO 00000KT 10SM CLR 02/M02 A3014 640 78 -700 000/00 RMK AO2 T00171017
94889KARB ARB20160330074010903/30/16 07:40:31  5-MIN KARB 301240Z AUTO 13003KT 10SM CLR 02/M02 A3013 650 75 -700 140/03 RMK AO2 T00221017
94889KARB ARB20160330074510903/30/16 07:45:31  5-MIN KARB 301245Z AUTO 12003KT 10SM CLR 02/M02 A3013 650 75 -700 120/03 RMK AO2 T00221017
94889KARB ARB20160330075011603/30/16 07:50:31  5-MIN KARB 301250Z AUTO 13003KT 10SM CLR 03/M02 A3013 650 72 -600 140/03 RMK AO2 SLP209 T00281017
94889KARB ARB20160330075510903/30/16 07:55:31  5-MIN KARB 301255Z AUTO 13003KT 10SM CLR 03/M02 A3013 650 72 -600 130/03 RMK AO2 T00281017
94889KARB ARB20160330080010903/30/16 08:00:31  5-MIN KARB 301300Z AUTO 14005KT 10SM CLR 03/M02 A3012 650 70 -500 140/05 RMK AO2 T00331017
94889KARB ARB20160330080510903/30/16 08:05:31  5-MIN KARB 301305Z AUTO 14003KT 10SM CLR 03/M02 A3012 660 70 -500 150/03 RMK AO2 T00331017
94889KARB ARB20160330081010903/30/16 08:10:31  5-MIN KARB 301310Z AUTO 14004KT 10SM CLR 03/M02 A3012 660 70 -500 150/04 RMK AO2 T00331017
94889KARB ARB20160330081510403/30/16 08:15:31  5-MIN KARB 301315Z 16006KT 10SM CLR 03/M02 A3012 660 70 -500 170/06 RMK AO2 T00331017
94889KARB ARB20160330082010403/30/16 08:20:31  5-MIN KARB 301320Z 16006KT 10SM CLR 04/M02 A3011 660 64 -400 170/06 RMK AO2 T00391022
94889KARB ARB20160330082510403/30/16 08:25:31  5-MIN KARB 301325Z 15006KT 10SM CLR 04/M02 A3011 670 64 -400 150/06 RMK AO2 T00391022
94889KARB ARB20160330083010403/30/16 08:30:31  5-MIN KARB 301330Z 16006KT 10SM CLR 04/M02 A3011 670 67 -400 170/06 RMK AO2 T00391017
94889KARB ARB20160330083510403/30/16 08:35:31  5-MIN KARB 301335Z 16008KT 10SM CLR 04/M02 A3010 670 62 -300 160/08 RMK AO2 T00441022
94889KARB ARB20160330084010403/30/16 08:40:31  5-MIN KARB 301340Z 17006KT 10SM CLR 04/M02 A3010 680 62 -300 180/06 RMK AO2 T00441022
94889KARB ARB20160330084510403/30/16 08:45:31  5-MIN KARB 301345Z 16006KT 10SM CLR 05/M02 A3010 680 62 -300 170/06 RMK AO2 T00501017
94889KARB ARB20160330085011103/30/16 08:50:31  5-MIN KARB 301350Z 16006KT 10SM CLR 05/M02 A3010 680 62 -300 170/06 RMK AO2 SLP198 T00501017
94889KARB ARB20160330085510403/30/16 08:55:31  5-MIN KARB 301355Z 17005KT 10SM CLR 05/M02 A3010 680 62 -300 170/05 RMK AO2 T00501017
94889KARB ARB20160330090010403/30/16 09:00:31  5-MIN KARB 301400Z 16006KT 10SM CLR 05/M02 A3010 680 62 -300 170/06 RMK AO2 T00501017
94889KARB ARB20160330090510403/30/16 09:05:31  5-MIN KARB 301405Z 17005KT 10SM CLR 05/M02 A3009 680 59 -300 180/05 RMK AO2 T00501022
94889KARB ARB20160330091010403/30/16 09:10:31  5-MIN KARB 301410Z 19004KT 10SM CLR 05/M02 A3009 680 62 -300 200/04 RMK AO2 T00501017
94889KARB ARB20160330091510403/30/16 09:15:31  5-MIN KARB 301415Z 16005KT 10SM CLR 06/M02 A3009 680 59 -200 170/05 RMK AO2 T00561017
94889KARB ARB20160330092010403/30/16 09:20:31  5-MIN KARB 301420Z VRB05KT 10SM CLR 06/M02 A3009 680 59 -200 VRB/05 RMK AO2 T00561017
94889KARB ARB20160330092510403/30/16 09:25:31  5-MIN KARB 301425Z 17009KT 10SM CLR 06/M01 A3008 690 60 -100 170/09 RMK AO2 T00611011
94889KARB ARB20160330093010403/30/16 09:30:31  5-MIN KARB 301430Z 17008KT 10SM CLR 06/M02 A3008 700 57 -100 180/08 RMK AO2 T00611017
94889KARB ARB20160330093510103/30/16 09:35:31  5-MIN KARB 301435Z 20008KT 10SM CLR 07/M02 A3008 700 55 0 200/08 RMK AO2 T00671017
94889KARB ARB20160330094010803/30/16 09:40:31  5-MIN KARB 301440Z 17006KT 10SM CLR 07/M02 A3007 710 53 0 180/06 RMK AO2 PRESFR T00721017
94889KARB ARB20160330094510103/30/16 09:45:31  5-MIN KARB 301445Z 18005KT 10SM CLR 07/M01 A3006 710 55 0 180/05 RMK AO2 T00721011
94889KARB ARB20160330095011603/30/16 09:50:31  5-MIN KARB 301450Z 20008KT 10SM CLR 08/M02 A3006 710 51 100 200/08 RMK AO2 SLP185 T00781017 58004
94889KARB ARB20160330095510303/30/16 09:55:31  5-MIN KARB 301455Z 20009KT 10SM CLR 08/M02 A3006 710 51 100 210/09 RMK AO2 T00781017
94889KARB ARB20160330100010303/30/16 10:00:31  5-MIN KARB 301500Z 17009KT 10SM CLR 08/M01 A3006 720 51 100 180/09 RMK AO2 T00831011
94889KARB ARB20160330100510303/30/16 10:05:31  5-MIN KARB 301505Z 19009KT 10SM CLR 08/M01 A3005 720 51 100 200/09 RMK AO2 T00831011
94889KARB ARB20160330101010303/30/16 10:10:31  5-MIN KARB 301510Z 17010KT 10SM CLR 09/M01 A3005 720 49 200 180/10 RMK AO2 T00891011
94889KARB ARB20160330101510303/30/16 10:15:31  5-MIN KARB 301515Z 20010KT 10SM CLR 08/M02 A3005 720 49 100 200/10 RMK AO2 T00831017
94889KARB ARB20160330102010303/30/16 10:20:31  5-MIN KARB 301520Z 19008KT 10SM CLR 08/M02 A3004 730 49 100 200/08 RMK AO2 T00831017
94889KARB ARB20160330102510303/30/16 10:25:31  5-MIN KARB 301525Z 20010KT 10SM CLR 09/M01 A3004 740 49 200 200/10 RMK AO2 T00891011
94889KARB ARB20160330103011003/30/16 10:30:31  5-MIN KARB 301530Z 18008KT 10SM CLR 09/M01 A3003 740 49 200 190/08 RMK AO2 PRESFR T00891011
94889KARB ARB20160330103510303/30/16 10:35:31  5-MIN KARB 301535Z 17011KT 10SM CLR 09/M01 A3002 740 49 300 180/11 RMK AO2 T00941006
94889KARB ARB20160330104010303/30/16 10:40:31  5-MIN KARB 301540Z 18009KT 10SM CLR 09/M01 A3002 750 49 300 190/09 RMK AO2 T00941006
94889KARB ARB20160330104510303/30/16 10:45:31  5-MIN KARB 301545Z 17008KT 10SM CLR 09/M01 A3002 750 49 300 180/08 RMK AO2 T00941006
94889KARB ARB20160330105010903/30/16 10:50:31  5-MIN KARB 301550Z 18012KT 10SM CLR 10/00 A3002 750 49 400 190/12 RMK AO2 SLP169 T01000000
94889KARB ARB20160330105510203/30/16 10:55:31  5-MIN KARB 301555Z 18011KT 10SM CLR 10/00 A3001 760 49 400 190/11 RMK AO2 T01000000
94889KARB ARB20160330110010203/30/16 11:00:31  5-MIN KARB 301600Z 19010KT 10SM CLR 10/00 A3001 760 49 400 200/10 RMK AO2 T01000000
94889KARB ARB20160330110510203/30/16 11:05:31  5-MIN KARB 301605Z 18008KT 10SM CLR 11/00 A3001 760 48 400 190/08 RMK AO2 T01060000
94889KARB ARB20160330111010803/30/16 11:10:31  5-MIN KARB 301610Z 20009G16KT 10SM CLR 11/01 A3001 760 48 500 210/09G16 RMK AO2 T01110006
94889KARB ARB20160330111510803/30/16 11:15:31  5-MIN KARB 301615Z 20011G16KT 10SM CLR 11/00 A3000 770 46 500 200/11G16 RMK AO2 T01110000
94889KARB ARB20160330112010203/30/16 11:20:31  5-MIN KARB 301620Z 20009KT 10SM CLR 11/00 A2999 770 46 500 200/09 RMK AO2 T01110000
94889KARB ARB20160330112510803/30/16 11:25:31  5-MIN KARB 301625Z 20010G17KT 10SM CLR 12/01 A2999 780 46 600 210/10G17 RMK AO2 T01170006
94889KARB ARB20160330113010803/30/16 11:30:31  5-MIN KARB 301630Z 19010G18KT 10SM CLR 12/00 A2998 780 44 600 200/10G18 RMK AO2 T01170000
94889KARB ARB20160330113510803/30/16 11:35:31  5-MIN KARB 301635Z 20015G19KT 10SM CLR 12/01 A2998 790 46 600 210/15G19 RMK AO2 T01170006
94889KARB ARB20160330114010803/30/16 11:40:31  5-MIN KARB 301640Z 19013G19KT 10SM CLR 12/00 A2997 790 44 600 200/13G19 RMK AO2 T01170000
94889KARB ARB20160330114510803/30/16 11:45:31  5-MIN KARB 301645Z 18011G18KT 10SM CLR 12/01 A2997 800 44 700 190/11G18 RMK AO2 T01220006
94889KARB ARB20160330115012203/30/16 11:50:31  5-MIN KARB 301650Z 17013G18KT 10SM CLR 12/01 A2996 800 44 700 180/13G18 RMK AO2 PRESFR SLP151 T01220006
94889KARB ARB20160330115511503/30/16 11:55:31  5-MIN KARB 301655Z 18012G22KT 10SM CLR 13/01 A2996 810 44 800 190/12G22 RMK AO2 PRESFR T01280011
94889KARB ARB20160330120011103/30/16 12:00:31  5-MIN KARB 301700Z 20013G22KT 10SM FEW110 13/01 A2995 810 43 800 200/13G22 RMK AO2 T01280006
94889KARB ARB20160330120510503/30/16 12:05:31  5-MIN KARB 301705Z 18014KT 10SM SCT110 13/01 A2995 820 44 800 180/14 RMK AO2 T01280011
94889KARB ARB20160330121011103/30/16 12:10:31  5-MIN KARB 301710Z 19012G20KT 10SM SCT120 13/01 A2995 820 43 800 190/12G20 RMK AO2 T01280006
94889KARB ARB20160330121511103/30/16 12:15:31  5-MIN KARB 301715Z 18008G18KT 10SM BKN110 13/02 A2994 820 45 900 190/08G18 RMK AO2 T01330017
94889KARB ARB20160330122011103/30/16 12:20:31  5-MIN KARB 301720Z 19013G18KT 10SM BKN110 13/02 A2993 830 45 900 190/13G18 RMK AO2 T01330017
94889KARB ARB20160330122511103/30/16 12:25:31  5-MIN KARB 301725Z 18015G18KT 10SM BKN120 13/01 A2993 830 43 900 190/15G18 RMK AO2 T01330011
94889KARB ARB20160330123011103/30/16 12:30:31  5-MIN KARB 301730Z 20013G20KT 10SM BKN120 13/01 A2993 830 43 900 210/13G20 RMK AO2 T01330011
94889KARB ARB20160330123511103/30/16 12:35:31  5-MIN KARB 301735Z 19011G21KT 10SM BKN120 14/02 A2993 830 43 900 200/11G21 RMK AO2 T01390017
94889KARB ARB20160330124011103/30/16 12:40:31  5-MIN KARB 301740Z 20012G21KT 10SM BKN120 14/02 A2993 830 43 900 200/12G21 RMK AO2 T01390017
94889KARB ARB20160330124511103/30/16 12:45:31  5-MIN KARB 301745Z 20016G20KT 10SM SCT120 14/02 A2992 840 43 900 210/16G20 RMK AO2 T01390017
94889KARB ARB20160330125013603/30/16 12:50:31  5-MIN KARB 301750Z 22011G20KT 10SM SCT120 14/01 A2992 840 41 900 220/11G20 RMK AO2 SLP135 T01390011 10139 21022 58028
94889KARB ARB20160330125510603/30/16 12:55:31  5-MIN KARB 301755Z 20013KT 10SM BKN120 14/02 A2992 840 41 1000 200/13 RMK AO2 T01440017
94889KARB ARB20160330130010603/30/16 13:00:31  5-MIN KARB 301800Z 19011KT 10SM BKN110 14/02 A2991 850 43 1000 190/11 RMK AO2 T01390017
94889KARB ARB20160330130511203/30/16 13:05:31  5-MIN KARB 301805Z 20013G19KT 10SM BKN110 14/02 A2991 850 43 1000 210/13G19 RMK AO2 T01390017
94889KARB ARB20160330131012803/30/16 13:10:31  5-MIN KARB 301810Z 20013G19KT 180V240 10SM BKN110 15/02 A2990 860 42 1100 210/13G19 190V250 RMK AO2 T01500022
94889KARB ARB20160330131510603/30/16 13:15:31  5-MIN KARB 301815Z 20013KT 10SM BKN110 16/02 A2990 860 40 1200 210/13 RMK AO2 T01560022
94889KARB ARB20160330132011203/30/16 13:20:31  5-MIN KARB 301820Z 21013G20KT 10SM BKN110 14/02 A2990 860 43 1000 220/13G20 RMK AO2 T01440022
94889KARB ARB20160330132510603/30/16 13:25:31  5-MIN KARB 301825Z 20014KT 10SM BKN110 15/03 A2990 860 43 1100 210/14 RMK AO2 T01500028
94889KARB ARB20160330133011203/30/16 13:30:31  5-MIN KARB 301830Z 21011G18KT 10SM SCT110 16/03 A2989 870 42 1200 210/11G18 RMK AO2 T01560028
94889KARB ARB20160330133511203/30/16 13:35:31  5-MIN KARB 301835Z 23014G20KT 10SM SCT110 16/02 A2990 860 40 1200 230/14G20 RMK AO2 T01560022
94889KARB ARB20160330134011903/30/16 13:40:31  5-MIN KARB 301840Z 22014G20KT 10SM SCT080 BKN110 16/02 A2990 860 40 1200 230/14G20 RMK AO2 T01560022
94889KARB ARB20160330134511903/30/16 13:45:31  5-MIN KARB 301845Z 21014G20KT 10SM BKN080 BKN110 15/02 A2989 870 40 1100 220/14G20 RMK AO2 T01500017
94889KARB ARB20160330135012003/30/16 13:50:31  5-MIN KARB 301850Z 20014KT 10SM BKN080 BKN110 15/02 A2989 870 40 1100 210/14 RMK AO2 SLP126 T01500017
94889KARB ARB20160330135511903/30/16 13:55:31  5-MIN KARB 301855Z 23014G19KT 10SM BKN080 BKN110 16/02 A2989 870 40 1200 230/14G19 RMK AO2 T01560022
94889KARB ARB20160330140011903/30/16 14:00:31  5-MIN KARB 301900Z 23013G19KT 10SM BKN080 OVC110 16/02 A2988 880 40 1200 230/13G19 RMK AO2 T01560022
94889KARB ARB20160330140511203/30/16 14:05:31  5-MIN KARB 301905Z 23011G17KT 10SM OVC080 16/02 A2988 880 40 1200 240/11G17 RMK AO2 T01560022
94889KARB ARB20160330141011203/30/16 14:10:31  5-MIN KARB 301910Z 22012G17KT 10SM OVC075 16/02 A2987 890 40 1200 230/12G17 RMK AO2 T01560022
94889KARB ARB20160330141511303/30/16 14:15:31  5-MIN KARB 301915Z 23008KT 10SM BKN075 OVC085 16/03 A2988 880 42 1200 240/08 RMK AO2 T01560028
94889KARB ARB20160330142010603/30/16 14:20:31  5-MIN KARB 301920Z 23010KT 10SM OVC070 15/03 A2988 880 43 1100 230/10 RMK AO2 T01500028
94889KARB ARB20160330142510603/30/16 14:25:31  5-MIN KARB 301925Z 22010KT 10SM OVC070 15/02 A2987 880 42 1100 230/10 RMK AO2 T01500022
94889KARB ARB20160330143010603/30/16 14:30:31  5-MIN KARB 301930Z 23013KT 10SM OVC070 16/02 A2987 890 40 1200 230/13 RMK AO2 T01560022
94889KARB ARB20160330143512803/30/16 14:35:31  5-MIN KARB 301935Z 22013G19KT 10SM -RA OVC065 15/03 A2986 890 45 1100 230/13G19 RMK AO2 RAB33 P0000 T01500033
94889KARB ARB20160330144012803/30/16 14:40:31  5-MIN KARB 301940Z 22011G19KT 10SM -RA OVC065 14/03 A2987 890 47 1100 230/11G19 RMK AO2 RAB33 P0000 T01440033
94889KARB ARB20160330144512103/30/16 14:45:31  5-MIN KARB 301945Z 22012KT 10SM OVC065 15/03 A2986 890 43 1100 230/12 RMK AO2 RAB33E44 P0000 T01500028
94889KARB ARB20160330145012803/30/16 14:50:31  5-MIN KARB 301950Z 22010KT 10SM OVC060 15/03 A2986 900 43 1100 220/10 RMK AO2 RAB33E44 SLP116 P0000 T01500028
94889KARB ARB20160330145510603/30/16 14:55:31  5-MIN KARB 301955Z 22010KT 10SM OVC060 15/03 A2986 900 43 1100 230/10 RMK AO2 T01500028
94889KARB ARB20160330150010603/30/16 15:00:31  5-MIN KARB 302000Z 23008KT 10SM OVC060 15/03 A2986 900 45 1100 230/08 RMK AO2 T01500033
94889KARB ARB20160330150510603/30/16 15:05:31  5-MIN KARB 302005Z 22012KT 10SM OVC060 15/03 A2986 900 43 1100 220/12 RMK AO2 T01500028
94889KARB ARB20160330151010603/30/16 15:10:31  5-MIN KARB 302010Z 21009KT 10SM OVC060 15/03 A2985 910 43 1200 220/09 RMK AO2 T01500028
94889KARB ARB20160330151511303/30/16 15:15:31  5-MIN KARB 302015Z 21009KT 10SM OVC055 15/03 A2984 920 43 1200 220/09 RMK AO2 PRESFR T01500028
94889KARB ARB20160330152010603/30/16 15:20:31  5-MIN KARB 302020Z 20008KT 10SM OVC055 15/03 A2984 920 45 1200 210/08 RMK AO2 T01500033
94889KARB ARB20160330152510603/30/16 15:25:31  5-MIN KARB 302025Z 20010KT 10SM OVC055 15/03 A2983 920 45 1200 210/10 RMK AO2 T01500033
94889KARB ARB20160330153010603/30/16 15:30:31  5-MIN KARB 302030Z 19013KT 10SM OVC055 15/03 A2982 930 45 1200 200/13 RMK AO2 T01500033
94889KARB ARB20160330153511303/30/16 15:35:31  5-MIN KARB 302035Z 19008KT 10SM OVC055 15/04 A2982 940 47 1200 200/08 RMK AO2 PRESFR T01500039
94889KARB ARB20160330154010603/30/16 15:40:31  5-MIN KARB 302040Z 20011KT 10SM OVC055 15/04 A2982 940 47 1200 200/11 RMK AO2 T01500039
94889KARB ARB20160330154510603/30/16 15:45:31  5-MIN KARB 302045Z 20012KT 10SM OVC055 15/04 A2982 930 47 1200 210/12 RMK AO2 T01500039
94889KARB ARB20160330155012503/30/16 15:50:31  5-MIN KARB 302050Z 19012KT 10SM OVC055 15/04 A2981 940 47 1200 200/12 RMK AO2 SLP098 60000 T01500039 56047
94889KARB ARB20160330155511203/30/16 15:55:31  5-MIN KARB 302055Z 19010G17KT 10SM OVC050 15/04 A2980 950 47 1200 200/10G17 RMK AO2 T01500039
94889KARB ARB20160330160012603/30/16 16:00:31  5-MIN KARB 302100Z 19009G16KT 10SM BKN050 OVC100 15/04 A2980 960 47 1200 200/09G16 RMK AO2 PRESFR T01500039
94889KARB ARB20160330160511303/30/16 16:05:31  5-MIN KARB 302105Z 20010KT 10SM BKN050 OVC100 15/04 A2980 950 47 1200 200/10 RMK AO2 T01500039
94889KARB ARB20160330161011303/30/16 16:10:31  5-MIN KARB 302110Z 20010KT 10SM BKN050 OVC100 16/04 A2980 950 45 1300 210/10 RMK AO2 T01560039
94889KARB ARB20160330161511303/30/16 16:15:31  5-MIN KARB 302115Z 19009KT 10SM BKN050 OVC100 16/04 A2979 960 45 1300 200/09 RMK AO2 T01560039
94889KARB ARB20160330162012003/30/16 16:20:31  5-MIN KARB 302120Z 19009KT 10SM BKN050 BKN055 OVC100 16/04 A2979 960 45 1300 200/09 RMK AO2 T01560039
94889KARB ARB20160330162512003/30/16 16:25:31  5-MIN KARB 302125Z 18008KT 10SM BKN049 BKN055 OVC100 15/04 A2979 970 47 1200 190/08 RMK AO2 T01500039
94889KARB ARB20160330163012003/30/16 16:30:31  5-MIN KARB 302130Z 19010KT 10SM BKN049 BKN055 OVC100 15/04 A2979 970 47 1200 200/10 RMK AO2 T01500039
94889KARB ARB20160330163511303/30/16 16:35:31  5-MIN KARB 302135Z 18009KT 10SM BKN048 OVC055 15/04 A2978 970 47 1200 190/09 RMK AO2 T01500039
94889KARB ARB20160330164010603/30/16 16:40:31  5-MIN KARB 302140Z 19009KT 10SM OVC048 15/04 A2978 970 49 1200 200/09 RMK AO2 T01500044
94889KARB ARB20160330164510603/30/16 16:45:31  5-MIN KARB 302145Z 19007KT 10SM OVC048 15/04 A2978 970 49 1200 200/07 RMK AO2 T01500044
94889KARB ARB20160330165011303/30/16 16:50:31  5-MIN KARB 302150Z 19010KT 10SM OVC048 15/04 A2977 980 49 1200 200/10 RMK AO2 SLP084 T01500044
94889KARB ARB20160330165510603/30/16 16:55:31  5-MIN KARB 302155Z 19009KT 10SM OVC048 15/04 A2977 980 49 1300 200/09 RMK AO2 T01500044
94889KARB ARB20160330170010603/30/16 17:00:31  5-MIN KARB 302200Z 20008KT 10SM OVC046 16/04 A2977 980 47 1300 200/08 RMK AO2 T01560044
94889KARB ARB20160330170510603/30/16 17:05:31  5-MIN KARB 302205Z 19008KT 10SM OVC046 16/04 A2977 980 47 1300 200/08 RMK AO2 T01560044
94889KARB ARB20160330171010603/30/16 17:10:31  5-MIN KARB 302210Z 19010KT 10SM OVC046 16/04 A2977 980 47 1300 200/10 RMK AO2 T01560044
94889KARB ARB20160330171511103/30/16 17:15:31  5-MIN KARB 302215Z AUTO 20011KT 10SM OVC044 16/04 A2977 980 47 1300 200/11 RMK AO2 T01560044
94889KARB ARB20160330172011103/30/16 17:20:31  5-MIN KARB 302220Z AUTO 20009KT 10SM OVC044 15/04 A2977 980 49 1300 210/09 RMK AO2 T01500044
94889KARB ARB20160330172511803/30/16 17:25:31  5-MIN KARB 302225Z AUTO 21009KT 10SM BKN044 OVC055 15/05 A2977 980 51 1300 210/09 RMK AO2 T01500050
94889KARB ARB20160330173012503/30/16 17:30:31  5-MIN KARB 302230Z AUTO 19009KT 10SM BKN044 BKN055 OVC070 15/05 A2976 990 51 1300 200/09 RMK AO2 T01500050
94889KARB ARB20160330173513103/30/16 17:35:31  5-MIN KARB 302235Z AUTO 20009G17KT 10SM BKN044 BKN055 BKN070 15/05 A2976 990 51 1300 210/09G17 RMK AO2 T01500050
94889KARB ARB20160330174011803/30/16 17:40:31  5-MIN KARB 302240Z AUTO 19009KT 10SM SCT044 BKN055 15/05 A2975 990 51 1300 200/09 RMK AO2 T01500050
94889KARB ARB20160330174511803/30/16 17:45:31  5-MIN KARB 302245Z AUTO 19010KT 10SM FEW044 SCT055 15/04 A2976 990 49 1300 200/10 RMK AO2 T01500044
94889KARB ARB20160330175012503/30/16 17:50:31  5-MIN KARB 302250Z AUTO 20010KT 10SM FEW042 FEW050 15/05 A2976 990 51 1300 200/10 RMK AO2 SLP083 T01500050
94889KARB ARB20160330175511103/30/16 17:55:31  5-MIN KARB 302255Z AUTO 20009KT 10SM SCT046 15/05 A2976 990 51 1300 200/09 RMK AO2 T01500050
94889KARB ARB20160330180011103/30/16 18:00:31  5-MIN KARB 302300Z AUTO 19008KT 10SM SCT046 15/05 A2976 990 51 1300 200/08 RMK AO2 T01500050
94889KARB ARB20160330180511803/30/16 18:05:31  5-MIN KARB 302305Z AUTO 19010KT 10SM FEW046 SCT120 15/05 A2976 990 51 1300 200/10 RMK AO2 T01500050
94889KARB ARB20160330181011803/30/16 18:10:31  5-MIN KARB 302310Z AUTO 20008KT 10SM FEW046 BKN120 14/05 A2976 990 53 1200 200/08 RMK AO2 T01440050
94889KARB ARB20160330181511803/30/16 18:15:31  5-MIN KARB 302315Z AUTO 19009KT 10SM FEW046 SCT120 14/05 A2976 990 53 1200 200/09 RMK AO2 T01440050
94889KARB ARB20160330182011803/30/16 18:20:31  5-MIN KARB 302320Z AUTO 19009KT 10SM FEW046 SCT120 15/05 A2976 990 51 1300 200/09 RMK AO2 T01500050
94889KARB ARB20160330182511203/30/16 18:25:31  5-MIN KARB 302325Z AUTO 19011KT 10SM FEW120 15/05 A2975 1000 51 1300 190/11 RMK AO2 T01500050
94889KARB ARB20160330183011903/30/16 18:30:31  5-MIN KARB 302330Z AUTO 20008KT 10SM FEW100 SCT120 14/05 A2975 1000 53 1200 200/08 RMK AO2 T01440050
94889KARB ARB20160330183511203/30/16 18:35:31  5-MIN KARB 302335Z AUTO 19009KT 10SM BKN100 14/05 A2975 1000 53 1200 200/09 RMK AO2 T01440050
94889KARB ARB20160330184011203/30/16 18:40:31  5-MIN KARB 302340Z AUTO 19009KT 10SM BKN100 14/05 A2974 1010 53 1200 190/09 RMK AO2 T01440050
94889KARB ARB20160330184511203/30/16 18:45:31  5-MIN KARB 302345Z AUTO 19009KT 10SM BKN100 14/05 A2974 1010 53 1200 190/09 RMK AO2 T01440050
94889KARB ARB20160330185014303/30/16 18:50:31  5-MIN KARB 302350Z AUTO 19008KT 10SM BKN100 14/05 A2974 1010 53 1200 200/08 RMK AO2 SLP076 60000 T01440050 10161 20139 58037
94889KARB ARB20160330185511203/30/16 18:55:31  5-MIN KARB 302355Z AUTO 19009KT 10SM BKN100 14/05 A2974 1010 53 1200 200/09 RMK AO2 T01440050
94889KARB ARB20160330190011203/30/16 19:00:31  5-MIN KARB 310000Z AUTO 19011KT 10SM BKN100 14/05 A2974 1010 53 1200 200/11 RMK AO2 T01440050
94889KARB ARB20160330190511203/30/16 19:05:31  5-MIN KARB 310005Z AUTO 20009KT 10SM SCT100 14/05 A2974 1010 53 1200 200/09 RMK AO2 T01440050
94889KARB ARB20160330191011203/30/16 19:10:31  5-MIN KARB 310010Z AUTO 20008KT 10SM SCT110 14/05 A2974 1010 53 1200 210/08 RMK AO2 T01440050
94889KARB ARB20160330191511203/30/16 19:15:31  5-MIN KARB 310015Z AUTO 20008KT 10SM FEW110 14/05 A2974 1010 53 1200 210/08 RMK AO2 T01440050
94889KARB ARB20160330192011203/30/16 19:20:31  5-MIN KARB 310020Z AUTO 20008KT 10SM FEW110 14/05 A2974 1010 55 1200 210/08 RMK AO2 T01390050
94889KARB ARB20160330192511203/30/16 19:25:31  5-MIN KARB 310025Z AUTO 20007KT 10SM FEW120 14/06 A2974 1010 57 1200 210/07 RMK AO2 T01390056
94889KARB ARB20160330193011203/30/16 19:30:31  5-MIN KARB 310030Z AUTO 20007KT 10SM FEW120 14/06 A2974 1010 57 1200 210/07 RMK AO2 T01390056
94889KARB ARB20160330193511203/30/16 19:35:31  5-MIN KARB 310035Z AUTO 20009KT 10SM FEW120 14/06 A2974 1010 57 1100 210/09 RMK AO2 T01390056
94889KARB ARB20160330194011203/30/16 19:40:31  5-MIN KARB 310040Z AUTO 20008KT 10SM SCT110 14/06 A2975 1000 57 1100 210/08 RMK AO2 T01390056
94889KARB ARB20160330194511903/30/16 19:45:31  5-MIN KARB 310045Z AUTO 21009KT 10SM BKN100 BKN120 14/06 A2975 1000 57 1100 220/09 RMK AO2 T01390056
94889KARB ARB20160330195011903/30/16 19:50:31  5-MIN KARB 310050Z AUTO 20008KT 10SM BKN100 14/06 A2975 1000 59 1100 210/08 RMK AO2 SLP076 T01390061
94889KARB ARB20160330195511203/30/16 19:55:31  5-MIN KARB 310055Z AUTO 20008KT 10SM BKN100 14/06 A2975 1000 59 1100 210/08 RMK AO2 T01390061
94889KARB ARB20160330200011903/30/16 20:00:31  5-MIN KARB 310100Z AUTO 20008KT 10SM FEW070 OVC100 14/06 A2975 1000 59 1100 210/08 RMK AO2 T01390061
94889KARB ARB20160330200511903/30/16 20:05:31  5-MIN KARB 310105Z AUTO 20009KT 10SM SCT070 OVC100 14/06 A2975 1000 59 1100 210/09 RMK AO2 T01390061
94889KARB ARB20160330201012603/30/16 20:10:31  5-MIN KARB 310110Z AUTO 20009KT 10SM FEW060 BKN070 OVC095 14/07 A2975 1000 59 1200 200/09 RMK AO2 T01440067
94889KARB ARB20160330201512603/30/16 20:15:31  5-MIN KARB 310115Z AUTO 20007KT 10SM FEW060 BKN070 OVC095 14/07 A2975 1000 61 1100 200/07 RMK AO2 T01390067
94889KARB ARB20160330202012603/30/16 20:20:31  5-MIN KARB 310120Z AUTO 20008KT 10SM FEW050 BKN075 OVC095 14/07 A2975 1000 61 1100 210/08 RMK AO2 T01390067
94889KARB ARB20160330202511903/30/16 20:25:31  5-MIN KARB 310125Z AUTO 20010KT 10SM FEW050 OVC075 14/07 A2974 1000 59 1200 210/10 RMK AO2 T01440067
94889KARB ARB20160330203012603/30/16 20:30:31  5-MIN KARB 310130Z AUTO 20011KT 10SM SCT048 BKN075 OVC090 14/07 A2974 1000 59 1200 200/11 RMK AO2 T01440067
94889KARB ARB20160330203511903/30/16 20:35:31  5-MIN KARB 310135Z AUTO 20011KT 10SM BKN048 OVC075 14/07 A2974 1010 59 1200 210/11 RMK AO2 T01440067
94889KARB ARB20160330204012603/30/16 20:40:31  5-MIN KARB 310140Z AUTO 21008KT 10SM BKN048 BKN075 OVC095 14/07 A2974 1010 59 1200 210/08 RMK AO2 T01440067
94889KARB ARB20160330204512603/30/16 20:45:31  5-MIN KARB 310145Z AUTO 20010KT 10SM SCT048 BKN080 OVC095 14/07 A2974 1010 61 1200 210/10 RMK AO2 T01440072
94889KARB ARB20160330205013303/30/16 20:50:31  5-MIN KARB 310150Z AUTO 20011KT 10SM SCT050 BKN095 OVC110 14/07 A2973 1020 61 1200 200/11 RMK AO2 SLP069 T01440072
94889KARB ARB20160330205511903/30/16 20:55:31  5-MIN KARB 310155Z AUTO 20014KT 10SM SCT050 OVC100 14/07 A2973 1020 61 1200 210/14 RMK AO2 T01440072
94889KARB ARB20160330210011903/30/16 21:00:31  5-MIN KARB 310200Z AUTO 20011KT 10SM FEW048 OVC100 14/08 A2973 1020 64 1200 210/11 RMK AO2 T01440078
94889KARB ARB20160330210511903/30/16 21:05:31  5-MIN KARB 310205Z AUTO 20013KT 10SM FEW050 OVC100 14/08 A2973 1020 64 1200 210/13 RMK AO2 T01440078
94889KARB ARB20160330211011203/30/16 21:10:31  5-MIN KARB 310210Z AUTO 20012KT 10SM BKN100 14/08 A2973 1020 64 1200 210/12 RMK AO2 T01440078
94889KARB ARB20160330211511203/30/16 21:15:31  5-MIN KARB 310215Z AUTO 20013KT 10SM SCT100 14/08 A2972 1020 64 1200 210/13 RMK AO2 T01440078
94889KARB ARB20160330212011803/30/16 21:20:31  5-MIN KARB 310220Z AUTO 21011G20KT 10SM SCT100 14/08 A2972 1020 66 1200 210/11G20 RMK AO2 T01440083
94889KARB ARB20160330212511803/30/16 21:25:31  5-MIN KARB 310225Z AUTO 21011G20KT 10SM FEW100 14/08 A2973 1020 69 1200 220/11G20 RMK AO2 T01390083
94889KARB ARB20160330213012503/30/16 21:30:31  5-MIN KARB 310230Z AUTO 21011G19KT 10SM FEW024 SCT100 14/09 A2973 1020 69 1200 220/11G19 RMK AO2 T01440089
94889KARB ARB20160330213511803/30/16 21:35:31  5-MIN KARB 310235Z AUTO 21014G19KT 10SM SCT022 14/09 A2973 1020 69 1200 220/14G19 RMK AO2 T01440089
94889KARB ARB20160330214011803/30/16 21:40:31  5-MIN KARB 310240Z AUTO 22011G21KT 10SM BKN022 14/09 A2972 1020 72 1200 230/11G21 RMK AO2 T01440094
94889KARB ARB20160330214511803/30/16 21:45:31  5-MIN KARB 310245Z AUTO 22014G21KT 10SM BKN022 14/10 A2972 1020 74 1200 220/14G21 RMK AO2 T01440100
94889KARB ARB20160330215013103/30/16 21:50:31  5-MIN KARB 310250Z AUTO 22014G22KT 10SM BKN020 14/11 A2972 1030 77 1200 220/14G22 RMK AO2 SLP066 T01440106 56022
94889KARB ARB20160330215513603/30/16 21:55:31  5-MIN KARB 310255Z AUTO 21018G26KT 10SM BKN020 14/11 A2972 1030 77 1200 220/18G26 RMK AO2 PK WND 23026/0254 T01440106
94889KARB ARB20160330220016103/30/16 22:00:31  5-MIN KARB 310300Z AUTO 22014G27KT 10SM -RA BKN020 BKN090 14/11 A2972 1030 80 1200 230/14G27 RMK AO2 PK WND 19027/0256 RAB0258 P0000 T01440111
94889KARB ARB20160330220516103/30/16 22:05:31  5-MIN KARB 310305Z AUTO 23019G28KT 10SM -RA BKN018 BKN090 14/12 A2972 1030 86 1200 240/19G28 RMK AO2 PK WND 24028/0301 RAB0258 P0000 T01390117
94889KARB ARB20160330221018003/30/16 22:10:31  5-MIN KARB 310310Z AUTO 23018G30KT 10SM -RA SCT014 BKN020 BKN090 14/12 A2972 1030 86 1200 230/18G30 RMK AO2 PK WND 24030/0309 RAB0258 CIG 018V034 P0000 T01390117
94889KARB ARB20160330221518003/30/16 22:15:31  5-MIN KARB 310315Z AUTO 22019G30KT 10SM -RA BKN017 BKN080 OVC090 14/12 A2972 1030 86 1200 230/19G30 RMK AO2 PK WND 24030/0309 RAB0258 CIG 012V034 P0000 T01390117
94889KARB ARB20160330222016703/30/16 22:20:31  5-MIN KARB 310320Z AUTO 22016G30KT 8SM -RA SCT017 SCT060 OVC085 14/12 A2972 1030 90 1200 230/16G30 RMK AO2 PK WND 24030/0309 RAB0258 P0000 T01390122
94889KARB ARB20160330222516703/30/16 22:25:31  5-MIN KARB 310325Z AUTO 22018G30KT 8SM -RA SCT015 BKN080 OVC090 14/12 A2971 1030 90 1200 230/18G30 RMK AO2 PK WND 24030/0309 RAB0258 P0000 T01390122
94889KARB ARB20160330223016803/30/16 22:30:31  5-MIN KARB 310330Z AUTO 22015G25KT 10SM -RA FEW013 BKN080 OVC090 14/12 A2971 1030 90 1200 230/15G25 RMK AO2 PK WND 24030/0309 RAB0258 P0000 T01390122
94889KARB ARB20160330223516703/30/16 22:35:31  5-MIN KARB 310335Z AUTO 23015G21KT 10SM FEW060 BKN080 OVC100 14/12 A2971 1030 90 1200 230/15G21 RMK AO2 PK WND 24030/0309 RAB0258E33 P0000 T01390122
94889KARB ARB20160330224016003/30/16 22:40:31  5-MIN KARB 310340Z AUTO 21016G27KT 10SM FEW060 OVC085 14/12 A2971 1040 90 1200 220/16G27 RMK AO2 PK WND 24030/0309 RAB0258E33 P0000 T01390122
94889KARB ARB20160330224516703/30/16 22:45:31  5-MIN KARB 310345Z AUTO 22013G27KT 10SM FEW060 BKN080 OVC100 14/12 A2971 1040 90 1200 230/13G27 RMK AO2 PK WND 24030/0309 RAB0258E33 P0000 T01390122
94889KARB ARB20160330225017403/30/16 22:50:31  5-MIN KARB 310350Z AUTO 22014G22KT 10SM -RA SCT060 OVC080 14/12 A2971 1040 90 1200 220/14G22 RMK AO2 PK WND 24030/0309 RAB0258E33B50 SLP060 P0001 T01390122
94889KARB ARB20160330225513403/30/16 22:55:31  5-MIN KARB 310355Z AUTO 21012G22KT 9SM -RA BKN070 OVC090 13/12 A2971 1040 93 1100 220/12G22 RMK AO2 P0000 T01330122
94889KARB ARB20160330230013503/30/16 23:00:31  5-MIN KARB 310400Z AUTO 21012KT 9SM -RA FEW046 SCT060 OVC080 14/12 A2971 1040 90 1200 220/12 RMK AO2 P0000 T01390122
94889KARB ARB20160330230513503/30/16 23:05:31  5-MIN KARB 310405Z AUTO 22010KT 9SM -RA FEW036 BKN075 OVC090 13/12 A2971 1040 93 1100 220/10 RMK AO2 P0000 T01330122
94889KARB ARB20160330231014103/30/16 23:10:31  5-MIN KARB 310410Z AUTO 21012G17KT 9SM -RA FEW036 BKN075 OVC090 13/12 A2971 1040 93 1100 220/12G17 RMK AO2 P0000 T01330122
94889KARB ARB20160330231514203/30/16 23:15:31  5-MIN KARB 310415Z AUTO 21012G22KT 10SM -RA FEW038 BKN060 OVC090 14/12 A2971 1040 86 1200 220/12G22 RMK AO2 P0000 T01390117
94889KARB ARB20160330232014203/30/16 23:20:31  5-MIN KARB 310420Z AUTO 21010G22KT 10SM -RA SCT038 BKN050 OVC090 13/12 A2970 1040 89 1100 210/10G22 RMK AO2 P0001 T01330117
94889KARB ARB20160330232514103/30/16 23:25:31  5-MIN KARB 310425Z AUTO 21015G22KT 9SM -RA BKN036 BKN050 OVC080 13/12 A2970 1040 89 1100 220/15G22 RMK AO2 P0001 T01330117
94889KARB ARB20160330233014103/30/16 23:30:31  5-MIN KARB 310430Z AUTO 21013G22KT 9SM -RA BKN036 BKN050 OVC080 13/12 A2970 1050 89 1100 210/13G22 RMK AO2 P0001 T01330117
94889KARB ARB20160330233514203/30/16 23:35:31  5-MIN KARB 310435Z AUTO 21014G21KT 10SM -RA BKN038 BKN049 OVC055 13/12 A2969 1050 89 1100 210/14G21 RMK AO2 P0001 T01330117
94889KARB ARB20160330234014203/30/16 23:40:31  5-MIN KARB 310440Z AUTO 21013G19KT 10SM -RA BKN038 BKN046 OVC055 13/12 A2969 1050 89 1100 220/13G19 RMK AO2 P0001 T01330117
94889KARB ARB20160330234514203/30/16 23:45:31  5-MIN KARB 310445Z AUTO 21013G19KT 10SM -RA SCT038 BKN048 OVC055 13/12 A2969 1050 89 1100 210/13G19 RMK AO2 P0001 T01330117
94889KARB ARB20160330235015803/30/16 23:50:31  5-MIN KARB 310450Z AUTO 20015G19KT 9SM -RA SCT036 BKN048 OVC060 13/12 A2969 1060 89 1100 210/15G19 RMK AO2 SLP053 P0001 T01330117 401611033
94889KARB ARB20160330235514103/30/16 23:55:31  5-MIN KARB 310455Z AUTO 20010G18KT 9SM -RA FEW038 BKN060 OVC090 13/12 A2969 1060 89 1100 210/10G18 RMK AO2 P0001 T01330117
94889KARB ARB20160331000013503/31/16 00:00:31  5-MIN KARB 310500Z AUTO 21012KT 8SM -RA SCT046 SCT060 OVC085 13/12 A2968 1060 89 1200 210/12 RMK AO2 P0001 T01330117
94889KARB ARB20160331000513503/31/16 00:05:31  5-MIN KARB 310505Z AUTO 21010KT 7SM -RA FEW046 SCT060 OVC085 13/12 A2968 1060 89 1200 220/10 RMK AO2 P0002 T01330117
94889KARB ARB20160331001013503/31/16 00:10:31  5-MIN KARB 310510Z AUTO 21011KT 8SM -RA FEW029 BKN080 OVC090 13/12 A2968 1060 89 1200 210/11 RMK AO2 P0002 T01330117
94889KARB ARB20160331001513503/31/16 00:15:31  5-MIN KARB 310515Z AUTO 21010KT 9SM -RA SCT031 BKN080 OVC095 13/12 A2968 1060 89 1200 210/10 RMK AO2 P0002 T01330117
94889KARB ARB20160331002013603/31/16 00:20:31  5-MIN KARB 310520Z AUTO 20012KT 10SM -RA SCT033 BKN080 OVC095 13/12 A2967 1070 89 1200 210/12 RMK AO2 P0002 T01330117
94889KARB ARB20160331002513503/31/16 00:25:31  5-MIN KARB 310525Z AUTO 20012KT 9SM -RA FEW033 BKN080 OVC095 13/12 A2967 1070 89 1200 210/12 RMK AO2 P0003 T01330117
94889KARB ARB20160331003013503/31/16 00:30:31  5-MIN KARB 310530Z AUTO 20010KT 8SM -RA FEW033 BKN080 OVC100 13/12 A2967 1070 93 1100 210/10 RMK AO2 P0003 T01280117
94889KARB ARB20160331003512803/31/16 00:35:31  5-MIN KARB 310535Z AUTO 20010KT 9SM -RA FEW033 OVC085 13/12 A2967 1070 93 1100 210/10 RMK AO2 P0003 T01280117
94889KARB ARB20160331004013603/31/16 00:40:31  5-MIN KARB 310540Z AUTO 21010KT 10SM -RA FEW042 BKN080 OVC100 13/12 A2967 1070 93 1100 210/10 RMK AO2 P0003 T01280117
94889KARB ARB20160331004512903/31/16 00:45:31  5-MIN KARB 310545Z AUTO 21009KT 10SM -RA SCT045 OVC080 13/12 A2967 1070 93 1100 210/09 RMK AO2 P0003 T01280117
94889KARB ARB20160331005016603/31/16 00:50:31  5-MIN KARB 310550Z AUTO 20010KT 8SM -RA SCT047 BKN070 OVC080 13/12 A2967 1080 93 1100 210/10 RMK AO2 SLP045 P0003 60005 T01280117 10144 20128 58008
94889KARB ARB20160331005513503/31/16 00:55:31  5-MIN KARB 310555Z AUTO 21010KT 8SM -RA SCT047 BKN070 OVC080 13/12 A2966 1080 93 1100 210/10 RMK AO2 P0000 T01280117
94889KARB ARB20160331010014103/31/16 01:00:31  5-MIN KARB 310600Z AUTO 21011G17KT 8SM -RA SCT049 BKN060 OVC080 13/12 A2966 1080 93 1100 210/11G17 RMK AO2 P0001 T01280117
94889KARB ARB20160331010514103/31/16 01:05:31  5-MIN KARB 310605Z AUTO 21010G17KT 8SM -RA FEW047 BKN060 OVC075 13/12 A2966 1080 93 1100 210/10G17 RMK AO2 P0001 T01280117
94889KARB ARB20160331011013503/31/16 01:10:31  5-MIN KARB 310610Z AUTO 20011KT 7SM -RA FEW047 BKN060 OVC075 13/12 A2966 1090 93 1100 210/11 RMK AO2 P0001 T01280117
94889KARB ARB20160331011513103/31/16 01:15:31  5-MIN KARB 310615Z AUTO 20012KT 6SM -RA BR SCT055 OVC070 13/12 A2965 1090 93 1100 200/12 RMK AO2 P0002 T01280117
94889KARB ARB20160331012013603/31/16 01:20:31  5-MIN KARB 310620Z AUTO 20010G18KT 5SM RA BR BKN060 OVC070 13/12 A2965 1090 93 1100 210/10G18 RMK AO2 P0003 T01280117
94889KARB ARB20160331012513703/31/16 01:25:31  5-MIN KARB 310625Z AUTO 20010G18KT 5SM -RA BR SCT055 OVC070 13/12 A2965 1100 93 1100 210/10G18 RMK AO2 P0004 T01280117
94889KARB ARB20160331013013803/31/16 01:30:31  5-MIN KARB 310630Z AUTO 21009KT 5SM -RA BR FEW013 SCT055 OVC070 13/12 A2964 1100 93 1100 210/09 RMK AO2 P0004 T01280117
94889KARB ARB20160331013513803/31/16 01:35:31  5-MIN KARB 310635Z AUTO 20012KT 6SM -RA BR FEW013 BKN060 OVC075 13/12 A2964 1100 93 1100 210/12 RMK AO2 P0005 T01280117
94889KARB ARB20160331014013103/31/16 01:40:31  5-MIN KARB 310640Z AUTO 20011KT 6SM -RA BR SCT013 OVC070 13/12 A2964 1100 93 1100 210/11 RMK AO2 P0005 T01280117
94889KARB ARB20160331014514403/31/16 01:45:31  5-MIN KARB 310645Z AUTO 20013G18KT 6SM -RA BR BKN013 BKN055 OVC080 13/12 A2963 1110 93 1100 210/13G18 RMK AO2 P0006 T01280117
94889KARB ARB20160331015015103/31/16 01:50:31  5-MIN KARB 310650Z AUTO 20010G18KT 6SM -RA BR BKN011 BKN055 OVC080 13/12 A2963 1110 93 1100 210/10G18 RMK AO2 SLP032 P0007 T01280117
94889KARB ARB20160331015513103/31/16 01:55:31  5-MIN KARB 310655Z AUTO 20011KT 6SM -RA BR BKN011 OVC060 13/12 A2963 1110 93 1200 200/11 RMK AO2 P0000 T01280117
94889KARB ARB20160331020014403/31/16 02:00:31  5-MIN KARB 310700Z AUTO 20013G19KT 6SM -RA BR SCT007 BKN012 OVC070 13/12 A2962 1120 93 1200 210/13G19 RMK AO2 P0001 T01280117
94889KARB ARB20160331020514403/31/16 02:05:31  5-MIN KARB 310705Z AUTO 20013G19KT 6SM -RA BR BKN007 BKN012 OVC070 13/12 A2962 1120 93 1200 210/13G19 RMK AO2 P0001 T01280117
94889KARB ARB20160331021014103/31/16 02:10:31  5-MIN KARB 310710Z AUTO 20011G19KT 7SM -RA BKN007 BKN012 OVC060 13/12 A2962 1120 93 1200 210/11G19 RMK AO2 P0002 T01280117
94889KARB ARB20160331021513803/31/16 02:15:31  5-MIN KARB 310715Z AUTO 20012KT 6SM -RA BR BKN007 BKN041 OVC060 13/12 A2961 1130 93 1200 200/12 RMK AO2 P0002 T01280117
94889KARB ARB20160331022014403/31/16 02:20:31  5-MIN KARB 310720Z AUTO 20014G18KT 6SM -RA BR BKN007 BKN044 OVC075 13/12 A2961 1130 93 1200 200/14G18 RMK AO2 P0002 T01280117
94889KARB ARB20160331022514103/31/16 02:25:31  5-MIN KARB 310725Z AUTO 20013G20KT 7SM -RA SCT007 BKN044 OVC075 13/12 A2961 1130 93 1200 210/13G20 RMK AO2 P0003 T01280117
94889KARB ARB20160331023014103/31/16 02:30:31  5-MIN KARB 310730Z AUTO 20013G21KT 7SM -RA SCT009 BKN046 OVC070 13/12 A2960 1140 93 1200 210/13G21 RMK AO2 P0003 T01280117
94889KARB ARB20160331023514403/31/16 02:35:31  5-MIN KARB 310735Z AUTO 20012G21KT 6SM -RA BR FEW009 BKN047 OVC055 13/12 A2960 1140 93 1200 200/12G21 RMK AO2 P0004 T01280117
94889KARB ARB20160331024014403/31/16 02:40:31  5-MIN KARB 310740Z AUTO 20012G20KT 6SM -RA BR FEW009 BKN049 OVC060 13/12 A2959 1140 93 1200 210/12G20 RMK AO2 P0004 T01280117
94889KARB ARB20160331024514103/31/16 02:45:31  5-MIN KARB 310745Z AUTO 19012G20KT 7SM -RA FEW011 BKN055 OVC080 13/12 A2959 1150 93 1200 200/12G20 RMK AO2 P0004 T01280117
94889KARB ARB20160331025014803/31/16 02:50:31  5-MIN KARB 310750Z AUTO 19012G20KT 7SM -RA FEW011 BKN065 OVC080 13/12 A2959 1150 93 1200 200/12G20 RMK AO2 SLP018 P0005 T01280117
94889KARB ARB20160331025514103/31/16 02:55:31  5-MIN KARB 310755Z AUTO 20013G22KT 8SM -RA FEW011 BKN060 OVC080 13/12 A2958 1150 93 1200 200/13G22 RMK AO2 P0000 T01280117
94889KARB ARB20160331030014103/31/16 03:00:31  5-MIN KARB 310800Z AUTO 20011G22KT 9SM -RA FEW009 BKN060 OVC080 13/12 A2958 1160 89 1300 200/11G22 RMK AO2 P0000 T01330117
94889KARB ARB20160331030513503/31/16 03:05:31  5-MIN KARB 310805Z AUTO 19011KT 9SM -RA FEW009 BKN055 OVC080 13/12 A2958 1160 93 1200 200/11 RMK AO2 P0000 T01280117
94889KARB ARB20160331031013503/31/16 03:10:31  5-MIN KARB 310810Z AUTO 20013KT 9SM -RA FEW009 BKN035 OVC075 13/12 A2958 1160 93 1200 200/13 RMK AO2 P0000 T01280117
94889KARB ARB20160331031513503/31/16 03:15:31  5-MIN KARB 310815Z AUTO 19011KT 8SM -RA SCT009 BKN035 OVC075 13/12 A2957 1160 93 1200 200/11 RMK AO2 P0001 T01280117
94889KARB ARB20160331032013503/31/16 03:20:31  5-MIN KARB 310820Z AUTO 19012KT 8SM -RA SCT009 BKN035 OVC075 13/12 A2957 1160 93 1200 200/12 RMK AO2 P0001 T01280117
94889KARB ARB20160331032514103/31/16 03:25:31  5-MIN KARB 310825Z AUTO 19013G18KT 8SM -RA SCT009 BKN014 OVC034 13/12 A2957 1170 93 1200 200/13G18 RMK AO2 P0001 T01280117
94889KARB ARB20160331033014103/31/16 03:30:31  5-MIN KARB 310830Z AUTO 20015G22KT 8SM -RA BKN009 BKN030 OVC034 13/12 A2957 1170 93 1200 200/15G22 RMK AO2 P0001 T01280117
94889KARB ARB20160331033514103/31/16 03:35:31  5-MIN KARB 310835Z AUTO 19016G22KT 8SM -RA SCT009 SCT013 OVC032 13/12 A2956 1170 93 1200 200/16G22 RMK AO2 P0001 T01280117
94889KARB ARB20160331034013503/31/16 03:40:31  5-MIN KARB 310840Z AUTO 19012KT 7SM -RA SCT009 SCT013 OVC032 13/12 A2956 1170 93 1200 200/12 RMK AO2 P0002 T01280117
94889KARB ARB20160331034514103/31/16 03:45:31  5-MIN KARB 310845Z AUTO 19013G20KT 7SM -RA SCT009 BKN013 OVC032 13/12 A2956 1180 93 1200 200/13G20 RMK AO2 P0002 T01280117
94889KARB ARB20160331035016203/31/16 03:50:31  5-MIN KARB 310850Z AUTO 19014G20KT 5SM RA BR BKN009 BKN013 OVC030 13/12 A2956 1180 93 1200 200/14G20 RMK AO2 SLP008 P0003 60015 T01280117 58018
94889KARB ARB20160331035514403/31/16 03:55:31  5-MIN KARB 310855Z AUTO 19010G20KT 5SM -RA BR BKN009 BKN013 OVC030 13/12 A2956 1180 93 1200 200/10G20 RMK AO2 P0000 T01280117
94889KARB ARB20160331040013803/31/16 04:00:31  5-MIN KARB 310900Z AUTO 18012KT 6SM -RA BR BKN009 BKN015 OVC030 12/12 A2955 1180 96 1200 190/12 RMK AO2 P0000 T01220117
94889KARB ARB20160331040513703/31/16 04:05:31  5-MIN KARB 310905Z AUTO 19014G20KT 6SM -RA BR BKN009 OVC013 12/12 A2955 1180 96 1200 190/14G20 RMK AO2 P0001 T01220117
94889KARB ARB20160331041014903/31/16 04:10:31  5-MIN KARB 310910Z AUTO 19016G25KT 6SM -RA BR BKN009 OVC015 12/11 A2955 1190 93 1200 190/16G25 RMK AO2 CIG 007V011 P0001 T01220111
94889KARB ARB20160331041514903/31/16 04:15:31  5-MIN KARB 310915Z AUTO 19012G25KT 6SM -RA BR BKN009 OVC014 12/11 A2954 1190 93 1200 200/12G25 RMK AO2 CIG 006V011 P0001 T01220111
94889KARB ARB20160331042014603/31/16 04:20:31  5-MIN KARB 310920Z AUTO 19014G22KT 7SM -RA BKN009 OVC014 12/11 A2954 1190 93 1200 200/14G22 RMK AO2 CIG 006V011 P0001 T01220111
94889KARB ARB20160331042513903/31/16 04:25:31  5-MIN KARB 310925Z AUTO 19014G19KT 7SM -RA OVC009 12/11 A2954 1200 93 1200 200/14G19 RMK AO2 CIG 006V011 P0001 T01220111
94889KARB ARB20160331043014803/31/16 04:30:31  5-MIN KARB 310930Z AUTO 19013G21KT 7SM BKN009 OVC013 12/11 A2954 1200 93 1200 200/13G21 RMK AO2 RAE28 CIG 006V012 P0001 T01220111
94889KARB ARB20160331043515103/31/16 04:35:31  5-MIN KARB 310935Z AUTO 20013G21KT 6SM BR BKN009 OVC013 12/11 A2954 1200 93 1200 200/13G21 RMK AO2 RAE28 CIG 006V011 P0001 T01220111
94889KARB ARB20160331044014403/31/16 04:40:31  5-MIN KARB 310940Z AUTO 19013G23KT 5SM BR OVC009 12/11 A2954 1200 93 1200 200/13G23 RMK AO2 RAE28 CIG 006V013 P0001 T01220111
94889KARB ARB20160331044514403/31/16 04:45:31  5-MIN KARB 310945Z AUTO 20014G23KT 4SM BR OVC009 12/11 A2954 1200 93 1200 210/14G23 RMK AO2 RAE28 CIG 006V011 P0001 T01220111
94889KARB ARB20160331045015803/31/16 04:50:31  5-MIN KARB 310950Z AUTO 20012G20KT 4SM BR BKN007 OVC013 12/11 A2954 1200 93 1200 210/12G20 RMK AO2 RAE28 CIG 006V009 SLP001 P0001 T01220111
94889KARB ARB20160331045513903/31/16 04:55:31  5-MIN KARB 310955Z AUTO 21014G22KT 4SM BR BKN007 OVC011 12/11 A2954 1200 93 1200 220/14G22 RMK AO2 CIG 006V009 T01220111
94889KARB ARB20160331050015703/31/16 05:00:31  5-MIN KARB 311000Z AUTO 21014G22KT 4SM -RA BR BKN007 OVC011 12/11 A2953 1200 93 1200 210/14G22 RMK AO2 RAB0958 CIG 005V010 P0000 T01220111
94889KARB ARB20160331050515003/31/16 05:05:31  5-MIN KARB 311005Z AUTO 21015G22KT 4SM -RA BR OVC007 12/11 A2953 1200 93 1200 220/15G22 RMK AO2 RAB0958 CIG 005V010 P0000 T01220111
94889KARB ARB20160331051015003/31/16 05:10:31  5-MIN KARB 311010Z AUTO 21013G21KT 4SM -RA BR OVC007 12/11 A2953 1210 93 1200 210/13G21 RMK AO2 RAB0958 CIG 005V010 P0000 T01220111
94889KARB ARB20160331051515703/31/16 05:15:31  5-MIN KARB 311015Z AUTO 20015G24KT 4SM -RA BR BKN007 OVC012 12/11 A2953 1210 93 1200 210/15G24 RMK AO2 RAB0958 CIG 005V010 P0001 T01220111
94889KARB ARB20160331052015603/31/16 05:20:31  5-MIN KARB 311020Z AUTO 21016G24KT 5SM BR BKN007 OVC012 12/11 A2953 1210 93 1200 210/16G24 RMK AO2 RAB0958E20 CIG 005V010 P0001 T01220111
94889KARB ARB20160331052515603/31/16 05:25:31  5-MIN KARB 311025Z AUTO 21014G22KT 5SM BR BKN007 OVC012 12/11 A2953 1210 93 1200 220/14G22 RMK AO2 RAB0958E20 CIG 005V010 P0001 T01220111
94889KARB ARB20160331053015003/31/16 05:30:31  5-MIN KARB 311030Z AUTO 21014G22KT 6SM -RA BR OVC009 12/11 A2953 1210 93 1200 220/14G22 RMK AO2 RAB0958 CIG 006V012 P0001 T01220111
94889KARB ARB20160331053514703/31/16 05:35:31  5-MIN KARB 311035Z AUTO 21016G24KT 7SM -RA OVC009 12/11 A2953 1210 93 1200 210/16G24 RMK AO2 RAB0958 CIG 006V014 P0001 T01220111
94889KARB ARB20160331054014603/31/16 05:40:31  5-MIN KARB 311040Z AUTO 20015G24KT 9SM OVC009 12/11 A2952 1210 93 1200 210/15G24 RMK AO2 RAB0958E36 CIG 006V014 P0001 T01220111
94889KARB ARB20160331054514703/31/16 05:45:31  5-MIN KARB 311045Z AUTO 21012G23KT 10SM OVC009 12/11 A2953 1210 93 1200 220/12G23 RMK AO2 RAB0958E36 CIG 006V014 P0001 T01220111
94889KARB ARB20160331055016103/31/16 05:50:31  5-MIN KARB 311050Z AUTO 21013G23KT 8SM -RA BKN009 OVC013 12/11 A2952 1210 93 1200 220/13G23 RMK AO2 RAB0958 CIG 006V011 SLP997 P0001 T01220111
94889KARB ARB20160331055512703/31/16 05:55:31  5-MIN KARB 311055Z AUTO 21012G20KT 7SM -RA OVC009 12/11 A2952 1210 93 1200 210/12G20 RMK AO2 P0000 T01220111
94889KARB ARB20160331060014203/31/16 06:00:31  5-MIN KARB 311100Z AUTO 20011G20KT 6SM -RA BR OVC009 12/11 A2952 1210 93 1200 210/11G20 RMK AO2 CIG 007V014 P0000 T01220111
94889KARB ARB20160331060512403/31/16 06:05:31  5-MIN KARB 311105Z AUTO 20011KT 6SM -RA BR OVC011 12/11 A2952 1210 93 1200 210/11 RMK AO2 P0000 T01220111
94889KARB ARB20160331061012103/31/16 06:10:31  5-MIN KARB 311110Z AUTO 20012KT 8SM -RA OVC011 12/11 A2952 1210 93 1200 200/12 RMK AO2 P0000 T01220111
94889KARB ARB20160331061513703/31/16 06:15:31  5-MIN KARB 311115Z AUTO 21013G20KT 10SM BKN011 OVC017 12/11 A2952 1210 93 1200 210/13G20 RMK AO2 RAE14 P0000 T01220111
94889KARB ARB20160331062012903/31/16 06:20:31  5-MIN KARB 311120Z AUTO 20012G20KT 9SM OVC013 12/11 A2952 1210 93 1200 200/12G20 RMK AO2 RAE14 P0000 T01220111
94889KARB ARB20160331062512103/31/16 06:25:31  5-MIN KARB 311125Z AUTO 20011KT 7SM -RA OVC013 12/11 A2952 1210 93 1200 210/11 RMK AO2 P0000 T01220111
94889KARB ARB20160331063012403/31/16 06:30:31  5-MIN KARB 311130Z AUTO 21012KT 5SM -RA BR OVC013 12/11 A2952 1210 93 1200 210/12 RMK AO2 P0001 T01220111
94889KARB ARB20160331063512403/31/16 06:35:31  5-MIN KARB 311135Z AUTO 20010KT 4SM -RA BR OVC013 12/11 A2952 1210 93 1200 200/10 RMK AO2 P0003 T01220111
94889KARB ARB20160331064012403/31/16 06:40:31  5-MIN KARB 311140Z AUTO 20012KT 3SM +RA BR OVC013 12/11 A2952 1210 93 1200 210/12 RMK AO2 P0005 T01220111
94889KARB ARB20160331064512303/31/16 06:45:31  5-MIN KARB 311145Z AUTO 20012KT 3SM RA BR OVC011 12/11 A2952 1210 93 1200 210/12 RMK AO2 P0006 T01220111
94889KARB ARB20160331065018503/31/16 06:50:31  5-MIN KARB 311150Z AUTO 20013G20KT 4SM RA BR BKN011 OVC015 12/11 A2953 1210 93 1200 210/13G20 RMK AO2 CIG 007V012 SLP997 P0008 60025 70030 T01220111 10133 20122 58024
94889KARB ARB20160331065513003/31/16 06:55:31  5-MIN KARB 311155Z AUTO 20010G20KT 5SM -RA BR OVC011 12/11 A2952 1210 93 1200 210/10G20 RMK AO2 P0000 T01220111
94889KARB ARB20160331070013503/31/16 07:00:31  5-MIN KARB 311200Z 20012KT 7SM -RA BKN011 OVC016 12/11 A2952 1210 93 1200 210/12 RMK AO2 CIG 007V012 P0000 T01220111
94889KARB ARB20160331070513703/31/16 07:05:31  5-MIN KARB 311205Z 20013KT 9SM BKN011 OVC016 12/11 A2952 1210 93 1200 210/13 RMK AO2 RAE03 CIG 007V012 P0000 T01220111
94889KARB ARB20160331071014303/31/16 07:10:31  5-MIN KARB 311210Z 20013G20KT 9SM BKN010 OVC014 12/11 A2952 1210 93 1200 210/13G20 RMK AO2 RAE03 CIG 007V011 P0000 T01220111
94889KARB ARB20160331071513103/31/16 07:15:31  5-MIN KARB 311215Z 20013G20KT 7SM BKN010 OVC016 12/11 A2952 1210 93 1200 210/13G20 RMK AO2 RAE03 P0000 T01220111
94889KARB ARB20160331072013803/31/16 07:20:31  5-MIN KARB 311220Z 20011KT 5SM -RA BR BKN009 OVC016 12/11 A2952 1210 93 1200 210/11 RMK AO2 CIG 007V011 P0001 T01220111
94889KARB ARB20160331072512603/31/16 07:25:31  5-MIN KARB 311225Z 20012KT 4SM -RA BR BKN009 OVC016 12/11 A2952 1210 93 1200 210/12 RMK AO2 P0001 T01220111
94889KARB ARB20160331073012603/31/16 07:30:31  5-MIN KARB 311230Z 20012KT 3SM -RA BR BKN009 OVC016 12/11 A2952 1210 93 1200 210/12 RMK AO2 P0002 T01220111
94889KARB ARB20160331073512603/31/16 07:35:31  5-MIN KARB 311235Z 20013KT 3SM -RA BR BKN009 OVC016 12/11 A2952 1210 93 1200 210/13 RMK AO2 P0003 T01220111
94889KARB ARB20160331074013203/31/16 07:40:31  5-MIN KARB 311240Z 20013G19KT 4SM -RA BR BKN009 OVC016 12/11 A2952 1220 96 1100 210/13G19 RMK AO2 P0003 T01170111
94889KARB ARB20160331074512603/31/16 07:45:31  5-MIN KARB 311245Z 20011KT 5SM -RA BR BKN009 OVC016 12/11 A2952 1220 93 1200 200/11 RMK AO2 P0003 T01220111
94889KARB ARB20160331075013903/31/16 07:50:31  5-MIN KARB 311250Z 20014G21KT 5SM -RA BR BKN009 OVC016 12/11 A2951 1220 93 1200 210/14G21 RMK AO2 SLP993 P0003 T01220111
94889KARB ARB20160331075514403/31/16 07:55:31  5-MIN KARB 311255Z 20014G21KT 5SM -RA BR BKN009 OVC014 12/11 A2951 1220 93 1200 210/14G21 RMK AO2 CIG 006V010 P0000 T01220111
94889KARB ARB20160331080014403/31/16 08:00:31  5-MIN KARB 311300Z 20012G20KT 5SM -RA BR BKN008 OVC014 12/11 A2951 1220 93 1200 210/12G20 RMK AO2 CIG 006V011 P0001 T01220111
94889KARB ARB20160331080513603/31/16 08:05:31  5-MIN KARB 311305Z 20014G20KT 4SM RA BR OVC010 12/11 A2951 1220 93 1200 210/14G20 RMK AO2 CIG 007V013 P0002 T01220111
94889KARB ARB20160331081014303/31/16 08:10:31  5-MIN KARB 311310Z 19014G20KT 3SM RA BR BKN008 OVC013 12/12 A2951 1220 96 1200 200/14G20 RMK AO2 CIG 007V010 P0004 T01220117
94889KARB ARB20160331081513603/31/16 08:15:31  5-MIN KARB 311315Z 20016G21KT 3SM RA BR OVC010 12/12 A2951 1220 96 1200 200/16G21 RMK AO2 CIG 007V013 P0005 T01220117
94889KARB ARB20160331082013603/31/16 08:20:31  5-MIN KARB 311320Z 21014G22KT 3SM RA BR OVC010 12/11 A2951 1220 93 1200 210/14G22 RMK AO2 CIG 007V013 P0006 T01220111
94889KARB ARB20160331082513603/31/16 08:25:31  5-MIN KARB 311325Z 21016G22KT 3SM RA BR OVC010 12/12 A2951 1220 96 1200 210/16G22 RMK AO2 CIG 007V013 P0008 T01220117
94889KARB ARB20160331083015803/31/16 08:30:31  5-MIN KARB 311330Z 21013G27KT 2 1/2SM RA BR OVC010 13/12 A2951 1220 93 1300 220/13G27 RMK AO2 PK WND 20027/1326 CIG 006V013 P0011 T01280117
94889KARB ARB20160331083515803/31/16 08:35:31  5-MIN KARB 311335Z 20014G27KT 2 1/2SM RA BR OVC010 13/12 A2951 1230 93 1300 210/14G27 RMK AO2 PK WND 20027/1326 CIG 006V013 P0012 T01280117
94889KARB ARB20160331084015803/31/16 08:40:31  5-MIN KARB 311340Z 20015G21KT 2 1/2SM RA BR OVC010 13/12 A2950 1230 93 1300 210/15G21 RMK AO2 PK WND 20027/1326 CIG 006V014 P0014 T01280117
94889KARB ARB20160331084516203/31/16 08:45:31  5-MIN KARB 311345Z 21017G25KT 3SM -RA BR BKN010 OVC016 13/12 A2950 1230 93 1300 210/17G25 RMK AO2 PK WND 20027/1326 CIG 006V012 P0014 T01280117
94889KARB ARB20160331085015103/31/16 08:50:31  5-MIN KARB 311350Z 21015G25KT 4SM RA BR BKN010 OVC014 13/12 A2950 1230 93 1300 220/15G25 RMK AO2 PK WND 20027/1326 CIG 006V012 P0015
94889KARB ARB20160331085515503/31/16 08:55:31  5-MIN KARB 311355Z 20017G26KT 5SM -RA BR OVC010 13/12 A2950 1230 93 1300 210/17G26 RMK AO2 PK WND 21026/1355 CIG 006V013 P0000 T01280117
94889KARB ARB20160331090015503/31/16 09:00:31  5-MIN KARB 311400Z 20015G26KT 5SM -RA BR OVC010 13/12 A2949 1240 93 1300 210/15G26 RMK AO2 PK WND 21026/1355 CIG 007V013 P0001 T01280117
94889KARB ARB20160331090516103/31/16 09:05:31  5-MIN KARB 311405Z 20018G22KT 4SM RA BR BKN010 OVC013 13/12 A2949 1240 93 1300 210/18G22 RMK AO2 PK WND 21026/1355 CIG 007V011 P0002 T01280117
94889KARB ARB20160331091016203/31/16 09:10:31  5-MIN KARB 311410Z 20014G22KT 4SM -RA BR BKN009 OVC013 13/12 A2949 1240 93 1300 210/14G22 RMK AO2 PK WND 21026/1355 CIG 007V011 P0003 T01280117
94889KARB ARB20160331091515503/31/16 09:15:31  5-MIN KARB 311415Z 20016G22KT 4SM -RA BR OVC009 13/12 A2949 1240 93 1300 210/16G22 RMK AO2 PK WND 21026/1355 CIG 006V011 P0003 T01280117
94889KARB ARB20160331092015403/31/16 09:20:31  5-MIN KARB 311420Z 20017G24KT 4SM RA BR OVC009 13/12 A2949 1240 93 1300 210/17G24 RMK AO2 PK WND 21026/1355 CIG 006V011 P0005 T01280117
94889KARB ARB20160331092516103/31/16 09:25:31  5-MIN KARB 311425Z 20014G24KT 4SM RA BR BKN009 OVC015 13/12 A2949 1240 93 1300 210/14G24 RMK AO2 PK WND 21026/1355 CIG 006V011 P0005 T01280117
94889KARB ARB20160331093016103/31/16 09:30:31  5-MIN KARB 311430Z 20014G23KT 3SM RA BR BKN009 OVC015 13/12 A2949 1250 93 1300 210/14G23 RMK AO2 PK WND 21026/1355 CIG 006V011 P0007 T01280117
94889KARB ARB20160331093516103/31/16 09:35:31  5-MIN KARB 311435Z 20014G23KT 3SM RA BR BKN009 OVC015 13/12 A2948 1250 93 1300 210/14G23 RMK AO2 PK WND 21026/1355 CIG 006V013 P0008 T01280117
94889KARB ARB20160331094016103/31/16 09:40:31  5-MIN KARB 311440Z 21015G23KT 4SM RA BR BKN009 OVC015 13/12 A2949 1250 93 1300 210/15G23 RMK AO2 PK WND 21026/1355 CIG 006V013 P0008 T01280117
94889KARB ARB20160331094516203/31/16 09:45:31  5-MIN KARB 311445Z 20014G23KT 4SM -RA BR BKN009 OVC015 13/12 A2948 1250 93 1300 210/14G23 RMK AO2 PK WND 21026/1355 CIG 006V011 P0009 T01280117
94889KARB ARB20160331095018103/31/16 09:50:31  5-MIN KARB 311450Z 20013G23KT 4SM -RA BR BKN009 OVC015 13/12 A2948 1250 93 1300 210/13G23 RMK AO2 PK WND 21026/1355 CIG 007V013 SLP982 P0010 60028 T01280117 56011
94889KARB ARB20160331095514403/31/16 09:55:31  5-MIN KARB 311455Z 20014G24KT 6SM -RA BR BKN009 OVC015 13/12 A2948 1250 93 1300 210/14G24 RMK AO2 CIG 007V011 P0000 T01280117
94889KARB ARB20160331100012903/31/16 10:00:31  5-MIN KARB 311500Z 20015G24KT 7SM -RA BKN009 OVC017 13/12 A2948 1250 89 1400 210/15G24 RMK AO2 P0000 T01330117
94889KARB ARB20160331100512903/31/16 10:05:31  5-MIN KARB 311505Z 20015G23KT 7SM -RA BKN009 OVC017 13/12 A2947 1260 89 1400 210/15G23 RMK AO2 P0000 T01330117
94889KARB ARB20160331101012903/31/16 10:10:31  5-MIN KARB 311510Z 21015G23KT 7SM -RA BKN009 OVC017 13/12 A2947 1260 89 1400 210/15G23 RMK AO2 P0000 T01330117
94889KARB ARB20160331101512903/31/16 10:15:31  5-MIN KARB 311515Z 21014G21KT 8SM -RA BKN009 OVC017 13/12 A2947 1260 89 1400 210/14G21 RMK AO2 P0001 T01330117
94889KARB ARB20160331102013003/31/16 10:20:31  5-MIN KARB 311520Z 20012G21KT 10SM -RA BKN009 OVC017 13/12 A2947 1260 89 1400 210/12G21 RMK AO2 P0001 T01330117
94889KARB ARB20160331102513203/31/16 10:25:31  5-MIN KARB 311525Z 21016G21KT 10SM BKN009 OVC017 13/12 A2946 1270 93 1400 220/16G21 RMK AO2 RAE21 P0001 T01330122
94889KARB ARB20160331103013203/31/16 10:30:31  5-MIN KARB 311530Z 20017G22KT 10SM BKN009 OVC017 13/12 A2946 1270 89 1400 210/17G22 RMK AO2 RAE21 P0001 T01330117
94889KARB ARB20160331103515003/31/16 10:35:31  5-MIN KARB 311535Z 20012G27KT 10SM BKN009 OVC017 13/12 A2946 1270 89 1400 210/12G27 RMK AO2 PK WND 23027/1532 RAE21 P0001 T01330117
94889KARB ARB20160331104015003/31/16 10:40:31  5-MIN KARB 311540Z 20014G27KT 10SM BKN009 OVC017 13/12 A2946 1270 89 1400 200/14G27 RMK AO2 PK WND 23027/1532 RAE21 P0001 T01330117
94889KARB ARB20160331104515003/31/16 10:45:31  5-MIN KARB 311545Z 20017G24KT 10SM BKN009 OVC017 13/12 A2946 1270 89 1400 210/17G24 RMK AO2 PK WND 23027/1532 RAE21 P0001 T01330117
94889KARB ARB20160331105014403/31/16 10:50:31  5-MIN KARB 311550Z 20018G26KT 9SM OVC010 13/12 A2946 1270 89 1400 210/18G26 RMK AO2 PK WND 23027/1532 RAE21 CIG 008V014 P0001
94889KARB ARB20160331105512203/31/16 10:55:31  5-MIN KARB 311555Z 21017G26KT 8SM -RA OVC009 13/12 A2946 1270 89 1400 220/17G26 RMK AO2 P0000 T01330117
94889KARB ARB20160331110012203/31/16 11:00:31  5-MIN KARB 311600Z 21017G24KT 8SM -RA OVC009 13/12 A2946 1270 89 1400 210/17G24 RMK AO2 P0000 T01330117
94889KARB ARB20160331110512303/31/16 11:05:31  5-MIN KARB 311605Z 20015G24KT 10SM -RA OVC009 13/12 A2945 1280 89 1400 210/15G24 RMK AO2 P0000 T01330117
94889KARB ARB20160331111012203/31/16 11:10:31  5-MIN KARB 311610Z 21017G24KT 9SM -RA OVC009 13/12 A2945 1280 89 1400 220/17G24 RMK AO2 P0000 T01330117
94889KARB ARB20160331111512203/31/16 11:15:31  5-MIN KARB 311615Z 21015G24KT 8SM -RA OVC009 13/12 A2945 1280 89 1400 210/15G24 RMK AO2 P0000 T01330117
94889KARB ARB20160331112012203/31/16 11:20:31  5-MIN KARB 311620Z 21015G23KT 8SM -RA OVC009 13/12 A2945 1280 89 1400 210/15G23 RMK AO2 P0001 T01330117
94889KARB ARB20160331112512203/31/16 11:25:31  5-MIN KARB 311625Z 21016G23KT 9SM -RA OVC009 13/12 A2945 1280 89 1400 220/16G23 RMK AO2 P0001 T01330117
94889KARB ARB20160331113012303/31/16 11:30:31  5-MIN KARB 311630Z 21013G23KT 10SM -RA OVC009 13/12 A2945 1280 89 1400 220/13G23 RMK AO2 P0001 T01330117
94889KARB ARB20160331113512303/31/16 11:35:31  5-MIN KARB 311635Z 21013G19KT 10SM -RA OVC009 13/12 A2945 1280 89 1400 220/13G19 RMK AO2 P0001 T01330117
94889KARB ARB20160331114011703/31/16 11:40:31  5-MIN KARB 311640Z 21012KT 10SM -RA OVC009 13/12 A2945 1280 89 1400 220/12 RMK AO2 P0001 T01330117
94889KARB ARB20160331114512303/31/16 11:45:31  5-MIN KARB 311645Z 21013G21KT 10SM -RA OVC009 13/12 A2945 1280 89 1400 220/13G21 RMK AO2 P0001 T01330117
94889KARB ARB20160331115013003/31/16 11:50:31  5-MIN KARB 311650Z 21014G21KT 10SM -RA OVC009 13/12 A2944 1280 89 1400 220/14G21 RMK AO2 SLP970 P0001 T01330117
94889KARB ARB20160331115512303/31/16 11:55:31  5-MIN KARB 311655Z 21012G21KT 10SM -RA OVC011 13/12 A2944 1280 89 1400 220/12G21 RMK AO2 P0000 T01330117
94889KARB ARB20160331120012303/31/16 12:00:31  5-MIN KARB 311700Z 22013G20KT 10SM -RA OVC011 13/12 A2945 1280 89 1400 230/13G20 RMK AO2 P0000 T01330117
94889KARB ARB20160331120512503/31/16 12:05:31  5-MIN KARB 311705Z 22017G23KT 10SM OVC011 13/12 A2945 1280 89 1400 230/17G23 RMK AO2 RAE01 P0000 T01330117
94889KARB ARB20160331121012503/31/16 12:10:31  5-MIN KARB 311710Z 21012G23KT 10SM OVC011 13/12 A2944 1290 89 1400 220/12G23 RMK AO2 RAE01 P0000 T01330117
94889KARB ARB20160331121512503/31/16 12:15:31  5-MIN KARB 311715Z 22013G21KT 10SM OVC011 13/12 A2944 1280 89 1400 230/13G21 RMK AO2 RAE01 P0000 T01330117
94889KARB ARB20160331122012503/31/16 12:20:31  5-MIN KARB 311720Z 22010G19KT 10SM OVC011 13/12 A2944 1290 89 1400 230/10G19 RMK AO2 RAE01 P0000 T01330117
94889KARB ARB20160331122512503/31/16 12:25:31  5-MIN KARB 311725Z 22013G19KT 10SM OVC011 13/12 A2944 1290 89 1400 220/13G19 RMK AO2 RAE01 P0000 T01330117
94889KARB ARB20160331123012503/31/16 12:30:31  5-MIN KARB 311730Z 21013G20KT 10SM OVC011 13/12 A2944 1290 89 1400 220/13G20 RMK AO2 RAE01 P0000 T01330117
94889KARB ARB20160331123512503/31/16 12:35:31  5-MIN KARB 311735Z 21018G24KT 10SM OVC011 14/12 A2943 1290 86 1500 210/18G24 RMK AO2 RAE01 P0000 T01390117
94889KARB ARB20160331124012503/31/16 12:40:31  5-MIN KARB 311740Z 22015G24KT 10SM OVC011 14/12 A2943 1290 86 1500 230/15G24 RMK AO2 RAE01 P0000 T01390117
94889KARB ARB20160331124512503/31/16 12:45:31  5-MIN KARB 311745Z 22014G21KT 10SM OVC011 14/12 A2943 1300 86 1500 220/14G21 RMK AO2 RAE01 P0000 T01390117
94889KARB ARB20160331125015603/31/16 12:50:31  5-MIN KARB 311750Z 21016G22KT 10SM OVC011 14/12 A2943 1300 90 1500 220/16G22 RMK AO2 RAE01 SLP965 P0000 60030 T01390122 10139 20122 58015
94889KARB ARB20160331125511303/31/16 12:55:31  5-MIN KARB 311755Z 22013G22KT 10SM OVC011 14/12 A2943 1300 90 1500 220/13G22 RMK AO2 T01390122
94889KARB ARB20160331130011303/31/16 13:00:31  5-MIN KARB 311800Z 21015G23KT 10SM OVC011 14/12 A2943 1300 86 1600 220/15G23 RMK AO2 T01440122
94889KARB ARB20160331130511303/31/16 13:05:31  5-MIN KARB 311805Z 22016G23KT 10SM OVC012 14/12 A2943 1300 86 1600 220/16G23 RMK AO2 T01440122
94889KARB ARB20160331131011303/31/16 13:10:31  5-MIN KARB 311810Z 23015G22KT 10SM OVC012 14/12 A2943 1300 86 1600 230/15G22 RMK AO2 T01440122
94889KARB ARB20160331131511303/31/16 13:15:31  5-MIN KARB 311815Z 21012G22KT 10SM OVC014 14/12 A2943 1300 86 1600 220/12G22 RMK AO2 T01440122
94889KARB ARB20160331132011303/31/16 13:20:31  5-MIN KARB 311820Z 21014G25KT 10SM OVC014 14/12 A2942 1300 86 1600 220/14G25 RMK AO2 T01440122
94889KARB ARB20160331132511303/31/16 13:25:31  5-MIN KARB 311825Z 21015G25KT 10SM OVC014 15/12 A2942 1310 83 1700 220/15G25 RMK AO2 T01500122
94889KARB ARB20160331133011303/31/16 13:30:31  5-MIN KARB 311830Z 21013G21KT 10SM OVC014 15/12 A2942 1310 83 1700 220/13G21 RMK AO2 T01500122
94889KARB ARB20160331133511303/31/16 13:35:31  5-MIN KARB 311835Z 21012G22KT 10SM OVC014 15/13 A2941 1310 86 1700 220/12G22 RMK AO2 T01500128
94889KARB ARB20160331134013103/31/16 13:40:31  5-MIN KARB 311840Z 21021G26KT 10SM OVC014 15/12 A2941 1320 83 1700 220/21G26 RMK AO2 PK WND 22026/1839 T01500122
94889KARB ARB20160331134513103/31/16 13:45:31  5-MIN KARB 311845Z 22015G26KT 10SM OVC015 15/12 A2941 1320 83 1700 220/15G26 RMK AO2 PK WND 22026/1839 T01500122
94889KARB ARB20160331135012103/31/16 13:50:31  5-MIN KARB 311850Z 22017G26KT 10SM OVC015 16/13 A2941 1320 83 1700 220/17G26 RMK AO2 PK WND 22026/1839
94889KARB ARB20160331135511303/31/16 13:55:31  5-MIN KARB 311855Z 22014G26KT 10SM OVC015 16/13 A2941 1320 83 1700 220/14G26 RMK AO2 T01560128
94889KARB ARB20160331140011303/31/16 14:00:31  5-MIN KARB 311900Z 21015G25KT 10SM OVC017 16/13 A2940 1330 83 1700 220/15G25 RMK AO2 T01560128
94889KARB ARB20160331140511303/31/16 14:05:31  5-MIN KARB 311905Z 21013G25KT 10SM OVC017 16/13 A2939 1340 83 1800 220/13G25 RMK AO2 T01560128
94889KARB ARB20160331141011303/31/16 14:10:31  5-MIN KARB 311910Z 21016G24KT 10SM OVC017 16/13 A2939 1340 83 1800 220/16G24 RMK AO2 T01560128
94889KARB ARB20160331141511303/31/16 14:15:31  5-MIN KARB 311915Z 21013G24KT 10SM OVC017 16/13 A2938 1340 83 1800 220/13G24 RMK AO2 T01560128
94889KARB ARB20160331142011303/31/16 14:20:31  5-MIN KARB 311920Z 21013G21KT 10SM OVC018 16/13 A2938 1350 83 1800 220/13G21 RMK AO2 T01560128
94889KARB ARB20160331142512003/31/16 14:25:31  5-MIN KARB 311925Z 21015G21KT 10SM BKN018 OVC023 16/13 A2937 1350 80 1800 210/15G21 RMK AO2 T01610128
94889KARB ARB20160331143011303/31/16 14:30:31  5-MIN KARB 311930Z 21015G23KT 10SM OVC018 16/13 A2937 1350 83 1800 220/15G23 RMK AO2 T01610133
94889KARB ARB20160331143512003/31/16 14:35:31  5-MIN KARB 311935Z 21016G23KT 10SM BKN018 OVC026 16/13 A2937 1350 80 1800 220/16G23 RMK AO2 T01610128
94889KARB ARB20160331144012003/31/16 14:40:31  5-MIN KARB 311940Z 20014G21KT 10SM BKN018 OVC024 16/13 A2937 1350 80 1800 210/14G21 RMK AO2 T01610128
94889KARB ARB20160331144511303/31/16 14:45:31  5-MIN KARB 311945Z 21011G21KT 10SM OVC020 16/13 A2936 1360 83 1800 220/11G21 RMK AO2 T01610133
94889KARB ARB20160331145011403/31/16 14:50:31  5-MIN KARB 311950Z 20011KT 10SM OVC020 16/13 A2936 1360 83 1900 210/11 RMK AO2 SLP941 T01610133
94889KARB ARB20160331145511303/31/16 14:55:31  5-MIN KARB 311955Z 20014G18KT 10SM OVC020 16/13 A2936 1370 83 1900 210/14G18 RMK AO2 T01610133
94889KARB ARB20160331150011303/31/16 15:00:31  5-MIN KARB 312000Z 21015G23KT 10SM OVC021 16/13 A2936 1360 83 1900 220/15G23 RMK AO2 T01610133
94889KARB ARB20160331150511303/31/16 15:05:31  5-MIN KARB 312005Z 21015G23KT 10SM OVC021 16/13 A2936 1360 83 1900 210/15G23 RMK AO2 T01610133
94889KARB ARB20160331151011303/31/16 15:10:31  5-MIN KARB 312010Z 20014G22KT 10SM OVC021 16/13 A2936 1360 83 1800 210/14G22 RMK AO2 T01610133
94889KARB ARB20160331151511303/31/16 15:15:31  5-MIN KARB 312015Z 21013G23KT 10SM OVC020 16/13 A2936 1360 83 1800 210/13G23 RMK AO2 T01610133
94889KARB ARB20160331152011303/31/16 15:20:31  5-MIN KARB 312020Z 20011G23KT 10SM OVC020 16/13 A2936 1360 83 1800 210/11G23 RMK AO2 T01610133
94889KARB ARB20160331152511303/31/16 15:25:31  5-MIN KARB 312025Z 20015G21KT 10SM OVC020 16/13 A2937 1360 83 1800 210/15G21 RMK AO2 T01610133
94889KARB ARB20160331153011303/31/16 15:30:31  5-MIN KARB 312030Z 20017G21KT 10SM OVC020 16/13 A2936 1360 83 1800 210/17G21 RMK AO2 T01610133
94889KARB ARB20160331153511303/31/16 15:35:31  5-MIN KARB 312035Z 21012G21KT 10SM OVC020 16/13 A2936 1360 83 1800 210/12G21 RMK AO2 T01610133
94889KARB ARB20160331154010703/31/16 15:40:31  5-MIN KARB 312040Z 21013KT 10SM OVC020 17/13 A2937 1360 80 1900 210/13 RMK AO2 T01670133
94889KARB ARB20160331154511303/31/16 15:45:31  5-MIN KARB 312045Z 19015G20KT 10SM OVC020 17/13 A2937 1360 80 1900 200/15G20 RMK AO2 T01670133
94889KARB ARB20160331155012603/31/16 15:50:31  5-MIN KARB 312050Z 20015G21KT 10SM OVC022 17/13 A2936 1360 80 1900 210/15G21 RMK AO2 SLP940 T01670133 56016
94889KARB ARB20160331155511303/31/16 15:55:31  5-MIN KARB 312055Z 20012G21KT 10SM OVC022 17/14 A2936 1370 83 1900 210/12G21 RMK AO2 T01670139
94889KARB ARB20160331160011203/31/16 16:00:31  5-MIN KARB 312100Z AUTO 21012KT 10SM OVC022 17/14 A2936 1360 83 1900 210/12 RMK AO2 T01670139
94889KARB ARB20160331160511803/31/16 16:05:31  5-MIN KARB 312105Z AUTO 21013G20KT 10SM OVC022 17/14 A2936 1360 83 1900 210/13G20 RMK AO2 T01670139
94889KARB ARB20160331161011803/31/16 16:10:31  5-MIN KARB 312110Z AUTO 21015G20KT 10SM OVC022 17/13 A2937 1360 80 1900 210/15G20 RMK AO2 T01670133
94889KARB ARB20160331161511803/31/16 16:15:31  5-MIN KARB 312115Z AUTO 21014G22KT 10SM OVC022 17/14 A2937 1350 83 1900 210/14G22 RMK AO2 T01670139
94889KARB ARB20160331162013603/31/16 16:20:31  5-MIN KARB 312120Z AUTO 20014G26KT 10SM OVC022 17/14 A2937 1350 80 2000 210/14G26 RMK AO2 PK WND 22026/2116 T01720139
94889KARB ARB20160331162513603/31/16 16:25:31  5-MIN KARB 312125Z AUTO 21014G26KT 10SM OVC022 17/14 A2938 1350 80 2000 220/14G26 RMK AO2 PK WND 22026/2116 T01720139
94889KARB ARB20160331163013603/31/16 16:30:31  5-MIN KARB 312130Z AUTO 21017G23KT 10SM OVC022 17/13 A2938 1350 78 2000 220/17G23 RMK AO2 PK WND 22026/2116 T01720133
94889KARB ARB20160331163513603/31/16 16:35:31  5-MIN KARB 312135Z AUTO 20017G23KT 10SM OVC022 17/14 A2938 1340 80 2000 210/17G23 RMK AO2 PK WND 22026/2116 T01720139
94889KARB ARB20160331164014303/31/16 16:40:31  5-MIN KARB 312140Z AUTO 21013G25KT 10SM BKN022 OVC031 17/14 A2938 1340 80 2000 220/13G25 RMK AO2 PK WND 22026/2116 T01720139
94889KARB ARB20160331164515003/31/16 16:45:31  5-MIN KARB 312145Z AUTO 21017G25KT 10SM BKN023 BKN031 OVC037 17/14 A2938 1350 80 2000 210/17G25 RMK AO2 PK WND 22026/2116 T01720139
94889KARB ARB20160331165015003/31/16 16:50:31  5-MIN KARB 312150Z AUTO 22014G25KT 10SM BKN023 OVC031 17/14 A2938 1350 80 2000 220/14G25 RMK AO2 PK WND 22026/2116 SLP947 T01720139
94889KARB ARB20160331165512503/31/16 16:55:31  5-MIN KARB 312155Z AUTO 21013G22KT 10SM BKN023 OVC033 17/14 A2938 1350 80 2000 220/13G22 RMK AO2 T01720139
94889KARB ARB20160331170015003/31/16 17:00:31  5-MIN KARB 312200Z AUTO 22018G28KT 10SM BKN025 BKN033 OVC042 18/14 A2938 1350 78 2000 230/18G28 RMK AO2 PK WND 23028/2159 T01780139
94889KARB ARB20160331170515003/31/16 17:05:31  5-MIN KARB 312205Z AUTO 21014G28KT 10SM SCT024 BKN032 OVC042 18/14 A2937 1350 78 2000 220/14G28 RMK AO2 PK WND 23028/2159 T01780139
94889KARB ARB20160331171015003/31/16 17:10:31  5-MIN KARB 312210Z AUTO 21018G23KT 10SM SCT024 BKN030 OVC039 18/14 A2937 1350 78 2000 220/18G23 RMK AO2 PK WND 23028/2159 T01780139
94889KARB ARB20160331171515003/31/16 17:15:31  5-MIN KARB 312215Z AUTO 21015G25KT 10SM SCT024 BKN030 OVC047 18/14 A2937 1350 78 2000 220/15G25 RMK AO2 PK WND 23028/2159 T01780139
94889KARB ARB20160331172016203/31/16 17:20:31  5-MIN KARB 312220Z AUTO 22016G25KT 10SM FEW024 BKN039 OVC049 17/14 A2937 1350 80 2000 220/16G25 RMK AO2 PK WND 23028/2159 LTG DSNT SW T01720139
94889KARB ARB20160331172517803/31/16 17:25:31  5-MIN KARB 312225Z AUTO 21017G24KT 10SM -RA FEW028 BKN037 OVC085 17/14 A2937 1350 80 2000 220/17G24 RMK AO2 PK WND 23028/2159 LTG DSNT SW RAB21 P0000 T01720139
94889KARB ARB20160331173017703/31/16 17:30:31  5-MIN KARB 312230Z AUTO 21016G22KT 9SM -RA SCT033 BKN047 OVC090 17/14 A2936 1360 80 2000 210/16G22 RMK AO2 PK WND 23028/2159 LTG DSNT SW RAB21 P0001 T01720139
94889KARB ARB20160331173516503/31/16 17:35:31  5-MIN KARB 312235Z AUTO 20018G26KT 9SM -RA SCT033 BKN075 OVC100 17/14 A2936 1370 83 1900 210/18G26 RMK AO2 PK WND 23028/2159 RAB21 P0001 T01670139
94889KARB ARB20160331174017903/31/16 17:40:31  5-MIN KARB 312240Z AUTO 21018G26KT 10SM -RA FEW033 BKN080 OVC100 17/14 A2938 1350 83 1900 210/18G26 RMK AO2 PK WND 23028/2159 LTG DSNT S-W RAB21 P0001 T01670139
94889KARB ARB20160331174517803/31/16 17:45:31  5-MIN KARB 312245Z AUTO 22017G23KT 8SM -RA FEW033 BKN070 OVC100 17/14 A2937 1350 83 1900 230/17G23 RMK AO2 PK WND 23028/2159 LTG DSNT S-W RAB21 P0002 T01670139
94889KARB ARB20160331175018503/31/16 17:50:31  5-MIN KARB 312250Z AUTO 22013G23KT 7SM -RA FEW060 BKN070 OVC100 16/14 A2937 1350 86 1800 220/13G23 RMK AO2 PK WND 23028/2159 LTG DSNT S-W RAB21 SLP946 P0003 T01610139
94889KARB ARB20160331175515503/31/16 17:55:31  5-MIN KARB 312255Z AUTO 23015G21KT 7SM RA FEW060 BKN080 OVC100 16/14 A2937 1350 86 1800 230/15G21 RMK AO2 LTG DSNT SE-SW P0001 T01610139
94889KARB ARB20160331180015303/31/16 18:00:31  5-MIN KARB 312300Z AUTO 24014G21KT 7SM -RA FEW030 BKN070 OVC085 16/13 A2938 1340 83 1800 240/14G21 RMK AO2 LTG DSNT SE P0001 T01610133
94889KARB ARB20160331180516103/31/16 18:05:31  5-MIN KARB 312305Z AUTO 25017G24KT 3SM VCTS +RA BR FEW028 BKN070 OVC080 16/14 A2939 1330 90 1700 260/17G24 RMK AO2 LTG DSNT SE P0009 T01560139
94889KARB ARB20160331181018303/31/16 18:10:31  5-MIN KARB 312310Z AUTO 23029G49KT 1/2SM +TSRA FG BKN028 BKN033 OVC070 14/13 A2940 1330 90 1600 240/29G49 RMK AO2 PK WND 21049/2308 VIS M1/4V4 TSB08 P0028 T01440128
94889KARB ARB20160331181518303/31/16 18:15:31  5-MIN KARB 312315Z AUTO 24024G49KT 1/2SM +TSRA FG BKN028 BKN070 OVC080 14/12 A2940 1330 90 1500 250/24G49 RMK AO2 PK WND 21049/2308 LTG DSNT N TSB08 P0035 T01390122
94889KARB ARB20160331182018303/31/16 18:20:31  5-MIN KARB 312320Z AUTO 24029G38KT 3/4SM +TSRA BR BKN028 BKN043 OVC080 14/12 A2940 1330 90 1500 240/29G38 RMK AO2 PK WND 21049/2308 LTG DSNT N TSB08 P0043 T01390122
94889KARB ARB20160331182517703/31/16 18:25:31  5-MIN KARB 312325Z AUTO 23029G43KT 3/4SM VCTS +RA BR OVC028 14/12 A2939 1330 90 1600 240/29G43 RMK AO2 PK WND 21049/2308 LTG DSNT N-E TSB08E23 P0051 T01390122
94889KARB ARB20160331183018703/31/16 18:30:31  5-MIN KARB 312330Z AUTO 24022G43KT 1SM VCTS +RA BR FEW025 OVC030 14/12 A2939 1340 86 1600 250/22G43 RMK AO2 PK WND 21049/2308 LTG DSNT NE AND E TSB08E23 P0054 T01390117
94889KARB ARB20160331183517803/31/16 18:35:31  5-MIN KARB 312335Z AUTO 22023G35KT 2SM RA BKN036 OVC070 14/12 A2938 1350 83 1600 230/23G35 RMK AO2 PK WND 21049/2308 LTG DSNT NE AND E TSB08E23 P0056 T01440117
94889KARB ARB20160331184016103/31/16 18:40:31  5-MIN KARB 312340Z AUTO 22015G33KT 4SM -RA BKN038 OVC070 14/12 A2938 1340 83 1600 230/15G33 RMK AO2 PK WND 21049/2308 TSB08E23 P0056 T01440117
94889KARB ARB20160331184516103/31/16 18:45:31  5-MIN KARB 312345Z AUTO 23014G25KT 8SM -RA SCT038 BKN075 14/12 A2939 1340 86 1600 230/14G25 RMK AO2 PK WND 21049/2308 TSB08E23 P0056 T01440122
94889KARB ARB20160331185020203/31/16 18:50:31  5-MIN KARB 312350Z AUTO 23011G19KT 10SM SCT040 SCT049 BKN070 15/12 A2938 1340 83 1700 240/11G19 RMK AO2 PK WND 21049/2308 RAE48 TSB08E23 SLP949 P0056 60059 T01500122 10178 20139 55016
94889KARB ARB20160331185513203/31/16 18:55:31  5-MIN KARB 312355Z AUTO 24012G20KT 10SM SCT049 BKN070 BKN095 15/12 A2939 1340 83 1700 240/12G20 RMK AO2 T01500122
94889KARB ARB20160331190013203/31/16 19:00:31  5-MIN KARB 010000Z AUTO 23012G20KT 10SM SCT049 SCT070 BKN095 15/12 A2939 1330 83 1700 240/12G20 RMK AO2 T01500122
94889KARB ARB20160331190513303/31/16 19:05:31  5-MIN KARB 010005Z AUTO 27013KT 10SM FEW032 SCT075 BKN095 15/12 A2941 1320 83 1700 280/13 RMK AO2 PRESRR T01500122
94889KARB ARB20160331191014403/31/16 19:10:31  5-MIN KARB 010010Z AUTO 28013KT 4SM -RA BR FEW018 SCT029 BKN095 14/12 A2941 1310 86 1600 280/13 RMK AO2 RAB10 P0004 T01440122
94889KARB ARB20160331191518303/31/16 19:15:31  5-MIN KARB 010015Z AUTO 26023G28KT 4SM -RA FEW024 BKN050 OVC095 14/12 A2942 1300 83 1600 260/23G28 RMK AO2 PK WND 26028/0014 WSHFT 2359 RAB10 PRESRR P0004 T01440117
94889KARB ARB20160331192017503/31/16 19:20:31  5-MIN KARB 010020Z AUTO 25022G33KT 6SM RA FEW024 BKN055 OVC095 14/11 A2942 1310 83 1500 250/22G33 RMK AO2 PK WND 24033/0017 WSHFT 2359 RAB10 P0005 T01390111
94889KARB ARB20160331192517603/31/16 19:25:31  5-MIN KARB 010025Z AUTO 23015G33KT 7SM -RA FEW024 BKN055 OVC095 14/11 A2940 1320 80 1500 240/15G33 RMK AO2 PK WND 24033/0017 WSHFT 2359 RAB10 P0005 T01390106
94889KARB ARB20160331193017703/31/16 19:30:31  5-MIN KARB 010030Z AUTO 23015G24KT 10SM -RA FEW021 BKN070 OVC090 14/11 A2941 1320 80 1500 240/15G24 RMK AO2 PK WND 24033/0017 WSHFT 2359 RAB10 P0005 T01390106
94889KARB ARB20160331193517703/31/16 19:35:31  5-MIN KARB 010035Z AUTO 24014G21KT 10SM -RA FEW021 BKN075 OVC085 14/11 A2941 1320 80 1500 250/14G21 RMK AO2 PK WND 24033/0017 WSHFT 2359 RAB10 P0005 T01390106
94889KARB ARB20160331194017703/31/16 19:40:31  5-MIN KARB 010040Z AUTO 24011G20KT 10SM -RA FEW055 BKN075 OVC090 13/11 A2941 1310 83 1500 250/11G20 RMK AO2 PK WND 24033/0017 WSHFT 2359 RAB10 P0006 T01330106
94889KARB ARB20160331194516303/31/16 19:45:31  5-MIN KARB 010045Z AUTO 25010KT 10SM FEW055 OVC080 13/11 A2941 1310 83 1500 250/10 RMK AO2 PK WND 24033/0017 WSHFT 2359 RAB10E44 P0006 T01330106
94889KARB ARB20160331195016303/31/16 19:50:31  5-MIN KARB 010050Z AUTO 25010KT 10SM OVC085 13/11 A2942 1310 83 1500 250/10 RMK AO2 PK WND 24033/0017 WSHFT 2359 RAB10E44 SLP962 P0006 T01330106
94889KARB ARB20160331195511203/31/16 19:55:31  5-MIN KARB 010055Z AUTO 24009KT 10SM BKN085 13/11 A2943 1300 86 1400 250/09 RMK AO2 T01280106
94889KARB ARB20160331200011203/31/16 20:00:31  5-MIN KARB 010100Z AUTO 24010KT 10SM BKN085 13/10 A2943 1300 83 1400 250/10 RMK AO2 T01280100
94889KARB ARB20160331200511203/31/16 20:05:31  5-MIN KARB 010105Z AUTO 24010KT 10SM SCT085 13/10 A2943 1290 83 1400 250/10 RMK AO2 T01280100
94889KARB ARB20160331201011203/31/16 20:10:31  5-MIN KARB 010110Z AUTO 24010KT 10SM FEW090 13/10 A2944 1290 83 1400 250/10 RMK AO2 T01280100
94889KARB ARB20160331201511203/31/16 20:15:31  5-MIN KARB 010115Z AUTO 24008KT 10SM FEW090 13/10 A2944 1290 83 1400 250/08 RMK AO2 T01280100
94889KARB ARB20160331202010903/31/16 20:20:31  5-MIN KARB 010120Z AUTO 25008KT 10SM CLR 12/10 A2944 1290 86 1300 250/08 RMK AO2 T01220100
94889KARB ARB20160331202510903/31/16 20:25:31  5-MIN KARB 010125Z AUTO 25008KT 10SM CLR 12/10 A2944 1290 86 1300 260/08 RMK AO2 T01220100
94889KARB ARB20160331203010903/31/16 20:30:31  5-MIN KARB 010130Z AUTO 26007KT 10SM CLR 12/10 A2944 1290 89 1200 260/07 RMK AO2 T01170100
94889KARB ARB20160331203510903/31/16 20:35:31  5-MIN KARB 010135Z AUTO 25009KT 10SM CLR 12/09 A2945 1280 86 1200 260/09 RMK AO2 T01170094
94889KARB ARB20160331204010903/31/16 20:40:31  5-MIN KARB 010140Z AUTO 26009KT 10SM CLR 12/09 A2945 1280 86 1200 270/09 RMK AO2 T01170094
94889KARB ARB20160331204510903/31/16 20:45:31  5-MIN KARB 010145Z AUTO 27011KT 10SM CLR 12/09 A2945 1280 86 1200 280/11 RMK AO2 T01170094
94889KARB ARB20160331205011603/31/16 20:50:31  5-MIN KARB 010150Z AUTO 27009KT 10SM CLR 12/10 A2945 1280 86 1300 280/09 RMK AO2 SLP972 T01220100
94889KARB ARB20160331205510903/31/16 20:55:31  5-MIN KARB 010155Z AUTO 26009KT 10SM CLR 12/09 A2945 1280 86 1200 270/09 RMK AO2 T01170094
94889KARB ARB20160331210010903/31/16 21:00:31  5-MIN KARB 010200Z AUTO 26008KT 10SM CLR 12/09 A2945 1280 86 1200 270/08 RMK AO2 T01170094
94889KARB ARB20160331210510903/31/16 21:05:31  5-MIN KARB 010205Z AUTO 26007KT 10SM CLR 12/09 A2945 1280 86 1200 270/07 RMK AO2 T01170094
94889KARB ARB20160331211010903/31/16 21:10:31  5-MIN KARB 010210Z AUTO 26007KT 10SM CLR 11/09 A2945 1280 89 1200 260/07 RMK AO2 T01110094
94889KARB ARB20160331211510903/31/16 21:15:31  5-MIN KARB 010215Z AUTO 26007KT 10SM CLR 11/09 A2945 1280 89 1200 270/07 RMK AO2 T01110094
94889KARB ARB20160331212010903/31/16 21:20:31  5-MIN KARB 010220Z AUTO 26007KT 10SM CLR 11/09 A2945 1280 89 1200 270/07 RMK AO2 T01110094
94889KARB ARB20160331212510903/31/16 21:25:31  5-MIN KARB 010225Z AUTO 27008KT 10SM CLR 11/09 A2945 1280 89 1200 270/08 RMK AO2 T01110094
94889KARB ARB20160331213010903/31/16 21:30:31  5-MIN KARB 010230Z AUTO 26007KT 10SM CLR 11/09 A2945 1280 89 1200 270/07 RMK AO2 T01110094
94889KARB ARB20160331213510903/31/16 21:35:31  5-MIN KARB 010235Z AUTO 26008KT 10SM CLR 11/09 A2946 1270 89 1200 270/08 RMK AO2 T01110094
94889KARB ARB20160331214010903/31/16 21:40:31  5-MIN KARB 010240Z AUTO 25007KT 10SM CLR 11/09 A2946 1270 93 1100 260/07 RMK AO2 T01060094
94889KARB ARB20160331214511203/31/16 21:45:31  5-MIN KARB 010245Z AUTO 24006KT 10SM FEW060 11/09 A2946 1270 89 1100 250/06 RMK AO2 T01060089
94889KARB ARB20160331215013103/31/16 21:50:31  5-MIN KARB 010250Z AUTO 24006KT 10SM FEW055 11/09 A2946 1270 93 1100 250/06 RMK AO2 SLP976 60006 T01060094 51010
94889KARB ARB20160331215511203/31/16 21:55:31  5-MIN KARB 010255Z AUTO 23005KT 10SM FEW055 11/09 A2946 1270 89 1100 240/05 RMK AO2 T01060089
94889KARB ARB20160331220011203/31/16 22:00:31  5-MIN KARB 010300Z AUTO 23006KT 10SM FEW055 11/09 A2946 1270 89 1100 240/06 RMK AO2 T01060089
94889KARB ARB20160331220511203/31/16 22:05:31  5-MIN KARB 010305Z AUTO 23006KT 10SM FEW055 11/09 A2946 1270 89 1100 240/06 RMK AO2 T01060089
94889KARB ARB20160331221011203/31/16 22:10:31  5-MIN KARB 010310Z AUTO 23006KT 10SM FEW055 10/09 A2946 1270 93 1000 240/06 RMK AO2 T01000089
94889KARB ARB20160331221511203/31/16 22:15:31  5-MIN KARB 010315Z AUTO 24006KT 10SM FEW055 11/09 A2946 1270 89 1100 240/06 RMK AO2 T01060089
94889KARB ARB20160331222011203/31/16 22:20:31  5-MIN KARB 010320Z AUTO 23006KT 10SM FEW028 10/09 A2946 1270 93 1000 240/06 RMK AO2 T01000089
94889KARB ARB20160331222511203/31/16 22:25:31  5-MIN KARB 010325Z AUTO 23005KT 10SM SCT028 10/09 A2946 1270 93 1000 240/05 RMK AO2 T01000089
94889KARB ARB20160331223011203/31/16 22:30:31  5-MIN KARB 010330Z AUTO 23005KT 10SM SCT028 10/09 A2946 1270 93 1000 240/05 RMK AO2 T01000089
94889KARB ARB20160331223511203/31/16 22:35:31  5-MIN KARB 010335Z AUTO 24004KT 10SM BKN028 10/09 A2946 1270 93 1000 250/04 RMK AO2 T01000089
94889KARB ARB20160331224011203/31/16 22:40:31  5-MIN KARB 010340Z AUTO 24004KT 10SM BKN028 09/09 A2946 1270 96 1000 250/04 RMK AO2 T00940089
94889KARB ARB20160331224511803/31/16 22:45:31  5-MIN KARB 010345Z AUTO 24004KT 10SM BKN026 BKN031 09/08 A2945 1280 96 900 250/04 RMK AO2 T00890083
94889KARB ARB20160331225010903/31/16 22:50:31  5-MIN KARB 010350Z AUTO 24005KT 10SM SCT026 BKN031 09/09 A2946 1270 96 1000 250/05 RMK AO2
94889KARB ARB20160331225511903/31/16 22:55:31  5-MIN KARB 010355Z AUTO 24004KT 10SM SCT026 SCT033 09/09 A2946 1270 100 900 240/04 RMK AO2 T00890089
94889KARB ARB20160331230011803/31/16 23:00:31  5-MIN KARB 010400Z AUTO 23004KT 10SM SCT026 BKN033 09/09 A2946 1270 96 900 230/04 RMK AO2 T00940089
94889KARB ARB20160331230512503/31/16 23:05:31  5-MIN KARB 010405Z AUTO 23005KT 10SM FEW024 BKN030 BKN039 09/09 A2946 1270 96 900 230/05 RMK AO2 T00940089
94889KARB ARB20160331231011903/31/16 23:10:31  5-MIN KARB 010410Z AUTO 25007KT 10SM BKN030 BKN039 10/09 A2946 1270 93 1000 260/07 RMK AO2 T01000089
94889KARB ARB20160331231512603/31/16 23:15:31  5-MIN KARB 010415Z AUTO 24007KT 10SM FEW020 BKN030 BKN039 11/09 A2946 1270 93 1100 250/07 RMK AO2 T01060094
94889KARB ARB20160331232012603/31/16 23:20:31  5-MIN KARB 010420Z AUTO 24005KT 10SM SCT022 BKN030 OVC039 11/09 A2947 1260 93 1100 240/05 RMK AO2 T01060094
94889KARB ARB20160331232512603/31/16 23:25:31  5-MIN KARB 010425Z AUTO 25006KT 10SM SCT022 BKN030 OVC039 11/09 A2947 1260 93 1100 260/06 RMK AO2 T01060094
94889KARB ARB20160331233012603/31/16 23:30:31  5-MIN KARB 010430Z AUTO 25006KT 10SM FEW022 SCT029 OVC038 10/09 A2947 1260 96 1000 250/06 RMK AO2 T01000094
94889KARB ARB20160331233512603/31/16 23:35:31  5-MIN KARB 010435Z AUTO 25007KT 10SM FEW022 BKN029 OVC039 10/09 A2947 1260 96 1000 260/07 RMK AO2 T01000094
94889KARB ARB20160331234012603/31/16 23:40:31  5-MIN KARB 010440Z AUTO 24006KT 10SM FEW020 BKN026 OVC037 11/09 A2948 1250 93 1100 250/06 RMK AO2 T01060094
94889KARB ARB20160331234512603/31/16 23:45:31  5-MIN KARB 010445Z AUTO 25007KT 10SM BKN024 BKN031 OVC039 11/09 A2948 1250 89 1100 250/07 RMK AO2 T01110094
94889KARB ARB20160331235013603/31/16 23:50:31  5-MIN KARB 010450Z AUTO 26006KT 10SM BKN024 OVC035 11/09 A2948 1250 93 1100 260/06 RMK AO2 SLP983 T01060094 401780089
94889KARB ARB20160331235511903/31/16 23:55:31  5-MIN KARB 010455Z AUTO 26010KT 10SM BKN024 OVC033 11/09 A2948 1250 89 1100 270/10 RMK AO2 T01110094
